"STATION","DATE","SOURCE","LATITUDE","LONGITUDE","ELEVATION","NAME","REPORT_TYPE","CALL_SIGN","QUALITY_CONTROL","WND","CIG","VIS","TMP","DEW","SLP","GA1","GA2","GA3","GF1","MA1","MW1","MW2","OC1","REM","EQD"
"03018099999","2010-02-03T14:00:00","4","53.581575","-3.055522","11.27","WOODVALE, UK","FM-15","EGOW ","V020","160,1,N,0010,1","00390,1,C,N","004000,1,N,1","+0030,1","+0000,1","99999,9","02,5,+00210,1,99,9","07,5,+00390,1,99,9",,"07,99,1,99,9,99,9,99999,9,99,9,99,9","10061,1,99999,9","86,5",,,"MET068METAR EGOW 031355Z 16002KT 4000 SHSN FEW007 BKN013 03/M00 Q1006 GRN;",
"03018099999","2010-02-04T10:20:00","4","53.581575","-3.055522","11.27","WOODVALE, UK","FM-15","EGOW ","V020","130,1,N,0036,1","00090,1,C,N","003500,1,N,1","+0040,1","+0030,1","99999,9","07,5,+00090,1,99,9",,,"07,99,1,99,9,99,9,99999,9,99,9,99,9","10031,1,99999,9","10,1",,,"MET059METAR EGOW 041020Z 13007KT 3500 BR BKN003 04/03 Q1003 YLO2;",
"03018099999","2010-03-18T11:50:00","4","53.581575","-3.055522","11.27","WOODVALE, UK","FM-15","EGOW ","V020","170,1,N,0067,1","99999,9,C,N","008000,1,N,1","+0130,1","+0040,1","99999,9","02,5,+00900,1,99,9","04,5,+01800,1,99,9",,"04,99,1,99,9,99,9,99999,9,99,9,99,9","10091,1,99999,9","05,1",,,"MET065METAR EGOW 181150Z 17013KT 8000 HZ FEW030 SCT060 13/04 Q1009 BLU;","P01 018003SCOCIG"
"03018099999","2010-03-18T12:50:00","4","53.581575","-3.055522","11.27","WOODVALE, UK","FM-15","EGOW ","V020","180,1,N,0077,1","99999,9,C,N","011265,1,N,1","+0140,1","+0040,1","99999,9","02,5,+00900,1,99,9","04,5,+01800,1,99,9",,"04,99,1,99,9,99,9,99999,9,99,9,99,9","10071,1,99999,9",,,,"MET062METAR EGOW 181250Z 18015KT 9999 FEW030 SCT060 14/04 Q1007 BLU;","P01 018003SCOCIG"
"03018099999","2010-03-18T13:50:00","4","53.581575","-3.055522","11.27","WOODVALE, UK","FM-15","EGOW ","V020","180,1,N,0077,1","99999,9,C,N","007000,1,N,1","+0140,1","+0050,1","99999,9","02,5,+00900,1,99,9","04,5,+01800,1,99,9",,"04,99,1,99,9,99,9,99999,9,99,9,99,9","10071,1,99999,9","61,1",,,"MET066METAR EGOW 181350Z 18015KT 7000 -RA FEW030 SCT060 14/05 Q1007 WHT;","P01 018003SCOCIG"
"03018099999","2010-03-18T15:50:00","4","53.581575","-3.055522","11.27","WOODVALE, UK","FM-15","EGOW ","V020","200,1,N,0072,1","99999,9,C,N","011265,1,N,1","+0130,1","+0060,1","99999,9","02,5,+00900,1,99,9","04,5,+01800,1,99,9",,"04,99,1,99,9,99,9,99999,9,99,9,99,9","10051,1,99999,9",,,,"MET062METAR EGOW 181550Z 20014KT 9999 FEW030 SCT060 13/06 Q1005 BLU;","P01 018003SCOCIG"
"03018099999","2010-03-19T07:50:00","4","53.581575","-3.055522","11.27","WOODVALE, UK","FM-15","EGOW ","V020","230,1,N,0057,1","22000,1,9,N","011265,1,N,1","+0090,1","+0040,1","99999,9","02,5,+01440,1,99,9",,,"02,99,1,99,9,99,9,99999,9,99,9,99,9","10102,1,99999,9",,,,"MET055METAR EGOW 190750Z 23011KT 9999 FEW048 09/04 Q1010 BLU;",
"03018099999","2010-03-19T08:50:00","4","53.581575","-3.055522","11.27","WOODVALE, UK","FM-15","EGOW ","V020","240,1,N,0072,1","99999,9,9,Y","009900,1,N,1","+0090,1","+0040,1","99999,9",,,,,"10102,1,99999,9",,,,"MET049METAR EGOW 190850Z 24014KT CAVOK 09/04 Q1010 BLU;",
"03018099999","2010-03-19T09:50:00","4","53.581575","-3.055522","11.27","WOODVALE, UK","FM-15","EGOW ","V020","250,1,N,0077,1","99999,9,9,Y","009900,1,N,1","+0110,1","+0040,1","99999,9",,,,,"10102,1,99999,9",,,,"MET049METAR EGOW 190950Z 25015KT CAVOK 11/04 Q1010 BLU;",
"03018099999","2010-03-19T10:50:00","4","53.581575","-3.055522","11.27","WOODVALE, UK","FM-15","EGOW ","V020","250,1,N,0072,1","22000,1,9,N","011265,1,N,1","+0110,1","+0040,1","99999,9","02,5,+00750,1,99,9",,,"02,99,1,99,9,99,9,99999,9,99,9,99,9","10102,1,99999,9",,,,"MET055METAR EGOW 191050Z 25014KT 9999 FEW025 11/04 Q1010 BLU;",
"03018099999","2010-03-19T11:50:00","4","53.581575","-3.055522","11.27","WOODVALE, UK","FM-15","EGOW ","V020","240,1,N,0067,1","22000,1,9,N","011265,1,N,1","+0120,1","+0050,1","99999,9","02,5,+00750,1,99,9",,,"02,99,1,99,9,99,9,99999,9,99,9,99,9","10102,1,99999,9",,,,"MET055METAR EGOW 191150Z 24013KT 9999 FEW025 12/05 Q1010 BLU;",
"03018099999","2010-03-19T12:50:00","4","53.581575","-3.055522","11.27","WOODVALE, UK","FM-15","EGOW ","V020","260,1,N,0062,1","22000,1,9,N","011265,1,N,1","+0110,1","+0060,1","99999,9","02,5,+00750,1,99,9",,,"02,99,1,99,9,99,9,99999,9,99,9,99,9","10091,1,99999,9",,,,"MET055METAR EGOW 191250Z 26012KT 9999 FEW025 11/06 Q1009 BLU;",
"03018099999","2010-03-19T15:50:00","4","53.581575","-3.055522","11.27","WOODVALE, UK","FM-15","EGOW ","V020","320,1,N,0021,1","22000,1,9,N","011265,1,N,1","+0110,1","+0050,1","99999,9","02,5,+01050,1,99,9",,,"02,99,1,99,9,99,9,99999,9,99,9,99,9","10071,1,99999,9",,,,"MET055METAR EGOW 191550Z 32004KT 9999 FEW035 11/05 Q1007 BLU;",
"03018099999","2010-03-20T07:50:00","4","53.581575","-3.055522","11.27","WOODVALE, UK","FM-15","EGOW ","V020","190,1,N,0021,1","00090,1,C,N","001000,1,N,1","+0110,1","+0100,1","99999,9","07,5,+00090,1,99,9",,,"07,99,1,99,9,99,9,99999,9,99,9,99,9","09980,1,99999,9","51,1",,,"MET059METAR EGOW 200750Z 19004KT 1000 -DZ BKN003 11/10 Q0998 AMB;",
"03018099999","2010-03-20T08:50:00","4","53.581575","-3.055522","11.27","WOODVALE, UK","FM-15","EGOW ","V020","330,1,N,0026,1","00090,1,C,N","001000,1,N,1","+0090,1","+0090,1","99999,9","07,5,+00090,1,99,9",,,"07,99,1,99,9,99,9,99999,9,99,9,99,9","09990,1,99999,9","51,1",,,"MET059METAR EGOW 200850Z 33005KT 1000 -DZ BKN003 09/09 Q0999 AMB;",
"03018099999","2010-03-20T10:50:00","4","53.581575","-3.055522","11.27","WOODVALE, UK","FM-15","EGOW ","V020","340,1,N,0051,1","00150,1,C,N","006000,1,N,1","+0080,1","+0080,1","99999,9","08,5,+00150,1,99,9",,,"08,99,1,99,9,99,9,99999,9,99,9,99,9","09990,1,99999,9","10,1",,,"MET059METAR EGOW 201050Z 34010KT 6000 BR OVC005 08/08 Q0999 YLO1;",
"03018099999","2010-03-21T07:50:00","4","53.581575","-3.055522","11.27","WOODVALE, UK","FM-15","EGOW ","V020","160,1,N,0021,1","22000,1,9,N","006000,1,N,1","+0040,1","+0030,1","99999,9",,,,"00,99,1,99,9,99,9,99999,9,99,9,99,9","10139,1,99999,9","10,1",,,"MET055METAR EGOW 210750Z 16004KT 6000 BR NSC 04/03 Q1014 WHT;","Q01    003SCCGA1"
"03018099999","2010-03-21T08:50:00","4","53.581575","-3.055522","11.27","WOODVALE, UK","FM-15","EGOW ","V020","150,1,N,0026,1","22000,1,9,N","005000,1,N,1","+0050,1","+0040,1","99999,9",,,,"00,99,1,99,9,99,9,99999,9,99,9,99,9","10149,1,99999,9","10,1",,,"MET055METAR EGOW 210850Z 15005KT 5000 BR NSC 05/04 Q1015 WHT;","Q01    003SCCGA1"
"03018099999","2010-03-21T09:50:00","4","53.581575","-3.055522","11.27","WOODVALE, UK","FM-15","EGOW ","V020","190,1,N,0041,1","99999,9,9,Y","009900,1,N,1","+0080,1","+0040,1","99999,9",,,,,"10149,1,99999,9",,,,"MET049METAR EGOW 210950Z 19008KT CAVOK 08/04 Q1015 BLU;",
"03018099999","2010-03-21T10:50:00","4","53.581575","-3.055522","11.27","WOODVALE, UK","FM-15","EGOW ","V020","210,1,N,0062,1","99999,9,9,Y","009900,1,N,1","+0100,1","+0030,1","99999,9",,,,,"10149,1,99999,9",,,,"MET049METAR EGOW 211050Z 21012KT CAVOK 10/03 Q1015 BLU;",
"03018099999","2010-03-21T11:50:00","4","53.581575","-3.055522","11.27","WOODVALE, UK","FM-15","EGOW ","V020","230,1,N,0041,1","22000,1,9,N","011265,1,N,1","+0120,1","+0030,1","99999,9","02,5,+00750,1,99,9",,,"02,99,1,99,9,99,9,99999,9,99,9,99,9","10159,1,99999,9",,,,"MET055METAR EGOW 211150Z 23008KT 9999 FEW025 12/03 Q1016 BLU;",
"03018099999","2010-03-21T12:50:00","4","53.581575","-3.055522","11.27","WOODVALE, UK","FM-15","EGOW ","V020","210,1,N,0051,1","99999,9,C,N","011265,1,N,1","+0130,1","+0040,1","99999,9","02,5,+00750,1,99,9","04,5,+01050,1,99,9",,"04,99,1,99,9,99,9,99999,9,99,9,99,9","10159,1,99999,9",,,,"MET062METAR EGOW 211250Z 21010KT 9999 FEW025 SCT035 13/04 Q1016 BLU;","P01 010503SCOCIG"
"03018099999","2010-03-21T13:50:00","4","53.581575","-3.055522","11.27","WOODVALE, UK","FM-15","EGOW ","V020","210,1,N,0057,1","99999,9,C,N","011265,1,N,1","+0130,1","+0040,1","99999,9","02,5,+00750,1,99,9","04,5,+01200,1,99,9",,"04,99,1,99,9,99,9,99999,9,99,9,99,9","10159,1,99999,9",,,,"MET062METAR EGOW 211350Z 21011KT 9999 FEW025 SCT040 13/04 Q1016 BLU;","P01 012003SCOCIG"
"03018099999","2010-03-21T14:50:00","4","53.581575","-3.055522","11.27","WOODVALE, UK","FM-15","EGOW ","V020","230,1,N,0051,1","99999,9,C,N","011265,1,N,1","+0120,1","+0040,1","99999,9","02,5,+00900,1,99,9","04,5,+01200,1,99,9",,"04,99,1,99,9,99,9,99999,9,99,9,99,9","10149,1,99999,9",,,,"MET062METAR EGOW 211450Z 23010KT 9999 FEW030 SCT040 12/04 Q1015 BLU;","P01 012003SCOCIG"
"03018099999","2010-03-24T07:50:00","4","53.581575","-3.055522","11.27","WOODVALE, UK","FM-15","EGOW ","V020","140,1,N,0072,1","00600,1,C,N","006000,1,N,1","+0100,1","+0080,1","99999,9","02,5,+00300,1,99,9","07,5,+00600,1,99,9","08,5,+06000,1,99,9","08,99,1,99,9,99,9,99999,9,99,9,99,9","10010,1,99999,9","05,1",,,"MET072METAR EGOW 240750Z 14014KT 6000 HZ FEW010 BKN020 OVC200 10/08 Q1001 WHT;",
"03018099999","2010-03-24T08:50:00","4","53.581575","-3.055522","11.27","WOODVALE, UK","FM-15","EGOW ","V020","150,1,N,0077,1","00720,1,C,N","006000,1,N,1","+0100,1","+0080,1","99999,9","04,5,+00360,1,99,9","07,5,+00720,1,99,9",,"07,99,1,99,9,99,9,99999,9,99,9,99,9","10010,1,99999,9","05,1",,,"MET065METAR EGOW 240850Z 15015KT 6000 HZ SCT012 BKN024 10/08 Q1001 GRN;",
"03018099999","2010-03-24T09:50:00","4","53.581575","-3.055522","11.27","WOODVALE, UK","FM-15","EGOW ","V020","160,1,N,0077,1","00600,1,C,N","004000,1,N,1","+0100,1","+0090,1","99999,9","04,5,+00360,1,99,9","08,5,+00600,1,99,9",,"08,99,1,99,9,99,9,99999,9,99,9,99,9","10010,1,99999,9","61,1",,,"MET066METAR EGOW 240950Z 16015KT 4000 -RA SCT012 OVC020 10/09 Q1001 GRN;",
"03018099999","2010-03-24T10:50:00","4","53.581575","-3.055522","11.27","WOODVALE, UK","FM-15","EGOW ","V020","150,1,N,0077,1","02400,1,C,N","008000,1,N,1","+0100,1","+0090,1","99999,9","02,5,+00300,1,99,9","07,5,+02400,1,99,9","08,5,+06600,1,99,9","08,99,1,99,9,99,9,99999,9,99,9,99,9","10010,1,99999,9","61,1",,,"MET078METAR EGOW 241050Z 15015KT 8000 -RA FEW010 BKN080 OVC220 10/09 Q1001 RERA GRN;",
"03018099999","2010-03-24T11:50:00","4","53.581575","-3.055522","11.27","WOODVALE, UK","FM-15","EGOW ","V020","170,1,N,0067,1","00720,1,C,N","011265,1,N,1","+0110,1","+0090,1","99999,9","02,5,+00510,1,99,9","07,5,+00720,1,99,9",,"07,99,1,99,9,99,9,99999,9,99,9,99,9","10010,1,99999,9",,,,"MET062METAR EGOW 241150Z 17013KT 9999 FEW017 BKN024 11/09 Q1001 WHT;",
"03018099999","2010-03-24T12:50:00","4","53.581575","-3.055522","11.27","WOODVALE, UK","FM-15","EGOW ","V020","170,1,N,0057,1","00660,1,C,N","011265,1,N,1","+0120,1","+0080,1","99999,9","02,5,+00450,1,99,9","04,5,+00660,1,99,9","08,5,+04500,1,99,9","08,99,1,99,9,99,9,99999,9,99,9,99,9","10010,1,99999,9",,,,"MET069METAR EGOW 241250Z 17011KT 9999 FEW015 SCT022 OVC150 12/08 Q1001 WHT;",
"03018099999","2010-03-24T13:50:00","4","53.581575","-3.055522","11.27","WOODVALE, UK","FM-15","EGOW ","V020","180,1,N,0093,1","00840,1,C,N","011265,1,N,1","+0120,1","+0080,1","99999,9","02,5,+00450,1,99,9","07,5,+00840,1,99,9",,"07,99,1,99,9,99,9,99999,9,99,9,99,9","10010,1,99999,9",,,,"MET062METAR EGOW 241350Z 18018KT 9999 FEW015 BKN028 12/08 Q1001 BLU;",
"03018099999","2010-03-24T14:50:00","4","53.581575","-3.055522","11.27","WOODVALE, UK","FM-15","EGOW ","V020","200,1,N,0072,1","01200,1,C,N","011265,1,N,1","+0120,1","+0080,1","99999,9","02,5,+00450,1,99,9","07,5,+01200,1,99,9",,"07,99,1,99,9,99,9,99999,9,99,9,99,9","10010,1,99999,9",,,,"MET062METAR EGOW 241450Z 20014KT 9999 FEW015 BKN040 12/08 Q1001 BLU;",
"03018099999","2010-03-24T15:50:00","4","53.581575","-3.055522","11.27","WOODVALE, UK","FM-15","EGOW ","V020","220,1,N,0082,1","01200,1,C,N","011265,1,N,1","+0120,1","+0060,1","99999,9","02,5,+00600,1,99,9","04,5,+01200,1,99,9","07,5,+02400,1,99,9","07,99,1,99,9,99,9,99999,9,99,9,99,9","10010,1,99999,9",,,,"MET069METAR EGOW 241550Z 22016KT 9999 FEW020 SCT040 BKN080 12/06 Q1001 BLU;",
"03018099999","2010-03-25T07:50:00","4","53.581575","-3.055522","11.27","WOODVALE, UK","FM-15","EGOW ","V020","130,1,N,0036,1","00900,1,C,N","007000,1,N,1","+0100,1","+0090,1","99999,9","07,5,+00900,1,99,9",,,"07,99,1,99,9,99,9,99999,9,99,9,99,9","09980,1,99999,9","61,1",,,"MET059METAR EGOW 250750Z 13007KT 7000 -RA BKN030 10/09 Q0998 WHT;",
"03018099999","2010-03-25T08:50:00","4","53.581575","-3.055522","11.27","WOODVALE, UK","FM-15","EGOW ","V020","120,1,N,0041,1","00300,1,C,N","008000,1,N,1","+0110,1","+0100,1","99999,9","07,5,+00300,1,99,9",,,"07,99,1,99,9,99,9,99999,9,99,9,99,9","09970,1,99999,9","10,1",,,"MET058METAR EGOW 250850Z 12008KT 8000 BR BKN010 11/10 Q0997 GRN;",
"03018099999","2010-03-25T09:50:00","4","53.581575","-3.055522","11.27","WOODVALE, UK","FM-15","EGOW ","V020","170,1,N,0046,1","00240,1,C,N","004500,1,N,1","+0110,1","+0100,1","99999,9","07,5,+00240,1,99,9",,,"07,99,1,99,9,99,9,99999,9,99,9,99,9","09970,1,99999,9","10,1",,,"MET058METAR EGOW 250950Z 17009KT 4500 BR BKN008 11/10 Q0997 GRN;",
"03018099999","2010-03-25T10:50:00","4","53.581575","-3.055522","11.27","WOODVALE, UK","FM-15","EGOW ","V020","170,1,N,0067,1","00360,1,C,N","011265,1,N,1","+0130,1","+0100,1","99999,9","02,5,+00240,1,99,9","07,5,+00360,1,99,9",,"07,99,1,99,9,99,9,99999,9,99,9,99,9","09970,1,99999,9","10,1",,,"MET065METAR EGOW 251050Z 17013KT 9999 BR FEW008 BKN012 13/10 Q0997 GRN;",
"03018099999","2010-03-25T11:50:00","4","53.581575","-3.055522","11.27","WOODVALE, UK","FM-15","EGOW ","V020","170,1,N,0067,1","99999,9,C,N","011265,1,N,1","+0130,1","+0090,1","99999,9","02,5,+00360,1,99,9","04,5,+00510,1,99,9",,"04,99,1,99,9,99,9,99999,9,99,9,99,9","09970,1,99999,9",,,,"MET062METAR EGOW 251150Z 17013KT 9999 FEW012 SCT017 13/09 Q0997 WHT;","P01 005103SCOCIG"
"03018099999","2010-03-25T12:50:00","4","53.581575","-3.055522","11.27","WOODVALE, UK","FM-15","EGOW ","V020","160,1,N,0093,1","01020,1,C,N","011265,1,N,1","+0130,1","+0090,1","99999,9","02,5,+00690,1,99,9","04,5,+01020,1,99,9","07,5,+06000,1,99,9","07,99,1,99,9,99,9,99999,9,99,9,99,9","09959,1,99999,9",,,,"MET069METAR EGOW 251250Z 16018KT 9999 FEW023 SCT034 BKN200 13/09 Q0996 BLU;",
"03018099999","2010-03-25T13:50:00","4","53.581575","-3.055522","11.27","WOODVALE, UK","FM-15","EGOW ","V020","180,1,N,0072,1","01020,1,C,N","011265,1,N,1","+0140,1","+0070,1","99999,9","02,5,+00840,1,99,9","04,5,+01020,1,99,9","07,5,+06600,1,99,9","07,99,1,99,9,99,9,99999,9,99,9,99,9","09959,1,99999,9",,,,"MET069METAR EGOW 251350Z 18014KT 9999 FEW028 SCT034 BKN220 14/07 Q0996 BLU;",
"03018099999","2010-03-25T14:50:00","4","53.581575","-3.055522","11.27","WOODVALE, UK","FM-15","EGOW ","V020","150,1,N,0062,1","06600,1,C,N","011265,1,N,1","+0140,1","+0050,1","99999,9","02,5,+00960,1,99,9","07,5,+06600,1,99,9",,"07,99,1,99,9,99,9,99999,9,99,9,99,9","09949,1,99999,9",,,,"MET062METAR EGOW 251450Z 15012KT 9999 FEW032 BKN220 14/05 Q0995 BLU;",
"03018099999","2010-03-25T15:50:00","4","53.581575","-3.055522","11.27","WOODVALE, UK","FM-15","EGOW ","V020","140,1,N,0077,1","00960,1,C,N","011265,1,N,1","+0140,1","+0050,1","99999,9","02,5,+00840,1,99,9","04,5,+00960,1,99,9","07,5,+05400,1,99,9","07,99,1,99,9,99,9,99999,9,99,9,99,9","09949,1,99999,9",,,,"MET069METAR EGOW 251550Z 14015KT 9999 FEW028 SCT032 BKN180 14/05 Q0995 BLU;",
"03018099999","2010-03-25T16:50:00","4","53.581575","-3.055522","11.27","WOODVALE, UK","FM-15","EGOW ","V020","140,1,N,0062,1","01200,1,C,N","011265,1,N,1","+0130,1","+0040,1","99999,9","02,5,+01050,1,99,9","04,5,+01200,1,99,9","07,5,+05400,1,99,9","07,99,1,99,9,99,9,99999,9,99,9,99,9","09939,1,99999,9",,,,"MET069METAR EGOW 251650Z 14012KT 9999 FEW035 SCT040 BKN180 13/04 Q0994 BLU;",
"03018099999","2010-03-26T07:50:00","4","53.581575","-3.055522","11.27","WOODVALE, UK","FM-15","EGOW ","V020","180,1,N,0087,1","02400,1,C,N","011265,1,N,1","+0090,1","+0050,1","99999,9","02,5,+00750,1,99,9","04,5,+02400,1,99,9","07,5,+06600,1,99,9","07,99,1,99,9,99,9,99999,9,99,9,99,9",,,,,"MET063METAR EGOW 260750Z 18017KT 9999 FEW025 SCT080 BKN220 09/05 BLU;",
"03018099999","2010-03-26T08:50:00","4","53.581575","-3.055522","11.27","WOODVALE, UK","FM-15","EGOW ","V020","190,1,N,0077,1","06000,1,C,N","011265,1,N,1","+0100,1","+0050,1","99999,9","02,5,+00810,1,99,9","07,5,+06000,1,99,9",,"07,99,1,99,9,99,9,99999,9,99,9,99,9","09959,1,99999,9",,,,"MET062METAR EGOW 260850Z 19015KT 9999 FEW027 BKN200 10/05 Q0996 BLU;",
"03018099999","2010-03-26T09:50:00","4","53.581575","-3.055522","11.27","WOODVALE, UK","FM-15","EGOW ","V020","180,1,N,0077,1","22000,1,9,N","011265,1,N,1","+0100,1","+0050,1","99999,9","04,5,+00900,1,99,9",,,"04,99,1,99,9,99,9,99999,9,99,9,99,9","09959,1,99999,9",,,,"MET055METAR EGOW 260950Z 18015KT 9999 SCT030 10/05 Q0996 BLU;",
"03018099999","2010-03-26T10:50:00","4","53.581575","-3.055522","11.27","WOODVALE, UK","FM-15","EGOW ","V020","210,1,N,0062,1","01050,1,C,N","011265,1,N,1","+0110,1","+0040,1","99999,9","02,5,+00600,1,99,9","04,5,+01050,1,99,9","07,5,+01200,1,99,9","07,99,1,99,9,99,9,99999,9,99,9,99,9","09949,1,99999,9",,,,"MET069METAR EGOW 261050Z 21012KT 9999 FEW020 SCT035 BKN040 11/04 Q0995 BLU;",
"03018099999","2010-03-26T11:50:00","4","53.581575","-3.055522","11.27","WOODVALE, UK","FM-15","EGOW ","V020","200,1,N,0067,1","00900,1,C,N","011265,1,N,1","+0110,1","+0040,1","99999,9","02,5,+00600,1,99,9","04,5,+00900,1,99,9","07,5,+01200,1,99,9","07,99,1,99,9,99,9,99999,9,99,9,99,9","09959,1,99999,9","16,1",,,"MET074METAR EGOW 261150Z 20013KT 9999 VCSH FEW020 SCT030 BKN040 11/04 Q0996 BLU;",
"03018099999","2010-03-26T12:50:00","4","53.581575","-3.055522","11.27","WOODVALE, UK","FM-15","EGOW ","V020","190,1,N,0103,1","00960,1,C,N","011265,1,N,1","+0120,1","+0040,1","99999,9","02,5,+00600,1,99,9","04,5,+00960,1,99,9","07,5,+01350,1,99,9","07,99,1,99,9,99,9,99999,9,99,9,99,9","09959,1,99999,9","16,1",,,"MET074METAR EGOW 261250Z 19020KT 9999 VCSH FEW020 SCT032 BKN045 12/04 Q0996 BLU;",
"03018099999","2010-03-26T13:50:00","4","53.581575","-3.055522","11.27","WOODVALE, UK","FM-15","EGOW ","V020","220,1,N,0093,1","00900,1,C,N","011265,1,N,1","+0100,1","+0070,1","99999,9","02,5,+00450,1,99,9","04,5,+00900,1,99,9","07,5,+06600,1,99,9","07,99,1,99,9,99,9,99999,9,99,9,99,9","09959,1,99999,9","16,1",,,"MET081METAR EGOW 261350Z 22018KT 9999 VCSH FEW015 SCT030 BKN220 10/07 Q0996 RESHRA BLU;",
"03018099999","2010-03-26T14:50:00","4","53.581575","-3.055522","11.27","WOODVALE, UK","FM-15","EGOW ","V020","210,1,N,0098,1","00900,1,C,N","011265,1,N,1","+0120,1","+0050,1","99999,9","02,5,+00600,1,99,9","04,5,+00900,1,99,9","07,5,+06600,1,99,9","07,99,1,99,9,99,9,99999,9,99,9,99,9","09959,1,99999,9",,,,"MET069METAR EGOW 261450Z 21019KT 9999 FEW020 SCT030 BKN220 12/05 Q0996 BLU;",
"03018099999","2010-03-26T15:50:00","4","53.581575","-3.055522","11.27","WOODVALE, UK","FM-15","EGOW ","V020","260,1,N,0026,1","99999,9,C,N","011265,1,N,1","+0110,1","+0050,1","99999,9","02,5,+00600,1,02,1","04,5,+00900,1,99,9",,"04,99,1,99,9,99,9,99999,9,99,9,99,9","09959,1,99999,9","80,1",,,"MET071METAR EGOW 261550Z 26005KT 9999 -SHRA FEW020TCU SCT030 11/05 Q0996 BLU;","P01 009003SCOCIG"
"03018099999","2010-03-26T16:50:00","4","53.581575","-3.055522","11.27","WOODVALE, UK","FM-15","EGOW ","V020","270,1,N,0015,1","22000,1,9,N","011265,1,N,1","+0100,1","+0060,1","99999,9","04,5,+00900,1,99,9",,,"04,99,1,99,9,99,9,99999,9,99,9,99,9","09959,1,99999,9",,,,"MET055METAR EGOW 261650Z 27003KT 9999 SCT030 10/06 Q0996 BLU;",
"03018099999","2010-03-27T07:50:00","4","53.581575","-3.055522","11.27","WOODVALE, UK","FM-15","EGOW ","V020","300,1,N,0046,1","22000,1,9,N","011265,1,N,1","+0080,1","+0040,1","99999,9","04,5,+01200,1,99,9",,,"04,99,1,99,9,99,9,99999,9,99,9,99,9","10031,1,99999,9",,,,"MET055METAR EGOW 270750Z 30009KT 9999 SCT040 08/04 Q1003 BLU;",
"03018099999","2010-03-27T08:50:00","4","53.581575","-3.055522","11.27","WOODVALE, UK","FM-15","EGOW ","V020","280,1,N,0057,1","22000,1,9,N","011265,1,N,1","+0090,1","+0040,1","99999,9","02,5,+00660,1,99,9",,,"02,99,1,99,9,99,9,99999,9,99,9,99,9","10041,1,99999,9",,,,"MET055METAR EGOW 270850Z 28011KT 9999 FEW022 09/04 Q1004 BLU;",
"03018099999","2010-03-27T09:50:00","4","53.581575","-3.055522","11.27","WOODVALE, UK","FM-15","EGOW ","V020","280,1,N,0067,1","99999,9,9,Y","009900,1,N,1","+0100,1","+0050,1","99999,9",,,,,"10041,1,99999,9",,,,"MET049METAR EGOW 270950Z 28013KT CAVOK 10/05 Q1004 BLU;",
"03018099999","2010-03-27T10:50:00","4","53.581575","-3.055522","11.27","WOODVALE, UK","FM-15","EGOW ","V020","270,1,N,0077,1","01440,1,C,N","011265,1,N,1","+0090,1","+0050,1","99999,9","02,5,+00600,1,99,9","07,5,+01440,1,99,9",,"07,99,1,99,9,99,9,99999,9,99,9,99,9","10051,1,99999,9",,,,"MET062METAR EGOW 271050Z 27015KT 9999 FEW020 BKN048 09/05 Q1005 BLU;",
"03018099999","2010-03-27T11:50:00","4","53.581575","-3.055522","11.27","WOODVALE, UK","FM-15","EGOW ","V020","270,1,N,0082,1","01440,1,C,N","011265,1,N,1","+0100,1","+0060,1","99999,9","02,5,+00600,1,99,9","04,5,+01440,1,99,9","07,5,+02400,1,99,9","07,99,1,99,9,99,9,99999,9,99,9,99,9","10051,1,99999,9",,,,"MET069METAR EGOW 271150Z 27016KT 9999 FEW020 SCT048 BKN080 10/06 Q1005 BLU;",
"03018099999","2010-03-27T12:50:00","4","53.581575","-3.055522","11.27","WOODVALE, UK","FM-15","EGOW ","V020","270,1,N,0082,1","01200,1,C,N","011265,1,N,1","+0090,1","+0050,1","99999,9","02,5,+00600,1,99,9","04,5,+01200,1,99,9","07,5,+02400,1,99,9","07,99,1,99,9,99,9,99999,9,99,9,99,9","10051,1,99999,9",,,,"MET069METAR EGOW 271250Z 27016KT 9999 FEW020 SCT040 BKN080 09/05 Q1005 BLU;",
"03018099999","2010-03-27T13:50:00","4","53.581575","-3.055522","11.27","WOODVALE, UK","FM-15","EGOW ","V020","260,1,N,0062,1","22000,1,9,N","011265,1,N,1","+0100,1","+0050,1","99999,9","02,5,+00750,1,02,1",,,"02,99,1,99,9,99,9,99999,9,99,9,99,9","10051,1,99999,9",,,,"MET058METAR EGOW 271350Z 26012KT 9999 FEW025TCU 10/05 Q1005 BLU;",
"03018099999","2010-03-27T14:50:00","4","53.581575","-3.055522","11.27","WOODVALE, UK","FM-15","EGOW ","V020","270,1,N,0082,1","99999,9,C,N","011265,1,N,1","+0100,1","+0040,1","99999,9","02,5,+00750,1,02,1","04,5,+04500,1,99,9",,"04,99,1,99,9,99,9,99999,9,99,9,99,9","10061,1,99999,9",,,,"MET065METAR EGOW 271450Z 27016KT 9999 FEW025TCU SCT150 10/04 Q1006 BLU;","P01 045003SCOCIG"
"03018099999","2010-03-27T15:50:00","4","53.581575","-3.055522","11.27","WOODVALE, UK","FM-15","EGOW ","V020","270,1,N,0087,1","99999,9,9,Y","009900,1,N,1","+0100,1","+0020,1","99999,9",,,,,"10061,1,99999,9",,,,"MET049METAR EGOW 271550Z 27017KT CAVOK 10/02 Q1006 BLU;",
"03018099999","2010-03-28T06:50:00","4","53.581575","-3.055522","11.27","WOODVALE, UK","FM-15","EGOW ","V020","270,1,N,0062,1","99999,9,C,N","011265,1,N,1","+0060,1","+0050,1","99999,9","02,5,+00240,1,99,9","04,5,+00300,1,99,9","04,5,+00900,1,99,9","04,99,1,99,9,99,9,99999,9,99,9,99,9","10061,1,99999,9",,,,"MET069METAR EGOW 280650Z 27012KT 9999 FEW008 SCT010 SCT030 06/05 Q1006 GRN;","P01 003003SCOCIG"
"03018099999","2010-03-28T07:50:00","4","53.581575","-3.055522","11.27","WOODVALE, UK","FM-15","EGOW ","V020","260,1,N,0072,1","22000,1,9,N","011265,1,N,1","+0070,1","+0060,1","99999,9","02,5,+00450,1,99,9",,,"02,99,1,99,9,99,9,99999,9,99,9,99,9","10061,1,99999,9",,,,"MET055METAR EGOW 280750Z 26014KT 9999 FEW015 07/06 Q1006 BLU;",
"03018099999","2010-03-28T08:50:00","4","53.581575","-3.055522","11.27","WOODVALE, UK","FM-15","EGOW ","V020","260,1,N,0077,1","22000,1,9,N","011265,1,N,1","+0080,1","+0050,1","99999,9","02,5,+00240,1,99,9",,,"02,99,1,99,9,99,9,99999,9,99,9,99,9","10061,1,99999,9",,,,"MET055METAR EGOW 280850Z 26015KT 9999 FEW008 08/05 Q1006 BLU;",
"03018099999","2010-03-28T09:50:00","4","53.581575","-3.055522","11.27","WOODVALE, UK","FM-15","EGOW ","V020","270,1,N,0072,1","22000,1,9,N","011265,1,N,1","+0090,1","+0050,1","99999,9","02,5,+00270,1,99,9",,,"02,99,1,99,9,99,9,99999,9,99,9,99,9","10071,1,99999,9",,,,"MET055METAR EGOW 280950Z 27014KT 9999 FEW009 09/05 Q1007 BLU;",
"03018099999","2010-03-28T10:50:00","4","53.581575","-3.055522","11.27","WOODVALE, UK","FM-15","EGOW ","V020","260,1,N,0082,1","99999,9,C,N","011265,1,N,1","+0100,1","+0030,1","99999,9","02,5,+00600,1,99,9","04,5,+00750,1,99,9",,"04,99,1,99,9,99,9,99999,9,99,9,99,9","10061,1,99999,9",,,,"MET062METAR EGOW 281050Z 26016KT 9999 FEW020 SCT025 10/03 Q1006 BLU;","P01 007503SCOCIG"
"03018099999","2010-03-28T11:50:00","4","53.581575","-3.055522","11.27","WOODVALE, UK","FM-15","EGOW ","V020","270,1,N,0082,1","22000,1,9,N","011265,1,N,1","+0090,1","+0050,1","99999,9","02,5,+00600,1,99,9",,,"02,99,1,99,9,99,9,99999,9,99,9,99,9","10061,1,99999,9",,,,"MET055METAR EGOW 281150Z 27016KT 9999 FEW020 09/05 Q1006 BLU;",
"03018099999","2010-03-28T12:50:00","4","53.581575","-3.055522","11.27","WOODVALE, UK","FM-15","EGOW ","V020","260,1,N,0072,1","22000,1,9,N","011265,1,N,1","+0090,1","+0050,1","99999,9","02,5,+00660,1,99,9",,,"02,99,1,99,9,99,9,99999,9,99,9,99,9","10061,1,99999,9",,,,"MET055METAR EGOW 281250Z 26014KT 9999 FEW022 09/05 Q1006 BLU;",
"03018099999","2010-03-31T06:50:00","4","53.581575","-3.055522","11.27","WOODVALE, UK","FM-15","EGOW ","V020","330,1,N,0134,1","00270,1,C,N","007000,1,N,1","+0030,1","+0020,1","99999,9","02,5,+00210,1,99,9","04,5,+00270,1,99,9","07,5,+00480,1,99,9","07,99,1,99,9,99,9,99999,9,99,9,99,9","09831,1,99999,9","63,1",,"0211,1","MET075METAR EGOW 310650Z 33026G41KT 7000 RA FEW007 SCT009 BKN016 03/02 Q0983 GRN;",
"03018099999","2010-03-31T07:50:00","4","53.581575","-3.055522","11.27","WOODVALE, UK","FM-15","EGOW ","V020","330,1,N,0154,1","00270,1,C,N","005000,1,N,1","+0030,1","+0010,1","99999,9","02,5,+00210,1,99,9","04,5,+00270,1,99,9","08,5,+00570,1,99,9","08,99,1,99,9,99,9,99999,9,99,9,99,9","09841,1,99999,9","63,1",,"0216,1","MET075METAR EGOW 310750Z 33030G42KT 5000 RA FEW007 SCT009 OVC019 03/01 Q0984 GRN;",
"03018099999","2010-04-01T06:50:00","4","53.581575","-3.055522","11.27","WOODVALE, UK","FM-15","EGOW ","V020","270,1,N,0103,1","99999,9,C,N","011265,1,N,1","+0050,1","+9999,9","99999,9","02,5,+00240,1,99,9","04,5,+00540,1,02,5",,"04,99,1,99,9,99,9,99999,9,99,9,99,9","10031,1,99999,9",,,"0154,1","MET068METAR EGOW 010650Z 27020G30KT 9999 FEW008 SCT018TCU 05/// Q1003 WHT;","P01 005403SCOCIG"
"03018099999","2010-04-01T07:50:00","4","53.581575","-3.055522","11.27","WOODVALE, UK","FM-15","EGOW ","V020","280,1,N,0087,1","22000,1,9,N","011265,1,N,1","+0060,1","+0010,1","99999,9","04,5,+00540,1,99,9",,,"04,99,1,99,9,99,9,99999,9,99,9,99,9","10041,1,99999,9",,,,"MET055METAR EGOW 010750Z 28017KT 9999 SCT018 06/01 Q1004 WHT;",
"03018099999","2010-04-01T08:50:00","4","53.581575","-3.055522","11.27","WOODVALE, UK","FM-15","EGOW ","V020","270,1,N,0087,1","99999,9,C,N","011265,1,N,1","+0060,1","+0020,1","99999,9","02,5,+00330,1,99,9","04,5,+00540,1,99,9",,"04,99,1,99,9,99,9,99999,9,99,9,99,9","10041,1,99999,9",,,,"MET062METAR EGOW 010850Z 27017KT 9999 FEW011 SCT018 06/02 Q1004 WHT;","P01 005403SCOCIG"
"03018099999","2010-04-01T09:50:00","4","53.581575","-3.055522","11.27","WOODVALE, UK","FM-15","EGOW ","V020","270,1,N,0087,1","22000,1,9,N","011265,1,N,1","+0070,1","+0020,1","99999,9","04,5,+00600,1,02,1",,,"04,99,1,99,9,99,9,99999,9,99,9,99,9","10051,1,99999,9",,,,"MET058METAR EGOW 010950Z 27017KT 9999 SCT020TCU 07/02 Q1005 WHT;",
"03018099999","2010-04-01T10:50:00","4","53.581575","-3.055522","11.27","WOODVALE, UK","FM-15","EGOW ","V020","270,1,N,0077,1","22000,1,9,N","011265,1,N,1","+0070,1","+0020,1","99999,9","04,5,+00600,1,99,9",,,"04,99,1,99,9,99,9,99999,9,99,9,99,9","10051,1,99999,9",,,,"MET055METAR EGOW 011050Z 27015KT 9999 SCT020 07/02 Q1005 WHT;",
"03018099999","2010-04-01T11:50:00","4","53.581575","-3.055522","11.27","WOODVALE, UK","FM-15","EGOW ","V020","270,1,N,0062,1","22000,1,9,N","011265,1,N,1","+0070,1","+0020,1","99999,9","04,5,+00600,1,99,9",,,"04,99,1,99,9,99,9,99999,9,99,9,99,9","10051,1,99999,9","16,1",,,"MET060METAR EGOW 011150Z 27012KT 9999 VCSH SCT020 07/02 Q1005 WHT;",
"03018099999","2010-04-01T12:50:00","4","53.581575","-3.055522","11.27","WOODVALE, UK","FM-15","EGOW ","V020","280,1,N,0051,1","22000,1,9,N","011265,1,N,1","+0070,1","+0020,1","99999,9","04,5,+00600,1,99,9",,,"04,99,1,99,9,99,9,99999,9,99,9,99,9","10051,1,99999,9",,,,"MET055METAR EGOW 011250Z 28010KT 9999 SCT020 07/02 Q1005 WHT;",
"03018099999","2010-04-01T13:50:00","4","53.581575","-3.055522","11.27","WOODVALE, UK","FM-15","EGOW ","V020","270,1,N,0057,1","22000,1,9,N","011265,1,N,1","+0070,1","+0030,1","99999,9","04,5,+00600,1,99,9",,,"04,99,1,99,9,99,9,99999,9,99,9,99,9","10051,1,99999,9",,,,"MET055METAR EGOW 011350Z 27011KT 9999 SCT020 07/03 Q1005 WHT;",
"03018099999","2010-04-07T06:50:00","4","53.581575","-3.055522","11.27","WOODVALE, UK","FM-15","EGOW ","V020","320,1,N,0026,1","00900,1,C,N","011265,1,N,1","+0080,1","+0080,1","99999,9","02,5,+00270,1,99,9","07,5,+00900,1,99,9",,"07,99,1,99,9,99,9,99999,9,99,9,99,9","10169,1,99999,9","51,1",,,"MET066METAR EGOW 070650Z 32005KT 9999 -DZ FEW009 BKN030 08/08 Q1017 BLU;",
"03018099999","2010-04-07T07:50:00","4","53.581575","-3.055522","11.27","WOODVALE, UK","FM-15","EGOW ","V020","310,1,N,0036,1","00900,1,C,N","011265,1,N,1","+0080,1","+0080,1","99999,9","02,5,+00210,1,99,9","07,5,+00900,1,99,9",,"07,99,1,99,9,99,9,99999,9,99,9,99,9","10180,1,99999,9","51,1",,,"MET066METAR EGOW 070750Z 31007KT 9999 -DZ FEW007 BKN030 08/08 Q1018 BLU;",
"03018099999","2010-04-07T08:50:00","4","53.581575","-3.055522","11.27","WOODVALE, UK","FM-15","EGOW ","V020","310,1,N,0051,1","00180,1,C,N","009000,1,N,1","+0080,1","+0070,1","99999,9","02,5,+00120,1,99,9","04,5,+00180,1,99,9","07,5,+00240,1,99,9","07,99,1,99,9,99,9,99999,9,99,9,99,9","10190,1,99999,9","51,1",,,"MET074METAR EGOW 070850Z 31010KT 9000 -DZ FEW004 SCT006 BKN008 08/07 Q1019 YLO1;",
"03018099999","2010-04-07T09:50:00","4","53.581575","-3.055522","11.27","WOODVALE, UK","FM-15","EGOW ","V020","340,1,N,0062,1","00150,1,C,N","011265,1,N,1","+0080,1","+0070,1","99999,9","07,5,+00150,1,99,9",,,"07,99,1,99,9,99,9,99999,9,99,9,99,9","10190,1,99999,9",,,,"MET056METAR EGOW 070950Z 34012KT 9999 BKN005 08/07 Q1019 YLO1;",
"03018099999","2010-04-07T10:20:00","4","53.581575","-3.055522","11.27","WOODVALE, UK","FM-15","EGOW ","V020","340,1,N,0062,1","99999,9,C,N","011265,1,N,1","+0090,1","+0070,1","99999,9","02,5,+00150,1,99,9","04,5,+04500,1,99,9",,"04,99,1,99,9,99,9,99999,9,99,9,99,9","10200,1,99999,9",,,,"MET062METAR EGOW 071020Z 34012KT 9999 FEW005 SCT150 09/07 Q1020 BLU;","P01 045003SCOCIG"
"03018099999","2010-04-07T10:50:00","4","53.581575","-3.055522","11.27","WOODVALE, UK","FM-15","EGOW ","V020","330,1,N,0057,1","99999,9,C,N","011265,1,N,1","+0100,1","+0070,1","99999,9","02,5,+00150,1,99,9","04,5,+04500,1,99,9",,"04,99,1,99,9,99,9,99999,9,99,9,99,9","10200,1,99999,9",,,,"MET062METAR EGOW 071050Z 33011KT 9999 FEW005 SCT150 10/07 Q1020 BLU;","P01 045003SCOCIG"
"03018099999","2010-04-07T11:50:00","4","53.581575","-3.055522","11.27","WOODVALE, UK","FM-15","EGOW ","V020","320,1,N,0062,1","99999,9,C,N","011265,1,N,1","+0100,1","+0060,1","99999,9","02,5,+00750,1,02,1","04,5,+06600,1,99,9",,"04,99,1,99,9,99,9,99999,9,99,9,99,9","10200,1,99999,9",,,,"MET065METAR EGOW 071150Z 32012KT 9999 FEW025TCU SCT220 10/06 Q1020 BLU;","P01 066003SCOCIG"
"03018099999","2010-04-07T12:50:00","4","53.581575","-3.055522","11.27","WOODVALE, UK","FM-15","EGOW ","V020","320,1,N,0062,1","99999,9,C,N","011265,1,N,1","+0110,1","+0060,1","99999,9","02,5,+00750,1,02,1","04,5,+07500,1,99,9",,"04,99,1,99,9,99,9,99999,9,99,9,99,9","10210,1,99999,9",,,,"MET065METAR EGOW 071250Z 32012KT 9999 FEW025TCU SCT250 11/06 Q1021 BLU;","P01 075003SCOCIG"
"03018099999","2010-04-07T13:50:00","4","53.581575","-3.055522","11.27","WOODVALE, UK","FM-15","EGOW ","V020","310,1,N,0062,1","22000,1,9,N","011265,1,N,1","+0090,1","+0060,1","99999,9","02,5,+00750,1,99,9",,,"02,99,1,99,9,99,9,99999,9,99,9,99,9","10210,1,99999,9",,,,"MET055METAR EGOW 071350Z 31012KT 9999 FEW025 09/06 Q1021 BLU;",
"03018099999","2010-04-07T14:50:00","4","53.581575","-3.055522","11.27","WOODVALE, UK","FM-15","EGOW ","V020","310,1,N,0072,1","22000,1,9,N","011265,1,N,1","+0100,1","+0060,1","99999,9","02,5,+00750,1,99,9",,,"02,99,1,99,9,99,9,99999,9,99,9,99,9","10220,1,99999,9",,,,"MET055METAR EGOW 071450Z 31014KT 9999 FEW025 10/06 Q1022 BLU;",
"03018099999","2010-04-07T15:50:00","4","53.581575","-3.055522","11.27","WOODVALE, UK","FM-15","EGOW ","V020","300,1,N,0072,1","22000,1,9,N","011265,1,N,1","+0090,1","+0060,1","99999,9","02,5,+00750,1,99,9",,,"02,99,1,99,9,99,9,99999,9,99,9,99,9","10220,1,99999,9",,,,"MET055METAR EGOW 071550Z 30014KT 9999 FEW025 09/06 Q1022 BLU;",
"03018099999","2010-04-08T06:50:00","4","53.581575","-3.055522","11.27","WOODVALE, UK","FM-15","EGOW ","V020","260,1,N,0051,5","99999,9,9,Y","009900,1,N,1","+0080,1","+0060,1","99999,9",,,,,"10291,1,99999,9",,,,"MET047METAR EGOW 080650Z 26010 CAVOK 08/06 Q1029 BLU;",
"03018099999","2010-04-08T07:50:00","4","53.581575","-3.055522","11.27","WOODVALE, UK","FM-15","EGOW ","V020","250,1,N,0072,1","22000,1,9,N","011265,1,N,1","+0090,1","+0070,1","99999,9","02,5,+00300,1,99,9",,,"02,99,1,99,9,99,9,99999,9,99,9,99,9","10291,1,99999,9",,,,"MET055METAR EGOW 080750Z 25014KT 9999 FEW010 09/07 Q1029 BLU;",
"03018099999","2010-04-08T08:50:00","4","53.581575","-3.055522","11.27","WOODVALE, UK","FM-15","EGOW ","V020","260,1,N,0072,1","22000,1,9,N","011265,1,N,1","+0100,1","+0070,1","99999,9","02,5,+00300,1,99,9",,,"02,99,1,99,9,99,9,99999,9,99,9,99,9","10301,1,99999,9",,,,"MET055METAR EGOW 080850Z 26014KT 9999 FEW010 10/07 Q1030 BLU;",
"03018099999","2010-04-08T09:50:00","4","53.581575","-3.055522","11.27","WOODVALE, UK","FM-15","EGOW ","V020","270,1,N,0072,1","22000,1,9,N","011265,1,N,1","+0100,1","+0060,1","99999,9","02,5,+00300,1,99,9",,,"02,99,1,99,9,99,9,99999,9,99,9,99,9","10301,1,99999,9",,,,"MET055METAR EGOW 080950Z 27014KT 9999 FEW010 10/06 Q1030 BLU;",
"03018099999","2010-04-08T10:50:00","4","53.581575","-3.055522","11.27","WOODVALE, UK","FM-15","EGOW ","V020","260,1,N,0072,1","22000,1,9,N","011265,1,N,1","+0110,1","+0070,1","99999,9","02,5,+00450,1,99,9",,,"02,99,1,99,9,99,9,99999,9,99,9,99,9","10301,1,99999,9",,,,"MET055METAR EGOW 081050Z 26014KT 9999 FEW015 11/07 Q1030 BLU;",
"03018099999","2010-04-08T11:50:00","4","53.581575","-3.055522","11.27","WOODVALE, UK","FM-15","EGOW ","V020","280,1,N,0067,1","99999,9,C,N","011265,1,N,1","+0100,1","+0070,1","99999,9","02,5,+00180,1,99,9","04,5,+00750,1,99,9",,"04,99,1,99,9,99,9,99999,9,99,9,99,9","10312,1,99999,9",,,,"MET062METAR EGOW 081150Z 28013KT 9999 FEW006 SCT025 10/07 Q1031 BLU;","P01 007503SCOCIG"
"03018099999","2010-04-08T12:50:00","4","53.581575","-3.055522","11.27","WOODVALE, UK","FM-15","EGOW ","V020","300,1,N,0077,1","22000,1,9,N","011265,1,N,1","+0100,1","+0070,1","99999,9","04,5,+00180,1,99,9",,,"04,99,1,99,9,99,9,99999,9,99,9,99,9","10312,1,99999,9",,,,"MET056METAR EGOW 081250Z 30015KT 9999 SCT006 10/07 Q1031 YLO1;",
"03018099999","2010-04-09T06:50:00","4","53.581575","-3.055522","11.27","WOODVALE, UK","FM-15","EGOW ","V020","140,1,N,0015,1","22000,1,9,N","011265,1,N,1","+0070,1","+0060,1","99999,9","02,5,+00600,1,99,9",,,"02,99,1,99,9,99,9,99999,9,99,9,99,9","10339,1,99999,9",,,,"MET055METAR EGOW 090650Z 14003KT 9999 FEW020 07/06 Q1034 BLU;",
"03018099999","2010-04-09T08:50:00","4","53.581575","-3.055522","11.27","WOODVALE, UK","FM-15","EGOW ","V020","120,1,N,0021,1","22000,1,9,N","011265,1,N,1","+0100,1","+0070,1","99999,9","02,5,+00600,1,99,9",,,"02,99,1,99,9,99,9,99999,9,99,9,99,9","10339,1,99999,9",,,,"MET055METAR EGOW 090850Z 12004KT 9999 FEW020 10/07 Q1034 BLU;",
"03018099999","2010-04-09T10:50:00","4","53.581575","-3.055522","11.27","WOODVALE, UK","FM-15","EGOW ","V020","140,1,N,0026,1","22000,1,9,N","011265,1,N,1","+0140,1","+0060,1","99999,9","02,5,+00750,1,99,9",,,"02,99,1,99,9,99,9,99999,9,99,9,99,9","10339,1,99999,9",,,,"MET055METAR EGOW 091050Z 14005KT 9999 FEW025 14/06 Q1034 BLU;",
"03018099999","2010-04-09T11:50:00","4","53.581575","-3.055522","11.27","WOODVALE, UK","FM-15","EGOW ","V020","300,1,N,0026,1","22000,1,9,N","011265,1,N,1","+0150,1","+0070,1","99999,9","02,5,+00750,1,99,9",,,"02,99,1,99,9,99,9,99999,9,99,9,99,9","10339,1,99999,9",,,,"MET055METAR EGOW 091150Z 30005KT 9999 FEW025 15/07 Q1034 BLU;",
"03018099999","2010-04-09T12:50:00","4","53.581575","-3.055522","11.27","WOODVALE, UK","FM-15","EGOW ","V020","350,1,N,0036,1","22000,1,9,N","011265,1,N,1","+0150,1","+0070,1","99999,9","02,5,+00750,1,99,9",,,"02,99,1,99,9,99,9,99999,9,99,9,99,9","10339,1,99999,9",,,,"MET055METAR EGOW 091250Z 35007KT 9999 FEW025 15/07 Q1034 BLU;",
"03018099999","2010-04-10T07:50:00","4","53.581575","-3.055522","11.27","WOODVALE, UK","FM-15","EGOW ","V020","130,1,N,0015,1","22000,1,9,N","006000,1,N,1","+0060,1","+0050,1","99999,9",,,,"00,99,1,99,9,99,9,99999,9,99,9,99,9","10339,1,99999,9","05,1",,,"MET055METAR EGOW 100750Z 13003KT 6000 HZ NSC 06/05 Q1034 WHT;","Q01    003SCCGA1"
"03018099999","2010-04-10T08:50:00","4","53.581575","-3.055522","11.27","WOODVALE, UK","FM-15","EGOW ","V020","999,9,V,0015,1","22000,1,9,N","006000,1,N,1","+0130,1","+0090,1","99999,9",,,,"00,99,1,99,9,99,9,99999,9,99,9,99,9","10349,1,99999,9","05,1",,,"MET055METAR EGOW 100850Z VRB03KT 6000 HZ SKC 13/09 Q1035 WHT;","Q01    003SCCGA1"
"03018099999","2010-04-10T10:50:00","4","53.581575","-3.055522","11.27","WOODVALE, UK","FM-15","EGOW ","V020","999,9,V,0031,1","22000,1,9,N","008000,1,N,1","+0160,1","+0100,1","99999,9",,,,"00,99,1,99,9,99,9,99999,9,99,9,99,9","10339,1,99999,9","05,1",,,"MET055METAR EGOW 101050Z VRB06KT 8000 HZ SKC 16/10 Q1034 BLU;","Q01    003SCCGA1"
"03018099999","2010-04-10T11:50:00","4","53.581575","-3.055522","11.27","WOODVALE, UK","FM-15","EGOW ","V020","999,9,C,0000,1","22000,1,9,N","008000,1,N,1","+0180,1","+0090,1","99999,9",,,,"00,99,1,99,9,99,9,99999,9,99,9,99,9","10339,1,99999,9","05,1",,,"MET055METAR EGOW 101150Z 00000KT 8000 HZ SKC 18/09 Q1034 BLU;","Q01    003SCCGA1"
"03018099999","2010-04-10T12:50:00","4","53.581575","-3.055522","11.27","WOODVALE, UK","FM-15","EGOW ","V020","320,1,N,0031,1","07200,1,C,N","008000,1,N,1","+0170,1","+0100,1","99999,9","07,5,+07200,1,99,9",,,"07,99,1,99,9,99,9,99999,9,99,9,99,9","10339,1,99999,9","05,1",,,"MET058METAR EGOW 101250Z 32006KT 8000 HZ BKN240 17/10 Q1034 BLU;",
"03018099999","2010-04-10T13:50:00","4","53.581575","-3.055522","11.27","WOODVALE, UK","FM-15","EGOW ","V020","340,1,N,0026,1","99999,9,9,Y","009900,1,N,1","+0170,1","+0090,1","99999,9",,,,,"10329,1,99999,9",,,,"MET049METAR EGOW 101350Z 34005KT CAVOK 17/09 Q1033 BLU;",
"03018099999","2010-04-11T06:50:00","4","53.581575","-3.055522","11.27","WOODVALE, UK","FM-15","EGOW ","V020","080,1,N,0026,1","99999,9,C,N","006000,1,N,1","+0090,1","+0060,1","99999,9","02,5,+01200,1,99,9","04,5,+03600,1,99,9",,"04,99,1,99,9,99,9,99999,9,99,9,99,9","10318,1,99999,9","05,1",,,"MET065METAR EGOW 110650Z 08005KT 6000 HZ FEW040 SCT120 09/06 Q1032 WHT;","P01 036003SCOCIG"
"03018099999","2010-04-11T07:50:00","4","53.581575","-3.055522","11.27","WOODVALE, UK","FM-15","EGOW ","V020","080,1,N,0015,1","99999,9,C,N","008000,1,N,1","+0100,1","+0070,1","99999,9","02,5,+01200,1,99,9","04,5,+03600,1,99,9",,"04,99,1,99,9,99,9,99999,9,99,9,99,9","10318,1,99999,9","05,1",,,"MET065METAR EGOW 110750Z 08003KT 8000 HZ FEW040 SCT120 10/07 Q1032 BLU;","P01 036003SCOCIG"
"03018099999","2010-04-11T08:50:00","4","53.581575","-3.055522","11.27","WOODVALE, UK","FM-15","EGOW ","V020","130,1,N,0026,1","99999,9,9,Y","009900,1,N,1","+0120,1","+0060,1","99999,9",,,,,"10318,1,99999,9",,,,"MET049METAR EGOW 110850Z 13005KT CAVOK 12/06 Q1032 BLU;",
"03018099999","2010-04-11T10:50:00","4","53.581575","-3.055522","11.27","WOODVALE, UK","FM-15","EGOW ","V020","130,1,N,0041,1","99999,9,9,Y","009900,1,N,1","+0130,1","+0050,1","99999,9",,,,,"10318,1,99999,9",,,,"MET049METAR EGOW 111050Z 13008KT CAVOK 13/05 Q1032 BLU;",
"03018099999","2010-04-11T11:50:00","4","53.581575","-3.055522","11.27","WOODVALE, UK","FM-15","EGOW ","V020","130,1,N,0041,1","99999,9,9,Y","009900,1,N,1","+0180,1","+0030,1","99999,9",,,,,"10312,1,99999,9",,,,"MET049METAR EGOW 111150Z 13008KT CAVOK 18/03 Q1031 BLU;",
"03018099999","2010-04-11T12:50:00","4","53.581575","-3.055522","11.27","WOODVALE, UK","FM-15","EGOW ","V020","130,1,N,0041,1","99999,9,9,Y","009900,1,N,1","+0180,1","+0030,1","99999,9",,,,,"10312,1,99999,9",,,,"MET049METAR EGOW 111250Z 13008KT CAVOK 18/03 Q1031 BLU;",
"03018099999","2010-04-11T13:50:00","4","53.581575","-3.055522","11.27","WOODVALE, UK","FM-15","EGOW ","V020","080,1,N,0046,1","99999,9,9,Y","009900,1,N,1","+0170,1","+0020,1","99999,9",,,,,"10312,1,99999,9",,,,"MET049METAR EGOW 111350Z 08009KT CAVOK 17/02 Q1031 BLU;",
"03018099999","2010-04-14T06:50:00","4","53.581575","-3.055522","11.27","WOODVALE, UK","FM-15","EGOW ","V020","030,1,N,0051,1","22000,1,9,N","011265,1,N,1","+0060,1","+0020,1","99999,9","02,5,+00750,1,99,9",,,"02,99,1,99,9,99,9,99999,9,99,9,99,9","10251,1,99999,9",,,,"MET055METAR EGOW 140650Z 03010KT 9999 FEW025 06/02 Q1025 BLU;",
"03018099999","2010-04-14T07:50:00","4","53.581575","-3.055522","11.27","WOODVALE, UK","FM-15","EGOW ","V020","360,1,N,0041,1","22000,1,9,N","011265,1,N,1","+0070,1","+0020,1","99999,9","02,5,+00750,1,99,9",,,"02,99,1,99,9,99,9,99999,9,99,9,99,9","10251,1,99999,9",,,,"MET055METAR EGOW 140750Z 36008KT 9999 FEW025 07/02 Q1025 BLU;",
"03018099999","2010-04-14T09:50:00","4","53.581575","-3.055522","11.27","WOODVALE, UK","FM-15","EGOW ","V020","060,1,N,0057,1","22000,1,9,N","011265,1,N,1","+0110,1","+0030,1","99999,9","04,5,+01200,1,99,9",,,"04,99,1,99,9,99,9,99999,9,99,9,99,9","10251,1,99999,9",,,,"MET055METAR EGOW 140950Z 06011KT 9999 SCT040 11/03 Q1025 BLU;",
"03018099999","2010-04-14T10:50:00","4","53.581575","-3.055522","11.27","WOODVALE, UK","FM-15","EGOW ","V020","070,1,N,0051,1","22000,1,9,N","011265,1,N,1","+0120,1","+0040,1","99999,9","04,5,+01200,1,99,9",,,"04,99,1,99,9,99,9,99999,9,99,9,99,9","10251,1,99999,9",,,,"MET055METAR EGOW 141050Z 07010KT 9999 SCT040 12/04 Q1025 BLU;",
"03018099999","2010-04-14T11:50:00","4","53.581575","-3.055522","11.27","WOODVALE, UK","FM-15","EGOW ","V020","060,1,N,0057,1","22000,1,9,N","011265,1,N,1","+0120,1","+0030,1","99999,9","04,5,+01050,1,99,9",,,"04,99,1,99,9,99,9,99999,9,99,9,99,9","10251,1,99999,9",,,,"MET055METAR EGOW 141150Z 06011KT 9999 SCT035 12/03 Q1025 BLU;",
"03018099999","2010-04-14T12:50:00","4","53.581575","-3.055522","11.27","WOODVALE, UK","FM-15","EGOW ","V020","090,1,N,0046,1","22000,1,9,N","011265,1,N,1","+0140,1","+0040,1","99999,9","04,5,+01050,1,99,9",,,"04,99,1,99,9,99,9,99999,9,99,9,99,9","10251,1,99999,9",,,,"MET055METAR EGOW 141250Z 09009KT 9999 SCT035 14/04 Q1025 BLU;",
"03018099999","2010-04-14T13:50:00","4","53.581575","-3.055522","11.27","WOODVALE, UK","FM-15","EGOW ","V020","070,1,N,0057,1","22000,1,9,N","011265,1,N,1","+0150,1","+0040,1","99999,9","04,5,+01050,1,99,9",,,"04,99,1,99,9,99,9,99999,9,99,9,99,9","10240,1,99999,9",,,,"MET055METAR EGOW 141350Z 07011KT 9999 SCT035 15/04 Q1024 BLU;",
"03018099999","2010-04-14T14:50:00","4","53.581575","-3.055522","11.27","WOODVALE, UK","FM-15","EGOW ","V020","060,1,N,0046,1","22000,1,9,N","011265,1,N,1","+0150,1","+0050,1","99999,9","04,5,+01050,1,99,9",,,"04,99,1,99,9,99,9,99999,9,99,9,99,9","10240,1,99999,9",,,,"MET055METAR EGOW 141450Z 06009KT 9999 SCT035 15/05 Q1024 BLU;",
"03018099999","2010-04-15T06:50:00","4","53.581575","-3.055522","11.27","WOODVALE, UK","FM-15","EGOW ","V020","050,1,N,0031,1","99999,9,9,Y","009900,1,N,1","+0050,1","+0020,1","99999,9",,,,,"10261,1,99999,9",,,,"MET049METAR EGOW 150650Z 05006KT CAVOK 05/02 Q1026 BLU;",
"03018099999","2010-04-15T07:50:00","4","53.581575","-3.055522","11.27","WOODVALE, UK","FM-15","EGOW ","V020","070,1,N,0026,1","99999,9,9,Y","009900,1,N,1","+0080,1","+0030,1","99999,9",,,,,"10261,1,99999,9",,,,"MET049METAR EGOW 150750Z 07005KT CAVOK 08/03 Q1026 BLU;",
"03018099999","2010-04-16T06:50:00","4","53.581575","-3.055522","11.27","WOODVALE, UK","FM-15","EGOW ","V020","999,9,C,0000,1","01350,1,C,N","011265,1,N,1","+0060,1","+0040,1","99999,9","07,5,+01350,1,99,9",,,"07,99,1,99,9,99,9,99999,9,99,9,99,9","10301,1,99999,9",,,,"MET055METAR EGOW 160650Z 00000KT 9999 BKN045 06/04 Q1030 BLU;",
"03018099999","2010-04-21T06:50:00","4","53.581575","-3.055522","11.27","WOODVALE, UK","FM-15","EGOW ","V020","340,1,N,0077,1","22000,1,9,N","011265,1,N,1","+0060,1","-0020,1","99999,9","02,5,+00840,1,99,9",,,"02,99,1,99,9,99,9,99999,9,99,9,99,9","10220,1,99999,9",,,,"MET056METAR EGOW 210650Z 34015KT 9999 FEW028 06/M02 Q1022 BLU;",
"03018099999","2010-04-21T07:50:00","4","53.581575","-3.055522","11.27","WOODVALE, UK","FM-15","EGOW ","V020","340,1,N,0072,1","22000,1,9,N","011265,1,N,1","+0060,1","-0030,1","99999,9","02,5,+00900,1,99,9",,,"02,99,1,99,9,99,9,99999,9,99,9,99,9","10230,1,99999,9",,,,"MET056METAR EGOW 210750Z 34014KT 9999 FEW030 06/M03 Q1023 BLU;",
"03018099999","2010-04-21T08:50:00","4","53.581575","-3.055522","11.27","WOODVALE, UK","FM-15","EGOW ","V020","340,1,N,0057,1","22000,1,9,N","011265,1,N,1","+0070,1","-0030,1","99999,9","02,5,+00900,1,99,9",,,"02,99,1,99,9,99,9,99999,9,99,9,99,9","10230,1,99999,9",,,,"MET056METAR EGOW 210850Z 34011KT 9999 FEW030 07/M03 Q1023 BLU;",
"03018099999","2010-04-21T09:50:00","4","53.581575","-3.055522","11.27","WOODVALE, UK","FM-15","EGOW ","V020","350,1,N,0046,1","22000,1,9,N","011265,1,N,1","+0070,1","-0030,1","99999,9","02,5,+00900,1,99,9",,,"02,99,1,99,9,99,9,99999,9,99,9,99,9","10230,1,99999,9",,,,"MET056METAR EGOW 210950Z 35009KT 9999 FEW030 07/M03 Q1023 BLU;",
"03018099999","2010-04-21T10:50:00","4","53.581575","-3.055522","11.27","WOODVALE, UK","FM-15","EGOW ","V020","350,1,N,0051,1","22000,1,9,N","011265,1,N,1","+0080,1","-0010,1","99999,9","02,5,+01050,1,99,9",,,"02,99,1,99,9,99,9,99999,9,99,9,99,9","10230,1,99999,9",,,,"MET056METAR EGOW 211050Z 35010KT 9999 FEW035 08/M01 Q1023 BLU;",
"03018099999","2010-04-21T13:50:00","4","53.581575","-3.055522","11.27","WOODVALE, UK","FM-15","EGOW ","V020","310,1,N,0062,1","99999,9,9,Y","011265,1,N,1","+0100,1","+0000,1","99999,9",,,,,"10230,1,99999,9",,,,"MET054METAR EGOW 211350Z 31012KT 9999 CAVOK 10/00 Q1023 BLU;",
"03018099999","2010-04-22T06:50:00","4","53.581575","-3.055522","11.27","WOODVALE, UK","FM-15","EGOW ","V020","170,1,N,0021,1","05400,1,C,N","007000,1,N,1","+0020,1","+0010,1","99999,9","02,5,+00300,1,99,9","07,5,+05400,1,99,9",,"07,99,1,99,9,99,9,99999,9,99,9,99,9","10200,1,99999,9","05,1",,,"MET065METAR EGOW 220650Z 17004KT 7000 HZ FEW010 BKN180 02/01 Q1020 WHT;",
"03018099999","2010-04-22T07:50:00","4","53.581575","-3.055522","11.27","WOODVALE, UK","FM-15","EGOW ","V020","280,1,N,0026,1","22000,1,9,N","008000,1,N,1","+0080,1","+0040,1","99999,9","02,5,+00600,1,99,9",,,"02,99,1,99,9,99,9,99999,9,99,9,99,9","10200,1,99999,9","05,1",,,"MET058METAR EGOW 220750Z 28005KT 8000 HZ FEW020 08/04 Q1020 BLU;",
"03018099999","2010-04-22T08:50:00","4","53.581575","-3.055522","11.27","WOODVALE, UK","FM-15","EGOW ","V020","290,1,N,0021,1","22000,1,9,N","011265,1,N,1","+0100,1","+0040,1","99999,9","02,5,+00750,1,99,9",,,"02,99,1,99,9,99,9,99999,9,99,9,99,9","10200,1,99999,9",,,,"MET055METAR EGOW 220850Z 29004KT 9999 FEW025 10/04 Q1020 BLU;",
"03018099999","2010-04-22T09:50:00","4","53.581575","-3.055522","11.27","WOODVALE, UK","FM-15","EGOW ","V020","290,1,N,0031,1","22000,1,9,N","011265,1,N,1","+0110,1","+0040,1","99999,9","02,5,+00750,1,99,9",,,"02,99,1,99,9,99,9,99999,9,99,9,99,9","10200,1,99999,9",,,,"MET055METAR EGOW 220950Z 29006KT 9999 FEW025 11/04 Q1020 BLU;",
"03018099999","2010-04-22T10:50:00","4","53.581575","-3.055522","11.27","WOODVALE, UK","FM-15","EGOW ","V020","300,1,N,0046,1","22000,1,9,N","011265,1,N,1","+0100,1","+0020,1","99999,9","02,5,+00900,1,99,9",,,"02,99,1,99,9,99,9,99999,9,99,9,99,9","10190,1,99999,9",,,,"MET055METAR EGOW 221050Z 30009KT 9999 FEW030 10/02 Q1019 BLU;",
"03018099999","2010-04-22T11:50:00","4","53.581575","-3.055522","11.27","WOODVALE, UK","FM-15","EGOW ","V020","320,1,N,0041,1","22000,1,9,N","011265,1,N,1","+0110,1","+0030,1","99999,9","02,5,+00900,1,99,9",,,"02,99,1,99,9,99,9,99999,9,99,9,99,9","10190,1,99999,9",,,,"MET055METAR EGOW 221150Z 32008KT 9999 FEW030 11/03 Q1019 BLU;",
"03018099999","2010-04-22T12:50:00","4","53.581575","-3.055522","11.27","WOODVALE, UK","FM-15","EGOW ","V020","300,1,N,0046,1","22000,1,9,N","011265,1,N,1","+0120,1","+0030,1","99999,9","02,5,+01080,1,99,9",,,"02,99,1,99,9,99,9,99999,9,99,9,99,9","10190,1,99999,9",,,,"MET055METAR EGOW 221250Z 30009KT 9999 FEW036 12/03 Q1019 BLU;",
"03018099999","2010-04-22T13:50:00","4","53.581575","-3.055522","11.27","WOODVALE, UK","FM-15","EGOW ","V020","320,1,N,0046,1","22000,1,9,N","011265,1,N,1","+0120,1","+0020,1","99999,9","02,5,+01200,1,99,9",,,"02,99,1,99,9,99,9,99999,9,99,9,99,9","10180,1,99999,9",,,,"MET055METAR EGOW 221350Z 32009KT 9999 FEW040 12/02 Q1018 BLU;",
"03018099999","2010-04-23T06:50:00","4","53.581575","-3.055522","11.27","WOODVALE, UK","FM-15","EGOW ","V020","130,1,N,0021,1","99999,9,9,Y","009900,1,N,1","+0040,1","+0020,1","99999,9",,,,,"10159,1,99999,9",,,,"MET049METAR EGOW 230650Z 13004KT CAVOK 04/02 Q1016 BLU;",
"03018099999","2010-04-23T07:50:00","4","53.581575","-3.055522","11.27","WOODVALE, UK","FM-15","EGOW ","V020","140,1,N,0026,1","99999,9,9,Y","009900,1,N,1","+0060,1","+0030,1","99999,9",,,,,"10159,1,99999,9",,,,"MET049METAR EGOW 230750Z 14005KT CAVOK 06/03 Q1016 BLU;",
"03018099999","2010-04-23T08:50:00","4","53.581575","-3.055522","11.27","WOODVALE, UK","FM-15","EGOW ","V020","170,1,N,0031,1","99999,9,9,Y","009900,1,N,1","+0090,1","+0030,1","99999,9",,,,,"10159,1,99999,9",,,,"MET049METAR EGOW 230850Z 17006KT CAVOK 09/03 Q1016 BLU;",
"03018099999","2010-04-23T09:50:00","4","53.581575","-3.055522","11.27","WOODVALE, UK","FM-15","EGOW ","V020","210,1,N,0036,1","99999,9,9,Y","009900,1,N,1","+0120,1","+0010,1","99999,9",,,,,"10159,1,99999,9",,,,"MET049METAR EGOW 230950Z 21007KT CAVOK 12/01 Q1016 BLU;",
"03018099999","2010-04-23T10:50:00","4","53.581575","-3.055522","11.27","WOODVALE, UK","FM-15","EGOW ","V020","250,1,N,0026,1","99999,9,9,Y","009900,1,N,1","+0120,1","+0020,1","99999,9",,,,,"10159,1,99999,9",,,,"MET049METAR EGOW 231050Z 25005KT CAVOK 12/02 Q1016 BLU;",
"03018099999","2010-04-23T11:50:00","4","53.581575","-3.055522","11.27","WOODVALE, UK","FM-15","EGOW ","V020","310,1,N,0036,1","99999,9,9,Y","009900,1,N,1","+0120,1","+9999,9","99999,9",,,,,"10159,1,99999,9",,,,"MET049METAR EGOW 231150Z 31007KT CAVOK 12/// Q1016 BLU;",
"03018099999","2010-04-23T12:50:00","4","53.581575","-3.055522","11.27","WOODVALE, UK","FM-15","EGOW ","V020","340,1,N,0026,1","99999,9,9,Y","009900,1,N,1","+0130,1","+0030,1","99999,9",,,,,"10149,1,99999,9",,,,"MET049METAR EGOW 231250Z 34005KT CAVOK 13/03 Q1015 BLU;",
"03018099999","2010-04-23T13:50:00","4","53.581575","-3.055522","11.27","WOODVALE, UK","FM-15","EGOW ","V020","320,1,N,0026,1","99999,9,9,Y","009900,1,N,1","+0130,1","+0030,1","99999,9",,,,,"10159,1,99999,9",,,,"MET049METAR EGOW 231350Z 32005KT CAVOK 13/03 Q1016 BLU;",
"03018099999","2010-04-23T14:50:00","4","53.581575","-3.055522","11.27","WOODVALE, UK","FM-15","EGOW ","V020","330,1,N,0021,1","99999,9,9,Y","009900,1,N,1","+0130,1","+0030,1","99999,9",,,,,"10149,1,99999,9",,,,"MET049METAR EGOW 231450Z 33004KT CAVOK 13/03 Q1015 BLU;",
"03018099999","2010-04-23T15:50:00","4","53.581575","-3.055522","11.27","WOODVALE, UK","FM-15","EGOW ","V020","340,1,N,0036,1","99999,9,9,Y","009900,1,N,1","+0140,1","+0030,1","99999,9",,,,,"10149,1,99999,9",,,,"MET049METAR EGOW 231550Z 34007KT CAVOK 14/03 Q1015 BLU;",
"03018099999","2010-04-24T06:50:00","4","53.581575","-3.055522","11.27","WOODVALE, UK","FM-15","EGOW ","V020","120,1,N,0041,1","22000,1,9,N","008000,1,N,1","+0070,1","+0030,1","99999,9","02,5,+04500,1,99,9",,,"02,99,1,99,9,99,9,99999,9,99,9,99,9","10169,1,99999,9","05,1",,,"MET058METAR EGOW 240650Z 12008KT 8000 HZ FEW150 07/03 Q1017 BLU;",
"03018099999","2010-04-24T07:50:00","4","53.581575","-3.055522","11.27","WOODVALE, UK","FM-15","EGOW ","V020","150,1,N,0046,1","22000,1,9,N","008000,1,N,1","+0100,1","+0050,1","99999,9","02,5,+04500,1,99,9",,,"02,99,1,99,9,99,9,99999,9,99,9,99,9","10169,1,99999,9","05,1",,,"MET058METAR EGOW 240750Z 15009KT 8000 HZ FEW150 10/05 Q1017 BLU;",
"03018099999","2010-04-24T08:50:00","4","53.581575","-3.055522","11.27","WOODVALE, UK","FM-15","EGOW ","V020","140,1,N,0046,1","99999,9,9,Y","009900,1,N,1","+0120,1","+0030,1","99999,9",,,,,"10159,1,99999,9",,,,"MET049METAR EGOW 240850Z 14009KT CAVOK 12/03 Q1016 BLU;",
"03018099999","2010-04-24T09:50:00","4","53.581575","-3.055522","11.27","WOODVALE, UK","FM-15","EGOW ","V020","150,1,N,0046,1","99999,9,9,Y","009900,1,N,1","+0140,1","-0020,1","99999,9",,,,,"10159,1,99999,9",,,,"MET050METAR EGOW 240950Z 15009KT CAVOK 14/M02 Q1016 BLU;",
"03018099999","2010-04-24T10:50:00","4","53.581575","-3.055522","11.27","WOODVALE, UK","FM-15","EGOW ","V020","160,1,N,0067,1","99999,9,9,Y","009900,1,N,1","+0150,1","-0050,1","99999,9",,,,,"10169,1,99999,9",,,,"MET050METAR EGOW 241050Z 16013KT CAVOK 15/M05 Q1017 BLU;",
"03018099999","2010-04-24T11:50:00","4","53.581575","-3.055522","11.27","WOODVALE, UK","FM-15","EGOW ","V020","160,1,N,0082,1","99999,9,9,Y","009900,1,N,1","+0170,1","-0070,1","99999,9",,,,,"10159,1,99999,9",,,,"MET050METAR EGOW 241150Z 16016KT CAVOK 17/M07 Q1016 BLU;",
"03018099999","2010-04-24T12:50:00","4","53.581575","-3.055522","11.27","WOODVALE, UK","FM-15","EGOW ","V020","150,1,N,0077,1","99999,9,9,Y","009900,1,N,1","+0180,1","-0050,1","99999,9",,,,,"10159,1,99999,9",,,,"MET050METAR EGOW 241250Z 15015KT CAVOK 18/M05 Q1016 BLU;",
"03018099999","2010-04-24T13:50:00","4","53.581575","-3.055522","11.27","WOODVALE, UK","FM-15","EGOW ","V020","150,1,N,0067,1","99999,9,9,Y","009900,1,N,1","+0180,1","-0010,1","99999,9",,,,,"10159,1,99999,9",,,,"MET050METAR EGOW 241350Z 15013KT CAVOK 18/M01 Q1016 BLU;",
"03018099999","2010-04-25T06:50:00","4","53.581575","-3.055522","11.27","WOODVALE, UK","FM-15","EGOW ","V020","150,1,N,0041,1","00750,1,C,N","004000,1,N,1","+0100,1","+0090,1","99999,9","04,5,+00600,1,99,9","07,5,+00750,1,99,9",,"07,99,1,99,9,99,9,99999,9,99,9,99,9","10190,1,99999,9","10,1",,,"MET065METAR EGOW 250650Z 15008KT 4000 BR SCT020 BKN025 10/09 Q1019 GRN;",
"03018099999","2010-04-25T07:50:00","4","53.581575","-3.055522","11.27","WOODVALE, UK","FM-15","EGOW ","V020","170,1,N,0036,1","01350,1,C,N","005000,1,N,1","+0110,1","+0100,1","99999,9","02,5,+00720,1,99,9","04,5,+01350,1,99,9","07,5,+03600,1,99,9","07,99,1,99,9,99,9,99999,9,99,9,99,9","10159,1,99999,9","10,1",,,"MET072METAR EGOW 250750Z 17007KT 5000 BR FEW024 SCT045 BKN120 11/10 Q1016 WHT;",
"03018099999","2010-04-25T08:50:00","4","53.581575","-3.055522","11.27","WOODVALE, UK","FM-15","EGOW ","V020","210,1,N,0046,1","99999,9,C,N","011265,1,N,1","+0130,1","+0090,1","99999,9","02,5,+00600,1,99,9","04,5,+01350,1,99,9",,"04,99,1,99,9,99,9,99999,9,99,9,99,9","10159,1,99999,9",,,,"MET062METAR EGOW 250850Z 21009KT 9999 FEW020 SCT045 13/09 Q1016 BLU;","P01 013503SCOCIG"
"03018099999","2010-04-25T09:50:00","4","53.581575","-3.055522","11.27","WOODVALE, UK","FM-15","EGOW ","V020","230,1,N,0041,1","99999,9,C,N","011265,1,N,1","+0150,1","+0090,1","99999,9","02,5,+00750,1,99,9","04,5,+01200,1,99,9",,"04,99,1,99,9,99,9,99999,9,99,9,99,9","10169,1,99999,9",,,,"MET062METAR EGOW 250950Z 23008KT 9999 FEW025 SCT040 15/09 Q1017 BLU;","P01 012003SCOCIG"
"03018099999","2010-04-25T10:50:00","4","53.581575","-3.055522","11.27","WOODVALE, UK","FM-15","EGOW ","V020","220,1,N,0046,1","99999,9,C,N","011265,1,N,1","+0160,1","+0090,1","99999,9","02,5,+00750,1,99,9","04,5,+01200,1,99,9",,"04,99,1,99,9,99,9,99999,9,99,9,99,9","10169,1,99999,9",,,,"MET062METAR EGOW 251050Z 22009KT 9999 FEW025 SCT040 16/09 Q1017 BLU;","P01 012003SCOCIG"
"03018099999","2010-04-28T06:50:00","4","53.581575","-3.055522","11.27","WOODVALE, UK","FM-15","EGOW ","V020","150,1,N,0041,1","99999,9,9,Y","009900,1,N,1","+0130,1","+0080,1","99999,9",,,,,"10180,1,99999,9",,,,"MET049METAR EGOW 280650Z 15008KT CAVOK 13/08 Q1018 BLU;",
"03018099999","2010-04-28T07:50:00","4","53.581575","-3.055522","11.27","WOODVALE, UK","FM-15","EGOW ","V020","150,1,N,0062,1","99999,9,9,Y","009900,1,N,1","+0150,1","+0070,1","99999,9",,,,,"10169,1,99999,9",,,,"MET049METAR EGOW 280750Z 15012KT CAVOK 15/07 Q1017 BLU;",
"03018099999","2010-04-28T08:50:00","4","53.581575","-3.055522","11.27","WOODVALE, UK","FM-15","EGOW ","V020","150,1,N,0062,1","99999,9,9,Y","009900,1,N,1","+0140,1","+0080,1","99999,9",,,,,"10169,1,99999,9",,,,"MET049METAR EGOW 280850Z 15012KT CAVOK 14/08 Q1017 BLU;",
"03018099999","2010-04-28T09:50:00","4","53.581575","-3.055522","11.27","WOODVALE, UK","FM-15","EGOW ","V020","150,1,N,0057,1","99999,9,9,Y","009900,1,N,1","+0150,1","+0080,1","99999,9",,,,,"10169,1,99999,9",,,,"MET049METAR EGOW 280950Z 15011KT CAVOK 15/08 Q1017 BLU;",
"03018099999","2010-04-28T10:50:00","4","53.581575","-3.055522","11.27","WOODVALE, UK","FM-15","EGOW ","V020","160,1,N,0067,1","99999,9,9,Y","009900,1,N,1","+0170,1","+0090,1","99999,9",,,,,"10159,1,99999,9",,,,"MET049METAR EGOW 281050Z 16013KT CAVOK 17/09 Q1016 BLU;",
"03018099999","2010-04-28T11:50:00","4","53.581575","-3.055522","11.27","WOODVALE, UK","FM-15","EGOW ","V020","150,1,N,0051,1","99999,9,9,Y","009900,1,N,1","+0190,1","+0100,1","99999,9",,,,,"10149,1,99999,9",,,,"MET049METAR EGOW 281150Z 15010KT CAVOK 19/10 Q1015 BLU;",
"03018099999","2010-04-28T12:50:00","4","53.581575","-3.055522","11.27","WOODVALE, UK","FM-15","EGOW ","V020","170,1,N,0062,1","99999,9,9,Y","009900,1,N,1","+0200,1","+0090,1","99999,9",,,,,"10149,1,99999,9",,,,"MET049METAR EGOW 281250Z 17012KT CAVOK 20/09 Q1015 BLU;",
"03018099999","2010-04-28T13:50:00","4","53.581575","-3.055522","11.27","WOODVALE, UK","FM-15","EGOW ","V020","170,1,N,0051,1","99999,9,9,Y","009900,1,N,1","+0200,1","+0110,1","99999,9",,,,,"10139,1,99999,9",,,,"MET049METAR EGOW 281350Z 17010KT CAVOK 20/11 Q1014 BLU;",
"03018099999","2010-04-28T14:50:00","4","53.581575","-3.055522","11.27","WOODVALE, UK","FM-15","EGOW ","V020","210,1,N,0057,1","99999,9,9,Y","009900,1,N,1","+0200,1","+0110,1","99999,9",,,,,"10139,1,99999,9",,,,"MET049METAR EGOW 281450Z 21011KT CAVOK 20/11 Q1014 BLU;",
"03018099999","2010-04-29T06:50:00","4","53.581575","-3.055522","11.27","WOODVALE, UK","FM-15","EGOW ","V020","240,1,N,0051,1","01230,1,C,N","011265,1,N,1","+0110,1","+0110,1","99999,9","04,5,+00660,1,99,9","07,5,+01230,1,99,9",,"07,99,1,99,9,99,9,99999,9,99,9,99,9","10108,1,99999,9",,,,"MET062METAR EGOW 290650Z 24010KT 9999 SCT022 BKN041 11/11 Q1011 WHT;",
"03018099999","2010-04-29T07:50:00","4","53.581575","-3.055522","11.27","WOODVALE, UK","FM-15","EGOW ","V020","270,1,N,0057,1","00600,1,C,N","011265,1,N,1","+0110,1","+0100,1","99999,9","02,5,+00180,1,99,9","04,5,+00600,1,99,9","07,5,+01200,1,99,9","07,99,1,99,9,99,9,99999,9,99,9,99,9","10108,1,99999,9",,,,"MET069METAR EGOW 290750Z 27011KT 9999 FEW006 SCT020 BKN040 11/10 Q1011 WHT;",
"03018099999","2010-04-29T08:50:00","4","53.581575","-3.055522","11.27","WOODVALE, UK","FM-15","EGOW ","V020","250,1,N,0051,1","00900,1,C,N","009000,1,N,1","+0120,1","+0100,1","99999,9","02,5,+00120,1,99,9","04,5,+00900,1,99,9","07,5,+01290,1,99,9","07,99,1,99,9,99,9,99999,9,99,9,99,9","10108,1,99999,9","61,1",,,"MET073METAR EGOW 290850Z 25010KT 9000 -RA FEW004 SCT030 BKN043 12/10 Q1011 BLU;",
"03018099999","2010-04-29T09:50:00","4","53.581575","-3.055522","11.27","WOODVALE, UK","FM-15","EGOW ","V020","260,1,N,0057,1","00900,1,C,N","011265,1,N,1","+0110,1","+0100,1","99999,9","02,5,+00180,1,99,9","07,5,+00900,1,99,9",,"07,99,1,99,9,99,9,99999,9,99,9,99,9","10108,1,99999,9",,,,"MET062METAR EGOW 290950Z 26011KT 9999 FEW006 BKN030 11/10 Q1011 BLU;",
"03018099999","2010-04-29T10:50:00","4","53.581575","-3.055522","11.27","WOODVALE, UK","FM-15","EGOW ","V020","270,1,N,0051,1","00900,1,C,N","011265,1,N,1","+0110,1","+0080,1","99999,9","02,5,+00240,1,99,9","07,5,+00900,1,99,9",,"07,99,1,99,9,99,9,99999,9,99,9,99,9","10108,1,99999,9",,,,"MET062METAR EGOW 291050Z 27010KT 9999 FEW008 BKN030 11/08 Q1011 BLU;",
"03018099999","2010-04-29T11:50:00","4","53.581575","-3.055522","11.27","WOODVALE, UK","FM-15","EGOW ","V020","290,1,N,0031,1","01050,1,C,N","011265,1,N,1","+0110,1","+0090,1","99999,9","02,5,+00540,1,99,9","07,5,+01050,1,99,9",,"07,99,1,99,9,99,9,99999,9,99,9,99,9","10102,1,99999,9",,,,"MET062METAR EGOW 291150Z 29006KT 9999 FEW018 BKN035 11/09 Q1010 BLU;",
"03018099999","2010-04-29T12:50:00","4","53.581575","-3.055522","11.27","WOODVALE, UK","FM-15","EGOW ","V020","270,1,N,0036,1","01140,1,C,N","011265,1,N,1","+0110,1","+0080,1","99999,9","02,5,+00240,1,99,9","07,5,+01140,1,99,9",,"07,99,1,99,9,99,9,99999,9,99,9,99,9","10102,1,99999,9",,,,"MET062METAR EGOW 291250Z 27007KT 9999 FEW008 BKN038 11/08 Q1010 BLU;",
"03018099999","2010-04-29T13:50:00","4","53.581575","-3.055522","11.27","WOODVALE, UK","FM-15","EGOW ","V020","290,1,N,0026,1","01200,1,C,N","011265,1,N,1","+0110,1","+0080,1","99999,9","02,5,+00600,1,99,9","07,5,+01200,1,99,9",,"07,99,1,99,9,99,9,99999,9,99,9,99,9","10091,1,99999,9",,,,"MET062METAR EGOW 291350Z 29005KT 9999 FEW020 BKN040 11/08 Q1009 BLU;",
"03018099999","2010-04-29T14:50:00","4","53.581575","-3.055522","11.27","WOODVALE, UK","FM-15","EGOW ","V020","310,1,N,0031,1","01200,1,C,N","011265,1,N,1","+0110,1","+0080,1","99999,9","02,5,+00510,1,99,9","07,5,+01200,1,99,9",,"07,99,1,99,9,99,9,99999,9,99,9,99,9","10091,1,99999,9",,,,"MET062METAR EGOW 291450Z 31006KT 9999 FEW017 BKN040 11/08 Q1009 BLU;",
"03018099999","2010-04-30T06:50:00","4","53.581575","-3.055522","11.27","WOODVALE, UK","FM-15","EGOW ","V020","260,1,N,0031,1","00600,1,C,N","011265,1,N,1","+0100,1","+0080,1","99999,9","02,5,+00300,1,99,9","07,5,+00600,1,99,9","07,5,+01500,1,99,9","07,99,1,99,9,99,9,99999,9,99,9,99,9","10061,1,99999,9",,,,"MET069METAR EGOW 300650Z 26006KT 9999 FEW010 BKN020 BKN050 10/08 Q1006 WHT;",
"03018099999","2010-04-30T07:50:00","4","53.581575","-3.055522","11.27","WOODVALE, UK","FM-15","EGOW ","V020","270,1,N,0062,1","00600,1,C,N","011265,1,N,1","+0100,1","+0080,1","99999,9","02,5,+00300,1,99,9","04,5,+00600,1,99,9","07,5,+01500,1,99,9","07,99,1,99,9,99,9,99999,9,99,9,99,9","10071,1,99999,9",,,,"MET069METAR EGOW 300750Z 27012KT 9999 FEW010 SCT020 BKN050 10/08 Q1007 WHT;",
"03018099999","2010-04-30T08:50:00","4","53.581575","-3.055522","11.27","WOODVALE, UK","FM-15","EGOW ","V020","250,1,N,0062,1","99999,9,C,N","011265,1,N,1","+0110,1","+0080,1","99999,9","02,5,+00300,1,99,9","04,5,+00600,1,99,9",,"04,99,1,99,9,99,9,99999,9,99,9,99,9","10071,1,99999,9",,,,"MET062METAR EGOW 300850Z 25012KT 9999 FEW010 SCT020 11/08 Q1007 WHT;","P01 006003SCOCIG"
"03018099999","2010-04-30T09:50:00","4","53.581575","-3.055522","11.27","WOODVALE, UK","FM-15","EGOW ","V020","260,1,N,0051,1","99999,9,C,N","011265,1,N,1","+0130,1","+0080,1","99999,9","02,5,+00600,1,99,9","04,5,+06000,1,99,9",,"04,99,1,99,9,99,9,99999,9,99,9,99,9","10071,1,99999,9",,,,"MET062METAR EGOW 300950Z 26010KT 9999 FEW020 SCT200 13/08 Q1007 BLU;","P01 060003SCOCIG"
"03018099999","2010-04-30T10:50:00","4","53.581575","-3.055522","11.27","WOODVALE, UK","FM-15","EGOW ","V020","250,1,N,0051,1","99999,9,C,N","011265,1,N,1","+0130,1","+0070,1","99999,9","02,5,+00600,1,99,9","04,5,+04500,1,99,9",,"04,99,1,99,9,99,9,99999,9,99,9,99,9","10071,1,99999,9",,,,"MET062METAR EGOW 301050Z 25010KT 9999 FEW020 SCT150 13/07 Q1007 BLU;","P01 045003SCOCIG"
"03018099999","2010-04-30T11:50:00","4","53.581575","-3.055522","11.27","WOODVALE, UK","FM-15","EGOW ","V020","260,1,N,0041,1","99999,9,C,N","011265,1,N,1","+0120,1","+0080,1","99999,9","02,5,+00600,1,99,9","04,5,+00900,1,99,9",,"04,99,1,99,9,99,9,99999,9,99,9,99,9","10061,1,99999,9",,,,"MET062METAR EGOW 301150Z 26008KT 9999 FEW020 SCT030 12/08 Q1006 BLU;","P01 009003SCOCIG"
"03018099999","2010-04-30T13:50:00","4","53.581575","-3.055522","11.27","WOODVALE, UK","FM-15","EGOW ","V020","290,1,N,0026,1","00750,1,C,N","011265,1,N,1","+0110,1","+0090,1","99999,9","04,5,+00450,1,99,9","07,5,+00750,1,99,9",,"07,99,1,99,9,99,9,99999,9,99,9,99,9","10061,1,99999,9",,,,"MET062METAR EGOW 301350Z 29005KT 9999 SCT015 BKN025 11/09 Q1006 WHT;",
"03018099999","2010-04-30T14:50:00","4","53.581575","-3.055522","11.27","WOODVALE, UK","FM-15","EGOW ","V020","270,1,N,0031,1","00300,1,C,N","006000,1,N,1","+0100,1","+0080,1","99999,9","07,5,+00300,1,99,9",,,"07,99,1,99,9,99,9,99999,9,99,9,99,9","10061,1,99999,9","61,1",,,"MET059METAR EGOW 301450Z 27006KT 6000 -RA BKN010 10/08 Q1006 GRN;",
"03018099999","2010-05-05T06:50:00","4","53.581575","-3.055522","11.27","WOODVALE, UK","FM-15","EGOW ","V020","290,1,N,0051,1","00210,1,C,N","004000,1,N,1","+0090,1","+0090,1","99999,9","07,5,+00210,1,99,9",,,"07,99,1,99,9,99,9,99999,9,99,9,99,9","10230,1,99999,9","51,1",,,"MET059METAR EGOW 050650Z 29010KT 4000 -DZ BKN007 09/09 Q1023 GRN;",
"03018099999","2010-05-05T07:50:00","4","53.581575","-3.055522","11.27","WOODVALE, UK","FM-15","EGOW ","V020","290,1,N,0062,1","00090,1,C,N","004000,1,N,1","+0100,1","+0090,1","99999,9","07,5,+00090,1,99,9",,,"07,99,1,99,9,99,9,99999,9,99,9,99,9","10230,1,99999,9","51,1",,,"MET060METAR EGOW 050750Z 29012KT 4000 -DZ BKN003 10/09 Q1023 YLO2;",
"03018099999","2010-05-05T08:50:00","4","53.581575","-3.055522","11.27","WOODVALE, UK","FM-15","EGOW ","V020","310,1,N,0046,1","00060,1,C,N","002000,1,N,1","+0100,1","+0090,1","99999,9","08,5,+00060,1,99,9",,,"08,99,1,99,9,99,9,99999,9,99,9,99,9","10230,1,99999,9","53,1",,,"MET058METAR EGOW 050850Z 31009KT 2000 DZ OVC002 10/09 Q1023 AMB;",
"03018099999","2010-05-05T09:50:00","4","53.581575","-3.055522","11.27","WOODVALE, UK","FM-15","EGOW ","V020","280,1,N,0046,1","00060,1,C,N","001200,1,N,1","+0100,1","+0100,1","99999,9","08,5,+00060,1,99,9",,,"08,99,1,99,9,99,9,99999,9,99,9,99,9","10220,1,99999,9","51,1",,,"MET059METAR EGOW 050950Z 28009KT 1200 -DZ OVC002 10/10 Q1022 AMB;",
"03018099999","2010-05-05T10:50:00","4","53.581575","-3.055522","11.27","WOODVALE, UK","FM-15","EGOW ","V020","300,1,N,0051,1","00090,1,C,N","001200,1,N,1","+0100,1","+0100,1","99999,9","08,5,+00090,1,99,9",,,"08,99,1,99,9,99,9,99999,9,99,9,99,9","10220,1,99999,9","53,1",,,"MET058METAR EGOW 051050Z 30010KT 1200 DZ OVC003 10/10 Q1022 AMB;",
"03018099999","2010-05-05T11:50:00","4","53.581575","-3.055522","11.27","WOODVALE, UK","FM-15","EGOW ","V020","300,1,N,0057,1","00090,1,C,N","001200,1,N,1","+0100,1","+0100,1","99999,9","08,5,+00090,1,99,9",,,"08,99,1,99,9,99,9,99999,9,99,9,99,9","10210,1,99999,9","51,1",,,"MET059METAR EGOW 051150Z 30011KT 1200 -DZ OVC003 10/10 Q1021 AMB;",
"03018099999","2010-05-05T12:50:00","4","53.581575","-3.055522","11.27","WOODVALE, UK","FM-15","EGOW ","V020","300,1,N,0036,1","00090,1,C,N","001800,1,N,1","+0100,1","+0100,1","99999,9","08,5,+00090,1,99,9",,,"08,99,1,99,9,99,9,99999,9,99,9,99,9","10210,1,99999,9","51,1",,,"MET060METAR EGOW 051250Z 30007KT 1800 -DZ OVC003 10/10 Q1021 YLO2;",
"03018099999","2010-05-06T06:50:00","4","53.581575","-3.055522","11.27","WOODVALE, UK","FM-15","EGOW ","V020","040,1,N,0010,1","00120,1,C,N","008000,1,N,1","+0100,1","+0100,1","99999,9","07,5,+00120,1,99,9",,,"07,99,1,99,9,99,9,99999,9,99,9,99,9","10139,1,99999,9","05,1",,,"MET059METAR EGOW 060650Z 04002KT 8000 HZ BKN004 10/10 Q1014 YLO2;",
"03018099999","2010-05-06T07:50:00","4","53.581575","-3.055522","11.27","WOODVALE, UK","FM-15","EGOW ","V020","060,1,N,0021,1","00120,1,C,N","006000,1,N,1","+0110,1","+0110,1","99999,9","07,5,+00120,1,99,9",,,"07,99,1,99,9,99,9,99999,9,99,9,99,9","10139,1,99999,9","05,1",,,"MET059METAR EGOW 060750Z 06004KT 6000 HZ BKN004 11/11 Q1014 YLO2;",
"03018099999","2010-05-06T08:50:00","4","53.581575","-3.055522","11.27","WOODVALE, UK","FM-15","EGOW ","V020","010,1,N,0026,1","00120,1,C,N","005000,1,N,1","+0110,1","+0100,1","99999,9","07,5,+00120,1,99,9",,,"07,99,1,99,9,99,9,99999,9,99,9,99,9","10139,1,99999,9","10,1",,,"MET059METAR EGOW 060850Z 01005KT 5000 BR BKN004 11/10 Q1014 YLO2;",
"03018099999","2010-05-06T09:50:00","4","53.581575","-3.055522","11.27","WOODVALE, UK","FM-15","EGOW ","V020","050,1,N,0062,1","00240,1,C,N","008000,1,N,1","+0120,1","+0100,1","99999,9","02,5,+00120,1,99,9","04,5,+00240,1,99,9","07,5,+00600,1,99,9","07,99,1,99,9,99,9,99999,9,99,9,99,9","10139,1,99999,9","51,1",,,"MET073METAR EGOW 060950Z 05012KT 8000 -DZ FEW004 SCT008 BKN020 12/10 Q1014 GRN;",
"03018099999","2010-05-06T10:50:00","4","53.581575","-3.055522","11.27","WOODVALE, UK","FM-15","EGOW ","V020","070,1,N,0051,1","00600,1,C,N","011265,1,N,1","+0120,1","+0100,1","99999,9","02,5,+00120,1,99,9","04,5,+00600,1,99,9","07,5,+01500,1,99,9","07,99,1,99,9,99,9,99999,9,99,9,99,9","10139,1,99999,9",,,,"MET069METAR EGOW 061050Z 07010KT 9999 FEW004 SCT020 BKN050 12/10 Q1014 WHT;",
"03018099999","2010-05-06T11:50:00","4","53.581575","-3.055522","11.27","WOODVALE, UK","FM-15","EGOW ","V020","060,1,N,0041,1","00600,1,C,N","011265,1,N,1","+0140,1","+0090,1","99999,9","02,5,+00450,1,99,9","04,5,+00600,1,99,9","07,5,+01500,1,99,9","07,99,1,99,9,99,9,99999,9,99,9,99,9","10139,1,99999,9",,,,"MET069METAR EGOW 061150Z 06008KT 9999 FEW015 SCT020 BKN050 14/09 Q1014 WHT;",
"03018099999","2010-05-06T12:50:00","4","53.581575","-3.055522","11.27","WOODVALE, UK","FM-15","EGOW ","V020","060,1,N,0041,1","00600,1,C,N","011265,1,N,1","+0140,1","+0090,1","99999,9","02,5,+00450,1,99,9","04,5,+00600,1,99,9","07,5,+01500,1,99,9","07,99,1,99,9,99,9,99999,9,99,9,99,9","10139,1,99999,9",,,,"MET069METAR EGOW 061250Z 06008KT 9999 FEW015 SCT020 BKN050 14/09 Q1014 WHT;",
"03018099999","2010-05-06T13:50:00","4","53.581575","-3.055522","11.27","WOODVALE, UK","FM-15","EGOW ","V020","070,1,N,0072,1","01200,1,C,N","011265,1,N,1","+0130,1","+0080,1","99999,9","04,5,+00540,1,99,9","07,5,+01200,1,99,9",,"07,99,1,99,9,99,9,99999,9,99,9,99,9","10139,1,99999,9",,,,"MET062METAR EGOW 061350Z 07014KT 9999 SCT018 BKN040 13/08 Q1014 WHT;",
"03018099999","2010-05-06T14:50:00","4","53.581575","-3.055522","11.27","WOODVALE, UK","FM-15","EGOW ","V020","070,1,N,0046,1","01200,1,C,N","011265,1,N,1","+0130,1","+0080,1","99999,9","04,5,+00540,1,99,9","07,5,+01200,1,99,9",,"07,99,1,99,9,99,9,99999,9,99,9,99,9","10139,1,99999,9",,,,"MET062METAR EGOW 061450Z 07009KT 9999 SCT018 BKN040 13/08 Q1014 WHT;",
"03018099999","2010-05-07T06:50:00","4","53.581575","-3.055522","11.27","WOODVALE, UK","FM-15","EGOW ","V020","060,1,N,0041,1","01350,1,C,N","011265,1,N,1","+0080,1","+0050,1","99999,9","02,5,+00600,1,99,9","07,5,+01350,1,99,9",,"07,99,1,99,9,99,9,99999,9,99,9,99,9","10149,1,99999,9",,,,"MET062METAR EGOW 070650Z 06008KT 9999 FEW020 BKN045 08/05 Q1015 BLU;",
"03018099999","2010-05-07T07:50:00","4","53.581575","-3.055522","11.27","WOODVALE, UK","FM-15","EGOW ","V020","060,1,N,0051,1","00750,1,C,N","011265,1,N,1","+0090,1","+0040,1","99999,9","07,5,+00750,1,99,9",,,"07,99,1,99,9,99,9,99999,9,99,9,99,9","10159,1,99999,9",,,,"MET055METAR EGOW 070750Z 06010KT 9999 BKN025 09/04 Q1016 BLU;",
"03018099999","2010-05-07T08:50:00","4","53.581575","-3.055522","11.27","WOODVALE, UK","FM-15","EGOW ","V020","070,1,N,0062,1","01500,1,C,N","011265,1,N,1","+0090,1","+0040,1","99999,9","02,5,+00450,1,99,9","07,5,+01500,1,99,9",,"07,99,1,99,9,99,9,99999,9,99,9,99,9","10159,1,99999,9",,,,"MET062METAR EGOW 070850Z 07012KT 9999 FEW015 BKN050 09/04 Q1016 BLU;",
"03018099999","2010-05-07T09:50:00","4","53.581575","-3.055522","11.27","WOODVALE, UK","FM-15","EGOW ","V020","040,1,N,0062,1","99999,9,C,N","011265,1,N,1","+0110,1","+0040,1","99999,9","02,5,+00600,1,99,9","04,5,+01200,1,99,9",,"04,99,1,99,9,99,9,99999,9,99,9,99,9","10159,1,99999,9",,,,"MET062METAR EGOW 070950Z 04012KT 9999 FEW020 SCT040 11/04 Q1016 BLU;","P01 012003SCOCIG"
"03018099999","2010-05-07T10:50:00","4","53.581575","-3.055522","11.27","WOODVALE, UK","FM-15","EGOW ","V020","050,1,N,0082,1","99999,9,C,N","011265,1,N,1","+9999,9","+9999,9","99999,9","02,5,+00600,1,99,9","04,5,+01200,1,99,9",,"04,99,1,99,9,99,9,99999,9,99,9,99,9","10149,1,99999,9",,,,"MET061METAR EGOW 071050Z 05016KT 9999 FEW020 SCT040 1/04 Q1015 BLU;","P01 012003SCOCIG"
"03018099999","2010-05-07T11:50:00","4","53.581575","-3.055522","11.27","WOODVALE, UK","FM-15","EGOW ","V020","060,1,N,0077,1","99999,9,C,N","011265,1,N,1","+0130,1","+0020,1","99999,9","02,5,+00660,1,99,9","04,5,+01200,1,99,9",,"04,99,1,99,9,99,9,99999,9,99,9,99,9","10149,1,99999,9",,,,"MET062METAR EGOW 071150Z 06015KT 9999 FEW022 SCT040 13/02 Q1015 BLU;","P01 012003SCOCIG"
"03018099999","2010-05-07T12:50:00","4","53.581575","-3.055522","11.27","WOODVALE, UK","FM-15","EGOW ","V020","050,1,N,0077,1","99999,9,C,N","011265,1,N,1","+0140,1","+0020,1","99999,9","02,5,+00660,1,99,9","04,5,+01050,1,99,9",,"04,99,1,99,9,99,9,99999,9,99,9,99,9","10149,1,99999,9",,,,"MET062METAR EGOW 071250Z 05015KT 9999 FEW022 SCT035 14/02 Q1015 BLU;","P01 010503SCOCIG"
"03018099999","2010-05-07T13:50:00","4","53.581575","-3.055522","11.27","WOODVALE, UK","FM-15","EGOW ","V020","050,1,N,0077,1","22000,1,9,N","011265,1,N,1","+0140,1","-0010,1","99999,9","04,5,+01050,1,99,9",,,"04,99,1,99,9,99,9,99999,9,99,9,99,9","10149,1,99999,9",,,,"MET056METAR EGOW 071350Z 05015KT 9999 SCT035 14/M01 Q1015 BLU;",
"03018099999","2010-05-07T14:50:00","4","53.581575","-3.055522","11.27","WOODVALE, UK","FM-15","EGOW ","V020","040,1,N,0087,1","22000,1,9,N","011265,1,N,1","+0150,1","+0010,1","99999,9","04,5,+01050,1,99,9",,,"04,99,1,99,9,99,9,99999,9,99,9,99,9","10149,1,99999,9",,,,"MET055METAR EGOW 071450Z 04017KT 9999 SCT035 15/01 Q1015 BLU;",
"03018099999","2010-05-08T11:50:00","4","53.581575","-3.055522","11.27","WOODVALE, UK","FM-15","EGOW ","V020","060,1,N,0082,1","22000,1,9,N","011265,1,N,1","+0140,1","+0020,1","99999,9","04,5,+00900,1,99,9",,,"04,99,1,99,9,99,9,99999,9,99,9,99,9","10169,1,99999,9",,,,"MET055METAR EGOW 081150Z 06016KT 9999 SCT030 14/02 Q1017 BLU;",
"03018099999","2010-05-08T12:50:00","4","53.581575","-3.055522","11.27","WOODVALE, UK","FM-15","EGOW ","V020","070,1,N,0067,1","99999,9,C,N","011265,1,N,1","+0150,1","+0030,1","99999,9","02,5,+00900,1,99,9","04,5,+01200,1,99,9",,"04,99,1,99,9,99,9,99999,9,99,9,99,9","10169,1,99999,9",,,,"MET062METAR EGOW 081250Z 07013KT 9999 FEW030 SCT040 15/03 Q1017 BLU;","P01 012003SCOCIG"
"03018099999","2010-05-09T06:50:00","4","53.581575","-3.055522","11.27","WOODVALE, UK","FM-15","EGOW ","V020","999,9,V,0015,1","99999,9,9,Y","009900,1,N,1","+0080,1","+0030,1","99999,9",,,,,"10159,1,99999,9",,,,"MET049METAR EGOW 090650Z VRB03KT CAVOK 08/03 Q1016 BLU;",
"03018099999","2010-05-12T06:50:00","4","53.581575","-3.055522","11.27","WOODVALE, UK","FM-15","EGOW ","V020","100,1,N,0026,1","22000,1,9,N","008000,1,N,1","+0050,1","+0030,1","99999,9","02,5,+00840,1,99,9",,,"02,99,1,99,9,99,9,99999,9,99,9,99,9","10159,1,99999,9","05,1",,,"MET058METAR EGOW 120650Z 10005KT 8000 HZ FEW028 05/03 Q1016 BLU;",
"03018099999","2010-05-12T07:50:00","4","53.581575","-3.055522","11.27","WOODVALE, UK","FM-15","EGOW ","V020","120,1,N,0041,1","99999,9,C,N","011265,1,N,1","+0080,1","+0020,1","99999,9","02,5,+00720,1,99,9","04,5,+01200,1,99,9",,"04,99,1,99,9,99,9,99999,9,99,9,99,9","10159,1,99999,9",,,,"MET062METAR EGOW 120750Z 12008KT 9999 FEW024 SCT040 08/02 Q1016 BLU;","P01 012003SCOCIG"
"03018099999","2010-05-12T08:50:00","4","53.581575","-3.055522","11.27","WOODVALE, UK","FM-15","EGOW ","V020","110,1,N,0036,1","22000,1,9,N","011265,1,N,1","+0090,1","+0020,1","99999,9","04,5,+00660,1,99,9",,,"04,99,1,99,9,99,9,99999,9,99,9,99,9","10169,1,99999,9",,,,"MET055METAR EGOW 120850Z 11007KT 9999 SCT022 09/02 Q1017 WHT;",
"03018099999","2010-05-12T09:50:00","4","53.581575","-3.055522","11.27","WOODVALE, UK","FM-15","EGOW ","V020","130,1,N,0026,1","22000,1,9,N","011265,1,N,1","+0110,1","+0020,1","99999,9","04,5,+00750,1,99,9",,,"04,99,1,99,9,99,9,99999,9,99,9,99,9","10169,1,99999,9",,,,"MET055METAR EGOW 120950Z 13005KT 9999 SCT025 11/02 Q1017 BLU;",
"03018099999","2010-05-12T10:50:00","4","53.581575","-3.055522","11.27","WOODVALE, UK","FM-15","EGOW ","V020","070,1,N,0041,1","22000,1,9,N","011265,1,N,1","+0110,1","+0000,1","99999,9","04,5,+00840,1,99,9",,,"04,99,1,99,9,99,9,99999,9,99,9,99,9","10169,1,99999,9","16,1",,,"MET060METAR EGOW 121050Z 07008KT 9999 VCSH SCT028 11/00 Q1017 BLU;",
"03018099999","2010-05-12T11:50:00","4","53.581575","-3.055522","11.27","WOODVALE, UK","FM-15","EGOW ","V020","050,1,N,0031,1","22000,1,9,N","011265,1,N,1","+0110,1","-0010,1","99999,9","04,5,+00840,1,99,9",,,"04,99,1,99,9,99,9,99999,9,99,9,99,9","10169,1,99999,9","16,1",,,"MET061METAR EGOW 121150Z 05006KT 9999 VCSH SCT028 11/M01 Q1017 BLU;",
"03018099999","2010-05-12T12:50:00","4","53.581575","-3.055522","11.27","WOODVALE, UK","FM-15","EGOW ","V020","060,1,N,0041,1","22000,1,9,N","011265,1,N,1","+0110,1","-0020,1","99999,9","04,5,+00960,1,99,9",,,"04,99,1,99,9,99,9,99999,9,99,9,99,9","10169,1,99999,9","16,1",,,"MET061METAR EGOW 121250Z 06008KT 9999 VCSH SCT032 11/M02 Q1017 BLU;",
"03018099999","2010-05-12T13:50:00","4","53.581575","-3.055522","11.27","WOODVALE, UK","FM-15","EGOW ","V020","050,1,N,0046,1","01200,1,C,N","011265,1,N,1","+0120,1","+0000,1","99999,9","02,5,+00840,1,99,9","04,5,+01200,1,99,9","07,5,+06000,1,99,9","07,99,1,99,9,99,9,99999,9,99,9,99,9","10169,1,99999,9",,,,"MET069METAR EGOW 121350Z 05009KT 9999 FEW028 SCT040 BKN200 12/00 Q1017 BLU;",
"03018099999","2010-05-12T14:50:00","4","53.581575","-3.055522","11.27","WOODVALE, UK","FM-15","EGOW ","V020","030,1,N,0057,1","99999,9,C,N","011265,1,N,1","+0130,1","+0000,1","99999,9","02,5,+00840,1,99,9","02,5,+00840,5,99,9","04,5,+01200,5,99,9","02,99,1,99,9,99,9,99999,9,99,9,99,9","10170,1,99999,9",,,,"MET074METAR EGOW 121450Z 03011KT 9999 FEW028 VCSH FEW028 SCT040 13/00 Q1017 BLU;","P01 012003SCOCIG"
"03018099999","2010-05-13T06:50:00","4","53.581575","-3.055522","11.27","WOODVALE, UK","FM-15","EGOW ","V020","140,1,N,0026,1","99999,9,9,Y","009900,1,N,1","+0060,1","+0030,1","99999,9",,,,,"10149,1,99999,9",,,,"MET049METAR EGOW 130650Z 14005KT CAVOK 06/03 Q1015 BLU;",
"03018099999","2010-05-13T07:50:00","4","53.581575","-3.055522","11.27","WOODVALE, UK","FM-15","EGOW ","V020","160,1,N,0041,1","99999,9,9,Y","009900,1,N,1","+0090,1","+0020,1","99999,9",,,,,"10139,1,99999,9",,,,"MET049METAR EGOW 130750Z 16008KT CAVOK 09/02 Q1014 BLU;",
"03018099999","2010-05-13T08:50:00","4","53.581575","-3.055522","11.27","WOODVALE, UK","FM-15","EGOW ","V020","190,1,N,0036,1","22000,1,9,N","011265,1,N,1","+0100,1","+0030,1","99999,9","02,5,+00900,1,99,9",,,"02,99,1,99,9,99,9,99999,9,99,9,99,9","10139,1,99999,9",,,,"MET055METAR EGOW 130850Z 19007KT 9999 FEW030 10/03 Q1014 BLU;",
"03018099999","2010-05-13T09:50:00","4","53.581575","-3.055522","11.27","WOODVALE, UK","FM-15","EGOW ","V020","230,1,N,0036,1","22000,1,9,N","011265,1,N,1","+0120,1","+0030,1","99999,9","02,5,+00960,1,99,9",,,"02,99,1,99,9,99,9,99999,9,99,9,99,9","10129,1,99999,9",,,,"MET055METAR EGOW 130950Z 23007KT 9999 FEW032 12/03 Q1013 BLU;",
"03018099999","2010-05-13T10:50:00","4","53.581575","-3.055522","11.27","WOODVALE, UK","FM-15","EGOW ","V020","220,1,N,0051,1","22000,1,9,N","011265,1,N,1","+0120,1","+0040,1","99999,9","02,5,+01140,1,99,9",,,"02,99,1,99,9,99,9,99999,9,99,9,99,9","10129,1,99999,9",,,,"MET055METAR EGOW 131050Z 22010KT 9999 FEW038 12/04 Q1013 BLU;",
"03018099999","2010-05-13T11:50:00","4","53.581575","-3.055522","11.27","WOODVALE, UK","FM-15","EGOW ","V020","250,1,N,0051,1","22000,1,9,N","011265,1,N,1","+0130,1","+0030,1","99999,9","02,5,+01200,1,99,9",,,"02,99,1,99,9,99,9,99999,9,99,9,99,9","10119,1,99999,9",,,,"MET055METAR EGOW 131150Z 25010KT 9999 FEW040 13/03 Q1012 BLU;",
"03018099999","2010-05-13T12:50:00","4","53.581575","-3.055522","11.27","WOODVALE, UK","FM-15","EGOW ","V020","290,1,N,0041,1","22000,1,9,N","011265,1,N,1","+0130,1","+0040,1","99999,9","04,5,+01080,1,99,9",,,"04,99,1,99,9,99,9,99999,9,99,9,99,9","10119,1,99999,9",,,,"MET055METAR EGOW 131250Z 29008KT 9999 SCT036 13/04 Q1012 BLU;",
"03018099999","2010-05-13T13:50:00","4","53.581575","-3.055522","11.27","WOODVALE, UK","FM-15","EGOW ","V020","280,1,N,0041,1","22000,1,9,N","011265,1,N,1","+0130,1","+0050,1","99999,9","02,5,+00900,1,99,9",,,"02,99,1,99,9,99,9,99999,9,99,9,99,9","10119,1,99999,9",,,,"MET055METAR EGOW 131350Z 28008KT 9999 FEW030 13/05 Q1012 BLU;",
"03018099999","2010-05-13T14:50:00","4","53.581575","-3.055522","11.27","WOODVALE, UK","FM-15","EGOW ","V020","280,1,N,0036,1","99999,9,C,N","011265,1,N,1","+0130,1","+0040,1","99999,9","02,5,+01080,1,99,9","04,5,+06000,1,99,9",,"04,99,1,99,9,99,9,99999,9,99,9,99,9","10108,1,99999,9",,,,"MET062METAR EGOW 131450Z 28007KT 9999 FEW036 SCT200 13/04 Q1011 BLU;","P01 060003SCOCIG"
"03018099999","2010-05-14T06:50:00","4","53.581575","-3.055522","11.27","WOODVALE, UK","FM-15","EGOW ","V020","150,1,N,0051,1","01200,1,C,N","011265,1,N,1","+0070,1","+0070,1","99999,9","02,5,+00300,1,99,9","04,5,+01200,1,99,9","07,5,+03000,1,99,9","07,99,1,99,9,99,9,99999,9,99,9,99,9","10071,1,99999,9",,,,"MET069METAR EGOW 140650Z 15010KT 9999 FEW010 SCT040 BKN100 07/07 Q1007 BLU;",
"03018099999","2010-05-14T07:50:00","4","53.581575","-3.055522","11.27","WOODVALE, UK","FM-15","EGOW ","V020","160,1,N,0051,1","01200,1,C,N","011265,1,N,1","+0080,1","+0070,1","99999,9","02,5,+00450,1,99,9","07,5,+01200,1,99,9",,"07,99,1,99,9,99,9,99999,9,99,9,99,9","10081,1,99999,9",,,,"MET062METAR EGOW 140750Z 16010KT 9999 FEW015 BKN040 08/07 Q1008 BLU;",
"03018099999","2010-05-14T08:50:00","4","53.581575","-3.055522","11.27","WOODVALE, UK","FM-15","EGOW ","V020","160,1,N,0057,1","01200,1,C,N","011265,1,N,1","+0080,1","+0060,1","99999,9","02,5,+00450,1,99,9","07,5,+01200,1,99,9",,"07,99,1,99,9,99,9,99999,9,99,9,99,9","10081,1,99999,9",,,,"MET062METAR EGOW 140850Z 16011KT 9999 FEW015 BKN040 08/06 Q1008 BLU;",
"03018099999","2010-05-14T09:50:00","4","53.581575","-3.055522","11.27","WOODVALE, UK","FM-15","EGOW ","V020","160,1,N,0051,1","01200,1,C,N","011265,1,N,1","+0080,1","+0070,1","99999,9","02,5,+00300,1,99,9","07,5,+01200,1,99,9",,"07,99,1,99,9,99,9,99999,9,99,9,99,9","10081,1,99999,9","51,1",,,"MET066METAR EGOW 140950Z 16010KT 9999 -DZ FEW010 BKN040 08/07 Q1008 BLU;",
"03018099999","2010-05-14T10:50:00","4","53.581575","-3.055522","11.27","WOODVALE, UK","FM-15","EGOW ","V020","160,1,N,0051,1","01200,1,C,N","011265,1,N,1","+0090,1","+0070,1","99999,9","02,5,+00450,1,99,9","08,5,+01200,1,99,9",,"08,99,1,99,9,99,9,99999,9,99,9,99,9","10091,1,99999,9","51,1",,,"MET066METAR EGOW 141050Z 16010KT 9999 -DZ FEW015 OVC040 09/07 Q1009 BLU;",
"03018099999","2010-05-14T11:50:00","4","53.581575","-3.055522","11.27","WOODVALE, UK","FM-15","EGOW ","V020","180,1,N,0046,1","00900,1,C,N","011265,1,N,1","+0090,1","+0080,1","99999,9","02,5,+00450,1,99,9","04,5,+00900,1,99,9","08,5,+01200,1,99,9","08,99,1,99,9,99,9,99999,9,99,9,99,9","10091,1,99999,9",,,,"MET069METAR EGOW 141150Z 18009KT 9999 FEW015 SCT030 OVC040 09/08 Q1009 BLU;",
"03018099999","2010-05-14T12:50:00","4","53.581575","-3.055522","11.27","WOODVALE, UK","FM-15","EGOW ","V020","200,1,N,0051,1","00450,1,C,N","005000,1,N,1","+0090,1","+0090,1","99999,9","02,5,+00240,1,99,9","07,5,+00450,1,99,9","08,5,+01200,1,99,9","08,99,1,99,9,99,9,99999,9,99,9,99,9","10102,1,99999,9","51,1",,,"MET073METAR EGOW 141250Z 20010KT 5000 -DZ FEW008 BKN015 OVC040 09/09 Q1010 WHT;",
"03018099999","2010-05-14T13:50:00","4","53.581575","-3.055522","11.27","WOODVALE, UK","FM-15","EGOW ","V020","200,1,N,0036,1","00450,1,C,N","011265,1,N,1","+0100,1","+0090,1","99999,9","02,5,+00240,1,99,9","07,5,+00450,1,99,9",,"07,99,1,99,9,99,9,99999,9,99,9,99,9","10102,1,99999,9","51,1",,,"MET066METAR EGOW 141350Z 20007KT 9999 -DZ FEW008 BKN015 10/09 Q1010 WHT;",
"03018099999","2010-05-15T06:50:00","4","53.581575","-3.055522","11.27","WOODVALE, UK","FM-15","EGOW ","V020","340,1,N,0026,1","01350,1,C,N","011265,1,N,1","+0100,1","+0070,1","99999,9","02,5,+00540,1,99,9","04,5,+01350,1,99,9","07,5,+01800,1,99,9","07,99,1,99,9,99,9,99999,9,99,9,99,9","10149,1,99999,9",,,,"MET069METAR EGOW 150650Z 34005KT 9999 FEW018 SCT045 BKN060 10/07 Q1015 BLU;",
"03018099999","2010-05-15T07:50:00","4","53.581575","-3.055522","11.27","WOODVALE, UK","FM-15","EGOW ","V020","270,1,N,0046,1","00750,5,9,N","999999,9,N,1","+0110,1","+0090,1","99999,9","02,5,+00360,5,99,9","04,5,+00750,5,99,9",,,"10160,1,99999,9",,,,"MET057METAR EGOW 150750Z 27009KT FEW012 SCT025 11/09 Q1016 BLU;",
"03018099999","2010-05-15T08:50:00","4","53.581575","-3.055522","11.27","WOODVALE, UK","FM-15","EGOW ","V020","280,1,N,0041,1","01500,1,C,N","011265,1,N,1","+0110,1","+0080,1","99999,9","04,5,+00750,1,99,9","07,5,+01500,1,99,9",,"07,99,1,99,9,99,9,99999,9,99,9,99,9","10159,1,99999,9",,,,"MET062METAR EGOW 150850Z 28008KT 9999 SCT025 BKN050 11/08 Q1016 BLU;",
"03018099999","2010-05-15T09:50:00","4","53.581575","-3.055522","11.27","WOODVALE, UK","FM-15","EGOW ","V020","270,1,N,0062,1","22000,1,9,N","011265,1,N,1","+0130,1","+0090,1","99999,9","02,5,+00750,1,99,9",,,"02,99,1,99,9,99,9,99999,9,99,9,99,9","10159,1,99999,9",,,,"MET055METAR EGOW 150950Z 27012KT 9999 FEW025 13/09 Q1016 BLU;",
"03018099999","2010-05-15T10:50:00","4","53.581575","-3.055522","11.27","WOODVALE, UK","FM-15","EGOW ","V020","290,1,N,0062,1","22000,1,9,N","011265,1,N,1","+0120,1","+0080,1","99999,9","02,5,+00750,1,99,9",,,"02,99,1,99,9,99,9,99999,9,99,9,99,9","10159,1,99999,9",,,,"MET055METAR EGOW 151050Z 29012KT 9999 FEW025 12/08 Q1016 BLU;",
"03018099999","2010-05-15T11:50:00","4","53.581575","-3.055522","11.27","WOODVALE, UK","FM-15","EGOW ","V020","270,1,N,0062,1","22000,1,9,N","011265,1,N,1","+0130,1","+9999,9","99999,9","02,5,+00900,1,99,9",,,"02,99,1,99,9,99,9,99999,9,99,9,99,9","10159,1,99999,9",,,,"MET055METAR EGOW 151150Z 27012KT 9999 FEW030 13/// Q1016 BLU;",
"03018099999","2010-05-15T12:50:00","4","53.581575","-3.055522","11.27","WOODVALE, UK","FM-15","EGOW ","V020","300,1,N,0062,1","22000,1,9,N","011265,1,N,1","+0130,1","+0070,1","99999,9","02,5,+00900,1,99,9",,,"02,99,1,99,9,99,9,99999,9,99,9,99,9","10169,1,99999,9",,,,"MET055METAR EGOW 151250Z 30012KT 9999 FEW030 13/07 Q1017 BLU;",
"03018099999","2010-05-15T13:50:00","4","53.581575","-3.055522","11.27","WOODVALE, UK","FM-15","EGOW ","V020","280,1,N,0067,1","22000,1,9,N","011265,1,N,1","+0120,1","+0040,1","99999,9","02,5,+00960,1,99,9",,,"02,99,1,99,9,99,9,99999,9,99,9,99,9","10169,1,99999,9",,,,"MET055METAR EGOW 151350Z 28013KT 9999 FEW032 12/04 Q1017 BLU;",
"03018099999","2010-05-16T06:50:00","4","53.581575","-3.055522","11.27","WOODVALE, UK","FM-15","EGOW ","V020","270,1,N,0051,1","22000,1,9,N","011265,1,N,1","+0100,1","+0050,1","99999,9","04,5,+00840,1,99,9",,,"04,99,1,99,9,99,9,99999,9,99,9,99,9","10139,1,99999,9",,,,"MET055METAR EGOW 160650Z 27010KT 9999 SCT028 10/05 Q1014 BLU;",
"03018099999","2010-05-19T06:50:00","4","53.581575","-3.055522","11.27","WOODVALE, UK","FM-15","EGOW ","V020","160,1,N,0031,1","00900,1,C,N","011265,1,N,1","+0120,1","+0100,1","99999,9","02,5,+00360,1,99,9","07,5,+00900,1,99,9",,"07,99,1,99,9,99,9,99999,9,99,9,99,9","10281,1,99999,9",,,,"MET062METAR EGOW 190650Z 16006KT 9999 FEW012 BKN030 12/10 Q1028 BLU;",
"03018099999","2010-05-19T07:50:00","4","53.581575","-3.055522","11.27","WOODVALE, UK","FM-15","EGOW ","V020","180,1,N,0046,1","00900,1,C,N","011265,1,N,1","+0130,1","+0100,1","99999,9","02,5,+00360,1,99,9","04,5,+00900,1,99,9","07,5,+02400,1,99,9","07,99,1,99,9,99,9,99999,9,99,9,99,9","10271,1,99999,9",,,,"MET069METAR EGOW 190750Z 18009KT 9999 FEW012 SCT030 BKN080 13/10 Q1027 BLU;",
"03018099999","2010-05-19T09:50:00","4","53.581575","-3.055522","11.27","WOODVALE, UK","FM-15","EGOW ","V020","190,1,N,0041,1","03000,1,C,N","011265,1,N,1","+0150,1","+0100,1","99999,9","04,5,+00750,1,99,9","07,5,+03000,1,99,9",,"07,99,1,99,9,99,9,99999,9,99,9,99,9","10281,1,99999,9",,,,"MET062METAR EGOW 190950Z 19008KT 9999 SCT025 BKN100 15/10 Q1028 BLU;",
"03018099999","2010-05-20T06:50:00","4","53.581575","-3.055522","11.27","WOODVALE, UK","FM-15","EGOW ","V020","340,1,N,0026,1","02400,1,C,N","011265,1,N,1","+0150,1","+0120,1","99999,9","02,5,+00750,1,99,9","07,5,+02400,1,99,9",,"07,99,1,99,9,99,9,99999,9,99,9,99,9","10318,1,99999,9",,,,"MET062METAR EGOW 200650Z 34005KT 9999 FEW025 BKN080 15/12 Q1032 BLU;",
"03018099999","2010-05-20T07:50:00","4","53.581575","-3.055522","11.27","WOODVALE, UK","FM-15","EGOW ","V020","340,1,N,0031,1","02400,1,C,N","011265,1,N,1","+0150,1","+0110,1","99999,9","02,5,+00210,1,99,9","07,5,+02400,1,99,9",,"07,99,1,99,9,99,9,99999,9,99,9,99,9","10329,1,99999,9",,,,"MET062METAR EGOW 200750Z 34006KT 9999 FEW007 BKN080 15/11 Q1033 BLU;",
"03018099999","2010-05-20T08:50:00","4","53.581575","-3.055522","11.27","WOODVALE, UK","FM-15","EGOW ","V020","330,1,N,0031,1","00750,1,C,N","011265,1,N,1","+0150,1","+0130,1","99999,9","02,5,+00210,1,99,9","04,5,+00750,1,99,9","07,5,+03000,1,99,9","07,99,1,99,9,99,9,99999,9,99,9,99,9","10329,1,99999,9",,,,"MET069METAR EGOW 200850Z 33006KT 9999 FEW007 SCT025 BKN100 15/13 Q1033 BLU;",
"03018099999","2010-05-20T09:50:00","4","53.581575","-3.055522","11.27","WOODVALE, UK","FM-15","EGOW ","V020","340,1,N,0031,1","03000,1,C,N","011265,1,N,1","+0150,1","+0130,1","99999,9","02,5,+00210,1,99,9","07,5,+03000,1,99,9",,"07,99,1,99,9,99,9,99999,9,99,9,99,9","10329,1,99999,9",,,,"MET062METAR EGOW 200950Z 34006KT 9999 FEW007 BKN100 15/13 Q1033 BLU;",
"03018099999","2010-05-20T10:50:00","4","53.581575","-3.055522","11.27","WOODVALE, UK","FM-15","EGOW ","V020","340,1,N,0021,1","01200,1,C,N","011265,1,N,1","+0170,1","+0130,1","99999,9","02,5,+00750,1,99,9","07,5,+01200,1,99,9",,"07,99,1,99,9,99,9,99999,9,99,9,99,9","10329,1,99999,9",,,,"MET062METAR EGOW 201050Z 34004KT 9999 FEW025 BKN040 17/13 Q1033 BLU;",
"03018099999","2010-05-20T11:50:00","4","53.581575","-3.055522","11.27","WOODVALE, UK","FM-15","EGOW ","V020","340,1,N,0031,1","99999,9,C,N","011265,1,N,1","+0180,1","+0130,1","99999,9","02,5,+00210,1,99,9","04,5,+00660,1,99,9",,"04,99,1,99,9,99,9,99999,9,99,9,99,9","10329,1,99999,9",,,,"MET062METAR EGOW 201150Z 34006KT 9999 FEW007 SCT022 18/13 Q1033 WHT;","P01 006603SCOCIG"
"03018099999","2010-05-20T12:50:00","4","53.581575","-3.055522","11.27","WOODVALE, UK","FM-15","EGOW ","V020","340,1,N,0041,1","99999,9,C,N","011265,1,N,1","+0190,1","+0130,1","99999,9","02,5,+00210,1,99,9","04,5,+00660,1,99,9",,"04,99,1,99,9,99,9,99999,9,99,9,99,9","10329,1,99999,9",,,,"MET062METAR EGOW 201250Z 34008KT 9999 FEW007 SCT022 19/13 Q1033 WHT;","P01 006603SCOCIG"
"03018099999","2010-05-20T14:50:00","4","53.581575","-3.055522","11.27","WOODVALE, UK","FM-15","EGOW ","V020","320,1,N,0062,1","22000,1,9,N","011265,1,N,1","+0190,1","+0130,1","99999,9","02,5,+00750,1,99,9",,,"02,99,1,99,9,99,9,99999,9,99,9,99,9","10329,1,99999,9",,,,"MET055METAR EGOW 201450Z 32012KT 9999 FEW025 19/13 Q1033 BLU;",
"03018099999","2010-05-21T06:50:00","4","53.581575","-3.055522","11.27","WOODVALE, UK","FM-15","EGOW ","V020","100,1,N,0021,1","00015,1,C,N","000150,1,N,1","+0120,1","+0120,1","99999,9","09,1,+00015,1,99,9",,,"09,99,1,99,9,99,9,00025,1,99,9,99,9","10329,1,99999,9",,,,"MET054METAR EGOW 210650Z 10004KT 0150 VV/// 12/12 Q1033 RED;",
"03018099999","2010-05-21T07:50:00","4","53.581575","-3.055522","11.27","WOODVALE, UK","FM-15","EGOW ","V020","120,1,N,0015,1","00015,1,C,N","000400,1,N,1","+0130,1","+0130,1","99999,9","09,1,+00015,1,99,9",,,"09,99,1,99,9,99,9,00025,1,99,9,99,9","10329,1,99999,9","45,1",,,"MET057METAR EGOW 210750Z 12003KT 0400 FG VV/// 13/13 Q1033 RED;",
"03018099999","2010-05-21T08:50:00","4","53.581575","-3.055522","11.27","WOODVALE, UK","FM-15","EGOW ","V020","250,1,N,0010,1","00060,1,C,N","006000,1,N,1","+0150,1","+0140,1","99999,9","07,5,+00060,1,99,9",,,"07,99,1,99,9,99,9,99999,9,99,9,99,9","10329,1,99999,9","05,1",,,"MET058METAR EGOW 210850Z 25002KT 6000 HZ BKN002 15/14 Q1033 AMB;",
"03018099999","2010-05-21T09:50:00","4","53.581575","-3.055522","11.27","WOODVALE, UK","FM-15","EGOW ","V020","140,1,N,0015,1","22000,1,9,N","011265,1,N,1","+0220,1","+0140,1","99999,9","02,5,+00750,1,99,9",,,"02,99,1,99,9,99,9,99999,9,99,9,99,9","10318,1,99999,9",,,,"MET055METAR EGOW 210950Z 14003KT 9999 FEW025 22/14 Q1032 BLU;",
"03018099999","2010-05-21T10:50:00","4","53.581575","-3.055522","11.27","WOODVALE, UK","FM-15","EGOW ","V020","130,1,N,0015,1","22000,1,9,N","011265,1,N,1","+0230,1","+0150,1","99999,9","02,5,+00840,1,99,9",,,"02,99,1,99,9,99,9,99999,9,99,9,99,9","10318,1,99999,9",,,,"MET055METAR EGOW 211050Z 13003KT 9999 FEW028 23/15 Q1032 BLU;",
"03018099999","2010-05-21T11:50:00","4","53.581575","-3.055522","11.27","WOODVALE, UK","FM-15","EGOW ","V020","310,1,N,0036,1","22000,1,9,N","011265,1,N,1","+0220,1","+0150,1","99999,9","02,5,+00750,1,99,9",,,"02,99,1,99,9,99,9,99999,9,99,9,99,9","10318,1,99999,9",,,,"MET055METAR EGOW 211150Z 31007KT 9999 FEW025 22/15 Q1032 BLU;",
"03018099999","2010-05-21T12:50:00","4","53.581575","-3.055522","11.27","WOODVALE, UK","FM-15","EGOW ","V020","310,1,N,0036,1","22000,1,9,N","011265,1,N,1","+0230,1","+0140,1","99999,9","02,5,+00750,1,99,9",,,"02,99,1,99,9,99,9,99999,9,99,9,99,9","10318,1,99999,9",,,,"MET055METAR EGOW 211250Z 31007KT 9999 FEW025 23/14 Q1032 BLU;",
"03018099999","2010-05-21T13:50:00","4","53.581575","-3.055522","11.27","WOODVALE, UK","FM-15","EGOW ","V020","350,1,N,0041,1","22000,1,9,N","011265,1,N,1","+0230,1","+0150,1","99999,9","02,5,+00750,1,99,9",,,"02,99,1,99,9,99,9,99999,9,99,9,99,9","10318,1,99999,9",,,,"MET055METAR EGOW 211350Z 35008KT 9999 FEW025 23/15 Q1032 BLU;",
"03018099999","2010-05-22T07:50:00","4","53.581575","-3.055522","11.27","WOODVALE, UK","FM-15","EGOW ","V020","150,1,N,0031,1","99999,9,9,Y","009900,1,N,1","+0190,1","+0120,1","99999,9",,,,,"10301,1,99999,9",,,,"MET049METAR EGOW 220750Z 15006KT CAVOK 19/12 Q1030 BLU;",
"03018099999","2010-05-22T08:50:00","4","53.581575","-3.055522","11.27","WOODVALE, UK","FM-15","EGOW ","V020","160,1,N,0036,1","99999,9,9,Y","009900,1,N,1","+0210,1","+0120,1","99999,9",,,,,"10301,1,99999,9",,,,"MET049METAR EGOW 220850Z 16007KT CAVOK 21/12 Q1030 BLU;",
"03018099999","2010-05-22T09:50:00","4","53.581575","-3.055522","11.27","WOODVALE, UK","FM-15","EGOW ","V020","220,1,N,0026,1","99999,9,9,Y","009900,1,N,1","+0240,1","+0140,1","99999,9",,,,,"10301,1,99999,9",,,,"MET049METAR EGOW 220950Z 22005KT CAVOK 24/14 Q1030 BLU;",
"03018099999","2010-05-22T10:50:00","4","53.581575","-3.055522","11.27","WOODVALE, UK","FM-15","EGOW ","V020","190,1,N,0031,1","99999,9,9,Y","009900,1,N,1","+0260,1","+0130,1","99999,9",,,,,"10301,1,99999,9",,,,"MET049METAR EGOW 221050Z 19006KT CAVOK 26/13 Q1030 BLU;",
"03018099999","2010-05-22T11:50:00","4","53.581575","-3.055522","11.27","WOODVALE, UK","FM-15","EGOW ","V020","270,1,N,0051,1","22000,1,9,N","011265,1,N,1","+0260,1","+0140,1","99999,9","02,5,+00900,1,99,9",,,"02,99,1,99,9,99,9,99999,9,99,9,99,9","10291,1,99999,9",,,,"MET055METAR EGOW 221150Z 27010KT 9999 FEW030 26/14 Q1029 BLU;",
"03018099999","2010-05-22T12:50:00","4","53.581575","-3.055522","11.27","WOODVALE, UK","FM-15","EGOW ","V020","290,1,N,0046,1","22000,1,9,N","011265,1,N,1","+0240,1","+0130,1","99999,9","02,5,+00900,1,99,9",,,"02,99,1,99,9,99,9,99999,9,99,9,99,9","10291,1,99999,9",,,,"MET055METAR EGOW 221250Z 29009KT 9999 FEW030 24/13 Q1029 BLU;",
"03018099999","2010-05-22T13:50:00","4","53.581575","-3.055522","11.27","WOODVALE, UK","FM-15","EGOW ","V020","320,1,N,0051,1","22000,1,9,N","011265,1,N,1","+0230,1","+0130,1","99999,9","02,5,+01050,1,99,9",,,"02,99,1,99,9,99,9,99999,9,99,9,99,9","10291,1,99999,9",,,,"MET055METAR EGOW 221350Z 32010KT 9999 FEW035 23/13 Q1029 BLU;",
"03018099999","2010-05-23T06:50:00","4","53.581575","-3.055522","11.27","WOODVALE, UK","FM-15","EGOW ","V020","110,1,N,0010,1","22000,1,9,N","004500,1,N,1","+0170,1","+0140,1","99999,9",,,,"00,99,1,99,9,99,9,99999,9,99,9,99,9","10251,1,99999,9","10,1",,,"MET055METAR EGOW 230650Z 11002KT 4500 BR SKC 17/14 Q1025 GRN;","Q01    003SCCGA1"
"03018099999","2010-05-23T07:50:00","4","53.581575","-3.055522","11.27","WOODVALE, UK","FM-15","EGOW ","V020","160,1,N,0010,1","22000,1,9,N","004500,1,N,1","+0170,1","+0140,1","99999,9",,,,"00,99,1,99,9,99,9,99999,9,99,9,99,9","10251,1,99999,9","05,1",,,"MET055METAR EGOW 230750Z 16002KT 4500 HZ SKC 17/14 Q1025 GRN;","Q01    003SCCGA1"
"03018099999","2010-05-23T08:50:00","4","53.581575","-3.055522","11.27","WOODVALE, UK","FM-15","EGOW ","V020","250,1,N,0026,1","22000,1,9,N","006000,1,N,1","+0240,1","+0140,1","99999,9",,,,"00,99,1,99,9,99,9,99999,9,99,9,99,9","10251,1,99999,9","05,1",,,"MET055METAR EGOW 230850Z 25005KT 6000 HZ SKC 24/14 Q1025 WHT;","Q01    003SCCGA1"
"03018099999","2010-05-23T09:50:00","4","53.581575","-3.055522","11.27","WOODVALE, UK","FM-15","EGOW ","V020","270,1,N,0036,1","22000,1,9,N","008000,1,N,1","+0250,1","+0140,1","99999,9",,,,"00,99,1,99,9,99,9,99999,9,99,9,99,9","10240,1,99999,9","05,1",,,"MET055METAR EGOW 230950Z 27007KT 8000 HZ SKC 25/14 Q1024 BLU;","Q01    003SCCGA1"
"03018099999","2010-05-23T10:50:00","4","53.581575","-3.055522","11.27","WOODVALE, UK","FM-15","EGOW ","V020","300,1,N,0057,1","22000,1,9,N","011265,1,N,1","+0220,1","+0140,1","99999,9","02,5,+00600,1,99,9",,,"02,99,1,99,9,99,9,99999,9,99,9,99,9","10240,1,99999,9",,,,"MET055METAR EGOW 231050Z 30011KT 9999 FEW020 22/14 Q1024 BLU;",
"03018099999","2010-05-23T11:50:00","4","53.581575","-3.055522","11.27","WOODVALE, UK","FM-15","EGOW ","V020","310,1,N,0062,1","22000,1,9,N","011265,1,N,1","+0220,1","+0150,1","99999,9","02,5,+00900,1,99,9",,,"02,99,1,99,9,99,9,99999,9,99,9,99,9","10240,1,99999,9",,,,"MET055METAR EGOW 231150Z 31012KT 9999 FEW030 22/15 Q1024 BLU;",
"03018099999","2010-05-23T12:50:00","4","53.581575","-3.055522","11.27","WOODVALE, UK","FM-15","EGOW ","V020","310,1,N,0057,1","22000,1,9,N","011265,1,N,1","+0210,1","+0140,1","99999,9","02,5,+01050,1,99,9",,,"02,99,1,99,9,99,9,99999,9,99,9,99,9","10240,1,99999,9",,,,"MET055METAR EGOW 231250Z 31011KT 9999 FEW035 21/14 Q1024 BLU;",
"03018099999","2010-05-26T06:50:00","4","53.581575","-3.055522","11.27","WOODVALE, UK","FM-15","EGOW ","V020","120,1,N,0041,1","01200,1,C,N","011265,1,N,1","+0100,1","+0050,1","99999,9","07,5,+01200,1,99,9",,,"07,99,1,99,9,99,9,99999,9,99,9,99,9","10108,1,99999,9",,,,"MET055METAR EGOW 260650Z 12008KT 9999 BKN040 10/05 Q1011 BLU;",
"03018099999","2010-05-26T07:50:00","4","53.581575","-3.055522","11.27","WOODVALE, UK","FM-15","EGOW ","V020","110,1,N,0026,1","01440,1,C,N","011265,1,N,1","+0110,1","+0050,1","99999,9","07,5,+01440,1,99,9",,,"07,99,1,99,9,99,9,99999,9,99,9,99,9","10119,1,99999,9",,,,"MET055METAR EGOW 260750Z 11005KT 9999 BKN048 11/05 Q1012 BLU;",
"03018099999","2010-05-26T08:50:00","4","53.581575","-3.055522","11.27","WOODVALE, UK","FM-15","EGOW ","V020","110,1,N,0041,1","01440,1,C,N","011265,1,N,1","+0110,1","+0050,1","99999,9","07,5,+01440,1,99,9",,,"07,99,1,99,9,99,9,99999,9,99,9,99,9","10108,1,99999,9",,,,"MET055METAR EGOW 260850Z 11008KT 9999 BKN048 11/05 Q1011 BLU;",
"03018099999","2010-05-26T09:50:00","4","53.581575","-3.055522","11.27","WOODVALE, UK","FM-15","EGOW ","V020","130,1,N,0031,1","03600,1,C,N","011265,1,N,1","+0120,1","+0050,1","99999,9","04,5,+01440,1,99,9","07,5,+03600,1,99,9",,"07,99,1,99,9,99,9,99999,9,99,9,99,9","10108,1,99999,9",,,,"MET062METAR EGOW 260950Z 13006KT 9999 SCT048 BKN120 12/05 Q1011 BLU;",
"03018099999","2010-05-26T10:50:00","4","53.581575","-3.055522","11.27","WOODVALE, UK","FM-15","EGOW ","V020","110,1,N,0026,1","99999,9,C,N","011265,1,N,1","+0120,1","+0050,1","99999,9","02,5,+00840,1,99,9","04,5,+01440,1,99,9",,"04,99,1,99,9,99,9,99999,9,99,9,99,9","10108,1,99999,9",,,,"MET062METAR EGOW 261050Z 11005KT 9999 FEW028 SCT048 12/05 Q1011 BLU;","P01 014403SCOCIG"
"03018099999","2010-05-26T11:50:00","4","53.581575","-3.055522","11.27","WOODVALE, UK","FM-15","EGOW ","V020","120,1,N,0021,1","01380,1,C,N","011265,1,N,1","+0110,1","+0070,1","99999,9","02,5,+00840,1,99,9","04,5,+01380,1,99,9","08,5,+03600,1,99,9","08,99,1,99,9,99,9,99999,9,99,9,99,9","10108,1,99999,9","61,1",,,"MET073METAR EGOW 261150Z 12004KT 9999 -RA FEW028 SCT046 OVC120 11/07 Q1011 BLU;",
"03018099999","2010-05-26T12:50:00","4","53.581575","-3.055522","11.27","WOODVALE, UK","FM-15","EGOW ","V020","110,1,N,0031,1","01380,1,C,N","011265,1,N,1","+0100,1","+0080,1","99999,9","04,5,+00840,1,99,9","07,5,+01380,1,99,9",,"07,99,1,99,9,99,9,99999,9,99,9,99,9","10108,1,99999,9",,,,"MET062METAR EGOW 261250Z 11006KT 9999 SCT028 BKN046 10/08 Q1011 BLU;",
"03018099999","2010-05-26T13:50:00","4","53.581575","-3.055522","11.27","WOODVALE, UK","FM-15","EGOW ","V020","130,1,N,0031,1","01020,1,C,N","006000,1,N,1","+0100,1","+0070,1","99999,9","02,5,+00600,1,99,9","04,5,+01020,1,99,9","08,5,+05400,1,99,9","08,99,1,99,9,99,9,99999,9,99,9,99,9","10108,1,99999,9","61,1",,,"MET073METAR EGOW 261350Z 13006KT 6000 -RA FEW020 SCT034 OVC180 10/07 Q1011 WHT;",
"03018099999","2010-05-26T14:50:00","4","53.581575","-3.055522","11.27","WOODVALE, UK","FM-15","EGOW ","V020","140,1,N,0031,1","99999,9,C,N","008000,1,N,1","+0110,1","+0060,1","99999,9","02,5,+00600,1,99,9","04,5,+01020,1,99,9",,"04,99,1,99,9,99,9,99999,9,99,9,99,9","10108,1,99999,9","16,1",,,"MET067METAR EGOW 261450Z 14006KT 8000 VCSH FEW020 SCT034 11/06 Q1011 BLU;","P01 010203SCOCIG"
"03018099999","2010-05-26T15:50:00","4","53.581575","-3.055522","11.27","WOODVALE, UK","FM-15","EGOW ","V020","150,1,N,0021,1","22000,1,9,N","011265,1,N,1","+0130,1","+0060,1","99999,9","04,5,+01020,1,99,9",,,"04,99,1,99,9,99,9,99999,9,99,9,99,9","10108,1,99999,9",,,,"MET055METAR EGOW 261550Z 15004KT 9999 SCT034 13/06 Q1011 BLU;",
"03018099999","2010-05-27T06:50:00","4","53.581575","-3.055522","11.27","WOODVALE, UK","FM-15","EGOW ","V020","270,1,N,0051,1","99999,9,C,N","011265,1,N,1","+0100,1","+0020,1","99999,9","02,5,+00360,1,99,9","04,5,+00600,1,99,9",,"04,99,1,99,9,99,9,99999,9,99,9,99,9","10102,1,99999,9","80,1",,"0103,1","MET071METAR EGOW 270650Z 27010G20KT 9999 -SHRA FEW012 SCT020 10/02 Q1010 WHT;","P01 006003SCOCIG"
"03018099999","2010-05-27T07:50:00","4","53.581575","-3.055522","11.27","WOODVALE, UK","FM-15","EGOW ","V020","290,1,N,0067,1","22000,1,9,N","011265,1,N,1","+0090,1","+0040,1","99999,9","04,5,+00750,1,99,9",,,"04,99,1,99,9,99,9,99999,9,99,9,99,9","10102,1,99999,9",,,,"MET062METAR EGOW 270750Z 29013KT 9999 SCT025 09/04 Q1010 RESHRA BLU;",
"03018099999","2010-05-27T08:50:00","4","53.581575","-3.055522","11.27","WOODVALE, UK","FM-15","EGOW ","V020","290,1,N,0067,1","22000,1,9,N","011265,1,N,1","+0110,1","+0040,1","99999,9","04,5,+00750,1,99,9",,,"04,99,1,99,9,99,9,99999,9,99,9,99,9","10102,1,99999,9",,,,"MET055METAR EGOW 270850Z 29013KT 9999 SCT025 11/04 Q1010 BLU;",
"03018099999","2010-05-27T10:50:00","4","53.581575","-3.055522","11.27","WOODVALE, UK","FM-15","EGOW ","V020","290,1,N,0077,1","22000,1,9,N","011265,1,N,1","+0110,1","+0030,1","99999,9","04,5,+00750,1,99,9",,,"04,99,1,99,9,99,9,99999,9,99,9,99,9","10102,1,99999,9",,,,"MET055METAR EGOW 271050Z 29015KT 9999 SCT025 11/03 Q1010 BLU;",
"03018099999","2010-05-27T11:50:00","4","53.581575","-3.055522","11.27","WOODVALE, UK","FM-15","EGOW ","V020","300,1,N,0067,1","00750,1,C,N","011265,1,N,1","+0120,1","+0040,1","99999,9","07,5,+00750,1,99,9",,,"07,99,1,99,9,99,9,99999,9,99,9,99,9","10102,1,99999,9",,,,"MET055METAR EGOW 271150Z 30013KT 9999 BKN025 12/04 Q1010 BLU;",
"03018099999","2010-05-27T12:50:00","4","53.581575","-3.055522","11.27","WOODVALE, UK","FM-15","EGOW ","V020","270,1,N,0072,1","00750,1,C,N","011265,1,N,1","+0130,1","+0040,1","99999,9","07,5,+00750,1,99,9",,,"07,99,1,99,9,99,9,99999,9,99,9,99,9","10102,1,99999,9",,,,"MET055METAR EGOW 271250Z 27014KT 9999 BKN025 13/04 Q1010 BLU;",
"03018099999","2010-05-27T13:50:00","4","53.581575","-3.055522","11.27","WOODVALE, UK","FM-15","EGOW ","V020","270,1,N,0072,1","22000,1,9,N","011265,1,N,1","+0120,1","+0030,1","99999,9","04,5,+00750,1,99,9",,,"04,99,1,99,9,99,9,99999,9,99,9,99,9","10102,1,99999,9",,,,"MET055METAR EGOW 271350Z 27014KT 9999 SCT025 12/03 Q1010 BLU;",
"03018099999","2010-05-28T06:50:00","4","53.581575","-3.055522","11.27","WOODVALE, UK","FM-15","EGOW ","V020","310,1,N,0057,1","22000,1,9,N","011265,1,N,1","+0100,1","+0040,1","99999,9","04,5,+00600,1,99,9",,,"04,99,1,99,9,99,9,99999,9,99,9,99,9","10119,1,99999,9",,,,"MET055METAR EGOW 280650Z 31011KT 9999 SCT020 10/04 Q1012 WHT;",
"03018099999","2010-05-28T08:50:00","4","53.581575","-3.055522","11.27","WOODVALE, UK","FM-15","EGOW ","V020","290,1,N,0067,1","22000,1,9,N","011265,1,N,1","+0120,1","+0040,1","99999,9","04,5,+00840,1,99,9",,,"04,99,1,99,9,99,9,99999,9,99,9,99,9","10129,1,99999,9",,,,"MET055METAR EGOW 280850Z 29013KT 9999 SCT028 12/04 Q1013 BLU;",
"03018099999","2010-05-28T09:50:00","4","53.581575","-3.055522","11.27","WOODVALE, UK","FM-15","EGOW ","V020","280,1,N,0057,1","22000,1,9,N","011265,1,N,1","+0120,1","+0040,1","99999,9","04,5,+00840,1,99,9",,,"04,99,1,99,9,99,9,99999,9,99,9,99,9","10139,1,99999,9",,,,"MET055METAR EGOW 280950Z 28011KT 9999 SCT028 12/04 Q1014 BLU;",
"03018099999","2010-05-28T10:50:00","4","53.581575","-3.055522","11.27","WOODVALE, UK","FM-15","EGOW ","V020","270,1,N,0062,1","22000,1,9,N","011265,1,N,1","+0120,1","+0040,1","99999,9","04,5,+00900,1,99,9",,,"04,99,1,99,9,99,9,99999,9,99,9,99,9","10139,1,99999,9",,,,"MET055METAR EGOW 281050Z 27012KT 9999 SCT030 12/04 Q1014 BLU;",
"03018099999","2010-05-28T11:50:00","4","53.581575","-3.055522","11.27","WOODVALE, UK","FM-15","EGOW ","V020","280,1,N,0067,1","22000,1,9,N","011265,1,N,1","+0130,1","+0040,1","99999,9","02,5,+00900,1,99,9",,,"02,99,1,99,9,99,9,99999,9,99,9,99,9","10139,1,99999,9",,,,"MET055METAR EGOW 281150Z 28013KT 9999 FEW030 13/04 Q1014 BLU;",
"03018099999","2010-05-28T12:50:00","4","53.581575","-3.055522","11.27","WOODVALE, UK","FM-15","EGOW ","V020","310,1,N,0051,1","22000,1,9,N","011265,1,N,1","+0130,1","+0040,1","99999,9","02,5,+00960,1,99,9",,,"02,99,1,99,9,99,9,99999,9,99,9,99,9","10139,1,99999,9",,,,"MET055METAR EGOW 281250Z 31010KT 9999 FEW032 13/04 Q1014 BLU;",
"03018099999","2010-05-28T13:50:00","4","53.581575","-3.055522","11.27","WOODVALE, UK","FM-15","EGOW ","V020","300,1,N,0062,1","22000,1,9,N","011265,1,N,1","+0130,1","+0040,1","99999,9","02,5,+00900,1,99,9",,,"02,99,1,99,9,99,9,99999,9,99,9,99,9","10139,1,99999,9",,,,"MET055METAR EGOW 281350Z 30012KT 9999 FEW030 13/04 Q1014 BLU;",
"03018099999","2010-06-02T06:50:00","4","53.581575","-3.055522","11.27","WOODVALE, UK","FM-15","EGOW ","V020","040,1,N,0005,1","00015,1,C,N","000300,1,N,1","+0100,1","+0100,1","99999,9","09,1,+00015,1,99,9",,,"09,99,1,99,9,99,9,00025,1,99,9,99,9","10220,1,99999,9",,,,"MET054METAR EGOW 020650Z 04001KT 0300 VV/// 10/10 Q1022 RED;",
"03018099999","2010-06-02T07:50:00","4","53.581575","-3.055522","11.27","WOODVALE, UK","FM-15","EGOW ","V020","999,9,C,0000,1","00090,1,C,N","001200,1,N,1","+0110,1","+0110,1","99999,9","08,5,+00090,1,99,9",,,"08,99,1,99,9,99,9,99999,9,99,9,99,9","10230,1,99999,9","10,1",,,"MET058METAR EGOW 020750Z 00000KT 1200 BR OVC003 11/11 Q1023 AMB;",
"03018099999","2010-06-02T08:50:00","4","53.581575","-3.055522","11.27","WOODVALE, UK","FM-15","EGOW ","V020","120,1,N,0010,1","00120,1,C,N","005000,1,N,1","+0110,1","+0110,1","99999,9","08,5,+00120,1,99,9",,,"08,99,1,99,9,99,9,99999,9,99,9,99,9","10230,1,99999,9","10,1",,,"MET059METAR EGOW 020850Z 12002KT 5000 BR OVC004 11/11 Q1023 YLO2;",
"03018099999","2010-06-02T10:50:00","4","53.581575","-3.055522","11.27","WOODVALE, UK","FM-15","EGOW ","V020","110,1,N,0015,1","22000,1,9,N","011265,1,N,1","+9999,9","+0120,1","99999,9","02,5,+00600,1,99,9",,,"02,99,1,99,9,99,9,99999,9,99,9,99,9","10230,1,99999,9",,,,"MET056METAR EGOW 021050Z 11003KT 9999 FEW020 181/12 Q1023 BLU;",
"03018099999","2010-06-02T13:50:00","4","53.581575","-3.055522","11.27","WOODVALE, UK","FM-15","EGOW ","V020","320,1,N,0041,1","22000,1,9,N","011265,1,N,1","+0200,1","+0080,1","99999,9","02,5,+00900,1,99,9",,,"02,99,1,99,9,99,9,99999,9,99,9,99,9","10230,1,99999,9",,,,"MET055METAR EGOW 021350Z 32008KT 9999 FEW030 20/08 Q1023 BLU;",
"03018099999","2010-06-03T06:50:00","4","53.581575","-3.055522","11.27","WOODVALE, UK","FM-15","EGOW ","V020","120,1,N,0036,1","99999,9,9,Y","009900,1,N,1","+0140,1","+0100,1","99999,9",,,,,"10240,1,99999,9",,,,"MET049METAR EGOW 030650Z 12007KT CAVOK 14/10 Q1024 BLU;",
"03018099999","2010-06-03T07:50:00","4","53.581575","-3.055522","11.27","WOODVALE, UK","FM-15","EGOW ","V020","130,1,N,0026,1","99999,9,9,Y","009900,1,N,1","+0190,1","+0130,1","99999,9",,,,,"10240,1,99999,9",,,,"MET049METAR EGOW 030750Z 13005KT CAVOK 19/13 Q1024 BLU;",
"03018099999","2010-06-03T08:50:00","4","53.581575","-3.055522","11.27","WOODVALE, UK","FM-15","EGOW ","V020","150,1,N,0036,1","99999,9,9,Y","009900,1,N,1","+0200,1","+0100,1","99999,9",,,,,"10240,1,99999,9",,,,"MET049METAR EGOW 030850Z 15007KT CAVOK 20/10 Q1024 BLU;",
"03018099999","2010-06-03T10:50:00","4","53.581575","-3.055522","11.27","WOODVALE, UK","FM-15","EGOW ","V020","160,1,N,0067,1","22000,1,9,N","011265,1,N,1","+9999,9","+9999,9","99999,9","02,5,+01200,1,99,9",,,"02,99,1,99,9,99,9,99999,9,99,9,99,9","10240,1,99999,9",,,,"MET055METAR EGOW 031050Z 16013KT 9999 FEW040 ///// Q1024 BLU;",
"03018099999","2010-06-03T13:50:00","4","53.581575","-3.055522","11.27","WOODVALE, UK","FM-15","EGOW ","V020","160,1,N,0041,1","22000,1,9,N","011265,1,N,1","+0230,1","+0090,1","99999,9","02,5,+01350,1,99,9",,,"02,99,1,99,9,99,9,99999,9,99,9,99,9","10220,1,99999,9",,,,"MET055METAR EGOW 031350Z 16008KT 9999 FEW045 23/09 Q1022 BLU;",
"03018099999","2010-06-03T14:50:00","4","53.581575","-3.055522","11.27","WOODVALE, UK","FM-15","EGOW ","V020","090,1,N,0036,1","22000,1,9,N","011265,1,N,1","+0240,1","+0090,1","99999,9","02,5,+01200,1,99,9",,,"02,99,1,99,9,99,9,99999,9,99,9,99,9","10210,1,99999,9",,,,"MET055METAR EGOW 031450Z 09007KT 9999 FEW040 24/09 Q1021 BLU;",
"03018099999","2010-06-04T06:50:00","4","53.581575","-3.055522","11.27","WOODVALE, UK","FM-15","EGOW ","V020","140,1,N,0046,1","99999,9,9,Y","009900,1,N,1","+0140,1","+0070,1","99999,9",,,,,"10200,1,99999,9",,,,"MET049METAR EGOW 040650Z 14009KT CAVOK 14/07 Q1020 BLU;",
"03018099999","2010-06-04T07:50:00","4","53.581575","-3.055522","11.27","WOODVALE, UK","FM-15","EGOW ","V020","160,1,N,0067,1","99999,9,9,Y","009900,1,N,1","+0160,1","+0070,1","99999,9",,,,,"10200,1,99999,9",,,,"MET049METAR EGOW 040750Z 16013KT CAVOK 16/07 Q1020 BLU;",
"03018099999","2010-06-04T09:50:00","4","53.581575","-3.055522","11.27","WOODVALE, UK","FM-15","EGOW ","V020","130,1,N,0041,1","99999,9,9,Y","009900,1,N,1","+0190,1","+0080,1","99999,9",,,,,"10190,1,99999,9",,,,"MET049METAR EGOW 040950Z 13008KT CAVOK 19/08 Q1019 BLU;",
"03018099999","2010-06-04T10:50:00","4","53.581575","-3.055522","11.27","WOODVALE, UK","FM-15","EGOW ","V020","150,1,N,0046,1","99999,9,9,Y","009900,1,N,1","+0220,1","+0080,1","99999,9",,,,,"10190,1,99999,9",,,,"MET049METAR EGOW 041050Z 15009KT CAVOK 22/08 Q1019 BLU;",
"03018099999","2010-06-04T11:50:00","4","53.581575","-3.055522","11.27","WOODVALE, UK","FM-15","EGOW ","V020","150,1,N,0036,1","99999,9,9,Y","009900,1,N,1","+0220,1","+0100,1","99999,9",,,,,"10190,1,99999,9",,,,"MET049METAR EGOW 041150Z 15007KT CAVOK 22/10 Q1019 BLU;",
"03018099999","2010-06-04T12:50:00","4","53.581575","-3.055522","11.27","WOODVALE, UK","FM-15","EGOW ","V020","140,1,N,0021,1","99999,9,9,Y","009900,1,N,1","+0230,1","+0110,1","99999,9",,,,,"10190,1,99999,9",,,,"MET049METAR EGOW 041250Z 14004KT CAVOK 23/11 Q1019 BLU;",
"03018099999","2010-06-04T13:50:00","4","53.581575","-3.055522","11.27","WOODVALE, UK","FM-15","EGOW ","V020","160,1,N,0051,1","99999,9,9,Y","009900,1,N,1","+0250,1","+0120,1","99999,9",,,,,"10180,1,99999,9",,,,"MET049METAR EGOW 041350Z 16010KT CAVOK 25/12 Q1018 BLU;",
"03018099999","2010-06-05T06:50:00","4","53.581575","-3.055522","11.27","WOODVALE, UK","FM-15","EGOW ","V020","999,9,C,0000,1","22000,1,9,N","006000,1,N,1","+0170,1","+0120,1","99999,9","02,5,+01500,1,99,9",,,"02,99,1,99,9,99,9,99999,9,99,9,99,9","10190,1,99999,9","05,1",,,"MET058METAR EGOW 050650Z 00000KT 6000 HZ FEW050 17/12 Q1019 WHT;",
"03018099999","2010-06-05T07:50:00","4","53.581575","-3.055522","11.27","WOODVALE, UK","FM-15","EGOW ","V020","300,1,N,0015,1","99999,9,9,Y","009900,1,N,1","+0180,1","+0120,1","99999,9",,,,,"10190,1,99999,9",,,,"MET049METAR EGOW 050750Z 30003KT CAVOK 18/12 Q1019 BLU;",
"03018099999","2010-06-05T08:50:00","4","53.581575","-3.055522","11.27","WOODVALE, UK","FM-15","EGOW ","V020","320,1,N,0021,1","99999,9,9,Y","009900,1,N,1","+0180,1","+0130,1","99999,9",,,,,"10190,1,99999,9",,,,"MET049METAR EGOW 050850Z 32004KT CAVOK 18/13 Q1019 BLU;",
"03018099999","2010-06-05T09:50:00","4","53.581575","-3.055522","11.27","WOODVALE, UK","FM-15","EGOW ","V020","310,1,N,0015,1","99999,9,9,Y","009900,1,N,1","+0180,1","+0120,1","99999,9",,,,,"10190,1,99999,9",,,,"MET049METAR EGOW 050950Z 31003KT CAVOK 18/12 Q1019 BLU;",
"03018099999","2010-06-05T10:50:00","4","53.581575","-3.055522","11.27","WOODVALE, UK","FM-15","EGOW ","V020","320,1,N,0041,1","99999,9,9,Y","009900,1,N,1","+0200,1","+0120,1","99999,9",,,,,"10180,1,99999,9",,,,"MET049METAR EGOW 051050Z 32008KT CAVOK 20/12 Q1018 BLU;",
"03018099999","2010-06-05T11:50:00","4","53.581575","-3.055522","11.27","WOODVALE, UK","FM-15","EGOW ","V020","310,1,N,0036,1","99999,9,9,Y","009900,1,N,1","+0200,1","+0120,1","99999,9",,,,,"10180,1,99999,9",,,,"MET049METAR EGOW 051150Z 31007KT CAVOK 20/12 Q1018 BLU;",
"03018099999","2010-06-05T12:50:00","4","53.581575","-3.055522","11.27","WOODVALE, UK","FM-15","EGOW ","V020","310,1,N,0041,1","99999,9,9,Y","009900,1,N,1","+0200,1","+0130,1","99999,9",,,,,"10180,1,99999,9",,,,"MET049METAR EGOW 051250Z 31008KT CAVOK 20/13 Q1018 BLU;",
"03018099999","2010-06-05T13:50:00","4","53.581575","-3.055522","11.27","WOODVALE, UK","FM-15","EGOW ","V020","320,1,N,0051,1","99999,9,9,Y","009900,1,N,1","+0200,1","+0130,1","99999,9",,,,,"10180,1,99999,9",,,,"MET049METAR EGOW 051350Z 32010KT CAVOK 20/13 Q1018 BLU;",
"03018099999","2010-06-06T06:50:00","4","53.581575","-3.055522","11.27","WOODVALE, UK","FM-15","EGOW ","V020","310,1,N,0021,1","00090,1,C,N","003000,1,N,1","+0130,1","+0120,1","99999,9","04,5,+00030,1,99,9","08,5,+00090,1,99,9",,"08,99,1,99,9,99,9,99999,9,99,9,99,9","10129,1,99999,9","05,1",,,"MET065METAR EGOW 060650Z 31004KT 3000 HZ SCT001 OVC003 13/12 Q1013 RED;",
"03018099999","2010-06-06T07:50:00","4","53.581575","-3.055522","11.27","WOODVALE, UK","FM-15","EGOW ","V020","330,1,N,0015,1","00090,1,C,N","005000,1,N,1","+0130,1","+0120,1","99999,9","08,5,+00090,1,99,9",,,"08,99,1,99,9,99,9,99999,9,99,9,99,9","10129,1,99999,9","10,1",,,"MET059METAR EGOW 060750Z 33003KT 5000 BR OVC003 13/12 Q1013 YLO2;",
"03018099999","2010-06-06T08:50:00","4","53.581575","-3.055522","11.27","WOODVALE, UK","FM-15","EGOW ","V020","999,9,C,0000,1","00150,1,C,N","006000,1,N,1","+0140,1","+0120,1","99999,9","02,5,+00090,1,99,9","08,5,+00150,1,99,9",,"08,99,1,99,9,99,9,99999,9,99,9,99,9","10129,1,99999,9","81,1",,,"MET068METAR EGOW 060850Z 00000KT 6000 SHRA FEW003 OVC005 14/12 Q1013 YLO1;",
"03018099999","2010-06-06T11:50:00","4","53.581575","-3.055522","11.27","WOODVALE, UK","FM-15","EGOW ","V020","290,1,N,0046,1","00240,1,C,N","011265,1,N,1","+0150,1","+0120,1","99999,9","02,5,+00180,1,99,9","07,5,+00240,1,99,9",,"07,99,1,99,9,99,9,99999,9,99,9,99,9","10119,1,99999,9",,,,"MET062METAR EGOW 061150Z 29009KT 9999 FEW006 BKN008 15/12 Q1012 GRN;",
"03018099999","2010-06-09T06:50:00","4","53.581575","-3.055522","11.27","WOODVALE, UK","FM-15","EGOW ","V020","060,1,N,0031,1","01200,1,C,N","011265,1,N,1","+0140,1","+0120,1","99999,9","04,5,+00600,1,99,9","07,5,+01200,1,99,9",,"07,99,1,99,9,99,9,99999,9,99,9,99,9","10041,1,99999,9",,,,"MET062METAR EGOW 090650Z 06006KT 9999 SCT020 BKN040 14/12 Q1004 WHT;",
"03018099999","2010-06-09T07:50:00","4","53.581575","-3.055522","11.27","WOODVALE, UK","FM-15","EGOW ","V020","070,1,N,0026,1","22000,1,9,N","011265,1,N,1","+0070,1","+9999,9","99999,9","04,5,+00600,1,99,9",,,"04,99,1,99,9,99,9,99999,9,99,9,99,9","10041,1,99999,9",,,,"MET055METAR EGOW 090750Z 07005KT 9999 SCT020 07/12 Q1004 WHT;",
"03018099999","2010-06-09T08:50:00","4","53.581575","-3.055522","11.27","WOODVALE, UK","FM-15","EGOW ","V020","080,1,N,0036,1","00750,1,C,N","011265,1,N,1","+0170,2","+0120,1","99999,9","07,5,+00750,1,99,9",,,"07,99,1,99,9,99,9,99999,9,99,9,99,9","10051,1,99999,9",,,,"MET055METAR EGOW 090850Z 08007KT 9999 BKN025 17/12 Q1005 BLU;",
"03018099999","2010-06-09T09:50:00","4","53.581575","-3.055522","11.27","WOODVALE, UK","FM-15","EGOW ","V020","060,1,N,0041,1","01200,1,C,N","011265,1,N,1","+0170,1","+0130,1","99999,9","04,5,+00600,1,99,9","07,5,+01200,1,99,9",,"07,99,1,99,9,99,9,99999,9,99,9,99,9","10051,1,99999,9",,,,"MET062METAR EGOW 090950Z 06008KT 9999 SCT020 BKN040 17/13 Q1005 WHT;",
"03018099999","2010-06-09T11:50:00","4","53.581575","-3.055522","11.27","WOODVALE, UK","FM-15","EGOW ","V020","060,1,N,0062,1","00600,1,C,N","009000,1,N,1","+0170,1","+0130,1","99999,9","02,5,+00300,1,99,9","04,5,+00600,1,99,9","07,5,+01050,1,99,9","07,99,1,99,9,99,9,99999,9,99,9,99,9","10061,1,99999,9","05,1",,,"MET072METAR EGOW 091150Z 06012KT 9000 HZ FEW010 SCT020 BKN035 17/13 Q1006 WHT;",
"03018099999","2010-06-09T12:50:00","4","53.581575","-3.055522","11.27","WOODVALE, UK","FM-15","EGOW ","V020","070,1,N,0067,1","00600,1,C,N","011265,1,N,1","+0170,1","+0130,1","99999,9","02,5,+00450,1,99,9","04,5,+00600,1,99,9","07,5,+01200,1,99,9","07,99,1,99,9,99,9,99999,9,99,9,99,9","10061,1,99999,9",,,,"MET069METAR EGOW 091250Z 07013KT 9999 FEW015 SCT020 BKN040 17/13 Q1006 WHT;",
"03018099999","2010-06-09T13:50:00","4","53.581575","-3.055522","11.27","WOODVALE, UK","FM-15","EGOW ","V020","070,1,N,0077,1","00300,1,C,N","007000,1,N,1","+0150,1","+0130,1","99999,9","02,5,+00150,1,99,9","04,5,+00300,1,99,9","08,5,+00750,1,99,9","08,99,1,99,9,99,9,99999,9,99,9,99,9","10071,1,99999,9","63,1",,,"MET072METAR EGOW 091350Z 07015KT 7000 RA FEW005 SCT010 OVC025 15/13 Q1007 GRN;",
"03018099999","2010-06-09T14:50:00","4","53.581575","-3.055522","11.27","WOODVALE, UK","FM-15","EGOW ","V020","070,1,N,0093,1","00360,1,C,N","011265,1,N,1","+0150,1","+0120,1","99999,9","07,5,+00360,1,99,9",,,"07,99,1,99,9,99,9,99999,9,99,9,99,9","10071,1,99999,9",,,,"MET062METAR EGOW 091450Z 07018KT 9999 BKN012 15/12 Q1007 RESHRA GRN;",
"03018099999","2010-06-10T06:50:00","4","53.581575","-3.055522","11.27","WOODVALE, UK","FM-15","EGOW ","V020","999,9,9,9999,9","00570,5,9,N","999999,9,N,1","+0130,1","+0090,1","99999,9","07,5,+00570,5,99,9","08,5,+01800,5,99,9",,,"10130,1,99999,9",,,,"MET062METAR EGOW 100650Z 040012KT -DZ BKN019 OVC060 13/09 Q1013 WHT;",
"03018099999","2010-06-10T07:50:00","4","53.581575","-3.055522","11.27","WOODVALE, UK","FM-15","EGOW ","V020","999,9,9,9999,9","00900,5,9,N","999999,9,N,1","+0130,1","+0100,1","99999,9","02,5,+00450,5,99,9","07,5,+00900,5,99,9",,,"10130,1,99999,9",,,,"MET062METAR EGOW 100750Z 040012KT -DZ FEW015 BKN030 13/10 Q1013 WHT;",
"03018099999","2010-06-10T08:50:00","4","53.581575","-3.055522","11.27","WOODVALE, UK","FM-15","EGOW ","V020","999,9,9,9999,9","00900,5,9,N","999999,9,N,1","+0140,1","+0100,1","99999,9","02,5,+00540,5,99,9","07,5,+00900,5,99,9",,,"10130,1,99999,9",,,,"MET058METAR EGOW 100850Z 040015KT FEW018 BKN030 14/10 Q1013 BLU;",
"03018099999","2010-06-10T09:50:00","4","53.581575","-3.055522","11.27","WOODVALE, UK","FM-15","EGOW ","V020","040,1,N,0072,1","00600,5,9,N","999999,9,N,1","+0150,1","+0100,1","99999,9","07,5,+00600,5,99,9",,,,"10130,1,99999,9",,,,"MET050METAR EGOW 100950Z 04014KT BKN020 15/10 Q1013 WHT;",
"03018099999","2010-06-10T10:50:00","4","53.581575","-3.055522","11.27","WOODVALE, UK","FM-15","EGOW ","V020","070,1,N,0087,1","00600,1,C,N","011265,1,N,1","+0150,1","+0100,1","99999,9","07,5,+00600,1,99,9",,,"07,99,1,99,9,99,9,99999,9,99,9,99,9","10139,1,99999,9",,,,"MET055METAR EGOW 101050Z 07017KT 9999 BKN020 15/10 Q1014 WHT;",
"03018099999","2010-06-10T11:50:00","4","53.581575","-3.055522","11.27","WOODVALE, UK","FM-15","EGOW ","V020","050,1,N,0072,1","02400,1,C,N","011265,1,N,1","+0170,1","+0100,1","99999,9","04,5,+00600,1,99,9","07,5,+02400,1,99,9",,"07,99,1,99,9,99,9,99999,9,99,9,99,9","10129,1,99999,9",,,,"MET062METAR EGOW 101150Z 05014KT 9999 SCT020 BKN080 17/10 Q1013 WHT;",
"03018099999","2010-06-10T12:50:00","4","53.581575","-3.055522","11.27","WOODVALE, UK","FM-15","EGOW ","V020","050,1,N,0057,1","22000,1,9,N","011265,1,N,1","+0170,1","+0100,1","99999,9","04,5,+00960,1,99,9",,,"04,99,1,99,9,99,9,99999,9,99,9,99,9","10129,1,99999,9",,,,"MET055METAR EGOW 101250Z 05011KT 9999 SCT032 17/10 Q1013 BLU;",
"03018099999","2010-06-10T13:50:00","4","53.581575","-3.055522","11.27","WOODVALE, UK","FM-15","EGOW ","V020","080,1,N,0072,1","22000,1,9,N","011265,1,N,1","+0170,1","+0110,1","99999,9","04,5,+00840,1,99,9",,,"04,99,1,99,9,99,9,99999,9,99,9,99,9","10129,1,99999,9",,,,"MET055METAR EGOW 101350Z 08014KT 9999 SCT028 17/11 Q1013 BLU;",
"03018099999","2010-06-10T14:50:00","4","53.581575","-3.055522","11.27","WOODVALE, UK","FM-15","EGOW ","V020","070,1,N,0051,1","01050,1,C,N","011265,1,N,1","+0170,1","+0100,1","99999,9","02,5,+00840,1,99,9","07,5,+01050,1,99,9",,"07,99,1,99,9,99,9,99999,9,99,9,99,9","10129,1,99999,9",,,"0108,1","MET065METAR EGOW 101450Z 07010G21KT 9999 FEW028 BKN035 17/10 Q1013 BLU;",
"03018099999","2010-06-11T06:50:00","4","53.581575","-3.055522","11.27","WOODVALE, UK","FM-15","EGOW ","V020","220,1,N,0031,1","99999,9,C,N","011265,1,N,1","+0110,1","+0090,1","99999,9","02,5,+00600,1,99,9","04,5,+01200,1,99,9",,"04,99,1,99,9,99,9,99999,9,99,9,99,9","10108,1,99999,9",,,,"MET062METAR EGOW 110650Z 22006KT 9999 FEW020 SCT040 11/09 Q1011 BLU;","P01 012003SCOCIG"
"03018099999","2010-06-11T08:50:00","4","53.581575","-3.055522","11.27","WOODVALE, UK","FM-15","EGOW ","V020","310,1,N,0051,1","00480,1,C,N","011265,1,N,1","+0130,1","+0100,1","99999,9","07,5,+00480,1,99,9",,,"07,99,1,99,9,99,9,99999,9,99,9,99,9","10102,1,99999,9",,,,"MET055METAR EGOW 110850Z 31010KT 9999 BKN016 13/10 Q1010 WHT;",
"03018099999","2010-06-11T09:50:00","4","53.581575","-3.055522","11.27","WOODVALE, UK","FM-15","EGOW ","V020","310,1,N,0051,1","05400,1,C,N","011265,1,N,1","+0140,1","+0090,1","99999,9","04,5,+00480,1,99,9","07,5,+05400,1,99,9",,"07,99,1,99,9,99,9,99999,9,99,9,99,9","10108,1,99999,9",,,,"MET062METAR EGOW 110950Z 31010KT 9999 SCT016 BKN180 14/09 Q1011 WHT;",
"03018099999","2010-06-11T10:50:00","4","53.581575","-3.055522","11.27","WOODVALE, UK","FM-15","EGOW ","V020","310,1,N,0057,1","05400,1,C,N","011265,1,N,1","+0140,1","+0090,1","99999,9","04,5,+00480,1,99,9","07,5,+05400,1,99,9",,"07,99,1,99,9,99,9,99999,9,99,9,99,9","10108,1,99999,9",,,,"MET062METAR EGOW 111050Z 31011KT 9999 SCT016 BKN180 14/09 Q1011 WHT;",
"03018099999","2010-06-11T11:50:00","4","53.581575","-3.055522","11.27","WOODVALE, UK","FM-15","EGOW ","V020","290,1,N,0067,1","99999,9,C,N","011265,1,N,1","+0150,1","+0100,1","99999,9","04,5,+00600,1,99,9","04,5,+05400,1,99,9",,"04,99,1,99,9,99,9,99999,9,99,9,99,9","10108,1,99999,9",,,,"MET062METAR EGOW 111150Z 29013KT 9999 SCT020 SCT180 15/10 Q1011 WHT;","P01 054003SCOCIG"
"03018099999","2010-06-11T13:50:00","4","53.581575","-3.055522","11.27","WOODVALE, UK","FM-15","EGOW ","V020","300,1,N,0067,1","22000,1,9,N","011265,1,N,1","+0150,1","+0090,1","99999,9","02,5,+00750,1,99,9",,,"02,99,1,99,9,99,9,99999,9,99,9,99,9","10108,1,99999,9",,,,"MET055METAR EGOW 111350Z 30013KT 9999 FEW025 15/09 Q1011 BLU;",
"03018099999","2010-06-11T14:50:00","4","53.581575","-3.055522","11.27","WOODVALE, UK","FM-15","EGOW ","V020","290,1,N,0062,1","99999,9,C,N","011265,1,N,1","+0150,1","+0090,1","99999,9","04,5,+00750,1,99,9","04,5,+05400,1,99,9",,"04,99,1,99,9,99,9,99999,9,99,9,99,9","10119,1,99999,9",,,,"MET062METAR EGOW 111450Z 29012KT 9999 SCT025 SCT180 15/09 Q1012 BLU;","P01 054003SCOCIG"
"03018099999","2010-06-12T06:50:00","4","53.581575","-3.055522","11.27","WOODVALE, UK","FM-15","EGOW ","V020","340,1,N,0077,1","22000,1,9,N","011265,1,N,1","+0130,1","+0070,1","99999,9","04,5,+00720,1,99,9",,,"04,99,1,99,9,99,9,99999,9,99,9,99,9","10149,1,99999,9",,,,"MET055METAR EGOW 120650Z 34015KT 9999 SCT024 13/07 Q1015 WHT;",
"03018099999","2010-06-12T07:50:00","4","53.581575","-3.055522","11.27","WOODVALE, UK","FM-15","EGOW ","V020","340,1,N,0067,1","22000,1,9,N","011265,1,N,1","+0140,1","+0080,1","99999,9","02,5,+00720,1,99,9",,,"02,99,1,99,9,99,9,99999,9,99,9,99,9","10159,1,99999,9",,,,"MET055METAR EGOW 120750Z 34013KT 9999 FEW024 14/08 Q1016 BLU;",
"03018099999","2010-06-12T08:50:00","4","53.581575","-3.055522","11.27","WOODVALE, UK","FM-15","EGOW ","V020","340,1,N,0051,1","22000,1,9,N","011265,1,N,1","+0150,1","+0090,1","99999,9","02,5,+00720,1,99,9",,,"02,99,1,99,9,99,9,99999,9,99,9,99,9","10159,1,99999,9",,,,"MET055METAR EGOW 120850Z 34010KT 9999 FEW024 15/09 Q1016 BLU;",
"03018099999","2010-06-12T09:50:00","4","53.581575","-3.055522","11.27","WOODVALE, UK","FM-15","EGOW ","V020","350,1,N,0051,1","22000,1,9,N","011265,1,N,1","+0160,1","+0080,1","99999,9","02,5,+00960,1,99,9",,,"02,99,1,99,9,99,9,99999,9,99,9,99,9","10169,1,99999,9",,,,"MET055METAR EGOW 120950Z 35010KT 9999 FEW032 16/08 Q1017 BLU;",
"03018099999","2010-06-12T10:50:00","4","53.581575","-3.055522","11.27","WOODVALE, UK","FM-15","EGOW ","V020","310,1,N,0062,1","22000,1,9,N","011265,1,N,1","+0160,1","+0080,1","99999,9","02,5,+00960,1,99,9",,,"02,99,1,99,9,99,9,99999,9,99,9,99,9","10169,1,99999,9",,,,"MET055METAR EGOW 121050Z 31012KT 9999 FEW032 16/08 Q1017 BLU;",
"03018099999","2010-06-12T11:50:00","4","53.581575","-3.055522","11.27","WOODVALE, UK","FM-15","EGOW ","V020","310,1,N,0077,1","22000,1,9,N","011265,1,N,1","+0160,1","+0080,1","99999,9","02,5,+00900,1,99,9",,,"02,99,1,99,9,99,9,99999,9,99,9,99,9","10180,1,99999,9",,,,"MET055METAR EGOW 121150Z 31015KT 9999 FEW030 16/08 Q1018 BLU;",
"03018099999","2010-06-12T12:50:00","4","53.581575","-3.055522","11.27","WOODVALE, UK","FM-15","EGOW ","V020","310,1,N,0082,1","99999,9,9,Y","009900,1,N,1","+0160,1","+0080,1","99999,9",,,,,"10180,1,99999,9",,,,"MET049METAR EGOW 121250Z 31016KT CAVOK 16/08 Q1018 BLU;",
"03018099999","2010-06-12T13:50:00","4","53.581575","-3.055522","11.27","WOODVALE, UK","FM-15","EGOW ","V020","320,1,N,0062,1","22000,1,9,N","011265,1,N,1","+0160,1","+0070,1","99999,9","02,5,+01020,1,99,9",,,"02,99,1,99,9,99,9,99999,9,99,9,99,9","10180,1,99999,9",,,,"MET055METAR EGOW 121350Z 32012KT 9999 FEW034 16/07 Q1018 BLU;",
"03018099999","2010-06-13T06:50:00","4","53.581575","-3.055522","11.27","WOODVALE, UK","FM-15","EGOW ","V020","220,1,N,0015,1","99999,9,C,N","011265,1,N,1","+0130,1","+0100,1","99999,9","02,5,+00480,1,99,9","04,5,+00900,1,99,9",,"04,99,1,99,9,99,9,99999,9,99,9,99,9","10159,1,99999,9",,,,"MET062METAR EGOW 130650Z 22003KT 9999 FEW016 SCT030 13/10 Q1016 BLU;","P01 009003SCOCIG"
"03018099999","2010-06-13T07:50:00","4","53.581575","-3.055522","11.27","WOODVALE, UK","FM-15","EGOW ","V020","160,1,N,0041,1","04500,1,C,N","011265,1,N,1","+0140,1","+0100,1","99999,9","02,5,+00480,1,99,9","07,5,+04500,1,99,9",,"07,99,1,99,9,99,9,99999,9,99,9,99,9","10159,1,99999,9",,,,"MET062METAR EGOW 130750Z 16008KT 9999 FEW016 BKN150 14/10 Q1016 BLU;",
"03018099999","2010-06-13T08:50:00","4","53.581575","-3.055522","11.27","WOODVALE, UK","FM-15","EGOW ","V020","210,1,N,0036,1","04500,1,C,N","011265,1,N,1","+0150,1","+0090,1","99999,9","02,5,+00750,1,99,9","07,5,+04500,1,99,9",,"07,99,1,99,9,99,9,99999,9,99,9,99,9","10149,1,99999,9",,,,"MET062METAR EGOW 130850Z 21007KT 9999 FEW025 BKN150 15/09 Q1015 BLU;",
"03018099999","2010-06-13T09:50:00","4","53.581575","-3.055522","11.27","WOODVALE, UK","FM-15","EGOW ","V020","220,1,N,0036,1","04500,1,C,N","011265,1,N,1","+0160,1","+0090,1","99999,9","02,5,+00750,1,99,9","07,5,+04500,1,99,9",,"07,99,1,99,9,99,9,99999,9,99,9,99,9","10139,1,99999,9",,,,"MET062METAR EGOW 130950Z 22007KT 9999 FEW025 BKN150 16/09 Q1014 BLU;",
"03018099999","2010-06-13T10:50:00","4","53.581575","-3.055522","11.27","WOODVALE, UK","FM-15","EGOW ","V020","250,1,N,0041,1","04500,1,C,N","011265,1,N,1","+0160,1","+0100,1","99999,9","02,5,+01200,1,99,9","07,5,+04500,1,99,9",,"07,99,1,99,9,99,9,99999,9,99,9,99,9","10139,1,99999,9",,,,"MET062METAR EGOW 131050Z 25008KT 9999 FEW040 BKN150 16/10 Q1014 BLU;",
"03018099999","2010-06-13T11:50:00","4","53.581575","-3.055522","11.27","WOODVALE, UK","FM-15","EGOW ","V020","280,1,N,0051,1","04500,1,C,N","011265,1,N,1","+0170,1","+0090,1","99999,9","02,5,+00600,1,99,9","07,5,+04500,1,99,9",,"07,99,1,99,9,99,9,99999,9,99,9,99,9","10129,1,99999,9",,,,"MET062METAR EGOW 131150Z 28010KT 9999 FEW020 BKN150 17/09 Q1013 BLU;",
"03018099999","2010-06-13T12:50:00","4","53.581575","-3.055522","11.27","WOODVALE, UK","FM-15","EGOW ","V020","290,1,N,0051,1","04500,1,C,N","011265,1,N,1","+0150,1","+0110,1","99999,9","04,5,+00450,1,99,9","07,5,+04500,1,99,9",,"07,99,1,99,9,99,9,99999,9,99,9,99,9","10129,1,99999,9",,,,"MET062METAR EGOW 131250Z 29010KT 9999 SCT015 BKN150 15/11 Q1013 WHT;",
"03018099999","2010-06-16T06:50:00","4","53.581575","-3.055522","11.27","WOODVALE, UK","FM-15","EGOW ","V020","999,9,V,0015,1","22000,1,9,N","011265,1,N,1","+0150,1","+0090,1","99999,9","02,5,+00750,1,99,9",,,"02,99,1,99,9,99,9,99999,9,99,9,99,9","10281,1,99999,9",,,,"MET055METAR EGOW 160650Z VRB03KT 9999 FEW025 15/09 Q1028 BLU;",
"03018099999","2010-06-16T07:50:00","4","53.581575","-3.055522","11.27","WOODVALE, UK","FM-15","EGOW ","V020","310,1,N,0026,1","22000,1,9,N","011265,1,N,1","+0170,1","+0120,1","99999,9","02,5,+00780,1,99,9",,,"02,99,1,99,9,99,9,99999,9,99,9,99,9","10281,1,99999,9",,,,"MET055METAR EGOW 160750Z 31005KT 9999 FEW026 17/12 Q1028 BLU;",
"03018099999","2010-06-16T08:50:00","4","53.581575","-3.055522","11.27","WOODVALE, UK","FM-15","EGOW ","V020","999,9,C,0000,1","22000,1,9,N","011265,1,N,1","+0190,1","+0120,1","99999,9","02,5,+00840,1,99,9",,,"02,99,1,99,9,99,9,99999,9,99,9,99,9","10281,1,99999,9",,,,"MET055METAR EGOW 160850Z 00000KT 9999 FEW028 19/12 Q1028 BLU;",
"03018099999","2010-06-16T09:50:00","4","53.581575","-3.055522","11.27","WOODVALE, UK","FM-15","EGOW ","V020","300,1,N,0036,1","22000,1,9,N","011265,1,N,1","+0190,1","+0120,1","99999,9","02,5,+00750,1,99,9",,,"02,99,1,99,9,99,9,99999,9,99,9,99,9","10281,1,99999,9",,,,"MET055METAR EGOW 160950Z 30007KT 9999 FEW025 19/12 Q1028 BLU;",
"03018099999","2010-06-16T10:50:00","4","53.581575","-3.055522","11.27","WOODVALE, UK","FM-15","EGOW ","V020","290,1,N,0057,1","22000,1,9,N","011265,1,N,1","+0180,1","+0120,1","99999,9","02,5,+00750,1,99,9",,,"02,99,1,99,9,99,9,99999,9,99,9,99,9","10271,1,99999,9",,,,"MET055METAR EGOW 161050Z 29011KT 9999 FEW025 18/12 Q1027 BLU;",
"03018099999","2010-06-16T11:50:00","4","53.581575","-3.055522","11.27","WOODVALE, UK","FM-15","EGOW ","V020","310,1,N,0051,1","22000,1,9,N","011265,1,N,1","+0170,1","+0130,1","99999,9","02,5,+00900,1,99,9",,,"02,99,1,99,9,99,9,99999,9,99,9,99,9","10271,1,99999,9",,,,"MET055METAR EGOW 161150Z 31010KT 9999 FEW030 17/13 Q1027 BLU;",
"03018099999","2010-06-16T12:50:00","4","53.581575","-3.055522","11.27","WOODVALE, UK","FM-15","EGOW ","V020","320,1,N,0057,1","22000,1,9,N","011265,1,N,1","+0180,1","+0110,1","99999,9","02,5,+00900,1,99,9",,,"02,99,1,99,9,99,9,99999,9,99,9,99,9","10271,1,99999,9",,,,"MET055METAR EGOW 161250Z 32011KT 9999 FEW030 18/11 Q1027 BLU;",
"03018099999","2010-06-16T13:50:00","4","53.581575","-3.055522","11.27","WOODVALE, UK","FM-15","EGOW ","V020","310,1,N,0067,1","99999,9,9,Y","009900,1,N,1","+0180,1","+0120,1","99999,9",,,,,"10261,1,99999,9",,,,"MET049METAR EGOW 161350Z 31013KT CAVOK 18/12 Q1026 BLU;",
"03018099999","2010-06-16T14:50:00","4","53.581575","-3.055522","11.27","WOODVALE, UK","FM-15","EGOW ","V020","330,1,N,0072,1","99999,9,9,Y","009900,1,N,1","+0180,1","+0120,1","99999,9",,,,,"10261,1,99999,9",,,,"MET049METAR EGOW 161450Z 33014KT CAVOK 18/12 Q1026 BLU;",
"03018099999","2010-06-17T06:50:00","4","53.581575","-3.055522","11.27","WOODVALE, UK","FM-15","EGOW ","V020","999,9,V,0010,1","01800,1,C,N","011265,1,N,1","+0160,1","+0130,1","99999,9","02,5,+00900,1,99,9","07,5,+01800,1,99,9",,"07,99,1,99,9,99,9,99999,9,99,9,99,9","10251,1,99999,9",,,,"MET062METAR EGOW 170650Z VRB02KT 9999 FEW030 BKN060 16/13 Q1025 BLU;",
"03018099999","2010-06-17T07:50:00","4","53.581575","-3.055522","11.27","WOODVALE, UK","FM-15","EGOW ","V020","200,1,N,0026,1","99999,9,9,Y","009900,1,N,1","+0180,1","+0130,1","99999,9",,,,,"10251,1,99999,9",,,,"MET049METAR EGOW 170750Z 20005KT CAVOK 18/13 Q1025 BLU;",
"03018099999","2010-06-17T08:50:00","4","53.581575","-3.055522","11.27","WOODVALE, UK","FM-15","EGOW ","V020","200,1,N,0021,1","99999,9,9,Y","009900,1,N,1","+0190,1","+0100,1","99999,9",,,,,"10251,1,99999,9",,,,"MET049METAR EGOW 170850Z 20004KT CAVOK 19/10 Q1025 BLU;",
"03018099999","2010-06-17T09:50:00","4","53.581575","-3.055522","11.27","WOODVALE, UK","FM-15","EGOW ","V020","250,1,N,0036,1","99999,9,9,Y","009900,1,N,1","+0200,1","+0120,1","99999,9",,,,,"10240,1,99999,9",,,,"MET049METAR EGOW 170950Z 25007KT CAVOK 20/12 Q1024 BLU;",
"03018099999","2010-06-17T10:50:00","4","53.581575","-3.055522","11.27","WOODVALE, UK","FM-15","EGOW ","V020","290,1,N,0046,1","22000,1,9,N","011265,1,N,1","+0200,1","+0120,1","99999,9","02,5,+00960,1,99,9",,,"02,99,1,99,9,99,9,99999,9,99,9,99,9","10240,1,99999,9",,,,"MET055METAR EGOW 171050Z 29009KT 9999 FEW032 20/12 Q1024 BLU;",
"03018099999","2010-06-17T11:50:00","4","53.581575","-3.055522","11.27","WOODVALE, UK","FM-15","EGOW ","V020","300,1,N,0051,1","22000,1,9,N","011265,1,N,1","+0190,1","+0130,1","99999,9","02,5,+01020,1,99,9",,,"02,99,1,99,9,99,9,99999,9,99,9,99,9","10240,1,99999,9",,,,"MET055METAR EGOW 171150Z 30010KT 9999 FEW034 19/13 Q1024 BLU;",
"03018099999","2010-06-17T12:50:00","4","53.581575","-3.055522","11.27","WOODVALE, UK","FM-15","EGOW ","V020","330,1,N,0057,1","22000,1,9,N","011265,1,N,1","+0200,1","+0140,1","99999,9","02,5,+01020,1,99,9",,,"02,99,1,99,9,99,9,99999,9,99,9,99,9","10240,1,99999,9",,,,"MET055METAR EGOW 171250Z 33011KT 9999 FEW034 20/14 Q1024 BLU;",
"03018099999","2010-06-17T13:50:00","4","53.581575","-3.055522","11.27","WOODVALE, UK","FM-15","EGOW ","V020","330,1,N,0057,1","22000,1,9,N","011265,1,N,1","+0200,1","+0150,1","99999,9","02,5,+01080,1,99,9",,,"02,99,1,99,9,99,9,99999,9,99,9,99,9","10230,1,99999,9",,,,"MET055METAR EGOW 171350Z 33011KT 9999 FEW036 20/15 Q1023 BLU;",
"03018099999","2010-06-17T14:50:00","4","53.581575","-3.055522","11.27","WOODVALE, UK","FM-15","EGOW ","V020","340,1,N,0082,1","99999,9,9,Y","009900,1,N,1","+0200,1","+0130,1","99999,9",,,,,"10230,1,99999,9",,,,"MET049METAR EGOW 171450Z 34016KT CAVOK 20/13 Q1023 BLU;",
"03018099999","2010-06-17T15:50:00","4","53.581575","-3.055522","11.27","WOODVALE, UK","FM-15","EGOW ","V020","330,1,N,0093,1","99999,9,9,Y","009900,1,N,1","+0190,1","+0130,1","99999,9",,,,,"10230,1,99999,9",,,,"MET049METAR EGOW 171550Z 33018KT CAVOK 19/13 Q1023 BLU;",
"03018099999","2010-06-18T06:50:00","4","53.581575","-3.055522","11.27","WOODVALE, UK","FM-15","EGOW ","V020","300,1,N,0041,1","00360,1,C,N","011265,1,N,1","+0150,1","+0130,1","99999,9","07,5,+00360,1,99,9",,,"07,99,1,99,9,99,9,99999,9,99,9,99,9","10220,1,99999,9",,,,"MET055METAR EGOW 180650Z 30008KT 9999 BKN012 15/13 Q1022 GRN;",
"03018099999","2010-06-18T07:50:00","4","53.581575","-3.055522","11.27","WOODVALE, UK","FM-15","EGOW ","V020","300,1,N,0041,1","00360,1,C,N","011265,1,N,1","+0150,1","+0130,1","99999,9","07,5,+00360,1,99,9",,,"07,99,1,99,9,99,9,99999,9,99,9,99,9","10220,1,99999,9",,,,"MET055METAR EGOW 180750Z 30008KT 9999 BKN012 15/13 Q1022 GRN;",
"03018099999","2010-06-18T08:50:00","4","53.581575","-3.055522","11.27","WOODVALE, UK","FM-15","EGOW ","V020","320,1,N,0021,1","00180,1,C,N","011265,1,N,1","+0160,1","+0130,1","99999,9","07,5,+00180,1,99,9",,,"07,99,1,99,9,99,9,99999,9,99,9,99,9","10220,1,99999,9",,,,"MET056METAR EGOW 180850Z 32004KT 9999 BKN006 16/13 Q1022 YLO1;",
"03018099999","2010-06-18T09:50:00","4","53.581575","-3.055522","11.27","WOODVALE, UK","FM-15","EGOW ","V020","250,1,N,0026,1","99999,9,C,N","011265,1,N,1","+0180,1","+0140,1","99999,9","02,5,+00180,1,99,9","04,5,+01800,1,99,9",,"04,99,1,99,9,99,9,99999,9,99,9,99,9","10220,1,99999,9",,,,"MET062METAR EGOW 180950Z 25005KT 9999 FEW006 SCT060 18/14 Q1022 GRN;","P01 018003SCOCIG"
"03018099999","2010-06-18T10:50:00","4","53.581575","-3.055522","11.27","WOODVALE, UK","FM-15","EGOW ","V020","250,1,N,0026,1","99999,9,C,N","011265,1,N,1","+0170,1","+0130,1","99999,9","02,5,+00270,1,99,9","04,5,+00450,1,99,9",,"04,99,1,99,9,99,9,99999,9,99,9,99,9","10210,1,99999,9",,,,"MET062METAR EGOW 181050Z 25005KT 9999 FEW009 SCT015 17/13 Q1021 WHT;","P01 004503SCOCIG"
"03018099999","2010-06-18T11:50:00","4","53.581575","-3.055522","11.27","WOODVALE, UK","FM-15","EGOW ","V020","300,1,N,0026,1","00450,1,C,N","011265,1,N,1","+0160,1","+0150,1","99999,9","02,5,+00270,1,99,9","04,5,+00450,1,99,9","07,5,+00690,1,99,9","07,99,1,99,9,99,9,99999,9,99,9,99,9","10220,1,99999,9",,,,"MET069METAR EGOW 181150Z 30005KT 9999 FEW009 SCT015 BKN023 16/15 Q1022 WHT;",
"03018099999","2010-06-18T12:50:00","4","53.581575","-3.055522","11.27","WOODVALE, UK","FM-15","EGOW ","V020","110,1,N,0026,1","00690,1,C,N","011265,1,N,1","+0170,1","+0120,1","99999,9","02,5,+00270,1,99,9","07,5,+00690,1,99,9",,"07,99,1,99,9,99,9,99999,9,99,9,99,9","10220,1,99999,9",,,,"MET062METAR EGOW 181250Z 11005KT 9999 FEW009 BKN023 17/12 Q1022 WHT;",
"03018099999","2010-06-18T13:50:00","4","53.581575","-3.055522","11.27","WOODVALE, UK","FM-15","EGOW ","V020","060,1,N,0051,1","01050,1,C,N","011265,1,N,1","+0170,1","+0090,1","99999,9","07,5,+01050,1,99,9",,,"07,99,1,99,9,99,9,99999,9,99,9,99,9","10220,1,99999,9",,,,"MET055METAR EGOW 181350Z 06010KT 9999 BKN035 17/09 Q1022 BLU;",
"03018099999","2010-06-18T14:50:00","4","53.581575","-3.055522","11.27","WOODVALE, UK","FM-15","EGOW ","V020","060,1,N,0036,1","01050,1,C,N","011265,1,N,1","+0180,1","+0090,1","99999,9","02,5,+00240,1,99,9","07,5,+01050,1,99,9",,"07,99,1,99,9,99,9,99999,9,99,9,99,9","10220,1,99999,9",,,,"MET062METAR EGOW 181450Z 06007KT 9999 FEW008 BKN035 18/09 Q1022 BLU;",
"03018099999","2010-06-19T06:50:00","4","53.581575","-3.055522","11.27","WOODVALE, UK","FM-15","EGOW ","V020","060,1,N,0041,1","99999,9,9,Y","009900,1,N,1","+0130,1","+0030,1","99999,9",,,,,"10200,1,99999,9",,,,"MET049METAR EGOW 190650Z 06008KT CAVOK 13/03 Q1020 BLU;",
"03018099999","2010-06-19T07:50:00","4","53.581575","-3.055522","11.27","WOODVALE, UK","FM-15","EGOW ","V020","020,1,N,0041,1","22000,1,9,N","011265,1,N,1","+0120,1","+0030,1","99999,9","04,5,+00750,1,99,9",,,"04,99,1,99,9,99,9,99999,9,99,9,99,9","10200,1,99999,9",,,,"MET055METAR EGOW 190750Z 02008KT 9999 SCT025 12/03 Q1020 BLU;",
"03018099999","2010-06-19T08:50:00","4","53.581575","-3.055522","11.27","WOODVALE, UK","FM-15","EGOW ","V020","020,1,N,0057,1","22000,1,9,N","011265,1,N,1","+0130,1","+0030,1","99999,9","04,5,+00900,1,99,9",,,"04,99,1,99,9,99,9,99999,9,99,9,99,9","10200,1,99999,9",,,,"MET055METAR EGOW 190850Z 02011KT 9999 SCT030 13/03 Q1020 BLU;",
"03018099999","2010-06-19T09:50:00","4","53.581575","-3.055522","11.27","WOODVALE, UK","FM-15","EGOW ","V020","020,1,N,0057,1","22000,1,9,N","011265,1,N,1","+0150,1","+0020,1","99999,9","04,5,+00840,1,99,9",,,"04,99,1,99,9,99,9,99999,9,99,9,99,9","10200,1,99999,9",,,,"MET055METAR EGOW 190950Z 02011KT 9999 SCT028 15/02 Q1020 BLU;",
"03018099999","2010-06-19T10:50:00","4","53.581575","-3.055522","11.27","WOODVALE, UK","FM-15","EGOW ","V020","010,1,N,0072,1","22000,1,9,N","011265,1,N,1","+0140,1","+0030,1","99999,9","04,5,+00840,1,99,9",,,"04,99,1,99,9,99,9,99999,9,99,9,99,9","10200,1,99999,9",,,,"MET055METAR EGOW 191050Z 01014KT 9999 SCT028 14/03 Q1020 BLU;",
"03018099999","2010-06-19T11:50:00","4","53.581575","-3.055522","11.27","WOODVALE, UK","FM-15","EGOW ","V020","020,1,N,0046,1","22000,1,9,N","011265,1,N,1","+0150,1","+0020,1","99999,9","04,5,+00840,1,99,9",,,"04,99,1,99,9,99,9,99999,9,99,9,99,9","10200,1,99999,9",,,,"MET055METAR EGOW 191150Z 02009KT 9999 SCT028 15/02 Q1020 BLU;",
"03018099999","2010-06-19T12:50:00","4","53.581575","-3.055522","11.27","WOODVALE, UK","FM-15","EGOW ","V020","330,1,N,0072,1","22000,1,9,N","011265,1,N,1","+0160,1","+0050,1","99999,9","04,5,+00840,1,99,9",,,"04,99,1,99,9,99,9,99999,9,99,9,99,9","10200,1,99999,9",,,,"MET055METAR EGOW 191250Z 33014KT 9999 SCT028 16/05 Q1020 BLU;",
"03018099999","2010-06-19T13:50:00","4","53.581575","-3.055522","11.27","WOODVALE, UK","FM-15","EGOW ","V020","320,1,N,0072,1","22000,1,9,N","011265,1,N,1","+0160,1","+0050,1","99999,9","04,5,+00840,1,99,9",,,"04,99,1,99,9,99,9,99999,9,99,9,99,9","10200,1,99999,9",,,,"MET055METAR EGOW 191350Z 32014KT 9999 SCT028 16/05 Q1020 BLU;",
"03018099999","2010-06-19T14:50:00","4","53.581575","-3.055522","11.27","WOODVALE, UK","FM-15","EGOW ","V020","340,1,N,0072,1","22000,1,9,N","011265,1,N,1","+0160,1","+0050,1","99999,9","04,5,+00840,1,99,9",,,"04,99,1,99,9,99,9,99999,9,99,9,99,9","10200,1,99999,9",,,,"MET055METAR EGOW 191450Z 34014KT 9999 SCT028 16/05 Q1020 BLU;",
"03018099999","2010-06-19T15:50:00","4","53.581575","-3.055522","11.27","WOODVALE, UK","FM-15","EGOW ","V020","330,1,N,0072,1","99999,9,C,N","011265,1,N,1","+0160,1","+0050,1","99999,9","02,5,+00450,1,99,9","04,5,+00840,1,99,9",,"04,99,1,99,9,99,9,99999,9,99,9,99,9","10200,1,99999,9",,,,"MET062METAR EGOW 191550Z 33014KT 9999 FEW015 SCT028 16/05 Q1020 BLU;","P01 008403SCOCIG"
"03018099999","2010-06-20T07:50:00","4","53.581575","-3.055522","11.27","WOODVALE, UK","FM-15","EGOW ","V020","270,1,N,0005,1","99999,9,9,Y","009900,1,N,1","+0130,1","+0050,1","99999,9",,,,,"10220,1,99999,9",,,,"MET049METAR EGOW 200750Z 27001KT CAVOK 13/05 Q1022 BLU;",
"03018099999","2010-06-20T08:50:00","4","53.581575","-3.055522","11.27","WOODVALE, UK","FM-15","EGOW ","V020","160,1,N,0015,1","99999,9,9,Y","009900,1,N,1","+0150,1","+0040,1","99999,9",,,,,"10220,1,99999,9",,,,"MET049METAR EGOW 200850Z 16003KT CAVOK 15/04 Q1022 BLU;",
"03018099999","2010-06-20T09:50:00","4","53.581575","-3.055522","11.27","WOODVALE, UK","FM-15","EGOW ","V020","320,1,N,0015,1","99999,9,9,Y","009900,1,N,1","+0150,1","+0060,1","99999,9",,,,,"10230,1,99999,9",,,,"MET049METAR EGOW 200950Z 32003KT CAVOK 15/06 Q1023 BLU;",
"03018099999","2010-06-20T10:50:00","4","53.581575","-3.055522","11.27","WOODVALE, UK","FM-15","EGOW ","V020","290,1,N,0036,1","22000,1,9,N","011265,1,N,1","+0160,1","+0030,1","99999,9","02,5,+01050,1,99,9",,,"02,99,1,99,9,99,9,99999,9,99,9,99,9","10230,1,99999,9",,,,"MET055METAR EGOW 201050Z 29007KT 9999 FEW035 16/03 Q1023 BLU;",
"03018099999","2010-06-20T11:50:00","4","53.581575","-3.055522","11.27","WOODVALE, UK","FM-15","EGOW ","V020","270,1,N,0057,1","22000,1,9,N","011265,1,N,1","+0160,1","+0060,1","99999,9","02,5,+01050,1,99,9",,,"02,99,1,99,9,99,9,99999,9,99,9,99,9","10230,1,99999,9",,,,"MET055METAR EGOW 201150Z 27011KT 9999 FEW035 16/06 Q1023 BLU;",
"03018099999","2010-06-20T12:50:00","4","53.581575","-3.055522","11.27","WOODVALE, UK","FM-15","EGOW ","V020","290,1,N,0041,1","99999,9,9,Y","009900,1,N,1","+0170,1","+0080,1","99999,9",,,,,"10230,1,99999,9",,,,"MET049METAR EGOW 201250Z 29008KT CAVOK 17/08 Q1023 BLU;",
"03018099999","2010-06-23T06:50:00","4","53.581575","-3.055522","11.27","WOODVALE, UK","FM-15","EGOW ","V020","170,1,N,0031,1","22000,1,9,N","011265,1,N,1","+0170,1","+0130,1","99999,9","02,5,+00450,1,99,9",,,"02,99,1,99,9,99,9,99999,9,99,9,99,9","10220,1,99999,9",,,,"MET055METAR EGOW 230650Z 17006KT 9999 FEW015 17/13 Q1022 BLU;",
"03018099999","2010-06-23T07:50:00","4","53.581575","-3.055522","11.27","WOODVALE, UK","FM-15","EGOW ","V020","190,1,N,0026,1","22000,1,9,N","011265,1,N,1","+0180,1","+0110,1","99999,9","02,5,+00840,1,99,9",,,"02,99,1,99,9,99,9,99999,9,99,9,99,9","10220,1,99999,9",,,,"MET055METAR EGOW 230750Z 19005KT 9999 FEW028 18/11 Q1022 BLU;",
"03018099999","2010-06-23T08:50:00","4","53.581575","-3.055522","11.27","WOODVALE, UK","FM-15","EGOW ","V020","180,1,N,0057,1","22000,1,9,N","011265,1,N,1","+0190,1","+0090,1","99999,9","02,5,+00750,1,99,9",,,"02,99,1,99,9,99,9,99999,9,99,9,99,9","10220,1,99999,9",,,,"MET055METAR EGOW 230850Z 18011KT 9999 FEW025 19/09 Q1022 BLU;",
"03018099999","2010-06-23T09:50:00","4","53.581575","-3.055522","11.27","WOODVALE, UK","FM-15","EGOW ","V020","190,1,N,0041,1","22000,1,9,N","011265,1,N,1","+0190,1","+0090,1","99999,9","02,5,+01200,1,99,9",,,"02,99,1,99,9,99,9,99999,9,99,9,99,9","10210,1,99999,9",,,,"MET055METAR EGOW 230950Z 19008KT 9999 FEW040 19/09 Q1021 BLU;",
"03018099999","2010-06-23T10:50:00","4","53.581575","-3.055522","11.27","WOODVALE, UK","FM-15","EGOW ","V020","230,1,N,0051,1","99999,9,C,N","011265,1,N,1","+0200,1","+0100,1","99999,9","02,5,+01200,1,99,9","04,5,+04500,1,99,9",,"04,99,1,99,9,99,9,99999,9,99,9,99,9","10210,1,99999,9",,,,"MET062METAR EGOW 231050Z 23010KT 9999 FEW040 SCT150 20/10 Q1021 BLU;","P01 045003SCOCIG"
"03018099999","2010-06-23T11:50:00","4","53.581575","-3.055522","11.27","WOODVALE, UK","FM-15","EGOW ","V020","230,1,N,0051,1","99999,9,C,N","011265,1,N,1","+0200,1","+0100,1","99999,9","02,5,+01200,1,99,9","04,5,+04500,1,99,9",,"04,99,1,99,9,99,9,99999,9,99,9,99,9","10210,1,99999,9",,,,"MET062METAR EGOW 231150Z 23010KT 9999 FEW040 SCT150 20/10 Q1021 BLU;","P01 045003SCOCIG"
"03018099999","2010-06-23T12:50:00","4","53.581575","-3.055522","11.27","WOODVALE, UK","FM-15","EGOW ","V020","270,1,N,0046,1","04500,1,C,N","011265,1,N,1","+0190,1","+0120,1","99999,9","02,5,+01200,1,99,9","07,5,+04500,1,99,9",,"07,99,1,99,9,99,9,99999,9,99,9,99,9","10210,1,99999,9",,,,"MET062METAR EGOW 231250Z 27009KT 9999 FEW040 BKN150 19/12 Q1021 BLU;",
"03018099999","2010-06-23T13:50:00","4","53.581575","-3.055522","11.27","WOODVALE, UK","FM-15","EGOW ","V020","280,1,N,0046,1","99999,9,9,Y","009900,1,N,1","+0190,1","+0120,1","99999,9",,,,,"10210,1,99999,9",,,,"MET049METAR EGOW 231350Z 28009KT CAVOK 19/12 Q1021 BLU;",
"03018099999","2010-06-23T14:50:00","4","53.581575","-3.055522","11.27","WOODVALE, UK","FM-15","EGOW ","V020","280,1,N,0067,1","04500,1,C,N","011265,1,N,1","+0200,1","+0110,1","99999,9","02,5,+00840,1,99,9","07,5,+04500,1,99,9","07,5,+07500,1,99,9","07,99,1,99,9,99,9,99999,9,99,9,99,9","10210,1,99999,9",,,,"MET069METAR EGOW 231450Z 28013KT 9999 FEW028 BKN150 BKN250 20/11 Q1021 BLU;",
"03018099999","2010-06-24T06:50:00","4","53.581575","-3.055522","11.27","WOODVALE, UK","FM-15","EGOW ","V020","260,1,N,0051,1","00600,1,C,N","011265,1,N,1","+0160,1","+0140,1","99999,9","07,5,+00600,1,99,9",,,"07,99,1,99,9,99,9,99999,9,99,9,99,9","10190,1,99999,9",,,,"MET055METAR EGOW 240650Z 26010KT 9999 BKN020 16/14 Q1019 WHT;",
"03018099999","2010-06-24T07:50:00","4","53.581575","-3.055522","11.27","WOODVALE, UK","FM-15","EGOW ","V020","250,1,N,0051,1","00600,1,C,N","011265,1,N,1","+0170,1","+0130,1","99999,9","07,5,+00600,1,99,9",,,"07,99,1,99,9,99,9,99999,9,99,9,99,9","10190,1,99999,9",,,,"MET055METAR EGOW 240750Z 25010KT 9999 BKN020 17/13 Q1019 WHT;",
"03018099999","2010-06-24T08:50:00","4","53.581575","-3.055522","11.27","WOODVALE, UK","FM-15","EGOW ","V020","270,1,N,0077,1","00600,1,C,N","011265,1,N,1","+0160,1","+0130,1","99999,9","07,5,+00600,1,99,9",,,"07,99,1,99,9,99,9,99999,9,99,9,99,9","10190,1,99999,9",,,,"MET055METAR EGOW 240850Z 27015KT 9999 BKN020 16/13 Q1019 WHT;",
"03018099999","2010-06-24T09:30:00","4","53.581575","-3.055522","11.27","WOODVALE, UK","FM-15","EGOW ","V020","270,1,N,0062,1","00240,1,C,N","011265,1,N,1","+0160,1","+0130,1","99999,9","04,5,+00180,1,99,9","07,5,+00240,1,99,9",,"07,99,1,99,9,99,9,99999,9,99,9,99,9","10190,1,99999,9",,,,"MET063METAR EGOW 240930Z 27012KT 9999 SCT006 BKN008 16/13 Q1019 YLO1;",
"03018099999","2010-06-24T09:50:00","4","53.581575","-3.055522","11.27","WOODVALE, UK","FM-15","EGOW ","V020","270,1,N,0067,1","99999,9,C,N","011265,1,N,1","+0170,1","+0130,1","99999,9","02,5,+00150,1,99,9","04,5,+00180,1,99,9",,"04,99,1,99,9,99,9,99999,9,99,9,99,9","10190,1,99999,9",,,,"MET063METAR EGOW 240950Z 27013KT 9999 FEW005 SCT006 17/13 Q1019 YLO1;","P01 001803SCOCIG"
"03018099999","2010-06-24T10:50:00","4","53.581575","-3.055522","11.27","WOODVALE, UK","FM-15","EGOW ","V020","280,1,N,0072,1","99999,9,C,N","011265,1,N,1","+0170,1","+0130,1","99999,9","02,5,+00150,1,99,9","04,5,+04500,1,99,9",,"04,99,1,99,9,99,9,99999,9,99,9,99,9","10190,1,99999,9",,,,"MET062METAR EGOW 241050Z 28014KT 9999 FEW005 SCT150 17/13 Q1019 BLU;","P01 045003SCOCIG"
"03018099999","2010-06-24T12:15:00","4","53.581575","-3.055522","11.27","WOODVALE, UK","FM-15","EGOW ","V020","270,1,N,0082,1","22000,1,9,N","011265,1,N,1","+0170,1","+0130,1","99999,9","02,5,+00210,1,99,9",,,"02,99,1,99,9,99,9,99999,9,99,9,99,9","10190,1,99999,9",,,,"MET055METAR EGOW 241215Z 27016KT 9999 FEW007 17/13 Q1019 BLU;",
"03018099999","2010-06-24T12:50:00","4","53.581575","-3.055522","11.27","WOODVALE, UK","FM-15","EGOW ","V020","310,1,N,0077,1","99999,9,C,N","011265,1,N,1","+0180,1","+0110,1","99999,9","02,5,+00840,1,99,9","04,5,+05400,1,99,9",,"04,99,1,99,9,99,9,99999,9,99,9,99,9","10200,1,99999,9",,,,"MET062METAR EGOW 241250Z 31015KT 9999 FEW028 SCT180 18/11 Q1020 BLU;","P01 054003SCOCIG"
"03018099999","2010-06-24T13:50:00","4","53.581575","-3.055522","11.27","WOODVALE, UK","FM-15","EGOW ","V020","290,1,N,0051,1","99999,9,9,Y","009900,1,N,1","+0180,1","+0100,1","99999,9",,,,,"10200,1,99999,9",,,,"MET049METAR EGOW 241350Z 29010KT CAVOK 18/10 Q1020 BLU;",
"03018099999","2010-06-24T14:50:00","4","53.581575","-3.055522","11.27","WOODVALE, UK","FM-15","EGOW ","V020","290,1,N,0067,1","22000,1,9,N","011265,1,N,1","+0180,1","+0110,1","99999,9","02,5,+00300,1,99,9",,,"02,99,1,99,9,99,9,99999,9,99,9,99,9","10200,1,99999,9",,,,"MET055METAR EGOW 241450Z 29013KT 9999 FEW010 18/11 Q1020 BLU;",
"03018099999","2010-06-24T15:50:00","4","53.581575","-3.055522","11.27","WOODVALE, UK","FM-15","EGOW ","V020","320,1,N,0057,1","99999,9,C,N","011265,1,N,1","+0180,1","+0120,1","99999,9","02,5,+00300,1,99,9","04,5,+05400,1,99,9",,"04,99,1,99,9,99,9,99999,9,99,9,99,9","10200,1,99999,9",,,,"MET062METAR EGOW 241550Z 32011KT 9999 FEW010 SCT180 18/12 Q1020 BLU;","P01 054003SCOCIG"
"03018099999","2010-06-25T06:50:00","4","53.581575","-3.055522","11.27","WOODVALE, UK","FM-15","EGOW ","V020","150,1,N,0015,1","99999,9,9,Y","009900,1,N,1","+0150,1","+0110,1","99999,9",,,,,"10190,1,99999,9",,,,"MET049METAR EGOW 250650Z 15003KT CAVOK 15/11 Q1019 BLU;",
"03018099999","2010-06-25T07:50:00","4","53.581575","-3.055522","11.27","WOODVALE, UK","FM-15","EGOW ","V020","170,1,N,0026,1","99999,9,9,Y","009900,1,N,1","+0160,1","+0120,1","99999,9",,,,,"10190,1,99999,9",,,,"MET049METAR EGOW 250750Z 17005KT CAVOK 16/12 Q1019 BLU;",
"03018099999","2010-06-25T08:50:00","4","53.581575","-3.055522","11.27","WOODVALE, UK","FM-15","EGOW ","V020","999,9,V,0015,1","01650,5,9,N","999999,9,N,1","+0190,1","+0110,1","99999,9","02,5,+00900,5,99,9","07,5,+01650,5,99,9",,,"10190,1,99999,9",,,,"MET057METAR EGOW 250850Z VRB03KT FEW030 BKN055 19/11 Q1019 BLU;",
"03018099999","2010-06-25T11:50:00","4","53.581575","-3.055522","11.27","WOODVALE, UK","FM-15","EGOW ","V020","310,1,N,0036,1","99999,9,9,Y","009900,1,N,1","+0220,1","+0090,1","99999,9",,,,,"10190,1,99999,9",,,,"MET049METAR EGOW 251150Z 31007KT CAVOK 22/09 Q1019 BLU;",
"03018099999","2010-06-25T13:50:00","4","53.581575","-3.055522","11.27","WOODVALE, UK","FM-15","EGOW ","V020","330,1,N,0036,1","22000,1,9,N","011265,1,N,1","+0220,1","+0100,1","99999,9","02,5,+01350,1,99,9",,,"02,99,1,99,9,99,9,99999,9,99,9,99,9","10180,1,99999,9",,,,"MET055METAR EGOW 251350Z 33007KT 9999 FEW045 22/10 Q1018 BLU;",
"03018099999","2010-06-25T14:50:00","4","53.581575","-3.055522","11.27","WOODVALE, UK","FM-15","EGOW ","V020","320,1,N,0036,1","22000,1,9,N","011265,1,N,1","+0220,1","+0080,1","99999,9","02,5,+01440,1,99,9",,,"02,99,1,99,9,99,9,99999,9,99,9,99,9","10180,1,99999,9",,,,"MET055METAR EGOW 251450Z 32007KT 9999 FEW048 22/08 Q1018 BLU;",
"03018099999","2010-06-25T15:50:00","4","53.581575","-3.055522","11.27","WOODVALE, UK","FM-15","EGOW ","V020","300,1,N,0046,1","22000,1,9,N","011265,1,N,1","+0220,1","+0080,1","99999,9","02,5,+01350,1,99,9",,,"02,99,1,99,9,99,9,99999,9,99,9,99,9","10169,1,99999,9",,,,"MET055METAR EGOW 251550Z 30009KT 9999 FEW045 22/08 Q1017 BLU;",
"03018099999","2010-06-27T06:50:00","4","53.581575","-3.055522","11.27","WOODVALE, UK","FM-15","EGOW ","V020","140,1,N,0010,1","22000,1,9,N","011265,1,N,1","+0180,1","+0140,1","99999,9","02,5,+01050,1,99,9",,,"02,99,1,99,9,99,9,99999,9,99,9,99,9","10169,1,99999,9",,,,"MET055METAR EGOW 270650Z 14002KT 9999 FEW035 18/14 Q1017 BLU;",
"03018099999","2010-06-27T08:50:00","4","53.581575","-3.055522","11.27","WOODVALE, UK","FM-15","EGOW ","V020","200,1,N,0062,1","22000,1,9,N","011265,1,N,1","+0210,1","+0130,1","99999,9","02,5,+00900,1,99,9",,,"02,99,1,99,9,99,9,99999,9,99,9,99,9","10180,1,99999,9",,,,"MET055METAR EGOW 270850Z 20012KT 9999 FEW030 21/13 Q1018 BLU;",
"03018099999","2010-06-27T09:50:00","4","53.581575","-3.055522","11.27","WOODVALE, UK","FM-15","EGOW ","V020","230,1,N,0051,1","22000,1,9,N","011265,1,N,1","+0220,1","+0140,1","99999,9","02,5,+00900,1,99,9",,,"02,99,1,99,9,99,9,99999,9,99,9,99,9","10180,1,99999,9",,,,"MET055METAR EGOW 270950Z 23010KT 9999 FEW030 22/14 Q1018 BLU;",
"03018099999","2010-06-27T11:50:00","4","53.581575","-3.055522","11.27","WOODVALE, UK","FM-15","EGOW ","V020","270,1,N,0026,1","22000,1,9,N","011265,1,N,1","+0230,1","+0110,1","99999,9","02,5,+01050,1,99,9",,,"02,99,1,99,9,99,9,99999,9,99,9,99,9","10180,1,99999,9",,,,"MET055METAR EGOW 271150Z 27005KT 9999 FEW035 23/11 Q1018 BLU;",
"03018099999","2010-06-27T12:50:00","4","53.581575","-3.055522","11.27","WOODVALE, UK","FM-15","EGOW ","V020","280,1,N,0041,1","22000,1,9,N","011265,1,N,1","+0220,1","+0100,1","99999,9","02,5,+01050,1,99,9",,,"02,99,1,99,9,99,9,99999,9,99,9,99,9","10180,1,99999,9",,,,"MET055METAR EGOW 271250Z 28008KT 9999 FEW035 22/10 Q1018 BLU;",
"03018099999","2010-06-30T06:50:00","4","53.581575","-3.055522","11.27","WOODVALE, UK","FM-15","EGOW ","V020","150,1,N,0015,1","99999,9,9,Y","009900,1,N,1","+0160,1","+0120,1","99999,9",,,,,"10190,1,99999,9",,,,"MET049METAR EGOW 300650Z 15003KT CAVOK 16/12 Q1019 BLU;",
"03018099999","2010-06-30T07:50:00","4","53.581575","-3.055522","11.27","WOODVALE, UK","FM-15","EGOW ","V020","999,9,C,0000,1","99999,9,9,Y","009900,1,N,1","+0180,1","+0120,1","99999,9",,,,,"10190,1,99999,9",,,,"MET049METAR EGOW 300750Z 00000KT CAVOK 18/12 Q1019 BLU;",
"03018099999","2010-06-30T08:50:00","4","53.581575","-3.055522","11.27","WOODVALE, UK","FM-15","EGOW ","V020","999,9,C,0000,1","99999,9,9,Y","009900,1,N,1","+0180,1","+0110,1","99999,9",,,,,"10200,1,99999,9",,,,"MET049METAR EGOW 300850Z 00000KT CAVOK 18/11 Q1020 BLU;",
"03018099999","2010-06-30T09:50:00","4","53.581575","-3.055522","11.27","WOODVALE, UK","FM-15","EGOW ","V020","999,9,C,0000,1","99999,9,9,Y","009900,1,N,1","+0210,1","+0110,1","99999,9",,,,,"10190,1,99999,9",,,,"MET049METAR EGOW 300950Z 00000KT CAVOK 21/11 Q1019 BLU;",
"03018099999","2010-06-30T10:50:00","4","53.581575","-3.055522","11.27","WOODVALE, UK","FM-15","EGOW ","V020","110,1,N,0015,1","99999,9,9,Y","009900,1,N,1","+0220,1","+0110,1","99999,9",,,,,"10190,1,99999,9",,,,"MET049METAR EGOW 301050Z 11003KT CAVOK 22/11 Q1019 BLU;",
"03018099999","2010-06-30T11:50:00","4","53.581575","-3.055522","11.27","WOODVALE, UK","FM-15","EGOW ","V020","290,1,N,0021,1","99999,9,9,Y","009900,1,N,1","+0220,1","+0110,1","99999,9",,,,,"10180,1,99999,9",,,,"MET049METAR EGOW 301150Z 29004KT CAVOK 22/11 Q1018 BLU;",
"03018099999","2010-06-30T12:50:00","4","53.581575","-3.055522","11.27","WOODVALE, UK","FM-15","EGOW ","V020","280,1,N,0026,1","99999,9,9,Y","009900,1,N,1","+0230,1","+0100,1","99999,9",,,,,"10159,1,99999,9",,,,"MET049METAR EGOW 301250Z 28005KT CAVOK 23/10 Q1016 BLU;",
"03018099999","2010-06-30T13:50:00","4","53.581575","-3.055522","11.27","WOODVALE, UK","FM-15","EGOW ","V020","340,1,N,0026,1","99999,9,9,Y","009900,1,N,1","+0230,1","+0100,1","99999,9",,,,,"10169,1,99999,9",,,,"MET049METAR EGOW 301350Z 34005KT CAVOK 23/10 Q1017 BLU;",
"03018099999","2010-06-30T14:50:00","4","53.581575","-3.055522","11.27","WOODVALE, UK","FM-15","EGOW ","V020","130,1,N,0031,1","99999,9,9,Y","009900,1,N,1","+0250,1","+0110,1","99999,9",,,,,"10159,1,99999,9",,,,"MET049METAR EGOW 301450Z 13006KT CAVOK 25/11 Q1016 BLU;",
"03018099999","2010-07-01T06:50:00","4","53.581575","-3.055522","11.27","WOODVALE, UK","FM-15","EGOW ","V020","160,1,N,0057,1","99999,9,C,N","011265,1,N,1","+0170,1","+0130,1","99999,9","04,5,+00300,1,99,9","02,5,+01800,1,99,9",,"04,99,1,99,9,99,9,99999,9,99,9,99,9","10102,1,99999,9","61,1",,,"MET066METAR EGOW 010650Z 16011KT 9999 -RA FEW060 SCT010 17/13 Q1010 BLU;","P01 018003SCOCIG"
"03018099999","2010-07-02T06:50:00","4","53.581575","-3.055522","11.27","WOODVALE, UK","FM-15","EGOW ","V020","180,1,N,0041,1","99999,9,9,Y","009900,1,N,1","+0160,1","+0130,1","99999,9",,,,,"10071,1,99999,9",,,,"MET049METAR EGOW 020650Z 18008KT CAVOK 16/13 Q1007 BLU;",
"03018099999","2010-07-02T07:50:00","4","53.581575","-3.055522","11.27","WOODVALE, UK","FM-15","EGOW ","V020","190,1,N,0062,1","99999,9,C,N","011265,1,N,1","+0170,1","+0130,1","99999,9","02,5,+00750,1,99,9","04,5,+01350,1,99,9",,"04,99,1,99,9,99,9,99999,9,99,9,99,9","10081,1,99999,9",,,,"MET062METAR EGOW 020750Z 19012KT 9999 FEW025 SCT045 17/13 Q1008 BLU;","P01 013503SCOCIG"
"03018099999","2010-07-02T08:50:00","4","53.581575","-3.055522","11.27","WOODVALE, UK","FM-15","EGOW ","V020","210,1,N,0057,1","99999,9,C,N","011265,1,N,1","+0180,1","+0130,1","99999,9","02,5,+00600,1,99,9","04,5,+00900,1,99,9",,"04,99,1,99,9,99,9,99999,9,99,9,99,9","10081,1,99999,9",,,,"MET062METAR EGOW 020850Z 21011KT 9999 FEW020 SCT030 18/13 Q1008 BLU;","P01 009003SCOCIG"
"03018099999","2010-07-02T09:50:00","4","53.581575","-3.055522","11.27","WOODVALE, UK","FM-15","EGOW ","V020","220,1,N,0051,1","99999,9,C,N","011265,1,N,1","+0200,1","+0120,1","99999,9","02,5,+00750,1,99,9","04,5,+01050,1,99,9",,"04,99,1,99,9,99,9,99999,9,99,9,99,9","10091,1,99999,9",,,,"MET062METAR EGOW 020950Z 22010KT 9999 FEW025 SCT035 20/12 Q1009 BLU;","P01 010503SCOCIG"
"03018099999","2010-07-02T10:50:00","4","53.581575","-3.055522","11.27","WOODVALE, UK","FM-15","EGOW ","V020","230,1,N,0072,1","22000,1,9,N","011265,1,N,1","+0200,1","+0130,1","99999,9","02,5,+01050,1,99,9",,,"02,99,1,99,9,99,9,99999,9,99,9,99,9","10091,1,99999,9",,,,"MET055METAR EGOW 021050Z 23014KT 9999 FEW035 20/13 Q1009 BLU;",
"03018099999","2010-07-02T11:50:00","4","53.581575","-3.055522","11.27","WOODVALE, UK","FM-15","EGOW ","V020","240,1,N,0103,1","22000,1,9,N","011265,1,N,1","+0220,1","+0110,1","99999,9","02,5,+01050,1,99,9",,,"02,99,1,99,9,99,9,99999,9,99,9,99,9","10091,1,99999,9",,,,"MET055METAR EGOW 021150Z 24020KT 9999 FEW035 22/11 Q1009 BLU;",
"03018099999","2010-07-02T12:50:00","4","53.581575","-3.055522","11.27","WOODVALE, UK","FM-15","EGOW ","V020","250,1,N,0072,1","22000,1,9,N","011265,1,N,1","+0220,1","+0120,1","99999,9","02,5,+01050,1,99,9",,,"02,99,1,99,9,99,9,99999,9,99,9,99,9","10102,1,99999,9",,,,"MET055METAR EGOW 021250Z 25014KT 9999 FEW035 22/12 Q1010 BLU;",
"03018099999","2010-07-03T06:50:00","4","53.581575","-3.055522","11.27","WOODVALE, UK","FM-15","EGOW ","V020","240,1,N,0062,1","99999,9,C,N","011265,1,N,1","+0180,1","+0110,1","99999,9","02,5,+00300,1,99,9","04,5,+00900,1,99,9",,"04,99,1,99,9,99,9,99999,9,99,9,99,9","10159,1,99999,9",,,,"MET062METAR EGOW 030650Z 24012KT 9999 FEW010 SCT030 18/11 Q1016 BLU;","P01 009003SCOCIG"
"03018099999","2010-07-03T07:50:00","4","53.581575","-3.055522","11.27","WOODVALE, UK","FM-15","EGOW ","V020","250,1,N,0057,1","22000,1,9,N","011265,1,N,1","+0180,1","+0090,1","99999,9","04,5,+01200,1,99,9",,,"04,99,1,99,9,99,9,99999,9,99,9,99,9","10169,1,99999,9",,,,"MET055METAR EGOW 030750Z 25011KT 9999 SCT040 18/09 Q1017 BLU;",
"03018099999","2010-07-03T08:50:00","4","53.581575","-3.055522","11.27","WOODVALE, UK","FM-15","EGOW ","V020","240,1,N,0041,1","22000,1,9,N","011265,1,N,1","+0190,1","+0110,1","99999,9","04,5,+01200,1,99,9",,,"04,99,1,99,9,99,9,99999,9,99,9,99,9","10169,1,99999,9",,,,"MET055METAR EGOW 030850Z 24008KT 9999 SCT040 19/11 Q1017 BLU;",
"03018099999","2010-07-03T09:50:00","4","53.581575","-3.055522","11.27","WOODVALE, UK","FM-15","EGOW ","V020","270,1,N,0072,1","99999,9,C,N","011265,1,N,1","+0200,1","+0110,1","99999,9","02,5,+00750,1,99,9","04,5,+01200,1,99,9",,"04,99,1,99,9,99,9,99999,9,99,9,99,9","10180,1,99999,9",,,,"MET062METAR EGOW 030950Z 27014KT 9999 FEW025 SCT040 20/11 Q1018 BLU;","P01 012003SCOCIG"
"03018099999","2010-07-03T10:50:00","4","53.581575","-3.055522","11.27","WOODVALE, UK","FM-15","EGOW ","V020","280,1,N,0057,1","99999,9,C,N","011265,1,N,1","+0180,1","+0100,1","99999,9","02,5,+00750,1,99,9","04,5,+01350,1,99,9",,"04,99,1,99,9,99,9,99999,9,99,9,99,9","10180,1,99999,9",,,,"MET062METAR EGOW 031050Z 28011KT 9999 FEW025 SCT045 18/10 Q1018 BLU;","P01 013503SCOCIG"
"03018099999","2010-07-03T11:50:00","4","53.581575","-3.055522","11.27","WOODVALE, UK","FM-15","EGOW ","V020","280,1,N,0046,1","01200,1,C,N","011265,1,N,1","+0180,1","+0100,1","99999,9","02,5,+00750,1,99,9","07,5,+01200,1,99,9",,"07,99,1,99,9,99,9,99999,9,99,9,99,9","10190,1,99999,9",,,,"MET062METAR EGOW 031150Z 28009KT 9999 FEW025 BKN040 18/10 Q1019 BLU;",
"03018099999","2010-07-03T12:50:00","4","53.581575","-3.055522","11.27","WOODVALE, UK","FM-15","EGOW ","V020","250,1,N,0051,1","22000,1,9,N","011265,1,N,1","+0190,1","+0100,1","99999,9","04,5,+01200,1,99,9",,,"04,99,1,99,9,99,9,99999,9,99,9,99,9","10190,1,99999,9",,,,"MET055METAR EGOW 031250Z 25010KT 9999 SCT040 19/10 Q1019 BLU;",
"03018099999","2010-07-04T06:50:00","4","53.581575","-3.055522","11.27","WOODVALE, UK","FM-15","EGOW ","V020","150,1,N,0057,1","01800,1,C,N","011265,1,N,1","+0150,1","+0110,1","99999,9","04,5,+01200,1,99,9","07,5,+01800,1,99,9",,"07,99,1,99,9,99,9,99999,9,99,9,99,9","10149,1,99999,9",,,,"MET062METAR EGOW 040650Z 15011KT 9999 SCT040 BKN060 15/11 Q1015 BLU;",
"03018099999","2010-07-04T07:50:00","4","53.581575","-3.055522","11.27","WOODVALE, UK","FM-15","EGOW ","V020","180,1,N,0062,1","00750,1,C,N","011265,1,N,1","+0170,1","+0120,1","99999,9","02,5,+00300,1,99,9","04,5,+00750,1,99,9","07,5,+01080,1,99,9","07,99,1,99,9,99,9,99999,9,99,9,99,9","10139,1,99999,9",,,"0113,1","MET072METAR EGOW 040750Z 18012G22KT 9999 FEW010 SCT025 BKN036 17/12 Q1014 BLU;",
"03018099999","2010-07-04T08:50:00","4","53.581575","-3.055522","11.27","WOODVALE, UK","FM-15","EGOW ","V020","200,1,N,0118,1","00900,1,C,N","011265,1,N,1","+0180,1","+0110,1","99999,9","02,5,+00300,1,99,9","07,5,+00900,1,99,9",,"07,99,1,99,9,99,9,99999,9,99,9,99,9","10129,1,99999,9",,,,"MET062METAR EGOW 040850Z 20023KT 9999 FEW010 BKN030 18/11 Q1013 BLU;",
"03018099999","2010-07-04T09:50:00","4","53.581575","-3.055522","11.27","WOODVALE, UK","FM-15","EGOW ","V020","210,1,N,0093,1","00450,1,C,N","011265,1,N,1","+0210,1","+0070,1","99999,9","02,5,+00300,1,99,9","07,5,+00450,1,99,9",,"07,99,1,99,9,99,9,99999,9,99,9,99,9","10129,1,99999,9",,,"0144,1","MET065METAR EGOW 040950Z 21018G28KT 9999 FEW010 BKN015 21/07 Q1013 WHT;",
"03018099999","2010-07-04T10:50:00","4","53.581575","-3.055522","11.27","WOODVALE, UK","FM-15","EGOW ","V020","210,1,N,0134,1","99999,9,C,N","011265,1,N,1","+0190,1","+0130,1","99999,9","02,5,+00300,1,99,9","04,5,+00600,1,99,9",,"04,99,1,99,9,99,9,99999,9,99,9,99,9","10129,1,99999,9",,,"0185,1","MET065METAR EGOW 041050Z 21026G36KT 9999 FEW010 SCT020 19/13 Q1013 WHT;","P01 006003SCOCIG"
"03018099999","2010-07-07T06:50:00","4","53.581575","-3.055522","11.27","WOODVALE, UK","FM-15","EGOW ","V020","220,1,N,0051,1","00750,1,C,N","011265,1,N,1","+0170,1","+0160,1","99999,9","04,5,+00180,1,99,9","07,5,+00750,1,99,9",,"07,99,1,99,9,99,9,99999,9,99,9,99,9","10149,1,99999,9","61,1",,,"MET067METAR EGOW 070650Z 22010KT 9999 -RA SCT006 BKN025 17/16 Q1015 YLO1;",
"03018099999","2010-07-07T07:50:00","4","53.581575","-3.055522","11.27","WOODVALE, UK","FM-15","EGOW ","V020","250,1,N,0051,1","00750,1,C,N","003000,1,N,1","+0170,1","+0160,1","99999,9","04,5,+00150,1,99,9","07,5,+00750,1,99,9",,"07,99,1,99,9,99,9,99999,9,99,9,99,9","10149,1,99999,9","51,1",,,"MET067METAR EGOW 070750Z 25010KT 3000 -DZ SCT005 BKN025 17/16 Q1015 YLO1;",
"03018099999","2010-07-07T08:50:00","4","53.581575","-3.055522","11.27","WOODVALE, UK","FM-15","EGOW ","V020","250,1,N,0051,1","00450,1,C,N","011265,1,N,1","+0180,1","+0160,1","99999,9","04,5,+00300,1,99,9","07,5,+00450,1,99,9",,"07,99,1,99,9,99,9,99999,9,99,9,99,9","10149,1,99999,9",,,,"MET062METAR EGOW 070850Z 25010KT 9999 SCT010 BKN015 18/16 Q1015 GRN;",
"03018099999","2010-07-07T09:50:00","4","53.581575","-3.055522","11.27","WOODVALE, UK","FM-15","EGOW ","V020","250,1,N,0072,1","00150,1,C,N","011265,1,N,1","+0180,1","+0160,1","99999,9","02,5,+00090,1,99,9","04,5,+00150,1,99,9","07,5,+00600,1,99,9","07,99,1,99,9,99,9,99999,9,99,9,99,9","10149,1,99999,9",,,,"MET070METAR EGOW 070950Z 25014KT 9999 FEW003 SCT005 BKN020 18/16 Q1015 YLO1;",
"03018099999","2010-07-07T10:50:00","4","53.581575","-3.055522","11.27","WOODVALE, UK","FM-15","EGOW ","V020","260,1,N,0051,1","00750,1,C,N","011265,1,N,1","+0180,1","+0160,1","99999,9","02,5,+00180,1,99,9","07,5,+00750,1,99,9",,"07,99,1,99,9,99,9,99999,9,99,9,99,9","10149,1,99999,9",,,,"MET062METAR EGOW 071050Z 26010KT 9999 FEW006 BKN025 18/16 Q1015 BLU;",
"03018099999","2010-07-07T11:50:00","4","53.581575","-3.055522","11.27","WOODVALE, UK","FM-15","EGOW ","V020","250,1,N,0062,1","00750,1,C,N","006000,1,N,1","+0190,1","+0140,1","99999,9","02,5,+00270,1,99,9","07,5,+00750,1,99,9",,"07,99,1,99,9,99,9,99999,9,99,9,99,9","10149,1,99999,9","80,1",,,"MET068METAR EGOW 071150Z 25012KT 6000 -SHRA FEW009 BKN025 19/14 Q1015 WHT;",
"03018099999","2010-07-07T12:50:00","4","53.581575","-3.055522","11.27","WOODVALE, UK","FM-15","EGOW ","V020","260,1,N,0051,1","00540,1,C,N","011265,1,N,1","+0180,1","+0150,1","99999,9","02,5,+00270,1,99,9","04,5,+00540,1,99,9","08,5,+06600,1,99,9","08,99,1,99,9,99,9,99999,9,99,9,99,9","10149,1,99999,9",,,,"MET069METAR EGOW 071250Z 26010KT 9999 FEW009 SCT018 OVC220 18/15 Q1015 WHT;",
"03018099999","2010-07-07T13:50:00","4","53.581575","-3.055522","11.27","WOODVALE, UK","FM-15","EGOW ","V020","240,1,N,0051,1","99999,9,C,N","011265,1,N,1","+0190,1","+0150,1","99999,9","02,5,+00210,1,99,9","04,5,+00540,1,99,9",,"04,99,1,99,9,99,9,99999,9,99,9,99,9","10139,1,99999,9",,,,"MET062METAR EGOW 071350Z 24010KT 9999 FEW007 SCT018 19/15 Q1014 WHT;","P01 005403SCOCIG"
"03018099999","2010-07-07T15:50:00","4","53.581575","-3.055522","11.27","WOODVALE, UK","FM-15","EGOW ","V020","270,1,N,0062,1","99999,9,C,N","011265,1,N,1","+0200,1","+0130,1","99999,9","02,5,+00210,1,99,9","04,5,+00540,1,99,9",,"04,99,1,99,9,99,9,99999,9,99,9,99,9","10139,1,99999,9",,,,"MET062METAR EGOW 071550Z 27012KT 9999 FEW007 SCT018 20/13 Q1014 WHT;","P01 005403SCOCIG"
"03018099999","2010-07-08T06:50:00","4","53.581575","-3.055522","11.27","WOODVALE, UK","FM-15","EGOW ","V020","240,1,N,0041,1","00750,1,C,N","011265,1,N,1","+0160,1","+0110,1","99999,9","02,5,+00480,1,99,9","07,5,+00750,1,99,9",,"07,99,1,99,9,99,9,99999,9,99,9,99,9","10159,1,99999,9",,,,"MET062METAR EGOW 080650Z 24008KT 9999 FEW016 BKN025 16/11 Q1016 BLU;",
"03018099999","2010-07-08T07:50:00","4","53.581575","-3.055522","11.27","WOODVALE, UK","FM-15","EGOW ","V020","220,1,N,0041,1","04500,1,C,N","011265,1,N,1","+0170,1","+0100,1","99999,9","02,5,+00750,1,99,9","07,5,+04500,1,99,9",,"07,99,1,99,9,99,9,99999,9,99,9,99,9","10159,1,99999,9",,,,"MET062METAR EGOW 080750Z 22008KT 9999 FEW025 BKN150 17/10 Q1016 BLU;",
"03018099999","2010-07-08T08:50:00","4","53.581575","-3.055522","11.27","WOODVALE, UK","FM-15","EGOW ","V020","220,1,N,0067,1","05400,1,C,N","011265,1,N,1","+0170,1","+0110,1","99999,9","02,5,+00750,1,99,9","07,5,+05400,1,99,9",,"07,99,1,99,9,99,9,99999,9,99,9,99,9","10169,1,99999,9",,,,"MET062METAR EGOW 080850Z 22013KT 9999 FEW025 BKN180 17/11 Q1017 BLU;",
"03018099999","2010-07-08T09:50:00","4","53.581575","-3.055522","11.27","WOODVALE, UK","FM-15","EGOW ","V020","240,1,N,0046,1","05400,1,C,N","011265,1,N,1","+0170,1","+0100,1","99999,9","02,5,+00750,1,99,9","04,5,+05400,1,99,9","07,5,+07500,1,99,9","07,99,1,99,9,99,9,99999,9,99,9,99,9","10169,1,99999,9",,,,"MET069METAR EGOW 080950Z 24009KT 9999 FEW025 SCT180 BKN250 17/10 Q1017 BLU;",
"03018099999","2010-07-08T10:50:00","4","53.581575","-3.055522","11.27","WOODVALE, UK","FM-15","EGOW ","V020","260,1,N,0046,1","99999,9,C,N","011265,1,N,1","+0200,1","+0100,1","99999,9","02,5,+01200,1,99,9","04,5,+07500,1,99,9",,"04,99,1,99,9,99,9,99999,9,99,9,99,9","10169,1,99999,9",,,,"MET062METAR EGOW 081050Z 26009KT 9999 FEW040 SCT250 20/10 Q1017 BLU;","P01 075003SCOCIG"
"03018099999","2010-07-08T11:50:00","4","53.581575","-3.055522","11.27","WOODVALE, UK","FM-15","EGOW ","V020","270,1,N,0041,1","07500,1,C,N","011265,1,N,1","+0200,1","+0110,1","99999,9","02,5,+01080,1,99,9","07,5,+07500,1,99,9",,"07,99,1,99,9,99,9,99999,9,99,9,99,9","10169,1,99999,9",,,,"MET062METAR EGOW 081150Z 27008KT 9999 FEW036 BKN250 20/11 Q1017 BLU;",
"03018099999","2010-07-08T12:50:00","4","53.581575","-3.055522","11.27","WOODVALE, UK","FM-15","EGOW ","V020","260,1,N,0067,1","07500,1,C,N","011265,1,N,1","+0200,1","+0110,1","99999,9","02,5,+01080,1,99,9","07,5,+07500,1,99,9",,"07,99,1,99,9,99,9,99999,9,99,9,99,9","10169,1,99999,9",,,,"MET062METAR EGOW 081250Z 26013KT 9999 FEW036 BKN250 20/11 Q1017 BLU;",
"03018099999","2010-07-08T13:50:00","4","53.581575","-3.055522","11.27","WOODVALE, UK","FM-15","EGOW ","V020","290,1,N,0051,1","07500,1,C,N","011265,1,N,1","+0200,1","+0100,1","99999,9","02,5,+01080,1,99,9","07,5,+07500,1,99,9",,"07,99,1,99,9,99,9,99999,9,99,9,99,9","10169,1,99999,9",,,,"MET062METAR EGOW 081350Z 29010KT 9999 FEW036 BKN250 20/10 Q1017 BLU;",
"03018099999","2010-07-08T14:50:00","4","53.581575","-3.055522","11.27","WOODVALE, UK","FM-15","EGOW ","V020","260,1,N,0046,1","07500,1,C,N","011265,1,N,1","+0190,1","+0110,1","99999,9","02,5,+01080,1,99,9","07,5,+07500,1,99,9",,"07,99,1,99,9,99,9,99999,9,99,9,99,9","10180,1,99999,9",,,,"MET062METAR EGOW 081450Z 26009KT 9999 FEW036 BKN250 19/11 Q1018 BLU;",
"03018099999","2010-07-09T06:50:00","4","53.581575","-3.055522","11.27","WOODVALE, UK","FM-15","EGOW ","V020","150,1,N,0051,1","01350,1,C,N","011265,1,N,1","+0160,1","+0140,1","99999,9","04,5,+00750,1,99,9","07,5,+01350,1,99,9",,"07,99,1,99,9,99,9,99999,9,99,9,99,9","10129,1,99999,9",,,,"MET062METAR EGOW 090650Z 15010KT 9999 SCT025 BKN045 16/14 Q1013 BLU;",
"03018099999","2010-07-09T07:50:00","4","53.581575","-3.055522","11.27","WOODVALE, UK","FM-15","EGOW ","V020","150,1,N,0051,1","02400,1,C,N","011265,1,N,1","+0180,1","+0140,1","99999,9","04,5,+00840,1,99,9","07,5,+02400,1,99,9",,"07,99,1,99,9,99,9,99999,9,99,9,99,9","99999,9,99999,9",,,,"MET062METAR EGOW 090750Z 15010KT 9999 SCT028 BKN080 18/14 Q1004 BLU;","Q01+100413APOA  Q02 100403APOA  "
"03018099999","2010-07-09T09:50:00","4","53.581575","-3.055522","11.27","WOODVALE, UK","FM-15","EGOW ","V020","170,1,N,0077,1","00900,1,C,N","011265,1,N,1","+0190,1","+0150,1","99999,9","02,5,+00540,1,99,9","04,5,+00900,1,99,9","07,5,+01500,1,99,9","07,99,1,99,9,99,9,99999,9,99,9,99,9","10139,1,99999,9",,,,"MET069METAR EGOW 090950Z 17015KT 9999 FEW018 SCT030 BKN050 19/15 Q1014 BLU;",
"03018099999","2010-07-09T10:50:00","4","53.581575","-3.055522","11.27","WOODVALE, UK","FM-15","EGOW ","V020","190,1,N,0062,1","01500,1,C,N","011265,1,N,1","+0200,1","+0150,1","99999,9","04,5,+00600,1,99,9","07,5,+01500,1,99,9",,"07,99,1,99,9,99,9,99999,9,99,9,99,9","10139,1,99999,9",,,,"MET062METAR EGOW 091050Z 19012KT 9999 SCT020 BKN050 20/15 Q1014 WHT;",
"03018099999","2010-07-09T11:50:00","4","53.581575","-3.055522","11.27","WOODVALE, UK","FM-15","EGOW ","V020","220,1,N,0051,1","00600,1,C,N","011265,1,N,1","+0210,1","+0160,1","99999,9","07,5,+00600,1,99,9",,,"07,99,1,99,9,99,9,99999,9,99,9,99,9","10139,1,99999,9",,,,"MET055METAR EGOW 091150Z 22010KT 9999 BKN020 21/16 Q1014 WHT;",
"03018099999","2010-07-09T12:50:00","4","53.581575","-3.055522","11.27","WOODVALE, UK","FM-15","EGOW ","V020","230,1,N,0082,1","00600,1,C,N","011265,1,N,1","+0210,1","+0160,1","99999,9","07,5,+00600,1,99,9",,,"07,99,1,99,9,99,9,99999,9,99,9,99,9","10139,1,99999,9","16,1",,,"MET060METAR EGOW 091250Z 23016KT 9999 VCSH BKN020 21/16 Q1014 WHT;",
"03018099999","2010-07-09T13:50:00","4","53.581575","-3.055522","11.27","WOODVALE, UK","FM-15","EGOW ","V020","270,1,N,0067,1","00600,1,C,N","011265,1,N,1","+0200,1","+0160,1","99999,9","07,5,+00600,1,99,9",,,"07,99,1,99,9,99,9,99999,9,99,9,99,9","10149,1,99999,9",,,,"MET055METAR EGOW 091350Z 27013KT 9999 BKN020 20/16 Q1015 WHT;",
"03018099999","2010-07-10T06:50:00","4","53.581575","-3.055522","11.27","WOODVALE, UK","FM-15","EGOW ","V020","170,1,N,0046,1","00600,1,C,N","011265,1,N,1","+0190,1","+0110,1","99999,9","02,5,+00240,1,99,9","04,5,+00600,1,99,9","07,5,+01200,1,99,9","07,99,1,99,9,99,9,99999,9,99,9,99,9","10149,1,99999,9","16,1",,,"MET074METAR EGOW 100650Z 17009KT 9999 VCSH FEW008 SCT020 BKN040 19/11 Q1015 WHT;",
"03018099999","2010-07-10T07:50:00","4","53.581575","-3.055522","11.27","WOODVALE, UK","FM-15","EGOW ","V020","210,1,N,0062,1","99999,9,C,N","011265,1,N,1","+0200,1","+9999,9","99999,9","02,5,+00240,1,99,9","04,5,+00600,1,09,5",,"04,99,1,99,9,99,9,99999,9,99,9,99,9","10149,1,99999,9",,,,"MET064METAR EGOW 100750Z 21012KT 9999 FEW008 SCT020CB 20/// Q1015 WHT;","P01 006003SCOCIG"
"03018099999","2010-07-10T08:50:00","4","53.581575","-3.055522","11.27","WOODVALE, UK","FM-15","EGOW ","V020","210,1,N,0072,1","99999,9,C,N","011265,1,N,1","+0210,1","+0160,1","99999,9","02,5,+00300,1,99,9","04,5,+00630,1,99,9",,"04,99,1,99,9,99,9,99999,9,99,9,99,9","10149,1,99999,9",,,,"MET062METAR EGOW 100850Z 21014KT 9999 FEW010 SCT021 21/16 Q1015 WHT;","P01 006303SCOCIG"
"03018099999","2010-07-10T09:50:00","4","53.581575","-3.055522","11.27","WOODVALE, UK","FM-15","EGOW ","V020","190,1,N,0051,1","00660,1,C,N","011265,1,N,1","+0210,1","+0160,1","99999,9","02,5,+00540,1,99,9","07,5,+00660,1,99,9",,"07,99,1,99,9,99,9,99999,9,99,9,99,9","10149,1,99999,9",,,,"MET062METAR EGOW 100950Z 19010KT 9999 FEW018 BKN022 21/16 Q1015 WHT;",
"03018099999","2010-07-10T10:50:00","4","53.581575","-3.055522","11.27","WOODVALE, UK","FM-15","EGOW ","V020","190,1,N,0067,1","00600,1,C,N","011265,1,N,1","+0210,1","+0180,1","99999,9","07,5,+00600,1,99,9",,,"07,99,1,99,9,99,9,99999,9,99,9,99,9","10149,1,99999,9",,,,"MET055METAR EGOW 101050Z 19013KT 9999 BKN020 21/18 Q1015 WHT;",
"03018099999","2010-07-10T11:50:00","4","53.581575","-3.055522","11.27","WOODVALE, UK","FM-15","EGOW ","V020","200,1,N,0051,1","00660,1,C,N","011265,1,N,1","+0210,1","+0170,1","99999,9","07,5,+00660,1,99,9",,,"07,99,1,99,9,99,9,99999,9,99,9,99,9","10149,1,99999,9",,,,"MET055METAR EGOW 101150Z 20010KT 9999 BKN022 21/17 Q1015 WHT;",
"03018099999","2010-07-10T12:50:00","4","53.581575","-3.055522","11.27","WOODVALE, UK","FM-15","EGOW ","V020","210,1,N,0062,1","00660,1,C,N","011265,1,N,1","+0220,1","+0150,1","99999,9","07,5,+00660,1,99,9",,,"07,99,1,99,9,99,9,99999,9,99,9,99,9","10149,1,99999,9","61,1",,,"MET059METAR EGOW 101250Z 21012KT 9999 -RA BKN022 22/15 Q1015 WHT;",
"03018099999","2010-07-11T06:50:00","4","53.581575","-3.055522","11.27","WOODVALE, UK","FM-15","EGOW ","V020","250,1,N,0093,1","00690,1,C,N","011265,1,N,1","+0140,1","+0100,1","99999,9","02,5,+00630,1,99,9","07,5,+00690,1,99,9",,"07,99,1,99,9,99,9,99999,9,99,9,99,9","10108,1,99999,9",,,"0154,1","MET065METAR EGOW 110650Z 25018G30KT 9999 FEW021 BKN023 14/10 Q1011 WHT;",
"03018099999","2010-07-11T07:50:00","4","53.581575","-3.055522","11.27","WOODVALE, UK","FM-15","EGOW ","V020","250,1,N,0093,1","00690,1,C,N","011265,1,N,1","+0140,1","+0100,1","99999,9","02,5,+00630,1,99,9","07,5,+00690,1,99,9",,"07,99,1,99,9,99,9,99999,9,99,9,99,9","10119,1,99999,9",,,,"MET062METAR EGOW 110750Z 25018KT 9999 FEW021 BKN023 14/10 Q1012 WHT;",
"03018099999","2010-07-11T08:50:00","4","53.581575","-3.055522","11.27","WOODVALE, UK","FM-15","EGOW ","V020","260,1,N,0134,1","00900,1,C,N","011265,1,N,1","+0150,1","+0090,1","99999,9","02,5,+00630,1,99,9","07,5,+00900,1,99,9",,"07,99,1,99,9,99,9,99999,9,99,9,99,9","10119,1,99999,9",,,,"MET062METAR EGOW 110850Z 26026KT 9999 FEW021 BKN030 15/09 Q1012 BLU;",
"03018099999","2010-07-11T09:50:00","4","53.581575","-3.055522","11.27","WOODVALE, UK","FM-15","EGOW ","V020","260,1,N,0129,1","99999,9,C,N","011265,1,N,1","+0160,1","+0090,1","99999,9","02,5,+00630,1,99,9","04,5,+00900,1,99,9",,"04,99,1,99,9,99,9,99999,9,99,9,99,9","10129,1,99999,9",,,,"MET062METAR EGOW 110950Z 26025KT 9999 FEW021 SCT030 16/09 Q1013 BLU;","P01 009003SCOCIG"
"03018099999","2010-07-11T10:50:00","4","53.581575","-3.055522","11.27","WOODVALE, UK","FM-15","EGOW ","V020","280,1,N,0087,1","99999,9,C,N","011265,1,N,1","+0170,1","+0090,1","99999,9","02,5,+00600,1,99,9","04,5,+07500,1,99,9",,"04,99,1,99,9,99,9,99999,9,99,9,99,9","10139,1,99999,9",,,"0144,1","MET065METAR EGOW 111050Z 28017G28KT 9999 FEW020 SCT250 17/09 Q1014 BLU;","P01 075003SCOCIG"
"03018099999","2010-07-11T11:50:00","4","53.581575","-3.055522","11.27","WOODVALE, UK","FM-15","EGOW ","V020","280,1,N,0098,1","99999,9,C,N","011265,1,N,1","+0170,1","+0090,1","99999,9","02,5,+00960,1,99,9","04,5,+07500,1,99,9",,"04,99,1,99,9,99,9,99999,9,99,9,99,9","10139,1,99999,9",,,,"MET062METAR EGOW 111150Z 28019KT 9999 FEW032 SCT250 17/09 Q1014 BLU;","P01 075003SCOCIG"
"03018099999","2010-07-11T12:50:00","4","53.581575","-3.055522","11.27","WOODVALE, UK","FM-15","EGOW ","V020","280,1,N,0093,1","99999,9,C,N","011265,1,N,1","+0180,1","+0080,1","99999,9","02,5,+01140,1,99,9","04,5,+07500,1,99,9",,"04,99,1,99,9,99,9,99999,9,99,9,99,9","10149,1,99999,9",,,,"MET062METAR EGOW 111250Z 28018KT 9999 FEW038 SCT250 18/08 Q1015 BLU;","P01 075003SCOCIG"
"03018099999","2010-07-11T13:50:00","4","53.581575","-3.055522","11.27","WOODVALE, UK","FM-15","EGOW ","V020","270,1,N,0072,1","99999,9,C,N","011265,1,N,1","+0180,1","+0060,1","99999,9","02,5,+01050,1,99,9","04,5,+07500,1,99,9",,"04,99,1,99,9,99,9,99999,9,99,9,99,9","10159,1,99999,9",,,,"MET062METAR EGOW 111350Z 27014KT 9999 FEW035 SCT250 18/06 Q1016 BLU;","P01 075003SCOCIG"
"03018099999","2010-07-11T14:50:00","4","53.581575","-3.055522","11.27","WOODVALE, UK","FM-15","EGOW ","V020","270,1,N,0067,1","07500,1,C,N","011265,1,N,1","+0180,1","+0100,1","99999,9","02,5,+00900,1,99,9","07,5,+07500,1,99,9",,"07,99,1,99,9,99,9,99999,9,99,9,99,9","10159,1,99999,9",,,,"MET062METAR EGOW 111450Z 27013KT 9999 FEW030 BKN250 18/10 Q1016 BLU;",
"03018099999","2010-07-11T15:50:00","4","53.581575","-3.055522","11.27","WOODVALE, UK","FM-15","EGOW ","V020","290,1,N,0046,1","05400,1,C,N","011265,1,N,1","+0180,1","+0080,1","99999,9","02,5,+00900,1,99,9","04,5,+05400,1,99,9","07,5,+07500,1,99,9","07,99,1,99,9,99,9,99999,9,99,9,99,9","10159,1,99999,9",,,,"MET069METAR EGOW 111550Z 29009KT 9999 FEW030 SCT180 BKN250 18/08 Q1016 BLU;",
"03018099999","2010-07-14T06:50:00","4","53.581575","-3.055522","11.27","WOODVALE, UK","FM-15","EGOW ","V020","130,1,N,0057,1","22000,1,9,N","011265,1,N,1","+0160,1","+0140,1","99999,9","02,5,+00240,1,99,9",,,"02,99,1,99,9,99,9,99999,9,99,9,99,9","10010,1,99999,9",,,,"MET055METAR EGOW 140650Z 13011KT 9999 FEW008 16/14 Q1001 BLU;",
"03018099999","2010-07-14T07:50:00","4","53.581575","-3.055522","11.27","WOODVALE, UK","FM-15","EGOW ","V020","140,1,N,0062,1","00420,1,C,N","011265,1,N,1","+0150,1","+0150,1","99999,9","02,5,+00240,1,99,9","07,5,+00420,1,99,9",,"07,99,1,99,9,99,9,99999,9,99,9,99,9","10010,1,99999,9",,,,"MET062METAR EGOW 140750Z 14012KT 9999 FEW008 BKN014 15/15 Q1001 GRN;",
"03018099999","2010-07-14T08:50:00","4","53.581575","-3.055522","11.27","WOODVALE, UK","FM-15","EGOW ","V020","140,1,N,0057,1","00420,1,C,N","011265,1,N,1","+0170,1","+0140,1","99999,9","02,5,+00240,1,99,9","04,5,+00420,1,99,9","07,5,+00750,1,99,9","07,99,1,99,9,99,9,99999,9,99,9,99,9","10000,1,99999,9",,,,"MET069METAR EGOW 140850Z 14011KT 9999 FEW008 SCT014 BKN025 17/14 Q1000 GRN;",
"03018099999","2010-07-14T09:50:00","4","53.581575","-3.055522","11.27","WOODVALE, UK","FM-15","EGOW ","V020","150,1,N,0093,1","00450,1,C,N","011265,1,N,1","+0180,1","+0140,1","99999,9","02,5,+00240,1,99,9","04,5,+00450,1,99,9","07,5,+00750,1,99,9","07,99,1,99,9,99,9,99999,9,99,9,99,9","10000,1,99999,9","61,1",,,"MET073METAR EGOW 140950Z 15018KT 9999 -RA FEW008 SCT015 BKN025 18/14 Q1000 WHT;",
"03018099999","2010-07-14T10:50:00","4","53.581575","-3.055522","11.27","WOODVALE, UK","FM-15","EGOW ","V020","150,1,N,0093,1","00750,1,C,N","011265,1,N,1","+0190,1","+0140,1","99999,9","02,5,+00540,1,99,9","04,5,+00750,1,99,9","07,5,+01500,1,99,9","07,99,1,99,9,99,9,99999,9,99,9,99,9","09990,1,99999,9",,,,"MET069METAR EGOW 141050Z 15018KT 9999 FEW018 SCT025 BKN050 19/14 Q0999 BLU;",
"03018099999","2010-07-14T11:50:00","4","53.581575","-3.055522","11.27","WOODVALE, UK","FM-15","EGOW ","V020","150,1,N,0072,1","03600,1,C,N","011265,1,N,1","+0210,1","+0150,1","99999,9","02,5,+00750,1,99,9","04,5,+03600,1,99,9","07,5,+07500,1,99,9","07,99,1,99,9,99,9,99999,9,99,9,99,9","09990,1,99999,9",,,,"MET069METAR EGOW 141150Z 15014KT 9999 FEW025 SCT120 BKN250 21/15 Q0999 BLU;",
"03018099999","2010-07-14T12:50:00","4","53.581575","-3.055522","11.27","WOODVALE, UK","FM-15","EGOW ","V020","140,1,N,0077,1","99999,9,C,N","011265,1,N,1","+0200,1","+0150,1","99999,9","02,5,+00540,1,99,9","04,5,+00750,1,99,9",,"04,99,1,99,9,99,9,99999,9,99,9,99,9","09980,1,99999,9",,,"0134,1","MET065METAR EGOW 141250Z 14015G26KT 9999 FEW018 SCT025 20/15 Q0998 BLU;","P01 007503SCOCIG"
"03018099999","2010-07-14T13:50:00","4","53.581575","-3.055522","11.27","WOODVALE, UK","FM-15","EGOW ","V020","120,1,N,0057,1","00600,1,C,N","011265,1,N,1","+0190,1","+0160,1","99999,9","02,5,+00360,1,99,9","04,5,+00600,1,99,9","07,5,+07500,1,99,9","07,99,1,99,9,99,9,99999,9,99,9,99,9","09980,1,99999,9","51,1",,,"MET073METAR EGOW 141350Z 12011KT 9999 -DZ FEW012 SCT020 BKN250 19/16 Q0998 WHT;",
"03018099999","2010-07-14T14:50:00","4","53.581575","-3.055522","11.27","WOODVALE, UK","FM-15","EGOW ","V020","130,1,N,0062,1","99999,9,C,N","011265,1,N,1","+0210,1","+0150,1","99999,9","02,5,+00360,1,09,1","04,5,+00600,1,99,9",,"04,99,1,99,9,99,9,99999,9,99,9,99,9","09970,1,99999,9",,,,"MET064METAR EGOW 141450Z 13012KT 9999 FEW012CB SCT020 21/15 Q0997 WHT;","P01 006003SCOCIG"
"03018099999","2010-07-14T15:50:00","4","53.581575","-3.055522","11.27","WOODVALE, UK","FM-15","EGOW ","V020","120,1,N,0041,1","99999,9,C,N","011265,1,N,1","+0200,1","+0170,1","99999,9","02,5,+00360,1,09,1","04,5,+00600,1,99,9",,"04,99,1,99,9,99,9,99999,9,99,9,99,9","09959,1,99999,9","16,1",,,"MET069METAR EGOW 141550Z 12008KT 9999 VCSH FEW012CB SCT020 20/17 Q0996 WHT;","P01 006003SCOCIG"
"03018099999","2010-07-15T06:50:00","4","53.581575","-3.055522","11.27","WOODVALE, UK","FM-15","EGOW ","V020","230,1,N,0062,1","00900,1,C,N","011265,1,N,1","+0150,1","+0130,1","99999,9","02,5,+00240,1,99,9","04,5,+00900,1,99,9","07,5,+02400,1,99,9","07,99,1,99,9,99,9,99999,9,99,9,99,9","09939,1,99999,9",,,,"MET069METAR EGOW 150650Z 23012KT 9999 FEW008 SCT030 BKN080 15/13 Q0994 BLU;",
"03018099999","2010-07-15T07:50:00","4","53.581575","-3.055522","11.27","WOODVALE, UK","FM-15","EGOW ","V020","210,1,N,0046,1","00900,1,C,N","011265,1,N,1","+0160,1","+0140,1","99999,9","04,5,+00450,1,99,9","07,5,+00900,1,99,9",,"07,99,1,99,9,99,9,99999,9,99,9,99,9","09949,1,99999,9",,,,"MET062METAR EGOW 150750Z 21009KT 9999 SCT015 BKN030 16/14 Q0995 WHT;",
"03018099999","2010-07-15T08:50:00","4","53.581575","-3.055522","11.27","WOODVALE, UK","FM-15","EGOW ","V020","260,1,N,0046,1","99999,9,C,N","011265,1,N,1","+0170,1","+0140,1","99999,9","02,5,+00390,1,99,9","04,5,+00540,1,99,9",,"04,99,1,99,9,99,9,99999,9,99,9,99,9","09959,1,99999,9",,,,"MET062METAR EGOW 150850Z 26009KT 9999 FEW013 SCT018 17/14 Q0996 WHT;","P01 005403SCOCIG"
"03018099999","2010-07-15T09:50:00","4","53.581575","-3.055522","11.27","WOODVALE, UK","FM-15","EGOW ","V020","260,1,N,0093,1","99999,9,C,N","011265,1,N,1","+0170,1","+0140,1","99999,9","02,5,+00390,1,99,9","04,5,+00540,1,99,9",,"04,99,1,99,9,99,9,99999,9,99,9,99,9","09959,1,99999,9",,,,"MET062METAR EGOW 150950Z 26018KT 9999 FEW013 SCT018 17/14 Q0996 WHT;","P01 005403SCOCIG"
"03018099999","2010-07-15T10:50:00","4","53.581575","-3.055522","11.27","WOODVALE, UK","FM-15","EGOW ","V020","260,1,N,0103,1","00600,1,C,N","011265,1,N,1","+0170,1","+0140,1","99999,9","02,5,+00330,1,99,9","04,5,+00600,1,99,9","07,5,+01050,1,99,9","07,99,1,99,9,99,9,99999,9,99,9,99,9","09970,1,99999,9",,,,"MET069METAR EGOW 151050Z 26020KT 9999 FEW011 SCT020 BKN035 17/14 Q0997 WHT;",
"03018099999","2010-07-15T11:50:00","4","53.581575","-3.055522","11.27","WOODVALE, UK","FM-15","EGOW ","V020","230,1,N,0077,1","22000,1,9,N","011265,1,N,1","+0190,1","+0140,1","99999,9","04,5,+00900,1,99,9",,,"04,99,1,99,9,99,9,99999,9,99,9,99,9","09980,1,99999,9",,,,"MET055METAR EGOW 151150Z 23015KT 9999 SCT030 19/14 Q0998 BLU;",
"03018099999","2010-07-15T12:50:00","4","53.581575","-3.055522","11.27","WOODVALE, UK","FM-15","EGOW ","V020","220,1,N,0103,1","22000,1,9,N","011265,1,N,1","+0200,1","+0130,1","99999,9","04,5,+00900,1,99,9",,,"04,99,1,99,9,99,9,99999,9,99,9,99,9","09980,1,99999,9",,,"0165,1","MET058METAR EGOW 151250Z 22020G32KT 9999 SCT030 20/13 Q0998 BLU;",
"03018099999","2010-07-15T13:50:00","4","53.581575","-3.055522","11.27","WOODVALE, UK","FM-15","EGOW ","V020","220,1,N,0149,1","22000,1,9,N","011265,1,N,1","+0190,1","+0130,1","99999,9","04,5,+00900,1,99,9",,,"04,99,1,99,9,99,9,99999,9,99,9,99,9","09990,1,99999,9",,,"0211,1","MET058METAR EGOW 151350Z 22029G41KT 9999 SCT030 19/13 Q0999 BLU;",
"03018099999","2010-07-16T06:50:00","4","53.581575","-3.055522","11.27","WOODVALE, UK","FM-15","EGOW ","V020","210,1,N,0108,1","00750,1,C,N","011265,1,N,1","+0140,1","+0110,1","99999,9","02,5,+00240,1,99,9","04,5,+00750,1,99,9","07,5,+02400,1,99,9","07,99,1,99,9,99,9,99999,9,99,9,99,9","09970,1,99999,9","63,1",,,"MET072METAR EGOW 160650Z 21021KT 9999 RA FEW008 SCT025 BKN080 14/11 Q0997 BLU;",
"03018099999","2010-07-16T07:50:00","4","53.581575","-3.055522","11.27","WOODVALE, UK","FM-15","EGOW ","V020","230,1,N,0082,1","00240,1,C,N","003000,1,N,1","+0140,1","+0110,1","99999,9","07,5,+00240,1,99,9",,,"07,99,1,99,9,99,9,99999,9,99,9,99,9","09980,1,99999,9","63,1",,"0134,1","MET061METAR EGOW 160750Z 23016G26KT 3000 RA BKN008 14/11 Q0998 GRN;",
"03018099999","2010-07-16T08:50:00","4","53.581575","-3.055522","11.27","WOODVALE, UK","FM-15","EGOW ","V020","250,1,N,0103,1","00540,1,C,N","004000,1,N,1","+0140,1","+0130,1","99999,9","04,5,+00210,1,99,9","07,5,+00540,1,99,9",,"07,99,1,99,9,99,9,99999,9,99,9,99,9","10000,1,99999,9","63,1",,"0170,1","MET068METAR EGOW 160850Z 25020G33KT 4000 RA SCT007 BKN018 14/13 Q1000 GRN;",
"03018099999","2010-07-16T09:50:00","4","53.581575","-3.055522","11.27","WOODVALE, UK","FM-15","EGOW ","V020","260,1,N,0103,1","00360,1,C,N","011265,1,N,1","+0140,1","+0120,1","99999,9","07,5,+00360,1,99,9",,,"07,99,1,99,9,99,9,99999,9,99,9,99,9","10010,1,99999,9",,,,"MET055METAR EGOW 160950Z 26020KT 9999 BKN012 14/12 Q1001 GRN;",
"03018099999","2010-07-16T10:50:00","4","53.581575","-3.055522","11.27","WOODVALE, UK","FM-15","EGOW ","V020","260,1,N,0108,1","22000,1,9,N","011265,1,N,1","+0160,1","+0120,1","99999,9","04,5,+00420,1,99,9",,,"04,99,1,99,9,99,9,99999,9,99,9,99,9","10020,1,99999,9",,,,"MET055METAR EGOW 161050Z 26021KT 9999 SCT014 16/12 Q1002 GRN;",
"03018099999","2010-07-16T11:50:00","4","53.581575","-3.055522","11.27","WOODVALE, UK","FM-15","EGOW ","V020","260,1,N,0087,1","22000,1,9,N","011265,1,N,1","+0170,1","+0110,1","99999,9","04,5,+00600,1,99,9",,,"04,99,1,99,9,99,9,99999,9,99,9,99,9","10041,1,99999,9",,,,"MET055METAR EGOW 161150Z 26017KT 9999 SCT020 17/11 Q1004 WHT;",
"03018099999","2010-07-16T12:50:00","4","53.581575","-3.055522","11.27","WOODVALE, UK","FM-15","EGOW ","V020","260,1,N,0072,1","22000,1,9,N","011265,1,N,1","+0170,1","+0120,1","99999,9","04,5,+00450,1,99,9",,,"04,99,1,99,9,99,9,99999,9,99,9,99,9","10051,1,99999,9",,,,"MET055METAR EGOW 161250Z 26014KT 9999 SCT015 17/12 Q1005 WHT;",
"03018099999","2010-07-16T13:50:00","4","53.581575","-3.055522","11.27","WOODVALE, UK","FM-15","EGOW ","V020","270,1,N,0087,1","22000,1,9,N","011265,1,N,1","+0170,1","+0100,1","99999,9","02,5,+00600,1,99,9",,,"02,99,1,99,9,99,9,99999,9,99,9,99,9","10051,1,99999,9",,,,"MET055METAR EGOW 161350Z 27017KT 9999 FEW020 17/10 Q1005 BLU;",
"03018099999","2010-07-16T14:50:00","4","53.581575","-3.055522","11.27","WOODVALE, UK","FM-15","EGOW ","V020","260,1,N,0057,1","22000,1,9,N","011265,1,N,1","+0180,1","+0110,1","99999,9","02,5,+00600,1,99,9",,,"02,99,1,99,9,99,9,99999,9,99,9,99,9","10061,1,99999,9",,,,"MET055METAR EGOW 161450Z 26011KT 9999 FEW020 18/11 Q1006 BLU;",
"03018099999","2010-07-16T15:50:00","4","53.581575","-3.055522","11.27","WOODVALE, UK","FM-15","EGOW ","V020","250,1,N,0067,1","22000,1,9,N","011265,1,N,1","+0180,1","+0120,1","99999,9","02,5,+00600,1,99,9",,,"02,99,1,99,9,99,9,99999,9,99,9,99,9","10071,1,99999,9",,,,"MET055METAR EGOW 161550Z 25013KT 9999 FEW020 18/12 Q1007 BLU;",
"03018099999","2010-07-17T06:50:00","4","53.581575","-3.055522","11.27","WOODVALE, UK","FM-15","EGOW ","V020","270,1,N,0051,1","01500,1,C,N","011265,1,N,1","+0130,1","+0110,1","99999,9","04,5,+00480,1,99,9","08,5,+01500,1,99,9",,"08,99,1,99,9,99,9,99999,9,99,9,99,9","10129,1,99999,9","16,1",,"0113,1","MET070METAR EGOW 170650Z 27010G22KT 9999 VCSH SCT016 OVC050 13/11 Q1013 WHT;",
"03018099999","2010-07-17T07:50:00","4","53.581575","-3.055522","11.27","WOODVALE, UK","FM-15","EGOW ","V020","270,1,N,0062,1","00540,1,C,N","011265,1,N,1","+0130,1","+0110,1","99999,9","02,5,+00390,1,99,9","04,5,+00540,1,99,9","07,5,+00900,1,99,9","07,99,1,99,9,99,9,99999,9,99,9,99,9","10139,1,99999,9","80,1",,,"MET075METAR EGOW 170750Z 27012KT 9999 -SHRA FEW013 SCT018 BKN030 13/11 Q1014 WHT;",
"03018099999","2010-07-17T08:50:00","4","53.581575","-3.055522","11.27","WOODVALE, UK","FM-15","EGOW ","V020","270,1,N,0077,1","00510,1,C,N","011265,1,N,1","+0140,1","+0100,1","99999,9","07,5,+00510,1,99,9",,,"07,99,1,99,9,99,9,99999,9,99,9,99,9","10149,1,99999,9","80,1",,,"MET061METAR EGOW 170850Z 27015KT 9999 -SHRA BKN017 14/10 Q1015 WHT;",
"03018099999","2010-07-17T09:50:00","4","53.581575","-3.055522","11.27","WOODVALE, UK","FM-15","EGOW ","V020","270,1,N,0108,1","00540,1,C,N","011265,1,N,1","+0140,1","+0100,1","99999,9","07,5,+00540,1,99,9","08,5,+01500,1,99,9",,"08,99,1,99,9,99,9,99999,9,99,9,99,9","10159,1,99999,9","16,1",,"0165,1","MET070METAR EGOW 170950Z 27021G32KT 9999 VCSH BKN018 OVC050 14/10 Q1016 WHT;",
"03018099999","2010-07-17T10:50:00","4","53.581575","-3.055522","11.27","WOODVALE, UK","FM-15","EGOW ","V020","270,1,N,0093,1","99999,9,C,N","011265,1,N,1","+0150,1","+0110,1","99999,9","02,5,+00360,1,99,9","04,5,+00540,1,99,9",,"04,99,1,99,9,99,9,99999,9,99,9,99,9","10159,1,99999,9","80,1",,"0144,1","MET071METAR EGOW 171050Z 27018G28KT 9999 -SHRA FEW012 SCT018 15/11 Q1016 WHT;","P01 005403SCOCIG"
"03018099999","2010-07-17T11:50:00","4","53.581575","-3.055522","11.27","WOODVALE, UK","FM-15","EGOW ","V020","260,1,N,0103,1","22000,1,9,N","011265,1,N,1","+0170,1","+0100,1","99999,9","04,5,+00540,1,99,9",,,"04,99,1,99,9,99,9,99999,9,99,9,99,9","10169,1,99999,9",,,,"MET055METAR EGOW 171150Z 26020KT 9999 SCT018 17/10 Q1017 WHT;",
"03018099999","2010-07-17T12:50:00","4","53.581575","-3.055522","11.27","WOODVALE, UK","FM-15","EGOW ","V020","270,1,N,0103,1","22000,1,9,N","011265,1,N,1","+0170,1","+0100,1","99999,9","04,5,+00540,1,99,9",,,"04,99,1,99,9,99,9,99999,9,99,9,99,9","10180,1,99999,9",,,,"MET055METAR EGOW 171250Z 27020KT 9999 SCT018 17/10 Q1018 WHT;",
"03018099999","2010-07-17T13:50:00","4","53.581575","-3.055522","11.27","WOODVALE, UK","FM-15","EGOW ","V020","270,1,N,0087,1","22000,1,9,N","005000,1,N,1","+0160,1","+0110,1","99999,9","04,5,+00540,1,02,1",,,"04,99,1,99,9,99,9,99999,9,99,9,99,9","10180,1,99999,9","82,1",,,"MET064METAR EGOW 171350Z 27017KT 5000 +SHRA SCT018TCU 16/11 Q1018 WHT;",
"03018099999","2010-07-18T06:50:00","4","53.581575","-3.055522","11.27","WOODVALE, UK","FM-15","EGOW ","V020","160,1,N,0093,1","00990,1,C,N","011265,1,N,1","+0140,1","+0140,1","99999,9","04,5,+00840,1,99,9","04,5,+00990,1,99,9","07,5,+02400,1,99,9","07,99,1,99,9,99,9,99999,9,99,9,99,9","10180,1,99999,9",,,,"MET069METAR EGOW 180650Z 16018KT 9999 SCT028 SCT033 BKN080 14/14 Q1018 BLU;",
"03018099999","2010-07-18T07:50:00","4","53.581575","-3.055522","11.27","WOODVALE, UK","FM-15","EGOW ","V020","170,1,N,0057,1","00540,1,C,N","011265,1,N,1","+0150,1","+0140,1","99999,9","02,5,+00240,1,99,9","07,5,+00540,1,99,9",,"07,99,1,99,9,99,9,99999,9,99,9,99,9","10190,1,99999,9","61,1",,,"MET066METAR EGOW 180750Z 17011KT 9999 -RA FEW008 BKN018 15/14 Q1019 WHT;",
"03018099999","2010-07-21T06:50:00","4","53.581575","-3.055522","11.27","WOODVALE, UK","FM-15","EGOW ","V020","240,1,N,0046,1","22000,1,9,N","011265,1,N,1","+0150,1","+0130,1","99999,9","04,5,+00450,1,99,9",,,"04,99,1,99,9,99,9,99999,9,99,9,99,9","10031,1,99999,9",,,,"MET055METAR EGOW 210650Z 24009KT 9999 SCT015 15/13 Q1003 WHT;",
"03018099999","2010-07-21T07:50:00","4","53.581575","-3.055522","11.27","WOODVALE, UK","FM-15","EGOW ","V020","270,1,N,0036,1","22000,1,9,N","011265,1,N,1","+0170,1","+0140,1","99999,9","04,5,+00450,1,99,9",,,"04,99,1,99,9,99,9,99999,9,99,9,99,9","10041,1,99999,9",,,,"MET055METAR EGOW 210750Z 27007KT 9999 SCT015 17/14 Q1004 WHT;",
"03018099999","2010-07-21T08:50:00","4","53.581575","-3.055522","11.27","WOODVALE, UK","FM-15","EGOW ","V020","250,1,N,0041,1","22000,1,9,N","011265,1,N,1","+0180,1","+0130,1","99999,9","04,5,+00450,1,99,9",,,"04,99,1,99,9,99,9,99999,9,99,9,99,9","10041,1,99999,9",,,,"MET055METAR EGOW 210850Z 25008KT 9999 SCT015 18/13 Q1004 WHT;",
"03018099999","2010-07-21T09:50:00","4","53.581575","-3.055522","11.27","WOODVALE, UK","FM-15","EGOW ","V020","260,1,N,0046,1","22000,1,9,N","011265,1,N,1","+0190,1","+0130,1","99999,9","04,5,+00450,1,99,9",,,"04,99,1,99,9,99,9,99999,9,99,9,99,9","10041,1,99999,9",,,,"MET055METAR EGOW 210950Z 26009KT 9999 SCT015 19/13 Q1004 WHT;",
"03018099999","2010-07-21T10:50:00","4","53.581575","-3.055522","11.27","WOODVALE, UK","FM-15","EGOW ","V020","290,1,N,0051,1","22000,1,9,N","011265,1,N,1","+0180,1","+0130,1","99999,9","04,5,+00450,1,09,1",,,"04,99,1,99,9,99,9,99999,9,99,9,99,9","10041,1,99999,9",,,,"MET057METAR EGOW 211050Z 29010KT 9999 SCT015CB 18/13 Q1004 WHT;",
"03018099999","2010-07-21T11:50:00","4","53.581575","-3.055522","11.27","WOODVALE, UK","FM-15","EGOW ","V020","270,1,N,0046,1","22000,1,9,N","011265,1,N,1","+0190,1","+0130,1","99999,9","04,5,+00450,1,99,9",,,"04,99,1,99,9,99,9,99999,9,99,9,99,9","10041,1,99999,9",,,,"MET055METAR EGOW 211150Z 27009KT 9999 SCT015 19/13 Q1004 WHT;",
"03018099999","2010-07-21T12:50:00","4","53.581575","-3.055522","11.27","WOODVALE, UK","FM-15","EGOW ","V020","290,1,N,0051,1","22000,1,9,N","011265,1,N,1","+0190,1","+0130,1","99999,9","02,5,+00540,1,99,9",,,"02,99,1,99,9,99,9,99999,9,99,9,99,9","10041,1,99999,9",,,,"MET055METAR EGOW 211250Z 29010KT 9999 FEW018 19/13 Q1004 BLU;",
"03018099999","2010-07-21T13:50:00","4","53.581575","-3.055522","11.27","WOODVALE, UK","FM-15","EGOW ","V020","290,1,N,0041,1","22000,1,9,N","011265,1,N,1","+0190,1","+0130,1","99999,9","02,5,+00540,1,02,1",,,"02,99,1,99,9,99,9,99999,9,99,9,99,9","10041,1,99999,9",,,,"MET058METAR EGOW 211350Z 29008KT 9999 FEW018TCU 19/13 Q1004 BLU;",
"03018099999","2010-07-21T14:50:00","4","53.581575","-3.055522","11.27","WOODVALE, UK","FM-15","EGOW ","V020","310,1,N,0021,1","99999,9,C,N","011265,1,N,1","+0200,1","+0120,1","99999,9","02,5,+00330,1,99,9","04,5,+00540,1,02,5",,"04,99,1,99,9,99,9,99999,9,99,9,99,9","10041,1,99999,9","16,1",,,"MET070METAR EGOW 211450Z 31004KT 9999 VCSH FEW011 SCT018TCU 20/12 Q1004 WHT;","P01 005403SCOCIG"
"03018099999","2010-07-21T15:50:00","4","53.581575","-3.055522","11.27","WOODVALE, UK","FM-15","EGOW ","V020","300,1,N,0026,1","01350,1,C,N","011265,1,N,1","+0190,1","+0140,1","99999,9","02,5,+00540,1,99,9","07,5,+01350,1,99,9",,"07,99,1,99,9,99,9,99999,9,99,9,99,9","10041,1,99999,9","16,1",,,"MET067METAR EGOW 211550Z 30005KT 9999 VCSH FEW018 BKN045 19/14 Q1004 BLU;",
"03018099999","2010-07-22T06:50:00","4","53.581575","-3.055522","11.27","WOODVALE, UK","FM-15","EGOW ","V020","070,1,N,0031,1","22000,1,9,N","011265,1,N,1","+0150,1","+0140,1","99999,9","04,5,+00750,1,99,9",,,"04,99,1,99,9,99,9,99999,9,99,9,99,9","10102,1,99999,9",,,,"MET055METAR EGOW 220650Z 07006KT 9999 SCT025 15/14 Q1010 BLU;",
"03018099999","2010-07-22T07:50:00","4","53.581575","-3.055522","11.27","WOODVALE, UK","FM-15","EGOW ","V020","070,1,N,0041,1","00330,1,C,N","011265,1,N,1","+0150,1","+0140,1","99999,9","02,5,+00210,1,99,9","04,5,+00330,1,99,9","07,5,+01050,1,99,9","07,99,1,99,9,99,9,99999,9,99,9,99,9","10102,1,99999,9",,,,"MET069METAR EGOW 220750Z 07008KT 9999 FEW007 SCT011 BKN035 15/14 Q1010 GRN;",
"03018099999","2010-07-22T08:50:00","4","53.581575","-3.055522","11.27","WOODVALE, UK","FM-15","EGOW ","V020","060,1,N,0051,1","00390,1,C,N","011265,1,N,1","+0150,1","+0130,1","99999,9","02,5,+00210,1,99,9","04,5,+00390,1,99,9","07,5,+01050,1,99,9","07,99,1,99,9,99,9,99999,9,99,9,99,9","10108,1,99999,9","80,1",,,"MET075METAR EGOW 220850Z 06010KT 9999 -SHRA FEW007 SCT013 BKN035 15/13 Q1011 GRN;",
"03018099999","2010-07-22T09:50:00","4","53.581575","-3.055522","11.27","WOODVALE, UK","FM-15","EGOW ","V020","070,1,N,0051,1","00600,1,C,N","011265,1,N,1","+0160,1","+0130,1","99999,9","02,5,+00270,1,99,9","04,5,+00600,1,99,9","07,5,+01050,1,99,9","07,99,1,99,9,99,9,99999,9,99,9,99,9","10119,1,99999,9","80,1",,,"MET075METAR EGOW 220950Z 07010KT 9999 -SHRA FEW009 SCT020 BKN035 16/13 Q1012 WHT;",
"03018099999","2010-07-22T10:50:00","4","53.581575","-3.055522","11.27","WOODVALE, UK","FM-15","EGOW ","V020","080,1,N,0062,1","00600,1,C,N","011265,1,N,1","+0160,1","+0120,1","99999,9","02,5,+00270,1,99,9","04,5,+00600,1,99,9","07,5,+01050,1,99,9","07,99,1,99,9,99,9,99999,9,99,9,99,9","10129,1,99999,9",,,,"MET069METAR EGOW 221050Z 08012KT 9999 FEW009 SCT020 BKN035 16/12 Q1013 WHT;",
"03018099999","2010-07-22T12:50:00","4","53.581575","-3.055522","11.27","WOODVALE, UK","FM-15","EGOW ","V020","070,1,N,0041,1","00720,1,C,N","011265,1,N,1","+0180,1","+0120,1","99999,9","02,5,+00540,1,99,9","04,5,+00720,1,99,9","07,5,+01200,1,99,9","07,99,1,99,9,99,9,99999,9,99,9,99,9","10139,1,99999,9",,,,"MET069METAR EGOW 221250Z 07008KT 9999 FEW018 SCT024 BKN040 18/12 Q1014 WHT;",
"03018099999","2010-07-22T14:50:00","4","53.581575","-3.055522","11.27","WOODVALE, UK","FM-15","EGOW ","V020","080,1,N,0062,1","99999,9,C,N","011265,1,N,1","+0190,1","+0120,1","99999,9","02,5,+00600,1,99,9","04,5,+00900,1,99,9",,"04,99,1,99,9,99,9,99999,9,99,9,99,9","10149,1,99999,9",,,,"MET062METAR EGOW 221450Z 08012KT 9999 FEW020 SCT030 19/12 Q1015 BLU;","P01 009003SCOCIG"
"03018099999","2010-07-23T06:50:00","4","53.581575","-3.055522","11.27","WOODVALE, UK","FM-15","EGOW ","V020","070,1,N,0041,1","99999,9,C,N","011265,1,N,1","+0140,1","+0100,1","99999,9","02,5,+00540,1,99,9","04,5,+00750,1,99,9",,"04,99,1,99,9,99,9,99999,9,99,9,99,9","10210,1,99999,9",,,,"MET062METAR EGOW 230650Z 07008KT 9999 FEW018 SCT025 14/10 Q1021 BLU;","P01 007503SCOCIG"
"03018099999","2010-07-23T07:50:00","4","53.581575","-3.055522","11.27","WOODVALE, UK","FM-15","EGOW ","V020","050,1,N,0026,1","01500,1,C,N","011265,1,N,1","+0150,1","+0110,1","99999,9","02,5,+00900,1,99,9","07,5,+01500,1,99,9",,"07,99,1,99,9,99,9,99999,9,99,9,99,9","10210,1,99999,9",,,,"MET062METAR EGOW 230750Z 05005KT 9999 FEW030 BKN050 15/11 Q1021 BLU;",
"03018099999","2010-07-23T08:50:00","4","53.581575","-3.055522","11.27","WOODVALE, UK","FM-15","EGOW ","V020","080,1,N,0021,1","01500,1,C,N","011265,1,N,1","+0160,1","+0100,1","99999,9","02,5,+00900,1,99,9","07,5,+01500,1,99,9",,"07,99,1,99,9,99,9,99999,9,99,9,99,9","10210,1,99999,9",,,,"MET062METAR EGOW 230850Z 08004KT 9999 FEW030 BKN050 16/10 Q1021 BLU;",
"03018099999","2010-07-23T09:50:00","4","53.581575","-3.055522","11.27","WOODVALE, UK","FM-15","EGOW ","V020","160,1,N,0010,1","01650,5,C,N","011265,1,N,1","+0170,1","+0110,1","99999,9","02,5,+00900,1,99,9","07,5,+01650,5,99,9",,"07,99,1,99,9,99,9,99999,9,99,9,99,9","10210,1,99999,9",,,,"MET062METAR EGOW 230950Z 16002KT 9999 FEW030 BKN055 17/11 Q1021 BLU;",
"03018099999","2010-07-23T10:50:00","4","53.581575","-3.055522","11.27","WOODVALE, UK","FM-15","EGOW ","V020","310,1,N,0041,1","01650,5,C,N","011265,1,N,1","+0190,1","+0110,1","99999,9","02,5,+00900,1,99,9","07,5,+01650,5,99,9",,"07,99,1,99,9,99,9,99999,9,99,9,99,9","10220,1,99999,9",,,,"MET062METAR EGOW 231050Z 31008KT 9999 FEW030 BKN055 19/11 Q1022 BLU;",
"03018099999","2010-07-23T11:50:00","4","53.581575","-3.055522","11.27","WOODVALE, UK","FM-15","EGOW ","V020","320,1,N,0031,1","99999,9,C,N","011265,1,N,1","+0170,1","+0130,1","99999,9","02,5,+00900,1,99,9","04,5,+01650,5,99,9",,"04,99,1,99,9,99,9,99999,9,99,9,99,9","10220,1,99999,9",,,,"MET062METAR EGOW 231150Z 32006KT 9999 FEW030 SCT055 17/13 Q1022 BLU;","P01 016503SCOCIG"
"03018099999","2010-07-23T12:50:00","4","53.581575","-3.055522","11.27","WOODVALE, UK","FM-15","EGOW ","V020","310,1,N,0051,1","22000,1,9,N","011265,1,N,1","+0180,1","+0110,1","99999,9","02,5,+01050,1,99,9",,,"02,99,1,99,9,99,9,99999,9,99,9,99,9","10220,1,99999,9",,,,"MET055METAR EGOW 231250Z 31010KT 9999 FEW035 18/11 Q1022 BLU;",
"03018099999","2010-07-23T13:50:00","4","53.581575","-3.055522","11.27","WOODVALE, UK","FM-15","EGOW ","V020","310,1,N,0046,1","22000,1,9,N","011265,1,N,1","+0180,1","+0110,1","99999,9","02,5,+01140,1,99,9",,,"02,99,1,99,9,99,9,99999,9,99,9,99,9","10220,1,99999,9",,,,"MET055METAR EGOW 231350Z 31009KT 9999 FEW038 18/11 Q1022 BLU;",
"03018099999","2010-07-23T14:50:00","4","53.581575","-3.055522","11.27","WOODVALE, UK","FM-15","EGOW ","V020","340,1,N,0051,1","22000,1,9,N","011265,1,N,1","+0180,1","+0110,1","99999,9","02,5,+01200,1,99,9",,,"02,99,1,99,9,99,9,99999,9,99,9,99,9","10220,1,99999,9",,,,"MET055METAR EGOW 231450Z 34010KT 9999 FEW040 18/11 Q1022 BLU;",
"03018099999","2010-07-23T15:50:00","4","53.581575","-3.055522","11.27","WOODVALE, UK","FM-15","EGOW ","V020","290,1,N,0041,1","22000,1,9,N","011265,1,N,1","+0180,1","+0110,1","99999,9","02,5,+01140,1,99,9",,,"02,99,1,99,9,99,9,99999,9,99,9,99,9","10220,1,99999,9",,,,"MET055METAR EGOW 231550Z 29008KT 9999 FEW038 18/11 Q1022 BLU;",
"03018099999","2010-07-24T06:50:00","4","53.581575","-3.055522","11.27","WOODVALE, UK","FM-15","EGOW ","V020","150,1,N,0031,1","22000,1,9,N","011265,1,N,1","+0140,1","+0110,1","99999,9","02,5,+01440,1,99,9",,,"02,99,1,99,9,99,9,99999,9,99,9,99,9","10220,1,99999,9",,,,"MET055METAR EGOW 240650Z 15006KT 9999 FEW048 14/11 Q1022 BLU;",
"03018099999","2010-07-24T07:50:00","4","53.581575","-3.055522","11.27","WOODVALE, UK","FM-15","EGOW ","V020","200,1,N,0041,1","99999,9,9,Y","009900,1,N,1","+0140,1","+0110,1","99999,9",,,,,"10220,1,99999,9",,,,"MET049METAR EGOW 240750Z 20008KT CAVOK 14/11 Q1022 BLU;",
"03018099999","2010-07-24T08:50:00","4","53.581575","-3.055522","11.27","WOODVALE, UK","FM-15","EGOW ","V020","190,1,N,0031,1","22000,1,9,N","999999,9,N,1","+0170,1","+0080,1","99999,9","02,5,+01050,5,99,9",,,,"10220,1,99999,9",,,,"MET050METAR EGOW 240850Z 19006KT FEW035 17/08 Q1022 BLU;",
"03018099999","2010-07-24T09:50:00","4","53.581575","-3.055522","11.27","WOODVALE, UK","FM-15","EGOW ","V020","230,1,N,0041,1","22000,1,9,N","011265,1,N,1","+0150,1","+0060,1","99999,9","02,5,+01050,1,99,9",,,"02,99,1,99,9,99,9,99999,9,99,9,99,9","10220,1,99999,9",,,,"MET055METAR EGOW 240950Z 23008KT 9999 FEW035 15/06 Q1022 BLU;",
"03018099999","2010-07-24T10:50:00","4","53.581575","-3.055522","11.27","WOODVALE, UK","FM-15","EGOW ","V020","210,1,N,0046,1","22000,1,9,N","011265,1,N,1","+0180,1","+0120,1","99999,9","02,5,+00840,1,99,9",,,"02,99,1,99,9,99,9,99999,9,99,9,99,9","10210,1,99999,9",,,,"MET055METAR EGOW 241050Z 21009KT 9999 FEW028 18/12 Q1021 BLU;",
"03018099999","2010-07-24T11:50:00","4","53.581575","-3.055522","11.27","WOODVALE, UK","FM-15","EGOW ","V020","250,1,N,0041,1","00900,1,C,N","011265,1,N,1","+0180,1","+0120,1","99999,9","07,5,+00900,1,99,9",,,"07,99,1,99,9,99,9,99999,9,99,9,99,9","10210,1,99999,9","16,1",,,"MET060METAR EGOW 241150Z 25008KT 9999 VCSH BKN030 18/12 Q1021 BLU;",
"03018099999","2010-07-25T06:50:00","4","53.581575","-3.055522","11.27","WOODVALE, UK","FM-15","EGOW ","V020","290,1,N,0057,1","99999,9,C,N","011265,1,N,1","+0160,1","+0150,1","99999,9","02,5,+00300,1,99,9","04,5,+00900,1,99,9",,"04,99,1,99,9,99,9,99999,9,99,9,99,9","10169,1,99999,9",,,,"MET062METAR EGOW 250650Z 29011KT 9999 FEW010 SCT030 16/15 Q1017 BLU;","P01 009003SCOCIG"
"03018099999","2010-07-25T07:50:00","4","53.581575","-3.055522","11.27","WOODVALE, UK","FM-15","EGOW ","V020","290,1,N,0051,1","00900,1,C,N","011265,1,N,1","+0170,1","+0140,1","99999,9","02,5,+00360,1,99,9","07,5,+00900,1,99,9",,"07,99,1,99,9,99,9,99999,9,99,9,99,9","10169,1,99999,9",,,,"MET062METAR EGOW 250750Z 29010KT 9999 FEW012 BKN030 17/14 Q1017 BLU;",
"03018099999","2010-07-25T08:50:00","4","53.581575","-3.055522","11.27","WOODVALE, UK","FM-15","EGOW ","V020","280,1,N,0057,1","02100,1,C,N","011265,1,N,1","+0160,1","+0140,1","99999,9","02,5,+00450,1,99,9","07,5,+02100,1,99,9",,"07,99,1,99,9,99,9,99999,9,99,9,99,9","10169,1,99999,9",,,,"MET062METAR EGOW 250850Z 28011KT 9999 FEW015 BKN070 16/14 Q1017 BLU;",
"03018099999","2010-07-25T09:50:00","4","53.581575","-3.055522","11.27","WOODVALE, UK","FM-15","EGOW ","V020","290,1,N,0072,1","02100,1,C,N","011265,1,N,1","+0170,1","+0140,1","99999,9","04,5,+00480,1,99,9","07,5,+02100,1,99,9",,"07,99,1,99,9,99,9,99999,9,99,9,99,9","10180,1,99999,9",,,,"MET062METAR EGOW 250950Z 29014KT 9999 SCT016 BKN070 17/14 Q1018 WHT;",
"03018099999","2010-07-25T11:50:00","4","53.581575","-3.055522","11.27","WOODVALE, UK","FM-15","EGOW ","V020","280,1,N,0072,1","01200,1,C,N","011265,1,N,1","+0170,1","+0150,1","99999,9","02,5,+00360,1,99,9","04,5,+01200,1,99,9","07,5,+04500,1,99,9","07,99,1,99,9,99,9,99999,9,99,9,99,9","10180,1,99999,9",,,,"MET069METAR EGOW 251150Z 28014KT 9999 FEW012 SCT040 BKN150 17/15 Q1018 BLU;",
"03018099999","2010-07-25T12:50:00","4","53.581575","-3.055522","11.27","WOODVALE, UK","FM-15","EGOW ","V020","290,1,N,0051,1","99999,9,C,N","011265,1,N,1","+0170,1","+0140,1","99999,9","04,5,+00180,1,99,9","04,5,+01050,1,99,9",,"04,99,1,99,9,99,9,99999,9,99,9,99,9","10180,1,99999,9",,,,"MET063METAR EGOW 251250Z 29010KT 9999 SCT006 SCT035 17/14 Q1018 YLO1;","P01 010503SCOCIG"
"03018099999","2010-07-28T07:50:00","4","53.581575","-3.055522","11.27","WOODVALE, UK","FM-15","EGOW ","V020","280,1,N,0051,1","00270,1,C,N","011265,1,N,1","+0150,1","+0120,1","99999,9","02,5,+00210,1,99,9","07,5,+00270,1,99,9",,"07,99,1,99,9,99,9,99999,9,99,9,99,9","10169,1,99999,9","61,1",,"0103,1","MET069METAR EGOW 280750Z 28010G20KT 9999 -RA FEW007 BKN009 15/12 Q1017 GRN;",
"03018099999","2010-07-28T08:50:00","4","53.581575","-3.055522","11.27","WOODVALE, UK","FM-15","EGOW ","V020","270,1,N,0062,1","00450,1,C,N","011265,1,N,1","+0160,1","+0120,1","99999,9","02,5,+00330,1,99,9","07,5,+00450,1,99,9",,"07,99,1,99,9,99,9,99999,9,99,9,99,9","10169,1,99999,9",,,,"MET062METAR EGOW 280850Z 27012KT 9999 FEW011 BKN015 16/12 Q1017 WHT;",
"03018099999","2010-07-28T09:50:00","4","53.581575","-3.055522","11.27","WOODVALE, UK","FM-15","EGOW ","V020","270,1,N,0077,1","00450,1,C,N","011265,1,N,1","+0170,1","+0130,1","99999,9","02,5,+00300,1,99,9","07,5,+00450,1,99,9",,"07,99,1,99,9,99,9,99999,9,99,9,99,9","10169,1,99999,9","51,1",,,"MET066METAR EGOW 280950Z 27015KT 9999 -DZ FEW010 BKN015 17/13 Q1017 WHT;",
"03018099999","2010-07-28T10:50:00","4","53.581575","-3.055522","11.27","WOODVALE, UK","FM-15","EGOW ","V020","270,1,N,0067,1","99999,9,C,N","011265,1,N,1","+0150,1","+0130,1","99999,9","02,5,+00240,1,99,9","04,5,+00360,1,99,9",,"04,99,1,99,9,99,9,99999,9,99,9,99,9","10169,1,99999,9","16,1",,,"MET067METAR EGOW 281050Z 27013KT 9999 VCSH FEW008 SCT012 15/13 Q1017 GRN;","P01 003603SCOCIG"
"03018099999","2010-07-28T11:50:00","4","53.581575","-3.055522","11.27","WOODVALE, UK","FM-15","EGOW ","V020","290,1,N,0082,1","00360,1,C,N","011265,1,N,1","+0160,1","+0120,1","99999,9","04,5,+00300,1,99,9","07,5,+00360,1,99,9",,"07,99,1,99,9,99,9,99999,9,99,9,99,9","10169,1,99999,9",,,,"MET062METAR EGOW 281150Z 29016KT 9999 SCT010 BKN012 16/12 Q1017 GRN;",
"03018099999","2010-07-28T12:50:00","4","53.581575","-3.055522","11.27","WOODVALE, UK","FM-15","EGOW ","V020","290,1,N,0082,1","99999,9,C,N","011265,1,N,1","+0160,1","+0120,1","99999,9","02,5,+00300,1,99,9","04,5,+00450,1,99,9",,"04,99,1,99,9,99,9,99999,9,99,9,99,9","10169,1,99999,9",,,,"MET062METAR EGOW 281250Z 29016KT 9999 FEW010 SCT015 16/12 Q1017 WHT;","P01 004503SCOCIG"
"03018099999","2010-07-28T13:50:00","4","53.581575","-3.055522","11.27","WOODVALE, UK","FM-15","EGOW ","V020","290,1,N,0067,1","22000,1,9,N","011265,1,N,1","+0160,1","+0120,1","99999,9","04,5,+00390,1,99,9",,,"04,99,1,99,9,99,9,99999,9,99,9,99,9","10169,1,99999,9","51,1",,,"MET059METAR EGOW 281350Z 29013KT 9999 -DZ SCT013 16/12 Q1017 GRN;",
"03018099999","2010-07-28T14:50:00","4","53.581575","-3.055522","11.27","WOODVALE, UK","FM-15","EGOW ","V020","290,1,N,0072,1","22000,1,9,N","011265,1,N,1","+0170,1","+0120,1","99999,9","04,5,+00480,1,99,9",,,"04,99,1,99,9,99,9,99999,9,99,9,99,9","10169,1,99999,9",,,,"MET055METAR EGOW 281450Z 29014KT 9999 SCT016 17/12 Q1017 WHT;",
"03018099999","2010-07-29T06:50:00","4","53.581575","-3.055522","11.27","WOODVALE, UK","FM-15","EGOW ","V020","330,1,N,0062,1","00480,1,C,N","011265,1,N,1","+0150,1","+0110,1","99999,9","02,5,+00240,1,99,9","04,5,+00480,1,99,9","07,5,+00900,1,99,9","07,99,1,99,9,99,9,99999,9,99,9,99,9","10169,1,99999,9",,,,"MET069METAR EGOW 290650Z 33012KT 9999 FEW008 SCT016 BKN030 15/11 Q1017 WHT;",
"03018099999","2010-07-29T07:50:00","4","53.581575","-3.055522","11.27","WOODVALE, UK","FM-15","EGOW ","V020","310,1,N,0062,1","00480,1,C,N","011265,1,N,1","+0150,1","+0110,1","99999,9","02,5,+00240,1,99,9","04,5,+00480,1,99,9","07,5,+00900,1,99,9","07,99,1,99,9,99,9,99999,9,99,9,99,9","10169,1,99999,9",,,,"MET069METAR EGOW 290750Z 31012KT 9999 FEW008 SCT016 BKN030 15/11 Q1017 WHT;",
"03018099999","2010-07-29T08:50:00","4","53.581575","-3.055522","11.27","WOODVALE, UK","FM-15","EGOW ","V020","310,1,N,0051,1","00450,1,C,N","011265,1,N,1","+0150,1","+0120,1","99999,9","02,5,+00360,1,99,9","07,5,+00450,1,99,9","08,5,+00900,1,99,9","08,99,1,99,9,99,9,99999,9,99,9,99,9","10169,1,99999,9","80,1",,,"MET075METAR EGOW 290850Z 31010KT 9999 -SHRA FEW012 BKN015 OVC030 15/12 Q1017 WHT;",
"03018099999","2010-07-29T09:50:00","4","53.581575","-3.055522","11.27","WOODVALE, UK","FM-15","EGOW ","V020","300,1,N,0046,1","00300,1,C,N","007000,1,N,1","+0140,1","+0120,1","99999,9","02,5,+00240,1,99,9","07,5,+00300,1,99,9",,"07,99,1,99,9,99,9,99999,9,99,9,99,9","10169,1,99999,9","16,1",,,"MET067METAR EGOW 290950Z 30009KT 7000 VCSH FEW008 BKN010 14/12 Q1017 GRN;",
"03018099999","2010-07-29T10:50:00","4","53.581575","-3.055522","11.27","WOODVALE, UK","FM-15","EGOW ","V020","310,1,N,0062,1","00480,1,C,N","011265,1,N,1","+0150,1","+0130,1","99999,9","02,5,+00240,1,99,9","04,5,+00480,1,99,9","07,5,+00900,1,99,9","07,99,1,99,9,99,9,99999,9,99,9,99,9","10169,1,99999,9","16,1",,,"MET074METAR EGOW 291050Z 31012KT 9999 VCSH FEW008 SCT016 BKN030 15/13 Q1017 WHT;",
"03018099999","2010-07-29T11:50:00","4","53.581575","-3.055522","11.27","WOODVALE, UK","FM-15","EGOW ","V020","290,1,N,0062,1","00660,1,C,N","011265,1,N,1","+0170,1","+0120,1","99999,9","02,5,+00240,1,99,9","04,5,+00660,1,99,9","07,5,+01080,1,99,9","07,99,1,99,9,99,9,99999,9,99,9,99,9","10169,1,99999,9",,,,"MET069METAR EGOW 291150Z 29012KT 9999 FEW008 SCT022 BKN036 17/12 Q1017 WHT;",
"03018099999","2010-07-29T12:50:00","4","53.581575","-3.055522","11.27","WOODVALE, UK","FM-15","EGOW ","V020","290,1,N,0067,1","00480,1,C,N","011265,1,N,1","+0170,1","+0120,1","99999,9","02,5,+00300,1,99,9","07,5,+00480,1,99,9",,"07,99,1,99,9,99,9,99999,9,99,9,99,9","10169,1,99999,9",,,,"MET062METAR EGOW 291250Z 29013KT 9999 FEW010 BKN016 17/12 Q1017 WHT;",
"03018099999","2010-07-29T13:50:00","4","53.581575","-3.055522","11.27","WOODVALE, UK","FM-15","EGOW ","V020","310,1,N,0067,1","01200,1,C,N","011265,1,N,1","+0160,1","+0120,1","99999,9","04,5,+00480,1,99,9","07,5,+01200,1,99,9",,"07,99,1,99,9,99,9,99999,9,99,9,99,9","10169,1,99999,9",,,,"MET062METAR EGOW 291350Z 31013KT 9999 SCT016 BKN040 16/12 Q1017 WHT;",
"03018099999","2010-07-30T06:50:00","4","53.581575","-3.055522","11.27","WOODVALE, UK","FM-15","EGOW ","V020","180,1,N,0031,1","22000,1,9,N","011265,1,N,1","+0160,1","+0120,1","99999,9","04,5,+00900,1,99,9",,,"04,99,1,99,9,99,9,99999,9,99,9,99,9","10129,1,99999,9",,,,"MET055METAR EGOW 300650Z 18006KT 9999 SCT030 16/12 Q1013 BLU;",
"03018099999","2010-07-30T07:50:00","4","53.581575","-3.055522","11.27","WOODVALE, UK","FM-15","EGOW ","V020","200,1,N,0036,1","22000,1,9,N","011265,1,N,1","+0160,1","+0120,1","99999,9","02,5,+00900,1,99,9",,,"02,99,1,99,9,99,9,99999,9,99,9,99,9","10129,1,99999,9",,,,"MET055METAR EGOW 300750Z 20007KT 9999 FEW030 16/12 Q1013 BLU;",
"03018099999","2010-08-02T06:50:00","4","53.581575","-3.055522","11.27","WOODVALE, UK","FM-15","EGOW ","V020","310,1,N,0041,1","00900,1,C,N","011265,1,N,1","+0150,1","+0130,1","99999,9","02,5,+00300,1,99,9","07,5,+00900,1,99,9",,"07,99,1,99,9,99,9,99999,9,99,9,99,9","10169,1,99999,9",,,,"MET062METAR EGOW 020650Z 31008KT 9999 FEW010 BKN030 15/13 Q1017 BLU;",
"03018099999","2010-08-02T07:50:00","4","53.581575","-3.055522","11.27","WOODVALE, UK","FM-15","EGOW ","V020","280,1,N,0041,1","00900,1,C,N","011265,1,N,1","+0150,1","+0130,1","99999,9","02,5,+00600,1,99,9","07,5,+00900,1,99,9",,"07,99,1,99,9,99,9,99999,9,99,9,99,9","10180,1,99999,9",,,,"MET062METAR EGOW 020750Z 28008KT 9999 FEW020 BKN030 15/13 Q1018 BLU;",
"03018099999","2010-08-02T08:50:00","4","53.581575","-3.055522","11.27","WOODVALE, UK","FM-15","EGOW ","V020","290,1,N,0051,1","00600,1,C,N","011265,1,N,1","+0160,1","+0120,1","99999,9","02,5,+00300,1,99,9","04,5,+00600,1,99,9","07,5,+01200,1,99,9","07,99,1,99,9,99,9,99999,9,99,9,99,9","10180,1,99999,9",,,,"MET069METAR EGOW 020850Z 29010KT 9999 FEW010 SCT020 BKN040 16/12 Q1018 WHT;",
"03018099999","2010-08-02T09:50:00","4","53.581575","-3.055522","11.27","WOODVALE, UK","FM-15","EGOW ","V020","290,1,N,0051,1","00480,1,C,N","011265,1,N,1","+0150,1","+0120,1","99999,9","02,5,+00300,1,99,9","07,5,+00480,1,99,9",,"07,99,1,99,9,99,9,99999,9,99,9,99,9","10180,1,99999,9",,,,"MET062METAR EGOW 020950Z 29010KT 9999 FEW010 BKN016 15/12 Q1018 WHT;",
"03018099999","2010-08-02T10:50:00","4","53.581575","-3.055522","11.27","WOODVALE, UK","FM-15","EGOW ","V020","310,1,N,0051,1","00480,1,C,N","011265,1,N,1","+0160,1","+0110,1","99999,9","07,5,+00480,1,99,9",,,"07,99,1,99,9,99,9,99999,9,99,9,99,9","10190,1,99999,9",,,,"MET055METAR EGOW 021050Z 31010KT 9999 BKN016 16/11 Q1019 WHT;",
"03018099999","2010-08-02T11:50:00","4","53.581575","-3.055522","11.27","WOODVALE, UK","FM-15","EGOW ","V020","290,1,N,0046,1","00450,1,C,N","011265,1,N,1","+0160,1","+0120,1","99999,9","07,5,+00450,1,99,9",,,"07,99,1,99,9,99,9,99999,9,99,9,99,9","10190,1,99999,9",,,,"MET055METAR EGOW 021150Z 29009KT 9999 BKN015 16/12 Q1019 WHT;",
"03018099999","2010-08-02T12:50:00","4","53.581575","-3.055522","11.27","WOODVALE, UK","FM-15","EGOW ","V020","280,1,N,0057,1","01500,1,C,N","011265,1,N,1","+0170,1","+0110,1","99999,9","04,5,+00450,1,99,9","07,5,+01500,1,99,9",,"07,99,1,99,9,99,9,99999,9,99,9,99,9","10190,1,99999,9",,,,"MET062METAR EGOW 021250Z 28011KT 9999 SCT015 BKN050 17/11 Q1019 WHT;",
"03018099999","2010-08-02T13:50:00","4","53.581575","-3.055522","11.27","WOODVALE, UK","FM-15","EGOW ","V020","280,1,N,0057,1","01500,1,C,N","011265,1,N,1","+0170,1","+0120,1","99999,9","04,5,+00480,1,99,9","07,5,+01500,1,99,9",,"07,99,1,99,9,99,9,99999,9,99,9,99,9","10190,1,99999,9",,,,"MET062METAR EGOW 021350Z 28011KT 9999 SCT016 BKN050 17/12 Q1019 WHT;",
"03018099999","2010-08-02T14:50:00","4","53.581575","-3.055522","11.27","WOODVALE, UK","FM-15","EGOW ","V020","290,1,N,0051,1","22000,1,9,N","011265,1,N,1","+0170,1","+0120,1","99999,9","04,5,+00360,1,99,9",,,"04,99,1,99,9,99,9,99999,9,99,9,99,9","10190,1,99999,9",,,,"MET055METAR EGOW 021450Z 29010KT 9999 SCT012 17/12 Q1019 GRN;",
"03018099999","2010-08-02T15:50:00","4","53.581575","-3.055522","11.27","WOODVALE, UK","FM-15","EGOW ","V020","270,1,N,0046,1","00360,1,C,N","011265,1,N,1","+0170,1","+0120,1","99999,9","07,5,+00360,1,99,9",,,"07,99,1,99,9,99,9,99999,9,99,9,99,9","10190,1,99999,9",,,,"MET055METAR EGOW 021550Z 27009KT 9999 BKN012 17/12 Q1019 GRN;",
"03018099999","2010-08-03T06:50:00","4","53.581575","-3.055522","11.27","WOODVALE, UK","FM-15","EGOW ","V020","150,1,N,0026,1","00600,1,C,N","011265,1,N,1","+0140,1","+0120,1","99999,9","02,5,+00450,1,99,9","04,5,+00600,1,99,9","07,5,+01200,1,99,9","07,99,1,99,9,99,9,99999,9,99,9,99,9","10149,1,99999,9",,,,"MET069METAR EGOW 030650Z 15005KT 9999 FEW015 SCT020 BKN040 14/12 Q1015 WHT;",
"03018099999","2010-08-03T07:50:00","4","53.581575","-3.055522","11.27","WOODVALE, UK","FM-15","EGOW ","V020","150,1,N,0015,1","00840,1,C,N","011265,1,N,1","+0150,1","+0120,1","99999,9","02,5,+00450,1,99,9","04,5,+00840,1,99,9","07,5,+01200,1,99,9","07,99,1,99,9,99,9,99999,9,99,9,99,9","10149,1,99999,9",,,,"MET069METAR EGOW 030750Z 15003KT 9999 FEW015 SCT028 BKN040 15/12 Q1015 BLU;",
"03018099999","2010-08-03T08:50:00","4","53.581575","-3.055522","11.27","WOODVALE, UK","FM-15","EGOW ","V020","170,1,N,0031,1","00840,1,C,N","003500,1,N,1","+0150,1","+0130,1","99999,9","04,5,+00300,1,99,9","07,5,+00840,1,99,9",,"07,99,1,99,9,99,9,99999,9,99,9,99,9","10149,1,99999,9","51,1",,,"MET067METAR EGOW 030850Z 17006KT 3500 -DZ SCT010 BKN028 15/13 Q1015 YLO1;",
"03018099999","2010-08-03T09:50:00","4","53.581575","-3.055522","11.27","WOODVALE, UK","FM-15","EGOW ","V020","200,1,N,0026,1","00300,1,C,N","011265,1,N,1","+0150,1","+0140,1","99999,9","02,5,+00240,1,99,9","04,5,+00300,1,99,9","07,5,+00900,1,99,9","07,99,1,99,9,99,9,99999,9,99,9,99,9","10149,1,99999,9","16,1",,,"MET074METAR EGOW 030950Z 20005KT 9999 VCSH FEW008 SCT010 BKN030 15/14 Q1015 GRN;",
"03018099999","2010-08-03T10:50:00","4","53.581575","-3.055522","11.27","WOODVALE, UK","FM-15","EGOW ","V020","270,1,N,0051,1","00150,1,C,N","011265,1,N,1","+0160,1","+0150,1","99999,9","07,5,+00150,1,99,9",,,"07,99,1,99,9,99,9,99999,9,99,9,99,9","10139,1,99999,9",,,,"MET056METAR EGOW 031050Z 27010KT 9999 BKN005 16/15 Q1014 YLO1;",
"03018099999","2010-08-03T11:50:00","4","53.581575","-3.055522","11.27","WOODVALE, UK","FM-15","EGOW ","V020","270,1,N,0067,1","00360,1,C,N","011265,1,N,1","+0170,1","+0140,1","99999,9","02,5,+00240,1,99,9","07,5,+00360,1,99,9",,"07,99,1,99,9,99,9,99999,9,99,9,99,9","10139,1,99999,9",,,,"MET062METAR EGOW 031150Z 27013KT 9999 FEW008 BKN012 17/14 Q1014 GRN;",
"03018099999","2010-08-03T12:50:00","4","53.581575","-3.055522","11.27","WOODVALE, UK","FM-15","EGOW ","V020","290,1,N,0057,1","00900,1,C,N","011265,1,N,1","+0180,1","+0140,1","99999,9","02,5,+00360,1,99,9","07,5,+00900,1,99,9",,"07,99,1,99,9,99,9,99999,9,99,9,99,9","10139,1,99999,9",,,,"MET062METAR EGOW 031250Z 29011KT 9999 FEW012 BKN030 18/14 Q1014 BLU;",
"03018099999","2010-08-03T13:50:00","4","53.581575","-3.055522","11.27","WOODVALE, UK","FM-15","EGOW ","V020","290,1,N,0057,1","01200,1,C,N","011265,1,N,1","+0170,1","+0130,1","99999,9","02,5,+00360,1,99,9","07,5,+01200,1,99,9",,"07,99,1,99,9,99,9,99999,9,99,9,99,9","10139,1,99999,9",,,,"MET062METAR EGOW 031350Z 29011KT 9999 FEW012 BKN040 17/13 Q1014 BLU;",
"03018099999","2010-08-03T14:50:00","4","53.581575","-3.055522","11.27","WOODVALE, UK","FM-15","EGOW ","V020","290,1,N,0051,1","01500,1,C,N","011265,1,N,1","+0170,1","+0130,1","99999,9","02,5,+00540,1,99,9","07,5,+01500,1,99,9",,"07,99,1,99,9,99,9,99999,9,99,9,99,9","10139,1,99999,9",,,,"MET062METAR EGOW 031450Z 29010KT 9999 FEW018 BKN050 17/13 Q1014 BLU;",
"03018099999","2010-08-04T06:50:00","4","53.581575","-3.055522","11.27","WOODVALE, UK","FM-15","EGOW ","V020","270,1,N,0041,1","00300,1,C,N","006000,1,N,1","+0130,1","+0120,1","99999,9","04,5,+00120,1,99,9","07,5,+00300,1,99,9","08,5,+00540,1,99,9","08,99,1,99,9,99,9,99999,9,99,9,99,9","10061,1,99999,9","61,1",,,"MET074METAR EGOW 040650Z 27008KT 6000 -RA SCT004 BKN010 OVC018 13/12 Q1006 YLO2;",
"03018099999","2010-08-04T07:50:00","4","53.581575","-3.055522","11.27","WOODVALE, UK","FM-15","EGOW ","V020","300,1,N,0036,1","00480,1,C,N","011265,1,N,1","+0130,1","+0130,1","99999,9","04,5,+00120,1,99,9","07,5,+00480,1,99,9",,"07,99,1,99,9,99,9,99999,9,99,9,99,9","10061,1,99999,9","61,1",,,"MET067METAR EGOW 040750Z 30007KT 9999 -RA SCT004 BKN016 13/13 Q1006 YLO2;",
"03018099999","2010-08-04T08:50:00","4","53.581575","-3.055522","11.27","WOODVALE, UK","FM-15","EGOW ","V020","330,1,N,0057,1","00450,1,C,N","011265,1,N,1","+0150,1","+0130,1","99999,9","04,5,+00120,1,99,9","07,5,+00450,1,99,9",,"07,99,1,99,9,99,9,99999,9,99,9,99,9","10071,1,99999,9","16,1",,,"MET068METAR EGOW 040850Z 33011KT 9999 VCSH SCT004 BKN015 15/13 Q1007 YLO2;",
"03018099999","2010-08-04T09:50:00","4","53.581575","-3.055522","11.27","WOODVALE, UK","FM-15","EGOW ","V020","320,1,N,0057,1","00240,1,C,N","011265,1,N,1","+0140,1","+0130,1","99999,9","02,5,+00120,1,99,9","04,5,+00240,1,99,9","07,5,+00540,1,99,9","07,99,1,99,9,99,9,99999,9,99,9,99,9","10061,1,99999,9","16,1",,,"MET074METAR EGOW 040950Z 32011KT 9999 VCSH FEW004 SCT008 BKN018 14/13 Q1006 GRN;",
"03018099999","2010-08-04T10:50:00","4","53.581575","-3.055522","11.27","WOODVALE, UK","FM-15","EGOW ","V020","320,1,N,0067,1","99999,9,C,N","011265,1,N,1","+0160,1","+0120,1","99999,9","02,5,+00300,1,99,9","04,5,+00540,1,99,9",,"04,99,1,99,9,99,9,99999,9,99,9,99,9","10071,1,99999,9",,,,"MET062METAR EGOW 041050Z 32013KT 9999 FEW010 SCT018 16/12 Q1007 WHT;","P01 005403SCOCIG"
"03018099999","2010-08-04T11:50:00","4","53.581575","-3.055522","11.27","WOODVALE, UK","FM-15","EGOW ","V020","330,1,N,0082,1","99999,9,C,N","011265,1,N,1","+0170,1","+0120,1","99999,9","04,5,+00450,1,99,9","04,5,+01800,1,99,9",,"04,99,1,99,9,99,9,99999,9,99,9,99,9","10071,1,99999,9",,,,"MET062METAR EGOW 041150Z 33016KT 9999 SCT015 SCT060 17/12 Q1007 WHT;","P01 018003SCOCIG"
"03018099999","2010-08-04T12:50:00","4","53.581575","-3.055522","11.27","WOODVALE, UK","FM-15","EGOW ","V020","320,1,N,0077,1","99999,9,C,N","011265,1,N,1","+0170,1","+0130,1","99999,9","04,5,+00480,1,02,1","04,5,+01800,1,99,9",,"04,99,1,99,9,99,9,99999,9,99,9,99,9","10071,1,99999,9",,,,"MET065METAR EGOW 041250Z 32015KT 9999 SCT016TCU SCT060 17/13 Q1007 WHT;","P01 018003SCOCIG"
"03018099999","2010-08-04T13:50:00","4","53.581575","-3.055522","11.27","WOODVALE, UK","FM-15","EGOW ","V020","310,1,N,0077,1","01800,1,C,N","011265,1,N,1","+0170,1","+0110,1","99999,9","04,5,+00540,1,99,9","07,5,+01800,1,99,9",,"07,99,1,99,9,99,9,99999,9,99,9,99,9","10081,1,99999,9",,,,"MET062METAR EGOW 041350Z 31015KT 9999 SCT018 BKN060 17/11 Q1008 WHT;",
"03018099999","2010-08-04T14:50:00","4","53.581575","-3.055522","11.27","WOODVALE, UK","FM-15","EGOW ","V020","310,1,N,0082,1","02400,1,C,N","011265,1,N,1","+0160,1","+0110,1","99999,9","04,5,+00600,1,99,9","07,5,+02400,1,99,9",,"07,99,1,99,9,99,9,99999,9,99,9,99,9","10081,1,99999,9",,,"0134,1","MET065METAR EGOW 041450Z 31016G26KT 9999 SCT020 BKN080 16/11 Q1008 WHT;",
"03018099999","2010-08-05T06:50:00","4","53.581575","-3.055522","11.27","WOODVALE, UK","FM-15","EGOW ","V020","280,1,N,0077,1","99999,9,C,N","011265,1,N,1","+0150,1","+0100,1","99999,9","02,5,+00360,1,99,9","04,5,+00750,1,99,9",,"04,99,1,99,9,99,9,99999,9,99,9,99,9","10108,1,99999,9",,,"0129,1","MET065METAR EGOW 050650Z 28015G25KT 9999 FEW012 SCT025 15/10 Q1011 BLU;","P01 007503SCOCIG"
"03018099999","2010-08-05T07:50:00","4","53.581575","-3.055522","11.27","WOODVALE, UK","FM-15","EGOW ","V020","280,1,N,0051,1","99999,9,C,N","011265,1,N,1","+0150,1","+0110,1","99999,9","02,5,+00540,1,99,9","04,5,+01200,1,99,9",,"04,99,1,99,9,99,9,99999,9,99,9,99,9","10119,1,99999,9",,,"0103,1","MET065METAR EGOW 050750Z 28010G20KT 9999 FEW018 SCT040 15/11 Q1012 BLU;","P01 012003SCOCIG"
"03018099999","2010-08-05T08:50:00","4","53.581575","-3.055522","11.27","WOODVALE, UK","FM-15","EGOW ","V020","300,1,N,0062,1","00900,1,C,N","011265,1,N,1","+0160,1","+0110,1","99999,9","02,5,+00540,1,99,9","07,5,+00900,1,99,9",,"07,99,1,99,9,99,9,99999,9,99,9,99,9","10108,1,99999,9",,,,"MET062METAR EGOW 050850Z 30012KT 9999 FEW018 BKN030 16/11 Q1011 BLU;",
"03018099999","2010-08-05T09:50:00","4","53.581575","-3.055522","11.27","WOODVALE, UK","FM-15","EGOW ","V020","290,1,N,0077,1","01800,1,C,N","011265,1,N,1","+0160,1","+0100,1","99999,9","04,5,+00900,1,99,9","07,5,+01800,1,99,9",,"07,99,1,99,9,99,9,99999,9,99,9,99,9","10108,1,99999,9",,,,"MET062METAR EGOW 050950Z 29015KT 9999 SCT030 BKN060 16/10 Q1011 BLU;",
"03018099999","2010-08-05T10:50:00","4","53.581575","-3.055522","11.27","WOODVALE, UK","FM-15","EGOW ","V020","280,1,N,0082,1","01800,1,C,N","011265,1,N,1","+0160,1","+0100,1","99999,9","04,5,+00480,1,99,9","07,5,+01800,1,99,9",,"07,99,1,99,9,99,9,99999,9,99,9,99,9","10119,1,99999,9",,,,"MET062METAR EGOW 051050Z 28016KT 9999 SCT016 BKN060 16/10 Q1012 WHT;",
"03018099999","2010-08-05T11:50:00","4","53.581575","-3.055522","11.27","WOODVALE, UK","FM-15","EGOW ","V020","300,1,N,0051,1","01800,1,C,N","011265,1,N,1","+0170,1","+0110,1","99999,9","04,5,+00480,1,99,9","07,5,+01800,1,99,9",,"07,99,1,99,9,99,9,99999,9,99,9,99,9","10119,1,99999,9",,,"0103,1","MET065METAR EGOW 051150Z 30010G20KT 9999 SCT016 BKN060 17/11 Q1012 WHT;",
"03018099999","2010-08-05T12:50:00","4","53.581575","-3.055522","11.27","WOODVALE, UK","FM-15","EGOW ","V020","300,1,N,0051,1","99999,9,C,N","011265,1,N,1","+0180,1","+0110,1","99999,9","04,5,+00600,1,99,9","04,5,+01800,1,99,9",,"04,99,1,99,9,99,9,99999,9,99,9,99,9","10119,1,99999,9",,,"0103,1","MET065METAR EGOW 051250Z 30010G20KT 9999 SCT020 SCT060 18/11 Q1012 WHT;","P01 018003SCOCIG"
"03018099999","2010-08-05T13:50:00","4","53.581575","-3.055522","11.27","WOODVALE, UK","FM-15","EGOW ","V020","260,1,N,0087,1","22000,1,9,N","011265,1,N,1","+0180,1","+0110,1","99999,9","04,5,+00600,1,99,9",,,"04,99,1,99,9,99,9,99999,9,99,9,99,9","10119,1,99999,9",,,,"MET055METAR EGOW 051350Z 26017KT 9999 SCT020 18/11 Q1012 WHT;",
"03018099999","2010-08-10T06:50:00","4","53.581575","-3.055522","11.27","WOODVALE, UK","FM-15","EGOW ","V020","260,1,N,0041,1","00900,1,C,N","011265,1,N,1","+0150,1","+0110,1","99999,9","02,5,+00450,1,99,9","07,5,+00900,1,99,9",,"07,99,1,99,9,99,9,99999,9,99,9,99,9","10081,1,99999,9",,,,"MET062METAR EGOW 100650Z 26008KT 9999 FEW015 BKN030 15/11 Q1008 BLU;",
"03018099999","2010-08-10T07:50:00","4","53.581575","-3.055522","11.27","WOODVALE, UK","FM-15","EGOW ","V020","240,1,N,0062,1","00900,1,C,N","011265,1,N,1","+0150,1","+0090,1","99999,9","02,5,+00450,1,99,9","07,5,+00900,1,99,9",,"07,99,1,99,9,99,9,99999,9,99,9,99,9","10081,1,99999,9",,,,"MET062METAR EGOW 100750Z 24012KT 9999 FEW015 BKN030 15/09 Q1008 BLU;",
"03018099999","2010-08-10T08:50:00","4","53.581575","-3.055522","11.27","WOODVALE, UK","FM-15","EGOW ","V020","240,1,N,0077,1","22000,1,9,N","011265,1,N,1","+0150,1","+0110,1","99999,9","02,5,+00450,1,99,9",,,"02,99,1,99,9,99,9,99999,9,99,9,99,9","10071,1,99999,9",,,,"MET055METAR EGOW 100850Z 24015KT 9999 FEW015 15/11 Q1007 BLU;",
"03018099999","2010-08-10T09:50:00","4","53.581575","-3.055522","11.27","WOODVALE, UK","FM-15","EGOW ","V020","250,1,N,0077,1","22000,1,9,N","011265,1,N,1","+0170,1","+0100,1","99999,9","02,5,+00540,1,99,9",,,"02,99,1,99,9,99,9,99999,9,99,9,99,9","10071,1,99999,9",,,,"MET055METAR EGOW 100950Z 25015KT 9999 FEW018 17/10 Q1007 BLU;",
"03018099999","2010-08-10T10:50:00","4","53.581575","-3.055522","11.27","WOODVALE, UK","FM-15","EGOW ","V020","250,1,N,0087,1","99999,9,C,N","011265,1,N,1","+0170,1","+0100,1","99999,9","02,5,+00750,1,99,9","04,5,+03600,1,99,9",,"04,99,1,99,9,99,9,99999,9,99,9,99,9","10071,1,99999,9",,,,"MET062METAR EGOW 101050Z 25017KT 9999 FEW025 SCT120 17/10 Q1007 BLU;","P01 036003SCOCIG"
"03018099999","2010-08-10T11:50:00","4","53.581575","-3.055522","11.27","WOODVALE, UK","FM-15","EGOW ","V020","260,1,N,0087,1","03600,1,C,N","011265,1,N,1","+0170,1","+0110,1","99999,9","02,5,+00540,1,99,9","07,5,+03600,1,99,9",,"07,99,1,99,9,99,9,99999,9,99,9,99,9","10071,1,99999,9","16,1",,,"MET067METAR EGOW 101150Z 26017KT 9999 VCSH FEW018 BKN120 17/11 Q1007 BLU;",
"03018099999","2010-08-10T12:50:00","4","53.581575","-3.055522","11.27","WOODVALE, UK","FM-15","EGOW ","V020","250,1,N,0077,1","99999,9,C,N","011265,1,N,1","+0170,1","+0100,1","99999,9","02,5,+00540,1,99,9","04,5,+01200,1,99,9",,"04,99,1,99,9,99,9,99999,9,99,9,99,9","10081,1,99999,9",,,,"MET062METAR EGOW 101250Z 25015KT 9999 FEW018 SCT040 17/10 Q1008 BLU;","P01 012003SCOCIG"
"03018099999","2010-08-10T13:50:00","4","53.581575","-3.055522","11.27","WOODVALE, UK","FM-15","EGOW ","V020","270,1,N,0082,1","22000,1,9,N","011265,1,N,1","+0180,1","+0100,1","99999,9","04,5,+00900,1,99,9",,,"04,99,1,99,9,99,9,99999,9,99,9,99,9","10081,1,99999,9",,,"0139,1","MET058METAR EGOW 101350Z 27016G27KT 9999 SCT030 18/10 Q1008 BLU;",
"03018099999","2010-08-11T06:50:00","4","53.581575","-3.055522","11.27","WOODVALE, UK","FM-15","EGOW ","V020","260,1,N,0077,1","99999,9,C,N","011265,1,N,1","+0150,1","+0110,1","99999,9","02,5,+00540,1,99,9","04,5,+00750,1,99,9",,"04,99,1,99,9,99,9,99999,9,99,9,99,9","10119,1,99999,9",,,,"MET062METAR EGOW 110650Z 26015KT 9999 FEW018 SCT025 15/11 Q1012 BLU;","P01 007503SCOCIG"
"03018099999","2010-08-11T07:50:00","4","53.581575","-3.055522","11.27","WOODVALE, UK","FM-15","EGOW ","V020","270,1,N,0072,1","00750,1,C,N","011265,1,N,1","+0150,1","+0120,1","99999,9","02,5,+00450,1,99,9","04,5,+00750,1,99,9","07,5,+01800,1,99,9","07,99,1,99,9,99,9,99999,9,99,9,99,9","10119,1,99999,9",,,,"MET069METAR EGOW 110750Z 27014KT 9999 FEW015 SCT025 BKN060 15/12 Q1012 BLU;",
"03018099999","2010-08-11T08:50:00","4","53.581575","-3.055522","11.27","WOODVALE, UK","FM-15","EGOW ","V020","270,1,N,0087,1","00660,1,C,N","011265,1,N,1","+0150,1","+0120,1","99999,9","02,5,+00390,1,99,9","07,5,+00660,1,99,9",,"07,99,1,99,9,99,9,99999,9,99,9,99,9","10119,1,99999,9",,,,"MET062METAR EGOW 110850Z 27017KT 9999 FEW013 BKN022 15/12 Q1012 WHT;",
"03018099999","2010-08-11T09:50:00","4","53.581575","-3.055522","11.27","WOODVALE, UK","FM-15","EGOW ","V020","280,1,N,0072,1","00540,1,C,N","011265,1,N,1","+0150,1","+0120,1","99999,9","02,5,+00390,1,99,9","04,5,+00540,1,99,9","07,5,+00660,1,99,9","07,99,1,99,9,99,9,99999,9,99,9,99,9","10119,1,99999,9","16,1",,,"MET074METAR EGOW 110950Z 28014KT 9999 VCSH FEW013 SCT018 BKN022 15/12 Q1012 WHT;",
"03018099999","2010-08-11T10:50:00","4","53.581575","-3.055522","11.27","WOODVALE, UK","FM-15","EGOW ","V020","280,1,N,0072,1","99999,9,C,N","011265,1,N,1","+0170,1","+0130,1","99999,9","02,5,+00480,1,99,9","04,5,+01800,1,99,9",,"04,99,1,99,9,99,9,99999,9,99,9,99,9","10119,1,99999,9",,,,"MET062METAR EGOW 111050Z 28014KT 9999 FEW016 SCT060 17/13 Q1012 BLU;","P01 018003SCOCIG"
"03018099999","2010-08-11T11:50:00","4","53.581575","-3.055522","11.27","WOODVALE, UK","FM-15","EGOW ","V020","280,1,N,0082,1","00300,1,C,N","011265,1,N,1","+0160,1","+0130,1","99999,9","07,5,+00300,1,99,9",,,"07,99,1,99,9,99,9,99999,9,99,9,99,9","10129,1,99999,9",,,,"MET055METAR EGOW 111150Z 28016KT 9999 BKN010 16/13 Q1013 GRN;",
"03018099999","2010-08-11T12:50:00","4","53.581575","-3.055522","11.27","WOODVALE, UK","FM-15","EGOW ","V020","280,1,N,0072,1","00900,1,C,N","011265,1,N,1","+0160,1","+0130,1","99999,9","04,5,+00300,1,99,9","07,5,+00900,1,99,9",,"07,99,1,99,9,99,9,99999,9,99,9,99,9","10129,1,99999,9",,,,"MET062METAR EGOW 111250Z 28014KT 9999 SCT010 BKN030 16/13 Q1013 GRN;",
"03018099999","2010-08-12T06:50:00","4","53.581575","-3.055522","11.27","WOODVALE, UK","FM-15","EGOW ","V020","320,1,N,0072,1","00480,1,C,N","011265,1,N,1","+0140,1","+0130,1","99999,9","02,5,+00180,1,99,9","07,5,+00480,1,99,9",,"07,99,1,99,9,99,9,99999,9,99,9,99,9","10139,1,99999,9","61,1",,,"MET066METAR EGOW 120650Z 32014KT 9999 -RA FEW006 BKN016 14/13 Q1014 WHT;",
"03018099999","2010-08-12T07:50:00","4","53.581575","-3.055522","11.27","WOODVALE, UK","FM-15","EGOW ","V020","310,1,N,0067,1","00450,1,C,N","011265,1,N,1","+0150,1","+0130,1","99999,9","02,5,+00270,1,99,9","07,5,+00450,1,99,9",,"07,99,1,99,9,99,9,99999,9,99,9,99,9","10149,1,99999,9","61,1",,,"MET071METAR EGOW 120750Z 31013KT 9999 -RA FEW009 BKN015 15/13 Q1015 RERA WHT;",
"03018099999","2010-08-12T08:50:00","4","53.581575","-3.055522","11.27","WOODVALE, UK","FM-15","EGOW ","V020","330,1,N,0072,1","99999,9,C,N","007000,1,N,1","+0160,1","+0140,1","99999,9","02,5,+00240,1,99,9","04,5,+00450,1,99,9",,"04,99,1,99,9,99,9,99999,9,99,9,99,9","10149,1,99999,9","16,1",,,"MET072METAR EGOW 120850Z 33014KT 7000 VCSH FEW008 SCT015 16/14 Q1015 RERA WHT;","P01 004503SCOCIG"
"03018099999","2010-08-12T09:50:00","4","53.581575","-3.055522","11.27","WOODVALE, UK","FM-15","EGOW ","V020","330,1,N,0082,1","99999,9,C,N","011265,1,N,1","+0170,1","+0130,1","99999,9","02,5,+00270,1,99,9","04,5,+00480,1,99,9",,"04,99,1,99,9,99,9,99999,9,99,9,99,9","10159,1,99999,9","61,1",,,"MET066METAR EGOW 120950Z 33016KT 9999 -RA FEW009 SCT016 17/13 Q1016 WHT;","P01 004803SCOCIG"
"03018099999","2010-08-12T10:50:00","4","53.581575","-3.055522","11.27","WOODVALE, UK","FM-15","EGOW ","V020","320,1,N,0067,1","06600,1,C,N","011265,1,N,1","+0180,1","+0130,1","99999,9","02,5,+00300,1,99,9","02,5,+00300,1,02,5","07,5,+06600,1,99,9","07,99,1,99,9,99,9,99999,9,99,9,99,9","10159,1,99999,9",,,,"MET072METAR EGOW 121050Z 32013KT 9999 FEW010 FEW010TCU BKN220 18/13 Q1016 WHT;",
"03018099999","2010-08-12T11:50:00","4","53.581575","-3.055522","11.27","WOODVALE, UK","FM-15","EGOW ","V020","320,1,N,0082,1","99999,9,C,N","011265,1,N,1","+0170,1","+0130,1","99999,9","02,5,+00480,1,99,9","04,5,+06600,1,99,9",,"04,99,1,99,9,99,9,99999,9,99,9,99,9","10159,1,99999,9",,,,"MET062METAR EGOW 121150Z 32016KT 9999 FEW016 SCT220 17/13 Q1016 BLU;","P01 066003SCOCIG"
"03018099999","2010-08-12T12:50:00","4","53.581575","-3.055522","11.27","WOODVALE, UK","FM-15","EGOW ","V020","320,1,N,0072,1","22000,1,9,N","011265,1,N,1","+0180,1","+0130,1","99999,9","02,5,+00540,1,99,9",,,"02,99,1,99,9,99,9,99999,9,99,9,99,9","10169,1,99999,9",,,,"MET055METAR EGOW 121250Z 32014KT 9999 FEW018 18/13 Q1017 BLU;",
"03018099999","2010-08-12T13:50:00","4","53.581575","-3.055522","11.27","WOODVALE, UK","FM-15","EGOW ","V020","310,1,N,0072,1","22000,1,9,N","011265,1,N,1","+0180,1","+0130,1","99999,9","02,5,+00600,1,09,1",,,"02,99,1,99,9,99,9,99999,9,99,9,99,9","10169,1,99999,9",,,,"MET057METAR EGOW 121350Z 31014KT 9999 FEW020CB 18/13 Q1017 BLU;",
"03018099999","2010-08-12T14:50:00","4","53.581575","-3.055522","11.27","WOODVALE, UK","FM-15","EGOW ","V020","320,1,N,0087,1","22000,1,9,N","011265,1,N,1","+0180,1","+0130,1","99999,9","02,5,+00600,1,09,1",,,"02,99,1,99,9,99,9,99999,9,99,9,99,9","10169,1,99999,9",,,,"MET057METAR EGOW 121450Z 32017KT 9999 FEW020CB 18/13 Q1017 BLU;",
"03018099999","2010-08-13T06:50:00","4","53.581575","-3.055522","11.27","WOODVALE, UK","FM-15","EGOW ","V020","330,1,N,0082,1","00600,1,C,N","011265,1,N,1","+0150,1","+0120,1","99999,9","02,5,+00450,1,99,9","04,5,+00600,1,99,9","07,5,+03000,1,99,9","07,99,1,99,9,99,9,99999,9,99,9,99,9","10180,1,99999,9","61,1",,,"MET073METAR EGOW 130650Z 33016KT 9999 -RA FEW015 SCT020 BKN100 15/12 Q1018 WHT;",
"03018099999","2010-08-13T07:50:00","4","53.581575","-3.055522","11.27","WOODVALE, UK","FM-15","EGOW ","V020","340,1,N,0098,1","03000,1,C,N","011265,1,N,1","+0150,1","+0120,1","99999,9","02,5,+00360,1,99,9","07,5,+03000,1,99,9",,"07,99,1,99,9,99,9,99999,9,99,9,99,9","10190,1,99999,9",,,,"MET062METAR EGOW 130750Z 34019KT 9999 FEW012 BKN100 15/12 Q1019 BLU;",
"03018099999","2010-08-13T08:50:00","4","53.581575","-3.055522","11.27","WOODVALE, UK","FM-15","EGOW ","V020","340,1,N,0072,1","03000,1,C,N","011265,1,N,1","+0150,1","+0120,1","99999,9","02,5,+00360,1,99,9","07,5,+03000,1,99,9",,"07,99,1,99,9,99,9,99999,9,99,9,99,9","10190,1,99999,9",,,,"MET062METAR EGOW 130850Z 34014KT 9999 FEW012 BKN100 15/12 Q1019 BLU;",
"03018099999","2010-08-13T09:50:00","4","53.581575","-3.055522","11.27","WOODVALE, UK","FM-15","EGOW ","V020","330,1,N,0082,1","03000,1,C,N","011265,1,N,1","+0160,1","+0120,1","99999,9","02,5,+00600,1,99,9","04,5,+03000,1,99,9","07,5,+06000,1,99,9","07,99,1,99,9,99,9,99999,9,99,9,99,9","10190,1,99999,9",,,,"MET069METAR EGOW 130950Z 33016KT 9999 FEW020 SCT100 BKN200 16/12 Q1019 BLU;",
"03018099999","2010-08-13T10:50:00","4","53.581575","-3.055522","11.27","WOODVALE, UK","FM-15","EGOW ","V020","340,1,N,0082,1","03000,1,C,N","011265,1,N,1","+0160,1","+0130,1","99999,9","04,5,+00600,1,99,9","04,5,+03000,1,99,9","07,5,+06000,1,99,9","07,99,1,99,9,99,9,99999,9,99,9,99,9","10190,1,99999,9",,,,"MET069METAR EGOW 131050Z 34016KT 9999 SCT020 SCT100 BKN200 16/13 Q1019 WHT;",
"03018099999","2010-08-13T11:50:00","4","53.581575","-3.055522","11.27","WOODVALE, UK","FM-15","EGOW ","V020","360,1,N,0082,1","06000,1,C,N","011265,1,N,1","+0180,1","+0130,1","99999,9","04,5,+00600,1,99,9","07,5,+06000,1,99,9",,"07,99,1,99,9,99,9,99999,9,99,9,99,9","10190,1,99999,9",,,,"MET062METAR EGOW 131150Z 36016KT 9999 SCT020 BKN200 18/13 Q1019 WHT;",
"03018099999","2010-08-13T12:50:00","4","53.581575","-3.055522","11.27","WOODVALE, UK","FM-15","EGOW ","V020","320,1,N,0093,1","99999,9,C,N","011265,1,N,1","+0180,1","+0130,1","99999,9","02,5,+00600,1,99,9","04,5,+01200,1,99,9",,"04,99,1,99,9,99,9,99999,9,99,9,99,9","10200,1,99999,9",,,,"MET062METAR EGOW 131250Z 32018KT 9999 FEW020 SCT040 18/13 Q1020 BLU;","P01 012003SCOCIG"
"03018099999","2010-08-13T14:50:00","4","53.581575","-3.055522","11.27","WOODVALE, UK","FM-15","EGOW ","V020","010,1,N,0057,1","99999,9,C,N","011265,1,N,1","+0170,1","+0110,1","99999,9","02,5,+00450,1,99,9","04,5,+00900,1,99,9",,"04,99,1,99,9,99,9,99999,9,99,9,99,9","10200,1,99999,9","61,1",,,"MET066METAR EGOW 131450Z 01011KT 9999 -RA FEW015 SCT030 17/11 Q1020 BLU;","P01 009003SCOCIG"
"03018099999","2010-08-16T06:50:00","4","53.581575","-3.055522","11.27","WOODVALE, UK","FM-15","EGOW ","V020","310,1,N,0026,1","22000,1,9,N","008000,1,N,1","+0160,1","+0140,1","99999,9","02,5,+00300,1,99,9",,,"02,99,1,99,9,99,9,99999,9,99,9,99,9","10190,1,99999,9","05,1",,,"MET058METAR EGOW 160650Z 31005KT 8000 HZ FEW010 16/14 Q1019 BLU;",
"03018099999","2010-08-16T07:50:00","4","53.581575","-3.055522","11.27","WOODVALE, UK","FM-15","EGOW ","V020","330,1,N,0057,1","22000,1,9,N","011265,1,N,1","+0180,1","+0150,1","99999,9","02,5,+00750,1,99,9",,,"02,99,1,99,9,99,9,99999,9,99,9,99,9","10190,1,99999,9",,,,"MET055METAR EGOW 160750Z 33011KT 9999 FEW025 18/15 Q1019 BLU;",
"03018099999","2010-08-16T08:50:00","4","53.581575","-3.055522","11.27","WOODVALE, UK","FM-15","EGOW ","V020","330,1,N,0051,1","99999,9,9,Y","009900,1,N,1","+0190,1","+0140,1","99999,9",,,,,"10190,1,99999,9",,,,"MET049METAR EGOW 160850Z 33010KT CAVOK 19/14 Q1019 BLU;",
"03018099999","2010-08-16T10:50:00","4","53.581575","-3.055522","11.27","WOODVALE, UK","FM-15","EGOW ","V020","290,1,N,0051,1","22000,1,9,N","011265,1,N,1","+0200,1","+0140,1","99999,9","02,5,+00900,1,99,9",,,"02,99,1,99,9,99,9,99999,9,99,9,99,9","10190,1,99999,9",,,,"MET055METAR EGOW 161050Z 29010KT 9999 FEW030 20/14 Q1019 BLU;",
"03018099999","2010-08-16T12:50:00","4","53.581575","-3.055522","11.27","WOODVALE, UK","FM-15","EGOW ","V020","290,1,N,0051,1","22000,1,9,N","011265,1,N,1","+0190,1","+0130,1","99999,9","02,5,+00900,1,99,9",,,"02,99,1,99,9,99,9,99999,9,99,9,99,9","10180,1,99999,9",,,,"MET055METAR EGOW 161250Z 29010KT 9999 FEW030 19/13 Q1018 BLU;",
"03018099999","2010-08-16T13:50:00","4","53.581575","-3.055522","11.27","WOODVALE, UK","FM-15","EGOW ","V020","290,1,N,0067,1","00270,1,C,N","009000,1,N,1","+0180,1","+0150,1","99999,9","07,5,+00270,1,99,9",,,"07,99,1,99,9,99,9,99999,9,99,9,99,9","10169,1,99999,9",,,,"MET055METAR EGOW 161350Z 29013KT 9000 BKN009 18/15 Q1017 GRN;",
"03018099999","2010-08-17T06:50:00","4","53.581575","-3.055522","11.27","WOODVALE, UK","FM-15","EGOW ","V020","160,1,N,0036,1","00030,1,C,N","002000,1,N,1","+0140,1","+0140,1","99999,9","08,5,+00030,1,99,9",,,"08,99,1,99,9,99,9,99999,9,99,9,99,9","10091,1,99999,9","61,1",,,"MET059METAR EGOW 170650Z 16007KT 2000 -RA OVC001 14/14 Q1009 RED;",
"03018099999","2010-08-17T07:50:00","4","53.581575","-3.055522","11.27","WOODVALE, UK","FM-15","EGOW ","V020","270,1,N,0041,1","00090,1,C,N","003000,1,N,1","+0160,1","+0160,1","99999,9","07,5,+00090,1,99,9","08,5,+00150,1,99,9",,"08,99,1,99,9,99,9,99999,9,99,9,99,9","10091,1,99999,9","61,1",,,"MET067METAR EGOW 170750Z 27008KT 3000 -RA BKN003 OVC005 16/16 Q1009 YLO2;",
"03018099999","2010-08-17T08:50:00","4","53.581575","-3.055522","11.27","WOODVALE, UK","FM-15","EGOW ","V020","310,1,N,0041,1","00120,1,C,N","003000,1,N,1","+0160,1","+0160,1","99999,9","07,5,+00120,1,99,9","08,5,+00270,1,99,9",,"08,99,1,99,9,99,9,99999,9,99,9,99,9","10091,1,99999,9","61,1",,,"MET067METAR EGOW 170850Z 31008KT 3000 -RA BKN004 OVC009 16/16 Q1009 YLO2;",
"03018099999","2010-08-17T09:50:00","4","53.581575","-3.055522","11.27","WOODVALE, UK","FM-15","EGOW ","V020","300,1,N,0041,1","00180,1,C,N","006000,1,N,1","+0160,1","+0160,1","99999,9","07,5,+00180,1,99,9",,,"07,99,1,99,9,99,9,99999,9,99,9,99,9","10091,1,99999,9","16,1",,,"MET061METAR EGOW 170950Z 30008KT 6000 VCSH BKN006 16/16 Q1009 YLO1;",
"03018099999","2010-08-17T10:50:00","4","53.581575","-3.055522","11.27","WOODVALE, UK","FM-15","EGOW ","V020","300,1,N,0041,1","00270,1,C,N","006000,1,N,1","+0160,1","+0160,1","99999,9","04,5,+00120,1,99,9","07,5,+00270,1,99,9",,"07,99,1,99,9,99,9,99999,9,99,9,99,9","10091,1,99999,9","16,1",,,"MET068METAR EGOW 171050Z 30008KT 6000 VCSH SCT004 BKN009 16/16 Q1009 YLO2;",
"03018099999","2010-08-17T11:50:00","4","53.581575","-3.055522","11.27","WOODVALE, UK","FM-15","EGOW ","V020","290,1,N,0051,1","00210,1,C,N","011265,1,N,1","+0170,1","+0150,1","99999,9","02,5,+00180,1,99,9","07,5,+00210,1,99,9",,"07,99,1,99,9,99,9,99999,9,99,9,99,9","10091,1,99999,9","16,1",,,"MET067METAR EGOW 171150Z 29010KT 9999 VCSH FEW006 BKN007 17/15 Q1009 GRN;",
"03018099999","2010-08-17T12:50:00","4","53.581575","-3.055522","11.27","WOODVALE, UK","FM-15","EGOW ","V020","310,1,N,0072,1","00180,1,C,N","011265,1,N,1","+0170,1","+0150,1","99999,9","02,5,+00150,1,99,9","07,5,+00180,1,99,9",,"07,99,1,99,9,99,9,99999,9,99,9,99,9","10091,1,99999,9","16,1",,,"MET068METAR EGOW 171250Z 31014KT 9999 VCSH FEW005 BKN006 17/15 Q1009 YLO1;",
"03018099999","2010-08-17T13:50:00","4","53.581575","-3.055522","11.27","WOODVALE, UK","FM-15","EGOW ","V020","310,1,N,0072,1","00210,1,C,N","006000,1,N,1","+0160,1","+0140,1","99999,9","08,5,+00210,1,99,9",,,"08,99,1,99,9,99,9,99999,9,99,9,99,9","10091,1,99999,9","16,1",,,"MET060METAR EGOW 171350Z 31014KT 6000 VCSH OVC007 16/14 Q1009 GRN;",
"03018099999","2010-08-18T06:50:00","4","53.581575","-3.055522","11.27","WOODVALE, UK","FM-15","EGOW ","V020","280,1,N,0062,1","01500,1,C,N","011265,1,N,1","+0150,1","+0120,1","99999,9","02,5,+00360,1,02,1","07,5,+01500,1,99,9",,"07,99,1,99,9,99,9,99999,9,99,9,99,9","10061,1,99999,9",,,,"MET065METAR EGOW 180650Z 28012KT 9999 FEW012TCU BKN050 15/12 Q1006 BLU;",
"03018099999","2010-08-18T07:50:00","4","53.581575","-3.055522","11.27","WOODVALE, UK","FM-15","EGOW ","V020","260,1,N,0062,1","99999,9,C,N","011265,1,N,1","+0160,1","+0120,1","99999,9","02,5,+00540,1,99,9","04,5,+01350,1,99,9",,"04,99,1,99,9,99,9,99999,9,99,9,99,9","10061,1,99999,9",,,,"MET062METAR EGOW 180750Z 26012KT 9999 FEW018 SCT045 16/12 Q1006 BLU;","P01 013503SCOCIG"
"03018099999","2010-08-18T08:50:00","4","53.581575","-3.055522","11.27","WOODVALE, UK","FM-15","EGOW ","V020","260,1,N,0057,1","01350,1,C,N","011265,1,N,1","+0160,1","+0120,1","99999,9","02,5,+00540,1,99,9","04,5,+01350,1,99,9","07,5,+02400,1,99,9","07,99,1,99,9,99,9,99999,9,99,9,99,9","10061,1,99999,9",,,,"MET069METAR EGOW 180850Z 26011KT 9999 FEW018 SCT045 BKN080 16/12 Q1006 BLU;",
"03018099999","2010-08-18T09:50:00","4","53.581575","-3.055522","11.27","WOODVALE, UK","FM-15","EGOW ","V020","250,1,N,0051,1","01200,1,C,N","011265,1,N,1","+0170,1","+0100,1","99999,9","02,5,+00360,1,99,9","04,5,+01200,1,99,9","07,5,+02400,1,99,9","07,99,1,99,9,99,9,99999,9,99,9,99,9","10061,1,99999,9","16,1",,,"MET074METAR EGOW 180950Z 25010KT 9999 VCSH FEW012 SCT040 BKN080 17/10 Q1006 BLU;",
"03018099999","2010-08-18T10:50:00","4","53.581575","-3.055522","11.27","WOODVALE, UK","FM-15","EGOW ","V020","260,1,N,0077,1","99999,9,C,N","011265,1,N,1","+0150,1","+0120,1","99999,9","02,5,+00450,1,99,9","04,5,+01350,1,99,9",,"04,99,1,99,9,99,9,99999,9,99,9,99,9","10061,1,99999,9",,,,"MET062METAR EGOW 181050Z 26015KT 9999 FEW015 SCT045 15/12 Q1006 BLU;","P01 013503SCOCIG"
"03018099999","2010-08-18T11:50:00","4","53.581575","-3.055522","11.27","WOODVALE, UK","FM-15","EGOW ","V020","270,1,N,0072,1","99999,9,C,N","011265,1,N,1","+0170,1","+0120,1","99999,9","02,5,+00450,1,99,9","04,5,+01350,1,99,9",,"04,99,1,99,9,99,9,99999,9,99,9,99,9","10061,1,99999,9","16,1",,,"MET067METAR EGOW 181150Z 27014KT 9999 VCSH FEW015 SCT045 17/12 Q1006 BLU;","P01 013503SCOCIG"
"03018099999","2010-08-18T12:50:00","4","53.581575","-3.055522","11.27","WOODVALE, UK","FM-15","EGOW ","V020","270,1,N,0072,1","99999,9,C,N","011265,1,N,1","+0170,1","+0120,1","99999,9","02,5,+00450,1,99,9","04,5,+01350,1,99,9",,"04,99,1,99,9,99,9,99999,9,99,9,99,9","10061,1,99999,9",,,,"MET062METAR EGOW 181250Z 27014KT 9999 FEW015 SCT045 17/12 Q1006 BLU;","P01 013503SCOCIG"
"03018099999","2010-08-18T13:50:00","4","53.581575","-3.055522","11.27","WOODVALE, UK","FM-15","EGOW ","V020","280,1,N,0072,1","99999,9,C,N","011265,1,N,1","+0170,1","+0120,1","99999,9","02,5,+00720,1,02,1","04,5,+00900,1,99,9",,"04,99,1,99,9,99,9,99999,9,99,9,99,9","10051,1,99999,9",,,,"MET065METAR EGOW 181350Z 28014KT 9999 FEW024TCU SCT030 17/12 Q1005 BLU;","P01 009003SCOCIG"
"03018099999","2010-08-18T14:50:00","4","53.581575","-3.055522","11.27","WOODVALE, UK","FM-15","EGOW ","V020","270,1,N,0072,1","22000,1,9,N","011265,1,N,1","+0180,1","+0120,1","99999,9","02,5,+00600,1,02,1","02,5,+00750,1,99,9",,"02,99,1,99,9,99,9,99999,9,99,9,99,9","10051,1,99999,9",,,,"MET065METAR EGOW 181450Z 27014KT 9999 FEW020TCU FEW025 18/12 Q1005 BLU;",
"03018099999","2010-08-19T06:50:00","4","53.581575","-3.055522","11.27","WOODVALE, UK","FM-15","EGOW ","V020","180,1,N,0041,1","99999,9,C,N","011265,1,N,1","+0140,1","+0130,1","99999,9","02,5,+00360,1,99,9","04,5,+00480,1,02,5",,"04,99,1,99,9,99,9,99999,9,99,9,99,9","10071,1,99999,9",,,,"MET065METAR EGOW 190650Z 18008KT 9999 FEW012 SCT016TCU 14/13 Q1007 WHT;","P01 004803SCOCIG"
"03018099999","2010-08-19T07:50:00","4","53.581575","-3.055522","11.27","WOODVALE, UK","FM-15","EGOW ","V020","190,1,N,0051,1","22000,1,9,N","011265,1,N,1","+0160,1","+0120,1","99999,9","02,5,+00480,1,02,1",,,"02,99,1,99,9,99,9,99999,9,99,9,99,9","10081,1,99999,9",,,,"MET058METAR EGOW 190750Z 19010KT 9999 FEW016TCU 16/12 Q1008 BLU;",
"03018099999","2010-08-19T08:50:00","4","53.581575","-3.055522","11.27","WOODVALE, UK","FM-15","EGOW ","V020","220,1,N,0046,1","22000,1,9,N","011265,1,N,1","+0170,1","+0110,1","99999,9","04,5,+00840,1,99,9",,,"04,99,1,99,9,99,9,99999,9,99,9,99,9","10081,1,99999,9",,,,"MET055METAR EGOW 190850Z 22009KT 9999 SCT028 17/11 Q1008 BLU;",
"03018099999","2010-08-19T09:50:00","4","53.581575","-3.055522","11.27","WOODVALE, UK","FM-15","EGOW ","V020","200,1,N,0057,1","22000,1,9,N","011265,1,N,1","+0180,1","+0110,1","99999,9","04,5,+00840,1,99,9",,,"04,99,1,99,9,99,9,99999,9,99,9,99,9","10091,1,99999,9",,,,"MET055METAR EGOW 190950Z 20011KT 9999 SCT028 18/11 Q1009 BLU;",
"03018099999","2010-08-19T10:40:00","4","53.581575","-3.055522","11.27","WOODVALE, UK","FM-15","EGOW ","V020","210,1,N,0051,1","22000,1,9,N","011265,1,N,1","+0180,1","+0110,1","99999,9","04,5,+00600,1,99,9",,,"04,99,1,99,9,99,9,99999,9,99,9,99,9","10091,1,99999,9",,,,"MET055METAR EGOW 191040Z 21010KT 9999 SCT020 18/11 Q1009 WHT;",
"03018099999","2010-08-19T10:50:00","4","53.581575","-3.055522","11.27","WOODVALE, UK","FM-15","EGOW ","V020","240,1,N,0057,1","22000,1,9,N","011265,1,N,1","+0180,1","+0110,1","99999,9","04,5,+00840,1,99,9",,,"04,99,1,99,9,99,9,99999,9,99,9,99,9","10091,1,99999,9",,,,"MET055METAR EGOW 191050Z 24011KT 9999 SCT028 18/11 Q1009 BLU;",
"03018099999","2010-08-19T11:50:00","4","53.581575","-3.055522","11.27","WOODVALE, UK","FM-15","EGOW ","V020","200,1,N,0062,1","22000,1,9,N","011265,1,N,1","+0180,1","+0100,1","99999,9","04,5,+01050,1,99,9",,,"04,99,1,99,9,99,9,99999,9,99,9,99,9","10091,1,99999,9",,,,"MET055METAR EGOW 191150Z 20012KT 9999 SCT035 18/10 Q1009 BLU;",
"03018099999","2010-08-19T12:50:00","4","53.581575","-3.055522","11.27","WOODVALE, UK","FM-15","EGOW ","V020","220,1,N,0067,1","99999,9,C,N","011265,1,N,1","+0190,1","+0110,1","99999,9","02,5,+01050,1,99,9","04,5,+02400,1,99,9",,"04,99,1,99,9,99,9,99999,9,99,9,99,9","10091,1,99999,9",,,,"MET062METAR EGOW 191250Z 22013KT 9999 FEW035 SCT080 19/11 Q1009 BLU;","P01 024003SCOCIG"
"03018099999","2010-08-20T06:50:00","4","53.581575","-3.055522","11.27","WOODVALE, UK","FM-15","EGOW ","V020","160,1,N,0072,1","00900,1,C,N","011265,1,N,1","+0180,1","+0170,1","99999,9","04,5,+00360,1,99,9","07,5,+00900,1,99,9",,"07,99,1,99,9,99,9,99999,9,99,9,99,9","10061,1,99999,9","63,1",,,"MET065METAR EGOW 200650Z 16014KT 9999 RA SCT012 BKN030 18/17 Q1006 GRN;",
"03018099999","2010-08-20T08:50:00","4","53.581575","-3.055522","11.27","WOODVALE, UK","FM-15","EGOW ","V020","170,1,N,0062,1","00750,1,C,N","011265,1,N,1","+0190,1","+0180,1","99999,9","02,5,+00540,1,99,9","04,5,+00750,1,99,9","07,5,+01200,1,99,9","07,99,1,99,9,99,9,99999,9,99,9,99,9","10071,1,99999,9",,,,"MET069METAR EGOW 200850Z 17012KT 9999 FEW018 SCT025 BKN040 19/18 Q1007 BLU;",
"03018099999","2010-08-20T09:50:00","4","53.581575","-3.055522","11.27","WOODVALE, UK","FM-15","EGOW ","V020","180,1,N,0082,1","99999,9,C,N","011265,1,N,1","+0220,1","+0180,1","99999,9","02,5,+00450,1,99,9","04,5,+00660,1,99,9",,"04,99,1,99,9,99,9,99999,9,99,9,99,9","10071,1,99999,9",,,,"MET062METAR EGOW 200950Z 18016KT 9999 FEW015 SCT022 22/18 Q1007 WHT;","P01 006603SCOCIG"
"03018099999","2010-08-20T10:50:00","4","53.581575","-3.055522","11.27","WOODVALE, UK","FM-15","EGOW ","V020","200,1,N,0082,1","99999,9,C,N","011265,1,N,1","+0200,1","+0190,1","99999,9","02,5,+00450,1,99,9","04,5,+00660,1,99,9",,"04,99,1,99,9,99,9,99999,9,99,9,99,9","10071,1,99999,9",,,,"MET062METAR EGOW 201050Z 20016KT 9999 FEW015 SCT022 20/19 Q1007 WHT;","P01 006603SCOCIG"
"03018099999","2010-08-20T11:50:00","4","53.581575","-3.055522","11.27","WOODVALE, UK","FM-15","EGOW ","V020","200,1,N,0082,1","99999,9,C,N","011265,1,N,1","+0220,1","+0190,1","99999,9","02,5,+00660,1,99,9","04,5,+00810,1,99,9",,"04,99,1,99,9,99,9,99999,9,99,9,99,9","10071,1,99999,9",,,,"MET062METAR EGOW 201150Z 20016KT 9999 FEW022 SCT027 22/19 Q1007 BLU;","P01 008103SCOCIG"
"03018099999","2010-08-20T12:50:00","4","53.581575","-3.055522","11.27","WOODVALE, UK","FM-15","EGOW ","V020","200,1,N,0077,1","99999,9,C,N","011265,1,N,1","+0220,1","+0180,1","99999,9","02,5,+00540,1,99,9","04,5,+00840,1,99,9",,"04,99,1,99,9,99,9,99999,9,99,9,99,9","10081,1,99999,9","61,1",,,"MET066METAR EGOW 201250Z 20015KT 9999 -RA FEW018 SCT028 22/18 Q1008 BLU;","P01 008403SCOCIG"
"03018099999","2010-08-23T06:50:00","4","53.581575","-3.055522","11.27","WOODVALE, UK","FM-15","EGOW ","V020","010,1,N,0026,1","02100,1,C,N","011265,1,N,1","+0150,1","+9999,9","99999,9","07,5,+02100,1,99,9",,,"07,99,1,99,9,99,9,99999,9,99,9,99,9","09980,1,99999,9","61,1",,,"MET059METAR EGOW 230650Z 01005KT 9999 -RA BKN070 15/// Q0998 BLU;",
"03018099999","2010-08-23T07:50:00","4","53.581575","-3.055522","11.27","WOODVALE, UK","FM-15","EGOW ","V020","999,9,C,0000,1","99999,9,9,Y","009900,1,N,1","+0150,1","+9999,9","99999,9",,,,,"09980,1,99999,9",,,,"MET049METAR EGOW 230750Z 00000KT CAVOK 15/// Q0998 BLU;",
"03018099999","2010-08-23T08:50:00","4","53.581575","-3.055522","11.27","WOODVALE, UK","FM-15","EGOW ","V020","999,9,C,0000,1","01200,1,C,N","004500,1,N,1","+0150,1","+9999,9","99999,9","04,5,+00750,1,99,9","07,5,+01200,1,99,9",,"07,99,1,99,9,99,9,99999,9,99,9,99,9","09980,1,99999,9","53,1",,,"MET065METAR EGOW 230850Z 00000KT 4500 DZ SCT025 BKN040 15/// Q0998 GRN;",
"03018099999","2010-08-23T09:50:00","4","53.581575","-3.055522","11.27","WOODVALE, UK","FM-15","EGOW ","V020","999,9,C,0000,1","00540,1,C,N","004500,1,N,1","+0150,1","+0130,1","99999,9","02,5,+00090,1,99,9","04,5,+00540,1,99,9","07,5,+01200,1,99,9","07,99,1,99,9,99,9,99999,9,99,9,99,9","09970,1,99999,9","51,1",,,"MET073METAR EGOW 230950Z 00000KT 4500 -DZ FEW003 SCT018 BKN040 15/13 Q0997 GRN;",
"03018099999","2010-08-23T10:50:00","4","53.581575","-3.055522","11.27","WOODVALE, UK","FM-15","EGOW ","V020","280,1,N,0072,1","00600,1,C,N","005000,1,N,1","+0150,1","+0130,1","99999,9","02,5,+00060,1,99,9","04,5,+00600,1,99,9","07,5,+01050,1,99,9","07,99,1,99,9,99,9,99999,9,99,9,99,9","09970,1,99999,9","61,1",,,"MET073METAR EGOW 231050Z 28014KT 5000 -RA FEW002 SCT020 BKN035 15/13 Q0997 WHT;",
"03018099999","2010-08-23T11:50:00","4","53.581575","-3.055522","11.27","WOODVALE, UK","FM-15","EGOW ","V020","280,1,N,0051,1","00660,1,C,N","011265,1,N,1","+0150,1","+0110,1","99999,9","02,5,+00540,1,99,9","04,5,+00660,1,99,9","07,5,+01200,1,99,9","07,99,1,99,9,99,9,99999,9,99,9,99,9","09970,1,99999,9",,,"0103,1","MET072METAR EGOW 231150Z 28010G20KT 9999 FEW018 SCT022 BKN040 15/11 Q0997 WHT;",
"03018099999","2010-08-23T12:50:00","4","53.581575","-3.055522","11.27","WOODVALE, UK","FM-15","EGOW ","V020","270,1,N,0041,1","01500,1,C,N","011265,1,N,1","+0160,1","+0120,1","99999,9","04,5,+00540,1,99,9","07,5,+01500,1,99,9",,"07,99,1,99,9,99,9,99999,9,99,9,99,9","09970,1,99999,9","61,1",,,"MET066METAR EGOW 231250Z 27008KT 9999 -RA SCT018 BKN050 16/12 Q0997 WHT;",
"03018099999","2010-08-23T13:50:00","4","53.581575","-3.055522","11.27","WOODVALE, UK","FM-15","EGOW ","V020","260,1,N,0057,1","00780,1,C,N","011265,1,N,1","+0150,1","+0130,1","99999,9","04,5,+00300,1,99,9","07,5,+00780,1,99,9",,"07,99,1,99,9,99,9,99999,9,99,9,99,9","09970,1,99999,9","61,1",,,"MET066METAR EGOW 231350Z 26011KT 9999 -RA SCT010 BKN026 15/13 Q0997 GRN;",
"03018099999","2010-08-23T14:50:00","4","53.581575","-3.055522","11.27","WOODVALE, UK","FM-15","EGOW ","V020","270,1,N,0072,1","00780,1,C,N","011265,1,N,1","+0140,1","+0130,1","99999,9","04,5,+00360,1,99,9","07,5,+00780,1,99,9",,"07,99,1,99,9,99,9,99999,9,99,9,99,9","09970,1,99999,9","16,1",,,"MET067METAR EGOW 231450Z 27014KT 9999 VCSH SCT012 BKN026 14/13 Q0997 GRN;",
"03018099999","2010-08-24T06:50:00","4","53.581575","-3.055522","11.27","WOODVALE, UK","FM-15","EGOW ","V020","260,1,N,0108,1","00660,1,C,N","011265,1,N,1","+0140,1","+0100,1","99999,9","02,5,+00450,1,99,9","07,5,+00660,1,02,5",,"07,99,1,99,9,99,9,99999,9,99,9,99,9","10010,1,99999,9","16,1",,"0170,1","MET073METAR EGOW 240650Z 26021G33KT 9999 VCSH FEW015 BKN022TCU 14/10 Q1001 WHT;",
"03018099999","2010-08-24T07:50:00","4","53.581575","-3.055522","11.27","WOODVALE, UK","FM-15","EGOW ","V020","280,1,N,0103,1","99999,9,C,N","011265,1,N,1","+0140,1","+0080,1","99999,9","02,5,+00450,1,99,9","04,5,+00600,1,99,9",,"04,99,1,99,9,99,9,99999,9,99,9,99,9","10010,1,99999,9","81,1",,"0154,1","MET070METAR EGOW 240750Z 28020G30KT 9999 SHRA FEW015 SCT020 14/08 Q1001 WHT;","P01 006003SCOCIG"
"03018099999","2010-08-24T08:50:00","4","53.581575","-3.055522","11.27","WOODVALE, UK","FM-15","EGOW ","V020","290,1,N,0087,1","00450,1,C,N","006000,1,N,1","+0110,1","+0090,1","99999,9","04,5,+00240,1,99,9","07,5,+00450,1,99,9",,"07,99,1,99,9,99,9,99999,9,99,9,99,9","10020,1,99999,9","82,1",,"0149,1","MET071METAR EGOW 240850Z 29017G29KT 6000 +SHRA SCT008 BKN015 11/09 Q1002 GRN;",
"03018099999","2010-08-24T09:50:00","4","53.581575","-3.055522","11.27","WOODVALE, UK","FM-15","EGOW ","V020","280,1,N,0093,1","00450,1,C,N","006000,1,N,1","+0120,1","+0100,1","99999,9","04,5,+00240,1,99,9","07,5,+00450,1,99,9",,"07,99,1,99,9,99,9,99999,9,99,9,99,9","10020,1,99999,9","63,1",,"0165,1","MET068METAR EGOW 240950Z 28018G32KT 6000 RA SCT008 BKN015 12/10 Q1002 GRN;",
"03018099999","2010-08-24T10:50:00","4","53.581575","-3.055522","11.27","WOODVALE, UK","FM-15","EGOW ","V020","270,1,N,0082,1","00240,1,C,N","003500,1,N,1","+0130,1","+0110,1","99999,9","02,5,+00150,1,99,9","04,5,+00240,1,99,9","07,5,+00600,1,99,9","07,99,1,99,9,99,9,99999,9,99,9,99,9","10031,1,99999,9","65,1",,"0170,1","MET077METAR EGOW 241050Z 27016G33KT 3500 +RA FEW005 SCT008 BKN020 13/11 Q1003 YLO1;",
"03018099999","2010-08-24T11:50:00","4","53.581575","-3.055522","11.27","WOODVALE, UK","FM-15","EGOW ","V020","260,1,N,0108,1","00450,1,C,N","004000,1,N,1","+0140,1","+0120,1","99999,9","04,5,+00150,1,99,9","07,5,+00450,1,99,9",,"07,99,1,99,9,99,9,99999,9,99,9,99,9","10031,1,99999,9","63,1",,,"MET066METAR EGOW 241150Z 26021KT 4000 RA SCT005 BKN015 14/12 Q1003 YLO1;",
"03018099999","2010-08-24T12:50:00","4","53.581575","-3.055522","11.27","WOODVALE, UK","FM-15","EGOW ","V020","270,1,N,0113,1","00450,1,C,N","008000,1,N,1","+0150,1","+0130,1","99999,9","04,5,+00240,1,99,9","07,5,+00450,1,99,9",,"07,99,1,99,9,99,9,99999,9,99,9,99,9","10041,1,99999,9","16,1",,,"MET067METAR EGOW 241250Z 27022KT 8000 VCSH SCT008 BKN015 15/13 Q1004 GRN;",
"03018099999","2010-08-25T06:50:00","4","53.581575","-3.055522","11.27","WOODVALE, UK","FM-15","EGOW ","V020","300,1,N,0026,1","99999,9,C,N","011265,1,N,1","+0140,1","+0100,1","99999,9","02,5,+00540,1,99,9","04,5,+00690,1,99,9",,"04,99,1,99,9,99,9,99999,9,99,9,99,9","10129,1,99999,9",,,,"MET062METAR EGOW 250650Z 30005KT 9999 FEW018 SCT023 14/10 Q1013 WHT;","P01 006903SCOCIG"
"03018099999","2010-08-25T07:50:00","4","53.581575","-3.055522","11.27","WOODVALE, UK","FM-15","EGOW ","V020","280,1,N,0031,1","99999,9,C,N","011265,1,N,1","+0160,1","+0090,1","99999,9","02,5,+00540,1,99,9","04,5,+00690,1,99,9",,"04,99,1,99,9,99,9,99999,9,99,9,99,9","10129,1,99999,9",,,,"MET062METAR EGOW 250750Z 28006KT 9999 FEW018 SCT023 16/09 Q1013 WHT;","P01 006903SCOCIG"
"03018099999","2010-08-25T08:50:00","4","53.581575","-3.055522","11.27","WOODVALE, UK","FM-15","EGOW ","V020","310,1,N,0026,1","22000,1,9,N","011265,1,N,1","+0170,1","+0090,1","99999,9","02,5,+00750,1,99,9",,,"02,99,1,99,9,99,9,99999,9,99,9,99,9","10129,1,99999,9",,,,"MET055METAR EGOW 250850Z 31005KT 9999 FEW025 17/09 Q1013 WHT;",
"03018099999","2010-08-25T09:50:00","4","53.581575","-3.055522","11.27","WOODVALE, UK","FM-15","EGOW ","V020","240,1,N,0036,1","22000,1,9,N","011265,1,N,1","+0170,1","+0090,1","99999,9","02,5,+00750,1,99,9",,,"02,99,1,99,9,99,9,99999,9,99,9,99,9","10139,1,99999,9",,,,"MET055METAR EGOW 250950Z 24007KT 9999 FEW025 17/09 Q1014 WHT;",
"03018099999","2010-08-25T10:50:00","4","53.581575","-3.055522","11.27","WOODVALE, UK","FM-15","EGOW ","V020","240,1,N,0026,1","99999,9,C,N","011265,1,N,1","+0180,1","+0100,1","99999,9","02,5,+00750,1,99,9","04,5,+03000,1,99,9",,"04,99,1,99,9,99,9,99999,9,99,9,99,9","10129,1,99999,9",,,,"MET062METAR EGOW 251050Z 24005KT 9999 FEW025 SCT100 18/10 Q1013 BLU;","P01 030003SCOCIG"
"03018099999","2010-08-25T11:50:00","4","53.581575","-3.055522","11.27","WOODVALE, UK","FM-15","EGOW ","V020","999,9,C,0000,1","99999,9,C,N","011265,1,N,1","+0170,1","+0090,1","99999,9","02,5,+00900,1,99,9","04,5,+03000,1,99,9",,"04,99,1,99,9,99,9,99999,9,99,9,99,9","10129,1,99999,9",,,,"MET062METAR EGOW 251150Z 00000KT 9999 FEW030 SCT100 17/09 Q1013 BLU;","P01 030003SCOCIG"
"03018099999","2010-08-25T12:50:00","4","53.581575","-3.055522","11.27","WOODVALE, UK","FM-15","EGOW ","V020","350,1,N,0021,1","06000,1,C,N","011265,1,N,1","+0170,1","+0090,1","99999,9","02,5,+00960,1,99,9","08,5,+06000,1,99,9",,"08,99,1,99,9,99,9,99999,9,99,9,99,9","10129,1,99999,9",,,,"MET062METAR EGOW 251250Z 35004KT 9999 FEW032 OVC200 17/09 Q1013 BLU;",
"03018099999","2010-08-25T13:50:00","4","53.581575","-3.055522","11.27","WOODVALE, UK","FM-15","EGOW ","V020","050,1,N,0021,1","06600,1,C,N","011265,1,N,1","+0190,1","+0100,1","99999,9","02,5,+01080,1,99,9","07,5,+06600,1,99,9",,"07,99,1,99,9,99,9,99999,9,99,9,99,9","10119,1,99999,9",,,,"MET062METAR EGOW 251350Z 05004KT 9999 FEW036 BKN220 19/10 Q1012 BLU;",
"03018099999","2010-08-25T14:50:00","4","53.581575","-3.055522","11.27","WOODVALE, UK","FM-15","EGOW ","V020","060,1,N,0036,1","06600,1,C,N","011265,1,N,1","+0190,1","+0100,1","99999,9","02,5,+01080,1,99,9","07,5,+06600,1,99,9",,"07,99,1,99,9,99,9,99999,9,99,9,99,9","10119,1,99999,9",,,,"MET062METAR EGOW 251450Z 06007KT 9999 FEW036 BKN220 19/10 Q1012 BLU;",
"03018099999","2010-08-26T06:50:00","4","53.581575","-3.055522","11.27","WOODVALE, UK","FM-15","EGOW ","V020","030,1,N,0051,1","99999,9,9,Y","009900,1,N,1","+0140,1","+0110,1","99999,9",,,,,"10081,1,99999,9",,,,"MET049METAR EGOW 260650Z 03010KT CAVOK 14/11 Q1008 BLU;",
"03018099999","2010-08-26T07:50:00","4","53.581575","-3.055522","11.27","WOODVALE, UK","FM-15","EGOW ","V020","060,1,N,0057,1","22000,1,9,N","011265,1,N,1","+0150,1","+0110,1","99999,9","02,5,+00600,1,99,9",,,"02,99,1,99,9,99,9,99999,9,99,9,99,9","10081,1,99999,9",,,,"MET055METAR EGOW 260750Z 06011KT 9999 FEW020 15/11 Q1008 BLU;",
"03018099999","2010-08-26T08:50:00","4","53.581575","-3.055522","11.27","WOODVALE, UK","FM-15","EGOW ","V020","070,1,N,0051,1","03000,1,C,N","011265,1,N,1","+0160,1","+0090,1","99999,9","02,5,+00600,1,99,9","07,5,+03000,1,99,9",,"07,99,1,99,9,99,9,99999,9,99,9,99,9","10081,1,99999,9",,,,"MET062METAR EGOW 260850Z 07010KT 9999 FEW020 BKN100 16/09 Q1008 BLU;",
"03018099999","2010-08-26T09:50:00","4","53.581575","-3.055522","11.27","WOODVALE, UK","FM-15","EGOW ","V020","090,1,N,0051,1","03000,1,C,N","011265,1,N,1","+0170,1","+0080,1","99999,9","02,5,+00750,1,99,9","07,5,+03000,1,99,9",,"07,99,1,99,9,99,9,99999,9,99,9,99,9","10091,1,99999,9",,,,"MET062METAR EGOW 260950Z 09010KT 9999 FEW025 BKN100 17/08 Q1009 BLU;",
"03018099999","2010-08-26T10:50:00","4","53.581575","-3.055522","11.27","WOODVALE, UK","FM-15","EGOW ","V020","080,1,N,0062,1","04500,1,C,N","011265,1,N,1","+0180,1","+0090,1","99999,9","02,5,+01080,1,99,9","07,5,+04500,1,99,9",,"07,99,1,99,9,99,9,99999,9,99,9,99,9","10091,1,99999,9",,,,"MET062METAR EGOW 261050Z 08012KT 9999 FEW036 BKN150 18/09 Q1009 BLU;",
"03018099999","2010-08-26T11:50:00","4","53.581575","-3.055522","11.27","WOODVALE, UK","FM-15","EGOW ","V020","060,1,N,0077,1","22000,1,9,N","011265,1,N,1","+0180,1","+0100,1","99999,9","04,5,+01200,1,99,9",,,"04,99,1,99,9,99,9,99999,9,99,9,99,9","10091,1,99999,9",,,,"MET055METAR EGOW 261150Z 06015KT 9999 SCT040 18/10 Q1009 BLU;",
"03018099999","2010-08-26T12:50:00","4","53.581575","-3.055522","11.27","WOODVALE, UK","FM-15","EGOW ","V020","070,1,N,0062,1","04500,1,C,N","011265,1,N,1","+0180,1","+0090,1","99999,9","04,5,+01200,1,99,9","07,5,+04500,1,99,9",,"07,99,1,99,9,99,9,99999,9,99,9,99,9","10081,1,99999,9",,,,"MET062METAR EGOW 261250Z 07012KT 9999 SCT040 BKN150 18/09 Q1008 BLU;",
"03018099999","2010-08-26T13:50:00","4","53.581575","-3.055522","11.27","WOODVALE, UK","FM-15","EGOW ","V020","090,1,N,0057,1","02400,1,C,N","011265,1,N,1","+0180,1","+0090,1","99999,9","02,5,+01200,1,99,9","04,5,+02400,1,99,9","07,5,+03600,1,99,9","07,99,1,99,9,99,9,99999,9,99,9,99,9","10091,1,99999,9",,,,"MET069METAR EGOW 261350Z 09011KT 9999 FEW040 SCT080 BKN120 18/09 Q1009 BLU;",
"03018099999","2010-08-27T06:50:00","4","53.581575","-3.055522","11.27","WOODVALE, UK","FM-15","EGOW ","V020","999,9,C,0000,1","99999,9,9,Y","009900,1,N,1","+0090,1","+0080,1","99999,9",,,,,"10108,1,99999,9",,,,"MET049METAR EGOW 270650Z 00000KT CAVOK 09/08 Q1011 BLU;",
"03018099999","2010-08-27T07:50:00","4","53.581575","-3.055522","11.27","WOODVALE, UK","FM-15","EGOW ","V020","999,9,C,0000,1","99999,9,9,Y","009900,1,N,1","+0130,1","+0080,1","99999,9",,,,,"10119,1,99999,9",,,,"MET049METAR EGOW 270750Z 00000KT CAVOK 13/08 Q1012 BLU;",
"03018099999","2010-08-27T08:50:00","4","53.581575","-3.055522","11.27","WOODVALE, UK","FM-15","EGOW ","V020","999,9,C,0000,1","99999,9,9,Y","009900,1,N,1","+0150,1","+0080,1","99999,9",,,,,"10119,1,99999,9",,,,"MET049METAR EGOW 270850Z 00000KT CAVOK 15/08 Q1012 BLU;",
"03018099999","2010-08-27T09:50:00","4","53.581575","-3.055522","11.27","WOODVALE, UK","FM-15","EGOW ","V020","300,1,N,0031,1","99999,9,9,Y","009900,1,N,1","+0160,1","+0080,1","99999,9",,,,,"10129,1,99999,9",,,,"MET049METAR EGOW 270950Z 30006KT CAVOK 16/08 Q1013 BLU;",
"03018099999","2010-08-27T10:50:00","4","53.581575","-3.055522","11.27","WOODVALE, UK","FM-15","EGOW ","V020","280,1,N,0036,1","22000,1,9,N","999999,9,N,1","+0170,1","+0080,1","99999,9","02,5,+01080,5,99,9",,,,"10130,1,99999,9",,,,"MET050METAR EGOW 271050Z 28007KT FEW036 17/08 Q1013 BLU;",
"03018099999","2010-08-27T11:50:00","4","53.581575","-3.055522","11.27","WOODVALE, UK","FM-15","EGOW ","V020","260,1,N,0041,1","22000,1,9,N","011265,1,N,1","+0170,1","+0090,1","99999,9","02,5,+00960,1,99,9",,,"02,99,1,99,9,99,9,99999,9,99,9,99,9","10129,1,99999,9",,,,"MET055METAR EGOW 271150Z 26008KT 9999 FEW032 17/09 Q1013 BLU;",
"03018099999","2010-08-27T12:50:00","4","53.581575","-3.055522","11.27","WOODVALE, UK","FM-15","EGOW ","V020","270,1,N,0057,1","22000,1,9,N","011265,1,N,1","+0170,1","+0100,1","99999,9","02,5,+00960,1,99,9",,,"02,99,1,99,9,99,9,99999,9,99,9,99,9","10139,1,99999,9",,,,"MET055METAR EGOW 271250Z 27011KT 9999 FEW032 17/10 Q1014 BLU;",
"03018099999","2010-08-27T13:50:00","4","53.581575","-3.055522","11.27","WOODVALE, UK","FM-15","EGOW ","V020","260,1,N,0062,1","22000,1,9,N","011265,1,N,1","+0180,1","+0110,1","99999,9","02,5,+00900,1,02,1",,,"02,99,1,99,9,99,9,99999,9,99,9,99,9","10139,1,99999,9",,,,"MET058METAR EGOW 271350Z 26012KT 9999 FEW030TCU 18/11 Q1014 BLU;",
"03018099999","2010-08-27T14:50:00","4","53.581575","-3.055522","11.27","WOODVALE, UK","FM-15","EGOW ","V020","330,1,N,0051,1","22000,1,9,N","011265,1,N,1","+0170,1","+0120,1","99999,9","02,5,+00900,1,02,1",,,"02,99,1,99,9,99,9,99999,9,99,9,99,9","10149,1,99999,9",,,,"MET058METAR EGOW 271450Z 33010KT 9999 FEW030TCU 17/12 Q1015 BLU;",
"03018099999","2010-09-01T06:50:00","4","53.581575","-3.055522","11.27","WOODVALE, UK","FM-15","EGOW ","V020","120,1,N,0015,1","99999,9,9,Y","009900,1,N,1","+0100,1","+0080,1","99999,9",,,,,"10220,1,99999,9",,,,"MET049METAR EGOW 010650Z 12003KT CAVOK 10/08 Q1022 BLU;",
"03018099999","2010-09-01T07:50:00","4","53.581575","-3.055522","11.27","WOODVALE, UK","FM-15","EGOW ","V020","060,1,N,0021,1","99999,9,9,Y","009900,1,N,1","+0130,1","+0090,1","99999,9",,,,,"10220,1,99999,9",,,,"MET049METAR EGOW 010750Z 06004KT CAVOK 13/09 Q1022 BLU;",
"03018099999","2010-09-01T08:50:00","4","53.581575","-3.055522","11.27","WOODVALE, UK","FM-15","EGOW ","V020","090,1,N,0021,1","99999,9,9,Y","009900,1,N,1","+0160,1","+0100,1","99999,9",,,,,"10220,1,99999,9",,,,"MET049METAR EGOW 010850Z 09004KT CAVOK 16/10 Q1022 BLU;",
"03018099999","2010-09-01T09:50:00","4","53.581575","-3.055522","11.27","WOODVALE, UK","FM-15","EGOW ","V020","090,1,N,0021,1","99999,9,9,Y","009900,1,N,1","+0190,1","+0100,1","99999,9",,,,,"10220,1,99999,9",,,,"MET049METAR EGOW 010950Z 09004KT CAVOK 19/10 Q1022 BLU;",
"03018099999","2010-09-01T10:50:00","4","53.581575","-3.055522","11.27","WOODVALE, UK","FM-15","EGOW ","V020","110,1,N,0015,1","99999,9,9,Y","009900,1,N,1","+0210,1","+0090,1","99999,9",,,,,"10220,1,99999,9",,,,"MET049METAR EGOW 011050Z 11003KT CAVOK 21/09 Q1022 BLU;",
"03018099999","2010-09-01T11:50:00","4","53.581575","-3.055522","11.27","WOODVALE, UK","FM-15","EGOW ","V020","270,1,N,0026,1","22000,1,9,N","011265,1,N,1","+0220,1","+0120,1","99999,9","02,5,+01080,1,99,9",,,"02,99,1,99,9,99,9,99999,9,99,9,99,9","10210,1,99999,9",,,,"MET055METAR EGOW 011150Z 27005KT 9999 FEW036 22/12 Q1021 BLU;",
"03018099999","2010-09-01T12:50:00","4","53.581575","-3.055522","11.27","WOODVALE, UK","FM-15","EGOW ","V020","300,1,N,0031,1","22000,1,9,N","011265,1,N,1","+0200,1","+0100,1","99999,9","02,5,+01200,1,99,9",,,"02,99,1,99,9,99,9,99999,9,99,9,99,9","10210,1,99999,9",,,,"MET055METAR EGOW 011250Z 30006KT 9999 FEW040 20/10 Q1021 BLU;",
"03018099999","2010-09-01T13:50:00","4","53.581575","-3.055522","11.27","WOODVALE, UK","FM-15","EGOW ","V020","310,1,N,0031,1","99999,9,9,Y","009900,1,N,1","+0210,1","+0090,1","99999,9",,,,,"10210,1,99999,9",,,,"MET049METAR EGOW 011350Z 31006KT CAVOK 21/09 Q1021 BLU;",
"03018099999","2010-09-01T14:50:00","4","53.581575","-3.055522","11.27","WOODVALE, UK","FM-15","EGOW ","V020","310,1,N,0036,1","99999,9,9,Y","009900,1,N,1","+0210,1","+0100,1","99999,9",,,,,"10210,1,99999,9",,,,"MET049METAR EGOW 011450Z 31007KT CAVOK 21/10 Q1021 BLU;",
"03018099999","2010-09-02T06:50:00","4","53.581575","-3.055522","11.27","WOODVALE, UK","FM-15","EGOW ","V020","070,1,N,0031,1","09000,1,C,N","008000,1,N,1","+0120,1","+0110,1","99999,9","07,5,+09000,1,99,9",,,"07,99,1,99,9,99,9,99999,9,99,9,99,9","10210,1,99999,9","10,1",,,"MET058METAR EGOW 020650Z 07006KT 8000 BR BKN300 12/11 Q1021 BLU;",
"03018099999","2010-09-02T07:50:00","4","53.581575","-3.055522","11.27","WOODVALE, UK","FM-15","EGOW ","V020","110,1,N,0021,1","09000,1,C,N","006000,1,N,1","+0150,1","+0110,1","99999,9","07,5,+09000,1,99,9",,,"07,99,1,99,9,99,9,99999,9,99,9,99,9","10210,1,99999,9","05,1",,,"MET058METAR EGOW 020750Z 11004KT 6000 HZ BKN300 15/11 Q1021 WHT;",
"03018099999","2010-09-02T08:50:00","4","53.581575","-3.055522","11.27","WOODVALE, UK","FM-15","EGOW ","V020","110,1,N,0031,1","09000,1,C,N","008000,1,N,1","+0170,1","+0110,1","99999,9","07,5,+09000,1,99,9",,,"07,99,1,99,9,99,9,99999,9,99,9,99,9","10220,1,99999,9","05,1",,,"MET058METAR EGOW 020850Z 11006KT 8000 HZ BKN300 17/11 Q1022 BLU;",
"03018099999","2010-09-02T09:50:00","4","53.581575","-3.055522","11.27","WOODVALE, UK","FM-15","EGOW ","V020","120,1,N,0021,1","99999,9,9,Y","009900,1,N,1","+0190,1","+0110,1","99999,9",,,,,"10220,1,99999,9",,,,"MET049METAR EGOW 020950Z 12004KT CAVOK 19/11 Q1022 BLU;",
"03018099999","2010-09-02T10:50:00","4","53.581575","-3.055522","11.27","WOODVALE, UK","FM-15","EGOW ","V020","130,1,N,0026,1","99999,9,9,Y","009900,1,N,1","+0220,1","+0110,1","99999,9",,,,,"10220,1,99999,9",,,,"MET049METAR EGOW 021050Z 13005KT CAVOK 22/11 Q1022 BLU;",
"03018099999","2010-09-02T11:50:00","4","53.581575","-3.055522","11.27","WOODVALE, UK","FM-15","EGOW ","V020","140,1,N,0031,1","22000,1,9,N","008000,1,N,1","+0230,1","+0110,1","99999,9","02,5,+01200,1,99,9",,,"02,99,1,99,9,99,9,99999,9,99,9,99,9","10210,1,99999,9","05,1",,,"MET058METAR EGOW 021150Z 14006KT 8000 HZ FEW040 23/11 Q1021 BLU;",
"03018099999","2010-09-02T12:50:00","4","53.581575","-3.055522","11.27","WOODVALE, UK","FM-15","EGOW ","V020","150,1,N,0031,1","99999,9,9,Y","009900,1,N,1","+0230,1","+0100,1","99999,9",,,,,"10210,1,99999,9",,,,"MET049METAR EGOW 021250Z 15006KT CAVOK 23/10 Q1021 BLU;",
"03018099999","2010-09-02T13:50:00","4","53.581575","-3.055522","11.27","WOODVALE, UK","FM-15","EGOW ","V020","999,9,C,0000,1","99999,9,9,Y","009900,1,N,1","+0230,1","+0100,1","99999,9",,,,,"10210,1,99999,9",,,,"MET049METAR EGOW 021350Z 00000KT CAVOK 23/10 Q1021 BLU;",
"03018099999","2010-09-03T06:50:00","4","53.581575","-3.055522","11.27","WOODVALE, UK","FM-15","EGOW ","V020","100,1,N,0026,1","99999,9,9,Y","009900,1,N,1","+0120,1","+0110,1","99999,9",,,,,"10220,1,99999,9",,,,"MET049METAR EGOW 030650Z 10005KT CAVOK 12/11 Q1022 BLU;",
"03018099999","2010-09-03T07:50:00","4","53.581575","-3.055522","11.27","WOODVALE, UK","FM-15","EGOW ","V020","130,1,N,0036,1","22000,1,9,N","008000,1,N,1","+0140,1","+0110,1","99999,9",,,,"00,99,1,99,9,99,9,99999,9,99,9,99,9","10220,1,99999,9","05,1",,,"MET055METAR EGOW 030750Z 13007KT 8000 HZ NSC 14/11 Q1022 BLU;","Q01    003SCCGA1"
"03018099999","2010-09-03T08:50:00","4","53.581575","-3.055522","11.27","WOODVALE, UK","FM-15","EGOW ","V020","150,1,N,0041,1","22000,1,9,N","008000,1,N,1","+0150,1","+0110,1","99999,9",,,,"00,99,1,99,9,99,9,99999,9,99,9,99,9","10220,1,99999,9","05,1",,,"MET055METAR EGOW 030850Z 15008KT 8000 HZ NSC 15/11 Q1022 BLU;","Q01    003SCCGA1"
"03018099999","2010-09-03T09:50:00","4","53.581575","-3.055522","11.27","WOODVALE, UK","FM-15","EGOW ","V020","140,1,N,0041,1","22000,1,9,N","008000,1,N,1","+0170,1","+0120,1","99999,9",,,,"00,99,1,99,9,99,9,99999,9,99,9,99,9","10220,1,99999,9","05,1",,,"MET055METAR EGOW 030950Z 14008KT 8000 HZ NSC 17/12 Q1022 BLU;","Q01    003SCCGA1"
"03018099999","2010-09-03T10:50:00","4","53.581575","-3.055522","11.27","WOODVALE, UK","FM-15","EGOW ","V020","140,1,N,0041,1","22000,1,9,N","011265,1,N,1","+0180,1","+0120,1","99999,9","02,5,+00750,1,99,9",,,"02,99,1,99,9,99,9,99999,9,99,9,99,9","10220,1,99999,9",,,,"MET055METAR EGOW 031050Z 14008KT 9999 FEW025 18/12 Q1022 BLU;",
"03018099999","2010-09-03T11:50:00","4","53.581575","-3.055522","11.27","WOODVALE, UK","FM-15","EGOW ","V020","130,1,N,0036,1","22000,1,9,N","011265,1,N,1","+0190,1","+0110,1","99999,9","02,5,+00840,1,99,9",,,"02,99,1,99,9,99,9,99999,9,99,9,99,9","10220,1,99999,9",,,,"MET055METAR EGOW 031150Z 13007KT 9999 FEW028 19/11 Q1022 BLU;",
"03018099999","2010-09-03T12:50:00","4","53.581575","-3.055522","11.27","WOODVALE, UK","FM-15","EGOW ","V020","160,1,N,0051,1","22000,1,9,N","011265,1,N,1","+0200,1","+0130,1","99999,9","02,5,+01050,1,99,9",,,"02,99,1,99,9,99,9,99999,9,99,9,99,9","10210,1,99999,9",,,,"MET055METAR EGOW 031250Z 16010KT 9999 FEW035 20/13 Q1021 BLU;",
"03018099999","2010-09-03T13:50:00","4","53.581575","-3.055522","11.27","WOODVALE, UK","FM-15","EGOW ","V020","160,1,N,0051,1","22000,1,9,N","011265,1,N,1","+0200,1","+0130,1","99999,9","02,5,+01050,1,99,9",,,"02,99,1,99,9,99,9,99999,9,99,9,99,9","10210,1,99999,9",,,,"MET055METAR EGOW 031350Z 16010KT 9999 FEW035 20/13 Q1021 BLU;",
"03018099999","2010-09-04T06:50:00","4","53.581575","-3.055522","11.27","WOODVALE, UK","FM-15","EGOW ","V020","130,1,N,0036,1","99999,9,9,Y","009900,1,N,1","+0130,1","+0110,1","99999,9",,,,,"10200,1,99999,9",,,,"MET049METAR EGOW 040650Z 13007KT CAVOK 13/11 Q1020 BLU;",
"03018099999","2010-09-04T07:50:00","4","53.581575","-3.055522","11.27","WOODVALE, UK","FM-15","EGOW ","V020","140,1,N,0041,1","99999,9,9,Y","009900,1,N,1","+0140,1","+0100,1","99999,9",,,,,"10200,1,99999,9",,,,"MET049METAR EGOW 040750Z 14008KT CAVOK 14/10 Q1020 BLU;",
"03018099999","2010-09-04T08:50:00","4","53.581575","-3.055522","11.27","WOODVALE, UK","FM-15","EGOW ","V020","140,1,N,0051,1","99999,9,9,Y","009900,1,N,1","+0160,1","+0110,1","99999,9",,,,,"10200,1,99999,9",,,,"MET049METAR EGOW 040850Z 14010KT CAVOK 16/11 Q1020 BLU;",
"03018099999","2010-09-04T09:50:00","4","53.581575","-3.055522","11.27","WOODVALE, UK","FM-15","EGOW ","V020","150,1,N,0072,1","99999,9,9,Y","009900,1,N,1","+0170,1","+0130,1","99999,9",,,,,"10200,1,99999,9",,,,"MET049METAR EGOW 040950Z 15014KT CAVOK 17/13 Q1020 BLU;",
"03018099999","2010-09-04T10:50:00","4","53.581575","-3.055522","11.27","WOODVALE, UK","FM-15","EGOW ","V020","150,1,N,0067,1","99999,9,9,Y","009900,1,N,1","+0180,1","+0110,1","99999,9",,,,,"10200,1,99999,9",,,,"MET049METAR EGOW 041050Z 15013KT CAVOK 18/11 Q1020 BLU;",
"03018099999","2010-09-04T11:50:00","4","53.581575","-3.055522","11.27","WOODVALE, UK","FM-15","EGOW ","V020","160,1,N,0051,1","09000,1,C,N","011265,1,N,1","+0200,1","+0100,1","99999,9","02,5,+01080,1,99,9","07,5,+09000,1,99,9",,"07,99,1,99,9,99,9,99999,9,99,9,99,9","10200,1,99999,9",,,,"MET062METAR EGOW 041150Z 16010KT 9999 FEW036 BKN300 20/10 Q1020 BLU;",
"03018099999","2010-09-04T12:50:00","4","53.581575","-3.055522","11.27","WOODVALE, UK","FM-15","EGOW ","V020","170,1,N,0046,1","99999,9,9,Y","009900,1,N,1","+0190,1","+0110,1","99999,9",,,,,"10200,1,99999,9",,,,"MET049METAR EGOW 041250Z 17009KT CAVOK 19/11 Q1020 BLU;",
"03018099999","2010-09-04T13:50:00","4","53.581575","-3.055522","11.27","WOODVALE, UK","FM-15","EGOW ","V020","150,1,N,0057,1","99999,9,9,Y","009900,1,N,1","+0190,1","+0110,1","99999,9",,,,,"10200,1,99999,9",,,,"MET049METAR EGOW 041350Z 15011KT CAVOK 19/11 Q1020 BLU;",
"03018099999","2010-09-05T06:50:00","4","53.581575","-3.055522","11.27","WOODVALE, UK","FM-15","EGOW ","V020","130,1,N,0062,1","22000,1,9,N","011265,1,N,1","+0150,1","+0110,1","99999,9","02,5,+01350,1,99,9",,,"02,99,1,99,9,99,9,99999,9,99,9,99,9","10180,1,99999,9",,,,"MET055METAR EGOW 050650Z 13012KT 9999 FEW045 15/11 Q1018 BLU;",
"03018099999","2010-09-05T07:50:00","4","53.581575","-3.055522","11.27","WOODVALE, UK","FM-15","EGOW ","V020","120,1,N,0062,1","22000,1,9,N","011265,1,N,1","+0160,1","+0110,1","99999,9","02,5,+01350,1,99,9",,,"02,99,1,99,9,99,9,99999,9,99,9,99,9","10190,1,99999,9",,,,"MET055METAR EGOW 050750Z 12012KT 9999 FEW045 16/11 Q1019 BLU;",
"03018099999","2010-09-05T08:50:00","4","53.581575","-3.055522","11.27","WOODVALE, UK","FM-15","EGOW ","V020","120,1,N,0057,1","22000,1,9,N","011265,1,N,1","+0160,1","+0110,1","99999,9","02,5,+01050,1,99,9",,,"02,99,1,99,9,99,9,99999,9,99,9,99,9","10190,1,99999,9",,,,"MET055METAR EGOW 050850Z 12011KT 9999 FEW035 16/11 Q1019 BLU;",
"03018099999","2010-09-05T09:50:00","4","53.581575","-3.055522","11.27","WOODVALE, UK","FM-15","EGOW ","V020","130,1,N,0067,1","99999,9,9,Y","009900,1,N,1","+0170,1","+0120,1","99999,9",,,,,"10180,1,99999,9",,,,"MET049METAR EGOW 050950Z 13013KT CAVOK 17/12 Q1018 BLU;",
"03018099999","2010-09-05T10:50:00","4","53.581575","-3.055522","11.27","WOODVALE, UK","FM-15","EGOW ","V020","120,1,N,0082,1","99999,9,9,Y","009900,1,N,1","+0180,1","+0150,1","99999,9",,,,,"10180,1,99999,9",,,,"MET049METAR EGOW 051050Z 12016KT CAVOK 18/15 Q1018 BLU;",
"03018099999","2010-09-05T11:50:00","4","53.581575","-3.055522","11.27","WOODVALE, UK","FM-15","EGOW ","V020","130,1,N,0093,1","99999,9,9,Y","009900,1,N,1","+0190,1","+0140,1","99999,9",,,,,"10169,1,99999,9",,,"0144,1","MET052METAR EGOW 051150Z 13018G28KT CAVOK 19/14 Q1017 BLU;",
"03018099999","2010-09-08T06:50:00","4","53.581575","-3.055522","11.27","WOODVALE, UK","FM-15","EGOW ","V020","100,1,N,0026,1","22000,1,9,N","006000,1,N,1","+0110,1","+0110,1","99999,9",,,,"00,99,1,99,9,99,9,99999,9,99,9,99,9","10020,1,99999,9","10,1",,,"MET055METAR EGOW 080650Z 10005KT 6000 BR NSC 11/11 Q1002 WHT;","Q01    003SCCGA1"
"03018099999","2010-09-08T07:50:00","4","53.581575","-3.055522","11.27","WOODVALE, UK","FM-15","EGOW ","V020","150,1,N,0036,1","99999,9,9,Y","009900,1,N,1","+0130,1","+0110,1","99999,9",,,,,"10020,1,99999,9",,,,"MET049METAR EGOW 080750Z 15007KT CAVOK 13/11 Q1002 BLU;",
"03018099999","2010-09-08T08:50:00","4","53.581575","-3.055522","11.27","WOODVALE, UK","FM-15","EGOW ","V020","140,1,N,0031,1","99999,9,9,Y","009900,1,N,1","+0160,1","+0120,1","99999,9",,,,,"10031,1,99999,9",,,,"MET049METAR EGOW 080850Z 14006KT CAVOK 16/12 Q1003 BLU;",
"03018099999","2010-09-08T09:50:00","4","53.581575","-3.055522","11.27","WOODVALE, UK","FM-15","EGOW ","V020","180,1,N,0021,1","22000,1,9,N","011265,1,N,1","+0180,1","+0120,1","99999,9","02,5,+00750,1,99,9",,,"02,99,1,99,9,99,9,99999,9,99,9,99,9","10031,1,99999,9",,,,"MET055METAR EGOW 080950Z 18004KT 9999 FEW025 18/12 Q1003 BLU;",
"03018099999","2010-09-08T14:50:00","4","53.581575","-3.055522","11.27","WOODVALE, UK","FM-15","EGOW ","V020","220,1,N,0031,1","22000,1,9,N","011265,1,N,1","+0220,1","+0090,1","99999,9","02,5,+01350,1,99,9",,,"02,99,1,99,9,99,9,99999,9,99,9,99,9","10031,1,99999,9",,,,"MET055METAR EGOW 081450Z 22006KT 9999 FEW045 22/09 Q1003 BLU;",
"03018099999","2010-09-09T06:50:00","4","53.581575","-3.055522","11.27","WOODVALE, UK","FM-15","EGOW ","V020","280,1,N,0062,1","00300,1,C,N","011265,1,N,1","+0160,1","+0140,1","99999,9","02,5,+00150,1,99,9","04,5,+00300,1,99,9","07,5,+01500,1,99,9","07,99,1,99,9,99,9,99999,9,99,9,99,9","10108,1,99999,9",,,,"MET069METAR EGOW 090650Z 28012KT 9999 FEW005 SCT010 BKN050 16/14 Q1011 GRN;",
"03018099999","2010-09-09T07:50:00","4","53.581575","-3.055522","11.27","WOODVALE, UK","FM-15","EGOW ","V020","280,1,N,0051,1","00150,1,C,N","011265,1,N,1","+0160,1","+0140,1","99999,9","07,5,+00150,1,99,9",,,"07,99,1,99,9,99,9,99999,9,99,9,99,9","10119,1,99999,9",,,,"MET056METAR EGOW 090750Z 28010KT 9999 BKN005 16/14 Q1012 YLO1;",
"03018099999","2010-09-09T08:50:00","4","53.581575","-3.055522","11.27","WOODVALE, UK","FM-15","EGOW ","V020","270,1,N,0062,1","00210,1,C,N","011265,1,N,1","+0160,1","+0140,1","99999,9","07,5,+00210,1,99,9",,,"07,99,1,99,9,99,9,99999,9,99,9,99,9","10129,1,99999,9",,,,"MET055METAR EGOW 090850Z 27012KT 9999 BKN007 16/14 Q1013 GRN;",
"03018099999","2010-09-09T09:50:00","4","53.581575","-3.055522","11.27","WOODVALE, UK","FM-15","EGOW ","V020","270,1,N,0062,1","00510,1,C,N","011265,1,N,1","+0160,1","+0140,1","99999,9","02,5,+00210,1,99,9","04,5,+00510,1,99,9","07,5,+01500,1,99,9","07,99,1,99,9,99,9,99999,9,99,9,99,9","10139,1,99999,9",,,,"MET069METAR EGOW 090950Z 27012KT 9999 FEW007 SCT017 BKN050 16/14 Q1014 WHT;",
"03018099999","2010-09-09T10:50:00","4","53.581575","-3.055522","11.27","WOODVALE, UK","FM-15","EGOW ","V020","270,1,N,0051,1","99999,9,C,N","011265,1,N,1","+0180,1","+0130,1","99999,9","02,5,+00300,1,99,9","04,5,+00600,1,99,9",,"04,99,1,99,9,99,9,99999,9,99,9,99,9","10139,1,99999,9",,,,"MET062METAR EGOW 091050Z 27010KT 9999 FEW010 SCT020 18/13 Q1014 WHT;","P01 006003SCOCIG"
"03018099999","2010-09-09T11:50:00","4","53.581575","-3.055522","11.27","WOODVALE, UK","FM-15","EGOW ","V020","260,1,N,0067,1","22000,1,9,N","011265,1,N,1","+0170,1","+0130,1","99999,9","04,5,+00270,1,99,9",,,"04,99,1,99,9,99,9,99999,9,99,9,99,9","10139,1,99999,9",,,,"MET055METAR EGOW 091150Z 26013KT 9999 SCT009 17/13 Q1014 GRN;",
"03018099999","2010-09-09T12:50:00","4","53.581575","-3.055522","11.27","WOODVALE, UK","FM-15","EGOW ","V020","280,1,N,0067,1","22000,1,9,N","011265,1,N,1","+0180,1","+0130,1","99999,9","02,5,+00270,1,99,9",,,"02,99,1,99,9,99,9,99999,9,99,9,99,9","10149,1,99999,9",,,,"MET055METAR EGOW 091250Z 28013KT 9999 FEW009 18/13 Q1015 BLU;",
"03018099999","2010-09-09T13:50:00","4","53.581575","-3.055522","11.27","WOODVALE, UK","FM-15","EGOW ","V020","270,1,N,0072,1","22000,1,9,N","011265,1,N,1","+0180,1","+0130,1","99999,9","02,5,+00300,1,99,9",,,"02,99,1,99,9,99,9,99999,9,99,9,99,9","10149,1,99999,9",,,,"MET055METAR EGOW 091350Z 27014KT 9999 FEW010 18/13 Q1015 BLU;",
"03018099999","2010-09-10T06:50:00","4","53.581575","-3.055522","11.27","WOODVALE, UK","FM-15","EGOW ","V020","150,1,N,0051,1","00510,1,C,N","011265,1,N,1","+0150,1","+0150,1","99999,9","02,5,+00270,1,99,9","04,5,+00510,1,99,9","07,5,+00720,1,99,9","07,99,1,99,9,99,9,99999,9,99,9,99,9","10108,1,99999,9","16,1",,,"MET074METAR EGOW 100650Z 15010KT 9999 VCSH FEW009 SCT017 BKN024 15/15 Q1011 WHT;",
"03018099999","2010-09-10T07:50:00","4","53.581575","-3.055522","11.27","WOODVALE, UK","FM-15","EGOW ","V020","170,1,N,0041,1","00450,1,C,N","003000,1,N,1","+0160,1","+0150,1","99999,9","04,5,+00300,1,99,9","07,5,+00450,1,99,9",,"07,99,1,99,9,99,9,99999,9,99,9,99,9","10108,1,99999,9","65,1",,,"MET067METAR EGOW 100750Z 17008KT 3000 +RA SCT010 BKN015 16/15 Q1011 YLO1;",
"03018099999","2010-09-10T08:50:00","4","53.581575","-3.055522","11.27","WOODVALE, UK","FM-15","EGOW ","V020","200,1,N,0046,1","00600,1,C,N","011265,1,N,1","+0170,1","+0160,1","99999,9","02,5,+00300,1,99,9","04,5,+00600,1,99,9","07,5,+00900,1,99,9","07,99,1,99,9,99,9,99999,9,99,9,99,9","10108,1,99999,9","61,1",,,"MET073METAR EGOW 100850Z 20009KT 9999 -RA FEW010 SCT020 BKN030 17/16 Q1011 WHT;",
"03018099999","2010-09-10T09:50:00","4","53.581575","-3.055522","11.27","WOODVALE, UK","FM-15","EGOW ","V020","200,1,N,0031,1","00600,1,C,N","011265,1,N,1","+0180,1","+0170,1","99999,9","02,5,+00240,1,99,9","04,5,+00600,1,99,9","07,5,+01500,1,99,9","07,99,1,99,9,99,9,99999,9,99,9,99,9","10108,1,99999,9","16,1",,,"MET074METAR EGOW 100950Z 20006KT 9999 VCSH FEW008 SCT020 BKN050 18/17 Q1011 WHT;",
"03018099999","2010-09-10T10:50:00","4","53.581575","-3.055522","11.27","WOODVALE, UK","FM-15","EGOW ","V020","260,1,N,0057,1","00600,1,C,N","011265,1,N,1","+0190,1","+0170,1","99999,9","02,5,+00540,1,99,9","04,5,+00600,1,99,9","07,5,+01200,1,99,9","07,99,1,99,9,99,9,99999,9,99,9,99,9","10108,1,99999,9",,,,"MET069METAR EGOW 101050Z 26011KT 9999 FEW018 SCT020 BKN040 19/17 Q1011 WHT;",
"03018099999","2010-09-10T11:50:00","4","53.581575","-3.055522","11.27","WOODVALE, UK","FM-15","EGOW ","V020","250,1,N,0062,1","00510,1,C,N","011265,1,N,1","+0180,1","+0150,1","99999,9","04,5,+00420,1,99,9","07,5,+00510,1,99,9",,"07,99,1,99,9,99,9,99999,9,99,9,99,9","10108,1,99999,9",,,,"MET062METAR EGOW 101150Z 25012KT 9999 SCT014 BKN017 18/15 Q1011 GRN;",
"03018099999","2010-09-10T12:50:00","4","53.581575","-3.055522","11.27","WOODVALE, UK","FM-15","EGOW ","V020","230,1,N,0062,1","01200,1,C,N","011265,1,N,1","+0200,1","+0170,1","99999,9","04,5,+00840,1,99,9","07,5,+01200,1,99,9",,"07,99,1,99,9,99,9,99999,9,99,9,99,9","10108,1,99999,9",,,,"MET062METAR EGOW 101250Z 23012KT 9999 SCT028 BKN040 20/17 Q1011 BLU;",
"03018099999","2010-09-11T06:50:00","4","53.581575","-3.055522","11.27","WOODVALE, UK","FM-15","EGOW ","V020","210,1,N,0021,1","00360,1,C,N","011265,1,N,1","+0160,1","+0150,1","99999,9","02,5,+00090,1,99,9","04,5,+00360,1,99,9","07,5,+00480,1,99,9","07,99,1,99,9,99,9,99999,9,99,9,99,9","10081,1,99999,9","61,1",,,"MET073METAR EGOW 110650Z 21004KT 9999 -RA FEW003 SCT012 BKN016 16/15 Q1008 GRN;",
"03018099999","2010-09-11T07:50:00","4","53.581575","-3.055522","11.27","WOODVALE, UK","FM-15","EGOW ","V020","240,1,N,0051,1","00360,1,C,N","011265,1,N,1","+0160,1","+0150,1","99999,9","02,5,+00090,1,99,9","04,5,+00360,1,99,9","07,5,+00480,1,99,9","07,99,1,99,9,99,9,99999,9,99,9,99,9","10081,1,99999,9",,,,"MET069METAR EGOW 110750Z 24010KT 9999 FEW003 SCT012 BKN016 16/15 Q1008 GRN;",
"03018099999","2010-09-11T08:50:00","4","53.581575","-3.055522","11.27","WOODVALE, UK","FM-15","EGOW ","V020","260,1,N,0051,1","00150,1,C,N","011265,1,N,1","+0160,1","+0150,1","99999,9","07,5,+00150,1,99,9",,,"07,99,1,99,9,99,9,99999,9,99,9,99,9","10091,1,99999,9","61,1",,,"MET060METAR EGOW 110850Z 26010KT 9999 -RA BKN005 16/15 Q1009 YLO1;",
"03018099999","2010-09-11T09:50:00","4","53.581575","-3.055522","11.27","WOODVALE, UK","FM-15","EGOW ","V020","260,1,N,0062,1","00180,1,C,N","011265,1,N,1","+0160,1","+0160,1","99999,9","07,5,+00180,1,99,9",,,"07,99,1,99,9,99,9,99999,9,99,9,99,9","10091,1,99999,9",,,,"MET056METAR EGOW 110950Z 26012KT 9999 BKN006 16/16 Q1009 YLO1;",
"03018099999","2010-09-11T10:50:00","4","53.581575","-3.055522","11.27","WOODVALE, UK","FM-15","EGOW ","V020","260,1,N,0062,1","99999,9,C,N","011265,1,N,1","+0180,1","+0150,1","99999,9","02,5,+00240,1,99,9","04,5,+00360,1,99,9",,"04,99,1,99,9,99,9,99999,9,99,9,99,9","10102,1,99999,9",,,,"MET062METAR EGOW 111050Z 26012KT 9999 FEW008 SCT012 18/15 Q1010 GRN;","P01 003603SCOCIG"
"03018099999","2010-09-11T11:50:00","4","53.581575","-3.055522","11.27","WOODVALE, UK","FM-15","EGOW ","V020","260,1,N,0051,1","99999,9,C,N","011265,1,N,1","+0190,1","+0150,1","99999,9","02,5,+00240,1,99,9","04,5,+00450,1,99,9",,"04,99,1,99,9,99,9,99999,9,99,9,99,9","10102,1,99999,9",,,,"MET062METAR EGOW 111150Z 26010KT 9999 FEW008 SCT015 19/15 Q1010 WHT;","P01 004503SCOCIG"
"03018099999","2010-09-11T12:50:00","4","53.581575","-3.055522","11.27","WOODVALE, UK","FM-15","EGOW ","V020","280,1,N,0057,1","99999,9,C,N","011265,1,N,1","+0170,1","+0140,1","99999,9","02,5,+00240,1,99,9","04,5,+00450,1,99,9",,"04,99,1,99,9,99,9,99999,9,99,9,99,9","10108,1,99999,9",,,,"MET062METAR EGOW 111250Z 28011KT 9999 FEW008 SCT015 17/14 Q1011 WHT;","P01 004503SCOCIG"
"03018099999","2010-09-11T13:50:00","4","53.581575","-3.055522","11.27","WOODVALE, UK","FM-15","EGOW ","V020","260,1,N,0072,1","99999,9,C,N","011265,1,N,1","+0170,1","+0140,1","99999,9","02,5,+00240,1,99,9","04,5,+00540,1,99,9",,"04,99,1,99,9,99,9,99999,9,99,9,99,9","10108,1,99999,9",,,,"MET062METAR EGOW 111350Z 26014KT 9999 FEW008 SCT018 17/14 Q1011 WHT;","P01 005403SCOCIG"
"03018099999","2010-09-11T14:50:00","4","53.581575","-3.055522","11.27","WOODVALE, UK","FM-15","EGOW ","V020","270,1,N,0072,1","99999,9,C,N","011265,1,N,1","+0170,1","+0140,1","99999,9","02,5,+00240,1,99,9","04,5,+00540,1,99,9",,"04,99,1,99,9,99,9,99999,9,99,9,99,9","10108,1,99999,9",,,,"MET062METAR EGOW 111450Z 27014KT 9999 FEW008 SCT018 17/14 Q1011 WHT;","P01 005403SCOCIG"
"03018099999","2010-09-15T06:50:00","4","53.581575","-3.055522","11.27","WOODVALE, UK","FM-15","EGOW ","V020","270,1,N,0149,1","00900,1,C,N","011265,1,N,1","+0140,1","+0090,1","99999,9","04,5,+00390,1,99,9","07,5,+00900,1,99,9",,"07,99,1,99,9,99,9,99999,9,99,9,99,9","10071,1,99999,9",,,"0216,1","MET065METAR EGOW 150650Z 27029G42KT 9999 SCT013 BKN030 14/09 Q1007 GRN;",
"03018099999","2010-09-15T07:50:00","4","53.581575","-3.055522","11.27","WOODVALE, UK","FM-15","EGOW ","V020","270,1,N,0139,1","00450,1,C,N","011265,1,N,1","+0140,1","+0090,1","99999,9","04,5,+00360,1,99,9","07,5,+00450,1,99,9",,"07,99,1,99,9,99,9,99999,9,99,9,99,9","10061,1,99999,9",,,"0242,1","MET065METAR EGOW 150750Z 27027G47KT 9999 SCT012 BKN015 14/09 Q1006 GRN;",
"03018099999","2010-09-15T08:50:00","4","53.581575","-3.055522","11.27","WOODVALE, UK","FM-15","EGOW ","V020","270,1,N,0144,1","00660,1,C,N","011265,1,N,1","+0140,1","+0090,1","99999,9","02,5,+00540,1,99,9","04,5,+00660,1,99,9","07,5,+00840,1,99,9","07,99,1,99,9,99,9,99999,9,99,9,99,9","10061,1,99999,9",,,"0216,1","MET072METAR EGOW 150850Z 27028G42KT 9999 FEW018 SCT022 BKN028 14/09 Q1006 WHT;",
"03018099999","2010-09-15T09:50:00","4","53.581575","-3.055522","11.27","WOODVALE, UK","FM-15","EGOW ","V020","270,1,N,0129,1","00660,1,C,N","011265,1,N,1","+0140,1","+0100,1","99999,9","02,5,+00540,1,99,9","04,5,+00660,1,99,9","07,5,+00840,1,99,9","07,99,1,99,9,99,9,99999,9,99,9,99,9","10061,1,99999,9","07,1",,"0195,1","MET077METAR EGOW 150950Z 27025G38KT 9999 BLPY FEW018 SCT022 BKN028 14/10 Q1006 WHT;",
"03018099999","2010-09-15T10:50:00","4","53.581575","-3.055522","11.27","WOODVALE, UK","FM-15","EGOW ","V020","270,1,N,0149,1","00600,1,C,N","011265,1,N,1","+0140,1","+0100,1","99999,9","02,5,+00360,1,99,9","04,5,+00600,1,99,9","07,5,+00840,1,99,9","07,99,1,99,9,99,9,99999,9,99,9,99,9","10061,1,99999,9",,,"0211,1","MET072METAR EGOW 151050Z 27029G41KT 9999 FEW012 SCT020 BKN028 14/10 Q1006 WHT;",
"03018099999","2010-09-15T11:50:00","4","53.581575","-3.055522","11.27","WOODVALE, UK","FM-15","EGOW ","V020","280,1,N,0134,1","00600,1,C,N","011265,1,N,1","+0150,1","+0110,1","99999,9","02,5,+00450,1,99,9","04,5,+00600,1,99,9","07,5,+00840,1,99,9","07,99,1,99,9,99,9,99999,9,99,9,99,9","10071,1,99999,9",,,"0211,1","MET072METAR EGOW 151150Z 28026G41KT 9999 FEW015 SCT020 BKN028 15/11 Q1007 WHT;",
"03018099999","2010-09-15T12:50:00","4","53.581575","-3.055522","11.27","WOODVALE, UK","FM-15","EGOW ","V020","280,1,N,0134,1","99999,9,C,N","011265,1,N,1","+0150,1","+0110,1","99999,9","02,5,+00300,1,99,9","04,5,+00900,1,99,9",,"04,99,1,99,9,99,9,99999,9,99,9,99,9","10061,1,99999,9",,,"0201,1","MET065METAR EGOW 151250Z 28026G39KT 9999 FEW010 SCT030 15/11 Q1006 BLU;","P01 009003SCOCIG"
"03018099999","2010-09-16T06:50:00","4","53.581575","-3.055522","11.27","WOODVALE, UK","FM-15","EGOW ","V020","300,1,N,0072,1","01350,1,C,N","011265,1,N,1","+0140,1","+0090,1","99999,9","02,5,+00450,1,99,9","07,5,+01350,1,99,9",,"07,99,1,99,9,99,9,99999,9,99,9,99,9","10102,1,99999,9",,,"0123,1","MET065METAR EGOW 160650Z 30014G24KT 9999 FEW015 BKN045 14/09 Q1010 BLU;",
"03018099999","2010-09-16T07:50:00","4","53.581575","-3.055522","11.27","WOODVALE, UK","FM-15","EGOW ","V020","300,1,N,0087,1","01350,1,C,N","011265,1,N,1","+0140,1","+0080,1","99999,9","04,5,+00660,1,99,9","07,5,+01350,1,99,9",,"07,99,1,99,9,99,9,99999,9,99,9,99,9","10102,1,99999,9",,,,"MET062METAR EGOW 160750Z 30017KT 9999 SCT022 BKN045 14/08 Q1010 WHT;",
"03018099999","2010-09-16T08:50:00","4","53.581575","-3.055522","11.27","WOODVALE, UK","FM-15","EGOW ","V020","320,1,N,0082,1","01350,1,C,N","011265,1,N,1","+0140,1","+0080,1","99999,9","04,5,+00720,1,99,9","07,5,+01350,1,99,9",,"07,99,1,99,9,99,9,99999,9,99,9,99,9","10108,1,99999,9",,,,"MET062METAR EGOW 160850Z 32016KT 9999 SCT024 BKN045 14/08 Q1011 WHT;",
"03018099999","2010-09-16T09:50:00","4","53.581575","-3.055522","11.27","WOODVALE, UK","FM-15","EGOW ","V020","320,1,N,0077,1","01350,1,C,N","011265,1,N,1","+0150,1","+0070,1","99999,9","04,5,+00720,1,99,9","07,5,+01350,1,99,9",,"07,99,1,99,9,99,9,99999,9,99,9,99,9","10108,1,99999,9",,,"0129,1","MET065METAR EGOW 160950Z 32015G25KT 9999 SCT024 BKN045 15/07 Q1011 WHT;",
"03018099999","2010-09-16T10:50:00","4","53.581575","-3.055522","11.27","WOODVALE, UK","FM-15","EGOW ","V020","330,1,N,0087,1","22000,1,9,N","011265,1,N,1","+0160,1","+0080,1","99999,9","04,5,+00840,1,99,9",,,"04,99,1,99,9,99,9,99999,9,99,9,99,9","10108,1,99999,9",,,"0139,1","MET058METAR EGOW 161050Z 33017G27KT 9999 SCT028 16/08 Q1011 BLU;",
"03018099999","2010-09-16T11:50:00","4","53.581575","-3.055522","11.27","WOODVALE, UK","FM-15","EGOW ","V020","310,1,N,0103,1","22000,1,9,N","011265,1,N,1","+0160,1","+0080,1","99999,9","04,5,+00840,1,99,9",,,"04,99,1,99,9,99,9,99999,9,99,9,99,9","10119,1,99999,9",,,,"MET055METAR EGOW 161150Z 31020KT 9999 SCT028 16/08 Q1012 BLU;",
"03018099999","2010-09-16T12:50:00","4","53.581575","-3.055522","11.27","WOODVALE, UK","FM-15","EGOW ","V020","310,1,N,0098,1","22000,1,9,N","011265,1,N,1","+0150,1","+0080,1","99999,9","04,5,+00840,1,99,9",,,"04,99,1,99,9,99,9,99999,9,99,9,99,9","10119,1,99999,9",,,"0149,1","MET058METAR EGOW 161250Z 31019G29KT 9999 SCT028 15/08 Q1012 BLU;",
"03018099999","2010-09-16T13:50:00","4","53.581575","-3.055522","11.27","WOODVALE, UK","FM-15","EGOW ","V020","300,1,N,0103,1","22000,1,9,N","011265,1,N,1","+0140,1","+0080,1","99999,9","04,5,+00840,1,99,9",,,"04,99,1,99,9,99,9,99999,9,99,9,99,9","10119,1,99999,9",,,"0154,1","MET058METAR EGOW 161350Z 30020G30KT 9999 SCT028 14/08 Q1012 BLU;",
"03018099999","2010-09-17T06:50:00","4","53.581575","-3.055522","11.27","WOODVALE, UK","FM-15","EGOW ","V020","330,1,N,0072,1","99999,9,C,N","011265,1,N,1","+0120,1","+0060,1","99999,9","02,5,+00360,1,99,9","04,5,+00900,1,99,9",,"04,99,1,99,9,99,9,99999,9,99,9,99,9","10139,1,99999,9",,,"0123,1","MET065METAR EGOW 170650Z 33014G24KT 9999 FEW012 SCT030 12/06 Q1014 BLU;","P01 009003SCOCIG"
"03018099999","2010-09-17T07:50:00","4","53.581575","-3.055522","11.27","WOODVALE, UK","FM-15","EGOW ","V020","330,1,N,0072,1","22000,1,9,N","011265,1,N,1","+0120,1","+0080,1","99999,9","04,5,+00720,1,99,9",,,"04,99,1,99,9,99,9,99999,9,99,9,99,9","10139,1,99999,9",,,,"MET055METAR EGOW 170750Z 33014KT 9999 SCT024 12/08 Q1014 WHT;",
"03018099999","2010-09-17T08:50:00","4","53.581575","-3.055522","11.27","WOODVALE, UK","FM-15","EGOW ","V020","330,1,N,0077,1","22000,1,9,N","011265,1,N,1","+0140,1","+0050,1","99999,9","04,5,+00750,1,99,9",,,"04,99,1,99,9,99,9,99999,9,99,9,99,9","10159,1,99999,9",,,,"MET055METAR EGOW 170850Z 33015KT 9999 SCT025 14/05 Q1016 BLU;",
"03018099999","2010-09-17T09:50:00","4","53.581575","-3.055522","11.27","WOODVALE, UK","FM-15","EGOW ","V020","330,1,N,0077,1","22000,1,9,N","011265,1,N,1","+0140,1","+0060,1","99999,9","04,5,+00750,1,99,9",,,"04,99,1,99,9,99,9,99999,9,99,9,99,9","10159,1,99999,9",,,,"MET055METAR EGOW 170950Z 33015KT 9999 SCT025 14/06 Q1016 BLU;",
"03018099999","2010-09-17T10:50:00","4","53.581575","-3.055522","11.27","WOODVALE, UK","FM-15","EGOW ","V020","330,1,N,0077,1","22000,1,9,N","011265,1,N,1","+0150,1","+0050,1","99999,9","04,5,+00900,1,99,9",,,"04,99,1,99,9,99,9,99999,9,99,9,99,9","10169,1,99999,9",,,,"MET055METAR EGOW 171050Z 33015KT 9999 SCT030 15/05 Q1017 BLU;",
"03018099999","2010-09-17T11:50:00","4","53.581575","-3.055522","11.27","WOODVALE, UK","FM-15","EGOW ","V020","330,1,N,0057,1","22000,1,9,N","011265,1,N,1","+0140,1","+0060,1","99999,9","04,5,+00900,1,99,9",,,"04,99,1,99,9,99,9,99999,9,99,9,99,9","10169,1,99999,9",,,,"MET055METAR EGOW 171150Z 33011KT 9999 SCT030 14/06 Q1017 BLU;",
"03018099999","2010-09-17T12:50:00","4","53.581575","-3.055522","11.27","WOODVALE, UK","FM-15","EGOW ","V020","330,1,N,0072,1","99999,9,C,N","011265,1,N,1","+0150,1","+0060,1","99999,9","02,5,+00450,1,99,9","04,5,+00900,1,99,9",,"04,99,1,99,9,99,9,99999,9,99,9,99,9","10169,1,99999,9",,,,"MET062METAR EGOW 171250Z 33014KT 9999 FEW015 SCT030 15/06 Q1017 BLU;","P01 009003SCOCIG"
"03018099999","2010-09-17T13:50:00","4","53.581575","-3.055522","11.27","WOODVALE, UK","FM-15","EGOW ","V020","310,1,N,0093,1","99999,9,C,N","011265,1,N,1","+0130,1","+0050,1","99999,9","02,5,+00450,1,99,9","04,5,+00900,1,99,9",,"04,99,1,99,9,99,9,99999,9,99,9,99,9","10180,1,99999,9",,,,"MET062METAR EGOW 171350Z 31018KT 9999 FEW015 SCT030 13/05 Q1018 BLU;","P01 009003SCOCIG"
"03018099999","2010-09-17T14:50:00","4","53.581575","-3.055522","11.27","WOODVALE, UK","FM-15","EGOW ","V020","310,1,N,0082,1","99999,9,C,N","011265,1,N,1","+0150,1","+0050,1","99999,9","02,5,+00450,1,99,9","04,5,+00900,1,99,9",,"04,99,1,99,9,99,9,99999,9,99,9,99,9","10180,1,99999,9",,,,"MET062METAR EGOW 171450Z 31016KT 9999 FEW015 SCT030 15/05 Q1018 BLU;","P01 009003SCOCIG"
"03018099999","2010-09-18T06:50:00","4","53.581575","-3.055522","11.27","WOODVALE, UK","FM-15","EGOW ","V020","330,1,N,0036,1","99999,9,C,N","011265,1,N,1","+0120,1","+0080,1","99999,9","02,5,+00450,1,99,9","04,5,+00750,1,99,9",,"04,99,1,99,9,99,9,99999,9,99,9,99,9","10190,1,99999,9","16,1",,,"MET067METAR EGOW 180650Z 33007KT 9999 VCSH FEW015 SCT025 12/08 Q1019 BLU;","P01 007503SCOCIG"
"03018099999","2010-09-18T07:50:00","4","53.581575","-3.055522","11.27","WOODVALE, UK","FM-15","EGOW ","V020","300,1,N,0046,1","22000,1,9,N","011265,1,N,1","+0130,1","+0070,1","99999,9","04,5,+00540,1,99,9",,,"04,99,1,99,9,99,9,99999,9,99,9,99,9","10190,1,99999,9",,,,"MET055METAR EGOW 180750Z 30009KT 9999 SCT018 13/07 Q1019 WHT;",
"03018099999","2010-09-18T08:50:00","4","53.581575","-3.055522","11.27","WOODVALE, UK","FM-15","EGOW ","V020","290,1,N,0057,1","22000,1,9,N","011265,1,N,1","+0140,1","+0050,1","99999,9","04,5,+00750,1,99,9",,,"04,99,1,99,9,99,9,99999,9,99,9,99,9","10190,1,99999,9",,,,"MET055METAR EGOW 180850Z 29011KT 9999 SCT025 14/05 Q1019 BLU;",
"03018099999","2010-09-18T09:50:00","4","53.581575","-3.055522","11.27","WOODVALE, UK","FM-15","EGOW ","V020","290,1,N,0051,1","99999,9,C,N","011265,1,N,1","+0140,1","+0060,1","99999,9","02,5,+00750,1,99,9","04,5,+00900,1,99,9",,"04,99,1,99,9,99,9,99999,9,99,9,99,9","10190,1,99999,9",,,,"MET062METAR EGOW 180950Z 29010KT 9999 FEW025 SCT030 14/06 Q1019 BLU;","P01 009003SCOCIG"
"03018099999","2010-09-18T10:50:00","4","53.581575","-3.055522","11.27","WOODVALE, UK","FM-15","EGOW ","V020","280,1,N,0067,1","22000,1,9,N","011265,1,N,1","+0140,1","+0060,1","99999,9","04,5,+00750,1,99,9",,,"04,99,1,99,9,99,9,99999,9,99,9,99,9","10190,1,99999,9",,,,"MET055METAR EGOW 181050Z 28013KT 9999 SCT025 14/06 Q1019 BLU;",
"03018099999","2010-09-18T11:50:00","4","53.581575","-3.055522","11.27","WOODVALE, UK","FM-15","EGOW ","V020","270,1,N,0072,1","22000,1,9,N","011265,1,N,1","+0140,1","+0070,1","99999,9","04,5,+00750,1,99,9",,,"04,99,1,99,9,99,9,99999,9,99,9,99,9","10180,1,99999,9",,,,"MET055METAR EGOW 181150Z 27014KT 9999 SCT025 14/07 Q1018 BLU;",
"03018099999","2010-09-18T12:50:00","4","53.581575","-3.055522","11.27","WOODVALE, UK","FM-15","EGOW ","V020","260,1,N,0062,1","01350,1,C,N","011265,1,N,1","+0140,1","+0070,1","99999,9","02,5,+00750,1,99,9","07,5,+01350,1,99,9",,"07,99,1,99,9,99,9,99999,9,99,9,99,9","10180,1,99999,9","61,1",,,"MET066METAR EGOW 181250Z 26012KT 9999 -RA FEW025 BKN045 14/07 Q1018 BLU;",
"03018099999","2010-09-18T13:50:00","4","53.581575","-3.055522","11.27","WOODVALE, UK","FM-15","EGOW ","V020","250,1,N,0036,1","01200,1,C,N","006000,1,N,1","+0120,1","+0090,1","99999,9","04,5,+00600,1,99,9","07,5,+01200,1,99,9",,"07,99,1,99,9,99,9,99999,9,99,9,99,9","10180,1,99999,9","63,1",,,"MET065METAR EGOW 181350Z 25007KT 6000 RA SCT020 BKN040 12/09 Q1018 WHT;",
"03018099999","2010-09-18T14:50:00","4","53.581575","-3.055522","11.27","WOODVALE, UK","FM-15","EGOW ","V020","250,1,N,0082,1","99999,9,C,N","011265,1,N,1","+0120,1","+0070,1","99999,9","02,5,+00600,1,99,9","04,5,+01350,1,99,9",,"04,99,1,99,9,99,9,99999,9,99,9,99,9","10169,1,99999,9",,,,"MET067METAR EGOW 181450Z 25016KT 9999 FEW020 SCT045 12/07 Q1017 RERA WHT;","P01 013503SCOCIG"
"03018099999","2010-09-18T15:50:00","4","53.581575","-3.055522","11.27","WOODVALE, UK","FM-15","EGOW ","V020","210,1,N,0051,1","01350,1,C,N","011265,1,N,1","+0120,1","+0080,1","99999,9","02,5,+00600,1,99,9","04,5,+01350,1,99,9","07,5,+03000,1,99,9","07,99,1,99,9,99,9,99999,9,99,9,99,9","10159,1,99999,9",,,,"MET069METAR EGOW 181550Z 21010KT 9999 FEW020 SCT045 BKN100 12/08 Q1016 BLU;",
"03018099999","2010-09-19T06:50:00","4","53.581575","-3.055522","11.27","WOODVALE, UK","FM-15","EGOW ","V020","230,1,N,0072,1","00900,1,C,N","008000,1,N,1","+0140,1","+0130,1","99999,9","02,5,+00600,1,99,9","04,5,+00900,1,99,9","07,5,+01140,1,99,9","07,99,1,99,9,99,9,99999,9,99,9,99,9","10108,1,99999,9","63,1",,,"MET072METAR EGOW 190650Z 23014KT 8000 RA FEW020 SCT030 BKN038 14/13 Q1011 BLU;",
"03018099999","2010-09-19T07:50:00","4","53.581575","-3.055522","11.27","WOODVALE, UK","FM-15","EGOW ","V020","230,1,N,0057,1","01350,1,C,N","004000,1,N,1","+0140,1","+0130,1","99999,9","04,5,+00420,1,99,9","07,5,+01350,1,99,9",,"07,99,1,99,9,99,9,99999,9,99,9,99,9","10108,1,99999,9","63,1",,,"MET065METAR EGOW 190750Z 23011KT 4000 RA SCT014 BKN045 14/13 Q1011 GRN;",
"03018099999","2010-09-19T08:50:00","4","53.581575","-3.055522","11.27","WOODVALE, UK","FM-15","EGOW ","V020","220,1,N,0057,1","01650,5,C,N","009000,1,N,1","+0140,1","+0130,1","99999,9","02,5,+01140,1,99,9","07,5,+01650,5,99,9",,"07,99,1,99,9,99,9,99999,9,99,9,99,9","10108,1,99999,9","61,1",,,"MET066METAR EGOW 190850Z 22011KT 9000 -RA FEW038 BKN055 14/13 Q1011 BLU;",
"03018099999","2010-09-19T09:50:00","4","53.581575","-3.055522","11.27","WOODVALE, UK","FM-15","EGOW ","V020","220,1,N,0046,1","01500,1,C,N","008000,1,N,1","+0150,1","+0130,1","99999,9","02,5,+01050,1,99,9","07,5,+01500,1,99,9",,"07,99,1,99,9,99,9,99999,9,99,9,99,9","10102,1,99999,9","61,1",,,"MET066METAR EGOW 190950Z 22009KT 8000 -RA FEW035 BKN050 15/13 Q1010 BLU;",
"03018099999","2010-09-19T10:50:00","4","53.581575","-3.055522","11.27","WOODVALE, UK","FM-15","EGOW ","V020","220,1,N,0072,1","01500,1,C,N","011265,1,N,1","+0140,1","+0140,1","99999,9","02,5,+00300,1,99,9","08,5,+01500,1,99,9",,"08,99,1,99,9,99,9,99999,9,99,9,99,9","10102,1,99999,9","61,1",,,"MET066METAR EGOW 191050Z 22014KT 9999 -RA FEW010 OVC050 14/14 Q1010 BLU;",
"03018099999","2010-09-19T11:50:00","4","53.581575","-3.055522","11.27","WOODVALE, UK","FM-15","EGOW ","V020","220,1,N,0072,1","00630,1,C,N","008000,1,N,1","+0140,1","+0130,1","99999,9","02,5,+00360,1,99,9","07,5,+00630,1,99,9","08,5,+00750,1,99,9","08,99,1,99,9,99,9,99999,9,99,9,99,9","10102,1,99999,9","61,1",,"0123,1","MET076METAR EGOW 191150Z 22014G24KT 8000 -RA FEW012 BKN021 OVC025 14/13 Q1010 BLU;",
"03018099999","2010-09-19T13:50:00","4","53.581575","-3.055522","11.27","WOODVALE, UK","FM-15","EGOW ","V020","210,1,N,0062,1","00360,1,C,N","007000,1,N,1","+0140,1","+0140,1","99999,9","02,5,+00240,1,99,9","04,5,+00360,1,99,9","08,5,+01200,1,99,9","08,99,1,99,9,99,9,99999,9,99,9,99,9","10091,1,99999,9","61,1",,,"MET073METAR EGOW 191350Z 21012KT 7000 -RA FEW008 SCT012 OVC040 14/14 Q1009 GRN;",
"03018099999","2010-09-22T06:50:00","4","53.581575","-3.055522","11.27","WOODVALE, UK","FM-15","EGOW ","V020","160,1,N,0031,1","99999,9,9,Y","009900,1,N,1","+0120,1","+9999,9","99999,9",,,,,"10139,1,99999,9",,,,"MET049METAR EGOW 220650Z 16006KT CAVOK 12/// Q1014 BLU;",
"03018099999","2010-09-22T07:50:00","4","53.581575","-3.055522","11.27","WOODVALE, UK","FM-15","EGOW ","V020","140,1,N,0036,1","99999,9,9,Y","009900,1,N,1","+0130,1","+0110,1","99999,9",,,,,"10139,1,99999,9",,,,"MET049METAR EGOW 220750Z 14007KT CAVOK 13/11 Q1014 BLU;",
"03018099999","2010-09-22T08:50:00","4","53.581575","-3.055522","11.27","WOODVALE, UK","FM-15","EGOW ","V020","150,1,N,0051,1","99999,9,9,Y","009900,1,N,1","+0150,1","+0120,1","99999,9",,,,,"10139,1,99999,9",,,,"MET049METAR EGOW 220850Z 15010KT CAVOK 15/12 Q1014 BLU;",
"03018099999","2010-09-22T09:50:00","4","53.581575","-3.055522","11.27","WOODVALE, UK","FM-15","EGOW ","V020","160,1,N,0051,1","99999,9,9,Y","009900,1,N,1","+0160,1","+0120,1","99999,9",,,,,"10129,1,99999,9",,,,"MET049METAR EGOW 220950Z 16010KT CAVOK 16/12 Q1013 BLU;",
"03018099999","2010-09-22T10:50:00","4","53.581575","-3.055522","11.27","WOODVALE, UK","FM-15","EGOW ","V020","170,1,N,0046,1","99999,9,9,Y","009900,1,N,1","+0180,1","+0110,1","99999,9",,,,,"10129,1,99999,9",,,,"MET049METAR EGOW 221050Z 17009KT CAVOK 18/11 Q1013 BLU;",
"03018099999","2010-09-22T11:50:00","4","53.581575","-3.055522","11.27","WOODVALE, UK","FM-15","EGOW ","V020","170,1,N,0051,1","99999,9,9,Y","009900,1,N,1","+0180,1","+0110,1","99999,9",,,,,"10119,1,99999,9",,,,"MET049METAR EGOW 221150Z 17010KT CAVOK 18/11 Q1012 BLU;",
"03018099999","2010-09-22T12:50:00","4","53.581575","-3.055522","11.27","WOODVALE, UK","FM-15","EGOW ","V020","170,1,N,0036,1","99999,9,9,Y","009900,1,N,1","+0180,1","+0120,1","99999,9",,,,,"10119,1,99999,9",,,,"MET049METAR EGOW 221250Z 17007KT CAVOK 18/12 Q1012 BLU;",
"03018099999","2010-09-22T13:50:00","4","53.581575","-3.055522","11.27","WOODVALE, UK","FM-15","EGOW ","V020","170,1,N,0026,1","02400,1,C,N","011265,1,N,1","+0180,1","+0140,1","99999,9","02,5,+01200,1,99,9","07,5,+02400,1,99,9","08,5,+05400,1,99,9","08,99,1,99,9,99,9,99999,9,99,9,99,9","10119,1,99999,9","51,1",,,"MET073METAR EGOW 221350Z 17005KT 9999 -DZ FEW040 BKN080 OVC180 18/14 Q1012 BLU;",
"03018099999","2010-09-23T06:50:00","4","53.581575","-3.055522","11.27","WOODVALE, UK","FM-15","EGOW ","V020","180,1,N,0026,1","99999,9,C,N","011265,1,N,1","+0140,1","+0130,1","99999,9","02,5,+00570,1,99,9","04,5,+01050,1,99,9","04,5,+01200,1,09,5","04,99,1,99,9,99,9,99999,9,99,9,99,9","10041,1,99999,9",,,,"MET071METAR EGOW 230650Z 18005KT 9999 FEW019 SCT035 SCT040CB 14/13 Q1004 BLU;","P01 010503SCOCIG"
"03018099999","2010-09-23T07:50:00","4","53.581575","-3.055522","11.27","WOODVALE, UK","FM-15","EGOW ","V020","190,1,N,0041,1","99999,9,C,N","011265,1,N,1","+0150,1","+0130,1","99999,9","02,5,+00600,1,99,9","04,5,+01200,1,99,9",,"04,99,1,99,9,99,9,99999,9,99,9,99,9","10041,1,99999,9",,,,"MET062METAR EGOW 230750Z 19008KT 9999 FEW020 SCT040 15/13 Q1004 BLU;","P01 012003SCOCIG"
"03018099999","2010-09-23T08:50:00","4","53.581575","-3.055522","11.27","WOODVALE, UK","FM-15","EGOW ","V020","200,1,N,0041,1","99999,9,C,N","011265,1,N,1","+0150,1","+0130,1","99999,9","02,5,+00600,1,99,9","04,5,+01050,1,99,9",,"04,99,1,99,9,99,9,99999,9,99,9,99,9","10041,1,99999,9",,,,"MET062METAR EGOW 230850Z 20008KT 9999 FEW020 SCT035 15/13 Q1004 BLU;","P01 010503SCOCIG"
"03018099999","2010-09-23T09:50:00","4","53.581575","-3.055522","11.27","WOODVALE, UK","FM-15","EGOW ","V020","200,1,N,0041,1","99999,9,C,N","011265,1,N,1","+0160,1","+0120,1","99999,9","02,5,+00750,1,99,9","04,5,+01050,1,99,9",,"04,99,1,99,9,99,9,99999,9,99,9,99,9","10041,1,99999,9",,,,"MET062METAR EGOW 230950Z 20008KT 9999 FEW025 SCT035 16/12 Q1004 BLU;","P01 010503SCOCIG"
"03018099999","2010-09-23T10:50:00","4","53.581575","-3.055522","11.27","WOODVALE, UK","FM-15","EGOW ","V020","220,1,N,0051,1","01050,1,C,N","011265,1,N,1","+0160,1","+0120,1","99999,9","02,5,+00750,1,99,9","07,5,+01050,1,99,9",,"07,99,1,99,9,99,9,99999,9,99,9,99,9","10041,1,99999,9",,,,"MET062METAR EGOW 231050Z 22010KT 9999 FEW025 BKN035 16/12 Q1004 BLU;",
"03018099999","2010-09-23T11:50:00","4","53.581575","-3.055522","11.27","WOODVALE, UK","FM-15","EGOW ","V020","260,1,N,0031,1","99999,9,C,N","011265,1,N,1","+0160,1","+0130,1","99999,9","02,5,+00510,1,99,9","04,5,+00750,1,99,9",,"04,99,1,99,9,99,9,99999,9,99,9,99,9","10041,1,99999,9",,,,"MET062METAR EGOW 231150Z 26006KT 9999 FEW017 SCT025 16/13 Q1004 BLU;","P01 007503SCOCIG"
"03018099999","2010-09-23T12:50:00","4","53.581575","-3.055522","11.27","WOODVALE, UK","FM-15","EGOW ","V020","250,1,N,0041,1","00750,1,C,N","011265,1,N,1","+0180,1","+0120,1","99999,9","02,5,+00510,1,99,9","04,5,+00750,1,99,9","07,5,+01200,1,99,9","07,99,1,99,9,99,9,99999,9,99,9,99,9","10031,1,99999,9",,,,"MET069METAR EGOW 231250Z 25008KT 9999 FEW017 SCT025 BKN040 18/12 Q1003 BLU;",
"03018099999","2010-09-23T13:50:00","4","53.581575","-3.055522","11.27","WOODVALE, UK","FM-15","EGOW ","V020","250,1,N,0031,1","00900,1,C,N","011265,1,N,1","+0160,1","+0130,1","99999,9","02,5,+00450,1,99,9","04,5,+00900,1,99,9","07,5,+01500,1,99,9","07,99,1,99,9,99,9,99999,9,99,9,99,9","10031,1,99999,9","16,1",,,"MET074METAR EGOW 231350Z 25006KT 9999 VCSH FEW015 SCT030 BKN050 16/13 Q1003 BLU;",
"03018099999","2010-09-23T14:50:00","4","53.581575","-3.055522","11.27","WOODVALE, UK","FM-15","EGOW ","V020","260,1,N,0021,1","01500,1,C,N","011265,1,N,1","+0160,1","+0130,1","99999,9","02,5,+00450,1,99,9","04,5,+01500,1,99,9","07,5,+04500,1,99,9","07,99,1,99,9,99,9,99999,9,99,9,99,9","10031,1,99999,9","16,1",,,"MET074METAR EGOW 231450Z 26004KT 9999 VCSH FEW015 SCT050 BKN150 16/13 Q1003 BLU;",
"03018099999","2010-09-24T06:50:00","4","53.581575","-3.055522","11.27","WOODVALE, UK","FM-15","EGOW ","V020","010,1,N,0077,1","01800,1,C,N","011265,1,N,1","+0110,1","+0070,1","99999,9","02,5,+00600,1,99,9","07,5,+01800,1,99,9",,"07,99,1,99,9,99,9,99999,9,99,9,99,9","10071,1,99999,9","51,1",,,"MET066METAR EGOW 240650Z 01015KT 9999 -DZ FEW020 BKN060 11/07 Q1007 BLU;",
"03018099999","2010-09-24T07:50:00","4","53.581575","-3.055522","11.27","WOODVALE, UK","FM-15","EGOW ","V020","010,1,N,0077,1","01050,1,C,N","011265,1,N,1","+0110,1","+0060,1","99999,9","02,5,+00660,1,99,9","04,5,+01050,1,99,9","07,5,+01800,1,99,9","07,99,1,99,9,99,9,99999,9,99,9,99,9","10081,1,99999,9","51,1",,,"MET073METAR EGOW 240750Z 01015KT 9999 -DZ FEW022 SCT035 BKN060 11/06 Q1008 BLU;",
"03018099999","2010-09-24T08:50:00","4","53.581575","-3.055522","11.27","WOODVALE, UK","FM-15","EGOW ","V020","010,1,N,0072,1","01200,1,C,N","011265,1,N,1","+0110,1","+0050,1","99999,9","02,5,+00660,1,99,9","07,5,+01200,1,99,9",,"07,99,1,99,9,99,9,99999,9,99,9,99,9","10091,1,99999,9",,,,"MET062METAR EGOW 240850Z 01014KT 9999 FEW022 BKN040 11/05 Q1009 BLU;",
"03018099999","2010-09-24T09:50:00","4","53.581575","-3.055522","11.27","WOODVALE, UK","FM-15","EGOW ","V020","010,1,N,0082,1","01200,1,C,N","011265,1,N,1","+0110,1","+0060,1","99999,9","02,5,+00660,1,99,9","07,5,+01200,1,99,9",,"07,99,1,99,9,99,9,99999,9,99,9,99,9","10108,1,99999,9",,,,"MET062METAR EGOW 240950Z 01016KT 9999 FEW022 BKN040 11/06 Q1011 BLU;",
"03018099999","2010-09-24T10:50:00","4","53.581575","-3.055522","11.27","WOODVALE, UK","FM-15","EGOW ","V020","010,1,N,0093,1","99999,9,C,N","011265,1,N,1","+0110,1","+0040,1","99999,9","02,5,+00750,1,99,9","04,5,+01200,1,99,9",,"04,99,1,99,9,99,9,99999,9,99,9,99,9","10108,1,99999,9",,,,"MET062METAR EGOW 241050Z 01018KT 9999 FEW025 SCT040 11/04 Q1011 BLU;","P01 012003SCOCIG"
"03018099999","2010-09-24T11:50:00","4","53.581575","-3.055522","11.27","WOODVALE, UK","FM-15","EGOW ","V020","020,1,N,0067,1","01200,1,C,N","011265,1,N,1","+0120,1","+0040,1","99999,9","02,5,+00900,1,99,9","07,5,+01200,1,99,9",,"07,99,1,99,9,99,9,99999,9,99,9,99,9","10119,1,99999,9",,,"0118,1","MET065METAR EGOW 241150Z 02013G23KT 9999 FEW030 BKN040 12/04 Q1012 BLU;",
"03018099999","2010-09-24T12:50:00","4","53.581575","-3.055522","11.27","WOODVALE, UK","FM-15","EGOW ","V020","010,1,N,0103,1","01200,1,C,N","011265,1,N,1","+0120,1","+0030,1","99999,9","02,5,+01080,1,99,9","07,5,+01200,1,99,9",,"07,99,1,99,9,99,9,99999,9,99,9,99,9","10119,1,99999,9",,,,"MET062METAR EGOW 241250Z 01020KT 9999 FEW036 BKN040 12/03 Q1012 BLU;",
"03018099999","2010-09-24T13:50:00","4","53.581575","-3.055522","11.27","WOODVALE, UK","FM-15","EGOW ","V020","010,1,N,0072,1","01200,1,C,N","011265,1,N,1","+0120,1","+0030,1","99999,9","02,5,+01080,1,99,9","07,5,+01200,1,99,9",,"07,99,1,99,9,99,9,99999,9,99,9,99,9","10129,1,99999,9",,,"0123,1","MET065METAR EGOW 241350Z 01014G24KT 9999 FEW036 BKN040 12/03 Q1013 BLU;",
"03018099999","2010-09-25T06:50:00","4","53.581575","-3.055522","11.27","WOODVALE, UK","FM-15","EGOW ","V020","020,1,N,0021,1","22000,1,9,N","011265,1,N,1","+0060,1","+0030,1","99999,9","02,5,+00600,1,99,9",,,"02,99,1,99,9,99,9,99999,9,99,9,99,9","10190,1,99999,9",,,,"MET055METAR EGOW 250650Z 02004KT 9999 FEW020 06/03 Q1019 BLU;",
"03018099999","2010-09-25T07:50:00","4","53.581575","-3.055522","11.27","WOODVALE, UK","FM-15","EGOW ","V020","360,1,N,0031,1","22000,1,9,N","011265,1,N,1","+0080,1","+0020,1","99999,9","02,5,+00600,1,99,9",,,"02,99,1,99,9,99,9,99999,9,99,9,99,9","10190,1,99999,9",,,,"MET055METAR EGOW 250750Z 36006KT 9999 FEW020 08/02 Q1019 BLU;",
"03018099999","2010-09-25T08:50:00","4","53.581575","-3.055522","11.27","WOODVALE, UK","FM-15","EGOW ","V020","360,1,N,0041,1","22000,1,9,N","011265,1,N,1","+0100,1","+0020,1","99999,9","02,5,+00750,1,99,9",,,"02,99,1,99,9,99,9,99999,9,99,9,99,9","10190,1,99999,9",,,,"MET055METAR EGOW 250850Z 36008KT 9999 FEW025 10/02 Q1019 BLU;",
"03018099999","2010-09-25T09:50:00","4","53.581575","-3.055522","11.27","WOODVALE, UK","FM-15","EGOW ","V020","340,1,N,0051,1","22000,1,9,N","011265,1,N,1","+0120,1","+0020,1","99999,9","02,5,+00900,1,99,9",,,"02,99,1,99,9,99,9,99999,9,99,9,99,9","10200,1,99999,9",,,,"MET055METAR EGOW 250950Z 34010KT 9999 FEW030 12/02 Q1020 BLU;",
"03018099999","2010-09-25T10:50:00","4","53.581575","-3.055522","11.27","WOODVALE, UK","FM-15","EGOW ","V020","340,1,N,0057,1","99999,9,9,Y","009900,1,N,1","+0130,1","+0010,1","99999,9",,,,,"10200,1,99999,9",,,,"MET049METAR EGOW 251050Z 34011KT CAVOK 13/01 Q1020 BLU;",
"03018099999","2010-09-25T11:50:00","4","53.581575","-3.055522","11.27","WOODVALE, UK","FM-15","EGOW ","V020","340,1,N,0057,1","22000,1,9,N","011265,1,N,1","+0130,1","+0030,1","99999,9","02,5,+01200,1,99,9",,,"02,99,1,99,9,99,9,99999,9,99,9,99,9","10200,1,99999,9",,,,"MET055METAR EGOW 251150Z 34011KT 9999 FEW040 13/03 Q1020 BLU;",
"03018099999","2010-09-25T12:50:00","4","53.581575","-3.055522","11.27","WOODVALE, UK","FM-15","EGOW ","V020","350,1,N,0057,1","22000,1,9,N","011265,1,N,1","+0120,1","+0030,1","99999,9","04,5,+01080,1,99,9",,,"04,99,1,99,9,99,9,99999,9,99,9,99,9","10200,1,99999,9",,,,"MET055METAR EGOW 251250Z 35011KT 9999 SCT036 12/03 Q1020 BLU;",
"03018099999","2010-09-26T06:50:00","4","53.581575","-3.055522","11.27","WOODVALE, UK","FM-15","EGOW ","V020","350,1,N,0041,1","22000,1,9,N","011265,1,N,1","+0080,1","+0040,1","99999,9","02,5,+01200,1,99,9",,,"02,99,1,99,9,99,9,99999,9,99,9,99,9","10180,1,99999,9",,,,"MET055METAR EGOW 260650Z 35008KT 9999 FEW040 08/04 Q1018 BLU;",
"03018099999","2010-09-26T07:50:00","4","53.581575","-3.055522","11.27","WOODVALE, UK","FM-15","EGOW ","V020","050,1,N,0031,1","99999,9,9,Y","009900,1,N,1","+0100,1","+0050,1","99999,9",,,,,"10180,1,99999,9",,,,"MET049METAR EGOW 260750Z 05006KT CAVOK 10/05 Q1018 BLU;",
"03018099999","2010-09-26T08:50:00","4","53.581575","-3.055522","11.27","WOODVALE, UK","FM-15","EGOW ","V020","010,1,N,0062,1","99999,9,9,Y","009900,1,N,1","+0110,1","+0040,1","99999,9",,,,,"10180,1,99999,9",,,,"MET049METAR EGOW 260850Z 01012KT CAVOK 11/04 Q1018 BLU;",
"03018099999","2010-09-26T09:50:00","4","53.581575","-3.055522","11.27","WOODVALE, UK","FM-15","EGOW ","V020","010,1,N,0062,1","99999,9,9,Y","009900,1,N,1","+0120,1","+0050,1","99999,9",,,,,"10180,1,99999,9",,,,"MET049METAR EGOW 260950Z 01012KT CAVOK 12/05 Q1018 BLU;",
"03018099999","2010-09-26T10:50:00","4","53.581575","-3.055522","11.27","WOODVALE, UK","FM-15","EGOW ","V020","020,1,N,0067,1","99999,9,9,Y","009900,1,N,1","+0120,1","+0040,1","99999,9",,,,,"10169,1,99999,9",,,,"MET049METAR EGOW 261050Z 02013KT CAVOK 12/04 Q1017 BLU;",
"03018099999","2010-09-26T11:50:00","4","53.581575","-3.055522","11.27","WOODVALE, UK","FM-15","EGOW ","V020","350,1,N,0057,1","22000,1,9,N","011265,1,N,1","+0130,1","+0060,1","99999,9","02,5,+01050,1,99,9",,,"02,99,1,99,9,99,9,99999,9,99,9,99,9","10169,1,99999,9",,,,"MET055METAR EGOW 261150Z 35011KT 9999 FEW035 13/06 Q1017 BLU;",
"03018099999","2010-09-26T12:50:00","4","53.581575","-3.055522","11.27","WOODVALE, UK","FM-15","EGOW ","V020","340,1,N,0051,1","22000,1,9,N","011265,1,N,1","+0130,1","+0060,1","99999,9","04,5,+00900,1,99,9",,,"04,99,1,99,9,99,9,99999,9,99,9,99,9","10169,1,99999,9",,,,"MET055METAR EGOW 261250Z 34010KT 9999 SCT030 13/06 Q1017 BLU;",
"03018099999","2010-09-29T06:50:00","4","53.581575","-3.055522","11.27","WOODVALE, UK","FM-15","EGOW ","V020","140,1,N,0026,1","00270,1,C,N","006000,1,N,1","+0140,1","+0140,1","99999,9","02,5,+00210,1,99,9","04,5,+00270,1,99,9","08,5,+00450,1,99,9","08,99,1,99,9,99,9,99999,9,99,9,99,9","10108,1,99999,9","63,1",,,"MET072METAR EGOW 290650Z 14005KT 6000 RA FEW007 SCT009 OVC015 14/14 Q1011 GRN;",
"03018099999","2010-09-29T07:50:00","4","53.581575","-3.055522","11.27","WOODVALE, UK","FM-15","EGOW ","V020","160,1,N,0051,1","00900,1,C,N","003500,1,N,1","+0140,1","+0140,1","99999,9","04,5,+00240,1,99,9","07,5,+00900,1,99,9",,"07,99,1,99,9,99,9,99999,9,99,9,99,9","10108,1,99999,9","63,1",,,"MET066METAR EGOW 290750Z 16010KT 3500 RA SCT008 BKN030 14/14 Q1011 YLO1;",
"03018099999","2010-09-29T08:50:00","4","53.581575","-3.055522","11.27","WOODVALE, UK","FM-15","EGOW ","V020","150,1,N,0067,1","00900,1,C,N","004000,1,N,1","+0150,1","+0140,1","99999,9","04,5,+00240,1,99,9","07,5,+00900,1,99,9",,"07,99,1,99,9,99,9,99999,9,99,9,99,9","10102,1,99999,9","63,1",,,"MET065METAR EGOW 290850Z 15013KT 4000 RA SCT008 BKN030 15/14 Q1010 GRN;",
"03018099999","2010-09-29T09:50:00","4","53.581575","-3.055522","11.27","WOODVALE, UK","FM-15","EGOW ","V020","150,1,N,0067,1","00900,1,C,N","011265,1,N,1","+0150,1","+0140,1","99999,9","04,5,+00240,1,99,9","07,5,+00900,1,99,9",,"07,99,1,99,9,99,9,99999,9,99,9,99,9","10102,1,99999,9",,,,"MET067METAR EGOW 290950Z 15013KT 9999 SCT008 BKN030 15/14 Q1010 RERA GRN;",
"03018099999","2010-09-29T10:50:00","4","53.581575","-3.055522","11.27","WOODVALE, UK","FM-15","EGOW ","V020","160,1,N,0072,1","00360,1,C,N","011265,1,N,1","+0150,1","+0140,1","99999,9","02,5,+00240,1,99,9","04,5,+00360,1,99,9","07,5,+01500,1,99,9","07,99,1,99,9,99,9,99999,9,99,9,99,9","10102,1,99999,9","61,1",,,"MET073METAR EGOW 291050Z 16014KT 9999 -RA FEW008 SCT012 BKN050 15/14 Q1010 GRN;",
"03018099999","2010-09-29T11:50:00","4","53.581575","-3.055522","11.27","WOODVALE, UK","FM-15","EGOW ","V020","260,1,N,0072,1","03000,1,C,N","011265,1,N,1","+0140,1","+0130,1","99999,9","02,5,+00360,1,99,9","07,5,+03000,1,99,9",,"07,99,1,99,9,99,9,99999,9,99,9,99,9","10108,1,99999,9",,,,"MET062METAR EGOW 291150Z 26014KT 9999 FEW012 BKN100 14/13 Q1011 BLU;",
"03018099999","2010-09-29T12:50:00","4","53.581575","-3.055522","11.27","WOODVALE, UK","FM-15","EGOW ","V020","270,1,N,0072,1","00600,1,C,N","011265,1,N,1","+0150,1","+0130,1","99999,9","02,5,+00150,1,99,9","04,5,+00600,1,99,9","07,5,+03000,1,99,9","07,99,1,99,9,99,9,99999,9,99,9,99,9","10108,1,99999,9",,,,"MET069METAR EGOW 291250Z 27014KT 9999 FEW005 SCT020 BKN100 15/13 Q1011 WHT;",
"03018099999","2010-09-30T06:50:00","4","53.581575","-3.055522","11.27","WOODVALE, UK","FM-15","EGOW ","V020","999,9,C,0000,1","22000,1,9,N","006000,1,N,1","+0070,1","+0060,1","99999,9","02,5,+00750,1,99,9",,,"02,99,1,99,9,99,9,99999,9,99,9,99,9","10129,1,99999,9","10,1",,,"MET058METAR EGOW 300650Z 00000KT 6000 BR FEW025 07/06 Q1013 BLU;",
"03018099999","2010-09-30T07:50:00","4","53.581575","-3.055522","11.27","WOODVALE, UK","FM-15","EGOW ","V020","140,1,N,0015,1","22000,1,9,N","007000,1,N,1","+0080,1","+0070,1","99999,9",,,,"00,99,1,99,9,99,9,99999,9,99,9,99,9","10129,1,99999,9","10,1",,,"MET055METAR EGOW 300750Z 14003KT 7000 BR NSC 08/07 Q1013 WHT;","Q01    003SCCGA1"
"03018099999","2010-09-30T08:50:00","4","53.581575","-3.055522","11.27","WOODVALE, UK","FM-15","EGOW ","V020","140,1,N,0021,1","99999,9,9,Y","009900,1,N,1","+0110,1","+0100,1","99999,9",,,,,"10129,1,99999,9",,,,"MET049METAR EGOW 300850Z 14004KT CAVOK 11/10 Q1013 BLU;",
"03018099999","2010-09-30T09:50:00","4","53.581575","-3.055522","11.27","WOODVALE, UK","FM-15","EGOW ","V020","130,1,N,0021,1","99999,9,9,Y","009900,1,N,1","+0130,1","+0100,1","99999,9",,,,,"10129,1,99999,9",,,,"MET049METAR EGOW 300950Z 13004KT CAVOK 13/10 Q1013 BLU;",
"03018099999","2010-09-30T10:50:00","4","53.581575","-3.055522","11.27","WOODVALE, UK","FM-15","EGOW ","V020","200,1,N,0026,1","22000,1,9,N","011265,1,N,1","+0160,1","+0090,1","99999,9","02,5,+01200,1,99,9",,,"02,99,1,99,9,99,9,99999,9,99,9,99,9","10119,1,99999,9",,,,"MET055METAR EGOW 301050Z 20005KT 9999 FEW040 16/09 Q1012 BLU;",
"03018099999","2010-09-30T11:50:00","4","53.581575","-3.055522","11.27","WOODVALE, UK","FM-15","EGOW ","V020","200,1,N,0046,1","99999,9,C,N","011265,1,N,1","+0150,1","+0090,1","99999,9","02,5,+00750,1,99,9","04,5,+01200,1,99,9",,"04,99,1,99,9,99,9,99999,9,99,9,99,9","10119,1,99999,9",,,,"MET062METAR EGOW 301150Z 20009KT 9999 FEW025 SCT040 15/09 Q1012 BLU;","P01 012003SCOCIG"
"03018099999","2010-09-30T12:50:00","4","53.581575","-3.055522","11.27","WOODVALE, UK","FM-15","EGOW ","V020","190,1,N,0015,1","99999,9,C,N","011265,1,N,1","+0170,1","+0100,1","99999,9","02,5,+00750,1,99,9","04,5,+01200,1,99,9",,"04,99,1,99,9,99,9,99999,9,99,9,99,9","10108,1,99999,9","16,1",,,"MET067METAR EGOW 301250Z 19003KT 9999 VCSH FEW025 SCT040 17/10 Q1011 BLU;","P01 012003SCOCIG"
"03018099999","2010-10-01T06:50:00","4","53.581575","-3.055522","11.27","WOODVALE, UK","FM-15","EGOW ","V020","140,1,N,0072,1","00360,1,C,N","011265,1,N,1","+0130,1","+0120,1","99999,9","02,5,+00240,1,99,9","07,5,+00360,1,99,9",,"07,99,1,99,9,99,9,99999,9,99,9,99,9","09959,1,99999,9",,,"0123,1","MET065METAR EGOW 010650Z 14014G24KT 9999 FEW008 BKN012 13/12 Q0996 GRN;",
"03018099999","2010-10-01T07:50:00","4","53.581575","-3.055522","11.27","WOODVALE, UK","FM-15","EGOW ","V020","140,1,N,0082,1","00450,1,C,N","011265,1,N,1","+0140,1","+0120,1","99999,9","04,5,+00360,1,99,9","07,5,+00450,1,99,9",,"07,99,1,99,9,99,9,99999,9,99,9,99,9","09949,1,99999,9","61,1",,"0139,1","MET069METAR EGOW 010750Z 14016G27KT 9999 -RA SCT012 BKN015 14/12 Q0995 GRN;",
"03018099999","2010-10-01T08:50:00","4","53.581575","-3.055522","11.27","WOODVALE, UK","FM-15","EGOW ","V020","140,1,N,0093,1","00420,1,C,N","011265,1,N,1","+0140,1","+0130,1","99999,9","04,5,+00300,1,99,9","07,5,+00420,1,99,9",,"07,99,1,99,9,99,9,99999,9,99,9,99,9","09939,1,99999,9",,,"0144,1","MET065METAR EGOW 010850Z 14018G28KT 9999 SCT010 BKN014 14/13 Q0994 GRN;",
"03018099999","2010-10-01T09:50:00","4","53.581575","-3.055522","11.27","WOODVALE, UK","FM-15","EGOW ","V020","150,1,N,0108,1","00300,1,C,N","004000,1,N,1","+0150,1","+0120,1","99999,9","07,5,+00300,1,99,9",,,"07,99,1,99,9,99,9,99999,9,99,9,99,9","09939,1,99999,9","65,1",,,"MET059METAR EGOW 010950Z 15021KT 4000 +RA BKN010 15/12 Q0994 GRN;",
"03018099999","2010-10-01T10:50:00","4","53.581575","-3.055522","11.27","WOODVALE, UK","FM-15","EGOW ","V020","160,1,N,0082,1","00360,1,C,N","011265,1,N,1","+0150,1","+0130,1","99999,9","07,5,+00360,1,99,9",,,"07,99,1,99,9,99,9,99999,9,99,9,99,9","09939,1,99999,9",,,"0144,1","MET058METAR EGOW 011050Z 16016G28KT 9999 BKN012 15/13 Q0994 GRN;",
"03018099999","2010-10-02T06:50:00","4","53.581575","-3.055522","11.27","WOODVALE, UK","FM-15","EGOW ","V020","160,1,N,0026,1","99999,9,9,Y","009900,1,N,1","+0080,1","+0070,1","99999,9",,,,,"10020,1,99999,9",,,,"MET049METAR EGOW 020650Z 16005KT CAVOK 08/07 Q1002 BLU;",
"03018099999","2010-10-02T07:50:00","4","53.581575","-3.055522","11.27","WOODVALE, UK","FM-15","EGOW ","V020","150,1,N,0041,1","99999,9,9,Y","009900,1,N,1","+0090,1","+0080,1","99999,9",,,,,"10020,1,99999,9",,,,"MET049METAR EGOW 020750Z 15008KT CAVOK 09/08 Q1002 BLU;",
"03018099999","2010-10-02T08:50:00","4","53.581575","-3.055522","11.27","WOODVALE, UK","FM-15","EGOW ","V020","160,1,N,0057,1","99999,9,9,Y","009900,1,N,1","+0110,1","+0090,1","99999,9",,,,,"10020,1,99999,9",,,,"MET049METAR EGOW 020850Z 16011KT CAVOK 11/09 Q1002 BLU;",
"03018099999","2010-10-02T09:50:00","4","53.581575","-3.055522","11.27","WOODVALE, UK","FM-15","EGOW ","V020","160,1,N,0057,1","99999,9,9,Y","009900,1,N,1","+0130,1","+0080,1","99999,9",,,,,"10020,1,99999,9",,,,"MET049METAR EGOW 020950Z 16011KT CAVOK 13/08 Q1002 BLU;",
"03018099999","2010-10-02T10:50:00","4","53.581575","-3.055522","11.27","WOODVALE, UK","FM-15","EGOW ","V020","160,1,N,0067,1","99999,9,9,Y","009900,1,N,1","+0140,1","+0090,1","99999,9",,,,,"10020,1,99999,9",,,,"MET049METAR EGOW 021050Z 16013KT CAVOK 14/09 Q1002 BLU;",
"03018099999","2010-10-02T11:50:00","4","53.581575","-3.055522","11.27","WOODVALE, UK","FM-15","EGOW ","V020","170,1,N,0051,1","99999,9,9,Y","009900,1,N,1","+0140,1","+0090,1","99999,9",,,,,"10020,1,99999,9",,,,"MET049METAR EGOW 021150Z 17010KT CAVOK 14/09 Q1002 BLU;",
"03018099999","2010-10-02T12:50:00","4","53.581575","-3.055522","11.27","WOODVALE, UK","FM-15","EGOW ","V020","160,1,N,0072,1","03600,5,9,N","999999,9,N,1","+0140,1","+0090,1","99999,9","02,5,+00600,5,99,9","07,5,+03600,5,99,9",,,"10010,1,99999,9",,,,"MET057METAR EGOW 021250Z 16014KT FEW020 BKN120 14/09 Q1001 BLU;",
"03018099999","2010-10-02T13:50:00","4","53.581575","-3.055522","11.27","WOODVALE, UK","FM-15","EGOW ","V020","170,1,N,0077,1","03600,1,C,N","011265,1,N,1","+0140,1","+0090,1","99999,9","02,5,+00600,1,99,9","08,5,+03600,1,99,9",,"08,99,1,99,9,99,9,99999,9,99,9,99,9","10010,1,99999,9",,,,"MET062METAR EGOW 021350Z 17015KT 9999 FEW020 OVC120 14/09 Q1001 BLU;",
"03018099999","2010-10-02T14:50:00","4","53.581575","-3.055522","11.27","WOODVALE, UK","FM-15","EGOW ","V020","150,1,N,0062,1","99999,9,9,Y","009900,1,N,1","+0140,1","+0080,1","99999,9",,,,,"10000,1,99999,9",,,,"MET049METAR EGOW 021450Z 15012KT CAVOK 14/08 Q1000 BLU;",
"03018099999","2010-10-03T06:50:00","4","53.581575","-3.055522","11.27","WOODVALE, UK","FM-15","EGOW ","V020","120,1,N,0041,1","00150,1,C,N","003000,1,N,1","+0110,1","+0110,1","99999,9","07,5,+00150,1,99,9",,,"07,99,1,99,9,99,9,99999,9,99,9,99,9","09919,1,99999,9","63,1",,,"MET059METAR EGOW 030650Z 12008KT 3000 RA BKN005 11/11 Q0992 YLO1;",
"03018099999","2010-10-03T07:50:00","4","53.581575","-3.055522","11.27","WOODVALE, UK","FM-15","EGOW ","V020","100,1,N,0031,1","00150,1,C,N","003000,1,N,1","+0110,1","+0110,1","99999,9","07,5,+00150,1,99,9",,,"07,99,1,99,9,99,9,99999,9,99,9,99,9","09919,1,99999,9","63,1",,,"MET059METAR EGOW 030750Z 10006KT 3000 RA BKN005 11/11 Q0992 YLO1;",
"03018099999","2010-10-03T08:50:00","4","53.581575","-3.055522","11.27","WOODVALE, UK","FM-15","EGOW ","V020","060,1,N,0021,1","00150,1,C,N","003600,1,N,1","+0110,1","+0110,1","99999,9","07,5,+00150,1,99,9","07,5,+01050,1,99,9",,"07,99,1,99,9,99,9,99999,9,99,9,99,9","09909,1,99999,9","63,1",,,"MET066METAR EGOW 030850Z 06004KT 3600 RA BKN005 BKN035 11/11 Q0991 YLO1;",
"03018099999","2010-10-03T09:50:00","4","53.581575","-3.055522","11.27","WOODVALE, UK","FM-15","EGOW ","V020","020,1,N,0026,1","00150,1,C,N","003500,1,N,1","+0110,1","+0110,1","99999,9","07,5,+00150,1,99,9","07,5,+01050,1,99,9",,"07,99,1,99,9,99,9,99999,9,99,9,99,9","09909,1,99999,9","63,1",,,"MET066METAR EGOW 030950Z 02005KT 3500 RA BKN005 BKN035 11/11 Q0991 YLO1;",
"03018099999","2010-10-03T10:50:00","4","53.581575","-3.055522","11.27","WOODVALE, UK","FM-15","EGOW ","V020","030,1,N,0031,1","00600,1,C,N","004000,1,N,1","+0110,1","+0110,1","99999,9","02,5,+00150,1,99,9","04,5,+00600,1,99,9","07,5,+01140,1,99,9","07,99,1,99,9,99,9,99999,9,99,9,99,9","09898,1,99999,9","63,1",,,"MET072METAR EGOW 031050Z 03006KT 4000 RA FEW005 SCT020 BKN038 11/11 Q0990 GRN;",
"03018099999","2010-10-03T11:50:00","4","53.581575","-3.055522","11.27","WOODVALE, UK","FM-15","EGOW ","V020","330,1,N,0026,1","00510,1,C,N","004500,1,N,1","+0110,1","+0110,1","99999,9","02,5,+00150,1,99,9","04,5,+00510,1,99,9","07,5,+00780,1,99,9","07,99,1,99,9,99,9,99999,9,99,9,99,9","09898,1,99999,9","63,1",,,"MET072METAR EGOW 031150Z 33005KT 4500 RA FEW005 SCT017 BKN026 11/11 Q0990 GRN;",
"03018099999","2010-10-03T12:50:00","4","53.581575","-3.055522","11.27","WOODVALE, UK","FM-15","EGOW ","V020","340,1,N,0031,1","99999,9,C,N","011265,1,N,1","+0130,1","+0130,1","99999,9","02,5,+00150,1,99,9","04,5,+00510,1,99,9",,"04,99,1,99,9,99,9,99999,9,99,9,99,9","09909,1,99999,9",,,,"MET062METAR EGOW 031250Z 34006KT 9999 FEW005 SCT017 13/13 Q0991 WHT;","P01 005103SCOCIG"
"03018099999","2010-10-03T13:50:00","4","53.581575","-3.055522","11.27","WOODVALE, UK","FM-15","EGOW ","V020","300,1,N,0036,1","22000,1,9,N","011265,1,N,1","+0140,1","+0120,1","99999,9","04,5,+00510,1,99,9",,,"04,99,1,99,9,99,9,99999,9,99,9,99,9","09909,1,99999,9",,,,"MET055METAR EGOW 031350Z 30007KT 9999 SCT017 14/12 Q0991 WHT;",
"03018099999","2010-10-06T06:50:00","4","53.581575","-3.055522","11.27","WOODVALE, UK","FM-15","EGOW ","V020","180,1,N,0026,1","99999,9,C,N","011265,1,N,1","+0100,1","+0090,1","99999,9","02,5,+00450,1,99,9","04,5,+00900,1,99,9",,"04,99,1,99,9,99,9,99999,9,99,9,99,9","09980,1,99999,9",,,,"MET062METAR EGOW 060650Z 18005KT 9999 FEW015 SCT030 10/09 Q0998 BLU;","P01 009003SCOCIG"
"03018099999","2010-10-06T07:50:00","4","53.581575","-3.055522","11.27","WOODVALE, UK","FM-15","EGOW ","V020","160,1,N,0031,1","99999,9,C,N","011265,1,N,1","+0100,1","+0090,1","99999,9","02,5,+00600,1,99,9","04,5,+01200,1,99,9",,"04,99,1,99,9,99,9,99999,9,99,9,99,9","09990,1,99999,9",,,,"MET062METAR EGOW 060750Z 16006KT 9999 FEW020 SCT040 10/09 Q0999 BLU;","P01 012003SCOCIG"
"03018099999","2010-10-06T08:50:00","4","53.581575","-3.055522","11.27","WOODVALE, UK","FM-15","EGOW ","V020","240,1,N,0057,1","99999,9,C,N","011265,1,N,1","+0110,1","+0070,1","99999,9","02,5,+00390,1,99,9","04,5,+00750,1,99,9",,"04,99,1,99,9,99,9,99999,9,99,9,99,9","09990,1,99999,9","61,1",,,"MET066METAR EGOW 060850Z 24011KT 9999 -RA FEW013 SCT025 11/07 Q0999 BLU;","P01 007503SCOCIG"
"03018099999","2010-10-06T09:50:00","4","53.581575","-3.055522","11.27","WOODVALE, UK","FM-15","EGOW ","V020","230,1,N,0051,1","22000,1,9,N","011265,1,N,1","+0150,1","+0100,1","99999,9","02,5,+00510,1,99,9",,,"02,99,1,99,9,99,9,99999,9,99,9,99,9","10000,1,99999,9",,,,"MET055METAR EGOW 060950Z 23010KT 9999 FEW017 15/10 Q1000 BLU;",
"03018099999","2010-10-06T10:50:00","4","53.581575","-3.055522","11.27","WOODVALE, UK","FM-15","EGOW ","V020","230,1,N,0067,1","22000,1,9,N","011265,1,N,1","+0150,1","+0090,1","99999,9","02,5,+00750,1,09,1",,,"02,99,1,99,9,99,9,99999,9,99,9,99,9","10010,1,99999,9",,,,"MET057METAR EGOW 061050Z 23013KT 9999 FEW025CB 15/09 Q1001 BLU;",
"03018099999","2010-10-06T11:50:00","4","53.581575","-3.055522","11.27","WOODVALE, UK","FM-15","EGOW ","V020","210,1,N,0077,1","22000,1,9,N","011265,1,N,1","+0150,1","+0080,1","99999,9","02,5,+00750,1,09,1",,,"02,99,1,99,9,99,9,99999,9,99,9,99,9","10010,1,99999,9",,,,"MET057METAR EGOW 061150Z 21015KT 9999 FEW025CB 15/08 Q1001 BLU;",
"03018099999","2010-10-06T12:50:00","4","53.581575","-3.055522","11.27","WOODVALE, UK","FM-15","EGOW ","V020","220,1,N,0062,1","99999,9,C,N","011265,1,N,1","+0160,1","+0080,1","99999,9","02,5,+00750,1,99,9","04,5,+01140,1,99,9",,"04,99,1,99,9,99,9,99999,9,99,9,99,9","10020,1,99999,9",,,,"MET062METAR EGOW 061250Z 22012KT 9999 FEW025 SCT038 16/08 Q1002 BLU;","P01 011403SCOCIG"
"03018099999","2010-10-06T13:50:00","4","53.581575","-3.055522","11.27","WOODVALE, UK","FM-15","EGOW ","V020","230,1,N,0087,1","22000,1,9,N","011265,1,N,1","+0150,1","+0070,1","99999,9","04,5,+00780,1,99,9",,,"04,99,1,99,9,99,9,99999,9,99,9,99,9","10031,1,99999,9",,,,"MET055METAR EGOW 061350Z 23017KT 9999 SCT026 15/07 Q1003 BLU;",
"03018099999","2010-10-06T14:50:00","4","53.581575","-3.055522","11.27","WOODVALE, UK","FM-15","EGOW ","V020","220,1,N,0093,1","22000,1,9,N","011265,1,N,1","+0160,1","+0080,1","99999,9","04,5,+00900,1,99,9",,,"04,99,1,99,9,99,9,99999,9,99,9,99,9","10041,1,99999,9",,,,"MET055METAR EGOW 061450Z 22018KT 9999 SCT030 16/08 Q1004 BLU;",
"03018099999","2010-10-07T06:50:00","4","53.581575","-3.055522","11.27","WOODVALE, UK","FM-15","EGOW ","V020","140,1,N,0051,1","99999,9,9,Y","009900,1,N,1","+0090,1","+0080,1","99999,9",,,,,"10149,1,99999,9",,,,"MET049METAR EGOW 070650Z 14010KT CAVOK 09/08 Q1015 BLU;",
"03018099999","2010-10-07T07:50:00","4","53.581575","-3.055522","11.27","WOODVALE, UK","FM-15","EGOW ","V020","150,1,N,0041,1","99999,9,9,Y","009900,1,N,1","+0100,1","+0090,1","99999,9",,,,,"10159,1,99999,9",,,,"MET049METAR EGOW 070750Z 15008KT CAVOK 10/09 Q1016 BLU;",
"03018099999","2010-10-07T08:50:00","4","53.581575","-3.055522","11.27","WOODVALE, UK","FM-15","EGOW ","V020","160,1,N,0062,1","22000,1,9,N","004000,1,N,1","+0110,1","+0090,1","99999,9","02,5,+00150,1,99,9",,,"02,99,1,99,9,99,9,99999,9,99,9,99,9","10159,1,99999,9","10,1",,,"MET058METAR EGOW 070850Z 16012KT 4000 BR FEW005 11/09 Q1016 GRN;",
"03018099999","2010-10-07T09:50:00","4","53.581575","-3.055522","11.27","WOODVALE, UK","FM-15","EGOW ","V020","150,1,N,0062,1","00150,1,C,N","004000,1,N,1","+0110,1","+0100,1","99999,9","07,5,+00150,1,99,9",,,"07,99,1,99,9,99,9,99999,9,99,9,99,9","10169,1,99999,9","10,1",,,"MET059METAR EGOW 070950Z 15012KT 4000 BR BKN005 11/10 Q1017 YLO1;",
"03018099999","2010-10-07T10:50:00","4","53.581575","-3.055522","11.27","WOODVALE, UK","FM-15","EGOW ","V020","160,1,N,0067,1","00210,1,C,N","008000,1,N,1","+0110,1","+0090,1","99999,9","07,5,+00210,1,99,9","07,5,+00270,1,99,9",,"07,99,1,99,9,99,9,99999,9,99,9,99,9","10180,1,99999,9","10,1",,,"MET065METAR EGOW 071050Z 16013KT 8000 BR BKN007 BKN009 11/09 Q1018 GRN;",
"03018099999","2010-10-07T11:50:00","4","53.581575","-3.055522","11.27","WOODVALE, UK","FM-15","EGOW ","V020","140,1,N,0062,1","22000,1,9,N","011265,1,N,1","+0130,1","+0100,1","99999,9","02,5,+00270,1,99,9",,,"02,99,1,99,9,99,9,99999,9,99,9,99,9","10169,1,99999,9",,,,"MET055METAR EGOW 071150Z 14012KT 9999 FEW009 13/10 Q1017 BLU;",
"03018099999","2010-10-07T12:50:00","4","53.581575","-3.055522","11.27","WOODVALE, UK","FM-15","EGOW ","V020","150,1,N,0067,1","22000,1,9,N","011265,1,N,1","+0140,1","+0100,1","99999,9","02,5,+00480,1,99,9",,,"02,99,1,99,9,99,9,99999,9,99,9,99,9","10169,1,99999,9",,,,"MET055METAR EGOW 071250Z 15013KT 9999 FEW016 14/10 Q1017 BLU;",
"03018099999","2010-10-08T06:50:00","4","53.581575","-3.055522","11.27","WOODVALE, UK","FM-15","EGOW ","V020","120,1,N,0041,1","00360,1,C,N","005000,1,N,1","+0150,1","+0140,1","99999,9","07,5,+00360,1,99,9",,,"07,99,1,99,9,99,9,99999,9,99,9,99,9","10149,1,99999,9",,,,"MET055METAR EGOW 080650Z 12008KT 5000 BKN012 15/14 Q1015 GRN;",
"03018099999","2010-10-08T07:50:00","4","53.581575","-3.055522","11.27","WOODVALE, UK","FM-15","EGOW ","V020","110,1,N,0041,1","03000,1,C,N","007000,1,N,1","+0150,1","+0140,1","99999,9","02,5,+00360,1,99,9","07,5,+03000,1,99,9",,"07,99,1,99,9,99,9,99999,9,99,9,99,9","10149,1,99999,9","10,1",,,"MET065METAR EGOW 080750Z 11008KT 7000 BR FEW012 BKN100 15/14 Q1015 WHT;",
"03018099999","2010-10-08T09:50:00","4","53.581575","-3.055522","11.27","WOODVALE, UK","FM-15","EGOW ","V020","110,1,N,0062,1","22000,1,9,N","011265,1,N,1","+0180,1","+0140,1","99999,9","02,5,+00360,1,99,9",,,"02,99,1,99,9,99,9,99999,9,99,9,99,9","10159,1,99999,9",,,,"MET055METAR EGOW 080950Z 11012KT 9999 FEW012 18/14 Q1016 BLU;",
"03018099999","2010-10-08T10:50:00","4","53.581575","-3.055522","11.27","WOODVALE, UK","FM-15","EGOW ","V020","110,1,N,0062,1","22000,1,9,N","011265,1,N,1","+0190,1","+0150,1","99999,9","02,5,+00360,1,99,9",,,"02,99,1,99,9,99,9,99999,9,99,9,99,9","10159,1,99999,9",,,,"MET055METAR EGOW 081050Z 11012KT 9999 FEW012 19/15 Q1016 BLU;",
"03018099999","2010-10-08T11:50:00","4","53.581575","-3.055522","11.27","WOODVALE, UK","FM-15","EGOW ","V020","110,1,N,0082,1","22000,1,9,N","011265,1,N,1","+0190,1","+0100,1","99999,9","02,5,+00360,1,99,9",,,"02,99,1,99,9,99,9,99999,9,99,9,99,9","10159,1,99999,9",,,,"MET055METAR EGOW 081150Z 11016KT 9999 FEW012 19/10 Q1016 BLU;",
"03018099999","2010-10-08T12:50:00","4","53.581575","-3.055522","11.27","WOODVALE, UK","FM-15","EGOW ","V020","100,1,N,0062,1","22000,1,9,N","006000,1,N,1","+0200,1","+0140,1","99999,9","02,5,+00360,1,99,9",,,"02,99,1,99,9,99,9,99999,9,99,9,99,9","10159,1,99999,9","05,1",,,"MET058METAR EGOW 081250Z 10012KT 6000 HZ FEW012 20/14 Q1016 WHT;",
"03018099999","2010-10-08T14:50:00","4","53.581575","-3.055522","11.27","WOODVALE, UK","FM-15","EGOW ","V020","100,1,N,0062,1","22000,1,9,N","005000,1,N,1","+0190,1","+0140,1","99999,9","02,5,+00450,1,99,9",,,"02,99,1,99,9,99,9,99999,9,99,9,99,9","10159,1,99999,9","05,1",,"0113,1","MET061METAR EGOW 081450Z 10012G22KT 5000 HZ FEW015 19/14 Q1016 WHT;",
"03018099999","2010-10-09T06:50:00","4","53.581575","-3.055522","11.27","WOODVALE, UK","FM-15","EGOW ","V020","080,1,N,0062,1","00480,1,C,N","006000,1,N,1","+0150,1","+0130,1","99999,9","02,5,+00240,1,99,9","07,5,+00480,1,99,9",,"07,99,1,99,9,99,9,99999,9,99,9,99,9","10180,1,99999,9","05,1",,,"MET065METAR EGOW 090650Z 08012KT 6000 HZ FEW008 BKN016 15/13 Q1018 WHT;",
"03018099999","2010-10-09T07:50:00","4","53.581575","-3.055522","11.27","WOODVALE, UK","FM-15","EGOW ","V020","090,1,N,0057,1","00450,1,C,N","006000,1,N,1","+0150,1","+0120,1","99999,9","07,5,+00450,1,99,9",,,"07,99,1,99,9,99,9,99999,9,99,9,99,9","10180,1,99999,9","05,1",,,"MET058METAR EGOW 090750Z 09011KT 6000 HZ BKN015 15/12 Q1018 WHT;",
"03018099999","2010-10-09T08:50:00","4","53.581575","-3.055522","11.27","WOODVALE, UK","FM-15","EGOW ","V020","090,1,N,0087,1","00480,1,C,N","008000,1,N,1","+0150,1","+0120,1","99999,9","07,5,+00480,1,99,9",,,"07,99,1,99,9,99,9,99999,9,99,9,99,9","10180,1,99999,9","05,1",,,"MET058METAR EGOW 090850Z 09017KT 8000 HZ BKN016 15/12 Q1018 WHT;",
"03018099999","2010-10-09T09:50:00","4","53.581575","-3.055522","11.27","WOODVALE, UK","FM-15","EGOW ","V020","090,1,N,0077,1","00480,1,C,N","011265,1,N,1","+0150,1","+0110,1","99999,9","07,5,+00480,1,99,9",,,"07,99,1,99,9,99,9,99999,9,99,9,99,9","10169,1,99999,9",,,,"MET055METAR EGOW 090950Z 09015KT 9999 BKN016 15/11 Q1017 WHT;",
"03018099999","2010-10-09T10:50:00","4","53.581575","-3.055522","11.27","WOODVALE, UK","FM-15","EGOW ","V020","100,1,N,0093,1","00480,1,C,N","006000,1,N,1","+0160,1","+0110,1","99999,9","02,5,+00300,1,99,9","07,5,+00480,1,99,9",,"07,99,1,99,9,99,9,99999,9,99,9,99,9","10169,1,99999,9","05,1",,"0144,1","MET068METAR EGOW 091050Z 10018G28KT 6000 HZ FEW010 BKN016 16/11 Q1017 WHT;",
"03018099999","2010-10-09T11:50:00","4","53.581575","-3.055522","11.27","WOODVALE, UK","FM-15","EGOW ","V020","100,1,N,0093,1","00480,1,C,N","006000,1,N,1","+0160,1","+0110,1","99999,9","07,5,+00480,1,99,9",,,"07,99,1,99,9,99,9,99999,9,99,9,99,9","10169,1,99999,9","05,1",,,"MET058METAR EGOW 091150Z 10018KT 6000 HZ BKN016 16/11 Q1017 WHT;",
"03018099999","2010-10-09T12:50:00","4","53.581575","-3.055522","11.27","WOODVALE, UK","FM-15","EGOW ","V020","100,1,N,0057,1","00450,1,C,N","008000,1,N,1","+0170,1","+0140,1","99999,9","07,5,+00450,1,99,9",,,"07,99,1,99,9,99,9,99999,9,99,9,99,9","10169,1,99999,9","05,1",,"0108,1","MET061METAR EGOW 091250Z 10011G21KT 8000 HZ BKN015 17/14 Q1017 WHT;",
"03018099999","2010-10-09T13:50:00","4","53.581575","-3.055522","11.27","WOODVALE, UK","FM-15","EGOW ","V020","080,1,N,0093,1","22000,1,9,N","008000,1,N,1","+0170,1","+0100,1","99999,9","04,5,+00450,1,99,9",,,"04,99,1,99,9,99,9,99999,9,99,9,99,9","10159,1,99999,9","05,1",,"0144,1","MET061METAR EGOW 091350Z 08018G28KT 8000 HZ SCT015 17/10 Q1016 WHT;",
"03018099999","2010-10-09T14:50:00","4","53.581575","-3.055522","11.27","WOODVALE, UK","FM-15","EGOW ","V020","070,1,N,0062,1","22000,1,9,N","008000,1,N,1","+0170,1","+0100,1","99999,9","04,5,+00450,1,99,9",,,"04,99,1,99,9,99,9,99999,9,99,9,99,9","10159,1,99999,9","05,1",,"0113,1","MET061METAR EGOW 091450Z 07012G22KT 8000 HZ SCT015 17/10 Q1016 WHT;",
"03018099999","2010-10-10T06:50:00","4","53.581575","-3.055522","11.27","WOODVALE, UK","FM-15","EGOW ","V020","060,1,N,0031,1","22000,1,9,N","006000,1,N,1","+0120,1","+0100,1","99999,9","02,5,+00450,1,99,9",,,"02,99,1,99,9,99,9,99999,9,99,9,99,9","10139,1,99999,9","10,1",,,"MET058METAR EGOW 100650Z 06006KT 6000 BR FEW015 12/10 Q1014 WHT;",
"03018099999","2010-10-10T07:50:00","4","53.581575","-3.055522","11.27","WOODVALE, UK","FM-15","EGOW ","V020","060,1,N,0026,1","22000,1,9,N","004000,1,N,1","+0120,1","+0100,1","99999,9",,,,"00,99,1,99,9,99,9,99999,9,99,9,99,9","10149,1,99999,9","10,1",,,"MET055METAR EGOW 100750Z 06005KT 4000 BR SKC 12/10 Q1015 GRN;","Q01    003SCCGA1"
"03018099999","2010-10-10T08:50:00","4","53.581575","-3.055522","11.27","WOODVALE, UK","FM-15","EGOW ","V020","080,1,N,0021,1","22000,1,9,N","004000,1,N,1","+0150,1","+0110,1","99999,9",,,,"00,99,1,99,9,99,9,99999,9,99,9,99,9","10149,1,99999,9","05,1",,,"MET055METAR EGOW 100850Z 08004KT 4000 HZ SKC 15/11 Q1015 GRN;","Q01    003SCCGA1"
"03018099999","2010-10-10T09:50:00","4","53.581575","-3.055522","11.27","WOODVALE, UK","FM-15","EGOW ","V020","070,1,N,0046,1","22000,1,9,N","004000,1,N,1","+0160,1","+0110,1","99999,9","02,5,+00600,1,99,9",,,"02,99,1,99,9,99,9,99999,9,99,9,99,9","10149,1,99999,9","05,1",,,"MET058METAR EGOW 100950Z 07009KT 4000 HZ FEW020 16/11 Q1015 GRN;",
"03018099999","2010-10-10T10:50:00","4","53.581575","-3.055522","11.27","WOODVALE, UK","FM-15","EGOW ","V020","060,1,N,0046,1","22000,1,9,N","004000,1,N,1","+0180,1","+0110,1","99999,9",,,,"00,99,1,99,9,99,9,99999,9,99,9,99,9","10149,1,99999,9","05,1",,,"MET055METAR EGOW 101050Z 06009KT 4000 HZ SKC 18/11 Q1015 GRN;","Q01    003SCCGA1"
"03018099999","2010-10-10T11:50:00","4","53.581575","-3.055522","11.27","WOODVALE, UK","FM-15","EGOW ","V020","090,1,N,0031,1","22000,1,9,N","008000,1,N,1","+0200,1","+0110,1","99999,9",,,,"00,99,1,99,9,99,9,99999,9,99,9,99,9","10149,1,99999,9","05,1",,,"MET055METAR EGOW 101150Z 09006KT 8000 HZ SKC 20/11 Q1015 BLU;","Q01    003SCCGA1"
"03018099999","2010-10-10T12:50:00","4","53.581575","-3.055522","11.27","WOODVALE, UK","FM-15","EGOW ","V020","110,1,N,0062,1","99999,9,9,Y","009900,1,N,1","+0200,1","+0080,1","99999,9",,,,,"10149,1,99999,9",,,,"MET049METAR EGOW 101250Z 11012KT CAVOK 20/08 Q1015 BLU;",
"03018099999","2010-10-10T13:50:00","4","53.581575","-3.055522","11.27","WOODVALE, UK","FM-15","EGOW ","V020","100,1,N,0057,1","99999,9,9,Y","009900,1,N,1","+0200,1","+0090,1","99999,9",,,,,"10149,1,99999,9",,,,"MET049METAR EGOW 101350Z 10011KT CAVOK 20/09 Q1015 BLU;",
"03018099999","2010-10-10T14:50:00","4","53.581575","-3.055522","11.27","WOODVALE, UK","FM-15","EGOW ","V020","090,1,N,0062,1","99999,9,9,Y","009900,1,N,1","+0200,1","+0090,1","99999,9",,,,,"10159,1,99999,9",,,"0113,1","MET052METAR EGOW 101450Z 09012G22KT CAVOK 20/09 Q1016 BLU;",
"03018099999","2010-10-13T06:50:00","4","53.581575","-3.055522","11.27","WOODVALE, UK","FM-15","EGOW ","V020","090,1,N,0026,1","22000,1,9,N","002000,1,N,1","+0030,1","+0030,1","99999,9","04,5,+06000,1,99,9",,,"04,99,1,99,9,99,9,99999,9,99,9,99,9","10230,1,99999,9","10,1",,,"MET059METAR EGOW 130650Z 09005KT 2000 BR SCT200 03/03 Q1023 YLO2;",
"03018099999","2010-10-13T07:50:00","4","53.581575","-3.055522","11.27","WOODVALE, UK","FM-15","EGOW ","V020","090,1,N,0026,1","99999,9,C,N","004500,1,N,1","+0040,1","+0040,1","99999,9","02,5,+00450,1,99,9","04,5,+03600,1,99,9",,"04,99,1,99,9,99,9,99999,9,99,9,99,9","10230,1,99999,9","10,1",,,"MET065METAR EGOW 130750Z 09005KT 4500 BR FEW015 SCT120 04/04 Q1023 GRN;","P01 036003SCOCIG"
"03018099999","2010-10-13T08:50:00","4","53.581575","-3.055522","11.27","WOODVALE, UK","FM-15","EGOW ","V020","110,1,N,0021,1","22000,1,9,N","004500,1,N,1","+0070,1","+0060,1","99999,9",,,,"00,99,1,99,9,99,9,99999,9,99,9,99,9","10230,1,99999,9","10,1",,,"MET055METAR EGOW 130850Z 11004KT 4500 BR SKC 07/06 Q1023 GRN;","Q01    003SCCGA1"
"03018099999","2010-10-13T09:50:00","4","53.581575","-3.055522","11.27","WOODVALE, UK","FM-15","EGOW ","V020","120,1,N,0026,1","22000,1,9,N","004500,1,N,1","+0090,1","+0050,1","99999,9",,,,"00,99,1,99,9,99,9,99999,9,99,9,99,9","10230,1,99999,9","05,1",,,"MET055METAR EGOW 130950Z 12005KT 4500 HZ SKC 09/05 Q1023 GRN;","Q01    003SCCGA1"
"03018099999","2010-10-13T10:50:00","4","53.581575","-3.055522","11.27","WOODVALE, UK","FM-15","EGOW ","V020","110,1,N,0015,1","22000,1,9,N","005000,1,N,1","+0120,1","+0060,1","99999,9","04,5,+00600,1,99,9",,,"04,99,1,99,9,99,9,99999,9,99,9,99,9","10230,1,99999,9","05,1",,,"MET058METAR EGOW 131050Z 11003KT 5000 HZ SCT020 12/06 Q1023 WHT;",
"03018099999","2010-10-13T11:50:00","4","53.581575","-3.055522","11.27","WOODVALE, UK","FM-15","EGOW ","V020","080,1,N,0010,1","22000,1,9,N","005000,1,N,1","+0140,1","+0060,1","99999,9","04,5,+00600,1,99,9",,,"04,99,1,99,9,99,9,99999,9,99,9,99,9","10230,1,99999,9","05,1",,,"MET058METAR EGOW 131150Z 08002KT 5000 HZ SCT020 14/06 Q1023 WHT;",
"03018099999","2010-10-13T12:50:00","4","53.581575","-3.055522","11.27","WOODVALE, UK","FM-15","EGOW ","V020","030,1,N,0041,1","99999,9,C,N","005000,1,N,1","+0120,1","+0060,1","99999,9","02,5,+00300,1,99,9","04,5,+00600,1,99,9",,"04,99,1,99,9,99,9,99999,9,99,9,99,9","10230,1,99999,9","05,1",,,"MET065METAR EGOW 131250Z 03008KT 5000 HZ FEW010 SCT020 12/06 Q1023 WHT;","P01 006003SCOCIG"
"03018099999","2010-10-13T13:50:00","4","53.581575","-3.055522","11.27","WOODVALE, UK","FM-15","EGOW ","V020","060,1,N,0021,1","01050,1,C,N","005000,1,N,1","+0120,1","+0060,1","99999,9","04,5,+00300,1,99,9","07,5,+01050,1,99,9",,"07,99,1,99,9,99,9,99999,9,99,9,99,9","10230,1,99999,9","05,1",,,"MET065METAR EGOW 131350Z 06004KT 5000 HZ SCT010 BKN035 12/06 Q1023 GRN;",
"03018099999","2010-10-13T14:50:00","4","53.581575","-3.055522","11.27","WOODVALE, UK","FM-15","EGOW ","V020","360,1,N,0026,1","00450,1,C,N","007000,1,N,1","+0110,1","+0060,1","99999,9","07,5,+00450,1,99,9",,,"07,99,1,99,9,99,9,99999,9,99,9,99,9","10220,1,99999,9","05,1",,,"MET058METAR EGOW 131450Z 36005KT 7000 HZ BKN015 11/06 Q1022 WHT;",
"03018099999","2010-10-14T06:50:00","4","53.581575","-3.055522","11.27","WOODVALE, UK","FM-15","EGOW ","V020","050,1,N,0021,1","00690,1,C,N","011265,1,N,1","+0090,1","+0060,1","99999,9","07,5,+00690,1,99,9",,,"07,99,1,99,9,99,9,99999,9,99,9,99,9","10220,1,99999,9",,,,"MET055METAR EGOW 140650Z 05004KT 9999 BKN023 09/06 Q1022 WHT;",
"03018099999","2010-10-14T07:50:00","4","53.581575","-3.055522","11.27","WOODVALE, UK","FM-15","EGOW ","V020","040,1,N,0021,1","00690,1,C,N","011265,1,N,1","+0090,1","+0070,1","99999,9","08,5,+00690,1,99,9",,,"08,99,1,99,9,99,9,99999,9,99,9,99,9","10230,1,99999,9",,,,"MET055METAR EGOW 140750Z 04004KT 9999 OVC023 09/07 Q1023 WHT;",
"03018099999","2010-10-14T08:50:00","4","53.581575","-3.055522","11.27","WOODVALE, UK","FM-15","EGOW ","V020","020,1,N,0026,1","00690,1,C,N","011265,1,N,1","+0100,1","+0060,1","99999,9","08,5,+00690,1,99,9",,,"08,99,1,99,9,99,9,99999,9,99,9,99,9","10230,1,99999,9",,,,"MET055METAR EGOW 140850Z 02005KT 9999 OVC023 10/06 Q1023 WHT;",
"03018099999","2010-10-14T09:50:00","4","53.581575","-3.055522","11.27","WOODVALE, UK","FM-15","EGOW ","V020","020,1,N,0031,1","00690,1,C,N","008000,1,N,1","+0100,1","+0070,1","99999,9","02,5,+00300,1,99,9","08,5,+00690,1,99,9",,"08,99,1,99,9,99,9,99999,9,99,9,99,9","10230,1,99999,9","51,1",,,"MET066METAR EGOW 140950Z 02006KT 8000 -DZ FEW010 OVC023 10/07 Q1023 WHT;",
"03018099999","2010-10-14T10:50:00","4","53.581575","-3.055522","11.27","WOODVALE, UK","FM-15","EGOW ","V020","030,1,N,0015,1","00690,1,C,N","011265,1,N,1","+0110,1","+0070,1","99999,9","04,5,+00360,1,99,9","08,5,+00690,1,99,9",,"08,99,1,99,9,99,9,99999,9,99,9,99,9","10230,1,99999,9",,,,"MET062METAR EGOW 141050Z 03003KT 9999 SCT012 OVC023 11/07 Q1023 GRN;",
"03018099999","2010-10-14T11:50:00","4","53.581575","-3.055522","11.27","WOODVALE, UK","FM-15","EGOW ","V020","010,1,N,0036,1","00450,1,C,N","011265,1,N,1","+0100,1","+0070,1","99999,9","02,5,+00360,1,99,9","04,5,+00450,1,99,9","08,5,+00690,1,99,9","08,99,1,99,9,99,9,99999,9,99,9,99,9","10230,1,99999,9",,,,"MET069METAR EGOW 141150Z 01007KT 9999 FEW012 SCT015 OVC023 10/07 Q1023 WHT;",
"03018099999","2010-10-14T12:50:00","4","53.581575","-3.055522","11.27","WOODVALE, UK","FM-15","EGOW ","V020","010,1,N,0021,1","00450,1,C,N","011265,1,N,1","+0110,1","+0070,1","99999,9","02,5,+00360,1,99,9","04,5,+00450,1,99,9","08,5,+00690,1,99,9","08,99,1,99,9,99,9,99999,9,99,9,99,9","10230,1,99999,9",,,,"MET069METAR EGOW 141250Z 01004KT 9999 FEW012 SCT015 OVC023 11/07 Q1023 WHT;",
"03018099999","2010-10-14T13:50:00","4","53.581575","-3.055522","11.27","WOODVALE, UK","FM-15","EGOW ","V020","350,1,N,0015,1","00450,1,C,N","011265,1,N,1","+0100,1","+0060,1","99999,9","02,5,+00360,1,99,9","04,5,+00450,1,99,9","08,5,+00690,1,99,9","08,99,1,99,9,99,9,99999,9,99,9,99,9","10230,1,99999,9",,,,"MET069METAR EGOW 141350Z 35003KT 9999 FEW012 SCT015 OVC023 10/06 Q1023 WHT;",
"03018099999","2010-10-14T14:50:00","4","53.581575","-3.055522","11.27","WOODVALE, UK","FM-15","EGOW ","V020","310,1,N,0026,1","00570,1,C,N","011265,1,N,1","+0100,1","+0070,1","99999,9","04,5,+00450,1,99,9","07,5,+00570,1,99,9","08,5,+00900,1,99,9","08,99,1,99,9,99,9,99999,9,99,9,99,9","10230,1,99999,9",,,,"MET069METAR EGOW 141450Z 31005KT 9999 SCT015 BKN019 OVC030 10/07 Q1023 WHT;",
"03018099999","2010-10-15T06:50:00","4","53.581575","-3.055522","11.27","WOODVALE, UK","FM-15","EGOW ","V020","330,1,N,0041,1","00690,1,C,N","011265,1,N,1","+0120,1","+0070,1","99999,9","02,5,+00450,1,99,9","07,5,+00690,1,99,9",,"07,99,1,99,9,99,9,99999,9,99,9,99,9","10210,1,99999,9",,,,"MET062METAR EGOW 150650Z 33008KT 9999 FEW015 BKN023 12/07 Q1021 WHT;",
"03018099999","2010-10-15T07:50:00","4","53.581575","-3.055522","11.27","WOODVALE, UK","FM-15","EGOW ","V020","310,1,N,0031,1","00750,1,C,N","011265,1,N,1","+0120,1","+0070,1","99999,9","02,5,+00450,1,99,9","04,5,+00750,1,99,9","07,5,+01350,1,99,9","07,99,1,99,9,99,9,99999,9,99,9,99,9","10210,1,99999,9",,,,"MET069METAR EGOW 150750Z 31006KT 9999 FEW015 SCT025 BKN045 12/07 Q1021 BLU;",
"03018099999","2010-10-15T08:50:00","4","53.581575","-3.055522","11.27","WOODVALE, UK","FM-15","EGOW ","V020","300,1,N,0041,1","00750,1,C,N","011265,1,N,1","+0120,1","+0080,1","99999,9","02,5,+00450,1,99,9","04,5,+00750,1,99,9","07,5,+01350,1,99,9","07,99,1,99,9,99,9,99999,9,99,9,99,9","10210,1,99999,9",,,,"MET069METAR EGOW 150850Z 30008KT 9999 FEW015 SCT025 BKN045 12/08 Q1021 BLU;",
"03018099999","2010-10-15T09:50:00","4","53.581575","-3.055522","11.27","WOODVALE, UK","FM-15","EGOW ","V020","300,1,N,0077,1","01350,1,C,N","011265,1,N,1","+0130,1","+0090,1","99999,9","04,5,+00750,1,99,9","07,5,+01350,1,99,9",,"07,99,1,99,9,99,9,99999,9,99,9,99,9","10200,1,99999,9",,,,"MET062METAR EGOW 150950Z 30015KT 9999 SCT025 BKN045 13/09 Q1020 BLU;",
"03018099999","2010-10-15T10:50:00","4","53.581575","-3.055522","11.27","WOODVALE, UK","FM-15","EGOW ","V020","300,1,N,0077,1","01350,1,C,N","011265,1,N,1","+0130,1","+0090,1","99999,9","04,5,+00750,1,99,9","07,5,+01350,1,99,9",,"07,99,1,99,9,99,9,99999,9,99,9,99,9","10200,1,99999,9",,,,"MET062METAR EGOW 151050Z 30015KT 9999 SCT025 BKN045 13/09 Q1020 BLU;",
"03018099999","2010-10-15T11:50:00","4","53.581575","-3.055522","11.27","WOODVALE, UK","FM-15","EGOW ","V020","300,1,N,0072,1","01500,1,C,N","011265,1,N,1","+0130,1","+0090,1","99999,9","04,5,+00510,1,99,9","07,5,+01500,1,99,9",,"07,99,1,99,9,99,9,99999,9,99,9,99,9","10190,1,99999,9","16,1",,,"MET067METAR EGOW 151150Z 30014KT 9999 VCSH SCT017 BKN050 13/09 Q1019 WHT;",
"03018099999","2010-10-15T13:50:00","4","53.581575","-3.055522","11.27","WOODVALE, UK","FM-15","EGOW ","V020","330,1,N,0077,1","02400,1,C,N","011265,1,N,1","+0130,1","+0090,1","99999,9","04,5,+00510,1,99,9","07,5,+02400,1,99,9",,"07,99,1,99,9,99,9,99999,9,99,9,99,9","10180,1,99999,9",,,,"MET062METAR EGOW 151350Z 33015KT 9999 SCT017 BKN080 13/09 Q1018 WHT;",
"03018099999","2010-10-15T14:50:00","4","53.581575","-3.055522","11.27","WOODVALE, UK","FM-15","EGOW ","V020","330,1,N,0077,1","02400,1,C,N","011265,1,N,1","+0130,1","+0080,1","99999,9","02,5,+00450,1,99,9","07,5,+02400,1,99,9",,"07,99,1,99,9,99,9,99999,9,99,9,99,9","10180,1,99999,9",,,,"MET062METAR EGOW 151450Z 33015KT 9999 FEW015 BKN080 13/08 Q1018 BLU;",
"03018099999","2010-10-16T06:50:00","4","53.581575","-3.055522","11.27","WOODVALE, UK","FM-15","EGOW ","V020","010,1,N,0041,1","99999,9,9,Y","009900,1,N,1","+0080,1","+0050,1","99999,9",,,,,"10220,1,99999,9",,,,"MET049METAR EGOW 160650Z 01008KT CAVOK 08/05 Q1022 BLU;",
"03018099999","2010-10-16T07:50:00","4","53.581575","-3.055522","11.27","WOODVALE, UK","FM-15","EGOW ","V020","010,1,N,0031,1","22000,1,9,N","011265,1,N,1","+0080,1","+0050,1","99999,9","02,5,+01200,1,99,9",,,"02,99,1,99,9,99,9,99999,9,99,9,99,9","10230,1,99999,9",,,,"MET055METAR EGOW 160750Z 01006KT 9999 FEW040 08/05 Q1023 BLU;",
"03018099999","2010-10-16T08:50:00","4","53.581575","-3.055522","11.27","WOODVALE, UK","FM-15","EGOW ","V020","360,1,N,0041,1","22000,1,9,N","011265,1,N,1","+0100,1","+0060,1","99999,9","02,5,+01350,1,99,9",,,"02,99,1,99,9,99,9,99999,9,99,9,99,9","10230,1,99999,9",,,,"MET055METAR EGOW 160850Z 36008KT 9999 FEW045 10/06 Q1023 BLU;",
"03018099999","2010-10-16T09:50:00","4","53.581575","-3.055522","11.27","WOODVALE, UK","FM-15","EGOW ","V020","010,1,N,0041,1","22000,1,9,N","011265,1,N,1","+0110,1","+0060,1","99999,9","02,5,+01200,1,99,9",,,"02,99,1,99,9,99,9,99999,9,99,9,99,9","10240,1,99999,9",,,,"MET055METAR EGOW 160950Z 01008KT 9999 FEW040 11/06 Q1024 BLU;",
"03018099999","2010-10-16T10:50:00","4","53.581575","-3.055522","11.27","WOODVALE, UK","FM-15","EGOW ","V020","020,1,N,0041,1","22000,1,9,N","011265,1,N,1","+0120,1","+0060,1","99999,9","02,5,+01200,1,99,9",,,"02,99,1,99,9,99,9,99999,9,99,9,99,9","10240,1,99999,9",,,,"MET055METAR EGOW 161050Z 02008KT 9999 FEW040 12/06 Q1024 BLU;",
"03018099999","2010-10-16T11:50:00","4","53.581575","-3.055522","11.27","WOODVALE, UK","FM-15","EGOW ","V020","010,1,N,0041,1","99999,9,C,N","011265,1,N,1","+0120,1","+0070,1","99999,9","02,5,+00600,1,99,9","04,5,+01200,1,99,9",,"04,99,1,99,9,99,9,99999,9,99,9,99,9","10240,1,99999,9",,,,"MET062METAR EGOW 161150Z 01008KT 9999 FEW020 SCT040 12/07 Q1024 BLU;","P01 012003SCOCIG"
"03018099999","2010-10-16T12:50:00","4","53.581575","-3.055522","11.27","WOODVALE, UK","FM-15","EGOW ","V020","010,1,N,0031,1","99999,9,C,N","011265,1,N,1","+0120,1","+0080,1","99999,9","02,5,+00600,1,99,9","04,5,+00900,1,99,9",,"04,99,1,99,9,99,9,99999,9,99,9,99,9","10240,1,99999,9",,,,"MET062METAR EGOW 161250Z 01006KT 9999 FEW020 SCT030 12/08 Q1024 BLU;","P01 009003SCOCIG"
"03018099999","2010-10-16T13:50:00","4","53.581575","-3.055522","11.27","WOODVALE, UK","FM-15","EGOW ","V020","050,1,N,0026,1","22000,1,9,N","011265,1,N,1","+0150,1","+0070,1","99999,9","04,5,+00960,1,99,9",,,"04,99,1,99,9,99,9,99999,9,99,9,99,9","10240,1,99999,9",,,,"MET055METAR EGOW 161350Z 05005KT 9999 SCT032 15/07 Q1024 BLU;",
"03018099999","2010-10-16T14:50:00","4","53.581575","-3.055522","11.27","WOODVALE, UK","FM-15","EGOW ","V020","040,1,N,0021,1","99999,9,C,N","011265,1,N,1","+0160,1","+0060,1","99999,9","02,5,+00600,1,99,9","04,5,+00960,1,99,9",,"04,99,1,99,9,99,9,99999,9,99,9,99,9","10240,1,99999,9",,,,"MET062METAR EGOW 161450Z 04004KT 9999 FEW020 SCT032 16/06 Q1024 BLU;","P01 009603SCOCIG"
"03018099999","2010-10-17T06:50:00","4","53.581575","-3.055522","11.27","WOODVALE, UK","FM-15","EGOW ","V020","160,1,N,0026,1","22000,1,9,N","007000,1,N,1","+0040,1","+0030,1","99999,9","04,5,+02400,1,99,9",,,"04,99,1,99,9,99,9,99999,9,99,9,99,9","10261,1,99999,9","10,1",,,"MET058METAR EGOW 170650Z 16005KT 7000 BR SCT080 04/03 Q1026 WHT;",
"03018099999","2010-10-17T07:50:00","4","53.581575","-3.055522","11.27","WOODVALE, UK","FM-15","EGOW ","V020","160,1,N,0031,1","22000,1,9,N","007000,1,N,1","+0050,1","+0040,1","99999,9","04,5,+01200,1,99,9",,,"04,99,1,99,9,99,9,99999,9,99,9,99,9","10261,1,99999,9","10,1",,,"MET058METAR EGOW 170750Z 16006KT 7000 BR SCT040 05/04 Q1026 WHT;",
"03018099999","2010-10-17T08:50:00","4","53.581575","-3.055522","11.27","WOODVALE, UK","FM-15","EGOW ","V020","150,1,N,0031,1","22000,1,9,N","011265,1,N,1","+0060,1","+0050,1","99999,9","02,5,+01350,1,99,9",,,"02,99,1,99,9,99,9,99999,9,99,9,99,9","10261,1,99999,9",,,,"MET055METAR EGOW 170850Z 15006KT 9999 FEW045 06/05 Q1026 BLU;",
"03018099999","2010-10-17T09:50:00","4","53.581575","-3.055522","11.27","WOODVALE, UK","FM-15","EGOW ","V020","160,1,N,0031,1","22000,1,9,N","011265,1,N,1","+0090,1","+0050,1","99999,9","04,5,+01140,1,99,9",,,"04,99,1,99,9,99,9,99999,9,99,9,99,9","10261,1,99999,9",,,,"MET055METAR EGOW 170950Z 16006KT 9999 SCT038 09/05 Q1026 BLU;",
"03018099999","2010-10-17T10:50:00","4","53.581575","-3.055522","11.27","WOODVALE, UK","FM-15","EGOW ","V020","210,1,N,0046,1","22000,1,9,N","011265,1,N,1","+0120,1","+0040,1","99999,9","04,5,+01050,1,99,9",,,"04,99,1,99,9,99,9,99999,9,99,9,99,9","10261,1,99999,9",,,,"MET055METAR EGOW 171050Z 21009KT 9999 SCT035 12/04 Q1026 BLU;",
"03018099999","2010-10-17T11:50:00","4","53.581575","-3.055522","11.27","WOODVALE, UK","FM-15","EGOW ","V020","200,1,N,0041,1","22000,1,9,N","011265,1,N,1","+0110,1","+0060,1","99999,9","04,5,+01050,1,99,9",,,"04,99,1,99,9,99,9,99999,9,99,9,99,9","10251,1,99999,9",,,,"MET055METAR EGOW 171150Z 20008KT 9999 SCT035 11/06 Q1025 BLU;",
"03018099999","2010-10-20T06:50:00","4","53.581575","-3.055522","11.27","WOODVALE, UK","FM-15","EGOW ","V020","010,1,N,0031,1","22000,1,9,N","011265,1,N,1","+0030,1","-0020,1","99999,9","02,5,+00750,1,99,9",,,"02,99,1,99,9,99,9,99999,9,99,9,99,9","10190,1,99999,9",,,,"MET056METAR EGOW 200650Z 01006KT 9999 FEW025 03/M02 Q1019 BLU;",
"03018099999","2010-10-20T07:50:00","4","53.581575","-3.055522","11.27","WOODVALE, UK","FM-15","EGOW ","V020","060,1,N,0036,1","22000,1,9,N","011265,1,N,1","+0040,1","-0010,1","99999,9","02,5,+00750,1,99,9",,,"02,99,1,99,9,99,9,99999,9,99,9,99,9","10200,1,99999,9",,,,"MET056METAR EGOW 200750Z 06007KT 9999 FEW025 04/M01 Q1020 BLU;",
"03018099999","2010-10-20T08:50:00","4","53.581575","-3.055522","11.27","WOODVALE, UK","FM-15","EGOW ","V020","350,1,N,0057,1","22000,1,9,N","011265,1,N,1","+0060,1","-0020,1","99999,9","02,5,+00750,1,99,9",,,"02,99,1,99,9,99,9,99999,9,99,9,99,9","10210,1,99999,9",,,,"MET056METAR EGOW 200850Z 35011KT 9999 FEW025 06/M02 Q1021 BLU;",
"03018099999","2010-10-20T09:50:00","4","53.581575","-3.055522","11.27","WOODVALE, UK","FM-15","EGOW ","V020","360,1,N,0067,1","22000,1,9,N","011265,1,N,1","+0070,1","-0050,1","99999,9","02,5,+00750,1,99,9",,,"02,99,1,99,9,99,9,99999,9,99,9,99,9","10210,1,99999,9",,,,"MET056METAR EGOW 200950Z 36013KT 9999 FEW025 07/M05 Q1021 BLU;",
"03018099999","2010-10-20T10:50:00","4","53.581575","-3.055522","11.27","WOODVALE, UK","FM-15","EGOW ","V020","340,1,N,0062,1","22000,1,9,N","011265,1,N,1","+0080,1","-0040,1","99999,9","02,5,+00750,1,99,9",,,"02,99,1,99,9,99,9,99999,9,99,9,99,9","10220,1,99999,9",,,,"MET056METAR EGOW 201050Z 34012KT 9999 FEW025 08/M04 Q1022 BLU;",
"03018099999","2010-10-20T11:50:00","4","53.581575","-3.055522","11.27","WOODVALE, UK","FM-15","EGOW ","V020","350,1,N,0062,1","22000,1,9,N","011265,1,N,1","+0080,1","-0040,1","99999,9","02,5,+00900,1,99,9",,,"02,99,1,99,9,99,9,99999,9,99,9,99,9","10220,1,99999,9",,,,"MET056METAR EGOW 201150Z 35012KT 9999 FEW030 08/M04 Q1022 BLU;",
"03018099999","2010-10-20T12:50:00","4","53.581575","-3.055522","11.27","WOODVALE, UK","FM-15","EGOW ","V020","350,1,N,0057,1","22000,1,9,N","011265,1,N,1","+0090,1","-0010,1","99999,9","02,5,+00960,1,99,9",,,"02,99,1,99,9,99,9,99999,9,99,9,99,9","10220,1,99999,9",,,,"MET056METAR EGOW 201250Z 35011KT 9999 FEW032 09/M01 Q1022 BLU;",
"03018099999","2010-10-20T13:50:00","4","53.581575","-3.055522","11.27","WOODVALE, UK","FM-15","EGOW ","V020","320,1,N,0057,1","22000,1,9,N","011265,1,N,1","+0100,1","-0010,1","99999,9","02,5,+00960,1,99,9",,,"02,99,1,99,9,99,9,99999,9,99,9,99,9","10220,1,99999,9",,,,"MET056METAR EGOW 201350Z 32011KT 9999 FEW032 10/M01 Q1022 BLU;",
"03018099999","2010-10-20T14:50:00","4","53.581575","-3.055522","11.27","WOODVALE, UK","FM-15","EGOW ","V020","310,1,N,0057,1","22000,1,9,N","011265,1,N,1","+0100,1","-0010,1","99999,9","02,5,+01200,1,99,9",,,"02,99,1,99,9,99,9,99999,9,99,9,99,9","10220,1,99999,9",,,,"MET056METAR EGOW 201450Z 31011KT 9999 FEW040 10/M01 Q1022 BLU;",
"03018099999","2010-10-21T06:50:00","4","53.581575","-3.055522","11.27","WOODVALE, UK","FM-15","EGOW ","V020","320,1,N,0051,1","99999,9,C,N","011265,1,N,1","+0090,1","+0070,1","99999,9","04,5,+00360,1,99,9","04,5,+00900,1,99,9",,"04,99,1,99,9,99,9,99999,9,99,9,99,9","10190,1,99999,9","80,1",,"0113,1","MET071METAR EGOW 210650Z 32010G22KT 9999 -SHRA SCT012 SCT030 09/07 Q1019 GRN;","P01 009003SCOCIG"
"03018099999","2010-10-21T07:50:00","4","53.581575","-3.055522","11.27","WOODVALE, UK","FM-15","EGOW ","V020","300,1,N,0057,1","99999,9,C,N","011265,1,N,1","+0100,1","+0050,1","99999,9","02,5,+00360,1,99,9","04,5,+00450,1,99,9",,"04,99,1,99,9,99,9,99999,9,99,9,99,9","10190,1,99999,9","16,1",,"0108,1","MET070METAR EGOW 210750Z 30011G21KT 9999 VCSH FEW012 SCT015 10/05 Q1019 WHT;","P01 004503SCOCIG"
"03018099999","2010-10-21T08:50:00","4","53.581575","-3.055522","11.27","WOODVALE, UK","FM-15","EGOW ","V020","300,1,N,0077,1","99999,9,C,N","011265,1,N,1","+0100,1","+0060,1","99999,9","02,5,+00360,1,99,9","04,5,+00900,1,99,9",,"04,99,1,99,9,99,9,99999,9,99,9,99,9","10200,1,99999,9",,,,"MET062METAR EGOW 210850Z 30015KT 9999 FEW012 SCT030 10/06 Q1020 BLU;","P01 009003SCOCIG"
"03018099999","2010-10-21T09:50:00","4","53.581575","-3.055522","11.27","WOODVALE, UK","FM-15","EGOW ","V020","300,1,N,0062,1","99999,9,C,N","011265,1,N,1","+0100,1","+0030,1","99999,9","02,5,+00360,1,99,9","04,5,+00840,1,99,9",,"04,99,1,99,9,99,9,99999,9,99,9,99,9","10200,1,99999,9",,,,"MET062METAR EGOW 210950Z 30012KT 9999 FEW012 SCT028 10/03 Q1020 BLU;","P01 008403SCOCIG"
"03018099999","2010-10-21T10:50:00","4","53.581575","-3.055522","11.27","WOODVALE, UK","FM-15","EGOW ","V020","280,1,N,0077,1","99999,9,C,N","011265,1,N,1","+0110,1","+0040,1","99999,9","02,5,+00360,1,99,9","04,5,+00840,1,99,9",,"04,99,1,99,9,99,9,99999,9,99,9,99,9","10200,1,99999,9",,,,"MET062METAR EGOW 211050Z 28015KT 9999 FEW012 SCT028 11/04 Q1020 BLU;","P01 008403SCOCIG"
"03018099999","2010-10-21T13:50:00","4","53.581575","-3.055522","11.27","WOODVALE, UK","FM-15","EGOW ","V020","260,1,N,0067,1","22000,1,9,N","011265,1,N,1","+0120,1","+0060,1","99999,9","04,5,+00840,1,99,9",,,"04,99,1,99,9,99,9,99999,9,99,9,99,9","10190,1,99999,9",,,,"MET055METAR EGOW 211350Z 26013KT 9999 SCT028 12/06 Q1019 BLU;",
"03018099999","2010-10-22T06:50:00","4","53.581575","-3.055522","11.27","WOODVALE, UK","FM-15","EGOW ","V020","260,1,N,0082,1","00600,1,C,N","011265,1,N,1","+0110,1","+0090,1","99999,9","02,5,+00360,1,99,9","07,5,+00600,1,99,9",,"07,99,1,99,9,99,9,99999,9,99,9,99,9","10149,1,99999,9","16,1",,,"MET067METAR EGOW 220650Z 26016KT 9999 VCSH FEW012 BKN020 11/09 Q1015 WHT;",
"03018099999","2010-10-22T07:50:00","4","53.581575","-3.055522","11.27","WOODVALE, UK","FM-15","EGOW ","V020","250,1,N,0067,1","99999,9,C,N","011265,1,N,1","+0110,1","+0090,1","99999,9","02,5,+00300,1,99,9","04,5,+00750,1,99,9",,"04,99,1,99,9,99,9,99999,9,99,9,99,9","10149,1,99999,9",,,,"MET062METAR EGOW 220750Z 25013KT 9999 FEW010 SCT025 11/09 Q1015 BLU;","P01 007503SCOCIG"
"03018099999","2010-10-22T08:50:00","4","53.581575","-3.055522","11.27","WOODVALE, UK","FM-15","EGOW ","V020","240,1,N,0087,1","99999,9,C,N","011265,1,N,1","+0120,1","+0080,1","99999,9","02,5,+00360,1,99,9","04,5,+00750,1,99,9",,"04,99,1,99,9,99,9,99999,9,99,9,99,9","10149,1,99999,9",,,,"MET062METAR EGOW 220850Z 24017KT 9999 FEW012 SCT025 12/08 Q1015 BLU;","P01 007503SCOCIG"
"03018099999","2010-10-22T10:50:00","4","53.581575","-3.055522","11.27","WOODVALE, UK","FM-15","EGOW ","V020","250,1,N,0103,1","99999,9,C,N","011265,1,N,1","+0130,1","+0070,1","99999,9","02,5,+00240,1,99,9","04,5,+00960,1,99,9",,"04,99,1,99,9,99,9,99999,9,99,9,99,9","10139,1,99999,9",,,,"MET062METAR EGOW 221050Z 25020KT 9999 FEW008 SCT032 13/07 Q1014 BLU;","P01 009603SCOCIG"
"03018099999","2010-10-22T11:50:00","4","53.581575","-3.055522","11.27","WOODVALE, UK","FM-15","EGOW ","V020","260,1,N,0077,1","99999,9,C,N","011265,1,N,1","+0130,1","+0070,1","99999,9","02,5,+00540,1,99,9","04,5,+00960,1,99,9",,"04,99,1,99,9,99,9,99999,9,99,9,99,9","10139,1,99999,9",,,,"MET062METAR EGOW 221150Z 26015KT 9999 FEW018 SCT032 13/07 Q1014 BLU;","P01 009603SCOCIG"
"03018099999","2010-10-22T12:50:00","4","53.581575","-3.055522","11.27","WOODVALE, UK","FM-15","EGOW ","V020","240,1,N,0103,1","99999,9,C,N","011265,1,N,1","+0130,1","+0060,1","99999,9","02,5,+00540,1,99,9","04,5,+00960,1,99,9",,"04,99,1,99,9,99,9,99999,9,99,9,99,9","10129,1,99999,9","80,1",,,"MET068METAR EGOW 221250Z 24020KT 9999 -SHRA FEW018 SCT032 13/06 Q1013 BLU;","P01 009603SCOCIG"
"03018099999","2010-10-22T13:50:00","4","53.581575","-3.055522","11.27","WOODVALE, UK","FM-15","EGOW ","V020","240,1,N,0077,1","99999,9,C,N","011265,1,N,1","+0130,1","+0070,1","99999,9","02,5,+00540,1,99,9","04,5,+01050,1,99,9",,"04,99,1,99,9,99,9,99999,9,99,9,99,9","10119,1,99999,9",,,,"MET062METAR EGOW 221350Z 24015KT 9999 FEW018 SCT035 13/07 Q1012 BLU;","P01 010503SCOCIG"
"03018099999","2010-10-23T06:50:00","4","53.581575","-3.055522","11.27","WOODVALE, UK","FM-15","EGOW ","V020","999,9,9,9999,9","00810,5,9,N","011265,1,N,1","+0100,1","+0090,1","99999,9","02,5,+00420,5,99,9","04,5,+00810,5,99,9","07,5,+01050,5,99,9",,"09990,1,99999,9",,,,"MET071METAR EGOW 230650Z 30008KTKT 9999 FEW014 SCT027 BKN035 10/09 Q0999 BLU;",
"03018099999","2010-10-23T07:50:00","4","53.581575","-3.055522","11.27","WOODVALE, UK","FM-15","EGOW ","V020","330,1,N,0062,1","00600,1,C,N","011265,1,N,1","+0100,1","+0080,1","99999,9","02,5,+00300,1,99,9","04,5,+00600,1,99,9","07,5,+01200,1,99,9","07,99,1,99,9,99,9,99999,9,99,9,99,9","10000,1,99999,9",,,,"MET069METAR EGOW 230750Z 33012KT 9999 FEW010 SCT020 BKN040 10/08 Q1000 WHT;",
"03018099999","2010-10-23T08:50:00","4","53.581575","-3.055522","11.27","WOODVALE, UK","FM-15","EGOW ","V020","320,1,N,0051,1","01200,1,C,N","011265,1,N,1","+0100,1","+0080,1","99999,9","02,5,+00300,1,99,9","07,5,+01200,1,99,9",,"07,99,1,99,9,99,9,99999,9,99,9,99,9","10000,1,99999,9","81,1",,,"MET067METAR EGOW 230850Z 32010KT 9999 SHRA FEW010 BKN040 10/08 Q1000 BLU;",
"03018099999","2010-10-23T11:50:00","4","53.581575","-3.055522","11.27","WOODVALE, UK","FM-15","EGOW ","V020","030,1,N,0046,1","00600,1,C,N","011265,1,N,1","+0100,1","+0070,1","99999,9","02,5,+00450,1,99,9","04,5,+00600,1,99,9","07,5,+01200,1,99,9","07,99,1,99,9,99,9,99999,9,99,9,99,9","10010,1,99999,9",,,,"MET069METAR EGOW 231150Z 03009KT 9999 FEW015 SCT020 BKN040 10/07 Q1001 WHT;",
"03018099999","2010-10-23T12:50:00","4","53.581575","-3.055522","11.27","WOODVALE, UK","FM-15","EGOW ","V020","030,1,N,0031,1","01200,1,C,N","011265,1,N,1","+0090,1","+0070,1","99999,9","02,5,+00450,1,99,9","07,5,+01200,1,99,9",,"07,99,1,99,9,99,9,99999,9,99,9,99,9","10020,1,99999,9","16,1",,,"MET067METAR EGOW 231250Z 03006KT 9999 VCSH FEW015 BKN040 09/07 Q1002 BLU;",
"03018099999","2010-10-23T13:50:00","4","53.581575","-3.055522","11.27","WOODVALE, UK","FM-15","EGOW ","V020","010,1,N,0041,1","01200,1,C,N","011265,1,N,1","+0090,1","+0070,1","99999,9","02,5,+00450,1,99,9","07,5,+01200,1,99,9",,"07,99,1,99,9,99,9,99999,9,99,9,99,9","10020,1,99999,9","16,1",,,"MET067METAR EGOW 231350Z 01008KT 9999 VCSH FEW015 BKN040 09/07 Q1002 BLU;",
"03018099999","2010-10-24T06:50:00","4","53.581575","-3.055522","11.27","WOODVALE, UK","FM-15","EGOW ","V020","010,1,N,0041,1","22000,1,9,N","011265,1,N,1","+0050,1","+0020,1","99999,9","02,5,+01050,1,99,9",,,"02,99,1,99,9,99,9,99999,9,99,9,99,9","10149,1,99999,9",,,,"MET055METAR EGOW 240650Z 01008KT 9999 FEW035 05/02 Q1015 BLU;",
"03018099999","2010-10-24T07:50:00","4","53.581575","-3.055522","11.27","WOODVALE, UK","FM-15","EGOW ","V020","030,1,N,0021,1","22000,1,9,N","011265,1,N,1","+0050,1","+0020,1","99999,9","02,5,+00900,1,99,9",,,"02,99,1,99,9,99,9,99999,9,99,9,99,9","10159,1,99999,9",,,,"MET055METAR EGOW 240750Z 03004KT 9999 FEW030 05/02 Q1016 BLU;",
"03018099999","2010-10-24T08:50:00","4","53.581575","-3.055522","11.27","WOODVALE, UK","FM-15","EGOW ","V020","010,1,N,0036,1","22000,1,9,N","011265,1,N,1","+0060,1","+0020,1","99999,9","02,5,+00900,1,99,9",,,"02,99,1,99,9,99,9,99999,9,99,9,99,9","10169,1,99999,9",,,,"MET055METAR EGOW 240850Z 01007KT 9999 FEW030 06/02 Q1017 BLU;",
"03018099999","2010-10-24T09:50:00","4","53.581575","-3.055522","11.27","WOODVALE, UK","FM-15","EGOW ","V020","010,1,N,0057,1","22000,1,9,N","011265,1,N,1","+0070,1","+0020,1","99999,9","02,5,+00900,1,99,9",,,"02,99,1,99,9,99,9,99999,9,99,9,99,9","10169,1,99999,9",,,,"MET055METAR EGOW 240950Z 01011KT 9999 FEW030 07/02 Q1017 BLU;",
"03018099999","2010-10-24T11:50:00","4","53.581575","-3.055522","11.27","WOODVALE, UK","FM-15","EGOW ","V020","350,1,N,0046,1","22000,1,9,N","011265,1,N,1","+0090,1","+0030,1","99999,9","02,5,+00900,1,99,9",,,"02,99,1,99,9,99,9,99999,9,99,9,99,9","10190,1,99999,9",,,,"MET055METAR EGOW 241150Z 35009KT 9999 FEW030 09/03 Q1019 BLU;",
"03018099999","2010-10-24T12:50:00","4","53.581575","-3.055522","11.27","WOODVALE, UK","FM-15","EGOW ","V020","340,1,N,0051,1","22000,1,9,N","011265,1,N,1","+0100,1","+0030,1","99999,9","02,5,+00600,1,99,9",,,"02,99,1,99,9,99,9,99999,9,99,9,99,9","10190,1,99999,9",,,,"MET055METAR EGOW 241250Z 34010KT 9999 FEW020 10/03 Q1019 BLU;",
"03018099999","2010-10-24T13:50:00","4","53.581575","-3.055522","11.27","WOODVALE, UK","FM-15","EGOW ","V020","340,1,N,0057,1","22000,1,9,N","011265,1,N,1","+0100,1","+0030,1","99999,9","02,5,+00600,1,99,9",,,"02,99,1,99,9,99,9,99999,9,99,9,99,9","10190,1,99999,9",,,,"MET055METAR EGOW 241350Z 34011KT 9999 FEW020 10/03 Q1019 BLU;",
"03018099999","2010-10-27T06:50:00","4","53.581575","-3.055522","11.27","WOODVALE, UK","FM-15","EGOW ","V020","240,1,N,0077,1","22000,1,9,N","011265,1,N,1","+0120,1","+0100,1","99999,9","02,5,+00540,1,99,9",,,"02,99,1,99,9,99,9,99999,9,99,9,99,9","10108,1,99999,9",,,,"MET055METAR EGOW 270650Z 24015KT 9999 FEW018 12/10 Q1011 BLU;",
"03018099999","2010-10-27T07:50:00","4","53.581575","-3.055522","11.27","WOODVALE, UK","FM-15","EGOW ","V020","250,1,N,0077,1","22000,1,9,N","011265,1,N,1","+0120,1","+0090,1","99999,9","02,5,+00540,1,99,9",,,"02,99,1,99,9,99,9,99999,9,99,9,99,9","10108,1,99999,9",,,,"MET055METAR EGOW 270750Z 25015KT 9999 FEW018 12/09 Q1011 BLU;",
"03018099999","2010-10-27T08:50:00","4","53.581575","-3.055522","11.27","WOODVALE, UK","FM-15","EGOW ","V020","260,1,N,0093,1","22000,1,9,N","011265,1,N,1","+0150,1","+0090,1","99999,9","02,5,+00540,1,99,9",,,"02,99,1,99,9,99,9,99999,9,99,9,99,9","10119,1,99999,9",,,,"MET055METAR EGOW 270850Z 26018KT 9999 FEW018 15/09 Q1012 BLU;",
"03018099999","2010-10-27T09:50:00","4","53.581575","-3.055522","11.27","WOODVALE, UK","FM-15","EGOW ","V020","250,1,N,0087,1","22000,1,9,N","011265,1,N,1","+0140,1","+0090,1","99999,9","02,5,+00450,1,99,9",,,"02,99,1,99,9,99,9,99999,9,99,9,99,9","10119,1,99999,9",,,,"MET055METAR EGOW 270950Z 25017KT 9999 FEW015 14/09 Q1012 BLU;",
"03018099999","2010-10-27T10:50:00","4","53.581575","-3.055522","11.27","WOODVALE, UK","FM-15","EGOW ","V020","230,1,N,0082,1","22000,1,9,N","011265,1,N,1","+0140,1","+0090,1","99999,9","02,5,+00540,1,99,9",,,"02,99,1,99,9,99,9,99999,9,99,9,99,9","10129,1,99999,9",,,,"MET055METAR EGOW 271050Z 23016KT 9999 FEW018 14/09 Q1013 BLU;",
"03018099999","2010-10-27T11:50:00","4","53.581575","-3.055522","11.27","WOODVALE, UK","FM-15","EGOW ","V020","250,1,N,0093,1","22000,1,9,N","011265,1,N,1","+0150,1","+0090,1","99999,9","02,5,+00540,1,99,9",,,"02,99,1,99,9,99,9,99999,9,99,9,99,9","10129,1,99999,9",,,,"MET055METAR EGOW 271150Z 25018KT 9999 FEW018 15/09 Q1013 BLU;",
"03018099999","2010-10-27T12:50:00","4","53.581575","-3.055522","11.27","WOODVALE, UK","FM-15","EGOW ","V020","240,1,N,0087,1","22000,1,9,N","011265,1,N,1","+0150,1","+0090,1","99999,9","02,5,+00540,1,99,9",,,"02,99,1,99,9,99,9,99999,9,99,9,99,9","10119,1,99999,9",,,,"MET055METAR EGOW 271250Z 24017KT 9999 FEW018 15/09 Q1012 BLU;",
"03018099999","2010-10-27T13:50:00","4","53.581575","-3.055522","11.27","WOODVALE, UK","FM-15","EGOW ","V020","250,1,N,0077,1","22000,1,9,N","011265,1,N,1","+0150,1","+0070,1","99999,9","02,5,+00540,1,99,9",,,"02,99,1,99,9,99,9,99999,9,99,9,99,9","10119,1,99999,9",,,"0129,1","MET058METAR EGOW 271350Z 25015G25KT 9999 FEW018 15/07 Q1012 BLU;",
"03018099999","2010-10-27T14:50:00","4","53.581575","-3.055522","11.27","WOODVALE, UK","FM-15","EGOW ","V020","220,1,N,0051,1","99999,9,C,N","011265,1,N,1","+0140,1","+0080,1","99999,9","02,5,+00600,1,99,9","04,5,+01200,1,99,9",,"04,99,1,99,9,99,9,99999,9,99,9,99,9","10119,1,99999,9",,,,"MET062METAR EGOW 271450Z 22010KT 9999 FEW020 SCT040 14/08 Q1012 BLU;","P01 012003SCOCIG"
"03018099999","2010-10-28T06:50:00","4","53.581575","-3.055522","11.27","WOODVALE, UK","FM-15","EGOW ","V020","240,1,N,0051,1","22000,1,9,N","011265,1,N,1","+0110,1","+0080,1","99999,9","02,5,+00450,1,99,9",,,"02,99,1,99,9,99,9,99999,9,99,9,99,9","10102,1,99999,9",,,,"MET055METAR EGOW 280650Z 24010KT 9999 FEW015 11/08 Q1010 BLU;",
"03018099999","2010-10-28T08:50:00","4","53.581575","-3.055522","11.27","WOODVALE, UK","FM-15","EGOW ","V020","210,1,N,0062,1","22000,1,9,N","011265,1,N,1","+0110,1","+0070,1","99999,9","02,5,+00540,1,99,9",,,"02,99,1,99,9,99,9,99999,9,99,9,99,9","10108,1,99999,9",,,,"MET055METAR EGOW 280850Z 21012KT 9999 FEW018 11/07 Q1011 BLU;",
"03018099999","2010-10-28T09:50:00","4","53.581575","-3.055522","11.27","WOODVALE, UK","FM-15","EGOW ","V020","190,1,N,0041,1","22000,1,9,N","011265,1,N,1","+0110,1","+0080,1","99999,9","02,5,+00540,1,99,9",,,"02,99,1,99,9,99,9,99999,9,99,9,99,9","10108,1,99999,9",,,,"MET055METAR EGOW 280950Z 19008KT 9999 FEW018 11/08 Q1011 BLU;",
"03018099999","2010-10-28T10:50:00","4","53.581575","-3.055522","11.27","WOODVALE, UK","FM-15","EGOW ","V020","200,1,N,0062,1","22000,1,9,N","011265,1,N,1","+0190,2","+0090,1","99999,9","02,5,+00540,1,99,9",,,"02,99,1,99,9,99,9,99999,9,99,9,99,9","10108,1,99999,9",,,,"MET055METAR EGOW 281050Z 20012KT 9999 FEW018 19/09 Q1011 BLU;",
"03018099999","2010-10-28T11:50:00","4","53.581575","-3.055522","11.27","WOODVALE, UK","FM-15","EGOW ","V020","200,1,N,0057,1","02400,1,C,N","011265,1,N,1","+0140,1","+0090,1","99999,9","02,5,+00540,1,99,9","07,5,+02400,1,99,9",,"07,99,1,99,9,99,9,99999,9,99,9,99,9","10102,1,99999,9",,,,"MET062METAR EGOW 281150Z 20011KT 9999 FEW018 BKN080 14/09 Q1010 BLU;",
"03018099999","2010-10-28T12:50:00","4","53.581575","-3.055522","11.27","WOODVALE, UK","FM-15","EGOW ","V020","200,1,N,0067,1","01260,1,C,N","011265,1,N,1","+0130,1","+0090,1","99999,9","02,5,+00540,1,99,9","04,5,+01260,1,99,9","07,5,+01800,1,99,9","07,99,1,99,9,99,9,99999,9,99,9,99,9","10102,1,99999,9","61,1",,,"MET073METAR EGOW 281250Z 20013KT 9999 -RA FEW018 SCT042 BKN060 13/09 Q1010 BLU;",
"03018099999","2010-10-28T13:50:00","4","53.581575","-3.055522","11.27","WOODVALE, UK","FM-15","EGOW ","V020","190,1,N,0062,1","01800,1,C,N","011265,1,N,1","+0130,1","+0090,1","99999,9","04,5,+01260,1,99,9","07,5,+01800,1,99,9",,"07,99,1,99,9,99,9,99999,9,99,9,99,9","10091,1,99999,9",,,,"MET062METAR EGOW 281350Z 19012KT 9999 SCT042 BKN060 13/09 Q1009 BLU;",
"03018099999","2010-10-28T14:50:00","4","53.581575","-3.055522","11.27","WOODVALE, UK","FM-15","EGOW ","V020","180,1,N,0062,1","01800,1,C,N","011265,1,N,1","+0140,1","+0090,1","99999,9","02,5,+00750,1,99,9","07,5,+01800,1,99,9",,"07,99,1,99,9,99,9,99999,9,99,9,99,9","10081,1,99999,9",,,,"MET062METAR EGOW 281450Z 18012KT 9999 FEW025 BKN060 14/09 Q1008 BLU;",
"03018099999","2010-10-28T15:50:00","4","53.581575","-3.055522","11.27","WOODVALE, UK","FM-15","EGOW ","V020","180,1,N,0062,1","01800,1,C,N","011265,1,N,1","+0140,1","+0090,1","99999,9","02,5,+00750,1,99,9","07,5,+01800,1,99,9",,"07,99,1,99,9,99,9,99999,9,99,9,99,9","10081,1,99999,9",,,,"MET062METAR EGOW 281550Z 18012KT 9999 FEW025 BKN060 14/09 Q1008 BLU;",
"03018099999","2010-10-29T06:50:00","4","53.581575","-3.055522","11.27","WOODVALE, UK","FM-15","EGOW ","V020","170,1,N,0093,1","99999,9,C,N","011265,1,N,1","+0140,1","+0110,1","99999,9","02,5,+00720,1,99,9","04,5,+00840,1,99,9",,"04,99,1,99,9,99,9,99999,9,99,9,99,9","09959,1,99999,9","51,1","61,1",,"MET068METAR EGOW 290650Z 17018KT 9999 -RADZ FEW024 SCT028 14/11 Q0996 BLU;","P01 008403SCOCIG"
"03018099999","2010-10-29T07:50:00","4","53.581575","-3.055522","11.27","WOODVALE, UK","FM-15","EGOW ","V020","170,1,N,0077,1","00840,1,C,N","011265,1,N,1","+0140,1","+0110,1","99999,9","02,5,+00720,1,99,9","04,5,+00840,1,99,9","08,5,+05400,1,99,9","08,99,1,99,9,99,9,99999,9,99,9,99,9","09949,1,99999,9",,,,"MET069METAR EGOW 290750Z 17015KT 9999 FEW024 SCT028 OVC180 14/11 Q0995 BLU;",
"03018099999","2010-10-29T08:50:00","4","53.581575","-3.055522","11.27","WOODVALE, UK","FM-15","EGOW ","V020","150,1,N,0072,1","00840,1,C,N","011265,1,N,1","+0140,1","+0110,1","99999,9","02,5,+00720,1,99,9","04,5,+00840,1,99,9","07,5,+05400,1,99,9","07,99,1,99,9,99,9,99999,9,99,9,99,9","09939,1,99999,9",,,,"MET069METAR EGOW 290850Z 15014KT 9999 FEW024 SCT028 BKN180 14/11 Q0994 BLU;",
"03018099999","2010-10-29T09:50:00","4","53.581575","-3.055522","11.27","WOODVALE, UK","FM-15","EGOW ","V020","150,1,N,0093,1","00720,1,C,N","011265,1,N,1","+0140,1","+0110,1","99999,9","02,5,+00540,1,99,9","04,5,+00720,1,99,9","07,5,+03600,1,99,9","07,99,1,99,9,99,9,99999,9,99,9,99,9","09929,1,99999,9","61,1",,,"MET073METAR EGOW 290950Z 15018KT 9999 -RA FEW018 SCT024 BKN120 14/11 Q0993 WHT;",
"03018099999","2010-10-29T10:50:00","4","53.581575","-3.055522","11.27","WOODVALE, UK","FM-15","EGOW ","V020","150,1,N,0087,1","02400,1,C,N","011265,1,N,1","+0140,1","+0120,1","99999,9","02,5,+00600,1,99,9","07,5,+02400,1,99,9",,"07,99,1,99,9,99,9,99999,9,99,9,99,9","09919,1,99999,9",,,,"MET062METAR EGOW 291050Z 15017KT 9999 FEW020 BKN080 14/12 Q0992 BLU;",
"03018099999","2010-10-29T11:50:00","4","53.581575","-3.055522","11.27","WOODVALE, UK","FM-15","EGOW ","V020","150,1,N,0134,1","03000,1,C,N","011265,1,N,1","+0150,1","+0120,1","99999,9","02,5,+00750,1,99,9","07,5,+03000,1,99,9",,"07,99,1,99,9,99,9,99999,9,99,9,99,9","09892,1,99999,9",,,"0185,1","MET065METAR EGOW 291150Z 15026G36KT 9999 FEW025 BKN100 15/12 Q0989 BLU;",
"03018099999","2010-10-29T12:50:00","4","53.581575","-3.055522","11.27","WOODVALE, UK","FM-15","EGOW ","V020","150,1,N,0123,1","04500,1,C,N","011265,1,N,1","+0150,1","+0100,1","99999,9","02,5,+00750,1,99,9","07,5,+04500,1,99,9",,"07,99,1,99,9,99,9,99999,9,99,9,99,9","09882,1,99999,9",,,"0195,1","MET065METAR EGOW 291250Z 15024G38KT 9999 FEW025 BKN150 15/10 Q0988 BLU;",
"03018099999","2010-10-29T13:50:00","4","53.581575","-3.055522","11.27","WOODVALE, UK","FM-15","EGOW ","V020","160,1,N,0118,1","01500,1,C,N","011265,1,N,1","+0150,1","+0090,1","99999,9","02,5,+00750,1,99,9","04,5,+01500,1,99,9","07,5,+04500,1,99,9","07,99,1,99,9,99,9,99999,9,99,9,99,9","09861,1,99999,9",,,"0185,1","MET072METAR EGOW 291350Z 16023G36KT 9999 FEW025 SCT050 BKN150 15/09 Q0986 BLU;",
"03018099999","2010-10-29T14:50:00","4","53.581575","-3.055522","11.27","WOODVALE, UK","FM-15","EGOW ","V020","150,1,N,0134,1","00780,1,C,N","011265,1,N,1","+0150,1","+0100,1","99999,9","02,5,+00540,1,99,9","04,5,+00780,1,99,9","07,5,+04200,1,99,9","07,99,1,99,9,99,9,99999,9,99,9,99,9","09841,1,99999,9","16,1",,"0185,1","MET077METAR EGOW 291450Z 15026G36KT 9999 VCSH FEW018 SCT026 BKN140 15/10 Q0984 BLU;",
"03018099999","2010-10-30T06:50:00","4","53.581575","-3.055522","11.27","WOODVALE, UK","FM-15","EGOW ","V020","190,1,N,0041,1","22000,1,9,N","011265,1,N,1","+0080,1","+0060,1","99999,9","02,5,+00600,1,99,9",,,"02,99,1,99,9,99,9,99999,9,99,9,99,9","09919,1,99999,9",,,,"MET055METAR EGOW 300650Z 19008KT 9999 FEW020 08/06 Q0992 BLU;",
"03018099999","2010-10-30T07:50:00","4","53.581575","-3.055522","11.27","WOODVALE, UK","FM-15","EGOW ","V020","200,1,N,0062,1","22000,1,9,N","011265,1,N,1","+0080,1","+0060,1","99999,9","02,5,+01050,1,09,1",,,"02,99,1,99,9,99,9,99999,9,99,9,99,9","09919,1,99999,9",,,,"MET057METAR EGOW 300750Z 20012KT 9999 FEW035CB 08/06 Q0992 BLU;",
"03018099999","2010-10-30T08:50:00","4","53.581575","-3.055522","11.27","WOODVALE, UK","FM-15","EGOW ","V020","190,1,N,0057,1","22000,1,9,N","011265,1,N,1","+0100,1","+0060,1","99999,9","02,5,+00750,1,09,1",,,"02,99,1,99,9,99,9,99999,9,99,9,99,9","09929,1,99999,9",,,,"MET057METAR EGOW 300850Z 19011KT 9999 FEW025CB 10/06 Q0993 BLU;",
"03018099999","2010-10-30T09:50:00","4","53.581575","-3.055522","11.27","WOODVALE, UK","FM-15","EGOW ","V020","190,1,N,0057,1","99999,9,C,N","011265,1,N,1","+0110,1","+0070,1","99999,9","02,5,+00750,1,99,9","04,5,+01200,1,99,9",,"04,99,1,99,9,99,9,99999,9,99,9,99,9","09939,1,99999,9",,,,"MET062METAR EGOW 300950Z 19011KT 9999 FEW025 SCT040 11/07 Q0994 BLU;","P01 012003SCOCIG"
"03018099999","2010-10-30T10:50:00","4","53.581575","-3.055522","11.27","WOODVALE, UK","FM-15","EGOW ","V020","200,1,N,0051,1","99999,9,C,N","011265,1,N,1","+0110,1","+0070,1","99999,9","02,5,+00750,1,99,9","04,5,+01200,1,99,9",,"04,99,1,99,9,99,9,99999,9,99,9,99,9","09939,1,99999,9",,,,"MET062METAR EGOW 301050Z 20010KT 9999 FEW025 SCT040 11/07 Q0994 BLU;","P01 012003SCOCIG"
"03018099999","2010-10-30T11:50:00","4","53.581575","-3.055522","11.27","WOODVALE, UK","FM-15","EGOW ","V020","190,1,N,0067,1","99999,9,C,N","011265,1,N,1","+0120,1","+0050,1","99999,9","02,5,+00900,1,99,9","04,5,+01200,1,99,9",,"04,99,1,99,9,99,9,99999,9,99,9,99,9","09939,1,99999,9",,,,"MET062METAR EGOW 301150Z 19013KT 9999 FEW030 SCT040 12/05 Q0994 BLU;","P01 012003SCOCIG"
"03018099999","2010-10-30T12:50:00","4","53.581575","-3.055522","11.27","WOODVALE, UK","FM-15","EGOW ","V020","200,1,N,0057,1","01200,1,C,N","011265,1,N,1","+0120,1","+0070,1","99999,9","02,5,+00540,1,99,9","07,5,+01200,1,99,9",,"07,99,1,99,9,99,9,99999,9,99,9,99,9","09939,1,99999,9","16,1",,,"MET067METAR EGOW 301250Z 20011KT 9999 VCSH FEW018 BKN040 12/07 Q0994 BLU;",
"03018099999","2010-10-30T13:50:00","4","53.581575","-3.055522","11.27","WOODVALE, UK","FM-15","EGOW ","V020","180,1,N,0026,1","01200,1,C,N","011265,1,N,1","+0120,1","+0090,1","99999,9","02,5,+00540,1,99,9","04,5,+01200,1,99,9","07,5,+03000,1,99,9","07,99,1,99,9,99,9,99999,9,99,9,99,9","09939,1,99999,9",,,,"MET069METAR EGOW 301350Z 18005KT 9999 FEW018 SCT040 BKN100 12/09 Q0994 BLU;",
"03018099999","2010-10-30T14:50:00","4","53.581575","-3.055522","11.27","WOODVALE, UK","FM-15","EGOW ","V020","170,1,N,0031,1","01200,1,C,N","011265,1,N,1","+0120,1","+0080,1","99999,9","02,5,+00540,1,99,9","04,5,+01200,1,99,9","07,5,+04500,1,99,9","07,99,1,99,9,99,9,99999,9,99,9,99,9","09939,1,99999,9","61,1",,,"MET073METAR EGOW 301450Z 17006KT 9999 -RA FEW018 SCT040 BKN150 12/08 Q0994 BLU;",
"03018099999","2010-10-31T07:50:00","4","53.581575","-3.055522","11.27","WOODVALE, UK","FM-15","EGOW ","V020","060,1,N,0041,1","01440,1,C,N","011265,1,N,1","+0080,1","+0080,1","99999,9","07,5,+01440,1,99,9",,,"07,99,1,99,9,99,9,99999,9,99,9,99,9","09990,1,99999,9",,,,"MET055METAR EGOW 310750Z 06008KT 9999 BKN048 08/08 Q0999 BLU;",
"03018099999","2010-10-31T08:50:00","4","53.581575","-3.055522","11.27","WOODVALE, UK","FM-15","EGOW ","V020","060,1,N,0041,1","22000,1,9,N","011265,1,N,1","+0090,1","+0080,1","99999,9","02,5,+00900,1,99,9",,,"02,99,1,99,9,99,9,99999,9,99,9,99,9","10000,1,99999,9",,,,"MET055METAR EGOW 310850Z 06008KT 9999 FEW030 09/08 Q1000 BLU;",
"03018099999","2010-10-31T09:50:00","4","53.581575","-3.055522","11.27","WOODVALE, UK","FM-15","EGOW ","V020","060,1,N,0041,1","22000,1,9,N","009000,1,N,1","+0090,1","+0080,1","99999,9","02,5,+00900,1,99,9",,,"02,99,1,99,9,99,9,99999,9,99,9,99,9","10000,1,99999,9","05,1",,,"MET058METAR EGOW 310950Z 06008KT 9000 HZ FEW030 09/08 Q1000 BLU;",
"03018099999","2010-10-31T10:50:00","4","53.581575","-3.055522","11.27","WOODVALE, UK","FM-15","EGOW ","V020","060,1,N,0036,1","99999,9,C,N","009000,1,N,1","+0100,1","+0090,1","99999,9","02,5,+01050,1,99,9","04,5,+01650,5,99,9",,"04,99,1,99,9,99,9,99999,9,99,9,99,9","10010,1,99999,9","05,1",,,"MET065METAR EGOW 311050Z 06007KT 9000 HZ FEW035 SCT055 10/09 Q1001 BLU;","P01 016503SCOCIG"
"03018099999","2010-10-31T11:50:00","4","53.581575","-3.055522","11.27","WOODVALE, UK","FM-15","EGOW ","V020","070,1,N,0031,1","01440,1,C,N","009000,1,N,1","+0130,1","+0100,1","99999,9","02,5,+00900,1,99,9","07,5,+01440,1,99,9",,"07,99,1,99,9,99,9,99999,9,99,9,99,9","10010,1,99999,9","05,1",,,"MET065METAR EGOW 311150Z 07006KT 9000 HZ FEW030 BKN048 13/10 Q1001 BLU;",
"03018099999","2010-10-31T12:50:00","4","53.581575","-3.055522","11.27","WOODVALE, UK","FM-15","EGOW ","V020","050,1,N,0031,1","22000,1,9,N","011265,1,N,1","+0130,1","+0100,1","99999,9","02,5,+00900,1,99,9",,,"02,99,1,99,9,99,9,99999,9,99,9,99,9","10020,1,99999,9",,,,"MET055METAR EGOW 311250Z 05006KT 9999 FEW030 13/10 Q1002 BLU;",
"03018099999","2010-10-31T13:50:00","4","53.581575","-3.055522","11.27","WOODVALE, UK","FM-15","EGOW ","V020","040,1,N,0026,1","01440,1,C,N","009000,1,N,1","+0130,1","+0100,1","99999,9","07,5,+01440,1,99,9",,,"07,99,1,99,9,99,9,99999,9,99,9,99,9","10031,1,99999,9","05,1",,,"MET058METAR EGOW 311350Z 04005KT 9000 HZ BKN048 13/10 Q1003 BLU;",
"03018099999","2010-11-03T07:50:00","4","53.581575","-3.055522","11.27","WOODVALE, UK","FM-15","EGOW ","V020","270,1,N,0077,1","22000,1,9,N","011265,1,N,1","+0120,1","+0070,1","99999,9","02,5,+00750,1,99,9",,,"02,99,1,99,9,99,9,99999,9,99,9,99,9","10081,1,99999,9",,,,"MET055METAR EGOW 030750Z 27015KT 9999 FEW025 12/07 Q1008 BLU;",
"03018099999","2010-11-03T09:50:00","4","53.581575","-3.055522","11.27","WOODVALE, UK","FM-15","EGOW ","V020","250,1,N,0077,1","00750,1,C,N","011265,1,N,1","+0120,1","+0080,1","99999,9","02,5,+00450,1,99,9","04,5,+00750,1,99,9","07,5,+02250,5,99,9","07,99,1,99,9,99,9,99999,9,99,9,99,9","10091,1,99999,9","16,1",,,"MET074METAR EGOW 030950Z 25015KT 9999 VCSH FEW015 SCT025 BKN075 12/08 Q1009 BLU;",
"03018099999","2010-11-03T10:50:00","4","53.581575","-3.055522","11.27","WOODVALE, UK","FM-15","EGOW ","V020","290,1,N,0077,1","01200,1,C,N","011265,1,N,1","+0100,1","+0090,1","99999,9","02,5,+00510,1,99,9","07,5,+01200,1,99,9",,"07,99,1,99,9,99,9,99999,9,99,9,99,9","10091,1,99999,9",,,"0139,1","MET065METAR EGOW 031050Z 29015G27KT 9999 FEW017 BKN040 10/09 Q1009 BLU;",
"03018099999","2010-11-03T11:50:00","4","53.581575","-3.055522","11.27","WOODVALE, UK","FM-15","EGOW ","V020","300,1,N,0046,1","01200,1,C,N","011265,1,N,1","+0110,1","+0070,1","99999,9","02,5,+00510,1,99,9","07,5,+01200,1,99,9",,"07,99,1,99,9,99,9,99999,9,99,9,99,9","10091,1,99999,9",,,,"MET062METAR EGOW 031150Z 30009KT 9999 FEW017 BKN040 11/07 Q1009 BLU;",
"03018099999","2010-11-03T12:50:00","4","53.581575","-3.055522","11.27","WOODVALE, UK","FM-15","EGOW ","V020","290,1,N,0041,1","01200,1,C,N","007000,1,N,1","+0110,1","+0080,1","99999,9","02,5,+00510,1,99,9","08,5,+01200,1,99,9",,"08,99,1,99,9,99,9,99999,9,99,9,99,9","10091,1,99999,9","80,1",,,"MET068METAR EGOW 031250Z 29008KT 7000 -SHRA FEW017 OVC040 11/08 Q1009 WHT;",
"03018099999","2010-11-04T07:50:00","4","53.581575","-3.055522","11.27","WOODVALE, UK","FM-15","EGOW ","V020","230,1,N,0087,1","00900,1,C,N","011265,1,N,1","+0150,1","+0130,1","99999,9","02,5,+00540,1,99,9","04,5,+00900,1,99,9","07,5,+01800,1,99,9","07,99,1,99,9,99,9,99999,9,99,9,99,9","10091,1,99999,9","61,1",,"0139,1","MET076METAR EGOW 040750Z 23017G27KT 9999 -RA FEW018 SCT030 BKN060 15/13 Q1009 BLU;",
"03018099999","2010-11-04T08:50:00","4","53.581575","-3.055522","11.27","WOODVALE, UK","FM-15","EGOW ","V020","230,1,N,0062,1","00900,1,C,N","011265,1,N,1","+0140,1","+0130,1","99999,9","02,5,+00450,1,99,9","04,5,+00900,1,99,9","07,5,+02850,5,99,9","07,99,1,99,9,99,9,99999,9,99,9,99,9","10102,1,99999,9",,,,"MET069METAR EGOW 040850Z 23012KT 9999 FEW015 SCT030 BKN095 14/13 Q1010 BLU;",
"03018099999","2010-11-04T09:50:00","4","53.581575","-3.055522","11.27","WOODVALE, UK","FM-15","EGOW ","V020","250,1,N,0108,1","00900,1,C,N","011265,1,N,1","+0150,1","+0130,1","99999,9","02,5,+00450,1,99,9","04,5,+00900,1,99,9","07,5,+01200,1,99,9","07,99,1,99,9,99,9,99999,9,99,9,99,9","10108,1,99999,9",,,"0159,1","MET072METAR EGOW 040950Z 25021G31KT 9999 FEW015 SCT030 BKN040 15/13 Q1011 BLU;",
"03018099999","2010-11-04T10:50:00","4","53.581575","-3.055522","11.27","WOODVALE, UK","FM-15","EGOW ","V020","240,1,N,0103,1","00900,1,C,N","011265,1,N,1","+0120,1","+0120,1","99999,9","02,5,+00450,1,99,9","04,5,+00900,1,99,9","07,5,+01200,1,99,9","07,99,1,99,9,99,9,99999,9,99,9,99,9","10108,1,99999,9",,,,"MET069METAR EGOW 041050Z 24020KT 9999 FEW015 SCT030 BKN040 12/12 Q1011 BLU;",
"03018099999","2010-11-04T11:50:00","4","53.581575","-3.055522","11.27","WOODVALE, UK","FM-15","EGOW ","V020","230,1,N,0093,1","01200,1,C,N","011265,1,N,1","+0160,1","+0120,1","99999,9","02,5,+00480,1,99,9","07,5,+01200,1,99,9",,"07,99,1,99,9,99,9,99999,9,99,9,99,9","10108,1,99999,9",,,"0144,1","MET065METAR EGOW 041150Z 23018G28KT 9999 FEW016 BKN040 16/12 Q1011 BLU;",
"03018099999","2010-11-04T12:50:00","4","53.581575","-3.055522","11.27","WOODVALE, UK","FM-15","EGOW ","V020","220,1,N,0082,1","00750,1,C,N","011265,1,N,1","+0160,1","+0130,1","99999,9","02,5,+00450,1,99,9","04,5,+00750,1,99,9","07,5,+01200,1,99,9","07,99,1,99,9,99,9,99999,9,99,9,99,9","10108,1,99999,9",,,,"MET069METAR EGOW 041250Z 22016KT 9999 FEW015 SCT025 BKN040 16/13 Q1011 BLU;",
"03018099999","2010-11-04T13:50:00","4","53.581575","-3.055522","11.27","WOODVALE, UK","FM-15","EGOW ","V020","230,1,N,0098,1","99999,9,C,N","011265,1,N,1","+0160,1","+0130,1","99999,9","02,5,+00450,1,99,9","04,5,+00900,1,99,9",,"04,99,1,99,9,99,9,99999,9,99,9,99,9","10108,1,99999,9","63,1",,,"MET065METAR EGOW 041350Z 23019KT 9999 RA FEW015 SCT030 16/13 Q1011 BLU;","P01 009003SCOCIG"
"03018099999","2010-11-05T07:50:00","4","53.581575","-3.055522","11.27","WOODVALE, UK","FM-15","EGOW ","V020","280,1,N,0072,1","99999,9,9,Y","009900,1,N,1","+0120,1","+0090,1","99999,9",,,,,"10169,1,99999,9",,,"0123,1","MET052METAR EGOW 050750Z 28014G24KT CAVOK 12/09 Q1017 BLU;",
"03018099999","2010-11-05T08:50:00","4","53.581575","-3.055522","11.27","WOODVALE, UK","FM-15","EGOW ","V020","260,1,N,0057,1","02100,1,C,N","011265,1,N,1","+0130,1","+0090,1","99999,9","04,5,+00450,1,99,9","07,5,+02100,1,99,9",,"07,99,1,99,9,99,9,99999,9,99,9,99,9","10180,1,99999,9",,,,"MET062METAR EGOW 050850Z 26011KT 9999 SCT015 BKN070 13/09 Q1018 BLU;",
"03018099999","2010-11-05T09:50:00","4","53.581575","-3.055522","11.27","WOODVALE, UK","FM-15","EGOW ","V020","250,1,N,0062,1","99999,9,C,N","011265,1,N,1","+0130,1","+0090,1","99999,9","04,5,+00450,1,99,9","04,5,+02100,1,99,9",,"04,99,1,99,9,99,9,99999,9,99,9,99,9","10180,1,99999,9",,,,"MET062METAR EGOW 050950Z 25012KT 9999 SCT015 SCT070 13/09 Q1018 WHT;","P01 021003SCOCIG"
"03018099999","2010-11-05T10:50:00","4","53.581575","-3.055522","11.27","WOODVALE, UK","FM-15","EGOW ","V020","250,1,N,0072,1","99999,9,C,N","011265,1,N,1","+0150,1","+0090,1","99999,9","04,5,+00450,1,99,9","04,5,+02100,1,99,9",,"04,99,1,99,9,99,9,99999,9,99,9,99,9","10180,1,99999,9",,,,"MET062METAR EGOW 051050Z 25014KT 9999 SCT015 SCT070 15/09 Q1018 WHT;","P01 021003SCOCIG"
"03018099999","2010-11-05T11:50:00","4","53.581575","-3.055522","11.27","WOODVALE, UK","FM-15","EGOW ","V020","250,1,N,0062,1","99999,9,C,N","011265,1,N,1","+0130,1","+0100,1","99999,9","04,5,+00450,1,99,9","04,5,+02100,1,99,9",,"04,99,1,99,9,99,9,99999,9,99,9,99,9","10180,1,99999,9",,,,"MET062METAR EGOW 051150Z 25012KT 9999 SCT015 SCT070 13/10 Q1018 WHT;","P01 021003SCOCIG"
"03018099999","2010-11-05T12:50:00","4","53.581575","-3.055522","11.27","WOODVALE, UK","FM-15","EGOW ","V020","250,1,N,0057,1","00750,1,C,N","011265,1,N,1","+0130,1","+0100,1","99999,9","02,5,+00630,1,99,9","04,5,+00750,1,99,9","07,5,+00900,1,99,9","07,99,1,99,9,99,9,99999,9,99,9,99,9","10180,1,99999,9",,,,"MET069METAR EGOW 051250Z 25011KT 9999 FEW021 SCT025 BKN030 13/10 Q1018 BLU;",
"03018099999","2010-11-05T13:50:00","4","53.581575","-3.055522","11.27","WOODVALE, UK","FM-15","EGOW ","V020","250,1,N,0051,1","01500,1,C,N","007000,1,N,1","+0120,1","+0100,1","99999,9","04,5,+00510,1,99,9","07,5,+01500,1,99,9",,"07,99,1,99,9,99,9,99999,9,99,9,99,9","10169,1,99999,9","61,1",,,"MET066METAR EGOW 051350Z 25010KT 7000 -RA SCT017 BKN050 12/10 Q1017 WHT;",
"03018099999","2010-11-06T07:50:00","4","53.581575","-3.055522","11.27","WOODVALE, UK","FM-15","EGOW ","V020","340,1,N,0031,1","22000,1,9,N","011265,1,N,1","+0080,1","+0040,1","99999,9","02,5,+00600,1,99,9",,,"02,99,1,99,9,99,9,99999,9,99,9,99,9","10180,1,99999,9",,,,"MET055METAR EGOW 060750Z 34006KT 9999 FEW020 08/04 Q1018 BLU;",
"03018099999","2010-11-06T08:50:00","4","53.581575","-3.055522","11.27","WOODVALE, UK","FM-15","EGOW ","V020","350,1,N,0021,1","22000,1,9,N","011265,1,N,1","+0090,1","+0040,1","99999,9","02,5,+00600,1,99,9",,,"02,99,1,99,9,99,9,99999,9,99,9,99,9","10180,1,99999,9",,,,"MET055METAR EGOW 060850Z 35004KT 9999 FEW020 09/04 Q1018 BLU;",
"03018099999","2010-11-06T09:50:00","4","53.581575","-3.055522","11.27","WOODVALE, UK","FM-15","EGOW ","V020","360,1,N,0021,1","99999,9,C,N","011265,1,N,1","+0090,1","+0040,1","99999,9","02,5,+00840,1,99,9","04,5,+01500,1,99,9",,"04,99,1,99,9,99,9,99999,9,99,9,99,9","10180,1,99999,9",,,,"MET062METAR EGOW 060950Z 36004KT 9999 FEW028 SCT050 09/04 Q1018 BLU;","P01 015003SCOCIG"
"03018099999","2010-11-06T10:50:00","4","53.581575","-3.055522","11.27","WOODVALE, UK","FM-15","EGOW ","V020","330,1,N,0021,1","22000,1,9,N","011265,1,N,1","+0110,1","+0040,1","99999,9","02,5,+00840,1,99,9",,,"02,99,1,99,9,99,9,99999,9,99,9,99,9","10180,1,99999,9",,,,"MET055METAR EGOW 061050Z 33004KT 9999 FEW028 11/04 Q1018 BLU;",
"03018099999","2010-11-06T11:50:00","4","53.581575","-3.055522","11.27","WOODVALE, UK","FM-15","EGOW ","V020","330,1,N,0021,1","99999,9,C,N","011265,1,N,1","+0100,1","+0030,1","99999,9","02,5,+00840,1,99,9","04,5,+01500,1,99,9",,"04,99,1,99,9,99,9,99999,9,99,9,99,9","10169,1,99999,9","16,1",,,"MET067METAR EGOW 061150Z 33004KT 9999 VCSH FEW028 SCT050 10/03 Q1017 BLU;","P01 015003SCOCIG"
"03018099999","2010-11-06T12:50:00","4","53.581575","-3.055522","11.27","WOODVALE, UK","FM-15","EGOW ","V020","330,1,N,0015,1","22000,1,9,N","011265,1,N,1","+0100,1","+0030,1","99999,9","04,5,+00750,1,99,9",,,"04,99,1,99,9,99,9,99999,9,99,9,99,9","10169,1,99999,9","16,1",,,"MET060METAR EGOW 061250Z 33003KT 9999 VCSH SCT025 10/03 Q1017 BLU;",
"03018099999","2010-11-06T13:50:00","4","53.581575","-3.055522","11.27","WOODVALE, UK","FM-15","EGOW ","V020","090,1,N,0015,1","01200,1,C,N","011265,1,N,1","+0090,1","+0050,1","99999,9","02,5,+00600,1,99,9","04,5,+01200,1,99,9","07,5,+02400,1,99,9","07,99,1,99,9,99,9,99999,9,99,9,99,9","10159,1,99999,9","16,1",,,"MET074METAR EGOW 061350Z 09003KT 9999 VCSH FEW020 SCT040 BKN080 09/05 Q1016 BLU;",
"03018099999","2010-11-06T14:50:00","4","53.581575","-3.055522","11.27","WOODVALE, UK","FM-15","EGOW ","V020","010,1,N,0041,1","01200,1,C,N","011265,1,N,1","+0090,1","+0060,1","99999,9","02,5,+00750,1,99,9","04,5,+01200,1,99,9","07,5,+02400,1,99,9","07,99,1,99,9,99,9,99999,9,99,9,99,9","10149,1,99999,9","16,1",,,"MET074METAR EGOW 061450Z 01008KT 9999 VCSH FEW025 SCT040 BKN080 09/06 Q1015 BLU;",
"03018099999","2010-11-06T15:50:00","4","53.581575","-3.055522","11.27","WOODVALE, UK","FM-15","EGOW ","V020","100,1,N,0015,1","02400,1,C,N","011265,1,N,1","+0080,1","+0050,1","99999,9","04,5,+00750,1,99,9","07,5,+02400,1,99,9",,"07,99,1,99,9,99,9,99999,9,99,9,99,9","10139,1,99999,9","16,1",,,"MET067METAR EGOW 061550Z 10003KT 9999 VCSH SCT025 BKN080 08/05 Q1014 BLU;",
"03018099999","2010-11-07T07:50:00","4","53.581575","-3.055522","11.27","WOODVALE, UK","FM-15","EGOW ","V020","350,1,N,0031,1","22000,1,9,N","008000,1,N,1","+0030,1","+0010,1","99999,9","02,5,+00750,1,99,9",,,"02,99,1,99,9,99,9,99999,9,99,9,99,9","10129,1,99999,9","05,1",,,"MET058METAR EGOW 070750Z 35006KT 8000 HZ FEW025 03/01 Q1013 BLU;",
"03018099999","2010-11-07T08:50:00","4","53.581575","-3.055522","11.27","WOODVALE, UK","FM-15","EGOW ","V020","040,1,N,0021,1","22000,1,9,N","008000,1,N,1","+0050,1","+0020,1","99999,9","02,5,+01050,1,99,9",,,"02,99,1,99,9,99,9,99999,9,99,9,99,9","10129,1,99999,9","05,1",,,"MET058METAR EGOW 070850Z 04004KT 8000 HZ FEW035 05/02 Q1013 BLU;",
"03018099999","2010-11-07T09:50:00","4","53.581575","-3.055522","11.27","WOODVALE, UK","FM-15","EGOW ","V020","060,1,N,0026,1","99999,9,9,Y","009900,1,N,1","+0070,1","+0030,1","99999,9",,,,,"10119,1,99999,9",,,,"MET049METAR EGOW 070950Z 06005KT CAVOK 07/03 Q1012 BLU;",
"03018099999","2010-11-07T10:50:00","4","53.581575","-3.055522","11.27","WOODVALE, UK","FM-15","EGOW ","V020","080,1,N,0021,1","99999,9,9,Y","009900,1,N,1","+0090,1","+0040,1","99999,9",,,,,"10108,1,99999,9",,,,"MET049METAR EGOW 071050Z 08004KT CAVOK 09/04 Q1011 BLU;",
"03018099999","2010-11-07T11:50:00","4","53.581575","-3.055522","11.27","WOODVALE, UK","FM-15","EGOW ","V020","140,1,N,0015,1","22000,1,9,N","011265,1,N,1","+0090,1","+0030,1","99999,9","02,5,+00750,1,99,9",,,"02,99,1,99,9,99,9,99999,9,99,9,99,9","10108,1,99999,9",,,,"MET055METAR EGOW 071150Z 14003KT 9999 FEW025 09/03 Q1011 BLU;",
"03018099999","2010-11-07T12:50:00","4","53.581575","-3.055522","11.27","WOODVALE, UK","FM-15","EGOW ","V020","190,1,N,0021,1","22000,1,9,N","011265,1,N,1","+0080,1","+0030,1","99999,9","04,5,+00750,1,99,9",,,"04,99,1,99,9,99,9,99999,9,99,9,99,9","10091,1,99999,9",,,,"MET055METAR EGOW 071250Z 19004KT 9999 SCT025 08/03 Q1009 BLU;",
"03018099999","2010-11-07T13:50:00","4","53.581575","-3.055522","11.27","WOODVALE, UK","FM-15","EGOW ","V020","220,1,N,0041,1","22000,1,9,N","011265,1,N,1","+0090,1","+0040,1","99999,9","04,5,+00750,1,99,9",,,"04,99,1,99,9,99,9,99999,9,99,9,99,9","10081,1,99999,9",,,,"MET055METAR EGOW 071350Z 22008KT 9999 SCT025 09/04 Q1008 BLU;",
"03018099999","2010-11-07T14:50:00","4","53.581575","-3.055522","11.27","WOODVALE, UK","FM-15","EGOW ","V020","190,1,N,0057,1","22000,1,9,N","008000,1,N,1","+0080,1","+0020,1","99999,9","04,5,+00750,1,99,9",,,"04,99,1,99,9,99,9,99999,9,99,9,99,9","10061,1,99999,9","05,1",,,"MET058METAR EGOW 071450Z 19011KT 8000 HZ SCT025 08/02 Q1006 BLU;",
"03018099999","2010-11-10T07:50:00","4","53.581575","-3.055522","11.27","WOODVALE, UK","FM-15","EGOW ","V020","330,1,N,0031,1","22000,1,9,N","011265,1,N,1","+0050,1","-0030,1","99999,9","02,5,+00960,1,99,9",,,"02,99,1,99,9,99,9,99999,9,99,9,99,9","09990,1,99999,9",,,,"MET056METAR EGOW 100750Z 33006KT 9999 FEW032 05/M03 Q0999 BLU;",
"03018099999","2010-11-10T08:50:00","4","53.581575","-3.055522","11.27","WOODVALE, UK","FM-15","EGOW ","V020","330,1,N,0036,1","22000,1,9,N","011265,1,N,1","+0060,1","-0030,1","99999,9","02,5,+01050,1,99,9",,,"02,99,1,99,9,99,9,99999,9,99,9,99,9","10000,1,99999,9",,,,"MET056METAR EGOW 100850Z 33007KT 9999 FEW035 06/M03 Q1000 BLU;",
"03018099999","2010-11-10T09:50:00","4","53.581575","-3.055522","11.27","WOODVALE, UK","FM-15","EGOW ","V020","030,1,N,0015,1","22000,1,9,N","011265,1,N,1","+0080,1","-0020,1","99999,9","02,5,+01050,1,99,9",,,"02,99,1,99,9,99,9,99999,9,99,9,99,9","10000,1,99999,9",,,,"MET056METAR EGOW 100950Z 03003KT 9999 FEW035 08/M02 Q1000 BLU;",
"03018099999","2010-11-10T10:50:00","4","53.581575","-3.055522","11.27","WOODVALE, UK","FM-15","EGOW ","V020","020,1,N,0031,1","22000,1,9,N","011265,1,N,1","+0060,1","-0010,1","99999,9","04,5,+00900,1,99,9",,,"04,99,1,99,9,99,9,99999,9,99,9,99,9","10010,1,99999,9",,,,"MET056METAR EGOW 101050Z 02006KT 9999 SCT030 06/M01 Q1001 BLU;",
"03018099999","2010-11-10T11:50:00","4","53.581575","-3.055522","11.27","WOODVALE, UK","FM-15","EGOW ","V020","350,1,N,0026,1","00900,1,C,N","011265,1,N,1","+0070,1","+0000,1","99999,9","02,5,+00600,1,99,9","07,5,+00900,1,99,9",,"07,99,1,99,9,99,9,99999,9,99,9,99,9","10010,1,99999,9",,,,"MET063METAR EGOW 101150Z 35005KT 9999 FEW020 BKN030 07/M00 Q1001 BLU;",
"03018099999","2010-11-10T12:50:00","4","53.581575","-3.055522","11.27","WOODVALE, UK","FM-15","EGOW ","V020","290,1,N,0041,1","01350,1,C,N","011265,1,N,1","+0090,1","-0030,1","99999,9","07,5,+01350,1,99,9",,,"07,99,1,99,9,99,9,99999,9,99,9,99,9","10010,1,99999,9",,,,"MET056METAR EGOW 101250Z 29008KT 9999 BKN045 09/M03 Q1001 BLU;",
"03018099999","2010-11-10T13:50:00","4","53.581575","-3.055522","11.27","WOODVALE, UK","FM-15","EGOW ","V020","280,1,N,0041,1","22000,1,9,N","011265,1,N,1","+0070,1","+0020,1","99999,9","04,5,+01200,1,99,9",,,"04,99,1,99,9,99,9,99999,9,99,9,99,9","10010,1,99999,9",,,,"MET055METAR EGOW 101350Z 28008KT 9999 SCT040 07/02 Q1001 BLU;",
"03018099999","2010-11-10T14:50:00","4","53.581575","-3.055522","11.27","WOODVALE, UK","FM-15","EGOW ","V020","300,1,N,0026,1","01200,1,C,N","011265,1,N,1","+0070,1","-0030,1","99999,9","07,5,+01200,1,99,9",,,"07,99,1,99,9,99,9,99999,9,99,9,99,9",,,,,"MET057METAR EGOW 101450Z 30005KT 9999 BKN040 07/M03 Q01001 BLU;",
"03018099999","2010-11-10T15:50:00","4","53.581575","-3.055522","11.27","WOODVALE, UK","FM-15","EGOW ","V020","290,1,N,0041,1","00960,1,C,N","011265,1,N,1","+0070,1","-0010,1","99999,9","07,5,+00960,1,99,9",,,"07,99,1,99,9,99,9,99999,9,99,9,99,9","10010,1,99999,9",,,,"MET056METAR EGOW 101550Z 29008KT 9999 BKN032 07/M01 Q1001 BLU;",
"03018099999","2010-11-11T07:50:00","4","53.581575","-3.055522","11.27","WOODVALE, UK","FM-15","EGOW ","V020","190,1,N,0062,1","00690,1,C,N","011265,1,N,1","+0080,1","+0070,1","99999,9","02,5,+00450,1,99,9","07,5,+00690,1,99,9",,"07,99,1,99,9,99,9,99999,9,99,9,99,9","09780,1,99999,9","61,1",,"0113,1","MET069METAR EGOW 110750Z 19012G22KT 9999 -RA FEW015 BKN023 08/07 Q0978 WHT;",
"03018099999","2010-11-11T08:50:00","4","53.581575","-3.055522","11.27","WOODVALE, UK","FM-15","EGOW ","V020","230,1,N,0113,1","00900,1,C,N","011265,1,N,1","+0100,1","+0100,1","99999,9","02,5,+00210,1,99,9","07,5,+00900,1,99,9",,"07,99,1,99,9,99,9,99999,9,99,9,99,9","09770,1,99999,9","63,1",,"0165,1","MET068METAR EGOW 110850Z 23022G32KT 9999 RA FEW007 BKN030 10/10 Q0977 WHT;",
"03018099999","2010-11-11T09:50:00","4","53.581575","-3.055522","11.27","WOODVALE, UK","FM-15","EGOW ","V020","250,1,N,0129,1","00600,1,C,N","011265,1,N,1","+0120,1","+0080,1","99999,9","02,5,+00300,1,99,9","04,5,+00600,1,99,9","07,5,+00900,1,99,9","07,99,1,99,9,99,9,99999,9,99,9,99,9","09770,1,99999,9","63,1",,"0190,1","MET075METAR EGOW 110950Z 25025G37KT 9999 RA FEW010 SCT020 BKN030 12/08 Q0977 WHT;",
"03018099999","2010-11-11T10:50:00","4","53.581575","-3.055522","11.27","WOODVALE, UK","FM-15","EGOW ","V020","250,1,N,0144,1","99999,9,C,N","011265,1,N,1","+0110,1","+0070,1","99999,9","02,5,+00540,1,99,9","04,5,+00750,1,99,9",,"04,99,1,99,9,99,9,99999,9,99,9,99,9","09770,1,99999,9","16,1",,"0195,1","MET077METAR EGOW 111050Z 25028G38KT 9999 VCSH FEW018 SCT025 11/07 Q0977 RESHRA BLU;","P01 007503SCOCIG"
"03018099999","2010-11-11T11:50:00","4","53.581575","-3.055522","11.27","WOODVALE, UK","FM-15","EGOW ","V020","260,1,N,0175,1","00750,1,C,N","011265,1,N,1","+0100,1","+0050,1","99999,9","04,5,+00450,1,99,9","07,5,+00750,1,99,9",,"07,99,1,99,9,99,9,99999,9,99,9,99,9","09760,1,99999,9","81,1",,"0252,1","MET070METAR EGOW 111150Z 26034G49KT 9999 SHRA SCT015 BKN025 10/05 Q0976 WHT;",
"03018099999","2010-11-11T13:50:00","4","53.581575","-3.055522","11.27","WOODVALE, UK","FM-15","EGOW ","V020","250,1,N,0154,1","22000,1,9,N","011265,1,N,1","+0110,1","+0040,1","99999,9","04,5,+00450,1,99,9",,,"04,99,1,99,9,99,9,99999,9,99,9,99,9","09749,1,99999,9",,,"0216,1","MET058METAR EGOW 111350Z 25030G42KT 9999 SCT015 11/04 Q0975 WHT;",
"03018099999","2010-11-12T07:50:00","4","53.581575","-3.055522","11.27","WOODVALE, UK","FM-15","EGOW ","V020","270,1,N,0134,1","99999,9,C,N","011265,1,N,1","+9999,9","+9999,9","99999,9","02,5,+00450,1,99,9","04,5,+00750,1,99,9",,"04,99,1,99,9,99,9,99999,9,99,9,99,9","09871,1,99999,9",,,"0221,1","MET065METAR EGOW 120750Z 27026G43KT 9999 FEW015 SCT025 ///// Q0987 BLU;","P01 007503SCOCIG"
"03018099999","2010-11-12T08:50:00","4","53.581575","-3.055522","11.27","WOODVALE, UK","FM-15","EGOW ","V020","270,1,N,0129,1","99999,9,C,N","011265,1,N,1","+9999,9","+9999,9","99999,9","02,5,+00450,1,99,9","04,5,+00750,1,99,9",,"04,99,1,99,9,99,9,99999,9,99,9,99,9","09882,1,99999,9",,,"0211,1","MET065METAR EGOW 120850Z 27025G41KT 9999 FEW015 SCT025 ///// Q0988 BLU;","P01 007503SCOCIG"
"03018099999","2010-11-12T09:50:00","4","53.581575","-3.055522","11.27","WOODVALE, UK","FM-15","EGOW ","V020","270,1,N,0123,1","99999,9,C,N","011265,1,N,1","+9999,9","+9999,9","99999,9","02,5,+00450,1,99,9","04,5,+00750,1,99,9",,"04,99,1,99,9,99,9,99999,9,99,9,99,9","09892,1,99999,9",,,"0175,1","MET065METAR EGOW 120950Z 27024G34KT 9999 FEW015 SCT025 ///// Q0989 BLU;","P01 007503SCOCIG"
"03018099999","2010-11-12T10:50:00","4","53.581575","-3.055522","11.27","WOODVALE, UK","FM-15","EGOW ","V020","260,1,N,0103,1","22000,1,9,N","011265,1,N,1","+9999,9","+9999,9","99999,9","04,5,+00750,1,99,9",,,"04,99,1,99,9,99,9,99999,9,99,9,99,9","09892,1,99999,9",,,"0170,1","MET058METAR EGOW 121050Z 26020G33KT 9999 SCT025 ///// Q0989 BLU;",
"03018099999","2010-11-12T11:50:00","4","53.581575","-3.055522","11.27","WOODVALE, UK","FM-15","EGOW ","V020","260,1,N,0103,1","99999,9,C,N","011265,1,N,1","+9999,9","+9999,9","99999,9","02,5,+00450,1,99,9","04,5,+00750,1,99,9",,"04,99,1,99,9,99,9,99999,9,99,9,99,9","09892,1,99999,9",,,"0154,1","MET065METAR EGOW 121150Z 26020G30KT 9999 FEW015 SCT025 ///// Q0989 BLU;","P01 007503SCOCIG"
"03018099999","2010-11-12T12:50:00","4","53.581575","-3.055522","11.27","WOODVALE, UK","FM-15","EGOW ","V020","260,1,N,0098,1","99999,9,C,N","011265,1,N,1","+0110,1","+0060,1","99999,9","02,5,+00450,1,99,9","04,5,+00750,1,99,9",,"04,99,1,99,9,99,9,99999,9,99,9,99,9","09892,1,99999,9",,,"0165,1","MET065METAR EGOW 121250Z 26019G32KT 9999 FEW015 SCT025 11/06 Q0989 BLU;","P01 007503SCOCIG"
"03018099999","2010-11-12T13:50:00","4","53.581575","-3.055522","11.27","WOODVALE, UK","FM-15","EGOW ","V020","260,1,N,0093,1","99999,9,C,N","011265,1,N,1","+0110,1","+0060,1","99999,9","02,5,+00450,1,99,9","04,5,+00750,1,99,9",,"04,99,1,99,9,99,9,99999,9,99,9,99,9","09892,1,99999,9",,,"0144,1","MET065METAR EGOW 121350Z 26018G28KT 9999 FEW015 SCT025 11/06 Q0989 BLU;","P01 007503SCOCIG"
"03018099999","2010-11-12T14:50:00","4","53.581575","-3.055522","11.27","WOODVALE, UK","FM-15","EGOW ","V020","280,1,N,0093,1","99999,9,C,N","011265,1,N,1","+0110,1","+0060,1","99999,9","02,5,+00450,1,99,9","04,5,+00750,1,99,9",,"04,99,1,99,9,99,9,99999,9,99,9,99,9","09882,1,99999,9","61,1",,"0144,1","MET069METAR EGOW 121450Z 28018G28KT 9999 -RA FEW015 SCT025 11/06 Q0988 BLU;","P01 007503SCOCIG"
"03018099999","2010-11-13T07:50:00","4","53.581575","-3.055522","11.27","WOODVALE, UK","FM-15","EGOW ","V020","250,1,N,0103,1","22000,1,9,N","011265,1,N,1","+0080,1","+0050,1","99999,9","04,5,+00750,1,99,9",,,"04,99,1,99,9,99,9,99999,9,99,9,99,9","09892,1,99999,9",,,,"MET055METAR EGOW 130750Z 25020KT 9999 SCT025 08/05 Q0989 BLU;",
"03018099999","2010-11-13T08:50:00","4","53.581575","-3.055522","11.27","WOODVALE, UK","FM-15","EGOW ","V020","250,1,N,0103,1","99999,9,C,N","011265,1,N,1","+0090,1","+0040,1","99999,9","02,5,+00360,1,99,9","04,5,+00600,1,09,5",,"04,99,1,99,9,99,9,99999,9,99,9,99,9","09898,1,99999,9",,,,"MET064METAR EGOW 130850Z 25020KT 9999 FEW012 SCT020CB 09/04 Q0990 BLU;","P01 006003SCOCIG"
"03018099999","2010-11-13T09:50:00","4","53.581575","-3.055522","11.27","WOODVALE, UK","FM-15","EGOW ","V020","240,1,N,0087,1","22000,1,9,N","011265,1,N,1","+0090,1","+0050,1","99999,9","02,5,+00750,1,99,9",,,"02,99,1,99,9,99,9,99999,9,99,9,99,9","09898,1,99999,9",,,,"MET055METAR EGOW 130950Z 24017KT 9999 FEW025 09/05 Q0990 BLU;",
"03018099999","2010-11-13T10:50:00","4","53.581575","-3.055522","11.27","WOODVALE, UK","FM-15","EGOW ","V020","240,1,N,0082,1","22000,1,9,N","011265,1,N,1","+0100,1","+0050,1","99999,9","02,5,+00600,1,99,9",,,"02,99,1,99,9,99,9,99999,9,99,9,99,9","09909,1,99999,9",,,,"MET055METAR EGOW 131050Z 24016KT 9999 FEW020 10/05 Q0991 BLU;",
"03018099999","2010-11-13T11:50:00","4","53.581575","-3.055522","11.27","WOODVALE, UK","FM-15","EGOW ","V020","230,1,N,0072,1","22000,1,9,N","011265,1,N,1","+0100,1","+0050,1","99999,9","02,5,+00600,1,99,9",,,"02,99,1,99,9,99,9,99999,9,99,9,99,9","09909,1,99999,9",,,,"MET055METAR EGOW 131150Z 23014KT 9999 FEW020 10/05 Q0991 BLU;",
"03018099999","2010-11-13T12:50:00","4","53.581575","-3.055522","11.27","WOODVALE, UK","FM-15","EGOW ","V020","250,1,N,0082,1","22000,1,9,N","011265,1,N,1","+0110,1","+0040,1","99999,9","04,5,+00600,1,99,9",,,"04,99,1,99,9,99,9,99999,9,99,9,99,9","09909,1,99999,9",,,,"MET055METAR EGOW 131250Z 25016KT 9999 SCT020 11/04 Q0991 BLU;",
"03018099999","2010-11-13T13:50:00","4","53.581575","-3.055522","11.27","WOODVALE, UK","FM-15","EGOW ","V020","240,1,N,0072,1","22000,1,9,N","011265,1,N,1","+0100,1","+0040,1","99999,9","04,5,+00750,1,99,9",,,"04,99,1,99,9,99,9,99999,9,99,9,99,9","09909,1,99999,9",,,,"MET055METAR EGOW 131350Z 24014KT 9999 SCT025 10/04 Q0991 BLU;",
"03018099999","2010-11-13T14:50:00","4","53.581575","-3.055522","11.27","WOODVALE, UK","FM-15","EGOW ","V020","240,1,N,0051,1","22000,1,9,N","011265,1,N,1","+0100,1","+0040,1","99999,9","02,5,+00750,1,99,9",,,"02,99,1,99,9,99,9,99999,9,99,9,99,9","09909,1,99999,9",,,,"MET055METAR EGOW 131450Z 24010KT 9999 FEW025 10/04 Q0991 BLU;",
"03018099999","2010-11-13T15:50:00","4","53.581575","-3.055522","11.27","WOODVALE, UK","FM-15","EGOW ","V020","240,1,N,0041,1","22000,1,9,N","011265,1,N,1","+0090,1","+0030,1","99999,9","02,5,+00750,1,99,9",,,"02,99,1,99,9,99,9,99999,9,99,9,99,9","09909,1,99999,9",,,,"MET055METAR EGOW 131550Z 24008KT 9999 FEW025 09/03 Q0991 BLU;",
"03018099999","2010-11-17T07:50:00","4","53.581575","-3.055522","11.27","WOODVALE, UK","FM-15","EGOW ","V020","130,1,N,0108,1","00750,1,C,N","009000,1,N,1","+0070,1","+0050,1","99999,9","07,5,+00750,1,99,9",,,"07,99,1,99,9,99,9,99999,9,99,9,99,9","10020,1,99999,9","63,1",,"0180,1","MET061METAR EGOW 170750Z 13021G35KT 9000 RA BKN025 07/05 Q1002 BLU;",
"03018099999","2010-11-17T08:50:00","4","53.581575","-3.055522","11.27","WOODVALE, UK","FM-15","EGOW ","V020","130,1,N,0103,1","00750,1,C,N","009000,1,N,1","+0070,1","+0050,1","99999,9","02,5,+00570,1,99,9","04,5,+00750,1,99,9","07,5,+01320,1,99,9","07,99,1,99,9,99,9,99999,9,99,9,99,9","10020,1,99999,9",,,"0154,1","MET072METAR EGOW 170850Z 13020G30KT 9000 FEW019 SCT025 BKN044 07/05 Q1002 BLU;",
"03018099999","2010-11-17T09:50:00","4","53.581575","-3.055522","11.27","WOODVALE, UK","FM-15","EGOW ","V020","130,1,N,0098,1","00750,1,C,N","008000,1,N,1","+0070,1","+0050,1","99999,9","02,5,+00450,1,99,9","04,5,+00750,1,99,9","07,5,+01350,1,99,9","07,99,1,99,9,99,9,99999,9,99,9,99,9","10020,1,99999,9",,,"0185,1","MET072METAR EGOW 170950Z 13019G36KT 8000 FEW015 SCT025 BKN045 07/05 Q1002 BLU;",
"03018099999","2010-11-17T10:50:00","4","53.581575","-3.055522","11.27","WOODVALE, UK","FM-15","EGOW ","V020","130,1,N,0098,1","00750,1,C,N","008000,1,N,1","+0070,1","+0050,1","99999,9","02,5,+00450,1,99,9","04,5,+00750,1,99,9","07,5,+01350,1,99,9","07,99,1,99,9,99,9,99999,9,99,9,99,9","10020,1,99999,9","61,1",,"0170,1","MET076METAR EGOW 171050Z 13019G33KT 8000 -RA FEW015 SCT025 BKN045 07/05 Q1002 BLU;",
"03018099999","2010-11-17T11:50:00","4","53.581575","-3.055522","11.27","WOODVALE, UK","FM-15","EGOW ","V020","130,1,N,0103,1","00900,1,C,N","008000,1,N,1","+0060,1","+0050,1","99999,9","04,5,+00450,1,99,9","07,5,+00900,1,99,9",,"07,99,1,99,9,99,9,99999,9,99,9,99,9","10031,1,99999,9","61,1",,"0159,1","MET069METAR EGOW 171150Z 13020G31KT 8000 -RA SCT015 BKN030 06/05 Q1003 WHT;",
"03018099999","2010-11-17T12:50:00","4","53.581575","-3.055522","11.27","WOODVALE, UK","FM-15","EGOW ","V020","130,1,N,0103,1","00900,1,C,N","008000,1,N,1","+0060,1","+0050,1","99999,9","04,5,+00450,1,99,9","07,5,+00900,1,99,9",,"07,99,1,99,9,99,9,99999,9,99,9,99,9","10020,1,99999,9","61,1",,,"MET066METAR EGOW 171250Z 13020KT 8000 -RA SCT015 BKN030 06/05 Q1002 WHT;",
"03018099999","2010-11-17T13:50:00","4","53.581575","-3.055522","11.27","WOODVALE, UK","FM-15","EGOW ","V020","999,9,9,9999,9","00900,5,9,N","011265,1,N,1","+0060,1","+0040,1","99999,9","02,5,+00450,5,99,9","08,5,+00900,5,99,9",,,"10020,1,99999,9",,,,"MET071METAR EGOW 171350Z 13018G28KTKT 9999 -RA FEW015 OVC030 06/04 Q1002 BLU;",
"03018099999","2010-11-17T14:50:00","4","53.581575","-3.055522","11.27","WOODVALE, UK","FM-15","EGOW ","V020","130,1,N,0093,1","00900,1,C,N","011265,1,N,1","+0060,1","+0030,1","99999,9","02,5,+00450,1,99,9","08,5,+00900,1,99,9",,"08,99,1,99,9,99,9,99999,9,99,9,99,9","10020,1,99999,9","61,1",,"0144,1","MET069METAR EGOW 171450Z 13018G28KT 9999 -RA FEW015 OVC030 06/03 Q1002 BLU;",
"03018099999","2010-11-18T07:50:00","4","53.581575","-3.055522","11.27","WOODVALE, UK","FM-15","EGOW ","V020","140,1,N,0082,1","00300,1,C,N","008000,1,N,1","+0060,1","+0040,1","99999,9","02,5,+00240,1,99,9","07,5,+00300,1,99,9",,"07,99,1,99,9,99,9,99999,9,99,9,99,9","10000,1,99999,9","05,1",,,"MET065METAR EGOW 180750Z 14016KT 8000 HZ FEW008 BKN010 06/04 Q1000 GRN;",
"03018099999","2010-11-18T08:50:00","4","53.581575","-3.055522","11.27","WOODVALE, UK","FM-15","EGOW ","V020","140,1,N,0062,1","00300,1,C,N","006000,1,N,1","+0060,1","+0040,1","99999,9","02,5,+00240,1,99,9","07,5,+00300,1,99,9",,"07,99,1,99,9,99,9,99999,9,99,9,99,9","10010,1,99999,9","51,1",,,"MET066METAR EGOW 180850Z 14012KT 6000 -DZ FEW008 BKN010 06/04 Q1001 GRN;",
"03018099999","2010-11-18T09:50:00","4","53.581575","-3.055522","11.27","WOODVALE, UK","FM-15","EGOW ","V020","130,1,N,0062,1","00300,1,C,N","006000,1,N,1","+0060,1","+0050,1","99999,9","07,5,+00300,1,99,9",,,"07,99,1,99,9,99,9,99999,9,99,9,99,9","10000,1,99999,9","61,1",,"0113,1","MET062METAR EGOW 180950Z 13012G22KT 6000 -RA BKN010 06/05 Q1000 GRN;",
"03018099999","2010-11-18T10:50:00","4","53.581575","-3.055522","11.27","WOODVALE, UK","FM-15","EGOW ","V020","140,1,N,0067,1","00270,1,C,N","006000,1,N,1","+0060,1","+0050,1","99999,9","07,5,+00270,1,99,9",,,"07,99,1,99,9,99,9,99999,9,99,9,99,9","10000,1,99999,9","61,1",,,"MET059METAR EGOW 181050Z 14013KT 6000 -RA BKN009 06/05 Q1000 GRN;",
"03018099999","2010-11-18T11:50:00","4","53.581575","-3.055522","11.27","WOODVALE, UK","FM-15","EGOW ","V020","140,1,N,0077,1","00330,1,C,N","008000,1,N,1","+0070,1","+0050,1","99999,9","07,5,+00330,1,99,9","08,5,+00480,1,99,9",,"08,99,1,99,9,99,9,99999,9,99,9,99,9","10000,1,99999,9","05,1",,,"MET065METAR EGOW 181150Z 14015KT 8000 HZ BKN011 OVC016 07/05 Q1000 GRN;",
"03018099999","2010-11-18T12:50:00","4","53.581575","-3.055522","11.27","WOODVALE, UK","FM-15","EGOW ","V020","140,1,N,0072,1","00270,1,C,N","008000,1,N,1","+0070,1","+0060,1","99999,9","07,5,+00270,1,99,9",,,"07,99,1,99,9,99,9,99999,9,99,9,99,9","10000,1,99999,9","05,1",,,"MET058METAR EGOW 181250Z 14014KT 8000 HZ BKN009 07/06 Q1000 GRN;",
"03018099999","2010-11-18T13:50:00","4","53.581575","-3.055522","11.27","WOODVALE, UK","FM-15","EGOW ","V020","150,1,N,0067,1","00270,1,C,N","008000,1,N,1","+0070,1","+0060,1","99999,9","07,5,+00270,1,99,9",,,"07,99,1,99,9,99,9,99999,9,99,9,99,9","10000,1,99999,9","61,1",,,"MET059METAR EGOW 181350Z 15013KT 8000 -RA BKN009 07/06 Q1000 GRN;",
"03018099999","2010-11-18T14:50:00","4","53.581575","-3.055522","11.27","WOODVALE, UK","FM-15","EGOW ","V020","150,1,N,0072,1","00270,1,C,N","007000,1,N,1","+0080,1","+0060,1","99999,9","07,5,+00270,1,99,9",,,"07,99,1,99,9,99,9,99999,9,99,9,99,9","10010,1,99999,9","61,1",,,"MET059METAR EGOW 181450Z 15014KT 7000 -RA BKN009 08/06 Q1001 GRN;",
"03018099999","2010-11-19T07:50:00","4","53.581575","-3.055522","11.27","WOODVALE, UK","FM-15","EGOW ","V020","130,1,N,0031,1","22000,1,9,N","004000,1,N,1","+0040,1","+0040,1","99999,9","04,5,+06000,1,99,9",,,"04,99,1,99,9,99,9,99999,9,99,9,99,9","10091,1,99999,9","41,1",,,"MET066METAR EGOW 190750Z 13006KT 4000 0300W BCFG SCT200 04/04 Q1009 RED;",
"03018099999","2010-11-19T08:50:00","4","53.581575","-3.055522","11.27","WOODVALE, UK","FM-15","EGOW ","V020","140,1,N,0026,1","22000,1,9,N","004000,1,N,1","+0040,1","+0040,1","99999,9","04,5,+06000,1,99,9",,,"04,99,1,99,9,99,9,99999,9,99,9,99,9","10102,1,99999,9","10,1",,,"MET058METAR EGOW 190850Z 14005KT 4000 BR SCT200 04/04 Q1010 GRN;",
"03018099999","2010-11-19T09:50:00","4","53.581575","-3.055522","11.27","WOODVALE, UK","FM-15","EGOW ","V020","150,1,N,0026,1","22000,1,9,N","004000,1,N,1","+0050,1","+0050,1","99999,9","04,5,+06000,1,99,9",,,"04,99,1,99,9,99,9,99999,9,99,9,99,9","10102,1,99999,9","10,1",,,"MET058METAR EGOW 190950Z 15005KT 4000 BR SCT200 05/05 Q1010 GRN;",
"03018099999","2010-11-19T10:50:00","4","53.581575","-3.055522","11.27","WOODVALE, UK","FM-15","EGOW ","V020","130,1,N,0026,1","00030,1,C,N","001700,1,N,1","+0050,1","+0050,1","99999,9","08,5,+00030,1,99,9",,,"08,99,1,99,9,99,9,99999,9,99,9,99,9","10102,1,99999,9","10,1",,,"MET058METAR EGOW 191050Z 13005KT 1700 BR OVC001 05/05 Q1010 RED;",
"03018099999","2010-11-19T11:50:00","4","53.581575","-3.055522","11.27","WOODVALE, UK","FM-15","EGOW ","V020","120,1,N,0031,1","00030,1,C,N","001700,1,N,1","+0050,1","+0050,1","99999,9","07,5,+00030,1,99,9",,,"07,99,1,99,9,99,9,99999,9,99,9,99,9","10102,1,99999,9","10,1",,,"MET058METAR EGOW 191150Z 12006KT 1700 BR BKN001 05/05 Q1010 RED;",
"03018099999","2010-11-19T12:50:00","4","53.581575","-3.055522","11.27","WOODVALE, UK","FM-15","EGOW ","V020","120,1,N,0026,1","00030,1,C,N","001700,1,N,1","+0070,1","+0060,1","99999,9","07,5,+00030,1,99,9",,,"07,99,1,99,9,99,9,99999,9,99,9,99,9","10102,1,99999,9","10,1",,,"MET058METAR EGOW 191250Z 12005KT 1700 BR BKN001 07/06 Q1010 RED;",
"03018099999","2010-11-20T07:50:00","4","53.581575","-3.055522","11.27","WOODVALE, UK","FM-15","EGOW ","V020","130,1,N,0021,1","01200,1,C,N","011265,1,N,1","+0040,1","+0040,1","99999,9","02,5,+00600,1,99,9","07,5,+01200,1,99,9",,"07,99,1,99,9,99,9,99999,9,99,9,99,9","10051,1,99999,9",,,,"MET062METAR EGOW 200750Z 13004KT 9999 FEW020 BKN040 04/04 Q1005 BLU;",
"03018099999","2010-11-20T08:50:00","4","53.581575","-3.055522","11.27","WOODVALE, UK","FM-15","EGOW ","V020","110,1,N,0015,1","01200,1,C,N","011265,1,N,1","+0040,1","+0040,1","99999,9","04,5,+00660,1,99,9","07,5,+01200,1,99,9",,"07,99,1,99,9,99,9,99999,9,99,9,99,9","10149,1,99999,9",,,,"MET062METAR EGOW 200850Z 11003KT 9999 SCT022 BKN040 04/04 Q1015 WHT;",
"03018099999","2010-11-20T09:50:00","4","53.581575","-3.055522","11.27","WOODVALE, UK","FM-15","EGOW ","V020","070,1,N,0021,1","01200,1,C,N","011265,1,N,1","+0050,1","+0040,1","99999,9","04,5,+00660,1,99,9","07,5,+01200,1,99,9",,"07,99,1,99,9,99,9,99999,9,99,9,99,9","10159,2,99999,9",,,,"MET062METAR EGOW 200950Z 07004KT 9999 SCT022 BKN040 05/04 Q1016 WHT;",
"03018099999","2010-11-20T10:50:00","4","53.581575","-3.055522","11.27","WOODVALE, UK","FM-15","EGOW ","V020","090,1,N,0021,1","22000,1,9,N","011265,1,N,1","+0060,1","+0050,1","99999,9","04,5,+01200,1,99,9",,,"04,99,1,99,9,99,9,99999,9,99,9,99,9","10159,2,99999,9",,,,"MET055METAR EGOW 201050Z 09004KT 9999 SCT040 06/05 Q1016 BLU;",
"03018099999","2010-11-20T11:50:00","4","53.581575","-3.055522","11.27","WOODVALE, UK","FM-15","EGOW ","V020","999,9,C,0000,1","99999,9,C,N","011265,1,N,1","+0070,1","+0060,1","99999,9","02,5,+00600,1,99,9","04,5,+01800,1,99,9",,"04,99,1,99,9,99,9,99999,9,99,9,99,9","10159,1,99999,9",,,,"MET062METAR EGOW 201150Z 00000KT 9999 FEW020 SCT060 07/06 Q1016 BLU;","P01 018003SCOCIG"
"03018099999","2010-11-20T12:50:00","4","53.581575","-3.055522","11.27","WOODVALE, UK","FM-15","EGOW ","V020","060,1,N,0021,1","99999,9,C,N","008000,1,N,1","+0100,1","+0040,1","99999,9","02,5,+00300,1,99,9","04,5,+00600,1,99,9",,"04,99,1,99,9,99,9,99999,9,99,9,99,9","10159,1,99999,9","05,1",,,"MET065METAR EGOW 201250Z 06004KT 8000 HZ FEW010 SCT020 10/04 Q1016 BLU;","P01 006003SCOCIG"
"03018099999","2010-11-20T13:50:00","4","53.581575","-3.055522","11.27","WOODVALE, UK","FM-15","EGOW ","V020","090,1,N,0015,1","22000,1,9,N","005000,1,N,1","+0100,1","+0050,1","99999,9","04,5,+00600,1,99,9",,,"04,99,1,99,9,99,9,99999,9,99,9,99,9","10159,1,99999,9","05,1",,,"MET058METAR EGOW 201350Z 09003KT 5000 HZ SCT020 10/05 Q1016 WHT;",
"03018099999","2010-11-21T07:50:00","4","53.581575","-3.055522","11.27","WOODVALE, UK","FM-15","EGOW ","V020","010,1,N,0036,1","99999,9,C,N","011265,1,N,1","+0040,1","+0010,1","99999,9","02,5,+00450,1,99,9","04,5,+00900,1,99,9",,"04,99,1,99,9,99,9,99999,9,99,9,99,9","10159,1,99999,9",,,,"MET062METAR EGOW 210750Z 01007KT 9999 FEW015 SCT030 04/01 Q1016 BLU;","P01 009003SCOCIG"
"03018099999","2010-11-21T08:50:00","4","53.581575","-3.055522","11.27","WOODVALE, UK","FM-15","EGOW ","V020","010,1,N,0031,1","99999,9,9,Y","009900,1,N,1","+0040,1","+0010,1","99999,9",,,,,"10169,1,99999,9",,,,"MET049METAR EGOW 210850Z 01006KT CAVOK 04/01 Q1017 BLU;",
"03018099999","2010-11-21T09:50:00","4","53.581575","-3.055522","11.27","WOODVALE, UK","FM-15","EGOW ","V020","360,1,N,0041,1","99999,9,9,Y","009900,1,N,1","+0050,1","+0020,1","99999,9",,,,,"10169,1,99999,9",,,,"MET049METAR EGOW 210950Z 36008KT CAVOK 05/02 Q1017 BLU;",
"03018099999","2010-11-21T10:50:00","4","53.581575","-3.055522","11.27","WOODVALE, UK","FM-15","EGOW ","V020","030,1,N,0051,1","99999,9,9,Y","009900,1,N,1","+0060,1","+0020,1","99999,9",,,,,"10159,1,99999,9",,,,"MET049METAR EGOW 211050Z 03010KT CAVOK 06/02 Q1016 BLU;",
"03018099999","2010-11-21T11:50:00","4","53.581575","-3.055522","11.27","WOODVALE, UK","FM-15","EGOW ","V020","010,1,N,0051,1","22000,1,9,N","011265,1,N,1","+0060,1","+0020,1","99999,9","04,5,+01200,1,99,9",,,"04,99,1,99,9,99,9,99999,9,99,9,99,9","10159,1,99999,9",,,,"MET055METAR EGOW 211150Z 01010KT 9999 SCT040 06/02 Q1016 BLU;",
"03018099999","2010-11-21T12:50:00","4","53.581575","-3.055522","11.27","WOODVALE, UK","FM-15","EGOW ","V020","010,1,N,0036,1","00750,1,C,N","011265,1,N,1","+0060,1","+0010,1","99999,9","07,5,+00750,1,99,9",,,"07,99,1,99,9,99,9,99999,9,99,9,99,9","10159,1,99999,9",,,,"MET055METAR EGOW 211250Z 01007KT 9999 BKN025 06/01 Q1016 BLU;",
"03018099999","2010-11-21T13:50:00","4","53.581575","-3.055522","11.27","WOODVALE, UK","FM-15","EGOW ","V020","010,1,N,0062,1","22000,1,9,N","011265,1,N,1","+0060,1","+0030,1","99999,9","04,5,+00750,1,99,9",,,"04,99,1,99,9,99,9,99999,9,99,9,99,9","10149,1,99999,9",,,,"MET055METAR EGOW 211350Z 01012KT 9999 SCT025 06/03 Q1015 BLU;",
"03018099999","2010-11-24T08:50:00","4","53.581575","-3.055522","11.27","WOODVALE, UK","FM-15","EGOW ","V020","030,1,N,0015,1","22000,1,9,N","011265,1,N,1","+0010,1","-0010,1","99999,9","02,5,+00750,1,99,9",,,"02,99,1,99,9,99,9,99999,9,99,9,99,9","10119,1,99999,9",,,,"MET056METAR EGOW 240850Z 03003KT 9999 FEW025 01/M01 Q1012 BLU;",
"03018099999","2010-11-24T09:50:00","4","53.581575","-3.055522","11.27","WOODVALE, UK","FM-15","EGOW ","V020","360,1,N,0031,1","22000,1,9,N","011265,1,N,1","+0030,1","-0010,1","99999,9","02,5,+00750,1,99,9",,,"02,99,1,99,9,99,9,99999,9,99,9,99,9","10119,1,99999,9",,,,"MET056METAR EGOW 240950Z 36006KT 9999 FEW025 03/M01 Q1012 BLU;",
"03018099999","2010-11-24T10:50:00","4","53.581575","-3.055522","11.27","WOODVALE, UK","FM-15","EGOW ","V020","050,1,N,0026,1","22000,1,9,N","011265,1,N,1","+0060,1","+0000,1","99999,9","04,5,+00750,1,99,9",,,"04,99,1,99,9,99,9,99999,9,99,9,99,9","10119,1,99999,9",,,,"MET055METAR EGOW 241050Z 05005KT 9999 SCT025 06/00 Q1012 BLU;",
"03018099999","2010-11-24T11:50:00","4","53.581575","-3.055522","11.27","WOODVALE, UK","FM-15","EGOW ","V020","020,1,N,0036,1","22000,1,9,N","011265,1,N,1","+0050,1","+0000,1","99999,9","02,5,+00750,1,99,9",,,"02,99,1,99,9,99,9,99999,9,99,9,99,9","10119,1,99999,9",,,,"MET055METAR EGOW 241150Z 02007KT 9999 FEW025 05/00 Q1012 BLU;",
"03018099999","2010-11-24T12:50:00","4","53.581575","-3.055522","11.27","WOODVALE, UK","FM-15","EGOW ","V020","360,1,N,0046,1","22000,1,9,N","011265,1,N,1","+0050,1","-0010,1","99999,9","02,5,+00750,1,99,9",,,"02,99,1,99,9,99,9,99999,9,99,9,99,9","10119,1,99999,9",,,,"MET056METAR EGOW 241250Z 36009KT 9999 FEW025 05/M01 Q1012 BLU;",
"03018099999","2010-11-24T13:50:00","4","53.581575","-3.055522","11.27","WOODVALE, UK","FM-15","EGOW ","V020","010,1,N,0041,1","22000,1,9,N","011265,1,N,1","+0050,1","-0010,1","99999,9","02,5,+00750,1,99,9",,,"02,99,1,99,9,99,9,99999,9,99,9,99,9","10108,1,99999,9",,,,"MET056METAR EGOW 241350Z 01008KT 9999 FEW025 05/M01 Q1011 BLU;",
"03018099999","2010-11-24T14:50:00","4","53.581575","-3.055522","11.27","WOODVALE, UK","FM-15","EGOW ","V020","020,1,N,0041,1","22000,1,9,N","011265,1,N,1","+0050,1","+0000,1","99999,9","04,5,+00750,1,99,9",,,"04,99,1,99,9,99,9,99999,9,99,9,99,9","10108,1,99999,9",,,,"MET056METAR EGOW 241450Z 02008KT 9999 SCT025 05/M00 Q1011 BLU;",
"03018099999","2010-11-25T07:50:00","4","53.581575","-3.055522","11.27","WOODVALE, UK","FM-15","EGOW ","V020","010,1,N,0062,1","22000,1,9,N","011265,1,N,1","+0020,1","-0040,1","99999,9","04,5,+00750,1,99,9",,,"04,99,1,99,9,99,9,99999,9,99,9,99,9","10108,1,99999,9",,,,"MET056METAR EGOW 250750Z 01012KT 9999 SCT025 02/M04 Q1011 BLU;",
"03018099999","2010-11-25T08:50:00","4","53.581575","-3.055522","11.27","WOODVALE, UK","FM-15","EGOW ","V020","360,1,N,0072,1","22000,1,9,N","011265,1,N,1","+0020,1","-0040,1","99999,9","02,5,+00750,1,99,9",,,"02,99,1,99,9,99,9,99999,9,99,9,99,9","10119,1,99999,9",,,,"MET056METAR EGOW 250850Z 36014KT 9999 FEW025 02/M04 Q1012 BLU;",
"03018099999","2010-11-25T09:50:00","4","53.581575","-3.055522","11.27","WOODVALE, UK","FM-15","EGOW ","V020","360,1,N,0072,1","22000,1,9,N","011265,1,N,1","+0030,1","-0030,1","99999,9","02,5,+00750,1,99,9",,,"02,99,1,99,9,99,9,99999,9,99,9,99,9","10119,1,99999,9",,,,"MET056METAR EGOW 250950Z 36014KT 9999 FEW025 03/M03 Q1012 BLU;",
"03018099999","2010-11-25T10:50:00","4","53.581575","-3.055522","11.27","WOODVALE, UK","FM-15","EGOW ","V020","010,1,N,0087,1","22000,1,9,N","011265,1,N,1","+0030,1","-0040,1","99999,9","02,5,+00750,1,99,9",,,"02,99,1,99,9,99,9,99999,9,99,9,99,9","10119,1,99999,9",,,,"MET056METAR EGOW 251050Z 01017KT 9999 FEW025 03/M04 Q1012 BLU;",
"03018099999","2010-11-25T11:50:00","4","53.581575","-3.055522","11.27","WOODVALE, UK","FM-15","EGOW ","V020","010,1,N,0093,1","22000,1,9,N","011265,1,N,1","+0030,1","-0040,1","99999,9","04,5,+00750,1,99,9",,,"04,99,1,99,9,99,9,99999,9,99,9,99,9","10119,1,99999,9",,,,"MET056METAR EGOW 251150Z 01018KT 9999 SCT025 03/M04 Q1012 BLU;",
"03018099999","2010-11-25T12:50:00","4","53.581575","-3.055522","11.27","WOODVALE, UK","FM-15","EGOW ","V020","020,1,N,0077,1","99999,9,C,N","011265,1,N,1","+0040,1","-0040,1","99999,9","02,5,+00600,1,99,9","04,5,+00750,1,99,9",,"04,99,1,99,9,99,9,99999,9,99,9,99,9","10119,1,99999,9",,,,"MET063METAR EGOW 251250Z 02015KT 9999 FEW020 SCT025 04/M04 Q1012 BLU;","P01 007503SCOCIG"
"03018099999","2010-11-25T13:50:00","4","53.581575","-3.055522","11.27","WOODVALE, UK","FM-15","EGOW ","V020","020,1,N,0051,1","99999,9,C,N","011265,1,N,1","+0030,1","-0030,1","99999,9","02,5,+00600,1,99,9","04,5,+00750,1,99,9",,"04,99,1,99,9,99,9,99999,9,99,9,99,9","10119,1,99999,9",,,,"MET063METAR EGOW 251350Z 02010KT 9999 FEW020 SCT025 03/M03 Q1012 BLU;","P01 007503SCOCIG"
"03018099999","2010-11-25T14:50:00","4","53.581575","-3.055522","11.27","WOODVALE, UK","FM-15","EGOW ","V020","010,1,N,0093,1","22000,1,9,N","011265,1,N,1","+0030,1","-0030,1","99999,9","02,5,+00750,1,99,9",,,"02,99,1,99,9,99,9,99999,9,99,9,99,9","10119,1,99999,9",,,,"MET056METAR EGOW 251450Z 01018KT 9999 FEW025 03/M03 Q1012 BLU;",
"03018099999","2010-11-26T07:50:00","4","53.581575","-3.055522","11.27","WOODVALE, UK","FM-15","EGOW ","V020","999,9,C,0000,1","99999,9,C,N","011265,1,N,1","-0020,1","-0040,1","99999,9","02,5,+00600,1,99,9","04,5,+02400,1,99,9",,"04,99,1,99,9,99,9,99999,9,99,9,99,9","10091,1,99999,9",,,,"MET064METAR EGOW 260750Z 00000KT 9999 FEW020 SCT080 M02/M04 Q1009 BLU;","P01 024003SCOCIG"
"03018099999","2010-11-26T08:50:00","4","53.581575","-3.055522","11.27","WOODVALE, UK","FM-15","EGOW ","V020","040,1,N,0015,1","99999,9,C,N","011265,1,N,1","+0000,1","-0040,1","99999,9","02,5,+00360,1,99,9","02,5,+00450,1,09,5","04,5,+00450,1,99,9","04,99,1,99,9,99,9,99999,9,99,9,99,9","10081,1,99999,9",,,,"MET072METAR EGOW 260850Z 04003KT 9999 FEW012 FEW015CB SCT015 00/M04 Q1008 BLU;","P01 004503SCOCIG"
"03018099999","2010-11-26T09:50:00","4","53.581575","-3.055522","11.27","WOODVALE, UK","FM-15","EGOW ","V020","999,9,C,0000,1","99999,9,C,N","011265,1,N,1","+0000,1","-0020,1","99999,9","02,5,+00210,1,99,9","04,5,+01800,1,99,9",,"04,99,1,99,9,99,9,99999,9,99,9,99,9","10081,1,99999,9",,,,"MET063METAR EGOW 260950Z 00000KT 9999 FEW007 SCT060 00/M02 Q1008 BLU;","P01 018003SCOCIG"
"03018099999","2010-11-26T10:50:00","4","53.581575","-3.055522","11.27","WOODVALE, UK","FM-15","EGOW ","V020","090,1,N,0015,1","22000,1,9,N","011265,1,N,1","+0020,1","-0010,1","99999,9","02,5,+00240,1,09,1",,,"02,99,1,99,9,99,9,99999,9,99,9,99,9","10081,1,99999,9",,,,"MET058METAR EGOW 261050Z 09003KT 9999 FEW008CB 02/M01 Q1008 BLU;",
"03018099999","2010-11-26T11:50:00","4","53.581575","-3.055522","11.27","WOODVALE, UK","FM-15","EGOW ","V020","050,1,N,0021,1","22000,1,9,N","011265,1,N,1","+0070,1","+0000,1","99999,9","02,5,+00270,1,99,9",,,"02,99,1,99,9,99,9,99999,9,99,9,99,9","10081,1,99999,9",,,,"MET055METAR EGOW 261150Z 05004KT 9999 FEW009 07/00 Q1008 BLU;",
"03018099999","2010-11-26T12:50:00","4","53.581575","-3.055522","11.27","WOODVALE, UK","FM-15","EGOW ","V020","350,1,N,0031,1","99999,9,C,N","011265,1,N,1","+0040,1","-0050,1","99999,9","02,5,+00270,1,09,1","04,5,+03000,1,99,9",,"04,99,1,99,9,99,9,99999,9,99,9,99,9","10071,1,99999,9",,,,"MET065METAR EGOW 261250Z 35006KT 9999 FEW009CB SCT100 04/M05 Q1007 BLU;","P01 030003SCOCIG"
"03018099999","2010-11-26T13:50:00","4","53.581575","-3.055522","11.27","WOODVALE, UK","FM-15","EGOW ","V020","010,1,N,0036,1","22000,1,9,N","011265,1,N,1","+0030,1","-0030,1","99999,9","02,5,+00600,1,09,1",,,"02,99,1,99,9,99,9,99999,9,99,9,99,9","10071,1,99999,9",,,,"MET058METAR EGOW 261350Z 01007KT 9999 FEW020CB 03/M03 Q1007 BLU;",
"03018099999","2010-11-26T14:50:00","4","53.581575","-3.055522","11.27","WOODVALE, UK","FM-15","EGOW ","V020","020,1,N,0041,1","22000,1,9,N","011265,1,N,1","+0030,1","-0030,1","99999,9","02,5,+00600,1,09,1",,,"02,99,1,99,9,99,9,99999,9,99,9,99,9","10061,1,99999,9",,,,"MET058METAR EGOW 261450Z 02008KT 9999 FEW020CB 03/M03 Q1006 BLU;",
"03018099999","2010-11-27T07:50:00","4","53.581575","-3.055522","11.27","WOODVALE, UK","FM-15","EGOW ","V020","030,1,N,0072,1","22000,1,9,N","011265,1,N,1","+0000,1","-0030,1","99999,9","02,5,+01200,1,99,9",,,"02,99,1,99,9,99,9,99999,9,99,9,99,9","10071,1,99999,9",,,,"MET056METAR EGOW 270750Z 03014KT 9999 FEW040 00/M03 Q1007 BLU;",
"03018099999","2010-11-27T09:50:00","4","53.581575","-3.055522","11.27","WOODVALE, UK","FM-15","EGOW ","V020","010,1,N,0046,1","22000,1,9,N","011265,1,N,1","+0010,1","-0050,1","99999,9","02,5,+01050,1,99,9",,,"02,99,1,99,9,99,9,99999,9,99,9,99,9","10091,1,99999,9",,,,"MET056METAR EGOW 270950Z 01009KT 9999 FEW035 01/M05 Q1009 BLU;",
"03018099999","2010-11-27T10:50:00","4","53.581575","-3.055522","11.27","WOODVALE, UK","FM-15","EGOW ","V020","020,1,N,0057,1","22000,1,9,N","011265,1,N,1","+0020,1","-0050,1","99999,9","02,5,+01200,1,99,9",,,"02,99,1,99,9,99,9,99999,9,99,9,99,9","10091,1,99999,9",,,,"MET056METAR EGOW 271050Z 02011KT 9999 FEW040 02/M05 Q1009 BLU;",
"03018099999","2010-11-27T11:50:00","4","53.581575","-3.055522","11.27","WOODVALE, UK","FM-15","EGOW ","V020","010,1,N,0067,1","99999,9,9,Y","009900,1,N,1","+0000,1","-0050,1","99999,9",,,,,"10091,1,99999,9",,,,"MET050METAR EGOW 271150Z 01013KT CAVOK 00/M05 Q1009 BLU;",
"03018099999","2010-11-27T13:50:00","4","53.581575","-3.055522","11.27","WOODVALE, UK","FM-15","EGOW ","V020","020,1,N,0062,1","22000,1,9,N","011265,1,N,1","+0010,1","-0030,1","99999,9","02,5,+01140,1,99,9",,,"02,99,1,99,9,99,9,99999,9,99,9,99,9","10081,1,99999,9",,,,"MET056METAR EGOW 271350Z 02012KT 9999 FEW038 01/M03 Q1008 BLU;",
"03018099999","2010-11-27T14:50:00","4","53.581575","-3.055522","11.27","WOODVALE, UK","FM-15","EGOW ","V020","020,1,N,0046,1","22000,1,9,N","011265,1,N,1","+0010,1","+0000,1","99999,9","02,5,+01140,1,99,9",,,"02,99,1,99,9,99,9,99999,9,99,9,99,9","10081,1,99999,9",,,,"MET055METAR EGOW 271450Z 02009KT 9999 FEW038 01/00 Q1008 BLU;",
"03018099999","2010-11-28T07:50:00","4","53.581575","-3.055522","11.27","WOODVALE, UK","FM-15","EGOW ","V020","999,9,C,0000,1","22000,1,9,N","011265,1,N,1","-0060,1","+9999,9","99999,9","04,5,+00900,1,99,9",,,"04,99,1,99,9,99,9,99999,9,99,9,99,9","10051,1,99999,9",,,,"MET056METAR EGOW 280750Z 00000KT 9999 SCT030 M06/// Q1005 BLU;",
"03018099999","2010-11-28T08:50:00","4","53.581575","-3.055522","11.27","WOODVALE, UK","FM-15","EGOW ","V020","140,1,N,0031,1","99999,9,C,N","011265,1,N,1","-0050,1","-0110,1","99999,9","02,5,+00600,1,99,9","04,5,+01200,1,99,9",,"04,99,1,99,9,99,9,99999,9,99,9,99,9","10061,1,99999,9",,,,"MET064METAR EGOW 280850Z 14006KT 9999 FEW020 SCT040 M05/M11 Q1006 BLU;","P01 012003SCOCIG"
"03018099999","2010-11-28T09:50:00","4","53.581575","-3.055522","11.27","WOODVALE, UK","FM-15","EGOW ","V020","150,1,N,0051,1","99999,9,C,N","011265,1,N,1","-0020,1","+9999,9","99999,9","02,5,+00600,1,99,9","04,5,+01200,1,99,9",,"04,99,1,99,9,99,9,99999,9,99,9,99,9","10061,1,99999,9",,,,"MET063METAR EGOW 280950Z 15010KT 9999 FEW020 SCT040 M02/// Q1006 BLU;","P01 012003SCOCIG"
"03018099999","2010-11-28T10:50:00","4","53.581575","-3.055522","11.27","WOODVALE, UK","FM-15","EGOW ","V020","120,1,N,0031,1","22000,1,9,N","011265,1,N,1","-0020,1","+9999,9","99999,9","02,5,+01200,1,99,9",,,"02,99,1,99,9,99,9,99999,9,99,9,99,9","10061,1,99999,9",,,,"MET056METAR EGOW 281050Z 12006KT 9999 FEW040 M02/// Q1006 BLU;",
"03018099999","2010-11-28T11:50:00","4","53.581575","-3.055522","11.27","WOODVALE, UK","FM-15","EGOW ","V020","120,1,N,0031,1","99999,9,9,Y","009900,1,N,1","+0000,1","+9999,9","99999,9",,,,,"10061,1,99999,9",,,,"MET050METAR EGOW 281150Z 12006KT CAVOK M00/// Q1006 BLU;",
"03018099999","2010-11-28T12:50:00","4","53.581575","-3.055522","11.27","WOODVALE, UK","FM-15","EGOW ","V020","120,1,N,0036,1","99999,9,9,Y","009900,1,N,1","+0010,1","+9999,9","99999,9",,,,,"10071,1,99999,9",,,,"MET049METAR EGOW 281250Z 12007KT CAVOK 01/// Q1007 BLU;",
"03018099999","2010-11-28T13:50:00","4","53.581575","-3.055522","11.27","WOODVALE, UK","FM-15","EGOW ","V020","130,1,N,0026,1","99999,9,9,Y","009900,1,N,1","+0010,1","+9999,9","99999,9",,,,,"10071,1,99999,9",,,,"MET049METAR EGOW 281350Z 13005KT CAVOK 01/// Q1007 BLU;",
"03018099999","2010-11-28T14:50:00","4","53.581575","-3.055522","11.27","WOODVALE, UK","FM-15","EGOW ","V020","120,1,N,0015,1","99999,9,9,Y","009900,1,N,1","+0020,1","+9999,9","99999,9",,,,,"10071,1,99999,9",,,,"MET049METAR EGOW 281450Z 12003KT CAVOK 02/// Q1007 BLU;",
"03018099999","2010-12-01T07:50:00","4","53.581575","-3.055522","11.27","WOODVALE, UK","FM-15","EGOW ","V020","030,1,N,0062,1","22000,1,9,N","011265,1,N,1","-0020,1","-0020,1","99999,9","04,5,+01200,1,99,9",,,"04,99,1,99,9,99,9,99999,9,99,9,99,9","10149,1,99999,9",,,,"MET057METAR EGOW 010750Z 03012KT 9999 SCT040 M02/M02 Q1015 BLU;",
"03018099999","2010-12-01T08:50:00","4","53.581575","-3.055522","11.27","WOODVALE, UK","FM-15","EGOW ","V020","050,1,N,0041,1","99999,9,C,N","011265,1,N,1","-0020,1","+9999,9","99999,9","02,5,+00540,1,99,9","04,5,+01500,1,99,9",,"04,99,1,99,9,99,9,99999,9,99,9,99,9","10149,1,99999,9",,,,"MET063METAR EGOW 010850Z 05008KT 9999 FEW018 SCT050 M02/// Q1015 BLU;","P01 015003SCOCIG"
"03018099999","2010-12-01T09:50:00","4","53.581575","-3.055522","11.27","WOODVALE, UK","FM-15","EGOW ","V020","030,1,N,0051,1","99999,9,C,N","011265,1,N,1","-0020,1","+9999,9","99999,9","02,5,+00540,1,99,9","04,5,+01500,1,99,9",,"04,99,1,99,9,99,9,99999,9,99,9,99,9","10149,1,99999,9",,,,"MET063METAR EGOW 010950Z 03010KT 9999 FEW018 SCT050 M02/// Q1015 BLU;","P01 015003SCOCIG"
"03018099999","2010-12-01T10:50:00","4","53.581575","-3.055522","11.27","WOODVALE, UK","FM-15","EGOW ","V020","030,1,N,0041,1","99999,9,C,N","011265,1,N,1","-0010,1","+9999,9","99999,9","02,5,+00540,1,99,9","04,5,+01500,1,99,9",,"04,99,1,99,9,99,9,99999,9,99,9,99,9","10149,1,99999,9",,,,"MET063METAR EGOW 011050Z 03008KT 9999 FEW018 SCT050 M01/// Q1015 BLU;","P01 015003SCOCIG"
"03018099999","2010-12-01T11:50:00","4","53.581575","-3.055522","11.27","WOODVALE, UK","FM-15","EGOW ","V020","030,1,N,0036,1","99999,9,C,N","011265,1,N,1","+0000,1","+9999,9","99999,9","02,5,+00540,1,99,9","04,5,+01200,1,99,9",,"04,99,1,99,9,99,9,99999,9,99,9,99,9","10149,1,99999,9",,,,"MET063METAR EGOW 011150Z 03007KT 9999 FEW018 SCT040 M00/// Q1015 BLU;","P01 012003SCOCIG"
"03018099999","2010-12-01T12:50:00","4","53.581575","-3.055522","11.27","WOODVALE, UK","FM-15","EGOW ","V020","050,1,N,0062,1","99999,9,C,N","011265,1,N,1","+0010,1","+9999,9","99999,9","02,5,+00270,1,99,9","04,5,+00900,1,99,9",,"04,99,1,99,9,99,9,99999,9,99,9,99,9","10149,1,99999,9","85,5",,,"MET075METAR EGOW 011250Z 05012KT 9999 -SHSN FEW009 SCT030 01/// Q1015 RESHSN BLU;","P01 009003SCOCIG"
"03018099999","2010-12-01T13:50:00","4","53.581575","-3.055522","11.27","WOODVALE, UK","FM-15","EGOW ","V020","030,1,N,0051,1","99999,9,C,N","011265,1,N,1","+9999,9","+9999,9","99999,9","02,5,+00600,1,99,9","04,5,+03000,1,99,9",,"04,99,1,99,9,99,9,99999,9,99,9,99,9","10140,1,99999,9",,,,"MET064METAR EGOW 011350Z 03010KT 9999 FEW020 SCT100 MS00/// Q1014 BLU;","P01 030003SCOCIG"
"03018099999","2010-12-01T14:50:00","4","53.581575","-3.055522","11.27","WOODVALE, UK","FM-15","EGOW ","V020","030,1,N,0062,1","99999,9,C,N","011265,1,N,1","+0000,1","+9999,9","99999,9","02,5,+00900,1,99,9","04,5,+01500,1,99,9",,"04,99,1,99,9,99,9,99999,9,99,9,99,9","10140,1,99999,9",,,,"MET064METAR EGOW 011450Z 03012KT 9999 FEW030 SCT050 00/MS01 Q1014 BLU;","P01 015003SCOCIG"
"03018099999","2010-12-01T15:50:00","4","53.581575","-3.055522","11.27","WOODVALE, UK","FM-15","EGOW ","V020","020,1,N,0051,1","99999,9,C,N","011265,1,N,1","+0000,1","+9999,9","99999,9","02,5,+00840,1,99,9","04,5,+01200,1,99,9",,"04,99,1,99,9,99,9,99999,9,99,9,99,9","10140,1,99999,9",,,,"MET064METAR EGOW 011550Z 02010KT 9999 FEW028 SCT040 00/MS01 Q1014 BLU;","P01 012003SCOCIG"
"03018099999","2010-12-02T07:50:00","4","53.581575","-3.055522","11.27","WOODVALE, UK","FM-15","EGOW ","V020","010,1,N,0062,1","99999,9,9,Y","009900,1,N,1","+9999,9","+9999,9","99999,9",,,,,"10130,1,99999,9",,,,"MET051METAR EGOW 020750Z 01012KT CAVOK MS01/// Q1013 BLU;",
"03018099999","2010-12-02T08:50:00","4","53.581575","-3.055522","11.27","WOODVALE, UK","FM-15","EGOW ","V020","010,1,N,0062,1","99999,9,9,Y","009900,1,N,1","+9999,9","+9999,9","99999,9",,,,,"10140,1,99999,9",,,,"MET051METAR EGOW 020850Z 01012KT CAVOK MS01/// Q1014 BLU;",
"03018099999","2010-12-02T09:50:00","4","53.581575","-3.055522","11.27","WOODVALE, UK","FM-15","EGOW ","V020","020,1,N,0062,1","99999,9,9,Y","009900,1,N,1","+9999,9","+9999,9","99999,9",,,,,"10140,1,99999,9",,,,"MET053METAR EGOW 020950Z 02012KT CAVOK MS00/MS04 Q1014 BLU;",
"03018099999","2010-12-02T10:50:00","4","53.581575","-3.055522","11.27","WOODVALE, UK","FM-15","EGOW ","V020","020,1,N,0057,1","99999,9,9,Y","009900,1,N,1","+0000,1","+9999,9","99999,9",,,,,"10139,1,99999,9",,,,"MET049METAR EGOW 021050Z 02011KT CAVOK 00/// Q1014 BLU;",
"03018099999","2010-12-02T11:50:00","4","53.581575","-3.055522","11.27","WOODVALE, UK","FM-15","EGOW ","V020","020,1,N,0057,1","99999,9,9,Y","009900,1,N,1","+0010,1","-0030,1","99999,9",,,,,"10139,1,99999,9",,,,"MET050METAR EGOW 021150Z 02011KT CAVOK 01/M03 Q1014 BLU;",
"03018099999","2010-12-02T12:50:00","4","53.581575","-3.055522","11.27","WOODVALE, UK","FM-15","EGOW ","V020","030,1,N,0051,1","99999,9,9,Y","009900,1,N,1","+0020,1","-0040,1","99999,9",,,,,"10129,1,99999,9",,,,"MET050METAR EGOW 021250Z 03010KT CAVOK 02/M04 Q1013 BLU;",
"03018099999","2010-12-02T13:50:00","4","53.581575","-3.055522","11.27","WOODVALE, UK","FM-15","EGOW ","V020","030,1,N,0067,1","22000,1,9,N","011265,1,N,1","+0020,1","-0040,1","99999,9","02,5,+00900,1,99,9",,,"02,99,1,99,9,99,9,99999,9,99,9,99,9","10129,1,99999,9",,,,"MET056METAR EGOW 021350Z 03013KT 9999 FEW030 02/M04 Q1013 BLU;",
"03018099999","2010-12-02T14:50:00","4","53.581575","-3.055522","11.27","WOODVALE, UK","FM-15","EGOW ","V020","020,1,N,0041,1","99999,9,9,Y","009900,1,N,1","+0020,1","-0030,1","99999,9",,,,,"10139,1,99999,9",,,,"MET050METAR EGOW 021450Z 02008KT CAVOK 02/M03 Q1014 BLU;",
"03018099999","2010-12-03T07:50:00","4","53.581575","-3.055522","11.27","WOODVALE, UK","FM-15","EGOW ","V020","150,1,N,0026,1","99999,9,9,Y","009900,1,N,1","+9999,9","+9999,9","99999,9",,,,,"10110,1,99999,9",,,,"MET051METAR EGOW 030750Z 15005KT CAVOK MS07/// Q1011 BLU;",
"03018099999","2010-12-03T08:50:00","4","53.581575","-3.055522","11.27","WOODVALE, UK","FM-15","EGOW ","V020","160,1,N,0031,1","00900,1,C,N","011265,1,N,1","+9999,9","+9999,9","99999,9","07,5,+00900,1,99,9",,,"07,99,1,99,9,99,9,99999,9,99,9,99,9","10110,1,99999,9",,,,"MET057METAR EGOW 030850Z 16006KT 9999 BKN030 MS05/// Q1011 BLU;",
"03018099999","2010-12-03T09:50:00","4","53.581575","-3.055522","11.27","WOODVALE, UK","FM-15","EGOW ","V020","170,1,N,0031,1","99999,9,C,N","011265,1,N,1","+9999,9","+9999,9","99999,9","02,5,+00900,1,99,9","04,5,+02400,1,99,9",,"04,99,1,99,9,99,9,99999,9,99,9,99,9","10100,1,99999,9",,,,"MET064METAR EGOW 030950Z 17006KT 9999 FEW030 SCT080 MS04/// Q1010 BLU;","P01 024003SCOCIG"
"03018099999","2010-12-03T10:50:00","4","53.581575","-3.055522","11.27","WOODVALE, UK","FM-15","EGOW ","V020","150,1,N,0041,1","99999,9,C,N","008000,1,N,1","+9999,9","+9999,9","99999,9","02,5,+00900,1,99,9","04,5,+02400,1,99,9",,"04,99,1,99,9,99,9,99999,9,99,9,99,9","10100,1,99999,9","05,1",,,"MET067METAR EGOW 031050Z 15008KT 8000 HZ FEW030 SCT080 MS04/// Q1010 BLU;","P01 024003SCOCIG"
"03018099999","2010-12-03T11:50:00","4","53.581575","-3.055522","11.27","WOODVALE, UK","FM-15","EGOW ","V020","160,1,N,0051,1","99999,9,C,N","007000,1,N,1","+9999,9","+9999,9","99999,9","02,5,+00900,1,99,9","04,5,+02400,1,99,9",,"04,99,1,99,9,99,9,99999,9,99,9,99,9","10090,1,99999,9","05,1",,,"MET067METAR EGOW 031150Z 16010KT 7000 HZ FEW030 SCT080 MS04/// Q1009 WHT;","P01 024003SCOCIG"
"03018099999","2010-12-03T12:50:00","4","53.581575","-3.055522","11.27","WOODVALE, UK","FM-15","EGOW ","V020","150,1,N,0046,1","99999,9,C,N","011265,1,N,1","+9999,9","+9999,9","99999,9","02,5,+00750,1,99,9","04,5,+02400,1,99,9",,"04,99,1,99,9,99,9,99999,9,99,9,99,9","10080,1,99999,9",,,,"MET064METAR EGOW 031250Z 15009KT 9999 FEW025 SCT080 MS02/// Q1008 BLU;","P01 024003SCOCIG"
"03018099999","2010-12-03T13:50:00","4","53.581575","-3.055522","11.27","WOODVALE, UK","FM-15","EGOW ","V020","150,1,N,0041,1","99999,9,9,Y","009900,1,N,1","+9999,9","+9999,9","99999,9",,,,,"10070,1,99999,9",,,,"MET051METAR EGOW 031350Z 15008KT CAVOK MS02/// Q1007 BLU;",
"03018099999","2010-12-03T14:50:00","4","53.581575","-3.055522","11.27","WOODVALE, UK","FM-15","EGOW ","V020","150,1,N,0041,1","99999,9,9,Y","009900,1,N,1","+9999,9","+9999,9","99999,9",,,,,"10060,1,99999,9",,,,"MET051METAR EGOW 031450Z 15008KT CAVOK MS01/// Q1006 BLU;",
"03018099999","2010-12-04T07:50:00","4","53.581575","-3.055522","11.27","WOODVALE, UK","FM-15","EGOW ","V020","120,1,N,0031,1","00570,1,C,N","011265,1,N,1","+0030,1","+0020,1","99999,9","02,5,+00450,1,99,9","07,5,+00570,1,99,9",,"07,99,1,99,9,99,9,99999,9,99,9,99,9","10010,1,99999,9","63,1",,,"MET065METAR EGOW 040750Z 12006KT 9999 RA FEW015 BKN019 03/02 Q1001 WHT;",
"03018099999","2010-12-04T08:50:00","4","53.581575","-3.055522","11.27","WOODVALE, UK","FM-15","EGOW ","V020","160,1,N,0026,1","00600,1,C,N","011265,1,N,1","+0030,1","-0020,1","99999,9","02,5,+00450,1,99,9","04,5,+00600,1,99,9","08,5,+04500,1,99,9","08,99,1,99,9,99,9,99999,9,99,9,99,9","10020,1,99999,9","63,1",,,"MET073METAR EGOW 040850Z 16005KT 9999 RA FEW015 SCT020 OVC150 03/M02 Q1002 WHT;",
"03018099999","2010-12-04T09:50:00","4","53.581575","-3.055522","11.27","WOODVALE, UK","FM-15","EGOW ","V020","160,1,N,0026,1","00600,1,C,N","011265,1,N,1","+0020,1","+0000,1","99999,9","02,5,+00450,1,99,9","04,5,+00600,1,99,9","08,5,+04500,1,99,9","08,99,1,99,9,99,9,99999,9,99,9,99,9","10020,1,99999,9","61,1",,,"MET073METAR EGOW 040950Z 16005KT 9999 -RA FEW015 SCT020 OVC150 02/00 Q1002 WHT;",
"03018099999","2010-12-04T10:50:00","4","53.581575","-3.055522","11.27","WOODVALE, UK","FM-15","EGOW ","V020","150,1,N,0026,1","00690,1,C,N","006000,1,N,1","+0020,1","+0010,1","99999,9","02,5,+00540,1,99,9","08,5,+00690,1,99,9",,"08,99,1,99,9,99,9,99999,9,99,9,99,9","10020,1,99999,9","63,1",,,"MET065METAR EGOW 041050Z 15005KT 6000 RA FEW018 OVC023 02/01 Q1002 WHT;",
"03018099999","2010-12-04T11:50:00","4","53.581575","-3.055522","11.27","WOODVALE, UK","FM-15","EGOW ","V020","999,9,C,0000,1","00690,1,C,N","005000,1,N,1","+0020,1","+0020,1","99999,9","02,5,+00450,1,99,9","08,5,+00690,1,99,9",,"08,99,1,99,9,99,9,99999,9,99,9,99,9","10020,1,99999,9","63,1",,,"MET065METAR EGOW 041150Z 00000KT 5000 RA FEW015 OVC023 02/02 Q1002 WHT;",
"03018099999","2010-12-05T07:50:00","4","53.581575","-3.055522","11.27","WOODVALE, UK","FM-15","EGOW ","V020","999,9,C,0000,1","99999,9,C,N","011265,1,N,1","-0020,1","-0020,1","99999,9","02,5,+00600,1,99,9","04,5,+01350,1,99,9",,"04,99,1,99,9,99,9,99999,9,99,9,99,9","10041,1,99999,9",,,,"MET064METAR EGOW 050750Z 00000KT 9999 FEW020 SCT045 M02/M02 Q1004 BLU;","P01 013503SCOCIG"
"03018099999","2010-12-05T08:50:00","4","53.581575","-3.055522","11.27","WOODVALE, UK","FM-15","EGOW ","V020","999,9,C,0000,1","00900,1,C,N","011265,1,N,1","-0010,1","-0020,1","99999,9","02,5,+00150,1,99,9","04,5,+00900,1,99,9","07,5,+01350,1,99,9","07,99,1,99,9,99,9,99999,9,99,9,99,9","10041,1,99999,9",,,,"MET071METAR EGOW 050850Z 00000KT 9999 FEW005 SCT030 BKN045 M01/M02 Q1004 BLU;",
"03018099999","2010-12-05T09:50:00","4","53.581575","-3.055522","11.27","WOODVALE, UK","FM-15","EGOW ","V020","999,9,C,0000,1","01350,1,C,N","006000,1,N,1","+0000,1","-0010,1","99999,9","02,5,+00900,1,99,9","07,5,+01350,1,99,9",,"07,99,1,99,9,99,9,99999,9,99,9,99,9","10051,1,99999,9","10,1",,,"MET066METAR EGOW 050950Z 00000KT 6000 BR FEW030 BKN045 00/M01 Q1005 WHT;",
"03018099999","2010-12-05T10:50:00","4","53.581575","-3.055522","11.27","WOODVALE, UK","FM-15","EGOW ","V020","999,9,C,0000,1","22000,1,9,N","006000,1,N,1","+0000,1","+0000,1","99999,9","02,5,+00900,1,99,9",,,"02,99,1,99,9,99,9,99999,9,99,9,99,9","10051,1,99999,9","10,1",,,"MET059METAR EGOW 051050Z 00000KT 6000 BR FEW030 00/M00 Q1005 WHT;",
"03018099999","2010-12-05T11:50:00","4","53.581575","-3.055522","11.27","WOODVALE, UK","FM-15","EGOW ","V020","050,1,N,0015,1","22000,1,9,N","006000,1,N,1","+0030,1","+0000,1","99999,9","02,5,+00900,1,99,9",,,"02,99,1,99,9,99,9,99999,9,99,9,99,9","10051,1,99999,9","10,1",,,"MET058METAR EGOW 051150Z 05003KT 6000 BR FEW030 03/00 Q1005 WHT;",
"03018099999","2010-12-05T12:50:00","4","53.581575","-3.055522","11.27","WOODVALE, UK","FM-15","EGOW ","V020","350,1,N,0021,1","22000,1,9,N","008000,1,N,1","+0030,1","-0010,1","99999,9",,,,"00,99,1,99,9,99,9,99999,9,99,9,99,9","10051,1,99999,9","10,1",,,"MET056METAR EGOW 051250Z 35004KT 8000 BR NSC 03/M01 Q1005 BLU;","Q01    003SCCGA1"
"03018099999","2010-12-05T13:50:00","4","53.581575","-3.055522","11.27","WOODVALE, UK","FM-15","EGOW ","V020","170,1,N,0015,1","22000,1,9,N","008000,1,N,1","+0040,1","+0000,1","99999,9",,,,"00,99,1,99,9,99,9,99999,9,99,9,99,9","10051,1,99999,9","10,1",,,"MET055METAR EGOW 051350Z 17003KT 8000 BR NSC 04/00 Q1005 BLU;","Q01    003SCCGA1"
"03018099999","2010-12-05T14:50:00","4","53.581575","-3.055522","11.27","WOODVALE, UK","FM-15","EGOW ","V020","999,9,C,0000,1","99999,9,9,Y","009900,1,N,1","+0030,1","+0010,1","99999,9",,,,,"10041,1,99999,9",,,,"MET049METAR EGOW 051450Z 00000KT CAVOK 03/01 Q1004 BLU;",
"03018099999","2010-12-08T07:50:00","4","53.581575","-3.055522","11.27","WOODVALE, UK","FM-15","EGOW ","V020","010,1,N,0036,1","99999,9,9,Y","009900,1,N,1","-0050,1","+9999,9","99999,9",,,,,"10139,1,99999,9",,,,"MET050METAR EGOW 080750Z 01007KT CAVOK M05/// Q1014 BLU;",
"03018099999","2010-12-08T08:50:00","4","53.581575","-3.055522","11.27","WOODVALE, UK","FM-15","EGOW ","V020","010,1,N,0036,1","99999,9,9,Y","009900,1,N,1","-0050,1","+9999,9","99999,9",,,,,"10149,1,99999,9",,,,"MET050METAR EGOW 080850Z 01007KT CAVOK M05/// Q1015 BLU;",
"03018099999","2010-12-08T09:50:00","4","53.581575","-3.055522","11.27","WOODVALE, UK","FM-15","EGOW ","V020","010,1,N,0036,1","99999,9,9,Y","009900,1,N,1","-0020,1","-0060,1","99999,9",,,,,"10159,1,99999,9",,,,"MET051METAR EGOW 080950Z 01007KT CAVOK M02/M06 Q1016 BLU;",
"03018099999","2010-12-08T10:50:00","4","53.581575","-3.055522","11.27","WOODVALE, UK","FM-15","EGOW ","V020","010,1,N,0036,1","99999,9,9,Y","009900,1,N,1","+0000,1","-0060,1","99999,9",,,,,"10169,1,99999,9",,,,"MET051METAR EGOW 081050Z 01007KT CAVOK M00/M06 Q1017 BLU;",
"03018099999","2010-12-08T11:50:00","4","53.581575","-3.055522","11.27","WOODVALE, UK","FM-15","EGOW ","V020","350,1,N,0036,1","99999,9,9,Y","009900,1,N,1","+0000,1","-0050,1","99999,9",,,,,"10169,1,99999,9",,,,"MET050METAR EGOW 081150Z 35007KT CAVOK 00/M05 Q1017 BLU;",
"03018099999","2010-12-09T07:50:00","4","53.581575","-3.055522","11.27","WOODVALE, UK","FM-15","EGOW ","V020","330,1,N,0026,1","01200,1,C,N","011265,1,N,1","+0050,1","+0020,1","99999,9","04,5,+00900,1,99,9","07,5,+01200,1,99,9",,"07,99,1,99,9,99,9,99999,9,99,9,99,9","10291,1,99999,9","16,1",,,"MET067METAR EGOW 090750Z 33005KT 9999 VCSH SCT030 BKN040 05/02 Q1029 BLU;",
"03018099999","2010-12-09T08:50:00","4","53.581575","-3.055522","11.27","WOODVALE, UK","FM-15","EGOW ","V020","300,1,N,0067,1","00750,1,C,N","011265,1,N,1","+0060,1","+9999,9","99999,9","02,5,+00450,1,99,9","04,5,+00750,1,99,9","07,5,+01200,1,99,9","07,99,1,99,9,99,9,99999,9,99,9,99,9","10291,1,99999,9","16,1",,,"MET074METAR EGOW 090850Z 30013KT 9999 VCSH FEW015 SCT025 BKN040 06/08 Q1029 BLU;",
"03018099999","2010-12-09T09:50:00","4","53.581575","-3.055522","11.27","WOODVALE, UK","FM-15","EGOW ","V020","310,1,N,0036,1","01200,1,C,N","011265,1,N,1","+0050,1","+0040,1","99999,9","02,5,+00450,1,99,9","07,5,+01200,1,99,9",,"07,99,1,99,9,99,9,99999,9,99,9,99,9","10301,1,99999,9",,,,"MET062METAR EGOW 090950Z 31007KT 9999 FEW015 BKN040 05/04 Q1030 BLU;",
"03018099999","2010-12-09T10:50:00","4","53.581575","-3.055522","11.27","WOODVALE, UK","FM-15","EGOW ","V020","300,1,N,0046,1","00900,1,C,N","011265,1,N,1","+0060,1","+0030,1","99999,9","02,5,+00360,1,99,9","04,5,+00900,1,99,9","07,5,+03000,1,99,9","07,99,1,99,9,99,9,99999,9,99,9,99,9","10301,1,99999,9",,,,"MET069METAR EGOW 091050Z 30009KT 9999 FEW012 SCT030 BKN100 06/03 Q1030 BLU;",
"03018099999","2010-12-09T11:50:00","4","53.581575","-3.055522","11.27","WOODVALE, UK","FM-15","EGOW ","V020","290,1,N,0062,1","01200,1,C,N","011265,1,N,1","+0070,1","+0040,1","99999,9","02,5,+00450,1,99,9","07,5,+01200,1,99,9",,"07,99,1,99,9,99,9,99999,9,99,9,99,9","10301,1,99999,9",,,,"MET062METAR EGOW 091150Z 29012KT 9999 FEW015 BKN040 07/04 Q1030 BLU;",
"03018099999","2010-12-09T12:50:00","4","53.581575","-3.055522","11.27","WOODVALE, UK","FM-15","EGOW ","V020","290,1,N,0051,1","99999,9,9,Y","009900,1,N,1","+0070,1","+0040,1","99999,9",,,,,"10301,1,99999,9",,,,"MET049METAR EGOW 091250Z 29010KT CAVOK 07/04 Q1030 BLU;",
"03018099999","2010-12-09T13:50:00","4","53.581575","-3.055522","11.27","WOODVALE, UK","FM-15","EGOW ","V020","290,1,N,0051,1","00900,1,C,N","011265,1,N,1","+0070,1","+0050,1","99999,9","02,5,+00600,1,99,9","04,5,+00900,1,99,9","07,5,+01500,1,99,9","07,99,1,99,9,99,9,99999,9,99,9,99,9","10291,1,99999,9","80,1",,,"MET075METAR EGOW 091350Z 29010KT 9999 -SHRA FEW020 SCT030 BKN050 07/05 Q1029 BLU;",
"03018099999","2010-12-09T14:50:00","4","53.581575","-3.055522","11.27","WOODVALE, UK","FM-15","EGOW ","V020","280,1,N,0067,1","01200,1,C,N","011265,1,N,1","+0070,1","+0030,1","99999,9","02,5,+00540,1,99,9","04,5,+01200,1,99,9","07,5,+01800,1,99,9","07,99,1,99,9,99,9,99999,9,99,9,99,9","10291,1,99999,9",,,,"MET069METAR EGOW 091450Z 28013KT 9999 FEW018 SCT040 BKN060 07/03 Q1029 BLU;",
"03018099999","2010-12-10T07:50:00","4","53.581575","-3.055522","11.27","WOODVALE, UK","FM-15","EGOW ","V020","270,1,N,0041,1","00750,1,C,N","011265,1,N,1","+0070,1","+0050,1","99999,9","02,5,+00360,1,99,9","07,5,+00750,1,99,9",,"07,99,1,99,9,99,9,99999,9,99,9,99,9","10312,1,99999,9",,,,"MET062METAR EGOW 100750Z 27008KT 9999 FEW012 BKN025 07/05 Q1031 BLU;",
"03018099999","2010-12-10T08:50:00","4","53.581575","-3.055522","11.27","WOODVALE, UK","FM-15","EGOW ","V020","250,1,N,0062,1","01200,1,C,N","011265,1,N,1","+0070,1","+0060,1","99999,9","02,5,+00360,1,99,9","07,5,+01200,1,99,9","08,5,+04500,1,99,9","08,99,1,99,9,99,9,99999,9,99,9,99,9","10312,1,99999,9",,,,"MET069METAR EGOW 100850Z 25012KT 9999 FEW012 BKN040 OVC150 07/06 Q1031 BLU;",
"03018099999","2010-12-10T09:50:00","4","53.581575","-3.055522","11.27","WOODVALE, UK","FM-15","EGOW ","V020","260,1,N,0072,1","01200,1,C,N","011265,1,N,1","+0080,1","+0060,1","99999,9","02,5,+00450,1,99,9","07,5,+01200,1,99,9",,"07,99,1,99,9,99,9,99999,9,99,9,99,9","10312,1,99999,9","61,1",,,"MET066METAR EGOW 100950Z 26014KT 9999 -RA FEW015 BKN040 08/06 Q1031 BLU;",
"03018099999","2010-12-10T10:50:00","4","53.581575","-3.055522","11.27","WOODVALE, UK","FM-15","EGOW ","V020","280,1,N,0072,1","01200,1,C,N","011265,1,N,1","+0080,1","+0060,1","99999,9","02,5,+00450,1,99,9","07,5,+01200,1,99,9","08,5,+04500,1,99,9","08,99,1,99,9,99,9,99999,9,99,9,99,9","10312,1,99999,9",,,,"MET069METAR EGOW 101050Z 28014KT 9999 FEW015 BKN040 OVC150 08/06 Q1031 BLU;",
"03018099999","2010-12-10T11:50:00","4","53.581575","-3.055522","11.27","WOODVALE, UK","FM-15","EGOW ","V020","280,1,N,0077,1","01200,1,C,N","011265,1,N,1","+0080,1","+0060,1","99999,9","02,5,+00450,1,99,9","07,5,+01200,1,99,9",,"07,99,1,99,9,99,9,99999,9,99,9,99,9","10312,1,99999,9",,,,"MET062METAR EGOW 101150Z 28015KT 9999 FEW015 BKN040 08/06 Q1031 BLU;",
"03018099999","2010-12-10T12:50:00","4","53.581575","-3.055522","11.27","WOODVALE, UK","FM-15","EGOW ","V020","280,1,N,0072,1","01200,1,C,N","011265,1,N,1","+0080,1","+0060,1","99999,9","04,5,+00420,1,99,9","07,5,+01200,1,99,9",,"07,99,1,99,9,99,9,99999,9,99,9,99,9","10312,1,99999,9",,,,"MET062METAR EGOW 101250Z 28014KT 9999 SCT014 BKN040 08/06 Q1031 GRN;",
"03018099999","2010-12-10T13:50:00","4","53.581575","-3.055522","11.27","WOODVALE, UK","FM-15","EGOW ","V020","290,1,N,0077,1","01200,1,C,N","011265,1,N,1","+0080,1","+0060,1","99999,9","04,5,+00420,1,99,9","07,5,+01200,1,99,9",,"07,99,1,99,9,99,9,99999,9,99,9,99,9","10301,1,99999,9",,,,"MET062METAR EGOW 101350Z 29015KT 9999 SCT014 BKN040 08/06 Q1030 GRN;",
"03018099999","2010-12-10T14:50:00","4","53.581575","-3.055522","11.27","WOODVALE, UK","FM-15","EGOW ","V020","290,1,N,0062,1","01050,1,C,N","011265,1,N,1","+0080,1","+0060,1","99999,9","04,5,+00330,1,99,9","07,5,+01050,1,99,9",,"07,99,1,99,9,99,9,99999,9,99,9,99,9","10301,1,99999,9",,,,"MET062METAR EGOW 101450Z 29012KT 9999 SCT011 BKN035 08/06 Q1030 GRN;",
"03018099999","2010-12-11T07:50:00","4","53.581575","-3.055522","11.27","WOODVALE, UK","FM-15","EGOW ","V020","290,1,N,0082,1","00780,1,C,N","011265,1,N,1","+0080,1","+0060,1","99999,9","04,5,+00600,1,99,9","07,5,+00780,1,99,9",,"07,99,1,99,9,99,9,99999,9,99,9,99,9","10261,1,99999,9",,,,"MET062METAR EGOW 110750Z 29016KT 9999 SCT020 BKN026 08/06 Q1026 WHT;",
"03018099999","2010-12-11T08:50:00","4","53.581575","-3.055522","11.27","WOODVALE, UK","FM-15","EGOW ","V020","320,1,N,0051,1","00600,1,C,N","011265,1,N,1","+0080,1","+0060,1","99999,9","02,5,+00240,1,99,9","04,5,+00600,1,99,9","07,5,+00780,1,99,9","07,99,1,99,9,99,9,99999,9,99,9,99,9","10261,1,99999,9",,,,"MET069METAR EGOW 110850Z 32010KT 9999 FEW008 SCT020 BKN026 08/06 Q1026 WHT;",
"03018099999","2010-12-11T09:50:00","4","53.581575","-3.055522","11.27","WOODVALE, UK","FM-15","EGOW ","V020","290,1,N,0021,1","00660,1,C,N","011265,1,N,1","+0070,1","+0060,1","99999,9","02,5,+00540,1,99,9","07,5,+00660,1,99,9",,"07,99,1,99,9,99,9,99999,9,99,9,99,9","10271,1,99999,9",,,,"MET062METAR EGOW 110950Z 29004KT 9999 FEW018 BKN022 07/06 Q1027 WHT;",
"03018099999","2010-12-11T10:50:00","4","53.581575","-3.055522","11.27","WOODVALE, UK","FM-15","EGOW ","V020","330,1,N,0026,1","22000,1,9,N","011265,1,N,1","+0080,1","+0040,1","99999,9","04,5,+00660,1,99,9",,,"04,99,1,99,9,99,9,99999,9,99,9,99,9","10261,1,99999,9",,,,"MET055METAR EGOW 111050Z 33005KT 9999 SCT022 08/04 Q1026 WHT;",
"03018099999","2010-12-11T11:50:00","4","53.581575","-3.055522","11.27","WOODVALE, UK","FM-15","EGOW ","V020","300,1,N,0062,1","99999,9,C,N","011265,1,N,1","+0080,1","+0040,1","99999,9","02,5,+00480,1,99,9","04,5,+00900,1,99,9",,"04,99,1,99,9,99,9,99999,9,99,9,99,9","10261,1,99999,9",,,,"MET062METAR EGOW 111150Z 30012KT 9999 FEW016 SCT030 08/04 Q1026 BLU;","P01 009003SCOCIG"
"03018099999","2010-12-11T12:50:00","4","53.581575","-3.055522","11.27","WOODVALE, UK","FM-15","EGOW ","V020","290,1,N,0057,1","22000,1,9,N","011265,1,N,1","+0090,1","+0040,1","99999,9","02,5,+00690,1,99,9",,,"02,99,1,99,9,99,9,99999,9,99,9,99,9","10251,1,99999,9",,,,"MET055METAR EGOW 111250Z 29011KT 9999 FEW023 09/04 Q1025 BLU;",
"03018099999","2010-12-11T13:50:00","4","53.581575","-3.055522","11.27","WOODVALE, UK","FM-15","EGOW ","V020","300,1,N,0057,1","22000,1,9,N","011265,1,N,1","+0080,1","+0040,1","99999,9","02,5,+00690,1,99,9",,,"02,99,1,99,9,99,9,99999,9,99,9,99,9","10251,1,99999,9",,,,"MET055METAR EGOW 111350Z 30011KT 9999 FEW023 08/04 Q1025 BLU;",
"03018099999","2010-12-12T07:50:00","4","53.581575","-3.055522","11.27","WOODVALE, UK","FM-15","EGOW ","V020","060,1,N,0005,1","22000,1,9,N","011265,1,N,1","+0000,1","+0000,1","99999,9","02,5,+00540,1,99,9",,,"02,99,1,99,9,99,9,99999,9,99,9,99,9","10261,1,99999,9","12,1",,,"MET060METAR EGOW 120750Z 06001KT 9999 MIFG FEW018 00/00 Q1026 BLU;",
"03018099999","2010-12-12T08:50:00","4","53.581575","-3.055522","11.27","WOODVALE, UK","FM-15","EGOW ","V020","350,1,N,0021,1","99999,9,9,Y","009900,1,N,1","+0000,1","+0000,1","99999,9",,,,,"10261,1,99999,9",,,,"MET049METAR EGOW 120850Z 35004KT CAVOK 00/00 Q1026 BLU;",
"03018099999","2010-12-12T09:50:00","4","53.581575","-3.055522","11.27","WOODVALE, UK","FM-15","EGOW ","V020","360,1,N,0015,1","99999,9,9,Y","009900,1,N,1","+0010,1","+0000,1","99999,9",,,,,"10261,1,99999,9",,,,"MET049METAR EGOW 120950Z 36003KT CAVOK 01/00 Q1026 BLU;",
"03018099999","2010-12-12T10:50:00","4","53.581575","-3.055522","11.27","WOODVALE, UK","FM-15","EGOW ","V020","340,1,N,0005,1","99999,9,9,Y","009900,1,N,1","+0030,1","+0010,1","99999,9",,,,,"10271,1,99999,9",,,,"MET049METAR EGOW 121050Z 34001KT CAVOK 03/01 Q1027 BLU;",
"03018099999","2010-12-12T11:50:00","4","53.581575","-3.055522","11.27","WOODVALE, UK","FM-15","EGOW ","V020","360,1,N,0015,1","99999,9,9,Y","009900,1,N,1","+0040,1","+0010,1","99999,9",,,,,"10271,1,99999,9",,,,"MET049METAR EGOW 121150Z 36003KT CAVOK 04/01 Q1027 BLU;",
"03018099999","2010-12-12T12:50:00","4","53.581575","-3.055522","11.27","WOODVALE, UK","FM-15","EGOW ","V020","360,1,N,0021,1","99999,9,9,Y","009900,1,N,1","+0050,1","+0010,1","99999,9",,,,,"10271,1,99999,9",,,,"MET049METAR EGOW 121250Z 36004KT CAVOK 05/01 Q1027 BLU;",
"03018099999","2010-12-12T13:50:00","4","53.581575","-3.055522","11.27","WOODVALE, UK","FM-15","EGOW ","V020","999,9,C,0000,1","22000,1,9,N","011265,1,N,1","+0060,1","+0020,1","99999,9","02,5,+00420,1,99,9",,,"02,99,1,99,9,99,9,99999,9,99,9,99,9","10271,1,99999,9",,,,"MET055METAR EGOW 121350Z 00000KT 9999 FEW014 06/02 Q1027 BLU;",
"03018099999","2010-12-15T07:50:00","4","53.581575","-3.055522","11.27","WOODVALE, UK","FM-15","EGOW ","V020","350,1,N,0026,1","99999,9,9,Y","009900,1,N,1","+0040,1","+0030,1","99999,9",,,,,"10359,1,99999,9",,,,"MET049METAR EGOW 150750Z 35005KT CAVOK 04/03 Q1036 BLU;",
"03018099999","2010-12-15T08:50:00","4","53.581575","-3.055522","11.27","WOODVALE, UK","FM-15","EGOW ","V020","340,1,N,0031,1","99999,9,9,Y","009900,1,N,1","+0040,1","+0030,1","99999,9",,,,,"10389,1,99999,9",,,,"MET049METAR EGOW 150850Z 34006KT CAVOK 04/03 Q1039 BLU;",
"03018099999","2010-12-15T09:50:00","4","53.581575","-3.055522","11.27","WOODVALE, UK","FM-15","EGOW ","V020","340,1,N,0041,1","22000,1,9,N","011265,1,N,1","+0050,1","+0040,1","99999,9","04,5,+00900,1,99,9",,,"04,99,1,99,9,99,9,99999,9,99,9,99,9","10389,1,99999,9",,,,"MET055METAR EGOW 150950Z 34008KT 9999 SCT030 05/04 Q1039 BLU;",
"03018099999","2010-12-15T10:50:00","4","53.581575","-3.055522","11.27","WOODVALE, UK","FM-15","EGOW ","V020","330,1,N,0046,1","00900,1,C,N","011265,1,N,1","+0060,1","+0030,1","99999,9","07,5,+00900,1,99,9",,,"07,99,1,99,9,99,9,99999,9,99,9,99,9","10389,1,99999,9",,,,"MET055METAR EGOW 151050Z 33009KT 9999 BKN030 06/03 Q1039 BLU;",
"03018099999","2010-12-15T11:50:00","4","53.581575","-3.055522","11.27","WOODVALE, UK","FM-15","EGOW ","V020","330,1,N,0041,1","00900,1,C,N","011265,1,N,1","+0060,1","+0030,1","99999,9","07,5,+00900,1,99,9",,,"07,99,1,99,9,99,9,99999,9,99,9,99,9","10389,1,99999,9",,,,"MET055METAR EGOW 151150Z 33008KT 9999 BKN030 06/03 Q1039 BLU;",
"03018099999","2010-12-15T12:50:00","4","53.581575","-3.055522","11.27","WOODVALE, UK","FM-15","EGOW ","V020","330,1,N,0036,1","00900,1,C,N","011265,1,N,1","+0060,1","+0030,1","99999,9","07,5,+00900,1,99,9",,,"07,99,1,99,9,99,9,99999,9,99,9,99,9","10369,1,99999,9",,,,"MET055METAR EGOW 151250Z 33007KT 9999 BKN030 06/03 Q1037 BLU;",
"03018099999","2010-12-15T13:50:00","4","53.581575","-3.055522","11.27","WOODVALE, UK","FM-15","EGOW ","V020","330,1,N,0031,1","00900,1,C,N","011265,1,N,1","+0070,1","+0010,1","99999,9","07,5,+00900,1,99,9",,,"07,99,1,99,9,99,9,99999,9,99,9,99,9","10369,1,99999,9",,,,"MET055METAR EGOW 151350Z 33006KT 9999 BKN030 07/01 Q1037 BLU;",
"03018099999","2010-12-15T14:50:00","4","53.581575","-3.055522","11.27","WOODVALE, UK","FM-15","EGOW ","V020","300,1,N,0031,1","00900,1,C,N","011265,1,N,1","+0050,1","+0020,1","99999,9","02,5,+00600,1,99,9","08,5,+00900,1,99,9",,"08,99,1,99,9,99,9,99999,9,99,9,99,9","10359,1,99999,9",,,,"MET062METAR EGOW 151450Z 30006KT 9999 FEW020 OVC030 05/02 Q1036 BLU;",
"03018099999","2010-12-16T07:50:00","4","53.581575","-3.055522","11.27","WOODVALE, UK","FM-15","EGOW ","V020","280,1,N,0113,1","00480,1,C,N","011265,1,N,1","+0080,1","+0060,1","99999,9","02,5,+00300,1,99,9","04,5,+00480,1,99,9","08,5,+01080,1,99,9","08,99,1,99,9,99,9,99999,9,99,9,99,9","10102,1,99999,9","61,1",,"0165,1","MET076METAR EGOW 160750Z 28022G32KT 9999 -RA FEW010 SCT016 OVC036 08/06 Q1010 WHT;",
"03018099999","2010-12-16T08:50:00","4","53.581575","-3.055522","11.27","WOODVALE, UK","FM-15","EGOW ","V020","280,1,N,0113,1","00600,1,C,N","011265,1,N,1","+0080,1","+0060,1","99999,9","04,5,+00360,1,99,9","08,5,+00600,1,99,9",,"08,99,1,99,9,99,9,99999,9,99,9,99,9","10081,1,99999,9","65,1",,"0165,1","MET069METAR EGOW 160850Z 28022G32KT 9999 +RA SCT012 OVC020 08/06 Q1008 GRN;",
"03018099999","2010-12-16T09:50:00","4","53.581575","-3.055522","11.27","WOODVALE, UK","FM-15","EGOW ","V020","320,1,N,0098,1","00360,1,C,N","007000,1,N,1","+0060,1","+0040,1","99999,9","07,5,+00360,1,99,9",,,"07,99,1,99,9,99,9,99999,9,99,9,99,9","10081,1,99999,9","16,1",,,"MET060METAR EGOW 160950Z 32019KT 7000 VCSH BKN012 06/04 Q1008 GRN;",
"03018099999","2010-12-16T10:50:00","4","53.581575","-3.055522","11.27","WOODVALE, UK","FM-15","EGOW ","V020","310,1,N,0082,1","99999,9,C,N","011265,1,N,1","+0060,1","+0040,1","99999,9","02,5,+00450,1,99,9","04,5,+01050,1,99,9",,"04,99,1,99,9,99,9,99999,9,99,9,99,9","10071,1,99999,9",,,,"MET062METAR EGOW 161050Z 31016KT 9999 FEW015 SCT035 06/04 Q1007 BLU;","P01 010503SCOCIG"
"03018099999","2010-12-16T11:50:00","4","53.581575","-3.055522","11.27","WOODVALE, UK","FM-15","EGOW ","V020","320,1,N,0082,1","00480,1,C,N","011265,1,N,1","+0060,1","+0020,1","99999,9","02,5,+00270,1,99,9","04,5,+00480,1,99,9","07,5,+01050,1,99,9","07,99,1,99,9,99,9,99999,9,99,9,99,9","10061,1,99999,9","16,1",,,"MET074METAR EGOW 161150Z 32016KT 9999 VCSH FEW009 SCT016 BKN035 06/02 Q1006 WHT;",
"03018099999","2010-12-16T12:50:00","4","53.581575","-3.055522","11.27","WOODVALE, UK","FM-15","EGOW ","V020","040,1,N,0098,1","00660,1,C,N","011265,1,N,1","+0030,1","+0020,1","99999,9","02,5,+00240,1,99,9","07,5,+00660,1,99,9",,"07,99,1,99,9,99,9,99999,9,99,9,99,9","10061,1,99999,9",,,,"MET062METAR EGOW 161250Z 04019KT 9999 FEW008 BKN022 03/02 Q1006 WHT;",
"03018099999","2010-12-16T13:50:00","4","53.581575","-3.055522","11.27","WOODVALE, UK","FM-15","EGOW ","V020","020,1,N,0082,1","00600,1,C,N","011265,1,N,1","+0020,1","+0010,1","99999,9","02,5,+00360,1,99,9","04,5,+00600,1,09,5","07,5,+01050,1,99,9","07,99,1,99,9,99,9,99999,9,99,9,99,9","10071,1,99999,9","16,1",,,"MET076METAR EGOW 161350Z 02016KT 9999 VCSH FEW012 SCT020CB BKN035 02/01 Q1007 WHT;",
"03018099999","2010-12-16T14:50:00","4","53.581575","-3.055522","11.27","WOODVALE, UK","FM-15","EGOW ","V020","020,1,N,0077,1","22000,1,9,N","011265,1,N,1","+0020,1","-0030,1","99999,9","02,5,+00750,1,09,1",,,"02,99,1,99,9,99,9,99999,9,99,9,99,9","10081,1,99999,9","16,1",,,"MET063METAR EGOW 161450Z 02015KT 9999 VCSH FEW025CB 02/M03 Q1008 BLU;",
"03018099999","2010-12-16T15:50:00","4","53.581575","-3.055522","11.27","WOODVALE, UK","FM-15","EGOW ","V020","010,1,N,0077,1","22000,1,9,N","011265,1,N,1","+0020,1","-0030,1","99999,9","02,5,+00450,1,99,9",,,"02,99,1,99,9,99,9,99999,9,99,9,99,9","10081,1,99999,9",,,,"MET056METAR EGOW 161550Z 01015KT 9999 FEW015 02/M03 Q1008 BLU;",
"03018099999","2010-12-17T07:50:00","4","53.581575","-3.055522","11.27","WOODVALE, UK","FM-15","EGOW ","V020","330,1,N,0093,1","99999,9,C,N","011265,1,N,1","+0020,1","+0010,1","99999,9","02,5,+01110,1,99,9","04,5,+02100,1,99,9",,"04,99,1,99,9,99,9,99999,9,99,9,99,9","09980,1,99999,9",,,,"MET062METAR EGOW 170750Z 33018KT 9999 FEW037 SCT070 02/01 Q0998 BLU;","P01 021003SCOCIG"
"03018099999","2010-12-17T08:50:00","4","53.581575","-3.055522","11.27","WOODVALE, UK","FM-15","EGOW ","V020","020,1,N,0062,1","22000,1,9,N","011265,1,N,1","+0010,1","+0000,1","99999,9","02,5,+00720,1,99,9",,,"02,99,1,99,9,99,9,99999,9,99,9,99,9","09990,1,99999,9",,,,"MET056METAR EGOW 170850Z 02012KT 9999 FEW024 01/M00 Q0999 BLU;",
"03018099999","2010-12-17T10:50:00","4","53.581575","-3.055522","11.27","WOODVALE, UK","FM-15","EGOW ","V020","360,1,N,0077,1","22000,1,9,N","011265,1,N,1","+0010,1","+0000,1","99999,9","02,5,+00720,1,99,9",,,"02,99,1,99,9,99,9,99999,9,99,9,99,9","09980,1,99999,9",,,,"MET056METAR EGOW 171050Z 36015KT 9999 FEW024 01/M00 Q0998 BLU;",
"03018099999","2010-12-17T11:50:00","4","53.581575","-3.055522","11.27","WOODVALE, UK","FM-15","EGOW ","V020","350,1,N,0041,1","22000,1,9,N","011265,1,N,1","+0020,1","+0010,1","99999,9","02,5,+00780,1,99,9",,,"02,99,1,99,9,99,9,99999,9,99,9,99,9","09980,1,99999,9",,,,"MET055METAR EGOW 171150Z 35008KT 9999 FEW026 02/01 Q0998 BLU;",
"03018099999","2010-12-17T12:50:00","4","53.581575","-3.055522","11.27","WOODVALE, UK","FM-15","EGOW ","V020","320,1,N,0051,1","22000,1,9,N","011265,1,N,1","+0020,1","+0020,1","99999,9","02,5,+00780,1,99,9",,,"02,99,1,99,9,99,9,99999,9,99,9,99,9","09970,1,99999,9",,,,"MET055METAR EGOW 171250Z 32010KT 9999 FEW026 02/02 Q0997 BLU;",
"03018099999","2010-12-17T13:50:00","4","53.581575","-3.055522","11.27","WOODVALE, UK","FM-15","EGOW ","V020","350,1,N,0026,1","22000,1,9,N","011265,1,N,1","+0020,1","+0020,1","99999,9","02,5,+00780,1,99,9",,,"02,99,1,99,9,99,9,99999,9,99,9,99,9","09970,1,99999,9",,,,"MET055METAR EGOW 171350Z 35005KT 9999 FEW026 02/02 Q0997 BLU;",
"03018099999","2010-12-17T14:50:00","4","53.581575","-3.055522","11.27","WOODVALE, UK","FM-15","EGOW ","V020","350,1,N,0021,1","22000,1,9,N","011265,1,N,1","+0010,1","+0010,1","99999,9","02,5,+00780,1,99,9",,,"02,99,1,99,9,99,9,99999,9,99,9,99,9","09959,1,99999,9",,,,"MET055METAR EGOW 171450Z 35004KT 9999 FEW026 01/01 Q0996 BLU;",
