"STATION","DATE","SOURCE","LATITUDE","LONGITUDE","ELEVATION","NAME","REPORT_TYPE","CALL_SIGN","QUALITY_CONTROL","WND","CIG","VIS","TMP","DEW","SLP","GA1","GA2","GA3","GA4","GF1","KA1","MA1","MW1","MW2","OC1","REM","EQD"
"03114099999","2010-10-25T09:20:00","4","56.417","-5.467","4.0","OBAN, UK","FM-15","EGEO ","V020","090,1,N,0031,1","22000,1,9,N","011265,1,N,1","+9999,9","+9999,9","99999,9",,,,,,,,,,,"MET052METAR EGEO 250920Z 09006KT 9999 SCT 018 04/02 Q1026;",
"03114099999","2010-10-25T09:50:00","4","56.417","-5.467","4.0","OBAN, UK","FM-15","EGEO ","V020","080,1,N,0041,1","22000,1,9,N","011265,1,N,1","+0040,1","+0030,1","99999,9","04,5,+00540,1,99,9",,,,"04,99,1,99,9,99,9,99999,9,99,9,99,9",,"10261,1,99999,9",,,,"MET051METAR EGEO 250950Z 08008KT 9999 SCT018 04/03 Q1026;",
"03114099999","2010-10-25T10:20:00","4","56.417","-5.467","4.0","OBAN, UK","FM-15","EGEO ","V020","080,1,N,0031,1","22000,1,9,N","011265,1,N,1","+0050,1","+0030,1","99999,9","04,5,+00540,1,99,9",,,,"04,99,1,99,9,99,9,99999,9,99,9,99,9",,"10251,1,99999,9",,,,"MET051METAR EGEO 251020Z 08006KT 9999 SCT018 05/03 Q1025;",
"03114099999","2010-10-25T10:50:00","4","56.417","-5.467","4.0","OBAN, UK","FM-15","EGEO ","V020","080,1,N,0031,1","22000,1,9,N","011265,1,N,1","+0060,1","+0040,1","99999,9","04,5,+00480,1,99,9",,,,"04,99,1,99,9,99,9,99999,9,99,9,99,9",,"10261,1,99999,9",,,,"MET051METAR EGEO 251050Z 08006KT 9999 SCT016 06/04 Q1026;",
"03114099999","2010-10-25T11:20:00","4","56.417","-5.467","4.0","OBAN, UK","FM-15","EGEO ","V020","130,1,N,0031,1","22000,1,9,N","011265,1,N,1","+0080,1","+0040,1","99999,9","04,1,+05400,1,99,9",,,,"04,99,1,99,9,99,9,99999,9,99,9,99,9",,"10251,1,99999,9",,,,"MET052METAR EGEO 251120Z 13006KT 9999 SCT1800 08/04 Q1025;",
"03114099999","2010-10-25T11:50:00","4","56.417","-5.467","4.0","OBAN, UK","FM-15","EGEO ","V020","140,1,N,0041,1","22000,1,9,N","011265,1,N,1","+0080,1","+0040,1","99999,9","04,5,+00540,1,99,9",,,,"04,99,1,99,9,99,9,99999,9,99,9,99,9",,"10251,1,99999,9",,,,"MET051METAR EGEO 251150Z 14008KT 9999 SCT018 08/04 Q1025;",
"03114099999","2010-10-25T12:20:00","4","56.417","-5.467","4.0","OBAN, UK","FM-15","EGEO ","V020","150,1,N,0031,1","22000,1,9,N","011265,1,N,1","+0080,1","+0040,1","99999,9","04,5,+00600,1,99,9",,,,"04,99,1,99,9,99,9,99999,9,99,9,99,9",,"10251,1,99999,9",,,,"MET051METAR EGEO 251220Z 15006KT 9999 SCT020 08/04 Q1025;",
"03114099999","2010-10-25T12:50:00","4","56.417","-5.467","4.0","OBAN, UK","FM-15","EGEO ","V020","150,1,N,0031,1","22000,1,9,N","011265,1,N,1","+0090,1","+0040,1","99999,9","04,5,+00600,1,99,9",,,,"04,99,1,99,9,99,9,99999,9,99,9,99,9",,"10251,1,99999,9",,,,"MET051METAR EGEO 251250Z 15006KT 9999 SCT020 09/04 Q1025;",
"03114099999","2010-10-25T13:20:00","4","56.417","-5.467","4.0","OBAN, UK","FM-15","EGEO ","V020","150,1,N,0031,1","22000,1,9,N","011265,1,N,1","+0090,1","+0040,1","99999,9","04,5,+00600,1,99,9",,,,"04,99,1,99,9,99,9,99999,9,99,9,99,9",,"10251,1,99999,9",,,,"MET051METAR EGEO 251320Z 15006KT 9999 SCT020 09/04 Q1025;",
"03114099999","2010-10-25T15:20:00","4","56.417","-5.467","4.0","OBAN, UK","FM-15","EGEO ","V020","120,1,N,0026,1","99999,9,C,N","011265,1,N,1","+0090,1","+0040,1","99999,9","02,5,+00750,1,99,9","04,5,+01200,1,99,9",,,"04,99,1,99,9,99,9,99999,9,99,9,99,9",,"10230,1,99999,9",,,,"MET058METAR EGEO 251520Z 12005KT 9999 FEW025 SCT040 09/04 Q1023;","P01 012003SCOCIG"
"03114099999","2010-10-25T15:50:00","4","56.417","-5.467","4.0","OBAN, UK","FM-15","EGEO ","V020","130,1,N,0031,1","99999,9,C,N","011265,1,N,1","+0080,1","+0030,1","99999,9","02,5,+00810,1,99,9","04,5,+01200,1,99,9",,,"04,99,1,99,9,99,9,99999,9,99,9,99,9",,"10230,1,99999,9",,,,"MET058METAR EGEO 251550Z 13006KT 9999 FEW027 SCT040 08/03 Q1023;","P01 012003SCOCIG"
"03114099999","2010-10-25T16:20:00","4","56.417","-5.467","4.0","OBAN, UK","FM-15","EGEO ","V020","120,1,N,0031,1","22000,1,9,N","011265,1,N,1","+0080,1","+0040,1","99999,9","02,5,+00810,1,99,9",,,,"02,99,1,99,9,99,9,99999,9,99,9,99,9",,"10220,1,99999,9",,,,"MET051METAR EGEO 251620Z 12006KT 9999 FEW027 08/04 Q1022;",
"03114099999","2010-10-26T06:50:00","4","56.417","-5.467","4.0","OBAN, UK","FM-15","EGEO ","V020","120,1,N,0031,1","00360,1,C,N","011265,1,N,1","+0120,1","+0100,1","99999,9","07,5,+00360,1,99,9",,,,"07,99,1,99,9,99,9,99999,9,99,9,99,9",,"10081,1,99999,9",,,,"MET051METAR EGEO 260650Z 12006KT 9999 BKN012 12/10 Q1008;",
"03114099999","2010-10-26T07:20:00","4","56.417","-5.467","4.0","OBAN, UK","FM-15","EGEO ","V020","110,1,N,0026,1","00420,1,C,N","011265,1,N,1","+0110,1","+0100,1","99999,9","04,5,+00300,1,99,9","07,5,+00420,1,99,9",,,"07,99,1,99,9,99,9,99999,9,99,9,99,9",,"10081,1,99999,9",,,,"MET058METAR EGEO 260720Z 11005KT 9999 SCT010 BKN014 11/10 Q1008;",
"03114099999","2010-10-26T07:50:00","4","56.417","-5.467","4.0","OBAN, UK","FM-15","EGEO ","V020","110,1,N,0031,1","00480,1,C,N","011265,1,N,1","+0110,1","+0100,1","99999,9","04,5,+00360,1,99,9","07,5,+00480,1,99,9",,,"07,99,1,99,9,99,9,99999,9,99,9,99,9",,"10081,1,99999,9",,,,"MET058METAR EGEO 260750Z 11006KT 9999 SCT012 BKN016 11/10 Q1008;",
"03114099999","2010-10-26T08:20:00","4","56.417","-5.467","4.0","OBAN, UK","FM-15","EGEO ","V020","110,1,N,0026,1","99999,9,C,N","011265,1,N,1","+0120,1","+0100,1","99999,9","02,5,+00360,1,99,9","04,5,+00480,1,99,9",,,"04,99,1,99,9,99,9,99999,9,99,9,99,9",,"10081,1,99999,9",,,,"MET058METAR EGEO 260820Z 11005KT 9999 FEW012 SCT016 12/10 Q1008;","P01 004803SCOCIG"
"03114099999","2010-10-26T09:20:00","4","56.417","-5.467","4.0","OBAN, UK","FM-15","EGEO ","V020","110,1,N,0026,1","00270,1,C,N","011265,1,N,1","+0120,1","+0110,1","99999,9","02,5,+00120,1,99,9","04,5,+00270,1,99,9","07,5,+00450,1,99,9",,"07,99,1,99,9,99,9,99999,9,99,9,99,9",,"10081,1,99999,9",,,,"MET065METAR EGEO 260920Z 11005KT 9999 FEW004 SCT009 BKN015 12/11 Q1008;",
"03114099999","2010-10-26T10:20:00","4","56.417","-5.467","4.0","OBAN, UK","FM-15","EGEO ","V020","090,1,N,0026,1","00240,1,C,N","005000,1,N,1","+0120,1","+0110,1","99999,9","04,5,+00060,1,99,9","04,5,+00240,1,99,9","07,5,+00420,1,99,9",,"07,99,1,99,9,99,9,99999,9,99,9,99,9",,"10081,1,99999,9",,,,"MET065METAR EGEO 261020Z 09005KT 5000 SCT002 SCT008 BKN014 12/11 Q1008;",
"03114099999","2010-10-26T10:50:00","4","56.417","-5.467","4.0","OBAN, UK","FM-15","EGEO ","V020","090,1,N,0021,1","00180,1,C,N","004000,1,N,1","+0130,1","+0120,1","99999,9","04,5,+00060,1,99,9","07,5,+00180,1,99,9","07,5,+00360,1,99,9",,"07,99,1,99,9,99,9,99999,9,99,9,99,9",,"10071,1,99999,9",,,,"MET065METAR EGEO 261050Z 09004KT 4000 SCT002 BKN006 BKN012 13/12 Q1007;",
"03114099999","2010-10-26T11:20:00","4","56.417","-5.467","4.0","OBAN, UK","FM-15","EGEO ","V020","090,1,N,0026,1","00090,1,C,N","003000,1,N,1","+0130,1","+0120,1","99999,9","07,5,+00090,1,99,9","07,5,+00240,1,99,9",,,"07,99,1,99,9,99,9,99999,9,99,9,99,9",,,"53,1",,,"MET055METAR EGEO 261120Z 09005KT 3000 DZ BKN003 BKN008 13/12;",
"03114099999","2010-10-26T11:50:00","4","56.417","-5.467","4.0","OBAN, UK","FM-15","EGEO ","V020","110,1,N,0026,1","00060,1,C,N","003000,1,N,1","+0130,1","+0120,1","99999,9","07,5,+00060,1,99,9","08,5,+00240,1,99,9",,,"08,99,1,99,9,99,9,99999,9,99,9,99,9",,"10071,1,99999,9","61,1",,,"MET062METAR EGEO 261150Z 11005KT 3000 -RA BKN002 OVC008 13/12 Q1007;",
"03114099999","2010-10-26T12:20:00","4","56.417","-5.467","4.0","OBAN, UK","FM-15","EGEO ","V020","110,1,N,0026,1","00060,1,C,N","002000,1,N,1","+0130,1","+0120,1","99999,9","07,5,+00060,1,99,9","08,5,+00180,1,99,9",,,"08,99,1,99,9,99,9,99999,9,99,9,99,9",,"10071,1,99999,9","53,1",,,"MET061METAR EGEO 261220Z 11005KT 2000 DZ BKN002 OVC006 13/12 Q1007;",
"03114099999","2010-10-26T12:50:00","4","56.417","-5.467","4.0","OBAN, UK","FM-15","EGEO ","V020","100,1,N,0021,1","00120,1,C,N","004000,1,N,1","+0140,1","+0130,1","99999,9","07,5,+00120,1,99,9","07,5,+00240,1,99,9",,,"07,99,1,99,9,99,9,99999,9,99,9,99,9",,"10061,1,99999,9","63,1",,,"MET061METAR EGEO 261250Z 10004KT 4000 RA BKN004 BKN008 14/13 Q1006;",
"03114099999","2010-10-26T13:20:00","4","56.417","-5.467","4.0","OBAN, UK","FM-15","EGEO ","V020","110,1,N,0021,1","00090,1,C,N","004000,1,N,1","+0140,1","+0130,1","99999,9","07,5,+00090,1,99,9","08,5,+00240,1,99,9",,,"08,99,1,99,9,99,9,99999,9,99,9,99,9",,"10061,1,99999,9","61,1",,,"MET062METAR EGEO 261320Z 11004KT 4000 -RA BKN003 OVC008 14/13 Q1006;",
"03114099999","2010-10-26T13:50:00","4","56.417","-5.467","4.0","OBAN, UK","FM-15","EGEO ","V020","160,1,N,0036,1","00060,1,C,N","004000,1,N,1","+0140,1","+0130,1","99999,9","07,5,+00060,1,99,9","08,5,+00240,1,99,9",,,"08,99,1,99,9,99,9,99999,9,99,9,99,9",,"10061,1,99999,9","63,1",,,"MET069METAR EGEO 261350Z 16007KT 130V190 4000 RA BKN002 OVC008 14/13 Q1006;",
"03114099999","2010-10-26T14:20:00","4","56.417","-5.467","4.0","OBAN, UK","FM-15","EGEO ","V020","170,1,N,0051,1","00090,1,C,N","003000,1,N,1","+0140,1","+0130,1","99999,9","07,5,+00090,1,99,9","08,5,+00180,1,99,9",,,"08,99,1,99,9,99,9,99999,9,99,9,99,9",,"10071,1,99999,9","53,1","63,1",,"MET071METAR EGEO 261420Z 17010KT 140V200 3000 RADZ BKN003 OVC006 14/13 Q1007;",
"03114099999","2010-10-26T14:50:00","4","56.417","-5.467","4.0","OBAN, UK","FM-15","EGEO ","V020","180,1,N,0051,1","00090,1,C,N","003000,1,N,1","+0150,1","+0140,1","99999,9","07,5,+00090,1,99,9","08,5,+00180,1,99,9",,,"08,99,1,99,9,99,9,99999,9,99,9,99,9",,"10051,1,99999,9","53,1","63,1",,"MET063METAR EGEO 261450Z 18010KT 3000 RADZ BKN003 OVC006 15/14 Q1005;",
"03114099999","2010-10-26T15:20:00","4","56.417","-5.467","4.0","OBAN, UK","FM-15","EGEO ","V020","180,1,N,0051,1","00090,1,C,N","003000,1,N,1","+0150,1","+0140,1","99999,9","07,5,+00090,1,99,9","08,5,+00180,1,99,9",,,"08,99,1,99,9,99,9,99999,9,99,9,99,9",,"10041,1,99999,9","53,1",,,"MET061METAR EGEO 261520Z 18010KT 3000 DZ BKN003 OVC006 15/14 Q1004;",
"03114099999","2010-10-26T15:50:00","4","56.417","-5.467","4.0","OBAN, UK","FM-15","EGEO ","V020","190,1,N,0057,1","00060,1,C,N","003000,1,N,1","+0150,1","+0140,1","99999,9","07,5,+00060,1,99,9","08,5,+00240,1,99,9",,,"08,99,1,99,9,99,9,99999,9,99,9,99,9",,"10041,1,99999,9","63,1",,,"MET069METAR EGEO 261550Z 19011KT 170V230 3000 RA BKN002 OVC008 15/14 Q1004;",
"03114099999","2010-10-27T06:50:00","4","56.417","-5.467","4.0","OBAN, UK","FM-15","EGEO ","V020","240,1,N,0093,1","99999,9,C,N","011265,1,N,1","+0110,1","+0080,1","99999,9","02,5,+00540,1,99,9","04,5,+00720,1,99,9",,,"04,99,1,99,9,99,9,99999,9,99,9,99,9",,"10010,1,99999,9","53,1",,,"MET061METAR EGEO 270650Z 24018KT 9999 DZ FEW018 SCT024 11/08 Q1001;","P01 007203SCOCIG"
"03114099999","2010-10-27T07:20:00","4","56.417","-5.467","4.0","OBAN, UK","FM-15","EGEO ","V020","240,1,N,0098,1","00780,1,C,N","011265,1,N,1","+0120,1","+0080,1","99999,9","02,5,+00420,1,99,9","07,5,+00780,1,99,9","07,5,+01050,1,09,5",,"07,99,1,99,9,99,9,99999,9,99,9,99,9",,"10020,1,99999,9",,,,"MET067METAR EGEO 270720Z 24019KT 9999 FEW014 BKN026 BKN035CB 12/08 Q1002;",
"03114099999","2010-10-27T07:50:00","4","56.417","-5.467","4.0","OBAN, UK","FM-15","EGEO ","V020","240,1,N,0098,1","00720,1,C,N","011265,1,N,1","+0120,1","+0080,1","99999,9","02,5,+00360,1,99,9","07,5,+00720,1,09,5",,,"07,99,1,99,9,99,9,99999,9,99,9,99,9",,"10020,1,99999,9",,,,"MET060METAR EGEO 270750Z 24019KT 9999 FEW012 BKN024CB 12/08 Q1002;",
"03114099999","2010-10-27T08:20:00","4","56.417","-5.467","4.0","OBAN, UK","FM-15","EGEO ","V020","230,1,N,0072,1","99999,9,C,N","011265,1,N,1","+0120,1","+0080,1","99999,9","02,5,+00480,1,99,9","04,5,+00720,1,99,9",,,"04,99,1,99,9,99,9,99999,9,99,9,99,9",,"10020,1,99999,9","61,1",,,"MET062METAR EGEO 270820Z 23014KT 9999 -RA FEW016 SCT024 12/08 Q1002;","P01 007203SCOCIG"
"03114099999","2010-10-27T08:50:00","4","56.417","-5.467","4.0","OBAN, UK","FM-15","EGEO ","V020","240,1,N,0087,1","22000,1,9,N","011265,1,N,1","+9999,9","+9999,9","99999,9","02,5,+00480,1,99,9",,,,"02,99,1,99,9,99,9,99999,9,99,9,99,9",,,,,"0144,1","MET062METAR EGEO 270850Z 24017G28KT 9999 FEW016 SCT 026 12/08 Q1002;",
"03114099999","2010-10-27T09:20:00","4","56.417","-5.467","4.0","OBAN, UK","FM-15","EGEO ","V020","240,1,N,0093,1","99999,9,C,N","011265,1,N,1","+0120,1","+0080,1","99999,9","02,5,+00720,1,09,1","04,5,+00900,1,99,9",,,"04,99,1,99,9,99,9,99999,9,99,9,99,9",,"10031,1,99999,9",,,,"MET060METAR EGEO 270920Z 24018KT 9999 FEW024CB SCT030 12/08 Q1003;","P01 009003SCOCIG"
"03114099999","2010-10-27T09:50:00","4","56.417","-5.467","4.0","OBAN, UK","FM-15","EGEO ","V020","230,1,N,0072,1","99999,9,C,N","011265,1,N,1","+0120,1","+0080,1","99999,9","02,5,+00540,1,99,9","04,5,+00810,1,99,9",,,"04,99,1,99,9,99,9,99999,9,99,9,99,9",,"10031,1,99999,9",,,,"MET058METAR EGEO 270950Z 23014KT 9999 FEW018 SCT027 12/08 Q1003;","P01 008103SCOCIG"
"03114099999","2010-10-27T10:20:00","4","56.417","-5.467","4.0","OBAN, UK","FM-15","EGEO ","V020","230,1,N,0072,1","99999,9,C,N","011265,1,N,1","+0120,1","+0070,1","99999,9","04,5,+00780,1,99,9","04,5,+01050,1,99,9",,,"04,99,1,99,9,99,9,99999,9,99,9,99,9",,"10041,1,99999,9",,,"0129,1","MET061METAR EGEO 271020Z 23014G25KT 9999 SCT026 SCT035 12/07 Q1004;","P01 010503SCOCIG"
"03114099999","2010-10-27T10:50:00","4","56.417","-5.467","4.0","OBAN, UK","FM-15","EGEO ","V020","250,1,N,0087,1","99999,9,C,N","011265,1,N,1","+0120,1","+0070,1","99999,9","04,5,+00720,1,99,9","04,5,+00900,1,99,9",,,"04,99,1,99,9,99,9,99999,9,99,9,99,9",,"10041,1,99999,9","16,1",,"0144,1","MET066METAR EGEO 271050Z 25017G28KT 9999 VCSH SCT024 SCT030 12/07 Q1004;","P01 009003SCOCIG"
"03114099999","2010-10-27T11:20:00","4","56.417","-5.467","4.0","OBAN, UK","FM-15","EGEO ","V020","240,1,N,0093,1","99999,9,C,N","011265,1,N,1","+0120,1","+0070,1","99999,9","02,5,+00540,1,99,9","04,5,+00840,1,99,9",,,"04,99,1,99,9,99,9,99999,9,99,9,99,9",,"10041,1,99999,9",,,,"MET058METAR EGEO 271120Z 24018KT 9999 FEW018 SCT028 12/07 Q1004;","P01 008403SCOCIG"
"03114099999","2010-10-27T11:50:00","4","56.417","-5.467","4.0","OBAN, UK","FM-15","EGEO ","V020","250,1,N,0067,1","99999,9,C,N","011265,1,N,1","+0120,1","+0070,1","99999,9","02,5,+00510,1,99,9","04,5,+00840,1,99,9",,,"04,99,1,99,9,99,9,99999,9,99,9,99,9",,"10041,1,99999,9",,,,"MET058METAR EGEO 271150Z 25013KT 9999 FEW017 SCT028 12/07 Q1004;","P01 008403SCOCIG"
"03114099999","2010-10-27T12:20:00","4","56.417","-5.467","4.0","OBAN, UK","FM-15","EGEO ","V020","240,1,N,0067,1","99999,9,C,N","011265,1,N,1","+0120,1","+0070,1","99999,9","04,5,+00600,1,99,9","04,5,+00780,1,99,9",,,"04,99,1,99,9,99,9,99999,9,99,9,99,9",,"10041,1,99999,9","61,1",,,"MET062METAR EGEO 271220Z 24013KT 9999 -RA SCT020 SCT026 12/07 Q1004;","P01 007803SCOCIG"
"03114099999","2010-10-27T12:50:00","4","56.417","-5.467","4.0","OBAN, UK","FM-15","EGEO ","V020","240,1,N,0082,1","22000,1,9,N","011265,1,N,1","+0130,1","+0080,1","99999,9","02,5,+00600,1,99,9","02,5,+00840,1,09,5",,,"02,99,1,99,9,99,9,99999,9,99,9,99,9",,"10041,1,99999,9",,,,"MET060METAR EGEO 271250Z 24016KT 9999 FEW020 FEW028CB 13/08 Q1004;",
"03114099999","2010-10-27T13:20:00","4","56.417","-5.467","4.0","OBAN, UK","FM-15","EGEO ","V020","230,1,N,0067,1","22000,1,C,N","011265,1,N,1","+0130,1","+0080,1","99999,9","02,5,+00600,1,99,9","07,5,+00780,1,09,5","02,5,+01050,1,09,5",,,,"10041,1,99999,9",,,,"MET069METAR EGEO 271320Z 23013KT 9999 FEW020 BKN026CB FEW035CB 13/08 Q1004;","Q01+000022SCOTCV"
"03114099999","2010-10-27T13:50:00","4","56.417","-5.467","4.0","OBAN, UK","FM-15","EGEO ","V020","230,1,N,0077,1","22000,1,9,N","011265,1,N,1","+0130,1","+0070,1","99999,9","02,5,+00600,1,99,9","02,5,+00720,1,09,5",,,"02,99,1,99,9,99,9,99999,9,99,9,99,9",,"10041,1,99999,9","16,1",,,"MET065METAR EGEO 271350Z 23015KT 9999 VCSH FEW020 FEW024CB 13/07 Q1004;",
"03114099999","2010-10-27T14:20:00","4","56.417","-5.467","4.0","OBAN, UK","FM-15","EGEO ","V020","230,1,N,0067,1","99999,9,C,N","011265,1,N,1","+0130,1","+0080,1","99999,9","02,5,+00600,1,99,9","04,5,+00780,1,99,9",,,"04,99,1,99,9,99,9,99999,9,99,9,99,9",,"10041,1,99999,9",,,,"MET058METAR EGEO 271420Z 23013KT 9999 FEW020 SCT026 13/08 Q1004;","P01 007803SCOCIG"
"03114099999","2010-10-27T14:50:00","4","56.417","-5.467","4.0","OBAN, UK","FM-15","EGEO ","V020","230,1,N,0062,1","22000,1,9,N","011265,1,N,1","+0130,1","+0080,1","99999,9","02,5,+00660,1,99,9",,,,"02,99,1,99,9,99,9,99999,9,99,9,99,9",,"10041,1,99999,9",,,,"MET051METAR EGEO 271450Z 23012KT 9999 FEW022 13/08 Q1004;",
"03114099999","2010-10-27T15:20:00","4","56.417","-5.467","4.0","OBAN, UK","FM-15","EGEO ","V020","230,1,N,0051,1","99999,9,C,N","011265,1,N,1","+0100,1","+0070,1","99999,9","02,5,+00660,1,99,9","04,5,+00840,1,99,9",,,"04,99,1,99,9,99,9,99999,9,99,9,99,9",,"10031,1,99999,9",,,,"MET058METAR EGEO 271520Z 23010KT 9999 FEW022 SCT028 10/07 Q1003;","P01 008403SCOCIG"
"03114099999","2010-10-27T15:50:00","4","56.417","-5.467","4.0","OBAN, UK","FM-15","EGEO ","V020","190,1,N,0026,1","99999,9,C,N","011265,1,N,1","+0110,1","+0080,1","99999,9","02,5,+00600,1,99,9","04,5,+00720,1,99,9",,,"04,99,1,99,9,99,9,99999,9,99,9,99,9",,"10031,1,99999,9",,,,"MET066METAR EGEO 271550Z 19005KT 160V220 9999 FEW020 SCT024 11/08 Q1003;","P01 007203SCOCIG"
"03114099999","2010-10-28T06:50:00","4","56.417","-5.467","4.0","OBAN, UK","FM-15","EGEO ","V020","220,1,N,0051,1","99999,9,C,N","011265,1,N,1","+0100,1","+0080,1","99999,9","04,5,+00600,1,99,9","04,5,+00840,1,99,9",,,"04,99,1,99,9,99,9,99999,9,99,9,99,9",,"10020,1,99999,9","63,1",,,"MET061METAR EGEO 280650Z 22010KT 9999 RA SCT020 SCT028 10/08 Q1002;","P01 008403SCOCIG"
"03114099999","2010-10-28T07:20:00","4","56.417","-5.467","4.0","OBAN, UK","FM-15","EGEO ","V020","190,1,N,0057,1","00780,1,C,N","011265,1,N,1","+0100,1","+0080,1","99999,9","04,5,+00660,1,99,9","07,5,+00780,1,99,9",,,"07,99,1,99,9,99,9,99999,9,99,9,99,9",,"10031,1,99999,9",,,,"MET058METAR EGEO 280720Z 19011KT 9999 SCT022 BKN026 10/08 Q1003;",
"03114099999","2010-10-28T07:50:00","4","56.417","-5.467","4.0","OBAN, UK","FM-15","EGEO ","V020","200,1,N,0072,1","00600,1,C,N","003000,1,N,1","+0100,1","+0080,1","99999,9","07,5,+00600,1,99,9",,,,"07,99,1,99,9,99,9,99999,9,99,9,99,9",,"10031,1,99999,9","63,1",,,"MET054METAR EGEO 280750Z 20014KT 3000 RA BKN020 10/08 Q1003;",
"03114099999","2010-10-28T08:20:00","4","56.417","-5.467","4.0","OBAN, UK","FM-15","EGEO ","V020","200,1,N,0067,1","99999,9,C,N","011265,1,N,1","+0100,1","+0070,1","99999,9","02,5,+00540,1,99,9","04,5,+00720,1,99,9",,,"04,99,1,99,9,99,9,99999,9,99,9,99,9",,"10031,1,99999,9",,,,"MET058METAR EGEO 280820Z 20013KT 9999 FEW018 SCT024 10/07 Q1003;","P01 007203SCOCIG"
"03114099999","2010-10-28T08:50:00","4","56.417","-5.467","4.0","OBAN, UK","FM-15","EGEO ","V020","190,1,N,0057,1","99999,9,C,N","011265,1,N,1","+0100,1","+0080,1","99999,9","02,5,+00660,1,99,9","04,5,+00900,1,99,9",,,"04,99,1,99,9,99,9,99999,9,99,9,99,9",,"10031,1,99999,9",,,,"MET066METAR EGEO 280850Z 19011KT 150V220 9999 FEW022 SCT030 10/08 Q1003;","P01 009003SCOCIG"
"03114099999","2010-10-28T09:20:00","4","56.417","-5.467","4.0","OBAN, UK","FM-15","EGEO ","V020","190,1,N,0072,1","00900,1,C,N","011265,1,N,1","+0110,1","+0080,1","99999,9","02,5,+00660,1,99,9","07,5,+00900,1,99,9",,,"07,99,1,99,9,99,9,99999,9,99,9,99,9",,"10031,1,99999,9","61,1",,,"MET062METAR EGEO 280920Z 19014KT 9999 -RA FEW022 BKN030 11/08 Q1003;",
"03114099999","2010-10-28T09:50:00","4","56.417","-5.467","4.0","OBAN, UK","FM-15","EGEO ","V020","190,1,N,0082,1","00780,1,C,N","011265,1,N,1","+0110,1","+0080,1","99999,9","02,5,+00660,1,99,9","07,5,+00780,1,99,9",,,"07,99,1,99,9,99,9,99999,9,99,9,99,9",,"10031,1,99999,9","61,1",,,"MET062METAR EGEO 280950Z 19016KT 9999 -RA FEW022 BKN026 11/08 Q1003;",
"03114099999","2010-10-28T10:20:00","4","56.417","-5.467","4.0","OBAN, UK","FM-15","EGEO ","V020","190,1,N,0067,1","00840,1,C,N","011265,1,N,1","+0110,1","+0080,1","99999,9","02,5,+00660,1,99,9","07,5,+00840,1,99,9",,,"07,99,1,99,9,99,9,99999,9,99,9,99,9",,"10031,1,99999,9","61,1",,,"MET062METAR EGEO 281020Z 19013KT 9999 -RA FEW022 BKN028 11/08 Q1003;",
"03114099999","2010-10-28T10:50:00","4","56.417","-5.467","4.0","OBAN, UK","FM-15","EGEO ","V020","180,1,N,0057,1","99999,9,C,N","011265,1,N,1","+0110,1","+0080,1","99999,9","02,5,+00750,1,99,9","04,5,+00900,1,99,9",,,"04,99,1,99,9,99,9,99999,9,99,9,99,9",,"10031,1,99999,9",,,,"MET058METAR EGEO 281050Z 18011KT 9999 FEW025 SCT030 11/08 Q1003;","P01 009003SCOCIG"
"03114099999","2010-10-28T11:20:00","4","56.417","-5.467","4.0","OBAN, UK","FM-15","EGEO ","V020","180,1,N,0057,1","00660,1,C,N","011265,1,N,1","+0100,1","+0090,1","99999,9","02,5,+00240,1,99,9","04,5,+00660,1,99,9","07,5,+00960,1,99,9",,"07,99,1,99,9,99,9,99999,9,99,9,99,9",,"10031,1,99999,9","61,1",,,"MET069METAR EGEO 281120Z 18011KT 9999 -RA FEW008 SCT022 BKN032 10/09 Q1003;",
"03114099999","2010-10-28T11:50:00","4","56.417","-5.467","4.0","OBAN, UK","FM-15","EGEO ","V020","180,1,N,0057,1","00900,1,C,N","011265,1,N,1","+0110,1","+0090,1","99999,9","02,5,+00420,1,99,9","07,5,+00900,1,99,9",,,"07,99,1,99,9,99,9,99999,9,99,9,99,9",,"10031,1,99999,9","61,1",,,"MET062METAR EGEO 281150Z 18011KT 9999 -RA FEW014 BKN030 11/09 Q1003;",
"03114099999","2010-10-28T12:20:00","4","56.417","-5.467","4.0","OBAN, UK","FM-15","EGEO ","V020","180,1,N,0051,1","00840,1,C,N","011265,1,N,1","+0110,1","+0090,1","99999,9","02,5,+00420,1,99,9","07,5,+00840,1,99,9",,,"07,99,1,99,9,99,9,99999,9,99,9,99,9",,"10031,1,99999,9","61,1",,,"MET062METAR EGEO 281220Z 18010KT 9999 -RA FEW014 BKN028 11/09 Q1003;",
"03114099999","2010-10-28T12:50:00","4","56.417","-5.467","4.0","OBAN, UK","FM-15","EGEO ","V020","190,1,N,0067,1","00720,1,C,N","011265,1,N,1","+0110,1","+0080,1","99999,9","02,5,+00300,1,99,9","07,5,+00720,1,99,9",,,"07,99,1,99,9,99,9,99999,9,99,9,99,9",,"10020,1,99999,9",,,,"MET058METAR EGEO 281250Z 19013KT 9999 FEW010 BKN024 11/08 Q1002;",
"03114099999","2010-10-28T13:20:00","4","56.417","-5.467","4.0","OBAN, UK","FM-15","EGEO ","V020","180,1,N,0051,1","00660,1,C,N","011265,1,N,1","+0110,1","+0080,1","99999,9","02,5,+00360,1,99,9","07,5,+00660,1,99,9",,,"07,99,1,99,9,99,9,99999,9,99,9,99,9",,"10020,1,99999,9","61,1",,,"MET062METAR EGEO 281320Z 18010KT 9999 -RA FEW012 BKN022 11/08 Q1002;",
"03114099999","2010-10-28T14:20:00","4","56.417","-5.467","4.0","OBAN, UK","FM-15","EGEO ","V020","150,1,N,0041,1","00720,1,C,N","011265,1,N,1","+0100,1","+0080,1","99999,9","02,5,+00360,1,99,9","07,5,+00720,1,99,9",,,"07,99,1,99,9,99,9,99999,9,99,9,99,9",,"10010,1,99999,9",,,,"MET058METAR EGEO 281420Z 15008KT 9999 FEW012 BKN024 10/08 Q1001;",
"03114099999","2010-10-28T14:50:00","4","56.417","-5.467","4.0","OBAN, UK","FM-15","EGEO ","V020","130,1,N,0031,1","22000,1,9,N","011265,1,N,1","+0100,1","+0070,1","99999,9","04,5,+00600,1,99,9","07,1,+00750,1,99,9",,,"07,99,1,99,9,99,9,99999,9,99,9,99,9",,"10000,1,99999,9",,,,"MET057METAR EGEO 281450Z 13006KT 9999 SCT020 BKN02510/07 Q1000;",
"03114099999","2010-10-28T15:20:00","4","56.417","-5.467","4.0","OBAN, UK","FM-15","EGEO ","V020","140,1,N,0046,1","00660,1,C,N","011265,1,N,1","+0100,1","+0080,1","99999,9","04,5,+00540,1,99,9","07,5,+00660,1,99,9",,,"07,99,1,99,9,99,9,99999,9,99,9,99,9",,"10010,1,99999,9","61,1",,,"MET062METAR EGEO 281520Z 14009KT 9999 -RA SCT018 BKN022 10/08 Q1001;",
"03114099999","2010-10-28T15:50:00","4","56.417","-5.467","4.0","OBAN, UK","FM-15","EGEO ","V020","140,1,N,0051,1","00750,1,C,N","011265,1,N,1","+0100,1","+0080,1","99999,9","04,5,+00600,1,99,9","07,5,+00750,1,99,9",,,"07,99,1,99,9,99,9,99999,9,99,9,99,9",,"09990,1,99999,9","61,1",,,"MET062METAR EGEO 281550Z 14010KT 9999 -RA SCT020 BKN025 10/08 Q0999;",
"03114099999","2010-11-01T10:50:00","4","56.417","-5.467","4.0","OBAN, UK","FM-15","EGEO ","V020","130,1,N,0062,1","22000,1,9,N","011265,1,N,1","+0090,1","+0050,1","99999,9","04,5,+00600,1,99,9",,,,"04,99,1,99,9,99,9,99999,9,99,9,99,9",,"10081,1,99999,9",,,,"MET051METAR EGEO 011050Z 13012KT 9999 SCT020 09/05 Q1008;",
"03114099999","2010-11-01T11:20:00","4","56.417","-5.467","4.0","OBAN, UK","FM-15","EGEO ","V020","140,1,N,0062,1","00840,1,C,N","011265,1,N,1","+0090,1","+0060,1","99999,9","04,5,+00540,1,99,9","07,5,+00840,1,99,9",,,"07,99,1,99,9,99,9,99999,9,99,9,99,9",,"10081,1,99999,9",,,,"MET058METAR EGEO 011120Z 14012KT 9999 SCT018 BKN028 09/06 Q1008;",
"03114099999","2010-11-01T11:50:00","4","56.417","-5.467","4.0","OBAN, UK","FM-15","EGEO ","V020","999,9,9,9999,9","00840,5,9,N","999999,9,N,1","+9999,9","+9999,9","99999,9","04,5,+00480,5,99,9","07,5,+00840,5,99,9",,,,,,,,,"MET053METAR EGEO 011150Z 13012KT SCT016 BKN028 09/06 Q1007;",
"03114099999","2010-11-01T12:20:00","4","56.417","-5.467","4.0","OBAN, UK","FM-15","EGEO ","V020","999,9,9,9999,9","00840,5,9,N","999999,9,N,1","+9999,9","+9999,9","99999,9","04,5,+00480,5,99,9","07,5,+00840,5,99,9",,,,,,,,,"MET058METAR EGEO 011220Z 13015KT VCSH SCT016 BKN028 10/06 Q1006;",
"03114099999","2010-11-01T12:50:00","4","56.417","-5.467","4.0","OBAN, UK","FM-15","EGEO ","V020","999,9,9,9999,9","00750,1,C,N","011265,1,N,1","+0100,1","+0060,1","99999,9","04,5,+00480,1,99,9","07,5,+00750,1,99,9",,,"07,99,1,99,9,99,9,99999,9,99,9,99,9",,"10051,1,99999,9","61,1",,,"MET054METAR EGEO 011250Z 9999 -RA SCT016 BKN025 10/06 Q1005;",
"03114099999","2010-11-01T13:20:00","4","56.417","-5.467","4.0","OBAN, UK","FM-15","EGEO ","V020","999,9,9,9999,9","00660,5,9,N","999999,9,N,1","+9999,9","+9999,9","99999,9","04,5,+00420,5,99,9","07,5,+00660,5,99,9",,,,,,,,,"MET060METAR EGEO 011320Z 14014G24KT -RA SCT014 BKN022 10/06 Q1004;",
"03114099999","2010-11-01T13:50:00","4","56.417","-5.467","4.0","OBAN, UK","FM-15","EGEO ","V020","140,1,N,0077,1","00420,1,C,N","008000,1,N,1","+0100,1","+0060,1","99999,9","07,5,+00420,1,99,9",,,,"07,99,1,99,9,99,9,99999,9,99,9,99,9",,"10031,1,99999,9","61,1",,,"MET055METAR EGEO 011350Z 14015KT 8000 -RA BKN014 10/06 Q1003;",
"03114099999","2010-11-01T14:20:00","4","56.417","-5.467","4.0","OBAN, UK","FM-15","EGEO ","V020","140,1,N,0093,1","00420,1,C,N","008000,1,N,1","+0100,1","+0070,1","99999,9","04,5,+00360,1,99,9","07,5,+00420,1,99,9",,,"07,99,1,99,9,99,9,99999,9,99,9,99,9",,"10020,1,99999,9","63,1",,,"MET061METAR EGEO 011420Z 14018KT 8000 RA SCT012 BKN014 10/07 Q1002;",
"03114099999","2010-11-01T14:50:00","4","56.417","-5.467","4.0","OBAN, UK","FM-15","EGEO ","V020","150,1,N,0077,1","00360,1,C,N","006000,1,N,1","+0100,1","+0070,1","99999,9","07,5,+00360,1,99,9","07,5,+00480,1,99,9",,,"07,99,1,99,9,99,9,99999,9,99,9,99,9",,"10010,1,99999,9","63,1",,"0144,1","MET064METAR EGEO 011450Z 15015G28KT 6000 RA BKN012 BKN016 10/07 Q1001;",
"03114099999","2010-11-01T15:50:00","4","56.417","-5.467","4.0","OBAN, UK","FM-15","EGEO ","V020","130,1,N,0077,1","00300,1,C,N","004000,1,N,1","+0100,1","+0080,1","99999,9","07,5,+00300,1,99,9","07,5,+00420,1,99,9",,,"07,99,1,99,9,99,9,99999,9,99,9,99,9",,"10010,1,99999,9","65,1",,,"MET062METAR EGEO 011550Z 13015KT 4000 +RA BKN010 BKN014 10/08 Q1001;",
"03114099999","2010-11-01T16:20:00","4","56.417","-5.467","4.0","OBAN, UK","FM-15","EGEO ","V020","140,1,N,0118,1","00330,1,C,N","004000,1,N,1","+0100,1","+0080,1","99999,9","07,5,+00330,1,99,9","07,5,+00420,1,99,9",,,"07,99,1,99,9,99,9,99999,9,99,9,99,9",,"09980,1,99999,9","63,1",,,"MET061METAR EGEO 011620Z 14023KT 4000 RA BKN011 BKN014 10/08 Q0998;",
"03114099999","2010-11-01T16:50:00","4","56.417","-5.467","4.0","OBAN, UK","FM-15","EGEO ","V020","999,9,9,9999,9","00360,5,9,N","999999,9,N,1","+9999,9","+9999,9","99999,9","07,5,+00360,5,99,9",,,,,,,,,,"MET046METAR EGEO 011650Z 14018KT BKN012 10/08 Q0997;",
"03114099999","2010-11-02T09:50:00","4","56.417","-5.467","4.0","OBAN, UK","FM-15","EGEO ","V020","999,9,9,9999,9","00840,5,9,N","011265,1,N,1","+9999,9","+9999,9","99999,9","04,5,+00600,5,99,9","07,5,+00840,5,99,9",,,,,,,,,"MET067METAR EGEO 020950Z 020950Z23018 9999 -RA SCT020 BKN028 11/08 Q0993;",
"03114099999","2010-11-02T10:20:00","4","56.417","-5.467","4.0","OBAN, UK","FM-15","EGEO ","V020","220,1,N,0093,1","99999,9,C,N","011265,1,N,1","+0110,1","+0080,1","99999,9","02,5,+00720,1,99,9","04,5,+00900,1,99,9",,,"04,99,1,99,9,99,9,99999,9,99,9,99,9",,"09929,1,99999,9","16,1",,,"MET068METAR EGEO 021020Z 22018KT 9999 VCSH FEW024 SCT030 11/08 Q0993 RERA;","P01 009003SCOCIG"
"03114099999","2010-11-02T10:50:00","4","56.417","-5.467","4.0","OBAN, UK","FM-15","EGEO ","V020","230,1,N,0185,1","99999,9,C,N","011265,1,N,1","+0120,1","+0080,1","99999,9","04,5,+00420,1,99,9","04,5,+00900,1,99,9",,,"04,99,1,99,9,99,9,99999,9,99,9,99,9",,"09919,1,99999,9",,,,"MET058METAR EGEO 021050Z 23036KT 9999 SCT014 SCT030 12/08 Q0992;","P01 009003SCOCIG"
"03114099999","2010-11-02T11:20:00","4","56.417","-5.467","4.0","OBAN, UK","FM-15","EGEO ","V020","230,1,N,0123,1","00660,1,C,N","011265,1,N,1","+0100,1","+0080,1","99999,9","04,5,+00420,1,99,9","07,5,+00660,1,09,5",,,"07,99,1,99,9,99,9,99999,9,99,9,99,9",,"09919,1,99999,9","16,1",,,"MET065METAR EGEO 021120Z 23024KT 9999 VCSH SCT014 BKN022CB 10/08 Q0992;",
"03114099999","2010-11-02T11:50:00","4","56.417","-5.467","4.0","OBAN, UK","FM-15","EGEO ","V020","230,1,N,0139,1","00750,5,9,N","999999,9,N,1","+0130,1","+0070,1","99999,9","04,5,+00420,5,99,9","07,5,+00750,5,09,5",,,,,"09920,1,99999,9",,,,"MET060METAR EGEO 021150Z 23027KT VCSH SCT014 BKN025CB 13/07 Q0992;",
"03114099999","2010-11-02T12:20:00","4","56.417","-5.467","4.0","OBAN, UK","FM-15","EGEO ","V020","999,9,9,9999,9","00600,5,9,N","011265,1,N,1","+9999,9","+9999,9","99999,9","04,5,+00420,5,99,9","07,5,+00600,5,09,5",,,,,"09920,1,99999,9",,,,"MET061METAR EGEO 021220Z 25020G43 9999 +SHRA SCT014 BKN020CB Q0992;",
"03114099999","2010-11-02T12:50:00","4","56.417","-5.467","4.0","OBAN, UK","FM-15","EGEO ","V020","230,1,N,0159,1","00600,1,C,N","011265,1,N,1","+0120,1","+0080,1","99999,9","04,5,+00420,1,99,9","07,5,+00600,1,09,5",,,"07,99,1,99,9,99,9,99999,9,99,9,99,9",,"09919,1,99999,9","82,1",,,"MET066METAR EGEO 021250Z 23031KT 9999 +SHRA SCT014 BKN020CB 12/08 Q0992;",
"03114099999","2010-11-02T13:20:00","4","56.417","-5.467","4.0","OBAN, UK","FM-15","EGEO ","V020","999,9,9,9999,9","00420,5,9,N","999999,9,N,1","+0120,1","+0080,1","99999,9","07,5,+00420,5,09,5",,,,,,"09920,1,99999,9",,,,"MET054METAR EGEO 021320Z 23022G37 7000 BKN014CB 12/08 Q0992;",
"03114099999","2010-11-02T13:50:00","4","56.417","-5.467","4.0","OBAN, UK","FM-15","EGEO ","V020","220,1,N,0072,1","00600,1,C,N","011265,1,N,1","+0120,1","+0080,1","99999,9","04,5,+00420,1,99,9","07,5,+00600,1,09,5",,,"07,99,1,99,9,99,9,99999,9,99,9,99,9",,"09919,1,99999,9","82,1",,"0149,1","MET069METAR EGEO 021350Z 22014G29KT 9999 +SHRA SCT014 BKN020CB 12/08 Q0992;",
"03114099999","2010-11-02T14:20:00","4","56.417","-5.467","4.0","OBAN, UK","FM-15","EGEO ","V020","230,1,N,0144,1","00660,1,C,N","006000,1,N,1","+0120,1","+0080,1","99999,9","04,5,+00420,1,99,9","07,5,+00660,1,09,5",,,"07,99,1,99,9,99,9,99999,9,99,9,99,9",,"09909,1,99999,9","82,1",,,"MET066METAR EGEO 021420Z 23028KT 6000 +SHRA SCT014 BKN022CB 12/08 Q0991;",
"03114099999","2010-11-02T14:50:00","4","56.417","-5.467","4.0","OBAN, UK","FM-15","EGEO ","V020","250,1,N,0098,1","22000,1,9,N","011265,1,N,1","+0110,1","+0070,1","99999,9","04,5,+00660,1,99,9",,,,"04,99,1,99,9,99,9,99999,9,99,9,99,9",,"09909,1,99999,9",,,,"MET051METAR EGEO 021450Z 25019KT 9999 SCT022 11/07 Q0991;",
"03114099999","2010-11-02T15:20:00","4","56.417","-5.467","4.0","OBAN, UK","FM-15","EGEO ","V020","220,1,N,0072,1","00750,1,C,N","011265,1,N,1","+0110,1","+0080,1","99999,9","04,5,+00540,1,99,9","07,5,+00750,1,09,5",,,"07,99,1,99,9,99,9,99999,9,99,9,99,9",,"09909,1,99999,9","16,1",,,"MET065METAR EGEO 021520Z 22014KT 9999 VCSH SCT018 BKN025CB 11/08 Q0991;",
"03114099999","2010-11-02T15:50:00","4","56.417","-5.467","4.0","OBAN, UK","FM-15","EGEO ","V020","230,1,N,0077,1","00540,1,C,N","011265,1,N,1","+0120,1","+0080,1","99999,9","04,5,+00360,1,99,9","07,5,+00540,1,09,5",,,"07,99,1,99,9,99,9,99999,9,99,9,99,9",,"09909,1,99999,9","16,1",,,"MET065METAR EGEO 021550Z 23015KT 9999 VCSH SCT012 BKN018CB 12/08 Q0991;",
"03114099999","2010-11-02T16:20:00","4","56.417","-5.467","4.0","OBAN, UK","FM-15","EGEO ","V020","230,1,N,0134,1","00540,1,C,N","011265,1,N,1","+0120,1","+0080,1","99999,9","04,5,+00420,1,99,9","07,5,+00540,1,09,5",,,"07,99,1,99,9,99,9,99999,9,99,9,99,9",,"09909,1,99999,9","16,1",,,"MET065METAR EGEO 021620Z 23026KT 9999 VCSH SCT014 BKN018CB 12/08 Q0991;",
"03114099999","2010-11-02T16:50:00","4","56.417","-5.467","4.0","OBAN, UK","FM-15","EGEO ","V020","230,1,N,0072,1","00540,1,C,N","011265,1,N,1","+0120,1","+0080,1","99999,9","07,5,+00540,1,09,1",,,,"07,99,1,99,9,99,9,99999,9,99,9,99,9",,"09898,1,99999,9","16,1",,,"MET059METAR EGEO 021650Z 23014KT 9999 VCSH BKN018CB 12/08 Q09901;",
"03114099999","2010-11-03T07:50:00","4","56.417","-5.467","4.0","OBAN, UK","FM-15","EGEO ","V020","260,1,N,0072,1","99999,9,C,N","011265,1,N,1","+0090,1","+0050,1","99999,9","04,5,+00690,1,99,9","04,5,+00900,1,99,9",,,"04,99,1,99,9,99,9,99999,9,99,9,99,9",,"10010,1,99999,9",,,,"MET063METAR EGEO 030750Z 26014KT 9999 SCT023 SCT030 09/05 Q1001 RERA;","P01 009003SCOCIG"
"03114099999","2010-11-03T08:20:00","4","56.417","-5.467","4.0","OBAN, UK","FM-15","EGEO ","V020","250,1,N,0077,1","99999,9,C,N","011265,1,N,1","+0090,1","+0050,1","99999,9","04,5,+00660,1,99,9","04,5,+00780,1,99,9",,,"04,99,1,99,9,99,9,99999,9,99,9,99,9",,"10010,1,99999,9",,,"0134,1","MET061METAR EGEO 030820Z 25015G26KT 9999 SCT022 SCT026 09/05 Q1001;","P01 007803SCOCIG"
"03114099999","2010-11-03T08:50:00","4","56.417","-5.467","4.0","OBAN, UK","FM-15","EGEO ","V020","240,1,N,0051,1","99999,9,C,N","011265,1,N,1","+0090,1","+0050,1","99999,9","02,5,+00840,1,99,9","04,5,+01050,1,99,9",,,"04,99,1,99,9,99,9,99999,9,99,9,99,9",,"10020,1,99999,9",,,,"MET058METAR EGEO 030850Z 24010KT 9999 FEW028 SCT035 09/05 Q1002;","P01 010503SCOCIG"
"03114099999","2010-11-03T09:20:00","4","56.417","-5.467","4.0","OBAN, UK","FM-15","EGEO ","V020","250,1,N,0067,1","99999,9,C,N","011265,1,N,1","+0100,1","+0040,1","99999,9","02,5,+00840,1,99,9","04,5,+01080,1,99,9",,,"04,99,1,99,9,99,9,99999,9,99,9,99,9",,"10020,1,99999,9",,,,"MET058METAR EGEO 030920Z 25013KT 9999 FEW028 SCT036 10/04 Q1002;","P01 010803SCOCIG"
"03114099999","2010-11-03T09:50:00","4","56.417","-5.467","4.0","OBAN, UK","FM-15","EGEO ","V020","260,1,N,0046,1","99999,9,C,N","011265,1,N,1","+0100,1","+0040,1","99999,9","02,5,+00780,1,99,9","04,5,+00960,1,99,9",,,"04,99,1,99,9,99,9,99999,9,99,9,99,9",,"10020,1,99999,9",,,,"MET058METAR EGEO 030950Z 26009KT 9999 FEW026 SCT032 10/04 Q1002;","P01 009603SCOCIG"
"03114099999","2010-11-03T10:20:00","4","56.417","-5.467","4.0","OBAN, UK","FM-15","EGEO ","V020","270,1,N,0082,1","99999,9,C,N","011265,1,N,1","+0090,1","+0050,1","99999,9","04,5,+00660,1,99,9","04,5,+00960,1,99,9",,,"04,99,1,99,9,99,9,99999,9,99,9,99,9",,"10031,1,99999,9","63,1",,"0139,1","MET064METAR EGEO 031020Z 27016G27KT 9999 RA SCT022 SCT032 09/05 Q1003;","P01 009603SCOCIG"
"03114099999","2010-11-03T10:50:00","4","56.417","-5.467","4.0","OBAN, UK","FM-15","EGEO ","V020","250,1,N,0041,1","99999,9,C,N","011265,1,N,1","+0090,1","+0050,1","99999,9","02,5,+00600,1,99,9","04,5,+01050,1,99,9",,,"04,99,1,99,9,99,9,99999,9,99,9,99,9",,"10031,1,99999,9",,,,"MET063METAR EGEO 031050Z 25008KT 9999 FEW020 SCT035 09/05 Q1003 RERA;","P01 010503SCOCIG"
"03114099999","2010-11-03T16:20:00","4","56.417","-5.467","4.0","OBAN, UK","FM-15","EGEO ","V020","210,1,N,0026,1","99999,9,C,N","011265,1,N,1","+0090,1","+0060,1","99999,9","02,5,+00540,1,99,9","04,5,+00750,1,99,9",,,"04,99,1,99,9,99,9,99999,9,99,9,99,9",,"10041,1,99999,9",,,,"MET058METAR EGEO 031620Z 21005KT 9999 FEW018 SCT025 09/06 Q1004;","P01 007503SCOCIG"
"03114099999","2010-11-03T16:50:00","4","56.417","-5.467","4.0","OBAN, UK","FM-15","EGEO ","V020","300,1,N,0046,1","99999,9,C,N","011265,1,N,1","+0100,1","+0060,1","99999,9","04,5,+00540,1,99,9","04,5,+00750,1,99,9",,,"04,99,1,99,9,99,9,99999,9,99,9,99,9",,"10041,1,99999,9",,,,"MET058METAR EGEO 031650Z 30009KT 9999 SCT018 SCT025 10/06 Q1004;","P01 007503SCOCIG"
"03114099999","2010-11-04T07:50:00","4","56.417","-5.467","4.0","OBAN, UK","FM-15","EGEO ","V020","110,1,N,0015,1","00540,1,C,N","003000,1,N,1","+0070,1","+0060,1","99999,9","08,5,+00540,1,99,9",,,,"08,99,1,99,9,99,9,99999,9,99,9,99,9",,"10031,1,99999,9","10,1","53,1",,"MET057METAR EGEO 040750Z 11003KT 3000 DZ BR OVC018 07/06 Q1003;",
"03114099999","2010-11-04T08:20:00","4","56.417","-5.467","4.0","OBAN, UK","FM-15","EGEO ","V020","090,1,N,0021,1","00300,5,9,N","999999,9,N,1","+0070,1","+0060,1","99999,9","04,5,+00150,5,99,9","08,5,+00300,5,99,9",,,,,"10030,1,99999,9",,,,"MET072METAR EGEO 040820Z 09004KT 050V120 DZ BR 4000 SCT005 OVC010 07/06 Q1003;",
"03114099999","2010-11-04T08:50:00","4","56.417","-5.467","4.0","OBAN, UK","FM-15","EGEO ","V020","080,1,N,0021,1","00240,1,C,N","004000,1,N,1","+0070,1","+0060,1","99999,9","02,5,+00120,1,99,9","04,5,+00240,1,99,9","08,5,+00420,1,99,9",,"08,99,1,99,9,99,9,99999,9,99,9,99,9",,"10031,1,99999,9","10,1","53,1",,"MET071METAR EGEO 040850Z 08004KT 4000 DZ BR FEW004 SCT008 OVC014 07/06 Q1003;",
"03114099999","2010-11-04T09:20:00","4","56.417","-5.467","4.0","OBAN, UK","FM-15","EGEO ","V020","050,1,N,0021,1","00300,1,C,N","004000,1,N,1","+0070,1","+0060,1","99999,9","02,5,+00150,1,99,9","08,5,+00300,1,99,9",,,"08,99,1,99,9,99,9,99999,9,99,9,99,9",,"10031,1,99999,9","10,1","53,1",,"MET064METAR EGEO 040920Z 05004KT 4000 DZ BR FEW005 OVC010 07/06 Q1003;",
"03114099999","2010-11-04T09:50:00","4","56.417","-5.467","4.0","OBAN, UK","FM-15","EGEO ","V020","100,1,N,0036,1","00300,1,C,N","005000,1,N,1","+0080,1","+0070,1","99999,9","08,5,+00300,1,99,9",,,,"08,99,1,99,9,99,9,99999,9,99,9,99,9",,"10031,1,99999,9","10,1","61,1",,"MET058METAR EGEO 040950Z 10007KT 5000 -RA BR OVC010 08/07 Q1003;",
"03114099999","2010-11-04T10:20:00","4","56.417","-5.467","4.0","OBAN, UK","FM-15","EGEO ","V020","110,1,N,0026,1","00300,1,C,N","004000,1,N,1","+0090,1","+0080,1","99999,9","04,5,+00120,1,99,9","08,5,+00300,1,99,9",,,"08,99,1,99,9,99,9,99999,9,99,9,99,9",,"10020,1,99999,9","10,1","53,1",,"MET072METAR EGEO 041020Z 11005KT 100V170 4000 DZ BR SCT004 OVC010 09/08 Q1002;",
"03114099999","2010-11-04T10:50:00","4","56.417","-5.467","4.0","OBAN, UK","FM-15","EGEO ","V020","210,1,N,0010,1","00360,1,C,N","006000,1,N,1","+0090,1","+0080,1","99999,9","04,5,+00270,1,99,9","07,5,+00360,1,99,9","08,5,+00540,1,99,9",,"08,99,1,99,9,99,9,99999,9,99,9,99,9",,"10031,1,99999,9","10,1","53,1",,"MET071METAR EGEO 041050Z 21002KT 6000 DZ BR SCT009 BKN012 OVC018 09/08 Q1003;",
"03114099999","2010-11-04T11:20:00","4","56.417","-5.467","4.0","OBAN, UK","FM-15","EGEO ","V020","120,1,N,0010,1","00540,5,9,N","011265,1,N,1","+0090,1","+0080,1","99999,9","04,5,+00360,5,99,9","07,5,+00540,5,99,9",,,,,"10030,1,99999,9","61,1",,,"MET066METAR EGEO 041120Z 12002KT 9999 -RA FEW SCT012 BKN018 09/08 Q1003;",
"03114099999","2010-11-04T11:50:00","4","56.417","-5.467","4.0","OBAN, UK","FM-15","EGEO ","V020","220,1,N,0057,1","00450,1,C,N","011265,1,N,1","+0130,1","+0120,1","99999,9","02,5,+00240,1,99,9","04,5,+00450,1,99,9","07,5,+00600,1,99,9",,"07,99,1,99,9,99,9,99999,9,99,9,99,9",,"10031,1,99999,9",,,,"MET065METAR EGEO 041150Z 22011KT 9999 FEW008 SCT015 BKN020 13/12 Q1003;",
"03114099999","2010-11-04T12:50:00","4","56.417","-5.467","4.0","OBAN, UK","FM-15","EGEO ","V020","230,1,N,0072,1","00600,1,C,N","011265,1,N,1","+0130,1","+0110,1","99999,9","04,5,+00360,1,99,9","07,5,+00600,1,99,9",,,"07,99,1,99,9,99,9,99999,9,99,9,99,9",,"10031,1,99999,9",,,,"MET058METAR EGEO 041250Z 23014KT 9999 SCT012 BKN020 13/11 Q1003;",
"03114099999","2010-11-04T13:20:00","4","56.417","-5.467","4.0","OBAN, UK","FM-15","EGEO ","V020","240,1,N,0093,1","00600,1,C,N","011265,1,N,1","+0130,1","+0110,1","99999,9","04,5,+00360,1,99,9","07,5,+00600,1,99,9",,,"07,99,1,99,9,99,9,99999,9,99,9,99,9",,"10031,1,99999,9",,,,"MET058METAR EGEO 041320Z 24018KT 9999 SCT012 BKN020 13/11 Q1003;",
"03114099999","2010-11-04T13:50:00","4","56.417","-5.467","4.0","OBAN, UK","FM-15","EGEO ","V020","240,1,N,0087,1","00900,1,C,N","011265,1,N,1","+0130,1","+0110,1","99999,9","04,5,+00600,1,99,9","07,5,+00900,1,99,9",,,"07,99,1,99,9,99,9,99999,9,99,9,99,9",,"10031,1,99999,9",,,,"MET058METAR EGEO 041350Z 24017KT 9999 SCT020 BKN030 13/11 Q1003;",
"03114099999","2010-11-04T14:20:00","4","56.417","-5.467","4.0","OBAN, UK","FM-15","EGEO ","V020","240,1,N,0093,1","00600,1,C,N","011265,1,N,1","+0130,1","+0100,1","99999,9","04,5,+00360,1,99,9","07,5,+00600,1,99,9","07,5,+00900,1,99,9",,"07,99,1,99,9,99,9,99999,9,99,9,99,9",,"10031,1,99999,9","61,1",,,"MET069METAR EGEO 041420Z 24018KT 9999 -RA SCT012 BKN020 BKN030 13/10 Q1003;",
"03114099999","2010-11-04T14:50:00","4","56.417","-5.467","4.0","OBAN, UK","FM-15","EGEO ","V020","240,1,N,0082,1","00750,1,C,N","011265,1,N,1","+0130,1","+0110,1","99999,9","04,5,+00540,1,99,9","07,5,+00750,1,99,9",,,"07,99,1,99,9,99,9,99999,9,99,9,99,9",,"10031,1,99999,9",,,,"MET058METAR EGEO 041450Z 24016KT 9999 SCT018 BKN025 13/11 Q1003;",
"03114099999","2010-11-04T15:20:00","4","56.417","-5.467","4.0","OBAN, UK","FM-15","EGEO ","V020","250,1,N,0082,1","00900,1,C,N","011265,1,N,1","+0130,1","+0100,1","99999,9","04,5,+00600,1,99,9","07,5,+00900,1,99,9",,,"07,99,1,99,9,99,9,99999,9,99,9,99,9",,"10031,1,99999,9","61,1",,,"MET062METAR EGEO 041520Z 25016KT 9999 -RA SCT020 BKN030 13/10 Q1003;",
"03114099999","2010-11-04T15:50:00","4","56.417","-5.467","4.0","OBAN, UK","FM-15","EGEO ","V020","240,1,N,0072,1","99999,9,C,N","011265,1,N,1","+0130,1","+0100,1","99999,9","02,5,+00600,1,99,9","04,5,+00900,1,99,9",,,"04,99,1,99,9,99,9,99999,9,99,9,99,9",,"10031,1,99999,9",,,,"MET058METAR EGEO 041550Z 24014KT 9999 FEW020 SCT030 13/10 Q1003;","P01 009003SCOCIG"
"03114099999","2010-11-04T16:20:00","4","56.417","-5.467","4.0","OBAN, UK","FM-15","EGEO ","V020","230,1,N,0072,1","99999,9,C,N","011265,1,N,1","+0130,1","+0100,1","99999,9","02,5,+00600,1,99,9","04,5,+00840,1,99,9",,,"04,99,1,99,9,99,9,99999,9,99,9,99,9",,"10031,1,99999,9",,,,"MET058METAR EGEO 041620Z 23014KT 9999 FEW020 SCT028 13/10 Q1003;","P01 008403SCOCIG"
"03114099999","2010-11-04T16:50:00","4","56.417","-5.467","4.0","OBAN, UK","FM-15","EGEO ","V020","250,1,N,0077,1","00600,1,C,N","011265,1,N,1","+0130,1","+0090,1","99999,9","04,5,+00420,1,99,9","04,5,+00600,1,99,9","07,5,+00750,1,99,9",,"07,99,1,99,9,99,9,99999,9,99,9,99,9",,"10031,1,99999,9",,,,"MET065METAR EGEO 041650Z 25015KT 9999 SCT014 SCT020 BKN025 13/09 Q1003;",
"03114099999","2010-11-05T07:20:00","4","56.417","-5.467","4.0","OBAN, UK","FM-15","EGEO ","V020","210,1,N,0026,1","00780,1,C,N","011265,1,N,1","+0110,1","+0080,1","99999,9","04,5,+00600,1,99,9","07,5,+00780,1,99,9",,,"07,99,1,99,9,99,9,99999,9,99,9,99,9",,"10102,1,99999,9",,,,"MET058METAR EGEO 050720Z 21005KT 9999 SCT020 BKN026 11/08 Q1010;",
"03114099999","2010-11-05T07:50:00","4","56.417","-5.467","4.0","OBAN, UK","FM-15","EGEO ","V020","200,1,N,0036,1","00750,1,C,N","011265,1,N,1","+0110,1","+0080,1","99999,9","04,5,+00600,1,99,9","07,5,+00750,1,99,9",,,"07,99,1,99,9,99,9,99999,9,99,9,99,9",,"10102,1,99999,9",,,,"MET058METAR EGEO 050750Z 20007KT 9999 SCT020 BKN025 11/08 Q1010;",
"03114099999","2010-11-05T08:20:00","4","56.417","-5.467","4.0","OBAN, UK","FM-15","EGEO ","V020","210,1,N,0026,1","00780,1,C,N","011265,1,N,1","+0110,1","+0090,1","99999,9","04,5,+00540,1,99,9","07,5,+00780,1,99,9",,,"07,99,1,99,9,99,9,99999,9,99,9,99,9",,"10102,1,99999,9",,,,"MET058METAR EGEO 050820Z 21005KT 9999 SCT018 BKN026 11/09 Q1010;",
"03114099999","2010-11-05T09:20:00","4","56.417","-5.467","4.0","OBAN, UK","FM-15","EGEO ","V020","110,1,N,0010,1","99999,9,C,N","011265,1,N,1","+0110,1","+0090,1","99999,9","02,5,+00300,1,99,9","04,5,+00450,1,99,9","04,5,+00660,1,99,9",,"04,99,1,99,9,99,9,99999,9,99,9,99,9",,"10102,1,99999,9",,,,"MET065METAR EGEO 050920Z 11002KT 9999 FEW010 SCT015 SCT022 11/09 Q1010;","P01 004503SCOCIG"
"03114099999","2010-11-05T09:50:00","4","56.417","-5.467","4.0","OBAN, UK","FM-15","EGEO ","V020","999,9,V,0015,1","00450,1,C,N","011265,1,N,1","+0110,1","+0090,1","99999,9","04,5,+00270,1,99,9","07,5,+00450,1,99,9",,,"07,99,1,99,9,99,9,99999,9,99,9,99,9",,"10102,1,99999,9","63,1",,,"MET069METAR EGEO 050950Z VRB03KT 150V210 9999 RA SCT009 BKN015 11/09 Q1010;",
"03114099999","2010-11-05T10:20:00","4","56.417","-5.467","4.0","OBAN, UK","FM-15","EGEO ","V020","050,1,N,0010,1","99999,9,C,N","011265,1,N,1","+0100,1","+0090,1","99999,9","04,5,+00300,1,99,9","04,5,+00450,1,99,9",,,"04,99,1,99,9,99,9,99999,9,99,9,99,9",,"10108,1,99999,9","63,1",,,"MET061METAR EGEO 051020Z 05002KT 9999 RA SCT010 SCT015 10/09 Q1011;","P01 004503SCOCIG"
"03114099999","2010-11-05T10:50:00","4","56.417","-5.467","4.0","OBAN, UK","FM-15","EGEO ","V020","320,1,N,0021,1","99999,9,C,N","011265,1,N,1","+0100,1","+0090,1","99999,9","02,5,+00150,1,99,9","04,5,+00300,1,99,9","04,5,+00540,1,99,9",,"04,99,1,99,9,99,9,99999,9,99,9,99,9",,"10108,1,99999,9","63,1",,,"MET076METAR EGEO 051050Z 32004KT 320V080 9999 RA FEW005 SCT010 SCT018 10/09 Q1011;","P01 003003SCOCIG"
"03114099999","2010-11-05T11:20:00","4","56.417","-5.467","4.0","OBAN, UK","FM-15","EGEO ","V020","999,9,C,0000,1","00750,1,C,N","011265,1,N,1","+0100,1","+0090,1","99999,9","02,5,+00600,1,99,9","07,5,+00750,1,99,9",,,"07,99,1,99,9,99,9,99999,9,99,9,99,9",,"10108,1,99999,9",,,,"MET063METAR EGEO 051120Z 00000KT 9999 FEW020 BKN025 10/09 Q1011 RERA;",
"03114099999","2010-11-05T11:50:00","4","56.417","-5.467","4.0","OBAN, UK","FM-15","EGEO ","V020","230,1,N,0015,1","00360,1,C,N","006000,1,N,1","+0110,1","+0090,1","99999,9","02,5,+00210,1,99,9","07,5,+00360,1,99,9","07,5,+00540,1,99,9",,"07,99,1,99,9,99,9,99999,9,99,9,99,9",,"10108,1,99999,9","63,1",,,"MET068METAR EGEO 051150Z 23003KT 6000 RA FEW007 BKN012 BKN018 11/09 Q1011;",
"03114099999","2010-11-05T12:20:00","4","56.417","-5.467","4.0","OBAN, UK","FM-15","EGEO ","V020","290,1,N,0041,1","22000,1,9,N","011265,1,N,1","+0100,1","+0090,1","99999,9","04,5,+00750,5,99,9",,,,"02,99,1,99,9,99,9,99999,9,99,9,99,9",,"10110,1,99999,9",,,,"MET064METAR EGEO 051220Z 29008KT 9999 FEW0010 SCT025 10/09 Q1011 RERA;",
"03114099999","2010-11-05T12:50:00","4","56.417","-5.467","4.0","OBAN, UK","FM-15","EGEO ","V020","300,1,N,0036,1","99999,9,C,N","011265,1,N,1","+0100,1","+0080,1","99999,9","02,5,+00600,1,99,9","04,5,+00750,1,99,9",,,"04,99,1,99,9,99,9,99999,9,99,9,99,9",,"10108,1,99999,9",,,,"MET058METAR EGEO 051250Z 30007KT 9999 FEW020 SCT025 10/08 Q1011;","P01 007503SCOCIG"
"03114099999","2010-11-05T13:20:00","4","56.417","-5.467","4.0","OBAN, UK","FM-15","EGEO ","V020","290,1,N,0046,1","99999,9,C,N","011265,1,N,1","+0100,1","+0070,1","99999,9","02,5,+00600,1,99,9","04,5,+00840,1,99,9",,,"04,99,1,99,9,99,9,99999,9,99,9,99,9",,"10108,1,99999,9",,,,"MET058METAR EGEO 051320Z 29009KT 9999 FEW020 SCT028 10/07 Q1011;","P01 008403SCOCIG"
"03114099999","2010-11-05T13:50:00","4","56.417","-5.467","4.0","OBAN, UK","FM-15","EGEO ","V020","310,1,N,0057,1","99999,9,C,N","011265,1,N,1","+0110,1","+0060,1","99999,9","04,5,+00300,1,99,9","04,5,+00540,1,99,9",,,"04,99,1,99,9,99,9,99999,9,99,9,99,9",,"10108,1,99999,9",,,,"MET058METAR EGEO 051350Z 31011KT 9999 SCT010 SCT018 11/06 Q1011;","P01 005403SCOCIG"
"03114099999","2010-11-05T14:20:00","4","56.417","-5.467","4.0","OBAN, UK","FM-15","EGEO ","V020","300,1,N,0051,1","99999,9,C,N","011265,1,N,1","+0100,1","+0060,1","99999,9","02,5,+00660,1,99,9","04,5,+00960,1,99,9",,,"04,99,1,99,9,99,9,99999,9,99,9,99,9",,"10108,1,99999,9",,,,"MET058METAR EGEO 051420Z 30010KT 9999 FEW022 SCT032 10/06 Q1011;","P01 009603SCOCIG"
"03114099999","2010-11-05T15:20:00","4","56.417","-5.467","4.0","OBAN, UK","FM-15","EGEO ","V020","320,1,N,0046,1","99999,9,C,N","011265,1,N,1","+0100,1","+0050,1","99999,9","02,5,+00360,1,99,9","04,5,+00660,1,99,9",,,"04,99,1,99,9,99,9,99999,9,99,9,99,9",,"10119,1,99999,9",,,,"MET058METAR EGEO 051520Z 32009KT 9999 FEW012 SCT022 10/05 Q1012;","P01 006603SCOCIG"
"03114099999","2010-11-05T15:50:00","4","56.417","-5.467","4.0","OBAN, UK","FM-15","EGEO ","V020","340,1,N,0067,1","99999,9,C,N","011265,1,N,1","+0100,1","+0070,1","99999,9","02,5,+00150,1,99,9","04,5,+00660,1,99,9",,,"04,99,1,99,9,99,9,99999,9,99,9,99,9",,"10119,1,99999,9",,,,"MET058METAR EGEO 051550Z 34013KT 9999 FEW005 SCT022 10/07 Q1012;","P01 006603SCOCIG"
"03114099999","2010-11-05T16:20:00","4","56.417","-5.467","4.0","OBAN, UK","FM-15","EGEO ","V020","350,1,N,0062,1","99999,9,C,N","011265,1,N,1","+0100,1","+0070,1","99999,9","02,5,+00150,1,99,9","04,5,+00660,1,99,9",,,"04,99,1,99,9,99,9,99999,9,99,9,99,9",,"10129,1,99999,9",,,,"MET058METAR EGEO 051620Z 35012KT 9999 FEW005 SCT022 10/07 Q1013;","P01 006603SCOCIG"
"03114099999","2010-11-05T16:50:00","4","56.417","-5.467","4.0","OBAN, UK","FM-15","EGEO ","V020","350,1,N,0062,1","22000,1,9,N","011265,1,N,1","+0090,1","+0060,1","99999,9","04,5,+00660,1,99,9",,,,"04,99,1,99,9,99,9,99999,9,99,9,99,9",,"10129,1,99999,9",,,,"MET051METAR EGEO 051650Z 35012KT 9999 SCT022 09/06 Q1013;",
"03114099999","2010-11-08T07:50:00","4","56.417","-5.467","4.0","OBAN, UK","FM-15","EGEO ","V020","999,9,9,9999,9","00540,5,9,N","011265,1,N,1","+0050,1","+0020,1","99999,9","02,5,+00420,5,99,9","04,5,+00540,5,99,9",,,,"999,M,+9999,9","09680,1,99999,9",,,,"MET059METAR EGEO 080750Z 10010G25 9999 FEW014 SCT018 05/02 Q0968;","Q01 +00102ATMX  "
"03114099999","2010-11-08T08:20:00","4","56.417","-5.467","4.0","OBAN, UK","FM-15","EGEO ","V020","100,1,N,0077,1","00600,1,C,N","011265,1,N,1","+0050,1","+0020,1","99999,9","02,5,+00420,1,99,9","07,5,+00600,1,99,9",,,"07,99,1,99,9,99,9,99999,9,99,9,99,9",,"09688,1,99999,9","61,1",,"0134,1","MET065METAR EGEO 080820Z 10015G26KT 9999 -RA FEW014 BKN020 05/02 Q0969;",
"03114099999","2010-11-08T08:50:00","4","56.417","-5.467","4.0","OBAN, UK","FM-15","EGEO ","V020","120,1,N,0098,1","99999,9,C,N","011265,1,N,1","+0060,1","+0020,1","99999,9","04,5,+00600,1,99,9","04,5,+00750,1,99,9",,,"04,99,1,99,9,99,9,99999,9,99,9,99,9",,"09682,1,99999,9",,,"0170,1","MET061METAR EGEO 080850Z 12019G33KT 9999 SCT020 SCT025 06/02 Q0968;","P01 007503SCOCIG"
"03114099999","2010-11-08T09:20:00","4","56.417","-5.467","4.0","OBAN, UK","FM-15","EGEO ","V020","120,1,N,0093,1","00660,1,C,N","011265,1,N,1","+0060,1","+0010,1","99999,9","04,5,+00600,1,99,9","07,5,+00660,1,99,9",,,"07,99,1,99,9,99,9,99999,9,99,9,99,9",,"09688,1,99999,9",,,"0159,1","MET061METAR EGEO 080920Z 12018G31KT 9999 SCT020 BKN022 06/01 Q0969;",
"03114099999","2010-11-08T09:50:00","4","56.417","-5.467","4.0","OBAN, UK","FM-15","EGEO ","V020","110,1,N,0067,1","00720,1,C,N","011265,1,N,1","+0060,1","+0020,1","99999,9","04,5,+00600,1,99,9","07,5,+00720,1,99,9",,,"07,99,1,99,9,99,9,99999,9,99,9,99,9",,"09688,1,99999,9",,,,"MET058METAR EGEO 080950Z 11013KT 9999 SCT020 BKN024 06/02 Q0969;",
"03114099999","2010-11-08T10:20:00","4","56.417","-5.467","4.0","OBAN, UK","FM-15","EGEO ","V020","110,1,N,0067,1","00720,1,C,N","011265,1,N,1","+0060,1","+0020,1","99999,9","04,5,+00600,1,99,9","07,5,+00720,1,99,9",,,"07,99,1,99,9,99,9,99999,9,99,9,99,9",,"09688,1,99999,9",,,,"MET066METAR EGEO 081020Z 11013KT 070V140 9999 SCT020 BKN024 06/02 Q0969;",
"03114099999","2010-11-08T10:50:00","4","56.417","-5.467","4.0","OBAN, UK","FM-15","EGEO ","V020","090,1,N,0046,1","00750,5,9,N","999999,9,N,1","+0060,1","+0020,1","99999,9","04,5,+00660,5,99,9","04,5,+00750,5,99,9",,,,,"09700,1,99999,9",,,,"MET065METAR EGEO 081050Z 09009KT 050V120 -RA SCT022 SCT025 06/02 Q0970;",
"03114099999","2010-11-08T11:20:00","4","56.417","-5.467","4.0","OBAN, UK","FM-15","EGEO ","V020","090,1,N,0046,1","00660,5,9,N","999999,9,N,1","+0060,1","+0020,1","99999,9","07,5,+00660,5,99,9",,,,,,"09700,1,99999,9",,,,"MET063METAR EGEO 081120Z 09009KT 060V120 -RA BKN022 06/02 Q0970 RERA;",
"03114099999","2010-11-08T11:50:00","4","56.417","-5.467","4.0","OBAN, UK","FM-15","EGEO ","V020","080,1,N,0031,1","00540,5,9,N","999999,9,N,1","+0060,1","+0030,1","99999,9","07,5,+00540,5,99,9",,,,,,"09700,1,99999,9",,,,"MET054METAR EGEO 081150Z 08006KT 040V130 BKN018 06/03 Q0970;",
"03114099999","2010-11-08T12:20:00","4","56.417","-5.467","4.0","OBAN, UK","FM-15","EGEO ","V020","110,1,N,0036,1","00540,1,C,N","011265,1,N,1","+0060,1","+0030,1","99999,9","07,5,+00540,1,99,9",,,,"07,99,1,99,9,99,9,99999,9,99,9,99,9",,"09699,1,99999,9",,,,"MET059METAR EGEO 081220Z 11007KT 040V140 9999 BKN018 06/03 Q0970;",
"03114099999","2010-11-08T12:50:00","4","56.417","-5.467","4.0","OBAN, UK","FM-15","EGEO ","V020","100,1,N,0036,1","00660,1,C,N","011265,1,N,1","+0070,1","+0030,1","99999,9","04,5,+00540,1,99,9","07,5,+00660,1,99,9",,,"07,99,1,99,9,99,9,99999,9,99,9,99,9",,"09699,1,99999,9","61,1",,,"MET070METAR EGEO 081250Z 10007KT 070V140 9999 -RA SCT018 BKN022 07/03 Q0970;",
"03114099999","2010-11-08T13:20:00","4","56.417","-5.467","4.0","OBAN, UK","FM-15","EGEO ","V020","100,1,N,0062,1","99999,9,C,N","011265,1,N,1","+0070,1","+0030,1","99999,9","04,5,+00660,1,99,9","04,5,+00750,1,99,9",,,"04,99,1,99,9,99,9,99999,9,99,9,99,9",,,"61,1",,"0118,1","MET074METAR EGEO 081320Z 10012G23KT 050V150 9999 -RA SCT022 SCT025 07/03 Q09070;","P01 007503SCOCIG"
"03114099999","2010-11-08T13:50:00","4","56.417","-5.467","4.0","OBAN, UK","FM-15","EGEO ","V020","100,1,N,0057,1","99999,9,C,N","011265,1,N,1","+0070,1","+0030,1","99999,9","04,5,+00540,1,99,9","04,5,+00660,1,99,9",,,"04,99,1,99,9,99,9,99999,9,99,9,99,9",,"09699,1,99999,9",,,"0108,1","MET061METAR EGEO 081350Z 10011G21KT 9999 SCT018 SCT022 07/03 Q0970;","P01 006603SCOCIG"
"03114099999","2010-11-08T14:20:00","4","56.417","-5.467","4.0","OBAN, UK","FM-15","EGEO ","V020","100,1,N,0062,1","99999,9,C,N","011265,1,N,1","+0080,1","+0030,1","99999,9","04,5,+00600,1,99,9","04,5,+00750,1,99,9",,,"04,99,1,99,9,99,9,99999,9,99,9,99,9",,"09709,1,99999,9",,,"0113,1","MET069METAR EGEO 081420Z 10012G22KT 070V150 9999 SCT020 SCT025 08/03 Q0971;","P01 007503SCOCIG"
"03114099999","2010-11-08T14:50:00","4","56.417","-5.467","4.0","OBAN, UK","FM-15","EGEO ","V020","090,1,N,0051,1","00750,1,C,N","011265,1,N,1","+0080,1","+0030,1","99999,9","04,5,+00660,1,99,9","07,5,+00750,1,99,9",,,"07,99,1,99,9,99,9,99999,9,99,9,99,9",,"09709,1,99999,9","61,1",,,"MET070METAR EGEO 081450Z 09010KT 030V110 9999 -RA SCT022 BKN025 08/03 Q0971;",
"03114099999","2010-11-08T15:20:00","4","56.417","-5.467","4.0","OBAN, UK","FM-15","EGEO ","V020","110,1,N,0051,1","00660,1,C,N","011265,1,N,1","+0080,1","+0030,1","99999,9","04,5,+00540,1,99,9","07,5,+00660,1,99,9",,,"07,99,1,99,9,99,9,99999,9,99,9,99,9",,"09709,1,99999,9","61,1",,"0108,1","MET073METAR EGEO 081520Z 11010G21KT 080V150 9999 -RA SCT018 BKN022 08/03 Q0971;",
"03114099999","2010-11-08T15:50:00","4","56.417","-5.467","4.0","OBAN, UK","FM-15","EGEO ","V020","100,1,N,0057,1","00660,1,C,N","011265,1,N,1","+0080,1","+0030,1","99999,9","07,5,+00660,1,99,9",,,,"07,99,1,99,9,99,9,99999,9,99,9,99,9",,"09719,1,99999,9",,,,"MET059METAR EGEO 081550Z 10011KT 070V140 9999 BKN022 08/03 Q0972;",
"03114099999","2010-11-08T16:20:00","4","56.417","-5.467","4.0","OBAN, UK","FM-15","EGEO ","V020","100,1,N,0046,1","00660,1,C,N","011265,1,N,1","+0080,1","+0030,1","99999,9","04,5,+00540,1,99,9","07,5,+00660,1,99,9",,,"07,99,1,99,9,99,9,99999,9,99,9,99,9",,"09729,1,99999,9","61,1",,,"MET070METAR EGEO 081620Z 10009KT 060V130 9999 -RA SCT018 BKN022 08/03 Q0973;",
"03114099999","2010-11-08T16:50:00","4","56.417","-5.467","4.0","OBAN, UK","FM-15","EGEO ","V020","090,1,N,0036,1","22000,1,9,N","011265,1,N,1","+0070,1","+0030,1","99999,9","04,5,+00660,1,99,9",,,,"04,99,1,99,9,99,9,99999,9,99,9,99,9",,"09729,1,99999,9",,,,"MET051METAR EGEO 081650Z 09007KT 9999 SCT022 07/03 Q0973;",
"03114099999","2010-11-09T08:20:00","4","56.417","-5.467","4.0","OBAN, UK","FM-15","EGEO ","V020","050,1,N,0010,1","99999,9,C,N","011265,1,N,1","+0060,1","+0020,1","99999,9","02,5,+00540,1,99,9","04,5,+00750,1,99,9",,,"04,99,1,99,9,99,9,99999,9,99,9,99,9",,"09919,1,99999,9",,,,"MET058METAR EGEO 090820Z 05002KT 9999 FEW018 SCT025 06/02 Q0992;","P01 007503SCOCIG"
"03114099999","2010-11-09T08:50:00","4","56.417","-5.467","4.0","OBAN, UK","FM-15","EGEO ","V020","040,1,N,0026,1","22000,1,9,N","011265,1,N,1","+0070,1","+0020,1","99999,9","04,5,+00600,1,99,9",,,,"04,99,1,99,9,99,9,99999,9,99,9,99,9",,"09929,1,99999,9",,,,"MET051METAR EGEO 090850Z 04005KT 9999 SCT020 07/02 Q0993;",
"03114099999","2010-11-09T09:20:00","4","56.417","-5.467","4.0","OBAN, UK","FM-15","EGEO ","V020","040,1,N,0031,1","99999,9,C,N","011265,1,N,1","+0070,1","+0020,1","99999,9","02,5,+00600,1,99,9","04,5,+00750,1,99,9",,,"04,99,1,99,9,99,9,99999,9,99,9,99,9",,"09929,1,99999,9",,,,"MET058METAR EGEO 090920Z 04006KT 9999 FEW020 SCT025 07/02 Q0993;","P01 007503SCOCIG"
"03114099999","2010-11-09T09:50:00","4","56.417","-5.467","4.0","OBAN, UK","FM-15","EGEO ","V020","050,1,N,0026,1","22000,1,9,N","011265,1,N,1","+0070,1","+0020,1","99999,9","04,5,+00840,1,99,9",,,,"04,99,1,99,9,99,9,99999,9,99,9,99,9",,"09929,1,99999,9",,,,"MET051METAR EGEO 090950Z 05005KT 9999 SCT028 07/02 Q0993;",
"03114099999","2010-11-09T10:20:00","4","56.417","-5.467","4.0","OBAN, UK","FM-15","EGEO ","V020","050,1,N,0031,1","22000,1,9,N","011265,1,N,1","+0080,1","+0020,1","99999,9","02,5,+00900,1,99,9",,,,"02,99,1,99,9,99,9,99999,9,99,9,99,9",,"09939,1,99999,9",,,,"MET051METAR EGEO 091020Z 05006KT 9999 FEW030 08/02 Q0994;",
"03114099999","2010-11-09T10:50:00","4","56.417","-5.467","4.0","OBAN, UK","FM-15","EGEO ","V020","040,1,N,0051,1","22000,1,9,N","011265,1,N,1","+0080,1","+0020,1","99999,9","02,5,+00900,1,99,9",,,,"02,99,1,99,9,99,9,99999,9,99,9,99,9",,"09939,1,99999,9",,,,"MET059METAR EGEO 091050Z 04010KT 010V080 9999 FEW030 08/02 Q0994;",
"03114099999","2010-11-09T11:20:00","4","56.417","-5.467","4.0","OBAN, UK","FM-15","EGEO ","V020","040,1,N,0051,1","22000,1,9,N","011265,1,N,1","+0080,1","+0010,1","99999,9","02,5,+00900,1,99,9",,,,"02,99,1,99,9,99,9,99999,9,99,9,99,9",,"09949,1,99999,9",,,,"MET051METAR EGEO 091120Z 04010KT 9999 FEW030 08/01 Q0995;",
"03114099999","2010-11-09T11:50:00","4","56.417","-5.467","4.0","OBAN, UK","FM-15","EGEO ","V020","040,1,N,0067,1","22000,1,9,N","011265,1,N,1","+0080,1","+0000,1","99999,9","02,5,+00900,1,99,9",,,,"02,99,1,99,9,99,9,99999,9,99,9,99,9",,"09949,1,99999,9",,,,"MET051METAR EGEO 091150Z 04013KT 9999 FEW030 08/00 Q0995;",
"03114099999","2010-11-09T12:20:00","4","56.417","-5.467","4.0","OBAN, UK","FM-15","EGEO ","V020","050,1,N,0062,1","22000,1,9,N","011265,1,N,1","+0080,1","+0010,1","99999,9","02,5,+01050,1,99,9",,,,"02,99,1,99,9,99,9,99999,9,99,9,99,9",,"09949,1,99999,9",,,,"MET051METAR EGEO 091220Z 05012KT 9999 FEW035 08/01 Q0995;",
"03114099999","2010-11-09T12:50:00","4","56.417","-5.467","4.0","OBAN, UK","FM-15","EGEO ","V020","090,1,N,0036,1","22000,1,9,N","011265,1,N,1","+0080,1","+0010,1","99999,9","02,5,+00900,1,99,9",,,,"02,99,1,99,9,99,9,99999,9,99,9,99,9",,"09949,1,99999,9",,,,"MET051METAR EGEO 091250Z 09007KT 9999 FEW030 08/01 Q0995;",
"03114099999","2010-11-09T13:20:00","4","56.417","-5.467","4.0","OBAN, UK","FM-15","EGEO ","V020","070,1,N,0041,1","22000,1,9,N","011265,1,N,1","+0080,1","+0000,1","99999,9","02,5,+00900,1,99,9",,,,"02,99,1,99,9,99,9,99999,9,99,9,99,9",,"09949,1,99999,9",,,,"MET051METAR EGEO 091320Z 07008KT 9999 FEW030 08/00 Q0995;",
"03114099999","2010-11-09T13:50:00","4","56.417","-5.467","4.0","OBAN, UK","FM-15","EGEO ","V020","050,1,N,0041,1","22000,1,9,N","011265,1,N,1","+0080,1","+0000,1","99999,9","02,5,+01050,1,99,9",,,,"02,99,1,99,9,99,9,99999,9,99,9,99,9",,"09949,1,99999,9",,,,"MET051METAR EGEO 091350Z 05008KT 9999 FEW035 08/00 Q0995;",
"03114099999","2010-11-09T14:20:00","4","56.417","-5.467","4.0","OBAN, UK","FM-15","EGEO ","V020","060,1,N,0046,1","22000,1,9,N","011265,1,N,1","+0080,1","+9999,9","99999,9","02,5,+01050,1,99,9",,,,"02,99,1,99,9,99,9,99999,9,99,9,99,9",,"09950,1,99999,9",,,,"MET060METAR EGEO 091420Z 06009KT 040V120 9999 FEW035 08/MOO Q0995;",
"03114099999","2010-11-09T14:50:00","4","56.417","-5.467","4.0","OBAN, UK","FM-15","EGEO ","V020","050,1,N,0041,1","22000,1,9,N","011265,1,N,1","+0080,1","-0010,1","99999,9","02,5,+01050,1,99,9",,,,"02,99,1,99,9,99,9,99999,9,99,9,99,9",,"09959,1,99999,9",,,,"MET052METAR EGEO 091450Z 05008KT 9999 FEW035 08/M01 Q0996;",
"03114099999","2010-11-09T15:20:00","4","56.417","-5.467","4.0","OBAN, UK","FM-15","EGEO ","V020","040,1,N,0026,1","22000,1,9,N","011265,1,N,1","+0070,1","+0000,1","99999,9","02,5,+01050,1,99,9",,,,"02,99,1,99,9,99,9,99999,9,99,9,99,9",,"09959,1,99999,9",,,,"MET052METAR EGEO 091520Z 04005KT 9999 FEW035 07/M00 Q0996;",
"03114099999","2010-11-09T15:50:00","4","56.417","-5.467","4.0","OBAN, UK","FM-15","EGEO ","V020","060,1,N,0021,1","22000,1,9,N","011265,1,N,1","+0070,1","+0000,1","99999,9","02,5,+01050,1,99,9",,,,"02,99,1,99,9,99,9,99999,9,99,9,99,9",,"09959,1,99999,9",,,,"MET052METAR EGEO 091550Z 06004KT 9999 FEW035 07/M00 Q0996;",
"03114099999","2010-11-09T16:20:00","4","56.417","-5.467","4.0","OBAN, UK","FM-15","EGEO ","V020","080,1,N,0015,1","22000,1,9,N","011265,1,N,1","+0060,1","-0010,1","99999,9","02,5,+01200,1,99,9",,,,"02,99,1,99,9,99,9,99999,9,99,9,99,9",,"09959,1,99999,9",,,,"MET052METAR EGEO 091620Z 08003KT 9999 FEW040 06/M01 Q0996;",
"03114099999","2010-11-09T16:50:00","4","56.417","-5.467","4.0","OBAN, UK","FM-15","EGEO ","V020","080,1,N,0021,1","22000,1,9,N","011265,1,N,1","+0050,1","-0010,1","99999,9","02,5,+01200,1,99,9",,,,"02,99,1,99,9,99,9,99999,9,99,9,99,9",,"09970,1,99999,9",,,,"MET052METAR EGEO 091650Z 08004KT 9999 FEW040 05/M01 Q0997;",
"03114099999","2010-11-10T07:50:00","4","56.417","-5.467","4.0","OBAN, UK","FM-15","EGEO ","V020","090,1,N,0026,1","22000,1,9,N","011265,1,N,1","+0000,1","-0010,1","99999,9","02,5,+00150,1,99,9",,,,"02,99,1,99,9,99,9,99999,9,99,9,99,9",,"09990,1,99999,9",,,,"MET053METAR EGEO 100750Z 09005KT 9999 FEW005 M00/M01 Q0999;",
"03114099999","2010-11-10T08:20:00","4","56.417","-5.467","4.0","OBAN, UK","FM-15","EGEO ","V020","100,1,N,0031,1","22000,1,9,N","011265,1,N,1","+0000,1","-0010,1","99999,9","02,5,+00300,1,99,9",,,,"02,99,1,99,9,99,9,99999,9,99,9,99,9",,"10000,1,99999,9",,,,"MET053METAR EGEO 100820Z 10006KT 9999 FEW010 M00/M01 Q1000;",
"03114099999","2010-11-10T08:50:00","4","56.417","-5.467","4.0","OBAN, UK","FM-15","EGEO ","V020","090,1,N,0031,1","22000,1,9,N","011265,1,N,1","+0000,1","-0010,1","99999,9","02,5,+00300,1,99,9",,,,"02,99,1,99,9,99,9,99999,9,99,9,99,9",,"10000,1,99999,9",,,,"MET052METAR EGEO 100850Z 09006KT 9999 FEW010 00/M01 Q1000;",
"03114099999","2010-11-10T09:20:00","4","56.417","-5.467","4.0","OBAN, UK","FM-15","EGEO ","V020","100,1,N,0026,1","22000,1,9,N","011265,1,N,1","+0010,1","+0000,1","99999,9","02,5,+00120,1,99,9",,,,"02,99,1,99,9,99,9,99999,9,99,9,99,9",,"10000,1,99999,9",,,,"MET052METAR EGEO 100920Z 10005KT 9999 FEW004 01/M00 Q1000;",
"03114099999","2010-11-10T09:50:00","4","56.417","-5.467","4.0","OBAN, UK","FM-15","EGEO ","V020","120,1,N,0015,1","22000,1,9,N","011265,1,N,1","+0010,1","+0000,1","99999,9","02,5,+00120,1,99,9",,,,"02,99,1,99,9,99,9,99999,9,99,9,99,9",,"10000,1,99999,9",,,,"MET052METAR EGEO 100950Z 12003KT 9999 FEW004 01/M00 Q1000;",
"03114099999","2010-11-10T10:20:00","4","56.417","-5.467","4.0","OBAN, UK","FM-15","EGEO ","V020","080,1,N,0031,1","22000,1,9,N","011265,1,N,1","+0020,1","+0000,1","99999,9","02,5,+00450,1,99,9",,,,"02,99,1,99,9,99,9,99999,9,99,9,99,9",,"09990,1,99999,9",,,,"MET051METAR EGEO 101020Z 08006KT 9999 FEW015 02/00 Q0999;",
"03114099999","2010-11-10T10:50:00","4","56.417","-5.467","4.0","OBAN, UK","FM-15","EGEO ","V020","080,1,N,0031,1","22000,1,9,N","011265,1,N,1","+0020,1","+0000,1","99999,9","02,5,+00540,1,99,9",,,,"02,99,1,99,9,99,9,99999,9,99,9,99,9",,"09990,1,99999,9",,,,"MET051METAR EGEO 101050Z 08006KT 9999 FEW018 02/00 Q0999;",
"03114099999","2010-11-10T11:20:00","4","56.417","-5.467","4.0","OBAN, UK","FM-15","EGEO ","V020","080,1,N,0036,1","22000,1,9,N","011265,1,N,1","+0030,1","+0010,1","99999,9","02,5,+00600,1,99,9",,,,"02,99,1,99,9,99,9,99999,9,99,9,99,9",,"09990,1,99999,9",,,,"MET051METAR EGEO 101120Z 08007KT 9999 FEW020 03/01 Q0999;",
"03114099999","2010-11-10T11:50:00","4","56.417","-5.467","4.0","OBAN, UK","FM-15","EGEO ","V020","080,1,N,0026,1","22000,1,9,N","011265,1,N,1","+0040,1","+0010,1","99999,9","02,5,+00600,1,99,9",,,,"02,99,1,99,9,99,9,99999,9,99,9,99,9",,"09990,1,99999,9",,,,"MET051METAR EGEO 101150Z 08005KT 9999 FEW020 04/01 Q0999;",
"03114099999","2010-11-10T12:20:00","4","56.417","-5.467","4.0","OBAN, UK","FM-15","EGEO ","V020","080,1,N,0021,1","22000,1,9,N","011265,1,N,1","+0050,1","+0020,1","99999,9","02,5,+00600,1,99,9",,,,"02,99,1,99,9,99,9,99999,9,99,9,99,9",,"09990,1,99999,9",,,,"MET051METAR EGEO 101220Z 08004KT 9999 FEW020 05/02 Q0999;",
"03114099999","2010-11-10T12:50:00","4","56.417","-5.467","4.0","OBAN, UK","FM-15","EGEO ","V020","070,1,N,0015,1","22000,1,9,N","011265,1,N,1","+0050,1","+0020,1","99999,9","02,5,+00600,1,99,9",,,,"02,99,1,99,9,99,9,99999,9,99,9,99,9",,"09990,1,99999,9",,,,"MET051METAR EGEO 101250Z 07003KT 9999 FEW020 05/02 Q0999;",
"03114099999","2010-11-10T13:20:00","4","56.417","-5.467","4.0","OBAN, UK","FM-15","EGEO ","V020","080,1,N,0021,1","22000,1,9,N","011265,1,N,1","+0060,1","+0020,1","99999,9","02,5,+00600,1,99,9",,,,"02,99,1,99,9,99,9,99999,9,99,9,99,9",,"99999,9,99999,9",,,,"MET051METAR EGEO 101320Z 08004KT 9999 FEW020 06/02 Q0988;","Q01+098823APOA  Q02 098803APOA  "
"03114099999","2010-11-10T13:50:00","4","56.417","-5.467","4.0","OBAN, UK","FM-15","EGEO ","V020","120,1,N,0021,1","99999,9,C,N","011265,1,N,1","+0070,1","+0020,1","99999,9","02,5,+00600,1,99,9","04,5,+01050,1,99,9",,,"04,99,1,99,9,99,9,99999,9,99,9,99,9",,"09980,1,99999,9",,,,"MET066METAR EGEO 101350Z 12004KT 070V170 9999 FEW020 SCT035 07/02 Q0998;","P01 010503SCOCIG"
"03114099999","2010-11-10T14:50:00","4","56.417","-5.467","4.0","OBAN, UK","FM-15","EGEO ","V020","150,1,N,0021,1","99999,9,C,N","011265,1,N,1","+0070,1","+0010,1","99999,9","02,5,+00600,1,99,9","04,5,+01050,1,99,9",,,"04,99,1,99,9,99,9,99999,9,99,9,99,9",,"09980,1,99999,9",,,,"MET058METAR EGEO 101450Z 15004KT 9999 FEW020 SCT035 07/01 Q0998;","P01 010503SCOCIG"
"03114099999","2010-11-10T15:20:00","4","56.417","-5.467","4.0","OBAN, UK","FM-15","EGEO ","V020","130,1,N,0021,1","22000,1,9,N","011265,1,N,1","+0060,1","+0010,1","99999,9","04,5,+00600,1,99,9",,,,"04,99,1,99,9,99,9,99999,9,99,9,99,9",,"09980,1,99999,9",,,,"MET051METAR EGEO 101520Z 13004KT 9999 SCT020 06/01 Q0998;",
"03114099999","2010-11-10T15:50:00","4","56.417","-5.467","4.0","OBAN, UK","FM-15","EGEO ","V020","100,1,N,0021,1","22000,1,9,N","011265,1,N,1","+0050,1","+0010,1","99999,9","04,5,+00600,1,99,9",,,,"04,99,1,99,9,99,9,99999,9,99,9,99,9",,"09970,1,99999,9",,,,"MET051METAR EGEO 101550Z 10004KT 9999 SCT020 05/01 Q0997;",
"03114099999","2010-11-10T16:20:00","4","56.417","-5.467","4.0","OBAN, UK","FM-15","EGEO ","V020","110,1,N,0026,1","22000,1,9,N","011265,1,N,1","+0050,1","+0010,1","99999,9","02,5,+00600,1,99,9",,,,"02,99,1,99,9,99,9,99999,9,99,9,99,9",,"09970,1,99999,9",,,,"MET051METAR EGEO 101620Z 11005KT 9999 FEW020 05/01 Q0997;",
"03114099999","2010-11-10T16:50:00","4","56.417","-5.467","4.0","OBAN, UK","FM-15","EGEO ","V020","100,1,N,0021,1","22000,1,9,N","011265,1,N,1","+0040,1","+0010,1","99999,9","02,5,+00600,1,99,9",,,,"02,99,1,99,9,99,9,99999,9,99,9,99,9",,"09970,1,99999,9",,,,"MET051METAR EGEO 101650Z 10004KT 9999 FEW020 04/01 Q0997;",
"03114099999","2010-11-11T07:50:00","4","56.417","-5.467","4.0","OBAN, UK","FM-15","EGEO ","V020","210,1,N,0031,1","22000,1,9,N","011265,1,N,1","+0080,1","+0050,1","99999,9","04,5,+00780,1,99,9",,,,"04,99,1,99,9,99,9,99999,9,99,9,99,9",,"09688,1,99999,9",,,,"MET051METAR EGEO 110750Z 21006KT 9999 SCT026 08/05 Q0969;",
"03114099999","2010-11-11T08:20:00","4","56.417","-5.467","4.0","OBAN, UK","FM-15","EGEO ","V020","220,1,N,0051,1","22000,1,9,N","011265,1,N,1","+0090,1","+0050,1","99999,9","04,5,+00780,1,99,9",,,,"04,99,1,99,9,99,9,99999,9,99,9,99,9",,"09682,1,99999,9",,,,"MET051METAR EGEO 110820Z 22010KT 9999 SCT026 09/05 Q0968;",
"03114099999","2010-11-11T08:50:00","4","56.417","-5.467","4.0","OBAN, UK","FM-15","EGEO ","V020","220,1,N,0051,1","00750,1,C,N","011265,1,N,1","+0100,1","+0050,1","99999,9","07,5,+00750,1,99,9",,,,"07,99,1,99,9,99,9,99999,9,99,9,99,9",,"09682,1,99999,9",,,,"MET051METAR EGEO 110850Z 22010KT 9999 BKN025 10/05 Q0968;",
"03114099999","2010-11-11T09:20:00","4","56.417","-5.467","4.0","OBAN, UK","FM-15","EGEO ","V020","210,1,N,0031,1","99999,9,C,N","011265,1,N,1","+0060,1","+0040,1","99999,9","02,5,+00390,1,99,9","04,5,+00750,1,09,5",,,"04,99,1,99,9,99,9,99999,9,99,9,99,9",,"09672,1,99999,9",,,,"MET060METAR EGEO 110920Z 21006KT 9999 FEW013 SCT025CB 06/04 Q0967;","P01 007503SCOCIG"
"03114099999","2010-11-11T09:50:00","4","56.417","-5.467","4.0","OBAN, UK","FM-15","EGEO ","V020","170,1,N,0031,1","99999,9,C,N","011265,1,N,1","+0070,1","+0050,1","99999,9","04,5,+00540,1,09,1","04,5,+00750,1,09,5",,,"04,99,1,99,9,99,9,99999,9,99,9,99,9",,"09672,1,99999,9",,,"0108,1","MET065METAR EGEO 110950Z 17006G21KT 9999 SCT018CB SCT025CB 07/05 Q0967;","P01 007503SCOCIG"
"03114099999","2010-11-11T10:20:00","4","56.417","-5.467","4.0","OBAN, UK","FM-15","EGEO ","V020","160,1,N,0041,1","99999,9,C,N","011265,1,N,1","+0080,1","+0050,1","99999,9","02,5,+00420,1,99,9","04,5,+00660,1,99,9",,,"04,99,1,99,9,99,9,99999,9,99,9,99,9",,"99999,9,99999,9",,,,"MET058METAR EGEO 111020Z 16008KT 9999 FEW014 SCT022 08/05 Q0996;","Q01+099593APOA  Q02 099603APOA  P01 006603SCOCIG"
"03114099999","2010-11-11T10:50:00","4","56.417","-5.467","4.0","OBAN, UK","FM-15","EGEO ","V020","200,1,N,0062,1","99999,9,C,N","011265,1,N,1","+0090,1","+0050,1","99999,9","02,5,+00540,1,99,9","04,5,+00600,1,09,5",,,"04,99,1,99,9,99,9,99999,9,99,9,99,9",,"09661,1,99999,9","17,1",,,"MET070METAR EGEO 111050Z 20012KT 9999 VCTS FEW018 SCT020CB 09/05 Q0966 RERA;","P01 006003SCOCIG"
"03114099999","2010-11-11T11:50:00","4","56.417","-5.467","4.0","OBAN, UK","FM-15","EGEO ","V020","190,1,N,0062,1","22000,1,9,N","011265,1,N,1","+0080,1","+0050,1","99999,9","04,5,+00600,1,09,1",,,,"04,99,1,99,9,99,9,99999,9,99,9,99,9",,"09651,1,99999,9","17,1","65,1","0118,1","MET073METAR EGEO 111150Z 19012G23KT 150V210 9999 +RA VCTS SCT020CB 08/05 Q0965;",
"03114099999","2010-11-11T12:20:00","4","56.417","-5.467","4.0","OBAN, UK","FM-15","EGEO ","V020","180,1,N,0062,1","22000,1,9,N","011265,1,N,1","+0080,1","+0040,1","99999,9","04,5,+00600,1,09,1",,,,"04,99,1,99,9,99,9,99999,9,99,9,99,9",,"09641,1,99999,9",,,,"MET063METAR EGEO 111220Z 18012KT 9999 SCT020CB 08/04 Q0964 RETS RERA;",
"03114099999","2010-11-11T12:50:00","4","56.417","-5.467","4.0","OBAN, UK","FM-15","EGEO ","V020","170,1,N,0062,1","22000,1,9,N","011265,1,N,1","+0080,1","+0050,1","99999,9","04,5,+00600,1,09,1",,,,"04,99,1,99,9,99,9,99999,9,99,9,99,9",,"09621,1,99999,9",,,,"MET053METAR EGEO 111250Z 17012KT 9999 SCT020CB 08/05 Q0962;",
"03114099999","2010-11-11T13:20:00","4","56.417","-5.467","4.0","OBAN, UK","FM-15","EGEO ","V020","160,1,N,0072,1","00600,1,C,N","011265,1,N,1","+0080,1","+0050,1","99999,9","07,5,+00600,1,09,1",,,,"07,99,1,99,9,99,9,99999,9,99,9,99,9",,"09611,1,99999,9",,,"0123,1","MET061METAR EGEO 111320Z 16014G24KT 9999 BKN020CB 08/05 Q0961 RERA;",
"03114099999","2010-11-11T13:50:00","4","56.417","-5.467","4.0","OBAN, UK","FM-15","EGEO ","V020","180,1,N,0093,1","00540,1,C,N","008000,1,N,1","+0080,1","+0060,1","99999,9","07,5,+00540,1,09,1",,,,"07,99,1,99,9,99,9,99999,9,99,9,99,9",,"09600,1,99999,9","63,1",,"0159,1","MET059METAR EGEO 111350Z 18018G31KT 8000 RA BKN018CB 08/06 Q0960;",
"03114099999","2010-11-11T14:20:00","4","56.417","-5.467","4.0","OBAN, UK","FM-15","EGEO ","V020","170,1,N,0108,1","22000,1,9,N","004000,1,N,1","+0080,1","+0060,1","99999,9","04,5,+00450,1,99,9",,,,"04,99,1,99,9,99,9,99999,9,99,9,99,9",,"09590,1,99999,9","65,1",,"0185,1","MET058METAR EGEO 111420Z 17021G36KT 4000 +RA SCT015 08/06 Q0959;",
"03114099999","2010-11-11T14:50:00","4","56.417","-5.467","4.0","OBAN, UK","FM-15","EGEO ","V020","180,1,N,0093,1","00300,1,C,N","008000,1,N,1","+0090,1","+0060,1","99999,9","07,5,+00300,1,99,9",,,,"07,99,1,99,9,99,9,99999,9,99,9,99,9",,"09580,1,99999,9",,,,"MET056METAR EGEO 111450Z 18018KT 8000 BKN010 09/06 Q0958 RERA;",
"03114099999","2010-11-11T15:20:00","4","56.417","-5.467","4.0","OBAN, UK","FM-15","EGEO ","V020","180,1,N,0103,1","00780,1,C,N","011265,1,N,1","+0090,1","+0070,1","99999,9","02,5,+00480,1,99,9","07,5,+00780,1,99,9",,,"07,99,1,99,9,99,9,99999,9,99,9,99,9",,"09570,1,99999,9","63,1",,"0165,1","MET064METAR EGEO 111520Z 18020G32KT 9999 RA FEW016 BKN026 09/07 Q0957;",
"03114099999","2010-11-11T15:50:00","4","56.417","-5.467","4.0","OBAN, UK","FM-15","EGEO ","V020","230,1,N,0062,1","00660,1,C,N","011265,1,N,1","+0090,1","+0070,1","99999,9","07,5,+00660,1,99,9",,,,"07,99,1,99,9,99,9,99999,9,99,9,99,9",,"09560,1,99999,9","63,1",,"0139,1","MET057METAR EGEO 111550Z 23012G27KT 9999 RA BKN022 09/07 Q0956;",
"03114099999","2010-11-11T16:20:00","4","56.417","-5.467","4.0","OBAN, UK","FM-15","EGEO ","V020","220,1,N,0098,1","00720,1,C,N","008000,1,N,1","+0100,1","+0070,1","99999,9","02,5,+00480,1,99,9","07,5,+00720,1,99,9",,,"07,99,1,99,9,99,9,99999,9,99,9,99,9",,"09550,1,99999,9",,,,"MET063METAR EGEO 111620Z 22019KT 8000 FEW016 BKN024 10/07 Q0955 RERA;",
"03114099999","2010-11-11T16:50:00","4","56.417","-5.467","4.0","OBAN, UK","FM-15","EGEO ","V020","220,1,N,0098,1","00720,1,C,N","011265,1,N,1","+0100,1","+0070,1","99999,9","07,5,+00720,1,99,9",,,,"07,99,1,99,9,99,9,99999,9,99,9,99,9",,"09550,1,99999,9",,,"0149,1","MET054METAR EGEO 111650Z 22019G29KT 9999 BKN024 10/07 Q0955;",
"03114099999","2010-11-12T07:50:00","4","56.417","-5.467","4.0","OBAN, UK","FM-15","EGEO ","V020","270,1,N,0123,1","00780,1,C,N","011265,1,N,1","+0110,1","+0070,1","99999,9","04,5,+00540,1,99,9","07,5,+00780,1,99,9",,,"07,99,1,99,9,99,9,99999,9,99,9,99,9",,"09749,1,99999,9",,,,"MET058METAR EGEO 120750Z 27024KT 9999 SCT018 BKN026 11/07 Q0975;",
"03114099999","2010-11-12T08:20:00","4","56.417","-5.467","4.0","OBAN, UK","FM-15","EGEO ","V020","260,1,N,0108,1","00840,1,C,N","011265,1,N,1","+0110,1","+0070,1","99999,9","04,5,+00600,1,99,9","07,5,+00840,1,09,5",,,"07,99,1,99,9,99,9,99999,9,99,9,99,9",,"09749,1,99999,9",,,"0170,1","MET063METAR EGEO 120820Z 26021G33KT 9999 SCT020 BKN028CB 11/07 Q0975;",
"03114099999","2010-11-12T08:50:00","4","56.417","-5.467","4.0","OBAN, UK","FM-15","EGEO ","V020","260,1,N,0129,1","99999,9,C,N","011265,1,N,1","+0110,1","+0070,1","99999,9","04,5,+00600,1,99,9","04,5,+00900,1,09,5",,,"04,99,1,99,9,99,9,99999,9,99,9,99,9",,"09760,1,99999,9",,,,"MET060METAR EGEO 120850Z 26025KT 9999 SCT020 SCT030CB 11/07 Q0976;","P01 009003SCOCIG"
"03114099999","2010-11-12T09:50:00","4","56.417","-5.467","4.0","OBAN, UK","FM-15","EGEO ","V020","280,1,N,0118,1","99999,9,C,N","008000,1,N,1","+0100,1","+0070,1","99999,9","02,5,+00600,1,99,9","04,5,+00750,1,99,9",,,"04,99,1,99,9,99,9,99999,9,99,9,99,9",,"09760,1,99999,9","63,1",,,"MET061METAR EGEO 120950Z 28023KT 8000 RA FEW020 SCT025 10/07 Q0976;","P01 007503SCOCIG"
"03114099999","2010-11-12T10:20:00","4","56.417","-5.467","4.0","OBAN, UK","FM-15","EGEO ","V020","270,1,N,0087,1","99999,9,C,N","011265,1,N,1","+0100,1","+0070,1","99999,9","02,5,+00450,1,99,9","04,5,+00750,1,99,9",,,"04,99,1,99,9,99,9,99999,9,99,9,99,9",,"09770,1,99999,9","61,1",,,"MET062METAR EGEO 121020Z 27017KT 9999 -RA FEW015 SCT025 10/07 Q0977;","P01 007503SCOCIG"
"03114099999","2010-11-12T10:50:00","4","56.417","-5.467","4.0","OBAN, UK","FM-15","EGEO ","V020","270,1,N,0082,1","99999,9,C,N","011265,1,N,1","+0100,1","+0070,1","99999,9","02,5,+00360,1,99,9","04,5,+00600,1,99,9",,,"04,99,1,99,9,99,9,99999,9,99,9,99,9",,"09770,1,99999,9","63,1",,,"MET061METAR EGEO 121050Z 27016KT 9999 RA FEW012 SCT020 10/07 Q0977;","P01 006003SCOCIG"
"03114099999","2010-11-12T11:20:00","4","56.417","-5.467","4.0","OBAN, UK","FM-15","EGEO ","V020","270,1,N,0082,1","99999,9,C,N","011265,1,N,1","+0100,1","+0070,1","99999,9","02,5,+00450,1,99,9","04,5,+00660,1,99,9",,,"04,99,1,99,9,99,9,99999,9,99,9,99,9",,"09780,1,99999,9",,,,"MET063METAR EGEO 121120Z 27016KT 9999 FEW015 SCT022 10/07 Q0978 RERA;","P01 006603SCOCIG"
"03114099999","2010-11-12T11:50:00","4","56.417","-5.467","4.0","OBAN, UK","FM-15","EGEO ","V020","270,1,N,0098,1","99999,9,C,N","011265,1,N,1","+0100,1","+0070,1","99999,9","02,5,+00420,1,99,9","04,5,+00600,1,99,9",,,"04,99,1,99,9,99,9,99999,9,99,9,99,9",,"09780,1,99999,9",,,,"MET058METAR EGEO 121150Z 27019KT 9999 FEW014 SCT020 10/07 Q0978;","P01 006003SCOCIG"
"03114099999","2010-11-12T12:20:00","4","56.417","-5.467","4.0","OBAN, UK","FM-15","EGEO ","V020","260,1,N,0077,1","99999,9,C,N","011265,1,N,1","+0100,1","+0070,1","99999,9","04,5,+00540,1,99,9","04,5,+00750,1,09,5",,,"04,99,1,99,9,99,9,99999,9,99,9,99,9",,"09780,1,99999,9",,,,"MET060METAR EGEO 121220Z 26015KT 9999 SCT018 SCT025CB 10/07 Q0978;","P01 007503SCOCIG"
"03114099999","2010-11-12T13:20:00","4","56.417","-5.467","4.0","OBAN, UK","FM-15","EGEO ","V020","250,1,N,0093,1","22000,1,9,N","011265,1,N,1","+0100,1","+0060,1","99999,9","04,5,+00600,1,99,9",,,,"04,99,1,99,9,99,9,99999,9,99,9,99,9",,"09790,1,99999,9","61,1",,,"MET055METAR EGEO 121320Z 25018KT 9999 -RA SCT020 10/06 Q0979;",
"03114099999","2010-11-12T13:50:00","4","56.417","-5.467","4.0","OBAN, UK","FM-15","EGEO ","V020","270,1,N,0087,1","99999,9,C,N","011265,1,N,1","+0090,1","+0060,1","99999,9","02,5,+00450,1,99,9","04,5,+00600,1,99,9",,,"04,99,1,99,9,99,9,99999,9,99,9,99,9",,"09790,1,99999,9",,,,"MET058METAR EGEO 121350Z 27017KT 9999 FEW015 SCT020 09/06 Q0979;","P01 006003SCOCIG"
"03114099999","2010-11-12T14:20:00","4","56.417","-5.467","4.0","OBAN, UK","FM-15","EGEO ","V020","230,1,N,0041,1","99999,9,C,N","011265,1,N,1","+0080,1","+0060,1","99999,9","02,5,+00360,1,99,9","04,5,+00600,1,99,9","04,5,+01200,1,09,5",,"04,99,1,99,9,99,9,99999,9,99,9,99,9",,"09790,1,99999,9",,,,"MET067METAR EGEO 121420Z 23008KT 9999 FEW012 SCT020 SCT040CB 08/06 Q0979;","P01 006003SCOCIG"
"03114099999","2010-11-12T14:50:00","4","56.417","-5.467","4.0","OBAN, UK","FM-15","EGEO ","V020","240,1,N,0072,1","00450,1,C,N","011265,1,N,1","+0090,1","+0070,1","99999,9","07,5,+00450,1,99,9",,,,"07,99,1,99,9,99,9,99999,9,99,9,99,9",,"09790,1,99999,9","61,1",,,"MET055METAR EGEO 121450Z 24014KT 9999 -RA BKN015 09/07 Q0979;",
"03114099999","2010-11-12T15:20:00","4","56.417","-5.467","4.0","OBAN, UK","FM-15","EGEO ","V020","999,9,N,0082,1","99999,9,C,N","011265,1,N,1","+0090,1","+0060,1","99999,9","02,5,+00480,1,99,9","04,5,+00690,1,99,9",,,"04,99,1,99,9,99,9,99999,9,99,9,99,9",,"09790,1,99999,9","63,1",,,"MET061METAR EGEO 121520Z 25116KT 9999 RA FEW016 SCT023 09/06 Q0979;","P01 006903SCOCIG"
"03114099999","2010-11-12T15:50:00","4","56.417","-5.467","4.0","OBAN, UK","FM-15","EGEO ","V020","270,1,N,0103,1","99999,9,C,N","011265,1,N,1","+0090,1","+0060,1","99999,9","02,5,+00480,1,99,9","04,5,+00600,1,99,9",,,"04,99,1,99,9,99,9,99999,9,99,9,99,9",,"09790,1,99999,9","63,1",,,"MET061METAR EGEO 121550Z 27020KT 9999 RA FEW016 SCT020 09/06 Q0979;","P01 006003SCOCIG"
"03114099999","2010-11-12T16:20:00","4","56.417","-5.467","4.0","OBAN, UK","FM-15","EGEO ","V020","240,1,N,0072,1","99999,9,C,N","011265,1,N,1","+0090,1","+0060,1","99999,9","02,5,+00360,1,99,9","04,5,+00600,1,99,9","04,5,+01050,1,99,9",,"04,99,1,99,9,99,9,99999,9,99,9,99,9",,"09800,1,99999,9",,,,"MET070METAR EGEO 121620Z 24014KT 9999 FEW012 SCT020 SCT035 09/06 Q0980 RERA;","P01 006003SCOCIG"
"03114099999","2010-11-12T16:50:00","4","56.417","-5.467","4.0","OBAN, UK","FM-15","EGEO ","V020","270,1,N,0087,1","99999,9,C,N","011265,1,N,1","+0090,1","+0060,1","99999,9","04,5,+00540,1,99,9","04,5,+00720,1,99,9",,,"04,99,1,99,9,99,9,99999,9,99,9,99,9",,"09800,1,99999,9","63,1",,,"MET061METAR EGEO 121650Z 27017KT 9999 RA SCT018 SCT024 09/06 Q0980;","P01 007203SCOCIG"
"03114099999","2010-11-13T07:50:00","4","56.417","-5.467","4.0","OBAN, UK","FM-15","EGEO ","V020","290,1,N,0057,1","99999,9,C,N","011265,1,N,1","+0070,1","+0040,1","99999,9","04,5,+00600,1,99,9","04,5,+01020,1,99,9",,,"04,99,1,99,9,99,9,99999,9,99,9,99,9",,"09831,1,99999,9","61,1",,,"MET069METAR EGEO 130750Z 29011KT 9999 7000NW -RA SCT020 SCT034 07/04 Q0983;","P01 010203SCOCIG"
"03114099999","2010-11-13T08:20:00","4","56.417","-5.467","4.0","OBAN, UK","FM-15","EGEO ","V020","290,1,N,0015,1","99999,9,C,N","011265,1,N,1","+0070,1","+0030,1","99999,9","04,5,+00660,1,99,9","04,5,+00960,1,99,9",,,"04,99,1,99,9,99,9,99999,9,99,9,99,9",,"09831,1,99999,9",,,,"MET058METAR EGEO 130820Z 29003KT 9999 SCT022 SCT032 07/03 Q0983;","P01 009603SCOCIG"
"03114099999","2010-11-13T08:50:00","4","56.417","-5.467","4.0","OBAN, UK","FM-15","EGEO ","V020","999,9,V,0015,1","99999,9,C,N","011265,1,N,1","+0060,1","+0040,1","99999,9","04,5,+00600,1,99,9","04,5,+00960,1,99,9",,,"04,99,1,99,9,99,9,99999,9,99,9,99,9",,"09841,1,99999,9","63,1",,,"MET061METAR EGEO 130850Z VRB03KT 9999 RA SCT020 SCT032 06/04 Q0984;","P01 009603SCOCIG"
"03114099999","2010-11-13T09:20:00","4","56.417","-5.467","4.0","OBAN, UK","FM-15","EGEO ","V020","080,1,N,0021,1","99999,9,C,N","011265,1,N,1","+0060,1","+0040,1","99999,9","04,5,+00600,1,99,9","04,5,+00900,1,99,9",,,"04,99,1,99,9,99,9,99999,9,99,9,99,9",,"09841,1,99999,9","63,1",,,"MET061METAR EGEO 130920Z 08004KT 9999 RA SCT020 SCT030 06/04 Q0984;","P01 009003SCOCIG"
"03114099999","2010-11-13T09:50:00","4","56.417","-5.467","4.0","OBAN, UK","FM-15","EGEO ","V020","110,1,N,0015,1","00840,1,C,N","011265,1,N,1","+0060,1","+0040,1","99999,9","04,5,+00540,1,99,9","07,5,+00840,1,99,9",,,"07,99,1,99,9,99,9,99999,9,99,9,99,9",,"09841,1,99999,9","65,1",,,"MET062METAR EGEO 130950Z 11003KT 9999 +RA SCT018 BKN028 06/04 Q0984;",
"03114099999","2010-11-13T10:20:00","4","56.417","-5.467","4.0","OBAN, UK","FM-15","EGEO ","V020","110,1,N,0026,1","99999,9,C,N","011265,1,N,1","+0060,1","+0040,1","99999,9","04,5,+00600,1,99,9","04,5,+00900,1,99,9",,,"04,99,1,99,9,99,9,99999,9,99,9,99,9",,"09841,1,99999,9","63,1",,,"MET066METAR EGEO 131020Z 11005KT 9999 RA SCT020 SCT030 06/04 Q0984 RERA;","P01 009003SCOCIG"
"03114099999","2010-11-13T10:50:00","4","56.417","-5.467","4.0","OBAN, UK","FM-15","EGEO ","V020","070,1,N,0010,1","99999,9,C,N","011265,1,N,1","+0060,1","+0050,1","99999,9","04,5,+00540,1,99,9","04,5,+00900,1,99,9",,,"04,99,1,99,9,99,9,99999,9,99,9,99,9",,"09841,1,99999,9",,,,"MET063METAR EGEO 131050Z 07002KT 9999 SCT018 SCT030 06/05 Q0984 RERA;","P01 009003SCOCIG"
"03114099999","2010-11-13T11:20:00","4","56.417","-5.467","4.0","OBAN, UK","FM-15","EGEO ","V020","999,9,V,0015,1","99999,9,C,N","011265,1,N,1","+0070,1","+0050,1","99999,9","04,5,+00600,1,99,9","04,5,+00900,1,99,9",,,"04,99,1,99,9,99,9,99999,9,99,9,99,9",,"09851,1,99999,9",,,,"MET066METAR EGEO 131120Z VRB03KT 050V120 9999 SCT020 SCT030 07/05 Q0985;","P01 009003SCOCIG"
"03114099999","2010-11-13T11:50:00","4","56.417","-5.467","4.0","OBAN, UK","FM-15","EGEO ","V020","030,1,N,0021,1","99999,9,C,N","011265,1,N,1","+0070,1","+0050,1","99999,9","02,5,+00480,1,99,9","04,5,+00660,1,99,9",,,"04,99,1,99,9,99,9,99999,9,99,9,99,9",,"09851,1,99999,9",,,,"MET058METAR EGEO 131150Z 03004KT 9999 FEW016 SCT022 07/05 Q0985;","P01 006603SCOCIG"
"03114099999","2010-11-13T13:50:00","4","56.417","-5.467","4.0","OBAN, UK","FM-15","EGEO ","V020","999,9,9,9999,9","99999,9,C,N","011265,1,N,1","+0080,1","+0050,1","99999,9","02,5,+00150,1,99,9","04,5,+00600,1,99,9",,,"04,99,1,99,9,99,9,99999,9,99,9,99,9",,"09851,1,99999,9",,,,"MET050METAR EGEO 131350Z 9999 FEW005 SCT020 08/05 Q0985;","P01 006003SCOCIG"
"03114099999","2010-11-13T14:20:00","4","56.417","-5.467","4.0","OBAN, UK","FM-15","EGEO ","V020","999,9,V,0005,1","99999,9,C,N","011265,1,N,1","+0090,1","+0050,1","99999,9","02,5,+00180,1,99,9","04,5,+00600,1,99,9",,,"04,99,1,99,9,99,9,99999,9,99,9,99,9",,"09851,1,99999,9",,,,"MET066METAR EGEO 131420Z VRB01KT 190V310 9999 FEW006 SCT020 09/05 Q0985;","P01 006003SCOCIG"
"03114099999","2010-11-13T14:50:00","4","56.417","-5.467","4.0","OBAN, UK","FM-15","EGEO ","V020","350,1,N,0057,1","99999,9,C,N","011265,1,N,1","+0070,1","+0050,1","99999,9","02,5,+00180,1,99,9","04,5,+00540,1,99,9",,,"04,99,1,99,9,99,9,99999,9,99,9,99,9",,"09851,1,99999,9",,,,"MET058METAR EGEO 131450Z 35011KT 9999 FEW006 SCT018 07/05 Q0985;","P01 005403SCOCIG"
"03114099999","2010-11-13T15:20:00","4","56.417","-5.467","4.0","OBAN, UK","FM-15","EGEO ","V020","999,9,V,0010,1","99999,9,C,N","011265,1,N,1","+0070,1","+0050,1","99999,9","02,5,+00180,1,99,9","04,5,+00660,1,99,9",,,"04,99,1,99,9,99,9,99999,9,99,9,99,9",,"09851,1,99999,9",,,,"MET071METAR EGEO 131520Z VRB02KT 280V350 9999 FEW006 SCT022 07/05 Q0985 RERA;","P01 006603SCOCIG"
"03114099999","2010-11-13T15:50:00","4","56.417","-5.467","4.0","OBAN, UK","FM-15","EGEO ","V020","999,9,V,0010,1","99999,9,C,N","011265,1,N,1","+0070,1","+0040,1","99999,9","02,5,+00180,1,99,9","04,5,+00720,1,99,9",,,"04,99,1,99,9,99,9,99999,9,99,9,99,9",,"09861,1,99999,9",,,,"MET066METAR EGEO 131550Z VRB02KT 000V100 9999 FEW006 SCT024 07/04 Q0986;","P01 007203SCOCIG"
"03114099999","2010-11-13T16:20:00","4","56.417","-5.467","4.0","OBAN, UK","FM-15","EGEO ","V020","080,1,N,0026,1","99999,9,C,N","011265,1,N,1","+0060,1","+0040,1","99999,9","02,5,+00240,1,99,9","04,5,+00720,1,99,9",,,"04,99,1,99,9,99,9,99999,9,99,9,99,9",,"09861,1,99999,9",,,,"MET058METAR EGEO 131620Z 08005KT 9999 FEW008 SCT024 06/04 Q0986;","P01 007203SCOCIG"
"03114099999","2010-11-13T16:50:00","4","56.417","-5.467","4.0","OBAN, UK","FM-15","EGEO ","V020","090,1,N,0021,1","99999,9,C,N","011265,1,N,1","+0060,1","+0040,1","99999,9","02,5,+00240,1,99,9","04,5,+00660,1,99,9",,,"04,99,1,99,9,99,9,99999,9,99,9,99,9",,"09861,1,99999,9",,,,"MET058METAR EGEO 131650Z 09004KT 9999 FEW008 SCT022 06/04 Q0986;","P01 006603SCOCIG"
"03114099999","2010-11-15T07:50:00","4","56.417","-5.467","4.0","OBAN, UK","FM-15","EGEO ","V020","080,1,N,0026,1","22000,1,9,N","011265,1,N,1","+0010,1","-0010,1","99999,9","02,5,+00600,1,99,9",,,,"02,99,1,99,9,99,9,99999,9,99,9,99,9",,"10081,1,99999,9",,,,"MET052METAR EGEO 150750Z 08005KT 9999 FEW020 01/M01 Q1008;",
"03114099999","2010-11-15T08:20:00","4","56.417","-5.467","4.0","OBAN, UK","FM-15","EGEO ","V020","080,1,N,0021,1","22000,1,9,N","011265,1,N,1","+0010,1","-0010,1","99999,9","02,5,+00900,1,99,9",,,,"02,99,1,99,9,99,9,99999,9,99,9,99,9",,"10081,1,99999,9",,,,"MET052METAR EGEO 150820Z 08004KT 9999 FEW030 01/M01 Q1008;",
"03114099999","2010-11-15T09:20:00","4","56.417","-5.467","4.0","OBAN, UK","FM-15","EGEO ","V020","090,1,N,0031,1","99999,9,C,N","011265,1,N,1","+0020,1","+0000,1","99999,9","02,5,+00600,1,99,9","04,5,+00750,1,99,9",,,"04,99,1,99,9,99,9,99999,9,99,9,99,9",,"10091,1,99999,9",,,,"MET059METAR EGEO 150920Z 09006KT 9999 FEW020 SCT025 02/M00 Q1009;","P01 007503SCOCIG"
"03114099999","2010-11-15T09:50:00","4","56.417","-5.467","4.0","OBAN, UK","FM-15","EGEO ","V020","080,1,N,0041,1","99999,9,C,N","011265,1,N,1","+0030,1","+0010,1","99999,9","04,5,+00600,1,99,9","04,5,+01050,1,99,9",,,"04,99,1,99,9,99,9,99999,9,99,9,99,9",,"10091,1,99999,9",,,,"MET058METAR EGEO 150950Z 08008KT 9999 SCT020 SCT035 03/01 Q1009;","P01 010503SCOCIG"
"03114099999","2010-11-15T10:20:00","4","56.417","-5.467","4.0","OBAN, UK","FM-15","EGEO ","V020","070,1,N,0031,1","99999,9,C,N","011265,1,N,1","+0040,1","+0010,1","99999,9","04,5,+00600,1,99,9","04,5,+00900,1,99,9",,,"04,99,1,99,9,99,9,99999,9,99,9,99,9",,"10091,1,99999,9",,,,"MET058METAR EGEO 151020Z 07006KT 9999 SCT020 SCT030 04/01 Q1009;","P01 009003SCOCIG"
"03114099999","2010-11-15T10:50:00","4","56.417","-5.467","4.0","OBAN, UK","FM-15","EGEO ","V020","090,1,N,0026,1","99999,9,C,N","011265,1,N,1","+0050,1","+0020,1","99999,9","02,5,+00360,1,99,9","04,5,+00600,1,99,9",,,"04,99,1,99,9,99,9,99999,9,99,9,99,9",,"10091,1,99999,9",,,,"MET058METAR EGEO 151050Z 09005KT 9999 FEW012 SCT020 05/02 Q1009;","P01 006003SCOCIG"
"03114099999","2010-11-15T11:20:00","4","56.417","-5.467","4.0","OBAN, UK","FM-15","EGEO ","V020","080,1,N,0026,1","22000,1,9,N","011265,1,N,1","+0060,1","+0020,1","99999,9","04,5,+00540,1,99,9",,,,"04,99,1,99,9,99,9,99999,9,99,9,99,9",,"10091,1,99999,9",,,,"MET051METAR EGEO 151120Z 08005KT 9999 SCT018 06/02 Q1009;",
"03114099999","2010-11-15T11:50:00","4","56.417","-5.467","4.0","OBAN, UK","FM-15","EGEO ","V020","110,1,N,0041,1","22000,1,9,N","011265,1,N,1","+0060,1","+0030,1","99999,9","04,5,+00540,1,99,9",,,,"04,99,1,99,9,99,9,99999,9,99,9,99,9",,"10091,1,99999,9",,,,"MET051METAR EGEO 151150Z 11008KT 9999 SCT018 06/03 Q1009;",
"03114099999","2010-11-15T12:20:00","4","56.417","-5.467","4.0","OBAN, UK","FM-15","EGEO ","V020","090,1,N,0041,1","22000,1,9,N","011265,1,N,1","+0070,1","+0030,1","99999,9","04,5,+00600,1,99,9",,,,"04,99,1,99,9,99,9,99999,9,99,9,99,9",,"10091,1,99999,9",,,,"MET051METAR EGEO 151220Z 09008KT 9999 SCT020 07/03 Q1009;",
"03114099999","2010-11-15T13:50:00","4","56.417","-5.467","4.0","OBAN, UK","FM-15","EGEO ","V020","120,1,N,0031,1","99999,9,C,N","011265,1,N,1","+0070,1","+0040,1","99999,9","04,5,+00540,1,99,9","04,5,+00660,1,99,9",,,"04,99,1,99,9,99,9,99999,9,99,9,99,9",,,,,,"MET060METAR EGEO 151350Z 12006KT 100V160 9999 SCT018 SCT022 07/04;","P01 006603SCOCIG"
"03114099999","2010-11-15T14:20:00","4","56.417","-5.467","4.0","OBAN, UK","FM-15","EGEO ","V020","120,1,N,0031,1","99999,9,C,N","011265,1,N,1","+0070,1","+0040,1","99999,9","02,5,+00330,1,99,9","04,5,+00540,1,99,9",,,"04,99,1,99,9,99,9,99999,9,99,9,99,9",,"10081,1,99999,9",,,,"MET058METAR EGEO 151420Z 12006KT 9999 FEW011 SCT018 07/04 Q1008;","P01 005403SCOCIG"
"03114099999","2010-11-15T14:50:00","4","56.417","-5.467","4.0","OBAN, UK","FM-15","EGEO ","V020","120,1,N,0031,1","99999,9,C,N","011265,1,N,1","+0060,1","+0040,1","99999,9","04,5,+00420,1,99,9","04,5,+00540,1,99,9",,,"04,99,1,99,9,99,9,99999,9,99,9,99,9",,"10081,1,99999,9","63,1",,,"MET068METAR EGEO 151450Z 12006KT 9999 5000NW RA SCT014 SCT018 06/04 Q1008;","P01 005403SCOCIG"
"03114099999","2010-11-15T15:20:00","4","56.417","-5.467","4.0","OBAN, UK","FM-15","EGEO ","V020","120,1,N,0036,1","00420,1,C,N","011265,1,N,1","+0060,1","+0040,1","99999,9","02,5,+00300,1,99,9","07,5,+00420,1,99,9",,,"07,99,1,99,9,99,9,99999,9,99,9,99,9",,"10081,1,99999,9","63,1",,,"MET061METAR EGEO 151520Z 12007KT 9999 RA FEW010 BKN014 06/04 Q1008;",
"03114099999","2010-11-15T16:20:00","4","56.417","-5.467","4.0","OBAN, UK","FM-15","EGEO ","V020","140,1,N,0031,1","99999,9,C,N","011265,1,N,1","+0070,1","+0050,1","99999,9","04,5,+00300,1,99,9","04,5,+00450,1,99,9",,,"04,99,1,99,9,99,9,99999,9,99,9,99,9",,"10091,1,99999,9","63,1",,,"MET068METAR EGEO 151620Z 14006KT 9999 3000NW RA SCT010 SCT015 07/05 Q1009;","P01 004503SCOCIG"
"03114099999","2010-11-15T16:50:00","4","56.417","-5.467","4.0","OBAN, UK","FM-15","EGEO ","V020","190,1,N,0036,1","00540,1,C,N","011265,1,N,1","+0070,1","+0050,1","99999,9","02,5,+00300,1,99,9","04,5,+00540,1,99,9","07,5,+01050,1,99,9",,"07,99,1,99,9,99,9,99999,9,99,9,99,9",,"10091,1,99999,9",,,,"MET070METAR EGEO 151650Z 19007KT 9999 FEW010 SCT018 BKN035 07/05 Q1009 RERA;",
"03114099999","2010-11-16T07:50:00","4","56.417","-5.467","4.0","OBAN, UK","FM-15","EGEO ","V020","110,1,N,0041,1","99999,9,C,N","011265,1,N,1","+0060,1","+0030,1","99999,9","02,5,+00300,1,99,9","04,5,+00420,1,99,9","04,5,+00720,1,99,9",,"04,99,1,99,9,99,9,99999,9,99,9,99,9",,"10149,1,99999,9",,,,"MET065METAR EGEO 160750Z 11008KT 9999 FEW010 SCT014 SCT024 06/03 Q1015;","P01 004203SCOCIG"
"03114099999","2010-11-16T08:20:00","4","56.417","-5.467","4.0","OBAN, UK","FM-15","EGEO ","V020","110,1,N,0051,1","99999,9,C,N","011265,1,N,1","+0060,1","+0040,1","99999,9","02,5,+00240,1,99,9","04,5,+00660,1,99,9",,,"04,99,1,99,9,99,9,99999,9,99,9,99,9",,"10149,1,99999,9",,,,"MET072METAR EGEO 160820Z 11010KT 070V130 9999 5000N FEW008 SCT022 06/04 Q1015;","P01 006603SCOCIG"
"03114099999","2010-11-16T08:50:00","4","56.417","-5.467","4.0","OBAN, UK","FM-15","EGEO ","V020","120,1,N,0046,1","99999,9,C,N","011265,1,N,1","+0060,1","+0040,1","99999,9","04,5,+00420,1,99,9","04,5,+00600,1,99,9",,,"04,99,1,99,9,99,9,99999,9,99,9,99,9",,"10149,1,99999,9","61,1",,,"MET070METAR EGEO 160850Z 12009KT 090V160 9999 -RA SCT014 SCT020 06/04 Q1015;","P01 006003SCOCIG"
"03114099999","2010-11-16T09:20:00","4","56.417","-5.467","4.0","OBAN, UK","FM-15","EGEO ","V020","110,1,N,0031,1","99999,9,C,N","008000,1,N,1","+0060,1","+0040,1","99999,9","04,5,+00420,1,99,9","04,5,+00540,1,99,9",,,"04,99,1,99,9,99,9,99999,9,99,9,99,9",,"10149,1,99999,9",,,,"MET058METAR EGEO 160920Z 11006KT 8000 SCT014 SCT018 06/04 Q1015;","P01 005403SCOCIG"
"03114099999","2010-11-16T09:50:00","4","56.417","-5.467","4.0","OBAN, UK","FM-15","EGEO ","V020","110,1,N,0036,1","00420,1,C,N","011265,1,N,1","+0060,1","+0050,1","99999,9","04,5,+00300,1,99,9","07,5,+00420,1,99,9",,,"07,99,1,99,9,99,9,99999,9,99,9,99,9",,"10149,1,99999,9","61,1",,,"MET062METAR EGEO 160950Z 11007KT 9999 -RA SCT010 BKN014 06/05 Q1015;",
"03114099999","2010-11-16T10:20:00","4","56.417","-5.467","4.0","OBAN, UK","FM-15","EGEO ","V020","110,1,N,0036,1","00420,1,C,N","008000,1,N,1","+0060,1","+0050,1","99999,9","04,5,+00300,1,99,9","07,5,+00420,1,99,9",,,"07,99,1,99,9,99,9,99999,9,99,9,99,9",,"10149,1,99999,9","61,1",,,"MET062METAR EGEO 161020Z 11007KT 8000 -RA SCT010 BKN014 06/05 Q1015;",
"03114099999","2010-11-16T10:50:00","4","56.417","-5.467","4.0","OBAN, UK","FM-15","EGEO ","V020","120,1,N,0036,1","00420,1,C,N","011265,1,N,1","+0070,1","+0050,1","99999,9","04,5,+00300,1,99,9","07,5,+00420,1,99,9",,,"07,99,1,99,9,99,9,99999,9,99,9,99,9",,"10149,1,99999,9","61,1",,,"MET062METAR EGEO 161050Z 12007KT 9999 -RA SCT010 BKN014 07/05 Q1015;",
"03114099999","2010-11-16T11:20:00","4","56.417","-5.467","4.0","OBAN, UK","FM-15","EGEO ","V020","100,1,N,0041,1","00420,1,C,N","011265,1,N,1","+0070,1","+0050,1","99999,9","02,5,+00330,1,99,9","04,5,+00420,1,99,9","07,5,+00540,1,99,9",,"07,99,1,99,9,99,9,99999,9,99,9,99,9",,"10149,1,99999,9",,,,"MET065METAR EGEO 161120Z 10008KT 9999 FEW011 SCT014 BKN018 07/05 Q1015;",
"03114099999","2010-11-16T11:50:00","4","56.417","-5.467","4.0","OBAN, UK","FM-15","EGEO ","V020","100,1,N,0046,1","00420,1,C,N","011265,1,N,1","+0070,1","+0050,1","99999,9","02,5,+00330,1,99,9","04,5,+00420,1,99,9","07,5,+00480,1,99,9",,"07,99,1,99,9,99,9,99999,9,99,9,99,9",,"10149,1,99999,9",,,,"MET065METAR EGEO 161150Z 10009KT 9999 FEW011 SCT014 BKN016 07/05 Q1015;",
"03114099999","2010-11-16T13:50:00","4","56.417","-5.467","4.0","OBAN, UK","FM-15","EGEO ","V020","130,1,N,0051,1","99999,9,C,N","011265,1,N,1","+0080,1","+0060,1","99999,9","04,5,+00330,1,99,9","04,5,+00540,1,99,9",,,"04,99,1,99,9,99,9,99999,9,99,9,99,9",,"10129,1,99999,9",,,,"MET058METAR EGEO 161350Z 13010KT 9999 SCT011 SCT018 08/06 Q1013;","P01 005403SCOCIG"
"03114099999","2010-11-16T14:20:00","4","56.417","-5.467","4.0","OBAN, UK","FM-15","EGEO ","V020","110,1,N,0062,1","99999,9,C,N","011265,1,N,1","+0080,1","+0060,1","99999,9","04,5,+00300,1,99,9","04,5,+00540,1,99,9",,,"04,99,1,99,9,99,9,99999,9,99,9,99,9",,"10129,1,99999,9",,,,"MET058METAR EGEO 161420Z 11012KT 9999 SCT010 SCT018 08/06 Q1013;","P01 005403SCOCIG"
"03114099999","2010-11-16T14:50:00","4","56.417","-5.467","4.0","OBAN, UK","FM-15","EGEO ","V020","110,1,N,0046,1","99999,9,C,N","011265,1,N,1","+0080,1","+0060,1","99999,9","04,5,+00300,1,99,9","04,5,+00540,1,99,9",,,"04,99,1,99,9,99,9,99999,9,99,9,99,9",,"10129,1,99999,9",,,,"MET058METAR EGEO 161450Z 11009KT 9999 SCT010 SCT018 08/06 Q1013;","P01 005403SCOCIG"
"03114099999","2010-11-16T15:20:00","4","56.417","-5.467","4.0","OBAN, UK","FM-15","EGEO ","V020","120,1,N,0062,1","22000,1,9,N","011265,1,N,1","+0080,1","+0060,1","99999,9","04,5,+00540,1,99,9",,,,"04,99,1,99,9,99,9,99999,9,99,9,99,9",,"10119,1,99999,9",,,,"MET051METAR EGEO 161520Z 12012KT 9999 SCT018 08/06 Q1012;",
"03114099999","2010-11-16T15:50:00","4","56.417","-5.467","4.0","OBAN, UK","FM-15","EGEO ","V020","999,9,9,9999,9","00540,1,C,N","011265,1,N,1","+0090,1","+0050,1","99999,9","04,5,+00360,1,99,9","07,5,+00540,1,99,9",,,"07,99,1,99,9,99,9,99999,9,99,9,99,9",,"10119,1,99999,9",,,,"MET050METAR EGEO 161550Z 9999 SCT012 BKN018 09/05 Q1012;",
"03114099999","2010-11-16T16:20:00","4","56.417","-5.467","4.0","OBAN, UK","FM-15","EGEO ","V020","110,1,N,0046,1","22000,1,9,N","011265,1,N,1","+0090,1","+0050,1","99999,9","04,5,+00540,1,99,9",,,,"04,99,1,99,9,99,9,99999,9,99,9,99,9",,"10119,1,99999,9",,,,"MET059METAR EGEO 161620Z 11009KT 090V150 9999 SCT018 09/05 Q1012;",
"03114099999","2010-11-16T16:50:00","4","56.417","-5.467","4.0","OBAN, UK","FM-15","EGEO ","V020","110,1,N,0057,1","22000,1,9,N","011265,1,N,1","+0090,1","+0050,1","99999,9","04,5,+00540,1,99,9",,,,"04,99,1,99,9,99,9,99999,9,99,9,99,9",,"10108,1,99999,9",,,,"MET059METAR EGEO 161650Z 11011KT 080V140 9999 SCT018 09/05 Q1011;",
"03114099999","2010-11-17T07:50:00","4","56.417","-5.467","4.0","OBAN, UK","FM-15","EGEO ","V020","120,1,N,0103,1","99999,9,C,N","011265,1,N,1","+0080,1","+0040,1","99999,9","02,5,+00360,1,99,9","04,5,+00600,1,99,9",,,"04,99,1,99,9,99,9,99999,9,99,9,99,9",,"09990,1,99999,9",,,"0206,1","MET061METAR EGEO 170750Z 12020G40KT 9999 FEW012 SCT020 08/04 Q0999;","P01 006003SCOCIG"
"03114099999","2010-11-17T08:20:00","4","56.417","-5.467","4.0","OBAN, UK","FM-15","EGEO ","V020","110,1,N,0113,1","00540,1,C,N","011265,1,N,1","+0080,1","+0040,1","99999,9","07,5,+00540,1,99,9",,,,"07,99,1,99,9,99,9,99999,9,99,9,99,9",,"09990,1,99999,9",,,"0206,1","MET062METAR EGEO 170820Z 11022G40KT 070V160 9999 BKN018 08/04 Q0999;",
"03114099999","2010-11-17T08:50:00","4","56.417","-5.467","4.0","OBAN, UK","FM-15","EGEO ","V020","110,1,N,0118,1","22000,1,9,N","011265,1,N,1","+0080,1","+0030,1","99999,9","04,5,+00600,1,99,9",,,,"04,99,1,99,9,99,9,99999,9,99,9,99,9",,"09990,1,99999,9",,,"0180,1","MET062METAR EGEO 170850Z 11023G35KT 080V150 9999 SCT020 08/03 Q0999;",
"03114099999","2010-11-17T09:20:00","4","56.417","-5.467","4.0","OBAN, UK","FM-15","EGEO ","V020","110,1,N,0123,1","99999,9,C,N","011265,1,N,1","+0080,1","+0030,1","99999,9","02,5,+00330,1,99,9","04,5,+00600,1,99,9",,,"04,99,1,99,9,99,9,99999,9,99,9,99,9",,"09990,1,99999,9",,,"0201,1","MET061METAR EGEO 170920Z 11024G39KT 9999 FEW011 SCT020 08/03 Q0999;","P01 006003SCOCIG"
"03114099999","2010-11-17T09:50:00","4","56.417","-5.467","4.0","OBAN, UK","FM-15","EGEO ","V020","110,1,N,0129,1","22000,1,9,N","011265,1,N,1","+0080,1","+0030,1","99999,9","04,5,+00900,1,99,9",,,,"04,99,1,99,9,99,9,99999,9,99,9,99,9",,"09990,1,99999,9","61,1",,"0221,1","MET058METAR EGEO 170950Z 11025G43KT 9999 -RA SCT030 08/03 Q0999;",
"03114099999","2010-11-17T10:20:00","4","56.417","-5.467","4.0","OBAN, UK","FM-15","EGEO ","V020","120,1,N,0118,1","22000,1,9,N","011265,1,N,1","+0080,1","+0030,1","99999,9","04,5,+00540,1,99,9",,,,"04,99,1,99,9,99,9,99999,9,99,9,99,9",,"09990,1,99999,9",,,"0180,1","MET054METAR EGEO 171020Z 12023G35KT 9999 SCT018 08/03 Q0999;",
"03114099999","2010-11-17T10:50:00","4","56.417","-5.467","4.0","OBAN, UK","FM-15","EGEO ","V020","110,1,N,0118,1","22000,1,9,N","011265,1,N,1","+0080,1","+0030,1","99999,9","04,5,+00540,1,99,9",,,,"04,99,1,99,9,99,9,99999,9,99,9,99,9",,"10000,1,99999,9","61,1",,"0195,1","MET066METAR EGEO 171050Z 11023G38KT 090V150 9999 -RA SCT018 08/03 Q1000;",
"03114099999","2010-11-17T11:20:00","4","56.417","-5.467","4.0","OBAN, UK","FM-15","EGEO ","V020","110,1,N,0108,1","22000,1,9,N","011265,1,N,1","+0080,1","+0030,1","99999,9","04,5,+00600,1,99,9",,,,"04,99,1,99,9,99,9,99999,9,99,9,99,9",,"10000,1,99999,9",,,"0180,1","MET062METAR EGEO 171120Z 11021G35KT 070V140 9999 SCT020 08/03 Q1000;",
"03114099999","2010-11-17T11:50:00","4","56.417","-5.467","4.0","OBAN, UK","FM-15","EGEO ","V020","110,1,N,0103,1","22000,1,9,N","011265,1,N,1","+0080,1","+0030,1","99999,9","04,5,+00600,1,99,9",,,,"04,99,1,99,9,99,9,99999,9,99,9,99,9",,"10000,1,99999,9","61,1",,"0159,1","MET058METAR EGEO 171150Z 11020G31KT 9999 -RA SCT020 08/03 Q1000;",
"03114099999","2010-11-17T12:20:00","4","56.417","-5.467","4.0","OBAN, UK","FM-15","EGEO ","V020","110,1,N,0108,1","22000,1,9,N","011265,1,N,1","+0080,1","+0030,1","99999,9","04,5,+00600,1,99,9",,,,"04,99,1,99,9,99,9,99999,9,99,9,99,9",,"10000,1,99999,9","61,1",,"0195,1","MET066METAR EGEO 171220Z 11021G38KT 080V150 9999 -RA SCT020 08/03 Q1000;",
"03114099999","2010-11-17T12:50:00","4","56.417","-5.467","4.0","OBAN, UK","FM-15","EGEO ","V020","110,1,N,0108,1","99999,9,C,N","011265,1,N,1","+0080,1","+0030,1","99999,9","02,5,+00540,1,99,9","04,5,+00600,1,99,9",,,"04,99,1,99,9,99,9,99999,9,99,9,99,9",,"10000,1,99999,9","61,1",,"0201,1","MET065METAR EGEO 171250Z 11021G39KT 9999 -RA FEW018 SCT020 08/03 Q1000;","P01 006003SCOCIG"
"03114099999","2010-11-17T13:20:00","4","56.417","-5.467","4.0","OBAN, UK","FM-15","EGEO ","V020","100,1,N,0093,1","99999,9,C,N","011265,1,N,1","+0080,1","+0030,1","99999,9","02,5,+00540,1,99,9","04,5,+00600,1,99,9",,,"04,99,1,99,9,99,9,99999,9,99,9,99,9",,"10000,1,99999,9","61,1",,"0159,1","MET065METAR EGEO 171320Z 10018G31KT 9999 -RA FEW018 SCT020 08/03 Q1000;","P01 006003SCOCIG"
"03114099999","2010-11-17T13:50:00","4","56.417","-5.467","4.0","OBAN, UK","FM-15","EGEO ","V020","100,1,N,0082,1","22000,1,9,N","011265,1,N,1","+0080,1","+0030,1","99999,9","04,5,+00540,1,99,9",,,,"04,99,1,99,9,99,9,99999,9,99,9,99,9",,"10000,1,99999,9","61,1",,"0139,1","MET066METAR EGEO 171350Z 10016G27KT 060V150 9999 -RA SCT018 08/03 Q1000;",
"03114099999","2010-11-17T14:20:00","4","56.417","-5.467","4.0","OBAN, UK","FM-15","EGEO ","V020","110,1,N,0077,1","00450,1,C,N","011265,1,N,1","+0070,1","+0040,1","99999,9","07,5,+00450,1,99,9","07,5,+00900,1,99,9",,,"07,99,1,99,9,99,9,99999,9,99,9,99,9",,"10000,1,99999,9",,,"0144,1","MET061METAR EGEO 171420Z 11015G28KT 9999 BKN015 BKN030 07/04 Q1000;",
"03114099999","2010-11-17T14:50:00","4","56.417","-5.467","4.0","OBAN, UK","FM-15","EGEO ","V020","100,1,N,0087,1","00900,1,C,N","011265,1,N,1","+0070,1","+0030,1","99999,9","04,5,+00540,1,99,9","07,5,+00900,1,99,9",,,"07,99,1,99,9,99,9,99999,9,99,9,99,9",,"09990,1,99999,9",,,"0139,1","MET069METAR EGEO 171450Z 10017G27KT 070V140 9999 SCT018 BKN030 07/03 Q0999;",
"03114099999","2010-11-17T15:20:00","4","56.417","-5.467","4.0","OBAN, UK","FM-15","EGEO ","V020","100,1,N,0082,1","00600,1,C,N","011265,1,N,1","+0070,1","+0030,1","99999,9","02,5,+00360,1,99,9","04,5,+00600,1,99,9","04,5,+00600,1,99,9","07,5,+00900,1,99,9","07,99,1,99,9,99,9,99999,9,99,9,99,9",,"10000,1,99999,9",,,"0154,1","MET075METAR EGEO 171520Z 10016G30KT 9999 SCT020 FEW012 SCT020 BKN030 07/03 Q1000;",
"03114099999","2010-11-17T15:50:00","4","56.417","-5.467","4.0","OBAN, UK","FM-15","EGEO ","V020","100,1,N,0077,1","00900,1,C,N","011265,1,N,1","+0070,1","+0030,1","99999,9","07,5,+00900,1,99,9",,,,"07,99,1,99,9,99,9,99999,9,99,9,99,9",,"10000,1,99999,9",,,"0134,1","MET054METAR EGEO 171550Z 10015G26KT 9999 BKN030 07/03 Q1000;",
"03114099999","2010-11-17T16:20:00","4","56.417","-5.467","4.0","OBAN, UK","FM-15","EGEO ","V020","100,1,N,0067,1","00900,1,C,N","011265,1,N,1","+0070,1","+0030,1","99999,9","04,5,+00600,1,99,9","07,5,+00900,1,99,9",,,"07,99,1,99,9,99,9,99999,9,99,9,99,9",,"10000,1,99999,9",,,"0134,1","MET061METAR EGEO 171620Z 10013G26KT 9999 SCT020 BKN030 07/03 Q1000;",
"03114099999","2010-11-18T07:50:00","4","56.417","-5.467","4.0","OBAN, UK","FM-15","EGEO ","V020","070,1,N,0051,1","22000,1,9,N","011265,1,N,1","+0080,1","+0020,1","99999,9","04,5,+00750,1,99,9",,,,"04,99,1,99,9,99,9,99999,9,99,9,99,9",,"09980,1,99999,9",,,"0113,1","MET062METAR EGEO 180750Z 07010G22KT 050V140 9999 SCT025 08/02 Q0998;",
"03114099999","2010-11-18T08:20:00","4","56.417","-5.467","4.0","OBAN, UK","FM-15","EGEO ","V020","070,1,N,0051,1","22000,1,9,N","011265,1,N,1","+0080,1","+0020,1","99999,9","04,5,+00660,1,99,9",,,,"04,99,1,99,9,99,9,99999,9,99,9,99,9",,"09980,1,99999,9",,,,"MET051METAR EGEO 180820Z 07010KT 9999 SCT022 08/02 Q0998;",
"03114099999","2010-11-18T08:50:00","4","56.417","-5.467","4.0","OBAN, UK","FM-15","EGEO ","V020","090,1,N,0062,1","22000,1,9,N","011265,1,N,1","+0080,1","+0020,1","99999,9","04,5,+00660,1,99,9",,,,"04,99,1,99,9,99,9,99999,9,99,9,99,9",,"09970,1,99999,9",,,,"MET059METAR EGEO 180850Z 09012KT 020V130 9999 SCT022 08/02 Q0997;",
"03114099999","2010-11-18T09:20:00","4","56.417","-5.467","4.0","OBAN, UK","FM-15","EGEO ","V020","090,1,N,0057,1","99999,9,C,N","011265,1,N,1","+0080,1","+0030,1","99999,9","02,5,+00540,1,99,9","04,5,+00720,1,99,9",,,"04,99,1,99,9,99,9,99999,9,99,9,99,9",,"09970,1,99999,9",,,"0118,1","MET069METAR EGEO 180920Z 09011G23KT 060V130 9999 FEW018 SCT024 08/03 Q0997;","P01 007203SCOCIG"
"03114099999","2010-11-18T09:50:00","4","56.417","-5.467","4.0","OBAN, UK","FM-15","EGEO ","V020","100,1,N,0062,1","00660,5,9,N","999999,9,N,1","+0080,1","+0030,1","99999,9","02,5,+00330,5,99,9","07,5,+00660,5,99,9",,,,"999,M,+9999,9","09970,1,99999,9",,,"0113,1","MET064METAR EGEO 180950Z 10012G22KT 040V150 FEW011 BKN022 08/03 Q0997;","Q01 +00122ATMX  "
"03114099999","2010-11-18T10:20:00","4","56.417","-5.467","4.0","OBAN, UK","FM-15","EGEO ","V020","090,1,N,0057,1","99999,9,C,N","011265,1,N,1","+0080,1","+0030,1","99999,9","04,5,+00660,1,99,9","04,5,+01050,1,99,9",,,"04,99,1,99,9,99,9,99999,9,99,9,99,9",,"09970,1,99999,9",,,"0129,1","MET069METAR EGEO 181020Z 09011G25KT 060V140 9999 SCT022 SCT035 08/03 Q0997;","P01 010503SCOCIG"
"03114099999","2010-11-18T10:50:00","4","56.417","-5.467","4.0","OBAN, UK","FM-15","EGEO ","V020","100,1,N,0067,1","99999,9,C,N","011265,1,N,1","+0080,1","+0030,1","99999,9","02,5,+00300,1,99,9","04,5,+00660,1,99,9",,,"04,99,1,99,9,99,9,99999,9,99,9,99,9",,"09970,1,99999,9",,,"0139,1","MET069METAR EGEO 181050Z 10013G27KT 080V150 9999 FEW010 SCT022 08/03 Q0997;","P01 006603SCOCIG"
"03114099999","2010-11-18T11:20:00","4","56.417","-5.467","4.0","OBAN, UK","FM-15","EGEO ","V020","090,1,N,0077,1","22000,1,9,N","011265,1,N,1","+0080,1","+0030,1","99999,9","04,5,+00840,1,99,9",,,,"04,99,1,99,9,99,9,99999,9,99,9,99,9",,"09970,1,99999,9",,,"0144,1","MET054METAR EGEO 181120Z 09015G28KT 9999 SCT028 08/03 Q0997;",
"03114099999","2010-11-18T11:50:00","4","56.417","-5.467","4.0","OBAN, UK","FM-15","EGEO ","V020","110,1,N,0067,1","22000,1,9,N","011265,1,N,1","+0080,1","+0030,1","99999,9","04,5,+00750,1,99,9",,,,"04,99,1,99,9,99,9,99999,9,99,9,99,9",,"09970,1,99999,9",,,"0129,1","MET062METAR EGEO 181150Z 11013G25KT 050V150 9999 SCT025 08/03 Q0997;",
"03114099999","2010-11-18T12:20:00","4","56.417","-5.467","4.0","OBAN, UK","FM-15","EGEO ","V020","090,1,N,0077,1","22000,1,9,N","011265,1,N,1","+0080,1","+0030,1","99999,9","04,5,+00600,1,99,9",,,,"04,99,1,99,9,99,9,99999,9,99,9,99,9",,"09970,1,99999,9",,,,"MET051METAR EGEO 181220Z 09015KT 9999 SCT020 08/03 Q0997;",
"03114099999","2010-11-18T12:50:00","4","56.417","-5.467","4.0","OBAN, UK","FM-15","EGEO ","V020","090,1,N,0067,1","22000,1,9,N","011265,1,N,1","+0080,1","+0030,1","99999,9","04,5,+00600,1,99,9",,,,"04,99,1,99,9,99,9,99999,9,99,9,99,9",,"09980,1,99999,9",,,"0123,1","MET062METAR EGEO 181250Z 09013G24KT 060V130 9999 SCT020 08/03 Q0998;",
"03114099999","2010-11-18T13:20:00","4","56.417","-5.467","4.0","OBAN, UK","FM-15","EGEO ","V020","090,1,N,0067,1","22000,1,9,N","011265,1,N,1","+0080,1","+0030,1","99999,9","04,5,+00660,1,99,9",,,,"04,99,1,99,9,99,9,99999,9,99,9,99,9",,"09970,1,99999,9",,,,"MET051METAR EGEO 181320Z 09013KT 9999 SCT022 08/03 Q0997;",
"03114099999","2010-11-18T13:50:00","4","56.417","-5.467","4.0","OBAN, UK","FM-15","EGEO ","V020","999,9,9,9999,9","99999,9,C,N","011265,1,N,1","+0080,1","+0040,1","99999,9","02,5,+00480,1,99,9","04,5,+00660,1,99,9",,,"04,99,1,99,9,99,9,99999,9,99,9,99,9",,"09970,1,99999,9",,,,"MET050METAR EGEO 181350Z 9999 FEW016 SCT022 08/04 Q0997;","P01 006603SCOCIG"
"03114099999","2010-11-18T14:20:00","4","56.417","-5.467","4.0","OBAN, UK","FM-15","EGEO ","V020","100,1,N,0062,1","99999,9,C,N","011265,1,N,1","+0080,1","+0040,1","99999,9","02,5,+00480,1,99,9","04,5,+00660,1,99,9",,,"04,99,1,99,9,99,9,99999,9,99,9,99,9",,"09970,1,99999,9",,,,"MET066METAR EGEO 181420Z 10012KT 060V140 9999 FEW016 SCT022 08/04 Q0997;","P01 006603SCOCIG"
"03114099999","2010-11-18T14:50:00","4","56.417","-5.467","4.0","OBAN, UK","FM-15","EGEO ","V020","100,1,N,0072,1","99999,9,C,N","011265,1,N,1","+0080,1","+0040,1","99999,9","02,5,+00480,1,99,9","04,5,+00660,1,99,9",,,"04,99,1,99,9,99,9,99999,9,99,9,99,9",,"09970,1,99999,9","61,1",,,"MET070METAR EGEO 181450Z 10014KT 070V150 9999 -RA FEW016 SCT022 08/04 Q0997;","P01 006603SCOCIG"
"03114099999","2010-11-18T15:20:00","4","56.417","-5.467","4.0","OBAN, UK","FM-15","EGEO ","V020","110,1,N,0062,1","99999,9,C,N","011265,1,N,1","+0070,1","+0040,1","99999,9","02,5,+00450,1,99,9","04,5,+00600,1,99,9",,,"04,99,1,99,9,99,9,99999,9,99,9,99,9",,"09970,1,99999,9","63,1",,,"MET061METAR EGEO 181520Z 11012KT 9999 RA FEW015 SCT020 07/04 Q0997;","P01 006003SCOCIG"
"03114099999","2010-11-18T15:50:00","4","56.417","-5.467","4.0","OBAN, UK","FM-15","EGEO ","V020","110,1,N,0077,1","22000,1,9,N","011265,1,N,1","+0080,1","+0040,1","99999,9","04,5,+00540,1,99,9",,,,"04,99,1,99,9,99,9,99999,9,99,9,99,9",,"09970,1,99999,9",,,"0144,1","MET067METAR EGEO 181550Z 11015G28KT 080V140 9999 SCT018 08/04 Q0997 RERA;",
"03114099999","2010-11-18T16:20:00","4","56.417","-5.467","4.0","OBAN, UK","FM-15","EGEO ","V020","110,1,N,0072,1","22000,1,9,N","011265,1,N,1","+0080,1","+0040,1","99999,9","04,5,+00600,1,99,9",,,,"04,99,1,99,9,99,9,99999,9,99,9,99,9",,"09970,1,99999,9",,,"0129,1","MET062METAR EGEO 181620Z 11014G25KT 080V150 9999 SCT020 08/04 Q0997;",
"03114099999","2010-11-18T16:50:00","4","56.417","-5.467","4.0","OBAN, UK","FM-15","EGEO ","V020","110,1,N,0062,1","22000,1,9,N","011265,1,N,1","+0080,1","+0040,1","99999,9","04,5,+00600,1,99,9",,,,"04,99,1,99,9,99,9,99999,9,99,9,99,9",,"09980,1,99999,9",,,,"MET059METAR EGEO 181650Z 11012KT 090V160 9999 SCT020 08/04 Q0998;",
"03114099999","2010-11-19T07:50:00","4","56.417","-5.467","4.0","OBAN, UK","FM-15","EGEO ","V020","120,1,N,0031,1","99999,9,C,N","011265,1,N,1","+0080,1","+0060,1","99999,9","04,5,+00540,1,99,9","04,5,+00900,1,99,9",,,"04,99,1,99,9,99,9,99999,9,99,9,99,9",,"10071,1,99999,9",,,,"MET066METAR EGEO 190750Z 12006KT 080V150 9999 SCT018 SCT030 08/06 Q1007;","P01 009003SCOCIG"
"03114099999","2010-11-19T08:20:00","4","56.417","-5.467","4.0","OBAN, UK","FM-15","EGEO ","V020","110,1,N,0021,1","99999,9,C,N","011265,1,N,1","+0080,1","+0060,1","99999,9","02,5,+00360,1,99,9","04,5,+00600,1,99,9",,,"04,99,1,99,9,99,9,99999,9,99,9,99,9",,"10071,1,99999,9",,,,"MET058METAR EGEO 190820Z 11004KT 9999 FEW012 SCT020 08/06 Q1007;","P01 006003SCOCIG"
"03114099999","2010-11-19T08:50:00","4","56.417","-5.467","4.0","OBAN, UK","FM-15","EGEO ","V020","999,9,V,0015,1","22000,1,9,N","011265,1,N,1","+0080,1","+0060,1","99999,9","04,5,+00540,1,99,9",,,,"04,99,1,99,9,99,9,99999,9,99,9,99,9",,"10081,1,99999,9",,,,"MET059METAR EGEO 190850Z VRB03KT 080V160 9999 SCT018 08/06 Q1008;",
"03114099999","2010-11-19T09:20:00","4","56.417","-5.467","4.0","OBAN, UK","FM-15","EGEO ","V020","100,1,N,0015,1","99999,9,C,N","011265,1,N,1","+0080,1","+0060,1","99999,9","02,5,+00360,1,99,9","04,5,+00480,1,99,9",,,"04,99,1,99,9,99,9,99999,9,99,9,99,9",,"10081,1,99999,9",,,,"MET058METAR EGEO 190920Z 10003KT 9999 FEW012 SCT016 08/06 Q1008;","P01 004803SCOCIG"
"03114099999","2010-11-19T09:50:00","4","56.417","-5.467","4.0","OBAN, UK","FM-15","EGEO ","V020","120,1,N,0026,1","22000,1,9,N","011265,1,N,1","+0090,1","+0060,1","99999,9","04,5,+00540,1,99,9",,,,"04,99,1,99,9,99,9,99999,9,99,9,99,9",,"10081,1,99999,9",,,,"MET051METAR EGEO 190950Z 12005KT 9999 SCT018 09/06 Q1008;",
"03114099999","2010-11-19T10:20:00","4","56.417","-5.467","4.0","OBAN, UK","FM-15","EGEO ","V020","140,1,N,0026,1","99999,9,C,N","011265,1,N,1","+0090,1","+0060,1","99999,9","04,5,+00540,1,99,9","04,5,+00750,1,99,9",,,"04,99,1,99,9,99,9,99999,9,99,9,99,9",,"10091,1,99999,9",,,,"MET058METAR EGEO 191020Z 14005KT 9999 SCT018 SCT025 09/06 Q1009;","P01 007503SCOCIG"
"03114099999","2010-11-19T10:50:00","4","56.417","-5.467","4.0","OBAN, UK","FM-15","EGEO ","V020","120,1,N,0026,1","99999,9,C,N","011265,1,N,1","+0090,1","+0060,1","99999,9","04,5,+00540,1,99,9","04,5,+00900,1,99,9",,,"04,99,1,99,9,99,9,99999,9,99,9,99,9",,"10091,1,99999,9",,,,"MET058METAR EGEO 191050Z 12005KT 9999 SCT018 SCT030 09/06 Q1009;","P01 009003SCOCIG"
"03114099999","2010-11-19T14:20:00","4","56.417","-5.467","4.0","OBAN, UK","FM-15","EGEO ","V020","120,1,N,0021,1","99999,9,C,N","011265,1,N,1","+0100,1","+0060,1","99999,9","02,5,+00330,1,99,9","04,5,+00600,1,09,5",,,"04,99,1,99,9,99,9,99999,9,99,9,99,9",,"10102,1,99999,9",,,,"MET060METAR EGEO 191420Z 12004KT 9999 FEW011 SCT020CB 10/06 Q1010;","P01 006003SCOCIG"
"03114099999","2010-11-19T14:50:00","4","56.417","-5.467","4.0","OBAN, UK","FM-15","EGEO ","V020","100,1,N,0026,1","22000,1,9,N","011265,1,N,1","+0090,1","+0050,1","99999,9","04,5,+00600,1,99,9",,,,"04,99,1,99,9,99,9,99999,9,99,9,99,9",,"10102,1,99999,9",,,,"MET051METAR EGEO 191450Z 10005KT 9999 SCT020 09/05 Q1010;",
"03114099999","2010-11-19T15:20:00","4","56.417","-5.467","4.0","OBAN, UK","FM-15","EGEO ","V020","110,1,N,0026,1","22000,1,9,N","999999,9,N,1","+0090,1","+0050,1","99999,9","04,5,+00600,5,99,9",,,,,,"10100,1,99999,9",,,,"MET053METAR EGEO 191520Z 11005KT 07V150 SCT020 09/05 Q1010;",
"03114099999","2010-11-19T15:50:00","4","56.417","-5.467","4.0","OBAN, UK","FM-15","EGEO ","V020","190,1,N,0005,1","22000,1,9,N","011265,1,N,1","+0090,1","+0050,1","99999,9","04,5,+00600,1,99,9",,,,"04,99,1,99,9,99,9,99999,9,99,9,99,9",,"10108,1,99999,9",,,,"MET051METAR EGEO 191550Z 19001KT 9999 SCT020 09/05 Q1011;",
"03114099999","2010-11-19T16:20:00","4","56.417","-5.467","4.0","OBAN, UK","FM-15","EGEO ","V020","080,1,N,0015,1","99999,9,C,N","011265,1,N,1","+0090,1","+0050,1","99999,9","04,5,+00600,1,99,9","04,5,+00750,1,99,9",,,"04,99,1,99,9,99,9,99999,9,99,9,99,9",,"10108,1,99999,9",,,,"MET058METAR EGEO 191620Z 08003KT 9999 SCT020 SCT025 09/05 Q1011;","P01 007503SCOCIG"
"03114099999","2010-11-19T16:50:00","4","56.417","-5.467","4.0","OBAN, UK","FM-15","EGEO ","V020","090,1,N,0021,1","99999,9,C,N","011265,1,N,1","+0090,1","+0050,1","99999,9","04,5,+00600,1,99,9","04,5,+00720,1,99,9",,,"04,99,1,99,9,99,9,99999,9,99,9,99,9",,"10119,1,99999,9",,,,"MET058METAR EGEO 191650Z 09004KT 9999 SCT020 SCT024 09/05 Q1012;","P01 007203SCOCIG"
"03114099999","2010-11-20T08:50:00","4","56.417","-5.467","4.0","OBAN, UK","FM-15","EGEO ","V020","999,9,C,0000,1","99999,9,C,N","011265,1,N,1","+0060,1","+0040,1","99999,9","02,5,+00240,1,99,9","04,5,+00600,1,99,9",,,"04,99,1,99,9,99,9,99999,9,99,9,99,9",,"10180,1,99999,9",,,,"MET058METAR EGEO 200850Z 00000KT 9999 FEW008 SCT020 06/04 Q1018;","P01 006003SCOCIG"
"03114099999","2010-11-20T10:50:00","4","56.417","-5.467","4.0","OBAN, UK","FM-15","EGEO ","V020","070,1,N,0010,1","99999,9,C,N","011265,1,N,1","+0080,1","+0060,1","99999,9","02,5,+00540,1,99,9","04,5,+00780,1,99,9",,,"04,99,1,99,9,99,9,99999,9,99,9,99,9",,"10190,1,99999,9",,,,"MET058METAR EGEO 201050Z 07002KT 9999 FEW018 SCT026 08/06 Q1019;","P01 007803SCOCIG"
"03114099999","2010-11-20T11:20:00","4","56.417","-5.467","4.0","OBAN, UK","FM-15","EGEO ","V020","999,9,V,0010,1","99999,9,C,N","011265,1,N,1","+0090,1","+0060,1","99999,9","02,5,+00480,1,99,9","04,5,+00780,1,99,9",,,"04,99,1,99,9,99,9,99999,9,99,9,99,9",,"10190,1,99999,9",,,,"MET066METAR EGEO 201120Z VRB02KT 040V110 9999 FEW016 SCT026 09/06 Q1019;","P01 007803SCOCIG"
"03114099999","2010-11-20T11:50:00","4","56.417","-5.467","4.0","OBAN, UK","FM-15","EGEO ","V020","090,1,N,0026,1","99999,9,C,N","011265,1,N,1","+0090,1","+0050,1","99999,9","02,5,+00540,1,99,9","04,5,+00840,1,99,9",,,"04,99,1,99,9,99,9,99999,9,99,9,99,9",,"10190,1,99999,9",,,,"MET058METAR EGEO 201150Z 09005KT 9999 FEW018 SCT028 09/05 Q1019;","P01 008403SCOCIG"
"03114099999","2010-11-20T13:50:00","4","56.417","-5.467","4.0","OBAN, UK","FM-15","EGEO ","V020","080,1,N,0036,1","99999,9,C,N","011265,1,N,1","+0090,1","+0040,1","99999,9","02,5,+00600,1,99,9","04,5,+01140,1,99,9",,,"04,99,1,99,9,99,9,99999,9,99,9,99,9",,"10190,1,99999,9",,,,"MET058METAR EGEO 201350Z 08007KT 9999 FEW020 SCT038 09/04 Q1019;","P01 011403SCOCIG"
"03114099999","2010-11-20T14:20:00","4","56.417","-5.467","4.0","OBAN, UK","FM-15","EGEO ","V020","090,1,N,0036,1","99999,9,C,N","011265,1,N,1","+0090,1","+0040,1","99999,9","02,5,+00540,1,99,9","04,5,+01140,1,99,9",,,"04,99,1,99,9,99,9,99999,9,99,9,99,9",,"10190,1,99999,9",,,,"MET058METAR EGEO 201420Z 09007KT 9999 FEW018 SCT038 09/04 Q1019;","P01 011403SCOCIG"
"03114099999","2010-11-20T14:50:00","4","56.417","-5.467","4.0","OBAN, UK","FM-15","EGEO ","V020","100,1,N,0031,1","99999,9,C,N","011265,1,N,1","+0090,1","+0030,1","99999,9","02,5,+00600,1,99,9","04,5,+01080,1,99,9",,,"04,99,1,99,9,99,9,99999,9,99,9,99,9",,"10190,1,99999,9",,,,"MET058METAR EGEO 201450Z 10006KT 9999 FEW020 SCT036 09/03 Q1019;","P01 010803SCOCIG"
"03114099999","2010-11-21T07:50:00","4","56.417","-5.467","4.0","OBAN, UK","FM-15","EGEO ","V020","110,1,N,0005,1","22000,1,9,N","011265,1,N,1","+0020,1","+0000,1","99999,9","02,5,+00540,1,99,9",,,,"02,99,1,99,9,99,9,99999,9,99,9,99,9",,"10210,1,99999,9",,,,"MET051METAR EGEO 210750Z 11001KT 9999 FEW018 02/00 Q1021;",
"03114099999","2010-11-21T08:20:00","4","56.417","-5.467","4.0","OBAN, UK","FM-15","EGEO ","V020","010,1,N,0010,1","22000,1,9,N","011265,1,N,1","+0020,1","+0010,1","99999,9","02,5,+00420,1,99,9",,,,"02,99,1,99,9,99,9,99999,9,99,9,99,9",,"10210,1,99999,9",,,,"MET051METAR EGEO 210820Z 01002KT 9999 FEW014 02/01 Q1021;",
"03114099999","2010-11-21T08:50:00","4","56.417","-5.467","4.0","OBAN, UK","FM-15","EGEO ","V020","999,9,V,0010,1","22000,1,9,N","011265,1,N,1","+0040,1","+0010,1","99999,9","02,5,+00360,1,99,9",,,,"02,99,1,99,9,99,9,99999,9,99,9,99,9",,"10210,1,99999,9",,,,"MET059METAR EGEO 210850Z VRB02KT 090V170 9999 FEW012 04/01 Q1021;",
"03114099999","2010-11-21T09:20:00","4","56.417","-5.467","4.0","OBAN, UK","FM-15","EGEO ","V020","080,1,N,0010,1","22000,1,9,N","011265,1,N,1","+0030,1","+0000,1","99999,9","02,5,+00600,1,99,9",,,,"02,99,1,99,9,99,9,99999,9,99,9,99,9",,"10210,1,99999,9",,,,"MET051METAR EGEO 210920Z 08002KT 9999 FEW020 03/00 Q1021;",
"03114099999","2010-11-21T09:50:00","4","56.417","-5.467","4.0","OBAN, UK","FM-15","EGEO ","V020","110,1,N,0005,1","22000,1,9,N","011265,1,N,1","+0030,1","+0010,1","99999,9","02,5,+00720,1,99,9",,,,"02,99,1,99,9,99,9,99999,9,99,9,99,9",,"10210,1,99999,9",,,,"MET051METAR EGEO 210950Z 11001KT 9999 FEW024 03/01 Q1021;",
"03114099999","2010-11-21T10:20:00","4","56.417","-5.467","4.0","OBAN, UK","FM-15","EGEO ","V020","170,1,N,0010,1","22000,1,9,N","011265,1,N,1","+0030,1","+0010,1","99999,9","02,5,+00780,1,99,9",,,,"02,99,1,99,9,99,9,99999,9,99,9,99,9",,"10210,1,99999,9",,,,"MET051METAR EGEO 211020Z 17002KT 9999 FEW026 03/01 Q1021;",
"03114099999","2010-11-21T10:50:00","4","56.417","-5.467","4.0","OBAN, UK","FM-15","EGEO ","V020","999,9,C,0000,1","22000,1,9,N","011265,1,N,1","+0040,1","+0020,1","99999,9","02,5,+00840,1,99,9",,,,"02,99,1,99,9,99,9,99999,9,99,9,99,9",,"10210,1,99999,9",,,,"MET051METAR EGEO 211050Z 00000KT 9999 FEW028 04/02 Q1021;",
"03114099999","2010-11-21T12:20:00","4","56.417","-5.467","4.0","OBAN, UK","FM-15","EGEO ","V020","040,1,N,0021,1","22000,1,9,N","011265,1,N,1","+0060,1","+0020,1","99999,9","02,5,+00540,1,99,9",,,,"02,99,1,99,9,99,9,99999,9,99,9,99,9",,"10210,1,99999,9",,,,"MET051METAR EGEO 211220Z 04004KT 9999 FEW018 06/02 Q1021;",
"03114099999","2010-11-21T12:50:00","4","56.417","-5.467","4.0","OBAN, UK","FM-15","EGEO ","V020","010,1,N,0036,1","22000,1,9,N","011265,1,N,1","+0070,1","+0020,1","99999,9","02,5,+00660,1,99,9",,,,"02,99,1,99,9,99,9,99999,9,99,9,99,9",,"10200,1,99999,9",,,,"MET051METAR EGEO 211250Z 01007KT 9999 FEW022 07/02 Q1020;",
"03114099999","2010-11-21T13:20:00","4","56.417","-5.467","4.0","OBAN, UK","FM-15","EGEO ","V020","360,1,N,0036,1","22000,1,9,N","011265,1,N,1","+0070,1","+0020,1","99999,9","02,5,+00780,1,99,9",,,,"02,99,1,99,9,99,9,99999,9,99,9,99,9",,"10200,1,99999,9",,,,"MET051METAR EGEO 211320Z 36007KT 9999 FEW026 07/02 Q1020;",
"03114099999","2010-11-21T13:50:00","4","56.417","-5.467","4.0","OBAN, UK","FM-15","EGEO ","V020","010,1,N,0031,1","22000,1,9,N","011265,1,N,1","+0070,1","+0020,1","99999,9","02,5,+00600,1,99,9",,,,"02,99,1,99,9,99,9,99999,9,99,9,99,9",,"10200,1,99999,9",,,,"MET051METAR EGEO 211350Z 01006KT 9999 FEW020 07/02 Q1020;",
"03114099999","2010-11-21T14:20:00","4","56.417","-5.467","4.0","OBAN, UK","FM-15","EGEO ","V020","020,1,N,0026,1","22000,1,9,N","011265,1,N,1","+0070,1","+0020,1","99999,9","02,5,+00900,1,99,9",,,,"02,99,1,99,9,99,9,99999,9,99,9,99,9",,"10200,1,99999,9",,,,"MET051METAR EGEO 211420Z 02005KT 9999 FEW030 07/02 Q1020;",
"03114099999","2010-11-21T14:50:00","4","56.417","-5.467","4.0","OBAN, UK","FM-15","EGEO ","V020","010,1,N,0041,1","22000,1,9,N","011265,1,N,1","+0060,1","+0020,1","99999,9","02,5,+00600,1,99,9",,,,"02,99,1,99,9,99,9,99999,9,99,9,99,9",,"10190,1,99999,9",,,,"MET051METAR EGEO 211450Z 01008KT 9999 FEW020 06/02 Q1019;",
"03114099999","2010-11-21T15:20:00","4","56.417","-5.467","4.0","OBAN, UK","FM-15","EGEO ","V020","030,1,N,0015,1","22000,1,9,N","011265,1,N,1","+0050,1","+0020,1","99999,9","02,5,+00540,1,99,9",,,,"02,99,1,99,9,99,9,99999,9,99,9,99,9",,"10190,1,99999,9",,,,"MET051METAR EGEO 211520Z 03003KT 9999 FEW018 05/02 Q1019;",
"03114099999","2010-11-21T16:20:00","4","56.417","-5.467","4.0","OBAN, UK","FM-15","EGEO ","V020","120,1,N,0010,1","22000,1,9,N","011265,1,N,1","+0040,1","+0010,1","99999,9","02,5,+00600,1,99,9",,,,"02,99,1,99,9,99,9,99999,9,99,9,99,9",,"10190,1,99999,9",,,,"MET051METAR EGEO 211620Z 12002KT 9999 FEW020 04/01 Q1019;",
"03114099999","2010-11-21T16:50:00","4","56.417","-5.467","4.0","OBAN, UK","FM-15","EGEO ","V020","190,1,N,0005,1","22000,1,9,N","011265,1,N,1","+0060,1","+0020,1","99999,9","02,5,+00540,1,99,9",,,,"02,99,1,99,9,99,9,99999,9,99,9,99,9",,"10190,1,99999,9",,,,"MET051METAR EGEO 211650Z 19001KT 9999 FEW018 06/02 Q1019;",
"03114099999","2010-11-24T07:50:00","4","56.417","-5.467","4.0","OBAN, UK","FM-15","EGEO ","V020","100,1,N,0010,1","99999,9,C,N","011265,1,N,1","+0020,1","-0010,1","99999,9","02,5,+00600,1,99,9","04,5,+01230,1,99,9",,,"04,99,1,99,9,99,9,99999,9,99,9,99,9",,"10139,1,99999,9",,,,"MET059METAR EGEO 240750Z 10002KT 9999 FEW020 SCT041 02/M01 Q1014;","P01 012303SCOCIG"
"03114099999","2010-11-24T08:50:00","4","56.417","-5.467","4.0","OBAN, UK","FM-15","EGEO ","V020","999,9,V,0005,1","22000,1,9,N","011265,1,N,1","+0020,1","-0010,1","99999,9","02,5,+00600,1,99,9",,,,"02,99,1,99,9,99,9,99999,9,99,9,99,9",,"10139,1,99999,9",,,,"MET060METAR EGEO 240850Z VRB01KT 020V110 9999 FEW020 02/M01 Q1014;",
"03114099999","2010-11-24T09:20:00","4","56.417","-5.467","4.0","OBAN, UK","FM-15","EGEO ","V020","080,1,N,0015,1","99999,9,C,N","011265,1,N,1","+0020,1","-0010,1","99999,9","02,5,+00360,1,99,9","04,5,+00720,1,99,9",,,"04,99,1,99,9,99,9,99999,9,99,9,99,9",,"10139,1,99999,9",,,,"MET059METAR EGEO 240920Z 08003KT 9999 FEW012 SCT024 02/M01 Q1014;","P01 007203SCOCIG"
"03114099999","2010-11-24T09:50:00","4","56.417","-5.467","4.0","OBAN, UK","FM-15","EGEO ","V020","080,1,N,0015,1","22000,1,9,N","011265,1,N,1","+0020,1","-0010,1","99999,9","02,5,+00900,1,99,9",,,,"02,99,1,99,9,99,9,99999,9,99,9,99,9",,"10149,1,99999,9",,,,"MET052METAR EGEO 240950Z 08003KT 9999 FEW030 02/M01 Q1015;",
"03114099999","2010-11-24T10:20:00","4","56.417","-5.467","4.0","OBAN, UK","FM-15","EGEO ","V020","050,1,N,0031,1","22000,1,9,N","011265,1,N,1","+0040,1","-0010,1","99999,9","02,5,+00750,1,99,9",,,,"02,99,1,99,9,99,9,99999,9,99,9,99,9",,"10149,1,99999,9",,,,"MET052METAR EGEO 241020Z 05006KT 9999 FEW025 04/M01 Q1015;",
"03114099999","2010-11-24T10:50:00","4","56.417","-5.467","4.0","OBAN, UK","FM-15","EGEO ","V020","360,1,N,0015,1","22000,1,9,N","011265,1,N,1","+0040,1","+0000,1","99999,9","02,5,+00600,1,99,9",,,,"02,99,1,99,9,99,9,99999,9,99,9,99,9",,"10149,1,99999,9",,,,"MET052METAR EGEO 241050Z 36003KT 9999 FEW020 04/M00 Q1015;",
"03114099999","2010-11-24T11:20:00","4","56.417","-5.467","4.0","OBAN, UK","FM-15","EGEO ","V020","020,1,N,0026,1","99999,9,C,N","011265,1,N,1","+0050,1","-0020,1","99999,9","02,5,+00630,1,99,9","04,5,+01350,1,99,9",,,"04,99,1,99,9,99,9,99999,9,99,9,99,9",,"10149,1,99999,9",,,,"MET059METAR EGEO 241120Z 02005KT 9999 FEW021 SCT045 05/M02 Q1015;","P01 013503SCOCIG"
"03114099999","2010-11-24T11:50:00","4","56.417","-5.467","4.0","OBAN, UK","FM-15","EGEO ","V020","010,1,N,0031,1","22000,1,9,N","011265,1,N,1","+0050,1","-0020,1","99999,9","02,5,+01050,1,99,9",,,,"02,99,1,99,9,99,9,99999,9,99,9,99,9",,"10149,1,99999,9",,,,"MET052METAR EGEO 241150Z 01006KT 9999 FEW035 05/M02 Q1015;",
"03114099999","2010-11-24T12:20:00","4","56.417","-5.467","4.0","OBAN, UK","FM-15","EGEO ","V020","360,1,N,0057,1","22000,1,9,N","011265,1,N,1","+0050,1","-0020,1","99999,9","02,5,+01200,1,99,9",,,,"02,99,1,99,9,99,9,99999,9,99,9,99,9",,"10149,1,99999,9",,,,"MET052METAR EGEO 241220Z 36011KT 9999 FEW040 05/M02 Q1015;",
"03114099999","2010-11-24T12:50:00","4","56.417","-5.467","4.0","OBAN, UK","FM-15","EGEO ","V020","010,1,N,0041,1","22000,1,9,N","011265,1,N,1","+0050,1","-0020,1","99999,9","02,5,+00720,1,99,9",,,,"02,99,1,99,9,99,9,99999,9,99,9,99,9",,"10149,1,99999,9",,,"0098,1","MET063METAR EGEO 241250Z 01008G19KT 330V050 9999 FEW024 05/M02 Q1015;",
"03114099999","2010-11-24T13:20:00","4","56.417","-5.467","4.0","OBAN, UK","FM-15","EGEO ","V020","010,1,N,0046,1","22000,1,9,N","011265,1,N,1","+0050,1","-0030,1","99999,9","02,5,+00660,1,99,9",,,,"02,99,1,99,9,99,9,99999,9,99,9,99,9",,"10149,1,99999,9",,,"0103,1","MET063METAR EGEO 241320Z 01009G20KT 350V080 9999 FEW022 05/M03 Q1015;",
"03114099999","2010-11-24T13:50:00","4","56.417","-5.467","4.0","OBAN, UK","FM-15","EGEO ","V020","010,1,N,0062,1","22000,1,9,N","011265,1,N,1","+0050,1","-0030,1","99999,9","02,5,+00660,1,99,9",,,,"02,99,1,99,9,99,9,99999,9,99,9,99,9",,"10149,1,99999,9",,,,"MET052METAR EGEO 241350Z 01012KT 9999 FEW022 05/M03 Q1015;",
"03114099999","2010-11-24T14:20:00","4","56.417","-5.467","4.0","OBAN, UK","FM-15","EGEO ","V020","010,1,N,0077,1","22000,1,9,N","011265,1,N,1","+0050,1","-0030,1","99999,9","02,5,+00660,1,99,9",,,,"02,99,1,99,9,99,9,99999,9,99,9,99,9",,"10149,1,99999,9",,,,"MET052METAR EGEO 241420Z 01015KT 9999 FEW022 05/M03 Q1015;",
"03114099999","2010-11-24T14:50:00","4","56.417","-5.467","4.0","OBAN, UK","FM-15","EGEO ","V020","360,1,N,0062,1","22000,1,9,N","011265,1,N,1","+0050,1","-0020,1","99999,9","02,5,+00750,1,99,9",,,,"02,99,1,99,9,99,9,99999,9,99,9,99,9",,"10149,1,99999,9",,,,"MET052METAR EGEO 241450Z 36012KT 9999 FEW025 05/M02 Q1015;",
"03114099999","2010-11-24T15:20:00","4","56.417","-5.467","4.0","OBAN, UK","FM-15","EGEO ","V020","010,1,N,0036,1","22000,1,9,N","011265,1,N,1","+0050,1","-0030,1","99999,9","02,5,+00750,1,99,9",,,,"02,99,1,99,9,99,9,99999,9,99,9,99,9",,"10149,1,99999,9",,,,"MET052METAR EGEO 241520Z 01007KT 9999 FEW025 05/M03 Q1015;",
"03114099999","2010-11-24T15:50:00","4","56.417","-5.467","4.0","OBAN, UK","FM-15","EGEO ","V020","010,1,N,0036,1","22000,1,9,N","011265,1,N,1","+0040,1","-0030,1","99999,9","02,5,+00600,1,99,9",,,,"02,99,1,99,9,99,9,99999,9,99,9,99,9",,"10149,1,99999,9",,,,"MET052METAR EGEO 241550Z 01007KT 9999 FEW020 04/M03 Q1015;",
"03114099999","2010-11-24T16:20:00","4","56.417","-5.467","4.0","OBAN, UK","FM-15","EGEO ","V020","030,1,N,0036,1","22000,1,9,N","011265,1,N,1","+0040,1","-0040,1","99999,9","02,5,+00540,1,99,9",,,,"02,99,1,99,9,99,9,99999,9,99,9,99,9",,"10149,1,99999,9",,,,"MET052METAR EGEO 241620Z 03007KT 9999 FEW018 04/M04 Q1015;",
"03114099999","2010-11-24T16:50:00","4","56.417","-5.467","4.0","OBAN, UK","FM-15","EGEO ","V020","040,1,N,0026,1","99999,9,C,N","011265,1,N,1","+0040,1","-0040,1","99999,9","02,5,+00540,1,99,9","04,5,+01350,1,99,9",,,"04,99,1,99,9,99,9,99999,9,99,9,99,9",,"10149,1,99999,9",,,,"MET059METAR EGEO 241650Z 04005KT 9999 FEW018 SCT045 04/M04 Q1015;","P01 013503SCOCIG"
"03114099999","2010-11-25T07:50:00","4","56.417","-5.467","4.0","OBAN, UK","FM-15","EGEO ","V020","010,1,N,0010,1","22000,1,9,N","011265,1,N,1","+0030,1","-0050,1","99999,9","02,5,+00660,1,99,9",,,,"02,99,1,99,9,99,9,99999,9,99,9,99,9",,"10159,1,99999,9",,,,"MET052METAR EGEO 250750Z 01002KT 9999 FEW022 03/M05 Q1016;",
"03114099999","2010-11-25T08:20:00","4","56.417","-5.467","4.0","OBAN, UK","FM-15","EGEO ","V020","010,1,N,0062,1","99999,9,C,N","011265,1,N,1","+0030,1","-0050,1","99999,9","02,5,+00540,1,99,9","04,5,+00660,1,99,9","04,5,+00780,1,99,9",,"04,99,1,99,9,99,9,99999,9,99,9,99,9",,"10169,1,99999,9",,,,"MET066METAR EGEO 250820Z 01012KT 9999 FEW018 SCT022 SCT026 03/M05 Q1017;","P01 006603SCOCIG"
"03114099999","2010-11-25T08:50:00","4","56.417","-5.467","4.0","OBAN, UK","FM-15","EGEO ","V020","020,1,N,0041,1","99999,9,C,N","011265,1,N,1","+0030,1","-0040,1","99999,9","02,5,+00540,1,99,9","04,5,+00660,1,99,9","04,5,+00900,1,99,9",,"04,99,1,99,9,99,9,99999,9,99,9,99,9",,"10169,1,99999,9",,,,"MET074METAR EGEO 250850Z 02008KT 330V050 9999 FEW018 SCT022 SCT030 03/M04 Q1017;","P01 006603SCOCIG"
"03114099999","2010-11-25T09:20:00","4","56.417","-5.467","4.0","OBAN, UK","FM-15","EGEO ","V020","010,1,N,0031,1","99999,9,C,N","011265,1,N,1","+0040,1","-0040,1","99999,9","02,5,+00450,1,99,9","04,5,+00600,1,99,9","04,5,+00750,1,99,9",,"04,99,1,99,9,99,9,99999,9,99,9,99,9",,"10169,1,99999,9",,,,"MET066METAR EGEO 250920Z 01006KT 9999 FEW015 SCT020 SCT025 04/M04 Q1017;","P01 006003SCOCIG"
"03114099999","2010-11-25T09:50:00","4","56.417","-5.467","4.0","OBAN, UK","FM-15","EGEO ","V020","020,1,N,0021,1","99999,9,C,N","011265,1,N,1","+0030,1","-0040,1","99999,9","02,5,+00540,1,99,9","04,5,+00600,1,99,9","04,5,+00750,1,99,9",,"04,99,1,99,9,99,9,99999,9,99,9,99,9",,"10169,1,99999,9",,,,"MET066METAR EGEO 250950Z 02004KT 9999 FEW018 SCT020 SCT025 03/M04 Q1017;","P01 006003SCOCIG"
"03114099999","2010-11-25T10:20:00","4","56.417","-5.467","4.0","OBAN, UK","FM-15","EGEO ","V020","360,1,N,0026,1","99999,9,C,N","011265,1,N,1","+0040,1","-0030,1","99999,9","02,5,+00540,1,99,9","04,5,+00600,1,99,9","04,5,+00660,1,99,9",,"04,99,1,99,9,99,9,99999,9,99,9,99,9",,"10169,1,99999,9",,,,"MET066METAR EGEO 251020Z 36005KT 9999 FEW018 SCT020 SCT022 04/M03 Q1017;","P01 006003SCOCIG"
"03114099999","2010-11-25T10:50:00","4","56.417","-5.467","4.0","OBAN, UK","FM-15","EGEO ","V020","340,1,N,0026,1","22000,1,9,N","011265,1,N,1","+0040,1","-0030,1","99999,9","04,5,+00660,1,99,9",,,,"04,99,1,99,9,99,9,99999,9,99,9,99,9",,"10169,1,99999,9",,,,"MET052METAR EGEO 251050Z 34005KT 9999 SCT022 04/M03 Q1017;",
"03114099999","2010-11-25T11:20:00","4","56.417","-5.467","4.0","OBAN, UK","FM-15","EGEO ","V020","340,1,N,0031,1","22000,1,9,N","011265,1,N,1","+0040,1","-0030,1","99999,9","04,5,+00600,1,99,9",,,,"04,99,1,99,9,99,9,99999,9,99,9,99,9",,"10159,1,99999,9",,,,"MET052METAR EGEO 251120Z 34006KT 9999 SCT020 04/M03 Q1016;",
"03114099999","2010-11-25T11:50:00","4","56.417","-5.467","4.0","OBAN, UK","FM-15","EGEO ","V020","340,1,N,0021,1","22000,1,9,N","011265,1,N,1","+0040,1","-0030,1","99999,9","04,5,+00660,1,99,9",,,,"04,99,1,99,9,99,9,99999,9,99,9,99,9",,"10159,1,99999,9",,,,"MET060METAR EGEO 251150Z 34004KT 310V020 9999 SCT022 04/M03 Q1016;",
"03114099999","2010-11-25T12:20:00","4","56.417","-5.467","4.0","OBAN, UK","FM-15","EGEO ","V020","320,1,N,0015,1","22000,1,9,N","011265,1,N,1","+0050,1","-0040,1","99999,9","04,5,+00660,1,99,9",,,,"04,99,1,99,9,99,9,99999,9,99,9,99,9",,"10159,1,99999,9",,,,"MET052METAR EGEO 251220Z 32003KT 9999 SCT022 05/M04 Q1016;",
"03114099999","2010-11-25T13:20:00","4","56.417","-5.467","4.0","OBAN, UK","FM-15","EGEO ","V020","999,9,C,0000,1","22000,1,9,N","011265,1,N,1","+0050,1","-0030,1","99999,9","04,5,+00660,1,99,9",,,,"04,99,1,99,9,99,9,99999,9,99,9,99,9",,"10149,1,99999,9",,,,"MET060METAR EGEO 251320Z 00000KT 320V080 9999 SCT022 05/M03 Q1015;",
"03114099999","2010-11-25T13:50:00","4","56.417","-5.467","4.0","OBAN, UK","FM-15","EGEO ","V020","350,1,N,0021,1","99999,9,C,N","011265,1,N,1","+0050,1","-0030,1","99999,9","02,5,+00540,1,99,9","04,5,+00660,1,99,9",,,"04,99,1,99,9,99,9,99999,9,99,9,99,9",,"10149,1,99999,9",,,,"MET059METAR EGEO 251350Z 35004KT 9999 FEW018 SCT022 05/M03 Q1015;","P01 006603SCOCIG"
"03114099999","2010-11-25T14:20:00","4","56.417","-5.467","4.0","OBAN, UK","FM-15","EGEO ","V020","360,1,N,0021,1","99999,9,C,N","011265,1,N,1","+0050,1","-0020,1","99999,9","02,5,+00360,1,99,9","04,5,+00600,1,99,9",,,"04,99,1,99,9,99,9,99999,9,99,9,99,9",,"10149,1,99999,9",,,,"MET067METAR EGEO 251420Z 36004KT 300V000 9999 FEW012 SCT020 05/M02 Q1015;","P01 006003SCOCIG"
"03114099999","2010-11-25T14:50:00","4","56.417","-5.467","4.0","OBAN, UK","FM-15","EGEO ","V020","290,1,N,0031,1","99999,9,C,N","011265,1,N,1","+0050,1","-0010,1","99999,9","02,5,+00540,1,99,9","04,5,+00660,1,09,5",,,"04,99,1,99,9,99,9,99999,9,99,9,99,9",,"10149,1,99999,9",,,,"MET061METAR EGEO 251450Z 29006KT 9999 FEW018 SCT022CB 05/M01 Q1015;","P01 006603SCOCIG"
"03114099999","2010-11-25T15:20:00","4","56.417","-5.467","4.0","OBAN, UK","FM-15","EGEO ","V020","330,1,N,0021,1","22000,1,9,N","011265,1,N,1","+0050,1","-0010,1","99999,9","04,5,+00600,1,09,1",,,,"04,99,1,99,9,99,9,99999,9,99,9,99,9",,"10139,1,99999,9",,,,"MET062METAR EGEO 251520Z 33004KT 300V030 9999 SCT020CB 05/M01 Q1014;",
"03114099999","2010-11-25T15:50:00","4","56.417","-5.467","4.0","OBAN, UK","FM-15","EGEO ","V020","010,1,N,0010,1","22000,1,9,N","011265,1,N,1","+0040,1","-0010,1","99999,9","04,5,+00600,1,99,9",,,,"04,99,1,99,9,99,9,99999,9,99,9,99,9",,"10139,1,99999,9",,,,"MET052METAR EGEO 251550Z 01002KT 9999 SCT020 04/M01 Q1014;",
"03114099999","2010-11-25T16:20:00","4","56.417","-5.467","4.0","OBAN, UK","FM-15","EGEO ","V020","010,1,N,0010,1","99999,9,C,N","011265,1,N,1","+0040,1","-0010,1","99999,9","04,5,+00600,1,09,1","04,5,+00750,1,09,5",,,"04,99,1,99,9,99,9,99999,9,99,9,99,9",,"10139,1,99999,9",,,,"MET063METAR EGEO 251620Z 01002KT 9999 SCT020CB SCT025CB 04/M01 Q1014;","P01 007503SCOCIG"
"03114099999","2010-11-25T16:50:00","4","56.417","-5.467","4.0","OBAN, UK","FM-15","EGEO ","V020","110,1,N,0005,1","99999,9,C,N","011265,1,N,1","+0030,1","-0010,1","99999,9","04,5,+00600,1,09,1","04,5,+00750,1,09,5",,,"04,99,1,99,9,99,9,99999,9,99,9,99,9",,"10139,1,99999,9",,,,"MET063METAR EGEO 251650Z 11001KT 9999 SCT020CB SCT025CB 03/M01 Q1014;","P01 007503SCOCIG"
"03114099999","2010-11-26T07:50:00","4","56.417","-5.467","4.0","OBAN, UK","FM-15","EGEO ","V020","360,1,N,0031,1","22000,1,9,N","011265,1,N,1","+0020,1","-0020,1","99999,9","02,5,+00600,1,99,9",,,,"02,99,1,99,9,99,9,99999,9,99,9,99,9",,"10108,1,99999,9",,,,"MET052METAR EGEO 260750Z 36006KT 9999 FEW020 02/M02 Q1011;",
"03114099999","2010-11-26T08:20:00","4","56.417","-5.467","4.0","OBAN, UK","FM-15","EGEO ","V020","020,1,N,0031,1","22000,1,9,N","011265,1,N,1","+0030,1","-0020,1","99999,9","02,5,+00540,1,99,9",,,,"02,99,1,99,9,99,9,99999,9,99,9,99,9",,"10108,1,99999,9",,,,"MET052METAR EGEO 260820Z 02006KT 9999 FEW018 03/M02 Q1011;",
"03114099999","2010-11-26T08:50:00","4","56.417","-5.467","4.0","OBAN, UK","FM-15","EGEO ","V020","020,1,N,0026,1","99999,9,C,N","011265,1,N,1","+0020,1","-0020,1","99999,9","02,5,+00450,1,99,9","04,5,+00600,1,99,9",,,"04,99,1,99,9,99,9,99999,9,99,9,99,9",,"10108,1,99999,9",,,,"MET059METAR EGEO 260850Z 02005KT 9999 FEW015 SCT020 02/M02 Q1011;","P01 006003SCOCIG"
"03114099999","2010-11-26T09:20:00","4","56.417","-5.467","4.0","OBAN, UK","FM-15","EGEO ","V020","999,9,V,0005,1","22000,1,9,N","011265,1,N,1","+0020,1","-0020,1","99999,9","02,5,+00360,1,99,9",,,,"02,99,1,99,9,99,9,99999,9,99,9,99,9",,"10110,1,99999,9",,,,"MET068METAR EGEO 260920Z VRB01KT 330V120 9999 FEW012 SCT 020 02/M02 Q1011;",
"03114099999","2010-11-26T09:50:00","4","56.417","-5.467","4.0","OBAN, UK","FM-15","EGEO ","V020","010,1,N,0026,1","22000,1,9,N","011265,1,N,1","+0020,1","-0010,1","99999,9","02,5,+00420,1,99,9",,,,"02,99,1,99,9,99,9,99999,9,99,9,99,9",,"10108,1,99999,9",,,,"MET052METAR EGEO 260950Z 01005KT 9999 FEW014 02/M01 Q1011;",
"03114099999","2010-11-26T10:20:00","4","56.417","-5.467","4.0","OBAN, UK","FM-15","EGEO ","V020","360,1,N,0031,1","99999,9,C,N","011265,1,N,1","+0030,1","-0010,1","99999,9","02,5,+00480,1,99,9","04,5,+00750,1,09,5",,,"04,99,1,99,9,99,9,99999,9,99,9,99,9",,"10108,1,99999,9",,,,"MET061METAR EGEO 261020Z 36006KT 9999 FEW016 SCT025CB 03/M01 Q1011;","P01 007503SCOCIG"
"03114099999","2010-11-26T10:50:00","4","56.417","-5.467","4.0","OBAN, UK","FM-15","EGEO ","V020","340,1,N,0051,1","22000,1,9,N","011265,1,N,1","+0040,1","-0010,1","99999,9","04,5,+00540,1,09,1",,,,"04,99,1,99,9,99,9,99999,9,99,9,99,9",,"10102,1,99999,9",,,,"MET054METAR EGEO 261050Z 34010KT 9999 SCT018CB 04/M01 Q1010;",
"03114099999","2010-11-26T11:50:00","4","56.417","-5.467","4.0","OBAN, UK","FM-15","EGEO ","V020","350,1,N,0036,1","22000,1,9,N","011265,1,N,1","+0040,1","-0010,1","99999,9","02,5,+00540,1,09,1","02,5,+00900,1,99,9",,,"02,99,1,99,9,99,9,99999,9,99,9,99,9",,"10102,1,99999,9",,,,"MET061METAR EGEO 261150Z 35007KT 9999 FEW018CB FEW030 04/M01 Q1010;",
"03114099999","2010-11-26T12:20:00","4","56.417","-5.467","4.0","OBAN, UK","FM-15","EGEO ","V020","310,1,N,0057,1","99999,9,C,N","011265,1,N,1","+0040,1","+0000,1","99999,9","02,5,+00420,1,99,9","04,5,+00840,1,99,9",,,"04,99,1,99,9,99,9,99999,9,99,9,99,9",,"10091,1,99999,9",,,,"MET059METAR EGEO 261220Z 31011KT 9999 FEW014 SCT028 04/M00 Q1009;","P01 008403SCOCIG"
"03114099999","2010-11-26T12:50:00","4","56.417","-5.467","4.0","OBAN, UK","FM-15","EGEO ","V020","320,1,N,0057,1","99999,9,C,N","011265,1,N,1","+0040,1","+0000,1","99999,9","02,5,+00420,1,99,9","04,5,+00750,1,09,5",,,"04,99,1,99,9,99,9,99999,9,99,9,99,9",,"10091,1,99999,9",,,,"MET061METAR EGEO 261250Z 32011KT 9999 FEW014 SCT025CB 04/M00 Q1009;","P01 007503SCOCIG"
"03114099999","2010-11-26T13:20:00","4","56.417","-5.467","4.0","OBAN, UK","FM-15","EGEO ","V020","330,1,N,0062,1","22000,1,9,N","011265,1,N,1","+0040,1","+0000,1","99999,9","02,5,+00420,1,09,1","02,5,+00600,1,99,9",,,"02,99,1,99,9,99,9,99999,9,99,9,99,9",,"10091,1,99999,9",,,,"MET061METAR EGEO 261320Z 33012KT 9999 FEW014CB FEW020 04/M00 Q1009;",
"03114099999","2010-11-26T13:50:00","4","56.417","-5.467","4.0","OBAN, UK","FM-15","EGEO ","V020","320,1,N,0067,1","99999,9,C,N","011265,1,N,1","+0040,1","-0010,1","99999,9","02,5,+00420,1,09,1","02,5,+00660,1,09,5","04,5,+01050,1,99,9",,"04,99,1,99,9,99,9,99999,9,99,9,99,9",,"10081,1,99999,9",,,,"MET070METAR EGEO 261350Z 32013KT 9999 FEW014CB FEW022CB SCT035 04/M01 Q1008;","P01 010503SCOCIG"
"03114099999","2010-11-26T14:20:00","4","56.417","-5.467","4.0","OBAN, UK","FM-15","EGEO ","V020","330,1,N,0072,1","99999,9,C,N","011265,1,N,1","+0040,1","-0010,1","99999,9","02,5,+00420,1,09,1","02,5,+00600,1,99,9","04,5,+00840,1,09,5",,"04,99,1,99,9,99,9,99999,9,99,9,99,9",,"10081,1,99999,9",,,,"MET070METAR EGEO 261420Z 33014KT 9999 FEW014CB FEW020 SCT028CB 04/M01 Q1008;","P01 008403SCOCIG"
"03114099999","2010-11-26T14:50:00","4","56.417","-5.467","4.0","OBAN, UK","FM-15","EGEO ","V020","360,1,N,0057,1","22000,1,9,N","011265,1,N,1","+0040,1","-0010,1","99999,9","04,5,+00960,5,09,1","04,1,+00960,1,99,9",,,"04,99,1,99,9,99,9,99999,9,99,9,99,9",,"10081,1,99999,9",,,,"MET060METAR EGEO 261450Z 36011KT 9999 FEW16CB SCT032 04/M01 Q1008;",
"03114099999","2010-11-26T15:20:00","4","56.417","-5.467","4.0","OBAN, UK","FM-15","EGEO ","V020","340,1,N,0046,1","99999,9,C,N","011265,1,N,1","+0040,1","-0010,1","99999,9","02,5,+00540,1,09,1","04,5,+00900,1,99,9",,,"04,99,1,99,9,99,9,99999,9,99,9,99,9",,"10081,1,99999,9",,,,"MET061METAR EGEO 261520Z 34009KT 9999 FEW018CB SCT030 04/M01 Q1008;","P01 009003SCOCIG"
"03114099999","2010-11-26T15:50:00","4","56.417","-5.467","4.0","OBAN, UK","FM-15","EGEO ","V020","330,1,N,0057,1","99999,9,C,N","011265,1,N,1","+0040,1","-0010,1","99999,9","02,5,+00540,1,99,9","04,5,+00900,1,99,9",,,"04,99,1,99,9,99,9,99999,9,99,9,99,9",,"10071,1,99999,9",,,,"MET059METAR EGEO 261550Z 33011KT 9999 FEW018 SCT030 04/M01 Q1007;","P01 009003SCOCIG"
"03114099999","2010-11-26T16:20:00","4","56.417","-5.467","4.0","OBAN, UK","FM-15","EGEO ","V020","360,1,N,0031,1","99999,9,C,N","011265,1,N,1","+0030,1","-0010,1","99999,9","02,5,+00480,1,09,1","04,5,+00660,1,99,9",,,"04,99,1,99,9,99,9,99999,9,99,9,99,9",,"10071,1,99999,9",,,,"MET061METAR EGEO 261620Z 36006KT 9999 FEW016CB SCT022 03/M01 Q1007;","P01 006603SCOCIG"
"03114099999","2010-11-26T16:50:00","4","56.417","-5.467","4.0","OBAN, UK","FM-15","EGEO ","V020","010,1,N,0046,1","22000,1,9,N","011265,1,N,1","+0020,1","-0010,1","99999,9","04,5,+00480,1,09,1",,,,"04,99,1,99,9,99,9,99999,9,99,9,99,9",,"10071,1,99999,9",,,,"MET062METAR EGEO 261650Z 01009KT 340V040 9999 SCT016CB 02/M01 Q1007;",
"03114099999","2010-11-27T07:50:00","4","56.417","-5.467","4.0","OBAN, UK","FM-15","EGEO ","V020","160,1,N,0015,1","22000,1,9,N","011265,1,N,1","+0000,1","-0050,1","99999,9","02,5,+00660,1,99,9",,,,"02,99,1,99,9,99,9,99999,9,99,9,99,9",,"10129,1,99999,9",,,,"MET052METAR EGEO 270750Z 16003KT 9999 FEW022 00/M05 Q1013;",
"03114099999","2010-11-27T08:20:00","4","56.417","-5.467","4.0","OBAN, UK","FM-15","EGEO ","V020","140,1,N,0005,1","22000,1,9,N","011265,1,N,1","+0010,1","-0040,1","99999,9","02,5,+00600,1,99,9",,,,"02,99,1,99,9,99,9,99999,9,99,9,99,9",,"10129,1,99999,9",,,,"MET061METAR EGEO 270820Z 14001KT 9999 FEW020 01/M04 Q1013 88490199;",
"03114099999","2010-11-27T08:50:00","4","56.417","-5.467","4.0","OBAN, UK","FM-15","EGEO ","V020","080,1,N,0021,1","22000,1,9,N","011265,1,N,1","-0010,1","-0050,1","99999,9","02,5,+00540,1,99,9",,,,"02,99,1,99,9,99,9,99999,9,99,9,99,9",,"10129,1,99999,9",,,,"MET062METAR EGEO 270850Z 08004KT 9999 FEW018 M01/M05 Q1013 88490199;",
"03114099999","2010-11-27T09:20:00","4","56.417","-5.467","4.0","OBAN, UK","FM-15","EGEO ","V020","120,1,N,0010,1","22000,1,9,N","011265,1,N,1","-0010,1","-0040,1","99999,9","02,5,+00660,1,99,9",,,,"02,99,1,99,9,99,9,99999,9,99,9,99,9",,"10129,1,99999,9",,,,"MET053METAR EGEO 270920Z 12002KT 9999 FEW022 M01/M04 Q1013;",
"03114099999","2010-11-27T09:50:00","4","56.417","-5.467","4.0","OBAN, UK","FM-15","EGEO ","V020","100,1,N,0015,1","22000,1,9,N","011265,1,N,1","+0000,1","-0040,1","99999,9","02,5,+00600,1,99,9",,,,"02,99,1,99,9,99,9,99999,9,99,9,99,9",,"10129,1,99999,9",,,,"MET062METAR EGEO 270950Z 10003KT 9999 FEW020 M00/M04 Q1013 88CLRD99;",
"03114099999","2010-11-27T10:20:00","4","56.417","-5.467","4.0","OBAN, UK","FM-15","EGEO ","V020","110,1,N,0010,1","22000,1,9,N","011265,1,N,1","+0010,1","-0030,1","99999,9","02,5,+00600,1,99,9",,,,"02,99,1,99,9,99,9,99999,9,99,9,99,9",,"10129,1,99999,9",,,,"MET052METAR EGEO 271020Z 11002KT 9999 FEW020 01/M03 Q1013;",
"03114099999","2010-11-27T10:50:00","4","56.417","-5.467","4.0","OBAN, UK","FM-15","EGEO ","V020","070,1,N,0021,1","22000,1,9,N","011265,1,N,1","+0010,1","-0040,1","99999,9","02,5,+00600,1,99,9",,,,"02,99,1,99,9,99,9,99999,9,99,9,99,9",,"10119,1,99999,9",,,,"MET052METAR EGEO 271050Z 07004KT 9999 FEW020 01/M04 Q1012;",
"03114099999","2010-11-27T11:20:00","4","56.417","-5.467","4.0","OBAN, UK","FM-15","EGEO ","V020","080,1,N,0010,1","22000,1,9,N","011265,1,N,1","+0010,1","-0040,1","99999,9","04,5,+00660,1,99,9",,,,"04,99,1,99,9,99,9,99999,9,99,9,99,9",,"10119,1,99999,9",,,,"MET052METAR EGEO 271120Z 08002KT 9999 SCT022 01/M04 Q1012;",
"03114099999","2010-11-27T11:50:00","4","56.417","-5.467","4.0","OBAN, UK","FM-15","EGEO ","V020","120,1,N,0010,1","22000,1,9,N","011265,1,N,1","+0010,1","-0040,1","99999,9","02,5,+00660,1,99,9","02,5,+01140,1,99,9",,,"02,99,1,99,9,99,9,99999,9,99,9,99,9",,"10119,1,99999,9",,,,"MET059METAR EGEO 271150Z 12002KT 9999 FEW022 FEW038 01/M04 Q1012;",
"03114099999","2010-11-27T12:50:00","4","56.417","-5.467","4.0","OBAN, UK","FM-15","EGEO ","V020","999,9,C,0000,1","22000,1,9,N","011265,1,N,1","+0030,1","-0040,1","99999,9","02,5,+00780,1,99,9",,,,"02,99,1,99,9,99,9,99999,9,99,9,99,9",,"10108,1,99999,9",,,,"MET052METAR EGEO 271250Z 00000KT 9999 FEW026 03/M04 Q1011;",
"03114099999","2010-11-27T13:20:00","4","56.417","-5.467","4.0","OBAN, UK","FM-15","EGEO ","V020","040,1,N,0010,1","22000,1,9,N","011265,1,N,1","+0030,1","-0050,1","99999,9","02,5,+01020,1,99,9",,,,"02,99,1,99,9,99,9,99999,9,99,9,99,9",,"10108,1,99999,9",,,,"MET052METAR EGEO 271320Z 04002KT 9999 FEW034 03/M05 Q1011;",
"03114099999","2010-11-27T13:50:00","4","56.417","-5.467","4.0","OBAN, UK","FM-15","EGEO ","V020","060,1,N,0015,1","22000,1,9,N","011265,1,N,1","+0020,1","-0050,1","99999,9","02,5,+00960,1,99,9",,,,"02,99,1,99,9,99,9,99999,9,99,9,99,9",,"10108,1,99999,9",,,,"MET052METAR EGEO 271350Z 06003KT 9999 FEW032 02/M05 Q1011;",
"03114099999","2010-11-27T14:50:00","4","56.417","-5.467","4.0","OBAN, UK","FM-15","EGEO ","V020","050,1,N,0015,1","22000,1,9,N","011265,1,N,1","+0020,1","-0050,1","99999,9","02,5,+01080,1,99,9",,,,"02,99,1,99,9,99,9,99999,9,99,9,99,9",,"10102,1,99999,9",,,,"MET052METAR EGEO 271450Z 05003KT 9999 FEW036 02/M05 Q1010;",
"03114099999","2010-11-27T15:20:00","4","56.417","-5.467","4.0","OBAN, UK","FM-15","EGEO ","V020","020,1,N,0021,1","22000,1,9,N","011265,1,N,1","+0010,1","-0050,1","99999,9","02,5,+01080,1,99,9",,,,"02,99,1,99,9,99,9,99999,9,99,9,99,9",,"10102,1,99999,9",,,,"MET052METAR EGEO 271520Z 02004KT 9999 FEW036 01/M05 Q1010;",
"03114099999","2010-11-27T16:20:00","4","56.417","-5.467","4.0","OBAN, UK","FM-15","EGEO ","V020","040,1,N,0015,1","22000,1,9,N","011265,1,N,1","+0000,1","-0060,1","99999,9","02,5,+00900,1,99,9",,,,"02,99,1,99,9,99,9,99999,9,99,9,99,9",,"10108,1,99999,9",,,,"MET053METAR EGEO 271620Z 04003KT 9999 FEW030 M00/M06 Q1011;",
"03114099999","2010-11-27T16:50:00","4","56.417","-5.467","4.0","OBAN, UK","FM-15","EGEO ","V020","140,1,N,0010,1","22000,1,9,N","011265,1,N,1","+0000,1","-0050,1","99999,9","02,5,+01020,1,99,9",,,,"02,99,1,99,9,99,9,99999,9,99,9,99,9",,"10102,1,99999,9",,,,"MET052METAR EGEO 271650Z 14002KT 9999 FEW034 00/M05 Q1010;",
"03114099999","2010-11-28T07:50:00","4","56.417","-5.467","4.0","OBAN, UK","FM-15","EGEO ","V020","350,1,N,0031,1","22000,1,9,N","011265,1,N,1","+0010,1","-0030,1","99999,9","02,5,+00660,1,99,9",,,,"02,99,1,99,9,99,9,99999,9,99,9,99,9",,"10091,1,99999,9",,,,"MET052METAR EGEO 280750Z 35006KT 9999 FEW022 01/M03 Q1009;",
"03114099999","2010-11-28T08:20:00","4","56.417","-5.467","4.0","OBAN, UK","FM-15","EGEO ","V020","020,1,N,0021,1","99999,9,C,N","007000,1,N,1","+0010,1","-0040,1","99999,9","02,5,+00540,1,99,9","04,5,+00900,1,99,9",,,"04,99,1,99,9,99,9,99999,9,99,9,99,9",,"10091,1,99999,9","73,1",,,"MET070METAR EGEO 280820Z 02004KT 350V070 7000 SN FEW018 SCT030 01/M04 Q1009;","P01 009003SCOCIG"
"03114099999","2010-11-28T08:50:00","4","56.417","-5.467","4.0","OBAN, UK","FM-15","EGEO ","V020","340,1,N,0021,1","99999,9,C,N","011265,1,N,1","+0010,1","-0040,1","99999,9","02,5,+00600,1,99,9","04,5,+00960,1,99,9",,,"04,99,1,99,9,99,9,99999,9,99,9,99,9",,"10102,1,99999,9",,,,"MET059METAR EGEO 280850Z 34004KT 9999 FEW020 SCT032 01/M04 Q1010;","P01 009603SCOCIG"
"03114099999","2010-11-28T09:20:00","4","56.417","-5.467","4.0","OBAN, UK","FM-15","EGEO ","V020","040,1,N,0026,1","22000,1,9,N","011265,1,N,1","+0020,1","-0030,1","99999,9","02,5,+00750,1,99,9","02,5,+00960,1,99,9",,,"02,99,1,99,9,99,9,99999,9,99,9,99,9",,"10102,1,99999,9",,,,"MET067METAR EGEO 280920Z 04005KT 030V090 9999 FEW025 FEW032 02/M03 Q1010;",
"03114099999","2010-11-28T09:50:00","4","56.417","-5.467","4.0","OBAN, UK","FM-15","EGEO ","V020","080,1,N,0026,1","99999,9,C,N","011265,1,N,1","+0020,1","-0040,1","99999,9","02,5,+00840,1,99,9","04,5,+01260,1,99,9",,,"04,99,1,99,9,99,9,99999,9,99,9,99,9",,"10102,1,99999,9",,,,"MET067METAR EGEO 280950Z 08005KT 020V150 9999 FEW028 SCT042 02/M04 Q1010;","P01 012603SCOCIG"
"03114099999","2010-11-28T10:20:00","4","56.417","-5.467","4.0","OBAN, UK","FM-15","EGEO ","V020","050,1,N,0036,1","99999,9,C,N","011265,1,N,1","+0020,1","-0040,1","99999,9","02,5,+00900,1,99,9","04,5,+01260,1,99,9",,,"04,99,1,99,9,99,9,99999,9,99,9,99,9",,"10102,1,99999,9",,,,"MET059METAR EGEO 281020Z 05007KT 9999 FEW030 SCT042 02/M04 Q1010;","P01 012603SCOCIG"
"03114099999","2010-11-28T10:50:00","4","56.417","-5.467","4.0","OBAN, UK","FM-15","EGEO ","V020","050,1,N,0051,1","22000,1,9,N","011265,1,N,1","+0030,1","-0040,1","99999,9","02,5,+01020,1,99,9","02,5,+01350,1,99,9",,,"02,99,1,99,9,99,9,99999,9,99,9,99,9",,"10102,1,99999,9",,,,"MET059METAR EGEO 281050Z 05010KT 9999 FEW034 FEW045 03/M04 Q1010;",
"03114099999","2010-11-28T11:20:00","4","56.417","-5.467","4.0","OBAN, UK","FM-15","EGEO ","V020","060,1,N,0057,1","22000,1,9,N","011265,1,N,1","+0030,1","-0050,1","99999,9","02,5,+00960,1,99,9","02,5,+01140,1,99,9",,,"02,99,1,99,9,99,9,99999,9,99,9,99,9",,"10102,1,99999,9",,,,"MET067METAR EGEO 281120Z 06011KT 020V090 9999 FEW032 FEW038 03/M05 Q1010;",
"03114099999","2010-11-28T11:50:00","4","56.417","-5.467","4.0","OBAN, UK","FM-15","EGEO ","V020","050,1,N,0051,1","99999,9,C,N","011265,1,N,1","+0030,1","-0040,1","99999,9","02,5,+00900,1,99,9","04,5,+01350,1,99,9",,,"04,99,1,99,9,99,9,99999,9,99,9,99,9",,"10102,1,99999,9",,,,"MET067METAR EGEO 281150Z 05010KT 010V080 9999 FEW030 SCT045 03/M04 Q1010;","P01 013503SCOCIG"
"03114099999","2010-11-28T12:20:00","4","56.417","-5.467","4.0","OBAN, UK","FM-15","EGEO ","V020","040,1,N,0067,1","99999,9,C,N","011265,1,N,1","+0030,1","-0050,1","99999,9","02,5,+00960,1,99,9","04,5,+01350,1,99,9",,,"04,99,1,99,9,99,9,99999,9,99,9,99,9",,"10108,1,99999,9",,,,"MET067METAR EGEO 281220Z 04013KT 010V080 9999 FEW032 SCT045 03/M05 Q1011;","P01 013503SCOCIG"
"03114099999","2010-11-28T12:50:00","4","56.417","-5.467","4.0","OBAN, UK","FM-15","EGEO ","V020","040,1,N,0067,1","99999,9,C,N","011265,1,N,1","+0030,1","-0040,1","99999,9","02,5,+00900,1,99,9","04,5,+01350,1,99,9",,,"04,99,1,99,9,99,9,99999,9,99,9,99,9",,"10108,1,99999,9",,,,"MET059METAR EGEO 281250Z 04013KT 9999 FEW030 SCT045 03/M04 Q1011;","P01 013503SCOCIG"
"03114099999","2010-11-28T13:20:00","4","56.417","-5.467","4.0","OBAN, UK","FM-15","EGEO ","V020","040,1,N,0046,1","99999,9,C,N","011265,1,N,1","+0030,1","-0040,1","99999,9","02,5,+00960,1,99,9","04,5,+01350,1,99,9",,,"04,99,1,99,9,99,9,99999,9,99,9,99,9",,"10108,1,99999,9",,,"0103,1","MET076METAR EGEO 281320Z 04009G20KT 010V080 9999 8000E FEW032 SCT045 03/M04 Q1011;","P01 013503SCOCIG"
"03114099999","2010-11-28T13:50:00","4","56.417","-5.467","4.0","OBAN, UK","FM-15","EGEO ","V020","040,1,N,0062,1","99999,9,C,N","011265,1,N,1","+0030,1","-0040,1","99999,9","02,5,+00960,1,99,9","04,5,+01350,1,99,9",,,"04,99,1,99,9,99,9,99999,9,99,9,99,9",,"10102,1,99999,9",,,,"MET065METAR EGEO 281350Z 04012KT 9999 7000E FEW032 SCT045 03/M04 Q1010;","P01 013503SCOCIG"
"03114099999","2010-11-28T14:20:00","4","56.417","-5.467","4.0","OBAN, UK","FM-15","EGEO ","V020","060,1,N,0057,1","01350,1,C,N","011265,1,N,1","+0030,1","-0040,1","99999,9","02,5,+00900,1,99,9","07,5,+01350,1,99,9",,,"07,99,1,99,9,99,9,99999,9,99,9,99,9",,"10108,1,99999,9","71,1",,,"MET077METAR EGEO 281420Z 06011KT 020V110 9999 6000E -SN FEW030 BKN045 03/M04 Q1011;",
"03114099999","2010-11-28T14:50:00","4","56.417","-5.467","4.0","OBAN, UK","FM-15","EGEO ","V020","050,1,N,0046,1","01350,1,C,N","011265,1,N,1","+0030,1","-0040,1","99999,9","04,5,+00900,1,99,9","07,5,+01350,1,99,9",,,"07,99,1,99,9,99,9,99999,9,99,9,99,9",,"10108,1,99999,9",,,,"MET065METAR EGEO 281450Z 05009KT 9999 8000E SCT030 BKN045 03/M04 Q1011;",
"03114099999","2010-11-28T15:20:00","4","56.417","-5.467","4.0","OBAN, UK","FM-15","EGEO ","V020","070,1,N,0031,1","01260,1,C,N","011265,1,N,1","+0030,1","-0020,1","99999,9","04,5,+00780,1,99,9","07,5,+01260,1,99,9",,,"07,99,1,99,9,99,9,99999,9,99,9,99,9",,"10108,1,99999,9",,,"0087,1","MET076METAR EGEO 281520Z 07006G17KT 020V120 9999 5000E SCT026 BKN042 03/M02 Q1011;",
"03114099999","2010-11-28T15:50:00","4","56.417","-5.467","4.0","OBAN, UK","FM-15","EGEO ","V020","090,1,N,0026,1","00960,1,C,N","011265,1,N,1","+0020,1","-0020,1","99999,9","02,5,+00600,1,99,9","04,5,+00960,1,99,9","07,5,+01350,1,99,9",,"07,99,1,99,9,99,9,99999,9,99,9,99,9",,"10108,1,99999,9","71,1",,"0082,1","MET087METAR EGEO 281550Z 09005G16KT 030V130 9999 8000E -SN FEW020 SCT032 BKN045 02/M02 Q1011;",
"03114099999","2010-11-28T16:20:00","4","56.417","-5.467","4.0","OBAN, UK","FM-15","EGEO ","V020","070,1,N,0021,1","01260,1,C,N","011265,1,N,1","+0030,1","-0020,1","99999,9","04,5,+00900,1,99,9","07,5,+01260,1,99,9",,,"07,99,1,99,9,99,9,99999,9,99,9,99,9",,"10119,1,99999,9","71,1",,,"MET063METAR EGEO 281620Z 07004KT 9999 -SN SCT030 BKN042 03/M02 Q1012;",
"03114099999","2010-11-28T16:50:00","4","56.417","-5.467","4.0","OBAN, UK","FM-15","EGEO ","V020","170,1,N,0010,1","01140,1,C,N","011265,1,N,1","+0020,1","-0010,1","99999,9","04,5,+00840,1,99,9","07,5,+01140,1,99,9",,,"07,99,1,99,9,99,9,99999,9,99,9,99,9",,"10119,1,99999,9",,,,"MET059METAR EGEO 281650Z 17002KT 9999 SCT028 BKN038 02/M01 Q1012;",
"03114099999","2010-11-29T07:50:00","4","56.417","-5.467","4.0","OBAN, UK","FM-15","EGEO ","V020","060,1,N,0015,1","22000,1,9,N","011265,1,N,1","+0010,1","-0070,1","99999,9","04,5,+01200,1,99,9",,,,"04,99,1,99,9,99,9,99999,9,99,9,99,9",,"10190,1,99999,9",,,,"MET052METAR EGEO 290750Z 06003KT 9999 SCT040 01/M07 Q1019;",
"03114099999","2010-11-29T08:20:00","4","56.417","-5.467","4.0","OBAN, UK","FM-15","EGEO ","V020","020,1,N,0026,1","22000,1,9,N","011265,1,N,1","+0010,1","-0070,1","99999,9","04,5,+01200,1,99,9",,,,"04,99,1,99,9,99,9,99999,9,99,9,99,9",,"10190,1,99999,9",,,,"MET052METAR EGEO 290820Z 02005KT 9999 SCT040 01/M07 Q1019;",
"03114099999","2010-11-29T08:50:00","4","56.417","-5.467","4.0","OBAN, UK","FM-15","EGEO ","V020","060,1,N,0026,1","22000,1,9,N","011265,1,N,1","+0010,1","-0070,1","99999,9","04,5,+01050,1,99,9",,,,"04,99,1,99,9,99,9,99999,9,99,9,99,9",,"10190,1,99999,9",,,,"MET052METAR EGEO 290850Z 06005KT 9999 SCT035 01/M07 Q1019;",
"03114099999","2010-11-29T09:20:00","4","56.417","-5.467","4.0","OBAN, UK","FM-15","EGEO ","V020","150,1,N,0010,1","22000,1,9,N","011265,1,N,1","+0010,1","-0060,1","99999,9","02,5,+01350,1,99,9",,,,"02,99,1,99,9,99,9,99999,9,99,9,99,9",,"10200,1,99999,9",,,,"MET052METAR EGEO 290920Z 15002KT 9999 FEW045 01/M06 Q1020;",
"03114099999","2010-11-29T09:50:00","4","56.417","-5.467","4.0","OBAN, UK","FM-15","EGEO ","V020","060,1,N,0021,1","22000,1,9,N","011265,1,N,1","+0000,1","-0060,1","99999,9","02,5,+01350,1,99,9",,,,"02,99,1,99,9,99,9,99999,9,99,9,99,9",,"10200,1,99999,9",,,,"MET052METAR EGEO 290950Z 06004KT 9999 FEW045 00/M06 Q1020;",
"03114099999","2010-11-29T10:50:00","4","56.417","-5.467","4.0","OBAN, UK","FM-15","EGEO ","V020","080,1,N,0015,1","22000,1,9,N","011265,1,N,1","+0010,1","-0060,1","99999,9","02,5,+01350,1,99,9",,,,"02,99,1,99,9,99,9,99999,9,99,9,99,9",,"10200,1,99999,9",,,,"MET052METAR EGEO 291050Z 08003KT 9999 FEW045 01/M06 Q1020;",
"03114099999","2010-11-29T11:20:00","4","56.417","-5.467","4.0","OBAN, UK","FM-15","EGEO ","V020","050,1,N,0036,1","22000,1,9,N","011265,1,N,1","+0020,1","-0070,1","99999,9","02,5,+01350,1,99,9",,,,"02,99,1,99,9,99,9,99999,9,99,9,99,9",,"10200,1,99999,9",,,,"MET060METAR EGEO 291120Z 05007KT 360V080 9999 FEW045 02/M07 Q1020;",
"03114099999","2010-11-29T11:50:00","4","56.417","-5.467","4.0","OBAN, UK","FM-15","EGEO ","V020","050,1,N,0021,1","22000,1,9,N","011265,1,N,1","+0010,1","-0070,1","99999,9","02,5,+01350,1,99,9",,,,"02,99,1,99,9,99,9,99999,9,99,9,99,9",,"10200,1,99999,9",,,,"MET052METAR EGEO 291150Z 05004KT 9999 FEW045 01/M07 Q1020;",
"03114099999","2010-11-29T12:50:00","4","56.417","-5.467","4.0","OBAN, UK","FM-15","EGEO ","V020","090,1,N,0031,1","22000,1,9,N","011265,1,N,1","+0020,1","-0060,1","99999,9","02,5,+01350,1,99,9",,,,"02,99,1,99,9,99,9,99999,9,99,9,99,9",,"10200,1,99999,9",,,,"MET060METAR EGEO 291250Z 09006KT 070V140 9999 FEW045 02/M06 Q1020;",
"03114099999","2010-11-29T13:20:00","4","56.417","-5.467","4.0","OBAN, UK","FM-15","EGEO ","V020","999,9,V,0010,1","22000,1,9,N","011265,1,N,1","+0020,1","-0070,1","99999,9","02,5,+01500,1,99,9",,,,"02,99,1,99,9,99,9,99999,9,99,9,99,9",,"10200,1,99999,9",,,,"MET060METAR EGEO 291320Z VRB02KT 070V140 9999 FEW050 02/M07 Q1020;",
"03114099999","2010-11-29T13:50:00","4","56.417","-5.467","4.0","OBAN, UK","FM-15","EGEO ","V020","060,1,N,0041,1","22000,1,9,N","011265,1,N,1","+0020,1","-0070,1","99999,9","02,5,+01500,1,99,9",,,,"02,99,1,99,9,99,9,99999,9,99,9,99,9",,"10200,1,99999,9",,,,"MET052METAR EGEO 291350Z 06008KT 9999 FEW050 02/M07 Q1020;",
"03114099999","2010-11-29T14:20:00","4","56.417","-5.467","4.0","OBAN, UK","FM-15","EGEO ","V020","070,1,N,0031,1","22000,1,9,N","011265,1,N,1","+0020,1","-0060,1","99999,9","02,5,+00660,1,99,9",,,,"02,99,1,99,9,99,9,99999,9,99,9,99,9",,"10200,1,99999,9",,,,"MET052METAR EGEO 291420Z 07006KT 9999 FEW022 02/M06 Q1020;",
"03114099999","2010-11-29T14:50:00","4","56.417","-5.467","4.0","OBAN, UK","FM-15","EGEO ","V020","050,1,N,0021,1","22000,1,9,N","011265,1,N,1","+0020,1","-0060,1","99999,9","02,5,+01350,1,99,9",,,,"02,99,1,99,9,99,9,99999,9,99,9,99,9",,"10200,1,99999,9",,,,"MET052METAR EGEO 291450Z 05004KT 9999 FEW045 02/M06 Q1020;",
"03114099999","2010-11-29T15:20:00","4","56.417","-5.467","4.0","OBAN, UK","FM-15","EGEO ","V020","340,1,N,0031,1","22000,1,9,N","011265,1,N,1","+0020,1","-0060,1","99999,9","02,5,+00540,1,99,9",,,,"02,99,1,99,9,99,9,99999,9,99,9,99,9",,"10200,1,99999,9",,,,"MET060METAR EGEO 291520Z 34006KT 230V330 9999 FEW018 02/M06 Q1020;",
"03114099999","2010-11-29T15:50:00","4","56.417","-5.467","4.0","OBAN, UK","FM-15","EGEO ","V020","100,1,N,0021,1","22000,1,9,N","011265,1,N,1","+0010,1","-0070,1","99999,9","02,5,+00660,1,99,9",,,,"02,99,1,99,9,99,9,99999,9,99,9,99,9",,"10200,1,99999,9",,,,"MET052METAR EGEO 291550Z 10004KT 9999 FEW022 01/M07 Q1020;",
"03114099999","2010-11-29T16:20:00","4","56.417","-5.467","4.0","OBAN, UK","FM-15","EGEO ","V020","170,1,N,0010,1","99999,9,C,N","011265,1,N,1","+0010,1","-0070,1","99999,9","02,5,+00900,1,99,9","04,5,+01350,1,99,9",,,"04,99,1,99,9,99,9,99999,9,99,9,99,9",,"10200,1,99999,9",,,,"MET059METAR EGEO 291620Z 17002KT 9999 FEW030 SCT045 01/M07 Q1020;","P01 013503SCOCIG"
"03114099999","2010-11-29T16:50:00","4","56.417","-5.467","4.0","OBAN, UK","FM-15","EGEO ","V020","999,9,C,0000,1","22000,1,9,N","011265,1,N,1","+0010,1","-0060,1","99999,9","02,5,+00900,1,99,9",,,,"02,99,1,99,9,99,9,99999,9,99,9,99,9",,"10200,1,99999,9",,,,"MET060METAR EGEO 291650Z 00000KT 170V330 9999 FEW030 01/M06 Q1020;",
"03114099999","2010-12-01T07:50:00","4","56.417","-5.467","4.0","OBAN, UK","FM-15","EGEO ","V020","060,1,N,0010,1","22000,1,9,N","011265,1,N,1","-0040,1","-0080,1","99999,9","02,5,+00540,1,99,9",,,,"02,99,1,99,9,99,9,99999,9,99,9,99,9",,"10230,1,99999,9",,,,"MET053METAR EGEO 010750Z 06002KT 9999 FEW018 M04/M08 Q1023;",
"03114099999","2010-12-01T08:20:00","4","56.417","-5.467","4.0","OBAN, UK","FM-15","EGEO ","V020","070,1,N,0021,1","22000,1,9,N","011265,1,N,1","-0030,1","-0070,1","99999,9","02,5,+00360,1,99,9",,,,"02,99,1,99,9,99,9,99999,9,99,9,99,9",,"10230,1,99999,9",,,,"MET053METAR EGEO 010820Z 07004KT 9999 FEW012 M03/M07 Q1023;",
"03114099999","2010-12-01T08:50:00","4","56.417","-5.467","4.0","OBAN, UK","FM-15","EGEO ","V020","070,1,N,0021,1","22000,1,9,N","011265,1,N,1","-0040,1","-0080,1","99999,9","02,5,+00480,1,99,9",,,,"02,99,1,99,9,99,9,99999,9,99,9,99,9",,"10230,1,99999,9",,,,"MET053METAR EGEO 010850Z 07004KT 9999 FEW016 M04/M08 Q1023;",
"03114099999","2010-12-01T09:20:00","4","56.417","-5.467","4.0","OBAN, UK","FM-15","EGEO ","V020","140,1,N,0015,1","22000,1,9,N","011265,1,N,1","-0020,1","-0070,1","99999,9","02,5,+00480,1,99,9",,,,"02,99,1,99,9,99,9,99999,9,99,9,99,9",,"10230,1,99999,9",,,,"MET053METAR EGEO 010920Z 14003KT 9999 FEW016 M02/M07 Q1023;",
"03114099999","2010-12-01T09:50:00","4","56.417","-5.467","4.0","OBAN, UK","FM-15","EGEO ","V020","999,9,C,0000,1","22000,1,9,N","011265,1,N,1","-0010,1","-0060,1","99999,9","02,5,+00540,1,99,9",,,,"02,99,1,99,9,99,9,99999,9,99,9,99,9",,"10230,1,99999,9",,,,"MET053METAR EGEO 010950Z 00000KT 9999 FEW018 M01/M06 Q1023;",
"03114099999","2010-12-01T10:20:00","4","56.417","-5.467","4.0","OBAN, UK","FM-15","EGEO ","V020","100,1,N,0005,1","22000,1,9,N","011265,1,N,1","-0010,1","-0070,1","99999,9","02,5,+00600,1,99,9",,,,"02,99,1,99,9,99,9,99999,9,99,9,99,9",,"10230,1,99999,9",,,,"MET053METAR EGEO 011020Z 10001KT 9999 FEW020 M01/M07 Q1023;",
"03114099999","2010-12-01T10:50:00","4","56.417","-5.467","4.0","OBAN, UK","FM-15","EGEO ","V020","070,1,N,0021,1","22000,1,9,N","011265,1,N,1","-0010,1","-0060,1","99999,9","02,5,+00900,1,99,9",,,,"02,99,1,99,9,99,9,99999,9,99,9,99,9",,"10230,1,99999,9",,,,"MET053METAR EGEO 011050Z 07004KT 9999 FEW030 M01/M06 Q1023;",
"03114099999","2010-12-01T11:20:00","4","56.417","-5.467","4.0","OBAN, UK","FM-15","EGEO ","V020","060,1,N,0021,1","22000,1,9,N","011265,1,N,1","+0000,1","-0060,1","99999,9","02,5,+00900,1,99,9",,,,"02,99,1,99,9,99,9,99999,9,99,9,99,9",,"10220,1,99999,9",,,,"MET053METAR EGEO 011120Z 06004KT 9999 FEW030 M00/M06 Q1022;",
"03114099999","2010-12-01T11:50:00","4","56.417","-5.467","4.0","OBAN, UK","FM-15","EGEO ","V020","050,1,N,0026,1","22000,1,9,N","011265,1,N,1","+0000,1","-0050,1","99999,9","02,5,+00900,1,99,9",,,,"02,99,1,99,9,99,9,99999,9,99,9,99,9",,"10220,1,99999,9",,,,"MET052METAR EGEO 011150Z 05005KT 9999 FEW030 00/M05 Q1022;",
"03114099999","2010-12-01T12:20:00","4","56.417","-5.467","4.0","OBAN, UK","FM-15","EGEO ","V020","070,1,N,0036,1","22000,1,9,N","011265,1,N,1","+0010,1","-0060,1","99999,9","02,5,+00900,1,99,9",,,,"02,99,1,99,9,99,9,99999,9,99,9,99,9",,"10220,1,99999,9",,,,"MET052METAR EGEO 011220Z 07007KT 9999 FEW030 01/M06 Q1022;",
"03114099999","2010-12-01T12:50:00","4","56.417","-5.467","4.0","OBAN, UK","FM-15","EGEO ","V020","060,1,N,0036,1","22000,1,9,N","011265,1,N,1","+0010,1","-0060,1","99999,9","02,5,+00900,1,99,9",,,,"02,99,1,99,9,99,9,99999,9,99,9,99,9",,"10220,1,99999,9",,,,"MET060METAR EGEO 011250Z 06007KT 040V140 9999 FEW030 01/M06 Q1022;",
"03114099999","2010-12-01T13:20:00","4","56.417","-5.467","4.0","OBAN, UK","FM-15","EGEO ","V020","060,1,N,0041,1","22000,1,9,N","011265,1,N,1","+0010,1","-0060,1","99999,9","02,5,+00900,1,99,9",,,,"02,99,1,99,9,99,9,99999,9,99,9,99,9",,"10220,1,99999,9",,,,"MET052METAR EGEO 011320Z 06008KT 9999 FEW030 01/M06 Q1022;",
"03114099999","2010-12-01T13:50:00","4","56.417","-5.467","4.0","OBAN, UK","FM-15","EGEO ","V020","070,1,N,0036,1","22000,1,9,N","011265,1,N,1","+0010,1","-0060,1","99999,9","02,5,+00900,1,99,9",,,,"02,99,1,99,9,99,9,99999,9,99,9,99,9",,"10210,1,99999,9",,,,"MET060METAR EGEO 011350Z 07007KT 350V120 9999 FEW030 01/M06 Q1021;",
"03114099999","2010-12-01T14:20:00","4","56.417","-5.467","4.0","OBAN, UK","FM-15","EGEO ","V020","090,1,N,0026,1","22000,1,9,N","011265,1,N,1","+0010,1","-0060,1","99999,9","02,5,+00840,1,99,9",,,,"02,99,1,99,9,99,9,99999,9,99,9,99,9",,"10210,1,99999,9",,,,"MET060METAR EGEO 011420Z 09005KT 040V110 9999 FEW028 01/M06 Q1021;",
"03114099999","2010-12-01T14:50:00","4","56.417","-5.467","4.0","OBAN, UK","FM-15","EGEO ","V020","160,1,N,0010,1","22000,1,9,N","011265,1,N,1","+0010,1","-0060,1","99999,9","02,5,+00750,1,99,9",,,,"02,99,1,99,9,99,9,99999,9,99,9,99,9",,"10210,1,99999,9",,,,"MET052METAR EGEO 011450Z 16002KT 9999 FEW025 01/M06 Q1021;",
"03114099999","2010-12-01T15:20:00","4","56.417","-5.467","4.0","OBAN, UK","FM-15","EGEO ","V020","110,1,N,0010,1","22000,1,9,N","011265,1,N,1","+0000,1","-0060,1","99999,9","02,5,+00750,1,99,9",,,,"02,99,1,99,9,99,9,99999,9,99,9,99,9",,"10210,1,99999,9",,,,"MET052METAR EGEO 011520Z 11002KT 9999 FEW025 00/M06 Q1021;",
"03114099999","2010-12-01T15:50:00","4","56.417","-5.467","4.0","OBAN, UK","FM-15","EGEO ","V020","070,1,N,0026,1","22000,1,9,N","011265,1,N,1","-0010,1","-0070,1","99999,9","02,5,+00600,1,99,9",,,,"02,99,1,99,9,99,9,99999,9,99,9,99,9",,"10210,1,99999,9",,,,"MET053METAR EGEO 011550Z 07005KT 9999 FEW020 M01/M07 Q1021;",
"03114099999","2010-12-01T16:20:00","4","56.417","-5.467","4.0","OBAN, UK","FM-15","EGEO ","V020","070,1,N,0021,1","22000,1,9,N","011265,1,N,1","-0010,1","-0070,1","99999,9","02,5,+00600,1,99,9",,,,"02,99,1,99,9,99,9,99999,9,99,9,99,9",,"10210,1,99999,9",,,,"MET053METAR EGEO 011620Z 07004KT 9999 FEW020 M01/M07 Q1021;",
"03114099999","2010-12-02T07:50:00","4","56.417","-5.467","4.0","OBAN, UK","FM-15","EGEO ","V020","100,1,N,0005,1","99999,9,9,Y","009900,1,N,1","-0040,1","-0070,1","99999,9",,,,,,,"10210,1,99999,9",,,,"MET047METAR EGEO 020750Z 10001KT CAVOK M04/M07 Q1021;",
"03114099999","2010-12-02T08:20:00","4","56.417","-5.467","4.0","OBAN, UK","FM-15","EGEO ","V020","110,1,N,0015,1","99999,9,9,Y","009900,1,N,1","-0060,1","-0080,1","99999,9",,,,,,,"10200,1,99999,9",,,,"MET047METAR EGEO 020820Z 11003KT CAVOK M06/M08 Q1020;",
"03114099999","2010-12-02T08:50:00","4","56.417","-5.467","4.0","OBAN, UK","FM-15","EGEO ","V020","160,1,N,0005,1","22000,1,9,N","011265,1,N,1","-0050,1","-0070,1","99999,9","02,5,+00420,1,99,9",,,,"02,99,1,99,9,99,9,99999,9,99,9,99,9",,"10210,1,99999,9",,,,"MET053METAR EGEO 020850Z 16001KT 9999 FEW014 M05/M07 Q1021;",
"03114099999","2010-12-02T09:20:00","4","56.417","-5.467","4.0","OBAN, UK","FM-15","EGEO ","V020","100,1,N,0010,1","22000,1,9,N","011265,1,N,1","-0050,1","-0070,1","99999,9","02,5,+00540,1,99,9",,,,"02,99,1,99,9,99,9,99999,9,99,9,99,9",,"10200,1,99999,9",,,,"MET053METAR EGEO 020920Z 10002KT 9999 FEW018 M05/M07 Q1020;",
"03114099999","2010-12-02T09:50:00","4","56.417","-5.467","4.0","OBAN, UK","FM-15","EGEO ","V020","110,1,N,0005,1","22000,1,9,N","011265,1,N,1","-0050,1","-0070,1","99999,9","02,5,+00360,1,99,9",,,,"02,99,1,99,9,99,9,99999,9,99,9,99,9",,"10200,1,99999,9",,,,"MET053METAR EGEO 020950Z 11001KT 9999 FEW012 M05/M07 Q1020;",
"03114099999","2010-12-02T10:20:00","4","56.417","-5.467","4.0","OBAN, UK","FM-15","EGEO ","V020","090,1,N,0010,1","22000,1,9,N","011265,1,N,1","-0040,1","-0060,1","99999,9","02,5,+00540,1,99,9",,,,"02,99,1,99,9,99,9,99999,9,99,9,99,9",,"10200,1,99999,9",,,,"MET053METAR EGEO 021020Z 09002KT 9999 FEW018 M04/M06 Q1020;",
"03114099999","2010-12-02T10:50:00","4","56.417","-5.467","4.0","OBAN, UK","FM-15","EGEO ","V020","110,1,N,0010,1","22000,1,9,N","011265,1,N,1","-0020,1","-0050,1","99999,9","02,5,+00540,1,99,9",,,,"02,99,1,99,9,99,9,99999,9,99,9,99,9",,"10200,1,99999,9",,,,"MET053METAR EGEO 021050Z 11002KT 9999 FEW018 M02/M05 Q1020;",
"03114099999","2010-12-02T11:20:00","4","56.417","-5.467","4.0","OBAN, UK","FM-15","EGEO ","V020","130,1,N,0005,1","22000,1,9,N","011265,1,N,1","-0020,1","-0050,1","99999,9","02,5,+00540,1,99,9",,,,"02,99,1,99,9,99,9,99999,9,99,9,99,9",,"10200,1,99999,9",,,,"MET053METAR EGEO 021120Z 13001KT 9999 FEW018 M02/M05 Q1020;",
"03114099999","2010-12-02T12:50:00","4","56.417","-5.467","4.0","OBAN, UK","FM-15","EGEO ","V020","160,1,N,0005,1","22000,1,9,N","011265,1,N,1","-0010,1","-0050,1","99999,9","02,5,+00540,1,99,9",,,,"02,99,1,99,9,99,9,99999,9,99,9,99,9",,"10190,1,99999,9",,,,"MET053METAR EGEO 021250Z 16001KT 9999 FEW018 M01/M05 Q1019;",
"03114099999","2010-12-02T13:20:00","4","56.417","-5.467","4.0","OBAN, UK","FM-15","EGEO ","V020","999,9,C,0000,1","22000,1,9,N","011265,1,N,1","+0010,1","-0040,1","99999,9","02,5,+00540,1,99,9",,,,"02,99,1,99,9,99,9,99999,9,99,9,99,9",,"10190,1,99999,9",,,,"MET052METAR EGEO 021320Z 00000KT 9999 FEW018 01/M04 Q1019;",
"03114099999","2010-12-02T13:50:00","4","56.417","-5.467","4.0","OBAN, UK","FM-15","EGEO ","V020","070,1,N,0005,1","22000,1,9,N","011265,1,N,1","+0000,1","-0040,1","99999,9","02,5,+00540,1,99,9",,,,"02,99,1,99,9,99,9,99999,9,99,9,99,9",,"10180,1,99999,9",,,,"MET052METAR EGEO 021350Z 07001KT 9999 FEW018 00/M04 Q1018;",
"03114099999","2010-12-02T14:20:00","4","56.417","-5.467","4.0","OBAN, UK","FM-15","EGEO ","V020","080,1,N,0015,1","22000,1,9,N","011265,1,N,1","+0000,1","-0040,1","99999,9","02,5,+00540,1,99,9",,,,"02,99,1,99,9,99,9,99999,9,99,9,99,9",,"10180,1,99999,9",,,,"MET052METAR EGEO 021420Z 08003KT 9999 FEW018 00/M04 Q1018;",
"03114099999","2010-12-02T14:50:00","4","56.417","-5.467","4.0","OBAN, UK","FM-15","EGEO ","V020","090,1,N,0015,1","22000,1,9,N","011265,1,N,1","+0000,1","-0050,1","99999,9","02,5,+00540,1,99,9",,,,"02,99,1,99,9,99,9,99999,9,99,9,99,9",,"10180,1,99999,9",,,,"MET053METAR EGEO 021450Z 09003KT 9999 FEW018 M00/M05 Q1018;",
"03114099999","2010-12-02T15:20:00","4","56.417","-5.467","4.0","OBAN, UK","FM-15","EGEO ","V020","090,1,N,0021,1","22000,1,9,N","011265,1,N,1","+0000,1","-0050,1","99999,9","02,5,+00540,1,99,9",,,,"02,99,1,99,9,99,9,99999,9,99,9,99,9",,"10180,1,99999,9",,,,"MET062METAR EGEO 021520Z 09004KT 9999 FEW018 M00/M05 Q1018 88790094;",
"03114099999","2010-12-02T15:50:00","4","56.417","-5.467","4.0","OBAN, UK","FM-15","EGEO ","V020","090,1,N,0015,1","22000,1,9,N","011265,1,N,1","-0010,1","-0050,1","99999,9","02,5,+00540,1,99,9",,,,"02,99,1,99,9,99,9,99999,9,99,9,99,9",,"10180,1,99999,9",,,,"MET062METAR EGEO 021550Z 09003KT 9999 FEW018 M01/M05 Q1018 88790094;",
"03114099999","2010-12-02T16:20:00","4","56.417","-5.467","4.0","OBAN, UK","FM-15","EGEO ","V020","090,1,N,0021,1","22000,1,9,N","011265,1,N,1","-0020,1","-0060,1","99999,9","02,5,+00540,1,99,9",,,,"02,99,1,99,9,99,9,99999,9,99,9,99,9",,"10169,1,99999,9",,,,"MET062METAR EGEO 021620Z 09004KT 9999 FEW018 M02/M06 Q1017 88790094;",
"03114099999","2010-12-02T16:50:00","4","56.417","-5.467","4.0","OBAN, UK","FM-15","EGEO ","V020","070,1,N,0005,1","22000,1,9,N","011265,1,N,1","-0020,1","-0060,1","99999,9","02,5,+00540,1,99,9",,,,"02,99,1,99,9,99,9,99999,9,99,9,99,9",,"10169,1,99999,9",,,,"MET053METAR EGEO 021650Z 07001KT 9999 FEW018 M02/M06 Q1017;",
"03114099999","2010-12-03T07:50:00","4","56.417","-5.467","4.0","OBAN, UK","FM-15","EGEO ","V020","110,1,N,0036,1","00450,1,C,N","006000,1,N,1","+0000,1","-0010,1","99999,9","07,5,+00450,1,99,9",,,,"07,99,1,99,9,99,9,99999,9,99,9,99,9",,"10051,1,99999,9","71,1",,,"MET065METAR EGEO 030750Z 11007KT 6000 -SN BKN015 00/M01 Q1005 88490592;",
"03114099999","2010-12-03T08:20:00","4","56.417","-5.467","4.0","OBAN, UK","FM-15","EGEO ","V020","110,1,N,0036,1","00300,1,C,N","003000,1,N,1","+0000,1","-0010,1","99999,9","08,5,+00300,1,99,9",,,,"08,99,1,99,9,99,9,99999,9,99,9,99,9",,"10041,1,99999,9","73,1",,,"MET064METAR EGEO 030820Z 11007KT 3000 SN OVC010 00/M01 Q1004 88491592;",
"03114099999","2010-12-03T08:50:00","4","56.417","-5.467","4.0","OBAN, UK","FM-15","EGEO ","V020","140,1,N,0046,1","00150,1,C,N","005000,1,N,1","+0010,1","+0000,1","99999,9","07,5,+00150,1,99,9",,,,"07,99,1,99,9,99,9,99999,9,99,9,99,9",,"10041,1,99999,9",,,,"MET063METAR EGEO 030850Z 14009KT 5000 BKN005 01/00 Q1004 RESN SNOCLO;",
"03114099999","2010-12-03T09:20:00","4","56.417","-5.467","4.0","OBAN, UK","FM-15","EGEO ","V020","150,1,N,0041,1","00300,1,C,N","001400,1,N,1","+9999,9","+9999,9","99999,9","07,5,+00300,1,99,9",,,,"07,99,1,99,9,99,9,99999,9,99,9,99,9",,,,,,"MET066METAR EGEO 030920Z 15008KT 14009KT 8000 BKN010 02/M00Q1004 SNOCLO;",
"03114099999","2010-12-03T09:50:00","4","56.417","-5.467","4.0","OBAN, UK","FM-15","EGEO ","V020","140,1,N,0051,1","00300,1,C,N","011265,1,N,1","+0020,1","-0010,1","99999,9","07,5,+00300,1,99,9",,,,"07,99,1,99,9,99,9,99999,9,99,9,99,9",,"10031,1,99999,9",,,,"MET067METAR EGEO 030950Z 14010KT 100V160 9999 BKN010 02/M01 Q1003 SNOCLO;",
"03114099999","2010-12-03T10:20:00","4","56.417","-5.467","4.0","OBAN, UK","FM-15","EGEO ","V020","120,1,N,0041,1","99999,9,C,N","011265,1,N,1","+0010,1","-0010,1","99999,9","02,5,+00330,1,99,9","04,5,+00480,1,99,9",,,"04,99,1,99,9,99,9,99999,9,99,9,99,9",,"10031,1,99999,9",,,,"MET066METAR EGEO 031020Z 12008KT 9999 FEW011 SCT016 01/M01 Q1003 SNOCLO;","P01 004803SCOCIG"
"03114099999","2010-12-03T10:50:00","4","56.417","-5.467","4.0","OBAN, UK","FM-15","EGEO ","V020","120,1,N,0031,1","00540,1,C,N","011265,1,N,1","+0020,1","+0000,1","99999,9","04,5,+00360,1,99,9","07,5,+00540,1,99,9",,,"07,99,1,99,9,99,9,99999,9,99,9,99,9",,"10020,1,99999,9",,,,"MET066METAR EGEO 031050Z 12006KT 9999 SCT012 BKN018 02/M00 Q1002 SNOCLO;",
"03114099999","2010-12-03T11:20:00","4","56.417","-5.467","4.0","OBAN, UK","FM-15","EGEO ","V020","120,1,N,0031,1","22000,1,9,N","011265,1,N,1","+0020,1","+0000,1","99999,9","04,5,+00360,1,99,9",,,,"04,99,1,99,9,99,9,99999,9,99,9,99,9",,"10020,1,99999,9","71,1",,,"MET063METAR EGEO 031120Z 12006KT 9999 -SN SCT012 02/M00 Q1002 SNOCLO;",
"03114099999","2010-12-03T11:50:00","4","56.417","-5.467","4.0","OBAN, UK","FM-15","EGEO ","V020","100,1,N,0046,1","00240,1,C,N","011265,1,N,1","+0010,1","+0000,1","99999,9","07,5,+00240,1,99,9",,,,"07,99,1,99,9,99,9,99999,9,99,9,99,9",,"10010,1,99999,9",,,,"MET059METAR EGEO 031150Z 10009KT 9999 BKN008 01/M00 Q1001 SNOCLO;",
"03114099999","2010-12-03T12:20:00","4","56.417","-5.467","4.0","OBAN, UK","FM-15","EGEO ","V020","090,1,N,0041,1","00270,1,C,N","004000,1,N,1","+0010,1","+0000,1","99999,9","08,5,+00270,1,99,9",,,,"08,99,1,99,9,99,9,99999,9,99,9,99,9",,"10010,1,99999,9","73,1",,,"MET062METAR EGEO 031220Z 09008KT 4000 SN OVC009 01/M00 Q1001 SNOCLO;",
"03114099999","2010-12-03T12:50:00","4","56.417","-5.467","4.0","OBAN, UK","FM-15","EGEO ","V020","090,1,N,0046,1","00360,1,C,N","011265,1,N,1","+0010,1","+0000,1","99999,9","07,5,+00360,1,99,9",,,,"07,99,1,99,9,99,9,99999,9,99,9,99,9",,"10000,1,99999,9",,,,"MET064METAR EGEO 031250Z 09009KT 9999 BKN012 01/M00 Q1000 RESN SNOCLO;",
"03114099999","2010-12-03T13:20:00","4","56.417","-5.467","4.0","OBAN, UK","FM-15","EGEO ","V020","110,1,N,0041,1","00180,1,C,N","005000,1,N,1","+0020,1","+0000,1","99999,9","07,5,+00180,1,99,9",,,,"07,99,1,99,9,99,9,99999,9,99,9,99,9",,"09990,1,99999,9","73,1",,,"MET061METAR EGEO 031320Z 11008KT 5000 SN BKN006 02/00 Q0999 SNOCLO;",
"03114099999","2010-12-03T13:50:00","4","56.417","-5.467","4.0","OBAN, UK","FM-15","EGEO ","V020","100,1,N,0041,1","00360,1,C,N","011265,1,N,1","+0010,1","+0000,1","99999,9","07,5,+00360,1,99,9",,,,"07,99,1,99,9,99,9,99999,9,99,9,99,9",,"09990,1,99999,9",,,,"MET063METAR EGEO 031350Z 10008KT 9999 BKN012 01/00 Q0999 RESN SNOCLO;",
"03114099999","2010-12-03T14:20:00","4","56.417","-5.467","4.0","OBAN, UK","FM-15","EGEO ","V020","100,1,N,0041,1","00450,1,C,N","011265,1,N,1","+0020,1","+0000,1","99999,9","02,5,+00360,1,99,9","07,5,+00450,1,99,9",,,"07,99,1,99,9,99,9,99999,9,99,9,99,9",,"09990,1,99999,9",,,,"MET065METAR EGEO 031420Z 10008KT 9999 FEW012 BKN015 02/00 Q0999 SNOCLO;",
"03114099999","2010-12-03T14:50:00","4","56.417","-5.467","4.0","OBAN, UK","FM-15","EGEO ","V020","090,1,N,0036,1","00450,1,C,N","011265,1,N,1","+0020,1","+0010,1","99999,9","07,5,+00450,1,99,9",,,,"07,99,1,99,9,99,9,99999,9,99,9,99,9",,"09990,1,99999,9",,,,"MET058METAR EGEO 031450Z 09007KT 9999 BKN015 02/01 Q0999 SNOCLO;",
"03114099999","2010-12-03T15:20:00","4","56.417","-5.467","4.0","OBAN, UK","FM-15","EGEO ","V020","090,1,N,0031,1","00450,1,C,N","011265,1,N,1","+0020,1","+0010,1","99999,9","07,5,+00450,1,99,9",,,,"07,99,1,99,9,99,9,99999,9,99,9,99,9",,"09980,1,99999,9",,,,"MET058METAR EGEO 031520Z 09006KT 9999 BKN015 02/01 Q0998 SNOCLO;",
"03114099999","2010-12-03T15:50:00","4","56.417","-5.467","4.0","OBAN, UK","FM-15","EGEO ","V020","090,1,N,0031,1","00450,1,C,N","011265,1,N,1","+0020,1","+0010,1","99999,9","07,5,+00450,1,99,9",,,,"07,99,1,99,9,99,9,99999,9,99,9,99,9",,"09980,1,99999,9",,,,"MET058METAR EGEO 031550Z 09006KT 9999 BKN015 02/01 Q0998 SNOCLO;",
"03114099999","2010-12-03T16:20:00","4","56.417","-5.467","4.0","OBAN, UK","FM-15","EGEO ","V020","090,1,N,0031,1","22000,1,9,N","011265,1,N,1","+0020,1","+0010,1","99999,9","04,5,+00450,1,99,9",,,,"04,99,1,99,9,99,9,99999,9,99,9,99,9",,"09980,1,99999,9",,,,"MET058METAR EGEO 031620Z 09006KT 9999 SCT015 02/01 Q0998 SNOCLO;",
"03114099999","2010-12-03T16:50:00","4","56.417","-5.467","4.0","OBAN, UK","FM-15","EGEO ","V020","100,1,N,0036,1","22000,1,9,N","011265,1,N,1","+0020,1","+0010,1","99999,9","04,5,+00600,1,99,9",,,,"04,99,1,99,9,99,9,99999,9,99,9,99,9",,"09980,1,99999,9",,,,"MET058METAR EGEO 031650Z 10007KT 9999 SCT020 02/01 Q0998 SNOCLO;",
"03114099999","2010-12-06T07:50:00","4","56.417","-5.467","4.0","OBAN, UK","FM-15","EGEO ","V020","080,1,N,0010,1","99999,9,C,N","011265,1,N,1","+0020,1","+0010,1","99999,9","02,5,+00420,1,99,9","04,5,+01200,1,99,9",,,"04,99,1,99,9,99,9,99999,9,99,9,99,9",,"09990,1,99999,9",,,,"MET058METAR EGEO 060750Z 08002KT 9999 FEW014 SCT040 02/01 Q0999;","P01 012003SCOCIG"
"03114099999","2010-12-06T08:20:00","4","56.417","-5.467","4.0","OBAN, UK","FM-15","EGEO ","V020","130,1,N,0005,1","99999,9,C,N","011265,1,N,1","+0020,1","+0010,1","99999,9","02,5,+00540,1,99,9","04,5,+01200,1,99,9",,,"04,99,1,99,9,99,9,99999,9,99,9,99,9",,"09990,1,99999,9",,,,"MET058METAR EGEO 060820Z 13001KT 9999 FEW018 SCT040 02/01 Q0999;","P01 012003SCOCIG"
"03114099999","2010-12-06T08:50:00","4","56.417","-5.467","4.0","OBAN, UK","FM-15","EGEO ","V020","040,1,N,0005,1","22000,1,9,N","011265,1,N,1","+0020,1","+0010,1","99999,9","02,5,+00540,1,99,9",,,,"02,99,1,99,9,99,9,99999,9,99,9,99,9",,"09990,1,99999,9",,,,"MET058METAR EGEO 060850Z 04001KT 9999 FEW018 02/01 Q0999 SNOCLO;",
"03114099999","2010-12-06T09:20:00","4","56.417","-5.467","4.0","OBAN, UK","FM-15","EGEO ","V020","060,1,N,0010,1","22000,1,9,N","011265,1,N,1","+0020,1","+0000,1","99999,9","02,5,+00540,1,99,9",,,,"02,99,1,99,9,99,9,99999,9,99,9,99,9",,"09990,1,99999,9",,,,"MET058METAR EGEO 060920Z 06002KT 9999 FEW018 02/00 Q0999 SNOCLO;",
"03114099999","2010-12-06T09:50:00","4","56.417","-5.467","4.0","OBAN, UK","FM-15","EGEO ","V020","080,1,N,0010,1","22000,1,9,N","011265,1,N,1","+0020,1","+0000,1","99999,9","02,5,+00540,1,99,9",,,,"02,99,1,99,9,99,9,99999,9,99,9,99,9",,"10000,1,99999,9",,,,"MET058METAR EGEO 060950Z 08002KT 9999 FEW018 02/00 Q1000 SNOCLO;",
"03114099999","2010-12-06T10:20:00","4","56.417","-5.467","4.0","OBAN, UK","FM-15","EGEO ","V020","999,9,C,0000,1","22000,1,9,N","011265,1,N,1","+0020,1","+0000,1","99999,9","02,5,+00540,1,99,9",,,,"02,99,1,99,9,99,9,99999,9,99,9,99,9",,"10000,1,99999,9",,,,"MET067METAR EGEO 061020Z 00000KT 090V210 9999 FEW018 02/M00 Q1000 SNOCLO;",
"03114099999","2010-12-06T11:20:00","4","56.417","-5.467","4.0","OBAN, UK","FM-15","EGEO ","V020","040,1,N,0010,1","22000,1,9,N","011265,1,N,1","+0020,1","-0010,1","99999,9","02,5,+00600,1,99,9",,,,"02,99,1,99,9,99,9,99999,9,99,9,99,9",,"10000,1,99999,9",,,,"MET059METAR EGEO 061120Z 04002KT 9999 FEW020 02/M01 Q1000 SNOCLO;",
"03114099999","2010-12-06T12:20:00","4","56.417","-5.467","4.0","OBAN, UK","FM-15","EGEO ","V020","060,1,N,0010,1","22000,1,9,N","011265,1,N,1","+0020,1","-0020,1","99999,9","02,5,+00480,1,99,9",,,,"02,99,1,99,9,99,9,99999,9,99,9,99,9",,"10010,1,99999,9",,,,"MET059METAR EGEO 061220Z 06002KT 9999 FEW016 02/M02 Q1001 SNOCLO;",
"03114099999","2010-12-06T12:50:00","4","56.417","-5.467","4.0","OBAN, UK","FM-15","EGEO ","V020","999,9,9,9999,9","99999,9,9,Y","009900,1,N,1","+0020,1","-0020,1","99999,9",,,,,,,"10010,1,99999,9",,,,"MET047METAR EGEO 061250Z CAVOK 02/M02 Q1001 88790291;",
"03114099999","2010-12-06T13:20:00","4","56.417","-5.467","4.0","OBAN, UK","FM-15","EGEO ","V020","999,9,C,0000,1","99999,9,9,Y","009900,1,N,1","+0020,1","-0020,1","99999,9",,,,,,,"10010,1,99999,9",,,,"MET055METAR EGEO 061320Z 00000KT CAVOK 02/M02 Q1001 88790291;",
"03114099999","2010-12-06T13:50:00","4","56.417","-5.467","4.0","OBAN, UK","FM-15","EGEO ","V020","999,9,C,0000,1","99999,9,9,Y","009900,1,N,1","+0020,1","-0020,1","99999,9",,,,,,,"10010,1,99999,9",,,,"MET055METAR EGEO 061350Z 00000KT CAVOK 02/M02 Q1001 88790191;",
"03114099999","2010-12-06T14:20:00","4","56.417","-5.467","4.0","OBAN, UK","FM-15","EGEO ","V020","999,9,C,0000,1","22000,1,9,N","011265,1,N,1","+0030,1","-0020,1","99999,9","02,5,+00600,1,99,9",,,,"02,99,1,99,9,99,9,99999,9,99,9,99,9",,"10010,1,99999,9",,,,"MET061METAR EGEO 061420Z 00000KT 9999 FEW020 03/M02 Q1001 88790191;",
"03114099999","2010-12-06T14:50:00","4","56.417","-5.467","4.0","OBAN, UK","FM-15","EGEO ","V020","999,9,C,0000,1","99999,9,9,Y","009900,1,N,1","+0030,1","-0020,1","99999,9",,,,,,,"10010,1,99999,9",,,,"MET055METAR EGEO 061450Z 00000KT CAVOK 03/M02 Q1001 88790191;",
"03114099999","2010-12-06T15:20:00","4","56.417","-5.467","4.0","OBAN, UK","FM-15","EGEO ","V020","060,1,N,0010,1","22000,1,9,N","011265,1,N,1","+0020,1","-0030,1","99999,9","02,5,+00360,1,99,9",,,,"02,99,1,99,9,99,9,99999,9,99,9,99,9",,"10010,1,99999,9",,,,"MET061METAR EGEO 061520Z 06002KT 9999 FEW012 02/M03 Q1001 88790191;",
"03114099999","2010-12-06T15:50:00","4","56.417","-5.467","4.0","OBAN, UK","FM-15","EGEO ","V020","070,1,N,0005,1","22000,1,9,N","011265,1,N,1","+0020,1","-0030,1","99999,9","02,5,+00450,1,99,9",,,,"02,99,1,99,9,99,9,99999,9,99,9,99,9",,"10010,1,99999,9",,,,"MET061METAR EGEO 061550Z 07001KT 9999 FEW015 02/M03 Q1001 88790191;",
"03114099999","2010-12-06T16:20:00","4","56.417","-5.467","4.0","OBAN, UK","FM-15","EGEO ","V020","110,1,N,0005,1","99999,9,9,Y","009900,1,N,1","+0000,1","-0030,1","99999,9",,,,,,,"10010,1,99999,9",,,,"MET055METAR EGEO 061620Z 11001KT CAVOK 00/M03 Q1001 88790191;",
"03114099999","2010-12-06T16:50:00","4","56.417","-5.467","4.0","OBAN, UK","FM-15","EGEO ","V020","090,1,N,0010,1","99999,9,9,Y","009900,1,N,1","+0000,1","-0020,1","99999,9",,,,,,,"10020,1,99999,9",,,,"MET055METAR EGEO 061650Z 09002KT CAVOK 00/M02 Q1002 88790191;",
"03114099999","2010-12-07T07:50:00","4","56.417","-5.467","4.0","OBAN, UK","FM-15","EGEO ","V020","120,1,N,0026,1","22000,1,9,N","011265,1,N,1","-0040,1","-0060,1","99999,9","02,5,+00360,1,99,9",,,,"02,99,1,99,9,99,9,99999,9,99,9,99,9",,"10081,1,99999,9",,,,"MET062METAR EGEO 070750Z 12005KT 9999 FEW012 M04/M06 Q1008 88390191;",
"03114099999","2010-12-07T08:20:00","4","56.417","-5.467","4.0","OBAN, UK","FM-15","EGEO ","V020","120,1,N,0031,1","22000,1,9,N","011265,1,N,1","-0040,1","-0050,1","99999,9","02,5,+00360,1,99,9",,,,"02,99,1,99,9,99,9,99999,9,99,9,99,9",,"10081,1,99999,9",,,,"MET062METAR EGEO 070820Z 12006KT 9999 FEW012 M04/M05 Q1008 88390191;",
"03114099999","2010-12-07T08:50:00","4","56.417","-5.467","4.0","OBAN, UK","FM-15","EGEO ","V020","120,1,N,0031,1","22000,1,9,N","011265,1,N,1","-0040,1","-0060,1","99999,9","02,5,+00420,1,99,9",,,,"02,99,1,99,9,99,9,99999,9,99,9,99,9",,"10081,1,99999,9",,,,"MET062METAR EGEO 070850Z 12006KT 9999 FEW014 M04/M06 Q1008 88390191;",
"03114099999","2010-12-07T09:20:00","4","56.417","-5.467","4.0","OBAN, UK","FM-15","EGEO ","V020","120,1,N,0021,1","22000,1,9,N","011265,1,N,1","-0040,1","-0060,1","99999,9","02,5,+00450,1,99,9",,,,"02,99,1,99,9,99,9,99999,9,99,9,99,9",,"10091,1,99999,9",,,,"MET062METAR EGEO 070920Z 12004KT 9999 FEW015 M04/M06 Q1009 88390191;",
"03114099999","2010-12-07T09:50:00","4","56.417","-5.467","4.0","OBAN, UK","FM-15","EGEO ","V020","120,1,N,0031,1","22000,1,9,N","011265,1,N,1","-0040,1","-0050,1","99999,9","02,5,+00420,1,99,9",,,,"02,99,1,99,9,99,9,99999,9,99,9,99,9",,"10091,1,99999,9",,,,"MET062METAR EGEO 070950Z 12006KT 9999 FEW014 M04/M05 Q1009 88390191;",
"03114099999","2010-12-07T10:50:00","4","56.417","-5.467","4.0","OBAN, UK","FM-15","EGEO ","V020","120,1,N,0031,1","22000,1,9,N","011265,1,N,1","-0030,1","-0050,1","99999,9","02,5,+00540,1,99,9",,,,"02,99,1,99,9,99,9,99999,9,99,9,99,9",,"10091,1,99999,9",,,,"MET062METAR EGEO 071050Z 12006KT 9999 FEW018 M03/M05 Q1009 88390191;",
"03114099999","2010-12-07T11:20:00","4","56.417","-5.467","4.0","OBAN, UK","FM-15","EGEO ","V020","120,1,N,0026,1","22000,1,9,N","011265,1,N,1","-0030,1","-0050,1","99999,9","02,5,+00600,1,99,9",,,,"02,99,1,99,9,99,9,99999,9,99,9,99,9",,"10091,1,99999,9",,,,"MET062METAR EGEO 071120Z 12005KT 9999 FEW020 M03/M05 Q1009 88390191;",
"03114099999","2010-12-07T11:50:00","4","56.417","-5.467","4.0","OBAN, UK","FM-15","EGEO ","V020","120,1,N,0031,1","22000,1,9,N","011265,1,N,1","-0020,1","-0040,1","99999,9","02,5,+00600,1,99,9",,,,"02,99,1,99,9,99,9,99999,9,99,9,99,9",,"10091,1,99999,9",,,,"MET062METAR EGEO 071150Z 12006KT 9999 FEW020 M02/M04 Q1009 88390191;",
"03114099999","2010-12-07T12:20:00","4","56.417","-5.467","4.0","OBAN, UK","FM-15","EGEO ","V020","120,1,N,0021,1","22000,1,9,N","011265,1,N,1","-0020,1","-0050,1","99999,9","02,5,+00600,1,99,9",,,,"02,99,1,99,9,99,9,99999,9,99,9,99,9",,"10091,1,99999,9",,,,"MET062METAR EGEO 071220Z 12004KT 9999 FEW020 M02/M05 Q1009 88390191;",
"03114099999","2010-12-07T12:50:00","4","56.417","-5.467","4.0","OBAN, UK","FM-15","EGEO ","V020","090,1,N,0021,1","22000,1,9,N","011265,1,N,1","-0010,1","-0040,1","99999,9","02,5,+00540,1,09,1",,,,"02,99,1,99,9,99,9,99999,9,99,9,99,9",,"10091,1,99999,9",,,,"MET064METAR EGEO 071250Z 09004KT 9999 FEW018CB M01/M04 Q1009 88390191;",
"03114099999","2010-12-07T13:20:00","4","56.417","-5.467","4.0","OBAN, UK","FM-15","EGEO ","V020","080,1,N,0021,1","22000,1,9,N","011265,1,N,1","-0010,1","-0040,1","99999,9","02,5,+00450,1,99,9",,,,"02,99,1,99,9,99,9,99999,9,99,9,99,9",,"10091,1,99999,9",,,,"MET062METAR EGEO 071320Z 08004KT 9999 FEW015 M01/M04 Q1009 88390191;",
"03114099999","2010-12-07T13:50:00","4","56.417","-5.467","4.0","OBAN, UK","FM-15","EGEO ","V020","080,1,N,0021,1","22000,1,9,N","011265,1,N,1","-0010,1","-0040,1","99999,9","02,5,+00480,1,99,9",,,,"02,99,1,99,9,99,9,99999,9,99,9,99,9",,"10091,1,99999,9",,,,"MET062METAR EGEO 071350Z 08004KT 9999 FEW016 M01/M04 Q1009 88390191;",
"03114099999","2010-12-07T14:20:00","4","56.417","-5.467","4.0","OBAN, UK","FM-15","EGEO ","V020","090,1,N,0021,1","22000,1,9,N","011265,1,N,1","-0010,1","-0040,1","99999,9","02,5,+00540,1,09,1",,,,"02,99,1,99,9,99,9,99999,9,99,9,99,9",,"10091,1,99999,9",,,,"MET064METAR EGEO 071420Z 09004KT 9999 FEW018CB M01/M04 Q1009 88310191;",
"03114099999","2010-12-07T15:20:00","4","56.417","-5.467","4.0","OBAN, UK","FM-15","EGEO ","V020","100,1,N,0021,1","22000,1,9,N","011265,1,N,1","-0020,1","-0050,1","99999,9","02,5,+00450,1,09,1",,,,"02,99,1,99,9,99,9,99999,9,99,9,99,9",,"10091,1,99999,9",,,,"MET064METAR EGEO 071520Z 10004KT 9999 FEW015CB M02/M05 Q1009 88390191;",
"03114099999","2010-12-07T15:50:00","4","56.417","-5.467","4.0","OBAN, UK","FM-15","EGEO ","V020","120,1,N,0015,1","22000,1,9,N","011265,1,N,1","-0020,1","-0040,1","99999,9","02,5,+00450,1,09,1",,,,"02,99,1,99,9,99,9,99999,9,99,9,99,9",,"10102,1,99999,9",,,,"MET064METAR EGEO 071550Z 12003KT 9999 FEW015CB M02/M04 Q1010 88390191;",
"03114099999","2010-12-07T16:20:00","4","56.417","-5.467","4.0","OBAN, UK","FM-15","EGEO ","V020","090,1,N,0026,1","22000,1,9,N","011265,1,N,1","-0020,1","-0050,1","99999,9","02,5,+00450,1,02,1",,,,"02,99,1,99,9,99,9,99999,9,99,9,99,9",,"10102,1,99999,9",,,,"MET065METAR EGEO 071620Z 09005KT 9999 FEW015TCU M02/M05 Q1010 88390191;",
"03114099999","2010-12-07T16:50:00","4","56.417","-5.467","4.0","OBAN, UK","FM-15","EGEO ","V020","100,1,N,0026,1","22000,1,9,N","011265,1,N,1","-0030,1","-0050,1","99999,9","02,5,+00420,1,99,9",,,,"02,99,1,99,9,99,9,99999,9,99,9,99,9",,"10102,1,99999,9",,,,"MET062METAR EGEO 071650Z 10005KT 9999 FEW014 M03/M05 Q1010 88390191;",
"03114099999","2010-12-08T07:50:00","4","56.417","-5.467","4.0","OBAN, UK","FM-15","EGEO ","V020","100,1,N,0015,1","22000,1,9,N","011265,1,N,1","-0050,1","-0060,1","99999,9",,,,,,,"10169,1,99999,9","10,1",,,"MET065METAR EGEO 080750Z 10003KT 9999 2500NW BR M05/M06 Q1017 88390188;",
"03114099999","2010-12-08T08:20:00","4","56.417","-5.467","4.0","OBAN, UK","FM-15","EGEO ","V020","999,9,9,9999,9","22000,1,9,N","011265,1,N,1","-0050,1","-0070,1","99999,9","02,5,+00420,1,99,9",,,,"02,99,1,99,9,99,9,99999,9,99,9,99,9",,"10180,1,99999,9","10,1",,,"MET057METAR EGEO 080820Z 9999 BR FEW014 M05/M07 Q1018 88390188;",
"03114099999","2010-12-08T08:50:00","4","56.417","-5.467","4.0","OBAN, UK","FM-15","EGEO ","V020","100,1,N,0026,1","22000,1,9,N","011265,1,N,1","-0050,1","-0060,1","99999,9",,,,,,,"10180,1,99999,9","48,1",,,"MET057METAR EGEO 080850Z 10005KT 9999 3500W FZFG M05/M06 Q1018;",
"03114099999","2010-12-08T09:20:00","4","56.417","-5.467","4.0","OBAN, UK","FM-15","EGEO ","V020","100,1,N,0026,1","22000,1,9,N","011265,1,N,1","-0050,1","-0060,1","99999,9","02,5,+00450,1,99,9",,,,"02,99,1,99,9,99,9,99999,9,99,9,99,9",,"10180,1,99999,9","48,1",,,"MET073METAR EGEO 080920Z 10005KT 9999 1000W FZFG FEW015 M05/M06 Q1018 88390188;",
"03114099999","2010-12-08T09:50:00","4","56.417","-5.467","4.0","OBAN, UK","FM-15","EGEO ","V020","100,1,N,0021,1","22000,1,9,N","011265,1,N,1","-0040,1","-0060,1","99999,9","02,5,+00420,1,09,1",,,,"02,99,1,99,9,99,9,99999,9,99,9,99,9",,"10190,1,99999,9","48,1",,,"MET075METAR EGEO 080950Z 10004KT 9999 1000W FZFG FEW014CB M04/M06 Q1019 88390188;",
"03114099999","2010-12-08T10:20:00","4","56.417","-5.467","4.0","OBAN, UK","FM-15","EGEO ","V020","100,1,N,0021,1","22000,1,9,N","011265,1,N,1","-0040,1","-0060,1","99999,9","02,5,+00360,1,09,1",,,,"02,99,1,99,9,99,9,99999,9,99,9,99,9",,"10190,1,99999,9","10,1",,,"MET073METAR EGEO 081020Z 10004KT 9999 4000W BR FEW012CB M04/M06 Q1019 88390188;",
"03114099999","2010-12-08T10:50:00","4","56.417","-5.467","4.0","OBAN, UK","FM-15","EGEO ","V020","100,1,N,0021,1","22000,1,9,N","011265,1,N,1","-0030,1","-0050,1","99999,9","02,5,+00360,1,09,1",,,,"02,99,1,99,9,99,9,99999,9,99,9,99,9",,"10190,1,99999,9",,,,"MET064METAR EGEO 081050Z 10004KT 9999 FEW012CB M03/M05 Q1019 88390188;",
"03114099999","2010-12-08T11:20:00","4","56.417","-5.467","4.0","OBAN, UK","FM-15","EGEO ","V020","100,1,N,0015,1","22000,1,9,N","011265,1,N,1","-0030,1","-0050,1","99999,9","02,5,+00420,1,09,1",,,,"02,99,1,99,9,99,9,99999,9,99,9,99,9",,"10190,1,99999,9",,,,"MET064METAR EGEO 081120Z 10003KT 9999 FEW014CB M03/M05 Q1019 88390188;",
"03114099999","2010-12-08T11:50:00","4","56.417","-5.467","4.0","OBAN, UK","FM-15","EGEO ","V020","100,1,N,0021,1","22000,1,9,N","011265,1,N,1","-0020,1","-0040,1","99999,9","02,5,+00420,1,09,1",,,,"02,99,1,99,9,99,9,99999,9,99,9,99,9",,"10190,1,99999,9",,,,"MET064METAR EGEO 081150Z 10004KT 9999 FEW014CB M02/M04 Q1019 88390188;",
"03114099999","2010-12-08T12:20:00","4","56.417","-5.467","4.0","OBAN, UK","FM-15","EGEO ","V020","100,1,N,0015,1","22000,1,9,N","011265,1,N,1","-0020,1","-0040,1","99999,9","02,5,+00420,1,09,1",,,,"02,99,1,99,9,99,9,99999,9,99,9,99,9",,"10200,1,99999,9",,,,"MET064METAR EGEO 081220Z 10003KT 9999 FEW014CB M02/M04 Q1020 88390188;",
"03114099999","2010-12-08T13:50:00","4","56.417","-5.467","4.0","OBAN, UK","FM-15","EGEO ","V020","090,1,N,0021,1","22000,1,9,N","011265,1,N,1","-0010,1","-0030,1","99999,9","02,5,+00420,1,09,1",,,,"02,99,1,99,9,99,9,99999,9,99,9,99,9",,"10200,1,99999,9",,,,"MET064METAR EGEO 081350Z 09004KT 9999 FEW014CB M01/M03 Q1020 88390188;",
"03114099999","2010-12-08T14:20:00","4","56.417","-5.467","4.0","OBAN, UK","FM-15","EGEO ","V020","090,1,N,0015,1","22000,1,9,N","011265,1,N,1","+0000,1","-0020,1","99999,9","02,5,+00420,1,09,1",,,,"02,99,1,99,9,99,9,99999,9,99,9,99,9",,"10200,1,99999,9",,,,"MET064METAR EGEO 081420Z 09003KT 9999 FEW014CB M00/M02 Q1020 88390188;",
"03114099999","2010-12-08T14:50:00","4","56.417","-5.467","4.0","OBAN, UK","FM-15","EGEO ","V020","080,1,N,0021,1","22000,1,9,N","011265,1,N,1","-0010,1","-0030,1","99999,9","02,5,+00600,1,99,9",,,,"02,99,1,99,9,99,9,99999,9,99,9,99,9",,"10210,1,99999,9",,,,"MET062METAR EGEO 081450Z 08004KT 9999 FEW020 M01/M03 Q1021 88390188;",
"03114099999","2010-12-08T15:20:00","4","56.417","-5.467","4.0","OBAN, UK","FM-15","EGEO ","V020","110,1,N,0015,1","99999,9,C,N","011265,1,N,1","-0010,1","-0020,1","99999,9","02,5,+00420,1,99,9","04,5,+00600,1,99,9",,,"04,99,1,99,9,99,9,99999,9,99,9,99,9",,"10210,1,99999,9",,,,"MET069METAR EGEO 081520Z 11003KT 9999 FEW014 SCT020 M01/M02 Q1021 88390188;","P01 006003SCOCIG"
"03114099999","2010-12-08T15:50:00","4","56.417","-5.467","4.0","OBAN, UK","FM-15","EGEO ","V020","110,1,N,0015,1","99999,9,C,N","011265,1,N,1","-0010,1","-0030,1","99999,9","02,5,+00360,1,99,9","04,5,+00540,1,99,9",,,"04,99,1,99,9,99,9,99999,9,99,9,99,9",,"10210,1,99999,9",,,,"MET069METAR EGEO 081550Z 11003KT 9999 FEW012 SCT018 M01/M03 Q1021 88390188;","P01 005403SCOCIG"
"03114099999","2010-12-08T16:50:00","4","56.417","-5.467","4.0","OBAN, UK","FM-15","EGEO ","V020","130,1,N,0010,1","99999,9,C,N","011265,1,N,1","-0020,1","-0030,1","99999,9","02,5,+00360,1,99,9","04,5,+00480,1,09,5",,,"04,99,1,99,9,99,9,99999,9,99,9,99,9",,"10220,1,99999,9",,,,"MET071METAR EGEO 081650Z 13002KT 9999 FEW012 SCT016CB M02/M03 Q1022 88390188;","P01 004803SCOCIG"
"03114099999","2010-12-09T07:50:00","4","56.417","-5.467","4.0","OBAN, UK","FM-15","EGEO ","V020","300,1,N,0062,1","99999,9,C,N","011265,1,N,1","+0070,1","+0030,1","99999,9","02,5,+00360,1,99,9","04,5,+00750,1,99,9",,,"04,99,1,99,9,99,9,99999,9,99,9,99,9",,"10271,1,99999,9",,,,"MET058METAR EGEO 090750Z 30012KT 9999 FEW012 SCT025 07/03 Q1027;","P01 007503SCOCIG"
"03114099999","2010-12-09T08:20:00","4","56.417","-5.467","4.0","OBAN, UK","FM-15","EGEO ","V020","290,1,N,0062,1","22000,1,9,N","011265,1,N,1","+0070,1","+0030,1","99999,9","04,5,+00750,1,99,9",,,,"04,99,1,99,9,99,9,99999,9,99,9,99,9",,"10271,1,99999,9","61,1",,,"MET055METAR EGEO 090820Z 29012KT 9999 -RA SCT025 07/03 Q1027;",
"03114099999","2010-12-09T08:50:00","4","56.417","-5.467","4.0","OBAN, UK","FM-15","EGEO ","V020","270,1,N,0051,1","22000,1,9,N","011265,1,N,1","+0070,1","+0030,1","99999,9","04,5,+00660,1,99,9",,,,"04,99,1,99,9,99,9,99999,9,99,9,99,9",,"10271,1,99999,9",,,,"MET058METAR EGEO 090850Z 27010KT 9999 SCT022 07/03 Q1027 SNOCLO;",
"03114099999","2010-12-09T09:20:00","4","56.417","-5.467","4.0","OBAN, UK","FM-15","EGEO ","V020","270,1,N,0036,1","22000,1,9,N","007000,1,N,1","+0070,1","+0030,1","99999,9",,,,,,,"10271,1,99999,9","61,1",,,"MET055METAR EGEO 090920Z 27007KT 7000 -RA 07/03 Q1027 SNOCLO;",
"03114099999","2010-12-09T09:50:00","4","56.417","-5.467","4.0","OBAN, UK","FM-15","EGEO ","V020","280,1,N,0041,1","00540,1,C,N","011265,1,N,1","+0070,1","+0040,1","99999,9","07,5,+00540,1,99,9",,,,"07,99,1,99,9,99,9,99999,9,99,9,99,9",,"10271,1,99999,9","61,1",,,"MET055METAR EGEO 090950Z 28008KT 9999 -RA BKN018 07/04 Q1027;",
"03114099999","2010-12-09T10:20:00","4","56.417","-5.467","4.0","OBAN, UK","FM-15","EGEO ","V020","220,1,N,0031,1","99999,9,C,N","011265,1,N,1","+0070,1","+0040,1","99999,9","02,5,+00540,1,99,9","04,5,+00720,1,99,9",,,"04,99,1,99,9,99,9,99999,9,99,9,99,9",,"10271,1,99999,9",,,,"MET058METAR EGEO 091020Z 22006KT 9999 FEW018 SCT024 07/04 Q1027;","P01 007203SCOCIG"
"03114099999","2010-12-09T10:50:00","4","56.417","-5.467","4.0","OBAN, UK","FM-15","EGEO ","V020","230,1,N,0026,1","22000,1,9,N","011265,1,N,1","+0070,1","+0040,1","99999,9","04,5,+00540,1,99,9",,,,"04,99,1,99,9,99,9,99999,9,99,9,99,9",,"10271,1,99999,9","16,1",,,"MET056METAR EGEO 091050Z 23005KT 9999 VCSH SCT018 07/04 Q1027;",
"03114099999","2010-12-09T11:20:00","4","56.417","-5.467","4.0","OBAN, UK","FM-15","EGEO ","V020","250,1,N,0041,1","22000,1,9,N","011265,1,N,1","+0080,1","+0050,1","99999,9","04,5,+00420,1,99,9",,,,"04,99,1,99,9,99,9,99999,9,99,9,99,9",,"10271,1,99999,9",,,,"MET051METAR EGEO 091120Z 25008KT 9999 SCT014 08/05 Q1027;",
"03114099999","2010-12-09T11:50:00","4","56.417","-5.467","4.0","OBAN, UK","FM-15","EGEO ","V020","240,1,N,0036,1","22000,1,9,N","011265,1,N,1","+0080,1","+0050,1","99999,9","04,5,+00480,1,99,9",,,,"04,99,1,99,9,99,9,99999,9,99,9,99,9",,"10261,1,99999,9",,,,"MET051METAR EGEO 091150Z 24007KT 9999 SCT016 08/05 Q1026;",
"03114099999","2010-12-09T12:20:00","4","56.417","-5.467","4.0","OBAN, UK","FM-15","EGEO ","V020","260,1,N,0041,1","22000,1,9,N","011265,1,N,1","+0080,1","+0060,1","99999,9","04,5,+00420,1,99,9",,,,"04,99,1,99,9,99,9,99999,9,99,9,99,9",,"10261,1,99999,9","16,1",,,"MET056METAR EGEO 091220Z 26008KT 9999 VCSH SCT014 08/06 Q1026;",
"03114099999","2010-12-09T12:50:00","4","56.417","-5.467","4.0","OBAN, UK","FM-15","EGEO ","V020","260,1,N,0051,1","99999,9,C,N","011265,1,N,1","+0080,1","+0060,1","99999,9","02,5,+00480,1,99,9","04,5,+00600,1,99,9",,,"04,99,1,99,9,99,9,99999,9,99,9,99,9",,"10261,1,99999,9",,,,"MET058METAR EGEO 091250Z 26010KT 9999 FEW016 SCT020 08/06 Q1026;","P01 006003SCOCIG"
"03114099999","2010-12-09T13:20:00","4","56.417","-5.467","4.0","OBAN, UK","FM-15","EGEO ","V020","270,1,N,0051,1","22000,1,9,N","011265,1,N,1","+0080,1","+0060,1","99999,9","04,5,+00480,1,99,9",,,,"04,99,1,99,9,99,9,99999,9,99,9,99,9",,"10261,1,99999,9",,,,"MET051METAR EGEO 091320Z 27010KT 9999 SCT016 08/06 Q1026;",
"03114099999","2010-12-09T13:50:00","4","56.417","-5.467","4.0","OBAN, UK","FM-15","EGEO ","V020","260,1,N,0057,1","22000,1,9,N","011265,1,N,1","+0080,1","+0070,1","99999,9","04,5,+00540,1,99,9",,,,"04,99,1,99,9,99,9,99999,9,99,9,99,9",,"10261,1,99999,9","16,1",,,"MET056METAR EGEO 091350Z 26011KT 9999 VCSH SCT018 08/07 Q1026;",
"03114099999","2010-12-09T14:20:00","4","56.417","-5.467","4.0","OBAN, UK","FM-15","EGEO ","V020","270,1,N,0062,1","00660,1,C,N","011265,1,N,1","+0080,1","+0070,1","99999,9","04,5,+00450,1,99,9","07,5,+00660,1,99,9",,,"07,99,1,99,9,99,9,99999,9,99,9,99,9",,"10261,1,99999,9",,,,"MET058METAR EGEO 091420Z 27012KT 9999 SCT015 BKN022 08/07 Q1026;",
"03114099999","2010-12-09T14:50:00","4","56.417","-5.467","4.0","OBAN, UK","FM-15","EGEO ","V020","260,1,N,0067,1","00660,1,C,N","011265,1,N,1","+0090,1","+0070,1","99999,9","04,5,+00450,1,99,9","07,5,+00660,1,09,5",,,"07,99,1,99,9,99,9,99999,9,99,9,99,9",,"10261,1,99999,9","16,1",,,"MET065METAR EGEO 091450Z 26013KT 9999 VCSH SCT015 BKN022CB 09/07 Q1026;",
"03114099999","2010-12-09T15:20:00","4","56.417","-5.467","4.0","OBAN, UK","FM-15","EGEO ","V020","270,1,N,0057,1","00540,1,C,N","011265,1,N,1","+0090,1","+0060,1","99999,9","04,5,+00450,1,99,9","07,5,+00540,1,09,5",,,"07,99,1,99,9,99,9,99999,9,99,9,99,9",,"10261,1,99999,9",,,,"MET060METAR EGEO 091520Z 27011KT 9999 SCT015 BKN018CB 09/06 Q1026;",
"03114099999","2010-12-09T16:20:00","4","56.417","-5.467","4.0","OBAN, UK","FM-15","EGEO ","V020","290,1,N,0057,1","99999,9,C,N","011265,1,N,1","+0090,1","+0060,1","99999,9","02,5,+00420,1,99,9","04,5,+00540,1,99,9",,,"04,99,1,99,9,99,9,99999,9,99,9,99,9",,"10271,1,99999,9",,,,"MET058METAR EGEO 091620Z 29011KT 9999 FEW014 SCT018 09/06 Q1027;","P01 005403SCOCIG"
"03114099999","2010-12-09T16:50:00","4","56.417","-5.467","4.0","OBAN, UK","FM-15","EGEO ","V020","260,1,N,0036,1","22000,1,9,N","011265,1,N,1","+0090,1","+0060,1","99999,9","04,5,+00480,1,99,9",,,,"04,99,1,99,9,99,9,99999,9,99,9,99,9",,"10271,1,99999,9",,,,"MET051METAR EGEO 091650Z 26007KT 9999 SCT016 09/06 Q1027;",
"03114099999","2010-12-10T07:50:00","4","56.417","-5.467","4.0","OBAN, UK","FM-15","EGEO ","V020","280,1,N,0046,1","99999,9,C,N","011265,1,N,1","+0100,1","+0080,1","99999,9","02,5,+00360,1,99,9","04,5,+00660,1,99,9",,,"04,99,1,99,9,99,9,99999,9,99,9,99,9",,"10271,1,99999,9",,,,"MET058METAR EGEO 100750Z 28009KT 9999 FEW012 SCT022 10/08 Q1027;","P01 006603SCOCIG"
"03114099999","2010-12-10T08:20:00","4","56.417","-5.467","4.0","OBAN, UK","FM-15","EGEO ","V020","270,1,N,0057,1","99999,9,C,N","011265,1,N,1","+0100,1","+0080,1","99999,9","02,5,+00420,1,99,9","04,5,+00660,1,99,9","04,5,+00900,1,99,9",,"04,99,1,99,9,99,9,99999,9,99,9,99,9",,"10271,1,99999,9",,,,"MET065METAR EGEO 100820Z 27011KT 9999 FEW014 SCT022 SCT030 10/08 Q1027;","P01 006603SCOCIG"
"03114099999","2010-12-10T08:50:00","4","56.417","-5.467","4.0","OBAN, UK","FM-15","EGEO ","V020","270,1,N,0051,1","00600,1,C,N","011265,1,N,1","+0100,1","+0080,1","99999,9","02,5,+00360,1,99,9","04,5,+00600,1,99,9","07,5,+00750,1,99,9",,"07,99,1,99,9,99,9,99999,9,99,9,99,9",,"10281,1,99999,9",,,,"MET071METAR EGEO 100850Z 27010KT 9999 5000N FEW012 SCT020 BKN025 10/08 Q1028;",
"03114099999","2010-12-10T09:20:00","4","56.417","-5.467","4.0","OBAN, UK","FM-15","EGEO ","V020","280,1,N,0077,1","00450,1,C,N","011265,1,N,1","+0090,1","+0080,1","99999,9","02,5,+00300,1,99,9","07,5,+00450,1,99,9",,,"07,99,1,99,9,99,9,99999,9,99,9,99,9",,"10271,1,99999,9",,,,"MET058METAR EGEO 100920Z 28015KT 9999 FEW010 BKN015 09/08 Q1027;",
"03114099999","2010-12-10T09:50:00","4","56.417","-5.467","4.0","OBAN, UK","FM-15","EGEO ","V020","270,1,N,0046,1","00750,1,C,N","011265,1,N,1","+0090,1","+0080,1","99999,9","02,5,+00540,1,99,9","07,5,+00750,1,99,9",,,"07,99,1,99,9,99,9,99999,9,99,9,99,9",,"10281,1,99999,9",,,,"MET058METAR EGEO 100950Z 27009KT 9999 FEW018 BKN025 09/08 Q1028;",
"03114099999","2010-12-10T10:20:00","4","56.417","-5.467","4.0","OBAN, UK","FM-15","EGEO ","V020","260,1,N,0062,1","00450,1,C,N","011265,1,N,1","+0090,1","+0080,1","99999,9","02,5,+00300,1,99,9","04,5,+00450,1,99,9","07,5,+00750,1,99,9",,"07,99,1,99,9,99,9,99999,9,99,9,99,9",,"10281,1,99999,9",,,,"MET065METAR EGEO 101020Z 26012KT 9999 FEW010 SCT015 BKN025 09/08 Q1028;",
"03114099999","2010-12-10T10:50:00","4","56.417","-5.467","4.0","OBAN, UK","FM-15","EGEO ","V020","260,1,N,0062,1","99999,9,C,N","011265,1,N,1","+0090,1","+0080,1","99999,9","02,5,+00450,1,99,9","04,5,+00660,1,99,9",,,"04,99,1,99,9,99,9,99999,9,99,9,99,9",,"10281,1,99999,9",,,,"MET058METAR EGEO 101050Z 26012KT 9999 FEW015 SCT022 09/08 Q1028;","P01 006603SCOCIG"
"03114099999","2010-12-10T11:20:00","4","56.417","-5.467","4.0","OBAN, UK","FM-15","EGEO ","V020","260,1,N,0067,1","00720,1,C,N","011265,1,N,1","+0090,1","+0080,1","99999,9","04,5,+00450,1,99,9","07,5,+00720,1,99,9",,,"07,99,1,99,9,99,9,99999,9,99,9,99,9",,"10281,1,99999,9",,,,"MET058METAR EGEO 101120Z 26013KT 9999 SCT015 BKN024 09/08 Q1028;",
"03114099999","2010-12-10T11:50:00","4","56.417","-5.467","4.0","OBAN, UK","FM-15","EGEO ","V020","270,1,N,0072,1","00540,1,C,N","011265,1,N,1","+0100,1","+0080,1","99999,9","02,5,+00360,1,99,9","04,5,+00540,1,99,9","07,5,+00750,1,99,9",,"07,99,1,99,9,99,9,99999,9,99,9,99,9",,"10281,1,99999,9",,,,"MET065METAR EGEO 101150Z 27014KT 9999 FEW012 SCT018 BKN025 10/08 Q1028;",
"03114099999","2010-12-10T12:20:00","4","56.417","-5.467","4.0","OBAN, UK","FM-15","EGEO ","V020","270,1,N,0067,1","99999,9,C,N","011265,1,N,1","+0100,1","+0080,1","99999,9","02,5,+00450,1,99,9","04,5,+00660,1,99,9",,,"04,99,1,99,9,99,9,99999,9,99,9,99,9",,"10271,1,99999,9",,,,"MET058METAR EGEO 101220Z 27013KT 9999 FEW015 SCT022 10/08 Q1027;","P01 006603SCOCIG"
"03114099999","2010-12-10T12:50:00","4","56.417","-5.467","4.0","OBAN, UK","FM-15","EGEO ","V020","270,1,N,0072,1","99999,9,C,N","011265,1,N,1","+0100,1","+0080,1","99999,9","02,5,+00360,1,99,9","04,5,+00540,1,99,9",,,"04,99,1,99,9,99,9,99999,9,99,9,99,9",,"10281,1,99999,9",,,,"MET058METAR EGEO 101250Z 27014KT 9999 FEW012 SCT018 10/08 Q1028;","P01 005403SCOCIG"
"03114099999","2010-12-10T13:20:00","4","56.417","-5.467","4.0","OBAN, UK","FM-15","EGEO ","V020","270,1,N,0087,1","22000,1,9,N","011265,1,N,1","+0100,1","+0080,1","99999,9","04,5,+00450,1,99,9",,,,"04,99,1,99,9,99,9,99999,9,99,9,99,9",,"10271,1,99999,9","16,1",,,"MET062METAR EGEO 101320Z 27017KT 9999 6000N VCSH SCT015 10/08 Q1027;",
"03114099999","2010-12-10T13:50:00","4","56.417","-5.467","4.0","OBAN, UK","FM-15","EGEO ","V020","270,1,N,0062,1","99999,9,C,N","008000,1,N,1","+0090,1","+0080,1","99999,9","02,5,+00300,1,99,9","04,5,+00450,1,99,9",,,"04,99,1,99,9,99,9,99999,9,99,9,99,9",,"10271,1,99999,9","16,1",,,"MET063METAR EGEO 101350Z 27012KT 8000 VCSH FEW010 SCT015 09/08 Q1027;","P01 004503SCOCIG"
"03114099999","2010-12-10T14:20:00","4","56.417","-5.467","4.0","OBAN, UK","FM-15","EGEO ","V020","270,1,N,0072,1","00450,1,C,N","007000,1,N,1","+0090,1","+0080,1","99999,9","04,5,+00240,1,99,9","07,5,+00450,1,99,9",,,"07,99,1,99,9,99,9,99999,9,99,9,99,9",,"10271,1,99999,9","53,1",,,"MET061METAR EGEO 101420Z 27014KT 7000 DZ SCT008 BKN015 09/08 Q1027;",
"03114099999","2010-12-10T14:50:00","4","56.417","-5.467","4.0","OBAN, UK","FM-15","EGEO ","V020","270,1,N,0067,1","00450,1,C,N","005000,1,N,1","+0090,1","+0080,1","99999,9","04,5,+00150,1,99,9","07,5,+00450,1,99,9",,,"07,99,1,99,9,99,9,99999,9,99,9,99,9",,"10271,1,99999,9","53,1",,,"MET061METAR EGEO 101450Z 27013KT 5000 DZ SCT005 BKN015 09/08 Q1027;",
"03114099999","2010-12-10T15:20:00","4","56.417","-5.467","4.0","OBAN, UK","FM-15","EGEO ","V020","270,1,N,0072,1","99999,9,C,N","011265,1,N,1","+0090,1","+0080,1","99999,9","02,5,+00360,1,99,9","04,5,+00540,1,99,9",,,"04,99,1,99,9,99,9,99999,9,99,9,99,9",,"10271,1,99999,9",,,,"MET058METAR EGEO 101520Z 27014KT 9999 FEW012 SCT018 09/08 Q1027;","P01 005403SCOCIG"
"03114099999","2010-12-10T15:50:00","4","56.417","-5.467","4.0","OBAN, UK","FM-15","EGEO ","V020","260,1,N,0057,1","00540,1,C,N","006000,1,N,1","+0090,1","+0070,1","99999,9","04,5,+00150,1,99,9","07,5,+00540,1,99,9",,,"07,99,1,99,9,99,9,99999,9,99,9,99,9",,"10271,1,99999,9","53,1",,,"MET061METAR EGEO 101550Z 26011KT 6000 DZ SCT005 BKN018 09/07 Q1027;",
"03114099999","2010-12-10T16:20:00","4","56.417","-5.467","4.0","OBAN, UK","FM-15","EGEO ","V020","260,1,N,0062,1","00450,1,C,N","005000,1,N,1","+0090,1","+0070,1","99999,9","04,5,+00150,1,99,9","07,5,+00450,1,99,9",,,"07,99,1,99,9,99,9,99999,9,99,9,99,9",,"10271,1,99999,9","53,1",,,"MET061METAR EGEO 101620Z 26012KT 5000 DZ SCT005 BKN015 09/07 Q1027;",
"03114099999","2010-12-10T16:50:00","4","56.417","-5.467","4.0","OBAN, UK","FM-15","EGEO ","V020","270,1,N,0077,1","00450,1,C,N","005000,1,N,1","+0090,1","+0070,1","99999,9","04,5,+00150,1,99,9","07,5,+00450,1,99,9",,,"07,99,1,99,9,99,9,99999,9,99,9,99,9",,"10271,1,99999,9","53,1",,,"MET061METAR EGEO 101650Z 27015KT 5000 DZ SCT005 BKN015 09/07 Q1027;",
"03114099999","2010-12-11T07:50:00","4","56.417","-5.467","4.0","OBAN, UK","FM-15","EGEO ","V020","300,1,N,0093,1","22000,1,9,N","011265,1,N,1","+0090,1","+0050,1","99999,9","04,5,+00690,1,99,9",,,,"04,99,1,99,9,99,9,99999,9,99,9,99,9",,"10261,1,99999,9",,,,"MET051METAR EGEO 110750Z 30018KT 9999 SCT023 09/05 Q1026;",
"03114099999","2010-12-11T08:20:00","4","56.417","-5.467","4.0","OBAN, UK","FM-15","EGEO ","V020","300,1,N,0062,1","22000,1,9,N","011265,1,N,1","+0090,1","+0050,1","99999,9","04,5,+00600,1,99,9",,,,"04,99,1,99,9,99,9,99999,9,99,9,99,9",,"10261,1,99999,9",,,,"MET051METAR EGEO 110820Z 30012KT 9999 SCT020 09/05 Q1026;",
"03114099999","2010-12-11T08:50:00","4","56.417","-5.467","4.0","OBAN, UK","FM-15","EGEO ","V020","300,1,N,0072,1","22000,1,9,N","011265,1,N,1","+0090,1","+0060,1","99999,9","04,5,+00600,1,99,9",,,,"04,99,1,99,9,99,9,99999,9,99,9,99,9",,"10261,1,99999,9",,,,"MET051METAR EGEO 110850Z 30014KT 9999 SCT020 09/06 Q1026;",
"03114099999","2010-12-11T09:20:00","4","56.417","-5.467","4.0","OBAN, UK","FM-15","EGEO ","V020","300,1,N,0067,1","22000,1,9,N","011265,1,N,1","+0090,1","+0060,1","99999,9","04,5,+00600,1,99,9",,,,"04,99,1,99,9,99,9,99999,9,99,9,99,9",,"10261,1,99999,9",,,,"MET051METAR EGEO 110920Z 30013KT 9999 SCT020 09/06 Q1026;",
"03114099999","2010-12-11T09:50:00","4","56.417","-5.467","4.0","OBAN, UK","FM-15","EGEO ","V020","310,1,N,0077,1","22000,1,9,N","011265,1,N,1","+0100,1","+0060,1","99999,9","04,5,+00600,1,99,9",,,,"04,99,1,99,9,99,9,99999,9,99,9,99,9",,"10261,1,99999,9",,,,"MET051METAR EGEO 110950Z 31015KT 9999 SCT020 10/06 Q1026;",
"03114099999","2010-12-11T10:20:00","4","56.417","-5.467","4.0","OBAN, UK","FM-15","EGEO ","V020","310,1,N,0082,1","22000,1,9,N","011265,1,N,1","+0100,1","+0050,1","99999,9","04,5,+00600,1,99,9",,,,"04,99,1,99,9,99,9,99999,9,99,9,99,9",,"10261,1,99999,9",,,,"MET051METAR EGEO 111020Z 31016KT 9999 SCT020 10/05 Q1026;",
"03114099999","2010-12-11T10:50:00","4","56.417","-5.467","4.0","OBAN, UK","FM-15","EGEO ","V020","300,1,N,0067,1","99999,9,C,N","011265,1,N,1","+0090,1","+0060,1","99999,9","02,5,+00360,1,99,9","04,5,+00600,1,99,9",,,"04,99,1,99,9,99,9,99999,9,99,9,99,9",,"10261,1,99999,9",,,,"MET058METAR EGEO 111050Z 30013KT 9999 FEW012 SCT020 09/06 Q1026;","P01 006003SCOCIG"
"03114099999","2010-12-11T11:20:00","4","56.417","-5.467","4.0","OBAN, UK","FM-15","EGEO ","V020","320,1,N,0072,1","99999,9,C,N","011265,1,N,1","+0100,1","+0050,1","99999,9","02,5,+00420,1,99,9","04,5,+00540,1,99,9",,,"04,99,1,99,9,99,9,99999,9,99,9,99,9",,"10261,1,99999,9",,,,"MET058METAR EGEO 111120Z 32014KT 9999 FEW014 SCT018 10/05 Q1026;","P01 005403SCOCIG"
"03114099999","2010-12-11T11:50:00","4","56.417","-5.467","4.0","OBAN, UK","FM-15","EGEO ","V020","300,1,N,0067,1","22000,1,9,N","011265,1,N,1","+0100,1","+0050,1","99999,9","04,5,+00600,1,99,9",,,,"04,99,1,99,9,99,9,99999,9,99,9,99,9",,"10261,1,99999,9",,,,"MET051METAR EGEO 111150Z 30013KT 9999 SCT020 10/05 Q1026;",
"03114099999","2010-12-11T12:20:00","4","56.417","-5.467","4.0","OBAN, UK","FM-15","EGEO ","V020","300,1,N,0077,1","22000,1,9,N","011265,1,N,1","+0100,1","+0060,1","99999,9","04,5,+00540,1,99,9",,,,"04,99,1,99,9,99,9,99999,9,99,9,99,9",,"10261,1,99999,9",,,,"MET051METAR EGEO 111220Z 30015KT 9999 SCT018 10/06 Q1026;",
"03114099999","2010-12-11T12:50:00","4","56.417","-5.467","4.0","OBAN, UK","FM-15","EGEO ","V020","300,1,N,0067,1","22000,1,9,N","011265,1,N,1","+0100,1","+0050,1","99999,9","04,5,+00600,1,99,9",,,,"04,99,1,99,9,99,9,99999,9,99,9,99,9",,"10261,1,99999,9",,,,"MET051METAR EGEO 111250Z 30013KT 9999 SCT020 10/05 Q1026;",
"03114099999","2010-12-11T13:20:00","4","56.417","-5.467","4.0","OBAN, UK","FM-15","EGEO ","V020","300,1,N,0067,1","22000,1,9,N","011265,1,N,1","+0100,1","+0050,1","99999,9","04,5,+00600,1,99,9",,,,"04,99,1,99,9,99,9,99999,9,99,9,99,9",,"10261,1,99999,9",,,,"MET051METAR EGEO 111320Z 30013KT 9999 SCT020 10/05 Q1026;",
"03114099999","2010-12-11T13:50:00","4","56.417","-5.467","4.0","OBAN, UK","FM-15","EGEO ","V020","310,1,N,0077,1","22000,1,9,N","011265,1,N,1","+0090,1","+0050,1","99999,9","04,5,+00600,1,99,9",,,,"04,99,1,99,9,99,9,99999,9,99,9,99,9",,"10261,1,99999,9",,,,"MET051METAR EGEO 111350Z 31015KT 9999 SCT020 09/05 Q1026;",
"03114099999","2010-12-11T14:20:00","4","56.417","-5.467","4.0","OBAN, UK","FM-15","EGEO ","V020","310,1,N,0108,1","22000,1,9,N","011265,1,N,1","+0100,1","+0050,1","99999,9","04,5,+00600,1,99,9",,,,"04,99,1,99,9,99,9,99999,9,99,9,99,9",,"10251,1,99999,9",,,,"MET051METAR EGEO 111420Z 31021KT 9999 SCT020 10/05 Q1025;",
"03114099999","2010-12-11T14:50:00","4","56.417","-5.467","4.0","OBAN, UK","FM-15","EGEO ","V020","290,1,N,0098,1","22000,1,9,N","011265,1,N,1","+0100,1","+0040,1","99999,9","04,5,+00600,1,99,9",,,,"04,99,1,99,9,99,9,99999,9,99,9,99,9",,"10251,1,99999,9",,,,"MET051METAR EGEO 111450Z 29019KT 9999 SCT020 10/04 Q1025;",
"03114099999","2010-12-11T15:20:00","4","56.417","-5.467","4.0","OBAN, UK","FM-15","EGEO ","V020","310,1,N,0067,1","22000,1,9,N","011265,1,N,1","+0090,1","+0050,1","99999,9","04,5,+00600,1,99,9",,,,"04,99,1,99,9,99,9,99999,9,99,9,99,9",,"10251,1,99999,9",,,,"MET051METAR EGEO 111520Z 31013KT 9999 SCT020 09/05 Q1025;",
"03114099999","2010-12-11T15:50:00","4","56.417","-5.467","4.0","OBAN, UK","FM-15","EGEO ","V020","310,1,N,0041,1","22000,1,9,N","011265,1,N,1","+0090,1","+0040,1","99999,9","04,5,+00660,1,99,9",,,,"04,99,1,99,9,99,9,99999,9,99,9,99,9",,"10251,1,99999,9",,,,"MET051METAR EGEO 111550Z 31008KT 9999 SCT022 09/04 Q1025;",
"03114099999","2010-12-11T16:20:00","4","56.417","-5.467","4.0","OBAN, UK","FM-15","EGEO ","V020","310,1,N,0046,1","22000,1,9,N","011265,1,N,1","+0100,1","+0040,1","99999,9","04,5,+00750,1,99,9",,,,"04,99,1,99,9,99,9,99999,9,99,9,99,9",,"10251,1,99999,9",,,,"MET051METAR EGEO 111620Z 31009KT 9999 SCT025 10/04 Q1025;",
"03114099999","2010-12-11T16:50:00","4","56.417","-5.467","4.0","OBAN, UK","FM-15","EGEO ","V020","320,1,N,0021,1","22000,1,9,N","011265,1,N,1","+0090,1","+0040,1","99999,9","04,5,+00750,1,99,9",,,,"04,99,1,99,9,99,9,99999,9,99,9,99,9",,"10251,1,99999,9",,,,"MET051METAR EGEO 111650Z 32004KT 9999 SCT025 09/04 Q1025;",
"03114099999","2010-12-12T07:50:00","4","56.417","-5.467","4.0","OBAN, UK","FM-15","EGEO ","V020","999,9,V,0015,1","99999,9,9,Y","009900,1,N,1","-0010,1","-0020,1","99999,9",,,,,,,"10271,1,99999,9",,,,"MET064METAR EGEO 120750Z VRB03KT 340V090 CAVOK M01/M02 Q1027 88390091;",
"03114099999","2010-12-12T08:20:00","4","56.417","-5.467","4.0","OBAN, UK","FM-15","EGEO ","V020","150,1,N,0010,1","99999,9,9,Y","009900,1,N,1","-0010,1","-0020,1","99999,9",,,,,,,"10281,1,99999,9",,,,"MET056METAR EGEO 120820Z 15002KT CAVOK M01/M02 Q1028 88390091;",
"03114099999","2010-12-12T08:50:00","4","56.417","-5.467","4.0","OBAN, UK","FM-15","EGEO ","V020","100,1,N,0021,1","99999,9,9,Y","009900,1,N,1","-0010,1","-0020,1","99999,9",,,,,,,"10281,1,99999,9",,,,"MET056METAR EGEO 120850Z 10004KT CAVOK M01/M02 Q1028 88390091;",
"03114099999","2010-12-12T09:20:00","4","56.417","-5.467","4.0","OBAN, UK","FM-15","EGEO ","V020","100,1,N,0026,1","99999,9,9,Y","009900,1,N,1","+0000,1","-0010,1","99999,9",,,,,,,"10281,1,99999,9",,,,"MET056METAR EGEO 120920Z 10005KT CAVOK M00/M01 Q1028 88390091;",
"03114099999","2010-12-12T09:50:00","4","56.417","-5.467","4.0","OBAN, UK","FM-15","EGEO ","V020","999,9,V,0005,1","99999,9,9,Y","009900,1,N,1","+0000,1","-0010,1","99999,9",,,,,,,"10281,1,99999,9",,,,"MET064METAR EGEO 120950Z VRB01KT 060V160 CAVOK M00/M01 Q1028 88390099;",
"03114099999","2010-12-12T10:20:00","4","56.417","-5.467","4.0","OBAN, UK","FM-15","EGEO ","V020","090,1,N,0031,1","99999,9,9,Y","009900,1,N,1","+0000,1","-0010,1","99999,9",,,,,,,"10281,1,99999,9",,,,"MET055METAR EGEO 121020Z 09006KT CAVOK 00/M01 Q1028 88390091;",
"03114099999","2010-12-12T10:50:00","4","56.417","-5.467","4.0","OBAN, UK","FM-15","EGEO ","V020","160,1,N,0010,1","99999,9,9,Y","009900,1,N,1","+0010,1","+0000,1","99999,9",,,,,,,"10281,1,99999,9",,,,"MET055METAR EGEO 121050Z 16002KT CAVOK 01/M00 Q1028 88390091;",
"03114099999","2010-12-12T11:20:00","4","56.417","-5.467","4.0","OBAN, UK","FM-15","EGEO ","V020","100,1,N,0010,1","99999,9,9,Y","009900,1,N,1","+0020,1","+0000,1","99999,9",,,,,,,"10281,1,99999,9",,,,"MET054METAR EGEO 121120Z 10002KT CAVOK 02/00 Q1028 88390091;",
"03114099999","2010-12-12T11:50:00","4","56.417","-5.467","4.0","OBAN, UK","FM-15","EGEO ","V020","150,1,N,0015,1","99999,9,9,Y","009900,1,N,1","+0020,1","+0000,1","99999,9",,,,,,,"10281,1,99999,9",,,,"MET055METAR EGEO 121150Z 15003KT CAVOK 02/M00 Q1028 88390091;",
"03114099999","2010-12-12T12:20:00","4","56.417","-5.467","4.0","OBAN, UK","FM-15","EGEO ","V020","110,1,N,0015,1","99999,9,9,Y","009900,1,N,1","+0020,1","+0000,1","99999,9",,,,,,,"10281,1,99999,9",,,,"MET054METAR EGEO 121220Z 11003KT CAVOK 02/00 Q1028 883900//;",
"03114099999","2010-12-12T12:50:00","4","56.417","-5.467","4.0","OBAN, UK","FM-15","EGEO ","V020","110,1,N,0021,1","99999,9,9,Y","009900,1,N,1","+0030,1","+0000,1","99999,9",,,,,,,"10281,1,99999,9",,,,"MET054METAR EGEO 121250Z 11004KT CAVOK 03/00 Q1028 883900//;",
"03114099999","2010-12-12T13:20:00","4","56.417","-5.467","4.0","OBAN, UK","FM-15","EGEO ","V020","999,9,V,0015,1","99999,9,9,Y","009900,1,N,1","+0030,1","+0000,1","99999,9",,,,,,,"10281,1,99999,9",,,,"MET054METAR EGEO 121320Z VRB03KT CAVOK 03/00 Q1028 88CLRD99;",
"03114099999","2010-12-12T13:50:00","4","56.417","-5.467","4.0","OBAN, UK","FM-15","EGEO ","V020","999,9,V,0010,1","99999,9,9,Y","009900,1,N,1","+0040,1","+0010,1","99999,9",,,,,,,"10281,1,99999,9",,,,"MET045METAR EGEO 121350Z VRB02KT CAVOK 04/01 Q1028;",
"03114099999","2010-12-12T14:20:00","4","56.417","-5.467","4.0","OBAN, UK","FM-15","EGEO ","V020","999,9,V,0015,1","99999,9,9,Y","009900,1,N,1","+0040,1","+0010,1","99999,9",,,,,,,"10281,1,99999,9",,,,"MET045METAR EGEO 121420Z VRB03KT CAVOK 04/01 Q1028;",
"03114099999","2010-12-12T14:50:00","4","56.417","-5.467","4.0","OBAN, UK","FM-15","EGEO ","V020","999,9,V,0015,1","99999,9,9,Y","009900,1,N,1","+0040,1","+0010,1","99999,9",,,,,,,"10281,1,99999,9",,,,"MET045METAR EGEO 121450Z VRB03KT CAVOK 04/01 Q1028;",
"03114099999","2010-12-12T15:20:00","4","56.417","-5.467","4.0","OBAN, UK","FM-15","EGEO ","V020","999,9,V,0010,1","99999,9,9,Y","009900,1,N,1","+0030,1","+0000,1","99999,9",,,,,,,"10281,1,99999,9",,,,"MET045METAR EGEO 121520Z VRB02KT CAVOK 03/00 Q1028;",
"03114099999","2010-12-12T15:50:00","4","56.417","-5.467","4.0","OBAN, UK","FM-15","EGEO ","V020","999,9,V,0015,1","99999,9,9,Y","009900,1,N,1","+0020,1","+0000,1","99999,9",,,,,,,"10281,1,99999,9",,,,"MET045METAR EGEO 121550Z VRB03KT CAVOK 02/00 Q1028;",
"03114099999","2010-12-12T16:20:00","4","56.417","-5.467","4.0","OBAN, UK","FM-15","EGEO ","V020","100,1,N,0015,1","99999,9,9,Y","009900,1,N,1","+0020,1","+0000,1","99999,9",,,,,,,"10281,1,99999,9",,,,"MET045METAR EGEO 121620Z 10003KT CAVOK 02/00 Q1028;",
"03114099999","2010-12-12T16:50:00","4","56.417","-5.467","4.0","OBAN, UK","FM-15","EGEO ","V020","090,1,N,0021,1","99999,9,9,Y","009900,1,N,1","+0010,1","+0000,1","99999,9",,,,,,,"10281,1,99999,9",,,,"MET046METAR EGEO 121650Z 09004KT CAVOK 01/M00 Q1028;",
"03114099999","2010-12-13T07:50:00","4","56.417","-5.467","4.0","OBAN, UK","FM-15","EGEO ","V020","090,1,N,0026,1","22000,1,9,N","011265,1,N,1","-0010,1","-0030,1","99999,9","02,5,+00240,1,99,9",,,,"02,99,1,99,9,99,9,99999,9,99,9,99,9",,"10301,1,99999,9",,,,"MET062METAR EGEO 130750Z 09005KT 9999 FEW008 M01/M03 Q1030 883901//;",
"03114099999","2010-12-13T08:20:00","4","56.417","-5.467","4.0","OBAN, UK","FM-15","EGEO ","V020","090,1,N,0026,1","22000,1,9,N","011265,1,N,1","-0020,1","-0030,1","99999,9","02,5,+00300,1,99,9",,,,"02,99,1,99,9,99,9,99999,9,99,9,99,9",,"10301,1,99999,9",,,,"MET062METAR EGEO 130820Z 09005KT 9999 FEW010 M02/M03 Q1030 883901//;",
"03114099999","2010-12-13T08:50:00","4","56.417","-5.467","4.0","OBAN, UK","FM-15","EGEO ","V020","080,1,N,0026,1","22000,1,9,N","011265,1,N,1","-0020,1","-0030,1","99999,9","02,5,+00300,1,99,9",,,,"02,99,1,99,9,99,9,99999,9,99,9,99,9",,"10301,1,99999,9",,,,"MET053METAR EGEO 130850Z 08005KT 9999 FEW010 M02/M03 Q1030;",
"03114099999","2010-12-13T09:20:00","4","56.417","-5.467","4.0","OBAN, UK","FM-15","EGEO ","V020","080,1,N,0021,1","22000,1,9,N","011265,1,N,1","-0020,1","-0030,1","99999,9","02,5,+00300,1,99,9",,,,"02,99,1,99,9,99,9,99999,9,99,9,99,9",,"10301,1,99999,9",,,,"MET062METAR EGEO 130920Z 08004KT 9999 FEW010 M02/M03 Q1030 88390191;",
"03114099999","2010-12-13T09:50:00","4","56.417","-5.467","4.0","OBAN, UK","FM-15","EGEO ","V020","080,1,N,0026,1","22000,1,9,N","011265,1,N,1","-0010,1","-0030,1","99999,9","02,5,+00240,1,99,9",,,,"02,99,1,99,9,99,9,99999,9,99,9,99,9",,"10301,1,99999,9",,,,"MET062METAR EGEO 130950Z 08005KT 9999 FEW008 M01/M03 Q1030 88390191;",
"03114099999","2010-12-13T10:20:00","4","56.417","-5.467","4.0","OBAN, UK","FM-15","EGEO ","V020","080,1,N,0031,1","22000,1,9,N","011265,1,N,1","-0010,1","-0030,1","99999,9","02,5,+00240,1,99,9",,,,"02,99,1,99,9,99,9,99999,9,99,9,99,9",,"10312,1,99999,9",,,,"MET062METAR EGEO 131020Z 08006KT 9999 FEW008 M01/M03 Q1031 88390191;",
"03114099999","2010-12-13T10:50:00","4","56.417","-5.467","4.0","OBAN, UK","FM-15","EGEO ","V020","080,1,N,0026,1","22000,1,9,N","011265,1,N,1","-0010,1","-0020,1","99999,9","02,5,+00240,1,99,9",,,,"02,99,1,99,9,99,9,99999,9,99,9,99,9",,"10312,1,99999,9",,,,"MET062METAR EGEO 131050Z 08005KT 9999 FEW008 M01/M02 Q1031 88390191;",
"03114099999","2010-12-13T11:20:00","4","56.417","-5.467","4.0","OBAN, UK","FM-15","EGEO ","V020","090,1,N,0026,1","22000,1,9,N","011265,1,N,1","+0000,1","-0020,1","99999,9","02,5,+00300,1,99,9",,,,"02,99,1,99,9,99,9,99999,9,99,9,99,9",,"10312,1,99999,9",,,,"MET062METAR EGEO 131120Z 09005KT 9999 FEW010 M00/M02 Q1031 88390191;",
"03114099999","2010-12-13T11:50:00","4","56.417","-5.467","4.0","OBAN, UK","FM-15","EGEO ","V020","090,1,N,0021,1","22000,1,9,N","011265,1,N,1","+0000,1","-0020,1","99999,9","02,5,+00300,1,99,9",,,,"02,99,1,99,9,99,9,99999,9,99,9,99,9",,"10312,1,99999,9",,,,"MET061METAR EGEO 131150Z 09004KT 9999 FEW010 00/M02 Q1031 88390191;",
"03114099999","2010-12-13T12:20:00","4","56.417","-5.467","4.0","OBAN, UK","FM-15","EGEO ","V020","080,1,N,0026,1","22000,1,9,N","011265,1,N,1","+0010,1","-0010,1","99999,9","02,5,+00300,1,99,9",,,,"02,99,1,99,9,99,9,99999,9,99,9,99,9",,"10312,1,99999,9",,,,"MET061METAR EGEO 131220Z 08005KT 9999 FEW010 01/M01 Q1031 88390191;",
"03114099999","2010-12-13T12:50:00","4","56.417","-5.467","4.0","OBAN, UK","FM-15","EGEO ","V020","080,1,N,0026,1","22000,1,9,N","011265,1,N,1","+0010,1","-0010,1","99999,9","02,5,+00300,1,99,9",,,,"02,99,1,99,9,99,9,99999,9,99,9,99,9",,"10312,1,99999,9",,,,"MET061METAR EGEO 131250Z 08005KT 9999 FEW010 01/M01 Q1031 88390191;",
"03114099999","2010-12-13T13:20:00","4","56.417","-5.467","4.0","OBAN, UK","FM-15","EGEO ","V020","080,1,N,0026,1","22000,1,9,N","011265,1,N,1","+0010,1","-0010,1","99999,9","02,5,+00450,1,99,9",,,,"02,99,1,99,9,99,9,99999,9,99,9,99,9",,"10312,1,99999,9",,,,"MET061METAR EGEO 131320Z 08005KT 9999 FEW015 01/M01 Q1031 88390191;",
"03114099999","2010-12-13T13:50:00","4","56.417","-5.467","4.0","OBAN, UK","FM-15","EGEO ","V020","090,1,N,0021,1","22000,1,9,N","011265,1,N,1","+0020,1","-0010,1","99999,9","02,5,+00420,1,99,9",,,,"02,99,1,99,9,99,9,99999,9,99,9,99,9",,"10312,1,99999,9",,,,"MET061METAR EGEO 131350Z 09004KT 9999 FEW014 02/M01 Q1031 88390191;",
"03114099999","2010-12-13T14:20:00","4","56.417","-5.467","4.0","OBAN, UK","FM-15","EGEO ","V020","090,1,N,0021,1","22000,1,9,N","011265,1,N,1","+0020,1","-0010,1","99999,9","02,5,+00720,1,99,9",,,,"02,99,1,99,9,99,9,99999,9,99,9,99,9",,"10312,1,99999,9",,,,"MET061METAR EGEO 131420Z 09004KT 9999 FEW024 02/M01 Q1031 88350191;",
"03114099999","2010-12-13T14:50:00","4","56.417","-5.467","4.0","OBAN, UK","FM-15","EGEO ","V020","090,1,N,0026,1","22000,1,9,N","011265,1,N,1","+0020,1","-0010,1","99999,9","02,5,+00600,1,99,9",,,,"02,99,1,99,9,99,9,99999,9,99,9,99,9",,"10312,1,99999,9",,,,"MET061METAR EGEO 131450Z 09005KT 9999 FEW020 02/M01 Q1031 88350191;",
"03114099999","2010-12-13T15:20:00","4","56.417","-5.467","4.0","OBAN, UK","FM-15","EGEO ","V020","090,1,N,0015,1","22000,1,9,N","011265,1,N,1","+0010,1","-0010,1","99999,9","02,5,+00420,1,99,9",,,,"02,99,1,99,9,99,9,99999,9,99,9,99,9",,"10312,1,99999,9",,,,"MET061METAR EGEO 131520Z 09003KT 9999 FEW014 01/M01 Q1031 88350191;",
"03114099999","2010-12-13T15:50:00","4","56.417","-5.467","4.0","OBAN, UK","FM-15","EGEO ","V020","080,1,N,0021,1","22000,1,9,N","011265,1,N,1","+0010,1","-0020,1","99999,9","02,5,+00420,1,99,9",,,,"02,99,1,99,9,99,9,99999,9,99,9,99,9",,"10312,1,99999,9",,,,"MET061METAR EGEO 131550Z 08004KT 9999 FEW014 01/M02 Q1031 88350191;",
"03114099999","2010-12-13T16:20:00","4","56.417","-5.467","4.0","OBAN, UK","FM-15","EGEO ","V020","090,1,N,0021,1","22000,1,9,N","011265,1,N,1","+0000,1","-0020,1","99999,9","02,5,+00540,1,99,9",,,,"02,99,1,99,9,99,9,99999,9,99,9,99,9",,"10312,1,99999,9",,,,"MET061METAR EGEO 131620Z 09004KT 9999 FEW018 00/M02 Q1031 88350191;",
"03114099999","2010-12-13T16:50:00","4","56.417","-5.467","4.0","OBAN, UK","FM-15","EGEO ","V020","090,1,N,0021,1","22000,1,9,N","011265,1,N,1","+0000,1","-0020,1","99999,9","02,5,+00600,1,99,9",,,,"02,99,1,99,9,99,9,99999,9,99,9,99,9",,"10312,1,99999,9",,,,"MET061METAR EGEO 131650Z 09004KT 9999 FEW020 00/M02 Q1031 88350191;",
"03114099999","2010-12-14T07:50:00","4","56.417","-5.467","4.0","OBAN, UK","FM-15","EGEO ","V020","140,1,N,0005,1","22000,1,9,N","011265,1,N,1","-0020,1","-0030,1","99999,9","02,5,+00360,1,99,9",,,,"02,99,1,99,9,99,9,99999,9,99,9,99,9",,"10359,1,99999,9",,,,"MET062METAR EGEO 140750Z 14001KT 9999 FEW012 M02/M03 Q1036 88390291;",
"03114099999","2010-12-14T08:20:00","4","56.417","-5.467","4.0","OBAN, UK","FM-15","EGEO ","V020","130,1,N,0010,1","22000,1,9,N","011265,1,N,1","-0030,1","-0040,1","99999,9","02,5,+00360,1,99,9",,,,"02,99,1,99,9,99,9,99999,9,99,9,99,9",,"10369,1,99999,9",,,,"MET062METAR EGEO 140820Z 13002KT 9999 FEW012 M03/M04 Q1037 88390291;",
"03114099999","2010-12-14T08:50:00","4","56.417","-5.467","4.0","OBAN, UK","FM-15","EGEO ","V020","120,1,N,0015,1","22000,1,9,N","011265,1,N,1","-0020,1","-0030,1","99999,9","02,5,+00360,1,99,9",,,,"02,99,1,99,9,99,9,99999,9,99,9,99,9",,"10369,1,99999,9",,,,"MET062METAR EGEO 140850Z 12003KT 9999 FEW012 M02/M03 Q1037 88390291;",
"03114099999","2010-12-14T09:20:00","4","56.417","-5.467","4.0","OBAN, UK","FM-15","EGEO ","V020","120,1,N,0010,1","22000,1,9,N","011265,1,N,1","-0020,1","-0030,1","99999,9","02,5,+00300,1,99,9",,,,"02,99,1,99,9,99,9,99999,9,99,9,99,9",,"10369,1,99999,9",,,,"MET062METAR EGEO 140920Z 12002KT 9999 FEW010 M02/M03 Q1037 88390291;",
"03114099999","2010-12-14T09:50:00","4","56.417","-5.467","4.0","OBAN, UK","FM-15","EGEO ","V020","100,1,N,0015,1","22000,1,9,N","011265,1,N,1","-0020,1","-0030,1","99999,9","02,5,+00360,1,99,9",,,,"02,99,1,99,9,99,9,99999,9,99,9,99,9",,"10379,1,99999,9",,,,"MET062METAR EGEO 140950Z 10003KT 9999 FEW012 M02/M03 Q1038 88390291;",
"03114099999","2010-12-14T10:20:00","4","56.417","-5.467","4.0","OBAN, UK","FM-15","EGEO ","V020","100,1,N,0015,1","22000,1,9,N","011265,1,N,1","-0020,1","-0030,1","99999,9","02,5,+00600,1,99,9",,,,"02,99,1,99,9,99,9,99999,9,99,9,99,9",,"10379,1,99999,9",,,,"MET062METAR EGEO 141020Z 10003KT 9999 FEW020 M02/M03 Q1038 88390291;",
"03114099999","2010-12-14T10:50:00","4","56.417","-5.467","4.0","OBAN, UK","FM-15","EGEO ","V020","100,1,N,0010,1","22000,1,9,N","011265,1,N,1","-0010,1","-0020,1","99999,9","02,5,+00900,1,99,9",,,,"02,99,1,99,9,99,9,99999,9,99,9,99,9",,"10379,1,99999,9",,,,"MET062METAR EGEO 141050Z 10002KT 9999 FEW030 M01/M02 Q1038 88390291;",
"03114099999","2010-12-14T11:20:00","4","56.417","-5.467","4.0","OBAN, UK","FM-15","EGEO ","V020","130,1,N,0005,1","22000,1,9,N","011265,1,N,1","+0010,1","+0000,1","99999,9","02,5,+00600,1,99,9",,,,"02,99,1,99,9,99,9,99999,9,99,9,99,9",,"10379,1,99999,9",,,,"MET061METAR EGEO 141120Z 13001KT 9999 FEW020 01/M00 Q1038 88390291;",
"03114099999","2010-12-14T11:50:00","4","56.417","-5.467","4.0","OBAN, UK","FM-15","EGEO ","V020","100,1,N,0010,1","22000,1,9,N","011265,1,N,1","+0010,1","+0000,1","99999,9","02,5,+00600,1,99,9",,,,"02,99,1,99,9,99,9,99999,9,99,9,99,9",,"10379,1,99999,9",,,,"MET061METAR EGEO 141150Z 10002KT 9999 FEW020 01/M00 Q1038 88390291;",
"03114099999","2010-12-14T12:20:00","4","56.417","-5.467","4.0","OBAN, UK","FM-15","EGEO ","V020","100,1,N,0015,1","22000,1,9,N","011265,1,N,1","+0010,1","+0000,1","99999,9","02,5,+00480,1,99,9",,,,"02,99,1,99,9,99,9,99999,9,99,9,99,9",,"10379,1,99999,9",,,,"MET061METAR EGEO 141220Z 10003KT 9999 FEW016 01/M00 Q1038 88390291;",
"03114099999","2010-12-14T12:50:00","4","56.417","-5.467","4.0","OBAN, UK","FM-15","EGEO ","V020","090,1,N,0010,1","22000,1,9,N","011265,1,N,1","+0020,1","+0000,1","99999,9","02,5,+00420,1,99,9",,,,"02,99,1,99,9,99,9,99999,9,99,9,99,9",,"10379,1,99999,9",,,,"MET060METAR EGEO 141250Z 09002KT 9999 FEW014 02/00 Q1038 88390291;",
"03114099999","2010-12-14T13:20:00","4","56.417","-5.467","4.0","OBAN, UK","FM-15","EGEO ","V020","999,9,C,0000,1","22000,1,9,N","999999,9,N,1","+0030,1","+0010,1","99999,9","02,5,+00420,1,99,9",,,,"02,99,1,99,9,99,9,99999,9,99,9,99,9",,"10380,1,99999,9",,,,"MET055METAR EGEO 141320Z 00000KT FEW014 03/01 Q1038 88390291;",
"03114099999","2010-12-14T13:50:00","4","56.417","-5.467","4.0","OBAN, UK","FM-15","EGEO ","V020","999,9,C,0000,1","22000,1,9,N","011265,1,N,1","+0030,1","+0010,1","99999,9","02,5,+00420,1,99,9",,,,"02,99,1,99,9,99,9,99999,9,99,9,99,9",,"10379,1,99999,9",,,,"MET060METAR EGEO 141350Z 00000KT 9999 FEW014 03/01 Q1038 88390291;",
"03114099999","2010-12-14T14:20:00","4","56.417","-5.467","4.0","OBAN, UK","FM-15","EGEO ","V020","080,1,N,0005,1","99999,9,C,N","011265,1,N,1","+0030,1","+0010,1","99999,9","02,5,+00540,1,99,9","04,5,+00750,1,99,9",,,"04,99,1,99,9,99,9,99999,9,99,9,99,9",,"10389,1,99999,9",,,,"MET067METAR EGEO 141420Z 08001KT 9999 FEW018 SCT025 03/01 Q1039 88390291;","P01 007503SCOCIG"
"03114099999","2010-12-14T14:50:00","4","56.417","-5.467","4.0","OBAN, UK","FM-15","EGEO ","V020","999,9,C,0000,1","99999,9,C,N","011265,1,N,1","+0030,1","+0010,1","99999,9","02,5,+00600,1,99,9","04,5,+00720,1,99,9",,,"04,99,1,99,9,99,9,99999,9,99,9,99,9",,"10389,1,99999,9",,,,"MET067METAR EGEO 141450Z 00000KT 9999 FEW020 SCT024 03/01 Q1039 88390291;","P01 007203SCOCIG"
"03114099999","2010-12-14T15:20:00","4","56.417","-5.467","4.0","OBAN, UK","FM-15","EGEO ","V020","090,1,N,0015,1","99999,9,C,N","011265,1,N,1","+0020,1","+0010,1","99999,9","02,5,+00540,1,99,9","04,5,+00660,1,99,9",,,"04,99,1,99,9,99,9,99999,9,99,9,99,9",,"10389,1,99999,9",,,,"MET067METAR EGEO 141520Z 09003KT 9999 FEW018 SCT022 02/01 Q1039 88390291;","P01 006603SCOCIG"
"03114099999","2010-12-14T15:50:00","4","56.417","-5.467","4.0","OBAN, UK","FM-15","EGEO ","V020","120,1,N,0010,1","99999,9,C,N","011265,1,N,1","+0020,1","+0010,1","99999,9","02,5,+00540,1,99,9","04,5,+00660,1,99,9",,,"04,99,1,99,9,99,9,99999,9,99,9,99,9",,"10389,1,99999,9",,,,"MET067METAR EGEO 141550Z 12002KT 9999 FEW018 SCT022 02/01 Q1039 88390291;","P01 006603SCOCIG"
"03114099999","2010-12-14T16:20:00","4","56.417","-5.467","4.0","OBAN, UK","FM-15","EGEO ","V020","090,1,N,0026,1","99999,9,C,N","011265,1,N,1","+0020,1","+0010,1","99999,9","02,5,+00450,1,99,9","04,5,+00600,1,99,9",,,"04,99,1,99,9,99,9,99999,9,99,9,99,9",,"10389,1,99999,9",,,,"MET067METAR EGEO 141620Z 09005KT 9999 FEW015 SCT020 02/01 Q1039 88390291;","P01 006003SCOCIG"
"03114099999","2010-12-14T16:50:00","4","56.417","-5.467","4.0","OBAN, UK","FM-15","EGEO ","V020","100,1,N,0021,1","22000,1,9,N","011265,1,N,1","+0020,1","+0000,1","99999,9","04,5,+00540,1,99,9",,,,"04,99,1,99,9,99,9,99999,9,99,9,99,9",,"10400,1,99999,9",,,,"MET060METAR EGEO 141650Z 10004KT 9999 SCT018 02/00 Q1040 88390291;",
"03114099999","2010-12-15T07:50:00","4","56.417","-5.467","4.0","OBAN, UK","FM-15","EGEO ","V020","090,1,N,0021,1","00660,1,C,N","011265,1,N,1","+0010,1","+0010,1","99999,9","02,5,+00180,1,99,9","07,5,+00660,1,99,9",,,"07,99,1,99,9,99,9,99999,9,99,9,99,9",,"10410,1,99999,9",,,,"MET067METAR EGEO 150750Z 09004KT 9999 FEW006 BKN022 01/01 Q1041 883901//;",
"03114099999","2010-12-15T08:20:00","4","56.417","-5.467","4.0","OBAN, UK","FM-15","EGEO ","V020","090,1,N,0021,1","00600,1,C,N","011265,1,N,1","+0010,1","+0010,1","99999,9","02,5,+00300,1,99,9","07,5,+00600,1,99,9",,,"07,99,1,99,9,99,9,99999,9,99,9,99,9",,"10400,1,99999,9",,,,"MET067METAR EGEO 150820Z 09004KT 9999 FEW010 BKN020 01/01 Q1040 883900//;",
"03114099999","2010-12-15T08:50:00","4","56.417","-5.467","4.0","OBAN, UK","FM-15","EGEO ","V020","110,1,N,0015,1","00600,1,C,N","011265,1,N,1","+0020,1","+0010,1","99999,9","07,5,+00600,1,99,9",,,,"07,99,1,99,9,99,9,99999,9,99,9,99,9",,"10400,1,99999,9",,,,"MET060METAR EGEO 150850Z 11003KT 9999 BKN020 02/01 Q1040 883900//;",
"03114099999","2010-12-15T09:20:00","4","56.417","-5.467","4.0","OBAN, UK","FM-15","EGEO ","V020","100,1,N,0015,1","00600,1,C,N","011265,1,N,1","+0020,1","+0010,1","99999,9","07,5,+00600,1,99,9",,,,"07,99,1,99,9,99,9,99999,9,99,9,99,9",,"10400,1,99999,9",,,,"MET060METAR EGEO 150920Z 10003KT 9999 BKN020 02/01 Q1040 883900//;",
"03114099999","2010-12-15T09:50:00","4","56.417","-5.467","4.0","OBAN, UK","FM-15","EGEO ","V020","080,1,N,0021,1","00600,1,C,N","011265,1,N,1","+0020,1","+0010,1","99999,9","07,5,+00600,1,99,9",,,,"07,99,1,99,9,99,9,99999,9,99,9,99,9",,"10400,1,99999,9",,,,"MET060METAR EGEO 150950Z 08004KT 9999 BKN020 02/01 Q1040 883900//;",
"03114099999","2010-12-15T10:20:00","4","56.417","-5.467","4.0","OBAN, UK","FM-15","EGEO ","V020","100,1,N,0015,1","00540,1,C,N","011265,1,N,1","+0030,1","+0020,1","99999,9","07,5,+00540,1,99,9",,,,"07,99,1,99,9,99,9,99999,9,99,9,99,9",,"10400,1,99999,9",,,,"MET060METAR EGEO 151020Z 10003KT 9999 BKN018 03/02 Q1040 883900//;",
"03114099999","2010-12-15T11:20:00","4","56.417","-5.467","4.0","OBAN, UK","FM-15","EGEO ","V020","100,1,N,0005,1","00540,1,C,N","011265,1,N,1","+0030,1","+0030,1","99999,9","07,5,+00540,1,99,9",,,,"07,99,1,99,9,99,9,99999,9,99,9,99,9",,"10389,1,99999,9",,,,"MET060METAR EGEO 151120Z 10001KT 9999 BKN018 03/03 Q1039 88390011;",
"03114099999","2010-12-15T11:50:00","4","56.417","-5.467","4.0","OBAN, UK","FM-15","EGEO ","V020","999,9,V,0015,1","00540,1,C,N","011265,1,N,1","+0040,1","+0040,1","99999,9","07,5,+00540,1,99,9",,,,"07,99,1,99,9,99,9,99999,9,99,9,99,9",,"10379,1,99999,9",,,,"MET060METAR EGEO 151150Z VRB03KT 9999 BKN018 04/04 Q1038 883900//;",
"03114099999","2010-12-15T12:20:00","4","56.417","-5.467","4.0","OBAN, UK","FM-15","EGEO ","V020","300,1,N,0051,1","00480,1,C,N","011265,1,N,1","+0080,1","+0050,1","99999,9","07,5,+00480,1,99,9",,,,"07,99,1,99,9,99,9,99999,9,99,9,99,9",,"10379,1,99999,9",,,,"MET060METAR EGEO 151220Z 30010KT 9999 BKN016 08/05 Q1038 883900//;",
"03114099999","2010-12-15T12:50:00","4","56.417","-5.467","4.0","OBAN, UK","FM-15","EGEO ","V020","310,1,N,0051,1","00540,1,C,N","011265,1,N,1","+0080,1","+0050,1","99999,9","07,5,+00540,1,99,9",,,,"07,99,1,99,9,99,9,99999,9,99,9,99,9",,"10369,1,99999,9",,,,"MET060METAR EGEO 151250Z 31010KT 9999 BKN018 08/05 Q1037 883900//;",
"03114099999","2010-12-15T14:20:00","4","56.417","-5.467","4.0","OBAN, UK","FM-15","EGEO ","V020","300,1,N,0072,1","00480,1,C,N","011265,1,N,1","+0080,1","+0050,1","99999,9","07,5,+00480,1,99,9",,,,"07,99,1,99,9,99,9,99999,9,99,9,99,9",,"10359,1,99999,9",,,,"MET060METAR EGEO 151420Z 30014KT 9999 BKN016 08/05 Q1036 883900//;",
"03114099999","2010-12-15T16:20:00","4","56.417","-5.467","4.0","OBAN, UK","FM-15","EGEO ","V020","290,1,N,0057,1","00300,1,C,N","011265,1,N,1","+0090,1","+0050,1","99999,9","07,5,+00300,1,99,9",,,,"07,99,1,99,9,99,9,99999,9,99,9,99,9",,"10339,1,99999,9",,,,"MET060METAR EGEO 151620Z 29011KT 9999 BKN010 09/05 Q1034 883900//;",
"03114099999","2010-12-15T16:50:00","4","56.417","-5.467","4.0","OBAN, UK","FM-15","EGEO ","V020","260,1,N,0067,1","00420,1,C,N","011265,1,N,1","+0080,1","+0060,1","99999,9","07,5,+00420,1,99,9",,,,"07,99,1,99,9,99,9,99999,9,99,9,99,9",,"10329,1,99999,9",,,,"MET060METAR EGEO 151650Z 26013KT 9999 BKN014 08/06 Q1033 883900//;",
"03114099999","2010-12-16T08:50:00","4","56.417","-5.467","4.0","OBAN, UK","FM-15","EGEO ","V020","010,1,N,0087,1","22000,1,9,N","011265,1,N,1","+0040,1","-0020,1","99999,9","04,5,+00540,1,99,9",,,,"04,99,1,99,9,99,9,99999,9,99,9,99,9",,"10119,1,99999,9",,,"0154,1","MET062METAR EGEO 160850Z 01017G30KT 9999 4000NE SCT018 04/M02 Q1012;",
"03114099999","2010-12-16T09:20:00","4","56.417","-5.467","4.0","OBAN, UK","FM-15","EGEO ","V020","999,9,9,9999,9","22000,1,9,N","011265,1,N,1","+0030,1","-0020,1","99999,9","04,5,+00540,1,99,9",,,,"04,99,1,99,9,99,9,99999,9,99,9,99,9",,"10120,1,99999,9",,,,"MET053METAR EGEO 160920Z 36015G27 9999 SCT018 03/M02 Q1012;",
"03114099999","2010-12-16T09:50:00","4","56.417","-5.467","4.0","OBAN, UK","FM-15","EGEO ","V020","340,1,N,0077,1","22000,1,9,N","011265,1,N,1","+0030,1","-0010,1","99999,9","02,5,+00540,1,09,1",,,,"02,99,1,99,9,99,9,99999,9,99,9,99,9",,"10119,1,99999,9",,,,"MET054METAR EGEO 160950Z 34015KT 9999 FEW018CB 03/M01 Q1012;",
"03114099999","2010-12-16T10:20:00","4","56.417","-5.467","4.0","OBAN, UK","FM-15","EGEO ","V020","330,1,N,0087,1","22000,1,9,N","011265,1,N,1","+0030,1","-0040,1","99999,9","02,5,+00540,1,09,1",,,,"02,99,1,99,9,99,9,99999,9,99,9,99,9",,"10119,1,99999,9",,,,"MET054METAR EGEO 161020Z 33017KT 9999 FEW018CB 03/M04 Q1012;",
"03114099999","2010-12-16T10:50:00","4","56.417","-5.467","4.0","OBAN, UK","FM-15","EGEO ","V020","330,1,N,0098,1","22000,1,9,N","011265,1,N,1","+0030,1","-0040,1","99999,9","02,5,+00480,1,99,9",,,,"02,99,1,99,9,99,9,99999,9,99,9,99,9",,"10119,1,99999,9",,,,"MET052METAR EGEO 161050Z 33019KT 9999 FEW016 03/M04 Q1012;",
"03114099999","2010-12-16T11:20:00","4","56.417","-5.467","4.0","OBAN, UK","FM-15","EGEO ","V020","340,1,N,0098,1","22000,1,9,N","011265,1,N,1","+0030,1","-0030,1","99999,9","02,5,+00540,1,99,9",,,,"02,99,1,99,9,99,9,99999,9,99,9,99,9",,"10119,1,99999,9",,,,"MET052METAR EGEO 161120Z 34019KT 9999 FEW018 03/M03 Q1012;",
"03114099999","2010-12-16T11:50:00","4","56.417","-5.467","4.0","OBAN, UK","FM-15","EGEO ","V020","330,1,N,0072,1","22000,1,9,N","011265,1,N,1","+0020,1","-0040,1","99999,9","02,5,+00540,1,99,9",,,,"02,99,1,99,9,99,9,99999,9,99,9,99,9",,"10119,1,99999,9",,,,"MET052METAR EGEO 161150Z 33014KT 9999 FEW018 02/M04 Q1012;",
"03114099999","2010-12-16T12:20:00","4","56.417","-5.467","4.0","OBAN, UK","FM-15","EGEO ","V020","330,1,N,0077,1","22000,1,9,N","011265,1,N,1","+0020,1","-0050,1","99999,9","04,5,+00360,1,99,9",,,,"04,99,1,99,9,99,9,99999,9,99,9,99,9",,"10119,1,99999,9",,,,"MET052METAR EGEO 161220Z 33015KT 9999 SCT012 02/M05 Q1012;",
"03114099999","2010-12-16T13:20:00","4","56.417","-5.467","4.0","OBAN, UK","FM-15","EGEO ","V020","320,1,N,0093,1","22000,1,9,N","011265,1,N,1","+0020,1","-0040,1","99999,9","04,5,+00360,1,99,9",,,,"04,99,1,99,9,99,9,99999,9,99,9,99,9",,"10108,1,99999,9",,,,"MET052METAR EGEO 161320Z 32018KT 9999 SCT012 02/M04 Q1011;",
"03114099999","2010-12-16T13:50:00","4","56.417","-5.467","4.0","OBAN, UK","FM-15","EGEO ","V020","320,1,N,0082,1","22000,1,9,N","011265,1,N,1","+0010,1","-0030,1","99999,9","04,5,+00540,1,99,9",,,,"04,99,1,99,9,99,9,99999,9,99,9,99,9",,"10108,1,99999,9",,,,"MET052METAR EGEO 161350Z 32016KT 9999 SCT018 01/M03 Q1011;",
"03114099999","2010-12-16T14:20:00","4","56.417","-5.467","4.0","OBAN, UK","FM-15","EGEO ","V020","320,1,N,0087,1","22000,1,9,N","011265,1,N,1","+0020,1","-0030,1","99999,9","04,5,+00420,1,99,9",,,,"04,99,1,99,9,99,9,99999,9,99,9,99,9",,"10108,1,99999,9",,,,"MET052METAR EGEO 161420Z 32017KT 9999 SCT014 02/M03 Q1011;",
"03114099999","2010-12-16T15:20:00","4","56.417","-5.467","4.0","OBAN, UK","FM-15","EGEO ","V020","300,1,N,0046,1","00300,1,C,N","011265,1,N,1","+0010,1","-0020,1","99999,9","07,5,+00300,1,09,1",,,,"07,99,1,99,9,99,9,99999,9,99,9,99,9",,"10102,1,99999,9",,,,"MET054METAR EGEO 161520Z 30009KT 9999 BKN010CB 01/M02 Q1010;",
"03114099999","2010-12-16T15:50:00","4","56.417","-5.467","4.0","OBAN, UK","FM-15","EGEO ","V020","340,1,N,0072,1","00750,1,C,N","011265,1,N,1","+9999,9","+9999,9","99999,9","04,5,+00420,1,09,1","07,5,+00750,1,09,5","08,5,+00900,1,99,9",,"08,99,1,99,9,99,9,99999,9,99,9,99,9",,"10102,1,99999,9","86,5",,,"MET074METAR EGEO 161550Z 34014KT 9999 5000N SHSN SCT014CB BKN025CB OVC030 Q1010;",
"03114099999","2010-12-16T16:20:00","4","56.417","-5.467","4.0","OBAN, UK","FM-15","EGEO ","V020","330,1,N,0067,1","00540,1,C,N","011265,1,N,1","+0020,1","-0020,1","99999,9","07,5,+00540,1,09,1",,,,"07,99,1,99,9,99,9,99999,9,99,9,99,9",,"10091,1,99999,9",,,,"MET054METAR EGEO 161620Z 33013KT 9999 BKN018CB 02/M02 Q1009;",
"03114099999","2010-12-16T16:50:00","4","56.417","-5.467","4.0","OBAN, UK","FM-15","EGEO ","V020","340,1,N,0067,1","00540,1,C,N","011265,1,N,1","+0010,1","-0040,1","99999,9","07,5,+00540,1,09,1",,,,"07,99,1,99,9,99,9,99999,9,99,9,99,9",,"10090,1,99999,9",,,,"MET057METAR EGEO 161650Z 34013KG23T 9999 BKN018CB 01/M04 Q1009;",
"03114099999","2010-12-17T07:50:00","4","56.417","-5.467","4.0","OBAN, UK","FM-15","EGEO ","V020","310,1,N,0051,1","22000,1,9,N","011265,1,N,1","+0000,1","-0030,1","99999,9","04,5,+00480,1,99,9",,,,"04,99,1,99,9,99,9,99999,9,99,9,99,9",,"09990,1,99999,9",,,,"MET059METAR EGEO 170750Z 31010KT 9999 SCT016 00/M03 Q0999 SNOCLO;",
"03114099999","2010-12-17T08:20:00","4","56.417","-5.467","4.0","OBAN, UK","FM-15","EGEO ","V020","300,1,N,0051,1","22000,1,9,N","011265,1,N,1","+0000,1","-0030,1","99999,9","04,5,+00540,1,99,9",,,,"04,99,1,99,9,99,9,99999,9,99,9,99,9",,"09990,1,99999,9",,,,"MET059METAR EGEO 170820Z 30010KT 9999 SCT018 00/M03 Q0999 SNOCLO;",
"03114099999","2010-12-17T08:50:00","4","56.417","-5.467","4.0","OBAN, UK","FM-15","EGEO ","V020","999,9,V,0015,1","01050,1,C,N","011265,1,N,1","-0010,1","-0040,1","99999,9","04,5,+00540,1,99,9","07,5,+01050,1,99,9",,,"07,99,1,99,9,99,9,99999,9,99,9,99,9",,"09980,1,99999,9","16,1",,,"MET086METAR EGEO 170850Z VRB03KT 130V200 9999 5000N VCSH SCT018 BKN035 M01/M04 Q0998 SNOCLO;",
"03114099999","2010-12-17T09:20:00","4","56.417","-5.467","4.0","OBAN, UK","FM-15","EGEO ","V020","100,1,N,0021,1","00540,1,C,N","011265,1,N,1","-0020,1","-0040,1","99999,9","07,5,+00540,1,99,9",,,,"07,99,1,99,9,99,9,99999,9,99,9,99,9",,"09980,1,99999,9","85,5",,,"MET072METAR EGEO 170920Z 10004KT 9999 4000N -SHSN BKN018 M02/M04 Q0998 SNOCLO;",
"03114099999","2010-12-17T09:50:00","4","56.417","-5.467","4.0","OBAN, UK","FM-15","EGEO ","V020","090,1,N,0015,1","22000,1,9,N","011265,1,N,1","-0020,1","-0030,1","99999,9","04,5,+00540,1,99,9",,,,"04,99,1,99,9,99,9,99999,9,99,9,99,9",,"09980,1,99999,9",,,,"MET060METAR EGEO 170950Z 09003KT 9999 SCT018 M02/M03 Q0998 SNOCLO;",
"03114099999","2010-12-17T10:20:00","4","56.417","-5.467","4.0","OBAN, UK","FM-15","EGEO ","V020","999,9,V,0005,1","99999,9,C,N","011265,1,N,1","-0010,1","-0030,1","99999,9","02,5,+00420,1,99,9","04,5,+00540,1,09,5","04,5,+00750,1,09,5",,"04,99,1,99,9,99,9,99999,9,99,9,99,9",,"09970,1,99999,9",,,,"MET086METAR EGEO 171020Z VRB01KT 290V020 9999 FEW014 SCT018CB SCT025CB M01/M03 Q0997 SNOCLO;","P01 005403SCOCIG"
"03114099999","2010-12-17T10:50:00","4","56.417","-5.467","4.0","OBAN, UK","FM-15","EGEO ","V020","100,1,N,0010,1","22000,1,9,N","011265,1,N,1","-0020,1","-0030,1","99999,9","04,5,+00540,1,09,1",,,,"04,99,1,99,9,99,9,99999,9,99,9,99,9",,"09970,1,99999,9",,,,"MET062METAR EGEO 171050Z 10002KT 9999 SCT018CB M02/M03 Q0997 SNOCLO;",
"03114099999","2010-12-17T11:20:00","4","56.417","-5.467","4.0","OBAN, UK","FM-15","EGEO ","V020","110,1,N,0021,1","22000,1,9,N","011265,1,N,1","-0010,1","-0030,1","99999,9","04,5,+00540,1,09,1",,,,"04,99,1,99,9,99,9,99999,9,99,9,99,9",,"09970,1,99999,9",,,,"MET062METAR EGEO 171120Z 11004KT 9999 SCT018CB M01/M03 Q0997 SNOCLO;",
"03114099999","2010-12-17T11:50:00","4","56.417","-5.467","4.0","OBAN, UK","FM-15","EGEO ","V020","070,1,N,0021,1","22000,1,9,N","011265,1,N,1","-0020,1","-0030,1","99999,9","04,5,+00540,1,09,1",,,,"04,99,1,99,9,99,9,99999,9,99,9,99,9",,"09959,1,99999,9",,,,"MET062METAR EGEO 171150Z 07004KT 9999 SCT018CB M02/M03 Q0996 SNOCLO;",
"03114099999","2010-12-17T12:50:00","4","56.417","-5.467","4.0","OBAN, UK","FM-15","EGEO ","V020","110,1,N,0010,1","00600,1,C,N","011265,1,N,1","-0010,1","-0030,1","99999,9","07,5,+00600,1,99,9",,,,"07,99,1,99,9,99,9,99999,9,99,9,99,9",,"09949,1,99999,9",,,,"MET060METAR EGEO 171250Z 11002KT 9999 BKN020 M01/M03 Q0995 SNOCLO;",
"03114099999","2010-12-17T13:20:00","4","56.417","-5.467","4.0","OBAN, UK","FM-15","EGEO ","V020","999,9,V,0010,1","00420,1,C,N","007000,1,N,1","-0010,1","-0030,1","99999,9","07,5,+00420,1,99,9",,,,"07,99,1,99,9,99,9,99999,9,99,9,99,9",,"09949,1,99999,9","85,5",,,"MET067METAR EGEO 171320Z VRB002KT 7000 -SHSN BKN014 M01/M03 Q0995 SNOCLO;",
"03114099999","2010-12-17T13:50:00","4","56.417","-5.467","4.0","OBAN, UK","FM-15","EGEO ","V020","330,1,N,0026,1","00420,1,C,N","004000,1,N,1","+0000,1","-0020,1","99999,9","07,5,+00420,1,99,9",,,,"07,99,1,99,9,99,9,99999,9,99,9,99,9",,"09939,1,99999,9","85,5",,,"MET066METAR EGEO 171350Z 33005KT 4000 -SHSN BKN014 M00/M02 Q0994 SNOCLO;",
"03114099999","2010-12-17T14:20:00","4","56.417","-5.467","4.0","OBAN, UK","FM-15","EGEO ","V020","080,1,N,0015,1","00300,1,C,N","011265,1,N,1","-0010,1","-0020,1","99999,9","07,5,+00300,1,99,9",,,,"07,99,1,99,9,99,9,99999,9,99,9,99,9",,"09939,1,99999,9",,,,"MET060METAR EGEO 171420Z 08003KT 9999 BKN010 M01/M02 Q0994 SNOCLO;",
"03114099999","2010-12-17T14:50:00","4","56.417","-5.467","4.0","OBAN, UK","FM-15","EGEO ","V020","130,1,N,0015,1","00480,1,C,N","009000,1,N,1","+0000,1","-0020,1","99999,9","07,5,+00480,1,99,9",,,,"07,99,1,99,9,99,9,99999,9,99,9,99,9",,"09929,1,99999,9","85,5",,,"MET066METAR EGEO 171450Z 13003KT 9000 -SHSN BKN016 M00/M02 Q0993 SNOCLO;",
"03114099999","2010-12-17T15:20:00","4","56.417","-5.467","4.0","OBAN, UK","FM-15","EGEO ","V020","160,1,N,0021,1","00420,1,C,N","011265,1,N,1","+0000,1","-0020,1","99999,9","07,5,+00420,1,09,1",,,,"07,99,1,99,9,99,9,99999,9,99,9,99,9",,"09929,1,99999,9",,,,"MET062METAR EGEO 171520Z 16004KT 9999 BKN014CB M00/M02 Q0993 SNOCLO;",
"03114099999","2010-12-17T15:50:00","4","56.417","-5.467","4.0","OBAN, UK","FM-15","EGEO ","V020","999,9,V,0010,1","00300,1,C,N","011265,1,N,1","-0010,1","-0020,1","99999,9","07,5,+00300,1,09,1",,,,"07,99,1,99,9,99,9,99999,9,99,9,99,9",,"09919,1,99999,9",,,,"MET070METAR EGEO 171550Z VRB02KT 100V190 9999 BKN010CB M01/M02 Q0992 SNOCLO;",
"03114099999","2010-12-17T16:20:00","4","56.417","-5.467","4.0","OBAN, UK","FM-15","EGEO ","V020","999,9,V,0005,1","00300,1,C,N","011265,1,N,1","-0010,1","-0020,1","99999,9","07,5,+00300,1,09,1",,,,"07,99,1,99,9,99,9,99999,9,99,9,99,9",,"09919,1,99999,9",,,,"MET070METAR EGEO 171620Z VRB01KT 110V180 9999 BKN010CB M01/M02 Q0992 SNOCLO;",
"03114099999","2010-12-17T16:50:00","4","56.417","-5.467","4.0","OBAN, UK","FM-15","EGEO ","V020","999,9,V,0010,1","00360,1,C,N","011265,1,N,1","-0010,1","-0020,1","99999,9","07,5,+00360,1,09,1",,,,"07,99,1,99,9,99,9,99999,9,99,9,99,9",,"09919,1,99999,9",,,,"MET070METAR EGEO 171650Z VRB02KT 050V150 9999 BKN012CB M01/M02 Q0992 SNOCLO;",
"03114099999","2010-12-18T07:50:00","4","56.417","-5.467","4.0","OBAN, UK","FM-15","EGEO ","V020","999,9,9,9999,9","22000,1,9,N","011265,1,N,1","-0050,1","-0080,1","99999,9","02,5,+00540,1,99,9",,,,"02,99,1,99,9,99,9,99999,9,99,9,99,9",,"09930,1,99999,9",,,,"MET060METAR EGEO 180750Z 080O4KT 9999 FEW018 M05/M08 Q0993 SNOCLO;",
"03114099999","2010-12-18T08:20:00","4","56.417","-5.467","4.0","OBAN, UK","FM-15","EGEO ","V020","110,1,N,0021,1","22000,1,9,N","011265,1,N,1","-0050,1","-0080,1","99999,9","02,5,+00660,1,99,9",,,,"02,99,1,99,9,99,9,99999,9,99,9,99,9",,"09929,1,99999,9",,,,"MET060METAR EGEO 180820Z 11004KT 9999 FEW022 M05/M08 Q0993 SNOCLO;",
"03114099999","2010-12-18T08:50:00","4","56.417","-5.467","4.0","OBAN, UK","FM-15","EGEO ","V020","130,1,N,0021,1","22000,1,9,N","011265,1,N,1","-0050,1","-0080,1","99999,9","02,5,+00660,1,99,9",,,,"02,99,1,99,9,99,9,99999,9,99,9,99,9",,"09929,1,99999,9",,,,"MET060METAR EGEO 180850Z 13004KT 9999 FEW022 M05/M08 Q0993 SNOCLO;",
"03114099999","2010-12-18T09:20:00","4","56.417","-5.467","4.0","OBAN, UK","FM-15","EGEO ","V020","100,1,N,0015,1","22000,1,9,N","011265,1,N,1","-0050,1","-0070,1","99999,9","02,5,+00660,1,99,9",,,,"02,99,1,99,9,99,9,99999,9,99,9,99,9",,"09939,1,99999,9",,,,"MET060METAR EGEO 180920Z 10003KT 9999 FEW022 M05/M07 Q0994 SNOCLO;",
"03114099999","2010-12-18T09:50:00","4","56.417","-5.467","4.0","OBAN, UK","FM-15","EGEO ","V020","999,9,V,0010,1","22000,1,9,N","011265,1,N,1","-0040,1","-0080,1","99999,9","02,5,+00660,1,99,9",,,,"02,99,1,99,9,99,9,99999,9,99,9,99,9",,"09939,1,99999,9",,,,"MET060METAR EGEO 180950Z VRB02KT 9999 FEW022 M04/M08 Q0994 SNOCLO;",
"03114099999","2010-12-18T10:20:00","4","56.417","-5.467","4.0","OBAN, UK","FM-15","EGEO ","V020","999,9,V,0010,1","22000,1,9,N","011265,1,N,1","-0030,1","-0060,1","99999,9","02,5,+00660,1,99,9",,,,"02,99,1,99,9,99,9,99999,9,99,9,99,9",,"09939,1,99999,9",,,,"MET060METAR EGEO 181020Z VRB02KT 9999 FEW022 M03/M06 Q0994 SNOCLO;",
"03114099999","2010-12-18T10:50:00","4","56.417","-5.467","4.0","OBAN, UK","FM-15","EGEO ","V020","060,1,N,0015,1","22000,1,9,N","011265,1,N,1","-0030,1","-0070,1","99999,9","04,5,+00660,1,99,9",,,,"04,99,1,99,9,99,9,99999,9,99,9,99,9",,"09939,1,99999,9","16,1",,,"MET065METAR EGEO 181050Z 06003KT 9999 VCSH SCT022 M03/M07 Q0994 SNOCLO;",
"03114099999","2010-12-18T11:20:00","4","56.417","-5.467","4.0","OBAN, UK","FM-15","EGEO ","V020","080,1,N,0031,1","00660,1,C,N","011265,1,N,1","+0000,1","-0050,1","99999,9","07,5,+00660,1,99,9",,,,"07,99,1,99,9,99,9,99999,9,99,9,99,9",,"09939,1,99999,9","16,1",,,"MET065METAR EGEO 181120Z 08006KT 9999 VCSH BKN022 M00/M05 Q0994 SNOCLO;",
"03114099999","2010-12-18T11:50:00","4","56.417","-5.467","4.0","OBAN, UK","FM-15","EGEO ","V020","100,1,N,0036,1","00420,1,C,N","006000,1,N,1","+0000,1","-0040,1","99999,9","07,5,+00420,1,99,9",,,,"07,99,1,99,9,99,9,99999,9,99,9,99,9",,"09939,1,99999,9","16,1",,,"MET065METAR EGEO 181150Z 10007KT 6000 VCSH BKN014 M00/M04 Q0994 SNOCLO;",
"03114099999","2010-12-18T12:20:00","4","56.417","-5.467","4.0","OBAN, UK","FM-15","EGEO ","V020","040,1,N,0031,1","00480,1,C,N","008000,1,N,1","-0010,1","-0050,1","99999,9","07,5,+00480,1,99,9",,,,"07,99,1,99,9,99,9,99999,9,99,9,99,9",,"09939,1,99999,9","16,1",,,"MET065METAR EGEO 181220Z 04006KT 8000 VCSH BKN016 M01/M05 Q0994 SNOCLO;",
"03114099999","2010-12-18T12:50:00","4","56.417","-5.467","4.0","OBAN, UK","FM-15","EGEO ","V020","040,1,N,0021,1","00540,1,C,N","011265,1,N,1","-0010,1","-0040,1","99999,9","02,5,+00450,1,99,9","07,5,+00540,1,99,9",,,"07,99,1,99,9,99,9,99999,9,99,9,99,9",,"09939,1,99999,9",,,,"MET067METAR EGEO 181250Z 04004KT 9999 FEW015 BKN018 M01/M04 Q0994 SNOCLO;",
"03114099999","2010-12-18T13:20:00","4","56.417","-5.467","4.0","OBAN, UK","FM-15","EGEO ","V020","999,9,C,0000,1","00540,1,C,N","011265,1,N,1","-0010,1","-0040,1","99999,9","02,5,+00450,1,99,9","07,5,+00540,1,99,9",,,"07,99,1,99,9,99,9,99999,9,99,9,99,9",,"09939,1,99999,9",,,,"MET067METAR EGEO 181320Z 00000KT 9999 FEW015 BKN018 M01/M04 Q0994 SNOCLO;",
"03114099999","2010-12-18T13:50:00","4","56.417","-5.467","4.0","OBAN, UK","FM-15","EGEO ","V020","080,1,N,0031,1","00450,1,C,N","007000,1,N,1","+0000,1","-0040,1","99999,9","04,5,+00360,1,99,9","07,5,+00450,1,99,9",,,"07,99,1,99,9,99,9,99999,9,99,9,99,9",,"09939,1,99999,9","16,1",,,"MET071METAR EGEO 181350Z 08006KT 7000 VCSH SCT012 BKN015 00/M04 Q0994 SNOCLO;",
"03114099999","2010-12-18T14:20:00","4","56.417","-5.467","4.0","OBAN, UK","FM-15","EGEO ","V020","130,1,N,0026,1","00450,1,C,N","007000,1,N,1","+0010,1","-0040,1","99999,9","07,5,+00450,1,99,9",,,,"07,99,1,99,9,99,9,99999,9,99,9,99,9",,"09949,1,99999,9","16,1",,,"MET064METAR EGEO 181420Z 13005KT 7000 VCSH BKN015 01/M04 Q0995 SNOCLO;",
"03114099999","2010-12-18T14:50:00","4","56.417","-5.467","4.0","OBAN, UK","FM-15","EGEO ","V020","110,1,N,0031,1","00450,1,C,N","008000,1,N,1","+0010,1","-0040,1","99999,9","07,5,+00450,1,99,9",,,,"07,99,1,99,9,99,9,99999,9,99,9,99,9",,"09949,1,99999,9","16,1",,,"MET064METAR EGEO 181450Z 11006KT 8000 VCSH BKN015 01/M04 Q0995 SNOCLO;",
"03114099999","2010-12-18T15:20:00","4","56.417","-5.467","4.0","OBAN, UK","FM-15","EGEO ","V020","090,1,N,0051,1","00450,1,C,N","011265,1,N,1","+0010,1","-0050,1","99999,9","07,5,+00450,1,99,9",,,,"07,99,1,99,9,99,9,99999,9,99,9,99,9",,"09949,1,99999,9",,,,"MET059METAR EGEO 181520Z 09010KT 9999 BKN015 01/M05 Q0995 SNOCLO;",
"03114099999","2010-12-18T15:50:00","4","56.417","-5.467","4.0","OBAN, UK","FM-15","EGEO ","V020","110,1,N,0026,1","00450,1,C,N","011265,1,N,1","+0010,1","-0050,1","99999,9","07,5,+00450,1,99,9",,,,"07,99,1,99,9,99,9,99999,9,99,9,99,9",,"09959,1,99999,9",,,,"MET059METAR EGEO 181550Z 11005KT 9999 BKN015 01/M05 Q0996 SNOCLO;",
"03114099999","2010-12-18T16:20:00","4","56.417","-5.467","4.0","OBAN, UK","FM-15","EGEO ","V020","100,1,N,0041,1","00450,1,C,N","011265,1,N,1","+0010,1","-0060,1","99999,9","07,5,+00450,1,99,9",,,,"07,99,1,99,9,99,9,99999,9,99,9,99,9",,"09959,1,99999,9",,,,"MET059METAR EGEO 181620Z 10008KT 9999 BKN015 01/M06 Q0996 SNOCLO;",
"03114099999","2010-12-18T16:50:00","4","56.417","-5.467","4.0","OBAN, UK","FM-15","EGEO ","V020","120,1,N,0046,1","00540,1,C,N","011265,1,N,1","+0010,1","-0060,1","99999,9","07,5,+00540,1,99,9",,,,"07,99,1,99,9,99,9,99999,9,99,9,99,9",,"09959,1,99999,9",,,,"MET059METAR EGEO 181650Z 12009KT 9999 BKN018 01/M06 Q0996 SNOCLO;",
"03114099999","2010-12-19T08:50:00","4","56.417","-5.467","4.0","OBAN, UK","FM-15","EGEO ","V020","060,1,N,0031,1","22000,1,9,N","011265,1,N,1","-0040,1","-0070,1","99999,9","02,5,+00600,1,99,9",,,,"02,99,1,99,9,99,9,99999,9,99,9,99,9",,"10000,1,99999,9",,,,"MET060METAR EGEO 190850Z 06006KT 9999 FEW020 M04/M07 Q1000 SNOCLO;",
"03114099999","2010-12-19T09:20:00","4","56.417","-5.467","4.0","OBAN, UK","FM-15","EGEO ","V020","070,1,N,0021,1","22000,1,9,N","011265,1,N,1","-0050,1","-0080,1","99999,9","02,5,+00600,1,99,9",,,,"02,99,1,99,9,99,9,99999,9,99,9,99,9",,"10000,1,99999,9",,,,"MET060METAR EGEO 190920Z 07004KT 9999 FEW020 M05/M08 Q1000 SNOCLO;",
"03114099999","2010-12-19T09:50:00","4","56.417","-5.467","4.0","OBAN, UK","FM-15","EGEO ","V020","100,1,N,0021,1","22000,1,9,N","011265,1,N,1","-0040,1","-0060,1","99999,9","02,5,+00600,1,99,9",,,,"02,99,1,99,9,99,9,99999,9,99,9,99,9",,"10000,1,99999,9",,,,"MET060METAR EGEO 190950Z 10004KT 9999 FEW020 M04/M06 Q1000 SNOCLO;",
"03114099999","2010-12-19T10:20:00","4","56.417","-5.467","4.0","OBAN, UK","FM-15","EGEO ","V020","100,1,N,0021,1","22000,1,9,N","011265,1,N,1","-0040,1","-0060,1","99999,9","02,5,+00600,1,99,9",,,,"02,99,1,99,9,99,9,99999,9,99,9,99,9",,"10000,1,99999,9",,,,"MET060METAR EGEO 191020Z 10004KT 9999 FEW020 M04/M06 Q1000 SNOCLO;",
"03114099999","2010-12-19T10:50:00","4","56.417","-5.467","4.0","OBAN, UK","FM-15","EGEO ","V020","999,9,C,0000,1","99999,9,C,N","011265,1,N,1","-0040,1","-0060,1","99999,9","02,5,+00600,1,99,9","04,5,+01050,1,99,9",,,"04,99,1,99,9,99,9,99999,9,99,9,99,9",,"10000,1,99999,9",,,,"MET067METAR EGEO 191050Z 00000KT 9999 FEW020 SCT035 M04/M06 Q1000 SNOCLO;","P01 010503SCOCIG"
"03114099999","2010-12-19T11:20:00","4","56.417","-5.467","4.0","OBAN, UK","FM-15","EGEO ","V020","999,9,C,0000,1","99999,9,C,N","011265,1,N,1","-0030,1","-0060,1","99999,9","02,5,+00600,1,99,9","04,5,+01050,1,99,9",,,"04,99,1,99,9,99,9,99999,9,99,9,99,9",,"10000,1,99999,9",,,,"MET067METAR EGEO 191120Z 00000KT 9999 FEW020 SCT035 M03/M06 Q1000 SNOCLO;","P01 010503SCOCIG"
"03114099999","2010-12-19T11:50:00","4","56.417","-5.467","4.0","OBAN, UK","FM-15","EGEO ","V020","070,1,N,0021,1","22000,1,9,N","011265,1,N,1","-0020,1","-0050,1","99999,9","02,5,+00600,1,99,9",,,,"02,99,1,99,9,99,9,99999,9,99,9,99,9",,"10000,1,99999,9",,,,"MET060METAR EGEO 191150Z 07004KT 9999 FEW020 M02/M05 Q1000 SNOCLO;",
"03114099999","2010-12-19T12:20:00","4","56.417","-5.467","4.0","OBAN, UK","FM-15","EGEO ","V020","090,1,N,0015,1","22000,1,9,N","011265,1,N,1","-0010,1","-0040,1","99999,9","02,5,+00660,1,99,9",,,,"02,99,1,99,9,99,9,99999,9,99,9,99,9",,"09990,1,99999,9",,,,"MET060METAR EGEO 191220Z 09003KT 9999 FEW022 M01/M04 Q0999 SNOCLO;",
"03114099999","2010-12-19T13:20:00","4","56.417","-5.467","4.0","OBAN, UK","FM-15","EGEO ","V020","150,1,N,0021,1","22000,1,9,N","011265,1,N,1","+0000,1","-0040,1","99999,9","02,5,+00660,1,99,9",,,,"02,99,1,99,9,99,9,99999,9,99,9,99,9",,"09990,1,99999,9",,,,"MET059METAR EGEO 191320Z 15004KT 9999 FEW022 00/M04 Q0999 SNOCLO;",
"03114099999","2010-12-19T13:50:00","4","56.417","-5.467","4.0","OBAN, UK","FM-15","EGEO ","V020","010,1,N,0015,1","22000,1,9,N","011265,1,N,1","+0010,1","-0040,1","99999,9","02,5,+00660,1,99,9",,,,"02,99,1,99,9,99,9,99999,9,99,9,99,9",,"09990,1,99999,9",,,,"MET059METAR EGEO 191350Z 01003KT 9999 FEW022 01/M04 Q0999 SNOCLO;",
"03114099999","2010-12-19T14:20:00","4","56.417","-5.467","4.0","OBAN, UK","FM-15","EGEO ","V020","030,1,N,0031,1","22000,1,9,N","011265,1,N,1","+0000,1","-0050,1","99999,9","02,5,+00750,1,99,9",,,,"02,99,1,99,9,99,9,99999,9,99,9,99,9",,"09990,1,99999,9",,,,"MET059METAR EGEO 191420Z 03006KT 9999 FEW025 00/M05 Q0999 SNOCLO;",
"03114099999","2010-12-19T14:50:00","4","56.417","-5.467","4.0","OBAN, UK","FM-15","EGEO ","V020","040,1,N,0021,1","22000,1,9,N","011265,1,N,1","+0000,1","-0050,1","99999,9","04,5,+00750,1,99,9",,,,"04,99,1,99,9,99,9,99999,9,99,9,99,9",,"09990,1,99999,9",,,,"MET060METAR EGEO 191450Z 04004KT 9999 SCT025 M00/M05 Q0999 SNOCLO;",
"03114099999","2010-12-19T15:20:00","4","56.417","-5.467","4.0","OBAN, UK","FM-15","EGEO ","V020","360,1,N,0021,1","22000,1,9,N","011265,1,N,1","+0000,1","-0050,1","99999,9","04,5,+00750,1,99,9",,,,"04,99,1,99,9,99,9,99999,9,99,9,99,9",,"09990,1,99999,9",,,,"MET059METAR EGEO 191520Z 36004KT 9999 SCT025 00/M05 Q0999 SNOCLO;",
"03114099999","2010-12-19T15:50:00","4","56.417","-5.467","4.0","OBAN, UK","FM-15","EGEO ","V020","360,1,N,0026,1","22000,1,9,N","011265,1,N,1","+0000,1","-0050,1","99999,9","04,5,+00750,1,99,9",,,,"04,99,1,99,9,99,9,99999,9,99,9,99,9",,"09990,1,99999,9",,,,"MET059METAR EGEO 191550Z 36005KT 9999 SCT025 00/M05 Q0999 SNOCLO;",
"03114099999","2010-12-19T16:20:00","4","56.417","-5.467","4.0","OBAN, UK","FM-15","EGEO ","V020","350,1,N,0031,1","22000,1,9,N","011265,1,N,1","+0000,1","-0050,1","99999,9","04,5,+00750,1,99,9",,,,"04,99,1,99,9,99,9,99999,9,99,9,99,9",,"09990,1,99999,9",,,,"MET060METAR EGEO 191620Z 35006KT 9999 SCT025 M00/M05 Q0999 SNOCLO;",
"03114099999","2010-12-19T16:50:00","4","56.417","-5.467","4.0","OBAN, UK","FM-15","EGEO ","V020","350,1,N,0026,1","22000,1,9,N","011265,1,N,1","+0000,1","-0050,1","99999,9","04,5,+00750,1,99,9",,,,"04,99,1,99,9,99,9,99999,9,99,9,99,9",,"09990,1,99999,9",,,,"MET060METAR EGEO 191650Z 35005KT 9999 SCT025 M00/M05 Q0999 SNOCLO;",
"03114099999","2010-12-20T07:50:00","4","56.417","-5.467","4.0","OBAN, UK","FM-15","EGEO ","V020","090,1,N,0015,1","00840,1,C,N","011265,1,N,1","-0040,1","-0060,1","99999,9","07,5,+00840,1,99,9",,,,"07,99,1,99,9,99,9,99999,9,99,9,99,9",,"10020,1,99999,9",,,,"MET060METAR EGEO 200750Z 09003KT 9999 BKN028 M04/M06 Q1002 SNOCLO;",
"03114099999","2010-12-20T08:50:00","4","56.417","-5.467","4.0","OBAN, UK","FM-15","EGEO ","V020","120,1,N,0015,1","22000,1,9,N","011265,1,N,1","-0050,1","-0070,1","99999,9","04,5,+00840,1,99,9",,,,"04,99,1,99,9,99,9,99999,9,99,9,99,9",,"10020,1,99999,9",,,,"MET060METAR EGEO 200850Z 12003KT 9999 SCT028 M05/M07 Q1002 SNOCLO;",
"03114099999","2010-12-20T09:20:00","4","56.417","-5.467","4.0","OBAN, UK","FM-15","EGEO ","V020","100,1,N,0015,1","22000,1,9,N","011265,1,N,1","-0050,1","-0070,1","99999,9","04,5,+00840,1,99,9",,,,"04,99,1,99,9,99,9,99999,9,99,9,99,9",,"10020,1,99999,9",,,,"MET060METAR EGEO 200920Z 10003KT 9999 SCT028 M05/M07 Q1002 SNOCLO;",
"03114099999","2010-12-20T09:50:00","4","56.417","-5.467","4.0","OBAN, UK","FM-15","EGEO ","V020","120,1,N,0010,1","22000,1,9,N","011265,1,N,1","-0050,1","-0060,1","99999,9","02,5,+00660,1,99,9",,,,"02,99,1,99,9,99,9,99999,9,99,9,99,9",,"10020,1,99999,9",,,,"MET060METAR EGEO 200950Z 12002KT 9999 FEW022 M05/M06 Q1002 SNOCLO;",
"03114099999","2010-12-20T10:20:00","4","56.417","-5.467","4.0","OBAN, UK","FM-15","EGEO ","V020","110,1,N,0010,1","22000,1,9,N","011265,1,N,1","-0040,1","-0060,1","99999,9","02,5,+00660,1,99,9",,,,"02,99,1,99,9,99,9,99999,9,99,9,99,9",,"10020,1,99999,9",,,,"MET060METAR EGEO 201020Z 11002KT 9999 FEW022 M04/M06 Q1002 SNOCLO;",
"03114099999","2010-12-20T10:50:00","4","56.417","-5.467","4.0","OBAN, UK","FM-15","EGEO ","V020","120,1,N,0015,1","22000,1,9,N","011265,1,N,1","-0040,1","-0060,1","99999,9","02,5,+00540,1,99,9",,,,"02,99,1,99,9,99,9,99999,9,99,9,99,9",,"10020,1,99999,9",,,,"MET060METAR EGEO 201050Z 12003KT 9999 FEW018 M04/M06 Q1002 SNOCLO;",
"03114099999","2010-12-20T11:20:00","4","56.417","-5.467","4.0","OBAN, UK","FM-15","EGEO ","V020","100,1,N,0021,1","22000,1,9,N","011265,1,N,1","-0030,1","-0050,1","99999,9","02,5,+00540,1,99,9",,,,"02,99,1,99,9,99,9,99999,9,99,9,99,9",,"10031,1,99999,9",,,,"MET060METAR EGEO 201120Z 10004KT 9999 FEW018 M03/M05 Q1003 SNOCLO;",
"03114099999","2010-12-20T11:50:00","4","56.417","-5.467","4.0","OBAN, UK","FM-15","EGEO ","V020","090,1,N,0021,1","22000,1,9,N","011265,1,N,1","-0020,1","-0050,1","99999,9","02,5,+00540,1,99,9",,,,"02,99,1,99,9,99,9,99999,9,99,9,99,9",,"10031,1,99999,9",,,,"MET060METAR EGEO 201150Z 09004KT 9999 FEW018 M02/M05 Q1003 SNOCLO;",
"03114099999","2010-12-20T12:20:00","4","56.417","-5.467","4.0","OBAN, UK","FM-15","EGEO ","V020","110,1,N,0010,1","22000,1,9,N","011265,1,N,1","-0020,1","-0050,1","99999,9","02,5,+00450,1,09,1",,,,"02,99,1,99,9,99,9,99999,9,99,9,99,9",,"10031,1,99999,9",,,,"MET062METAR EGEO 201220Z 11002KT 9999 FEW015CB M02/M05 Q1003 SNOCLO;",
"03114099999","2010-12-20T12:50:00","4","56.417","-5.467","4.0","OBAN, UK","FM-15","EGEO ","V020","090,1,N,0015,1","22000,1,9,N","011265,1,N,1","-0010,1","-0050,1","99999,9","02,5,+00600,1,99,9",,,,"02,99,1,99,9,99,9,99999,9,99,9,99,9",,"10031,1,99999,9",,,,"MET060METAR EGEO 201250Z 09003KT 9999 FEW020 M01/M05 Q1003 SNOCLO;",
"03114099999","2010-12-20T13:20:00","4","56.417","-5.467","4.0","OBAN, UK","FM-15","EGEO ","V020","090,1,N,0010,1","22000,1,9,N","011265,1,N,1","-0010,1","-0050,1","99999,9","02,5,+00600,1,99,9",,,,"02,99,1,99,9,99,9,99999,9,99,9,99,9",,"10031,1,99999,9",,,,"MET060METAR EGEO 201320Z 09002KT 9999 FEW020 M01/M05 Q1003 SNOCLO;",
"03114099999","2010-12-20T13:50:00","4","56.417","-5.467","4.0","OBAN, UK","FM-15","EGEO ","V020","110,1,N,0010,1","22000,1,9,N","011265,1,N,1","-0010,1","-0040,1","99999,9","02,5,+00600,1,99,9",,,,"02,99,1,99,9,99,9,99999,9,99,9,99,9",,"10031,1,99999,9",,,,"MET060METAR EGEO 201350Z 11002KT 9999 FEW020 M01/M04 Q1003 SNOCLO;",
"03114099999","2010-12-20T14:20:00","4","56.417","-5.467","4.0","OBAN, UK","FM-15","EGEO ","V020","140,1,N,0015,1","22000,1,9,N","011265,1,N,1","-0010,1","-0040,1","99999,9","02,5,+00660,1,99,9",,,,"02,99,1,99,9,99,9,99999,9,99,9,99,9",,"10031,1,99999,9",,,,"MET060METAR EGEO 201420Z 14003KT 9999 FEW022 M01/M04 Q1003 SNOCLO;",
"03114099999","2010-12-20T14:50:00","4","56.417","-5.467","4.0","OBAN, UK","FM-15","EGEO ","V020","999,9,9,9999,9","01200,1,C,N","011265,1,N,1","-0010,1","-0050,1","99999,9","04,5,+00750,1,99,9","04,5,+01200,1,99,9",,,"08,99,1,99,9,99,9,99999,9,99,9,99,9",,"10030,1,99999,9",,,,"MET066METAR EGEO 201450Z 0903KT 9999 SCT025 SCT040 M01/M05 Q1003 SNOCLO;",
"03114099999","2010-12-20T15:20:00","4","56.417","-5.467","4.0","OBAN, UK","FM-15","EGEO ","V020","100,1,N,0010,1","00900,1,C,N","011265,1,N,1","-0010,1","-0040,1","99999,9","04,5,+00660,1,99,9","07,5,+00900,1,99,9",,,"07,99,1,99,9,99,9,99999,9,99,9,99,9",,"10031,1,99999,9","85,5",,,"MET073METAR EGEO 201520Z 10002KT 9999 -SHSN SCT022 BKN030 M01/M04 Q1003 SNOCLO;",
"03114099999","2010-12-20T15:50:00","4","56.417","-5.467","4.0","OBAN, UK","FM-15","EGEO ","V020","130,1,N,0005,1","00150,1,C,N","005000,1,N,1","-0010,1","-0040,1","99999,9","07,5,+00150,1,99,9",,,,"07,99,1,99,9,99,9,99999,9,99,9,99,9",,"10031,1,99999,9","85,5",,,"MET066METAR EGEO 201550Z 13001KT 5000 -SHSN BKN005 M01/M04 Q1003 SNOCLO;",
"03114099999","2010-12-20T16:20:00","4","56.417","-5.467","4.0","OBAN, UK","FM-15","EGEO ","V020","130,1,N,0010,1","22000,1,9,N","011265,1,N,1","-0010,1","-0040,1","99999,9","04,5,+00240,1,99,9",,,,"04,99,1,99,9,99,9,99999,9,99,9,99,9",,"10031,1,99999,9",,,,"MET060METAR EGEO 201620Z 13002KT 9999 SCT008 M01/M04 Q1003 SNOCLO;",
"03114099999","2010-12-21T07:50:00","4","56.417","-5.467","4.0","OBAN, UK","FM-15","EGEO ","V020","080,1,N,0026,1","22000,1,9,N","011265,1,N,1","-0020,1","-0050,1","99999,9","04,5,+00840,1,99,9",,,,"04,99,1,99,9,99,9,99999,9,99,9,99,9",,"10051,1,99999,9",,,,"MET060METAR EGEO 210750Z 08005KT 9999 SCT028 M02/M05 Q1005 SNOCLO;",
"03114099999","2010-12-21T08:20:00","4","56.417","-5.467","4.0","OBAN, UK","FM-15","EGEO ","V020","070,1,N,0031,1","22000,1,9,N","011265,1,N,1","-0020,1","-0050,1","99999,9","04,5,+00720,1,99,9",,,,"04,99,1,99,9,99,9,99999,9,99,9,99,9",,"10051,1,99999,9",,,,"MET060METAR EGEO 210820Z 07006KT 9999 SCT024 M02/M05 Q1005 SNOCLO;",
"03114099999","2010-12-21T08:50:00","4","56.417","-5.467","4.0","OBAN, UK","FM-15","EGEO ","V020","100,1,N,0031,1","99999,9,C,N","011265,1,N,1","-0020,1","-0050,1","99999,9","02,5,+00360,1,99,9","04,5,+00840,1,99,9",,,"04,99,1,99,9,99,9,99999,9,99,9,99,9",,"10051,1,99999,9",,,,"MET067METAR EGEO 210850Z 10006KT 9999 FEW012 SCT028 M02/M05 Q1005 SNOCLO;","P01 008403SCOCIG"
"03114099999","2010-12-21T09:20:00","4","56.417","-5.467","4.0","OBAN, UK","FM-15","EGEO ","V020","090,1,N,0026,1","99999,9,C,N","011265,1,N,1","-0020,1","-0050,1","99999,9","02,5,+00450,1,99,9","04,5,+00750,1,99,9",,,"04,99,1,99,9,99,9,99999,9,99,9,99,9",,"10061,1,99999,9",,,,"MET067METAR EGEO 210920Z 09005KT 9999 FEW015 SCT025 M02/M05 Q1006 SNOCLO;","P01 007503SCOCIG"
"03114099999","2010-12-21T09:50:00","4","56.417","-5.467","4.0","OBAN, UK","FM-15","EGEO ","V020","080,1,N,0031,1","99999,9,C,N","011265,1,N,1","-0010,1","-0040,1","99999,9","02,5,+00540,1,99,9","04,5,+00660,1,99,9",,,"04,99,1,99,9,99,9,99999,9,99,9,99,9",,"10061,1,99999,9",,,,"MET067METAR EGEO 210950Z 08006KT 9999 FEW018 SCT022 M01/M04 Q1006 SNOCLO;","P01 006603SCOCIG"
"03114099999","2010-12-21T10:20:00","4","56.417","-5.467","4.0","OBAN, UK","FM-15","EGEO ","V020","090,1,N,0031,1","99999,9,C,N","011265,1,N,1","-0020,1","-0040,1","99999,9","02,5,+00450,1,99,9","04,5,+00600,1,99,9",,,"04,99,1,99,9,99,9,99999,9,99,9,99,9",,"10061,1,99999,9",,,,"MET067METAR EGEO 211020Z 09006KT 9999 FEW015 SCT020 M02/M04 Q1006 SNOCLO;","P01 006003SCOCIG"
"03114099999","2010-12-21T10:50:00","4","56.417","-5.467","4.0","OBAN, UK","FM-15","EGEO ","V020","080,1,N,0031,1","99999,9,C,N","011265,1,N,1","-0020,1","-0050,1","99999,9","02,5,+00450,1,99,9","04,5,+00600,1,99,9",,,"04,99,1,99,9,99,9,99999,9,99,9,99,9",,"10061,1,99999,9",,,,"MET067METAR EGEO 211050Z 08006KT 9999 FEW015 SCT020 M02/M05 Q1006 SNOCLO;","P01 006003SCOCIG"
"03114099999","2010-12-21T11:20:00","4","56.417","-5.467","4.0","OBAN, UK","FM-15","EGEO ","V020","080,1,N,0036,1","22000,1,9,N","011265,1,N,1","-0020,1","-0040,1","99999,9","02,5,+00450,1,99,9",,,,"02,99,1,99,9,99,9,99999,9,99,9,99,9",,"10061,1,99999,9",,,,"MET060METAR EGEO 211120Z 08007KT 9999 FEW015 M02/M04 Q1006 SNOCLO;",
"03114099999","2010-12-21T11:50:00","4","56.417","-5.467","4.0","OBAN, UK","FM-15","EGEO ","V020","080,1,N,0036,1","22000,1,9,N","011265,1,N,1","-0020,1","-0040,1","99999,9","02,5,+00600,1,99,9",,,,"02,99,1,99,9,99,9,99999,9,99,9,99,9",,"10061,1,99999,9",,,,"MET060METAR EGEO 211150Z 08007KT 9999 FEW020 M02/M04 Q1006 SNOCLO;",
"03114099999","2010-12-21T12:20:00","4","56.417","-5.467","4.0","OBAN, UK","FM-15","EGEO ","V020","080,1,N,0031,1","22000,1,9,N","011265,1,N,1","-0010,1","-0050,1","99999,9","02,5,+00660,1,99,9",,,,"02,99,1,99,9,99,9,99999,9,99,9,99,9",,"10071,1,99999,9",,,,"MET060METAR EGEO 211220Z 08006KT 9999 FEW022 M01/M05 Q1007 SNOCLO;",
"03114099999","2010-12-21T12:50:00","4","56.417","-5.467","4.0","OBAN, UK","FM-15","EGEO ","V020","080,1,N,0026,1","22000,1,9,N","011265,1,N,1","-0010,1","-0040,1","99999,9","02,5,+00600,1,99,9",,,,"02,99,1,99,9,99,9,99999,9,99,9,99,9",,"10061,1,99999,9",,,,"MET060METAR EGEO 211250Z 08005KT 9999 FEW020 M01/M04 Q1006 SNOCLO;",
"03114099999","2010-12-21T13:20:00","4","56.417","-5.467","4.0","OBAN, UK","FM-15","EGEO ","V020","090,1,N,0026,1","22000,1,9,N","011265,1,N,1","-0010,1","-0040,1","99999,9","02,5,+00450,1,99,9",,,,"02,99,1,99,9,99,9,99999,9,99,9,99,9",,"10061,1,99999,9",,,,"MET060METAR EGEO 211320Z 09005KT 9999 FEW015 M01/M04 Q1006 SNOCLO;",
"03114099999","2010-12-21T13:50:00","4","56.417","-5.467","4.0","OBAN, UK","FM-15","EGEO ","V020","080,1,N,0021,1","22000,1,9,N","011265,1,N,1","-0010,1","-0040,1","99999,9","02,5,+00450,1,99,9",,,,"02,99,1,99,9,99,9,99999,9,99,9,99,9",,"10061,1,99999,9",,,,"MET060METAR EGEO 211350Z 08004KT 9999 FEW015 M01/M04 Q1006 SNOCLO;",
"03114099999","2010-12-21T14:20:00","4","56.417","-5.467","4.0","OBAN, UK","FM-15","EGEO ","V020","080,1,N,0021,1","22000,1,9,N","011265,1,N,1","-0010,1","-0050,1","99999,9","02,5,+00450,1,99,9",,,,"02,99,1,99,9,99,9,99999,9,99,9,99,9",,"10071,1,99999,9",,,,"MET060METAR EGEO 211420Z 08004KT 9999 FEW015 M01/M05 Q1007 SNOCLO;",
"03114099999","2010-12-21T14:50:00","4","56.417","-5.467","4.0","OBAN, UK","FM-15","EGEO ","V020","090,1,N,0026,1","22000,1,9,N","011265,1,N,1","-0010,1","-0050,1","99999,9","02,5,+00450,1,99,9",,,,"02,99,1,99,9,99,9,99999,9,99,9,99,9",,"10071,1,99999,9",,,,"MET060METAR EGEO 211450Z 09005KT 9999 FEW015 M01/M05 Q1007 SNOCLO;",
"03114099999","2010-12-21T15:20:00","4","56.417","-5.467","4.0","OBAN, UK","FM-15","EGEO ","V020","080,1,N,0021,1","22000,1,9,N","011265,1,N,1","-0020,1","-0050,1","99999,9","02,5,+00420,1,99,9",,,,"02,99,1,99,9,99,9,99999,9,99,9,99,9",,"10071,1,99999,9",,,,"MET060METAR EGEO 211520Z 08004KT 9999 FEW014 M02/M05 Q1007 SNOCLO;",
"03114099999","2010-12-21T15:50:00","4","56.417","-5.467","4.0","OBAN, UK","FM-15","EGEO ","V020","110,1,N,0026,1","22000,1,9,N","011265,1,N,1","-0020,1","-0050,1","99999,9","02,5,+00420,1,99,9",,,,"02,99,1,99,9,99,9,99999,9,99,9,99,9",,"10071,1,99999,9",,,,"MET060METAR EGEO 211550Z 11005KT 9999 FEW014 M02/M05 Q1007 SNOCLO;",
"03114099999","2010-12-21T16:20:00","4","56.417","-5.467","4.0","OBAN, UK","FM-15","EGEO ","V020","080,1,N,0021,1","22000,1,9,N","011265,1,N,1","-0020,1","-0060,1","99999,9","02,5,+00420,1,99,9",,,,"02,99,1,99,9,99,9,99999,9,99,9,99,9",,"10071,1,99999,9",,,,"MET060METAR EGEO 211620Z 08004KT 9999 FEW014 M02/M06 Q1007 SNOCLO;",
"03114099999","2010-12-21T16:50:00","4","56.417","-5.467","4.0","OBAN, UK","FM-15","EGEO ","V020","090,1,N,0021,1","22000,1,9,N","011265,1,N,1","-0030,1","-0060,1","99999,9","02,5,+00420,1,99,9",,,,"02,99,1,99,9,99,9,99999,9,99,9,99,9",,"10071,1,99999,9",,,,"MET060METAR EGEO 211650Z 09004KT 9999 FEW014 M03/M06 Q1007 SNOCLO;",
"03114099999","2010-12-22T07:50:00","4","56.417","-5.467","4.0","OBAN, UK","FM-15","EGEO ","V020","080,1,N,0021,1","22000,1,9,N","011265,1,N,1","-0050,1","-0070,1","99999,9","02,5,+00600,1,99,9",,,,"02,99,1,99,9,99,9,99999,9,99,9,99,9",,"10119,1,99999,9",,,,"MET060METAR EGEO 220750Z 08004KT 9999 FEW020 M05/M07 Q1012 SNOCLO;",
"03114099999","2010-12-22T08:20:00","4","56.417","-5.467","4.0","OBAN, UK","FM-15","EGEO ","V020","080,1,N,0026,1","22000,1,9,N","011265,1,N,1","-0050,1","-0070,1","99999,9","02,5,+00540,1,99,9",,,,"02,99,1,99,9,99,9,99999,9,99,9,99,9",,"10119,1,99999,9",,,,"MET060METAR EGEO 220820Z 08005KT 9999 FEW018 M05/M07 Q1012 SNOCLO;",
"03114099999","2010-12-22T08:50:00","4","56.417","-5.467","4.0","OBAN, UK","FM-15","EGEO ","V020","080,1,N,0021,1","22000,1,9,N","011265,1,N,1","-0050,1","-0070,1","99999,9","02,5,+00480,1,99,9",,,,"02,99,1,99,9,99,9,99999,9,99,9,99,9",,"10129,1,99999,9",,,,"MET060METAR EGEO 220850Z 08004KT 9999 FEW016 M05/M07 Q1013 SNOCLO;",
"03114099999","2010-12-22T09:20:00","4","56.417","-5.467","4.0","OBAN, UK","FM-15","EGEO ","V020","070,1,N,0026,1","22000,1,9,N","011265,1,N,1","-0060,1","-0080,1","99999,9","02,5,+00360,1,99,9",,,,"02,99,1,99,9,99,9,99999,9,99,9,99,9",,"10129,1,99999,9",,,,"MET060METAR EGEO 220920Z 07005KT 9999 FEW012 M06/M08 Q1013 SNOCLO;",
"03114099999","2010-12-22T09:50:00","4","56.417","-5.467","4.0","OBAN, UK","FM-15","EGEO ","V020","070,1,N,0026,1","22000,1,9,N","011265,1,N,1","-0050,1","-0070,1","99999,9","02,5,+00360,1,99,9",,,,"02,99,1,99,9,99,9,99999,9,99,9,99,9",,"10129,1,99999,9",,,,"MET060METAR EGEO 220950Z 07005KT 9999 FEW012 M05/M07 Q1013 SNOCLO;",
"03114099999","2010-12-22T10:20:00","4","56.417","-5.467","4.0","OBAN, UK","FM-15","EGEO ","V020","080,1,N,0021,1","22000,1,9,N","011265,1,N,1","-0040,1","-0060,1","99999,9","02,5,+00360,1,99,9",,,,"02,99,1,99,9,99,9,99999,9,99,9,99,9",,"10139,1,99999,9",,,,"MET068METAR EGEO 221020Z 08004KT 080V170 9999 FEW012 M04/M06 Q1014 SNOCLO;",
"03114099999","2010-12-22T10:50:00","4","56.417","-5.467","4.0","OBAN, UK","FM-15","EGEO ","V020","070,1,N,0021,1","22000,1,9,N","011265,1,N,1","-0040,1","-0060,1","99999,9","02,5,+00420,1,99,9",,,,"02,99,1,99,9,99,9,99999,9,99,9,99,9",,"10139,1,99999,9",,,,"MET060METAR EGEO 221050Z 07004KT 9999 FEW014 M04/M06 Q1014 SNOCLO;",
"03114099999","2010-12-22T11:20:00","4","56.417","-5.467","4.0","OBAN, UK","FM-15","EGEO ","V020","090,1,N,0021,1","22000,1,9,N","011265,1,N,1","-0030,1","-0050,1","99999,9","02,5,+00360,1,99,9",,,,"02,99,1,99,9,99,9,99999,9,99,9,99,9",,"10139,1,99999,9",,,,"MET060METAR EGEO 221120Z 09004KT 9999 FEW012 M03/M05 Q1014 SNOCLO;",
"03114099999","2010-12-22T12:50:00","4","56.417","-5.467","4.0","OBAN, UK","FM-15","EGEO ","V020","100,1,N,0026,1","22000,1,9,N","011265,1,N,1","-0020,1","-0060,1","99999,9","02,5,+00420,1,99,9",,,,"02,99,1,99,9,99,9,99999,9,99,9,99,9",,"10139,1,99999,9",,,,"MET060METAR EGEO 221250Z 10005KT 9999 FEW014 M02/M06 Q1014 SNOCLO;",
"03114099999","2010-12-22T13:50:00","4","56.417","-5.467","4.0","OBAN, UK","FM-15","EGEO ","V020","090,1,N,0010,1","22000,1,9,N","011265,1,N,1","-0010,1","-0050,1","99999,9","02,5,+00420,1,99,9",,,,"02,99,1,99,9,99,9,99999,9,99,9,99,9",,"10139,1,99999,9",,,,"MET060METAR EGEO 221350Z 09002KT 9999 FEW014 M01/M05 Q1014 SNOCLO;",
"03114099999","2010-12-22T14:20:00","4","56.417","-5.467","4.0","OBAN, UK","FM-15","EGEO ","V020","090,1,N,0015,1","22000,1,9,N","011265,1,N,1","-0010,1","-0050,1","99999,9","02,5,+00420,1,99,9",,,,"02,99,1,99,9,99,9,99999,9,99,9,99,9",,"10139,1,99999,9",,,,"MET060METAR EGEO 221420Z 09003KT 9999 FEW014 M01/M05 Q1014 SNOCLO;",
"03114099999","2010-12-22T14:50:00","4","56.417","-5.467","4.0","OBAN, UK","FM-15","EGEO ","V020","090,1,N,0021,1","22000,1,9,N","011265,1,N,1","-0010,1","-0050,1","99999,9","02,5,+00420,1,99,9",,,,"02,99,1,99,9,99,9,99999,9,99,9,99,9",,"10139,1,99999,9",,,,"MET060METAR EGEO 221450Z 09004KT 9999 FEW014 M01/M05 Q1014 SNOCLO;",
"03114099999","2010-12-22T15:20:00","4","56.417","-5.467","4.0","OBAN, UK","FM-15","EGEO ","V020","090,1,N,0010,1","22000,1,9,N","011265,1,N,1","-0020,1","-0050,1","99999,9","02,5,+00540,1,99,9",,,,"02,99,1,99,9,99,9,99999,9,99,9,99,9",,"10149,1,99999,9",,,,"MET060METAR EGEO 221520Z 09002KT 9999 FEW018 M02/M05 Q1015 SNOCLO;",
"03114099999","2010-12-22T15:50:00","4","56.417","-5.467","4.0","OBAN, UK","FM-15","EGEO ","V020","090,1,N,0021,1","22000,1,9,N","011265,1,N,1","-0020,1","-0050,1","99999,9","02,5,+00480,1,99,9",,,,"02,99,1,99,9,99,9,99999,9,99,9,99,9",,"10149,1,99999,9",,,,"MET060METAR EGEO 221550Z 09004KT 9999 FEW016 M02/M05 Q1015 SNOCLO;",
"03114099999","2010-12-22T16:20:00","4","56.417","-5.467","4.0","OBAN, UK","FM-15","EGEO ","V020","090,1,N,0021,1","22000,1,9,N","011265,1,N,1","-0020,1","-0060,1","99999,9","02,5,+00480,1,99,9",,,,"02,99,1,99,9,99,9,99999,9,99,9,99,9",,"10149,1,99999,9",,,,"MET060METAR EGEO 221620Z 09004KT 9999 FEW016 M02/M06 Q1015 SNOCLO;",
"03114099999","2010-12-23T07:50:00","4","56.417","-5.467","4.0","OBAN, UK","FM-15","EGEO ","V020","090,1,N,0021,1","22000,1,9,N","011265,1,N,1","-0060,1","-0080,1","99999,9","02,5,+00480,1,99,9",,,,"02,99,1,99,9,99,9,99999,9,99,9,99,9",,"10200,1,99999,9",,,,"MET060METAR EGEO 230750Z 09004KT 9999 FEW016 M06/M08 Q1020 SNOCLO;",
"03114099999","2010-12-23T08:20:00","4","56.417","-5.467","4.0","OBAN, UK","FM-15","EGEO ","V020","080,1,N,0015,1","22000,1,9,N","011265,1,N,1","-0050,1","-0070,1","99999,9","02,5,+00480,1,99,9",,,,"02,99,1,99,9,99,9,99999,9,99,9,99,9",,"10200,1,99999,9",,,,"MET060METAR EGEO 230820Z 08003KT 9999 FEW016 M05/M07 Q1020 SNOCLO;",
"03114099999","2010-12-23T08:50:00","4","56.417","-5.467","4.0","OBAN, UK","FM-15","EGEO ","V020","080,1,N,0015,1","22000,1,9,N","011265,1,N,1","-0060,1","-0070,1","99999,9","02,5,+00240,1,99,9",,,,"02,99,1,99,9,99,9,99999,9,99,9,99,9",,"10210,1,99999,9",,,,"MET060METAR EGEO 230850Z 08003KT 9999 FEW008 M06/M07 Q1021 SNOCLO;",
"03114099999","2010-12-23T09:50:00","4","56.417","-5.467","4.0","OBAN, UK","FM-15","EGEO ","V020","120,1,N,0010,1","22000,1,9,N","011265,1,N,1","-0050,1","-0070,1","99999,9","02,5,+00360,1,99,9",,,,"02,99,1,99,9,99,9,99999,9,99,9,99,9",,"10210,1,99999,9",,,,"MET060METAR EGEO 230950Z 12002KT 9999 FEW012 M05/M07 Q1021 SNOCLO;",
"03114099999","2010-12-23T10:20:00","4","56.417","-5.467","4.0","OBAN, UK","FM-15","EGEO ","V020","090,1,N,0021,1","22000,1,9,N","011265,1,N,1","-0050,1","-0060,1","99999,9","02,5,+00450,1,99,9",,,,"02,99,1,99,9,99,9,99999,9,99,9,99,9",,"10210,1,99999,9",,,,"MET060METAR EGEO 231020Z 09004KT 9999 FEW015 M05/M06 Q1021 SNOCLO;",
"03114099999","2010-12-23T10:50:00","4","56.417","-5.467","4.0","OBAN, UK","FM-15","EGEO ","V020","110,1,N,0021,1","22000,1,9,N","011265,1,N,1","-0040,1","-0060,1","99999,9","02,5,+00300,1,99,9",,,,"02,99,1,99,9,99,9,99999,9,99,9,99,9",,"10210,1,99999,9",,,,"MET060METAR EGEO 231050Z 11004KT 9999 FEW010 M04/M06 Q1021 SNOCLO;",
"03114099999","2010-12-23T11:20:00","4","56.417","-5.467","4.0","OBAN, UK","FM-15","EGEO ","V020","070,1,N,0015,1","22000,1,9,N","011265,1,N,1","-0040,1","-0050,1","99999,9","02,5,+00450,1,99,9",,,,"02,99,1,99,9,99,9,99999,9,99,9,99,9",,"10210,1,99999,9",,,,"MET060METAR EGEO 231120Z 07003KT 9999 FEW015 M04/M05 Q1021 SNOCLO;",
"03114099999","2010-12-23T11:50:00","4","56.417","-5.467","4.0","OBAN, UK","FM-15","EGEO ","V020","080,1,N,0005,1","22000,1,9,N","011265,1,N,1","-0020,1","-0040,1","99999,9","02,5,+00360,1,99,9",,,,"02,99,1,99,9,99,9,99999,9,99,9,99,9",,"10210,1,99999,9",,,,"MET060METAR EGEO 231150Z 08001KT 9999 FEW012 M02/M04 Q1021 SNOCLO;",
"03114099999","2010-12-23T12:20:00","4","56.417","-5.467","4.0","OBAN, UK","FM-15","EGEO ","V020","100,1,N,0015,1","22000,1,9,N","011265,1,N,1","-0020,1","-0040,1","99999,9","02,5,+00540,1,99,9",,,,"02,99,1,99,9,99,9,99999,9,99,9,99,9",,"10210,1,99999,9",,,,"MET060METAR EGEO 231220Z 10003KT 9999 FEW018 M02/M04 Q1021 SNOCLO;",
"03114099999","2010-12-23T12:50:00","4","56.417","-5.467","4.0","OBAN, UK","FM-15","EGEO ","V020","110,1,N,0010,1","22000,1,9,N","011265,1,N,1","-0010,1","-0040,1","99999,9","02,5,+00600,1,99,9",,,,"02,99,1,99,9,99,9,99999,9,99,9,99,9",,"10210,1,99999,9",,,,"MET060METAR EGEO 231250Z 11002KT 9999 FEW020 M01/M04 Q1021 SNOCLO;",
"03114099999","2010-12-23T13:20:00","4","56.417","-5.467","4.0","OBAN, UK","FM-15","EGEO ","V020","120,1,N,0010,1","22000,1,9,N","011265,1,N,1","-0010,1","-0040,1","99999,9","02,5,+00600,1,99,9",,,,"02,99,1,99,9,99,9,99999,9,99,9,99,9",,"10210,1,99999,9",,,,"MET060METAR EGEO 231320Z 12002KT 9999 FEW020 M01/M04 Q1021 SNOCLO;",
"03114099999","2010-12-23T14:20:00","4","56.417","-5.467","4.0","OBAN, UK","FM-15","EGEO ","V020","090,1,N,0010,1","22000,1,9,N","011265,1,N,1","-0010,1","-0040,1","99999,9","02,5,+00600,1,99,9",,,,"02,99,1,99,9,99,9,99999,9,99,9,99,9",,"10210,1,99999,9",,,,"MET060METAR EGEO 231420Z 09002KT 9999 FEW020 M01/M04 Q1021 SNOCLO;",
"03114099999","2010-12-23T14:50:00","4","56.417","-5.467","4.0","OBAN, UK","FM-15","EGEO ","V020","120,1,N,0005,1","22000,1,9,N","011265,1,N,1","-0010,1","-0040,1","99999,9","02,5,+00600,1,99,9",,,,"02,99,1,99,9,99,9,99999,9,99,9,99,9",,"10210,1,99999,9",,,,"MET060METAR EGEO 231450Z 12001KT 9999 FEW020 M01/M04 Q1021 SNOCLO;",
"03114099999","2010-12-23T15:20:00","4","56.417","-5.467","4.0","OBAN, UK","FM-15","EGEO ","V020","130,1,N,0021,1","22000,1,9,N","011265,1,N,1","-0010,1","-0040,1","99999,9","02,5,+00660,1,99,9",,,,"02,99,1,99,9,99,9,99999,9,99,9,99,9",,"10210,1,99999,9",,,,"MET060METAR EGEO 231520Z 13004KT 9999 FEW022 M01/M04 Q1021 SNOCLO;",
"03114099999","2010-12-23T16:20:00","4","56.417","-5.467","4.0","OBAN, UK","FM-15","EGEO ","V020","130,1,N,0010,1","22000,1,9,N","011265,1,N,1","-0020,1","-0050,1","99999,9","02,5,+00600,1,99,9",,,,"02,99,1,99,9,99,9,99999,9,99,9,99,9",,"10220,1,99999,9",,,,"MET060METAR EGEO 231620Z 13002KT 9999 FEW020 M02/M05 Q1022 SNOCLO;",
"03114099999","2010-12-23T16:50:00","4","56.417","-5.467","4.0","OBAN, UK","FM-15","EGEO ","V020","140,1,N,0010,1","22000,1,9,N","011265,1,N,1","-0020,1","-0050,1","99999,9","02,5,+00660,1,99,9",,,,"02,99,1,99,9,99,9,99999,9,99,9,99,9",,"10220,1,99999,9",,,,"MET060METAR EGEO 231650Z 14002KT 9999 FEW022 M02/M05 Q1022 SNOCLO;",
"03114099999","2010-12-28T07:50:00","4","56.417","-5.467","4.0","OBAN, UK","FM-15","EGEO ","V020","120,1,N,0031,1","00360,1,C,N","011265,1,N,1","+0060,1","+0040,1","99999,9","07,5,+00360,1,99,9",,,,"07,99,1,99,9,99,9,99999,9,99,9,99,9",,"10061,1,99999,9",,,,"MET051METAR EGEO 280750Z 12006KT 9999 BKN012 06/04 Q1006;",
"03114099999","2010-12-28T08:20:00","4","56.417","-5.467","4.0","OBAN, UK","FM-15","EGEO ","V020","120,1,N,0031,1","01050,1,C,N","011265,1,N,1","+0060,1","+0040,1","99999,9","02,5,+00540,1,99,9","07,5,+01050,1,99,9",,,"07,99,1,99,9,99,9,99999,9,99,9,99,9",,"10061,1,99999,9",,,,"MET058METAR EGEO 280820Z 12006KT 9999 FEW018 BKN035 06/04 Q1006;",
"03114099999","2010-12-28T08:50:00","4","56.417","-5.467","4.0","OBAN, UK","FM-15","EGEO ","V020","130,1,N,0031,1","01050,1,C,N","011265,1,N,1","+0060,1","+0030,1","99999,9","02,5,+00480,1,99,9","07,5,+01050,1,99,9",,,"07,99,1,99,9,99,9,99999,9,99,9,99,9",,"10061,1,99999,9",,,,"MET058METAR EGEO 280850Z 13006KT 9999 FEW016 BKN035 06/03 Q1006;",
"03114099999","2010-12-28T09:20:00","4","56.417","-5.467","4.0","OBAN, UK","FM-15","EGEO ","V020","130,1,N,0041,1","00900,1,C,N","011265,1,N,1","+0060,1","+0030,1","99999,9","02,5,+00360,1,99,9","07,5,+00900,1,99,9",,,"07,99,1,99,9,99,9,99999,9,99,9,99,9",,"10061,1,99999,9",,,,"MET058METAR EGEO 280920Z 13008KT 9999 FEW012 BKN030 06/03 Q1006;",
"03114099999","2010-12-28T09:50:00","4","56.417","-5.467","4.0","OBAN, UK","FM-15","EGEO ","V020","130,1,N,0041,1","00540,1,C,N","011265,1,N,1","+0060,1","+0030,1","99999,9","07,5,+00540,1,99,9",,,,"07,99,1,99,9,99,9,99999,9,99,9,99,9",,"10071,1,99999,9",,,,"MET051METAR EGEO 280950Z 13008KT 9999 BKN018 06/03 Q1007;",
"03114099999","2010-12-28T10:20:00","4","56.417","-5.467","4.0","OBAN, UK","FM-15","EGEO ","V020","130,1,N,0041,1","00540,1,C,N","011265,1,N,1","+0060,1","+0030,1","99999,9","07,5,+00540,1,99,9",,,,"07,99,1,99,9,99,9,99999,9,99,9,99,9",,"10071,1,99999,9",,,,"MET051METAR EGEO 281020Z 13008KT 9999 BKN018 06/03 Q1007;",
"03114099999","2010-12-28T11:50:00","4","56.417","-5.467","4.0","OBAN, UK","FM-15","EGEO ","V020","120,1,N,0046,1","00900,1,C,N","011265,1,N,1","+0060,1","+0030,1","99999,9","02,5,+00540,1,99,9","07,5,+00900,1,99,9",,,"07,99,1,99,9,99,9,99999,9,99,9,99,9",,"10081,1,99999,9",,,,"MET058METAR EGEO 281150Z 12009KT 9999 FEW018 BKN030 06/03 Q1008;",
"03114099999","2010-12-28T12:20:00","4","56.417","-5.467","4.0","OBAN, UK","FM-15","EGEO ","V020","120,1,N,0031,1","00750,1,C,N","011265,1,N,1","+0060,1","+0030,1","99999,9","02,5,+00540,1,99,9","07,5,+00750,1,99,9",,,"07,99,1,99,9,99,9,99999,9,99,9,99,9",,"10081,1,99999,9",,,,"MET058METAR EGEO 281220Z 12006KT 9999 FEW018 BKN025 06/03 Q1008;",
"03114099999","2010-12-28T12:50:00","4","56.417","-5.467","4.0","OBAN, UK","FM-15","EGEO ","V020","140,1,N,0031,1","00750,1,C,N","011265,1,N,1","+0060,1","+0030,1","99999,9","02,5,+00420,1,99,9","07,5,+00750,1,99,9",,,"07,99,1,99,9,99,9,99999,9,99,9,99,9",,"10081,1,99999,9",,,,"MET058METAR EGEO 281250Z 14006KT 9999 FEW014 BKN025 06/03 Q1008;",
"03114099999","2010-12-28T13:20:00","4","56.417","-5.467","4.0","OBAN, UK","FM-15","EGEO ","V020","110,1,N,0026,1","00750,1,C,N","011265,1,N,1","+0060,1","+0030,1","99999,9","02,5,+00420,1,99,9","07,5,+00750,1,99,9",,,"07,99,1,99,9,99,9,99999,9,99,9,99,9",,"10081,1,99999,9",,,,"MET066METAR EGEO 281320Z 11005KT 080V150 9999 FEW014 BKN025 06/03 Q1008;",
"03114099999","2010-12-28T13:50:00","4","56.417","-5.467","4.0","OBAN, UK","FM-15","EGEO ","V020","130,1,N,0036,1","00600,1,C,N","011265,1,N,1","+0060,1","+0030,1","99999,9","02,5,+00540,1,99,9","07,5,+00600,1,99,9",,,"07,99,1,99,9,99,9,99999,9,99,9,99,9",,"10081,1,99999,9",,,,"MET058METAR EGEO 281350Z 13007KT 9999 FEW018 BKN020 06/03 Q1008;",
"03114099999","2010-12-28T14:20:00","4","56.417","-5.467","4.0","OBAN, UK","FM-15","EGEO ","V020","120,1,N,0031,1","00600,1,C,N","011265,1,N,1","+0060,1","+0030,1","99999,9","02,5,+00450,1,99,9","07,5,+00600,1,99,9",,,"07,99,1,99,9,99,9,99999,9,99,9,99,9",,"10081,1,99999,9",,,,"MET058METAR EGEO 281420Z 12006KT 9999 FEW015 BKN020 06/03 Q1008;",
"03114099999","2010-12-28T14:50:00","4","56.417","-5.467","4.0","OBAN, UK","FM-15","EGEO ","V020","100,1,N,0036,1","00540,1,C,N","011265,1,N,1","+0060,1","+0030,1","99999,9","02,5,+00450,1,99,9","07,5,+00540,1,99,9",,,"07,99,1,99,9,99,9,99999,9,99,9,99,9",,"10081,1,99999,9",,,,"MET066METAR EGEO 281450Z 10007KT 080V150 9999 FEW015 BKN018 06/03 Q1008;",
"03114099999","2010-12-28T15:20:00","4","56.417","-5.467","4.0","OBAN, UK","FM-15","EGEO ","V020","110,1,N,0036,1","00540,1,C,N","011265,1,N,1","+0060,1","+0040,1","99999,9","02,5,+00450,1,99,9","07,5,+00540,1,99,9",,,"07,99,1,99,9,99,9,99999,9,99,9,99,9",,"10081,1,99999,9",,,,"MET058METAR EGEO 281520Z 11007KT 9999 FEW015 BKN018 06/04 Q1008;",
"03114099999","2010-12-28T15:50:00","4","56.417","-5.467","4.0","OBAN, UK","FM-15","EGEO ","V020","110,1,N,0031,1","00540,1,C,N","011265,1,N,1","+0060,1","+0030,1","99999,9","07,5,+00540,1,99,9",,,,"07,99,1,99,9,99,9,99999,9,99,9,99,9",,"10091,1,99999,9",,,,"MET051METAR EGEO 281550Z 11006KT 9999 BKN018 06/03 Q1009;",
"03114099999","2010-12-28T16:20:00","4","56.417","-5.467","4.0","OBAN, UK","FM-15","EGEO ","V020","100,1,N,0021,1","00480,1,C,N","011265,1,N,1","+0060,1","+0030,1","99999,9","07,5,+00480,1,99,9",,,,"07,99,1,99,9,99,9,99999,9,99,9,99,9",,"10091,1,99999,9",,,,"MET059METAR EGEO 281620Z 10004KT 050V130 9999 BKN016 06/03 Q1009;",
"03114099999","2010-12-29T07:50:00","4","56.417","-5.467","4.0","OBAN, UK","FM-15","EGEO ","V020","080,1,N,0026,1","00600,1,C,N","011265,1,N,1","+0080,1","+0050,1","99999,9","02,5,+00360,1,99,9","07,5,+00600,1,99,9",,,"07,99,1,99,9,99,9,99999,9,99,9,99,9",,"10139,1,99999,9",,,,"MET066METAR EGEO 290750Z 08005KT 030V130 9999 FEW012 BKN020 08/05 Q1014;",
"03114099999","2010-12-29T08:20:00","4","56.417","-5.467","4.0","OBAN, UK","FM-15","EGEO ","V020","090,1,N,0036,1","00750,1,C,N","011265,1,N,1","+0080,1","+0050,1","99999,9","02,5,+00300,1,99,9","07,5,+00750,1,99,9",,,"07,99,1,99,9,99,9,99999,9,99,9,99,9",,"10139,1,99999,9",,,,"MET058METAR EGEO 290820Z 09007KT 9999 FEW010 BKN025 08/05 Q1014;",
"03114099999","2010-12-29T08:50:00","4","56.417","-5.467","4.0","OBAN, UK","FM-15","EGEO ","V020","110,1,N,0031,1","00660,1,C,N","011265,1,N,1","+0080,1","+0050,1","99999,9","02,5,+00300,1,99,9","07,5,+00660,1,99,9",,,"07,99,1,99,9,99,9,99999,9,99,9,99,9",,"10149,1,99999,9",,,,"MET058METAR EGEO 290850Z 11006KT 9999 FEW010 BKN022 08/05 Q1015;",
"03114099999","2010-12-29T09:20:00","4","56.417","-5.467","4.0","OBAN, UK","FM-15","EGEO ","V020","100,1,N,0051,1","00600,1,C,N","011265,1,N,1","+0090,1","+0050,1","99999,9","02,5,+00360,1,99,9","07,5,+00600,1,09,5",,,"07,99,1,99,9,99,9,99999,9,99,9,99,9",,"10149,1,99999,9",,,,"MET060METAR EGEO 290920Z 10010KT 9999 FEW012 BKN020CB 09/05 Q1015;",
"03114099999","2010-12-29T09:50:00","4","56.417","-5.467","4.0","OBAN, UK","FM-15","EGEO ","V020","120,1,N,0046,1","00600,1,C,N","011265,1,N,1","+0090,1","+0060,1","99999,9","07,5,+00600,1,99,9",,,,"07,99,1,99,9,99,9,99999,9,99,9,99,9",,"10149,1,99999,9",,,,"MET051METAR EGEO 290950Z 12009KT 9999 BKN020 09/06 Q1015;",
"03114099999","2010-12-29T10:20:00","4","56.417","-5.467","4.0","OBAN, UK","FM-15","EGEO ","V020","120,1,N,0046,1","00600,1,C,N","011265,1,N,1","+0090,1","+0060,1","99999,9","02,5,+00450,1,99,9","07,5,+00600,1,99,9",,,"07,99,1,99,9,99,9,99999,9,99,9,99,9",,"10149,1,99999,9",,,,"MET058METAR EGEO 291020Z 12009KT 9999 FEW015 BKN020 09/06 Q1015;",
"03114099999","2010-12-29T10:50:00","4","56.417","-5.467","4.0","OBAN, UK","FM-15","EGEO ","V020","110,1,N,0041,1","00540,1,C,N","011265,1,N,1","+0090,1","+0060,1","99999,9","02,5,+00360,1,99,9","07,5,+00540,1,99,9",,,"07,99,1,99,9,99,9,99999,9,99,9,99,9",,"10159,1,99999,9",,,,"MET058METAR EGEO 291050Z 11008KT 9999 FEW012 BKN018 09/06 Q1016;",
"03114099999","2010-12-29T11:20:00","4","56.417","-5.467","4.0","OBAN, UK","FM-15","EGEO ","V020","110,1,N,0031,1","00540,1,C,N","011265,1,N,1","+0090,1","+0060,1","99999,9","02,5,+00360,1,99,9","07,5,+00540,1,99,9",,,"07,99,1,99,9,99,9,99999,9,99,9,99,9",,"10159,1,99999,9",,,,"MET058METAR EGEO 291120Z 11006KT 9999 FEW012 BKN018 09/06 Q1016;",
"03114099999","2010-12-29T11:50:00","4","56.417","-5.467","4.0","OBAN, UK","FM-15","EGEO ","V020","120,1,N,0046,1","00480,1,C,N","011265,1,N,1","+0090,1","+0060,1","99999,9","02,5,+00300,1,99,9","07,5,+00480,1,99,9",,,"07,99,1,99,9,99,9,99999,9,99,9,99,9",,"10159,1,99999,9",,,,"MET058METAR EGEO 291150Z 12009KT 9999 FEW010 BKN016 09/06 Q1016;",
"03114099999","2010-12-29T12:20:00","4","56.417","-5.467","4.0","OBAN, UK","FM-15","EGEO ","V020","090,1,N,0041,1","99999,9,C,N","011265,1,N,1","+0090,1","+0060,1","99999,9","02,5,+00450,1,99,9","04,5,+00540,1,99,9",,,"04,99,1,99,9,99,9,99999,9,99,9,99,9",,"10159,1,99999,9",,,,"MET058METAR EGEO 291220Z 09008KT 9999 FEW015 SCT018 09/06 Q1016;","P01 005403SCOCIG"
"03114099999","2010-12-29T12:50:00","4","56.417","-5.467","4.0","OBAN, UK","FM-15","EGEO ","V020","110,1,N,0041,1","22000,1,9,N","011265,1,N,1","+0090,1","+0060,1","99999,9","04,5,+00450,1,99,9",,,,"04,99,1,99,9,99,9,99999,9,99,9,99,9",,"10159,1,99999,9",,,,"MET051METAR EGEO 291250Z 11008KT 9999 SCT015 09/06 Q1016;",
"03114099999","2010-12-29T13:50:00","4","56.417","-5.467","4.0","OBAN, UK","FM-15","EGEO ","V020","100,1,N,0021,1","99999,9,C,N","011265,1,N,1","+0090,1","+0060,1","99999,9","02,5,+00450,1,99,9","04,5,+00540,1,99,9",,,"04,99,1,99,9,99,9,99999,9,99,9,99,9",,"10169,1,99999,9",,,,"MET058METAR EGEO 291350Z 10004KT 9999 FEW015 SCT018 09/06 Q1017;","P01 005403SCOCIG"
"03114099999","2010-12-29T14:20:00","4","56.417","-5.467","4.0","OBAN, UK","FM-15","EGEO ","V020","170,1,N,0005,1","22000,1,9,N","011265,1,N,1","+0090,1","+0060,1","99999,9","04,5,+00600,1,99,9",,,,"04,99,1,99,9,99,9,99999,9,99,9,99,9",,"10169,1,99999,9",,,,"MET051METAR EGEO 291420Z 17001KT 9999 SCT020 09/06 Q1017;",
"03114099999","2010-12-29T14:50:00","4","56.417","-5.467","4.0","OBAN, UK","FM-15","EGEO ","V020","100,1,N,0026,1","00600,1,C,N","011265,1,N,1","+0090,1","+0060,1","99999,9","02,5,+00450,1,99,9","07,5,+00600,1,99,9",,,"07,99,1,99,9,99,9,99999,9,99,9,99,9",,"10169,1,99999,9",,,,"MET058METAR EGEO 291450Z 10005KT 9999 FEW015 BKN020 09/06 Q1017;",
"03114099999","2010-12-29T15:20:00","4","56.417","-5.467","4.0","OBAN, UK","FM-15","EGEO ","V020","100,1,N,0021,1","00540,1,C,N","011265,1,N,1","+0090,1","+0060,1","99999,9","02,5,+00360,1,99,9","07,5,+00540,1,09,5",,,"07,99,1,99,9,99,9,99999,9,99,9,99,9",,"10169,1,99999,9",,,,"MET060METAR EGEO 291520Z 10004KT 9999 FEW012 BKN018CB 09/06 Q1017;",
"03114099999","2010-12-29T15:50:00","4","56.417","-5.467","4.0","OBAN, UK","FM-15","EGEO ","V020","130,1,N,0021,1","00450,1,C,N","011265,1,N,1","+0090,1","+0050,1","99999,9","07,5,+00450,1,99,9",,,,"07,99,1,99,9,99,9,99999,9,99,9,99,9",,"10169,1,99999,9",,,,"MET051METAR EGEO 291550Z 13004KT 9999 BKN015 09/05 Q1017;",
"03114099999","2010-12-29T16:20:00","4","56.417","-5.467","4.0","OBAN, UK","FM-15","EGEO ","V020","110,1,N,0015,1","00450,1,C,N","011265,1,N,1","+0080,1","+0050,1","99999,9","07,5,+00450,1,99,9",,,,"07,99,1,99,9,99,9,99999,9,99,9,99,9",,"10180,1,99999,9",,,,"MET051METAR EGEO 291620Z 11003KT 9999 BKN015 08/05 Q1018;",
"03114099999","2010-12-29T16:50:00","4","56.417","-5.467","4.0","OBAN, UK","FM-15","EGEO ","V020","070,1,N,0026,1","22000,1,9,N","011265,1,N,1","+0080,1","+0050,1","99999,9","04,5,+00480,1,99,9",,,,"04,99,1,99,9,99,9,99999,9,99,9,99,9",,"10180,1,99999,9",,,,"MET051METAR EGEO 291650Z 07005KT 9999 SCT016 08/05 Q1018;",
"03114099999","2010-12-30T07:50:00","4","56.417","-5.467","4.0","OBAN, UK","FM-15","EGEO ","V020","100,1,N,0015,1","99999,9,C,N","011265,1,N,1","+0070,1","+0050,1","99999,9","02,5,+00300,1,99,9","04,5,+00600,1,99,9",,,"04,99,1,99,9,99,9,99999,9,99,9,99,9",,"10251,1,99999,9",,,,"MET058METAR EGEO 300750Z 10003KT 9999 FEW010 SCT020 07/05 Q1025;","P01 006003SCOCIG"
"03114099999","2010-12-30T08:20:00","4","56.417","-5.467","4.0","OBAN, UK","FM-15","EGEO ","V020","080,1,N,0015,1","99999,9,C,N","011265,1,N,1","+0070,1","+0050,1","99999,9","02,5,+00420,1,99,9","04,5,+00660,1,99,9",,,"04,99,1,99,9,99,9,99999,9,99,9,99,9",,"10251,1,99999,9",,,,"MET058METAR EGEO 300820Z 08003KT 9999 FEW014 SCT022 07/05 Q1025;","P01 006603SCOCIG"
"03114099999","2010-12-30T08:50:00","4","56.417","-5.467","4.0","OBAN, UK","FM-15","EGEO ","V020","100,1,N,0021,1","99999,9,C,N","011265,1,N,1","+0070,1","+0050,1","99999,9","02,5,+00360,1,99,9","04,5,+00660,1,99,9",,,"04,99,1,99,9,99,9,99999,9,99,9,99,9",,"10251,1,99999,9",,,,"MET058METAR EGEO 300850Z 10004KT 9999 FEW012 SCT022 07/05 Q1025;","P01 006603SCOCIG"
"03114099999","2010-12-30T09:20:00","4","56.417","-5.467","4.0","OBAN, UK","FM-15","EGEO ","V020","090,1,N,0010,1","99999,9,C,N","011265,1,N,1","+0070,1","+0050,1","99999,9","02,5,+00300,1,99,9","04,5,+00600,1,99,9",,,"04,99,1,99,9,99,9,99999,9,99,9,99,9",,"10261,1,99999,9",,,,"MET058METAR EGEO 300920Z 09002KT 9999 FEW010 SCT020 07/05 Q1026;","P01 006003SCOCIG"
"03114099999","2010-12-30T09:50:00","4","56.417","-5.467","4.0","OBAN, UK","FM-15","EGEO ","V020","080,1,N,0015,1","99999,9,C,N","011265,1,N,1","+0070,1","+0050,1","99999,9","02,5,+00240,1,99,9","04,5,+00600,1,99,9",,,"04,99,1,99,9,99,9,99999,9,99,9,99,9",,"10261,1,99999,9",,,,"MET058METAR EGEO 300950Z 08003KT 9999 FEW008 SCT020 07/05 Q1026;","P01 006003SCOCIG"
"03114099999","2010-12-30T10:20:00","4","56.417","-5.467","4.0","OBAN, UK","FM-15","EGEO ","V020","080,1,N,0015,1","99999,9,C,N","011265,1,N,1","+0070,1","+0050,1","99999,9","02,5,+00240,1,99,9","04,5,+00600,1,99,9",,,"04,99,1,99,9,99,9,99999,9,99,9,99,9",,"10261,1,99999,9",,,,"MET058METAR EGEO 301020Z 08003KT 9999 FEW008 SCT020 07/05 Q1026;","P01 006003SCOCIG"
"03114099999","2010-12-30T10:50:00","4","56.417","-5.467","4.0","OBAN, UK","FM-15","EGEO ","V020","090,1,N,0021,1","22000,1,9,N","011265,1,N,1","+0070,1","+0060,1","99999,9","04,5,+00600,1,99,9",,,,"04,99,1,99,9,99,9,99999,9,99,9,99,9",,"10261,1,99999,9",,,,"MET051METAR EGEO 301050Z 09004KT 9999 SCT020 07/06 Q1026;",
"03114099999","2010-12-30T11:20:00","4","56.417","-5.467","4.0","OBAN, UK","FM-15","EGEO ","V020","070,1,N,0021,1","22000,1,9,N","011265,1,N,1","+0070,1","+0060,1","99999,9","04,5,+00600,1,99,9",,,,"04,99,1,99,9,99,9,99999,9,99,9,99,9",,"10261,1,99999,9",,,,"MET051METAR EGEO 301120Z 07004KT 9999 SCT020 07/06 Q1026;",
"03114099999","2010-12-30T11:50:00","4","56.417","-5.467","4.0","OBAN, UK","FM-15","EGEO ","V020","080,1,N,0015,1","99999,9,C,N","011265,1,N,1","+0070,1","+0060,1","99999,9","02,5,+00300,1,99,9","04,5,+00600,1,99,9",,,"04,99,1,99,9,99,9,99999,9,99,9,99,9",,"10261,1,99999,9",,,,"MET058METAR EGEO 301150Z 08003KT 9999 FEW010 SCT020 07/06 Q1026;","P01 006003SCOCIG"
"03114099999","2010-12-30T12:20:00","4","56.417","-5.467","4.0","OBAN, UK","FM-15","EGEO ","V020","070,1,N,0015,1","99999,9,C,N","011265,1,N,1","+0070,1","+0060,1","99999,9","02,5,+00300,1,99,9","04,5,+00600,1,99,9",,,"04,99,1,99,9,99,9,99999,9,99,9,99,9",,"10261,1,99999,9",,,,"MET058METAR EGEO 301220Z 07003KT 9999 FEW010 SCT020 07/06 Q1026;","P01 006003SCOCIG"
"03114099999","2010-12-30T12:50:00","4","56.417","-5.467","4.0","OBAN, UK","FM-15","EGEO ","V020","080,1,N,0005,1","99999,9,C,N","011265,1,N,1","+0070,1","+0060,1","99999,9","02,5,+00300,1,99,9","04,5,+00600,1,99,9",,,"04,99,1,99,9,99,9,99999,9,99,9,99,9",,"10261,1,99999,9",,,,"MET058METAR EGEO 301250Z 08001KT 9999 FEW010 SCT020 07/06 Q1026;","P01 006003SCOCIG"
"03114099999","2010-12-30T13:50:00","4","56.417","-5.467","4.0","OBAN, UK","FM-15","EGEO ","V020","999,9,C,0000,1","99999,9,C,N","011265,1,N,1","+0080,1","+0060,1","99999,9","02,5,+00300,1,99,9","04,5,+00600,1,99,9",,,"04,99,1,99,9,99,9,99999,9,99,9,99,9",,"10261,1,99999,9",,,,"MET058METAR EGEO 301350Z 00000KT 9999 FEW010 SCT020 08/06 Q1026;","P01 006003SCOCIG"
"03114099999","2010-12-30T14:20:00","4","56.417","-5.467","4.0","OBAN, UK","FM-15","EGEO ","V020","999,9,C,0000,1","22000,1,9,N","011265,1,N,1","+0080,1","+0060,1","99999,9","04,5,+00600,1,99,9",,,,"04,99,1,99,9,99,9,99999,9,99,9,99,9",,"10251,1,99999,9",,,,"MET051METAR EGEO 301420Z 00000KT 9999 SCT020 08/06 Q1025;",
"03114099999","2010-12-30T14:50:00","4","56.417","-5.467","4.0","OBAN, UK","FM-15","EGEO ","V020","999,9,C,0000,1","22000,1,9,N","011265,1,N,1","+0080,1","+0060,1","99999,9","04,5,+00600,1,99,9",,,,"04,99,1,99,9,99,9,99999,9,99,9,99,9",,"10251,1,99999,9",,,,"MET051METAR EGEO 301450Z 00000KT 9999 SCT020 08/06 Q1025;",
"03114099999","2010-12-30T15:20:00","4","56.417","-5.467","4.0","OBAN, UK","FM-15","EGEO ","V020","120,1,N,0005,1","22000,1,9,N","011265,1,N,1","+0070,1","+0060,1","99999,9","04,5,+00600,1,99,9",,,,"04,99,1,99,9,99,9,99999,9,99,9,99,9",,"10251,1,99999,9",,,,"MET051METAR EGEO 301520Z 12001KT 9999 SCT020 07/06 Q1025;",
"03114099999","2010-12-30T15:50:00","4","56.417","-5.467","4.0","OBAN, UK","FM-15","EGEO ","V020","999,9,C,0000,1","22000,1,9,N","011265,1,N,1","+0070,1","+0060,1","99999,9","04,5,+00600,1,99,9",,,,"04,99,1,99,9,99,9,99999,9,99,9,99,9",,"10251,1,99999,9",,,,"MET051METAR EGEO 301550Z 00000KT 9999 SCT020 07/06 Q1025;",
"03114099999","2010-12-30T16:20:00","4","56.417","-5.467","4.0","OBAN, UK","FM-15","EGEO ","V020","100,1,N,0010,1","22000,1,9,N","011265,1,N,1","+0070,1","+0060,1","99999,9","04,5,+00600,1,99,9",,,,"04,99,1,99,9,99,9,99999,9,99,9,99,9",,"10261,1,99999,9",,,,"MET051METAR EGEO 301620Z 10002KT 9999 SCT020 07/06 Q1026;",
"03114099999","2010-12-30T16:50:00","4","56.417","-5.467","4.0","OBAN, UK","FM-15","EGEO ","V020","999,9,C,0000,1","22000,1,9,N","011265,1,N,1","+0070,1","+0060,1","99999,9","04,5,+00600,1,99,9",,,,"04,99,1,99,9,99,9,99999,9,99,9,99,9",,"10261,1,99999,9",,,,"MET051METAR EGEO 301650Z 00000KT 9999 SCT020 07/06 Q1026;",
"03114099999","2010-12-31T07:50:00","4","56.417","-5.467","4.0","OBAN, UK","FM-15","EGEO ","V020","110,1,N,0021,1","00600,1,C,N","011265,1,N,1","+0050,1","+0040,1","99999,9","02,5,+00240,1,99,9","07,5,+00600,1,99,9",,,"07,99,1,99,9,99,9,99999,9,99,9,99,9",,"10260,1,99999,9",,,,"MET061METAR EGEO 310750Z 11004KT 9999 FEW008 BKN020 DZ 05/04 Q1026;",
"03114099999","2010-12-31T08:20:00","4","56.417","-5.467","4.0","OBAN, UK","FM-15","EGEO ","V020","100,1,N,0015,1","99999,9,C,N","011265,1,N,1","+0050,1","+0050,1","99999,9","02,5,+00300,1,99,9","04,5,+00600,1,99,9",,,"04,99,1,99,9,99,9,99999,9,99,9,99,9",,"10261,1,99999,9","51,1",,,"MET062METAR EGEO 310820Z 10003KT 9999 -DZ FEW010 SCT020 05/05 Q1026;","P01 006003SCOCIG"
"03114099999","2010-12-31T08:50:00","4","56.417","-5.467","4.0","OBAN, UK","FM-15","EGEO ","V020","110,1,N,0010,1","99999,9,C,N","011265,1,N,1","+0050,1","+0050,1","99999,9","02,5,+00300,1,99,9","04,5,+00600,1,99,9",,,"04,99,1,99,9,99,9,99999,9,99,9,99,9",,"10261,1,99999,9","51,1",,,"MET062METAR EGEO 310850Z 11002KT 9999 -DZ FEW010 SCT020 05/05 Q1026;","P01 006003SCOCIG"
"03114099999","2010-12-31T09:20:00","4","56.417","-5.467","4.0","OBAN, UK","FM-15","EGEO ","V020","090,1,N,0015,1","99999,9,C,N","011265,1,N,1","+0050,1","+0040,1","99999,9","02,5,+00300,1,99,9","04,5,+00600,1,99,9",,,"04,99,1,99,9,99,9,99999,9,99,9,99,9",,"10261,1,99999,9","51,1",,,"MET062METAR EGEO 310920Z 09003KT 9999 -DZ FEW010 SCT020 05/04 Q1026;","P01 006003SCOCIG"
"03114099999","2010-12-31T09:50:00","4","56.417","-5.467","4.0","OBAN, UK","FM-15","EGEO ","V020","110,1,N,0010,1","00300,1,C,N","004000,1,N,1","+0050,1","+0050,1","99999,9","07,5,+00300,1,99,9",,,,"07,99,1,99,9,99,9,99999,9,99,9,99,9",,"10261,1,99999,9","10,1","53,1",,"MET057METAR EGEO 310950Z 11002KT 4000 DZ BR BKN010 05/05 Q1026;",
"03114099999","2010-12-31T10:20:00","4","56.417","-5.467","4.0","OBAN, UK","FM-15","EGEO ","V020","100,1,N,0010,1","00300,1,C,N","004000,1,N,1","+0050,1","+0050,1","99999,9","07,5,+00300,1,99,9",,,,"07,99,1,99,9,99,9,99999,9,99,9,99,9",,"10261,1,99999,9","10,1","53,1",,"MET057METAR EGEO 311020Z 10002KT 4000 DZ BR BKN010 05/05 Q1026;",
"03114099999","2010-12-31T11:20:00","4","56.417","-5.467","4.0","OBAN, UK","FM-15","EGEO ","V020","999,9,C,0000,1","00300,1,C,N","005000,1,N,1","+0060,1","+0050,1","99999,9","07,5,+00300,1,99,9",,,,"07,99,1,99,9,99,9,99999,9,99,9,99,9",,"10261,1,99999,9","10,1","51,1",,"MET058METAR EGEO 311120Z 00000KT 5000 -DZ BR BKN010 06/05 Q1026;",
"03114099999","2010-12-31T11:50:00","4","56.417","-5.467","4.0","OBAN, UK","FM-15","EGEO ","V020","999,9,C,0000,1","00420,1,C,N","011265,1,N,1","+0070,1","+0060,1","99999,9","02,5,+00240,1,99,9","07,5,+00420,1,99,9",,,"07,99,1,99,9,99,9,99999,9,99,9,99,9",,"10261,1,99999,9",,,,"MET058METAR EGEO 311150Z 00000KT 9999 FEW008 BKN014 07/06 Q1026;",
"03114099999","2010-12-31T12:20:00","4","56.417","-5.467","4.0","OBAN, UK","FM-15","EGEO ","V020","999,9,C,0000,1","99999,9,C,N","011265,1,N,1","+0070,1","+0070,1","99999,9","02,5,+00300,1,99,9","04,5,+00540,1,99,9",,,"04,99,1,99,9,99,9,99999,9,99,9,99,9",,"10251,1,99999,9",,,,"MET058METAR EGEO 311220Z 00000KT 9999 FEW010 SCT018 07/07 Q1025;","P01 005403SCOCIG"
"03114099999","2010-12-31T13:20:00","4","56.417","-5.467","4.0","OBAN, UK","FM-15","EGEO ","V020","270,1,N,0031,1","99999,9,C,N","011265,1,N,1","+0080,1","+0070,1","99999,9","02,5,+00300,1,99,9","04,5,+00540,1,99,9",,,"04,99,1,99,9,99,9,99999,9,99,9,99,9",,"10251,1,99999,9","61,1",,,"MET062METAR EGEO 311320Z 27006KT 9999 -RA FEW010 SCT018 08/07 Q1025;","P01 005403SCOCIG"
"03114099999","2010-12-31T13:50:00","4","56.417","-5.467","4.0","OBAN, UK","FM-15","EGEO ","V020","260,1,N,0031,1","99999,9,C,N","011265,1,N,1","+0080,1","+0070,1","99999,9","02,5,+00180,1,99,9","04,5,+00450,1,99,9",,,"04,99,1,99,9,99,9,99999,9,99,9,99,9",,"10251,1,99999,9",,,,"MET058METAR EGEO 311350Z 26006KT 9999 FEW006 SCT015 08/07 Q1025;","P01 004503SCOCIG"
"03114099999","2010-12-31T14:20:00","4","56.417","-5.467","4.0","OBAN, UK","FM-15","EGEO ","V020","250,1,N,0026,1","99999,9,C,N","011265,1,N,1","+0080,1","+0070,1","99999,9","02,5,+00240,1,99,9","04,5,+00360,1,99,9",,,"04,99,1,99,9,99,9,99999,9,99,9,99,9",,"10251,1,99999,9",,,,"MET058METAR EGEO 311420Z 25005KT 9999 FEW008 SCT012 08/07 Q1025;","P01 003603SCOCIG"
"03114099999","2010-12-31T14:50:00","4","56.417","-5.467","4.0","OBAN, UK","FM-15","EGEO ","V020","270,1,N,0051,1","00300,1,C,N","011265,1,N,1","+0080,1","+0070,1","99999,9","07,5,+00300,1,99,9",,,,"07,99,1,99,9,99,9,99999,9,99,9,99,9",,"10251,1,99999,9",,,,"MET051METAR EGEO 311450Z 27010KT 9999 BKN010 08/07 Q1025;",
"03114099999","2010-12-31T15:20:00","4","56.417","-5.467","4.0","OBAN, UK","FM-15","EGEO ","V020","270,1,N,0051,1","00300,1,C,N","011265,1,N,1","+0080,1","+0070,1","99999,9","07,5,+00300,1,99,9",,,,"07,99,1,99,9,99,9,99999,9,99,9,99,9",,"10251,1,99999,9",,,,"MET051METAR EGEO 311520Z 27010KT 9999 BKN010 08/07 Q1025;",
"03114099999","2010-12-31T15:50:00","4","56.417","-5.467","4.0","OBAN, UK","FM-15","EGEO ","V020","270,1,N,0046,1","00360,1,C,N","011265,1,N,1","+0080,1","+0070,1","99999,9","07,5,+00360,1,99,9",,,,"07,99,1,99,9,99,9,99999,9,99,9,99,9",,"10251,1,99999,9","61,1",,,"MET055METAR EGEO 311550Z 27009KT 9999 -RA BKN012 08/07 Q1025;",
