"STATION","DATE","SOURCE","LATITUDE","LONGITUDE","ELEVATION","NAME","REPORT_TYPE","CALL_SIGN","QUALITY_CONTROL","WND","CIG","VIS","TMP","DEW","SLP","GA1","GA2","GA3","GF1","MA1","MW1","MW2","OC1","REM","EQD"
"03414599999","2010-01-05T07:50:00","4","52.640028","-2.305578","82.9","COSFORD, UK","FM-15","EGWC ","V020","180,1,N,0026,1","01260,1,C,N","011265,1,N,1","-0030,1","-0030,1","99999,9","07,5,+01260,1,99,9",,,"07,99,1,99,9,99,9,99999,9,99,9,99,9","10041,1,99999,9",,,,"MET057METAR EGWC 050750Z 18005KT 9999 BKN042 M03/M03 Q1004 BLU;",
"03414599999","2010-01-05T08:35:00","4","52.640028","-2.305578","82.9","COSFORD, UK","FM-15","EGWC ","V020","180,1,N,0026,1","00015,1,C,N","001500,1,N,1","-0030,1","-0030,1","99999,9","09,1,+00015,1,99,9",,,"09,99,1,99,9,99,9,00025,1,99,9,99,9","10041,1,99999,9","75,1",,,"MET060METAR EGWC 050835Z 18005KT 1500 +SN VV/// M03/M03 Q1004 RED;",
"03414599999","2010-01-06T07:50:00","4","52.640028","-2.305578","82.9","COSFORD, UK","FM-15","EGWC ","V020","040,1,N,0041,1","00300,1,C,N","004000,1,N,1","+0000,1","+0000,1","99999,9","07,5,+00300,1,99,9",,,"07,99,1,99,9,99,9,99999,9,99,9,99,9","10031,1,99999,9","71,1",,,"MET060METAR EGWC 060750Z 04008KT 4000 -SN BKN010 00/M00 Q1003 GRN;",
"03414599999","2010-01-08T07:50:00","4","52.640028","-2.305578","82.9","COSFORD, UK","FM-15","EGWC ","V020","340,1,N,0026,1","22000,1,9,N","008000,1,N,1","-0060,1","-0060,1","99999,9",,,,"00,99,1,99,9,99,9,99999,9,99,9,99,9","10240,1,99999,9","05,1",,,"MET057METAR EGWC 080750Z 34005KT 8000 HZ SKC M06/M06 Q1024 BLU;","Q01    003SCCGA1"
"03414599999","2010-01-17T08:50:00","4","52.640028","-2.305578","82.9","COSFORD, UK","FM-15","EGWC ","V020","999,9,C,0000,1","22000,1,9,N","011265,1,N,1","+0010,1","+0000,1","99999,9","04,5,+00840,1,99,9",,,"04,99,1,99,9,99,9,99999,9,99,9,99,9","10129,1,99999,9",,,,"MET060METAR EGWC 170850Z 00000KT 9999 SCT028 01/00 Q1013 BLACKBLU;",
"03414599999","2010-01-17T09:50:00","4","52.640028","-2.305578","82.9","COSFORD, UK","FM-15","EGWC ","V020","210,1,N,0026,1","22000,1,9,N","011265,1,N,1","+0040,1","+0030,1","99999,9","02,5,+00840,1,99,9",,,"02,99,1,99,9,99,9,99999,9,99,9,99,9","10149,1,99999,9",,,,"MET060METAR EGWC 170950Z 21005KT 9999 FEW028 04/03 Q1015 BLACKBLU;",
"03414599999","2010-01-17T10:50:00","4","52.640028","-2.305578","82.9","COSFORD, UK","FM-15","EGWC ","V020","190,1,N,0041,1","22000,1,9,N","011265,1,N,1","+0060,1","+0030,1","99999,9","02,5,+00840,1,99,9",,,"02,99,1,99,9,99,9,99999,9,99,9,99,9","10159,1,99999,9",,,,"MET055METAR EGWC 171050Z 19008KT 9999 FEW028 06/03 Q1016 BLU;",
"03414599999","2010-01-17T11:50:00","4","52.640028","-2.305578","82.9","COSFORD, UK","FM-15","EGWC ","V020","210,1,N,0021,1","22000,1,9,N","011265,1,N,1","+0070,1","+0050,1","99999,9","02,5,+01200,1,99,9",,,"02,99,1,99,9,99,9,99999,9,99,9,99,9","10169,1,99999,9",,,,"MET055METAR EGWC 171150Z 21004KT 9999 FEW040 07/05 Q1017 BLU;",
"03414599999","2010-01-17T12:50:00","4","52.640028","-2.305578","82.9","COSFORD, UK","FM-15","EGWC ","V020","220,1,N,0036,1","22000,1,9,N","011265,1,N,1","+0080,1","+0050,1","99999,9","02,5,+00900,1,99,9",,,"02,99,1,99,9,99,9,99999,9,99,9,99,9","10169,1,99999,9",,,,"MET055METAR EGWC 171250Z 22007KT 9999 FEW030 08/05 Q1017 BLU;",
"03414599999","2010-01-17T13:50:00","4","52.640028","-2.305578","82.9","COSFORD, UK","FM-15","EGWC ","V020","240,1,N,0041,1","22000,1,9,N","011265,1,N,1","+0090,1","+0040,1","99999,9","02,5,+00750,1,99,9",,,"02,99,1,99,9,99,9,99999,9,99,9,99,9","10180,1,99999,9",,,,"MET055METAR EGWC 171350Z 24008KT 9999 FEW025 09/04 Q1018 BLU;",
"03414599999","2010-01-17T14:50:00","4","52.640028","-2.305578","82.9","COSFORD, UK","FM-15","EGWC ","V020","230,1,N,0026,1","22000,1,9,N","011265,1,N,1","+0070,1","+0050,1","99999,9","02,5,+00540,1,99,9",,,"02,99,1,99,9,99,9,99999,9,99,9,99,9","10180,1,99999,9",,,,"MET055METAR EGWC 171450Z 23005KT 9999 FEW018 07/05 Q1018 BLU;",
"03414599999","2010-01-20T07:50:00","4","52.640028","-2.305578","82.9","COSFORD, UK","FM-15","EGWC ","V020","090,1,N,0041,1","00330,1,C,N","008000,1,N,1","+0030,1","+0020,1","99999,9","07,5,+00330,1,99,9",,,"07,99,1,99,9,99,9,99999,9,99,9,99,9","10102,1,99999,9","63,1",,,"MET058METAR EGWC 200750Z 09008KT 8000 RA BKN011 03/02 Q1010 GRN;",
"03414599999","2010-01-20T08:50:00","4","52.640028","-2.305578","82.9","COSFORD, UK","FM-15","EGWC ","V020","100,1,N,0041,1","00300,1,C,N","006000,1,N,1","+0040,1","+0020,1","99999,9","07,5,+00300,1,99,9",,,"07,99,1,99,9,99,9,99999,9,99,9,99,9","10102,1,99999,9","63,1",,,"MET058METAR EGWC 200850Z 10008KT 6000 RA BKN010 04/02 Q1010 GRN;",
"03414599999","2010-01-20T09:50:00","4","52.640028","-2.305578","82.9","COSFORD, UK","FM-15","EGWC ","V020","090,1,N,0041,1","00360,1,C,N","006000,1,N,1","+0040,1","+0020,1","99999,9","07,5,+00360,1,99,9",,,"07,99,1,99,9,99,9,99999,9,99,9,99,9","10102,1,99999,9","63,1",,,"MET058METAR EGWC 200950Z 09008KT 6000 RA BKN012 04/02 Q1010 GRN;",
"03414599999","2010-01-20T10:50:00","4","52.640028","-2.305578","82.9","COSFORD, UK","FM-15","EGWC ","V020","090,1,N,0031,1","00360,1,C,N","007000,1,N,1","+0040,1","+0020,1","99999,9","07,5,+00360,1,99,9",,,"07,99,1,99,9,99,9,99999,9,99,9,99,9","10108,1,99999,9","61,1",,,"MET059METAR EGWC 201050Z 09006KT 7000 -RA BKN012 04/02 Q1011 GRN;",
"03414599999","2010-01-20T11:50:00","4","52.640028","-2.305578","82.9","COSFORD, UK","FM-15","EGWC ","V020","090,1,N,0041,1","00240,1,C,N","005000,1,N,1","+0030,1","+0020,1","99999,9","07,5,+00240,1,99,9",,,"07,99,1,99,9,99,9,99999,9,99,9,99,9","10108,1,99999,9","61,1",,,"MET059METAR EGWC 201150Z 09008KT 5000 -RA BKN008 03/02 Q1011 GRN;",
"03414599999","2010-01-20T12:50:00","4","52.640028","-2.305578","82.9","COSFORD, UK","FM-15","EGWC ","V020","090,1,N,0041,1","00240,1,C,N","003000,1,N,1","+0040,1","+0020,1","99999,9","07,5,+00240,1,99,9",,,"07,99,1,99,9,99,9,99999,9,99,9,99,9","10108,1,99999,9","61,1",,,"MET060METAR EGWC 201250Z 09008KT 3000 -RA BKN008 04/02 Q1011 YLO1;",
"03414599999","2010-01-20T13:50:00","4","52.640028","-2.305578","82.9","COSFORD, UK","FM-15","EGWC ","V020","090,1,N,0031,1","00180,1,C,N","004000,1,N,1","+0030,1","+0020,1","99999,9","07,5,+00180,1,99,9",,,"07,99,1,99,9,99,9,99999,9,99,9,99,9","10108,1,99999,9","61,1",,,"MET060METAR EGWC 201350Z 09006KT 4000 -RA BKN006 03/02 Q1011 YL01;",
"03414599999","2010-01-21T07:50:00","4","52.640028","-2.305578","82.9","COSFORD, UK","FM-15","EGWC ","V020","210,1,N,0026,1","00015,1,C,N","000200,1,N,1","+0010,1","+0000,1","99999,9","09,1,+00015,1,99,9",,,"09,99,1,99,9,99,9,00025,1,99,9,99,9","10180,1,99999,9","45,1",,,"MET057METAR EGWC 210750Z 21005KT 0200 FG VV/// 01/00 Q1018 RED;",
"03414599999","2010-01-21T08:50:00","4","52.640028","-2.305578","82.9","COSFORD, UK","FM-15","EGWC ","V020","200,1,N,0031,1","00015,1,C,N","000300,1,N,1","+0000,1","+0000,1","99999,9","09,1,+00015,1,99,9",,,"09,99,1,99,9,99,9,00025,1,99,9,99,9","10190,1,99999,9","45,1",,,"MET057METAR EGWC 210850Z 20006KT 0300 FG VV/// 00/00 Q1019 RED;",
"03414599999","2010-01-21T09:50:00","4","52.640028","-2.305578","82.9","COSFORD, UK","FM-15","EGWC ","V020","150,1,N,0026,1","00015,1,C,N","000400,1,N,1","+0000,1","+0000,1","99999,9","09,1,+00015,1,99,9",,,"09,99,1,99,9,99,9,00025,1,99,9,99,9","10190,1,99999,9","49,1",,,"MET061METAR EGWC 210950Z 15005KT 0400 FZFG VV/// M00/M00 Q1019 RED;",
"03414599999","2010-01-21T10:50:00","4","52.640028","-2.305578","82.9","COSFORD, UK","FM-15","EGWC ","V020","170,1,N,0026,1","00090,1,C,N","002000,1,N,1","+0010,1","+0010,1","99999,9","07,5,+00090,1,99,9",,,"07,99,1,99,9,99,9,99999,9,99,9,99,9","10190,1,99999,9","10,1",,,"MET059METAR EGWC 211050Z 17005KT 2000 BR BKN003 01/01 Q1019 YLO2;",
"03414599999","2010-01-21T11:50:00","4","52.640028","-2.305578","82.9","COSFORD, UK","FM-15","EGWC ","V020","160,1,N,0041,1","01050,1,C,N","004000,1,N,1","+0020,1","+0020,1","99999,9","02,5,+00300,1,99,9","07,5,+01050,1,99,9",,"07,99,1,99,9,99,9,99999,9,99,9,99,9","10190,1,99999,9","10,1",,,"MET065METAR EGWC 211150Z 16008KT 4000 BR FEW010 BKN035 02/02 Q1019 GRN;",
"03414599999","2010-01-21T12:50:00","4","52.640028","-2.305578","82.9","COSFORD, UK","FM-15","EGWC ","V020","180,1,N,0041,1","00780,1,C,N","011265,1,N,1","+0030,1","+0010,1","99999,9","02,5,+00300,1,99,9","07,5,+00780,1,99,9",,"07,99,1,99,9,99,9,99999,9,99,9,99,9","10180,1,99999,9",,,,"MET062METAR EGWC 211250Z 18008KT 9999 FEW010 BKN026 03/01 Q1018 BLU;",
"03414599999","2010-01-21T13:50:00","4","52.640028","-2.305578","82.9","COSFORD, UK","FM-15","EGWC ","V020","180,1,N,0031,1","00960,1,C,N","011265,1,N,1","+0030,1","+0000,1","99999,9","07,5,+00960,1,99,9",,,"07,99,1,99,9,99,9,99999,9,99,9,99,9","10180,1,99999,9",,,,"MET055METAR EGWC 211350Z 18006KT 9999 BKN032 03/00 Q1018 BLU;",
"03414599999","2010-01-21T14:50:00","4","52.640028","-2.305578","82.9","COSFORD, UK","FM-15","EGWC ","V020","150,1,N,0041,1","00960,1,C,N","011265,1,N,1","+0040,1","+0010,1","99999,9","07,5,+00960,1,99,9",,,"07,99,1,99,9,99,9,99999,9,99,9,99,9","10169,1,99999,9",,,,"MET055METAR EGWC 211450Z 15008KT 9999 BKN032 04/01 Q1017 BLU;",
"03414599999","2010-01-21T15:50:00","4","52.640028","-2.305578","82.9","COSFORD, UK","FM-15","EGWC ","V020","150,1,N,0041,1","00960,1,C,N","011265,1,N,1","+0040,1","+0020,1","99999,9","08,5,+00960,1,99,9",,,"08,99,1,99,9,99,9,99999,9,99,9,99,9","10169,1,99999,9",,,,"MET055METAR EGWC 211550Z 15008KT 9999 OVC032 04/02 Q1017 BLU;",
"03414599999","2010-01-22T07:50:00","4","52.640028","-2.305578","82.9","COSFORD, UK","FM-15","EGWC ","V020","160,1,N,0041,1","00240,1,C,N","007000,1,N,1","+0080,1","+0070,1","99999,9","07,5,+00240,1,99,9",,,"07,99,1,99,9,99,9,99999,9,99,9,99,9","10129,1,99999,9","61,1",,,"MET059METAR EGWC 220750Z 16008KT 7000 -RA BKN008 08/07 Q1013 GRN;",
"03414599999","2010-01-22T08:50:00","4","52.640028","-2.305578","82.9","COSFORD, UK","FM-15","EGWC ","V020","190,1,N,0031,1","00240,1,C,N","005000,1,N,1","+0080,1","+0070,1","99999,9","08,5,+00240,1,99,9",,,"08,99,1,99,9,99,9,99999,9,99,9,99,9","10129,1,99999,9","61,1",,,"MET059METAR EGWC 220850Z 19006KT 5000 -RA OVC008 08/07 Q1013 GRN;",
"03414599999","2010-01-22T09:50:00","4","52.640028","-2.305578","82.9","COSFORD, UK","FM-15","EGWC ","V020","190,1,N,0026,1","00210,5,9,N","999999,9,N,1","+0080,1","+0070,1","99999,9","08,5,+00210,5,99,9",,,,"10140,1,99999,9",,,,"MET057METAR EGWC 220950Z 19005KT 000 RA OVC007 08/07 Q1014 GRN;",
"03414599999","2010-01-22T10:50:00","4","52.640028","-2.305578","82.9","COSFORD, UK","FM-15","EGWC ","V020","220,1,N,0021,1","00120,1,C,N","003000,1,N,1","+0080,1","+0080,1","99999,9","02,5,+00060,1,99,9","08,5,+00120,1,99,9",,"08,99,1,99,9,99,9,99999,9,99,9,99,9","10139,1,99999,9","61,1",,,"MET067METAR EGWC 221050Z 22004KT 3000 -RA FEW002 OVC004 08/08 Q1014 YLO2;",
"03414599999","2010-01-22T11:50:00","4","52.640028","-2.305578","82.9","COSFORD, UK","FM-15","EGWC ","V020","999,9,C,0000,1","00120,1,C,N","001500,1,N,1","+0080,1","+0080,1","99999,9","02,5,+00060,1,99,9","08,5,+00120,1,99,9",,"08,99,1,99,9,99,9,99999,9,99,9,99,9","10139,1,99999,9","61,1",,,"MET066METAR EGWC 221150Z 00000KT 1500 -RA FEW002 OVC004 08/08 Q1014 AMB;",
"03414599999","2010-01-22T13:50:00","4","52.640028","-2.305578","82.9","COSFORD, UK","FM-15","EGWC ","V020","999,9,C,0000,1","00120,1,C,N","003500,1,N,1","+0080,1","+0080,1","99999,9","07,5,+00120,1,99,9",,,"07,99,1,99,9,99,9,99999,9,99,9,99,9","10149,1,99999,9","61,1",,,"MET060METAR EGWC 221350Z 00000KT 3500 -RA BKN004 08/08 Q1015 YLO2;",
"03414599999","2010-01-24T08:50:00","4","52.640028","-2.305578","82.9","COSFORD, UK","FM-15","EGWC ","V020","999,9,C,0000,1","22000,1,9,N","011265,1,N,1","+0020,1","+0000,1","99999,9","02,5,+00600,1,99,9",,,"02,99,1,99,9,99,9,99999,9,99,9,99,9","10240,1,99999,9",,,,"MET055METAR EGWC 240850Z 00000KT 9999 FEW020 02/00 Q1024 BLU;",
"03414599999","2010-01-24T09:50:00","4","52.640028","-2.305578","82.9","COSFORD, UK","FM-15","EGWC ","V020","999,9,C,0000,1","22000,1,9,N","011265,1,N,1","+0020,1","+0020,1","99999,9","04,5,+01050,1,99,9",,,"04,99,1,99,9,99,9,99999,9,99,9,99,9","10240,1,99999,9",,,,"MET055METAR EGWC 240950Z 00000KT 9999 SCT035 02/02 Q1024 BLU;",
"03414599999","2010-01-24T10:50:00","4","52.640028","-2.305578","82.9","COSFORD, UK","FM-15","EGWC ","V020","999,9,C,0000,1","22000,1,9,N","011265,1,N,1","+0040,1","+0020,1","99999,9","04,5,+01050,1,99,9",,,"04,99,1,99,9,99,9,99999,9,99,9,99,9","10240,1,99999,9",,,,"MET055METAR EGWC 241050Z 00000KT 9999 SCT035 04/02 Q1024 BLU;",
"03414599999","2010-01-24T11:50:00","4","52.640028","-2.305578","82.9","COSFORD, UK","FM-15","EGWC ","V020","240,1,N,0026,1","01050,1,C,N","011265,1,N,1","+0050,1","+0030,1","99999,9","07,5,+01050,1,99,9",,,"07,99,1,99,9,99,9,99999,9,99,9,99,9","10240,1,99999,9",,,,"MET055METAR EGWC 241150Z 24005KT 9999 BKN035 05/03 Q1024 BLU;",
"03414599999","2010-01-24T12:50:00","4","52.640028","-2.305578","82.9","COSFORD, UK","FM-15","EGWC ","V020","240,1,N,0031,1","00750,1,C,N","011265,1,N,1","+0060,1","+0020,1","99999,9","02,5,+00240,1,99,9","07,5,+00750,1,99,9",,"07,99,1,99,9,99,9,99999,9,99,9,99,9","10240,1,99999,9",,,,"MET062METAR EGWC 241250Z 24006KT 9999 FEW008 BKN025 06/02 Q1024 BLU;",
"03414599999","2010-01-24T13:50:00","4","52.640028","-2.305578","82.9","COSFORD, UK","FM-15","EGWC ","V020","240,1,N,0031,1","00990,1,C,N","011265,1,N,1","+0070,1","+0030,1","99999,9","04,5,+00840,1,99,9","07,5,+00990,1,99,9",,"07,99,1,99,9,99,9,99999,9,99,9,99,9","10240,1,99999,9",,,,"MET062METAR EGWC 241350Z 24006KT 9999 SCT028 BKN033 07/03 Q1024 BLU;",
"03414599999","2010-01-27T07:50:00","4","52.640028","-2.305578","82.9","COSFORD, UK","FM-15","EGWC ","V020","230,1,N,0026,1","00600,1,C,N","006000,1,N,1","+0020,1","+0000,1","99999,9","07,5,+00600,1,99,9",,,"07,99,1,99,9,99,9,99999,9,99,9,99,9","10339,1,99999,9","05,1",,,"MET058METAR EGWC 270750Z 23005KT 6000 HZ BKN020 02/00 Q1034 WHT;",
"03414599999","2010-01-27T08:50:00","4","52.640028","-2.305578","82.9","COSFORD, UK","FM-15","EGWC ","V020","999,9,C,0000,1","00600,1,C,N","005000,1,N,1","+0020,1","+0000,1","99999,9","07,5,+00600,1,99,9",,,"07,99,1,99,9,99,9,99999,9,99,9,99,9","10329,1,99999,9","05,1",,,"MET058METAR EGWC 270850Z 00000KT 5000 HZ BKN020 02/00 Q1033 WHT;",
"03414599999","2010-01-27T09:50:00","4","52.640028","-2.305578","82.9","COSFORD, UK","FM-15","EGWC ","V020","270,1,N,0041,1","00600,1,C,N","006000,1,N,1","+0040,1","+0020,1","99999,9","04,5,+00300,1,99,9","07,5,+00600,1,99,9",,"07,99,1,99,9,99,9,99999,9,99,9,99,9","10318,1,99999,9","05,1",,,"MET065METAR EGWC 270950Z 27008KT 6000 HZ SCT010 BKN020 04/02 Q1032 GRN;",
"03414599999","2010-01-27T10:50:00","4","52.640028","-2.305578","82.9","COSFORD, UK","FM-15","EGWC ","V020","270,1,N,0051,1","00780,1,C,N","007000,1,N,1","+0050,1","+0030,1","99999,9","04,5,+00600,1,99,9","07,5,+00780,1,99,9",,"07,99,1,99,9,99,9,99999,9,99,9,99,9","10318,1,99999,9","05,1",,,"MET065METAR EGWC 271050Z 27010KT 7000 HZ SCT020 BKN026 05/03 Q1032 WHT;",
"03414599999","2010-01-27T12:50:00","4","52.640028","-2.305578","82.9","COSFORD, UK","FM-15","EGWC ","V020","270,1,N,0051,1","01200,1,C,N","011265,1,N,1","+0070,1","+0040,1","99999,9","02,5,+00780,1,99,9","07,5,+01200,1,99,9",,"07,99,1,99,9,99,9,99999,9,99,9,99,9","10271,1,99999,9",,,,"MET062METAR EGWC 271250Z 27010KT 9999 FEW026 BKN040 07/04 Q1027 BLU;",
"03414599999","2010-01-27T13:50:00","4","52.640028","-2.305578","82.9","COSFORD, UK","FM-15","EGWC ","V020","270,1,N,0077,1","00750,1,C,N","011265,1,N,1","+0080,1","+0040,1","99999,9","02,5,+00180,1,99,9","07,5,+00750,1,99,9",,"07,99,1,99,9,99,9,99999,9,99,9,99,9","10261,1,99999,9",,,,"MET062METAR EGWC 271350Z 27015KT 9999 FEW006 BKN025 08/04 Q1026 BLU;",
"03414599999","2010-01-27T14:50:00","4","52.640028","-2.305578","82.9","COSFORD, UK","FM-15","EGWC ","V020","280,1,N,0057,1","00780,1,C,N","011265,1,N,1","+0080,1","+0050,1","99999,9","02,5,+00240,1,99,9","07,5,+00780,1,99,9",,"07,99,1,99,9,99,9,99999,9,99,9,99,9","10240,1,99999,9",,,,"MET062METAR EGWC 271450Z 28011KT 9999 FEW008 BKN026 08/05 Q1024 BLU;",
"03414599999","2010-01-27T15:50:00","4","52.640028","-2.305578","82.9","COSFORD, UK","FM-15","EGWC ","V020","300,1,N,0077,1","00750,1,C,N","011265,1,N,1","+0080,1","+0050,1","99999,9","02,5,+00180,1,99,9","07,5,+00750,1,99,9",,"07,99,1,99,9,99,9,99999,9,99,9,99,9","10230,1,99999,9",,,,"MET062METAR EGWC 271550Z 30015KT 9999 FEW006 BKN025 08/05 Q1023 BLU;",
"03414599999","2010-01-28T07:50:00","4","52.640028","-2.305578","82.9","COSFORD, UK","FM-15","EGWC ","V020","320,1,N,0041,1","00540,1,C,N","011265,1,N,1","+0050,1","+0020,1","99999,9","02,5,+00150,1,99,9","04,5,+00540,1,99,9","07,5,+00840,1,99,9","07,99,1,99,9,99,9,99999,9,99,9,99,9","10159,1,99999,9",,,,"MET069METAR EGWC 280750Z 32008KT 9999 FEW005 SCT018 BKN028 05/02 Q1016 WHT;",
"03414599999","2010-01-28T08:50:00","4","52.640028","-2.305578","82.9","COSFORD, UK","FM-15","EGWC ","V020","320,1,N,0051,1","00450,1,C,N","011265,1,N,1","+0060,1","+0030,1","99999,9","02,5,+00120,1,99,9","04,5,+00450,1,99,9","07,5,+00900,1,99,9","07,99,1,99,9,99,9,99999,9,99,9,99,9","10159,1,99999,9",,,,"MET069METAR EGWC 280850Z 32010KT 9999 FEW004 SCT015 BKN030 06/03 Q1016 WHT;",
"03414599999","2010-01-28T09:50:00","4","52.640028","-2.305578","82.9","COSFORD, UK","FM-15","EGWC ","V020","320,1,N,0051,1","00540,1,C,N","011265,1,N,1","+0060,1","+0030,1","99999,9","02,5,+00180,1,99,9","04,5,+00540,1,99,9","07,5,+00960,1,99,9","07,99,1,99,9,99,9,99999,9,99,9,99,9","10159,1,99999,9",,,,"MET069METAR EGWC 280950Z 32010KT 9999 FEW006 SCT018 BKN032 06/03 Q1016 WHT;",
"03414599999","2010-01-28T10:50:00","4","52.640028","-2.305578","82.9","COSFORD, UK","FM-15","EGWC ","V020","310,1,N,0051,1","00600,1,C,N","011265,1,N,1","+0060,1","+0030,1","99999,9","07,5,+00600,1,99,9",,,"07,99,1,99,9,99,9,99999,9,99,9,99,9","10159,1,99999,9",,,,"MET055METAR EGWC 281050Z 31010KT 9999 BKN020 06/03 Q1016 WHT;",
"03414599999","2010-01-28T11:50:00","4","52.640028","-2.305578","82.9","COSFORD, UK","FM-15","EGWC ","V020","310,1,N,0051,1","00600,1,C,N","011265,1,N,1","+0070,1","+0030,1","99999,9","07,5,+00600,1,99,9",,,"07,99,1,99,9,99,9,99999,9,99,9,99,9","10149,1,99999,9",,,,"MET055METAR EGWC 281150Z 31010KT 9999 BKN020 07/03 Q1015 WHT;",
"03414599999","2010-01-28T12:50:00","4","52.640028","-2.305578","82.9","COSFORD, UK","FM-15","EGWC ","V020","320,1,N,0062,1","00540,1,C,N","011265,1,N,1","+0070,1","+0020,1","99999,9","07,5,+00540,1,99,9",,,"07,99,1,99,9,99,9,99999,9,99,9,99,9","10139,1,99999,9",,,,"MET055METAR EGWC 281250Z 32012KT 9999 BKN018 07/02 Q1014 WHT;",
"03414599999","2010-01-28T13:50:00","4","52.640028","-2.305578","82.9","COSFORD, UK","FM-15","EGWC ","V020","320,1,N,0062,1","00630,1,C,N","011265,1,N,1","+0060,1","+0030,1","99999,9","07,5,+00630,1,99,9",,,"07,99,1,99,9,99,9,99999,9,99,9,99,9","10119,1,99999,9",,,,"MET055METAR EGWC 281350Z 32012KT 9999 BKN021 06/03 Q1012 WHT;",
"03414599999","2010-01-28T14:50:00","4","52.640028","-2.305578","82.9","COSFORD, UK","FM-15","EGWC ","V020","300,1,N,0077,1","00660,1,C,N","011265,1,N,1","+0070,1","+0040,1","99999,9","04,5,+00450,1,99,9","07,5,+00660,1,99,9",,"07,99,1,99,9,99,9,99999,9,99,9,99,9","10119,1,99999,9",,,,"MET062METAR EGWC 281450Z 30015KT 9999 SCT015 BKN022 07/04 Q1012 WHT;",
"03414599999","2010-01-28T15:50:00","4","52.640028","-2.305578","82.9","COSFORD, UK","FM-15","EGWC ","V020","300,1,N,0062,1","00750,1,C,N","011265,1,N,1","+0070,1","+0040,1","99999,9","04,5,+00600,1,99,9","07,5,+00750,1,99,9",,"07,99,1,99,9,99,9,99999,9,99,9,99,9","10108,1,99999,9",,,,"MET062METAR EGWC 281550Z 30012KT 9999 SCT020 BKN025 07/04 Q1011 WHT;",
"03414599999","2010-01-29T07:50:00","4","52.640028","-2.305578","82.9","COSFORD, UK","FM-15","EGWC ","V020","310,1,N,0051,1","00300,1,C,N","008000,1,N,1","+0040,1","+0030,1","99999,9","07,5,+00300,1,99,9",,,"07,99,1,99,9,99,9,99999,9,99,9,99,9","09919,1,99999,9","61,1",,,"MET059METAR EGWC 290750Z 31010KT 8000 -RA BKN010 04/03 Q0992 GRN;",
"03414599999","2010-01-29T08:50:00","4","52.640028","-2.305578","82.9","COSFORD, UK","FM-15","EGWC ","V020","320,1,N,0062,1","00300,1,C,N","005000,1,N,1","+0050,1","+0030,1","99999,9","07,5,+00300,1,99,9",,,"07,99,1,99,9,99,9,99999,9,99,9,99,9","09929,1,99999,9","61,1",,,"MET059METAR EGWC 290850Z 32012KT 5000 -RA BKN010 05/03 Q0993 GRN;",
"03414599999","2010-01-29T09:50:00","4","52.640028","-2.305578","82.9","COSFORD, UK","FM-15","EGWC ","V020","010,1,N,0051,1","00300,1,C,N","011265,1,N,1","+0040,1","+0030,1","99999,9","07,5,+00300,1,99,9",,,"07,99,1,99,9,99,9,99999,9,99,9,99,9","09929,1,99999,9",,,,"MET055METAR EGWC 290950Z 01010KT 9999 BKN010 04/03 Q0993 GRN;",
"03414599999","2010-01-29T10:50:00","4","52.640028","-2.305578","82.9","COSFORD, UK","FM-15","EGWC ","V020","330,1,N,0062,1","00300,1,C,N","008000,1,N,1","+0040,1","+0030,1","99999,9","02,5,+00180,1,99,9","07,5,+00300,1,99,9",,"07,99,1,99,9,99,9,99999,9,99,9,99,9","09939,1,99999,9","63,1",,,"MET065METAR EGWC 291050Z 33012KT 8000 RA FEW006 BKN010 04/03 Q0994 GRN;",
"03414599999","2010-01-29T11:50:00","4","52.640028","-2.305578","82.9","COSFORD, UK","FM-15","EGWC ","V020","320,1,N,0062,1","00750,1,C,N","011265,1,N,1","+0040,1","+0000,1","99999,9","02,5,+00300,1,99,9","04,5,+00750,1,99,9","07,5,+01050,1,99,9","07,99,1,99,9,99,9,99999,9,99,9,99,9","09949,1,99999,9",,,,"MET069METAR EGWC 291150Z 32012KT 9999 FEW010 SCT025 BKN035 04/00 Q0995 BLU;",
"03414599999","2010-01-29T12:50:00","4","52.640028","-2.305578","82.9","COSFORD, UK","FM-15","EGWC ","V020","320,1,N,0062,1","00750,1,C,N","011265,1,N,1","+0040,1","-0010,1","99999,9","02,5,+00300,1,99,9","04,5,+00750,1,99,9","07,5,+01050,1,99,9","07,99,1,99,9,99,9,99999,9,99,9,99,9","09949,1,99999,9",,,,"MET070METAR EGWC 291250Z 32012KT 9999 FEW010 SCT025 BKN035 04/M01 Q0995 BLU;",
"03414599999","2010-01-29T13:50:00","4","52.640028","-2.305578","82.9","COSFORD, UK","FM-15","EGWC ","V020","330,1,N,0062,1","00750,1,C,N","005000,1,N,1","+0040,1","-0010,1","99999,9","04,5,+00300,1,99,9","07,5,+00750,1,99,9",,"07,99,1,99,9,99,9,99999,9,99,9,99,9","09949,1,99999,9","85,5",,"0113,1","MET072METAR EGWC 291350Z 33012G22KT 5000 -SHSN SCT010 BKN025 04/M01 Q0995 GRN;",
"03414599999","2010-01-29T14:50:00","4","52.640028","-2.305578","82.9","COSFORD, UK","FM-15","EGWC ","V020","320,1,N,0077,1","00750,1,C,N","011265,1,N,1","+0030,1","-0010,1","99999,9","02,5,+00300,1,99,9","07,5,+00750,1,99,9",,"07,99,1,99,9,99,9,99999,9,99,9,99,9","09949,1,99999,9","16,1",,,"MET068METAR EGWC 291450Z 32015KT 9999 VCSH FEW010 BKN025 03/M01 Q0995 BLU;",
"03414599999","2010-01-29T15:50:00","4","52.640028","-2.305578","82.9","COSFORD, UK","FM-15","EGWC ","V020","330,1,N,0062,1","22000,1,9,N","011265,1,N,1","+0030,1","-0010,1","99999,9","02,5,+00240,1,99,9",,,"02,99,1,99,9,99,9,99999,9,99,9,99,9","09949,1,99999,9","16,1",,,"MET061METAR EGWC 291550Z 33012KT 9999 VCSH FEW008 03/M01 Q0995 BLU;",
"03414599999","2010-01-30T08:50:00","4","52.640028","-2.305578","82.9","COSFORD, UK","FM-15","EGWC ","V020","320,1,N,0026,1","99999,9,9,Y","009900,1,N,1","+0000,1","-0020,1","99999,9",,,,,"10020,1,99999,9",,,,"MET050METAR EGWC 300850Z 32005KT CAVOK 00/M02 Q1002 BLU;",
"03414599999","2010-01-30T09:50:00","4","52.640028","-2.305578","82.9","COSFORD, UK","FM-15","EGWC ","V020","320,1,N,0026,1","99999,9,9,Y","009900,1,N,1","+0000,1","-0020,1","99999,9",,,,,"10020,1,99999,9",,,,"MET050METAR EGWC 300950Z 32005KT CAVOK 00/M02 Q1002 BLU;",
"03414599999","2010-01-30T10:50:00","4","52.640028","-2.305578","82.9","COSFORD, UK","FM-15","EGWC ","V020","340,1,N,0041,1","99999,9,9,Y","009900,1,N,1","+0010,1","-0020,1","99999,9",,,,,"10020,1,99999,9",,,,"MET050METAR EGWC 301050Z 34008KT CAVOK 01/M02 Q1002 BLU;",
"03414599999","2010-01-30T11:50:00","4","52.640028","-2.305578","82.9","COSFORD, UK","FM-15","EGWC ","V020","350,1,N,0036,1","99999,9,9,Y","009900,1,N,1","+0020,1","-0030,1","99999,9",,,,,"10020,1,99999,9",,,,"MET050METAR EGWC 301150Z 35007KT CAVOK 02/M03 Q1002 BLU;",
"03414599999","2010-01-30T12:50:00","4","52.640028","-2.305578","82.9","COSFORD, UK","FM-15","EGWC ","V020","330,1,N,0051,1","22000,1,9,N","011265,1,N,1","+0030,1","-0040,1","99999,9","02,5,+00750,1,99,9",,,"02,99,1,99,9,99,9,99999,9,99,9,99,9","10020,1,99999,9",,,,"MET056METAR EGWC 301250Z 33010KT 9999 FEW025 03/M04 Q1002 BLU;",
"03414599999","2010-01-30T13:50:00","4","52.640028","-2.305578","82.9","COSFORD, UK","FM-15","EGWC ","V020","340,1,N,0041,1","22000,1,9,N","011265,1,N,1","+0030,1","-0030,1","99999,9","04,5,+00750,1,99,9",,,"04,99,1,99,9,99,9,99999,9,99,9,99,9","10020,1,99999,9",,,,"MET056METAR EGWC 301350Z 34008KT 9999 SCT025 03/M03 Q1002 BLU;",
"03414599999","2010-01-30T14:50:00","4","52.640028","-2.305578","82.9","COSFORD, UK","FM-15","EGWC ","V020","320,1,N,0051,1","22000,1,9,N","011265,1,N,1","+0030,1","-0040,1","99999,9","02,5,+00750,1,99,9",,,"02,99,1,99,9,99,9,99999,9,99,9,99,9","10020,1,99999,9",,,,"MET056METAR EGWC 301450Z 32010KT 9999 FEW025 03/M04 Q1002 BLU;",
"03414599999","2010-01-30T15:50:00","4","52.640028","-2.305578","82.9","COSFORD, UK","FM-15","EGWC ","V020","330,1,N,0062,1","99999,9,9,Y","009900,1,N,1","+0030,1","-0040,1","99999,9",,,,,"10031,1,99999,9",,,,"MET050METAR EGWC 301550Z 33012KT CAVOK 03/M04 Q1003 BLU;",
"03414599999","2010-01-31T08:50:00","4","52.640028","-2.305578","82.9","COSFORD, UK","FM-15","EGWC ","V020","999,9,C,0000,1","22000,1,9,N","011265,1,N,1","-0020,1","-0030,1","99999,9","04,5,+00750,1,99,9",,,"04,99,1,99,9,99,9,99999,9,99,9,99,9","10041,1,99999,9","16,1",,,"MET068METAR EGWC 310850Z 00000KT 9999 6000W VCSH SCT025 M02/M03 Q1004 WHT;",
"03414599999","2010-01-31T09:50:00","4","52.640028","-2.305578","82.9","COSFORD, UK","FM-15","EGWC ","V020","999,9,C,0000,1","00660,1,C,N","011265,1,N,1","+0000,1","+0000,1","99999,9","07,5,+00660,1,99,9",,,"07,99,1,99,9,99,9,99999,9,99,9,99,9","10041,1,99999,9","85,5",,,"MET068METAR EGWC 310950Z 00000KT 9999 5000W -SHSN BKN022 00/M00 Q1004 WHT;",
"03414599999","2010-01-31T10:50:00","4","52.640028","-2.305578","82.9","COSFORD, UK","FM-15","EGWC ","V020","210,1,N,0031,1","01350,1,C,N","011265,1,N,1","+0000,1","+0000,1","99999,9","04,5,+00750,1,99,9","07,5,+01350,1,99,9",,"07,99,1,99,9,99,9,99999,9,99,9,99,9","10051,1,99999,9",,,,"MET063METAR EGWC 311050Z 21006KT 9999 SCT025 BKN045 00/M00 Q1005 BLU;",
"03414599999","2010-01-31T11:50:00","4","52.640028","-2.305578","82.9","COSFORD, UK","FM-15","EGWC ","V020","280,1,N,0026,1","00750,1,C,N","011265,1,N,1","+0020,1","+0000,1","99999,9","07,5,+00750,1,99,9","07,5,+01350,1,99,9",,"07,99,1,99,9,99,9,99999,9,99,9,99,9","10051,1,99999,9",,,,"MET063METAR EGWC 311150Z 28005KT 9999 BKN025 BKN045 02/M00 Q1005 BLU;",
"03414599999","2010-01-31T12:50:00","4","52.640028","-2.305578","82.9","COSFORD, UK","FM-15","EGWC ","V020","310,1,N,0051,1","01350,1,C,N","011265,1,N,1","+0030,1","+0000,1","99999,9","02,5,+00300,1,99,9","07,5,+01350,1,99,9",,"07,99,1,99,9,99,9,99999,9,99,9,99,9","10051,1,99999,9","85,5",,,"MET068METAR EGWC 311250Z 31010KT 9999 -SHSN FEW010 BKN045 03/00 Q1005 BLU;",
"03414599999","2010-01-31T14:50:00","4","52.640028","-2.305578","82.9","COSFORD, UK","FM-15","EGWC ","V020","300,1,N,0051,1","99999,9,C,N","011265,1,N,1","+0030,1","-0010,1","99999,9","02,5,+00360,1,99,9","04,5,+00660,1,99,9",,"04,99,1,99,9,99,9,99999,9,99,9,99,9","10051,1,99999,9","85,5",,,"MET069METAR EGWC 311450Z 30010KT 9999 -SHSN FEW012 SCT022 03/M01 Q1005 WHT;","P01 006603SCOCIG"
"03414599999","2010-02-03T07:50:00","4","52.640028","-2.305578","82.9","COSFORD, UK","FM-15","EGWC ","V020","999,9,C,0000,1","00600,1,C,N","011265,1,N,1","+0000,1","-0010,1","99999,9","07,5,+00600,1,99,9",,,"07,99,1,99,9,99,9,99999,9,99,9,99,9","10091,1,99999,9",,,,"MET057METAR EGWC 030750Z 00000KT 9999 BKN020 M00/M01 Q1009 WHT;",
"03414599999","2010-02-03T08:50:00","4","52.640028","-2.305578","82.9","COSFORD, UK","FM-15","EGWC ","V020","999,9,C,0000,1","00600,1,C,N","011265,1,N,1","+0000,1","-0010,1","99999,9","07,5,+00600,1,99,9",,,"07,99,1,99,9,99,9,99999,9,99,9,99,9","10091,1,99999,9",,,,"MET057METAR EGWC 030850Z 00000KT 9999 BKN020 M00/M01 Q1009 WHT;",
"03414599999","2010-02-03T09:50:00","4","52.640028","-2.305578","82.9","COSFORD, UK","FM-15","EGWC ","V020","999,9,C,0000,1","00600,1,C,N","011265,1,N,1","+0010,1","+0000,1","99999,9","07,5,+00600,1,99,9",,,"07,99,1,99,9,99,9,99999,9,99,9,99,9","10091,1,99999,9",,,,"MET056METAR EGWC 030950Z 00000KT 9999 BKN020 01/M00 Q1009 WHT;",
"03414599999","2010-02-03T10:50:00","4","52.640028","-2.305578","82.9","COSFORD, UK","FM-15","EGWC ","V020","190,1,N,0041,1","00600,1,C,N","011265,1,N,1","+0020,1","+0000,1","99999,9","02,5,+00450,1,99,9","07,5,+00600,1,99,9","08,5,+01800,1,99,9","08,99,1,99,9,99,9,99999,9,99,9,99,9","10091,1,99999,9",,,,"MET070METAR EGWC 031050Z 19008KT 9999 FEW015 BKN020 OVC060 02/M00 Q1009 WHT;",
"03414599999","2010-02-03T11:50:00","4","52.640028","-2.305578","82.9","COSFORD, UK","FM-15","EGWC ","V020","200,1,N,0062,1","00300,1,C,N","004500,1,N,1","+0020,1","+0000,1","99999,9","02,5,+00180,1,99,9","07,5,+00300,1,99,9","08,5,+00600,1,99,9","08,99,1,99,9,99,9,99999,9,99,9,99,9","10091,1,99999,9","61,1","71,1",,"MET076METAR EGWC 031150Z 20012KT 4500 -RASN FEW006 BKN010 OVC020 02/M00 Q1009 GRN;",
"03414599999","2010-02-03T12:50:00","4","52.640028","-2.305578","82.9","COSFORD, UK","FM-15","EGWC ","V020","180,1,N,0026,1","01050,1,C,N","011265,1,N,1","+0020,1","+0000,1","99999,9","04,5,+00660,1,99,9","08,5,+01050,1,99,9",,"08,99,1,99,9,99,9,99999,9,99,9,99,9","10081,1,99999,9",,,,"MET062METAR EGWC 031250Z 18005KT 9999 SCT022 OVC035 02/00 Q1008 WHT;",
"03414599999","2010-02-03T13:50:00","4","52.640028","-2.305578","82.9","COSFORD, UK","FM-15","EGWC ","V020","180,1,N,0031,1","00720,5,9,N","008000,1,N,1","+0020,1","+0010,1","99999,9","07,5,+00720,5,99,9",,,,"10080,1,99999,9","61,1","71,1",,"MET067METAR EGWC 031350Z 18006KT 8000 -RASN FE008 BKN024 02/01 Q1008 WHT;",
"03414599999","2010-02-03T14:50:00","4","52.640028","-2.305578","82.9","COSFORD, UK","FM-15","EGWC ","V020","150,1,N,0051,1","00720,5,9,N","999999,9,N,1","+0030,1","+0010,1","99999,9","07,5,+00720,5,99,9",,,,"10080,1,99999,9",,,,"MET050METAR EGWC 031450Z 15010KT BKN024 03/01 Q1008 WHT;",
"03414599999","2010-02-03T15:50:00","4","52.640028","-2.305578","82.9","COSFORD, UK","FM-15","EGWC ","V020","170,1,N,0041,1","00660,1,C,N","011265,1,N,1","+0030,1","+0010,1","99999,9","08,5,+00660,1,99,9",,,"08,99,1,99,9,99,9,99999,9,99,9,99,9","10061,1,99999,9",,,,"MET055METAR EGWC 031550Z 17008KT 9999 OVC022 03/01 Q1006 WHT;",
"03414599999","2010-02-04T07:50:00","4","52.640028","-2.305578","82.9","COSFORD, UK","FM-15","EGWC ","V020","100,1,N,0021,1","00060,1,C,N","001200,1,N,1","+0030,1","+0030,1","99999,9","07,5,+00060,1,99,9",,,"07,99,1,99,9,99,9,99999,9,99,9,99,9","10051,1,99999,9","10,1",,,"MET058METAR EGWC 040750Z 10004KT 1200 BR BKN002 03/03 Q1005 AMB;",
"03414599999","2010-02-04T08:50:00","4","52.640028","-2.305578","82.9","COSFORD, UK","FM-15","EGWC ","V020","110,1,N,0031,1","00120,1,C,N","001500,1,N,1","+0050,1","+0040,1","99999,9","07,5,+00120,1,99,9","08,5,+00180,1,99,9",,"08,99,1,99,9,99,9,99999,9,99,9,99,9","10041,1,99999,9","10,1",,,"MET065METAR EGWC 040850Z 11006KT 1500 BR BKN004 OVC006 05/04 Q1004 AMB;",
"03414599999","2010-02-04T10:50:00","4","52.640028","-2.305578","82.9","COSFORD, UK","FM-15","EGWC ","V020","170,1,N,0051,1","00240,1,C,N","007000,1,N,1","+0070,1","+0060,1","99999,9","02,5,+00090,1,99,9","04,5,+00240,1,99,9","07,5,+00660,1,99,9","07,99,1,99,9,99,9,99999,9,99,9,99,9","10041,1,99999,9","05,1",,,"MET072METAR EGWC 041050Z 17010KT 7000 HZ FEW003 SCT008 BKN022 07/06 Q1004 GRN;",
"03414599999","2010-02-04T11:50:00","4","52.640028","-2.305578","82.9","COSFORD, UK","FM-15","EGWC ","V020","170,1,N,0041,1","00270,1,C,N","008000,1,N,1","+0080,1","+0060,1","99999,9","02,5,+00120,1,99,9","04,5,+00270,1,99,9","07,5,+00900,1,99,9","07,99,1,99,9,99,9,99999,9,99,9,99,9","10041,1,99999,9","05,1",,,"MET072METAR EGWC 041150Z 17008KT 8000 HZ FEW004 SCT009 BKN030 08/06 Q1004 GRN;",
"03414599999","2010-02-04T12:50:00","4","52.640028","-2.305578","82.9","COSFORD, UK","FM-15","EGWC ","V020","170,1,N,0072,1","00300,1,C,N","011265,1,N,1","+0080,1","+0070,1","99999,9","02,5,+00120,1,99,9","07,5,+00300,1,99,9",,"07,99,1,99,9,99,9,99999,9,99,9,99,9","10031,1,99999,9",,,,"MET062METAR EGWC 041250Z 17014KT 9999 FEW004 BKN010 08/07 Q1003 GRN;",
"03414599999","2010-02-04T13:50:00","4","52.640028","-2.305578","82.9","COSFORD, UK","FM-15","EGWC ","V020","150,1,N,0062,1","00300,1,C,N","007000,1,N,1","+0080,1","+0070,1","99999,9","04,5,+00240,1,99,9","07,5,+00300,1,99,9",,"07,99,1,99,9,99,9,99999,9,99,9,99,9","10020,1,99999,9","61,1",,,"MET066METAR EGWC 041350Z 15012KT 7000 -RA SCT008 BKN010 08/07 Q1002 GRN;",
"03414599999","2010-02-04T14:20:00","4","52.640028","-2.305578","82.9","COSFORD, UK","FM-15","EGWC ","V020","160,1,N,0051,1","00240,1,C,N","002200,1,N,1","+0080,1","+0070,1","99999,9","04,5,+00180,1,99,9","07,5,+00240,1,99,9","08,5,+00300,1,99,9","08,99,1,99,9,99,9,99999,9,99,9,99,9","10020,1,99999,9","61,1",,,"MET074METAR EGWC 041420Z 16010KT 2200 -RA SCT006 BKN008 OVC010 08/07 Q1002 YLO2;",
"03414599999","2010-02-05T07:50:00","4","52.640028","-2.305578","82.9","COSFORD, UK","FM-15","EGWC ","V020","999,9,C,0000,1","01800,1,C,N","002500,1,N,1","+0050,1","+0040,1","99999,9","02,5,+00300,1,99,9","07,5,+01800,1,99,9",,"07,99,1,99,9,99,9,99999,9,99,9,99,9","09970,1,99999,9","12,1",,,"MET068METAR EGWC 050750Z 00000KT 2500 MIFG FEW010 BKN060 05/04 Q0997 YLO1;",
"03414599999","2010-02-05T08:50:00","4","52.640028","-2.305578","82.9","COSFORD, UK","FM-15","EGWC ","V020","999,9,C,0000,1","01800,1,C,N","002200,1,N,1","+0040,1","+0030,1","99999,9","02,5,+00450,1,99,9","07,5,+01800,1,99,9",,"07,99,1,99,9,99,9,99999,9,99,9,99,9","09980,1,99999,9","10,1",,,"MET066METAR EGWC 050850Z 00000KT 2200 BR FEW015 BKN060 04/03 Q0998 YLO2;",
"03414599999","2010-02-05T09:50:00","4","52.640028","-2.305578","82.9","COSFORD, UK","FM-15","EGWC ","V020","180,1,N,0021,1","00015,1,C,N","001200,1,N,1","+0040,1","+0030,1","99999,9","09,1,+00015,1,99,9",,,"09,99,1,99,9,99,9,00025,1,99,9,99,9","09980,1,99999,9","10,1",,,"MET057METAR EGWC 050950Z 18004KT 1200 BR VV/// 04/03 Q0998 RED;",
"03414599999","2010-02-05T10:20:00","4","52.640028","-2.305578","82.9","COSFORD, UK","FM-15","EGWC ","V020","160,1,N,0021,1","00090,1,C,N","002500,1,N,1","+0050,1","+0050,1","99999,9","07,5,+00090,1,99,9",,,"07,99,1,99,9,99,9,99999,9,99,9,99,9","09980,1,99999,9","10,1",,,"MET059METAR EGWC 051020Z 16004KT 2500 BR BKN003 05/05 Q0998 YLO2;",
"03414599999","2010-02-05T10:50:00","4","52.640028","-2.305578","82.9","COSFORD, UK","FM-15","EGWC ","V020","180,1,N,0031,1","00360,1,C,N","004000,1,N,1","+0060,1","+0050,1","99999,9","04,5,+00180,1,99,9","07,5,+00360,1,99,9",,"07,99,1,99,9,99,9,99999,9,99,9,99,9","09990,1,99999,9","10,1",,,"MET066METAR EGWC 051050Z 18006KT 4000 BR SCT006 BKN012 06/05 Q0999 YLO1;",
"03414599999","2010-02-05T11:15:00","4","52.640028","-2.305578","82.9","COSFORD, UK","FM-15","EGWC ","V020","999,9,C,0000,1","00300,1,C,N","004500,1,N,1","+0080,1","+0050,1","99999,9","07,5,+00300,1,99,9",,,"07,99,1,99,9,99,9,99999,9,99,9,99,9","09990,1,99999,9","10,1",,,"MET058METAR EGWC 051115Z 00000KT 4500 BR BKN010 08/05 Q0999 GRN;",
"03414599999","2010-02-05T11:50:00","4","52.640028","-2.305578","82.9","COSFORD, UK","FM-15","EGWC ","V020","150,1,N,0026,1","00300,1,C,N","007000,1,N,1","+0070,1","+0050,1","99999,9","07,5,+00300,1,99,9",,,"07,99,1,99,9,99,9,99999,9,99,9,99,9","09990,1,99999,9","05,1",,,"MET058METAR EGWC 051150Z 15005KT 7000 HZ BKN010 07/05 Q0999 GRN;",
"03414599999","2010-02-05T12:50:00","4","52.640028","-2.305578","82.9","COSFORD, UK","FM-15","EGWC ","V020","210,1,N,0031,1","01500,1,C,N","011265,1,N,1","+0080,1","+0060,1","99999,9","04,5,+00300,1,99,9","07,5,+01500,1,99,9",,"07,99,1,99,9,99,9,99999,9,99,9,99,9","09990,1,99999,9",,,,"MET062METAR EGWC 051250Z 21006KT 9999 SCT010 BKN050 08/06 Q0999 GRN;",
"03414599999","2010-02-05T13:50:00","4","52.640028","-2.305578","82.9","COSFORD, UK","FM-15","EGWC ","V020","200,1,N,0031,1","06600,1,C,N","011265,1,N,1","+0090,1","+0050,1","99999,9","04,5,+00450,1,99,9","07,5,+06600,1,99,9",,"07,99,1,99,9,99,9,99999,9,99,9,99,9","09990,1,99999,9",,,,"MET062METAR EGWC 051350Z 20006KT 9999 SCT015 BKN220 09/05 Q0999 WHT;",
"03414599999","2010-02-05T14:50:00","4","52.640028","-2.305578","82.9","COSFORD, UK","FM-15","EGWC ","V020","140,1,N,0051,1","22000,1,9,N","011265,1,N,1","+0090,1","+0050,1","99999,9","04,5,+00600,1,99,9",,,"04,99,1,99,9,99,9,99999,9,99,9,99,9","10000,1,99999,9",,,,"MET055METAR EGWC 051450Z 14010KT 9999 SCT020 09/05 Q1000 WHT;",
"03414599999","2010-02-05T15:50:00","4","52.640028","-2.305578","82.9","COSFORD, UK","FM-15","EGWC ","V020","150,1,N,0031,1","22000,1,9,N","011265,1,N,1","+0090,1","+0050,1","99999,9","02,5,+00840,1,99,9",,,"02,99,1,99,9,99,9,99999,9,99,9,99,9","10000,1,99999,9",,,,"MET055METAR EGWC 051550Z 15006KT 9999 FEW028 09/05 Q1000 BLU;",
"03414599999","2010-02-07T08:50:00","4","52.640028","-2.305578","82.9","COSFORD, UK","FM-15","EGWC ","V020","020,1,N,0021,1","00120,1,C,N","003000,1,N,1","+0040,1","+0030,1","99999,9","07,5,+00120,1,99,9","08,5,+00210,1,99,9",,"08,99,1,99,9,99,9,99999,9,99,9,99,9","10251,1,99999,9","10,1",,,"MET066METAR EGWC 070850Z 02004KT 3000 BR BKN004 OVC007 04/03 Q1025 YLO1;",
"03414599999","2010-02-07T09:50:00","4","52.640028","-2.305578","82.9","COSFORD, UK","FM-15","EGWC ","V020","010,1,N,0031,1","00240,1,C,N","003000,1,N,1","+0030,1","+0020,1","99999,9","02,5,+00120,1,99,9","04,5,+00240,1,99,9","08,5,+00330,1,99,9","08,99,1,99,9,99,9,99999,9,99,9,99,9","10251,1,99999,9","10,1",,,"MET073METAR EGWC 070950Z 01006KT 3000 BR FEW004 SCT008 OVC011 03/02 Q1025 YLO1;",
"03414599999","2010-02-07T10:50:00","4","52.640028","-2.305578","82.9","COSFORD, UK","FM-15","EGWC ","V020","040,1,N,0031,1","00240,1,C,N","003700,1,N,1","+0030,1","+0020,1","99999,9","02,5,+00120,1,99,9","04,5,+00240,1,99,9","08,5,+00420,1,99,9","08,99,1,99,9,99,9,99999,9,99,9,99,9","10251,1,99999,9","10,1",,,"MET072METAR EGWC 071050Z 04006KT 3700 BR FEW004 SCT008 OVC014 03/02 Q1025 GRN;",
"03414599999","2010-02-07T11:50:00","4","52.640028","-2.305578","82.9","COSFORD, UK","FM-15","EGWC ","V020","999,9,C,0000,1","00420,1,C,N","004000,1,N,1","+0030,1","+0020,1","99999,9","04,5,+00240,1,99,9","07,5,+00420,1,99,9",,"07,99,1,99,9,99,9,99999,9,99,9,99,9","10251,1,99999,9","10,1",,,"MET065METAR EGWC 071150Z 00000KT 4000 BR SCT008 BKN014 03/02 Q1025 GRN;",
"03414599999","2010-02-10T07:50:00","4","52.640028","-2.305578","82.9","COSFORD, UK","FM-15","EGWC ","V020","330,1,N,0051,1","00690,1,C,N","011265,1,N,1","+0010,1","-0020,1","99999,9","07,5,+00690,1,99,9",,,"07,99,1,99,9,99,9,99999,9,99,9,99,9","10180,1,99999,9",,,,"MET056METAR EGWC 100750Z 33010KT 9999 BKN023 01/M02 Q1018 WHT;",
"03414599999","2010-02-10T08:50:00","4","52.640028","-2.305578","82.9","COSFORD, UK","FM-15","EGWC ","V020","350,1,N,0051,1","22000,1,9,N","011265,1,N,1","+0020,1","-0010,1","99999,9","02,5,+00750,1,99,9",,,"02,99,1,99,9,99,9,99999,9,99,9,99,9","10190,1,99999,9",,,,"MET056METAR EGWC 100850Z 35010KT 9999 FEW025 02/M01 Q1019 BLU;",
"03414599999","2010-02-10T09:50:00","4","52.640028","-2.305578","82.9","COSFORD, UK","FM-15","EGWC ","V020","360,1,N,0051,1","22000,1,9,N","011265,1,N,1","+0020,1","-0010,1","99999,9","02,5,+00750,1,99,9",,,"02,99,1,99,9,99,9,99999,9,99,9,99,9","10190,1,99999,9",,,,"MET056METAR EGWC 100950Z 36010KT 9999 FEW025 02/M01 Q1019 BLU;",
"03414599999","2010-02-10T10:50:00","4","52.640028","-2.305578","82.9","COSFORD, UK","FM-15","EGWC ","V020","050,1,N,0051,1","22000,1,9,N","011265,1,N,1","+0030,1","-0010,1","99999,9","02,5,+00600,1,99,9",,,"02,99,1,99,9,99,9,99999,9,99,9,99,9","10200,1,99999,9",,,,"MET056METAR EGWC 101050Z 05010KT 9999 FEW020 03/M01 Q1020 BLU;",
"03414599999","2010-02-10T11:50:00","4","52.640028","-2.305578","82.9","COSFORD, UK","FM-15","EGWC ","V020","020,1,N,0051,1","22000,1,9,N","011265,1,N,1","+0040,1","-0040,1","99999,9","04,5,+00750,1,99,9",,,"04,99,1,99,9,99,9,99999,9,99,9,99,9","10200,1,99999,9",,,,"MET056METAR EGWC 101150Z 02010KT 9999 SCT025 04/M04 Q1020 BLU;",
"03414599999","2010-02-10T12:50:00","4","52.640028","-2.305578","82.9","COSFORD, UK","FM-15","EGWC ","V020","050,1,N,0062,1","22000,1,9,N","011265,1,N,1","+0040,1","-0010,1","99999,9","02,5,+00750,1,99,9",,,"02,99,1,99,9,99,9,99999,9,99,9,99,9","10200,1,99999,9",,,,"MET056METAR EGWC 101250Z 05012KT 9999 FEW025 04/M01 Q1020 BLU;",
"03414599999","2010-02-10T13:50:00","4","52.640028","-2.305578","82.9","COSFORD, UK","FM-15","EGWC ","V020","050,1,N,0103,1","00600,1,C,N","003000,1,N,1","+0020,1","-0030,1","99999,9","07,5,+00600,1,99,9",,,"07,99,1,99,9,99,9,99999,9,99,9,99,9","10200,1,99999,9","85,5",,,"MET063METAR EGWC 101350Z 05020KT 3000 -SHSN BKN020 02/M03 Q1020 YLO1;",
"03414599999","2010-02-10T14:18:00","4","52.640028","-2.305578","82.9","COSFORD, UK","FM-15","EGWC ","V020","050,1,N,0051,1","22000,1,9,N","011265,1,N,1","+0020,1","-0030,1","99999,9","04,5,+00750,1,99,9",,,"04,99,1,99,9,99,9,99999,9,99,9,99,9","10200,1,99999,9",,,,"MET056METAR EGWC 101418Z 05010KT 9999 SCT025 02/M03 Q1020 BLU;",
"03414599999","2010-02-10T14:50:00","4","52.640028","-2.305578","82.9","COSFORD, UK","FM-15","EGWC ","V020","050,1,N,0062,1","00750,1,C,N","011265,1,N,1","+0030,1","-0030,1","99999,9","04,5,+00600,1,99,9","07,5,+00750,1,99,9",,"07,99,1,99,9,99,9,99999,9,99,9,99,9","10200,1,99999,9",,,,"MET063METAR EGWC 101450Z 05012KT 9999 SCT020 BKN025 03/M03 Q1020 WHT;",
"03414599999","2010-02-10T15:50:00","4","52.640028","-2.305578","82.9","COSFORD, UK","FM-15","EGWC ","V020","050,1,N,0041,1","22000,1,9,N","011265,1,N,1","+0020,1","-0030,1","99999,9","02,5,+00750,1,99,9",,,"02,99,1,99,9,99,9,99999,9,99,9,99,9","10210,1,99999,9",,,,"MET056METAR EGWC 101550Z 05008KT 9999 FEW025 02/M03 Q1021 BLU;",
"03414599999","2010-02-11T07:50:00","4","52.640028","-2.305578","82.9","COSFORD, UK","FM-15","EGWC ","V020","340,1,N,0051,1","01050,1,C,N","011265,1,N,1","-0010,1","-0010,1","99999,9","07,5,+01050,1,99,9",,,"07,99,1,99,9,99,9,99999,9,99,9,99,9","10240,1,99999,9",,,,"MET057METAR EGWC 110750Z 34010KT 9999 BKN035 M01/M01 Q1024 BLU;",
"03414599999","2010-02-11T08:50:00","4","52.640028","-2.305578","82.9","COSFORD, UK","FM-15","EGWC ","V020","350,1,N,0051,1","01380,1,C,N","011265,1,N,1","-0010,1","-0010,1","99999,9","07,5,+01380,1,99,9",,,"07,99,1,99,9,99,9,99999,9,99,9,99,9","10251,1,99999,9",,,,"MET057METAR EGWC 110850Z 35010KT 9999 BKN046 M01/M01 Q1025 BLU;",
"03414599999","2010-02-11T09:50:00","4","52.640028","-2.305578","82.9","COSFORD, UK","FM-15","EGWC ","V020","340,1,N,0041,1","22000,1,9,N","011265,1,N,1","+0000,1","+0000,1","99999,9","02,5,+00900,1,99,9",,,"02,99,1,99,9,99,9,99999,9,99,9,99,9","10251,1,99999,9",,,,"MET057METAR EGWC 110950Z 34008KT 9999 FEW030 M00/M00 Q1025 BLU;",
"03414599999","2010-02-11T10:50:00","4","52.640028","-2.305578","82.9","COSFORD, UK","FM-15","EGWC ","V020","340,1,N,0051,1","99999,9,9,Y","009900,1,N,1","+0010,1","+0010,1","99999,9",,,,,"10251,1,99999,9",,,,"MET049METAR EGWC 111050Z 34010KT CAVOK 01/01 Q1025 BLU;",
"03414599999","2010-02-11T11:50:00","4","52.640028","-2.305578","82.9","COSFORD, UK","FM-15","EGWC ","V020","340,1,N,0051,1","22000,1,9,N","011265,1,N,1","+0030,1","+0010,1","99999,9","04,5,+00750,1,99,9",,,"04,99,1,99,9,99,9,99999,9,99,9,99,9","10251,1,99999,9",,,,"MET055METAR EGWC 111150Z 34010KT 9999 SCT025 03/01 Q1025 BLU;",
"03414599999","2010-02-11T12:50:00","4","52.640028","-2.305578","82.9","COSFORD, UK","FM-15","EGWC ","V020","350,1,N,0051,1","22000,1,9,N","011265,1,N,1","+0030,1","-0040,1","99999,9","02,5,+01050,1,99,9",,,"02,99,1,99,9,99,9,99999,9,99,9,99,9","10251,1,99999,9",,,,"MET056METAR EGWC 111250Z 35010KT 9999 FEW035 03/M04 Q1025 BLU;",
"03414599999","2010-02-11T13:50:00","4","52.640028","-2.305578","82.9","COSFORD, UK","FM-15","EGWC ","V020","350,1,N,0051,1","22000,1,9,N","011265,1,N,1","+0030,1","-0040,1","99999,9","02,5,+01050,1,99,9",,,"02,99,1,99,9,99,9,99999,9,99,9,99,9","10251,1,99999,9",,,,"MET056METAR EGWC 111350Z 35010KT 9999 FEW035 03/M04 Q1025 BLU;",
"03414599999","2010-02-11T14:50:00","4","52.640028","-2.305578","82.9","COSFORD, UK","FM-15","EGWC ","V020","340,1,N,0051,1","22000,1,9,N","011265,1,N,1","+0020,1","-0020,1","99999,9","02,5,+01050,1,99,9",,,"02,99,1,99,9,99,9,99999,9,99,9,99,9","10240,1,99999,9",,,,"MET056METAR EGWC 111450Z 34010KT 9999 FEW035 02/M02 Q1024 BLU;",
"03414599999","2010-02-11T15:50:00","4","52.640028","-2.305578","82.9","COSFORD, UK","FM-15","EGWC ","V020","320,1,N,0051,1","99999,9,9,Y","009900,1,N,1","+0050,1","-0060,1","99999,9",,,,,"10240,1,99999,9",,,,"MET050METAR EGWC 111550Z 32010KT CAVOK 05/M06 Q1024 BLU;",
"03414599999","2010-02-12T07:50:00","4","52.640028","-2.305578","82.9","COSFORD, UK","FM-15","EGWC ","V020","340,1,N,0041,1","00900,1,C,N","011265,1,N,1","+0020,1","-0010,1","99999,9","07,5,+00900,1,99,9",,,"07,99,1,99,9,99,9,99999,9,99,9,99,9","10251,1,99999,9",,,,"MET056METAR EGWC 120750Z 34008KT 9999 BKN030 02/M01 Q1025 BLU;",
"03414599999","2010-02-12T08:50:00","4","52.640028","-2.305578","82.9","COSFORD, UK","FM-15","EGWC ","V020","340,1,N,0041,1","01800,1,C,N","011265,1,N,1","+0020,1","+0000,1","99999,9","04,5,+00900,1,99,9","07,5,+01800,1,99,9",,"07,99,1,99,9,99,9,99999,9,99,9,99,9","10251,1,99999,9",,,,"MET063METAR EGWC 120850Z 34008KT 9999 SCT030 BKN060 02/M00 Q1025 BLU;",
"03414599999","2010-02-12T09:50:00","4","52.640028","-2.305578","82.9","COSFORD, UK","FM-15","EGWC ","V020","350,1,N,0041,1","01800,1,C,N","011265,1,N,1","+0030,1","+0000,1","99999,9","04,5,+00900,1,99,9","07,5,+01800,1,99,9",,"07,99,1,99,9,99,9,99999,9,99,9,99,9","10251,1,99999,9",,,,"MET062METAR EGWC 120950Z 35008KT 9999 SCT030 BKN060 03/00 Q1025 BLU;",
"03414599999","2010-02-12T10:50:00","4","52.640028","-2.305578","82.9","COSFORD, UK","FM-15","EGWC ","V020","360,1,N,0051,1","99999,9,C,N","011265,1,N,1","+0040,1","+0010,1","99999,9","02,5,+00240,1,99,9","04,5,+00900,1,99,9",,"04,99,1,99,9,99,9,99999,9,99,9,99,9","10251,1,99999,9",,,,"MET062METAR EGWC 121050Z 36010KT 9999 FEW008 SCT030 04/01 Q1025 BLU;","P01 009003SCOCIG"
"03414599999","2010-02-12T11:50:00","4","52.640028","-2.305578","82.9","COSFORD, UK","FM-15","EGWC ","V020","010,1,N,0062,1","00900,1,C,N","011265,1,N,1","+0050,1","+0010,1","99999,9","04,5,+00540,1,99,9","07,5,+00900,1,99,9",,"07,99,1,99,9,99,9,99999,9,99,9,99,9","10251,1,99999,9",,,,"MET062METAR EGWC 121150Z 01012KT 9999 SCT018 BKN030 05/01 Q1025 WHT;",
"03414599999","2010-02-12T12:50:00","4","52.640028","-2.305578","82.9","COSFORD, UK","FM-15","EGWC ","V020","360,1,N,0041,1","00900,1,C,N","011265,1,N,1","+0050,1","+0010,1","99999,9","04,5,+00540,1,99,9","07,5,+00900,1,99,9",,"07,99,1,99,9,99,9,99999,9,99,9,99,9","10251,1,99999,9",,,,"MET062METAR EGWC 121250Z 36008KT 9999 SCT018 BKN030 05/01 Q1025 WHT;",
"03414599999","2010-02-12T13:50:00","4","52.640028","-2.305578","82.9","COSFORD, UK","FM-15","EGWC ","V020","360,1,N,0051,1","00540,1,C,N","011265,1,N,1","+0050,1","+0020,1","99999,9","07,5,+00540,1,99,9",,,"07,99,1,99,9,99,9,99999,9,99,9,99,9","10251,1,99999,9","80,1",,,"MET061METAR EGWC 121350Z 36010KT 9999 -SHRA BKN018 05/02 Q1025 WHT;",
"03414599999","2010-02-12T14:50:00","4","52.640028","-2.305578","82.9","COSFORD, UK","FM-15","EGWC ","V020","030,1,N,0062,1","00960,1,C,N","011265,1,N,1","+0060,1","+0010,1","99999,9","02,5,+00300,1,99,9","07,5,+00960,1,99,9",,"07,99,1,99,9,99,9,99999,9,99,9,99,9","10251,1,99999,9",,,,"MET062METAR EGWC 121450Z 03012KT 9999 FEW010 BKN032 06/01 Q1025 BLU;",
"03414599999","2010-02-12T15:50:00","4","52.640028","-2.305578","82.9","COSFORD, UK","FM-15","EGWC ","V020","010,1,N,0062,1","99999,9,C,N","011265,1,N,1","+0060,1","+0010,1","99999,9","02,5,+00240,1,99,9","04,5,+00780,1,99,9",,"04,99,1,99,9,99,9,99999,9,99,9,99,9","10251,1,99999,9",,,,"MET062METAR EGWC 121550Z 01012KT 9999 FEW008 SCT026 06/01 Q1025 BLU;","P01 007803SCOCIG"
"03414599999","2010-02-13T08:50:00","4","52.640028","-2.305578","82.9","COSFORD, UK","FM-15","EGWC ","V020","010,1,N,0021,1","01350,1,C,N","011265,1,N,1","+0010,1","-0010,1","99999,9","04,5,+00840,1,99,9","07,5,+01350,1,99,9",,"07,99,1,99,9,99,9,99999,9,99,9,99,9","10261,1,99999,9",,,,"MET063METAR EGWC 130850Z 01004KT 9999 SCT028 BKN045 01/M01 Q1026 BLU;",
"03414599999","2010-02-13T09:30:00","4","52.640028","-2.305578","82.9","COSFORD, UK","FM-15","EGWC ","V020","010,1,N,0021,1","00900,1,C,N","011265,1,N,1","+0010,1","-0010,1","99999,9","04,5,+00180,1,99,9","07,5,+00900,1,99,9",,"07,99,1,99,9,99,9,99999,9,99,9,99,9","10261,1,99999,9","10,1",,,"MET072METAR EGWC 130930Z 01004KT 9999 3600S BR SCT006 BKN030 01/M01 Q1026 BLU;",
"03414599999","2010-02-13T09:50:00","4","52.640028","-2.305578","82.9","COSFORD, UK","FM-15","EGWC ","V020","360,1,N,0026,1","01050,1,C,N","011265,1,N,1","+0010,1","-0010,1","99999,9","04,5,+00360,1,99,9","07,5,+01050,1,99,9",,"07,99,1,99,9,99,9,99999,9,99,9,99,9","10261,1,99999,9",,,,"MET063METAR EGWC 130950Z 36005KT 9999 SCT012 BKN035 01/M01 Q1026 GRN;",
"03414599999","2010-02-13T10:50:00","4","52.640028","-2.305578","82.9","COSFORD, UK","FM-15","EGWC ","V020","330,1,N,0026,1","01200,1,C,N","011265,1,N,1","+0020,1","+0000,1","99999,9","02,5,+00240,1,99,9","07,5,+01200,1,99,9",,"07,99,1,99,9,99,9,99999,9,99,9,99,9","10261,1,99999,9",,,,"MET063METAR EGWC 131050Z 33005KT 9999 FEW008 BKN040 02/M00 Q1026 BLU;",
"03414599999","2010-02-13T11:50:00","4","52.640028","-2.305578","82.9","COSFORD, UK","FM-15","EGWC ","V020","010,1,N,0051,1","01200,1,C,N","011265,1,N,1","+0040,1","-0010,1","99999,9","02,5,+00240,1,99,9","07,5,+01200,1,99,9",,"07,99,1,99,9,99,9,99999,9,99,9,99,9","10251,1,99999,9",,,,"MET063METAR EGWC 131150Z 01010KT 9999 FEW008 BKN040 04/M01 Q1025 BLU;",
"03414599999","2010-02-13T13:50:00","4","52.640028","-2.305578","82.9","COSFORD, UK","FM-15","EGWC ","V020","360,1,N,0041,1","00780,1,C,N","011265,1,N,1","+0050,1","-0010,1","99999,9","07,5,+00780,1,99,9",,,"07,99,1,99,9,99,9,99999,9,99,9,99,9","10240,1,99999,9",,,,"MET056METAR EGWC 131350Z 36008KT 9999 BKN026 05/M01 Q1024 BLU;",
"03414599999","2010-02-13T14:50:00","4","52.640028","-2.305578","82.9","COSFORD, UK","FM-15","EGWC ","V020","010,1,N,0041,1","00780,1,C,N","011265,1,N,1","+0050,1","-0010,1","99999,9","07,5,+00780,1,99,9",,,"07,99,1,99,9,99,9,99999,9,99,9,99,9","10230,1,99999,9",,,,"MET056METAR EGWC 131450Z 01008KT 9999 BKN026 05/M01 Q1023 BLU;",
"03414599999","2010-02-15T07:50:00","4","52.640028","-2.305578","82.9","COSFORD, UK","FM-15","EGWC ","V020","190,1,N,0021,1","00240,1,C,N","002500,1,N,1","+0030,1","+0020,1","99999,9","02,5,+00120,1,99,9","07,5,+00240,1,99,9",,"07,99,1,99,9,99,9,99999,9,99,9,99,9","10071,1,99999,9","51,1","61,1",,"MET069METAR EGWC 150750Z 19004KT 2500 -RADZ FEW004 BKN008 03/02 Q1007 YLO1;",
"03414599999","2010-02-15T08:50:00","4","52.640028","-2.305578","82.9","COSFORD, UK","FM-15","EGWC ","V020","190,1,N,0021,1","00240,1,C,N","002500,1,N,1","+0030,1","+0020,1","99999,9","02,5,+00120,1,99,9","07,5,+00240,1,99,9",,"07,99,1,99,9,99,9,99999,9,99,9,99,9","10071,1,99999,9","51,1","61,1",,"MET069METAR EGWC 150850Z 19004KT 2500 -RADZ FEW004 BKN008 03/02 Q1007 YLO1;",
"03414599999","2010-02-15T09:50:00","4","52.640028","-2.305578","82.9","COSFORD, UK","FM-15","EGWC ","V020","190,1,N,0021,1","00180,1,C,N","002500,1,N,1","+0040,1","+0030,1","99999,9","02,5,+00060,1,99,9","07,5,+00180,1,99,9",,"07,99,1,99,9,99,9,99999,9,99,9,99,9","10061,1,99999,9","10,1",,,"MET066METAR EGWC 150950Z 19004KT 2500 BR FEW002 BKN006 04/03 Q1006 YLO1;",
"03414599999","2010-02-15T10:50:00","4","52.640028","-2.305578","82.9","COSFORD, UK","FM-15","EGWC ","V020","180,1,N,0031,1","01050,1,C,N","006000,1,N,1","+0040,1","+0030,1","99999,9","04,5,+00240,1,99,9","07,5,+01050,1,99,9",,"07,99,1,99,9,99,9,99999,9,99,9,99,9","10051,1,99999,9","05,1",,,"MET065METAR EGWC 151050Z 18006KT 6000 HZ SCT008 BKN035 04/03 Q1005 GRN;",
"03414599999","2010-02-15T11:50:00","4","52.640028","-2.305578","82.9","COSFORD, UK","FM-15","EGWC ","V020","170,1,N,0026,1","01800,1,C,N","011265,1,N,1","+0050,1","+0040,1","99999,9","04,5,+00330,1,99,9","07,5,+01800,1,99,9",,"07,99,1,99,9,99,9,99999,9,99,9,99,9","10051,1,99999,9",,,,"MET062METAR EGWC 151150Z 17005KT 9999 SCT011 BKN060 05/04 Q1005 GRN;",
"03414599999","2010-02-15T12:50:00","4","52.640028","-2.305578","82.9","COSFORD, UK","FM-15","EGWC ","V020","180,1,N,0041,1","00450,1,C,N","011265,1,N,1","+0060,1","+0040,1","99999,9","02,5,+00330,1,99,9","04,5,+00450,1,99,9","07,5,+01800,1,99,9","07,99,1,99,9,99,9,99999,9,99,9,99,9","10041,1,99999,9",,,,"MET069METAR EGWC 151250Z 18008KT 9999 FEW011 SCT015 BKN060 06/04 Q1004 WHT;",
"03414599999","2010-02-15T13:50:00","4","52.640028","-2.305578","82.9","COSFORD, UK","FM-15","EGWC ","V020","210,1,N,0041,1","00600,1,C,N","011265,1,N,1","+0060,1","+0040,1","99999,9","02,5,+00180,1,99,9","07,5,+00600,1,99,9",,"07,99,1,99,9,99,9,99999,9,99,9,99,9","10020,1,99999,9",,,,"MET062METAR EGWC 151350Z 21008KT 9999 FEW006 BKN020 06/04 Q1002 WHT;",
"03414599999","2010-02-15T14:50:00","4","52.640028","-2.305578","82.9","COSFORD, UK","FM-15","EGWC ","V020","190,1,N,0041,1","00600,1,C,N","011265,1,N,1","+0070,1","+0040,1","99999,9","02,5,+00240,1,99,9","07,5,+00600,1,99,9",,"07,99,1,99,9,99,9,99999,9,99,9,99,9","10010,1,99999,9","16,1",,,"MET067METAR EGWC 151450Z 19008KT 9999 VCSH FEW008 BKN020 07/04 Q1001 WHT;",
"03414599999","2010-02-15T15:50:00","4","52.640028","-2.305578","82.9","COSFORD, UK","FM-15","EGWC ","V020","210,1,N,0031,1","00660,1,C,N","011265,1,N,1","+0060,1","+0040,1","99999,9","07,5,+00660,1,99,9",,,"07,99,1,99,9,99,9,99999,9,99,9,99,9","10010,1,99999,9","80,1",,,"MET061METAR EGWC 151550Z 21006KT 9999 -SHRA BKN022 06/04 Q1001 WHT;",
"03414599999","2010-02-16T07:50:00","4","52.640028","-2.305578","82.9","COSFORD, UK","FM-15","EGWC ","V020","190,1,N,0026,1","22000,1,9,N","011265,1,N,1","+0010,1","+0000,1","99999,9","02,5,+01050,1,99,9",,,"02,99,1,99,9,99,9,99999,9,99,9,99,9","09919,1,99999,9",,,,"MET055METAR EGWC 160750Z 19005KT 9999 FEW035 01/00 Q0992 BLU;",
"03414599999","2010-02-16T08:50:00","4","52.640028","-2.305578","82.9","COSFORD, UK","FM-15","EGWC ","V020","180,1,N,0026,1","22000,1,9,N","011265,1,N,1","+0020,1","+0010,1","99999,9","04,5,+01350,1,99,9",,,"04,99,1,99,9,99,9,99999,9,99,9,99,9","09919,1,99999,9",,,,"MET055METAR EGWC 160850Z 18005KT 9999 SCT045 02/01 Q0992 BLU;",
"03414599999","2010-02-16T09:50:00","4","52.640028","-2.305578","82.9","COSFORD, UK","FM-15","EGWC ","V020","190,1,N,0031,1","99999,9,C,N","011265,1,N,1","+0030,1","+0010,1","99999,9","02,5,+00900,1,99,9","04,5,+03000,1,99,9",,"04,99,1,99,9,99,9,99999,9,99,9,99,9","09909,1,99999,9",,,,"MET062METAR EGWC 160950Z 19006KT 9999 FEW030 SCT100 03/01 Q0991 BLU;","P01 030003SCOCIG"
"03414599999","2010-02-16T10:50:00","4","52.640028","-2.305578","82.9","COSFORD, UK","FM-15","EGWC ","V020","190,1,N,0041,1","99999,9,C,N","011265,1,N,1","+0050,1","+0010,1","99999,9","02,5,+00600,1,99,9","04,5,+01500,1,99,9",,"04,99,1,99,9,99,9,99999,9,99,9,99,9","09909,1,99999,9",,,,"MET062METAR EGWC 161050Z 19008KT 9999 FEW020 SCT050 05/01 Q0991 BLU;","P01 015003SCOCIG"
"03414599999","2010-02-16T11:50:00","4","52.640028","-2.305578","82.9","COSFORD, UK","FM-15","EGWC ","V020","190,1,N,0041,1","00600,1,C,N","011265,1,N,1","+0050,1","+0020,1","99999,9","07,5,+00600,1,99,9",,,"07,99,1,99,9,99,9,99999,9,99,9,99,9","09909,1,99999,9",,,,"MET055METAR EGWC 161150Z 19008KT 9999 BKN020 05/02 Q0991 WHT;",
"03414599999","2010-02-16T12:50:00","4","52.640028","-2.305578","82.9","COSFORD, UK","FM-15","EGWC ","V020","260,1,N,0031,1","22000,1,9,N","011265,1,N,1","+0050,1","+0000,1","99999,9","04,5,+00600,1,99,9",,,"04,99,1,99,9,99,9,99999,9,99,9,99,9","09909,1,99999,9",,,,"MET055METAR EGWC 161250Z 26006KT 9999 SCT020 05/00 Q0991 WHT;",
"03414599999","2010-02-16T13:50:00","4","52.640028","-2.305578","82.9","COSFORD, UK","FM-15","EGWC ","V020","200,1,N,0041,1","99999,9,C,N","011265,1,N,1","+0060,1","+0000,1","99999,9","02,5,+00450,1,99,9","04,5,+01050,1,99,9",,"04,99,1,99,9,99,9,99999,9,99,9,99,9","09898,1,99999,9","16,1",,,"MET067METAR EGWC 161350Z 20008KT 9999 VCSH FEW015 SCT035 06/00 Q0990 BLU;","P01 010503SCOCIG"
"03414599999","2010-02-16T14:50:00","4","52.640028","-2.305578","82.9","COSFORD, UK","FM-15","EGWC ","V020","250,1,N,0026,1","99999,9,C,N","011265,1,N,1","+0050,1","-0010,1","99999,9","02,5,+00600,1,99,9","04,5,+01050,1,99,9",,"04,99,1,99,9,99,9,99999,9,99,9,99,9","09898,1,99999,9",,,,"MET063METAR EGWC 161450Z 25005KT 9999 FEW020 SCT035 05/M01 Q0990 BLU;","P01 010503SCOCIG"
"03414599999","2010-02-16T15:50:00","4","52.640028","-2.305578","82.9","COSFORD, UK","FM-15","EGWC ","V020","999,9,C,0000,1","99999,9,C,N","011265,1,N,1","+0060,1","+0000,1","99999,9","02,5,+01050,1,99,9","04,5,+01800,1,99,9",,"04,99,1,99,9,99,9,99999,9,99,9,99,9","09892,1,99999,9",,,,"MET062METAR EGWC 161550Z 00000KT 9999 FEW035 SCT060 06/00 Q0989 BLU;","P01 018003SCOCIG"
"03414599999","2010-02-16T16:50:00","4","52.640028","-2.305578","82.9","COSFORD, UK","FM-15","EGWC ","V020","220,1,N,0031,1","22000,1,9,N","011265,1,N,1","+0050,1","+0010,1","99999,9","04,5,+01050,1,99,9",,,"04,99,1,99,9,99,9,99999,9,99,9,99,9","09892,1,99999,9",,,,"MET055METAR EGWC 161650Z 22006KT 9999 SCT035 05/01 Q0989 BLU;",
"03414599999","2010-02-17T07:50:00","4","52.640028","-2.305578","82.9","COSFORD, UK","FM-15","EGWC ","V020","360,1,N,0026,1","00150,1,C,N","002000,1,N,1","+0000,1","-0010,1","99999,9","07,5,+00150,1,99,9",,,"07,99,1,99,9,99,9,99999,9,99,9,99,9","09909,1,99999,9","10,1",,,"MET061METAR EGWC 170750Z 36005KT 2000 BR BKN005 M00/M01 Q0991 YLO2;",
"03414599999","2010-02-17T08:50:00","4","52.640028","-2.305578","82.9","COSFORD, UK","FM-15","EGWC ","V020","999,9,C,0000,1","00150,1,C,N","002000,1,N,1","+0000,1","-0010,1","99999,9","07,5,+00150,1,99,9",,,"07,99,1,99,9,99,9,99999,9,99,9,99,9","09909,1,99999,9","10,1",,,"MET061METAR EGWC 170850Z 00000KT 2000 BR BKN005 M00/M01 Q0991 YLO2;",
"03414599999","2010-02-17T09:50:00","4","52.640028","-2.305578","82.9","COSFORD, UK","FM-15","EGWC ","V020","999,9,C,0000,1","00150,1,C,N","003000,1,N,1","+0000,1","+0000,1","99999,9","07,5,+00150,1,99,9",,,"07,99,1,99,9,99,9,99999,9,99,9,99,9","09909,1,99999,9","10,1",,,"MET060METAR EGWC 170950Z 00000KT 3000 BR BKN005 00/M00 Q0991 YLO1;",
"03414599999","2010-02-17T10:50:00","4","52.640028","-2.305578","82.9","COSFORD, UK","FM-15","EGWC ","V020","080,1,N,0051,1","00150,1,C,N","004000,1,N,1","+0020,1","+0000,1","99999,9","07,5,+00150,1,99,9","08,5,+00300,1,99,9",,"08,99,1,99,9,99,9,99999,9,99,9,99,9","09909,1,99999,9","10,1",,,"MET066METAR EGWC 171050Z 08010KT 4000 BR BKN005 OVC010 02/00 Q0991 YLO1;",
"03414599999","2010-02-17T11:50:00","4","52.640028","-2.305578","82.9","COSFORD, UK","FM-15","EGWC ","V020","090,1,N,0026,1","00150,1,C,N","003600,1,N,1","+0020,1","+0010,1","99999,9","07,5,+00150,1,99,9",,,"07,99,1,99,9,99,9,99999,9,99,9,99,9","09909,1,99999,9","61,1",,,"MET060METAR EGWC 171150Z 09005KT 3600 -RA BKN005 02/01 Q0991 YLO1;",
"03414599999","2010-02-17T12:50:00","4","52.640028","-2.305578","82.9","COSFORD, UK","FM-15","EGWC ","V020","080,1,N,0026,1","00150,1,C,N","002200,1,N,1","+0020,1","+0010,1","99999,9","07,5,+00150,1,99,9",,,"07,99,1,99,9,99,9,99999,9,99,9,99,9","09909,1,99999,9","73,1",,,"MET059METAR EGWC 171250Z 08005KT 2200 SN BKN005 02/01 Q0991 YLO2;",
"03414599999","2010-02-17T13:50:00","4","52.640028","-2.305578","82.9","COSFORD, UK","FM-15","EGWC ","V020","080,1,N,0026,1","00150,1,C,N","003000,1,N,1","+0020,1","+0010,1","99999,9","08,5,+00150,1,99,9",,,"08,99,1,99,9,99,9,99999,9,99,9,99,9","09909,1,99999,9","63,1",,,"MET059METAR EGWC 171350Z 08005KT 3000 RA OVC005 02/01 Q0991 YLO1;",
"03414599999","2010-02-17T14:50:00","4","52.640028","-2.305578","82.9","COSFORD, UK","FM-15","EGWC ","V020","999,9,C,0000,1","00150,1,C,N","001800,1,N,1","+0010,1","+0000,1","99999,9","08,5,+00150,1,99,9",,,"08,99,1,99,9,99,9,99999,9,99,9,99,9","09909,1,99999,9","73,1",,,"MET059METAR EGWC 171450Z 00000KT 1800 SN OVC005 01/00 Q0991 YLO2;",
"03414599999","2010-02-20T07:50:00","4","52.640028","-2.305578","82.9","COSFORD, UK","FM-15","EGWC ","V020","999,9,C,0000,1","22000,1,9,N","011265,1,N,1","-0010,1","-0020,1","99999,9","04,5,+00900,1,99,9",,,"04,99,1,99,9,99,9,99999,9,99,9,99,9","09970,1,99999,9",,,,"MET057METAR EGWC 200750Z 00000KT 9999 SCT030 M01/M02 Q0997 BLU;",
"03414599999","2010-02-20T09:50:00","4","52.640028","-2.305578","82.9","COSFORD, UK","FM-15","EGWC ","V020","999,9,C,0000,1","22000,1,9,N","011265,1,N,1","+0010,1","-0010,1","99999,9","04,1,+01050,1,99,9",,,"04,99,1,99,9,99,9,99999,9,99,9,99,9","09970,1,99999,9",,,,"MET055METAR EGWC 200950Z 00000KT 9999 SCT03501/M01 Q0997 BLU;",
"03414599999","2010-02-20T10:50:00","4","52.640028","-2.305578","82.9","COSFORD, UK","FM-15","EGWC ","V020","999,9,C,0000,1","01140,1,C,N","011265,1,N,1","+0010,1","+0000,1","99999,9","07,5,+01140,1,99,9",,,"07,99,1,99,9,99,9,99999,9,99,9,99,9","09970,1,99999,9",,,,"MET056METAR EGWC 201050Z 00000KT 9999 BKN038 01/M00 Q0997 BLU;",
"03414599999","2010-02-20T11:50:00","4","52.640028","-2.305578","82.9","COSFORD, UK","FM-15","EGWC ","V020","220,1,N,0026,1","22000,1,9,N","011265,1,N,1","+0030,1","+0000,1","99999,9","02,5,+00900,1,99,9",,,"02,99,1,99,9,99,9,99999,9,99,9,99,9","09970,1,99999,9",,,,"MET056METAR EGWC 201150Z 22005KT 9999 FEW030 03/M00 Q0997 BLU;",
"03414599999","2010-02-20T12:50:00","4","52.640028","-2.305578","82.9","COSFORD, UK","FM-15","EGWC ","V020","999,9,C,0000,1","00900,1,C,N","011265,1,N,1","+0040,1","+0010,1","99999,9","07,5,+00900,1,99,9",,,"07,99,1,99,9,99,9,99999,9,99,9,99,9","09970,1,99999,9",,,,"MET055METAR EGWC 201250Z 00000KT 9999 BKN030 04/01 Q0997 BLU;",
"03414599999","2010-02-20T13:50:00","4","52.640028","-2.305578","82.9","COSFORD, UK","FM-15","EGWC ","V020","999,9,C,0000,1","01200,1,C,N","011265,1,N,1","+0040,1","+0030,1","99999,9","07,5,+01200,1,99,9",,,"07,99,1,99,9,99,9,99999,9,99,9,99,9","09970,1,99999,9",,,,"MET055METAR EGWC 201350Z 00000KT 9999 BKN040 04/03 Q0997 BLU;",
"03414599999","2010-02-21T08:50:00","4","52.640028","-2.305578","82.9","COSFORD, UK","FM-15","EGWC ","V020","200,1,N,0021,1","00300,1,C,N","003500,1,N,1","+0010,1","+0000,1","99999,9","08,5,+00300,1,99,9",,,"08,99,1,99,9,99,9,99999,9,99,9,99,9","09898,1,99999,9","10,1",,,"MET059METAR EGWC 210850Z 20004KT 3500 BR OVC010 01/00 Q0990 YLO1;",
"03414599999","2010-02-21T09:50:00","4","52.640028","-2.305578","82.9","COSFORD, UK","FM-15","EGWC ","V020","190,1,N,0021,1","00600,1,C,N","011265,1,N,1","+0010,1","+0010,1","99999,9","02,5,+00300,1,99,9","07,5,+00600,1,99,9",,"07,99,1,99,9,99,9,99999,9,99,9,99,9","09898,1,99999,9",,,,"MET062METAR EGWC 210950Z 19004KT 9999 FEW010 BKN020 01/01 Q0990 WHT;",
"03414599999","2010-02-21T10:50:00","4","52.640028","-2.305578","82.9","COSFORD, UK","FM-15","EGWC ","V020","200,1,N,0026,1","01200,1,C,N","011265,1,N,1","+0020,1","+0010,1","99999,9","02,5,+00300,1,99,9","07,5,+01200,1,99,9",,"07,99,1,99,9,99,9,99999,9,99,9,99,9","09898,1,99999,9",,,,"MET062METAR EGWC 211050Z 20005KT 9999 FEW010 BKN040 02/01 Q0990 BLU;",
"03414599999","2010-02-21T11:50:00","4","52.640028","-2.305578","82.9","COSFORD, UK","FM-15","EGWC ","V020","240,1,N,0051,1","99999,9,C,N","011265,1,N,1","+0040,1","+0020,1","99999,9","02,5,+00360,1,99,9","04,5,+00840,1,99,9",,"04,99,1,99,9,99,9,99999,9,99,9,99,9","09898,1,99999,9",,,,"MET062METAR EGWC 211150Z 24010KT 9999 FEW012 SCT028 04/02 Q0990 BLU;","P01 008403SCOCIG"
"03414599999","2010-02-21T12:50:00","4","52.640028","-2.305578","82.9","COSFORD, UK","FM-15","EGWC ","V020","250,1,N,0031,1","00840,1,C,N","011265,1,N,1","+0060,1","+0000,1","99999,9","02,5,+00360,1,99,9","07,5,+00840,1,99,9",,"07,99,1,99,9,99,9,99999,9,99,9,99,9","09898,1,99999,9",,,,"MET062METAR EGWC 211250Z 25006KT 9999 FEW012 BKN028 06/00 Q0990 BLU;",
"03414599999","2010-02-22T07:50:00","4","52.640028","-2.305578","82.9","COSFORD, UK","FM-15","EGWC ","V020","040,1,N,0051,1","03000,1,C,N","011265,1,N,1","+0010,1","-0010,1","99999,9","02,5,+00300,1,99,9","07,5,+03000,1,99,9",,"07,99,1,99,9,99,9,99999,9,99,9,99,9","09882,1,99999,9",,,,"MET063METAR EGWC 220750Z 04010KT 9999 FEW010 BKN100 01/M01 Q0988 BLU;",
"03414599999","2010-02-22T08:50:00","4","52.640028","-2.305578","82.9","COSFORD, UK","FM-15","EGWC ","V020","050,1,N,0041,1","03000,1,C,N","011265,1,N,1","+0010,1","-0010,1","99999,9","04,5,+00360,1,99,9","07,5,+03000,1,99,9",,"07,99,1,99,9,99,9,99999,9,99,9,99,9","09882,1,99999,9",,,,"MET063METAR EGWC 220850Z 05008KT 9999 SCT012 BKN100 01/M01 Q0988 GRN;",
"03414599999","2010-02-22T09:50:00","4","52.640028","-2.305578","82.9","COSFORD, UK","FM-15","EGWC ","V020","050,1,N,0051,1","99999,9,C,N","011265,1,N,1","+0010,1","-0010,1","99999,9","02,5,+00360,1,99,9","04,5,+01500,1,99,9",,"04,99,1,99,9,99,9,99999,9,99,9,99,9","09871,1,99999,9",,,,"MET063METAR EGWC 220950Z 05010KT 9999 FEW012 SCT050 01/M01 Q0987 BLU;","P01 015003SCOCIG"
"03414599999","2010-02-22T10:50:00","4","52.640028","-2.305578","82.9","COSFORD, UK","FM-15","EGWC ","V020","050,1,N,0062,1","00450,1,C,N","011265,1,N,1","+0020,1","-0010,1","99999,9","07,5,+00450,1,99,9","07,5,+01500,1,99,9",,"07,99,1,99,9,99,9,99999,9,99,9,99,9","09882,1,99999,9",,,,"MET063METAR EGWC 221050Z 05012KT 9999 BKN015 BKN050 02/M01 Q0988 WHT;",
"03414599999","2010-02-22T11:50:00","4","52.640028","-2.305578","82.9","COSFORD, UK","FM-15","EGWC ","V020","060,1,N,0062,1","01800,1,C,N","011265,1,N,1","+0020,1","-0010,1","99999,9","04,5,+00450,1,99,9","07,5,+01800,1,99,9",,"07,99,1,99,9,99,9,99999,9,99,9,99,9","09882,1,99999,9",,,,"MET063METAR EGWC 221150Z 06012KT 9999 SCT015 BKN060 02/M01 Q0988 WHT;",
"03414599999","2010-02-22T12:50:00","4","52.640028","-2.305578","82.9","COSFORD, UK","FM-15","EGWC ","V020","040,1,N,0062,1","00540,1,C,N","011265,1,N,1","+0030,1","-0010,1","99999,9","07,5,+00540,1,99,9","07,5,+01800,1,99,9",,"07,99,1,99,9,99,9,99999,9,99,9,99,9","09882,1,99999,9",,,,"MET063METAR EGWC 221250Z 04012KT 9999 BKN018 BKN060 03/M01 Q0988 WHT;",
"03414599999","2010-02-22T13:50:00","4","52.640028","-2.305578","82.9","COSFORD, UK","FM-15","EGWC ","V020","050,1,N,0077,1","00660,1,C,N","011265,1,N,1","+0030,1","-0020,1","99999,9","07,5,+00660,1,99,9",,,"07,99,1,99,9,99,9,99999,9,99,9,99,9","09882,1,99999,9",,,,"MET056METAR EGWC 221350Z 05015KT 9999 BKN022 03/M02 Q0988 WHT;",
"03414599999","2010-02-22T14:50:00","4","52.640028","-2.305578","82.9","COSFORD, UK","FM-15","EGWC ","V020","050,1,N,0077,1","00750,1,C,N","011265,1,N,1","+0040,1","-0020,1","99999,9","07,5,+00750,1,99,9",,,"07,99,1,99,9,99,9,99999,9,99,9,99,9","09882,1,99999,9",,,,"MET056METAR EGWC 221450Z 05015KT 9999 BKN025 04/M02 Q0988 BLU;",
"03414599999","2010-02-22T15:50:00","4","52.640028","-2.305578","82.9","COSFORD, UK","FM-15","EGWC ","V020","040,1,N,0051,1","00840,1,C,N","011265,1,N,1","+0040,1","-0020,1","99999,9","07,5,+00840,1,99,9",,,"07,99,1,99,9,99,9,99999,9,99,9,99,9","09882,1,99999,9",,,,"MET056METAR EGWC 221550Z 04010KT 9999 BKN028 04/M02 Q0988 BLU;",
"03414599999","2010-02-23T07:50:00","4","52.640028","-2.305578","82.9","COSFORD, UK","FM-15","EGWC ","V020","090,1,N,0051,1","00750,1,C,N","011265,1,N,1","+0010,1","-0010,1","99999,9","07,5,+00750,1,99,9",,,"07,99,1,99,9,99,9,99999,9,99,9,99,9","09939,1,99999,9",,,,"MET056METAR EGWC 230750Z 09010KT 9999 BKN025 01/M01 Q0994 BLU;",
"03414599999","2010-02-23T08:50:00","4","52.640028","-2.305578","82.9","COSFORD, UK","FM-15","EGWC ","V020","090,1,N,0062,1","00750,1,C,N","011265,1,N,1","+0010,1","-0010,1","99999,9","02,5,+00540,1,99,9","07,5,+00750,1,99,9",,"07,99,1,99,9,99,9,99999,9,99,9,99,9","09939,1,99999,9",,,,"MET063METAR EGWC 230850Z 09012KT 9999 FEW018 BKN025 01/M01 Q0994 BLU;",
"03414599999","2010-02-23T09:50:00","4","52.640028","-2.305578","82.9","COSFORD, UK","FM-15","EGWC ","V020","090,1,N,0062,1","00750,1,C,N","011265,1,N,1","+0020,1","-0030,1","99999,9","07,5,+00750,1,99,9",,,"07,99,1,99,9,99,9,99999,9,99,9,99,9","09939,1,99999,9",,,,"MET056METAR EGWC 230950Z 09012KT 9999 BKN025 02/M03 Q0994 BLU;",
"03414599999","2010-02-23T10:50:00","4","52.640028","-2.305578","82.9","COSFORD, UK","FM-15","EGWC ","V020","090,1,N,0077,1","01050,1,C,N","011265,1,N,1","+0020,1","-0030,1","99999,9","02,5,+00540,1,99,9","07,5,+01050,1,99,9",,"07,99,1,99,9,99,9,99999,9,99,9,99,9","09939,1,99999,9",,,,"MET063METAR EGWC 231050Z 09015KT 9999 FEW018 BKN035 02/M03 Q0994 BLU;",
"03414599999","2010-02-23T11:50:00","4","52.640028","-2.305578","82.9","COSFORD, UK","FM-15","EGWC ","V020","080,1,N,0072,1","00750,1,C,N","011265,1,N,1","+0030,1","-0020,1","99999,9","02,5,+00540,1,99,9","04,5,+00750,1,99,9","07,5,+01800,1,99,9","07,99,1,99,9,99,9,99999,9,99,9,99,9","09929,1,99999,9",,,,"MET070METAR EGWC 231150Z 08014KT 9999 FEW018 SCT025 BKN060 03/M02 Q0993 BLU;",
"03414599999","2010-02-23T12:50:00","4","52.640028","-2.305578","82.9","COSFORD, UK","FM-15","EGWC ","V020","080,1,N,0062,1","00750,1,C,N","011265,1,N,1","+0030,1","-0020,1","99999,9","02,5,+00540,1,99,9","04,5,+00750,1,99,9","07,5,+01050,1,99,9","07,99,1,99,9,99,9,99999,9,99,9,99,9","09929,1,99999,9",,,,"MET070METAR EGWC 231250Z 08012KT 9999 FEW018 SCT025 BKN035 03/M02 Q0993 BLU;",
"03414599999","2010-02-23T13:50:00","4","52.640028","-2.305578","82.9","COSFORD, UK","FM-15","EGWC ","V020","100,1,N,0051,1","00660,1,C,N","011265,1,N,1","+0030,1","-0020,1","99999,9","07,5,+00660,1,99,9",,,"07,99,1,99,9,99,9,99999,9,99,9,99,9","09929,1,99999,9",,,,"MET056METAR EGWC 231350Z 10010KT 9999 BKN022 03/M02 Q0993 WHT;",
"03414599999","2010-02-23T14:50:00","4","52.640028","-2.305578","82.9","COSFORD, UK","FM-15","EGWC ","V020","090,1,N,0077,1","00660,1,C,N","006000,1,N,1","+0030,1","-0010,1","99999,9","02,5,+00540,1,99,9","08,5,+00660,1,99,9",,"08,99,1,99,9,99,9,99999,9,99,9,99,9","09929,1,99999,9","61,1","71,1",,"MET069METAR EGWC 231450Z 09015KT 6000 -RASN FEW018 OVC022 03/M01 Q0993 WHT;",
"03414599999","2010-02-24T08:50:00","4","52.640028","-2.305578","82.9","COSFORD, UK","FM-15","EGWC ","V020","999,9,C,0000,1","00750,1,C,N","002200,1,N,1","+0050,1","+0050,1","99999,9","04,5,+00300,1,99,9","07,5,+00750,1,99,9",,"07,99,1,99,9,99,9,99999,9,99,9,99,9","09892,1,99999,9","10,1",,,"MET066METAR EGWC 240850Z 00000KT 2200 BR SCT010 BKN025 05/05 Q0989 YLO1;",
"03414599999","2010-02-24T09:50:00","4","52.640028","-2.305578","82.9","COSFORD, UK","FM-15","EGWC ","V020","190,1,N,0031,1","00210,1,C,N","004000,1,N,1","+0060,1","+0050,1","99999,9","07,5,+00210,1,99,9",,,"07,99,1,99,9,99,9,99999,9,99,9,99,9","09898,1,99999,9","10,1",,,"MET058METAR EGWC 240950Z 19006KT 4000 BR BKN007 06/05 Q0990 GRN;",
"03414599999","2010-02-24T10:50:00","4","52.640028","-2.305578","82.9","COSFORD, UK","FM-15","EGWC ","V020","190,1,N,0026,1","00240,1,C,N","006000,1,N,1","+0060,1","+0050,1","99999,9","07,5,+00240,1,99,9",,,"07,99,1,99,9,99,9,99999,9,99,9,99,9","09898,1,99999,9","10,1",,,"MET058METAR EGWC 241050Z 19005KT 6000 BR BKN008 06/05 Q0990 GRN;",
"03414599999","2010-02-24T11:50:00","4","52.640028","-2.305578","82.9","COSFORD, UK","FM-15","EGWC ","V020","140,1,N,0031,1","00240,1,C,N","007000,1,N,1","+0070,1","+0060,1","99999,9","07,5,+00240,1,99,9",,,"07,99,1,99,9,99,9,99999,9,99,9,99,9","09898,1,99999,9","10,1",,,"MET058METAR EGWC 241150Z 14006KT 7000 BR BKN008 07/06 Q0990 GRN;",
"03414599999","2010-02-24T12:50:00","4","52.640028","-2.305578","82.9","COSFORD, UK","FM-15","EGWC ","V020","130,1,N,0021,1","00240,1,C,N","007000,1,N,1","+0080,1","+0060,1","99999,9","02,5,+00090,1,99,9","04,5,+00240,1,99,9","07,5,+00300,1,99,9","07,99,1,99,9,99,9,99999,9,99,9,99,9","09892,1,99999,9","10,1",,,"MET072METAR EGWC 241250Z 13004KT 7000 BR FEW003 SCT008 BKN010 08/06 Q0989 GRN;",
"03414599999","2010-02-24T13:50:00","4","52.640028","-2.305578","82.9","COSFORD, UK","FM-15","EGWC ","V020","999,9,C,0000,1","00660,1,C,N","011265,1,N,1","+0090,1","+0060,1","99999,9","04,5,+00300,1,99,9","07,5,+00660,1,99,9",,"07,99,1,99,9,99,9,99999,9,99,9,99,9","09892,1,99999,9",,,,"MET062METAR EGWC 241350Z 00000KT 9999 SCT010 BKN022 09/06 Q0989 GRN;",
"03414599999","2010-02-24T14:50:00","4","52.640028","-2.305578","82.9","COSFORD, UK","FM-15","EGWC ","V020","140,1,N,0026,1","00750,1,C,N","011265,1,N,1","+0090,1","+0050,1","99999,9","02,5,+00540,1,99,9","07,5,+00750,1,99,9",,"07,99,1,99,9,99,9,99999,9,99,9,99,9","09882,1,99999,9",,,,"MET062METAR EGWC 241450Z 14005KT 9999 FEW018 BKN025 09/05 Q0988 BLU;",
"03414599999","2010-02-24T15:50:00","4","52.640028","-2.305578","82.9","COSFORD, UK","FM-15","EGWC ","V020","090,1,N,0026,1","22000,1,9,N","011265,1,N,1","+0100,1","+0050,1","99999,9","04,5,+00600,1,99,9",,,"04,99,1,99,9,99,9,99999,9,99,9,99,9","09882,1,99999,9",,,,"MET055METAR EGWC 241550Z 09005KT 9999 SCT020 10/05 Q0988 WHT;",
"03414599999","2010-02-25T10:50:00","4","52.640028","-2.305578","82.9","COSFORD, UK","FM-15","EGWC ","V020","180,1,N,0041,1","00300,1,C,N","011265,1,N,1","+0070,1","+0060,1","99999,9","04,5,+00180,1,99,9","07,5,+00300,1,99,9",,"07,99,1,99,9,99,9,99999,9,99,9,99,9","09882,1,99999,9",,,,"MET063METAR EGWC 251050Z 18008KT 9999 SCT006 BKN010 07/06 Q0988 YLO1;",
"03414599999","2010-02-25T11:50:00","4","52.640028","-2.305578","82.9","COSFORD, UK","FM-15","EGWC ","V020","180,1,N,0051,1","00300,1,C,N","011265,1,N,1","+0080,1","+0060,1","99999,9","02,5,+00180,1,99,9","07,5,+00300,1,99,9",,"07,99,1,99,9,99,9,99999,9,99,9,99,9","09871,1,99999,9","61,1",,,"MET066METAR EGWC 251150Z 18010KT 9999 -RA FEW006 BKN010 08/06 Q0987 GRN;",
"03414599999","2010-02-25T15:50:00","4","52.640028","-2.305578","82.9","COSFORD, UK","FM-15","EGWC ","V020","160,1,N,0031,1","01050,1,C,N","011265,1,N,1","+0080,1","+0030,1","99999,9","02,5,+00450,1,99,9","07,5,+01050,1,99,9",,"07,99,1,99,9,99,9,99999,9,99,9,99,9","09841,1,99999,9",,,,"MET062METAR EGWC 251550Z 16006KT 9999 FEW015 BKN035 08/03 Q0984 BLU;",
"03414599999","2010-02-27T08:50:00","4","52.640028","-2.305578","82.9","COSFORD, UK","FM-15","EGWC ","V020","999,9,C,0000,1","00480,1,C,N","004500,1,N,1","+0030,1","+0020,1","99999,9","04,5,+00210,1,99,9","07,5,+00480,1,99,9",,"07,99,1,99,9,99,9,99999,9,99,9,99,9","09929,1,99999,9","61,1",,,"MET066METAR EGWC 270850Z 00000KT 4500 -RA SCT007 BKN016 03/02 Q0993 GRN;",
"03414599999","2010-02-27T09:50:00","4","52.640028","-2.305578","82.9","COSFORD, UK","FM-15","EGWC ","V020","080,1,N,0031,1","00450,1,C,N","005000,1,N,1","+0040,1","+0020,1","99999,9","04,5,+00240,1,99,9","08,5,+00450,1,99,9",,"08,99,1,99,9,99,9,99999,9,99,9,99,9","09929,1,99999,9","63,1",,,"MET065METAR EGWC 270950Z 08006KT 5000 RA SCT008 OVC015 04/02 Q0993 GRN;",
"03414599999","2010-02-27T10:50:00","4","52.640028","-2.305578","82.9","COSFORD, UK","FM-15","EGWC ","V020","090,1,N,0031,1","00360,1,C,N","004000,1,N,1","+0040,1","+0030,1","99999,9","04,5,+00240,1,99,9","08,5,+00360,1,99,9",,"08,99,1,99,9,99,9,99999,9,99,9,99,9","09929,1,99999,9","10,1",,,"MET070METAR EGWC 271050Z 09006KT 4000 BR SCT008 OVC012 04/03 Q0993 RERA GRN;",
"03414599999","2010-02-27T11:50:00","4","52.640028","-2.305578","82.9","COSFORD, UK","FM-15","EGWC ","V020","050,1,N,0026,1","00240,1,C,N","005000,1,N,1","+0050,1","+0050,1","99999,9","02,5,+00090,1,99,9","08,5,+00240,1,99,9",,"08,99,1,99,9,99,9,99999,9,99,9,99,9","09919,1,99999,9","05,1",,,"MET065METAR EGWC 271150Z 05005KT 5000 HZ FEW003 OVC008 05/05 Q0992 GRN;",
"03414599999","2010-02-27T12:50:00","4","52.640028","-2.305578","82.9","COSFORD, UK","FM-15","EGWC ","V020","120,1,N,0026,1","00300,1,C,N","011265,1,N,1","+0060,1","+0050,1","99999,9","02,5,+00240,1,99,9","07,5,+00300,1,99,9",,"07,99,1,99,9,99,9,99999,9,99,9,99,9","09909,1,99999,9",,,,"MET062METAR EGWC 271250Z 12005KT 9999 FEW008 BKN010 06/05 Q0991 GRN;",
"03414599999","2010-02-27T13:50:00","4","52.640028","-2.305578","82.9","COSFORD, UK","FM-15","EGWC ","V020","090,1,N,0021,1","00600,1,C,N","011265,1,N,1","+0070,1","+0050,1","99999,9","04,5,+00360,1,99,9","07,5,+00600,1,99,9",,"07,99,1,99,9,99,9,99999,9,99,9,99,9","09909,1,99999,9",,,,"MET062METAR EGWC 271350Z 09004KT 9999 SCT012 BKN020 07/05 Q0991 GRN;",
"03414599999","2010-02-27T14:50:00","4","52.640028","-2.305578","82.9","COSFORD, UK","FM-15","EGWC ","V020","050,1,N,0041,1","99999,9,C,N","011265,1,N,1","+0070,1","+0060,1","99999,9","02,5,+00360,1,99,9","04,5,+00600,1,99,9",,"04,99,1,99,9,99,9,99999,9,99,9,99,9","09898,1,99999,9",,,,"MET062METAR EGWC 271450Z 05008KT 9999 FEW012 SCT020 07/06 Q0990 WHT;","P01 006003SCOCIG"
"03414599999","2010-02-28T09:50:00","4","52.640028","-2.305578","82.9","COSFORD, UK","FM-15","EGWC ","V020","300,1,N,0026,1","00300,1,C,N","006000,1,N,1","+0040,1","+0020,1","99999,9","04,5,+00150,1,99,9","08,5,+00300,1,99,9",,"08,99,1,99,9,99,9,99999,9,99,9,99,9","09892,1,99999,9","05,1",,,"MET066METAR EGWC 280950Z 30005KT 6000 HZ SCT005 OVC010 04/02 Q0989 YLO1;",
"03414599999","2010-02-28T10:50:00","4","52.640028","-2.305578","82.9","COSFORD, UK","FM-15","EGWC ","V020","330,1,N,0051,1","00360,1,C,N","006000,1,N,1","+0050,1","+0020,1","99999,9","02,5,+00240,1,99,9","08,5,+00360,1,99,9",,"08,99,1,99,9,99,9,99999,9,99,9,99,9","09898,1,99999,9","05,1",,,"MET065METAR EGWC 281050Z 33010KT 6000 HZ FEW008 OVC012 05/02 Q0990 GRN;",
"03414599999","2010-02-28T11:50:00","4","52.640028","-2.305578","82.9","COSFORD, UK","FM-15","EGWC ","V020","300,1,N,0051,1","00480,1,C,N","011265,1,N,1","+0050,1","+0020,1","99999,9","02,5,+00300,1,99,9","07,5,+00480,1,99,9",,"07,99,1,99,9,99,9,99999,9,99,9,99,9","09909,1,99999,9",,,,"MET062METAR EGWC 281150Z 30010KT 9999 FEW010 BKN016 05/02 Q0991 WHT;",
"03414599999","2010-02-28T12:50:00","4","52.640028","-2.305578","82.9","COSFORD, UK","FM-15","EGWC ","V020","300,1,N,0062,1","00720,1,C,N","011265,1,N,1","+0050,1","+0010,1","99999,9","02,5,+00480,1,99,9","07,5,+00720,1,99,9",,"07,99,1,99,9,99,9,99999,9,99,9,99,9","09919,1,99999,9",,,,"MET062METAR EGWC 281250Z 30012KT 9999 FEW016 BKN024 05/01 Q0992 WHT;",
"03414599999","2010-02-28T13:50:00","4","52.640028","-2.305578","82.9","COSFORD, UK","FM-15","EGWC ","V020","300,1,N,0051,1","00600,1,C,N","011265,1,N,1","+0060,1","+0000,1","99999,9","02,5,+00450,1,99,9","04,5,+00600,1,99,9","07,5,+00750,1,99,9","07,99,1,99,9,99,9,99999,9,99,9,99,9","09919,1,99999,9",,,,"MET069METAR EGWC 281350Z 30010KT 9999 FEW015 SCT020 BKN025 06/00 Q0992 WHT;",
"03414599999","2010-02-28T14:50:00","4","52.640028","-2.305578","82.9","COSFORD, UK","FM-15","EGWC ","V020","290,1,N,0093,1","00750,1,C,N","011265,1,N,1","+0060,1","-0010,1","99999,9","02,5,+00600,1,99,9","07,5,+00750,1,99,9",,"07,99,1,99,9,99,9,99999,9,99,9,99,9","09939,1,99999,9",,,,"MET063METAR EGWC 281450Z 29018KT 9999 FEW020 BKN025 06/M01 Q0994 BLU;",
"03414599999","2010-03-01T08:50:00","4","52.640028","-2.305578","82.9","COSFORD, UK","FM-15","EGWC ","V020","999,9,C,0000,1","99999,9,9,Y","009900,1,N,1","+0010,1","+0000,1","99999,9",,,,,"10102,1,99999,9",,,,"MET050METAR EGWC 010850Z 00000KT CAVOK 01/M00 Q1010 BLU;",
"03414599999","2010-03-01T09:50:00","4","52.640028","-2.305578","82.9","COSFORD, UK","FM-15","EGWC ","V020","999,9,C,0000,1","99999,9,9,Y","009900,1,N,1","+0030,1","-0010,1","99999,9",,,,,"10102,1,99999,9",,,,"MET050METAR EGWC 010950Z 00000KT CAVOK 03/M01 Q1010 BLU;",
"03414599999","2010-03-01T10:50:00","4","52.640028","-2.305578","82.9","COSFORD, UK","FM-15","EGWC ","V020","999,9,C,0000,1","99999,9,9,Y","009900,1,N,1","+0050,1","+0010,1","99999,9",,,,,"10108,1,99999,9",,,,"MET049METAR EGWC 011050Z 00000KT CAVOK 05/01 Q1011 BLU;",
"03414599999","2010-03-01T11:50:00","4","52.640028","-2.305578","82.9","COSFORD, UK","FM-15","EGWC ","V020","210,1,N,0026,1","22000,1,9,N","011265,1,N,1","+0060,1","+0030,1","99999,9","02,5,+00750,1,99,9",,,"02,99,1,99,9,99,9,99999,9,99,9,99,9","10108,1,99999,9",,,,"MET055METAR EGWC 011150Z 21005KT 9999 FEW025 06/03 Q1011 BLU;",
"03414599999","2010-03-01T13:50:00","4","52.640028","-2.305578","82.9","COSFORD, UK","FM-15","EGWC ","V020","270,1,N,0031,1","22000,1,9,N","011265,1,N,1","+0080,1","+0010,1","99999,9","04,5,+00750,1,99,9",,,"04,99,1,99,9,99,9,99999,9,99,9,99,9","10108,1,99999,9",,,,"MET055METAR EGWC 011350Z 27006KT 9999 SCT025 08/01 Q1011 BLU;",
"03414599999","2010-03-01T14:50:00","4","52.640028","-2.305578","82.9","COSFORD, UK","FM-15","EGWC ","V020","999,9,C,0000,1","22000,1,9,N","011265,1,N,1","+0080,1","-0010,1","99999,9","04,5,+00750,1,99,9",,,"04,99,1,99,9,99,9,99999,9,99,9,99,9","10119,1,99999,9",,,,"MET056METAR EGWC 011450Z 00000KT 9999 SCT025 08/M01 Q1012 BLU;",
"03414599999","2010-03-01T15:50:00","4","52.640028","-2.305578","82.9","COSFORD, UK","FM-15","EGWC ","V020","999,9,C,0000,1","22000,1,9,N","011265,1,N,1","+0080,1","+0000,1","99999,9","04,5,+00750,1,99,9",,,"04,99,1,99,9,99,9,99999,9,99,9,99,9","10119,1,99999,9",,,,"MET056METAR EGWC 011550Z 00000KT 9999 SCT025 08/M00 Q1012 BLU;",
"03414599999","2010-03-01T16:50:00","4","52.640028","-2.305578","82.9","COSFORD, UK","FM-15","EGWC ","V020","999,9,C,0000,1","22000,1,9,N","011265,1,N,1","+0090,1","+0000,1","99999,9","04,5,+00750,1,99,9",,,"04,99,1,99,9,99,9,99999,9,99,9,99,9","10129,1,99999,9",,,,"MET056METAR EGWC 011650Z 00000KT 9999 SCT025 09/M00 Q1013 BLU;",
"03414599999","2010-03-02T07:50:00","4","52.640028","-2.305578","82.9","COSFORD, UK","FM-15","EGWC ","V020","999,9,C,0000,1","22000,1,9,N","003000,1,N,1","-0040,1","-0040,1","99999,9",,,,"00,99,1,99,9,99,9,99999,9,99,9,99,9","10220,1,99999,9","12,1",,,"MET060METAR EGWC 020750Z 00000KT 3000 MIFG SKC M04/M04 Q1022 YLO1;","Q01    003SCCGA1"
"03414599999","2010-03-02T08:50:00","4","52.640028","-2.305578","82.9","COSFORD, UK","FM-15","EGWC ","V020","999,9,C,0000,1","22000,1,9,N","003000,1,N,1","-0010,1","-0020,1","99999,9","02,5,+01050,1,99,9",,,"02,99,1,99,9,99,9,99999,9,99,9,99,9","10230,1,99999,9","10,1",,,"MET061METAR EGWC 020850Z 00000KT 3000 BR FEW035 M01/M02 Q1023 YLO1;",
"03414599999","2010-03-02T09:50:00","4","52.640028","-2.305578","82.9","COSFORD, UK","FM-15","EGWC ","V020","999,9,C,0000,1","22000,1,9,N","011265,1,N,1","+0020,1","-0010,1","99999,9","02,5,+01050,1,99,9",,,"02,99,1,99,9,99,9,99999,9,99,9,99,9","10230,1,99999,9",,,,"MET056METAR EGWC 020950Z 00000KT 9999 FEW035 02/M01 Q1023 BLU;",
"03414599999","2010-03-02T10:50:00","4","52.640028","-2.305578","82.9","COSFORD, UK","FM-15","EGWC ","V020","999,9,C,0000,1","99999,9,9,Y","011265,1,N,1","+0040,1","+0010,1","99999,9",,,,,"10240,1,99999,9",,,,"MET054METAR EGWC 021050Z 00000KT 9999 CAVOK 04/01 Q1024 BLU;",
"03414599999","2010-03-02T11:50:00","4","52.640028","-2.305578","82.9","COSFORD, UK","FM-15","EGWC ","V020","999,9,C,0000,1","07500,5,9,N","999999,9,N,1","+0060,1","+0010,1","99999,9","02,5,+01050,5,99,9","04,5,+07500,5,99,9",,,"10250,1,99999,9",,,,"MET057METAR EGWC 021150Z 00000KT FEW035 SCT250 06/01 Q1025 BLU;",
"03414599999","2010-03-02T12:50:00","4","52.640028","-2.305578","82.9","COSFORD, UK","FM-15","EGWC ","V020","999,9,C,0000,1","22000,1,9,N","011265,1,N,1","+0080,1","+0010,1","99999,9","04,5,+01050,1,99,9",,,"04,99,1,99,9,99,9,99999,9,99,9,99,9","10240,1,99999,9",,,,"MET055METAR EGWC 021250Z 00000KT 9999 SCT035 08/01 Q1024 BLU;",
"03414599999","2010-03-02T13:50:00","4","52.640028","-2.305578","82.9","COSFORD, UK","FM-15","EGWC ","V020","999,9,C,0000,1","22000,1,9,N","011265,1,N,1","+0080,1","+0010,1","99999,9","04,5,+00900,1,99,9",,,"04,99,1,99,9,99,9,99999,9,99,9,99,9","10240,1,99999,9",,,,"MET055METAR EGWC 021350Z 00000KT 9999 SCT030 08/01 Q1024 BLU;",
"03414599999","2010-03-02T14:50:00","4","52.640028","-2.305578","82.9","COSFORD, UK","FM-15","EGWC ","V020","999,9,C,0000,1","22000,1,9,N","011265,1,N,1","+0080,1","+0000,1","99999,9","04,5,+01050,1,99,9",,,"04,99,1,99,9,99,9,99999,9,99,9,99,9","10240,1,99999,9",,,,"MET056METAR EGWC 021450Z 00000KT 9999 SCT035 08/M00 Q1024 BLU;",
"03414599999","2010-03-02T15:50:00","4","52.640028","-2.305578","82.9","COSFORD, UK","FM-15","EGWC ","V020","999,9,C,0000,1","22000,1,9,N","011265,1,N,1","+0080,1","-0010,1","99999,9","02,5,+01050,1,99,9",,,"02,99,1,99,9,99,9,99999,9,99,9,99,9","10240,1,99999,9",,,,"MET056METAR EGWC 021550Z 00000KT 9999 FEW035 08/M01 Q1024 BLU;",
"03414599999","2010-03-03T08:50:00","4","52.640028","-2.305578","82.9","COSFORD, UK","FM-15","EGWC ","V020","090,1,N,0031,1","03600,1,C,N","011265,1,N,1","+0020,1","-0020,1","99999,9","02,5,+00900,1,99,9","08,5,+03600,1,99,9",,"08,99,1,99,9,99,9,99999,9,99,9,99,9","10220,1,99999,9",,,,"MET063METAR EGWC 030850Z 09006KT 9999 FEW030 OVC120 02/M02 Q1022 BLU;",
"03414599999","2010-03-03T09:50:00","4","52.640028","-2.305578","82.9","COSFORD, UK","FM-15","EGWC ","V020","100,1,N,0041,1","03600,1,C,N","011265,1,N,1","+0030,1","-0020,1","99999,9","02,5,+00900,1,99,9","08,5,+03600,1,99,9",,"08,99,1,99,9,99,9,99999,9,99,9,99,9","10220,1,99999,9",,,,"MET063METAR EGWC 030950Z 10008KT 9999 FEW030 OVC120 03/M02 Q1022 BLU;",
"03414599999","2010-03-03T10:50:00","4","52.640028","-2.305578","82.9","COSFORD, UK","FM-15","EGWC ","V020","120,1,N,0051,1","03600,1,C,N","011265,1,N,1","+0040,1","+0020,1","99999,9","02,5,+00750,1,99,9","08,5,+03600,1,99,9",,"08,99,1,99,9,99,9,99999,9,99,9,99,9","10220,1,99999,9",,,,"MET062METAR EGWC 031050Z 12010KT 9999 FEW025 OVC120 04/02 Q1022 BLU;",
"03414599999","2010-03-03T11:50:00","4","52.640028","-2.305578","82.9","COSFORD, UK","FM-15","EGWC ","V020","090,1,N,0051,1","03600,1,C,N","011265,1,N,1","+0040,1","-0010,1","99999,9","02,5,+00750,1,99,9","07,5,+03600,1,99,9",,"07,99,1,99,9,99,9,99999,9,99,9,99,9","10220,1,99999,9",,,,"MET063METAR EGWC 031150Z 09010KT 9999 FEW025 BKN120 04/M01 Q1022 BLU;",
"03414599999","2010-03-03T13:50:00","4","52.640028","-2.305578","82.9","COSFORD, UK","FM-15","EGWC ","V020","090,1,N,0051,1","03600,1,C,N","011265,1,N,1","+0050,1","-0010,1","99999,9","02,5,+00750,1,99,9","07,5,+03600,1,99,9",,"07,99,1,99,9,99,9,99999,9,99,9,99,9","10200,1,99999,9",,,,"MET063METAR EGWC 031350Z 09010KT 9999 FEW025 BKN120 05/M01 Q1020 BLU;",
"03414599999","2010-03-03T14:50:00","4","52.640028","-2.305578","82.9","COSFORD, UK","FM-15","EGWC ","V020","090,1,N,0077,1","03600,1,C,N","011265,1,N,1","+0060,1","-0010,1","99999,9","02,5,+00750,1,99,9","07,5,+03600,1,99,9",,"07,99,1,99,9,99,9,99999,9,99,9,99,9","10200,1,99999,9",,,,"MET063METAR EGWC 031450Z 09015KT 9999 FEW025 BKN120 06/M01 Q1020 BLU;",
"03414599999","2010-03-03T15:50:00","4","52.640028","-2.305578","82.9","COSFORD, UK","FM-15","EGWC ","V020","090,1,N,0051,1","04500,1,C,N","011265,1,N,1","+0060,1","-0010,1","99999,9","02,5,+00750,1,99,9","07,5,+04500,1,99,9",,"07,99,1,99,9,99,9,99999,9,99,9,99,9","10190,1,99999,9",,,,"MET063METAR EGWC 031550Z 09010KT 9999 FEW025 BKN150 06/M01 Q1019 BLU;",
"03414599999","2010-03-04T14:50:00","4","52.640028","-2.305578","82.9","COSFORD, UK","FM-15","EGWC ","V020","360,1,N,0026,1","22000,1,9,N","011265,1,N,1","+0070,1","-0020,1","99999,9","04,5,+00750,1,99,9",,,"04,99,1,99,9,99,9,99999,9,99,9,99,9","10281,1,99999,9",,,,"MET056METAR EGWC 041450Z 36005KT 9999 SCT025 07/M02 Q1028 BLU;",
"03414599999","2010-03-06T08:50:00","4","52.640028","-2.305578","82.9","COSFORD, UK","FM-15","EGWC ","V020","350,1,N,0041,1","00750,1,C,N","007000,1,N,1","+0040,1","+0030,1","99999,9","04,5,+00450,1,99,9","07,5,+00750,1,99,9",,"07,99,1,99,9,99,9,99999,9,99,9,99,9","10281,1,99999,9","05,1",,,"MET065METAR EGWC 060850Z 35008KT 7000 HZ SCT015 BKN025 04/03 Q1028 WHT;",
"03414599999","2010-03-06T09:50:00","4","52.640028","-2.305578","82.9","COSFORD, UK","FM-15","EGWC ","V020","350,1,N,0041,1","00540,1,C,N","011265,1,N,1","+0050,1","+0030,1","99999,9","02,5,+00240,1,99,9","04,5,+00540,1,99,9","07,5,+00750,1,99,9","07,99,1,99,9,99,9,99999,9,99,9,99,9","10281,1,99999,9",,,,"MET069METAR EGWC 060950Z 35008KT 9999 FEW008 SCT018 BKN025 05/03 Q1028 WHT;",
"03414599999","2010-03-06T11:50:00","4","52.640028","-2.305578","82.9","COSFORD, UK","FM-15","EGWC ","V020","080,1,N,0041,1","00450,1,C,N","008000,1,N,1","+0070,1","+0030,1","99999,9","07,5,+00450,1,99,9",,,"07,99,1,99,9,99,9,99999,9,99,9,99,9","10281,1,99999,9",,,,"MET055METAR EGWC 061150Z 08008KT 8000 BKN015 07/03 Q1028 WHT;",
"03414599999","2010-03-06T12:50:00","4","52.640028","-2.305578","82.9","COSFORD, UK","FM-15","EGWC ","V020","090,1,N,0041,1","00450,1,C,N","011265,1,N,1","+0060,1","+0030,1","99999,9","07,5,+00450,1,99,9",,,"07,99,1,99,9,99,9,99999,9,99,9,99,9","10281,1,99999,9",,,,"MET055METAR EGWC 061250Z 09008KT 9999 BKN015 06/03 Q1028 WHT;",
"03414599999","2010-03-06T13:50:00","4","52.640028","-2.305578","82.9","COSFORD, UK","FM-15","EGWC ","V020","090,1,N,0051,1","01050,1,C,N","011265,1,N,1","+0060,1","+0030,1","99999,9","04,5,+00450,1,99,9","07,5,+01050,1,99,9",,"07,99,1,99,9,99,9,99999,9,99,9,99,9","10281,1,99999,9",,,,"MET062METAR EGWC 061350Z 09010KT 9999 SCT015 BKN035 06/03 Q1028 WHT;",
"03414599999","2010-03-06T14:50:00","4","52.640028","-2.305578","82.9","COSFORD, UK","FM-15","EGWC ","V020","090,1,N,0041,1","01500,1,C,N","011265,1,N,1","+0060,1","+0030,1","99999,9","04,5,+00750,1,99,9","07,5,+01500,1,99,9",,"07,99,1,99,9,99,9,99999,9,99,9,99,9","10281,1,99999,9",,,,"MET062METAR EGWC 061450Z 09008KT 9999 SCT025 BKN050 06/03 Q1028 BLU;",
"03414599999","2010-03-07T08:50:00","4","52.640028","-2.305578","82.9","COSFORD, UK","FM-15","EGWC ","V020","070,1,N,0026,1","99999,9,9,Y","009900,1,N,1","-0020,1","-0030,1","99999,9",,,,,"10349,1,99999,9",,,,"MET051METAR EGWC 070850Z 07005KT CAVOK M02/M03 Q1035 BLU;",
"03414599999","2010-03-07T09:50:00","4","52.640028","-2.305578","82.9","COSFORD, UK","FM-15","EGWC ","V020","080,1,N,0026,1","99999,9,9,Y","009900,1,N,1","+0010,1","-0020,1","99999,9",,,,,"10349,1,99999,9",,,,"MET050METAR EGWC 070950Z 08005KT CAVOK 01/M02 Q1035 BLU;",
"03414599999","2010-03-07T10:50:00","4","52.640028","-2.305578","82.9","COSFORD, UK","FM-15","EGWC ","V020","120,1,N,0026,1","99999,9,9,Y","009900,1,N,1","+0020,1","-0020,1","99999,9",,,,,"10349,1,99999,9",,,,"MET050METAR EGWC 071050Z 12005KT CAVOK 02/M02 Q1035 BLU;",
"03414599999","2010-03-07T11:50:00","4","52.640028","-2.305578","82.9","COSFORD, UK","FM-15","EGWC ","V020","090,1,N,0041,1","99999,9,9,Y","009900,1,N,1","+0030,1","+0000,1","99999,9",,,,,"10349,1,99999,9",,,,"MET050METAR EGWC 071150Z 09008KT CAVOK 03/M00 Q1035 BLU;",
"03414599999","2010-03-07T12:50:00","4","52.640028","-2.305578","82.9","COSFORD, UK","FM-15","EGWC ","V020","060,1,N,0031,1","99999,9,9,Y","009900,1,N,1","+0040,1","-0020,1","99999,9",,,,,"10339,1,99999,9",,,,"MET050METAR EGWC 071250Z 06006KT CAVOK 04/M02 Q1034 BLU;",
"03414599999","2010-03-07T13:50:00","4","52.640028","-2.305578","82.9","COSFORD, UK","FM-15","EGWC ","V020","070,1,N,0036,1","99999,9,9,Y","009900,1,N,1","+0040,1","-0040,1","99999,9",,,,,"10339,1,99999,9",,,,"MET050METAR EGWC 071350Z 07007KT CAVOK 04/M04 Q1034 BLU;",
"03414599999","2010-03-07T14:50:00","4","52.640028","-2.305578","82.9","COSFORD, UK","FM-15","EGWC ","V020","040,1,N,0026,1","99999,9,9,Y","009900,1,N,1","+0040,1","-0050,1","99999,9",,,,,"10339,1,99999,9",,,,"MET050METAR EGWC 071450Z 04005KT CAVOK 04/M05 Q1034 BLU;",
"03414599999","2010-03-07T15:50:00","4","52.640028","-2.305578","82.9","COSFORD, UK","FM-15","EGWC ","V020","070,1,N,0031,1","99999,9,9,Y","009900,1,N,1","+0060,1","-0050,1","99999,9",,,,,"10329,1,99999,9",,,,"MET050METAR EGWC 071550Z 07006KT CAVOK 06/M05 Q1033 BLU;",
"03414599999","2010-03-08T07:50:00","4","52.640028","-2.305578","82.9","COSFORD, UK","FM-15","EGWC ","V020","999,9,C,0000,1","99999,9,9,Y","009900,1,N,1","-0060,1","-0080,1","99999,9",,,,,"10329,1,99999,9",,,,"MET051METAR EGWC 080750Z 00000KT CAVOK M06/M08 Q1033 BLU;",
"03414599999","2010-03-08T08:50:00","4","52.640028","-2.305578","82.9","COSFORD, UK","FM-15","EGWC ","V020","999,9,C,0000,1","99999,9,9,Y","009900,1,N,1","-0010,1","-0030,1","99999,9",,,,,"10329,1,99999,9",,,,"MET051METAR EGWC 080850Z 00000KT CAVOK M01/M03 Q1033 BLU;",
"03414599999","2010-03-08T09:50:00","4","52.640028","-2.305578","82.9","COSFORD, UK","FM-15","EGWC ","V020","999,9,C,0000,1","99999,9,9,Y","009900,1,N,1","+0010,1","-0030,1","99999,9",,,,,"10329,1,99999,9",,,,"MET050METAR EGWC 080950Z 00000KT CAVOK 01/M03 Q1033 BLU;",
"03414599999","2010-03-08T10:50:00","4","52.640028","-2.305578","82.9","COSFORD, UK","FM-15","EGWC ","V020","999,9,C,0000,1","99999,9,9,Y","009900,1,N,1","+0020,1","-0050,1","99999,9",,,,,"10329,1,99999,9",,,,"MET050METAR EGWC 081050Z 00000KT CAVOK 02/M05 Q1033 BLU;",
"03414599999","2010-03-08T11:50:00","4","52.640028","-2.305578","82.9","COSFORD, UK","FM-15","EGWC ","V020","999,9,C,0000,1","99999,9,9,Y","009900,1,N,1","+0030,1","-0060,1","99999,9",,,,,"10318,1,99999,9",,,,"MET050METAR EGWC 081150Z 00000KT CAVOK 03/M06 Q1032 BLU;",
"03414599999","2010-03-08T12:50:00","4","52.640028","-2.305578","82.9","COSFORD, UK","FM-15","EGWC ","V020","999,9,C,0000,1","99999,9,9,Y","009900,1,N,1","+0050,1","-0070,1","99999,9",,,,,"10318,1,99999,9",,,,"MET050METAR EGWC 081250Z 00000KT CAVOK 05/M07 Q1032 BLU;",
"03414599999","2010-03-08T13:50:00","4","52.640028","-2.305578","82.9","COSFORD, UK","FM-15","EGWC ","V020","030,1,N,0041,1","99999,9,9,Y","009900,1,N,1","+0060,1","-0060,1","99999,9",,,,,"10312,1,99999,9",,,,"MET050METAR EGWC 081350Z 03008KT CAVOK 06/M06 Q1031 BLU;",
"03414599999","2010-03-08T14:50:00","4","52.640028","-2.305578","82.9","COSFORD, UK","FM-15","EGWC ","V020","030,1,N,0041,1","99999,9,9,Y","009900,1,N,1","+0070,1","-0050,1","99999,9",,,,,"10301,1,99999,9",,,,"MET050METAR EGWC 081450Z 03008KT CAVOK 07/M05 Q1030 BLU;",
"03414599999","2010-03-08T15:50:00","4","52.640028","-2.305578","82.9","COSFORD, UK","FM-15","EGWC ","V020","060,1,N,0041,1","99999,9,9,Y","009900,1,N,1","+0070,1","-0050,1","99999,9",,,,,"10301,1,99999,9",,,,"MET050METAR EGWC 081550Z 06008KT CAVOK 07/M05 Q1030 BLU;",
"03414599999","2010-03-09T08:50:00","4","52.640028","-2.305578","82.9","COSFORD, UK","FM-15","EGWC ","V020","999,9,C,0000,1","99999,9,9,Y","009900,1,N,1","+0030,1","+0000,1","99999,9",,,,,"10318,1,99999,9",,,,"MET050METAR EGWC 090850Z 00000KT CAVOK 03/M00 Q1032 BLU;",
"03414599999","2010-03-09T09:50:00","4","52.640028","-2.305578","82.9","COSFORD, UK","FM-15","EGWC ","V020","030,1,N,0041,1","99999,9,9,Y","009900,1,N,1","+0050,1","+0000,1","99999,9",,,,,"10318,1,99999,9",,,,"MET049METAR EGWC 090950Z 03008KT CAVOK 05/00 Q1032 BLU;",
"03414599999","2010-03-09T10:50:00","4","52.640028","-2.305578","82.9","COSFORD, UK","FM-15","EGWC ","V020","030,1,N,0051,1","22000,1,9,N","011265,1,N,1","+0060,1","+0030,1","99999,9","02,5,+00300,1,99,9",,,"02,99,1,99,9,99,9,99999,9,99,9,99,9","10318,1,99999,9",,,,"MET055METAR EGWC 091050Z 03010KT 9999 FEW010 06/03 Q1032 BLU;",
"03414599999","2010-03-09T11:50:00","4","52.640028","-2.305578","82.9","COSFORD, UK","FM-15","EGWC ","V020","030,1,N,0041,1","99999,9,C,N","011265,1,N,1","+0070,1","-0010,1","99999,9","02,5,+00300,1,99,9","04,5,+00750,1,99,9",,"04,99,1,99,9,99,9,99999,9,99,9,99,9","10318,1,99999,9",,,,"MET063METAR EGWC 091150Z 03008KT 9999 FEW010 SCT025 07/M01 Q1032 BLU;","P01 007503SCOCIG"
"03414599999","2010-03-09T12:50:00","4","52.640028","-2.305578","82.9","COSFORD, UK","FM-15","EGWC ","V020","070,1,N,0051,1","99999,9,C,N","011265,1,N,1","+0080,1","-0010,1","99999,9","02,5,+00300,1,99,9","04,5,+00750,1,99,9",,"04,99,1,99,9,99,9,99999,9,99,9,99,9","10318,1,99999,9",,,,"MET063METAR EGWC 091250Z 07010KT 9999 FEW010 SCT025 08/M01 Q1032 BLU;","P01 007503SCOCIG"
"03414599999","2010-03-09T13:50:00","4","52.640028","-2.305578","82.9","COSFORD, UK","FM-15","EGWC ","V020","060,1,N,0041,1","01200,1,C,N","011265,1,N,1","+0080,1","-0010,1","99999,9","07,5,+01200,1,99,9",,,"07,99,1,99,9,99,9,99999,9,99,9,99,9","10318,1,99999,9",,,,"MET056METAR EGWC 091350Z 06008KT 9999 BKN040 08/M01 Q1032 BLU;",
"03414599999","2010-03-09T14:50:00","4","52.640028","-2.305578","82.9","COSFORD, UK","FM-15","EGWC ","V020","040,1,N,0051,1","01200,1,C,N","011265,1,N,1","+0090,1","-0020,1","99999,9","07,5,+01200,1,99,9",,,"07,99,1,99,9,99,9,99999,9,99,9,99,9","10318,1,99999,9",,,,"MET056METAR EGWC 091450Z 04010KT 9999 BKN040 09/M02 Q1032 BLU;",
"03414599999","2010-03-10T08:50:00","4","52.640028","-2.305578","82.9","COSFORD, UK","FM-15","EGWC ","V020","040,1,N,0051,1","00750,1,C,N","011265,1,N,1","+0040,1","+0030,1","99999,9","04,5,+00600,1,99,9","07,5,+00750,1,99,9",,"07,99,1,99,9,99,9,99999,9,99,9,99,9","10318,1,99999,9",,,,"MET062METAR EGWC 100850Z 04010KT 9999 SCT020 BKN025 04/03 Q1032 WHT;",
"03414599999","2010-03-10T09:50:00","4","52.640028","-2.305578","82.9","COSFORD, UK","FM-15","EGWC ","V020","040,1,N,0051,1","00750,1,C,N","011265,1,N,1","+0050,1","+0000,1","99999,9","07,5,+00750,1,99,9",,,"07,99,1,99,9,99,9,99999,9,99,9,99,9","10318,1,99999,9",,,,"MET056METAR EGWC 100950Z 04010KT 9999 BKN025 05/M00 Q1032 BLU;",
"03414599999","2010-03-10T10:50:00","4","52.640028","-2.305578","82.9","COSFORD, UK","FM-15","EGWC ","V020","030,1,N,0051,1","00750,1,C,N","011265,1,N,1","+0050,1","+0000,1","99999,9","02,5,+00600,1,99,9","07,5,+00750,1,99,9",,"07,99,1,99,9,99,9,99999,9,99,9,99,9","10318,1,99999,9",,,,"MET063METAR EGWC 101050Z 03010KT 9999 FEW020 BKN025 05/M00 Q1032 BLU;",
"03414599999","2010-03-10T11:50:00","4","52.640028","-2.305578","82.9","COSFORD, UK","FM-15","EGWC ","V020","060,1,N,0051,1","00750,1,C,N","011265,1,N,1","+0050,1","+0000,1","99999,9","07,5,+00750,1,99,9",,,"07,99,1,99,9,99,9,99999,9,99,9,99,9","10318,1,99999,9",,,,"MET055METAR EGWC 101150Z 06010KT 9999 BKN025 05/00 Q1032 BLU;",
"03414599999","2010-03-10T12:50:00","4","52.640028","-2.305578","82.9","COSFORD, UK","FM-15","EGWC ","V020","030,1,N,0051,1","00900,1,C,N","011265,1,N,1","+0060,1","+0010,1","99999,9","07,5,+00900,1,99,9",,,"07,99,1,99,9,99,9,99999,9,99,9,99,9","10312,1,99999,9",,,,"MET055METAR EGWC 101250Z 03010KT 9999 BKN030 06/01 Q1031 BLU;",
"03414599999","2010-03-10T13:50:00","4","52.640028","-2.305578","82.9","COSFORD, UK","FM-15","EGWC ","V020","040,1,N,0051,1","00900,1,C,N","011265,1,N,1","+0060,1","+0000,1","99999,9","07,5,+00900,1,99,9",,,"07,99,1,99,9,99,9,99999,9,99,9,99,9","10312,1,99999,9",,,,"MET056METAR EGWC 101350Z 04010KT 9999 BKN030 06/M00 Q1031 BLU;",
"03414599999","2010-03-10T14:50:00","4","52.640028","-2.305578","82.9","COSFORD, UK","FM-15","EGWC ","V020","030,1,N,0051,1","00900,1,C,N","011265,1,N,1","+0070,1","+0000,1","99999,9","07,5,+00900,1,99,9",,,"07,99,1,99,9,99,9,99999,9,99,9,99,9","10301,1,99999,9",,,,"MET056METAR EGWC 101450Z 03010KT 9999 BKN030 07/M00 Q1030 BLU;",
"03414599999","2010-03-10T15:50:00","4","52.640028","-2.305578","82.9","COSFORD, UK","FM-15","EGWC ","V020","030,1,N,0051,1","00900,1,C,N","011265,1,N,1","+0070,1","+0000,1","99999,9","07,5,+00900,1,99,9",,,"07,99,1,99,9,99,9,99999,9,99,9,99,9","10301,1,99999,9",,,,"MET055METAR EGWC 101550Z 03010KT 9999 BKN030 07/00 Q1030 BLU;",
"03414599999","2010-03-13T08:50:00","4","52.640028","-2.305578","82.9","COSFORD, UK","FM-15","EGWC ","V020","999,9,C,0000,1","01350,1,C,N","008000,1,N,1","+0010,1","+0000,1","99999,9","07,5,+01350,1,99,9",,,"07,99,1,99,9,99,9,99999,9,99,9,99,9","10312,1,99999,9","05,1",,,"MET059METAR EGWC 130850Z 00000KT 8000 HZ BKN045 01/M00 Q1031 BLU;",
"03414599999","2010-03-13T09:50:00","4","52.640028","-2.305578","82.9","COSFORD, UK","FM-15","EGWC ","V020","300,1,N,0041,1","01350,1,C,N","011265,1,N,1","+0050,1","+0020,1","99999,9","02,5,+00600,1,99,9","07,5,+01350,1,99,9",,"07,99,1,99,9,99,9,99999,9,99,9,99,9","10312,1,99999,9",,,,"MET062METAR EGWC 130950Z 30008KT 9999 FEW020 BKN045 05/02 Q1031 BLU;",
"03414599999","2010-03-13T10:50:00","4","52.640028","-2.305578","82.9","COSFORD, UK","FM-15","EGWC ","V020","310,1,N,0051,1","00600,1,C,N","011265,1,N,1","+0060,1","+0030,1","99999,9","07,5,+00600,1,99,9",,,"07,99,1,99,9,99,9,99999,9,99,9,99,9","10312,1,99999,9",,,,"MET055METAR EGWC 131050Z 31010KT 9999 BKN020 06/03 Q1031 WHT;",
"03414599999","2010-03-13T11:50:00","4","52.640028","-2.305578","82.9","COSFORD, UK","FM-15","EGWC ","V020","310,1,N,0062,1","00660,1,C,N","011265,1,N,1","+0070,1","+0030,1","99999,9","07,5,+00660,1,99,9",,,"07,99,1,99,9,99,9,99999,9,99,9,99,9","10312,1,99999,9",,,,"MET055METAR EGWC 131150Z 31012KT 9999 BKN022 07/03 Q1031 WHT;",
"03414599999","2010-03-13T12:50:00","4","52.640028","-2.305578","82.9","COSFORD, UK","FM-15","EGWC ","V020","300,1,N,0062,1","00720,1,C,N","011265,1,N,1","+0080,1","+0030,1","99999,9","07,5,+00720,1,99,9",,,"07,99,1,99,9,99,9,99999,9,99,9,99,9","10312,1,99999,9",,,,"MET055METAR EGWC 131250Z 30012KT 9999 BKN024 08/03 Q1031 WHT;",
"03414599999","2010-03-13T13:50:00","4","52.640028","-2.305578","82.9","COSFORD, UK","FM-15","EGWC ","V020","300,1,N,0041,1","00720,1,C,N","011265,1,N,1","+0090,1","+0050,1","99999,9","07,5,+00720,1,99,9",,,"07,99,1,99,9,99,9,99999,9,99,9,99,9","10312,1,99999,9",,,,"MET055METAR EGWC 131350Z 30008KT 9999 BKN024 09/05 Q1031 WHT;",
"03414599999","2010-03-13T14:50:00","4","52.640028","-2.305578","82.9","COSFORD, UK","FM-15","EGWC ","V020","310,1,N,0051,1","00780,1,C,N","011265,1,N,1","+0090,1","+0040,1","99999,9","07,5,+00780,1,99,9",,,"07,99,1,99,9,99,9,99999,9,99,9,99,9","10301,1,99999,9",,,,"MET055METAR EGWC 131450Z 31010KT 9999 BKN026 09/04 Q1030 BLU;",
"03414599999","2010-03-14T08:50:00","4","52.640028","-2.305578","82.9","COSFORD, UK","FM-15","EGWC ","V020","290,1,N,0072,1","22000,1,9,N","011265,1,N,1","+0070,1","+0030,1","99999,9","02,5,+00900,1,99,9",,,"02,99,1,99,9,99,9,99999,9,99,9,99,9","10301,1,99999,9",,,,"MET055METAR EGWC 140850Z 29014KT 9999 FEW030 07/03 Q1030 BLU;",
"03414599999","2010-03-14T09:50:00","4","52.640028","-2.305578","82.9","COSFORD, UK","FM-15","EGWC ","V020","300,1,N,0077,1","22000,1,9,N","011265,1,N,1","+0090,1","+0030,1","99999,9","04,5,+00690,1,99,9",,,"04,99,1,99,9,99,9,99999,9,99,9,99,9","10301,1,99999,9",,,,"MET055METAR EGWC 140950Z 30015KT 9999 SCT023 09/03 Q1030 WHT;",
"03414599999","2010-03-14T10:50:00","4","52.640028","-2.305578","82.9","COSFORD, UK","FM-15","EGWC ","V020","310,1,N,0077,1","00690,1,C,N","011265,1,N,1","+0090,1","+0030,1","99999,9","07,5,+00690,1,99,9",,,"07,99,1,99,9,99,9,99999,9,99,9,99,9","10301,1,99999,9",,,,"MET055METAR EGWC 141050Z 31015KT 9999 BKN023 09/03 Q1030 WHT;",
"03414599999","2010-03-14T11:50:00","4","52.640028","-2.305578","82.9","COSFORD, UK","FM-15","EGWC ","V020","300,1,N,0051,1","00840,1,C,N","011265,1,N,1","+0100,1","+0030,1","99999,9","07,5,+00840,1,99,9",,,"07,99,1,99,9,99,9,99999,9,99,9,99,9","10301,1,99999,9",,,"0113,1","MET058METAR EGWC 141150Z 30010G22KT 9999 BKN028 10/03 Q1030 BLU;",
"03414599999","2010-03-14T12:50:00","4","52.640028","-2.305578","82.9","COSFORD, UK","FM-15","EGWC ","V020","330,1,N,0062,1","00960,1,C,N","011265,1,N,1","+0110,1","+0030,1","99999,9","02,5,+00840,1,99,9","07,5,+00960,1,99,9",,"07,99,1,99,9,99,9,99999,9,99,9,99,9","10291,1,99999,9",,,"0113,1","MET065METAR EGWC 141250Z 33012G22KT 9999 FEW028 BKN032 11/03 Q1029 BLU;",
"03414599999","2010-03-14T13:50:00","4","52.640028","-2.305578","82.9","COSFORD, UK","FM-15","EGWC ","V020","310,1,N,0062,1","22000,1,9,N","011265,1,N,1","+0110,1","+0030,1","99999,9","04,5,+00780,1,99,9",,,"04,99,1,99,9,99,9,99999,9,99,9,99,9","10291,1,99999,9",,,"0113,1","MET058METAR EGWC 141350Z 31012G22KT 9999 SCT026 11/03 Q1029 BLU;",
"03414599999","2010-03-14T14:50:00","4","52.640028","-2.305578","82.9","COSFORD, UK","FM-15","EGWC ","V020","330,1,N,0093,1","22000,1,9,N","011265,1,N,1","+0110,1","+0030,1","99999,9","04,5,+01140,1,99,9",,,"04,99,1,99,9,99,9,99999,9,99,9,99,9","10291,1,99999,9",,,,"MET055METAR EGWC 141450Z 33018KT 9999 SCT038 11/03 Q1029 BLU;",
"03414599999","2010-03-15T07:50:00","4","52.640028","-2.305578","82.9","COSFORD, UK","FM-15","EGWC ","V020","240,1,N,0036,1","03000,1,C,N","011265,1,N,1","+0040,1","+0020,1","99999,9","02,5,+01200,1,99,9","07,5,+03000,1,99,9",,"07,99,1,99,9,99,9,99999,9,99,9,99,9","10281,1,99999,9",,,,"MET062METAR EGWC 150750Z 24007KT 9999 FEW040 BKN100 04/02 Q1028 BLU;",
"03414599999","2010-03-15T08:50:00","4","52.640028","-2.305578","82.9","COSFORD, UK","FM-15","EGWC ","V020","250,1,N,0051,1","99999,9,9,Y","009900,1,N,1","+0060,1","+0020,1","99999,9",,,,,"10281,1,99999,9",,,,"MET049METAR EGWC 150850Z 25010KT CAVOK 06/02 Q1028 BLU;",
"03414599999","2010-03-15T09:50:00","4","52.640028","-2.305578","82.9","COSFORD, UK","FM-15","EGWC ","V020","270,1,N,0051,1","99999,9,9,Y","009900,1,N,1","+0080,1","+0030,1","99999,9",,,,,"10281,1,99999,9",,,,"MET049METAR EGWC 150950Z 27010KT CAVOK 08/03 Q1028 BLU;",
"03414599999","2010-03-15T10:50:00","4","52.640028","-2.305578","82.9","COSFORD, UK","FM-15","EGWC ","V020","270,1,N,0062,1","22000,1,9,N","011265,1,N,1","+0110,1","+0020,1","99999,9","02,5,+00600,1,99,9",,,"02,99,1,99,9,99,9,99999,9,99,9,99,9","10281,1,99999,9",,,,"MET055METAR EGWC 151050Z 27012KT 9999 FEW020 11/02 Q1028 BLU;",
"03414599999","2010-03-15T11:50:00","4","52.640028","-2.305578","82.9","COSFORD, UK","FM-15","EGWC ","V020","270,1,N,0062,1","22000,1,9,N","011265,1,N,1","+0100,1","+0030,1","99999,9","04,5,+00780,1,99,9",,,"04,99,1,99,9,99,9,99999,9,99,9,99,9","10281,1,99999,9",,,"0113,1","MET058METAR EGWC 151150Z 27012G22KT 9999 SCT026 10/03 Q1028 BLU;",
"03414599999","2010-03-15T12:50:00","4","52.640028","-2.305578","82.9","COSFORD, UK","FM-15","EGWC ","V020","270,1,N,0077,1","00780,1,C,N","011265,1,N,1","+0100,1","+0010,1","99999,9","07,5,+00780,1,99,9",,,"07,99,1,99,9,99,9,99999,9,99,9,99,9","10271,1,99999,9",,,,"MET055METAR EGWC 151250Z 27015KT 9999 BKN026 10/01 Q1027 BLU;",
"03414599999","2010-03-15T13:50:00","4","52.640028","-2.305578","82.9","COSFORD, UK","FM-15","EGWC ","V020","300,1,N,0093,1","01350,1,C,N","011265,1,N,1","+0100,1","+0020,1","99999,9","07,5,+01350,1,99,9",,,"07,99,1,99,9,99,9,99999,9,99,9,99,9","10271,1,99999,9",,,,"MET055METAR EGWC 151350Z 30018KT 9999 BKN045 10/02 Q1027 BLU;",
"03414599999","2010-03-15T14:50:00","4","52.640028","-2.305578","82.9","COSFORD, UK","FM-15","EGWC ","V020","280,1,N,0036,1","01350,1,C,N","011265,1,N,1","+0100,1","+0010,1","99999,9","02,5,+00750,1,99,9","07,5,+01350,1,99,9",,"07,99,1,99,9,99,9,99999,9,99,9,99,9","10261,1,99999,9",,,,"MET062METAR EGWC 151450Z 28007KT 9999 FEW025 BKN045 10/01 Q1026 BLU;",
"03414599999","2010-03-15T15:50:00","4","52.640028","-2.305578","82.9","COSFORD, UK","FM-15","EGWC ","V020","280,1,N,0041,1","01500,1,C,N","011265,1,N,1","+0100,1","-0020,1","99999,9","02,5,+00840,1,99,9","07,5,+01500,1,99,9",,"07,99,1,99,9,99,9,99999,9,99,9,99,9","10261,1,99999,9",,,,"MET063METAR EGWC 151550Z 28008KT 9999 FEW028 BKN050 10/M02 Q1026 BLU;",
"03414599999","2010-03-16T08:50:00","4","52.640028","-2.305578","82.9","COSFORD, UK","FM-15","EGWC ","V020","999,9,C,0000,1","07500,1,C,N","011265,1,N,1","+0040,1","+0010,1","99999,9","02,5,+01050,1,99,9","07,5,+07500,1,99,9",,"07,99,1,99,9,99,9,99999,9,99,9,99,9","10261,1,99999,9",,,,"MET062METAR EGWC 160850Z 00000KT 9999 FEW035 BKN250 04/01 Q1026 BLU;",
"03414599999","2010-03-16T09:50:00","4","52.640028","-2.305578","82.9","COSFORD, UK","FM-15","EGWC ","V020","999,9,C,0000,1","99999,9,9,Y","009900,1,N,1","+0060,1","+0010,1","99999,9",,,,,"10261,1,99999,9",,,,"MET049METAR EGWC 160950Z 00000KT CAVOK 06/01 Q1026 BLU;",
"03414599999","2010-03-16T10:50:00","4","52.640028","-2.305578","82.9","COSFORD, UK","FM-15","EGWC ","V020","999,9,C,0000,1","99999,9,9,Y","009900,1,N,1","+0090,1","+0010,1","99999,9",,,,,"10261,1,99999,9",,,,"MET049METAR EGWC 161050Z 00000KT CAVOK 09/01 Q1026 BLU;",
"03414599999","2010-03-16T11:50:00","4","52.640028","-2.305578","82.9","COSFORD, UK","FM-15","EGWC ","V020","180,1,N,0062,1","22000,1,9,N","011265,1,N,1","+0100,1","+0010,1","99999,9","04,5,+00900,1,99,9",,,"04,99,1,99,9,99,9,99999,9,99,9,99,9","10251,1,99999,9",,,,"MET055METAR EGWC 161150Z 18012KT 9999 SCT030 10/01 Q1025 BLU;",
"03414599999","2010-03-16T12:50:00","4","52.640028","-2.305578","82.9","COSFORD, UK","FM-15","EGWC ","V020","180,1,N,0051,1","99999,9,9,Y","009900,1,N,1","+0110,1","+0000,1","99999,9",,,,,"10251,1,99999,9",,,,"MET050METAR EGWC 161250Z 18010KT CAVOK 11/M00 Q1025 BLU;",
"03414599999","2010-03-16T13:50:00","4","52.640028","-2.305578","82.9","COSFORD, UK","FM-15","EGWC ","V020","200,1,N,0041,1","99999,9,9,Y","009900,1,N,1","+0110,1","-0010,1","99999,9",,,,,"10240,1,99999,9",,,,"MET050METAR EGWC 161350Z 20008KT CAVOK 11/M01 Q1024 BLU;",
"03414599999","2010-03-16T14:50:00","4","52.640028","-2.305578","82.9","COSFORD, UK","FM-15","EGWC ","V020","180,1,N,0062,1","99999,9,9,Y","009900,1,N,1","+0110,1","-0010,1","99999,9",,,,,"10230,1,99999,9",,,,"MET050METAR EGWC 161450Z 18012KT CAVOK 11/M01 Q1023 BLU;",
"03414599999","2010-03-16T15:50:00","4","52.640028","-2.305578","82.9","COSFORD, UK","FM-15","EGWC ","V020","180,1,N,0051,1","99999,9,9,Y","009900,1,N,1","+0110,1","-0010,1","99999,9",,,,,"10230,1,99999,9",,,,"MET050METAR EGWC 161550Z 18010KT CAVOK 11/M01 Q1023 BLU;",
"03414599999","2010-03-17T07:50:00","4","52.640028","-2.305578","82.9","COSFORD, UK","FM-15","EGWC ","V020","190,1,N,0041,1","00450,1,C,N","011265,1,N,1","+0070,1","+0030,1","99999,9","07,5,+00450,1,99,9",,,"07,99,1,99,9,99,9,99999,9,99,9,99,9","10190,1,99999,9",,,,"MET055METAR EGWC 170750Z 19008KT 9999 BKN015 07/03 Q1019 WHT;",
"03414599999","2010-03-17T08:50:00","4","52.640028","-2.305578","82.9","COSFORD, UK","FM-15","EGWC ","V020","190,1,N,0041,1","00450,1,C,N","011265,1,N,1","+0080,1","+0040,1","99999,9","07,5,+00450,1,99,9",,,"07,99,1,99,9,99,9,99999,9,99,9,99,9","10190,1,99999,9",,,,"MET055METAR EGWC 170850Z 19008KT 9999 BKN015 08/04 Q1019 WHT;",
"03414599999","2010-03-17T09:50:00","4","52.640028","-2.305578","82.9","COSFORD, UK","FM-15","EGWC ","V020","190,1,N,0041,1","01050,1,C,N","011265,1,N,1","+0090,1","+0060,1","99999,9","04,5,+00450,1,99,9","07,5,+01050,1,99,9",,"07,99,1,99,9,99,9,99999,9,99,9,99,9","10200,1,99999,9",,,,"MET062METAR EGWC 170950Z 19008KT 9999 SCT015 BKN035 09/06 Q1020 WHT;",
"03414599999","2010-03-17T10:50:00","4","52.640028","-2.305578","82.9","COSFORD, UK","FM-15","EGWC ","V020","190,1,N,0041,1","01050,1,C,N","011265,1,N,1","+0110,1","+0060,1","99999,9","04,5,+00450,1,99,9","07,5,+01050,1,99,9",,"07,99,1,99,9,99,9,99999,9,99,9,99,9","10200,1,99999,9",,,,"MET062METAR EGWC 171050Z 19008KT 9999 SCT015 BKN035 11/06 Q1020 WHT;",
"03414599999","2010-03-17T11:50:00","4","52.640028","-2.305578","82.9","COSFORD, UK","FM-15","EGWC ","V020","200,1,N,0051,1","00600,1,C,N","011265,1,N,1","+0120,1","+0070,1","99999,9","07,5,+00600,1,99,9",,,"07,99,1,99,9,99,9,99999,9,99,9,99,9","10200,1,99999,9",,,,"MET055METAR EGWC 171150Z 20010KT 9999 BKN020 12/07 Q1020 WHT;",
"03414599999","2010-03-17T12:50:00","4","52.640028","-2.305578","82.9","COSFORD, UK","FM-15","EGWC ","V020","180,1,N,0041,1","00750,1,C,N","011265,1,N,1","+0110,1","+0070,1","99999,9","07,5,+00750,1,99,9",,,"07,99,1,99,9,99,9,99999,9,99,9,99,9","10200,1,99999,9",,,,"MET055METAR EGWC 171250Z 18008KT 9999 BKN025 11/07 Q1020 BLU;",
"03414599999","2010-03-17T13:50:00","4","52.640028","-2.305578","82.9","COSFORD, UK","FM-15","EGWC ","V020","200,1,N,0051,1","22000,1,9,N","011265,1,N,1","+0130,1","+0080,1","99999,9","04,5,+00750,1,99,9",,,"04,99,1,99,9,99,9,99999,9,99,9,99,9","10190,1,99999,9",,,,"MET055METAR EGWC 171350Z 20010KT 9999 SCT025 13/08 Q1019 BLU;",
"03414599999","2010-03-17T14:50:00","4","52.640028","-2.305578","82.9","COSFORD, UK","FM-15","EGWC ","V020","220,1,N,0062,1","22000,1,9,N","011265,1,N,1","+0140,1","+0060,1","99999,9","04,5,+00750,1,99,9",,,"04,99,1,99,9,99,9,99999,9,99,9,99,9","10190,1,99999,9",,,,"MET055METAR EGWC 171450Z 22012KT 9999 SCT025 14/06 Q1019 BLU;",
"03414599999","2010-03-17T15:50:00","4","52.640028","-2.305578","82.9","COSFORD, UK","FM-15","EGWC ","V020","220,1,N,0051,1","22000,1,9,N","011265,1,N,1","+0140,1","+0060,1","99999,9","04,5,+00750,1,99,9",,,"04,99,1,99,9,99,9,99999,9,99,9,99,9","10190,1,99999,9",,,,"MET055METAR EGWC 171550Z 22010KT 9999 SCT025 14/06 Q1019 BLU;",
"03414599999","2010-03-20T08:50:00","4","52.640028","-2.305578","82.9","COSFORD, UK","FM-15","EGWC ","V020","180,1,N,0041,1","00270,1,C,N","006000,1,N,1","+0110,1","+0100,1","99999,9","07,5,+00270,1,99,9","08,5,+00360,1,99,9",,"08,99,1,99,9,99,9,99999,9,99,9,99,9","10000,1,99999,9","61,1",,,"MET066METAR EGWC 200850Z 18008KT 6000 -RA BKN009 OVC012 11/10 Q1000 GRN;",
"03414599999","2010-03-21T08:50:00","4","52.640028","-2.305578","82.9","COSFORD, UK","FM-15","EGWC ","V020","180,1,N,0026,1","99999,9,9,Y","009900,1,N,1","+0030,1","+0030,1","99999,9",,,,,"10159,1,99999,9",,,,"MET049METAR EGWC 210850Z 18005KT CAVOK 03/03 Q1016 BLU;",
"03414599999","2010-03-21T09:50:00","4","52.640028","-2.305578","82.9","COSFORD, UK","FM-15","EGWC ","V020","200,1,N,0026,1","99999,9,9,Y","009900,1,N,1","+0070,1","+0050,1","99999,9",,,,,"10169,1,99999,9",,,,"MET049METAR EGWC 210950Z 20005KT CAVOK 07/05 Q1017 BLU;",
"03414599999","2010-03-21T10:50:00","4","52.640028","-2.305578","82.9","COSFORD, UK","FM-15","EGWC ","V020","180,1,N,0026,1","99999,9,C,N","011265,1,N,1","+0100,1","+0050,1","99999,9","02,5,+00750,1,99,9","04,5,+01500,1,99,9",,"04,99,1,99,9,99,9,99999,9,99,9,99,9","10169,1,99999,9",,,,"MET062METAR EGWC 211050Z 18005KT 9999 FEW025 SCT050 10/05 Q1017 BLU;","P01 015003SCOCIG"
"03414599999","2010-03-21T11:50:00","4","52.640028","-2.305578","82.9","COSFORD, UK","FM-15","EGWC ","V020","210,1,N,0041,1","22000,1,9,N","011265,1,N,1","+0110,1","+0040,1","99999,9","04,5,+00840,1,99,9",,,"04,99,1,99,9,99,9,99999,9,99,9,99,9","10169,1,99999,9",,,,"MET055METAR EGWC 211150Z 21008KT 9999 SCT028 11/04 Q1017 BLU;",
"03414599999","2010-03-21T12:50:00","4","52.640028","-2.305578","82.9","COSFORD, UK","FM-15","EGWC ","V020","220,1,N,0036,1","22000,1,9,N","011265,1,N,1","+0110,1","+0040,1","99999,9","04,5,+01050,1,99,9",,,"04,99,1,99,9,99,9,99999,9,99,9,99,9","10169,1,99999,9",,,,"MET055METAR EGWC 211250Z 22007KT 9999 SCT035 11/04 Q1017 BLU;",
"03414599999","2010-03-21T13:50:00","4","52.640028","-2.305578","82.9","COSFORD, UK","FM-15","EGWC ","V020","220,1,N,0031,1","22000,1,9,N","011265,1,N,1","+0120,1","+0040,1","99999,9","04,5,+01050,1,99,9",,,"04,99,1,99,9,99,9,99999,9,99,9,99,9","10169,1,99999,9",,,,"MET055METAR EGWC 211350Z 22006KT 9999 SCT035 12/04 Q1017 BLU;",
"03414599999","2010-03-21T14:50:00","4","52.640028","-2.305578","82.9","COSFORD, UK","FM-15","EGWC ","V020","240,1,N,0051,1","22000,1,9,N","011265,1,N,1","+0130,1","+0040,1","99999,9","04,5,+01050,1,99,9",,,"04,99,1,99,9,99,9,99999,9,99,9,99,9","10169,1,99999,9",,,,"MET055METAR EGWC 211450Z 24010KT 9999 SCT035 13/04 Q1017 BLU;",
"03414599999","2010-03-21T15:50:00","4","52.640028","-2.305578","82.9","COSFORD, UK","FM-15","EGWC ","V020","230,1,N,0036,1","22000,1,9,N","011265,1,N,1","+0130,1","+0050,1","99999,9","04,5,+01140,1,99,9",,,"04,99,1,99,9,99,9,99999,9,99,9,99,9","10169,1,99999,9",,,,"MET055METAR EGWC 211550Z 23007KT 9999 SCT038 13/05 Q1017 BLU;",
"03414599999","2010-03-22T07:50:00","4","52.640028","-2.305578","82.9","COSFORD, UK","FM-15","EGWC ","V020","180,1,N,0077,1","22000,1,9,N","011265,1,N,1","+0080,1","+0050,1","99999,9","02,5,+00750,1,99,9",,,"02,99,1,99,9,99,9,99999,9,99,9,99,9","10139,1,99999,9",,,,"MET055METAR EGWC 220750Z 18015KT 9999 FEW025 08/05 Q1014 BLU;",
"03414599999","2010-03-22T08:50:00","4","52.640028","-2.305578","82.9","COSFORD, UK","FM-15","EGWC ","V020","180,1,N,0077,1","00450,1,C,N","011265,1,N,1","+0090,1","+0060,1","99999,9","07,5,+00450,1,99,9",,,"07,99,1,99,9,99,9,99999,9,99,9,99,9","10129,1,99999,9",,,,"MET055METAR EGWC 220850Z 18015KT 9999 BKN015 09/06 Q1013 WHT;",
"03414599999","2010-03-22T09:50:00","4","52.640028","-2.305578","82.9","COSFORD, UK","FM-15","EGWC ","V020","180,1,N,0093,1","00450,1,C,N","011265,1,N,1","+0100,1","+0050,1","99999,9","07,5,+00450,1,99,9",,,"07,99,1,99,9,99,9,99999,9,99,9,99,9","10129,1,99999,9",,,,"MET055METAR EGWC 220950Z 18018KT 9999 BKN015 10/05 Q1013 WHT;",
"03414599999","2010-03-22T10:50:00","4","52.640028","-2.305578","82.9","COSFORD, UK","FM-15","EGWC ","V020","190,1,N,0077,1","00630,1,C,N","011265,1,N,1","+0100,1","+0050,1","99999,9","07,5,+00630,1,99,9",,,"07,99,1,99,9,99,9,99999,9,99,9,99,9","10129,1,99999,9",,,"0129,1","MET058METAR EGWC 221050Z 19015G25KT 9999 BKN021 10/05 Q1013 WHT;",
"03414599999","2010-03-22T11:50:00","4","52.640028","-2.305578","82.9","COSFORD, UK","FM-15","EGWC ","V020","190,1,N,0093,1","00600,1,C,N","011265,1,N,1","+0100,1","+0050,1","99999,9","07,5,+00600,1,99,9",,,"07,99,1,99,9,99,9,99999,9,99,9,99,9","10119,1,99999,9",,,"0154,1","MET058METAR EGWC 221150Z 19018G30KT 9999 BKN020 10/05 Q1012 WHT;",
"03414599999","2010-03-22T12:50:00","4","52.640028","-2.305578","82.9","COSFORD, UK","FM-15","EGWC ","V020","190,1,N,0077,1","00600,1,C,N","011265,1,N,1","+0100,1","+0060,1","99999,9","07,5,+00600,1,99,9",,,"07,99,1,99,9,99,9,99999,9,99,9,99,9","10119,1,99999,9","61,1",,,"MET059METAR EGWC 221250Z 19015KT 9999 -RA BKN020 10/06 Q1012 WHT;",
"03414599999","2010-03-22T13:50:00","4","52.640028","-2.305578","82.9","COSFORD, UK","FM-15","EGWC ","V020","190,1,N,0077,1","00600,1,C,N","011265,1,N,1","+0100,1","+0070,1","99999,9","07,5,+00600,1,99,9",,,"07,99,1,99,9,99,9,99999,9,99,9,99,9","10119,1,99999,9","61,1",,,"MET059METAR EGWC 221350Z 19015KT 9999 -RA BKN020 10/07 Q1012 WHT;",
"03414599999","2010-03-22T14:50:00","4","52.640028","-2.305578","82.9","COSFORD, UK","FM-15","EGWC ","V020","190,1,N,0077,1","00390,1,C,N","011265,1,N,1","+0090,1","+0070,1","99999,9","07,5,+00390,1,99,9",,,"07,99,1,99,9,99,9,99999,9,99,9,99,9","10119,1,99999,9","61,1",,,"MET059METAR EGWC 221450Z 19015KT 9999 -RA BKN013 09/07 Q1012 GRN;",
"03414599999","2010-03-22T15:50:00","4","52.640028","-2.305578","82.9","COSFORD, UK","FM-15","EGWC ","V020","220,1,N,0051,1","00450,1,C,N","011265,1,N,1","+0100,1","+0080,1","99999,9","02,5,+00390,1,99,9","07,5,+00450,1,99,9",,"07,99,1,99,9,99,9,99999,9,99,9,99,9","10119,1,99999,9",,,,"MET062METAR EGWC 221550Z 22010KT 9999 FEW013 BKN015 10/08 Q1012 WHT;",
"03414599999","2010-03-23T08:50:00","4","52.640028","-2.305578","82.9","COSFORD, UK","FM-15","EGWC ","V020","180,1,N,0036,1","22000,1,9,N","001000,1,N,1","+0030,1","+0020,1","99999,9","02,5,+00900,1,99,9",,,"02,99,1,99,9,99,9,99999,9,99,9,99,9","10169,1,99999,9","10,1",,,"MET058METAR EGWC 230850Z 18007KT 1000 BR FEW030 03/02 Q1017 AMB;",
"03414599999","2010-03-23T09:50:00","4","52.640028","-2.305578","82.9","COSFORD, UK","FM-15","EGWC ","V020","180,1,N,0026,1","22000,1,9,N","006000,1,N,1","+0050,1","+0010,1","99999,9","02,5,+00450,1,99,9",,,"02,99,1,99,9,99,9,99999,9,99,9,99,9","10169,1,99999,9","05,1",,,"MET058METAR EGWC 230950Z 18005KT 6000 HZ FEW015 05/01 Q1017 WHT;",
"03414599999","2010-03-23T10:50:00","4","52.640028","-2.305578","82.9","COSFORD, UK","FM-15","EGWC ","V020","160,1,N,0041,1","22000,1,9,N","006000,1,N,1","+0070,1","+0050,1","99999,9","02,5,+00450,1,99,9",,,"02,99,1,99,9,99,9,99999,9,99,9,99,9","10159,1,99999,9","05,1",,,"MET058METAR EGWC 231050Z 16008KT 6000 HZ FEW015 07/05 Q1016 WHT;",
"03414599999","2010-03-23T11:50:00","4","52.640028","-2.305578","82.9","COSFORD, UK","FM-15","EGWC ","V020","180,1,N,0051,1","99999,9,C,N","011265,1,N,1","+0090,1","+0040,1","99999,9","02,5,+00450,1,99,9","04,5,+00750,1,99,9",,"04,99,1,99,9,99,9,99999,9,99,9,99,9","10149,1,99999,9",,,,"MET062METAR EGWC 231150Z 18010KT 9999 FEW015 SCT025 09/04 Q1015 BLU;","P01 007503SCOCIG"
"03414599999","2010-03-23T12:50:00","4","52.640028","-2.305578","82.9","COSFORD, UK","FM-15","EGWC ","V020","150,1,N,0051,1","00780,1,C,N","011265,1,N,1","+0100,1","+0040,1","99999,9","07,5,+00780,1,99,9",,,"07,99,1,99,9,99,9,99999,9,99,9,99,9","10139,1,99999,9",,,,"MET055METAR EGWC 231250Z 15010KT 9999 BKN026 10/04 Q1014 BLU;",
"03414599999","2010-03-23T13:50:00","4","52.640028","-2.305578","82.9","COSFORD, UK","FM-15","EGWC ","V020","150,1,N,0051,1","00540,1,C,N","011265,1,N,1","+0090,1","+0060,1","99999,9","07,5,+00540,1,99,9",,,"07,99,1,99,9,99,9,99999,9,99,9,99,9","10119,1,99999,9",,,,"MET055METAR EGWC 231350Z 15010KT 9999 BKN018 09/06 Q1012 WHT;",
"03414599999","2010-03-23T14:30:00","4","52.640028","-2.305578","82.9","COSFORD, UK","FM-15","EGWC ","V020","150,1,N,0051,1","00420,1,C,N","005000,1,N,1","+0090,1","+0060,1","99999,9","07,5,+00420,1,99,9",,,"07,99,1,99,9,99,9,99999,9,99,9,99,9","10119,1,99999,9","61,1",,,"MET059METAR EGWC 231430Z 15010KT 5000 -RA BKN014 09/06 Q1012 GRN;",
"03414599999","2010-03-23T14:50:00","4","52.640028","-2.305578","82.9","COSFORD, UK","FM-15","EGWC ","V020","180,1,N,0051,1","00420,1,C,N","005000,1,N,1","+0090,1","+0070,1","99999,9","07,5,+00420,1,99,9",,,"07,99,1,99,9,99,9,99999,9,99,9,99,9","10108,1,99999,9","61,1",,,"MET059METAR EGWC 231450Z 18010KT 5000 -RA BKN014 09/07 Q1011 GRN;",
"03414599999","2010-03-24T08:50:00","4","52.640028","-2.305578","82.9","COSFORD, UK","FM-15","EGWC ","V020","160,1,N,0062,1","00360,1,C,N","006000,1,N,1","+0100,1","+0080,1","99999,9","02,5,+00300,1,99,9","07,5,+00360,1,99,9",,"07,99,1,99,9,99,9,99999,9,99,9,99,9","10031,1,99999,9","05,1",,,"MET065METAR EGWC 240850Z 16012KT 6000 HZ FEW010 BKN012 10/08 Q1003 GRN;",
"03414599999","2010-03-24T09:50:00","4","52.640028","-2.305578","82.9","COSFORD, UK","FM-15","EGWC ","V020","180,1,N,0062,1","00360,1,C,N","006000,1,N,1","+0100,1","+0070,1","99999,9","02,5,+00300,1,99,9","07,5,+00360,1,99,9",,"07,99,1,99,9,99,9,99999,9,99,9,99,9","10031,1,99999,9","05,1",,,"MET065METAR EGWC 240950Z 18012KT 6000 HZ FEW010 BKN012 10/07 Q1003 GRN;",
"03414599999","2010-03-24T10:50:00","4","52.640028","-2.305578","82.9","COSFORD, UK","FM-15","EGWC ","V020","170,1,N,0062,1","00390,1,C,N","008000,1,N,1","+0110,1","+0080,1","99999,9","07,5,+00390,1,99,9",,,"07,99,1,99,9,99,9,99999,9,99,9,99,9","10031,1,99999,9","05,1",,,"MET058METAR EGWC 241050Z 17012KT 8000 HZ BKN013 11/08 Q1003 GRN;",
"03414599999","2010-03-24T11:50:00","4","52.640028","-2.305578","82.9","COSFORD, UK","FM-15","EGWC ","V020","180,1,N,0041,1","00390,1,C,N","008000,1,N,1","+0120,1","+0090,1","99999,9","07,5,+00390,1,99,9",,,"07,99,1,99,9,99,9,99999,9,99,9,99,9","10031,1,99999,9","05,1",,,"MET058METAR EGWC 241150Z 18008KT 8000 HZ BKN013 12/09 Q1003 GRN;",
"03414599999","2010-03-24T12:50:00","4","52.640028","-2.305578","82.9","COSFORD, UK","FM-15","EGWC ","V020","180,1,N,0062,1","00450,1,C,N","011265,1,N,1","+0130,1","+0090,1","99999,9","07,5,+00450,1,99,9",,,"07,99,1,99,9,99,9,99999,9,99,9,99,9","10031,1,99999,9",,,,"MET055METAR EGWC 241250Z 18012KT 9999 BKN015 13/09 Q1003 WHT;",
"03414599999","2010-03-24T13:50:00","4","52.640028","-2.305578","82.9","COSFORD, UK","FM-15","EGWC ","V020","180,1,N,0077,1","00540,1,C,N","011265,1,N,1","+0130,1","+0080,1","99999,9","07,5,+00540,1,99,9",,,"07,99,1,99,9,99,9,99999,9,99,9,99,9","10031,1,99999,9",,,,"MET055METAR EGWC 241350Z 18015KT 9999 BKN018 13/08 Q1003 WHT;",
"03414599999","2010-03-24T14:50:00","4","52.640028","-2.305578","82.9","COSFORD, UK","FM-15","EGWC ","V020","200,1,N,0062,1","00900,1,C,N","011265,1,N,1","+0130,1","+0080,1","99999,9","04,5,+00540,1,99,9","07,5,+00900,1,99,9",,"07,99,1,99,9,99,9,99999,9,99,9,99,9","10020,1,99999,9","61,1",,,"MET066METAR EGWC 241450Z 20012KT 9999 -RA SCT018 BKN030 13/08 Q1002 WHT;",
"03414599999","2010-03-24T15:50:00","4","52.640028","-2.305578","82.9","COSFORD, UK","FM-15","EGWC ","V020","190,1,N,0062,1","00900,1,C,N","011265,1,N,1","+0130,1","+0080,1","99999,9","04,5,+00540,1,99,9","07,5,+00900,1,99,9",,"07,99,1,99,9,99,9,99999,9,99,9,99,9","10020,1,99999,9","61,1",,,"MET066METAR EGWC 241550Z 19012KT 9999 -RA SCT018 BKN030 13/08 Q1002 WHT;",
"03414599999","2010-03-25T08:50:00","4","52.640028","-2.305578","82.9","COSFORD, UK","FM-15","EGWC ","V020","180,1,N,0041,1","06000,1,C,N","006000,1,N,1","+0100,1","+0080,1","99999,9","02,5,+00240,1,99,9","07,5,+06000,1,99,9",,"07,99,1,99,9,99,9,99999,9,99,9,99,9","09980,1,99999,9","05,1",,,"MET065METAR EGWC 250850Z 18008KT 6000 HZ FEW008 BKN200 10/08 Q0998 WHT;",
"03414599999","2010-03-25T09:50:00","4","52.640028","-2.305578","82.9","COSFORD, UK","FM-15","EGWC ","V020","160,1,N,0051,1","00600,1,C,N","011265,1,N,1","+0100,1","+0080,1","99999,9","02,5,+00300,1,99,9","04,5,+00600,1,99,9","07,5,+06000,1,99,9","07,99,1,99,9,99,9,99999,9,99,9,99,9","09980,1,99999,9",,,,"MET069METAR EGWC 250950Z 16010KT 9999 FEW010 SCT020 BKN200 10/08 Q0998 WHT;",
"03414599999","2010-03-25T10:50:00","4","52.640028","-2.305578","82.9","COSFORD, UK","FM-15","EGWC ","V020","180,1,N,0051,1","99999,9,C,N","011265,1,N,1","+0110,1","+0070,1","99999,9","02,5,+00510,1,99,9","04,5,+00750,1,99,9",,"04,99,1,99,9,99,9,99999,9,99,9,99,9","09980,1,99999,9",,,,"MET062METAR EGWC 251050Z 18010KT 9999 FEW017 SCT025 11/07 Q0998 BLU;","P01 007503SCOCIG"
"03414599999","2010-03-25T11:50:00","4","52.640028","-2.305578","82.9","COSFORD, UK","FM-15","EGWC ","V020","180,1,N,0051,1","06000,1,C,N","011265,1,N,1","+0110,1","+0060,1","99999,9","04,5,+00750,1,99,9","07,5,+06000,1,99,9",,"07,99,1,99,9,99,9,99999,9,99,9,99,9","09980,1,99999,9",,,,"MET062METAR EGWC 251150Z 18010KT 9999 SCT025 BKN200 11/06 Q0998 BLU;",
"03414599999","2010-03-25T12:50:00","4","52.640028","-2.305578","82.9","COSFORD, UK","FM-15","EGWC ","V020","180,1,N,0051,1","06000,1,C,N","011265,1,N,1","+0110,1","+0060,1","99999,9","04,5,+00750,1,99,9","07,5,+06000,1,99,9",,"07,99,1,99,9,99,9,99999,9,99,9,99,9","09980,1,99999,9",,,,"MET062METAR EGWC 251250Z 18010KT 9999 SCT025 BKN200 11/06 Q0998 BLU;",
"03414599999","2010-03-25T13:50:00","4","52.640028","-2.305578","82.9","COSFORD, UK","FM-15","EGWC ","V020","180,1,N,0051,1","22000,1,9,N","011265,1,N,1","+0130,1","+0050,1","99999,9","04,5,+00750,1,99,9",,,"04,99,1,99,9,99,9,99999,9,99,9,99,9","09970,1,99999,9",,,,"MET055METAR EGWC 251350Z 18010KT 9999 SCT025 13/05 Q0997 BLU;",
"03414599999","2010-03-25T14:50:00","4","52.640028","-2.305578","82.9","COSFORD, UK","FM-15","EGWC ","V020","140,1,N,0051,1","22000,1,9,N","011265,1,N,1","+0120,1","+0060,1","99999,9","04,5,+00750,1,99,9",,,"04,99,1,99,9,99,9,99999,9,99,9,99,9","09959,1,99999,9",,,,"MET055METAR EGWC 251450Z 14010KT 9999 SCT025 12/06 Q0996 BLU;",
"03414599999","2010-03-25T15:50:00","4","52.640028","-2.305578","82.9","COSFORD, UK","FM-15","EGWC ","V020","170,1,N,0026,1","00750,1,C,N","005000,1,N,1","+0120,1","+0060,1","99999,9","07,5,+00750,1,99,9",,,"07,99,1,99,9,99,9,99999,9,99,9,99,9","09949,1,99999,9","61,1",,,"MET059METAR EGWC 251550Z 17005KT 5000 -RA BKN025 12/06 Q0995 WHT;",
"03414599999","2010-03-27T08:50:00","4","52.640028","-2.305578","82.9","COSFORD, UK","FM-15","EGWC ","V020","310,1,N,0051,1","22000,1,9,N","011265,1,N,1","+0070,1","+0050,1","99999,9","04,5,+00300,1,99,9",,,"04,99,1,99,9,99,9,99999,9,99,9,99,9","10041,1,99999,9",,,,"MET055METAR EGWC 270850Z 31010KT 9999 SCT010 07/05 Q1004 GRN;",
"03414599999","2010-03-27T10:50:00","4","52.640028","-2.305578","82.9","COSFORD, UK","FM-15","EGWC ","V020","300,1,N,0051,1","22000,1,9,N","011265,1,N,1","+0090,1","+0040,1","99999,9","04,5,+00900,1,99,9",,,"04,99,1,99,9,99,9,99999,9,99,9,99,9","10051,1,99999,9",,,,"MET055METAR EGWC 271050Z 30010KT 9999 SCT030 09/04 Q1005 BLU;",
"03414599999","2010-03-27T11:50:00","4","52.640028","-2.305578","82.9","COSFORD, UK","FM-15","EGWC ","V020","290,1,N,0051,1","22000,1,9,N","011265,1,N,1","+0100,1","+0030,1","99999,9","04,5,+00900,1,99,9",,,"04,99,1,99,9,99,9,99999,9,99,9,99,9","10061,1,99999,9",,,,"MET055METAR EGWC 271150Z 29010KT 9999 SCT030 10/03 Q1006 BLU;",
"03414599999","2010-03-27T12:50:00","4","52.640028","-2.305578","82.9","COSFORD, UK","FM-15","EGWC ","V020","300,1,N,0062,1","22000,1,9,N","011265,1,N,1","+0100,1","+0010,1","99999,9","04,5,+00900,1,99,9",,,"04,99,1,99,9,99,9,99999,9,99,9,99,9","10061,1,99999,9",,,,"MET055METAR EGWC 271250Z 30012KT 9999 SCT030 10/01 Q1006 BLU;",
"03414599999","2010-03-27T13:50:00","4","52.640028","-2.305578","82.9","COSFORD, UK","FM-15","EGWC ","V020","300,1,N,0062,1","22000,1,9,N","011265,1,N,1","+0110,1","+0020,1","99999,9","04,5,+00900,1,99,9",,,"04,99,1,99,9,99,9,99999,9,99,9,99,9","10061,1,99999,9",,,,"MET055METAR EGWC 271350Z 30012KT 9999 SCT030 11/02 Q1006 BLU;",
"03414599999","2010-03-27T14:50:00","4","52.640028","-2.305578","82.9","COSFORD, UK","FM-15","EGWC ","V020","300,1,N,0041,1","22000,1,9,N","011265,1,N,1","+0110,1","+0030,1","99999,9","04,5,+00900,1,99,9",,,"04,99,1,99,9,99,9,99999,9,99,9,99,9","10061,1,99999,9",,,,"MET055METAR EGWC 271450Z 30008KT 9999 SCT030 11/03 Q1006 BLU;",
"03414599999","2010-03-28T07:50:00","4","52.640028","-2.305578","82.9","COSFORD, UK","FM-15","EGWC ","V020","230,1,N,0041,1","01050,1,C,N","011265,1,N,1","+0060,1","+0040,1","99999,9","07,5,+01050,1,99,9",,,"07,99,1,99,9,99,9,99999,9,99,9,99,9","10081,1,99999,9",,,,"MET055METAR EGWC 280750Z 23008KT 9999 BKN035 06/04 Q1008 BLU;",
"03414599999","2010-03-28T08:50:00","4","52.640028","-2.305578","82.9","COSFORD, UK","FM-15","EGWC ","V020","240,1,N,0041,1","99999,9,C,N","011265,1,N,1","+0080,1","+0040,1","99999,9","02,5,+00600,1,99,9","04,5,+01200,1,99,9",,"04,99,1,99,9,99,9,99999,9,99,9,99,9","10081,1,99999,9",,,,"MET062METAR EGWC 280850Z 24008KT 9999 FEW020 SCT040 08/04 Q1008 BLU;","P01 012003SCOCIG"
"03414599999","2010-03-28T09:50:00","4","52.640028","-2.305578","82.9","COSFORD, UK","FM-15","EGWC ","V020","260,1,N,0051,1","22000,1,9,N","011265,1,N,1","+0090,1","-0010,1","99999,9","04,5,+01050,1,99,9",,,"04,99,1,99,9,99,9,99999,9,99,9,99,9","10071,1,99999,9",,,,"MET056METAR EGWC 280950Z 26010KT 9999 SCT035 09/M01 Q1007 BLU;",
"03414599999","2010-03-28T10:50:00","4","52.640028","-2.305578","82.9","COSFORD, UK","FM-15","EGWC ","V020","260,1,N,0051,1","22000,1,9,N","011265,1,N,1","+0100,1","+0020,1","99999,9","04,5,+01050,1,99,9",,,"04,99,1,99,9,99,9,99999,9,99,9,99,9","10071,1,99999,9",,,,"MET055METAR EGWC 281050Z 26010KT 9999 SCT035 10/02 Q1007 BLU;",
"03414599999","2010-03-28T11:50:00","4","52.640028","-2.305578","82.9","COSFORD, UK","FM-15","EGWC ","V020","280,1,N,0077,1","99999,9,C,N","011265,1,N,1","+0100,1","+0020,1","99999,9","02,5,+00450,1,99,9","04,5,+01050,1,99,9",,"04,99,1,99,9,99,9,99999,9,99,9,99,9","10071,1,99999,9",,,,"MET062METAR EGWC 281150Z 28015KT 9999 FEW015 SCT035 10/02 Q1007 BLU;","P01 010503SCOCIG"
"03414599999","2010-03-28T12:50:00","4","52.640028","-2.305578","82.9","COSFORD, UK","FM-15","EGWC ","V020","280,1,N,0062,1","22000,1,9,N","011265,1,N,1","+0100,1","+0020,1","99999,9","04,5,+01050,1,99,9",,,"04,99,1,99,9,99,9,99999,9,99,9,99,9","10071,1,99999,9",,,,"MET055METAR EGWC 281250Z 28012KT 9999 SCT035 10/02 Q1007 BLU;",
"03414599999","2010-03-28T13:50:00","4","52.640028","-2.305578","82.9","COSFORD, UK","FM-15","EGWC ","V020","270,1,N,0062,1","22000,1,9,N","011265,1,N,1","+0110,1","+0030,1","99999,9","04,5,+00900,1,99,9",,,"04,99,1,99,9,99,9,99999,9,99,9,99,9","10061,1,99999,9",,,,"MET055METAR EGWC 281350Z 27012KT 9999 SCT030 11/03 Q1006 BLU;",
"03414599999","2010-03-28T14:50:00","4","52.640028","-2.305578","82.9","COSFORD, UK","FM-15","EGWC ","V020","280,1,N,0062,1","22000,1,9,N","011265,1,N,1","+0120,1","+0020,1","99999,9","04,5,+00900,1,99,9",,,"04,99,1,99,9,99,9,99999,9,99,9,99,9","10061,1,99999,9",,,,"MET055METAR EGWC 281450Z 28012KT 9999 SCT030 12/02 Q1006 BLU;",
"03414599999","2010-03-28T15:50:00","4","52.640028","-2.305578","82.9","COSFORD, UK","FM-15","EGWC ","V020","270,1,N,0051,1","22000,1,9,N","011265,1,N,1","+0110,1","+0010,1","99999,9","04,5,+00900,1,99,9",,,"04,99,1,99,9,99,9,99999,9,99,9,99,9","10051,1,99999,9",,,,"MET055METAR EGWC 281550Z 27010KT 9999 SCT030 11/01 Q1005 BLU;",
"03414599999","2010-03-29T07:50:00","4","52.640028","-2.305578","82.9","COSFORD, UK","FM-15","EGWC ","V020","090,1,N,0026,1","00300,1,C,N","004000,1,N,1","+0060,1","+0040,1","99999,9","04,5,+00120,1,99,9","08,5,+00300,1,99,9",,"08,99,1,99,9,99,9,99999,9,99,9,99,9","10050,1,99999,9",,,,"MET063METAR EGWC 290750Z 09005KT 4000 SCT004 OVC010 06/04 Q1005 YLO2;","Q01+100513APOA  "
"03414599999","2010-03-29T08:50:00","4","52.640028","-2.305578","82.9","COSFORD, UK","FM-15","EGWC ","V020","090,1,N,0026,1","99999,9,C,N","002500,1,N,1","+0060,1","+0050,1","99999,9","04,5,+00120,1,99,9","04,5,+00120,5,99,9","07,5,+00210,5,99,9","04,99,1,99,9,99,9,99999,9,99,9,99,9","09990,1,99999,9",,,,"MET074METAR EGWC 290850Z 09005KT 2500 SCT004 -RA SCT004 BKN007 06/05 Q0999 YLO2;","P01 001203SCOCIG"
"03414599999","2010-03-29T09:50:00","4","52.640028","-2.305578","82.9","COSFORD, UK","FM-15","EGWC ","V020","090,1,N,0051,1","00240,1,C,N","002500,1,N,1","+0060,1","+0060,1","99999,9","04,5,+00120,1,99,9","07,5,+00240,1,99,9",,"07,99,1,99,9,99,9,99999,9,99,9,99,9","09990,1,99999,9","61,1",,,"MET067METAR EGWC 290950Z 09010KT 2500 -RA SCT004 BKN008 06/06 Q0999 YLO2;",
"03414599999","2010-03-29T11:50:00","4","52.640028","-2.305578","82.9","COSFORD, UK","FM-15","EGWC ","V020","150,1,N,0026,1","00240,1,C,N","008000,1,N,1","+0100,1","+0090,1","99999,9","04,5,+00120,1,99,9","07,5,+00240,1,99,9",,"07,99,1,99,9,99,9,99999,9,99,9,99,9","09970,1,99999,9","61,1",,,"MET067METAR EGWC 291150Z 15005KT 8000 -RA SCT004 BKN008 10/09 Q0997 YLO2;",
"03414599999","2010-03-29T12:50:00","4","52.640028","-2.305578","82.9","COSFORD, UK","FM-15","EGWC ","V020","160,1,N,0051,1","00480,1,C,N","011265,1,N,1","+0110,1","+0090,1","99999,9","07,5,+00480,1,99,9",,,"07,99,1,99,9,99,9,99999,9,99,9,99,9","09959,1,99999,9",,,,"MET055METAR EGWC 291250Z 16010KT 9999 BKN016 11/09 Q0996 WHT;",
"03414599999","2010-03-29T13:50:00","4","52.640028","-2.305578","82.9","COSFORD, UK","FM-15","EGWC ","V020","180,1,N,0051,1","00480,1,C,N","011265,1,N,1","+0110,1","+0080,1","99999,9","07,5,+00480,1,99,9",,,"07,99,1,99,9,99,9,99999,9,99,9,99,9","09959,1,99999,9","61,1",,,"MET059METAR EGWC 291350Z 18010KT 9999 -RA BKN016 11/08 Q0996 WHT;",
"03414599999","2010-03-29T14:50:00","4","52.640028","-2.305578","82.9","COSFORD, UK","FM-15","EGWC ","V020","180,1,N,0051,1","00240,1,C,N","004000,1,N,1","+0100,1","+0090,1","99999,9","07,5,+00240,1,99,9",,,"07,99,1,99,9,99,9,99999,9,99,9,99,9","09949,1,99999,9","61,1",,,"MET059METAR EGWC 291450Z 18010KT 4000 -RA BKN008 10/09 Q0995 GRN;",
"03414599999","2010-03-30T06:50:00","4","52.640028","-2.305578","82.9","COSFORD, UK","FM-15","EGWC ","V020","160,1,N,0051,1","00300,1,C,N","011265,1,N,1","+0090,1","+0070,1","99999,9","07,5,+00300,1,99,9",,,"07,99,1,99,9,99,9,99999,9,99,9,99,9","09841,1,99999,9","61,1",,,"MET059METAR EGWC 300650Z 16010KT 9999 -RA BKN010 09/07 Q0984 GRN;",
"03414599999","2010-03-30T07:50:00","4","52.640028","-2.305578","82.9","COSFORD, UK","FM-15","EGWC ","V020","160,1,N,0072,1","00300,1,C,N","011265,1,N,1","+0090,1","+0070,1","99999,9","07,5,+00300,1,99,9",,,"07,99,1,99,9,99,9,99999,9,99,9,99,9","09841,1,99999,9",,,,"MET055METAR EGWC 300750Z 16014KT 9999 BKN010 09/07 Q0984 GRN;",
"03414599999","2010-03-30T08:50:00","4","52.640028","-2.305578","82.9","COSFORD, UK","FM-15","EGWC ","V020","170,1,N,0072,1","00450,1,C,N","011265,1,N,1","+0090,1","+0070,1","99999,9","04,5,+00300,1,99,9","07,5,+00450,1,99,9",,"07,99,1,99,9,99,9,99999,9,99,9,99,9","09831,1,99999,9",,,,"MET062METAR EGWC 300850Z 17014KT 9999 SCT010 BKN015 09/07 Q0983 GRN;",
"03414599999","2010-03-30T09:50:00","4","52.640028","-2.305578","82.9","COSFORD, UK","FM-15","EGWC ","V020","160,1,N,0051,1","00420,1,C,N","011265,1,N,1","+0090,1","+0090,1","99999,9","04,5,+00300,1,99,9","07,5,+00420,1,99,9",,"07,99,1,99,9,99,9,99999,9,99,9,99,9","09831,1,99999,9","61,1",,,"MET066METAR EGWC 300950Z 16010KT 9999 -RA SCT010 BKN014 09/09 Q0983 GRN;",
"03414599999","2010-03-30T10:50:00","4","52.640028","-2.305578","82.9","COSFORD, UK","FM-15","EGWC ","V020","160,1,N,0062,1","00600,1,C,N","011265,1,N,1","+0090,1","+0070,1","99999,9","04,5,+00360,1,99,9","07,5,+00600,1,99,9",,"07,99,1,99,9,99,9,99999,9,99,9,99,9","09831,1,99999,9",,,,"MET062METAR EGWC 301050Z 16012KT 9999 SCT012 BKN020 09/07 Q0983 GRN;",
"03414599999","2010-03-30T11:50:00","4","52.640028","-2.305578","82.9","COSFORD, UK","FM-15","EGWC ","V020","160,1,N,0051,1","00480,1,C,N","011265,1,N,1","+0100,1","+0070,1","99999,9","04,5,+00360,1,99,9","07,5,+00480,1,99,9",,"07,99,1,99,9,99,9,99999,9,99,9,99,9","09821,1,99999,9",,,,"MET062METAR EGWC 301150Z 16010KT 9999 SCT012 BKN016 10/07 Q0982 GRN;",
"03414599999","2010-03-30T12:50:00","4","52.640028","-2.305578","82.9","COSFORD, UK","FM-15","EGWC ","V020","150,1,N,0082,1","00600,1,C,N","011265,1,N,1","+0120,1","+0060,1","99999,9","02,5,+00480,1,99,9","07,5,+00600,1,99,9",,"07,99,1,99,9,99,9,99999,9,99,9,99,9","09810,1,99999,9",,,,"MET062METAR EGWC 301250Z 15016KT 9999 FEW016 BKN020 12/06 Q0981 WHT;",
"03414599999","2010-03-30T13:50:00","4","52.640028","-2.305578","82.9","COSFORD, UK","FM-15","EGWC ","V020","170,1,N,0077,1","00300,1,C,N","005000,1,N,1","+0110,1","+0060,1","99999,9","07,5,+00300,1,99,9",,,"07,99,1,99,9,99,9,99999,9,99,9,99,9","09810,1,99999,9","82,1",,,"MET061METAR EGWC 301350Z 17015KT 5000 +SHRA BKN010 11/06 Q0981 GRN;",
"03414599999","2010-03-30T14:50:00","4","52.640028","-2.305578","82.9","COSFORD, UK","FM-15","EGWC ","V020","240,1,N,0062,1","00450,1,C,N","006000,1,N,1","+0080,1","+0060,1","99999,9","04,5,+00300,1,99,9","07,5,+00450,1,99,9",,"07,99,1,99,9,99,9,99999,9,99,9,99,9","09810,1,99999,9","63,1",,,"MET065METAR EGWC 301450Z 24012KT 6000 RA SCT010 BKN015 08/06 Q0981 GRN;",
"03414599999","2010-03-31T07:50:00","4","52.640028","-2.305578","82.9","COSFORD, UK","FM-15","EGWC ","V020","310,1,N,0093,1","00300,1,C,N","011265,1,N,1","+0030,1","+0010,1","99999,9","02,5,+00270,1,99,9","07,5,+00300,1,99,9",,"07,99,1,99,9,99,9,99999,9,99,9,99,9","09810,1,99999,9","61,1",,,"MET066METAR EGWC 310750Z 31018KT 9999 -RA FEW009 BKN010 03/01 Q0981 GRN;",
"03414599999","2010-03-31T08:50:00","4","52.640028","-2.305578","82.9","COSFORD, UK","FM-15","EGWC ","V020","310,1,N,0103,1","00330,1,C,N","011265,1,N,1","+0040,1","-0010,1","99999,9","02,5,+00270,1,99,9","07,5,+00330,1,99,9",,"07,99,1,99,9,99,9,99999,9,99,9,99,9","09861,1,99999,9","61,1",,,"MET067METAR EGWC 310850Z 31020KT 9999 -RA FEW009 BKN011 04/M01 Q0986 GRN;",
"03414599999","2010-03-31T09:50:00","4","52.640028","-2.305578","82.9","COSFORD, UK","FM-15","EGWC ","V020","310,1,N,0103,1","00390,1,C,N","011265,1,N,1","+0030,1","+0010,1","99999,9","02,5,+00270,1,99,9","07,5,+00390,1,99,9",,"07,99,1,99,9,99,9,99999,9,99,9,99,9","09871,1,99999,9","61,1",,"0154,1","MET069METAR EGWC 310950Z 31020G30KT 9999 -RA FEW009 BKN013 03/01 Q0987 GRN;",
"03414599999","2010-03-31T10:50:00","4","52.640028","-2.305578","82.9","COSFORD, UK","FM-15","EGWC ","V020","310,1,N,0103,1","00390,1,C,N","011265,1,N,1","+0030,1","+0010,1","99999,9","07,5,+00390,1,99,9","07,5,+00600,1,99,9",,"07,99,1,99,9,99,9,99999,9,99,9,99,9","09882,1,99999,9","61,1",,,"MET066METAR EGWC 311050Z 31020KT 9999 -RA BKN013 BKN020 03/01 Q0988 GRN;",
"03414599999","2010-04-06T07:50:00","4","52.640028","-2.305578","82.9","COSFORD, UK","FM-15","EGWC ","V020","180,1,N,0051,1","22000,1,9,N","011265,1,N,1","+0070,1","+0030,1","99999,9","02,5,+00600,1,99,9",,,"02,99,1,99,9,99,9,99999,9,99,9,99,9","10129,1,99999,9",,,,"MET055METAR EGWC 060750Z 18010KT 9999 FEW020 07/03 Q1013 BLU;",
"03414599999","2010-04-06T08:50:00","4","52.640028","-2.305578","82.9","COSFORD, UK","FM-15","EGWC ","V020","180,1,N,0077,1","99999,9,C,N","011265,1,N,1","+0080,1","+0040,1","99999,9","02,5,+00600,1,99,9","04,5,+00900,1,99,9",,"04,99,1,99,9,99,9,99999,9,99,9,99,9","10119,1,99999,9",,,,"MET062METAR EGWC 060850Z 18015KT 9999 FEW020 SCT030 08/04 Q1012 BLU;","P01 009003SCOCIG"
"03414599999","2010-04-06T09:50:00","4","52.640028","-2.305578","82.9","COSFORD, UK","FM-15","EGWC ","V020","180,1,N,0051,1","99999,9,C,N","011265,1,N,1","+0090,1","+0050,1","99999,9","02,5,+00600,1,99,9","04,5,+00900,1,99,9",,"04,99,1,99,9,99,9,99999,9,99,9,99,9","10119,1,99999,9",,,,"MET062METAR EGWC 060950Z 18010KT 9999 FEW020 SCT030 09/05 Q1012 BLU;","P01 009003SCOCIG"
"03414599999","2010-04-06T10:50:00","4","52.640028","-2.305578","82.9","COSFORD, UK","FM-15","EGWC ","V020","180,1,N,0077,1","99999,9,C,N","011265,1,N,1","+0090,1","+0050,1","99999,9","02,5,+00750,1,99,9","04,5,+00900,1,99,9",,"04,99,1,99,9,99,9,99999,9,99,9,99,9","10108,1,99999,9",,,,"MET062METAR EGWC 061050Z 18015KT 9999 FEW025 SCT030 09/05 Q1011 BLU;","P01 009003SCOCIG"
"03414599999","2010-04-06T11:50:00","4","52.640028","-2.305578","82.9","COSFORD, UK","FM-15","EGWC ","V020","190,1,N,0077,1","01200,1,C,N","011265,1,N,1","+0120,1","+0050,1","99999,9","02,5,+00750,1,99,9","07,5,+01200,1,99,9",,"07,99,1,99,9,99,9,99999,9,99,9,99,9","10108,1,99999,9",,,"0139,1","MET065METAR EGWC 061150Z 19015G27KT 9999 FEW025 BKN040 12/05 Q1011 BLU;",
"03414599999","2010-04-06T13:50:00","4","52.640028","-2.305578","82.9","COSFORD, UK","FM-15","EGWC ","V020","180,1,N,0077,1","01500,1,C,N","011265,1,N,1","+0140,1","+0030,1","99999,9","02,5,+00900,1,99,9","07,5,+01500,1,99,9",,"07,99,1,99,9,99,9,99999,9,99,9,99,9","10102,1,99999,9",,,,"MET062METAR EGWC 061350Z 18015KT 9999 FEW030 BKN050 14/03 Q1010 BLU;",
"03414599999","2010-04-06T14:50:00","4","52.640028","-2.305578","82.9","COSFORD, UK","FM-15","EGWC ","V020","180,1,N,0093,1","99999,9,C,N","011265,1,N,1","+0150,1","+0040,1","99999,9","02,5,+01050,1,99,9","04,5,+02400,1,99,9",,"04,99,1,99,9,99,9,99999,9,99,9,99,9","10102,1,99999,9",,,,"MET062METAR EGWC 061450Z 18018KT 9999 FEW035 SCT080 15/04 Q1010 BLU;","P01 024003SCOCIG"
"03414599999","2010-04-07T06:50:00","4","52.640028","-2.305578","82.9","COSFORD, UK","FM-15","EGWC ","V020","320,1,N,0026,1","00750,1,C,N","011265,1,N,1","+0070,1","+0070,1","99999,9","02,5,+00450,1,99,9","07,5,+00750,1,99,9",,"07,99,1,99,9,99,9,99999,9,99,9,99,9","10169,1,99999,9",,,,"MET062METAR EGWC 070650Z 32005KT 9999 FEW015 BKN025 07/07 Q1017 BLU;",
"03414599999","2010-04-07T07:50:00","4","52.640028","-2.305578","82.9","COSFORD, UK","FM-15","EGWC ","V020","300,1,N,0031,1","00600,1,C,N","011265,1,N,1","+0070,1","+0060,1","99999,9","02,5,+00420,1,99,9","07,5,+00600,1,99,9",,"07,99,1,99,9,99,9,99999,9,99,9,99,9","10180,1,99999,9",,,,"MET062METAR EGWC 070750Z 30006KT 9999 FEW014 BKN020 07/06 Q1018 WHT;",
"03414599999","2010-04-07T08:50:00","4","52.640028","-2.305578","82.9","COSFORD, UK","FM-15","EGWC ","V020","300,1,N,0041,1","99999,9,C,N","011265,1,N,1","+0090,1","+0050,1","99999,9","02,5,+00420,1,99,9","04,5,+00600,1,99,9",,"04,99,1,99,9,99,9,99999,9,99,9,99,9","10180,1,99999,9",,,,"MET062METAR EGWC 070850Z 30008KT 9999 FEW014 SCT020 09/05 Q1018 WHT;","P01 006003SCOCIG"
"03414599999","2010-04-07T09:50:00","4","52.640028","-2.305578","82.9","COSFORD, UK","FM-15","EGWC ","V020","300,1,N,0051,1","00360,1,C,N","011265,1,N,1","+0100,1","+0060,1","99999,9","07,5,+00360,1,99,9",,,"07,99,1,99,9,99,9,99999,9,99,9,99,9","10190,1,99999,9",,,,"MET055METAR EGWC 070950Z 30010KT 9999 BKN012 10/06 Q1019 GRN;",
"03414599999","2010-04-07T10:50:00","4","52.640028","-2.305578","82.9","COSFORD, UK","FM-15","EGWC ","V020","310,1,N,0051,1","00360,1,C,N","011265,1,N,1","+0100,1","+0070,1","99999,9","02,5,+00210,1,99,9","07,5,+00360,1,99,9",,"07,99,1,99,9,99,9,99999,9,99,9,99,9","10190,1,99999,9","61,1",,,"MET073METAR EGWC 071050Z 31010KT 9999 5000SW -RA FEW007 BKN012 10/07 Q1019 GRN;",
"03414599999","2010-04-07T11:50:00","4","52.640028","-2.305578","82.9","COSFORD, UK","FM-15","EGWC ","V020","330,1,N,0051,1","00450,1,C,N","006000,1,N,1","+0100,1","+0070,1","99999,9","02,5,+00240,1,99,9","07,5,+00450,1,99,9",,"07,99,1,99,9,99,9,99999,9,99,9,99,9","10200,1,99999,9","61,1",,,"MET066METAR EGWC 071150Z 33010KT 6000 -RA FEW008 BKN015 10/07 Q1020 WHT;",
"03414599999","2010-04-07T12:50:00","4","52.640028","-2.305578","82.9","COSFORD, UK","FM-15","EGWC ","V020","320,1,N,0062,1","00540,1,C,N","011265,1,N,1","+0110,1","+0060,1","99999,9","02,5,+00300,1,99,9","07,5,+00540,1,99,9",,"07,99,1,99,9,99,9,99999,9,99,9,99,9","10200,1,99999,9",,,,"MET062METAR EGWC 071250Z 32012KT 9999 FEW010 BKN018 11/06 Q1020 WHT;",
"03414599999","2010-04-07T13:50:00","4","52.640028","-2.305578","82.9","COSFORD, UK","FM-15","EGWC ","V020","310,1,N,0062,1","00750,1,C,N","011265,1,N,1","+0110,1","+0050,1","99999,9","07,5,+00750,1,99,9",,,"07,99,1,99,9,99,9,99999,9,99,9,99,9","10210,1,99999,9",,,,"MET055METAR EGWC 071350Z 31012KT 9999 BKN025 11/05 Q1021 BLU;",
"03414599999","2010-04-07T14:50:00","4","52.640028","-2.305578","82.9","COSFORD, UK","FM-15","EGWC ","V020","320,1,N,0051,1","22000,1,9,N","011265,1,N,1","+0120,1","+0030,1","99999,9","04,5,+00750,1,99,9",,,"04,99,1,99,9,99,9,99999,9,99,9,99,9","10210,1,99999,9",,,,"MET055METAR EGWC 071450Z 32010KT 9999 SCT025 12/03 Q1021 BLU;",
"03414599999","2010-04-08T07:50:00","4","52.640028","-2.305578","82.9","COSFORD, UK","FM-15","EGWC ","V020","999,9,C,0000,1","99999,9,9,Y","009900,1,N,1","+0050,1","+0030,1","99999,9",,,,,"10301,1,99999,9",,,,"MET049METAR EGWC 080750Z 00000KT CAVOK 05/03 Q1030 BLU;",
"03414599999","2010-04-08T08:50:00","4","52.640028","-2.305578","82.9","COSFORD, UK","FM-15","EGWC ","V020","999,9,C,0000,1","99999,9,9,Y","009900,1,N,1","+0080,1","+0040,1","99999,9",,,,,"10312,1,99999,9",,,,"MET049METAR EGWC 080850Z 00000KT CAVOK 08/04 Q1031 BLU;",
"03414599999","2010-04-08T09:50:00","4","52.640028","-2.305578","82.9","COSFORD, UK","FM-15","EGWC ","V020","340,1,N,0041,1","99999,9,9,Y","009900,1,N,1","+0120,1","+0040,1","99999,9",,,,,"10312,1,99999,9",,,,"MET049METAR EGWC 080950Z 34008KT CAVOK 12/04 Q1031 BLU;",
"03414599999","2010-04-10T07:50:00","4","52.640028","-2.305578","82.9","COSFORD, UK","FM-15","EGWC ","V020","999,9,C,0000,1","22000,1,9,N","007000,1,N,1","+0070,1","+0050,1","99999,9","04,5,+06000,1,99,9",,,"04,99,1,99,9,99,9,99999,9,99,9,99,9","10349,1,99999,9","05,1",,,"MET058METAR EGWC 100750Z 00000KT 7000 HZ SCT200 07/05 Q1035 WHT;",
"03414599999","2010-04-10T08:50:00","4","52.640028","-2.305578","82.9","COSFORD, UK","FM-15","EGWC ","V020","999,9,C,0000,1","22000,1,9,N","008000,1,N,1","+0110,1","+0070,1","99999,9","02,5,+06000,1,99,9",,,"02,99,1,99,9,99,9,99999,9,99,9,99,9","10349,1,99999,9","05,1",,,"MET058METAR EGWC 100850Z 00000KT 8000 HZ FEW200 11/07 Q1035 BLU;",
"03414599999","2010-04-10T09:50:00","4","52.640028","-2.305578","82.9","COSFORD, UK","FM-15","EGWC ","V020","999,9,C,0000,1","99999,9,9,Y","009900,1,N,1","+0140,1","+0080,1","99999,9",,,,,"10349,1,99999,9",,,,"MET049METAR EGWC 100950Z 00000KT CAVOK 14/08 Q1035 BLU;",
"03414599999","2010-04-10T10:50:00","4","52.640028","-2.305578","82.9","COSFORD, UK","FM-15","EGWC ","V020","999,9,C,0000,1","99999,9,9,Y","009900,1,N,1","+0160,1","+0080,1","99999,9",,,,,"10349,1,99999,9",,,,"MET049METAR EGWC 101050Z 00000KT CAVOK 16/08 Q1035 BLU;",
"03414599999","2010-04-10T11:50:00","4","52.640028","-2.305578","82.9","COSFORD, UK","FM-15","EGWC ","V020","999,9,C,0000,1","99999,9,9,Y","009900,1,N,1","+0160,1","+0070,1","99999,9",,,,,"10339,1,99999,9",,,,"MET049METAR EGWC 101150Z 00000KT CAVOK 16/07 Q1034 BLU;",
"03414599999","2010-04-10T12:50:00","4","52.640028","-2.305578","82.9","COSFORD, UK","FM-15","EGWC ","V020","200,1,N,0021,1","22000,1,9,N","011265,1,N,1","+0170,1","+0070,1","99999,9","02,5,+01050,1,99,9",,,"02,99,1,99,9,99,9,99999,9,99,9,99,9","10339,1,99999,9",,,,"MET055METAR EGWC 101250Z 20004KT 9999 FEW035 17/07 Q1034 BLU;",
"03414599999","2010-04-10T13:50:00","4","52.640028","-2.305578","82.9","COSFORD, UK","FM-15","EGWC ","V020","360,1,N,0026,1","22000,1,9,N","011265,1,N,1","+0180,1","+0040,1","99999,9","02,5,+01140,1,99,9",,,"02,99,1,99,9,99,9,99999,9,99,9,99,9","10329,1,99999,9",,,,"MET055METAR EGWC 101350Z 36005KT 9999 FEW038 18/04 Q1033 BLU;",
"03414599999","2010-04-11T07:50:00","4","52.640028","-2.305578","82.9","COSFORD, UK","FM-15","EGWC ","V020","060,1,N,0041,1","99999,9,9,Y","009900,1,N,1","+0080,1","+0040,1","99999,9",,,,,"10318,1,99999,9",,,,"MET049METAR EGWC 110750Z 06008KT CAVOK 08/04 Q1032 BLU;",
"03414599999","2010-04-11T08:50:00","4","52.640028","-2.305578","82.9","COSFORD, UK","FM-15","EGWC ","V020","060,1,N,0041,1","99999,9,9,Y","009900,1,N,1","+0090,1","+0040,1","99999,9",,,,,"10318,1,99999,9",,,,"MET049METAR EGWC 110850Z 06008KT CAVOK 09/04 Q1032 BLU;",
"03414599999","2010-04-11T09:50:00","4","52.640028","-2.305578","82.9","COSFORD, UK","FM-15","EGWC ","V020","050,1,N,0041,1","99999,9,9,Y","009900,1,N,1","+0100,1","+0030,1","99999,9",,,,,"10318,1,99999,9",,,,"MET049METAR EGWC 110950Z 05008KT CAVOK 10/03 Q1032 BLU;",
"03414599999","2010-04-11T10:50:00","4","52.640028","-2.305578","82.9","COSFORD, UK","FM-15","EGWC ","V020","030,1,N,0031,1","99999,9,9,Y","009900,1,N,1","+0110,1","+0020,1","99999,9",,,,,"10318,1,99999,9",,,,"MET049METAR EGWC 111050Z 03006KT CAVOK 11/02 Q1032 BLU;",
"03414599999","2010-04-11T11:50:00","4","52.640028","-2.305578","82.9","COSFORD, UK","FM-15","EGWC ","V020","080,1,N,0051,1","99999,9,9,Y","009900,1,N,1","+0130,1","+0020,1","99999,9",,,,,"10312,1,99999,9",,,,"MET049METAR EGWC 111150Z 08010KT CAVOK 13/02 Q1031 BLU;",
"03414599999","2010-04-11T12:50:00","4","52.640028","-2.305578","82.9","COSFORD, UK","FM-15","EGWC ","V020","040,1,N,0062,1","99999,9,9,Y","009900,1,N,1","+0130,1","+0020,1","99999,9",,,,,"10312,1,99999,9",,,,"MET049METAR EGWC 111250Z 04012KT CAVOK 13/02 Q1031 BLU;",
"03414599999","2010-04-11T13:50:00","4","52.640028","-2.305578","82.9","COSFORD, UK","FM-15","EGWC ","V020","050,1,N,0062,1","99999,9,9,Y","009900,1,N,1","+0130,1","+0020,1","99999,9",,,,,"10312,1,99999,9",,,,"MET049METAR EGWC 111350Z 05012KT CAVOK 13/02 Q1031 BLU;",
"03414599999","2010-04-13T07:50:00","4","52.640028","-2.305578","82.9","COSFORD, UK","FM-15","EGWC ","V020","360,1,N,0041,1","99999,9,9,Y","009900,1,N,1","+0060,1","+0020,1","99999,9",,,,,"10281,1,99999,9",,,,"MET049METAR EGWC 130750Z 36008KT CAVOK 06/02 Q1028 BLU;",
"03414599999","2010-04-13T08:50:00","4","52.640028","-2.305578","82.9","COSFORD, UK","FM-15","EGWC ","V020","010,1,N,0041,1","99999,9,9,Y","009900,1,N,1","+0080,1","+0030,1","99999,9",,,,,"10281,1,99999,9",,,,"MET049METAR EGWC 130850Z 01008KT CAVOK 08/03 Q1028 BLU;",
"03414599999","2010-04-13T09:50:00","4","52.640028","-2.305578","82.9","COSFORD, UK","FM-15","EGWC ","V020","030,1,N,0062,1","22000,1,9,N","011265,1,N,1","+0100,1","+0030,1","99999,9","02,5,+00300,1,99,9",,,"02,99,1,99,9,99,9,99999,9,99,9,99,9","10281,1,99999,9",,,,"MET055METAR EGWC 130950Z 03012KT 9999 FEW010 10/03 Q1028 BLU;",
"03414599999","2010-04-13T10:50:00","4","52.640028","-2.305578","82.9","COSFORD, UK","FM-15","EGWC ","V020","060,1,N,0041,1","22000,1,9,N","011265,1,N,1","+0110,1","+0020,1","99999,9","02,5,+00300,1,99,9",,,"02,99,1,99,9,99,9,99999,9,99,9,99,9","10281,1,99999,9",,,,"MET055METAR EGWC 131050Z 06008KT 9999 FEW010 11/02 Q1028 BLU;",
"03414599999","2010-04-13T11:50:00","4","52.640028","-2.305578","82.9","COSFORD, UK","FM-15","EGWC ","V020","050,1,N,0041,1","22000,1,9,N","011265,1,N,1","+0120,1","+0020,1","99999,9","02,5,+00750,1,99,9",,,"02,99,1,99,9,99,9,99999,9,99,9,99,9","10271,1,99999,9",,,,"MET055METAR EGWC 131150Z 05008KT 9999 FEW025 12/02 Q1027 BLU;",
"03414599999","2010-04-13T12:50:00","4","52.640028","-2.305578","82.9","COSFORD, UK","FM-15","EGWC ","V020","040,1,N,0041,1","22000,1,9,N","011265,1,N,1","+0130,1","+0030,1","99999,9","02,5,+00750,1,99,9",,,"02,99,1,99,9,99,9,99999,9,99,9,99,9","10271,1,99999,9",,,,"MET055METAR EGWC 131250Z 04008KT 9999 FEW025 13/03 Q1027 BLU;",
"03414599999","2010-04-13T13:50:00","4","52.640028","-2.305578","82.9","COSFORD, UK","FM-15","EGWC ","V020","040,1,N,0051,1","22000,1,9,N","011265,1,N,1","+0130,1","+0030,1","99999,9","02,5,+00900,1,99,9",,,"02,99,1,99,9,99,9,99999,9,99,9,99,9","10271,1,99999,9",,,,"MET055METAR EGWC 131350Z 04010KT 9999 FEW030 13/03 Q1027 BLU;",
"03414599999","2010-04-13T14:50:00","4","52.640028","-2.305578","82.9","COSFORD, UK","FM-15","EGWC ","V020","040,1,N,0062,1","22000,1,9,N","011265,1,N,1","+0140,1","+0030,1","99999,9","02,5,+00900,1,99,9",,,"02,99,1,99,9,99,9,99999,9,99,9,99,9","10261,1,99999,9",,,,"MET055METAR EGWC 131450Z 04012KT 9999 FEW030 14/03 Q1026 BLU;",
"03414599999","2010-04-14T07:50:00","4","52.640028","-2.305578","82.9","COSFORD, UK","FM-15","EGWC ","V020","030,1,N,0041,1","00600,1,C,N","011265,1,N,1","+0060,1","+0020,1","99999,9","07,5,+00600,1,99,9",,,"07,99,1,99,9,99,9,99999,9,99,9,99,9","10240,1,99999,9",,,,"MET055METAR EGWC 140750Z 03008KT 9999 BKN020 06/02 Q1024 WHT;",
"03414599999","2010-04-14T08:50:00","4","52.640028","-2.305578","82.9","COSFORD, UK","FM-15","EGWC ","V020","050,1,N,0051,1","00600,1,C,N","011265,1,N,1","+0060,1","+0030,1","99999,9","07,5,+00600,1,99,9",,,"07,99,1,99,9,99,9,99999,9,99,9,99,9","10240,1,99999,9",,,,"MET055METAR EGWC 140850Z 05010KT 9999 BKN020 06/03 Q1024 WHT;",
"03414599999","2010-04-14T09:50:00","4","52.640028","-2.305578","82.9","COSFORD, UK","FM-15","EGWC ","V020","030,1,N,0062,1","00450,1,C,N","011265,1,N,1","+0070,1","+0040,1","99999,9","07,5,+00450,1,99,9",,,"07,99,1,99,9,99,9,99999,9,99,9,99,9","10240,1,99999,9",,,,"MET055METAR EGWC 140950Z 03012KT 9999 BKN015 07/04 Q1024 WHT;",
"03414599999","2010-04-14T10:50:00","4","52.640028","-2.305578","82.9","COSFORD, UK","FM-15","EGWC ","V020","030,1,N,0072,1","00450,1,C,N","011265,1,N,1","+0080,1","+0030,1","99999,9","07,5,+00450,1,99,9",,,"07,99,1,99,9,99,9,99999,9,99,9,99,9","10240,1,99999,9",,,,"MET055METAR EGWC 141050Z 03014KT 9999 BKN015 08/03 Q1024 WHT;",
"03414599999","2010-04-14T11:50:00","4","52.640028","-2.305578","82.9","COSFORD, UK","FM-15","EGWC ","V020","050,1,N,0077,1","00600,1,C,N","011265,1,N,1","+0100,1","+0040,1","99999,9","07,5,+00600,1,99,9",,,"07,99,1,99,9,99,9,99999,9,99,9,99,9","10230,1,99999,9",,,,"MET055METAR EGWC 141150Z 05015KT 9999 BKN020 10/04 Q1023 WHT;",
"03414599999","2010-04-14T12:50:00","4","52.640028","-2.305578","82.9","COSFORD, UK","FM-15","EGWC ","V020","060,1,N,0072,1","00600,1,C,N","011265,1,N,1","+0110,1","+0040,1","99999,9","07,5,+00600,1,99,9",,,"07,99,1,99,9,99,9,99999,9,99,9,99,9","10230,1,99999,9",,,,"MET055METAR EGWC 141250Z 06014KT 9999 BKN020 11/04 Q1023 WHT;",
"03414599999","2010-04-14T13:50:00","4","52.640028","-2.305578","82.9","COSFORD, UK","FM-15","EGWC ","V020","020,1,N,0062,1","00600,1,C,N","011265,1,N,1","+0120,1","+0050,1","99999,9","07,5,+00600,1,99,9",,,"07,99,1,99,9,99,9,99999,9,99,9,99,9","10230,1,99999,9",,,,"MET055METAR EGWC 141350Z 02012KT 9999 BKN020 12/05 Q1023 WHT;",
"03414599999","2010-04-14T14:50:00","4","52.640028","-2.305578","82.9","COSFORD, UK","FM-15","EGWC ","V020","040,1,N,0051,1","00600,1,C,N","011265,1,N,1","+0120,1","+0040,1","99999,9","07,5,+00600,1,99,9",,,"07,99,1,99,9,99,9,99999,9,99,9,99,9","10230,1,99999,9",,,,"MET055METAR EGWC 141450Z 04010KT 9999 BKN020 12/04 Q1023 WHT;",
"03414599999","2010-04-16T07:50:00","4","52.640028","-2.305578","82.9","COSFORD, UK","FM-15","EGWC ","V020","030,1,N,0031,1","99999,9,9,Y","009900,1,N,1","+0070,1","+0020,1","99999,9",,,,,"10301,1,99999,9",,,,"MET049METAR EGWC 160750Z 03006KT CAVOK 07/02 Q1030 BLU;",
"03414599999","2010-04-16T08:50:00","4","52.640028","-2.305578","82.9","COSFORD, UK","FM-15","EGWC ","V020","040,1,N,0051,1","99999,9,C,N","011265,1,N,1","+0090,1","+0020,1","99999,9","02,5,+00960,1,99,9","04,5,+05400,1,99,9",,"04,99,1,99,9,99,9,99999,9,99,9,99,9","10301,1,99999,9",,,,"MET062METAR EGWC 160850Z 04010KT 9999 FEW032 SCT180 09/02 Q1030 BLU;","P01 054003SCOCIG"
"03414599999","2010-04-16T09:50:00","4","52.640028","-2.305578","82.9","COSFORD, UK","FM-15","EGWC ","V020","040,1,N,0062,1","00960,1,C,N","011265,1,N,1","+0090,1","+0030,1","99999,9","07,5,+00960,1,99,9",,,"07,99,1,99,9,99,9,99999,9,99,9,99,9","10301,1,99999,9",,,,"MET055METAR EGWC 160950Z 04012KT 9999 BKN032 09/03 Q1030 BLU;",
"03414599999","2010-04-16T10:50:00","4","52.640028","-2.305578","82.9","COSFORD, UK","FM-15","EGWC ","V020","050,1,N,0062,1","01050,1,C,N","011265,1,N,1","+0100,1","+0030,1","99999,9","07,5,+01050,1,99,9",,,"07,99,1,99,9,99,9,99999,9,99,9,99,9","10301,1,99999,9",,,,"MET055METAR EGWC 161050Z 05012KT 9999 BKN035 10/03 Q1030 BLU;",
"03414599999","2010-04-16T11:50:00","4","52.640028","-2.305578","82.9","COSFORD, UK","FM-15","EGWC ","V020","040,1,N,0026,1","01200,1,C,N","011265,1,N,1","+0110,1","+0040,1","99999,9","07,5,+01200,1,99,9",,,"07,99,1,99,9,99,9,99999,9,99,9,99,9","10301,1,99999,9",,,,"MET055METAR EGWC 161150Z 04005KT 9999 BKN040 11/04 Q1030 BLU;",
"03414599999","2010-04-21T07:50:00","4","52.640028","-2.305578","82.9","COSFORD, UK","FM-15","EGWC ","V020","310,1,N,0062,1","22000,1,9,N","011265,1,N,1","+0050,1","+0000,1","99999,9","02,5,+00840,1,99,9",,,"02,99,1,99,9,99,9,99999,9,99,9,99,9","10220,1,99999,9",,,,"MET056METAR EGWC 210750Z 31012KT 9999 FEW028 05/M00 Q1022 BLU;",
"03414599999","2010-04-21T08:50:00","4","52.640028","-2.305578","82.9","COSFORD, UK","FM-15","EGWC ","V020","300,1,N,0041,1","22000,1,9,N","011265,1,N,1","+0060,1","+0000,1","99999,9","04,5,+00840,1,99,9",,,"04,99,1,99,9,99,9,99999,9,99,9,99,9","10220,1,99999,9",,,,"MET056METAR EGWC 210850Z 30008KT 9999 SCT028 06/M00 Q1022 BLU;",
"03414599999","2010-04-21T09:50:00","4","52.640028","-2.305578","82.9","COSFORD, UK","FM-15","EGWC ","V020","330,1,N,0041,1","22000,1,9,N","011265,1,N,1","+0060,1","-0010,1","99999,9","02,5,+00900,1,99,9",,,"02,99,1,99,9,99,9,99999,9,99,9,99,9","10230,1,99999,9",,,,"MET056METAR EGWC 210950Z 33008KT 9999 FEW030 06/M01 Q1023 BLU;",
"03414599999","2010-04-21T10:50:00","4","52.640028","-2.305578","82.9","COSFORD, UK","FM-15","EGWC ","V020","330,1,N,0041,1","22000,1,9,N","011265,1,N,1","+0080,1","-0030,1","99999,9","02,5,+01200,1,99,9",,,"02,99,1,99,9,99,9,99999,9,99,9,99,9","10220,1,99999,9",,,,"MET056METAR EGWC 211050Z 33008KT 9999 FEW040 08/M03 Q1022 BLU;",
"03414599999","2010-04-21T11:50:00","4","52.640028","-2.305578","82.9","COSFORD, UK","FM-15","EGWC ","V020","330,1,N,0041,1","22000,1,9,N","011265,1,N,1","+0090,1","-0020,1","99999,9","02,5,+01350,1,99,9",,,"02,99,1,99,9,99,9,99999,9,99,9,99,9","10220,1,99999,9",,,,"MET056METAR EGWC 211150Z 33008KT 9999 FEW045 09/M02 Q1022 BLU;",
"03414599999","2010-04-21T12:50:00","4","52.640028","-2.305578","82.9","COSFORD, UK","FM-15","EGWC ","V020","340,1,N,0051,1","22000,1,9,N","011265,1,N,1","+0090,1","-0010,1","99999,9","02,5,+01350,1,99,9",,,"02,99,1,99,9,99,9,99999,9,99,9,99,9","10220,1,99999,9",,,,"MET056METAR EGWC 211250Z 34010KT 9999 FEW045 09/M01 Q1022 BLU;",
"03414599999","2010-04-21T13:50:00","4","52.640028","-2.305578","82.9","COSFORD, UK","FM-15","EGWC ","V020","020,1,N,0041,1","22000,1,9,N","011265,1,N,1","+0100,1","-0010,1","99999,9","02,5,+01350,1,99,9",,,"02,99,1,99,9,99,9,99999,9,99,9,99,9","10220,1,99999,9",,,,"MET056METAR EGWC 211350Z 02008KT 9999 FEW045 10/M01 Q1022 BLU;",
"03414599999","2010-04-21T14:50:00","4","52.640028","-2.305578","82.9","COSFORD, UK","FM-15","EGWC ","V020","020,1,N,0041,1","22000,1,9,N","011265,1,N,1","+0100,1","-0010,1","99999,9","02,5,+01350,1,99,9",,,"02,99,1,99,9,99,9,99999,9,99,9,99,9","10220,1,99999,9",,,,"MET056METAR EGWC 211450Z 02008KT 9999 FEW045 10/M01 Q1022 BLU;",
"03414599999","2010-04-26T07:50:00","4","52.640028","-2.305578","82.9","COSFORD, UK","FM-15","EGWC ","V020","270,1,N,0036,1","22000,1,9,N","011265,1,N,1","+0130,1","+0090,1","99999,9","04,5,+00450,1,99,9",,,"04,99,1,99,9,99,9,99999,9,99,9,99,9","10240,1,99999,9",,,,"MET055METAR EGWC 260750Z 27007KT 9999 SCT015 13/09 Q1024 WHT;",
"03414599999","2010-04-26T08:50:00","4","52.640028","-2.305578","82.9","COSFORD, UK","FM-15","EGWC ","V020","290,1,N,0051,1","99999,9,C,N","011265,1,N,1","+0130,1","+0090,1","99999,9","04,5,+00450,1,99,9","04,5,+01500,1,99,9",,"04,99,1,99,9,99,9,99999,9,99,9,99,9","10240,1,99999,9",,,,"MET062METAR EGWC 260850Z 29010KT 9999 SCT015 SCT050 13/09 Q1024 WHT;","P01 015003SCOCIG"
"03414599999","2010-04-26T09:50:00","4","52.640028","-2.305578","82.9","COSFORD, UK","FM-15","EGWC ","V020","290,1,N,0051,1","99999,9,C,N","011265,1,N,1","+0140,1","+0080,1","99999,9","04,5,+00540,1,99,9","04,5,+01500,1,99,9",,"04,99,1,99,9,99,9,99999,9,99,9,99,9","10251,1,99999,9",,,,"MET062METAR EGWC 260950Z 29010KT 9999 SCT018 SCT050 14/08 Q1025 WHT;","P01 015003SCOCIG"
"03414599999","2010-04-26T10:50:00","4","52.640028","-2.305578","82.9","COSFORD, UK","FM-15","EGWC ","V020","240,1,N,0031,1","99999,9,C,N","011265,1,N,1","+0140,1","+0080,1","99999,9","04,5,+00600,1,99,9","04,5,+01500,1,99,9",,"04,99,1,99,9,99,9,99999,9,99,9,99,9","10251,1,99999,9",,,,"MET062METAR EGWC 261050Z 24006KT 9999 SCT020 SCT050 14/08 Q1025 WHT;","P01 015003SCOCIG"
"03414599999","2010-04-26T11:50:00","4","52.640028","-2.305578","82.9","COSFORD, UK","FM-15","EGWC ","V020","240,1,N,0036,1","00750,1,C,N","011265,1,N,1","+0150,1","+0070,1","99999,9","02,5,+00600,1,99,9","07,5,+00750,1,99,9",,"07,99,1,99,9,99,9,99999,9,99,9,99,9","10251,1,99999,9",,,,"MET062METAR EGWC 261150Z 24007KT 9999 FEW020 BKN025 15/07 Q1025 BLU;",
"03414599999","2010-04-26T12:50:00","4","52.640028","-2.305578","82.9","COSFORD, UK","FM-15","EGWC ","V020","240,1,N,0051,1","99999,9,C,N","011265,1,N,1","+0160,1","+0080,1","99999,9","02,5,+00750,1,99,9","04,5,+01350,1,99,9",,"04,99,1,99,9,99,9,99999,9,99,9,99,9","10261,1,99999,9",,,,"MET062METAR EGWC 261250Z 24010KT 9999 FEW025 SCT045 16/08 Q1026 BLU;","P01 013503SCOCIG"
"03414599999","2010-04-26T13:50:00","4","52.640028","-2.305578","82.9","COSFORD, UK","FM-15","EGWC ","V020","260,1,N,0051,1","99999,9,C,N","011265,1,N,1","+0170,1","+0070,1","99999,9","02,5,+00750,1,99,9","04,5,+01500,1,99,9",,"04,99,1,99,9,99,9,99999,9,99,9,99,9","10251,1,99999,9",,,,"MET062METAR EGWC 261350Z 26010KT 9999 FEW025 SCT050 17/07 Q1025 BLU;","P01 015003SCOCIG"
"03414599999","2010-04-26T14:50:00","4","52.640028","-2.305578","82.9","COSFORD, UK","FM-15","EGWC ","V020","300,1,N,0031,1","99999,9,C,N","011265,1,N,1","+0160,1","+0070,1","99999,9","02,5,+00900,1,99,9","04,5,+01500,1,99,9",,"04,99,1,99,9,99,9,99999,9,99,9,99,9","10251,1,99999,9",,,,"MET062METAR EGWC 261450Z 30006KT 9999 FEW030 SCT050 16/07 Q1025 BLU;","P01 015003SCOCIG"
"03414599999","2010-04-26T15:50:00","4","52.640028","-2.305578","82.9","COSFORD, UK","FM-15","EGWC ","V020","280,1,N,0041,1","01050,1,C,N","011265,1,N,1","+0170,1","+0080,1","99999,9","07,5,+01050,1,99,9",,,"07,99,1,99,9,99,9,99999,9,99,9,99,9","10251,1,99999,9",,,,"MET055METAR EGWC 261550Z 28008KT 9999 BKN035 17/08 Q1025 BLU;",
"03414599999","2010-04-27T06:50:00","4","52.640028","-2.305578","82.9","COSFORD, UK","FM-15","EGWC ","V020","999,9,C,0000,1","99999,9,9,Y","009900,1,N,1","+0050,1","+0040,1","99999,9",,,,,"10281,1,99999,9",,,,"MET049METAR EGWC 270650Z 00000KT CAVOK 05/04 Q1028 BLU;",
"03414599999","2010-04-27T07:50:00","4","52.640028","-2.305578","82.9","COSFORD, UK","FM-15","EGWC ","V020","999,9,C,0000,1","99999,9,9,Y","009900,1,N,1","+0090,1","+0050,1","99999,9",,,,,"10281,1,99999,9",,,,"MET049METAR EGWC 270750Z 00000KT CAVOK 09/05 Q1028 BLU;",
"03414599999","2010-04-27T08:50:00","4","52.640028","-2.305578","82.9","COSFORD, UK","FM-15","EGWC ","V020","999,9,C,0000,1","99999,9,9,Y","009900,1,N,1","+0130,1","+0080,1","99999,9",,,,,"10281,1,99999,9",,,,"MET049METAR EGWC 270850Z 00000KT CAVOK 13/08 Q1028 BLU;",
"03414599999","2010-04-27T09:50:00","4","52.640028","-2.305578","82.9","COSFORD, UK","FM-15","EGWC ","V020","200,1,N,0041,1","22000,1,9,N","011265,1,N,1","+0140,1","+0080,1","99999,9","02,5,+00900,1,99,9",,,"02,99,1,99,9,99,9,99999,9,99,9,99,9","10281,1,99999,9",,,,"MET055METAR EGWC 270950Z 20008KT 9999 FEW030 14/08 Q1028 BLU;",
"03414599999","2010-04-27T10:50:00","4","52.640028","-2.305578","82.9","COSFORD, UK","FM-15","EGWC ","V020","200,1,N,0062,1","22000,1,9,N","011265,1,N,1","+0160,1","+0090,1","99999,9","04,5,+00750,1,99,9",,,"04,99,1,99,9,99,9,99999,9,99,9,99,9","10281,1,99999,9",,,,"MET055METAR EGWC 271050Z 20012KT 9999 SCT025 16/09 Q1028 BLU;",
"03414599999","2010-04-27T11:50:00","4","52.640028","-2.305578","82.9","COSFORD, UK","FM-15","EGWC ","V020","190,1,N,0062,1","22000,1,9,N","011265,1,N,1","+0160,1","+0080,1","99999,9","04,5,+00900,1,99,9",,,"04,99,1,99,9,99,9,99999,9,99,9,99,9","10271,1,99999,9",,,,"MET055METAR EGWC 271150Z 19012KT 9999 SCT030 16/08 Q1027 BLU;",
"03414599999","2010-04-27T12:50:00","4","52.640028","-2.305578","82.9","COSFORD, UK","FM-15","EGWC ","V020","200,1,N,0031,1","22000,1,9,N","011265,1,N,1","+0170,1","+0090,1","99999,9","04,5,+00900,1,99,9",,,"04,99,1,99,9,99,9,99999,9,99,9,99,9","10261,1,99999,9",,,,"MET055METAR EGWC 271250Z 20006KT 9999 SCT030 17/09 Q1026 BLU;",
"03414599999","2010-04-27T13:50:00","4","52.640028","-2.305578","82.9","COSFORD, UK","FM-15","EGWC ","V020","190,1,N,0051,1","22000,1,9,N","011265,1,N,1","+0170,1","+0090,1","99999,9","02,5,+01200,1,99,9",,,"02,99,1,99,9,99,9,99999,9,99,9,99,9","10261,1,99999,9",,,,"MET055METAR EGWC 271350Z 19010KT 9999 FEW040 17/09 Q1026 BLU;",
"03414599999","2010-04-27T14:50:00","4","52.640028","-2.305578","82.9","COSFORD, UK","FM-15","EGWC ","V020","210,1,N,0062,1","22000,1,9,N","011265,1,N,1","+0180,1","+0080,1","99999,9","02,5,+01200,1,99,9",,,"02,99,1,99,9,99,9,99999,9,99,9,99,9","10251,1,99999,9",,,,"MET055METAR EGWC 271450Z 21012KT 9999 FEW040 18/08 Q1025 BLU;",
"03414599999","2010-04-28T06:50:00","4","52.640028","-2.305578","82.9","COSFORD, UK","FM-15","EGWC ","V020","180,1,N,0031,1","01200,1,C,N","011265,1,N,1","+0100,1","+0070,1","99999,9","04,5,+00750,1,99,9","07,5,+01200,1,99,9",,"07,99,1,99,9,99,9,99999,9,99,9,99,9","10200,1,99999,9",,,,"MET062METAR EGWC 280650Z 18006KT 9999 SCT025 BKN040 10/07 Q1020 BLU;",
"03414599999","2010-04-28T07:50:00","4","52.640028","-2.305578","82.9","COSFORD, UK","FM-15","EGWC ","V020","180,1,N,0041,1","01200,1,C,N","011265,1,N,1","+0120,1","+0070,1","99999,9","07,5,+01200,1,99,9",,,"07,99,1,99,9,99,9,99999,9,99,9,99,9","10200,1,99999,9",,,,"MET055METAR EGWC 280750Z 18008KT 9999 BKN040 12/07 Q1020 BLU;",
"03414599999","2010-04-28T08:50:00","4","52.640028","-2.305578","82.9","COSFORD, UK","FM-15","EGWC ","V020","170,1,N,0051,1","99999,9,9,Y","009900,1,N,1","+0130,1","+0090,1","99999,9",,,,,"10200,1,99999,9",,,,"MET049METAR EGWC 280850Z 17010KT CAVOK 13/09 Q1020 BLU;",
"03414599999","2010-04-28T09:50:00","4","52.640028","-2.305578","82.9","COSFORD, UK","FM-15","EGWC ","V020","180,1,N,0062,1","01800,1,C,N","011265,1,N,1","+0150,1","+0090,1","99999,9","02,5,+01200,1,99,9","07,5,+01800,1,99,9",,"07,99,1,99,9,99,9,99999,9,99,9,99,9","10190,1,99999,9",,,,"MET062METAR EGWC 280950Z 18012KT 9999 FEW040 BKN060 15/09 Q1019 BLU;",
"03414599999","2010-04-28T10:50:00","4","52.640028","-2.305578","82.9","COSFORD, UK","FM-15","EGWC ","V020","180,1,N,0051,1","01800,1,C,N","011265,1,N,1","+0160,1","+0100,1","99999,9","04,5,+01050,1,99,9","07,5,+01800,1,99,9",,"07,99,1,99,9,99,9,99999,9,99,9,99,9","10190,1,99999,9",,,,"MET062METAR EGWC 281050Z 18010KT 9999 SCT035 BKN060 16/10 Q1019 BLU;",
"03414599999","2010-04-28T11:50:00","4","52.640028","-2.305578","82.9","COSFORD, UK","FM-15","EGWC ","V020","190,1,N,0051,1","01800,1,C,N","011265,1,N,1","+0170,1","+0100,1","99999,9","04,5,+01350,1,99,9","07,5,+01800,1,99,9",,"07,99,1,99,9,99,9,99999,9,99,9,99,9","10180,1,99999,9",,,,"MET062METAR EGWC 281150Z 19010KT 9999 SCT045 BKN060 17/10 Q1018 BLU;",
"03414599999","2010-04-28T12:50:00","4","52.640028","-2.305578","82.9","COSFORD, UK","FM-15","EGWC ","V020","190,1,N,0051,1","01800,1,C,N","011265,1,N,1","+0180,1","+0100,1","99999,9","04,5,+01350,1,99,9","07,5,+01800,1,99,9",,"07,99,1,99,9,99,9,99999,9,99,9,99,9","10169,1,99999,9",,,,"MET062METAR EGWC 281250Z 19010KT 9999 SCT045 BKN060 18/10 Q1017 BLU;",
"03414599999","2010-04-28T13:50:00","4","52.640028","-2.305578","82.9","COSFORD, UK","FM-15","EGWC ","V020","190,1,N,0072,1","01800,1,C,N","011265,1,N,1","+0180,1","+0100,1","99999,9","02,5,+01350,1,99,9","07,5,+01800,1,99,9",,"07,99,1,99,9,99,9,99999,9,99,9,99,9","10169,1,99999,9",,,,"MET062METAR EGWC 281350Z 19014KT 9999 FEW045 BKN060 18/10 Q1017 BLU;",
"03414599999","2010-04-28T14:50:00","4","52.640028","-2.305578","82.9","COSFORD, UK","FM-15","EGWC ","V020","210,1,N,0062,1","01800,1,C,N","011265,1,N,1","+0190,1","+0090,1","99999,9","02,5,+01350,1,99,9","07,5,+01800,1,99,9",,"07,99,1,99,9,99,9,99999,9,99,9,99,9","10159,1,99999,9",,,,"MET062METAR EGWC 281450Z 21012KT 9999 FEW045 BKN060 19/09 Q1016 BLU;",
"03414599999","2010-05-01T08:50:00","4","52.640028","-2.305578","82.9","COSFORD, UK","FM-15","EGWC ","V020","999,9,C,0000,1","22000,1,9,N","011265,1,N,1","+0110,1","+0070,1","99999,9","04,5,+00600,1,99,9",,,"04,99,1,99,9,99,9,99999,9,99,9,99,9","10102,1,99999,9",,,,"MET055METAR EGWC 010850Z 00000KT 9999 SCT020 11/07 Q1010 WHT;",
"03414599999","2010-05-01T09:50:00","4","52.640028","-2.305578","82.9","COSFORD, UK","FM-15","EGWC ","V020","210,1,N,0026,1","22000,1,9,N","011265,1,N,1","+0120,1","+0070,1","99999,9","04,5,+00480,1,99,9",,,"04,99,1,99,9,99,9,99999,9,99,9,99,9","10102,1,99999,9",,,,"MET055METAR EGWC 010950Z 21005KT 9999 SCT016 12/07 Q1010 WHT;",
"03414599999","2010-05-01T10:50:00","4","52.640028","-2.305578","82.9","COSFORD, UK","FM-15","EGWC ","V020","999,9,C,0000,1","00600,1,C,N","011265,1,N,1","+0120,1","+0070,1","99999,9","07,5,+00600,1,99,9",,,"07,99,1,99,9,99,9,99999,9,99,9,99,9","10102,1,99999,9",,,,"MET055METAR EGWC 011050Z 00000KT 9999 BKN020 12/07 Q1010 WHT;",
"03414599999","2010-05-01T11:50:00","4","52.640028","-2.305578","82.9","COSFORD, UK","FM-15","EGWC ","V020","999,9,C,0000,1","00750,1,C,N","011265,1,N,1","+0130,1","+0070,1","99999,9","02,5,+00600,1,99,9","07,5,+00750,1,99,9",,"07,99,1,99,9,99,9,99999,9,99,9,99,9","10102,1,99999,9",,,,"MET062METAR EGWC 011150Z 00000KT 9999 FEW020 BKN025 13/07 Q1010 BLU;",
"03414599999","2010-05-01T13:50:00","4","52.640028","-2.305578","82.9","COSFORD, UK","FM-15","EGWC ","V020","250,1,N,0036,1","00750,1,C,N","011265,1,N,1","+0120,1","+0060,1","99999,9","04,5,+00600,1,99,9","07,5,+00750,1,99,9",,"07,99,1,99,9,99,9,99999,9,99,9,99,9","10102,1,99999,9",,,,"MET062METAR EGWC 011350Z 25007KT 9999 SCT020 BKN025 12/06 Q1010 WHT;",
"03414599999","2010-05-01T14:50:00","4","52.640028","-2.305578","82.9","COSFORD, UK","FM-15","EGWC ","V020","999,9,C,0000,1","01350,1,C,N","011265,1,N,1","+0120,1","+0060,1","99999,9","04,5,+01050,1,99,9","07,5,+01350,1,99,9",,"07,99,1,99,9,99,9,99999,9,99,9,99,9","10091,1,99999,9",,,,"MET062METAR EGWC 011450Z 00000KT 9999 SCT035 BKN045 12/06 Q1009 BLU;",
"03414599999","2010-05-02T07:50:00","4","52.640028","-2.305578","82.9","COSFORD, UK","FM-15","EGWC ","V020","030,1,N,0077,1","00600,1,C,N","011265,1,N,1","+0070,1","+0030,1","99999,9","02,5,+00360,1,99,9","04,5,+00600,1,99,9","07,5,+01350,1,99,9","07,99,1,99,9,99,9,99999,9,99,9,99,9","10139,1,99999,9",,,,"MET069METAR EGWC 020750Z 03015KT 9999 FEW012 SCT020 BKN045 07/03 Q1014 WHT;",
"03414599999","2010-05-02T08:50:00","4","52.640028","-2.305578","82.9","COSFORD, UK","FM-15","EGWC ","V020","040,1,N,0077,1","00750,1,C,N","011265,1,N,1","+0090,1","+0050,1","99999,9","04,5,+00600,1,99,9","07,5,+00750,1,99,9",,"07,99,1,99,9,99,9,99999,9,99,9,99,9","10149,1,99999,9",,,,"MET062METAR EGWC 020850Z 04015KT 9999 SCT020 BKN025 09/05 Q1015 WHT;",
"03414599999","2010-05-02T09:50:00","4","52.640028","-2.305578","82.9","COSFORD, UK","FM-15","EGWC ","V020","030,1,N,0077,1","00750,1,C,N","011265,1,N,1","+0080,1","+0020,1","99999,9","02,5,+00600,1,99,9","07,5,+00750,1,99,9",,"07,99,1,99,9,99,9,99999,9,99,9,99,9","10149,1,99999,9",,,,"MET062METAR EGWC 020950Z 03015KT 9999 FEW020 BKN025 08/02 Q1015 BLU;",
"03414599999","2010-05-02T10:50:00","4","52.640028","-2.305578","82.9","COSFORD, UK","FM-15","EGWC ","V020","030,1,N,0077,1","00750,1,C,N","011265,1,N,1","+0090,1","+0020,1","99999,9","04,5,+00600,1,99,9","07,5,+00750,1,99,9",,"07,99,1,99,9,99,9,99999,9,99,9,99,9","10159,1,99999,9",,,,"MET062METAR EGWC 021050Z 03015KT 9999 SCT020 BKN025 09/02 Q1016 WHT;",
"03414599999","2010-05-02T11:50:00","4","52.640028","-2.305578","82.9","COSFORD, UK","FM-15","EGWC ","V020","030,1,N,0051,1","00750,1,C,N","011265,1,N,1","+0090,1","+0020,1","99999,9","04,5,+00600,1,99,9","07,5,+00750,1,99,9",,"07,99,1,99,9,99,9,99999,9,99,9,99,9","10159,1,99999,9",,,,"MET062METAR EGWC 021150Z 03010KT 9999 SCT020 BKN025 09/02 Q1016 WHT;",
"03414599999","2010-05-02T12:50:00","4","52.640028","-2.305578","82.9","COSFORD, UK","FM-15","EGWC ","V020","030,1,N,0062,1","00750,1,C,N","011265,1,N,1","+0080,1","+0010,1","99999,9","02,5,+00600,1,99,9","07,5,+00750,1,99,9",,"07,99,1,99,9,99,9,99999,9,99,9,99,9","10159,1,99999,9",,,,"MET062METAR EGWC 021250Z 03012KT 9999 FEW020 BKN025 08/01 Q1016 BLU;",
"03414599999","2010-05-02T13:50:00","4","52.640028","-2.305578","82.9","COSFORD, UK","FM-15","EGWC ","V020","360,1,N,0041,1","00750,1,C,N","011265,1,N,1","+0080,1","+0030,1","99999,9","02,5,+00600,1,99,9","07,5,+00750,1,99,9",,"07,99,1,99,9,99,9,99999,9,99,9,99,9","10169,1,99999,9",,,,"MET062METAR EGWC 021350Z 36008KT 9999 FEW020 BKN025 08/03 Q1017 BLU;",
"03414599999","2010-05-05T08:50:00","4","52.640028","-2.305578","82.9","COSFORD, UK","FM-15","EGWC ","V020","320,1,N,0036,1","00450,1,C,N","005000,1,N,1","+0100,1","+0070,1","99999,9","02,5,+00300,1,99,9","07,5,+00450,1,99,9",,"07,99,1,99,9,99,9,99999,9,99,9,99,9","10230,1,99999,9","05,1",,,"MET065METAR EGWC 050850Z 32007KT 5000 HZ FEW010 BKN015 10/07 Q1023 WHT;",
"03414599999","2010-05-05T09:50:00","4","52.640028","-2.305578","82.9","COSFORD, UK","FM-15","EGWC ","V020","300,1,N,0041,1","00450,1,C,N","005000,1,N,1","+0100,1","+0070,1","99999,9","07,5,+00450,1,99,9",,,"07,99,1,99,9,99,9,99999,9,99,9,99,9","10230,1,99999,9","05,1",,,"MET058METAR EGWC 050950Z 30008KT 5000 HZ BKN015 10/07 Q1023 WHT;",
"03414599999","2010-05-05T10:50:00","4","52.640028","-2.305578","82.9","COSFORD, UK","FM-15","EGWC ","V020","290,1,N,0036,1","00450,1,C,N","008000,1,N,1","+0120,1","+0090,1","99999,9","07,5,+00450,1,99,9",,,"07,99,1,99,9,99,9,99999,9,99,9,99,9","10220,1,99999,9","05,1",,,"MET058METAR EGWC 051050Z 29007KT 8000 HZ BKN015 12/09 Q1022 WHT;",
"03414599999","2010-05-05T11:50:00","4","52.640028","-2.305578","82.9","COSFORD, UK","FM-15","EGWC ","V020","300,1,N,0041,1","00450,1,C,N","008000,1,N,1","+0120,1","+0080,1","99999,9","07,5,+00450,1,99,9",,,"07,99,1,99,9,99,9,99999,9,99,9,99,9","10220,1,99999,9","05,1",,,"MET058METAR EGWC 051150Z 30008KT 8000 HZ BKN015 12/08 Q1022 WHT;",
"03414599999","2010-05-05T12:50:00","4","52.640028","-2.305578","82.9","COSFORD, UK","FM-15","EGWC ","V020","999,9,C,0000,1","00450,1,C,N","006000,1,N,1","+0110,1","+0090,1","99999,9","07,5,+00450,1,99,9",,,"07,99,1,99,9,99,9,99999,9,99,9,99,9","10220,1,99999,9","51,1",,,"MET059METAR EGWC 051250Z 00000KT 6000 -DZ BKN015 11/09 Q1022 WHT;",
"03414599999","2010-05-06T12:50:00","4","52.640028","-2.305578","82.9","COSFORD, UK","FM-15","EGWC ","V020","070,1,N,0026,1","00660,1,C,N","006000,1,N,1","+0120,1","+0090,1","99999,9","02,5,+00240,1,99,9","04,5,+00660,1,99,9","07,5,+01350,1,99,9","07,99,1,99,9,99,9,99999,9,99,9,99,9","10129,1,99999,9","05,1",,,"MET078METAR EGWC 061250Z 07005KT 6000 HZ FEW008 SCT022 BKN045 12/09 Q1013 WHT NOSIG;",
"03414599999","2010-05-08T08:50:00","4","52.640028","-2.305578","82.9","COSFORD, UK","FM-15","EGWC ","V020","030,1,N,0062,1","00360,1,C,N","006000,1,N,1","+0080,1","+0040,1","99999,9","04,5,+00270,1,99,9","07,5,+00360,1,99,9",,"07,99,1,99,9,99,9,99999,9,99,9,99,9","10149,1,99999,9","61,1",,,"MET066METAR EGWC 080850Z 03012KT 6000 -RA SCT009 BKN012 08/04 Q1015 GRN;",
"03414599999","2010-05-08T09:50:00","4","52.640028","-2.305578","82.9","COSFORD, UK","FM-15","EGWC ","V020","040,1,N,0062,1","00900,1,C,N","011265,1,N,1","+0090,1","+0040,1","99999,9","04,5,+00600,1,99,9","07,5,+00900,1,99,9",,"07,99,1,99,9,99,9,99999,9,99,9,99,9","10149,1,99999,9","61,1",,,"MET066METAR EGWC 080950Z 04012KT 9999 -RA SCT020 BKN030 09/04 Q1015 WHT;",
"03414599999","2010-05-08T10:50:00","4","52.640028","-2.305578","82.9","COSFORD, UK","FM-15","EGWC ","V020","040,1,N,0062,1","00600,1,C,N","011265,1,N,1","+0080,1","+0050,1","99999,9","02,5,+00450,1,99,9","04,5,+00600,1,99,9","07,5,+00900,1,99,9","07,99,1,99,9,99,9,99999,9,99,9,99,9","10159,1,99999,9","61,1",,,"MET073METAR EGWC 081050Z 04012KT 9999 -RA FEW015 SCT020 BKN030 08/05 Q1016 WHT;",
"03414599999","2010-05-08T11:50:00","4","52.640028","-2.305578","82.9","COSFORD, UK","FM-15","EGWC ","V020","040,1,N,0051,1","00900,1,C,N","011265,1,N,1","+0090,1","+0050,1","99999,9","02,5,+00360,1,99,9","07,5,+00900,1,99,9",,"07,99,1,99,9,99,9,99999,9,99,9,99,9","10149,1,99999,9","16,1",,,"MET067METAR EGWC 081150Z 04010KT 9999 VCSH FEW012 BKN030 09/05 Q1015 BLU;",
"03414599999","2010-05-08T12:50:00","4","52.640028","-2.305578","82.9","COSFORD, UK","FM-15","EGWC ","V020","040,1,N,0051,1","00900,1,C,N","011265,1,N,1","+0080,1","+0050,1","99999,9","02,5,+00360,1,99,9","07,5,+00900,1,99,9",,"07,99,1,99,9,99,9,99999,9,99,9,99,9","10149,1,99999,9","61,1",,,"MET066METAR EGWC 081250Z 04010KT 9999 -RA FEW012 BKN030 08/05 Q1015 BLU;",
"03414599999","2010-05-08T13:50:00","4","52.640028","-2.305578","82.9","COSFORD, UK","FM-15","EGWC ","V020","050,1,N,0051,1","00900,1,C,N","011265,1,N,1","+0090,1","+0050,1","99999,9","02,5,+00360,1,99,9","07,5,+00900,1,99,9",,"07,99,1,99,9,99,9,99999,9,99,9,99,9","10159,1,99999,9","16,1",,,"MET067METAR EGWC 081350Z 05010KT 9999 VCSH FEW012 BKN030 09/05 Q1016 BLU;",
"03414599999","2010-05-10T06:50:00","4","52.640028","-2.305578","82.9","COSFORD, UK","FM-15","EGWC ","V020","100,1,N,0041,1","99999,9,C,N","011265,1,N,1","+0070,1","+0030,1","99999,9","02,5,+00750,1,99,9","04,5,+01350,1,99,9",,"04,99,1,99,9,99,9,99999,9,99,9,99,9","10139,1,99999,9",,,,"MET062METAR EGWC 100650Z 10008KT 9999 FEW025 SCT045 07/03 Q1014 BLU;","P01 013503SCOCIG"
"03414599999","2010-05-10T07:50:00","4","52.640028","-2.305578","82.9","COSFORD, UK","FM-15","EGWC ","V020","070,1,N,0051,1","99999,9,C,N","011265,1,N,1","+0090,1","+0030,1","99999,9","02,5,+00900,1,99,9","04,5,+01500,1,99,9",,"04,99,1,99,9,99,9,99999,9,99,9,99,9","10139,1,99999,9",,,,"MET062METAR EGWC 100750Z 07010KT 9999 FEW030 SCT050 09/03 Q1014 BLU;","P01 015003SCOCIG"
"03414599999","2010-05-10T08:50:00","4","52.640028","-2.305578","82.9","COSFORD, UK","FM-15","EGWC ","V020","070,1,N,0051,1","99999,9,C,N","011265,1,N,1","+0090,1","+0030,1","99999,9","02,5,+00900,1,99,9","04,5,+01500,1,99,9",,"04,99,1,99,9,99,9,99999,9,99,9,99,9","10139,1,99999,9",,,,"MET062METAR EGWC 100850Z 07010KT 9999 FEW030 SCT050 09/03 Q1014 BLU;","P01 015003SCOCIG"
"03414599999","2010-05-10T09:50:00","4","52.640028","-2.305578","82.9","COSFORD, UK","FM-15","EGWC ","V020","090,1,N,0051,1","01350,1,C,N","011265,1,N,1","+0080,1","+0050,1","99999,9","02,5,+00750,1,99,9","07,5,+01350,1,99,9",,"07,99,1,99,9,99,9,99999,9,99,9,99,9","10139,1,99999,9",,,,"MET062METAR EGWC 100950Z 09010KT 9999 FEW025 BKN045 08/05 Q1014 BLU;",
"03414599999","2010-05-10T10:50:00","4","52.640028","-2.305578","82.9","COSFORD, UK","FM-15","EGWC ","V020","100,1,N,0051,1","01350,1,C,N","011265,1,N,1","+0090,1","+0020,1","99999,9","02,5,+00750,1,99,9","07,5,+01350,1,99,9",,"07,99,1,99,9,99,9,99999,9,99,9,99,9","10139,1,99999,9",,,,"MET062METAR EGWC 101050Z 10010KT 9999 FEW025 BKN045 09/02 Q1014 BLU;",
"03414599999","2010-05-10T11:50:00","4","52.640028","-2.305578","82.9","COSFORD, UK","FM-15","EGWC ","V020","090,1,N,0041,1","01440,1,C,N","011265,1,N,1","+0100,1","+0010,1","99999,9","04,5,+00840,1,99,9","07,5,+01440,1,99,9",,"07,99,1,99,9,99,9,99999,9,99,9,99,9","10139,1,99999,9",,,,"MET062METAR EGWC 101150Z 09008KT 9999 SCT028 BKN048 10/01 Q1014 BLU;",
"03414599999","2010-05-10T12:50:00","4","52.640028","-2.305578","82.9","COSFORD, UK","FM-15","EGWC ","V020","090,1,N,0026,1","01500,1,C,N","011265,1,N,1","+0100,1","+0040,1","99999,9","04,5,+00840,1,99,9","07,5,+01500,1,99,9",,"07,99,1,99,9,99,9,99999,9,99,9,99,9","10139,1,99999,9",,,,"MET062METAR EGWC 101250Z 09005KT 9999 SCT028 BKN050 10/04 Q1014 BLU;",
"03414599999","2010-05-10T13:50:00","4","52.640028","-2.305578","82.9","COSFORD, UK","FM-15","EGWC ","V020","040,1,N,0051,1","01500,1,C,N","011265,1,N,1","+0090,1","+0040,1","99999,9","04,5,+01050,1,99,9","07,5,+01500,1,99,9",,"07,99,1,99,9,99,9,99999,9,99,9,99,9","10139,1,99999,9",,,,"MET062METAR EGWC 101350Z 04010KT 9999 SCT035 BKN050 09/04 Q1014 BLU;",
"03414599999","2010-05-10T14:50:00","4","52.640028","-2.305578","82.9","COSFORD, UK","FM-15","EGWC ","V020","040,1,N,0051,1","01350,1,C,N","011265,1,N,1","+0100,1","+0040,1","99999,9","04,5,+01050,1,99,9","07,5,+01350,1,99,9",,"07,99,1,99,9,99,9,99999,9,99,9,99,9","10139,1,99999,9",,,,"MET062METAR EGWC 101450Z 04010KT 9999 SCT035 BKN045 10/04 Q1014 BLU;",
"03414599999","2010-05-10T15:50:00","4","52.640028","-2.305578","82.9","COSFORD, UK","FM-15","EGWC ","V020","060,1,N,0041,1","01440,1,C,N","011265,1,N,1","+0100,1","+0040,1","99999,9","04,5,+00960,1,99,9","07,5,+01440,1,99,9",,"07,99,1,99,9,99,9,99999,9,99,9,99,9","10139,1,99999,9",,,,"MET062METAR EGWC 101550Z 06008KT 9999 SCT032 BKN048 10/04 Q1014 BLU;",
"03414599999","2010-05-11T07:50:00","4","52.640028","-2.305578","82.9","COSFORD, UK","FM-15","EGWC ","V020","999,9,C,0000,1","99999,9,C,N","011265,1,N,1","+0060,1","+0030,1","99999,9","02,5,+00360,1,99,9","04,5,+01800,1,99,9",,"04,99,1,99,9,99,9,99999,9,99,9,99,9","10149,1,99999,9",,,,"MET062METAR EGWC 110750Z 00000KT 9999 FEW012 SCT060 06/03 Q1015 BLU;","P01 018003SCOCIG"
"03414599999","2010-05-11T08:50:00","4","52.640028","-2.305578","82.9","COSFORD, UK","FM-15","EGWC ","V020","999,9,C,0000,1","22000,1,9,N","011265,1,N,1","+0070,1","+0020,1","99999,9","04,5,+00840,1,99,9",,,"04,99,1,99,9,99,9,99999,9,99,9,99,9","10149,1,99999,9",,,,"MET055METAR EGWC 110850Z 00000KT 9999 SCT028 07/02 Q1015 BLU;",
"03414599999","2010-05-11T09:50:00","4","52.640028","-2.305578","82.9","COSFORD, UK","FM-15","EGWC ","V020","070,1,N,0026,1","22000,1,9,N","011265,1,N,1","+0080,1","+0010,1","99999,9","04,5,+00840,1,99,9",,,"04,99,1,99,9,99,9,99999,9,99,9,99,9","10139,1,99999,9",,,,"MET055METAR EGWC 110950Z 07005KT 9999 SCT028 08/01 Q1014 BLU;",
"03414599999","2010-05-11T10:50:00","4","52.640028","-2.305578","82.9","COSFORD, UK","FM-15","EGWC ","V020","040,1,N,0026,1","00900,1,C,N","011265,1,N,1","+0090,1","+0010,1","99999,9","07,5,+00900,1,99,9",,,"07,99,1,99,9,99,9,99999,9,99,9,99,9","10139,1,99999,9",,,,"MET055METAR EGWC 111050Z 04005KT 9999 BKN030 09/01 Q1014 BLU;",
"03414599999","2010-05-11T11:50:00","4","52.640028","-2.305578","82.9","COSFORD, UK","FM-15","EGWC ","V020","020,1,N,0051,1","00900,1,C,N","011265,1,N,1","+0090,1","+0000,1","99999,9","07,5,+00900,1,99,9",,,"07,99,1,99,9,99,9,99999,9,99,9,99,9","10139,1,99999,9",,,,"MET056METAR EGWC 111150Z 02010KT 9999 BKN030 09/M00 Q1014 BLU;",
"03414599999","2010-05-11T12:50:00","4","52.640028","-2.305578","82.9","COSFORD, UK","FM-15","EGWC ","V020","030,1,N,0051,1","00840,1,C,N","011265,1,N,1","+0090,1","+0010,1","99999,9","07,5,+00840,1,99,9",,,"07,99,1,99,9,99,9,99999,9,99,9,99,9","10139,1,99999,9","80,1",,,"MET061METAR EGWC 111250Z 03010KT 9999 -SHRA BKN028 09/01 Q1014 BLU;",
"03414599999","2010-05-11T13:50:00","4","52.640028","-2.305578","82.9","COSFORD, UK","FM-15","EGWC ","V020","360,1,N,0072,1","00840,1,C,N","011265,1,N,1","+0110,1","+0020,1","99999,9","07,5,+00840,1,99,9",,,"07,99,1,99,9,99,9,99999,9,99,9,99,9","10139,1,99999,9",,,,"MET055METAR EGWC 111350Z 36014KT 9999 BKN028 11/02 Q1014 BLU;",
"03414599999","2010-05-11T14:50:00","4","52.640028","-2.305578","82.9","COSFORD, UK","FM-15","EGWC ","V020","340,1,N,0051,1","00960,1,C,N","011265,1,N,1","+0090,1","+0010,1","99999,9","07,5,+00960,1,99,9",,,"07,99,1,99,9,99,9,99999,9,99,9,99,9","10139,1,99999,9",,,,"MET055METAR EGWC 111450Z 34010KT 9999 BKN032 09/01 Q1014 BLU;",
"03414599999","2010-05-12T06:50:00","4","52.640028","-2.305578","82.9","COSFORD, UK","FM-15","EGWC ","V020","040,1,N,0031,1","22000,1,9,N","011265,1,N,1","+0050,1","+0020,1","99999,9","02,5,+00600,1,99,9",,,"02,99,1,99,9,99,9,99999,9,99,9,99,9","10159,1,99999,9",,,,"MET055METAR EGWC 120650Z 04006KT 9999 FEW020 05/02 Q1016 BLU;",
"03414599999","2010-05-12T07:50:00","4","52.640028","-2.305578","82.9","COSFORD, UK","FM-15","EGWC ","V020","080,1,N,0041,1","00600,1,C,N","004000,1,N,1","+0060,1","+0030,1","99999,9","07,5,+00600,1,99,9",,,"07,99,1,99,9,99,9,99999,9,99,9,99,9","10159,1,99999,9","05,1",,,"MET058METAR EGWC 120750Z 08008KT 4000 HZ BKN020 06/03 Q1016 GRN;",
"03414599999","2010-05-12T08:50:00","4","52.640028","-2.305578","82.9","COSFORD, UK","FM-15","EGWC ","V020","080,1,N,0041,1","00480,1,C,N","006000,1,N,1","+0070,1","+0040,1","99999,9","07,5,+00480,1,99,9",,,"07,99,1,99,9,99,9,99999,9,99,9,99,9","10159,1,99999,9","05,1",,,"MET058METAR EGWC 120850Z 08008KT 6000 HZ BKN016 07/04 Q1016 WHT;",
"03414599999","2010-05-12T09:50:00","4","52.640028","-2.305578","82.9","COSFORD, UK","FM-15","EGWC ","V020","060,1,N,0041,1","00540,1,C,N","011265,1,N,1","+0080,1","+0030,1","99999,9","07,5,+00540,1,99,9",,,"07,99,1,99,9,99,9,99999,9,99,9,99,9","10159,1,99999,9",,,,"MET055METAR EGWC 120950Z 06008KT 9999 BKN018 08/03 Q1016 WHT;",
"03414599999","2010-05-12T10:50:00","4","52.640028","-2.305578","82.9","COSFORD, UK","FM-15","EGWC ","V020","040,1,N,0051,1","00540,1,C,N","011265,1,N,1","+0090,1","+0030,1","99999,9","07,5,+00540,1,99,9",,,"07,99,1,99,9,99,9,99999,9,99,9,99,9","10159,1,99999,9",,,,"MET055METAR EGWC 121050Z 04010KT 9999 BKN018 09/03 Q1016 WHT;",
"03414599999","2010-05-12T11:50:00","4","52.640028","-2.305578","82.9","COSFORD, UK","FM-15","EGWC ","V020","050,1,N,0051,1","00600,1,C,N","011265,1,N,1","+0090,1","+0040,1","99999,9","07,5,+00600,1,99,9",,,"07,99,1,99,9,99,9,99999,9,99,9,99,9","10159,1,99999,9",,,,"MET055METAR EGWC 121150Z 05010KT 9999 BKN020 09/04 Q1016 WHT;",
"03414599999","2010-05-12T12:50:00","4","52.640028","-2.305578","82.9","COSFORD, UK","FM-15","EGWC ","V020","070,1,N,0062,1","00600,1,C,N","011265,1,N,1","+0090,1","+0040,1","99999,9","07,5,+00600,1,99,9",,,"07,99,1,99,9,99,9,99999,9,99,9,99,9","10169,1,99999,9","80,1",,,"MET061METAR EGWC 121250Z 07012KT 9999 -SHRA BKN020 09/04 Q1017 WHT;",
"03414599999","2010-05-12T14:50:00","4","52.640028","-2.305578","82.9","COSFORD, UK","FM-15","EGWC ","V020","999,9,C,0000,1","00600,1,C,N","011265,1,N,1","+0090,1","+0020,1","99999,9","07,5,+00600,1,99,9",,,"07,99,1,99,9,99,9,99999,9,99,9,99,9","10159,1,99999,9",,,,"MET055METAR EGWC 121450Z 00000KT 9999 BKN020 09/02 Q1016 WHT;",
"03414599999","2010-05-13T07:50:00","4","52.640028","-2.305578","82.9","COSFORD, UK","FM-15","EGWC ","V020","160,1,N,0021,1","99999,9,C,N","011265,1,N,1","+0060,1","+0030,1","99999,9","02,5,+00900,1,99,9","04,5,+01350,1,99,9",,"04,99,1,99,9,99,9,99999,9,99,9,99,9","10149,1,99999,9",,,,"MET062METAR EGWC 130750Z 16004KT 9999 FEW030 SCT045 06/03 Q1015 BLU;","P01 013503SCOCIG"
"03414599999","2010-05-15T07:50:00","4","52.640028","-2.305578","82.9","COSFORD, UK","FM-15","EGWC ","V020","300,1,N,0041,1","22000,1,9,N","011265,1,N,1","+0100,1","+0060,1","99999,9","02,5,+00660,1,99,9",,,"02,99,1,99,9,99,9,99999,9,99,9,99,9","10159,1,99999,9",,,,"MET055METAR EGWC 150750Z 30008KT 9999 FEW022 10/06 Q1016 BLU;",
"03414599999","2010-05-15T08:50:00","4","52.640028","-2.305578","82.9","COSFORD, UK","FM-15","EGWC ","V020","330,1,N,0041,1","22000,1,9,N","011265,1,N,1","+0120,1","+0060,1","99999,9","02,5,+00540,1,99,9",,,"02,99,1,99,9,99,9,99999,9,99,9,99,9","10159,1,99999,9",,,,"MET055METAR EGWC 150850Z 33008KT 9999 FEW018 12/06 Q1016 BLU;",
"03414599999","2010-05-15T09:50:00","4","52.640028","-2.305578","82.9","COSFORD, UK","FM-15","EGWC ","V020","320,1,N,0041,1","22000,1,9,N","011265,1,N,1","+0130,1","+0060,1","99999,9","04,5,+00780,1,99,9",,,"04,99,1,99,9,99,9,99999,9,99,9,99,9","10159,1,99999,9",,,,"MET055METAR EGWC 150950Z 32008KT 9999 SCT026 13/06 Q1016 BLU;",
"03414599999","2010-05-15T10:50:00","4","52.640028","-2.305578","82.9","COSFORD, UK","FM-15","EGWC ","V020","330,1,N,0041,1","00780,1,C,N","011265,1,N,1","+0120,1","+0060,1","99999,9","07,5,+00780,1,99,9",,,"07,99,1,99,9,99,9,99999,9,99,9,99,9","10159,1,99999,9",,,,"MET055METAR EGWC 151050Z 33008KT 9999 BKN026 12/06 Q1016 BLU;",
"03414599999","2010-05-15T11:50:00","4","52.640028","-2.305578","82.9","COSFORD, UK","FM-15","EGWC ","V020","340,1,N,0041,1","01350,1,C,N","011265,1,N,1","+0130,1","+0060,1","99999,9","04,5,+00780,1,99,9","07,5,+01350,1,99,9",,"07,99,1,99,9,99,9,99999,9,99,9,99,9","10169,1,99999,9",,,,"MET062METAR EGWC 151150Z 34008KT 9999 SCT026 BKN045 13/06 Q1017 BLU;",
"03414599999","2010-05-15T12:50:00","4","52.640028","-2.305578","82.9","COSFORD, UK","FM-15","EGWC ","V020","020,1,N,0041,1","01350,1,C,N","011265,1,N,1","+0140,1","+0080,1","99999,9","07,5,+01350,1,99,9",,,"07,99,1,99,9,99,9,99999,9,99,9,99,9","10169,1,99999,9",,,,"MET055METAR EGWC 151250Z 02008KT 9999 BKN045 14/08 Q1017 BLU;",
"03414599999","2010-05-15T13:50:00","4","52.640028","-2.305578","82.9","COSFORD, UK","FM-15","EGWC ","V020","300,1,N,0026,1","22000,1,9,N","011265,1,N,1","+0150,1","+0070,1","99999,9","04,5,+01350,1,99,9",,,"04,99,1,99,9,99,9,99999,9,99,9,99,9","10169,1,99999,9",,,,"MET055METAR EGWC 151350Z 30005KT 9999 SCT045 15/07 Q1017 BLU;",
"03414599999","2010-05-15T14:50:00","4","52.640028","-2.305578","82.9","COSFORD, UK","FM-15","EGWC ","V020","290,1,N,0077,1","22000,1,9,N","011265,1,N,1","+0150,1","+0070,1","99999,9","04,5,+01050,1,99,9",,,"04,99,1,99,9,99,9,99999,9,99,9,99,9","10159,1,99999,9",,,,"MET055METAR EGWC 151450Z 29015KT 9999 SCT035 15/07 Q1016 BLU;",
"03414599999","2010-05-18T06:50:00","4","52.640028","-2.305578","82.9","COSFORD, UK","FM-15","EGWC ","V020","999,9,C,0000,1","22000,1,9,N","011265,1,N,1","+0070,1","+0050,1","99999,9","02,5,+01200,1,99,9",,,"02,99,1,99,9,99,9,99999,9,99,9,99,9","10291,1,99999,9",,,,"MET055METAR EGWC 180650Z 00000KT 9999 FEW040 07/05 Q1029 BLU;",
"03414599999","2010-05-18T07:50:00","4","52.640028","-2.305578","82.9","COSFORD, UK","FM-15","EGWC ","V020","350,1,N,0031,1","22000,1,9,N","011265,1,N,1","+0110,1","+0070,1","99999,9","04,5,+01200,1,99,9",,,"04,99,1,99,9,99,9,99999,9,99,9,99,9","10291,1,99999,9",,,,"MET055METAR EGWC 180750Z 35006KT 9999 SCT040 11/07 Q1029 BLU;",
"03414599999","2010-05-18T08:50:00","4","52.640028","-2.305578","82.9","COSFORD, UK","FM-15","EGWC ","V020","360,1,N,0026,1","99999,9,9,Y","009900,1,N,1","+0120,1","+0060,1","99999,9",,,,,"10291,1,99999,9",,,,"MET049METAR EGWC 180850Z 36005KT CAVOK 12/06 Q1029 BLU;",
"03414599999","2010-05-18T09:50:00","4","52.640028","-2.305578","82.9","COSFORD, UK","FM-15","EGWC ","V020","999,9,C,0000,1","01500,5,9,N","999999,9,N,1","+0150,1","+0070,1","99999,9","02,5,+00750,5,99,9","04,5,+01500,5,99,9",,,"10290,1,99999,9",,,,"MET057METAR EGWC 180950Z 00000KT FEW025 SCT050 15/07 Q1029 BLU;",
"03414599999","2010-05-18T10:50:00","4","52.640028","-2.305578","82.9","COSFORD, UK","FM-15","EGWC ","V020","999,9,C,0000,1","22000,1,9,N","999999,9,N,1","+0170,1","+0060,1","99999,9","02,5,+00900,5,99,9",,,,"10290,1,99999,9",,,,"MET050METAR EGWC 181050Z 00000KT FEW030 17/06 Q1029 BLU;",
"03414599999","2010-05-18T11:50:00","4","52.640028","-2.305578","82.9","COSFORD, UK","FM-15","EGWC ","V020","999,9,C,0000,1","22000,1,9,N","999999,9,N,1","+0170,1","+0070,1","99999,9","04,5,+01050,5,99,9",,,,"10290,1,99999,9",,,,"MET050METAR EGWC 181150Z 00000KT SCT035 17/07 Q1029 BLU;",
"03414599999","2010-05-18T12:50:00","4","52.640028","-2.305578","82.9","COSFORD, UK","FM-15","EGWC ","V020","120,1,N,0026,1","22000,1,9,N","011265,1,N,1","+0160,1","+0060,1","99999,9","04,5,+01050,1,99,9",,,"04,99,1,99,9,99,9,99999,9,99,9,99,9","10291,1,99999,9",,,,"MET055METAR EGWC 181250Z 12005KT 9999 SCT035 16/06 Q1029 BLU;",
"03414599999","2010-05-18T13:50:00","4","52.640028","-2.305578","82.9","COSFORD, UK","FM-15","EGWC ","V020","230,1,N,0026,1","01050,1,C,N","011265,1,N,1","+0180,1","+0070,1","99999,9","07,5,+01050,1,99,9",,,"07,99,1,99,9,99,9,99999,9,99,9,99,9","10281,1,99999,9",,,,"MET055METAR EGWC 181350Z 23005KT 9999 BKN035 18/07 Q1028 BLU;",
"03414599999","2010-05-19T07:50:00","4","52.640028","-2.305578","82.9","COSFORD, UK","FM-15","EGWC ","V020","210,1,N,0026,1","01350,1,C,N","011265,1,N,1","+0140,1","+0100,1","99999,9","02,5,+00360,1,99,9","07,5,+01350,1,99,9",,"07,99,1,99,9,99,9,99999,9,99,9,99,9","10291,1,99999,9",,,,"MET062METAR EGWC 190750Z 21005KT 9999 FEW012 BKN045 14/10 Q1029 BLU;",
"03414599999","2010-05-19T08:50:00","4","52.640028","-2.305578","82.9","COSFORD, UK","FM-15","EGWC ","V020","210,1,N,0026,1","01200,1,C,N","011265,1,N,1","+0150,1","+0110,1","99999,9","02,5,+00300,1,99,9","07,5,+01200,1,99,9",,"07,99,1,99,9,99,9,99999,9,99,9,99,9","10291,1,99999,9",,,,"MET062METAR EGWC 190850Z 21005KT 9999 FEW010 BKN040 15/11 Q1029 BLU;",
"03414599999","2010-05-19T09:50:00","4","52.640028","-2.305578","82.9","COSFORD, UK","FM-15","EGWC ","V020","220,1,N,0041,1","01200,1,C,N","011265,1,N,1","+0160,1","+0110,1","99999,9","07,5,+01200,1,99,9",,,"07,99,1,99,9,99,9,99999,9,99,9,99,9","10291,1,99999,9",,,,"MET055METAR EGWC 190950Z 22008KT 9999 BKN040 16/11 Q1029 BLU;",
"03414599999","2010-05-19T10:50:00","4","52.640028","-2.305578","82.9","COSFORD, UK","FM-15","EGWC ","V020","210,1,N,0041,1","00780,1,C,N","011265,1,N,1","+0150,1","+0120,1","99999,9","07,5,+00780,1,99,9",,,"07,99,1,99,9,99,9,99999,9,99,9,99,9","10291,1,99999,9",,,,"MET055METAR EGWC 191050Z 21008KT 9999 BKN026 15/12 Q1029 BLU;",
"03414599999","2010-05-19T11:50:00","4","52.640028","-2.305578","82.9","COSFORD, UK","FM-15","EGWC ","V020","210,1,N,0041,1","00780,1,C,N","011265,1,N,1","+0160,1","+0100,1","99999,9","07,5,+00780,1,99,9",,,"07,99,1,99,9,99,9,99999,9,99,9,99,9","10291,1,99999,9",,,,"MET055METAR EGWC 191150Z 21008KT 9999 BKN026 16/10 Q1029 BLU;",
"03414599999","2010-05-19T12:50:00","4","52.640028","-2.305578","82.9","COSFORD, UK","FM-15","EGWC ","V020","210,1,N,0031,1","00780,1,C,N","011265,1,N,1","+0160,1","+0110,1","99999,9","07,5,+00780,1,99,9",,,"07,99,1,99,9,99,9,99999,9,99,9,99,9","10291,1,99999,9",,,,"MET055METAR EGWC 191250Z 21006KT 9999 BKN026 16/11 Q1029 BLU;",
"03414599999","2010-05-19T13:50:00","4","52.640028","-2.305578","82.9","COSFORD, UK","FM-15","EGWC ","V020","210,1,N,0031,1","00780,1,C,N","011265,1,N,1","+0170,1","+0120,1","99999,9","07,5,+00780,1,99,9",,,"07,99,1,99,9,99,9,99999,9,99,9,99,9","10291,1,99999,9",,,,"MET055METAR EGWC 191350Z 21006KT 9999 BKN026 17/12 Q1029 BLU;",
"03414599999","2010-05-19T14:50:00","4","52.640028","-2.305578","82.9","COSFORD, UK","FM-15","EGWC ","V020","220,1,N,0031,1","00780,1,C,N","011265,1,N,1","+0180,1","+0110,1","99999,9","07,5,+00780,1,99,9",,,"07,99,1,99,9,99,9,99999,9,99,9,99,9","10291,1,99999,9",,,,"MET055METAR EGWC 191450Z 22006KT 9999 BKN026 18/11 Q1029 BLU;",
"03414599999","2010-05-22T07:50:00","4","52.640028","-2.305578","82.9","COSFORD, UK","FM-15","EGWC ","V020","999,9,C,0000,1","99999,9,9,Y","009900,1,N,1","+0170,1","+0120,1","99999,9",,,,,"10312,1,99999,9",,,,"MET049METAR EGWC 220750Z 00000KT CAVOK 17/12 Q1031 BLU;",
"03414599999","2010-05-22T08:50:00","4","52.640028","-2.305578","82.9","COSFORD, UK","FM-15","EGWC ","V020","999,9,C,0000,1","99999,9,9,Y","009900,1,N,1","+0170,1","+0110,1","99999,9",,,,,"10312,1,99999,9",,,,"MET049METAR EGWC 220850Z 00000KT CAVOK 17/11 Q1031 BLU;",
"03414599999","2010-05-22T09:50:00","4","52.640028","-2.305578","82.9","COSFORD, UK","FM-15","EGWC ","V020","120,1,N,0041,1","99999,9,9,Y","009900,1,N,1","+0210,1","+0130,1","99999,9",,,,,"10312,1,99999,9",,,,"MET049METAR EGWC 220950Z 12008KT CAVOK 21/13 Q1031 BLU;",
"03414599999","2010-05-22T10:50:00","4","52.640028","-2.305578","82.9","COSFORD, UK","FM-15","EGWC ","V020","999,9,C,0000,1","99999,9,9,Y","009900,1,N,1","+0220,1","+0140,1","99999,9",,,,,"10312,1,99999,9",,,,"MET049METAR EGWC 221050Z 00000KT CAVOK 22/14 Q1031 BLU;",
"03414599999","2010-05-22T11:50:00","4","52.640028","-2.305578","82.9","COSFORD, UK","FM-15","EGWC ","V020","080,1,N,0041,1","22000,1,9,N","011265,1,N,1","+0230,1","+0150,1","99999,9","02,5,+01050,1,99,9",,,"02,99,1,99,9,99,9,99999,9,99,9,99,9","10301,1,99999,9",,,,"MET055METAR EGWC 221150Z 08008KT 9999 FEW035 23/15 Q1030 BLU;",
"03414599999","2010-05-22T12:50:00","4","52.640028","-2.305578","82.9","COSFORD, UK","FM-15","EGWC ","V020","090,1,N,0041,1","22000,1,9,N","011265,1,N,1","+0240,1","+0150,1","99999,9","02,5,+01050,1,99,9",,,"02,99,1,99,9,99,9,99999,9,99,9,99,9","10301,1,99999,9",,,,"MET055METAR EGWC 221250Z 09008KT 9999 FEW035 24/15 Q1030 BLU;",
"03414599999","2010-05-22T13:50:00","4","52.640028","-2.305578","82.9","COSFORD, UK","FM-15","EGWC ","V020","090,1,N,0051,1","22000,1,9,N","011265,1,N,1","+0240,1","+0130,1","99999,9","02,5,+01200,1,99,9",,,"02,99,1,99,9,99,9,99999,9,99,9,99,9","10291,1,99999,9",,,,"MET055METAR EGWC 221350Z 09010KT 9999 FEW040 24/13 Q1029 BLU;",
"03414599999","2010-05-23T07:50:00","4","52.640028","-2.305578","82.9","COSFORD, UK","FM-15","EGWC ","V020","999,9,C,0000,1","99999,9,9,Y","009900,1,N,1","+0170,1","+0130,1","99999,9",,,,,"10261,1,99999,9",,,,"MET049METAR EGWC 230750Z 00000KT CAVOK 17/13 Q1026 BLU;",
"03414599999","2010-05-23T08:50:00","4","52.640028","-2.305578","82.9","COSFORD, UK","FM-15","EGWC ","V020","999,9,C,0000,1","99999,9,9,Y","009900,1,N,1","+0200,1","+0130,1","99999,9",,,,,"10261,1,99999,9",,,,"MET049METAR EGWC 230850Z 00000KT CAVOK 20/13 Q1026 BLU;",
"03414599999","2010-05-23T09:50:00","4","52.640028","-2.305578","82.9","COSFORD, UK","FM-15","EGWC ","V020","220,1,N,0026,1","99999,9,9,Y","009900,1,N,1","+0230,1","+0130,1","99999,9",,,,,"10251,1,99999,9",,,,"MET049METAR EGWC 230950Z 22005KT CAVOK 23/13 Q1025 BLU;",
"03414599999","2010-05-23T10:50:00","4","52.640028","-2.305578","82.9","COSFORD, UK","FM-15","EGWC ","V020","210,1,N,0041,1","99999,9,9,Y","009900,1,N,1","+0240,1","+0130,1","99999,9",,,,,"10251,1,99999,9",,,,"MET049METAR EGWC 231050Z 21008KT CAVOK 24/13 Q1025 BLU;",
"03414599999","2010-05-23T11:50:00","4","52.640028","-2.305578","82.9","COSFORD, UK","FM-15","EGWC ","V020","230,1,N,0026,1","99999,9,9,Y","009900,1,N,1","+0250,1","+0130,1","99999,9",,,,,"10240,1,99999,9",,,,"MET049METAR EGWC 231150Z 23005KT CAVOK 25/13 Q1024 BLU;",
"03414599999","2010-05-23T12:50:00","4","52.640028","-2.305578","82.9","COSFORD, UK","FM-15","EGWC ","V020","250,1,N,0036,1","99999,9,9,Y","009900,1,N,1","+0260,1","+0120,1","99999,9",,,,,"10240,1,99999,9",,,,"MET049METAR EGWC 231250Z 25007KT CAVOK 26/12 Q1024 BLU;",
"03414599999","2010-05-23T13:50:00","4","52.640028","-2.305578","82.9","COSFORD, UK","FM-15","EGWC ","V020","220,1,N,0041,1","99999,9,9,Y","009900,1,N,1","+0260,1","+0120,1","99999,9",,,,,"10230,1,99999,9",,,,"MET049METAR EGWC 231350Z 22008KT CAVOK 26/12 Q1023 BLU;",
"03414599999","2010-05-24T07:50:00","4","52.640028","-2.305578","82.9","COSFORD, UK","FM-15","EGWC ","V020","300,1,N,0026,1","99999,9,9,Y","009900,1,N,1","+0180,1","+0120,1","99999,9",,,,,"10159,1,99999,9",,,,"MET049METAR EGWC 240750Z 30005KT CAVOK 18/12 Q1016 BLU;",
"03414599999","2010-05-24T08:50:00","4","52.640028","-2.305578","82.9","COSFORD, UK","FM-15","EGWC ","V020","300,1,N,0041,1","99999,9,9,Y","009900,1,N,1","+0180,1","+0110,1","99999,9",,,,,"10159,1,99999,9",,,,"MET049METAR EGWC 240850Z 30008KT CAVOK 18/11 Q1016 BLU;",
"03414599999","2010-05-24T09:50:00","4","52.640028","-2.305578","82.9","COSFORD, UK","FM-15","EGWC ","V020","300,1,N,0041,1","99999,9,9,Y","009900,1,N,1","+0200,1","+0140,1","99999,9",,,,,"10159,1,99999,9",,,,"MET049METAR EGWC 240950Z 30008KT CAVOK 20/14 Q1016 BLU;",
"03414599999","2010-05-24T10:50:00","4","52.640028","-2.305578","82.9","COSFORD, UK","FM-15","EGWC ","V020","330,1,N,0041,1","22000,1,9,N","011265,1,N,1","+0200,1","+0130,1","99999,9","02,5,+01350,1,99,9",,,"02,99,1,99,9,99,9,99999,9,99,9,99,9","10159,1,99999,9",,,,"MET055METAR EGWC 241050Z 33008KT 9999 FEW045 20/13 Q1016 BLU;",
"03414599999","2010-05-24T11:50:00","4","52.640028","-2.305578","82.9","COSFORD, UK","FM-15","EGWC ","V020","320,1,N,0041,1","99999,9,9,Y","009900,1,N,1","+0210,1","+0140,1","99999,9",,,,,"10149,1,99999,9",,,,"MET049METAR EGWC 241150Z 32008KT CAVOK 21/14 Q1015 BLU;",
"03414599999","2010-05-24T12:50:00","4","52.640028","-2.305578","82.9","COSFORD, UK","FM-15","EGWC ","V020","310,1,N,0031,1","99999,9,9,Y","009900,1,N,1","+0210,1","+0130,1","99999,9",,,,,"10149,1,99999,9",,,,"MET049METAR EGWC 241250Z 31006KT CAVOK 21/13 Q1015 BLU;",
"03414599999","2010-05-24T13:50:00","4","52.640028","-2.305578","82.9","COSFORD, UK","FM-15","EGWC ","V020","330,1,N,0041,1","22000,1,9,N","011265,1,N,1","+0210,1","+0150,1","99999,9","02,5,+00900,1,99,9",,,"02,99,1,99,9,99,9,99999,9,99,9,99,9","10149,1,99999,9",,,,"MET055METAR EGWC 241350Z 33008KT 9999 FEW030 21/15 Q1015 BLU;",
"03414599999","2010-05-24T14:50:00","4","52.640028","-2.305578","82.9","COSFORD, UK","FM-15","EGWC ","V020","320,1,N,0051,1","99999,9,9,Y","009900,1,N,1","+0220,1","+0150,1","99999,9",,,,,"10139,1,99999,9",,,,"MET049METAR EGWC 241450Z 32010KT CAVOK 22/15 Q1014 BLU;",
"03414599999","2010-05-25T06:50:00","4","52.640028","-2.305578","82.9","COSFORD, UK","FM-15","EGWC ","V020","090,1,N,0041,1","01140,1,C,N","005000,1,N,1","+0120,1","+0100,1","99999,9","04,5,+00420,1,99,9","07,5,+01140,1,99,9",,"07,99,1,99,9,99,9,99999,9,99,9,99,9","10139,1,99999,9","05,1",,,"MET065METAR EGWC 250650Z 09008KT 5000 HZ SCT014 BKN038 12/10 Q1014 BLU;",
"03414599999","2010-05-25T07:50:00","4","52.640028","-2.305578","82.9","COSFORD, UK","FM-15","EGWC ","V020","060,1,N,0051,1","00420,1,C,N","008000,1,N,1","+0120,1","+0100,1","99999,9","07,5,+00420,1,99,9",,,"07,99,1,99,9,99,9,99999,9,99,9,99,9","10139,1,99999,9","05,1",,,"MET058METAR EGWC 250750Z 06010KT 8000 HZ BKN014 12/10 Q1014 GRN;",
"03414599999","2010-05-25T08:50:00","4","52.640028","-2.305578","82.9","COSFORD, UK","FM-15","EGWC ","V020","040,1,N,0041,1","00960,1,C,N","011265,1,N,1","+0140,1","+0100,1","99999,9","04,5,+00600,1,99,9","07,5,+00960,1,99,9",,"07,99,1,99,9,99,9,99999,9,99,9,99,9","10139,1,99999,9",,,,"MET062METAR EGWC 250850Z 04008KT 9999 SCT020 BKN032 14/10 Q1014 WHT;",
"03414599999","2010-05-25T09:50:00","4","52.640028","-2.305578","82.9","COSFORD, UK","FM-15","EGWC ","V020","060,1,N,0051,1","22000,1,9,N","011265,1,N,1","+0150,1","+0110,1","99999,9","04,5,+00780,1,99,9",,,"04,99,1,99,9,99,9,99999,9,99,9,99,9","10139,1,99999,9",,,,"MET055METAR EGWC 250950Z 06010KT 9999 SCT026 15/11 Q1014 BLU;",
"03414599999","2010-05-25T10:50:00","4","52.640028","-2.305578","82.9","COSFORD, UK","FM-15","EGWC ","V020","070,1,N,0041,1","22000,1,9,N","011265,1,N,1","+0160,1","+0120,1","99999,9","04,5,+00840,1,99,9",,,"04,99,1,99,9,99,9,99999,9,99,9,99,9","10139,1,99999,9",,,,"MET055METAR EGWC 251050Z 07008KT 9999 SCT028 16/12 Q1014 BLU;",
"03414599999","2010-05-25T11:50:00","4","52.640028","-2.305578","82.9","COSFORD, UK","FM-15","EGWC ","V020","070,1,N,0041,1","22000,1,9,N","011265,1,N,1","+0170,1","+0110,1","99999,9","04,5,+00840,1,99,9",,,"04,99,1,99,9,99,9,99999,9,99,9,99,9","10139,1,99999,9",,,,"MET055METAR EGWC 251150Z 07008KT 9999 SCT028 17/11 Q1014 BLU;",
"03414599999","2010-05-25T12:50:00","4","52.640028","-2.305578","82.9","COSFORD, UK","FM-15","EGWC ","V020","060,1,N,0051,1","00840,1,C,N","011265,1,N,1","+0180,1","+0130,1","99999,9","07,5,+00840,1,99,9",,,"07,99,1,99,9,99,9,99999,9,99,9,99,9","10129,1,99999,9",,,,"MET055METAR EGWC 251250Z 06010KT 9999 BKN028 18/13 Q1013 BLU;",
"03414599999","2010-05-25T13:50:00","4","52.640028","-2.305578","82.9","COSFORD, UK","FM-15","EGWC ","V020","060,1,N,0051,1","01050,1,C,N","011265,1,N,1","+0170,1","+0130,1","99999,9","02,5,+00840,1,99,9","07,5,+01050,1,99,9",,"07,99,1,99,9,99,9,99999,9,99,9,99,9","10129,1,99999,9",,,,"MET062METAR EGWC 251350Z 06010KT 9999 FEW028 BKN035 17/13 Q1013 BLU;",
"03414599999","2010-05-26T07:50:00","4","52.640028","-2.305578","82.9","COSFORD, UK","FM-15","EGWC ","V020","070,1,N,0041,1","00960,1,C,N","011265,1,N,1","+0100,1","+0080,1","99999,9","02,5,+00360,1,99,9","04,5,+00960,1,99,9","07,5,+02100,1,99,9","07,99,1,99,9,99,9,99999,9,99,9,99,9","10108,1,99999,9",,,,"MET069METAR EGWC 260750Z 07008KT 9999 FEW012 SCT032 BKN070 10/08 Q1011 BLU;",
"03414599999","2010-05-26T08:50:00","4","52.640028","-2.305578","82.9","COSFORD, UK","FM-15","EGWC ","V020","070,1,N,0041,1","02100,1,C,N","011265,1,N,1","+0110,1","+0080,1","99999,9","02,5,+00360,1,99,9","07,5,+02100,1,99,9",,"07,99,1,99,9,99,9,99999,9,99,9,99,9","10108,1,99999,9",,,,"MET062METAR EGWC 260850Z 07008KT 9999 FEW012 BKN070 11/08 Q1011 BLU;",
"03414599999","2010-05-26T09:50:00","4","52.640028","-2.305578","82.9","COSFORD, UK","FM-15","EGWC ","V020","090,1,N,0041,1","02100,1,C,N","011265,1,N,1","+0120,1","+0090,1","99999,9","02,5,+00540,1,99,9","07,5,+02100,1,99,9",,"07,99,1,99,9,99,9,99999,9,99,9,99,9","10108,1,99999,9",,,,"MET062METAR EGWC 260950Z 09008KT 9999 FEW018 BKN070 12/09 Q1011 BLU;",
"03414599999","2010-05-26T10:50:00","4","52.640028","-2.305578","82.9","COSFORD, UK","FM-15","EGWC ","V020","100,1,N,0051,1","02100,1,C,N","011265,1,N,1","+0120,1","+0090,1","99999,9","02,5,+00540,1,99,9","07,5,+02100,1,99,9",,"07,99,1,99,9,99,9,99999,9,99,9,99,9","10108,1,99999,9",,,,"MET062METAR EGWC 261050Z 10010KT 9999 FEW018 BKN070 12/09 Q1011 BLU;",
"03414599999","2010-05-26T11:50:00","4","52.640028","-2.305578","82.9","COSFORD, UK","FM-15","EGWC ","V020","080,1,N,0051,1","01050,1,C,N","011265,1,N,1","+0130,1","+0070,1","99999,9","02,5,+00540,1,99,9","04,5,+01050,1,99,9","07,5,+02100,1,99,9","07,99,1,99,9,99,9,99999,9,99,9,99,9","10108,1,99999,9",,,,"MET069METAR EGWC 261150Z 08010KT 9999 FEW018 SCT035 BKN070 13/07 Q1011 BLU;",
"03414599999","2010-05-26T12:50:00","4","52.640028","-2.305578","82.9","COSFORD, UK","FM-15","EGWC ","V020","110,1,N,0041,1","02100,1,C,N","011265,1,N,1","+0130,1","+0050,1","99999,9","04,5,+00840,1,99,9","07,5,+02100,1,99,9",,"07,99,1,99,9,99,9,99999,9,99,9,99,9","10108,1,99999,9",,,,"MET062METAR EGWC 261250Z 11008KT 9999 SCT028 BKN070 13/05 Q1011 BLU;",
"03414599999","2010-05-26T13:50:00","4","52.640028","-2.305578","82.9","COSFORD, UK","FM-15","EGWC ","V020","090,1,N,0031,1","01500,1,C,N","011265,1,N,1","+0140,1","+0050,1","99999,9","04,5,+00960,1,99,9","07,5,+01500,1,99,9",,"07,99,1,99,9,99,9,99999,9,99,9,99,9","10108,1,99999,9",,,,"MET062METAR EGWC 261350Z 09006KT 9999 SCT032 BKN050 14/05 Q1011 BLU;",
"03414599999","2010-05-30T08:50:00","4","52.640028","-2.305578","82.9","COSFORD, UK","FM-15","EGWC ","V020","290,1,N,0077,1","00600,1,C,N","011265,1,N,1","+0130,1","+0070,1","99999,9","07,5,+00600,1,99,9",,,"07,99,1,99,9,99,9,99999,9,99,9,99,9","10119,1,99999,9",,,,"MET055METAR EGWC 300850Z 29015KT 9999 BKN020 13/07 Q1012 WHT;",
"03414599999","2010-05-30T09:50:00","4","52.640028","-2.305578","82.9","COSFORD, UK","FM-15","EGWC ","V020","290,1,N,0082,1","00750,1,C,N","011265,1,N,1","+0140,1","+0050,1","99999,9","07,5,+00750,1,99,9",,,"07,99,1,99,9,99,9,99999,9,99,9,99,9","10119,1,99999,9",,,,"MET055METAR EGWC 300950Z 29016KT 9999 BKN025 14/05 Q1012 BLU;",
"03414599999","2010-05-30T10:50:00","4","52.640028","-2.305578","82.9","COSFORD, UK","FM-15","EGWC ","V020","300,1,N,0103,1","22000,1,9,N","011265,1,N,1","+0140,1","+0050,1","99999,9","04,5,+01140,1,99,9",,,"04,99,1,99,9,99,9,99999,9,99,9,99,9","10129,1,99999,9",,,,"MET055METAR EGWC 301050Z 30020KT 9999 SCT038 14/05 Q1013 BLU;",
"03414599999","2010-05-30T11:50:00","4","52.640028","-2.305578","82.9","COSFORD, UK","FM-15","EGWC ","V020","300,1,N,0077,1","01260,1,C,N","011265,1,N,1","+0140,1","+0030,1","99999,9","07,5,+01260,1,99,9",,,"07,99,1,99,9,99,9,99999,9,99,9,99,9","10129,1,99999,9",,,,"MET055METAR EGWC 301150Z 30015KT 9999 BKN042 14/03 Q1013 BLU;",
"03414599999","2010-05-30T12:50:00","4","52.640028","-2.305578","82.9","COSFORD, UK","FM-15","EGWC ","V020","300,1,N,0077,1","01260,1,C,N","011265,1,N,1","+0140,1","+0040,1","99999,9","07,5,+01260,1,99,9",,,"07,99,1,99,9,99,9,99999,9,99,9,99,9","10129,1,99999,9",,,"0129,1","MET058METAR EGWC 301250Z 30015G25KT 9999 BKN042 14/04 Q1013 BLU;",
"03414599999","2010-05-30T13:50:00","4","52.640028","-2.305578","82.9","COSFORD, UK","FM-15","EGWC ","V020","320,1,N,0077,1","99999,9,9,Y","009900,1,N,1","+0140,1","+0050,1","99999,9",,,,,"10139,1,99999,9",,,"0129,1","MET052METAR EGWC 301350Z 32015G25KT CAVOK 14/05 Q1014 BLU;",
"03414599999","2010-06-01T07:50:00","4","52.640028","-2.305578","82.9","COSFORD, UK","FM-15","EGWC ","V020","130,1,N,0026,1","00600,1,C,N","004500,1,N,1","+0120,1","+0100,1","99999,9","02,5,+00360,1,99,9","07,5,+00600,1,99,9",,"07,99,1,99,9,99,9,99999,9,99,9,99,9","10159,1,99999,9","61,1",,,"MET066METAR EGWC 010750Z 13005KT 4500 -RA FEW012 BKN020 12/10 Q1016 GRN;",
"03414599999","2010-06-01T08:50:00","4","52.640028","-2.305578","82.9","COSFORD, UK","FM-15","EGWC ","V020","180,1,N,0041,1","00300,1,C,N","004500,1,N,1","+0110,1","+0100,1","99999,9","04,5,+00210,1,99,9","07,5,+00300,1,99,9",,"07,99,1,99,9,99,9,99999,9,99,9,99,9","10149,1,99999,9","63,1",,,"MET065METAR EGWC 010850Z 18008KT 4500 RA SCT007 BKN010 11/10 Q1015 GRN;",
"03414599999","2010-06-01T09:50:00","4","52.640028","-2.305578","82.9","COSFORD, UK","FM-15","EGWC ","V020","170,1,N,0026,1","00300,1,C,N","005000,1,N,1","+0120,1","+0100,1","99999,9","02,5,+00210,1,99,9","07,5,+00300,1,99,9",,"07,99,1,99,9,99,9,99999,9,99,9,99,9","10149,1,99999,9","61,1",,,"MET066METAR EGWC 010950Z 17005KT 5000 -RA FEW007 BKN010 12/10 Q1015 GRN;",
"03414599999","2010-06-01T10:50:00","4","52.640028","-2.305578","82.9","COSFORD, UK","FM-15","EGWC ","V020","180,1,N,0031,1","00360,1,C,N","004000,1,N,1","+0120,1","+0110,1","99999,9","02,5,+00180,1,99,9","07,5,+00360,1,99,9",,"07,99,1,99,9,99,9,99999,9,99,9,99,9","10149,1,99999,9","61,1",,,"MET066METAR EGWC 011050Z 18006KT 4000 -RA FEW006 BKN012 12/11 Q1015 GRN;",
"03414599999","2010-06-01T11:50:00","4","52.640028","-2.305578","82.9","COSFORD, UK","FM-15","EGWC ","V020","999,9,C,0000,1","00300,1,C,N","005000,1,N,1","+0120,1","+0110,1","99999,9","02,5,+00180,1,99,9","07,5,+00300,1,99,9",,"07,99,1,99,9,99,9,99999,9,99,9,99,9","10149,1,99999,9","61,1",,,"MET066METAR EGWC 011150Z 00000KT 5000 -RA FEW006 BKN010 12/11 Q1015 GRN;",
"03414599999","2010-06-01T12:50:00","4","52.640028","-2.305578","82.9","COSFORD, UK","FM-15","EGWC ","V020","180,1,N,0026,1","00360,1,C,N","004800,1,N,1","+0120,1","+0110,1","99999,9","04,5,+00240,1,99,9","07,5,+00360,1,99,9",,"07,99,1,99,9,99,9,99999,9,99,9,99,9","10159,1,99999,9","61,1",,,"MET066METAR EGWC 011250Z 18005KT 4800 -RA SCT008 BKN012 12/11 Q1016 GRN;",
"03414599999","2010-06-01T13:50:00","4","52.640028","-2.305578","82.9","COSFORD, UK","FM-15","EGWC ","V020","190,1,N,0026,1","00420,1,C,N","011265,1,N,1","+0130,1","+0110,1","99999,9","04,5,+00240,1,99,9","07,5,+00420,1,99,9",,"07,99,1,99,9,99,9,99999,9,99,9,99,9","10159,1,99999,9","61,1",,,"MET066METAR EGWC 011350Z 19005KT 9999 -RA SCT008 BKN014 13/11 Q1016 GRN;",
"03414599999","2010-06-02T07:50:00","4","52.640028","-2.305578","82.9","COSFORD, UK","FM-15","EGWC ","V020","999,9,C,0000,1","00180,1,C,N","006000,1,N,1","+0120,1","+0100,1","99999,9","02,5,+00060,1,99,9","07,5,+00180,1,99,9",,"07,99,1,99,9,99,9,99999,9,99,9,99,9","10230,1,99999,9","10,1",,,"MET066METAR EGWC 020750Z 00000KT 6000 BR FEW002 BKN006 12/10 Q1023 YLO1;",
"03414599999","2010-06-02T08:50:00","4","52.640028","-2.305578","82.9","COSFORD, UK","FM-15","EGWC ","V020","999,9,C,0000,1","00360,1,C,N","008000,1,N,1","+0130,1","+0110,1","99999,9","04,5,+00240,1,99,9","07,5,+00360,1,99,9",,"07,99,1,99,9,99,9,99999,9,99,9,99,9","10230,1,99999,9","05,1",,,"MET065METAR EGWC 020850Z 00000KT 8000 HZ SCT008 BKN012 13/11 Q1023 GRN;",
"03414599999","2010-06-02T09:50:00","4","52.640028","-2.305578","82.9","COSFORD, UK","FM-15","EGWC ","V020","999,9,C,0000,1","00360,1,C,N","008000,1,N,1","+0140,1","+0110,1","99999,9","02,5,+00240,1,99,9","07,5,+00360,1,99,9",,"07,99,1,99,9,99,9,99999,9,99,9,99,9","10230,1,99999,9","05,1",,,"MET065METAR EGWC 020950Z 00000KT 8000 HZ FEW008 BKN012 14/11 Q1023 GRN;",
"03414599999","2010-06-02T10:50:00","4","52.640028","-2.305578","82.9","COSFORD, UK","FM-15","EGWC ","V020","280,1,N,0031,1","00450,1,C,N","011265,1,N,1","+0140,1","+0120,1","99999,9","07,5,+00450,1,99,9",,,"07,99,1,99,9,99,9,99999,9,99,9,99,9","10240,1,99999,9",,,,"MET055METAR EGWC 021050Z 28006KT 9999 BKN015 14/12 Q1024 WHT;",
"03414599999","2010-06-02T11:50:00","4","52.640028","-2.305578","82.9","COSFORD, UK","FM-15","EGWC ","V020","999,9,C,0000,1","00450,1,C,N","011265,1,N,1","+0160,1","+0120,1","99999,9","07,5,+00450,1,99,9",,,"07,99,1,99,9,99,9,99999,9,99,9,99,9","10240,1,99999,9",,,,"MET055METAR EGWC 021150Z 00000KT 9999 BKN015 16/12 Q1024 WHT;",
"03414599999","2010-06-02T12:50:00","4","52.640028","-2.305578","82.9","COSFORD, UK","FM-15","EGWC ","V020","999,9,C,0000,1","00600,1,C,N","011265,1,N,1","+0170,1","+0130,1","99999,9","07,5,+00600,1,99,9",,,"07,99,1,99,9,99,9,99999,9,99,9,99,9","10240,1,99999,9",,,,"MET055METAR EGWC 021250Z 00000KT 9999 BKN020 17/13 Q1024 WHT;",
"03414599999","2010-06-02T13:50:00","4","52.640028","-2.305578","82.9","COSFORD, UK","FM-15","EGWC ","V020","999,9,C,0000,1","00900,1,C,N","011265,1,N,1","+0180,1","+0110,1","99999,9","07,5,+00900,1,99,9",,,"07,99,1,99,9,99,9,99999,9,99,9,99,9","10240,1,99999,9",,,,"MET055METAR EGWC 021350Z 00000KT 9999 BKN030 18/11 Q1024 BLU;",
"03414599999","2010-06-02T14:50:00","4","52.640028","-2.305578","82.9","COSFORD, UK","FM-15","EGWC ","V020","999,9,C,0000,1","22000,1,9,N","011265,1,N,1","+0180,1","+0110,1","99999,9","04,5,+00750,1,99,9",,,"04,99,1,99,9,99,9,99999,9,99,9,99,9","10240,1,99999,9",,,,"MET055METAR EGWC 021450Z 00000KT 9999 SCT025 18/11 Q1024 BLU;",
"03414599999","2010-06-05T07:50:00","4","52.640028","-2.305578","82.9","COSFORD, UK","FM-15","EGWC ","V020","999,9,C,0000,1","99999,9,9,Y","009900,1,N,1","+0180,1","+0130,1","99999,9",,,,,"10190,1,99999,9",,,,"MET049METAR EGWC 050750Z 00000KT CAVOK 18/13 Q1019 BLU;",
"03414599999","2010-06-05T08:50:00","4","52.640028","-2.305578","82.9","COSFORD, UK","FM-15","EGWC ","V020","999,9,C,0000,1","99999,9,9,Y","009900,1,N,1","+0190,1","+0130,1","99999,9",,,,,"10190,1,99999,9",,,,"MET049METAR EGWC 050850Z 00000KT CAVOK 19/13 Q1019 BLU;",
"03414599999","2010-06-05T09:50:00","4","52.640028","-2.305578","82.9","COSFORD, UK","FM-15","EGWC ","V020","210,1,N,0026,1","99999,9,9,Y","009900,1,N,1","+0210,1","+0140,1","99999,9",,,,,"10190,1,99999,9",,,,"MET049METAR EGWC 050950Z 21005KT CAVOK 21/14 Q1019 BLU;",
"03414599999","2010-06-05T10:50:00","4","52.640028","-2.305578","82.9","COSFORD, UK","FM-15","EGWC ","V020","240,1,N,0041,1","99999,9,9,Y","009900,1,N,1","+0220,1","+0150,1","99999,9",,,,,"10190,1,99999,9",,,,"MET049METAR EGWC 051050Z 24008KT CAVOK 22/15 Q1019 BLU;",
"03414599999","2010-06-05T11:50:00","4","52.640028","-2.305578","82.9","COSFORD, UK","FM-15","EGWC ","V020","210,1,N,0041,1","99999,9,9,Y","009900,1,N,1","+0230,1","+0140,1","99999,9",,,,,"10180,1,99999,9",,,,"MET049METAR EGWC 051150Z 21008KT CAVOK 23/14 Q1018 BLU;",
"03414599999","2010-06-05T12:50:00","4","52.640028","-2.305578","82.9","COSFORD, UK","FM-15","EGWC ","V020","210,1,N,0026,1","00900,1,C,N","011265,1,N,1","+0220,1","+0140,1","99999,9","07,5,+00900,1,99,9",,,"07,99,1,99,9,99,9,99999,9,99,9,99,9","10180,1,99999,9",,,,"MET055METAR EGWC 051250Z 21005KT 9999 BKN030 22/14 Q1018 BLU;",
"03414599999","2010-06-05T13:50:00","4","52.640028","-2.305578","82.9","COSFORD, UK","FM-15","EGWC ","V020","230,1,N,0031,1","01050,1,C,N","011265,1,N,1","+0230,1","+0140,1","99999,9","07,5,+01050,1,99,9",,,"07,99,1,99,9,99,9,99999,9,99,9,99,9","10169,1,99999,9",,,,"MET055METAR EGWC 051350Z 23006KT 9999 BKN035 23/14 Q1017 BLU;",
"03414599999","2010-06-06T07:50:00","4","52.640028","-2.305578","82.9","COSFORD, UK","FM-15","EGWC ","V020","350,1,N,0041,1","99999,9,C,N","008000,1,N,1","+0170,1","+0120,1","99999,9","02,5,+00240,1,99,9","04,5,+00300,1,99,9",,"04,99,1,99,9,99,9,99999,9,99,9,99,9","10139,1,99999,9","05,1",,,"MET065METAR EGWC 060750Z 35008KT 8000 HZ FEW008 SCT010 17/12 Q1014 GRN;","P01 003003SCOCIG"
"03414599999","2010-06-06T08:50:00","4","52.640028","-2.305578","82.9","COSFORD, UK","FM-15","EGWC ","V020","350,1,N,0041,1","99999,9,C,N","008000,1,N,1","+0150,1","+0120,1","99999,9","02,5,+00360,1,99,9","04,5,+00750,1,99,9",,"04,99,1,99,9,99,9,99999,9,99,9,99,9","10119,1,99999,9","05,1",,,"MET065METAR EGWC 060850Z 35008KT 8000 HZ FEW012 SCT025 15/12 Q1012 BLU;","P01 007503SCOCIG"
"03414599999","2010-06-06T09:50:00","4","52.640028","-2.305578","82.9","COSFORD, UK","FM-15","EGWC ","V020","350,1,N,0026,1","00240,1,C,N","006000,1,N,1","+0160,1","+0120,1","99999,9","07,5,+00240,1,99,9",,,"07,99,1,99,9,99,9,99999,9,99,9,99,9","10119,1,99999,9","05,1",,,"MET058METAR EGWC 060950Z 35005KT 6000 HZ BKN008 16/12 Q1012 GRN;",
"03414599999","2010-06-06T10:50:00","4","52.640028","-2.305578","82.9","COSFORD, UK","FM-15","EGWC ","V020","330,1,N,0031,1","22000,1,9,N","007000,1,N,1","+0170,1","+0130,1","99999,9","04,5,+00300,1,99,9",,,"04,99,1,99,9,99,9,99999,9,99,9,99,9","10119,1,99999,9","05,1",,,"MET058METAR EGWC 061050Z 33006KT 7000 HZ SCT010 17/13 Q1012 GRN;",
"03414599999","2010-06-06T11:50:00","4","52.640028","-2.305578","82.9","COSFORD, UK","FM-15","EGWC ","V020","340,1,N,0041,1","22000,1,9,N","011265,1,N,1","+0190,1","+0130,1","99999,9","04,5,+00450,1,99,9",,,"04,99,1,99,9,99,9,99999,9,99,9,99,9","10119,1,99999,9",,,,"MET055METAR EGWC 061150Z 34008KT 9999 SCT015 19/13 Q1012 WHT;",
"03414599999","2010-06-06T12:50:00","4","52.640028","-2.305578","82.9","COSFORD, UK","FM-15","EGWC ","V020","330,1,N,0041,1","22000,1,9,N","011265,1,N,1","+0200,1","+0120,1","99999,9","04,5,+00450,1,99,9",,,"04,99,1,99,9,99,9,99999,9,99,9,99,9","10119,1,99999,9",,,,"MET055METAR EGWC 061250Z 33008KT 9999 SCT015 20/12 Q1012 WHT;",
"03414599999","2010-06-06T13:50:00","4","52.640028","-2.305578","82.9","COSFORD, UK","FM-15","EGWC ","V020","310,1,N,0051,1","22000,1,9,N","011265,1,N,1","+0190,1","+0100,1","99999,9","04,5,+00600,1,99,9",,,"04,99,1,99,9,99,9,99999,9,99,9,99,9","10119,1,99999,9",,,,"MET055METAR EGWC 061350Z 31010KT 9999 SCT020 19/10 Q1012 WHT;",
"03414599999","2010-06-07T07:50:00","4","52.640028","-2.305578","82.9","COSFORD, UK","FM-15","EGWC ","V020","210,1,N,0036,1","99999,9,C,N","011265,1,N,1","+0140,1","+0110,1","99999,9","02,5,+00600,1,99,9","04,5,+01500,1,99,9",,"04,99,1,99,9,99,9,99999,9,99,9,99,9","10200,1,99999,9",,,,"MET062METAR EGWC 070750Z 21007KT 9999 FEW020 SCT050 14/11 Q1020 BLU;","P01 015003SCOCIG"
"03414599999","2010-06-07T08:50:00","4","52.640028","-2.305578","82.9","COSFORD, UK","FM-15","EGWC ","V020","999,9,C,0000,1","99999,9,C,N","011265,1,N,1","+0160,1","+0110,1","99999,9","02,5,+00450,1,99,9","04,5,+01500,1,99,9",,"04,99,1,99,9,99,9,99999,9,99,9,99,9","10200,1,99999,9",,,,"MET062METAR EGWC 070850Z 00000KT 9999 FEW015 SCT050 16/11 Q1020 BLU;","P01 015003SCOCIG"
"03414599999","2010-06-07T09:50:00","4","52.640028","-2.305578","82.9","COSFORD, UK","FM-15","EGWC ","V020","190,1,N,0041,1","99999,9,C,N","011265,1,N,1","+0160,1","+0110,1","99999,9","04,5,+00450,1,99,9","04,5,+01500,1,99,9",,"04,99,1,99,9,99,9,99999,9,99,9,99,9","10108,1,99999,9",,,,"MET062METAR EGWC 070950Z 19008KT 9999 SCT015 SCT050 16/11 Q1011 WHT;","P01 015003SCOCIG"
"03414599999","2010-06-07T10:50:00","4","52.640028","-2.305578","82.9","COSFORD, UK","FM-15","EGWC ","V020","200,1,N,0041,1","01500,1,C,N","011265,1,N,1","+0160,1","+0110,1","99999,9","04,5,+00660,1,99,9","07,5,+01500,1,99,9",,"07,99,1,99,9,99,9,99999,9,99,9,99,9","10108,1,99999,9",,,,"MET062METAR EGWC 071050Z 20008KT 9999 SCT022 BKN050 16/11 Q1011 WHT;",
"03414599999","2010-06-07T11:50:00","4","52.640028","-2.305578","82.9","COSFORD, UK","FM-15","EGWC ","V020","200,1,N,0062,1","01500,1,C,N","011265,1,N,1","+0160,1","+0120,1","99999,9","04,5,+00660,1,99,9","07,5,+01500,1,99,9",,"07,99,1,99,9,99,9,99999,9,99,9,99,9","10108,1,99999,9","61,1",,,"MET066METAR EGWC 071150Z 20012KT 9999 -RA SCT022 BKN050 16/12 Q1011 WHT;",
"03414599999","2010-06-07T12:50:00","4","52.640028","-2.305578","82.9","COSFORD, UK","FM-15","EGWC ","V020","200,1,N,0031,1","01500,1,C,N","011265,1,N,1","+0170,1","+0130,1","99999,9","04,5,+00660,1,99,9","07,5,+01500,1,99,9",,"07,99,1,99,9,99,9,99999,9,99,9,99,9","10108,1,99999,9",,,,"MET062METAR EGWC 071250Z 20006KT 9999 SCT022 BKN050 17/13 Q1011 WHT;",
"03414599999","2010-06-07T13:50:00","4","52.640028","-2.305578","82.9","COSFORD, UK","FM-15","EGWC ","V020","180,1,N,0036,1","01500,1,C,N","011265,1,N,1","+0180,1","+0120,1","99999,9","04,5,+00600,1,99,9","07,5,+01500,1,99,9",,"07,99,1,99,9,99,9,99999,9,99,9,99,9","10102,1,99999,9",,,,"MET062METAR EGWC 071350Z 18007KT 9999 SCT020 BKN050 18/12 Q1010 WHT;",
"03414599999","2010-06-07T14:50:00","4","52.640028","-2.305578","82.9","COSFORD, UK","FM-15","EGWC ","V020","180,1,N,0036,1","01500,1,C,N","011265,1,N,1","+0160,1","+0090,1","99999,9","04,5,+00660,1,99,9","07,5,+01500,1,99,9",,"07,99,1,99,9,99,9,99999,9,99,9,99,9","10091,1,99999,9",,,,"MET062METAR EGWC 071450Z 18007KT 9999 SCT022 BKN050 16/09 Q1009 WHT;",
"03414599999","2010-06-08T06:50:00","4","52.640028","-2.305578","82.9","COSFORD, UK","FM-15","EGWC ","V020","100,1,N,0041,1","00150,1,C,N","003500,1,N,1","+0120,1","+0120,1","99999,9","07,5,+00150,1,99,9",,,"07,99,1,99,9,99,9,99999,9,99,9,99,9","10010,1,99999,9","61,1",,,"MET060METAR EGWC 080650Z 10008KT 3500 -RA BKN005 12/12 Q1001 YLO1;",
"03414599999","2010-06-08T07:50:00","4","52.640028","-2.305578","82.9","COSFORD, UK","FM-15","EGWC ","V020","110,1,N,0026,1","00150,1,C,N","003500,1,N,1","+0120,1","+0120,1","99999,9","07,5,+00150,1,99,9",,,"07,99,1,99,9,99,9,99999,9,99,9,99,9","10010,1,99999,9","63,1",,,"MET059METAR EGWC 080750Z 11005KT 3500 RA BKN005 12/12 Q1001 YLO1;",
"03414599999","2010-06-08T08:50:00","4","52.640028","-2.305578","82.9","COSFORD, UK","FM-15","EGWC ","V020","120,1,N,0026,1","00150,1,C,N","005000,1,N,1","+0130,1","+0120,1","99999,9","07,5,+00150,1,99,9",,,"07,99,1,99,9,99,9,99999,9,99,9,99,9","10010,1,99999,9","53,1","63,1",,"MET061METAR EGWC 080850Z 12005KT 5000 RADZ BKN005 13/12 Q1001 YLO1;",
"03414599999","2010-06-08T09:50:00","4","52.640028","-2.305578","82.9","COSFORD, UK","FM-15","EGWC ","V020","120,1,N,0026,1","00150,1,C,N","005000,1,N,1","+0130,1","+0120,1","99999,9","07,5,+00150,1,99,9",,,"07,99,1,99,9,99,9,99999,9,99,9,99,9","10010,1,99999,9","63,1",,,"MET059METAR EGWC 080950Z 12005KT 5000 RA BKN005 13/12 Q1001 YLO1;",
"03414599999","2010-06-08T10:50:00","4","52.640028","-2.305578","82.9","COSFORD, UK","FM-15","EGWC ","V020","120,1,N,0031,1","00150,1,C,N","011265,1,N,1","+0130,1","+0120,1","99999,9","07,5,+00150,1,99,9",,,"07,99,1,99,9,99,9,99999,9,99,9,99,9","10010,1,99999,9",,,,"MET061METAR EGWC 081050Z 12006KT 9999 BKN005 13/12 Q1001 RERA YLO1;",
"03414599999","2010-06-08T11:50:00","4","52.640028","-2.305578","82.9","COSFORD, UK","FM-15","EGWC ","V020","999,9,C,0000,1","00180,1,C,N","011265,1,N,1","+0150,1","+0130,1","99999,9","07,5,+00180,1,99,9",,,"07,99,1,99,9,99,9,99999,9,99,9,99,9","10010,1,99999,9",,,,"MET056METAR EGWC 081150Z 00000KT 9999 BKN006 15/13 Q1001 YLO1;",
"03414599999","2010-06-08T12:50:00","4","52.640028","-2.305578","82.9","COSFORD, UK","FM-15","EGWC ","V020","060,1,N,0026,1","00420,1,C,N","011265,1,N,1","+0160,1","+0130,1","99999,9","07,5,+00420,1,99,9",,,"07,99,1,99,9,99,9,99999,9,99,9,99,9","10000,1,99999,9",,,,"MET055METAR EGWC 081250Z 06005KT 9999 BKN014 16/13 Q1000 GRN;",
"03414599999","2010-06-09T07:50:00","4","52.640028","-2.305578","82.9","COSFORD, UK","FM-15","EGWC ","V020","060,1,N,0041,1","00240,1,C,N","002200,1,N,1","+0140,1","+0120,1","99999,9","02,5,+00150,1,99,9","08,5,+00240,1,99,9",,"08,99,1,99,9,99,9,99999,9,99,9,99,9","10041,1,99999,9","10,1",,,"MET066METAR EGWC 090750Z 06008KT 2200 BR FEW005 OVC008 14/12 Q1004 YLO2;",
"03414599999","2010-06-09T08:50:00","4","52.640028","-2.305578","82.9","COSFORD, UK","FM-15","EGWC ","V020","060,1,N,0041,1","00240,1,C,N","003500,1,N,1","+0140,1","+0130,1","99999,9","02,5,+00150,1,99,9","08,5,+00240,1,99,9",,"08,99,1,99,9,99,9,99999,9,99,9,99,9","10041,1,99999,9","81,1",,,"MET068METAR EGWC 090850Z 06008KT 3500 SHRA FEW005 OVC008 14/13 Q1004 YLO1;",
"03414599999","2010-06-09T09:50:00","4","52.640028","-2.305578","82.9","COSFORD, UK","FM-15","EGWC ","V020","080,1,N,0041,1","00240,1,C,N","003500,1,N,1","+0140,1","+0130,1","99999,9","04,5,+00150,1,99,9","07,5,+00240,1,99,9",,"07,99,1,99,9,99,9,99999,9,99,9,99,9","10051,1,99999,9","10,1",,,"MET066METAR EGWC 090950Z 08008KT 3500 BR SCT005 BKN008 14/13 Q1005 YLO1;",
"03414599999","2010-06-09T10:50:00","4","52.640028","-2.305578","82.9","COSFORD, UK","FM-15","EGWC ","V020","080,1,N,0041,1","00240,1,C,N","003500,1,N,1","+0150,1","+0130,1","99999,9","04,5,+00150,1,99,9","07,5,+00240,1,99,9",,"07,99,1,99,9,99,9,99999,9,99,9,99,9","10051,1,99999,9","10,1",,,"MET066METAR EGWC 091050Z 08008KT 3500 BR SCT005 BKN008 15/13 Q1005 YLO1;",
"03414599999","2010-06-09T11:50:00","4","52.640028","-2.305578","82.9","COSFORD, UK","FM-15","EGWC ","V020","060,1,N,0041,1","00600,1,C,N","011265,1,N,1","+0160,1","+0130,1","99999,9","02,5,+00240,1,99,9","07,5,+00600,1,99,9",,"07,99,1,99,9,99,9,99999,9,99,9,99,9","10051,1,99999,9",,,,"MET062METAR EGWC 091150Z 06008KT 9999 FEW008 BKN020 16/13 Q1005 WHT;",
"03414599999","2010-06-09T12:50:00","4","52.640028","-2.305578","82.9","COSFORD, UK","FM-15","EGWC ","V020","060,1,N,0057,1","00600,1,C,N","011265,1,N,1","+0180,1","+0140,1","99999,9","02,5,+00240,1,99,9","07,5,+00600,1,99,9",,"07,99,1,99,9,99,9,99999,9,99,9,99,9","10061,1,99999,9",,,,"MET062METAR EGWC 091250Z 06011KT 9999 FEW008 BKN020 18/14 Q1006 WHT;",
"03414599999","2010-06-09T13:50:00","4","52.640028","-2.305578","82.9","COSFORD, UK","FM-15","EGWC ","V020","040,1,N,0057,1","01800,1,C,N","011265,1,N,1","+0180,1","+0130,1","99999,9","04,5,+00600,1,99,9","07,5,+01800,1,99,9",,"07,99,1,99,9,99,9,99999,9,99,9,99,9","10051,1,99999,9",,,,"MET062METAR EGWC 091350Z 04011KT 9999 SCT020 BKN060 18/13 Q1005 WHT;",
"03414599999","2010-06-09T14:50:00","4","52.640028","-2.305578","82.9","COSFORD, UK","FM-15","EGWC ","V020","040,1,N,0057,1","01800,1,C,N","011265,1,N,1","+0190,1","+0130,1","99999,9","04,5,+00600,1,99,9","07,5,+01800,1,99,9",,"07,99,1,99,9,99,9,99999,9,99,9,99,9","10051,1,99999,9",,,,"MET062METAR EGWC 091450Z 04011KT 9999 SCT020 BKN060 19/13 Q1005 WHT;",
"03414599999","2010-06-11T08:50:00","4","52.640028","-2.305578","82.9","COSFORD, UK","FM-15","EGWC ","V020","300,1,N,0031,1","99999,9,C,N","011265,1,N,1","+0130,1","+0090,1","99999,9","04,5,+00360,1,99,9","04,5,+00540,1,99,9",,"04,99,1,99,9,99,9,99999,9,99,9,99,9","10108,1,99999,9",,,,"MET062METAR EGWC 110850Z 30006KT 9999 SCT012 SCT018 13/09 Q1011 GRN;","P01 005403SCOCIG"
"03414599999","2010-06-11T10:50:00","4","52.640028","-2.305578","82.9","COSFORD, UK","FM-15","EGWC ","V020","290,1,N,0041,1","00600,1,C,N","011265,1,N,1","+0150,1","+0100,1","99999,9","07,5,+00600,1,99,9",,,"07,99,1,99,9,99,9,99999,9,99,9,99,9","10108,1,99999,9",,,,"MET055METAR EGWC 111050Z 29008KT 9999 BKN020 15/10 Q1011 WHT;",
"03414599999","2010-06-11T11:50:00","4","52.640028","-2.305578","82.9","COSFORD, UK","FM-15","EGWC ","V020","300,1,N,0051,1","00600,1,C,N","011265,1,N,1","+0150,1","+0100,1","99999,9","07,5,+00600,1,99,9",,,"07,99,1,99,9,99,9,99999,9,99,9,99,9","10108,1,99999,9",,,,"MET055METAR EGWC 111150Z 30010KT 9999 BKN020 15/10 Q1011 WHT;",
"03414599999","2010-06-11T12:50:00","4","52.640028","-2.305578","82.9","COSFORD, UK","FM-15","EGWC ","V020","330,1,N,0036,1","00600,1,C,N","011265,1,N,1","+0160,1","+0110,1","99999,9","07,5,+00600,1,99,9",,,"07,99,1,99,9,99,9,99999,9,99,9,99,9","10108,1,99999,9",,,,"MET055METAR EGWC 111250Z 33007KT 9999 BKN020 16/11 Q1011 WHT;",
"03414599999","2010-06-11T13:50:00","4","52.640028","-2.305578","82.9","COSFORD, UK","FM-15","EGWC ","V020","300,1,N,0036,1","00660,1,C,N","011265,1,N,1","+0160,1","+0110,1","99999,9","07,5,+00660,1,99,9",,,"07,99,1,99,9,99,9,99999,9,99,9,99,9","10108,1,99999,9",,,,"MET055METAR EGWC 111350Z 30007KT 9999 BKN022 16/11 Q1011 WHT;",
"03414599999","2010-06-11T14:50:00","4","52.640028","-2.305578","82.9","COSFORD, UK","FM-15","EGWC ","V020","300,1,N,0041,1","00750,1,C,N","011265,1,N,1","+0170,1","+0120,1","99999,9","07,5,+00750,1,99,9",,,"07,99,1,99,9,99,9,99999,9,99,9,99,9","10108,1,99999,9",,,,"MET055METAR EGWC 111450Z 30008KT 9999 BKN025 17/12 Q1011 BLU;",
"03414599999","2010-06-12T07:50:00","4","52.640028","-2.305578","82.9","COSFORD, UK","FM-15","EGWC ","V020","330,1,N,0062,1","00750,1,C,N","011265,1,N,1","+0130,1","+0090,1","99999,9","07,5,+00750,1,99,9",,,"07,99,1,99,9,99,9,99999,9,99,9,99,9","10159,1,99999,9",,,,"MET055METAR EGWC 120750Z 33012KT 9999 BKN025 13/09 Q1016 BLU;",
"03414599999","2010-06-12T08:50:00","4","52.640028","-2.305578","82.9","COSFORD, UK","FM-15","EGWC ","V020","330,1,N,0051,1","00750,1,C,N","011265,1,N,1","+0150,1","+0070,1","99999,9","07,5,+00750,1,99,9",,,"07,99,1,99,9,99,9,99999,9,99,9,99,9","10169,1,99999,9",,,,"MET055METAR EGWC 120850Z 33010KT 9999 BKN025 15/07 Q1017 BLU;",
"03414599999","2010-06-12T09:50:00","4","52.640028","-2.305578","82.9","COSFORD, UK","FM-15","EGWC ","V020","330,1,N,0051,1","00900,1,C,N","011265,1,N,1","+0150,1","+0070,1","99999,9","07,5,+00900,1,99,9",,,"07,99,1,99,9,99,9,99999,9,99,9,99,9","10169,1,99999,9",,,,"MET055METAR EGWC 120950Z 33010KT 9999 BKN030 15/07 Q1017 BLU;",
"03414599999","2010-06-12T10:50:00","4","52.640028","-2.305578","82.9","COSFORD, UK","FM-15","EGWC ","V020","020,1,N,0041,1","01050,1,C,N","011265,1,N,1","+0160,1","+0080,1","99999,9","07,5,+01050,1,99,9",,,"07,99,1,99,9,99,9,99999,9,99,9,99,9","10169,1,99999,9",,,,"MET055METAR EGWC 121050Z 02008KT 9999 BKN035 16/08 Q1017 BLU;",
"03414599999","2010-06-12T11:50:00","4","52.640028","-2.305578","82.9","COSFORD, UK","FM-15","EGWC ","V020","330,1,N,0041,1","01050,1,C,N","011265,1,N,1","+0160,1","+0080,1","99999,9","07,5,+01050,1,99,9",,,"07,99,1,99,9,99,9,99999,9,99,9,99,9","10169,1,99999,9",,,,"MET055METAR EGWC 121150Z 33008KT 9999 BKN035 16/08 Q1017 BLU;",
"03414599999","2010-06-12T12:50:00","4","52.640028","-2.305578","82.9","COSFORD, UK","FM-15","EGWC ","V020","360,1,N,0041,1","01140,1,C,N","011265,1,N,1","+0160,1","+0090,1","99999,9","07,5,+01140,1,99,9",,,"07,99,1,99,9,99,9,99999,9,99,9,99,9","10180,1,99999,9",,,,"MET055METAR EGWC 121250Z 36008KT 9999 BKN038 16/09 Q1018 BLU;",
"03414599999","2010-06-12T13:50:00","4","52.640028","-2.305578","82.9","COSFORD, UK","FM-15","EGWC ","V020","310,1,N,0041,1","99999,9,C,N","011265,1,N,1","+0170,1","+0090,1","99999,9","02,5,+01050,1,99,9","04,5,+01200,1,99,9",,"04,99,1,99,9,99,9,99999,9,99,9,99,9","10180,1,99999,9",,,,"MET062METAR EGWC 121350Z 31008KT 9999 FEW035 SCT040 17/09 Q1018 BLU;","P01 012003SCOCIG"
"03414599999","2010-06-12T14:50:00","4","52.640028","-2.305578","82.9","COSFORD, UK","FM-15","EGWC ","V020","320,1,N,0051,1","22000,1,9,N","011265,1,N,1","+0180,1","+0090,1","99999,9","04,5,+01200,1,99,9",,,"04,99,1,99,9,99,9,99999,9,99,9,99,9","10180,1,99999,9",,,,"MET055METAR EGWC 121450Z 32010KT 9999 SCT040 18/09 Q1018 BLU;",
"03414599999","2010-06-12T15:50:00","4","52.640028","-2.305578","82.9","COSFORD, UK","FM-15","EGWC ","V020","330,1,N,0051,1","22000,1,9,N","011265,1,N,1","+0180,1","+0080,1","99999,9","04,5,+01200,1,99,9",,,"04,99,1,99,9,99,9,99999,9,99,9,99,9","10180,1,99999,9",,,,"MET055METAR EGWC 121550Z 33010KT 9999 SCT040 18/08 Q1018 BLU;",
"03414599999","2010-06-13T06:50:00","4","52.640028","-2.305578","82.9","COSFORD, UK","FM-15","EGWC ","V020","999,9,C,0000,1","99999,9,C,N","011265,1,N,1","+0120,1","+0090,1","99999,9","02,5,+01200,1,99,9","04,5,+03000,1,99,9",,"04,99,1,99,9,99,9,99999,9,99,9,99,9","10169,1,99999,9",,,,"MET062METAR EGWC 130650Z 00000KT 9999 FEW040 SCT100 12/09 Q1017 BLU;","P01 030003SCOCIG"
"03414599999","2010-06-13T07:50:00","4","52.640028","-2.305578","82.9","COSFORD, UK","FM-15","EGWC ","V020","150,1,N,0031,1","03000,1,C,N","011265,1,N,1","+0140,1","+0080,1","99999,9","04,5,+01200,1,99,9","07,5,+03000,1,99,9",,"07,99,1,99,9,99,9,99999,9,99,9,99,9","10169,1,99999,9",,,,"MET062METAR EGWC 130750Z 15006KT 9999 SCT040 BKN100 14/08 Q1017 BLU;",
"03414599999","2010-06-13T08:50:00","4","52.640028","-2.305578","82.9","COSFORD, UK","FM-15","EGWC ","V020","190,1,N,0041,1","01200,1,C,N","011265,1,N,1","+0150,1","+0090,1","99999,9","07,5,+01200,1,99,9",,,"07,99,1,99,9,99,9,99999,9,99,9,99,9","10169,1,99999,9",,,,"MET055METAR EGWC 130850Z 19008KT 9999 BKN040 15/09 Q1017 BLU;",
"03414599999","2010-06-13T10:50:00","4","52.640028","-2.305578","82.9","COSFORD, UK","FM-15","EGWC ","V020","190,1,N,0051,1","01200,1,C,N","011265,1,N,1","+0170,1","+0090,1","99999,9","07,5,+01200,1,99,9",,,"07,99,1,99,9,99,9,99999,9,99,9,99,9","10149,1,99999,9",,,,"MET055METAR EGWC 131050Z 19010KT 9999 BKN040 17/09 Q1015 BLU;",
"03414599999","2010-06-13T11:50:00","4","52.640028","-2.305578","82.9","COSFORD, UK","FM-15","EGWC ","V020","190,1,N,0041,1","01050,1,C,N","011265,1,N,1","+0190,1","+0100,1","99999,9","02,5,+00750,1,99,9","07,5,+01050,1,99,9",,"07,99,1,99,9,99,9,99999,9,99,9,99,9","10139,1,99999,9",,,,"MET062METAR EGWC 131150Z 19008KT 9999 FEW025 BKN035 19/10 Q1014 BLU;",
"03414599999","2010-06-13T12:50:00","4","52.640028","-2.305578","82.9","COSFORD, UK","FM-15","EGWC ","V020","190,1,N,0031,1","01050,1,C,N","011265,1,N,1","+0180,1","+0120,1","99999,9","02,5,+00750,1,99,9","07,5,+01050,1,99,9",,"07,99,1,99,9,99,9,99999,9,99,9,99,9","10129,1,99999,9",,,,"MET062METAR EGWC 131250Z 19006KT 9999 FEW025 BKN035 18/12 Q1013 BLU;",
"03414599999","2010-06-13T13:50:00","4","52.640028","-2.305578","82.9","COSFORD, UK","FM-15","EGWC ","V020","999,9,C,0000,1","01050,1,C,N","011265,1,N,1","+0180,1","+0130,1","99999,9","04,5,+00900,1,99,9","07,5,+01050,1,99,9",,"07,99,1,99,9,99,9,99999,9,99,9,99,9","10119,1,99999,9","61,1",,,"MET066METAR EGWC 131350Z 00000KT 9999 -RA SCT030 BKN035 18/13 Q1012 BLU;",
"03414599999","2010-06-13T14:50:00","4","52.640028","-2.305578","82.9","COSFORD, UK","FM-15","EGWC ","V020","190,1,N,0026,1","00900,1,C,N","011265,1,N,1","+0170,1","+0120,1","99999,9","02,5,+00600,1,99,9","07,5,+00900,1,99,9",,"07,99,1,99,9,99,9,99999,9,99,9,99,9","10119,1,99999,9","82,1",,,"MET068METAR EGWC 131450Z 19005KT 9999 +SHRA FEW020 BKN030 17/12 Q1012 BLU;",
"03414599999","2010-06-13T15:50:00","4","52.640028","-2.305578","82.9","COSFORD, UK","FM-15","EGWC ","V020","250,1,N,0026,1","00450,1,C,N","004000,1,N,1","+0130,1","+0120,1","99999,9","02,5,+00240,1,99,9","07,5,+00450,1,99,9",,"07,99,1,99,9,99,9,99999,9,99,9,99,9","10119,1,99999,9","63,1",,,"MET065METAR EGWC 131550Z 25005KT 4000 RA FEW008 BKN015 13/12 Q1012 GRN;",
"03414599999","2010-06-13T16:50:00","4","52.640028","-2.305578","82.9","COSFORD, UK","FM-15","EGWC ","V020","270,1,N,0051,1","00300,1,C,N","011265,1,N,1","+0130,1","+0120,1","99999,9","04,5,+00240,1,99,9","07,5,+00300,1,99,9",,"07,99,1,99,9,99,9,99999,9,99,9,99,9","10108,1,99999,9","61,1",,,"MET066METAR EGWC 131650Z 27010KT 9999 -RA SCT008 BKN010 13/12 Q1011 GRN;",
"03414599999","2010-06-14T06:50:00","4","52.640028","-2.305578","82.9","COSFORD, UK","FM-15","EGWC ","V020","030,1,N,0041,1","00420,1,C,N","008000,1,N,1","+0120,1","+0100,1","99999,9","02,5,+00240,1,99,9","04,5,+00420,1,99,9","07,5,+02400,1,99,9","07,99,1,99,9,99,9,99999,9,99,9,99,9","10180,1,99999,9",,,,"MET069METAR EGWC 140650Z 03008KT 8000 FEW008 SCT014 BKN080 12/10 Q1018 GRN;",
"03414599999","2010-06-14T07:50:00","4","52.640028","-2.305578","82.9","COSFORD, UK","FM-15","EGWC ","V020","030,1,N,0041,1","00480,1,C,N","008000,1,N,1","+0120,1","+0100,1","99999,9","02,5,+00270,1,99,9","04,5,+00480,1,99,9","07,5,+02400,1,99,9","07,99,1,99,9,99,9,99999,9,99,9,99,9","10190,1,99999,9",,,,"MET069METAR EGWC 140750Z 03008KT 8000 FEW009 SCT016 BKN080 12/10 Q1019 WHT;",
"03414599999","2010-06-14T08:50:00","4","52.640028","-2.305578","82.9","COSFORD, UK","FM-15","EGWC ","V020","030,1,N,0062,1","99999,9,C,N","011265,1,N,1","+0140,1","+0090,1","99999,9","02,5,+00300,1,99,9","04,5,+00540,1,99,9",,"04,99,1,99,9,99,9,99999,9,99,9,99,9","10190,1,99999,9",,,,"MET062METAR EGWC 140850Z 03012KT 9999 FEW010 SCT018 14/09 Q1019 WHT;","P01 005403SCOCIG"
"03414599999","2010-06-14T09:50:00","4","52.640028","-2.305578","82.9","COSFORD, UK","FM-15","EGWC ","V020","030,1,N,0062,1","99999,9,C,N","011265,1,N,1","+0150,1","+0090,1","99999,9","02,5,+00450,1,99,9","04,5,+00720,1,99,9",,"04,99,1,99,9,99,9,99999,9,99,9,99,9",,,,,"MET061METAR EGWC 140950Z 03012KT 9999 FEW015 SCT024 15/09 1020 WHT;","P01 007203SCOCIG"
"03414599999","2010-06-14T10:50:00","4","52.640028","-2.305578","82.9","COSFORD, UK","FM-15","EGWC ","V020","030,1,N,0062,1","01050,1,C,N","011265,1,N,1","+0150,1","+0090,1","99999,9","04,5,+00720,1,99,9","07,5,+01050,1,99,9",,"07,99,1,99,9,99,9,99999,9,99,9,99,9","10200,1,99999,9",,,,"MET062METAR EGWC 141050Z 03012KT 9999 SCT024 BKN035 15/09 Q1020 WHT;",
"03414599999","2010-06-14T11:50:00","4","52.640028","-2.305578","82.9","COSFORD, UK","FM-15","EGWC ","V020","040,1,N,0051,1","01050,1,C,N","011265,1,N,1","+0150,1","+0090,1","99999,9","04,5,+00750,1,99,9","07,5,+01050,1,99,9",,"07,99,1,99,9,99,9,99999,9,99,9,99,9","10210,1,99999,9",,,,"MET062METAR EGWC 141150Z 04010KT 9999 SCT025 BKN035 15/09 Q1021 BLU;",
"03414599999","2010-06-14T12:50:00","4","52.640028","-2.305578","82.9","COSFORD, UK","FM-15","EGWC ","V020","040,1,N,0051,1","01200,1,C,N","011265,1,N,1","+0150,1","+0090,1","99999,9","04,5,+00750,1,99,9","07,5,+01200,1,99,9",,"07,99,1,99,9,99,9,99999,9,99,9,99,9","10210,1,99999,9",,,,"MET062METAR EGWC 141250Z 04010KT 9999 SCT025 BKN040 15/09 Q1021 BLU;",
"03414599999","2010-06-14T13:50:00","4","52.640028","-2.305578","82.9","COSFORD, UK","FM-15","EGWC ","V020","040,1,N,0051,1","01050,1,C,N","011265,1,N,1","+0150,1","+0090,1","99999,9","04,5,+00750,1,99,9","07,5,+01050,1,99,9",,"07,99,1,99,9,99,9,99999,9,99,9,99,9","10220,1,99999,9",,,,"MET062METAR EGWC 141350Z 04010KT 9999 SCT025 BKN035 15/09 Q1022 BLU;",
"03414599999","2010-06-15T07:50:00","4","52.640028","-2.305578","82.9","COSFORD, UK","FM-15","EGWC ","V020","040,1,N,0051,1","22000,1,9,N","011265,1,N,1","+0120,1","+0070,1","99999,9","02,5,+00420,1,99,9",,,"02,99,1,99,9,99,9,99999,9,99,9,99,9","10301,1,99999,9",,,,"MET055METAR EGWC 150750Z 04010KT 9999 FEW014 12/07 Q1030 BLU;",
"03414599999","2010-06-15T08:50:00","4","52.640028","-2.305578","82.9","COSFORD, UK","FM-15","EGWC ","V020","040,1,N,0051,1","22000,1,9,N","011265,1,N,1","+0140,1","+0060,1","99999,9","04,5,+00780,1,99,9",,,"04,99,1,99,9,99,9,99999,9,99,9,99,9","10301,1,99999,9",,,,"MET055METAR EGWC 150850Z 04010KT 9999 SCT026 14/06 Q1030 BLU;",
"03414599999","2010-06-15T10:50:00","4","52.640028","-2.305578","82.9","COSFORD, UK","FM-15","EGWC ","V020","050,1,N,0041,1","00900,1,C,N","011265,1,N,1","+0140,1","+0050,1","99999,9","07,5,+00900,1,99,9",,,"07,99,1,99,9,99,9,99999,9,99,9,99,9","10301,1,99999,9",,,,"MET055METAR EGWC 151050Z 05008KT 9999 BKN030 14/05 Q1030 BLU;",
"03414599999","2010-06-15T11:50:00","4","52.640028","-2.305578","82.9","COSFORD, UK","FM-15","EGWC ","V020","060,1,N,0031,1","00900,1,C,N","011265,1,N,1","+0140,1","+0060,1","99999,9","07,5,+00900,1,99,9",,,"07,99,1,99,9,99,9,99999,9,99,9,99,9","10301,1,99999,9",,,,"MET055METAR EGWC 151150Z 06006KT 9999 BKN030 14/06 Q1030 BLU;",
"03414599999","2010-06-15T12:50:00","4","52.640028","-2.305578","82.9","COSFORD, UK","FM-15","EGWC ","V020","060,1,N,0051,1","01050,1,C,N","011265,1,N,1","+0150,1","+0060,1","99999,9","07,5,+01050,1,99,9",,,"07,99,1,99,9,99,9,99999,9,99,9,99,9","10301,1,99999,9",,,,"MET055METAR EGWC 151250Z 06010KT 9999 BKN035 15/06 Q1030 BLU;",
"03414599999","2010-06-15T13:50:00","4","52.640028","-2.305578","82.9","COSFORD, UK","FM-15","EGWC ","V020","050,1,N,0062,1","22000,1,9,N","011265,1,N,1","+0160,1","+0060,1","99999,9","04,5,+01050,1,99,9",,,"04,99,1,99,9,99,9,99999,9,99,9,99,9","10301,1,99999,9",,,,"MET055METAR EGWC 151350Z 05012KT 9999 SCT035 16/06 Q1030 BLU;",
"03414599999","2010-06-15T14:50:00","4","52.640028","-2.305578","82.9","COSFORD, UK","FM-15","EGWC ","V020","030,1,N,0062,1","22000,1,9,N","011265,1,N,1","+0170,1","+0080,1","99999,9","04,5,+01200,1,99,9",,,"04,99,1,99,9,99,9,99999,9,99,9,99,9","10301,1,99999,9",,,,"MET055METAR EGWC 151450Z 03012KT 9999 SCT040 17/08 Q1030 BLU;",
"03414599999","2010-06-16T06:50:00","4","52.640028","-2.305578","82.9","COSFORD, UK","FM-15","EGWC ","V020","999,9,C,0000,1","99999,9,9,Y","009900,1,N,1","+0120,1","+0060,1","99999,9",,,,,"10291,1,99999,9",,,,"MET049METAR EGWC 160650Z 00000KT CAVOK 12/06 Q1029 BLU;",
"03414599999","2010-06-16T07:50:00","4","52.640028","-2.305578","82.9","COSFORD, UK","FM-15","EGWC ","V020","999,9,C,0000,1","99999,9,9,Y","009900,1,N,1","+0130,1","+0070,1","99999,9",,,,,"10291,1,99999,9",,,,"MET049METAR EGWC 160750Z 00000KT CAVOK 13/07 Q1029 BLU;",
"03414599999","2010-06-16T08:50:00","4","52.640028","-2.305578","82.9","COSFORD, UK","FM-15","EGWC ","V020","020,1,N,0031,1","99999,9,9,Y","009900,1,N,1","+0140,1","+0090,1","99999,9",,,,,"10281,1,99999,9",,,,"MET049METAR EGWC 160850Z 02006KT CAVOK 14/09 Q1028 BLU;",
"03414599999","2010-06-16T09:50:00","4","52.640028","-2.305578","82.9","COSFORD, UK","FM-15","EGWC ","V020","060,1,N,0062,1","22000,1,9,N","011265,1,N,1","+0160,1","+0090,1","99999,9","02,5,+00750,1,99,9",,,"02,99,1,99,9,99,9,99999,9,99,9,99,9","10281,1,99999,9",,,,"MET055METAR EGWC 160950Z 06012KT 9999 FEW025 16/09 Q1028 BLU;",
"03414599999","2010-06-16T10:50:00","4","52.640028","-2.305578","82.9","COSFORD, UK","FM-15","EGWC ","V020","060,1,N,0051,1","22000,1,9,N","011265,1,N,1","+0170,1","+0080,1","99999,9","02,5,+00750,1,99,9",,,"02,99,1,99,9,99,9,99999,9,99,9,99,9","10281,1,99999,9",,,,"MET055METAR EGWC 161050Z 06010KT 9999 FEW025 17/08 Q1028 BLU;",
"03414599999","2010-06-16T11:50:00","4","52.640028","-2.305578","82.9","COSFORD, UK","FM-15","EGWC ","V020","050,1,N,0062,1","22000,1,9,N","011265,1,N,1","+0180,1","+0080,1","99999,9","02,5,+00900,1,99,9",,,"02,99,1,99,9,99,9,99999,9,99,9,99,9","10271,1,99999,9",,,,"MET055METAR EGWC 161150Z 05012KT 9999 FEW030 18/08 Q1027 BLU;",
"03414599999","2010-06-16T12:50:00","4","52.640028","-2.305578","82.9","COSFORD, UK","FM-15","EGWC ","V020","060,1,N,0051,1","22000,1,9,N","011265,1,N,1","+0190,1","+0100,1","99999,9","02,5,+00900,1,99,9",,,"02,99,1,99,9,99,9,99999,9,99,9,99,9","10271,1,99999,9",,,,"MET055METAR EGWC 161250Z 06010KT 9999 FEW030 19/10 Q1027 BLU;",
"03414599999","2010-06-16T13:50:00","4","52.640028","-2.305578","82.9","COSFORD, UK","FM-15","EGWC ","V020","060,1,N,0051,1","22000,1,9,N","011265,1,N,1","+0200,1","+0100,1","99999,9","02,5,+00900,1,99,9",,,"02,99,1,99,9,99,9,99999,9,99,9,99,9","10261,1,99999,9",,,,"MET055METAR EGWC 161350Z 06010KT 9999 FEW030 20/10 Q1026 BLU;",
"03414599999","2010-06-16T14:50:00","4","52.640028","-2.305578","82.9","COSFORD, UK","FM-15","EGWC ","V020","030,1,N,0031,1","22000,1,9,N","011265,1,N,1","+0200,1","+0100,1","99999,9","02,5,+00900,1,99,9",,,"02,99,1,99,9,99,9,99999,9,99,9,99,9","10261,1,99999,9",,,,"MET055METAR EGWC 161450Z 03006KT 9999 FEW030 20/10 Q1026 BLU;",
"03414599999","2010-06-19T07:50:00","4","52.640028","-2.305578","82.9","COSFORD, UK","FM-15","EGWC ","V020","010,1,N,0041,1","01050,1,C,N","011265,1,N,1","+0100,1","+0070,1","99999,9","02,5,+00750,1,99,9","07,5,+01050,1,99,9",,"07,99,1,99,9,99,9,99999,9,99,9,99,9","10200,1,99999,9",,,,"MET062METAR EGWC 190750Z 01008KT 9999 FEW025 BKN035 10/07 Q1020 BLU;",
"03414599999","2010-06-19T08:50:00","4","52.640028","-2.305578","82.9","COSFORD, UK","FM-15","EGWC ","V020","360,1,N,0051,1","01200,1,C,N","011265,1,N,1","+0110,1","+0050,1","99999,9","04,5,+00900,1,99,9","07,5,+01200,1,99,9",,"07,99,1,99,9,99,9,99999,9,99,9,99,9","10200,1,99999,9",,,,"MET062METAR EGWC 190850Z 36010KT 9999 SCT030 BKN040 11/05 Q1020 BLU;",
"03414599999","2010-06-19T09:50:00","4","52.640028","-2.305578","82.9","COSFORD, UK","FM-15","EGWC ","V020","330,1,N,0051,1","22000,1,9,N","011265,1,N,1","+0120,1","+0060,1","99999,9","04,5,+01050,1,99,9",,,"04,99,1,99,9,99,9,99999,9,99,9,99,9","10200,1,99999,9",,,,"MET055METAR EGWC 190950Z 33010KT 9999 SCT035 12/06 Q1020 BLU;",
"03414599999","2010-06-19T10:50:00","4","52.640028","-2.305578","82.9","COSFORD, UK","FM-15","EGWC ","V020","010,1,N,0051,1","22000,1,9,N","011265,1,N,1","+0130,1","+0050,1","99999,9","04,5,+01050,1,99,9",,,"04,99,1,99,9,99,9,99999,9,99,9,99,9","10200,1,99999,9",,,,"MET055METAR EGWC 191050Z 01010KT 9999 SCT035 13/05 Q1020 BLU;",
"03414599999","2010-06-19T11:50:00","4","52.640028","-2.305578","82.9","COSFORD, UK","FM-15","EGWC ","V020","010,1,N,0051,1","22000,1,9,N","011265,1,N,1","+0140,1","+0050,1","99999,9","04,5,+01200,1,99,9",,,"04,99,1,99,9,99,9,99999,9,99,9,99,9","10200,1,99999,9",,,,"MET055METAR EGWC 191150Z 01010KT 9999 SCT040 14/05 Q1020 BLU;",
"03414599999","2010-06-19T12:50:00","4","52.640028","-2.305578","82.9","COSFORD, UK","FM-15","EGWC ","V020","020,1,N,0062,1","01200,1,C,N","011265,1,N,1","+0130,1","+0050,1","99999,9","07,5,+01200,1,99,9",,,"07,99,1,99,9,99,9,99999,9,99,9,99,9","10190,1,99999,9",,,,"MET055METAR EGWC 191250Z 02012KT 9999 BKN040 13/05 Q1019 BLU;",
"03414599999","2010-06-19T13:50:00","4","52.640028","-2.305578","82.9","COSFORD, UK","FM-15","EGWC ","V020","020,1,N,0051,1","22000,1,9,N","011265,1,N,1","+0140,1","+0050,1","99999,9","04,5,+01200,1,99,9",,,"04,99,1,99,9,99,9,99999,9,99,9,99,9","10190,1,99999,9",,,,"MET055METAR EGWC 191350Z 02010KT 9999 SCT040 14/05 Q1019 BLU;",
"03414599999","2010-06-20T07:50:00","4","52.640028","-2.305578","82.9","COSFORD, UK","FM-15","EGWC ","V020","060,1,N,0026,1","22000,1,9,N","011265,1,N,1","+0120,1","+0070,1","99999,9","02,5,+00780,1,99,9",,,"02,99,1,99,9,99,9,99999,9,99,9,99,9","10220,1,99999,9",,,,"MET055METAR EGWC 200750Z 06005KT 9999 FEW026 12/07 Q1022 BLU;",
"03414599999","2010-06-20T08:50:00","4","52.640028","-2.305578","82.9","COSFORD, UK","FM-15","EGWC ","V020","040,1,N,0026,1","22000,1,9,N","011265,1,N,1","+0130,1","+0060,1","99999,9","02,5,+00960,1,99,9",,,"02,99,1,99,9,99,9,99999,9,99,9,99,9","10220,1,99999,9",,,,"MET055METAR EGWC 200850Z 04005KT 9999 FEW032 13/06 Q1022 BLU;",
"03414599999","2010-06-20T09:50:00","4","52.640028","-2.305578","82.9","COSFORD, UK","FM-15","EGWC ","V020","030,1,N,0041,1","22000,1,9,N","011265,1,N,1","+0140,1","+0060,1","99999,9","02,5,+01200,1,99,9",,,"02,99,1,99,9,99,9,99999,9,99,9,99,9","10230,1,99999,9",,,,"MET055METAR EGWC 200950Z 03008KT 9999 FEW040 14/06 Q1023 BLU;",
"03414599999","2010-06-20T10:50:00","4","52.640028","-2.305578","82.9","COSFORD, UK","FM-15","EGWC ","V020","350,1,N,0026,1","22000,1,9,N","011265,1,N,1","+0140,1","+0050,1","99999,9","02,5,+01200,1,99,9",,,"02,99,1,99,9,99,9,99999,9,99,9,99,9","10230,1,99999,9",,,,"MET055METAR EGWC 201050Z 35005KT 9999 FEW040 14/05 Q1023 BLU;",
"03414599999","2010-06-20T11:50:00","4","52.640028","-2.305578","82.9","COSFORD, UK","FM-15","EGWC ","V020","350,1,N,0026,1","99999,9,9,Y","009900,1,N,1","+0160,1","+0070,1","99999,9",,,,,"10230,1,99999,9",,,,"MET049METAR EGWC 201150Z 35005KT CAVOK 16/07 Q1023 BLU;",
"03414599999","2010-06-20T12:50:00","4","52.640028","-2.305578","82.9","COSFORD, UK","FM-15","EGWC ","V020","030,1,N,0026,1","22000,1,9,N","011265,1,N,1","+0170,1","+0060,1","99999,9","02,5,+01350,1,99,9",,,"02,99,1,99,9,99,9,99999,9,99,9,99,9","10220,1,99999,9",,,,"MET055METAR EGWC 201250Z 03005KT 9999 FEW045 17/06 Q1022 BLU;",
"03414599999","2010-06-21T07:50:00","4","52.640028","-2.305578","82.9","COSFORD, UK","FM-15","EGWC ","V020","360,1,N,0036,1","99999,9,9,Y","009900,1,N,1","+0160,1","+0110,1","99999,9",,,,,"10240,1,99999,9",,,,"MET049METAR EGWC 210750Z 36007KT CAVOK 16/11 Q1024 BLU;",
"03414599999","2010-06-21T08:50:00","4","52.640028","-2.305578","82.9","COSFORD, UK","FM-15","EGWC ","V020","999,9,C,0000,1","99999,9,9,Y","009900,1,N,1","+0170,1","+0090,1","99999,9",,,,,"10240,1,99999,9",,,,"MET049METAR EGWC 210850Z 00000KT CAVOK 17/09 Q1024 BLU;",
"03414599999","2010-06-21T12:50:00","4","52.640028","-2.305578","82.9","COSFORD, UK","FM-15","EGWC ","V020","999,9,C,0000,1","99999,9,9,Y","009900,1,N,1","+0220,1","+0080,1","99999,9",,,,,"10240,1,99999,9",,,,"MET049METAR EGWC 211250Z 00000KT CAVOK 22/08 Q1024 BLU;",
"03414599999","2010-06-21T13:50:00","4","52.640028","-2.305578","82.9","COSFORD, UK","FM-15","EGWC ","V020","999,9,C,0000,1","99999,9,9,Y","009900,1,N,1","+0220,1","+0060,1","99999,9",,,,,"10230,1,99999,9",,,,"MET049METAR EGWC 211350Z 00000KT CAVOK 22/06 Q1023 BLU;",
"03414599999","2010-06-22T06:50:00","4","52.640028","-2.305578","82.9","COSFORD, UK","FM-15","EGWC ","V020","270,1,N,0026,1","99999,9,9,Y","009900,1,N,1","+0150,1","+0080,1","99999,9",,,,,"10240,1,99999,9",,,,"MET049METAR EGWC 220650Z 27005KT CAVOK 15/08 Q1024 BLU;",
"03414599999","2010-06-22T07:50:00","4","52.640028","-2.305578","82.9","COSFORD, UK","FM-15","EGWC ","V020","260,1,N,0041,1","99999,9,9,Y","009900,1,N,1","+0160,1","+0100,1","99999,9",,,,,"10240,1,99999,9",,,,"MET049METAR EGWC 220750Z 26008KT CAVOK 16/10 Q1024 BLU;",
"03414599999","2010-06-22T08:50:00","4","52.640028","-2.305578","82.9","COSFORD, UK","FM-15","EGWC ","V020","270,1,N,0026,1","99999,9,9,Y","009900,1,N,1","+0170,1","+0100,1","99999,9",,,,,"10240,1,99999,9",,,,"MET049METAR EGWC 220850Z 27005KT CAVOK 17/10 Q1024 BLU;",
"03414599999","2010-06-22T09:50:00","4","52.640028","-2.305578","82.9","COSFORD, UK","FM-15","EGWC ","V020","230,1,N,0026,1","99999,9,9,Y","009900,1,N,1","+0190,1","+0100,1","99999,9",,,,,"10240,1,99999,9",,,,"MET049METAR EGWC 220950Z 23005KT CAVOK 19/10 Q1024 BLU;",
"03414599999","2010-06-22T10:50:00","4","52.640028","-2.305578","82.9","COSFORD, UK","FM-15","EGWC ","V020","220,1,N,0041,1","99999,9,9,Y","009900,1,N,1","+0200,1","+0090,1","99999,9",,,,,"10240,1,99999,9",,,,"MET049METAR EGWC 221050Z 22008KT CAVOK 20/09 Q1024 BLU;",
"03414599999","2010-06-22T11:50:00","4","52.640028","-2.305578","82.9","COSFORD, UK","FM-15","EGWC ","V020","300,1,N,0041,1","99999,9,9,Y","009900,1,N,1","+0210,1","+0080,1","99999,9",,,,,"10240,1,99999,9",,,,"MET049METAR EGWC 221150Z 30008KT CAVOK 21/08 Q1024 BLU;",
"03414599999","2010-06-22T12:50:00","4","52.640028","-2.305578","82.9","COSFORD, UK","FM-15","EGWC ","V020","210,1,N,0051,1","99999,9,9,Y","009900,1,N,1","+0230,1","+0110,1","99999,9",,,,,"10230,1,99999,9",,,,"MET049METAR EGWC 221250Z 21010KT CAVOK 23/11 Q1023 BLU;",
"03414599999","2010-06-22T13:50:00","4","52.640028","-2.305578","82.9","COSFORD, UK","FM-15","EGWC ","V020","210,1,N,0026,1","99999,9,9,Y","009900,1,N,1","+0230,1","+0100,1","99999,9",,,,,"10230,1,99999,9",,,,"MET049METAR EGWC 221350Z 21005KT CAVOK 23/10 Q1023 BLU;",
"03414599999","2010-06-22T14:50:00","4","52.640028","-2.305578","82.9","COSFORD, UK","FM-15","EGWC ","V020","230,1,N,0026,1","99999,9,9,Y","009900,1,N,1","+0240,1","+0120,1","99999,9",,,,,"10230,1,99999,9",,,,"MET049METAR EGWC 221450Z 23005KT CAVOK 24/12 Q1023 BLU;",
"03414599999","2010-06-23T07:50:00","4","52.640028","-2.305578","82.9","COSFORD, UK","FM-15","EGWC ","V020","999,9,C,0000,1","99999,9,9,Y","009900,1,N,1","+0150,1","+0120,1","99999,9",,,,,"10230,1,99999,9",,,,"MET049METAR EGWC 230750Z 00000KT CAVOK 15/12 Q1023 BLU;",
"03414599999","2010-06-23T08:50:00","4","52.640028","-2.305578","82.9","COSFORD, UK","FM-15","EGWC ","V020","999,9,C,0000,1","99999,9,9,Y","009900,1,N,1","+0160,1","+0090,1","99999,9",,,,,"10230,1,99999,9",,,,"MET049METAR EGWC 230850Z 00000KT CAVOK 16/09 Q1023 BLU;",
"03414599999","2010-06-23T09:50:00","4","52.640028","-2.305578","82.9","COSFORD, UK","FM-15","EGWC ","V020","210,1,N,0041,1","99999,9,9,Y","009900,1,N,1","+0180,1","+0100,1","99999,9",,,,,"10230,1,99999,9",,,,"MET049METAR EGWC 230950Z 21008KT CAVOK 18/10 Q1023 BLU;",
"03414599999","2010-06-23T10:50:00","4","52.640028","-2.305578","82.9","COSFORD, UK","FM-15","EGWC ","V020","240,1,N,0041,1","22000,1,9,N","011265,1,N,1","+0200,1","+0100,1","99999,9","02,5,+01050,1,99,9",,,"02,99,1,99,9,99,9,99999,9,99,9,99,9","10220,1,99999,9",,,,"MET055METAR EGWC 231050Z 24008KT 9999 FEW035 20/10 Q1022 BLU;",
"03414599999","2010-06-23T11:50:00","4","52.640028","-2.305578","82.9","COSFORD, UK","FM-15","EGWC ","V020","220,1,N,0031,1","99999,9,9,Y","009900,1,N,1","+0210,1","+0100,1","99999,9",,,,,"10220,1,99999,9",,,,"MET049METAR EGWC 231150Z 22006KT CAVOK 21/10 Q1022 BLU;",
"03414599999","2010-06-23T12:50:00","4","52.640028","-2.305578","82.9","COSFORD, UK","FM-15","EGWC ","V020","240,1,N,0031,1","99999,9,9,Y","009900,1,N,1","+0220,1","+0100,1","99999,9",,,,,"10220,1,99999,9",,,,"MET049METAR EGWC 231250Z 24006KT CAVOK 22/10 Q1022 BLU;",
"03414599999","2010-06-24T06:50:00","4","52.640028","-2.305578","82.9","COSFORD, UK","FM-15","EGWC ","V020","200,1,N,0026,1","00600,1,C,N","011265,1,N,1","+0170,1","+0130,1","99999,9","04,5,+00480,1,99,9","07,5,+00600,1,99,9",,"07,99,1,99,9,99,9,99999,9,99,9,99,9","10200,1,99999,9",,,,"MET062METAR EGWC 240650Z 20005KT 9999 SCT016 BKN020 17/13 Q1020 WHT;",
"03414599999","2010-06-24T07:50:00","4","52.640028","-2.305578","82.9","COSFORD, UK","FM-15","EGWC ","V020","240,1,N,0026,1","00600,1,C,N","011265,1,N,1","+0180,1","+0130,1","99999,9","04,5,+00480,1,99,9","07,5,+00600,1,99,9",,"07,99,1,99,9,99,9,99999,9,99,9,99,9","10200,1,99999,9",,,,"MET062METAR EGWC 240750Z 24005KT 9999 SCT016 BKN020 18/13 Q1020 WHT;",
"03414599999","2010-06-24T08:50:00","4","52.640028","-2.305578","82.9","COSFORD, UK","FM-15","EGWC ","V020","230,1,N,0031,1","00480,1,C,N","011265,1,N,1","+0190,1","+0130,1","99999,9","07,5,+00480,1,99,9",,,"07,99,1,99,9,99,9,99999,9,99,9,99,9","10200,1,99999,9",,,,"MET055METAR EGWC 240850Z 23006KT 9999 BKN016 19/13 Q1020 WHT;",
"03414599999","2010-06-24T09:50:00","4","52.640028","-2.305578","82.9","COSFORD, UK","FM-15","EGWC ","V020","240,1,N,0041,1","00540,1,C,N","011265,1,N,1","+0180,1","+0140,1","99999,9","04,5,+00450,1,99,9","07,5,+00540,1,99,9","07,5,+01800,1,99,9","07,99,1,99,9,99,9,99999,9,99,9,99,9","10200,1,99999,9",,,,"MET076METAR EGWC 240950Z 24008KT 9999 6000SW SCT015 BKN018 BKN060 18/14 Q1020 WHT;",
"03414599999","2010-06-24T10:50:00","4","52.640028","-2.305578","82.9","COSFORD, UK","FM-15","EGWC ","V020","270,1,N,0041,1","01800,1,C,N","011265,1,N,1","+0200,1","+0130,1","99999,9","04,5,+00540,1,99,9","07,5,+01800,1,99,9",,"07,99,1,99,9,99,9,99999,9,99,9,99,9","10200,1,99999,9",,,,"MET062METAR EGWC 241050Z 27008KT 9999 SCT018 BKN060 20/13 Q1020 WHT;",
"03414599999","2010-06-24T11:50:00","4","52.640028","-2.305578","82.9","COSFORD, UK","FM-15","EGWC ","V020","250,1,N,0051,1","01800,1,C,N","011265,1,N,1","+0210,1","+0130,1","99999,9","04,5,+00600,1,99,9","07,5,+01800,1,99,9",,"07,99,1,99,9,99,9,99999,9,99,9,99,9","10200,1,99999,9",,,,"MET062METAR EGWC 241150Z 25010KT 9999 SCT020 BKN060 21/13 Q1020 WHT;",
"03414599999","2010-06-24T12:50:00","4","52.640028","-2.305578","82.9","COSFORD, UK","FM-15","EGWC ","V020","290,1,N,0051,1","00900,1,C,N","011265,1,N,1","+0220,1","+0120,1","99999,9","07,5,+00900,1,99,9",,,"07,99,1,99,9,99,9,99999,9,99,9,99,9","10190,1,99999,9",,,,"MET055METAR EGWC 241250Z 29010KT 9999 BKN030 22/12 Q1019 BLU;",
"03414599999","2010-06-24T13:50:00","4","52.640028","-2.305578","82.9","COSFORD, UK","FM-15","EGWC ","V020","280,1,N,0077,1","22000,1,9,N","011265,1,N,1","+0220,1","+0120,1","99999,9","04,5,+01050,1,99,9",,,"04,99,1,99,9,99,9,99999,9,99,9,99,9","10190,1,99999,9",,,,"MET055METAR EGWC 241350Z 28015KT 9999 SCT035 22/12 Q1019 BLU;",
"03414599999","2010-06-24T14:50:00","4","52.640028","-2.305578","82.9","COSFORD, UK","FM-15","EGWC ","V020","280,1,N,0062,1","01050,1,C,N","011265,1,N,1","+0220,1","+0100,1","99999,9","07,5,+01050,1,99,9",,,"07,99,1,99,9,99,9,99999,9,99,9,99,9","10190,1,99999,9",,,,"MET055METAR EGWC 241450Z 28012KT 9999 BKN035 22/10 Q1019 BLU;",
"03414599999","2010-06-25T06:50:00","4","52.640028","-2.305578","82.9","COSFORD, UK","FM-15","EGWC ","V020","999,9,C,0000,1","99999,9,9,Y","009900,1,N,1","+0140,1","+0100,1","99999,9",,,,,"10200,1,99999,9",,,,"MET049METAR EGWC 250650Z 00000KT CAVOK 14/10 Q1020 BLU;",
"03414599999","2010-06-25T07:50:00","4","52.640028","-2.305578","82.9","COSFORD, UK","FM-15","EGWC ","V020","999,9,C,0000,1","99999,9,9,Y","009900,1,N,1","+0150,1","+0120,1","99999,9",,,,,"10200,1,99999,9",,,,"MET049METAR EGWC 250750Z 00000KT CAVOK 15/12 Q1020 BLU;",
"03414599999","2010-06-25T08:50:00","4","52.640028","-2.305578","82.9","COSFORD, UK","FM-15","EGWC ","V020","020,1,N,0026,1","22000,1,9,N","011265,1,N,1","+0180,1","+0110,1","99999,9","02,5,+00750,1,99,9",,,"02,99,1,99,9,99,9,99999,9,99,9,99,9","10200,1,99999,9",,,,"MET055METAR EGWC 250850Z 02005KT 9999 FEW025 18/11 Q1020 BLU;",
"03414599999","2010-06-25T09:50:00","4","52.640028","-2.305578","82.9","COSFORD, UK","FM-15","EGWC ","V020","999,9,C,0000,1","22000,1,9,N","011265,1,N,1","+0190,1","+0110,1","99999,9","04,5,+00750,1,99,9",,,"04,99,1,99,9,99,9,99999,9,99,9,99,9","10190,1,99999,9",,,,"MET055METAR EGWC 250950Z 00000KT 9999 SCT025 19/11 Q1019 BLU;",
"03414599999","2010-06-25T10:50:00","4","52.640028","-2.305578","82.9","COSFORD, UK","FM-15","EGWC ","V020","999,9,C,0000,1","00900,1,C,N","011265,1,N,1","+0190,1","+0110,1","99999,9","07,5,+00900,1,99,9",,,"07,99,1,99,9,99,9,99999,9,99,9,99,9","10190,1,99999,9",,,,"MET055METAR EGWC 251050Z 00000KT 9999 BKN030 19/11 Q1019 BLU;",
"03414599999","2010-06-25T11:50:00","4","52.640028","-2.305578","82.9","COSFORD, UK","FM-15","EGWC ","V020","030,1,N,0031,1","00900,1,C,N","011265,1,N,1","+0200,1","+0100,1","99999,9","07,5,+00900,1,99,9",,,"07,99,1,99,9,99,9,99999,9,99,9,99,9","10190,1,99999,9",,,,"MET055METAR EGWC 251150Z 03006KT 9999 BKN030 20/10 Q1019 BLU;",
"03414599999","2010-06-25T12:50:00","4","52.640028","-2.305578","82.9","COSFORD, UK","FM-15","EGWC ","V020","999,9,C,0000,1","01200,1,C,N","011265,1,N,1","+0220,1","+0100,1","99999,9","07,5,+01200,1,99,9",,,"07,99,1,99,9,99,9,99999,9,99,9,99,9","10190,1,99999,9",,,,"MET055METAR EGWC 251250Z 00000KT 9999 BKN040 22/10 Q1019 BLU;",
"03414599999","2010-06-25T13:50:00","4","52.640028","-2.305578","82.9","COSFORD, UK","FM-15","EGWC ","V020","100,1,N,0026,1","22000,1,9,N","011265,1,N,1","+0220,1","+0110,1","99999,9","04,5,+01350,1,99,9",,,"04,99,1,99,9,99,9,99999,9,99,9,99,9","10180,1,99999,9",,,,"MET055METAR EGWC 251350Z 10005KT 9999 SCT045 22/11 Q1018 BLU;",
"03414599999","2010-06-25T14:50:00","4","52.640028","-2.305578","82.9","COSFORD, UK","FM-15","EGWC ","V020","080,1,N,0041,1","22000,1,9,N","011265,1,N,1","+0230,1","+0110,1","99999,9","04,5,+01350,1,99,9",,,"04,99,1,99,9,99,9,99999,9,99,9,99,9","10180,1,99999,9",,,,"MET055METAR EGWC 251450Z 08008KT 9999 SCT045 23/11 Q1018 BLU;",
"03414599999","2010-06-28T07:50:00","4","52.640028","-2.305578","82.9","COSFORD, UK","FM-15","EGWC ","V020","240,1,N,0041,1","99999,9,9,Y","009900,1,N,1","+0180,1","+0130,1","99999,9",,,,,"10210,1,99999,9",,,,"MET049METAR EGWC 280750Z 24008KT CAVOK 18/13 Q1021 BLU;",
"03414599999","2010-06-28T08:50:00","4","52.640028","-2.305578","82.9","COSFORD, UK","FM-15","EGWC ","V020","240,1,N,0031,1","99999,9,9,Y","009900,1,N,1","+0200,1","+0110,1","99999,9",,,,,"10210,1,99999,9",,,,"MET049METAR EGWC 280850Z 24006KT CAVOK 20/11 Q1021 BLU;",
"03414599999","2010-06-28T09:50:00","4","52.640028","-2.305578","82.9","COSFORD, UK","FM-15","EGWC ","V020","200,1,N,0041,1","99999,9,9,Y","009900,1,N,1","+0200,1","+0110,1","99999,9",,,,,"10210,1,99999,9",,,,"MET049METAR EGWC 280950Z 20008KT CAVOK 20/11 Q1021 BLU;",
"03414599999","2010-06-28T10:50:00","4","52.640028","-2.305578","82.9","COSFORD, UK","FM-15","EGWC ","V020","200,1,N,0062,1","22000,1,9,N","011265,1,N,1","+0220,1","+0110,1","99999,9","02,5,+01050,1,99,9",,,"02,99,1,99,9,99,9,99999,9,99,9,99,9","10210,1,99999,9",,,,"MET055METAR EGWC 281050Z 20012KT 9999 FEW035 22/11 Q1021 BLU;",
"03414599999","2010-06-28T11:50:00","4","52.640028","-2.305578","82.9","COSFORD, UK","FM-15","EGWC ","V020","200,1,N,0062,1","99999,9,9,Y","009900,1,N,1","+0230,1","+0100,1","99999,9",,,,,"10210,1,99999,9",,,,"MET049METAR EGWC 281150Z 20012KT CAVOK 23/10 Q1021 BLU;",
"03414599999","2010-06-28T12:50:00","4","52.640028","-2.305578","82.9","COSFORD, UK","FM-15","EGWC ","V020","200,1,N,0062,1","22000,1,9,N","011265,1,N,1","+0230,1","+0110,1","99999,9","02,5,+01200,1,99,9",,,"02,99,1,99,9,99,9,99999,9,99,9,99,9","10200,1,99999,9",,,,"MET055METAR EGWC 281250Z 20012KT 9999 FEW040 23/11 Q1020 BLU;",
"03414599999","2010-06-28T13:50:00","4","52.640028","-2.305578","82.9","COSFORD, UK","FM-15","EGWC ","V020","240,1,N,0051,1","22000,1,9,N","011265,1,N,1","+0250,1","+0110,1","99999,9","04,5,+01350,1,99,9",,,"04,99,1,99,9,99,9,99999,9,99,9,99,9","10200,1,99999,9",,,,"MET055METAR EGWC 281350Z 24010KT 9999 SCT045 25/11 Q1020 BLU;",
"03414599999","2010-06-29T07:50:00","4","52.640028","-2.305578","82.9","COSFORD, UK","FM-15","EGWC ","V020","240,1,N,0051,1","99999,9,C,N","011265,1,N,1","+0190,1","+0150,1","99999,9","04,5,+00480,1,99,9","04,5,+00690,1,99,9",,"04,99,1,99,9,99,9,99999,9,99,9,99,9","10180,1,99999,9",,,,"MET062METAR EGWC 290750Z 24010KT 9999 SCT016 SCT023 19/15 Q1018 WHT;","P01 006903SCOCIG"
"03414599999","2010-06-29T08:50:00","4","52.640028","-2.305578","82.9","COSFORD, UK","FM-15","EGWC ","V020","270,1,N,0041,1","22000,1,9,N","011265,1,N,1","+0200,1","+0150,1","99999,9","04,5,+00540,1,99,9",,,"04,99,1,99,9,99,9,99999,9,99,9,99,9","10180,1,99999,9",,,,"MET055METAR EGWC 290850Z 27008KT 9999 SCT018 20/15 Q1018 WHT;",
"03414599999","2010-06-29T09:50:00","4","52.640028","-2.305578","82.9","COSFORD, UK","FM-15","EGWC ","V020","240,1,N,0051,1","22000,1,9,N","011265,1,N,1","+0220,1","+0150,1","99999,9","04,5,+00660,1,99,9",,,"04,99,1,99,9,99,9,99999,9,99,9,99,9","10190,1,99999,9",,,,"MET055METAR EGWC 290950Z 24010KT 9999 SCT022 22/15 Q1019 WHT;",
"03414599999","2010-06-29T10:50:00","4","52.640028","-2.305578","82.9","COSFORD, UK","FM-15","EGWC ","V020","270,1,N,0051,1","22000,1,9,N","011265,1,N,1","+0220,1","+0130,1","99999,9","04,5,+00780,1,99,9",,,"04,99,1,99,9,99,9,99999,9,99,9,99,9","10190,1,99999,9",,,,"MET055METAR EGWC 291050Z 27010KT 9999 SCT026 22/13 Q1019 BLU;",
"03414599999","2010-06-29T11:50:00","4","52.640028","-2.305578","82.9","COSFORD, UK","FM-15","EGWC ","V020","270,1,N,0051,1","00780,1,C,N","011265,1,N,1","+0230,1","+0150,1","99999,9","07,5,+00780,1,99,9",,,"07,99,1,99,9,99,9,99999,9,99,9,99,9","10190,1,99999,9",,,,"MET055METAR EGWC 291150Z 27010KT 9999 BKN026 23/15 Q1019 BLU;",
"03414599999","2010-06-29T12:50:00","4","52.640028","-2.305578","82.9","COSFORD, UK","FM-15","EGWC ","V020","280,1,N,0057,1","22000,1,9,N","011265,1,N,1","+0240,1","+0130,1","99999,9","04,5,+00900,1,99,9",,,"04,99,1,99,9,99,9,99999,9,99,9,99,9","10190,1,99999,9",,,,"MET055METAR EGWC 291250Z 28011KT 9999 SCT030 24/13 Q1019 BLU;",
"03414599999","2010-06-29T13:50:00","4","52.640028","-2.305578","82.9","COSFORD, UK","FM-15","EGWC ","V020","270,1,N,0041,1","22000,1,9,N","011265,1,N,1","+0250,1","+0130,1","99999,9","04,5,+00900,1,99,9",,,"04,99,1,99,9,99,9,99999,9,99,9,99,9","10190,1,99999,9",,,,"MET055METAR EGWC 291350Z 27008KT 9999 SCT030 25/13 Q1019 BLU;",
"03414599999","2010-06-30T06:50:00","4","52.640028","-2.305578","82.9","COSFORD, UK","FM-15","EGWC ","V020","999,9,C,0000,1","03000,1,C,N","011265,1,N,1","+0140,1","+0120,1","99999,9","02,5,+01440,1,99,9","07,5,+03000,1,99,9",,"07,99,1,99,9,99,9,99999,9,99,9,99,9","10200,1,99999,9",,,,"MET062METAR EGWC 300650Z 00000KT 9999 FEW048 BKN100 14/12 Q1020 BLU;",
"03414599999","2010-06-30T07:50:00","4","52.640028","-2.305578","82.9","COSFORD, UK","FM-15","EGWC ","V020","999,9,C,0000,1","22000,1,9,N","011265,1,N,1","+0160,1","+0120,1","99999,9","04,5,+01440,1,99,9",,,"04,99,1,99,9,99,9,99999,9,99,9,99,9","10200,1,99999,9",,,,"MET055METAR EGWC 300750Z 00000KT 9999 SCT048 16/12 Q1020 BLU;",
"03414599999","2010-06-30T08:50:00","4","52.640028","-2.305578","82.9","COSFORD, UK","FM-15","EGWC ","V020","999,9,C,0000,1","01350,1,C,N","011265,1,N,1","+0180,1","+0110,1","99999,9","07,5,+01350,1,99,9",,,"07,99,1,99,9,99,9,99999,9,99,9,99,9","10200,1,99999,9",,,,"MET055METAR EGWC 300850Z 00000KT 9999 BKN045 18/11 Q1020 BLU;",
"03414599999","2010-06-30T09:50:00","4","52.640028","-2.305578","82.9","COSFORD, UK","FM-15","EGWC ","V020","999,9,C,0000,1","22000,1,9,N","011265,1,N,1","+0210,1","+0080,1","99999,9","04,5,+01350,1,99,9",,,"04,99,1,99,9,99,9,99999,9,99,9,99,9","10200,1,99999,9",,,,"MET055METAR EGWC 300950Z 00000KT 9999 SCT045 21/08 Q1020 BLU;",
"03414599999","2010-06-30T10:50:00","4","52.640028","-2.305578","82.9","COSFORD, UK","FM-15","EGWC ","V020","999,9,C,0000,1","22000,1,9,N","011265,1,N,1","+0210,1","+0070,1","99999,9","02,5,+01350,1,99,9",,,"02,99,1,99,9,99,9,99999,9,99,9,99,9","10190,1,99999,9",,,,"MET055METAR EGWC 301050Z 00000KT 9999 FEW045 21/07 Q1019 BLU;",
"03414599999","2010-06-30T11:50:00","4","52.640028","-2.305578","82.9","COSFORD, UK","FM-15","EGWC ","V020","210,1,N,0026,1","22000,1,9,N","011265,1,N,1","+0210,1","+0110,1","99999,9","02,5,+01350,1,99,9",,,"02,99,1,99,9,99,9,99999,9,99,9,99,9","10190,1,99999,9",,,,"MET055METAR EGWC 301150Z 21005KT 9999 FEW045 21/11 Q1019 BLU;",
"03414599999","2010-06-30T12:50:00","4","52.640028","-2.305578","82.9","COSFORD, UK","FM-15","EGWC ","V020","210,1,N,0026,1","22000,1,9,N","011265,1,N,1","+0220,1","+0120,1","99999,9","04,5,+01200,1,99,9",,,"04,99,1,99,9,99,9,99999,9,99,9,99,9","10190,1,99999,9",,,,"MET055METAR EGWC 301250Z 21005KT 9999 SCT040 22/12 Q1019 BLU;",
"03414599999","2010-06-30T14:50:00","4","52.640028","-2.305578","82.9","COSFORD, UK","FM-15","EGWC ","V020","180,1,N,0041,1","01200,1,C,N","011265,1,N,1","+0230,1","+0130,1","99999,9","07,5,+01200,1,99,9",,,"07,99,1,99,9,99,9,99999,9,99,9,99,9","10169,1,99999,9",,,,"MET055METAR EGWC 301450Z 18008KT 9999 BKN040 23/13 Q1017 BLU;",
"03414599999","2010-07-01T07:50:00","4","52.640028","-2.305578","82.9","COSFORD, UK","FM-15","EGWC ","V020","180,1,N,0051,1","22000,1,9,N","011265,1,N,1","+0180,1","+0140,1","99999,9","04,5,+00780,1,99,9",,,"04,99,1,99,9,99,9,99999,9,99,9,99,9","10119,1,99999,9",,,,"MET055METAR EGWC 010750Z 18010KT 9999 SCT026 18/14 Q1012 BLU;",
"03414599999","2010-07-01T08:50:00","4","52.640028","-2.305578","82.9","COSFORD, UK","FM-15","EGWC ","V020","190,1,N,0062,1","04200,1,C,N","011265,1,N,1","+0190,1","+0120,1","99999,9","02,5,+00600,1,99,9","07,5,+04200,1,99,9",,"07,99,1,99,9,99,9,99999,9,99,9,99,9","10119,1,99999,9",,,,"MET062METAR EGWC 010850Z 19012KT 9999 FEW020 BKN140 19/12 Q1012 BLU;",
"03414599999","2010-07-01T09:50:00","4","52.640028","-2.305578","82.9","COSFORD, UK","FM-15","EGWC ","V020","180,1,N,0077,1","00780,1,C,N","011265,1,N,1","+0190,1","+0110,1","99999,9","02,5,+00600,1,99,9","04,5,+00780,1,99,9","07,5,+04200,1,99,9","07,99,1,99,9,99,9,99999,9,99,9,99,9","10108,1,99999,9","61,1",,,"MET073METAR EGWC 010950Z 18015KT 9999 -RA FEW020 SCT026 BKN140 19/11 Q1011 BLU;",
"03414599999","2010-07-01T10:50:00","4","52.640028","-2.305578","82.9","COSFORD, UK","FM-15","EGWC ","V020","180,1,N,0077,1","00750,1,C,N","011265,1,N,1","+0180,1","+0150,1","99999,9","02,5,+00600,1,99,9","04,5,+00750,1,99,9","07,5,+04200,1,99,9","07,99,1,99,9,99,9,99999,9,99,9,99,9","10108,1,99999,9","61,1",,,"MET073METAR EGWC 011050Z 18015KT 9999 -RA FEW020 SCT025 BKN140 18/15 Q1011 BLU;",
"03414599999","2010-07-01T11:50:00","4","52.640028","-2.305578","82.9","COSFORD, UK","FM-15","EGWC ","V020","180,1,N,0077,1","00750,1,C,N","011265,1,N,1","+0200,1","+0150,1","99999,9","02,5,+00600,1,99,9","07,5,+00750,1,99,9",,"07,99,1,99,9,99,9,99999,9,99,9,99,9","10108,1,99999,9","61,1",,,"MET066METAR EGWC 011150Z 18015KT 9999 -RA FEW020 BKN025 20/15 Q1011 BLU;",
"03414599999","2010-07-01T12:50:00","4","52.640028","-2.305578","82.9","COSFORD, UK","FM-15","EGWC ","V020","180,1,N,0051,1","00750,1,C,N","011265,1,N,1","+0200,1","+0150,1","99999,9","02,5,+00600,1,99,9","07,5,+00750,1,99,9",,"07,99,1,99,9,99,9,99999,9,99,9,99,9","10108,1,99999,9",,,,"MET062METAR EGWC 011250Z 18010KT 9999 FEW020 BKN025 20/15 Q1011 BLU;",
"03414599999","2010-07-01T13:50:00","4","52.640028","-2.305578","82.9","COSFORD, UK","FM-15","EGWC ","V020","180,1,N,0051,1","99999,9,C,N","011265,1,N,1","+0220,1","+0140,1","99999,9","02,5,+00750,1,99,9","04,5,+00900,1,99,9",,"04,99,1,99,9,99,9,99999,9,99,9,99,9","10102,1,99999,9",,,,"MET062METAR EGWC 011350Z 18010KT 9999 FEW025 SCT030 22/14 Q1010 BLU;","P01 009003SCOCIG"
"03414599999","2010-07-02T06:50:00","4","52.640028","-2.305578","82.9","COSFORD, UK","FM-15","EGWC ","V020","210,1,N,0031,1","01200,1,C,N","011265,1,N,1","+0150,1","+0130,1","99999,9","07,5,+01200,1,99,9",,,"07,99,1,99,9,99,9,99999,9,99,9,99,9","10091,1,99999,9",,,,"MET055METAR EGWC 020650Z 21006KT 9999 BKN040 15/13 Q1009 BLU;",
"03414599999","2010-07-02T08:50:00","4","52.640028","-2.305578","82.9","COSFORD, UK","FM-15","EGWC ","V020","220,1,N,0041,1","00750,1,C,N","011265,1,N,1","+0170,1","+0130,1","99999,9","02,5,+00600,1,99,9","07,5,+00750,1,99,9",,"07,99,1,99,9,99,9,99999,9,99,9,99,9","10102,1,99999,9",,,,"MET062METAR EGWC 020850Z 22008KT 9999 FEW020 BKN025 17/13 Q1010 BLU;",
"03414599999","2010-07-02T09:50:00","4","52.640028","-2.305578","82.9","COSFORD, UK","FM-15","EGWC ","V020","210,1,N,0062,1","00750,1,C,N","011265,1,N,1","+0180,1","+0140,1","99999,9","07,5,+00750,1,99,9",,,"07,99,1,99,9,99,9,99999,9,99,9,99,9","10108,1,99999,9",,,,"MET055METAR EGWC 020950Z 21012KT 9999 BKN025 18/14 Q1011 BLU;",
"03414599999","2010-07-02T10:50:00","4","52.640028","-2.305578","82.9","COSFORD, UK","FM-15","EGWC ","V020","220,1,N,0051,1","00750,1,C,N","011265,1,N,1","+0190,1","+0130,1","99999,9","07,5,+00750,1,99,9",,,"07,99,1,99,9,99,9,99999,9,99,9,99,9","10108,1,99999,9",,,,"MET055METAR EGWC 021050Z 22010KT 9999 BKN025 19/13 Q1011 BLU;",
"03414599999","2010-07-02T11:50:00","4","52.640028","-2.305578","82.9","COSFORD, UK","FM-15","EGWC ","V020","230,1,N,0041,1","00750,1,C,N","011265,1,N,1","+0210,1","+0130,1","99999,9","07,5,+00750,1,99,9",,,"07,99,1,99,9,99,9,99999,9,99,9,99,9","10108,1,99999,9",,,,"MET055METAR EGWC 021150Z 23008KT 9999 BKN025 21/13 Q1011 BLU;",
"03414599999","2010-07-02T12:50:00","4","52.640028","-2.305578","82.9","COSFORD, UK","FM-15","EGWC ","V020","220,1,N,0062,1","01050,1,C,N","011265,1,N,1","+0220,1","+0110,1","99999,9","07,5,+01050,1,99,9",,,"07,99,1,99,9,99,9,99999,9,99,9,99,9","10108,1,99999,9",,,,"MET055METAR EGWC 021250Z 22012KT 9999 BKN035 22/11 Q1011 BLU;",
"03414599999","2010-07-02T13:50:00","4","52.640028","-2.305578","82.9","COSFORD, UK","FM-15","EGWC ","V020","220,1,N,0062,1","01050,1,C,N","011265,1,N,1","+0220,1","+0120,1","99999,9","07,5,+01050,1,99,9",,,"07,99,1,99,9,99,9,99999,9,99,9,99,9","10108,1,99999,9",,,,"MET055METAR EGWC 021350Z 22012KT 9999 BKN035 22/12 Q1011 BLU;",
"03414599999","2010-07-05T07:50:00","4","52.640028","-2.305578","82.9","COSFORD, UK","FM-15","EGWC ","V020","280,1,N,0051,1","22000,1,9,N","011265,1,N,1","+0160,1","+0090,1","99999,9","02,5,+00600,1,99,9",,,"02,99,1,99,9,99,9,99999,9,99,9,99,9","10210,1,99999,9",,,,"MET055METAR EGWC 050750Z 28010KT 9999 FEW020 16/09 Q1021 BLU;",
"03414599999","2010-07-05T08:50:00","4","52.640028","-2.305578","82.9","COSFORD, UK","FM-15","EGWC ","V020","270,1,N,0041,1","22000,1,9,N","011265,1,N,1","+0170,1","+0080,1","99999,9","04,5,+00750,1,99,9",,,"04,99,1,99,9,99,9,99999,9,99,9,99,9","10210,1,99999,9",,,,"MET055METAR EGWC 050850Z 27008KT 9999 SCT025 17/08 Q1021 BLU;",
"03414599999","2010-07-05T09:50:00","4","52.640028","-2.305578","82.9","COSFORD, UK","FM-15","EGWC ","V020","270,1,N,0041,1","22000,1,9,N","011265,1,N,1","+0180,1","+0080,1","99999,9","04,5,+00750,1,99,9",,,"04,99,1,99,9,99,9,99999,9,99,9,99,9","10220,1,99999,9",,,,"MET055METAR EGWC 050950Z 27008KT 9999 SCT025 18/08 Q1022 BLU;",
"03414599999","2010-07-05T10:50:00","4","52.640028","-2.305578","82.9","COSFORD, UK","FM-15","EGWC ","V020","300,1,N,0041,1","01050,1,C,N","011265,1,N,1","+0190,1","+0070,1","99999,9","07,5,+01050,1,99,9",,,"07,99,1,99,9,99,9,99999,9,99,9,99,9","10220,1,99999,9",,,,"MET055METAR EGWC 051050Z 30008KT 9999 BKN035 19/07 Q1022 BLU;",
"03414599999","2010-07-05T11:50:00","4","52.640028","-2.305578","82.9","COSFORD, UK","FM-15","EGWC ","V020","300,1,N,0041,1","01050,1,C,N","011265,1,N,1","+0190,1","+0070,1","99999,9","07,5,+01050,1,99,9",,,"07,99,1,99,9,99,9,99999,9,99,9,99,9","10220,1,99999,9",,,,"MET055METAR EGWC 051150Z 30008KT 9999 BKN035 19/07 Q1022 BLU;",
"03414599999","2010-07-05T12:50:00","4","52.640028","-2.305578","82.9","COSFORD, UK","FM-15","EGWC ","V020","300,1,N,0041,1","01200,1,C,N","011265,1,N,1","+0190,1","+0070,1","99999,9","07,5,+01200,1,99,9",,,"07,99,1,99,9,99,9,99999,9,99,9,99,9","10220,1,99999,9",,,,"MET055METAR EGWC 051250Z 30008KT 9999 BKN040 19/07 Q1022 BLU;",
"03414599999","2010-07-05T13:50:00","4","52.640028","-2.305578","82.9","COSFORD, UK","FM-15","EGWC ","V020","300,1,N,0051,1","01350,1,C,N","011265,1,N,1","+0190,1","+0060,1","99999,9","07,5,+01350,1,99,9",,,"07,99,1,99,9,99,9,99999,9,99,9,99,9","10220,1,99999,9",,,,"MET055METAR EGWC 051350Z 30010KT 9999 BKN045 19/06 Q1022 BLU;",
"03414599999","2010-07-05T14:50:00","4","52.640028","-2.305578","82.9","COSFORD, UK","FM-15","EGWC ","V020","300,1,N,0051,1","01350,1,C,N","011265,1,N,1","+0200,1","+0070,1","99999,9","07,5,+01350,1,99,9",,,"07,99,1,99,9,99,9,99999,9,99,9,99,9","10230,1,99999,9",,,,"MET055METAR EGWC 051450Z 30010KT 9999 BKN045 20/07 Q1023 BLU;",
"03414599999","2010-07-06T06:50:00","4","52.640028","-2.305578","82.9","COSFORD, UK","FM-15","EGWC ","V020","999,9,C,0000,1","22000,1,9,N","011265,1,N,1","+0120,1","+0100,1","99999,9","04,5,+01200,1,99,9",,,"04,99,1,99,9,99,9,99999,9,99,9,99,9","10261,1,99999,9",,,,"MET055METAR EGWC 060650Z 00000KT 9999 SCT040 12/10 Q1026 BLU;",
"03414599999","2010-07-06T07:50:00","4","52.640028","-2.305578","82.9","COSFORD, UK","FM-15","EGWC ","V020","999,9,C,0000,1","22000,1,9,N","011265,1,N,1","+0150,1","+0100,1","99999,9","02,5,+01350,1,99,9",,,"02,99,1,99,9,99,9,99999,9,99,9,99,9","10271,1,99999,9",,,,"MET055METAR EGWC 060750Z 00000KT 9999 FEW045 15/10 Q1027 BLU;",
"03414599999","2010-07-06T08:50:00","4","52.640028","-2.305578","82.9","COSFORD, UK","FM-15","EGWC ","V020","999,9,C,0000,1","22000,1,9,N","011265,1,N,1","+0160,1","+0100,1","99999,9","02,5,+00750,1,99,9",,,"02,99,1,99,9,99,9,99999,9,99,9,99,9","10261,1,99999,9",,,,"MET055METAR EGWC 060850Z 00000KT 9999 FEW025 16/10 Q1026 BLU;",
"03414599999","2010-07-06T09:50:00","4","52.640028","-2.305578","82.9","COSFORD, UK","FM-15","EGWC ","V020","170,1,N,0026,1","22000,1,9,N","011265,1,N,1","+0180,1","+0090,1","99999,9","04,5,+00750,1,99,9",,,"04,99,1,99,9,99,9,99999,9,99,9,99,9","10261,1,99999,9",,,,"MET055METAR EGWC 060950Z 17005KT 9999 SCT025 18/09 Q1026 BLU;",
"03414599999","2010-07-06T10:50:00","4","52.640028","-2.305578","82.9","COSFORD, UK","FM-15","EGWC ","V020","230,1,N,0041,1","22000,1,9,N","011265,1,N,1","+0190,1","+0090,1","99999,9","04,5,+00750,1,99,9",,,"04,99,1,99,9,99,9,99999,9,99,9,99,9","10251,1,99999,9",,,,"MET055METAR EGWC 061050Z 23008KT 9999 SCT025 19/09 Q1025 BLU;",
"03414599999","2010-07-06T11:50:00","4","52.640028","-2.305578","82.9","COSFORD, UK","FM-15","EGWC ","V020","230,1,N,0041,1","22000,1,9,N","011265,1,N,1","+0200,1","+0070,1","99999,9","04,5,+01050,1,99,9",,,"04,99,1,99,9,99,9,99999,9,99,9,99,9","10251,1,99999,9",,,,"MET055METAR EGWC 061150Z 23008KT 9999 SCT035 20/07 Q1025 BLU;",
"03414599999","2010-07-06T12:50:00","4","52.640028","-2.305578","82.9","COSFORD, UK","FM-15","EGWC ","V020","190,1,N,0041,1","22000,1,9,N","011265,1,N,1","+0200,1","+0070,1","99999,9","04,5,+01050,1,99,9",,,"04,99,1,99,9,99,9,99999,9,99,9,99,9","10240,1,99999,9",,,,"MET055METAR EGWC 061250Z 19008KT 9999 SCT035 20/07 Q1024 BLU;",
"03414599999","2010-07-06T13:50:00","4","52.640028","-2.305578","82.9","COSFORD, UK","FM-15","EGWC ","V020","210,1,N,0072,1","01050,1,C,N","011265,1,N,1","+0210,1","+0100,1","99999,9","07,5,+01050,1,99,9",,,"07,99,1,99,9,99,9,99999,9,99,9,99,9","10240,1,99999,9",,,,"MET055METAR EGWC 061350Z 21014KT 9999 BKN035 21/10 Q1024 BLU;",
"03414599999","2010-07-06T14:50:00","4","52.640028","-2.305578","82.9","COSFORD, UK","FM-15","EGWC ","V020","240,1,N,0062,1","22000,1,9,N","011265,1,N,1","+0210,1","+0100,1","99999,9","04,5,+01050,1,99,9",,,"04,99,1,99,9,99,9,99999,9,99,9,99,9","10220,1,99999,9",,,,"MET055METAR EGWC 061450Z 24012KT 9999 SCT035 21/10 Q1022 BLU;",
"03414599999","2010-07-06T15:50:00","4","52.640028","-2.305578","82.9","COSFORD, UK","FM-15","EGWC ","V020","240,1,N,0051,1","22000,1,9,N","011265,1,N,1","+0210,1","+0100,1","99999,9","04,5,+01050,1,99,9",,,"04,99,1,99,9,99,9,99999,9,99,9,99,9","10220,1,99999,9",,,,"MET055METAR EGWC 061550Z 24010KT 9999 SCT035 21/10 Q1022 BLU;",
"03414599999","2010-07-07T07:50:00","4","52.640028","-2.305578","82.9","COSFORD, UK","FM-15","EGWC ","V020","180,1,N,0062,1","00600,1,C,N","011265,1,N,1","+0190,1","+0150,1","99999,9","04,5,+00540,1,99,9","07,5,+00600,1,99,9",,"07,99,1,99,9,99,9,99999,9,99,9,99,9","10169,1,99999,9",,,,"MET062METAR EGWC 070750Z 18012KT 9999 SCT018 BKN020 19/15 Q1017 WHT;",
"03414599999","2010-07-07T08:50:00","4","52.640028","-2.305578","82.9","COSFORD, UK","FM-15","EGWC ","V020","180,1,N,0062,1","00690,1,C,N","011265,1,N,1","+0200,1","+0150,1","99999,9","04,5,+00540,1,99,9","07,5,+00690,1,99,9",,"07,99,1,99,9,99,9,99999,9,99,9,99,9","10169,1,99999,9",,,,"MET062METAR EGWC 070850Z 18012KT 9999 SCT018 BKN023 20/15 Q1017 WHT;",
"03414599999","2010-07-07T09:50:00","4","52.640028","-2.305578","82.9","COSFORD, UK","FM-15","EGWC ","V020","180,1,N,0062,1","00690,1,C,N","011265,1,N,1","+0210,1","+0150,1","99999,9","04,5,+00540,1,99,9","07,5,+00690,1,99,9",,"07,99,1,99,9,99,9,99999,9,99,9,99,9","10169,1,99999,9",,,,"MET062METAR EGWC 070950Z 18012KT 9999 SCT018 BKN023 21/15 Q1017 WHT;",
"03414599999","2010-07-07T10:50:00","4","52.640028","-2.305578","82.9","COSFORD, UK","FM-15","EGWC ","V020","210,1,N,0077,1","00690,1,C,N","011265,1,N,1","+0210,1","+0140,1","99999,9","04,5,+00540,1,99,9","07,5,+00690,1,99,9",,"07,99,1,99,9,99,9,99999,9,99,9,99,9","10169,1,99999,9",,,,"MET062METAR EGWC 071050Z 21015KT 9999 SCT018 BKN023 21/14 Q1017 WHT;",
"03414599999","2010-07-07T11:50:00","4","52.640028","-2.305578","82.9","COSFORD, UK","FM-15","EGWC ","V020","200,1,N,0067,1","00690,1,C,N","011265,1,N,1","+0220,1","+0140,1","99999,9","07,5,+00690,1,99,9",,,"07,99,1,99,9,99,9,99999,9,99,9,99,9","10169,1,99999,9",,,"0118,1","MET058METAR EGWC 071150Z 20013G23KT 9999 BKN023 22/14 Q1017 WHT;",
"03414599999","2010-07-07T12:50:00","4","52.640028","-2.305578","82.9","COSFORD, UK","FM-15","EGWC ","V020","220,1,N,0077,1","00690,1,C,N","011265,1,N,1","+0210,1","+0140,1","99999,9","07,5,+00690,1,99,9",,,"07,99,1,99,9,99,9,99999,9,99,9,99,9","10159,1,99999,9",,,,"MET055METAR EGWC 071250Z 22015KT 9999 BKN023 21/14 Q1016 WHT;",
"03414599999","2010-07-07T13:50:00","4","52.640028","-2.305578","82.9","COSFORD, UK","FM-15","EGWC ","V020","210,1,N,0077,1","00690,1,C,N","011265,1,N,1","+0210,1","+0120,1","99999,9","07,5,+00690,1,99,9",,,"07,99,1,99,9,99,9,99999,9,99,9,99,9","10159,1,99999,9",,,,"MET055METAR EGWC 071350Z 21015KT 9999 BKN023 21/12 Q1016 WHT;",
"03414599999","2010-07-07T14:50:00","4","52.640028","-2.305578","82.9","COSFORD, UK","FM-15","EGWC ","V020","210,1,N,0077,1","00690,1,C,N","011265,1,N,1","+0210,1","+0150,1","99999,9","07,5,+00690,1,99,9",,,"07,99,1,99,9,99,9,99999,9,99,9,99,9","10159,1,99999,9",,,,"MET055METAR EGWC 071450Z 21015KT 9999 BKN023 21/15 Q1016 WHT;",
"03414599999","2010-07-08T06:50:00","4","52.640028","-2.305578","82.9","COSFORD, UK","FM-15","EGWC ","V020","230,1,N,0041,1","02700,1,C,N","011265,1,N,1","+0140,1","+0100,1","99999,9","04,5,+00540,1,99,9","07,5,+02700,1,99,9",,"07,99,1,99,9,99,9,99999,9,99,9,99,9","10180,1,99999,9",,,,"MET058METAR EGWC 080650Z 23008KT 9999 SCT018 BKN090 14/10 Q1018;",
"03414599999","2010-07-08T07:50:00","4","52.640028","-2.305578","82.9","COSFORD, UK","FM-15","EGWC ","V020","220,1,N,0041,1","02700,1,C,N","011265,1,N,1","+0150,1","+0100,1","99999,9","02,5,+00600,1,99,9","07,5,+02700,1,99,9",,"07,99,1,99,9,99,9,99999,9,99,9,99,9","10180,1,99999,9",,,,"MET062METAR EGWC 080750Z 22008KT 9999 FEW020 BKN090 15/10 Q1018 BLU;",
"03414599999","2010-07-08T08:50:00","4","52.640028","-2.305578","82.9","COSFORD, UK","FM-15","EGWC ","V020","200,1,N,0031,1","02700,1,C,N","011265,1,N,1","+0160,1","+0090,1","99999,9","02,5,+00600,1,99,9","07,5,+02700,1,99,9",,"07,99,1,99,9,99,9,99999,9,99,9,99,9","10190,1,99999,9",,,,"MET062METAR EGWC 080850Z 20006KT 9999 FEW020 BKN090 16/09 Q1019 BLU;",
"03414599999","2010-07-08T09:50:00","4","52.640028","-2.305578","82.9","COSFORD, UK","FM-15","EGWC ","V020","220,1,N,0036,1","22000,1,9,N","011265,1,N,1","+0170,1","+0100,1","99999,9","04,5,+00750,1,99,9",,,"04,99,1,99,9,99,9,99999,9,99,9,99,9","10190,1,99999,9",,,,"MET055METAR EGWC 080950Z 22007KT 9999 SCT025 17/10 Q1019 BLU;",
"03414599999","2010-07-08T10:50:00","4","52.640028","-2.305578","82.9","COSFORD, UK","FM-15","EGWC ","V020","210,1,N,0041,1","00750,1,C,N","011265,1,N,1","+0180,1","+0100,1","99999,9","07,5,+00750,1,99,9",,,"07,99,1,99,9,99,9,99999,9,99,9,99,9","10180,1,99999,9",,,,"MET055METAR EGWC 081050Z 21008KT 9999 BKN025 18/10 Q1018 BLU;",
"03414599999","2010-07-08T11:50:00","4","52.640028","-2.305578","82.9","COSFORD, UK","FM-15","EGWC ","V020","220,1,N,0041,1","00840,1,C,N","011265,1,N,1","+0200,1","+0100,1","99999,9","07,5,+00840,1,99,9",,,"07,99,1,99,9,99,9,99999,9,99,9,99,9","10180,1,99999,9",,,,"MET055METAR EGWC 081150Z 22008KT 9999 BKN028 20/10 Q1018 BLU;",
"03414599999","2010-07-08T12:50:00","4","52.640028","-2.305578","82.9","COSFORD, UK","FM-15","EGWC ","V020","210,1,N,0072,1","01050,1,C,N","011265,1,N,1","+0210,1","+0100,1","99999,9","07,5,+01050,1,99,9",,,"07,99,1,99,9,99,9,99999,9,99,9,99,9","10180,1,99999,9",,,,"MET055METAR EGWC 081250Z 21014KT 9999 BKN035 21/10 Q1018 BLU;",
"03414599999","2010-07-08T13:50:00","4","52.640028","-2.305578","82.9","COSFORD, UK","FM-15","EGWC ","V020","230,1,N,0051,1","01050,1,C,N","011265,1,N,1","+0220,1","+0100,1","99999,9","07,5,+01050,1,99,9",,,"07,99,1,99,9,99,9,99999,9,99,9,99,9","10180,1,99999,9",,,,"MET055METAR EGWC 081350Z 23010KT 9999 BKN035 22/10 Q1018 BLU;",
"03414599999","2010-07-08T14:50:00","4","52.640028","-2.305578","82.9","COSFORD, UK","FM-15","EGWC ","V020","210,1,N,0051,1","22000,1,9,N","011265,1,N,1","+0210,1","+0110,1","99999,9","04,5,+01050,1,99,9",,,"04,99,1,99,9,99,9,99999,9,99,9,99,9","10180,1,99999,9",,,,"MET055METAR EGWC 081450Z 21010KT 9999 SCT035 21/11 Q1018 BLU;",
"03414599999","2010-07-09T07:50:00","4","52.640028","-2.305578","82.9","COSFORD, UK","FM-15","EGWC ","V020","210,1,N,0051,1","99999,9,9,Y","009900,1,N,1","+0170,1","+0130,1","99999,9",,,,,"10159,1,99999,9",,,,"MET049METAR EGWC 090750Z 21010KT CAVOK 17/13 Q1016 BLU;",
"03414599999","2010-07-09T08:50:00","4","52.640028","-2.305578","82.9","COSFORD, UK","FM-15","EGWC ","V020","170,1,N,0051,1","99999,9,9,Y","009900,1,N,1","+0190,1","+0120,1","99999,9",,,,,"10159,1,99999,9",,,,"MET049METAR EGWC 090850Z 17010KT CAVOK 19/12 Q1016 BLU;",
"03414599999","2010-07-09T09:50:00","4","52.640028","-2.305578","82.9","COSFORD, UK","FM-15","EGWC ","V020","180,1,N,0077,1","22000,1,9,N","011265,1,N,1","+0210,1","+0140,1","99999,9","04,5,+00900,1,99,9",,,"04,99,1,99,9,99,9,99999,9,99,9,99,9","10159,1,99999,9",,,,"MET055METAR EGWC 090950Z 18015KT 9999 SCT030 21/14 Q1016 BLU;",
"03414599999","2010-07-09T10:50:00","4","52.640028","-2.305578","82.9","COSFORD, UK","FM-15","EGWC ","V020","210,1,N,0051,1","22000,1,9,N","011265,1,N,1","+0230,1","+0150,1","99999,9","04,5,+00900,1,99,9",,,"04,99,1,99,9,99,9,99999,9,99,9,99,9","10159,1,99999,9",,,,"MET055METAR EGWC 091050Z 21010KT 9999 SCT030 23/15 Q1016 BLU;",
"03414599999","2010-07-09T11:50:00","4","52.640028","-2.305578","82.9","COSFORD, UK","FM-15","EGWC ","V020","210,1,N,0051,1","01050,1,C,N","011265,1,N,1","+0240,1","+0150,1","99999,9","07,5,+01050,1,99,9",,,"07,99,1,99,9,99,9,99999,9,99,9,99,9","10159,1,99999,9",,,,"MET055METAR EGWC 091150Z 21010KT 9999 BKN035 24/15 Q1016 BLU;",
"03414599999","2010-07-12T07:50:00","4","52.640028","-2.305578","82.9","COSFORD, UK","FM-15","EGWC ","V020","350,1,N,0031,1","01050,1,C,N","011265,1,N,1","+0140,1","+0110,1","99999,9","07,5,+01050,1,99,9",,,"07,99,1,99,9,99,9,99999,9,99,9,99,9","10139,1,99999,9","61,1",,,"MET059METAR EGWC 120750Z 35006KT 9999 -RA BKN035 14/11 Q1014 BLU;",
"03414599999","2010-07-12T08:50:00","4","52.640028","-2.305578","82.9","COSFORD, UK","FM-15","EGWC ","V020","010,1,N,0041,1","01050,1,C,N","008000,1,N,1","+0130,1","+0120,1","99999,9","07,5,+01050,1,99,9",,,"07,99,1,99,9,99,9,99999,9,99,9,99,9","10139,1,99999,9","63,1",,,"MET058METAR EGWC 120850Z 01008KT 8000 RA BKN035 13/12 Q1014 BLU;",
"03414599999","2010-07-12T09:50:00","4","52.640028","-2.305578","82.9","COSFORD, UK","FM-15","EGWC ","V020","030,1,N,0041,1","01050,1,C,N","008000,1,N,1","+0140,1","+0120,1","99999,9","07,5,+01050,1,99,9",,,"07,99,1,99,9,99,9,99999,9,99,9,99,9","10139,1,99999,9","63,1",,,"MET058METAR EGWC 120950Z 03008KT 8000 RA BKN035 14/12 Q1014 BLU;",
"03414599999","2010-07-12T10:50:00","4","52.640028","-2.305578","82.9","COSFORD, UK","FM-15","EGWC ","V020","030,1,N,0041,1","99999,9,C,N","008000,1,N,1","+0140,1","+0130,1","99999,9","04,5,+00300,1,99,9","04,5,+00750,1,99,9",,"04,99,1,99,9,99,9,99999,9,99,9,99,9","10139,1,99999,9","16,1",,,"MET067METAR EGWC 121050Z 03008KT 8000 VCSH SCT010 SCT025 14/13 Q1014 GRN;","P01 007503SCOCIG"
"03414599999","2010-07-12T11:50:00","4","52.640028","-2.305578","82.9","COSFORD, UK","FM-15","EGWC ","V020","030,1,N,0041,1","00750,1,C,N","008000,1,N,1","+0140,1","+0130,1","99999,9","04,5,+00300,1,99,9","07,5,+00750,1,99,9",,"07,99,1,99,9,99,9,99999,9,99,9,99,9","10129,1,99999,9","61,1",,,"MET066METAR EGWC 121150Z 03008KT 8000 -RA SCT010 BKN025 14/13 Q1013 GRN;",
"03414599999","2010-07-12T12:50:00","4","52.640028","-2.305578","82.9","COSFORD, UK","FM-15","EGWC ","V020","020,1,N,0041,1","00600,1,C,N","008000,1,N,1","+0140,1","+0120,1","99999,9","04,5,+00300,1,99,9","08,5,+00600,1,99,9",,"08,99,1,99,9,99,9,99999,9,99,9,99,9","10139,1,99999,9","61,1",,,"MET066METAR EGWC 121250Z 02008KT 8000 -RA SCT010 OVC020 14/12 Q1014 GRN;",
"03414599999","2010-07-12T13:50:00","4","52.640028","-2.305578","82.9","COSFORD, UK","FM-15","EGWC ","V020","030,1,N,0051,1","00600,1,C,N","008000,1,N,1","+0140,1","+0130,1","99999,9","04,5,+00240,1,99,9","08,5,+00600,1,99,9",,"08,99,1,99,9,99,9,99999,9,99,9,99,9","10129,1,99999,9","16,1",,,"MET067METAR EGWC 121350Z 03010KT 8000 VCSH SCT008 OVC020 14/13 Q1013 GRN;",
"03414599999","2010-07-12T14:50:00","4","52.640028","-2.305578","82.9","COSFORD, UK","FM-15","EGWC ","V020","020,1,N,0031,1","00600,1,C,N","011265,1,N,1","+0140,1","+0120,1","99999,9","04,5,+00240,1,99,9","08,5,+00600,1,99,9",,"08,99,1,99,9,99,9,99999,9,99,9,99,9","10129,1,99999,9",,,,"MET062METAR EGWC 121450Z 02006KT 9999 SCT008 OVC020 14/12 Q1013 GRN;",
"03414599999","2010-07-12T15:50:00","4","52.640028","-2.305578","82.9","COSFORD, UK","FM-15","EGWC ","V020","030,1,N,0041,1","00600,1,C,N","011265,1,N,1","+0140,1","+0120,1","99999,9","04,5,+00270,1,99,9","07,5,+00600,1,99,9",,"07,99,1,99,9,99,9,99999,9,99,9,99,9","10129,1,99999,9",,,,"MET062METAR EGWC 121550Z 03008KT 9999 SCT009 BKN020 14/12 Q1013 GRN;",
"03414599999","2010-07-13T06:50:00","4","52.640028","-2.305578","82.9","COSFORD, UK","FM-15","EGWC ","V020","080,1,N,0051,1","00300,1,C,N","011265,1,N,1","+0130,1","+0110,1","99999,9","07,5,+00300,1,99,9",,,"07,99,1,99,9,99,9,99999,9,99,9,99,9","10108,1,99999,9",,,,"MET055METAR EGWC 130650Z 08010KT 9999 BKN010 13/11 Q1011 GRN;",
"03414599999","2010-07-13T07:50:00","4","52.640028","-2.305578","82.9","COSFORD, UK","FM-15","EGWC ","V020","100,1,N,0041,1","00300,1,C,N","011265,1,N,1","+0140,1","+0110,1","99999,9","07,5,+00300,1,99,9",,,"07,99,1,99,9,99,9,99999,9,99,9,99,9","10108,1,99999,9",,,,"MET055METAR EGWC 130750Z 10008KT 9999 BKN010 14/11 Q1011 GRN;",
"03414599999","2010-07-13T08:50:00","4","52.640028","-2.305578","82.9","COSFORD, UK","FM-15","EGWC ","V020","100,1,N,0041,1","00750,1,C,N","011265,1,N,1","+0150,1","+0110,1","99999,9","04,5,+00450,1,99,9","07,5,+00750,1,99,9",,"07,99,1,99,9,99,9,99999,9,99,9,99,9","10102,1,99999,9",,,,"MET062METAR EGWC 130850Z 10008KT 9999 SCT015 BKN025 15/11 Q1010 WHT;",
"03414599999","2010-07-13T09:50:00","4","52.640028","-2.305578","82.9","COSFORD, UK","FM-15","EGWC ","V020","070,1,N,0051,1","00750,1,C,N","011265,1,N,1","+0150,1","+0110,1","99999,9","04,5,+00540,1,99,9","07,5,+00750,1,99,9",,"07,99,1,99,9,99,9,99999,9,99,9,99,9","10102,1,99999,9",,,,"MET062METAR EGWC 130950Z 07010KT 9999 SCT018 BKN025 15/11 Q1010 WHT;",
"03414599999","2010-07-13T10:50:00","4","52.640028","-2.305578","82.9","COSFORD, UK","FM-15","EGWC ","V020","080,1,N,0062,1","00750,1,C,N","011265,1,N,1","+0160,1","+0120,1","99999,9","04,5,+00540,1,99,9","07,5,+00750,1,99,9",,"07,99,1,99,9,99,9,99999,9,99,9,99,9","10091,1,99999,9",,,,"MET062METAR EGWC 131050Z 08012KT 9999 SCT018 BKN025 16/12 Q1009 WHT;",
"03414599999","2010-07-13T11:50:00","4","52.640028","-2.305578","82.9","COSFORD, UK","FM-15","EGWC ","V020","090,1,N,0051,1","00750,1,C,N","011265,1,N,1","+0160,1","+0110,1","99999,9","04,5,+00540,1,99,9","07,5,+00750,1,99,9",,"07,99,1,99,9,99,9,99999,9,99,9,99,9","10091,1,99999,9",,,,"MET062METAR EGWC 131150Z 09010KT 9999 SCT018 BKN025 16/11 Q1009 WHT;",
"03414599999","2010-07-13T12:50:00","4","52.640028","-2.305578","82.9","COSFORD, UK","FM-15","EGWC ","V020","080,1,N,0041,1","00450,1,C,N","006000,1,N,1","+0160,1","+0120,1","99999,9","07,5,+00450,1,99,9",,,"07,99,1,99,9,99,9,99999,9,99,9,99,9","10091,1,99999,9","61,1",,,"MET059METAR EGWC 131250Z 08008KT 6000 -RA BKN015 16/12 Q1009 WHT;",
"03414599999","2010-07-13T13:50:00","4","52.640028","-2.305578","82.9","COSFORD, UK","FM-15","EGWC ","V020","080,1,N,0041,1","00300,1,C,N","003000,1,N,1","+0150,1","+0140,1","99999,9","07,5,+00300,1,99,9",,,"07,99,1,99,9,99,9,99999,9,99,9,99,9","10081,1,99999,9","63,1",,,"MET059METAR EGWC 131350Z 08008KT 3000 RA BKN010 15/14 Q1008 YLO1;",
"03414599999","2010-07-14T07:50:00","4","52.640028","-2.305578","82.9","COSFORD, UK","FM-15","EGWC ","V020","150,1,N,0051,1","00360,1,C,N","011265,1,N,1","+0170,1","+0140,1","99999,9","02,5,+00240,1,99,9","07,5,+00360,1,99,9",,"07,99,1,99,9,99,9,99999,9,99,9,99,9","10020,1,99999,9",,,,"MET062METAR EGWC 140750Z 15010KT 9999 FEW008 BKN012 17/14 Q1002 GRN;",
"03414599999","2010-07-14T08:50:00","4","52.640028","-2.305578","82.9","COSFORD, UK","FM-15","EGWC ","V020","160,1,N,0041,1","00420,1,C,N","011265,1,N,1","+0170,1","+0140,1","99999,9","02,5,+00210,1,99,9","07,5,+00420,1,99,9",,"07,99,1,99,9,99,9,99999,9,99,9,99,9","10010,1,99999,9","16,1",,,"MET067METAR EGWC 140850Z 16008KT 9999 VCSH FEW007 BKN014 17/14 Q1001 GRN;",
"03414599999","2010-07-14T09:50:00","4","52.640028","-2.305578","82.9","COSFORD, UK","FM-15","EGWC ","V020","160,1,N,0051,1","00450,1,C,N","011265,1,N,1","+0180,1","+0140,1","99999,9","02,5,+00240,1,99,9","07,5,+00450,1,99,9",,"07,99,1,99,9,99,9,99999,9,99,9,99,9","10010,1,99999,9","61,1",,,"MET066METAR EGWC 140950Z 16010KT 9999 -RA FEW008 BKN015 18/14 Q1001 WHT;",
"03414599999","2010-07-14T10:00:00","4","52.640028","-2.305578","82.9","COSFORD, UK","FM-15","EGWC ","V020","160,1,N,0051,1","00300,1,C,N","002000,1,N,1","+0180,1","+0140,1","99999,9","08,5,+00300,1,99,9",,,"08,99,1,99,9,99,9,99999,9,99,9,99,9","10010,1,99999,9","65,1",,,"MET060METAR EGWC 141000Z 16010KT 2000 +RA OVC010 18/14 Q1001 YLO2;",
"03414599999","2010-07-14T10:50:00","4","52.640028","-2.305578","82.9","COSFORD, UK","FM-15","EGWC ","V020","150,1,N,0051,1","00450,1,C,N","005000,1,N,1","+0170,1","+0150,1","99999,9","02,5,+00270,1,99,9","07,5,+00450,1,99,9",,"07,99,1,99,9,99,9,99999,9,99,9,99,9","10010,1,99999,9","16,1",,,"MET067METAR EGWC 141050Z 15010KT 5000 VCSH FEW009 BKN015 17/15 Q1001 WHT;",
"03414599999","2010-07-14T11:50:00","4","52.640028","-2.305578","82.9","COSFORD, UK","FM-15","EGWC ","V020","120,1,N,0077,1","00450,1,C,N","011265,1,N,1","+0190,1","+0130,1","99999,9","07,5,+00450,1,99,9",,,"07,99,1,99,9,99,9,99999,9,99,9,99,9","10000,1,99999,9",,,,"MET055METAR EGWC 141150Z 12015KT 9999 BKN015 19/13 Q1000 WHT;",
"03414599999","2010-07-14T12:50:00","4","52.640028","-2.305578","82.9","COSFORD, UK","FM-15","EGWC ","V020","150,1,N,0077,1","00600,1,C,N","011265,1,N,1","+0200,1","+0150,1","99999,9","07,5,+00600,1,99,9",,,"07,99,1,99,9,99,9,99999,9,99,9,99,9","09990,1,99999,9","16,1",,,"MET060METAR EGWC 141250Z 15015KT 9999 VCSH BKN020 20/15 Q0999 WHT;",
"03414599999","2010-07-14T13:50:00","4","52.640028","-2.305578","82.9","COSFORD, UK","FM-15","EGWC ","V020","150,1,N,0051,1","00750,1,C,N","011265,1,N,1","+0210,1","+0140,1","99999,9","07,5,+00750,1,99,9",,,"07,99,1,99,9,99,9,99999,9,99,9,99,9","09990,1,99999,9",,,,"MET055METAR EGWC 141350Z 15010KT 9999 BKN025 21/14 Q0999 BLU;",
"03414599999","2010-07-14T14:50:00","4","52.640028","-2.305578","82.9","COSFORD, UK","FM-15","EGWC ","V020","150,1,N,0077,1","22000,1,9,N","011265,1,N,1","+0210,1","+0140,1","99999,9","04,5,+00750,1,99,9",,,"04,99,1,99,9,99,9,99999,9,99,9,99,9","09980,1,99999,9",,,,"MET055METAR EGWC 141450Z 15015KT 9999 SCT025 21/14 Q0998 BLU;",
"03414599999","2010-07-15T07:50:00","4","52.640028","-2.305578","82.9","COSFORD, UK","FM-15","EGWC ","V020","200,1,N,0062,1","99999,9,C,N","011265,1,N,1","+0160,1","+0140,1","99999,9","02,5,+00360,1,99,9","04,5,+00750,1,99,9",,"04,99,1,99,9,99,9,99999,9,99,9,99,9","09980,1,99999,9",,,,"MET062METAR EGWC 150750Z 20012KT 9999 FEW012 SCT025 16/14 Q0998 BLU;","P01 007503SCOCIG"
"03414599999","2010-07-15T08:50:00","4","52.640028","-2.305578","82.9","COSFORD, UK","FM-15","EGWC ","V020","210,1,N,0077,1","99999,9,C,N","011265,1,N,1","+0170,1","+0140,1","99999,9","02,5,+00450,1,99,9","04,5,+00900,1,99,9",,"04,99,1,99,9,99,9,99999,9,99,9,99,9","09980,1,99999,9",,,,"MET062METAR EGWC 150850Z 21015KT 9999 FEW015 SCT030 17/14 Q0998 BLU;","P01 009003SCOCIG"
"03414599999","2010-07-15T09:50:00","4","52.640028","-2.305578","82.9","COSFORD, UK","FM-15","EGWC ","V020","210,1,N,0077,1","99999,9,C,N","011265,1,N,1","+0180,1","+0130,1","99999,9","02,5,+00630,1,99,9","04,5,+00900,1,99,9",,"04,99,1,99,9,99,9,99999,9,99,9,99,9","09990,1,99999,9",,,,"MET062METAR EGWC 150950Z 21015KT 9999 FEW021 SCT030 18/13 Q0999 BLU;","P01 009003SCOCIG"
"03414599999","2010-07-15T10:50:00","4","52.640028","-2.305578","82.9","COSFORD, UK","FM-15","EGWC ","V020","210,1,N,0077,1","99999,9,C,N","011265,1,N,1","+0200,1","+0120,1","99999,9","02,5,+00630,1,99,9","04,5,+01050,1,99,9",,"04,99,1,99,9,99,9,99999,9,99,9,99,9","10000,1,99999,9",,,,"MET062METAR EGWC 151050Z 21015KT 9999 FEW021 SCT035 20/12 Q1000 BLU;","P01 010503SCOCIG"
"03414599999","2010-07-15T11:50:00","4","52.640028","-2.305578","82.9","COSFORD, UK","FM-15","EGWC ","V020","210,1,N,0093,1","00660,1,C,N","011265,1,N,1","+0200,1","+0120,1","99999,9","02,5,+00360,1,99,9","04,5,+00660,1,99,9","07,5,+01050,1,99,9","07,99,1,99,9,99,9,99999,9,99,9,99,9","10010,1,99999,9","80,1",,"0144,1","MET078METAR EGWC 151150Z 21018G28KT 9999 -SHRA FEW012 SCT022 BKN035 20/12 Q1001 WHT;",
"03414599999","2010-07-15T12:50:00","4","52.640028","-2.305578","82.9","COSFORD, UK","FM-15","EGWC ","V020","210,1,N,0077,1","99999,9,C,N","011265,1,N,1","+0180,1","+0130,1","99999,9","02,5,+00660,1,99,9","04,5,+01050,1,99,9",,"04,99,1,99,9,99,9,99999,9,99,9,99,9","10020,1,99999,9",,,,"MET062METAR EGWC 151250Z 21015KT 9999 FEW022 SCT035 18/13 Q1002 BLU;","P01 010503SCOCIG"
"03414599999","2010-07-15T13:50:00","4","52.640028","-2.305578","82.9","COSFORD, UK","FM-15","EGWC ","V020","220,1,N,0067,1","99999,9,C,N","011265,1,N,1","+0180,1","+0130,1","99999,9","04,5,+00750,1,99,9","04,5,+01200,1,99,9",,"04,99,1,99,9,99,9,99999,9,99,9,99,9","10031,1,99999,9","16,1",,,"MET067METAR EGWC 151350Z 22013KT 9999 VCSH SCT025 SCT040 18/13 Q1003 BLU;","P01 012003SCOCIG"
"03414599999","2010-07-16T07:50:00","4","52.640028","-2.305578","82.9","COSFORD, UK","FM-15","EGWC ","V020","190,1,N,0077,1","99999,9,C,N","011265,1,N,1","+0150,1","+0110,1","99999,9","02,5,+00480,1,99,9","04,5,+00750,1,99,9",,"04,99,1,99,9,99,9,99999,9,99,9,99,9","10031,1,99999,9","61,1",,,"MET066METAR EGWC 160750Z 19015KT 9999 -RA FEW016 SCT025 15/11 Q1003 BLU;","P01 007503SCOCIG"
"03414599999","2010-07-16T08:50:00","4","52.640028","-2.305578","82.9","COSFORD, UK","FM-15","EGWC ","V020","190,1,N,0077,1","99999,9,C,N","011265,1,N,1","+0150,1","+0110,1","99999,9","04,5,+00480,1,99,9","04,5,+00750,1,99,9",,"04,99,1,99,9,99,9,99999,9,99,9,99,9","10031,1,99999,9","61,1",,,"MET066METAR EGWC 160850Z 19015KT 9999 -RA SCT016 SCT025 15/11 Q1003 WHT;","P01 007503SCOCIG"
"03414599999","2010-07-16T09:50:00","4","52.640028","-2.305578","82.9","COSFORD, UK","FM-15","EGWC ","V020","210,1,N,0103,1","99999,9,C,N","011265,1,N,1","+0170,1","+0120,1","99999,9","02,5,+00480,1,99,9","04,5,+00750,1,99,9",,"04,99,1,99,9,99,9,99999,9,99,9,99,9","10041,1,99999,9","16,1",,,"MET067METAR EGWC 160950Z 21020KT 9999 VCSH FEW016 SCT025 17/12 Q1004 BLU;","P01 007503SCOCIG"
"03414599999","2010-07-16T10:50:00","4","52.640028","-2.305578","82.9","COSFORD, UK","FM-15","EGWC ","V020","210,1,N,0077,1","99999,9,C,N","011265,1,N,1","+0170,1","+0110,1","99999,9","02,5,+00480,1,99,9","04,5,+00750,1,99,9",,"04,99,1,99,9,99,9,99999,9,99,9,99,9","10051,1,99999,9",,,,"MET062METAR EGWC 161050Z 21015KT 9999 FEW016 SCT025 17/11 Q1005 BLU;","P01 007503SCOCIG"
"03414599999","2010-07-16T11:50:00","4","52.640028","-2.305578","82.9","COSFORD, UK","FM-15","EGWC ","V020","210,1,N,0077,1","22000,1,9,N","011265,1,N,1","+0190,1","+0110,1","99999,9","04,5,+00750,1,99,9",,,"04,99,1,99,9,99,9,99999,9,99,9,99,9","10051,1,99999,9",,,"0129,1","MET058METAR EGWC 161150Z 21015G25KT 9999 SCT025 19/11 Q1005 BLU;",
"03414599999","2010-07-16T12:50:00","4","52.640028","-2.305578","82.9","COSFORD, UK","FM-15","EGWC ","V020","210,1,N,0093,1","22000,1,9,N","011265,1,N,1","+0190,1","+0110,1","99999,9","04,5,+00750,1,99,9",,,"04,99,1,99,9,99,9,99999,9,99,9,99,9","10051,1,99999,9",,,,"MET055METAR EGWC 161250Z 21018KT 9999 SCT025 19/11 Q1005 BLU;",
"03414599999","2010-07-19T07:50:00","4","52.640028","-2.305578","82.9","COSFORD, UK","FM-15","EGWC ","V020","190,1,N,0051,1","99999,9,C,N","011265,1,N,1","+0170,1","+0140,1","99999,9","02,5,+00450,1,99,9","04,5,+03000,1,99,9",,"04,99,1,99,9,99,9,99999,9,99,9,99,9","10210,1,99999,9",,,,"MET062METAR EGWC 190750Z 19010KT 9999 FEW015 SCT100 17/14 Q1021 BLU;","P01 030003SCOCIG"
"03414599999","2010-07-19T08:50:00","4","52.640028","-2.305578","82.9","COSFORD, UK","FM-15","EGWC ","V020","170,1,N,0051,1","99999,9,C,N","011265,1,N,1","+0190,1","+0140,1","99999,9","02,5,+00450,1,99,9","04,5,+03000,1,99,9",,"04,99,1,99,9,99,9,99999,9,99,9,99,9","10210,1,99999,9",,,,"MET062METAR EGWC 190850Z 17010KT 9999 FEW015 SCT100 19/14 Q1021 BLU;","P01 030003SCOCIG"
"03414599999","2010-07-19T09:50:00","4","52.640028","-2.305578","82.9","COSFORD, UK","FM-15","EGWC ","V020","210,1,N,0051,1","22000,1,9,N","011265,1,N,1","+0200,1","+0140,1","99999,9","02,5,+00750,1,99,9",,,"02,99,1,99,9,99,9,99999,9,99,9,99,9","10210,1,99999,9",,,,"MET055METAR EGWC 190950Z 21010KT 9999 FEW025 20/14 Q1021 BLU;",
"03414599999","2010-07-19T10:50:00","4","52.640028","-2.305578","82.9","COSFORD, UK","FM-15","EGWC ","V020","200,1,N,0051,1","22000,1,9,N","011265,1,N,1","+0210,1","+0140,1","99999,9","02,5,+00750,1,99,9",,,"02,99,1,99,9,99,9,99999,9,99,9,99,9","10200,1,99999,9",,,,"MET055METAR EGWC 191050Z 20010KT 9999 FEW025 21/14 Q1020 BLU;",
"03414599999","2010-07-19T11:50:00","4","52.640028","-2.305578","82.9","COSFORD, UK","FM-15","EGWC ","V020","210,1,N,0062,1","22000,1,9,N","011265,1,N,1","+0230,1","+0130,1","99999,9","02,5,+00840,1,99,9",,,"02,99,1,99,9,99,9,99999,9,99,9,99,9","10190,1,99999,9",,,,"MET055METAR EGWC 191150Z 21012KT 9999 FEW028 23/13 Q1019 BLU;",
"03414599999","2010-07-19T12:50:00","4","52.640028","-2.305578","82.9","COSFORD, UK","FM-15","EGWC ","V020","200,1,N,0077,1","22000,1,9,N","011265,1,N,1","+0240,1","+0130,1","99999,9","02,5,+00900,1,99,9",,,"02,99,1,99,9,99,9,99999,9,99,9,99,9","10190,1,99999,9",,,,"MET055METAR EGWC 191250Z 20015KT 9999 FEW030 24/13 Q1019 BLU;",
"03414599999","2010-07-20T08:50:00","4","52.640028","-2.305578","82.9","COSFORD, UK","FM-15","EGWC ","V020","180,1,N,0041,1","00450,1,C,N","011265,1,N,1","+0180,1","+0160,1","99999,9","07,5,+00450,1,99,9",,,"07,99,1,99,9,99,9,99999,9,99,9,99,9","10119,1,99999,9","61,1",,,"MET059METAR EGWC 200850Z 18008KT 9999 -RA BKN015 18/16 Q1012 WHT;",
"03414599999","2010-07-20T09:50:00","4","52.640028","-2.305578","82.9","COSFORD, UK","FM-15","EGWC ","V020","160,1,N,0031,1","00300,1,C,N","011265,1,N,1","+0180,1","+0160,1","99999,9","07,5,+00300,1,99,9",,,"07,99,1,99,9,99,9,99999,9,99,9,99,9","10119,1,99999,9",,,,"MET055METAR EGWC 200950Z 16006KT 9999 BKN010 18/16 Q1012 GRN;",
"03414599999","2010-07-20T10:50:00","4","52.640028","-2.305578","82.9","COSFORD, UK","FM-15","EGWC ","V020","160,1,N,0031,1","00270,1,C,N","011265,1,N,1","+0200,1","+0160,1","99999,9","07,5,+00270,1,99,9",,,"07,99,1,99,9,99,9,99999,9,99,9,99,9","10108,1,99999,9",,,,"MET055METAR EGWC 201050Z 16006KT 9999 BKN009 20/16 Q1011 GRN;",
"03414599999","2010-07-20T11:50:00","4","52.640028","-2.305578","82.9","COSFORD, UK","FM-15","EGWC ","V020","160,1,N,0031,1","00450,1,C,N","011265,1,N,1","+0200,1","+0170,1","99999,9","07,5,+00450,1,99,9",,,"07,99,1,99,9,99,9,99999,9,99,9,99,9","10102,1,99999,9",,,,"MET055METAR EGWC 201150Z 16006KT 9999 BKN015 20/17 Q1010 WHT;",
"03414599999","2010-07-20T12:50:00","4","52.640028","-2.305578","82.9","COSFORD, UK","FM-15","EGWC ","V020","170,1,N,0051,1","00450,1,C,N","011265,1,N,1","+0210,1","+0170,1","99999,9","02,5,+00300,1,99,9","07,5,+00450,1,99,9",,"07,99,1,99,9,99,9,99999,9,99,9,99,9","10102,1,99999,9",,,,"MET062METAR EGWC 201250Z 17010KT 9999 FEW010 BKN015 21/17 Q1010 WHT;",
"03414599999","2010-07-20T13:50:00","4","52.640028","-2.305578","82.9","COSFORD, UK","FM-15","EGWC ","V020","170,1,N,0041,1","01050,1,C,N","011265,1,N,1","+0210,1","+0170,1","99999,9","04,5,+00450,1,99,9","07,5,+01050,1,99,9",,"07,99,1,99,9,99,9,99999,9,99,9,99,9","10091,1,99999,9",,,,"MET062METAR EGWC 201350Z 17008KT 9999 SCT015 BKN035 21/17 Q1009 WHT;",
"03414599999","2010-07-21T08:50:00","4","52.640028","-2.305578","82.9","COSFORD, UK","FM-15","EGWC ","V020","190,1,N,0031,1","00750,1,C,N","011265,1,N,1","+0170,1","+0110,1","99999,9","02,5,+00600,1,99,9","07,5,+00750,1,99,9",,"07,99,1,99,9,99,9,99999,9,99,9,99,9","10051,1,99999,9",,,,"MET062METAR EGWC 210850Z 19006KT 9999 FEW020 BKN025 17/11 Q1005 BLU;",
"03414599999","2010-07-21T09:50:00","4","52.640028","-2.305578","82.9","COSFORD, UK","FM-15","EGWC ","V020","230,1,N,0062,1","00750,1,C,N","011265,1,N,1","+0170,1","+0120,1","99999,9","07,5,+00750,1,99,9",,,"07,99,1,99,9,99,9,99999,9,99,9,99,9","10051,1,99999,9",,,,"MET055METAR EGWC 210950Z 23012KT 9999 BKN025 17/12 Q1005 BLU;",
"03414599999","2010-07-21T10:50:00","4","52.640028","-2.305578","82.9","COSFORD, UK","FM-15","EGWC ","V020","210,1,N,0041,1","22000,1,9,N","011265,1,N,1","+0180,1","+0110,1","99999,9","04,5,+01050,1,99,9",,,"04,99,1,99,9,99,9,99999,9,99,9,99,9","10051,1,99999,9",,,,"MET055METAR EGWC 211050Z 21008KT 9999 SCT035 18/11 Q1005 BLU;",
"03414599999","2010-07-21T11:50:00","4","52.640028","-2.305578","82.9","COSFORD, UK","FM-15","EGWC ","V020","210,1,N,0041,1","22000,1,9,N","011265,1,N,1","+0190,1","+0110,1","99999,9","04,5,+01050,1,99,9",,,"04,99,1,99,9,99,9,99999,9,99,9,99,9","10051,1,99999,9",,,,"MET055METAR EGWC 211150Z 21008KT 9999 SCT035 19/11 Q1005 BLU;",
"03414599999","2010-07-21T12:50:00","4","52.640028","-2.305578","82.9","COSFORD, UK","FM-15","EGWC ","V020","220,1,N,0051,1","01050,1,C,N","011265,1,N,1","+0180,1","+0110,1","99999,9","07,5,+01050,1,99,9",,,"07,99,1,99,9,99,9,99999,9,99,9,99,9","10051,1,99999,9",,,,"MET055METAR EGWC 211250Z 22010KT 9999 BKN035 18/11 Q1005 BLU;",
"03414599999","2010-07-21T13:50:00","4","52.640028","-2.305578","82.9","COSFORD, UK","FM-15","EGWC ","V020","220,1,N,0051,1","01050,1,C,N","011265,1,N,1","+0200,1","+0100,1","99999,9","07,5,+01050,1,99,9",,,"07,99,1,99,9,99,9,99999,9,99,9,99,9","10051,1,99999,9",,,,"MET055METAR EGWC 211350Z 22010KT 9999 BKN035 20/10 Q1005 BLU;",
"03414599999","2010-07-23T07:50:00","4","52.640028","-2.305578","82.9","COSFORD, UK","FM-15","EGWC ","V020","360,1,N,0026,1","00900,1,C,N","011265,1,N,1","+0130,1","+0100,1","99999,9","04,5,+00450,1,99,9","07,5,+00900,1,99,9",,"07,99,1,99,9,99,9,99999,9,99,9,99,9","10210,1,99999,9",,,,"MET062METAR EGWC 230750Z 36005KT 9999 SCT015 BKN030 13/10 Q1021 WHT;",
"03414599999","2010-07-23T08:50:00","4","52.640028","-2.305578","82.9","COSFORD, UK","FM-15","EGWC ","V020","999,9,C,0000,1","00450,1,C,N","011265,1,N,1","+0140,1","+0090,1","99999,9","07,5,+00450,1,99,9",,,"07,99,1,99,9,99,9,99999,9,99,9,99,9","10220,1,99999,9",,,,"MET055METAR EGWC 230850Z 00000KT 9999 BKN015 14/09 Q1022 WHT;",
"03414599999","2010-07-23T09:50:00","4","52.640028","-2.305578","82.9","COSFORD, UK","FM-15","EGWC ","V020","999,9,C,0000,1","00600,1,C,N","011265,1,N,1","+0150,1","+0090,1","99999,9","07,5,+00600,1,99,9",,,"07,99,1,99,9,99,9,99999,9,99,9,99,9","10220,1,99999,9",,,,"MET055METAR EGWC 230950Z 00000KT 9999 BKN020 15/09 Q1022 WHT;",
"03414599999","2010-07-23T10:50:00","4","52.640028","-2.305578","82.9","COSFORD, UK","FM-15","EGWC ","V020","130,1,N,0026,1","00660,1,C,N","011265,1,N,1","+0160,1","+0100,1","99999,9","07,5,+00660,1,99,9",,,"07,99,1,99,9,99,9,99999,9,99,9,99,9","10220,1,99999,9",,,,"MET055METAR EGWC 231050Z 13005KT 9999 BKN022 16/10 Q1022 WHT;",
"03414599999","2010-07-23T11:50:00","4","52.640028","-2.305578","82.9","COSFORD, UK","FM-15","EGWC ","V020","999,9,C,0000,1","00660,1,C,N","011265,1,N,1","+0170,1","+0100,1","99999,9","07,5,+00660,1,99,9",,,"07,99,1,99,9,99,9,99999,9,99,9,99,9","10220,1,99999,9",,,,"MET055METAR EGWC 231150Z 00000KT 9999 BKN022 17/10 Q1022 WHT;",
"03414599999","2010-07-23T12:50:00","4","52.640028","-2.305578","82.9","COSFORD, UK","FM-15","EGWC ","V020","999,9,C,0000,1","00660,1,C,N","011265,1,N,1","+0180,1","+0100,1","99999,9","07,5,+00660,1,99,9",,,"07,99,1,99,9,99,9,99999,9,99,9,99,9","10220,1,99999,9",,,,"MET055METAR EGWC 231250Z 00000KT 9999 BKN022 18/10 Q1022 WHT;",
"03414599999","2010-07-23T13:50:00","4","52.640028","-2.305578","82.9","COSFORD, UK","FM-15","EGWC ","V020","999,9,C,0000,1","00900,1,C,N","011265,1,N,1","+0180,1","+0100,1","99999,9","07,5,+00900,1,99,9",,,"07,99,1,99,9,99,9,99999,9,99,9,99,9","10220,1,99999,9",,,,"MET055METAR EGWC 231350Z 00000KT 9999 BKN030 18/10 Q1022 BLU;",
"03414599999","2010-07-26T06:50:00","4","52.640028","-2.305578","82.9","COSFORD, UK","FM-15","EGWC ","V020","300,1,N,0031,1","00240,1,C,N","011265,1,N,1","+0170,1","+0160,1","99999,9","04,5,+00150,1,99,9","07,5,+00240,1,99,9",,"07,99,1,99,9,99,9,99999,9,99,9,99,9","10169,1,99999,9","51,1",,,"MET067METAR EGWC 260650Z 30006KT 9999 -DZ SCT005 BKN008 17/16 Q1017 YLO1;",
"03414599999","2010-07-26T07:50:00","4","52.640028","-2.305578","82.9","COSFORD, UK","FM-15","EGWC ","V020","310,1,N,0031,1","00240,1,C,N","011265,1,N,1","+0170,1","+0160,1","99999,9","04,5,+00180,1,99,9","07,5,+00240,1,99,9",,"07,99,1,99,9,99,9,99999,9,99,9,99,9","10180,1,99999,9","61,1",,,"MET067METAR EGWC 260750Z 31006KT 9999 -RA SCT006 BKN008 17/16 Q1018 YLO1;",
"03414599999","2010-07-26T08:50:00","4","52.640028","-2.305578","82.9","COSFORD, UK","FM-15","EGWC ","V020","310,1,N,0031,1","00120,1,C,N","007000,1,N,1","+0180,1","+0160,1","99999,9","07,5,+00120,1,99,9",,,"07,99,1,99,9,99,9,99999,9,99,9,99,9","10180,1,99999,9","61,1",,,"MET060METAR EGWC 260850Z 31006KT 7000 -RA BKN004 18/16 Q1018 YLO2;",
"03414599999","2010-07-26T09:50:00","4","52.640028","-2.305578","82.9","COSFORD, UK","FM-15","EGWC ","V020","320,1,N,0026,1","00120,1,C,N","005000,1,N,1","+0170,1","+0160,1","99999,9","07,5,+00120,1,99,9",,,"07,99,1,99,9,99,9,99999,9,99,9,99,9","10180,1,99999,9","51,1",,,"MET060METAR EGWC 260950Z 32005KT 5000 -DZ BKN004 17/16 Q1018 YLO2;",
"03414599999","2010-07-26T10:50:00","4","52.640028","-2.305578","82.9","COSFORD, UK","FM-15","EGWC ","V020","300,1,N,0041,1","00180,1,C,N","005000,1,N,1","+0180,1","+0170,1","99999,9","07,5,+00180,1,99,9",,,"07,99,1,99,9,99,9,99999,9,99,9,99,9","10180,1,99999,9","51,1",,,"MET060METAR EGWC 261050Z 30008KT 5000 -DZ BKN006 18/17 Q1018 YLO1;",
"03414599999","2010-07-26T11:50:00","4","52.640028","-2.305578","82.9","COSFORD, UK","FM-15","EGWC ","V020","320,1,N,0036,1","00900,1,C,N","011265,1,N,1","+0190,1","+0170,1","99999,9","04,5,+00390,1,99,9","07,5,+00900,1,99,9",,"07,99,1,99,9,99,9,99999,9,99,9,99,9","10180,1,99999,9",,,,"MET062METAR EGWC 261150Z 32007KT 9999 SCT013 BKN030 19/17 Q1018 GRN;",
"03414599999","2010-07-26T12:50:00","4","52.640028","-2.305578","82.9","COSFORD, UK","FM-15","EGWC ","V020","320,1,N,0062,1","01050,1,C,N","011265,1,N,1","+0210,1","+0160,1","99999,9","04,5,+00450,1,99,9","07,5,+01050,1,99,9",,"07,99,1,99,9,99,9,99999,9,99,9,99,9","10180,1,99999,9",,,,"MET062METAR EGWC 261250Z 32012KT 9999 SCT015 BKN035 21/16 Q1018 WHT;",
"03414599999","2010-07-26T13:50:00","4","52.640028","-2.305578","82.9","COSFORD, UK","FM-15","EGWC ","V020","300,1,N,0041,1","00900,1,C,N","011265,1,N,1","+0200,1","+0190,1","99999,9","04,5,+00450,1,99,9","07,5,+00900,1,99,9",,"07,99,1,99,9,99,9,99999,9,99,9,99,9","10180,1,99999,9","80,1",,,"MET068METAR EGWC 261350Z 30008KT 9999 -SHRA SCT015 BKN030 20/19 Q1018 WHT;",
"03414599999","2010-07-26T14:50:00","4","52.640028","-2.305578","82.9","COSFORD, UK","FM-15","EGWC ","V020","320,1,N,0031,1","22000,1,9,N","011265,1,N,1","+0200,1","+0180,1","99999,9","04,5,+00450,1,99,9",,,"04,99,1,99,9,99,9,99999,9,99,9,99,9","10180,1,99999,9","61,1",,,"MET059METAR EGWC 261450Z 32006KT 9999 -RA SCT015 20/18 Q1018 WHT;",
"03414599999","2010-07-27T06:50:00","4","52.640028","-2.305578","82.9","COSFORD, UK","FM-15","EGWC ","V020","200,1,N,0026,1","01500,1,C,N","011265,1,N,1","+0180,1","+0160,1","99999,9","04,5,+01200,1,99,9","07,5,+01500,1,99,9",,"07,99,1,99,9,99,9,99999,9,99,9,99,9","10169,1,99999,9",,,,"MET062METAR EGWC 270650Z 20005KT 9999 SCT040 BKN050 18/16 Q1017 BLU;",
"03414599999","2010-07-27T07:50:00","4","52.640028","-2.305578","82.9","COSFORD, UK","FM-15","EGWC ","V020","200,1,N,0031,1","00900,1,C,N","011265,1,N,1","+0190,1","+0160,1","99999,9","02,5,+00600,1,99,9","04,5,+00900,1,99,9","07,5,+01200,1,99,9","07,99,1,99,9,99,9,99999,9,99,9,99,9","10169,1,99999,9",,,,"MET069METAR EGWC 270750Z 20006KT 9999 FEW020 SCT030 BKN040 19/16 Q1017 BLU;",
"03414599999","2010-07-27T08:50:00","4","52.640028","-2.305578","82.9","COSFORD, UK","FM-15","EGWC ","V020","200,1,N,0041,1","00480,1,C,N","011265,1,N,1","+0200,1","+0170,1","99999,9","07,5,+00480,1,99,9",,,"07,99,1,99,9,99,9,99999,9,99,9,99,9","10169,1,99999,9",,,,"MET055METAR EGWC 270850Z 20008KT 9999 BKN016 20/17 Q1017 WHT;",
"03414599999","2010-07-27T09:50:00","4","52.640028","-2.305578","82.9","COSFORD, UK","FM-15","EGWC ","V020","270,1,N,0036,1","00480,1,C,N","011265,1,N,1","+0200,1","+0140,1","99999,9","07,5,+00480,1,99,9",,,"07,99,1,99,9,99,9,99999,9,99,9,99,9","10169,1,99999,9","61,1",,,"MET059METAR EGWC 270950Z 27007KT 9999 -RA BKN016 20/14 Q1017 WHT;",
"03414599999","2010-07-27T10:50:00","4","52.640028","-2.305578","82.9","COSFORD, UK","FM-15","EGWC ","V020","250,1,N,0051,1","00480,1,C,N","011265,1,N,1","+0200,1","+0150,1","99999,9","07,5,+00480,1,99,9",,,"07,99,1,99,9,99,9,99999,9,99,9,99,9","10169,1,99999,9",,,,"MET055METAR EGWC 271050Z 25010KT 9999 BKN016 20/15 Q1017 WHT;",
"03414599999","2010-07-27T11:50:00","4","52.640028","-2.305578","82.9","COSFORD, UK","FM-15","EGWC ","V020","280,1,N,0051,1","00720,1,C,N","011265,1,N,1","+0210,1","+0160,1","99999,9","04,5,+00480,1,99,9","07,5,+00720,1,99,9",,"07,99,1,99,9,99,9,99999,9,99,9,99,9","10169,1,99999,9",,,,"MET062METAR EGWC 271150Z 28010KT 9999 SCT016 BKN024 21/16 Q1017 WHT;",
"03414599999","2010-07-27T12:50:00","4","52.640028","-2.305578","82.9","COSFORD, UK","FM-15","EGWC ","V020","270,1,N,0051,1","22000,1,9,N","011265,1,N,1","+0210,1","+0140,1","99999,9","04,5,+00750,1,99,9",,,"04,99,1,99,9,99,9,99999,9,99,9,99,9","10169,1,99999,9",,,,"MET055METAR EGWC 271250Z 27010KT 9999 SCT025 21/14 Q1017 BLU;",
"03414599999","2010-07-27T13:50:00","4","52.640028","-2.305578","82.9","COSFORD, UK","FM-15","EGWC ","V020","270,1,N,0051,1","00750,1,C,N","011265,1,N,1","+0200,1","+0150,1","99999,9","07,5,+00750,1,99,9",,,"07,99,1,99,9,99,9,99999,9,99,9,99,9","10169,1,99999,9",,,,"MET055METAR EGWC 271350Z 27010KT 9999 BKN025 20/15 Q1017 BLU;",
"03414599999","2010-07-27T14:50:00","4","52.640028","-2.305578","82.9","COSFORD, UK","FM-15","EGWC ","V020","280,1,N,0051,1","00750,1,C,N","011265,1,N,1","+0210,1","+0120,1","99999,9","07,5,+00750,1,99,9",,,"07,99,1,99,9,99,9,99999,9,99,9,99,9","10169,1,99999,9",,,,"MET055METAR EGWC 271450Z 28010KT 9999 BKN025 21/12 Q1017 BLU;",
"03414599999","2010-07-28T06:50:00","4","52.640028","-2.305578","82.9","COSFORD, UK","FM-15","EGWC ","V020","999,9,C,0000,1","01260,1,C,N","011265,1,N,1","+0140,1","+0120,1","99999,9","07,5,+01260,1,99,9",,,"07,99,1,99,9,99,9,99999,9,99,9,99,9","10180,1,99999,9",,,,"MET055METAR EGWC 280650Z 00000KT 9999 BKN042 14/12 Q1018 BLU;",
"03414599999","2010-07-28T07:50:00","4","52.640028","-2.305578","82.9","COSFORD, UK","FM-15","EGWC ","V020","270,1,N,0051,1","01050,1,C,N","011265,1,N,1","+0160,1","+0120,1","99999,9","02,5,+00480,1,99,9","07,5,+01050,1,99,9",,"07,99,1,99,9,99,9,99999,9,99,9,99,9","10180,1,99999,9",,,,"MET062METAR EGWC 280750Z 27010KT 9999 FEW016 BKN035 16/12 Q1018 BLU;",
"03414599999","2010-07-28T08:50:00","4","52.640028","-2.305578","82.9","COSFORD, UK","FM-15","EGWC ","V020","260,1,N,0041,1","01050,1,C,N","011265,1,N,1","+0160,1","+0110,1","99999,9","02,5,+00480,1,99,9","07,5,+01050,1,99,9",,"07,99,1,99,9,99,9,99999,9,99,9,99,9","10180,1,99999,9",,,,"MET062METAR EGWC 280850Z 26008KT 9999 FEW016 BKN035 16/11 Q1018 BLU;",
"03414599999","2010-07-28T09:50:00","4","52.640028","-2.305578","82.9","COSFORD, UK","FM-15","EGWC ","V020","250,1,N,0051,1","01050,1,C,N","011265,1,N,1","+0170,1","+0110,1","99999,9","02,5,+00480,1,99,9","07,5,+01050,1,99,9",,"07,99,1,99,9,99,9,99999,9,99,9,99,9","10180,1,99999,9",,,,"MET062METAR EGWC 280950Z 25010KT 9999 FEW016 BKN035 17/11 Q1018 BLU;",
"03414599999","2010-07-28T10:50:00","4","52.640028","-2.305578","82.9","COSFORD, UK","FM-15","EGWC ","V020","240,1,N,0051,1","00840,1,C,N","011265,1,N,1","+0170,1","+0110,1","99999,9","07,5,+00840,1,99,9",,,"07,99,1,99,9,99,9,99999,9,99,9,99,9","10180,1,99999,9",,,,"MET055METAR EGWC 281050Z 24010KT 9999 BKN028 17/11 Q1018 BLU;",
"03414599999","2010-07-28T11:50:00","4","52.640028","-2.305578","82.9","COSFORD, UK","FM-15","EGWC ","V020","270,1,N,0051,1","00840,1,C,N","011265,1,N,1","+0190,1","+0100,1","99999,9","02,5,+00600,1,99,9","07,5,+00840,1,99,9",,"07,99,1,99,9,99,9,99999,9,99,9,99,9","10169,1,99999,9",,,,"MET062METAR EGWC 281150Z 27010KT 9999 FEW020 BKN028 19/10 Q1017 BLU;",
"03414599999","2010-07-28T12:50:00","4","52.640028","-2.305578","82.9","COSFORD, UK","FM-15","EGWC ","V020","270,1,N,0082,1","00840,1,C,N","011265,1,N,1","+0200,1","+0100,1","99999,9","07,5,+00840,1,99,9",,,"07,99,1,99,9,99,9,99999,9,99,9,99,9","10169,1,99999,9",,,,"MET055METAR EGWC 281250Z 27016KT 9999 BKN028 20/10 Q1017 BLU;",
"03414599999","2010-07-28T13:50:00","4","52.640028","-2.305578","82.9","COSFORD, UK","FM-15","EGWC ","V020","290,1,N,0062,1","00780,1,C,N","011265,1,N,1","+0180,1","+0100,1","99999,9","07,5,+00780,1,99,9",,,"07,99,1,99,9,99,9,99999,9,99,9,99,9","10169,1,99999,9",,,,"MET055METAR EGWC 281350Z 29012KT 9999 BKN026 18/10 Q1017 BLU;",
"03414599999","2010-07-28T14:50:00","4","52.640028","-2.305578","82.9","COSFORD, UK","FM-15","EGWC ","V020","320,1,N,0041,1","00780,1,C,N","011265,1,N,1","+0160,1","+0100,1","99999,9","07,5,+00780,1,99,9",,,"07,99,1,99,9,99,9,99999,9,99,9,99,9","10169,1,99999,9",,,,"MET055METAR EGWC 281450Z 32008KT 9999 BKN026 16/10 Q1017 BLU;",
"03414599999","2010-07-29T06:50:00","4","52.640028","-2.305578","82.9","COSFORD, UK","FM-15","EGWC ","V020","290,1,N,0051,1","99999,9,C,N","011265,1,N,1","+0160,1","+0120,1","99999,9","02,5,+00300,1,99,9","04,5,+00600,1,99,9",,"04,99,1,99,9,99,9,99999,9,99,9,99,9","10180,1,99999,9",,,,"MET062METAR EGWC 290650Z 29010KT 9999 FEW010 SCT020 16/12 Q1018 WHT;","P01 006003SCOCIG"
"03414599999","2010-07-29T07:50:00","4","52.640028","-2.305578","82.9","COSFORD, UK","FM-15","EGWC ","V020","290,1,N,0026,1","01050,1,C,N","011265,1,N,1","+0140,1","+0120,1","99999,9","04,5,+00600,1,99,9","07,5,+01050,1,99,9",,"07,99,1,99,9,99,9,99999,9,99,9,99,9","10180,1,99999,9",,,,"MET062METAR EGWC 290750Z 29005KT 9999 SCT020 BKN035 14/12 Q1018 WHT;",
"03414599999","2010-07-29T08:50:00","4","52.640028","-2.305578","82.9","COSFORD, UK","FM-15","EGWC ","V020","320,1,N,0041,1","00750,1,C,N","011265,1,N,1","+0160,1","+0110,1","99999,9","04,5,+00600,1,99,9","07,5,+00750,1,99,9",,"07,99,1,99,9,99,9,99999,9,99,9,99,9","10180,1,99999,9",,,,"MET062METAR EGWC 290850Z 32008KT 9999 SCT020 BKN025 16/11 Q1018 WHT;",
"03414599999","2010-07-29T09:50:00","4","52.640028","-2.305578","82.9","COSFORD, UK","FM-15","EGWC ","V020","320,1,N,0051,1","01050,1,C,N","011265,1,N,1","+0160,1","+0110,1","99999,9","02,5,+00600,1,99,9","07,5,+01050,1,99,9",,"07,99,1,99,9,99,9,99999,9,99,9,99,9","10180,1,99999,9",,,,"MET062METAR EGWC 290950Z 32010KT 9999 FEW020 BKN035 16/11 Q1018 BLU;",
"03414599999","2010-07-29T10:50:00","4","52.640028","-2.305578","82.9","COSFORD, UK","FM-15","EGWC ","V020","300,1,N,0051,1","00660,1,C,N","011265,1,N,1","+0160,1","+0100,1","99999,9","07,5,+00660,1,99,9",,,"07,99,1,99,9,99,9,99999,9,99,9,99,9","10180,1,99999,9",,,,"MET055METAR EGWC 291050Z 30010KT 9999 BKN022 16/10 Q1018 WHT;",
"03414599999","2010-07-29T11:50:00","4","52.640028","-2.305578","82.9","COSFORD, UK","FM-15","EGWC ","V020","350,1,N,0041,1","00660,1,C,N","011265,1,N,1","+0170,1","+0100,1","99999,9","07,5,+00660,1,99,9",,,"07,99,1,99,9,99,9,99999,9,99,9,99,9","10180,1,99999,9",,,,"MET055METAR EGWC 291150Z 35008KT 9999 BKN022 17/10 Q1018 WHT;",
"03414599999","2010-07-29T12:50:00","4","52.640028","-2.305578","82.9","COSFORD, UK","FM-15","EGWC ","V020","270,1,N,0041,1","01050,1,C,N","011265,1,N,1","+0180,1","+0100,1","99999,9","04,5,+00750,1,99,9","07,5,+01050,1,99,9",,"07,99,1,99,9,99,9,99999,9,99,9,99,9","10180,1,99999,9",,,,"MET062METAR EGWC 291250Z 27008KT 9999 SCT025 BKN035 18/10 Q1018 WHT;",
"03414599999","2010-07-30T06:50:00","4","52.640028","-2.305578","82.9","COSFORD, UK","FM-15","EGWC ","V020","240,1,N,0031,1","01200,1,C,N","011265,1,N,1","+0130,1","+0120,1","99999,9","04,5,+00750,1,99,9","07,5,+01200,1,99,9",,"07,99,1,99,9,99,9,99999,9,99,9,99,9","10149,1,99999,9",,,,"MET062METAR EGWC 300650Z 24006KT 9999 SCT025 BKN040 13/12 Q1015 BLU;",
"03414599999","2010-07-30T07:50:00","4","52.640028","-2.305578","82.9","COSFORD, UK","FM-15","EGWC ","V020","210,1,N,0051,1","00840,1,C,N","011265,1,N,1","+0150,1","+0130,1","99999,9","02,5,+00300,1,99,9","04,5,+00840,1,99,9","07,5,+01200,1,99,9","07,99,1,99,9,99,9,99999,9,99,9,99,9","10149,1,99999,9",,,,"MET069METAR EGWC 300750Z 21010KT 9999 FEW010 SCT028 BKN040 15/13 Q1015 BLU;",
"03414599999","2010-07-30T08:50:00","4","52.640028","-2.305578","82.9","COSFORD, UK","FM-15","EGWC ","V020","230,1,N,0031,1","00900,1,C,N","011265,1,N,1","+0160,1","+0120,1","99999,9","02,5,+00450,1,99,9","07,5,+00900,1,99,9",,"07,99,1,99,9,99,9,99999,9,99,9,99,9","10149,1,99999,9",,,,"MET062METAR EGWC 300850Z 23006KT 9999 FEW015 BKN030 16/12 Q1015 BLU;",
"03414599999","2010-07-30T09:50:00","4","52.640028","-2.305578","82.9","COSFORD, UK","FM-15","EGWC ","V020","220,1,N,0051,1","00900,1,C,N","011265,1,N,1","+0160,1","+0130,1","99999,9","02,5,+00450,1,99,9","07,5,+00900,1,99,9",,"07,99,1,99,9,99,9,99999,9,99,9,99,9","10149,1,99999,9",,,,"MET062METAR EGWC 300950Z 22010KT 9999 FEW015 BKN030 16/13 Q1015 BLU;",
"03414599999","2010-07-30T10:50:00","4","52.640028","-2.305578","82.9","COSFORD, UK","FM-15","EGWC ","V020","210,1,N,0051,1","01200,1,C,N","011265,1,N,1","+0170,1","+0120,1","99999,9","02,5,+00450,1,99,9","07,5,+01200,1,99,9",,"07,99,1,99,9,99,9,99999,9,99,9,99,9","10149,1,99999,9",,,,"MET062METAR EGWC 301050Z 21010KT 9999 FEW015 BKN040 17/12 Q1015 BLU;",
"03414599999","2010-07-30T11:50:00","4","52.640028","-2.305578","82.9","COSFORD, UK","FM-15","EGWC ","V020","210,1,N,0062,1","01200,1,C,N","011265,1,N,1","+0190,1","+0130,1","99999,9","02,5,+00450,1,99,9","07,5,+01200,1,99,9",,"07,99,1,99,9,99,9,99999,9,99,9,99,9","10139,1,99999,9",,,,"MET062METAR EGWC 301150Z 21012KT 9999 FEW015 BKN040 19/13 Q1014 BLU;",
"03414599999","2010-08-02T08:50:00","4","52.640028","-2.305578","82.9","COSFORD, UK","FM-15","EGWC ","V020","350,1,N,0051,1","99999,9,C,N","011265,1,N,1","+0160,1","+0100,1","99999,9","02,5,+00450,1,99,9","04,5,+00750,1,99,9",,"04,99,1,99,9,99,9,99999,9,99,9,99,9","10190,1,99999,9",,,,"MET062METAR EGWC 020850Z 35010KT 9999 FEW015 SCT025 16/10 Q1019 BLU;","P01 007503SCOCIG"
"03414599999","2010-08-02T09:50:00","4","52.640028","-2.305578","82.9","COSFORD, UK","FM-15","EGWC ","V020","320,1,N,0041,1","99999,9,C,N","011265,1,N,1","+0160,1","+0100,1","99999,9","02,5,+00450,1,99,9","04,5,+00900,1,99,9",,"04,99,1,99,9,99,9,99999,9,99,9,99,9","10190,1,99999,9",,,,"MET062METAR EGWC 020950Z 32008KT 9999 FEW015 SCT030 16/10 Q1019 BLU;","P01 009003SCOCIG"
"03414599999","2010-08-02T10:50:00","4","52.640028","-2.305578","82.9","COSFORD, UK","FM-15","EGWC ","V020","300,1,N,0041,1","01050,1,C,N","011265,1,N,1","+0170,1","+0100,1","99999,9","04,5,+00750,1,99,9","07,5,+01050,1,99,9",,"07,99,1,99,9,99,9,99999,9,99,9,99,9","10190,1,99999,9",,,,"MET062METAR EGWC 021050Z 30008KT 9999 SCT025 BKN035 17/10 Q1019 BLU;",
"03414599999","2010-08-02T11:50:00","4","52.640028","-2.305578","82.9","COSFORD, UK","FM-15","EGWC ","V020","260,1,N,0031,1","01050,1,C,N","011265,1,N,1","+0180,1","+0100,1","99999,9","07,5,+01050,1,99,9",,,"07,99,1,99,9,99,9,99999,9,99,9,99,9","10190,1,99999,9",,,,"MET055METAR EGWC 021150Z 26006KT 9999 BKN035 18/10 Q1019 BLU;",
"03414599999","2010-08-03T06:50:00","4","52.640028","-2.305578","82.9","COSFORD, UK","FM-15","EGWC ","V020","999,9,C,0000,1","01050,1,C,N","011265,1,N,1","+0120,1","+0100,1","99999,9","07,5,+01050,1,99,9",,,"07,99,1,99,9,99,9,99999,9,99,9,99,9","10169,1,99999,9",,,,"MET055METAR EGWC 030650Z 00000KT 9999 BKN035 12/10 Q1017 BLU;",
"03414599999","2010-08-03T07:50:00","4","52.640028","-2.305578","82.9","COSFORD, UK","FM-15","EGWC ","V020","180,1,N,0026,1","01200,1,C,N","011265,1,N,1","+0130,1","+0110,1","99999,9","07,5,+01200,1,99,9",,,"07,99,1,99,9,99,9,99999,9,99,9,99,9","10169,1,99999,9",,,,"MET055METAR EGWC 030750Z 18005KT 9999 BKN040 13/11 Q1017 BLU;",
"03414599999","2010-08-03T08:50:00","4","52.640028","-2.305578","82.9","COSFORD, UK","FM-15","EGWC ","V020","150,1,N,0036,1","01500,1,C,N","011265,1,N,1","+0150,1","+0110,1","99999,9","04,5,+00900,1,99,9","07,5,+01500,1,99,9",,"07,99,1,99,9,99,9,99999,9,99,9,99,9","10169,1,99999,9",,,,"MET062METAR EGWC 030850Z 15007KT 9999 SCT030 BKN050 15/11 Q1017 BLU;",
"03414599999","2010-08-03T09:50:00","4","52.640028","-2.305578","82.9","COSFORD, UK","FM-15","EGWC ","V020","200,1,N,0036,1","01200,1,C,N","011265,1,N,1","+0160,1","+0120,1","99999,9","04,5,+00750,1,99,9","07,5,+01200,1,99,9",,"07,99,1,99,9,99,9,99999,9,99,9,99,9","10159,1,99999,9",,,,"MET062METAR EGWC 030950Z 20007KT 9999 SCT025 BKN040 16/12 Q1016 BLU;",
"03414599999","2010-08-03T10:50:00","4","52.640028","-2.305578","82.9","COSFORD, UK","FM-15","EGWC ","V020","999,9,C,0000,1","01200,1,C,N","011265,1,N,1","+0180,1","+0120,1","99999,9","04,5,+00750,1,99,9","07,5,+01200,1,99,9",,"07,99,1,99,9,99,9,99999,9,99,9,99,9","10159,1,99999,9",,,,"MET062METAR EGWC 031050Z 00000KT 9999 SCT025 BKN040 18/12 Q1016 BLU;",
"03414599999","2010-08-03T11:50:00","4","52.640028","-2.305578","82.9","COSFORD, UK","FM-15","EGWC ","V020","210,1,N,0041,1","01200,1,C,N","011265,1,N,1","+0190,1","+0120,1","99999,9","04,5,+00750,1,99,9","07,5,+01200,1,99,9",,"07,99,1,99,9,99,9,99999,9,99,9,99,9","10149,1,99999,9",,,,"MET062METAR EGWC 031150Z 21008KT 9999 SCT025 BKN040 19/12 Q1015 BLU;",
"03414599999","2010-08-03T12:50:00","4","52.640028","-2.305578","82.9","COSFORD, UK","FM-15","EGWC ","V020","210,1,N,0062,1","01050,1,C,N","011265,1,N,1","+0200,1","+0130,1","99999,9","07,5,+01050,1,99,9",,,"07,99,1,99,9,99,9,99999,9,99,9,99,9","10149,1,99999,9",,,,"MET055METAR EGWC 031250Z 21012KT 9999 BKN035 20/13 Q1015 BLU;",
"03414599999","2010-08-04T06:50:00","4","52.640028","-2.305578","82.9","COSFORD, UK","FM-15","EGWC ","V020","999,9,C,0000,1","00300,1,C,N","005000,1,N,1","+0130,1","+0120,1","99999,9","02,5,+00180,1,99,9","07,5,+00300,1,99,9",,"07,99,1,99,9,99,9,99999,9,99,9,99,9","10071,1,99999,9","61,1",,,"MET066METAR EGWC 040650Z 00000KT 5000 -RA FEW006 BKN010 13/12 Q1007 GRN;",
"03414599999","2010-08-04T07:50:00","4","52.640028","-2.305578","82.9","COSFORD, UK","FM-15","EGWC ","V020","999,9,C,0000,1","00300,1,C,N","005000,1,N,1","+0130,1","+0120,1","99999,9","02,5,+00180,1,99,9","07,5,+00300,1,99,9",,"07,99,1,99,9,99,9,99999,9,99,9,99,9","10071,1,99999,9","61,1",,,"MET066METAR EGWC 040750Z 00000KT 5000 -RA FEW006 BKN010 13/12 Q1007 GRN;",
"03414599999","2010-08-04T08:50:00","4","52.640028","-2.305578","82.9","COSFORD, UK","FM-15","EGWC ","V020","999,9,C,0000,1","00450,1,C,N","011265,1,N,1","+0140,1","+0120,1","99999,9","02,5,+00180,1,99,9","07,5,+00450,1,99,9",,"07,99,1,99,9,99,9,99999,9,99,9,99,9","10071,1,99999,9",,,,"MET062METAR EGWC 040850Z 00000KT 9999 FEW006 BKN015 14/12 Q1007 WHT;",
"03414599999","2010-08-04T09:50:00","4","52.640028","-2.305578","82.9","COSFORD, UK","FM-15","EGWC ","V020","350,1,N,0041,1","00600,1,C,N","011265,1,N,1","+0150,1","+0110,1","99999,9","04,5,+00240,1,99,9","07,5,+00600,1,99,9",,"07,99,1,99,9,99,9,99999,9,99,9,99,9","10071,1,99999,9",,,,"MET062METAR EGWC 040950Z 35008KT 9999 SCT008 BKN020 15/11 Q1007 GRN;",
"03414599999","2010-08-04T10:50:00","4","52.640028","-2.305578","82.9","COSFORD, UK","FM-15","EGWC ","V020","330,1,N,0041,1","00450,1,C,N","011265,1,N,1","+0150,1","+0120,1","99999,9","02,5,+00180,1,99,9","07,5,+00450,1,99,9",,"07,99,1,99,9,99,9,99999,9,99,9,99,9","10071,1,99999,9",,,,"MET062METAR EGWC 041050Z 33008KT 9999 FEW006 BKN015 15/12 Q1007 WHT;",
"03414599999","2010-08-04T11:50:00","4","52.640028","-2.305578","82.9","COSFORD, UK","FM-15","EGWC ","V020","350,1,N,0041,1","00450,1,C,N","011265,1,N,1","+0150,1","+0120,1","99999,9","02,5,+00240,1,99,9","04,5,+00450,1,99,9","07,5,+01350,1,99,9","07,99,1,99,9,99,9,99999,9,99,9,99,9","10071,1,99999,9","80,1",,,"MET075METAR EGWC 041150Z 35008KT 9999 -SHRA FEW008 SCT015 BKN045 15/12 Q1007 WHT;",
"03414599999","2010-08-04T12:50:00","4","52.640028","-2.305578","82.9","COSFORD, UK","FM-15","EGWC ","V020","330,1,N,0051,1","99999,9,C,N","011265,1,N,1","+0160,1","+0120,1","99999,9","02,5,+00240,1,99,9","04,5,+00450,1,99,9",,"04,99,1,99,9,99,9,99999,9,99,9,99,9","10071,1,99999,9",,,,"MET062METAR EGWC 041250Z 33010KT 9999 FEW008 SCT015 16/12 Q1007 WHT;","P01 004503SCOCIG"
"03414599999","2010-08-04T13:50:00","4","52.640028","-2.305578","82.9","COSFORD, UK","FM-15","EGWC ","V020","330,1,N,0077,1","99999,9,C,N","011265,1,N,1","+0170,1","+0110,1","99999,9","02,5,+00240,1,99,9","04,5,+00660,1,99,9",,"04,99,1,99,9,99,9,99999,9,99,9,99,9","10081,1,99999,9","16,1",,,"MET067METAR EGWC 041350Z 33015KT 9999 VCSH FEW008 SCT022 17/11 Q1008 WHT;","P01 006603SCOCIG"
"03414599999","2010-08-06T07:50:00","4","52.640028","-2.305578","82.9","COSFORD, UK","FM-15","EGWC ","V020","160,1,N,0041,1","01050,1,C,N","011265,1,N,1","+0140,1","+0120,1","99999,9","04,5,+00750,1,99,9","07,5,+01050,1,99,9",,"07,99,1,99,9,99,9,99999,9,99,9,99,9","10129,1,99999,9",,,,"MET062METAR EGWC 060750Z 16008KT 9999 SCT025 BKN035 14/12 Q1013 BLU;",
"03414599999","2010-08-06T08:50:00","4","52.640028","-2.305578","82.9","COSFORD, UK","FM-15","EGWC ","V020","180,1,N,0077,1","00450,1,C,N","011265,1,N,1","+0160,1","+0130,1","99999,9","02,5,+00240,1,99,9","08,5,+00450,1,99,9",,"08,99,1,99,9,99,9,99999,9,99,9,99,9","10119,1,99999,9",,,,"MET062METAR EGWC 060850Z 18015KT 9999 FEW008 OVC015 16/13 Q1012 WHT;",
"03414599999","2010-08-06T09:50:00","4","52.640028","-2.305578","82.9","COSFORD, UK","FM-15","EGWC ","V020","200,1,N,0077,1","00450,1,C,N","011265,1,N,1","+0170,1","+0130,1","99999,9","02,5,+00240,1,99,9","08,5,+00450,1,99,9",,"08,99,1,99,9,99,9,99999,9,99,9,99,9","10119,1,99999,9",,,,"MET062METAR EGWC 060950Z 20015KT 9999 FEW008 OVC015 17/13 Q1012 WHT;",
"03414599999","2010-08-06T10:50:00","4","52.640028","-2.305578","82.9","COSFORD, UK","FM-15","EGWC ","V020","180,1,N,0077,1","00450,1,C,N","011265,1,N,1","+0180,1","+0130,1","99999,9","02,5,+00240,1,99,9","07,5,+00450,1,99,9",,"07,99,1,99,9,99,9,99999,9,99,9,99,9","10108,1,99999,9","61,1",,,"MET066METAR EGWC 061050Z 18015KT 9999 -RA FEW008 BKN015 18/13 Q1011 WHT;",
"03414599999","2010-08-06T11:50:00","4","52.640028","-2.305578","82.9","COSFORD, UK","FM-15","EGWC ","V020","180,1,N,0062,1","00450,1,C,N","011265,1,N,1","+0180,1","+0140,1","99999,9","02,5,+00240,1,99,9","07,5,+00450,1,99,9",,"07,99,1,99,9,99,9,99999,9,99,9,99,9","10108,1,99999,9","61,1",,,"MET066METAR EGWC 061150Z 18012KT 9999 -RA FEW008 BKN015 18/14 Q1011 WHT;",
"03414599999","2010-08-06T12:50:00","4","52.640028","-2.305578","82.9","COSFORD, UK","FM-15","EGWC ","V020","180,1,N,0077,1","99999,9,C,N","011265,1,N,1","+0190,1","+0150,1","99999,9","02,5,+00300,1,99,9","04,5,+00450,1,99,9",,"04,99,1,99,9,99,9,99999,9,99,9,99,9","10108,1,99999,9",,,,"MET062METAR EGWC 061250Z 18015KT 9999 FEW010 SCT015 19/15 Q1011 WHT;","P01 004503SCOCIG"
"03414599999","2010-08-06T13:50:00","4","52.640028","-2.305578","82.9","COSFORD, UK","FM-15","EGWC ","V020","180,1,N,0077,1","00450,1,C,N","011265,1,N,1","+0190,1","+0150,1","99999,9","02,5,+00300,1,99,9","07,5,+00450,1,99,9",,"07,99,1,99,9,99,9,99999,9,99,9,99,9","10108,1,99999,9","61,1",,,"MET066METAR EGWC 061350Z 18015KT 9999 -RA FEW010 BKN015 19/15 Q1011 WHT;",
"03414599999","2010-08-09T06:50:00","4","52.640028","-2.305578","82.9","COSFORD, UK","FM-15","EGWC ","V020","200,1,N,0041,1","03600,1,C,N","011265,1,N,1","+0140,1","+0090,1","99999,9","02,5,+00600,1,99,9","07,5,+03600,1,99,9",,"07,99,1,99,9,99,9,99999,9,99,9,99,9","10149,1,99999,9",,,,"MET062METAR EGWC 090650Z 20008KT 9999 FEW020 BKN120 14/09 Q1015 BLU;",
"03414599999","2010-08-09T07:50:00","4","52.640028","-2.305578","82.9","COSFORD, UK","FM-15","EGWC ","V020","200,1,N,0051,1","22000,1,9,N","011265,1,N,1","+0150,1","+0110,1","99999,9","02,5,+00600,1,99,9",,,"02,99,1,99,9,99,9,99999,9,99,9,99,9","10149,1,99999,9",,,,"MET055METAR EGWC 090750Z 20010KT 9999 FEW020 15/11 Q1015 BLU;",
"03414599999","2010-08-09T08:50:00","4","52.640028","-2.305578","82.9","COSFORD, UK","FM-15","EGWC ","V020","200,1,N,0051,1","22000,1,9,N","011265,1,N,1","+0170,1","+0130,1","99999,9","02,5,+00480,1,99,9",,,"02,99,1,99,9,99,9,99999,9,99,9,99,9","10149,1,99999,9",,,,"MET055METAR EGWC 090850Z 20010KT 9999 FEW016 17/13 Q1015 BLU;",
"03414599999","2010-08-09T09:50:00","4","52.640028","-2.305578","82.9","COSFORD, UK","FM-15","EGWC ","V020","210,1,N,0062,1","22000,1,9,N","011265,1,N,1","+0190,1","+0120,1","99999,9","04,5,+00780,1,99,9",,,"04,99,1,99,9,99,9,99999,9,99,9,99,9","10139,1,99999,9",,,,"MET055METAR EGWC 090950Z 21012KT 9999 SCT026 19/12 Q1014 BLU;",
"03414599999","2010-08-09T10:50:00","4","52.640028","-2.305578","82.9","COSFORD, UK","FM-15","EGWC ","V020","210,1,N,0062,1","00780,1,C,N","011265,1,N,1","+0190,1","+0120,1","99999,9","07,5,+00780,1,99,9",,,"07,99,1,99,9,99,9,99999,9,99,9,99,9","10139,1,99999,9",,,,"MET055METAR EGWC 091050Z 21012KT 9999 BKN026 19/12 Q1014 BLU;",
"03414599999","2010-08-09T11:50:00","4","52.640028","-2.305578","82.9","COSFORD, UK","FM-15","EGWC ","V020","200,1,N,0077,1","00780,1,C,N","011265,1,N,1","+0190,1","+0120,1","99999,9","07,5,+00780,1,99,9",,,"07,99,1,99,9,99,9,99999,9,99,9,99,9","10129,1,99999,9",,,,"MET055METAR EGWC 091150Z 20015KT 9999 BKN026 19/12 Q1013 BLU;",
"03414599999","2010-08-09T12:50:00","4","52.640028","-2.305578","82.9","COSFORD, UK","FM-15","EGWC ","V020","200,1,N,0051,1","00780,1,C,N","011265,1,N,1","+0190,1","+0120,1","99999,9","02,5,+00360,1,99,9","07,5,+00780,1,99,9",,"07,99,1,99,9,99,9,99999,9,99,9,99,9","10129,1,99999,9",,,,"MET062METAR EGWC 091250Z 20010KT 9999 FEW012 BKN026 19/12 Q1013 BLU;",
"03414599999","2010-08-09T13:50:00","4","52.640028","-2.305578","82.9","COSFORD, UK","FM-15","EGWC ","V020","210,1,N,0062,1","00750,1,C,N","011265,1,N,1","+0200,1","+0120,1","99999,9","02,5,+00360,1,99,9","07,5,+00750,1,99,9",,"07,99,1,99,9,99,9,99999,9,99,9,99,9","10129,1,99999,9",,,,"MET062METAR EGWC 091350Z 21012KT 9999 FEW012 BKN025 20/12 Q1013 BLU;",
"03414599999","2010-08-09T14:50:00","4","52.640028","-2.305578","82.9","COSFORD, UK","FM-15","EGWC ","V020","210,1,N,0062,1","00780,1,C,N","011265,1,N,1","+0200,1","+0130,1","99999,9","02,5,+00600,1,99,9","07,5,+00780,1,99,9",,"07,99,1,99,9,99,9,99999,9,99,9,99,9","10119,1,99999,9",,,,"MET062METAR EGWC 091450Z 21012KT 9999 FEW020 BKN026 20/13 Q1012 BLU;",
"03414599999","2010-08-10T08:50:00","4","52.640028","-2.305578","82.9","COSFORD, UK","FM-15","EGWC ","V020","230,1,N,0051,1","00660,1,C,N","011265,1,N,1","+0160,1","+0120,1","99999,9","07,5,+00660,1,99,9",,,"07,99,1,99,9,99,9,99999,9,99,9,99,9","10091,1,99999,9",,,,"MET055METAR EGWC 100850Z 23010KT 9999 BKN022 16/12 Q1009 WHT;",
"03414599999","2010-08-10T09:50:00","4","52.640028","-2.305578","82.9","COSFORD, UK","FM-15","EGWC ","V020","230,1,N,0051,1","00660,1,C,N","011265,1,N,1","+0180,1","+0110,1","99999,9","07,5,+00660,1,99,9",,,"07,99,1,99,9,99,9,99999,9,99,9,99,9","10091,1,99999,9",,,,"MET055METAR EGWC 100950Z 23010KT 9999 BKN022 18/11 Q1009 WHT;",
"03414599999","2010-08-10T10:50:00","4","52.640028","-2.305578","82.9","COSFORD, UK","FM-15","EGWC ","V020","240,1,N,0031,1","00810,1,C,N","011265,1,N,1","+0180,1","+0090,1","99999,9","02,5,+00660,1,99,9","07,5,+00810,1,99,9",,"07,99,1,99,9,99,9,99999,9,99,9,99,9","10091,1,99999,9",,,,"MET062METAR EGWC 101050Z 24006KT 9999 FEW022 BKN027 18/09 Q1009 BLU;",
"03414599999","2010-08-10T11:50:00","4","52.640028","-2.305578","82.9","COSFORD, UK","FM-15","EGWC ","V020","230,1,N,0051,1","22000,1,9,N","011265,1,N,1","+0190,1","+0100,1","99999,9","04,5,+00900,1,99,9",,,"04,99,1,99,9,99,9,99999,9,99,9,99,9","10091,1,99999,9",,,,"MET055METAR EGWC 101150Z 23010KT 9999 SCT030 19/10 Q1009 BLU;",
"03414599999","2010-08-10T12:50:00","4","52.640028","-2.305578","82.9","COSFORD, UK","FM-15","EGWC ","V020","260,1,N,0041,1","22000,1,9,N","011265,1,N,1","+0200,1","+0090,1","99999,9","04,5,+00900,1,99,9",,,"04,99,1,99,9,99,9,99999,9,99,9,99,9","10081,1,99999,9",,,,"MET055METAR EGWC 101250Z 26008KT 9999 SCT030 20/09 Q1008 BLU;",
"03414599999","2010-08-10T13:50:00","4","52.640028","-2.305578","82.9","COSFORD, UK","FM-15","EGWC ","V020","260,1,N,0062,1","22000,1,9,N","011265,1,N,1","+0200,1","+0090,1","99999,9","04,5,+01050,1,99,9",,,"04,99,1,99,9,99,9,99999,9,99,9,99,9","10081,1,99999,9",,,,"MET055METAR EGWC 101350Z 26012KT 9999 SCT035 20/09 Q1008 BLU;",
"03414599999","2010-08-11T06:50:00","4","52.640028","-2.305578","82.9","COSFORD, UK","FM-15","EGWC ","V020","999,9,C,0000,1","99999,9,9,Y","009900,1,N,1","+0100,1","+0070,1","99999,9",,,,,"10129,1,99999,9",,,,"MET049METAR EGWC 110650Z 00000KT CAVOK 10/07 Q1013 BLU;",
"03414599999","2010-08-11T07:50:00","4","52.640028","-2.305578","82.9","COSFORD, UK","FM-15","EGWC ","V020","240,1,N,0026,1","99999,9,9,Y","009900,1,N,1","+0140,1","+0100,1","99999,9",,,,,"10129,1,99999,9",,,,"MET049METAR EGWC 110750Z 24005KT CAVOK 14/10 Q1013 BLU;",
"03414599999","2010-08-11T08:50:00","4","52.640028","-2.305578","82.9","COSFORD, UK","FM-15","EGWC ","V020","250,1,N,0026,1","22000,1,9,N","011265,1,N,1","+0150,1","+0100,1","99999,9","04,5,+00840,1,99,9",,,"04,99,1,99,9,99,9,99999,9,99,9,99,9","10129,1,99999,9",,,,"MET055METAR EGWC 110850Z 25005KT 9999 SCT028 15/10 Q1013 BLU;",
"03414599999","2010-08-11T09:50:00","4","52.640028","-2.305578","82.9","COSFORD, UK","FM-15","EGWC ","V020","280,1,N,0041,1","22000,1,9,N","011265,1,N,1","+0180,1","+0090,1","99999,9","04,5,+00900,1,99,9",,,"04,99,1,99,9,99,9,99999,9,99,9,99,9","10139,1,99999,9",,,,"MET055METAR EGWC 110950Z 28008KT 9999 SCT030 18/09 Q1014 BLU;",
"03414599999","2010-08-11T10:50:00","4","52.640028","-2.305578","82.9","COSFORD, UK","FM-15","EGWC ","V020","280,1,N,0051,1","22000,1,9,N","011265,1,N,1","+0190,1","+0090,1","99999,9","04,5,+00900,1,99,9",,,"04,99,1,99,9,99,9,99999,9,99,9,99,9","10129,1,99999,9",,,,"MET055METAR EGWC 111050Z 28010KT 9999 SCT030 19/09 Q1013 BLU;",
"03414599999","2010-08-11T11:50:00","4","52.640028","-2.305578","82.9","COSFORD, UK","FM-15","EGWC ","V020","300,1,N,0051,1","22000,1,9,N","011265,1,N,1","+0190,1","+0090,1","99999,9","04,5,+00900,1,99,9",,,"04,99,1,99,9,99,9,99999,9,99,9,99,9","10129,1,99999,9",,,,"MET055METAR EGWC 111150Z 30010KT 9999 SCT030 19/09 Q1013 BLU;",
"03414599999","2010-08-11T12:50:00","4","52.640028","-2.305578","82.9","COSFORD, UK","FM-15","EGWC ","V020","280,1,N,0051,1","00900,1,C,N","011265,1,N,1","+0200,1","+0090,1","99999,9","07,5,+00900,1,99,9",,,"07,99,1,99,9,99,9,99999,9,99,9,99,9","10129,1,99999,9",,,,"MET055METAR EGWC 111250Z 28010KT 9999 BKN030 20/09 Q1013 BLU;",
"03414599999","2010-08-11T13:50:00","4","52.640028","-2.305578","82.9","COSFORD, UK","FM-15","EGWC ","V020","300,1,N,0041,1","00840,1,C,N","011265,1,N,1","+0180,1","+0110,1","99999,9","07,5,+00840,1,99,9",,,"07,99,1,99,9,99,9,99999,9,99,9,99,9","10139,1,99999,9",,,,"MET055METAR EGWC 111350Z 30008KT 9999 BKN028 18/11 Q1014 BLU;",
"03414599999","2010-08-13T07:50:00","4","52.640028","-2.305578","82.9","COSFORD, UK","FM-15","EGWC ","V020","300,1,N,0051,1","99999,9,C,N","011265,1,N,1","+0140,1","+0120,1","99999,9","02,5,+00300,1,99,9","04,5,+00690,1,99,9",,"04,99,1,99,9,99,9,99999,9,99,9,99,9","10200,1,99999,9","61,1",,,"MET066METAR EGWC 130750Z 30010KT 9999 -RA FEW010 SCT023 14/12 Q1020 WHT;","P01 006903SCOCIG"
"03414599999","2010-08-13T08:50:00","4","52.640028","-2.305578","82.9","COSFORD, UK","FM-15","EGWC ","V020","350,1,N,0051,1","99999,9,C,N","011265,1,N,1","+0140,1","+0120,1","99999,9","02,5,+00240,1,99,9","04,5,+00690,1,99,9",,"04,99,1,99,9,99,9,99999,9,99,9,99,9","10190,1,99999,9","16,1",,,"MET067METAR EGWC 130850Z 35010KT 9999 VCSH FEW008 SCT023 14/12 Q1019 WHT;","P01 006903SCOCIG"
"03414599999","2010-08-13T09:50:00","4","52.640028","-2.305578","82.9","COSFORD, UK","FM-15","EGWC ","V020","350,1,N,0051,1","99999,9,C,N","011265,1,N,1","+0150,1","+0120,1","99999,9","02,5,+00300,1,99,9","04,5,+00690,1,99,9",,"04,99,1,99,9,99,9,99999,9,99,9,99,9","10190,1,99999,9","16,1",,,"MET067METAR EGWC 130950Z 35010KT 9999 VCSH FEW010 SCT023 15/12 Q1019 WHT;","P01 006903SCOCIG"
"03414599999","2010-08-13T10:50:00","4","52.640028","-2.305578","82.9","COSFORD, UK","FM-15","EGWC ","V020","350,1,N,0077,1","99999,9,C,N","008000,1,N,1","+0150,1","+0120,1","99999,9","02,5,+00300,1,99,9","04,5,+00600,1,99,9",,"04,99,1,99,9,99,9,99999,9,99,9,99,9","10190,1,99999,9","61,1",,,"MET066METAR EGWC 131050Z 35015KT 8000 -RA FEW010 SCT020 15/12 Q1019 WHT;","P01 006003SCOCIG"
"03414599999","2010-08-13T11:50:00","4","52.640028","-2.305578","82.9","COSFORD, UK","FM-15","EGWC ","V020","330,1,N,0077,1","00600,1,C,N","011265,1,N,1","+0150,1","+0120,1","99999,9","02,5,+00300,1,99,9","07,5,+00600,1,99,9",,"07,99,1,99,9,99,9,99999,9,99,9,99,9","10190,1,99999,9","61,1",,,"MET066METAR EGWC 131150Z 33015KT 9999 -RA FEW010 BKN020 15/12 Q1019 WHT;",
"03414599999","2010-08-13T12:50:00","4","52.640028","-2.305578","82.9","COSFORD, UK","FM-15","EGWC ","V020","330,1,N,0062,1","99999,9,C,N","011265,1,N,1","+0150,1","+0120,1","99999,9","02,5,+00450,1,99,9","04,5,+00900,1,99,9",,"04,99,1,99,9,99,9,99999,9,99,9,99,9","10190,1,99999,9","61,1",,,"MET066METAR EGWC 131250Z 33012KT 9999 -RA FEW015 SCT030 15/12 Q1019 BLU;","P01 009003SCOCIG"
"03414599999","2010-08-16T07:50:00","4","52.640028","-2.305578","82.9","COSFORD, UK","FM-15","EGWC ","V020","320,1,N,0041,1","99999,9,C,N","011265,1,N,1","+0150,1","+0120,1","99999,9","02,5,+00450,1,99,9","04,5,+01050,1,99,9",,"04,99,1,99,9,99,9,99999,9,99,9,99,9","10190,1,99999,9",,,,"MET062METAR EGWC 160750Z 32008KT 9999 FEW015 SCT035 15/12 Q1019 BLU;","P01 010503SCOCIG"
"03414599999","2010-08-16T08:50:00","4","52.640028","-2.305578","82.9","COSFORD, UK","FM-15","EGWC ","V020","320,1,N,0041,1","99999,9,C,N","011265,1,N,1","+0170,1","+0130,1","99999,9","04,5,+00450,1,99,9","04,5,+01050,1,99,9",,"04,99,1,99,9,99,9,99999,9,99,9,99,9","10190,1,99999,9",,,,"MET062METAR EGWC 160850Z 32008KT 9999 SCT015 SCT035 17/13 Q1019 WHT;","P01 010503SCOCIG"
"03414599999","2010-08-16T10:50:00","4","52.640028","-2.305578","82.9","COSFORD, UK","FM-15","EGWC ","V020","330,1,N,0093,1","99999,9,C,N","011265,1,N,1","+0200,1","+0120,1","99999,9","02,5,+00450,1,99,9","04,5,+00750,1,99,9",,"04,99,1,99,9,99,9,99999,9,99,9,99,9","10190,1,99999,9",,,,"MET062METAR EGWC 161050Z 33018KT 9999 FEW015 SCT025 20/12 Q1019 BLU;","P01 007503SCOCIG"
"03414599999","2010-08-17T08:50:00","4","52.640028","-2.305578","82.9","COSFORD, UK","FM-15","EGWC ","V020","220,1,N,0031,1","00660,1,C,N","011265,1,N,1","+0160,1","+0140,1","99999,9","02,5,+00300,1,99,9","04,5,+00660,1,99,9","07,5,+01140,1,99,9","07,99,1,99,9,99,9,99999,9,99,9,99,9","10102,1,99999,9",,,,"MET069METAR EGWC 170850Z 22006KT 9999 FEW010 SCT022 BKN038 16/14 Q1010 WHT;",
"03414599999","2010-08-17T09:50:00","4","52.640028","-2.305578","82.9","COSFORD, UK","FM-15","EGWC ","V020","240,1,N,0046,1","00720,1,C,N","011265,1,N,1","+0180,1","+0150,1","99999,9","07,5,+00720,1,99,9",,,"07,99,1,99,9,99,9,99999,9,99,9,99,9","10102,1,99999,9",,,,"MET055METAR EGWC 170950Z 24009KT 9999 BKN024 18/15 Q1010 WHT;",
"03414599999","2010-08-17T10:50:00","4","52.640028","-2.305578","82.9","COSFORD, UK","FM-15","EGWC ","V020","260,1,N,0041,1","00840,1,C,N","011265,1,N,1","+0200,1","+0150,1","99999,9","02,5,+00660,1,99,9","07,5,+00840,1,99,9",,"07,99,1,99,9,99,9,99999,9,99,9,99,9","10102,1,99999,9",,,,"MET062METAR EGWC 171050Z 26008KT 9999 FEW022 BKN028 20/15 Q1010 BLU;",
"03414599999","2010-08-17T11:50:00","4","52.640028","-2.305578","82.9","COSFORD, UK","FM-15","EGWC ","V020","230,1,N,0026,1","00840,1,C,N","011265,1,N,1","+0210,1","+0150,1","99999,9","02,5,+00660,1,99,9","07,5,+00840,1,99,9",,"07,99,1,99,9,99,9,99999,9,99,9,99,9","10091,1,99999,9",,,,"MET062METAR EGWC 171150Z 23005KT 9999 FEW022 BKN028 21/15 Q1009 BLU;",
"03414599999","2010-08-17T12:50:00","4","52.640028","-2.305578","82.9","COSFORD, UK","FM-15","EGWC ","V020","320,1,N,0041,1","00900,1,C,N","011265,1,N,1","+0190,1","+0170,1","99999,9","02,5,+00300,1,99,9","07,5,+00900,1,99,9",,"07,99,1,99,9,99,9,99999,9,99,9,99,9","10091,1,99999,9","16,1",,,"MET067METAR EGWC 171250Z 32008KT 9999 VCSH FEW010 BKN030 19/17 Q1009 BLU;",
"03414599999","2010-08-17T13:50:00","4","52.640028","-2.305578","82.9","COSFORD, UK","FM-15","EGWC ","V020","320,1,N,0031,1","99999,9,C,N","011265,1,N,1","+0200,1","+0150,1","99999,9","02,5,+00300,1,99,9","04,5,+00600,1,99,9",,"04,99,1,99,9,99,9,99999,9,99,9,99,9","10091,1,99999,9",,,,"MET062METAR EGWC 171350Z 32006KT 9999 FEW010 SCT020 20/15 Q1009 WHT;","P01 006003SCOCIG"
"03414599999","2010-08-18T08:50:00","4","52.640028","-2.305578","82.9","COSFORD, UK","FM-15","EGWC ","V020","240,1,N,0041,1","99999,9,C,N","011265,1,N,1","+0150,1","+0110,1","99999,9","02,5,+01050,1,99,9","04,5,+01800,1,99,9",,"04,99,1,99,9,99,9,99999,9,99,9,99,9","10081,1,99999,9",,,,"MET062METAR EGWC 180850Z 24008KT 9999 FEW035 SCT060 15/11 Q1008 BLU;","P01 018003SCOCIG"
"03414599999","2010-08-18T09:50:00","4","52.640028","-2.305578","82.9","COSFORD, UK","FM-15","EGWC ","V020","240,1,N,0051,1","01050,1,C,N","011265,1,N,1","+0170,1","+0090,1","99999,9","02,5,+00750,1,99,9","07,5,+01050,1,99,9",,"07,99,1,99,9,99,9,99999,9,99,9,99,9","10071,1,99999,9",,,,"MET062METAR EGWC 180950Z 24010KT 9999 FEW025 BKN035 17/09 Q1007 BLU;",
"03414599999","2010-08-18T10:50:00","4","52.640028","-2.305578","82.9","COSFORD, UK","FM-15","EGWC ","V020","240,1,N,0041,1","01050,1,C,N","011265,1,N,1","+0170,1","+0100,1","99999,9","02,5,+00750,1,99,9","07,5,+01050,1,99,9",,"07,99,1,99,9,99,9,99999,9,99,9,99,9","10071,1,99999,9",,,,"MET062METAR EGWC 181050Z 24008KT 9999 FEW025 BKN035 17/10 Q1007 BLU;",
"03414599999","2010-08-18T11:50:00","4","52.640028","-2.305578","82.9","COSFORD, UK","FM-15","EGWC ","V020","220,1,N,0051,1","01350,1,C,N","011265,1,N,1","+0180,1","+0100,1","99999,9","04,5,+00900,1,99,9","07,5,+01350,1,99,9",,"07,99,1,99,9,99,9,99999,9,99,9,99,9","10071,1,99999,9",,,,"MET062METAR EGWC 181150Z 22010KT 9999 SCT030 BKN045 18/10 Q1007 BLU;",
"03414599999","2010-08-18T12:50:00","4","52.640028","-2.305578","82.9","COSFORD, UK","FM-15","EGWC ","V020","260,1,N,0051,1","01350,1,C,N","011265,1,N,1","+0190,1","+0100,1","99999,9","04,5,+00900,1,99,9","07,5,+01350,1,99,9",,"07,99,1,99,9,99,9,99999,9,99,9,99,9","10071,1,99999,9",,,,"MET062METAR EGWC 181250Z 26010KT 9999 SCT030 BKN045 19/10 Q1007 BLU;",
"03414599999","2010-08-20T08:50:00","4","52.640028","-2.305578","82.9","COSFORD, UK","FM-15","EGWC ","V020","180,1,N,0062,1","00300,1,C,N","011265,1,N,1","+0190,1","+0170,1","99999,9","02,5,+00210,1,99,9","07,5,+00300,1,99,9",,"07,99,1,99,9,99,9,99999,9,99,9,99,9","10102,1,99999,9",,,,"MET062METAR EGWC 200850Z 18012KT 9999 FEW007 BKN010 19/17 Q1010 GRN;",
"03414599999","2010-08-20T09:50:00","4","52.640028","-2.305578","82.9","COSFORD, UK","FM-15","EGWC ","V020","180,1,N,0051,1","00300,1,C,N","011265,1,N,1","+0200,1","+0170,1","99999,9","07,5,+00300,1,99,9",,,"07,99,1,99,9,99,9,99999,9,99,9,99,9","10102,1,99999,9",,,,"MET055METAR EGWC 200950Z 18010KT 9999 BKN010 20/17 Q1010 GRN;",
"03414599999","2010-08-20T10:50:00","4","52.640028","-2.305578","82.9","COSFORD, UK","FM-15","EGWC ","V020","170,1,N,0051,1","00450,1,C,N","011265,1,N,1","+0200,1","+0180,1","99999,9","02,5,+00300,1,99,9","07,5,+00450,1,99,9",,"07,99,1,99,9,99,9,99999,9,99,9,99,9","10108,1,99999,9","61,1",,,"MET066METAR EGWC 201050Z 17010KT 9999 -RA FEW010 BKN015 20/18 Q1011 WHT;",
"03414599999","2010-08-20T11:50:00","4","52.640028","-2.305578","82.9","COSFORD, UK","FM-15","EGWC ","V020","200,1,N,0062,1","00450,1,C,N","011265,1,N,1","+0200,1","+0180,1","99999,9","02,5,+00300,1,99,9","04,5,+00450,1,99,9","07,5,+01200,1,99,9","07,99,1,99,9,99,9,99999,9,99,9,99,9","10108,1,99999,9","61,1",,,"MET073METAR EGWC 201150Z 20012KT 9999 -RA FEW010 SCT015 BKN040 20/18 Q1011 WHT;",
"03414599999","2010-08-20T12:50:00","4","52.640028","-2.305578","82.9","COSFORD, UK","FM-15","EGWC ","V020","180,1,N,0103,1","00450,1,C,N","011265,1,N,1","+0210,1","+0190,1","99999,9","02,5,+00300,1,99,9","07,5,+00450,1,99,9",,"07,99,1,99,9,99,9,99999,9,99,9,99,9","10108,1,99999,9",,,,"MET062METAR EGWC 201250Z 18020KT 9999 FEW010 BKN015 21/19 Q1011 WHT;",
"03414599999","2010-08-20T13:50:00","4","52.640028","-2.305578","82.9","COSFORD, UK","FM-15","EGWC ","V020","180,1,N,0077,1","00450,1,C,N","006000,1,N,1","+0200,1","+0180,1","99999,9","02,5,+00300,1,99,9","07,5,+00450,1,99,9",,"07,99,1,99,9,99,9,99999,9,99,9,99,9","10119,1,99999,9","63,1",,,"MET065METAR EGWC 201350Z 18015KT 6000 RA FEW010 BKN015 20/18 Q1012 GRN;",
"03414599999","2010-08-31T06:50:00","4","52.640028","-2.305578","82.9","COSFORD, UK","FM-15","EGWC ","V020","999,9,C,0000,1","22000,1,9,N","005000,1,N,1","+0060,1","+0050,1","99999,9","02,5,+00180,1,99,9",,,"02,99,1,99,9,99,9,99999,9,99,9,99,9","10271,1,99999,9","41,1",,,"MET067METAR EGWC 310650Z 00000KT 5000 0500SW PRFG FEW006 06/05 Q1027 RED;",
"03414599999","2010-08-31T07:50:00","4","52.640028","-2.305578","82.9","COSFORD, UK","FM-15","EGWC ","V020","999,9,C,0000,1","22000,1,9,N","005000,1,N,1","+0100,1","+0090,1","99999,9",,,,,"10271,1,99999,9","05,1",,,"MET058METAR EGWC 310750Z 00000KT 5000 2000S HZ 10/09 Q1027 YLO2;",
"03414599999","2010-08-31T08:50:00","4","52.640028","-2.305578","82.9","COSFORD, UK","FM-15","EGWC ","V020","180,1,N,0026,1","99999,9,9,Y","009900,1,N,1","+0130,1","+0100,1","99999,9",,,,,"10271,1,99999,9",,,,"MET049METAR EGWC 310850Z 18005KT CAVOK 13/10 Q1027 BLU;",
"03414599999","2010-08-31T09:50:00","4","52.640028","-2.305578","82.9","COSFORD, UK","FM-15","EGWC ","V020","180,1,N,0026,1","22000,1,9,N","011265,1,N,1","+0160,1","+0110,1","99999,9","02,5,+00300,1,99,9",,,"02,99,1,99,9,99,9,99999,9,99,9,99,9","10271,1,99999,9",,,,"MET055METAR EGWC 310950Z 18005KT 9999 FEW010 16/11 Q1027 BLU;",
"03414599999","2010-08-31T10:50:00","4","52.640028","-2.305578","82.9","COSFORD, UK","FM-15","EGWC ","V020","180,1,N,0026,1","99999,9,C,N","011265,1,N,1","+0160,1","+0110,1","99999,9","02,5,+00300,1,99,9","04,5,+00600,1,99,9",,"04,99,1,99,9,99,9,99999,9,99,9,99,9","10271,1,99999,9",,,,"MET062METAR EGWC 311050Z 18005KT 9999 FEW010 SCT020 16/11 Q1027 WHT;","P01 006003SCOCIG"
"03414599999","2010-08-31T11:50:00","4","52.640028","-2.305578","82.9","COSFORD, UK","FM-15","EGWC ","V020","270,1,N,0026,1","99999,9,C,N","011265,1,N,1","+0170,1","+0090,1","99999,9","02,5,+00300,1,99,9","04,5,+00600,1,99,9",,"04,99,1,99,9,99,9,99999,9,99,9,99,9","10261,1,99999,9",,,,"MET062METAR EGWC 311150Z 27005KT 9999 FEW010 SCT020 17/09 Q1026 WHT;","P01 006003SCOCIG"
"03414599999","2010-08-31T12:50:00","4","52.640028","-2.305578","82.9","COSFORD, UK","FM-15","EGWC ","V020","200,1,N,0041,1","22000,1,9,N","011265,1,N,1","+0180,1","+0090,1","99999,9","04,5,+00540,1,99,9",,,"04,99,1,99,9,99,9,99999,9,99,9,99,9","10261,1,99999,9",,,,"MET055METAR EGWC 311250Z 20008KT 9999 SCT018 18/09 Q1026 WHT;",
"03414599999","2010-08-31T13:50:00","4","52.640028","-2.305578","82.9","COSFORD, UK","FM-15","EGWC ","V020","200,1,N,0041,1","22000,1,9,N","011265,1,N,1","+0190,1","+0090,1","99999,9","04,5,+00900,1,99,9",,,"04,99,1,99,9,99,9,99999,9,99,9,99,9","10261,1,99999,9",,,,"MET055METAR EGWC 311350Z 20008KT 9999 SCT030 19/09 Q1026 BLU;",
"03414599999","2010-09-01T07:50:00","4","52.640028","-2.305578","82.9","COSFORD, UK","FM-15","EGWC ","V020","999,9,C,0000,1","07500,1,C,N","005000,1,N,1","+0100,1","+0080,1","99999,9","07,5,+07500,1,99,9",,,"07,99,1,99,9,99,9,99999,9,99,9,99,9","10230,1,99999,9","10,1",,,"MET058METAR EGWC 010750Z 00000KT 5000 BR BKN250 10/08 Q1023 WHT;",
"03414599999","2010-09-01T08:50:00","4","52.640028","-2.305578","82.9","COSFORD, UK","FM-15","EGWC ","V020","999,9,C,0000,1","07500,1,C,N","008000,1,N,1","+0140,1","+0110,1","99999,9","07,5,+07500,1,99,9",,,"07,99,1,99,9,99,9,99999,9,99,9,99,9","10230,1,99999,9","05,1",,,"MET058METAR EGWC 010850Z 00000KT 8000 HZ BKN250 14/11 Q1023 BLU;",
"03414599999","2010-09-01T09:50:00","4","52.640028","-2.305578","82.9","COSFORD, UK","FM-15","EGWC ","V020","999,9,C,0000,1","07500,1,C,N","011265,1,N,1","+0160,1","+0110,1","99999,9","02,5,+00600,1,99,9","07,5,+07500,1,99,9",,"07,99,1,99,9,99,9,99999,9,99,9,99,9","10230,1,99999,9",,,,"MET062METAR EGWC 010950Z 00000KT 9999 FEW020 BKN250 16/11 Q1023 BLU;",
"03414599999","2010-09-01T10:50:00","4","52.640028","-2.305578","82.9","COSFORD, UK","FM-15","EGWC ","V020","999,9,C,0000,1","07500,1,C,N","011265,1,N,1","+0180,1","+0130,1","99999,9","02,5,+00600,1,99,9","07,5,+07500,1,99,9",,"07,99,1,99,9,99,9,99999,9,99,9,99,9","10220,1,99999,9",,,,"MET062METAR EGWC 011050Z 00000KT 9999 FEW020 BKN250 18/13 Q1022 BLU;",
"03414599999","2010-09-01T11:50:00","4","52.640028","-2.305578","82.9","COSFORD, UK","FM-15","EGWC ","V020","150,1,N,0026,1","07500,1,C,N","011265,1,N,1","+0190,1","+0100,1","99999,9","02,5,+00750,1,99,9","07,5,+07500,1,99,9",,"07,99,1,99,9,99,9,99999,9,99,9,99,9","10220,1,99999,9",,,,"MET062METAR EGWC 011150Z 15005KT 9999 FEW025 BKN250 19/10 Q1022 BLU;",
"03414599999","2010-09-01T12:50:00","4","52.640028","-2.305578","82.9","COSFORD, UK","FM-15","EGWC ","V020","180,1,N,0036,1","07500,1,C,N","011265,1,N,1","+0200,1","+0090,1","99999,9","02,5,+00750,1,99,9","07,5,+07500,1,99,9",,"07,99,1,99,9,99,9,99999,9,99,9,99,9","10220,1,99999,9",,,,"MET062METAR EGWC 011250Z 18007KT 9999 FEW025 BKN250 20/09 Q1022 BLU;",
"03414599999","2010-09-01T13:50:00","4","52.640028","-2.305578","82.9","COSFORD, UK","FM-15","EGWC ","V020","280,1,N,0026,1","07500,1,C,N","011265,1,N,1","+0200,1","+0110,1","99999,9","02,5,+01200,1,99,9","07,5,+07500,1,99,9",,"07,99,1,99,9,99,9,99999,9,99,9,99,9","10210,1,99999,9",,,,"MET062METAR EGWC 011350Z 28005KT 9999 FEW040 BKN250 20/11 Q1021 BLU;",
"03414599999","2010-09-02T06:50:00","4","52.640028","-2.305578","82.9","COSFORD, UK","FM-15","EGWC ","V020","999,9,C,0000,1","07500,1,C,N","007000,1,N,1","+0090,1","+0080,1","99999,9","07,5,+07500,1,99,9",,,"07,99,1,99,9,99,9,99999,9,99,9,99,9","10220,1,99999,9","05,1",,,"MET058METAR EGWC 020650Z 00000KT 7000 HZ BKN250 09/08 Q1022 WHT;",
"03414599999","2010-09-02T07:50:00","4","52.640028","-2.305578","82.9","COSFORD, UK","FM-15","EGWC ","V020","999,9,C,0000,1","07500,1,C,N","008000,1,N,1","+0130,1","+0110,1","99999,9","07,5,+07500,1,99,9",,,"07,99,1,99,9,99,9,99999,9,99,9,99,9","10220,1,99999,9","05,1",,,"MET058METAR EGWC 020750Z 00000KT 8000 HZ BKN250 13/11 Q1022 BLU;",
"03414599999","2010-09-02T08:50:00","4","52.640028","-2.305578","82.9","COSFORD, UK","FM-15","EGWC ","V020","999,9,C,0000,1","99999,9,9,Y","009900,1,N,1","+0150,1","+0110,1","99999,9",,,,,"10220,1,99999,9",,,,"MET049METAR EGWC 020850Z 00000KT CAVOK 15/11 Q1022 BLU;",
"03414599999","2010-09-02T09:50:00","4","52.640028","-2.305578","82.9","COSFORD, UK","FM-15","EGWC ","V020","110,1,N,0026,1","99999,9,9,Y","009900,1,N,1","+0170,1","+0110,1","99999,9",,,,,"10220,1,99999,9",,,,"MET049METAR EGWC 020950Z 11005KT CAVOK 17/11 Q1022 BLU;",
"03414599999","2010-09-02T10:50:00","4","52.640028","-2.305578","82.9","COSFORD, UK","FM-15","EGWC ","V020","090,1,N,0031,1","99999,9,9,Y","009900,1,N,1","+0190,1","+0110,1","99999,9",,,,,"10220,1,99999,9",,,,"MET049METAR EGWC 021050Z 09006KT CAVOK 19/11 Q1022 BLU;",
"03414599999","2010-09-02T11:50:00","4","52.640028","-2.305578","82.9","COSFORD, UK","FM-15","EGWC ","V020","100,1,N,0026,1","99999,9,9,Y","009900,1,N,1","+0190,1","+0120,1","99999,9",,,,,"10220,1,99999,9",,,,"MET049METAR EGWC 021150Z 10005KT CAVOK 19/12 Q1022 BLU;",
"03414599999","2010-09-02T12:50:00","4","52.640028","-2.305578","82.9","COSFORD, UK","FM-15","EGWC ","V020","070,1,N,0051,1","07500,1,C,N","011265,1,N,1","+0200,1","+0110,1","99999,9","02,5,+01140,1,99,9","07,5,+07500,1,99,9",,"07,99,1,99,9,99,9,99999,9,99,9,99,9","10220,1,99999,9",,,,"MET062METAR EGWC 021250Z 07010KT 9999 FEW038 BKN250 20/11 Q1022 BLU;",
"03414599999","2010-09-03T07:50:00","4","52.640028","-2.305578","82.9","COSFORD, UK","FM-15","EGWC ","V020","999,9,C,0000,1","22000,1,9,N","002000,1,N,1","+0120,1","+0110,1","99999,9","04,5,+00060,1,99,9",,,"04,99,1,99,9,99,9,99999,9,99,9,99,9","10240,1,99999,9","10,1",,,"MET058METAR EGWC 030750Z 00000KT 2000 BR SCT002 12/11 Q1024 AMB;",
"03414599999","2010-09-03T08:50:00","4","52.640028","-2.305578","82.9","COSFORD, UK","FM-15","EGWC ","V020","999,9,C,0000,1","00060,1,C,N","004000,1,N,1","+0130,1","+0120,1","99999,9","02,5,+00030,1,99,9","07,5,+00060,1,99,9",,"07,99,1,99,9,99,9,99999,9,99,9,99,9","10230,1,99999,9","10,1",,,"MET065METAR EGWC 030850Z 00000KT 4000 BR FEW001 BKN002 13/12 Q1023 AMB;",
"03414599999","2010-09-03T09:50:00","4","52.640028","-2.305578","82.9","COSFORD, UK","FM-15","EGWC ","V020","999,9,C,0000,1","00210,1,C,N","006000,1,N,1","+0140,1","+0130,1","99999,9","02,5,+00150,1,99,9","07,5,+00210,1,99,9",,"07,99,1,99,9,99,9,99999,9,99,9,99,9","10230,1,99999,9","05,1",,,"MET065METAR EGWC 030950Z 00000KT 6000 HZ FEW005 BKN007 14/13 Q1023 GRN;",
"03414599999","2010-09-03T10:50:00","4","52.640028","-2.305578","82.9","COSFORD, UK","FM-15","EGWC ","V020","090,1,N,0051,1","00450,1,C,N","011265,1,N,1","+0160,1","+0120,1","99999,9","02,5,+00300,1,99,9","07,5,+00450,1,99,9",,"07,99,1,99,9,99,9,99999,9,99,9,99,9","10230,1,99999,9",,,,"MET062METAR EGWC 031050Z 09010KT 9999 FEW010 BKN015 16/12 Q1023 WHT;",
"03414599999","2010-09-03T11:50:00","4","52.640028","-2.305578","82.9","COSFORD, UK","FM-15","EGWC ","V020","100,1,N,0051,1","00630,1,C,N","011265,1,N,1","+0180,1","+0100,1","99999,9","07,5,+00630,1,99,9",,,"07,99,1,99,9,99,9,99999,9,99,9,99,9","10230,1,99999,9",,,,"MET055METAR EGWC 031150Z 10010KT 9999 BKN021 18/10 Q1023 WHT;",
"03414599999","2010-09-03T12:50:00","4","52.640028","-2.305578","82.9","COSFORD, UK","FM-15","EGWC ","V020","170,1,N,0026,1","22000,1,9,N","011265,1,N,1","+0180,1","+0110,1","99999,9","04,5,+00750,1,99,9",,,"04,99,1,99,9,99,9,99999,9,99,9,99,9","10220,1,99999,9",,,,"MET055METAR EGWC 031250Z 17005KT 9999 SCT025 18/11 Q1022 BLU;",
"03414599999","2010-09-03T13:50:00","4","52.640028","-2.305578","82.9","COSFORD, UK","FM-15","EGWC ","V020","120,1,N,0041,1","22000,1,9,N","011265,1,N,1","+0190,1","+0110,1","99999,9","04,5,+00900,1,99,9",,,"04,99,1,99,9,99,9,99999,9,99,9,99,9","10220,1,99999,9",,,,"MET055METAR EGWC 031350Z 12008KT 9999 SCT030 19/11 Q1022 BLU;",
"03414599999","2010-09-06T06:50:00","4","52.640028","-2.305578","82.9","COSFORD, UK","FM-15","EGWC ","V020","110,1,N,0072,1","04500,1,C,N","011265,1,N,1","+0150,1","+0090,1","99999,9","02,5,+00840,1,99,9","07,5,+04500,1,99,9",,"07,99,1,99,9,99,9,99999,9,99,9,99,9","10102,1,99999,9",,,,"MET062METAR EGWC 060650Z 11014KT 9999 FEW028 BKN150 15/09 Q1010 BLU;",
"03414599999","2010-09-06T07:50:00","4","52.640028","-2.305578","82.9","COSFORD, UK","FM-15","EGWC ","V020","100,1,N,0072,1","04500,1,C,N","011265,1,N,1","+0150,1","+0090,1","99999,9","02,5,+00840,1,99,9","07,5,+04500,1,99,9",,"07,99,1,99,9,99,9,99999,9,99,9,99,9","10091,1,99999,9",,,,"MET062METAR EGWC 060750Z 10014KT 9999 FEW028 BKN150 15/09 Q1009 BLU;",
"03414599999","2010-09-06T08:50:00","4","52.640028","-2.305578","82.9","COSFORD, UK","FM-15","EGWC ","V020","110,1,N,0072,1","99999,9,9,Y","009900,1,N,1","+0170,1","+0100,1","99999,9",,,,,"10091,1,99999,9",,,,"MET049METAR EGWC 060850Z 11014KT CAVOK 17/10 Q1009 BLU;",
"03414599999","2010-09-06T09:50:00","4","52.640028","-2.305578","82.9","COSFORD, UK","FM-15","EGWC ","V020","110,1,N,0087,1","99999,9,9,Y","009900,1,N,1","+0170,1","+0100,1","99999,9",,,,,"10081,1,99999,9",,,,"MET049METAR EGWC 060950Z 11017KT CAVOK 17/10 Q1008 BLU;",
"03414599999","2010-09-06T10:50:00","4","52.640028","-2.305578","82.9","COSFORD, UK","FM-15","EGWC ","V020","110,1,N,0093,1","99999,9,9,Y","009900,1,N,1","+0180,1","+0090,1","99999,9",,,,,"10071,1,99999,9",,,"0149,1","MET052METAR EGWC 061050Z 11018G29KT CAVOK 18/09 Q1007 BLU;",
"03414599999","2010-09-06T11:50:00","4","52.640028","-2.305578","82.9","COSFORD, UK","FM-15","EGWC ","V020","120,1,N,0103,1","99999,9,9,Y","009900,1,N,1","+0190,1","+0070,1","99999,9",,,,,"10061,1,99999,9",,,,"MET049METAR EGWC 061150Z 12020KT CAVOK 19/07 Q1006 BLU;",
"03414599999","2010-09-06T12:50:00","4","52.640028","-2.305578","82.9","COSFORD, UK","FM-15","EGWC ","V020","100,1,N,0082,1","99999,9,9,Y","009900,1,N,1","+0190,1","+0070,1","99999,9",,,,,"10051,1,99999,9",,,,"MET049METAR EGWC 061250Z 10016KT CAVOK 19/07 Q1005 BLU;",
"03414599999","2010-09-06T13:50:00","4","52.640028","-2.305578","82.9","COSFORD, UK","FM-15","EGWC ","V020","120,1,N,0077,1","99999,9,9,Y","009900,1,N,1","+0200,1","+0090,1","99999,9",,,,,"10041,1,99999,9",,,"0129,1","MET052METAR EGWC 061350Z 12015G25KT CAVOK 20/09 Q1004 BLU;",
"03414599999","2010-09-06T14:50:00","4","52.640028","-2.305578","82.9","COSFORD, UK","FM-15","EGWC ","V020","120,1,N,0077,1","99999,9,9,Y","009900,1,N,1","+0200,1","+0090,1","99999,9",,,,,"10031,1,99999,9",,,"0129,1","MET052METAR EGWC 061450Z 12015G25KT CAVOK 20/09 Q1003 BLU;",
"03414599999","2010-09-07T07:50:00","4","52.640028","-2.305578","82.9","COSFORD, UK","FM-15","EGWC ","V020","180,1,N,0051,1","22000,1,9,N","011265,1,N,1","+0130,1","+0120,1","99999,9","02,5,+00150,1,99,9",,,"02,99,1,99,9,99,9,99999,9,99,9,99,9","09990,1,99999,9",,,,"MET055METAR EGWC 070750Z 18010KT 9999 FEW005 13/12 Q0999 BLU;",
"03414599999","2010-09-07T08:50:00","4","52.640028","-2.305578","82.9","COSFORD, UK","FM-15","EGWC ","V020","170,1,N,0041,1","22000,1,9,N","011265,1,N,1","+0140,1","+0120,1","99999,9","02,5,+00330,1,99,9",,,"02,99,1,99,9,99,9,99999,9,99,9,99,9","09990,1,99999,9",,,,"MET055METAR EGWC 070850Z 17008KT 9999 FEW011 14/12 Q0999 BLU;",
"03414599999","2010-09-07T09:50:00","4","52.640028","-2.305578","82.9","COSFORD, UK","FM-15","EGWC ","V020","160,1,N,0041,1","22000,1,9,N","011265,1,N,1","+0160,1","+0120,1","99999,9","04,5,+00450,1,99,9",,,"04,99,1,99,9,99,9,99999,9,99,9,99,9","09990,1,99999,9",,,,"MET055METAR EGWC 070950Z 16008KT 9999 SCT015 16/12 Q0999 WHT;",
"03414599999","2010-09-07T10:50:00","4","52.640028","-2.305578","82.9","COSFORD, UK","FM-15","EGWC ","V020","180,1,N,0051,1","22000,1,9,N","011265,1,N,1","+0170,1","+0120,1","99999,9","04,5,+00540,1,99,9",,,"04,99,1,99,9,99,9,99999,9,99,9,99,9","09990,1,99999,9",,,,"MET055METAR EGWC 071050Z 18010KT 9999 SCT018 17/12 Q0999 WHT;",
"03414599999","2010-09-07T11:50:00","4","52.640028","-2.305578","82.9","COSFORD, UK","FM-15","EGWC ","V020","150,1,N,0062,1","99999,9,C,N","011265,1,N,1","+0170,1","+0120,1","99999,9","02,5,+00600,1,99,9","04,5,+00780,1,99,9",,"04,99,1,99,9,99,9,99999,9,99,9,99,9","09990,1,99999,9",,,,"MET062METAR EGWC 071150Z 15012KT 9999 FEW020 SCT026 17/12 Q0999 BLU;","P01 007803SCOCIG"
"03414599999","2010-09-07T12:50:00","4","52.640028","-2.305578","82.9","COSFORD, UK","FM-15","EGWC ","V020","180,1,N,0051,1","00780,1,C,N","011265,1,N,1","+0180,1","+0100,1","99999,9","02,5,+00600,1,99,9","07,5,+00780,1,99,9",,"07,99,1,99,9,99,9,99999,9,99,9,99,9","09990,1,99999,9","80,1",,,"MET068METAR EGWC 071250Z 18010KT 9999 -SHRA FEW020 BKN026 18/10 Q0999 BLU;",
"03414599999","2010-09-07T13:50:00","4","52.640028","-2.305578","82.9","COSFORD, UK","FM-15","EGWC ","V020","180,1,N,0026,1","00900,1,C,N","011265,1,N,1","+0160,1","+0120,1","99999,9","04,5,+00750,1,09,1","07,5,+00900,1,99,9",,"07,99,1,99,9,99,9,99999,9,99,9,99,9","09990,1,99999,9",,,,"MET064METAR EGWC 071350Z 18005KT 9999 SCT025CB BKN030 16/12 Q0999 BLU;",
"03414599999","2010-09-07T14:50:00","4","52.640028","-2.305578","82.9","COSFORD, UK","FM-15","EGWC ","V020","150,1,N,0051,1","00900,1,C,N","011265,1,N,1","+0150,1","+0120,1","99999,9","04,5,+00750,1,09,1","07,5,+00900,1,99,9",,"07,99,1,99,9,99,9,99999,9,99,9,99,9","09990,1,99999,9",,,,"MET064METAR EGWC 071450Z 15010KT 9999 SCT025CB BKN030 15/12 Q0999 BLU;",
"03414599999","2010-09-08T06:50:00","4","52.640028","-2.305578","82.9","COSFORD, UK","FM-15","EGWC ","V020","999,9,C,0000,1","00015,1,C,N","000200,1,N,1","+0090,1","+0090,1","99999,9","09,1,+00015,1,99,9",,,"09,99,1,99,9,99,9,00025,1,99,9,99,9","10031,1,99999,9",,,,"MET054METAR EGWC 080650Z 00000KT 0200 VV/// 09/09 Q1003 RED;",
"03414599999","2010-09-08T07:50:00","4","52.640028","-2.305578","82.9","COSFORD, UK","FM-15","EGWC ","V020","999,9,C,0000,1","00015,1,C,N","000200,1,N,1","+0090,1","+0090,1","99999,9","09,1,+00015,1,99,9",,,"09,99,1,99,9,99,9,00025,1,99,9,99,9","10031,1,99999,9",,,,"MET054METAR EGWC 080750Z 00000KT 0200 VV/// 09/09 Q1003 RED;",
"03414599999","2010-09-08T08:50:00","4","52.640028","-2.305578","82.9","COSFORD, UK","FM-15","EGWC ","V020","999,9,C,0000,1","00090,1,C,N","007000,1,N,1","+0110,1","+0110,1","99999,9","07,5,+00090,1,99,9",,,"07,99,1,99,9,99,9,99999,9,99,9,99,9","10031,1,99999,9","10,1",,,"MET066METAR EGWC 080850Z 00000KT 7000 2500SW BR BKN003 11/11 Q1003 YLO2;",
"03414599999","2010-09-08T09:30:00","4","52.640028","-2.305578","82.9","COSFORD, UK","FM-15","EGWC ","V020","999,9,C,0000,1","22000,1,9,N","011265,1,N,1","+0120,1","+0110,1","99999,9","04,5,+06000,1,99,9",,,"04,99,1,99,9,99,9,99999,9,99,9,99,9","10031,1,99999,9","10,1",,,"MET065METAR EGWC 080930Z 00000KT 9999 5000SW BR SCT200 12/11 Q1003 WHT;",
"03414599999","2010-09-08T09:50:00","4","52.640028","-2.305578","82.9","COSFORD, UK","FM-15","EGWC ","V020","999,9,C,0000,1","06000,1,C,N","011265,1,N,1","+0150,1","+0130,1","99999,9","04,5,+00840,1,99,9","07,5,+06000,1,99,9",,"07,99,1,99,9,99,9,99999,9,99,9,99,9","10041,1,99999,9",,,,"MET062METAR EGWC 080950Z 00000KT 9999 SCT028 BKN200 15/13 Q1004 BLU;",
"03414599999","2010-09-08T10:50:00","4","52.640028","-2.305578","82.9","COSFORD, UK","FM-15","EGWC ","V020","999,9,C,0000,1","06000,1,C,N","011265,1,N,1","+0160,1","+0130,1","99999,9","04,5,+00900,1,99,9","07,5,+06000,1,99,9",,"07,99,1,99,9,99,9,99999,9,99,9,99,9","10031,1,99999,9",,,,"MET062METAR EGWC 081050Z 00000KT 9999 SCT030 BKN200 16/13 Q1003 BLU;",
"03414599999","2010-09-08T11:50:00","4","52.640028","-2.305578","82.9","COSFORD, UK","FM-15","EGWC ","V020","190,1,N,0026,1","22000,1,9,N","011265,1,N,1","+0170,1","+0130,1","99999,9","04,5,+00900,1,99,9",,,"04,99,1,99,9,99,9,99999,9,99,9,99,9","10031,1,99999,9",,,,"MET055METAR EGWC 081150Z 19005KT 9999 SCT030 17/13 Q1003 BLU;",
"03414599999","2010-09-08T12:50:00","4","52.640028","-2.305578","82.9","COSFORD, UK","FM-15","EGWC ","V020","190,1,N,0026,1","22000,1,9,N","011265,1,N,1","+0170,1","+0130,1","99999,9","04,5,+00900,1,99,9",,,"04,99,1,99,9,99,9,99999,9,99,9,99,9","10031,1,99999,9",,,,"MET055METAR EGWC 081250Z 19005KT 9999 SCT030 17/13 Q1003 BLU;",
"03414599999","2010-09-08T13:50:00","4","52.640028","-2.305578","82.9","COSFORD, UK","FM-15","EGWC ","V020","150,1,N,0031,1","22000,1,9,N","011265,1,N,1","+0180,1","+0120,1","99999,9","04,5,+00900,1,99,9",,,"04,99,1,99,9,99,9,99999,9,99,9,99,9","10031,1,99999,9",,,,"MET055METAR EGWC 081350Z 15006KT 9999 SCT030 18/12 Q1003 BLU;",
"03414599999","2010-09-08T14:50:00","4","52.640028","-2.305578","82.9","COSFORD, UK","FM-15","EGWC ","V020","999,9,C,0000,1","22000,1,9,N","011265,1,N,1","+0190,1","+0110,1","99999,9","04,5,+00900,1,99,9",,,"04,99,1,99,9,99,9,99999,9,99,9,99,9","10031,1,99999,9",,,,"MET055METAR EGWC 081450Z 00000KT 9999 SCT030 19/11 Q1003 BLU;",
"03414599999","2010-09-11T09:50:00","4","52.640028","-2.305578","82.9","COSFORD, UK","FM-15","EGWC ","V020","230,1,N,0062,1","99999,9,C,N","011265,1,N,1","+0180,1","+0150,1","99999,9","02,5,+00150,1,99,9","04,5,+00360,1,99,9",,"04,99,1,99,9,99,9,99999,9,99,9,99,9","10108,1,99999,9","16,1",,,"MET067METAR EGWC 110950Z 23012KT 9999 VCSH FEW005 SCT012 18/15 Q1011 GRN;","P01 003603SCOCIG"
"03414599999","2010-09-11T10:50:00","4","52.640028","-2.305578","82.9","COSFORD, UK","FM-15","EGWC ","V020","230,1,N,0062,1","99999,9,C,N","011265,1,N,1","+0180,1","+0140,1","99999,9","02,5,+00150,1,99,9","04,5,+00450,1,99,9",,"04,99,1,99,9,99,9,99999,9,99,9,99,9","10108,1,99999,9",,,,"MET062METAR EGWC 111050Z 23012KT 9999 FEW005 SCT015 18/14 Q1011 WHT;","P01 004503SCOCIG"
"03414599999","2010-09-11T11:50:00","4","52.640028","-2.305578","82.9","COSFORD, UK","FM-15","EGWC ","V020","220,1,N,0051,1","99999,9,C,N","011265,1,N,1","+0180,1","+0130,1","99999,9","02,5,+00180,1,99,9","04,5,+00450,1,99,9",,"04,99,1,99,9,99,9,99999,9,99,9,99,9","10119,1,99999,9",,,,"MET062METAR EGWC 111150Z 22010KT 9999 FEW006 SCT015 18/13 Q1012 WHT;","P01 004503SCOCIG"
"03414599999","2010-09-11T12:50:00","4","52.640028","-2.305578","82.9","COSFORD, UK","FM-15","EGWC ","V020","240,1,N,0036,1","99999,9,C,N","011265,1,N,1","+0190,1","+0130,1","99999,9","02,5,+00750,1,99,9","04,5,+01050,1,99,9",,"04,99,1,99,9,99,9,99999,9,99,9,99,9","10119,1,99999,9",,,,"MET062METAR EGWC 111250Z 24007KT 9999 FEW025 SCT035 19/13 Q1012 BLU;","P01 010503SCOCIG"
"03414599999","2010-09-11T13:50:00","4","52.640028","-2.305578","82.9","COSFORD, UK","FM-15","EGWC ","V020","240,1,N,0051,1","99999,9,C,N","011265,1,N,1","+0200,1","+0110,1","99999,9","02,5,+00750,1,99,9","04,5,+01200,1,99,9",,"04,99,1,99,9,99,9,99999,9,99,9,99,9","10119,1,99999,9",,,,"MET062METAR EGWC 111350Z 24010KT 9999 FEW025 SCT040 20/11 Q1012 BLU;","P01 012003SCOCIG"
"03414599999","2010-09-11T14:50:00","4","52.640028","-2.305578","82.9","COSFORD, UK","FM-15","EGWC ","V020","240,1,N,0051,1","99999,9,C,N","011265,1,N,1","+0200,1","+0130,1","99999,9","02,5,+00450,1,99,9","04,5,+00750,1,99,9",,"04,99,1,99,9,99,9,99999,9,99,9,99,9","10119,1,99999,9",,,,"MET062METAR EGWC 111450Z 24010KT 9999 FEW015 SCT025 20/13 Q1012 BLU;","P01 007503SCOCIG"
"03414599999","2010-09-12T07:50:00","4","52.640028","-2.305578","82.9","COSFORD, UK","FM-15","EGWC ","V020","250,1,N,0026,1","99999,9,9,Y","009900,1,N,1","+0120,1","+0100,1","99999,9",,,,,"10220,1,99999,9",,,,"MET049METAR EGWC 120750Z 25005KT CAVOK 12/10 Q1022 BLU;",
"03414599999","2010-09-12T08:50:00","4","52.640028","-2.305578","82.9","COSFORD, UK","FM-15","EGWC ","V020","280,1,N,0062,1","22000,1,9,N","011265,1,N,1","+0150,1","+0100,1","99999,9","02,5,+00300,1,99,9",,,"02,99,1,99,9,99,9,99999,9,99,9,99,9","10230,1,99999,9",,,,"MET055METAR EGWC 120850Z 28012KT 9999 FEW010 15/10 Q1023 BLU;",
"03414599999","2010-09-12T09:50:00","4","52.640028","-2.305578","82.9","COSFORD, UK","FM-15","EGWC ","V020","300,1,N,0062,1","00750,1,C,N","011265,1,N,1","+0150,1","+0100,1","99999,9","07,5,+00750,1,99,9",,,"07,99,1,99,9,99,9,99999,9,99,9,99,9","10230,1,99999,9",,,,"MET055METAR EGWC 120950Z 30012KT 9999 BKN025 15/10 Q1023 BLU;",
"03414599999","2010-09-12T10:50:00","4","52.640028","-2.305578","82.9","COSFORD, UK","FM-15","EGWC ","V020","300,1,N,0051,1","00750,1,C,N","011265,1,N,1","+0160,1","+0100,1","99999,9","07,5,+00750,1,99,9",,,"07,99,1,99,9,99,9,99999,9,99,9,99,9","10240,1,99999,9",,,,"MET055METAR EGWC 121050Z 30010KT 9999 BKN025 16/10 Q1024 BLU;",
"03414599999","2010-09-12T11:50:00","4","52.640028","-2.305578","82.9","COSFORD, UK","FM-15","EGWC ","V020","300,1,N,0062,1","00750,1,C,N","011265,1,N,1","+0160,1","+0090,1","99999,9","07,5,+00750,1,99,9",,,"07,99,1,99,9,99,9,99999,9,99,9,99,9","10240,1,99999,9",,,,"MET055METAR EGWC 121150Z 30012KT 9999 BKN025 16/09 Q1024 BLU;",
"03414599999","2010-09-12T12:50:00","4","52.640028","-2.305578","82.9","COSFORD, UK","FM-15","EGWC ","V020","300,1,N,0051,1","00750,1,C,N","011265,1,N,1","+0170,1","+0090,1","99999,9","07,5,+00750,1,99,9",,,"07,99,1,99,9,99,9,99999,9,99,9,99,9","10240,1,99999,9",,,,"MET055METAR EGWC 121250Z 30010KT 9999 BKN025 17/09 Q1024 BLU;",
"03414599999","2010-09-13T06:50:00","4","52.640028","-2.305578","82.9","COSFORD, UK","FM-15","EGWC ","V020","200,1,N,0041,1","01500,1,C,N","011265,1,N,1","+0130,1","+0110,1","99999,9","02,5,+00750,1,99,9","07,5,+01500,1,99,9",,"07,99,1,99,9,99,9,99999,9,99,9,99,9","10240,1,99999,9",,,,"MET062METAR EGWC 130650Z 20008KT 9999 FEW025 BKN050 13/11 Q1024 BLU;",
"03414599999","2010-09-13T07:50:00","4","52.640028","-2.305578","82.9","COSFORD, UK","FM-15","EGWC ","V020","200,1,N,0051,1","01200,1,C,N","011265,1,N,1","+0140,1","+0120,1","99999,9","02,5,+00750,1,99,9","07,5,+01200,1,99,9",,"07,99,1,99,9,99,9,99999,9,99,9,99,9","10240,1,99999,9",,,,"MET062METAR EGWC 130750Z 20010KT 9999 FEW025 BKN040 14/12 Q1024 BLU;",
"03414599999","2010-09-13T08:50:00","4","52.640028","-2.305578","82.9","COSFORD, UK","FM-15","EGWC ","V020","200,1,N,0051,1","01200,1,C,N","011265,1,N,1","+0150,1","+0120,1","99999,9","02,5,+00600,1,99,9","07,5,+01200,1,99,9",,"07,99,1,99,9,99,9,99999,9,99,9,99,9","10230,1,99999,9",,,,"MET062METAR EGWC 130850Z 20010KT 9999 FEW020 BKN040 15/12 Q1023 BLU;",
"03414599999","2010-09-13T09:50:00","4","52.640028","-2.305578","82.9","COSFORD, UK","FM-15","EGWC ","V020","200,1,N,0051,1","00900,1,C,N","011265,1,N,1","+0160,1","+0130,1","99999,9","02,5,+00600,1,99,9","07,5,+00900,1,99,9",,"07,99,1,99,9,99,9,99999,9,99,9,99,9","10230,1,99999,9","61,1",,,"MET066METAR EGWC 130950Z 20010KT 9999 -RA FEW020 BKN030 16/13 Q1023 BLU;",
"03414599999","2010-09-13T10:50:00","4","52.640028","-2.305578","82.9","COSFORD, UK","FM-15","EGWC ","V020","210,1,N,0051,1","00600,1,C,N","011265,1,N,1","+0160,1","+0130,1","99999,9","07,5,+00600,1,99,9",,,"07,99,1,99,9,99,9,99999,9,99,9,99,9","10220,1,99999,9","61,1",,,"MET059METAR EGWC 131050Z 21010KT 9999 -RA BKN020 16/13 Q1022 WHT;",
"03414599999","2010-09-13T11:50:00","4","52.640028","-2.305578","82.9","COSFORD, UK","FM-15","EGWC ","V020","200,1,N,0051,1","00600,1,C,N","011265,1,N,1","+0160,1","+0140,1","99999,9","07,5,+00600,1,99,9",,,"07,99,1,99,9,99,9,99999,9,99,9,99,9","10220,1,99999,9","61,1",,,"MET059METAR EGWC 131150Z 20010KT 9999 -RA BKN020 16/14 Q1022 WHT;",
"03414599999","2010-09-13T12:50:00","4","52.640028","-2.305578","82.9","COSFORD, UK","FM-15","EGWC ","V020","220,1,N,0072,1","00750,1,C,N","011265,1,N,1","+0160,1","+0140,1","99999,9","04,5,+00600,1,99,9","07,5,+00750,1,99,9",,"07,99,1,99,9,99,9,99999,9,99,9,99,9","10210,1,99999,9",,,,"MET062METAR EGWC 131250Z 22014KT 9999 SCT020 BKN025 16/14 Q1021 WHT;",
"03414599999","2010-09-13T13:50:00","4","52.640028","-2.305578","82.9","COSFORD, UK","FM-15","EGWC ","V020","220,1,N,0062,1","00750,1,C,N","011265,1,N,1","+0170,1","+0140,1","99999,9","04,5,+00600,1,99,9","07,5,+00750,1,99,9",,"07,99,1,99,9,99,9,99999,9,99,9,99,9","10210,1,99999,9",,,,"MET062METAR EGWC 131350Z 22012KT 9999 SCT020 BKN025 17/14 Q1021 WHT;",
"03414599999","2010-09-13T14:50:00","4","52.640028","-2.305578","82.9","COSFORD, UK","FM-15","EGWC ","V020","220,1,N,0077,1","00600,1,C,N","011265,1,N,1","+0180,1","+0140,1","99999,9","07,5,+00600,1,99,9","07,5,+00750,1,99,9",,"07,99,1,99,9,99,9,99999,9,99,9,99,9","10210,1,99999,9",,,,"MET062METAR EGWC 131450Z 22015KT 9999 BKN020 BKN025 18/14 Q1021 WHT;",
"03414599999","2010-09-14T07:50:00","4","52.640028","-2.305578","82.9","COSFORD, UK","FM-15","EGWC ","V020","210,1,N,0041,1","01500,1,C,N","011265,1,N,1","+0170,1","+0160,1","99999,9","04,5,+00450,1,99,9","07,5,+01500,1,99,9",,"07,99,1,99,9,99,9,99999,9,99,9,99,9","10139,1,99999,9","61,1",,,"MET066METAR EGWC 140750Z 21008KT 9999 -RA SCT015 BKN050 17/16 Q1014 WHT;",
"03414599999","2010-09-14T08:50:00","4","52.640028","-2.305578","82.9","COSFORD, UK","FM-15","EGWC ","V020","210,1,N,0077,1","01800,1,C,N","011265,1,N,1","+0180,1","+0160,1","99999,9","04,5,+00450,1,99,9","07,5,+01800,1,99,9",,"07,99,1,99,9,99,9,99999,9,99,9,99,9","10139,1,99999,9","51,1",,,"MET066METAR EGWC 140850Z 21015KT 9999 -DZ SCT015 BKN060 18/16 Q1014 WHT;",
"03414599999","2010-09-14T09:50:00","4","52.640028","-2.305578","82.9","COSFORD, UK","FM-15","EGWC ","V020","210,1,N,0051,1","00600,1,C,N","011265,1,N,1","+0180,1","+0150,1","99999,9","02,5,+00300,1,99,9","07,5,+00600,1,99,9",,"07,99,1,99,9,99,9,99999,9,99,9,99,9","10129,1,99999,9",,,,"MET062METAR EGWC 140950Z 21010KT 9999 FEW010 BKN020 18/15 Q1013 WHT;",
"03414599999","2010-09-14T10:50:00","4","52.640028","-2.305578","82.9","COSFORD, UK","FM-15","EGWC ","V020","210,1,N,0051,1","00600,1,C,N","011265,1,N,1","+0180,1","+0160,1","99999,9","02,5,+00300,1,99,9","07,5,+00600,1,99,9",,"07,99,1,99,9,99,9,99999,9,99,9,99,9","10129,1,99999,9","16,1",,,"MET067METAR EGWC 141050Z 21010KT 9999 VCSH FEW010 BKN020 18/16 Q1013 WHT;",
"03414599999","2010-09-14T11:50:00","4","52.640028","-2.305578","82.9","COSFORD, UK","FM-15","EGWC ","V020","230,1,N,0041,1","00600,1,C,N","011265,1,N,1","+0180,1","+0160,1","99999,9","02,5,+00300,1,99,9","07,5,+00600,1,99,9",,"07,99,1,99,9,99,9,99999,9,99,9,99,9","10119,1,99999,9","61,1",,,"MET066METAR EGWC 141150Z 23008KT 9999 -RA FEW010 BKN020 18/16 Q1012 WHT;",
"03414599999","2010-09-14T12:50:00","4","52.640028","-2.305578","82.9","COSFORD, UK","FM-15","EGWC ","V020","240,1,N,0051,1","00600,1,C,N","004000,1,N,1","+0180,1","+0160,1","99999,9","02,5,+00300,1,99,9","07,5,+00600,1,99,9",,"07,99,1,99,9,99,9,99999,9,99,9,99,9","10119,1,99999,9","63,1",,,"MET065METAR EGWC 141250Z 24010KT 4000 RA FEW010 BKN020 18/16 Q1012 GRN;",
"03414599999","2010-09-14T13:50:00","4","52.640028","-2.305578","82.9","COSFORD, UK","FM-15","EGWC ","V020","240,1,N,0051,1","00600,1,C,N","006000,1,N,1","+0170,1","+0160,1","99999,9","02,5,+00300,1,99,9","07,5,+00600,1,99,9",,"07,99,1,99,9,99,9,99999,9,99,9,99,9","10119,1,99999,9","61,1",,,"MET066METAR EGWC 141350Z 24010KT 6000 -RA FEW010 BKN020 17/16 Q1012 WHT;",
"03414599999","2010-09-14T14:50:00","4","52.640028","-2.305578","82.9","COSFORD, UK","FM-15","EGWC ","V020","240,1,N,0051,1","00900,1,C,N","011265,1,N,1","+0170,1","+0130,1","99999,9","02,5,+00600,1,99,9","07,5,+00900,1,99,9",,"07,99,1,99,9,99,9,99999,9,99,9,99,9","10119,1,99999,9",,,,"MET062METAR EGWC 141450Z 24010KT 9999 FEW020 BKN030 17/13 Q1012 BLU;",
"03414599999","2010-09-15T06:50:00","4","52.640028","-2.305578","82.9","COSFORD, UK","FM-15","EGWC ","V020","240,1,N,0041,1","99999,9,C,N","011265,1,N,1","+0110,1","+0060,1","99999,9","02,5,+00600,1,99,9","04,5,+00750,1,99,9",,"04,99,1,99,9,99,9,99999,9,99,9,99,9","10102,1,99999,9",,,,"MET062METAR EGWC 150650Z 24008KT 9999 FEW020 SCT025 11/06 Q1010 BLU;","P01 007503SCOCIG"
"03414599999","2010-09-15T07:50:00","4","52.640028","-2.305578","82.9","COSFORD, UK","FM-15","EGWC ","V020","250,1,N,0051,1","00600,1,C,N","011265,1,N,1","+0130,1","+0070,1","99999,9","07,5,+00600,1,99,9",,,"07,99,1,99,9,99,9,99999,9,99,9,99,9","10102,1,99999,9",,,,"MET055METAR EGWC 150750Z 25010KT 9999 BKN020 13/07 Q1010 WHT;",
"03414599999","2010-09-15T08:50:00","4","52.640028","-2.305578","82.9","COSFORD, UK","FM-15","EGWC ","V020","270,1,N,0077,1","00750,1,C,N","011265,1,N,1","+0140,1","+0070,1","99999,9","02,5,+00600,1,99,9","07,5,+00750,1,99,9",,"07,99,1,99,9,99,9,99999,9,99,9,99,9","10091,1,99999,9",,,,"MET062METAR EGWC 150850Z 27015KT 9999 FEW020 BKN025 14/07 Q1009 BLU;",
"03414599999","2010-09-15T09:50:00","4","52.640028","-2.305578","82.9","COSFORD, UK","FM-15","EGWC ","V020","270,1,N,0077,1","00750,1,C,N","011265,1,N,1","+0140,1","+0070,1","99999,9","02,5,+00600,1,99,9","07,5,+00750,1,99,9",,"07,99,1,99,9,99,9,99999,9,99,9,99,9","10091,1,99999,9",,,,"MET062METAR EGWC 150950Z 27015KT 9999 FEW020 BKN025 14/07 Q1009 BLU;",
"03414599999","2010-09-15T10:50:00","4","52.640028","-2.305578","82.9","COSFORD, UK","FM-15","EGWC ","V020","270,1,N,0093,1","00750,1,C,N","011265,1,N,1","+0150,1","+0080,1","99999,9","07,5,+00750,1,99,9",,,"07,99,1,99,9,99,9,99999,9,99,9,99,9","10091,1,99999,9",,,"0154,1","MET058METAR EGWC 151050Z 27018G30KT 9999 BKN025 15/08 Q1009 BLU;",
"03414599999","2010-09-15T11:50:00","4","52.640028","-2.305578","82.9","COSFORD, UK","FM-15","EGWC ","V020","250,1,N,0077,1","00750,1,C,N","011265,1,N,1","+0150,1","+0080,1","99999,9","07,5,+00750,1,99,9",,,"07,99,1,99,9,99,9,99999,9,99,9,99,9","10091,1,99999,9",,,,"MET055METAR EGWC 151150Z 25015KT 9999 BKN025 15/08 Q1009 BLU;",
"03414599999","2010-09-15T12:50:00","4","52.640028","-2.305578","82.9","COSFORD, UK","FM-15","EGWC ","V020","260,1,N,0093,1","00750,1,C,N","011265,1,N,1","+0150,1","+0080,1","99999,9","07,5,+00750,1,99,9",,,"07,99,1,99,9,99,9,99999,9,99,9,99,9","10091,1,99999,9",,,,"MET055METAR EGWC 151250Z 26018KT 9999 BKN025 15/08 Q1009 BLU;",
"03414599999","2010-09-18T07:50:00","4","52.640028","-2.305578","82.9","COSFORD, UK","FM-15","EGWC ","V020","999,9,C,0000,1","01800,1,C,N","011265,1,N,1","+0090,1","+0070,1","99999,9","02,5,+01050,1,99,9","07,5,+01800,1,99,9",,"07,99,1,99,9,99,9,99999,9,99,9,99,9","10200,1,99999,9",,,,"MET062METAR EGWC 180750Z 00000KT 9999 FEW035 BKN060 09/07 Q1020 BLU;",
"03414599999","2010-09-18T08:50:00","4","52.640028","-2.305578","82.9","COSFORD, UK","FM-15","EGWC ","V020","999,9,C,0000,1","99999,9,9,Y","009900,1,N,1","+0120,1","+0070,1","99999,9",,,,,"10200,1,99999,9",,,,"MET049METAR EGWC 180850Z 00000KT CAVOK 12/07 Q1020 BLU;",
"03414599999","2010-09-18T09:50:00","4","52.640028","-2.305578","82.9","COSFORD, UK","FM-15","EGWC ","V020","270,1,N,0041,1","22000,1,9,N","011265,1,N,1","+0140,1","+0070,1","99999,9","02,5,+00750,1,99,9",,,"02,99,1,99,9,99,9,99999,9,99,9,99,9","10200,1,99999,9",,,,"MET055METAR EGWC 180950Z 27008KT 9999 FEW025 14/07 Q1020 BLU;",
"03414599999","2010-09-18T10:50:00","4","52.640028","-2.305578","82.9","COSFORD, UK","FM-15","EGWC ","V020","240,1,N,0062,1","99999,9,C,N","011265,1,N,1","+0140,1","+0070,1","99999,9","02,5,+00750,1,99,9","04,5,+03000,1,99,9",,"04,99,1,99,9,99,9,99999,9,99,9,99,9","10200,1,99999,9",,,,"MET062METAR EGWC 181050Z 24012KT 9999 FEW025 SCT100 14/07 Q1020 BLU;","P01 030003SCOCIG"
"03414599999","2010-09-18T11:50:00","4","52.640028","-2.305578","82.9","COSFORD, UK","FM-15","EGWC ","V020","250,1,N,0062,1","03000,1,C,N","011265,1,N,1","+0150,1","+0060,1","99999,9","04,5,+00750,1,99,9","07,5,+03000,1,99,9",,"07,99,1,99,9,99,9,99999,9,99,9,99,9","10200,1,99999,9",,,,"MET062METAR EGWC 181150Z 25012KT 9999 SCT025 BKN100 15/06 Q1020 BLU;",
"03414599999","2010-09-18T12:50:00","4","52.640028","-2.305578","82.9","COSFORD, UK","FM-15","EGWC ","V020","270,1,N,0051,1","00840,1,C,N","011265,1,N,1","+0160,1","+0070,1","99999,9","07,5,+00840,1,99,9",,,"07,99,1,99,9,99,9,99999,9,99,9,99,9","10190,1,99999,9",,,,"MET055METAR EGWC 181250Z 27010KT 9999 BKN028 16/07 Q1019 BLU;",
"03414599999","2010-09-20T06:50:00","4","52.640028","-2.305578","82.9","COSFORD, UK","FM-15","EGWC ","V020","230,1,N,0026,1","01800,1,C,N","011265,1,N,1","+0140,1","+0110,1","99999,9","02,5,+00840,1,99,9","07,5,+01800,1,99,9",,"07,99,1,99,9,99,9,99999,9,99,9,99,9","10102,1,99999,9",,,,"MET062METAR EGWC 200650Z 23005KT 9999 FEW028 BKN060 14/11 Q1010 BLU;",
"03414599999","2010-09-20T07:50:00","4","52.640028","-2.305578","82.9","COSFORD, UK","FM-15","EGWC ","V020","240,1,N,0051,1","01500,1,C,N","011265,1,N,1","+0150,1","+0110,1","99999,9","04,5,+00840,1,99,9","07,5,+01500,1,99,9",,"07,99,1,99,9,99,9,99999,9,99,9,99,9","10102,1,99999,9",,,,"MET062METAR EGWC 200750Z 24010KT 9999 SCT028 BKN050 15/11 Q1010 BLU;",
"03414599999","2010-09-20T08:50:00","4","52.640028","-2.305578","82.9","COSFORD, UK","FM-15","EGWC ","V020","250,1,N,0051,1","22000,1,9,N","011265,1,N,1","+0170,1","+0130,1","99999,9","04,5,+00840,1,99,9",,,"04,99,1,99,9,99,9,99999,9,99,9,99,9","10108,1,99999,9",,,,"MET055METAR EGWC 200850Z 25010KT 9999 SCT028 17/13 Q1011 BLU;",
"03414599999","2010-09-20T09:50:00","4","52.640028","-2.305578","82.9","COSFORD, UK","FM-15","EGWC ","V020","250,1,N,0051,1","22000,1,9,N","011265,1,N,1","+0180,1","+0130,1","99999,9","04,5,+00840,1,99,9",,,"04,99,1,99,9,99,9,99999,9,99,9,99,9","10108,1,99999,9",,,,"MET055METAR EGWC 200950Z 25010KT 9999 SCT028 18/13 Q1011 BLU;",
"03414599999","2010-09-20T10:50:00","4","52.640028","-2.305578","82.9","COSFORD, UK","FM-15","EGWC ","V020","240,1,N,0051,1","22000,1,9,N","011265,1,N,1","+0180,1","+0130,1","99999,9","04,5,+00840,1,99,9",,,"04,99,1,99,9,99,9,99999,9,99,9,99,9","10119,1,99999,9",,,,"MET055METAR EGWC 201050Z 24010KT 9999 SCT028 18/13 Q1012 BLU;",
"03414599999","2010-09-20T11:50:00","4","52.640028","-2.305578","82.9","COSFORD, UK","FM-15","EGWC ","V020","260,1,N,0062,1","00840,1,C,N","011265,1,N,1","+0180,1","+0120,1","99999,9","07,5,+00840,1,99,9",,,"07,99,1,99,9,99,9,99999,9,99,9,99,9","10119,1,99999,9",,,,"MET055METAR EGWC 201150Z 26012KT 9999 BKN028 18/12 Q1012 BLU;",
"03414599999","2010-09-20T12:50:00","4","52.640028","-2.305578","82.9","COSFORD, UK","FM-15","EGWC ","V020","250,1,N,0072,1","00840,1,C,N","011265,1,N,1","+0180,1","+0110,1","99999,9","07,5,+00840,1,99,9",,,"07,99,1,99,9,99,9,99999,9,99,9,99,9","10119,1,99999,9",,,,"MET055METAR EGWC 201250Z 25014KT 9999 BKN028 18/11 Q1012 BLU;",
"03414599999","2010-09-20T13:50:00","4","52.640028","-2.305578","82.9","COSFORD, UK","FM-15","EGWC ","V020","240,1,N,0051,1","99999,9,C,N","011265,1,N,1","+0190,1","+0120,1","99999,9","02,5,+00750,1,99,9","04,5,+00960,1,99,9",,"04,99,1,99,9,99,9,99999,9,99,9,99,9","10129,1,99999,9",,,,"MET062METAR EGWC 201350Z 24010KT 9999 FEW025 SCT032 19/12 Q1013 BLU;","P01 009603SCOCIG"
"03414599999","2010-09-20T14:50:00","4","52.640028","-2.305578","82.9","COSFORD, UK","FM-15","EGWC ","V020","240,1,N,0051,1","99999,9,C,N","011265,1,N,1","+0200,1","+0110,1","99999,9","02,5,+00750,1,99,9","04,5,+00960,1,99,9",,"04,99,1,99,9,99,9,99999,9,99,9,99,9","10129,1,99999,9",,,,"MET062METAR EGWC 201450Z 24010KT 9999 FEW025 SCT032 20/11 Q1013 BLU;","P01 009603SCOCIG"
"03414599999","2010-09-21T06:50:00","4","52.640028","-2.305578","82.9","COSFORD, UK","FM-15","EGWC ","V020","999,9,C,0000,1","00015,1,C,N","000100,1,N,1","+0090,1","+0090,1","99999,9","09,1,+00015,1,99,9",,,"09,99,1,99,9,99,9,00025,1,99,9,99,9","10190,1,99999,9","45,1",,,"MET057METAR EGWC 210650Z 00000KT 0100 FG VV/// 09/09 Q1019 RED;",
"03414599999","2010-09-21T07:50:00","4","52.640028","-2.305578","82.9","COSFORD, UK","FM-15","EGWC ","V020","999,9,C,0000,1","00015,1,C,N","000300,1,N,1","+0100,1","+0100,1","99999,9","09,1,+00015,1,99,9",,,"09,99,1,99,9,99,9,00025,1,99,9,99,9","10190,1,99999,9","45,1",,,"MET057METAR EGWC 210750Z 00000KT 0300 FG VV/// 10/10 Q1019 RED;",
"03414599999","2010-09-21T08:50:00","4","52.640028","-2.305578","82.9","COSFORD, UK","FM-15","EGWC ","V020","999,9,C,0000,1","22000,1,9,N","011265,1,N,1","+0120,1","+0110,1","99999,9","02,5,+01200,1,99,9",,,"02,99,1,99,9,99,9,99999,9,99,9,99,9","10190,1,99999,9","10,1",,,"MET065METAR EGWC 210850Z 00000KT 9999 3500S BR FEW040 12/11 Q1019 YLO1;",
"03414599999","2010-09-21T09:50:00","4","52.640028","-2.305578","82.9","COSFORD, UK","FM-15","EGWC ","V020","200,1,N,0026,1","22000,1,9,N","011265,1,N,1","+0140,1","+0130,1","99999,9","02,5,+00600,1,99,9",,,"02,99,1,99,9,99,9,99999,9,99,9,99,9","10190,1,99999,9",,,,"MET055METAR EGWC 210950Z 20005KT 9999 FEW020 14/13 Q1019 BLU;",
"03414599999","2010-09-21T10:50:00","4","52.640028","-2.305578","82.9","COSFORD, UK","FM-15","EGWC ","V020","200,1,N,0041,1","99999,9,C,N","011265,1,N,1","+0170,1","+0140,1","99999,9","02,5,+00600,1,99,9","04,5,+01800,1,99,9",,"04,99,1,99,9,99,9,99999,9,99,9,99,9","10190,1,99999,9",,,,"MET062METAR EGWC 211050Z 20008KT 9999 FEW020 SCT060 17/14 Q1019 BLU;","P01 018003SCOCIG"
"03414599999","2010-09-21T11:50:00","4","52.640028","-2.305578","82.9","COSFORD, UK","FM-15","EGWC ","V020","210,1,N,0062,1","07500,1,C,N","011265,1,N,1","+0180,1","+0130,1","99999,9","02,5,+00660,1,99,9","07,5,+07500,1,99,9",,"07,99,1,99,9,99,9,99999,9,99,9,99,9","10190,1,99999,9",,,,"MET062METAR EGWC 211150Z 21012KT 9999 FEW022 BKN250 18/13 Q1019 BLU;",
"03414599999","2010-09-21T12:50:00","4","52.640028","-2.305578","82.9","COSFORD, UK","FM-15","EGWC ","V020","190,1,N,0051,1","00750,1,C,N","011265,1,N,1","+0190,1","+0130,1","99999,9","07,5,+00750,1,99,9",,,"07,99,1,99,9,99,9,99999,9,99,9,99,9","10190,1,99999,9",,,,"MET055METAR EGWC 211250Z 19010KT 9999 BKN025 19/13 Q1019 BLU;",
"03414599999","2010-09-21T13:50:00","4","52.640028","-2.305578","82.9","COSFORD, UK","FM-15","EGWC ","V020","200,1,N,0041,1","00750,1,C,N","011265,1,N,1","+0190,1","+0120,1","99999,9","07,5,+00750,1,99,9",,,"07,99,1,99,9,99,9,99999,9,99,9,99,9","10190,1,99999,9",,,,"MET055METAR EGWC 211350Z 20008KT 9999 BKN025 19/12 Q1019 BLU;",
"03414599999","2010-09-21T14:50:00","4","52.640028","-2.305578","82.9","COSFORD, UK","FM-15","EGWC ","V020","200,1,N,0031,1","01200,1,C,N","011265,1,N,1","+0190,1","+0120,1","99999,9","02,5,+00750,1,99,9","04,5,+01200,1,99,9","07,5,+01800,1,99,9","07,99,1,99,9,99,9,99999,9,99,9,99,9","10190,1,99999,9",,,,"MET069METAR EGWC 211450Z 20006KT 9999 FEW025 SCT040 BKN060 19/12 Q1019 BLU;",
"03414599999","2010-09-22T06:50:00","4","52.640028","-2.305578","82.9","COSFORD, UK","FM-15","EGWC ","V020","999,9,C,0000,1","06000,1,C,N","011265,1,N,1","+0120,1","+0110,1","99999,9","02,5,+00900,1,99,9","07,5,+06000,1,99,9",,"07,99,1,99,9,99,9,99999,9,99,9,99,9","10159,1,99999,9",,,,"MET062METAR EGWC 220650Z 00000KT 9999 FEW030 BKN200 12/11 Q1016 BLU;",
"03414599999","2010-09-22T07:50:00","4","52.640028","-2.305578","82.9","COSFORD, UK","FM-15","EGWC ","V020","999,9,C,0000,1","99999,9,9,Y","009900,1,N,1","+0120,1","+0100,1","99999,9",,,,,"10159,1,99999,9",,,,"MET049METAR EGWC 220750Z 00000KT CAVOK 12/10 Q1016 BLU;",
"03414599999","2010-09-22T08:50:00","4","52.640028","-2.305578","82.9","COSFORD, UK","FM-15","EGWC ","V020","180,1,N,0021,1","06000,1,C,N","011265,1,N,1","+0140,1","+0100,1","99999,9","02,5,+00750,1,99,9","07,5,+06000,1,99,9",,"07,99,1,99,9,99,9,99999,9,99,9,99,9","10159,1,99999,9",,,,"MET062METAR EGWC 220850Z 18004KT 9999 FEW025 BKN200 14/10 Q1016 BLU;",
"03414599999","2010-09-22T09:50:00","4","52.640028","-2.305578","82.9","COSFORD, UK","FM-15","EGWC ","V020","180,1,N,0051,1","06000,1,C,N","011265,1,N,1","+0150,1","+0130,1","99999,9","02,5,+00900,1,99,9","07,5,+06000,1,99,9",,"07,99,1,99,9,99,9,99999,9,99,9,99,9","10159,1,99999,9",,,,"MET062METAR EGWC 220950Z 18010KT 9999 FEW030 BKN200 15/13 Q1016 BLU;",
"03414599999","2010-09-22T10:50:00","4","52.640028","-2.305578","82.9","COSFORD, UK","FM-15","EGWC ","V020","170,1,N,0031,1","99999,9,9,Y","009900,1,N,1","+0160,1","+0120,1","99999,9",,,,,"10149,1,99999,9",,,,"MET049METAR EGWC 221050Z 17006KT CAVOK 16/12 Q1015 BLU;",
"03414599999","2010-09-22T11:50:00","4","52.640028","-2.305578","82.9","COSFORD, UK","FM-15","EGWC ","V020","200,1,N,0041,1","22000,1,9,N","011265,1,N,1","+0170,1","+0130,1","99999,9","04,5,+00750,1,99,9",,,"04,99,1,99,9,99,9,99999,9,99,9,99,9","10139,1,99999,9",,,,"MET055METAR EGWC 221150Z 20008KT 9999 SCT025 17/13 Q1014 BLU;",
"03414599999","2010-09-22T12:50:00","4","52.640028","-2.305578","82.9","COSFORD, UK","FM-15","EGWC ","V020","180,1,N,0031,1","06600,1,C,N","011265,1,N,1","+0180,1","+0130,1","99999,9","02,5,+00750,1,99,9","07,5,+06600,1,99,9",,"07,99,1,99,9,99,9,99999,9,99,9,99,9","10139,1,99999,9",,,,"MET062METAR EGWC 221250Z 18006KT 9999 FEW025 BKN220 18/13 Q1014 BLU;",
"03414599999","2010-09-22T13:50:00","4","52.640028","-2.305578","82.9","COSFORD, UK","FM-15","EGWC ","V020","210,1,N,0041,1","06600,1,C,N","011265,1,N,1","+0180,1","+0130,1","99999,9","04,5,+01260,1,99,9","07,5,+06600,1,99,9",,"07,99,1,99,9,99,9,99999,9,99,9,99,9","10139,1,99999,9",,,,"MET062METAR EGWC 221350Z 21008KT 9999 SCT042 BKN220 18/13 Q1014 BLU;",
"03414599999","2010-09-22T14:50:00","4","52.640028","-2.305578","82.9","COSFORD, UK","FM-15","EGWC ","V020","210,1,N,0041,1","22000,1,9,N","011265,1,N,1","+0200,1","+0130,1","99999,9","04,5,+01050,1,99,9",,,"04,99,1,99,9,99,9,99999,9,99,9,99,9","10129,1,99999,9",,,,"MET055METAR EGWC 221450Z 21008KT 9999 SCT035 20/13 Q1013 BLU;",
"03414599999","2010-09-24T07:50:00","4","52.640028","-2.305578","82.9","COSFORD, UK","FM-15","EGWC ","V020","360,1,N,0062,1","00690,1,C,N","011265,1,N,1","+0120,1","+0070,1","99999,9","02,5,+00450,1,99,9","07,5,+00690,1,99,9",,"07,99,1,99,9,99,9,99999,9,99,9,99,9","10071,1,99999,9",,,,"MET062METAR EGWC 240750Z 36012KT 9999 FEW015 BKN023 12/07 Q1007 WHT;",
"03414599999","2010-09-24T08:50:00","4","52.640028","-2.305578","82.9","COSFORD, UK","FM-15","EGWC ","V020","340,1,N,0051,1","00600,1,C,N","005000,1,N,1","+0100,1","+0080,1","99999,9","02,5,+00450,1,99,9","07,5,+00600,1,99,9",,"07,99,1,99,9,99,9,99999,9,99,9,99,9","10081,1,99999,9","63,1",,,"MET065METAR EGWC 240850Z 34010KT 5000 RA FEW015 BKN020 10/08 Q1008 WHT;",
"03414599999","2010-09-25T07:50:00","4","52.640028","-2.305578","82.9","COSFORD, UK","FM-15","EGWC ","V020","310,1,N,0026,1","99999,9,9,Y","009900,1,N,1","+0070,1","+0030,1","99999,9",,,,,"10190,1,99999,9",,,,"MET049METAR EGWC 250750Z 31005KT CAVOK 07/03 Q1019 BLU;",
"03414599999","2010-09-25T08:50:00","4","52.640028","-2.305578","82.9","COSFORD, UK","FM-15","EGWC ","V020","320,1,N,0041,1","99999,9,9,Y","009900,1,N,1","+0080,1","+0030,1","99999,9",,,,,"10190,1,99999,9",,,,"MET049METAR EGWC 250850Z 32008KT CAVOK 08/03 Q1019 BLU;",
"03414599999","2010-09-25T09:50:00","4","52.640028","-2.305578","82.9","COSFORD, UK","FM-15","EGWC ","V020","320,1,N,0062,1","99999,9,9,Y","009900,1,N,1","+0090,1","+0030,1","99999,9",,,,,"10190,1,99999,9",,,,"MET049METAR EGWC 250950Z 32012KT CAVOK 09/03 Q1019 BLU;",
"03414599999","2010-09-25T10:50:00","4","52.640028","-2.305578","82.9","COSFORD, UK","FM-15","EGWC ","V020","310,1,N,0072,1","22000,1,9,N","011265,1,N,1","+0100,1","+0030,1","99999,9","02,5,+00900,1,99,9",,,"02,99,1,99,9,99,9,99999,9,99,9,99,9","10190,1,99999,9",,,,"MET055METAR EGWC 251050Z 31014KT 9999 FEW030 10/03 Q1019 BLU;",
"03414599999","2010-09-25T11:50:00","4","52.640028","-2.305578","82.9","COSFORD, UK","FM-15","EGWC ","V020","330,1,N,0062,1","22000,1,9,N","011265,1,N,1","+0110,1","+0030,1","99999,9","02,5,+00900,1,99,9",,,"02,99,1,99,9,99,9,99999,9,99,9,99,9","10190,1,99999,9",,,,"MET055METAR EGWC 251150Z 33012KT 9999 FEW030 11/03 Q1019 BLU;",
"03414599999","2010-09-25T12:50:00","4","52.640028","-2.305578","82.9","COSFORD, UK","FM-15","EGWC ","V020","330,1,N,0062,1","22000,1,9,N","011265,1,N,1","+0120,1","+0030,1","99999,9","02,5,+00900,1,99,9",,,"02,99,1,99,9,99,9,99999,9,99,9,99,9","10190,1,99999,9",,,,"MET055METAR EGWC 251250Z 33012KT 9999 FEW030 12/03 Q1019 BLU;",
"03414599999","2010-09-25T13:50:00","4","52.640028","-2.305578","82.9","COSFORD, UK","FM-15","EGWC ","V020","360,1,N,0077,1","22000,1,9,N","011265,1,N,1","+0120,1","+0030,1","99999,9","04,5,+01050,1,99,9",,,"04,99,1,99,9,99,9,99999,9,99,9,99,9","10190,1,99999,9",,,,"MET055METAR EGWC 251350Z 36015KT 9999 SCT035 12/03 Q1019 BLU;",
"03414599999","2010-09-25T14:50:00","4","52.640028","-2.305578","82.9","COSFORD, UK","FM-15","EGWC ","V020","340,1,N,0077,1","22000,1,9,N","011265,1,N,1","+0120,1","+0030,1","99999,9","04,5,+01050,1,99,9",,,"04,99,1,99,9,99,9,99999,9,99,9,99,9","10190,1,99999,9",,,,"MET055METAR EGWC 251450Z 34015KT 9999 SCT035 12/03 Q1019 BLU;",
"03414599999","2010-09-26T07:50:00","4","52.640028","-2.305578","82.9","COSFORD, UK","FM-15","EGWC ","V020","330,1,N,0051,1","22000,1,9,N","011265,1,N,1","+0070,1","+0040,1","99999,9","04,5,+01200,1,99,9",,,"04,99,1,99,9,99,9,99999,9,99,9,99,9","10169,1,99999,9",,,,"MET055METAR EGWC 260750Z 33010KT 9999 SCT040 07/04 Q1017 BLU;",
"03414599999","2010-09-26T08:50:00","4","52.640028","-2.305578","82.9","COSFORD, UK","FM-15","EGWC ","V020","340,1,N,0062,1","01200,1,C,N","011265,1,N,1","+0080,1","+0050,1","99999,9","07,5,+01200,1,99,9",,,"07,99,1,99,9,99,9,99999,9,99,9,99,9","10169,1,99999,9",,,,"MET055METAR EGWC 260850Z 34012KT 9999 BKN040 08/05 Q1017 BLU;",
"03414599999","2010-09-26T09:50:00","4","52.640028","-2.305578","82.9","COSFORD, UK","FM-15","EGWC ","V020","330,1,N,0051,1","01200,1,C,N","011265,1,N,1","+0090,1","+0050,1","99999,9","07,5,+01200,1,99,9",,,"07,99,1,99,9,99,9,99999,9,99,9,99,9","10169,1,99999,9",,,,"MET055METAR EGWC 260950Z 33010KT 9999 BKN040 09/05 Q1017 BLU;",
"03414599999","2010-09-26T10:50:00","4","52.640028","-2.305578","82.9","COSFORD, UK","FM-15","EGWC ","V020","330,1,N,0041,1","01200,1,C,N","011265,1,N,1","+0100,1","+0050,1","99999,9","04,5,+00840,1,99,9","07,5,+01200,1,99,9",,"07,99,1,99,9,99,9,99999,9,99,9,99,9","10169,1,99999,9",,,,"MET062METAR EGWC 261050Z 33008KT 9999 SCT028 BKN040 10/05 Q1017 BLU;",
"03414599999","2010-09-26T11:50:00","4","52.640028","-2.305578","82.9","COSFORD, UK","FM-15","EGWC ","V020","330,1,N,0062,1","01200,1,C,N","011265,1,N,1","+0110,1","+0050,1","99999,9","04,5,+00840,1,99,9","07,5,+01200,1,99,9",,"07,99,1,99,9,99,9,99999,9,99,9,99,9","10169,1,99999,9",,,,"MET062METAR EGWC 261150Z 33012KT 9999 SCT028 BKN040 11/05 Q1017 BLU;",
"03414599999","2010-09-26T12:50:00","4","52.640028","-2.305578","82.9","COSFORD, UK","FM-15","EGWC ","V020","320,1,N,0051,1","01350,1,C,N","011265,1,N,1","+0120,1","+0060,1","99999,9","04,5,+00810,1,99,9","07,5,+01350,1,99,9",,"07,99,1,99,9,99,9,99999,9,99,9,99,9","10159,1,99999,9",,,,"MET062METAR EGWC 261250Z 32010KT 9999 SCT027 BKN045 12/06 Q1016 BLU;",
"03414599999","2010-09-27T06:50:00","4","52.640028","-2.305578","82.9","COSFORD, UK","FM-15","EGWC ","V020","330,1,N,0026,1","00240,1,C,N","007000,1,N,1","+0100,1","+0090,1","99999,9","04,5,+00120,1,99,9","08,5,+00240,1,99,9",,"08,99,1,99,9,99,9,99999,9,99,9,99,9","10139,1,99999,9","61,1",,,"MET067METAR EGWC 270650Z 33005KT 7000 -RA SCT004 OVC008 10/09 Q1014 YLO2;",
"03414599999","2010-09-27T07:50:00","4","52.640028","-2.305578","82.9","COSFORD, UK","FM-15","EGWC ","V020","340,1,N,0026,1","00180,1,C,N","005000,1,N,1","+0100,1","+0090,1","99999,9","08,5,+00180,1,99,9",,,"08,99,1,99,9,99,9,99999,9,99,9,99,9","10139,1,99999,9","10,1",,,"MET059METAR EGWC 270750Z 34005KT 5000 BR OVC006 10/09 Q1014 YLO1;",
"03414599999","2010-09-27T08:50:00","4","52.640028","-2.305578","82.9","COSFORD, UK","FM-15","EGWC ","V020","320,1,N,0026,1","00240,1,C,N","005000,1,N,1","+0100,1","+0100,1","99999,9","08,5,+00240,1,99,9",,,"08,99,1,99,9,99,9,99999,9,99,9,99,9","10149,1,99999,9","10,1",,,"MET058METAR EGWC 270850Z 32005KT 5000 BR OVC008 10/10 Q1015 GRN;",
"03414599999","2010-09-27T09:50:00","4","52.640028","-2.305578","82.9","COSFORD, UK","FM-15","EGWC ","V020","320,1,N,0026,1","00300,1,C,N","007000,1,N,1","+0110,1","+0100,1","99999,9","08,5,+00300,1,99,9",,,"08,99,1,99,9,99,9,99999,9,99,9,99,9","10149,1,99999,9","10,1",,,"MET058METAR EGWC 270950Z 32005KT 7000 BR OVC010 11/10 Q1015 GRN;",
"03414599999","2010-09-27T12:50:00","4","52.640028","-2.305578","82.9","COSFORD, UK","FM-15","EGWC ","V020","330,1,N,0026,1","00300,1,C,N","007000,1,N,1","+0120,1","+0120,1","99999,9","08,5,+00300,1,99,9",,,"08,99,1,99,9,99,9,99999,9,99,9,99,9","10149,1,99999,9","10,1",,,"MET058METAR EGWC 271250Z 33005KT 7000 BR OVC010 12/12 Q1015 GRN;",
"03414599999","2010-09-28T07:50:00","4","52.640028","-2.305578","82.9","COSFORD, UK","FM-15","EGWC ","V020","999,9,C,0000,1","00300,1,C,N","001500,1,N,1","+0120,1","+0120,1","99999,9","02,5,+00150,1,99,9","08,5,+00300,1,99,9",,"08,99,1,99,9,99,9,99999,9,99,9,99,9","10159,1,99999,9","10,1",,,"MET065METAR EGWC 280750Z 00000KT 1500 BR FEW005 OVC010 12/12 Q1016 AMB;",
"03414599999","2010-09-28T08:50:00","4","52.640028","-2.305578","82.9","COSFORD, UK","FM-15","EGWC ","V020","999,9,C,0000,1","00300,1,C,N","001500,1,N,1","+0130,1","+0120,1","99999,9","02,5,+00150,1,99,9","08,5,+00300,1,99,9",,"08,99,1,99,9,99,9,99999,9,99,9,99,9","10169,1,99999,9","10,1",,,"MET065METAR EGWC 280850Z 00000KT 1500 BR FEW005 OVC010 13/12 Q1017 AMB;",
"03414599999","2010-09-28T09:50:00","4","52.640028","-2.305578","82.9","COSFORD, UK","FM-15","EGWC ","V020","999,9,C,0000,1","00360,1,C,N","001500,1,N,1","+0140,1","+0130,1","99999,9","04,5,+00240,1,99,9","08,5,+00360,1,99,9",,"08,99,1,99,9,99,9,99999,9,99,9,99,9","10169,1,99999,9","10,1",,,"MET065METAR EGWC 280950Z 00000KT 1500 BR SCT008 OVC012 14/13 Q1017 AMB;",
"03414599999","2010-09-28T10:50:00","4","52.640028","-2.305578","82.9","COSFORD, UK","FM-15","EGWC ","V020","180,1,N,0031,1","00360,1,C,N","002000,1,N,1","+0140,1","+0120,1","99999,9","04,5,+00240,1,99,9","08,5,+00360,1,99,9",,"08,99,1,99,9,99,9,99999,9,99,9,99,9","10169,1,99999,9","10,1",,,"MET066METAR EGWC 281050Z 18006KT 2000 BR SCT008 OVC012 14/12 Q1017 YLO2;",
"03414599999","2010-09-28T11:50:00","4","52.640028","-2.305578","82.9","COSFORD, UK","FM-15","EGWC ","V020","150,1,N,0026,1","00300,1,C,N","007000,1,N,1","+0150,1","+0130,1","99999,9","04,5,+00240,1,99,9","08,5,+00300,1,99,9",,"08,99,1,99,9,99,9,99999,9,99,9,99,9","10169,1,99999,9","10,1",,,"MET065METAR EGWC 281150Z 15005KT 7000 BR SCT008 OVC010 15/13 Q1017 GRN;",
"03414599999","2010-09-28T12:50:00","4","52.640028","-2.305578","82.9","COSFORD, UK","FM-15","EGWC ","V020","170,1,N,0041,1","00390,1,C,N","011265,1,N,1","+0150,1","+0120,1","99999,9","04,5,+00300,1,99,9","08,5,+00390,1,99,9",,"08,99,1,99,9,99,9,99999,9,99,9,99,9","10169,1,99999,9",,,,"MET062METAR EGWC 281250Z 17008KT 9999 SCT010 OVC013 15/12 Q1017 GRN;",
"03414599999","2010-09-29T06:50:00","4","52.640028","-2.305578","82.9","COSFORD, UK","FM-15","EGWC ","V020","180,1,N,0051,1","00300,1,C,N","005000,1,N,1","+0140,1","+0140,1","99999,9","04,5,+00180,1,99,9","08,5,+00300,1,99,9",,"08,99,1,99,9,99,9,99999,9,99,9,99,9","10129,1,99999,9","61,1",,,"MET066METAR EGWC 290650Z 18010KT 5000 -RA SCT006 OVC010 14/14 Q1013 GRN;",
"03414599999","2010-09-29T07:50:00","4","52.640028","-2.305578","82.9","COSFORD, UK","FM-15","EGWC ","V020","170,1,N,0062,1","00300,1,C,N","011265,1,N,1","+0150,1","+0140,1","99999,9","04,5,+00240,1,99,9","08,5,+00300,1,99,9",,"08,99,1,99,9,99,9,99999,9,99,9,99,9","10129,1,99999,9","61,1",,,"MET066METAR EGWC 290750Z 17012KT 9999 -RA SCT008 OVC010 15/14 Q1013 GRN;",
"03414599999","2010-09-29T08:50:00","4","52.640028","-2.305578","82.9","COSFORD, UK","FM-15","EGWC ","V020","180,1,N,0077,1","00330,1,C,N","011265,1,N,1","+0150,1","+0140,1","99999,9","04,5,+00270,1,99,9","08,5,+00330,1,99,9",,"08,99,1,99,9,99,9,99999,9,99,9,99,9","10129,1,99999,9",,,,"MET062METAR EGWC 290850Z 18015KT 9999 SCT009 OVC011 15/14 Q1013 GRN;",
"03414599999","2010-09-29T09:50:00","4","52.640028","-2.305578","82.9","COSFORD, UK","FM-15","EGWC ","V020","180,1,N,0051,1","00300,1,C,N","011265,1,N,1","+0150,1","+0140,1","99999,9","02,5,+00240,1,99,9","04,5,+00300,1,99,9","07,5,+00450,1,99,9","07,99,1,99,9,99,9,99999,9,99,9,99,9","10129,1,99999,9",,,,"MET069METAR EGWC 290950Z 18010KT 9999 FEW008 SCT010 BKN015 15/14 Q1013 GRN;",
"03414599999","2010-09-29T10:50:00","4","52.640028","-2.305578","82.9","COSFORD, UK","FM-15","EGWC ","V020","180,1,N,0062,1","00300,1,C,N","004000,1,N,1","+0150,1","+0140,1","99999,9","02,5,+00240,1,99,9","07,5,+00300,1,99,9",,"07,99,1,99,9,99,9,99999,9,99,9,99,9","10119,1,99999,9","61,1",,,"MET066METAR EGWC 291050Z 18012KT 4000 -RA FEW008 BKN010 15/14 Q1012 GRN;",
"03414599999","2010-09-29T11:50:00","4","52.640028","-2.305578","82.9","COSFORD, UK","FM-15","EGWC ","V020","180,1,N,0062,1","00120,1,C,N","006000,1,N,1","+0150,1","+0140,1","99999,9","07,5,+00120,1,99,9","08,5,+00300,1,99,9",,"08,99,1,99,9,99,9,99999,9,99,9,99,9","10119,1,99999,9","61,1",,,"MET067METAR EGWC 291150Z 18012KT 6000 -RA BKN004 OVC010 15/14 Q1012 YLO2;",
"03414599999","2010-09-29T12:50:00","4","52.640028","-2.305578","82.9","COSFORD, UK","FM-15","EGWC ","V020","240,1,N,0031,1","00300,1,C,N","002500,1,N,1","+0150,1","+0140,1","99999,9","04,5,+00150,1,99,9","08,5,+00300,1,99,9",,"08,99,1,99,9,99,9,99999,9,99,9,99,9","10119,1,99999,9","65,1",,,"MET073METAR EGWC 291250Z 24006KT 2500 1500NW +RA SCT005 OVC010 15/14 Q1012 AMB;",
"03414599999","2010-09-29T13:30:00","4","52.640028","-2.305578","82.9","COSFORD, UK","FM-15","EGWC ","V020","999,9,C,0000,1","00540,1,C,N","011265,1,N,1","+0150,1","+0140,1","99999,9","07,5,+00540,1,99,9",,,"07,99,1,99,9,99,9,99999,9,99,9,99,9","10119,1,99999,9",,,,"MET060METAR EGWC 291330Z 00000KT 9999 BKN018 15/14 Q1012 RERA WHT;",
"03414599999","2010-09-29T13:50:00","4","52.640028","-2.305578","82.9","COSFORD, UK","FM-15","EGWC ","V020","240,1,N,0031,1","00600,1,C,N","011265,1,N,1","+0140,1","+0120,1","99999,9","02,5,+00300,1,99,9","07,5,+00600,1,99,9",,"07,99,1,99,9,99,9,99999,9,99,9,99,9","10119,1,99999,9",,,,"MET062METAR EGWC 291350Z 24006KT 9999 FEW010 BKN020 14/12 Q1012 WHT;",
"03414599999","2010-09-29T14:50:00","4","52.640028","-2.305578","82.9","COSFORD, UK","FM-15","EGWC ","V020","240,1,N,0026,1","00900,1,C,N","011265,1,N,1","+0140,1","+0120,1","99999,9","04,5,+00300,1,99,9","07,5,+00900,1,99,9",,"07,99,1,99,9,99,9,99999,9,99,9,99,9","10129,1,99999,9",,,,"MET062METAR EGWC 291450Z 24005KT 9999 SCT010 BKN030 14/12 Q1013 GRN;",
"03414599999","2010-10-02T07:50:00","4","52.640028","-2.305578","82.9","COSFORD, UK","FM-15","EGWC ","V020","160,1,N,0026,1","03000,1,C,N","011265,1,N,1","+0080,1","+0070,1","99999,9","02,5,+01200,1,99,9","07,5,+03000,1,99,9",,"07,99,1,99,9,99,9,99999,9,99,9,99,9","10041,1,99999,9",,,,"MET062METAR EGWC 020750Z 16005KT 9999 FEW040 BKN100 08/07 Q1004 BLU;",
"03414599999","2010-10-02T08:50:00","4","52.640028","-2.305578","82.9","COSFORD, UK","FM-15","EGWC ","V020","160,1,N,0036,1","22000,1,9,N","011265,1,N,1","+0100,1","+0090,1","99999,9","02,5,+01200,1,99,9",,,"02,99,1,99,9,99,9,99999,9,99,9,99,9","10051,1,99999,9",,,,"MET055METAR EGWC 020850Z 16007KT 9999 FEW040 10/09 Q1005 BLU;",
"03414599999","2010-10-02T09:50:00","4","52.640028","-2.305578","82.9","COSFORD, UK","FM-15","EGWC ","V020","170,1,N,0051,1","03000,1,C,N","011265,1,N,1","+0120,1","+0100,1","99999,9","02,5,+00450,1,99,9","07,5,+03000,1,99,9",,"07,99,1,99,9,99,9,99999,9,99,9,99,9","10051,1,99999,9",,,,"MET062METAR EGWC 020950Z 17010KT 9999 FEW015 BKN100 12/10 Q1005 BLU;",
"03414599999","2010-10-02T10:50:00","4","52.640028","-2.305578","82.9","COSFORD, UK","FM-15","EGWC ","V020","160,1,N,0051,1","03600,1,C,N","011265,1,N,1","+0130,1","+0100,1","99999,9","02,5,+00450,1,99,9","07,5,+03600,1,99,9",,"07,99,1,99,9,99,9,99999,9,99,9,99,9","10051,1,99999,9",,,,"MET062METAR EGWC 021050Z 16010KT 9999 FEW015 BKN120 13/10 Q1005 BLU;",
"03414599999","2010-10-02T11:50:00","4","52.640028","-2.305578","82.9","COSFORD, UK","FM-15","EGWC ","V020","190,1,N,0051,1","03600,1,C,N","011265,1,N,1","+0150,1","+0060,1","99999,9","04,5,+00540,1,99,9","07,5,+03600,1,99,9",,"07,99,1,99,9,99,9,99999,9,99,9,99,9","10041,1,99999,9",,,,"MET062METAR EGWC 021150Z 19010KT 9999 SCT018 BKN120 15/06 Q1004 WHT;",
"03414599999","2010-10-02T12:50:00","4","52.640028","-2.305578","82.9","COSFORD, UK","FM-15","EGWC ","V020","160,1,N,0051,1","03000,1,C,N","011265,1,N,1","+0140,1","+0040,1","99999,9","02,5,+00540,1,99,9","07,5,+03000,1,99,9",,"07,99,1,99,9,99,9,99999,9,99,9,99,9","10031,1,99999,9",,,,"MET062METAR EGWC 021250Z 16010KT 9999 FEW018 BKN100 14/04 Q1003 BLU;",
"03414599999","2010-10-02T13:50:00","4","52.640028","-2.305578","82.9","COSFORD, UK","FM-15","EGWC ","V020","180,1,N,0041,1","03000,1,C,N","011265,1,N,1","+0140,1","+0090,1","99999,9","02,5,+00540,1,99,9","07,5,+03000,1,99,9",,"07,99,1,99,9,99,9,99999,9,99,9,99,9","10031,1,99999,9",,,,"MET062METAR EGWC 021350Z 18008KT 9999 FEW018 BKN100 14/09 Q1003 BLU;",
"03414599999","2010-10-03T07:50:00","4","52.640028","-2.305578","82.9","COSFORD, UK","FM-15","EGWC ","V020","070,1,N,0031,1","00180,1,C,N","005000,1,N,1","+0110,1","+0100,1","99999,9","07,5,+00180,1,99,9",,,"07,99,1,99,9,99,9,99999,9,99,9,99,9","09898,1,99999,9","65,1",,,"MET060METAR EGWC 030750Z 07006KT 5000 +RA BKN006 11/10 Q0990 YLO1;",
"03414599999","2010-10-03T08:50:00","4","52.640028","-2.305578","82.9","COSFORD, UK","FM-15","EGWC ","V020","180,1,N,0072,1","00180,1,C,N","005000,1,N,1","+0150,1","+0140,1","99999,9","04,5,+00120,1,99,9","07,5,+00180,1,99,9",,"07,99,1,99,9,99,9,99999,9,99,9,99,9","99999,9,99999,9","63,1",,,"MET066METAR EGWC 030850Z 18014KT 5000 RA SCT004 BKN006 15/14 Q0981 YLO2;","Q01+098103APOA  Q02 098103APOA  "
"03414599999","2010-10-03T09:50:00","4","52.640028","-2.305578","82.9","COSFORD, UK","FM-15","EGWC ","V020","180,1,N,0093,1","00180,1,C,N","006000,1,N,1","+0150,1","+0140,1","99999,9","04,5,+00150,1,99,9","07,5,+00180,1,99,9",,"07,99,1,99,9,99,9,99999,9,99,9,99,9","09892,1,99999,9","63,1",,,"MET066METAR EGWC 030950Z 18018KT 6000 RA SCT005 BKN006 15/14 Q0989 YLO1;",
"03414599999","2010-10-04T06:50:00","4","52.640028","-2.305578","82.9","COSFORD, UK","FM-15","EGWC ","V020","999,9,C,0000,1","00015,1,C,N","000300,1,N,1","+0050,1","+0050,1","99999,9","09,1,+00015,1,99,9",,,"09,99,1,99,9,99,9,00025,1,99,9,99,9","10000,1,99999,9","45,1",,,"MET057METAR EGWC 040650Z 00000KT 0300 FG VV/// 05/05 Q1000 RED;",
"03414599999","2010-10-04T07:50:00","4","52.640028","-2.305578","82.9","COSFORD, UK","FM-15","EGWC ","V020","999,9,C,0000,1","00015,1,C,N","000300,1,N,1","+0060,1","+0060,1","99999,9","09,1,+00015,1,99,9",,,"09,99,1,99,9,99,9,00025,1,99,9,99,9","10000,1,99999,9","45,1",,,"MET057METAR EGWC 040750Z 00000KT 0300 FG VV/// 06/06 Q1000 RED;",
"03414599999","2010-10-04T08:50:00","4","52.640028","-2.305578","82.9","COSFORD, UK","FM-15","EGWC ","V020","999,9,C,0000,1","00120,1,C,N","001500,1,N,1","+0070,1","+0070,1","99999,9","07,5,+00120,1,99,9",,,"07,99,1,99,9,99,9,99999,9,99,9,99,9","10000,1,99999,9","10,1",,,"MET058METAR EGWC 040850Z 00000KT 1500 BR BKN004 07/07 Q1000 AMB;",
"03414599999","2010-10-04T09:50:00","4","52.640028","-2.305578","82.9","COSFORD, UK","FM-15","EGWC ","V020","999,9,C,0000,1","99999,9,9,Y","009900,1,N,1","+0100,1","+0100,1","99999,9",,,,,"10000,1,99999,9",,,,"MET049METAR EGWC 040950Z 00000KT CAVOK 10/10 Q1000 BLU;",
"03414599999","2010-10-04T10:50:00","4","52.640028","-2.305578","82.9","COSFORD, UK","FM-15","EGWC ","V020","999,9,C,0000,1","99999,9,9,Y","009900,1,N,1","+0130,1","+0100,1","99999,9",,,,,"10000,1,99999,9",,,,"MET049METAR EGWC 041050Z 00000KT CAVOK 13/10 Q1000 BLU;",
"03414599999","2010-10-04T11:50:00","4","52.640028","-2.305578","82.9","COSFORD, UK","FM-15","EGWC ","V020","190,1,N,0041,1","22000,1,9,N","011265,1,N,1","+0150,1","+0100,1","99999,9",,,,,"09990,1,99999,9",,,,"MET048METAR EGWC 041150Z 19008KT 9999 15/10 Q0999 BLU;",
"03414599999","2010-10-04T12:50:00","4","52.640028","-2.305578","82.9","COSFORD, UK","FM-15","EGWC ","V020","180,1,N,0051,1","22000,1,9,N","011265,1,N,1","+0160,1","+0100,1","99999,9","02,5,+00600,1,99,9",,,"02,99,1,99,9,99,9,99999,9,99,9,99,9","09980,1,99999,9",,,,"MET055METAR EGWC 041250Z 18010KT 9999 FEW020 16/10 Q0998 BLU;",
"03414599999","2010-10-04T13:50:00","4","52.640028","-2.305578","82.9","COSFORD, UK","FM-15","EGWC ","V020","180,1,N,0041,1","99999,9,9,Y","009900,1,N,1","+0160,1","+0080,1","99999,9",,,,,"09980,1,99999,9",,,,"MET049METAR EGWC 041350Z 18008KT CAVOK 16/08 Q0998 BLU;",
"03414599999","2010-10-04T14:50:00","4","52.640028","-2.305578","82.9","COSFORD, UK","FM-15","EGWC ","V020","210,1,N,0051,1","22000,1,9,N","011265,1,N,1","+0170,1","+0090,1","99999,9","02,5,+00900,1,99,9",,,"02,99,1,99,9,99,9,99999,9,99,9,99,9","09980,1,99999,9",,,,"MET055METAR EGWC 041450Z 21010KT 9999 FEW030 17/09 Q0998 BLU;",
"03414599999","2010-10-05T07:50:00","4","52.640028","-2.305578","82.9","COSFORD, UK","FM-15","EGWC ","V020","200,1,N,0036,1","03600,1,C,N","011265,1,N,1","+0130,1","+0110,1","99999,9","02,5,+00900,1,99,9","07,5,+03600,1,99,9",,"07,99,1,99,9,99,9,99999,9,99,9,99,9","09970,1,99999,9",,,,"MET062METAR EGWC 050750Z 20007KT 9999 FEW030 BKN120 13/11 Q0997 BLU;",
"03414599999","2010-10-05T08:50:00","4","52.640028","-2.305578","82.9","COSFORD, UK","FM-15","EGWC ","V020","190,1,N,0051,1","03600,1,C,N","011265,1,N,1","+0130,1","+0120,1","99999,9","02,5,+00600,1,99,9","07,5,+03600,1,99,9",,"07,99,1,99,9,99,9,99999,9,99,9,99,9","09980,1,99999,9",,,,"MET062METAR EGWC 050850Z 19010KT 9999 FEW020 BKN120 13/12 Q0998 BLU;",
"03414599999","2010-10-05T09:50:00","4","52.640028","-2.305578","82.9","COSFORD, UK","FM-15","EGWC ","V020","190,1,N,0051,1","99999,9,9,Y","009900,1,N,1","+0140,1","+0100,1","99999,9",,,,,"09980,1,99999,9",,,,"MET049METAR EGWC 050950Z 19010KT CAVOK 14/10 Q0998 BLU;",
"03414599999","2010-10-05T10:50:00","4","52.640028","-2.305578","82.9","COSFORD, UK","FM-15","EGWC ","V020","190,1,N,0051,1","99999,9,C,N","011265,1,N,1","+0150,1","+0120,1","99999,9","02,5,+00600,1,99,9","04,5,+01500,1,99,9",,"04,99,1,99,9,99,9,99999,9,99,9,99,9","09980,1,99999,9",,,,"MET062METAR EGWC 051050Z 19010KT 9999 FEW020 SCT050 15/12 Q0998 BLU;","P01 015003SCOCIG"
"03414599999","2010-10-05T11:50:00","4","52.640028","-2.305578","82.9","COSFORD, UK","FM-15","EGWC ","V020","200,1,N,0062,1","00750,1,C,N","011265,1,N,1","+0160,1","+0120,1","99999,9","02,5,+00540,1,99,9","07,5,+00750,1,99,9",,"07,99,1,99,9,99,9,99999,9,99,9,99,9","09980,1,99999,9",,,,"MET062METAR EGWC 051150Z 20012KT 9999 FEW018 BKN025 16/12 Q0998 BLU;",
"03414599999","2010-10-05T12:50:00","4","52.640028","-2.305578","82.9","COSFORD, UK","FM-15","EGWC ","V020","200,1,N,0062,1","00750,1,C,N","011265,1,N,1","+0150,1","+0130,1","99999,9","02,5,+00600,1,99,9","07,5,+00750,1,99,9",,"07,99,1,99,9,99,9,99999,9,99,9,99,9","09980,1,99999,9",,,,"MET062METAR EGWC 051250Z 20012KT 9999 FEW020 BKN025 15/13 Q0998 BLU;",
"03414599999","2010-10-06T06:50:00","4","52.640028","-2.305578","82.9","COSFORD, UK","FM-15","EGWC ","V020","999,9,C,0000,1","99999,9,C,N","011265,1,N,1","+0110,1","+0090,1","99999,9","02,5,+00600,1,99,9","04,5,+01200,1,99,9",,"04,99,1,99,9,99,9,99999,9,99,9,99,9","10000,1,99999,9",,,,"MET062METAR EGWC 060650Z 00000KT 9999 FEW020 SCT040 11/09 Q1000 BLU;","P01 012003SCOCIG"
"03414599999","2010-10-06T07:50:00","4","52.640028","-2.305578","82.9","COSFORD, UK","FM-15","EGWC ","V020","180,1,N,0031,1","22000,1,9,N","011265,1,N,1","+0110,1","+0090,1","99999,9","04,5,+01050,1,99,9",,,"04,99,1,99,9,99,9,99999,9,99,9,99,9","10000,1,99999,9",,,,"MET055METAR EGWC 060750Z 18006KT 9999 SCT035 11/09 Q1000 BLU;",
"03414599999","2010-10-06T08:50:00","4","52.640028","-2.305578","82.9","COSFORD, UK","FM-15","EGWC ","V020","180,1,N,0031,1","99999,9,C,N","011265,1,N,1","+0120,1","+0100,1","99999,9","02,5,+00600,1,99,9","04,5,+01350,1,99,9",,"04,99,1,99,9,99,9,99999,9,99,9,99,9","10010,1,99999,9",,,,"MET062METAR EGWC 060850Z 18006KT 9999 FEW020 SCT045 12/10 Q1001 BLU;","P01 013503SCOCIG"
"03414599999","2010-10-06T09:50:00","4","52.640028","-2.305578","82.9","COSFORD, UK","FM-15","EGWC ","V020","220,1,N,0051,1","99999,9,C,N","011265,1,N,1","+0140,1","+0090,1","99999,9","02,5,+00600,1,99,9","04,5,+01800,1,99,9",,"04,99,1,99,9,99,9,99999,9,99,9,99,9","10020,1,99999,9",,,,"MET062METAR EGWC 060950Z 22010KT 9999 FEW020 SCT060 14/09 Q1002 BLU;","P01 018003SCOCIG"
"03414599999","2010-10-06T10:50:00","4","52.640028","-2.305578","82.9","COSFORD, UK","FM-15","EGWC ","V020","220,1,N,0041,1","99999,9,C,N","011265,1,N,1","+0140,1","+0090,1","99999,9","02,5,+00660,1,99,9","04,5,+00780,1,99,9",,"04,99,1,99,9,99,9,99999,9,99,9,99,9","10031,1,99999,9",,,,"MET062METAR EGWC 061050Z 22008KT 9999 FEW022 SCT026 14/09 Q1003 BLU;","P01 007803SCOCIG"
"03414599999","2010-10-06T11:50:00","4","52.640028","-2.305578","82.9","COSFORD, UK","FM-15","EGWC ","V020","220,1,N,0072,1","22000,1,9,N","011265,1,N,1","+0160,1","+0070,1","99999,9","04,5,+00780,1,99,9",,,"04,99,1,99,9,99,9,99999,9,99,9,99,9","10041,1,99999,9",,,,"MET055METAR EGWC 061150Z 22014KT 9999 SCT026 16/07 Q1004 BLU;",
"03414599999","2010-10-06T12:50:00","4","52.640028","-2.305578","82.9","COSFORD, UK","FM-15","EGWC ","V020","240,1,N,0062,1","22000,1,9,N","011265,1,N,1","+0160,1","+0060,1","99999,9","04,5,+00780,1,99,9",,,"04,99,1,99,9,99,9,99999,9,99,9,99,9","10051,1,99999,9",,,,"MET055METAR EGWC 061250Z 24012KT 9999 SCT026 16/06 Q1005 BLU;",
"03414599999","2010-10-06T13:50:00","4","52.640028","-2.305578","82.9","COSFORD, UK","FM-15","EGWC ","V020","220,1,N,0051,1","00780,1,C,N","011265,1,N,1","+0150,1","+0070,1","99999,9","07,5,+00780,1,99,9",,,"07,99,1,99,9,99,9,99999,9,99,9,99,9","10051,1,99999,9",,,,"MET055METAR EGWC 061350Z 22010KT 9999 BKN026 15/07 Q1005 BLU;",
"03414599999","2010-10-06T14:50:00","4","52.640028","-2.305578","82.9","COSFORD, UK","FM-15","EGWC ","V020","220,1,N,0051,1","00690,1,C,N","011265,1,N,1","+0140,1","+0080,1","99999,9","02,5,+00300,1,99,9","07,5,+00690,1,99,9",,"07,99,1,99,9,99,9,99999,9,99,9,99,9","10071,1,99999,9","16,1",,,"MET067METAR EGWC 061450Z 22010KT 9999 VCSH FEW010 BKN023 14/08 Q1007 WHT;",
"03414599999","2010-10-06T15:50:00","4","52.640028","-2.305578","82.9","COSFORD, UK","FM-15","EGWC ","V020","200,1,N,0051,1","22000,1,9,N","011265,1,N,1","+0140,1","+0080,1","99999,9","04,5,+01350,1,99,9",,,"04,99,1,99,9,99,9,99999,9,99,9,99,9","10081,1,99999,9",,,,"MET055METAR EGWC 061550Z 20010KT 9999 SCT045 14/08 Q1008 BLU;",
"03414599999","2010-10-09T07:50:00","4","52.640028","-2.305578","82.9","COSFORD, UK","FM-15","EGWC ","V020","070,1,N,0062,1","00240,1,C,N","003500,1,N,1","+0130,1","+0130,1","99999,9","08,5,+00240,1,99,9",,,"08,99,1,99,9,99,9,99999,9,99,9,99,9","10169,1,99999,9","10,1",,,"MET059METAR EGWC 090750Z 07012KT 3500 BR OVC008 13/13 Q1017 YLO1;",
"03414599999","2010-10-09T08:50:00","4","52.640028","-2.305578","82.9","COSFORD, UK","FM-15","EGWC ","V020","070,1,N,0072,1","00240,1,C,N","003000,1,N,1","+0140,1","+0120,1","99999,9","08,5,+00240,1,99,9",,,"08,99,1,99,9,99,9,99999,9,99,9,99,9","10169,1,99999,9","10,1",,,"MET059METAR EGWC 090850Z 07014KT 3000 BR OVC008 14/12 Q1017 YLO1;",
"03414599999","2010-10-09T09:50:00","4","52.640028","-2.305578","82.9","COSFORD, UK","FM-15","EGWC ","V020","080,1,N,0072,1","00240,1,C,N","003000,1,N,1","+0150,1","+0130,1","99999,9","08,5,+00240,1,99,9",,,"08,99,1,99,9,99,9,99999,9,99,9,99,9","10169,1,99999,9","10,1",,,"MET059METAR EGWC 090950Z 08014KT 3000 BR OVC008 15/13 Q1017 YLO1;",
"03414599999","2010-10-09T10:50:00","4","52.640028","-2.305578","82.9","COSFORD, UK","FM-15","EGWC ","V020","080,1,N,0072,1","00240,1,C,N","003000,1,N,1","+0150,1","+0130,1","99999,9","08,5,+00240,1,99,9",,,"08,99,1,99,9,99,9,99999,9,99,9,99,9","10169,1,99999,9","05,1",,,"MET059METAR EGWC 091050Z 08014KT 3000 HZ OVC008 15/13 Q1017 YLO1;",
"03414599999","2010-10-10T07:50:00","4","52.640028","-2.305578","82.9","COSFORD, UK","FM-15","EGWC ","V020","060,1,N,0051,1","00180,1,C,N","003000,1,N,1","+0130,1","+0110,1","99999,9","08,5,+00180,1,99,9",,,"08,99,1,99,9,99,9,99999,9,99,9,99,9","10139,1,99999,9","10,1",,,"MET059METAR EGWC 100750Z 06010KT 3000 BR OVC006 13/11 Q1014 YLO1;",
"03414599999","2010-10-10T08:50:00","4","52.640028","-2.305578","82.9","COSFORD, UK","FM-15","EGWC ","V020","050,1,N,0051,1","00240,1,C,N","003000,1,N,1","+0130,1","+0110,1","99999,9","07,5,+00240,1,99,9",,,"07,99,1,99,9,99,9,99999,9,99,9,99,9","10139,1,99999,9","10,1",,,"MET059METAR EGWC 100850Z 05010KT 3000 BR BKN008 13/11 Q1014 YLO1;",
"03414599999","2010-10-10T09:50:00","4","52.640028","-2.305578","82.9","COSFORD, UK","FM-15","EGWC ","V020","060,1,N,0077,1","00300,1,C,N","004000,1,N,1","+0140,1","+0110,1","99999,9","07,5,+00300,1,99,9",,,"07,99,1,99,9,99,9,99999,9,99,9,99,9","10139,1,99999,9","05,1",,,"MET058METAR EGWC 100950Z 06015KT 4000 HZ BKN010 14/11 Q1014 GRN;",
"03414599999","2010-10-10T10:50:00","4","52.640028","-2.305578","82.9","COSFORD, UK","FM-15","EGWC ","V020","060,1,N,0077,1","22000,1,9,N","008000,1,N,1","+0150,1","+0110,1","99999,9","04,5,+00450,1,99,9",,,"04,99,1,99,9,99,9,99999,9,99,9,99,9","10139,1,99999,9","05,1",,,"MET058METAR EGWC 101050Z 06015KT 8000 HZ SCT015 15/11 Q1014 WHT;",
"03414599999","2010-10-10T11:50:00","4","52.640028","-2.305578","82.9","COSFORD, UK","FM-15","EGWC ","V020","060,1,N,0062,1","00450,1,C,N","008000,1,N,1","+0150,1","+0120,1","99999,9","07,5,+00450,1,99,9",,,"07,99,1,99,9,99,9,99999,9,99,9,99,9","10149,1,99999,9","05,1",,,"MET058METAR EGWC 101150Z 06012KT 8000 HZ BKN015 15/12 Q1015 WHT;",
"03414599999","2010-10-10T12:50:00","4","52.640028","-2.305578","82.9","COSFORD, UK","FM-15","EGWC ","V020","060,1,N,0051,1","00450,1,C,N","011265,1,N,1","+0170,1","+0120,1","99999,9","07,5,+00450,1,99,9",,,"07,99,1,99,9,99,9,99999,9,99,9,99,9","10149,1,99999,9",,,,"MET055METAR EGWC 101250Z 06010KT 9999 BKN015 17/12 Q1015 WHT;",
"03414599999","2010-10-10T13:50:00","4","52.640028","-2.305578","82.9","COSFORD, UK","FM-15","EGWC ","V020","060,1,N,0051,1","99999,9,9,Y","009900,1,N,1","+0180,1","+0120,1","99999,9",,,,,"10149,1,99999,9",,,,"MET049METAR EGWC 101350Z 06010KT CAVOK 18/12 Q1015 BLU;",
"03414599999","2010-10-11T07:50:00","4","52.640028","-2.305578","82.9","COSFORD, UK","FM-15","EGWC ","V020","050,1,N,0077,1","22000,1,9,N","008000,1,N,1","+0100,1","+0070,1","99999,9","04,5,+00450,1,99,9",,,"04,99,1,99,9,99,9,99999,9,99,9,99,9","10220,1,99999,9","05,1",,,"MET058METAR EGWC 110750Z 05015KT 8000 HZ SCT015 10/07 Q1022 WHT;",
"03414599999","2010-10-11T08:50:00","4","52.640028","-2.305578","82.9","COSFORD, UK","FM-15","EGWC ","V020","050,1,N,0062,1","22000,1,9,N","008000,1,N,1","+0100,1","+0080,1","99999,9","04,5,+00450,1,99,9",,,"04,99,1,99,9,99,9,99999,9,99,9,99,9","10220,1,99999,9","05,1",,,"MET058METAR EGWC 110850Z 05012KT 8000 HZ SCT015 10/08 Q1022 WHT;",
"03414599999","2010-10-11T09:50:00","4","52.640028","-2.305578","82.9","COSFORD, UK","FM-15","EGWC ","V020","070,1,N,0051,1","22000,1,9,N","011265,1,N,1","+0100,1","+0090,1","99999,9","02,5,+00450,1,99,9",,,"02,99,1,99,9,99,9,99999,9,99,9,99,9","10220,1,99999,9",,,,"MET055METAR EGWC 110950Z 07010KT 9999 FEW015 10/09 Q1022 BLU;",
"03414599999","2010-10-11T10:50:00","4","52.640028","-2.305578","82.9","COSFORD, UK","FM-15","EGWC ","V020","060,1,N,0051,1","22000,1,9,N","011265,1,N,1","+0130,1","+0080,1","99999,9","02,5,+00450,1,99,9",,,"02,99,1,99,9,99,9,99999,9,99,9,99,9","10220,1,99999,9",,,,"MET055METAR EGWC 111050Z 06010KT 9999 FEW015 13/08 Q1022 BLU;",
"03414599999","2010-10-11T11:50:00","4","52.640028","-2.305578","82.9","COSFORD, UK","FM-15","EGWC ","V020","060,1,N,0051,1","99999,9,9,Y","009900,1,N,1","+0130,1","+0080,1","99999,9",,,,,"10220,1,99999,9",,,,"MET049METAR EGWC 111150Z 06010KT CAVOK 13/08 Q1022 BLU;",
"03414599999","2010-10-11T12:50:00","4","52.640028","-2.305578","82.9","COSFORD, UK","FM-15","EGWC ","V020","060,1,N,0077,1","99999,9,9,Y","009900,1,N,1","+0140,1","+0080,1","99999,9",,,,,"10220,1,99999,9",,,,"MET049METAR EGWC 111250Z 06015KT CAVOK 14/08 Q1022 BLU;",
"03414599999","2010-10-11T13:50:00","4","52.640028","-2.305578","82.9","COSFORD, UK","FM-15","EGWC ","V020","050,1,N,0051,1","99999,9,9,Y","009900,1,N,1","+0150,1","+0090,1","99999,9",,,,,"10210,1,99999,9",,,,"MET049METAR EGWC 111350Z 05010KT CAVOK 15/09 Q1021 BLU;",
"03414599999","2010-10-11T14:50:00","4","52.640028","-2.305578","82.9","COSFORD, UK","FM-15","EGWC ","V020","040,1,N,0051,1","99999,9,9,Y","009900,1,N,1","+0150,1","+0080,1","99999,9",,,,,"10210,1,99999,9",,,,"MET049METAR EGWC 111450Z 04010KT CAVOK 15/08 Q1021 BLU;",
"03414599999","2010-10-12T06:50:00","4","52.640028","-2.305578","82.9","COSFORD, UK","FM-15","EGWC ","V020","070,1,N,0026,1","00540,1,C,N","011265,1,N,1","+0090,1","+0060,1","99999,9","07,5,+00540,1,99,9",,,"07,99,1,99,9,99,9,99999,9,99,9,99,9","10230,1,99999,9",,,,"MET055METAR EGWC 120650Z 07005KT 9999 BKN018 09/06 Q1023 WHT;",
"03414599999","2010-10-12T07:50:00","4","52.640028","-2.305578","82.9","COSFORD, UK","FM-15","EGWC ","V020","060,1,N,0031,1","00450,1,C,N","011265,1,N,1","+0090,1","+0060,1","99999,9","07,5,+00450,1,99,9",,,"07,99,1,99,9,99,9,99999,9,99,9,99,9","10230,1,99999,9",,,,"MET055METAR EGWC 120750Z 06006KT 9999 BKN015 09/06 Q1023 WHT;",
"03414599999","2010-10-12T08:50:00","4","52.640028","-2.305578","82.9","COSFORD, UK","FM-15","EGWC ","V020","060,1,N,0041,1","00480,1,C,N","011265,1,N,1","+0090,1","+0060,1","99999,9","07,5,+00480,1,99,9",,,"07,99,1,99,9,99,9,99999,9,99,9,99,9","10230,1,99999,9",,,,"MET055METAR EGWC 120850Z 06008KT 9999 BKN016 09/06 Q1023 WHT;",
"03414599999","2010-10-12T09:50:00","4","52.640028","-2.305578","82.9","COSFORD, UK","FM-15","EGWC ","V020","060,1,N,0051,1","00600,1,C,N","011265,1,N,1","+0090,1","+0060,1","99999,9","07,5,+00600,1,99,9",,,"07,99,1,99,9,99,9,99999,9,99,9,99,9","10240,1,99999,9",,,,"MET055METAR EGWC 120950Z 06010KT 9999 BKN020 09/06 Q1024 WHT;",
"03414599999","2010-10-12T10:50:00","4","52.640028","-2.305578","82.9","COSFORD, UK","FM-15","EGWC ","V020","060,1,N,0051,1","00600,1,C,N","011265,1,N,1","+0100,1","+0060,1","99999,9","07,5,+00600,1,99,9",,,"07,99,1,99,9,99,9,99999,9,99,9,99,9","10240,1,99999,9",,,,"MET055METAR EGWC 121050Z 06010KT 9999 BKN020 10/06 Q1024 WHT;",
"03414599999","2010-10-12T11:50:00","4","52.640028","-2.305578","82.9","COSFORD, UK","FM-15","EGWC ","V020","060,1,N,0051,1","00600,1,C,N","011265,1,N,1","+0110,1","+0060,1","99999,9","07,5,+00600,1,99,9",,,"07,99,1,99,9,99,9,99999,9,99,9,99,9","10230,1,99999,9",,,,"MET055METAR EGWC 121150Z 06010KT 9999 BKN020 11/06 Q1023 WHT;",
"03414599999","2010-10-12T12:50:00","4","52.640028","-2.305578","82.9","COSFORD, UK","FM-15","EGWC ","V020","050,1,N,0031,1","00600,1,C,N","011265,1,N,1","+0110,1","+0070,1","99999,9","07,5,+00600,1,99,9",,,"07,99,1,99,9,99,9,99999,9,99,9,99,9","10230,1,99999,9",,,,"MET055METAR EGWC 121250Z 05006KT 9999 BKN020 11/07 Q1023 WHT;",
"03414599999","2010-10-12T13:50:00","4","52.640028","-2.305578","82.9","COSFORD, UK","FM-15","EGWC ","V020","080,1,N,0026,1","00600,1,C,N","011265,1,N,1","+0090,1","+0060,1","99999,9","07,5,+00600,1,99,9",,,"07,99,1,99,9,99,9,99999,9,99,9,99,9","10230,1,99999,9",,,,"MET055METAR EGWC 121350Z 08005KT 9999 BKN020 09/06 Q1023 WHT;",
"03414599999","2010-10-13T07:50:00","4","52.640028","-2.305578","82.9","COSFORD, UK","FM-15","EGWC ","V020","999,9,C,0000,1","00450,1,C,N","006000,1,N,1","+0070,1","+0050,1","99999,9","08,5,+00450,1,99,9",,,"08,99,1,99,9,99,9,99999,9,99,9,99,9","10230,1,99999,9","05,1",,,"MET058METAR EGWC 130750Z 00000KT 6000 HZ OVC015 07/05 Q1023 WHT;",
"03414599999","2010-10-13T08:50:00","4","52.640028","-2.305578","82.9","COSFORD, UK","FM-15","EGWC ","V020","080,1,N,0041,1","00450,1,C,N","006000,1,N,1","+0080,1","+0050,1","99999,9","08,5,+00450,1,99,9",,,"08,99,1,99,9,99,9,99999,9,99,9,99,9","10230,1,99999,9","05,1",,,"MET058METAR EGWC 130850Z 08008KT 6000 HZ OVC015 08/05 Q1023 WHT;",
"03414599999","2010-10-13T09:50:00","4","52.640028","-2.305578","82.9","COSFORD, UK","FM-15","EGWC ","V020","080,1,N,0041,1","00450,1,C,N","006000,1,N,1","+0090,1","+0060,1","99999,9","07,5,+00450,1,99,9",,,"07,99,1,99,9,99,9,99999,9,99,9,99,9","10240,1,99999,9","05,1",,,"MET058METAR EGWC 130950Z 08008KT 6000 HZ BKN015 09/06 Q1024 WHT;",
"03414599999","2010-10-13T10:50:00","4","52.640028","-2.305578","82.9","COSFORD, UK","FM-15","EGWC ","V020","999,9,C,0000,1","00450,1,C,N","011265,1,N,1","+0080,1","+0040,1","99999,9","07,5,+00450,1,99,9",,,"07,99,1,99,9,99,9,99999,9,99,9,99,9","10230,1,99999,9",,,,"MET055METAR EGWC 131050Z 00000KT 9999 BKN015 08/04 Q1023 WHT;",
"03414599999","2010-10-13T11:50:00","4","52.640028","-2.305578","82.9","COSFORD, UK","FM-15","EGWC ","V020","999,9,C,0000,1","00510,1,C,N","011265,1,N,1","+0090,1","+0050,1","99999,9","07,5,+00510,1,99,9",,,"07,99,1,99,9,99,9,99999,9,99,9,99,9","10230,1,99999,9",,,,"MET055METAR EGWC 131150Z 00000KT 9999 BKN017 09/05 Q1023 WHT;",
"03414599999","2010-10-13T12:50:00","4","52.640028","-2.305578","82.9","COSFORD, UK","FM-15","EGWC ","V020","999,9,C,0000,1","22000,1,9,N","011265,1,N,1","+0100,1","+0060,1","99999,9","02,5,+00600,1,99,9",,,"02,99,1,99,9,99,9,99999,9,99,9,99,9","10220,1,99999,9",,,,"MET055METAR EGWC 131250Z 00000KT 9999 FEW020 10/06 Q1022 BLU;",
"03414599999","2010-10-13T13:50:00","4","52.640028","-2.305578","82.9","COSFORD, UK","FM-15","EGWC ","V020","999,9,C,0000,1","99999,9,9,Y","009900,1,N,1","+0110,1","+0060,1","99999,9",,,,,"10220,1,99999,9",,,,"MET049METAR EGWC 131350Z 00000KT CAVOK 11/06 Q1022 BLU;",
"03414599999","2010-10-16T07:50:00","4","52.640028","-2.305578","82.9","COSFORD, UK","FM-15","EGWC ","V020","330,1,N,0041,1","99999,9,9,Y","009900,1,N,1","+0060,1","+0050,1","99999,9",,,,,"10220,1,99999,9",,,,"MET049METAR EGWC 160750Z 33008KT CAVOK 06/05 Q1022 BLU;",
"03414599999","2010-10-16T08:50:00","4","52.640028","-2.305578","82.9","COSFORD, UK","FM-15","EGWC ","V020","330,1,N,0051,1","99999,9,9,Y","009900,1,N,1","+0090,1","+0070,1","99999,9",,,,,"10220,1,99999,9",,,,"MET049METAR EGWC 160850Z 33010KT CAVOK 09/07 Q1022 BLU;",
"03414599999","2010-10-16T09:50:00","4","52.640028","-2.305578","82.9","COSFORD, UK","FM-15","EGWC ","V020","340,1,N,0051,1","22000,1,9,N","011265,1,N,1","+0100,1","+0060,1","99999,9","02,5,+00750,1,99,9",,,"02,99,1,99,9,99,9,99999,9,99,9,99,9","10230,1,99999,9",,,,"MET055METAR EGWC 160950Z 34010KT 9999 FEW025 10/06 Q1023 BLU;",
"03414599999","2010-10-16T10:50:00","4","52.640028","-2.305578","82.9","COSFORD, UK","FM-15","EGWC ","V020","360,1,N,0062,1","22000,1,9,N","011265,1,N,1","+0100,1","+0060,1","99999,9","02,5,+00840,1,99,9",,,"02,99,1,99,9,99,9,99999,9,99,9,99,9","10230,1,99999,9",,,,"MET055METAR EGWC 161050Z 36012KT 9999 FEW028 10/06 Q1023 BLU;",
"03414599999","2010-10-16T11:50:00","4","52.640028","-2.305578","82.9","COSFORD, UK","FM-15","EGWC ","V020","010,1,N,0051,1","00750,1,C,N","011265,1,N,1","+0100,1","+0060,1","99999,9","07,5,+00750,1,99,9",,,"07,99,1,99,9,99,9,99999,9,99,9,99,9","10230,1,99999,9",,,,"MET055METAR EGWC 161150Z 01010KT 9999 BKN025 10/06 Q1023 BLU;",
"03414599999","2010-10-17T07:50:00","4","52.640028","-2.305578","82.9","COSFORD, UK","FM-15","EGWC ","V020","999,9,C,0000,1","00015,1,C,N","000100,1,N,1","+0000,1","+0000,1","99999,9","09,1,+00015,1,99,9",,,"09,99,1,99,9,99,9,00025,1,99,9,99,9","10271,1,99999,9","49,1",,,"MET061METAR EGWC 170750Z 00000KT 0100 FZFG VV/// M00/M00 Q1027 RED;",
"03414599999","2010-10-17T08:50:00","4","52.640028","-2.305578","82.9","COSFORD, UK","FM-15","EGWC ","V020","999,9,C,0000,1","00015,1,C,N","000100,1,N,1","+0020,1","+0010,1","99999,9","09,1,+00015,1,99,9",,,"09,99,1,99,9,99,9,00025,1,99,9,99,9","10281,1,99999,9","45,1",,,"MET057METAR EGWC 170850Z 00000KT 0100 FG VV/// 02/01 Q1028 RED;",
"03414599999","2010-10-17T09:50:00","4","52.640028","-2.305578","82.9","COSFORD, UK","FM-15","EGWC ","V020","999,9,C,0000,1","99999,9,9,Y","009900,1,N,1","+0050,1","+0040,1","99999,9",,,,,"10281,1,99999,9",,,,"MET049METAR EGWC 170950Z 00000KT CAVOK 05/04 Q1028 BLU;",
"03414599999","2010-10-17T10:50:00","4","52.640028","-2.305578","82.9","COSFORD, UK","FM-15","EGWC ","V020","999,9,C,0000,1","99999,9,9,Y","009900,1,N,1","+0090,1","+0050,1","99999,9",,,,,"10271,1,99999,9",,,,"MET049METAR EGWC 171050Z 00000KT CAVOK 09/05 Q1027 BLU;",
"03414599999","2010-10-17T11:50:00","4","52.640028","-2.305578","82.9","COSFORD, UK","FM-15","EGWC ","V020","210,1,N,0026,1","99999,9,C,N","011265,1,N,1","+0110,1","+0050,1","99999,9","02,5,+00750,1,99,9","04,5,+01800,1,99,9",,"04,99,1,99,9,99,9,99999,9,99,9,99,9","10271,1,99999,9",,,,"MET062METAR EGWC 171150Z 21005KT 9999 FEW025 SCT060 11/05 Q1027 BLU;","P01 018003SCOCIG"
"03414599999","2010-10-18T06:50:00","4","52.640028","-2.305578","82.9","COSFORD, UK","FM-15","EGWC ","V020","999,9,C,0000,1","01350,1,C,N","011265,1,N,1","+0070,1","+0060,1","99999,9","07,5,+01350,1,99,9",,,"07,99,1,99,9,99,9,99999,9,99,9,99,9","10200,1,99999,9",,,,"MET055METAR EGWC 180650Z 00000KT 9999 BKN045 07/06 Q1020 BLU;",
"03414599999","2010-10-18T07:50:00","4","52.640028","-2.305578","82.9","COSFORD, UK","FM-15","EGWC ","V020","999,9,C,0000,1","01500,1,C,N","011265,1,N,1","+0080,1","+0070,1","99999,9","04,5,+01200,1,99,9","07,5,+01500,1,99,9",,"07,99,1,99,9,99,9,99999,9,99,9,99,9","10200,1,99999,9",,,,"MET062METAR EGWC 180750Z 00000KT 9999 SCT040 BKN050 08/07 Q1020 BLU;",
"03414599999","2010-10-18T09:50:00","4","52.640028","-2.305578","82.9","COSFORD, UK","FM-15","EGWC ","V020","260,1,N,0051,1","22000,1,9,N","011265,1,N,1","+0120,1","+0080,1","99999,9","02,5,+01350,1,99,9",,,"02,99,1,99,9,99,9,99999,9,99,9,99,9","10200,1,99999,9",,,,"MET055METAR EGWC 180950Z 26010KT 9999 FEW045 12/08 Q1020 BLU;",
"03414599999","2010-10-18T10:50:00","4","52.640028","-2.305578","82.9","COSFORD, UK","FM-15","EGWC ","V020","240,1,N,0041,1","01350,1,C,N","011265,1,N,1","+0130,1","+0070,1","99999,9","02,5,+00540,1,99,9","07,5,+01350,1,99,9",,"07,99,1,99,9,99,9,99999,9,99,9,99,9","10190,1,99999,9",,,,"MET062METAR EGWC 181050Z 24008KT 9999 FEW018 BKN045 13/07 Q1019 BLU;",
"03414599999","2010-10-18T11:50:00","4","52.640028","-2.305578","82.9","COSFORD, UK","FM-15","EGWC ","V020","260,1,N,0062,1","01200,1,C,N","011265,1,N,1","+0140,1","+0070,1","99999,9","02,5,+00600,1,99,9","07,5,+01200,1,99,9",,"07,99,1,99,9,99,9,99999,9,99,9,99,9","10190,1,99999,9",,,,"MET062METAR EGWC 181150Z 26012KT 9999 FEW020 BKN040 14/07 Q1019 BLU;",
"03414599999","2010-10-18T12:50:00","4","52.640028","-2.305578","82.9","COSFORD, UK","FM-15","EGWC ","V020","240,1,N,0051,1","01200,1,C,N","011265,1,N,1","+0140,1","+0070,1","99999,9","04,5,+00750,1,99,9","07,5,+01200,1,99,9",,"07,99,1,99,9,99,9,99999,9,99,9,99,9","10180,1,99999,9",,,,"MET062METAR EGWC 181250Z 24010KT 9999 SCT025 BKN040 14/07 Q1018 BLU;",
"03414599999","2010-10-18T13:50:00","4","52.640028","-2.305578","82.9","COSFORD, UK","FM-15","EGWC ","V020","260,1,N,0062,1","01200,1,C,N","011265,1,N,1","+0140,1","+0070,1","99999,9","02,5,+00600,1,99,9","07,5,+01200,1,99,9",,"07,99,1,99,9,99,9,99999,9,99,9,99,9","10180,1,99999,9",,,,"MET062METAR EGWC 181350Z 26012KT 9999 FEW020 BKN040 14/07 Q1018 BLU;",
"03414599999","2010-10-18T14:50:00","4","52.640028","-2.305578","82.9","COSFORD, UK","FM-15","EGWC ","V020","270,1,N,0041,1","01200,1,C,N","011265,1,N,1","+0140,1","+0070,1","99999,9","04,5,+00450,1,99,9","07,5,+01200,1,99,9",,"07,99,1,99,9,99,9,99999,9,99,9,99,9","10169,1,99999,9",,,,"MET062METAR EGWC 181450Z 27008KT 9999 SCT015 BKN040 14/07 Q1017 WHT;",
"03414599999","2010-10-19T06:50:00","4","52.640028","-2.305578","82.9","COSFORD, UK","FM-15","EGWC ","V020","240,1,N,0026,1","22000,1,9,N","011265,1,N,1","+0070,1","+0040,1","99999,9","02,5,+00840,1,99,9",,,"02,99,1,99,9,99,9,99999,9,99,9,99,9","10119,1,99999,9",,,,"MET055METAR EGWC 190650Z 24005KT 9999 FEW028 07/04 Q1012 BLU;",
"03414599999","2010-10-19T07:50:00","4","52.640028","-2.305578","82.9","COSFORD, UK","FM-15","EGWC ","V020","240,1,N,0031,1","22000,1,9,N","011265,1,N,1","+0080,1","+0040,1","99999,9","04,5,+00780,1,99,9",,,"04,99,1,99,9,99,9,99999,9,99,9,99,9","10119,1,99999,9",,,,"MET055METAR EGWC 190750Z 24006KT 9999 SCT026 08/04 Q1012 BLU;",
"03414599999","2010-10-19T08:50:00","4","52.640028","-2.305578","82.9","COSFORD, UK","FM-15","EGWC ","V020","270,1,N,0026,1","22000,1,9,N","011265,1,N,1","+0090,1","+0060,1","99999,9","04,5,+00900,1,99,9",,,"04,99,1,99,9,99,9,99999,9,99,9,99,9","10119,1,99999,9",,,,"MET055METAR EGWC 190850Z 27005KT 9999 SCT030 09/06 Q1012 BLU;",
"03414599999","2010-10-19T09:50:00","4","52.640028","-2.305578","82.9","COSFORD, UK","FM-15","EGWC ","V020","240,1,N,0041,1","22000,1,9,N","011265,1,N,1","+0100,1","+0050,1","99999,9","02,5,+00840,1,99,9",,,"02,99,1,99,9,99,9,99999,9,99,9,99,9","10119,1,99999,9",,,,"MET055METAR EGWC 190950Z 24008KT 9999 FEW028 10/05 Q1012 BLU;",
"03414599999","2010-10-19T10:50:00","4","52.640028","-2.305578","82.9","COSFORD, UK","FM-15","EGWC ","V020","290,1,N,0062,1","00750,1,C,N","011265,1,N,1","+0120,1","+0060,1","99999,9","02,5,+00600,1,99,9","07,5,+00750,1,99,9",,"07,99,1,99,9,99,9,99999,9,99,9,99,9","10108,1,99999,9",,,,"MET062METAR EGWC 191050Z 29012KT 9999 FEW020 BKN025 12/06 Q1011 BLU;",
"03414599999","2010-10-19T11:50:00","4","52.640028","-2.305578","82.9","COSFORD, UK","FM-15","EGWC ","V020","330,1,N,0041,1","00600,1,C,N","011265,1,N,1","+0110,1","+0060,1","99999,9","02,5,+00420,1,99,9","07,5,+00600,1,99,9",,"07,99,1,99,9,99,9,99999,9,99,9,99,9","10108,1,99999,9","61,1",,,"MET066METAR EGWC 191150Z 33008KT 9999 -RA FEW014 BKN020 11/06 Q1011 WHT;",
"03414599999","2010-10-19T12:50:00","4","52.640028","-2.305578","82.9","COSFORD, UK","FM-15","EGWC ","V020","330,1,N,0041,1","00450,1,C,N","005000,1,N,1","+0110,1","+0060,1","99999,9","07,5,+00450,1,99,9",,,"07,99,1,99,9,99,9,99999,9,99,9,99,9","10108,1,99999,9","82,1",,,"MET061METAR EGWC 191250Z 33008KT 5000 +SHRA BKN015 11/06 Q1011 WHT;",
"03414599999","2010-10-20T06:50:00","4","52.640028","-2.305578","82.9","COSFORD, UK","FM-15","EGWC ","V020","999,9,C,0000,1","99999,9,9,Y","009900,1,N,1","+0020,1","-0010,1","99999,9",,,,,"10190,1,99999,9",,,,"MET050METAR EGWC 200650Z 00000KT CAVOK 02/M01 Q1019 BLU;",
"03414599999","2010-10-20T07:50:00","4","52.640028","-2.305578","82.9","COSFORD, UK","FM-15","EGWC ","V020","999,9,C,0000,1","99999,9,9,Y","009900,1,N,1","+0020,1","-0010,1","99999,9",,,,,"10200,1,99999,9",,,,"MET050METAR EGWC 200750Z 00000KT CAVOK 02/M01 Q1020 BLU;",
"03414599999","2010-10-20T08:50:00","4","52.640028","-2.305578","82.9","COSFORD, UK","FM-15","EGWC ","V020","310,1,N,0036,1","99999,9,9,Y","009900,1,N,1","+0040,1","-0020,1","99999,9",,,,,"10210,1,99999,9",,,,"MET050METAR EGWC 200850Z 31007KT CAVOK 04/M02 Q1021 BLU;",
"03414599999","2010-10-20T09:50:00","4","52.640028","-2.305578","82.9","COSFORD, UK","FM-15","EGWC ","V020","350,1,N,0031,1","99999,9,9,Y","009900,1,N,1","+0050,1","+0010,1","99999,9",,,,,"10210,1,99999,9",,,,"MET049METAR EGWC 200950Z 35006KT CAVOK 05/01 Q1021 BLU;",
"03414599999","2010-10-20T10:50:00","4","52.640028","-2.305578","82.9","COSFORD, UK","FM-15","EGWC ","V020","310,1,N,0036,1","22000,1,9,N","011265,1,N,1","+0070,1","+0000,1","99999,9","02,5,+00600,1,99,9",,,"02,99,1,99,9,99,9,99999,9,99,9,99,9","10220,1,99999,9",,,,"MET056METAR EGWC 201050Z 31007KT 9999 FEW020 07/M00 Q1022 BLU;",
"03414599999","2010-10-20T11:50:00","4","52.640028","-2.305578","82.9","COSFORD, UK","FM-15","EGWC ","V020","310,1,N,0051,1","22000,1,9,N","011265,1,N,1","+0070,1","-0010,1","99999,9","02,5,+00600,1,99,9",,,"02,99,1,99,9,99,9,99999,9,99,9,99,9","10220,1,99999,9",,,,"MET056METAR EGWC 201150Z 31010KT 9999 FEW020 07/M01 Q1022 BLU;",
"03414599999","2010-10-20T12:50:00","4","52.640028","-2.305578","82.9","COSFORD, UK","FM-15","EGWC ","V020","330,1,N,0051,1","22000,1,9,N","011265,1,N,1","+0080,1","+0000,1","99999,9","04,5,+00750,1,99,9",,,"04,99,1,99,9,99,9,99999,9,99,9,99,9","10220,1,99999,9",,,"0103,1","MET059METAR EGWC 201250Z 33010G20KT 9999 SCT025 08/M00 Q1022 BLU;",
"03414599999","2010-10-20T13:50:00","4","52.640028","-2.305578","82.9","COSFORD, UK","FM-15","EGWC ","V020","330,1,N,0062,1","22000,1,9,N","011265,1,N,1","+0090,1","+0020,1","99999,9","02,5,+00750,1,99,9",,,"02,99,1,99,9,99,9,99999,9,99,9,99,9","10220,1,99999,9",,,,"MET055METAR EGWC 201350Z 33012KT 9999 FEW025 09/02 Q1022 BLU;",
"03414599999","2010-10-20T14:50:00","4","52.640028","-2.305578","82.9","COSFORD, UK","FM-15","EGWC ","V020","330,1,N,0067,1","22000,1,9,N","011265,1,N,1","+0090,1","-0010,1","99999,9","02,5,+00750,1,99,9",,,"02,99,1,99,9,99,9,99999,9,99,9,99,9","10220,1,99999,9",,,,"MET056METAR EGWC 201450Z 33013KT 9999 FEW025 09/M01 Q1022 BLU;",
"03414599999","2010-10-23T07:50:00","4","52.640028","-2.305578","82.9","COSFORD, UK","FM-15","EGWC ","V020","230,1,N,0036,1","22000,1,9,N","011265,1,N,1","+0070,1","+0050,1","99999,9","04,5,+00540,1,99,9",,,"04,99,1,99,9,99,9,99999,9,99,9,99,9","10020,1,99999,9",,,,"MET055METAR EGWC 230750Z 23007KT 9999 SCT018 07/05 Q1002 WHT;",
"03414599999","2010-10-23T08:50:00","4","52.640028","-2.305578","82.9","COSFORD, UK","FM-15","EGWC ","V020","999,9,C,0000,1","00600,1,C,N","011265,1,N,1","+0080,1","+0070,1","99999,9","07,5,+00600,1,99,9",,,"07,99,1,99,9,99,9,99999,9,99,9,99,9","10010,1,99999,9",,,,"MET055METAR EGWC 230850Z 00000KT 9999 BKN020 08/07 Q1001 WHT;",
"03414599999","2010-10-23T09:50:00","4","52.640028","-2.305578","82.9","COSFORD, UK","FM-15","EGWC ","V020","240,1,N,0051,1","00600,1,C,N","011265,1,N,1","+0090,1","+0070,1","99999,9","07,5,+00600,1,99,9",,,"07,99,1,99,9,99,9,99999,9,99,9,99,9","10010,1,99999,9",,,,"MET055METAR EGWC 230950Z 24010KT 9999 BKN020 09/07 Q1001 WHT;",
"03414599999","2010-10-23T10:50:00","4","52.640028","-2.305578","82.9","COSFORD, UK","FM-15","EGWC ","V020","270,1,N,0036,1","00600,1,C,N","011265,1,N,1","+0100,1","+0060,1","99999,9","07,5,+00600,1,99,9",,,"07,99,1,99,9,99,9,99999,9,99,9,99,9","10010,1,99999,9",,,,"MET055METAR EGWC 231050Z 27007KT 9999 BKN020 10/06 Q1001 WHT;",
"03414599999","2010-10-23T11:50:00","4","52.640028","-2.305578","82.9","COSFORD, UK","FM-15","EGWC ","V020","280,1,N,0062,1","99999,9,C,N","011265,1,N,1","+0110,1","+0060,1","99999,9","02,5,+00750,1,99,9","04,5,+01050,1,99,9",,"04,99,1,99,9,99,9,99999,9,99,9,99,9","10010,1,99999,9",,,,"MET062METAR EGWC 231150Z 28012KT 9999 FEW025 SCT035 11/06 Q1001 BLU;","P01 010503SCOCIG"
"03414599999","2010-10-23T12:50:00","4","52.640028","-2.305578","82.9","COSFORD, UK","FM-15","EGWC ","V020","280,1,N,0072,1","00840,1,C,N","011265,1,N,1","+0100,1","+0050,1","99999,9","02,5,+00750,1,99,9","04,5,+00840,1,99,9","07,5,+01200,1,99,9","07,99,1,99,9,99,9,99999,9,99,9,99,9","10010,1,99999,9","16,1",,,"MET074METAR EGWC 231250Z 28014KT 9999 VCSH FEW025 SCT028 BKN040 10/05 Q1001 BLU;",
"03414599999","2010-10-23T13:50:00","4","52.640028","-2.305578","82.9","COSFORD, UK","FM-15","EGWC ","V020","340,1,N,0072,1","99999,9,C,N","005000,1,N,1","+0110,1","+0070,1","99999,9","02,5,+00450,1,09,1","04,5,+00900,1,99,9",,"04,99,1,99,9,99,9,99999,9,99,9,99,9","10020,1,99999,9","82,1",,,"MET070METAR EGWC 231350Z 34014KT 5000 +SHRA FEW015CB SCT030 11/07 Q1002 WHT;","P01 009003SCOCIG"
"03414599999","2010-10-24T07:50:00","4","52.640028","-2.305578","82.9","COSFORD, UK","FM-15","EGWC ","V020","320,1,N,0026,1","22000,1,9,N","011265,1,N,1","+0030,1","+0010,1","99999,9",,,,"00,99,1,99,9,99,9,99999,9,99,9,99,9","10149,1,99999,9",,,,"MET052METAR EGWC 240750Z 32005KT 9999 SKC 03/01 Q1015 BLU;","Q01    003SCCGA1"
"03414599999","2010-10-24T08:50:00","4","52.640028","-2.305578","82.9","COSFORD, UK","FM-15","EGWC ","V020","330,1,N,0051,1","99999,9,9,Y","009900,1,N,1","+0050,1","+0020,1","99999,9",,,,,"10159,1,99999,9",,,,"MET049METAR EGWC 240850Z 33010KT CAVOK 05/02 Q1016 BLU;",
"03414599999","2010-10-24T09:50:00","4","52.640028","-2.305578","82.9","COSFORD, UK","FM-15","EGWC ","V020","330,1,N,0041,1","99999,9,9,Y","009900,1,N,1","+0060,1","+0020,1","99999,9",,,,,"10169,1,99999,9",,,,"MET049METAR EGWC 240950Z 33008KT CAVOK 06/02 Q1017 BLU;",
"03414599999","2010-10-24T10:50:00","4","52.640028","-2.305578","82.9","COSFORD, UK","FM-15","EGWC ","V020","330,1,N,0077,1","99999,9,9,Y","009900,1,N,1","+0070,1","+0030,1","99999,9",,,,,"10180,1,99999,9",,,,"MET049METAR EGWC 241050Z 33015KT CAVOK 07/03 Q1018 BLU;",
"03414599999","2010-10-24T11:50:00","4","52.640028","-2.305578","82.9","COSFORD, UK","FM-15","EGWC ","V020","330,1,N,0041,1","22000,1,9,N","011265,1,N,1","+0080,1","+0030,1","99999,9","02,5,+00900,1,99,9",,,"02,99,1,99,9,99,9,99999,9,99,9,99,9","10180,1,99999,9",,,,"MET055METAR EGWC 241150Z 33008KT 9999 FEW030 08/03 Q1018 BLU;",
"03414599999","2010-10-24T12:50:00","4","52.640028","-2.305578","82.9","COSFORD, UK","FM-15","EGWC ","V020","340,1,N,0041,1","22000,1,9,N","011265,1,N,1","+0090,1","+0030,1","99999,9","02,5,+00900,1,99,9",,,"02,99,1,99,9,99,9,99999,9,99,9,99,9","10180,1,99999,9",,,,"MET055METAR EGWC 241250Z 34008KT 9999 FEW030 09/03 Q1018 BLU;",
"03414599999","2010-10-24T13:50:00","4","52.640028","-2.305578","82.9","COSFORD, UK","FM-15","EGWC ","V020","330,1,N,0041,1","22000,1,9,N","011265,1,N,1","+0090,1","+0040,1","99999,9","04,5,+00900,1,99,9",,,"04,99,1,99,9,99,9,99999,9,99,9,99,9","10190,1,99999,9",,,,"MET055METAR EGWC 241350Z 33008KT 9999 SCT030 09/04 Q1019 BLU;",
"03414599999","2010-10-25T07:50:00","4","52.640028","-2.305578","82.9","COSFORD, UK","FM-15","EGWC ","V020","999,9,C,0000,1","99999,9,9,Y","009900,1,N,1","-0030,1","-0030,1","99999,9",,,,,"10291,1,99999,9",,,,"MET051METAR EGWC 250750Z 00000KT CAVOK M03/M03 Q1029 BLU;",
"03414599999","2010-10-25T08:50:00","4","52.640028","-2.305578","82.9","COSFORD, UK","FM-15","EGWC ","V020","999,9,C,0000,1","99999,9,9,Y","009900,1,N,1","+0010,1","-0020,1","99999,9",,,,,"10291,1,99999,9",,,,"MET050METAR EGWC 250850Z 00000KT CAVOK 01/M02 Q1029 BLU;",
"03414599999","2010-10-25T09:50:00","4","52.640028","-2.305578","82.9","COSFORD, UK","FM-15","EGWC ","V020","999,9,C,0000,1","99999,9,9,Y","009900,1,N,1","+0030,1","+0010,1","99999,9",,,,,"10301,1,99999,9",,,,"MET049METAR EGWC 250950Z 00000KT CAVOK 03/01 Q1030 BLU;",
"03414599999","2010-10-25T10:50:00","4","52.640028","-2.305578","82.9","COSFORD, UK","FM-15","EGWC ","V020","999,9,C,0000,1","99999,9,9,Y","009900,1,N,1","+0060,1","+0020,1","99999,9",,,,,"10301,1,99999,9",,,,"MET049METAR EGWC 251050Z 00000KT CAVOK 06/02 Q1030 BLU;",
"03414599999","2010-10-25T11:50:00","4","52.640028","-2.305578","82.9","COSFORD, UK","FM-15","EGWC ","V020","180,1,N,0026,1","99999,9,9,Y","009900,1,N,1","+0070,1","+0030,1","99999,9",,,,,"10301,1,99999,9",,,,"MET049METAR EGWC 251150Z 18005KT CAVOK 07/03 Q1030 BLU;",
"03414599999","2010-10-25T12:50:00","4","52.640028","-2.305578","82.9","COSFORD, UK","FM-15","EGWC ","V020","180,1,N,0021,1","99999,9,9,Y","009900,1,N,1","+0090,1","+0020,1","99999,9",,,,,"10291,1,99999,9",,,,"MET049METAR EGWC 251250Z 18004KT CAVOK 09/02 Q1029 BLU;",
"03414599999","2010-10-25T13:50:00","4","52.640028","-2.305578","82.9","COSFORD, UK","FM-15","EGWC ","V020","180,1,N,0026,1","99999,9,9,Y","009900,1,N,1","+0090,1","+0020,1","99999,9",,,,,"10291,1,99999,9",,,,"MET049METAR EGWC 251350Z 18005KT CAVOK 09/02 Q1029 BLU;",
"03414599999","2010-10-26T07:50:00","4","52.640028","-2.305578","82.9","COSFORD, UK","FM-15","EGWC ","V020","180,1,N,0051,1","00900,1,C,N","011265,1,N,1","+0080,1","+0070,1","99999,9","04,5,+00600,1,99,9","07,5,+00900,1,99,9",,"07,99,1,99,9,99,9,99999,9,99,9,99,9","10190,1,99999,9","61,1",,,"MET066METAR EGWC 260750Z 18010KT 9999 -RA SCT020 BKN030 08/07 Q1019 WHT;",
"03414599999","2010-10-26T08:50:00","4","52.640028","-2.305578","82.9","COSFORD, UK","FM-15","EGWC ","V020","180,1,N,0077,1","00750,1,C,N","006000,1,N,1","+0080,1","+0070,1","99999,9","04,5,+00450,1,99,9","07,5,+00750,1,99,9",,"07,99,1,99,9,99,9,99999,9,99,9,99,9","10190,1,99999,9","61,1",,,"MET066METAR EGWC 260850Z 18015KT 6000 -RA SCT015 BKN025 08/07 Q1019 WHT;",
"03414599999","2010-10-26T09:50:00","4","52.640028","-2.305578","82.9","COSFORD, UK","FM-15","EGWC ","V020","190,1,N,0051,1","00750,1,C,N","008000,1,N,1","+0090,1","+0080,1","99999,9","04,5,+00240,1,99,9","07,5,+00750,1,99,9",,"07,99,1,99,9,99,9,99999,9,99,9,99,9","10180,1,99999,9","61,1",,,"MET066METAR EGWC 260950Z 19010KT 8000 -RA SCT008 BKN025 09/08 Q1018 GRN;",
"03414599999","2010-10-26T10:50:00","4","52.640028","-2.305578","82.9","COSFORD, UK","FM-15","EGWC ","V020","180,1,N,0077,1","00240,1,C,N","006000,1,N,1","+0090,1","+0090,1","99999,9","07,5,+00240,1,99,9",,,"07,99,1,99,9,99,9,99999,9,99,9,99,9","10180,1,99999,9","63,1",,,"MET058METAR EGWC 261050Z 18015KT 6000 RA BKN008 09/09 Q1018 GRN;",
"03414599999","2010-10-26T11:50:00","4","52.640028","-2.305578","82.9","COSFORD, UK","FM-15","EGWC ","V020","180,1,N,0077,1","00300,1,C,N","011265,1,N,1","+0100,1","+0090,1","99999,9","04,5,+00240,1,99,9","07,5,+00300,1,99,9",,"07,99,1,99,9,99,9,99999,9,99,9,99,9","10180,1,99999,9","61,1",,,"MET066METAR EGWC 261150Z 18015KT 9999 -RA SCT008 BKN010 10/09 Q1018 GRN;",
"03414599999","2010-10-26T12:50:00","4","52.640028","-2.305578","82.9","COSFORD, UK","FM-15","EGWC ","V020","180,1,N,0077,1","00300,1,C,N","011265,1,N,1","+0110,1","+0100,1","99999,9","04,5,+00240,1,99,9","07,5,+00300,1,99,9",,"07,99,1,99,9,99,9,99999,9,99,9,99,9","10169,1,99999,9",,,,"MET062METAR EGWC 261250Z 18015KT 9999 SCT008 BKN010 11/10 Q1017 GRN;",
"03414599999","2010-10-27T06:50:00","4","52.640028","-2.305578","82.9","COSFORD, UK","FM-15","EGWC ","V020","220,1,N,0026,1","99999,9,C,N","011265,1,N,1","+0110,1","+0100,1","99999,9","02,5,+00240,1,99,9","04,5,+00900,1,99,9",,"04,99,1,99,9,99,9,99999,9,99,9,99,9","10129,1,99999,9",,,,"MET062METAR EGWC 270650Z 22005KT 9999 FEW008 SCT030 11/10 Q1013 BLU;","P01 009003SCOCIG"
"03414599999","2010-10-27T07:50:00","4","52.640028","-2.305578","82.9","COSFORD, UK","FM-15","EGWC ","V020","210,1,N,0021,1","22000,1,9,N","011265,1,N,1","+0110,1","+0100,1","99999,9","04,5,+00900,1,99,9",,,"04,99,1,99,9,99,9,99999,9,99,9,99,9","10139,1,99999,9",,,,"MET055METAR EGWC 270750Z 21004KT 9999 SCT030 11/10 Q1014 BLU;",
"03414599999","2010-10-27T08:50:00","4","52.640028","-2.305578","82.9","COSFORD, UK","FM-15","EGWC ","V020","190,1,N,0041,1","22000,1,9,N","011265,1,N,1","+0110,1","+0100,1","99999,9","02,5,+00900,1,99,9",,,"02,99,1,99,9,99,9,99999,9,99,9,99,9","10139,1,99999,9",,,,"MET055METAR EGWC 270850Z 19008KT 9999 FEW030 11/10 Q1014 BLU;",
"03414599999","2010-10-27T09:50:00","4","52.640028","-2.305578","82.9","COSFORD, UK","FM-15","EGWC ","V020","200,1,N,0031,1","22000,1,9,N","011265,1,N,1","+0130,1","+0110,1","99999,9","02,5,+00900,1,99,9",,,"02,99,1,99,9,99,9,99999,9,99,9,99,9","10149,1,99999,9",,,,"MET055METAR EGWC 270950Z 20006KT 9999 FEW030 13/11 Q1015 BLU;",
"03414599999","2010-10-27T10:50:00","4","52.640028","-2.305578","82.9","COSFORD, UK","FM-15","EGWC ","V020","220,1,N,0041,1","22000,1,9,N","011265,1,N,1","+0140,1","+0100,1","99999,9","02,5,+00750,1,99,9",,,"02,99,1,99,9,99,9,99999,9,99,9,99,9","10149,1,99999,9",,,,"MET055METAR EGWC 271050Z 22008KT 9999 FEW025 14/10 Q1015 BLU;",
"03414599999","2010-10-27T11:50:00","4","52.640028","-2.305578","82.9","COSFORD, UK","FM-15","EGWC ","V020","220,1,N,0062,1","22000,1,9,N","011265,1,N,1","+0150,1","+0080,1","99999,9","04,5,+00750,1,99,9",,,"04,99,1,99,9,99,9,99999,9,99,9,99,9","10149,1,99999,9",,,,"MET055METAR EGWC 271150Z 22012KT 9999 SCT025 15/08 Q1015 BLU;",
"03414599999","2010-10-27T12:50:00","4","52.640028","-2.305578","82.9","COSFORD, UK","FM-15","EGWC ","V020","220,1,N,0062,1","22000,1,9,N","011265,1,N,1","+0150,1","+0070,1","99999,9","04,5,+00750,1,99,9",,,"04,99,1,99,9,99,9,99999,9,99,9,99,9","10149,1,99999,9",,,,"MET055METAR EGWC 271250Z 22012KT 9999 SCT025 15/07 Q1015 BLU;",
"03414599999","2010-10-27T13:50:00","4","52.640028","-2.305578","82.9","COSFORD, UK","FM-15","EGWC ","V020","240,1,N,0051,1","22000,1,9,N","011265,1,N,1","+0150,1","+0070,1","99999,9","04,5,+00750,1,99,9",,,"04,99,1,99,9,99,9,99999,9,99,9,99,9","10139,1,99999,9",,,,"MET055METAR EGWC 271350Z 24010KT 9999 SCT025 15/07 Q1014 BLU;",
"03414599999","2010-10-27T14:50:00","4","52.640028","-2.305578","82.9","COSFORD, UK","FM-15","EGWC ","V020","230,1,N,0051,1","22000,1,9,N","011265,1,N,1","+0150,1","+0070,1","99999,9","04,5,+00750,1,99,9",,,"04,99,1,99,9,99,9,99999,9,99,9,99,9","10139,1,99999,9",,,,"MET055METAR EGWC 271450Z 23010KT 9999 SCT025 15/07 Q1014 BLU;",
"03414599999","2010-10-30T07:50:00","4","52.640028","-2.305578","82.9","COSFORD, UK","FM-15","EGWC ","V020","190,1,N,0051,1","22000,1,9,N","011265,1,N,1","+0070,1","+0060,1","99999,9","02,5,+00600,1,99,9",,,"02,99,1,99,9,99,9,99999,9,99,9,99,9","09959,1,99999,9",,,,"MET055METAR EGWC 300750Z 19010KT 9999 FEW020 07/06 Q0996 BLU;",
"03414599999","2010-10-30T08:50:00","4","52.640028","-2.305578","82.9","COSFORD, UK","FM-15","EGWC ","V020","190,1,N,0026,1","22000,1,9,N","011265,1,N,1","+0080,1","+0070,1","99999,9","02,5,+00600,1,99,9",,,"02,99,1,99,9,99,9,99999,9,99,9,99,9","09959,1,99999,9",,,,"MET055METAR EGWC 300850Z 19005KT 9999 FEW020 08/07 Q0996 BLU;",
"03414599999","2010-10-30T09:50:00","4","52.640028","-2.305578","82.9","COSFORD, UK","FM-15","EGWC ","V020","170,1,N,0026,1","22000,1,9,N","011265,1,N,1","+0090,1","+0080,1","99999,9","04,5,+00900,1,99,9",,,"04,99,1,99,9,99,9,99999,9,99,9,99,9","09959,1,99999,9",,,,"MET055METAR EGWC 300950Z 17005KT 9999 SCT030 09/08 Q0996 BLU;",
"03414599999","2010-10-30T10:50:00","4","52.640028","-2.305578","82.9","COSFORD, UK","FM-15","EGWC ","V020","170,1,N,0036,1","22000,1,9,N","011265,1,N,1","+0110,1","+0080,1","99999,9","02,5,+00900,1,99,9",,,"02,99,1,99,9,99,9,99999,9,99,9,99,9","09959,1,99999,9",,,,"MET055METAR EGWC 301050Z 17007KT 9999 FEW030 11/08 Q0996 BLU;",
"03414599999","2010-10-30T11:50:00","4","52.640028","-2.305578","82.9","COSFORD, UK","FM-15","EGWC ","V020","190,1,N,0051,1","22000,1,9,N","011265,1,N,1","+0120,1","+0080,1","99999,9","02,5,+00900,1,99,9",,,"02,99,1,99,9,99,9,99999,9,99,9,99,9","09959,1,99999,9",,,,"MET055METAR EGWC 301150Z 19010KT 9999 FEW030 12/08 Q0996 BLU;",
"03414599999","2010-10-30T12:50:00","4","52.640028","-2.305578","82.9","COSFORD, UK","FM-15","EGWC ","V020","180,1,N,0062,1","22000,1,9,N","011265,1,N,1","+0120,1","+0070,1","99999,9","04,5,+00840,1,99,9",,,"04,99,1,99,9,99,9,99999,9,99,9,99,9","09959,1,99999,9",,,,"MET055METAR EGWC 301250Z 18012KT 9999 SCT028 12/07 Q0996 BLU;",
"03414599999","2010-10-30T13:50:00","4","52.640028","-2.305578","82.9","COSFORD, UK","FM-15","EGWC ","V020","180,1,N,0026,1","01200,1,C,N","011265,1,N,1","+0120,1","+0090,1","99999,9","02,5,+00540,1,99,9","04,5,+01200,1,99,9","07,5,+03000,1,99,9","07,99,1,99,9,99,9,99999,9,99,9,99,9","09939,1,99999,9",,,,"MET069METAR EGWC 301350Z 18005KT 9999 FEW018 SCT040 BKN100 12/09 Q0994 BLU;",
"03414599999","2010-10-31T08:50:00","4","52.640028","-2.305578","82.9","COSFORD, UK","FM-15","EGWC ","V020","070,1,N,0051,1","00150,1,C,N","003000,1,N,1","+0090,1","+0090,1","99999,9","08,5,+00150,1,99,9",,,"08,99,1,99,9,99,9,99999,9,99,9,99,9","09990,1,99999,9","10,1",,,"MET059METAR EGWC 310850Z 07010KT 3000 BR OVC005 09/09 Q0999 YLO1;",
"03414599999","2010-10-31T09:50:00","4","52.640028","-2.305578","82.9","COSFORD, UK","FM-15","EGWC ","V020","070,1,N,0041,1","00150,1,C,N","003500,1,N,1","+0100,1","+0080,1","99999,9","07,5,+00150,1,99,9",,,"07,99,1,99,9,99,9,99999,9,99,9,99,9","10000,1,99999,9","10,1",,,"MET059METAR EGWC 310950Z 07008KT 3500 BR BKN005 10/08 Q1000 YLO1;",
"03414599999","2010-10-31T10:50:00","4","52.640028","-2.305578","82.9","COSFORD, UK","FM-15","EGWC ","V020","060,1,N,0036,1","00180,1,C,N","005000,1,N,1","+0100,1","+0040,1","99999,9","07,5,+00180,1,99,9",,,"07,99,1,99,9,99,9,99999,9,99,9,99,9","10000,1,99999,9","05,1",,,"MET059METAR EGWC 311050Z 06007KT 5000 HZ BKN006 10/04 Q1000 YLO1;",
"03414599999","2010-10-31T11:50:00","4","52.640028","-2.305578","82.9","COSFORD, UK","FM-15","EGWC ","V020","080,1,N,0031,1","00240,1,C,N","005000,1,N,1","+0110,1","+0090,1","99999,9","02,5,+00180,1,99,9","04,5,+00240,1,99,9","07,5,+00300,1,99,9","07,99,1,99,9,99,9,99999,9,99,9,99,9","10010,1,99999,9","05,1",,,"MET072METAR EGWC 311150Z 08006KT 5000 HZ FEW006 SCT008 BKN010 11/09 Q1001 GRN;",
"03414599999","2010-11-01T07:50:00","4","52.640028","-2.305578","82.9","COSFORD, UK","FM-15","EGWC ","V020","999,9,C,0000,1","00015,1,C,N","000200,1,N,1","+0080,1","+0080,1","99999,9","09,1,+00015,1,99,9",,,"09,99,1,99,9,99,9,00025,1,99,9,99,9",,"45,1",,,"MET051METAR EGWC 010750Z 00000KT 0200 FG VV/// 08/08 RED;",
"03414599999","2010-11-01T08:50:00","4","52.640028","-2.305578","82.9","COSFORD, UK","FM-15","EGWC ","V020","170,1,N,0031,1","00120,1,C,N","001000,1,N,1","+0090,1","+0080,1","99999,9","07,5,+00120,1,99,9",,,"07,99,1,99,9,99,9,99999,9,99,9,99,9","10149,1,99999,9","10,1",,,"MET058METAR EGWC 010850Z 17006KT 1000 BR BKN004 09/08 Q1015 AMB;",
"03414599999","2010-11-01T10:50:00","4","52.640028","-2.305578","82.9","COSFORD, UK","FM-15","EGWC ","V020","999,9,C,0000,1","00150,1,C,N","002000,1,N,1","+0090,1","+0080,1","99999,9","07,5,+00150,1,99,9","07,5,+00300,1,99,9",,"07,99,1,99,9,99,9,99999,9,99,9,99,9","10149,1,99999,9","10,1",,,"MET066METAR EGWC 011050Z 00000KT 2000 BR BKN005 BKN010 09/08 Q1015 YLO2;",
"03414599999","2010-11-01T11:50:00","4","52.640028","-2.305578","82.9","COSFORD, UK","FM-15","EGWC ","V020","190,1,N,0026,1","00150,1,C,N","002000,1,N,1","+0090,1","+0090,1","99999,9","04,5,+00090,1,99,9","07,5,+00150,1,99,9",,"07,99,1,99,9,99,9,99999,9,99,9,99,9","10149,1,99999,9","10,1",,,"MET066METAR EGWC 011150Z 19005KT 2000 BR SCT003 BKN005 09/09 Q1015 YLO2;",
"03414599999","2010-11-01T12:50:00","4","52.640028","-2.305578","82.9","COSFORD, UK","FM-15","EGWC ","V020","170,1,N,0026,1","00150,1,C,N","002000,1,N,1","+0090,1","+0080,1","99999,9","07,5,+00150,1,99,9",,,"07,99,1,99,9,99,9,99999,9,99,9,99,9","10149,1,99999,9","10,1",,,"MET059METAR EGWC 011250Z 17005KT 2000 BR BKN005 09/08 Q1015 YLO2;",
"03414599999","2010-11-01T13:50:00","4","52.640028","-2.305578","82.9","COSFORD, UK","FM-15","EGWC ","V020","180,1,N,0041,1","22000,1,9,N","005000,1,N,1","+0100,1","+0090,1","99999,9","02,5,+00180,1,99,9",,,"02,99,1,99,9,99,9,99999,9,99,9,99,9","10139,1,99999,9","10,1",,,"MET058METAR EGWC 011350Z 18008KT 5000 BR FEW006 10/09 Q1014 WHT;",
"03414599999","2010-11-01T14:50:00","4","52.640028","-2.305578","82.9","COSFORD, UK","FM-15","EGWC ","V020","180,1,N,0051,1","22000,1,9,N","011265,1,N,1","+0120,1","+0090,1","99999,9","02,5,+00300,1,99,9",,,"02,99,1,99,9,99,9,99999,9,99,9,99,9","10129,1,99999,9",,,,"MET055METAR EGWC 011450Z 18010KT 9999 FEW010 12/09 Q1013 BLU;",
"03414599999","2010-11-01T15:50:00","4","52.640028","-2.305578","82.9","COSFORD, UK","FM-15","EGWC ","V020","180,1,N,0041,1","99999,9,C,N","011265,1,N,1","+0120,1","+0080,1","99999,9","02,5,+00300,1,99,9","04,5,+01350,1,99,9",,"04,99,1,99,9,99,9,99999,9,99,9,99,9","10129,1,99999,9",,,,"MET062METAR EGWC 011550Z 18008KT 9999 FEW010 SCT045 12/08 Q1013 BLU;","P01 013503SCOCIG"
"03414599999","2010-11-02T08:50:00","4","52.640028","-2.305578","82.9","COSFORD, UK","FM-15","EGWC ","V020","200,1,N,0051,1","01500,1,C,N","011265,1,N,1","+0120,1","+0080,1","99999,9","04,5,+00900,1,99,9","07,5,+01500,1,99,9",,"07,99,1,99,9,99,9,99999,9,99,9,99,9","10071,1,99999,9",,,,"MET062METAR EGWC 020850Z 20010KT 9999 SCT030 BKN050 12/08 Q1007 BLU;",
"03414599999","2010-11-02T09:50:00","4","52.640028","-2.305578","82.9","COSFORD, UK","FM-15","EGWC ","V020","230,1,N,0041,1","01500,1,C,N","011265,1,N,1","+0120,1","+0090,1","99999,9","04,5,+00750,1,99,9","07,5,+01500,1,99,9",,"07,99,1,99,9,99,9,99999,9,99,9,99,9","10071,1,99999,9",,,,"MET062METAR EGWC 020950Z 23008KT 9999 SCT025 BKN050 12/09 Q1007 BLU;",
"03414599999","2010-11-02T10:50:00","4","52.640028","-2.305578","82.9","COSFORD, UK","FM-15","EGWC ","V020","230,1,N,0041,1","01500,1,C,N","011265,1,N,1","+0130,1","+0100,1","99999,9","04,5,+00840,1,99,9","07,5,+01500,1,99,9",,"07,99,1,99,9,99,9,99999,9,99,9,99,9","10071,1,99999,9",,,,"MET062METAR EGWC 021050Z 23008KT 9999 SCT028 BKN050 13/10 Q1007 BLU;",
"03414599999","2010-11-02T11:50:00","4","52.640028","-2.305578","82.9","COSFORD, UK","FM-15","EGWC ","V020","240,1,N,0051,1","00750,1,C,N","011265,1,N,1","+0140,1","+0090,1","99999,9","02,5,+00600,1,99,9","07,5,+00750,1,99,9",,"07,99,1,99,9,99,9,99999,9,99,9,99,9","10071,1,99999,9",,,,"MET062METAR EGWC 021150Z 24010KT 9999 FEW020 BKN025 14/09 Q1007 BLU;",
"03414599999","2010-11-02T12:50:00","4","52.640028","-2.305578","82.9","COSFORD, UK","FM-15","EGWC ","V020","220,1,N,0041,1","00750,1,C,N","011265,1,N,1","+0130,1","+0090,1","99999,9","07,5,+00750,1,99,9",,,"07,99,1,99,9,99,9,99999,9,99,9,99,9","10071,1,99999,9",,,,"MET055METAR EGWC 021250Z 22008KT 9999 BKN025 13/09 Q1007 BLU;",
"03414599999","2010-11-02T13:50:00","4","52.640028","-2.305578","82.9","COSFORD, UK","FM-15","EGWC ","V020","210,1,N,0062,1","00750,1,C,N","011265,1,N,1","+0140,1","+0090,1","99999,9","07,5,+00750,1,99,9",,,"07,99,1,99,9,99,9,99999,9,99,9,99,9","10061,1,99999,9",,,,"MET055METAR EGWC 021350Z 21012KT 9999 BKN025 14/09 Q1006 BLU;",
"03414599999","2010-11-02T14:50:00","4","52.640028","-2.305578","82.9","COSFORD, UK","FM-15","EGWC ","V020","200,1,N,0051,1","01500,1,C,N","011265,1,N,1","+0130,1","+0090,1","99999,9","02,5,+00750,1,99,9","07,5,+01500,1,99,9",,"07,99,1,99,9,99,9,99999,9,99,9,99,9","10061,1,99999,9",,,,"MET062METAR EGWC 021450Z 20010KT 9999 FEW025 BKN050 13/09 Q1006 BLU;",
"03414599999","2010-11-03T07:50:00","4","52.640028","-2.305578","82.9","COSFORD, UK","FM-15","EGWC ","V020","210,1,N,0041,1","22000,1,9,N","011265,1,N,1","+0100,1","+0070,1","99999,9","04,5,+01200,1,99,9",,,"04,99,1,99,9,99,9,99999,9,99,9,99,9","10091,1,99999,9",,,,"MET055METAR EGWC 030750Z 21008KT 9999 SCT040 10/07 Q1009 BLU;",
"03414599999","2010-11-03T08:50:00","4","52.640028","-2.305578","82.9","COSFORD, UK","FM-15","EGWC ","V020","200,1,N,0031,1","22000,1,9,N","011265,1,N,1","+0110,1","+0070,1","99999,9","02,5,+01200,1,99,9",,,"02,99,1,99,9,99,9,99999,9,99,9,99,9","10102,1,99999,9",,,,"MET055METAR EGWC 030850Z 20006KT 9999 FEW040 11/07 Q1010 BLU;",
"03414599999","2010-11-03T09:50:00","4","52.640028","-2.305578","82.9","COSFORD, UK","FM-15","EGWC ","V020","220,1,N,0031,1","22000,1,9,N","011265,1,N,1","+0110,1","+0080,1","99999,9","02,5,+01200,1,99,9",,,"02,99,1,99,9,99,9,99999,9,99,9,99,9","10102,1,99999,9",,,,"MET055METAR EGWC 030950Z 22006KT 9999 FEW040 11/08 Q1010 BLU;",
"03414599999","2010-11-03T10:50:00","4","52.640028","-2.305578","82.9","COSFORD, UK","FM-15","EGWC ","V020","210,1,N,0041,1","22000,1,9,N","011265,1,N,1","+0120,1","+0080,1","99999,9","02,5,+00750,1,99,9",,,"02,99,1,99,9,99,9,99999,9,99,9,99,9","10102,1,99999,9",,,,"MET055METAR EGWC 031050Z 21008KT 9999 FEW025 12/08 Q1010 BLU;",
"03414599999","2010-11-03T11:50:00","4","52.640028","-2.305578","82.9","COSFORD, UK","FM-15","EGWC ","V020","220,1,N,0031,1","00780,1,C,N","011265,1,N,1","+0130,1","+0080,1","99999,9","02,5,+00540,1,99,9","04,5,+00780,1,99,9","07,5,+01500,1,99,9","07,99,1,99,9,99,9,99999,9,99,9,99,9","10108,1,99999,9",,,,"MET069METAR EGWC 031150Z 22006KT 9999 FEW018 SCT026 BKN050 13/08 Q1011 BLU;",
"03414599999","2010-11-03T12:50:00","4","52.640028","-2.305578","82.9","COSFORD, UK","FM-15","EGWC ","V020","230,1,N,0041,1","00600,1,C,N","004000,1,N,1","+0130,1","+0080,1","99999,9","07,5,+00600,1,99,9",,,"07,99,1,99,9,99,9,99999,9,99,9,99,9","10108,1,99999,9","63,1",,,"MET058METAR EGWC 031250Z 23008KT 4000 RA BKN020 13/08 Q1011 GRN;",
"03414599999","2010-11-03T13:50:00","4","52.640028","-2.305578","82.9","COSFORD, UK","FM-15","EGWC ","V020","999,9,C,0000,1","00600,1,C,N","011265,1,N,1","+0110,1","+0100,1","99999,9","07,5,+00600,1,99,9",,,"07,99,1,99,9,99,9,99999,9,99,9,99,9","10102,1,99999,9","61,1",,,"MET066METAR EGWC 031350Z 00000KT 9999 5000SW -RA BKN020 11/10 Q1010 WHT;",
"03414599999","2010-11-06T09:50:00","4","52.640028","-2.305578","82.9","COSFORD, UK","FM-15","EGWC ","V020","999,9,C,0000,1","22000,1,9,N","011265,1,N,1","+0090,1","+0050,1","99999,9","02,5,+00750,1,99,9",,,"02,99,1,99,9,99,9,99999,9,99,9,99,9","10180,1,99999,9",,,,"MET055METAR EGWC 060950Z 00000KT 9999 FEW025 09/05 Q1018 BLU;",
"03414599999","2010-11-06T10:50:00","4","52.640028","-2.305578","82.9","COSFORD, UK","FM-15","EGWC ","V020","999,9,C,0000,1","22000,1,9,N","011265,1,N,1","+0100,1","+0050,1","99999,9","02,5,+00900,1,99,9",,,"02,99,1,99,9,99,9,99999,9,99,9,99,9","10180,1,99999,9",,,,"MET055METAR EGWC 061050Z 00000KT 9999 FEW030 10/05 Q1018 BLU;",
"03414599999","2010-11-06T11:50:00","4","52.640028","-2.305578","82.9","COSFORD, UK","FM-15","EGWC ","V020","300,1,N,0041,1","22000,1,9,N","011265,1,N,1","+0100,1","+0050,1","99999,9","04,5,+00900,1,99,9",,,"04,99,1,99,9,99,9,99999,9,99,9,99,9","10180,1,99999,9",,,,"MET055METAR EGWC 061150Z 30008KT 9999 SCT030 10/05 Q1018 BLU;",
"03414599999","2010-11-06T12:50:00","4","52.640028","-2.305578","82.9","COSFORD, UK","FM-15","EGWC ","V020","310,1,N,0031,1","22000,1,9,N","011265,1,N,1","+0100,1","+0070,1","99999,9","04,5,+00900,1,99,9",,,"04,99,1,99,9,99,9,99999,9,99,9,99,9","10169,1,99999,9",,,,"MET055METAR EGWC 061250Z 31006KT 9999 SCT030 10/07 Q1017 BLU;",
"03414599999","2010-11-07T08:50:00","4","52.640028","-2.305578","82.9","COSFORD, UK","FM-15","EGWC ","V020","999,9,C,0000,1","99999,9,C,N","004000,1,N,1","+0030,1","+0020,1","99999,9","02,5,+00600,1,99,9","04,5,+01200,1,99,9",,"04,99,1,99,9,99,9,99999,9,99,9,99,9","10119,1,99999,9","10,1",,,"MET065METAR EGWC 070850Z 00000KT 4000 BR FEW020 SCT040 03/02 Q1012 BLU;","P01 012003SCOCIG"
"03414599999","2010-11-07T09:50:00","4","52.640028","-2.305578","82.9","COSFORD, UK","FM-15","EGWC ","V020","320,1,N,0041,1","22000,1,9,N","004000,1,N,1","+0040,1","+0030,1","99999,9","04,5,+01200,1,99,9",,,"04,99,1,99,9,99,9,99999,9,99,9,99,9","10119,1,99999,9","10,1",,,"MET058METAR EGWC 070950Z 32008KT 4000 BR SCT040 04/03 Q1012 BLU;",
"03414599999","2010-11-07T10:50:00","4","52.640028","-2.305578","82.9","COSFORD, UK","FM-15","EGWC ","V020","030,1,N,0031,1","22000,1,9,N","008000,1,N,1","+0050,1","+0030,1","99999,9","04,5,+01200,1,99,9",,,"04,99,1,99,9,99,9,99999,9,99,9,99,9","10108,1,99999,9","05,1",,,"MET058METAR EGWC 071050Z 03006KT 8000 HZ SCT040 05/03 Q1011 BLU;",
"03414599999","2010-11-07T11:50:00","4","52.640028","-2.305578","82.9","COSFORD, UK","FM-15","EGWC ","V020","020,1,N,0031,1","00450,1,C,N","011265,1,N,1","+0060,1","+0040,1","99999,9","07,5,+00450,1,99,9",,,"07,99,1,99,9,99,9,99999,9,99,9,99,9","10102,1,99999,9",,,,"MET055METAR EGWC 071150Z 02006KT 9999 BKN015 06/04 Q1010 WHT;",
"03414599999","2010-11-07T12:50:00","4","52.640028","-2.305578","82.9","COSFORD, UK","FM-15","EGWC ","V020","999,9,C,0000,1","00510,1,C,N","011265,1,N,1","+0070,1","+0050,1","99999,9","07,5,+00510,1,99,9",,,"07,99,1,99,9,99,9,99999,9,99,9,99,9","10102,1,99999,9",,,,"MET055METAR EGWC 071250Z 00000KT 9999 BKN017 07/05 Q1010 WHT;",
"03414599999","2010-11-07T13:50:00","4","52.640028","-2.305578","82.9","COSFORD, UK","FM-15","EGWC ","V020","999,9,C,0000,1","00510,1,C,N","011265,1,N,1","+0070,1","+0040,1","99999,9","07,5,+00510,1,99,9",,,"07,99,1,99,9,99,9,99999,9,99,9,99,9","10081,1,99999,9",,,,"MET055METAR EGWC 071350Z 00000KT 9999 BKN017 07/04 Q1008 WHT;",
"03414599999","2010-11-07T14:50:00","4","52.640028","-2.305578","82.9","COSFORD, UK","FM-15","EGWC ","V020","999,9,C,0000,1","00510,1,C,N","011265,1,N,1","+0070,1","+0040,1","99999,9","07,5,+00510,1,99,9",,,"07,99,1,99,9,99,9,99999,9,99,9,99,9","10071,1,99999,9",,,,"MET055METAR EGWC 071450Z 00000KT 9999 BKN017 07/04 Q1007 WHT;",
"03414599999","2010-11-08T08:50:00","4","52.640028","-2.305578","82.9","COSFORD, UK","FM-15","EGWC ","V020","130,1,N,0087,1","00360,1,C,N","008000,1,N,1","+0050,1","+0040,1","99999,9","02,5,+00240,1,99,9","07,5,+00360,1,99,9",,"07,99,1,99,9,99,9,99999,9,99,9,99,9","09688,1,99999,9","61,1",,,"MET066METAR EGWC 080850Z 13017KT 8000 -RA FEW008 BKN012 05/04 Q0969 GRN;",
"03414599999","2010-11-08T09:50:00","4","52.640028","-2.305578","82.9","COSFORD, UK","FM-15","EGWC ","V020","130,1,N,0087,1","00360,1,C,N","008000,1,N,1","+0050,1","+0040,1","99999,9","02,5,+00240,1,99,9","07,5,+00360,1,99,9",,"07,99,1,99,9,99,9,99999,9,99,9,99,9","09688,1,99999,9","61,1",,,"MET066METAR EGWC 080950Z 13017KT 8000 -RA FEW008 BKN012 05/04 Q0969 GRN;",
"03414599999","2010-11-08T10:50:00","4","52.640028","-2.305578","82.9","COSFORD, UK","FM-15","EGWC ","V020","130,1,N,0062,1","00360,1,C,N","008000,1,N,1","+0050,1","+0040,1","99999,9","02,5,+00240,1,99,9","07,5,+00360,1,99,9",,"07,99,1,99,9,99,9,99999,9,99,9,99,9","09682,1,99999,9","61,1",,,"MET066METAR EGWC 081050Z 13012KT 8000 -RA FEW008 BKN012 05/04 Q0968 GRN;",
"03414599999","2010-11-08T11:50:00","4","52.640028","-2.305578","82.9","COSFORD, UK","FM-15","EGWC ","V020","100,1,N,0041,1","00300,1,C,N","007000,1,N,1","+0050,1","+0040,1","99999,9","02,5,+00240,1,99,9","08,5,+00300,1,99,9",,"08,99,1,99,9,99,9,99999,9,99,9,99,9","09682,1,99999,9","61,1",,,"MET066METAR EGWC 081150Z 10008KT 7000 -RA FEW008 OVC010 05/04 Q0968 GRN;",
"03414599999","2010-11-08T12:50:00","4","52.640028","-2.305578","82.9","COSFORD, UK","FM-15","EGWC ","V020","130,1,N,0051,1","00300,1,C,N","004500,1,N,1","+0050,1","+0040,1","99999,9","02,5,+00240,1,99,9","08,5,+00300,1,99,9",,"08,99,1,99,9,99,9,99999,9,99,9,99,9","09672,1,99999,9","63,1",,,"MET065METAR EGWC 081250Z 13010KT 4500 RA FEW008 OVC010 05/04 Q0967 GRN;",
"03414599999","2010-11-08T13:50:00","4","52.640028","-2.305578","82.9","COSFORD, UK","FM-15","EGWC ","V020","110,1,N,0051,1","00300,1,C,N","006000,1,N,1","+0050,1","+0040,1","99999,9","04,5,+00240,1,99,9","08,5,+00300,1,99,9",,"08,99,1,99,9,99,9,99999,9,99,9,99,9","09661,1,99999,9","63,1",,,"MET065METAR EGWC 081350Z 11010KT 6000 RA SCT008 OVC010 05/04 Q0966 GRN;",
"03414599999","2010-11-08T14:50:00","4","52.640028","-2.305578","82.9","COSFORD, UK","FM-15","EGWC ","V020","090,1,N,0051,1","00240,1,C,N","008000,1,N,1","+0040,1","+0040,1","99999,9","02,5,+00180,1,99,9","07,5,+00240,1,99,9",,"07,99,1,99,9,99,9,99999,9,99,9,99,9","09661,1,99999,9","61,1",,,"MET066METAR EGWC 081450Z 09010KT 8000 -RA FEW006 BKN008 04/04 Q0966 GRN;",
"03414599999","2010-11-09T07:50:00","4","52.640028","-2.305578","82.9","COSFORD, UK","FM-15","EGWC ","V020","060,1,N,0082,1","00360,1,C,N","011265,1,N,1","+0060,1","+0050,1","99999,9","07,5,+00360,1,99,9",,,"07,99,1,99,9,99,9,99999,9,99,9,99,9","09770,1,99999,9",,,,"MET055METAR EGWC 090750Z 06016KT 9999 BKN012 06/05 Q0977 GRN;",
"03414599999","2010-11-09T08:50:00","4","52.640028","-2.305578","82.9","COSFORD, UK","FM-15","EGWC ","V020","060,1,N,0093,1","00360,1,C,N","011265,1,N,1","+0070,1","+0040,1","99999,9","07,5,+00360,1,99,9",,,"07,99,1,99,9,99,9,99999,9,99,9,99,9","09790,1,99999,9",,,,"MET055METAR EGWC 090850Z 06018KT 9999 BKN012 07/04 Q0979 GRN;",
"03414599999","2010-11-09T09:50:00","4","52.640028","-2.305578","82.9","COSFORD, UK","FM-15","EGWC ","V020","060,1,N,0093,1","00420,1,C,N","008000,1,N,1","+0060,1","+0040,1","99999,9","07,5,+00420,1,99,9",,,"07,99,1,99,9,99,9,99999,9,99,9,99,9","09800,1,99999,9","61,1",,"0154,1","MET062METAR EGWC 090950Z 06018G30KT 8000 -RA BKN014 06/04 Q0980 GRN;",
"03414599999","2010-11-09T10:50:00","4","52.640028","-2.305578","82.9","COSFORD, UK","FM-15","EGWC ","V020","060,1,N,0103,1","00480,1,C,N","011265,1,N,1","+0080,1","+0040,1","99999,9","07,5,+00480,1,99,9",,,"07,99,1,99,9,99,9,99999,9,99,9,99,9","09810,1,99999,9",,,,"MET055METAR EGWC 091050Z 06020KT 9999 BKN016 08/04 Q0981 WHT;",
"03414599999","2010-11-09T11:50:00","4","52.640028","-2.305578","82.9","COSFORD, UK","FM-15","EGWC ","V020","060,1,N,0077,1","00600,1,C,N","011265,1,N,1","+0090,1","+0020,1","99999,9","07,5,+00600,1,99,9",,,"07,99,1,99,9,99,9,99999,9,99,9,99,9","09821,1,99999,9",,,,"MET055METAR EGWC 091150Z 06015KT 9999 BKN020 09/02 Q0982 WHT;",
"03414599999","2010-11-09T12:50:00","4","52.640028","-2.305578","82.9","COSFORD, UK","FM-15","EGWC ","V020","060,1,N,0077,1","00600,1,C,N","011265,1,N,1","+0080,1","+0030,1","99999,9","07,5,+00600,1,99,9",,,"07,99,1,99,9,99,9,99999,9,99,9,99,9","09831,1,99999,9",,,,"MET055METAR EGWC 091250Z 06015KT 9999 BKN020 08/03 Q0983 WHT;",
"03414599999","2010-11-09T13:50:00","4","52.640028","-2.305578","82.9","COSFORD, UK","FM-15","EGWC ","V020","050,1,N,0103,1","00540,1,C,N","011265,1,N,1","+0080,1","+0030,1","99999,9","07,5,+00540,1,99,9",,,"07,99,1,99,9,99,9,99999,9,99,9,99,9","09841,1,99999,9",,,,"MET055METAR EGWC 091350Z 05020KT 9999 BKN018 08/03 Q0984 WHT;",
"03414599999","2010-11-09T14:50:00","4","52.640028","-2.305578","82.9","COSFORD, UK","FM-15","EGWC ","V020","040,1,N,0103,1","00480,1,C,N","011265,1,N,1","+0070,1","+0040,1","99999,9","07,5,+00480,1,99,9",,,"07,99,1,99,9,99,9,99999,9,99,9,99,9","09851,1,99999,9","80,1",,"0154,1","MET064METAR EGWC 091450Z 04020G30KT 9999 -SHRA BKN016 07/04 Q0985 WHT;",
"03414599999","2010-11-09T15:50:00","4","52.640028","-2.305578","82.9","COSFORD, UK","FM-15","EGWC ","V020","040,1,N,0077,1","00600,1,C,N","008000,1,N,1","+0060,1","+0030,1","99999,9","07,5,+00600,1,99,9",,,"07,99,1,99,9,99,9,99999,9,99,9,99,9","09861,1,99999,9","80,1",,,"MET061METAR EGWC 091550Z 04015KT 8000 -SHRA BKN020 06/03 Q0986 WHT;",
"03414599999","2010-11-10T08:50:00","4","52.640028","-2.305578","82.9","COSFORD, UK","FM-15","EGWC ","V020","330,1,N,0041,1","22000,1,9,N","011265,1,N,1","+0020,1","-0020,1","99999,9","04,5,+01500,1,99,9",,,"04,99,1,99,9,99,9,99999,9,99,9,99,9","09990,1,99999,9",,,,"MET056METAR EGWC 100850Z 33008KT 9999 SCT050 02/M02 Q0999 BLU;",
"03414599999","2010-11-10T09:50:00","4","52.640028","-2.305578","82.9","COSFORD, UK","FM-15","EGWC ","V020","300,1,N,0041,1","99999,9,9,Y","009900,1,N,1","+0040,1","-0010,1","99999,9",,,,,"10000,1,99999,9",,,,"MET050METAR EGWC 100950Z 30008KT CAVOK 04/M01 Q1000 BLU;",
"03414599999","2010-11-10T10:50:00","4","52.640028","-2.305578","82.9","COSFORD, UK","FM-15","EGWC ","V020","340,1,N,0041,1","99999,9,9,Y","009900,1,N,1","+0050,1","+0020,1","99999,9",,,,,"10000,1,99999,9",,,,"MET049METAR EGWC 101050Z 34008KT CAVOK 05/02 Q1000 BLU;",
"03414599999","2010-11-10T11:50:00","4","52.640028","-2.305578","82.9","COSFORD, UK","FM-15","EGWC ","V020","300,1,N,0051,1","99999,9,9,Y","009900,1,N,1","+0050,1","-0020,1","99999,9",,,,,"10000,1,99999,9",,,,"MET050METAR EGWC 101150Z 30010KT CAVOK 05/M02 Q1000 BLU;",
"03414599999","2010-11-10T12:50:00","4","52.640028","-2.305578","82.9","COSFORD, UK","FM-15","EGWC ","V020","300,1,N,0041,1","22000,1,9,N","011265,1,N,1","+0070,1","-0010,1","99999,9","02,5,+00900,1,99,9",,,"02,99,1,99,9,99,9,99999,9,99,9,99,9","10010,1,99999,9",,,,"MET056METAR EGWC 101250Z 30008KT 9999 FEW030 07/M01 Q1001 BLU;",
"03414599999","2010-11-10T13:50:00","4","52.640028","-2.305578","82.9","COSFORD, UK","FM-15","EGWC ","V020","300,1,N,0041,1","22000,1,9,N","011265,1,N,1","+0070,1","-0020,1","99999,9","04,5,+00900,1,99,9",,,"04,99,1,99,9,99,9,99999,9,99,9,99,9","10010,1,99999,9",,,,"MET056METAR EGWC 101350Z 30008KT 9999 SCT030 07/M02 Q1001 BLU;",
"03414599999","2010-11-10T14:50:00","4","52.640028","-2.305578","82.9","COSFORD, UK","FM-15","EGWC ","V020","240,1,N,0041,1","22000,1,9,N","011265,1,N,1","+0070,1","-0010,1","99999,9","04,5,+01050,1,99,9",,,"04,99,1,99,9,99,9,99999,9,99,9,99,9","10020,1,99999,9",,,,"MET056METAR EGWC 101450Z 24008KT 9999 SCT035 07/M01 Q1002 BLU;",
"03414599999","2010-11-10T15:50:00","4","52.640028","-2.305578","82.9","COSFORD, UK","FM-15","EGWC ","V020","280,1,N,0026,1","01050,1,C,N","011265,1,N,1","+0070,1","-0020,1","99999,9","07,5,+01050,1,99,9",,,"07,99,1,99,9,99,9,99999,9,99,9,99,9","10020,1,99999,9",,,,"MET056METAR EGWC 101550Z 28005KT 9999 BKN035 07/M02 Q1002 BLU;",
"03414599999","2010-11-13T08:50:00","4","52.640028","-2.305578","82.9","COSFORD, UK","FM-15","EGWC ","V020","180,1,N,0036,1","22000,1,9,N","011265,1,N,1","+0050,1","+0030,1","99999,9","02,5,+00600,1,99,9",,,"02,99,1,99,9,99,9,99999,9,99,9,99,9","09929,1,99999,9",,,,"MET055METAR EGWC 130850Z 18007KT 9999 FEW020 05/03 Q0993 BLU;",
"03414599999","2010-11-13T09:50:00","4","52.640028","-2.305578","82.9","COSFORD, UK","FM-15","EGWC ","V020","180,1,N,0036,1","22000,1,9,N","011265,1,N,1","+0080,1","+0050,1","99999,9","02,5,+00600,1,99,9",,,"02,99,1,99,9,99,9,99999,9,99,9,99,9","09939,1,99999,9",,,,"MET055METAR EGWC 130950Z 18007KT 9999 FEW020 08/05 Q0994 BLU;",
"03414599999","2010-11-13T10:50:00","4","52.640028","-2.305578","82.9","COSFORD, UK","FM-15","EGWC ","V020","210,1,N,0051,1","99999,9,C,N","011265,1,N,1","+0090,1","+0050,1","99999,9","02,5,+00600,1,99,9","04,5,+00750,1,99,9",,"04,99,1,99,9,99,9,99999,9,99,9,99,9","09939,1,99999,9",,,,"MET062METAR EGWC 131050Z 21010KT 9999 FEW020 SCT025 09/05 Q0994 BLU;","P01 007503SCOCIG"
"03414599999","2010-11-13T11:50:00","4","52.640028","-2.305578","82.9","COSFORD, UK","FM-15","EGWC ","V020","210,1,N,0051,1","99999,9,C,N","011265,1,N,1","+0100,1","+0050,1","99999,9","02,5,+00600,1,99,9","04,5,+00900,1,99,9",,"04,99,1,99,9,99,9,99999,9,99,9,99,9","09939,1,99999,9",,,,"MET062METAR EGWC 131150Z 21010KT 9999 FEW020 SCT030 10/05 Q0994 BLU;","P01 009003SCOCIG"
"03414599999","2010-11-13T12:50:00","4","52.640028","-2.305578","82.9","COSFORD, UK","FM-15","EGWC ","V020","230,1,N,0062,1","22000,1,9,N","011265,1,N,1","+0110,1","+0040,1","99999,9","02,5,+00750,1,99,9",,,"02,99,1,99,9,99,9,99999,9,99,9,99,9","09919,1,99999,9",,,,"MET055METAR EGWC 131250Z 23012KT 9999 FEW025 11/04 Q0992 BLU;",
"03414599999","2010-11-13T13:50:00","4","52.640028","-2.305578","82.9","COSFORD, UK","FM-15","EGWC ","V020","230,1,N,0051,1","22000,1,9,N","011265,1,N,1","+0100,1","+0030,1","99999,9","02,5,+00900,1,99,9",,,"02,99,1,99,9,99,9,99999,9,99,9,99,9","09919,1,99999,9",,,,"MET055METAR EGWC 131350Z 23010KT 9999 FEW030 10/03 Q0992 BLU;",
"03414599999","2010-11-13T14:50:00","4","52.640028","-2.305578","82.9","COSFORD, UK","FM-15","EGWC ","V020","230,1,N,0051,1","22000,1,9,N","011265,1,N,1","+0110,1","+0030,1","99999,9","02,5,+01050,1,99,9",,,"02,99,1,99,9,99,9,99999,9,99,9,99,9","09909,1,99999,9",,,,"MET055METAR EGWC 131450Z 23010KT 9999 FEW035 11/03 Q0991 BLU;",
"03414599999","2010-11-13T15:50:00","4","52.640028","-2.305578","82.9","COSFORD, UK","FM-15","EGWC ","V020","999,9,C,0000,1","99999,9,9,Y","009900,1,N,1","+0100,1","+0030,1","99999,9",,,,,"09909,1,99999,9",,,,"MET049METAR EGWC 131550Z 00000KT CAVOK 10/03 Q0991 BLU;",
"03414599999","2010-11-14T10:50:00","4","52.640028","-2.305578","82.9","COSFORD, UK","FM-15","EGWC ","V020","999,9,C,0000,1","01500,1,C,N","011265,1,N,1","+0040,1","+0030,1","99999,9","02,5,+00450,1,99,9","08,5,+01500,1,99,9",,"08,99,1,99,9,99,9,99999,9,99,9,99,9","09929,1,99999,9",,,,"MET062METAR EGWC 141050Z 00000KT 9999 FEW015 OVC050 04/03 Q0993 BLU;",
"03414599999","2010-11-14T11:50:00","4","52.640028","-2.305578","82.9","COSFORD, UK","FM-15","EGWC ","V020","999,9,C,0000,1","01500,1,C,N","011265,1,N,1","+0050,1","+0040,1","99999,9","02,5,+00450,1,99,9","08,5,+01500,1,99,9",,"08,99,1,99,9,99,9,99999,9,99,9,99,9","09939,1,99999,9",,,,"MET062METAR EGWC 141150Z 00000KT 9999 FEW015 OVC050 05/04 Q0994 BLU;",
"03414599999","2010-11-14T12:50:00","4","52.640028","-2.305578","82.9","COSFORD, UK","FM-15","EGWC ","V020","999,9,C,0000,1","01500,1,C,N","011265,1,N,1","+0060,1","+0050,1","99999,9","02,5,+00450,1,99,9","08,5,+01500,1,99,9",,"08,99,1,99,9,99,9,99999,9,99,9,99,9","09939,1,99999,9",,,,"MET062METAR EGWC 141250Z 00000KT 9999 FEW015 OVC050 06/05 Q0994 BLU;",
"03414599999","2010-11-14T13:50:00","4","52.640028","-2.305578","82.9","COSFORD, UK","FM-15","EGWC ","V020","999,9,C,0000,1","01500,1,C,N","011265,1,N,1","+0070,1","+0040,1","99999,9","02,5,+00450,1,99,9","08,5,+01500,1,99,9",,"08,99,1,99,9,99,9,99999,9,99,9,99,9","09939,1,99999,9",,,,"MET062METAR EGWC 141350Z 00000KT 9999 FEW015 OVC050 07/04 Q0994 BLU;",
"03414599999","2010-11-14T14:50:00","4","52.640028","-2.305578","82.9","COSFORD, UK","FM-15","EGWC ","V020","999,9,C,0000,1","01500,1,C,N","011265,1,N,1","+0070,1","+0040,1","99999,9","02,5,+01050,1,99,9","07,5,+01500,1,99,9",,"07,99,1,99,9,99,9,99999,9,99,9,99,9","09949,1,99999,9",,,,"MET062METAR EGWC 141450Z 00000KT 9999 FEW035 BKN050 07/04 Q0995 BLU;",
"03414599999","2010-11-15T07:50:00","4","52.640028","-2.305578","82.9","COSFORD, UK","FM-15","EGWC ","V020","999,9,C,0000,1","22000,1,9,N","008000,1,N,1","-0030,1","-0030,1","99999,9","02,5,+01200,1,99,9",,,"02,99,1,99,9,99,9,99999,9,99,9,99,9","10108,1,99999,9","10,1",,,"MET060METAR EGWC 150750Z 00000KT 8000 BR FEW040 M03/M03 Q1011 BLU;",
"03414599999","2010-11-15T08:50:00","4","52.640028","-2.305578","82.9","COSFORD, UK","FM-15","EGWC ","V020","999,9,C,0000,1","99999,9,9,Y","009900,1,N,1","-0010,1","-0020,1","99999,9",,,,,"10119,1,99999,9",,,,"MET051METAR EGWC 150850Z 00000KT CAVOK M01/M02 Q1012 BLU;",
"03414599999","2010-11-15T09:50:00","4","52.640028","-2.305578","82.9","COSFORD, UK","FM-15","EGWC ","V020","999,9,C,0000,1","99999,9,9,Y","009900,1,N,1","+0010,1","-0010,1","99999,9",,,,,"10129,1,99999,9",,,,"MET050METAR EGWC 150950Z 00000KT CAVOK 01/M01 Q1013 BLU;",
"03414599999","2010-11-15T10:50:00","4","52.640028","-2.305578","82.9","COSFORD, UK","FM-15","EGWC ","V020","999,9,C,0000,1","99999,9,9,Y","009900,1,N,1","+0030,1","+0020,1","99999,9",,,,,"10139,1,99999,9",,,,"MET049METAR EGWC 151050Z 00000KT CAVOK 03/02 Q1014 BLU;",
"03414599999","2010-11-15T11:50:00","4","52.640028","-2.305578","82.9","COSFORD, UK","FM-15","EGWC ","V020","999,9,C,0000,1","99999,9,9,Y","009900,1,N,1","+0050,1","+0030,1","99999,9",,,,,"10139,1,99999,9",,,,"MET049METAR EGWC 151150Z 00000KT CAVOK 05/03 Q1014 BLU;",
"03414599999","2010-11-15T12:50:00","4","52.640028","-2.305578","82.9","COSFORD, UK","FM-15","EGWC ","V020","999,9,C,0000,1","99999,9,9,Y","009900,1,N,1","+0070,1","+0040,1","99999,9",,,,,"10139,1,99999,9",,,,"MET049METAR EGWC 151250Z 00000KT CAVOK 07/04 Q1014 BLU;",
"03414599999","2010-11-15T13:50:00","4","52.640028","-2.305578","82.9","COSFORD, UK","FM-15","EGWC ","V020","190,1,N,0041,1","22000,1,9,N","011265,1,N,1","+0090,1","+0030,1","99999,9","02,5,+00750,1,99,9",,,"02,99,1,99,9,99,9,99999,9,99,9,99,9","10139,1,99999,9",,,,"MET055METAR EGWC 151350Z 19008KT 9999 FEW025 09/03 Q1014 BLU;",
"03414599999","2010-11-15T15:50:00","4","52.640028","-2.305578","82.9","COSFORD, UK","FM-15","EGWC ","V020","190,1,N,0041,1","99999,9,9,Y","009900,1,N,1","+0080,1","+0030,1","99999,9",,,,,"10149,1,99999,9",,,,"MET049METAR EGWC 151550Z 19008KT CAVOK 08/03 Q1015 BLU;",
"03414599999","2010-11-16T07:50:00","4","52.640028","-2.305578","82.9","COSFORD, UK","FM-15","EGWC ","V020","999,9,C,0000,1","00015,1,C,N","000100,1,N,1","-0040,1","-0050,1","99999,9","09,1,+00015,1,99,9",,,"09,99,1,99,9,99,9,00025,1,99,9,99,9","10210,1,99999,9","49,1",,,"MET061METAR EGWC 160750Z 00000KT 0100 FZFG VV/// M04/M05 Q1021 RED;",
"03414599999","2010-11-16T08:50:00","4","52.640028","-2.305578","82.9","COSFORD, UK","FM-15","EGWC ","V020","999,9,C,0000,1","00015,1,C,N","000100,1,N,1","-0020,1","-0020,1","99999,9","09,1,+00015,1,99,9",,,"09,99,1,99,9,99,9,00025,1,99,9,99,9","10210,1,99999,9","49,1",,,"MET061METAR EGWC 160850Z 00000KT 0100 FZFG VV/// M02/M02 Q1021 RED;",
"03414599999","2010-11-16T09:50:00","4","52.640028","-2.305578","82.9","COSFORD, UK","FM-15","EGWC ","V020","999,9,C,0000,1","00015,1,C,N","000200,1,N,1","-0010,1","-0020,1","99999,9","09,1,+00015,1,99,9",,,"09,99,1,99,9,99,9,00025,1,99,9,99,9","10210,1,99999,9","49,1",,,"MET061METAR EGWC 160950Z 00000KT 0200 FZFG VV/// M01/M02 Q1021 RED;",
"03414599999","2010-11-16T10:50:00","4","52.640028","-2.305578","82.9","COSFORD, UK","FM-15","EGWC ","V020","999,9,C,0000,1","00015,1,C,N","000100,1,N,1","+0010,1","+0000,1","99999,9","09,1,+00015,1,99,9",,,"09,99,1,99,9,99,9,00025,1,99,9,99,9","10210,1,99999,9","49,1",,,"MET059METAR EGWC 161050Z 00000KT 0100 FZFG VV/// 01/00 Q1021 RED;",
"03414599999","2010-11-16T11:50:00","4","52.640028","-2.305578","82.9","COSFORD, UK","FM-15","EGWC ","V020","999,9,C,0000,1","22000,1,9,N","000200,1,N,1","+0020,1","+0020,1","99999,9",,,,"00,99,1,99,9,99,9,99999,9,99,9,99,9","10210,1,99999,9","44,1",,,"MET055METAR EGWC 161150Z 00000KT 0200 FG SKC 02/02 Q1021 RED;","Q01    003SCCGA1"
"03414599999","2010-11-16T12:30:00","4","52.640028","-2.305578","82.9","COSFORD, UK","FM-15","EGWC ","V020","999,9,C,0000,1","22000,1,9,N","005000,1,N,1","+0020,1","+0020,1","99999,9","02,5,+00750,1,99,9",,,"02,99,1,99,9,99,9,99999,9,99,9,99,9","10210,1,99999,9","10,1",,,"MET058METAR EGWC 161230Z 00000KT 5000 BR FEW025 02/02 Q1021 WHT;",
"03414599999","2010-11-16T12:50:00","4","52.640028","-2.305578","82.9","COSFORD, UK","FM-15","EGWC ","V020","170,1,N,0036,1","22000,1,9,N","011265,1,N,1","+0060,1","+0050,1","99999,9","02,5,+00750,1,99,9",,,"02,99,1,99,9,99,9,99999,9,99,9,99,9","10200,1,99999,9",,,,"MET055METAR EGWC 161250Z 17007KT 9999 FEW025 06/05 Q1020 BLU;",
"03414599999","2010-11-16T13:50:00","4","52.640028","-2.305578","82.9","COSFORD, UK","FM-15","EGWC ","V020","180,1,N,0051,1","22000,1,9,N","011265,1,N,1","+0080,1","+0050,1","99999,9","02,5,+00750,1,99,9",,,"02,99,1,99,9,99,9,99999,9,99,9,99,9","10190,1,99999,9",,,,"MET055METAR EGWC 161350Z 18010KT 9999 FEW025 08/05 Q1019 BLU;",
"03414599999","2010-11-16T14:50:00","4","52.640028","-2.305578","82.9","COSFORD, UK","FM-15","EGWC ","V020","180,1,N,0031,1","99999,9,9,Y","009900,1,N,1","+0070,1","+0040,1","99999,9",,,,,"10190,1,99999,9",,,,"MET049METAR EGWC 161450Z 18006KT CAVOK 07/04 Q1019 BLU;",
"03414599999","2010-11-16T15:50:00","4","52.640028","-2.305578","82.9","COSFORD, UK","FM-15","EGWC ","V020","160,1,N,0026,1","22000,1,9,N","011265,1,N,1","+0060,1","+0030,1","99999,9","02,5,+00900,1,99,9",,,"02,99,1,99,9,99,9,99999,9,99,9,99,9","10169,1,99999,9",,,,"MET055METAR EGWC 161550Z 16005KT 9999 FEW030 06/03 Q1017 BLU;",
"03414599999","2010-11-17T07:50:00","4","52.640028","-2.305578","82.9","COSFORD, UK","FM-15","EGWC ","V020","150,1,N,0093,1","00600,1,C,N","011265,1,N,1","+0070,1","+0050,1","99999,9","04,5,+00360,1,99,9","07,5,+00600,1,99,9",,"07,99,1,99,9,99,9,99999,9,99,9,99,9","10041,1,99999,9","63,1",,"0144,1","MET068METAR EGWC 170750Z 15018G28KT 9999 RA SCT012 BKN020 07/05 Q1004 GRN;",
"03414599999","2010-11-17T08:50:00","4","52.640028","-2.305578","82.9","COSFORD, UK","FM-15","EGWC ","V020","140,1,N,0103,1","00600,1,C,N","011265,1,N,1","+0070,1","+0040,1","99999,9","04,5,+00360,1,99,9","07,5,+00600,1,99,9",,"07,99,1,99,9,99,9,99999,9,99,9,99,9","10041,1,99999,9","63,1",,,"MET065METAR EGWC 170850Z 14020KT 9999 RA SCT012 BKN020 07/04 Q1004 GRN;",
"03414599999","2010-11-17T10:50:00","4","52.640028","-2.305578","82.9","COSFORD, UK","FM-15","EGWC ","V020","130,1,N,0103,1","00360,1,C,N","011265,1,N,1","+0070,1","+0040,1","99999,9","07,5,+00360,1,99,9",,,"07,99,1,99,9,99,9,99999,9,99,9,99,9","10041,1,99999,9","61,1",,,"MET059METAR EGWC 171050Z 13020KT 9999 -RA BKN012 07/04 Q1004 GRN;",
"03414599999","2010-11-17T12:50:00","4","52.640028","-2.305578","82.9","COSFORD, UK","FM-15","EGWC ","V020","120,1,N,0103,1","00450,1,C,N","006000,1,N,1","+0070,1","+0040,1","99999,9","02,5,+00300,1,99,9","07,5,+00450,1,99,9",,"07,99,1,99,9,99,9,99999,9,99,9,99,9","10020,1,99999,9","63,1",,,"MET065METAR EGWC 171250Z 12020KT 6000 RA FEW010 BKN015 07/04 Q1002 WHT;",
"03414599999","2010-11-21T08:50:00","4","52.640028","-2.305578","82.9","COSFORD, UK","FM-15","EGWC ","V020","340,1,N,0041,1","00600,1,C,N","011265,1,N,1","+0040,1","+0030,1","99999,9","02,5,+00420,1,99,9","07,5,+00600,1,99,9",,"07,99,1,99,9,99,9,99999,9,99,9,99,9","10149,1,99999,9",,,,"MET062METAR EGWC 210850Z 34008KT 9999 FEW014 BKN020 04/03 Q1015 WHT;",
"03414599999","2010-11-21T09:50:00","4","52.640028","-2.305578","82.9","COSFORD, UK","FM-15","EGWC ","V020","340,1,N,0026,1","22000,1,9,N","011265,1,N,1","+0040,1","+0030,1","99999,9","02,5,+00420,1,99,9",,,"02,99,1,99,9,99,9,99999,9,99,9,99,9","10149,1,99999,9",,,,"MET055METAR EGWC 210950Z 34005KT 9999 FEW014 04/03 Q1015 BLU;",
"03414599999","2010-11-21T10:50:00","4","52.640028","-2.305578","82.9","COSFORD, UK","FM-15","EGWC ","V020","020,1,N,0041,1","00600,1,C,N","011265,1,N,1","+0050,1","+0030,1","99999,9","02,5,+00420,1,99,9","07,5,+00600,1,99,9",,"07,99,1,99,9,99,9,99999,9,99,9,99,9","10149,1,99999,9",,,,"MET062METAR EGWC 211050Z 02008KT 9999 FEW014 BKN020 05/03 Q1015 BLU;",
"03414599999","2010-11-21T11:50:00","4","52.640028","-2.305578","82.9","COSFORD, UK","FM-15","EGWC ","V020","030,1,N,0041,1","00540,1,C,N","011265,1,N,1","+0060,1","+0020,1","99999,9","07,5,+00540,1,99,9",,,"07,99,1,99,9,99,9,99999,9,99,9,99,9","10149,1,99999,9",,,,"MET055METAR EGWC 211150Z 03008KT 9999 BKN018 06/02 Q1015 BLU;",
"03414599999","2010-11-21T12:50:00","4","52.640028","-2.305578","82.9","COSFORD, UK","FM-15","EGWC ","V020","360,1,N,0041,1","00540,1,C,N","011265,1,N,1","+0060,1","+0020,1","99999,9","07,5,+00540,1,99,9",,,"07,99,1,99,9,99,9,99999,9,99,9,99,9","10139,1,99999,9",,,,"MET055METAR EGWC 211250Z 36008KT 9999 BKN018 06/02 Q1014 WHT;",
"03414599999","2010-11-21T13:50:00","4","52.640028","-2.305578","82.9","COSFORD, UK","FM-15","EGWC ","V020","360,1,N,0041,1","00540,1,C,N","011265,1,N,1","+0060,1","+0020,1","99999,9","07,5,+00540,1,99,9",,,"07,99,1,99,9,99,9,99999,9,99,9,99,9","10139,1,99999,9","61,1",,,"MET059METAR EGWC 211350Z 36008KT 9999 -RA BKN018 06/02 Q1014 WHT;",
"03414599999","2010-11-22T08:50:00","4","52.640028","-2.305578","82.9","COSFORD, UK","FM-15","EGWC ","V020","360,1,N,0026,1","03000,1,C,N","008000,1,N,1","+0040,1","+0030,1","99999,9","02,5,+00660,1,99,9","07,5,+03000,1,99,9",,"07,99,1,99,9,99,9,99999,9,99,9,99,9","10119,1,99999,9","05,1",,,"MET065METAR EGWC 220850Z 36005KT 8000 HZ FEW022 BKN100 04/03 Q1012 BLU;",
"03414599999","2010-11-22T09:50:00","4","52.640028","-2.305578","82.9","COSFORD, UK","FM-15","EGWC ","V020","320,1,N,0036,1","02400,1,C,N","011265,1,N,1","+0040,1","+0030,1","99999,9","02,5,+01200,1,99,9","07,5,+02400,1,99,9",,"07,99,1,99,9,99,9,99999,9,99,9,99,9","10119,1,99999,9",,,,"MET062METAR EGWC 220950Z 32007KT 9999 FEW040 BKN080 04/03 Q1012 BLU;",
"03414599999","2010-11-22T10:50:00","4","52.640028","-2.305578","82.9","COSFORD, UK","FM-15","EGWC ","V020","330,1,N,0026,1","01800,1,C,N","011265,1,N,1","+0050,1","+0050,1","99999,9","02,5,+01200,1,99,9","07,5,+01800,1,99,9",,"07,99,1,99,9,99,9,99999,9,99,9,99,9","10119,1,99999,9",,,,"MET062METAR EGWC 221050Z 33005KT 9999 FEW040 BKN060 05/05 Q1012 BLU;",
"03414599999","2010-11-22T11:50:00","4","52.640028","-2.305578","82.9","COSFORD, UK","FM-15","EGWC ","V020","340,1,N,0026,1","01500,1,C,N","011265,1,N,1","+0060,1","+0040,1","99999,9","02,5,+00900,1,99,9","07,5,+01500,1,99,9",,"07,99,1,99,9,99,9,99999,9,99,9,99,9","10119,1,99999,9",,,,"MET062METAR EGWC 221150Z 34005KT 9999 FEW030 BKN050 06/04 Q1012 BLU;",
"03414599999","2010-11-22T12:50:00","4","52.640028","-2.305578","82.9","COSFORD, UK","FM-15","EGWC ","V020","330,1,N,0026,1","01500,1,C,N","011265,1,N,1","+0060,1","+0040,1","99999,9","02,5,+00900,1,99,9","07,5,+01500,1,99,9",,"07,99,1,99,9,99,9,99999,9,99,9,99,9","10119,1,99999,9",,,,"MET062METAR EGWC 221250Z 33005KT 9999 FEW030 BKN050 06/04 Q1012 BLU;",
"03414599999","2010-11-22T13:50:00","4","52.640028","-2.305578","82.9","COSFORD, UK","FM-15","EGWC ","V020","330,1,N,0026,1","01200,1,C,N","011265,1,N,1","+0070,1","+0050,1","99999,9","04,5,+00540,1,99,9","07,5,+01200,1,99,9",,"07,99,1,99,9,99,9,99999,9,99,9,99,9","10119,1,99999,9",,,,"MET062METAR EGWC 221350Z 33005KT 9999 SCT018 BKN040 07/05 Q1012 WHT;",
"03414599999","2010-11-22T14:50:00","4","52.640028","-2.305578","82.9","COSFORD, UK","FM-15","EGWC ","V020","350,1,N,0026,1","01200,1,C,N","011265,1,N,1","+0070,1","+0040,1","99999,9","02,5,+00540,1,99,9","07,5,+01200,1,99,9",,"07,99,1,99,9,99,9,99999,9,99,9,99,9","10119,1,99999,9",,,,"MET062METAR EGWC 221450Z 35005KT 9999 FEW018 BKN040 07/04 Q1012 BLU;",
"03414599999","2010-11-22T15:50:00","4","52.640028","-2.305578","82.9","COSFORD, UK","FM-15","EGWC ","V020","350,1,N,0026,1","01050,1,C,N","011265,1,N,1","+0070,1","+0040,1","99999,9","02,5,+00450,1,99,9","07,5,+01050,1,99,9",,"07,99,1,99,9,99,9,99999,9,99,9,99,9","10119,1,99999,9","61,1",,,"MET066METAR EGWC 221550Z 35005KT 9999 -RA FEW015 BKN035 07/04 Q1012 BLU;",
"03414599999","2010-11-23T07:50:00","4","52.640028","-2.305578","82.9","COSFORD, UK","FM-15","EGWC ","V020","310,1,N,0026,1","02400,1,C,N","006000,1,N,1","+0050,1","+0030,1","99999,9","02,5,+00900,1,99,9","07,5,+02400,1,99,9",,"07,99,1,99,9,99,9,99999,9,99,9,99,9","10129,1,99999,9","05,1",,,"MET065METAR EGWC 230750Z 31005KT 6000 HZ FEW030 BKN080 05/03 Q1013 WHT;",
"03414599999","2010-11-23T08:50:00","4","52.640028","-2.305578","82.9","COSFORD, UK","FM-15","EGWC ","V020","300,1,N,0026,1","99999,9,C,N","011265,1,N,1","+0040,1","+0030,1","99999,9","02,5,+00900,1,99,9","04,5,+02400,1,99,9",,"04,99,1,99,9,99,9,99999,9,99,9,99,9","10139,1,99999,9",,,,"MET062METAR EGWC 230850Z 30005KT 9999 FEW030 SCT080 04/03 Q1014 BLU;","P01 024003SCOCIG"
"03414599999","2010-11-23T09:50:00","4","52.640028","-2.305578","82.9","COSFORD, UK","FM-15","EGWC ","V020","300,1,N,0026,1","03600,1,C,N","011265,1,N,1","+0050,1","+0030,1","99999,9","02,5,+00900,1,99,9","07,5,+03600,1,99,9",,"07,99,1,99,9,99,9,99999,9,99,9,99,9","10139,1,99999,9",,,,"MET062METAR EGWC 230950Z 30005KT 9999 FEW030 BKN120 05/03 Q1014 BLU;",
"03414599999","2010-11-23T10:50:00","4","52.640028","-2.305578","82.9","COSFORD, UK","FM-15","EGWC ","V020","320,1,N,0041,1","03600,1,C,N","011265,1,N,1","+0050,1","+9999,9","99999,9","02,5,+01050,1,99,9","07,5,+03600,1,99,9",,"07,99,1,99,9,99,9,99999,9,99,9,99,9","10139,1,99999,9",,,,"MET062METAR EGWC 231050Z 32008KT 9999 FEW035 BKN120 05/// Q1014 BLU;",
"03414599999","2010-11-23T11:50:00","4","52.640028","-2.305578","82.9","COSFORD, UK","FM-15","EGWC ","V020","320,1,N,0031,1","99999,9,C,N","011265,1,N,1","+0060,1","+0040,1","99999,9","02,5,+00450,1,99,9","04,5,+03000,1,99,9",,"04,99,1,99,9,99,9,99999,9,99,9,99,9","10139,1,99999,9",,,,"MET062METAR EGWC 231150Z 32006KT 9999 FEW015 SCT100 06/04 Q1014 BLU;","P01 030003SCOCIG"
"03414599999","2010-11-23T12:50:00","4","52.640028","-2.305578","82.9","COSFORD, UK","FM-15","EGWC ","V020","300,1,N,0062,1","22000,1,9,N","011265,1,N,1","+0070,1","+0040,1","99999,9","02,5,+00450,1,99,9",,,"02,99,1,99,9,99,9,99999,9,99,9,99,9","10129,1,99999,9",,,,"MET055METAR EGWC 231250Z 30012KT 9999 FEW015 07/04 Q1013 BLU;",
"03414599999","2010-11-23T13:50:00","4","52.640028","-2.305578","82.9","COSFORD, UK","FM-15","EGWC ","V020","310,1,N,0041,1","22000,1,9,N","011265,1,N,1","+0070,1","+0020,1","99999,9","02,5,+00600,1,99,9",,,"02,99,1,99,9,99,9,99999,9,99,9,99,9","10129,1,99999,9",,,,"MET055METAR EGWC 231350Z 31008KT 9999 FEW020 07/02 Q1013 BLU;",
"03414599999","2010-11-23T14:50:00","4","52.640028","-2.305578","82.9","COSFORD, UK","FM-15","EGWC ","V020","300,1,N,0051,1","22000,1,9,N","011265,1,N,1","+0070,1","+0030,1","99999,9","02,5,+00900,1,99,9",,,"02,99,1,99,9,99,9,99999,9,99,9,99,9","10129,1,99999,9",,,,"MET055METAR EGWC 231450Z 30010KT 9999 FEW030 07/03 Q1013 BLU;",
"03414599999","2010-11-24T07:50:00","4","52.640028","-2.305578","82.9","COSFORD, UK","FM-15","EGWC ","V020","999,9,C,0000,1","99999,9,9,Y","009900,1,N,1","-0010,1","-0020,1","99999,9",,,,,"10119,1,99999,9",,,,"MET051METAR EGWC 240750Z 00000KT CAVOK M01/M02 Q1012 BLU;",
"03414599999","2010-11-24T08:50:00","4","52.640028","-2.305578","82.9","COSFORD, UK","FM-15","EGWC ","V020","999,9,C,0000,1","04800,1,C,N","011265,1,N,1","-0020,1","-0020,1","99999,9","02,5,+00600,1,99,9","07,5,+04800,1,99,9",,"07,99,1,99,9,99,9,99999,9,99,9,99,9","10119,1,99999,9",,,,"MET064METAR EGWC 240850Z 00000KT 9999 FEW020 BKN160 M02/M02 Q1012 BLU;",
"03414599999","2010-11-24T09:50:00","4","52.640028","-2.305578","82.9","COSFORD, UK","FM-15","EGWC ","V020","999,9,C,0000,1","04800,1,C,N","011265,1,N,1","+0000,1","-0020,1","99999,9","02,5,+00600,1,99,9","07,5,+04800,1,99,9",,"07,99,1,99,9,99,9,99999,9,99,9,99,9","10119,1,99999,9",,,,"MET063METAR EGWC 240950Z 00000KT 9999 FEW020 BKN160 00/M02 Q1012 BLU;",
"03414599999","2010-11-24T10:50:00","4","52.640028","-2.305578","82.9","COSFORD, UK","FM-15","EGWC ","V020","999,9,C,0000,1","99999,9,C,N","011265,1,N,1","+0020,1","+0010,1","99999,9","02,5,+00600,1,99,9","04,5,+06000,1,99,9",,"04,99,1,99,9,99,9,99999,9,99,9,99,9","10108,1,99999,9",,,,"MET062METAR EGWC 241050Z 00000KT 9999 FEW020 SCT200 02/01 Q1011 BLU;","P01 060003SCOCIG"
"03414599999","2010-11-24T11:50:00","4","52.640028","-2.305578","82.9","COSFORD, UK","FM-15","EGWC ","V020","310,1,N,0041,1","99999,9,C,N","011265,1,N,1","+0040,1","+0000,1","99999,9","02,5,+00600,1,99,9","04,5,+06000,1,99,9",,"04,99,1,99,9,99,9,99999,9,99,9,99,9","10108,1,99999,9",,,,"MET062METAR EGWC 241150Z 31008KT 9999 FEW020 SCT200 04/00 Q1011 BLU;","P01 060003SCOCIG"
"03414599999","2010-11-24T12:50:00","4","52.640028","-2.305578","82.9","COSFORD, UK","FM-15","EGWC ","V020","310,1,N,0041,1","99999,9,C,N","011265,1,N,1","+0040,1","+0000,1","99999,9","02,5,+00600,1,99,9","04,5,+06000,1,99,9",,"04,99,1,99,9,99,9,99999,9,99,9,99,9","10108,1,99999,9",,,,"MET063METAR EGWC 241250Z 31008KT 9999 FEW020 SCT200 04/M00 Q1011 BLU;","P01 060003SCOCIG"
"03414599999","2010-11-24T14:50:00","4","52.640028","-2.305578","82.9","COSFORD, UK","FM-15","EGWC ","V020","320,1,N,0041,1","99999,9,9,Y","009900,1,N,1","+0040,1","+0000,1","99999,9",,,,,"10108,1,99999,9",,,,"MET049METAR EGWC 241450Z 32008KT CAVOK 04/00 Q1011 BLU;",
"03414599999","2010-11-24T15:50:00","4","52.640028","-2.305578","82.9","COSFORD, UK","FM-15","EGWC ","V020","350,1,N,0026,1","99999,9,9,Y","009900,1,N,1","+0040,1","+0030,1","99999,9",,,,,"10102,1,99999,9",,,,"MET049METAR EGWC 241550Z 35005KT CAVOK 04/03 Q1010 BLU;",
"03414599999","2010-11-27T08:50:00","4","52.640028","-2.305578","82.9","COSFORD, UK","FM-15","EGWC ","V020","350,1,N,0026,1","22000,1,9,N","011265,1,N,1","-0020,1","-0030,1","99999,9","04,5,+01050,1,99,9",,,"04,99,1,99,9,99,9,99999,9,99,9,99,9","10061,1,99999,9",,,,"MET062METAR EGWC 270850Z 35005KT 9999 SCT035 M02/M03 Q1006 BLACKBLU;",
"03414599999","2010-11-27T12:50:00","4","52.640028","-2.305578","82.9","COSFORD, UK","FM-15","EGWC ","V020","360,1,N,0041,1","22000,1,9,N","011265,1,N,1","+0010,1","-0010,1","99999,9","02,5,+01200,1,99,9",,,"02,99,1,99,9,99,9,99999,9,99,9,99,9","10071,1,99999,9",,,,"MET056METAR EGWC 271250Z 36008KT 9999 FEW040 01/M01 Q1007 BLU;",
"03414599999","2010-11-27T13:50:00","4","52.640028","-2.305578","82.9","COSFORD, UK","FM-15","EGWC ","V020","010,1,N,0041,1","99999,9,9,Y","009900,1,N,1","+0020,1","-0010,1","99999,9",,,,,"10071,1,99999,9",,,,"MET050METAR EGWC 271350Z 01008KT CAVOK 02/M01 Q1007 BLU;",
"03414599999","2010-11-27T14:50:00","4","52.640028","-2.305578","82.9","COSFORD, UK","FM-15","EGWC ","V020","010,1,N,0031,1","99999,9,9,Y","009900,1,N,1","+0010,1","+0000,1","99999,9",,,,,"10061,1,99999,9",,,,"MET050METAR EGWC 271450Z 01006KT CAVOK 01/M00 Q1006 BLU;",
"03414599999","2010-11-28T10:50:00","4","52.640028","-2.305578","82.9","COSFORD, UK","FM-15","EGWC ","V020","999,9,C,0000,1","99999,9,9,Y","009900,1,N,1","-0050,1","-0050,1","99999,9",,,,,"10061,1,99999,9",,,,"MET051METAR EGWC 281050Z 00000KT CAVOK M05/M05 Q1006 BLU;",
"03414599999","2010-11-28T11:50:00","4","52.640028","-2.305578","82.9","COSFORD, UK","FM-15","EGWC ","V020","999,9,C,0000,1","99999,9,9,Y","009900,1,N,1","-0030,1","-0030,1","99999,9",,,,,"10071,1,99999,9",,,,"MET051METAR EGWC 281150Z 00000KT CAVOK M03/M03 Q1007 BLU;",
"03414599999","2010-11-28T12:50:00","4","52.640028","-2.305578","82.9","COSFORD, UK","FM-15","EGWC ","V020","999,9,C,0000,1","22000,1,9,N","011265,1,N,1","-0010,1","-0020,1","99999,9","04,5,+01350,1,99,9",,,"04,99,1,99,9,99,9,99999,9,99,9,99,9","10071,1,99999,9",,,,"MET057METAR EGWC 281250Z 00000KT 9999 SCT045 M01/M02 Q1007 BLU;",
"03414599999","2010-11-28T13:50:00","4","52.640028","-2.305578","82.9","COSFORD, UK","FM-15","EGWC ","V020","999,9,C,0000,1","22000,1,9,N","011265,1,N,1","-0010,1","-0010,1","99999,9","02,5,+01350,1,99,9",,,"02,99,1,99,9,99,9,99999,9,99,9,99,9","10061,1,99999,9",,,,"MET057METAR EGWC 281350Z 00000KT 9999 FEW045 M01/M01 Q1006 BLU;",
"03414599999","2010-11-28T14:50:00","4","52.640028","-2.305578","82.9","COSFORD, UK","FM-15","EGWC ","V020","010,1,N,0026,1","22000,1,9,N","011265,1,N,1","-0010,1","-0010,1","99999,9","04,5,+01350,1,99,9",,,"04,99,1,99,9,99,9,99999,9,99,9,99,9","10071,1,99999,9",,,,"MET057METAR EGWC 281450Z 01005KT 9999 SCT045 M01/M01 Q1007 BLU;",
"03414599999","2010-11-29T07:50:00","4","52.640028","-2.305578","82.9","COSFORD, UK","FM-15","EGWC ","V020","999,9,C,0000,1","00015,1,C,N","000800,1,N,1","-0070,1","-0070,1","99999,9","09,1,+00015,1,99,9",,,"09,99,1,99,9,99,9,00025,1,99,9,99,9",,"49,1",,,"MET060METAR EGWC 290750Z 00000KT 0800 FZFG VV/// M07/M07 BLACKRED;",
"03414599999","2010-11-29T08:50:00","4","52.640028","-2.305578","82.9","COSFORD, UK","FM-15","EGWC ","V020","999,9,C,0000,1","00015,1,C,N","001200,1,N,1","-0050,1","-0050,1","99999,9","09,1,+00015,1,99,9",,,"09,99,1,99,9,99,9,00025,1,99,9,99,9","10139,1,99999,9","10,1",,,"MET064METAR EGWC 290850Z 00000KT 1200 BR VV/// M05/M05 Q1014 BLACKAMB;",
"03414599999","2010-11-29T09:50:00","4","52.640028","-2.305578","82.9","COSFORD, UK","FM-15","EGWC ","V020","310,1,N,0026,1","00300,1,C,N","003000,1,N,1","-0030,1","-0030,1","99999,9","07,5,+00300,1,99,9",,,"07,99,1,99,9,99,9,99999,9,99,9,99,9","10139,1,99999,9","10,1",,,"MET066METAR EGWC 290950Z 31005KT 3000 BR BKN010 M03/M03 Q1014 BLACKYLO1;",
"03414599999","2010-11-29T10:50:00","4","52.640028","-2.305578","82.9","COSFORD, UK","FM-15","EGWC ","V020","310,1,N,0026,1","00300,1,C,N","003000,1,N,1","-0030,1","-0030,1","99999,9","07,5,+00300,1,99,9",,,"07,99,1,99,9,99,9,99999,9,99,9,99,9","10139,1,99999,9","10,1",,,"MET061METAR EGWC 291050Z 31005KT 3000 BR BKN010 M03/M03 Q1014 YLO1;",
"03414599999","2010-11-30T07:50:00","4","52.640028","-2.305578","82.9","COSFORD, UK","FM-15","EGWC ","V020","060,1,N,0077,1","00450,1,C,N","011265,1,N,1","+0010,1","+0000,1","99999,9","04,5,+00300,1,99,9","07,5,+00450,1,99,9",,"07,99,1,99,9,99,9,99999,9,99,9,99,9","10159,1,99999,9",,,,"MET068METAR EGWC 300750Z 06015KT 9999 SCT010 BKN015 01/M00 Q1016 BLACKGRN;",
"03414599999","2010-12-08T08:50:00","4","52.640028","-2.305578","82.9","COSFORD, UK","FM-15","EGWC ","V020","320,1,N,0026,1","22000,1,9,N","011265,1,N,1","-0040,1","-0040,1","99999,9","04,5,+00750,1,99,9",,,"04,99,1,99,9,99,9,99999,9,99,9,99,9","10139,1,99999,9",,,,"MET062METAR EGWC 080850Z 32005KT 9999 SCT025 M04/M04 Q1014 BLACKBLU;",
"03414599999","2010-12-09T07:50:00","4","52.640028","-2.305578","82.9","COSFORD, UK","FM-15","EGWC ","V020","999,9,C,0000,1","00600,1,C,N","011265,1,N,1","-0030,1","-0040,1","99999,9","07,5,+00600,1,99,9",,,"07,99,1,99,9,99,9,99999,9,99,9,99,9","10301,1,99999,9",,,,"MET062METAR EGWC 090750Z 00000KT 9999 BKN020 M03/M04 Q1030 BLACKWHT;",
"03414599999","2010-12-09T08:50:00","4","52.640028","-2.305578","82.9","COSFORD, UK","FM-15","EGWC ","V020","310,1,N,0062,1","22000,1,9,N","011265,1,N,1","+0030,1","+0000,1","99999,9","04,5,+00750,1,99,9",,,"04,99,1,99,9,99,9,99999,9,99,9,99,9","10301,1,99999,9",,,,"MET061METAR EGWC 090850Z 31012KT 9999 SCT025 03/M00 Q1030 BLACKBLU;",
"03414599999","2010-12-09T09:50:00","4","52.640028","-2.305578","82.9","COSFORD, UK","FM-15","EGWC ","V020","360,1,N,0036,1","22000,1,9,N","011265,1,N,1","+0010,1","-0020,1","99999,9","04,5,+00750,1,99,9",,,"04,99,1,99,9,99,9,99999,9,99,9,99,9","10312,1,99999,9",,,,"MET061METAR EGWC 090950Z 36007KT 9999 SCT025 01/M02 Q1031 BLACKBLU;",
"03414599999","2010-12-09T11:50:00","4","52.640028","-2.305578","82.9","COSFORD, UK","FM-15","EGWC ","V020","280,1,N,0041,1","99999,9,C,N","011265,1,N,1","+0050,1","+0010,1","99999,9","02,5,+01200,1,99,9","04,5,+01800,1,99,9",,"04,99,1,99,9,99,9,99999,9,99,9,99,9","10312,1,99999,9",,,,"MET067METAR EGWC 091150Z 28008KT 9999 FEW040 SCT060 05/01 Q1031 BLACKBLU;","P01 018003SCOCIG"
"03414599999","2010-12-09T12:50:00","4","52.640028","-2.305578","82.9","COSFORD, UK","FM-15","EGWC ","V020","280,1,N,0051,1","99999,9,C,N","011265,1,N,1","+0050,1","+0030,1","99999,9","02,5,+00900,1,99,9","04,5,+01500,1,99,9",,"04,99,1,99,9,99,9,99999,9,99,9,99,9","10312,1,99999,9",,,,"MET067METAR EGWC 091250Z 28010KT 9999 FEW030 SCT050 05/03 Q1031 BLACKBLU;","P01 015003SCOCIG"
"03414599999","2010-12-09T13:50:00","4","52.640028","-2.305578","82.9","COSFORD, UK","FM-15","EGWC ","V020","240,1,N,0051,1","22000,1,9,N","011265,1,N,1","+0060,1","+0010,1","99999,9","04,5,+01500,1,99,9",,,"04,99,1,99,9,99,9,99999,9,99,9,99,9","10312,1,99999,9",,,,"MET060METAR EGWC 091350Z 24010KT 9999 SCT050 06/01 Q1031 BLACKBLU;",
"03414599999","2010-12-09T14:50:00","4","52.640028","-2.305578","82.9","COSFORD, UK","FM-15","EGWC ","V020","270,1,N,0041,1","99999,9,9,Y","009900,1,N,1","+0060,1","+0010,1","99999,9",,,,,"10312,1,99999,9",,,,"MET054METAR EGWC 091450Z 27008KT CAVOK 06/01 Q1031 BLACKBLU;",
"03414599999","2010-12-10T08:50:00","4","52.640028","-2.305578","82.9","COSFORD, UK","FM-15","EGWC ","V020","240,1,N,0041,1","00690,1,C,N","011265,1,N,1","+0040,1","+0030,1","99999,9","02,5,+00300,1,99,9","07,5,+00690,1,99,9",,"07,99,1,99,9,99,9,99999,9,99,9,99,9","10329,1,99999,9",,,,"MET067METAR EGWC 100850Z 24008KT 9999 FEW010 BKN023 04/03 Q1033 BLACKWHT;",
"03414599999","2010-12-10T09:50:00","4","52.640028","-2.305578","82.9","COSFORD, UK","FM-15","EGWC ","V020","230,1,N,0041,1","00690,1,C,N","011265,1,N,1","+0060,1","+0040,1","99999,9","02,5,+00450,1,99,9","07,5,+00690,1,99,9",,"07,99,1,99,9,99,9,99999,9,99,9,99,9","10329,1,99999,9",,,,"MET062METAR EGWC 100950Z 23008KT 9999 FEW015 BKN023 06/04 Q1033 WHT;",
"03414599999","2010-12-10T10:50:00","4","52.640028","-2.305578","82.9","COSFORD, UK","FM-15","EGWC ","V020","240,1,N,0041,1","00690,1,C,N","011265,1,N,1","+0070,1","+0040,1","99999,9","02,5,+00450,1,99,9","07,5,+00690,1,99,9",,"07,99,1,99,9,99,9,99999,9,99,9,99,9","10318,1,99999,9",,,,"MET062METAR EGWC 101050Z 24008KT 9999 FEW015 BKN023 07/04 Q1032 WHT;",
"03414599999","2010-12-10T11:50:00","4","52.640028","-2.305578","82.9","COSFORD, UK","FM-15","EGWC ","V020","250,1,N,0041,1","00900,1,C,N","011265,1,N,1","+0070,1","+0040,1","99999,9","04,5,+00660,1,99,9","07,5,+00900,1,99,9",,"07,99,1,99,9,99,9,99999,9,99,9,99,9","10318,1,99999,9",,,,"MET062METAR EGWC 101150Z 25008KT 9999 SCT022 BKN030 07/04 Q1032 WHT;",
"03414599999","2010-12-10T12:50:00","4","52.640028","-2.305578","82.9","COSFORD, UK","FM-15","EGWC ","V020","270,1,N,0041,1","00840,1,C,N","011265,1,N,1","+0070,1","+0040,1","99999,9","02,5,+00660,1,99,9","07,5,+00840,1,99,9",,"07,99,1,99,9,99,9,99999,9,99,9,99,9","10312,1,99999,9",,,,"MET062METAR EGWC 101250Z 27008KT 9999 FEW022 BKN028 07/04 Q1031 BLU;",
"03414599999","2010-12-10T13:50:00","4","52.640028","-2.305578","82.9","COSFORD, UK","FM-15","EGWC ","V020","270,1,N,0041,1","00840,1,C,N","011265,1,N,1","+0080,1","+0040,1","99999,9","02,5,+00660,1,99,9","07,5,+00840,1,99,9",,"07,99,1,99,9,99,9,99999,9,99,9,99,9","10312,1,99999,9",,,,"MET062METAR EGWC 101350Z 27008KT 9999 FEW022 BKN028 08/04 Q1031 BLU;",
"03414599999","2010-12-13T07:50:00","4","52.640028","-2.305578","82.9","COSFORD, UK","FM-15","EGWC ","V020","999,9,C,0000,1","00300,1,C,N","004500,1,N,1","+0010,1","+0010,1","99999,9","08,5,+00300,1,99,9",,,"08,99,1,99,9,99,9,99999,9,99,9,99,9","10281,1,99999,9","10,1",,,"MET058METAR EGWC 130750Z 00000KT 4500 BR OVC010 01/01 Q1028 GRN;",
"03414599999","2010-12-13T08:50:00","4","52.640028","-2.305578","82.9","COSFORD, UK","FM-15","EGWC ","V020","999,9,C,0000,1","00300,1,C,N","004500,1,N,1","+0020,1","+0020,1","99999,9","08,5,+00300,1,99,9",,,"08,99,1,99,9,99,9,99999,9,99,9,99,9","10291,1,99999,9","10,1",,,"MET058METAR EGWC 130850Z 00000KT 4500 BR OVC010 02/02 Q1029 GRN;",
"03414599999","2010-12-13T09:50:00","4","52.640028","-2.305578","82.9","COSFORD, UK","FM-15","EGWC ","V020","999,9,C,0000,1","00240,1,C,N","004000,1,N,1","+0020,1","+0020,1","99999,9","08,5,+00240,1,99,9",,,"08,99,1,99,9,99,9,99999,9,99,9,99,9","10291,1,99999,9","10,1",,,"MET058METAR EGWC 130950Z 00000KT 4000 BR OVC008 02/02 Q1029 GRN;",
"03414599999","2010-12-13T10:50:00","4","52.640028","-2.305578","82.9","COSFORD, UK","FM-15","EGWC ","V020","999,9,C,0000,1","00300,1,C,N","004000,1,N,1","+0030,1","+0020,1","99999,9","08,5,+00300,1,99,9",,,"08,99,1,99,9,99,9,99999,9,99,9,99,9","10291,1,99999,9","10,1",,,"MET058METAR EGWC 131050Z 00000KT 4000 BR OVC010 03/02 Q1029 GRN;",
"03414599999","2010-12-13T11:50:00","4","52.640028","-2.305578","82.9","COSFORD, UK","FM-15","EGWC ","V020","999,9,C,0000,1","01200,1,C,N","004000,1,N,1","+0040,1","+0020,1","99999,9","08,5,+01200,1,99,9",,,"08,99,1,99,9,99,9,99999,9,99,9,99,9","10291,1,99999,9","10,1",,,"MET058METAR EGWC 131150Z 00000KT 4000 BR OVC040 04/02 Q1029 GRN;",
"03414599999","2010-12-13T12:50:00","4","52.640028","-2.305578","82.9","COSFORD, UK","FM-15","EGWC ","V020","999,9,C,0000,1","01200,1,C,N","004500,1,N,1","+0040,1","+0020,1","99999,9","07,5,+01200,1,99,9",,,"07,99,1,99,9,99,9,99999,9,99,9,99,9","10291,1,99999,9","10,1",,,"MET058METAR EGWC 131250Z 00000KT 4500 BR BKN040 04/02 Q1029 GRN;",
"03414599999","2010-12-13T13:50:00","4","52.640028","-2.305578","82.9","COSFORD, UK","FM-15","EGWC ","V020","310,1,N,0036,1","01050,1,C,N","004000,1,N,1","+0040,1","+0020,1","99999,9","04,5,+00600,1,99,9","07,5,+01050,1,99,9",,"07,99,1,99,9,99,9,99999,9,99,9,99,9","10291,1,99999,9","10,1",,,"MET065METAR EGWC 131350Z 31007KT 4000 BR SCT020 BKN035 04/02 Q1029 GRN;",
"03414599999","2010-12-13T14:50:00","4","52.640028","-2.305578","82.9","COSFORD, UK","FM-15","EGWC ","V020","350,1,N,0026,1","00900,1,C,N","007000,1,N,1","+0040,1","+0020,1","99999,9","07,5,+00900,1,99,9",,,"07,99,1,99,9,99,9,99999,9,99,9,99,9","10291,1,99999,9","05,1",,,"MET058METAR EGWC 131450Z 35005KT 7000 HZ BKN030 04/02 Q1029 WHT;",
"03414599999","2010-12-13T15:50:00","4","52.640028","-2.305578","82.9","COSFORD, UK","FM-15","EGWC ","V020","999,9,C,0000,1","01050,1,C,N","005000,1,N,1","+0040,1","+0020,1","99999,9","07,5,+01050,1,99,9",,,"07,99,1,99,9,99,9,99999,9,99,9,99,9","10291,1,99999,9","05,1",,,"MET058METAR EGWC 131550Z 00000KT 5000 HZ BKN035 04/02 Q1029 WHT;",
"03414599999","2010-12-14T08:50:00","4","52.640028","-2.305578","82.9","COSFORD, UK","FM-15","EGWC ","V020","320,1,N,0026,1","01200,1,C,N","008000,1,N,1","+0030,1","+0010,1","99999,9","07,5,+01200,1,99,9",,,"07,99,1,99,9,99,9,99999,9,99,9,99,9","10329,1,99999,9","10,1",,,"MET058METAR EGWC 140850Z 32005KT 8000 BR BKN040 03/01 Q1033 BLU;",
"03414599999","2010-12-14T09:50:00","4","52.640028","-2.305578","82.9","COSFORD, UK","FM-15","EGWC ","V020","320,1,N,0041,1","01200,1,C,N","011265,1,N,1","+0030,1","+0010,1","99999,9","07,5,+01200,1,99,9",,,"07,99,1,99,9,99,9,99999,9,99,9,99,9","10339,1,99999,9",,,,"MET055METAR EGWC 140950Z 32008KT 9999 BKN040 03/01 Q1034 BLU;",
"03414599999","2010-12-14T10:50:00","4","52.640028","-2.305578","82.9","COSFORD, UK","FM-15","EGWC ","V020","330,1,N,0041,1","00450,1,C,N","001500,1,N,1","+0030,1","+0020,1","99999,9","02,5,+00300,1,99,9","08,5,+00450,1,99,9",,"08,99,1,99,9,99,9,99999,9,99,9,99,9","10349,1,99999,9","51,1",,,"MET066METAR EGWC 141050Z 33008KT 1500 -DZ FEW010 OVC015 03/02 Q1035 AMB;",
"03414599999","2010-12-14T11:50:00","4","52.640028","-2.305578","82.9","COSFORD, UK","FM-15","EGWC ","V020","330,1,N,0026,1","00360,1,C,N","003000,1,N,1","+0030,1","+0020,1","99999,9","02,5,+00150,1,99,9","08,5,+00360,1,99,9",,"08,99,1,99,9,99,9,99999,9,99,9,99,9","10349,1,99999,9","10,1",,,"MET066METAR EGWC 141150Z 33005KT 3000 BR FEW005 OVC012 03/02 Q1035 YL01;",
"03414599999","2010-12-14T12:50:00","4","52.640028","-2.305578","82.9","COSFORD, UK","FM-15","EGWC ","V020","330,1,N,0026,1","00360,1,C,N","005000,1,N,1","+0030,1","+0020,1","99999,9","02,5,+00150,1,99,9","07,5,+00360,1,99,9",,"07,99,1,99,9,99,9,99999,9,99,9,99,9","10349,1,99999,9","10,1",,,"MET065METAR EGWC 141250Z 33005KT 5000 BR FEW005 BKN012 03/02 Q1035 GRN;",
"03414599999","2010-12-14T13:50:00","4","52.640028","-2.305578","82.9","COSFORD, UK","FM-15","EGWC ","V020","320,1,N,0041,1","00600,1,C,N","006000,1,N,1","+0040,1","+0030,1","99999,9","02,5,+00300,1,99,9","07,5,+00600,1,99,9",,"07,99,1,99,9,99,9,99999,9,99,9,99,9","10349,1,99999,9","10,1",,,"MET065METAR EGWC 141350Z 32008KT 6000 BR FEW010 BKN020 04/03 Q1035 WHT;",
"03414599999","2010-12-15T07:50:00","4","52.640028","-2.305578","82.9","COSFORD, UK","FM-15","EGWC ","V020","310,1,N,0026,1","01350,1,C,N","006000,1,N,1","+0020,1","+0020,1","99999,9","04,5,+00360,1,99,9","07,5,+01350,1,99,9",,"07,99,1,99,9,99,9,99999,9,99,9,99,9","10389,1,99999,9","10,1",,,"MET065METAR EGWC 150750Z 31005KT 6000 BR SCT012 BKN045 02/02 Q1039 GRN;",
"03414599999","2010-12-15T08:50:00","4","52.640028","-2.305578","82.9","COSFORD, UK","FM-15","EGWC ","V020","300,1,N,0031,1","00840,1,C,N","008000,1,N,1","+0020,1","+0010,1","99999,9","02,5,+00360,1,99,9","04,5,+00840,1,99,9","07,5,+01380,1,99,9","07,99,1,99,9,99,9,99999,9,99,9,99,9","10389,1,99999,9","05,1",,,"MET072METAR EGWC 150850Z 30006KT 8000 HZ FEW012 SCT028 BKN046 02/01 Q1039 BLU;",
"03414599999","2010-12-15T09:50:00","4","52.640028","-2.305578","82.9","COSFORD, UK","FM-15","EGWC ","V020","320,1,N,0036,1","00750,1,C,N","011265,1,N,1","+0030,1","+0020,1","99999,9","02,5,+00450,1,99,9","07,5,+00750,1,99,9",,"07,99,1,99,9,99,9,99999,9,99,9,99,9","10389,1,99999,9",,,,"MET062METAR EGWC 150950Z 32007KT 9999 FEW015 BKN025 03/02 Q1039 BLU;",
"03414599999","2010-12-15T10:50:00","4","52.640028","-2.305578","82.9","COSFORD, UK","FM-15","EGWC ","V020","310,1,N,0036,1","01050,1,C,N","011265,1,N,1","+0040,1","+0020,1","99999,9","02,5,+00360,1,99,9","07,5,+01050,1,99,9",,"07,99,1,99,9,99,9,99999,9,99,9,99,9","10379,1,99999,9",,,,"MET062METAR EGWC 151050Z 31007KT 9999 FEW012 BKN035 04/02 Q1038 BLU;",
"03414599999","2010-12-15T11:50:00","4","52.640028","-2.305578","82.9","COSFORD, UK","FM-15","EGWC ","V020","330,1,N,0051,1","00750,1,C,N","011265,1,N,1","+0050,1","+0030,1","99999,9","02,5,+00360,1,99,9","07,5,+00750,1,99,9",,"07,99,1,99,9,99,9,99999,9,99,9,99,9","10379,1,99999,9",,,,"MET062METAR EGWC 151150Z 33010KT 9999 FEW012 BKN025 05/03 Q1038 BLU;",
"03414599999","2010-12-15T12:50:00","4","52.640028","-2.305578","82.9","COSFORD, UK","FM-15","EGWC ","V020","320,1,N,0041,1","01050,1,C,N","011265,1,N,1","+0050,1","+0020,1","99999,9","04,5,+00750,1,99,9","07,5,+01050,1,99,9",,"07,99,1,99,9,99,9,99999,9,99,9,99,9","10369,1,99999,9",,,,"MET062METAR EGWC 151250Z 32008KT 9999 SCT025 BKN035 05/02 Q1037 BLU;",
"03414599999","2010-12-15T13:50:00","4","52.640028","-2.305578","82.9","COSFORD, UK","FM-15","EGWC ","V020","320,1,N,0026,1","00900,1,C,N","011265,1,N,1","+0050,1","+0020,1","99999,9","02,5,+00360,1,99,9","07,5,+00900,1,99,9",,"07,99,1,99,9,99,9,99999,9,99,9,99,9","10369,1,99999,9",,,,"MET062METAR EGWC 151350Z 32005KT 9999 FEW012 BKN030 05/02 Q1037 BLU;",
"03414599999","2010-12-15T14:50:00","4","52.640028","-2.305578","82.9","COSFORD, UK","FM-15","EGWC ","V020","310,1,N,0026,1","00750,1,C,N","011265,1,N,1","+0050,1","+0020,1","99999,9","07,5,+00750,1,99,9",,,"07,99,1,99,9,99,9,99999,9,99,9,99,9","10369,1,99999,9",,,,"MET055METAR EGWC 151450Z 31005KT 9999 BKN025 05/02 Q1037 BLU;",
"03414599999","2010-12-16T07:50:00","4","52.640028","-2.305578","82.9","COSFORD, UK","FM-15","EGWC ","V020","260,1,N,0077,1","00900,1,C,N","011265,1,N,1","+0070,1","+0040,1","99999,9","04,5,+00540,1,99,9","07,5,+00900,1,99,9",,"07,99,1,99,9,99,9,99999,9,99,9,99,9","10119,1,99999,9",,,,"MET062METAR EGWC 160750Z 26015KT 9999 SCT018 BKN030 07/04 Q1012 WHT;",
"03414599999","2010-12-16T08:50:00","4","52.640028","-2.305578","82.9","COSFORD, UK","FM-15","EGWC ","V020","270,1,N,0077,1","00900,1,C,N","011265,1,N,1","+0070,1","+0040,1","99999,9","04,5,+00540,1,99,9","07,5,+00900,1,99,9",,"07,99,1,99,9,99,9,99999,9,99,9,99,9","10102,1,99999,9","61,1",,,"MET066METAR EGWC 160850Z 27015KT 9999 -RA SCT018 BKN030 07/04 Q1010 WHT;",
"03414599999","2010-12-16T09:50:00","4","52.640028","-2.305578","82.9","COSFORD, UK","FM-15","EGWC ","V020","270,1,N,0077,1","00540,1,C,N","011265,1,N,1","+0080,1","+0050,1","99999,9","07,5,+00540,1,99,9",,,"07,99,1,99,9,99,9,99999,9,99,9,99,9","10081,1,99999,9","63,1",,,"MET058METAR EGWC 160950Z 27015KT 9999 RA BKN018 08/05 Q1008 WHT;",
"03414599999","2010-12-16T10:50:00","4","52.640028","-2.305578","82.9","COSFORD, UK","FM-15","EGWC ","V020","280,1,N,0082,1","00540,1,C,N","011265,1,N,1","+0080,1","+0050,1","99999,9","07,5,+00540,1,99,9",,,"07,99,1,99,9,99,9,99999,9,99,9,99,9","10061,1,99999,9","61,1",,,"MET059METAR EGWC 161050Z 28016KT 9999 -RA BKN018 08/05 Q1006 WHT;",
"03414599999","2010-12-16T11:50:00","4","52.640028","-2.305578","82.9","COSFORD, UK","FM-15","EGWC ","V020","320,1,N,0051,1","00540,1,C,N","008000,1,N,1","+0050,1","+0040,1","99999,9","07,5,+00540,1,99,9",,,"07,99,1,99,9,99,9,99999,9,99,9,99,9","10061,1,99999,9","61,1",,,"MET059METAR EGWC 161150Z 32010KT 8000 -RA BKN018 05/04 Q1006 WHT;",
