"STATION","DATE","SOURCE","LATITUDE","LONGITUDE","ELEVATION","NAME","REPORT_TYPE","CALL_SIGN","QUALITY_CONTROL","WND","CIG","VIS","TMP","DEW","SLP","GA1","GA2","GA3","GA4","GF1","MA1","MW1","MW2","MW3","OC1","REM","EQD"
"03566099999","2010-01-04T07:50:00","4","52.357167","-0.107833","41.14","WYTON, UK","FM-15","EGUY ","V020","250,1,N,0036,1","22000,1,9,N","009000,1,N,1","-0050,1","-0050,1","99999,9","02,5,+01800,1,99,9",,,,"02,99,1,99,9,99,9,99999,9,99,9,99,9","10200,1,99999,9","10,1",,,,"MET060METAR EGUY 040750Z 25007KT 9000 BR FEW060 M05/M05 Q1020 BLU;",
"03566099999","2010-01-04T08:50:00","4","52.357167","-0.107833","41.14","WYTON, UK","FM-15","EGUY ","V020","250,1,N,0036,1","99999,9,9,Y","009900,1,N,1","-0050,1","-0050,1","99999,9",,,,,,"10200,1,99999,9",,,,,"MET051METAR EGUY 040850Z 25007KT CAVOK M05/M05 Q1020 BLU;",
"03566099999","2010-01-04T09:50:00","4","52.357167","-0.107833","41.14","WYTON, UK","FM-15","EGUY ","V020","260,1,N,0041,1","99999,9,9,Y","009900,1,N,1","-0040,1","-0050,1","99999,9",,,,,,"10200,1,99999,9",,,,,"MET051METAR EGUY 040950Z 26008KT CAVOK M04/M05 Q1020 BLU;",
"03566099999","2010-01-04T10:50:00","4","52.357167","-0.107833","41.14","WYTON, UK","FM-15","EGUY ","V020","270,1,N,0041,1","99999,9,9,Y","009900,1,N,1","-0020,1","-0030,1","99999,9",,,,,,"10190,1,99999,9",,,,,"MET051METAR EGUY 041050Z 27008KT CAVOK M02/M03 Q1019 BLU;",
"03566099999","2010-01-04T11:50:00","4","52.357167","-0.107833","41.14","WYTON, UK","FM-15","EGUY ","V020","270,1,N,0036,1","99999,9,9,Y","009900,1,N,1","-0010,1","-0020,1","99999,9",,,,,,"10190,1,99999,9",,,,,"MET051METAR EGUY 041150Z 27007KT CAVOK M01/M02 Q1019 BLU;",
"03566099999","2010-01-04T12:50:00","4","52.357167","-0.107833","41.14","WYTON, UK","FM-15","EGUY ","V020","280,1,N,0041,1","99999,9,9,Y","009900,1,N,1","+0010,1","-0020,1","99999,9",,,,,,"10180,1,99999,9",,,,,"MET050METAR EGUY 041250Z 28008KT CAVOK 01/M02 Q1018 BLU;",
"03566099999","2010-01-04T13:50:00","4","52.357167","-0.107833","41.14","WYTON, UK","FM-15","EGUY ","V020","300,1,N,0036,1","99999,9,9,Y","009900,1,N,1","+0010,1","-0030,1","99999,9",,,,,,"10169,1,99999,9",,,,,"MET050METAR EGUY 041350Z 30007KT CAVOK 01/M03 Q1017 BLU;",
"03566099999","2010-01-04T14:50:00","4","52.357167","-0.107833","41.14","WYTON, UK","FM-15","EGUY ","V020","270,1,N,0031,1","99999,9,9,Y","009900,1,N,1","+0010,1","-0030,1","99999,9",,,,,,"10159,1,99999,9",,,,,"MET050METAR EGUY 041450Z 27006KT CAVOK 01/M03 Q1016 BLU;",
"03566099999","2010-01-04T15:50:00","4","52.357167","-0.107833","41.14","WYTON, UK","FM-15","EGUY ","V020","260,1,N,0041,1","99999,9,9,Y","009900,1,N,1","-0010,1","-0030,1","99999,9",,,,,,"10159,1,99999,9",,,,,"MET051METAR EGUY 041550Z 26008KT CAVOK M01/M03 Q1016 BLU;",
"03566099999","2010-01-05T07:50:00","4","52.357167","-0.107833","41.14","WYTON, UK","FM-15","EGUY ","V020","230,1,N,0046,1","00600,1,C,N","007000,1,N,1","-0020,1","-0040,1","99999,9","07,5,+00600,1,99,9","07,5,+01200,1,99,9",,,"07,99,1,99,9,99,9,99999,9,99,9,99,9","10051,1,99999,9","71,1",,,,"MET068METAR EGUY 050750Z 23009KT 7000 -SN BKN020 BKN040 M02/M04 Q1005 WHT;",
"03566099999","2010-01-05T08:50:00","4","52.357167","-0.107833","41.14","WYTON, UK","FM-15","EGUY ","V020","230,1,N,0041,1","00600,1,C,N","004000,1,N,1","-0020,1","-0030,1","99999,9","07,5,+00600,1,99,9","08,5,+01200,1,99,9",,,"08,99,1,99,9,99,9,99999,9,99,9,99,9","10051,1,99999,9","71,1",,,,"MET068METAR EGUY 050850Z 23008KT 4000 -SN BKN020 OVC040 M02/M03 Q1005 GRN;",
"03566099999","2010-01-05T09:50:00","4","52.357167","-0.107833","41.14","WYTON, UK","FM-15","EGUY ","V020","210,1,N,0041,1","01200,1,C,N","004000,1,N,1","-0010,1","-0020,1","99999,9","02,5,+00600,1,99,9","07,5,+01200,1,99,9",,,"07,99,1,99,9,99,9,99999,9,99,9,99,9","10041,1,99999,9","71,1",,,,"MET068METAR EGUY 050950Z 21008KT 4000 -SN FEW020 BKN040 M01/M02 Q1004 GRN;",
"03566099999","2010-01-05T10:50:00","4","52.357167","-0.107833","41.14","WYTON, UK","FM-15","EGUY ","V020","220,1,N,0051,1","03000,1,C,N","011265,1,N,1","-0010,1","-0020,1","99999,9","04,5,+01200,1,99,9","07,5,+03000,1,99,9",,,"07,99,1,99,9,99,9,99999,9,99,9,99,9","10041,1,99999,9",,,,,"MET064METAR EGUY 051050Z 22010KT 9999 SCT040 BKN100 M01/M02 Q1004 BLU;",
"03566099999","2010-01-05T11:50:00","4","52.357167","-0.107833","41.14","WYTON, UK","FM-15","EGUY ","V020","220,1,N,0046,1","03600,1,C,N","011265,1,N,1","+0000,1","-0010,1","99999,9","04,5,+01200,1,99,9","07,5,+03600,1,99,9",,,"07,99,1,99,9,99,9,99999,9,99,9,99,9","10031,1,99999,9",,,,,"MET063METAR EGUY 051150Z 22009KT 9999 SCT040 BKN120 00/M01 Q1003 BLU;",
"03566099999","2010-01-05T12:50:00","4","52.357167","-0.107833","41.14","WYTON, UK","FM-15","EGUY ","V020","230,1,N,0041,1","03600,1,C,N","011265,1,N,1","+0010,1","-0010,1","99999,9","02,5,+01200,1,99,9","07,5,+03600,1,99,9",,,"07,99,1,99,9,99,9,99999,9,99,9,99,9","10020,1,99999,9",,,,,"MET063METAR EGUY 051250Z 23008KT 9999 FEW040 BKN120 01/M01 Q1002 BLU;",
"03566099999","2010-01-05T13:50:00","4","52.357167","-0.107833","41.14","WYTON, UK","FM-15","EGUY ","V020","220,1,N,0041,1","03600,1,C,N","011265,1,N,1","+0010,1","-0010,1","99999,9","02,5,+01200,1,99,9","07,5,+03600,1,99,9",,,"07,99,1,99,9,99,9,99999,9,99,9,99,9","10020,1,99999,9",,,,,"MET063METAR EGUY 051350Z 22008KT 9999 FEW040 BKN120 01/M01 Q1002 BLU;",
"03566099999","2010-01-05T14:50:00","4","52.357167","-0.107833","41.14","WYTON, UK","FM-15","EGUY ","V020","220,1,N,0031,1","01500,1,C,N","011265,1,N,1","+0010,1","-0010,1","99999,9","02,5,+00600,1,99,9","04,5,+01500,1,99,9","07,5,+03600,1,99,9",,"07,99,1,99,9,99,9,99999,9,99,9,99,9","10010,1,99999,9","71,1",,,,"MET074METAR EGUY 051450Z 22006KT 9999 -SN FEW020 SCT050 BKN120 01/M01 Q1001 BLU;",
"03566099999","2010-01-05T15:50:00","4","52.357167","-0.107833","41.14","WYTON, UK","FM-15","EGUY ","V020","250,1,N,0021,1","99999,9,C,N","011265,1,N,1","+0010,1","-0020,1","99999,9","02,5,+00600,1,99,9","04,5,+02700,1,99,9",,,"04,99,1,99,9,99,9,99999,9,99,9,99,9","10010,1,99999,9",,,,,"MET063METAR EGUY 051550Z 25004KT 9999 FEW020 SCT090 01/M02 Q1001 BLU;","P01 027003SCOCIG"
"03566099999","2010-01-06T07:50:00","4","52.357167","-0.107833","41.14","WYTON, UK","FM-15","EGUY ","V020","100,1,N,0026,1","00600,1,C,N","004000,1,N,1","-0040,1","-0060,1","99999,9","02,5,+00300,1,99,9","04,5,+00600,1,99,9","07,5,+03000,1,99,9",,"07,99,1,99,9,99,9,99999,9,99,9,99,9","10020,1,99999,9","10,1",,,,"MET074METAR EGUY 060750Z 10005KT 4000 BR FEW010 SCT020 BKN100 M04/M06 Q1002 GRN;",
"03566099999","2010-01-06T08:50:00","4","52.357167","-0.107833","41.14","WYTON, UK","FM-15","EGUY ","V020","280,1,N,0015,1","00600,1,C,N","002500,1,N,1","-0030,1","-0050,1","99999,9","02,5,+00240,1,99,9","07,5,+00600,1,99,9","07,5,+01200,1,99,9",,"07,99,1,99,9,99,9,99999,9,99,9,99,9","10031,1,99999,9","10,1",,,,"MET075METAR EGUY 060850Z 28003KT 2500 BR FEW008 BKN020 BKN040 M03/M05 Q1003 YLO1;",
"03566099999","2010-01-06T09:30:00","4","52.357167","-0.107833","41.14","WYTON, UK","FM-15","EGUY ","V020","360,1,N,0041,1","00090,1,C,N","002000,1,N,1","-0020,1","-0020,1","99999,9","08,5,+00090,1,99,9",,,,"08,99,1,99,9,99,9,99999,9,99,9,99,9","10031,1,99999,9","71,1",,,,"MET062METAR EGUY 060930Z 36008KT 2000 -SN OVC003 M02/M02 Q1003 YLO2;",
"03566099999","2010-01-06T09:50:00","4","52.357167","-0.107833","41.14","WYTON, UK","FM-15","EGUY ","V020","360,1,N,0041,1","00090,1,C,N","002000,1,N,1","-0010,1","-0010,1","99999,9","08,5,+00090,1,99,9",,,,"08,99,1,99,9,99,9,99999,9,99,9,99,9","10031,1,99999,9","71,1",,,,"MET062METAR EGUY 060950Z 36008KT 2000 -SN OVC003 M01/M01 Q1003 YLO2;",
"03566099999","2010-01-06T10:50:00","4","52.357167","-0.107833","41.14","WYTON, UK","FM-15","EGUY ","V020","040,1,N,0067,1","00060,1,C,N","000800,1,N,1","+0000,1","+0000,1","99999,9","08,5,+00060,1,99,9",,,,"08,99,1,99,9,99,9,99999,9,99,9,99,9","10041,1,99999,9","75,1",,,,"MET059METAR EGUY 061050Z 04013KT 0800 +SN OVC002 00/00 Q1004 AMB;",
"03566099999","2010-01-06T12:50:00","4","52.357167","-0.107833","41.14","WYTON, UK","FM-15","EGUY ","V020","030,1,N,0026,1","01200,1,C,N","006000,1,N,1","+0000,1","+0000,1","99999,9","04,5,+00300,1,99,9","07,5,+01200,1,99,9",,,"07,99,1,99,9,99,9,99999,9,99,9,99,9","10041,1,99999,9","10,1",,,,"MET072METAR EGUY 061250Z 03005KT 6000 BR SCT010 BKN040 M00/M00 Q1004 RESN GRN;",
"03566099999","2010-01-06T13:50:00","4","52.357167","-0.107833","41.14","WYTON, UK","FM-15","EGUY ","V020","030,1,N,0077,1","00600,1,C,N","011265,1,N,1","+0010,1","-0010,1","99999,9","02,5,+00300,1,99,9","07,5,+00600,1,99,9",,,"07,99,1,99,9,99,9,99999,9,99,9,99,9","10051,1,99999,9",,,,,"MET063METAR EGUY 061350Z 03015KT 9999 FEW010 BKN020 01/M01 Q1005 WHT;",
"03566099999","2010-01-06T14:50:00","4","52.357167","-0.107833","41.14","WYTON, UK","FM-15","EGUY ","V020","020,1,N,0098,1","22000,1,9,N","011265,1,N,1","+0010,1","-0010,1","99999,9","04,5,+01200,1,99,9",,,,"04,99,1,99,9,99,9,99999,9,99,9,99,9","10051,1,99999,9",,,,,"MET056METAR EGUY 061450Z 02019KT 9999 SCT040 01/M01 Q1005 BLU;",
"03566099999","2010-01-07T07:50:00","4","52.357167","-0.107833","41.14","WYTON, UK","FM-15","EGUY ","V020","310,1,N,0077,1","01800,1,C,N","011265,1,N,1","-0030,1","-0040,1","99999,9","02,5,+01050,1,99,9","07,5,+01800,1,99,9",,,"07,99,1,99,9,99,9,99999,9,99,9,99,9","10091,1,99999,9",,,,,"MET064METAR EGUY 070750Z 31015KT 9999 FEW035 BKN060 M03/M04 Q1009 BLU;",
"03566099999","2010-01-07T08:50:00","4","52.357167","-0.107833","41.14","WYTON, UK","FM-15","EGUY ","V020","310,1,N,0087,1","99999,9,C,N","011265,1,N,1","-0020,1","-0040,1","99999,9","02,5,+01200,1,99,9","04,5,+01800,1,99,9",,,"04,99,1,99,9,99,9,99999,9,99,9,99,9","10091,1,99999,9",,,,,"MET064METAR EGUY 070850Z 31017KT 9999 FEW040 SCT060 M02/M04 Q1009 BLU;","P01 018003SCOCIG"
"03566099999","2010-01-07T09:50:00","4","52.357167","-0.107833","41.14","WYTON, UK","FM-15","EGUY ","V020","320,1,N,0062,1","99999,9,C,N","011265,1,N,1","+9999,9","+9999,9","99999,9","02,5,+00600,1,99,9","04,5,+01500,1,99,9",,,"04,99,1,99,9,99,9,99999,9,99,9,99,9","10091,1,99999,9",,,,"0118,1","MET059METAR EGUY 070950Z 32012G23KT 9999 FEW020 SCT050 Q1009 BLU;","P01 015003SCOCIG"
"03566099999","2010-01-07T10:50:00","4","52.357167","-0.107833","41.14","WYTON, UK","FM-15","EGUY ","V020","320,1,N,0082,1","99999,9,C,N","011265,1,N,1","-0010,1","-0030,1","99999,9","02,5,+00600,1,99,9","04,5,+01500,1,99,9",,,"04,99,1,99,9,99,9,99999,9,99,9,99,9","10102,1,99999,9",,,,,"MET064METAR EGUY 071050Z 32016KT 9999 FEW020 SCT050 M01/M03 Q1010 BLU;","P01 015003SCOCIG"
"03566099999","2010-01-07T11:50:00","4","52.357167","-0.107833","41.14","WYTON, UK","FM-15","EGUY ","V020","320,1,N,0082,1","01500,1,C,N","011265,1,N,1","-0010,1","-0020,1","99999,9","04,5,+00450,1,99,9","07,5,+01500,1,99,9",,,"07,99,1,99,9,99,9,99999,9,99,9,99,9","10102,1,99999,9",,,,,"MET064METAR EGUY 071150Z 32016KT 9999 SCT015 BKN050 M01/M02 Q1010 WHT;",
"03566099999","2010-01-07T12:50:00","4","52.357167","-0.107833","41.14","WYTON, UK","FM-15","EGUY ","V020","330,1,N,0082,1","22000,1,9,N","011265,1,N,1","+0000,1","-0030,1","99999,9","02,5,+00450,1,99,9",,,,"02,99,1,99,9,99,9,99999,9,99,9,99,9","10102,1,99999,9",,,,,"MET057METAR EGUY 071250Z 33016KT 9999 FEW015 M00/M03 Q1010 BLU;",
"03566099999","2010-01-11T07:50:00","4","52.357167","-0.107833","41.14","WYTON, UK","FM-15","EGUY ","V020","060,1,N,0031,1","00480,1,C,N","007000,1,N,1","+0000,1","+0000,1","99999,9","08,5,+00480,1,99,9",,,,"08,99,1,99,9,99,9,99999,9,99,9,99,9","10190,1,99999,9","10,1",,,,"MET058METAR EGUY 110750Z 06006KT 7000 BR OVC016 00/00 Q1019 WHT;",
"03566099999","2010-01-11T08:50:00","4","52.357167","-0.107833","41.14","WYTON, UK","FM-15","EGUY ","V020","050,1,N,0031,1","00600,1,C,N","007000,1,N,1","+0000,1","+0000,1","99999,9","02,5,+00480,1,99,9","08,5,+00600,1,99,9",,,"08,99,1,99,9,99,9,99999,9,99,9,99,9","10200,1,99999,9","10,1",,,,"MET070METAR EGUY 110850Z 05006KT 7000 BR FEW016 OVC020 00/00 Q1020 BLACKWHT;",
"03566099999","2010-01-11T09:50:00","4","52.357167","-0.107833","41.14","WYTON, UK","FM-15","EGUY ","V020","040,1,N,0031,1","00360,1,C,N","005000,1,N,1","+0000,1","+0000,1","99999,9","02,5,+00150,1,99,9","08,5,+00360,1,99,9",,,"08,99,1,99,9,99,9,99999,9,99,9,99,9","10200,1,99999,9","10,1",,,,"MET070METAR EGUY 110950Z 04006KT 5000 BR FEW005 OVC012 00/00 Q1020 BLACKGRN;",
"03566099999","2010-01-11T10:50:00","4","52.357167","-0.107833","41.14","WYTON, UK","FM-15","EGUY ","V020","030,1,N,0031,1","00360,1,C,N","003000,1,N,1","+0010,1","+0000,1","99999,9","02,5,+00150,1,99,9","07,5,+00360,1,99,9","08,5,+00600,1,99,9",,"08,99,1,99,9,99,9,99999,9,99,9,99,9","10200,1,99999,9","10,1",,,,"MET079METAR EGUY 111050Z 03006KT 3000 BR FEW005 BKN012 OVC020 01/M00 Q1020 BLACKYLO1;",
"03566099999","2010-01-11T11:50:00","4","52.357167","-0.107833","41.14","WYTON, UK","FM-15","EGUY ","V020","040,1,N,0026,1","00240,1,C,N","003500,1,N,1","+0010,1","+0000,1","99999,9","02,5,+00150,1,99,9","07,5,+00240,1,99,9","08,5,+00600,1,99,9",,"08,99,1,99,9,99,9,99999,9,99,9,99,9","10200,1,99999,9","10,1",,,,"MET074METAR EGUY 111150Z 04005KT 3500 BR FEW005 BKN008 OVC020 01/M00 Q1020 YLO1;",
"03566099999","2010-01-11T12:50:00","4","52.357167","-0.107833","41.14","WYTON, UK","FM-15","EGUY ","V020","040,1,N,0026,1","00060,1,C,N","001000,1,N,1","+0010,1","+0000,1","99999,9","07,5,+00060,1,99,9","08,5,+00240,1,99,9",,,"08,99,1,99,9,99,9,99999,9,99,9,99,9","10200,1,99999,9","10,1",,,,"MET065METAR EGUY 111250Z 04005KT 1000 BR BKN002 OVC008 01/00 Q1020 AMB;",
"03566099999","2010-01-12T07:50:00","4","52.357167","-0.107833","41.14","WYTON, UK","FM-15","EGUY ","V020","100,1,N,0021,1","00480,1,C,N","007000,1,N,1","+0000,1","+0000,1","99999,9","08,5,+00480,1,99,9",,,,"08,99,1,99,9,99,9,99999,9,99,9,99,9","10129,1,99999,9","10,1",,,,"MET059METAR EGUY 120750Z 10004KT 7000 BR OVC016 00/M00 Q1013 WHT;",
"03566099999","2010-01-12T08:50:00","4","52.357167","-0.107833","41.14","WYTON, UK","FM-15","EGUY ","V020","090,1,N,0031,1","00480,1,C,N","008000,1,N,1","+0010,1","+0000,1","99999,9","08,5,+00480,1,99,9",,,,"08,99,1,99,9,99,9,99999,9,99,9,99,9","10129,1,99999,9","10,1",,,,"MET058METAR EGUY 120850Z 09006KT 8000 BR OVC016 01/00 Q1013 WHT;",
"03566099999","2010-01-12T09:50:00","4","52.357167","-0.107833","41.14","WYTON, UK","FM-15","EGUY ","V020","110,1,N,0026,1","00480,1,C,N","007000,1,N,1","+0010,1","+0000,1","99999,9","08,5,+00480,1,99,9",,,,"08,99,1,99,9,99,9,99999,9,99,9,99,9","10119,1,99999,9","10,1",,,,"MET058METAR EGUY 120950Z 11005KT 7000 BR OVC016 01/00 Q1012 WHT;",
"03566099999","2010-01-12T10:50:00","4","52.357167","-0.107833","41.14","WYTON, UK","FM-15","EGUY ","V020","140,1,N,0031,1","00480,1,C,N","003500,1,N,1","+0010,1","+0000,1","99999,9","04,5,+00330,1,99,9","08,5,+00480,1,99,9",,,"08,99,1,99,9,99,9,99999,9,99,9,99,9","10108,1,99999,9","61,1","71,1",,,"MET074METAR EGUY 121050Z 14006KT 3500 -RASN SCT011 OVC016 01/00 Q1011 BLACKYLO1;",
"03566099999","2010-01-12T11:50:00","4","52.357167","-0.107833","41.14","WYTON, UK","FM-15","EGUY ","V020","100,1,N,0036,1","00480,1,C,N","003500,1,N,1","+0010,1","+0000,1","99999,9","04,5,+00060,1,99,9","08,5,+00480,1,99,9",,,"08,99,1,99,9,99,9,99999,9,99,9,99,9","10102,1,99999,9","61,1","71,1",,,"MET068METAR EGUY 121150Z 10007KT 3500 -RASN SCT002 OVC016 01/00 Q1010 AMB;",
"03566099999","2010-01-12T12:50:00","4","52.357167","-0.107833","41.14","WYTON, UK","FM-15","EGUY ","V020","120,1,N,0041,1","00150,5,9,N","004000,1,N,1","+0010,1","+0000,1","99999,9","07,5,+00150,5,99,9",,,,,"10080,1,99999,9","51,1",,,,"MET067METAR EGUY 121250Z 12008KT 4000 -DZ 4000 BKN005 01/00 Q1008 BLKYLO;",
"03566099999","2010-01-12T13:50:00","4","52.357167","-0.107833","41.14","WYTON, UK","FM-15","EGUY ","V020","120,1,N,0062,1","99999,9,C,N","008000,1,N,1","+0020,1","+0000,1","99999,9","02,5,+00300,1,99,9","04,5,+00900,1,99,9",,,"04,99,1,99,9,99,9,99999,9,99,9,99,9","10071,1,99999,9","05,1",,,,"MET069METAR EGUY 121350Z 12012KT 8000 HZ FEW010 SCT030 02/M00 Q1007 BLKBLU;","P01 009003SCOCIG"
"03566099999","2010-01-12T14:50:00","4","52.357167","-0.107833","41.14","WYTON, UK","FM-15","EGUY ","V020","110,1,N,0057,1","99999,9,C,N","011265,1,N,1","+0020,1","+0000,1","99999,9","02,5,+00300,1,99,9","04,5,+00540,1,99,9","04,5,+00900,1,99,9",,"04,99,1,99,9,99,9,99999,9,99,9,99,9","10061,1,99999,9",,,,,"MET070METAR EGUY 121450Z 11011KT 9999 FEW010 SCT018 SCT030 02/M00 Q1006 WHT;","P01 005403SCOCIG"
"03566099999","2010-01-12T15:50:00","4","52.357167","-0.107833","41.14","WYTON, UK","FM-15","EGUY ","V020","130,1,N,0067,1","00540,1,C,N","011265,1,N,1","+0010,1","-0010,1","99999,9","07,5,+00540,1,99,9",,,,"07,99,1,99,9,99,9,99999,9,99,9,99,9","10061,1,99999,9",,,,,"MET056METAR EGUY 121550Z 13013KT 9999 BKN018 01/M01 Q1006 WHT;",
"03566099999","2010-01-13T07:50:00","4","52.357167","-0.107833","41.14","WYTON, UK","FM-15","EGUY ","V020","070,1,N,0031,1","00360,1,C,N","007000,1,N,1","+0000,1","-0010,1","99999,9","07,5,+00360,1,99,9","08,5,+00480,1,99,9",,,"08,99,1,99,9,99,9,99999,9,99,9,99,9","10010,1,99999,9","05,1",,,,"MET066METAR EGUY 130750Z 07006KT 7000 HZ BKN012 OVC016 00/M01 Q1001 GRN;",
"03566099999","2010-01-13T08:50:00","4","52.357167","-0.107833","41.14","WYTON, UK","FM-15","EGUY ","V020","050,1,N,0031,1","00540,1,C,N","005000,1,N,1","+0000,1","-0010,1","99999,9","02,5,+00360,1,99,9","08,5,+00540,1,99,9",,,"08,99,1,99,9,99,9,99999,9,99,9,99,9","10010,1,99999,9","05,1",,,,"MET066METAR EGUY 130850Z 05006KT 5000 HZ FEW012 OVC018 00/M01 Q1001 WHT;",
"03566099999","2010-01-13T09:50:00","4","52.357167","-0.107833","41.14","WYTON, UK","FM-15","EGUY ","V020","070,1,N,0021,1","00450,1,C,N","004500,1,N,1","+0000,1","-0010,1","99999,9","08,5,+00450,1,99,9",,,,"08,99,1,99,9,99,9,99999,9,99,9,99,9","10010,1,99999,9","05,1",,,,"MET059METAR EGUY 130950Z 07004KT 4500 HZ OVC015 00/M01 Q1001 GRN;",
"03566099999","2010-01-13T10:50:00","4","52.357167","-0.107833","41.14","WYTON, UK","FM-15","EGUY ","V020","060,1,N,0021,1","00450,1,C,N","004200,1,N,1","+0010,1","-0010,1","99999,9","04,5,+00390,1,99,9","08,5,+00450,1,99,9",,,"08,99,1,99,9,99,9,99999,9,99,9,99,9","10010,1,99999,9","05,1",,,,"MET066METAR EGUY 131050Z 06004KT 4200 HZ SCT013 OVC015 01/M01 Q1001 GRN;",
"03566099999","2010-01-13T11:50:00","4","52.357167","-0.107833","41.14","WYTON, UK","FM-15","EGUY ","V020","060,1,N,0026,1","00450,1,C,N","004000,1,N,1","+0010,1","+0000,1","99999,9","04,5,+00390,1,99,9","08,5,+00450,1,99,9",,,"08,99,1,99,9,99,9,99999,9,99,9,99,9","10010,1,99999,9","71,1",,,,"MET067METAR EGUY 131150Z 06005KT 4000 -SN SCT013 OVC015 01/M00 Q1001 GRN;",
"03566099999","2010-01-13T12:50:00","4","52.357167","-0.107833","41.14","WYTON, UK","FM-15","EGUY ","V020","060,1,N,0021,1","00450,1,C,N","001800,1,N,1","+0000,1","+0000,1","99999,9","08,5,+00450,1,99,9",,,,"08,99,1,99,9,99,9,99999,9,99,9,99,9","10010,1,99999,9","73,1",,,,"MET060METAR EGUY 131250Z 06004KT 1800 SN OVC015 00/M00 Q1001 YLO2;",
"03566099999","2010-01-13T13:50:00","4","52.357167","-0.107833","41.14","WYTON, UK","FM-15","EGUY ","V020","080,1,N,0021,1","00270,1,C,N","002800,1,N,1","+0010,1","+0000,1","99999,9","02,5,+00150,1,99,9","04,5,+00270,1,99,9","08,5,+00450,1,99,9",,"08,99,1,99,9,99,9,99999,9,99,9,99,9","10010,1,99999,9","71,1",,,,"MET074METAR EGUY 131350Z 08004KT 2800 -SN FEW005 SCT009 OVC015 01/00 Q1001 YLO1;",
"03566099999","2010-01-14T07:50:00","4","52.357167","-0.107833","41.14","WYTON, UK","FM-15","EGUY ","V020","040,1,N,0015,1","00015,1,C,N","000200,1,N,1","+0000,1","-0010,1","99999,9","09,1,+00015,1,99,9",,,,"09,99,1,99,9,99,9,00025,1,99,9,99,9","10031,1,99999,9","49,1",,,,"MET061METAR EGUY 140750Z 04003KT 0200 FZFG VV/// M00/M01 Q1003 RED;",
"03566099999","2010-01-14T08:50:00","4","52.357167","-0.107833","41.14","WYTON, UK","FM-15","EGUY ","V020","050,1,N,0021,1","00015,1,C,N","000200,1,N,1","+0000,1","-0010,1","99999,9","09,1,+00015,1,99,9",,,,"09,99,1,99,9,99,9,00025,1,99,9,99,9","10031,1,99999,9","49,1",,,,"MET061METAR EGUY 140850Z 05004KT 0200 FZFG VV/// M00/M01 Q1003 RED;",
"03566099999","2010-01-14T09:50:00","4","52.357167","-0.107833","41.14","WYTON, UK","FM-15","EGUY ","V020","030,1,N,0021,1","00030,1,C,N","000200,1,N,1","+0000,1","-0010,1","99999,9","08,5,+00030,1,99,9",,,,"08,99,1,99,9,99,9,99999,9,99,9,99,9","10041,1,99999,9","63,1",,,,"MET059METAR EGUY 140950Z 03004KT 0200 RA OVC001 00/M01 Q1004 RED;",
"03566099999","2010-01-14T10:50:00","4","52.357167","-0.107833","41.14","WYTON, UK","FM-15","EGUY ","V020","030,1,N,0021,1","00150,1,C,N","000800,1,N,1","+0010,1","+0010,1","99999,9","04,5,+00060,1,99,9","08,5,+00150,1,99,9",,,"08,99,1,99,9,99,9,99999,9,99,9,99,9","10051,1,99999,9","63,1",,,,"MET065METAR EGUY 141050Z 03004KT 0800 RA SCT002 OVC005 01/01 Q1005 AMB;",
"03566099999","2010-01-14T11:50:00","4","52.357167","-0.107833","41.14","WYTON, UK","FM-15","EGUY ","V020","010,1,N,0036,1","00060,1,C,N","000700,1,N,1","+0010,1","+0010,1","99999,9","08,5,+00060,1,99,9",,,,"08,99,1,99,9,99,9,99999,9,99,9,99,9","10051,1,99999,9","63,1",,,,"MET058METAR EGUY 141150Z 01007KT 0700 RA OVC002 01/01 Q1005 RED;",
"03566099999","2010-01-14T12:50:00","4","52.357167","-0.107833","41.14","WYTON, UK","FM-15","EGUY ","V020","360,1,N,0031,1","00150,1,C,N","000600,1,N,1","+0010,1","+0010,1","99999,9","04,5,+00060,1,99,9","08,5,+00150,1,99,9",,,"08,99,1,99,9,99,9,99999,9,99,9,99,9","10051,1,99999,9","63,1",,,,"MET065METAR EGUY 141250Z 36006KT 0600 RA SCT002 OVC005 01/01 Q1005 RED;",
"03566099999","2010-01-15T07:50:00","4","52.357167","-0.107833","41.14","WYTON, UK","FM-15","EGUY ","V020","180,1,N,0051,1","00015,1,C,N","000400,1,N,1","+0000,1","-0010,1","99999,9","09,1,+00015,1,99,9",,,,"09,99,1,99,9,99,9,00025,1,99,9,99,9","10169,1,99999,9","45,1",,,,"MET058METAR EGUY 150750Z 18010KT 0400 FG VV/// 00/M01 Q1017 RED;",
"03566099999","2010-01-15T08:50:00","4","52.357167","-0.107833","41.14","WYTON, UK","FM-15","EGUY ","V020","170,1,N,0041,1","00060,1,C,N","000900,1,N,1","+0000,1","+0000,1","99999,9","07,5,+00060,1,99,9","08,5,+00150,1,99,9",,,"08,99,1,99,9,99,9,99999,9,99,9,99,9","10169,1,99999,9","44,1",,,,"MET065METAR EGUY 150850Z 17008KT 0900 FG BKN002 OVC005 00/00 Q1017 AMB;",
"03566099999","2010-01-15T09:50:00","4","52.357167","-0.107833","41.14","WYTON, UK","FM-15","EGUY ","V020","180,1,N,0051,1","00090,1,C,N","002000,1,N,1","+0010,1","+0010,1","99999,9","08,5,+00090,1,99,9",,,,"08,99,1,99,9,99,9,99999,9,99,9,99,9","10169,1,99999,9","10,1",,,,"MET059METAR EGUY 150950Z 18010KT 2000 BR OVC003 01/01 Q1017 YLO2;",
"03566099999","2010-01-15T10:50:00","4","52.357167","-0.107833","41.14","WYTON, UK","FM-15","EGUY ","V020","170,1,N,0041,1","00120,1,C,N","003000,1,N,1","+0010,1","+0010,1","99999,9","08,5,+00120,1,99,9",,,,"08,99,1,99,9,99,9,99999,9,99,9,99,9","10169,1,99999,9","63,1",,,,"MET059METAR EGUY 151050Z 17008KT 3000 RA OVC004 01/01 Q1017 YLO2;",
"03566099999","2010-01-15T11:50:00","4","52.357167","-0.107833","41.14","WYTON, UK","FM-15","EGUY ","V020","160,1,N,0051,1","00900,1,C,N","004000,1,N,1","+0020,1","+0020,1","99999,9","04,5,+00150,1,99,9","08,5,+00900,1,99,9",,,"08,99,1,99,9,99,9,99999,9,99,9,99,9","10169,1,99999,9","63,1",,,,"MET066METAR EGUY 151150Z 16010KT 4000 RA SCT005 OVC030 02/02 Q1017 YLO1;",
"03566099999","2010-01-15T12:30:00","4","52.357167","-0.107833","41.14","WYTON, UK","FM-15","EGUY ","V020","170,1,N,0036,1","00210,1,C,N","004500,1,N,1","+0030,1","+0030,1","99999,9","08,5,+00210,1,99,9",,,,"08,99,1,99,9,99,9,99999,9,99,9,99,9","10169,1,99999,9","61,1",,,,"MET059METAR EGUY 151230Z 17007KT 4500 -RA OVC007 03/03 Q1017 GRN;",
"03566099999","2010-01-15T13:50:00","4","52.357167","-0.107833","41.14","WYTON, UK","FM-15","EGUY ","V020","160,1,N,0062,1","00240,1,C,N","005000,1,N,1","+0030,1","+0030,1","99999,9","08,5,+00240,1,99,9",,,,"08,99,1,99,9,99,9,99999,9,99,9,99,9","10169,1,99999,9","10,1",,,,"MET058METAR EGUY 151350Z 16012KT 5000 BR OVC008 03/03 Q1017 GRN;",
"03566099999","2010-01-15T14:50:00","4","52.357167","-0.107833","41.14","WYTON, UK","FM-15","EGUY ","V020","170,1,N,0062,1","00210,1,C,N","007000,1,N,1","+0040,1","+0040,1","99999,9","02,5,+00180,1,99,9","08,5,+00210,1,99,9",,,"08,99,1,99,9,99,9,99999,9,99,9,99,9","10169,1,99999,9","10,1",,,,"MET065METAR EGUY 151450Z 17012KT 7000 BR FEW006 OVC007 04/04 Q1017 GRN;",
"03566099999","2010-01-15T15:03:00","4","52.357167","-0.107833","41.14","WYTON, UK","FM-15","EGUY ","V020","170,1,N,0051,1","00180,1,C,N","007000,1,N,1","+0050,1","+0050,1","99999,9","07,5,+00180,1,99,9","08,5,+00210,1,99,9",,,"08,99,1,99,9,99,9,99999,9,99,9,99,9","10169,1,99999,9","10,1",,,,"MET066METAR EGUY 151503Z 17010KT 7000 BR BKN006 OVC007 05/05 Q1017 YLO2;",
"03566099999","2010-01-17T07:50:00","4","52.357167","-0.107833","41.14","WYTON, UK","FM-15","EGUY ","V020","230,1,N,0036,1","99999,9,9,Y","009900,1,N,1","+0020,1","+0020,1","99999,9",,,,,,"10129,1,99999,9",,,,,"MET049METAR EGUY 170750Z 23007KT CAVOK 02/02 Q1013 BLU;",
"03566099999","2010-01-17T08:50:00","4","52.357167","-0.107833","41.14","WYTON, UK","FM-15","EGUY ","V020","220,1,N,0041,1","99999,9,9,Y","009900,1,N,1","+0020,1","+0020,1","99999,9",,,,,,"10139,1,99999,9",,,,,"MET049METAR EGUY 170850Z 22008KT CAVOK 02/02 Q1014 BLU;",
"03566099999","2010-01-17T09:50:00","4","52.357167","-0.107833","41.14","WYTON, UK","FM-15","EGUY ","V020","230,1,N,0041,1","99999,9,9,Y","009900,1,N,1","+0040,1","+0030,1","99999,9",,,,,,"10149,1,99999,9",,,,,"MET049METAR EGUY 170950Z 23008KT CAVOK 04/03 Q1015 BLU;",
"03566099999","2010-01-17T10:50:00","4","52.357167","-0.107833","41.14","WYTON, UK","FM-15","EGUY ","V020","260,1,N,0041,1","99999,9,9,Y","009900,1,N,1","+0060,1","+0030,1","99999,9",,,,,,"10159,1,99999,9",,,,,"MET049METAR EGUY 171050Z 26008KT CAVOK 06/03 Q1016 BLU;",
"03566099999","2010-01-17T11:50:00","4","52.357167","-0.107833","41.14","WYTON, UK","FM-15","EGUY ","V020","260,1,N,0072,1","99999,9,9,Y","009900,1,N,1","+0070,1","+0040,1","99999,9",,,,,,"10159,1,99999,9",,,,,"MET049METAR EGUY 171150Z 26014KT CAVOK 07/04 Q1016 BLU;",
"03566099999","2010-01-17T12:50:00","4","52.357167","-0.107833","41.14","WYTON, UK","FM-15","EGUY ","V020","260,1,N,0062,1","99999,9,9,Y","009900,1,N,1","+0070,1","+0050,1","99999,9",,,,,,"10169,1,99999,9",,,,,"MET049METAR EGUY 171250Z 26012KT CAVOK 07/05 Q1017 BLU;",
"03566099999","2010-01-17T13:50:00","4","52.357167","-0.107833","41.14","WYTON, UK","FM-15","EGUY ","V020","270,1,N,0051,1","99999,9,9,Y","009900,1,N,1","+0070,1","+0040,1","99999,9",,,,,,"10169,1,99999,9",,,,,"MET049METAR EGUY 171350Z 27010KT CAVOK 07/04 Q1017 BLU;",
"03566099999","2010-01-17T14:50:00","4","52.357167","-0.107833","41.14","WYTON, UK","FM-15","EGUY ","V020","270,1,N,0051,1","99999,9,C,N","011265,1,N,1","+0070,1","+0050,1","99999,9","02,5,+00450,1,99,9","04,5,+04500,1,99,9",,,"04,99,1,99,9,99,9,99999,9,99,9,99,9","10180,1,99999,9",,,,,"MET062METAR EGUY 171450Z 27010KT 9999 FEW015 SCT150 07/05 Q1018 BLU;","P01 045003SCOCIG"
"03566099999","2010-01-17T15:50:00","4","52.357167","-0.107833","41.14","WYTON, UK","FM-15","EGUY ","V020","250,1,N,0057,1","99999,9,9,Y","009900,1,N,1","+0070,1","+0040,1","99999,9",,,,,,"10180,1,99999,9",,,,,"MET049METAR EGUY 171550Z 25011KT CAVOK 07/04 Q1018 BLU;",
"03566099999","2010-01-18T07:50:00","4","52.357167","-0.107833","41.14","WYTON, UK","FM-15","EGUY ","V020","230,1,N,0062,1","00210,1,C,N","007000,1,N,1","+0050,1","+0050,1","99999,9","02,5,+00150,1,99,9","08,5,+00210,1,99,9",,,"08,99,1,99,9,99,9,99999,9,99,9,99,9","10230,1,99999,9","10,1",,,,"MET065METAR EGUY 180750Z 23012KT 7000 BR FEW005 OVC007 05/05 Q1023 GRN;",
"03566099999","2010-01-18T08:20:00","4","52.357167","-0.107833","41.14","WYTON, UK","FM-15","EGUY ","V020","230,1,N,0057,1","00090,1,C,N","004000,1,N,1","+0050,1","+0050,1","99999,9","07,5,+00090,1,99,9","08,5,+00210,1,99,9",,,"08,99,1,99,9,99,9,99999,9,99,9,99,9","10230,1,99999,9","10,1",,,,"MET066METAR EGUY 180820Z 23011KT 4000 BR BKN003 OVC007 05/05 Q1023 YLO2;",
"03566099999","2010-01-18T08:50:00","4","52.357167","-0.107833","41.14","WYTON, UK","FM-15","EGUY ","V020","220,1,N,0051,1","00090,1,C,N","003500,1,N,1","+0050,1","+0050,1","99999,9","07,5,+00090,1,99,9",,,,"07,99,1,99,9,99,9,99999,9,99,9,99,9","10230,1,99999,9","10,1",,,,"MET059METAR EGUY 180850Z 22010KT 3500 BR BKN003 05/05 Q1023 YLO2;",
"03566099999","2010-01-18T09:05:00","4","52.357167","-0.107833","41.14","WYTON, UK","FM-15","EGUY ","V020","230,1,N,0057,1","00060,1,C,N","000900,1,N,1","+0050,1","+0050,1","99999,9","08,5,+00060,1,99,9",,,,"08,99,1,99,9,99,9,99999,9,99,9,99,9","10230,1,99999,9","44,1",,,,"MET058METAR EGUY 180905Z 23011KT 0900 FG OVC002 05/05 Q1023 AMB;",
"03566099999","2010-01-18T09:50:00","4","52.357167","-0.107833","41.14","WYTON, UK","FM-15","EGUY ","V020","220,1,N,0051,1","00120,1,C,N","006000,1,N,1","+0050,1","+0050,1","99999,9","07,5,+00120,1,99,9",,,,"07,99,1,99,9,99,9,99999,9,99,9,99,9","10240,1,99999,9","10,1",,,,"MET059METAR EGUY 180950Z 22010KT 6000 BR BKN004 05/05 Q1024 YLO2;",
"03566099999","2010-01-18T10:50:00","4","52.357167","-0.107833","41.14","WYTON, UK","FM-15","EGUY ","V020","230,1,N,0072,1","00120,1,C,N","007000,1,N,1","+0060,1","+0060,1","99999,9","07,5,+00120,1,99,9",,,,"07,99,1,99,9,99,9,99999,9,99,9,99,9","10240,1,99999,9","10,1",,,,"MET059METAR EGUY 181050Z 23014KT 7000 BR BKN004 06/06 Q1024 YLO2;",
"03566099999","2010-01-18T11:50:00","4","52.357167","-0.107833","41.14","WYTON, UK","FM-15","EGUY ","V020","240,1,N,0051,1","00270,1,C,N","011265,1,N,1","+0070,1","+0060,1","99999,9","02,5,+00150,1,99,9","07,5,+00270,1,99,9",,,"07,99,1,99,9,99,9,99999,9,99,9,99,9","10230,1,99999,9",,,,,"MET062METAR EGUY 181150Z 24010KT 9999 FEW005 BKN009 07/06 Q1023 GRN;",
"03566099999","2010-01-18T12:25:00","4","52.357167","-0.107833","41.14","WYTON, UK","FM-15","EGUY ","V020","250,1,N,0062,1","99999,9,C,N","011265,1,N,1","+0080,1","+0070,1","99999,9","02,5,+00210,1,99,9","04,5,+04500,1,99,9",,,"04,99,1,99,9,99,9,99999,9,99,9,99,9","10230,1,99999,9",,,,,"MET062METAR EGUY 181225Z 25012KT 9999 FEW007 SCT150 08/07 Q1023 BLU;","P01 045003SCOCIG"
"03566099999","2010-01-18T12:50:00","4","52.357167","-0.107833","41.14","WYTON, UK","FM-15","EGUY ","V020","240,1,N,0057,1","04500,5,9,N","999999,9,N,1","+0090,1","+0070,1","99999,9","02,5,+00240,5,99,9","04,5,+04500,5,99,9",,,,"10230,1,99999,9",,,,,"MET061METAR EGUY 181250Z 24011KT 999 FEW008 SCT150 09/07 Q1023 BLU;",
"03566099999","2010-01-18T13:50:00","4","52.357167","-0.107833","41.14","WYTON, UK","FM-15","EGUY ","V020","240,1,N,0057,1","04500,1,C,N","011265,1,N,1","+0080,1","+0070,1","99999,9","02,5,+00300,1,99,9","07,5,+04500,1,99,9",,,"07,99,1,99,9,99,9,99999,9,99,9,99,9","10230,1,99999,9",,,,,"MET062METAR EGUY 181350Z 24011KT 9999 FEW010 BKN150 08/07 Q1023 BLU;",
"03566099999","2010-01-18T14:50:00","4","52.357167","-0.107833","41.14","WYTON, UK","FM-15","EGUY ","V020","240,1,N,0051,1","03600,1,C,N","011265,1,N,1","+0090,1","+0070,1","99999,9","07,5,+03600,1,99,9",,,,"07,99,1,99,9,99,9,99999,9,99,9,99,9","10230,1,99999,9",,,,,"MET055METAR EGUY 181450Z 24010KT 9999 BKN120 09/07 Q1023 BLU;",
"03566099999","2010-01-18T15:50:00","4","52.357167","-0.107833","41.14","WYTON, UK","FM-15","EGUY ","V020","230,1,N,0026,1","99999,9,9,Y","009900,1,N,1","+0080,1","+0070,1","99999,9",,,,,,"10240,1,99999,9",,,,,"MET049METAR EGUY 181550Z 23005KT CAVOK 08/07 Q1024 BLU;",
"03566099999","2010-01-19T07:50:00","4","52.357167","-0.107833","41.14","WYTON, UK","FM-15","EGUY ","V020","080,1,N,0026,1","00240,1,C,N","000600,1,N,1","+0050,1","+0050,1","99999,9","04,5,+00060,1,99,9","07,5,+00240,1,99,9","08,5,+01200,1,99,9",,"08,99,1,99,9,99,9,99999,9,99,9,99,9","10230,1,99999,9","44,1",,,,"MET072METAR EGUY 190750Z 08005KT 0600 FG SCT002 BKN008 OVC040 05/05 Q1023 RED;",
"03566099999","2010-01-19T08:50:00","4","52.357167","-0.107833","41.14","WYTON, UK","FM-15","EGUY ","V020","100,1,N,0021,1","00060,1,C,N","000400,1,N,1","+0050,1","+0050,1","99999,9","08,5,+00060,1,99,9",,,,"08,99,1,99,9,99,9,99999,9,99,9,99,9","10230,1,99999,9","44,1",,,,"MET058METAR EGUY 190850Z 10004KT 0400 FG OVC002 05/05 Q1023 RED;",
"03566099999","2010-01-19T10:50:00","4","52.357167","-0.107833","41.14","WYTON, UK","FM-15","EGUY ","V020","090,1,N,0031,1","00060,1,C,N","000200,1,N,1","+0060,1","+0060,1","99999,9","07,5,+00060,1,99,9","08,5,+00180,1,99,9",,,"08,99,1,99,9,99,9,99999,9,99,9,99,9","10230,1,99999,9","44,1",,,,"MET065METAR EGUY 191050Z 09006KT 0200 FG BKN002 OVC006 06/06 Q1023 RED;",
"03566099999","2010-01-19T11:50:00","4","52.357167","-0.107833","41.14","WYTON, UK","FM-15","EGUY ","V020","090,1,N,0026,1","00060,1,C,N","000400,1,N,1","+0060,1","+0060,1","99999,9","08,5,+00060,1,99,9",,,,"08,99,1,99,9,99,9,99999,9,99,9,99,9","10230,1,99999,9","44,1",,,,"MET058METAR EGUY 191150Z 09005KT 0400 FG OVC002 06/06 Q1023 RED;",
"03566099999","2010-01-19T12:50:00","4","52.357167","-0.107833","41.14","WYTON, UK","FM-15","EGUY ","V020","060,1,N,0046,1","00060,1,C,N","000600,1,N,1","+0060,1","+0060,1","99999,9","08,5,+00060,1,99,9",,,,"08,99,1,99,9,99,9,99999,9,99,9,99,9","10220,1,99999,9","44,1",,,,"MET058METAR EGUY 191250Z 06009KT 0600 FG OVC002 06/06 Q1022 RED;",
"03566099999","2010-01-19T13:50:00","4","52.357167","-0.107833","41.14","WYTON, UK","FM-15","EGUY ","V020","090,1,N,0041,1","00120,1,C,N","005000,1,N,1","+0060,1","+0060,1","99999,9","02,5,+00060,1,99,9","08,5,+00120,1,99,9",,,"08,99,1,99,9,99,9,99999,9,99,9,99,9","10210,1,99999,9","10,1",,,,"MET066METAR EGUY 191350Z 09008KT 5000 BR FEW002 OVC004 06/06 Q1021 YLO2;",
"03566099999","2010-01-19T14:50:00","4","52.357167","-0.107833","41.14","WYTON, UK","FM-15","EGUY ","V020","090,1,N,0051,1","00180,1,C,N","005000,1,N,1","+0060,1","+0060,1","99999,9","02,5,+00120,1,99,9","07,5,+00180,1,99,9",,,"07,99,1,99,9,99,9,99999,9,99,9,99,9","10210,1,99999,9","10,1",,,,"MET066METAR EGUY 191450Z 09010KT 5000 BR FEW004 BKN006 06/06 Q1021 YLO1;",
"03566099999","2010-01-20T07:50:00","4","52.357167","-0.107833","41.14","WYTON, UK","FM-15","EGUY ","V020","090,1,N,0057,1","01200,1,C,N","011265,1,N,1","+0030,1","+0010,1","99999,9","04,5,+00750,1,99,9","07,5,+01200,1,99,9",,,"07,99,1,99,9,99,9,99999,9,99,9,99,9","10108,1,99999,9",,,,,"MET062METAR EGUY 200750Z 09011KT 9999 SCT025 BKN040 03/01 Q1011 BLU;",
"03566099999","2010-01-20T08:50:00","4","52.357167","-0.107833","41.14","WYTON, UK","FM-15","EGUY ","V020","090,1,N,0041,1","00600,1,C,N","011265,1,N,1","+0030,1","+0010,1","99999,9","07,5,+00600,1,99,9",,,,"07,99,1,99,9,99,9,99999,9,99,9,99,9","10108,1,99999,9",,,,,"MET055METAR EGUY 200850Z 09008KT 9999 BKN020 03/01 Q1011 WHT;",
"03566099999","2010-01-20T09:50:00","4","52.357167","-0.107833","41.14","WYTON, UK","FM-15","EGUY ","V020","090,1,N,0046,1","00600,1,C,N","011265,1,N,1","+0030,1","+0020,1","99999,9","04,5,+00450,1,99,9","07,5,+00600,1,99,9",,,"07,99,1,99,9,99,9,99999,9,99,9,99,9","10119,1,99999,9",,,,,"MET062METAR EGUY 200950Z 09009KT 9999 SCT015 BKN020 03/02 Q1012 WHT;",
"03566099999","2010-01-20T10:50:00","4","52.357167","-0.107833","41.14","WYTON, UK","FM-15","EGUY ","V020","100,1,N,0051,1","00510,1,C,N","011265,1,N,1","+0040,1","+0020,1","99999,9","04,5,+00390,1,99,9","07,5,+00510,1,99,9",,,"07,99,1,99,9,99,9,99999,9,99,9,99,9","10119,1,99999,9",,,,,"MET062METAR EGUY 201050Z 10010KT 9999 SCT013 BKN017 04/02 Q1012 GRN;",
"03566099999","2010-01-20T11:50:00","4","52.357167","-0.107833","41.14","WYTON, UK","FM-15","EGUY ","V020","100,1,N,0051,1","00390,1,C,N","011265,1,N,1","+0040,1","+0010,1","99999,9","02,5,+00300,1,99,9","04,5,+00390,1,99,9","07,5,+00540,1,99,9",,"07,99,1,99,9,99,9,99999,9,99,9,99,9","10108,1,99999,9",,,,,"MET069METAR EGUY 201150Z 10010KT 9999 FEW010 SCT013 BKN018 04/01 Q1011 GRN;",
"03566099999","2010-01-20T12:50:00","4","52.357167","-0.107833","41.14","WYTON, UK","FM-15","EGUY ","V020","090,1,N,0046,1","00360,1,C,N","009000,1,N,1","+0040,1","+0020,1","99999,9","02,5,+00300,1,99,9","04,5,+00360,1,99,9","08,5,+00600,1,99,9",,"08,99,1,99,9,99,9,99999,9,99,9,99,9","10108,1,99999,9","05,1",,,,"MET072METAR EGUY 201250Z 09009KT 9000 HZ FEW010 SCT012 OVC020 04/02 Q1011 GRN;",
"03566099999","2010-01-20T13:50:00","4","52.357167","-0.107833","41.14","WYTON, UK","FM-15","EGUY ","V020","080,1,N,0057,1","00600,1,C,N","011265,1,N,1","+0040,1","+0010,1","99999,9","04,5,+00360,1,99,9","08,5,+00600,1,99,9",,,"08,99,1,99,9,99,9,99999,9,99,9,99,9","10108,1,99999,9",,,,,"MET062METAR EGUY 201350Z 08011KT 9999 SCT012 OVC020 04/01 Q1011 GRN;",
"03566099999","2010-01-20T14:50:00","4","52.357167","-0.107833","41.14","WYTON, UK","FM-15","EGUY ","V020","100,1,N,0046,1","00540,1,C,N","011265,1,N,1","+0040,1","+0010,1","99999,9","02,5,+00360,1,99,9","07,5,+00540,1,99,9",,,"07,99,1,99,9,99,9,99999,9,99,9,99,9","10108,1,99999,9",,,,,"MET062METAR EGUY 201450Z 10009KT 9999 FEW012 BKN018 04/01 Q1011 WHT;",
"03566099999","2010-01-20T15:50:00","4","52.357167","-0.107833","41.14","WYTON, UK","FM-15","EGUY ","V020","080,1,N,0026,1","00540,1,C,N","011265,1,N,1","+0040,1","+0020,1","99999,9","07,5,+00540,1,99,9",,,,"07,99,1,99,9,99,9,99999,9,99,9,99,9","10119,1,99999,9",,,,,"MET055METAR EGUY 201550Z 08005KT 9999 BKN018 04/02 Q1012 WHT;",
"03566099999","2010-01-21T07:50:00","4","52.357167","-0.107833","41.14","WYTON, UK","FM-15","EGUY ","V020","160,1,N,0010,1","01050,1,C,N","003500,1,N,1","+0020,1","+0020,1","99999,9","02,5,+00300,1,99,9","08,5,+01050,1,99,9",,,"08,99,1,99,9,99,9,99999,9,99,9,99,9","10190,1,99999,9","10,1",,,,"MET066METAR EGUY 210750Z 16002KT 3500 BR FEW010 OVC035 02/02 Q1019 YLO1;",
"03566099999","2010-01-21T08:50:00","4","52.357167","-0.107833","41.14","WYTON, UK","FM-15","EGUY ","V020","999,9,V,0010,1","01050,1,C,N","004000,1,N,1","+0020,1","+0020,1","99999,9","02,5,+00210,1,99,9","08,5,+01050,1,99,9",,,"08,99,1,99,9,99,9,99999,9,99,9,99,9","10200,1,99999,9","10,1",,,,"MET065METAR EGUY 210850Z VRB02KT 4000 BR FEW007 OVC035 02/02 Q1020 GRN;",
"03566099999","2010-01-21T09:50:00","4","52.357167","-0.107833","41.14","WYTON, UK","FM-15","EGUY ","V020","999,9,V,0010,1","01110,1,C,N","004000,1,N,1","+0030,1","+0020,1","99999,9","08,5,+01110,1,99,9",,,,"08,99,1,99,9,99,9,99999,9,99,9,99,9","10200,1,99999,9","10,1",,,,"MET058METAR EGUY 210950Z VRB02KT 4000 BR OVC037 03/02 Q1020 GRN;",
"03566099999","2010-01-21T10:50:00","4","52.357167","-0.107833","41.14","WYTON, UK","FM-15","EGUY ","V020","210,1,N,0021,1","01110,1,C,N","004000,1,N,1","+0030,1","+0030,1","99999,9","08,5,+01110,1,99,9",,,,"08,99,1,99,9,99,9,99999,9,99,9,99,9","10210,1,99999,9","10,1",,,,"MET058METAR EGUY 211050Z 21004KT 4000 BR OVC037 03/03 Q1021 GRN;",
"03566099999","2010-01-21T11:50:00","4","52.357167","-0.107833","41.14","WYTON, UK","FM-15","EGUY ","V020","999,9,V,0015,1","00930,1,C,N","004000,1,N,1","+0040,1","+0020,1","99999,9","08,5,+00930,1,99,9",,,,"08,99,1,99,9,99,9,99999,9,99,9,99,9","10200,1,99999,9","10,1",,,,"MET058METAR EGUY 211150Z VRB03KT 4000 BR OVC031 04/02 Q1020 GRN;",
"03566099999","2010-01-21T12:50:00","4","52.357167","-0.107833","41.14","WYTON, UK","FM-15","EGUY ","V020","999,9,V,0015,1","00900,1,C,N","004200,1,N,1","+0040,1","+0030,1","99999,9","07,5,+00900,1,99,9",,,,"07,99,1,99,9,99,9,99999,9,99,9,99,9","10200,1,99999,9","05,1",,,,"MET058METAR EGUY 211250Z VRB03KT 4200 HZ BKN030 04/03 Q1020 GRN;",
"03566099999","2010-01-21T13:50:00","4","52.357167","-0.107833","41.14","WYTON, UK","FM-15","EGUY ","V020","140,1,N,0021,1","07500,1,C,N","007000,1,N,1","+0050,1","+0010,1","99999,9","02,5,+00810,1,99,9","07,5,+07500,1,99,9",,,"07,99,1,99,9,99,9,99999,9,99,9,99,9","10190,1,99999,9","05,1",,,,"MET065METAR EGUY 211350Z 14004KT 7000 HZ FEW027 BKN250 05/01 Q1019 WHT;",
"03566099999","2010-01-21T14:50:00","4","52.357167","-0.107833","41.14","WYTON, UK","FM-15","EGUY ","V020","150,1,N,0031,1","07500,1,C,N","011265,1,N,1","+0050,1","+0000,1","99999,9","02,5,+00750,1,99,9","07,5,+07500,1,99,9",,,"07,99,1,99,9,99,9,99999,9,99,9,99,9","10190,1,99999,9",,,,,"MET063METAR EGUY 211450Z 15006KT 9999 FEW025 BKN250 05/M00 Q1019 BLU;",
"03566099999","2010-01-21T15:50:00","4","52.357167","-0.107833","41.14","WYTON, UK","FM-15","EGUY ","V020","150,1,N,0026,1","07500,1,C,N","011265,1,N,1","+0030,1","+0000,1","99999,9","02,5,+00750,1,99,9","07,5,+07500,1,99,9",,,"07,99,1,99,9,99,9,99999,9,99,9,99,9","10200,1,99999,9",,,,,"MET063METAR EGUY 211550Z 15005KT 9999 FEW025 BKN250 03/M00 Q1020 BLU;",
"03566099999","2010-01-22T07:50:00","4","52.357167","-0.107833","41.14","WYTON, UK","FM-15","EGUY ","V020","140,1,N,0051,1","00210,1,C,N","003500,1,N,1","+0050,1","+0050,1","99999,9","08,5,+00210,1,99,9",,,,"08,99,1,99,9,99,9,99999,9,99,9,99,9","10159,1,99999,9","63,1",,,"0103,1","MET062METAR EGUY 220750Z 14010G20KT 3500 RA OVC007 05/05 Q1016 YLO1;",
"03566099999","2010-01-22T08:50:00","4","52.357167","-0.107833","41.14","WYTON, UK","FM-15","EGUY ","V020","150,1,N,0062,1","00180,1,C,N","004000,1,N,1","+0050,1","+0050,1","99999,9","02,5,+00090,1,99,9","08,5,+00180,1,99,9",,,"08,99,1,99,9,99,9,99999,9,99,9,99,9","10159,1,99999,9","63,1",,,,"MET066METAR EGUY 220850Z 15012KT 4000 RA FEW003 OVC006 05/05 Q1016 YLO1;",
"03566099999","2010-01-22T09:50:00","4","52.357167","-0.107833","41.14","WYTON, UK","FM-15","EGUY ","V020","150,1,N,0062,1","00180,1,C,N","004000,1,N,1","+0060,1","+9999,9","99999,9","04,5,+00090,1,99,9","08,5,+00180,1,99,9",,,"08,99,1,99,9,99,9,99999,9,99,9,99,9","10159,1,99999,9","63,1",,,,"MET066METAR EGUY 220950Z 15012KT 4000 RA SCT003 OVC006 06/// Q1016 YLO2;",
"03566099999","2010-01-22T10:50:00","4","52.357167","-0.107833","41.14","WYTON, UK","FM-15","EGUY ","V020","150,1,N,0057,1","00150,1,C,N","006000,1,N,1","+0060,1","+0060,1","99999,9","04,5,+00120,1,99,9","08,5,+00150,1,99,9",,,"08,99,1,99,9,99,9,99999,9,99,9,99,9","10159,1,99999,9","63,1",,,,"MET066METAR EGUY 221050Z 15011KT 6000 RA SCT004 OVC005 06/06 Q1016 YLO2;",
"03566099999","2010-01-23T07:50:00","4","52.357167","-0.107833","41.14","WYTON, UK","FM-15","EGUY ","V020","320,1,N,0031,1","00240,1,C,N","006000,1,N,1","+0050,1","+0050,1","99999,9","08,5,+00240,1,99,9",,,,"08,99,1,99,9,99,9,99999,9,99,9,99,9","10200,1,99999,9","10,1",,,,"MET058METAR EGUY 230750Z 32006KT 6000 BR OVC008 05/05 Q1020 GRN;",
"03566099999","2010-01-23T08:50:00","4","52.357167","-0.107833","41.14","WYTON, UK","FM-15","EGUY ","V020","310,1,N,0031,1","00210,1,C,N","011265,1,N,1","+0050,1","+0040,1","99999,9","07,5,+00210,1,99,9","08,5,+00390,1,99,9",,,"08,99,1,99,9,99,9,99999,9,99,9,99,9","10200,1,99999,9",,,,,"MET062METAR EGUY 230850Z 31006KT 9999 BKN007 OVC013 05/04 Q1020 GRN;",
"03566099999","2010-01-23T09:50:00","4","52.357167","-0.107833","41.14","WYTON, UK","FM-15","EGUY ","V020","310,1,N,0036,1","00390,1,C,N","011265,1,N,1","+0050,1","+0040,1","99999,9","04,5,+00270,1,99,9","08,5,+00390,1,99,9",,,"08,99,1,99,9,99,9,99999,9,99,9,99,9","10210,1,99999,9",,,,,"MET062METAR EGUY 230950Z 31007KT 9999 SCT009 OVC013 05/04 Q1021 GRN;",
"03566099999","2010-01-23T10:50:00","4","52.357167","-0.107833","41.14","WYTON, UK","FM-15","EGUY ","V020","310,1,N,0046,1","00420,1,C,N","011265,1,N,1","+0050,1","+0040,1","99999,9","04,5,+00270,1,99,9","08,5,+00420,1,99,9",,,"08,99,1,99,9,99,9,99999,9,99,9,99,9","10210,1,99999,9",,,,,"MET062METAR EGUY 231050Z 31009KT 9999 SCT009 OVC014 05/04 Q1021 GRN;",
"03566099999","2010-01-23T11:50:00","4","52.357167","-0.107833","41.14","WYTON, UK","FM-15","EGUY ","V020","340,1,N,0062,1","00360,1,C,N","011265,1,N,1","+0050,1","+0030,1","99999,9","04,5,+00300,1,99,9","07,5,+00360,1,99,9",,,"07,99,1,99,9,99,9,99999,9,99,9,99,9","10210,1,99999,9",,,,,"MET062METAR EGUY 231150Z 34012KT 9999 SCT010 BKN012 05/03 Q1021 GRN;",
"03566099999","2010-01-23T12:50:00","4","52.357167","-0.107833","41.14","WYTON, UK","FM-15","EGUY ","V020","330,1,N,0046,1","00360,1,C,N","011265,1,N,1","+0050,1","+0030,1","99999,9","02,5,+00300,1,99,9","08,5,+00360,1,99,9",,,"08,99,1,99,9,99,9,99999,9,99,9,99,9","10210,1,99999,9",,,,,"MET062METAR EGUY 231250Z 33009KT 9999 FEW010 OVC012 05/03 Q1021 GRN;",
"03566099999","2010-01-23T13:50:00","4","52.357167","-0.107833","41.14","WYTON, UK","FM-15","EGUY ","V020","310,1,N,0036,1","00450,1,C,N","011265,1,N,1","+0050,1","+0030,1","99999,9","04,5,+00390,1,99,9","08,5,+00450,1,99,9",,,"08,99,1,99,9,99,9,99999,9,99,9,99,9","10200,1,99999,9",,,,,"MET062METAR EGUY 231350Z 31007KT 9999 SCT013 OVC015 05/03 Q1020 GRN;",
"03566099999","2010-01-23T14:50:00","4","52.357167","-0.107833","41.14","WYTON, UK","FM-15","EGUY ","V020","320,1,N,0041,1","00450,1,C,N","011265,1,N,1","+0050,1","+0020,1","99999,9","02,5,+00360,1,99,9","08,5,+00450,1,99,9",,,"08,99,1,99,9,99,9,99999,9,99,9,99,9","10200,1,99999,9",,,,,"MET062METAR EGUY 231450Z 32008KT 9999 FEW012 OVC015 05/02 Q1020 WHT;",
"03566099999","2010-01-24T07:50:00","4","52.357167","-0.107833","41.14","WYTON, UK","FM-15","EGUY ","V020","270,1,N,0021,1","01200,1,C,N","003500,1,N,1","+0030,1","+0030,1","99999,9","08,5,+01200,1,99,9",,,,"08,99,1,99,9,99,9,99999,9,99,9,99,9","10230,1,99999,9","10,1",,,,"MET059METAR EGUY 240750Z 27004KT 3500 BR OVC040 03/03 Q1023 YLO1;",
"03566099999","2010-01-24T08:50:00","4","52.357167","-0.107833","41.14","WYTON, UK","FM-15","EGUY ","V020","230,1,N,0015,1","01050,1,C,N","003000,1,N,1","+0030,1","+0030,1","99999,9","02,5,+00480,1,99,9","07,5,+01050,1,99,9",,,"07,99,1,99,9,99,9,99999,9,99,9,99,9","10240,1,99999,9","10,1",,,,"MET066METAR EGUY 240850Z 23003KT 3000 BR FEW016 BKN035 03/03 Q1024 YLO1;",
"03566099999","2010-01-24T09:50:00","4","52.357167","-0.107833","41.14","WYTON, UK","FM-15","EGUY ","V020","230,1,N,0026,1","99999,9,C,N","004000,1,N,1","+0030,1","+0030,1","99999,9","08,5,+01500,5,99,9",,,,"02,99,1,99,9,99,9,99999,9,99,9,99,9","10240,1,99999,9","10,1",,,,"MET066METAR EGUY 240950Z 23005KT 4000 BR FEW0167 OVC050 03/03 Q1024 GRN;","P01 015003SCOCIG"
"03566099999","2010-01-24T10:50:00","4","52.357167","-0.107833","41.14","WYTON, UK","FM-15","EGUY ","V020","250,1,N,0031,1","01500,1,C,N","005000,1,N,1","+0030,1","+0030,1","99999,9","08,5,+01500,1,99,9",,,,"08,99,1,99,9,99,9,99999,9,99,9,99,9","10240,1,99999,9","10,1",,,,"MET058METAR EGUY 241050Z 25006KT 5000 BR OVC050 03/03 Q1024 WHT;",
"03566099999","2010-01-24T11:50:00","4","52.357167","-0.107833","41.14","WYTON, UK","FM-15","EGUY ","V020","270,1,N,0031,1","01500,1,C,N","006000,1,N,1","+0030,1","+0030,1","99999,9","08,5,+01500,1,99,9",,,,"08,99,1,99,9,99,9,99999,9,99,9,99,9","10240,1,99999,9","10,1",,,,"MET058METAR EGUY 241150Z 27006KT 6000 BR OVC050 03/03 Q1024 WHT;",
"03566099999","2010-01-24T12:50:00","4","52.357167","-0.107833","41.14","WYTON, UK","FM-15","EGUY ","V020","260,1,N,0031,1","01500,1,C,N","008000,1,N,1","+0050,1","+0040,1","99999,9","07,5,+01500,1,99,9",,,,"07,99,1,99,9,99,9,99999,9,99,9,99,9","10240,1,99999,9","05,1",,,,"MET058METAR EGUY 241250Z 26006KT 8000 HZ BKN050 05/04 Q1024 WHT;",
"03566099999","2010-01-24T13:50:00","4","52.357167","-0.107833","41.14","WYTON, UK","FM-15","EGUY ","V020","270,1,N,0041,1","01500,1,C,N","011265,1,N,1","+0050,1","+0040,1","99999,9","07,5,+01500,1,99,9",,,,"07,99,1,99,9,99,9,99999,9,99,9,99,9","10240,1,99999,9",,,,,"MET055METAR EGUY 241350Z 27008KT 9999 BKN050 05/04 Q1024 WHT;",
"03566099999","2010-01-24T14:50:00","4","52.357167","-0.107833","41.14","WYTON, UK","FM-15","EGUY ","V020","260,1,N,0031,1","01500,1,C,N","011265,1,N,1","+0070,1","+0040,1","99999,9","02,5,+00750,1,99,9","07,5,+01500,1,99,9",,,"07,99,1,99,9,99,9,99999,9,99,9,99,9","10230,1,99999,9",,,,,"MET062METAR EGUY 241450Z 26006KT 9999 FEW025 BKN050 07/04 Q1023 BLU;",
"03566099999","2010-01-25T07:50:00","4","52.357167","-0.107833","41.14","WYTON, UK","FM-15","EGUY ","V020","040,1,N,0051,1","00300,1,C,N","004500,1,N,1","+0030,1","+0020,1","99999,9","08,5,+00300,1,99,9",,,,"08,99,1,99,9,99,9,99999,9,99,9,99,9","10301,1,99999,9","10,1",,,,"MET058METAR EGUY 250750Z 04010KT 4500 BR OVC010 03/02 Q1030 GRN;",
"03566099999","2010-01-25T08:50:00","4","52.357167","-0.107833","41.14","WYTON, UK","FM-15","EGUY ","V020","020,1,N,0046,1","00990,1,C,N","004500,1,N,1","+0030,1","+0020,1","99999,9","02,5,+00540,1,99,9","07,5,+00990,1,99,9",,,"07,99,1,99,9,99,9,99999,9,99,9,99,9","10312,1,99999,9","10,1",,,,"MET065METAR EGUY 250850Z 02009KT 4500 BR FEW018 BKN033 03/02 Q1031 GRN;",
"03566099999","2010-01-25T09:50:00","4","52.357167","-0.107833","41.14","WYTON, UK","FM-15","EGUY ","V020","010,1,N,0026,1","00900,1,C,N","004000,1,N,1","+0030,1","+0030,1","99999,9","02,5,+00270,1,99,9","07,5,+00900,1,99,9",,,"07,99,1,99,9,99,9,99999,9,99,9,99,9","10318,1,99999,9","10,1",,,,"MET065METAR EGUY 250950Z 01005KT 4000 BR FEW009 BKN030 03/03 Q1032 GRN;",
"03566099999","2010-01-25T10:50:00","4","52.357167","-0.107833","41.14","WYTON, UK","FM-15","EGUY ","V020","010,1,N,0041,1","00240,1,C,N","003700,1,N,1","+0030,1","+0030,1","99999,9","02,5,+00150,1,99,9","04,5,+00240,1,99,9","07,5,+00750,1,99,9",,"07,99,1,99,9,99,9,99999,9,99,9,99,9","10318,1,99999,9","10,1",,,,"MET072METAR EGUY 251050Z 01008KT 3700 BR FEW005 SCT008 BKN025 03/03 Q1032 GRN;",
"03566099999","2010-01-25T11:50:00","4","52.357167","-0.107833","41.14","WYTON, UK","FM-15","EGUY ","V020","020,1,N,0041,1","00750,1,C,N","006000,1,N,1","+0030,1","+0030,1","99999,9","04,5,+00180,1,99,9","07,5,+00750,1,99,9",,,"07,99,1,99,9,99,9,99999,9,99,9,99,9","99999,9,99999,9","10,1",,,,"MET066METAR EGUY 251150Z 02008KT 6000 BR SCT006 BKN025 03/03 Q1022 YLO1;","Q01+102203APOA  Q02 102203APOA  "
"03566099999","2010-01-25T12:50:00","4","52.357167","-0.107833","41.14","WYTON, UK","FM-15","EGUY ","V020","010,1,N,0036,1","00360,1,C,N","006000,1,N,1","+0030,1","+0020,1","99999,9","02,5,+00180,1,99,9","04,5,+00360,1,99,9","07,5,+00750,1,99,9",,"07,99,1,99,9,99,9,99999,9,99,9,99,9","10329,1,99999,9","05,1",,,,"MET072METAR EGUY 251250Z 01007KT 6000 HZ FEW006 SCT012 BKN025 03/02 Q1033 GRN;",
"03566099999","2010-01-25T13:50:00","4","52.357167","-0.107833","41.14","WYTON, UK","FM-15","EGUY ","V020","020,1,N,0051,1","00270,1,C,N","005000,1,N,1","+0030,1","+0020,1","99999,9","02,5,+00180,1,99,9","04,5,+00270,1,99,9","08,5,+00750,1,99,9",,"08,99,1,99,9,99,9,99999,9,99,9,99,9","10329,1,99999,9","05,1",,,,"MET072METAR EGUY 251350Z 02010KT 5000 HZ FEW006 SCT009 OVC025 03/02 Q1033 GRN;",
"03566099999","2010-01-26T07:50:00","4","52.357167","-0.107833","41.14","WYTON, UK","FM-15","EGUY ","V020","030,1,N,0036,1","00750,1,C,N","007000,1,N,1","+0000,1","-0020,1","99999,9","08,5,+00750,1,99,9",,,,"08,99,1,99,9,99,9,99999,9,99,9,99,9","10410,1,99999,9","05,1",,,,"MET060METAR EGUY 260750Z 03007KT 7000 HZ OVC025 M00/M02 Q1041 WHT;",
"03566099999","2010-01-26T08:50:00","4","52.357167","-0.107833","41.14","WYTON, UK","FM-15","EGUY ","V020","040,1,N,0036,1","00660,1,C,N","007000,1,N,1","+0000,1","-0020,1","99999,9","08,5,+00660,1,99,9",,,,"08,99,1,99,9,99,9,99999,9,99,9,99,9","10410,1,99999,9","05,1",,,,"MET059METAR EGUY 260850Z 04007KT 7000 HZ OVC022 00/M02 Q1041 WHT;",
"03566099999","2010-01-26T09:50:00","4","52.357167","-0.107833","41.14","WYTON, UK","FM-15","EGUY ","V020","050,1,N,0046,1","00600,1,C,N","011265,1,N,1","+0010,1","+0000,1","99999,9","07,5,+00600,1,99,9",,,,"07,99,1,99,9,99,9,99999,9,99,9,99,9","10420,1,99999,9",,,,,"MET055METAR EGUY 260950Z 05009KT 9999 BKN020 01/00 Q1042 WHT;",
"03566099999","2010-01-26T10:50:00","4","52.357167","-0.107833","41.14","WYTON, UK","FM-15","EGUY ","V020","050,1,N,0041,1","22000,1,9,N","011265,1,N,1","+0010,1","-0010,1","99999,9","04,5,+00660,1,99,9",,,,"04,99,1,99,9,99,9,99999,9,99,9,99,9","10420,1,99999,9",,,,,"MET056METAR EGUY 261050Z 05008KT 9999 SCT022 01/M01 Q1042 WHT;",
"03566099999","2010-01-26T11:20:00","4","52.357167","-0.107833","41.14","WYTON, UK","FM-15","EGUY ","V020","050,1,N,0051,1","04500,1,C,N","011265,1,N,1","+0010,1","-0010,1","99999,9","02,5,+00600,1,99,9","07,5,+04500,1,99,9",,,"07,99,1,99,9,99,9,99999,9,99,9,99,9","10420,1,99999,9",,,,,"MET063METAR EGUY 261120Z 05010KT 9999 FEW020 BKN150 01/M01 Q1042 BLU;",
"03566099999","2010-01-26T12:50:00","4","52.357167","-0.107833","41.14","WYTON, UK","FM-15","EGUY ","V020","040,1,N,0041,1","06000,1,C,N","009000,1,N,1","+0020,1","-0020,1","99999,9","04,5,+00660,1,99,9","07,5,+06000,1,99,9",,,"07,99,1,99,9,99,9,99999,9,99,9,99,9","10420,1,99999,9","05,1",,,,"MET066METAR EGUY 261250Z 04008KT 9000 HZ SCT022 BKN200 02/M02 Q1042 WHT;",
"03566099999","2010-01-26T13:50:00","4","52.357167","-0.107833","41.14","WYTON, UK","FM-15","EGUY ","V020","040,1,N,0031,1","06000,1,C,N","009000,1,N,1","+0020,1","-0020,1","99999,9","04,5,+00660,1,99,9","07,5,+06000,1,99,9",,,"07,99,1,99,9,99,9,99999,9,99,9,99,9","10410,1,99999,9","05,1",,,,"MET066METAR EGUY 261350Z 04006KT 9000 HZ SCT022 BKN200 02/M02 Q1041 WHT;",
"03566099999","2010-01-26T15:50:00","4","52.357167","-0.107833","41.14","WYTON, UK","FM-15","EGUY ","V020","030,1,N,0031,1","06000,1,C,N","008000,1,N,1","+0010,1","-0020,1","99999,9","04,5,+00660,1,99,9","07,5,+06000,1,99,9",,,"07,99,1,99,9,99,9,99999,9,99,9,99,9","10420,1,99999,9","05,1",,,,"MET066METAR EGUY 261550Z 03006KT 8000 HZ SCT022 BKN200 01/M02 Q1042 WHT;",
"03566099999","2010-01-27T07:50:00","4","52.357167","-0.107833","41.14","WYTON, UK","FM-15","EGUY ","V020","250,1,N,0051,1","01050,1,C,N","005000,1,N,1","+0010,1","-0020,1","99999,9","04,5,+00600,1,99,9","08,5,+01050,1,99,9",,,"08,99,1,99,9,99,9,99999,9,99,9,99,9","10339,1,99999,9","05,1",,,,"MET066METAR EGUY 270750Z 25010KT 5000 HZ SCT020 OVC035 01/M02 Q1034 WHT;",
"03566099999","2010-01-27T08:50:00","4","52.357167","-0.107833","41.14","WYTON, UK","FM-15","EGUY ","V020","240,1,N,0067,1","00720,1,C,N","005000,1,N,1","+0010,1","-0020,1","99999,9","07,5,+00720,1,99,9","07,5,+01050,1,99,9",,,"07,99,1,99,9,99,9,99999,9,99,9,99,9","10318,1,99999,9","05,1",,,,"MET066METAR EGUY 270850Z 24013KT 5000 HZ BKN024 BKN035 01/M02 Q1032 WHT;",
"03566099999","2010-01-27T09:50:00","4","52.357167","-0.107833","41.14","WYTON, UK","FM-15","EGUY ","V020","240,1,N,0062,1","00600,1,C,N","005000,1,N,1","+0010,1","-0010,1","99999,9","04,5,+00450,1,99,9","04,5,+00600,1,99,9","07,5,+02100,1,99,9",,"07,99,1,99,9,99,9,99999,9,99,9,99,9","10312,1,99999,9","05,1",,,,"MET073METAR EGUY 270950Z 24012KT 5000 HZ SCT015 SCT020 BKN070 01/M01 Q1031 WHT;",
"03566099999","2010-01-27T10:00:00","4","52.357167","-0.107833","41.14","WYTON, UK","FM-15","EGUY ","V020","230,1,N,0062,1","00600,1,C,N","005000,1,N,1","+0010,1","-0010,1","99999,9","04,5,+00360,1,99,9","04,5,+00600,1,99,9","07,5,+02100,1,99,9",,"07,99,1,99,9,99,9,99999,9,99,9,99,9","10312,1,99999,9","05,1",,,,"MET073METAR EGUY 271000Z 23012KT 5000 HZ SCT012 SCT020 BKN070 01/M01 Q1031 GRN;",
"03566099999","2010-01-27T10:50:00","4","52.357167","-0.107833","41.14","WYTON, UK","FM-15","EGUY ","V020","230,1,N,0057,1","02100,1,C,N","005000,1,N,1","+0020,1","+0000,1","99999,9","04,5,+00360,1,99,9","08,5,+02100,1,99,9",,,"08,99,1,99,9,99,9,99999,9,99,9,99,9","10301,1,99999,9","05,1",,,,"MET066METAR EGUY 271050Z 23011KT 5000 HZ SCT012 OVC070 02/M00 Q1030 GRN;",
"03566099999","2010-01-27T11:50:00","4","52.357167","-0.107833","41.14","WYTON, UK","FM-15","EGUY ","V020","230,1,N,0062,1","00360,1,C,N","004500,1,N,1","+0020,1","+0000,1","99999,9","07,5,+00360,1,99,9","08,5,+02100,1,99,9",,,"08,99,1,99,9,99,9,99999,9,99,9,99,9","10281,1,99999,9","05,1",,,,"MET065METAR EGUY 271150Z 23012KT 4500 HZ BKN012 OVC070 02/00 Q1028 GRN;",
"03566099999","2010-01-27T12:50:00","4","52.357167","-0.107833","41.14","WYTON, UK","FM-15","EGUY ","V020","230,1,N,0072,1","00600,1,C,N","004500,1,N,1","+0030,1","+0010,1","99999,9","04,5,+00450,1,99,9","04,5,+00600,1,99,9","07,5,+02100,1,99,9",,"07,99,1,99,9,99,9,99999,9,99,9,99,9","10261,1,99999,9","05,1",,,,"MET072METAR EGUY 271250Z 23014KT 4500 HZ SCT015 SCT020 BKN070 03/01 Q1026 GRN;",
"03566099999","2010-01-27T13:24:00","4","52.357167","-0.107833","41.14","WYTON, UK","FM-15","EGUY ","V020","250,1,N,0062,1","02100,1,C,N","004500,1,N,1","+0050,1","+0020,1","99999,9","04,5,+00420,1,99,9","07,5,+02100,1,99,9",,,"07,99,1,99,9,99,9,99999,9,99,9,99,9","10240,1,99999,9","05,1",,,"0113,1","MET068METAR EGUY 271324Z 25012G22KT 4500 HZ SCT014 BKN070 05/02 Q1024 GRN;",
"03566099999","2010-01-27T13:50:00","4","52.357167","-0.107833","41.14","WYTON, UK","FM-15","EGUY ","V020","250,1,N,0072,1","00420,1,C,N","005000,1,N,1","+0050,1","+0030,1","99999,9","07,5,+00420,1,99,9","07,5,+01800,1,99,9",,,"07,99,1,99,9,99,9,99999,9,99,9,99,9","99999,9,99999,9","05,1",,,,"MET065METAR EGUY 271350Z 25014KT 5000 HZ BKN014 BKN060 05/03 Q1020 GRN;","Q01 102003APOA  "
"03566099999","2010-01-27T14:25:00","4","52.357167","-0.107833","41.14","WYTON, UK","FM-15","EGUY ","V020","250,1,N,0077,1","00420,1,C,N","003300,1,N,1","+0050,1","+0040,1","99999,9","04,5,+00210,1,99,9","07,5,+00420,1,99,9",,,"07,99,1,99,9,99,9,99999,9,99,9,99,9","10240,1,99999,9","10,1","63,1",,,"MET069METAR EGUY 271425Z 25015KT 3300 RA BR SCT007 BKN014 05/04 Q1024 YLO1;",
"03566099999","2010-01-27T14:50:00","4","52.357167","-0.107833","41.14","WYTON, UK","FM-15","EGUY ","V020","240,1,N,0072,1","00420,1,C,N","003500,1,N,1","+0040,1","+0040,1","99999,9","04,5,+00210,1,99,9","07,5,+00420,1,99,9","08,5,+01200,1,99,9",,"08,99,1,99,9,99,9,99999,9,99,9,99,9","10230,1,99999,9","10,1","61,1",,,"MET077METAR EGUY 271450Z 24014KT 3500 -RA BR SCT007 BKN014 OVC040 04/04 Q1023 YLO1;",
"03566099999","2010-01-27T15:15:00","4","52.357167","-0.107833","41.14","WYTON, UK","FM-15","EGUY ","V020","240,1,N,0067,1","00450,1,C,N","004000,1,N,1","+0050,1","+0040,1","99999,9","02,5,+00210,1,99,9","04,5,+00450,1,99,9","08,5,+01350,1,99,9",,"08,99,1,99,9,99,9,99999,9,99,9,99,9","10220,1,99999,9","10,1",,,,"MET072METAR EGUY 271515Z 24013KT 4000 BR FEW007 SCT015 OVC045 05/04 Q1022 GRN;",
"03566099999","2010-01-27T15:50:00","4","52.357167","-0.107833","41.14","WYTON, UK","FM-15","EGUY ","V020","250,1,N,0062,1","00600,1,C,N","004500,1,N,1","+0050,1","+0040,1","99999,9","04,5,+00450,1,99,9","04,5,+00600,1,99,9","08,5,+01200,1,99,9",,"08,99,1,99,9,99,9,99999,9,99,9,99,9","10220,1,99999,9","10,1",,,,"MET072METAR EGUY 271550Z 25012KT 4500 BR SCT015 SCT020 OVC040 05/04 Q1022 GRN;",
"03566099999","2010-01-28T07:50:00","4","52.357167","-0.107833","41.14","WYTON, UK","FM-15","EGUY ","V020","290,1,N,0041,1","01800,1,C,N","009000,1,N,1","+0030,1","+0020,1","99999,9","04,5,+01350,1,99,9","07,5,+01800,1,99,9",,,"07,99,1,99,9,99,9,99999,9,99,9,99,9","10139,1,99999,9","05,1",,,,"MET065METAR EGUY 280750Z 29008KT 9000 HZ SCT045 BKN060 03/02 Q1014 BLU;",
"03566099999","2010-01-28T08:50:00","4","52.357167","-0.107833","41.14","WYTON, UK","FM-15","EGUY ","V020","290,1,N,0046,1","01500,1,C,N","011265,1,N,1","+0040,1","+0030,1","99999,9","02,5,+00450,1,99,9","07,5,+01500,1,99,9",,,"07,99,1,99,9,99,9,99999,9,99,9,99,9","10139,1,99999,9",,,,,"MET062METAR EGUY 280850Z 29009KT 9999 FEW015 BKN050 04/03 Q1014 BLU;",
"03566099999","2010-01-28T09:50:00","4","52.357167","-0.107833","41.14","WYTON, UK","FM-15","EGUY ","V020","280,1,N,0046,1","01500,1,C,N","011265,1,N,1","+0040,1","+0030,1","99999,9","02,5,+00600,1,99,9","07,5,+01500,1,99,9",,,"07,99,1,99,9,99,9,99999,9,99,9,99,9","10139,1,99999,9",,,,,"MET062METAR EGUY 280950Z 28009KT 9999 FEW020 BKN050 04/03 Q1014 BLU;",
"03566099999","2010-01-28T10:50:00","4","52.357167","-0.107833","41.14","WYTON, UK","FM-15","EGUY ","V020","280,1,N,0072,1","99999,9,9,Y","009900,1,N,1","+0050,1","+0030,1","99999,9",,,,,,"10139,1,99999,9",,,,,"MET049METAR EGUY 281050Z 28014KT CAVOK 05/03 Q1014 BLU;",
"03566099999","2010-01-28T11:50:00","4","52.357167","-0.107833","41.14","WYTON, UK","FM-15","EGUY ","V020","300,1,N,0062,1","99999,9,9,Y","009900,1,N,1","+0050,1","+0030,1","99999,9",,,,,,"10129,1,99999,9",,,,,"MET049METAR EGUY 281150Z 30012KT CAVOK 05/03 Q1013 BLU;",
"03566099999","2010-01-28T12:50:00","4","52.357167","-0.107833","41.14","WYTON, UK","FM-15","EGUY ","V020","290,1,N,0072,1","09000,1,C,N","011265,1,N,1","+0060,1","+0030,1","99999,9","02,5,+00600,1,99,9","07,5,+09000,1,99,9",,,"07,99,1,99,9,99,9,99999,9,99,9,99,9","10119,1,99999,9",,,,,"MET062METAR EGUY 281250Z 29014KT 9999 FEW020 BKN300 06/03 Q1012 BLU;",
"03566099999","2010-01-28T13:50:00","4","52.357167","-0.107833","41.14","WYTON, UK","FM-15","EGUY ","V020","300,1,N,0062,1","00750,1,C,N","011265,1,N,1","+0070,1","+0030,1","99999,9","07,5,+00750,1,99,9","07,5,+09000,1,99,9",,,"07,99,1,99,9,99,9,99999,9,99,9,99,9","10108,1,99999,9",,,,,"MET062METAR EGUY 281350Z 30012KT 9999 BKN025 BKN300 07/03 Q1011 BLU;",
"03566099999","2010-01-28T14:50:00","4","52.357167","-0.107833","41.14","WYTON, UK","FM-15","EGUY ","V020","300,1,N,0062,1","00750,1,C,N","011265,1,N,1","+0070,1","+0030,1","99999,9","07,5,+00750,1,99,9","07,5,+07500,1,99,9",,,"07,99,1,99,9,99,9,99999,9,99,9,99,9","10102,1,99999,9",,,,,"MET062METAR EGUY 281450Z 30012KT 9999 BKN025 BKN250 07/03 Q1010 BLU;",
"03566099999","2010-01-28T15:50:00","4","52.357167","-0.107833","41.14","WYTON, UK","FM-15","EGUY ","V020","300,1,N,0062,1","07500,1,C,N","011265,1,N,1","+0060,1","+0020,1","99999,9","02,5,+00750,1,99,9","07,5,+07500,1,99,9",,,"07,99,1,99,9,99,9,99999,9,99,9,99,9","10091,1,99999,9",,,,,"MET062METAR EGUY 281550Z 30012KT 9999 FEW025 BKN250 06/02 Q1009 BLU;",
"03566099999","2010-01-29T07:50:00","4","52.357167","-0.107833","41.14","WYTON, UK","FM-15","EGUY ","V020","300,1,N,0051,1","02400,1,C,N","011265,1,N,1","+0030,1","+0030,1","99999,9","04,5,+00300,1,99,9","08,5,+02400,1,99,9",,,"08,99,1,99,9,99,9,99999,9,99,9,99,9","09898,1,99999,9",,,,,"MET062METAR EGUY 290750Z 30010KT 9999 SCT010 OVC080 03/03 Q0990 GRN;",
"03566099999","2010-01-29T08:50:00","4","52.357167","-0.107833","41.14","WYTON, UK","FM-15","EGUY ","V020","330,1,N,0062,1","00330,1,C,N","011265,1,N,1","+0040,1","+0030,1","99999,9","07,5,+00330,1,99,9","07,5,+00750,1,99,9",,,"07,99,1,99,9,99,9,99999,9,99,9,99,9","09898,1,99999,9",,,,,"MET062METAR EGUY 290850Z 33012KT 9999 BKN011 BKN025 04/03 Q0990 GRN;",
"03566099999","2010-01-29T09:50:00","4","52.357167","-0.107833","41.14","WYTON, UK","FM-15","EGUY ","V020","340,1,N,0077,1","00300,1,C,N","011265,1,N,1","+0040,1","+0030,1","99999,9","07,5,+00300,1,99,9","07,5,+02100,1,99,9",,,"07,99,1,99,9,99,9,99999,9,99,9,99,9","09909,1,99999,9",,,,,"MET062METAR EGUY 290950Z 34015KT 9999 BKN010 BKN070 04/03 Q0991 GRN;",
"03566099999","2010-01-29T10:50:00","4","52.357167","-0.107833","41.14","WYTON, UK","FM-15","EGUY ","V020","350,1,N,0072,1","00330,1,C,N","011265,1,N,1","+0040,1","+0030,1","99999,9","07,5,+00330,1,99,9","07,5,+01200,1,99,9",,,"07,99,1,99,9,99,9,99999,9,99,9,99,9","09909,1,99999,9",,,,"0123,1","MET065METAR EGUY 291050Z 35014G24KT 9999 BKN011 BKN040 04/03 Q0991 GRN;",
"03566099999","2010-01-29T11:50:00","4","52.357167","-0.107833","41.14","WYTON, UK","FM-15","EGUY ","V020","350,1,N,0077,1","99999,9,C,N","011265,1,N,1","+0040,1","+0030,1","99999,9","02,5,+00240,1,99,9","04,5,+00360,1,99,9",,,"04,99,1,99,9,99,9,99999,9,99,9,99,9","09909,1,99999,9",,,,"0129,1","MET065METAR EGUY 291150Z 35015G25KT 9999 FEW008 SCT012 04/03 Q0991 GRN;","P01 003603SCOCIG"
"03566099999","2010-01-29T12:50:00","4","52.357167","-0.107833","41.14","WYTON, UK","FM-15","EGUY ","V020","340,1,N,0087,1","00750,1,C,N","011265,1,N,1","+0030,1","+0010,1","99999,9","04,5,+00600,1,99,9","07,5,+00750,1,99,9","07,5,+02400,1,99,9",,"07,99,1,99,9,99,9,99999,9,99,9,99,9","09909,1,99999,9",,,,"0139,1","MET072METAR EGUY 291250Z 34017G27KT 9999 SCT020 BKN025 BKN080 03/01 Q0991 WHT;",
"03566099999","2010-01-29T13:50:00","4","52.357167","-0.107833","41.14","WYTON, UK","FM-15","EGUY ","V020","340,1,N,0098,1","22000,1,9,N","011265,1,N,1","+0030,1","+0000,1","99999,9","04,5,+00600,1,99,9",,,,"04,99,1,99,9,99,9,99999,9,99,9,99,9","09909,1,99999,9",,,,"0149,1","MET059METAR EGUY 291350Z 34019G29KT 9999 SCT020 03/M00 Q0991 WHT;",
"03566099999","2010-01-29T15:50:00","4","52.357167","-0.107833","41.14","WYTON, UK","FM-15","EGUY ","V020","340,1,N,0072,1","99999,9,C,N","011265,1,N,1","+0020,1","-0030,1","99999,9","02,5,+00660,1,02,1","04,5,+01050,1,99,9",,,"04,99,1,99,9,99,9,99999,9,99,9,99,9","09919,1,99999,9","16,1",,,"0123,1","MET074METAR EGUY 291550Z 34014G24KT 9999 VCSH FEW022TCU SCT035 02/M03 Q0992 BLU;","P01 010503SCOCIG"
"03566099999","2010-01-30T07:50:00","4","52.357167","-0.107833","41.14","WYTON, UK","FM-15","EGUY ","V020","310,1,N,0051,1","22000,1,9,N","011265,1,N,1","-0030,1","-0050,1","99999,9","02,5,+01200,1,99,9",,,,"02,99,1,99,9,99,9,99999,9,99,9,99,9","09980,1,99999,9",,,,,"MET061METAR EGUY 300750Z 31010KT 9999 NIL FEW040 M03/M05 Q0998 BLU;",
"03566099999","2010-01-30T08:50:00","4","52.357167","-0.107833","41.14","WYTON, UK","FM-15","EGUY ","V020","310,1,N,0062,1","22000,1,9,N","011265,1,N,1","-0020,1","-0040,1","99999,9","02,5,+00600,1,99,9",,,,"02,99,1,99,9,99,9,99999,9,99,9,99,9","09990,1,99999,9",,,,,"MET061METAR EGUY 300850Z 31012KT 9999 NIL FEW020 M02/M04 Q0999 BLU;",
"03566099999","2010-01-30T09:50:00","4","52.357167","-0.107833","41.14","WYTON, UK","FM-15","EGUY ","V020","310,1,N,0046,1","22000,1,9,N","011265,1,N,1","+0000,1","-0030,1","99999,9","02,5,+01200,1,99,9",,,,"02,99,1,99,9,99,9,99999,9,99,9,99,9","10000,1,99999,9",,,,,"MET061METAR EGUY 300950Z 31009KT 9999 NIL FEW040 M00/M03 Q1000 BLU;",
"03566099999","2010-01-30T10:50:00","4","52.357167","-0.107833","41.14","WYTON, UK","FM-15","EGUY ","V020","320,1,N,0062,1","99999,9,9,Y","009900,1,N,1","+0010,1","-0030,1","99999,9",,,,,,"10000,1,99999,9",,,,,"MET050METAR EGUY 301050Z 32012KT CAVOK 01/M03 Q1000 BLU;",
"03566099999","2010-01-30T11:50:00","4","52.357167","-0.107833","41.14","WYTON, UK","FM-15","EGUY ","V020","320,1,N,0062,1","99999,9,9,Y","009900,1,N,1","+0020,1","-0030,1","99999,9",,,,,,"10000,1,99999,9",,,,,"MET050METAR EGUY 301150Z 32012KT CAVOK 02/M03 Q1000 BLU;",
"03566099999","2010-01-30T12:50:00","4","52.357167","-0.107833","41.14","WYTON, UK","FM-15","EGUY ","V020","310,1,N,0051,1","99999,9,9,Y","009900,1,N,1","+0030,1","-0030,1","99999,9",,,,,,"10000,1,99999,9",,,,,"MET050METAR EGUY 301250Z 31010KT CAVOK 03/M03 Q1000 BLU;",
"03566099999","2010-01-30T13:50:00","4","52.357167","-0.107833","41.14","WYTON, UK","FM-15","EGUY ","V020","310,1,N,0057,1","99999,9,9,Y","009900,1,N,1","+0030,1","-0020,1","99999,9",,,,,,"10010,1,99999,9",,,,,"MET050METAR EGUY 301350Z 31011KT CAVOK 03/M02 Q1001 BLU;",
"03566099999","2010-01-30T14:50:00","4","52.357167","-0.107833","41.14","WYTON, UK","FM-15","EGUY ","V020","300,1,N,0062,1","22000,1,9,N","999999,9,N,1","+0030,1","-0020,1","99999,9","02,5,+00750,5,99,9",,,,,"10010,1,99999,9",,,,,"MET051METAR EGUY 301450Z 30012KT FEW025 03/M02 Q1001 BLU;",
"03566099999","2010-01-30T15:50:00","4","52.357167","-0.107833","41.14","WYTON, UK","FM-15","EGUY ","V020","280,1,N,0036,1","22000,1,9,N","999999,9,N,1","+0020,1","-0020,1","99999,9","02,5,+00750,5,99,9",,,,,"10020,1,99999,9",,,,,"MET051METAR EGUY 301550Z 28007KT FEW025 02/M02 Q1002 BLU;",
"03566099999","2010-02-01T07:50:00","4","52.357167","-0.107833","41.14","WYTON, UK","FM-15","EGUY ","V020","270,1,N,0057,1","99999,9,9,Y","009900,1,N,1","-0030,1","-0040,1","99999,9",,,,,,"10108,1,99999,9",,,,,"MET051METAR EGUY 010750Z 27011KT CAVOK M03/M04 Q1011 BLU;",
"03566099999","2010-02-01T08:50:00","4","52.357167","-0.107833","41.14","WYTON, UK","FM-15","EGUY ","V020","280,1,N,0051,1","99999,9,9,Y","009900,1,N,1","-0020,1","-0030,1","99999,9",,,,,,"10108,1,99999,9",,,,,"MET051METAR EGUY 010850Z 28010KT CAVOK M02/M03 Q1011 BLU;",
"03566099999","2010-02-01T09:50:00","4","52.357167","-0.107833","41.14","WYTON, UK","FM-15","EGUY ","V020","290,1,N,0062,1","99999,9,9,Y","009900,1,N,1","+0000,1","-0020,1","99999,9",,,,,,"10119,1,99999,9",,,,,"MET050METAR EGUY 010950Z 29012KT CAVOK 00/M02 Q1012 BLU;",
"03566099999","2010-02-01T10:50:00","4","52.357167","-0.107833","41.14","WYTON, UK","FM-15","EGUY ","V020","290,1,N,0057,1","99999,9,9,Y","009900,1,N,1","+0020,1","-0020,1","99999,9",,,,,,"10129,1,99999,9",,,,,"MET050METAR EGUY 011050Z 29011KT CAVOK 02/M02 Q1013 BLU;",
"03566099999","2010-02-01T11:50:00","4","52.357167","-0.107833","41.14","WYTON, UK","FM-15","EGUY ","V020","290,1,N,0062,1","99999,9,9,Y","009900,1,N,1","+0030,1","-0030,1","99999,9",,,,,,"10129,1,99999,9",,,,,"MET050METAR EGUY 011150Z 29012KT CAVOK 03/M03 Q1013 BLU;",
"03566099999","2010-02-01T12:50:00","4","52.357167","-0.107833","41.14","WYTON, UK","FM-15","EGUY ","V020","290,1,N,0051,1","99999,9,9,Y","009900,1,N,1","+0030,1","-0030,1","99999,9",,,,,,"10129,1,99999,9",,,,,"MET050METAR EGUY 011250Z 29010KT CAVOK 03/M03 Q1013 BLU;",
"03566099999","2010-02-01T13:50:00","4","52.357167","-0.107833","41.14","WYTON, UK","FM-15","EGUY ","V020","280,1,N,0046,1","99999,9,9,Y","009900,1,N,1","+0030,1","-0020,1","99999,9",,,,,,"10139,1,99999,9",,,,,"MET050METAR EGUY 011350Z 28009KT CAVOK 03/M02 Q1014 BLU;",
"03566099999","2010-02-01T14:50:00","4","52.357167","-0.107833","41.14","WYTON, UK","FM-15","EGUY ","V020","280,1,N,0051,1","99999,9,9,Y","009900,1,N,1","+0030,1","-0010,1","99999,9",,,,,,"10139,1,99999,9",,,,,"MET050METAR EGUY 011450Z 28010KT CAVOK 03/M01 Q1014 BLU;",
"03566099999","2010-02-01T15:50:00","4","52.357167","-0.107833","41.14","WYTON, UK","FM-15","EGUY ","V020","270,1,N,0041,1","99999,9,9,Y","009900,1,N,1","+0030,1","-0010,1","99999,9",,,,,,"10149,1,99999,9",,,,,"MET050METAR EGUY 011550Z 27008KT CAVOK 03/M01 Q1015 BLU;",
"03566099999","2010-02-02T07:50:00","4","52.357167","-0.107833","41.14","WYTON, UK","FM-15","EGUY ","V020","230,1,N,0072,1","00300,1,C,N","011265,1,N,1","+0050,1","+0030,1","99999,9","07,5,+00300,1,99,9","08,5,+00750,1,99,9",,,"08,99,1,99,9,99,9,99999,9,99,9,99,9","10051,1,99999,9",,,,,"MET062METAR EGUY 020750Z 23014KT 9999 BKN010 OVC025 05/03 Q1005 GRN;",
"03566099999","2010-02-02T08:50:00","4","52.357167","-0.107833","41.14","WYTON, UK","FM-15","EGUY ","V020","230,1,N,0077,1","00600,1,C,N","011265,1,N,1","+0050,1","+0040,1","99999,9","02,5,+00240,1,99,9","07,5,+00600,1,99,9","08,5,+03000,1,99,9",,"08,99,1,99,9,99,9,99999,9,99,9,99,9","10041,1,99999,9",,,,,"MET069METAR EGUY 020850Z 23015KT 9999 FEW008 BKN020 OVC100 05/04 Q1004 WHT;",
"03566099999","2010-02-02T09:50:00","4","52.357167","-0.107833","41.14","WYTON, UK","FM-15","EGUY ","V020","230,1,N,0087,1","02100,1,C,N","011265,1,N,1","+0050,1","+0040,1","99999,9","02,5,+00600,1,99,9","07,5,+02100,1,99,9",,,"07,99,1,99,9,99,9,99999,9,99,9,99,9","10031,1,99999,9",,,,,"MET062METAR EGUY 020950Z 23017KT 9999 FEW020 BKN070 05/04 Q1003 BLU;",
"03566099999","2010-02-02T10:50:00","4","52.357167","-0.107833","41.14","WYTON, UK","FM-15","EGUY ","V020","240,1,N,0082,1","02400,1,C,N","011265,1,N,1","+0060,1","+0050,1","99999,9","02,5,+00600,1,99,9","07,5,+02400,1,99,9","07,5,+03000,1,99,9",,"07,99,1,99,9,99,9,99999,9,99,9,99,9","10031,1,99999,9",,,,,"MET069METAR EGUY 021050Z 24016KT 9999 FEW020 BKN080 BKN100 06/05 Q1003 BLU;",
"03566099999","2010-02-02T11:50:00","4","52.357167","-0.107833","41.14","WYTON, UK","FM-15","EGUY ","V020","240,1,N,0077,1","00750,1,C,N","011265,1,N,1","+0060,1","+0050,1","99999,9","02,5,+00600,1,99,9","04,5,+00750,1,99,9","08,5,+01350,1,99,9",,"08,99,1,99,9,99,9,99999,9,99,9,99,9","10020,1,99999,9","61,1",,,,"MET073METAR EGUY 021150Z 24015KT 9999 -RA FEW020 SCT025 OVC045 06/05 Q1002 BLU;",
"03566099999","2010-02-02T12:30:00","4","52.357167","-0.107833","41.14","WYTON, UK","FM-15","EGUY ","V020","240,1,N,0077,1","00600,1,C,N","011265,1,N,1","+0070,1","+0050,1","99999,9","04,5,+00360,1,99,9","07,5,+00600,1,99,9",,,"07,99,1,99,9,99,9,99999,9,99,9,99,9","10010,1,99999,9","51,1",,,,"MET066METAR EGUY 021230Z 24015KT 9999 -DZ SCT012 BKN020 07/05 Q1001 GRN;",
"03566099999","2010-02-02T13:50:00","4","52.357167","-0.107833","41.14","WYTON, UK","FM-15","EGUY ","V020","260,1,N,0087,1","00360,1,C,N","011265,1,N,1","+0080,1","+0060,1","99999,9","02,5,+00240,1,99,9","04,5,+00360,1,99,9","07,5,+01200,1,99,9",,"07,99,1,99,9,99,9,99999,9,99,9,99,9","10000,1,99999,9",,,,"0149,1","MET072METAR EGUY 021350Z 26017G29KT 9999 FEW008 SCT012 BKN040 08/06 Q1000 GRN;",
"03566099999","2010-02-02T14:50:00","4","52.357167","-0.107833","41.14","WYTON, UK","FM-15","EGUY ","V020","250,1,N,0082,1","00600,1,C,N","011265,1,N,1","+0080,1","+0060,1","99999,9","02,5,+00240,1,99,9","04,5,+00600,1,99,9","07,5,+01200,1,99,9",,"07,99,1,99,9,99,9,99999,9,99,9,99,9","10000,1,99999,9",,,,,"MET069METAR EGUY 021450Z 25016KT 9999 FEW008 SCT020 BKN040 08/06 Q1000 WHT;",
"03566099999","2010-02-02T15:50:00","4","52.357167","-0.107833","41.14","WYTON, UK","FM-15","EGUY ","V020","260,1,N,0082,1","00450,1,C,N","011265,1,N,1","+0080,1","+0060,1","99999,9","02,5,+00240,1,99,9","04,5,+00450,1,99,9","07,5,+01200,1,99,9",,"07,99,1,99,9,99,9,99999,9,99,9,99,9","10000,1,99999,9",,,,,"MET069METAR EGUY 021550Z 26016KT 9999 FEW008 SCT015 BKN040 08/06 Q1000 WHT;",
"03566099999","2010-02-03T07:50:00","4","52.357167","-0.107833","41.14","WYTON, UK","FM-15","EGUY ","V020","260,1,N,0026,1","22000,1,9,N","004000,1,N,1","-0020,1","-0020,1","99999,9","04,5,+04800,1,99,9",,,,"04,99,1,99,9,99,9,99999,9,99,9,99,9","10091,1,99999,9","10,1",,,,"MET060METAR EGUY 030750Z 26005KT 4000 BR SCT160 M02/M02 Q1009 GRN;",
"03566099999","2010-02-03T08:50:00","4","52.357167","-0.107833","41.14","WYTON, UK","FM-15","EGUY ","V020","260,1,N,0021,1","22000,1,9,N","004500,1,N,1","-0010,1","-0010,1","99999,9","04,5,+04800,1,99,9",,,,"04,99,1,99,9,99,9,99999,9,99,9,99,9","10091,1,99999,9","10,1",,,,"MET065METAR EGUY 030850Z 26004KT 4500 BR SCT160 M01/M01 Q1009 BLACKGRN;",
"03566099999","2010-02-03T09:50:00","4","52.357167","-0.107833","41.14","WYTON, UK","FM-15","EGUY ","V020","240,1,N,0021,1","04800,1,C,N","004500,1,N,1","+0000,1","+0000,1","99999,9","07,5,+04800,1,99,9",,,,"07,99,1,99,9,99,9,99999,9,99,9,99,9","10091,1,99999,9","10,1",,,,"MET065METAR EGUY 030950Z 24004KT 4500 BR BKN160 M00/M00 Q1009 BLACKGRN;",
"03566099999","2010-02-03T10:20:00","4","52.357167","-0.107833","41.14","WYTON, UK","FM-15","EGUY ","V020","230,1,N,0021,1","06000,1,C,N","003500,1,N,1","+0000,1","+0000,1","99999,9","07,5,+06000,1,99,9",,,,"07,99,1,99,9,99,9,99999,9,99,9,99,9","10091,1,99999,9","10,1",,,,"MET060METAR EGUY 031020Z 23004KT 3500 BR BKN200 00/M00 Q1009 YLO1;",
"03566099999","2010-02-03T10:50:00","4","52.357167","-0.107833","41.14","WYTON, UK","FM-15","EGUY ","V020","230,1,N,0026,1","06000,1,C,N","004000,1,N,1","+0010,1","+0000,1","99999,9","04,5,+04200,1,99,9","07,5,+06000,1,99,9",,,"07,99,1,99,9,99,9,99999,9,99,9,99,9","10091,1,99999,9","10,1",,,,"MET065METAR EGUY 031050Z 23005KT 4000 BR SCT140 BKN200 01/00 Q1009 GRN;",
"03566099999","2010-02-03T11:50:00","4","52.357167","-0.107833","41.14","WYTON, UK","FM-15","EGUY ","V020","220,1,N,0021,1","06000,1,C,N","004500,1,N,1","+0010,1","+0000,1","99999,9","04,5,+03000,1,99,9","07,5,+06000,1,99,9",,,"07,99,1,99,9,99,9,99999,9,99,9,99,9","10102,1,99999,9","05,1",,,,"MET065METAR EGUY 031150Z 22004KT 4500 HZ SCT100 BKN200 01/00 Q1010 GRN;",
"03566099999","2010-02-03T12:50:00","4","52.357167","-0.107833","41.14","WYTON, UK","FM-15","EGUY ","V020","180,1,N,0021,1","99999,9,C,N","007000,1,N,1","+0030,1","+0010,1","99999,9","02,5,+00360,1,99,9","04,5,+03000,1,99,9",,,"04,99,1,99,9,99,9,99999,9,99,9,99,9","10091,1,99999,9","05,1",,,,"MET065METAR EGUY 031250Z 18004KT 7000 HZ FEW012 SCT100 03/01 Q1009 WHT;","P01 030003SCOCIG"
"03566099999","2010-02-03T13:50:00","4","52.357167","-0.107833","41.14","WYTON, UK","FM-15","EGUY ","V020","180,1,N,0026,1","02100,1,C,N","007000,1,N,1","+0030,1","+0010,1","99999,9","04,5,+01500,1,99,9","07,5,+02100,1,99,9",,,"07,99,1,99,9,99,9,99999,9,99,9,99,9","10091,1,99999,9","05,1",,,,"MET065METAR EGUY 031350Z 18005KT 7000 HZ SCT050 BKN070 03/01 Q1009 WHT;",
"03566099999","2010-02-03T14:50:00","4","52.357167","-0.107833","41.14","WYTON, UK","FM-15","EGUY ","V020","160,1,N,0026,1","01500,1,C,N","008000,1,N,1","+0030,1","+0010,1","99999,9","02,5,+00600,1,99,9","04,5,+01500,1,99,9","07,5,+02100,1,99,9",,"07,99,1,99,9,99,9,99999,9,99,9,99,9","10091,1,99999,9","05,1",,,,"MET072METAR EGUY 031450Z 16005KT 8000 HZ FEW020 SCT050 BKN070 03/01 Q1009 BLU;",
"03566099999","2010-02-04T07:50:00","4","52.357167","-0.107833","41.14","WYTON, UK","FM-15","EGUY ","V020","090,1,N,0021,1","00015,1,C,N","000900,1,N,1","+0040,1","+0040,1","99999,9","09,1,+00015,1,99,9",,,,"09,99,1,99,9,99,9,00025,1,99,9,99,9","10071,1,99999,9","45,1",,,,"MET057METAR EGUY 040750Z 09004KT 0900 FG VV/// 04/04 Q1007 AMB;",
"03566099999","2010-02-04T08:50:00","4","52.357167","-0.107833","41.14","WYTON, UK","FM-15","EGUY ","V020","090,1,N,0026,1","00015,1,C,N","000400,1,N,1","+0050,1","+0050,1","99999,9","09,1,+00015,1,99,9",,,,"09,99,1,99,9,99,9,00025,1,99,9,99,9","10071,1,99999,9","45,1",,,,"MET057METAR EGUY 040850Z 09005KT 0400 FG VV/// 05/05 Q1007 RED;",
"03566099999","2010-02-04T09:50:00","4","52.357167","-0.107833","41.14","WYTON, UK","FM-15","EGUY ","V020","120,1,N,0021,1","00060,1,C,N","000500,1,N,1","+0050,1","+0050,1","99999,9","07,5,+00060,1,99,9","08,5,+00900,1,99,9",,,"08,99,1,99,9,99,9,99999,9,99,9,99,9","10071,1,99999,9","44,1",,,,"MET065METAR EGUY 040950Z 12004KT 0500 FG BKN002 OVC030 05/05 Q1007 RED;",
"03566099999","2010-02-04T10:50:00","4","52.357167","-0.107833","41.14","WYTON, UK","FM-15","EGUY ","V020","130,1,N,0021,1","00270,1,C,N","001500,1,N,1","+0060,1","+0060,1","99999,9","02,5,+00090,1,99,9","04,5,+00270,1,99,9","08,5,+01140,1,99,9",,"08,99,1,99,9,99,9,99999,9,99,9,99,9","10071,1,99999,9","61,1",,,,"MET073METAR EGUY 041050Z 13004KT 1500 -RA FEW003 SCT009 OVC038 06/06 Q1007 AMB;",
"03566099999","2010-02-04T11:10:00","4","52.357167","-0.107833","41.14","WYTON, UK","FM-15","EGUY ","V020","140,1,N,0036,1","01140,1,C,N","004000,1,N,1","+0070,1","+0070,1","99999,9","04,5,+00270,1,99,9","07,5,+01140,1,99,9",,,"07,99,1,99,9,99,9,99999,9,99,9,99,9","10071,1,99999,9","61,1",,,,"MET066METAR EGUY 041110Z 14007KT 4000 -RA SCT009 BKN038 07/07 Q1007 GRN;",
"03566099999","2010-02-04T11:50:00","4","52.357167","-0.107833","41.14","WYTON, UK","FM-15","EGUY ","V020","170,1,N,0062,1","01200,1,C,N","004500,1,N,1","+0080,1","+0080,1","99999,9","04,5,+00180,1,99,9","08,5,+01200,1,99,9",,,"08,99,1,99,9,99,9,99999,9,99,9,99,9","10061,1,99999,9","61,1",,,,"MET067METAR EGUY 041150Z 17012KT 4500 -RA SCT006 OVC040 08/08 Q1006 YLO1;",
"03566099999","2010-02-04T13:50:00","4","52.357167","-0.107833","41.14","WYTON, UK","FM-15","EGUY ","V020","150,1,N,0046,1","00210,1,C,N","008000,1,N,1","+0080,1","+0080,1","99999,9","07,5,+00210,1,99,9","08,5,+00870,1,99,9",,,"08,99,1,99,9,99,9,99999,9,99,9,99,9","10051,1,99999,9","10,1","61,1",,,"MET069METAR EGUY 041350Z 15009KT 8000 -RA BR BKN007 OVC029 08/08 Q1005 GRN;",
"03566099999","2010-02-04T15:50:00","4","52.357167","-0.107833","41.14","WYTON, UK","FM-15","EGUY ","V020","150,1,N,0051,1","00210,1,C,N","008000,1,N,1","+0080,1","+0070,1","99999,9","07,5,+00210,1,99,9","08,5,+00480,1,99,9",,,"08,99,1,99,9,99,9,99999,9,99,9,99,9","10041,1,99999,9","10,1",,,,"MET065METAR EGUY 041550Z 15010KT 8000 BR BKN007 OVC016 08/07 Q1004 GRN;",
"03566099999","2010-02-05T07:50:00","4","52.357167","-0.107833","41.14","WYTON, UK","FM-15","EGUY ","V020","170,1,N,0041,1","00240,1,C,N","004500,1,N,1","+0050,1","+0050,1","99999,9","04,5,+00180,1,99,9","08,5,+00240,1,99,9",,,"08,99,1,99,9,99,9,99999,9,99,9,99,9","09980,1,99999,9","63,1",,,,"MET066METAR EGUY 050750Z 17008KT 4500 RA SCT006 OVC008 05/05 Q0998 YLO1;",
"03566099999","2010-02-05T08:50:00","4","52.357167","-0.107833","41.14","WYTON, UK","FM-15","EGUY ","V020","200,1,N,0021,1","00330,1,C,N","004500,1,N,1","+0060,1","+0060,1","99999,9","04,5,+00180,1,99,9","08,5,+00330,1,99,9",,,"08,99,1,99,9,99,9,99999,9,99,9,99,9","09980,1,99999,9","61,1",,,,"MET067METAR EGUY 050850Z 20004KT 4500 -RA SCT006 OVC011 06/06 Q0998 YLO1;",
"03566099999","2010-02-05T09:50:00","4","52.357167","-0.107833","41.14","WYTON, UK","FM-15","EGUY ","V020","230,1,N,0041,1","00390,1,C,N","005000,1,N,1","+0060,1","+0060,1","99999,9","04,5,+00180,1,99,9","08,5,+00390,1,99,9",,,"08,99,1,99,9,99,9,99999,9,99,9,99,9","09990,1,99999,9","10,1",,,,"MET066METAR EGUY 050950Z 23008KT 5000 BR SCT006 OVC013 06/06 Q0999 YLO1;",
"03566099999","2010-02-05T11:15:00","4","52.357167","-0.107833","41.14","WYTON, UK","FM-15","EGUY ","V020","220,1,N,0036,1","03900,1,C,N","008000,1,N,1","+0070,1","+0060,1","99999,9","02,5,+00450,1,99,9","08,5,+03900,1,99,9",,,"08,99,1,99,9,99,9,99999,9,99,9,99,9","10000,1,99999,9","05,1",,,,"MET065METAR EGUY 051115Z 22007KT 8000 HZ FEW015 OVC130 07/06 Q1000 BLU;",
"03566099999","2010-02-05T11:50:00","4","52.357167","-0.107833","41.14","WYTON, UK","FM-15","EGUY ","V020","240,1,N,0051,1","04500,1,C,N","011265,1,N,1","+0080,1","+0070,1","99999,9","02,5,+00600,1,99,9","07,5,+04500,1,99,9",,,"07,99,1,99,9,99,9,99999,9,99,9,99,9","10010,1,99999,9",,,,,"MET062METAR EGUY 051150Z 24010KT 9999 FEW020 BKN150 08/07 Q1001 BLU;",
"03566099999","2010-02-05T12:50:00","4","52.357167","-0.107833","41.14","WYTON, UK","FM-15","EGUY ","V020","230,1,N,0041,1","99999,9,9,Y","009900,1,N,1","+0080,1","+0070,1","99999,9",,,,,,"10000,1,99999,9",,,,,"MET049METAR EGUY 051250Z 23008KT CAVOK 08/07 Q1000 BLU;",
"03566099999","2010-02-05T13:50:00","4","52.357167","-0.107833","41.14","WYTON, UK","FM-15","EGUY ","V020","220,1,N,0041,1","04500,1,C,N","011265,1,N,1","+0090,1","+0060,1","99999,9","02,5,+00600,1,99,9","04,5,+04500,1,99,9","07,5,+07500,1,99,9",,"07,99,1,99,9,99,9,99999,9,99,9,99,9","10010,1,99999,9",,,,,"MET069METAR EGUY 051350Z 22008KT 9999 FEW020 SCT150 BKN250 09/06 Q1001 BLU;",
"03566099999","2010-02-05T14:50:00","4","52.357167","-0.107833","41.14","WYTON, UK","FM-15","EGUY ","V020","210,1,N,0046,1","99999,9,C,N","011265,1,N,1","+0100,1","+0060,1","99999,9","02,5,+00600,1,99,9","04,5,+04500,1,99,9",,,"04,99,1,99,9,99,9,99999,9,99,9,99,9","10010,1,99999,9",,,,,"MET062METAR EGUY 051450Z 21009KT 9999 FEW020 SCT150 10/06 Q1001 BLU;","P01 045003SCOCIG"
"03566099999","2010-02-06T07:50:00","4","52.357167","-0.107833","41.14","WYTON, UK","FM-15","EGUY ","V020","360,1,N,0041,1","22000,1,9,N","001500,1,N,1","-0010,1","-0010,1","99999,9","02,5,+00060,1,99,9",,,,"02,99,1,99,9,99,9,99999,9,99,9,99,9","10108,1,99999,9","10,1",,,,"MET060METAR EGUY 060750Z 36008KT 1500 BR FEW002 M01/M01 Q1011 AMB;",
"03566099999","2010-02-06T08:50:00","4","52.357167","-0.107833","41.14","WYTON, UK","FM-15","EGUY ","V020","360,1,N,0041,1","22000,1,9,N","003000,1,N,1","+0000,1","+0000,1","99999,9","02,5,+00060,1,99,9",,,,"02,99,1,99,9,99,9,99999,9,99,9,99,9","10119,1,99999,9","10,1",,,,"MET061METAR EGUY 060850Z 36008KT 3000 BR FEW002 M00/M00 Q1012 YLO1;",
"03566099999","2010-02-06T09:50:00","4","52.357167","-0.107833","41.14","WYTON, UK","FM-15","EGUY ","V020","350,1,N,0036,1","22000,1,9,N","003000,1,N,1","+0020,1","+0020,1","99999,9","02,5,+00060,1,99,9",,,,"02,99,1,99,9,99,9,99999,9,99,9,99,9","10139,1,99999,9","10,1",,,,"MET059METAR EGUY 060950Z 35007KT 3000 BR FEW002 02/02 Q1014 YLO1;",
"03566099999","2010-02-06T10:50:00","4","52.357167","-0.107833","41.14","WYTON, UK","FM-15","EGUY ","V020","360,1,N,0046,1","22000,1,9,N","003500,1,N,1","+0030,1","+0030,1","99999,9","04,5,+00120,1,99,9",,,,"04,99,1,99,9,99,9,99999,9,99,9,99,9","10149,1,99999,9","10,1",,,,"MET059METAR EGUY 061050Z 36009KT 3500 BR SCT004 03/03 Q1015 YLO2;",
"03566099999","2010-02-06T11:10:00","4","52.357167","-0.107833","41.14","WYTON, UK","FM-15","EGUY ","V020","350,1,N,0062,1","00060,1,C,N","000300,1,N,1","+0040,1","+0040,1","99999,9","04,5,+00030,1,99,9","08,5,+00060,1,99,9",,,"08,99,1,99,9,99,9,99999,9,99,9,99,9","10149,1,99999,9","44,1",,,,"MET065METAR EGUY 061110Z 35012KT 0300 FG SCT001 OVC002 04/04 Q1015 RED;",
"03566099999","2010-02-07T07:50:00","4","52.357167","-0.107833","41.14","WYTON, UK","FM-15","EGUY ","V020","360,1,N,0041,1","00090,1,C,N","002500,1,N,1","+0030,1","+0030,1","99999,9","08,5,+00090,1,99,9",,,,"08,99,1,99,9,99,9,99999,9,99,9,99,9","10240,1,99999,9","10,1",,,,"MET059METAR EGUY 070750Z 36008KT 2500 BR OVC003 03/03 Q1024 YLO2;",
"03566099999","2010-02-07T08:50:00","4","52.357167","-0.107833","41.14","WYTON, UK","FM-15","EGUY ","V020","350,1,N,0036,1","00090,1,C,N","003000,1,N,1","+0030,1","+0030,1","99999,9","08,5,+00090,1,99,9",,,,"08,99,1,99,9,99,9,99999,9,99,9,99,9","10240,1,99999,9","10,1",,,,"MET059METAR EGUY 070850Z 35007KT 3000 BR OVC003 03/03 Q1024 YLO2;",
"03566099999","2010-02-08T07:50:00","4","52.357167","-0.107833","41.14","WYTON, UK","FM-15","EGUY ","V020","030,1,N,0062,1","00180,1,C,N","007000,1,N,1","+0010,1","+0010,1","99999,9","08,5,+00180,1,99,9",,,,"08,99,1,99,9,99,9,99999,9,99,9,99,9","10139,1,99999,9","61,1",,,,"MET060METAR EGUY 080750Z 03012KT 7000 -RA OVC006 01/01 Q1014 YLO1;",
"03566099999","2010-02-08T08:50:00","4","52.357167","-0.107833","41.14","WYTON, UK","FM-15","EGUY ","V020","030,1,N,0051,1","00210,1,C,N","005000,1,N,1","+0010,1","+0010,1","99999,9","08,5,+00210,1,99,9",,,,"08,99,1,99,9,99,9,99999,9,99,9,99,9","10139,1,99999,9","61,1","71,1",,,"MET061METAR EGUY 080850Z 03010KT 5000 -RASN OVC007 01/01 Q1014 GRN;",
"03566099999","2010-02-08T09:50:00","4","52.357167","-0.107833","41.14","WYTON, UK","FM-15","EGUY ","V020","030,1,N,0062,1","00210,1,C,N","007000,1,N,1","+0010,1","+0010,1","99999,9","02,5,+00150,1,99,9","07,5,+00210,1,99,9","08,5,+00420,1,99,9",,"08,99,1,99,9,99,9,99999,9,99,9,99,9","10139,1,99999,9","61,1","71,1",,,"MET075METAR EGUY 080950Z 03012KT 7000 -RASN FEW005 BKN007 OVC014 01/01 Q1014 GRN;",
"03566099999","2010-02-08T10:50:00","4","52.357167","-0.107833","41.14","WYTON, UK","FM-15","EGUY ","V020","030,1,N,0051,1","00180,1,C,N","005000,1,N,1","+0010,1","+0010,1","99999,9","02,5,+00090,1,99,9","07,5,+00180,1,99,9",,,"07,99,1,99,9,99,9,99999,9,99,9,99,9","10139,1,99999,9","61,1","71,1",,,"MET069METAR EGUY 081050Z 03010KT 5000 -RASN FEW003 BKN006 01/01 Q1014 YLO1;",
"03566099999","2010-02-08T11:50:00","4","52.357167","-0.107833","41.14","WYTON, UK","FM-15","EGUY ","V020","040,1,N,0067,1","00180,1,C,N","003000,1,N,1","+0010,1","+0010,1","99999,9","07,5,+00180,1,99,9","08,5,+00540,1,99,9",,,"08,99,1,99,9,99,9,99999,9,99,9,99,9","10139,1,99999,9","71,1",,,,"MET067METAR EGUY 081150Z 04013KT 3000 -SN BKN006 OVC018 01/01 Q1014 YLO1;",
"03566099999","2010-02-08T12:50:00","4","52.357167","-0.107833","41.14","WYTON, UK","FM-15","EGUY ","V020","040,1,N,0067,1","00210,1,C,N","006000,1,N,1","+0010,1","+0010,1","99999,9","02,5,+00150,1,99,9","04,5,+00210,1,99,9","08,5,+00600,1,99,9",,"08,99,1,99,9,99,9,99999,9,99,9,99,9","10129,1,99999,9","61,1","71,1",,,"MET075METAR EGUY 081250Z 04013KT 6000 -RASN FEW005 SCT007 OVC020 01/01 Q1013 GRN;",
"03566099999","2010-02-09T07:50:00","4","52.357167","-0.107833","41.14","WYTON, UK","FM-15","EGUY ","V020","360,1,N,0031,1","99999,9,C,N","011265,1,N,1","+0000,1","+0000,1","99999,9","02,5,+00600,1,99,9","04,5,+01500,1,99,9",,,"04,99,1,99,9,99,9,99999,9,99,9,99,9","10119,1,99999,9",,,,,"MET064METAR EGUY 090750Z 36006KT 9999 FEW020 SCT050 M00/M00 Q1012 BLU;","P01 015003SCOCIG"
"03566099999","2010-02-09T08:50:00","4","52.357167","-0.107833","41.14","WYTON, UK","FM-15","EGUY ","V020","360,1,N,0046,1","99999,9,C,N","011265,1,N,1","+0010,1","+0010,1","99999,9","02,5,+00600,1,99,9","04,5,+01500,1,99,9",,,"04,99,1,99,9,99,9,99999,9,99,9,99,9","10119,1,99999,9",,,,,"MET062METAR EGUY 090850Z 36009KT 9999 FEW020 SCT050 01/01 Q1012 BLU;","P01 015003SCOCIG"
"03566099999","2010-02-09T09:30:00","4","52.357167","-0.107833","41.14","WYTON, UK","FM-15","EGUY ","V020","330,1,N,0046,1","00600,1,C,N","011265,1,N,1","+0010,1","+0010,1","99999,9","02,5,+00360,1,99,9","07,5,+00600,1,99,9",,,"07,99,1,99,9,99,9,99999,9,99,9,99,9","10119,1,99999,9",,,,,"MET062METAR EGUY 090930Z 33009KT 9999 FEW012 BKN020 01/01 Q1012 WHT;",
"03566099999","2010-02-09T09:50:00","4","52.357167","-0.107833","41.14","WYTON, UK","FM-15","EGUY ","V020","340,1,N,0046,1","99999,9,C,N","011265,1,N,1","+0020,1","+0010,1","99999,9","04,5,+00600,1,99,9","04,5,+01500,1,99,9",,,"04,99,1,99,9,99,9,99999,9,99,9,99,9","10119,1,99999,9","71,1",,,,"MET066METAR EGUY 090950Z 34009KT 9999 -SN SCT020 SCT050 02/01 Q1012 WHT;","P01 015003SCOCIG"
"03566099999","2010-02-09T10:10:00","4","52.357167","-0.107833","41.14","WYTON, UK","FM-15","EGUY ","V020","350,1,N,0051,1","22000,1,9,N","011265,1,N,1","+0020,1","+0010,1","99999,9","02,5,+00600,1,99,9",,,,"02,99,1,99,9,99,9,99999,9,99,9,99,9","10119,1,99999,9",,,,,"MET055METAR EGUY 091010Z 35010KT 9999 FEW020 02/01 Q1012 BLU;",
"03566099999","2010-02-09T10:50:00","4","52.357167","-0.107833","41.14","WYTON, UK","FM-15","EGUY ","V020","350,1,N,0067,1","99999,9,C,N","011265,1,N,1","+0030,1","+0020,1","99999,9","02,5,+00180,1,99,9","04,5,+00900,1,99,9",,,"04,99,1,99,9,99,9,99999,9,99,9,99,9","10119,1,99999,9",,,,,"MET062METAR EGUY 091050Z 35013KT 9999 FEW006 SCT030 03/02 Q1012 BLU;","P01 009003SCOCIG"
"03566099999","2010-02-09T11:50:00","4","52.357167","-0.107833","41.14","WYTON, UK","FM-15","EGUY ","V020","360,1,N,0077,1","00480,1,C,N","011265,1,N,1","+0040,1","+0010,1","99999,9","07,5,+00480,1,99,9",,,,"07,99,1,99,9,99,9,99999,9,99,9,99,9","10119,1,99999,9",,,,,"MET055METAR EGUY 091150Z 36015KT 9999 BKN016 04/01 Q1012 WHT;",
"03566099999","2010-02-09T12:50:00","4","52.357167","-0.107833","41.14","WYTON, UK","FM-15","EGUY ","V020","010,1,N,0113,1","22000,1,9,N","011265,1,N,1","+0050,1","+0010,1","99999,9","04,5,+00540,1,09,1",,,,"04,99,1,99,9,99,9,99999,9,99,9,99,9","10119,1,99999,9",,,,,"MET057METAR EGUY 091250Z 01022KT 9999 SCT018CB 05/01 Q1012 WHT;",
"03566099999","2010-02-09T13:50:00","4","52.357167","-0.107833","41.14","WYTON, UK","FM-15","EGUY ","V020","020,1,N,0087,1","22000,1,9,N","011265,1,N,1","+0050,1","+0010,1","99999,9","04,5,+00540,1,99,9",,,,"04,99,1,99,9,99,9,99999,9,99,9,99,9","10119,1,99999,9",,,,,"MET055METAR EGUY 091350Z 02017KT 9999 SCT018 05/01 Q1012 WHT;",
"03566099999","2010-02-09T15:50:00","4","52.357167","-0.107833","41.14","WYTON, UK","FM-15","EGUY ","V020","010,1,N,0067,1","22000,1,9,N","011265,1,N,1","+0040,1","+0000,1","99999,9","04,5,+00750,1,99,9",,,,"04,99,1,99,9,99,9,99999,9,99,9,99,9","10129,1,99999,9",,,,,"MET055METAR EGUY 091550Z 01013KT 9999 SCT025 04/00 Q1013 BLU;",
"03566099999","2010-02-10T07:50:00","4","52.357167","-0.107833","41.14","WYTON, UK","FM-15","EGUY ","V020","360,1,N,0077,1","22000,1,9,N","011265,1,N,1","+0000,1","-0010,1","99999,9","02,5,+00300,1,09,1","02,5,+00360,1,99,9",,,"02,99,1,99,9,99,9,99999,9,99,9,99,9","10149,1,99999,9","16,1",,,,"MET070METAR EGUY 100750Z 36015KT 9999 VCSH FEW010CB FEW012 00/M01 Q1015 BLU;",
"03566099999","2010-02-10T08:50:00","4","52.357167","-0.107833","41.14","WYTON, UK","FM-15","EGUY ","V020","020,1,N,0051,1","99999,9,C,N","000900,1,N,1","+0000,1","-0010,1","99999,9","04,5,+00300,1,09,1","04,5,+00360,1,99,9",,,"04,99,1,99,9,99,9,99999,9,99,9,99,9","10159,1,99999,9","86,5",,,,"MET070METAR EGUY 100850Z 02010KT 0900 SHSN SCT010CB SCT012 00/M01 Q1016 AMB;","P01 003603SCOCIG"
"03566099999","2010-02-10T09:50:00","4","52.357167","-0.107833","41.14","WYTON, UK","FM-15","EGUY ","V020","030,1,N,0072,1","99999,9,C,N","011265,1,N,1","+0000,1","-0010,1","99999,9","02,5,+00300,1,09,1","04,5,+00450,1,99,9",,,"04,99,1,99,9,99,9,99999,9,99,9,99,9","10169,1,99999,9","16,1",,,,"MET070METAR EGUY 100950Z 03014KT 9999 VCSH FEW010CB SCT015 00/M01 Q1017 BLU;","P01 004503SCOCIG"
"03566099999","2010-02-10T10:50:00","4","52.357167","-0.107833","41.14","WYTON, UK","FM-15","EGUY ","V020","030,1,N,0062,1","22000,1,9,N","011265,1,N,1","+0010,1","-0010,1","99999,9","02,5,+00300,1,09,1",,,,"02,99,1,99,9,99,9,99999,9,99,9,99,9","10180,1,99999,9","16,1",,,,"MET063METAR EGUY 101050Z 03012KT 9999 VCSH FEW010CB 01/M01 Q1018 BLU;",
"03566099999","2010-02-10T11:50:00","4","52.357167","-0.107833","41.14","WYTON, UK","FM-15","EGUY ","V020","030,1,N,0082,1","22000,1,9,N","011265,1,N,1","+0020,1","-0010,1","99999,9","02,5,+00300,1,09,1",,,,"02,99,1,99,9,99,9,99999,9,99,9,99,9","10180,1,99999,9",,,,,"MET058METAR EGUY 101150Z 03016KT 9999 FEW010CB 02/M01 Q1018 BLU;",
"03566099999","2010-02-10T12:50:00","4","52.357167","-0.107833","41.14","WYTON, UK","FM-15","EGUY ","V020","030,1,N,0072,1","22000,1,9,N","011265,1,N,1","+0030,1","-0030,1","99999,9","04,5,+00750,1,99,9",,,,"04,99,1,99,9,99,9,99999,9,99,9,99,9","10180,1,99999,9",,,,,"MET056METAR EGUY 101250Z 03014KT 9999 SCT025 03/M03 Q1018 BLU;",
"03566099999","2010-02-10T13:50:00","4","52.357167","-0.107833","41.14","WYTON, UK","FM-15","EGUY ","V020","030,1,N,0082,1","99999,9,C,N","011265,1,N,1","+0030,1","-0030,1","99999,9","02,5,+00900,1,99,9","04,5,+01050,1,99,9",,,"04,99,1,99,9,99,9,99999,9,99,9,99,9","10180,1,99999,9",,,,,"MET063METAR EGUY 101350Z 03016KT 9999 FEW030 SCT035 03/M03 Q1018 BLU;","P01 010503SCOCIG"
"03566099999","2010-02-10T14:50:00","4","52.357167","-0.107833","41.14","WYTON, UK","FM-15","EGUY ","V020","020,1,N,0062,1","22000,1,9,N","011265,1,N,1","+0020,1","-0040,1","99999,9","02,5,+00600,1,09,1",,,,"02,99,1,99,9,99,9,99999,9,99,9,99,9","10190,1,99999,9",,,,,"MET058METAR EGUY 101450Z 02012KT 9999 FEW020CB 02/M04 Q1019 BLU;",
"03566099999","2010-02-10T15:50:00","4","52.357167","-0.107833","41.14","WYTON, UK","FM-15","EGUY ","V020","010,1,N,0062,1","99999,9,C,N","011265,1,N,1","+0020,1","-0030,1","99999,9","02,5,+00600,1,09,1","04,5,+00900,1,99,9",,,"04,99,1,99,9,99,9,99999,9,99,9,99,9","10190,1,99999,9",,,,,"MET065METAR EGUY 101550Z 01012KT 9999 FEW020CB SCT030 02/M03 Q1019 BLU;","P01 009003SCOCIG"
"03566099999","2010-02-11T07:50:00","4","52.357167","-0.107833","41.14","WYTON, UK","FM-15","EGUY ","V020","030,1,N,0072,1","01500,1,C,N","011265,1,N,1","+0000,1","-0050,1","99999,9","02,5,+01050,1,99,9","07,5,+01500,1,99,9",,,"07,99,1,99,9,99,9,99999,9,99,9,99,9","10220,1,99999,9",,,,,"MET063METAR EGUY 110750Z 03014KT 9999 FEW035 BKN050 00/M05 Q1022 BLU;",
"03566099999","2010-02-11T08:50:00","4","52.357167","-0.107833","41.14","WYTON, UK","FM-15","EGUY ","V020","030,1,N,0067,1","01350,1,C,N","011265,1,N,1","+0010,1","-0040,1","99999,9","02,5,+01050,1,99,9","07,5,+01350,1,99,9",,,"07,99,1,99,9,99,9,99999,9,99,9,99,9","10230,1,99999,9",,,,,"MET068METAR EGUY 110850Z 03013KT 9999 FEW035 BKN045 01/M04 Q1023 BLACKBLU;",
"03566099999","2010-02-11T09:50:00","4","52.357167","-0.107833","41.14","WYTON, UK","FM-15","EGUY ","V020","030,1,N,0072,1","01410,1,C,N","011265,1,N,1","+0010,1","-0040,1","99999,9","02,5,+01050,1,99,9","07,5,+01410,1,99,9",,,"07,99,1,99,9,99,9,99999,9,99,9,99,9","10230,1,99999,9",,,,,"MET068METAR EGUY 110950Z 03014KT 9999 FEW035 BKN047 01/M04 Q1023 BLACKBLU;",
"03566099999","2010-02-11T10:50:00","4","52.357167","-0.107833","41.14","WYTON, UK","FM-15","EGUY ","V020","020,1,N,0062,1","01410,1,C,N","011265,1,N,1","+0020,1","-0040,1","99999,9","04,5,+01020,1,99,9","07,5,+01410,1,99,9",,,"07,99,1,99,9,99,9,99999,9,99,9,99,9","10230,1,99999,9",,,,,"MET063METAR EGUY 111050Z 02012KT 9999 SCT034 BKN047 02/M04 Q1023 BLU;",
"03566099999","2010-02-11T11:50:00","4","52.357167","-0.107833","41.14","WYTON, UK","FM-15","EGUY ","V020","020,1,N,0062,1","00960,1,C,N","011265,1,N,1","+0020,1","-0030,1","99999,9","07,5,+00960,1,99,9",,,,"07,99,1,99,9,99,9,99999,9,99,9,99,9","10230,1,99999,9",,,,,"MET056METAR EGUY 111150Z 02012KT 9999 BKN032 02/M03 Q1023 BLU;",
"03566099999","2010-02-11T12:50:00","4","52.357167","-0.107833","41.14","WYTON, UK","FM-15","EGUY ","V020","010,1,N,0072,1","99999,9,C,N","011265,1,N,1","+0020,1","-0030,1","99999,9","04,5,+00900,1,99,9","04,5,+01230,1,99,9",,,"04,99,1,99,9,99,9,99999,9,99,9,99,9","10230,1,99999,9",,,,,"MET063METAR EGUY 111250Z 01014KT 9999 SCT030 SCT041 02/M03 Q1023 BLU;","P01 012303SCOCIG"
"03566099999","2010-02-12T07:50:00","4","52.357167","-0.107833","41.14","WYTON, UK","FM-15","EGUY ","V020","350,1,N,0057,1","01800,1,C,N","004500,1,N,1","+0020,1","+0020,1","99999,9","02,5,+00210,1,99,9","07,5,+01800,1,99,9",,,"07,99,1,99,9,99,9,99999,9,99,9,99,9","10230,1,99999,9","10,1",,,,"MET065METAR EGUY 120750Z 35011KT 4500 BR FEW007 BKN060 02/02 Q1023 GRN;",
"03566099999","2010-02-12T08:50:00","4","52.357167","-0.107833","41.14","WYTON, UK","FM-15","EGUY ","V020","350,1,N,0051,1","00900,1,C,N","006000,1,N,1","+0020,1","+0020,1","99999,9","02,5,+00240,1,99,9","04,5,+00900,1,99,9","07,5,+01800,1,99,9",,"07,99,1,99,9,99,9,99999,9,99,9,99,9","10230,1,99999,9","10,1",,,,"MET072METAR EGUY 120850Z 35010KT 6000 BR FEW008 SCT030 BKN060 02/02 Q1023 WHT;",
"03566099999","2010-02-12T09:20:00","4","52.357167","-0.107833","41.14","WYTON, UK","FM-15","EGUY ","V020","350,1,N,0062,1","00600,1,C,N","006000,1,N,1","+0020,1","+0020,1","99999,9","04,5,+00180,1,99,9","07,5,+00600,1,99,9","07,5,+01800,1,99,9",,"07,99,1,99,9,99,9,99999,9,99,9,99,9","10230,1,99999,9","10,1",,,,"MET073METAR EGUY 120920Z 35012KT 6000 BR SCT006 BKN020 BKN060 02/02 Q1023 YLO1;",
"03566099999","2010-02-12T09:50:00","4","52.357167","-0.107833","41.14","WYTON, UK","FM-15","EGUY ","V020","350,1,N,0057,1","00180,1,C,N","007000,1,N,1","+0030,1","+0020,1","99999,9","07,5,+00180,1,99,9","07,5,+00600,1,99,9",,,"07,99,1,99,9,99,9,99999,9,99,9,99,9","10230,1,99999,9","10,1",,,,"MET066METAR EGUY 120950Z 35011KT 7000 BR BKN006 BKN020 03/02 Q1023 YLO1;",
"03566099999","2010-02-12T10:50:00","4","52.357167","-0.107833","41.14","WYTON, UK","FM-15","EGUY ","V020","360,1,N,0051,1","00150,1,C,N","011265,1,N,1","+0040,1","+0030,1","99999,9","07,5,+00150,1,99,9","07,5,+00630,1,99,9","07,5,+01800,1,99,9",,"07,99,1,99,9,99,9,99999,9,99,9,99,9","10230,1,99999,9",,,,,"MET070METAR EGUY 121050Z 36010KT 9999 BKN005 BKN021 BKN060 04/03 Q1023 YLO1;",
"03566099999","2010-02-12T11:50:00","4","52.357167","-0.107833","41.14","WYTON, UK","FM-15","EGUY ","V020","020,1,N,0051,1","00240,1,C,N","011265,1,N,1","+0050,1","+0030,1","99999,9","02,5,+00150,1,99,9","04,5,+00240,1,99,9","07,5,+00900,1,99,9",,"07,99,1,99,9,99,9,99999,9,99,9,99,9","10230,1,99999,9",,,,,"MET069METAR EGUY 121150Z 02010KT 9999 FEW005 SCT008 BKN030 05/03 Q1023 GRN;",
"03566099999","2010-02-12T12:50:00","4","52.357167","-0.107833","41.14","WYTON, UK","FM-15","EGUY ","V020","030,1,N,0082,1","00900,1,C,N","011265,1,N,1","+0050,1","+0030,1","99999,9","04,5,+00300,1,99,9","07,5,+00900,1,99,9",,,"07,99,1,99,9,99,9,99999,9,99,9,99,9","10230,1,99999,9","81,1",,,,"MET073METAR EGUY 121250Z 03016KT 9999 6000E SHRA SCT010 BKN030 05/03 Q1023 GRN;",
"03566099999","2010-02-12T13:50:00","4","52.357167","-0.107833","41.14","WYTON, UK","FM-15","EGUY ","V020","080,1,N,0041,1","00300,1,C,N","011265,1,N,1","+0040,1","+0030,1","99999,9","02,5,+00180,1,99,9","07,5,+00300,1,99,9","07,1,+01410,1,99,9",,"07,99,1,99,9,99,9,99999,9,99,9,99,9","10240,1,99999,9",,,,,"MET070METAR EGUY 121350Z 08008KT 9999 FEW006 BKN010 BKN0470 04/03 Q1024 GRN;",
"03566099999","2010-02-12T14:50:00","4","52.357167","-0.107833","41.14","WYTON, UK","FM-15","EGUY ","V020","060,1,N,0031,1","00450,1,C,N","011265,1,N,1","+0040,1","+0020,1","99999,9","02,5,+00300,1,99,9","07,5,+00450,1,99,9","07,5,+01200,1,99,9",,"07,99,1,99,9,99,9,99999,9,99,9,99,9","10240,1,99999,9",,,,,"MET069METAR EGUY 121450Z 06006KT 9999 FEW010 BKN015 BKN040 04/02 Q1024 WHT;",
"03566099999","2010-02-13T07:50:00","4","52.357167","-0.107833","41.14","WYTON, UK","FM-15","EGUY ","V020","350,1,N,0036,1","01050,1,C,N","011265,1,N,1","+0000,1","-0020,1","99999,9","02,5,+00750,1,99,9","07,5,+01050,1,99,9",,,"07,99,1,99,9,99,9,99999,9,99,9,99,9","10240,1,99999,9",,,,,"MET063METAR EGUY 130750Z 35007KT 9999 FEW025 BKN035 00/M02 Q1024 BLU;",
"03566099999","2010-02-13T08:50:00","4","52.357167","-0.107833","41.14","WYTON, UK","FM-15","EGUY ","V020","360,1,N,0031,1","00600,1,C,N","011265,1,N,1","+0000,1","+0000,1","99999,9","02,5,+00150,1,99,9","04,5,+00600,1,99,9","07,5,+01500,1,99,9",,"07,99,1,99,9,99,9,99999,9,99,9,99,9","10240,1,99999,9","16,1",,,,"MET075METAR EGUY 130850Z 36006KT 9999 VCSH FEW005 SCT020 BKN050 00/M00 Q1024 WHT;",
"03566099999","2010-02-13T09:50:00","4","52.357167","-0.107833","41.14","WYTON, UK","FM-15","EGUY ","V020","360,1,N,0036,1","99999,9,C,N","011265,1,N,1","+0010,1","-0010,1","99999,9","02,5,+00120,1,99,9","04,5,+01050,1,99,9",,,"04,99,1,99,9,99,9,99999,9,99,9,99,9","10240,1,99999,9","16,1",,,,"MET068METAR EGUY 130950Z 36007KT 9999 VCSH FEW004 SCT035 01/M01 Q1024 BLU;","P01 010503SCOCIG"
"03566099999","2010-02-13T10:50:00","4","52.357167","-0.107833","41.14","WYTON, UK","FM-15","EGUY ","V020","360,1,N,0051,1","01380,1,C,N","011265,1,N,1","+0020,1","-0010,1","99999,9","02,5,+01050,1,99,9","07,5,+01380,1,99,9",,,"07,99,1,99,9,99,9,99999,9,99,9,99,9","10240,1,99999,9",,,,,"MET063METAR EGUY 131050Z 36010KT 9999 FEW035 BKN046 02/M01 Q1024 BLU;",
"03566099999","2010-02-13T11:50:00","4","52.357167","-0.107833","41.14","WYTON, UK","FM-15","EGUY ","V020","340,1,N,0051,1","01200,1,C,N","011265,1,N,1","+0030,1","+0000,1","99999,9","02,5,+00300,1,99,9","07,5,+01200,1,99,9",,,"07,99,1,99,9,99,9,99999,9,99,9,99,9","10230,1,99999,9","16,1",,,,"MET074METAR EGUY 131150Z 34010KT 9999 5000N VCSH FEW010 BKN040 03/M00 Q1023 WHT;",
"03566099999","2010-02-13T12:50:00","4","52.357167","-0.107833","41.14","WYTON, UK","FM-15","EGUY ","V020","360,1,N,0041,1","01050,1,C,N","011265,1,N,1","+0040,1","+0030,1","99999,9","02,5,+00300,1,99,9","04,5,+01050,1,99,9","07,5,+07500,1,99,9",,"07,99,1,99,9,99,9,99999,9,99,9,99,9","10220,1,99999,9","16,1",,,,"MET074METAR EGUY 131250Z 36008KT 9999 VCSH FEW010 SCT035 BKN250 04/03 Q1022 BLU;",
"03566099999","2010-02-13T13:50:00","4","52.357167","-0.107833","41.14","WYTON, UK","FM-15","EGUY ","V020","070,1,N,0041,1","00600,1,C,N","011265,1,N,1","+0020,1","+0010,1","99999,9","02,5,+00450,1,99,9","07,5,+00600,1,99,9","07,5,+00900,1,99,9",,"07,99,1,99,9,99,9,99999,9,99,9,99,9","10220,1,99999,9",,,,,"MET069METAR EGUY 131350Z 07008KT 9999 FEW015 BKN020 BKN030 02/01 Q1022 WHT;",
"03566099999","2010-02-13T14:50:00","4","52.357167","-0.107833","41.14","WYTON, UK","FM-15","EGUY ","V020","350,1,N,0087,1","00540,1,C,N","011265,1,N,1","+0050,1","+0030,1","99999,9","02,5,+00360,1,99,9","07,5,+00540,1,99,9","07,5,+07500,1,99,9",,"07,99,1,99,9,99,9,99999,9,99,9,99,9","10210,1,99999,9",,,,,"MET069METAR EGUY 131450Z 35017KT 9999 FEW012 BKN018 BKN250 05/03 Q1021 WHT;",
"03566099999","2010-02-13T15:50:00","4","52.357167","-0.107833","41.14","WYTON, UK","FM-15","EGUY ","V020","350,1,N,0062,1","00600,1,C,N","011265,1,N,1","+0040,1","+0020,1","99999,9","02,5,+00300,1,99,9","04,5,+00600,1,99,9","07,5,+00900,1,99,9",,"07,99,1,99,9,99,9,99999,9,99,9,99,9","10210,1,99999,9","16,1",,,,"MET074METAR EGUY 131550Z 35012KT 9999 VCSH FEW010 SCT020 BKN030 04/02 Q1021 WHT;",
"03566099999","2010-02-14T07:50:00","4","52.357167","-0.107833","41.14","WYTON, UK","FM-15","EGUY ","V020","350,1,N,0051,1","00120,1,C,N","005000,1,N,1","+0020,1","+0020,1","99999,9","08,5,+00120,1,99,9",,,,"08,99,1,99,9,99,9,99999,9,99,9,99,9","10169,1,99999,9","10,1",,,,"MET059METAR EGUY 140750Z 35010KT 5000 BR OVC004 02/02 Q1017 YLO2;",
"03566099999","2010-02-14T08:50:00","4","52.357167","-0.107833","41.14","WYTON, UK","FM-15","EGUY ","V020","350,1,N,0057,1","00180,1,C,N","007000,1,N,1","+0030,1","+0030,1","99999,9","07,5,+00180,1,99,9","08,5,+00690,1,99,9",,,"08,99,1,99,9,99,9,99999,9,99,9,99,9","10169,1,99999,9","10,1",,,,"MET066METAR EGUY 140850Z 35011KT 7000 BR BKN006 OVC023 03/03 Q1017 YLO1;",
"03566099999","2010-02-14T09:50:00","4","52.357167","-0.107833","41.14","WYTON, UK","FM-15","EGUY ","V020","350,1,N,0072,1","00180,1,C,N","008000,1,N,1","+0040,1","+0030,1","99999,9","08,5,+00180,1,99,9",,,,"08,99,1,99,9,99,9,99999,9,99,9,99,9","10169,1,99999,9","10,1",,,,"MET059METAR EGUY 140950Z 35014KT 8000 BR OVC006 04/03 Q1017 YLO1;",
"03566099999","2010-02-14T10:50:00","4","52.357167","-0.107833","41.14","WYTON, UK","FM-15","EGUY ","V020","350,1,N,0062,1","00300,1,C,N","011265,1,N,1","+0040,1","+0030,1","99999,9","07,5,+00300,1,99,9",,,,"07,99,1,99,9,99,9,99999,9,99,9,99,9","10169,1,99999,9",,,,,"MET055METAR EGUY 141050Z 35012KT 9999 BKN010 04/03 Q1017 GRN;",
"03566099999","2010-02-14T11:50:00","4","52.357167","-0.107833","41.14","WYTON, UK","FM-15","EGUY ","V020","360,1,N,0051,1","00330,1,C,N","011265,1,N,1","+0050,1","+0020,1","99999,9","02,5,+00180,1,99,9","07,5,+00330,1,99,9","07,5,+00900,1,99,9",,"07,99,1,99,9,99,9,99999,9,99,9,99,9","10169,1,99999,9",,,,,"MET069METAR EGUY 141150Z 36010KT 9999 FEW006 BKN011 BKN030 05/02 Q1017 GRN;",
"03566099999","2010-02-14T12:50:00","4","52.357167","-0.107833","41.14","WYTON, UK","FM-15","EGUY ","V020","350,1,N,0051,1","00510,1,C,N","011265,1,N,1","+0050,1","+0020,1","99999,9","04,5,+00390,1,99,9","07,5,+00510,1,99,9",,,"07,99,1,99,9,99,9,99999,9,99,9,99,9","10159,1,99999,9",,,,,"MET062METAR EGUY 141250Z 35010KT 9999 SCT013 BKN017 05/02 Q1016 GRN;",
"03566099999","2010-02-14T13:50:00","4","52.357167","-0.107833","41.14","WYTON, UK","FM-15","EGUY ","V020","010,1,N,0051,1","00600,1,C,N","011265,1,N,1","+0050,1","+0020,1","99999,9","02,5,+00450,1,99,9","04,5,+00600,1,99,9","07,5,+00840,1,99,9",,"07,99,1,99,9,99,9,99999,9,99,9,99,9","10159,1,99999,9",,,,,"MET069METAR EGUY 141350Z 01010KT 9999 FEW015 SCT020 BKN028 05/02 Q1016 WHT;",
"03566099999","2010-02-14T14:50:00","4","52.357167","-0.107833","41.14","WYTON, UK","FM-15","EGUY ","V020","340,1,N,0026,1","00480,1,C,N","011265,1,N,1","+0040,1","+0020,1","99999,9","07,5,+00480,1,99,9",,,,"07,99,1,99,9,99,9,99999,9,99,9,99,9","10149,1,99999,9",,,,,"MET055METAR EGUY 141450Z 34005KT 9999 BKN016 04/02 Q1015 WHT;",
"03566099999","2010-02-14T15:50:00","4","52.357167","-0.107833","41.14","WYTON, UK","FM-15","EGUY ","V020","010,1,N,0015,1","00450,1,C,N","011265,1,N,1","+0030,1","+0020,1","99999,9","07,5,+00450,1,99,9",,,,"07,99,1,99,9,99,9,99999,9,99,9,99,9","10149,1,99999,9",,,,,"MET055METAR EGUY 141550Z 01003KT 9999 BKN015 03/02 Q1015 WHT;",
"03566099999","2010-02-15T07:50:00","4","52.357167","-0.107833","41.14","WYTON, UK","FM-15","EGUY ","V020","210,1,N,0015,1","00900,1,C,N","011265,1,N,1","-0010,1","-0010,1","99999,9","07,5,+00900,1,99,9",,,,"07,99,1,99,9,99,9,99999,9,99,9,99,9","10081,1,99999,9",,,,,"MET057METAR EGUY 150750Z 21003KT 9999 BKN030 M01/M01 Q1008 BLU;",
"03566099999","2010-02-15T08:50:00","4","52.357167","-0.107833","41.14","WYTON, UK","FM-15","EGUY ","V020","200,1,N,0015,1","00900,1,C,N","011265,1,N,1","+0000,1","-0010,1","99999,9","07,5,+00900,1,99,9",,,,"07,99,1,99,9,99,9,99999,9,99,9,99,9","10081,1,99999,9",,,,,"MET056METAR EGUY 150850Z 20003KT 9999 BKN030 00/M01 Q1008 BLU;",
"03566099999","2010-02-15T09:50:00","4","52.357167","-0.107833","41.14","WYTON, UK","FM-15","EGUY ","V020","160,1,N,0021,1","00930,1,C,N","011265,1,N,1","+0000,1","-0010,1","99999,9","02,5,+00750,1,99,9","07,5,+00930,1,99,9",,,"07,99,1,99,9,99,9,99999,9,99,9,99,9","10071,1,99999,9",,,,,"MET063METAR EGUY 150950Z 16004KT 9999 FEW025 BKN031 00/M01 Q1007 BLU;",
"03566099999","2010-02-15T10:50:00","4","52.357167","-0.107833","41.14","WYTON, UK","FM-15","EGUY ","V020","180,1,N,0026,1","00900,1,C,N","011265,1,N,1","+0010,1","-0010,1","99999,9","02,5,+00750,1,99,9","07,5,+00900,1,99,9",,,"07,99,1,99,9,99,9,99999,9,99,9,99,9","10071,1,99999,9",,,,,"MET063METAR EGUY 151050Z 18005KT 9999 FEW025 BKN030 01/M01 Q1007 BLU;",
"03566099999","2010-02-15T11:50:00","4","52.357167","-0.107833","41.14","WYTON, UK","FM-15","EGUY ","V020","170,1,N,0041,1","00900,1,C,N","011265,1,N,1","+0010,1","+0000,1","99999,9","02,5,+00660,1,99,9","07,5,+00900,1,99,9",,,"07,99,1,99,9,99,9,99999,9,99,9,99,9","10061,1,99999,9",,,,,"MET063METAR EGUY 151150Z 17008KT 9999 FEW022 BKN030 01/M00 Q1006 BLU;",
"03566099999","2010-02-15T12:50:00","4","52.357167","-0.107833","41.14","WYTON, UK","FM-15","EGUY ","V020","180,1,N,0046,1","00630,1,C,N","011265,1,N,1","+0010,1","-0020,1","99999,9","02,5,+00540,1,99,9","07,5,+00630,1,99,9",,,"07,99,1,99,9,99,9,99999,9,99,9,99,9","10051,1,99999,9",,,,,"MET063METAR EGUY 151250Z 18009KT 9999 FEW018 BKN021 01/M02 Q1005 WHT;",
"03566099999","2010-02-15T13:50:00","4","52.357167","-0.107833","41.14","WYTON, UK","FM-15","EGUY ","V020","170,1,N,0051,1","00750,1,C,N","011265,1,N,1","+0020,1","-0010,1","99999,9","02,5,+00600,1,99,9","07,5,+00750,1,99,9",,,"07,99,1,99,9,99,9,99999,9,99,9,99,9","10041,1,99999,9",,,,,"MET063METAR EGUY 151350Z 17010KT 9999 FEW020 BKN025 02/M01 Q1004 BLU;",
"03566099999","2010-02-15T14:12:00","4","52.357167","-0.107833","41.14","WYTON, UK","FM-15","EGUY ","V020","170,1,N,0051,1","00750,1,C,N","005000,1,N,1","+0020,1","-0010,1","99999,9","02,5,+00420,1,99,9","07,5,+00750,1,99,9",,,"07,99,1,99,9,99,9,99999,9,99,9,99,9","10041,1,99999,9","71,1",,,,"MET067METAR EGUY 151412Z 17010KT 5000 -SN FEW014 BKN025 02/M01 Q1004 WHT;",
"03566099999","2010-02-15T14:50:00","4","52.357167","-0.107833","41.14","WYTON, UK","FM-15","EGUY ","V020","180,1,N,0041,1","00750,1,C,N","007000,1,N,1","+0020,1","+0000,1","99999,9","04,5,+00420,1,99,9","08,5,+00750,1,99,9",,,"08,99,1,99,9,99,9,99999,9,99,9,99,9","10031,1,99999,9","71,1",,,,"MET066METAR EGUY 151450Z 18008KT 7000 -SN SCT014 OVC025 02/00 Q1003 GRN;",
"03566099999","2010-02-15T15:50:00","4","52.357167","-0.107833","41.14","WYTON, UK","FM-15","EGUY ","V020","180,1,N,0041,1","00750,1,C,N","007000,1,N,1","+0020,1","+0000,1","99999,9","04,5,+00420,1,99,9","08,5,+00750,1,99,9",,,"08,99,1,99,9,99,9,99999,9,99,9,99,9","10031,1,99999,9","71,1",,,,"MET066METAR EGUY 151550Z 18008KT 7000 -SN SCT014 OVC025 02/00 Q1003 GRN;",
"03566099999","2010-02-16T07:50:00","4","52.357167","-0.107833","41.14","WYTON, UK","FM-15","EGUY ","V020","210,1,N,0041,1","22000,1,9,N","011265,1,N,1","+0030,1","+0020,1","99999,9","04,5,+00210,1,99,9",,,,"04,99,1,99,9,99,9,99999,9,99,9,99,9","09929,1,99999,9",,,,,"MET055METAR EGUY 160750Z 21008KT 9999 SCT007 03/02 Q0993 GRN;",
"03566099999","2010-02-16T08:20:00","4","52.357167","-0.107833","41.14","WYTON, UK","FM-15","EGUY ","V020","220,1,N,0041,1","22000,1,9,N","011265,1,N,1","+0030,1","+0020,1","99999,9","02,5,+04500,1,99,9",,,,"02,99,1,99,9,99,9,99999,9,99,9,99,9","09929,1,99999,9",,,,,"MET055METAR EGUY 160820Z 22008KT 9999 FEW150 03/02 Q0993 BLU;",
"03566099999","2010-02-16T08:50:00","4","52.357167","-0.107833","41.14","WYTON, UK","FM-15","EGUY ","V020","210,1,N,0046,1","22000,1,9,N","011265,1,N,1","+0030,1","+0020,1","99999,9","02,5,+00300,1,99,9",,,,"02,99,1,99,9,99,9,99999,9,99,9,99,9","09929,1,99999,9",,,,,"MET055METAR EGUY 160850Z 21009KT 9999 FEW010 03/02 Q0993 BLU;",
"03566099999","2010-02-16T09:50:00","4","52.357167","-0.107833","41.14","WYTON, UK","FM-15","EGUY ","V020","210,1,N,0041,1","22000,1,9,N","011265,1,N,1","+0040,1","+0030,1","99999,9","02,5,+00300,1,99,9",,,,"02,99,1,99,9,99,9,99999,9,99,9,99,9","09929,1,99999,9",,,,,"MET055METAR EGUY 160950Z 21008KT 9999 FEW010 04/03 Q0993 BLU;",
"03566099999","2010-02-16T10:15:00","4","52.357167","-0.107833","41.14","WYTON, UK","FM-15","EGUY ","V020","210,1,N,0036,1","99999,9,C,N","011265,1,N,1","+0050,1","+0040,1","99999,9","04,5,+00210,1,99,9","04,5,+01200,1,99,9",,,"04,99,1,99,9,99,9,99999,9,99,9,99,9","09929,1,99999,9",,,,,"MET062METAR EGUY 161015Z 21007KT 9999 SCT007 SCT040 05/04 Q0993 GRN;","P01 012003SCOCIG"
"03566099999","2010-02-16T10:50:00","4","52.357167","-0.107833","41.14","WYTON, UK","FM-15","EGUY ","V020","999,9,9,9999,9","00240,5,9,N","011265,1,N,1","+0050,1","+0040,1","99999,9","07,5,+00240,5,99,9",,,,,"09920,1,99999,9",,,,,"MET054METAR EGUY 161050Z 20009T 9999 BKN008 05/04 Q0992 GRN;",
"03566099999","2010-02-16T11:50:00","4","52.357167","-0.107833","41.14","WYTON, UK","FM-15","EGUY ","V020","200,1,N,0041,1","00300,1,C,N","011265,1,N,1","+0050,1","+0030,1","99999,9","07,5,+00300,1,99,9","07,5,+01500,1,99,9",,,"07,99,1,99,9,99,9,99999,9,99,9,99,9","09919,1,99999,9",,,,,"MET062METAR EGUY 161150Z 20008KT 9999 BKN010 BKN050 05/03 Q0992 GRN;",
"03566099999","2010-02-16T12:50:00","4","52.357167","-0.107833","41.14","WYTON, UK","FM-15","EGUY ","V020","200,1,N,0036,1","00420,1,C,N","011265,1,N,1","+0060,1","+0030,1","99999,9","02,5,+00330,1,99,9","04,5,+00420,1,99,9","07,5,+02700,1,99,9",,"07,99,1,99,9,99,9,99999,9,99,9,99,9","09919,1,99999,9",,,,,"MET069METAR EGUY 161250Z 20007KT 9999 FEW011 SCT014 BKN090 06/03 Q0992 GRN;",
"03566099999","2010-02-16T13:50:00","4","52.357167","-0.107833","41.14","WYTON, UK","FM-15","EGUY ","V020","190,1,N,0031,1","00390,1,C,N","011265,1,N,1","+0060,1","+0030,1","99999,9","02,5,+00210,1,99,9","07,5,+00390,1,99,9","07,5,+02700,1,99,9",,"07,99,1,99,9,99,9,99999,9,99,9,99,9","09919,1,99999,9",,,,,"MET069METAR EGUY 161350Z 19006KT 9999 FEW007 BKN013 BKN090 06/03 Q0992 GRN;",
"03566099999","2010-02-16T14:50:00","4","52.357167","-0.107833","41.14","WYTON, UK","FM-15","EGUY ","V020","190,1,N,0041,1","00510,1,C,N","011265,1,N,1","+0050,1","+0030,1","99999,9","02,5,+00240,1,99,9","04,5,+00510,1,99,9","07,5,+02700,1,99,9",,"07,99,1,99,9,99,9,99999,9,99,9,99,9","09909,1,99999,9",,,,,"MET069METAR EGUY 161450Z 19008KT 9999 FEW008 SCT017 BKN090 05/03 Q0991 WHT;",
"03566099999","2010-02-16T15:50:00","4","52.357167","-0.107833","41.14","WYTON, UK","FM-15","EGUY ","V020","170,1,N,0031,1","00420,1,C,N","011265,1,N,1","+0040,1","+0030,1","99999,9","02,5,+00300,1,99,9","04,5,+00420,1,99,9","07,5,+00750,1,99,9",,"07,99,1,99,9,99,9,99999,9,99,9,99,9","09909,1,99999,9","61,1",,,,"MET073METAR EGUY 161550Z 17006KT 9999 -RA FEW010 SCT014 BKN025 04/03 Q0991 GRN;",
"03566099999","2010-02-17T07:50:00","4","52.357167","-0.107833","41.14","WYTON, UK","FM-15","EGUY ","V020","030,1,N,0021,1","00120,1,C,N","000300,1,N,1","+0010,1","+0010,1","99999,9","07,5,+00120,1,99,9","08,5,+00360,1,99,9",,,"08,99,1,99,9,99,9,99999,9,99,9,99,9","09909,1,99999,9","44,1",,,,"MET065METAR EGUY 170750Z 03004KT 0300 FG BKN004 OVC012 01/01 Q0991 RED;",
"03566099999","2010-02-17T08:50:00","4","52.357167","-0.107833","41.14","WYTON, UK","FM-15","EGUY ","V020","040,1,N,0021,1","00390,1,C,N","000200,1,N,1","+0020,1","+0020,1","99999,9","07,5,+00000,5,99,9","08,5,+00390,1,99,9",,,"08,99,1,99,9,99,9,99999,9,99,9,99,9","09909,1,99999,9","63,1",,,,"MET065METAR EGUY 170850Z 04004KT 0200 RA BKN000 OVC013 02/02 Q0991 RED;",
"03566099999","2010-02-17T09:50:00","4","52.357167","-0.107833","41.14","WYTON, UK","FM-15","EGUY ","V020","060,1,N,0026,1","00060,1,C,N","001800,1,N,1","+0020,1","+0020,1","99999,9","08,5,+00060,1,99,9",,,,"08,99,1,99,9,99,9,99999,9,99,9,99,9","09909,1,99999,9","61,1",,,,"MET059METAR EGUY 170950Z 06005KT 1800 -RA OVC002 02/02 Q0991 AMB;",
"03566099999","2010-02-17T10:50:00","4","52.357167","-0.107833","41.14","WYTON, UK","FM-15","EGUY ","V020","110,1,N,0015,1","00180,1,C,N","003500,1,N,1","+0030,1","+0030,1","99999,9","08,5,+00180,1,99,9",,,,"08,99,1,99,9,99,9,99999,9,99,9,99,9","09919,1,99999,9","61,1",,,,"MET060METAR EGUY 171050Z 11003KT 3500 -RA OVC006 03/03 Q0992 YLO1;",
"03566099999","2010-02-17T11:50:00","4","52.357167","-0.107833","41.14","WYTON, UK","FM-15","EGUY ","V020","050,1,N,0041,1","00660,1,C,N","004500,1,N,1","+0030,1","+0030,1","99999,9","02,5,+00180,1,99,9","04,5,+00660,1,99,9","07,5,+01800,1,99,9",,"07,99,1,99,9,99,9,99999,9,99,9,99,9","09919,1,99999,9","10,1",,,,"MET072METAR EGUY 171150Z 05008KT 4500 BR FEW006 SCT022 BKN060 03/03 Q0992 GRN;",
"03566099999","2010-02-17T12:10:00","4","52.357167","-0.107833","41.14","WYTON, UK","FM-15","EGUY ","V020","070,1,N,0031,1","00150,1,C,N","004500,1,N,1","+0040,1","+0030,1","99999,9","07,5,+00150,1,99,9",,,,"07,99,1,99,9,99,9,99999,9,99,9,99,9","09919,1,99999,9","10,1",,,,"MET059METAR EGUY 171210Z 07006KT 4500 BR BKN005 04/03 Q0992 YLO1;",
"03566099999","2010-02-17T12:50:00","4","52.357167","-0.107833","41.14","WYTON, UK","FM-15","EGUY ","V020","070,1,N,0021,1","00210,1,C,N","005000,1,N,1","+0040,1","+0040,1","99999,9","07,5,+00210,1,99,9",,,,"07,99,1,99,9,99,9,99999,9,99,9,99,9","09909,1,99999,9","10,1",,,,"MET058METAR EGUY 171250Z 07004KT 5000 BR BKN007 04/04 Q0991 GRN;",
"03566099999","2010-02-17T13:50:00","4","52.357167","-0.107833","41.14","WYTON, UK","FM-15","EGUY ","V020","080,1,N,0026,1","03000,1,C,N","005000,1,N,1","+0060,1","+0040,1","99999,9","04,5,+00240,1,99,9","07,5,+03000,1,99,9",,,"07,99,1,99,9,99,9,99999,9,99,9,99,9","09909,1,99999,9","05,1",,,,"MET065METAR EGUY 171350Z 08005KT 5000 HZ SCT008 BKN100 06/04 Q0991 GRN;",
"03566099999","2010-02-17T14:50:00","4","52.357167","-0.107833","41.14","WYTON, UK","FM-15","EGUY ","V020","060,1,N,0021,1","00450,1,C,N","006000,1,N,1","+0060,1","+0030,1","99999,9","02,5,+00270,1,99,9","04,5,+00450,1,99,9","07,5,+02100,1,99,9",,"07,99,1,99,9,99,9,99999,9,99,9,99,9","09909,1,99999,9","05,1",,,,"MET072METAR EGUY 171450Z 06004KT 6000 HZ FEW009 SCT015 BKN070 06/03 Q0991 WHT;",
"03566099999","2010-02-17T15:50:00","4","52.357167","-0.107833","41.14","WYTON, UK","FM-15","EGUY ","V020","040,1,N,0036,1","99999,9,C,N","006000,1,N,1","+0050,1","+0030,1","99999,9","02,5,+00720,1,99,9","04,5,+02100,1,99,9",,,"04,99,1,99,9,99,9,99999,9,99,9,99,9","09909,1,99999,9","05,1",,,,"MET065METAR EGUY 171550Z 04007KT 6000 HZ FEW024 SCT070 05/03 Q0991 WHT;","P01 021003SCOCIG"
"03566099999","2010-02-18T07:50:00","4","52.357167","-0.107833","41.14","WYTON, UK","FM-15","EGUY ","V020","080,1,N,0031,1","00015,1,C,N","000100,1,N,1","-0020,1","-0020,1","99999,9","09,1,+00015,1,99,9",,,,"09,99,1,99,9,99,9,00025,1,99,9,99,9","09919,1,99999,9","49,1",,,,"MET061METAR EGUY 180750Z 08006KT 0100 FZFG VV/// M02/M02 Q0992 RED;",
"03566099999","2010-02-18T08:50:00","4","52.357167","-0.107833","41.14","WYTON, UK","FM-15","EGUY ","V020","100,1,N,0021,1","00015,1,C,N","000200,1,N,1","-0020,1","-0020,1","99999,9","09,1,+00015,1,99,9",,,,"09,99,1,99,9,99,9,00025,1,99,9,99,9","09929,1,99999,9","49,1",,,,"MET065METAR EGUY 180850Z 10004KT 0200 FZFG VV/// M02/M02 Q0993 BLK/RED;",
"03566099999","2010-02-18T09:50:00","4","52.357167","-0.107833","41.14","WYTON, UK","FM-15","EGUY ","V020","090,1,N,0026,1","00015,1,C,N","000100,1,N,1","-0010,1","-0010,1","99999,9","09,1,+00015,1,99,9",,,,"09,99,1,99,9,99,9,00025,1,99,9,99,9","09929,1,99999,9","49,1",,,,"MET065METAR EGUY 180950Z 09005KT 0100 FZFG VV/// M01/M01 Q0993 BLK/RED;",
"03566099999","2010-02-18T10:50:00","4","52.357167","-0.107833","41.14","WYTON, UK","FM-15","EGUY ","V020","090,1,N,0036,1","00030,1,C,N","000350,1,N,1","-0010,1","-0010,1","99999,9","07,5,+00030,1,99,9","08,5,+00090,1,99,9",,,"08,99,1,99,9,99,9,99999,9,99,9,99,9","09929,1,99999,9","48,1",,,,"MET073METAR EGUY 181050Z 09007KT 0350 FZFG BKN001 OVC003 M01/M01 Q0993 BLK/RED;",
"03566099999","2010-02-19T07:50:00","4","52.357167","-0.107833","41.14","WYTON, UK","FM-15","EGUY ","V020","290,1,N,0051,1","00210,1,C,N","005000,1,N,1","+0010,1","+0010,1","99999,9","02,5,+00150,1,99,9","07,5,+00210,1,99,9","07,5,+03000,1,99,9",,"07,99,1,99,9,99,9,99999,9,99,9,99,9","09919,1,99999,9","10,1",,,,"MET072METAR EGUY 190750Z 29010KT 5000 BR FEW005 BKN007 BKN100 01/01 Q0992 GRN;",
"03566099999","2010-02-19T08:50:00","4","52.357167","-0.107833","41.14","WYTON, UK","FM-15","EGUY ","V020","280,1,N,0046,1","00210,1,C,N","005000,1,N,1","+0010,1","+0010,1","99999,9","07,5,+00210,1,99,9","07,5,+01050,1,99,9",,,"07,99,1,99,9,99,9,99999,9,99,9,99,9","09929,1,99999,9","77,1",,,,"MET070METAR EGUY 190850Z 28009KT 5000 -SG BKN007 BKN035 01/01 Q0993 BLK/GRN;",
"03566099999","2010-02-19T09:50:00","4","52.357167","-0.107833","41.14","WYTON, UK","FM-15","EGUY ","V020","270,1,N,0051,1","99999,9,C,N","005000,1,N,1","+0010,1","+0010,1","99999,9","02,5,+00300,1,99,9","04,5,+00480,1,99,9",,,"04,99,1,99,9,99,9,99999,9,99,9,99,9","09929,1,99999,9","10,1",,,,"MET065METAR EGUY 190950Z 27010KT 5000 BR FEW010 SCT016 01/01 Q0993 WHT;","P01 004803SCOCIG"
"03566099999","2010-02-19T10:50:00","4","52.357167","-0.107833","41.14","WYTON, UK","FM-15","EGUY ","V020","280,1,N,0062,1","22000,1,9,N","008000,1,N,1","+0020,1","+0010,1","99999,9","02,5,+00300,1,99,9",,,,"02,99,1,99,9,99,9,99999,9,99,9,99,9","09939,1,99999,9","05,1",,,,"MET058METAR EGUY 191050Z 28012KT 8000 HZ FEW010 02/01 Q0994 BLU;",
"03566099999","2010-02-19T11:50:00","4","52.357167","-0.107833","41.14","WYTON, UK","FM-15","EGUY ","V020","260,1,N,0072,1","22000,1,9,N","009000,1,N,1","+0040,1","+0020,1","99999,9","02,5,+00300,1,99,9",,,,"02,99,1,99,9,99,9,99999,9,99,9,99,9","09929,1,99999,9","05,1",,,,"MET058METAR EGUY 191150Z 26014KT 9000 HZ FEW010 04/02 Q0993 BLU;",
"03566099999","2010-02-19T12:19:00","4","52.357167","-0.107833","41.14","WYTON, UK","FM-15","EGUY ","V020","260,1,N,0077,1","22000,1,9,N","011265,1,N,1","+0040,1","+0020,1","99999,9","04,5,+00300,1,99,9",,,,"04,99,1,99,9,99,9,99999,9,99,9,99,9","09939,1,99999,9",,,,,"MET055METAR EGUY 191219Z 26015KT 9999 SCT010 04/02 Q0994 GRN;",
"03566099999","2010-02-19T12:50:00","4","52.357167","-0.107833","41.14","WYTON, UK","FM-15","EGUY ","V020","260,1,N,0082,1","22000,1,9,N","011265,1,N,1","+0040,1","+0010,1","99999,9","04,5,+00300,1,99,9",,,,"04,99,1,99,9,99,9,99999,9,99,9,99,9","09939,1,99999,9",,,,,"MET055METAR EGUY 191250Z 26016KT 9999 SCT010 04/01 Q0994 GRN;",
"03566099999","2010-02-19T13:50:00","4","52.357167","-0.107833","41.14","WYTON, UK","FM-15","EGUY ","V020","270,1,N,0072,1","22000,1,9,N","011265,1,N,1","+0040,1","+0000,1","99999,9","02,5,+00360,1,99,9",,,,"02,99,1,99,9,99,9,99999,9,99,9,99,9","09939,1,99999,9",,,,,"MET055METAR EGUY 191350Z 27014KT 9999 FEW012 04/00 Q0994 BLU;",
"03566099999","2010-02-19T14:50:00","4","52.357167","-0.107833","41.14","WYTON, UK","FM-15","EGUY ","V020","270,1,N,0072,1","22000,1,9,N","011265,1,N,1","+0040,1","+0000,1","99999,9","02,5,+00450,1,99,9",,,,"02,99,1,99,9,99,9,99999,9,99,9,99,9","09939,1,99999,9",,,,,"MET055METAR EGUY 191450Z 27014KT 9999 FEW015 04/00 Q0994 BLU;",
"03566099999","2010-02-19T15:50:00","4","52.357167","-0.107833","41.14","WYTON, UK","FM-15","EGUY ","V020","270,1,N,0062,1","22000,1,9,N","011265,1,N,1","+0030,1","+0000,1","99999,9","02,5,+00540,1,99,9",,,,"02,99,1,99,9,99,9,99999,9,99,9,99,9","09939,1,99999,9",,,,,"MET055METAR EGUY 191550Z 27012KT 9999 FEW018 03/00 Q0994 BLU;",
"03566099999","2010-02-20T07:50:00","4","52.357167","-0.107833","41.14","WYTON, UK","FM-15","EGUY ","V020","260,1,N,0036,1","22000,1,9,N","004500,1,N,1","-0030,1","+9999,9","99999,9","04,5,+00090,1,99,9",,,,"04,99,1,99,9,99,9,99999,9,99,9,99,9","09959,1,99999,9","10,1",,,,"MET059METAR EGUY 200750Z 26007KT 4500 BR SCT003 M03// Q0996 YLO2;",
"03566099999","2010-02-20T08:50:00","4","52.357167","-0.107833","41.14","WYTON, UK","FM-15","EGUY ","V020","260,1,N,0021,1","22000,1,9,N","007000,1,N,1","-0030,1","+9999,9","99999,9","02,5,+00090,1,99,9",,,,"02,99,1,99,9,99,9,99999,9,99,9,99,9","09970,1,99999,9","10,1",,,,"MET063METAR EGUY 200850Z 26004KT 7000 BR FEW003 M03// Q0997 BLACKWHT;",
"03566099999","2010-02-20T09:50:00","4","52.357167","-0.107833","41.14","WYTON, UK","FM-15","EGUY ","V020","240,1,N,0036,1","22000,1,9,N","008000,1,N,1","+0000,1","-0010,1","99999,9","02,5,+00150,1,99,9",,,,"02,99,1,99,9,99,9,99999,9,99,9,99,9","09970,1,99999,9","10,1",,,,"MET060METAR EGUY 200950Z 24007KT 8000 BR FEW005 M00/M01 Q0997 BLU;",
"03566099999","2010-02-20T10:50:00","4","52.357167","-0.107833","41.14","WYTON, UK","FM-15","EGUY ","V020","240,1,N,0031,1","99999,9,C,N","011265,1,N,1","+0010,1","+0000,1","99999,9","02,5,+00210,1,99,9","04,5,+01200,1,99,9",,,"04,99,1,99,9,99,9,99999,9,99,9,99,9","09970,1,99999,9",,,,,"MET063METAR EGUY 201050Z 24006KT 9999 FEW007 SCT040 01/M00 Q0997 BLU;","P01 012003SCOCIG"
"03566099999","2010-02-20T11:50:00","4","52.357167","-0.107833","41.14","WYTON, UK","FM-15","EGUY ","V020","240,1,N,0041,1","99999,9,C,N","011265,1,N,1","+0020,1","+0010,1","99999,9","02,5,+00450,1,99,9","04,5,+01200,1,99,9",,,"04,99,1,99,9,99,9,99999,9,99,9,99,9","09970,1,99999,9",,,,,"MET062METAR EGUY 201150Z 24008KT 9999 FEW015 SCT040 02/01 Q0997 BLU;","P01 012003SCOCIG"
"03566099999","2010-02-20T12:50:00","4","52.357167","-0.107833","41.14","WYTON, UK","FM-15","EGUY ","V020","270,1,N,0036,1","22000,1,9,N","011265,1,N,1","+0030,1","+0010,1","99999,9","02,5,+00450,1,99,9",,,,"02,99,1,99,9,99,9,99999,9,99,9,99,9","09970,1,99999,9",,,,,"MET055METAR EGUY 201250Z 27007KT 9999 FEW015 03/01 Q0997 BLU;",
"03566099999","2010-02-20T13:50:00","4","52.357167","-0.107833","41.14","WYTON, UK","FM-15","EGUY ","V020","280,1,N,0031,1","22000,1,9,N","011265,1,N,1","+0040,1","+0000,1","99999,9","04,5,+00480,1,99,9",,,,"04,99,1,99,9,99,9,99999,9,99,9,99,9","09970,1,99999,9",,,,,"MET055METAR EGUY 201350Z 28006KT 9999 SCT016 04/00 Q0997 BLU;",
"03566099999","2010-02-20T14:50:00","4","52.357167","-0.107833","41.14","WYTON, UK","FM-15","EGUY ","V020","260,1,N,0036,1","99999,9,C,N","011265,1,N,1","+0040,1","+0000,1","99999,9","02,5,+00480,1,99,9","04,5,+00600,1,99,9",,,"04,99,1,99,9,99,9,99999,9,99,9,99,9","09970,1,99999,9",,,,,"MET063METAR EGUY 201450Z 26007KT 9999 FEW016 SCT020 04/M00 Q0997 WHT;","P01 006003SCOCIG"
"03566099999","2010-02-20T15:50:00","4","52.357167","-0.107833","41.14","WYTON, UK","FM-15","EGUY ","V020","270,1,N,0031,1","22000,1,9,N","011265,1,N,1","+0050,1","-0010,1","99999,9","04,5,+00600,1,99,9",,,,"04,99,1,99,9,99,9,99999,9,99,9,99,9","09970,1,99999,9",,,,,"MET056METAR EGUY 201550Z 27006KT 9999 SCT020 05/M01 Q0997 WHT;",
"03566099999","2010-02-21T07:50:00","4","52.357167","-0.107833","41.14","WYTON, UK","FM-15","EGUY ","V020","140,1,N,0057,1","00360,1,C,N","000800,1,N,1","+0000,1","+0000,1","99999,9","04,5,+00060,1,99,9","08,5,+00360,1,99,9",,,"08,99,1,99,9,99,9,99999,9,99,9,99,9","09929,1,99999,9","73,1",,,,"MET065METAR EGUY 210750Z 14011KT 0800 SN SCT002 OVC012 00/00 Q0993 RED;",
"03566099999","2010-02-21T08:50:00","4","52.357167","-0.107833","41.14","WYTON, UK","FM-15","EGUY ","V020","140,1,N,0057,1","00090,1,C,N","001500,1,N,1","+0000,1","+0000,1","99999,9","07,5,+00090,1,99,9",,,,"07,99,1,99,9,99,9,99999,9,99,9,99,9","09919,1,99999,9","73,1",,,,"MET058METAR EGUY 210850Z 14011KT 1500 SN BKN003 00/00 Q0992 AMB;",
"03566099999","2010-02-21T09:50:00","4","52.357167","-0.107833","41.14","WYTON, UK","FM-15","EGUY ","V020","170,1,N,0036,1","00090,1,C,N","003500,1,N,1","+0000,1","+0000,1","99999,9","07,5,+00090,1,99,9","07,5,+00300,1,99,9",,,"07,99,1,99,9,99,9,99999,9,99,9,99,9","09919,1,99999,9","71,1",,,,"MET067METAR EGUY 210950Z 17007KT 3500 -SN BKN003 BKN010 00/00 Q0992 YLO2;",
"03566099999","2010-02-21T10:50:00","4","52.357167","-0.107833","41.14","WYTON, UK","FM-15","EGUY ","V020","180,1,N,0036,1","00270,1,C,N","009000,1,N,1","+0010,1","+0010,1","99999,9","02,5,+00120,1,99,9","07,5,+00270,1,99,9",,,"07,99,1,99,9,99,9,99999,9,99,9,99,9","09909,1,99999,9","10,1",,,,"MET065METAR EGUY 211050Z 18007KT 9000 BR FEW004 BKN009 01/01 Q0991 GRN;",
"03566099999","2010-02-21T11:50:00","4","52.357167","-0.107833","41.14","WYTON, UK","FM-15","EGUY ","V020","190,1,N,0031,1","00480,1,C,N","009000,1,N,1","+0020,1","+0020,1","99999,9","04,5,+00300,1,99,9","07,5,+00480,1,99,9",,,"07,99,1,99,9,99,9,99999,9,99,9,99,9","09909,1,99999,9","10,1",,,,"MET065METAR EGUY 211150Z 19006KT 9000 BR SCT010 BKN016 02/02 Q0991 GRN;",
"03566099999","2010-02-22T07:50:00","4","52.357167","-0.107833","41.14","WYTON, UK","FM-15","EGUY ","V020","050,1,N,0046,1","00060,1,C,N","000700,1,N,1","+0000,1","+0000,1","99999,9","08,5,+00060,1,99,9",,,,"08,99,1,99,9,99,9,99999,9,99,9,99,9","09871,1,99999,9","71,1",,,,"MET061METAR EGUY 220750Z 05009KT 0700 -SN OVC002 M00/M00 Q0987 RED;",
"03566099999","2010-02-22T08:50:00","4","52.357167","-0.107833","41.14","WYTON, UK","FM-15","EGUY ","V020","050,1,N,0046,1","00090,1,C,N","002000,1,N,1","+0000,1","+0000,1","99999,9","08,5,+00090,1,99,9",,,,"08,99,1,99,9,99,9,99999,9,99,9,99,9","09871,1,99999,9","71,1",,,,"MET065METAR EGUY 220850Z 05009KT 2000 -SN OVC003 00/00 Q0987 BLACKYLO2;",
"03566099999","2010-02-22T09:50:00","4","52.357167","-0.107833","41.14","WYTON, UK","FM-15","EGUY ","V020","050,1,N,0051,1","00090,1,C,N","001100,1,N,1","+0000,1","+0000,1","99999,9","08,5,+00090,1,99,9",,,,"08,99,1,99,9,99,9,99999,9,99,9,99,9","09871,1,99999,9","71,1",,,,"MET064METAR EGUY 220950Z 05010KT 1100 -SN OVC003 00/00 Q0987 BLACKAMB;",
"03566099999","2010-02-22T10:50:00","4","52.357167","-0.107833","41.14","WYTON, UK","FM-15","EGUY ","V020","030,1,N,0046,1","00090,1,C,N","000800,1,N,1","+0000,1","+0000,1","99999,9","08,5,+00090,1,99,9",,,,"08,99,1,99,9,99,9,99999,9,99,9,99,9","09861,1,99999,9","71,1",,,,"MET064METAR EGUY 221050Z 03009KT 0800 -SN OVC003 00/00 Q0986 BLACKAMB;",
"03566099999","2010-02-22T11:50:00","4","52.357167","-0.107833","41.14","WYTON, UK","FM-15","EGUY ","V020","030,1,N,0046,1","00090,1,C,N","000800,1,N,1","+0000,1","+0000,1","99999,9","08,5,+00090,1,99,9",,,,"08,99,1,99,9,99,9,99999,9,99,9,99,9","09861,1,99999,9","61,1","71,1",,,"MET066METAR EGUY 221150Z 03009KT 0800 -RASN OVC003 00/00 Q0986 BLACKAMB;",
"03566099999","2010-02-22T12:50:00","4","52.357167","-0.107833","41.14","WYTON, UK","FM-15","EGUY ","V020","030,1,N,0046,1","00900,1,C,N","004500,1,N,1","+0010,1","+0010,1","99999,9","04,5,+00180,1,99,9","08,5,+00900,1,99,9",,,"08,99,1,99,9,99,9,99999,9,99,9,99,9","09851,1,99999,9","61,1",,,,"MET067METAR EGUY 221250Z 03009KT 4500 -RA SCT006 OVC030 01/01 Q0985 YLO1;",
"03566099999","2010-02-22T13:50:00","4","52.357167","-0.107833","41.14","WYTON, UK","FM-15","EGUY ","V020","030,1,N,0062,1","00450,1,C,N","011265,1,N,1","+0020,1","+0020,1","99999,9","07,5,+00450,1,99,9","07,5,+00900,1,99,9",,,"07,99,1,99,9,99,9,99999,9,99,9,99,9","09851,1,99999,9",,,,,"MET062METAR EGUY 221350Z 03012KT 9999 BKN015 BKN030 02/02 Q0985 WHT;",
"03566099999","2010-02-22T14:50:00","4","52.357167","-0.107833","41.14","WYTON, UK","FM-15","EGUY ","V020","020,1,N,0077,1","01050,1,C,N","011265,1,N,1","+0030,1","+0010,1","99999,9","04,5,+00600,1,99,9","07,5,+01050,1,99,9",,,"07,99,1,99,9,99,9,99999,9,99,9,99,9","09861,1,99999,9",,,,,"MET062METAR EGUY 221450Z 02015KT 9999 SCT020 BKN035 03/01 Q0986 WHT;",
"03566099999","2010-02-22T15:50:00","4","52.357167","-0.107833","41.14","WYTON, UK","FM-15","EGUY ","V020","020,1,N,0082,1","00660,1,C,N","011265,1,N,1","+0030,1","+0010,1","99999,9","02,5,+00450,1,99,9","04,5,+00660,1,99,9","07,5,+02400,1,99,9",,"07,99,1,99,9,99,9,99999,9,99,9,99,9","09861,1,99999,9",,,,,"MET069METAR EGUY 221550Z 02016KT 9999 FEW015 SCT022 BKN080 03/01 Q0986 WHT;",
"03566099999","2010-02-23T08:50:00","4","52.357167","-0.107833","41.14","WYTON, UK","FM-15","EGUY ","V020","060,1,N,0057,1","01110,1,C,N","011265,1,N,1","+0010,1","-0010,1","99999,9","07,5,+01110,1,99,9",,,,"07,99,1,99,9,99,9,99999,9,99,9,99,9","09939,1,99999,9",,,,,"MET056METAR EGUY 230850Z 06011KT 9999 BKN037 01/M01 Q0994 BLU;",
"03566099999","2010-02-23T09:50:00","4","52.357167","-0.107833","41.14","WYTON, UK","FM-15","EGUY ","V020","070,1,N,0067,1","01110,1,C,N","011265,1,N,1","+0020,1","-0010,1","99999,9","02,5,+00600,1,99,9","07,5,+01110,1,99,9",,,"07,99,1,99,9,99,9,99999,9,99,9,99,9","09939,1,99999,9",,,,,"MET063METAR EGUY 230950Z 07013KT 9999 FEW020 BKN037 02/M01 Q0994 BLU;",
"03566099999","2010-02-23T10:50:00","4","52.357167","-0.107833","41.14","WYTON, UK","FM-15","EGUY ","V020","080,1,N,0077,1","01050,1,C,N","011265,1,N,1","+0030,1","-0010,1","99999,9","02,5,+00600,1,99,9","07,5,+01050,1,99,9","07,5,+07500,1,99,9",,"07,99,1,99,9,99,9,99999,9,99,9,99,9","09939,1,99999,9",,,,,"MET070METAR EGUY 231050Z 08015KT 9999 FEW020 BKN035 BKN250 03/M01 Q0994 BLU;",
"03566099999","2010-02-23T11:50:00","4","52.357167","-0.107833","41.14","WYTON, UK","FM-15","EGUY ","V020","070,1,N,0062,1","00900,1,C,N","011265,1,N,1","+0030,1","-0010,1","99999,9","02,5,+00600,1,99,9","07,5,+00900,1,99,9",,,"07,99,1,99,9,99,9,99999,9,99,9,99,9","09949,1,99999,9",,,,,"MET063METAR EGUY 231150Z 07012KT 9999 FEW020 BKN030 03/M01 Q0995 BLU;",
"03566099999","2010-02-23T12:50:00","4","52.357167","-0.107833","41.14","WYTON, UK","FM-15","EGUY ","V020","070,1,N,0067,1","00900,1,C,N","011265,1,N,1","+0030,1","-0010,1","99999,9","04,5,+00540,1,99,9","07,5,+00900,1,99,9",,,"07,99,1,99,9,99,9,99999,9,99,9,99,9","09939,1,99999,9",,,,,"MET063METAR EGUY 231250Z 07013KT 9999 SCT018 BKN030 03/M01 Q0994 BLU;",
"03566099999","2010-02-23T13:50:00","4","52.357167","-0.107833","41.14","WYTON, UK","FM-15","EGUY ","V020","090,1,N,0057,1","00690,1,C,N","011265,1,N,1","+0030,1","-0010,1","99999,9","08,5,+00690,1,99,9",,,,"08,99,1,99,9,99,9,99999,9,99,9,99,9","09939,1,99999,9",,,,,"MET056METAR EGUY 231350Z 09011KT 9999 OVC023 03/M01 Q0994 WHT;",
"03566099999","2010-02-23T14:50:00","4","52.357167","-0.107833","41.14","WYTON, UK","FM-15","EGUY ","V020","090,1,N,0067,1","03000,1,C,N","011265,1,N,1","+0030,1","-0010,1","99999,9","04,5,+00690,1,99,9","07,5,+03000,1,99,9",,,"07,99,1,99,9,99,9,99999,9,99,9,99,9","09939,1,99999,9",,,,,"MET063METAR EGUY 231450Z 09013KT 9999 SCT023 BKN100 03/M01 Q0994 WHT;",
"03566099999","2010-02-23T15:20:00","4","52.357167","-0.107833","41.14","WYTON, UK","FM-15","EGUY ","V020","100,1,N,0067,1","00750,1,C,N","007000,1,N,1","+0030,1","-0010,1","99999,9","04,5,+00300,1,99,9","07,5,+00750,1,99,9",,,"07,99,1,99,9,99,9,99999,9,99,9,99,9","09939,1,99999,9","61,1","71,1",,,"MET069METAR EGUY 231520Z 10013KT 7000 -RASN SCT010 BKN025 03/M01 Q0994 GRN;",
"03566099999","2010-02-23T15:50:00","4","52.357167","-0.107833","41.14","WYTON, UK","FM-15","EGUY ","V020","100,1,N,0051,1","00240,1,C,N","006000,1,N,1","+0020,1","+0010,1","99999,9","08,5,+00240,1,99,9",,,,"08,99,1,99,9,99,9,99999,9,99,9,99,9","09939,1,99999,9","61,1","71,1",,,"MET061METAR EGUY 231550Z 10010KT 6000 -RASN OVC008 02/01 Q0994 GRN;",
"03566099999","2010-02-24T08:05:00","4","52.357167","-0.107833","41.14","WYTON, UK","FM-15","EGUY ","V020","160,1,N,0026,1","99999,9,C,N","007000,1,N,1","+0050,1","+0050,1","99999,9","02,5,+00180,1,99,9","04,5,+00600,1,99,9",,,"04,99,1,99,9,99,9,99999,9,99,9,99,9","09909,1,99999,9","10,1",,,,"MET065METAR EGUY 240805Z 16005KT 7000 BR FEW006 SCT020 05/05 Q0991 WHT;","P01 006003SCOCIG"
"03566099999","2010-02-24T08:30:00","4","52.357167","-0.107833","41.14","WYTON, UK","FM-15","EGUY ","V020","180,1,N,0036,1","00210,1,C,N","008000,1,N,1","+0060,1","+0060,1","99999,9","07,5,+00210,1,99,9",,,,"07,99,1,99,9,99,9,99999,9,99,9,99,9","09919,1,99999,9","10,1",,,,"MET058METAR EGUY 240830Z 18007KT 8000 BR BKN007 06/06 Q0992 GRN;",
"03566099999","2010-02-24T08:50:00","4","52.357167","-0.107833","41.14","WYTON, UK","FM-15","EGUY ","V020","160,1,N,0036,1","00210,1,C,N","007000,1,N,1","+0060,1","+0060,1","99999,9","07,5,+00210,1,99,9",,,,"07,99,1,99,9,99,9,99999,9,99,9,99,9","99999,9,99999,9","10,1",,,,"MET058METAR EGUY 240850Z 16007KT 7000 BR BKN007 06/06 Q0922 GRN;","Q01 092203APOA  "
"03566099999","2010-02-24T09:50:00","4","52.357167","-0.107833","41.14","WYTON, UK","FM-15","EGUY ","V020","170,1,N,0041,1","00180,1,C,N","007000,1,N,1","+0060,1","+0060,1","99999,9","07,5,+00180,1,99,9","07,5,+00240,1,99,9",,,"07,99,1,99,9,99,9,99999,9,99,9,99,9","09919,1,99999,9","10,1",,,,"MET066METAR EGUY 240950Z 17008KT 7000 BR BKN006 BKN008 06/06 Q0992 YLO1;",
"03566099999","2010-02-24T10:50:00","4","52.357167","-0.107833","41.14","WYTON, UK","FM-15","EGUY ","V020","150,1,N,0041,1","00180,1,C,N","007000,1,N,1","+0070,1","+0070,1","99999,9","07,5,+00180,1,99,9","07,5,+00240,1,99,9",,,"07,99,1,99,9,99,9,99999,9,99,9,99,9","09919,1,99999,9","10,1",,,,"MET066METAR EGUY 241050Z 15008KT 7000 BR BKN006 BKN008 07/07 Q0992 YLO1;",
"03566099999","2010-02-24T11:50:00","4","52.357167","-0.107833","41.14","WYTON, UK","FM-15","EGUY ","V020","160,1,N,0041,1","00180,1,C,N","008000,1,N,1","+0080,1","+0070,1","99999,9","07,5,+00180,1,99,9","07,5,+00240,1,99,9",,,"07,99,1,99,9,99,9,99999,9,99,9,99,9","09919,1,99999,9","10,1",,,,"MET066METAR EGUY 241150Z 16008KT 8000 BR BKN006 BKN008 08/07 Q0992 YLO1;",
"03566099999","2010-02-24T12:50:00","4","52.357167","-0.107833","41.14","WYTON, UK","FM-15","EGUY ","V020","130,1,N,0031,1","00900,1,C,N","005000,1,N,1","+0080,1","+0080,1","99999,9","04,5,+00180,1,99,9","07,5,+00900,1,99,9",,,"07,99,1,99,9,99,9,99999,9,99,9,99,9","09909,1,99999,9","63,1",,,,"MET066METAR EGUY 241250Z 13006KT 5000 RA SCT006 BKN030 08/08 Q0991 YLO1;",
"03566099999","2010-02-24T13:50:00","4","52.357167","-0.107833","41.14","WYTON, UK","FM-15","EGUY ","V020","180,1,N,0036,1","00330,1,C,N","011265,1,N,1","+0080,1","+0080,1","99999,9","02,5,+00180,1,99,9","07,5,+00330,1,99,9",,,"07,99,1,99,9,99,9,99999,9,99,9,99,9","09909,1,99999,9","61,1",,,,"MET066METAR EGUY 241350Z 18007KT 9999 -RA FEW006 BKN011 08/08 Q0991 GRN;",
"03566099999","2010-02-24T14:50:00","4","52.357167","-0.107833","41.14","WYTON, UK","FM-15","EGUY ","V020","160,1,N,0041,1","00600,1,C,N","011265,1,N,1","+0090,1","+0070,1","99999,9","04,5,+00330,1,99,9","07,5,+00600,1,99,9",,,"07,99,1,99,9,99,9,99999,9,99,9,99,9","09898,1,99999,9",,,,,"MET062METAR EGUY 241450Z 16008KT 9999 SCT011 BKN020 09/07 Q0990 GRN;",
"03566099999","2010-02-24T15:50:00","4","52.357167","-0.107833","41.14","WYTON, UK","FM-15","EGUY ","V020","140,1,N,0031,1","99999,9,C,N","011265,1,N,1","+0090,1","+0080,1","99999,9","02,5,+00390,1,99,9","04,5,+00600,1,99,9",,,"04,99,1,99,9,99,9,99999,9,99,9,99,9","09898,1,99999,9",,,,,"MET062METAR EGUY 241550Z 14006KT 9999 FEW013 SCT020 09/08 Q0990 WHT;","P01 006003SCOCIG"
"03566099999","2010-02-25T07:50:00","4","52.357167","-0.107833","41.14","WYTON, UK","FM-15","EGUY ","V020","190,1,N,0026,1","00030,1,C,N","000300,1,N,1","+0050,1","+0050,1","99999,9","08,5,+00030,1,99,9",,,,"08,99,1,99,9,99,9,99999,9,99,9,99,9","09909,1,99999,9","44,1",,,,"MET058METAR EGUY 250750Z 19005KT 0300 FG OVC001 05/05 Q0991 RED;",
"03566099999","2010-02-25T08:50:00","4","52.357167","-0.107833","41.14","WYTON, UK","FM-15","EGUY ","V020","190,1,N,0031,1","00015,1,C,N","000500,1,N,1","+0060,1","+0060,1","99999,9","09,1,+00015,1,99,9",,,,"09,99,1,99,9,99,9,00025,1,99,9,99,9","09909,1,99999,9","45,1",,,,"MET057METAR EGUY 250850Z 19006KT 0500 FG VV/// 06/06 Q0991 RED;",
"03566099999","2010-02-25T09:05:00","4","52.357167","-0.107833","41.14","WYTON, UK","FM-15","EGUY ","V020","180,1,N,0031,1","00060,1,C,N","001500,1,N,1","+0060,1","+0060,1","99999,9","08,5,+00060,1,99,9",,,,"08,99,1,99,9,99,9,99999,9,99,9,99,9","09909,1,99999,9","10,1",,,,"MET058METAR EGUY 250905Z 18006KT 1500 BR OVC002 06/06 Q0991 AMB;",
"03566099999","2010-02-25T09:50:00","4","52.357167","-0.107833","41.14","WYTON, UK","FM-15","EGUY ","V020","160,1,N,0031,1","00120,1,C,N","002000,1,N,1","+0070,1","+0070,1","99999,9","07,5,+00120,1,99,9","08,5,+00330,1,99,9",,,"08,99,1,99,9,99,9,99999,9,99,9,99,9","09898,1,99999,9","10,1",,,,"MET066METAR EGUY 250950Z 16006KT 2000 BR BKN004 OVC011 07/07 Q0990 YLO2;",
"03566099999","2010-02-25T10:20:00","4","52.357167","-0.107833","41.14","WYTON, UK","FM-15","EGUY ","V020","190,1,N,0041,1","00360,1,C,N","008000,1,N,1","+0070,1","+0070,1","99999,9","04,5,+00210,1,99,9","07,5,+00360,1,99,9",,,"07,99,1,99,9,99,9,99999,9,99,9,99,9","09898,1,99999,9","10,1",,,,"MET065METAR EGUY 251020Z 19008KT 8000 BR SCT007 BKN012 07/07 Q0990 GRN;",
"03566099999","2010-02-25T10:50:00","4","52.357167","-0.107833","41.14","WYTON, UK","FM-15","EGUY ","V020","180,1,N,0036,1","00360,1,C,N","011265,1,N,1","+0070,1","+0070,1","99999,9","04,5,+00210,1,99,9","07,5,+00360,1,99,9",,,"07,99,1,99,9,99,9,99999,9,99,9,99,9","09898,1,99999,9",,,,,"MET062METAR EGUY 251050Z 18007KT 9999 SCT007 BKN012 07/07 Q0990 GRN;",
"03566099999","2010-02-25T11:50:00","4","52.357167","-0.107833","41.14","WYTON, UK","FM-15","EGUY ","V020","170,1,N,0051,1","00300,1,C,N","011265,1,N,1","+0090,1","+0070,1","99999,9","02,5,+00210,1,99,9","04,5,+00300,1,99,9","07,5,+01200,1,99,9",,"07,99,1,99,9,99,9,99999,9,99,9,99,9","09892,1,99999,9",,,,,"MET069METAR EGUY 251150Z 17010KT 9999 FEW007 SCT010 BKN040 09/07 Q0989 GRN;",
"03566099999","2010-02-25T12:50:00","4","52.357167","-0.107833","41.14","WYTON, UK","FM-15","EGUY ","V020","180,1,N,0051,1","00420,1,C,N","011265,1,N,1","+0090,1","+0070,1","99999,9","02,5,+00300,1,99,9","04,5,+00420,1,99,9","07,5,+01200,1,99,9",,"07,99,1,99,9,99,9,99999,9,99,9,99,9","09882,1,99999,9",,,,,"MET069METAR EGUY 251250Z 18010KT 9999 FEW010 SCT014 BKN040 09/07 Q0988 GRN;",
"03566099999","2010-02-25T13:50:00","4","52.357167","-0.107833","41.14","WYTON, UK","FM-15","EGUY ","V020","170,1,N,0051,1","01200,1,C,N","011265,1,N,1","+0090,1","+0060,1","99999,9","04,5,+00510,1,99,9","07,5,+01200,1,99,9",,,"07,99,1,99,9,99,9,99999,9,99,9,99,9","09871,1,99999,9",,,,,"MET062METAR EGUY 251350Z 17010KT 9999 SCT017 BKN040 09/06 Q0987 WHT;",
"03566099999","2010-02-25T14:50:00","4","52.357167","-0.107833","41.14","WYTON, UK","FM-15","EGUY ","V020","160,1,N,0036,1","01200,1,C,N","011265,1,N,1","+0090,1","+0060,1","99999,9","04,5,+00600,1,99,9","07,5,+01200,1,99,9",,,"07,99,1,99,9,99,9,99999,9,99,9,99,9","09861,1,99999,9",,,,,"MET062METAR EGUY 251450Z 16007KT 9999 SCT020 BKN040 09/06 Q0986 WHT;",
"03566099999","2010-02-25T15:50:00","4","52.357167","-0.107833","41.14","WYTON, UK","FM-15","EGUY ","V020","140,1,N,0046,1","01200,1,C,N","011265,1,N,1","+0090,1","+0060,1","99999,9","04,5,+00540,1,99,9","07,5,+01200,1,99,9",,,"07,99,1,99,9,99,9,99999,9,99,9,99,9","09861,1,99999,9",,,,,"MET062METAR EGUY 251550Z 14009KT 9999 SCT018 BKN040 09/06 Q0986 WHT;",
"03566099999","2010-02-26T07:50:00","4","52.357167","-0.107833","41.14","WYTON, UK","FM-15","EGUY ","V020","260,1,N,0093,1","00360,1,C,N","009000,1,N,1","+0050,1","+0040,1","99999,9","04,5,+00210,1,99,9","07,5,+00360,1,99,9",,,"07,99,1,99,9,99,9,99999,9,99,9,99,9","09810,1,99999,9","61,1",,,,"MET066METAR EGUY 260750Z 26018KT 9000 -RA SCT007 BKN012 05/04 Q0981 GRN;",
"03566099999","2010-02-26T08:50:00","4","52.357167","-0.107833","41.14","WYTON, UK","FM-15","EGUY ","V020","260,1,N,0113,1","00240,1,C,N","007000,1,N,1","+0050,1","+0040,1","99999,9","07,5,+00240,1,99,9","08,5,+00420,1,99,9",,,"08,99,1,99,9,99,9,99999,9,99,9,99,9","09831,1,99999,9","51,1","61,1",,,"MET068METAR EGUY 260850Z 26022KT 7000 -RADZ BKN008 OVC014 05/04 Q0983 GRN;",
"03566099999","2010-02-26T09:50:00","4","52.357167","-0.107833","41.14","WYTON, UK","FM-15","EGUY ","V020","260,1,N,0108,1","00420,1,C,N","011265,1,N,1","+0050,1","+0030,1","99999,9","04,5,+00240,1,99,9","08,5,+00420,1,99,9",,,"08,99,1,99,9,99,9,99999,9,99,9,99,9","09841,1,99999,9",,,,"0159,1","MET065METAR EGUY 260950Z 26021G31KT 9999 SCT008 OVC014 05/03 Q0984 GRN;",
"03566099999","2010-02-26T10:50:00","4","52.357167","-0.107833","41.14","WYTON, UK","FM-15","EGUY ","V020","260,1,N,0118,1","00330,1,C,N","011265,1,N,1","+0040,1","+0030,1","99999,9","08,5,+00330,1,99,9",,,,"08,99,1,99,9,99,9,99999,9,99,9,99,9","09851,1,99999,9","51,1","61,1",,"0175,1","MET064METAR EGUY 261050Z 26023G34KT 9999 -RADZ OVC011 04/03 Q0985 GRN;",
"03566099999","2010-02-26T11:50:00","4","52.357167","-0.107833","41.14","WYTON, UK","FM-15","EGUY ","V020","260,1,N,0113,1","00450,1,C,N","011265,1,N,1","+0050,1","+0030,1","99999,9","08,5,+00450,1,99,9",,,,"08,99,1,99,9,99,9,99999,9,99,9,99,9","09861,1,99999,9",,,,"0165,1","MET058METAR EGUY 261150Z 26022G32KT 9999 OVC015 05/03 Q0986 WHT;",
"03566099999","2010-02-26T12:50:00","4","52.357167","-0.107833","41.14","WYTON, UK","FM-15","EGUY ","V020","260,1,N,0144,1","00540,1,C,N","011265,1,N,1","+0050,1","+0010,1","99999,9","07,5,+00540,1,99,9","08,5,+01050,1,99,9",,,"08,99,1,99,9,99,9,99999,9,99,9,99,9","09882,1,99999,9","61,1",,,"0195,1","MET069METAR EGUY 261250Z 26028G38KT 9999 -RA BKN018 OVC035 05/01 Q0988 WHT;",
"03566099999","2010-02-26T13:50:00","4","52.357167","-0.107833","41.14","WYTON, UK","FM-15","EGUY ","V020","270,1,N,0118,1","00750,1,C,N","011265,1,N,1","+0040,1","+0020,1","99999,9","04,5,+00450,1,99,9","07,5,+00750,1,99,9","08,5,+01140,1,99,9",,"08,99,1,99,9,99,9,99999,9,99,9,99,9","09892,1,99999,9","61,1",,,"0180,1","MET076METAR EGUY 261350Z 27023G35KT 9999 -RA SCT015 BKN025 OVC038 04/02 Q0989 WHT;",
"03566099999","2010-02-26T14:50:00","4","52.357167","-0.107833","41.14","WYTON, UK","FM-15","EGUY ","V020","270,1,N,0093,1","00750,1,C,N","011265,1,N,1","+0050,1","+0030,1","99999,9","04,5,+00600,1,99,9","07,5,+00750,1,99,9","08,5,+01140,1,99,9",,"08,99,1,99,9,99,9,99999,9,99,9,99,9","09898,1,99999,9",,,,,"MET069METAR EGUY 261450Z 27018KT 9999 SCT020 BKN025 OVC038 05/03 Q0990 WHT;",
"03566099999","2010-02-27T07:50:00","4","52.357167","-0.107833","41.14","WYTON, UK","FM-15","EGUY ","V020","100,1,N,0015,1","00300,1,C,N","003000,1,N,1","+0040,1","+0040,1","99999,9","04,5,+00090,1,99,9","08,5,+00300,1,99,9",,,"08,99,1,99,9,99,9,99999,9,99,9,99,9","09939,1,99999,9","61,1",,,,"MET067METAR EGUY 270750Z 10003KT 3000 -RA SCT003 OVC010 04/04 Q0994 YLO2;",
"03566099999","2010-02-27T09:50:00","4","52.357167","-0.107833","41.14","WYTON, UK","FM-15","EGUY ","V020","210,1,N,0036,1","00450,1,C,N","011265,1,N,1","+0070,1","+0060,1","99999,9","02,5,+00300,1,99,9","04,5,+00450,1,99,9","07,5,+01200,1,99,9",,"07,99,1,99,9,99,9,99999,9,99,9,99,9","09939,1,99999,9",,,,,"MET069METAR EGUY 270950Z 21007KT 9999 FEW010 SCT015 BKN040 07/06 Q0994 WHT;",
"03566099999","2010-02-27T10:50:00","4","52.357167","-0.107833","41.14","WYTON, UK","FM-15","EGUY ","V020","210,1,N,0041,1","00450,1,C,N","011265,1,N,1","+0080,1","+0060,1","99999,9","02,5,+00330,1,99,9","07,5,+00450,1,99,9",,,"07,99,1,99,9,99,9,99999,9,99,9,99,9","09939,1,99999,9",,,,,"MET062METAR EGUY 271050Z 21008KT 9999 FEW011 BKN015 08/06 Q0994 WHT;",
"03566099999","2010-02-27T11:50:00","4","52.357167","-0.107833","41.14","WYTON, UK","FM-15","EGUY ","V020","220,1,N,0057,1","00450,1,C,N","011265,1,N,1","+0090,1","+0060,1","99999,9","02,5,+00360,1,99,9","07,5,+00450,1,99,9",,,"07,99,1,99,9,99,9,99999,9,99,9,99,9","09929,1,99999,9","81,1",,,,"MET067METAR EGUY 271150Z 22011KT 9999 SHRA FEW012 BKN015 09/06 Q0993 WHT;",
"03566099999","2010-02-27T12:50:00","4","52.357167","-0.107833","41.14","WYTON, UK","FM-15","EGUY ","V020","220,1,N,0062,1","01350,1,C,N","011265,1,N,1","+0090,1","+9999,9","99999,9","04,5,+00570,1,99,9","07,5,+01350,1,99,9",,,"07,99,1,99,9,99,9,99999,9,99,9,99,9","09929,1,99999,9",,,,,"MET062METAR EGUY 271250Z 22012KT 9999 SCT019 BKN045 09/// Q0993 WHT;",
"03566099999","2010-02-27T13:50:00","4","52.357167","-0.107833","41.14","WYTON, UK","FM-15","EGUY ","V020","210,1,N,0036,1","00570,1,C,N","011265,1,N,1","+0090,1","+0050,1","99999,9","02,5,+00300,1,99,9","07,5,+00570,1,99,9",,,"07,99,1,99,9,99,9,99999,9,99,9,99,9","09919,1,99999,9",,,,,"MET062METAR EGUY 271350Z 21007KT 9999 FEW010 BKN019 09/05 Q0992 WHT;",
"03566099999","2010-02-27T14:50:00","4","52.357167","-0.107833","41.14","WYTON, UK","FM-15","EGUY ","V020","230,1,N,0041,1","99999,9,C,N","011265,1,N,1","+0100,1","+0050,1","99999,9","07,5,+01350,5,99,9",,,,"04,99,1,99,9,99,9,99999,9,99,9,99,9","09910,1,99999,9",,,,,"MET063METAR EGUY 271450Z 23008KT 9999 SCT0200 BKN045 10/05 Q0991 WHT;","P01 013503SCOCIG"
"03566099999","2010-02-27T15:50:00","4","52.357167","-0.107833","41.14","WYTON, UK","FM-15","EGUY ","V020","160,1,N,0015,1","00750,1,C,N","004500,1,N,1","+0080,1","+0070,1","99999,9","07,5,+00750,1,99,9",,,,"07,99,1,99,9,99,9,99999,9,99,9,99,9","09909,1,99999,9","63,1",,,,"MET058METAR EGUY 271550Z 16003KT 4500 RA BKN025 08/07 Q0991 GRN;",
"03566099999","2010-02-28T08:50:00","4","52.357167","-0.107833","41.14","WYTON, UK","FM-15","EGUY ","V020","360,1,N,0093,1","00150,1,C,N","006000,1,N,1","+0050,1","+0050,1","99999,9","07,5,+00150,1,99,9",,,,"07,99,1,99,9,99,9,99999,9,99,9,99,9","09831,1,99999,9","63,1",,,,"MET059METAR EGUY 280850Z 36018KT 6000 RA BKN005 05/05 Q0983 YLO1;",
"03566099999","2010-02-28T09:50:00","4","52.357167","-0.107833","41.14","WYTON, UK","FM-15","EGUY ","V020","340,1,N,0093,1","00150,1,C,N","007000,1,N,1","+0040,1","+0040,1","99999,9","07,5,+00150,1,99,9",,,,"07,99,1,99,9,99,9,99999,9,99,9,99,9","09841,1,99999,9","63,1",,,"0144,1","MET062METAR EGUY 280950Z 34018G28KT 7000 RA BKN005 04/04 Q0984 YLO1;",
"03566099999","2010-02-28T10:50:00","4","52.357167","-0.107833","41.14","WYTON, UK","FM-15","EGUY ","V020","340,1,N,0103,1","00150,1,C,N","999999,9,N,1","+0030,1","+0030,1","99999,9","02,5,+00060,1,99,9","07,5,+00150,1,99,9",,,"07,99,1,99,9,99,9,99999,9,99,9,99,9","09841,1,99999,9","63,1",,,"0154,1","MET070METAR EGUY 281050Z 34020G30KT //// RA FEW002 BKN005 03/03 Q09845 YLO2;",
"03566099999","2010-02-28T11:50:00","4","52.357167","-0.107833","41.14","WYTON, UK","FM-15","EGUY ","V020","330,1,N,0082,1","00330,1,C,N","011265,1,N,1","+9999,9","+9999,9","99999,9","02,5,+00240,1,99,9","08,5,+00330,1,99,9",,,"08,99,1,99,9,99,9,99999,9,99,9,99,9","09870,1,99999,9","61,1",,,,"MET067METAR EGUY 281150Z 33016KT 9999 -RA FEW008 OVC011 04 /03 Q0987 GRN;",
"03566099999","2010-02-28T12:50:00","4","52.357167","-0.107833","41.14","WYTON, UK","FM-15","EGUY ","V020","320,1,N,0113,1","00420,1,C,N","011265,1,N,1","+9999,9","+9999,9","99999,9","07,5,+00420,1,99,9","08,5,+00750,1,99,9",,,"08,99,1,99,9,99,9,99999,9,99,9,99,9","09880,1,99999,9","61,1",,,,"MET067METAR EGUY 281250Z 32022KT 9999 -RA BKN014 OVC025 04 /03 Q0988 GRN;",
"03566099999","2010-02-28T14:50:00","4","52.357167","-0.107833","41.14","WYTON, UK","FM-15","EGUY ","V020","310,1,N,0077,1","01800,1,C,N","011265,1,N,1","+0050,1","+0030,1","99999,9","02,5,+00450,1,99,9","07,5,+01800,1,99,9",,,"07,99,1,99,9,99,9,99999,9,99,9,99,9","09909,1,99999,9",,,,,"MET062METAR EGUY 281450Z 31015KT 9999 FEW015 BKN060 05/03 Q0991 BLU;",
"03566099999","2010-03-02T07:50:00","4","52.357167","-0.107833","41.14","WYTON, UK","FM-15","EGUY ","V020","320,1,N,0031,1","99999,9,9,Y","009900,1,N,1","-0010,1","-0010,1","99999,9",,,,,,"10210,1,99999,9",,,,,"MET051METAR EGUY 020750Z 32006KT CAVOK M01/M01 Q1021 BLU;",
"03566099999","2010-03-02T08:50:00","4","52.357167","-0.107833","41.14","WYTON, UK","FM-15","EGUY ","V020","300,1,N,0031,1","99999,9,9,Y","009900,1,N,1","+0020,1","+0010,1","99999,9",,,,,,"10220,1,99999,9",,,,,"MET049METAR EGUY 020850Z 30006KT CAVOK 02/01 Q1022 BLU;",
"03566099999","2010-03-02T09:50:00","4","52.357167","-0.107833","41.14","WYTON, UK","FM-15","EGUY ","V020","330,1,N,0036,1","99999,9,9,Y","009900,1,N,1","+0040,1","+0010,1","99999,9",,,,,,"10230,1,99999,9",,,,,"MET049METAR EGUY 020950Z 33007KT CAVOK 04/01 Q1023 BLU;",
"03566099999","2010-03-02T10:50:00","4","52.357167","-0.107833","41.14","WYTON, UK","FM-15","EGUY ","V020","290,1,N,0031,1","99999,9,9,Y","009900,1,N,1","+0050,1","+0020,1","99999,9",,,,,,"10230,1,99999,9",,,,,"MET049METAR EGUY 021050Z 29006KT CAVOK 05/02 Q1023 BLU;",
"03566099999","2010-03-02T11:50:00","4","52.357167","-0.107833","41.14","WYTON, UK","FM-15","EGUY ","V020","320,1,N,0031,1","22000,1,9,N","011265,1,N,1","+0070,1","+0020,1","99999,9","02,5,+01050,1,99,9",,,,"02,99,1,99,9,99,9,99999,9,99,9,99,9","10240,1,99999,9",,,,,"MET055METAR EGUY 021150Z 32006KT 9999 FEW035 07/02 Q1024 BLU;",
"03566099999","2010-03-02T12:50:00","4","52.357167","-0.107833","41.14","WYTON, UK","FM-15","EGUY ","V020","010,1,N,0026,1","22000,1,9,N","011265,1,N,1","+0070,1","+0020,1","99999,9","02,5,+00630,1,99,9",,,,"02,99,1,99,9,99,9,99999,9,99,9,99,9","10240,1,99999,9",,,,,"MET055METAR EGUY 021250Z 01005KT 9999 FEW021 07/02 Q1024 BLU;",
"03566099999","2010-03-02T13:50:00","4","52.357167","-0.107833","41.14","WYTON, UK","FM-15","EGUY ","V020","360,1,N,0021,1","22000,1,9,N","011265,1,N,1","+0070,1","+0010,1","99999,9","02,5,+00750,1,99,9",,,,"02,99,1,99,9,99,9,99999,9,99,9,99,9","10240,1,99999,9",,,,,"MET055METAR EGUY 021350Z 36004KT 9999 FEW025 07/01 Q1024 BLU;",
"03566099999","2010-03-02T14:50:00","4","52.357167","-0.107833","41.14","WYTON, UK","FM-15","EGUY ","V020","040,1,N,0051,1","22000,1,9,N","011265,1,N,1","+0070,1","+0020,1","99999,9","02,5,+00750,1,99,9",,,,"02,99,1,99,9,99,9,99999,9,99,9,99,9","10240,1,99999,9",,,,,"MET055METAR EGUY 021450Z 04010KT 9999 FEW025 07/02 Q1024 BLU;",
"03566099999","2010-03-02T15:50:00","4","52.357167","-0.107833","41.14","WYTON, UK","FM-15","EGUY ","V020","030,1,N,0046,1","22000,1,9,N","011265,1,N,1","+0070,1","+0010,1","99999,9","02,5,+00900,1,99,9",,,,"02,99,1,99,9,99,9,99999,9,99,9,99,9","10240,1,99999,9",,,,,"MET055METAR EGUY 021550Z 03009KT 9999 FEW030 07/01 Q1024 BLU;",
"03566099999","2010-03-02T16:50:00","4","52.357167","-0.107833","41.14","WYTON, UK","FM-15","EGUY ","V020","030,1,N,0036,1","22000,1,9,N","011265,1,N,1","+0050,1","+0010,1","99999,9","02,5,+00900,1,99,9",,,,"02,99,1,99,9,99,9,99999,9,99,9,99,9","10251,1,99999,9",,,,,"MET055METAR EGUY 021650Z 03007KT 9999 FEW030 05/01 Q1025 BLU;",
"03566099999","2010-03-03T07:50:00","4","52.357167","-0.107833","41.14","WYTON, UK","FM-15","EGUY ","V020","080,1,N,0021,1","99999,9,9,Y","009900,1,N,1","-0020,1","-0020,1","99999,9",,,,,,"10230,1,99999,9",,,,,"MET051METAR EGUY 030750Z 08004KT CAVOK M02/M02 Q1023 BLU;",
"03566099999","2010-03-03T08:50:00","4","52.357167","-0.107833","41.14","WYTON, UK","FM-15","EGUY ","V020","070,1,N,0021,1","99999,9,9,Y","009900,1,N,1","+0000,1","-0010,1","99999,9",,,,,,"10230,1,99999,9",,,,,"MET050METAR EGUY 030850Z 07004KT CAVOK 00/M01 Q1023 BLU;",
"03566099999","2010-03-03T09:50:00","4","52.357167","-0.107833","41.14","WYTON, UK","FM-15","EGUY ","V020","080,1,N,0026,1","99999,9,9,Y","009900,1,N,1","+0020,1","+0000,1","99999,9",,,,,,"10230,1,99999,9",,,,,"MET049METAR EGUY 030950Z 08005KT CAVOK 02/00 Q1023 BLU;",
"03566099999","2010-03-03T10:50:00","4","52.357167","-0.107833","41.14","WYTON, UK","FM-15","EGUY ","V020","080,1,N,0021,1","99999,9,9,Y","009900,1,N,1","+0020,1","+0010,1","99999,9",,,,,,"10230,1,99999,9",,,,,"MET049METAR EGUY 031050Z 08004KT CAVOK 02/01 Q1023 BLU;",
"03566099999","2010-03-03T11:50:00","4","52.357167","-0.107833","41.14","WYTON, UK","FM-15","EGUY ","V020","090,1,N,0036,1","04500,1,C,N","011265,1,N,1","+0030,1","+0020,1","99999,9","02,5,+00600,1,99,9","07,5,+04500,1,99,9",,,"07,99,1,99,9,99,9,99999,9,99,9,99,9","10230,1,99999,9",,,,,"MET062METAR EGUY 031150Z 09007KT 9999 FEW020 BKN150 03/02 Q1023 BLU;",
"03566099999","2010-03-03T13:50:00","4","52.357167","-0.107833","41.14","WYTON, UK","FM-15","EGUY ","V020","080,1,N,0046,1","04500,1,C,N","011265,1,N,1","+0050,1","+0020,1","99999,9","02,5,+00420,1,99,9","07,5,+04500,1,99,9",,,"07,99,1,99,9,99,9,99999,9,99,9,99,9","10220,1,99999,9",,,,,"MET062METAR EGUY 031350Z 08009KT 9999 FEW014 BKN150 05/02 Q1022 BLU;",
"03566099999","2010-03-03T14:50:00","4","52.357167","-0.107833","41.14","WYTON, UK","FM-15","EGUY ","V020","070,1,N,0062,1","04500,1,C,N","011265,1,N,1","+0050,1","+0010,1","99999,9","02,5,+00480,1,99,9","07,5,+04500,1,99,9",,,"07,99,1,99,9,99,9,99999,9,99,9,99,9","10210,1,99999,9",,,,,"MET062METAR EGUY 031450Z 07012KT 9999 FEW016 BKN150 05/01 Q1021 BLU;",
"03566099999","2010-03-03T15:50:00","4","52.357167","-0.107833","41.14","WYTON, UK","FM-15","EGUY ","V020","080,1,N,0067,1","04500,1,C,N","011265,1,N,1","+0040,1","-0010,1","99999,9","02,5,+00600,1,99,9","07,5,+04500,1,99,9",,,"07,99,1,99,9,99,9,99999,9,99,9,99,9","10200,1,99999,9",,,,,"MET063METAR EGUY 031550Z 08013KT 9999 FEW020 BKN150 04/M01 Q1020 BLU;",
"03566099999","2010-03-04T07:50:00","4","52.357167","-0.107833","41.14","WYTON, UK","FM-15","EGUY ","V020","050,1,N,0031,1","99999,9,9,Y","009900,1,N,1","+0000,1","-0010,1","99999,9",,,,,,"10240,1,99999,9",,,,,"MET051METAR EGUY 040750Z 05006KT CAVOK M00/M01 Q1024 BLU;",
"03566099999","2010-03-04T08:50:00","4","52.357167","-0.107833","41.14","WYTON, UK","FM-15","EGUY ","V020","020,1,N,0026,1","99999,9,C,N","011265,1,N,1","+0010,1","+0000,1","99999,9","02,5,+00750,1,99,9","04,5,+07500,1,99,9",,,"04,99,1,99,9,99,9,99999,9,99,9,99,9","10240,1,99999,9",,,,,"MET063METAR EGUY 040850Z 02005KT 9999 FEW025 SCT250 01/M00 Q1024 BLU;","P01 075003SCOCIG"
"03566099999","2010-03-04T09:50:00","4","52.357167","-0.107833","41.14","WYTON, UK","FM-15","EGUY ","V020","020,1,N,0041,1","99999,9,C,N","011265,1,N,1","+0040,1","+0020,1","99999,9","02,5,+00750,1,99,9","04,5,+07500,1,99,9",,,"04,99,1,99,9,99,9,99999,9,99,9,99,9","10251,1,99999,9",,,,,"MET062METAR EGUY 040950Z 02008KT 9999 FEW025 SCT250 04/02 Q1025 BLU;","P01 075003SCOCIG"
"03566099999","2010-03-04T10:50:00","4","52.357167","-0.107833","41.14","WYTON, UK","FM-15","EGUY ","V020","060,1,N,0067,1","22000,1,9,N","011265,1,N,1","+0060,1","-0010,1","99999,9","04,5,+00840,1,99,9",,,,"04,99,1,99,9,99,9,99999,9,99,9,99,9","10261,1,99999,9",,,,,"MET056METAR EGUY 041050Z 06013KT 9999 SCT028 06/M01 Q1026 BLU;",
"03566099999","2010-03-04T11:50:00","4","52.357167","-0.107833","41.14","WYTON, UK","FM-15","EGUY ","V020","050,1,N,0067,1","22000,1,9,N","011265,1,N,1","+0060,1","-0020,1","99999,9","04,5,+00960,1,99,9",,,,"04,99,1,99,9,99,9,99999,9,99,9,99,9","10261,1,99999,9",,,,,"MET056METAR EGUY 041150Z 05013KT 9999 SCT032 06/M02 Q1026 BLU;",
"03566099999","2010-03-04T12:50:00","4","52.357167","-0.107833","41.14","WYTON, UK","FM-15","EGUY ","V020","030,1,N,0057,1","22000,1,9,N","011265,1,N,1","+0060,1","-0020,1","99999,9","04,5,+00960,1,99,9",,,,"04,99,1,99,9,99,9,99999,9,99,9,99,9","10261,1,99999,9",,,,,"MET056METAR EGUY 041250Z 03011KT 9999 SCT032 06/M02 Q1026 BLU;",
"03566099999","2010-03-04T13:50:00","4","52.357167","-0.107833","41.14","WYTON, UK","FM-15","EGUY ","V020","020,1,N,0067,1","22000,1,9,N","011265,1,N,1","+0050,1","-0010,1","99999,9","04,5,+01050,1,99,9",,,,"04,99,1,99,9,99,9,99999,9,99,9,99,9","10271,1,99999,9",,,,,"MET056METAR EGUY 041350Z 02013KT 9999 SCT035 05/M01 Q1027 BLU;",
"03566099999","2010-03-04T14:50:00","4","52.357167","-0.107833","41.14","WYTON, UK","FM-15","EGUY ","V020","040,1,N,0077,1","22000,1,9,N","011265,1,N,1","+0060,1","-0040,1","99999,9","04,5,+01200,1,99,9",,,,"04,99,1,99,9,99,9,99999,9,99,9,99,9","10271,1,99999,9",,,,,"MET056METAR EGUY 041450Z 04015KT 9999 SCT040 06/M04 Q1027 BLU;",
"03566099999","2010-03-04T15:50:00","4","52.357167","-0.107833","41.14","WYTON, UK","FM-15","EGUY ","V020","020,1,N,0051,1","22000,1,9,N","011265,1,N,1","+0060,1","-0030,1","99999,9","02,5,+01200,1,99,9",,,,"02,99,1,99,9,99,9,99999,9,99,9,99,9",,,,,,"MET050METAR EGUY 041550Z 02010KT 9999 FEW040 06/M03 BLU;",
"03566099999","2010-03-05T07:50:00","4","52.357167","-0.107833","41.14","WYTON, UK","FM-15","EGUY ","V020","260,1,N,0036,1","22000,1,9,N","008000,1,N,1","-0020,1","-0030,1","99999,9","02,5,+07500,1,99,9",,,,"02,99,1,99,9,99,9,99999,9,99,9,99,9",,"05,1",,,,"MET054METAR EGUY 050750Z 26007KT 8000 HZ FEW250 M02/M03 BLU;",
"03566099999","2010-03-05T08:50:00","4","52.357167","-0.107833","41.14","WYTON, UK","FM-15","EGUY ","V020","270,1,N,0041,1","22000,1,9,N","008000,1,N,1","+0000,1","-0010,1","99999,9","02,5,+07500,1,99,9",,,,"02,99,1,99,9,99,9,99999,9,99,9,99,9","10301,1,99999,9","05,1",,,,"MET059METAR EGUY 050850Z 27008KT 8000 HZ FEW250 00/M01 Q1030 BLU;",
"03566099999","2010-03-05T09:50:00","4","52.357167","-0.107833","41.14","WYTON, UK","FM-15","EGUY ","V020","280,1,N,0041,1","22000,1,9,N","008000,1,N,1","+0020,1","+0000,1","99999,9","02,5,+07500,1,99,9",,,,"02,99,1,99,9,99,9,99999,9,99,9,99,9","10301,1,99999,9","05,1",,,,"MET058METAR EGUY 050950Z 28008KT 8000 HZ FEW250 02/00 Q1030 BLU;",
"03566099999","2010-03-05T10:50:00","4","52.357167","-0.107833","41.14","WYTON, UK","FM-15","EGUY ","V020","270,1,N,0041,1","22000,1,9,N","009000,1,N,1","+0040,1","+0000,1","99999,9","02,5,+07500,1,99,9",,,,"02,99,1,99,9,99,9,99999,9,99,9,99,9","10301,1,99999,9","05,1",,,,"MET058METAR EGUY 051050Z 27008KT 9000 HZ FEW250 04/00 Q1030 BLU;",
"03566099999","2010-03-05T11:50:00","4","52.357167","-0.107833","41.14","WYTON, UK","FM-15","EGUY ","V020","280,1,N,0062,1","99999,9,9,Y","009900,1,N,1","+0060,1","+0000,1","99999,9","02,5,+07500,5,99,9",,,,,"10290,1,99999,9",,,,,"MET057METAR EGUY 051150Z 28012KT CAVOK FEW250 06/M00 Q1029 BLU;",
"03566099999","2010-03-05T12:50:00","4","52.357167","-0.107833","41.14","WYTON, UK","FM-15","EGUY ","V020","270,1,N,0057,1","99999,9,9,Y","009900,1,N,1","+0080,1","+0000,1","99999,9",,,,,,"10281,1,99999,9",,,,,"MET050METAR EGUY 051250Z 27011KT CAVOK 08/M00 Q1028 BLU;",
"03566099999","2010-03-05T13:50:00","4","52.357167","-0.107833","41.14","WYTON, UK","FM-15","EGUY ","V020","290,1,N,0062,1","99999,9,9,Y","009900,1,N,1","+0080,1","-0010,1","99999,9",,,,,,"10281,1,99999,9",,,,,"MET050METAR EGUY 051350Z 29012KT CAVOK 08/M01 Q1028 BLU;",
"03566099999","2010-03-05T14:50:00","4","52.357167","-0.107833","41.14","WYTON, UK","FM-15","EGUY ","V020","300,1,N,0072,1","99999,9,9,Y","009900,1,N,1","+0080,1","+0000,1","99999,9",,,,,,"10271,1,99999,9",,,,,"MET050METAR EGUY 051450Z 30014KT CAVOK 08/M00 Q1027 BLU;",
"03566099999","2010-03-05T15:50:00","4","52.357167","-0.107833","41.14","WYTON, UK","FM-15","EGUY ","V020","300,1,N,0062,1","99999,9,9,Y","009900,1,N,1","+0080,1","+0000,1","99999,9",,,,,,"10271,1,99999,9",,,,,"MET049METAR EGUY 051550Z 30012KT CAVOK 08/00 Q1027 BLU;",
"03566099999","2010-03-06T07:50:00","4","52.357167","-0.107833","41.14","WYTON, UK","FM-15","EGUY ","V020","350,1,N,0031,1","00150,5,9,N","999999,9,N,1","+0030,1","+0030,1","99999,9","02,5,+00090,5,99,9","04,5,+00150,5,99,9","07,5,+00750,5,99,9",,,"10270,1,99999,9",,,,,"MET065METAR EGUY 060750Z 35006KT FEW003 SCT005 BKN025 03/03 Q1027 YLO1;",
"03566099999","2010-03-06T08:50:00","4","52.357167","-0.107833","41.14","WYTON, UK","FM-15","EGUY ","V020","050,1,N,0046,1","00450,1,C,N","011265,1,N,1","+0040,1","+0030,1","99999,9","02,5,+00210,1,99,9","04,5,+00450,1,99,9","07,5,+01350,1,99,9",,"07,99,1,99,9,99,9,99999,9,99,9,99,9","10271,1,99999,9","61,1",,,,"MET073METAR EGUY 060850Z 05009KT 9999 -RA FEW007 SCT015 BKN045 04/03 Q1027 WHT;",
"03566099999","2010-03-06T09:50:00","4","52.357167","-0.107833","41.14","WYTON, UK","FM-15","EGUY ","V020","080,1,N,0051,1","01350,1,C,N","011265,1,N,1","+0050,1","+0000,1","99999,9","04,5,+00540,1,99,9","07,5,+01350,1,99,9",,,"07,99,1,99,9,99,9,99999,9,99,9,99,9","10281,1,99999,9",,,,,"MET063METAR EGUY 060950Z 08010KT 9999 SCT018 BKN045 05/M00 Q1028 WHT;",
"03566099999","2010-03-06T10:50:00","4","52.357167","-0.107833","41.14","WYTON, UK","FM-15","EGUY ","V020","060,1,N,0057,1","99999,9,C,N","011265,1,N,1","+0050,1","-0010,1","99999,9","04,5,+00840,1,99,9","04,5,+01350,1,99,9",,,"04,99,1,99,9,99,9,99999,9,99,9,99,9","10281,1,99999,9",,,,,"MET063METAR EGUY 061050Z 06011KT 9999 SCT028 SCT045 05/M01 Q1028 BLU;","P01 013503SCOCIG"
"03566099999","2010-03-06T11:50:00","4","52.357167","-0.107833","41.14","WYTON, UK","FM-15","EGUY ","V020","070,1,N,0062,1","00900,1,C,N","011265,1,N,1","+0050,1","-0020,1","99999,9","07,5,+00900,1,99,9",,,,"07,99,1,99,9,99,9,99999,9,99,9,99,9","10291,1,99999,9",,,,,"MET056METAR EGUY 061150Z 07012KT 9999 BKN030 05/M02 Q1029 BLU;",
"03566099999","2010-03-06T12:50:00","4","52.357167","-0.107833","41.14","WYTON, UK","FM-15","EGUY ","V020","070,1,N,0051,1","99999,9,C,N","011265,1,N,1","+0060,1","-0020,1","99999,9","04,5,+00930,1,99,9","04,5,+01500,1,99,9",,,"04,99,1,99,9,99,9,99999,9,99,9,99,9","10291,1,99999,9",,,,,"MET063METAR EGUY 061250Z 07010KT 9999 SCT031 SCT050 06/M02 Q1029 BLU;","P01 015003SCOCIG"
"03566099999","2010-03-06T13:50:00","4","52.357167","-0.107833","41.14","WYTON, UK","FM-15","EGUY ","V020","080,1,N,0046,1","22000,1,9,N","011265,1,N,1","+0060,1","-0030,1","99999,9","04,5,+01050,1,99,9",,,,"04,99,1,99,9,99,9,99999,9,99,9,99,9","10291,1,99999,9",,,,,"MET056METAR EGUY 061350Z 08009KT 9999 SCT035 06/M03 Q1029 BLU;",
"03566099999","2010-03-06T14:50:00","4","52.357167","-0.107833","41.14","WYTON, UK","FM-15","EGUY ","V020","070,1,N,0051,1","22000,1,9,N","011265,1,N,1","+0050,1","-0030,1","99999,9","04,5,+01050,1,99,9",,,,"04,99,1,99,9,99,9,99999,9,99,9,99,9","10291,1,99999,9",,,,,"MET056METAR EGUY 061450Z 07010KT 9999 SCT035 05/M03 Q1029 BLU;",
"03566099999","2010-03-06T15:50:00","4","52.357167","-0.107833","41.14","WYTON, UK","FM-15","EGUY ","V020","050,1,N,0062,1","22000,1,9,N","011265,1,N,1","+0050,1","-0040,1","99999,9","02,5,+01080,1,99,9",,,,"02,99,1,99,9,99,9,99999,9,99,9,99,9","10291,1,99999,9",,,,,"MET056METAR EGUY 061550Z 05012KT 9999 FEW036 05/M04 Q1029 BLU;",
"03566099999","2010-03-09T08:50:00","4","52.357167","-0.107833","41.14","WYTON, UK","FM-15","EGUY ","V020","360,1,N,0051,1","01350,1,C,N","004500,1,N,1","+0030,1","+0030,1","99999,9","02,5,+00180,1,99,9","07,5,+01350,1,99,9",,,"07,99,1,99,9,99,9,99999,9,99,9,99,9","10312,1,99999,9","10,1",,,,"MET065METAR EGUY 090850Z 36010KT 4500 BR FEW006 BKN045 03/03 Q1031 GRN;",
"03566099999","2010-03-09T09:15:00","4","52.357167","-0.107833","41.14","WYTON, UK","FM-15","EGUY ","V020","010,1,N,0041,1","01470,1,C,N","008000,1,N,1","+0040,1","+0030,1","99999,9","02,5,+00210,1,99,9","07,5,+01470,1,99,9",,,"07,99,1,99,9,99,9,99999,9,99,9,99,9","10312,1,99999,9","05,1",,,,"MET065METAR EGUY 090915Z 01008KT 8000 HZ FEW007 BKN049 04/03 Q1031 BLU;",
"03566099999","2010-03-09T09:50:00","4","52.357167","-0.107833","41.14","WYTON, UK","FM-15","EGUY ","V020","360,1,N,0041,1","99999,9,9,Y","009900,1,N,1","+0050,1","+0030,1","99999,9",,,,,,"10312,1,99999,9",,,,,"MET049METAR EGUY 090950Z 36008KT CAVOK 05/03 Q1031 BLU;",
"03566099999","2010-03-09T10:50:00","4","52.357167","-0.107833","41.14","WYTON, UK","FM-15","EGUY ","V020","020,1,N,0062,1","01500,1,C,N","011265,1,N,1","+0060,1","+0020,1","99999,9","02,5,+00480,1,99,9","08,5,+01500,1,99,9",,,"08,99,1,99,9,99,9,99999,9,99,9,99,9","10312,1,99999,9",,,,,"MET062METAR EGUY 091050Z 02012KT 9999 FEW016 OVC050 06/02 Q1031 BLU;",
"03566099999","2010-03-09T11:50:00","4","52.357167","-0.107833","41.14","WYTON, UK","FM-15","EGUY ","V020","030,1,N,0072,1","00480,1,C,N","011265,1,N,1","+0070,1","+0030,1","99999,9","07,5,+00480,1,99,9","08,5,+01500,1,99,9",,,"08,99,1,99,9,99,9,99999,9,99,9,99,9","10312,1,99999,9",,,,,"MET062METAR EGUY 091150Z 03014KT 9999 BKN016 OVC050 07/03 Q1031 WHT;",
"03566099999","2010-03-09T12:50:00","4","52.357167","-0.107833","41.14","WYTON, UK","FM-15","EGUY ","V020","020,1,N,0062,1","00450,1,C,N","011265,1,N,1","+0070,1","+0030,1","99999,9","07,5,+00450,1,99,9","07,5,+01500,1,99,9",,,"07,99,1,99,9,99,9,99999,9,99,9,99,9","10312,1,99999,9",,,,,"MET062METAR EGUY 091250Z 02012KT 9999 BKN015 BKN050 07/03 Q1031 WHT;",
"03566099999","2010-03-09T13:50:00","4","52.357167","-0.107833","41.14","WYTON, UK","FM-15","EGUY ","V020","020,1,N,0072,1","00960,1,C,N","011265,1,N,1","+0070,1","+0030,1","99999,9","04,5,+00540,1,99,9","07,5,+00960,1,99,9",,,"07,99,1,99,9,99,9,99999,9,99,9,99,9","10301,1,99999,9","80,1",,,,"MET068METAR EGUY 091350Z 02014KT 9999 -SHRA SCT018 BKN032 07/03 Q1030 WHT;",
"03566099999","2010-03-09T14:50:00","4","52.357167","-0.107833","41.14","WYTON, UK","FM-15","EGUY ","V020","030,1,N,0082,1","00540,1,C,N","011265,1,N,1","+0080,1","+0020,1","99999,9","02,5,+00420,1,99,9","07,5,+00540,1,99,9","07,5,+00960,1,99,9",,"07,99,1,99,9,99,9,99999,9,99,9,99,9","10301,1,99999,9",,,,,"MET069METAR EGUY 091450Z 03016KT 9999 FEW014 BKN018 BKN032 08/02 Q1030 WHT;",
"03566099999","2010-03-10T08:50:00","4","52.357167","-0.107833","41.14","WYTON, UK","FM-15","EGUY ","V020","060,1,N,0077,1","00450,1,C,N","011265,1,N,1","+0040,1","+9999,9","99999,9","08,5,+00450,1,99,9",,,,"08,99,1,99,9,99,9,99999,9,99,9,99,9","10312,1,99999,9",,,,,"MET055METAR EGUY 100850Z 06015KT 9999 OVC015 04/// Q1031 WHT;",
"03566099999","2010-03-10T10:50:00","4","52.357167","-0.107833","41.14","WYTON, UK","FM-15","EGUY ","V020","060,1,N,0077,1","00390,1,C,N","011265,1,N,1","+0040,1","+9999,9","99999,9","07,5,+00390,1,99,9","08,5,+00450,1,99,9",,,"08,99,1,99,9,99,9,99999,9,99,9,99,9","10312,1,99999,9",,,,,"MET062METAR EGUY 101050Z 06015KT 9999 BKN013 OVC015 04/// Q1031 GRN;",
"03566099999","2010-03-10T11:50:00","4","52.357167","-0.107833","41.14","WYTON, UK","FM-15","EGUY ","V020","040,1,N,0062,1","00510,1,C,N","011265,1,N,1","+0040,1","+0000,1","99999,9","07,5,+00510,1,99,9",,,,"07,99,1,99,9,99,9,99999,9,99,9,99,9","10312,1,99999,9",,,,,"MET055METAR EGUY 101150Z 04012KT 9999 BKN017 04/00 Q1031 WHT;",
"03566099999","2010-03-10T12:50:00","4","52.357167","-0.107833","41.14","WYTON, UK","FM-15","EGUY ","V020","020,1,N,0072,1","00570,1,C,N","011265,1,N,1","+0050,1","+0000,1","99999,9","07,5,+00570,1,99,9",,,,"07,99,1,99,9,99,9,99999,9,99,9,99,9","10301,1,99999,9",,,,,"MET055METAR EGUY 101250Z 02014KT 9999 BKN019 05/00 Q1030 WHT;",
"03566099999","2010-03-10T13:50:00","4","52.357167","-0.107833","41.14","WYTON, UK","FM-15","EGUY ","V020","030,1,N,0082,1","00570,1,C,N","011265,1,N,1","+0050,1","+0000,1","99999,9","07,5,+00570,1,99,9",,,,"07,99,1,99,9,99,9,99999,9,99,9,99,9","10301,1,99999,9",,,,,"MET055METAR EGUY 101350Z 03016KT 9999 BKN019 05/00 Q1030 WHT;",
"03566099999","2010-03-10T14:50:00","4","52.357167","-0.107833","41.14","WYTON, UK","FM-15","EGUY ","V020","040,1,N,0077,1","00600,1,C,N","011265,1,N,1","+0050,1","+0000,1","99999,9","07,5,+00600,1,99,9",,,,"07,99,1,99,9,99,9,99999,9,99,9,99,9","10291,1,99999,9",,,,,"MET055METAR EGUY 101450Z 04015KT 9999 BKN020 05/00 Q1029 WHT;",
"03566099999","2010-03-11T07:50:00","4","52.357167","-0.107833","41.14","WYTON, UK","FM-15","EGUY ","V020","360,1,N,0041,1","00030,1,C,N","000200,1,N,1","+0010,1","+0010,1","99999,9","08,5,+00030,1,99,9",,,,"08,99,1,99,9,99,9,99999,9,99,9,99,9","10261,1,99999,9","44,1",,,,"MET058METAR EGUY 110750Z 36008KT 0200 FG OVC001 01/01 Q1026 RED;",
"03566099999","2010-03-11T08:50:00","4","52.357167","-0.107833","41.14","WYTON, UK","FM-15","EGUY ","V020","350,1,N,0026,1","00150,1,C,N","002500,1,N,1","+0010,1","+0010,1","99999,9","07,5,+00150,1,99,9",,,,"07,99,1,99,9,99,9,99999,9,99,9,99,9","10261,1,99999,9","10,1",,,,"MET059METAR EGUY 110850Z 35005KT 2500 BR BKN005 01/01 Q1026 YLO1;",
"03566099999","2010-03-11T09:50:00","4","52.357167","-0.107833","41.14","WYTON, UK","FM-15","EGUY ","V020","330,1,N,0026,1","99999,9,C,N","007000,1,N,1","+0030,1","+0020,1","99999,9","02,5,+00150,1,99,9","04,5,+00210,1,99,9",,,"04,99,1,99,9,99,9,99999,9,99,9,99,9","10261,1,99999,9","05,1",,,,"MET066METAR EGUY 110950Z 33005KT 7000 HZ FEW005 SCT007 03/02 Q1026 YLO1;","P01 002103SCOCIG"
"03566099999","2010-03-11T10:50:00","4","52.357167","-0.107833","41.14","WYTON, UK","FM-15","EGUY ","V020","360,1,N,0036,1","22000,1,9,N","009000,1,N,1","+0050,1","+0010,1","99999,9","04,5,+00420,1,99,9",,,,"04,99,1,99,9,99,9,99999,9,99,9,99,9","10251,1,99999,9","05,1",,,,"MET058METAR EGUY 111050Z 36007KT 9000 HZ SCT014 05/01 Q1025 GRN;",
"03566099999","2010-03-11T12:50:00","4","52.357167","-0.107833","41.14","WYTON, UK","FM-15","EGUY ","V020","020,1,N,0026,1","01050,1,C,N","011265,1,N,1","+0060,1","-0030,1","99999,9","07,5,+01050,1,99,9",,,,"07,99,1,99,9,99,9,99999,9,99,9,99,9","10251,1,99999,9",,,,,"MET056METAR EGUY 111250Z 02005KT 9999 BKN035 06/M03 Q1025 BLU;",
"03566099999","2010-03-11T13:50:00","4","52.357167","-0.107833","41.14","WYTON, UK","FM-15","EGUY ","V020","020,1,N,0041,1","01500,1,C,N","011265,1,N,1","+0060,1","-0020,1","99999,9","04,5,+01050,1,99,9","07,5,+01500,1,99,9",,,"07,99,1,99,9,99,9,99999,9,99,9,99,9","10240,1,99999,9",,,,,"MET063METAR EGUY 111350Z 02008KT 9999 SCT035 BKN050 06/M02 Q1024 BLU;",
"03566099999","2010-03-11T14:50:00","4","52.357167","-0.107833","41.14","WYTON, UK","FM-15","EGUY ","V020","350,1,N,0051,1","01500,1,C,N","011265,1,N,1","+0050,1","+0000,1","99999,9","04,5,+01050,1,99,9","07,5,+01500,1,99,9",,,"07,99,1,99,9,99,9,99999,9,99,9,99,9","10240,1,99999,9",,,,,"MET062METAR EGUY 111450Z 35010KT 9999 SCT035 BKN050 05/00 Q1024 BLU;",
"03566099999","2010-03-11T15:50:00","4","52.357167","-0.107833","41.14","WYTON, UK","FM-15","EGUY ","V020","350,1,N,0046,1","01050,1,C,N","011265,1,N,1","+0050,1","+0000,1","99999,9","07,5,+01050,1,99,9",,,,"07,99,1,99,9,99,9,99999,9,99,9,99,9","10230,1,99999,9",,,,,"MET055METAR EGUY 111550Z 35009KT 9999 BKN035 05/00 Q1023 BLU;",
"03566099999","2010-03-12T07:50:00","4","52.357167","-0.107833","41.14","WYTON, UK","FM-15","EGUY ","V020","270,1,N,0046,1","01800,1,C,N","009000,1,N,1","+0040,1","+0020,1","99999,9","04,5,+00660,1,99,9","07,5,+01800,1,99,9",,,"07,99,1,99,9,99,9,99999,9,99,9,99,9","10190,1,99999,9","05,1",,,,"MET065METAR EGUY 120750Z 27009KT 9000 HZ SCT022 BKN060 04/02 Q1019 WHT;",
"03566099999","2010-03-12T08:50:00","4","52.357167","-0.107833","41.14","WYTON, UK","FM-15","EGUY ","V020","310,1,N,0046,1","01200,1,C,N","011265,1,N,1","+0060,1","+0040,1","99999,9","04,5,+00660,1,99,9","07,5,+01200,1,99,9",,,"07,99,1,99,9,99,9,99999,9,99,9,99,9","10190,1,99999,9",,,,,"MET062METAR EGUY 120850Z 31009KT 9999 SCT022 BKN040 06/04 Q1019 WHT;",
"03566099999","2010-03-12T09:30:00","4","52.357167","-0.107833","41.14","WYTON, UK","FM-15","EGUY ","V020","330,1,N,0072,1","00600,1,C,N","009000,1,N,1","+0060,1","+0040,1","99999,9","04,5,+00330,1,99,9","07,5,+00600,1,99,9",,,"07,99,1,99,9,99,9,99999,9,99,9,99,9","10200,1,99999,9","61,1",,,,"MET066METAR EGUY 120930Z 33014KT 9000 -RA SCT011 BKN020 06/04 Q1020 GRN;",
"03566099999","2010-03-12T09:50:00","4","52.357167","-0.107833","41.14","WYTON, UK","FM-15","EGUY ","V020","340,1,N,0051,1","00600,1,C,N","011265,1,N,1","+0050,1","+0040,1","99999,9","04,5,+00330,1,99,9","07,5,+00600,1,99,9",,,"07,99,1,99,9,99,9,99999,9,99,9,99,9","10200,1,99999,9","61,1",,,,"MET066METAR EGUY 120950Z 34010KT 9999 -RA SCT011 BKN020 05/04 Q1020 GRN;",
"03566099999","2010-03-12T10:50:00","4","52.357167","-0.107833","41.14","WYTON, UK","FM-15","EGUY ","V020","340,1,N,0051,1","00600,1,C,N","011265,1,N,1","+0070,1","+0060,1","99999,9","04,5,+00420,1,99,9","07,5,+00600,1,99,9",,,"07,99,1,99,9,99,9,99999,9,99,9,99,9","10200,1,99999,9",,,,,"MET062METAR EGUY 121050Z 34010KT 9999 SCT014 BKN020 07/06 Q1020 GRN;",
"03566099999","2010-03-12T11:50:00","4","52.357167","-0.107833","41.14","WYTON, UK","FM-15","EGUY ","V020","010,1,N,0062,1","00450,1,C,N","006000,1,N,1","+0060,1","+0050,1","99999,9","02,5,+00330,1,99,9","07,5,+00450,1,99,9",,,"07,99,1,99,9,99,9,99999,9,99,9,99,9","10200,1,99999,9","80,1",,,,"MET068METAR EGUY 121150Z 01012KT 6000 -SHRA FEW011 BKN015 06/05 Q1020 WHT;",
"03566099999","2010-03-12T12:50:00","4","52.357167","-0.107833","41.14","WYTON, UK","FM-15","EGUY ","V020","360,1,N,0062,1","00750,1,C,N","011265,1,N,1","+0070,1","+0050,1","99999,9","02,5,+00540,1,99,9","04,5,+00750,1,99,9","07,5,+01050,1,99,9",,"07,99,1,99,9,99,9,99999,9,99,9,99,9","10210,1,99999,9",,,,,"MET069METAR EGUY 121250Z 36012KT 9999 FEW018 SCT025 BKN035 07/05 Q1021 BLU;",
"03566099999","2010-03-12T13:50:00","4","52.357167","-0.107833","41.14","WYTON, UK","FM-15","EGUY ","V020","360,1,N,0067,1","01200,1,C,N","011265,1,N,1","+0080,1","+0040,1","99999,9","02,5,+00600,1,99,9","07,5,+01200,1,99,9",,,"07,99,1,99,9,99,9,99999,9,99,9,99,9","10210,1,99999,9",,,,,"MET062METAR EGUY 121350Z 36013KT 9999 FEW020 BKN040 08/04 Q1021 BLU;",
"03566099999","2010-03-13T07:50:00","4","52.357167","-0.107833","41.14","WYTON, UK","FM-15","EGUY ","V020","300,1,N,0026,1","22000,1,9,N","011265,1,N,1","+0040,1","+0030,1","99999,9","04,5,+00750,1,99,9",,,,"04,99,1,99,9,99,9,99999,9,99,9,99,9","10301,1,99999,9",,,,,"MET055METAR EGUY 130750Z 30005KT 9999 SCT025 04/03 Q1030 BLU;",
"03566099999","2010-03-13T08:50:00","4","52.357167","-0.107833","41.14","WYTON, UK","FM-15","EGUY ","V020","290,1,N,0031,1","99999,9,C,N","011265,1,N,1","+0050,1","+0030,1","99999,9","02,5,+00750,1,99,9","04,5,+00750,1,99,9",,,"04,99,1,99,9,99,9,99999,9,99,9,99,9","10301,1,99999,9",,,,,"MET062METAR EGUY 130850Z 29006KT 9999 FEW025 SCT025 05/03 Q1030 BLU;","P01 007503SCOCIG"
"03566099999","2010-03-13T09:50:00","4","52.357167","-0.107833","41.14","WYTON, UK","FM-15","EGUY ","V020","310,1,N,0036,1","99999,9,C,N","011265,1,N,1","+0060,1","+0010,1","99999,9","02,5,+00600,1,99,9","04,5,+07500,1,99,9",,,"04,99,1,99,9,99,9,99999,9,99,9,99,9","10301,1,99999,9",,,,,"MET062METAR EGUY 130950Z 31007KT 9999 FEW020 SCT250 06/01 Q1030 BLU;","P01 075003SCOCIG"
"03566099999","2010-03-13T10:50:00","4","52.357167","-0.107833","41.14","WYTON, UK","FM-15","EGUY ","V020","260,1,N,0051,1","99999,9,C,N","011265,1,N,1","+0080,1","+0020,1","99999,9","02,5,+00660,1,99,9","04,5,+07500,1,99,9",,,"04,99,1,99,9,99,9,99999,9,99,9,99,9","10301,1,99999,9",,,,,"MET062METAR EGUY 131050Z 26010KT 9999 FEW022 SCT250 08/02 Q1030 BLU;","P01 075003SCOCIG"
"03566099999","2010-03-13T11:50:00","4","52.357167","-0.107833","41.14","WYTON, UK","FM-15","EGUY ","V020","280,1,N,0057,1","99999,9,C,N","011265,1,N,1","+0090,1","+0010,1","99999,9","02,5,+00900,1,99,9","04,5,+07500,1,99,9",,,"04,99,1,99,9,99,9,99999,9,99,9,99,9","10301,1,99999,9",,,,,"MET062METAR EGUY 131150Z 28011KT 9999 FEW030 SCT250 09/01 Q1030 BLU;","P01 075003SCOCIG"
"03566099999","2010-03-13T12:50:00","4","52.357167","-0.107833","41.14","WYTON, UK","FM-15","EGUY ","V020","260,1,N,0062,1","99999,9,C,N","011265,1,N,1","+0100,1","+0020,1","99999,9","04,5,+00960,1,99,9","04,5,+07500,1,99,9",,,"04,99,1,99,9,99,9,99999,9,99,9,99,9","10291,1,99999,9",,,,,"MET062METAR EGUY 131250Z 26012KT 9999 SCT032 SCT250 10/02 Q1029 BLU;","P01 075003SCOCIG"
"03566099999","2010-03-13T14:50:00","4","52.357167","-0.107833","41.14","WYTON, UK","FM-15","EGUY ","V020","280,1,N,0072,1","00750,1,C,N","011265,1,N,1","+0080,1","+0030,1","99999,9","07,5,+00750,1,99,9",,,,"07,99,1,99,9,99,9,99999,9,99,9,99,9","10291,1,99999,9",,,,,"MET055METAR EGUY 131450Z 28014KT 9999 BKN025 08/03 Q1029 BLU;",
"03566099999","2010-03-13T15:50:00","4","52.357167","-0.107833","41.14","WYTON, UK","FM-15","EGUY ","V020","280,1,N,0062,1","00750,1,C,N","011265,1,N,1","+0090,1","+0020,1","99999,9","07,5,+00750,1,99,9",,,,"07,99,1,99,9,99,9,99999,9,99,9,99,9","10281,1,99999,9",,,,,"MET055METAR EGUY 131550Z 28012KT 9999 BKN025 09/02 Q1028 BLU;",
"03566099999","2010-03-16T07:50:00","4","52.357167","-0.107833","41.14","WYTON, UK","FM-15","EGUY ","V020","250,1,N,0031,1","22000,1,9,N","011265,1,N,1","+0050,1","+0010,1","99999,9","04,5,+01350,1,99,9",,,,"04,99,1,99,9,99,9,99999,9,99,9,99,9","10261,1,99999,9",,,,,"MET055METAR EGUY 160750Z 25006KT 9999 SCT045 05/01 Q1026 BLU;",
"03566099999","2010-03-16T08:50:00","4","52.357167","-0.107833","41.14","WYTON, UK","FM-15","EGUY ","V020","260,1,N,0036,1","22000,1,9,N","011265,1,N,1","+0070,1","+0020,1","99999,9","04,5,+01350,1,99,9",,,,"04,99,1,99,9,99,9,99999,9,99,9,99,9","10261,1,99999,9",,,,,"MET055METAR EGUY 160850Z 26007KT 9999 SCT045 07/02 Q1026 BLU;",
"03566099999","2010-03-16T09:50:00","4","52.357167","-0.107833","41.14","WYTON, UK","FM-15","EGUY ","V020","230,1,N,0021,1","01500,1,C,N","011265,1,N,1","+0080,1","+0020,1","99999,9","02,5,+00600,1,99,9","07,5,+01500,1,99,9",,,"07,99,1,99,9,99,9,99999,9,99,9,99,9","10261,1,99999,9",,,,,"MET062METAR EGUY 160950Z 23004KT 9999 FEW020 BKN050 08/02 Q1026 BLU;",
"03566099999","2010-03-16T10:50:00","4","52.357167","-0.107833","41.14","WYTON, UK","FM-15","EGUY ","V020","200,1,N,0026,1","01500,1,C,N","011265,1,N,1","+0090,1","+0030,1","99999,9","07,5,+01500,1,99,9",,,,"07,99,1,99,9,99,9,99999,9,99,9,99,9","10261,1,99999,9",,,,,"MET055METAR EGUY 161050Z 20005KT 9999 BKN050 09/03 Q1026 BLU;",
"03566099999","2010-03-16T13:50:00","4","52.357167","-0.107833","41.14","WYTON, UK","FM-15","EGUY ","V020","230,1,N,0051,1","22000,1,9,N","011265,1,N,1","+0130,1","+0010,1","99999,9","04,5,+00900,1,99,9",,,,"04,99,1,99,9,99,9,99999,9,99,9,99,9","10251,1,99999,9",,,,,"MET055METAR EGUY 161350Z 23010KT 9999 SCT030 13/01 Q1025 BLU;",
"03566099999","2010-03-16T14:50:00","4","52.357167","-0.107833","41.14","WYTON, UK","FM-15","EGUY ","V020","220,1,N,0041,1","22000,1,9,N","011265,1,N,1","+0120,1","+0010,1","99999,9","04,5,+01050,1,99,9",,,,"04,99,1,99,9,99,9,99999,9,99,9,99,9","10240,1,99999,9",,,,,"MET055METAR EGUY 161450Z 22008KT 9999 SCT035 12/01 Q1024 BLU;",
"03566099999","2010-03-16T15:50:00","4","52.357167","-0.107833","41.14","WYTON, UK","FM-15","EGUY ","V020","210,1,N,0051,1","22000,1,9,N","011265,1,N,1","+0120,1","+0020,1","99999,9","02,5,+01200,1,99,9",,,,"02,99,1,99,9,99,9,99999,9,99,9,99,9","10230,1,99999,9",,,,,"MET055METAR EGUY 161550Z 21010KT 9999 FEW040 12/02 Q1023 BLU;",
"03566099999","2010-03-17T08:50:00","4","52.357167","-0.107833","41.14","WYTON, UK","FM-15","EGUY ","V020","210,1,N,0067,1","99999,9,9,Y","009900,1,N,1","+0080,1","+0020,1","99999,9",,,,,,"10200,1,99999,9",,,,,"MET049METAR EGUY 170850Z 21013KT CAVOK 08/02 Q1020 BLU;",
"03566099999","2010-03-17T09:50:00","4","52.357167","-0.107833","41.14","WYTON, UK","FM-15","EGUY ","V020","220,1,N,0067,1","02100,1,C,N","011265,1,N,1","+0100,1","+0030,1","99999,9","02,5,+00540,1,99,9","07,5,+02100,1,99,9",,,"07,99,1,99,9,99,9,99999,9,99,9,99,9","10200,1,99999,9",,,,,"MET062METAR EGUY 170950Z 22013KT 9999 FEW018 BKN070 10/03 Q1020 BLU;",
"03566099999","2010-03-17T10:50:00","4","52.357167","-0.107833","41.14","WYTON, UK","FM-15","EGUY ","V020","240,1,N,0051,1","02100,1,C,N","011265,1,N,1","+0100,1","+0050,1","99999,9","02,5,+00600,1,99,9","07,5,+02100,1,99,9",,,"07,99,1,99,9,99,9,99999,9,99,9,99,9","10210,1,99999,9",,,,,"MET062METAR EGUY 171050Z 24010KT 9999 FEW020 BKN070 10/05 Q1021 BLU;",
"03566099999","2010-03-17T11:50:00","4","52.357167","-0.107833","41.14","WYTON, UK","FM-15","EGUY ","V020","230,1,N,0067,1","02100,1,C,N","011265,1,N,1","+0110,1","+0050,1","99999,9","02,5,+00600,1,99,9","07,5,+02100,1,99,9",,,"07,99,1,99,9,99,9,99999,9,99,9,99,9","10210,1,99999,9",,,,,"MET062METAR EGUY 171150Z 23013KT 9999 FEW020 BKN070 11/05 Q1021 BLU;",
"03566099999","2010-03-17T12:50:00","4","52.357167","-0.107833","41.14","WYTON, UK","FM-15","EGUY ","V020","210,1,N,0051,1","02100,1,C,N","011265,1,N,1","+0120,1","+0060,1","99999,9","02,5,+00750,1,99,9","07,5,+02100,1,99,9",,,"07,99,1,99,9,99,9,99999,9,99,9,99,9","10200,1,99999,9",,,,,"MET062METAR EGUY 171250Z 21010KT 9999 FEW025 BKN070 12/06 Q1020 BLU;",
"03566099999","2010-03-17T14:50:00","4","52.357167","-0.107833","41.14","WYTON, UK","FM-15","EGUY ","V020","230,1,N,0057,1","01050,1,C,N","011265,1,N,1","+0130,1","+0070,1","99999,9","07,5,+01050,1,99,9",,,,"07,99,1,99,9,99,9,99999,9,99,9,99,9","10200,1,99999,9",,,,,"MET055METAR EGUY 171450Z 23011KT 9999 BKN035 13/07 Q1020 BLU;",
"03566099999","2010-03-17T15:50:00","4","52.357167","-0.107833","41.14","WYTON, UK","FM-15","EGUY ","V020","230,1,N,0067,1","01050,1,C,N","011265,1,N,1","+0130,1","+0060,1","99999,9","07,5,+01050,1,99,9",,,,"07,99,1,99,9,99,9,99999,9,99,9,99,9","10200,1,99999,9",,,,,"MET055METAR EGUY 171550Z 23013KT 9999 BKN035 13/06 Q1020 BLU;",
"03566099999","2010-03-18T07:50:00","4","52.357167","-0.107833","41.14","WYTON, UK","FM-15","EGUY ","V020","150,1,N,0057,1","04200,1,C,N","008000,1,N,1","+0080,1","+0060,1","99999,9","07,5,+04200,1,99,9",,,,"07,99,1,99,9,99,9,99999,9,99,9,99,9","10159,1,99999,9","05,1",,,,"MET058METAR EGUY 180750Z 15011KT 8000 HZ BKN140 08/06 Q1016 BLU;",
"03566099999","2010-03-18T08:50:00","4","52.357167","-0.107833","41.14","WYTON, UK","FM-15","EGUY ","V020","170,1,N,0051,1","04200,1,C,N","009000,1,N,1","+0100,1","+0060,1","99999,9","07,5,+04200,1,99,9",,,,"07,99,1,99,9,99,9,99999,9,99,9,99,9","10159,1,99999,9","05,1",,,,"MET058METAR EGUY 180850Z 17010KT 9000 HZ BKN140 10/06 Q1016 BLU;",
"03566099999","2010-03-18T09:50:00","4","52.357167","-0.107833","41.14","WYTON, UK","FM-15","EGUY ","V020","190,1,N,0067,1","99999,9,9,Y","009900,1,N,1","+0120,1","+0030,1","99999,9",,,,,,"10159,1,99999,9",,,,,"MET049METAR EGUY 180950Z 19013KT CAVOK 12/03 Q1016 BLU;",
"03566099999","2010-03-18T10:50:00","4","52.357167","-0.107833","41.14","WYTON, UK","FM-15","EGUY ","V020","190,1,N,0062,1","99999,9,9,Y","009900,1,N,1","+0130,1","+0040,1","99999,9",,,,,,"10149,1,99999,9",,,,,"MET049METAR EGUY 181050Z 19012KT CAVOK 13/04 Q1015 BLU;",
"03566099999","2010-03-18T11:50:00","4","52.357167","-0.107833","41.14","WYTON, UK","FM-15","EGUY ","V020","190,1,N,0067,1","99999,9,9,Y","009900,1,N,1","+0140,1","+0030,1","99999,9",,,,,,"10139,1,99999,9",,,,,"MET049METAR EGUY 181150Z 19013KT CAVOK 14/03 Q1014 BLU;",
"03566099999","2010-03-18T12:50:00","4","52.357167","-0.107833","41.14","WYTON, UK","FM-15","EGUY ","V020","170,1,N,0046,1","99999,9,9,Y","009900,1,N,1","+0160,1","+0030,1","99999,9",,,,,,"10129,1,99999,9",,,,,"MET049METAR EGUY 181250Z 17009KT CAVOK 16/03 Q1013 BLU;",
"03566099999","2010-03-18T13:50:00","4","52.357167","-0.107833","41.14","WYTON, UK","FM-15","EGUY ","V020","180,1,N,0077,1","99999,9,9,Y","009900,1,N,1","+0170,1","+0020,1","99999,9",,,,,,"10119,1,99999,9",,,,,"MET049METAR EGUY 181350Z 18015KT CAVOK 17/02 Q1012 BLU;",
"03566099999","2010-03-18T14:50:00","4","52.357167","-0.107833","41.14","WYTON, UK","FM-15","EGUY ","V020","190,1,N,0062,1","99999,9,9,Y","009900,1,N,1","+0170,1","+0020,1","99999,9",,,,,,"10108,1,99999,9",,,,,"MET049METAR EGUY 181450Z 19012KT CAVOK 17/02 Q1011 BLU;",
"03566099999","2010-03-18T15:50:00","4","52.357167","-0.107833","41.14","WYTON, UK","FM-15","EGUY ","V020","170,1,N,0057,1","99999,9,9,Y","009900,1,N,1","+0160,1","+0030,1","99999,9",,,,,,"10102,1,99999,9",,,,,"MET049METAR EGUY 181550Z 17011KT CAVOK 16/03 Q1010 BLU;",
"03566099999","2010-03-18T16:50:00","4","52.357167","-0.107833","41.14","WYTON, UK","FM-15","EGUY ","V020","180,1,N,0067,1","99999,9,9,Y","009900,1,N,1","+0150,1","+0020,1","99999,9",,,,,,"10102,1,99999,9",,,,,"MET049METAR EGUY 181650Z 18013KT CAVOK 15/02 Q1010 BLU;",
"03566099999","2010-03-19T07:50:00","4","52.357167","-0.107833","41.14","WYTON, UK","FM-15","EGUY ","V020","220,1,N,0051,1","99999,9,9,Y","009900,1,N,1","+0090,1","+0060,1","99999,9",,,,,,"10119,1,99999,9",,,,,"MET049METAR EGUY 190750Z 22010KT CAVOK 09/06 Q1012 BLU;",
"03566099999","2010-03-19T08:50:00","4","52.357167","-0.107833","41.14","WYTON, UK","FM-15","EGUY ","V020","220,1,N,0082,1","99999,9,C,N","011265,1,N,1","+0100,1","+0050,1","99999,9","02,5,+00600,1,99,9","04,5,+07500,1,99,9",,,"04,99,1,99,9,99,9,99999,9,99,9,99,9","10119,1,99999,9",,,,,"MET062METAR EGUY 190850Z 22016KT 9999 FEW020 SCT250 10/05 Q1012 BLU;","P01 075003SCOCIG"
"03566099999","2010-03-19T09:50:00","4","52.357167","-0.107833","41.14","WYTON, UK","FM-15","EGUY ","V020","230,1,N,0062,1","99999,9,C,N","011265,1,N,1","+0110,1","+0060,1","99999,9","04,5,+00600,1,99,9","04,5,+07500,1,99,9",,,"04,99,1,99,9,99,9,99999,9,99,9,99,9","10119,1,99999,9",,,,,"MET062METAR EGUY 190950Z 23012KT 9999 SCT020 SCT250 11/06 Q1012 WHT;","P01 075003SCOCIG"
"03566099999","2010-03-19T10:50:00","4","52.357167","-0.107833","41.14","WYTON, UK","FM-15","EGUY ","V020","230,1,N,0072,1","07500,1,C,N","011265,1,N,1","+0120,1","+0060,1","99999,9","02,5,+00720,1,99,9","07,5,+07500,1,99,9",,,"07,99,1,99,9,99,9,99999,9,99,9,99,9","10119,1,99999,9",,,,,"MET062METAR EGUY 191050Z 23014KT 9999 FEW024 BKN250 12/06 Q1012 BLU;",
"03566099999","2010-03-19T11:50:00","4","52.357167","-0.107833","41.14","WYTON, UK","FM-15","EGUY ","V020","230,1,N,0072,1","07500,1,C,N","011265,1,N,1","+0130,1","+0050,1","99999,9","02,5,+00900,1,99,9","07,5,+07500,1,99,9",,,"07,99,1,99,9,99,9,99999,9,99,9,99,9","10119,1,99999,9",,,,,"MET062METAR EGUY 191150Z 23014KT 9999 FEW030 BKN250 13/05 Q1012 BLU;",
"03566099999","2010-03-19T12:50:00","4","52.357167","-0.107833","41.14","WYTON, UK","FM-15","EGUY ","V020","220,1,N,0062,1","99999,9,9,Y","009900,1,N,1","+0130,1","+0050,1","99999,9",,,,,,"10108,1,99999,9",,,,,"MET049METAR EGUY 191250Z 22012KT CAVOK 13/05 Q1011 BLU;",
"03566099999","2010-03-19T13:50:00","4","52.357167","-0.107833","41.14","WYTON, UK","FM-15","EGUY ","V020","220,1,N,0057,1","99999,9,9,Y","009900,1,N,1","+0130,1","+0060,1","99999,9",,,,,,"10108,1,99999,9",,,,,"MET049METAR EGUY 191350Z 22011KT CAVOK 13/06 Q1011 BLU;",
"03566099999","2010-03-19T14:50:00","4","52.357167","-0.107833","41.14","WYTON, UK","FM-15","EGUY ","V020","210,1,N,0062,1","00630,5,9,N","999999,9,N,1","+0120,1","+0090,1","99999,9","02,5,+00480,5,99,9","04,5,+00630,5,99,9","07,5,+01350,5,99,9",,,"10110,1,99999,9",,,,,"MET064METAR EGUY 191450Z 21012KT FEW016 SCT021 BKN045 12/09 Q1011 WHT;",
"03566099999","2010-03-19T15:50:00","4","52.357167","-0.107833","41.14","WYTON, UK","FM-15","EGUY ","V020","190,1,N,0046,1","00330,1,C,N","011265,1,N,1","+0110,1","+0100,1","99999,9","07,5,+00330,1,99,9",,,,"07,99,1,99,9,99,9,99999,9,99,9,99,9","10102,1,99999,9",,,,,"MET055METAR EGUY 191550Z 19009KT 9999 BKN011 11/10 Q1010 GRN;",
"03566099999","2010-03-20T07:50:00","4","52.357167","-0.107833","41.14","WYTON, UK","FM-15","EGUY ","V020","200,1,N,0062,1","01050,1,C,N","011265,1,N,1","+0120,1","+0100,1","99999,9","02,5,+00300,1,99,9","07,5,+01050,1,99,9",,,"07,99,1,99,9,99,9,99999,9,99,9,99,9","10031,1,99999,9",,,,,"MET062METAR EGUY 200750Z 20012KT 9999 FEW010 BKN035 12/10 Q1003 BLU;",
"03566099999","2010-03-20T08:50:00","4","52.357167","-0.107833","41.14","WYTON, UK","FM-15","EGUY ","V020","200,1,N,0062,1","00450,1,C,N","011265,1,N,1","+0120,1","+0110,1","99999,9","04,5,+00330,1,99,9","07,5,+00450,1,99,9","07,5,+01050,1,99,9",,"07,99,1,99,9,99,9,99999,9,99,9,99,9","10031,1,99999,9",,,,,"MET069METAR EGUY 200850Z 20012KT 9999 SCT011 BKN015 BKN035 12/11 Q1003 GRN;",
"03566099999","2010-03-20T09:50:00","4","52.357167","-0.107833","41.14","WYTON, UK","FM-15","EGUY ","V020","200,1,N,0062,1","00900,1,C,N","011265,1,N,1","+0130,1","+0100,1","99999,9","02,5,+00360,1,99,9","04,5,+00900,1,99,9","07,5,+01500,1,99,9",,"07,99,1,99,9,99,9,99999,9,99,9,99,9","10020,1,99999,9",,,,"0118,1","MET072METAR EGUY 200950Z 20012G23KT 9999 FEW012 SCT030 BKN050 13/10 Q1002 BLU;",
"03566099999","2010-03-20T10:50:00","4","52.357167","-0.107833","41.14","WYTON, UK","FM-15","EGUY ","V020","190,1,N,0062,1","00420,1,C,N","011265,1,N,1","+0130,1","+0120,1","99999,9","02,5,+00300,1,99,9","04,5,+00420,1,99,9","07,5,+00720,1,99,9",,"07,99,1,99,9,99,9,99999,9,99,9,99,9","10020,1,99999,9","61,1",,,,"MET073METAR EGUY 201050Z 19012KT 9999 -RA FEW010 SCT014 BKN024 13/12 Q1002 GRN;",
"03566099999","2010-03-20T11:50:00","4","52.357167","-0.107833","41.14","WYTON, UK","FM-15","EGUY ","V020","190,1,N,0082,1","00450,1,C,N","007000,1,N,1","+0130,1","+0120,1","99999,9","04,5,+00300,1,99,9","04,5,+00450,1,99,9","07,5,+00750,1,99,9",,"07,99,1,99,9,99,9,99999,9,99,9,99,9","10020,1,99999,9","16,1",,,,"MET074METAR EGUY 201150Z 19016KT 7000 VCSH SCT010 SCT015 BKN025 13/12 Q1002 GRN;",
"03566099999","2010-03-20T12:50:00","4","52.357167","-0.107833","41.14","WYTON, UK","FM-15","EGUY ","V020","220,1,N,0077,1","00360,1,C,N","011265,1,N,1","+0130,1","+0110,1","99999,9","07,5,+00360,1,99,9","07,5,+00750,1,99,9",,,"07,99,1,99,9,99,9,99999,9,99,9,99,9","10020,1,99999,9",,,,,"MET062METAR EGUY 201250Z 22015KT 9999 BKN012 BKN025 13/11 Q1002 GRN;",
"03566099999","2010-03-23T07:50:00","4","52.357167","-0.107833","41.14","WYTON, UK","FM-15","EGUY ","V020","160,1,N,0015,1","07500,1,C,N","004500,1,N,1","+0040,1","+0040,1","99999,9","07,5,+07500,1,99,9",,,,"07,99,1,99,9,99,9,99999,9,99,9,99,9","10190,1,99999,9","10,1",,,,"MET058METAR EGUY 230750Z 16003KT 4500 BR BKN250 04/04 Q1019 GRN;",
"03566099999","2010-03-23T08:50:00","4","52.357167","-0.107833","41.14","WYTON, UK","FM-15","EGUY ","V020","160,1,N,0026,1","07500,1,C,N","008000,1,N,1","+0060,1","+0060,1","99999,9","07,5,+07500,1,99,9",,,,"07,99,1,99,9,99,9,99999,9,99,9,99,9","10190,1,99999,9","10,1",,,,"MET058METAR EGUY 230850Z 16005KT 8000 BR BKN250 06/06 Q1019 BLU;",
"03566099999","2010-03-23T09:50:00","4","52.357167","-0.107833","41.14","WYTON, UK","FM-15","EGUY ","V020","160,1,N,0041,1","99999,9,9,Y","009900,1,N,1","+0090,1","+0050,1","99999,9",,,,,,"10180,1,99999,9",,,,,"MET049METAR EGUY 230950Z 16008KT CAVOK 09/05 Q1018 BLU;",
"03566099999","2010-03-23T10:50:00","4","52.357167","-0.107833","41.14","WYTON, UK","FM-15","EGUY ","V020","160,1,N,0062,1","99999,9,9,Y","009900,1,N,1","+0110,1","+0050,1","99999,9",,,,,,"10180,1,99999,9",,,,,"MET049METAR EGUY 231050Z 16012KT CAVOK 11/05 Q1018 BLU;",
"03566099999","2010-03-23T11:50:00","4","52.357167","-0.107833","41.14","WYTON, UK","FM-15","EGUY ","V020","160,1,N,0062,1","07500,1,C,N","011265,1,N,1","+0120,1","+0050,1","99999,9","02,5,+00900,1,99,9","07,5,+07500,1,99,9",,,"07,99,1,99,9,99,9,99999,9,99,9,99,9","10180,1,99999,9",,,,,"MET062METAR EGUY 231150Z 16012KT 9999 FEW030 BKN250 12/05 Q1018 BLU;",
"03566099999","2010-03-23T12:50:00","4","52.357167","-0.107833","41.14","WYTON, UK","FM-15","EGUY ","V020","150,1,N,0077,1","03000,1,C,N","011265,1,N,1","+0130,1","+0030,1","99999,9","02,5,+01200,1,99,9","04,5,+03000,1,99,9","07,5,+07500,1,99,9",,"07,99,1,99,9,99,9,99999,9,99,9,99,9","10159,1,99999,9",,,,,"MET069METAR EGUY 231250Z 15015KT 9999 FEW040 SCT100 BKN250 13/03 Q1016 BLU;",
"03566099999","2010-03-23T13:50:00","4","52.357167","-0.107833","41.14","WYTON, UK","FM-15","EGUY ","V020","160,1,N,0062,1","99999,9,C,N","011265,1,N,1","+0130,1","+0050,1","99999,9","02,5,+00600,1,99,9","04,5,+01200,1,99,9",,,"04,99,1,99,9,99,9,99999,9,99,9,99,9","10149,1,99999,9",,,,,"MET062METAR EGUY 231350Z 16012KT 9999 FEW020 SCT040 13/05 Q1015 BLU;","P01 012003SCOCIG"
"03566099999","2010-03-23T14:50:00","4","52.357167","-0.107833","41.14","WYTON, UK","FM-15","EGUY ","V020","170,1,N,0062,1","99999,9,C,N","011265,1,N,1","+0120,1","+0060,1","99999,9","02,5,+00900,1,99,9","04,5,+01800,1,99,9",,,"04,99,1,99,9,99,9,99999,9,99,9,99,9","10139,1,99999,9",,,,,"MET062METAR EGUY 231450Z 17012KT 9999 FEW030 SCT060 12/06 Q1014 BLU;","P01 018003SCOCIG"
"03566099999","2010-03-23T15:50:00","4","52.357167","-0.107833","41.14","WYTON, UK","FM-15","EGUY ","V020","170,1,N,0077,1","01800,1,C,N","011265,1,N,1","+0110,1","+0050,1","99999,9","04,5,+00540,1,99,9","07,5,+01800,1,99,9",,,"07,99,1,99,9,99,9,99999,9,99,9,99,9","10129,1,99999,9",,,,,"MET062METAR EGUY 231550Z 17015KT 9999 SCT018 BKN060 11/05 Q1013 WHT;",
"03566099999","2010-03-24T07:50:00","4","52.357167","-0.107833","41.14","WYTON, UK","FM-15","EGUY ","V020","130,1,N,0041,1","02100,1,C,N","005000,1,N,1","+0090,1","+0070,1","99999,9","02,5,+00450,1,99,9","08,5,+02100,1,99,9",,,"08,99,1,99,9,99,9,99999,9,99,9,99,9","10051,1,99999,9","61,1",,,,"MET066METAR EGUY 240750Z 13008KT 5000 -RA FEW015 OVC070 09/07 Q1005 WHT;",
"03566099999","2010-03-24T08:50:00","4","52.357167","-0.107833","41.14","WYTON, UK","FM-15","EGUY ","V020","130,1,N,0041,1","01500,1,C,N","004500,1,N,1","+0090,1","+0080,1","99999,9","02,5,+00750,1,99,9","08,5,+01500,1,99,9",,,"08,99,1,99,9,99,9,99999,9,99,9,99,9","10051,1,99999,9","63,1",,,,"MET065METAR EGUY 240850Z 13008KT 4500 RA FEW025 OVC050 09/08 Q1005 GRN;",
"03566099999","2010-03-24T09:50:00","4","52.357167","-0.107833","41.14","WYTON, UK","FM-15","EGUY ","V020","150,1,N,0041,1","01800,1,C,N","005000,1,N,1","+0100,1","+0080,1","99999,9","02,5,+01050,1,99,9","08,5,+01800,1,99,9",,,"08,99,1,99,9,99,9,99999,9,99,9,99,9","10051,1,99999,9","61,1",,,,"MET066METAR EGUY 240950Z 15008KT 5000 -RA FEW035 OVC060 10/08 Q1005 WHT;",
"03566099999","2010-03-24T10:50:00","4","52.357167","-0.107833","41.14","WYTON, UK","FM-15","EGUY ","V020","140,1,N,0031,1","02100,1,C,N","005000,1,N,1","+0100,1","+0090,1","99999,9","02,5,+01050,1,99,9","08,5,+02100,1,99,9",,,"08,99,1,99,9,99,9,99999,9,99,9,99,9","10051,1,99999,9","05,1",,,,"MET065METAR EGUY 241050Z 14006KT 5000 HZ FEW035 OVC070 10/09 Q1005 WHT;",
"03566099999","2010-03-24T11:50:00","4","52.357167","-0.107833","41.14","WYTON, UK","FM-15","EGUY ","V020","170,1,N,0051,1","02100,1,C,N","007000,1,N,1","+0120,1","+0090,1","99999,9","02,5,+01200,1,99,9","07,5,+02100,1,99,9",,,"07,99,1,99,9,99,9,99999,9,99,9,99,9","10051,1,99999,9","05,1",,,,"MET065METAR EGUY 241150Z 17010KT 7000 HZ FEW040 BKN070 12/09 Q1005 WHT;",
"03566099999","2010-03-24T12:50:00","4","52.357167","-0.107833","41.14","WYTON, UK","FM-15","EGUY ","V020","190,1,N,0051,1","99999,9,9,Y","009900,1,N,1","+0150,1","+0090,1","99999,9",,,,,,"10041,1,99999,9",,,,,"MET049METAR EGUY 241250Z 19010KT CAVOK 15/09 Q1004 BLU;",
"03566099999","2010-03-24T13:50:00","4","52.357167","-0.107833","41.14","WYTON, UK","FM-15","EGUY ","V020","190,1,N,0051,1","06000,1,C,N","011265,1,N,1","+0170,1","+0090,1","99999,9","02,5,+00960,1,99,9","07,5,+06000,1,99,9",,,"07,99,1,99,9,99,9,99999,9,99,9,99,9","10041,1,99999,9",,,,,"MET062METAR EGUY 241350Z 19010KT 9999 FEW032 BKN200 17/09 Q1004 BLU;",
"03566099999","2010-03-24T14:50:00","4","52.357167","-0.107833","41.14","WYTON, UK","FM-15","EGUY ","V020","180,1,N,0051,1","07500,1,C,N","011265,1,N,1","+0170,1","+0070,1","99999,9","02,5,+01200,1,99,9","07,5,+07500,1,99,9",,,"07,99,1,99,9,99,9,99999,9,99,9,99,9","10031,1,99999,9",,,,,"MET062METAR EGUY 241450Z 18010KT 9999 FEW040 BKN250 17/07 Q1003 BLU;",
"03566099999","2010-03-24T15:50:00","4","52.357167","-0.107833","41.14","WYTON, UK","FM-15","EGUY ","V020","230,1,N,0046,1","07500,1,C,N","011265,1,N,1","+0170,1","+0060,1","99999,9","02,5,+01320,1,99,9","07,5,+07500,1,99,9",,,"07,99,1,99,9,99,9,99999,9,99,9,99,9","10031,1,99999,9",,,,,"MET062METAR EGUY 241550Z 23009KT 9999 FEW044 BKN250 17/06 Q1003 BLU;",
"03566099999","2010-03-25T07:50:00","4","52.357167","-0.107833","41.14","WYTON, UK","FM-15","EGUY ","V020","150,1,N,0046,1","00360,1,C,N","004000,1,N,1","+0110,1","+0100,1","99999,9","04,5,+00180,1,99,9","04,5,+00360,1,99,9","07,5,+02400,1,99,9",,"07,99,1,99,9,99,9,99999,9,99,9,99,9","10000,1,99999,9","61,1",,,,"MET074METAR EGUY 250750Z 15009KT 4000 -RA SCT006 SCT012 BKN080 11/10 Q1000 YLO1;",
"03566099999","2010-03-25T08:50:00","4","52.357167","-0.107833","41.14","WYTON, UK","FM-15","EGUY ","V020","180,1,N,0051,1","00600,1,C,N","006000,1,N,1","+0120,1","+0100,1","99999,9","02,5,+00240,1,99,9","04,5,+00600,1,99,9","08,5,+01500,1,99,9",,"08,99,1,99,9,99,9,99999,9,99,9,99,9","10010,1,99999,9","63,1",,,,"MET072METAR EGUY 250850Z 18010KT 6000 RA FEW008 SCT020 OVC050 12/10 Q1001 WHT;",
"03566099999","2010-03-25T09:50:00","4","52.357167","-0.107833","41.14","WYTON, UK","FM-15","EGUY ","V020","170,1,N,0031,1","00450,1,C,N","006000,1,N,1","+0120,1","+0110,1","99999,9","02,5,+00300,1,99,9","04,5,+00450,1,99,9","08,5,+01200,1,99,9",,"08,99,1,99,9,99,9,99999,9,99,9,99,9",,"61,1",,,,"MET067METAR EGUY 250950Z 17006KT 6000 -RA FEW010 SCT015 OVC040 12/11 WHT;",
"03566099999","2010-03-25T10:50:00","4","52.357167","-0.107833","41.14","WYTON, UK","FM-15","EGUY ","V020","170,1,N,0057,1","00450,1,C,N","009000,1,N,1","+0130,1","+0100,1","99999,9","02,5,+00300,1,99,9","04,5,+00450,1,99,9","08,5,+01200,1,99,9",,"08,99,1,99,9,99,9,99999,9,99,9,99,9","10000,1,99999,9","61,1",,,,"MET073METAR EGUY 251050Z 17011KT 9000 -RA FEW010 SCT015 OVC040 13/10 Q1000 WHT;",
"03566099999","2010-03-25T11:50:00","4","52.357167","-0.107833","41.14","WYTON, UK","FM-15","EGUY ","V020","170,1,N,0051,1","00540,1,C,N","011265,1,N,1","+0140,1","+0110,1","99999,9","02,5,+00300,1,99,9","04,5,+00540,1,99,9","07,5,+01140,1,99,9",,"07,99,1,99,9,99,9,99999,9,99,9,99,9","10000,1,99999,9",,,,,"MET069METAR EGUY 251150Z 17010KT 9999 FEW010 SCT018 BKN038 14/11 Q1000 WHT;",
"03566099999","2010-03-25T12:50:00","4","52.357167","-0.107833","41.14","WYTON, UK","FM-15","EGUY ","V020","190,1,N,0041,1","01020,1,C,N","011265,1,N,1","+0150,1","+0110,1","99999,9","04,5,+00660,1,99,9","07,5,+01020,1,99,9",,,"07,99,1,99,9,99,9,99999,9,99,9,99,9","09990,1,99999,9",,,,,"MET062METAR EGUY 251250Z 19008KT 9999 SCT022 BKN034 15/11 Q0999 WHT;",
"03566099999","2010-03-25T13:50:00","4","52.357167","-0.107833","41.14","WYTON, UK","FM-15","EGUY ","V020","160,1,N,0057,1","01050,1,C,N","011265,1,N,1","+0150,1","+0100,1","99999,9","04,5,+00600,1,99,9","07,5,+01050,1,99,9",,,"07,99,1,99,9,99,9,99999,9,99,9,99,9","09980,1,99999,9",,,,,"MET062METAR EGUY 251350Z 16011KT 9999 SCT020 BKN035 15/10 Q0998 WHT;",
"03566099999","2010-03-25T14:50:00","4","52.357167","-0.107833","41.14","WYTON, UK","FM-15","EGUY ","V020","150,1,N,0062,1","00600,1,C,N","011265,1,N,1","+0140,1","+0100,1","99999,9","02,5,+00450,1,99,9","04,5,+00600,1,99,9","08,5,+02400,1,99,9",,"08,99,1,99,9,99,9,99999,9,99,9,99,9","09980,1,99999,9","61,1",,,,"MET073METAR EGUY 251450Z 15012KT 9999 -RA FEW015 SCT020 OVC080 14/10 Q0998 WHT;",
"03566099999","2010-03-26T07:50:00","4","52.357167","-0.107833","41.14","WYTON, UK","FM-15","EGUY ","V020","200,1,N,0057,1","22000,1,9,N","011265,1,N,1","+0080,1","+0060,1","99999,9","02,5,+00450,1,99,9",,,,"02,99,1,99,9,99,9,99999,9,99,9,99,9","10010,1,99999,9",,,,,"MET055METAR EGUY 260750Z 20011KT 9999 FEW015 08/06 Q1001 BLU;",
"03566099999","2010-03-26T08:50:00","4","52.357167","-0.107833","41.14","WYTON, UK","FM-15","EGUY ","V020","200,1,N,0062,1","00450,1,C,N","011265,1,N,1","+0090,1","+0060,1","99999,9","07,5,+00450,1,99,9",,,,"07,99,1,99,9,99,9,99999,9,99,9,99,9","10010,1,99999,9",,,,,"MET055METAR EGUY 260850Z 20012KT 9999 BKN015 09/06 Q1001 WHT;",
"03566099999","2010-03-26T09:50:00","4","52.357167","-0.107833","41.14","WYTON, UK","FM-15","EGUY ","V020","180,1,N,0041,1","00660,1,C,N","011265,1,N,1","+0100,1","+0060,1","99999,9","07,5,+00660,1,99,9",,,,"07,99,1,99,9,99,9,99999,9,99,9,99,9","10010,1,99999,9",,,,,"MET055METAR EGUY 260950Z 18008KT 9999 BKN022 10/06 Q1001 WHT;",
"03566099999","2010-03-26T10:50:00","4","52.357167","-0.107833","41.14","WYTON, UK","FM-15","EGUY ","V020","170,1,N,0072,1","99999,9,C,N","011265,1,N,1","+0120,1","+0070,1","99999,9","04,5,+00600,1,99,9","04,5,+00750,1,99,9",,,"04,99,1,99,9,99,9,99999,9,99,9,99,9","10010,1,99999,9",,,,,"MET062METAR EGUY 261050Z 17014KT 9999 SCT020 SCT025 12/07 Q1001 WHT;","P01 007503SCOCIG"
"03566099999","2010-03-26T11:50:00","4","52.357167","-0.107833","41.14","WYTON, UK","FM-15","EGUY ","V020","210,1,N,0077,1","00840,1,C,N","011265,1,N,1","+0120,1","+0050,1","99999,9","02,5,+00600,1,99,9","07,5,+00840,1,99,9",,,"07,99,1,99,9,99,9,99999,9,99,9,99,9","10010,1,99999,9",,,,,"MET062METAR EGUY 261150Z 21015KT 9999 FEW020 BKN028 12/05 Q1001 BLU;",
"03566099999","2010-03-26T12:50:00","4","52.357167","-0.107833","41.14","WYTON, UK","FM-15","EGUY ","V020","190,1,N,0082,1","01080,1,C,N","011265,1,N,1","+0130,1","+0040,1","99999,9","02,5,+00750,1,99,9","07,5,+01080,1,99,9",,,"07,99,1,99,9,99,9,99999,9,99,9,99,9","10000,1,99999,9",,,,"0134,1","MET066METAR EGUY 261250Z 19016G26KT 9999 FEW025 BKN036 13/04 Q10001 BLU;",
"03566099999","2010-03-26T13:50:00","4","52.357167","-0.107833","41.14","WYTON, UK","FM-15","EGUY ","V020","190,1,N,0077,1","00960,1,C,N","011265,1,N,1","+0130,1","+0050,1","99999,9","02,5,+00750,1,99,9","04,5,+00960,1,99,9","07,5,+01800,1,99,9",,"07,99,1,99,9,99,9,99999,9,99,9,99,9","10000,1,99999,9",,,,"0129,1","MET072METAR EGUY 261350Z 19015G25KT 9999 FEW025 SCT032 BKN060 13/05 Q1000 BLU;",
"03566099999","2010-03-27T07:50:00","4","52.357167","-0.107833","41.14","WYTON, UK","FM-15","EGUY ","V020","220,1,N,0041,1","01500,1,C,N","007000,1,N,1","+0080,1","+0080,1","99999,9","04,5,+00450,1,99,9","07,5,+01500,1,99,9",,,"07,99,1,99,9,99,9,99999,9,99,9,99,9","10020,1,99999,9","80,1",,,,"MET068METAR EGUY 270750Z 22008KT 7000 -SHRA SCT015 BKN050 08/08 Q1002 WHT;",
"03566099999","2010-03-27T08:50:00","4","52.357167","-0.107833","41.14","WYTON, UK","FM-15","EGUY ","V020","250,1,N,0041,1","00450,1,C,N","011265,1,N,1","+0090,1","+0080,1","99999,9","07,5,+00450,1,99,9","07,5,+01500,1,99,9",,,"07,99,1,99,9,99,9,99999,9,99,9,99,9","10031,1,99999,9",,,,,"MET062METAR EGUY 270850Z 25008KT 9999 BKN015 BKN050 09/08 Q1003 BLU;",
"03566099999","2010-03-27T09:50:00","4","52.357167","-0.107833","41.14","WYTON, UK","FM-15","EGUY ","V020","270,1,N,0051,1","00750,1,C,N","011265,1,N,1","+0100,1","+0080,1","99999,9","04,5,+00450,1,99,9","07,5,+00750,1,99,9",,,"07,99,1,99,9,99,9,99999,9,99,9,99,9","10031,1,99999,9",,,,,"MET062METAR EGUY 270950Z 27010KT 9999 SCT015 BKN025 10/08 Q1003 WHT;",
"03566099999","2010-03-27T10:50:00","4","52.357167","-0.107833","41.14","WYTON, UK","FM-15","EGUY ","V020","270,1,N,0057,1","01500,1,C,N","011265,1,N,1","+0110,1","+0070,1","99999,9","04,5,+00480,1,99,9","07,5,+01500,1,99,9",,,"07,99,1,99,9,99,9,99999,9,99,9,99,9","10041,1,99999,9",,,,,"MET062METAR EGUY 271050Z 27011KT 9999 SCT016 BKN050 11/07 Q1004 WHT;",
"03566099999","2010-03-27T11:50:00","4","52.357167","-0.107833","41.14","WYTON, UK","FM-15","EGUY ","V020","290,1,N,0072,1","00630,1,C,N","011265,1,N,1","+0110,1","+0060,1","99999,9","02,5,+00450,1,99,9","04,5,+00630,1,99,9","07,5,+01800,1,99,9",,"07,99,1,99,9,99,9,99999,9,99,9,99,9","10041,1,99999,9",,,,,"MET069METAR EGUY 271150Z 29014KT 9999 FEW015 SCT021 BKN060 11/06 Q1004 BLU;",
"03566099999","2010-03-27T12:50:00","4","52.357167","-0.107833","41.14","WYTON, UK","FM-15","EGUY ","V020","290,1,N,0077,1","01800,1,C,N","011265,1,N,1","+0120,1","+0060,1","99999,9","04,5,+00750,1,99,9","07,5,+01800,1,99,9",,,"07,99,1,99,9,99,9,99999,9,99,9,99,9","10051,1,99999,9",,,,,"MET062METAR EGUY 271250Z 29015KT 9999 SCT025 BKN060 12/06 Q1005 BLU;",
"03566099999","2010-03-27T13:50:00","4","52.357167","-0.107833","41.14","WYTON, UK","FM-15","EGUY ","V020","280,1,N,0082,1","99999,9,C,N","011265,1,N,1","+0120,1","+0050,1","99999,9","04,5,+00840,1,99,9","04,5,+01800,1,99,9",,,"04,99,1,99,9,99,9,99999,9,99,9,99,9","10051,1,99999,9",,,,,"MET062METAR EGUY 271350Z 28016KT 9999 SCT028 SCT060 12/05 Q1005 BLU;","P01 018003SCOCIG"
"03566099999","2010-03-27T14:50:00","4","52.357167","-0.107833","41.14","WYTON, UK","FM-15","EGUY ","V020","300,1,N,0087,1","01140,1,C,N","011265,1,N,1","+0130,1","+0040,1","99999,9","07,5,+01140,1,99,9",,,,"07,99,1,99,9,99,9,99999,9,99,9,99,9","10051,1,99999,9",,,,,"MET055METAR EGUY 271450Z 30017KT 9999 BKN038 13/04 Q1005 BLU;",
"03566099999","2010-03-29T06:50:00","4","52.357167","-0.107833","41.14","WYTON, UK","FM-15","EGUY ","V020","090,1,N,0015,1","00450,1,C,N","004500,1,N,1","+0050,1","+0050,1","99999,9","02,5,+00150,1,99,9","07,5,+00450,1,99,9",,,"07,99,1,99,9,99,9,99999,9,99,9,99,9","10031,1,99999,9","61,1",,,,"MET066METAR EGUY 290650Z 09003KT 4500 -RA FEW005 BKN015 05/05 Q1003 GRN;",
"03566099999","2010-03-29T07:50:00","4","52.357167","-0.107833","41.14","WYTON, UK","FM-15","EGUY ","V020","080,1,N,0036,1","00420,1,C,N","006000,1,N,1","+0050,1","+0050,1","99999,9","02,5,+00300,1,99,9","07,5,+00420,1,99,9",,,"07,99,1,99,9,99,9,99999,9,99,9,99,9","10020,1,99999,9","10,1",,,,"MET065METAR EGUY 290750Z 08007KT 6000 BR FEW010 BKN014 05/05 Q1002 GRN;",
"03566099999","2010-03-29T08:50:00","4","52.357167","-0.107833","41.14","WYTON, UK","FM-15","EGUY ","V020","090,1,N,0041,1","00240,1,C,N","003500,1,N,1","+0060,1","+0060,1","99999,9","02,5,+00060,1,99,9","07,5,+00240,1,99,9",,,"07,99,1,99,9,99,9,99999,9,99,9,99,9","10020,1,99999,9","63,1",,,,"MET066METAR EGUY 290850Z 09008KT 3500 RA FEW002 BKN008 06/06 Q1002 YLO1;",
"03566099999","2010-03-29T09:50:00","4","52.357167","-0.107833","41.14","WYTON, UK","FM-15","EGUY ","V020","130,1,N,0036,1","00120,1,C,N","003500,1,N,1","+0080,1","+0080,1","99999,9","07,5,+00120,1,99,9",,,,"07,99,1,99,9,99,9,99999,9,99,9,99,9","10010,1,99999,9","61,1",,,,"MET060METAR EGUY 290950Z 13007KT 3500 -RA BKN004 08/08 Q1001 YLO2;",
"03566099999","2010-03-29T10:50:00","4","52.357167","-0.107833","41.14","WYTON, UK","FM-15","EGUY ","V020","160,1,N,0041,1","99999,9,C,N","004000,1,N,1","+0100,1","+0090,1","99999,9","02,5,+00060,1,99,9","04,5,+00150,1,99,9",,,"04,99,1,99,9,99,9,99999,9,99,9,99,9","10010,1,99999,9","61,1",,,,"MET067METAR EGUY 291050Z 16008KT 4000 -RA FEW002 SCT005 10/09 Q1001 YLO1;","P01 001503SCOCIG"
"03566099999","2010-03-29T11:50:00","4","52.357167","-0.107833","41.14","WYTON, UK","FM-15","EGUY ","V020","180,1,N,0072,1","00360,1,C,N","011265,1,N,1","+0120,1","+0090,1","99999,9","02,5,+00210,1,99,9","07,5,+00360,1,99,9",,,"07,99,1,99,9,99,9,99999,9,99,9,99,9","10000,1,99999,9",,,,,"MET062METAR EGUY 291150Z 18014KT 9999 FEW007 BKN012 12/09 Q1000 GRN;",
"03566099999","2010-03-29T12:50:00","4","52.357167","-0.107833","41.14","WYTON, UK","FM-15","EGUY ","V020","190,1,N,0062,1","00600,1,C,N","011265,1,N,1","+0120,1","+0090,1","99999,9","02,5,+00360,1,99,9","07,5,+00600,1,99,9",,,"07,99,1,99,9,99,9,99999,9,99,9,99,9","09990,1,99999,9",,,,,"MET062METAR EGUY 291250Z 19012KT 9999 FEW012 BKN020 12/09 Q0999 WHT;",
"03566099999","2010-03-29T13:50:00","4","52.357167","-0.107833","41.14","WYTON, UK","FM-15","EGUY ","V020","170,1,N,0077,1","00600,1,C,N","011265,1,N,1","+0120,1","+0090,1","99999,9","02,5,+00450,1,99,9","07,5,+00600,1,99,9",,,"07,99,1,99,9,99,9,99999,9,99,9,99,9","09980,1,99999,9",,,,,"MET062METAR EGUY 291350Z 17015KT 9999 FEW015 BKN020 12/09 Q0998 WHT;",
"03566099999","2010-03-29T14:50:00","4","52.357167","-0.107833","41.14","WYTON, UK","FM-15","EGUY ","V020","160,1,N,0087,1","00600,1,C,N","011265,1,N,1","+0120,1","+0090,1","99999,9","02,5,+00360,1,99,9","07,5,+00600,1,99,9",,,"07,99,1,99,9,99,9,99999,9,99,9,99,9","09970,1,99999,9",,,,,"MET062METAR EGUY 291450Z 16017KT 9999 FEW012 BKN020 12/09 Q0997 WHT;",
"03566099999","2010-03-30T06:50:00","4","52.357167","-0.107833","41.14","WYTON, UK","FM-15","EGUY ","V020","140,1,N,0031,1","00660,1,C,N","007000,1,N,1","+0090,1","+0080,1","99999,9","04,5,+00540,1,99,9","07,5,+00660,1,99,9",,,"07,99,1,99,9,99,9,99999,9,99,9,99,9","09871,1,99999,9","61,1",,,,"MET062METAR EGUY 300650Z 14006KT 7000 -RA SCT018 BKN022 09/08 Q0987;",
"03566099999","2010-03-30T07:50:00","4","52.357167","-0.107833","41.14","WYTON, UK","FM-15","EGUY ","V020","150,1,N,0031,1","01500,1,C,N","008000,1,N,1","+0090,1","+0080,1","99999,9","04,5,+00420,1,99,9","08,5,+01500,1,99,9",,,"08,99,1,99,9,99,9,99999,9,99,9,99,9","09871,1,99999,9","61,1",,,,"MET066METAR EGUY 300750Z 15006KT 8000 -RA SCT014 OVC050 09/08 Q0987 GRN;",
"03566099999","2010-03-30T08:50:00","4","52.357167","-0.107833","41.14","WYTON, UK","FM-15","EGUY ","V020","190,1,N,0046,1","01350,1,C,N","006000,1,N,1","+0090,1","+0080,1","99999,9","04,5,+00180,1,99,9","07,5,+01350,1,99,9","08,5,+02100,1,99,9",,"08,99,1,99,9,99,9,99999,9,99,9,99,9","09871,1,99999,9","63,1",,,,"MET073METAR EGUY 300850Z 19009KT 6000 RA SCT006 BKN045 OVC070 09/08 Q0987 YLO1;",
"03566099999","2010-03-30T09:50:00","4","52.357167","-0.107833","41.14","WYTON, UK","FM-15","EGUY ","V020","180,1,N,0036,1","00360,1,C,N","008000,1,N,1","+0080,1","+0070,1","99999,9","02,5,+00150,1,99,9","07,5,+00360,1,99,9",,,"07,99,1,99,9,99,9,99999,9,99,9,99,9","09861,1,99999,9","61,1",,,,"MET066METAR EGUY 300950Z 18007KT 8000 -RA FEW005 BKN012 08/07 Q0986 GRN;",
"03566099999","2010-03-30T10:50:00","4","52.357167","-0.107833","41.14","WYTON, UK","FM-15","EGUY ","V020","170,1,N,0046,1","00600,1,C,N","011265,1,N,1","+0090,1","+0070,1","99999,9","02,5,+00240,1,99,9","04,5,+00600,1,99,9","07,5,+01200,1,99,9",,"07,99,1,99,9,99,9,99999,9,99,9,99,9","09861,1,99999,9",,,,,"MET069METAR EGUY 301050Z 17009KT 9999 FEW008 SCT020 BKN040 09/07 Q0986 WHT;",
"03566099999","2010-03-30T11:50:00","4","52.357167","-0.107833","41.14","WYTON, UK","FM-15","EGUY ","V020","170,1,N,0062,1","02100,1,C,N","011265,1,N,1","+0100,1","+0070,1","99999,9","04,5,+00360,1,99,9","07,5,+02100,1,99,9",,,"07,99,1,99,9,99,9,99999,9,99,9,99,9","09851,1,99999,9",,,,,"MET062METAR EGUY 301150Z 17012KT 9999 SCT012 BKN070 10/07 Q0985 GRN;",
"03566099999","2010-03-30T12:50:00","4","52.357167","-0.107833","41.14","WYTON, UK","FM-15","EGUY ","V020","150,1,N,0072,1","00750,1,C,N","011265,1,N,1","+0120,1","+0060,1","99999,9","02,5,+00390,1,99,9","07,5,+00750,1,99,9",,,"07,99,1,99,9,99,9,99999,9,99,9,99,9","09841,1,99999,9",,,,,"MET062METAR EGUY 301250Z 15014KT 9999 FEW013 BKN025 12/06 Q0984 BLU;",
"03566099999","2010-03-30T13:50:00","4","52.357167","-0.107833","41.14","WYTON, UK","FM-15","EGUY ","V020","150,1,N,0077,1","00750,1,C,N","011265,1,N,1","+0110,1","+0070,1","99999,9","02,5,+00390,1,99,9","07,5,+00750,1,99,9",,,"07,99,1,99,9,99,9,99999,9,99,9,99,9","09841,1,99999,9","63,1",,,,"MET065METAR EGUY 301350Z 15015KT 9999 RA FEW013 BKN025 11/07 Q0984 BLU;",
"03566099999","2010-03-30T14:50:00","4","52.357167","-0.107833","41.14","WYTON, UK","FM-15","EGUY ","V020","160,1,N,0087,1","00750,1,C,N","011265,1,N,1","+0110,1","+0060,1","99999,9","02,5,+00300,1,99,9","07,5,+00750,1,99,9",,,"07,99,1,99,9,99,9,99999,9,99,9,99,9","09831,1,99999,9","16,1",,,,"MET067METAR EGUY 301450Z 16017KT 9999 VCSH FEW010 BKN025 11/06 Q0983 BLU;",
"03566099999","2010-03-31T06:50:00","4","52.357167","-0.107833","41.14","WYTON, UK","FM-15","EGUY ","V020","220,1,N,0046,1","00600,1,C,N","011265,1,N,1","+0030,1","+0020,1","99999,9","02,5,+00180,1,99,9","07,5,+00600,1,99,9","08,5,+01800,1,99,9",,"08,99,1,99,9,99,9,99999,9,99,9,99,9","09810,1,99999,9","61,1",,,,"MET073METAR EGUY 310650Z 22009KT 9999 -RA FEW006 BKN020 OVC060 03/02 Q0981 WHT;",
"03566099999","2010-03-31T07:50:00","4","52.357167","-0.107833","41.14","WYTON, UK","FM-15","EGUY ","V020","240,1,N,0072,1","00270,1,C,N","011265,1,N,1","+0040,1","+0020,1","99999,9","07,5,+00270,1,99,9","08,5,+00450,1,99,9",,,"08,99,1,99,9,99,9,99999,9,99,9,99,9","09821,1,99999,9","61,1",,,,"MET066METAR EGUY 310750Z 24014KT 9999 -RA BKN009 OVC015 04/02 Q0982 GRN;",
"03566099999","2010-03-31T08:50:00","4","52.357167","-0.107833","41.14","WYTON, UK","FM-15","EGUY ","V020","250,1,N,0082,1","00480,1,C,N","011265,1,N,1","+0040,1","+0020,1","99999,9","04,5,+00360,1,99,9","07,5,+00480,1,99,9","07,5,+00750,1,99,9",,"07,99,1,99,9,99,9,99999,9,99,9,99,9","09831,1,99999,9",,,,,"MET069METAR EGUY 310850Z 25016KT 9999 SCT012 BKN016 BKN025 04/02 Q0983 GRN;",
"03566099999","2010-03-31T09:50:00","4","52.357167","-0.107833","41.14","WYTON, UK","FM-15","EGUY ","V020","250,1,N,0067,1","00600,1,C,N","011265,1,N,1","+0050,1","+0020,1","99999,9","04,5,+00360,1,99,9","07,5,+00600,1,99,9",,,"07,99,1,99,9,99,9,99999,9,99,9,99,9","09841,1,99999,9",,,,,"MET062METAR EGUY 310950Z 25013KT 9999 SCT012 BKN020 05/02 Q0984 GRN;",
"03566099999","2010-03-31T10:50:00","4","52.357167","-0.107833","41.14","WYTON, UK","FM-15","EGUY ","V020","260,1,N,0072,1","00360,1,C,N","011265,1,N,1","+0050,1","+0030,1","99999,9","07,5,+00360,1,99,9",,,,"07,99,1,99,9,99,9,99999,9,99,9,99,9","09851,1,99999,9","61,1",,,,"MET059METAR EGUY 311050Z 26014KT 9999 -RA BKN012 05/03 Q0985 GRN;",
"03566099999","2010-03-31T11:50:00","4","52.357167","-0.107833","41.14","WYTON, UK","FM-15","EGUY ","V020","260,1,N,0103,1","00480,1,C,N","011265,1,N,1","+0050,1","+0030,1","99999,9","02,5,+00330,1,99,9","07,5,+00480,1,99,9",,,"07,99,1,99,9,99,9,99999,9,99,9,99,9","09861,1,99999,9","61,1",,,,"MET066METAR EGUY 311150Z 26020KT 9999 -RA FEW011 BKN016 05/03 Q0986 WHT;",
"03566099999","2010-03-31T12:50:00","4","52.357167","-0.107833","41.14","WYTON, UK","FM-15","EGUY ","V020","270,1,N,0123,1","00540,1,C,N","011265,1,N,1","+0060,1","+0020,1","99999,9","07,5,+00540,1,99,9",,,,"07,99,1,99,9,99,9,99999,9,99,9,99,9","09882,1,99999,9",,,,,"MET055METAR EGUY 311250Z 27024KT 9999 BKN018 06/02 Q0988 WHT;",
"03566099999","2010-03-31T13:50:00","4","52.357167","-0.107833","41.14","WYTON, UK","FM-15","EGUY ","V020","270,1,N,0129,1","00540,1,C,N","011265,1,N,1","+0060,1","+0010,1","99999,9","07,5,+00540,1,99,9",,,,"07,99,1,99,9,99,9,99999,9,99,9,99,9","09892,1,99999,9",,,,,"MET055METAR EGUY 311350Z 27025KT 9999 BKN018 06/01 Q0989 WHT;",
"03566099999","2010-04-01T06:50:00","4","52.357167","-0.107833","41.14","WYTON, UK","FM-15","EGUY ","V020","260,1,N,0072,1","99999,9,9,Y","009900,1,N,1","+0030,1","-0010,1","99999,9",,,,,,"10031,1,99999,9",,,,"0123,1","MET053METAR EGUY 010650Z 26014G24KT CAVOK 03/M01 Q1003 BLU;",
"03566099999","2010-04-01T07:50:00","4","52.357167","-0.107833","41.14","WYTON, UK","FM-15","EGUY ","V020","260,1,N,0077,1","99999,9,9,Y","009900,1,N,1","+0040,1","-0010,1","99999,9",,,,,,"10041,1,99999,9",,,,"0139,1","MET053METAR EGUY 010750Z 26015G27KT CAVOK 04/M01 Q1004 BLU;",
"03566099999","2010-04-01T08:50:00","4","52.357167","-0.107833","41.14","WYTON, UK","FM-15","EGUY ","V020","260,1,N,0093,1","22000,1,9,N","011265,1,N,1","+0060,1","-0010,1","99999,9","02,5,+00600,1,99,9",,,,"02,99,1,99,9,99,9,99999,9,99,9,99,9","10051,1,99999,9",,,,"0144,1","MET059METAR EGUY 010850Z 26018G28KT 9999 FEW020 06/M01 Q1005 BLU;",
"03566099999","2010-04-01T09:50:00","4","52.357167","-0.107833","41.14","WYTON, UK","FM-15","EGUY ","V020","280,1,N,0108,1","22000,1,9,N","011265,1,N,1","+0080,1","+0000,1","99999,9","02,5,+00960,1,99,9",,,,"02,99,1,99,9,99,9,99999,9,99,9,99,9","10061,1,99999,9",,,,"0165,1","MET058METAR EGUY 010950Z 28021G32KT 9999 FEW032 08/00 Q1006 BLU;",
"03566099999","2010-04-01T10:50:00","4","52.357167","-0.107833","41.14","WYTON, UK","FM-15","EGUY ","V020","250,1,N,0077,1","22000,1,9,N","011265,1,N,1","+0090,1","+0010,1","99999,9","04,5,+00960,1,99,9",,,,"04,99,1,99,9,99,9,99999,9,99,9,99,9","10061,1,99999,9",,,,"0129,1","MET058METAR EGUY 011050Z 25015G25KT 9999 SCT032 09/01 Q1006 BLU;",
"03566099999","2010-04-01T11:50:00","4","52.357167","-0.107833","41.14","WYTON, UK","FM-15","EGUY ","V020","250,1,N,0108,1","01350,1,C,N","011265,1,N,1","+0080,1","+0000,1","99999,9","02,5,+01050,1,99,9","07,5,+01350,1,99,9",,,"07,99,1,99,9,99,9,99999,9,99,9,99,9","10071,1,99999,9",,,,,"MET062METAR EGUY 011150Z 25021KT 9999 FEW035 BKN045 08/00 Q1007 BLU;",
"03566099999","2010-04-06T06:50:00","4","52.357167","-0.107833","41.14","WYTON, UK","FM-15","EGUY ","V020","160,1,N,0062,1","99999,9,9,Y","009900,1,N,1","+0060,1","+0050,1","99999,9",,,,,,"10169,1,99999,9",,,,,"MET049METAR EGUY 060650Z 16012KT CAVOK 06/05 Q1017 BLU;",
"03566099999","2010-04-06T08:50:00","4","52.357167","-0.107833","41.14","WYTON, UK","FM-15","EGUY ","V020","160,1,N,0062,1","99999,9,9,Y","009900,1,N,1","+0090,1","+0060,1","99999,9",,,,,,"10169,1,99999,9",,,,,"MET049METAR EGUY 060850Z 16012KT CAVOK 09/06 Q1017 BLU;",
"03566099999","2010-04-06T09:50:00","4","52.357167","-0.107833","41.14","WYTON, UK","FM-15","EGUY ","V020","170,1,N,0082,1","22000,1,9,N","011265,1,N,1","+0130,1","+0090,1","99999,9","02,5,+00750,1,99,9",,,,"02,99,1,99,9,99,9,99999,9,99,9,99,9","10159,1,99999,9",,,,,"MET055METAR EGUY 060950Z 17016KT 9999 FEW025 13/09 Q1016 BLU;",
"03566099999","2010-04-06T10:50:00","4","52.357167","-0.107833","41.14","WYTON, UK","FM-15","EGUY ","V020","180,1,N,0077,1","22000,1,9,N","011265,1,N,1","+0140,1","+0090,1","99999,9","02,5,+01200,1,99,9",,,,"02,99,1,99,9,99,9,99999,9,99,9,99,9","10149,1,99999,9",,,,"0134,1","MET058METAR EGUY 061050Z 18015G26KT 9999 FEW040 14/09 Q1015 BLU;",
"03566099999","2010-04-06T11:50:00","4","52.357167","-0.107833","41.14","WYTON, UK","FM-15","EGUY ","V020","180,1,N,0098,1","04200,1,C,N","011265,1,N,1","+0150,1","+0090,1","99999,9","02,5,+00720,1,99,9","07,5,+04200,1,99,9",,,"07,99,1,99,9,99,9,99999,9,99,9,99,9","10139,1,99999,9",,,,,"MET062METAR EGUY 061150Z 18019KT 9999 FEW024 BKN140 15/09 Q1014 BLU;",
"03566099999","2010-04-06T13:50:00","4","52.357167","-0.107833","41.14","WYTON, UK","FM-15","EGUY ","V020","190,1,N,0103,1","04200,1,C,N","011265,1,N,1","+0170,1","+0110,1","99999,9","02,5,+01200,1,99,9","07,5,+04200,1,99,9",,,"07,99,1,99,9,99,9,99999,9,99,9,99,9","10129,1,99999,9",,,,,"MET062METAR EGUY 061350Z 19020KT 9999 FEW040 BKN140 17/11 Q1013 BLU;",
"03566099999","2010-04-06T14:50:00","4","52.357167","-0.107833","41.14","WYTON, UK","FM-15","EGUY ","V020","180,1,N,0077,1","99999,9,9,Y","009900,1,N,1","+0160,1","+0050,1","99999,9",,,,,,"10129,1,99999,9",,,,"0129,1","MET052METAR EGUY 061450Z 18015G25KT CAVOK 16/05 Q1013 BLU;",
"03566099999","2010-04-07T06:50:00","4","52.357167","-0.107833","41.14","WYTON, UK","FM-15","EGUY ","V020","310,1,N,0041,1","99999,9,9,Y","009900,1,N,1","+0080,1","+0060,1","99999,9",,,,,,"10149,1,99999,9",,,,,"MET049METAR EGUY 070650Z 31008KT CAVOK 08/06 Q1015 BLU;",
"03566099999","2010-04-07T07:50:00","4","52.357167","-0.107833","41.14","WYTON, UK","FM-15","EGUY ","V020","310,1,N,0051,1","99999,9,9,Y","009900,1,N,1","+0080,1","+0060,1","99999,9",,,,,,"10159,1,99999,9",,,,,"MET049METAR EGUY 070750Z 31010KT CAVOK 08/06 Q1016 BLU;",
"03566099999","2010-04-07T08:50:00","4","52.357167","-0.107833","41.14","WYTON, UK","FM-15","EGUY ","V020","340,1,N,0046,1","99999,9,9,Y","009900,1,N,1","+0090,1","+0070,1","99999,9",,,,,,"10159,1,99999,9",,,,,"MET049METAR EGUY 070850Z 34009KT CAVOK 09/07 Q1016 BLU;",
"03566099999","2010-04-07T09:50:00","4","52.357167","-0.107833","41.14","WYTON, UK","FM-15","EGUY ","V020","330,1,N,0051,1","01800,1,C,N","011265,1,N,1","+0090,1","+0080,1","99999,9","02,5,+00300,1,99,9","07,5,+01800,1,99,9","08,5,+02700,1,99,9",,"08,99,1,99,9,99,9,99999,9,99,9,99,9","10159,1,99999,9",,,,,"MET069METAR EGUY 070950Z 33010KT 9999 FEW010 BKN060 OVC090 09/08 Q1016 BLU;",
"03566099999","2010-04-07T10:00:00","4","52.357167","-0.107833","41.14","WYTON, UK","FM-15","EGUY ","V020","320,1,N,0051,1","01800,1,C,N","011265,1,N,1","+0090,1","+0080,1","99999,9","04,5,+00300,1,99,9","07,5,+01800,1,99,9","08,5,+02700,1,99,9",,"08,99,1,99,9,99,9,99999,9,99,9,99,9","10169,1,99999,9",,,,,"MET069METAR EGUY 071000Z 32010KT 9999 SCT010 BKN060 OVC090 09/08 Q1017 GRN;",
"03566099999","2010-04-07T10:50:00","4","52.357167","-0.107833","41.14","WYTON, UK","FM-15","EGUY ","V020","330,1,N,0046,1","00360,1,C,N","011265,1,N,1","+0090,1","+0080,1","99999,9","07,5,+00360,1,99,9","08,5,+02100,1,99,9",,,"08,99,1,99,9,99,9,99999,9,99,9,99,9","10169,1,99999,9","80,1",,,,"MET068METAR EGUY 071050Z 33009KT 9999 -SHRA BKN012 OVC070 09/08 Q1017 GRN;",
"03566099999","2010-04-07T11:50:00","4","52.357167","-0.107833","41.14","WYTON, UK","FM-15","EGUY ","V020","340,1,N,0051,1","00270,1,C,N","009000,1,N,1","+0100,1","+0080,1","99999,9","07,5,+00270,1,99,9","08,5,+02100,1,99,9",,,"08,99,1,99,9,99,9,99999,9,99,9,99,9","10180,1,99999,9","61,1",,,,"MET066METAR EGUY 071150Z 34010KT 9000 -RA BKN009 OVC070 10/08 Q1018 GRN;",
"03566099999","2010-04-07T12:50:00","4","52.357167","-0.107833","41.14","WYTON, UK","FM-15","EGUY ","V020","330,1,N,0062,1","00270,1,C,N","009000,1,N,1","+0100,1","+0080,1","99999,9","07,5,+00270,1,99,9","08,5,+01800,1,99,9",,,"08,99,1,99,9,99,9,99999,9,99,9,99,9","10180,1,99999,9","61,1",,,,"MET066METAR EGUY 071250Z 33012KT 9000 -RA BKN009 OVC060 10/08 Q1018 GRN;",
"03566099999","2010-04-07T13:50:00","4","52.357167","-0.107833","41.14","WYTON, UK","FM-15","EGUY ","V020","330,1,N,0072,1","00390,1,C,N","008000,1,N,1","+0090,1","+0080,1","99999,9","04,5,+00300,1,99,9","08,5,+00390,1,99,9",,,"08,99,1,99,9,99,9,99999,9,99,9,99,9","10190,1,99999,9","61,1",,,,"MET066METAR EGUY 071350Z 33014KT 8000 -RA SCT010 OVC013 09/08 Q1019 GRN;",
"03566099999","2010-04-07T14:10:00","4","52.357167","-0.107833","41.14","WYTON, UK","FM-15","EGUY ","V020","340,1,N,0062,1","00540,1,C,N","011265,1,N,1","+0090,1","+0080,1","99999,9","02,5,+00390,1,99,9","08,5,+00540,1,99,9",,,"08,99,1,99,9,99,9,99999,9,99,9,99,9","10190,1,99999,9","61,1",,,,"MET066METAR EGUY 071410Z 34012KT 9999 -RA FEW013 OVC018 09/08 Q1019 WHT;",
"03566099999","2010-04-07T14:50:00","4","52.357167","-0.107833","41.14","WYTON, UK","FM-15","EGUY ","V020","350,1,N,0062,1","00540,1,C,N","006000,1,N,1","+0090,1","+0080,1","99999,9","02,5,+00360,1,99,9","04,5,+00540,1,99,9","07,5,+00750,1,99,9",,"07,99,1,99,9,99,9,99999,9,99,9,99,9","10190,1,99999,9","61,1",,,,"MET073METAR EGUY 071450Z 35012KT 6000 -RA FEW012 SCT018 BKN025 09/08 Q1019 WHT;",
"03566099999","2010-04-08T07:50:00","4","52.357167","-0.107833","41.14","WYTON, UK","FM-15","EGUY ","V020","290,1,N,0021,1","99999,9,9,Y","009900,1,N,1","+0040,1","+0030,1","99999,9",,,,,,"10240,1,99999,9",,,,,"MET049METAR EGUY 080750Z 29004KT CAVOK 04/03 Q1024 BLU;",
"03566099999","2010-04-08T08:50:00","4","52.357167","-0.107833","41.14","WYTON, UK","FM-15","EGUY ","V020","300,1,N,0041,1","99999,9,9,Y","009900,1,N,1","+0100,1","+0040,1","99999,9",,,,,,"10301,2,99999,9",,,,,"MET049METAR EGUY 080850Z 30008KT CAVOK 10/04 Q1030 BLU;",
"03566099999","2010-04-08T09:50:00","4","52.357167","-0.107833","41.14","WYTON, UK","FM-15","EGUY ","V020","300,1,N,0031,1","99999,9,9,Y","009900,1,N,1","+0120,1","+0050,1","99999,9",,,,,,"10301,1,99999,9",,,,,"MET049METAR EGUY 080950Z 30006KT CAVOK 12/05 Q1030 BLU;",
"03566099999","2010-04-08T10:50:00","4","52.357167","-0.107833","41.14","WYTON, UK","FM-15","EGUY ","V020","300,1,N,0031,1","22000,1,9,N","011265,1,N,1","+0130,1","+0040,1","99999,9","02,5,+01050,1,99,9",,,,"02,99,1,99,9,99,9,99999,9,99,9,99,9","10301,1,99999,9",,,,,"MET055METAR EGUY 081050Z 30006KT 9999 FEW035 13/04 Q1030 BLU;",
"03566099999","2010-04-08T11:50:00","4","52.357167","-0.107833","41.14","WYTON, UK","FM-15","EGUY ","V020","320,1,N,0041,1","22000,1,9,N","011265,1,N,1","+0140,1","+0030,1","99999,9","02,5,+01200,1,99,9",,,,"02,99,1,99,9,99,9,99999,9,99,9,99,9","10301,1,99999,9",,,,,"MET055METAR EGUY 081150Z 32008KT 9999 FEW040 14/03 Q1030 BLU;",
"03566099999","2010-04-08T12:50:00","4","52.357167","-0.107833","41.14","WYTON, UK","FM-15","EGUY ","V020","300,1,N,0057,1","22000,1,9,N","011265,1,N,1","+0150,1","+0040,1","99999,9","02,5,+01320,1,99,9",,,,"02,99,1,99,9,99,9,99999,9,99,9,99,9","10301,1,99999,9",,,,,"MET055METAR EGUY 081250Z 30011KT 9999 FEW044 15/04 Q1030 BLU;",
"03566099999","2010-04-08T13:50:00","4","52.357167","-0.107833","41.14","WYTON, UK","FM-15","EGUY ","V020","310,1,N,0051,1","22000,1,9,N","011265,1,N,1","+0160,1","+0040,1","99999,9","02,5,+01440,1,99,9",,,,"02,99,1,99,9,99,9,99999,9,99,9,99,9","10301,1,99999,9",,,,,"MET055METAR EGUY 081350Z 31010KT 9999 FEW048 16/04 Q1030 BLU;",
"03566099999","2010-04-08T14:50:00","4","52.357167","-0.107833","41.14","WYTON, UK","FM-15","EGUY ","V020","310,1,N,0036,1","22000,1,9,N","011265,1,N,1","+0150,1","+0040,1","99999,9","02,5,+01320,1,99,9",,,,"02,99,1,99,9,99,9,99999,9,99,9,99,9","10301,1,99999,9",,,,,"MET055METAR EGUY 081450Z 31007KT 9999 FEW044 15/04 Q1030 BLU;",
"03566099999","2010-04-09T09:50:00","4","52.357167","-0.107833","41.14","WYTON, UK","FM-15","EGUY ","V020","310,1,N,0021,1","99999,9,9,Y","009900,1,N,1","+0130,1","+0050,1","99999,9",,,,,,"10339,1,99999,9",,,,,"MET049METAR EGUY 090950Z 31004KT CAVOK 13/05 Q1034 BLU;",
"03566099999","2010-04-09T10:50:00","4","52.357167","-0.107833","41.14","WYTON, UK","FM-15","EGUY ","V020","999,9,V,0010,1","99999,9,9,Y","009900,1,N,1","+0130,1","+0050,1","99999,9",,,,,,"10339,1,99999,9",,,,,"MET049METAR EGUY 091050Z VRB02KT CAVOK 13/05 Q1034 BLU;",
"03566099999","2010-04-09T11:50:00","4","52.357167","-0.107833","41.14","WYTON, UK","FM-15","EGUY ","V020","320,1,N,0015,1","04200,5,9,N","999999,9,N,1","+0140,1","+0050,1","99999,9","02,5,+01050,5,99,9","07,5,+04200,5,99,9",,,,"10340,1,99999,9",,,,,"MET057METAR EGUY 091150Z 32003KT FEW035 BKN140 14/05 Q1034 BLU;",
"03566099999","2010-04-09T12:50:00","4","52.357167","-0.107833","41.14","WYTON, UK","FM-15","EGUY ","V020","340,1,N,0041,1","03600,5,9,N","999999,9,N,1","+0150,1","+0050,1","99999,9","02,5,+01200,5,99,9","07,5,+03600,5,99,9",,,,"10340,1,99999,9",,,,,"MET057METAR EGUY 091250Z 34008KT FEW040 BKN120 15/05 Q1034 BLU;",
"03566099999","2010-04-09T13:50:00","4","52.357167","-0.107833","41.14","WYTON, UK","FM-15","EGUY ","V020","010,1,N,0021,1","03600,5,9,N","999999,9,N,1","+0160,1","+0050,1","99999,9","02,5,+01050,5,99,9","07,5,+03600,5,99,9",,,,"10340,1,99999,9",,,,,"MET057METAR EGUY 091350Z 01004KT FEW035 BKN120 16/05 Q1034 BLU;",
"03566099999","2010-04-10T06:50:00","4","52.357167","-0.107833","41.14","WYTON, UK","FM-15","EGUY ","V020","070,1,N,0010,1","06000,1,C,N","006000,1,N,1","+0080,1","+0070,1","99999,9","07,5,+06000,1,99,9",,,,"07,99,1,99,9,99,9,99999,9,99,9,99,9","10349,1,99999,9","05,1",,,,"MET058METAR EGUY 100650Z 07002KT 6000 HZ BKN200 08/07 Q1035 WHT;",
"03566099999","2010-04-10T07:50:00","4","52.357167","-0.107833","41.14","WYTON, UK","FM-15","EGUY ","V020","070,1,N,0010,1","06000,1,C,N","006000,1,N,1","+0080,1","+0070,1","99999,9","07,5,+06000,1,99,9",,,,"07,99,1,99,9,99,9,99999,9,99,9,99,9","10349,1,99999,9","05,1",,,,"MET058METAR EGUY 100750Z 07002KT 6000 HZ BKN200 08/07 Q1035 WHT;",
"03566099999","2010-04-10T08:50:00","4","52.357167","-0.107833","41.14","WYTON, UK","FM-15","EGUY ","V020","030,1,N,0021,1","99999,9,9,Y","009900,1,N,1","+0120,1","+0070,1","99999,9",,,,,,"10349,1,99999,9",,,,,"MET049METAR EGUY 100850Z 03004KT CAVOK 12/07 Q1035 BLU;",
"03566099999","2010-04-10T09:50:00","4","52.357167","-0.107833","41.14","WYTON, UK","FM-15","EGUY ","V020","050,1,N,0026,1","07500,1,C,N","011265,1,N,1","+0130,1","+0080,1","99999,9","07,5,+07500,1,99,9",,,,"07,99,1,99,9,99,9,99999,9,99,9,99,9","10349,1,99999,9",,,,,"MET055METAR EGUY 100950Z 05005KT 9999 BKN250 13/08 Q1035 BLU;",
"03566099999","2010-04-10T10:50:00","4","52.357167","-0.107833","41.14","WYTON, UK","FM-15","EGUY ","V020","999,9,V,0010,1","22000,1,9,N","011265,1,N,1","+0150,1","+0070,1","99999,9","04,5,+07500,1,99,9",,,,"04,99,1,99,9,99,9,99999,9,99,9,99,9","10349,1,99999,9",,,,,"MET055METAR EGUY 101050Z VRB02KT 9999 SCT250 15/07 Q1035 BLU;",
"03566099999","2010-04-10T11:50:00","4","52.357167","-0.107833","41.14","WYTON, UK","FM-15","EGUY ","V020","050,1,N,0031,1","99999,9,C,N","011265,1,N,1","+0150,1","+0050,1","99999,9","02,5,+01200,1,99,9","04,5,+07500,1,99,9",,,"04,99,1,99,9,99,9,99999,9,99,9,99,9","10339,1,99999,9",,,,,"MET062METAR EGUY 101150Z 05006KT 9999 FEW040 SCT250 15/05 Q1034 BLU;","P01 075003SCOCIG"
"03566099999","2010-04-10T12:50:00","4","52.357167","-0.107833","41.14","WYTON, UK","FM-15","EGUY ","V020","010,1,N,0021,1","99999,9,C,N","011265,1,N,1","+0150,1","+0040,1","99999,9","02,5,+01320,1,99,9","04,5,+07500,1,99,9",,,"04,99,1,99,9,99,9,99999,9,99,9,99,9","10339,1,99999,9",,,,,"MET062METAR EGUY 101250Z 01004KT 9999 FEW044 SCT250 15/04 Q1034 BLU;","P01 075003SCOCIG"
"03566099999","2010-04-10T13:50:00","4","52.357167","-0.107833","41.14","WYTON, UK","FM-15","EGUY ","V020","050,1,N,0031,1","99999,9,C,N","011265,1,N,1","+0160,1","+0050,1","99999,9","02,5,+01350,1,99,9","04,5,+07500,1,99,9",,,"04,99,1,99,9,99,9,99999,9,99,9,99,9","10329,1,99999,9",,,,,"MET062METAR EGUY 101350Z 05006KT 9999 FEW045 SCT250 16/05 Q1033 BLU;","P01 075003SCOCIG"
"03566099999","2010-04-11T06:50:00","4","52.357167","-0.107833","41.14","WYTON, UK","FM-15","EGUY ","V020","010,1,N,0046,1","04800,1,C,N","007000,1,N,1","+0060,1","+0060,1","99999,9","02,5,+00150,1,99,9","07,5,+04800,1,99,9",,,"07,99,1,99,9,99,9,99999,9,99,9,99,9","10312,1,99999,9","10,1",,,,"MET065METAR EGUY 110650Z 01009KT 7000 BR FEW005 BKN160 06/06 Q1031 WHT;",
"03566099999","2010-04-11T07:50:00","4","52.357167","-0.107833","41.14","WYTON, UK","FM-15","EGUY ","V020","030,1,N,0051,1","04500,1,C,N","011265,1,N,1","+0080,1","+0060,1","99999,9","02,5,+00150,1,99,9","04,5,+04500,1,99,9","07,5,+07500,1,99,9",,"07,99,1,99,9,99,9,99999,9,99,9,99,9","10312,1,99999,9",,,,,"MET069METAR EGUY 110750Z 03010KT 9999 FEW005 SCT150 BKN250 08/06 Q1031 BLU;",
"03566099999","2010-04-11T08:50:00","4","52.357167","-0.107833","41.14","WYTON, UK","FM-15","EGUY ","V020","030,1,N,0062,1","04500,1,C,N","011265,1,N,1","+0090,1","+0060,1","99999,9","02,5,+00210,1,99,9","07,5,+04500,1,99,9",,,"07,99,1,99,9,99,9,99999,9,99,9,99,9","10312,1,99999,9",,,,,"MET062METAR EGUY 110850Z 03012KT 9999 FEW007 BKN150 09/06 Q1031 BLU;",
"03566099999","2010-04-11T09:50:00","4","52.357167","-0.107833","41.14","WYTON, UK","FM-15","EGUY ","V020","020,1,N,0062,1","04500,1,C,N","011265,1,N,1","+0110,1","+0060,1","99999,9","02,5,+00450,1,99,9","07,5,+04500,1,99,9",,,"07,99,1,99,9,99,9,99999,9,99,9,99,9","10312,1,99999,9",,,,,"MET062METAR EGUY 110950Z 02012KT 9999 FEW015 BKN150 11/06 Q1031 BLU;",
"03566099999","2010-04-11T10:50:00","4","52.357167","-0.107833","41.14","WYTON, UK","FM-15","EGUY ","V020","040,1,N,0077,1","99999,9,C,N","011265,1,N,1","+0130,1","+0050,1","99999,9","02,5,+00750,1,99,9","04,5,+04500,1,99,9",,,"04,99,1,99,9,99,9,99999,9,99,9,99,9","10312,1,99999,9",,,,,"MET062METAR EGUY 111050Z 04015KT 9999 FEW025 SCT150 13/05 Q1031 BLU;","P01 045003SCOCIG"
"03566099999","2010-04-11T11:50:00","4","52.357167","-0.107833","41.14","WYTON, UK","FM-15","EGUY ","V020","050,1,N,0082,1","99999,9,C,N","011265,1,N,1","+0120,1","+0050,1","99999,9","02,5,+00750,1,99,9","04,5,+04500,1,99,9",,,"04,99,1,99,9,99,9,99999,9,99,9,99,9","10301,1,99999,9",,,,,"MET062METAR EGUY 111150Z 05016KT 9999 FEW025 SCT150 12/05 Q1030 BLU;","P01 045003SCOCIG"
"03566099999","2010-04-11T12:50:00","4","52.357167","-0.107833","41.14","WYTON, UK","FM-15","EGUY ","V020","040,1,N,0062,1","22000,1,9,N","011265,1,N,1","+0130,1","+0050,1","99999,9","02,5,+00900,1,99,9",,,,"02,99,1,99,9,99,9,99999,9,99,9,99,9","10301,1,99999,9",,,,,"MET055METAR EGUY 111250Z 04012KT 9999 FEW030 13/05 Q1030 BLU;",
"03566099999","2010-04-11T13:50:00","4","52.357167","-0.107833","41.14","WYTON, UK","FM-15","EGUY ","V020","040,1,N,0077,1","22000,1,9,N","011265,1,N,1","+0140,1","+0050,1","99999,9","02,5,+01050,1,99,9",,,,"02,99,1,99,9,99,9,99999,9,99,9,99,9","10301,1,99999,9",,,,,"MET055METAR EGUY 111350Z 04015KT 9999 FEW035 14/05 Q1030 BLU;",
"03566099999","2010-04-11T14:50:00","4","52.357167","-0.107833","41.14","WYTON, UK","FM-15","EGUY ","V020","040,1,N,0082,1","22000,1,9,N","011265,1,N,1","+0120,1","+0040,1","99999,9","02,5,+01050,1,99,9",,,,"02,99,1,99,9,99,9,99999,9,99,9,99,9",,,,,,"MET055METAR EGUY 111450Z 04016KT 9999 FEW035 12/04 Q1025 BLU;","Q01+102513APOA  "
"03566099999","2010-04-12T06:50:00","4","52.357167","-0.107833","41.14","WYTON, UK","FM-15","EGUY ","V020","030,1,N,0057,1","00450,1,C,N","011265,1,N,1","+0070,1","+0040,1","99999,9","07,5,+00450,1,99,9",,,,"07,99,1,99,9,99,9,99999,9,99,9,99,9","10291,1,99999,9",,,,,"MET055METAR EGUY 120650Z 03011KT 9999 BKN015 07/04 Q1029 WHT;",
"03566099999","2010-04-12T07:50:00","4","52.357167","-0.107833","41.14","WYTON, UK","FM-15","EGUY ","V020","030,1,N,0051,1","00480,1,C,N","011265,1,N,1","+0070,1","+0050,1","99999,9","08,5,+00480,1,99,9",,,,"08,99,1,99,9,99,9,99999,9,99,9,99,9","10301,1,99999,9",,,,,"MET055METAR EGUY 120750Z 03010KT 9999 OVC016 07/05 Q1030 WHT;",
"03566099999","2010-04-12T08:50:00","4","52.357167","-0.107833","41.14","WYTON, UK","FM-15","EGUY ","V020","030,1,N,0062,1","00450,1,C,N","011265,1,N,1","+0080,1","+0060,1","99999,9","07,5,+00450,1,99,9",,,,"07,99,1,99,9,99,9,99999,9,99,9,99,9","10291,1,99999,9",,,,,"MET055METAR EGUY 120850Z 03012KT 9999 BKN015 08/06 Q1029 WHT;",
"03566099999","2010-04-12T09:50:00","4","52.357167","-0.107833","41.14","WYTON, UK","FM-15","EGUY ","V020","020,1,N,0062,1","00480,1,C,N","011265,1,N,1","+0080,1","+0060,1","99999,9","07,5,+00480,1,99,9",,,,"07,99,1,99,9,99,9,99999,9,99,9,99,9","10291,1,99999,9",,,,,"MET055METAR EGUY 120950Z 02012KT 9999 BKN016 08/06 Q1029 WHT;",
"03566099999","2010-04-12T10:50:00","4","52.357167","-0.107833","41.14","WYTON, UK","FM-15","EGUY ","V020","020,1,N,0067,1","22000,1,9,N","011265,1,N,1","+0110,1","+0070,1","99999,9","04,5,+00540,1,99,9",,,,"04,99,1,99,9,99,9,99999,9,99,9,99,9","10291,1,99999,9",,,,,"MET055METAR EGUY 121050Z 02013KT 9999 SCT018 11/07 Q1029 WHT;",
"03566099999","2010-04-12T11:50:00","4","52.357167","-0.107833","41.14","WYTON, UK","FM-15","EGUY ","V020","030,1,N,0062,1","00600,1,C,N","011265,1,N,1","+0120,1","+0080,1","99999,9","07,5,+00600,1,99,9",,,,"07,99,1,99,9,99,9,99999,9,99,9,99,9","10281,1,99999,9",,,,,"MET055METAR EGUY 121150Z 03012KT 9999 BKN020 12/08 Q1028 WHT;",
"03566099999","2010-04-12T12:50:00","4","52.357167","-0.107833","41.14","WYTON, UK","FM-15","EGUY ","V020","020,1,N,0067,1","22000,1,9,N","011265,1,N,1","+0120,1","+0070,1","99999,9","04,5,+00600,1,99,9",,,,"04,99,1,99,9,99,9,99999,9,99,9,99,9","10281,1,99999,9",,,,,"MET055METAR EGUY 121250Z 02013KT 9999 SCT020 12/07 Q1028 WHT;",
"03566099999","2010-04-12T13:50:00","4","52.357167","-0.107833","41.14","WYTON, UK","FM-15","EGUY ","V020","020,1,N,0072,1","06000,1,C,N","011265,1,N,1","+0130,1","+0080,1","99999,9","02,5,+00600,1,99,9","07,5,+06000,1,99,9",,,"07,99,1,99,9,99,9,99999,9,99,9,99,9","10271,1,99999,9",,,,,"MET062METAR EGUY 121350Z 02014KT 9999 FEW020 BKN200 13/08 Q1027 BLU;",
"03566099999","2010-04-12T14:50:00","4","52.357167","-0.107833","41.14","WYTON, UK","FM-15","EGUY ","V020","010,1,N,0072,1","01800,1,C,N","011265,1,N,1","+0120,1","+0060,1","99999,9","02,5,+00750,1,99,9","04,5,+01800,1,99,9","07,5,+06000,1,99,9",,"07,99,1,99,9,99,9,99999,9,99,9,99,9","10271,1,99999,9",,,,,"MET069METAR EGUY 121450Z 01014KT 9999 FEW025 SCT060 BKN200 12/06 Q1027 BLU;",
"03566099999","2010-04-13T06:50:00","4","52.357167","-0.107833","41.14","WYTON, UK","FM-15","EGUY ","V020","350,1,N,0057,1","99999,9,C,N","011265,1,N,1","+0040,1","+0040,1","99999,9","02,5,+00300,1,99,9","04,5,+07500,1,99,9",,,"04,99,1,99,9,99,9,99999,9,99,9,99,9","10261,1,99999,9",,,,,"MET062METAR EGUY 130650Z 35011KT 9999 FEW010 SCT250 04/04 Q1026 BLU;","P01 075003SCOCIG"
"03566099999","2010-04-13T07:50:00","4","52.357167","-0.107833","41.14","WYTON, UK","FM-15","EGUY ","V020","360,1,N,0062,1","99999,9,C,N","011265,1,N,1","+0060,1","+0060,1","99999,9","02,5,+00120,1,99,9","04,5,+07500,1,99,9",,,"04,99,1,99,9,99,9,99999,9,99,9,99,9","10261,1,99999,9",,,,,"MET062METAR EGUY 130750Z 36012KT 9999 FEW004 SCT250 06/06 Q1026 BLU;","P01 075003SCOCIG"
"03566099999","2010-04-13T08:50:00","4","52.357167","-0.107833","41.14","WYTON, UK","FM-15","EGUY ","V020","010,1,N,0072,1","07500,5,9,N","999999,9,N,1","+0090,1","+0060,1","99999,9","02,5,+00360,5,99,9","04,5,+07500,5,99,9",,,,"10260,1,99999,9",,,,,"MET057METAR EGUY 130850Z 01014KT FEW012 SCT250 09/06 Q1026 BLU;",
"03566099999","2010-04-13T09:50:00","4","52.357167","-0.107833","41.14","WYTON, UK","FM-15","EGUY ","V020","020,1,N,0077,1","07500,5,9,N","999999,9,N,1","+0110,1","+0050,1","99999,9","02,5,+00750,5,99,9","04,5,+07500,5,99,9",,,,"10260,1,99999,9",,,,,"MET057METAR EGUY 130950Z 02015KT FEW025 SCT250 11/05 Q1026 BLU;",
"03566099999","2010-04-13T10:50:00","4","52.357167","-0.107833","41.14","WYTON, UK","FM-15","EGUY ","V020","030,1,N,0082,1","07500,1,C,N","011265,1,N,1","+0120,1","+0050,1","99999,9","02,5,+00750,1,99,9","07,5,+07500,1,99,9",,,"07,99,1,99,9,99,9,99999,9,99,9,99,9","10261,1,99999,9",,,,,"MET062METAR EGUY 131050Z 03016KT 9999 FEW025 BKN250 12/05 Q1026 BLU;",
"03566099999","2010-04-13T11:50:00","4","52.357167","-0.107833","41.14","WYTON, UK","FM-15","EGUY ","V020","020,1,N,0087,1","07500,1,C,N","011265,1,N,1","+0120,1","+0040,1","99999,9","02,5,+00900,1,99,9","07,5,+07500,1,99,9",,,"07,99,1,99,9,99,9,99999,9,99,9,99,9","10261,1,99999,9",,,,,"MET062METAR EGUY 131150Z 02017KT 9999 FEW030 BKN250 12/04 Q1026 BLU;",
"03566099999","2010-04-13T12:50:00","4","52.357167","-0.107833","41.14","WYTON, UK","FM-15","EGUY ","V020","030,1,N,0082,1","07500,1,C,N","011265,1,N,1","+0120,1","+0040,1","99999,9","02,5,+00900,1,99,9","07,5,+07500,1,99,9",,,"07,99,1,99,9,99,9,99999,9,99,9,99,9","10251,1,99999,9",,,,,"MET062METAR EGUY 131250Z 03016KT 9999 FEW030 BKN250 12/04 Q1025 BLU;",
"03566099999","2010-04-13T13:50:00","4","52.357167","-0.107833","41.14","WYTON, UK","FM-15","EGUY ","V020","020,1,N,0077,1","07500,1,C,N","011265,1,N,1","+0120,1","+0040,1","99999,9","02,5,+00900,1,99,9","07,5,+07500,1,99,9",,,"07,99,1,99,9,99,9,99999,9,99,9,99,9","10251,1,99999,9",,,,,"MET062METAR EGUY 131350Z 02015KT 9999 FEW030 BKN250 12/04 Q1025 BLU;",
"03566099999","2010-04-13T14:50:00","4","52.357167","-0.107833","41.14","WYTON, UK","FM-15","EGUY ","V020","010,1,N,0082,1","07500,1,C,N","011265,1,N,1","+0120,1","+0050,1","99999,9","02,5,+00840,1,99,9","07,5,+07500,1,99,9",,,"07,99,1,99,9,99,9,99999,9,99,9,99,9","10240,1,99999,9",,,,,"MET062METAR EGUY 131450Z 01016KT 9999 FEW028 BKN250 12/05 Q1024 BLU;",
"03566099999","2010-04-14T06:50:00","4","52.357167","-0.107833","41.14","WYTON, UK","FM-15","EGUY ","V020","030,1,N,0051,1","00420,1,C,N","011265,1,N,1","+0070,1","+0040,1","99999,9","08,5,+00420,1,99,9",,,,"08,99,1,99,9,99,9,99999,9,99,9,99,9","10210,1,99999,9",,,,,"MET055METAR EGUY 140650Z 03010KT 9999 OVC014 07/04 Q1021 GRN;",
"03566099999","2010-04-14T07:50:00","4","52.357167","-0.107833","41.14","WYTON, UK","FM-15","EGUY ","V020","030,1,N,0067,1","00480,1,C,N","011265,1,N,1","+0070,1","+0040,1","99999,9","08,5,+00480,1,99,9",,,,"08,99,1,99,9,99,9,99999,9,99,9,99,9","10220,1,99999,9",,,,,"MET055METAR EGUY 140750Z 03013KT 9999 OVC016 07/04 Q1022 WHT;",
"03566099999","2010-04-14T08:50:00","4","52.357167","-0.107833","41.14","WYTON, UK","FM-15","EGUY ","V020","030,1,N,0057,1","00480,1,C,N","011265,1,N,1","+0070,1","+0040,1","99999,9","07,5,+00480,1,99,9",,,,"07,99,1,99,9,99,9,99999,9,99,9,99,9","10220,1,99999,9",,,,,"MET055METAR EGUY 140850Z 03011KT 9999 BKN016 07/04 Q1022 WHT;",
"03566099999","2010-04-14T09:50:00","4","52.357167","-0.107833","41.14","WYTON, UK","FM-15","EGUY ","V020","050,1,N,0051,1","00540,1,C,N","011265,1,N,1","+0080,1","+0050,1","99999,9","08,5,+00540,1,99,9",,,,"08,99,1,99,9,99,9,99999,9,99,9,99,9","10220,1,99999,9",,,,,"MET055METAR EGUY 140950Z 05010KT 9999 OVC018 08/05 Q1022 WHT;",
"03566099999","2010-04-14T10:50:00","4","52.357167","-0.107833","41.14","WYTON, UK","FM-15","EGUY ","V020","050,1,N,0057,1","00540,1,C,N","011265,1,N,1","+0080,1","+0050,1","99999,9","07,5,+00540,1,99,9",,,,"07,99,1,99,9,99,9,99999,9,99,9,99,9","10220,1,99999,9",,,,,"MET055METAR EGUY 141050Z 05011KT 9999 BKN018 08/05 Q1022 WHT;",
"03566099999","2010-04-14T11:50:00","4","52.357167","-0.107833","41.14","WYTON, UK","FM-15","EGUY ","V020","060,1,N,0067,1","22000,1,9,N","011265,1,N,1","+0110,1","+0060,1","99999,9","04,5,+00600,1,99,9",,,,"04,99,1,99,9,99,9,99999,9,99,9,99,9","10220,1,99999,9",,,,,"MET055METAR EGUY 141150Z 06013KT 9999 SCT020 11/06 Q1022 WHT;",
"03566099999","2010-04-14T12:50:00","4","52.357167","-0.107833","41.14","WYTON, UK","FM-15","EGUY ","V020","060,1,N,0051,1","22000,1,9,N","011265,1,N,1","+0120,1","+0060,1","99999,9","04,5,+00750,1,99,9",,,,"04,99,1,99,9,99,9,99999,9,99,9,99,9","10220,1,99999,9",,,,,"MET055METAR EGUY 141250Z 06010KT 9999 SCT025 12/06 Q1022 BLU;",
"03566099999","2010-04-14T13:50:00","4","52.357167","-0.107833","41.14","WYTON, UK","FM-15","EGUY ","V020","040,1,N,0067,1","22000,1,9,N","011265,1,N,1","+0130,1","+0060,1","99999,9","04,5,+00750,1,99,9",,,,"04,99,1,99,9,99,9,99999,9,99,9,99,9","10220,1,99999,9",,,,,"MET055METAR EGUY 141350Z 04013KT 9999 SCT025 13/06 Q1022 BLU;",
"03566099999","2010-04-14T15:00:00","4","52.357167","-0.107833","41.14","WYTON, UK","FM-15","EGUY ","V020","020,1,N,0077,1","22000,1,9,N","011265,1,N,1","+0120,1","+0070,1","99999,9","02,5,+00750,1,99,9",,,,"02,99,1,99,9,99,9,99999,9,99,9,99,9","10220,1,99999,9",,,,,"MET055METAR EGUY 141500Z 02015KT 9999 FEW025 12/07 Q1022 BLU;",
"03566099999","2010-04-15T06:50:00","4","52.357167","-0.107833","41.14","WYTON, UK","FM-15","EGUY ","V020","010,1,N,0051,1","00240,1,C,N","008000,1,N,1","+0060,1","+0040,1","99999,9","07,5,+00240,1,99,9",,,,"07,99,1,99,9,99,9,99999,9,99,9,99,9","10240,1,99999,9","05,1",,,,"MET058METAR EGUY 150650Z 01010KT 8000 HZ BKN008 06/04 Q1024 GRN;",
"03566099999","2010-04-15T07:50:00","4","52.357167","-0.107833","41.14","WYTON, UK","FM-15","EGUY ","V020","010,1,N,0051,1","00420,1,C,N","011265,1,N,1","+0070,1","+0040,1","99999,9","02,5,+00240,1,99,9","07,5,+00420,1,99,9",,,"07,99,1,99,9,99,9,99999,9,99,9,99,9","10240,1,99999,9",,,,,"MET062METAR EGUY 150750Z 01010KT 9999 FEW008 BKN014 07/04 Q1024 GRN;",
"03566099999","2010-04-15T08:50:00","4","52.357167","-0.107833","41.14","WYTON, UK","FM-15","EGUY ","V020","010,1,N,0062,1","00450,1,C,N","011265,1,N,1","+0080,1","+0040,1","99999,9","02,5,+00360,1,99,9","07,5,+00450,1,99,9",,,"07,99,1,99,9,99,9,99999,9,99,9,99,9","10251,1,99999,9",,,,,"MET062METAR EGUY 150850Z 01012KT 9999 FEW012 BKN015 08/04 Q1025 WHT;",
"03566099999","2010-04-15T09:50:00","4","52.357167","-0.107833","41.14","WYTON, UK","FM-15","EGUY ","V020","020,1,N,0062,1","00450,1,C,N","011265,1,N,1","+0080,1","+0040,1","99999,9","02,5,+00360,1,99,9","07,5,+00450,1,99,9",,,"07,99,1,99,9,99,9,99999,9,99,9,99,9","10251,1,99999,9",,,,,"MET062METAR EGUY 150950Z 02012KT 9999 FEW012 BKN015 08/04 Q1025 WHT;",
"03566099999","2010-04-15T10:50:00","4","52.357167","-0.107833","41.14","WYTON, UK","FM-15","EGUY ","V020","360,1,N,0062,1","00600,1,C,N","011265,1,N,1","+0100,1","+0050,1","99999,9","02,5,+00450,1,99,9","07,5,+00600,1,99,9",,,"07,99,1,99,9,99,9,99999,9,99,9,99,9","10251,1,99999,9",,,,,"MET062METAR EGUY 151050Z 36012KT 9999 FEW015 BKN020 10/05 Q1025 WHT;",
"03566099999","2010-04-16T06:50:00","4","52.357167","-0.107833","41.14","WYTON, UK","FM-15","EGUY ","V020","360,1,N,0041,1","22000,1,9,N","006000,1,N,1","+0050,1","+0050,1","99999,9","04,5,+07500,1,99,9",,,,"04,99,1,99,9,99,9,99999,9,99,9,99,9","10291,1,99999,9","10,1",,,,"MET058METAR EGUY 160650Z 36008KT 6000 BR SCT250 05/05 Q1029 WHT;",
"03566099999","2010-04-16T07:50:00","4","52.357167","-0.107833","41.14","WYTON, UK","FM-15","EGUY ","V020","010,1,N,0057,1","99999,9,C,N","011265,1,N,1","+0070,1","+0050,1","99999,9","02,5,+00300,1,99,9","04,5,+07500,1,99,9",,,"04,99,1,99,9,99,9,99999,9,99,9,99,9","10291,1,99999,9",,,,,"MET062METAR EGUY 160750Z 01011KT 9999 FEW010 SCT250 07/05 Q1029 BLU;","P01 075003SCOCIG"
"03566099999","2010-04-16T08:50:00","4","52.357167","-0.107833","41.14","WYTON, UK","FM-15","EGUY ","V020","020,1,N,0072,1","22000,1,9,N","011265,1,N,1","+0090,1","+0050,1","99999,9","02,5,+00480,1,99,9",,,,"02,99,1,99,9,99,9,99999,9,99,9,99,9","10291,1,99999,9",,,,,"MET055METAR EGUY 160850Z 02014KT 9999 FEW016 09/05 Q1029 BLU;",
"03566099999","2010-04-16T09:50:00","4","52.357167","-0.107833","41.14","WYTON, UK","FM-15","EGUY ","V020","040,1,N,0072,1","22000,1,9,N","011265,1,N,1","+0110,1","+0050,1","99999,9","02,5,+00750,1,99,9",,,,"02,99,1,99,9,99,9,99999,9,99,9,99,9","10291,1,99999,9",,,,,"MET055METAR EGUY 160950Z 04014KT 9999 FEW025 11/05 Q1029 BLU;",
"03566099999","2010-04-19T06:50:00","4","52.357167","-0.107833","41.14","WYTON, UK","FM-15","EGUY ","V020","100,1,N,0031,1","99999,9,9,Y","009900,1,N,1","+0070,1","+0050,1","99999,9",,,,,,"10180,1,99999,9",,,,,"MET049METAR EGUY 190650Z 10006KT CAVOK 07/05 Q1018 BLU;",
"03566099999","2010-04-19T07:50:00","4","52.357167","-0.107833","41.14","WYTON, UK","FM-15","EGUY ","V020","100,1,N,0031,1","01500,1,C,N","011265,1,N,1","+0080,1","+0050,1","99999,9","02,5,+00840,1,99,9","07,5,+01500,1,99,9",,,"07,99,1,99,9,99,9,99999,9,99,9,99,9","10180,1,99999,9",,,,,"MET062METAR EGUY 190750Z 10006KT 9999 FEW028 BKN050 08/05 Q1018 BLU;",
"03566099999","2010-04-19T08:50:00","4","52.357167","-0.107833","41.14","WYTON, UK","FM-15","EGUY ","V020","110,1,N,0041,1","01500,1,C,N","011265,1,N,1","+0090,1","+0040,1","99999,9","02,5,+00840,1,99,9","07,5,+01500,1,99,9",,,"07,99,1,99,9,99,9,99999,9,99,9,99,9","10180,1,99999,9",,,,,"MET062METAR EGUY 190850Z 11008KT 9999 FEW028 BKN050 09/04 Q1018 BLU;",
"03566099999","2010-04-19T09:50:00","4","52.357167","-0.107833","41.14","WYTON, UK","FM-15","EGUY ","V020","120,1,N,0046,1","22000,1,9,N","011265,1,N,1","+0100,1","+0060,1","99999,9","04,5,+00900,1,99,9",,,,"04,99,1,99,9,99,9,99999,9,99,9,99,9","10180,1,99999,9",,,,,"MET055METAR EGUY 190950Z 12009KT 9999 SCT030 10/06 Q1018 BLU;",
"03566099999","2010-04-19T10:50:00","4","52.357167","-0.107833","41.14","WYTON, UK","FM-15","EGUY ","V020","090,1,N,0051,1","22000,1,9,N","011265,1,N,1","+0110,1","+0060,1","99999,9","04,5,+00900,1,99,9",,,,"04,99,1,99,9,99,9,99999,9,99,9,99,9","10180,1,99999,9",,,,,"MET055METAR EGUY 191050Z 09010KT 9999 SCT030 11/06 Q1018 BLU;",
"03566099999","2010-04-20T06:50:00","4","52.357167","-0.107833","41.14","WYTON, UK","FM-15","EGUY ","V020","280,1,N,0062,1","99999,9,9,Y","009900,1,N,1","+0050,1","+0010,1","99999,9",,,,,,"10169,1,99999,9",,,,,"MET049METAR EGUY 200650Z 28012KT CAVOK 05/01 Q1017 BLU;",
"03566099999","2010-04-20T07:50:00","4","52.357167","-0.107833","41.14","WYTON, UK","FM-15","EGUY ","V020","290,1,N,0082,1","99999,9,9,Y","009900,1,N,1","+0070,1","+0010,1","99999,9",,,,,,"10169,1,99999,9",,,,,"MET049METAR EGUY 200750Z 29016KT CAVOK 07/01 Q1017 BLU;",
"03566099999","2010-04-20T08:50:00","4","52.357167","-0.107833","41.14","WYTON, UK","FM-15","EGUY ","V020","280,1,N,0093,1","22000,1,9,N","011265,1,N,1","+0090,1","+0020,1","99999,9","02,5,+00750,1,99,9",,,,"02,99,1,99,9,99,9,99999,9,99,9,99,9","10169,1,99999,9",,,,,"MET055METAR EGUY 200850Z 28018KT 9999 FEW025 09/02 Q1017 BLU;",
"03566099999","2010-04-20T10:50:00","4","52.357167","-0.107833","41.14","WYTON, UK","FM-15","EGUY ","V020","290,1,N,0082,1","22000,1,9,N","011265,1,N,1","+0110,1","+0000,1","99999,9","02,5,+00840,1,99,9",,,,"02,99,1,99,9,99,9,99999,9,99,9,99,9","10180,1,99999,9",,,,,"MET055METAR EGUY 201050Z 29016KT 9999 FEW028 11/00 Q1018 BLU;",
"03566099999","2010-04-20T11:50:00","4","52.357167","-0.107833","41.14","WYTON, UK","FM-15","EGUY ","V020","300,1,N,0077,1","22000,1,9,N","011265,1,N,1","+0130,1","+0030,1","99999,9","02,5,+00840,1,99,9",,,,"02,99,1,99,9,99,9,99999,9,99,9,99,9","10180,1,99999,9",,,,"0129,1","MET058METAR EGUY 201150Z 30015G25KT 9999 FEW028 13/03 Q1018 BLU;",
"03566099999","2010-04-21T06:50:00","4","52.357167","-0.107833","41.14","WYTON, UK","FM-15","EGUY ","V020","300,1,N,0041,1","99999,9,9,Y","009900,1,N,1","+0030,1","+0010,1","99999,9",,,,,,"10210,1,99999,9",,,,,"MET049METAR EGUY 210650Z 30008KT CAVOK 03/01 Q1021 BLU;",
"03566099999","2010-04-21T07:50:00","4","52.357167","-0.107833","41.14","WYTON, UK","FM-15","EGUY ","V020","330,1,N,0051,1","99999,9,9,Y","009900,1,N,1","+0060,1","+0010,1","99999,9",,,,,,"10210,1,99999,9",,,,,"MET049METAR EGUY 210750Z 33010KT CAVOK 06/01 Q1021 BLU;",
"03566099999","2010-04-21T10:50:00","4","52.357167","-0.107833","41.14","WYTON, UK","FM-15","EGUY ","V020","320,1,N,0041,1","00900,1,C,N","011265,1,N,1","+0090,1","+0020,1","99999,9","07,5,+00900,1,99,9",,,,"07,99,1,99,9,99,9,99999,9,99,9,99,9","10210,1,99999,9",,,,,"MET055METAR EGUY 211050Z 32008KT 9999 BKN030 09/02 Q1021 BLU;",
"03566099999","2010-04-21T11:50:00","4","52.357167","-0.107833","41.14","WYTON, UK","FM-15","EGUY ","V020","350,1,N,0046,1","22000,1,9,N","011265,1,N,1","+0100,1","-0020,1","99999,9","04,5,+01140,1,99,9",,,,"04,99,1,99,9,99,9,99999,9,99,9,99,9","10210,1,99999,9",,,,,"MET056METAR EGUY 211150Z 35009KT 9999 SCT038 10/M02 Q1021 BLU;",
"03566099999","2010-04-21T13:50:00","4","52.357167","-0.107833","41.14","WYTON, UK","FM-15","EGUY ","V020","320,1,N,0031,1","22000,1,9,N","011265,1,N,1","+0100,1","-0040,1","99999,9","02,5,+01290,1,99,9",,,,"02,99,1,99,9,99,9,99999,9,99,9,99,9","10210,1,99999,9",,,,,"MET056METAR EGUY 211350Z 32006KT 9999 FEW043 10/M04 Q1021 BLU;",
"03566099999","2010-04-21T14:50:00","4","52.357167","-0.107833","41.14","WYTON, UK","FM-15","EGUY ","V020","360,1,N,0041,1","22000,1,9,N","011265,1,N,1","+0110,1","-0040,1","99999,9","02,5,+01350,1,99,9",,,,"02,99,1,99,9,99,9,99999,9,99,9,99,9","10210,1,99999,9",,,,,"MET056METAR EGUY 211450Z 36008KT 9999 FEW045 11/M04 Q1021 BLU;",
"03566099999","2010-04-22T06:50:00","4","52.357167","-0.107833","41.14","WYTON, UK","FM-15","EGUY ","V020","999,9,C,0000,1","99999,9,9,Y","009900,1,N,1","+0050,1","+0030,1","99999,9",,,,,,"10200,1,99999,9",,,,,"MET049METAR EGUY 220650Z 00000KT CAVOK 05/03 Q1020 BLU;",
"03566099999","2010-04-22T09:50:00","4","52.357167","-0.107833","41.14","WYTON, UK","FM-15","EGUY ","V020","999,9,V,0015,1","22000,1,9,N","999999,9,N,1","+0100,1","-0010,1","99999,9","02,5,+01050,5,99,9",,,,,"10200,1,99999,9",,,,,"MET051METAR EGUY 220950Z VRB03KT FEW035 10/M01 Q1020 BLU;",
"03566099999","2010-04-22T10:50:00","4","52.357167","-0.107833","41.14","WYTON, UK","FM-15","EGUY ","V020","999,9,C,0000,1","22000,1,9,N","011265,1,N,1","+9999,9","+9999,9","99999,9","04,5,+01350,1,99,9",,,,"04,99,1,99,9,99,9,99999,9,99,9,99,9","10200,1,99999,9",,,,,"MET059METAR EGUY 221050Z 00000KT 9999 SCT045 PS11/MS01 Q1020 BLU;",
"03566099999","2010-04-22T11:50:00","4","52.357167","-0.107833","41.14","WYTON, UK","FM-15","EGUY ","V020","999,9,V,0010,1","22000,1,9,N","011265,1,N,1","+0110,1","-0020,1","99999,9","04,5,+01410,1,99,9",,,,"04,99,1,99,9,99,9,99999,9,99,9,99,9","10190,1,99999,9",,,,,"MET056METAR EGUY 221150Z VRB02KT 9999 SCT047 11/M02 Q1019 BLU;",
"03566099999","2010-04-22T13:50:00","4","52.357167","-0.107833","41.14","WYTON, UK","FM-15","EGUY ","V020","170,1,N,0031,1","99999,9,9,Y","009900,1,N,1","+0130,1","-0020,1","99999,9",,,,,,"10180,1,99999,9",,,,,"MET050METAR EGUY 221350Z 17006KT CAVOK 13/M02 Q1018 BLU;",
"03566099999","2010-04-23T06:50:00","4","52.357167","-0.107833","41.14","WYTON, UK","FM-15","EGUY ","V020","230,1,N,0031,1","99999,9,9,Y","009900,1,N,1","+0050,1","+0010,1","99999,9",,,,,,"10169,1,99999,9",,,,,"MET049METAR EGUY 230650Z 23006KT CAVOK 05/01 Q1017 BLU;",
"03566099999","2010-04-23T07:50:00","4","52.357167","-0.107833","41.14","WYTON, UK","FM-15","EGUY ","V020","220,1,N,0031,1","99999,9,9,Y","009900,1,N,1","+0080,1","+0010,1","99999,9",,,,,,"10169,1,99999,9",,,,,"MET049METAR EGUY 230750Z 22006KT CAVOK 08/01 Q1017 BLU;",
"03566099999","2010-04-23T08:50:00","4","52.357167","-0.107833","41.14","WYTON, UK","FM-15","EGUY ","V020","230,1,N,0041,1","99999,9,9,Y","009900,1,N,1","+0110,1","-0020,1","99999,9",,,,,,"10169,1,99999,9",,,,,"MET050METAR EGUY 230850Z 23008KT CAVOK 11/M02 Q1017 BLU;",
"03566099999","2010-04-23T09:50:00","4","52.357167","-0.107833","41.14","WYTON, UK","FM-15","EGUY ","V020","220,1,N,0041,1","99999,9,9,Y","009900,1,N,1","+0120,1","-0010,1","99999,9",,,,,,"10169,1,99999,9",,,,,"MET050METAR EGUY 230950Z 22008KT CAVOK 12/M01 Q1017 BLU;",
"03566099999","2010-04-23T10:50:00","4","52.357167","-0.107833","41.14","WYTON, UK","FM-15","EGUY ","V020","230,1,N,0031,1","99999,9,9,Y","009900,1,N,1","+0130,1","+0000,1","99999,9",,,,,,"10169,1,99999,9",,,,,"MET050METAR EGUY 231050Z 23006KT CAVOK 13/M00 Q1017 BLU;",
"03566099999","2010-04-23T11:50:00","4","52.357167","-0.107833","41.14","WYTON, UK","FM-15","EGUY ","V020","190,1,N,0021,1","99999,9,9,Y","009900,1,N,1","+0140,1","+0000,1","99999,9",,,,,,"10169,1,99999,9",,,,,"MET049METAR EGUY 231150Z 19004KT CAVOK 14/00 Q1017 BLU;",
"03566099999","2010-04-23T12:50:00","4","52.357167","-0.107833","41.14","WYTON, UK","FM-15","EGUY ","V020","210,1,N,0021,1","99999,9,9,Y","009900,1,N,1","+0150,1","+0000,1","99999,9",,,,,,"10159,1,99999,9",,,,,"MET049METAR EGUY 231250Z 21004KT CAVOK 15/00 Q1016 BLU;",
"03566099999","2010-04-23T13:50:00","4","52.357167","-0.107833","41.14","WYTON, UK","FM-15","EGUY ","V020","160,1,N,0031,1","99999,9,9,Y","009900,1,N,1","+0150,1","-0010,1","99999,9",,,,,,"10159,1,99999,9",,,,,"MET050METAR EGUY 231350Z 16006KT CAVOK 15/M01 Q1016 BLU;",
"03566099999","2010-04-26T06:50:00","4","52.357167","-0.107833","41.14","WYTON, UK","FM-15","EGUY ","V020","240,1,N,0051,1","22000,1,9,N","011265,1,N,1","+0100,1","+0090,1","99999,9","02,5,+00900,1,99,9",,,,"02,99,1,99,9,99,9,99999,9,99,9,99,9","10230,1,99999,9",,,,,"MET055METAR EGUY 260650Z 24010KT 9999 FEW030 10/09 Q1023 BLU;",
"03566099999","2010-04-26T07:50:00","4","52.357167","-0.107833","41.14","WYTON, UK","FM-15","EGUY ","V020","250,1,N,0051,1","22000,1,9,N","011265,1,N,1","+0120,1","+0090,1","99999,9","02,5,+00360,1,99,9",,,,"02,99,1,99,9,99,9,99999,9,99,9,99,9","10230,1,99999,9",,,,,"MET055METAR EGUY 260750Z 25010KT 9999 FEW012 12/09 Q1023 BLU;",
"03566099999","2010-04-26T08:50:00","4","52.357167","-0.107833","41.14","WYTON, UK","FM-15","EGUY ","V020","280,1,N,0051,1","99999,9,C,N","011265,1,N,1","+0140,1","+0110,1","99999,9","02,5,+00360,1,99,9","04,5,+00450,1,99,9",,,"04,99,1,99,9,99,9,99999,9,99,9,99,9","10240,1,99999,9",,,,,"MET062METAR EGUY 260850Z 28010KT 9999 FEW012 SCT015 14/11 Q1024 WHT;","P01 004503SCOCIG"
"03566099999","2010-04-26T09:50:00","4","52.357167","-0.107833","41.14","WYTON, UK","FM-15","EGUY ","V020","270,1,N,0051,1","00630,1,C,N","011265,1,N,1","+0150,1","+0110,1","99999,9","02,5,+00450,1,99,9","07,5,+00630,1,99,9","07,5,+02400,1,99,9",,"07,99,1,99,9,99,9,99999,9,99,9,99,9","10240,1,99999,9",,,,,"MET069METAR EGUY 260950Z 27010KT 9999 FEW015 BKN021 BKN080 15/11 Q1024 WHT;",
"03566099999","2010-04-26T10:50:00","4","52.357167","-0.107833","41.14","WYTON, UK","FM-15","EGUY ","V020","260,1,N,0057,1","00660,1,C,N","011265,1,N,1","+0150,1","+0110,1","99999,9","07,5,+00660,1,99,9","07,5,+02100,1,99,9",,,"07,99,1,99,9,99,9,99999,9,99,9,99,9","10251,1,99999,9",,,,,"MET062METAR EGUY 261050Z 26011KT 9999 BKN022 BKN070 15/11 Q1025 WHT;",
"03566099999","2010-04-26T11:50:00","4","52.357167","-0.107833","41.14","WYTON, UK","FM-15","EGUY ","V020","260,1,N,0051,1","01050,1,C,N","011265,1,N,1","+0160,1","+0110,1","99999,9","04,5,+00720,1,99,9","07,5,+01050,1,99,9","07,5,+02100,1,99,9",,"07,99,1,99,9,99,9,99999,9,99,9,99,9","10251,1,99999,9",,,,,"MET069METAR EGUY 261150Z 26010KT 9999 SCT024 BKN035 BKN070 16/11 Q1025 WHT;",
"03566099999","2010-04-26T12:50:00","4","52.357167","-0.107833","41.14","WYTON, UK","FM-15","EGUY ","V020","250,1,N,0041,1","00900,1,C,N","011265,1,N,1","+0160,1","+0110,1","99999,9","02,5,+00600,1,99,9","04,5,+00900,1,99,9","07,5,+02100,1,99,9",,"07,99,1,99,9,99,9,99999,9,99,9,99,9","10251,1,99999,9",,,,,"MET069METAR EGUY 261250Z 25008KT 9999 FEW020 SCT030 BKN070 16/11 Q1025 BLU;",
"03566099999","2010-04-26T13:50:00","4","52.357167","-0.107833","41.14","WYTON, UK","FM-15","EGUY ","V020","270,1,N,0041,1","99999,9,C,N","011265,1,N,1","+0170,1","+0110,1","99999,9","02,5,+00600,1,99,9","04,5,+00900,1,99,9",,,"04,99,1,99,9,99,9,99999,9,99,9,99,9","10251,1,99999,9",,,,,"MET062METAR EGUY 261350Z 27008KT 9999 FEW020 SCT030 17/11 Q1025 BLU;","P01 009003SCOCIG"
"03566099999","2010-04-26T14:50:00","4","52.357167","-0.107833","41.14","WYTON, UK","FM-15","EGUY ","V020","270,1,N,0051,1","99999,9,C,N","011265,1,N,1","+0180,1","+0110,1","99999,9","02,5,+00900,1,99,9","04,5,+01140,1,99,9",,,"04,99,1,99,9,99,9,99999,9,99,9,99,9","10251,1,99999,9",,,,,"MET062METAR EGUY 261450Z 27010KT 9999 FEW030 SCT038 18/11 Q1025 BLU;","P01 011403SCOCIG"
"03566099999","2010-04-27T06:50:00","4","52.357167","-0.107833","41.14","WYTON, UK","FM-15","EGUY ","V020","999,9,V,0015,1","99999,9,9,Y","009900,1,N,1","+0090,1","+0070,1","99999,9",,,,,,"10281,1,99999,9",,,,,"MET049METAR EGUY 270650Z VRB03KT CAVOK 09/07 Q1028 BLU;",
"03566099999","2010-04-27T07:50:00","4","52.357167","-0.107833","41.14","WYTON, UK","FM-15","EGUY ","V020","160,1,N,0010,1","99999,9,9,Y","009900,1,N,1","+0120,1","+0090,1","99999,9",,,,,,"10281,1,99999,9",,,,,"MET049METAR EGUY 270750Z 16002KT CAVOK 12/09 Q1028 BLU;",
"03566099999","2010-04-27T08:50:00","4","52.357167","-0.107833","41.14","WYTON, UK","FM-15","EGUY ","V020","999,9,V,0021,1","99999,9,9,Y","009900,1,N,1","+0150,1","+0090,1","99999,9",,,,,,"10281,1,99999,9",,,,,"MET049METAR EGUY 270850Z VRB04KT CAVOK 15/09 Q1028 BLU;",
"03566099999","2010-04-27T09:50:00","4","52.357167","-0.107833","41.14","WYTON, UK","FM-15","EGUY ","V020","999,9,V,0010,1","99999,9,9,Y","009900,1,N,1","+0160,1","+0090,1","99999,9",,,,,,"10281,1,99999,9",,,,,"MET049METAR EGUY 270950Z VRB02KT CAVOK 16/09 Q1028 BLU;",
"03566099999","2010-04-27T10:50:00","4","52.357167","-0.107833","41.14","WYTON, UK","FM-15","EGUY ","V020","999,9,V,0015,1","99999,9,9,Y","009900,1,N,1","+0170,1","+0090,1","99999,9",,,,,,"10281,1,99999,9",,,,,"MET049METAR EGUY 271050Z VRB03KT CAVOK 17/09 Q1028 BLU;",
"03566099999","2010-04-27T11:50:00","4","52.357167","-0.107833","41.14","WYTON, UK","FM-15","EGUY ","V020","140,1,N,0021,1","99999,9,9,Y","009900,1,N,1","+0180,1","+0100,1","99999,9",,,,,,"10281,1,99999,9",,,,,"MET049METAR EGUY 271150Z 14004KT CAVOK 18/10 Q1028 BLU;",
"03566099999","2010-04-27T12:50:00","4","52.357167","-0.107833","41.14","WYTON, UK","FM-15","EGUY ","V020","140,1,N,0021,1","99999,9,9,Y","009900,1,N,1","+0180,1","+0100,1","99999,9",,,,,,"10281,1,99999,9",,,,,"MET049METAR EGUY 271250Z 14004KT CAVOK 18/10 Q1028 BLU;",
"03566099999","2010-04-27T13:50:00","4","52.357167","-0.107833","41.14","WYTON, UK","FM-15","EGUY ","V020","180,1,N,0021,1","99999,9,9,Y","009900,1,N,1","+0180,1","+0100,1","99999,9",,,,,,"10271,1,99999,9",,,,,"MET049METAR EGUY 271350Z 18004KT CAVOK 18/10 Q1027 BLU;",
"03566099999","2010-04-27T14:50:00","4","52.357167","-0.107833","41.14","WYTON, UK","FM-15","EGUY ","V020","190,1,N,0041,1","99999,9,9,Y","009900,1,N,1","+0180,1","+0100,1","99999,9",,,,,,"10261,1,99999,9",,,,,"MET049METAR EGUY 271450Z 19008KT CAVOK 18/10 Q1026 BLU;",
"03566099999","2010-04-28T06:50:00","4","52.357167","-0.107833","41.14","WYTON, UK","FM-15","EGUY ","V020","170,1,N,0021,1","99999,9,9,Y","009900,1,N,1","+0100,1","+0080,1","99999,9",,,,,,"10220,1,99999,9",,,,,"MET049METAR EGUY 280650Z 17004KT CAVOK 10/08 Q1022 BLU;",
"03566099999","2010-04-28T07:50:00","4","52.357167","-0.107833","41.14","WYTON, UK","FM-15","EGUY ","V020","190,1,N,0041,1","99999,9,9,Y","009900,1,N,1","+0130,1","+0090,1","99999,9",,,,,,"10220,1,99999,9",,,,,"MET048METAR EGUY 280750Z 19008KT CAVOK13/09 Q1022 BLU;",
"03566099999","2010-04-28T08:50:00","4","52.357167","-0.107833","41.14","WYTON, UK","FM-15","EGUY ","V020","190,1,N,0051,1","99999,9,9,Y","009900,1,N,1","+0160,1","+0090,1","99999,9",,,,,,"10210,1,99999,9",,,,,"MET049METAR EGUY 280850Z 19010KT CAVOK 16/09 Q1021 BLU;",
"03566099999","2010-04-28T09:50:00","4","52.357167","-0.107833","41.14","WYTON, UK","FM-15","EGUY ","V020","190,1,N,0072,1","99999,9,9,Y","009900,1,N,1","+0180,1","+0100,1","99999,9",,,,,,"10210,1,99999,9",,,,,"MET049METAR EGUY 280950Z 19014KT CAVOK 18/10 Q1021 BLU;",
"03566099999","2010-04-28T10:50:00","4","52.357167","-0.107833","41.14","WYTON, UK","FM-15","EGUY ","V020","200,1,N,0051,1","99999,9,9,Y","009900,1,N,1","+0180,1","+0090,1","99999,9",,,,,,"10210,1,99999,9",,,,,"MET049METAR EGUY 281050Z 20010KT CAVOK 18/09 Q1021 BLU;",
"03566099999","2010-04-28T11:50:00","4","52.357167","-0.107833","41.14","WYTON, UK","FM-15","EGUY ","V020","190,1,N,0062,1","99999,9,9,Y","009900,1,N,1","+0190,1","+0120,1","99999,9",,,,,,"10200,1,99999,9",,,,,"MET049METAR EGUY 281150Z 19012KT CAVOK 19/12 Q1020 BLU;",
"03566099999","2010-04-28T12:50:00","4","52.357167","-0.107833","41.14","WYTON, UK","FM-15","EGUY ","V020","190,1,N,0062,1","99999,9,9,Y","009900,1,N,1","+0200,1","+0080,1","99999,9",,,,,,"10190,1,99999,9",,,,,"MET049METAR EGUY 281250Z 19012KT CAVOK 20/08 Q1019 BLU;",
"03566099999","2010-04-28T13:50:00","4","52.357167","-0.107833","41.14","WYTON, UK","FM-15","EGUY ","V020","190,1,N,0077,1","99999,9,9,Y","009900,1,N,1","+0210,1","+0080,1","99999,9",,,,,,"10180,1,99999,9",,,,,"MET049METAR EGUY 281350Z 19015KT CAVOK 21/08 Q1018 BLU;",
"03566099999","2010-04-28T14:50:00","4","52.357167","-0.107833","41.14","WYTON, UK","FM-15","EGUY ","V020","190,1,N,0072,1","99999,9,9,Y","009900,1,N,1","+0200,1","+0070,1","99999,9",,,,,,"10180,1,99999,9",,,,,"MET049METAR EGUY 281450Z 19014KT CAVOK 20/07 Q1018 BLU;",
"03566099999","2010-04-29T06:50:00","4","52.357167","-0.107833","41.14","WYTON, UK","FM-15","EGUY ","V020","250,1,N,0041,1","99999,9,9,Y","009900,1,N,1","+0120,1","+0100,1","99999,9",,,,,,"10119,1,99999,9",,,,,"MET049METAR EGUY 290650Z 25008KT CAVOK 12/10 Q1012 BLU;",
"03566099999","2010-04-29T07:50:00","4","52.357167","-0.107833","41.14","WYTON, UK","FM-15","EGUY ","V020","250,1,N,0036,1","99999,9,9,Y","009900,1,N,1","+0140,1","+0090,1","99999,9",,,,,,"10119,1,99999,9",,,,,"MET049METAR EGUY 290750Z 25007KT CAVOK 14/09 Q1012 BLU;",
"03566099999","2010-04-29T08:50:00","4","52.357167","-0.107833","41.14","WYTON, UK","FM-15","EGUY ","V020","240,1,N,0021,1","99999,9,9,Y","009900,1,N,1","+0150,1","+0100,1","99999,9",,,,,,"10108,1,99999,9",,,,,"MET049METAR EGUY 290850Z 24004KT CAVOK 15/10 Q1011 BLU;",
"03566099999","2010-04-29T09:50:00","4","52.357167","-0.107833","41.14","WYTON, UK","FM-15","EGUY ","V020","240,1,N,0031,1","99999,9,9,Y","009900,1,N,1","+0160,1","+0100,1","99999,9",,,,,,"10108,1,99999,9",,,,,"MET049METAR EGUY 290950Z 24006KT CAVOK 16/10 Q1011 BLU;",
"03566099999","2010-04-29T10:50:00","4","52.357167","-0.107833","41.14","WYTON, UK","FM-15","EGUY ","V020","250,1,N,0031,1","99999,9,9,Y","009900,1,N,1","+0170,1","+0100,1","99999,9",,,,,,"10108,1,99999,9",,,,,"MET049METAR EGUY 291050Z 25006KT CAVOK 17/10 Q1011 BLU;",
"03566099999","2010-04-29T11:50:00","4","52.357167","-0.107833","41.14","WYTON, UK","FM-15","EGUY ","V020","270,1,N,0036,1","03000,1,C,N","011265,1,N,1","+0170,1","+0090,1","99999,9","02,5,+00960,1,99,9","04,5,+03000,1,99,9","07,5,+06000,1,99,9",,"07,99,1,99,9,99,9,99999,9,99,9,99,9","10102,1,99999,9",,,,,"MET069METAR EGUY 291150Z 27007KT 9999 FEW032 SCT100 BKN200 17/09 Q1010 BLU;",
"03566099999","2010-04-29T12:50:00","4","52.357167","-0.107833","41.14","WYTON, UK","FM-15","EGUY ","V020","230,1,N,0041,1","03000,1,C,N","011265,1,N,1","+0170,1","+0100,1","99999,9","02,5,+00840,1,99,9","04,5,+03000,1,99,9","08,5,+06000,1,99,9",,"08,99,1,99,9,99,9,99999,9,99,9,99,9","10102,1,99999,9",,,,,"MET069METAR EGUY 291250Z 23008KT 9999 FEW028 SCT100 OVC200 17/10 Q1010 BLU;",
"03566099999","2010-04-29T13:50:00","4","52.357167","-0.107833","41.14","WYTON, UK","FM-15","EGUY ","V020","220,1,N,0051,1","03600,1,C,N","011265,1,N,1","+0160,1","+0110,1","99999,9","02,5,+00750,1,99,9","04,5,+03600,1,99,9","08,5,+06000,1,99,9",,"08,99,1,99,9,99,9,99999,9,99,9,99,9","10102,1,99999,9","61,1",,,,"MET073METAR EGUY 291350Z 22010KT 9999 -RA FEW025 SCT120 OVC200 16/11 Q1010 BLU;",
"03566099999","2010-04-29T14:00:00","4","52.357167","-0.107833","41.14","WYTON, UK","FM-15","EGUY ","V020","230,1,N,0031,1","01140,1,C,N","004000,1,N,1","+0150,1","+0130,1","99999,9","04,5,+00540,1,99,9","04,5,+01140,1,99,9","08,5,+03600,1,99,9",,"08,99,1,99,9,99,9,99999,9,99,9,99,9","10102,1,99999,9","63,1",,,,"MET072METAR EGUY 291400Z 23006KT 4000 RA SCT018 SCT038 OVC120 15/13 Q1010 GRN;",
"03566099999","2010-04-29T14:50:00","4","52.357167","-0.107833","41.14","WYTON, UK","FM-15","EGUY ","V020","270,1,N,0015,1","01050,1,C,N","006000,1,N,1","+0140,1","+0120,1","99999,9","02,5,+00600,1,99,9","04,5,+01050,1,99,9","08,5,+02100,1,99,9",,"08,99,1,99,9,99,9,99999,9,99,9,99,9","10091,1,99999,9","63,1",,,,"MET072METAR EGUY 291450Z 27003KT 6000 RA FEW020 SCT035 OVC070 14/12 Q1009 WHT;",
"03566099999","2010-04-30T06:50:00","4","52.357167","-0.107833","41.14","WYTON, UK","FM-15","EGUY ","V020","240,1,N,0072,1","99999,9,9,Y","009900,1,N,1","+0090,1","+0070,1","99999,9",,,,,,"10081,1,99999,9",,,,,"MET049METAR EGUY 300650Z 24014KT CAVOK 09/07 Q1008 BLU;",
"03566099999","2010-04-30T07:50:00","4","52.357167","-0.107833","41.14","WYTON, UK","FM-15","EGUY ","V020","230,1,N,0067,1","07500,1,C,N","011265,1,N,1","+0100,1","+0080,1","99999,9","02,5,+00450,1,99,9","07,5,+07500,1,99,9",,,"07,99,1,99,9,99,9,99999,9,99,9,99,9","10081,1,99999,9",,,,,"MET062METAR EGUY 300750Z 23013KT 9999 FEW015 BKN250 10/08 Q1008 BLU;",
"03566099999","2010-04-30T08:50:00","4","52.357167","-0.107833","41.14","WYTON, UK","FM-15","EGUY ","V020","240,1,N,0062,1","99999,9,C,N","011265,1,N,1","+0120,1","+0080,1","99999,9","02,5,+00480,1,99,9","04,5,+07500,1,99,9",,,"04,99,1,99,9,99,9,99999,9,99,9,99,9","10081,1,99999,9",,,,,"MET062METAR EGUY 300850Z 24012KT 9999 FEW016 SCT250 12/08 Q1008 BLU;","P01 075003SCOCIG"
"03566099999","2010-04-30T09:50:00","4","52.357167","-0.107833","41.14","WYTON, UK","FM-15","EGUY ","V020","240,1,N,0051,1","99999,9,C,N","011265,1,N,1","+0130,1","+0080,1","99999,9","02,5,+00600,1,99,9","04,5,+07500,1,99,9",,,"04,99,1,99,9,99,9,99999,9,99,9,99,9","10091,1,99999,9",,,,"0103,1","MET065METAR EGUY 300950Z 24010G20KT 9999 FEW020 SCT250 13/08 Q1009 BLU;","P01 075003SCOCIG"
"03566099999","2010-04-30T11:50:00","4","52.357167","-0.107833","41.14","WYTON, UK","FM-15","EGUY ","V020","220,1,N,0082,1","22000,1,9,N","011265,1,N,1","+0150,1","+0070,1","99999,9","04,5,+00960,1,99,9",,,,"04,99,1,99,9,99,9,99999,9,99,9,99,9","10081,1,99999,9",,,,,"MET055METAR EGUY 301150Z 22016KT 9999 SCT032 15/07 Q1008 BLU;",
"03566099999","2010-04-30T12:50:00","4","52.357167","-0.107833","41.14","WYTON, UK","FM-15","EGUY ","V020","240,1,N,0072,1","01800,1,C,N","011265,1,N,1","+0160,1","+0060,1","99999,9","04,5,+01200,1,99,9","07,5,+01800,1,99,9",,,"07,99,1,99,9,99,9,99999,9,99,9,99,9","10081,1,99999,9",,,,,"MET062METAR EGUY 301250Z 24014KT 9999 SCT040 BKN060 16/06 Q1008 BLU;",
"03566099999","2010-04-30T13:50:00","4","52.357167","-0.107833","41.14","WYTON, UK","FM-15","EGUY ","V020","220,1,N,0082,1","01050,1,C,N","011265,1,N,1","+0150,1","+0060,1","99999,9","02,5,+00600,1,99,9","07,5,+01050,1,99,9",,,"07,99,1,99,9,99,9,99999,9,99,9,99,9","10081,1,99999,9",,,,"0134,1","MET065METAR EGUY 301350Z 22016G26KT 9999 FEW020 BKN035 15/06 Q1008 BLU;",
"03566099999","2010-05-01T06:50:00","4","52.357167","-0.107833","41.14","WYTON, UK","FM-15","EGUY ","V020","300,1,N,0046,1","22000,1,9,N","011265,1,N,1","+0100,1","+0080,1","99999,9","02,5,+00450,1,99,9",,,,"02,99,1,99,9,99,9,99999,9,99,9,99,9","10091,1,99999,9",,,,,"MET055METAR EGUY 010650Z 30009KT 9999 FEW015 10/08 Q1009 BLU;",
"03566099999","2010-05-01T07:50:00","4","52.357167","-0.107833","41.14","WYTON, UK","FM-15","EGUY ","V020","300,1,N,0041,1","99999,9,C,N","011265,1,N,1","+0100,1","+0080,1","99999,9","02,5,+00300,1,99,9","04,5,+00450,1,99,9",,,"04,99,1,99,9,99,9,99999,9,99,9,99,9","10091,1,99999,9",,,,,"MET062METAR EGUY 010750Z 30008KT 9999 FEW010 SCT015 10/08 Q1009 WHT;","P01 004503SCOCIG"
"03566099999","2010-05-01T08:50:00","4","52.357167","-0.107833","41.14","WYTON, UK","FM-15","EGUY ","V020","290,1,N,0041,1","22000,1,9,N","011265,1,N,1","+0120,1","+0070,1","99999,9","04,5,+00450,1,99,9",,,,"04,99,1,99,9,99,9,99999,9,99,9,99,9","10091,1,99999,9",,,,,"MET055METAR EGUY 010850Z 29008KT 9999 SCT015 12/07 Q1009 WHT;",
"03566099999","2010-05-01T09:50:00","4","52.357167","-0.107833","41.14","WYTON, UK","FM-15","EGUY ","V020","310,1,N,0031,1","22000,1,9,N","011265,1,N,1","+0120,1","+0060,1","99999,9","04,5,+00660,1,99,9",,,,"04,99,1,99,9,99,9,99999,9,99,9,99,9","10091,1,99999,9",,,,,"MET055METAR EGUY 010950Z 31006KT 9999 SCT022 12/06 Q1009 WHT;",
"03566099999","2010-05-04T06:50:00","4","52.357167","-0.107833","41.14","WYTON, UK","FM-15","EGUY ","V020","350,1,N,0067,1","99999,9,9,Y","009900,1,N,1","+0050,1","+0030,1","99999,9",,,,,,"10281,1,99999,9",,,,,"MET049METAR EGUY 040650Z 35013KT CAVOK 05/03 Q1028 BLU;",
"03566099999","2010-05-04T07:50:00","4","52.357167","-0.107833","41.14","WYTON, UK","FM-15","EGUY ","V020","360,1,N,0062,1","22000,1,9,N","011265,1,N,1","+0070,1","+0040,1","99999,9","02,5,+00480,1,99,9",,,,"02,99,1,99,9,99,9,99999,9,99,9,99,9","10281,1,99999,9",,,,,"MET055METAR EGUY 040750Z 36012KT 9999 FEW016 07/04 Q1028 BLU;",
"03566099999","2010-05-04T08:50:00","4","52.357167","-0.107833","41.14","WYTON, UK","FM-15","EGUY ","V020","360,1,N,0077,1","22000,1,9,N","011265,1,N,1","+0080,1","+0030,1","99999,9","04,5,+00600,1,99,9",,,,"04,99,1,99,9,99,9,99999,9,99,9,99,9","10281,1,99999,9",,,,,"MET055METAR EGUY 040850Z 36015KT 9999 SCT020 08/03 Q1028 WHT;",
"03566099999","2010-05-04T09:50:00","4","52.357167","-0.107833","41.14","WYTON, UK","FM-15","EGUY ","V020","360,1,N,0072,1","00750,1,C,N","011265,1,N,1","+0080,1","+0030,1","99999,9","07,5,+00750,1,99,9",,,,"07,99,1,99,9,99,9,99999,9,99,9,99,9","10281,1,99999,9",,,,,"MET055METAR EGUY 040950Z 36014KT 9999 BKN025 08/03 Q1028 BLU;",
"03566099999","2010-05-04T10:50:00","4","52.357167","-0.107833","41.14","WYTON, UK","FM-15","EGUY ","V020","360,1,N,0072,1","00750,1,C,N","011265,1,N,1","+0090,1","+0030,1","99999,9","07,5,+00750,1,99,9",,,,"07,99,1,99,9,99,9,99999,9,99,9,99,9","10281,1,99999,9",,,,,"MET055METAR EGUY 041050Z 36014KT 9999 BKN025 09/03 Q1028 BLU;",
"03566099999","2010-05-04T11:50:00","4","52.357167","-0.107833","41.14","WYTON, UK","FM-15","EGUY ","V020","010,1,N,0062,1","00750,1,C,N","011265,1,N,1","+0090,1","+0030,1","99999,9","07,5,+00750,1,99,9",,,,"07,99,1,99,9,99,9,99999,9,99,9,99,9","10281,1,99999,9",,,,,"MET055METAR EGUY 041150Z 01012KT 9999 BKN025 09/03 Q1028 BLU;",
"03566099999","2010-05-04T12:50:00","4","52.357167","-0.107833","41.14","WYTON, UK","FM-15","EGUY ","V020","010,1,N,0072,1","00750,1,C,N","011265,1,N,1","+0100,1","+0030,1","99999,9","07,5,+00750,1,99,9",,,,"07,99,1,99,9,99,9,99999,9,99,9,99,9","10271,1,99999,9",,,,,"MET055METAR EGUY 041250Z 01014KT 9999 BKN025 10/03 Q1027 BLU;",
"03566099999","2010-05-04T13:50:00","4","52.357167","-0.107833","41.14","WYTON, UK","FM-15","EGUY ","V020","010,1,N,0051,1","22000,1,9,N","011265,1,N,1","+0110,1","+0030,1","99999,9","04,5,+00960,1,99,9",,,,"04,99,1,99,9,99,9,99999,9,99,9,99,9","10271,1,99999,9",,,,,"MET055METAR EGUY 041350Z 01010KT 9999 SCT032 11/03 Q1027 BLU;",
"03566099999","2010-05-04T14:50:00","4","52.357167","-0.107833","41.14","WYTON, UK","FM-15","EGUY ","V020","030,1,N,0051,1","22000,1,9,N","011265,1,N,1","+0110,1","+0040,1","99999,9","04,5,+00900,1,99,9",,,,"04,99,1,99,9,99,9,99999,9,99,9,99,9","10261,1,99999,9",,,,,"MET055METAR EGUY 041450Z 03010KT 9999 SCT030 11/04 Q1026 BLU;",
"03566099999","2010-05-05T06:50:00","4","52.357167","-0.107833","41.14","WYTON, UK","FM-15","EGUY ","V020","330,1,N,0036,1","05400,1,C,N","009000,1,N,1","+0090,1","+0070,1","99999,9","04,5,+01800,1,99,9","07,5,+05400,1,99,9",,,"07,99,1,99,9,99,9,99999,9,99,9,99,9","10230,1,99999,9","05,1",,,,"MET065METAR EGUY 050650Z 33007KT 9000 HZ SCT060 BKN180 09/07 Q1023 BLU;",
"03566099999","2010-05-05T07:50:00","4","52.357167","-0.107833","41.14","WYTON, UK","FM-15","EGUY ","V020","040,1,N,0010,1","05400,1,C,N","009000,1,N,1","+0110,1","+0080,1","99999,9","04,5,+01950,5,99,9","07,5,+05400,1,99,9",,,"07,99,1,99,9,99,9,99999,9,99,9,99,9","10230,1,99999,9","05,1",,,,"MET065METAR EGUY 050750Z 04002KT 9000 HZ SCT065 BKN180 11/08 Q1023 BLU;",
"03566099999","2010-05-05T08:50:00","4","52.357167","-0.107833","41.14","WYTON, UK","FM-15","EGUY ","V020","999,9,V,0010,1","01800,1,C,N","009000,1,N,1","+0120,1","+0080,1","99999,9","02,5,+00480,1,99,9","04,5,+01800,1,99,9","07,5,+06000,1,99,9",,"07,99,1,99,9,99,9,99999,9,99,9,99,9","10230,1,99999,9","05,1",,,,"MET072METAR EGUY 050850Z VRB02KT 9000 HZ FEW016 SCT060 BKN200 12/08 Q1023 BLU;",
"03566099999","2010-05-05T09:50:00","4","52.357167","-0.107833","41.14","WYTON, UK","FM-15","EGUY ","V020","360,1,N,0021,1","01800,1,C,N","011265,1,N,1","+0130,1","+0070,1","99999,9","02,5,+00750,1,99,9","04,5,+01800,1,99,9","07,5,+04200,1,99,9",,"07,99,1,99,9,99,9,99999,9,99,9,99,9","10220,1,99999,9",,,,,"MET069METAR EGUY 050950Z 36004KT 9999 FEW025 SCT060 BKN140 13/07 Q1022 BLU;",
"03566099999","2010-05-05T10:50:00","4","52.357167","-0.107833","41.14","WYTON, UK","FM-15","EGUY ","V020","999,9,V,0010,1","01800,1,C,N","011265,1,N,1","+0130,1","+0070,1","99999,9","02,5,+00750,1,99,9","04,5,+01800,1,99,9","07,5,+04200,1,99,9",,"07,99,1,99,9,99,9,99999,9,99,9,99,9","10210,1,99999,9",,,,,"MET069METAR EGUY 051050Z VRB02KT 9999 FEW025 SCT060 BKN140 13/07 Q1021 BLU;",
"03566099999","2010-05-05T11:50:00","4","52.357167","-0.107833","41.14","WYTON, UK","FM-15","EGUY ","V020","320,1,N,0010,1","01800,1,C,N","011265,1,N,1","+0140,1","+0070,1","99999,9","04,5,+00900,1,99,9","07,5,+01800,1,99,9",,,"07,99,1,99,9,99,9,99999,9,99,9,99,9","10210,1,99999,9",,,,,"MET062METAR EGUY 051150Z 32002KT 9999 SCT030 BKN060 14/07 Q1021 BLU;",
"03566099999","2010-05-05T12:50:00","4","52.357167","-0.107833","41.14","WYTON, UK","FM-15","EGUY ","V020","300,1,N,0010,1","01800,1,C,N","011265,1,N,1","+0130,1","+0070,1","99999,9","04,5,+00900,1,99,9","07,5,+01800,1,99,9",,,"07,99,1,99,9,99,9,99999,9,99,9,99,9","10200,1,99999,9",,,,,"MET062METAR EGUY 051250Z 30002KT 9999 SCT030 BKN060 13/07 Q1020 BLU;",
"03566099999","2010-05-05T13:50:00","4","52.357167","-0.107833","41.14","WYTON, UK","FM-15","EGUY ","V020","999,9,V,0005,1","01800,1,C,N","011265,1,N,1","+0130,1","+0080,1","99999,9","04,5,+00900,1,99,9","07,5,+01800,1,99,9",,,"07,99,1,99,9,99,9,99999,9,99,9,99,9","10200,1,99999,9",,,,,"MET062METAR EGUY 051350Z VRB01KT 9999 SCT030 BKN060 13/08 Q1020 BLU;",
"03566099999","2010-05-05T14:50:00","4","52.357167","-0.107833","41.14","WYTON, UK","FM-15","EGUY ","V020","999,9,V,0010,1","01800,1,C,N","011265,1,N,1","+0150,1","+0080,1","99999,9","04,5,+00900,1,99,9","07,5,+01800,1,99,9",,,"07,99,1,99,9,99,9,99999,9,99,9,99,9","10190,1,99999,9",,,,,"MET062METAR EGUY 051450Z VRB02KT 9999 SCT030 BKN060 15/08 Q1019 BLU;",
"03566099999","2010-05-06T06:50:00","4","52.357167","-0.107833","41.14","WYTON, UK","FM-15","EGUY ","V020","060,1,N,0041,1","00360,1,C,N","011265,1,N,1","+0080,1","+0070,1","99999,9","08,5,+00360,1,99,9",,,,"08,99,1,99,9,99,9,99999,9,99,9,99,9","10129,1,99999,9",,,,,"MET055METAR EGUY 060650Z 06008KT 9999 OVC012 08/07 Q1013 GRN;",
"03566099999","2010-05-06T07:50:00","4","52.357167","-0.107833","41.14","WYTON, UK","FM-15","EGUY ","V020","080,1,N,0031,1","00600,1,C,N","011265,1,N,1","+0080,1","+0060,1","99999,9","02,5,+00360,1,99,9","08,5,+00600,1,99,9",,,"08,99,1,99,9,99,9,99999,9,99,9,99,9","10139,1,99999,9",,,,,"MET062METAR EGUY 060750Z 08006KT 9999 FEW012 OVC020 08/06 Q1014 WHT;",
"03566099999","2010-05-06T08:50:00","4","52.357167","-0.107833","41.14","WYTON, UK","FM-15","EGUY ","V020","060,1,N,0031,1","01200,1,C,N","011265,1,N,1","+0090,1","+0050,1","99999,9","04,5,+00960,1,99,9","08,5,+01200,1,99,9",,,"08,99,1,99,9,99,9,99999,9,99,9,99,9","10139,1,99999,9",,,,,"MET062METAR EGUY 060850Z 06006KT 9999 SCT032 OVC040 09/05 Q1014 BLU;",
"03566099999","2010-05-06T09:50:00","4","52.357167","-0.107833","41.14","WYTON, UK","FM-15","EGUY ","V020","020,1,N,0031,1","01200,1,C,N","011265,1,N,1","+0090,1","+0050,1","99999,9","04,5,+00960,1,99,9","07,5,+01200,1,99,9",,,"07,99,1,99,9,99,9,99999,9,99,9,99,9","10129,1,99999,9",,,,,"MET062METAR EGUY 060950Z 02006KT 9999 SCT032 BKN040 09/05 Q1013 BLU;",
"03566099999","2010-05-06T10:50:00","4","52.357167","-0.107833","41.14","WYTON, UK","FM-15","EGUY ","V020","020,1,N,0041,1","01200,1,C,N","011265,1,N,1","+0100,1","+0040,1","99999,9","02,5,+00960,1,99,9","07,5,+01200,1,99,9",,,"07,99,1,99,9,99,9,99999,9,99,9,99,9","10129,1,99999,9",,,,,"MET062METAR EGUY 061050Z 02008KT 9999 FEW032 BKN040 10/04 Q1013 BLU;",
"03566099999","2010-05-06T11:50:00","4","52.357167","-0.107833","41.14","WYTON, UK","FM-15","EGUY ","V020","010,1,N,0062,1","22000,1,9,N","011265,1,N,1","+0120,1","+0050,1","99999,9","04,5,+01200,1,99,9",,,,"04,99,1,99,9,99,9,99999,9,99,9,99,9","10129,1,99999,9",,,,,"MET055METAR EGUY 061150Z 01012KT 9999 SCT040 12/05 Q1013 BLU;",
"03566099999","2010-05-06T12:50:00","4","52.357167","-0.107833","41.14","WYTON, UK","FM-15","EGUY ","V020","030,1,N,0067,1","22000,1,9,N","011265,1,N,1","+0130,1","+0050,1","99999,9","02,5,+01050,1,99,9",,,,"02,99,1,99,9,99,9,99999,9,99,9,99,9","10129,1,99999,9",,,,,"MET055METAR EGUY 061250Z 03013KT 9999 FEW035 13/05 Q1013 BLU;",
"03566099999","2010-05-06T13:50:00","4","52.357167","-0.107833","41.14","WYTON, UK","FM-15","EGUY ","V020","030,1,N,0057,1","22000,1,9,N","011265,1,N,1","+0130,1","+0010,1","99999,9","02,5,+01050,1,99,9",,,,"02,99,1,99,9,99,9,99999,9,99,9,99,9","10119,1,99999,9",,,,,"MET055METAR EGUY 061350Z 03011KT 9999 FEW035 13/01 Q1012 BLU;",
"03566099999","2010-05-06T14:50:00","4","52.357167","-0.107833","41.14","WYTON, UK","FM-15","EGUY ","V020","020,1,N,0067,1","22000,1,9,N","011265,1,N,1","+0120,1","+0030,1","99999,9","02,5,+01050,1,99,9",,,,"02,99,1,99,9,99,9,99999,9,99,9,99,9","10119,1,99999,9",,,,,"MET055METAR EGUY 061450Z 02013KT 9999 FEW035 12/03 Q1012 BLU;",
"03566099999","2010-05-07T06:50:00","4","52.357167","-0.107833","41.14","WYTON, UK","FM-15","EGUY ","V020","030,1,N,0041,1","03000,1,C,N","011265,1,N,1","+0070,1","+0040,1","99999,9","04,5,+01200,1,99,9","07,5,+03000,1,99,9",,,"07,99,1,99,9,99,9,99999,9,99,9,99,9","10129,1,99999,9",,,,,"MET062METAR EGUY 070650Z 03008KT 9999 SCT040 BKN100 07/04 Q1013 BLU;",
"03566099999","2010-05-07T07:50:00","4","52.357167","-0.107833","41.14","WYTON, UK","FM-15","EGUY ","V020","040,1,N,0072,1","01200,1,C,N","011265,1,N,1","+0090,1","+0040,1","99999,9","02,5,+00600,1,99,9","04,5,+01200,1,99,9","07,5,+03000,1,99,9",,"07,99,1,99,9,99,9,99999,9,99,9,99,9","10119,1,99999,9",,,,,"MET069METAR EGUY 070750Z 04014KT 9999 FEW020 SCT040 BKN100 09/04 Q1012 BLU;",
"03566099999","2010-05-07T08:50:00","4","52.357167","-0.107833","41.14","WYTON, UK","FM-15","EGUY ","V020","030,1,N,0067,1","01500,1,C,N","011265,1,N,1","+9999,9","+9999,9","99999,9","04,5,+00660,1,99,9","07,5,+01500,1,99,9",,,"07,99,1,99,9,99,9,99999,9,99,9,99,9",,,,,,"MET060METAR EGUY 070850Z 03013KT 9999 SCT022 BKN050 09/051012 WHT;",
"03566099999","2010-05-07T09:50:00","4","52.357167","-0.107833","41.14","WYTON, UK","FM-15","EGUY ","V020","020,1,N,0077,1","01500,1,C,N","011265,1,N,1","+9999,9","+9999,9","99999,9","04,5,+00750,1,99,9","07,5,+01500,1,99,9",,,"07,99,1,99,9,99,9,99999,9,99,9,99,9",,,,,,"MET060METAR EGUY 070950Z 02015KT 9999 SCT025 BKN050 11/051012 BLU;",
"03566099999","2010-05-07T10:50:00","4","52.357167","-0.107833","41.14","WYTON, UK","FM-15","EGUY ","V020","030,1,N,0062,1","00900,1,C,N","011265,1,N,1","+0110,1","+0040,1","99999,9","07,5,+00900,1,99,9",,,,"07,99,1,99,9,99,9,99999,9,99,9,99,9",,,,,,"MET054METAR EGUY 071050Z 03012KT 9999 BKN030 11/04 1012 BLU;",
"03566099999","2010-05-07T11:50:00","4","52.357167","-0.107833","41.14","WYTON, UK","FM-15","EGUY ","V020","020,1,N,0072,1","01050,1,C,N","011265,1,N,1","+0110,1","+0040,1","99999,9","07,5,+01050,1,99,9",,,,"07,99,1,99,9,99,9,99999,9,99,9,99,9",,,,,,"MET054METAR EGUY 071150Z 02014KT 9999 BKN035 11/04 1012 BLU;",
"03566099999","2010-05-07T12:50:00","4","52.357167","-0.107833","41.14","WYTON, UK","FM-15","EGUY ","V020","010,1,N,0098,1","01200,1,C,N","011265,1,N,1","+0110,1","+0050,1","99999,9","07,5,+01200,1,99,9",,,,"07,99,1,99,9,99,9,99999,9,99,9,99,9",,,,,,"MET054METAR EGUY 071250Z 01019KT 9999 BKN040 11/05 1012 BLU;",
"03566099999","2010-05-07T13:50:00","4","52.357167","-0.107833","41.14","WYTON, UK","FM-15","EGUY ","V020","020,1,N,0077,1","01200,1,C,N","011265,1,N,1","+0120,1","+0050,1","99999,9","07,5,+01200,1,99,9",,,,"07,99,1,99,9,99,9,99999,9,99,9,99,9",,,,,,"MET054METAR EGUY 071350Z 02015KT 9999 BKN040 12/05 1012 BLU;",
"03566099999","2010-05-07T14:50:00","4","52.357167","-0.107833","41.14","WYTON, UK","FM-15","EGUY ","V020","010,1,N,0087,1","22000,1,9,N","011265,1,N,1","+0120,1","+0050,1","99999,9","04,5,+01200,1,99,9",,,,"04,99,1,99,9,99,9,99999,9,99,9,99,9",,,,,,"MET054METAR EGUY 071450Z 01017KT 9999 SCT040 12/05 1012 BLU;",
"03566099999","2010-05-08T07:20:00","4","52.357167","-0.107833","41.14","WYTON, UK","FM-15","EGUY ","V020","030,1,N,0067,1","00270,1,C,N","011265,1,N,1","+0070,1","+0070,1","99999,9","07,5,+00270,1,99,9","07,5,+00450,1,99,9",,,"07,99,1,99,9,99,9,99999,9,99,9,99,9","10119,1,99999,9","51,1","61,1",,,"MET068METAR EGUY 080720Z 03013KT 9999 -RADZ BKN009 BKN015 07/07 Q1012 GRN;",
"03566099999","2010-05-08T07:50:00","4","52.357167","-0.107833","41.14","WYTON, UK","FM-15","EGUY ","V020","020,1,N,0062,1","00210,1,C,N","011265,1,N,1","+0070,1","+0070,1","99999,9","07,5,+00210,1,99,9","08,5,+00300,1,99,9",,,"08,99,1,99,9,99,9,99999,9,99,9,99,9","10119,1,99999,9",,,,,"MET062METAR EGUY 080750Z 02012KT 9999 BKN007 OVC010 07/07 Q1012 GRN;",
"03566099999","2010-05-08T08:50:00","4","52.357167","-0.107833","41.14","WYTON, UK","FM-15","EGUY ","V020","030,1,N,0077,1","00420,1,C,N","011265,1,N,1","+0080,1","+0070,1","99999,9","04,5,+00300,1,99,9","07,5,+00420,1,99,9","08,5,+01410,1,99,9",,"08,99,1,99,9,99,9,99999,9,99,9,99,9","10129,1,99999,9",,,,,"MET069METAR EGUY 080850Z 03015KT 9999 SCT010 BKN014 OVC047 08/07 Q1013 GRN;",
"03566099999","2010-05-08T09:50:00","4","52.357167","-0.107833","41.14","WYTON, UK","FM-15","EGUY ","V020","030,1,N,0087,1","00480,1,C,N","011265,1,N,1","+0080,1","+0060,1","99999,9","04,5,+00360,1,99,9","07,5,+00480,1,99,9","08,5,+01050,1,99,9",,"08,99,1,99,9,99,9,99999,9,99,9,99,9","10129,1,99999,9","61,1",,,,"MET073METAR EGUY 080950Z 03017KT 9999 -RA SCT012 BKN016 OVC035 08/06 Q1013 GRN;",
"03566099999","2010-05-08T10:50:00","4","52.357167","-0.107833","41.14","WYTON, UK","FM-15","EGUY ","V020","030,1,N,0067,1","00360,1,C,N","009000,1,N,1","+0080,1","+0070,1","99999,9","02,5,+00300,1,99,9","04,5,+00360,1,99,9","07,5,+00660,1,99,9",,"07,99,1,99,9,99,9,99999,9,99,9,99,9","10129,1,99999,9","61,1",,,,"MET073METAR EGUY 081050Z 03013KT 9000 -RA FEW010 SCT012 BKN022 08/07 Q1013 GRN;",
"03566099999","2010-05-08T11:50:00","4","52.357167","-0.107833","41.14","WYTON, UK","FM-15","EGUY ","V020","040,1,N,0067,1","00660,1,C,N","009000,1,N,1","+0080,1","+0070,1","99999,9","04,5,+00360,1,99,9","07,5,+00660,1,99,9",,,"07,99,1,99,9,99,9,99999,9,99,9,99,9","10129,1,99999,9","61,1",,,,"MET066METAR EGUY 081150Z 04013KT 9000 -RA SCT012 BKN022 08/07 Q1013 GRN;",
"03566099999","2010-05-08T12:50:00","4","52.357167","-0.107833","41.14","WYTON, UK","FM-15","EGUY ","V020","030,1,N,0082,1","00810,1,C,N","009000,1,N,1","+0080,1","+0070,1","99999,9","04,5,+00300,1,99,9","07,5,+00810,1,99,9",,,"07,99,1,99,9,99,9,99999,9,99,9,99,9","10139,1,99999,9","61,1",,,,"MET066METAR EGUY 081250Z 03016KT 9000 -RA SCT010 BKN027 08/07 Q1014 GRN;",
"03566099999","2010-05-08T13:50:00","4","52.357167","-0.107833","41.14","WYTON, UK","FM-15","EGUY ","V020","040,1,N,0093,1","00390,1,C,N","009000,1,N,1","+0080,1","+0070,1","99999,9","07,5,+00390,1,99,9","07,5,+00810,1,99,9",,,"07,99,1,99,9,99,9,99999,9,99,9,99,9","10139,1,99999,9","61,1",,,,"MET066METAR EGUY 081350Z 04018KT 9000 -RA BKN013 BKN027 08/07 Q1014 GRN;",
"03566099999","2010-05-09T06:50:00","4","52.357167","-0.107833","41.14","WYTON, UK","FM-15","EGUY ","V020","010,1,N,0046,1","01200,1,C,N","011265,1,N,1","+0070,1","+0060,1","99999,9","02,5,+00450,1,99,9","07,5,+01200,1,99,9",,,"07,99,1,99,9,99,9,99999,9,99,9,99,9","10139,1,99999,9",,,,,"MET062METAR EGUY 090650Z 01009KT 9999 FEW015 BKN040 07/06 Q1014 BLU;",
"03566099999","2010-05-09T07:50:00","4","52.357167","-0.107833","41.14","WYTON, UK","FM-15","EGUY ","V020","010,1,N,0067,1","01200,1,C,N","011265,1,N,1","+0080,1","+0070,1","99999,9","04,5,+00390,1,99,9","07,5,+01200,1,99,9",,,"07,99,1,99,9,99,9,99999,9,99,9,99,9","10139,1,99999,9",,,,,"MET062METAR EGUY 090750Z 01013KT 9999 SCT013 BKN040 08/07 Q1014 GRN;",
"03566099999","2010-05-09T08:50:00","4","52.357167","-0.107833","41.14","WYTON, UK","FM-15","EGUY ","V020","010,1,N,0067,1","01800,1,C,N","011265,1,N,1","+0090,1","+0070,1","99999,9","04,5,+00480,1,99,9","07,5,+01800,1,99,9",,,"07,99,1,99,9,99,9,99999,9,99,9,99,9","10139,1,99999,9",,,,,"MET062METAR EGUY 090850Z 01013KT 9999 SCT016 BKN060 09/07 Q1014 WHT;",
"03566099999","2010-05-09T09:50:00","4","52.357167","-0.107833","41.14","WYTON, UK","FM-15","EGUY ","V020","040,1,N,0067,1","99999,9,C,N","011265,1,N,1","+0100,1","+0050,1","99999,9","02,5,+00600,1,99,9","04,5,+03000,1,99,9",,,"04,99,1,99,9,99,9,99999,9,99,9,99,9","10139,1,99999,9",,,,,"MET062METAR EGUY 090950Z 04013KT 9999 FEW020 SCT100 10/05 Q1014 BLU;","P01 030003SCOCIG"
"03566099999","2010-05-09T10:50:00","4","52.357167","-0.107833","41.14","WYTON, UK","FM-15","EGUY ","V020","040,1,N,0062,1","99999,9,C,N","011265,1,N,1","+0110,1","+0050,1","99999,9","02,5,+00750,1,99,9","04,5,+03000,1,99,9",,,"04,99,1,99,9,99,9,99999,9,99,9,99,9","10139,1,99999,9",,,,,"MET063METAR EGUY 091050Z 04012KT 9999 FEW025 SCT100 11/005 Q1014 BLU;","P01 030003SCOCIG"
"03566099999","2010-05-09T11:50:00","4","52.357167","-0.107833","41.14","WYTON, UK","FM-15","EGUY ","V020","030,1,N,0051,1","22000,1,9,N","011265,1,N,1","+0120,1","+0050,1","99999,9","02,5,+00840,1,99,9",,,,"02,99,1,99,9,99,9,99999,9,99,9,99,9","10129,1,99999,9",,,,,"MET055METAR EGUY 091150Z 03010KT 9999 FEW028 12/05 Q1013 BLU;",
"03566099999","2010-05-09T12:50:00","4","52.357167","-0.107833","41.14","WYTON, UK","FM-15","EGUY ","V020","030,1,N,0051,1","22000,1,9,N","011265,1,N,1","+0130,1","+0060,1","99999,9","02,5,+00840,1,99,9",,,,"02,99,1,99,9,99,9,99999,9,99,9,99,9","10129,1,99999,9",,,,,"MET055METAR EGUY 091250Z 03010KT 9999 FEW028 13/06 Q1013 BLU;",
"03566099999","2010-05-09T13:50:00","4","52.357167","-0.107833","41.14","WYTON, UK","FM-15","EGUY ","V020","030,1,N,0072,1","22000,1,9,N","011265,1,N,1","+0120,1","+0050,1","99999,9","02,5,+00900,1,99,9",,,,"02,99,1,99,9,99,9,99999,9,99,9,99,9","10129,1,99999,9",,,,,"MET055METAR EGUY 091350Z 03014KT 9999 FEW030 12/05 Q1013 BLU;",
"03566099999","2010-05-09T14:50:00","4","52.357167","-0.107833","41.14","WYTON, UK","FM-15","EGUY ","V020","040,1,N,0062,1","22000,1,9,N","011265,1,N,1","+0130,1","+0040,1","99999,9","02,5,+01050,1,99,9",,,,"02,99,1,99,9,99,9,99999,9,99,9,99,9","10119,1,99999,9",,,,,"MET055METAR EGUY 091450Z 04012KT 9999 FEW035 13/04 Q1012 BLU;",
"03566099999","2010-05-10T06:50:00","4","52.357167","-0.107833","41.14","WYTON, UK","FM-15","EGUY ","V020","020,1,N,0041,1","22000,1,9,N","011265,1,N,1","+0060,1","+0040,1","99999,9","02,5,+01050,1,99,9",,,,"02,99,1,99,9,99,9,99999,9,99,9,99,9","10129,1,99999,9",,,,,"MET055METAR EGUY 100650Z 02008KT 9999 FEW035 06/04 Q1013 BLU;",
"03566099999","2010-05-10T07:50:00","4","52.357167","-0.107833","41.14","WYTON, UK","FM-15","EGUY ","V020","020,1,N,0046,1","22000,1,9,N","011265,1,N,1","+0070,1","+0040,1","99999,9","02,5,+01050,1,99,9",,,,"02,99,1,99,9,99,9,99999,9,99,9,99,9","10129,1,99999,9",,,,,"MET055METAR EGUY 100750Z 02009KT 9999 FEW035 07/04 Q1013 BLU;",
"03566099999","2010-05-10T08:50:00","4","52.357167","-0.107833","41.14","WYTON, UK","FM-15","EGUY ","V020","030,1,N,0046,1","22000,1,9,N","011265,1,N,1","+0090,1","+0040,1","99999,9","04,5,+00900,1,99,9",,,,"04,99,1,99,9,99,9,99999,9,99,9,99,9","10129,1,99999,9",,,,,"MET055METAR EGUY 100850Z 03009KT 9999 SCT030 09/04 Q1013 BLU;",
"03566099999","2010-05-10T09:50:00","4","52.357167","-0.107833","41.14","WYTON, UK","FM-15","EGUY ","V020","020,1,N,0041,1","01200,1,C,N","011265,1,N,1","+0090,1","+0040,1","99999,9","07,5,+01200,1,99,9",,,,"07,99,1,99,9,99,9,99999,9,99,9,99,9","10129,1,99999,9",,,,,"MET055METAR EGUY 100950Z 02008KT 9999 BKN040 09/04 Q1013 BLU;",
"03566099999","2010-05-10T10:50:00","4","52.357167","-0.107833","41.14","WYTON, UK","FM-15","EGUY ","V020","040,1,N,0041,1","01410,1,C,N","011265,1,N,1","+0100,1","+0040,1","99999,9","02,5,+01050,1,99,9","07,5,+01410,1,99,9",,,"07,99,1,99,9,99,9,99999,9,99,9,99,9","10129,1,99999,9",,,,,"MET062METAR EGUY 101050Z 04008KT 9999 FEW035 BKN047 10/04 Q1013 BLU;",
"03566099999","2010-05-10T11:50:00","4","52.357167","-0.107833","41.14","WYTON, UK","FM-15","EGUY ","V020","010,1,N,0057,1","01050,1,C,N","011265,1,N,1","+0090,1","+0040,1","99999,9","02,5,+00600,1,99,9","04,5,+01050,1,99,9","07,5,+01800,1,99,9",,"07,99,1,99,9,99,9,99999,9,99,9,99,9","10129,1,99999,9",,,,,"MET069METAR EGUY 101150Z 01011KT 9999 FEW020 SCT035 BKN060 09/04 Q1013 BLU;",
"03566099999","2010-05-10T12:50:00","4","52.357167","-0.107833","41.14","WYTON, UK","FM-15","EGUY ","V020","020,1,N,0062,1","01050,1,C,N","011265,1,N,1","+0090,1","+0050,1","99999,9","02,5,+00600,1,99,9","04,5,+01050,1,99,9","07,5,+01800,1,99,9",,"07,99,1,99,9,99,9,99999,9,99,9,99,9","10139,1,99999,9",,,,,"MET069METAR EGUY 101250Z 02012KT 9999 FEW020 SCT035 BKN060 09/05 Q1014 BLU;",
"03566099999","2010-05-10T13:50:00","4","52.357167","-0.107833","41.14","WYTON, UK","FM-15","EGUY ","V020","020,1,N,0067,1","00900,1,C,N","011265,1,N,1","+0090,1","+0050,1","99999,9","02,5,+00450,1,99,9","04,5,+00900,1,99,9","07,5,+01800,1,99,9",,"07,99,1,99,9,99,9,99999,9,99,9,99,9","10139,1,99999,9",,,,,"MET069METAR EGUY 101350Z 02013KT 9999 FEW015 SCT030 BKN060 09/05 Q1014 BLU;",
"03566099999","2010-05-10T14:50:00","4","52.357167","-0.107833","41.14","WYTON, UK","FM-15","EGUY ","V020","030,1,N,0072,1","00750,1,C,N","011265,1,N,1","+0090,1","+0040,1","99999,9","02,5,+00450,1,99,9","04,5,+00750,1,99,9","08,5,+01800,1,99,9",,"08,99,1,99,9,99,9,99999,9,99,9,99,9","10139,1,99999,9",,,,,"MET069METAR EGUY 101450Z 03014KT 9999 FEW015 SCT025 OVC060 09/04 Q1014 BLU;",
"03566099999","2010-05-11T06:50:00","4","52.357167","-0.107833","41.14","WYTON, UK","FM-15","EGUY ","V020","350,1,N,0051,1","22000,1,9,N","011265,1,N,1","+0050,1","+0030,1","99999,9","02,5,+00600,1,99,9",,,,"02,99,1,99,9,99,9,99999,9,99,9,99,9","10139,1,99999,9","80,1",,,,"MET061METAR EGUY 110650Z 35010KT 9999 -SHRA FEW020 05/03 Q1014 BLU;",
"03566099999","2010-05-11T07:50:00","4","52.357167","-0.107833","41.14","WYTON, UK","FM-15","EGUY ","V020","360,1,N,0062,1","22000,1,9,N","011265,1,N,1","+0070,1","+0030,1","99999,9","02,5,+00660,1,99,9",,,,"02,99,1,99,9,99,9,99999,9,99,9,99,9","10139,1,99999,9",,,,,"MET055METAR EGUY 110750Z 36012KT 9999 FEW022 07/03 Q1014 BLU;",
"03566099999","2010-05-11T08:50:00","4","52.357167","-0.107833","41.14","WYTON, UK","FM-15","EGUY ","V020","020,1,N,0051,1","01800,1,C,N","011265,1,N,1","+0070,1","+0010,1","99999,9","04,5,+00750,1,99,9","07,5,+01800,1,99,9",,,"07,99,1,99,9,99,9,99999,9,99,9,99,9","10139,1,99999,9",,,,,"MET062METAR EGUY 110850Z 02010KT 9999 SCT025 BKN060 07/01 Q1014 BLU;",
"03566099999","2010-05-11T09:50:00","4","52.357167","-0.107833","41.14","WYTON, UK","FM-15","EGUY ","V020","030,1,N,0051,1","00900,1,C,N","011265,1,N,1","+0080,1","+0010,1","99999,9","07,5,+00900,1,99,9",,,,"07,99,1,99,9,99,9,99999,9,99,9,99,9","10139,1,99999,9",,,,,"MET055METAR EGUY 110950Z 03010KT 9999 BKN030 08/01 Q1014 BLU;",
"03566099999","2010-05-11T10:50:00","4","52.357167","-0.107833","41.14","WYTON, UK","FM-15","EGUY ","V020","040,1,N,0051,1","01800,1,C,N","011265,1,N,1","+0080,1","+0010,1","99999,9","04,5,+00900,1,99,9","07,5,+01800,1,99,9",,,"07,99,1,99,9,99,9,99999,9,99,9,99,9","10129,1,99999,9",,,,,"MET062METAR EGUY 111050Z 04010KT 9999 SCT030 BKN060 08/01 Q1013 BLU;",
"03566099999","2010-05-11T11:50:00","4","52.357167","-0.107833","41.14","WYTON, UK","FM-15","EGUY ","V020","080,1,N,0046,1","01800,1,C,N","011265,1,N,1","+0070,1","+0020,1","99999,9","04,5,+00900,1,99,9","07,5,+01800,1,99,9",,,"07,99,1,99,9,99,9,99999,9,99,9,99,9","10130,1,99999,9","80,1",,,,"MET069METAR EGUY 111150Z 08009KT 9999 -SHRA SCT030 BKN060 07/02/ Q1013 BLU;",
"03566099999","2010-05-11T12:50:00","4","52.357167","-0.107833","41.14","WYTON, UK","FM-15","EGUY ","V020","070,1,N,0031,1","01800,1,C,N","011265,1,N,1","+0080,1","+0010,1","99999,9","04,5,+00900,1,99,9","07,5,+01800,1,99,9",,,"07,99,1,99,9,99,9,99999,9,99,9,99,9","10129,1,99999,9",,,,,"MET062METAR EGUY 111250Z 07006KT 9999 SCT030 BKN060 08/01 Q1013 BLU;",
"03566099999","2010-05-11T13:50:00","4","52.357167","-0.107833","41.14","WYTON, UK","FM-15","EGUY ","V020","060,1,N,0041,1","01800,1,C,N","011265,1,N,1","+0090,1","+0010,1","99999,9","04,5,+00900,1,99,9","07,5,+01800,1,99,9",,,"07,99,1,99,9,99,9,99999,9,99,9,99,9","10129,1,99999,9",,,,,"MET062METAR EGUY 111350Z 06008KT 9999 SCT030 BKN060 09/01 Q1013 BLU;",
"03566099999","2010-05-11T14:50:00","4","52.357167","-0.107833","41.14","WYTON, UK","FM-15","EGUY ","V020","070,1,N,0026,1","99999,9,C,N","011265,1,N,1","+0090,1","+0010,1","99999,9","04,5,+00900,1,99,9","04,5,+01800,1,99,9",,,"04,99,1,99,9,99,9,99999,9,99,9,99,9","10129,1,99999,9",,,,,"MET062METAR EGUY 111450Z 07005KT 9999 SCT030 SCT060 09/01 Q1013 BLU;","P01 018003SCOCIG"
"03566099999","2010-05-12T06:50:00","4","52.357167","-0.107833","41.14","WYTON, UK","FM-15","EGUY ","V020","340,1,N,0026,1","99999,9,C,N","011265,1,N,1","+0040,1","+0030,1","99999,9","02,5,+00600,1,99,9","04,5,+01200,1,99,9",,,"04,99,1,99,9,99,9,99999,9,99,9,99,9","10149,1,99999,9",,,,,"MET062METAR EGUY 120650Z 34005KT 9999 FEW020 SCT040 04/03 Q1015 BLU;","P01 012003SCOCIG"
"03566099999","2010-05-12T07:50:00","4","52.357167","-0.107833","41.14","WYTON, UK","FM-15","EGUY ","V020","360,1,N,0026,1","99999,9,C,N","011265,1,N,1","+0060,1","+0040,1","99999,9","02,5,+00750,1,99,9","04,5,+01500,1,99,9",,,"04,99,1,99,9,99,9,99999,9,99,9,99,9","10159,1,99999,9",,,,,"MET062METAR EGUY 120750Z 36005KT 9999 FEW025 SCT050 06/04 Q1016 BLU;","P01 015003SCOCIG"
"03566099999","2010-05-12T08:50:00","4","52.357167","-0.107833","41.14","WYTON, UK","FM-15","EGUY ","V020","350,1,N,0036,1","99999,9,C,N","011265,1,N,1","+0080,1","+0010,1","99999,9","02,5,+00750,1,99,9","04,5,+01500,1,99,9",,,"04,99,1,99,9,99,9,99999,9,99,9,99,9","10159,1,99999,9",,,,,"MET062METAR EGUY 120850Z 35007KT 9999 FEW025 SCT050 08/01 Q1016 BLU;","P01 015003SCOCIG"
"03566099999","2010-05-12T09:50:00","4","52.357167","-0.107833","41.14","WYTON, UK","FM-15","EGUY ","V020","030,1,N,0046,1","01050,1,C,N","011265,1,N,1","+0090,1","+0000,1","99999,9","07,5,+01050,1,99,9",,,,"07,99,1,99,9,99,9,99999,9,99,9,99,9","10159,1,99999,9",,,,,"MET055METAR EGUY 120950Z 03009KT 9999 BKN035 09/00 Q1016 BLU;",
"03566099999","2010-05-12T10:50:00","4","52.357167","-0.107833","41.14","WYTON, UK","FM-15","EGUY ","V020","350,1,N,0046,1","22000,1,9,N","011265,1,N,1","+0090,1","-0010,1","99999,9","04,5,+01200,1,99,9",,,,"04,99,1,99,9,99,9,99999,9,99,9,99,9","10159,1,99999,9",,,,,"MET056METAR EGUY 121050Z 35009KT 9999 SCT040 09/M01 Q1016 BLU;",
"03566099999","2010-05-12T11:50:00","4","52.357167","-0.107833","41.14","WYTON, UK","FM-15","EGUY ","V020","360,1,N,0041,1","01800,1,C,N","011265,1,N,1","+0090,1","+0000,1","99999,9","02,5,+01200,1,99,9","07,5,+01800,1,99,9",,,"07,99,1,99,9,99,9,99999,9,99,9,99,9","10159,1,99999,9",,,,,"MET062METAR EGUY 121150Z 36008KT 9999 FEW040 BKN060 09/00 Q1016 BLU;",
"03566099999","2010-05-12T12:50:00","4","52.357167","-0.107833","41.14","WYTON, UK","FM-15","EGUY ","V020","020,1,N,0062,1","22000,1,9,N","011265,1,N,1","+0110,1","+0000,1","99999,9","04,5,+01350,1,99,9",,,,"04,99,1,99,9,99,9,99999,9,99,9,99,9","10159,1,99999,9",,,,,"MET055METAR EGUY 121250Z 02012KT 9999 SCT045 11/00 Q1016 BLU;",
"03566099999","2010-05-12T13:50:00","4","52.357167","-0.107833","41.14","WYTON, UK","FM-15","EGUY ","V020","010,1,N,0051,1","22000,1,9,N","011265,1,N,1","+0100,1","+0000,1","99999,9","04,5,+01350,1,99,9",,,,"04,99,1,99,9,99,9,99999,9,99,9,99,9","10159,1,99999,9",,,,,"MET056METAR EGUY 121350Z 01010KT 9999 SCT045 10/M00 Q1016 BLU;",
"03566099999","2010-05-12T14:50:00","4","52.357167","-0.107833","41.14","WYTON, UK","FM-15","EGUY ","V020","010,1,N,0036,1","22000,1,9,N","011265,1,N,1","+0090,1","+0000,1","99999,9","04,5,+01350,1,99,9",,,,"04,99,1,99,9,99,9,99999,9,99,9,99,9","10159,1,99999,9",,,,,"MET055METAR EGUY 121450Z 01007KT 9999 SCT045 09/00 Q1016 BLU;",
"03566099999","2010-05-13T06:50:00","4","52.357167","-0.107833","41.14","WYTON, UK","FM-15","EGUY ","V020","360,1,N,0015,1","99999,9,9,Y","009900,1,N,1","+0050,1","+0030,1","99999,9",,,,,,"10159,1,99999,9",,,,,"MET049METAR EGUY 130650Z 36003KT CAVOK 05/03 Q1016 BLU;",
"03566099999","2010-05-13T07:50:00","4","52.357167","-0.107833","41.14","WYTON, UK","FM-15","EGUY ","V020","360,1,N,0010,1","22000,1,9,N","011265,1,N,1","+0070,1","+0030,1","99999,9","02,5,+00450,1,99,9",,,,"02,99,1,99,9,99,9,99999,9,99,9,99,9","10159,1,99999,9",,,,,"MET055METAR EGUY 130750Z 36002KT 9999 FEW015 07/03 Q1016 BLU;",
"03566099999","2010-05-13T08:50:00","4","52.357167","-0.107833","41.14","WYTON, UK","FM-15","EGUY ","V020","320,1,N,0010,1","22000,1,9,N","011265,1,N,1","+0090,1","+0020,1","99999,9","04,5,+00750,1,99,9",,,,"04,99,1,99,9,99,9,99999,9,99,9,99,9","10159,1,99999,9",,,,,"MET055METAR EGUY 130850Z 32002KT 9999 SCT025 09/02 Q1016 BLU;",
"03566099999","2010-05-13T09:50:00","4","52.357167","-0.107833","41.14","WYTON, UK","FM-15","EGUY ","V020","999,9,C,0000,1","00840,1,C,N","011265,1,N,1","+0090,1","+0020,1","99999,9","07,5,+00840,1,99,9",,,,"07,99,1,99,9,99,9,99999,9,99,9,99,9","10149,1,99999,9",,,,,"MET055METAR EGUY 130950Z 00000KT 9999 BKN028 09/02 Q1015 BLU;",
"03566099999","2010-05-13T10:50:00","4","52.357167","-0.107833","41.14","WYTON, UK","FM-15","EGUY ","V020","050,1,N,0021,1","00960,1,C,N","011265,1,N,1","+0090,1","+0010,1","99999,9","07,5,+00960,1,99,9",,,,"07,99,1,99,9,99,9,99999,9,99,9,99,9","10149,1,99999,9",,,,,"MET055METAR EGUY 131050Z 05004KT 9999 BKN032 09/01 Q1015 BLU;",
"03566099999","2010-05-13T11:50:00","4","52.357167","-0.107833","41.14","WYTON, UK","FM-15","EGUY ","V020","100,1,N,0010,1","01200,1,C,N","011265,1,N,1","+0100,1","+0000,1","99999,9","07,5,+01200,1,99,9",,,,"07,99,1,99,9,99,9,99999,9,99,9,99,9","10149,1,99999,9",,,,,"MET055METAR EGUY 131150Z 10002KT 9999 BKN040 10/00 Q1015 BLU;",
"03566099999","2010-05-13T12:50:00","4","52.357167","-0.107833","41.14","WYTON, UK","FM-15","EGUY ","V020","999,9,V,0015,1","01800,1,C,N","011265,1,N,1","+0110,1","+0010,1","99999,9","04,5,+01200,1,99,9","07,5,+01800,1,99,9",,,"07,99,1,99,9,99,9,99999,9,99,9,99,9","10149,1,99999,9",,,,,"MET062METAR EGUY 131250Z VRB03KT 9999 SCT040 BKN060 11/01 Q1015 BLU;",
"03566099999","2010-05-13T13:50:00","4","52.357167","-0.107833","41.14","WYTON, UK","FM-15","EGUY ","V020","170,1,N,0026,1","01800,1,C,N","011265,1,N,1","+0120,1","+0000,1","99999,9","04,5,+01350,1,99,9","07,5,+01800,1,99,9",,,"07,99,1,99,9,99,9,99999,9,99,9,99,9","10139,1,99999,9",,,,,"MET062METAR EGUY 131350Z 17005KT 9999 SCT045 BKN060 12/00 Q1014 BLU;",
"03566099999","2010-05-13T14:50:00","4","52.357167","-0.107833","41.14","WYTON, UK","FM-15","EGUY ","V020","170,1,N,0021,1","99999,9,C,N","011265,1,N,1","+0120,1","+0000,1","99999,9","02,5,+01350,1,99,9","04,5,+01800,1,99,9",,,"04,99,1,99,9,99,9,99999,9,99,9,99,9","10139,1,99999,9",,,,,"MET063METAR EGUY 131450Z 17004KT 9999 FEW045 SCT060 12/M00 Q1014 BLU;","P01 018003SCOCIG"
"03566099999","2010-05-14T06:50:00","4","52.357167","-0.107833","41.14","WYTON, UK","FM-15","EGUY ","V020","190,1,N,0041,1","99999,9,9,Y","009900,1,N,1","+0080,1","+0050,1","99999,9",,,,,,"10108,1,99999,9",,,,,"MET049METAR EGUY 140650Z 19008KT CAVOK 08/05 Q1011 BLU;",
"03566099999","2010-05-14T07:50:00","4","52.357167","-0.107833","41.14","WYTON, UK","FM-15","EGUY ","V020","190,1,N,0051,1","99999,9,C,N","011265,1,N,1","+0100,1","+0050,1","99999,9","02,5,+00600,1,99,9","04,5,+00750,1,99,9",,,"04,99,1,99,9,99,9,99999,9,99,9,99,9","10108,1,99999,9",,,,,"MET058METAR EGUY 140750Z 19010KT 9999 FEW020 SCT025 10/05 Q1011;","P01 007503SCOCIG"
"03566099999","2010-05-14T09:50:00","4","52.357167","-0.107833","41.14","WYTON, UK","FM-15","EGUY ","V020","210,1,N,0062,1","99999,9,C,N","011265,1,N,1","+0130,1","+0030,1","99999,9","02,5,+00900,1,99,9","04,5,+01200,1,99,9",,,"04,99,1,99,9,99,9,99999,9,99,9,99,9","10108,1,99999,9",,,,,"MET058METAR EGUY 140950Z 21012KT 9999 FEW030 SCT040 13/03 Q1011;","P01 012003SCOCIG"
"03566099999","2010-05-14T10:50:00","4","52.357167","-0.107833","41.14","WYTON, UK","FM-15","EGUY ","V020","240,1,N,0062,1","01080,5,9,N","999999,9,N,1","+0120,1","+0030,1","99999,9","04,5,+00750,5,99,9","04,5,+01080,5,99,9",,,,"10110,1,99999,9",,,,,"MET057METAR EGUY 141050Z 24012KT 999 SCT036 SCT025 12/03 Q1011;",
"03566099999","2010-05-14T11:50:00","4","52.357167","-0.107833","41.14","WYTON, UK","FM-15","EGUY ","V020","200,1,N,0036,1","01200,1,C,N","011265,1,N,1","+0130,1","+0030,1","99999,9","07,5,+01200,1,99,9",,,,"07,99,1,99,9,99,9,99999,9,99,9,99,9","10108,1,99999,9",,,,,"MET051METAR EGUY 141150Z 20007KT 9999 BKN040 13/03 Q1011;",
"03566099999","2010-05-14T12:50:00","4","52.357167","-0.107833","41.14","WYTON, UK","FM-15","EGUY ","V020","170,1,N,0051,1","99999,9,C,N","011265,1,N,1","+0140,1","+0030,1","99999,9","02,5,+01050,1,99,9","04,5,+01320,1,99,9",,,"04,99,1,99,9,99,9,99999,9,99,9,99,9","10108,1,99999,9",,,,,"MET058METAR EGUY 141250Z 17010KT 9999 FEW035 SCT044 14/03 Q1011;","P01 013203SCOCIG"
"03566099999","2010-05-14T13:50:00","4","52.357167","-0.107833","41.14","WYTON, UK","FM-15","EGUY ","V020","170,1,N,0051,1","01350,1,C,N","011265,1,N,1","+0130,1","+0040,1","99999,9","02,5,+01050,1,99,9","07,5,+01350,1,99,9",,,"07,99,1,99,9,99,9,99999,9,99,9,99,9","10108,1,99999,9",,,,,"MET058METAR EGUY 141350Z 17010KT 9999 FEW035 BKN045 13/04 Q1011;",
"03566099999","2010-05-15T07:50:00","4","52.357167","-0.107833","41.14","WYTON, UK","FM-15","EGUY ","V020","310,1,N,0031,1","01500,5,9,N","999999,9,N,1","+0110,1","+0070,1","99999,9","02,5,+00480,5,99,9","04,5,+01500,5,99,9",,,,"10150,1,99999,9",,,,,"MET057METAR EGUY 150750Z 31006KT FEW016 SCT050 11/07 Q1015 BLU;",
"03566099999","2010-05-15T08:50:00","4","52.357167","-0.107833","41.14","WYTON, UK","FM-15","EGUY ","V020","330,1,N,0041,1","01500,1,C,N","011265,1,N,1","+0120,1","+0080,1","99999,9","02,5,+00480,1,99,9","07,5,+01500,1,99,9",,,"07,99,1,99,9,99,9,99999,9,99,9,99,9","10149,1,99999,9",,,,,"MET062METAR EGUY 150850Z 33008KT 9999 FEW016 BKN050 12/08 Q1015 BLU;",
"03566099999","2010-05-15T09:50:00","4","52.357167","-0.107833","41.14","WYTON, UK","FM-15","EGUY ","V020","310,1,N,0046,1","22000,1,9,N","011265,1,N,1","+0130,1","+0070,1","99999,9","04,5,+00750,1,99,9",,,,"04,99,1,99,9,99,9,99999,9,99,9,99,9","10149,1,99999,9",,,,,"MET055METAR EGUY 150950Z 31009KT 9999 SCT025 13/07 Q1015 BLU;",
"03566099999","2010-05-15T10:50:00","4","52.357167","-0.107833","41.14","WYTON, UK","FM-15","EGUY ","V020","310,1,N,0031,1","00960,1,C,N","011265,1,N,1","+0140,1","+0060,1","99999,9","02,5,+00750,1,99,9","07,5,+00960,1,99,9",,,"07,99,1,99,9,99,9,99999,9,99,9,99,9","10149,1,99999,9",,,,,"MET062METAR EGUY 151050Z 31006KT 9999 FEW025 BKN032 14/06 Q1015 BLU;",
"03566099999","2010-05-15T11:50:00","4","52.357167","-0.107833","41.14","WYTON, UK","FM-15","EGUY ","V020","310,1,N,0041,1","01200,1,C,N","011265,1,N,1","+0150,1","+0040,1","99999,9","07,5,+01200,1,99,9",,,,"07,99,1,99,9,99,9,99999,9,99,9,99,9","10149,1,99999,9",,,,,"MET055METAR EGUY 151150Z 31008KT 9999 BKN040 15/04 Q1015 BLU;",
"03566099999","2010-05-15T12:50:00","4","52.357167","-0.107833","41.14","WYTON, UK","FM-15","EGUY ","V020","310,1,N,0046,1","01350,1,C,N","011265,1,N,1","+0150,1","+0020,1","99999,9","07,5,+01350,1,99,9",,,,"07,99,1,99,9,99,9,99999,9,99,9,99,9","10149,1,99999,9",,,,,"MET055METAR EGUY 151250Z 31009KT 9999 BKN045 15/02 Q1015 BLU;",
"03566099999","2010-05-15T13:50:00","4","52.357167","-0.107833","41.14","WYTON, UK","FM-15","EGUY ","V020","320,1,N,0031,1","01800,1,C,N","011265,1,N,1","+0150,1","+0030,1","99999,9","04,5,+01440,1,99,9","07,5,+01800,1,99,9",,,"07,99,1,99,9,99,9,99999,9,99,9,99,9","10149,1,99999,9",,,,,"MET062METAR EGUY 151350Z 32006KT 9999 SCT048 BKN060 15/03 Q1015 BLU;",
"03566099999","2010-05-16T06:50:00","4","52.357167","-0.107833","41.14","WYTON, UK","FM-15","EGUY ","V020","220,1,N,0046,1","99999,9,9,Y","009900,1,N,1","+0070,1","+0040,1","99999,9",,,,,,"10149,1,99999,9",,,,,"MET049METAR EGUY 160650Z 22009KT CAVOK 07/04 Q1015 BLU;",
"03566099999","2010-05-16T07:50:00","4","52.357167","-0.107833","41.14","WYTON, UK","FM-15","EGUY ","V020","230,1,N,0062,1","99999,9,9,Y","009900,1,N,1","+0090,1","+0050,1","99999,9",,,,,,"10149,1,99999,9",,,,,"MET049METAR EGUY 160750Z 23012KT CAVOK 09/05 Q1015 BLU;",
"03566099999","2010-05-16T08:50:00","4","52.357167","-0.107833","41.14","WYTON, UK","FM-15","EGUY ","V020","050,1,N,0051,1","99999,9,9,Y","009900,1,N,1","+0110,1","+0060,1","99999,9",,,,,,"10149,1,99999,9",,,,,"MET049METAR EGUY 160850Z 05010KT CAVOK 11/06 Q1015 BLU;",
"03566099999","2010-05-16T10:50:00","4","52.357167","-0.107833","41.14","WYTON, UK","FM-15","EGUY ","V020","240,1,N,0062,1","22000,1,9,N","011265,1,N,1","+0130,1","+0080,1","99999,9","04,5,+00750,1,99,9",,,,"04,99,1,99,9,99,9,99999,9,99,9,99,9","10149,1,99999,9",,,,,"MET055METAR EGUY 161050Z 24012KT 9999 SCT025 13/08 Q1015 BLU;",
"03566099999","2010-05-16T11:50:00","4","52.357167","-0.107833","41.14","WYTON, UK","FM-15","EGUY ","V020","240,1,N,0051,1","01200,1,C,N","011265,1,N,1","+0140,1","+0070,1","99999,9","02,5,+00840,1,99,9","07,5,+01200,1,99,9",,,"07,99,1,99,9,99,9,99999,9,99,9,99,9","10149,1,99999,9",,,,,"MET062METAR EGUY 161150Z 24010KT 9999 FEW028 BKN040 14/07 Q1015 BLU;",
"03566099999","2010-05-16T12:50:00","4","52.357167","-0.107833","41.14","WYTON, UK","FM-15","EGUY ","V020","270,1,N,0067,1","22000,1,9,N","011265,1,N,1","+0160,1","+0080,1","99999,9","04,5,+00840,1,99,9",,,,"04,99,1,99,9,99,9,99999,9,99,9,99,9","10149,1,99999,9",,,,,"MET055METAR EGUY 161250Z 27013KT 9999 SCT028 16/08 Q1015 BLU;",
"03566099999","2010-05-16T13:50:00","4","52.357167","-0.107833","41.14","WYTON, UK","FM-15","EGUY ","V020","270,1,N,0067,1","22000,1,9,N","011265,1,N,1","+0160,1","+0070,1","99999,9","04,5,+01050,1,99,9",,,,"04,99,1,99,9,99,9,99999,9,99,9,99,9","10149,1,99999,9",,,,,"MET055METAR EGUY 161350Z 27013KT 9999 SCT035 16/07 Q1015 BLU;",
"03566099999","2010-05-16T14:50:00","4","52.357167","-0.107833","41.14","WYTON, UK","FM-15","EGUY ","V020","280,1,N,0062,1","22000,1,9,N","011265,1,N,1","+0160,1","+0060,1","99999,9","04,5,+01200,1,99,9",,,,"04,99,1,99,9,99,9,99999,9,99,9,99,9","10149,1,99999,9",,,,,"MET055METAR EGUY 161450Z 28012KT 9999 SCT040 16/06 Q1015 BLU;",
"03566099999","2010-05-17T06:50:00","4","52.357167","-0.107833","41.14","WYTON, UK","FM-15","EGUY ","V020","260,1,N,0036,1","02700,1,C,N","011265,1,N,1","+0090,1","+0070,1","99999,9","02,5,+01200,1,99,9","07,5,+02700,1,99,9",,,"07,99,1,99,9,99,9,99999,9,99,9,99,9","10220,1,99999,9",,,,,"MET062METAR EGUY 170650Z 26007KT 9999 FEW040 BKN090 09/07 Q1022 BLU;",
"03566099999","2010-05-17T07:50:00","4","52.357167","-0.107833","41.14","WYTON, UK","FM-15","EGUY ","V020","270,1,N,0046,1","02700,1,C,N","011265,1,N,1","+0100,1","+0080,1","99999,9","02,5,+01200,1,99,9","07,5,+02700,1,99,9",,,"07,99,1,99,9,99,9,99999,9,99,9,99,9","10220,1,99999,9",,,,,"MET062METAR EGUY 170750Z 27009KT 9999 FEW040 BKN090 10/08 Q1022 BLU;",
"03566099999","2010-05-17T08:50:00","4","52.357167","-0.107833","41.14","WYTON, UK","FM-15","EGUY ","V020","280,1,N,0046,1","99999,9,C,N","011265,1,N,1","+0120,1","+0070,1","99999,9","02,5,+00600,1,99,9","04,5,+02400,1,99,9",,,"04,99,1,99,9,99,9,99999,9,99,9,99,9","10230,1,99999,9",,,,,"MET062METAR EGUY 170850Z 28009KT 9999 FEW020 SCT080 12/07 Q1023 BLU;","P01 024003SCOCIG"
"03566099999","2010-05-17T09:50:00","4","52.357167","-0.107833","41.14","WYTON, UK","FM-15","EGUY ","V020","280,1,N,0057,1","22000,1,9,N","011265,1,N,1","+0130,1","+0050,1","99999,9","04,5,+00900,1,99,9",,,,"04,99,1,99,9,99,9,99999,9,99,9,99,9","10230,1,99999,9",,,,,"MET055METAR EGUY 170950Z 28011KT 9999 SCT030 13/05 Q1023 BLU;",
"03566099999","2010-05-17T10:50:00","4","52.357167","-0.107833","41.14","WYTON, UK","FM-15","EGUY ","V020","290,1,N,0072,1","22000,1,9,N","011265,1,N,1","+0140,1","+0050,1","99999,9","04,5,+00900,1,99,9",,,,"04,99,1,99,9,99,9,99999,9,99,9,99,9","10230,1,99999,9",,,,,"MET055METAR EGUY 171050Z 29014KT 9999 SCT030 14/05 Q1023 BLU;",
"03566099999","2010-05-17T11:50:00","4","52.357167","-0.107833","41.14","WYTON, UK","FM-15","EGUY ","V020","330,1,N,0067,1","22000,1,9,N","011265,1,N,1","+0150,1","+0050,1","99999,9","04,5,+01200,1,99,9",,,,"04,99,1,99,9,99,9,99999,9,99,9,99,9","10230,1,99999,9",,,,,"MET055METAR EGUY 171150Z 33013KT 9999 SCT040 15/05 Q1023 BLU;",
"03566099999","2010-05-17T12:50:00","4","52.357167","-0.107833","41.14","WYTON, UK","FM-15","EGUY ","V020","310,1,N,0062,1","22000,1,9,N","011265,1,N,1","+0160,1","+0050,1","99999,9","04,5,+01200,1,99,9",,,,"04,99,1,99,9,99,9,99999,9,99,9,99,9","10240,1,99999,9",,,,,"MET055METAR EGUY 171250Z 31012KT 9999 SCT040 16/05 Q1024 BLU;",
"03566099999","2010-05-18T06:50:00","4","52.357167","-0.107833","41.14","WYTON, UK","FM-15","EGUY ","V020","090,1,N,0015,1","22000,1,9,N","007000,1,N,1","+0100,1","+0080,1","99999,9","02,5,+07500,1,99,9",,,,"02,99,1,99,9,99,9,99999,9,99,9,99,9","10291,1,99999,9","05,1",,,,"MET058METAR EGUY 180650Z 09003KT 7000 HZ FEW250 10/08 Q1029 WHT;",
"03566099999","2010-05-18T07:50:00","4","52.357167","-0.107833","41.14","WYTON, UK","FM-15","EGUY ","V020","100,1,N,0015,1","22000,1,9,N","009000,1,N,1","+0120,1","+0090,1","99999,9","02,5,+07500,1,99,9",,,,"02,99,1,99,9,99,9,99999,9,99,9,99,9","10291,1,99999,9","05,1",,,,"MET058METAR EGUY 180750Z 10003KT 9000 HZ FEW250 12/09 Q1029 BLU;",
"03566099999","2010-05-18T08:50:00","4","52.357167","-0.107833","41.14","WYTON, UK","FM-15","EGUY ","V020","110,1,N,0026,1","99999,9,9,Y","009900,1,N,1","+0140,1","+0080,1","99999,9",,,,,,"10291,1,99999,9",,,,,"MET049METAR EGUY 180850Z 11005KT CAVOK 14/08 Q1029 BLU;",
"03566099999","2010-05-18T10:50:00","4","52.357167","-0.107833","41.14","WYTON, UK","FM-15","EGUY ","V020","070,1,N,0051,1","22000,1,9,N","011265,1,N,1","+0160,1","+9999,9","99999,9","02,5,+01350,1,99,9",,,,"02,99,1,99,9,99,9,99999,9,99,9,99,9","10291,1,99999,9",,,,,"MET055METAR EGUY 181050Z 07010KT 9999 FEW045 16/// Q1029 BLU;",
"03566099999","2010-05-18T11:50:00","4","52.357167","-0.107833","41.14","WYTON, UK","FM-15","EGUY ","V020","999,9,V,0010,1","22000,1,9,N","011265,1,N,1","+0170,1","+0050,1","99999,9","04,5,+00900,1,99,9",,,,"04,99,1,99,9,99,9,99999,9,99,9,99,9","10291,1,99999,9",,,,,"MET055METAR EGUY 181150Z VRB02KT 9999 SCT030 17/05 Q1029 BLU;",
"03566099999","2010-05-19T06:50:00","4","52.357167","-0.107833","41.14","WYTON, UK","FM-15","EGUY ","V020","210,1,N,0036,1","22000,1,9,N","007000,1,N,1","+0110,1","+0080,1","99999,9","02,5,+06000,1,99,9",,,,"02,99,1,99,9,99,9,99999,9,99,9,99,9","10291,1,99999,9","05,1",,,,"MET058METAR EGUY 190650Z 21007KT 7000 HZ FEW200 11/08 Q1029 WHT;",
"03566099999","2010-05-19T07:50:00","4","52.357167","-0.107833","41.14","WYTON, UK","FM-15","EGUY ","V020","230,1,N,0031,1","99999,9,9,Y","009900,1,N,1","+0130,1","+0090,1","99999,9",,,,,,"10291,1,99999,9",,,,,"MET049METAR EGUY 190750Z 23006KT CAVOK 13/09 Q1029 BLU;",
"03566099999","2010-05-19T08:50:00","4","52.357167","-0.107833","41.14","WYTON, UK","FM-15","EGUY ","V020","220,1,N,0031,1","99999,9,9,Y","009900,1,N,1","+0150,1","+0100,1","99999,9",,,,,,"10291,1,99999,9",,,,,"MET049METAR EGUY 190850Z 22006KT CAVOK 15/10 Q1029 BLU;",
"03566099999","2010-05-19T09:50:00","4","52.357167","-0.107833","41.14","WYTON, UK","FM-15","EGUY ","V020","170,1,N,0031,1","99999,9,9,Y","009900,1,N,1","+0170,1","+0100,1","99999,9",,,,,,"10291,1,99999,9",,,,,"MET049METAR EGUY 190950Z 17006KT CAVOK 17/10 Q1029 BLU;",
"03566099999","2010-05-19T10:50:00","4","52.357167","-0.107833","41.14","WYTON, UK","FM-15","EGUY ","V020","200,1,N,0031,1","99999,9,C,N","011265,1,N,1","+0190,1","+0100,1","99999,9","02,5,+01080,1,99,9","04,5,+06000,1,99,9",,,"04,99,1,99,9,99,9,99999,9,99,9,99,9","10291,1,99999,9",,,,,"MET062METAR EGUY 191050Z 20006KT 9999 FEW036 SCT200 19/10 Q1029 BLU;","P01 060003SCOCIG"
"03566099999","2010-05-19T11:50:00","4","52.357167","-0.107833","41.14","WYTON, UK","FM-15","EGUY ","V020","200,1,N,0041,1","99999,9,C,N","011265,1,N,1","+0190,1","+0100,1","99999,9","04,5,+01080,1,99,9","04,5,+06000,1,99,9",,,"04,99,1,99,9,99,9,99999,9,99,9,99,9","10291,1,99999,9",,,,,"MET062METAR EGUY 191150Z 20008KT 9999 SCT036 SCT200 19/10 Q1029 BLU;","P01 060003SCOCIG"
"03566099999","2010-05-19T12:50:00","4","52.357167","-0.107833","41.14","WYTON, UK","FM-15","EGUY ","V020","230,1,N,0041,1","01800,1,C,N","011265,1,N,1","+0190,1","+0100,1","99999,9","04,5,+01200,1,99,9","07,5,+01800,1,99,9",,,"07,99,1,99,9,99,9,99999,9,99,9,99,9","10291,1,99999,9",,,,,"MET058METAR EGUY 191250Z 23008KT 9999 SCT040 BKN060 19/10 Q1029;",
"03566099999","2010-05-19T13:50:00","4","52.357167","-0.107833","41.14","WYTON, UK","FM-15","EGUY ","V020","220,1,N,0036,1","02100,1,C,N","011265,1,N,1","+0190,1","+0110,1","99999,9","02,5,+01050,1,99,9","08,5,+02100,1,99,9",,,"08,99,1,99,9,99,9,99999,9,99,9,99,9","10291,1,99999,9",,,,,"MET062METAR EGUY 191350Z 22007KT 9999 FEW035 OVC070 19/11 Q1029 BLU;",
"03566099999","2010-05-19T14:50:00","4","52.357167","-0.107833","41.14","WYTON, UK","FM-15","EGUY ","V020","180,1,N,0031,1","02100,1,C,N","011265,1,N,1","+0190,1","+0110,1","99999,9","02,5,+01200,1,99,9","08,5,+02100,1,99,9",,,"08,99,1,99,9,99,9,99999,9,99,9,99,9","10291,1,99999,9",,,,,"MET062METAR EGUY 191450Z 18006KT 9999 FEW040 OVC070 19/11 Q1029 BLU;",
"03566099999","2010-05-20T07:50:00","4","52.357167","-0.107833","41.14","WYTON, UK","FM-15","EGUY ","V020","270,1,N,0031,1","01200,1,C,N","011265,1,N,1","+0150,1","+0130,1","99999,9","07,5,+01200,1,99,9",,,,"07,99,1,99,9,99,9,99999,9,99,9,99,9","10318,1,99999,9",,,,,"MET055METAR EGUY 200750Z 27006KT 9999 BKN040 15/13 Q1032 BLU;",
"03566099999","2010-05-20T08:50:00","4","52.357167","-0.107833","41.14","WYTON, UK","FM-15","EGUY ","V020","270,1,N,0026,1","01410,1,C,N","011265,1,N,1","+0160,1","+0130,1","99999,9","07,5,+01410,1,99,9",,,,"07,99,1,99,9,99,9,99999,9,99,9,99,9","10318,1,99999,9",,,,,"MET055METAR EGUY 200850Z 27005KT 9999 BKN047 16/13 Q1032 BLU;",
"03566099999","2010-05-20T09:50:00","4","52.357167","-0.107833","41.14","WYTON, UK","FM-15","EGUY ","V020","010,1,N,0026,1","01500,1,C,N","011265,1,N,1","+0190,1","+0140,1","99999,9","02,5,+00600,1,99,9","07,5,+01500,1,99,9",,,"07,99,1,99,9,99,9,99999,9,99,9,99,9","10318,1,99999,9",,,,,"MET062METAR EGUY 200950Z 01005KT 9999 FEW020 BKN050 19/14 Q1032 BLU;",
"03566099999","2010-05-20T10:50:00","4","52.357167","-0.107833","41.14","WYTON, UK","FM-15","EGUY ","V020","999,9,V,0015,1","00750,1,C,N","011265,1,N,1","+0200,1","+0140,1","99999,9","07,5,+00750,1,99,9",,,,"07,99,1,99,9,99,9,99999,9,99,9,99,9","10318,1,99999,9",,,,,"MET055METAR EGUY 201050Z VRB03KT 9999 BKN025 20/14 Q1032 BLU;",
"03566099999","2010-05-20T11:50:00","4","52.357167","-0.107833","41.14","WYTON, UK","FM-15","EGUY ","V020","999,9,V,0015,1","99999,9,C,N","011265,1,N,1","+0210,1","+0130,1","99999,9","04,5,+00960,1,99,9","04,5,+07500,1,99,9",,,"04,99,1,99,9,99,9,99999,9,99,9,99,9","10318,1,99999,9",,,,,"MET062METAR EGUY 201150Z VRB03KT 9999 SCT032 SCT250 21/13 Q1032 BLU;","P01 075003SCOCIG"
"03566099999","2010-05-20T12:50:00","4","52.357167","-0.107833","41.14","WYTON, UK","FM-15","EGUY ","V020","350,1,N,0031,1","99999,9,C,N","011265,1,N,1","+0210,1","+0120,1","99999,9","02,5,+01200,1,99,9","04,5,+01800,1,99,9",,,"04,99,1,99,9,99,9,99999,9,99,9,99,9","10318,1,99999,9",,,,,"MET062METAR EGUY 201250Z 35006KT 9999 FEW040 SCT060 21/12 Q1032 BLU;","P01 018003SCOCIG"
"03566099999","2010-05-20T13:50:00","4","52.357167","-0.107833","41.14","WYTON, UK","FM-15","EGUY ","V020","290,1,N,0031,1","99999,9,C,N","011265,1,N,1","+0220,1","+0120,1","99999,9","02,5,+01200,1,99,9","04,5,+01800,1,99,9",,,"04,99,1,99,9,99,9,99999,9,99,9,99,9","10318,1,99999,9",,,,,"MET062METAR EGUY 201350Z 29006KT 9999 FEW040 SCT060 22/12 Q1032 BLU;","P01 018003SCOCIG"
"03566099999","2010-05-20T14:50:00","4","52.357167","-0.107833","41.14","WYTON, UK","FM-15","EGUY ","V020","290,1,N,0031,1","99999,9,C,N","011265,1,N,1","+0230,1","+0130,1","99999,9","04,5,+01200,1,99,9","04,5,+01800,1,99,9",,,"04,99,1,99,9,99,9,99999,9,99,9,99,9","10312,1,99999,9",,,,,"MET062METAR EGUY 201450Z 29006KT 9999 SCT040 SCT060 23/13 Q1031 BLU;","P01 018003SCOCIG"
"03566099999","2010-05-21T06:50:00","4","52.357167","-0.107833","41.14","WYTON, UK","FM-15","EGUY ","V020","360,1,N,0021,1","22000,1,9,N","007000,1,N,1","+0150,1","+0130,1","99999,9","02,5,+07500,1,99,9",,,,"02,99,1,99,9,99,9,99999,9,99,9,99,9","10318,1,99999,9","05,1",,,,"MET058METAR EGUY 210650Z 36004KT 7000 HZ FEW250 15/13 Q1032 WHT;",
"03566099999","2010-05-21T07:50:00","4","52.357167","-0.107833","41.14","WYTON, UK","FM-15","EGUY ","V020","040,1,N,0031,1","22000,1,9,N","008000,1,N,1","+0170,1","+0130,1","99999,9","02,5,+07500,1,99,9",,,,"02,99,1,99,9,99,9,99999,9,99,9,99,9","10318,1,99999,9","05,1",,,,"MET058METAR EGUY 210750Z 04006KT 8000 HZ FEW250 17/13 Q1032 WHT;",
"03566099999","2010-05-21T08:50:00","4","52.357167","-0.107833","41.14","WYTON, UK","FM-15","EGUY ","V020","030,1,N,0031,1","99999,9,C,N","011265,1,N,1","+0190,1","+0140,1","99999,9","02,5,+00600,1,99,9","04,5,+07500,1,99,9",,,"04,99,1,99,9,99,9,99999,9,99,9,99,9","10318,1,99999,9",,,,,"MET062METAR EGUY 210850Z 03006KT 9999 FEW020 SCT250 19/14 Q1032 WHT;","P01 075003SCOCIG"
"03566099999","2010-05-21T09:50:00","4","52.357167","-0.107833","41.14","WYTON, UK","FM-15","EGUY ","V020","360,1,N,0036,1","22000,1,9,N","011265,1,N,1","+0210,1","+0140,1","99999,9","04,5,+00840,1,99,9",,,,"04,99,1,99,9,99,9,99999,9,99,9,99,9","10318,1,99999,9",,,,,"MET055METAR EGUY 210950Z 36007KT 9999 SCT028 21/14 Q1032 BLU;",
"03566099999","2010-05-21T10:50:00","4","52.357167","-0.107833","41.14","WYTON, UK","FM-15","EGUY ","V020","030,1,N,0046,1","99999,9,C,N","011265,1,N,1","+0210,1","+0130,1","99999,9","02,5,+00960,1,99,9","04,5,+07500,1,99,9",,,"04,99,1,99,9,99,9,99999,9,99,9,99,9","10318,1,99999,9",,,,,"MET062METAR EGUY 211050Z 03009KT 9999 FEW032 SCT250 21/13 Q1032 BLU;","P01 075003SCOCIG"
"03566099999","2010-05-21T11:50:00","4","52.357167","-0.107833","41.14","WYTON, UK","FM-15","EGUY ","V020","020,1,N,0051,1","99999,9,C,N","011265,1,N,1","+0220,1","+0120,1","99999,9","02,5,+01050,1,99,9","04,5,+07500,1,99,9",,,"04,99,1,99,9,99,9,99999,9,99,9,99,9","10318,1,99999,9",,,,,"MET062METAR EGUY 211150Z 02010KT 9999 FEW035 SCT250 22/12 Q1032 BLU;","P01 075003SCOCIG"
"03566099999","2010-05-21T12:50:00","4","52.357167","-0.107833","41.14","WYTON, UK","FM-15","EGUY ","V020","030,1,N,0051,1","07500,1,C,N","011265,1,N,1","+0230,1","+0120,1","99999,9","02,5,+01200,1,99,9","07,5,+07500,1,99,9",,,"07,99,1,99,9,99,9,99999,9,99,9,99,9","10318,1,99999,9",,,,,"MET062METAR EGUY 211250Z 03010KT 9999 FEW040 BKN250 23/12 Q1032 BLU;",
"03566099999","2010-05-21T13:50:00","4","52.357167","-0.107833","41.14","WYTON, UK","FM-15","EGUY ","V020","030,1,N,0041,1","07500,1,C,N","011265,1,N,1","+0230,1","+0120,1","99999,9","02,5,+01200,1,99,9","07,5,+07500,1,99,9",,,"07,99,1,99,9,99,9,99999,9,99,9,99,9","10318,1,99999,9",,,,,"MET062METAR EGUY 211350Z 03008KT 9999 FEW040 BKN250 23/12 Q1032 BLU;",
"03566099999","2010-05-21T14:50:00","4","52.357167","-0.107833","41.14","WYTON, UK","FM-15","EGUY ","V020","030,1,N,0051,1","07500,1,C,N","011265,1,N,1","+0220,1","+0120,1","99999,9","02,5,+01200,1,99,9","07,5,+07500,1,99,9",,,"07,99,1,99,9,99,9,99999,9,99,9,99,9","10312,1,99999,9",,,,,"MET062METAR EGUY 211450Z 03010KT 9999 FEW040 BKN250 22/12 Q1031 BLU;",
"03566099999","2010-05-22T06:50:00","4","52.357167","-0.107833","41.14","WYTON, UK","FM-15","EGUY ","V020","010,1,N,0021,1","00060,1,C,N","000500,1,N,1","+0100,1","+0100,1","99999,9","08,5,+00060,1,99,9",,,,"08,99,1,99,9,99,9,99999,9,99,9,99,9","10312,1,99999,9","44,1",,,,"MET058METAR EGUY 220650Z 01004KT 0500 FG OVC002 10/10 Q1031 RED;",
"03566099999","2010-05-22T07:50:00","4","52.357167","-0.107833","41.14","WYTON, UK","FM-15","EGUY ","V020","020,1,N,0026,1","99999,9,C,N","004000,1,N,1","+0110,1","+0110,1","99999,9","02,5,+00060,1,99,9","04,5,+00120,1,99,9",,,"04,99,1,99,9,99,9,99999,9,99,9,99,9","10312,1,99999,9","10,1",,,,"MET066METAR EGUY 220750Z 02005KT 4000 BR FEW002 SCT004 11/11 Q1031 YLO2;","P01 001203SCOCIG"
"03566099999","2010-05-22T08:20:00","4","52.357167","-0.107833","41.14","WYTON, UK","FM-15","EGUY ","V020","360,1,N,0021,1","22000,1,9,N","005000,1,N,1","+0130,1","+0120,1","99999,9","02,5,+00120,1,99,9",,,,"02,99,1,99,9,99,9,99999,9,99,9,99,9","10312,1,99999,9","10,1",,,,"MET058METAR EGUY 220820Z 36004KT 5000 BR FEW004 13/12 Q1031 WHT;",
"03566099999","2010-05-22T08:50:00","4","52.357167","-0.107833","41.14","WYTON, UK","FM-15","EGUY ","V020","040,1,N,0021,1","22000,1,9,N","008000,1,N,1","+0140,1","+0120,1","99999,9","02,5,+00120,1,99,9",,,,"02,99,1,99,9,99,9,99999,9,99,9,99,9","10312,1,99999,9","05,1",,,,"MET058METAR EGUY 220850Z 04004KT 8000 HZ FEW004 14/12 Q1031 BLU;",
"03566099999","2010-05-22T09:50:00","4","52.357167","-0.107833","41.14","WYTON, UK","FM-15","EGUY ","V020","030,1,N,0031,1","99999,9,9,Y","009900,1,N,1","+0170,1","+0120,1","99999,9",,,,,,"10312,1,99999,9",,,,,"MET049METAR EGUY 220950Z 03006KT CAVOK 17/12 Q1031 BLU;",
"03566099999","2010-05-22T10:50:00","4","52.357167","-0.107833","41.14","WYTON, UK","FM-15","EGUY ","V020","060,1,N,0031,1","99999,9,9,Y","009900,1,N,1","+0190,1","+0110,1","99999,9",,,,,,"10312,1,99999,9",,,,,"MET049METAR EGUY 221050Z 06006KT CAVOK 19/11 Q1031 BLU;",
"03566099999","2010-05-22T11:50:00","4","52.357167","-0.107833","41.14","WYTON, UK","FM-15","EGUY ","V020","020,1,N,0036,1","99999,9,9,Y","009900,1,N,1","+0200,1","+0100,1","99999,9",,,,,,"10301,1,99999,9",,,,,"MET049METAR EGUY 221150Z 02007KT CAVOK 20/10 Q1030 BLU;",
"03566099999","2010-05-22T12:50:00","4","52.357167","-0.107833","41.14","WYTON, UK","FM-15","EGUY ","V020","060,1,N,0021,1","99999,9,9,Y","009900,1,N,1","+0210,1","+0110,1","99999,9",,,,,,"10301,1,99999,9",,,,,"MET049METAR EGUY 221250Z 06004KT CAVOK 21/11 Q1030 BLU;",
"03566099999","2010-05-22T13:50:00","4","52.357167","-0.107833","41.14","WYTON, UK","FM-15","EGUY ","V020","020,1,N,0031,1","99999,9,9,Y","009900,1,N,1","+0220,1","+0110,1","99999,9",,,,,,"10291,1,99999,9",,,,,"MET049METAR EGUY 221350Z 02006KT CAVOK 22/11 Q1029 BLU;",
"03566099999","2010-05-22T14:50:00","4","52.357167","-0.107833","41.14","WYTON, UK","FM-15","EGUY ","V020","050,1,N,0026,1","99999,9,9,Y","009900,1,N,1","+0230,1","+0100,1","99999,9",,,,,,"10291,1,99999,9",,,,,"MET049METAR EGUY 221450Z 05005KT CAVOK 23/10 Q1029 BLU;",
"03566099999","2010-05-23T06:50:00","4","52.357167","-0.107833","41.14","WYTON, UK","FM-15","EGUY ","V020","220,1,N,0026,1","99999,9,9,Y","009900,1,N,1","+0160,1","+0120,1","99999,9",,,,,,"10261,1,99999,9",,,,,"MET049METAR EGUY 230650Z 22005KT CAVOK 16/12 Q1026 BLU;",
"03566099999","2010-05-23T07:50:00","4","52.357167","-0.107833","41.14","WYTON, UK","FM-15","EGUY ","V020","240,1,N,0026,1","99999,9,9,Y","009900,1,N,1","+0180,1","+0130,1","99999,9",,,,,,"10261,1,99999,9",,,,,"MET049METAR EGUY 230750Z 24005KT CAVOK 18/13 Q1026 BLU;",
"03566099999","2010-05-23T08:50:00","4","52.357167","-0.107833","41.14","WYTON, UK","FM-15","EGUY ","V020","250,1,N,0031,1","99999,9,9,Y","009900,1,N,1","+0200,1","+0120,1","99999,9",,,,,,"10261,1,99999,9",,,,,"MET049METAR EGUY 230850Z 25006KT CAVOK 20/12 Q1026 BLU;",
"03566099999","2010-05-23T09:50:00","4","52.357167","-0.107833","41.14","WYTON, UK","FM-15","EGUY ","V020","230,1,N,0031,1","99999,9,9,Y","009900,1,N,1","+0220,1","+0130,1","99999,9",,,,,,"10251,1,99999,9",,,,,"MET049METAR EGUY 230950Z 23006KT CAVOK 22/13 Q1025 BLU;",
"03566099999","2010-05-23T10:50:00","4","52.357167","-0.107833","41.14","WYTON, UK","FM-15","EGUY ","V020","210,1,N,0031,1","99999,9,9,Y","009900,1,N,1","+0230,1","+0130,1","99999,9",,,,,,"10251,1,99999,9",,,,,"MET049METAR EGUY 231050Z 21006KT CAVOK 23/13 Q1025 BLU;",
"03566099999","2010-05-23T11:50:00","4","52.357167","-0.107833","41.14","WYTON, UK","FM-15","EGUY ","V020","220,1,N,0041,1","99999,9,9,Y","009900,1,N,1","+0250,1","+0120,1","99999,9",,,,,,"10240,1,99999,9",,,,,"MET049METAR EGUY 231150Z 22008KT CAVOK 25/12 Q1024 BLU;",
"03566099999","2010-05-23T12:50:00","4","52.357167","-0.107833","41.14","WYTON, UK","FM-15","EGUY ","V020","200,1,N,0041,1","99999,9,9,Y","009900,1,N,1","+0250,1","+0110,1","99999,9",,,,,,"10230,1,99999,9",,,,,"MET049METAR EGUY 231250Z 20008KT CAVOK 25/11 Q1023 BLU;",
"03566099999","2010-05-23T13:50:00","4","52.357167","-0.107833","41.14","WYTON, UK","FM-15","EGUY ","V020","220,1,N,0031,1","99999,9,9,Y","009900,1,N,1","+0260,1","+0110,1","99999,9",,,,,,"10230,1,99999,9",,,,,"MET049METAR EGUY 231350Z 22006KT CAVOK 26/11 Q1023 BLU;",
"03566099999","2010-05-23T14:50:00","4","52.357167","-0.107833","41.14","WYTON, UK","FM-15","EGUY ","V020","250,1,N,0041,1","99999,9,9,Y","009900,1,N,1","+0260,1","+0110,1","99999,9",,,,,,"10220,1,99999,9",,,,,"MET049METAR EGUY 231450Z 25008KT CAVOK 26/11 Q1022 BLU;",
"03566099999","2010-05-24T06:50:00","4","52.357167","-0.107833","41.14","WYTON, UK","FM-15","EGUY ","V020","260,1,N,0031,1","99999,9,9,Y","009900,1,N,1","+0180,1","+0140,1","99999,9",,,,,,"10159,1,99999,9",,,,,"MET049METAR EGUY 240650Z 26006KT CAVOK 18/14 Q1016 BLU;",
"03566099999","2010-05-24T07:50:00","4","52.357167","-0.107833","41.14","WYTON, UK","FM-15","EGUY ","V020","280,1,N,0036,1","99999,9,9,Y","009900,1,N,1","+0200,1","+0140,1","99999,9",,,,,,"10149,1,99999,9",,,,,"MET049METAR EGUY 240750Z 28007KT CAVOK 20/14 Q1015 BLU;",
"03566099999","2010-05-24T08:50:00","4","52.357167","-0.107833","41.14","WYTON, UK","FM-15","EGUY ","V020","300,1,N,0041,1","99999,9,9,Y","009900,1,N,1","+0210,1","+0120,1","99999,9",,,,,,"10149,1,99999,9",,,,,"MET049METAR EGUY 240850Z 30008KT CAVOK 21/12 Q1015 BLU;",
"03566099999","2010-05-24T09:50:00","4","52.357167","-0.107833","41.14","WYTON, UK","FM-15","EGUY ","V020","300,1,N,0036,1","99999,9,9,Y","009900,1,N,1","+0220,1","+0130,1","99999,9",,,,,,"10149,1,99999,9",,,,,"MET049METAR EGUY 240950Z 30007KT CAVOK 22/13 Q1015 BLU;",
"03566099999","2010-05-24T10:50:00","4","52.357167","-0.107833","41.14","WYTON, UK","FM-15","EGUY ","V020","300,1,N,0031,1","99999,9,9,Y","009900,1,N,1","+0230,1","+0130,1","99999,9",,,,,,"10139,1,99999,9",,,,,"MET049METAR EGUY 241050Z 30006KT CAVOK 23/13 Q1014 BLU;",
"03566099999","2010-05-24T11:50:00","4","52.357167","-0.107833","41.14","WYTON, UK","FM-15","EGUY ","V020","310,1,N,0031,1","99999,9,9,Y","009900,1,N,1","+0230,1","+0140,1","99999,9",,,,,,"10139,1,99999,9",,,,,"MET049METAR EGUY 241150Z 31006KT CAVOK 23/14 Q1014 BLU;",
"03566099999","2010-05-24T12:50:00","4","52.357167","-0.107833","41.14","WYTON, UK","FM-15","EGUY ","V020","300,1,N,0051,1","22000,1,9,N","011265,1,N,1","+0240,1","+0130,1","99999,9","02,5,+01350,1,99,9",,,,"02,99,1,99,9,99,9,99999,9,99,9,99,9","10129,1,99999,9",,,,,"MET055METAR EGUY 241250Z 30010KT 9999 FEW045 24/13 Q1013 BLU;",
"03566099999","2010-05-24T13:50:00","4","52.357167","-0.107833","41.14","WYTON, UK","FM-15","EGUY ","V020","340,1,N,0051,1","22000,1,9,N","011265,1,N,1","+0250,1","+0130,1","99999,9","04,5,+01350,1,99,9",,,,"04,99,1,99,9,99,9,99999,9,99,9,99,9","10129,1,99999,9",,,,,"MET055METAR EGUY 241350Z 34010KT 9999 SCT045 25/13 Q1013 BLU;",
"03566099999","2010-05-24T14:50:00","4","52.357167","-0.107833","41.14","WYTON, UK","FM-15","EGUY ","V020","020,1,N,0077,1","22000,1,9,N","011265,1,N,1","+0220,1","+0130,1","99999,9","02,5,+01350,1,99,9",,,,"02,99,1,99,9,99,9,99999,9,99,9,99,9","10129,1,99999,9",,,,,"MET055METAR EGUY 241450Z 02015KT 9999 FEW045 22/13 Q1013 BLU;",
"03566099999","2010-05-25T06:50:00","4","52.357167","-0.107833","41.14","WYTON, UK","FM-15","EGUY ","V020","060,1,N,0041,1","00300,1,C,N","011265,1,N,1","+0110,1","+0100,1","99999,9","07,5,+00300,1,99,9",,,,"07,99,1,99,9,99,9,99999,9,99,9,99,9","10139,1,99999,9",,,,,"MET055METAR EGUY 250650Z 06008KT 9999 BKN010 11/10 Q1014 GRN;",
"03566099999","2010-05-25T07:50:00","4","52.357167","-0.107833","41.14","WYTON, UK","FM-15","EGUY ","V020","070,1,N,0041,1","00360,1,C,N","011265,1,N,1","+0120,1","+0100,1","99999,9","07,5,+00360,1,99,9",,,,"07,99,1,99,9,99,9,99999,9,99,9,99,9","10139,1,99999,9",,,,,"MET055METAR EGUY 250750Z 07008KT 9999 BKN012 12/10 Q1014 GRN;",
"03566099999","2010-05-25T08:50:00","4","52.357167","-0.107833","41.14","WYTON, UK","FM-15","EGUY ","V020","070,1,N,0036,1","00330,1,C,N","011265,1,N,1","+0130,1","+0100,1","99999,9","07,5,+00330,1,99,9",,,,"07,99,1,99,9,99,9,99999,9,99,9,99,9","10139,1,99999,9",,,,,"MET055METAR EGUY 250850Z 07007KT 9999 BKN011 13/10 Q1014 GRN;",
"03566099999","2010-05-25T09:50:00","4","52.357167","-0.107833","41.14","WYTON, UK","FM-15","EGUY ","V020","090,1,N,0051,1","00600,1,C,N","011265,1,N,1","+0150,1","+0100,1","99999,9","07,5,+00600,1,99,9",,,,"07,99,1,99,9,99,9,99999,9,99,9,99,9","10139,1,99999,9",,,,,"MET055METAR EGUY 250950Z 09010KT 9999 BKN020 15/10 Q1014 WHT;",
"03566099999","2010-05-25T10:50:00","4","52.357167","-0.107833","41.14","WYTON, UK","FM-15","EGUY ","V020","070,1,N,0046,1","22000,1,9,N","011265,1,N,1","+0160,1","+0100,1","99999,9","04,5,+00660,1,99,9",,,,"04,99,1,99,9,99,9,99999,9,99,9,99,9","10139,1,99999,9",,,,,"MET055METAR EGUY 251050Z 07009KT 9999 SCT022 16/10 Q1014 WHT;",
"03566099999","2010-05-25T11:50:00","4","52.357167","-0.107833","41.14","WYTON, UK","FM-15","EGUY ","V020","080,1,N,0026,1","01500,1,C,N","011265,1,N,1","+0170,1","+0090,1","99999,9","02,5,+00960,1,99,9","07,5,+01500,1,99,9",,,"07,99,1,99,9,99,9,99999,9,99,9,99,9","10129,1,99999,9",,,,,"MET062METAR EGUY 251150Z 08005KT 9999 FEW032 BKN050 17/09 Q1013 BLU;",
"03566099999","2010-05-25T12:50:00","4","52.357167","-0.107833","41.14","WYTON, UK","FM-15","EGUY ","V020","110,1,N,0036,1","01650,5,C,N","011265,1,N,1","+0180,1","+0080,1","99999,9","02,5,+01200,1,99,9","07,5,+01650,5,99,9",,,"07,99,1,99,9,99,9,99999,9,99,9,99,9","10129,1,99999,9",,,,,"MET062METAR EGUY 251250Z 11007KT 9999 FEW040 BKN055 18/08 Q1013 BLU;",
"03566099999","2010-05-25T13:50:00","4","52.357167","-0.107833","41.14","WYTON, UK","FM-15","EGUY ","V020","070,1,N,0051,1","22000,1,9,N","011265,1,N,1","+0180,1","+0100,1","99999,9","02,5,+01200,1,99,9",,,,"02,99,1,99,9,99,9,99999,9,99,9,99,9","10129,1,99999,9",,,,,"MET055METAR EGUY 251350Z 07010KT 9999 FEW040 18/10 Q1013 BLU;",
"03566099999","2010-05-25T14:50:00","4","52.357167","-0.107833","41.14","WYTON, UK","FM-15","EGUY ","V020","080,1,N,0041,1","01500,1,C,N","011265,1,N,1","+0170,1","+0090,1","99999,9","02,5,+00750,1,99,9","07,5,+01500,1,99,9",,,"07,99,1,99,9,99,9,99999,9,99,9,99,9","10129,1,99999,9",,,,,"MET062METAR EGUY 251450Z 08008KT 9999 FEW025 BKN050 17/09 Q1013 BLU;",
"03566099999","2010-05-26T06:50:00","4","52.357167","-0.107833","41.14","WYTON, UK","FM-15","EGUY ","V020","060,1,N,0051,1","02100,1,C,N","011265,1,N,1","+0100,1","+0060,1","99999,9","02,5,+00480,1,99,9","02,5,+00480,5,99,9","07,5,+02100,5,99,9","07,5,+02100,5,99,9","07,99,1,99,9,99,9,99999,9,99,9,99,9","10110,1,99999,9",,,,,"MET082METAR EGUY 260650Z 06010KT 9999 FEW016 BKN070 10/06 FEW016 BKN070 10/06 Q1011 BLU;",
"03566099999","2010-05-26T07:50:00","4","52.357167","-0.107833","41.14","WYTON, UK","FM-15","EGUY ","V020","060,1,N,0057,1","02100,1,C,N","011265,1,N,1","+0110,1","+0050,1","99999,9","02,5,+00600,1,99,9","07,5,+02100,1,99,9",,,"07,99,1,99,9,99,9,99999,9,99,9,99,9","10108,1,99999,9",,,,,"MET062METAR EGUY 260750Z 06011KT 9999 FEW020 BKN070 11/05 Q1011 BLU;",
"03566099999","2010-05-26T08:50:00","4","52.357167","-0.107833","41.14","WYTON, UK","FM-15","EGUY ","V020","090,1,N,0057,1","02100,1,C,N","011265,1,N,1","+0120,1","+0050,1","99999,9","02,5,+00900,1,99,9","04,5,+02100,1,99,9","07,5,+07500,1,99,9",,"07,99,1,99,9,99,9,99999,9,99,9,99,9","10108,1,99999,9",,,,,"MET069METAR EGUY 260850Z 09011KT 9999 FEW030 SCT070 BKN250 12/05 Q1011 BLU;",
"03566099999","2010-05-26T09:50:00","4","52.357167","-0.107833","41.14","WYTON, UK","FM-15","EGUY ","V020","050,1,N,0051,1","02100,1,C,N","011265,1,N,1","+0130,1","+0060,1","99999,9","02,5,+00900,1,99,9","04,5,+02100,1,99,9","07,5,+07500,1,99,9",,"07,99,1,99,9,99,9,99999,9,99,9,99,9","10108,1,99999,9",,,,,"MET069METAR EGUY 260950Z 05010KT 9999 FEW030 SCT070 BKN250 13/06 Q1011 BLU;",
"03566099999","2010-05-26T10:50:00","4","52.357167","-0.107833","41.14","WYTON, UK","FM-15","EGUY ","V020","070,1,N,0051,1","02100,1,C,N","011265,1,N,1","+0140,1","+0060,1","99999,9","02,5,+00960,1,99,9","04,5,+02100,1,99,9","07,5,+07500,1,99,9",,"07,99,1,99,9,99,9,99999,9,99,9,99,9","10108,1,99999,9",,,,,"MET069METAR EGUY 261050Z 07010KT 9999 FEW032 SCT070 BKN250 14/06 Q1011 BLU;",
"03566099999","2010-05-26T11:50:00","4","52.357167","-0.107833","41.14","WYTON, UK","FM-15","EGUY ","V020","060,1,N,0046,1","02100,1,C,N","011265,1,N,1","+0140,1","+0050,1","99999,9","02,5,+01080,1,99,9","04,5,+02100,1,99,9","07,5,+04200,1,99,9",,"07,99,1,99,9,99,9,99999,9,99,9,99,9","10108,1,99999,9",,,,,"MET069METAR EGUY 261150Z 06009KT 9999 FEW036 SCT070 BKN140 14/05 Q1011 BLU;",
"03566099999","2010-05-26T12:50:00","4","52.357167","-0.107833","41.14","WYTON, UK","FM-15","EGUY ","V020","040,1,N,0026,1","04200,1,C,N","011265,1,N,1","+0140,1","+0050,1","99999,9","02,5,+01200,1,99,9","07,5,+04200,1,99,9",,,"07,99,1,99,9,99,9,99999,9,99,9,99,9","10108,1,99999,9",,,,,"MET062METAR EGUY 261250Z 04005KT 9999 FEW040 BKN140 14/05 Q1011 BLU;",
"03566099999","2010-05-26T13:50:00","4","52.357167","-0.107833","41.14","WYTON, UK","FM-15","EGUY ","V020","030,1,N,0026,1","04200,1,C,N","011265,1,N,1","+0140,1","+0050,1","99999,9","02,5,+01200,1,99,9","08,5,+04200,1,99,9",,,"08,99,1,99,9,99,9,99999,9,99,9,99,9","10102,1,99999,9",,,,,"MET062METAR EGUY 261350Z 03005KT 9999 FEW040 OVC140 14/05 Q1010 BLU;",
"03566099999","2010-05-26T14:50:00","4","52.357167","-0.107833","41.14","WYTON, UK","FM-15","EGUY ","V020","360,1,N,0031,1","04200,1,C,N","011265,1,N,1","+0140,1","+0070,1","99999,9","02,5,+01200,1,99,9","08,5,+04200,1,99,9",,,"08,99,1,99,9,99,9,99999,9,99,9,99,9","10102,1,99999,9",,,,,"MET062METAR EGUY 261450Z 36006KT 9999 FEW040 OVC140 14/07 Q1010 BLU;",
"03566099999","2010-05-27T06:50:00","4","52.357167","-0.107833","41.14","WYTON, UK","FM-15","EGUY ","V020","999,9,V,0015,1","00180,1,C,N","006000,1,N,1","+0090,1","+0090,1","99999,9","07,5,+00180,1,99,9",,,,"07,99,1,99,9,99,9,99999,9,99,9,99,9","10102,1,99999,9","10,1",,,,"MET059METAR EGUY 270650Z VRB03KT 6000 BR BKN006 09/09 Q1010 YLO1;",
"03566099999","2010-05-27T07:50:00","4","52.357167","-0.107833","41.14","WYTON, UK","FM-15","EGUY ","V020","290,1,N,0031,1","22000,1,9,N","009000,1,N,1","+0090,1","+0080,1","99999,9","04,5,+00240,1,99,9",,,,"04,99,1,99,9,99,9,99999,9,99,9,99,9","10102,1,99999,9","05,1",,,,"MET058METAR EGUY 270750Z 29006KT 9000 HZ SCT008 09/08 Q1010 GRN;",
"03566099999","2010-05-27T08:50:00","4","52.357167","-0.107833","41.14","WYTON, UK","FM-15","EGUY ","V020","320,1,N,0031,1","00360,1,C,N","011265,1,N,1","+0110,1","+0080,1","99999,9","07,5,+00360,1,99,9",,,,"07,99,1,99,9,99,9,99999,9,99,9,99,9","10102,1,99999,9",,,,,"MET055METAR EGUY 270850Z 32006KT 9999 BKN012 11/08 Q1010 GRN;",
"03566099999","2010-05-27T09:15:00","4","52.357167","-0.107833","41.14","WYTON, UK","FM-15","EGUY ","V020","330,1,N,0031,1","22000,1,9,N","011265,1,N,1","+0120,1","+0070,1","99999,9","04,5,+00540,1,99,9",,,,"04,99,1,99,9,99,9,99999,9,99,9,99,9","10102,1,99999,9",,,,,"MET055METAR EGUY 270915Z 33006KT 9999 SCT018 12/07 Q1010 WHT;",
"03566099999","2010-05-27T09:50:00","4","52.357167","-0.107833","41.14","WYTON, UK","FM-15","EGUY ","V020","999,9,V,0015,1","99999,9,C,N","011265,1,N,1","+0120,1","+0060,1","99999,9","02,5,+00600,1,99,9","04,5,+00750,1,99,9",,,"04,99,1,99,9,99,9,99999,9,99,9,99,9","10102,1,99999,9",,,,,"MET062METAR EGUY 270950Z VRB03KT 9999 FEW020 SCT025 12/06 Q1010 BLU;","P01 007503SCOCIG"
"03566099999","2010-05-27T10:50:00","4","52.357167","-0.107833","41.14","WYTON, UK","FM-15","EGUY ","V020","310,1,N,0031,1","99999,9,C,N","011265,1,N,1","+0130,1","+0060,1","99999,9","02,5,+00900,1,99,9","04,5,+01050,1,99,9",,,"04,99,1,99,9,99,9,99999,9,99,9,99,9","10102,1,99999,9",,,,,"MET062METAR EGUY 271050Z 31006KT 9999 FEW030 SCT035 13/06 Q1010 BLU;","P01 010503SCOCIG"
"03566099999","2010-05-27T11:50:00","4","52.357167","-0.107833","41.14","WYTON, UK","FM-15","EGUY ","V020","300,1,N,0031,1","99999,9,C,N","011265,1,N,1","+0130,1","+0050,1","99999,9","02,5,+00960,1,99,9","04,5,+01050,1,99,9",,,"04,99,1,99,9,99,9,99999,9,99,9,99,9","10091,1,99999,9",,,,,"MET062METAR EGUY 271150Z 30006KT 9999 FEW032 SCT035 13/05 Q1009 BLU;","P01 010503SCOCIG"
"03566099999","2010-05-27T12:50:00","4","52.357167","-0.107833","41.14","WYTON, UK","FM-15","EGUY ","V020","280,1,N,0057,1","01080,1,C,N","011265,1,N,1","+0140,1","+0050,1","99999,9","02,5,+00900,1,99,9","07,5,+01080,1,99,9",,,"07,99,1,99,9,99,9,99999,9,99,9,99,9","10091,1,99999,9",,,,,"MET062METAR EGUY 271250Z 28011KT 9999 FEW030 BKN036 14/05 Q1009 BLU;",
"03566099999","2010-05-27T13:50:00","4","52.357167","-0.107833","41.14","WYTON, UK","FM-15","EGUY ","V020","290,1,N,0041,1","01200,1,C,N","011265,1,N,1","+0140,1","+0040,1","99999,9","02,5,+00900,1,99,9","07,5,+01200,1,99,9",,,"07,99,1,99,9,99,9,99999,9,99,9,99,9","10091,1,99999,9",,,,,"MET062METAR EGUY 271350Z 29008KT 9999 FEW030 BKN040 14/04 Q1009 BLU;",
"03566099999","2010-05-27T14:50:00","4","52.357167","-0.107833","41.14","WYTON, UK","FM-15","EGUY ","V020","280,1,N,0062,1","01350,1,C,N","011265,1,N,1","+0140,1","+0040,1","99999,9","07,5,+01350,1,99,9",,,,"07,99,1,99,9,99,9,99999,9,99,9,99,9","10091,1,99999,9",,,,,"MET055METAR EGUY 271450Z 28012KT 9999 BKN045 14/04 Q1009 BLU;",
"03566099999","2010-05-28T06:50:00","4","52.357167","-0.107833","41.14","WYTON, UK","FM-15","EGUY ","V020","280,1,N,0051,1","22000,1,9,N","011265,1,N,1","+0110,1","+0070,1","99999,9","02,5,+00480,1,99,9",,,,"02,99,1,99,9,99,9,99999,9,99,9,99,9","10119,1,99999,9",,,,,"MET055METAR EGUY 280650Z 28010KT 9999 FEW016 11/07 Q1012 BLU;",
"03566099999","2010-05-28T07:50:00","4","52.357167","-0.107833","41.14","WYTON, UK","FM-15","EGUY ","V020","280,1,N,0062,1","22000,1,9,N","011265,1,N,1","+0120,1","+0050,1","99999,9","02,5,+00840,1,99,9",,,,"02,99,1,99,9,99,9,99999,9,99,9,99,9","10129,1,99999,9",,,,,"MET055METAR EGUY 280750Z 28012KT 9999 FEW028 12/05 Q1013 BLU;",
"03566099999","2010-05-28T08:50:00","4","52.357167","-0.107833","41.14","WYTON, UK","FM-15","EGUY ","V020","290,1,N,0062,1","22000,1,9,N","011265,1,N,1","+0130,1","+0040,1","99999,9","04,5,+01080,1,99,9",,,,"04,99,1,99,9,99,9,99999,9,99,9,99,9","10129,1,99999,9",,,,,"MET055METAR EGUY 280850Z 29012KT 9999 SCT036 13/04 Q1013 BLU;",
"03566099999","2010-05-28T10:50:00","4","52.357167","-0.107833","41.14","WYTON, UK","FM-15","EGUY ","V020","280,1,N,0041,1","22000,1,9,N","011265,1,N,1","+0140,1","+0030,1","99999,9","02,5,+01200,1,99,9",,,,"02,99,1,99,9,99,9,99999,9,99,9,99,9","10139,1,99999,9",,,,,"MET055METAR EGUY 281050Z 28008KT 9999 FEW040 14/03 Q1014 BLU;",
"03566099999","2010-05-28T11:50:00","4","52.357167","-0.107833","41.14","WYTON, UK","FM-15","EGUY ","V020","270,1,N,0051,1","22000,1,9,N","011265,1,N,1","+0150,1","+0030,1","99999,9","02,5,+01350,1,99,9",,,,"02,99,1,99,9,99,9,99999,9,99,9,99,9","10139,1,99999,9",,,,,"MET055METAR EGUY 281150Z 27010KT 9999 FEW045 15/03 Q1014 BLU;",
"03566099999","2010-05-28T12:50:00","4","52.357167","-0.107833","41.14","WYTON, UK","FM-15","EGUY ","V020","240,1,N,0051,1","22000,1,9,N","009900,1,N,1","+0160,1","+0030,1","99999,9",,,,,,"10140,1,99999,9",,,,,"MET048METAR EGUY 281250Z 24010KT AVOK 16/03 Q1014 BLU;",
"03566099999","2010-05-28T13:50:00","4","52.357167","-0.107833","41.14","WYTON, UK","FM-15","EGUY ","V020","270,1,N,0041,1","99999,9,9,Y","009900,1,N,1","+0160,1","+0030,1","99999,9",,,,,,"10139,1,99999,9",,,,,"MET049METAR EGUY 281350Z 27008KT CAVOK 16/03 Q1014 BLU;",
"03566099999","2010-05-28T14:50:00","4","52.357167","-0.107833","41.14","WYTON, UK","FM-15","EGUY ","V020","240,1,N,0051,1","99999,9,9,Y","009900,1,N,1","+0160,1","+0030,1","99999,9",,,,,,"10139,1,99999,9",,,,,"MET049METAR EGUY 281450Z 24010KT CAVOK 16/03 Q1014 BLU;",
"03566099999","2010-06-01T06:50:00","4","52.357167","-0.107833","41.14","WYTON, UK","FM-15","EGUY ","V020","120,1,N,0021,1","01350,1,C,N","003800,1,N,1","+0100,1","+0100,1","99999,9","02,5,+00300,1,99,9","04,5,+01350,1,99,9","08,5,+05400,1,99,9",,"08,99,1,99,9,99,9,99999,9,99,9,99,9","10169,1,99999,9","10,1",,,,"MET072METAR EGUY 010650Z 12004KT 3800 BR FEW010 SCT045 OVC180 10/10 Q1017 GRN;",
"03566099999","2010-06-01T07:50:00","4","52.357167","-0.107833","41.14","WYTON, UK","FM-15","EGUY ","V020","120,1,N,0026,1","01350,1,C,N","004500,1,N,1","+0100,1","+0100,1","99999,9","07,5,+01350,1,99,9","08,5,+03900,1,99,9",,,"08,99,1,99,9,99,9,99999,9,99,9,99,9","10169,1,99999,9","10,1",,,,"MET065METAR EGUY 010750Z 12005KT 4500 BR BKN045 OVC130 10/10 Q1017 GRN;",
"03566099999","2010-06-01T08:50:00","4","52.357167","-0.107833","41.14","WYTON, UK","FM-15","EGUY ","V020","120,1,N,0021,1","01350,1,C,N","005000,1,N,1","+0110,1","+0110,1","99999,9","07,5,+01350,1,99,9","08,5,+03900,1,99,9",,,"08,99,1,99,9,99,9,99999,9,99,9,99,9","10169,1,99999,9","10,1",,,,"MET065METAR EGUY 010850Z 12004KT 5000 BR BKN045 OVC130 11/11 Q1017 WHT;",
"03566099999","2010-06-01T09:50:00","4","52.357167","-0.107833","41.14","WYTON, UK","FM-15","EGUY ","V020","150,1,N,0026,1","01350,1,C,N","006000,1,N,1","+0120,1","+0110,1","99999,9","07,5,+01350,1,99,9","08,5,+03900,1,99,9",,,"08,99,1,99,9,99,9,99999,9,99,9,99,9","10159,1,99999,9","05,1",,,,"MET065METAR EGUY 010950Z 15005KT 6000 HZ BKN045 OVC130 12/11 Q1016 WHT;",
"03566099999","2010-06-01T10:50:00","4","52.357167","-0.107833","41.14","WYTON, UK","FM-15","EGUY ","V020","140,1,N,0031,1","00750,1,C,N","007000,1,N,1","+0130,1","+0120,1","99999,9","02,5,+00360,1,99,9","07,5,+00750,1,99,9",,,"07,99,1,99,9,99,9,99999,9,99,9,99,9","10159,1,99999,9","61,1",,,,"MET066METAR EGUY 011050Z 14006KT 7000 -RA FEW012 BKN025 13/12 Q1016 WHT;",
"03566099999","2010-06-01T11:50:00","4","52.357167","-0.107833","41.14","WYTON, UK","FM-15","EGUY ","V020","150,1,N,0026,1","00900,1,C,N","007000,1,N,1","+0130,1","+0130,1","99999,9","04,5,+00240,1,99,9","07,5,+00900,1,99,9",,,"07,99,1,99,9,99,9,99999,9,99,9,99,9","10159,1,99999,9","61,1",,,,"MET066METAR EGUY 011150Z 15005KT 7000 -RA SCT008 BKN030 13/13 Q1016 GRN;",
"03566099999","2010-06-01T12:50:00","4","52.357167","-0.107833","41.14","WYTON, UK","FM-15","EGUY ","V020","160,1,N,0015,1","00750,1,C,N","008000,1,N,1","+0130,1","+0120,1","99999,9","04,5,+00240,1,99,9","07,5,+00750,1,99,9",,,"07,99,1,99,9,99,9,99999,9,99,9,99,9","10159,1,99999,9","61,1",,,,"MET066METAR EGUY 011250Z 16003KT 8000 -RA SCT008 BKN025 13/12 Q1016 GRN;",
"03566099999","2010-06-01T13:50:00","4","52.357167","-0.107833","41.14","WYTON, UK","FM-15","EGUY ","V020","150,1,N,0010,1","01350,1,C,N","007000,1,N,1","+0130,1","+0120,1","99999,9","04,5,+00210,1,99,9","08,5,+01350,1,99,9",,,"08,99,1,99,9,99,9,99999,9,99,9,99,9","10159,1,99999,9","63,1",,,,"MET065METAR EGUY 011350Z 15002KT 7000 RA SCT007 OVC045 13/12 Q1016 GRN;",
"03566099999","2010-06-02T06:50:00","4","52.357167","-0.107833","41.14","WYTON, UK","FM-15","EGUY ","V020","999,9,V,0015,1","99999,9,C,N","006000,1,N,1","+0100,1","+0100,1","99999,9","04,5,+00090,1,99,9","04,5,+07500,1,99,9",,,"04,99,1,99,9,99,9,99999,9,99,9,99,9","10220,1,99999,9","10,1",,,,"MET066METAR EGUY 020650Z VRB03KT 6000 BR SCT003 SCT250 10/10 Q1022 YLO2;","P01 075003SCOCIG"
"03566099999","2010-06-02T07:10:00","4","52.357167","-0.107833","41.14","WYTON, UK","FM-15","EGUY ","V020","320,1,N,0021,1","99999,9,C,N","008000,1,N,1","+0120,1","+0100,1","99999,9","02,5,+00090,1,99,9","04,5,+07500,1,99,9",,,"04,99,1,99,9,99,9,99999,9,99,9,99,9","10220,1,99999,9","05,1",,,,"MET065METAR EGUY 020710Z 32004KT 8000 HZ FEW003 SCT250 12/10 Q1022 BLU;","P01 075003SCOCIG"
"03566099999","2010-06-02T07:50:00","4","52.357167","-0.107833","41.14","WYTON, UK","FM-15","EGUY ","V020","350,1,N,0031,1","07500,1,C,N","009000,1,N,1","+0130,1","+0090,1","99999,9","02,5,+00150,1,99,9","07,5,+07500,1,99,9",,,"07,99,1,99,9,99,9,99999,9,99,9,99,9","10220,1,99999,9","05,1",,,,"MET065METAR EGUY 020750Z 35006KT 9000 HZ FEW005 BKN250 13/09 Q1022 BLU;",
"03566099999","2010-06-02T08:50:00","4","52.357167","-0.107833","41.14","WYTON, UK","FM-15","EGUY ","V020","360,1,N,0021,1","99999,9,C,N","011265,1,N,1","+0140,1","+0090,1","99999,9","02,5,+00600,1,99,9","04,5,+07500,1,99,9",,,"04,99,1,99,9,99,9,99999,9,99,9,99,9","10220,1,99999,9",,,,,"MET062METAR EGUY 020850Z 36004KT 9999 FEW020 SCT250 14/09 Q1022 BLU;","P01 075003SCOCIG"
"03566099999","2010-06-02T09:50:00","4","52.357167","-0.107833","41.14","WYTON, UK","FM-15","EGUY ","V020","010,1,N,0026,1","99999,9,C,N","011265,1,N,1","+0160,1","+0090,1","99999,9","02,5,+00840,1,99,9","04,5,+07500,1,99,9",,,"04,99,1,99,9,99,9,99999,9,99,9,99,9","10230,1,99999,9",,,,,"MET062METAR EGUY 020950Z 01005KT 9999 FEW028 SCT250 16/09 Q1023 BLU;","P01 075003SCOCIG"
"03566099999","2010-06-02T10:50:00","4","52.357167","-0.107833","41.14","WYTON, UK","FM-15","EGUY ","V020","360,1,N,0021,1","99999,9,C,N","011265,1,N,1","+0170,1","+0100,1","99999,9","02,5,+00900,1,99,9","04,5,+07500,1,99,9",,,"04,99,1,99,9,99,9,99999,9,99,9,99,9","10230,1,99999,9",,,,,"MET062METAR EGUY 021050Z 36004KT 9999 FEW030 SCT250 17/10 Q1023 BLU;","P01 075003SCOCIG"
"03566099999","2010-06-02T12:50:00","4","52.357167","-0.107833","41.14","WYTON, UK","FM-15","EGUY ","V020","020,1,N,0021,1","99999,9,C,N","011265,1,N,1","+0180,1","+0080,1","99999,9","04,5,+00750,1,99,9","02,5,+01200,1,99,9",,,"04,99,1,99,9,99,9,99999,9,99,9,99,9","10230,1,99999,9",,,,,"MET058METAR EGUY 021250Z 02004KT 9999 FEW040 SCT025 18/08 Q1023;","P01 012003SCOCIG"
"03566099999","2010-06-02T13:50:00","4","52.357167","-0.107833","41.14","WYTON, UK","FM-15","EGUY ","V020","040,1,N,0021,1","99999,9,C,N","011265,1,N,1","+0190,1","+0080,1","99999,9","04,5,+00750,1,99,9","02,5,+01200,1,99,9",,,"04,99,1,99,9,99,9,99999,9,99,9,99,9","10230,1,99999,9",,,,,"MET062METAR EGUY 021350Z 04004KT 9999 FEW040 SCT025 19/08 Q1023 BLU;","P01 012003SCOCIG"
"03566099999","2010-06-02T14:50:00","4","52.357167","-0.107833","41.14","WYTON, UK","FM-15","EGUY ","V020","999,9,V,0010,1","22000,1,9,N","011265,1,N,1","+0200,1","+0100,1","99999,9","02,5,+01200,1,99,9",,,,"02,99,1,99,9,99,9,99999,9,99,9,99,9","10230,1,99999,9",,,,,"MET055METAR EGUY 021450Z VRB02KT 9999 FEW040 20/10 Q1023 BLU;",
"03566099999","2010-06-03T06:50:00","4","52.357167","-0.107833","41.14","WYTON, UK","FM-15","EGUY ","V020","999,9,V,0015,1","22000,1,9,N","008000,1,N,1","+0130,1","+0100,1","99999,9","02,5,+07500,1,99,9",,,,"02,99,1,99,9,99,9,99999,9,99,9,99,9","10251,1,99999,9","05,1",,,,"MET058METAR EGUY 030650Z VRB03KT 8000 HZ FEW250 13/10 Q1025 BLU;",
"03566099999","2010-06-03T07:50:00","4","52.357167","-0.107833","41.14","WYTON, UK","FM-15","EGUY ","V020","999,9,C,0000,1","99999,9,9,Y","009900,1,N,1","+0140,1","+9999,9","99999,9",,,,,,"10240,1,99999,9",,,,,"MET049METAR EGUY 030750Z 00000KT CAVOK 14/// Q1024 BLU;",
"03566099999","2010-06-03T08:50:00","4","52.357167","-0.107833","41.14","WYTON, UK","FM-15","EGUY ","V020","090,1,N,0031,1","99999,9,9,Y","009900,1,N,1","+0170,1","+0080,1","99999,9",,,,,,"10251,1,99999,9",,,,,"MET049METAR EGUY 030850Z 09006KT CAVOK 17/08 Q1025 BLU;",
"03566099999","2010-06-03T09:50:00","4","52.357167","-0.107833","41.14","WYTON, UK","FM-15","EGUY ","V020","090,1,N,0031,1","99999,9,9,Y","009900,1,N,1","+0180,1","+0080,1","99999,9",,,,,,"10251,1,99999,9",,,,,"MET049METAR EGUY 030950Z 09006KT CAVOK 18/08 Q1025 BLU;",
"03566099999","2010-06-03T10:50:00","4","52.357167","-0.107833","41.14","WYTON, UK","FM-15","EGUY ","V020","100,1,N,0031,1","99999,9,9,Y","009900,1,N,1","+0200,1","+0070,1","99999,9",,,,,,"10240,1,99999,9",,,,,"MET049METAR EGUY 031050Z 10006KT CAVOK 20/07 Q1024 BLU;",
"03566099999","2010-06-03T11:50:00","4","52.357167","-0.107833","41.14","WYTON, UK","FM-15","EGUY ","V020","090,1,N,0021,1","99999,9,9,Y","009900,1,N,1","+0200,1","+0080,1","99999,9",,,,,,"10240,1,99999,9",,,,,"MET049METAR EGUY 031150Z 09004KT CAVOK 20/08 Q1024 BLU;",
"03566099999","2010-06-03T12:50:00","4","52.357167","-0.107833","41.14","WYTON, UK","FM-15","EGUY ","V020","170,1,N,0026,1","99999,9,9,Y","009900,1,N,1","+0210,1","+0080,1","99999,9",,,,,,"10230,1,99999,9",,,,,"MET049METAR EGUY 031250Z 17005KT CAVOK 21/08 Q1023 BLU;",
"03566099999","2010-06-03T13:50:00","4","52.357167","-0.107833","41.14","WYTON, UK","FM-15","EGUY ","V020","100,1,N,0031,1","99999,9,9,Y","009900,1,N,1","+0220,1","+0080,1","99999,9",,,,,,"10230,1,99999,9",,,,,"MET049METAR EGUY 031350Z 10006KT CAVOK 22/08 Q1023 BLU;",
"03566099999","2010-06-03T14:50:00","4","52.357167","-0.107833","41.14","WYTON, UK","FM-15","EGUY ","V020","120,1,N,0036,1","99999,9,9,Y","009900,1,N,1","+0220,1","+0090,1","99999,9",,,,,,"10230,1,99999,9",,,,,"MET049METAR EGUY 031450Z 12007KT CAVOK 22/09 Q1023 BLU;",
"03566099999","2010-06-04T07:50:00","4","52.357167","-0.107833","41.14","WYTON, UK","FM-15","EGUY ","V020","120,1,N,0021,1","99999,9,9,Y","009900,1,N,1","+0150,1","+0110,1","99999,9",,,,,,"10220,1,99999,9",,,,,"MET049METAR EGUY 040750Z 12004KT CAVOK 15/11 Q1022 BLU;",
"03566099999","2010-06-04T08:50:00","4","52.357167","-0.107833","41.14","WYTON, UK","FM-15","EGUY ","V020","080,1,N,0021,1","99999,9,9,Y","009900,1,N,1","+0170,1","+0130,1","99999,9",,,,,,"10220,1,99999,9",,,,,"MET049METAR EGUY 040850Z 08004KT CAVOK 17/13 Q1022 BLU;",
"03566099999","2010-06-04T09:50:00","4","52.357167","-0.107833","41.14","WYTON, UK","FM-15","EGUY ","V020","100,1,N,0021,1","99999,9,9,Y","009900,1,N,1","+0190,1","+0130,1","99999,9",,,,,,"10210,1,99999,9",,,,,"MET049METAR EGUY 040950Z 10004KT CAVOK 19/13 Q1021 BLU;",
"03566099999","2010-06-04T10:50:00","4","52.357167","-0.107833","41.14","WYTON, UK","FM-15","EGUY ","V020","070,1,N,0021,1","99999,9,9,Y","009900,1,N,1","+0210,1","+0140,1","99999,9",,,,,,"10210,1,99999,9",,,,,"MET049METAR EGUY 041050Z 07004KT CAVOK 21/14 Q1021 BLU;",
"03566099999","2010-06-04T12:50:00","4","52.357167","-0.107833","41.14","WYTON, UK","FM-15","EGUY ","V020","999,9,V,0015,1","22000,1,9,N","011265,1,N,1","+0230,1","+0130,1","99999,9","02,5,+01200,1,99,9",,,,"02,99,1,99,9,99,9,99999,9,99,9,99,9","10200,1,99999,9",,,,,"MET055METAR EGUY 041250Z VRB03KT 9999 FEW040 23/13 Q1020 BLU;",
"03566099999","2010-06-04T13:50:00","4","52.357167","-0.107833","41.14","WYTON, UK","FM-15","EGUY ","V020","150,1,N,0021,1","22000,1,9,N","011265,1,N,1","+0240,1","+0120,1","99999,9","02,5,+01350,1,99,9",,,,"02,99,1,99,9,99,9,99999,9,99,9,99,9","10200,1,99999,9",,,,,"MET055METAR EGUY 041350Z 15004KT 9999 FEW045 24/12 Q1020 BLU;",
"03566099999","2010-06-04T14:50:00","4","52.357167","-0.107833","41.14","WYTON, UK","FM-15","EGUY ","V020","170,1,N,0036,1","22000,1,9,N","011265,1,N,1","+0240,1","+0140,1","99999,9","02,5,+01350,1,99,9",,,,"02,99,1,99,9,99,9,99999,9,99,9,99,9","10200,1,99999,9",,,,,"MET055METAR EGUY 041450Z 17007KT 9999 FEW045 24/14 Q1020 BLU;",
"03566099999","2010-06-05T06:50:00","4","52.357167","-0.107833","41.14","WYTON, UK","FM-15","EGUY ","V020","180,1,N,0031,1","07500,1,C,N","007000,1,N,1","+0160,1","+0130,1","99999,9","07,5,+07500,1,99,9",,,,"07,99,1,99,9,99,9,99999,9,99,9,99,9","10200,1,99999,9",,,,,"MET055METAR EGUY 050650Z 18006KT 7000 BKN250 16/13 Q1020 WHT;",
"03566099999","2010-06-05T07:50:00","4","52.357167","-0.107833","41.14","WYTON, UK","FM-15","EGUY ","V020","180,1,N,0031,1","07500,1,C,N","009000,1,N,1","+0180,1","+0140,1","99999,9","07,5,+07500,1,99,9",,,,"07,99,1,99,9,99,9,99999,9,99,9,99,9","10200,1,99999,9",,,,,"MET055METAR EGUY 050750Z 18006KT 9000 BKN250 18/14 Q1020 BLU;",
"03566099999","2010-06-05T08:50:00","4","52.357167","-0.107833","41.14","WYTON, UK","FM-15","EGUY ","V020","190,1,N,0026,1","99999,9,9,Y","009900,1,N,1","+0200,1","+0140,1","99999,9",,,,,,"10190,1,99999,9",,,,,"MET049METAR EGUY 050850Z 19005KT CAVOK 20/14 Q1019 BLU;",
"03566099999","2010-06-05T09:50:00","4","52.357167","-0.107833","41.14","WYTON, UK","FM-15","EGUY ","V020","120,1,N,0021,1","99999,9,9,Y","009900,1,N,1","+0230,1","+0140,1","99999,9",,,,,,"10190,1,99999,9",,,,,"MET049METAR EGUY 050950Z 12004KT CAVOK 23/14 Q1019 BLU;",
"03566099999","2010-06-05T10:50:00","4","52.357167","-0.107833","41.14","WYTON, UK","FM-15","EGUY ","V020","140,1,N,0031,1","99999,9,9,Y","009900,1,N,1","+0230,1","+0140,1","99999,9",,,,,,"10190,1,99999,9",,,,,"MET049METAR EGUY 051050Z 14006KT CAVOK 23/14 Q1019 BLU;",
"03566099999","2010-06-05T11:50:00","4","52.357167","-0.107833","41.14","WYTON, UK","FM-15","EGUY ","V020","150,1,N,0041,1","99999,9,9,Y","009900,1,N,1","+0240,1","+0130,1","99999,9",,,,,,"10180,1,99999,9",,,,,"MET049METAR EGUY 051150Z 15008KT CAVOK 24/13 Q1018 BLU;",
"03566099999","2010-06-05T12:50:00","4","52.357167","-0.107833","41.14","WYTON, UK","FM-15","EGUY ","V020","190,1,N,0021,1","99999,9,9,Y","009900,1,N,1","+0240,1","+0130,1","99999,9",,,,,,"10180,1,99999,9",,,,,"MET049METAR EGUY 051250Z 19004KT CAVOK 24/13 Q1018 BLU;",
"03566099999","2010-06-05T13:50:00","4","52.357167","-0.107833","41.14","WYTON, UK","FM-15","EGUY ","V020","170,1,N,0015,1","99999,9,9,Y","009900,1,N,1","+0240,1","+0140,1","99999,9",,,,,,"10169,1,99999,9",,,,,"MET049METAR EGUY 051350Z 17003KT CAVOK 24/14 Q1017 BLU;",
"03566099999","2010-06-05T14:50:00","4","52.357167","-0.107833","41.14","WYTON, UK","FM-15","EGUY ","V020","999,9,V,0010,1","99999,9,9,Y","009900,1,N,1","+0250,1","+0140,1","99999,9",,,,,,"10169,1,99999,9",,,,,"MET049METAR EGUY 051450Z VRB02KT CAVOK 25/14 Q1017 BLU;",
"03566099999","2010-06-06T06:50:00","4","52.357167","-0.107833","41.14","WYTON, UK","FM-15","EGUY ","V020","120,1,N,0036,1","04500,1,C,N","006000,1,N,1","+0170,1","+0150,1","99999,9","04,5,+01350,1,99,9","07,5,+04500,1,99,9",,,"07,99,1,99,9,99,9,99999,9,99,9,99,9","10108,1,99999,9","05,1",,,,"MET065METAR EGUY 060650Z 12007KT 6000 HZ SCT045 BKN150 17/15 Q1011 WHT;",
"03566099999","2010-06-06T07:50:00","4","52.357167","-0.107833","41.14","WYTON, UK","FM-15","EGUY ","V020","140,1,N,0031,1","04500,1,C,N","007000,1,N,1","+0180,1","+0160,1","99999,9","04,5,+00480,1,99,9","07,5,+04500,1,99,9",,,"07,99,1,99,9,99,9,99999,9,99,9,99,9","10108,1,99999,9","05,1",,,,"MET065METAR EGUY 060750Z 14006KT 7000 HZ SCT016 BKN150 18/16 Q1011 WHT;",
"03566099999","2010-06-06T08:50:00","4","52.357167","-0.107833","41.14","WYTON, UK","FM-15","EGUY ","V020","160,1,N,0036,1","00450,1,C,N","011265,1,N,1","+0190,1","+0160,1","99999,9","02,5,+00330,1,99,9","04,5,+00450,1,99,9","07,5,+00930,1,99,9",,"07,99,1,99,9,99,9,99999,9,99,9,99,9","10108,1,99999,9",,,,,"MET069METAR EGUY 060850Z 16007KT 9999 FEW011 SCT015 BKN031 19/16 Q1011 WHT;",
"03566099999","2010-06-06T09:50:00","4","52.357167","-0.107833","41.14","WYTON, UK","FM-15","EGUY ","V020","180,1,N,0021,1","00510,1,C,N","007000,1,N,1","+0190,1","+0170,1","99999,9","07,5,+00510,1,99,9",,,,"07,99,1,99,9,99,9,99999,9,99,9,99,9","10102,1,99999,9","05,1",,,,"MET058METAR EGUY 060950Z 18004KT 7000 HZ BKN017 19/17 Q1010 WHT;",
"03566099999","2010-06-06T10:05:00","4","52.357167","-0.107833","41.14","WYTON, UK","FM-15","EGUY ","V020","240,1,N,0031,1","00330,1,C,N","006000,1,N,1","+0190,1","+0160,1","99999,9","07,5,+00330,1,99,9",,,,"07,99,1,99,9,99,9,99999,9,99,9,99,9","10102,1,99999,9","05,1",,,,"MET058METAR EGUY 061005Z 24006KT 6000 HZ BKN011 19/16 Q1010 GRN;",
"03566099999","2010-06-06T10:50:00","4","52.357167","-0.107833","41.14","WYTON, UK","FM-15","EGUY ","V020","240,1,N,0046,1","00720,1,C,N","006000,1,N,1","+0180,1","+0160,1","99999,9","04,5,+00270,1,99,9","07,5,+00720,1,99,9",,,"07,99,1,99,9,99,9,99999,9,99,9,99,9","10102,1,99999,9","05,1",,,,"MET065METAR EGUY 061050Z 24009KT 6000 HZ SCT009 BKN024 18/16 Q1010 GRN;",
"03566099999","2010-06-06T11:50:00","4","52.357167","-0.107833","41.14","WYTON, UK","FM-15","EGUY ","V020","240,1,N,0046,1","00210,1,C,N","004000,1,N,1","+0180,1","+0160,1","99999,9","07,5,+00210,1,99,9",,,,"07,99,1,99,9,99,9,99999,9,99,9,99,9","10102,1,99999,9","05,1",,,,"MET058METAR EGUY 061150Z 24009KT 4000 HZ BKN007 18/16 Q1010 GRN;",
"03566099999","2010-06-06T12:50:00","4","52.357167","-0.107833","41.14","WYTON, UK","FM-15","EGUY ","V020","260,1,N,0051,1","00240,1,C,N","004500,1,N,1","+0180,1","+0160,1","99999,9","07,5,+00240,1,99,9",,,,"07,99,1,99,9,99,9,99999,9,99,9,99,9","10102,1,99999,9","05,1",,,,"MET058METAR EGUY 061250Z 26010KT 4500 HZ BKN008 18/16 Q1010 GRN;",
"03566099999","2010-06-06T13:50:00","4","52.357167","-0.107833","41.14","WYTON, UK","FM-15","EGUY ","V020","320,1,N,0051,1","00510,1,C,N","008000,1,N,1","+0180,1","+0160,1","99999,9","02,5,+00300,1,99,9","07,5,+00510,1,99,9",,,"07,99,1,99,9,99,9,99999,9,99,9,99,9","10102,1,99999,9",,,,,"MET062METAR EGUY 061350Z 32010KT 8000 FEW010 BKN017 18/16 Q1010 WHT;",
"03566099999","2010-06-07T06:50:00","4","52.357167","-0.107833","41.14","WYTON, UK","FM-15","EGUY ","V020","270,1,N,0046,1","00750,1,C,N","009000,1,N,1","+0130,1","+0120,1","99999,9","02,5,+00300,1,99,9","04,5,+00750,1,99,9","07,5,+07500,1,99,9",,"07,99,1,99,9,99,9,99999,9,99,9,99,9","10119,1,99999,9","05,1",,,,"MET072METAR EGUY 070650Z 27009KT 9000 HZ FEW010 SCT025 BKN250 13/12 Q1012 BLU;",
"03566099999","2010-06-07T07:30:00","4","52.357167","-0.107833","41.14","WYTON, UK","FM-15","EGUY ","V020","290,1,N,0051,1","00330,1,C,N","011265,1,N,1","+0140,1","+0120,1","99999,9","07,5,+00330,1,99,9",,,,"07,99,1,99,9,99,9,99999,9,99,9,99,9","10119,1,99999,9",,,,,"MET055METAR EGUY 070730Z 29010KT 9999 BKN011 14/12 Q1012 GRN;",
"03566099999","2010-06-07T07:50:00","4","52.357167","-0.107833","41.14","WYTON, UK","FM-15","EGUY ","V020","290,1,N,0036,1","07500,1,C,N","011265,1,N,1","+0140,1","+0120,1","99999,9","04,5,+00330,1,99,9","07,5,+07500,1,99,9",,,"07,99,1,99,9,99,9,99999,9,99,9,99,9","10119,1,99999,9",,,,,"MET062METAR EGUY 070750Z 29007KT 9999 SCT011 BKN250 14/12 Q1012 GRN;",
"03566099999","2010-06-07T08:50:00","4","52.357167","-0.107833","41.14","WYTON, UK","FM-15","EGUY ","V020","270,1,N,0036,1","07500,1,C,N","011265,1,N,1","+0150,1","+0120,1","99999,9","04,5,+00450,1,99,9","07,5,+07500,1,99,9",,,"07,99,1,99,9,99,9,99999,9,99,9,99,9","10119,1,99999,9",,,,,"MET062METAR EGUY 070850Z 27007KT 9999 SCT015 BKN250 15/12 Q1012 WHT;",
"03566099999","2010-06-07T09:50:00","4","52.357167","-0.107833","41.14","WYTON, UK","FM-15","EGUY ","V020","240,1,N,0036,1","00600,1,C,N","011265,1,N,1","+0160,1","+0110,1","99999,9","07,5,+00600,1,99,9",,,,"07,99,1,99,9,99,9,99999,9,99,9,99,9","10119,1,99999,9",,,,,"MET055METAR EGUY 070950Z 24007KT 9999 BKN020 16/11 Q1012 WHT;",
"03566099999","2010-06-07T10:50:00","4","52.357167","-0.107833","41.14","WYTON, UK","FM-15","EGUY ","V020","220,1,N,0041,1","99999,9,C,N","011265,1,N,1","+0170,1","+0120,1","99999,9","04,5,+00660,1,99,9","04,5,+00840,1,99,9",,,"04,99,1,99,9,99,9,99999,9,99,9,99,9","10108,1,99999,9",,,,,"MET062METAR EGUY 071050Z 22008KT 9999 SCT022 SCT028 17/12 Q1011 WHT;","P01 008403SCOCIG"
"03566099999","2010-06-07T11:50:00","4","52.357167","-0.107833","41.14","WYTON, UK","FM-15","EGUY ","V020","230,1,N,0041,1","00870,1,C,N","011265,1,N,1","+0180,1","+0120,1","99999,9","02,5,+00660,1,99,9","07,5,+00870,1,99,9",,,"07,99,1,99,9,99,9,99999,9,99,9,99,9","10108,1,99999,9",,,,,"MET062METAR EGUY 071150Z 23008KT 9999 FEW022 BKN029 18/12 Q1011 BLU;",
"03566099999","2010-06-07T12:50:00","4","52.357167","-0.107833","41.14","WYTON, UK","FM-15","EGUY ","V020","220,1,N,0046,1","00750,1,C,N","011265,1,N,1","+0180,1","+0120,1","99999,9","02,5,+00540,1,99,9","07,5,+00750,1,99,9",,,"07,99,1,99,9,99,9,99999,9,99,9,99,9","10108,1,99999,9",,,,,"MET062METAR EGUY 071250Z 22009KT 9999 FEW018 BKN025 18/12 Q1011 BLU;",
"03566099999","2010-06-07T13:50:00","4","52.357167","-0.107833","41.14","WYTON, UK","FM-15","EGUY ","V020","230,1,N,0046,1","00900,1,C,N","011265,1,N,1","+0180,1","+0120,1","99999,9","02,5,+00600,1,99,9","07,5,+00900,1,99,9",,,"07,99,1,99,9,99,9,99999,9,99,9,99,9","10102,1,99999,9",,,,,"MET062METAR EGUY 071350Z 23009KT 9999 FEW020 BKN030 18/12 Q1010 BLU;",
"03566099999","2010-06-07T14:50:00","4","52.357167","-0.107833","41.14","WYTON, UK","FM-15","EGUY ","V020","200,1,N,0036,1","02400,1,C,N","011265,1,N,1","+0180,1","+0120,1","99999,9","02,5,+00750,1,99,9","04,5,+02400,1,99,9","08,5,+04500,1,99,9",,"08,99,1,99,9,99,9,99999,9,99,9,99,9","10102,1,99999,9",,,,,"MET069METAR EGUY 071450Z 20007KT 9999 FEW025 SCT080 OVC150 18/12 Q1010 BLU;",
"03566099999","2010-06-08T05:50:00","4","52.357167","-0.107833","41.14","WYTON, UK","FM-15","EGUY ","V020","100,1,N,0057,1","00210,1,C,N","009000,1,N,1","+0120,1","+0120,1","99999,9","02,5,+00120,1,99,9","07,5,+00210,1,99,9","08,5,+00600,1,99,9",,"08,99,1,99,9,99,9,99999,9,99,9,99,9","10031,1,99999,9","61,1",,,,"MET073METAR EGUY 080550Z 10011KT 9000 -RA FEW004 BKN007 OVC020 12/12 Q1003 GRN;",
"03566099999","2010-06-08T06:50:00","4","52.357167","-0.107833","41.14","WYTON, UK","FM-15","EGUY ","V020","100,1,N,0046,1","00210,1,C,N","005000,1,N,1","+0120,1","+0120,1","99999,9","02,5,+00120,1,99,9","07,5,+00210,1,99,9","08,5,+00900,1,99,9",,"08,99,1,99,9,99,9,99999,9,99,9,99,9","10031,1,99999,9","61,1",,,,"MET073METAR EGUY 080650Z 10009KT 5000 -RA FEW004 BKN007 OVC030 12/12 Q1003 GRN;",
"03566099999","2010-06-08T07:50:00","4","52.357167","-0.107833","41.14","WYTON, UK","FM-15","EGUY ","V020","090,1,N,0046,1","00450,1,C,N","011265,1,N,1","+0130,1","+0120,1","99999,9","02,5,+00150,1,99,9","04,5,+00450,1,99,9","07,5,+00660,1,99,9",,"07,99,1,99,9,99,9,99999,9,99,9,99,9","10020,1,99999,9",,,,,"MET073METAR EGUY 080750Z 09009KT 9999 NIL FEW005 SCT015 BKN022 13/12 Q1002 WHT;",
"03566099999","2010-06-08T08:50:00","4","52.357167","-0.107833","41.14","WYTON, UK","FM-15","EGUY ","V020","100,1,N,0036,1","00300,1,C,N","009000,1,N,1","+0140,1","+0130,1","99999,9","02,5,+00240,1,99,9","04,5,+00300,1,99,9","07,5,+00450,1,99,9",,"07,99,1,99,9,99,9,99999,9,99,9,99,9","10020,1,99999,9","61,1",,,,"MET073METAR EGUY 080850Z 10007KT 9000 -RA FEW008 SCT010 BKN015 14/13 Q1002 GRN;",
"03566099999","2010-06-08T09:50:00","4","52.357167","-0.107833","41.14","WYTON, UK","FM-15","EGUY ","V020","120,1,N,0031,1","00240,1,C,N","009000,1,N,1","+0150,1","+0140,1","99999,9","02,5,+00150,1,99,9","07,5,+00240,1,99,9",,,"07,99,1,99,9,99,9,99999,9,99,9,99,9","10010,1,99999,9","61,1",,,,"MET066METAR EGUY 080950Z 12006KT 9000 -RA FEW005 BKN008 15/14 Q1001 GRN;",
"03566099999","2010-06-08T10:50:00","4","52.357167","-0.107833","41.14","WYTON, UK","FM-15","EGUY ","V020","120,1,N,0026,1","00240,1,C,N","009000,1,N,1","+0160,1","+0140,1","99999,9","02,5,+00150,1,99,9","07,5,+00240,1,99,9",,,"07,99,1,99,9,99,9,99999,9,99,9,99,9","10010,1,99999,9","51,1",,,,"MET066METAR EGUY 081050Z 12005KT 9000 -DZ FEW005 BKN008 16/14 Q1001 GRN;",
"03566099999","2010-06-08T11:50:00","4","52.357167","-0.107833","41.14","WYTON, UK","FM-15","EGUY ","V020","150,1,N,0062,1","00360,1,C,N","008000,1,N,1","+0160,1","+0140,1","99999,9","02,5,+00240,1,99,9","04,5,+00360,1,99,9","07,5,+00540,1,99,9",,"07,99,1,99,9,99,9,99999,9,99,9,99,9","10010,1,99999,9","61,1",,,,"MET073METAR EGUY 081150Z 15012KT 8000 -RA FEW008 SCT012 BKN018 16/14 Q1001 GRN;",
"03566099999","2010-06-08T12:50:00","4","52.357167","-0.107833","41.14","WYTON, UK","FM-15","EGUY ","V020","200,1,N,0041,1","00600,1,C,N","011265,1,N,1","+0180,1","+0150,1","99999,9","02,5,+00450,1,99,9","04,5,+00600,1,99,9","07,5,+01350,1,99,9",,"07,99,1,99,9,99,9,99999,9,99,9,99,9","10000,1,99999,9",,,,,"MET069METAR EGUY 081250Z 20008KT 9999 FEW015 SCT020 BKN045 18/15 Q1000 WHT;",
"03566099999","2010-06-08T13:50:00","4","52.357167","-0.107833","41.14","WYTON, UK","FM-15","EGUY ","V020","190,1,N,0051,1","00600,1,C,N","009000,1,N,1","+0170,1","+0150,1","99999,9","02,5,+00300,1,99,9","07,5,+00600,1,99,9","07,5,+01410,1,99,9",,"07,99,1,99,9,99,9,99999,9,99,9,99,9","10000,1,99999,9",,,,,"MET069METAR EGUY 081350Z 19010KT 9000 FEW010 BKN020 BKN047 17/15 Q1000 WHT;",
"03566099999","2010-06-08T14:50:00","4","52.357167","-0.107833","41.14","WYTON, UK","FM-15","EGUY ","V020","230,1,N,0041,1","99999,9,C,N","011265,1,N,1","+0170,1","+0130,1","99999,9","04,5,+00480,1,09,1","04,5,+01350,5,99,9",,,"04,99,1,99,9,99,9,99999,9,99,9,99,9","10000,1,99999,9",,,,,"MET063METAR EGUY 081450Z 23008KT 9999 SCT016CBSCT045 17/13 Q1000 WHT;","P01 013503SCOCIG"
"03566099999","2010-06-09T06:50:00","4","52.357167","-0.107833","41.14","WYTON, UK","FM-15","EGUY ","V020","190,1,N,0021,1","00240,1,C,N","009000,1,N,1","+0130,1","+0130,1","99999,9","02,5,+00150,1,99,9","07,5,+00240,1,99,9",,,"07,99,1,99,9,99,9,99999,9,99,9,99,9","10041,1,99999,9",,,,,"MET062METAR EGUY 090650Z 19004KT 9000 FEW005 BKN008 13/13 Q1004 GRN;",
"03566099999","2010-06-09T07:30:00","4","52.357167","-0.107833","41.14","WYTON, UK","FM-15","EGUY ","V020","190,1,N,0015,1","00450,1,C,N","011265,1,N,1","+0140,1","+0130,1","99999,9","02,5,+00240,1,99,9","04,5,+00450,1,99,9","07,5,+02400,1,99,9",,"07,99,1,99,9,99,9,99999,9,99,9,99,9","10041,1,99999,9",,,,,"MET069METAR EGUY 090730Z 19003KT 9999 FEW008 SCT015 BKN080 14/13 Q1004 WHT;",
"03566099999","2010-06-09T07:50:00","4","52.357167","-0.107833","41.14","WYTON, UK","FM-15","EGUY ","V020","210,1,N,0010,1","00450,1,C,N","011265,1,N,1","+0140,1","+0130,1","99999,9","02,5,+00240,1,99,9","04,5,+00450,1,99,9","07,5,+03000,1,99,9",,"07,99,1,99,9,99,9,99999,9,99,9,99,9","10051,1,99999,9",,,,,"MET069METAR EGUY 090750Z 21002KT 9999 FEW008 SCT015 BKN100 14/13 Q1005 WHT;",
"03566099999","2010-06-09T08:10:00","4","52.357167","-0.107833","41.14","WYTON, UK","FM-15","EGUY ","V020","170,1,N,0015,1","03000,1,C,N","011265,1,N,1","+0140,1","+0130,1","99999,9","04,5,+00240,1,99,9","07,5,+03000,1,99,9",,,"07,99,1,99,9,99,9,99999,9,99,9,99,9","10041,1,99999,9",,,,,"MET062METAR EGUY 090810Z 17003KT 9999 SCT008 BKN100 14/13 Q1004 GRN;",
"03566099999","2010-06-09T08:50:00","4","52.357167","-0.107833","41.14","WYTON, UK","FM-15","EGUY ","V020","130,1,N,0010,1","03000,1,C,N","011265,1,N,1","+0150,1","+0130,1","99999,9","04,5,+00300,1,99,9","07,5,+03000,1,99,9",,,"07,99,1,99,9,99,9,99999,9,99,9,99,9","10051,1,99999,9",,,,,"MET062METAR EGUY 090850Z 13002KT 9999 SCT010 BKN100 15/13 Q1005 GRN;",
"03566099999","2010-06-09T09:50:00","4","52.357167","-0.107833","41.14","WYTON, UK","FM-15","EGUY ","V020","150,1,N,0015,1","00420,1,C,N","011265,1,N,1","+0160,1","+0130,1","99999,9","07,5,+00420,1,99,9","07,5,+03000,1,99,9",,,"07,99,1,99,9,99,9,99999,9,99,9,99,9","10051,1,99999,9",,,,,"MET062METAR EGUY 090950Z 15003KT 9999 BKN014 BKN100 16/13 Q1005 GRN;",
"03566099999","2010-06-09T10:50:00","4","52.357167","-0.107833","41.14","WYTON, UK","FM-15","EGUY ","V020","999,9,V,0010,1","00450,1,C,N","011265,1,N,1","+0180,1","+0130,1","99999,9","07,5,+00450,1,99,9",,,,"07,99,1,99,9,99,9,99999,9,99,9,99,9","10051,1,99999,9",,,,,"MET055METAR EGUY 091050Z VRB02KT 9999 BKN015 18/13 Q1005 WHT;",
"03566099999","2010-06-09T11:50:00","4","52.357167","-0.107833","41.14","WYTON, UK","FM-15","EGUY ","V020","999,9,V,0015,1","03000,1,C,N","011265,1,N,1","+0190,1","+0130,1","99999,9","04,5,+00660,1,99,9","07,5,+03000,1,99,9",,,"07,99,1,99,9,99,9,99999,9,99,9,99,9","10051,1,99999,9",,,,,"MET062METAR EGUY 091150Z VRB03KT 9999 SCT022 BKN100 19/13 Q1005 WHT;",
"03566099999","2010-06-09T12:50:00","4","52.357167","-0.107833","41.14","WYTON, UK","FM-15","EGUY ","V020","060,1,N,0010,1","03000,1,C,N","011265,1,N,1","+0190,1","+0130,1","99999,9","04,5,+00720,1,99,9","07,5,+03000,1,99,9",,,"07,99,1,99,9,99,9,99999,9,99,9,99,9","10051,1,99999,9",,,,,"MET062METAR EGUY 091250Z 06002KT 9999 SCT024 BKN100 19/13 Q1005 WHT;",
"03566099999","2010-06-09T13:50:00","4","52.357167","-0.107833","41.14","WYTON, UK","FM-15","EGUY ","V020","040,1,N,0010,1","02700,1,C,N","011265,1,N,1","+0190,1","+0130,1","99999,9","02,5,+00720,1,99,9","07,5,+02700,1,99,9",,,"07,99,1,99,9,99,9,99999,9,99,9,99,9","10051,1,99999,9",,,,,"MET062METAR EGUY 091350Z 04002KT 9999 FEW024 BKN090 19/13 Q1005 BLU;",
"03566099999","2010-06-09T14:50:00","4","52.357167","-0.107833","41.14","WYTON, UK","FM-15","EGUY ","V020","090,1,N,0031,1","99999,9,C,N","011265,1,N,1","+0190,1","+0130,1","99999,9","02,5,+00600,1,99,9","02,5,+00750,1,02,5","04,5,+01200,1,99,9",,"04,99,1,99,9,99,9,99999,9,99,9,99,9","10051,1,99999,9",,,,,"MET072METAR EGUY 091450Z 09006KT 9999 FEW020 FEW025TCU SCT040 19/13 Q1005 BLU;","P01 012003SCOCIG"
"03566099999","2010-06-10T06:50:00","4","52.357167","-0.107833","41.14","WYTON, UK","FM-15","EGUY ","V020","020,1,N,0062,1","00090,1,C,N","004500,1,N,1","+0140,1","+0130,1","99999,9","08,5,+00090,1,99,9",,,,"08,99,1,99,9,99,9,99999,9,99,9,99,9","10091,1,99999,9","61,1",,,,"MET060METAR EGUY 100650Z 02012KT 4500 -RA OVC003 14/13 Q1009 YLO2;",
"03566099999","2010-06-10T07:50:00","4","52.357167","-0.107833","41.14","WYTON, UK","FM-15","EGUY ","V020","010,1,N,0051,1","00150,1,C,N","008000,1,N,1","+0140,1","+0130,1","99999,9","04,5,+00090,1,99,9","07,5,+00150,1,99,9",,,"07,99,1,99,9,99,9,99999,9,99,9,99,9","10091,1,99999,9","10,1",,,,"MET066METAR EGUY 100750Z 01010KT 8000 BR SCT003 BKN005 14/13 Q1009 YLO2;",
"03566099999","2010-06-10T08:50:00","4","52.357167","-0.107833","41.14","WYTON, UK","FM-15","EGUY ","V020","020,1,N,0062,1","00240,1,C,N","008000,1,N,1","+0150,1","+0130,1","99999,9","02,5,+00150,1,99,9","08,5,+00240,1,99,9",,,"08,99,1,99,9,99,9,99999,9,99,9,99,9","10091,1,99999,9","05,1",,,,"MET065METAR EGUY 100850Z 02012KT 8000 HZ FEW005 OVC008 15/13 Q1009 GRN;",
"03566099999","2010-06-10T09:50:00","4","52.357167","-0.107833","41.14","WYTON, UK","FM-15","EGUY ","V020","010,1,N,0067,1","00210,1,C,N","006000,1,N,1","+0150,1","+0140,1","99999,9","07,5,+00210,1,99,9","08,5,+00300,1,99,9",,,"08,99,1,99,9,99,9,99999,9,99,9,99,9","10091,1,99999,9","51,1",,,,"MET066METAR EGUY 100950Z 01013KT 6000 -DZ BKN007 OVC010 15/14 Q1009 GRN;",
"03566099999","2010-06-10T10:50:00","4","52.357167","-0.107833","41.14","WYTON, UK","FM-15","EGUY ","V020","020,1,N,0093,1","00150,1,C,N","004500,1,N,1","+0150,1","+0140,1","99999,9","07,5,+00150,1,99,9","08,5,+00210,1,99,9",,,"08,99,1,99,9,99,9,99999,9,99,9,99,9","10091,1,99999,9","05,1",,,,"MET066METAR EGUY 101050Z 02018KT 4500 HZ BKN005 OVC007 15/14 Q1009 YLO1;",
"03566099999","2010-06-10T11:50:00","4","52.357167","-0.107833","41.14","WYTON, UK","FM-15","EGUY ","V020","020,1,N,0062,1","00150,1,C,N","006000,1,N,1","+0150,1","+0140,1","99999,9","02,5,+00090,1,99,9","04,5,+00150,1,99,9","08,5,+00180,1,99,9",,"08,99,1,99,9,99,9,99999,9,99,9,99,9","10091,1,99999,9","05,1",,,,"MET073METAR EGUY 101150Z 02012KT 6000 HZ FEW003 SCT005 OVC006 15/14 Q1009 YLO1;",
"03566099999","2010-06-10T12:50:00","4","52.357167","-0.107833","41.14","WYTON, UK","FM-15","EGUY ","V020","020,1,N,0072,1","00150,1,C,N","004000,1,N,1","+0140,1","+0140,1","99999,9","04,5,+00090,1,99,9","08,5,+00150,1,99,9",,,"08,99,1,99,9,99,9,99999,9,99,9,99,9","10102,1,99999,9","53,1",,,,"MET066METAR EGUY 101250Z 02014KT 4000 DZ SCT003 OVC005 14/14 Q1010 YLO2;",
"03566099999","2010-06-11T06:50:00","4","52.357167","-0.107833","41.14","WYTON, UK","FM-15","EGUY ","V020","340,1,N,0072,1","00090,1,C,N","003500,1,N,1","+0120,1","+0110,1","99999,9","08,5,+00090,1,99,9",,,,"08,99,1,99,9,99,9,99999,9,99,9,99,9","10081,1,99999,9","51,1",,,,"MET060METAR EGUY 110650Z 34014KT 3500 -DZ OVC003 12/11 Q1008 YLO2;",
"03566099999","2010-06-11T07:50:00","4","52.357167","-0.107833","41.14","WYTON, UK","FM-15","EGUY ","V020","330,1,N,0051,1","00120,1,C,N","003500,1,N,1","+0110,1","+0110,1","99999,9","08,5,+00120,1,99,9",,,,"08,99,1,99,9,99,9,99999,9,99,9,99,9","10091,1,99999,9","51,1",,,,"MET060METAR EGUY 110750Z 33010KT 3500 -DZ OVC004 11/11 Q1009 YLO2;",
"03566099999","2010-06-11T08:50:00","4","52.357167","-0.107833","41.14","WYTON, UK","FM-15","EGUY ","V020","330,1,N,0051,1","00120,1,C,N","004500,1,N,1","+0120,1","+0110,1","99999,9","08,5,+00120,1,99,9",,,,"08,99,1,99,9,99,9,99999,9,99,9,99,9","10091,1,99999,9","10,1",,,,"MET059METAR EGUY 110850Z 33010KT 4500 BR OVC004 12/11 Q1009 YLO2;",
"03566099999","2010-06-11T09:50:00","4","52.357167","-0.107833","41.14","WYTON, UK","FM-15","EGUY ","V020","320,1,N,0051,1","00150,1,C,N","006000,1,N,1","+0120,1","+0120,1","99999,9","07,5,+00150,1,99,9","08,5,+00300,1,99,9",,,"08,99,1,99,9,99,9,99999,9,99,9,99,9","10091,1,99999,9","05,1",,,,"MET066METAR EGUY 110950Z 32010KT 6000 HZ BKN005 OVC010 12/12 Q1009 YLO1;",
"03566099999","2010-06-11T10:50:00","4","52.357167","-0.107833","41.14","WYTON, UK","FM-15","EGUY ","V020","330,1,N,0051,1","00300,1,C,N","011265,1,N,1","+0140,1","+0120,1","99999,9","04,5,+00240,1,99,9","07,5,+00300,1,99,9",,,"07,99,1,99,9,99,9,99999,9,99,9,99,9","10102,1,99999,9","05,1",,,,"MET071METAR EGUY 111050Z 33010KT 9999 7000E HZ SCT008 BKN010 14/12 Q1010 GRN;",
"03566099999","2010-06-11T11:50:00","4","52.357167","-0.107833","41.14","WYTON, UK","FM-15","EGUY ","V020","340,1,N,0046,1","00510,1,C,N","011265,1,N,1","+0160,1","+0120,1","99999,9","02,5,+00360,1,99,9","07,5,+00510,1,99,9",,,"07,99,1,99,9,99,9,99999,9,99,9,99,9","10091,1,99999,9",,,,,"MET062METAR EGUY 111150Z 34009KT 9999 FEW012 BKN017 16/12 Q1009 WHT;",
"03566099999","2010-06-11T12:50:00","4","52.357167","-0.107833","41.14","WYTON, UK","FM-15","EGUY ","V020","340,1,N,0041,1","00750,1,C,N","011265,1,N,1","+0170,1","+0110,1","99999,9","07,5,+00750,1,99,9",,,,"07,99,1,99,9,99,9,99999,9,99,9,99,9","10102,1,99999,9",,,,,"MET055METAR EGUY 111250Z 34008KT 9999 BKN025 17/11 Q1010 BLU;",
"03566099999","2010-06-11T13:50:00","4","52.357167","-0.107833","41.14","WYTON, UK","FM-15","EGUY ","V020","330,1,N,0026,1","00840,1,C,N","011265,1,N,1","+0180,1","+0110,1","99999,9","02,5,+00600,1,99,9","07,5,+00840,1,99,9",,,"07,99,1,99,9,99,9,99999,9,99,9,99,9","10102,1,99999,9",,,,,"MET062METAR EGUY 111350Z 33005KT 9999 FEW020 BKN028 18/11 Q1010 BLU;",
"03566099999","2010-06-11T14:50:00","4","52.357167","-0.107833","41.14","WYTON, UK","FM-15","EGUY ","V020","300,1,N,0026,1","00900,1,C,N","011265,1,N,1","+0180,1","+0110,1","99999,9","02,5,+00750,1,99,9","07,5,+00900,1,99,9",,,"07,99,1,99,9,99,9,99999,9,99,9,99,9","10102,1,99999,9",,,,,"MET062METAR EGUY 111450Z 30005KT 9999 FEW025 BKN030 18/11 Q1010 BLU;",
"03566099999","2010-06-12T06:50:00","4","52.357167","-0.107833","41.14","WYTON, UK","FM-15","EGUY ","V020","340,1,N,0062,1","99999,9,9,Y","009900,1,N,1","+0130,1","+0100,1","99999,9",,,,,,"10129,1,99999,9",,,,,"MET049METAR EGUY 120650Z 34012KT CAVOK 13/10 Q1013 BLU;",
"03566099999","2010-06-12T07:50:00","4","52.357167","-0.107833","41.14","WYTON, UK","FM-15","EGUY ","V020","350,1,N,0062,1","01350,1,C,N","011265,1,N,1","+0140,1","+0100,1","99999,9","04,5,+00660,1,99,9","07,5,+01350,1,99,9",,,"07,99,1,99,9,99,9,99999,9,99,9,99,9","10139,1,99999,9",,,,,"MET062METAR EGUY 120750Z 35012KT 9999 SCT022 BKN045 14/10 Q1014 WHT;",
"03566099999","2010-06-12T08:50:00","4","52.357167","-0.107833","41.14","WYTON, UK","FM-15","EGUY ","V020","010,1,N,0051,1","00870,1,C,N","011265,1,N,1","+0140,1","+0090,1","99999,9","02,5,+00600,1,99,9","08,5,+00870,1,99,9",,,"08,99,1,99,9,99,9,99999,9,99,9,99,9","10149,1,99999,9",,,,,"MET062METAR EGUY 120850Z 01010KT 9999 FEW020 OVC029 14/09 Q1015 BLU;",
"03566099999","2010-06-12T09:50:00","4","52.357167","-0.107833","41.14","WYTON, UK","FM-15","EGUY ","V020","010,1,N,0051,1","00900,1,C,N","011265,1,N,1","+0150,1","+0100,1","99999,9","02,5,+00600,1,99,9","07,5,+00900,1,99,9",,,"07,99,1,99,9,99,9,99999,9,99,9,99,9","10149,1,99999,9",,,,,"MET062METAR EGUY 120950Z 01010KT 9999 FEW020 BKN030 15/10 Q1015 BLU;",
"03566099999","2010-06-12T10:50:00","4","52.357167","-0.107833","41.14","WYTON, UK","FM-15","EGUY ","V020","360,1,N,0046,1","01500,1,C,N","011265,1,N,1","+0150,1","+0100,1","99999,9","04,5,+00750,1,99,9","07,5,+01500,1,99,9",,,"07,99,1,99,9,99,9,99999,9,99,9,99,9","10159,1,99999,9",,,,,"MET062METAR EGUY 121050Z 36009KT 9999 SCT025 BKN050 15/10 Q1016 BLU;",
"03566099999","2010-06-12T11:50:00","4","52.357167","-0.107833","41.14","WYTON, UK","FM-15","EGUY ","V020","360,1,N,0031,1","01500,1,C,N","011265,1,N,1","+0160,1","+0090,1","99999,9","04,5,+00900,1,99,9","07,5,+01500,1,99,9",,,"07,99,1,99,9,99,9,99999,9,99,9,99,9","10159,1,99999,9",,,,,"MET062METAR EGUY 121150Z 36006KT 9999 SCT030 BKN050 16/09 Q1016 BLU;",
"03566099999","2010-06-12T12:50:00","4","52.357167","-0.107833","41.14","WYTON, UK","FM-15","EGUY ","V020","010,1,N,0046,1","01500,1,C,N","011265,1,N,1","+0180,1","+0090,1","99999,9","04,5,+01080,1,99,9","07,5,+01500,1,99,9",,,"07,99,1,99,9,99,9,99999,9,99,9,99,9","10159,1,99999,9",,,,,"MET062METAR EGUY 121250Z 01009KT 9999 SCT036 BKN050 18/09 Q1016 BLU;",
"03566099999","2010-06-12T13:50:00","4","52.357167","-0.107833","41.14","WYTON, UK","FM-15","EGUY ","V020","020,1,N,0051,1","99999,9,C,N","011265,1,N,1","+0160,1","+0090,1","99999,9","04,5,+00840,1,99,9","04,5,+01500,1,99,9",,,"04,99,1,99,9,99,9,99999,9,99,9,99,9","10169,1,99999,9",,,,,"MET062METAR EGUY 121350Z 02010KT 9999 SCT028 SCT050 16/09 Q1017 BLU;","P01 015003SCOCIG"
"03566099999","2010-06-13T06:50:00","4","52.357167","-0.107833","41.14","WYTON, UK","FM-15","EGUY ","V020","240,1,N,0031,1","02100,1,C,N","011265,1,N,1","+0120,1","+0090,1","99999,9","02,5,+00900,1,99,9","04,5,+02100,1,99,9","07,5,+03000,1,99,9",,"07,99,1,99,9,99,9,99999,9,99,9,99,9","10180,1,99999,9",,,,,"MET069METAR EGUY 130650Z 24006KT 9999 FEW030 SCT070 BKN100 12/09 Q1018 BLU;",
"03566099999","2010-06-13T07:50:00","4","52.357167","-0.107833","41.14","WYTON, UK","FM-15","EGUY ","V020","240,1,N,0036,1","03000,1,C,N","011265,1,N,1","+0130,1","+0080,1","99999,9","02,5,+00900,1,99,9","07,5,+03000,1,99,9",,,"07,99,1,99,9,99,9,99999,9,99,9,99,9","10169,1,99999,9",,,,,"MET062METAR EGUY 130750Z 24007KT 9999 FEW030 BKN100 13/08 Q1017 BLU;",
"03566099999","2010-06-13T08:50:00","4","52.357167","-0.107833","41.14","WYTON, UK","FM-15","EGUY ","V020","230,1,N,0041,1","99999,9,9,Y","009900,1,N,1","+0140,1","+0080,1","99999,9",,,,,,"10169,1,99999,9",,,,,"MET049METAR EGUY 130850Z 23008KT CAVOK 14/08 Q1017 BLU;",
"03566099999","2010-06-13T09:50:00","4","52.357167","-0.107833","41.14","WYTON, UK","FM-15","EGUY ","V020","230,1,N,0026,1","99999,9,9,Y","009900,1,N,1","+0150,1","+0090,1","99999,9",,,,,,"10169,1,99999,9",,,,,"MET049METAR EGUY 130950Z 23005KT CAVOK 15/09 Q1017 BLU;",
"03566099999","2010-06-13T10:50:00","4","52.357167","-0.107833","41.14","WYTON, UK","FM-15","EGUY ","V020","230,1,N,0031,1","01800,5,9,N","999999,9,N,1","+0160,1","+0090,1","99999,9","02,5,+00900,5,99,9","04,5,+01800,5,99,9","07,5,+02700,5,99,9",,,"10160,1,99999,9",,,,,"MET064METAR EGUY 131050Z 23006KT FEW030 SCT060 BKN090 16/09 Q1016 BLU;",
"03566099999","2010-06-13T11:50:00","4","52.357167","-0.107833","41.14","WYTON, UK","FM-15","EGUY ","V020","180,1,N,0041,1","22000,1,9,N","999999,9,N,1","+9999,9","+9999,9","99999,9","04,5,+01050,5,99,9",,,,,"10150,1,99999,9",,,,,"MET056METAR EGUY 131150Z 18008KT SCT035 BKN07017/11 Q1015 BLU;",
"03566099999","2010-06-13T12:50:00","4","52.357167","-0.107833","41.14","WYTON, UK","FM-15","EGUY ","V020","200,1,N,0041,1","02100,5,9,N","999999,9,N,1","+0180,1","+0120,1","99999,9","02,5,+00900,5,99,9","04,5,+02100,5,99,9","07,5,+03300,5,99,9",,,"10140,1,99999,9",,,,,"MET064METAR EGUY 131250Z 20008KT FEW030 SCT070 BKN110 18/12 Q1014 BLU;",
"03566099999","2010-06-13T13:50:00","4","52.357167","-0.107833","41.14","WYTON, UK","FM-15","EGUY ","V020","170,1,N,0026,1","00900,1,C,N","011265,1,N,1","+0180,1","+0120,1","99999,9","02,5,+00750,1,99,9","04,5,+00900,1,99,9","07,5,+03000,1,99,9",,"07,99,1,99,9,99,9,99999,9,99,9,99,9","10129,1,99999,9",,,,,"MET069METAR EGUY 131350Z 17005KT 9999 FEW025 SCT030 BKN100 18/12 Q1013 BLU;",
"03566099999","2010-06-13T14:50:00","4","52.357167","-0.107833","41.14","WYTON, UK","FM-15","EGUY ","V020","200,1,N,0051,1","00960,1,C,N","011265,1,N,1","+0190,1","+0110,1","99999,9","02,5,+00750,1,99,9","04,5,+00960,1,99,9","07,5,+03000,1,99,9",,"07,99,1,99,9,99,9,99999,9,99,9,99,9","10119,1,99999,9","16,1",,,,"MET074METAR EGUY 131450Z 20010KT 9999 VCSH FEW025 SCT032 BKN100 19/11 Q1012 BLU;",
"03566099999","2010-06-14T07:50:00","4","52.357167","-0.107833","41.14","WYTON, UK","FM-15","EGUY ","V020","020,1,N,0051,1","02400,1,C,N","007000,1,N,1","+0140,1","+0130,1","99999,9","04,5,+00240,1,99,9","07,5,+02400,1,99,9",,,"07,99,1,99,9,99,9,99999,9,99,9,99,9","10129,1,99999,9","10,1",,,,"MET065METAR EGUY 140750Z 02010KT 7000 BR SCT008 BKN080 14/13 Q1013 GRN;",
"03566099999","2010-06-14T08:50:00","4","52.357167","-0.107833","41.14","WYTON, UK","FM-15","EGUY ","V020","030,1,N,0051,1","00600,1,C,N","006000,1,N,1","+0140,1","+0130,1","99999,9","04,5,+00150,1,99,9","07,5,+00600,1,99,9",,,"07,99,1,99,9,99,9,99999,9,99,9,99,9","10169,1,99999,9","10,1",,,,"MET066METAR EGUY 140850Z 03010KT 6000 BR SCT005 BKN020 14/13 Q1017 YLO1;",
"03566099999","2010-06-14T09:50:00","4","52.357167","-0.107833","41.14","WYTON, UK","FM-15","EGUY ","V020","030,1,N,0062,1","00300,1,C,N","009000,1,N,1","+0150,1","+0130,1","99999,9","02,5,+00240,1,99,9","04,5,+00300,1,99,9","07,5,+02400,1,99,9",,"07,99,1,99,9,99,9,99999,9,99,9,99,9","10180,1,99999,9","05,1",,,,"MET072METAR EGUY 140950Z 03012KT 9000 HZ FEW008 SCT010 BKN080 15/13 Q1018 GRN;",
"03566099999","2010-06-14T10:50:00","4","52.357167","-0.107833","41.14","WYTON, UK","FM-15","EGUY ","V020","010,1,N,0077,1","00420,1,C,N","011265,1,N,1","+0150,1","+0130,1","99999,9","02,5,+00240,1,99,9","04,5,+00420,1,99,9","07,5,+02400,1,99,9",,"07,99,1,99,9,99,9,99999,9,99,9,99,9","10190,1,99999,9",,,,,"MET069METAR EGUY 141050Z 01015KT 9999 FEW008 SCT014 BKN080 15/13 Q1019 GRN;",
"03566099999","2010-06-14T11:50:00","4","52.357167","-0.107833","41.14","WYTON, UK","FM-15","EGUY ","V020","010,1,N,0077,1","03000,1,C,N","011265,1,N,1","+0160,1","+0120,1","99999,9","04,5,+00360,1,99,9","07,5,+03000,1,99,9",,,"07,99,1,99,9,99,9,99999,9,99,9,99,9","10190,1,99999,9",,,,,"MET062METAR EGUY 141150Z 01015KT 9999 SCT012 BKN100 16/12 Q1019 GRN;",
"03566099999","2010-06-14T12:50:00","4","52.357167","-0.107833","41.14","WYTON, UK","FM-15","EGUY ","V020","010,1,N,0067,1","00480,1,C,N","011265,1,N,1","+0150,1","+0110,1","99999,9","07,5,+00480,1,99,9",,,,"07,99,1,99,9,99,9,99999,9,99,9,99,9","10200,1,99999,9",,,,,"MET056METAR EGUY 141250Z 01013KT 9999 BKN016 15/11 Q1020 WHTN;",
"03566099999","2010-06-15T06:50:00","4","52.357167","-0.107833","41.14","WYTON, UK","FM-15","EGUY ","V020","030,1,N,0036,1","22000,1,9,N","011265,1,N,1","+0090,1","+0090,1","99999,9","02,5,+00540,1,99,9",,,,"02,99,1,99,9,99,9,99999,9,99,9,99,9","10281,1,99999,9",,,,,"MET055METAR EGUY 150650Z 03007KT 9999 FEW018 09/09 Q1028 BLU;",
"03566099999","2010-06-15T07:50:00","4","52.357167","-0.107833","41.14","WYTON, UK","FM-15","EGUY ","V020","020,1,N,0031,1","01350,1,C,N","011265,1,N,1","+0110,1","+0090,1","99999,9","04,5,+00600,1,99,9","07,5,+01350,1,99,9",,,"07,99,1,99,9,99,9,99999,9,99,9,99,9","10291,1,99999,9",,,,,"MET062METAR EGUY 150750Z 02006KT 9999 SCT020 BKN045 11/09 Q1029 WHT;",
"03566099999","2010-06-15T08:50:00","4","52.357167","-0.107833","41.14","WYTON, UK","FM-15","EGUY ","V020","360,1,N,0067,1","01380,1,C,N","011265,1,N,1","+0130,1","+0080,1","99999,9","04,5,+00660,1,99,9","07,5,+01380,1,99,9",,,"07,99,1,99,9,99,9,99999,9,99,9,99,9","10291,1,99999,9",,,,,"MET062METAR EGUY 150850Z 36013KT 9999 SCT022 BKN046 13/08 Q1029 WHT;",
"03566099999","2010-06-15T09:50:00","4","52.357167","-0.107833","41.14","WYTON, UK","FM-15","EGUY ","V020","030,1,N,0072,1","01200,1,C,N","011265,1,N,1","+0130,1","+0070,1","99999,9","04,5,+00750,1,99,9","07,5,+01200,1,99,9",,,"07,99,1,99,9,99,9,99999,9,99,9,99,9","10291,1,99999,9",,,,,"MET062METAR EGUY 150950Z 03014KT 9999 SCT025 BKN040 13/07 Q1029 BLU;",
"03566099999","2010-06-15T10:50:00","4","52.357167","-0.107833","41.14","WYTON, UK","FM-15","EGUY ","V020","060,1,N,0057,1","01350,1,C,N","011265,1,N,1","+0160,1","+0060,1","99999,9","02,5,+00750,1,99,9","07,5,+01350,1,99,9",,,"07,99,1,99,9,99,9,99999,9,99,9,99,9","10291,1,99999,9",,,,,"MET062METAR EGUY 151050Z 06011KT 9999 FEW025 BKN045 16/06 Q1029 BLU;",
"03566099999","2010-06-15T11:50:00","4","52.357167","-0.107833","41.14","WYTON, UK","FM-15","EGUY ","V020","020,1,N,0067,1","22000,1,9,N","011265,1,N,1","+0150,1","+0070,1","99999,9","04,5,+01050,1,99,9",,,,"04,99,1,99,9,99,9,99999,9,99,9,99,9","10291,1,99999,9",,,,,"MET055METAR EGUY 151150Z 02013KT 9999 SCT035 15/07 Q1029 BLU;",
"03566099999","2010-06-15T12:50:00","4","52.357167","-0.107833","41.14","WYTON, UK","FM-15","EGUY ","V020","020,1,N,0072,1","22000,1,9,N","011265,1,N,1","+0160,1","+0070,1","99999,9","04,5,+01050,1,99,9",,,,"04,99,1,99,9,99,9,99999,9,99,9,99,9","10291,1,99999,9",,,,,"MET055METAR EGUY 151250Z 02014KT 9999 SCT035 16/07 Q1029 BLU;",
"03566099999","2010-06-15T13:50:00","4","52.357167","-0.107833","41.14","WYTON, UK","FM-15","EGUY ","V020","010,1,N,0062,1","22000,1,9,N","011265,1,N,1","+0160,1","+0060,1","99999,9","04,5,+01350,1,99,9",,,,"04,99,1,99,9,99,9,99999,9,99,9,99,9","10291,1,99999,9",,,,"0113,1","MET058METAR EGUY 151350Z 01012G22KT 9999 SCT045 16/06 Q1029 BLU;",
"03566099999","2010-06-15T14:50:00","4","52.357167","-0.107833","41.14","WYTON, UK","FM-15","EGUY ","V020","010,1,N,0077,1","22000,1,9,N","011265,1,N,1","+0160,1","+0050,1","99999,9","02,5,+01350,1,99,9",,,,"02,99,1,99,9,99,9,99999,9,99,9,99,9","10291,1,99999,9",,,,,"MET055METAR EGUY 151450Z 01015KT 9999 FEW045 16/05 Q1029 BLU;",
"03566099999","2010-06-16T06:50:00","4","52.357167","-0.107833","41.14","WYTON, UK","FM-15","EGUY ","V020","020,1,N,0041,1","22000,1,9,N","011265,1,N,1","+0110,1","+0090,1","99999,9","02,5,+00900,1,99,9",,,,"02,99,1,99,9,99,9,99999,9,99,9,99,9","10281,1,99999,9",,,,,"MET055METAR EGUY 160650Z 02008KT 9999 FEW030 11/09 Q1028 BLU;",
"03566099999","2010-06-16T07:50:00","4","52.357167","-0.107833","41.14","WYTON, UK","FM-15","EGUY ","V020","040,1,N,0062,1","00900,1,C,N","011265,1,N,1","+0120,1","+0080,1","99999,9","04,5,+00600,1,99,9","07,5,+00900,1,99,9",,,"07,99,1,99,9,99,9,99999,9,99,9,99,9","10281,1,99999,9",,,,,"MET062METAR EGUY 160750Z 04012KT 9999 SCT020 BKN030 12/08 Q1028 WHT;",
"03566099999","2010-06-16T08:50:00","4","52.357167","-0.107833","41.14","WYTON, UK","FM-15","EGUY ","V020","060,1,N,0062,1","00750,1,C,N","011265,1,N,1","+0130,1","+0070,1","99999,9","02,5,+00660,1,99,9","07,5,+00750,1,99,9",,,"07,99,1,99,9,99,9,99999,9,99,9,99,9","10281,1,99999,9",,,,,"MET062METAR EGUY 160850Z 06012KT 9999 FEW022 BKN025 13/07 Q1028 BLU;",
"03566099999","2010-06-16T09:50:00","4","52.357167","-0.107833","41.14","WYTON, UK","FM-15","EGUY ","V020","040,1,N,0062,1","22000,1,9,N","011265,1,N,1","+0150,1","+0070,1","99999,9","04,5,+00960,1,99,9",,,,"04,99,1,99,9,99,9,99999,9,99,9,99,9","10281,1,99999,9",,,,,"MET055METAR EGUY 160950Z 04012KT 9999 SCT032 15/07 Q1028 BLU;",
"03566099999","2010-06-16T10:50:00","4","52.357167","-0.107833","41.14","WYTON, UK","FM-15","EGUY ","V020","040,1,N,0051,1","01050,1,C,N","011265,1,N,1","+0150,1","+0080,1","99999,9","07,5,+01050,1,99,9",,,,"07,99,1,99,9,99,9,99999,9,99,9,99,9","10271,1,99999,9",,,,,"MET055METAR EGUY 161050Z 04010KT 9999 BKN035 15/08 Q1027 BLU;",
"03566099999","2010-06-16T11:50:00","4","52.357167","-0.107833","41.14","WYTON, UK","FM-15","EGUY ","V020","050,1,N,0062,1","22000,1,9,N","011265,1,N,1","+0160,1","+0080,1","99999,9","04,5,+01050,1,99,9",,,,"04,99,1,99,9,99,9,99999,9,99,9,99,9","10271,1,99999,9",,,,,"MET055METAR EGUY 161150Z 05012KT 9999 SCT035 16/08 Q1027 BLU;",
"03566099999","2010-06-16T12:50:00","4","52.357167","-0.107833","41.14","WYTON, UK","FM-15","EGUY ","V020","020,1,N,0057,1","22000,1,9,N","011265,1,N,1","+0170,1","+0080,1","99999,9","02,5,+01080,1,99,9",,,,"02,99,1,99,9,99,9,99999,9,99,9,99,9","10261,1,99999,9",,,,,"MET055METAR EGUY 161250Z 02011KT 9999 FEW036 17/08 Q1026 BLU;",
"03566099999","2010-06-16T13:50:00","4","52.357167","-0.107833","41.14","WYTON, UK","FM-15","EGUY ","V020","030,1,N,0072,1","22000,1,9,N","011265,1,N,1","+0170,1","+0090,1","99999,9","02,5,+01050,1,99,9",,,,"02,99,1,99,9,99,9,99999,9,99,9,99,9","10261,1,99999,9",,,,,"MET055METAR EGUY 161350Z 03014KT 9999 FEW035 17/09 Q1026 BLU;",
"03566099999","2010-06-16T14:50:00","4","52.357167","-0.107833","41.14","WYTON, UK","FM-15","EGUY ","V020","030,1,N,0051,1","22000,1,9,N","011265,1,N,1","+0170,1","+0090,1","99999,9","02,5,+01050,1,99,9",,,,"02,99,1,99,9,99,9,99999,9,99,9,99,9","10251,1,99999,9",,,,,"MET055METAR EGUY 161450Z 03010KT 9999 FEW035 17/09 Q1025 BLU;",
"03566099999","2010-06-17T06:50:00","4","52.357167","-0.107833","41.14","WYTON, UK","FM-15","EGUY ","V020","020,1,N,0041,1","22000,1,9,N","011265,1,N,1","+0110,1","+0090,1","99999,9","02,5,+00300,1,99,9",,,,"02,99,1,99,9,99,9,99999,9,99,9,99,9","10240,1,99999,9",,,,,"MET055METAR EGUY 170650Z 02008KT 9999 FEW010 11/09 Q1024 BLU;",
"03566099999","2010-06-17T07:18:00","4","52.357167","-0.107833","41.14","WYTON, UK","FM-15","EGUY ","V020","010,1,N,0051,1","22000,1,9,N","011265,1,N,1","+0120,1","+0100,1","99999,9","04,5,+00360,1,99,9",,,,"04,99,1,99,9,99,9,99999,9,99,9,99,9","10240,1,99999,9",,,,,"MET055METAR EGUY 170718Z 01010KT 9999 SCT012 12/10 Q1024 GRN;",
"03566099999","2010-06-17T07:50:00","4","52.357167","-0.107833","41.14","WYTON, UK","FM-15","EGUY ","V020","010,1,N,0041,1","22000,1,9,N","011265,1,N,1","+0130,1","+0100,1","99999,9","04,5,+00360,1,99,9",,,,"04,99,1,99,9,99,9,99999,9,99,9,99,9","10240,1,99999,9",,,,,"MET055METAR EGUY 170750Z 01008KT 9999 SCT012 13/10 Q1024 GRN;",
"03566099999","2010-06-17T08:50:00","4","52.357167","-0.107833","41.14","WYTON, UK","FM-15","EGUY ","V020","020,1,N,0051,1","22000,1,9,N","011265,1,N,1","+0150,1","+0100,1","99999,9","02,5,+00600,1,99,9",,,,"02,99,1,99,9,99,9,99999,9,99,9,99,9","10251,1,99999,9",,,,,"MET055METAR EGUY 170850Z 02010KT 9999 FEW020 15/10 Q1025 BLU;",
"03566099999","2010-06-17T09:50:00","4","52.357167","-0.107833","41.14","WYTON, UK","FM-15","EGUY ","V020","020,1,N,0051,1","22000,1,9,N","011265,1,N,1","+0160,1","+0100,1","99999,9","02,5,+00750,1,99,9",,,,"02,99,1,99,9,99,9,99999,9,99,9,99,9","10240,1,99999,9",,,,,"MET055METAR EGUY 170950Z 02010KT 9999 FEW025 16/10 Q1024 BLU;",
"03566099999","2010-06-17T10:50:00","4","52.357167","-0.107833","41.14","WYTON, UK","FM-15","EGUY ","V020","020,1,N,0062,1","22000,1,9,N","011265,1,N,1","+0180,1","+0100,1","99999,9","02,5,+00960,1,99,9",,,,"02,99,1,99,9,99,9,99999,9,99,9,99,9","10240,1,99999,9",,,,,"MET055METAR EGUY 171050Z 02012KT 9999 FEW032 18/10 Q1024 BLU;",
"03566099999","2010-06-17T11:50:00","4","52.357167","-0.107833","41.14","WYTON, UK","FM-15","EGUY ","V020","030,1,N,0051,1","22000,1,9,N","011265,1,N,1","+0180,1","+0100,1","99999,9","02,5,+00900,1,99,9",,,,"02,99,1,99,9,99,9,99999,9,99,9,99,9","10230,1,99999,9",,,,,"MET055METAR EGUY 171150Z 03010KT 9999 FEW030 18/10 Q1023 BLU;",
"03566099999","2010-06-17T12:50:00","4","52.357167","-0.107833","41.14","WYTON, UK","FM-15","EGUY ","V020","020,1,N,0072,1","22000,1,9,N","011265,1,N,1","+0190,1","+0100,1","99999,9","02,5,+01080,1,99,9",,,,"02,99,1,99,9,99,9,99999,9,99,9,99,9","10230,1,99999,9",,,,,"MET055METAR EGUY 171250Z 02014KT 9999 FEW036 19/10 Q1023 BLU;",
"03566099999","2010-06-17T13:50:00","4","52.357167","-0.107833","41.14","WYTON, UK","FM-15","EGUY ","V020","020,1,N,0062,1","22000,1,9,N","011265,1,N,1","+0190,1","+0120,1","99999,9","02,5,+00900,1,99,9",,,,"02,99,1,99,9,99,9,99999,9,99,9,99,9","10220,1,99999,9",,,,,"MET055METAR EGUY 171350Z 02012KT 9999 FEW030 19/12 Q1022 BLU;",
"03566099999","2010-06-17T14:50:00","4","52.357167","-0.107833","41.14","WYTON, UK","FM-15","EGUY ","V020","010,1,N,0057,1","22000,1,9,N","011265,1,N,1","+0190,1","+0120,1","99999,9","02,5,+00840,1,99,9",,,,"02,99,1,99,9,99,9,99999,9,99,9,99,9","10220,1,99999,9",,,,,"MET055METAR EGUY 171450Z 01011KT 9999 FEW028 19/12 Q1022 BLU;",
"03566099999","2010-06-18T06:50:00","4","52.357167","-0.107833","41.14","WYTON, UK","FM-15","EGUY ","V020","010,1,N,0036,1","00210,1,C,N","011265,1,N,1","+0120,1","+0110,1","99999,9","08,5,+00210,1,99,9",,,,"08,99,1,99,9,99,9,99999,9,99,9,99,9","10210,1,99999,9",,,,,"MET055METAR EGUY 180650Z 01007KT 9999 OVC007 12/11 Q1021 GRN;",
"03566099999","2010-06-18T07:50:00","4","52.357167","-0.107833","41.14","WYTON, UK","FM-15","EGUY ","V020","020,1,N,0041,1","00270,1,C,N","011265,1,N,1","+0130,1","+0110,1","99999,9","08,5,+00270,1,99,9",,,,"08,99,1,99,9,99,9,99999,9,99,9,99,9","10220,1,99999,9",,,,,"MET055METAR EGUY 180750Z 02008KT 9999 OVC009 13/11 Q1022 GRN;",
"03566099999","2010-06-18T08:50:00","4","52.357167","-0.107833","41.14","WYTON, UK","FM-15","EGUY ","V020","020,1,N,0026,1","00360,1,C,N","011265,1,N,1","+0140,1","+0110,1","99999,9","04,5,+00270,1,99,9","08,5,+00360,1,99,9",,,"08,99,1,99,9,99,9,99999,9,99,9,99,9","10210,1,99999,9",,,,,"MET062METAR EGUY 180850Z 02005KT 9999 SCT009 OVC012 14/11 Q1021 GRN;",
"03566099999","2010-06-18T09:50:00","4","52.357167","-0.107833","41.14","WYTON, UK","FM-15","EGUY ","V020","030,1,N,0021,1","00420,1,C,N","011265,1,N,1","+0150,1","+0120,1","99999,9","04,5,+00360,1,99,9","08,5,+00420,1,99,9",,,"08,99,1,99,9,99,9,99999,9,99,9,99,9","10210,1,99999,9",,,,,"MET062METAR EGUY 180950Z 03004KT 9999 SCT012 OVC014 15/12 Q1021 GRN;",
"03566099999","2010-06-18T10:50:00","4","52.357167","-0.107833","41.14","WYTON, UK","FM-15","EGUY ","V020","360,1,N,0036,1","00450,1,C,N","011265,1,N,1","+0150,1","+0120,1","99999,9","04,5,+00390,1,99,9","08,5,+00450,1,99,9",,,"08,99,1,99,9,99,9,99999,9,99,9,99,9","10210,1,99999,9",,,,,"MET062METAR EGUY 181050Z 36007KT 9999 SCT013 OVC015 15/12 Q1021 GRN;",
"03566099999","2010-06-18T11:50:00","4","52.357167","-0.107833","41.14","WYTON, UK","FM-15","EGUY ","V020","360,1,N,0041,1","00450,1,C,N","011265,1,N,1","+0150,1","+0120,1","99999,9","04,5,+00330,1,99,9","08,5,+00450,1,99,9",,,"08,99,1,99,9,99,9,99999,9,99,9,99,9","10210,1,99999,9",,,,,"MET062METAR EGUY 181150Z 36008KT 9999 SCT011 OVC015 15/12 Q1021 GRN;",
"03566099999","2010-06-18T12:50:00","4","52.357167","-0.107833","41.14","WYTON, UK","FM-15","EGUY ","V020","020,1,N,0041,1","00450,1,C,N","011265,1,N,1","+0150,1","+0120,1","99999,9","04,5,+00300,1,99,9","07,5,+00450,1,99,9",,,"07,99,1,99,9,99,9,99999,9,99,9,99,9","10210,1,99999,9",,,,,"MET062METAR EGUY 181250Z 02008KT 9999 SCT010 BKN015 15/12 Q1021 GRN;",
"03566099999","2010-06-18T13:50:00","4","52.357167","-0.107833","41.14","WYTON, UK","FM-15","EGUY ","V020","020,1,N,0062,1","00420,1,C,N","006000,1,N,1","+0130,1","+0120,1","99999,9","04,5,+00270,1,99,9","07,5,+00420,1,99,9",,,"07,99,1,99,9,99,9,99999,9,99,9,99,9","10210,1,99999,9","51,1",,,,"MET066METAR EGUY 181350Z 02012KT 6000 -DZ SCT009 BKN014 13/12 Q1021 GRN;",
"03566099999","2010-06-18T14:00:00","4","52.357167","-0.107833","41.14","WYTON, UK","FM-15","EGUY ","V020","020,1,N,0051,1","00150,1,C,N","004000,1,N,1","+0130,1","+0120,1","99999,9","04,5,+00090,1,99,9","07,5,+00150,1,99,9","08,5,+00360,1,99,9",,"08,99,1,99,9,99,9,99999,9,99,9,99,9","10210,1,99999,9","53,1","63,1",,,"MET075METAR EGUY 181400Z 02010KT 4000 RADZ SCT003 BKN005 OVC012 13/12 Q1021 YLO2;",
"03566099999","2010-06-19T06:50:00","4","52.357167","-0.107833","41.14","WYTON, UK","FM-15","EGUY ","V020","340,1,N,0072,1","22000,1,9,N","011265,1,N,1","+0110,1","+0060,1","99999,9","02,5,+00600,1,99,9",,,,"02,99,1,99,9,99,9,99999,9,99,9,99,9","10169,1,99999,9",,,,,"MET055METAR EGUY 190650Z 34014KT 9999 FEW020 11/06 Q1017 BLU;",
"03566099999","2010-06-19T07:50:00","4","52.357167","-0.107833","41.14","WYTON, UK","FM-15","EGUY ","V020","340,1,N,0072,1","01350,1,C,N","011265,1,N,1","+0120,1","+0070,1","99999,9","04,5,+00750,1,99,9","07,5,+01350,1,99,9",,,"07,99,1,99,9,99,9,99999,9,99,9,99,9","10169,1,99999,9",,,,"0123,1","MET065METAR EGUY 190750Z 34014G24KT 9999 SCT025 BKN045 12/07 Q1017 BLU;",
"03566099999","2010-06-19T08:50:00","4","52.357167","-0.107833","41.14","WYTON, UK","FM-15","EGUY ","V020","350,1,N,0103,1","00720,1,C,N","011265,1,N,1","+0130,1","+0070,1","99999,9","02,5,+00450,1,99,9","04,5,+00720,1,99,9","07,5,+01470,1,99,9",,"07,99,1,99,9,99,9,99999,9,99,9,99,9","10169,1,99999,9","80,1",,,,"MET075METAR EGUY 190850Z 35020KT 9999 -SHRA FEW015 SCT024 BKN049 13/07 Q1017 WHT;",
"03566099999","2010-06-19T09:50:00","4","52.357167","-0.107833","41.14","WYTON, UK","FM-15","EGUY ","V020","330,1,N,0087,1","00720,1,C,N","011265,1,N,1","+0120,1","+0070,1","99999,9","02,5,+00600,1,99,9","04,5,+00720,1,99,9","07,5,+00870,1,99,9",,"07,99,1,99,9,99,9,99999,9,99,9,99,9","10169,1,99999,9",,,,,"MET069METAR EGUY 190950Z 33017KT 9999 FEW020 SCT024 BKN029 12/07 Q1017 BLU;",
"03566099999","2010-06-19T10:50:00","4","52.357167","-0.107833","41.14","WYTON, UK","FM-15","EGUY ","V020","350,1,N,0098,1","00840,1,C,N","011265,1,N,1","+0130,1","+0060,1","99999,9","02,5,+00600,1,99,9","07,5,+00840,1,99,9",,,"07,99,1,99,9,99,9,99999,9,99,9,99,9","10169,1,99999,9","80,1",,,,"MET068METAR EGUY 191050Z 35019KT 9999 -SHRA FEW020 BKN028 13/06 Q1017 BLU;",
"03566099999","2010-06-19T11:50:00","4","52.357167","-0.107833","41.14","WYTON, UK","FM-15","EGUY ","V020","350,1,N,0077,1","99999,9,C,N","011265,1,N,1","+0130,1","+0070,1","99999,9","04,5,+00750,1,99,9","04,5,+01500,1,99,9",,,"04,99,1,99,9,99,9,99999,9,99,9,99,9","10169,1,99999,9",,,,,"MET062METAR EGUY 191150Z 35015KT 9999 SCT025 SCT050 13/07 Q1017 BLU;","P01 015003SCOCIG"
"03566099999","2010-06-19T12:50:00","4","52.357167","-0.107833","41.14","WYTON, UK","FM-15","EGUY ","V020","330,1,N,0082,1","00750,1,C,N","011265,1,N,1","+0120,1","+0100,1","99999,9","02,5,+00540,1,99,9","04,5,+00750,1,99,9","07,5,+01080,1,99,9",,"07,99,1,99,9,99,9,99999,9,99,9,99,9","10169,1,99999,9","16,1",,,,"MET074METAR EGUY 191250Z 33016KT 9999 VCSH FEW018 SCT025 BKN036 12/10 Q1017 BLU;",
"03566099999","2010-06-19T13:50:00","4","52.357167","-0.107833","41.14","WYTON, UK","FM-15","EGUY ","V020","350,1,N,0067,1","00750,1,C,N","011265,1,N,1","+0120,1","+0080,1","99999,9","02,5,+00480,1,99,9","04,5,+00750,1,99,9","07,5,+01200,1,99,9",,"07,99,1,99,9,99,9,99999,9,99,9,99,9","10169,1,99999,9",,,,,"MET069METAR EGUY 191350Z 35013KT 9999 FEW016 SCT025 BKN040 12/08 Q1017 BLU;",
"03566099999","2010-06-19T14:50:00","4","52.357167","-0.107833","41.14","WYTON, UK","FM-15","EGUY ","V020","340,1,N,0082,1","00750,1,C,N","011265,1,N,1","+0120,1","+0070,1","99999,9","02,5,+00600,1,99,9","04,5,+00750,1,99,9","07,5,+01350,1,99,9",,"07,99,1,99,9,99,9,99999,9,99,9,99,9","10180,1,99999,9","81,1",,,,"MET074METAR EGUY 191450Z 34016KT 9999 SHRA FEW020 SCT025 BKN045 12/07 Q1018 BLU;",
"03566099999","2010-06-20T06:50:00","4","52.357167","-0.107833","41.14","WYTON, UK","FM-15","EGUY ","V020","330,1,N,0067,1","01200,1,C,N","011265,1,N,1","+0100,1","+0060,1","99999,9","07,5,+01200,1,99,9",,,,"07,99,1,99,9,99,9,99999,9,99,9,99,9","10200,1,99999,9",,,,,"MET055METAR EGUY 200650Z 33013KT 9999 BKN040 10/06 Q1020 BLU;",
"03566099999","2010-06-20T07:50:00","4","52.357167","-0.107833","41.14","WYTON, UK","FM-15","EGUY ","V020","330,1,N,0051,1","01200,1,C,N","011265,1,N,1","+0110,1","+0070,1","99999,9","02,5,+00600,1,99,9","08,5,+01200,1,99,9",,,"08,99,1,99,9,99,9,99999,9,99,9,99,9","10210,1,99999,9",,,,"0103,1","MET065METAR EGUY 200750Z 33010G20KT 9999 FEW020 OVC040 11/07 Q1021 BLU;",
"03566099999","2010-06-20T08:50:00","4","52.357167","-0.107833","41.14","WYTON, UK","FM-15","EGUY ","V020","340,1,N,0072,1","01200,1,C,N","011265,1,N,1","+0110,1","+0060,1","99999,9","02,5,+00600,1,99,9","07,5,+01200,1,99,9",,,"07,99,1,99,9,99,9,99999,9,99,9,99,9","10210,1,99999,9",,,,,"MET062METAR EGUY 200850Z 34014KT 9999 FEW020 BKN040 11/06 Q1021 BLU;",
"03566099999","2010-06-20T09:50:00","4","52.357167","-0.107833","41.14","WYTON, UK","FM-15","EGUY ","V020","360,1,N,0062,1","01050,1,C,N","011265,1,N,1","+0120,1","+0070,1","99999,9","02,5,+00600,1,99,9","04,5,+01050,1,99,9","07,5,+01200,1,99,9",,"07,99,1,99,9,99,9,99999,9,99,9,99,9","10210,1,99999,9",,,,,"MET069METAR EGUY 200950Z 36012KT 9999 FEW020 SCT035 BKN040 12/07 Q1021 BLU;",
"03566099999","2010-06-20T10:50:00","4","52.357167","-0.107833","41.14","WYTON, UK","FM-15","EGUY ","V020","360,1,N,0062,1","01050,1,C,N","011265,1,N,1","+0130,1","+0070,1","99999,9","02,5,+00750,1,99,9","07,5,+01050,1,99,9",,,"07,99,1,99,9,99,9,99999,9,99,9,99,9","10210,1,99999,9",,,,,"MET062METAR EGUY 201050Z 36012KT 9999 FEW025 BKN035 13/07 Q1021 BLU;",
"03566099999","2010-06-20T11:50:00","4","52.357167","-0.107833","41.14","WYTON, UK","FM-15","EGUY ","V020","340,1,N,0046,1","00840,1,C,N","011265,1,N,1","+0140,1","+0070,1","99999,9","07,5,+00840,1,99,9",,,,"07,99,1,99,9,99,9,99999,9,99,9,99,9","10220,1,99999,9",,,,,"MET055METAR EGUY 201150Z 34009KT 9999 BKN028 14/07 Q1022 BLU;",
"03566099999","2010-06-20T12:50:00","4","52.357167","-0.107833","41.14","WYTON, UK","FM-15","EGUY ","V020","350,1,N,0062,1","00900,1,C,N","011265,1,N,1","+0150,1","+0080,1","99999,9","07,5,+00900,1,99,9",,,,"07,99,1,99,9,99,9,99999,9,99,9,99,9","10220,1,99999,9",,,,,"MET055METAR EGUY 201250Z 35012KT 9999 BKN030 15/08 Q1022 BLU;",
"03566099999","2010-06-20T13:50:00","4","52.357167","-0.107833","41.14","WYTON, UK","FM-15","EGUY ","V020","350,1,N,0051,1","01050,1,C,N","011265,1,N,1","+0160,1","+0080,1","99999,9","07,5,+01050,1,99,9",,,,"07,99,1,99,9,99,9,99999,9,99,9,99,9","10220,1,99999,9",,,,,"MET055METAR EGUY 201350Z 35010KT 9999 BKN035 16/08 Q1022 BLU;",
"03566099999","2010-06-20T14:50:00","4","52.357167","-0.107833","41.14","WYTON, UK","FM-15","EGUY ","V020","330,1,N,0041,1","22000,1,9,N","011265,1,N,1","+0170,1","+0090,1","99999,9","04,5,+01050,1,99,9",,,,"04,99,1,99,9,99,9,99999,9,99,9,99,9","10220,1,99999,9",,,,,"MET055METAR EGUY 201450Z 33008KT 9999 SCT035 17/09 Q1022 BLU;",
"03566099999","2010-06-21T06:50:00","4","52.357167","-0.107833","41.14","WYTON, UK","FM-15","EGUY ","V020","330,1,N,0026,1","99999,9,9,Y","009900,1,N,1","+0150,1","+0110,1","99999,9",,,,,,"10230,1,99999,9",,,,,"MET049METAR EGUY 210650Z 33005KT CAVOK 15/11 Q1023 BLU;",
"03566099999","2010-06-21T07:50:00","4","52.357167","-0.107833","41.14","WYTON, UK","FM-15","EGUY ","V020","310,1,N,0021,1","99999,9,9,Y","009900,1,N,1","+0160,1","+0120,1","99999,9",,,,,,"10230,1,99999,9",,,,,"MET049METAR EGUY 210750Z 31004KT CAVOK 16/12 Q1023 BLU;",
"03566099999","2010-06-21T08:50:00","4","52.357167","-0.107833","41.14","WYTON, UK","FM-15","EGUY ","V020","360,1,N,0031,1","99999,9,9,Y","009900,1,N,1","+0180,1","+0130,1","99999,9",,,,,,"10230,1,99999,9",,,,,"MET049METAR EGUY 210850Z 36006KT CAVOK 18/13 Q1023 BLU;",
"03566099999","2010-06-21T09:50:00","4","52.357167","-0.107833","41.14","WYTON, UK","FM-15","EGUY ","V020","360,1,N,0041,1","22000,1,9,N","011265,1,N,1","+0190,1","+0130,1","99999,9","02,5,+00750,1,99,9","02,5,+07500,1,99,9",,,"02,99,1,99,9,99,9,99999,9,99,9,99,9","10230,1,99999,9",,,,,"MET062METAR EGUY 210950Z 36008KT 9999 FEW025 FEW250 19/13 Q1023 BLU;",
"03566099999","2010-06-21T10:50:00","4","52.357167","-0.107833","41.14","WYTON, UK","FM-15","EGUY ","V020","030,1,N,0031,1","22000,1,9,N","011265,1,N,1","+0200,1","+0130,1","99999,9","02,5,+00900,1,99,9",,,,"02,99,1,99,9,99,9,99999,9,99,9,99,9","10200,1,99999,9",,,,,"MET055METAR EGUY 211050Z 03006KT 9999 FEW030 20/13 Q1020 BLU;",
"03566099999","2010-06-21T11:50:00","4","52.357167","-0.107833","41.14","WYTON, UK","FM-15","EGUY ","V020","010,1,N,0021,1","22000,1,9,N","011265,1,N,1","+0220,1","+0130,1","99999,9","02,5,+01080,1,99,9",,,,"02,99,1,99,9,99,9,99999,9,99,9,99,9","10200,1,99999,9",,,,,"MET055METAR EGUY 211150Z 01004KT 9999 FEW036 22/13 Q1020 BLU;",
"03566099999","2010-06-21T12:50:00","4","52.357167","-0.107833","41.14","WYTON, UK","FM-15","EGUY ","V020","360,1,N,0031,1","22000,1,9,N","011265,1,N,1","+0220,1","+0120,1","99999,9","04,5,+01200,1,99,9",,,,"04,99,1,99,9,99,9,99999,9,99,9,99,9","10230,1,99999,9",,,,,"MET055METAR EGUY 211250Z 36006KT 9999 SCT040 22/12 Q1023 BLU;",
"03566099999","2010-06-21T13:50:00","4","52.357167","-0.107833","41.14","WYTON, UK","FM-15","EGUY ","V020","999,9,V,0010,1","22000,1,9,N","011265,1,N,1","+0210,1","+0120,1","99999,9","04,5,+01080,1,99,9",,,,"04,99,1,99,9,99,9,99999,9,99,9,99,9","10230,1,99999,9",,,,,"MET055METAR EGUY 211350Z VRB02KT 9999 SCT036 21/12 Q1023 BLU;",
"03566099999","2010-06-21T14:50:00","4","52.357167","-0.107833","41.14","WYTON, UK","FM-15","EGUY ","V020","020,1,N,0031,1","99999,9,C,N","011265,1,N,1","+0220,1","+0130,1","99999,9","04,5,+01080,1,99,9","04,5,+01500,1,99,9",,,"04,99,1,99,9,99,9,99999,9,99,9,99,9","10230,1,99999,9",,,,,"MET062METAR EGUY 211450Z 02006KT 9999 SCT036 SCT050 22/13 Q1023 BLU;","P01 015003SCOCIG"
"03566099999","2010-06-21T15:50:00","4","52.357167","-0.107833","41.14","WYTON, UK","FM-15","EGUY ","V020","050,1,N,0021,1","99999,9,C,N","011265,1,N,1","+0220,1","+0130,1","99999,9","04,5,+01050,1,99,9","04,5,+01500,1,99,9",,,"04,99,1,99,9,99,9,99999,9,99,9,99,9","10220,1,99999,9",,,,,"MET062METAR EGUY 211550Z 05004KT 9999 SCT035 SCT050 22/13 Q1022 BLU;","P01 015003SCOCIG"
"03566099999","2010-06-22T06:50:00","4","52.357167","-0.107833","41.14","WYTON, UK","FM-15","EGUY ","V020","240,1,N,0015,1","99999,9,9,Y","009900,1,N,1","+0170,1","+0130,1","99999,9",,,,,,"10230,1,99999,9",,,,,"MET049METAR EGUY 220650Z 24003KT CAVOK 17/13 Q1023 BLU;",
"03566099999","2010-06-22T07:50:00","4","52.357167","-0.107833","41.14","WYTON, UK","FM-15","EGUY ","V020","230,1,N,0026,1","99999,9,9,Y","009900,1,N,1","+0180,1","+0140,1","99999,9",,,,,,"10230,1,99999,9",,,,,"MET049METAR EGUY 220750Z 23005KT CAVOK 18/14 Q1023 BLU;",
"03566099999","2010-06-22T08:50:00","4","52.357167","-0.107833","41.14","WYTON, UK","FM-15","EGUY ","V020","240,1,N,0026,1","99999,9,9,Y","009900,1,N,1","+0200,1","+0140,1","99999,9",,,,,,"10230,1,99999,9",,,,,"MET049METAR EGUY 220850Z 24005KT CAVOK 20/14 Q1023 BLU;",
"03566099999","2010-06-22T09:50:00","4","52.357167","-0.107833","41.14","WYTON, UK","FM-15","EGUY ","V020","240,1,N,0026,1","99999,9,9,Y","009900,1,N,1","+0220,1","+0140,1","99999,9",,,,,,"10230,1,99999,9",,,,,"MET049METAR EGUY 220950Z 24005KT CAVOK 22/14 Q1023 BLU;",
"03566099999","2010-06-22T10:50:00","4","52.357167","-0.107833","41.14","WYTON, UK","FM-15","EGUY ","V020","210,1,N,0046,1","22000,1,9,N","011265,1,N,1","+0240,1","+0140,1","99999,9","02,5,+01140,1,99,9",,,,"02,99,1,99,9,99,9,99999,9,99,9,99,9","10230,1,99999,9",,,,,"MET055METAR EGUY 221050Z 21009KT 9999 FEW038 24/14 Q1023 BLU;",
"03566099999","2010-06-22T11:50:00","4","52.357167","-0.107833","41.14","WYTON, UK","FM-15","EGUY ","V020","220,1,N,0051,1","22000,1,9,N","011265,1,N,1","+0240,1","+0130,1","99999,9","02,5,+01350,1,99,9",,,,"02,99,1,99,9,99,9,99999,9,99,9,99,9","10230,1,99999,9",,,,,"MET055METAR EGUY 221150Z 22010KT 9999 FEW045 24/13 Q1023 BLU;",
"03566099999","2010-06-22T12:50:00","4","52.357167","-0.107833","41.14","WYTON, UK","FM-15","EGUY ","V020","230,1,N,0051,1","22000,1,9,N","011265,1,N,1","+0240,1","+0130,1","99999,9","02,5,+01350,1,99,9",,,,"02,99,1,99,9,99,9,99999,9,99,9,99,9","10230,1,99999,9",,,,,"MET055METAR EGUY 221250Z 23010KT 9999 FEW045 24/13 Q1023 BLU;",
"03566099999","2010-06-22T13:50:00","4","52.357167","-0.107833","41.14","WYTON, UK","FM-15","EGUY ","V020","240,1,N,0051,1","22000,1,9,N","011265,1,N,1","+0250,1","+0110,1","99999,9","02,5,+01350,1,99,9",,,,"02,99,1,99,9,99,9,99999,9,99,9,99,9","10220,1,99999,9",,,,,"MET055METAR EGUY 221350Z 24010KT 9999 FEW045 25/11 Q1022 BLU;",
"03566099999","2010-06-22T14:50:00","4","52.357167","-0.107833","41.14","WYTON, UK","FM-15","EGUY ","V020","250,1,N,0036,1","22000,1,9,N","011265,1,N,1","+0260,1","+0130,1","99999,9","02,5,+01500,1,99,9",,,,"02,99,1,99,9,99,9,99999,9,99,9,99,9","10220,1,99999,9",,,,,"MET055METAR EGUY 221450Z 25007KT 9999 FEW050 26/13 Q1022 BLU;",
"03566099999","2010-06-23T06:50:00","4","52.357167","-0.107833","41.14","WYTON, UK","FM-15","EGUY ","V020","300,1,N,0026,1","99999,9,9,Y","009900,1,N,1","+0160,1","+0130,1","99999,9",,,,,,"10230,1,99999,9",,,,,"MET049METAR EGUY 230650Z 30005KT CAVOK 16/13 Q1023 BLU;",
"03566099999","2010-06-23T07:50:00","4","52.357167","-0.107833","41.14","WYTON, UK","FM-15","EGUY ","V020","999,9,C,0000,1","99999,9,9,Y","009900,1,N,1","+0190,1","+0130,1","99999,9",,,,,,"10230,1,99999,9",,,,,"MET049METAR EGUY 230750Z 00000KT CAVOK 19/13 Q1023 BLU;",
"03566099999","2010-06-23T08:50:00","4","52.357167","-0.107833","41.14","WYTON, UK","FM-15","EGUY ","V020","999,9,V,0015,1","99999,9,9,Y","009900,1,N,1","+0200,1","+0130,1","99999,9",,,,,,"10230,1,99999,9",,,,,"MET049METAR EGUY 230850Z VRB03KT CAVOK 20/13 Q1023 BLU;",
"03566099999","2010-06-23T09:50:00","4","52.357167","-0.107833","41.14","WYTON, UK","FM-15","EGUY ","V020","230,1,N,0026,1","99999,9,9,Y","009900,1,N,1","+0210,1","+0130,1","99999,9",,,,,,"10220,1,99999,9",,,,,"MET049METAR EGUY 230950Z 23005KT CAVOK 21/13 Q1022 BLU;",
"03566099999","2010-06-23T10:50:00","4","52.357167","-0.107833","41.14","WYTON, UK","FM-15","EGUY ","V020","220,1,N,0026,1","22000,1,9,N","011265,1,N,1","+0210,1","+0130,1","99999,9","02,5,+01350,1,99,9",,,,"02,99,1,99,9,99,9,99999,9,99,9,99,9","10220,1,99999,9",,,,,"MET055METAR EGUY 231050Z 22005KT 9999 FEW045 21/13 Q1022 BLU;",
"03566099999","2010-06-23T11:50:00","4","52.357167","-0.107833","41.14","WYTON, UK","FM-15","EGUY ","V020","230,1,N,0041,1","99999,9,9,Y","009900,1,N,1","+0230,1","+0130,1","99999,9",,,,,,"10220,1,99999,9",,,,,"MET049METAR EGUY 231150Z 23008KT CAVOK 23/13 Q1022 BLU;",
"03566099999","2010-06-23T12:50:00","4","52.357167","-0.107833","41.14","WYTON, UK","FM-15","EGUY ","V020","190,1,N,0041,1","99999,9,9,Y","009900,1,N,1","+0240,1","+0150,1","99999,9",,,,,,"10220,1,99999,9",,,,,"MET049METAR EGUY 231250Z 19008KT CAVOK 24/15 Q1022 BLU;",
"03566099999","2010-06-23T13:50:00","4","52.357167","-0.107833","41.14","WYTON, UK","FM-15","EGUY ","V020","220,1,N,0036,1","99999,9,9,Y","009900,1,N,1","+0240,1","+0150,1","99999,9",,,,,,"10210,1,99999,9",,,,,"MET049METAR EGUY 231350Z 22007KT CAVOK 24/15 Q1021 BLU;",
"03566099999","2010-06-23T14:50:00","4","52.357167","-0.107833","41.14","WYTON, UK","FM-15","EGUY ","V020","240,1,N,0041,1","99999,9,9,Y","009900,1,N,1","+0240,1","+0140,1","99999,9",,,,,,"10210,1,99999,9",,,,,"MET049METAR EGUY 231450Z 24008KT CAVOK 24/14 Q1021 BLU;",
"03566099999","2010-06-24T06:50:00","4","52.357167","-0.107833","41.14","WYTON, UK","FM-15","EGUY ","V020","210,1,N,0031,1","99999,9,9,Y","009900,1,N,1","+0170,1","+0140,1","99999,9",,,,,,"10200,1,99999,9",,,,,"MET049METAR EGUY 240650Z 21006KT CAVOK 17/14 Q1020 BLU;",
"03566099999","2010-06-24T07:50:00","4","52.357167","-0.107833","41.14","WYTON, UK","FM-15","EGUY ","V020","270,1,N,0051,1","07500,5,9,N","999999,9,N,1","+0180,1","+0140,1","99999,9","02,5,+00600,5,99,9","07,5,+07500,5,99,9",,,,"10200,1,99999,9",,,,,"MET058METAR EGUY 240750Z 27010KT FEW020 BBKN250 18/14 Q1020 BLU;",
"03566099999","2010-06-24T09:50:00","4","52.357167","-0.107833","41.14","WYTON, UK","FM-15","EGUY ","V020","260,1,N,0041,1","00750,1,C,N","011265,1,N,1","+0200,1","+0140,1","99999,9","07,5,+00750,1,99,9","07,5,+07500,1,99,9",,,"07,99,1,99,9,99,9,99999,9,99,9,99,9","10190,1,99999,9",,,,,"MET062METAR EGUY 240950Z 26008KT 9999 BKN025 BKN250 20/14 Q1019 BLU;",
"03566099999","2010-06-24T10:50:00","4","52.357167","-0.107833","41.14","WYTON, UK","FM-15","EGUY ","V020","290,1,N,0031,1","00960,1,C,N","011265,1,N,1","+0210,1","+0140,1","99999,9","07,5,+00960,1,99,9",,,,"07,99,1,99,9,99,9,99999,9,99,9,99,9","10190,1,99999,9",,,,,"MET055METAR EGUY 241050Z 29006KT 9999 BKN032 21/14 Q1019 BLU;",
"03566099999","2010-06-24T11:50:00","4","52.357167","-0.107833","41.14","WYTON, UK","FM-15","EGUY ","V020","280,1,N,0051,1","07500,1,C,N","011265,1,N,1","+0230,1","+0150,1","99999,9","04,5,+01050,1,99,9","07,5,+07500,1,99,9",,,"07,99,1,99,9,99,9,99999,9,99,9,99,9","10190,1,99999,9",,,,,"MET062METAR EGUY 241150Z 28010KT 9999 SCT035 BKN250 23/15 Q1019 BLU;",
"03566099999","2010-06-24T12:50:00","4","52.357167","-0.107833","41.14","WYTON, UK","FM-15","EGUY ","V020","280,1,N,0051,1","01200,1,C,N","011265,1,N,1","+0220,1","+0120,1","99999,9","02,5,+01050,1,99,9","04,5,+01200,1,99,9","07,5,+07500,1,99,9",,"07,99,1,99,9,99,9,99999,9,99,9,99,9","10190,1,99999,9",,,,,"MET069METAR EGUY 241250Z 28010KT 9999 FEW035 SCT040 BKN250 22/12 Q1019 BLU;",
"03566099999","2010-06-24T13:50:00","4","52.357167","-0.107833","41.14","WYTON, UK","FM-15","EGUY ","V020","290,1,N,0051,1","01200,1,C,N","011265,1,N,1","+0230,1","+0120,1","99999,9","07,5,+01200,1,99,9","07,5,+07500,1,99,9",,,"07,99,1,99,9,99,9,99999,9,99,9,99,9","10190,1,99999,9",,,,,"MET062METAR EGUY 241350Z 29010KT 9999 BKN040 BKN250 23/12 Q1019 BLU;",
"03566099999","2010-06-24T14:50:00","4","52.357167","-0.107833","41.14","WYTON, UK","FM-15","EGUY ","V020","300,1,N,0062,1","01800,1,C,N","011265,1,N,1","+0220,1","+0130,1","99999,9","02,5,+01200,1,99,9","04,5,+01800,1,99,9","07,5,+07500,1,99,9",,"07,99,1,99,9,99,9,99999,9,99,9,99,9","10180,1,99999,9",,,,,"MET069METAR EGUY 241450Z 30012KT 9999 FEW040 SCT060 BKN250 22/13 Q1018 BLU;",
"03566099999","2010-06-25T06:50:00","4","52.357167","-0.107833","41.14","WYTON, UK","FM-15","EGUY ","V020","350,1,N,0036,1","99999,9,9,Y","009900,1,N,1","+0150,1","+0100,1","99999,9",,,,,,"10190,1,99999,9",,,,,"MET049METAR EGUY 250650Z 35007KT CAVOK 15/10 Q1019 BLU;",
"03566099999","2010-06-25T07:50:00","4","52.357167","-0.107833","41.14","WYTON, UK","FM-15","EGUY ","V020","360,1,N,0031,1","99999,9,9,Y","009900,1,N,1","+0170,1","+0120,1","99999,9",,,,,,"10190,1,99999,9",,,,,"MET049METAR EGUY 250750Z 36006KT CAVOK 17/12 Q1019 BLU;",
"03566099999","2010-06-25T08:50:00","4","52.357167","-0.107833","41.14","WYTON, UK","FM-15","EGUY ","V020","340,1,N,0031,1","99999,9,9,Y","009900,1,N,1","+0190,1","+0110,1","99999,9",,,,,,"10190,1,99999,9",,,,,"MET049METAR EGUY 250850Z 34006KT CAVOK 19/11 Q1019 BLU;",
"03566099999","2010-06-25T09:50:00","4","52.357167","-0.107833","41.14","WYTON, UK","FM-15","EGUY ","V020","070,1,N,0026,1","22000,1,9,N","011265,1,N,1","+0200,1","+0140,1","99999,9","02,5,+00750,1,99,9",,,,"02,99,1,99,9,99,9,99999,9,99,9,99,9","10190,1,99999,9",,,,,"MET055METAR EGUY 250950Z 07005KT 9999 FEW025 20/14 Q1019 BLU;",
"03566099999","2010-06-25T10:50:00","4","52.357167","-0.107833","41.14","WYTON, UK","FM-15","EGUY ","V020","330,1,N,0021,1","22000,1,9,N","011265,1,N,1","+0210,1","+0110,1","99999,9","02,5,+00900,1,99,9",,,,"02,99,1,99,9,99,9,99999,9,99,9,99,9","10180,1,99999,9",,,,,"MET055METAR EGUY 251050Z 33004KT 9999 FEW030 21/11 Q1018 BLU;",
"03566099999","2010-06-25T11:50:00","4","52.357167","-0.107833","41.14","WYTON, UK","FM-15","EGUY ","V020","340,1,N,0031,1","01320,1,C,N","011265,1,N,1","+0220,1","+0120,1","99999,9","02,5,+00900,1,99,9","07,5,+01320,1,99,9",,,"07,99,1,99,9,99,9,99999,9,99,9,99,9","10180,1,99999,9",,,,,"MET062METAR EGUY 251150Z 34006KT 9999 FEW030 BKN044 22/12 Q1018 BLU;",
"03566099999","2010-06-25T12:50:00","4","52.357167","-0.107833","41.14","WYTON, UK","FM-15","EGUY ","V020","010,1,N,0021,1","01350,1,C,N","011265,1,N,1","+0220,1","+0120,1","99999,9","07,5,+01350,1,99,9",,,,"07,99,1,99,9,99,9,99999,9,99,9,99,9","10180,1,99999,9",,,,,"MET055METAR EGUY 251250Z 01004KT 9999 BKN045 22/12 Q1018 BLU;",
"03566099999","2010-06-25T13:50:00","4","52.357167","-0.107833","41.14","WYTON, UK","FM-15","EGUY ","V020","030,1,N,0031,1","01350,1,C,N","011265,1,N,1","+0220,1","+0130,1","99999,9","07,5,+01350,1,99,9",,,,"07,99,1,99,9,99,9,99999,9,99,9,99,9","10180,1,99999,9",,,,,"MET055METAR EGUY 251350Z 03006KT 9999 BKN045 22/13 Q1018 BLU;",
"03566099999","2010-06-25T14:50:00","4","52.357167","-0.107833","41.14","WYTON, UK","FM-15","EGUY ","V020","040,1,N,0031,1","22000,1,9,N","011265,1,N,1","+0220,1","+0120,1","99999,9","04,5,+01350,1,99,9",,,,"04,99,1,99,9,99,9,99999,9,99,9,99,9","10169,1,99999,9",,,,,"MET055METAR EGUY 251450Z 04006KT 9999 SCT045 22/12 Q1017 BLU;",
"03566099999","2010-06-26T06:50:00","4","52.357167","-0.107833","41.14","WYTON, UK","FM-15","EGUY ","V020","100,1,N,0031,1","01800,1,C,N","008000,1,N,1","+0160,1","+0150,1","99999,9","02,5,+01350,1,99,9","07,5,+01800,1,99,9",,,"07,99,1,99,9,99,9,99999,9,99,9,99,9","10180,1,99999,9","05,1",,,,"MET065METAR EGUY 260650Z 10006KT 8000 HZ FEW045 BKN060 16/15 Q1018 BLU;",
"03566099999","2010-06-26T08:50:00","4","52.357167","-0.107833","41.14","WYTON, UK","FM-15","EGUY ","V020","120,1,N,0026,1","01260,1,C,N","011265,1,N,1","+0180,1","+0140,1","99999,9","02,5,+00750,1,99,9","04,5,+01260,1,99,9","08,5,+01500,1,99,9",,"08,99,1,99,9,99,9,99999,9,99,9,99,9","10180,1,99999,9",,,,,"MET069METAR EGUY 260850Z 12005KT 9999 FEW025 SCT042 OVC050 18/14 Q1018 BLU;",
"03566099999","2010-06-26T09:50:00","4","52.357167","-0.107833","41.14","WYTON, UK","FM-15","EGUY ","V020","090,1,N,0041,1","02100,1,C,N","011265,1,N,1","+0190,1","+0140,1","99999,9","02,5,+01260,1,99,9","08,5,+02100,1,99,9",,,"08,99,1,99,9,99,9,99999,9,99,9,99,9","10180,1,99999,9",,,,,"MET062METAR EGUY 260950Z 09008KT 9999 FEW042 OVC070 19/14 Q1018 BLU;",
"03566099999","2010-06-26T10:50:00","4","52.357167","-0.107833","41.14","WYTON, UK","FM-15","EGUY ","V020","120,1,N,0046,1","99999,9,C,N","011265,1,N,1","+0210,1","+0140,1","99999,9","02,5,+01200,1,99,9","04,5,+02400,1,99,9",,,"04,99,1,99,9,99,9,99999,9,99,9,99,9","10180,1,99999,9",,,,,"MET062METAR EGUY 261050Z 12009KT 9999 FEW040 SCT080 21/14 Q1018 BLU;","P01 024003SCOCIG"
"03566099999","2010-06-26T11:50:00","4","52.357167","-0.107833","41.14","WYTON, UK","FM-15","EGUY ","V020","090,1,N,0031,1","22000,1,9,N","011265,1,N,1","+0230,1","+0140,1","99999,9","04,5,+01200,1,99,9",,,,"04,99,1,99,9,99,9,99999,9,99,9,99,9","10180,1,99999,9",,,,,"MET055METAR EGUY 261150Z 09006KT 9999 SCT040 23/14 Q1018 BLU;",
"03566099999","2010-06-26T12:50:00","4","52.357167","-0.107833","41.14","WYTON, UK","FM-15","EGUY ","V020","090,1,N,0031,1","22000,1,9,N","011265,1,N,1","+0230,1","+0140,1","99999,9","04,5,+01200,1,99,9",,,,"04,99,1,99,9,99,9,99999,9,99,9,99,9","10169,1,99999,9",,,,,"MET055METAR EGUY 261250Z 09006KT 9999 SCT040 23/14 Q1017 BLU;",
"03566099999","2010-06-26T13:50:00","4","52.357167","-0.107833","41.14","WYTON, UK","FM-15","EGUY ","V020","110,1,N,0041,1","01200,1,C,N","011265,1,N,1","+0240,1","+0130,1","99999,9","07,5,+01200,1,99,9",,,,"07,99,1,99,9,99,9,99999,9,99,9,99,9","10169,1,99999,9",,,,,"MET055METAR EGUY 261350Z 11008KT 9999 BKN040 24/13 Q1017 BLU;",
"03566099999","2010-06-26T14:50:00","4","52.357167","-0.107833","41.14","WYTON, UK","FM-15","EGUY ","V020","140,1,N,0046,1","99999,9,C,N","011265,1,N,1","+0240,1","+0140,1","99999,9","02,5,+01200,1,99,9","04,5,+01350,1,99,9",,,"04,99,1,99,9,99,9,99999,9,99,9,99,9","10169,1,99999,9",,,,,"MET062METAR EGUY 261450Z 14009KT 9999 FEW040 SCT045 24/14 Q1017 BLU;","P01 013503SCOCIG"
"03566099999","2010-06-27T06:50:00","4","52.357167","-0.107833","41.14","WYTON, UK","FM-15","EGUY ","V020","170,1,N,0010,1","99999,9,9,Y","009900,1,N,1","+0170,1","+0140,1","99999,9",,,,,,"10180,1,99999,9",,,,,"MET049METAR EGUY 270650Z 17002KT CAVOK 17/14 Q1018 BLU;",
"03566099999","2010-06-27T07:50:00","4","52.357167","-0.107833","41.14","WYTON, UK","FM-15","EGUY ","V020","200,1,N,0021,1","99999,9,9,Y","009900,1,N,1","+0190,1","+0160,1","99999,9",,,,,,"10180,1,99999,9",,,,,"MET049METAR EGUY 270750Z 20004KT CAVOK 19/16 Q1018 BLU;",
"03566099999","2010-06-27T08:50:00","4","52.357167","-0.107833","41.14","WYTON, UK","FM-15","EGUY ","V020","230,1,N,0031,1","99999,9,9,Y","009900,1,N,1","+0220,1","+0160,1","99999,9",,,,,,"10180,1,99999,9",,,,,"MET049METAR EGUY 270850Z 23006KT CAVOK 22/16 Q1018 BLU;",
"03566099999","2010-06-27T09:50:00","4","52.357167","-0.107833","41.14","WYTON, UK","FM-15","EGUY ","V020","230,1,N,0026,1","99999,9,9,Y","009900,1,N,1","+0230,1","+0150,1","99999,9",,,,,,"10180,1,99999,9",,,,,"MET049METAR EGUY 270950Z 23005KT CAVOK 23/15 Q1018 BLU;",
"03566099999","2010-06-27T10:50:00","4","52.357167","-0.107833","41.14","WYTON, UK","FM-15","EGUY ","V020","260,1,N,0031,1","99999,9,9,Y","009900,1,N,1","+0250,1","+0140,1","99999,9",,,,,,"10180,1,99999,9",,,,,"MET049METAR EGUY 271050Z 26006KT CAVOK 25/14 Q1018 BLU;",
"03566099999","2010-06-27T11:50:00","4","52.357167","-0.107833","41.14","WYTON, UK","FM-15","EGUY ","V020","230,1,N,0036,1","99999,9,9,Y","009900,1,N,1","+0260,1","+0130,1","99999,9",,,,,,"10180,1,99999,9",,,,,"MET049METAR EGUY 271150Z 23007KT CAVOK 26/13 Q1018 BLU;",
"03566099999","2010-06-28T06:50:00","4","52.357167","-0.107833","41.14","WYTON, UK","FM-15","EGUY ","V020","290,1,N,0036,1","99999,9,9,Y","009900,1,N,1","+0170,1","+0130,1","99999,9",,,,,,"10210,1,99999,9",,,,,"MET049METAR EGUY 280650Z 29007KT CAVOK 17/13 Q1021 BLU;",
"03566099999","2010-06-28T07:50:00","4","52.357167","-0.107833","41.14","WYTON, UK","FM-15","EGUY ","V020","300,1,N,0036,1","99999,9,9,Y","009900,1,N,1","+0190,1","+0140,1","99999,9",,,,,,"10210,1,99999,9",,,,,"MET049METAR EGUY 280750Z 30007KT CAVOK 19/14 Q1021 BLU;",
"03566099999","2010-06-28T08:50:00","4","52.357167","-0.107833","41.14","WYTON, UK","FM-15","EGUY ","V020","290,1,N,0021,1","99999,9,9,Y","009900,1,N,1","+0200,1","+0140,1","99999,9",,,,,,"10210,1,99999,9",,,,,"MET049METAR EGUY 280850Z 29004KT CAVOK 20/14 Q1021 BLU;",
"03566099999","2010-06-28T09:50:00","4","52.357167","-0.107833","41.14","WYTON, UK","FM-15","EGUY ","V020","300,1,N,0015,1","99999,9,9,Y","009900,1,N,1","+0210,1","+0130,1","99999,9",,,,,,"10210,1,99999,9",,,,,"MET049METAR EGUY 280950Z 30003KT CAVOK 21/13 Q1021 BLU;",
"03566099999","2010-06-28T10:50:00","4","52.357167","-0.107833","41.14","WYTON, UK","FM-15","EGUY ","V020","230,1,N,0041,1","99999,9,9,Y","009900,1,N,1","+0230,1","+0120,1","99999,9",,,,,,"10210,1,99999,9",,,,,"MET049METAR EGUY 281050Z 23008KT CAVOK 23/12 Q1021 BLU;",
"03566099999","2010-06-28T11:50:00","4","52.357167","-0.107833","41.14","WYTON, UK","FM-15","EGUY ","V020","220,1,N,0051,1","99999,9,9,Y","009900,1,N,1","+0240,1","+0120,1","99999,9",,,,,,"10210,1,99999,9",,,,,"MET049METAR EGUY 281150Z 22010KT CAVOK 24/12 Q1021 BLU;",
"03566099999","2010-06-28T12:50:00","4","52.357167","-0.107833","41.14","WYTON, UK","FM-15","EGUY ","V020","210,1,N,0026,1","99999,9,9,Y","009900,1,N,1","+0240,1","+0100,1","99999,9",,,,,,"10200,1,99999,9",,,,,"MET049METAR EGUY 281250Z 21005KT CAVOK 24/10 Q1020 BLU;",
"03566099999","2010-06-28T13:50:00","4","52.357167","-0.107833","41.14","WYTON, UK","FM-15","EGUY ","V020","230,1,N,0051,1","99999,9,9,Y","009900,1,N,1","+0260,1","+0120,1","99999,9",,,,,,"10200,1,99999,9",,,,,"MET049METAR EGUY 281350Z 23010KT CAVOK 26/12 Q1020 BLU;",
"03566099999","2010-06-28T14:50:00","4","52.357167","-0.107833","41.14","WYTON, UK","FM-15","EGUY ","V020","250,1,N,0041,1","99999,9,9,Y","009900,1,N,1","+0260,1","+0130,1","99999,9",,,,,,"10200,1,99999,9",,,,,"MET049METAR EGUY 281450Z 25008KT CAVOK 26/13 Q1020 BLU;",
"03566099999","2010-06-28T15:50:00","4","52.357167","-0.107833","41.14","WYTON, UK","FM-15","EGUY ","V020","260,1,N,0046,1","99999,9,9,Y","009900,1,N,1","+0260,1","+0130,1","99999,9",,,,,,"10190,1,99999,9",,,,,"MET049METAR EGUY 281550Z 26009KT CAVOK 26/13 Q1019 BLU;",
"03566099999","2010-06-29T06:50:00","4","52.357167","-0.107833","41.14","WYTON, UK","FM-15","EGUY ","V020","210,1,N,0051,1","99999,9,C,N","011265,1,N,1","+0170,1","+0150,1","99999,9","02,5,+00540,1,99,9","04,5,+02700,1,99,9",,,"04,99,1,99,9,99,9,99999,9,99,9,99,9","10180,1,99999,9",,,,,"MET062METAR EGUY 290650Z 21010KT 9999 FEW018 SCT090 17/15 Q1018 BLU;","P01 027003SCOCIG"
"03566099999","2010-06-29T07:50:00","4","52.357167","-0.107833","41.14","WYTON, UK","FM-15","EGUY ","V020","230,1,N,0057,1","99999,9,C,N","011265,1,N,1","+0190,1","+0160,1","99999,9","02,5,+00540,1,99,9","04,5,+01200,1,99,9",,,"04,99,1,99,9,99,9,99999,9,99,9,99,9","99999,9,99999,9",,,,,"MET062METAR EGUY 290750Z 23011KT 9999 FEW018 SCT040 19/16 Q1028 BLU;","Q01+102813APOA  Q02 102803APOA  P01 012003SCOCIG"
"03566099999","2010-06-29T08:20:00","4","52.357167","-0.107833","41.14","WYTON, UK","FM-15","EGUY ","V020","240,1,N,0067,1","22000,1,9,N","011265,1,N,1","+0190,1","+0170,1","99999,9","04,5,+00450,1,99,9",,,,"04,99,1,99,9,99,9,99999,9,99,9,99,9","10180,1,99999,9",,,,,"MET055METAR EGUY 290820Z 24013KT 9999 SCT015 19/17 Q1018 WHT;",
"03566099999","2010-06-29T08:50:00","4","52.357167","-0.107833","41.14","WYTON, UK","FM-15","EGUY ","V020","240,1,N,0057,1","00450,1,C,N","011265,1,N,1","+0200,1","+0170,1","99999,9","07,5,+00450,1,99,9",,,,"07,99,1,99,9,99,9,99999,9,99,9,99,9","10180,1,99999,9",,,,,"MET055METAR EGUY 290850Z 24011KT 9999 BKN015 20/17 Q1018 WHT;",
"03566099999","2010-06-29T09:15:00","4","52.357167","-0.107833","41.14","WYTON, UK","FM-15","EGUY ","V020","250,1,N,0062,1","99999,9,C,N","011265,1,N,1","+0210,1","+0170,1","99999,9","02,5,+00540,1,99,9","04,5,+00900,1,99,9",,,"04,99,1,99,9,99,9,99999,9,99,9,99,9","10180,1,99999,9",,,,,"MET062METAR EGUY 290915Z 25012KT 9999 FEW018 SCT030 21/17 Q1018 BLU;","P01 009003SCOCIG"
"03566099999","2010-06-29T09:50:00","4","52.357167","-0.107833","41.14","WYTON, UK","FM-15","EGUY ","V020","240,1,N,0057,1","99999,9,C,N","011265,1,N,1","+0210,1","+0170,1","99999,9","02,5,+00450,1,99,9","04,5,+00900,1,99,9",,,"04,99,1,99,9,99,9,99999,9,99,9,99,9","10180,1,99999,9",,,,,"MET062METAR EGUY 290950Z 24011KT 9999 FEW015 SCT030 21/17 Q1018 BLU;","P01 009003SCOCIG"
"03566099999","2010-06-29T10:50:00","4","52.357167","-0.107833","41.14","WYTON, UK","FM-15","EGUY ","V020","260,1,N,0067,1","22000,1,9,N","011265,1,N,1","+0220,1","+0170,1","99999,9","02,5,+00600,1,99,9",,,,"02,99,1,99,9,99,9,99999,9,99,9,99,9","10180,1,99999,9",,,,,"MET055METAR EGUY 291050Z 26013KT 9999 FEW020 22/17 Q1018 BLU;",
"03566099999","2010-06-29T11:50:00","4","52.357167","-0.107833","41.14","WYTON, UK","FM-15","EGUY ","V020","270,1,N,0057,1","22000,1,9,N","011265,1,N,1","+0240,1","+0170,1","99999,9","04,5,+00840,1,99,9",,,,"04,99,1,99,9,99,9,99999,9,99,9,99,9","10180,1,99999,9",,,,,"MET055METAR EGUY 291150Z 27011KT 9999 SCT028 24/17 Q1018 BLU;",
"03566099999","2010-06-29T12:50:00","4","52.357167","-0.107833","41.14","WYTON, UK","FM-15","EGUY ","V020","260,1,N,0072,1","99999,9,C,N","011265,1,N,1","+0250,1","+0160,1","99999,9","02,5,+00900,1,02,1","04,5,+01080,1,99,9",,,"04,99,1,99,9,99,9,99999,9,99,9,99,9","10180,1,99999,9",,,,,"MET065METAR EGUY 291250Z 26014KT 9999 FEW030TCU SCT036 25/16 Q1018 BLU;","P01 010803SCOCIG"
"03566099999","2010-06-29T13:50:00","4","52.357167","-0.107833","41.14","WYTON, UK","FM-15","EGUY ","V020","260,1,N,0072,1","22000,1,9,N","011265,1,N,1","+0260,1","+0160,1","99999,9","02,5,+01200,1,99,9",,,,"02,99,1,99,9,99,9,99999,9,99,9,99,9","10180,1,99999,9",,,,,"MET055METAR EGUY 291350Z 26014KT 9999 FEW040 26/16 Q1018 BLU;",
"03566099999","2010-06-29T14:50:00","4","52.357167","-0.107833","41.14","WYTON, UK","FM-15","EGUY ","V020","260,1,N,0062,1","22000,1,9,N","011265,1,N,1","+0260,1","+0160,1","99999,9","02,5,+01200,1,99,9",,,,"02,99,1,99,9,99,9,99999,9,99,9,99,9","10180,1,99999,9",,,,,"MET055METAR EGUY 291450Z 26012KT 9999 FEW040 26/16 Q1018 BLU;",
"03566099999","2010-06-29T15:50:00","4","52.357167","-0.107833","41.14","WYTON, UK","FM-15","EGUY ","V020","280,1,N,0051,1","22000,1,9,N","011265,1,N,1","+0250,1","+0160,1","99999,9","02,5,+01200,1,99,9",,,,"02,99,1,99,9,99,9,99999,9,99,9,99,9","10180,1,99999,9",,,,,"MET055METAR EGUY 291550Z 28010KT 9999 FEW040 25/16 Q1018 BLU;",
"03566099999","2010-06-30T06:50:00","4","52.357167","-0.107833","41.14","WYTON, UK","FM-15","EGUY ","V020","330,1,N,0015,1","04500,1,C,N","011265,1,N,1","+0170,1","+0130,1","99999,9","02,5,+01200,1,99,9","07,5,+04500,1,99,9",,,"07,99,1,99,9,99,9,99999,9,99,9,99,9","10190,1,99999,9",,,,,"MET062METAR EGUY 300650Z 33003KT 9999 FEW040 BKN150 17/13 Q1019 BLU;",
"03566099999","2010-06-30T07:50:00","4","52.357167","-0.107833","41.14","WYTON, UK","FM-15","EGUY ","V020","340,1,N,0021,1","99999,9,9,Y","009900,1,N,1","+0180,1","+0140,1","99999,9",,,,,,"10190,1,99999,9",,,,,"MET049METAR EGUY 300750Z 34004KT CAVOK 18/14 Q1019 BLU;",
"03566099999","2010-06-30T08:50:00","4","52.357167","-0.107833","41.14","WYTON, UK","FM-15","EGUY ","V020","999,9,V,0010,1","99999,9,9,Y","009900,1,N,1","+0200,1","+0140,1","99999,9",,,,,,"10190,1,99999,9",,,,,"MET049METAR EGUY 300850Z VRB02KT CAVOK 20/14 Q1019 BLU;",
"03566099999","2010-06-30T09:50:00","4","52.357167","-0.107833","41.14","WYTON, UK","FM-15","EGUY ","V020","999,9,V,0010,1","99999,9,9,Y","009900,1,N,1","+0210,1","+0140,1","99999,9",,,,,,"10190,1,99999,9",,,,,"MET049METAR EGUY 300950Z VRB02KT CAVOK 21/14 Q1019 BLU;",
"03566099999","2010-06-30T10:50:00","4","52.357167","-0.107833","41.14","WYTON, UK","FM-15","EGUY ","V020","999,9,V,0010,1","02400,1,C,N","011265,1,N,1","+0220,1","+0150,1","99999,9","02,5,+01050,1,99,9","04,5,+02400,1,99,9","07,5,+06000,1,99,9",,"07,99,1,99,9,99,9,99999,9,99,9,99,9","10190,1,99999,9",,,,,"MET069METAR EGUY 301050Z VRB02KT 9999 FEW035 SCT080 BKN200 22/15 Q1019 BLU;",
"03566099999","2010-06-30T11:50:00","4","52.357167","-0.107833","41.14","WYTON, UK","FM-15","EGUY ","V020","270,1,N,0031,1","06000,1,C,N","011265,1,N,1","+0230,1","+0150,1","99999,9","04,5,+01200,1,99,9","07,5,+06000,1,99,9",,,"07,99,1,99,9,99,9,99999,9,99,9,99,9","10190,1,99999,9",,,,,"MET062METAR EGUY 301150Z 27006KT 9999 SCT040 BKN200 23/15 Q1019 BLU;",
"03566099999","2010-06-30T12:50:00","4","52.357167","-0.107833","41.14","WYTON, UK","FM-15","EGUY ","V020","999,9,V,0010,1","01500,1,C,N","011265,1,N,1","+0230,1","+0150,1","99999,9","04,5,+01110,1,99,9","07,5,+01500,1,99,9",,,"07,99,1,99,9,99,9,99999,9,99,9,99,9","10180,1,99999,9",,,,,"MET062METAR EGUY 301250Z VRB02KT 9999 SCT037 BKN050 23/15 Q1018 BLU;",
"03566099999","2010-06-30T13:50:00","4","52.357167","-0.107833","41.14","WYTON, UK","FM-15","EGUY ","V020","999,9,C,0000,1","99999,9,C,N","011265,1,N,1","+0230,1","+0160,1","99999,9","04,5,+01200,1,99,9","04,5,+01800,1,99,9",,,"04,99,1,99,9,99,9,99999,9,99,9,99,9","10180,1,99999,9",,,,,"MET062METAR EGUY 301350Z 00000KT 9999 SCT040 SCT060 23/16 Q1018 BLU;","P01 018003SCOCIG"
"03566099999","2010-06-30T14:50:00","4","52.357167","-0.107833","41.14","WYTON, UK","FM-15","EGUY ","V020","200,1,N,0036,1","22000,1,9,N","011265,1,N,1","+0250,1","+0160,1","99999,9","04,5,+01200,1,99,9",,,,"04,99,1,99,9,99,9,99999,9,99,9,99,9","10180,1,99999,9",,,,,"MET055METAR EGUY 301450Z 20007KT 9999 SCT040 25/16 Q1018 BLU;",
"03566099999","2010-06-30T15:50:00","4","52.357167","-0.107833","41.14","WYTON, UK","FM-15","EGUY ","V020","210,1,N,0041,1","22000,1,9,N","011265,1,N,1","+0250,1","+0160,1","99999,9","04,5,+01350,1,99,9",,,,"04,99,1,99,9,99,9,99999,9,99,9,99,9","10169,1,99999,9",,,,,"MET055METAR EGUY 301550Z 21008KT 9999 SCT045 25/16 Q1017 BLU;",
"03566099999","2010-07-01T06:50:00","4","52.357167","-0.107833","41.14","WYTON, UK","FM-15","EGUY ","V020","200,1,N,0062,1","99999,9,9,Y","009900,1,N,1","+0170,1","+0140,1","99999,9",,,,,,"10139,1,99999,9",,,,,"MET049METAR EGUY 010650Z 20012KT CAVOK 17/14 Q1014 BLU;",
"03566099999","2010-07-01T07:50:00","4","52.357167","-0.107833","41.14","WYTON, UK","FM-15","EGUY ","V020","190,1,N,0062,1","99999,9,9,Y","009900,1,N,1","+0180,1","+0130,1","99999,9",,,,,,"10139,1,99999,9",,,,,"MET049METAR EGUY 010750Z 19012KT CAVOK 18/13 Q1014 BLU;",
"03566099999","2010-07-01T08:50:00","4","52.357167","-0.107833","41.14","WYTON, UK","FM-15","EGUY ","V020","220,1,N,0072,1","07500,5,9,N","999999,9,N,1","+0190,1","+0130,1","99999,9","04,5,+00540,5,99,9","07,5,+07500,5,99,9",,,,"10130,1,99999,9",,,,,"MET057METAR EGUY 010850Z 22014KT SCT018 BKN250 19/13 Q1013 WHT;",
"03566099999","2010-07-01T09:50:00","4","52.357167","-0.107833","41.14","WYTON, UK","FM-15","EGUY ","V020","230,1,N,0062,1","07500,5,9,N","999999,9,N,1","+0210,1","+0130,1","99999,9","04,5,+00600,5,99,9","07,5,+07500,5,99,9",,,,"10130,1,99999,9",,,,"0113,1","MET060METAR EGUY 010950Z 23012G22KT SCT020 BKN250 21/13 Q1013 WHT;",
"03566099999","2010-07-01T10:50:00","4","52.357167","-0.107833","41.14","WYTON, UK","FM-15","EGUY ","V020","200,1,N,0072,1","07500,5,9,N","999999,9,N,1","+0220,1","+0130,1","99999,9","02,5,+00750,5,99,9","07,5,+07500,5,99,9",,,,"10130,1,99999,9",,,,,"MET057METAR EGUY 011050Z 20014KT FEW025 BKN250 22/13 Q1013 WHT;",
"03566099999","2010-07-01T11:50:00","4","52.357167","-0.107833","41.14","WYTON, UK","FM-15","EGUY ","V020","200,1,N,0057,1","07500,1,C,N","011265,1,N,1","+0230,1","+0140,1","99999,9","02,5,+04500,1,99,9","07,5,+07500,1,99,9",,,"07,99,1,99,9,99,9,99999,9,99,9,99,9","10119,1,99999,9",,,,"0108,1","MET065METAR EGUY 011150Z 20011G21KT 9999 FEW150 BKN250 23/14 Q1012 BLU;",
"03566099999","2010-07-01T12:50:00","4","52.357167","-0.107833","41.14","WYTON, UK","FM-15","EGUY ","V020","200,1,N,0072,1","99999,9,9,Y","009900,1,N,1","+0240,1","+0130,1","99999,9",,,,,,"10119,1,99999,9",,,,,"MET049METAR EGUY 011250Z 20014KT CAVOK 24/13 Q1012 BLU;",
"03566099999","2010-07-01T13:50:00","4","52.357167","-0.107833","41.14","WYTON, UK","FM-15","EGUY ","V020","190,1,N,0062,1","99999,9,9,Y","009900,1,N,1","+0260,1","+0140,1","99999,9",,,,,,"10119,1,99999,9",,,,"0113,1","MET052METAR EGUY 011350Z 19012G22KT CAVOK 26/14 Q1012 BLU;",
"03566099999","2010-07-01T14:50:00","4","52.357167","-0.107833","41.14","WYTON, UK","FM-15","EGUY ","V020","190,1,N,0062,1","99999,9,9,Y","009900,1,N,1","+0250,1","+0130,1","99999,9",,,,,,"10119,1,99999,9",,,,,"MET049METAR EGUY 011450Z 19012KT CAVOK 25/13 Q1012 BLU;",
"03566099999","2010-07-02T06:50:00","4","52.357167","-0.107833","41.14","WYTON, UK","FM-15","EGUY ","V020","190,1,N,0041,1","99999,9,9,Y","009900,1,N,1","+0200,1","+0140,1","99999,9",,,,,,"10091,1,99999,9",,,,,"MET049METAR EGUY 020650Z 19008KT CAVOK 20/14 Q1009 BLU;",
"03566099999","2010-07-02T07:50:00","4","52.357167","-0.107833","41.14","WYTON, UK","FM-15","EGUY ","V020","190,1,N,0041,1","99999,9,9,Y","009900,1,N,1","+0200,1","+0140,1","99999,9",,,,,,"10091,1,99999,9",,,,,"MET049METAR EGUY 020750Z 19008KT CAVOK 20/14 Q1009 BLU;",
"03566099999","2010-07-02T08:50:00","4","52.357167","-0.107833","41.14","WYTON, UK","FM-15","EGUY ","V020","210,1,N,0062,1","03600,5,9,N","999999,9,N,1","+0210,1","+0150,1","99999,9","02,5,+00600,5,99,9","04,5,+03600,5,99,9","07,5,+07500,5,99,9",,,"10100,1,99999,9",,,,,"MET064METAR EGUY 020850Z 21012KT FEW020 SCT120 BKN250 21/15 Q1010 BLU;",
"03566099999","2010-07-02T09:50:00","4","52.357167","-0.107833","41.14","WYTON, UK","FM-15","EGUY ","V020","240,1,N,0057,1","00780,5,9,N","999999,9,N,1","+0210,1","+0150,1","99999,9","02,5,+00450,5,99,9","04,5,+00780,5,99,9",,,,"10110,1,99999,9",,,,,"MET064METAR EGUY 020950Z 24011KT FEW015 SCT026 BKN400 21/15 Q1011 BLU;",
"03566099999","2010-07-02T10:50:00","4","52.357167","-0.107833","41.14","WYTON, UK","FM-15","EGUY ","V020","220,1,N,0057,1","00630,5,9,N","999999,9,N,1","+0210,1","+0150,1","99999,9","04,5,+00510,5,99,9","07,5,+00630,5,99,9",,,,"10110,1,99999,9",,,,,"MET057METAR EGUY 021050Z 22011KT SCT017 BKN021 21/15 Q1011 WHT;",
"03566099999","2010-07-02T11:50:00","4","52.357167","-0.107833","41.14","WYTON, UK","FM-15","EGUY ","V020","220,1,N,0057,1","01500,1,C,N","011265,1,N,1","+0210,1","+0160,1","99999,9","04,5,+00600,1,99,9","07,5,+01500,1,99,9",,,"07,99,1,99,9,99,9,99999,9,99,9,99,9","10119,1,99999,9",,,,,"MET062METAR EGUY 021150Z 22011KT 9999 SCT020 BKN050 21/16 Q1012 WHT;",
"03566099999","2010-07-02T12:50:00","4","52.357167","-0.107833","41.14","WYTON, UK","FM-15","EGUY ","V020","220,1,N,0062,1","00840,1,C,N","011265,1,N,1","+0230,1","+0160,1","99999,9","02,5,+00600,1,99,9","04,5,+00840,1,99,9","07,5,+01500,1,99,9",,"07,99,1,99,9,99,9,99999,9,99,9,99,9","10119,1,99999,9",,,,,"MET069METAR EGUY 021250Z 22012KT 9999 FEW020 SCT028 BKN050 23/16 Q1012 WHT;",
"03566099999","2010-07-02T13:50:00","4","52.357167","-0.107833","41.14","WYTON, UK","FM-15","EGUY ","V020","220,1,N,0057,1","99999,9,C,N","011265,1,N,1","+0230,1","+0150,1","99999,9","02,5,+00660,1,99,9","04,5,+00750,1,99,9",,,"04,99,1,99,9,99,9,99999,9,99,9,99,9","10119,1,99999,9",,,,,"MET062METAR EGUY 021350Z 22011KT 9999 FEW022 SCT025 23/15 Q1012 BLU;","P01 007503SCOCIG"
"03566099999","2010-07-03T07:50:00","4","52.357167","-0.107833","41.14","WYTON, UK","FM-15","EGUY ","V020","280,1,N,0051,1","99999,9,9,Y","009900,1,N,1","+0180,1","+0110,1","99999,9",,,,,,"10180,1,99999,9",,,,,"MET049METAR EGUY 030750Z 28010KT CAVOK 18/11 Q1018 BLU;",
"03566099999","2010-07-03T08:50:00","4","52.357167","-0.107833","41.14","WYTON, UK","FM-15","EGUY ","V020","280,1,N,0051,1","22000,1,9,N","011265,1,N,1","+0190,1","+0100,1","99999,9","02,5,+00600,1,99,9",,,,"02,99,1,99,9,99,9,99999,9,99,9,99,9","10180,1,99999,9",,,,,"MET055METAR EGUY 030850Z 28010KT 9999 FEW020 19/10 Q1018 BLU;",
"03566099999","2010-07-03T09:50:00","4","52.357167","-0.107833","41.14","WYTON, UK","FM-15","EGUY ","V020","260,1,N,0031,1","99999,9,C,N","011265,1,N,1","+0200,1","+0100,1","99999,9","02,5,+00750,1,99,9","04,5,+07500,1,99,9",,,"04,99,1,99,9,99,9,99999,9,99,9,99,9","10190,1,99999,9",,,,,"MET062METAR EGUY 030950Z 26006KT 9999 FEW025 SCT250 20/10 Q1019 BLU;","P01 075003SCOCIG"
"03566099999","2010-07-03T10:50:00","4","52.357167","-0.107833","41.14","WYTON, UK","FM-15","EGUY ","V020","240,1,N,0041,1","99999,9,C,N","011265,1,N,1","+0210,1","+0100,1","99999,9","02,5,+01080,1,99,9","04,5,+07500,1,99,9",,,"04,99,1,99,9,99,9,99999,9,99,9,99,9","10190,1,99999,9",,,,,"MET062METAR EGUY 031050Z 24008KT 9999 FEW036 SCT250 21/10 Q1019 BLU;","P01 075003SCOCIG"
"03566099999","2010-07-03T11:50:00","4","52.357167","-0.107833","41.14","WYTON, UK","FM-15","EGUY ","V020","260,1,N,0036,1","99999,9,C,N","011265,1,N,1","+0220,1","+0100,1","99999,9","04,5,+01200,1,99,9","04,5,+07500,1,99,9",,,"04,99,1,99,9,99,9,99999,9,99,9,99,9","10190,1,99999,9",,,,,"MET062METAR EGUY 031150Z 26007KT 9999 SCT040 SCT250 22/10 Q1019 BLU;","P01 075003SCOCIG"
"03566099999","2010-07-03T12:50:00","4","52.357167","-0.107833","41.14","WYTON, UK","FM-15","EGUY ","V020","270,1,N,0041,1","99999,9,C,N","011265,1,N,1","+0220,1","+0080,1","99999,9","04,5,+01200,1,99,9","04,5,+07500,1,99,9",,,"04,99,1,99,9,99,9,99999,9,99,9,99,9","10190,1,99999,9",,,,,"MET062METAR EGUY 031250Z 27008KT 9999 SCT040 SCT250 22/08 Q1019 BLU;","P01 075003SCOCIG"
"03566099999","2010-07-03T13:50:00","4","52.357167","-0.107833","41.14","WYTON, UK","FM-15","EGUY ","V020","270,1,N,0041,1","01350,1,C,N","011265,1,N,1","+0230,1","+0080,1","99999,9","07,5,+01350,1,99,9","07,5,+07500,1,99,9",,,"07,99,1,99,9,99,9,99999,9,99,9,99,9","10190,1,99999,9",,,,,"MET062METAR EGUY 031350Z 27008KT 9999 BKN045 BKN250 23/08 Q1019 BLU;",
"03566099999","2010-07-04T06:50:00","4","52.357167","-0.107833","41.14","WYTON, UK","FM-15","EGUY ","V020","210,1,N,0046,1","99999,9,9,Y","009900,1,N,1","+0160,1","+0120,1","99999,9",,,,,,"10200,1,99999,9",,,,,"MET049METAR EGUY 040650Z 21009KT CAVOK 16/12 Q1020 BLU;",
"03566099999","2010-07-04T07:50:00","4","52.357167","-0.107833","41.14","WYTON, UK","FM-15","EGUY ","V020","220,1,N,0062,1","22000,1,9,N","011265,1,N,1","+0180,1","+0120,1","99999,9","02,5,+00750,1,99,9",,,,"02,99,1,99,9,99,9,99999,9,99,9,99,9","10200,1,99999,9",,,,,"MET055METAR EGUY 040750Z 22012KT 9999 FEW025 18/12 Q1020 BLU;",
"03566099999","2010-07-04T08:50:00","4","52.357167","-0.107833","41.14","WYTON, UK","FM-15","EGUY ","V020","230,1,N,0093,1","22000,1,9,N","011265,1,N,1","+0190,1","+0120,1","99999,9","02,5,+00900,1,99,9",,,,"02,99,1,99,9,99,9,99999,9,99,9,99,9","10200,1,99999,9",,,,,"MET055METAR EGUY 040850Z 23018KT 9999 FEW030 19/12 Q1020 BLU;",
"03566099999","2010-07-04T09:50:00","4","52.357167","-0.107833","41.14","WYTON, UK","FM-15","EGUY ","V020","220,1,N,0093,1","22000,1,9,N","011265,1,N,1","+0200,1","+0110,1","99999,9","02,5,+01110,1,99,9",,,,"02,99,1,99,9,99,9,99999,9,99,9,99,9","10190,1,99999,9",,,,,"MET055METAR EGUY 040950Z 22018KT 9999 FEW037 20/11 Q1019 BLU;",
"03566099999","2010-07-04T10:50:00","4","52.357167","-0.107833","41.14","WYTON, UK","FM-15","EGUY ","V020","220,1,N,0087,1","22000,1,9,N","011265,1,N,1","+0200,1","+0120,1","99999,9","02,5,+01200,1,99,9",,,,"02,99,1,99,9,99,9,99999,9,99,9,99,9","10190,1,99999,9",,,,"0139,1","MET058METAR EGUY 041050Z 22017G27KT 9999 FEW040 20/12 Q1019 BLU;",
"03566099999","2010-07-04T11:50:00","4","52.357167","-0.107833","41.14","WYTON, UK","FM-15","EGUY ","V020","210,1,N,0113,1","99999,9,C,N","011265,1,N,1","+0230,1","+0130,1","99999,9","02,5,+01200,1,99,9","04,5,+01800,1,99,9",,,"04,99,1,99,9,99,9,99999,9,99,9,99,9","10180,1,99999,9",,,,,"MET062METAR EGUY 041150Z 21022KT 9999 FEW040 SCT060 23/13 Q1018 BLU;","P01 018003SCOCIG"
"03566099999","2010-07-04T12:50:00","4","52.357167","-0.107833","41.14","WYTON, UK","FM-15","EGUY ","V020","210,1,N,0087,1","99999,9,C,N","011265,1,N,1","+0230,1","+0140,1","99999,9","02,5,+01200,1,99,9","04,5,+01800,1,99,9",,,"04,99,1,99,9,99,9,99999,9,99,9,99,9","10169,1,99999,9",,,,"0139,1","MET065METAR EGUY 041250Z 21017G27KT 9999 FEW040 SCT060 23/14 Q1017 BLU;","P01 018003SCOCIG"
"03566099999","2010-07-05T06:50:00","4","52.357167","-0.107833","41.14","WYTON, UK","FM-15","EGUY ","V020","290,1,N,0041,1","99999,9,9,Y","009900,1,N,1","+0150,1","+0130,1","99999,9",,,,,,"10200,1,99999,9",,,,,"MET049METAR EGUY 050650Z 29008KT CAVOK 15/13 Q1020 BLU;",
"03566099999","2010-07-05T07:50:00","4","52.357167","-0.107833","41.14","WYTON, UK","FM-15","EGUY ","V020","310,1,N,0031,1","01800,1,C,N","011265,1,N,1","+0180,1","+0140,1","99999,9","02,5,+00600,1,99,9","07,5,+01800,1,99,9",,,"07,99,1,99,9,99,9,99999,9,99,9,99,9","10200,1,99999,9",,,,,"MET062METAR EGUY 050750Z 31006KT 9999 FEW020 BKN060 18/14 Q1020 BLU;",
"03566099999","2010-07-05T08:50:00","4","52.357167","-0.107833","41.14","WYTON, UK","FM-15","EGUY ","V020","310,1,N,0041,1","01500,1,C,N","011265,1,N,1","+0180,1","+0130,1","99999,9","02,5,+00600,1,99,9","07,5,+01500,1,99,9",,,"07,99,1,99,9,99,9,99999,9,99,9,99,9","10210,1,99999,9",,,,,"MET062METAR EGUY 050850Z 31008KT 9999 FEW020 BKN050 18/13 Q1021 BLU;",
"03566099999","2010-07-05T09:50:00","4","52.357167","-0.107833","41.14","WYTON, UK","FM-15","EGUY ","V020","260,1,N,0031,1","01500,1,C,N","011265,1,N,1","+0190,1","+0130,1","99999,9","02,5,+00720,1,99,9","07,5,+01500,1,99,9",,,"07,99,1,99,9,99,9,99999,9,99,9,99,9","10210,1,99999,9",,,,,"MET062METAR EGUY 050950Z 26006KT 9999 FEW024 BKN050 19/13 Q1021 BLU;",
"03566099999","2010-07-05T10:50:00","4","52.357167","-0.107833","41.14","WYTON, UK","FM-15","EGUY ","V020","270,1,N,0031,1","22000,1,9,N","011265,1,N,1","+0200,1","+0120,1","99999,9","04,5,+00900,1,99,9",,,,"04,99,1,99,9,99,9,99999,9,99,9,99,9","10210,1,99999,9",,,,,"MET055METAR EGUY 051050Z 27006KT 9999 SCT030 20/12 Q1021 BLU;",
"03566099999","2010-07-05T11:50:00","4","52.357167","-0.107833","41.14","WYTON, UK","FM-15","EGUY ","V020","290,1,N,0067,1","22000,1,9,N","011265,1,N,1","+0210,1","+0120,1","99999,9","04,5,+01050,1,99,9",,,,"04,99,1,99,9,99,9,99999,9,99,9,99,9","10210,1,99999,9",,,,,"MET055METAR EGUY 051150Z 29013KT 9999 SCT035 21/12 Q1021 BLU;",
"03566099999","2010-07-05T12:50:00","4","52.357167","-0.107833","41.14","WYTON, UK","FM-15","EGUY ","V020","290,1,N,0051,1","22000,1,9,N","011265,1,N,1","+0210,1","+0120,1","99999,9","04,5,+01200,1,99,9",,,,"04,99,1,99,9,99,9,99999,9,99,9,99,9","10210,1,99999,9",,,,,"MET055METAR EGUY 051250Z 29010KT 9999 SCT040 21/12 Q1021 BLU;",
"03566099999","2010-07-05T13:50:00","4","52.357167","-0.107833","41.14","WYTON, UK","FM-15","EGUY ","V020","290,1,N,0051,1","22000,1,9,N","011265,1,N,1","+0220,1","+0080,1","99999,9","04,5,+01200,1,99,9",,,,"04,99,1,99,9,99,9,99999,9,99,9,99,9","10210,1,99999,9",,,,,"MET055METAR EGUY 051350Z 29010KT 9999 SCT040 22/08 Q1021 BLU;",
"03566099999","2010-07-05T14:50:00","4","52.357167","-0.107833","41.14","WYTON, UK","FM-15","EGUY ","V020","290,1,N,0057,1","22000,1,9,N","011265,1,N,1","+9999,9","+9999,9","99999,9","04,5,+01200,1,99,9",,,,"04,99,1,99,9,99,9,99999,9,99,9,99,9","10210,1,99999,9",,,,,"MET055METAR EGUY 051450Z 29011KT 9999 SCT040 ///// Q1021 BLU;",
"03566099999","2010-07-05T15:50:00","4","52.357167","-0.107833","41.14","WYTON, UK","FM-15","EGUY ","V020","320,1,N,0051,1","99999,9,9,Y","009900,1,N,1","+0210,1","+0100,1","99999,9",,,,,,"10220,1,99999,9",,,,,"MET049METAR EGUY 051550Z 32010KT CAVOK 21/10 Q1022 BLU;",
"03566099999","2010-07-06T06:50:00","4","52.357167","-0.107833","41.14","WYTON, UK","FM-15","EGUY ","V020","300,1,N,0031,1","99999,9,9,Y","009900,1,N,1","+0140,1","+0110,1","99999,9",,,,,,"10261,1,99999,9",,,,,"MET049METAR EGUY 060650Z 30006KT CAVOK 14/11 Q1026 BLU;",
"03566099999","2010-07-06T07:50:00","4","52.357167","-0.107833","41.14","WYTON, UK","FM-15","EGUY ","V020","999,9,V,0026,1","99999,9,9,Y","009900,1,N,1","+0160,1","+0110,1","99999,9",,,,,,"10261,1,99999,9",,,,,"MET049METAR EGUY 060750Z VRB05KT CAVOK 16/11 Q1026 BLU;",
"03566099999","2010-07-06T08:50:00","4","52.357167","-0.107833","41.14","WYTON, UK","FM-15","EGUY ","V020","290,1,N,0021,1","03600,1,C,N","011265,1,N,1","+0170,1","+0100,1","99999,9","02,5,+00900,1,99,9","04,5,+03600,1,99,9","07,5,+07500,1,99,9",,"07,99,1,99,9,99,9,99999,9,99,9,99,9","10271,1,99999,9",,,,,"MET069METAR EGUY 060850Z 29004KT 9999 FEW030 SCT120 BKN250 17/10 Q1027 BLU;",
"03566099999","2010-07-06T09:50:00","4","52.357167","-0.107833","41.14","WYTON, UK","FM-15","EGUY ","V020","190,1,N,0026,1","04200,1,C,N","011265,1,N,1","+0180,1","+0110,1","99999,9","02,5,+00900,1,99,9","04,5,+04200,1,99,9","07,5,+07500,1,99,9",,"07,99,1,99,9,99,9,99999,9,99,9,99,9","10261,1,99999,9",,,,,"MET069METAR EGUY 060950Z 19005KT 9999 FEW030 SCT140 BKN250 18/11 Q1026 BLU;",
"03566099999","2010-07-06T10:50:00","4","52.357167","-0.107833","41.14","WYTON, UK","FM-15","EGUY ","V020","240,1,N,0041,1","05400,1,C,N","011265,1,N,1","+0190,1","+0110,1","99999,9","02,5,+01050,1,99,9","07,5,+05400,1,99,9",,,"07,99,1,99,9,99,9,99999,9,99,9,99,9","10261,1,99999,9",,,,,"MET062METAR EGUY 061050Z 24008KT 9999 FEW035 BKN180 19/11 Q1026 BLU;",
"03566099999","2010-07-06T11:50:00","4","52.357167","-0.107833","41.14","WYTON, UK","FM-15","EGUY ","V020","210,1,N,0041,1","05400,1,C,N","011265,1,N,1","+0200,1","+0110,1","99999,9","02,5,+01050,1,99,9","07,5,+05400,1,99,9",,,"07,99,1,99,9,99,9,99999,9,99,9,99,9","10251,1,99999,9",,,,,"MET062METAR EGUY 061150Z 21008KT 9999 FEW035 BKN180 20/11 Q1025 BLU;",
"03566099999","2010-07-06T12:50:00","4","52.357167","-0.107833","41.14","WYTON, UK","FM-15","EGUY ","V020","200,1,N,0051,1","05400,1,C,N","011265,1,N,1","+0200,1","+0110,1","99999,9","04,5,+01050,1,99,9","08,5,+05400,1,99,9",,,"08,99,1,99,9,99,9,99999,9,99,9,99,9","10251,1,99999,9",,,,,"MET062METAR EGUY 061250Z 20010KT 9999 SCT035 OVC180 20/11 Q1025 BLU;",
"03566099999","2010-07-06T13:50:00","4","52.357167","-0.107833","41.14","WYTON, UK","FM-15","EGUY ","V020","200,1,N,0036,1","05400,1,C,N","011265,1,N,1","+0210,1","+0120,1","99999,9","04,5,+01050,1,99,9","07,5,+05400,1,99,9",,,"07,99,1,99,9,99,9,99999,9,99,9,99,9","10240,1,99999,9",,,,,"MET062METAR EGUY 061350Z 20007KT 9999 SCT035 BKN180 21/12 Q1024 BLU;",
"03566099999","2010-07-06T14:50:00","4","52.357167","-0.107833","41.14","WYTON, UK","FM-15","EGUY ","V020","240,1,N,0041,1","05400,1,C,N","011265,1,N,1","+0230,1","+0120,1","99999,9","04,5,+01350,1,99,9","07,5,+05400,1,99,9",,,"07,99,1,99,9,99,9,99999,9,99,9,99,9","10230,1,99999,9",,,,,"MET062METAR EGUY 061450Z 24008KT 9999 SCT045 BKN180 23/12 Q1023 BLU;",
"03566099999","2010-07-06T15:50:00","4","52.357167","-0.107833","41.14","WYTON, UK","FM-15","EGUY ","V020","240,1,N,0062,1","22000,1,9,N","011265,1,N,1","+0220,1","+0120,1","99999,9","04,5,+01350,1,99,9",,,,"04,99,1,99,9,99,9,99999,9,99,9,99,9","10230,1,99999,9",,,,,"MET055METAR EGUY 061550Z 24012KT 9999 SCT045 22/12 Q1023 BLU;",
"03566099999","2010-07-07T06:50:00","4","52.357167","-0.107833","41.14","WYTON, UK","FM-15","EGUY ","V020","210,1,N,0057,1","01500,1,C,N","011265,1,N,1","+0160,1","+0140,1","99999,9","02,5,+00600,1,99,9","07,5,+01500,1,99,9",,,"07,99,1,99,9,99,9,99999,9,99,9,99,9","10190,1,99999,9","16,1",,,,"MET067METAR EGUY 070650Z 21011KT 9999 VCSH FEW020 BKN050 16/14 Q1019 BLU;",
"03566099999","2010-07-07T07:50:00","4","52.357167","-0.107833","41.14","WYTON, UK","FM-15","EGUY ","V020","200,1,N,0051,1","01500,1,C,N","011265,1,N,1","+0160,1","+0150,1","99999,9","04,5,+00330,1,99,9","07,5,+01500,1,99,9",,,"07,99,1,99,9,99,9,99999,9,99,9,99,9","10190,1,99999,9",,,,,"MET062METAR EGUY 070750Z 20010KT 9999 SCT011 BKN050 16/15 Q1019 GRN;",
"03566099999","2010-07-07T08:50:00","4","52.357167","-0.107833","41.14","WYTON, UK","FM-15","EGUY ","V020","210,1,N,0067,1","00450,1,C,N","011265,1,N,1","+0180,1","+0150,1","99999,9","08,5,+00450,1,99,9",,,,"08,99,1,99,9,99,9,99999,9,99,9,99,9","10190,1,99999,9",,,,"0118,1","MET058METAR EGUY 070850Z 21013G23KT 9999 OVC015 18/15 Q1019 WHT;",
"03566099999","2010-07-07T09:50:00","4","52.357167","-0.107833","41.14","WYTON, UK","FM-15","EGUY ","V020","210,1,N,0072,1","00450,1,C,N","011265,1,N,1","+0200,1","+0160,1","99999,9","07,5,+00450,1,99,9",,,,"07,99,1,99,9,99,9,99999,9,99,9,99,9","10190,1,99999,9",,,,,"MET055METAR EGUY 070950Z 21014KT 9999 BKN015 20/16 Q1019 WHT;",
"03566099999","2010-07-07T10:50:00","4","52.357167","-0.107833","41.14","WYTON, UK","FM-15","EGUY ","V020","230,1,N,0051,1","00540,1,C,N","011265,1,N,1","+0190,1","+0160,1","99999,9","07,5,+00540,1,99,9",,,,"07,99,1,99,9,99,9,99999,9,99,9,99,9","10190,1,99999,9",,,,"0103,1","MET058METAR EGUY 071050Z 23010G20KT 9999 BKN018 19/16 Q1019 WHT;",
"03566099999","2010-07-07T11:50:00","4","52.357167","-0.107833","41.14","WYTON, UK","FM-15","EGUY ","V020","220,1,N,0072,1","00540,1,C,N","011265,1,N,1","+0210,1","+0160,1","99999,9","07,5,+00540,1,99,9",,,,"07,99,1,99,9,99,9,99999,9,99,9,99,9","10180,1,99999,9",,,,,"MET055METAR EGUY 071150Z 22014KT 9999 BKN018 21/16 Q1018 WHT;",
"03566099999","2010-07-07T12:50:00","4","52.357167","-0.107833","41.14","WYTON, UK","FM-15","EGUY ","V020","210,1,N,0072,1","00600,1,C,N","011265,1,N,1","+0200,1","+0160,1","99999,9","07,5,+00600,1,99,9",,,,"07,99,1,99,9,99,9,99999,9,99,9,99,9","10180,1,99999,9",,,,,"MET055METAR EGUY 071250Z 21014KT 9999 BKN020 20/16 Q1018 WHT;",
"03566099999","2010-07-07T13:50:00","4","52.357167","-0.107833","41.14","WYTON, UK","FM-15","EGUY ","V020","210,1,N,0087,1","00600,1,C,N","011265,1,N,1","+0210,1","+0170,1","99999,9","07,5,+00600,1,99,9",,,,"07,99,1,99,9,99,9,99999,9,99,9,99,9","10180,1,99999,9",,,,,"MET055METAR EGUY 071350Z 21017KT 9999 BKN020 21/17 Q1018 WHT;",
"03566099999","2010-07-07T14:50:00","4","52.357167","-0.107833","41.14","WYTON, UK","FM-15","EGUY ","V020","200,1,N,0072,1","99999,9,C,N","011265,1,N,1","+0230,1","+0180,1","99999,9","02,5,+00600,1,99,9","04,5,+04200,1,99,9",,,"04,99,1,99,9,99,9,99999,9,99,9,99,9","10180,1,99999,9",,,,,"MET062METAR EGUY 071450Z 20014KT 9999 FEW020 SCT140 23/18 Q1018 BLU;","P01 042003SCOCIG"
"03566099999","2010-07-07T15:50:00","4","52.357167","-0.107833","41.14","WYTON, UK","FM-15","EGUY ","V020","210,1,N,0072,1","01500,1,C,N","011265,1,N,1","+0220,1","+0180,1","99999,9","04,5,+00900,1,99,9","07,5,+01500,1,99,9",,,"07,99,1,99,9,99,9,99999,9,99,9,99,9","10169,1,99999,9",,,,,"MET062METAR EGUY 071550Z 21014KT 9999 SCT030 BKN050 22/18 Q1017 BLU;",
"03566099999","2010-07-08T06:50:00","4","52.357167","-0.107833","41.14","WYTON, UK","FM-15","EGUY ","V020","280,1,N,0062,1","04500,1,C,N","011265,1,N,1","+0170,1","+0120,1","99999,9","02,5,+00600,1,99,9","07,5,+04500,1,99,9",,,"07,99,1,99,9,99,9,99999,9,99,9,99,9","10180,1,99999,9",,,,,"MET062METAR EGUY 080650Z 28012KT 9999 FEW020 BKN150 17/12 Q1018 BLU;",
"03566099999","2010-07-08T07:50:00","4","52.357167","-0.107833","41.14","WYTON, UK","FM-15","EGUY ","V020","270,1,N,0062,1","00960,1,C,N","011265,1,N,1","+0170,1","+0100,1","99999,9","02,5,+00600,1,99,9","04,5,+00960,1,99,9","07,5,+04500,1,99,9",,"07,99,1,99,9,99,9,99999,9,99,9,99,9","10190,1,99999,9",,,,,"MET069METAR EGUY 080750Z 27012KT 9999 FEW020 SCT032 BKN150 17/10 Q1019 BLU;",
"03566099999","2010-07-08T08:50:00","4","52.357167","-0.107833","41.14","WYTON, UK","FM-15","EGUY ","V020","240,1,N,0046,1","03600,1,C,N","011265,1,N,1","+0180,1","+0100,1","99999,9","02,5,+00960,1,99,9","04,5,+03600,1,99,9","07,5,+04500,1,99,9",,"07,99,1,99,9,99,9,99999,9,99,9,99,9","10190,1,99999,9",,,,,"MET069METAR EGUY 080850Z 24009KT 9999 FEW032 SCT120 BKN150 18/10 Q1019 BLU;",
"03566099999","2010-07-08T09:50:00","4","52.357167","-0.107833","41.14","WYTON, UK","FM-15","EGUY ","V020","240,1,N,0036,1","03600,1,C,N","011265,1,N,1","+0190,1","+0090,1","99999,9","04,5,+01200,1,99,9","07,5,+03600,1,99,9",,,"07,99,1,99,9,99,9,99999,9,99,9,99,9","10180,1,99999,9",,,,,"MET062METAR EGUY 080950Z 24007KT 9999 SCT040 BKN120 19/09 Q1018 BLU;",
"03566099999","2010-07-08T10:50:00","4","52.357167","-0.107833","41.14","WYTON, UK","FM-15","EGUY ","V020","250,1,N,0041,1","03600,1,C,N","011265,1,N,1","+0200,1","+0100,1","99999,9","02,5,+01500,1,99,9","04,5,+03600,1,99,9","07,5,+04500,1,99,9",,"07,99,1,99,9,99,9,99999,9,99,9,99,9","10180,1,99999,9",,,,,"MET069METAR EGUY 081050Z 25008KT 9999 FEW050 SCT120 BKN150 20/10 Q1018 BLU;",
"03566099999","2010-07-08T11:50:00","4","52.357167","-0.107833","41.14","WYTON, UK","FM-15","EGUY ","V020","240,1,N,0051,1","99999,9,9,Y","009900,1,N,1","+0220,1","+0100,1","99999,9",,,,,,"10180,1,99999,9",,,,,"MET049METAR EGUY 081150Z 24010KT CAVOK 22/10 Q1018 BLU;",
"03566099999","2010-07-08T12:50:00","4","52.357167","-0.107833","41.14","WYTON, UK","FM-15","EGUY ","V020","210,1,N,0041,1","04500,1,C,N","011265,1,N,1","+0230,1","+0110,1","99999,9","02,5,+01050,1,99,9","07,5,+04500,1,99,9",,,"07,99,1,99,9,99,9,99999,9,99,9,99,9","10180,1,99999,9",,,,,"MET062METAR EGUY 081250Z 21008KT 9999 FEW035 BKN150 23/11 Q1018 BLU;",
"03566099999","2010-07-08T13:50:00","4","52.357167","-0.107833","41.14","WYTON, UK","FM-15","EGUY ","V020","190,1,N,0041,1","04500,1,C,N","011265,1,N,1","+0230,1","+0100,1","99999,9","02,5,+01200,1,99,9","04,5,+04500,1,99,9","07,5,+06000,1,99,9",,"07,99,1,99,9,99,9,99999,9,99,9,99,9","10180,1,99999,9",,,,,"MET069METAR EGUY 081350Z 19008KT 9999 FEW040 SCT150 BKN200 23/10 Q1018 BLU;",
"03566099999","2010-07-08T14:50:00","4","52.357167","-0.107833","41.14","WYTON, UK","FM-15","EGUY ","V020","220,1,N,0062,1","06000,1,C,N","011265,1,N,1","+0240,1","+0090,1","99999,9","02,5,+01350,1,99,9","07,5,+06000,1,99,9",,,"07,99,1,99,9,99,9,99999,9,99,9,99,9","10180,1,99999,9",,,,,"MET062METAR EGUY 081450Z 22012KT 9999 FEW045 BKN200 24/09 Q1018 BLU;",
"03566099999","2010-07-08T15:50:00","4","52.357167","-0.107833","41.14","WYTON, UK","FM-15","EGUY ","V020","240,1,N,0051,1","99999,9,9,Y","009900,1,N,1","+0240,1","+0100,1","99999,9",,,,,,"10180,1,99999,9",,,,,"MET049METAR EGUY 081550Z 24010KT CAVOK 24/10 Q1018 BLU;",
"03566099999","2010-07-09T06:50:00","4","52.357167","-0.107833","41.14","WYTON, UK","FM-15","EGUY ","V020","230,1,N,0051,1","99999,9,9,Y","009900,1,N,1","+0170,1","+0140,1","99999,9",,,,,,"10159,1,99999,9",,,,,"MET049METAR EGUY 090650Z 23010KT CAVOK 17/14 Q1016 BLU;",
"03566099999","2010-07-09T07:50:00","4","52.357167","-0.107833","41.14","WYTON, UK","FM-15","EGUY ","V020","230,1,N,0036,1","99999,9,9,Y","009900,1,N,1","+0180,1","+0130,1","99999,9",,,,,,"10159,1,99999,9",,,,,"MET049METAR EGUY 090750Z 23007KT CAVOK 18/13 Q1016 BLU;",
"03566099999","2010-07-09T08:50:00","4","52.357167","-0.107833","41.14","WYTON, UK","FM-15","EGUY ","V020","210,1,N,0031,1","99999,9,9,Y","009900,1,N,1","+0200,1","+0120,1","99999,9",,,,,,"10159,1,99999,9",,,,,"MET049METAR EGUY 090850Z 21006KT CAVOK 20/12 Q1016 BLU;",
"03566099999","2010-07-09T09:50:00","4","52.357167","-0.107833","41.14","WYTON, UK","FM-15","EGUY ","V020","240,1,N,0031,1","22000,1,9,N","011265,1,N,1","+0220,1","+9999,9","99999,9","02,5,+01350,1,99,9",,,,"02,99,1,99,9,99,9,99999,9,99,9,99,9","10159,1,99999,9",,,,,"MET055METAR EGUY 090950Z 24006KT 9999 FEW045 22/// Q1016 BLU;",
"03566099999","2010-07-09T10:50:00","4","52.357167","-0.107833","41.14","WYTON, UK","FM-15","EGUY ","V020","210,1,N,0046,1","99999,9,9,Y","009900,1,N,1","+0240,1","+0100,1","99999,9",,,,,,"10159,1,99999,9",,,,,"MET049METAR EGUY 091050Z 21009KT CAVOK 24/10 Q1016 BLU;",
"03566099999","2010-07-09T11:50:00","4","52.357167","-0.107833","41.14","WYTON, UK","FM-15","EGUY ","V020","220,1,N,0036,1","99999,9,9,Y","009900,1,N,1","+0260,1","+0110,1","99999,9",,,,,,"10159,1,99999,9",,,,,"MET049METAR EGUY 091150Z 22007KT CAVOK 26/11 Q1016 BLU;",
"03566099999","2010-07-09T12:50:00","4","52.357167","-0.107833","41.14","WYTON, UK","FM-15","EGUY ","V020","230,1,N,0062,1","99999,9,9,Y","009900,1,N,1","+0270,1","+0120,1","99999,9",,,,,,"10149,1,99999,9",,,,,"MET049METAR EGUY 091250Z 23012KT CAVOK 27/12 Q1015 BLU;",
"03566099999","2010-07-09T13:50:00","4","52.357167","-0.107833","41.14","WYTON, UK","FM-15","EGUY ","V020","230,1,N,0051,1","99999,9,9,Y","009900,1,N,1","+0280,1","+0120,1","99999,9",,,,,,"10149,1,99999,9",,,,,"MET049METAR EGUY 091350Z 23010KT CAVOK 28/12 Q1015 BLU;",
"03566099999","2010-07-09T14:50:00","4","52.357167","-0.107833","41.14","WYTON, UK","FM-15","EGUY ","V020","220,1,N,0072,1","99999,9,9,Y","009900,1,N,1","+0290,1","+0110,1","99999,9",,,,,,"10149,1,99999,9",,,,,"MET049METAR EGUY 091450Z 22014KT CAVOK 29/11 Q1015 BLU;",
"03566099999","2010-07-10T08:50:00","4","52.357167","-0.107833","41.14","WYTON, UK","FM-15","EGUY ","V020","210,1,N,0036,1","07500,1,C,N","011265,1,N,1","+0230,1","+0150,1","99999,9","02,5,+00750,1,99,9","07,5,+07500,1,99,9",,,"07,99,1,99,9,99,9,99999,9,99,9,99,9","10190,1,99999,9",,,,,"MET062METAR EGUY 100850Z 21007KT 9999 FEW025 BKN250 23/15 Q1019 BLU;",
"03566099999","2010-07-10T09:50:00","4","52.357167","-0.107833","41.14","WYTON, UK","FM-15","EGUY ","V020","200,1,N,0041,1","07500,1,C,N","011265,1,N,1","+0240,1","+0140,1","99999,9","04,5,+00900,1,99,9","07,5,+07500,1,99,9",,,"07,99,1,99,9,99,9,99999,9,99,9,99,9","10180,1,99999,9",,,,,"MET062METAR EGUY 100950Z 20008KT 9999 SCT030 BKN250 24/14 Q1018 BLU;",
"03566099999","2010-07-10T10:50:00","4","52.357167","-0.107833","41.14","WYTON, UK","FM-15","EGUY ","V020","200,1,N,0051,1","07500,1,C,N","011265,1,N,1","+0250,1","+0140,1","99999,9","04,5,+01050,1,99,9","07,5,+07500,1,99,9",,,"07,99,1,99,9,99,9,99999,9,99,9,99,9","10180,1,99999,9",,,,,"MET062METAR EGUY 101050Z 20010KT 9999 SCT035 BKN250 25/14 Q1018 BLU;",
"03566099999","2010-07-10T12:50:00","4","52.357167","-0.107833","41.14","WYTON, UK","FM-15","EGUY ","V020","180,1,N,0057,1","07500,1,C,N","011265,1,N,1","+0270,1","+0140,1","99999,9","02,5,+01200,1,99,9","07,5,+07500,1,99,9",,,"07,99,1,99,9,99,9,99999,9,99,9,99,9","10169,1,99999,9",,,,,"MET062METAR EGUY 101250Z 18011KT 9999 FEW040 BKN250 27/14 Q1017 BLU;",
"03566099999","2010-07-10T13:50:00","4","52.357167","-0.107833","41.14","WYTON, UK","FM-15","EGUY ","V020","190,1,N,0051,1","99999,9,C,N","011265,1,N,1","+0280,1","+0140,1","99999,9","02,5,+01200,1,99,9","04,5,+07500,1,99,9",,,"04,99,1,99,9,99,9,99999,9,99,9,99,9","10159,1,99999,9",,,,,"MET062METAR EGUY 101350Z 19010KT 9999 FEW040 SCT250 28/14 Q1016 BLU;","P01 075003SCOCIG"
"03566099999","2010-07-10T14:50:00","4","52.357167","-0.107833","41.14","WYTON, UK","FM-15","EGUY ","V020","240,1,N,0041,1","07500,1,C,N","011265,1,N,1","+0280,1","+0140,1","99999,9","04,5,+01350,1,99,9","07,5,+07500,1,99,9",,,"07,99,1,99,9,99,9,99999,9,99,9,99,9","10159,1,99999,9",,,,,"MET062METAR EGUY 101450Z 24008KT 9999 SCT045 BKN250 28/14 Q1016 BLU;",
"03566099999","2010-07-11T02:50:00","4","52.357167","-0.107833","41.14","WYTON, UK","FM-15","EGUY ","V020","170,1,N,0031,1","22000,1,9,N","011265,1,N,1","+0160,1","+0140,1","99999,9","02,5,+03900,1,99,9",,,,"02,99,1,99,9,99,9,99999,9,99,9,99,9","10108,1,99999,9",,,,,"MET055METAR EGUY 110250Z 17006KT 9999 FEW130 16/14 Q1011 BLU;",
"03566099999","2010-07-11T06:50:00","4","52.357167","-0.107833","41.14","WYTON, UK","FM-15","EGUY ","V020","210,1,N,0072,1","01200,1,C,N","011265,1,N,1","+0190,1","+0160,1","99999,9","02,5,+00450,1,99,9","07,5,+01200,1,99,9",,,"07,99,1,99,9,99,9,99999,9,99,9,99,9","10129,1,99999,9",,,,,"MET062METAR EGUY 110650Z 21014KT 9999 FEW015 BKN040 19/16 Q1013 BLU;",
"03566099999","2010-07-11T07:50:00","4","52.357167","-0.107833","41.14","WYTON, UK","FM-15","EGUY ","V020","220,1,N,0057,1","99999,9,C,N","011265,1,N,1","+0200,1","+0140,1","99999,9","02,5,+00450,1,99,9","04,5,+00600,1,99,9",,,"04,99,1,99,9,99,9,99999,9,99,9,99,9","10129,1,99999,9",,,,"0113,1","MET065METAR EGUY 110750Z 22011G22KT 9999 FEW015 SCT020 20/14 Q1013 WHT;","P01 006003SCOCIG"
"03566099999","2010-07-11T08:50:00","4","52.357167","-0.107833","41.14","WYTON, UK","FM-15","EGUY ","V020","230,1,N,0093,1","00720,1,C,N","011265,1,N,1","+0210,1","+0140,1","99999,9","02,5,+00600,1,99,9","07,5,+00720,1,99,9",,,"07,99,1,99,9,99,9,99999,9,99,9,99,9","10129,1,99999,9",,,,,"MET062METAR EGUY 110850Z 23018KT 9999 FEW020 BKN024 21/14 Q1013 WHT;",
"03566099999","2010-07-11T09:50:00","4","52.357167","-0.107833","41.14","WYTON, UK","FM-15","EGUY ","V020","260,1,N,0072,1","22000,1,9,N","011265,1,N,1","+0230,1","+0160,1","99999,9","04,5,+00840,1,99,9",,,,"04,99,1,99,9,99,9,99999,9,99,9,99,9","10129,1,99999,9",,,,,"MET055METAR EGUY 110950Z 26014KT 9999 SCT028 23/16 Q1013 BLU;",
"03566099999","2010-07-11T10:50:00","4","52.357167","-0.107833","41.14","WYTON, UK","FM-15","EGUY ","V020","240,1,N,0072,1","22000,1,9,N","011265,1,N,1","+0230,1","+0150,1","99999,9","04,5,+00900,1,99,9",,,,"04,99,1,99,9,99,9,99999,9,99,9,99,9","10139,1,99999,9",,,,"0123,1","MET058METAR EGUY 111050Z 24014G24KT 9999 SCT030 23/15 Q1014 BLU;",
"03566099999","2010-07-11T11:50:00","4","52.357167","-0.107833","41.14","WYTON, UK","FM-15","EGUY ","V020","230,1,N,0082,1","99999,9,C,N","011265,1,N,1","+0240,1","+0150,1","99999,9","02,5,+01050,1,99,9","04,5,+01350,1,99,9",,,"04,99,1,99,9,99,9,99999,9,99,9,99,9","10139,1,99999,9",,,,,"MET062METAR EGUY 111150Z 23016KT 9999 FEW035 SCT045 24/15 Q1014 BLU;","P01 013503SCOCIG"
"03566099999","2010-07-12T06:50:00","4","52.357167","-0.107833","41.14","WYTON, UK","FM-15","EGUY ","V020","070,1,N,0026,1","03600,1,C,N","011265,1,N,1","+0170,1","+0150,1","99999,9","02,5,+00480,1,99,9","04,5,+03600,1,99,9","08,5,+05400,1,99,9",,"08,99,1,99,9,99,9,99999,9,99,9,99,9","10119,1,99999,9",,,,,"MET069METAR EGUY 120650Z 07005KT 9999 FEW016 SCT120 OVC180 17/15 Q1012 BLU;",
"03566099999","2010-07-12T07:50:00","4","52.357167","-0.107833","41.14","WYTON, UK","FM-15","EGUY ","V020","060,1,N,0010,1","03600,1,C,N","011265,1,N,1","+0170,1","+0150,1","99999,9","02,5,+00480,1,99,9","07,5,+03600,1,99,9","08,5,+05400,1,99,9",,"08,99,1,99,9,99,9,99999,9,99,9,99,9","10119,1,99999,9",,,,,"MET069METAR EGUY 120750Z 06002KT 9999 FEW016 BKN120 OVC180 17/15 Q1012 BLU;",
"03566099999","2010-07-12T08:50:00","4","52.357167","-0.107833","41.14","WYTON, UK","FM-15","EGUY ","V020","120,1,N,0015,1","03600,1,C,N","011265,1,N,1","+0180,1","+0160,1","99999,9","02,5,+00720,1,99,9","07,5,+03600,1,99,9","08,5,+05400,1,99,9",,"08,99,1,99,9,99,9,99999,9,99,9,99,9","10119,1,99999,9",,,,,"MET069METAR EGUY 120850Z 12003KT 9999 FEW024 BKN120 OVC180 18/16 Q1012 BLU;",
"03566099999","2010-07-12T09:50:00","4","52.357167","-0.107833","41.14","WYTON, UK","FM-15","EGUY ","V020","130,1,N,0015,1","03000,1,C,N","011265,1,N,1","+0180,1","+0150,1","99999,9","02,5,+00720,1,99,9","07,5,+03000,1,99,9","08,5,+05400,1,99,9",,"08,99,1,99,9,99,9,99999,9,99,9,99,9","10119,1,99999,9",,,,,"MET069METAR EGUY 120950Z 13003KT 9999 FEW024 BKN100 OVC180 18/15 Q1012 BLU;",
"03566099999","2010-07-12T10:50:00","4","52.357167","-0.107833","41.14","WYTON, UK","FM-15","EGUY ","V020","230,1,N,0031,1","00750,1,C,N","011265,1,N,1","+0190,1","+0150,1","99999,9","02,5,+00600,1,99,9","04,5,+00750,1,99,9","07,5,+02700,1,99,9",,"07,99,1,99,9,99,9,99999,9,99,9,99,9","10119,1,99999,9",,,,,"MET069METAR EGUY 121050Z 23006KT 9999 FEW020 SCT025 BKN090 19/15 Q1012 BLU;",
"03566099999","2010-07-12T11:50:00","4","52.357167","-0.107833","41.14","WYTON, UK","FM-15","EGUY ","V020","240,1,N,0036,1","00750,1,C,N","011265,1,N,1","+0190,1","+0150,1","99999,9","02,5,+00600,1,99,9","04,5,+00750,1,99,9","07,5,+02700,1,99,9",,"07,99,1,99,9,99,9,99999,9,99,9,99,9","10108,1,99999,9",,,,,"MET069METAR EGUY 121150Z 24007KT 9999 FEW020 SCT025 BKN090 19/15 Q1011 BLU;",
"03566099999","2010-07-12T12:50:00","4","52.357167","-0.107833","41.14","WYTON, UK","FM-15","EGUY ","V020","280,1,N,0031,1","01200,1,C,N","011265,1,N,1","+0190,1","+0150,1","99999,9","02,5,+00600,1,99,9","04,5,+01200,1,99,9","08,5,+02700,1,99,9",,"08,99,1,99,9,99,9,99999,9,99,9,99,9","10108,1,99999,9",,,,,"MET069METAR EGUY 121250Z 28006KT 9999 FEW020 SCT040 OVC090 19/15 Q1011 BLU;",
"03566099999","2010-07-12T13:50:00","4","52.357167","-0.107833","41.14","WYTON, UK","FM-15","EGUY ","V020","280,1,N,0041,1","01200,1,C,N","011265,1,N,1","+0200,1","+0160,1","99999,9","02,5,+00600,1,99,9","04,5,+01200,1,99,9","08,5,+02400,1,99,9",,"08,99,1,99,9,99,9,99999,9,99,9,99,9","10108,1,99999,9",,,,,"MET069METAR EGUY 121350Z 28008KT 9999 FEW020 SCT040 OVC080 20/16 Q1011 BLU;",
"03566099999","2010-07-12T14:50:00","4","52.357167","-0.107833","41.14","WYTON, UK","FM-15","EGUY ","V020","340,1,N,0046,1","01200,1,C,N","011265,1,N,1","+0190,1","+0170,1","99999,9","04,5,+00900,1,99,9","07,5,+01200,1,99,9","07,5,+02400,1,99,9",,"07,99,1,99,9,99,9,99999,9,99,9,99,9","10102,1,99999,9",,,,,"MET069METAR EGUY 121450Z 34009KT 9999 SCT030 BKN040 BKN080 19/17 Q1010 BLU;",
"03566099999","2010-07-12T15:25:00","4","52.357167","-0.107833","41.14","WYTON, UK","FM-15","EGUY ","V020","340,1,N,0041,1","00450,1,C,N","008000,1,N,1","+0170,1","+0170,1","99999,9","02,5,+00120,1,99,9","04,5,+00450,1,99,9","07,5,+01200,1,99,9",,"07,99,1,99,9,99,9,99999,9,99,9,99,9","10102,1,99999,9","63,1",,,,"MET072METAR EGUY 121525Z 34008KT 8000 RA FEW004 SCT015 BKN040 17/17 Q1010 WHT;",
"03566099999","2010-07-12T15:50:00","4","52.357167","-0.107833","41.14","WYTON, UK","FM-15","EGUY ","V020","350,1,N,0036,1","01200,1,C,N","011265,1,N,1","+0170,1","+0170,1","99999,9","04,5,+00300,1,99,9","07,5,+01200,1,99,9","07,5,+03600,1,99,9",,"07,99,1,99,9,99,9,99999,9,99,9,99,9","10108,1,99999,9","16,1",,,,"MET074METAR EGUY 121550Z 35007KT 9999 VCSH SCT010 BKN040 BKN120 17/17 Q1011 GRN;",
"03566099999","2010-07-13T06:50:00","4","52.357167","-0.107833","41.14","WYTON, UK","FM-15","EGUY ","V020","020,1,N,0026,1","00300,1,C,N","011265,1,N,1","+0140,1","+0140,1","99999,9","02,5,+00150,1,99,9","08,5,+00300,1,99,9",,,"08,99,1,99,9,99,9,99999,9,99,9,99,9","10108,1,99999,9",,,,,"MET062METAR EGUY 130650Z 02005KT 9999 FEW005 OVC010 14/14 Q1011 GRN;",
"03566099999","2010-07-13T07:50:00","4","52.357167","-0.107833","41.14","WYTON, UK","FM-15","EGUY ","V020","020,1,N,0026,1","00240,1,C,N","011265,1,N,1","+0150,1","+0150,1","99999,9","04,5,+00150,1,99,9","07,5,+00240,1,99,9",,,"07,99,1,99,9,99,9,99999,9,99,9,99,9","10108,1,99999,9",,,,,"MET063METAR EGUY 130750Z 02005KT 9999 SCT005 BKN008 15/15 Q1011 YLO1;",
"03566099999","2010-07-13T08:50:00","4","52.357167","-0.107833","41.14","WYTON, UK","FM-15","EGUY ","V020","070,1,N,0031,1","00240,1,C,N","011265,1,N,1","+0160,1","+0150,1","99999,9","04,5,+00180,1,99,9","04,5,+00240,1,99,9","07,5,+00600,1,99,9",,"07,99,1,99,9,99,9,99999,9,99,9,99,9","10102,1,99999,9",,,,,"MET070METAR EGUY 130850Z 07006KT 9999 SCT006 SCT008 BKN020 16/15 Q1010 YLO1;",
"03566099999","2010-07-13T09:50:00","4","52.357167","-0.107833","41.14","WYTON, UK","FM-15","EGUY ","V020","090,1,N,0046,1","00240,1,C,N","011265,1,N,1","+0160,1","+0140,1","99999,9","02,5,+00180,1,99,9","04,5,+00240,1,99,9","07,5,+00450,1,99,9",,"07,99,1,99,9,99,9,99999,9,99,9,99,9","10102,1,99999,9",,,,,"MET069METAR EGUY 130950Z 09009KT 9999 FEW006 SCT008 BKN015 16/14 Q1010 GRN;",
"03566099999","2010-07-13T10:50:00","4","52.357167","-0.107833","41.14","WYTON, UK","FM-15","EGUY ","V020","100,1,N,0041,1","00450,1,C,N","011265,1,N,1","+0170,1","+0140,1","99999,9","07,5,+00450,1,99,9",,,,"07,99,1,99,9,99,9,99999,9,99,9,99,9","10102,1,99999,9",,,,,"MET055METAR EGUY 131050Z 10008KT 9999 BKN015 17/14 Q1010 WHT;",
"03566099999","2010-07-13T11:50:00","4","52.357167","-0.107833","41.14","WYTON, UK","FM-15","EGUY ","V020","060,1,N,0041,1","01200,1,C,N","011265,1,N,1","+0170,1","+0150,1","99999,9","04,5,+00540,1,99,9","08,5,+01200,1,99,9",,,"08,99,1,99,9,99,9,99999,9,99,9,99,9","10102,1,99999,9",,,,,"MET062METAR EGUY 131150Z 06008KT 9999 SCT018 OVC040 17/15 Q1010 WHT;",
"03566099999","2010-07-13T12:50:00","4","52.357167","-0.107833","41.14","WYTON, UK","FM-15","EGUY ","V020","080,1,N,0046,1","00600,1,C,N","011265,1,N,1","+0180,1","+0130,1","99999,9","07,5,+00600,1,99,9",,,,"07,99,1,99,9,99,9,99999,9,99,9,99,9","10091,1,99999,9",,,,,"MET055METAR EGUY 131250Z 08009KT 9999 BKN020 18/13 Q1009 WHT;",
"03566099999","2010-07-13T13:50:00","4","52.357167","-0.107833","41.14","WYTON, UK","FM-15","EGUY ","V020","110,1,N,0041,1","00600,1,C,N","008000,1,N,1","+0170,1","+0150,1","99999,9","02,5,+00300,1,99,9","08,5,+00600,1,99,9",,,"08,99,1,99,9,99,9,99999,9,99,9,99,9","10091,1,99999,9","51,1",,,,"MET066METAR EGUY 131350Z 11008KT 8000 -DZ FEW010 OVC020 17/15 Q1009 WHT;",
"03566099999","2010-07-13T14:15:00","4","52.357167","-0.107833","41.14","WYTON, UK","FM-15","EGUY ","V020","100,1,N,0041,1","00450,1,C,N","005000,1,N,1","+0160,1","+0160,1","99999,9","04,5,+00240,1,99,9","08,5,+00450,1,99,9",,,"08,99,1,99,9,99,9,99999,9,99,9,99,9","10091,1,99999,9","51,1",,,,"MET066METAR EGUY 131415Z 10008KT 5000 -DZ SCT008 OVC015 16/16 Q1009 GRN;",
"03566099999","2010-07-14T06:50:00","4","52.357167","-0.107833","41.14","WYTON, UK","FM-15","EGUY ","V020","150,1,N,0041,1","01800,1,C,N","011265,1,N,1","+0170,1","+0150,1","99999,9","02,5,+01050,1,99,9","07,5,+01800,1,99,9",,,"07,99,1,99,9,99,9,99999,9,99,9,99,9","10041,1,99999,9",,,,,"MET062METAR EGUY 140650Z 15008KT 9999 FEW035 BKN060 17/15 Q1004 BLU;",
"03566099999","2010-07-14T07:50:00","4","52.357167","-0.107833","41.14","WYTON, UK","FM-15","EGUY ","V020","170,1,N,0031,1","01800,1,C,N","011265,1,N,1","+0190,1","+0150,1","99999,9","02,5,+01050,1,99,9","07,5,+01800,1,99,9",,,"07,99,1,99,9,99,9,99999,9,99,9,99,9","10041,1,99999,9",,,,,"MET062METAR EGUY 140750Z 17006KT 9999 FEW035 BKN060 19/15 Q1004 BLU;",
"03566099999","2010-07-14T08:50:00","4","52.357167","-0.107833","41.14","WYTON, UK","FM-15","EGUY ","V020","160,1,N,0062,1","01800,1,C,N","011265,1,N,1","+0200,1","+0150,1","99999,9","02,5,+00900,1,99,9","08,5,+01800,1,99,9",,,"08,99,1,99,9,99,9,99999,9,99,9,99,9","10041,1,99999,9",,,,,"MET062METAR EGUY 140850Z 16012KT 9999 FEW030 OVC060 20/15 Q1004 BLU;",
"03566099999","2010-07-14T09:50:00","4","52.357167","-0.107833","41.14","WYTON, UK","FM-15","EGUY ","V020","160,1,N,0062,1","02100,1,C,N","011265,1,N,1","+0210,1","+0150,1","99999,9","02,5,+00900,1,99,9","04,5,+02100,1,99,9","07,5,+07500,1,99,9",,"07,99,1,99,9,99,9,99999,9,99,9,99,9","10031,1,99999,9",,,,,"MET069METAR EGUY 140950Z 16012KT 9999 FEW030 SCT070 BKN250 21/15 Q1003 BLU;",
"03566099999","2010-07-14T10:50:00","4","52.357167","-0.107833","41.14","WYTON, UK","FM-15","EGUY ","V020","160,1,N,0057,1","02100,1,C,N","011265,1,N,1","+0220,1","+0150,1","99999,9","02,5,+00900,1,99,9","04,5,+02100,1,99,9","07,5,+07500,1,99,9",,"07,99,1,99,9,99,9,99999,9,99,9,99,9","10031,1,99999,9",,,,,"MET069METAR EGUY 141050Z 16011KT 9999 FEW030 SCT070 BKN250 22/15 Q1003 BLU;",
"03566099999","2010-07-14T11:50:00","4","52.357167","-0.107833","41.14","WYTON, UK","FM-15","EGUY ","V020","160,1,N,0057,1","02100,1,C,N","011265,1,N,1","+0220,1","+0150,1","99999,9","02,5,+00900,1,99,9","04,5,+02100,1,99,9","07,5,+07500,1,99,9",,"07,99,1,99,9,99,9,99999,9,99,9,99,9","10031,1,99999,9",,,,,"MET069METAR EGUY 141150Z 16011KT 9999 FEW030 SCT070 BKN250 22/15 Q1003 BLU;",
"03566099999","2010-07-14T12:50:00","4","52.357167","-0.107833","41.14","WYTON, UK","FM-15","EGUY ","V020","150,1,N,0062,1","02400,1,C,N","011265,1,N,1","+0210,1","+0150,1","99999,9","04,5,+01050,1,99,9","04,5,+02400,1,99,9","07,5,+07500,1,99,9",,"07,99,1,99,9,99,9,99999,9,99,9,99,9","10020,1,99999,9",,,,,"MET069METAR EGUY 141250Z 15012KT 9999 SCT035 SCT080 BKN250 21/15 Q1002 BLU;",
"03566099999","2010-07-14T13:50:00","4","52.357167","-0.107833","41.14","WYTON, UK","FM-15","EGUY ","V020","160,1,N,0062,1","02100,1,C,N","011265,1,N,1","+0210,1","+0150,1","99999,9","04,5,+01200,1,99,9","04,5,+02100,1,99,9","07,5,+07500,1,99,9",,"07,99,1,99,9,99,9,99999,9,99,9,99,9","10010,1,99999,9",,,,,"MET069METAR EGUY 141350Z 16012KT 9999 SCT040 SCT070 BKN250 21/15 Q1001 BLU;",
"03566099999","2010-07-14T14:50:00","4","52.357167","-0.107833","41.14","WYTON, UK","FM-15","EGUY ","V020","160,1,N,0082,1","02100,1,C,N","011265,1,N,1","+0200,1","+0150,1","99999,9","02,5,+01200,1,99,9","04,5,+02100,1,99,9","07,5,+07500,1,99,9",,"07,99,1,99,9,99,9,99999,9,99,9,99,9","10010,1,99999,9",,,,,"MET069METAR EGUY 141450Z 16016KT 9999 FEW040 SCT070 BKN250 20/15 Q1001 BLU;",
"03566099999","2010-07-15T06:50:00","4","52.357167","-0.107833","41.14","WYTON, UK","FM-15","EGUY ","V020","200,1,N,0072,1","00360,1,C,N","011265,1,N,1","+0170,1","+0140,1","99999,9","02,5,+00300,1,99,9","07,5,+00360,1,99,9",,,"07,99,1,99,9,99,9,99999,9,99,9,99,9","10000,1,99999,9","16,1",,,"0123,1","MET070METAR EGUY 150650Z 20014G24KT 9999 VCSH FEW010 BKN012 17/14 Q1000 GRN;",
"03566099999","2010-07-15T07:50:00","4","52.357167","-0.107833","41.14","WYTON, UK","FM-15","EGUY ","V020","210,1,N,0108,1","00810,1,C,N","011265,1,N,1","+0170,1","+0130,1","99999,9","04,5,+00480,1,99,9","07,5,+00810,1,99,9",,,"07,99,1,99,9,99,9,99999,9,99,9,99,9","10000,1,99999,9",,,,"0175,1","MET065METAR EGUY 150750Z 21021G34KT 9999 SCT016 BKN027 17/13 Q1000 WHT;",
"03566099999","2010-07-15T08:50:00","4","52.357167","-0.107833","41.14","WYTON, UK","FM-15","EGUY ","V020","210,1,N,0108,1","00600,1,C,N","011265,1,N,1","+0180,1","+0130,1","99999,9","04,5,+00450,1,99,9","07,5,+00600,1,99,9","07,5,+01500,1,99,9",,"07,99,1,99,9,99,9,99999,9,99,9,99,9","10010,1,99999,9",,,,"0165,1","MET072METAR EGUY 150850Z 21021G32KT 9999 SCT015 BKN020 BKN050 18/13 Q1001 WHT;",
"03566099999","2010-07-15T09:50:00","4","52.357167","-0.107833","41.14","WYTON, UK","FM-15","EGUY ","V020","210,1,N,0113,1","01080,1,C,N","011265,1,N,1","+0180,1","+0120,1","99999,9","04,5,+00720,1,99,9","07,5,+01080,1,99,9",,,"07,99,1,99,9,99,9,99999,9,99,9,99,9","10020,1,99999,9",,,,"0165,1","MET065METAR EGUY 150950Z 21022G32KT 9999 SCT024 BKN036 18/12 Q1002 WHT;",
"03566099999","2010-07-15T10:50:00","4","52.357167","-0.107833","41.14","WYTON, UK","FM-15","EGUY ","V020","210,1,N,0108,1","01350,1,C,N","011265,1,N,1","+0190,1","+0120,1","99999,9","04,5,+00750,1,99,9","07,5,+01350,1,99,9",,,"07,99,1,99,9,99,9,99999,9,99,9,99,9","10020,1,99999,9","16,1",,,"0159,1","MET070METAR EGUY 151050Z 21021G31KT 9999 VCSH SCT025 BKN045 19/12 Q1002 BLU;",
"03566099999","2010-07-15T11:50:00","4","52.357167","-0.107833","41.14","WYTON, UK","FM-15","EGUY ","V020","210,1,N,0103,1","00750,1,C,N","011265,1,N,1","+0190,1","+0120,1","99999,9","02,5,+00600,1,99,9","07,5,+00750,1,99,9","07,5,+01350,1,99,9",,"07,99,1,99,9,99,9,99999,9,99,9,99,9","10031,1,99999,9","81,1",,,"0154,1","MET077METAR EGUY 151150Z 21020G30KT 9999 SHRA FEW020 BKN025 BKN045 19/12 Q1003 BLU;",
"03566099999","2010-07-15T12:50:00","4","52.357167","-0.107833","41.14","WYTON, UK","FM-15","EGUY ","V020","220,1,N,0062,1","00750,1,C,N","011265,1,N,1","+0160,1","+0150,1","99999,9","02,5,+00600,1,02,1","04,5,+00750,1,99,9","07,5,+01350,1,99,9",,"07,99,1,99,9,99,9,99999,9,99,9,99,9","10041,1,99999,9","16,1",,,"0113,1","MET080METAR EGUY 151250Z 22012G22KT 9999 VCSH FEW020TCU SCT025 BKN045 16/15 Q1004 BLU;",
"03566099999","2010-07-15T13:50:00","4","52.357167","-0.107833","41.14","WYTON, UK","FM-15","EGUY ","V020","210,1,N,0082,1","00660,1,C,N","011265,1,N,1","+0160,1","+0140,1","99999,9","02,5,+00600,1,09,1","04,5,+00660,1,02,5","07,5,+00750,1,99,9",,"07,99,1,99,9,99,9,99999,9,99,9,99,9","10051,1,99999,9","81,1",,,"0159,1","MET082METAR EGUY 151350Z 21016G31KT 9999 SHRA FEW020CB SCT022TCU BKN025 16/14 Q1005 WHT;",
"03566099999","2010-07-16T06:50:00","4","52.357167","-0.107833","41.14","WYTON, UK","FM-15","EGUY ","V020","210,1,N,0093,1","22000,1,9,N","011265,1,N,1","+0150,1","+0100,1","99999,9","02,5,+00600,1,99,9",,,,"02,99,1,99,9,99,9,99999,9,99,9,99,9","10051,1,99999,9",,,,"0144,1","MET058METAR EGUY 160650Z 21018G28KT 9999 FEW020 15/10 Q1005 BLU;",
"03566099999","2010-07-16T07:50:00","4","52.357167","-0.107833","41.14","WYTON, UK","FM-15","EGUY ","V020","210,1,N,0093,1","00750,1,C,N","011265,1,N,1","+0170,1","+0110,1","99999,9","07,5,+00750,1,99,9",,,,"07,99,1,99,9,99,9,99999,9,99,9,99,9","10061,1,99999,9",,,,"0144,1","MET058METAR EGUY 160750Z 21018G28KT 9999 BKN025 17/11 Q1006 BLU;",
"03566099999","2010-07-16T08:50:00","4","52.357167","-0.107833","41.14","WYTON, UK","FM-15","EGUY ","V020","210,1,N,0082,1","00840,1,C,N","011265,1,N,1","+0170,1","+0100,1","99999,9","07,5,+00840,1,99,9",,,,"07,99,1,99,9,99,9,99999,9,99,9,99,9","10061,1,99999,9",,,,"0134,1","MET058METAR EGUY 160850Z 21016G26KT 9999 BKN028 17/10 Q1006 BLU;",
"03566099999","2010-07-16T09:50:00","4","52.357167","-0.107833","41.14","WYTON, UK","FM-15","EGUY ","V020","210,1,N,0103,1","01350,1,C,N","011265,1,N,1","+0190,1","+0100,1","99999,9","04,5,+01080,1,99,9","07,5,+01350,1,99,9",,,"07,99,1,99,9,99,9,99999,9,99,9,99,9","10061,1,99999,9",,,,"0154,1","MET065METAR EGUY 160950Z 21020G30KT 9999 SCT036 BKN045 19/10 Q1006 BLU;",
"03566099999","2010-07-16T10:50:00","4","52.357167","-0.107833","41.14","WYTON, UK","FM-15","EGUY ","V020","220,1,N,0098,1","99999,9,C,N","011265,1,N,1","+0200,1","+0100,1","99999,9","02,5,+01050,1,99,9","04,5,+01200,1,99,9",,,"04,99,1,99,9,99,9,99999,9,99,9,99,9","10071,1,99999,9",,,,"0149,1","MET065METAR EGUY 161050Z 22019G29KT 9999 FEW035 SCT040 20/10 Q1007 BLU;","P01 012003SCOCIG"
"03566099999","2010-07-16T11:50:00","4","52.357167","-0.107833","41.14","WYTON, UK","FM-15","EGUY ","V020","200,1,N,0103,1","01200,1,C,N","011265,1,N,1","+0210,1","+0100,1","99999,9","07,5,+01200,1,99,9",,,,"07,99,1,99,9,99,9,99999,9,99,9,99,9","10071,1,99999,9",,,,"0154,1","MET058METAR EGUY 161150Z 20020G30KT 9999 BKN040 21/10 Q1007 BLU;",
"03566099999","2010-07-17T07:50:00","4","52.357167","-0.107833","41.14","WYTON, UK","FM-15","EGUY ","V020","240,1,N,0062,1","00600,1,C,N","011265,1,N,1","+0150,1","+0130,1","99999,9","02,5,+00240,1,99,9","04,5,+00600,1,99,9","07,5,+01500,1,99,9",,"07,99,1,99,9,99,9,99999,9,99,9,99,9","10159,1,99999,9",,,,,"MET069METAR EGUY 170750Z 24012KT 9999 FEW008 SCT020 BKN050 15/13 Q1016 WHT;",
"03566099999","2010-07-17T09:50:00","4","52.357167","-0.107833","41.14","WYTON, UK","FM-15","EGUY ","V020","250,1,N,0057,1","00750,1,C,N","011265,1,N,1","+0170,1","+0110,1","99999,9","02,5,+00450,1,99,9","04,5,+00750,1,99,9","07,5,+01800,1,99,9",,"07,99,1,99,9,99,9,99999,9,99,9,99,9","10169,1,99999,9",,,,"0108,1","MET072METAR EGUY 170950Z 25011G21KT 9999 FEW015 SCT025 BKN060 17/11 Q1017 BLU;",
"03566099999","2010-07-17T10:50:00","4","52.357167","-0.107833","41.14","WYTON, UK","FM-15","EGUY ","V020","250,1,N,0062,1","01200,1,C,N","011265,1,N,1","+0190,1","+0110,1","99999,9","02,5,+00900,1,99,9","04,5,+01200,1,99,9","07,5,+01800,1,99,9",,"07,99,1,99,9,99,9,99999,9,99,9,99,9","10169,1,99999,9",,,,"0113,1","MET072METAR EGUY 171050Z 25012G22KT 9999 FEW030 SCT040 BKN060 19/11 Q1017 BLU;",
"03566099999","2010-07-17T11:50:00","4","52.357167","-0.107833","41.14","WYTON, UK","FM-15","EGUY ","V020","260,1,N,0082,1","01200,1,C,N","011265,1,N,1","+0180,1","+0110,1","99999,9","02,5,+00840,1,99,9","04,5,+01200,1,99,9","07,5,+01350,1,99,9","07,5,+02100,1,99,9","07,99,1,99,9,99,9,99999,9,99,9,99,9","10180,1,99999,9",,,,,"MET076METAR EGUY 171150Z 26016KT 9999 FEW028 SCT040 BKN045 BKN070 18/11 Q1018 BLU;",
"03566099999","2010-07-17T13:50:00","4","52.357167","-0.107833","41.14","WYTON, UK","FM-15","EGUY ","V020","270,1,N,0051,1","99999,9,C,N","011265,1,N,1","+0180,1","+0110,1","99999,9","02,5,+00750,1,02,1","04,5,+02100,1,99,9",,,"04,99,1,99,9,99,9,99999,9,99,9,99,9","10190,1,99999,9",,,,,"MET065METAR EGUY 171350Z 27010KT 9999 FEW025TCU SCT070 18/11 Q1019 BLU;","P01 021003SCOCIG"
"03566099999","2010-07-17T14:50:00","4","52.357167","-0.107833","41.14","WYTON, UK","FM-15","EGUY ","V020","270,1,N,0062,1","00960,1,C,N","011265,1,N,1","+0190,1","+0110,1","99999,9","07,5,+00960,1,99,9",,,,"07,99,1,99,9,99,9,99999,9,99,9,99,9","10200,1,99999,9",,,,"0113,1","MET058METAR EGUY 171450Z 27012G22KT 9999 BKN032 19/11 Q1020 BLU;",
"03566099999","2010-07-18T06:50:00","4","52.357167","-0.107833","41.14","WYTON, UK","FM-15","EGUY ","V020","210,1,N,0051,1","99999,9,9,Y","009900,1,N,1","+0140,1","+0110,1","99999,9",,,,,,"10251,1,99999,9",,,,,"MET049METAR EGUY 180650Z 21010KT CAVOK 14/11 Q1025 BLU;",
"03566099999","2010-07-18T07:50:00","4","52.357167","-0.107833","41.14","WYTON, UK","FM-15","EGUY ","V020","210,1,N,0057,1","99999,9,9,Y","009900,1,N,1","+0160,1","+0120,1","99999,9",,,,,,"10251,1,99999,9",,,,,"MET049METAR EGUY 180750Z 21011KT CAVOK 16/12 Q1025 BLU;",
"03566099999","2010-07-18T08:50:00","4","52.357167","-0.107833","41.14","WYTON, UK","FM-15","EGUY ","V020","210,1,N,0072,1","99999,9,9,Y","009900,1,N,1","+0170,1","+0130,1","99999,9",,,,,,"10251,1,99999,9",,,,,"MET049METAR EGUY 180850Z 21014KT CAVOK 17/13 Q1025 BLU;",
"03566099999","2010-07-18T09:50:00","4","52.357167","-0.107833","41.14","WYTON, UK","FM-15","EGUY ","V020","210,1,N,0108,1","99999,9,C,N","011265,1,N,1","+0190,1","+0140,1","99999,9","02,5,+00600,1,99,9","04,5,+01500,1,99,9",,,"04,99,1,99,9,99,9,99999,9,99,9,99,9","10240,1,99999,9",,,,,"MET062METAR EGUY 180950Z 21021KT 9999 FEW020 SCT050 19/14 Q1024 BLU;","P01 015003SCOCIG"
"03566099999","2010-07-18T10:50:00","4","52.357167","-0.107833","41.14","WYTON, UK","FM-15","EGUY ","V020","210,1,N,0077,1","02100,1,C,N","011265,1,N,1","+0210,1","+0150,1","99999,9","02,5,+00720,1,99,9","07,5,+02100,1,99,9",,,"07,99,1,99,9,99,9,99999,9,99,9,99,9","10240,1,99999,9",,,,"0129,1","MET065METAR EGUY 181050Z 21015G25KT 9999 FEW024 BKN070 21/15 Q1024 BLU;",
"03566099999","2010-07-18T11:50:00","4","52.357167","-0.107833","41.14","WYTON, UK","FM-15","EGUY ","V020","210,1,N,0082,1","02100,1,C,N","011265,1,N,1","+0210,1","+0160,1","99999,9","02,5,+00720,1,99,9","07,5,+02100,1,99,9",,,"07,99,1,99,9,99,9,99999,9,99,9,99,9","10240,1,99999,9",,,,,"MET062METAR EGUY 181150Z 21016KT 9999 FEW024 BKN070 21/16 Q1024 BLU;",
"03566099999","2010-07-18T12:50:00","4","52.357167","-0.107833","41.14","WYTON, UK","FM-15","EGUY ","V020","230,1,N,0077,1","01200,1,C,N","011265,1,N,1","+0210,1","+0160,1","99999,9","07,5,+01200,1,99,9",,,,"07,99,1,99,9,99,9,99999,9,99,9,99,9","10240,1,99999,9",,,,,"MET055METAR EGUY 181250Z 23015KT 9999 BKN040 21/16 Q1024 BLU;",
"03566099999","2010-07-19T06:50:00","4","52.357167","-0.107833","41.14","WYTON, UK","FM-15","EGUY ","V020","220,1,N,0051,1","99999,9,9,Y","009900,1,N,1","+0170,1","+0140,1","99999,9",,,,,,"10220,1,99999,9",,,,,"MET049METAR EGUY 190650Z 22010KT CAVOK 17/14 Q1022 BLU;",
"03566099999","2010-07-19T07:50:00","4","52.357167","-0.107833","41.14","WYTON, UK","FM-15","EGUY ","V020","220,1,N,0057,1","99999,9,9,Y","009900,1,N,1","+0180,1","+0140,1","99999,9",,,,,,"10220,1,99999,9",,,,,"MET049METAR EGUY 190750Z 22011KT CAVOK 18/14 Q1022 BLU;",
"03566099999","2010-07-19T08:50:00","4","52.357167","-0.107833","41.14","WYTON, UK","FM-15","EGUY ","V020","220,1,N,0051,1","99999,9,9,Y","009900,1,N,1","+0200,1","+0130,1","99999,9",,,,,,"10220,1,99999,9",,,,,"MET049METAR EGUY 190850Z 22010KT CAVOK 20/13 Q1022 BLU;",
"03566099999","2010-07-19T09:50:00","4","52.357167","-0.107833","41.14","WYTON, UK","FM-15","EGUY ","V020","210,1,N,0072,1","99999,9,9,Y","009900,1,N,1","+0220,1","+0130,1","99999,9",,,,,,"10220,1,99999,9",,,,,"MET049METAR EGUY 190950Z 21014KT CAVOK 22/13 Q1022 BLU;",
"03566099999","2010-07-19T10:50:00","4","52.357167","-0.107833","41.14","WYTON, UK","FM-15","EGUY ","V020","220,1,N,0072,1","99999,9,9,Y","009900,1,N,1","+0220,1","+0120,1","99999,9",,,,,,"10210,1,99999,9",,,,,"MET049METAR EGUY 191050Z 22014KT CAVOK 22/12 Q1021 BLU;",
"03566099999","2010-07-19T11:50:00","4","52.357167","-0.107833","41.14","WYTON, UK","FM-15","EGUY ","V020","210,1,N,0072,1","99999,9,9,Y","009900,1,N,1","+0240,1","+0140,1","99999,9",,,,,,"10210,1,99999,9",,,,"0123,1","MET052METAR EGUY 191150Z 21014G24KT CAVOK 24/14 Q1021 BLU;",
"03566099999","2010-07-19T13:50:00","4","52.357167","-0.107833","41.14","WYTON, UK","FM-15","EGUY ","V020","210,1,N,0067,1","99999,9,9,Y","009900,1,N,1","+0260,1","+0140,1","99999,9",,,,,,"10200,1,99999,9",,,,,"MET049METAR EGUY 191350Z 21013KT CAVOK 26/14 Q1020 BLU;",
"03566099999","2010-07-20T06:50:00","4","52.357167","-0.107833","41.14","WYTON, UK","FM-15","EGUY ","V020","180,1,N,0026,1","99999,9,9,Y","009900,1,N,1","+0180,1","+0130,1","99999,9",,,,,,"10139,1,99999,9",,,,,"MET049METAR EGUY 200650Z 18005KT CAVOK 18/13 Q1014 BLU;",
"03566099999","2010-07-20T07:50:00","4","52.357167","-0.107833","41.14","WYTON, UK","FM-15","EGUY ","V020","190,1,N,0036,1","99999,9,9,Y","009900,1,N,1","+0200,1","+0130,1","99999,9",,,,,,"10139,1,99999,9",,,,,"MET049METAR EGUY 200750Z 19007KT CAVOK 20/13 Q1014 BLU;",
"03566099999","2010-07-20T08:50:00","4","52.357167","-0.107833","41.14","WYTON, UK","FM-15","EGUY ","V020","190,1,N,0036,1","99999,9,9,Y","009900,1,N,1","+0210,1","+0140,1","99999,9",,,,,,"10129,1,99999,9",,,,,"MET049METAR EGUY 200850Z 19007KT CAVOK 21/14 Q1013 BLU;",
"03566099999","2010-07-20T09:50:00","4","52.357167","-0.107833","41.14","WYTON, UK","FM-15","EGUY ","V020","180,1,N,0026,1","99999,9,9,Y","009900,1,N,1","+0220,1","+0140,1","99999,9",,,,,,"10129,1,99999,9",,,,,"MET049METAR EGUY 200950Z 18005KT CAVOK 22/14 Q1013 BLU;",
"03566099999","2010-07-20T10:50:00","4","52.357167","-0.107833","41.14","WYTON, UK","FM-15","EGUY ","V020","160,1,N,0031,1","99999,9,9,Y","009900,1,N,1","+0240,1","+0130,1","99999,9",,,,,,"10119,1,99999,9",,,,,"MET049METAR EGUY 201050Z 16006KT CAVOK 24/13 Q1012 BLU;",
"03566099999","2010-07-20T11:50:00","4","52.357167","-0.107833","41.14","WYTON, UK","FM-15","EGUY ","V020","170,1,N,0036,1","99999,9,9,Y","009900,1,N,1","+9999,9","+9999,9","99999,9",,,,,,"10108,1,99999,9",,,,,"MET049METAR EGUY 201150Z 17007KT CAVOK ///// Q1011 BLU;",
"03566099999","2010-07-20T12:50:00","4","52.357167","-0.107833","41.14","WYTON, UK","FM-15","EGUY ","V020","170,1,N,0041,1","99999,9,9,Y","009900,1,N,1","+0260,1","+9999,9","99999,9",,,,,,"10102,1,99999,9",,,,,"MET049METAR EGUY 201250Z 17008KT CAVOK 26/// Q1010 BLU;",
"03566099999","2010-07-20T13:50:00","4","52.357167","-0.107833","41.14","WYTON, UK","FM-15","EGUY ","V020","210,1,N,0041,1","99999,9,9,Y","009900,1,N,1","+0270,1","+9999,9","99999,9",,,,,,"10102,1,99999,9",,,,,"MET049METAR EGUY 201350Z 21008KT CAVOK 27/// Q1010 BLU;",
"03566099999","2010-07-20T14:50:00","4","52.357167","-0.107833","41.14","WYTON, UK","FM-15","EGUY ","V020","210,1,N,0031,1","99999,9,9,Y","009900,1,N,1","+0270,1","+9999,9","99999,9",,,,,,"10091,1,99999,9",,,,,"MET049METAR EGUY 201450Z 21006KT CAVOK 27/// Q1009 BLU;",
"03566099999","2010-07-21T06:50:00","4","52.357167","-0.107833","41.14","WYTON, UK","FM-15","EGUY ","V020","230,1,N,0067,1","03900,5,9,N","999999,9,N,1","+0170,1","+0140,1","99999,9","02,5,+00360,5,99,9","04,5,+03900,5,99,9",,,,"10050,1,99999,9",,,,,"MET057METAR EGUY 210650Z 23013KT FEW012 SCT130 17/14 Q1005 BLU;",
"03566099999","2010-07-21T07:50:00","4","52.357167","-0.107833","41.14","WYTON, UK","FM-15","EGUY ","V020","220,1,N,0072,1","22000,1,9,N","011265,1,N,1","+0180,1","+0140,1","99999,9","02,5,+00480,1,99,9",,,,"02,99,1,99,9,99,9,99999,9,99,9,99,9","10051,1,99999,9",,,,,"MET055METAR EGUY 210750Z 22014KT 9999 FEW016 18/14 Q1005 BLU;",
"03566099999","2010-07-21T08:50:00","4","52.357167","-0.107833","41.14","WYTON, UK","FM-15","EGUY ","V020","210,1,N,0072,1","22000,1,9,N","011265,1,N,1","+0190,1","+0140,1","99999,9","02,5,+00600,1,99,9",,,,"02,99,1,99,9,99,9,99999,9,99,9,99,9","10061,1,99999,9",,,,,"MET055METAR EGUY 210850Z 21014KT 9999 FEW020 19/14 Q1006 BLU;",
"03566099999","2010-07-21T09:50:00","4","52.357167","-0.107833","41.14","WYTON, UK","FM-15","EGUY ","V020","230,1,N,0087,1","22000,1,9,N","011265,1,N,1","+0200,1","+0130,1","99999,9","02,5,+00840,1,99,9",,,,"02,99,1,99,9,99,9,99999,9,99,9,99,9","10061,1,99999,9",,,,,"MET055METAR EGUY 210950Z 23017KT 9999 FEW028 20/13 Q1006 BLU;",
"03566099999","2010-07-21T10:50:00","4","52.357167","-0.107833","41.14","WYTON, UK","FM-15","EGUY ","V020","230,1,N,0072,1","22000,1,9,N","011265,1,N,1","+0210,1","+0140,1","99999,9","02,5,+00900,1,99,9",,,,"02,99,1,99,9,99,9,99999,9,99,9,99,9","10061,1,99999,9",,,,,"MET055METAR EGUY 211050Z 23014KT 9999 FEW030 21/14 Q1006 BLU;",
"03566099999","2010-07-21T11:50:00","4","52.357167","-0.107833","41.14","WYTON, UK","FM-15","EGUY ","V020","210,1,N,0082,1","22000,1,9,N","011265,1,N,1","+0220,1","+0140,1","99999,9","02,5,+00960,1,99,9",,,,"02,99,1,99,9,99,9,99999,9,99,9,99,9","10061,1,99999,9",,,,,"MET055METAR EGUY 211150Z 21016KT 9999 FEW032 22/14 Q1006 BLU;",
"03566099999","2010-07-21T12:50:00","4","52.357167","-0.107833","41.14","WYTON, UK","FM-15","EGUY ","V020","220,1,N,0072,1","22000,1,9,N","011265,1,N,1","+0230,1","+0140,1","99999,9","04,5,+01050,1,99,9",,,,"04,99,1,99,9,99,9,99999,9,99,9,99,9","10061,1,99999,9",,,,,"MET055METAR EGUY 211250Z 22014KT 9999 SCT035 23/14 Q1006 BLU;",
"03566099999","2010-07-21T13:50:00","4","52.357167","-0.107833","41.14","WYTON, UK","FM-15","EGUY ","V020","220,1,N,0082,1","22000,1,9,N","011265,1,N,1","+0240,1","+0140,1","99999,9","04,5,+01200,1,99,9",,,,"04,99,1,99,9,99,9,99999,9,99,9,99,9","10051,1,99999,9",,,,,"MET055METAR EGUY 211350Z 22016KT 9999 SCT040 24/14 Q1005 BLU;",
"03566099999","2010-07-21T14:50:00","4","52.357167","-0.107833","41.14","WYTON, UK","FM-15","EGUY ","V020","210,1,N,0051,1","22000,1,9,N","011265,1,N,1","+0240,1","+0150,1","99999,9","04,5,+01200,1,99,9",,,,"04,99,1,99,9,99,9,99999,9,99,9,99,9","10051,1,99999,9",,,,,"MET055METAR EGUY 211450Z 21010KT 9999 SCT040 24/15 Q1005 BLU;",
"03566099999","2010-07-22T06:50:00","4","52.357167","-0.107833","41.14","WYTON, UK","FM-15","EGUY ","V020","220,1,N,0031,1","22000,1,9,N","011265,1,N,1","+0150,1","+0130,1","99999,9","02,5,+00450,1,99,9",,,,"02,99,1,99,9,99,9,99999,9,99,9,99,9","10102,1,99999,9",,,,,"MET055METAR EGUY 220650Z 22006KT 9999 FEW015 15/13 Q1010 BLU;",
"03566099999","2010-07-22T07:50:00","4","52.357167","-0.107833","41.14","WYTON, UK","FM-15","EGUY ","V020","220,1,N,0046,1","22000,1,9,N","011265,1,N,1","+0170,1","+0140,1","99999,9","04,5,+00480,1,99,9",,,,"04,99,1,99,9,99,9,99999,9,99,9,99,9","10102,1,99999,9",,,,,"MET055METAR EGUY 220750Z 22009KT 9999 SCT016 17/14 Q1010 WHT;",
"03566099999","2010-07-22T08:50:00","4","52.357167","-0.107833","41.14","WYTON, UK","FM-15","EGUY ","V020","230,1,N,0036,1","22000,1,9,N","011265,1,N,1","+0180,1","+0140,1","99999,9","04,5,+00750,1,99,9",,,,"04,99,1,99,9,99,9,99999,9,99,9,99,9","10108,1,99999,9",,,,,"MET055METAR EGUY 220850Z 23007KT 9999 SCT025 18/14 Q1011 BLU;",
"03566099999","2010-07-22T09:50:00","4","52.357167","-0.107833","41.14","WYTON, UK","FM-15","EGUY ","V020","270,1,N,0031,1","22000,1,9,N","011265,1,N,1","+0190,1","+0140,1","99999,9","04,5,+00750,1,99,9",,,,"04,99,1,99,9,99,9,99999,9,99,9,99,9","10108,1,99999,9",,,,,"MET055METAR EGUY 220950Z 27006KT 9999 SCT025 19/14 Q1011 BLU;",
"03566099999","2010-07-22T10:50:00","4","52.357167","-0.107833","41.14","WYTON, UK","FM-15","EGUY ","V020","280,1,N,0036,1","22000,1,9,N","011265,1,N,1","+0180,1","+0140,1","99999,9","04,5,+00750,1,02,1",,,,"04,99,1,99,9,99,9,99999,9,99,9,99,9","10108,1,99999,9",,,,,"MET058METAR EGUY 221050Z 28007KT 9999 SCT025TCU 18/14 Q1011 BLU;",
"03566099999","2010-07-22T11:50:00","4","52.357167","-0.107833","41.14","WYTON, UK","FM-15","EGUY ","V020","250,1,N,0036,1","22000,1,9,N","011265,1,N,1","+0190,1","+0140,1","99999,9","04,5,+00750,1,09,1",,,,"04,99,1,99,9,99,9,99999,9,99,9,99,9","10119,1,99999,9","16,1",,,,"MET062METAR EGUY 221150Z 25007KT 9999 VCSH SCT025CB 19/14 Q1012 BLU;",
"03566099999","2010-07-22T12:50:00","4","52.357167","-0.107833","41.14","WYTON, UK","FM-15","EGUY ","V020","160,1,N,0021,1","99999,9,C,N","011265,1,N,1","+0200,1","+0140,1","99999,9","04,5,+00750,1,09,1","04,5,+01050,1,99,9",,,"04,99,1,99,9,99,9,99999,9,99,9,99,9","10119,1,99999,9","16,1",,,,"MET069METAR EGUY 221250Z 16004KT 9999 VCSH SCT025CB SCT035 20/14 Q1012 BLU;","P01 010503SCOCIG"
"03566099999","2010-07-22T13:50:00","4","52.357167","-0.107833","41.14","WYTON, UK","FM-15","EGUY ","V020","190,1,N,0021,1","99999,9,C,N","011265,1,N,1","+0200,1","+0140,1","99999,9","02,5,+00750,1,02,1","04,5,+01200,1,09,5",,,"04,99,1,99,9,99,9,99999,9,99,9,99,9","10119,1,99999,9",,,,,"MET067METAR EGUY 221350Z 19004KT 9999 FEW025TCU SCT040CB 20/14 Q1012 BLU;","P01 012003SCOCIG"
"03566099999","2010-07-22T14:50:00","4","52.357167","-0.107833","41.14","WYTON, UK","FM-15","EGUY ","V020","340,1,N,0057,1","99999,9,C,N","011265,1,N,1","+0200,1","+0140,1","99999,9","04,5,+00750,1,02,1","04,5,+01200,1,09,5",,,"04,99,1,99,9,99,9,99999,9,99,9,99,9","10129,1,99999,9",,,,,"MET067METAR EGUY 221450Z 34011KT 9999 SCT025TCU SCT040CB 20/14 Q1013 BLU;","P01 012003SCOCIG"
"03566099999","2010-07-23T07:50:00","4","52.357167","-0.107833","41.14","WYTON, UK","FM-15","EGUY ","V020","350,1,N,0051,1","00750,1,C,N","011265,1,N,1","+0140,1","+0120,1","99999,9","02,5,+00300,1,99,9","04,5,+00750,1,99,9","07,5,+01350,1,99,9",,"07,99,1,99,9,99,9,99999,9,99,9,99,9","10200,1,99999,9",,,,,"MET069METAR EGUY 230750Z 35010KT 9999 FEW010 SCT025 BKN045 14/12 Q1020 BLU;",
"03566099999","2010-07-23T08:50:00","4","52.357167","-0.107833","41.14","WYTON, UK","FM-15","EGUY ","V020","330,1,N,0062,1","00750,1,C,N","011265,1,N,1","+0160,1","+0130,1","99999,9","02,5,+00360,1,99,9","04,5,+00750,1,99,9","07,5,+01350,1,99,9",,"07,99,1,99,9,99,9,99999,9,99,9,99,9","10200,1,99999,9",,,,,"MET069METAR EGUY 230850Z 33012KT 9999 FEW012 SCT025 BKN045 16/13 Q1020 BLU;",
"03566099999","2010-07-23T09:50:00","4","52.357167","-0.107833","41.14","WYTON, UK","FM-15","EGUY ","V020","340,1,N,0046,1","22000,1,9,N","011265,1,N,1","+0180,1","+0130,1","99999,9","04,5,+00600,1,99,9",,,,"04,99,1,99,9,99,9,99999,9,99,9,99,9","10200,1,99999,9",,,,,"MET055METAR EGUY 230950Z 34009KT 9999 SCT020 18/13 Q1020 WHT;",
"03566099999","2010-07-23T10:50:00","4","52.357167","-0.107833","41.14","WYTON, UK","FM-15","EGUY ","V020","350,1,N,0057,1","01500,1,C,N","011265,1,N,1","+0170,1","+0130,1","99999,9","04,5,+00660,1,99,9","07,5,+01500,1,99,9",,,"07,99,1,99,9,99,9,99999,9,99,9,99,9","10200,1,99999,9",,,,,"MET062METAR EGUY 231050Z 35011KT 9999 SCT022 BKN050 17/13 Q1020 WHT;",
"03566099999","2010-07-23T11:50:00","4","52.357167","-0.107833","41.14","WYTON, UK","FM-15","EGUY ","V020","360,1,N,0051,1","22000,1,9,N","011265,1,N,1","+0180,1","+0120,1","99999,9","04,5,+00750,1,99,9",,,,"04,99,1,99,9,99,9,99999,9,99,9,99,9","10210,1,99999,9",,,,,"MET055METAR EGUY 231150Z 36010KT 9999 SCT025 18/12 Q1021 BLU;",
"03566099999","2010-07-23T12:50:00","4","52.357167","-0.107833","41.14","WYTON, UK","FM-15","EGUY ","V020","330,1,N,0046,1","01500,1,C,N","011265,1,N,1","+0180,1","+0120,1","99999,9","04,5,+00900,1,99,9","07,5,+01500,1,99,9",,,"07,99,1,99,9,99,9,99999,9,99,9,99,9","10210,1,99999,9",,,,,"MET062METAR EGUY 231250Z 33009KT 9999 SCT030 BKN050 18/12 Q1021 BLU;",
"03566099999","2010-07-23T13:50:00","4","52.357167","-0.107833","41.14","WYTON, UK","FM-15","EGUY ","V020","350,1,N,0036,1","02400,1,C,N","011265,1,N,1","+0180,1","+0120,1","99999,9","04,5,+00900,1,99,9","07,5,+02400,1,99,9",,,"07,99,1,99,9,99,9,99999,9,99,9,99,9","10210,1,99999,9",,,,,"MET062METAR EGUY 231350Z 35007KT 9999 SCT030 BKN080 18/12 Q1021 BLU;",
"03566099999","2010-07-23T14:50:00","4","52.357167","-0.107833","41.14","WYTON, UK","FM-15","EGUY ","V020","340,1,N,0031,1","02400,1,C,N","011265,1,N,1","+0180,1","+0120,1","99999,9","04,5,+00900,1,99,9","07,5,+02400,1,99,9",,,"07,99,1,99,9,99,9,99999,9,99,9,99,9","10210,1,99999,9",,,,,"MET062METAR EGUY 231450Z 34006KT 9999 SCT030 BKN080 18/12 Q1021 BLU;",
"03566099999","2010-07-24T06:50:00","4","52.357167","-0.107833","41.14","WYTON, UK","FM-15","EGUY ","V020","210,1,N,0031,1","99999,9,9,Y","009900,1,N,1","+0160,1","+0130,1","99999,9",,,,,,"10230,1,99999,9",,,,,"MET049METAR EGUY 240650Z 21006KT CAVOK 16/13 Q1023 BLU;",
"03566099999","2010-07-24T07:50:00","4","52.357167","-0.107833","41.14","WYTON, UK","FM-15","EGUY ","V020","220,1,N,0036,1","99999,9,9,Y","009900,1,N,1","+0180,1","+0140,1","99999,9",,,,,,"10230,1,99999,9",,,,,"MET049METAR EGUY 240750Z 22007KT CAVOK 18/14 Q1023 BLU;",
"03566099999","2010-07-24T08:50:00","4","52.357167","-0.107833","41.14","WYTON, UK","FM-15","EGUY ","V020","240,1,N,0046,1","22000,1,9,N","011265,1,N,1","+0190,1","+0150,1","99999,9","02,5,+00900,1,99,9",,,,"02,99,1,99,9,99,9,99999,9,99,9,99,9","10220,1,99999,9",,,,,"MET055METAR EGUY 240850Z 24009KT 9999 FEW030 19/15 Q1022 BLU;",
"03566099999","2010-07-24T09:50:00","4","52.357167","-0.107833","41.14","WYTON, UK","FM-15","EGUY ","V020","220,1,N,0062,1","01080,1,C,N","011265,1,N,1","+0200,1","+0110,1","99999,9","07,5,+01080,1,99,9",,,,"07,99,1,99,9,99,9,99999,9,99,9,99,9","10230,1,99999,9",,,,,"MET055METAR EGUY 240950Z 22012KT 9999 BKN036 20/11 Q1023 BLU;",
"03566099999","2010-07-24T10:50:00","4","52.357167","-0.107833","41.14","WYTON, UK","FM-15","EGUY ","V020","220,1,N,0051,1","01350,1,C,N","011265,1,N,1","+0210,1","+0100,1","99999,9","07,5,+01350,1,99,9",,,,"07,99,1,99,9,99,9,99999,9,99,9,99,9","10220,1,99999,9",,,,,"MET055METAR EGUY 241050Z 22010KT 9999 BKN045 21/10 Q1022 BLU;",
"03566099999","2010-07-24T12:50:00","4","52.357167","-0.107833","41.14","WYTON, UK","FM-15","EGUY ","V020","230,1,N,0046,1","99999,9,9,Y","009900,1,N,1","+0230,1","+0070,1","99999,9",,,,,,"10210,1,99999,9",,,,,"MET049METAR EGUY 241250Z 23009KT CAVOK 23/07 Q1021 BLU;",
"03566099999","2010-07-24T13:50:00","4","52.357167","-0.107833","41.14","WYTON, UK","FM-15","EGUY ","V020","220,1,N,0041,1","99999,9,9,Y","009900,1,N,1","+0240,1","+0070,1","99999,9",,,,,,"10210,1,99999,9",,,,,"MET049METAR EGUY 241350Z 22008KT CAVOK 24/07 Q1021 BLU;",
"03566099999","2010-07-24T14:50:00","4","52.357167","-0.107833","41.14","WYTON, UK","FM-15","EGUY ","V020","240,1,N,0046,1","99999,9,9,Y","009900,1,N,1","+0230,1","+0090,1","99999,9",,,,,,"10210,1,99999,9",,,,,"MET049METAR EGUY 241450Z 24009KT CAVOK 23/09 Q1021 BLU;",
"03566099999","2010-07-25T06:50:00","4","52.357167","-0.107833","41.14","WYTON, UK","FM-15","EGUY ","V020","250,1,N,0046,1","02700,1,C,N","011265,1,N,1","+0170,1","+0140,1","99999,9","02,5,+00450,1,99,9","07,5,+02700,1,99,9",,,"07,99,1,99,9,99,9,99999,9,99,9,99,9","10169,1,99999,9",,,,,"MET062METAR EGUY 250650Z 25009KT 9999 FEW015 BKN090 17/14 Q1017 BLU;",
"03566099999","2010-07-25T07:50:00","4","52.357167","-0.107833","41.14","WYTON, UK","FM-15","EGUY ","V020","280,1,N,0051,1","01050,1,C,N","011265,1,N,1","+0180,1","+0140,1","99999,9","02,5,+00480,1,99,9","04,5,+01050,1,99,9","07,5,+02700,1,99,9",,"07,99,1,99,9,99,9,99999,9,99,9,99,9","10169,1,99999,9",,,,,"MET069METAR EGUY 250750Z 28010KT 9999 FEW016 SCT035 BKN090 18/14 Q1017 BLU;",
"03566099999","2010-07-25T08:50:00","4","52.357167","-0.107833","41.14","WYTON, UK","FM-15","EGUY ","V020","270,1,N,0041,1","02700,1,C,N","011265,1,N,1","+0200,1","+0140,1","99999,9","02,5,+00720,1,99,9","07,5,+02700,1,99,9",,,"07,99,1,99,9,99,9,99999,9,99,9,99,9","10169,1,99999,9",,,,,"MET062METAR EGUY 250850Z 27008KT 9999 FEW024 BKN090 20/14 Q1017 BLU;",
"03566099999","2010-07-25T09:50:00","4","52.357167","-0.107833","41.14","WYTON, UK","FM-15","EGUY ","V020","280,1,N,0072,1","99999,9,C,N","011265,1,N,1","+0200,1","+0150,1","99999,9","02,5,+00600,1,99,9","04,5,+00900,1,99,9",,,"04,99,1,99,9,99,9,99999,9,99,9,99,9","10169,1,99999,9",,,,,"MET062METAR EGUY 250950Z 28014KT 9999 FEW020 SCT030 20/15 Q1017 BLU;","P01 009003SCOCIG"
"03566099999","2010-07-25T10:50:00","4","52.357167","-0.107833","41.14","WYTON, UK","FM-15","EGUY ","V020","290,1,N,0031,1","99999,9,C,N","011265,1,N,1","+0220,1","+0130,1","99999,9","04,5,+01050,1,99,9","04,5,+01800,1,99,9",,,"04,99,1,99,9,99,9,99999,9,99,9,99,9","10159,1,99999,9",,,,,"MET062METAR EGUY 251050Z 29006KT 9999 SCT035 SCT060 22/13 Q1016 BLU;","P01 018003SCOCIG"
"03566099999","2010-07-25T11:50:00","4","52.357167","-0.107833","41.14","WYTON, UK","FM-15","EGUY ","V020","300,1,N,0051,1","01200,1,C,N","011265,1,N,1","+0230,1","+0130,1","99999,9","02,5,+00900,1,99,9","04,5,+01200,1,99,9","07,5,+01800,1,99,9",,"07,99,1,99,9,99,9,99999,9,99,9,99,9","10159,1,99999,9",,,,,"MET069METAR EGUY 251150Z 30010KT 9999 FEW030 SCT040 BKN060 23/13 Q1016 BLU;",
"03566099999","2010-07-25T12:50:00","4","52.357167","-0.107833","41.14","WYTON, UK","FM-15","EGUY ","V020","300,1,N,0062,1","02400,1,C,N","011265,1,N,1","+0240,1","+0110,1","99999,9","02,5,+01200,1,99,9","04,5,+02400,1,99,9","07,5,+03600,1,99,9",,"07,99,1,99,9,99,9,99999,9,99,9,99,9","10159,1,99999,9",,,,,"MET069METAR EGUY 251250Z 30012KT 9999 FEW040 SCT080 BKN120 24/11 Q1016 BLU;",
"03566099999","2010-07-25T13:50:00","4","52.357167","-0.107833","41.14","WYTON, UK","FM-15","EGUY ","V020","280,1,N,0041,1","99999,9,9,Y","009900,1,N,1","+0240,1","+0110,1","99999,9",,,,,,"10149,1,99999,9",,,,,"MET049METAR EGUY 251350Z 28008KT CAVOK 24/11 Q1015 BLU;",
"03566099999","2010-07-26T06:50:00","4","52.357167","-0.107833","41.14","WYTON, UK","FM-15","EGUY ","V020","300,1,N,0051,1","00300,1,C,N","011265,1,N,1","+0170,1","+0140,1","99999,9","07,5,+00300,1,99,9","07,5,+00750,1,99,9",,,"07,99,1,99,9,99,9,99999,9,99,9,99,9","10159,1,99999,9",,,,,"MET062METAR EGUY 260650Z 30010KT 9999 BKN010 BKN025 17/14 Q1016 GRN;",
"03566099999","2010-07-26T07:50:00","4","52.357167","-0.107833","41.14","WYTON, UK","FM-15","EGUY ","V020","330,1,N,0036,1","00660,1,C,N","011265,1,N,1","+0180,1","+0130,1","99999,9","02,5,+00360,1,99,9","07,5,+00660,1,99,9",,,"07,99,1,99,9,99,9,99999,9,99,9,99,9","10159,1,99999,9",,,,,"MET062METAR EGUY 260750Z 33007KT 9999 FEW012 BKN022 18/13 Q1016 WHT;",
"03566099999","2010-07-26T08:50:00","4","52.357167","-0.107833","41.14","WYTON, UK","FM-15","EGUY ","V020","350,1,N,0041,1","00600,1,C,N","011265,1,N,1","+0180,1","+0130,1","99999,9","07,5,+00600,1,99,9",,,,"07,99,1,99,9,99,9,99999,9,99,9,99,9","10159,1,99999,9",,,,,"MET055METAR EGUY 260850Z 35008KT 9999 BKN020 18/13 Q1016 WHT;",
"03566099999","2010-07-26T09:50:00","4","52.357167","-0.107833","41.14","WYTON, UK","FM-15","EGUY ","V020","320,1,N,0062,1","22000,1,9,N","011265,1,N,1","+0210,1","+0130,1","99999,9","04,5,+00960,1,99,9",,,,"04,99,1,99,9,99,9,99999,9,99,9,99,9","10159,1,99999,9",,,,,"MET055METAR EGUY 260950Z 32012KT 9999 SCT032 21/13 Q1016 BLU;",
"03566099999","2010-07-26T10:50:00","4","52.357167","-0.107833","41.14","WYTON, UK","FM-15","EGUY ","V020","320,1,N,0051,1","22000,1,9,N","011265,1,N,1","+0200,1","+0120,1","99999,9","04,5,+00960,1,99,9",,,,"04,99,1,99,9,99,9,99999,9,99,9,99,9","10159,1,99999,9",,,,,"MET055METAR EGUY 261050Z 32010KT 9999 SCT032 20/12 Q1016 BLU;",
"03566099999","2010-07-26T11:50:00","4","52.357167","-0.107833","41.14","WYTON, UK","FM-15","EGUY ","V020","300,1,N,0051,1","01410,1,C,N","011265,1,N,1","+0210,1","+0140,1","99999,9","04,5,+00900,1,99,9","07,5,+01410,1,99,9",,,"07,99,1,99,9,99,9,99999,9,99,9,99,9","10159,1,99999,9",,,,,"MET062METAR EGUY 261150Z 30010KT 9999 SCT030 BKN047 21/14 Q1016 BLU;",
"03566099999","2010-07-26T12:50:00","4","52.357167","-0.107833","41.14","WYTON, UK","FM-15","EGUY ","V020","300,1,N,0062,1","01500,1,C,N","011265,1,N,1","+0210,1","+0140,1","99999,9","04,5,+00900,1,99,9","07,5,+01500,1,99,9",,,"07,99,1,99,9,99,9,99999,9,99,9,99,9","10159,1,99999,9",,,,,"MET062METAR EGUY 261250Z 30012KT 9999 SCT030 BKN050 21/14 Q1016 BLU;",
"03566099999","2010-07-26T13:50:00","4","52.357167","-0.107833","41.14","WYTON, UK","FM-15","EGUY ","V020","320,1,N,0051,1","01500,1,C,N","011265,1,N,1","+0210,1","+0130,1","99999,9","04,5,+00960,1,99,9","07,5,+01500,1,99,9",,,"07,99,1,99,9,99,9,99999,9,99,9,99,9","10159,1,99999,9",,,,,"MET062METAR EGUY 261350Z 32010KT 9999 SCT032 BKN050 21/13 Q1016 BLU;",
"03566099999","2010-07-26T14:50:00","4","52.357167","-0.107833","41.14","WYTON, UK","FM-15","EGUY ","V020","320,1,N,0057,1","99999,9,C,N","011265,1,N,1","+0210,1","+0140,1","99999,9","02,5,+01050,1,99,9","04,5,+01500,1,99,9",,,"04,99,1,99,9,99,9,99999,9,99,9,99,9","10159,1,99999,9",,,,,"MET062METAR EGUY 261450Z 32011KT 9999 FEW035 SCT050 21/14 Q1016 BLU;","P01 015003SCOCIG"
"03566099999","2010-07-27T06:50:00","4","52.357167","-0.107833","41.14","WYTON, UK","FM-15","EGUY ","V020","250,1,N,0036,1","01500,1,C,N","011265,1,N,1","+0200,1","+0160,1","99999,9","02,5,+00900,1,99,9","04,5,+01500,1,99,9","07,5,+07500,1,99,9",,"07,99,1,99,9,99,9,99999,9,99,9,99,9","10169,1,99999,9",,,,,"MET069METAR EGUY 270650Z 25007KT 9999 FEW030 SCT050 BKN250 20/16 Q1017 BLU;",
"03566099999","2010-07-27T07:50:00","4","52.357167","-0.107833","41.14","WYTON, UK","FM-15","EGUY ","V020","270,1,N,0051,1","99999,9,C,N","011265,1,N,1","+0210,1","+0170,1","99999,9","02,5,+00900,1,99,9","04,5,+01500,1,99,9",,,"04,99,1,99,9,99,9,99999,9,99,9,99,9","10169,1,99999,9",,,,,"MET062METAR EGUY 270750Z 27010KT 9999 FEW030 SCT050 21/17 Q1017 BLU;","P01 015003SCOCIG"
"03566099999","2010-07-27T08:50:00","4","52.357167","-0.107833","41.14","WYTON, UK","FM-15","EGUY ","V020","250,1,N,0051,1","99999,9,C,N","011265,1,N,1","+0220,1","+0160,1","99999,9","02,5,+00900,1,99,9","04,5,+01500,1,99,9",,,"04,99,1,99,9,99,9,99999,9,99,9,99,9","10169,1,99999,9",,,,,"MET062METAR EGUY 270850Z 25010KT 9999 FEW030 SCT050 22/16 Q1017 BLU;","P01 015003SCOCIG"
"03566099999","2010-07-27T09:50:00","4","52.357167","-0.107833","41.14","WYTON, UK","FM-15","EGUY ","V020","240,1,N,0026,1","01080,1,C,N","011265,1,N,1","+0220,1","+0160,1","99999,9","02,5,+00720,1,99,9","04,5,+01080,1,99,9","07,5,+02100,1,99,9",,"07,99,1,99,9,99,9,99999,9,99,9,99,9","10169,1,99999,9",,,,,"MET069METAR EGUY 270950Z 24005KT 9999 FEW024 SCT036 BKN070 22/16 Q1017 BLU;",
"03566099999","2010-07-27T10:50:00","4","52.357167","-0.107833","41.14","WYTON, UK","FM-15","EGUY ","V020","250,1,N,0036,1","00840,1,C,N","011265,1,N,1","+0220,1","+0150,1","99999,9","02,5,+00450,1,99,9","04,5,+00840,1,99,9","07,5,+01500,1,99,9",,"07,99,1,99,9,99,9,99999,9,99,9,99,9","10169,1,99999,9","80,1",,,,"MET075METAR EGUY 271050Z 25007KT 9999 -SHRA FEW015 SCT028 BKN050 22/15 Q1017 BLU;",
"03566099999","2010-07-27T11:50:00","4","52.357167","-0.107833","41.14","WYTON, UK","FM-15","EGUY ","V020","250,1,N,0062,1","00750,1,C,N","011265,1,N,1","+0200,1","+0180,1","99999,9","02,5,+00510,1,99,9","04,5,+00750,1,99,9","08,5,+01500,1,99,9",,"08,99,1,99,9,99,9,99999,9,99,9,99,9","10169,1,99999,9","61,1",,,,"MET073METAR EGUY 271150Z 25012KT 9999 -RA FEW017 SCT025 OVC050 20/18 Q1017 BLU;",
"03566099999","2010-07-27T12:50:00","4","52.357167","-0.107833","41.14","WYTON, UK","FM-15","EGUY ","V020","230,1,N,0051,1","00750,1,C,N","011265,1,N,1","+0200,1","+0180,1","99999,9","02,5,+00240,1,99,9","04,5,+00750,1,99,9","08,5,+01500,1,99,9",,"08,99,1,99,9,99,9,99999,9,99,9,99,9","10169,1,99999,9","61,1",,,,"MET073METAR EGUY 271250Z 23010KT 9999 -RA FEW008 SCT025 OVC050 20/18 Q1017 BLU;",
"03566099999","2010-07-27T13:50:00","4","52.357167","-0.107833","41.14","WYTON, UK","FM-15","EGUY ","V020","240,1,N,0031,1","01500,1,C,N","011265,1,N,1","+0220,1","+0170,1","99999,9","02,5,+00600,1,99,9","04,5,+01500,1,99,9","08,5,+03000,1,99,9",,"08,99,1,99,9,99,9,99999,9,99,9,99,9","10159,1,99999,9",,,,,"MET069METAR EGUY 271350Z 24006KT 9999 FEW020 SCT050 OVC100 22/17 Q1016 BLU;",
"03566099999","2010-07-27T14:50:00","4","52.357167","-0.107833","41.14","WYTON, UK","FM-15","EGUY ","V020","240,1,N,0010,1","99999,9,C,N","011265,1,N,1","+0210,1","+0170,1","99999,9","04,5,+00450,1,99,9","04,5,+00900,1,99,9",,,"04,99,1,99,9,99,9,99999,9,99,9,99,9","10159,1,99999,9","80,1",,,,"MET068METAR EGUY 271450Z 24002KT 9999 -SHRA SCT015 SCT030 21/17 Q1016 WHT;","P01 009003SCOCIG"
"03566099999","2010-07-27T15:50:00","4","52.357167","-0.107833","41.14","WYTON, UK","FM-15","EGUY ","V020","320,1,N,0051,1","01500,1,C,N","011265,1,N,1","+0210,1","+0170,1","99999,9","02,5,+00480,1,99,9","04,5,+01500,1,99,9","07,5,+03000,1,99,9",,"07,99,1,99,9,99,9,99999,9,99,9,99,9","10159,1,99999,9",,,,,"MET069METAR EGUY 271550Z 32010KT 9999 FEW016 SCT050 BKN100 21/17 Q1016 BLU;",
"03566099999","2010-07-28T06:50:00","4","52.357167","-0.107833","41.14","WYTON, UK","FM-15","EGUY ","V020","260,1,N,0046,1","99999,9,9,Y","009900,1,N,1","+0150,1","+0110,1","99999,9",,,,,,"10169,1,99999,9",,,,,"MET049METAR EGUY 280650Z 26009KT CAVOK 15/11 Q1017 BLU;",
"03566099999","2010-07-28T07:50:00","4","52.357167","-0.107833","41.14","WYTON, UK","FM-15","EGUY ","V020","250,1,N,0041,1","99999,9,9,Y","009900,1,N,1","+0170,1","+0120,1","99999,9",,,,,,"10169,1,99999,9",,,,,"MET049METAR EGUY 280750Z 25008KT CAVOK 17/12 Q1017 BLU;",
"03566099999","2010-07-28T08:50:00","4","52.357167","-0.107833","41.14","WYTON, UK","FM-15","EGUY ","V020","240,1,N,0031,1","22000,1,9,N","011265,1,N,1","+0190,1","+0110,1","99999,9","02,5,+00960,1,99,9",,,,"02,99,1,99,9,99,9,99999,9,99,9,99,9","10169,1,99999,9",,,,,"MET055METAR EGUY 280850Z 24006KT 9999 FEW032 19/11 Q1017 BLU;",
"03566099999","2010-07-28T09:50:00","4","52.357167","-0.107833","41.14","WYTON, UK","FM-15","EGUY ","V020","250,1,N,0031,1","01200,1,C,N","011265,1,N,1","+0200,1","+0100,1","99999,9","07,5,+01200,1,99,9",,,,"07,99,1,99,9,99,9,99999,9,99,9,99,9","10169,1,99999,9",,,,,"MET055METAR EGUY 280950Z 25006KT 9999 BKN040 20/10 Q1017 BLU;",
"03566099999","2010-07-28T10:50:00","4","52.357167","-0.107833","41.14","WYTON, UK","FM-15","EGUY ","V020","250,1,N,0046,1","01350,1,C,N","011265,1,N,1","+0210,1","+0090,1","99999,9","07,5,+01350,1,99,9",,,,"07,99,1,99,9,99,9,99999,9,99,9,99,9","10169,1,99999,9",,,,,"MET055METAR EGUY 281050Z 25009KT 9999 BKN045 21/09 Q1017 BLU;",
"03566099999","2010-07-28T11:50:00","4","52.357167","-0.107833","41.14","WYTON, UK","FM-15","EGUY ","V020","260,1,N,0072,1","01500,1,C,N","011265,1,N,1","+0210,1","+0100,1","99999,9","02,5,+01350,1,99,9","07,5,+01500,1,99,9","07,5,+07500,1,99,9",,"07,99,1,99,9,99,9,99999,9,99,9,99,9","10159,1,99999,9",,,,,"MET069METAR EGUY 281150Z 26014KT 9999 FEW045 BKN050 BKN250 21/10 Q1016 BLU;",
"03566099999","2010-07-28T12:50:00","4","52.357167","-0.107833","41.14","WYTON, UK","FM-15","EGUY ","V020","280,1,N,0057,1","01800,1,C,N","011265,1,N,1","+0220,1","+0100,1","99999,9","04,5,+01350,1,99,9","04,5,+01800,1,99,9","07,5,+07500,1,99,9",,"07,99,1,99,9,99,9,99999,9,99,9,99,9","10159,1,99999,9",,,,"0108,1","MET072METAR EGUY 281250Z 28011G21KT 9999 SCT045 SCT060 BKN250 22/10 Q1016 BLU;",
"03566099999","2010-07-28T13:50:00","4","52.357167","-0.107833","41.14","WYTON, UK","FM-15","EGUY ","V020","270,1,N,0062,1","02100,1,C,N","011265,1,N,1","+0210,1","+0090,1","99999,9","02,5,+01350,1,99,9","07,5,+02100,1,99,9",,,"07,99,1,99,9,99,9,99999,9,99,9,99,9","10159,1,99999,9",,,,,"MET062METAR EGUY 281350Z 27012KT 9999 FEW045 BKN070 21/09 Q1016 BLU;",
"03566099999","2010-07-28T14:50:00","4","52.357167","-0.107833","41.14","WYTON, UK","FM-15","EGUY ","V020","280,1,N,0072,1","99999,9,9,Y","009900,1,N,1","+0210,1","+0090,1","99999,9",,,,,,"10159,1,99999,9",,,,,"MET049METAR EGUY 281450Z 28014KT CAVOK 21/09 Q1016 BLU;",
"03566099999","2010-07-28T15:50:00","4","52.357167","-0.107833","41.14","WYTON, UK","FM-15","EGUY ","V020","310,1,N,0072,1","02400,1,C,N","011265,1,N,1","+0200,1","+0090,1","99999,9","02,5,+01350,1,99,9","07,5,+02400,1,99,9",,,"07,99,1,99,9,99,9,99999,9,99,9,99,9","10149,1,99999,9","16,1",,,,"MET067METAR EGUY 281550Z 31014KT 9999 VCSH FEW045 BKN080 20/09 Q1015 BLU;",
"03566099999","2010-07-29T06:50:00","4","52.357167","-0.107833","41.14","WYTON, UK","FM-15","EGUY ","V020","310,1,N,0057,1","02400,1,C,N","011265,1,N,1","+0150,1","+0120,1","99999,9","02,5,+00900,1,99,9","07,5,+02400,1,99,9",,,"07,99,1,99,9,99,9,99999,9,99,9,99,9","10159,1,99999,9",,,,,"MET062METAR EGUY 290650Z 31011KT 9999 FEW030 BKN080 15/12 Q1016 BLU;",
"03566099999","2010-07-29T07:50:00","4","52.357167","-0.107833","41.14","WYTON, UK","FM-15","EGUY ","V020","310,1,N,0051,1","02100,1,C,N","011265,1,N,1","+0160,1","+0120,1","99999,9","02,5,+00480,1,99,9","07,5,+02100,1,99,9",,,"07,99,1,99,9,99,9,99999,9,99,9,99,9","10159,1,99999,9",,,,,"MET062METAR EGUY 290750Z 31010KT 9999 FEW016 BKN070 16/12 Q1016 BLU;",
"03566099999","2010-07-29T08:50:00","4","52.357167","-0.107833","41.14","WYTON, UK","FM-15","EGUY ","V020","310,1,N,0051,1","99999,9,C,N","011265,1,N,1","+0180,1","+0110,1","99999,9","02,5,+00750,1,99,9","04,5,+02400,1,99,9",,,"04,99,1,99,9,99,9,99999,9,99,9,99,9","10159,1,99999,9",,,,,"MET062METAR EGUY 290850Z 31010KT 9999 FEW025 SCT080 18/11 Q1016 BLU;","P01 024003SCOCIG"
"03566099999","2010-07-29T09:50:00","4","52.357167","-0.107833","41.14","WYTON, UK","FM-15","EGUY ","V020","310,1,N,0041,1","01320,1,C,N","011265,1,N,1","+0190,1","+0080,1","99999,9","07,5,+01320,1,99,9","07,5,+06000,1,99,9",,,"07,99,1,99,9,99,9,99999,9,99,9,99,9","10159,1,99999,9",,,,,"MET062METAR EGUY 290950Z 31008KT 9999 BKN044 BKN200 19/08 Q1016 BLU;",
"03566099999","2010-07-29T10:50:00","4","52.357167","-0.107833","41.14","WYTON, UK","FM-15","EGUY ","V020","320,1,N,0046,1","01350,1,C,N","011265,1,N,1","+0190,1","+0080,1","99999,9","07,5,+01350,1,99,9",,,,"07,99,1,99,9,99,9,99999,9,99,9,99,9","10159,1,99999,9",,,,,"MET055METAR EGUY 291050Z 32009KT 9999 BKN045 19/08 Q1016 BLU;",
"03566099999","2010-07-29T11:50:00","4","52.357167","-0.107833","41.14","WYTON, UK","FM-15","EGUY ","V020","300,1,N,0072,1","01530,5,C,N","011265,1,N,1","+0190,1","+0090,1","99999,9","04,5,+01290,1,99,9","07,5,+01530,5,99,9",,,"07,99,1,99,9,99,9,99999,9,99,9,99,9","10159,1,99999,9",,,,,"MET062METAR EGUY 291150Z 30014KT 9999 SCT043 BKN051 19/09 Q1016 BLU;",
"03566099999","2010-07-29T12:50:00","4","52.357167","-0.107833","41.14","WYTON, UK","FM-15","EGUY ","V020","280,1,N,0077,1","01800,1,C,N","011265,1,N,1","+0200,1","+0100,1","99999,9","04,5,+01350,1,99,9","07,5,+01800,1,99,9",,,"07,99,1,99,9,99,9,99999,9,99,9,99,9","10159,1,99999,9",,,,,"MET058METAR EGUY 291250Z 28015KT 9999 SCT045 BKN060 20/10 Q1016;",
"03566099999","2010-07-29T13:50:00","4","52.357167","-0.107833","41.14","WYTON, UK","FM-15","EGUY ","V020","270,1,N,0082,1","01800,1,C,N","011265,1,N,1","+0200,1","+0090,1","99999,9","04,5,+01350,1,99,9","07,5,+01800,1,99,9",,,"07,99,1,99,9,99,9,99999,9,99,9,99,9","10159,1,99999,9",,,,,"MET062METAR EGUY 291350Z 27016KT 9999 SCT045 BKN060 20/09 Q1016 BLU;",
"03566099999","2010-07-29T14:50:00","4","52.357167","-0.107833","41.14","WYTON, UK","FM-15","EGUY ","V020","280,1,N,0062,1","02100,1,C,N","011265,1,N,1","+0190,1","+0100,1","99999,9","04,5,+01200,1,99,9","07,5,+02100,1,99,9",,,"07,99,1,99,9,99,9,99999,9,99,9,99,9","10159,1,99999,9",,,,,"MET062METAR EGUY 291450Z 28012KT 9999 SCT040 BKN070 19/10 Q1016 BLU;",
"03566099999","2010-07-29T15:50:00","4","52.357167","-0.107833","41.14","WYTON, UK","FM-15","EGUY ","V020","290,1,N,0051,1","02100,1,C,N","011265,1,N,1","+0190,1","+0100,1","99999,9","02,5,+01200,1,99,9","04,5,+02100,1,99,9","07,5,+06000,1,99,9",,"07,99,1,99,9,99,9,99999,9,99,9,99,9","10149,1,99999,9",,,,,"MET069METAR EGUY 291550Z 29010KT 9999 FEW040 SCT070 BKN200 19/10 Q1015 BLU;",
"03566099999","2010-07-30T06:50:00","4","52.357167","-0.107833","41.14","WYTON, UK","FM-15","EGUY ","V020","220,1,N,0021,1","01200,1,C,N","011265,1,N,1","+0130,1","+0110,1","99999,9","02,5,+00450,1,99,9","04,5,+01200,1,99,9","07,5,+01500,1,99,9",,"07,99,1,99,9,99,9,99999,9,99,9,99,9","10149,1,99999,9",,,,,"MET069METAR EGUY 300650Z 22004KT 9999 FEW015 SCT040 BKN050 13/11 Q1015 BLU;",
"03566099999","2010-07-30T07:50:00","4","52.357167","-0.107833","41.14","WYTON, UK","FM-15","EGUY ","V020","250,1,N,0010,1","01200,1,C,N","011265,1,N,1","+0150,1","+0110,1","99999,9","02,5,+00480,1,99,9","07,5,+01200,1,99,9",,,"07,99,1,99,9,99,9,99999,9,99,9,99,9","10149,1,99999,9",,,,,"MET062METAR EGUY 300750Z 25002KT 9999 FEW016 BKN040 15/11 Q1015 BLU;",
"03566099999","2010-07-30T08:50:00","4","52.357167","-0.107833","41.14","WYTON, UK","FM-15","EGUY ","V020","200,1,N,0031,1","99999,9,C,N","011265,1,N,1","+0170,1","+0110,1","99999,9","04,5,+00750,1,99,9","04,5,+01200,1,99,9",,,"04,99,1,99,9,99,9,99999,9,99,9,99,9","10149,1,99999,9",,,,,"MET062METAR EGUY 300850Z 20006KT 9999 SCT025 SCT040 17/11 Q1015 BLU;","P01 012003SCOCIG"
"03566099999","2010-07-30T09:50:00","4","52.357167","-0.107833","41.14","WYTON, UK","FM-15","EGUY ","V020","230,1,N,0031,1","00960,1,C,N","011265,1,N,1","+0180,1","+0100,1","99999,9","07,5,+00960,1,99,9",,,,"07,99,1,99,9,99,9,99999,9,99,9,99,9","10149,1,99999,9",,,,,"MET055METAR EGUY 300950Z 23006KT 9999 BKN032 18/10 Q1015 BLU;",
"03566099999","2010-07-30T10:50:00","4","52.357167","-0.107833","41.14","WYTON, UK","FM-15","EGUY ","V020","210,1,N,0041,1","02400,1,C,N","011265,1,N,1","+0180,1","+0090,1","99999,9","04,5,+01080,1,99,9","07,5,+02400,1,99,9",,,"07,99,1,99,9,99,9,99999,9,99,9,99,9","10139,1,99999,9",,,,,"MET062METAR EGUY 301050Z 21008KT 9999 SCT036 BKN080 18/09 Q1014 BLU;",
"03566099999","2010-07-30T11:50:00","4","52.357167","-0.107833","41.14","WYTON, UK","FM-15","EGUY ","V020","280,1,N,0031,1","02400,1,C,N","011265,1,N,1","+0200,1","+0080,1","99999,9","04,5,+01200,1,99,9","07,5,+02400,1,99,9",,,"07,99,1,99,9,99,9,99999,9,99,9,99,9","10139,1,99999,9",,,,,"MET062METAR EGUY 301150Z 28006KT 9999 SCT040 BKN080 20/08 Q1014 BLU;",
"03566099999","2010-07-30T12:50:00","4","52.357167","-0.107833","41.14","WYTON, UK","FM-15","EGUY ","V020","270,1,N,0051,1","01350,1,C,N","011265,1,N,1","+0210,1","+0090,1","99999,9","02,5,+01200,1,99,9","04,5,+01350,1,99,9","07,5,+02400,1,99,9",,"07,99,1,99,9,99,9,99999,9,99,9,99,9","10139,1,99999,9",,,,,"MET069METAR EGUY 301250Z 27010KT 9999 FEW040 SCT045 BKN080 21/09 Q1014 BLU;",
"03566099999","2010-07-30T13:50:00","4","52.357167","-0.107833","41.14","WYTON, UK","FM-15","EGUY ","V020","250,1,N,0046,1","02100,1,C,N","011265,1,N,1","+0210,1","+0100,1","99999,9","02,5,+01290,1,99,9","07,5,+02100,1,99,9",,,"07,99,1,99,9,99,9,99999,9,99,9,99,9","10129,1,99999,9",,,,,"MET062METAR EGUY 301350Z 25009KT 9999 FEW043 BKN070 21/10 Q1013 BLU;",
"03566099999","2010-07-30T14:50:00","4","52.357167","-0.107833","41.14","WYTON, UK","FM-15","EGUY ","V020","230,1,N,0041,1","02100,1,C,N","011265,1,N,1","+0210,1","+0110,1","99999,9","02,5,+01350,1,99,9","07,5,+02100,1,99,9",,,"07,99,1,99,9,99,9,99999,9,99,9,99,9","10129,1,99999,9",,,,,"MET062METAR EGUY 301450Z 23008KT 9999 FEW045 BKN070 21/11 Q1013 BLU;",
"03566099999","2010-07-31T07:50:00","4","52.357167","-0.107833","41.14","WYTON, UK","FM-15","EGUY ","V020","150,1,N,0021,1","01050,1,C,N","011265,1,N,1","+0160,1","+0160,1","99999,9","04,5,+00120,1,99,9","07,5,+01050,1,99,9",,,"07,99,1,99,9,99,9,99999,9,99,9,99,9","10108,1,99999,9",,,,,"MET063METAR EGUY 310750Z 15004KT 9999 SCT004 BKN035 16/16 Q1011 YLO2;",
"03566099999","2010-07-31T08:50:00","4","52.357167","-0.107833","41.14","WYTON, UK","FM-15","EGUY ","V020","190,1,N,0010,1","00150,1,C,N","011265,1,N,1","+0180,1","+0160,1","99999,9","07,5,+00150,1,99,9","07,5,+01050,1,99,9",,,"07,99,1,99,9,99,9,99999,9,99,9,99,9","10108,1,99999,9",,,,,"MET063METAR EGUY 310850Z 19002KT 9999 BKN005 BKN035 18/16 Q1011 YLO1;",
"03566099999","2010-07-31T09:50:00","4","52.357167","-0.107833","41.14","WYTON, UK","FM-15","EGUY ","V020","160,1,N,0015,1","00300,1,C,N","011265,1,N,1","+0180,1","+0160,1","99999,9","04,5,+00150,1,99,9","07,5,+00300,1,99,9","07,5,+00750,1,99,9",,"07,99,1,99,9,99,9,99999,9,99,9,99,9","10108,1,99999,9",,,,,"MET070METAR EGUY 310950Z 16003KT 9999 SCT005 BKN010 BKN025 18/16 Q1011 YLO1;",
"03566099999","2010-07-31T10:20:00","4","52.357167","-0.107833","41.14","WYTON, UK","FM-15","EGUY ","V020","200,1,N,0021,1","00450,1,C,N","011265,1,N,1","+0200,1","+0160,1","99999,9","02,5,+00300,1,99,9","04,5,+00450,1,99,9","07,5,+00750,1,99,9",,"07,99,1,99,9,99,9,99999,9,99,9,99,9","10108,1,99999,9",,,,,"MET069METAR EGUY 311020Z 20004KT 9999 FEW010 SCT015 BKN025 20/16 Q1011 WHT;",
"03566099999","2010-07-31T10:50:00","4","52.357167","-0.107833","41.14","WYTON, UK","FM-15","EGUY ","V020","150,1,N,0015,1","99999,9,C,N","011265,1,N,1","+0200,1","+0160,1","99999,9","02,5,+00300,1,99,9","04,5,+00450,1,99,9",,,"04,99,1,99,9,99,9,99999,9,99,9,99,9","10108,1,99999,9",,,,,"MET062METAR EGUY 311050Z 15003KT 9999 FEW010 SCT015 20/16 Q1011 WHT;","P01 004503SCOCIG"
"03566099999","2010-07-31T11:50:00","4","52.357167","-0.107833","41.14","WYTON, UK","FM-15","EGUY ","V020","250,1,N,0041,1","00600,1,C,N","011265,1,N,1","+0210,1","+0140,1","99999,9","02,5,+00450,1,99,9","04,5,+00600,1,99,9","07,5,+01500,1,99,9",,"07,99,1,99,9,99,9,99999,9,99,9,99,9","10108,1,99999,9",,,,,"MET069METAR EGUY 311150Z 25008KT 9999 FEW015 SCT020 BKN050 21/14 Q1011 WHT;",
"03566099999","2010-07-31T12:50:00","4","52.357167","-0.107833","41.14","WYTON, UK","FM-15","EGUY ","V020","260,1,N,0072,1","01500,1,C,N","011265,1,N,1","+0220,1","+0120,1","99999,9","02,5,+00600,1,99,9","07,5,+01500,1,99,9",,,"07,99,1,99,9,99,9,99999,9,99,9,99,9","10102,1,99999,9",,,,,"MET062METAR EGUY 311250Z 26014KT 9999 FEW020 BKN050 22/12 Q1010 BLU;",
"03566099999","2010-07-31T13:50:00","4","52.357167","-0.107833","41.14","WYTON, UK","FM-15","EGUY ","V020","270,1,N,0072,1","01200,1,C,N","011265,1,N,1","+0220,1","+0120,1","99999,9","02,5,+00750,1,99,9","07,5,+01200,1,99,9",,,"07,99,1,99,9,99,9,99999,9,99,9,99,9","10108,1,99999,9",,,,,"MET062METAR EGUY 311350Z 27014KT 9999 FEW025 BKN040 22/12 Q1011 BLU;",
"03566099999","2010-08-01T06:50:00","4","52.357167","-0.107833","41.14","WYTON, UK","FM-15","EGUY ","V020","230,1,N,0026,1","99999,9,9,Y","009900,1,N,1","+0150,1","+0130,1","99999,9",,,,,,"10119,1,99999,9",,,,,"MET049METAR EGUY 010650Z 23005KT CAVOK 15/13 Q1012 BLU;",
"03566099999","2010-08-01T07:50:00","4","52.357167","-0.107833","41.14","WYTON, UK","FM-15","EGUY ","V020","250,1,N,0036,1","01800,1,C,N","011265,1,N,1","+0160,1","+0140,1","99999,9","02,5,+01200,1,99,9","08,5,+01800,1,99,9",,,"08,99,1,99,9,99,9,99999,9,99,9,99,9","10119,1,99999,9",,,,,"MET062METAR EGUY 010750Z 25007KT 9999 FEW040 OVC060 16/14 Q1012 BLU;",
"03566099999","2010-08-01T08:50:00","4","52.357167","-0.107833","41.14","WYTON, UK","FM-15","EGUY ","V020","250,1,N,0026,1","01800,1,C,N","011265,1,N,1","+0170,1","+0130,1","99999,9","02,5,+00480,1,99,9","08,5,+01800,1,99,9",,,"08,99,1,99,9,99,9,99999,9,99,9,99,9","10119,1,99999,9",,,,,"MET062METAR EGUY 010850Z 25005KT 9999 FEW016 OVC060 17/13 Q1012 BLU;",
"03566099999","2010-08-01T09:50:00","4","52.357167","-0.107833","41.14","WYTON, UK","FM-15","EGUY ","V020","210,1,N,0010,1","02400,1,C,N","011265,1,N,1","+0180,1","+0130,1","99999,9","04,5,+00600,1,99,9","08,5,+02400,1,99,9",,,"08,99,1,99,9,99,9,99999,9,99,9,99,9","10129,1,99999,9",,,,,"MET062METAR EGUY 010950Z 21002KT 9999 SCT020 OVC080 18/13 Q1013 WHT;",
"03566099999","2010-08-01T10:50:00","4","52.357167","-0.107833","41.14","WYTON, UK","FM-15","EGUY ","V020","230,1,N,0036,1","00900,1,C,N","011265,1,N,1","+0190,1","+0120,1","99999,9","07,5,+00900,1,99,9","08,5,+02250,5,99,9",,,"08,99,1,99,9,99,9,99999,9,99,9,99,9","10129,1,99999,9",,,,,"MET062METAR EGUY 011050Z 23007KT 9999 BKN030 OVC075 19/12 Q1013 BLU;",
"03566099999","2010-08-01T11:50:00","4","52.357167","-0.107833","41.14","WYTON, UK","FM-15","EGUY ","V020","230,1,N,0026,1","02100,1,C,N","011265,1,N,1","+0190,1","+0120,1","99999,9","04,5,+00900,1,99,9","08,5,+02100,1,99,9",,,"08,99,1,99,9,99,9,99999,9,99,9,99,9","10129,1,99999,9",,,,,"MET062METAR EGUY 011150Z 23005KT 9999 SCT030 OVC070 19/12 Q1013 BLU;",
"03566099999","2010-08-01T13:50:00","4","52.357167","-0.107833","41.14","WYTON, UK","FM-15","EGUY ","V020","330,1,N,0026,1","02100,1,C,N","011265,1,N,1","+0210,1","+0120,1","99999,9","02,5,+01050,1,99,9","07,5,+02100,1,99,9",,,"07,99,1,99,9,99,9,99999,9,99,9,99,9","10129,1,99999,9",,,,,"MET062METAR EGUY 011350Z 33005KT 9999 FEW035 BKN070 21/12 Q1013 BLU;",
"03566099999","2010-08-01T14:50:00","4","52.357167","-0.107833","41.14","WYTON, UK","FM-15","EGUY ","V020","999,9,V,0010,1","02100,1,C,N","011265,1,N,1","+0210,1","+0100,1","99999,9","02,5,+01050,1,99,9","07,5,+02100,1,99,9",,,"07,99,1,99,9,99,9,99999,9,99,9,99,9","10129,1,99999,9",,,,,"MET062METAR EGUY 011450Z VRB02KT 9999 FEW035 BKN070 21/10 Q1013 BLU;",
"03566099999","2010-08-02T06:50:00","4","52.357167","-0.107833","41.14","WYTON, UK","FM-15","EGUY ","V020","300,1,N,0031,1","99999,9,9,Y","009900,1,N,1","+0140,1","+0120,1","99999,9",,,,,,"10169,1,99999,9",,,,,"MET049METAR EGUY 020650Z 30006KT CAVOK 14/12 Q1017 BLU;",
"03566099999","2010-08-02T07:50:00","4","52.357167","-0.107833","41.14","WYTON, UK","FM-15","EGUY ","V020","330,1,N,0051,1","02100,5,9,N","999999,9,N,1","+0160,1","+0120,1","99999,9","02,5,+00750,5,99,9","04,5,+02100,5,99,9",,,,"10170,1,99999,9",,,,,"MET057METAR EGUY 020750Z 33010KT FEW025 SCT070 16/12 Q1017 BLU;",
"03566099999","2010-08-02T08:50:00","4","52.357167","-0.107833","41.14","WYTON, UK","FM-15","EGUY ","V020","330,1,N,0041,1","00540,5,9,N","999999,9,N,1","+0170,1","+0130,1","99999,9","07,5,+00540,5,99,9",,,,,"10170,1,99999,9",,,,,"MET050METAR EGUY 020850Z 33008KT BKN018 17/13 Q1017 WHT;",
"03566099999","2010-08-02T09:50:00","4","52.357167","-0.107833","41.14","WYTON, UK","FM-15","EGUY ","V020","330,1,N,0041,1","00810,5,9,N","999999,9,N,1","+0170,1","+0120,1","99999,9","02,5,+00600,5,99,9","07,5,+00810,5,99,9",,,,"10170,1,99999,9",,,,,"MET057METAR EGUY 020950Z 33008KT FEW020 BKN027 17/12 Q1017 BLU;",
"03566099999","2010-08-02T11:50:00","4","52.357167","-0.107833","41.14","WYTON, UK","FM-15","EGUY ","V020","330,1,N,0051,1","01050,5,9,N","999999,9,N,1","+0190,1","+0120,1","99999,9","02,5,+00750,5,02,5","07,5,+01050,5,99,9",,,,"10170,1,99999,9",,,,,"MET060METAR EGUY 021150Z 33010KT FEW025TCU BKN035 19/12 Q1017 BLU;",
"03566099999","2010-08-02T12:50:00","4","52.357167","-0.107833","41.14","WYTON, UK","FM-15","EGUY ","V020","290,1,N,0051,1","00960,1,C,N","011265,1,N,1","+0200,1","+0120,1","99999,9","02,5,+00750,1,02,1","07,5,+00960,1,99,9",,,"07,99,1,99,9,99,9,99999,9,99,9,99,9","10169,1,99999,9",,,,,"MET065METAR EGUY 021250Z 29010KT 9999 FEW025TCU BKN032 20/12 Q1017 BLU;",
"03566099999","2010-08-02T13:50:00","4","52.357167","-0.107833","41.14","WYTON, UK","FM-15","EGUY ","V020","040,1,N,0051,1","00900,1,C,N","011265,1,N,1","+0170,1","+0130,1","99999,9","02,5,+00480,1,99,9","07,5,+00900,1,99,9",,,"07,99,1,99,9,99,9,99999,9,99,9,99,9","10169,1,99999,9",,,,,"MET062METAR EGUY 021350Z 04010KT 9999 FEW016 BKN030 17/13 Q1017 BLU;",
"03566099999","2010-08-02T14:50:00","4","52.357167","-0.107833","41.14","WYTON, UK","FM-15","EGUY ","V020","070,1,N,0041,1","01200,1,C,N","011265,1,N,1","+0180,1","+0120,1","99999,9","02,5,+00600,1,09,1","02,5,+00720,1,99,9","07,5,+01200,1,99,9",,"07,99,1,99,9,99,9,99999,9,99,9,99,9","10169,1,99999,9","16,1",,,,"MET076METAR EGUY 021450Z 07008KT 9999 VCSH FEW020CB FEW024 BKN040 18/12 Q1017 BLU;",
"03566099999","2010-08-02T15:50:00","4","52.357167","-0.107833","41.14","WYTON, UK","FM-15","EGUY ","V020","070,1,N,0041,1","00750,1,C,N","011265,1,N,1","+0180,1","+0140,1","99999,9","02,5,+00600,1,09,1","04,5,+00750,1,99,9","07,5,+02400,1,99,9",,"07,99,1,99,9,99,9,99999,9,99,9,99,9","10169,1,99999,9","16,1",,,,"MET076METAR EGUY 021550Z 07008KT 9999 VCSH FEW020CB SCT025 BKN080 18/14 Q1017 BLU;",
"03566099999","2010-08-03T06:50:00","4","52.357167","-0.107833","41.14","WYTON, UK","FM-15","EGUY ","V020","300,1,N,0031,1","99999,9,C,N","011265,1,N,1","+0140,1","+0110,1","99999,9","02,5,+01500,1,99,9","04,5,+07500,1,99,9",,,"04,99,1,99,9,99,9,99999,9,99,9,99,9","10169,1,99999,9",,,,,"MET062METAR EGUY 030650Z 30006KT 9999 FEW050 SCT250 14/11 Q1017 BLU;","P01 075003SCOCIG"
"03566099999","2010-08-03T07:50:00","4","52.357167","-0.107833","41.14","WYTON, UK","FM-15","EGUY ","V020","290,1,N,0021,1","99999,9,9,Y","009900,1,N,1","+0160,1","+0100,1","99999,9",,,,,,"10169,1,99999,9",,,,,"MET049METAR EGUY 030750Z 29004KT CAVOK 16/10 Q1017 BLU;",
"03566099999","2010-08-03T08:50:00","4","52.357167","-0.107833","41.14","WYTON, UK","FM-15","EGUY ","V020","270,1,N,0046,1","99999,9,C,N","011265,1,N,1","+0170,1","+0100,1","99999,9","02,5,+00900,1,99,9","04,5,+03000,1,99,9",,,"04,99,1,99,9,99,9,99999,9,99,9,99,9","10159,1,99999,9",,,,,"MET062METAR EGUY 030850Z 27009KT 9999 FEW030 SCT100 17/10 Q1016 BLU;","P01 030003SCOCIG"
"03566099999","2010-08-03T09:50:00","4","52.357167","-0.107833","41.14","WYTON, UK","FM-15","EGUY ","V020","280,1,N,0036,1","03000,1,C,N","011265,1,N,1","+0180,1","+0100,1","99999,9","02,5,+00960,1,99,9","07,5,+03000,1,99,9",,,"07,99,1,99,9,99,9,99999,9,99,9,99,9","10159,1,99999,9",,,,,"MET062METAR EGUY 030950Z 28007KT 9999 FEW032 BKN100 18/10 Q1016 BLU;",
"03566099999","2010-08-03T10:50:00","4","52.357167","-0.107833","41.14","WYTON, UK","FM-15","EGUY ","V020","220,1,N,0026,1","03000,1,C,N","011265,1,N,1","+0190,1","+0100,1","99999,9","02,5,+01080,1,99,9","07,5,+03000,1,99,9",,,"07,99,1,99,9,99,9,99999,9,99,9,99,9","10159,1,99999,9",,,,,"MET062METAR EGUY 031050Z 22005KT 9999 FEW036 BKN100 19/10 Q1016 BLU;",
"03566099999","2010-08-03T11:50:00","4","52.357167","-0.107833","41.14","WYTON, UK","FM-15","EGUY ","V020","280,1,N,0051,1","03000,1,C,N","011265,1,N,1","+0190,1","+0100,1","99999,9","02,5,+01080,1,99,9","07,5,+03000,1,99,9",,,"07,99,1,99,9,99,9,99999,9,99,9,99,9","10159,1,99999,9",,,,,"MET058METAR EGUY 031150Z 28010KT 9999 FEW036 BKN100 19/10 Q1016;",
"03566099999","2010-08-03T12:50:00","4","52.357167","-0.107833","41.14","WYTON, UK","FM-15","EGUY ","V020","230,1,N,0041,1","03000,1,C,N","011265,1,N,1","+0200,1","+0110,1","99999,9","02,5,+01260,1,99,9","07,5,+03000,1,99,9",,,"07,99,1,99,9,99,9,99999,9,99,9,99,9","10149,1,99999,9",,,,,"MET062METAR EGUY 031250Z 23008KT 9999 FEW042 BKN100 20/11 Q1015 BLU;",
"03566099999","2010-08-03T14:50:00","4","52.357167","-0.107833","41.14","WYTON, UK","FM-15","EGUY ","V020","240,1,N,0046,1","01260,1,C,N","011265,1,N,1","+0210,1","+0110,1","99999,9","07,5,+01260,1,99,9",,,,"07,99,1,99,9,99,9,99999,9,99,9,99,9","10139,1,99999,9",,,,,"MET055METAR EGUY 031450Z 24009KT 9999 BKN042 21/11 Q1014 BLU;",
"03566099999","2010-08-03T15:50:00","4","52.357167","-0.107833","41.14","WYTON, UK","FM-15","EGUY ","V020","260,1,N,0041,1","07500,1,C,N","011265,1,N,1","+0220,1","+0110,1","99999,9","02,5,+01320,1,99,9","07,5,+07500,1,99,9",,,"07,99,1,99,9,99,9,99999,9,99,9,99,9","10139,1,99999,9",,,,,"MET062METAR EGUY 031550Z 26008KT 9999 FEW044 BKN250 22/11 Q1014 BLU;",
"03566099999","2010-08-04T06:50:00","4","52.357167","-0.107833","41.14","WYTON, UK","FM-15","EGUY ","V020","260,1,N,0041,1","00900,1,C,N","011265,1,N,1","+0140,1","+0130,1","99999,9","04,5,+00150,1,99,9","07,5,+00900,1,99,9","07,5,+02700,1,99,9",,"07,99,1,99,9,99,9,99999,9,99,9,99,9","10071,1,99999,9","61,1",,,,"MET074METAR EGUY 040650Z 26008KT 9999 -RA SCT005 BKN030 BKN090 14/13 Q1007 YLO1;",
"03566099999","2010-08-04T07:20:00","4","52.357167","-0.107833","41.14","WYTON, UK","FM-15","EGUY ","V020","240,1,N,0041,1","00900,1,C,N","011265,1,N,1","+0140,1","+0130,1","99999,9","02,5,+00150,1,99,9","04,5,+00900,1,99,9","07,5,+02700,1,99,9",,"07,99,1,99,9,99,9,99999,9,99,9,99,9","10071,1,99999,9","61,1",,,,"MET073METAR EGUY 040720Z 24008KT 9999 -RA FEW005 SCT030 BKN090 14/13 Q1007 BLU;",
"03566099999","2010-08-04T07:50:00","4","52.357167","-0.107833","41.14","WYTON, UK","FM-15","EGUY ","V020","240,1,N,0051,1","99999,9,C,N","011265,1,N,1","+0140,1","+0130,1","99999,9","04,5,+00270,1,99,9","04,5,+00900,1,99,9",,,"04,99,1,99,9,99,9,99999,9,99,9,99,9","10071,1,99999,9","80,1",,,,"MET068METAR EGUY 040750Z 24010KT 9999 -SHRA SCT009 SCT030 14/13 Q1007 GRN;","P01 009003SCOCIG"
"03566099999","2010-08-04T08:50:00","4","52.357167","-0.107833","41.14","WYTON, UK","FM-15","EGUY ","V020","250,1,N,0067,1","00360,1,C,N","011265,1,N,1","+0150,1","+0120,1","99999,9","07,5,+00360,1,99,9",,,,"07,99,1,99,9,99,9,99999,9,99,9,99,9","10061,1,99999,9",,,,,"MET055METAR EGUY 040850Z 25013KT 9999 BKN012 15/12 Q1006 GRN;",
"03566099999","2010-08-04T09:25:00","4","52.357167","-0.107833","41.14","WYTON, UK","FM-15","EGUY ","V020","260,1,N,0051,1","00900,1,C,N","011265,1,N,1","+0140,1","+0120,1","99999,9","02,5,+00270,1,99,9","08,5,+00900,1,99,9",,,"08,99,1,99,9,99,9,99999,9,99,9,99,9","10061,1,99999,9",,,,,"MET062METAR EGUY 040925Z 26010KT 9999 FEW009 OVC030 14/12 Q1006 BLU;",
"03566099999","2010-08-04T09:50:00","4","52.357167","-0.107833","41.14","WYTON, UK","FM-15","EGUY ","V020","260,1,N,0051,1","00750,1,C,N","011265,1,N,1","+0150,1","+0120,1","99999,9","02,5,+00330,1,99,9","07,5,+00750,1,99,9","08,5,+01500,1,99,9",,"08,99,1,99,9,99,9,99999,9,99,9,99,9","10061,1,99999,9","80,1",,,,"MET081METAR EGUY 040950Z 26010KT 9999 6000W -SHRA FEW011 BKN025 OVC050 15/12 Q1006 WHT;",
"03566099999","2010-08-04T10:50:00","4","52.357167","-0.107833","41.14","WYTON, UK","FM-15","EGUY ","V020","280,1,N,0026,1","00330,1,C,N","011265,1,N,1","+0140,1","+0130,1","99999,9","02,5,+00150,1,99,9","04,5,+00330,1,99,9","07,5,+00900,1,99,9",,"07,99,1,99,9,99,9,99999,9,99,9,99,9","10061,1,99999,9","80,1",,,,"MET081METAR EGUY 041050Z 28005KT 9999 7000E -SHRA FEW005 SCT011 BKN030 14/13 Q1006 GRN;",
"03566099999","2010-08-04T11:15:00","4","52.357167","-0.107833","41.14","WYTON, UK","FM-15","EGUY ","V020","320,1,N,0036,1","00360,1,C,N","006000,1,N,1","+0140,1","+0130,1","99999,9","04,5,+00150,1,99,9","07,5,+00360,1,99,9",,,"07,99,1,99,9,99,9,99999,9,99,9,99,9","10061,1,99999,9","63,1",,,,"MET083METAR EGUY 041115Z 32007KT 6000 RA SCT005 BKN012 14/13 Q1006 YLO1 LIGHTENING TO SW;",
"03566099999","2010-08-04T11:50:00","4","52.357167","-0.107833","41.14","WYTON, UK","FM-15","EGUY ","V020","330,1,N,0031,1","00600,1,C,N","011265,1,N,1","+0150,1","+0130,1","99999,9","04,5,+00240,1,99,9","07,5,+00600,1,99,9","08,5,+01410,1,99,9",,"08,99,1,99,9,99,9,99999,9,99,9,99,9","10061,1,99999,9",,,,,"MET069METAR EGUY 041150Z 33006KT 9999 SCT008 BKN020 OVC047 15/13 Q1006 GRN;",
"03566099999","2010-08-04T12:50:00","4","52.357167","-0.107833","41.14","WYTON, UK","FM-15","EGUY ","V020","020,1,N,0026,1","00480,1,C,N","011265,1,N,1","+0160,1","+0120,1","99999,9","02,5,+00300,1,99,9","07,5,+00480,1,99,9",,,"07,99,1,99,9,99,9,99999,9,99,9,99,9","10061,1,99999,9",,,,,"MET062METAR EGUY 041250Z 02005KT 9999 FEW010 BKN016 16/12 Q1006 WHT;",
"03566099999","2010-08-04T13:50:00","4","52.357167","-0.107833","41.14","WYTON, UK","FM-15","EGUY ","V020","360,1,N,0031,1","01500,1,C,N","011265,1,N,1","+0160,1","+0110,1","99999,9","04,5,+00600,1,99,9","07,5,+01500,1,99,9","08,5,+03000,1,99,9",,"08,99,1,99,9,99,9,99999,9,99,9,99,9","10061,1,99999,9",,,,,"MET069METAR EGUY 041350Z 36006KT 9999 SCT020 BKN050 OVC100 16/11 Q1006 WHT;",
"03566099999","2010-08-04T14:50:00","4","52.357167","-0.107833","41.14","WYTON, UK","FM-15","EGUY ","V020","350,1,N,0021,1","02100,1,C,N","011265,1,N,1","+0170,1","+0110,1","99999,9","04,5,+00750,1,99,9","07,5,+02100,1,99,9",,,"07,99,1,99,9,99,9,99999,9,99,9,99,9","10061,1,99999,9",,,,,"MET062METAR EGUY 041450Z 35004KT 9999 SCT025 BKN070 17/11 Q1006 BLU;",
"03566099999","2010-08-04T15:50:00","4","52.357167","-0.107833","41.14","WYTON, UK","FM-15","EGUY ","V020","330,1,N,0062,1","01200,1,C,N","011265,1,N,1","+0150,1","+0110,1","99999,9","02,5,+00480,1,99,9","07,5,+01200,1,99,9",,,"07,99,1,99,9,99,9,99999,9,99,9,99,9","10061,1,99999,9","80,1",,,"0113,1","MET071METAR EGUY 041550Z 33012G22KT 9999 -SHRA FEW016 BKN040 15/11 Q1006 BLU;",
"03566099999","2010-08-05T06:50:00","4","52.357167","-0.107833","41.14","WYTON, UK","FM-15","EGUY ","V020","270,1,N,0041,1","99999,9,9,Y","009900,1,N,1","+0130,1","+0110,1","99999,9",,,,,,"10108,1,99999,9",,,,,"MET049METAR EGUY 050650Z 27008KT CAVOK 13/11 Q1011 BLU;",
"03566099999","2010-08-05T07:50:00","4","52.357167","-0.107833","41.14","WYTON, UK","FM-15","EGUY ","V020","280,1,N,0051,1","99999,9,C,N","011265,1,N,1","+0150,1","+0110,1","99999,9","02,5,+00480,1,99,9","04,5,+01800,1,99,9",,,"04,99,1,99,9,99,9,99999,9,99,9,99,9","10108,1,99999,9",,,,,"MET062METAR EGUY 050750Z 28010KT 9999 FEW016 SCT060 15/11 Q1011 BLU;","P01 018003SCOCIG"
"03566099999","2010-08-05T08:50:00","4","52.357167","-0.107833","41.14","WYTON, UK","FM-15","EGUY ","V020","290,1,N,0057,1","01050,1,C,N","011265,1,N,1","+0170,1","+0080,1","99999,9","02,5,+00600,1,99,9","04,5,+01050,1,99,9","07,5,+01800,1,99,9",,"07,99,1,99,9,99,9,99999,9,99,9,99,9","99999,9,99999,9",,,,"0108,1","MET068METAR EGUY 050850Z 29011G21KT 9999 FEW020 SCT035 BKN060 17/08 Q1005;","Q01+100513APOA  Q02 100503APOA  "
"03566099999","2010-08-05T09:50:00","4","52.357167","-0.107833","41.14","WYTON, UK","FM-15","EGUY ","V020","300,1,N,0062,1","00960,1,C,N","011265,1,N,1","+0170,1","+0090,1","99999,9","02,5,+00810,1,99,9","04,5,+00960,1,99,9","07,5,+02100,1,99,9",,"07,99,1,99,9,99,9,99999,9,99,9,99,9","10108,1,99999,9",,,,,"MET069METAR EGUY 050950Z 30012KT 9999 FEW027 SCT032 BKN070 17/09 Q1011 BLU;",
"03566099999","2010-08-05T10:50:00","4","52.357167","-0.107833","41.14","WYTON, UK","FM-15","EGUY ","V020","300,1,N,0072,1","02100,1,C,N","011265,1,N,1","+0170,1","+0060,1","99999,9","04,5,+01050,1,99,9","07,5,+02100,1,99,9",,,"07,99,1,99,9,99,9,99999,9,99,9,99,9","10119,1,99999,9",,,,,"MET062METAR EGUY 051050Z 30014KT 9999 SCT035 BKN070 17/06 Q1012 BLU;",
"03566099999","2010-08-05T11:50:00","4","52.357167","-0.107833","41.14","WYTON, UK","FM-15","EGUY ","V020","310,1,N,0062,1","02100,1,C,N","011265,1,N,1","+0180,1","+0070,1","99999,9","04,5,+01260,1,99,9","07,5,+02100,1,99,9",,,"07,99,1,99,9,99,9,99999,9,99,9,99,9","10108,1,99999,9",,,,,"MET062METAR EGUY 051150Z 31012KT 9999 SCT042 BKN070 18/07 Q1011 BLU;",
"03566099999","2010-08-05T12:50:00","4","52.357167","-0.107833","41.14","WYTON, UK","FM-15","EGUY ","V020","270,1,N,0062,1","02400,1,C,N","011265,1,N,1","+0190,1","+0060,1","99999,9","04,5,+01350,1,99,9","07,5,+02400,1,99,9",,,"07,99,1,99,9,99,9,99999,9,99,9,99,9","10119,1,99999,9",,,,,"MET062METAR EGUY 051250Z 27012KT 9999 SCT045 BKN080 19/06 Q1012 BLU;",
"03566099999","2010-08-05T13:50:00","4","52.357167","-0.107833","41.14","WYTON, UK","FM-15","EGUY ","V020","320,1,N,0051,1","02400,1,C,N","011265,1,N,1","+0190,1","+0060,1","99999,9","04,5,+01350,1,99,9","07,5,+02400,1,99,9",,,"07,99,1,99,9,99,9,99999,9,99,9,99,9","10119,1,99999,9",,,,,"MET062METAR EGUY 051350Z 32010KT 9999 SCT045 BKN080 19/06 Q1012 BLU;",
"03566099999","2010-08-05T14:50:00","4","52.357167","-0.107833","41.14","WYTON, UK","FM-15","EGUY ","V020","280,1,N,0093,1","99999,9,9,Y","009900,1,N,1","+0200,1","+0070,1","99999,9",,,,,,"10119,1,99999,9",,,,,"MET049METAR EGUY 051450Z 28018KT CAVOK 20/07 Q1012 BLU;",
"03566099999","2010-08-06T06:50:00","4","52.357167","-0.107833","41.14","WYTON, UK","FM-15","EGUY ","V020","200,1,N,0036,1","99999,9,9,Y","009900,1,N,1","+0130,1","+0110,1","99999,9",,,,,,"10149,1,99999,9",,,,,"MET049METAR EGUY 060650Z 20007KT CAVOK 13/11 Q1015 BLU;",
"03566099999","2010-08-06T07:50:00","4","52.357167","-0.107833","41.14","WYTON, UK","FM-15","EGUY ","V020","200,1,N,0062,1","99999,9,9,Y","009900,1,N,1","+0170,1","+0100,1","99999,9",,,,,,"10149,1,99999,9",,,,,"MET049METAR EGUY 060750Z 20012KT CAVOK 17/10 Q1015 BLU;",
"03566099999","2010-08-06T08:50:00","4","52.357167","-0.107833","41.14","WYTON, UK","FM-15","EGUY ","V020","200,1,N,0082,1","06000,1,C,N","011265,1,N,1","+0190,1","+0090,1","99999,9","02,5,+00750,1,99,9","07,5,+06000,1,99,9",,,"07,99,1,99,9,99,9,99999,9,99,9,99,9","10149,1,99999,9",,,,,"MET062METAR EGUY 060850Z 20016KT 9999 FEW025 BKN200 19/09 Q1015 BLU;",
"03566099999","2010-08-06T09:50:00","4","52.357167","-0.107833","41.14","WYTON, UK","FM-15","EGUY ","V020","200,1,N,0077,1","02700,1,C,N","011265,1,N,1","+0190,1","+0100,1","99999,9","02,5,+00750,1,99,9","04,5,+02700,1,99,9","07,5,+06000,1,99,9",,"07,99,1,99,9,99,9,99999,9,99,9,99,9","10139,1,99999,9",,,,,"MET069METAR EGUY 060950Z 20015KT 9999 FEW025 SCT090 BKN200 19/10 Q1014 BLU;",
"03566099999","2010-08-06T10:50:00","4","52.357167","-0.107833","41.14","WYTON, UK","FM-15","EGUY ","V020","200,1,N,0082,1","03000,1,C,N","011265,1,N,1","+0190,1","+0100,1","99999,9","02,5,+01050,1,99,9","04,5,+03000,1,99,9","07,5,+07500,1,99,9",,"07,99,1,99,9,99,9,99999,9,99,9,99,9","10139,1,99999,9",,,,,"MET069METAR EGUY 061050Z 20016KT 9999 FEW035 SCT100 BKN250 19/10 Q1014 BLU;",
"03566099999","2010-08-06T11:50:00","4","52.357167","-0.107833","41.14","WYTON, UK","FM-15","EGUY ","V020","190,1,N,0062,1","03000,1,C,N","011265,1,N,1","+0190,1","+0100,1","99999,9","02,5,+01200,1,99,9","04,5,+03000,1,99,9","07,5,+07500,1,99,9",,"07,99,1,99,9,99,9,99999,9,99,9,99,9","10139,1,99999,9",,,,,"MET069METAR EGUY 061150Z 19012KT 9999 FEW040 SCT100 BKN250 19/10 Q1014 BLU;",
"03566099999","2010-08-06T12:50:00","4","52.357167","-0.107833","41.14","WYTON, UK","FM-15","EGUY ","V020","180,1,N,0057,1","02400,1,C,N","011265,1,N,1","+0220,1","+0120,1","99999,9","02,5,+01200,1,99,9","04,5,+02400,1,99,9","07,5,+07500,1,99,9",,"07,99,1,99,9,99,9,99999,9,99,9,99,9","10129,1,99999,9",,,,"0108,1","MET072METAR EGUY 061250Z 18011G21KT 9999 FEW040 SCT080 BKN250 22/12 Q1013 BLU;",
"03566099999","2010-08-06T13:50:00","4","52.357167","-0.107833","41.14","WYTON, UK","FM-15","EGUY ","V020","210,1,N,0072,1","01050,1,C,N","011265,1,N,1","+0200,1","+0130,1","99999,9","02,5,+00750,1,99,9","04,5,+01050,1,99,9","07,5,+02400,1,99,9",,"07,99,1,99,9,99,9,99999,9,99,9,99,9","10129,1,99999,9","80,1",,,"0123,1","MET078METAR EGUY 061350Z 21014G24KT 9999 -SHRA FEW025 SCT035 BKN080 20/13 Q1013 BLU;",
"03566099999","2010-08-06T14:50:00","4","52.357167","-0.107833","41.14","WYTON, UK","FM-15","EGUY ","V020","200,1,N,0067,1","00690,1,C,N","011265,1,N,1","+0190,1","+0140,1","99999,9","07,5,+00690,1,99,9",,,,"07,99,1,99,9,99,9,99999,9,99,9,99,9","10129,1,99999,9",,,,"0118,1","MET058METAR EGUY 061450Z 20013G23KT 9999 BKN023 19/14 Q1013 WHT;",
"03566099999","2010-08-07T07:50:00","4","52.357167","-0.107833","41.14","WYTON, UK","FM-15","EGUY ","V020","220,1,N,0051,1","01200,1,C,N","011265,1,N,1","+0170,1","+0150,1","99999,9","02,5,+00150,1,99,9","07,5,+01200,1,99,9",,,"07,99,1,99,9,99,9,99999,9,99,9,99,9","10129,1,99999,9",,,,,"MET062METAR EGUY 070750Z 22010KT 9999 FEW005 BKN040 17/15 Q1013 BLU;",
"03566099999","2010-08-07T08:50:00","4","52.357167","-0.107833","41.14","WYTON, UK","FM-15","EGUY ","V020","220,1,N,0051,1","01200,1,C,N","011265,1,N,1","+0170,1","+0140,1","99999,9","04,5,+00360,1,99,9","07,5,+01200,1,99,9",,,"07,99,1,99,9,99,9,99999,9,99,9,99,9","10129,1,99999,9",,,,,"MET062METAR EGUY 070850Z 22010KT 9999 SCT012 BKN040 17/14 Q1013 GRN;",
"03566099999","2010-08-07T09:50:00","4","52.357167","-0.107833","41.14","WYTON, UK","FM-15","EGUY ","V020","230,1,N,0051,1","00600,1,C,N","011265,1,N,1","+0190,1","+0140,1","99999,9","02,5,+00450,1,99,9","04,5,+00600,1,99,9","07,5,+01200,1,99,9",,"07,99,1,99,9,99,9,99999,9,99,9,99,9","10129,1,99999,9",,,,,"MET069METAR EGUY 070950Z 23010KT 9999 FEW015 SCT020 BKN040 19/14 Q1013 WHT;",
"03566099999","2010-08-07T10:50:00","4","52.357167","-0.107833","41.14","WYTON, UK","FM-15","EGUY ","V020","230,1,N,0062,1","00810,1,C,N","011265,1,N,1","+0210,1","+0130,1","99999,9","02,5,+00600,1,99,9","04,5,+00810,1,99,9","07,5,+01500,1,99,9",,"07,99,1,99,9,99,9,99999,9,99,9,99,9","10129,1,99999,9",,,,,"MET069METAR EGUY 071050Z 23012KT 9999 FEW020 SCT027 BKN050 21/13 Q1013 BLU;",
"03566099999","2010-08-07T11:50:00","4","52.357167","-0.107833","41.14","WYTON, UK","FM-15","EGUY ","V020","230,1,N,0041,1","02100,1,C,N","011265,1,N,1","+0200,1","+0130,1","99999,9","04,5,+00900,1,99,9","07,5,+02100,1,99,9",,,"07,99,1,99,9,99,9,99999,9,99,9,99,9","10129,1,99999,9",,,,,"MET062METAR EGUY 071150Z 23008KT 9999 SCT030 BKN070 20/13 Q1013 BLU;",
"03566099999","2010-08-07T12:50:00","4","52.357167","-0.107833","41.14","WYTON, UK","FM-15","EGUY ","V020","250,1,N,0057,1","02100,1,C,N","011265,1,N,1","+0190,1","+0140,1","99999,9","04,5,+00810,1,99,9","07,5,+02100,1,99,9",,,"07,99,1,99,9,99,9,99999,9,99,9,99,9","10139,1,99999,9","81,1",,,,"MET067METAR EGUY 071250Z 25011KT 9999 SHRA SCT027 BKN070 19/14 Q1014 BLU;",
"03566099999","2010-08-07T13:50:00","4","52.357167","-0.107833","41.14","WYTON, UK","FM-15","EGUY ","V020","230,1,N,0031,1","02100,1,C,N","011265,1,N,1","+0180,1","+0160,1","99999,9","04,5,+00750,1,99,9","07,5,+02100,1,99,9",,,"07,99,1,99,9,99,9,99999,9,99,9,99,9","10139,1,99999,9","80,1",,,,"MET068METAR EGUY 071350Z 23006KT 9999 -SHRA SCT025 BKN070 18/16 Q1014 BLU;",
"03566099999","2010-08-07T14:50:00","4","52.357167","-0.107833","41.14","WYTON, UK","FM-15","EGUY ","V020","240,1,N,0036,1","02400,1,C,N","011265,1,N,1","+0180,1","+0160,1","99999,9","04,5,+00750,1,99,9","07,5,+02400,1,99,9",,,"07,99,1,99,9,99,9,99999,9,99,9,99,9","10139,1,99999,9",,,,,"MET062METAR EGUY 071450Z 24007KT 9999 SCT025 BKN080 18/16 Q1014 BLU;",
"03566099999","2010-08-08T07:50:00","4","52.357167","-0.107833","41.14","WYTON, UK","FM-15","EGUY ","V020","340,1,N,0046,1","22000,1,9,N","011265,1,N,1","+0150,1","+0120,1","99999,9","04,5,+00360,1,99,9",,,,"04,99,1,99,9,99,9,99999,9,99,9,99,9","10210,1,99999,9",,,,,"MET055METAR EGUY 080750Z 34009KT 9999 SCT012 15/12 Q1021 GRN;",
"03566099999","2010-08-08T08:50:00","4","52.357167","-0.107833","41.14","WYTON, UK","FM-15","EGUY ","V020","340,1,N,0046,1","00450,1,C,N","011265,1,N,1","+0160,1","+0120,1","99999,9","07,5,+00450,1,99,9",,,,"07,99,1,99,9,99,9,99999,9,99,9,99,9","10210,1,99999,9",,,,,"MET055METAR EGUY 080850Z 34009KT 9999 BKN015 16/12 Q1021 WHT;",
"03566099999","2010-08-08T09:50:00","4","52.357167","-0.107833","41.14","WYTON, UK","FM-15","EGUY ","V020","330,1,N,0036,1","22000,1,9,N","011265,1,N,1","+0160,1","+0120,1","99999,9","04,5,+00660,1,99,9",,,,"04,99,1,99,9,99,9,99999,9,99,9,99,9","10210,1,99999,9",,,,,"MET055METAR EGUY 080950Z 33007KT 9999 SCT022 16/12 Q1021 WHT;",
"03566099999","2010-08-08T10:50:00","4","52.357167","-0.107833","41.14","WYTON, UK","FM-15","EGUY ","V020","350,1,N,0041,1","22000,1,9,N","011265,1,N,1","+0190,1","+0110,1","99999,9","04,5,+00900,1,99,9",,,,"04,99,1,99,9,99,9,99999,9,99,9,99,9","10210,1,99999,9",,,,,"MET055METAR EGUY 081050Z 35008KT 9999 SCT030 19/11 Q1021 BLU;",
"03566099999","2010-08-08T11:50:00","4","52.357167","-0.107833","41.14","WYTON, UK","FM-15","EGUY ","V020","999,9,V,0026,1","01200,1,C,N","011265,1,N,1","+0210,1","+0100,1","99999,9","07,5,+01200,1,99,9",,,,"07,99,1,99,9,99,9,99999,9,99,9,99,9","10200,1,99999,9",,,,,"MET055METAR EGUY 081150Z VRB05KT 9999 BKN040 21/10 Q1020 BLU;",
"03566099999","2010-08-08T12:50:00","4","52.357167","-0.107833","41.14","WYTON, UK","FM-15","EGUY ","V020","340,1,N,0031,1","01200,1,C,N","011265,1,N,1","+0220,1","+0100,1","99999,9","07,5,+01200,1,99,9",,,,"07,99,1,99,9,99,9,99999,9,99,9,99,9","10200,1,99999,9",,,,,"MET055METAR EGUY 081250Z 34006KT 9999 BKN040 22/10 Q1020 BLU;",
"03566099999","2010-08-08T13:50:00","4","52.357167","-0.107833","41.14","WYTON, UK","FM-15","EGUY ","V020","030,1,N,0046,1","01200,1,C,N","011265,1,N,1","+0210,1","+0100,1","99999,9","07,5,+01200,1,99,9",,,,"07,99,1,99,9,99,9,99999,9,99,9,99,9","10200,1,99999,9",,,,,"MET055METAR EGUY 081350Z 03009KT 9999 BKN040 21/10 Q1020 BLU;",
"03566099999","2010-08-08T14:50:00","4","52.357167","-0.107833","41.14","WYTON, UK","FM-15","EGUY ","V020","080,1,N,0031,1","02700,1,C,N","011265,1,N,1","+0210,1","+0110,1","99999,9","04,5,+01200,1,99,9","07,5,+02700,1,99,9",,,"07,99,1,99,9,99,9,99999,9,99,9,99,9","10200,1,99999,9",,,,,"MET062METAR EGUY 081450Z 08006KT 9999 SCT040 BKN090 21/11 Q1020 BLU;",
"03566099999","2010-08-09T06:50:00","4","52.357167","-0.107833","41.14","WYTON, UK","FM-15","EGUY ","V020","230,1,N,0036,1","99999,9,9,Y","009900,1,N,1","+0140,1","+0120,1","99999,9",,,,,,"10159,1,99999,9",,,,,"MET049METAR EGUY 090650Z 23007KT CAVOK 14/12 Q1016 BLU;",
"03566099999","2010-08-09T07:50:00","4","52.357167","-0.107833","41.14","WYTON, UK","FM-15","EGUY ","V020","210,1,N,0036,1","99999,9,9,Y","009900,1,N,1","+0160,1","+0120,1","99999,9",,,,,,"10159,1,99999,9",,,,,"MET049METAR EGUY 090750Z 21007KT CAVOK 16/12 Q1016 BLU;",
"03566099999","2010-08-09T08:50:00","4","52.357167","-0.107833","41.14","WYTON, UK","FM-15","EGUY ","V020","220,1,N,0057,1","99999,9,9,Y","009900,1,N,1","+0180,1","+0120,1","99999,9",,,,,,"10159,1,99999,9",,,,,"MET049METAR EGUY 090850Z 22011KT CAVOK 18/12 Q1016 BLU;",
"03566099999","2010-08-09T09:50:00","4","52.357167","-0.107833","41.14","WYTON, UK","FM-15","EGUY ","V020","220,1,N,0057,1","99999,9,9,Y","009900,1,N,1","+0190,1","+0100,1","99999,9",,,,,,"10149,1,99999,9",,,,,"MET049METAR EGUY 090950Z 22011KT CAVOK 19/10 Q1015 BLU;",
"03566099999","2010-08-09T10:50:00","4","52.357167","-0.107833","41.14","WYTON, UK","FM-15","EGUY ","V020","220,1,N,0072,1","22000,1,9,N","011265,1,N,1","+0210,1","+0090,1","99999,9","02,5,+01050,1,99,9",,,,"02,99,1,99,9,99,9,99999,9,99,9,99,9","10149,1,99999,9",,,,,"MET055METAR EGUY 091050Z 22014KT 9999 FEW035 21/09 Q1015 BLU;",
"03566099999","2010-08-09T11:50:00","4","52.357167","-0.107833","41.14","WYTON, UK","FM-15","EGUY ","V020","210,1,N,0072,1","99999,9,9,Y","009900,1,N,1","+0220,1","+0080,1","99999,9",,,,,,"10139,1,99999,9",,,,,"MET049METAR EGUY 091150Z 21014KT CAVOK 22/08 Q1014 BLU;",
"03566099999","2010-08-09T13:50:00","4","52.357167","-0.107833","41.14","WYTON, UK","FM-15","EGUY ","V020","220,1,N,0072,1","22000,1,9,N","011265,1,N,1","+0240,1","+0080,1","99999,9","02,5,+01350,1,99,9",,,,"02,99,1,99,9,99,9,99999,9,99,9,99,9","10129,1,99999,9",,,,,"MET055METAR EGUY 091350Z 22014KT 9999 FEW045 24/08 Q1013 BLU;",
"03566099999","2010-08-09T14:50:00","4","52.357167","-0.107833","41.14","WYTON, UK","FM-15","EGUY ","V020","230,1,N,0077,1","99999,9,9,Y","009900,1,N,1","+0250,1","+0090,1","99999,9",,,,,,"10119,1,99999,9",,,,,"MET049METAR EGUY 091450Z 23015KT CAVOK 25/09 Q1012 BLU;",
"03566099999","2010-08-09T15:50:00","4","52.357167","-0.107833","41.14","WYTON, UK","FM-15","EGUY ","V020","210,1,N,0077,1","99999,9,9,Y","009900,1,N,1","+0240,1","+0080,1","99999,9",,,,,,"10119,1,99999,9",,,,,"MET049METAR EGUY 091550Z 21015KT CAVOK 24/08 Q1012 BLU;",
"03566099999","2010-08-10T06:50:00","4","52.357167","-0.107833","41.14","WYTON, UK","FM-15","EGUY ","V020","210,1,N,0036,1","01800,1,C,N","011265,1,N,1","+0130,1","+0100,1","99999,9","02,5,+00300,1,99,9","07,5,+01800,1,99,9",,,"07,99,1,99,9,99,9,99999,9,99,9,99,9","10102,1,99999,9",,,,,"MET062METAR EGUY 100650Z 21007KT 9999 FEW010 BKN060 13/10 Q1010 BLU;",
"03566099999","2010-08-10T07:50:00","4","52.357167","-0.107833","41.14","WYTON, UK","FM-15","EGUY ","V020","220,1,N,0051,1","01800,1,C,N","011265,1,N,1","+0140,1","+0120,1","99999,9","02,5,+00600,1,99,9","04,5,+01800,1,99,9","07,5,+02400,1,99,9",,"07,99,1,99,9,99,9,99999,9,99,9,99,9","10102,1,99999,9",,,,,"MET069METAR EGUY 100750Z 22010KT 9999 FEW020 SCT060 BKN080 14/12 Q1010 BLU;",
"03566099999","2010-08-10T08:50:00","4","52.357167","-0.107833","41.14","WYTON, UK","FM-15","EGUY ","V020","220,1,N,0051,1","01800,1,C,N","011265,1,N,1","+0150,1","+0120,1","99999,9","02,5,+00600,1,99,9","04,5,+01800,1,99,9","07,5,+04200,1,99,9",,"07,99,1,99,9,99,9,99999,9,99,9,99,9","10102,1,99999,9",,,,,"MET069METAR EGUY 100850Z 22010KT 9999 FEW020 SCT060 BKN140 15/12 Q1010 BLU;",
"03566099999","2010-08-10T09:50:00","4","52.357167","-0.107833","41.14","WYTON, UK","FM-15","EGUY ","V020","230,1,N,0057,1","01800,1,C,N","011265,1,N,1","+0150,1","+0120,1","99999,9","02,5,+00600,1,99,9","04,5,+01800,1,99,9","07,5,+04200,1,99,9",,"07,99,1,99,9,99,9,99999,9,99,9,99,9","10102,1,99999,9",,,,,"MET069METAR EGUY 100950Z 23011KT 9999 FEW020 SCT060 BKN140 15/12 Q1010 BLU;",
"03566099999","2010-08-10T10:50:00","4","52.357167","-0.107833","41.14","WYTON, UK","FM-15","EGUY ","V020","240,1,N,0057,1","99999,9,C,N","011265,1,N,1","+0160,1","+0120,1","99999,9","02,5,+00600,1,99,9","04,5,+01800,1,99,9",,,"04,99,1,99,9,99,9,99999,9,99,9,99,9","10102,1,99999,9",,,,,"MET062METAR EGUY 101050Z 24011KT 9999 FEW020 SCT060 16/12 Q1010 BLU;","P01 018003SCOCIG"
"03566099999","2010-08-10T11:50:00","4","52.357167","-0.107833","41.14","WYTON, UK","FM-15","EGUY ","V020","210,1,N,0051,1","03600,1,C,N","011265,1,N,1","+0180,1","+0130,1","99999,9","04,5,+00750,1,99,9","07,5,+03600,1,99,9",,,"07,99,1,99,9,99,9,99999,9,99,9,99,9","10091,1,99999,9",,,,,"MET062METAR EGUY 101150Z 21010KT 9999 SCT025 BKN120 18/13 Q1009 BLU;",
"03566099999","2010-08-10T12:50:00","4","52.357167","-0.107833","41.14","WYTON, UK","FM-15","EGUY ","V020","220,1,N,0067,1","03600,1,C,N","011265,1,N,1","+0180,1","+0120,1","99999,9","04,5,+00750,1,99,9","07,5,+03600,1,99,9",,,"07,99,1,99,9,99,9,99999,9,99,9,99,9","10091,1,99999,9",,,,,"MET062METAR EGUY 101250Z 22013KT 9999 SCT025 BKN120 18/12 Q1009 BLU;",
"03566099999","2010-08-10T13:50:00","4","52.357167","-0.107833","41.14","WYTON, UK","FM-15","EGUY ","V020","220,1,N,0082,1","03600,1,C,N","011265,1,N,1","+0170,1","+0130,1","99999,9","04,5,+00750,1,99,9","07,5,+03600,1,99,9",,,"07,99,1,99,9,99,9,99999,9,99,9,99,9","10091,1,99999,9",,,,,"MET062METAR EGUY 101350Z 22016KT 9999 SCT025 BKN120 17/13 Q1009 BLU;",
"03566099999","2010-08-10T14:50:00","4","52.357167","-0.107833","41.14","WYTON, UK","FM-15","EGUY ","V020","230,1,N,0077,1","03600,1,C,N","011265,1,N,1","+0180,1","+0110,1","99999,9","02,5,+00840,1,99,9","07,5,+03600,1,99,9",,,"07,99,1,99,9,99,9,99999,9,99,9,99,9","10091,1,99999,9",,,,,"MET062METAR EGUY 101450Z 23015KT 9999 FEW028 BKN120 18/11 Q1009 BLU;",
"03566099999","2010-08-10T15:50:00","4","52.357167","-0.107833","41.14","WYTON, UK","FM-15","EGUY ","V020","210,1,N,0062,1","00690,1,C,N","011265,1,N,1","+0170,1","+0130,1","99999,9","07,5,+00690,1,99,9",,,,"07,99,1,99,9,99,9,99999,9,99,9,99,9","10091,1,99999,9",,,,,"MET055METAR EGUY 101550Z 21012KT 9999 BKN023 17/13 Q1009 WHT;",
"03566099999","2010-08-11T06:50:00","4","52.357167","-0.107833","41.14","WYTON, UK","FM-15","EGUY ","V020","250,1,N,0041,1","99999,9,9,Y","009900,1,N,1","+0130,1","+0110,1","99999,9",,,,,,"10129,1,99999,9",,,,,"MET049METAR EGUY 110650Z 25008KT CAVOK 13/11 Q1013 BLU;",
"03566099999","2010-08-11T07:50:00","4","52.357167","-0.107833","41.14","WYTON, UK","FM-15","EGUY ","V020","270,1,N,0041,1","99999,9,9,Y","009900,1,N,1","+0150,1","+0110,1","99999,9",,,,,,"10129,1,99999,9",,,,,"MET049METAR EGUY 110750Z 27008KT CAVOK 15/11 Q1013 BLU;",
"03566099999","2010-08-11T08:50:00","4","52.357167","-0.107833","41.14","WYTON, UK","FM-15","EGUY ","V020","290,1,N,0051,1","22000,1,9,N","011265,1,N,1","+0170,1","+0110,1","99999,9","02,5,+00750,1,99,9",,,,"02,99,1,99,9,99,9,99999,9,99,9,99,9","10129,1,99999,9",,,,,"MET055METAR EGUY 110850Z 29010KT 9999 FEW025 17/11 Q1013 BLU;",
"03566099999","2010-08-11T09:50:00","4","52.357167","-0.107833","41.14","WYTON, UK","FM-15","EGUY ","V020","250,1,N,0062,1","22000,1,9,N","011265,1,N,1","+0190,1","+0090,1","99999,9","04,5,+01080,1,99,9",,,,"04,99,1,99,9,99,9,99999,9,99,9,99,9","10129,1,99999,9",,,,,"MET055METAR EGUY 110950Z 25012KT 9999 SCT036 19/09 Q1013 BLU;",
"03566099999","2010-08-11T10:50:00","4","52.357167","-0.107833","41.14","WYTON, UK","FM-15","EGUY ","V020","280,1,N,0041,1","01350,1,C,N","011265,1,N,1","+0190,1","+0080,1","99999,9","07,5,+01350,1,99,9",,,,"07,99,1,99,9,99,9,99999,9,99,9,99,9","10119,1,99999,9",,,,,"MET055METAR EGUY 111050Z 28008KT 9999 BKN045 19/08 Q1012 BLU;",
"03566099999","2010-08-11T11:50:00","4","52.357167","-0.107833","41.14","WYTON, UK","FM-15","EGUY ","V020","250,1,N,0041,1","01350,1,C,N","011265,1,N,1","+0190,1","+0070,1","99999,9","07,5,+01350,1,99,9",,,,"07,99,1,99,9,99,9,99999,9,99,9,99,9","10119,1,99999,9",,,,,"MET055METAR EGUY 111150Z 25008KT 9999 BKN045 19/07 Q1012 BLU;",
"03566099999","2010-08-11T12:50:00","4","52.357167","-0.107833","41.14","WYTON, UK","FM-15","EGUY ","V020","300,1,N,0062,1","01440,1,C,N","011265,1,N,1","+0200,1","+0070,1","99999,9","07,5,+01440,1,99,9",,,,"07,99,1,99,9,99,9,99999,9,99,9,99,9","10129,1,99999,9",,,,,"MET055METAR EGUY 111250Z 30012KT 9999 BKN048 20/07 Q1013 BLU;",
"03566099999","2010-08-11T13:50:00","4","52.357167","-0.107833","41.14","WYTON, UK","FM-15","EGUY ","V020","280,1,N,0046,1","99999,9,9,Y","009900,1,N,1","+0210,1","+0080,1","99999,9",,,,,,"10129,1,99999,9",,,,,"MET049METAR EGUY 111350Z 28009KT CAVOK 21/08 Q1013 BLU;",
"03566099999","2010-08-11T14:50:00","4","52.357167","-0.107833","41.14","WYTON, UK","FM-15","EGUY ","V020","280,1,N,0051,1","99999,9,9,Y","009900,1,N,1","+0200,1","+0070,1","99999,9",,,,,,"10129,1,99999,9",,,,,"MET049METAR EGUY 111450Z 28010KT CAVOK 20/07 Q1013 BLU;",
"03566099999","2010-08-12T07:50:00","4","52.357167","-0.107833","41.14","WYTON, UK","FM-15","EGUY ","V020","290,1,N,0067,1","01500,1,C,N","004500,1,N,1","+9999,9","+9999,9","99999,9","04,5,+00600,1,99,9","07,5,+01500,1,99,9",,,"07,99,1,99,9,99,9,99999,9,99,9,99,9","10150,1,99999,9","61,1",,,,"MET066METAR EGUY 120750Z 29013KT 4500 -RA SCT020 BKN050 14 12 Q1015 GRN;",
"03566099999","2010-08-12T08:50:00","4","52.357167","-0.107833","41.14","WYTON, UK","FM-15","EGUY ","V020","290,1,N,0062,1","00450,1,C,N","008000,1,N,1","+0130,1","+0130,1","99999,9","02,5,+00300,1,99,9","04,5,+00450,1,99,9","07,5,+02100,1,99,9",,"07,99,1,99,9,99,9,99999,9,99,9,99,9","10149,1,99999,9","63,1",,,,"MET072METAR EGUY 120850Z 29012KT 8000 RA FEW010 SCT015 BKN070 13/13 Q1015 WHT;",
"03566099999","2010-08-12T09:50:00","4","52.357167","-0.107833","41.14","WYTON, UK","FM-15","EGUY ","V020","280,1,N,0062,1","99999,9,C,N","011265,1,N,1","+0150,1","+0130,1","99999,9","04,5,+00210,1,99,9","04,5,+00450,1,99,9",,,"04,99,1,99,9,99,9,99999,9,99,9,99,9","10149,1,99999,9",,,,,"MET067METAR EGUY 120950Z 28012KT 9999 SCT007 SCT015 15/13 Q1015 RERA GRN;","P01 004503SCOCIG"
"03566099999","2010-08-12T10:20:00","4","52.357167","-0.107833","41.14","WYTON, UK","FM-15","EGUY ","V020","290,1,N,0051,1","99999,9,C,N","011265,1,N,1","+0170,1","+0120,1","99999,9","02,5,+00360,1,99,9","04,5,+00540,1,99,9",,,"04,99,1,99,9,99,9,99999,9,99,9,99,9","10149,1,99999,9",,,,,"MET062METAR EGUY 121020Z 29010KT 9999 FEW012 SCT018 17/12 Q1015 WHT;","P01 005403SCOCIG"
"03566099999","2010-08-12T11:50:00","4","52.357167","-0.107833","41.14","WYTON, UK","FM-15","EGUY ","V020","270,1,N,0062,1","99999,9,C,N","011265,1,N,1","+0190,1","+0110,1","99999,9","04,5,+00900,1,99,9","04,5,+01500,1,99,9",,,"04,99,1,99,9,99,9,99999,9,99,9,99,9","10149,1,99999,9","16,1",,,,"MET067METAR EGUY 121150Z 27012KT 9999 VCSH SCT030 SCT050 19/11 Q1015 BLU;","P01 015003SCOCIG"
"03566099999","2010-08-12T12:50:00","4","52.357167","-0.107833","41.14","WYTON, UK","FM-15","EGUY ","V020","270,1,N,0082,1","00960,1,C,N","011265,1,N,1","+0180,1","+0100,1","99999,9","02,5,+00750,1,99,9","07,5,+00960,1,99,9",,,"07,99,1,99,9,99,9,99999,9,99,9,99,9","10149,1,99999,9","80,1",,,,"MET068METAR EGUY 121250Z 27016KT 9999 -SHRA FEW025 BKN032 18/10 Q1015 BLU;",
"03566099999","2010-08-12T13:50:00","4","52.357167","-0.107833","41.14","WYTON, UK","FM-15","EGUY ","V020","280,1,N,0051,1","22000,1,9,N","008000,1,N,1","+0150,1","+0140,1","99999,9","02,5,+00600,5,09,5","02,1,+00600,1,09,1",,,"04,99,1,99,9,99,9,99999,9,99,9,99,9","10159,1,99999,9","80,1",,,,"MET071METAR EGUY 121350Z 28010KT 8000 -SHRA FEW020CB SCT0032 15/14 Q1016 BLU;",
"03566099999","2010-08-12T14:50:00","4","52.357167","-0.107833","41.14","WYTON, UK","FM-15","EGUY ","V020","290,1,N,0057,1","22000,1,9,N","011265,1,N,1","+0170,1","+0140,1","99999,9","02,5,+00450,5,99,9","02,5,+00600,5,09,5","02,1,+00600,1,09,1",,"04,99,1,99,9,99,9,99999,9,99,9,99,9","10159,1,99999,9","17,1",,,,"MET077METAR EGUY 121450Z 29011KT 9999 VCTS FEW015 FEW020CB SCT0030 17/14 Q1016 BLU;",
"03566099999","2010-08-12T15:50:00","4","52.357167","-0.107833","41.14","WYTON, UK","FM-15","EGUY ","V020","300,1,N,0041,1","01500,1,C,N","011265,1,N,1","+0160,1","+0130,1","99999,9","02,5,+00540,1,99,9","02,5,+00600,1,09,5","07,5,+01500,1,99,9",,"07,99,1,99,9,99,9,99999,9,99,9,99,9","10159,1,99999,9","17,1","80,1",,,"MET082METAR EGUY 121550Z 30008KT 9999 -SHRA VCTS FEW018 FEW020CB BKN050 16/13 Q1016 BLU;",
"03566099999","2010-08-13T06:50:00","4","52.357167","-0.107833","41.14","WYTON, UK","FM-15","EGUY ","V020","270,1,N,0046,1","00750,1,C,N","009000,1,N,1","+0130,1","+0130,1","99999,9","02,5,+00300,1,99,9","04,5,+00750,1,99,9","07,5,+01500,1,99,9",,"07,99,1,99,9,99,9,99999,9,99,9,99,9","10159,1,99999,9","16,1",,,,"MET074METAR EGUY 130650Z 27009KT 9000 VCSH FEW010 SCT025 BKN050 13/13 Q1016 BLU;",
"03566099999","2010-08-13T07:50:00","4","52.357167","-0.107833","41.14","WYTON, UK","FM-15","EGUY ","V020","290,1,N,0062,1","00690,1,C,N","011265,1,N,1","+0150,1","+0120,1","99999,9","02,5,+00360,1,99,9","04,5,+00690,1,99,9","07,5,+01200,1,99,9",,"07,99,1,99,9,99,9,99999,9,99,9,99,9","10159,1,99999,9",,,,,"MET069METAR EGUY 130750Z 29012KT 9999 FEW012 SCT023 BKN040 15/12 Q1016 WHT;",
"03566099999","2010-08-13T08:50:00","4","52.357167","-0.107833","41.14","WYTON, UK","FM-15","EGUY ","V020","300,1,N,0072,1","00540,1,C,N","011265,1,N,1","+0150,1","+0110,1","99999,9","07,5,+00540,1,99,9",,,,"07,99,1,99,9,99,9,99999,9,99,9,99,9","10159,1,99999,9",,,,,"MET055METAR EGUY 130850Z 30014KT 9999 BKN018 15/11 Q1016 WHT;",
"03566099999","2010-08-13T09:50:00","4","52.357167","-0.107833","41.14","WYTON, UK","FM-15","EGUY ","V020","300,1,N,0082,1","00540,1,C,N","011265,1,N,1","+0160,1","+0120,1","99999,9","07,5,+00540,1,99,9","07,5,+02400,1,99,9",,,"07,99,1,99,9,99,9,99999,9,99,9,99,9","10159,1,99999,9",,,,,"MET062METAR EGUY 130950Z 30016KT 9999 BKN018 BKN080 16/12 Q1016 WHT;",
"03566099999","2010-08-13T10:50:00","4","52.357167","-0.107833","41.14","WYTON, UK","FM-15","EGUY ","V020","320,1,N,0077,1","00570,1,C,N","011265,1,N,1","+0170,1","+0120,1","99999,9","07,5,+00570,1,99,9","08,5,+02400,1,99,9",,,"08,99,1,99,9,99,9,99999,9,99,9,99,9","10159,1,99999,9","80,1",,,,"MET068METAR EGUY 131050Z 32015KT 9999 -SHRA BKN019 OVC080 17/12 Q1016 WHT;",
"03566099999","2010-08-13T11:50:00","4","52.357167","-0.107833","41.14","WYTON, UK","FM-15","EGUY ","V020","310,1,N,0062,1","00600,1,C,N","011265,1,N,1","+0160,1","+0120,1","99999,9","02,5,+00450,1,99,9","02,5,+00540,1,09,5","07,5,+00600,1,99,9",,"07,99,1,99,9,99,9,99999,9,99,9,99,9","10159,1,99999,9","80,1",,,,"MET083METAR EGUY 131150Z 31012KT 9999 6000W -SHRA FEW015 FEW018CB BKN020 16/12 Q1016 WHT;",
"03566099999","2010-08-13T12:50:00","4","52.357167","-0.107833","41.14","WYTON, UK","FM-15","EGUY ","V020","300,1,N,0082,1","99999,9,C,N","011265,1,N,1","+0150,1","+0140,1","99999,9","02,5,+00300,1,99,9","02,5,+00450,1,09,5","04,5,+00510,1,99,9",,"04,99,1,99,9,99,9,99999,9,99,9,99,9","10159,1,99999,9","80,1",,,,"MET076METAR EGUY 131250Z 30016KT 9999-SHRA FEW010 FEW015CB SCT017 15/14 Q1016 WHT;","P01 005103SCOCIG"
"03566099999","2010-08-13T13:50:00","4","52.357167","-0.107833","41.14","WYTON, UK","FM-15","EGUY ","V020","330,1,N,0082,1","00480,1,C,N","008000,1,N,1","+0170,1","+0130,1","99999,9","02,5,+00270,1,99,9","02,5,+00450,1,09,5","07,5,+00480,1,99,9",,"07,99,1,99,9,99,9,99999,9,99,9,99,9","10159,1,99999,9","80,1",,,,"MET077METAR EGUY 131350Z 33016KT 8000 -SHRA FEW009 FEW015CB BKN016 17/13 Q1016 WHT;",
"03566099999","2010-08-14T07:50:00","4","52.357167","-0.107833","41.14","WYTON, UK","FM-15","EGUY ","V020","330,1,N,0036,1","00180,1,C,N","008000,1,N,1","+0140,1","+0130,1","99999,9","07,5,+00180,1,99,9",,,,"07,99,1,99,9,99,9,99999,9,99,9,99,9","10159,1,99999,9","51,1",,,,"MET059METAR EGUY 140750Z 33007KT 8000 -DZ BKN006 14/13 Q1016 WHT;",
"03566099999","2010-08-14T08:50:00","4","52.357167","-0.107833","41.14","WYTON, UK","FM-15","EGUY ","V020","330,1,N,0036,1","00180,1,C,N","008000,1,N,1","+0140,1","+0130,1","99999,9","07,5,+00180,1,99,9",,,,"07,99,1,99,9,99,9,99999,9,99,9,99,9","10159,1,99999,9","51,1",,,,"MET059METAR EGUY 140850Z 33007KT 8000 -DZ BKN006 14/13 Q1016 WHT;",
"03566099999","2010-08-14T09:50:00","4","52.357167","-0.107833","41.14","WYTON, UK","FM-15","EGUY ","V020","340,1,N,0026,1","00360,1,C,N","011265,1,N,1","+0150,1","+0140,1","99999,9","02,5,+00210,1,99,9","08,5,+00360,1,99,9",,,"08,99,1,99,9,99,9,99999,9,99,9,99,9","10159,1,99999,9","61,1",,,,"MET066METAR EGUY 140950Z 34005KT 9999 -RA FEW007 OVC012 15/14 Q1016 GRN;",
"03566099999","2010-08-14T10:50:00","4","52.357167","-0.107833","41.14","WYTON, UK","FM-15","EGUY ","V020","120,1,N,0036,1","00360,1,C,N","011265,1,N,1","+0160,1","+0140,1","99999,9","02,5,+00240,1,99,9","04,5,+00360,1,99,9","07,5,+00600,1,99,9",,"07,99,1,99,9,99,9,99999,9,99,9,99,9","10159,1,99999,9",,,,,"MET069METAR EGUY 141050Z 12007KT 9999 FEW008 SCT012 BKN020 16/14 Q1016 GRN;",
"03566099999","2010-08-14T11:50:00","4","52.357167","-0.107833","41.14","WYTON, UK","FM-15","EGUY ","V020","090,1,N,0041,1","00450,1,C,N","011265,1,N,1","+0170,1","+0140,1","99999,9","04,5,+00360,1,99,9","07,5,+00450,1,99,9",,,"07,99,1,99,9,99,9,99999,9,99,9,99,9","10169,1,99999,9",,,,,"MET062METAR EGUY 141150Z 09008KT 9999 SCT012 BKN015 17/14 Q1017 GRN;",
"03566099999","2010-08-14T12:50:00","4","52.357167","-0.107833","41.14","WYTON, UK","FM-15","EGUY ","V020","090,1,N,0062,1","00600,1,C,N","011265,1,N,1","+0170,1","+0120,1","99999,9","02,5,+00450,1,99,9","07,5,+00600,1,99,9",,,"07,99,1,99,9,99,9,99999,9,99,9,99,9","10169,1,99999,9",,,,,"MET062METAR EGUY 141250Z 09012KT 9999 FEW015 BKN020 17/12 Q1017 WHT;",
"03566099999","2010-08-14T13:50:00","4","52.357167","-0.107833","41.14","WYTON, UK","FM-15","EGUY ","V020","090,1,N,0062,1","00660,1,C,N","011265,1,N,1","+0190,1","+0130,1","99999,9","04,5,+00600,1,99,9","02,5,+00660,1,09,5","07,5,+00750,1,99,9",,"07,99,1,99,9,99,9,99999,9,99,9,99,9","10169,1,99999,9",,,,,"MET071METAR EGUY 141350Z 09012KT 9999 SCT020 FEW022CB BKN025 19/13 Q1017 WHT;",
"03566099999","2010-08-15T06:50:00","4","52.357167","-0.107833","41.14","WYTON, UK","FM-15","EGUY ","V020","030,1,N,0051,1","00180,1,C,N","006000,1,N,1","+0150,1","+0150,1","99999,9","07,5,+00180,1,99,9",,,,"07,99,1,99,9,99,9,99999,9,99,9,99,9","10220,1,99999,9","10,1",,,,"MET059METAR EGUY 150650Z 03010KT 6000 BR BKN006 15/15 Q1022 YLO1;",
"03566099999","2010-08-15T07:50:00","4","52.357167","-0.107833","41.14","WYTON, UK","FM-15","EGUY ","V020","030,1,N,0051,1","04200,1,C,N","011265,1,N,1","+0170,1","+0150,1","99999,9","02,5,+00210,1,99,9","08,5,+04200,1,99,9",,,"08,99,1,99,9,99,9,99999,9,99,9,99,9","10220,1,99999,9",,,,,"MET062METAR EGUY 150750Z 03010KT 9999 FEW007 OVC140 17/15 Q1022 BLU;",
"03566099999","2010-08-15T08:50:00","4","52.357167","-0.107833","41.14","WYTON, UK","FM-15","EGUY ","V020","020,1,N,0051,1","04500,1,C,N","011265,1,N,1","+0180,1","+0140,1","99999,9","02,5,+00210,1,99,9","07,5,+04500,1,99,9",,,"07,99,1,99,9,99,9,99999,9,99,9,99,9","10220,1,99999,9",,,,,"MET062METAR EGUY 150850Z 02010KT 9999 FEW007 BKN150 18/14 Q1022 BLU;",
"03566099999","2010-08-15T09:50:00","4","52.357167","-0.107833","41.14","WYTON, UK","FM-15","EGUY ","V020","020,1,N,0051,1","04800,1,C,N","011265,1,N,1","+0190,1","+0130,1","99999,9","02,5,+00750,1,99,9","08,5,+04800,1,99,9",,,"08,99,1,99,9,99,9,99999,9,99,9,99,9","10230,1,99999,9",,,,,"MET062METAR EGUY 150950Z 02010KT 9999 FEW025 OVC160 19/13 Q1023 BLU;",
"03566099999","2010-08-15T10:50:00","4","52.357167","-0.107833","41.14","WYTON, UK","FM-15","EGUY ","V020","020,1,N,0062,1","99999,9,C,N","011265,1,N,1","+0200,1","+0130,1","99999,9","02,5,+00840,1,99,9","04,5,+04800,1,99,9",,,"04,99,1,99,9,99,9,99999,9,99,9,99,9","10230,1,99999,9",,,,,"MET062METAR EGUY 151050Z 02012KT 9999 FEW028 SCT160 20/13 Q1023 BLU;","P01 048003SCOCIG"
"03566099999","2010-08-15T11:50:00","4","52.357167","-0.107833","41.14","WYTON, UK","FM-15","EGUY ","V020","020,1,N,0077,1","05400,1,C,N","011265,1,N,1","+0200,1","+0120,1","99999,9","04,5,+00960,1,99,9","07,5,+05400,1,99,9",,,"07,99,1,99,9,99,9,99999,9,99,9,99,9","10220,1,99999,9",,,,,"MET062METAR EGUY 151150Z 02015KT 9999 SCT032 BKN180 20/12 Q1022 BLU;",
"03566099999","2010-08-15T12:50:00","4","52.357167","-0.107833","41.14","WYTON, UK","FM-15","EGUY ","V020","010,1,N,0087,1","05400,1,C,N","011265,1,N,1","+0200,1","+0120,1","99999,9","02,5,+00960,1,99,9","04,5,+05400,1,99,9","07,5,+07500,1,99,9",,"07,99,1,99,9,99,9,99999,9,99,9,99,9","10220,1,99999,9",,,,,"MET069METAR EGUY 151250Z 01017KT 9999 FEW032 SCT180 BKN250 20/12 Q1022 BLU;",
"03566099999","2010-08-16T06:50:00","4","52.357167","-0.107833","41.14","WYTON, UK","FM-15","EGUY ","V020","350,1,N,0103,1","00480,1,C,N","011265,1,N,1","+0130,1","+0100,1","99999,9","08,5,+00480,1,99,9",,,,"08,99,1,99,9,99,9,99999,9,99,9,99,9","10119,1,99999,9",,,,,"MET055METAR EGUY 160650Z 35020KT 9999 OVC016 13/10 Q1012 WHT;",
"03566099999","2010-08-16T07:50:00","4","52.357167","-0.107833","41.14","WYTON, UK","FM-15","EGUY ","V020","350,1,N,0118,1","00510,1,C,N","011265,1,N,1","+0140,1","+0100,1","99999,9","07,5,+00510,1,99,9",,,,"07,99,1,99,9,99,9,99999,9,99,9,99,9","10159,1,99999,9",,,,,"MET055METAR EGUY 160750Z 35023KT 9999 BKN017 14/10 Q1016 WHT;",
"03566099999","2010-08-16T08:50:00","4","52.357167","-0.107833","41.14","WYTON, UK","FM-15","EGUY ","V020","350,1,N,0103,1","00510,1,C,N","011265,1,N,1","+0140,1","+0100,1","99999,9","08,5,+00510,1,99,9",,,,"08,99,1,99,9,99,9,99999,9,99,9,99,9","10169,1,99999,9",,,,,"MET055METAR EGUY 160850Z 35020KT 9999 OVC017 14/10 Q1017 WHT;",
"03566099999","2010-08-16T09:50:00","4","52.357167","-0.107833","41.14","WYTON, UK","FM-15","EGUY ","V020","350,1,N,0077,1","00450,1,C,N","011265,1,N,1","+0150,1","+0110,1","99999,9","08,5,+00450,1,99,9",,,,"08,99,1,99,9,99,9,99999,9,99,9,99,9","10169,1,99999,9",,,,,"MET055METAR EGUY 160950Z 35015KT 9999 OVC015 15/11 Q1017 WHT;",
"03566099999","2010-08-16T10:50:00","4","52.357167","-0.107833","41.14","WYTON, UK","FM-15","EGUY ","V020","340,1,N,0077,1","00540,1,C,N","011265,1,N,1","+0160,1","+0110,1","99999,9","08,5,+00540,1,99,9",,,,"08,99,1,99,9,99,9,99999,9,99,9,99,9","10169,1,99999,9",,,,,"MET055METAR EGUY 161050Z 34015KT 9999 OVC018 16/11 Q1017 WHT;",
"03566099999","2010-08-16T11:50:00","4","52.357167","-0.107833","41.14","WYTON, UK","FM-15","EGUY ","V020","340,1,N,0077,1","00600,1,C,N","011265,1,N,1","+0160,1","+0110,1","99999,9","08,5,+00600,1,99,9",,,,"08,99,1,99,9,99,9,99999,9,99,9,99,9","10159,1,99999,9",,,,,"MET055METAR EGUY 161150Z 34015KT 9999 OVC020 16/11 Q1016 WHT;",
"03566099999","2010-08-16T12:50:00","4","52.357167","-0.107833","41.14","WYTON, UK","FM-15","EGUY ","V020","340,1,N,0062,1","00660,1,C,N","011265,1,N,1","+0170,1","+0120,1","99999,9","07,5,+00660,1,99,9",,,,"07,99,1,99,9,99,9,99999,9,99,9,99,9","10159,1,99999,9",,,,"0113,1","MET058METAR EGUY 161250Z 34012G22KT 9999 BKN022 17/12 Q1016 WHT;",
"03566099999","2010-08-16T13:50:00","4","52.357167","-0.107833","41.14","WYTON, UK","FM-15","EGUY ","V020","350,1,N,0098,1","99999,9,C,N","011265,1,N,1","+0200,1","+0120,1","99999,9","02,5,+00900,1,99,9","04,5,+01500,1,99,9",,,"04,99,1,99,9,99,9,99999,9,99,9,99,9","10149,1,99999,9",,,,"0149,1","MET065METAR EGUY 161350Z 35019G29KT 9999 FEW030 SCT050 20/12 Q1015 BLU;","P01 015003SCOCIG"
"03566099999","2010-08-16T14:50:00","4","52.357167","-0.107833","41.14","WYTON, UK","FM-15","EGUY ","V020","320,1,N,0093,1","99999,9,C,N","011265,1,N,1","+0210,1","+0110,1","99999,9","02,5,+00900,1,99,9","04,5,+01800,1,99,9",,,"04,99,1,99,9,99,9,99999,9,99,9,99,9","10149,1,99999,9",,,,"0144,1","MET065METAR EGUY 161450Z 32018G28KT 9999 FEW030 SCT060 21/11 Q1015 BLU;","P01 018003SCOCIG"
"03566099999","2010-08-17T06:50:00","4","52.357167","-0.107833","41.14","WYTON, UK","FM-15","EGUY ","V020","230,1,N,0041,1","01380,1,C,N","011265,1,N,1","+0140,1","+0120,1","99999,9","07,5,+01380,1,99,9","07,5,+02700,1,99,9",,,"07,99,1,99,9,99,9,99999,9,99,9,99,9","10108,1,99999,9",,,,,"MET062METAR EGUY 170650Z 23008KT 9999 BKN046 BKN090 14/12 Q1011 BLU;",
"03566099999","2010-08-17T07:50:00","4","52.357167","-0.107833","41.14","WYTON, UK","FM-15","EGUY ","V020","230,1,N,0046,1","01500,1,C,N","011265,1,N,1","+0140,1","+0120,1","99999,9","04,5,+00900,1,99,9","07,5,+01500,1,99,9",,,"07,99,1,99,9,99,9,99999,9,99,9,99,9","10102,1,99999,9",,,,,"MET062METAR EGUY 170750Z 23009KT 9999 SCT030 BKN050 14/12 Q1010 BLU;",
"03566099999","2010-08-17T08:30:00","4","52.357167","-0.107833","41.14","WYTON, UK","FM-15","EGUY ","V020","240,1,N,0062,1","00750,1,C,N","011265,1,N,1","+0150,1","+0130,1","99999,9","04,5,+00360,1,99,9","08,5,+00750,1,99,9",,,"08,99,1,99,9,99,9,99999,9,99,9,99,9","10102,1,99999,9",,,,,"MET062METAR EGUY 170830Z 24012KT 9999 SCT012 OVC025 15/13 Q1010 GRN;",
"03566099999","2010-08-17T08:50:00","4","52.357167","-0.107833","41.14","WYTON, UK","FM-15","EGUY ","V020","240,1,N,0051,1","00750,1,C,N","011265,1,N,1","+0160,1","+0140,1","99999,9","04,5,+00300,1,99,9","08,5,+00750,1,99,9",,,"08,99,1,99,9,99,9,99999,9,99,9,99,9","10102,1,99999,9",,,,,"MET062METAR EGUY 170850Z 24010KT 9999 SCT010 OVC025 16/14 Q1010 GRN;",
"03566099999","2010-08-17T09:50:00","4","52.357167","-0.107833","41.14","WYTON, UK","FM-15","EGUY ","V020","270,1,N,0067,1","00750,1,C,N","011265,1,N,1","+0170,1","+0130,1","99999,9","04,5,+00420,1,99,9","08,5,+00750,1,99,9",,,"08,99,1,99,9,99,9,99999,9,99,9,99,9","10102,1,99999,9",,,,,"MET062METAR EGUY 170950Z 27013KT 9999 SCT014 OVC025 17/13 Q1010 GRN;",
"03566099999","2010-08-17T10:50:00","4","52.357167","-0.107833","41.14","WYTON, UK","FM-15","EGUY ","V020","280,1,N,0072,1","00600,1,C,N","011265,1,N,1","+0180,1","+0140,1","99999,9","04,5,+00360,1,99,9","08,5,+00600,1,99,9",,,"08,99,1,99,9,99,9,99999,9,99,9,99,9","10102,1,99999,9",,,,,"MET062METAR EGUY 171050Z 28014KT 9999 SCT012 OVC020 18/14 Q1010 GRN;",
"03566099999","2010-08-17T11:50:00","4","52.357167","-0.107833","41.14","WYTON, UK","FM-15","EGUY ","V020","270,1,N,0067,1","00480,1,C,N","011265,1,N,1","+0180,1","+0140,1","99999,9","02,5,+00360,1,99,9","07,5,+00480,1,99,9","08,5,+00750,1,99,9",,"08,99,1,99,9,99,9,99999,9,99,9,99,9","10102,1,99999,9","51,1",,,,"MET073METAR EGUY 171150Z 27013KT 9999 -DZ FEW012 BKN016 OVC025 18/14 Q1010 WHT;",
"03566099999","2010-08-17T12:50:00","4","52.357167","-0.107833","41.14","WYTON, UK","FM-15","EGUY ","V020","270,1,N,0062,1","00600,1,C,N","011265,1,N,1","+0190,1","+0140,1","99999,9","02,5,+00450,1,99,9","08,5,+00600,1,99,9",,,"08,99,1,99,9,99,9,99999,9,99,9,99,9","10091,1,99999,9",,,,,"MET062METAR EGUY 171250Z 27012KT 9999 FEW015 OVC020 19/14 Q1009 WHT;",
"03566099999","2010-08-17T13:50:00","4","52.357167","-0.107833","41.14","WYTON, UK","FM-15","EGUY ","V020","230,1,N,0046,1","01200,1,C,N","011265,1,N,1","+0200,1","+0140,1","99999,9","04,5,+00750,1,99,9","07,5,+01200,1,99,9",,,"07,99,1,99,9,99,9,99999,9,99,9,99,9","10091,1,99999,9",,,,,"MET062METAR EGUY 171350Z 23009KT 9999 SCT025 BKN040 20/14 Q1009 BLU;",
"03566099999","2010-08-17T14:50:00","4","52.357167","-0.107833","41.14","WYTON, UK","FM-15","EGUY ","V020","220,1,N,0093,1","22000,1,9,N","011265,1,N,1","+0210,1","+0150,1","99999,9","04,5,+00750,1,99,9",,,,"04,99,1,99,9,99,9,99999,9,99,9,99,9","10081,1,99999,9",,,,,"MET055METAR EGUY 171450Z 22018KT 9999 SCT025 21/15 Q1008 BLU;",
"03566099999","2010-08-17T15:50:00","4","52.357167","-0.107833","41.14","WYTON, UK","FM-15","EGUY ","V020","210,1,N,0082,1","22000,1,9,N","011265,1,N,1","+0220,1","+0140,1","99999,9","04,5,+00960,1,99,9",,,,"04,99,1,99,9,99,9,99999,9,99,9,99,9","10071,1,99999,9",,,,,"MET055METAR EGUY 171550Z 21016KT 9999 SCT032 22/14 Q1007 BLU;",
"03566099999","2010-08-18T06:50:00","4","52.357167","-0.107833","41.14","WYTON, UK","FM-15","EGUY ","V020","270,1,N,0067,1","01350,1,C,N","011265,1,N,1","+0130,1","+0100,1","99999,9","07,5,+01350,1,99,9",,,,"07,99,1,99,9,99,9,99999,9,99,9,99,9","10071,1,99999,9",,,,,"MET055METAR EGUY 180650Z 27013KT 9999 BKN045 13/10 Q1007 BLU;",
"03566099999","2010-08-18T07:50:00","4","52.357167","-0.107833","41.14","WYTON, UK","FM-15","EGUY ","V020","280,1,N,0062,1","01350,1,C,N","011265,1,N,1","+0150,1","+0100,1","99999,9","07,5,+01350,1,99,9",,,,"07,99,1,99,9,99,9,99999,9,99,9,99,9","10071,1,99999,9",,,,,"MET055METAR EGUY 180750Z 28012KT 9999 BKN045 15/10 Q1007 BLU;",
"03566099999","2010-08-18T08:50:00","4","52.357167","-0.107833","41.14","WYTON, UK","FM-15","EGUY ","V020","270,1,N,0077,1","99999,9,9,Y","009900,1,N,1","+0150,1","+0100,1","99999,9",,,,,,"10071,1,99999,9",,,,,"MET049METAR EGUY 180850Z 27015KT CAVOK 15/10 Q1007 BLU;",
"03566099999","2010-08-18T09:50:00","4","52.357167","-0.107833","41.14","WYTON, UK","FM-15","EGUY ","V020","260,1,N,0067,1","01800,1,C,N","011265,1,N,1","+0170,1","+0090,1","99999,9","02,5,+00750,1,99,9","07,5,+01800,1,99,9",,,"07,99,1,99,9,99,9,99999,9,99,9,99,9","10071,1,99999,9",,,,,"MET062METAR EGUY 180950Z 26013KT 9999 FEW025 BKN060 17/09 Q1007 BLU;",
"03566099999","2010-08-18T10:50:00","4","52.357167","-0.107833","41.14","WYTON, UK","FM-15","EGUY ","V020","270,1,N,0098,1","01800,1,C,N","011265,1,N,1","+0180,1","+0080,1","99999,9","04,5,+00750,1,99,9","07,5,+01800,1,99,9",,,"07,99,1,99,9,99,9,99999,9,99,9,99,9","10071,1,99999,9",,,,,"MET062METAR EGUY 181050Z 27019KT 9999 SCT025 BKN060 18/08 Q1007 BLU;",
"03566099999","2010-08-18T11:50:00","4","52.357167","-0.107833","41.14","WYTON, UK","FM-15","EGUY ","V020","280,1,N,0082,1","01800,1,C,N","011265,1,N,1","+0180,1","+0080,1","99999,9","02,5,+01050,1,99,9","07,5,+01800,1,99,9",,,"07,99,1,99,9,99,9,99999,9,99,9,99,9","10071,1,99999,9",,,,"0134,1","MET065METAR EGUY 181150Z 28016G26KT 9999 FEW035 BKN060 18/08 Q1007 BLU;",
"03566099999","2010-08-18T12:50:00","4","52.357167","-0.107833","41.14","WYTON, UK","FM-15","EGUY ","V020","270,1,N,0082,1","01800,1,C,N","011265,1,N,1","+0190,1","+0070,1","99999,9","02,5,+01050,1,99,9","07,5,+01800,1,99,9",,,"07,99,1,99,9,99,9,99999,9,99,9,99,9","10071,1,99999,9",,,,,"MET062METAR EGUY 181250Z 27016KT 9999 FEW035 BKN060 19/07 Q1007 BLU;",
"03566099999","2010-08-19T06:50:00","4","52.357167","-0.107833","41.14","WYTON, UK","FM-15","EGUY ","V020","210,1,N,0062,1","99999,9,9,Y","009900,1,N,1","+0130,1","+0110,1","99999,9",,,,,,"10108,1,99999,9",,,,,"MET049METAR EGUY 190650Z 21012KT CAVOK 13/11 Q1011 BLU;",
"03566099999","2010-08-19T07:50:00","4","52.357167","-0.107833","41.14","WYTON, UK","FM-15","EGUY ","V020","210,1,N,0062,1","06000,1,C,N","011265,1,N,1","+0140,1","+0110,1","99999,9","02,5,+00360,1,99,9","07,5,+06000,1,99,9",,,"07,99,1,99,9,99,9,99999,9,99,9,99,9","10108,1,99999,9",,,,,"MET062METAR EGUY 190750Z 21012KT 9999 FEW012 BKN200 14/11 Q1011 BLU;",
"03566099999","2010-08-19T08:50:00","4","52.357167","-0.107833","41.14","WYTON, UK","FM-15","EGUY ","V020","240,1,N,0057,1","06000,1,C,N","011265,1,N,1","+0160,1","+0120,1","99999,9","02,5,+00600,1,99,9","04,5,+06000,1,99,9","07,5,+07500,1,99,9",,"07,99,1,99,9,99,9,99999,9,99,9,99,9","10108,1,99999,9",,,,,"MET069METAR EGUY 190850Z 24011KT 9999 FEW020 SCT200 BKN250 16/12 Q1011 BLU;",
"03566099999","2010-08-19T09:50:00","4","52.357167","-0.107833","41.14","WYTON, UK","FM-15","EGUY ","V020","230,1,N,0072,1","06000,1,C,N","011265,1,N,1","+0190,1","+0100,1","99999,9","02,5,+00840,1,99,9","04,5,+06000,1,99,9","07,5,+07500,1,99,9",,"07,99,1,99,9,99,9,99999,9,99,9,99,9","10119,1,99999,9",,,,,"MET069METAR EGUY 190950Z 23014KT 9999 FEW028 SCT200 BKN250 19/10 Q1012 BLU;",
"03566099999","2010-08-19T10:50:00","4","52.357167","-0.107833","41.14","WYTON, UK","FM-15","EGUY ","V020","230,1,N,0082,1","07500,1,C,N","011265,1,N,1","+0190,1","+0080,1","99999,9","04,5,+01200,1,99,9","07,5,+07500,1,99,9",,,"07,99,1,99,9,99,9,99999,9,99,9,99,9","10119,1,99999,9",,,,"0139,1","MET065METAR EGUY 191050Z 23016G27KT 9999 SCT040 BKN250 19/08 Q1012 BLU;",
"03566099999","2010-08-19T11:50:00","4","52.357167","-0.107833","41.14","WYTON, UK","FM-15","EGUY ","V020","240,1,N,0093,1","07500,1,C,N","011265,1,N,1","+0210,1","+0070,1","99999,9","04,5,+01350,1,99,9","07,5,+07500,1,99,9",,,"07,99,1,99,9,99,9,99999,9,99,9,99,9","10119,1,99999,9",,,,"0149,1","MET065METAR EGUY 191150Z 24018G29KT 9999 SCT045 BKN250 21/07 Q1012 BLU;",
"03566099999","2010-08-19T12:50:00","4","52.357167","-0.107833","41.14","WYTON, UK","FM-15","EGUY ","V020","210,1,N,0087,1","01440,1,C,N","011265,1,N,1","+0200,1","+0080,1","99999,9","07,5,+01440,1,99,9","07,5,+07500,1,99,9",,,"07,99,1,99,9,99,9,99999,9,99,9,99,9","10119,1,99999,9",,,,"0139,1","MET065METAR EGUY 191250Z 21017G27KT 9999 BKN048 BKN250 20/08 Q1012 BLU;",
"03566099999","2010-08-19T13:50:00","4","52.357167","-0.107833","41.14","WYTON, UK","FM-15","EGUY ","V020","210,1,N,0093,1","07500,1,C,N","011265,1,N,1","+0210,1","+0090,1","99999,9","04,5,+01440,1,99,9","07,5,+07500,1,99,9",,,"07,99,1,99,9,99,9,99999,9,99,9,99,9","10119,1,99999,9",,,,"0144,1","MET065METAR EGUY 191350Z 21018G28KT 9999 SCT048 BKN250 21/09 Q1012 BLU;",
"03566099999","2010-08-19T14:50:00","4","52.357167","-0.107833","41.14","WYTON, UK","FM-15","EGUY ","V020","210,1,N,0087,1","05400,1,C,N","011265,1,N,1","+0210,1","+0090,1","99999,9","04,5,+01350,1,99,9","07,5,+05400,1,99,9",,,"07,99,1,99,9,99,9,99999,9,99,9,99,9","10119,1,99999,9",,,,"0139,1","MET065METAR EGUY 191450Z 21017G27KT 9999 SCT045 BKN180 21/09 Q1012 BLU;",
"03566099999","2010-08-20T06:50:00","4","52.357167","-0.107833","41.14","WYTON, UK","FM-15","EGUY ","V020","190,1,N,0062,1","01500,1,C,N","011265,1,N,1","+0170,1","+0150,1","99999,9","02,5,+00300,1,99,9","04,5,+01500,1,99,9","07,5,+06000,1,99,9",,"07,99,1,99,9,99,9,99999,9,99,9,99,9","10119,1,99999,9",,,,,"MET069METAR EGUY 200650Z 19012KT 9999 FEW010 SCT050 BKN200 17/15 Q1012 BLU;",
"03566099999","2010-08-20T07:50:00","4","52.357167","-0.107833","41.14","WYTON, UK","FM-15","EGUY ","V020","190,1,N,0072,1","01800,1,C,N","011265,1,N,1","+0190,1","+0160,1","99999,9","02,5,+00360,1,99,9","04,5,+01800,1,99,9","07,5,+03600,1,99,9",,"07,99,1,99,9,99,9,99999,9,99,9,99,9","10129,1,99999,9",,,,,"MET069METAR EGUY 200750Z 19014KT 9999 FEW012 SCT060 BKN120 19/16 Q1013 BLU;",
"03566099999","2010-08-20T08:50:00","4","52.357167","-0.107833","41.14","WYTON, UK","FM-15","EGUY ","V020","190,1,N,0093,1","01800,1,C,N","011265,1,N,1","+0190,1","+0170,1","99999,9","02,5,+00300,1,99,9","04,5,+01800,1,99,9","07,5,+03600,1,99,9",,"07,99,1,99,9,99,9,99999,9,99,9,99,9","10129,1,99999,9",,,,"0144,1","MET072METAR EGUY 200850Z 19018G28KT 9999 FEW010 SCT060 BKN120 19/17 Q1013 BLU;",
"03566099999","2010-08-20T09:50:00","4","52.357167","-0.107833","41.14","WYTON, UK","FM-15","EGUY ","V020","190,1,N,0118,1","00510,1,C,N","011265,1,N,1","+0200,1","+0170,1","99999,9","02,5,+00420,1,99,9","07,5,+00510,1,99,9","07,5,+03600,1,99,9",,"07,99,1,99,9,99,9,99999,9,99,9,99,9","10129,1,99999,9",,,,"0170,1","MET072METAR EGUY 200950Z 19023G33KT 9999 FEW014 BKN017 BKN120 20/17 Q1013 WHT;",
"03566099999","2010-08-20T10:50:00","4","52.357167","-0.107833","41.14","WYTON, UK","FM-15","EGUY ","V020","210,1,N,0123,1","03600,1,C,N","011265,1,N,1","+0220,1","+0170,1","99999,9","04,5,+00600,1,99,9","07,5,+03600,1,99,9","07,5,+07500,1,99,9",,"07,99,1,99,9,99,9,99999,9,99,9,99,9","10139,1,99999,9",,,,"0195,1","MET072METAR EGUY 201050Z 21024G38KT 9999 SCT020 BKN120 BKN250 22/17 Q1014 WHT;",
"03566099999","2010-08-20T11:50:00","4","52.357167","-0.107833","41.14","WYTON, UK","FM-15","EGUY ","V020","200,1,N,0134,1","03600,1,C,N","011265,1,N,1","+0230,1","+0180,1","99999,9","04,5,+00600,1,99,9","07,5,+03600,1,99,9","07,5,+07500,1,99,9",,"07,99,1,99,9,99,9,99999,9,99,9,99,9","10139,1,99999,9",,,,"0211,1","MET072METAR EGUY 201150Z 20026G41KT 9999 SCT020 BKN120 BKN250 23/18 Q1014 WHT;",
"03566099999","2010-08-21T10:50:00","4","52.357167","-0.107833","41.14","WYTON, UK","FM-15","EGUY ","V020","220,1,N,0103,1","00450,1,C,N","011265,1,N,1","+0210,1","+0170,1","99999,9","08,5,+00450,1,99,9",,,,"08,99,1,99,9,99,9,99999,9,99,9,99,9","10180,1,99999,9",,,,"0154,1","MET058METAR EGUY 211050Z 22020G30KT 9999 OVC015 21/17 Q1018 WHT;",
"03566099999","2010-08-21T11:50:00","4","52.357167","-0.107833","41.14","WYTON, UK","FM-15","EGUY ","V020","220,1,N,0108,1","00660,1,C,N","011265,1,N,1","+0230,1","+0170,1","99999,9","07,5,+00660,1,99,9",,,,"07,99,1,99,9,99,9,99999,9,99,9,99,9","10169,1,99999,9",,,,"0170,1","MET058METAR EGUY 211150Z 22021G33KT 9999 BKN022 23/17 Q1017 WHT;",
"03566099999","2010-08-21T12:50:00","4","52.357167","-0.107833","41.14","WYTON, UK","FM-15","EGUY ","V020","220,1,N,0077,1","01320,1,C,N","011265,1,N,1","+0240,1","+0170,1","99999,9","04,5,+00960,1,99,9","07,5,+01320,1,99,9",,,"07,99,1,99,9,99,9,99999,9,99,9,99,9","10169,1,99999,9",,,,"0129,1","MET065METAR EGUY 211250Z 22015G25KT 9999 SCT032 BKN044 24/17 Q1017 BLU;",
"03566099999","2010-08-22T06:50:00","4","52.357167","-0.107833","41.14","WYTON, UK","FM-15","EGUY ","V020","270,1,N,0041,1","99999,9,9,Y","009900,1,N,1","+0170,1","+0140,1","99999,9",,,,,,"10149,1,99999,9",,,,,"MET049METAR EGUY 220650Z 27008KT CAVOK 17/14 Q1015 BLU;",
"03566099999","2010-08-22T07:50:00","4","52.357167","-0.107833","41.14","WYTON, UK","FM-15","EGUY ","V020","270,1,N,0051,1","22000,1,9,N","011265,1,N,1","+0180,1","+0140,1","99999,9","02,5,+00480,1,99,9",,,,"02,99,1,99,9,99,9,99999,9,99,9,99,9","10149,1,99999,9",,,,,"MET055METAR EGUY 220750Z 27010KT 9999 FEW016 18/14 Q1015 BLU;",
"03566099999","2010-08-22T08:50:00","4","52.357167","-0.107833","41.14","WYTON, UK","FM-15","EGUY ","V020","250,1,N,0046,1","22000,1,9,N","011265,1,N,1","+0190,1","+0140,1","99999,9","02,5,+00600,1,99,9",,,,"02,99,1,99,9,99,9,99999,9,99,9,99,9","10149,1,99999,9",,,,,"MET055METAR EGUY 220850Z 25009KT 9999 FEW020 19/14 Q1015 BLU;",
"03566099999","2010-08-22T09:50:00","4","52.357167","-0.107833","41.14","WYTON, UK","FM-15","EGUY ","V020","260,1,N,0041,1","22000,1,9,N","011265,1,N,1","+0200,1","+0120,1","99999,9","02,5,+00900,1,99,9",,,,"02,99,1,99,9,99,9,99999,9,99,9,99,9","10149,1,99999,9",,,,,"MET055METAR EGUY 220950Z 26008KT 9999 FEW030 20/12 Q1015 BLU;",
"03566099999","2010-08-22T10:50:00","4","52.357167","-0.107833","41.14","WYTON, UK","FM-15","EGUY ","V020","280,1,N,0046,1","22000,1,9,N","011265,1,N,1","+0210,1","+0120,1","99999,9","02,5,+01050,1,99,9",,,,"02,99,1,99,9,99,9,99999,9,99,9,99,9","10139,1,99999,9",,,,,"MET055METAR EGUY 221050Z 28009KT 9999 FEW035 21/12 Q1014 BLU;",
"03566099999","2010-08-22T11:50:00","4","52.357167","-0.107833","41.14","WYTON, UK","FM-15","EGUY ","V020","210,1,N,0026,1","99999,9,C,N","011265,1,N,1","+0210,1","+0110,1","99999,9","02,5,+01200,1,99,9","04,5,+03000,1,99,9",,,"04,99,1,99,9,99,9,99999,9,99,9,99,9","10139,1,99999,9",,,,,"MET062METAR EGUY 221150Z 21005KT 9999 FEW040 SCT100 21/11 Q1014 BLU;","P01 030003SCOCIG"
"03566099999","2010-08-22T12:50:00","4","52.357167","-0.107833","41.14","WYTON, UK","FM-15","EGUY ","V020","220,1,N,0072,1","99999,9,C,N","011265,1,N,1","+0220,1","+0100,1","99999,9","02,5,+01350,1,99,9","04,5,+03000,1,99,9",,,"04,99,1,99,9,99,9,99999,9,99,9,99,9","10129,1,99999,9",,,,,"MET062METAR EGUY 221250Z 22014KT 9999 FEW045 SCT100 22/10 Q1013 BLU;","P01 030003SCOCIG"
"03566099999","2010-08-22T13:50:00","4","52.357167","-0.107833","41.14","WYTON, UK","FM-15","EGUY ","V020","240,1,N,0051,1","22000,1,9,N","011265,1,N,1","+0230,1","+0100,1","99999,9","02,5,+01350,1,99,9",,,,"02,99,1,99,9,99,9,99999,9,99,9,99,9","10129,1,99999,9",,,,,"MET055METAR EGUY 221350Z 24010KT 9999 FEW045 23/10 Q1013 BLU;",
"03566099999","2010-08-23T06:50:00","4","52.357167","-0.107833","41.14","WYTON, UK","FM-15","EGUY ","V020","330,1,N,0093,1","00210,1,C,N","009000,1,N,1","+0160,1","+0160,1","99999,9","07,5,+00210,1,99,9",,,,"07,99,1,99,9,99,9,99999,9,99,9,99,9","09939,1,99999,9","61,1",,,,"MET059METAR EGUY 230650Z 33018KT 9000 -RA BKN007 16/16 Q0994 GRN;",
"03566099999","2010-08-23T07:50:00","4","52.357167","-0.107833","41.14","WYTON, UK","FM-15","EGUY ","V020","300,1,N,0093,1","00270,1,C,N","011265,1,N,1","+0160,1","+0160,1","99999,9","02,5,+00180,1,99,9","04,5,+00270,1,99,9","07,5,+02700,1,99,9",,"07,99,1,99,9,99,9,99999,9,99,9,99,9","09959,1,99999,9",,,,,"MET069METAR EGUY 230750Z 30018KT 9999 FEW006 SCT009 BKN090 16/16 Q0996 GRN;",
"03566099999","2010-08-23T08:50:00","4","52.357167","-0.107833","41.14","WYTON, UK","FM-15","EGUY ","V020","310,1,N,0093,1","99999,9,C,N","011265,1,N,1","+0170,1","+0150,1","99999,9","02,5,+00210,1,99,9","04,5,+00270,1,99,9",,,"04,99,1,99,9,99,9,99999,9,99,9,99,9","09970,1,99999,9",,,,,"MET062METAR EGUY 230850Z 31018KT 9999 FEW007 SCT009 17/15 Q0997 GRN;","P01 002703SCOCIG"
"03566099999","2010-08-23T09:50:00","4","52.357167","-0.107833","41.14","WYTON, UK","FM-15","EGUY ","V020","290,1,N,0093,1","99999,9,C,N","011265,1,N,1","+0170,1","+0140,1","99999,9","02,5,+00210,1,99,9","04,5,+00270,1,99,9",,,"04,99,1,99,9,99,9,99999,9,99,9,99,9","09980,1,99999,9",,,,,"MET062METAR EGUY 230950Z 29018KT 9999 FEW007 SCT009 17/14 Q0998 GRN;","P01 002703SCOCIG"
"03566099999","2010-08-23T10:50:00","4","52.357167","-0.107833","41.14","WYTON, UK","FM-15","EGUY ","V020","260,1,N,0093,1","99999,9,C,N","011265,1,N,1","+0190,1","+0140,1","99999,9","02,5,+00300,1,99,9","04,5,+00450,1,99,9",,,"04,99,1,99,9,99,9,99999,9,99,9,99,9","09980,1,99999,9",,,,,"MET062METAR EGUY 231050Z 26018KT 9999 FEW010 SCT015 19/14 Q0998 WHT;","P01 004503SCOCIG"
"03566099999","2010-08-23T11:50:00","4","52.357167","-0.107833","41.14","WYTON, UK","FM-15","EGUY ","V020","220,1,N,0093,1","99999,9,C,N","011265,1,N,1","+0190,1","+0150,1","99999,9","02,5,+00450,1,99,9","04,5,+00600,1,99,9","04,5,+00900,1,99,9",,"04,99,1,99,9,99,9,99999,9,99,9,99,9","09980,1,99999,9",,,,,"MET069METAR EGUY 231150Z 22018KT 9999 FEW015 SCT020 SCT030 19/15 Q0998 WHT;","P01 006003SCOCIG"
"03566099999","2010-08-23T12:50:00","4","52.357167","-0.107833","41.14","WYTON, UK","FM-15","EGUY ","V020","210,1,N,0087,1","00720,1,C,N","011265,1,N,1","+0200,1","+0140,1","99999,9","07,5,+00720,1,99,9",,,,"07,99,1,99,9,99,9,99999,9,99,9,99,9","09980,1,99999,9",,,,,"MET055METAR EGUY 231250Z 21017KT 9999 BKN024 20/14 Q0998 WHT;",
"03566099999","2010-08-23T13:50:00","4","52.357167","-0.107833","41.14","WYTON, UK","FM-15","EGUY ","V020","200,1,N,0067,1","01350,1,C,N","007000,1,N,1","+0190,1","+0140,1","99999,9","04,5,+00750,1,99,9","07,5,+01350,1,99,9",,,"07,99,1,99,9,99,9,99999,9,99,9,99,9","09970,1,99999,9","81,1",,,,"MET067METAR EGUY 231350Z 20013KT 7000 SHRA SCT025 BKN045 19/14 Q0997 BLU;",
"03566099999","2010-08-23T14:50:00","4","52.357167","-0.107833","41.14","WYTON, UK","FM-15","EGUY ","V020","180,1,N,0046,1","01020,1,C,N","011265,1,N,1","+0170,1","+0160,1","99999,9","02,5,+00750,1,09,1","07,5,+01020,1,99,9","07,5,+01500,1,99,9",,"07,99,1,99,9,99,9,99999,9,99,9,99,9","09959,1,99999,9","63,1",,,,"MET080METAR EGUY 231450Z 18009KT 9999 6000W RA FEW025CB BKN034 BKN050 17/16 Q0996 WHT;",
"03566099999","2010-08-24T06:50:00","4","52.357167","-0.107833","41.14","WYTON, UK","FM-15","EGUY ","V020","240,1,N,0082,1","99999,9,9,Y","009900,1,N,1","+0120,1","+0090,1","99999,9",,,,,,"10051,1,99999,9",,,,,"MET049METAR EGUY 240650Z 24016KT CAVOK 12/09 Q1005 BLU;",
"03566099999","2010-08-24T07:50:00","4","52.357167","-0.107833","41.14","WYTON, UK","FM-15","EGUY ","V020","240,1,N,0108,1","22000,1,9,N","011265,1,N,1","+0140,1","+0090,1","99999,9","02,5,+00600,1,99,9",,,,"02,99,1,99,9,99,9,99999,9,99,9,99,9","10061,1,99999,9",,,,"0159,1","MET058METAR EGUY 240750Z 24021G31KT 9999 FEW020 14/09 Q1006 BLU;",
"03566099999","2010-08-24T08:50:00","4","52.357167","-0.107833","41.14","WYTON, UK","FM-15","EGUY ","V020","240,1,N,0108,1","22000,1,9,N","011265,1,N,1","+0150,1","+0090,1","99999,9","02,5,+00600,1,99,9",,,,"02,99,1,99,9,99,9,99999,9,99,9,99,9","10061,1,99999,9",,,,"0159,1","MET058METAR EGUY 240850Z 24021G31KT 9999 FEW020 15/09 Q1006 BLU;",
"03566099999","2010-08-24T09:50:00","4","52.357167","-0.107833","41.14","WYTON, UK","FM-15","EGUY ","V020","240,1,N,0103,1","00750,1,C,N","011265,1,N,1","+0170,1","+0090,1","99999,9","07,5,+00750,1,99,9",,,,"07,99,1,99,9,99,9,99999,9,99,9,99,9","10061,1,99999,9",,,,"0154,1","MET058METAR EGUY 240950Z 24020G30KT 9999 BKN025 17/09 Q1006 BLU;",
"03566099999","2010-08-24T10:50:00","4","52.357167","-0.107833","41.14","WYTON, UK","FM-15","EGUY ","V020","250,1,N,0118,1","00900,1,C,N","011265,1,N,1","+0180,1","+0080,1","99999,9","07,5,+00900,1,99,9",,,,"07,99,1,99,9,99,9,99999,9,99,9,99,9","10061,1,99999,9",,,,"0170,1","MET058METAR EGUY 241050Z 25023G33KT 9999 BKN030 18/08 Q1006 BLU;",
"03566099999","2010-08-24T11:50:00","4","52.357167","-0.107833","41.14","WYTON, UK","FM-15","EGUY ","V020","240,1,N,0134,1","22000,1,9,N","011265,1,N,1","+0170,1","+0100,1","99999,9","02,5,+00900,1,02,1",,,,"02,99,1,99,9,99,9,99999,9,99,9,99,9","10061,1,99999,9","16,1",,,"0226,1","MET066METAR EGUY 241150Z 24026G44KT 9999 VCSH FEW030TCU 17/10 Q1006 BLU;",
"03566099999","2010-08-24T12:50:00","4","52.357167","-0.107833","41.14","WYTON, UK","FM-15","EGUY ","V020","250,1,N,0149,1","00900,1,C,N","011265,1,N,1","+0190,1","+0060,1","99999,9","07,5,+00900,1,99,9",,,,"07,99,1,99,9,99,9,99999,9,99,9,99,9","10061,1,99999,9",,,,"0201,1","MET058METAR EGUY 241250Z 25029G39KT 9999 BKN030 19/06 Q1006 BLU;",
"03566099999","2010-08-24T13:50:00","4","52.357167","-0.107833","41.14","WYTON, UK","FM-15","EGUY ","V020","240,1,N,0134,1","00900,1,C,N","011265,1,N,1","+0190,1","+0060,1","99999,9","07,5,+00900,1,99,9",,,,"07,99,1,99,9,99,9,99999,9,99,9,99,9","10061,1,99999,9",,,,"0216,1","MET058METAR EGUY 241350Z 24026G42KT 9999 BKN030 19/06 Q1006 BLU;",
"03566099999","2010-08-25T06:50:00","4","52.357167","-0.107833","41.14","WYTON, UK","FM-15","EGUY ","V020","240,1,N,0041,1","99999,9,9,Y","009900,1,N,1","+0120,1","+0110,1","99999,9",,,,,,"10149,1,99999,9",,,,,"MET049METAR EGUY 250650Z 24008KT CAVOK 12/11 Q1015 BLU;",
"03566099999","2010-08-25T07:50:00","4","52.357167","-0.107833","41.14","WYTON, UK","FM-15","EGUY ","V020","220,1,N,0031,1","99999,9,9,Y","009900,1,N,1","+0130,1","+0120,1","99999,9",,,,,,"10149,1,99999,9",,,,,"MET049METAR EGUY 250750Z 22006KT CAVOK 13/12 Q1015 BLU;",
"03566099999","2010-08-25T08:50:00","4","52.357167","-0.107833","41.14","WYTON, UK","FM-15","EGUY ","V020","999,9,V,0010,1","22000,1,9,N","011265,1,N,1","+0150,1","+0120,1","99999,9","02,5,+00360,1,99,9",,,,"02,99,1,99,9,99,9,99999,9,99,9,99,9","10149,1,99999,9",,,,,"MET055METAR EGUY 250850Z VRB02KT 9999 FEW012 15/12 Q1015 BLU;",
"03566099999","2010-08-25T09:50:00","4","52.357167","-0.107833","41.14","WYTON, UK","FM-15","EGUY ","V020","210,1,N,0031,1","07500,1,C,N","011265,1,N,1","+0160,1","+0120,1","99999,9","02,5,+00480,1,99,9","07,5,+07500,1,99,9",,,"07,99,1,99,9,99,9,99999,9,99,9,99,9","10149,1,99999,9",,,,,"MET062METAR EGUY 250950Z 21006KT 9999 FEW016 BKN250 16/12 Q1015 BLU;",
"03566099999","2010-08-25T10:50:00","4","52.357167","-0.107833","41.14","WYTON, UK","FM-15","EGUY ","V020","230,1,N,0021,1","04200,1,C,N","011265,1,N,1","+0170,1","+0110,1","99999,9","02,5,+00600,1,99,9","04,5,+04200,1,99,9","07,5,+07500,1,99,9",,"07,99,1,99,9,99,9,99999,9,99,9,99,9","10149,1,99999,9",,,,,"MET069METAR EGUY 251050Z 23004KT 9999 FEW020 SCT140 BKN250 17/11 Q1015 BLU;",
"03566099999","2010-08-25T11:50:00","4","52.357167","-0.107833","41.14","WYTON, UK","FM-15","EGUY ","V020","200,1,N,0041,1","00600,1,C,N","011265,1,N,1","+0170,1","+0120,1","99999,9","02,5,+00420,1,99,9","04,5,+00600,1,99,9","07,5,+04500,1,99,9",,"07,99,1,99,9,99,9,99999,9,99,9,99,9","10139,1,99999,9",,,,,"MET069METAR EGUY 251150Z 20008KT 9999 FEW014 SCT020 BKN150 17/12 Q1014 WHT;",
"03566099999","2010-08-25T12:50:00","4","52.357167","-0.107833","41.14","WYTON, UK","FM-15","EGUY ","V020","260,1,N,0031,1","04500,1,C,N","011265,1,N,1","+0170,1","+0110,1","99999,9","02,5,+00750,1,99,9","07,5,+04500,1,99,9",,,"07,99,1,99,9,99,9,99999,9,99,9,99,9","10139,1,99999,9",,,,,"MET062METAR EGUY 251250Z 26006KT 9999 FEW025 BKN150 17/11 Q1014 BLU;",
"03566099999","2010-08-25T13:50:00","4","52.357167","-0.107833","41.14","WYTON, UK","FM-15","EGUY ","V020","230,1,N,0021,1","04500,1,C,N","011265,1,N,1","+0170,1","+0120,1","99999,9","02,5,+00780,1,99,9","07,5,+04500,1,99,9",,,"07,99,1,99,9,99,9,99999,9,99,9,99,9","10139,1,99999,9",,,,,"MET062METAR EGUY 251350Z 23004KT 9999 FEW026 BKN150 17/12 Q1014 BLU;",
"03566099999","2010-08-25T14:50:00","4","52.357167","-0.107833","41.14","WYTON, UK","FM-15","EGUY ","V020","999,9,9,9999,9","01800,5,9,N","009000,1,N,1","+0150,1","+0130,1","99999,9","02,5,+00300,5,99,9","08,5,+01800,5,99,9",,,,"10140,1,99999,9",,,,,"MET070METAR EGUY 251450Z 2205KT 9000 RA FEW010 SCT00 OVC060 15/13 Q1014 BLU;",
"03566099999","2010-08-26T06:50:00","4","52.357167","-0.107833","41.14","WYTON, UK","FM-15","EGUY ","V020","040,1,N,0051,1","00090,1,C,N","004000,1,N,1","+0140,1","+0140,1","99999,9","08,5,+00090,1,99,9",,,,"08,99,1,99,9,99,9,99999,9,99,9,99,9","10051,1,99999,9","10,1","61,1",,,"MET063METAR EGUY 260650Z 04010KT 4000 -RA BR OVC003 14/14 Q1005 YLO2;",
"03566099999","2010-08-26T07:50:00","4","52.357167","-0.107833","41.14","WYTON, UK","FM-15","EGUY ","V020","030,1,N,0051,1","00090,1,C,N","003500,1,N,1","+0140,1","+0140,1","99999,9","08,5,+00090,1,99,9",,,,"08,99,1,99,9,99,9,99999,9,99,9,99,9","10051,1,99999,9","10,1","63,1",,,"MET062METAR EGUY 260750Z 03010KT 3500 RA BR OVC003 14/14 Q1005 YLO2;",
"03566099999","2010-08-26T08:50:00","4","52.357167","-0.107833","41.14","WYTON, UK","FM-15","EGUY ","V020","050,1,N,0062,1","00150,1,C,N","003500,1,N,1","+0150,1","+0150,1","99999,9","04,5,+00090,1,99,9","08,5,+00150,1,99,9",,,"08,99,1,99,9,99,9,99999,9,99,9,99,9","10041,1,99999,9","10,1","63,1",,,"MET069METAR EGUY 260850Z 05012KT 3500 RA BR SCT003 OVC005 15/15 Q1004 YLO2;",
"03566099999","2010-08-26T09:50:00","4","52.357167","-0.107833","41.14","WYTON, UK","FM-15","EGUY ","V020","030,1,N,0051,1","00090,1,C,N","003000,1,N,1","+0150,1","+0150,1","99999,9","07,5,+00090,1,99,9","08,5,+00150,1,99,9",,,"08,99,1,99,9,99,9,99999,9,99,9,99,9","10051,1,99999,9","10,1","63,1",,,"MET069METAR EGUY 260950Z 03010KT 3000 RA BR BKN003 OVC005 15/15 Q1005 YLO2;",
"03566099999","2010-08-26T10:50:00","4","52.357167","-0.107833","41.14","WYTON, UK","FM-15","EGUY ","V020","040,1,N,0077,1","00120,1,C,N","003800,1,N,1","+0150,1","+0150,1","99999,9","04,5,+00090,1,99,9","08,5,+00120,1,99,9",,,"08,99,1,99,9,99,9,99999,9,99,9,99,9","10051,1,99999,9","10,1","51,1","61,1",,"MET072METAR EGUY 261050Z 04015KT 3800 -RADZ BR SCT003 OVC004 15/15 Q1005 YLO2;",
"03566099999","2010-08-26T11:50:00","4","52.357167","-0.107833","41.14","WYTON, UK","FM-15","EGUY ","V020","040,1,N,0072,1","00180,1,C,N","004000,1,N,1","+0150,1","+0150,1","99999,9","04,5,+00150,1,99,9","08,5,+00180,1,99,9",,,"08,99,1,99,9,99,9,99999,9,99,9,99,9","10051,1,99999,9","10,1","53,1",,,"MET069METAR EGUY 261150Z 04014KT 4000 DZ BR SCT005 OVC006 15/15 Q1005 YLO1;",
"03566099999","2010-08-27T06:50:00","4","52.357167","-0.107833","41.14","WYTON, UK","FM-15","EGUY ","V020","350,1,N,0051,1","03000,1,C,N","011265,1,N,1","+0110,1","+0110,1","99999,9","02,5,+01200,1,99,9","04,5,+03000,1,99,9","07,5,+06000,1,99,9",,"07,99,1,99,9,99,9,99999,9,99,9,99,9","10081,1,99999,9","61,1",,,,"MET073METAR EGUY 270650Z 35010KT 9999 -RA FEW040 SCT100 BKN200 11/11 Q1008 BLU;",
"03566099999","2010-08-27T07:50:00","4","52.357167","-0.107833","41.14","WYTON, UK","FM-15","EGUY ","V020","360,1,N,0051,1","03300,1,C,N","011265,1,N,1","+0120,1","+0110,1","99999,9","02,5,+01200,1,99,9","04,5,+03300,1,99,9","07,5,+06000,1,99,9",,"07,99,1,99,9,99,9,99999,9,99,9,99,9","10091,1,99999,9","61,1",,,,"MET073METAR EGUY 270750Z 36010KT 9999 -RA FEW040 SCT110 BKN200 12/11 Q1009 BLU;",
"03566099999","2010-08-27T08:50:00","4","52.357167","-0.107833","41.14","WYTON, UK","FM-15","EGUY ","V020","360,1,N,0062,1","01470,1,C,N","011265,1,N,1","+0130,1","+0110,1","99999,9","02,5,+00300,1,99,9","04,5,+01470,1,99,9","07,5,+03300,1,99,9",,"07,99,1,99,9,99,9,99999,9,99,9,99,9","10091,1,99999,9",,,,,"MET069METAR EGUY 270850Z 36012KT 9999 FEW010 SCT049 BKN110 13/11 Q1009 BLU;",
"03566099999","2010-08-27T09:50:00","4","52.357167","-0.107833","41.14","WYTON, UK","FM-15","EGUY ","V020","360,1,N,0082,1","99999,9,C,N","011265,1,N,1","+0150,1","+0120,1","99999,9","02,5,+00360,1,99,9","04,5,+01440,1,99,9",,,"04,99,1,99,9,99,9,99999,9,99,9,99,9","10102,1,99999,9",,,,,"MET062METAR EGUY 270950Z 36016KT 9999 FEW012 SCT048 15/12 Q1010 BLU;","P01 014403SCOCIG"
"03566099999","2010-08-27T10:50:00","4","52.357167","-0.107833","41.14","WYTON, UK","FM-15","EGUY ","V020","020,1,N,0077,1","00660,1,C,N","011265,1,N,1","+0160,1","+0110,1","99999,9","02,5,+00450,1,99,9","04,5,+00660,1,99,9","07,5,+01500,1,99,9",,"07,99,1,99,9,99,9,99999,9,99,9,99,9","10108,1,99999,9",,,,,"MET069METAR EGUY 271050Z 02015KT 9999 FEW015 SCT022 BKN050 16/11 Q1011 WHT;",
"03566099999","2010-08-27T11:50:00","4","52.357167","-0.107833","41.14","WYTON, UK","FM-15","EGUY ","V020","360,1,N,0072,1","99999,9,C,N","011265,1,N,1","+0170,1","+0090,1","99999,9","02,5,+00660,1,99,9","04,5,+00900,1,99,9",,,"04,99,1,99,9,99,9,99999,9,99,9,99,9","10108,1,99999,9",,,,,"MET062METAR EGUY 271150Z 36014KT 9999 FEW022 SCT030 17/09 Q1011 BLU;","P01 009003SCOCIG"
"03566099999","2010-08-27T12:50:00","4","52.357167","-0.107833","41.14","WYTON, UK","FM-15","EGUY ","V020","360,1,N,0062,1","00960,1,C,N","011265,1,N,1","+0170,1","+0090,1","99999,9","02,5,+00750,1,99,9","04,5,+00960,1,99,9","07,5,+06000,1,99,9",,"07,99,1,99,9,99,9,99999,9,99,9,99,9","10119,1,99999,9",,,,,"MET069METAR EGUY 271250Z 36012KT 9999 FEW025 SCT032 BKN200 17/09 Q1012 BLU;",
"03566099999","2010-08-27T13:50:00","4","52.357167","-0.107833","41.14","WYTON, UK","FM-15","EGUY ","V020","010,1,N,0051,1","99999,9,C,N","011265,1,N,1","+0170,1","+0080,1","99999,9","02,5,+01080,1,99,9","04,5,+01500,1,99,9",,,"04,99,1,99,9,99,9,99999,9,99,9,99,9","10129,1,99999,9",,,,,"MET062METAR EGUY 271350Z 01010KT 9999 FEW036 SCT050 17/08 Q1013 BLU;","P01 015003SCOCIG"
"03566099999","2010-08-27T14:50:00","4","52.357167","-0.107833","41.14","WYTON, UK","FM-15","EGUY ","V020","350,1,N,0041,1","99999,9,C,N","011265,1,N,1","+0170,1","+0080,1","99999,9","04,5,+01050,1,99,9","04,5,+01800,1,99,9",,,"04,99,1,99,9,99,9,99999,9,99,9,99,9","10129,1,99999,9",,,,,"MET062METAR EGUY 271450Z 35008KT 9999 SCT035 SCT060 17/08 Q1013 BLU;","P01 018003SCOCIG"
"03566099999","2010-08-31T06:50:00","4","52.357167","-0.107833","41.14","WYTON, UK","FM-15","EGUY ","V020","999,9,9,9999,9","07500,5,9,N","011265,1,N,1","+0100,1","+0080,1","99999,9","02,5,+01200,5,99,9","04,5,+07500,5,99,9",,,,"10270,1,99999,9",,,,,"MET061METAR EGUY 310650Z 3304KT 9999 FEW040 SCT250 10/08 Q1027 BLU;",
"03566099999","2010-08-31T07:50:00","4","52.357167","-0.107833","41.14","WYTON, UK","FM-15","EGUY ","V020","330,1,N,0015,1","99999,9,9,Y","009900,1,N,1","+0120,1","+0100,1","99999,9",,,,,,"10271,1,99999,9",,,,,"MET049METAR EGUY 310750Z 33003KT CAVOK 12/10 Q1027 BLU;",
"03566099999","2010-08-31T08:50:00","4","52.357167","-0.107833","41.14","WYTON, UK","FM-15","EGUY ","V020","290,1,N,0021,1","99999,9,9,Y","009900,1,N,1","+0140,1","+0090,1","99999,9",,,,,,"10271,1,99999,9",,,,,"MET049METAR EGUY 310850Z 29004KT CAVOK 14/09 Q1027 BLU;",
"03566099999","2010-08-31T09:50:00","4","52.357167","-0.107833","41.14","WYTON, UK","FM-15","EGUY ","V020","280,1,N,0026,1","22000,1,9,N","011265,1,N,1","+0150,1","+0080,1","99999,9","02,5,+00750,1,99,9",,,,"02,99,1,99,9,99,9,99999,9,99,9,99,9","10271,1,99999,9",,,,,"MET055METAR EGUY 310950Z 28005KT 9999 FEW025 15/08 Q1027 BLU;",
"03566099999","2010-08-31T10:50:00","4","52.357167","-0.107833","41.14","WYTON, UK","FM-15","EGUY ","V020","320,1,N,0036,1","22000,1,9,N","011265,1,N,1","+0160,1","+0080,1","99999,9","02,5,+00900,1,99,9",,,,"02,99,1,99,9,99,9,99999,9,99,9,99,9","10271,1,99999,9",,,,,"MET055METAR EGUY 311050Z 32007KT 9999 FEW030 16/08 Q1027 BLU;",
"03566099999","2010-08-31T11:50:00","4","52.357167","-0.107833","41.14","WYTON, UK","FM-15","EGUY ","V020","330,1,N,0021,1","22000,1,9,N","011265,1,N,1","+0170,1","+0080,1","99999,9","04,5,+00900,1,99,9",,,,"04,99,1,99,9,99,9,99999,9,99,9,99,9","10271,1,99999,9",,,,,"MET055METAR EGUY 311150Z 33004KT 9999 SCT030 17/08 Q1027 BLU;",
"03566099999","2010-08-31T12:50:00","4","52.357167","-0.107833","41.14","WYTON, UK","FM-15","EGUY ","V020","050,1,N,0026,1","22000,1,9,N","011265,1,N,1","+0180,1","+0080,1","99999,9","02,5,+01200,1,99,9",,,,"02,99,1,99,9,99,9,99999,9,99,9,99,9","10261,1,99999,9",,,,,"MET055METAR EGUY 311250Z 05005KT 9999 FEW040 18/08 Q1026 BLU;",
"03566099999","2010-08-31T13:50:00","4","52.357167","-0.107833","41.14","WYTON, UK","FM-15","EGUY ","V020","030,1,N,0015,1","22000,1,9,N","011265,1,N,1","+0190,1","+0080,1","99999,9","02,5,+01200,1,99,9",,,,"02,99,1,99,9,99,9,99999,9,99,9,99,9","10261,1,99999,9",,,,,"MET055METAR EGUY 311350Z 03003KT 9999 FEW040 19/08 Q1026 BLU;",
"03566099999","2010-08-31T14:50:00","4","52.357167","-0.107833","41.14","WYTON, UK","FM-15","EGUY ","V020","050,1,N,0015,1","22000,1,9,N","011265,1,N,1","+0180,1","+0080,1","99999,9","02,5,+01350,1,99,9",,,,"02,99,1,99,9,99,9,99999,9,99,9,99,9","10251,1,99999,9",,,,,"MET055METAR EGUY 311450Z 05003KT 9999 FEW045 18/08 Q1025 BLU;",
"03566099999","2010-09-01T06:50:00","4","52.357167","-0.107833","41.14","WYTON, UK","FM-15","EGUY ","V020","190,1,N,0010,1","99999,9,9,Y","009900,1,N,1","+0100,1","+0090,1","99999,9",,,,,,"10220,1,99999,9",,,,,"MET049METAR EGUY 010650Z 19002KT CAVOK 10/09 Q1022 BLU;",
"03566099999","2010-09-01T07:50:00","4","52.357167","-0.107833","41.14","WYTON, UK","FM-15","EGUY ","V020","220,1,N,0010,1","99999,9,9,Y","009900,1,N,1","+0130,1","+0100,1","99999,9",,,,,,"10230,1,99999,9",,,,,"MET049METAR EGUY 010750Z 22002KT CAVOK 13/10 Q1023 BLU;",
"03566099999","2010-09-01T08:50:00","4","52.357167","-0.107833","41.14","WYTON, UK","FM-15","EGUY ","V020","230,1,N,0015,1","99999,9,9,Y","009900,1,N,1","+0140,1","+0100,1","99999,9",,,,,,"10230,1,99999,9",,,,,"MET049METAR EGUY 010850Z 23003KT CAVOK 14/10 Q1023 BLU;",
"03566099999","2010-09-01T09:50:00","4","52.357167","-0.107833","41.14","WYTON, UK","FM-15","EGUY ","V020","999,9,V,0005,1","99999,9,9,Y","009900,1,N,1","+0170,1","+0100,1","99999,9",,,,,,"10220,1,99999,9",,,,,"MET049METAR EGUY 010950Z VRB01KT CAVOK 17/10 Q1022 BLU;",
"03566099999","2010-09-01T10:50:00","4","52.357167","-0.107833","41.14","WYTON, UK","FM-15","EGUY ","V020","999,9,V,0015,1","99999,9,9,Y","009900,1,N,1","+0190,1","+0090,1","99999,9",,,,,,"10220,1,99999,9",,,,,"MET049METAR EGUY 011050Z VRB03KT CAVOK 19/09 Q1022 BLU;",
"03566099999","2010-09-01T11:50:00","4","52.357167","-0.107833","41.14","WYTON, UK","FM-15","EGUY ","V020","999,9,V,0005,1","99999,9,9,Y","009900,1,N,1","+0190,1","+0090,1","99999,9",,,,,,"10220,1,99999,9",,,,,"MET049METAR EGUY 011150Z VRB01KT CAVOK 19/09 Q1022 BLU;",
"03566099999","2010-09-01T12:50:00","4","52.357167","-0.107833","41.14","WYTON, UK","FM-15","EGUY ","V020","999,9,V,0015,1","22000,1,9,N","011265,1,N,1","+0200,1","+0090,1","99999,9","02,5,+01200,1,99,9",,,,"02,99,1,99,9,99,9,99999,9,99,9,99,9","10220,1,99999,9",,,,,"MET055METAR EGUY 011250Z VRB03KT 9999 FEW040 20/09 Q1022 BLU;",
"03566099999","2010-09-01T13:50:00","4","52.357167","-0.107833","41.14","WYTON, UK","FM-15","EGUY ","V020","040,1,N,0021,1","22000,1,9,N","011265,1,N,1","+0210,1","+0080,1","99999,9","02,5,+01200,1,99,9",,,,"02,99,1,99,9,99,9,99999,9,99,9,99,9","10210,1,99999,9",,,,,"MET055METAR EGUY 011350Z 04004KT 9999 FEW040 21/08 Q1021 BLU;",
"03566099999","2010-09-01T14:50:00","4","52.357167","-0.107833","41.14","WYTON, UK","FM-15","EGUY ","V020","999,9,V,0015,1","22000,1,9,N","011265,1,N,1","+0210,1","+0080,1","99999,9","02,5,+01350,1,99,9",,,,"02,99,1,99,9,99,9,99999,9,99,9,99,9","10210,1,99999,9",,,,,"MET055METAR EGUY 011450Z VRB03KT 9999 FEW045 21/08 Q1021 BLU;",
"03566099999","2010-09-02T06:50:00","4","52.357167","-0.107833","41.14","WYTON, UK","FM-15","EGUY ","V020","030,1,N,0021,1","99999,9,C,N","004500,1,N,1","+0100,1","+0100,1","99999,9","02,5,+06000,1,99,9","04,5,+07500,1,99,9",,,"04,99,1,99,9,99,9,99999,9,99,9,99,9","10220,1,99999,9","10,1",,,,"MET065METAR EGUY 020650Z 03004KT 4500 BR FEW200 SCT250 10/10 Q1022 GRN;","P01 075003SCOCIG"
"03566099999","2010-09-02T07:50:00","4","52.357167","-0.107833","41.14","WYTON, UK","FM-15","EGUY ","V020","040,1,N,0015,1","99999,9,C,N","006000,1,N,1","+0120,1","+0110,1","99999,9","02,5,+05100,1,99,9","04,5,+07500,1,99,9",,,"04,99,1,99,9,99,9,99999,9,99,9,99,9","10220,1,99999,9","05,1",,,,"MET065METAR EGUY 020750Z 04003KT 6000 HZ FEW170 SCT250 12/11 Q1022 WHT;","P01 075003SCOCIG"
"03566099999","2010-09-02T08:50:00","4","52.357167","-0.107833","41.14","WYTON, UK","FM-15","EGUY ","V020","080,1,N,0031,1","06000,1,C,N","008000,1,N,1","+0160,1","+0130,1","99999,9","02,5,+00360,1,99,9","04,5,+06000,1,99,9","07,5,+07500,1,99,9",,"07,99,1,99,9,99,9,99999,9,99,9,99,9","10220,1,99999,9","05,1",,,,"MET072METAR EGUY 020850Z 08006KT 8000 HZ FEW012 SCT200 BKN250 16/13 Q1022 BLU;",
"03566099999","2010-09-02T09:50:00","4","52.357167","-0.107833","41.14","WYTON, UK","FM-15","EGUY ","V020","060,1,N,0031,1","07500,1,C,N","011265,1,N,1","+0160,1","+0120,1","99999,9","02,5,+00480,1,99,9","07,5,+07500,1,99,9",,,"07,99,1,99,9,99,9,99999,9,99,9,99,9","10220,1,99999,9",,,,,"MET062METAR EGUY 020950Z 06006KT 9999 FEW016 BKN250 16/12 Q1022 BLU;",
"03566099999","2010-09-02T10:50:00","4","52.357167","-0.107833","41.14","WYTON, UK","FM-15","EGUY ","V020","060,1,N,0041,1","07500,1,C,N","011265,1,N,1","+0170,1","+0110,1","99999,9","02,5,+00600,1,99,9","07,5,+07500,1,99,9",,,"07,99,1,99,9,99,9,99999,9,99,9,99,9","10220,1,99999,9",,,,,"MET062METAR EGUY 021050Z 06008KT 9999 FEW020 BKN250 17/11 Q1022 BLU;",
"03566099999","2010-09-02T11:50:00","4","52.357167","-0.107833","41.14","WYTON, UK","FM-15","EGUY ","V020","050,1,N,0051,1","07500,1,C,N","011265,1,N,1","+0180,1","+0110,1","99999,9","02,5,+00840,1,99,9","07,5,+07500,1,99,9",,,"07,99,1,99,9,99,9,99999,9,99,9,99,9","10220,1,99999,9",,,,,"MET062METAR EGUY 021150Z 05010KT 9999 FEW028 BKN250 18/11 Q1022 BLU;",
"03566099999","2010-09-02T12:50:00","4","52.357167","-0.107833","41.14","WYTON, UK","FM-15","EGUY ","V020","090,1,N,0031,1","99999,9,C,N","011265,1,N,1","+0180,1","+0100,1","99999,9","02,5,+00900,1,99,9","04,5,+07500,1,99,9",,,"04,99,1,99,9,99,9,99999,9,99,9,99,9","10220,1,99999,9",,,,,"MET062METAR EGUY 021250Z 09006KT 9999 FEW030 SCT250 18/10 Q1022 BLU;","P01 075003SCOCIG"
"03566099999","2010-09-02T13:50:00","4","52.357167","-0.107833","41.14","WYTON, UK","FM-15","EGUY ","V020","050,1,N,0041,1","22000,1,9,N","011265,1,N,1","+0190,1","+0110,1","99999,9","02,5,+00960,1,99,9",,,,"02,99,1,99,9,99,9,99999,9,99,9,99,9","10220,1,99999,9",,,,,"MET055METAR EGUY 021350Z 05008KT 9999 FEW032 19/11 Q1022 BLU;",
"03566099999","2010-09-03T06:50:00","4","52.357167","-0.107833","41.14","WYTON, UK","FM-15","EGUY ","V020","360,1,N,0015,1","22000,1,9,N","000500,1,N,1","+0090,1","+0090,1","99999,9",,,,,"00,99,1,99,9,99,9,99999,9,99,9,99,9","10230,1,99999,9","44,1",,,,"MET055METAR EGUY 030650Z 36003KT 0500 FG NSC 09/09 Q1023 RED;","Q01    003SCCGA1"
"03566099999","2010-09-03T07:50:00","4","52.357167","-0.107833","41.14","WYTON, UK","FM-15","EGUY ","V020","040,1,N,0021,1","22000,1,9,N","000400,1,N,1","+0110,1","+0110,1","99999,9","04,5,+00030,1,99,9",,,,"04,99,1,99,9,99,9,99999,9,99,9,99,9","10230,1,99999,9","44,1",,,,"MET058METAR EGUY 030750Z 04004KT 0400 FG SCT001 11/11 Q1023 RED;",
"03566099999","2010-09-03T08:25:00","4","52.357167","-0.107833","41.14","WYTON, UK","FM-15","EGUY ","V020","050,1,N,0015,1","22000,1,9,N","006000,1,N,1","+0120,1","+0120,1","99999,9","02,5,+00060,1,99,9",,,,"02,99,1,99,9,99,9,99999,9,99,9,99,9","10230,1,99999,9","10,1",,,,"MET058METAR EGUY 030825Z 05003KT 6000 BR FEW002 12/12 Q1023 WHT;",
"03566099999","2010-09-03T08:50:00","4","52.357167","-0.107833","41.14","WYTON, UK","FM-15","EGUY ","V020","060,1,N,0021,1","22000,1,9,N","011265,1,N,1","+0130,1","+9999,9","99999,9","02,5,+00090,1,99,9",,,,"02,99,1,99,9,99,9,99999,9,99,9,99,9","10230,1,99999,9",,,,,"MET055METAR EGUY 030850Z 06004KT 9999 FEW003 13/// Q1023 BLU;",
"03566099999","2010-09-03T09:50:00","4","52.357167","-0.107833","41.14","WYTON, UK","FM-15","EGUY ","V020","070,1,N,0031,1","00390,1,C,N","011265,1,N,1","+0150,1","+0130,1","99999,9","02,5,+00240,1,99,9","07,5,+00390,1,99,9",,,"07,99,1,99,9,99,9,99999,9,99,9,99,9","10230,1,99999,9",,,,,"MET062METAR EGUY 030950Z 07006KT 9999 FEW008 BKN013 15/13 Q1023 GRN;",
"03566099999","2010-09-03T10:50:00","4","52.357167","-0.107833","41.14","WYTON, UK","FM-15","EGUY ","V020","070,1,N,0026,1","00750,1,C,N","011265,1,N,1","+0170,1","+0110,1","99999,9","02,5,+00450,1,99,9","07,5,+00750,1,99,9",,,"07,99,1,99,9,99,9,99999,9,99,9,99,9","10230,1,99999,9",,,,,"MET062METAR EGUY 031050Z 07005KT 9999 FEW015 BKN025 17/11 Q1023 BLU;",
"03566099999","2010-09-03T11:50:00","4","52.357167","-0.107833","41.14","WYTON, UK","FM-15","EGUY ","V020","070,1,N,0021,1","22000,1,9,N","011265,1,N,1","+0180,1","+0100,1","99999,9","04,5,+00960,1,99,9",,,,"04,99,1,99,9,99,9,99999,9,99,9,99,9","10230,1,99999,9",,,,,"MET055METAR EGUY 031150Z 07004KT 9999 SCT032 18/10 Q1023 BLU;",
"03566099999","2010-09-03T12:50:00","4","52.357167","-0.107833","41.14","WYTON, UK","FM-15","EGUY ","V020","040,1,N,0021,1","22000,1,9,N","011265,1,N,1","+0200,1","+0080,1","99999,9","04,5,+01350,1,99,9",,,,"04,99,1,99,9,99,9,99999,9,99,9,99,9","10220,1,99999,9",,,,,"MET055METAR EGUY 031250Z 04004KT 9999 SCT045 20/08 Q1022 BLU;",
"03566099999","2010-09-03T14:50:00","4","52.357167","-0.107833","41.14","WYTON, UK","FM-15","EGUY ","V020","040,1,N,0036,1","22000,1,9,N","011265,1,N,1","+0200,1","+0100,1","99999,9","04,5,+01350,1,99,9",,,,"04,99,1,99,9,99,9,99999,9,99,9,99,9","10220,1,99999,9",,,,,"MET055METAR EGUY 031450Z 04007KT 9999 SCT045 20/10 Q1022 BLU;",
"03566099999","2010-09-04T07:50:00","4","52.357167","-0.107833","41.14","WYTON, UK","FM-15","EGUY ","V020","999,9,V,0010,1","07500,1,C,N","000600,1,N,1","+0100,1","+0100,1","99999,9","07,5,+07500,1,99,9",,,,"07,99,1,99,9,99,9,99999,9,99,9,99,9","10220,1,99999,9","44,1",,,,"MET058METAR EGUY 040750Z VRB02KT 0600 FG BKN250 10/10 Q1022 RED;",
"03566099999","2010-09-04T08:05:00","4","52.357167","-0.107833","41.14","WYTON, UK","FM-15","EGUY ","V020","999,9,V,0010,1","07500,1,C,N","003800,1,N,1","+0120,1","+0120,1","99999,9","02,5,+00060,1,99,9","07,5,+07500,1,99,9",,,"07,99,1,99,9,99,9,99999,9,99,9,99,9","10220,1,99999,9","10,1",,,,"MET065METAR EGUY 040805Z VRB02KT 3800 BR FEW002 BKN250 12/12 Q1022 GRN;",
"03566099999","2010-09-04T08:50:00","4","52.357167","-0.107833","41.14","WYTON, UK","FM-15","EGUY ","V020","100,1,N,0031,1","07500,1,C,N","011265,1,N,1","+0140,1","+0130,1","99999,9","02,5,+00060,1,99,9","07,5,+07500,1,99,9",,,"07,99,1,99,9,99,9,99999,9,99,9,99,9","10230,1,99999,9",,,,,"MET062METAR EGUY 040850Z 10006KT 9999 FEW002 BKN250 14/13 Q1023 BLU;",
"03566099999","2010-09-04T09:50:00","4","52.357167","-0.107833","41.14","WYTON, UK","FM-15","EGUY ","V020","110,1,N,0021,1","07500,1,C,N","011265,1,N,1","+0170,1","+0120,1","99999,9","04,5,+00450,1,99,9","07,5,+07500,1,99,9",,,"07,99,1,99,9,99,9,99999,9,99,9,99,9","10230,1,99999,9",,,,,"MET062METAR EGUY 040950Z 11004KT 9999 SCT015 BKN250 17/12 Q1023 WHT;",
"03566099999","2010-09-04T10:50:00","4","52.357167","-0.107833","41.14","WYTON, UK","FM-15","EGUY ","V020","130,1,N,0026,1","00750,1,C,N","011265,1,N,1","+0180,1","+0120,1","99999,9","02,5,+00600,1,99,9","07,5,+00750,1,99,9",,,"07,99,1,99,9,99,9,99999,9,99,9,99,9","10220,1,99999,9",,,,,"MET062METAR EGUY 041050Z 13005KT 9999 FEW020 BKN025 18/12 Q1022 BLU;",
"03566099999","2010-09-04T11:50:00","4","52.357167","-0.107833","41.14","WYTON, UK","FM-15","EGUY ","V020","100,1,N,0041,1","00960,1,C,N","011265,1,N,1","+0190,1","+0110,1","99999,9","02,5,+00750,1,99,9","07,5,+00960,1,99,9",,,"07,99,1,99,9,99,9,99999,9,99,9,99,9","10220,1,99999,9",,,,,"MET062METAR EGUY 041150Z 10008KT 9999 FEW025 BKN032 19/11 Q1022 BLU;",
"03566099999","2010-09-04T12:50:00","4","52.357167","-0.107833","41.14","WYTON, UK","FM-15","EGUY ","V020","120,1,N,0036,1","00900,1,C,N","011265,1,N,1","+0190,1","+0120,1","99999,9","07,5,+00900,1,99,9","07,5,+07500,1,99,9",,,"07,99,1,99,9,99,9,99999,9,99,9,99,9","10220,1,99999,9",,,,,"MET062METAR EGUY 041250Z 12007KT 9999 BKN030 BKN250 19/12 Q1022 BLU;",
"03566099999","2010-09-04T13:50:00","4","52.357167","-0.107833","41.14","WYTON, UK","FM-15","EGUY ","V020","090,1,N,0041,1","00960,1,C,N","011265,1,N,1","+0190,1","+0110,1","99999,9","07,5,+00960,1,99,9","07,5,+07500,1,99,9",,,"07,99,1,99,9,99,9,99999,9,99,9,99,9","10210,1,99999,9",,,,,"MET062METAR EGUY 041350Z 09008KT 9999 BKN032 BKN250 19/11 Q1021 BLU;",
"03566099999","2010-09-04T14:50:00","4","52.357167","-0.107833","41.14","WYTON, UK","FM-15","EGUY ","V020","140,1,N,0051,1","07500,1,C,N","011265,1,N,1","+0190,1","+0120,1","99999,9","02,5,+00900,1,99,9","07,5,+07500,1,99,9",,,"07,99,1,99,9,99,9,99999,9,99,9,99,9","10210,1,99999,9",,,,,"MET062METAR EGUY 041450Z 14010KT 9999 FEW030 BKN250 19/12 Q1021 BLU;",
"03566099999","2010-09-05T06:50:00","4","52.357167","-0.107833","41.14","WYTON, UK","FM-15","EGUY ","V020","999,9,9,9999,9","99999,9,9,Y","011265,1,N,1","+0130,1","+0110,1","99999,9",,,,,,"10210,1,99999,9",,,,,"MET053METAR EGUY 050650Z 1008KT 9999 CAVOK 13/11 Q1021 BLU;",
"03566099999","2010-09-05T07:50:00","4","52.357167","-0.107833","41.14","WYTON, UK","FM-15","EGUY ","V020","120,1,N,0051,1","99999,9,9,Y","009900,1,N,1","+0150,1","+0120,1","99999,9",,,,,,"10210,1,99999,9",,,,,"MET049METAR EGUY 050750Z 12010KT CAVOK 15/12 Q1021 BLU;",
"03566099999","2010-09-05T08:50:00","4","52.357167","-0.107833","41.14","WYTON, UK","FM-15","EGUY ","V020","130,1,N,0057,1","99999,9,C,N","011265,1,N,1","+0170,1","+0120,1","99999,9","02,5,+00600,1,99,9","04,5,+03000,1,99,9",,,"04,99,1,99,9,99,9,99999,9,99,9,99,9","10210,1,99999,9",,,,,"MET062METAR EGUY 050850Z 13011KT 9999 FEW020 SCT100 17/12 Q1021 BLU;","P01 030003SCOCIG"
"03566099999","2010-09-05T09:50:00","4","52.357167","-0.107833","41.14","WYTON, UK","FM-15","EGUY ","V020","130,1,N,0057,1","99999,9,C,N","011265,1,N,1","+0180,1","+0110,1","99999,9","02,5,+00900,1,99,9","04,5,+03000,1,99,9",,,"04,99,1,99,9,99,9,99999,9,99,9,99,9","10210,1,99999,9",,,,,"MET062METAR EGUY 050950Z 13011KT 9999 FEW030 SCT100 18/11 Q1021 BLU;","P01 030003SCOCIG"
"03566099999","2010-09-05T10:50:00","4","52.357167","-0.107833","41.14","WYTON, UK","FM-15","EGUY ","V020","120,1,N,0067,1","03000,1,C,N","011265,1,N,1","+0180,1","+0110,1","99999,9","02,5,+00900,1,99,9","07,5,+03000,1,99,9",,,"07,99,1,99,9,99,9,99999,9,99,9,99,9","10210,1,99999,9",,,,,"MET062METAR EGUY 051050Z 12013KT 9999 FEW030 BKN100 18/11 Q1021 BLU;",
"03566099999","2010-09-05T11:50:00","4","52.357167","-0.107833","41.14","WYTON, UK","FM-15","EGUY ","V020","110,1,N,0072,1","03000,1,C,N","011265,1,N,1","+0190,1","+0110,1","99999,9","02,5,+01050,1,99,9","07,5,+03000,1,99,9",,,"07,99,1,99,9,99,9,99999,9,99,9,99,9","10200,1,99999,9",,,,,"MET062METAR EGUY 051150Z 11014KT 9999 FEW035 BKN100 19/11 Q1020 BLU;",
"03566099999","2010-09-05T12:50:00","4","52.357167","-0.107833","41.14","WYTON, UK","FM-15","EGUY ","V020","140,1,N,0072,1","03000,1,C,N","011265,1,N,1","+0190,1","+0100,1","99999,9","02,5,+01050,1,99,9","07,5,+03000,1,99,9",,,"07,99,1,99,9,99,9,99999,9,99,9,99,9","10200,1,99999,9",,,,,"MET062METAR EGUY 051250Z 14014KT 9999 FEW035 BKN100 19/10 Q1020 BLU;",
"03566099999","2010-09-05T13:50:00","4","52.357167","-0.107833","41.14","WYTON, UK","FM-15","EGUY ","V020","110,1,N,0072,1","99999,9,9,Y","009900,1,N,1","+0190,1","+0100,1","99999,9",,,,,,"10190,1,99999,9",,,,,"MET049METAR EGUY 051350Z 11014KT CAVOK 19/10 Q1019 BLU;",
"03566099999","2010-09-05T14:50:00","4","52.357167","-0.107833","41.14","WYTON, UK","FM-15","EGUY ","V020","130,1,N,0077,1","99999,9,9,Y","009900,1,N,1","+0200,1","+0100,1","99999,9",,,,,,"10190,1,99999,9",,,,,"MET049METAR EGUY 051450Z 13015KT CAVOK 20/10 Q1019 BLU;",
"03566099999","2010-09-06T06:50:00","4","52.357167","-0.107833","41.14","WYTON, UK","FM-15","EGUY ","V020","100,1,N,0051,1","99999,9,9,Y","009900,1,N,1","+0140,1","+0120,1","99999,9",,,,,,"10129,1,99999,9",,,,,"MET049METAR EGUY 060650Z 10010KT CAVOK 14/12 Q1013 BLU;",
"03566099999","2010-09-06T07:50:00","4","52.357167","-0.107833","41.14","WYTON, UK","FM-15","EGUY ","V020","120,1,N,0057,1","99999,9,9,Y","009900,1,N,1","+0160,1","+0110,1","99999,9",,,,,,"10129,1,99999,9",,,,,"MET049METAR EGUY 060750Z 12011KT CAVOK 16/11 Q1013 BLU;",
"03566099999","2010-09-06T08:50:00","4","52.357167","-0.107833","41.14","WYTON, UK","FM-15","EGUY ","V020","110,1,N,0087,1","99999,9,9,Y","009900,1,N,1","+0180,1","+0110,1","99999,9",,,,,,"10119,1,99999,9",,,,,"MET049METAR EGUY 060850Z 11017KT CAVOK 18/11 Q1012 BLU;",
"03566099999","2010-09-06T09:50:00","4","52.357167","-0.107833","41.14","WYTON, UK","FM-15","EGUY ","V020","110,1,N,0087,1","99999,9,9,Y","009900,1,N,1","+0180,1","+0090,1","99999,9",,,,,,"10108,1,99999,9",,,,"0144,1","MET052METAR EGUY 060950Z 11017G28KT CAVOK 18/09 Q1011 BLU;",
"03566099999","2010-09-06T10:50:00","4","52.357167","-0.107833","41.14","WYTON, UK","FM-15","EGUY ","V020","120,1,N,0093,1","99999,9,9,Y","009900,1,N,1","+0180,1","+0100,1","99999,9",,,,,,"10108,1,99999,9",,,,"0149,1","MET052METAR EGUY 061050Z 12018G29KT CAVOK 18/10 Q1011 BLU;",
"03566099999","2010-09-06T11:50:00","4","52.357167","-0.107833","41.14","WYTON, UK","FM-15","EGUY ","V020","130,1,N,0113,1","99999,9,9,Y","009900,1,N,1","+0190,1","+0080,1","99999,9",,,,,,"10102,1,99999,9",,,,"0170,1","MET052METAR EGUY 061150Z 13022G33KT CAVOK 19/08 Q1010 BLU;",
"03566099999","2010-09-06T12:50:00","4","52.357167","-0.107833","41.14","WYTON, UK","FM-15","EGUY ","V020","120,1,N,0113,1","99999,9,9,Y","009900,1,N,1","+0190,1","+0080,1","99999,9",,,,,,"10081,1,99999,9",,,,,"MET049METAR EGUY 061250Z 12022KT CAVOK 19/08 Q1008 BLU;",
"03566099999","2010-09-06T13:50:00","4","52.357167","-0.107833","41.14","WYTON, UK","FM-15","EGUY ","V020","110,1,N,0103,1","99999,9,9,Y","009900,1,N,1","+0200,1","+0080,1","99999,9",,,,,,"10071,1,99999,9",,,,"0154,1","MET052METAR EGUY 061350Z 11020G30KT CAVOK 20/08 Q1007 BLU;",
"03566099999","2010-09-07T06:50:00","4","52.357167","-0.107833","41.14","WYTON, UK","FM-15","EGUY ","V020","230,1,N,0031,1","00240,1,C,N","011265,1,N,1","+0130,1","+0130,1","99999,9","07,5,+00240,1,99,9",,,,"07,99,1,99,9,99,9,99999,9,99,9,99,9","10000,1,99999,9",,,,,"MET055METAR EGUY 070650Z 23006KT 9999 BKN008 13/13 Q1000 GRN;",
"03566099999","2010-09-07T07:50:00","4","52.357167","-0.107833","41.14","WYTON, UK","FM-15","EGUY ","V020","230,1,N,0031,1","00300,1,C,N","011265,1,N,1","+0140,1","+0120,1","99999,9","07,5,+00300,1,99,9",,,,"07,99,1,99,9,99,9,99999,9,99,9,99,9","10000,1,99999,9",,,,,"MET055METAR EGUY 070750Z 23006KT 9999 BKN010 14/12 Q1000 GRN;",
"03566099999","2010-09-07T08:50:00","4","52.357167","-0.107833","41.14","WYTON, UK","FM-15","EGUY ","V020","200,1,N,0041,1","22000,1,9,N","011265,1,N,1","+0160,1","+0130,1","99999,9","04,5,+00360,1,99,9",,,,"04,99,1,99,9,99,9,99999,9,99,9,99,9","10000,1,99999,9",,,,,"MET055METAR EGUY 070850Z 20008KT 9999 SCT012 16/13 Q1000 GRN;",
"03566099999","2010-09-07T09:50:00","4","52.357167","-0.107833","41.14","WYTON, UK","FM-15","EGUY ","V020","180,1,N,0046,1","22000,1,9,N","011265,1,N,1","+0170,1","+0130,1","99999,9","04,5,+00450,1,99,9",,,,"04,99,1,99,9,99,9,99999,9,99,9,99,9","10010,1,99999,9",,,,,"MET055METAR EGUY 070950Z 18009KT 9999 SCT015 17/13 Q1001 WHT;",
"03566099999","2010-09-07T10:50:00","4","52.357167","-0.107833","41.14","WYTON, UK","FM-15","EGUY ","V020","180,1,N,0051,1","22000,1,9,N","011265,1,N,1","+0180,1","+0130,1","99999,9","04,5,+00540,1,99,9",,,,"04,99,1,99,9,99,9,99999,9,99,9,99,9","10010,1,99999,9",,,,,"MET055METAR EGUY 071050Z 18010KT 9999 SCT018 18/13 Q1001 WHT;",
"03566099999","2010-09-07T11:50:00","4","52.357167","-0.107833","41.14","WYTON, UK","FM-15","EGUY ","V020","180,1,N,0046,1","99999,9,C,N","011265,1,N,1","+0190,1","+0130,1","99999,9","02,5,+00750,1,99,9","04,5,+02700,1,99,9",,,"04,99,1,99,9,99,9,99999,9,99,9,99,9","10010,1,99999,9",,,,,"MET062METAR EGUY 071150Z 18009KT 9999 FEW025 SCT090 19/13 Q1001 BLU;","P01 027003SCOCIG"
"03566099999","2010-09-07T12:50:00","4","52.357167","-0.107833","41.14","WYTON, UK","FM-15","EGUY ","V020","160,1,N,0051,1","00750,1,C,N","011265,1,N,1","+0180,1","+0130,1","99999,9","02,5,+00600,1,99,9","04,5,+00750,1,09,5","07,5,+07500,1,99,9",,"07,99,1,99,9,99,9,99999,9,99,9,99,9","10010,1,99999,9",,,,,"MET071METAR EGUY 071250Z 16010KT 9999 FEW020 SCT025CB BKN250 18/13 Q1001 BLU;",
"03566099999","2010-09-07T13:50:00","4","52.357167","-0.107833","41.14","WYTON, UK","FM-15","EGUY ","V020","150,1,N,0031,1","07500,1,C,N","011265,1,N,1","+0190,1","+0130,1","99999,9","02,5,+00750,1,99,9","02,5,+00900,1,09,5","07,5,+07500,1,99,9",,"07,99,1,99,9,99,9,99999,9,99,9,99,9","10010,1,99999,9",,,,,"MET071METAR EGUY 071350Z 15006KT 9999 FEW025 FEW030CB BKN250 19/13 Q1001 BLU;",
"03566099999","2010-09-07T14:50:00","4","52.357167","-0.107833","41.14","WYTON, UK","FM-15","EGUY ","V020","170,1,N,0031,1","07500,1,C,N","011265,1,N,1","+0190,1","+0120,1","99999,9","02,5,+00840,1,99,9","07,5,+07500,1,99,9",,,"07,99,1,99,9,99,9,99999,9,99,9,99,9","10000,1,99999,9",,,,,"MET062METAR EGUY 071450Z 17006KT 9999 FEW028 BKN250 19/12 Q1000 BLU;",
"03566099999","2010-09-08T06:50:00","4","52.357167","-0.107833","41.14","WYTON, UK","FM-15","EGUY ","V020","030,1,N,0031,1","00090,1,C,N","001500,1,N,1","+0130,1","+0130,1","99999,9","08,5,+00090,1,99,9",,,,"08,99,1,99,9,99,9,99999,9,99,9,99,9","10020,1,99999,9","10,1",,,,"MET058METAR EGUY 080650Z 03006KT 1500 BR OVC003 13/13 Q1002 AMB;",
"03566099999","2010-09-08T07:50:00","4","52.357167","-0.107833","41.14","WYTON, UK","FM-15","EGUY ","V020","020,1,N,0026,1","00450,1,C,N","002800,1,N,1","+9999,9","+9999,9","99999,9","04,5,+00120,1,99,9","08,5,+00450,1,99,9","07,5,+01200,1,99,9",,"08,99,1,99,9,99,9,99999,9,99,9,99,9","10030,1,99999,9","10,1",,,,"MET074METAR EGUY 080750Z 02005KT 2800 BR SCT004 BKN040 OVC015 /14/14 Q1003 YLO2;",
"03566099999","2010-09-08T08:50:00","4","52.357167","-0.107833","41.14","WYTON, UK","FM-15","EGUY ","V020","360,1,N,0026,1","00450,1,C,N","004000,1,N,1","+0140,1","+0140,1","99999,9","04,5,+00180,1,99,9","08,5,+00450,1,99,9",,,"08,99,1,99,9,99,9,99999,9,99,9,99,9","10031,1,99999,9","10,1",,,,"MET066METAR EGUY 080850Z 36005KT 4000 BR SCT006 OVC015 14/14 Q1003 YLO1;",
"03566099999","2010-09-08T09:50:00","4","52.357167","-0.107833","41.14","WYTON, UK","FM-15","EGUY ","V020","360,1,N,0031,1","00450,1,C,N","004500,1,N,1","+0150,1","+0140,1","99999,9","04,5,+00240,1,99,9","08,5,+00450,1,99,9",,,"08,99,1,99,9,99,9,99999,9,99,9,99,9","10031,1,99999,9","10,1",,,,"MET065METAR EGUY 080950Z 36006KT 4500 BR SCT008 OVC015 15/14 Q1003 GRN;",
"03566099999","2010-09-08T10:50:00","4","52.357167","-0.107833","41.14","WYTON, UK","FM-15","EGUY ","V020","330,1,N,0026,1","00450,1,C,N","006000,1,N,1","+0160,1","+0130,1","99999,9","04,5,+00270,1,99,9","08,5,+00450,1,99,9",,,"08,99,1,99,9,99,9,99999,9,99,9,99,9","10031,1,99999,9","05,1",,,,"MET065METAR EGUY 081050Z 33005KT 6000 HZ SCT009 OVC015 16/13 Q1003 GRN;",
"03566099999","2010-09-08T11:50:00","4","52.357167","-0.107833","41.14","WYTON, UK","FM-15","EGUY ","V020","330,1,N,0026,1","00750,1,C,N","007000,1,N,1","+0170,1","+0130,1","99999,9","04,5,+00420,1,99,9","07,5,+00750,1,99,9","08,5,+04500,1,99,9",,"08,99,1,99,9,99,9,99999,9,99,9,99,9","10031,1,99999,9","05,1",,,,"MET072METAR EGUY 081150Z 33005KT 7000 HZ SCT014 BKN025 OVC150 17/13 Q1003 GRN;",
"03566099999","2010-09-08T12:50:00","4","52.357167","-0.107833","41.14","WYTON, UK","FM-15","EGUY ","V020","340,1,N,0021,1","00750,1,C,N","008000,1,N,1","+0170,1","+0130,1","99999,9","04,5,+00420,1,99,9","07,5,+00750,1,99,9","08,5,+04500,1,99,9",,"08,99,1,99,9,99,9,99999,9,99,9,99,9","10031,1,99999,9","05,1",,,,"MET072METAR EGUY 081250Z 34004KT 8000 HZ SCT014 BKN025 OVC150 17/13 Q1003 GRN;",
"03566099999","2010-09-08T13:50:00","4","52.357167","-0.107833","41.14","WYTON, UK","FM-15","EGUY ","V020","360,1,N,0015,1","01050,1,C,N","011265,1,N,1","+0150,1","+0130,1","99999,9","04,5,+00660,1,99,9","04,5,+01050,1,99,9","07,5,+04500,1,99,9",,"07,99,1,99,9,99,9,99999,9,99,9,99,9","10031,1,99999,9",,,,,"MET069METAR EGUY 081350Z 36003KT 9999 SCT022 SCT035 BKN150 15/13 Q1003 GRN;",
"03566099999","2010-09-09T06:50:00","4","52.357167","-0.107833","41.14","WYTON, UK","FM-15","EGUY ","V020","250,1,N,0046,1","02400,1,C,N","011265,1,N,1","+0140,1","+0130,1","99999,9","04,5,+01350,1,99,9","07,5,+02400,1,99,9",,,"07,99,1,99,9,99,9,99999,9,99,9,99,9","10108,1,99999,9",,,,,"MET062METAR EGUY 090650Z 25009KT 9999 SCT045 BKN080 14/13 Q1011 BLU;",
"03566099999","2010-09-09T07:50:00","4","52.357167","-0.107833","41.14","WYTON, UK","FM-15","EGUY ","V020","270,1,N,0041,1","02100,1,C,N","011265,1,N,1","+0150,1","+0130,1","99999,9","02,5,+01350,1,99,9","07,5,+02100,1,99,9",,,"07,99,1,99,9,99,9,99999,9,99,9,99,9","10119,1,99999,9",,,,,"MET062METAR EGUY 090750Z 27008KT 9999 FEW045 BKN070 15/13 Q1012 BLU;",
"03566099999","2010-09-09T08:50:00","4","52.357167","-0.107833","41.14","WYTON, UK","FM-15","EGUY ","V020","280,1,N,0051,1","02100,5,9,N","999999,9,N,1","+0160,1","+0130,1","99999,9","02,5,+01350,5,99,9","07,5,+02100,5,99,9",,,,"10130,1,99999,9",,,,,"MET057METAR EGUY 090850Z 28010KT FEW045 BKN070 16/13 Q1013 BLU;",
"03566099999","2010-09-09T09:50:00","4","52.357167","-0.107833","41.14","WYTON, UK","FM-15","EGUY ","V020","300,1,N,0036,1","99999,9,C,N","011265,1,N,1","+0170,1","+0130,1","99999,9","02,5,+00450,1,99,9","04,5,+01200,1,99,9",,,"04,99,1,99,9,99,9,99999,9,99,9,99,9","10139,1,99999,9",,,,,"MET062METAR EGUY 090950Z 30007KT 9999 FEW015 SCT040 17/13 Q1014 BLU;","P01 012003SCOCIG"
"03566099999","2010-09-09T10:50:00","4","52.357167","-0.107833","41.14","WYTON, UK","FM-15","EGUY ","V020","310,1,N,0031,1","99999,9,C,N","011265,1,N,1","+0190,1","+0130,1","99999,9","02,5,+00600,1,99,9","04,5,+00750,1,99,9",,,"04,99,1,99,9,99,9,99999,9,99,9,99,9","10139,1,99999,9",,,,,"MET062METAR EGUY 091050Z 31006KT 9999 FEW020 SCT025 19/13 Q1014 BLU;","P01 007503SCOCIG"
"03566099999","2010-09-09T11:50:00","4","52.357167","-0.107833","41.14","WYTON, UK","FM-15","EGUY ","V020","280,1,N,0046,1","00900,1,C,N","011265,1,N,1","+0200,1","+0120,1","99999,9","02,5,+00750,1,99,9","07,5,+00900,1,99,9",,,"07,99,1,99,9,99,9,99999,9,99,9,99,9","10139,1,99999,9",,,,,"MET062METAR EGUY 091150Z 28009KT 9999 FEW025 BKN030 20/12 Q1014 BLU;",
"03566099999","2010-09-09T13:50:00","4","52.357167","-0.107833","41.14","WYTON, UK","FM-15","EGUY ","V020","270,1,N,0057,1","00900,1,C,N","011265,1,N,1","+0190,1","+0140,1","99999,9","02,5,+00600,1,99,9","07,5,+00900,1,99,9",,,"07,99,1,99,9,99,9,99999,9,99,9,99,9","10149,1,99999,9",,,,,"MET062METAR EGUY 091350Z 27011KT 9999 FEW020 BKN030 19/14 Q1015 BLU;",
"03566099999","2010-09-09T14:50:00","4","52.357167","-0.107833","41.14","WYTON, UK","FM-15","EGUY ","V020","290,1,N,0046,1","00900,1,C,N","011265,1,N,1","+0190,1","+0130,1","99999,9","02,5,+00750,1,02,1","07,5,+00900,1,99,9",,,"07,99,1,99,9,99,9,99999,9,99,9,99,9","10149,1,99999,9",,,,,"MET065METAR EGUY 091450Z 29009KT 9999 FEW025TCU BKN030 19/13 Q1015 BLU;",
"03566099999","2010-09-10T06:50:00","4","52.357167","-0.107833","41.14","WYTON, UK","FM-15","EGUY ","V020","170,1,N,0041,1","01200,1,C,N","011265,1,N,1","+0140,1","+0140,1","99999,9","02,5,+00180,1,99,9","08,5,+01200,1,99,9",,,"08,99,1,99,9,99,9,99999,9,99,9,99,9","10169,1,99999,9",,,,,"MET062METAR EGUY 100650Z 17008KT 9999 FEW006 OVC040 14/14 Q1017 BLU;",
"03566099999","2010-09-10T07:50:00","4","52.357167","-0.107833","41.14","WYTON, UK","FM-15","EGUY ","V020","190,1,N,0046,1","00840,1,C,N","011265,1,N,1","+0140,1","+0130,1","99999,9","02,5,+00300,1,99,9","04,5,+00840,1,99,9","07,5,+01500,1,99,9",,"07,99,1,99,9,99,9,99999,9,99,9,99,9","10169,1,99999,9",,,,,"MET069METAR EGUY 100750Z 19009KT 9999 FEW010 SCT028 BKN050 14/13 Q1017 BLU;",
"03566099999","2010-09-10T08:50:00","4","52.357167","-0.107833","41.14","WYTON, UK","FM-15","EGUY ","V020","210,1,N,0067,1","01320,1,C,N","011265,1,N,1","+0160,1","+0140,1","99999,9","04,5,+00900,1,99,9","08,5,+01320,1,99,9",,,"08,99,1,99,9,99,9,99999,9,99,9,99,9","10169,1,99999,9","61,1",,,,"MET066METAR EGUY 100850Z 21013KT 9999 -RA SCT030 OVC044 16/14 Q1017 BLU;",
"03566099999","2010-09-10T09:15:00","4","52.357167","-0.107833","41.14","WYTON, UK","FM-15","EGUY ","V020","210,1,N,0072,1","00750,1,C,N","003200,1,N,1","+0160,1","+0150,1","99999,9","04,5,+00480,1,99,9","07,5,+00750,1,99,9","08,5,+01200,1,99,9",,"08,99,1,99,9,99,9,99999,9,99,9,99,9","10169,1,99999,9","63,1",,,,"MET073METAR EGUY 100915Z 21014KT 3200 RA SCT016 BKN025 OVC040 16/15 Q1017 YLO1;",
"03566099999","2010-09-11T07:50:00","4","52.357167","-0.107833","41.14","WYTON, UK","FM-15","EGUY ","V020","200,1,N,0067,1","00450,1,C,N","011265,1,N,1","+0170,1","+0150,1","99999,9","08,5,+00450,1,99,9",,,,"08,99,1,99,9,99,9,99999,9,99,9,99,9","10119,1,99999,9",,,,,"MET055METAR EGUY 110750Z 20013KT 9999 OVC015 17/15 Q1012 WHT;",
"03566099999","2010-09-11T08:50:00","4","52.357167","-0.107833","41.14","WYTON, UK","FM-15","EGUY ","V020","210,1,N,0067,1","00600,1,C,N","011265,1,N,1","+0170,1","+0150,1","99999,9","04,5,+00390,1,99,9","07,5,+00600,1,99,9",,,"07,99,1,99,9,99,9,99999,9,99,9,99,9","10119,1,99999,9",,,,,"MET062METAR EGUY 110850Z 21013KT 9999 SCT013 BKN020 17/15 Q1012 GRN;",
"03566099999","2010-09-11T09:50:00","4","52.357167","-0.107833","41.14","WYTON, UK","FM-15","EGUY ","V020","200,1,N,0062,1","00600,1,C,N","011265,1,N,1","+0180,1","+0160,1","99999,9","04,5,+00390,1,99,9","07,5,+00600,1,99,9",,,"07,99,1,99,9,99,9,99999,9,99,9,99,9","10119,1,99999,9",,,,,"MET062METAR EGUY 110950Z 20012KT 9999 SCT013 BKN020 18/16 Q1012 GRN;",
"03566099999","2010-09-11T10:50:00","4","52.357167","-0.107833","41.14","WYTON, UK","FM-15","EGUY ","V020","220,1,N,0077,1","00900,1,C,N","011265,1,N,1","+0200,1","+0160,1","99999,9","04,5,+00300,1,99,9","07,5,+00900,1,99,9",,,"07,99,1,99,9,99,9,99999,9,99,9,99,9","10119,1,99999,9",,,,,"MET062METAR EGUY 111050Z 22015KT 9999 SCT010 BKN030 20/16 Q1012 GRN;",
"03566099999","2010-09-11T11:50:00","4","52.357167","-0.107833","41.14","WYTON, UK","FM-15","EGUY ","V020","240,1,N,0077,1","00750,1,C,N","011265,1,N,1","+0210,1","+0180,1","99999,9","02,5,+00450,1,99,9","07,5,+00750,1,99,9",,,"07,99,1,99,9,99,9,99999,9,99,9,99,9","10119,1,99999,9",,,,,"MET062METAR EGUY 111150Z 24015KT 9999 FEW015 BKN025 21/18 Q1012 BLU;",
"03566099999","2010-09-11T12:50:00","4","52.357167","-0.107833","41.14","WYTON, UK","FM-15","EGUY ","V020","240,1,N,0082,1","00840,1,C,N","011265,1,N,1","+0200,1","+0160,1","99999,9","07,5,+00840,1,99,9",,,,"07,99,1,99,9,99,9,99999,9,99,9,99,9","10129,1,99999,9",,,,,"MET055METAR EGUY 111250Z 24016KT 9999 BKN028 20/16 Q1013 BLU;",
"03566099999","2010-09-11T13:50:00","4","52.357167","-0.107833","41.14","WYTON, UK","FM-15","EGUY ","V020","230,1,N,0093,1","22000,1,9,N","011265,1,N,1","+0210,1","+0170,1","99999,9","04,5,+00840,1,99,9",,,,"04,99,1,99,9,99,9,99999,9,99,9,99,9","10129,1,99999,9",,,,,"MET055METAR EGUY 111350Z 23018KT 9999 SCT028 21/17 Q1013 BLU;",
"03566099999","2010-09-12T06:50:00","4","52.357167","-0.107833","41.14","WYTON, UK","FM-15","EGUY ","V020","270,1,N,0041,1","99999,9,9,Y","009900,1,N,1","+0120,1","+0100,1","99999,9",,,,,,"10159,1,99999,9",,,,,"MET049METAR EGUY 120650Z 27008KT CAVOK 12/10 Q1016 BLU;",
"03566099999","2010-09-12T07:50:00","4","52.357167","-0.107833","41.14","WYTON, UK","FM-15","EGUY ","V020","280,1,N,0057,1","99999,9,9,Y","009900,1,N,1","+0130,1","+0110,1","99999,9",,,,,,"10210,1,99999,9",,,,,"MET049METAR EGUY 120750Z 28011KT CAVOK 13/11 Q1021 BLU;",
"03566099999","2010-09-12T08:50:00","4","52.357167","-0.107833","41.14","WYTON, UK","FM-15","EGUY ","V020","300,1,N,0051,1","22000,1,9,N","011265,1,N,1","+0150,1","+0120,1","99999,9","02,5,+00600,1,99,9",,,,"02,99,1,99,9,99,9,99999,9,99,9,99,9","10220,1,99999,9",,,,,"MET055METAR EGUY 120850Z 30010KT 9999 FEW020 15/12 Q1022 BLU;",
"03566099999","2010-09-12T09:50:00","4","52.357167","-0.107833","41.14","WYTON, UK","FM-15","EGUY ","V020","290,1,N,0067,1","22000,1,9,N","011265,1,N,1","+0170,1","+0110,1","99999,9","02,5,+00720,1,99,9",,,,"02,99,1,99,9,99,9,99999,9,99,9,99,9","10220,1,99999,9",,,,,"MET055METAR EGUY 120950Z 29013KT 9999 FEW024 17/11 Q1022 BLU;",
"03566099999","2010-09-12T10:50:00","4","52.357167","-0.107833","41.14","WYTON, UK","FM-15","EGUY ","V020","290,1,N,0067,1","22000,1,9,N","011265,1,N,1","+0170,1","+0100,1","99999,9","04,5,+00840,1,99,9",,,,"04,99,1,99,9,99,9,99999,9,99,9,99,9","10220,1,99999,9",,,,,"MET055METAR EGUY 121050Z 29013KT 9999 SCT028 17/10 Q1022 BLU;",
"03566099999","2010-09-12T11:50:00","4","52.357167","-0.107833","41.14","WYTON, UK","FM-15","EGUY ","V020","300,1,N,0072,1","22000,1,9,N","011265,1,N,1","+0180,1","+0100,1","99999,9","04,5,+00960,1,99,9",,,,"04,99,1,99,9,99,9,99999,9,99,9,99,9","10220,1,99999,9",,,,,"MET055METAR EGUY 121150Z 30014KT 9999 SCT032 18/10 Q1022 BLU;",
"03566099999","2010-09-12T12:50:00","4","52.357167","-0.107833","41.14","WYTON, UK","FM-15","EGUY ","V020","290,1,N,0082,1","22000,1,9,N","011265,1,N,1","+0190,1","+0090,1","99999,9","04,5,+01200,1,99,9",,,,"04,99,1,99,9,99,9,99999,9,99,9,99,9","10230,1,99999,9",,,,,"MET055METAR EGUY 121250Z 29016KT 9999 SCT040 19/09 Q1023 BLU;",
"03566099999","2010-09-12T13:50:00","4","52.357167","-0.107833","41.14","WYTON, UK","FM-15","EGUY ","V020","290,1,N,0067,1","22000,1,9,N","011265,1,N,1","+0190,1","+0090,1","99999,9","04,5,+01200,1,99,9",,,,"04,99,1,99,9,99,9,99999,9,99,9,99,9","10230,1,99999,9",,,,,"MET055METAR EGUY 121350Z 29013KT 9999 SCT040 19/09 Q1023 BLU;",
"03566099999","2010-09-13T07:50:00","4","52.357167","-0.107833","41.14","WYTON, UK","FM-15","EGUY ","V020","220,1,N,0051,1","01350,1,C,N","011265,1,N,1","+0120,1","+0090,1","99999,9","07,5,+01350,1,99,9",,,,"07,99,1,99,9,99,9,99999,9,99,9,99,9","10251,1,99999,9",,,,,"MET055METAR EGUY 130750Z 22010KT 9999 BKN045 12/09 Q1025 BLU;",
"03566099999","2010-09-13T08:50:00","4","52.357167","-0.107833","41.14","WYTON, UK","FM-15","EGUY ","V020","230,1,N,0062,1","03000,1,C,N","011265,1,N,1","+0150,1","+0110,1","99999,9","02,5,+01800,1,99,9","07,5,+03000,1,99,9",,,"07,99,1,99,9,99,9,99999,9,99,9,99,9","10251,1,99999,9",,,,,"MET062METAR EGUY 130850Z 23012KT 9999 FEW060 BKN100 15/11 Q1025 BLU;",
"03566099999","2010-09-13T09:50:00","4","52.357167","-0.107833","41.14","WYTON, UK","FM-15","EGUY ","V020","230,1,N,0062,1","03000,1,C,N","011265,1,N,1","+0160,1","+0110,1","99999,9","02,5,+01200,1,99,9","07,5,+03000,1,99,9",,,"07,99,1,99,9,99,9,99999,9,99,9,99,9",,,,,,"MET056METAR EGUY 130950Z 23012KT 9999 FEW040 BKN100 16/11 BLU;",
"03566099999","2010-09-13T10:50:00","4","52.357167","-0.107833","41.14","WYTON, UK","FM-15","EGUY ","V020","230,1,N,0072,1","03000,1,C,N","011265,1,N,1","+0170,1","+0120,1","99999,9","02,5,+00600,1,99,9","07,5,+03000,1,99,9",,,"07,99,1,99,9,99,9,99999,9,99,9,99,9","10240,1,99999,9",,,,,"MET062METAR EGUY 131050Z 23014KT 9999 FEW020 BKN100 17/12 Q1024 BLU;",
"03566099999","2010-09-13T11:50:00","4","52.357167","-0.107833","41.14","WYTON, UK","FM-15","EGUY ","V020","230,1,N,0093,1","00900,1,C,N","011265,1,N,1","+0180,1","+0110,1","99999,9","07,5,+00900,1,99,9","07,5,+02400,1,99,9",,,"07,99,1,99,9,99,9,99999,9,99,9,99,9","10230,1,99999,9",,,,,"MET062METAR EGUY 131150Z 23018KT 9999 BKN030 BKN080 18/11 Q1023 BLU;",
"03566099999","2010-09-13T12:50:00","4","52.357167","-0.107833","41.14","WYTON, UK","FM-15","EGUY ","V020","230,1,N,0087,1","00750,1,C,N","011265,1,N,1","+0180,1","+0120,1","99999,9","07,5,+00750,1,99,9","07,5,+02400,1,99,9",,,"07,99,1,99,9,99,9,99999,9,99,9,99,9","10230,1,99999,9",,,,,"MET062METAR EGUY 131250Z 23017KT 9999 BKN025 BKN080 18/12 Q1023 BLU;",
"03566099999","2010-09-13T13:50:00","4","52.357167","-0.107833","41.14","WYTON, UK","FM-15","EGUY ","V020","230,1,N,0077,1","00780,1,C,N","011265,1,N,1","+0170,1","+0130,1","99999,9","07,5,+00780,1,99,9",,,,"07,99,1,99,9,99,9,99999,9,99,9,99,9","10220,1,99999,9","61,1",,,"0134,1","MET062METAR EGUY 131350Z 23015G26KT 9999 -RA BKN026 17/13 Q1022 BLU;",
"03566099999","2010-09-13T14:50:00","4","52.357167","-0.107833","41.14","WYTON, UK","FM-15","EGUY ","V020","220,1,N,0082,1","00750,1,C,N","008000,1,N,1","+0160,1","+0140,1","99999,9","02,5,+00540,1,99,9","07,5,+00750,1,99,9",,,"07,99,1,99,9,99,9,99999,9,99,9,99,9","10220,1,99999,9","61,1",,,,"MET066METAR EGUY 131450Z 22016KT 8000 -RA FEW018 BKN025 16/14 Q1022 BLU;",
"03566099999","2010-09-14T06:50:00","4","52.357167","-0.107833","41.14","WYTON, UK","FM-15","EGUY ","V020","220,1,N,0072,1","00390,1,C,N","011265,1,N,1","+0160,1","+0150,1","99999,9","07,5,+00390,1,99,9",,,,"07,99,1,99,9,99,9,99999,9,99,9,99,9","10150,1,99999,9",,,,,"MET062METAR EGUY 140650Z 22014KT 9999 BKN013 OVE020 16/15 Q1015 GRN;",
"03566099999","2010-09-14T07:50:00","4","52.357167","-0.107833","41.14","WYTON, UK","FM-15","EGUY ","V020","220,1,N,0082,1","00390,1,C,N","011265,1,N,1","+0170,1","+0150,1","99999,9","07,5,+00390,1,99,9","07,5,+00600,1,99,9",,,"07,99,1,99,9,99,9,99999,9,99,9,99,9","10149,1,99999,9",,,,,"MET062METAR EGUY 140750Z 22016KT 9999 BKN013 BKN020 17/15 Q1015 GRN;",
"03566099999","2010-09-14T08:50:00","4","52.357167","-0.107833","41.14","WYTON, UK","FM-15","EGUY ","V020","230,1,N,0087,1","00390,1,C,N","011265,1,N,1","+0170,1","+0150,1","99999,9","07,5,+00390,1,99,9","07,5,+00600,1,99,9",,,"07,99,1,99,9,99,9,99999,9,99,9,99,9","10139,1,99999,9",,,,,"MET062METAR EGUY 140850Z 23017KT 9999 BKN013 BKN020 17/15 Q1014 GRN;",
"03566099999","2010-09-14T09:50:00","4","52.357167","-0.107833","41.14","WYTON, UK","FM-15","EGUY ","V020","230,1,N,0082,1","00360,1,C,N","011265,1,N,1","+0180,1","+0160,1","99999,9","07,5,+00360,1,99,9","07,5,+00900,1,99,9","08,5,+02400,1,99,9",,"08,99,1,99,9,99,9,99999,9,99,9,99,9","10139,1,99999,9",,,,,"MET069METAR EGUY 140950Z 23016KT 9999 BKN012 BKN030 OVC080 18/16 Q1014 GRN;",
"03566099999","2010-09-14T10:50:00","4","52.357167","-0.107833","41.14","WYTON, UK","FM-15","EGUY ","V020","230,1,N,0093,1","00600,1,C,N","011265,1,N,1","+0190,1","+0160,1","99999,9","04,5,+00420,1,99,9","07,5,+00600,1,99,9","07,5,+02400,1,99,9",,"07,99,1,99,9,99,9,99999,9,99,9,99,9","10129,1,99999,9",,,,,"MET069METAR EGUY 141050Z 23018KT 9999 SCT014 BKN020 BKN080 19/16 Q1013 GRN;",
"03566099999","2010-09-14T11:10:00","4","52.357167","-0.107833","41.14","WYTON, UK","FM-15","EGUY ","V020","240,1,N,0103,1","00480,1,C,N","011265,1,N,1","+0190,1","+0160,1","99999,9","07,5,+00480,1,99,9",,,,"07,99,1,99,9,99,9,99999,9,99,9,99,9","10129,1,99999,9",,,,,"MET055METAR EGUY 141110Z 24020KT 9999 BKN016 19/16 Q1013 WHT;",
"03566099999","2010-09-14T11:50:00","4","52.357167","-0.107833","41.14","WYTON, UK","FM-15","EGUY ","V020","230,1,N,0093,1","00540,1,C,N","011265,1,N,1","+0200,1","+0160,1","99999,9","02,5,+00360,1,99,9","07,5,+00540,1,99,9",,,"07,99,1,99,9,99,9,99999,9,99,9,99,9","10119,1,99999,9",,,,,"MET062METAR EGUY 141150Z 23018KT 9999 FEW012 BKN018 20/16 Q1012 WHT;",
"03566099999","2010-09-14T12:50:00","4","52.357167","-0.107833","41.14","WYTON, UK","FM-15","EGUY ","V020","230,1,N,0087,1","00540,1,C,N","011265,1,N,1","+0200,1","+0160,1","99999,9","02,5,+00360,1,99,9","07,5,+00540,1,99,9",,,"07,99,1,99,9,99,9,99999,9,99,9,99,9","10119,1,99999,9",,,,,"MET062METAR EGUY 141250Z 23017KT 9999 FEW012 BKN018 20/16 Q1012 WHT;",
"03566099999","2010-09-14T13:50:00","4","52.357167","-0.107833","41.14","WYTON, UK","FM-15","EGUY ","V020","230,1,N,0087,1","00750,1,C,N","011265,1,N,1","+0200,1","+0160,1","99999,9","02,5,+00360,1,99,9","07,5,+00750,1,99,9",,,"07,99,1,99,9,99,9,99999,9,99,9,99,9","10108,1,99999,9",,,,,"MET062METAR EGUY 141350Z 23017KT 9999 FEW012 BKN025 20/16 Q1011 BLU;",
"03566099999","2010-09-15T06:50:00","4","52.357167","-0.107833","41.14","WYTON, UK","FM-15","EGUY ","V020","230,1,N,0077,1","99999,9,9,Y","009900,1,N,1","+0100,1","+0070,1","99999,9",,,,,,"10102,1,99999,9",,,,,"MET049METAR EGUY 150650Z 23015KT CAVOK 10/07 Q1010 BLU;",
"03566099999","2010-09-15T07:50:00","4","52.357167","-0.107833","41.14","WYTON, UK","FM-15","EGUY ","V020","230,1,N,0098,1","99999,9,9,Y","009900,1,N,1","+0120,1","+0070,1","99999,9",,,,,,"10102,1,99999,9",,,,,"MET049METAR EGUY 150750Z 23019KT CAVOK 12/07 Q1010 BLU;",
"03566099999","2010-09-15T08:50:00","4","52.357167","-0.107833","41.14","WYTON, UK","FM-15","EGUY ","V020","240,1,N,0093,1","99999,9,9,Y","009900,1,N,1","+0130,1","+0080,1","99999,9",,,,,,"10102,1,99999,9",,,,"0144,1","MET052METAR EGUY 150850Z 24018G28KT CAVOK 13/08 Q1010 BLU;",
"03566099999","2010-09-15T09:50:00","4","52.357167","-0.107833","41.14","WYTON, UK","FM-15","EGUY ","V020","240,1,N,0082,1","01500,1,C,N","011265,1,N,1","+0150,1","+0080,1","99999,9","02,5,+00600,1,99,9","07,5,+01500,1,99,9",,,"07,99,1,99,9,99,9,99999,9,99,9,99,9","10091,1,99999,9",,,,"0149,1","MET065METAR EGUY 150950Z 24016G29KT 9999 FEW020 BKN050 15/08 Q1009 BLU;",
"03566099999","2010-09-15T10:50:00","4","52.357167","-0.107833","41.14","WYTON, UK","FM-15","EGUY ","V020","240,1,N,0123,1","00900,1,C,N","011265,1,N,1","+0150,1","+0070,1","99999,9","07,5,+00900,1,99,9","07,5,+01500,1,99,9",,,"07,99,1,99,9,99,9,99999,9,99,9,99,9","10091,1,99999,9",,,,,"MET062METAR EGUY 151050Z 24024KT 9999 BKN030 BKN050 15/07 Q1009 BLU;",
"03566099999","2010-09-15T11:50:00","4","52.357167","-0.107833","41.14","WYTON, UK","FM-15","EGUY ","V020","250,1,N,0113,1","00900,1,C,N","011265,1,N,1","+0150,1","+0070,1","99999,9","02,5,+00600,1,99,9","07,5,+00900,1,99,9",,,"07,99,1,99,9,99,9,99999,9,99,9,99,9","10081,1,99999,9",,,,,"MET062METAR EGUY 151150Z 25022KT 9999 FEW020 BKN030 15/07 Q1008 BLU;",
"03566099999","2010-09-15T12:50:00","4","52.357167","-0.107833","41.14","WYTON, UK","FM-15","EGUY ","V020","250,1,N,0144,1","00900,1,C,N","011265,1,N,1","+0160,1","+0070,1","99999,9","02,5,+00600,1,99,9","07,5,+00900,1,99,9",,,"07,99,1,99,9,99,9,99999,9,99,9,99,9","10081,1,99999,9",,,,"0149,1","MET065METAR EGUY 151250Z 25028G29KT 9999 FEW020 BKN030 16/07 Q1008 BLU;",
"03566099999","2010-09-15T13:50:00","4","52.357167","-0.107833","41.14","WYTON, UK","FM-15","EGUY ","V020","250,1,N,0077,1","01080,1,C,N","011265,1,N,1","+0160,1","+0070,1","99999,9","07,5,+01080,1,99,9","07,5,+03000,1,99,9",,,"07,99,1,99,9,99,9,99999,9,99,9,99,9","10081,1,99999,9",,,,"0139,1","MET065METAR EGUY 151350Z 25015G27KT 9999 BKN036 BKN100 16/07 Q1008 BLU;",
"03566099999","2010-09-15T14:50:00","4","52.357167","-0.107833","41.14","WYTON, UK","FM-15","EGUY ","V020","250,1,N,0108,1","01080,1,C,N","011265,1,N,1","+0160,1","+0080,1","99999,9","07,5,+01080,1,99,9","07,5,+03000,1,99,9",,,"07,99,1,99,9,99,9,99999,9,99,9,99,9","10071,1,99999,9",,,,"0159,1","MET065METAR EGUY 151450Z 25021G31KT 9999 BKN036 BKN100 16/08 Q1007 BLU;",
"03566099999","2010-09-16T06:50:00","4","52.357167","-0.107833","41.14","WYTON, UK","FM-15","EGUY ","V020","270,1,N,0057,1","99999,9,C,N","011265,1,N,1","+0110,1","+0090,1","99999,9","02,5,+00300,1,99,9","04,5,+01500,1,99,9",,,"04,99,1,99,9,99,9,99999,9,99,9,99,9","10102,1,99999,9",,,,,"MET062METAR EGUY 160650Z 27011KT 9999 FEW010 SCT050 11/09 Q1010 BLU;","P01 015003SCOCIG"
"03566099999","2010-09-16T07:50:00","4","52.357167","-0.107833","41.14","WYTON, UK","FM-15","EGUY ","V020","260,1,N,0057,1","99999,9,C,N","011265,1,N,1","+0120,1","+0100,1","99999,9","02,5,+00450,1,99,9","04,5,+01200,1,99,9",,,"04,99,1,99,9,99,9,99999,9,99,9,99,9","10102,1,99999,9",,,,,"MET062METAR EGUY 160750Z 26011KT 9999 FEW015 SCT040 12/10 Q1010 BLU;","P01 012003SCOCIG"
"03566099999","2010-09-16T08:50:00","4","52.357167","-0.107833","41.14","WYTON, UK","FM-15","EGUY ","V020","270,1,N,0067,1","01200,1,C,N","011265,1,N,1","+0140,1","+0100,1","99999,9","04,5,+00450,1,99,9","07,5,+01200,1,99,9",,,"07,99,1,99,9,99,9,99999,9,99,9,99,9","10102,1,99999,9",,,,,"MET062METAR EGUY 160850Z 27013KT 9999 SCT015 BKN040 14/10 Q1010 WHT;",
"03566099999","2010-09-16T09:50:00","4","52.357167","-0.107833","41.14","WYTON, UK","FM-15","EGUY ","V020","280,1,N,0077,1","00450,1,C,N","011265,1,N,1","+0140,1","+0100,1","99999,9","07,5,+00450,1,99,9",,,,"07,99,1,99,9,99,9,99999,9,99,9,99,9","10102,1,99999,9",,,,,"MET055METAR EGUY 160950Z 28015KT 9999 BKN015 14/10 Q1010 WHT;",
"03566099999","2010-09-16T10:50:00","4","52.357167","-0.107833","41.14","WYTON, UK","FM-15","EGUY ","V020","290,1,N,0072,1","00600,1,C,N","011265,1,N,1","+0150,1","+0090,1","99999,9","07,5,+00600,1,99,9",,,,"07,99,1,99,9,99,9,99999,9,99,9,99,9","10102,1,99999,9",,,,,"MET055METAR EGUY 161050Z 29014KT 9999 BKN020 15/09 Q1010 WHT;",
"03566099999","2010-09-16T11:50:00","4","52.357167","-0.107833","41.14","WYTON, UK","FM-15","EGUY ","V020","280,1,N,0051,1","00600,1,C,N","011265,1,N,1","+0150,1","+0110,1","99999,9","07,5,+00600,1,99,9","07,5,+01500,1,99,9",,,"07,99,1,99,9,99,9,99999,9,99,9,99,9","10102,1,99999,9","16,1",,,,"MET067METAR EGUY 161150Z 28010KT 9999 VCSH BKN020 BKN050 15/11 Q1010 WHT;",
"03566099999","2010-09-16T12:50:00","4","52.357167","-0.107833","41.14","WYTON, UK","FM-15","EGUY ","V020","280,1,N,0082,1","01200,1,C,N","011265,1,N,1","+0160,1","+0090,1","99999,9","04,5,+00750,1,99,9","07,5,+01200,1,99,9",,,"07,99,1,99,9,99,9,99999,9,99,9,99,9","10102,1,99999,9",,,,,"MET062METAR EGUY 161250Z 28016KT 9999 SCT025 BKN040 16/09 Q1010 WHT;",
"03566099999","2010-09-16T13:50:00","4","52.357167","-0.107833","41.14","WYTON, UK","FM-15","EGUY ","V020","290,1,N,0072,1","01200,1,C,N","011265,1,N,1","+0160,1","+0100,1","99999,9","04,5,+00750,1,99,9","07,5,+01200,1,99,9",,,"07,99,1,99,9,99,9,99999,9,99,9,99,9","10102,1,99999,9",,,,,"MET062METAR EGUY 161350Z 29014KT 9999 SCT025 BKN040 16/10 Q1010 BLU;",
"03566099999","2010-09-16T14:50:00","4","52.357167","-0.107833","41.14","WYTON, UK","FM-15","EGUY ","V020","290,1,N,0093,1","22000,1,9,N","011265,1,N,1","+0170,1","+0070,1","99999,9","04,5,+00750,1,99,9",,,,"04,99,1,99,9,99,9,99999,9,99,9,99,9","10102,1,99999,9",,,,,"MET055METAR EGUY 161450Z 29018KT 9999 SCT025 17/07 Q1010 BLU;",
"03566099999","2010-09-17T06:50:00","4","52.357167","-0.107833","41.14","WYTON, UK","FM-15","EGUY ","V020","250,1,N,0036,1","99999,9,9,Y","009900,1,N,1","+0080,1","+0070,1","99999,9",,,,,,"10139,1,99999,9",,,,,"MET049METAR EGUY 170650Z 25007KT CAVOK 08/07 Q1014 BLU;",
"03566099999","2010-09-17T07:50:00","4","52.357167","-0.107833","41.14","WYTON, UK","FM-15","EGUY ","V020","280,1,N,0062,1","01200,1,C,N","011265,1,N,1","+0100,1","+0080,1","99999,9","02,5,+00930,1,99,9","07,5,+01200,1,99,9",,,"07,99,1,99,9,99,9,99999,9,99,9,99,9","10149,1,99999,9",,,,,"MET062METAR EGUY 170750Z 28012KT 9999 FEW031 BKN040 10/08 Q1015 BLU;",
"03566099999","2010-09-17T08:50:00","4","52.357167","-0.107833","41.14","WYTON, UK","FM-15","EGUY ","V020","310,1,N,0062,1","22000,1,9,N","011265,1,N,1","+0110,1","+0060,1","99999,9","02,5,+00600,1,99,9",,,,"02,99,1,99,9,99,9,99999,9,99,9,99,9","10149,1,99999,9",,,,,"MET055METAR EGUY 170850Z 31012KT 9999 FEW020 11/06 Q1015 BLU;",
"03566099999","2010-09-17T09:50:00","4","52.357167","-0.107833","41.14","WYTON, UK","FM-15","EGUY ","V020","310,1,N,0062,1","22000,1,9,N","011265,1,N,1","+0130,1","+0040,1","99999,9","02,5,+01050,1,99,9",,,,"02,99,1,99,9,99,9,99999,9,99,9,99,9","10159,1,99999,9",,,,,"MET055METAR EGUY 170950Z 31012KT 9999 FEW035 13/04 Q1016 BLU;",
"03566099999","2010-09-17T11:50:00","4","52.357167","-0.107833","41.14","WYTON, UK","FM-15","EGUY ","V020","300,1,N,0057,1","22000,1,9,N","011265,1,N,1","+0140,1","+0040,1","99999,9","04,5,+01200,1,99,9",,,,"04,99,1,99,9,99,9,99999,9,99,9,99,9","10159,1,99999,9",,,,,"MET055METAR EGUY 171150Z 30011KT 9999 SCT040 14/04 Q1016 BLU;",
"03566099999","2010-09-17T12:50:00","4","52.357167","-0.107833","41.14","WYTON, UK","FM-15","EGUY ","V020","320,1,N,0062,1","01200,1,C,N","011265,1,N,1","+0140,1","+0050,1","99999,9","07,5,+01200,1,99,9",,,,"07,99,1,99,9,99,9,99999,9,99,9,99,9","10159,1,99999,9",,,,,"MET055METAR EGUY 171250Z 32012KT 9999 BKN040 14/05 Q1016 BLU;",
"03566099999","2010-09-17T13:50:00","4","52.357167","-0.107833","41.14","WYTON, UK","FM-15","EGUY ","V020","310,1,N,0051,1","01350,1,C,N","011265,1,N,1","+0150,1","+0030,1","99999,9","07,5,+01350,1,99,9",,,,"07,99,1,99,9,99,9,99999,9,99,9,99,9","10169,1,99999,9",,,,,"MET055METAR EGUY 171350Z 31010KT 9999 BKN045 15/03 Q1017 BLU;",
"03566099999","2010-09-17T14:50:00","4","52.357167","-0.107833","41.14","WYTON, UK","FM-15","EGUY ","V020","300,1,N,0046,1","22000,1,9,N","011265,1,N,1","+0150,1","+0020,1","99999,9","04,5,+01440,1,99,9",,,,"04,99,1,99,9,99,9,99999,9,99,9,99,9","10169,1,99999,9",,,,,"MET055METAR EGUY 171450Z 30009KT 9999 SCT048 15/02 Q1017 BLU;",
"03566099999","2010-09-18T07:50:00","4","52.357167","-0.107833","41.14","WYTON, UK","FM-15","EGUY ","V020","280,1,N,0041,1","99999,9,9,Y","009900,1,N,1","+0080,1","+0060,1","99999,9",,,,,,"10190,1,99999,9",,,,,"MET049METAR EGUY 180750Z 28008KT CAVOK 08/06 Q1019 BLU;",
"03566099999","2010-09-18T08:50:00","4","52.357167","-0.107833","41.14","WYTON, UK","FM-15","EGUY ","V020","280,1,N,0041,1","99999,9,9,Y","009900,1,N,1","+0110,1","+0070,1","99999,9",,,,,,"10200,1,99999,9",,,,,"MET049METAR EGUY 180850Z 28008KT CAVOK 11/07 Q1020 BLU;",
"03566099999","2010-09-18T09:50:00","4","52.357167","-0.107833","41.14","WYTON, UK","FM-15","EGUY ","V020","310,1,N,0041,1","99999,9,9,Y","009900,1,N,1","+0130,1","+0060,1","99999,9",,,,,,"10190,1,99999,9",,,,,"MET049METAR EGUY 180950Z 31008KT CAVOK 13/06 Q1019 BLU;",
"03566099999","2010-09-18T10:50:00","4","52.357167","-0.107833","41.14","WYTON, UK","FM-15","EGUY ","V020","310,1,N,0051,1","06000,5,9,N","999999,9,N,1","+0140,1","+0060,1","99999,9","02,5,+00900,5,99,9","04,5,+06000,5,99,9",,,,"10190,1,99999,9",,,,,"MET057METAR EGUY 181050Z 31010KT FEW030 SCT200 14/06 Q1019 BLU;",
"03566099999","2010-09-18T11:50:00","4","52.357167","-0.107833","41.14","WYTON, UK","FM-15","EGUY ","V020","280,1,N,0046,1","00900,1,C,N","011265,1,N,1","+0150,1","+0060,1","99999,9","07,5,+00900,1,99,9",,,,"07,99,1,99,9,99,9,99999,9,99,9,99,9","10190,1,99999,9",,,,,"MET055METAR EGUY 181150Z 28009KT 9999 BKN030 15/06 Q1019 BLU;",
"03566099999","2010-09-18T12:50:00","4","52.357167","-0.107833","41.14","WYTON, UK","FM-15","EGUY ","V020","320,1,N,0041,1","00960,1,C,N","011265,1,N,1","+0150,1","+0070,1","99999,9","02,5,+00750,1,99,9","07,5,+00960,1,99,9",,,"07,99,1,99,9,99,9,99999,9,99,9,99,9","10190,1,99999,9",,,,,"MET062METAR EGUY 181250Z 32008KT 9999 FEW025 BKN032 15/07 Q1019 BLU;",
"03566099999","2010-09-18T13:50:00","4","52.357167","-0.107833","41.14","WYTON, UK","FM-15","EGUY ","V020","250,1,N,0041,1","03000,1,C,N","011265,1,N,1","+0160,1","+0050,1","99999,9","04,5,+01200,1,99,9","07,5,+03000,1,99,9",,,"07,99,1,99,9,99,9,99999,9,99,9,99,9","10180,1,99999,9",,,,,"MET062METAR EGUY 181350Z 25008KT 9999 SCT040 BKN100 16/05 Q1018 BLU;",
"03566099999","2010-09-18T14:50:00","4","52.357167","-0.107833","41.14","WYTON, UK","FM-15","EGUY ","V020","290,1,N,0041,1","03000,1,C,N","011265,1,N,1","+0150,1","+0050,1","99999,9","04,5,+01200,1,99,9","07,5,+03000,1,99,9",,,"07,99,1,99,9,99,9,99999,9,99,9,99,9","10180,1,99999,9",,,,,"MET062METAR EGUY 181450Z 29008KT 9999 SCT040 BKN100 15/05 Q1018 BLU;",
"03566099999","2010-09-19T06:50:00","4","52.357167","-0.107833","41.14","WYTON, UK","FM-15","EGUY ","V020","210,1,N,0046,1","99999,9,9,Y","009900,1,N,1","+0110,1","+0110,1","99999,9",,,,,,"10139,1,99999,9",,,,,"MET049METAR EGUY 190650Z 21009KT CAVOK 11/11 Q1014 BLU;",
"03566099999","2010-09-19T07:50:00","4","52.357167","-0.107833","41.14","WYTON, UK","FM-15","EGUY ","V020","230,1,N,0051,1","99999,9,9,Y","009900,1,N,1","+0120,1","+0110,1","99999,9",,,,,,"10139,1,99999,9",,,,,"MET049METAR EGUY 190750Z 23010KT CAVOK 12/11 Q1014 BLU;",
"03566099999","2010-09-19T08:50:00","4","52.357167","-0.107833","41.14","WYTON, UK","FM-15","EGUY ","V020","230,1,N,0062,1","02100,1,C,N","011265,1,N,1","+0130,1","+0110,1","99999,9","02,5,+01200,1,99,9","07,5,+02100,1,99,9",,,"07,99,1,99,9,99,9,99999,9,99,9,99,9","10149,1,99999,9",,,,,"MET062METAR EGUY 190850Z 23012KT 9999 FEW040 BKN070 13/11 Q1015 BLU;",
"03566099999","2010-09-19T09:50:00","4","52.357167","-0.107833","41.14","WYTON, UK","FM-15","EGUY ","V020","230,1,N,0077,1","02100,1,C,N","011265,1,N,1","+0130,1","+0110,1","99999,9","02,5,+00900,1,99,9","07,5,+02100,1,99,9",,,"07,99,1,99,9,99,9,99999,9,99,9,99,9","10149,1,99999,9",,,,,"MET062METAR EGUY 190950Z 23015KT 9999 FEW030 BKN070 13/11 Q1015 BLU;",
"03566099999","2010-09-19T10:50:00","4","52.357167","-0.107833","41.14","WYTON, UK","FM-15","EGUY ","V020","220,1,N,0082,1","02400,1,C,N","011265,1,N,1","+0140,1","+0120,1","99999,9","02,5,+00540,1,99,9","07,5,+02400,1,99,9",,,"07,99,1,99,9,99,9,99999,9,99,9,99,9","10139,1,99999,9",,,,,"MET062METAR EGUY 191050Z 22016KT 9999 FEW018 BKN080 14/12 Q1014 BLU;",
"03566099999","2010-09-19T11:50:00","4","52.357167","-0.107833","41.14","WYTON, UK","FM-15","EGUY ","V020","230,1,N,0072,1","02400,1,C,N","011265,1,N,1","+0160,1","+0120,1","99999,9","02,5,+00510,1,99,9","07,5,+02400,1,99,9",,,"07,99,1,99,9,99,9,99999,9,99,9,99,9","10139,1,99999,9",,,,,"MET062METAR EGUY 191150Z 23014KT 9999 FEW017 BKN080 16/12 Q1014 BLU;",
"03566099999","2010-09-19T12:50:00","4","52.357167","-0.107833","41.14","WYTON, UK","FM-15","EGUY ","V020","230,1,N,0067,1","02400,1,C,N","011265,1,N,1","+0150,1","+0110,1","99999,9","02,5,+00480,1,99,9","07,5,+02400,1,99,9",,,"07,99,1,99,9,99,9,99999,9,99,9,99,9","10139,1,99999,9",,,,,"MET062METAR EGUY 191250Z 23013KT 9999 FEW016 BKN080 15/11 Q1014 BLU;",
"03566099999","2010-09-19T13:50:00","4","52.357167","-0.107833","41.14","WYTON, UK","FM-15","EGUY ","V020","230,1,N,0067,1","02400,1,C,N","011265,1,N,1","+0160,1","+0110,1","99999,9","02,5,+00600,1,99,9","07,5,+02400,1,99,9",,,"07,99,1,99,9,99,9,99999,9,99,9,99,9","10129,1,99999,9",,,,,"MET062METAR EGUY 191350Z 23013KT 9999 FEW020 BKN080 16/11 Q1013 BLU;",
"03566099999","2010-09-19T14:50:00","4","52.357167","-0.107833","41.14","WYTON, UK","FM-15","EGUY ","V020","230,1,N,0072,1","02400,1,C,N","011265,1,N,1","+0160,1","+0110,1","99999,9","02,5,+00600,1,99,9","07,5,+02400,1,99,9",,,"07,99,1,99,9,99,9,99999,9,99,9,99,9","10129,1,99999,9",,,,,"MET062METAR EGUY 191450Z 23014KT 9999 FEW020 BKN080 16/11 Q1013 BLU;",
"03566099999","2010-09-20T06:50:00","4","52.357167","-0.107833","41.14","WYTON, UK","FM-15","EGUY ","V020","230,1,N,0057,1","99999,9,C,N","011265,1,N,1","+0140,1","+0130,1","99999,9","02,5,+00600,1,99,9","04,5,+03600,1,99,9",,,"04,99,1,99,9,99,9,99999,9,99,9,99,9","10108,1,99999,9",,,,,"MET062METAR EGUY 200650Z 23011KT 9999 FEW020 SCT120 14/13 Q1011 BLU;","P01 036003SCOCIG"
"03566099999","2010-09-20T07:50:00","4","52.357167","-0.107833","41.14","WYTON, UK","FM-15","EGUY ","V020","230,1,N,0072,1","99999,9,C,N","011265,1,N,1","+0150,1","+0130,1","99999,9","02,5,+00450,1,99,9","04,5,+07500,1,99,9",,,"04,99,1,99,9,99,9,99999,9,99,9,99,9","10108,1,99999,9",,,,,"MET062METAR EGUY 200750Z 23014KT 9999 FEW015 SCT250 15/13 Q1011 BLU;","P01 075003SCOCIG"
"03566099999","2010-09-20T08:50:00","4","52.357167","-0.107833","41.14","WYTON, UK","FM-15","EGUY ","V020","230,1,N,0067,1","07500,1,C,N","011265,1,N,1","+0160,1","+0130,1","99999,9","02,5,+00450,1,99,9","07,5,+07500,1,99,9",,,"07,99,1,99,9,99,9,99999,9,99,9,99,9","10108,1,99999,9",,,,,"MET062METAR EGUY 200850Z 23013KT 9999 FEW015 BKN250 16/13 Q1011 BLU;",
"03566099999","2010-09-20T09:50:00","4","52.357167","-0.107833","41.14","WYTON, UK","FM-15","EGUY ","V020","250,1,N,0072,1","07500,1,C,N","011265,1,N,1","+0180,1","+0120,1","99999,9","02,5,+00600,1,99,9","07,5,+07500,1,99,9",,,"07,99,1,99,9,99,9,99999,9,99,9,99,9","10108,1,99999,9",,,,,"MET062METAR EGUY 200950Z 25014KT 9999 FEW020 BKN250 18/12 Q1011 BLU;",
"03566099999","2010-09-20T10:50:00","4","52.357167","-0.107833","41.14","WYTON, UK","FM-15","EGUY ","V020","240,1,N,0082,1","22000,1,9,N","011265,1,N,1","+0190,1","+0120,1","99999,9","04,5,+00840,1,99,9",,,,"04,99,1,99,9,99,9,99999,9,99,9,99,9","10119,1,99999,9",,,,,"MET055METAR EGUY 201050Z 24016KT 9999 SCT028 19/12 Q1012 BLU;",
"03566099999","2010-09-20T11:50:00","4","52.357167","-0.107833","41.14","WYTON, UK","FM-15","EGUY ","V020","260,1,N,0087,1","99999,9,C,N","011265,1,N,1","+0200,1","+0120,1","99999,9","02,5,+00960,1,99,9","04,5,+07500,1,99,9",,,"04,99,1,99,9,99,9,99999,9,99,9,99,9","10119,1,99999,9",,,,,"MET062METAR EGUY 201150Z 26017KT 9999 FEW032 SCT250 20/12 Q1012 BLU;","P01 075003SCOCIG"
"03566099999","2010-09-20T12:50:00","4","52.357167","-0.107833","41.14","WYTON, UK","FM-15","EGUY ","V020","270,1,N,0087,1","99999,9,C,N","011265,1,N,1","+0210,1","+0110,1","99999,9","02,5,+01050,1,99,9","04,5,+07500,1,99,9",,,"04,99,1,99,9,99,9,99999,9,99,9,99,9","10119,1,99999,9",,,,,"MET062METAR EGUY 201250Z 27017KT 9999 FEW035 SCT250 21/11 Q1012 BLU;","P01 075003SCOCIG"
"03566099999","2010-09-20T13:50:00","4","52.357167","-0.107833","41.14","WYTON, UK","FM-15","EGUY ","V020","250,1,N,0087,1","99999,9,C,N","011265,1,N,1","+0200,1","+0100,1","99999,9","02,5,+01050,1,99,9","04,5,+07500,1,99,9",,,"04,99,1,99,9,99,9,99999,9,99,9,99,9","10119,1,99999,9",,,,,"MET062METAR EGUY 201350Z 25017KT 9999 FEW035 SCT250 20/10 Q1012 BLU;","P01 075003SCOCIG"
"03566099999","2010-09-20T14:50:00","4","52.357167","-0.107833","41.14","WYTON, UK","FM-15","EGUY ","V020","240,1,N,0072,1","99999,9,C,N","011265,1,N,1","+0190,1","+0110,1","99999,9","02,5,+00960,1,99,9","04,5,+01500,1,99,9",,,"04,99,1,99,9,99,9,99999,9,99,9,99,9","10129,1,99999,9",,,,,"MET062METAR EGUY 201450Z 24014KT 9999 FEW032 SCT050 19/11 Q1013 BLU;","P01 015003SCOCIG"
"03566099999","2010-09-21T06:50:00","4","52.357167","-0.107833","41.14","WYTON, UK","FM-15","EGUY ","V020","220,1,N,0021,1","07500,1,C,N","004000,1,N,1","+0100,1","+0100,1","99999,9","07,5,+07500,1,99,9",,,,"07,99,1,99,9,99,9,99999,9,99,9,99,9",,"10,1",,,,"MET057METAR EGUY 210650Z 22004KT 4000 BR BKN250 10/10 1019 GRN;",
"03566099999","2010-09-21T07:50:00","4","52.357167","-0.107833","41.14","WYTON, UK","FM-15","EGUY ","V020","210,1,N,0015,1","07500,1,C,N","007000,1,N,1","+0120,1","+0120,1","99999,9","02,5,+01200,1,99,9","07,5,+07500,1,99,9",,,"07,99,1,99,9,99,9,99999,9,99,9,99,9","10190,1,99999,9",,,,,"MET062METAR EGUY 210750Z 21003KT 7000 FEW040 BKN250 12/12 Q1019 WHT;",
"03566099999","2010-09-21T08:50:00","4","52.357167","-0.107833","41.14","WYTON, UK","FM-15","EGUY ","V020","170,1,N,0015,1","07500,1,C,N","007000,1,N,1","+0150,1","+0130,1","99999,9","02,5,+01200,1,99,9","07,5,+07500,1,99,9",,,"07,99,1,99,9,99,9,99999,9,99,9,99,9","10200,1,99999,9",,,,,"MET062METAR EGUY 210850Z 17003KT 7000 FEW040 BKN250 15/13 Q1020 BLU;",
"03566099999","2010-09-21T09:50:00","4","52.357167","-0.107833","41.14","WYTON, UK","FM-15","EGUY ","V020","170,1,N,0021,1","07500,1,C,N","011265,1,N,1","+0170,1","+0130,1","99999,9","02,5,+01200,1,99,9","07,5,+07500,1,99,9",,,"07,99,1,99,9,99,9,99999,9,99,9,99,9","10200,1,99999,9",,,,,"MET062METAR EGUY 210950Z 17004KT 9999 FEW040 BKN250 17/13 Q1020 BLU;",
"03566099999","2010-09-21T10:50:00","4","52.357167","-0.107833","41.14","WYTON, UK","FM-15","EGUY ","V020","170,1,N,0026,1","07500,1,C,N","011265,1,N,1","+0190,1","+0130,1","99999,9","02,5,+00750,1,99,9","07,5,+07500,1,99,9",,,"07,99,1,99,9,99,9,99999,9,99,9,99,9","10200,1,99999,9",,,,,"MET062METAR EGUY 211050Z 17005KT 9999 FEW025 BKN250 19/13 Q1020 BLU;",
"03566099999","2010-09-21T11:50:00","4","52.357167","-0.107833","41.14","WYTON, UK","FM-15","EGUY ","V020","180,1,N,0031,1","07500,1,C,N","011265,1,N,1","+0200,1","+0130,1","99999,9","02,5,+00900,1,99,9","07,5,+07500,1,99,9",,,"07,99,1,99,9,99,9,99999,9,99,9,99,9","10200,1,99999,9",,,,,"MET062METAR EGUY 211150Z 18006KT 9999 FEW030 BKN250 20/13 Q1020 BLU;",
"03566099999","2010-09-21T12:50:00","4","52.357167","-0.107833","41.14","WYTON, UK","FM-15","EGUY ","V020","190,1,N,0031,1","07500,1,C,N","011265,1,N,1","+0200,1","+0120,1","99999,9","02,5,+00900,1,99,9","07,5,+07500,1,99,9",,,"07,99,1,99,9,99,9,99999,9,99,9,99,9","10190,1,99999,9",,,,,"MET062METAR EGUY 211250Z 19006KT 9999 FEW030 BKN250 20/12 Q1019 BLU;",
"03566099999","2010-09-21T13:50:00","4","52.357167","-0.107833","41.14","WYTON, UK","FM-15","EGUY ","V020","190,1,N,0026,1","07500,1,C,N","011265,1,N,1","+0200,1","+0120,1","99999,9","02,5,+00900,1,99,9","07,5,+07500,1,99,9",,,"07,99,1,99,9,99,9,99999,9,99,9,99,9","10190,1,99999,9",,,,,"MET062METAR EGUY 211350Z 19005KT 9999 FEW030 BKN250 20/12 Q1019 BLU;",
"03566099999","2010-09-21T14:50:00","4","52.357167","-0.107833","41.14","WYTON, UK","FM-15","EGUY ","V020","160,1,N,0041,1","07500,1,C,N","011265,1,N,1","+0210,1","+0120,1","99999,9","02,5,+01200,1,99,9","07,5,+07500,1,99,9",,,"07,99,1,99,9,99,9,99999,9,99,9,99,9","10190,1,99999,9",,,,,"MET062METAR EGUY 211450Z 16008KT 9999 FEW040 BKN250 21/12 Q1019 BLU;",
"03566099999","2010-09-22T06:50:00","4","52.357167","-0.107833","41.14","WYTON, UK","FM-15","EGUY ","V020","130,1,N,0010,1","07500,1,C,N","003800,1,N,1","+0110,1","+0110,1","99999,9","02,5,+02400,1,99,9","07,5,+07500,1,99,9",,,"07,99,1,99,9,99,9,99999,9,99,9,99,9","10169,1,99999,9","10,1",,,,"MET065METAR EGUY 220650Z 13002KT 3800 BR FEW080 BKN250 11/11 Q1017 GRN;",
"03566099999","2010-09-22T07:50:00","4","52.357167","-0.107833","41.14","WYTON, UK","FM-15","EGUY ","V020","150,1,N,0021,1","07500,1,C,N","008000,1,N,1","+0130,1","+0120,1","99999,9","02,5,+02100,1,99,9","08,5,+07500,1,99,9",,,"08,99,1,99,9,99,9,99999,9,99,9,99,9","10169,1,99999,9",,,,,"MET062METAR EGUY 220750Z 15004KT 8000 FEW070 OVC250 13/12 Q1017 BLU;",
"03566099999","2010-09-22T08:50:00","4","52.357167","-0.107833","41.14","WYTON, UK","FM-15","EGUY ","V020","160,1,N,0031,1","07500,1,C,N","008000,1,N,1","+0150,1","+0130,1","99999,9","02,5,+02400,1,99,9","08,5,+07500,1,99,9",,,"08,99,1,99,9,99,9,99999,9,99,9,99,9","10169,1,99999,9","05,1",,,,"MET065METAR EGUY 220850Z 16006KT 8000 HZ FEW080 OVC250 15/13 Q1017 BLU;",
"03566099999","2010-09-22T09:50:00","4","52.357167","-0.107833","41.14","WYTON, UK","FM-15","EGUY ","V020","160,1,N,0041,1","99999,9,9,Y","009900,1,N,1","+0170,1","+0140,1","99999,9",,,,,,"10159,1,99999,9",,,,,"MET049METAR EGUY 220950Z 16008KT CAVOK 17/14 Q1016 BLU;",
"03566099999","2010-09-22T10:50:00","4","52.357167","-0.107833","41.14","WYTON, UK","FM-15","EGUY ","V020","180,1,N,0046,1","99999,9,9,Y","009900,1,N,1","+0200,1","+0130,1","99999,9",,,,,,"10159,1,99999,9",,,,,"MET049METAR EGUY 221050Z 18009KT CAVOK 20/13 Q1016 BLU;",
"03566099999","2010-09-22T11:50:00","4","52.357167","-0.107833","41.14","WYTON, UK","FM-15","EGUY ","V020","180,1,N,0051,1","99999,9,9,Y","009900,1,N,1","+0210,1","+0120,1","99999,9",,,,,,"10149,1,99999,9",,,,,"MET049METAR EGUY 221150Z 18010KT CAVOK 21/12 Q1015 BLU;",
"03566099999","2010-09-22T12:50:00","4","52.357167","-0.107833","41.14","WYTON, UK","FM-15","EGUY ","V020","190,1,N,0062,1","99999,9,9,Y","009900,1,N,1","+0220,1","+0130,1","99999,9",,,,,,"10139,1,99999,9",,,,,"MET049METAR EGUY 221250Z 19012KT CAVOK 22/13 Q1014 BLU;",
"03566099999","2010-09-22T13:50:00","4","52.357167","-0.107833","41.14","WYTON, UK","FM-15","EGUY ","V020","210,1,N,0072,1","99999,9,9,Y","009900,1,N,1","+0230,1","+0140,1","99999,9",,,,,,"10139,1,99999,9",,,,,"MET049METAR EGUY 221350Z 21014KT CAVOK 23/14 Q1014 BLU;",
"03566099999","2010-09-22T14:50:00","4","52.357167","-0.107833","41.14","WYTON, UK","FM-15","EGUY ","V020","210,1,N,0077,1","99999,9,9,Y","009900,1,N,1","+0220,1","+0150,1","99999,9",,,,,,"10129,1,99999,9",,,,,"MET049METAR EGUY 221450Z 21015KT CAVOK 22/15 Q1013 BLU;",
"03566099999","2010-09-23T06:50:00","4","52.357167","-0.107833","41.14","WYTON, UK","FM-15","EGUY ","V020","210,1,N,0051,1","01800,1,C,N","011265,1,N,1","+0150,1","+0120,1","99999,9","02,5,+00300,1,99,9","04,5,+01800,1,99,9","07,5,+04500,1,99,9",,"07,99,1,99,9,99,9,99999,9,99,9,99,9","10081,1,99999,9","61,1",,,,"MET073METAR EGUY 230650Z 21010KT 9999 -RA FEW010 SCT060 BKN150 15/12 Q1008 BLU;",
"03566099999","2010-09-23T07:50:00","4","52.357167","-0.107833","41.14","WYTON, UK","FM-15","EGUY ","V020","180,1,N,0031,1","02100,1,C,N","011265,1,N,1","+0140,1","+0130,1","99999,9","02,5,+01500,1,99,9","04,5,+02100,1,99,9","07,5,+04500,1,99,9",,"07,99,1,99,9,99,9,99999,9,99,9,99,9","10071,1,99999,9","61,1",,,,"MET073METAR EGUY 230750Z 18006KT 9999 -RA FEW050 SCT070 BKN150 14/13 Q1007 BLU;",
"03566099999","2010-09-23T08:50:00","4","52.357167","-0.107833","41.14","WYTON, UK","FM-15","EGUY ","V020","170,1,N,0041,1","00900,1,C,N","011265,1,N,1","+0150,1","+0140,1","99999,9","02,5,+00750,1,99,9","04,5,+00900,1,99,9","07,5,+04500,1,99,9",,"07,99,1,99,9,99,9,99999,9,99,9,99,9","10071,1,99999,9","61,1",,,,"MET073METAR EGUY 230850Z 17008KT 9999 -RA FEW025 SCT030 BKN150 15/14 Q1007 BLU;",
"03566099999","2010-09-23T09:26:00","4","52.357167","-0.107833","41.14","WYTON, UK","FM-15","EGUY ","V020","170,1,N,0051,1","00810,1,C,N","007000,1,N,1","+0160,1","+0150,1","99999,9","02,5,+00600,1,99,9","07,5,+00810,1,99,9","07,5,+04500,1,99,9",,"07,99,1,99,9,99,9,99999,9,99,9,99,9","10071,1,99999,9","61,1",,,,"MET073METAR EGUY 230926Z 17010KT 7000 -RA FEW020 BKN027 BKN150 16/15 Q1007 WHT;",
"03566099999","2010-09-23T09:50:00","4","52.357167","-0.107833","41.14","WYTON, UK","FM-15","EGUY ","V020","180,1,N,0046,1","00750,1,C,N","006000,1,N,1","+0160,1","+0150,1","99999,9","02,5,+00600,1,99,9","07,5,+00750,1,99,9","07,5,+04500,1,99,9",,"07,99,1,99,9,99,9,99999,9,99,9,99,9","10071,1,99999,9","61,1",,,,"MET073METAR EGUY 230950Z 18009KT 6000 -RA FEW020 BKN025 BKN150 16/15 Q1007 WHT;",
"03566099999","2010-09-23T10:00:00","4","52.357167","-0.107833","41.14","WYTON, UK","FM-15","EGUY ","V020","170,1,N,0051,1","00750,1,C,N","004000,1,N,1","+0150,1","+0150,1","99999,9","02,5,+00600,1,99,9","07,5,+00750,1,99,9","08,5,+04500,1,99,9",,"08,99,1,99,9,99,9,99999,9,99,9,99,9","10071,1,99999,9","63,1",,,,"MET072METAR EGUY 231000Z 17010KT 4000 RA FEW020 BKN025 OVC150 15/15 Q1007 GRN;",
"03566099999","2010-09-23T10:50:00","4","52.357167","-0.107833","41.14","WYTON, UK","FM-15","EGUY ","V020","180,1,N,0051,1","00660,1,C,N","004500,1,N,1","+0150,1","+0150,1","99999,9","02,5,+00300,1,99,9","07,5,+00660,1,99,9","07,5,+04500,1,99,9",,"07,99,1,99,9,99,9,99999,9,99,9,99,9","10061,1,99999,9","63,1",,,,"MET072METAR EGUY 231050Z 18010KT 4500 RA FEW010 BKN022 BKN150 15/15 Q1006 GRN;",
"03566099999","2010-09-23T11:11:00","4","52.357167","-0.107833","41.14","WYTON, UK","FM-15","EGUY ","V020","180,1,N,0062,1","00810,1,C,N","007000,1,N,1","+0160,1","+0150,1","99999,9","02,5,+00450,1,99,9","04,5,+00810,1,99,9","07,5,+01500,1,99,9",,"07,99,1,99,9,99,9,99999,9,99,9,99,9","10061,1,99999,9","05,1",,,,"MET072METAR EGUY 231111Z 18012KT 7000 HZ FEW015 SCT027 BKN050 16/15 Q1006 WHT;",
"03566099999","2010-09-23T11:50:00","4","52.357167","-0.107833","41.14","WYTON, UK","FM-15","EGUY ","V020","190,1,N,0051,1","00450,1,C,N","008000,1,N,1","+0170,1","+0150,1","99999,9","02,5,+00390,1,99,9","07,5,+00450,1,99,9","07,5,+01500,1,99,9",,"07,99,1,99,9,99,9,99999,9,99,9,99,9","10061,1,99999,9","05,1",,,,"MET072METAR EGUY 231150Z 19010KT 8000 HZ FEW013 BKN015 BKN050 17/15 Q1006 WHT;",
"03566099999","2010-09-23T12:50:00","4","52.357167","-0.107833","41.14","WYTON, UK","FM-15","EGUY ","V020","190,1,N,0062,1","00540,1,C,N","011265,1,N,1","+0180,1","+0150,1","99999,9","02,5,+00360,1,99,9","07,5,+00540,1,99,9",,,"07,99,1,99,9,99,9,99999,9,99,9,99,9","10051,1,99999,9",,,,,"MET062METAR EGUY 231250Z 19012KT 9999 FEW012 BKN018 18/15 Q1005 WHT;",
"03566099999","2010-09-23T13:50:00","4","52.357167","-0.107833","41.14","WYTON, UK","FM-15","EGUY ","V020","190,1,N,0051,1","00480,1,C,N","011265,1,N,1","+0180,1","+0140,1","99999,9","02,5,+00360,1,99,9","04,5,+00480,1,99,9","07,5,+00900,1,99,9",,"07,99,1,99,9,99,9,99999,9,99,9,99,9","10041,1,99999,9",,,,,"MET069METAR EGUY 231350Z 19010KT 9999 FEW012 SCT016 BKN030 18/14 Q1004 WHT;",
"03566099999","2010-09-23T14:50:00","4","52.357167","-0.107833","41.14","WYTON, UK","FM-15","EGUY ","V020","210,1,N,0051,1","00450,1,C,N","011265,1,N,1","+0180,1","+0140,1","99999,9","02,5,+00360,1,99,9","04,5,+00450,1,99,9","07,5,+00900,1,99,9",,"07,99,1,99,9,99,9,99999,9,99,9,99,9","10041,1,99999,9",,,,,"MET069METAR EGUY 231450Z 21010KT 9999 FEW012 SCT015 BKN030 18/14 Q1004 WHT;",
"03566099999","2010-09-24T06:50:00","4","52.357167","-0.107833","41.14","WYTON, UK","FM-15","EGUY ","V020","280,1,N,0031,1","00180,1,C,N","004000,1,N,1","+0120,1","+0120,1","99999,9","07,5,+00180,1,99,9",,,,"07,99,1,99,9,99,9,99999,9,99,9,99,9","10020,1,99999,9","10,1",,,,"MET059METAR EGUY 240650Z 28006KT 4000 BR BKN006 12/12 Q1002 YLO1;",
"03566099999","2010-09-24T07:50:00","4","52.357167","-0.107833","41.14","WYTON, UK","FM-15","EGUY ","V020","290,1,N,0046,1","00150,1,C,N","003300,1,N,1","+0120,1","+0120,1","99999,9","08,5,+00150,1,99,9",,,,"08,99,1,99,9,99,9,99999,9,99,9,99,9","10020,1,99999,9","63,1",,,,"MET059METAR EGUY 240750Z 29009KT 3300 RA OVC005 12/12 Q1002 YLO1;",
"03566099999","2010-09-24T08:50:00","4","52.357167","-0.107833","41.14","WYTON, UK","FM-15","EGUY ","V020","350,1,N,0077,1","00210,1,C,N","004000,1,N,1","+0120,1","+0120,1","99999,9","04,5,+00150,1,99,9","08,5,+00210,1,99,9",,,"08,99,1,99,9,99,9,99999,9,99,9,99,9","10031,1,99999,9","63,1",,,,"MET066METAR EGUY 240850Z 35015KT 4000 RA SCT005 OVC007 12/12 Q1003 YLO1;",
"03566099999","2010-09-24T09:50:00","4","52.357167","-0.107833","41.14","WYTON, UK","FM-15","EGUY ","V020","350,1,N,0072,1","00210,1,C,N","011265,1,N,1","+0130,1","+0120,1","99999,9","04,5,+00180,1,99,9","07,5,+00210,1,99,9","08,5,+00450,1,99,9",,"08,99,1,99,9,99,9,99999,9,99,9,99,9","10041,1,99999,9","61,1",,,,"MET074METAR EGUY 240950Z 35014KT 9999 -RA SCT006 BKN007 OVC015 13/12 Q1004 YLO1;",
"03566099999","2010-09-25T07:50:00","4","52.357167","-0.107833","41.14","WYTON, UK","FM-15","EGUY ","V020","330,1,N,0077,1","99999,9,9,Y","009900,1,N,1","+0080,1","+0050,1","99999,9",,,,,,"10159,1,99999,9",,,,,"MET049METAR EGUY 250750Z 33015KT CAVOK 08/05 Q1016 BLU;",
"03566099999","2010-09-25T08:50:00","4","52.357167","-0.107833","41.14","WYTON, UK","FM-15","EGUY ","V020","330,1,N,0098,1","99999,9,9,Y","009900,1,N,1","+0090,1","+0050,1","99999,9",,,,,,"10159,1,99999,9",,,,,"MET049METAR EGUY 250850Z 33019KT CAVOK 09/05 Q1016 BLU;",
"03566099999","2010-09-25T09:50:00","4","52.357167","-0.107833","41.14","WYTON, UK","FM-15","EGUY ","V020","330,1,N,0082,1","99999,9,9,Y","009900,1,N,1","+0110,1","+0070,1","99999,9",,,,,,"10159,1,99999,9",,,,,"MET049METAR EGUY 250950Z 33016KT CAVOK 11/07 Q1016 BLU;",
"03566099999","2010-09-25T10:50:00","4","52.357167","-0.107833","41.14","WYTON, UK","FM-15","EGUY ","V020","340,1,N,0072,1","99999,9,C,N","011265,1,N,1","+0120,1","+0060,1","99999,9","02,5,+00750,1,99,9","04,5,+01500,1,99,9",,,"04,99,1,99,9,99,9,99999,9,99,9,99,9","10159,1,99999,9",,,,,"MET062METAR EGUY 251050Z 34014KT 9999 FEW025 SCT050 12/06 Q1016 BLU;","P01 015003SCOCIG"
"03566099999","2010-09-25T11:50:00","4","52.357167","-0.107833","41.14","WYTON, UK","FM-15","EGUY ","V020","340,1,N,0082,1","00660,1,C,N","011265,1,N,1","+0120,1","+0050,1","99999,9","07,5,+00660,1,99,9",,,,"07,99,1,99,9,99,9,99999,9,99,9,99,9","10159,1,99999,9",,,,,"MET055METAR EGUY 251150Z 34016KT 9999 BKN022 12/05 Q1016 BLU;",
"03566099999","2010-09-25T12:50:00","4","52.357167","-0.107833","41.14","WYTON, UK","FM-15","EGUY ","V020","340,1,N,0072,1","01050,1,C,N","011265,1,N,1","+9999,9","+9999,9","99999,9","04,5,+00660,1,99,9","07,5,+01050,1,99,9",,,"07,99,1,99,9,99,9,99999,9,99,9,99,9","10159,1,99999,9",,,,,"MET061METAR EGUY 251250Z 34014KT 9999 SCT022 BKN035 2/05 Q1016 BLU;",
"03566099999","2010-09-25T13:50:00","4","52.357167","-0.107833","41.14","WYTON, UK","FM-15","EGUY ","V020","330,1,N,0098,1","00750,1,C,N","011265,1,N,1","+0120,1","+0050,1","99999,9","07,5,+00750,1,99,9","07,5,+01500,1,99,9",,,"07,99,1,99,9,99,9,99999,9,99,9,99,9","10159,1,99999,9",,,,,"MET062METAR EGUY 251350Z 33019KT 9999 BKN025 BKN050 12/05 Q1016 BLU;",
"03566099999","2010-09-26T06:50:00","4","52.357167","-0.107833","41.14","WYTON, UK","FM-15","EGUY ","V020","330,1,N,0082,1","00900,1,C,N","011265,1,N,1","+0100,1","+0070,1","99999,9","02,5,+00450,1,99,9","04,5,+00900,1,99,9","07,5,+02100,1,99,9",,"07,99,1,99,9,99,9,99999,9,99,9,99,9","10129,1,99999,9",,,,"0134,1","MET072METAR EGUY 260650Z 33016G26KT 9999 FEW015 SCT030 BKN070 10/07 Q1013 BLU;",
"03566099999","2010-09-26T07:50:00","4","52.357167","-0.107833","41.14","WYTON, UK","FM-15","EGUY ","V020","340,1,N,0087,1","00750,1,C,N","011265,1,N,1","+0100,1","+0070,1","99999,9","02,5,+00450,1,99,9","04,5,+00750,1,99,9","07,5,+01800,1,99,9",,"07,99,1,99,9,99,9,99999,9,99,9,99,9","10129,1,99999,9",,,,,"MET069METAR EGUY 260750Z 34017KT 9999 FEW015 SCT025 BKN060 10/07 Q1013 BLU;",
"03566099999","2010-09-26T08:50:00","4","52.357167","-0.107833","41.14","WYTON, UK","FM-15","EGUY ","V020","340,1,N,0098,1","00750,1,C,N","009000,1,N,1","+0110,1","+0080,1","99999,9","02,5,+00450,1,99,9","04,5,+00750,1,99,9","07,5,+01500,1,99,9",,"07,99,1,99,9,99,9,99999,9,99,9,99,9","10129,1,99999,9","16,1",,,,"MET074METAR EGUY 260850Z 34019KT 9000 VCSH FEW015 SCT025 BKN050 11/08 Q1013 BLU;",
"03566099999","2010-09-26T09:50:00","4","52.357167","-0.107833","41.14","WYTON, UK","FM-15","EGUY ","V020","340,1,N,0082,1","00540,1,C,N","011265,1,N,1","+0110,1","+0080,1","99999,9","02,5,+00420,1,99,9","07,5,+00540,1,99,9",,,"07,99,1,99,9,99,9,99999,9,99,9,99,9","10129,1,99999,9",,,,"0134,1","MET065METAR EGUY 260950Z 34016G26KT 9999 FEW014 BKN018 11/08 Q1013 WHT;",
"03566099999","2010-09-26T10:50:00","4","52.357167","-0.107833","41.14","WYTON, UK","FM-15","EGUY ","V020","340,1,N,0082,1","00540,1,C,N","009000,1,N,1","+0120,1","+0100,1","99999,9","02,5,+00420,1,99,9","07,5,+00540,1,99,9",,,"07,99,1,99,9,99,9,99999,9,99,9,99,9","10129,1,99999,9","80,1",,,"0134,1","MET071METAR EGUY 261050Z 34016G26KT 9000 -SHRA FEW014 BKN018 12/10 Q1013 WHT;",
"03566099999","2010-09-27T06:50:00","4","52.357167","-0.107833","41.14","WYTON, UK","FM-15","EGUY ","V020","340,1,N,0015,1","00060,1,C,N","001100,1,N,1","+0120,1","+0120,1","99999,9","08,5,+00060,1,99,9",,,,"08,99,1,99,9,99,9,99999,9,99,9,99,9","10108,1,99999,9","51,1",,,,"MET059METAR EGUY 270650Z 34003KT 1100 -DZ OVC002 12/12 Q1011 AMB;",
"03566099999","2010-09-27T07:50:00","4","52.357167","-0.107833","41.14","WYTON, UK","FM-15","EGUY ","V020","020,1,N,0005,1","00060,1,C,N","000800,1,N,1","+0130,1","+0130,1","99999,9","08,5,+00060,1,99,9",,,,"08,99,1,99,9,99,9,99999,9,99,9,99,9","10119,1,99999,9","51,1","61,1",,,"MET061METAR EGUY 270750Z 02001KT 0800 -RADZ OVC002 13/13 Q1012 RED;",
"03566099999","2010-09-27T08:50:00","4","52.357167","-0.107833","41.14","WYTON, UK","FM-15","EGUY ","V020","020,1,N,0036,1","00060,1,C,N","003000,1,N,1","+0130,1","+0130,1","99999,9","07,5,+00060,1,99,9","08,5,+00120,1,99,9",,,"08,99,1,99,9,99,9,99999,9,99,9,99,9","10119,1,99999,9","51,1","61,1",,,"MET068METAR EGUY 270850Z 02007KT 3000 -RADZ BKN002 OVC004 13/13 Q1012 AMB;",
"03566099999","2010-09-27T09:50:00","4","52.357167","-0.107833","41.14","WYTON, UK","FM-15","EGUY ","V020","020,1,N,0046,1","00090,1,C,N","003000,1,N,1","+0140,1","+0140,1","99999,9","08,5,+00090,1,99,9",,,,"08,99,1,99,9,99,9,99999,9,99,9,99,9","10119,1,99999,9","51,1","61,1",,,"MET062METAR EGUY 270950Z 02009KT 3000 -RADZ OVC003 14/14 Q1012 YLO2;",
"03566099999","2010-09-27T11:50:00","4","52.357167","-0.107833","41.14","WYTON, UK","FM-15","EGUY ","V020","020,1,N,0046,1","00120,1,C,N","003800,1,N,1","+0140,1","+0140,1","99999,9","07,5,+00120,1,99,9","08,5,+00150,1,99,9",,,"08,99,1,99,9,99,9,99999,9,99,9,99,9","10129,1,99999,9","51,1","61,1",,,"MET069METAR EGUY 271150Z 02009KT 3800 -RADZ BKN004 OVC005 14/14 Q1013 YLO2;",
"03566099999","2010-09-28T06:50:00","4","52.357167","-0.107833","41.14","WYTON, UK","FM-15","EGUY ","V020","020,1,N,0021,1","00090,1,C,N","001100,1,N,1","+0130,1","+0130,1","99999,9","07,5,+00090,1,99,9","08,5,+00360,1,99,9",,,"08,99,1,99,9,99,9,99999,9,99,9,99,9","10159,1,99999,9","10,1",,,,"MET065METAR EGUY 280650Z 02004KT 1100 BR BKN003 OVC012 13/13 Q1016 AMB;",
"03566099999","2010-09-28T07:50:00","4","52.357167","-0.107833","41.14","WYTON, UK","FM-15","EGUY ","V020","010,1,N,0010,1","00060,1,C,N","001800,1,N,1","+0130,1","+0130,1","99999,9","07,5,+00060,1,99,9","08,5,+00450,1,99,9",,,"08,99,1,99,9,99,9,99999,9,99,9,99,9","10159,1,99999,9","10,1",,,,"MET065METAR EGUY 280750Z 01002KT 1800 BR BKN002 OVC015 13/13 Q1016 AMB;",
"03566099999","2010-09-28T08:50:00","4","52.357167","-0.107833","41.14","WYTON, UK","FM-15","EGUY ","V020","070,1,N,0026,1","00720,1,C,N","003800,1,N,1","+0140,1","+0130,1","99999,9","02,5,+00150,1,99,9","04,5,+00720,1,99,9","08,5,+01140,1,99,9",,"08,99,1,99,9,99,9,99999,9,99,9,99,9","10169,1,99999,9","10,1",,,,"MET072METAR EGUY 280850Z 07005KT 3800 BR FEW005 SCT024 OVC038 14/13 Q1017 GRN;",
"03566099999","2010-09-28T09:50:00","4","52.357167","-0.107833","41.14","WYTON, UK","FM-15","EGUY ","V020","050,1,N,0015,1","00900,1,C,N","006000,1,N,1","+0150,1","+0140,1","99999,9","04,5,+00330,1,99,9","07,5,+00900,1,99,9","07,5,+01200,1,99,9",,"07,99,1,99,9,99,9,99999,9,99,9,99,9","10169,1,99999,9","05,1",,,,"MET072METAR EGUY 280950Z 05003KT 6000 HZ SCT011 BKN030 BKN040 15/14 Q1017 GRN;",
"03566099999","2010-09-28T10:50:00","4","52.357167","-0.107833","41.14","WYTON, UK","FM-15","EGUY ","V020","120,1,N,0015,1","00300,1,C,N","008000,1,N,1","+0160,1","+0140,1","99999,9","07,5,+00300,1,99,9",,,,"07,99,1,99,9,99,9,99999,9,99,9,99,9","10169,1,99999,9","05,1",,,,"MET058METAR EGUY 281050Z 12003KT 8000 HZ BKN010 16/14 Q1017 GRN;",
"03566099999","2010-09-28T11:50:00","4","52.357167","-0.107833","41.14","WYTON, UK","FM-15","EGUY ","V020","120,1,N,0015,1","00360,1,C,N","011265,1,N,1","+0160,1","+0130,1","99999,9","07,5,+00360,1,99,9","08,5,+01350,1,99,9",,,"08,99,1,99,9,99,9,99999,9,99,9,99,9","10169,1,99999,9",,,,,"MET062METAR EGUY 281150Z 12003KT 9999 BKN012 OVC045 16/13 Q1017 GRN;",
"03566099999","2010-09-28T12:50:00","4","52.357167","-0.107833","41.14","WYTON, UK","FM-15","EGUY ","V020","120,1,N,0026,1","01140,1,C,N","011265,1,N,1","+0170,1","+0130,1","99999,9","04,5,+00540,1,99,9","07,5,+01140,1,99,9",,,"07,99,1,99,9,99,9,99999,9,99,9,99,9","10169,1,99999,9",,,,,"MET062METAR EGUY 281250Z 12005KT 9999 SCT018 BKN038 17/13 Q1017 WHT;",
"03566099999","2010-09-28T13:50:00","4","52.357167","-0.107833","41.14","WYTON, UK","FM-15","EGUY ","V020","150,1,N,0026,1","01350,1,C,N","011265,1,N,1","+0160,1","+0130,1","99999,9","02,5,+00540,1,99,9","08,5,+01350,1,99,9",,,"08,99,1,99,9,99,9,99999,9,99,9,99,9","10169,1,99999,9",,,,,"MET062METAR EGUY 281350Z 15005KT 9999 FEW018 OVC045 16/13 Q1017 BLU;",
"03566099999","2010-09-28T14:50:00","4","52.357167","-0.107833","41.14","WYTON, UK","FM-15","EGUY ","V020","170,1,N,0021,1","01350,1,C,N","011265,1,N,1","+0160,1","+0130,1","99999,9","02,5,+00600,1,99,9","08,5,+01350,1,99,9",,,"08,99,1,99,9,99,9,99999,9,99,9,99,9","10169,1,99999,9",,,,,"MET062METAR EGUY 281450Z 17004KT 9999 FEW020 OVC045 16/13 Q1017 BLU;",
"03566099999","2010-09-29T06:50:00","4","52.357167","-0.107833","41.14","WYTON, UK","FM-15","EGUY ","V020","150,1,N,0051,1","00060,1,C,N","002500,1,N,1","+0140,1","+0140,1","99999,9","07,5,+00060,1,99,9","08,5,+00210,1,99,9",,,"08,99,1,99,9,99,9,99999,9,99,9,99,9","10159,1,99999,9","51,1",,,,"MET066METAR EGUY 290650Z 15010KT 2500 -DZ BKN002 OVC007 14/14 Q1016 AMB;",
"03566099999","2010-09-29T07:50:00","4","52.357167","-0.107833","41.14","WYTON, UK","FM-15","EGUY ","V020","170,1,N,0077,1","00150,1,C,N","001500,1,N,1","+0140,1","+9999,9","99999,9","07,5,+00150,1,99,9","08,5,+00300,1,99,9",,,"08,99,1,99,9,99,9,99999,9,99,9,99,9","10159,1,99999,9","53,1",,,,"MET065METAR EGUY 290750Z 17015KT 1500 DZ BKN005 OVC010 14/// Q1016 AMB;",
"03566099999","2010-09-29T08:50:00","4","52.357167","-0.107833","41.14","WYTON, UK","FM-15","EGUY ","V020","180,1,N,0051,1","00150,1,C,N","002000,1,N,1","+0140,1","+0140,1","99999,9","07,5,+00150,1,99,9","07,5,+00570,1,99,9","07,5,+01020,1,99,9",,"07,99,1,99,9,99,9,99999,9,99,9,99,9","10159,1,99999,9","51,1","61,1",,,"MET076METAR EGUY 290850Z 18010KT 2000 -RADZ BKN005 BKN019 BKN034 14/14 Q1016 YLO2;",
"03566099999","2010-09-29T09:50:00","4","52.357167","-0.107833","41.14","WYTON, UK","FM-15","EGUY ","V020","170,1,N,0046,1","00450,1,C,N","008000,1,N,1","+0150,1","+0140,1","99999,9","04,5,+00150,1,99,9","07,5,+00450,1,99,9","07,5,+00750,1,99,9",,"07,99,1,99,9,99,9,99999,9,99,9,99,9","10159,1,99999,9","51,1",,,,"MET074METAR EGUY 290950Z 17009KT 8000 -DZ SCT005 BKN015 BKN025 15/14 Q1016 YLO1;",
"03566099999","2010-09-29T10:50:00","4","52.357167","-0.107833","41.14","WYTON, UK","FM-15","EGUY ","V020","150,1,N,0062,1","00450,1,C,N","011265,1,N,1","+0160,1","+0150,1","99999,9","04,5,+00210,1,99,9","07,5,+00450,1,99,9","07,5,+00660,1,99,9",,"07,99,1,99,9,99,9,99999,9,99,9,99,9","10149,1,99999,9",,,,,"MET069METAR EGUY 291050Z 15012KT 9999 SCT007 BKN015 BKN022 16/15 Q1015 GRN;",
"03566099999","2010-09-29T11:50:00","4","52.357167","-0.107833","41.14","WYTON, UK","FM-15","EGUY ","V020","170,1,N,0062,1","00330,1,C,N","011265,1,N,1","+0160,1","+0140,1","99999,9","02,5,+00240,1,99,9","07,5,+00330,1,99,9","07,5,+02100,1,99,9",,"07,99,1,99,9,99,9,99999,9,99,9,99,9","10149,1,99999,9",,,,,"MET069METAR EGUY 291150Z 17012KT 9999 FEW008 BKN011 BKN070 16/14 Q1015 GRN;",
"03566099999","2010-09-29T12:50:00","4","52.357167","-0.107833","41.14","WYTON, UK","FM-15","EGUY ","V020","180,1,N,0057,1","00360,1,C,N","011265,1,N,1","+0170,1","+0140,1","99999,9","02,5,+00240,1,99,9","07,5,+00360,1,99,9","08,5,+00750,1,99,9",,"08,99,1,99,9,99,9,99999,9,99,9,99,9","10149,1,99999,9",,,,,"MET069METAR EGUY 291250Z 18011KT 9999 FEW008 BKN012 OVC025 17/14 Q1015 GRN;",
"03566099999","2010-09-29T13:50:00","4","52.357167","-0.107833","41.14","WYTON, UK","FM-15","EGUY ","V020","180,1,N,0057,1","00600,1,C,N","011265,1,N,1","+0170,1","+0140,1","99999,9","04,5,+00360,1,99,9","07,5,+00600,1,99,9","08,5,+02700,1,99,9",,"08,99,1,99,9,99,9,99999,9,99,9,99,9","10139,1,99999,9",,,,,"MET069METAR EGUY 291350Z 18011KT 9999 SCT012 BKN020 OVC090 17/14 Q1014 GRN;",
"03566099999","2010-09-29T14:50:00","4","52.357167","-0.107833","41.14","WYTON, UK","FM-15","EGUY ","V020","200,1,N,0036,1","00690,1,C,N","007000,1,N,1","+0160,1","+0150,1","99999,9","04,5,+00300,1,99,9","07,5,+00690,1,99,9","08,5,+01200,1,99,9",,"08,99,1,99,9,99,9,99999,9,99,9,99,9","10139,1,99999,9","63,1",,,,"MET072METAR EGUY 291450Z 20007KT 7000 RA SCT010 BKN023 OVC040 16/15 Q1014 GRN;",
"03566099999","2010-09-30T06:50:00","4","52.357167","-0.107833","41.14","WYTON, UK","FM-15","EGUY ","V020","260,1,N,0041,1","22000,1,9,N","008000,1,N,1","+0080,1","+0080,1","99999,9","02,5,+01500,1,99,9",,,,"02,99,1,99,9,99,9,99999,9,99,9,99,9","10139,1,99999,9","05,1",,,,"MET058METAR EGUY 300650Z 26008KT 8000 HZ FEW050 08/08 Q1014 BLU;",
"03566099999","2010-09-30T07:50:00","4","52.357167","-0.107833","41.14","WYTON, UK","FM-15","EGUY ","V020","260,1,N,0051,1","99999,9,9,Y","009900,1,N,1","+0090,1","+0080,1","99999,9",,,,,,"10139,1,99999,9",,,,,"MET049METAR EGUY 300750Z 26010KT CAVOK 09/08 Q1014 BLU;",
"03566099999","2010-09-30T08:50:00","4","52.357167","-0.107833","41.14","WYTON, UK","FM-15","EGUY ","V020","270,1,N,0051,1","22000,1,9,N","011265,1,N,1","+0110,1","+0100,1","99999,9","02,5,+00240,1,99,9",,,,"02,99,1,99,9,99,9,99999,9,99,9,99,9","10139,1,99999,9",,,,,"MET055METAR EGUY 300850Z 27010KT 9999 FEW008 11/10 Q1014 BLU;",
"03566099999","2010-09-30T09:50:00","4","52.357167","-0.107833","41.14","WYTON, UK","FM-15","EGUY ","V020","260,1,N,0031,1","99999,9,9,Y","009900,1,N,1","+0130,1","+0110,1","99999,9",,,,,,"10139,1,99999,9",,,,,"MET049METAR EGUY 300950Z 26006KT CAVOK 13/11 Q1014 BLU;",
"03566099999","2010-09-30T10:50:00","4","52.357167","-0.107833","41.14","WYTON, UK","FM-15","EGUY ","V020","260,1,N,0031,1","99999,9,C,N","011265,1,N,1","+0150,1","+0110,1","99999,9","02,5,+00480,1,99,9","04,5,+07500,1,99,9",,,"04,99,1,99,9,99,9,99999,9,99,9,99,9","10139,1,99999,9",,,,,"MET062METAR EGUY 301050Z 26006KT 9999 FEW016 SCT250 15/11 Q1014 BLU;","P01 075003SCOCIG"
"03566099999","2010-09-30T11:50:00","4","52.357167","-0.107833","41.14","WYTON, UK","FM-15","EGUY ","V020","230,1,N,0036,1","22000,1,9,N","011265,1,N,1","+0150,1","+0110,1","99999,9","04,5,+00480,1,99,9",,,,"04,99,1,99,9,99,9,99999,9,99,9,99,9","10139,1,99999,9",,,,,"MET055METAR EGUY 301150Z 23007KT 9999 SCT016 15/11 Q1014 WHT;",
"03566099999","2010-09-30T12:50:00","4","52.357167","-0.107833","41.14","WYTON, UK","FM-15","EGUY ","V020","230,1,N,0036,1","00660,1,C,N","011265,1,N,1","+0150,1","+0120,1","99999,9","07,5,+00660,1,99,9",,,,"07,99,1,99,9,99,9,99999,9,99,9,99,9","10139,1,99999,9",,,,,"MET055METAR EGUY 301250Z 23007KT 9999 BKN022 15/12 Q1014 WHT;",
"03566099999","2010-09-30T13:50:00","4","52.357167","-0.107833","41.14","WYTON, UK","FM-15","EGUY ","V020","250,1,N,0041,1","99999,9,C,N","011265,1,N,1","+0160,1","+0090,1","99999,9","04,5,+00900,1,99,9","04,5,+07500,1,99,9",,,"04,99,1,99,9,99,9,99999,9,99,9,99,9","10129,1,99999,9",,,,,"MET062METAR EGUY 301350Z 25008KT 9999 SCT030 SCT250 16/09 Q1013 BLU;","P01 075003SCOCIG"
"03566099999","2010-09-30T14:50:00","4","52.357167","-0.107833","41.14","WYTON, UK","FM-15","EGUY ","V020","220,1,N,0041,1","07500,1,C,N","011265,1,N,1","+0160,1","+0100,1","99999,9","04,5,+00750,1,99,9","07,5,+07500,1,99,9",,,"07,99,1,99,9,99,9,99999,9,99,9,99,9","10129,1,99999,9",,,,,"MET062METAR EGUY 301450Z 22008KT 9999 SCT025 BKN250 16/10 Q1013 BLU;",
"03566099999","2010-10-01T06:50:00","4","52.357167","-0.107833","41.14","WYTON, UK","FM-15","EGUY ","V020","150,1,N,0062,1","00750,1,C,N","011265,1,N,1","+0130,1","+0120,1","99999,9","02,5,+00300,1,99,9","04,5,+00750,1,99,9","07,5,+03000,1,99,9",,"07,99,1,99,9,99,9,99999,9,99,9,99,9","10051,1,99999,9","61,1",,,"0113,1","MET076METAR EGUY 010650Z 15012G22KT 9999 -RA FEW010 SCT025 BKN100 13/12 Q1005 BLU;",
"03566099999","2010-10-01T07:50:00","4","52.357167","-0.107833","41.14","WYTON, UK","FM-15","EGUY ","V020","160,1,N,0077,1","01050,1,C,N","011265,1,N,1","+0130,1","+0120,1","99999,9","02,5,+00240,1,99,9","04,5,+01050,1,99,9","07,5,+03000,1,99,9",,"07,99,1,99,9,99,9,99999,9,99,9,99,9","10041,1,99999,9",,,,,"MET069METAR EGUY 010750Z 16015KT 9999 FEW008 SCT035 BKN100 13/12 Q1004 BLU;",
"03566099999","2010-10-01T09:15:00","4","52.357167","-0.107833","41.14","WYTON, UK","FM-16","EGUY ","V020","999,9,9,9999,9","01050,5,9,N","011265,1,N,1","+0140,1","+0130,1","99999,9","04,5,+00270,5,99,9","04,5,+01050,5,99,9","07,5,+01800,5,99,9",,,"10030,1,99999,9",,,,,"MET075METAR EGUY 0915Z 16020G30K1KT 9999 RA SCT009 SCT035 BKN060 14/13 Q1003 GRN;",
"03566099999","2010-10-01T09:50:00","4","52.357167","-0.107833","41.14","WYTON, UK","FM-15","EGUY ","V020","160,1,N,0082,1","01050,1,C,N","011265,1,N,1","+0140,1","+0130,1","99999,9","04,5,+00270,1,99,9","07,5,+01050,1,99,9","08,5,+01500,1,99,9",,"08,99,1,99,9,99,9,99999,9,99,9,99,9","10031,1,99999,9","63,1",,,"0134,1","MET075METAR EGUY 010950Z 16016G26KT 9999 RA SCT009 BKN035 OVC050 14/13 Q1003 GRN;",
"03566099999","2010-10-02T07:50:00","4","52.357167","-0.107833","41.14","WYTON, UK","FM-15","EGUY ","V020","220,1,N,0031,1","07500,1,C,N","000300,1,N,1","+0100,1","+0100,1","99999,9","02,5,+00030,1,99,9","07,5,+07500,1,99,9",,,"07,99,1,99,9,99,9,99999,9,99,9,99,9","10051,1,99999,9","44,1",,,,"MET065METAR EGUY 020750Z 22006KT 0300 FG FEW001 BKN250 10/10 Q1005 RED;",
"03566099999","2010-10-02T08:50:00","4","52.357167","-0.107833","41.14","WYTON, UK","FM-15","EGUY ","V020","210,1,N,0036,1","07500,1,C,N","004000,1,N,1","+0100,1","+0100,1","99999,9","02,5,+00060,1,99,9","07,5,+07500,1,99,9",,,"07,99,1,99,9,99,9,99999,9,99,9,99,9","10061,1,99999,9","10,1",,,,"MET071METAR EGUY 020850Z 21007KT 4000 0900W BR FEW002 BKN250 10/10 Q1006 AMB;",
"03566099999","2010-10-02T09:00:00","4","52.357167","-0.107833","41.14","WYTON, UK","FM-15","EGUY ","V020","210,1,N,0031,1","07500,1,C,N","008000,1,N,1","+0110,1","+0110,1","99999,9","02,5,+00090,1,99,9","07,5,+07500,1,99,9",,,"07,99,1,99,9,99,9,99999,9,99,9,99,9","10061,1,99999,9","05,1",,,,"MET065METAR EGUY 020900Z 21006KT 8000 HZ FEW003 BKN250 11/11 Q1006 BLU;",
"03566099999","2010-10-02T09:50:00","4","52.357167","-0.107833","41.14","WYTON, UK","FM-15","EGUY ","V020","210,1,N,0041,1","07500,1,C,N","011265,1,N,1","+0130,1","+0110,1","99999,9","02,5,+00240,1,99,9","07,5,+07500,1,99,9",,,"07,99,1,99,9,99,9,99999,9,99,9,99,9","10061,1,99999,9",,,,,"MET062METAR EGUY 020950Z 21008KT 9999 FEW008 BKN250 13/11 Q1006 BLU;",
"03566099999","2010-10-02T10:50:00","4","52.357167","-0.107833","41.14","WYTON, UK","FM-15","EGUY ","V020","190,1,N,0041,1","07500,1,C,N","011265,1,N,1","+0140,1","+0110,1","99999,9","02,5,+00360,1,99,9","07,5,+07500,1,99,9",,,"07,99,1,99,9,99,9,99999,9,99,9,99,9","10051,1,99999,9",,,,,"MET062METAR EGUY 021050Z 19008KT 9999 FEW012 BKN250 14/11 Q1005 BLU;",
"03566099999","2010-10-02T11:50:00","4","52.357167","-0.107833","41.14","WYTON, UK","FM-15","EGUY ","V020","200,1,N,0051,1","07500,1,C,N","011265,1,N,1","+0150,1","+0090,1","99999,9","02,5,+00750,1,99,9","07,5,+07500,1,99,9",,,"07,99,1,99,9,99,9,99999,9,99,9,99,9","10051,1,99999,9",,,,,"MET062METAR EGUY 021150Z 20010KT 9999 FEW025 BKN250 15/09 Q1005 BLU;",
"03566099999","2010-10-02T12:50:00","4","52.357167","-0.107833","41.14","WYTON, UK","FM-15","EGUY ","V020","220,1,N,0041,1","07500,1,C,N","011265,1,N,1","+0160,1","+0070,1","99999,9","02,5,+01050,1,99,9","07,5,+07500,1,99,9",,,"07,99,1,99,9,99,9,99999,9,99,9,99,9","10051,1,99999,9",,,,,"MET062METAR EGUY 021250Z 22008KT 9999 FEW035 BKN250 16/07 Q1005 BLU;",
"03566099999","2010-10-02T13:50:00","4","52.357167","-0.107833","41.14","WYTON, UK","FM-15","EGUY ","V020","160,1,N,0041,1","04500,1,C,N","011265,1,N,1","+0150,1","+0090,1","99999,9","02,5,+00750,1,99,9","04,5,+04500,1,99,9","07,5,+07500,1,99,9",,"07,99,1,99,9,99,9,99999,9,99,9,99,9","10041,1,99999,9",,,,,"MET069METAR EGUY 021350Z 16008KT 9999 FEW025 SCT150 BKN250 15/09 Q1004 BLU;",
"03566099999","2010-10-03T07:50:00","4","52.357167","-0.107833","41.14","WYTON, UK","FM-15","EGUY ","V020","140,1,N,0067,1","00210,1,C,N","011265,1,N,1","+0150,1","+0150,1","99999,9","07,5,+00210,1,99,9",,,,"07,99,1,99,9,99,9,99999,9,99,9,99,9","09939,1,99999,9",,,,,"MET055METAR EGUY 030750Z 14013KT 9999 BKN007 15/15 Q0994 GRN;",
"03566099999","2010-10-03T08:50:00","4","52.357167","-0.107833","41.14","WYTON, UK","FM-15","EGUY ","V020","160,1,N,0082,1","00600,1,C,N","011265,1,N,1","+0160,1","+0150,1","99999,9","02,5,+00300,1,99,9","04,5,+00600,1,99,9","07,5,+02400,1,99,9",,"07,99,1,99,9,99,9,99999,9,99,9,99,9","09939,1,99999,9",,,,,"MET069METAR EGUY 030850Z 16016KT 9999 FEW010 SCT020 BKN080 16/15 Q0994 WHT;",
"03566099999","2010-10-03T09:50:00","4","52.357167","-0.107833","41.14","WYTON, UK","FM-15","EGUY ","V020","160,1,N,0093,1","00900,1,C,N","011265,1,N,1","+0180,1","+0150,1","99999,9","02,5,+00600,1,99,9","04,5,+00900,1,99,9","07,5,+02400,1,99,9",,"07,99,1,99,9,99,9,99999,9,99,9,99,9","09929,1,99999,9",,,,,"MET069METAR EGUY 030950Z 16018KT 9999 FEW020 SCT030 BKN080 18/15 Q0993 BLU;",
"03566099999","2010-10-03T10:50:00","4","52.357167","-0.107833","41.14","WYTON, UK","FM-15","EGUY ","V020","170,1,N,0087,1","00510,1,C,N","011265,1,N,1","+0180,1","+0160,1","99999,9","02,5,+00300,1,99,9","04,5,+00510,1,99,9","07,5,+01800,1,99,9",,"07,99,1,99,9,99,9,99999,9,99,9,99,9","09929,1,99999,9",,,,"0139,1","MET072METAR EGUY 031050Z 17017G27KT 9999 FEW010 SCT017 BKN060 18/16 Q0993 WHT;",
"03566099999","2010-10-03T11:50:00","4","52.357167","-0.107833","41.14","WYTON, UK","FM-15","EGUY ","V020","160,1,N,0087,1","00450,1,C,N","011265,1,N,1","+0170,1","+0160,1","99999,9","02,5,+00240,1,99,9","07,5,+00450,1,99,9",,,"07,99,1,99,9,99,9,99999,9,99,9,99,9","09919,1,99999,9","61,1",,,"0139,1","MET069METAR EGUY 031150Z 16017G27KT 9999 -RA FEW008 BKN015 17/16 Q0992 WHT;",
"03566099999","2010-10-04T06:50:00","4","52.357167","-0.107833","41.14","WYTON, UK","FM-15","EGUY ","V020","010,1,N,0015,1","00600,1,C,N","003500,1,N,1","+0110,1","+0110,1","99999,9","02,5,+00300,1,99,9","04,5,+00600,1,99,9","08,5,+01350,1,99,9",,"08,99,1,99,9,99,9,99999,9,99,9,99,9","10000,1,99999,9","10,1",,,,"MET073METAR EGUY 040650Z 01003KT 3500 BR FEW010 SCT020 OVC045 11/11 Q1000 YLO1;",
"03566099999","2010-10-04T07:50:00","4","52.357167","-0.107833","41.14","WYTON, UK","FM-15","EGUY ","V020","040,1,N,0021,1","00600,1,C,N","004500,1,N,1","+0120,1","+0120,1","99999,9","04,5,+00210,1,99,9","07,5,+00600,1,99,9",,,"07,99,1,99,9,99,9,99999,9,99,9,99,9","10000,1,99999,9","10,1",,,,"MET065METAR EGUY 040750Z 04004KT 4500 BR SCT007 BKN020 12/12 Q1000 GRN;",
"03566099999","2010-10-04T08:50:00","4","52.357167","-0.107833","41.14","WYTON, UK","FM-15","EGUY ","V020","060,1,N,0021,1","00360,1,C,N","007000,1,N,1","+0130,1","+0130,1","99999,9","02,5,+00090,1,99,9","04,5,+00360,1,99,9","07,5,+01200,1,99,9",,"07,99,1,99,9,99,9,99999,9,99,9,99,9","10000,1,99999,9","10,1",,,,"MET072METAR EGUY 040850Z 06004KT 7000 BR FEW003 SCT012 BKN040 13/13 Q1000 GRN;",
"03566099999","2010-10-04T09:25:00","4","52.357167","-0.107833","41.14","WYTON, UK","FM-15","EGUY ","V020","050,1,N,0021,1","00360,1,C,N","005000,1,N,1","+0130,1","+0130,1","99999,9","04,5,+00090,1,99,9","07,5,+00360,1,99,9","08,5,+01200,1,99,9",,"08,99,1,99,9,99,9,99999,9,99,9,99,9","10000,1,99999,9","10,1",,,,"MET073METAR EGUY 040925Z 05004KT 5000 BR SCT003 BKN012 OVC040 13/13 Q1000 YLO2;",
"03566099999","2010-10-04T09:50:00","4","52.357167","-0.107833","41.14","WYTON, UK","FM-15","EGUY ","V020","020,1,N,0021,1","00090,1,C,N","004500,1,N,1","+0130,1","+0130,1","99999,9","07,5,+00090,1,99,9","08,5,+00240,1,99,9",,,"08,99,1,99,9,99,9,99999,9,99,9,99,9","10000,1,99999,9","51,1",,,,"MET067METAR EGUY 040950Z 02004KT 4500 -DZ BKN003 OVC008 13/13 Q1000 YLO2;",
"03566099999","2010-10-04T10:50:00","4","52.357167","-0.107833","41.14","WYTON, UK","FM-15","EGUY ","V020","070,1,N,0026,1","00150,1,C,N","007000,1,N,1","+0140,1","+0140,1","99999,9","07,5,+00150,1,99,9","07,5,+00600,1,99,9",,,"07,99,1,99,9,99,9,99999,9,99,9,99,9","09990,1,99999,9","10,1",,,,"MET066METAR EGUY 041050Z 07005KT 7000 BR BKN005 BKN020 14/14 Q0999 YLO1;",
"03566099999","2010-10-04T11:50:00","4","52.357167","-0.107833","41.14","WYTON, UK","FM-15","EGUY ","V020","060,1,N,0015,1","00240,1,C,N","011265,1,N,1","+0140,1","+0140,1","99999,9","02,5,+00150,1,99,9","08,5,+00240,1,99,9",,,"08,99,1,99,9,99,9,99999,9,99,9,99,9","09990,1,99999,9",,,,,"MET062METAR EGUY 041150Z 06003KT 9999 FEW005 OVC008 14/14 Q0999 GRN;",
"03566099999","2010-10-04T12:50:00","4","52.357167","-0.107833","41.14","WYTON, UK","FM-15","EGUY ","V020","090,1,N,0005,1","00240,1,C,N","011265,1,N,1","+0150,1","+0140,1","99999,9","07,5,+00240,1,99,9",,,,"07,99,1,99,9,99,9,99999,9,99,9,99,9","09980,1,99999,9",,,,,"MET055METAR EGUY 041250Z 09001KT 9999 BKN008 15/14 Q0998 GRN;",
"03566099999","2010-10-04T13:50:00","4","52.357167","-0.107833","41.14","WYTON, UK","FM-15","EGUY ","V020","290,1,N,0010,1","00240,1,C,N","011265,1,N,1","+0140,1","+0140,1","99999,9","04,5,+00180,1,99,9","07,5,+00240,1,99,9",,,"07,99,1,99,9,99,9,99999,9,99,9,99,9","09980,1,99999,9",,,,,"MET063METAR EGUY 041350Z 29002KT 9999 SCT006 BKN008 14/14 Q0998 YLO1;",
"03566099999","2010-10-05T06:50:00","4","52.357167","-0.107833","41.14","WYTON, UK","FM-15","EGUY ","V020","180,1,N,0051,1","00180,1,C,N","011265,1,N,1","+0140,1","+0130,1","99999,9","07,5,+00180,1,99,9",,,,"07,99,1,99,9,99,9,99999,9,99,9,99,9","09980,1,99999,9","51,1",,,,"MET060METAR EGUY 050650Z 18010KT 9999 -DZ BKN006 14/13 Q0998 YLO1;",
"03566099999","2010-10-05T07:50:00","4","52.357167","-0.107833","41.14","WYTON, UK","FM-15","EGUY ","V020","190,1,N,0067,1","00510,1,C,N","011265,1,N,1","+0150,1","+0140,1","99999,9","02,5,+00300,1,99,9","07,5,+00510,1,99,9",,,"07,99,1,99,9,99,9,99999,9,99,9,99,9","09990,1,99999,9",,,,,"MET062METAR EGUY 050750Z 19013KT 9999 FEW010 BKN017 15/14 Q0999 WHT;",
"03566099999","2010-10-05T08:50:00","4","52.357167","-0.107833","41.14","WYTON, UK","FM-15","EGUY ","V020","200,1,N,0051,1","99999,9,C,N","011265,1,N,1","+0160,1","+0140,1","99999,9","02,5,+00450,1,99,9","04,5,+00750,1,99,9",,,"04,99,1,99,9,99,9,99999,9,99,9,99,9","09990,1,99999,9",,,,,"MET062METAR EGUY 050850Z 20010KT 9999 FEW015 SCT025 16/14 Q0999 BLU;","P01 007503SCOCIG"
"03566099999","2010-10-05T09:50:00","4","52.357167","-0.107833","41.14","WYTON, UK","FM-15","EGUY ","V020","210,1,N,0041,1","01350,1,C,N","011265,1,N,1","+0170,1","+0140,1","99999,9","02,5,+00450,1,99,9","04,5,+01350,1,99,9","07,5,+07500,1,99,9",,"07,99,1,99,9,99,9,99999,9,99,9,99,9","09990,1,99999,9",,,,,"MET069METAR EGUY 050950Z 21008KT 9999 FEW015 SCT045 BKN250 17/14 Q0999 BLU;",
"03566099999","2010-10-05T10:50:00","4","52.357167","-0.107833","41.14","WYTON, UK","FM-15","EGUY ","V020","200,1,N,0046,1","01350,1,C,N","011265,1,N,1","+0170,1","+0150,1","99999,9","02,5,+00450,1,99,9","04,5,+01350,1,99,9","07,5,+07500,1,99,9",,"07,99,1,99,9,99,9,99999,9,99,9,99,9","09990,1,99999,9",,,,,"MET069METAR EGUY 051050Z 20009KT 9999 FEW015 SCT045 BKN250 17/15 Q0999 BLU;",
"03566099999","2010-10-05T11:50:00","4","52.357167","-0.107833","41.14","WYTON, UK","FM-15","EGUY ","V020","200,1,N,0051,1","99999,9,C,N","011265,1,N,1","+0170,1","+0150,1","99999,9","02,5,+00450,1,99,9","04,5,+01350,1,99,9","04,5,+07500,1,99,9",,"04,99,1,99,9,99,9,99999,9,99,9,99,9","09990,1,99999,9",,,,,"MET069METAR EGUY 051150Z 20010KT 9999 FEW015 SCT045 SCT250 17/15 Q0999 BLU;","P01 013503SCOCIG"
"03566099999","2010-10-05T12:50:00","4","52.357167","-0.107833","41.14","WYTON, UK","FM-15","EGUY ","V020","200,1,N,0062,1","01800,1,C,N","011265,1,N,1","+0180,1","+0150,1","99999,9","02,5,+00540,1,99,9","04,5,+01800,1,99,9","07,5,+06000,1,99,9",,"07,99,1,99,9,99,9,99999,9,99,9,99,9","10000,1,99999,9",,,,,"MET069METAR EGUY 051250Z 20012KT 9999 FEW018 SCT060 BKN200 18/15 Q1000 BLU;",
"03566099999","2010-10-05T13:50:00","4","52.357167","-0.107833","41.14","WYTON, UK","FM-15","EGUY ","V020","210,1,N,0051,1","01800,1,C,N","011265,1,N,1","+0180,1","+0160,1","99999,9","02,5,+00600,1,99,9","04,5,+01800,1,99,9","07,5,+06000,1,99,9",,"07,99,1,99,9,99,9,99999,9,99,9,99,9","10000,1,99999,9",,,,,"MET069METAR EGUY 051350Z 21010KT 9999 FEW020 SCT060 BKN200 18/16 Q1000 BLU;",
"03566099999","2010-10-05T14:50:00","4","52.357167","-0.107833","41.14","WYTON, UK","FM-15","EGUY ","V020","200,1,N,0036,1","04500,1,C,N","011265,1,N,1","+0180,1","+0160,1","99999,9","04,5,+00750,1,99,9","07,5,+04500,1,99,9",,,"07,99,1,99,9,99,9,99999,9,99,9,99,9","10000,1,99999,9",,,,,"MET062METAR EGUY 051450Z 20007KT 9999 SCT025 BKN150 18/16 Q1000 BLU;",
"03566099999","2010-10-06T06:50:00","4","52.357167","-0.107833","41.14","WYTON, UK","FM-15","EGUY ","V020","190,1,N,0031,1","00180,1,C,N","008000,1,N,1","+0130,1","+0130,1","99999,9","07,5,+00180,1,99,9","07,5,+00450,1,99,9",,,"07,99,1,99,9,99,9,99999,9,99,9,99,9","10000,1,99999,9","05,1",,,,"MET066METAR EGUY 060650Z 19006KT 8000 HZ BKN006 BKN015 13/13 Q1000 YLO1;",
"03566099999","2010-10-06T07:50:00","4","52.357167","-0.107833","41.14","WYTON, UK","FM-15","EGUY ","V020","200,1,N,0041,1","00450,1,C,N","011265,1,N,1","+0140,1","+0140,1","99999,9","04,5,+00180,1,99,9","07,5,+00450,1,99,9","07,5,+01200,1,99,9",,"07,99,1,99,9,99,9,99999,9,99,9,99,9","10000,1,99999,9","51,1",,,,"MET074METAR EGUY 060750Z 20008KT 9999 -DZ SCT006 BKN015 BKN040 14/14 Q1000 YLO1;",
"03566099999","2010-10-06T08:50:00","4","52.357167","-0.107833","41.14","WYTON, UK","FM-15","EGUY ","V020","230,1,N,0062,1","00450,1,C,N","011265,1,N,1","+0140,1","+0130,1","99999,9","04,5,+00240,1,99,9","04,5,+00450,1,99,9","07,5,+01500,1,99,9",,"07,99,1,99,9,99,9,99999,9,99,9,99,9","10020,1,99999,9","61,1",,,,"MET073METAR EGUY 060850Z 23012KT 9999 -RA SCT008 SCT015 BKN050 14/13 Q1002 GRN;",
"03566099999","2010-10-06T09:50:00","4","52.357167","-0.107833","41.14","WYTON, UK","FM-15","EGUY ","V020","230,1,N,0041,1","01500,1,C,N","011265,1,N,1","+0130,1","+0130,1","99999,9","02,5,+00450,1,99,9","07,5,+01500,1,99,9",,,"07,99,1,99,9,99,9,99999,9,99,9,99,9","10031,1,99999,9","61,1",,,,"MET066METAR EGUY 060950Z 23008KT 9999 -RA FEW015 BKN050 13/13 Q1003 BLU;",
"03566099999","2010-10-06T10:50:00","4","52.357167","-0.107833","41.14","WYTON, UK","FM-15","EGUY ","V020","230,1,N,0062,1","99999,9,C,N","011265,1,N,1","+0150,1","+0130,1","99999,9","04,5,+00450,1,99,9","04,5,+01500,1,99,9",,,"04,99,1,99,9,99,9,99999,9,99,9,99,9","10041,1,99999,9",,,,,"MET062METAR EGUY 061050Z 23012KT 9999 SCT015 SCT050 15/13 Q1004 WHT;","P01 015003SCOCIG"
"03566099999","2010-10-06T11:50:00","4","52.357167","-0.107833","41.14","WYTON, UK","FM-15","EGUY ","V020","220,1,N,0051,1","00600,1,C,N","011265,1,N,1","+0160,1","+0130,1","99999,9","02,5,+00450,1,99,9","07,5,+00600,1,99,9",,,"07,99,1,99,9,99,9,99999,9,99,9,99,9","10051,1,99999,9",,,,"0103,1","MET065METAR EGUY 061150Z 22010G20KT 9999 FEW015 BKN020 16/13 Q1005 WHT;",
"03566099999","2010-10-06T12:50:00","4","52.357167","-0.107833","41.14","WYTON, UK","FM-15","EGUY ","V020","240,1,N,0062,1","22000,1,9,N","011265,1,N,1","+0160,1","+0100,1","99999,9","04,5,+00750,1,99,9",,,,"04,99,1,99,9,99,9,99999,9,99,9,99,9","10061,1,99999,9",,,,,"MET055METAR EGUY 061250Z 24012KT 9999 SCT025 16/10 Q1006 BLU;",
"03566099999","2010-10-06T13:50:00","4","52.357167","-0.107833","41.14","WYTON, UK","FM-15","EGUY ","V020","240,1,N,0087,1","22000,1,9,N","011265,1,N,1","+0160,1","+0080,1","99999,9","02,5,+00900,1,99,9",,,,"02,99,1,99,9,99,9,99999,9,99,9,99,9","10071,1,99999,9",,,,,"MET055METAR EGUY 061350Z 24017KT 9999 FEW030 16/08 Q1007 BLU;",
"03566099999","2010-10-06T14:50:00","4","52.357167","-0.107833","41.14","WYTON, UK","FM-15","EGUY ","V020","240,1,N,0077,1","22000,1,9,N","011265,1,N,1","+0170,1","+0080,1","99999,9","02,5,+01050,1,99,9",,,,"02,99,1,99,9,99,9,99999,9,99,9,99,9","10081,1,99999,9",,,,,"MET055METAR EGUY 061450Z 24015KT 9999 FEW035 17/08 Q1008 BLU;",
"03566099999","2010-10-07T06:50:00","4","52.357167","-0.107833","41.14","WYTON, UK","FM-15","EGUY ","V020","120,1,N,0021,1","22000,1,9,N","011265,1,N,1","+0070,1","+9999,9","99999,9","02,5,+07500,1,99,9",,,,"02,99,1,99,9,99,9,99999,9,99,9,99,9","10180,1,99999,9","12,1",,,,"MET060METAR EGUY 070650Z 12004KT 9999 MIFG FEW250 07/// Q1018 BLU;",
"03566099999","2010-10-07T07:50:00","4","52.357167","-0.107833","41.14","WYTON, UK","FM-15","EGUY ","V020","130,1,N,0021,1","99999,9,9,Y","009900,1,N,1","+0080,1","+0080,1","99999,9",,,,,,"10190,1,99999,9",,,,,"MET049METAR EGUY 070750Z 13004KT CAVOK 08/08 Q1019 BLU;",
"03566099999","2010-10-07T08:50:00","4","52.357167","-0.107833","41.14","WYTON, UK","FM-15","EGUY ","V020","160,1,N,0026,1","99999,9,9,Y","009900,1,N,1","+0120,1","+0110,1","99999,9",,,,,,"10200,1,99999,9",,,,,"MET049METAR EGUY 070850Z 16005KT CAVOK 12/11 Q1020 BLU;",
"03566099999","2010-10-07T09:50:00","4","52.357167","-0.107833","41.14","WYTON, UK","FM-15","EGUY ","V020","140,1,N,0021,1","99999,9,9,Y","009900,1,N,1","+0140,1","+0110,1","99999,9",,,,,,"10200,1,99999,9",,,,,"MET049METAR EGUY 070950Z 14004KT CAVOK 14/11 Q1020 BLU;",
"03566099999","2010-10-07T10:50:00","4","52.357167","-0.107833","41.14","WYTON, UK","FM-15","EGUY ","V020","150,1,N,0041,1","99999,9,C,N","011265,1,N,1","+0160,1","+0110,1","99999,9","02,5,+00600,1,99,9","04,5,+07500,1,99,9",,,"04,99,1,99,9,99,9,99999,9,99,9,99,9","10190,1,99999,9",,,,,"MET062METAR EGUY 071050Z 15008KT 9999 FEW020 SCT250 16/11 Q1019 BLU;","P01 075003SCOCIG"
"03566099999","2010-10-07T11:50:00","4","52.357167","-0.107833","41.14","WYTON, UK","FM-15","EGUY ","V020","150,1,N,0051,1","99999,9,C,N","011265,1,N,1","+0170,1","+0110,1","99999,9","04,5,+00750,1,99,9","04,5,+07500,1,99,9",,,"04,99,1,99,9,99,9,99999,9,99,9,99,9","10190,1,99999,9",,,,,"MET062METAR EGUY 071150Z 15010KT 9999 SCT025 SCT250 17/11 Q1019 BLU;","P01 075003SCOCIG"
"03566099999","2010-10-07T12:50:00","4","52.357167","-0.107833","41.14","WYTON, UK","FM-15","EGUY ","V020","140,1,N,0041,1","07500,1,C,N","011265,1,N,1","+0170,1","+0130,1","99999,9","02,5,+00900,1,99,9","07,5,+07500,1,99,9",,,"07,99,1,99,9,99,9,99999,9,99,9,99,9","10169,1,99999,9",,,,,"MET062METAR EGUY 071250Z 14008KT 9999 FEW030 BKN250 17/13 Q1017 BLU;",
"03566099999","2010-10-07T13:50:00","4","52.357167","-0.107833","41.14","WYTON, UK","FM-15","EGUY ","V020","120,1,N,0041,1","07500,1,C,N","011265,1,N,1","+0170,1","+0090,1","99999,9","02,5,+01050,1,99,9","07,5,+07500,1,99,9",,,"07,99,1,99,9,99,9,99999,9,99,9,99,9","10180,1,99999,9",,,,,"MET062METAR EGUY 071350Z 12008KT 9999 FEW035 BKN250 17/09 Q1018 BLU;",
"03566099999","2010-10-07T14:50:00","4","52.357167","-0.107833","41.14","WYTON, UK","FM-15","EGUY ","V020","100,1,N,0051,1","07500,1,C,N","011265,1,N,1","+0170,1","+0090,1","99999,9","02,5,+01050,1,99,9","07,5,+07500,1,99,9",,,"07,99,1,99,9,99,9,99999,9,99,9,99,9","10180,1,99999,9",,,,,"MET062METAR EGUY 071450Z 10010KT 9999 FEW035 BKN250 17/09 Q1018 BLU;",
"03566099999","2010-10-08T06:50:00","4","52.357167","-0.107833","41.14","WYTON, UK","FM-15","EGUY ","V020","100,1,N,0031,1","00120,1,C,N","001000,1,N,1","+0150,1","+0150,1","99999,9","08,5,+00120,1,99,9",,,,"08,99,1,99,9,99,9,99999,9,99,9,99,9","10159,1,99999,9","10,1",,,,"MET058METAR EGUY 080650Z 10006KT 1000 BR OVC004 15/15 Q1016 AMB;",
"03566099999","2010-10-08T07:50:00","4","52.357167","-0.107833","41.14","WYTON, UK","FM-15","EGUY ","V020","100,1,N,0031,1","00030,1,C,N","000700,1,N,1","+0150,1","+0150,1","99999,9","08,5,+00030,1,99,9",,,,"08,99,1,99,9,99,9,99999,9,99,9,99,9","10169,1,99999,9","44,1",,,,"MET058METAR EGUY 080750Z 10006KT 0700 FG OVC001 15/15 Q1017 RED;",
"03566099999","2010-10-08T08:50:00","4","52.357167","-0.107833","41.14","WYTON, UK","FM-15","EGUY ","V020","090,1,N,0051,1","00030,1,C,N","001000,1,N,1","+0150,1","+0150,1","99999,9","08,5,+00030,1,99,9",,,,"08,99,1,99,9,99,9,99999,9,99,9,99,9","10169,1,99999,9","44,1",,,,"MET058METAR EGUY 080850Z 09010KT 1000 FG OVC001 15/15 Q1017 RED;",
"03566099999","2010-10-08T09:50:00","4","52.357167","-0.107833","41.14","WYTON, UK","FM-15","EGUY ","V020","080,1,N,0041,1","00090,1,C,N","002000,1,N,1","+0160,1","+0150,1","99999,9","08,5,+00090,1,99,9",,,,"08,99,1,99,9,99,9,99999,9,99,9,99,9","10169,1,99999,9","10,1",,,,"MET059METAR EGUY 080950Z 08008KT 2000 BR OVC003 16/15 Q1017 YLO2;",
"03566099999","2010-10-08T10:50:00","4","52.357167","-0.107833","41.14","WYTON, UK","FM-15","EGUY ","V020","090,1,N,0062,1","00150,1,C,N","003300,1,N,1","+0160,1","+0150,1","99999,9","04,5,+00120,1,99,9","08,5,+00150,1,99,9",,,"08,99,1,99,9,99,9,99999,9,99,9,99,9","10169,1,99999,9","10,1",,,,"MET066METAR EGUY 081050Z 09012KT 3300 BR SCT004 OVC005 16/15 Q1017 YLO2;",
"03566099999","2010-10-08T11:50:00","4","52.357167","-0.107833","41.14","WYTON, UK","FM-15","EGUY ","V020","090,1,N,0041,1","00180,1,C,N","004000,1,N,1","+0170,1","+0150,1","99999,9","04,5,+00120,1,99,9","08,5,+00180,1,99,9",,,"08,99,1,99,9,99,9,99999,9,99,9,99,9","10169,1,99999,9","10,1",,,,"MET066METAR EGUY 081150Z 09008KT 4000 BR SCT004 OVC006 17/15 Q1017 YLO2;",
"03566099999","2010-10-08T12:50:00","4","52.357167","-0.107833","41.14","WYTON, UK","FM-15","EGUY ","V020","090,1,N,0046,1","00240,1,C,N","003000,1,N,1","+0170,1","+0150,1","99999,9","07,5,+00240,1,99,9","08,5,+00300,1,99,9",,,"08,99,1,99,9,99,9,99999,9,99,9,99,9","10169,1,99999,9","10,1",,,,"MET066METAR EGUY 081250Z 09009KT 3000 BR BKN008 OVC010 17/15 Q1017 YLO1;",
"03566099999","2010-10-08T13:50:00","4","52.357167","-0.107833","41.14","WYTON, UK","FM-15","EGUY ","V020","090,1,N,0062,1","00450,1,C,N","004500,1,N,1","+0180,1","+0150,1","99999,9","04,5,+00300,1,99,9","07,5,+00450,1,99,9",,,"07,99,1,99,9,99,9,99999,9,99,9,99,9","10169,1,99999,9","05,1",,,,"MET065METAR EGUY 081350Z 09012KT 4500 HZ SCT010 BKN015 18/15 Q1017 GRN;",
"03566099999","2010-10-10T06:50:00","4","52.357167","-0.107833","41.14","WYTON, UK","FM-15","EGUY ","V020","030,1,N,0041,1","22000,1,9,N","003500,1,N,1","+0120,1","+0110,1","99999,9",,,,,"00,99,1,99,9,99,9,99999,9,99,9,99,9","10129,1,99999,9","10,1",,,,"MET056METAR EGUY 100650Z 03008KT 3500 BR SKC 12/11 Q1013 YLO1;","Q01    003SCCGA1"
"03566099999","2010-10-10T07:50:00","4","52.357167","-0.107833","41.14","WYTON, UK","FM-15","EGUY ","V020","030,1,N,0046,1","22000,1,9,N","004000,1,N,1","+0120,1","+0120,1","99999,9","02,5,+00300,1,99,9",,,,"02,99,1,99,9,99,9,99999,9,99,9,99,9","10129,1,99999,9","10,1",,,,"MET058METAR EGUY 100750Z 03009KT 4000 BR FEW010 12/12 Q1013 GRN;",
"03566099999","2010-10-10T08:50:00","4","52.357167","-0.107833","41.14","WYTON, UK","FM-15","EGUY ","V020","050,1,N,0051,1","22000,1,9,N","007000,1,N,1","+0140,1","+0130,1","99999,9","02,5,+00300,1,99,9",,,,"02,99,1,99,9,99,9,99999,9,99,9,99,9","10139,1,99999,9","05,1",,,,"MET058METAR EGUY 100850Z 05010KT 7000 HZ FEW010 14/13 Q1014 WHT;",
"03566099999","2010-10-10T09:50:00","4","52.357167","-0.107833","41.14","WYTON, UK","FM-15","EGUY ","V020","060,1,N,0057,1","22000,1,9,N","009000,1,N,1","+0160,1","+0130,1","99999,9","02,5,+00300,1,99,9",,,,"02,99,1,99,9,99,9,99999,9,99,9,99,9","10139,1,99999,9","05,1",,,,"MET058METAR EGUY 100950Z 06011KT 9000 HZ FEW010 16/13 Q1014 BLU;",
"03566099999","2010-10-10T10:50:00","4","52.357167","-0.107833","41.14","WYTON, UK","FM-15","EGUY ","V020","060,1,N,0067,1","99999,9,9,Y","009900,1,N,1","+0170,1","+0130,1","99999,9",,,,,,"10139,1,99999,9",,,,,"MET049METAR EGUY 101050Z 06013KT CAVOK 17/13 Q1014 BLU;",
"03566099999","2010-10-10T11:50:00","4","52.357167","-0.107833","41.14","WYTON, UK","FM-15","EGUY ","V020","080,1,N,0062,1","99999,9,9,Y","009900,1,N,1","+0190,1","+0110,1","99999,9",,,,,,"10139,1,99999,9",,,,,"MET049METAR EGUY 101150Z 08012KT CAVOK 19/11 Q1014 BLU;",
"03566099999","2010-10-10T12:50:00","4","52.357167","-0.107833","41.14","WYTON, UK","FM-15","EGUY ","V020","080,1,N,0057,1","99999,9,9,Y","009900,1,N,1","+0190,1","+0110,1","99999,9",,,,,,"10139,1,99999,9",,,,,"MET049METAR EGUY 101250Z 08011KT CAVOK 19/11 Q1014 BLU;",
"03566099999","2010-10-10T13:50:00","4","52.357167","-0.107833","41.14","WYTON, UK","FM-15","EGUY ","V020","070,1,N,0057,1","99999,9,9,Y","009900,1,N,1","+0200,1","+0100,1","99999,9",,,,,,"10139,1,99999,9",,,,,"MET049METAR EGUY 101350Z 07011KT CAVOK 20/10 Q1014 BLU;",
"03566099999","2010-10-10T14:50:00","4","52.357167","-0.107833","41.14","WYTON, UK","FM-15","EGUY ","V020","050,1,N,0062,1","99999,9,9,Y","009900,1,N,1","+0190,1","+0100,1","99999,9",,,,,,"10139,1,99999,9",,,,,"MET049METAR EGUY 101450Z 05012KT CAVOK 19/10 Q1014 BLU;",
"03566099999","2010-10-11T06:50:00","4","52.357167","-0.107833","41.14","WYTON, UK","FM-15","EGUY ","V020","360,1,N,0046,1","22000,1,9,N","007000,1,N,1","+0090,1","+0090,1","99999,9","02,5,+00420,1,99,9",,,,"02,99,1,99,9,99,9,99999,9,99,9,99,9","10200,1,99999,9",,,,,"MET055METAR EGUY 110650Z 36009KT 7000 FEW014 09/09 Q1020 WHT;",
"03566099999","2010-10-11T07:50:00","4","52.357167","-0.107833","41.14","WYTON, UK","FM-15","EGUY ","V020","020,1,N,0041,1","22000,1,9,N","007000,1,N,1","+0110,1","+0100,1","99999,9","02,5,+07500,1,99,9",,,,"02,99,1,99,9,99,9,99999,9,99,9,99,9","10200,1,99999,9","10,1",,,,"MET058METAR EGUY 110750Z 02008KT 7000 BR FEW250 11/10 Q1020 WHT;",
"03566099999","2010-10-11T08:50:00","4","52.357167","-0.107833","41.14","WYTON, UK","FM-15","EGUY ","V020","030,1,N,0077,1","22000,1,9,N","008000,1,N,1","+0130,1","+0110,1","99999,9","02,5,+00360,1,99,9",,,,"02,99,1,99,9,99,9,99999,9,99,9,99,9","10200,1,99999,9","10,1",,,,"MET058METAR EGUY 110850Z 03015KT 8000 BR FEW012 13/11 Q1020 WHT;",
"03566099999","2010-10-11T09:50:00","4","52.357167","-0.107833","41.14","WYTON, UK","FM-15","EGUY ","V020","030,1,N,0072,1","22000,1,9,N","011265,1,N,1","+0140,1","+0120,1","99999,9","02,5,+00390,1,99,9",,,,"02,99,1,99,9,99,9,99999,9,99,9,99,9","10210,1,99999,9",,,,,"MET055METAR EGUY 110950Z 03014KT 9999 FEW013 14/12 Q1021 BLU;",
"03566099999","2010-10-11T10:50:00","4","52.357167","-0.107833","41.14","WYTON, UK","FM-15","EGUY ","V020","030,1,N,0077,1","22000,1,9,N","011265,1,N,1","+0150,1","+0100,1","99999,9","02,5,+00600,1,99,9",,,,"02,99,1,99,9,99,9,99999,9,99,9,99,9","10210,1,99999,9",,,,,"MET055METAR EGUY 111050Z 03015KT 9999 FEW020 15/10 Q1021 BLU;",
"03566099999","2010-10-11T11:50:00","4","52.357167","-0.107833","41.14","WYTON, UK","FM-15","EGUY ","V020","040,1,N,0072,1","22000,1,9,N","011265,1,N,1","+0160,1","+0100,1","99999,9","02,5,+00420,1,99,9",,,,"02,99,1,99,9,99,9,99999,9,99,9,99,9","10210,1,99999,9",,,,,"MET055METAR EGUY 111150Z 04014KT 9999 FEW014 16/10 Q1021 BLU;",
"03566099999","2010-10-11T12:50:00","4","52.357167","-0.107833","41.14","WYTON, UK","FM-15","EGUY ","V020","020,1,N,0077,1","22000,1,9,N","011265,1,N,1","+0160,1","+0110,1","99999,9","02,5,+00720,1,99,9",,,,"02,99,1,99,9,99,9,99999,9,99,9,99,9","10200,1,99999,9",,,,,"MET055METAR EGUY 111250Z 02015KT 9999 FEW024 16/11 Q1020 BLU;",
"03566099999","2010-10-11T13:50:00","4","52.357167","-0.107833","41.14","WYTON, UK","FM-15","EGUY ","V020","020,1,N,0087,1","22000,1,9,N","011265,1,N,1","+0160,1","+0110,1","99999,9","02,5,+00750,1,99,9",,,,"02,99,1,99,9,99,9,99999,9,99,9,99,9","10200,1,99999,9",,,,,"MET055METAR EGUY 111350Z 02017KT 9999 FEW025 16/11 Q1020 BLU;",
"03566099999","2010-10-11T14:50:00","4","52.357167","-0.107833","41.14","WYTON, UK","FM-15","EGUY ","V020","010,1,N,0077,1","22000,1,9,N","011265,1,N,1","+0150,1","+0110,1","99999,9","02,5,+00750,1,99,9",,,,"02,99,1,99,9,99,9,99999,9,99,9,99,9","10200,1,99999,9",,,,,"MET055METAR EGUY 111450Z 01015KT 9999 FEW025 15/11 Q1020 BLU;",
"03566099999","2010-10-12T06:50:00","4","52.357167","-0.107833","41.14","WYTON, UK","FM-15","EGUY ","V020","010,1,N,0021,1","00600,1,C,N","011265,1,N,1","+0100,1","+0090,1","99999,9","08,5,+00600,1,99,9",,,,"08,99,1,99,9,99,9,99999,9,99,9,99,9","10220,1,99999,9",,,,,"MET055METAR EGUY 120650Z 01004KT 9999 OVC020 10/09 Q1022 WHT;",
"03566099999","2010-10-12T07:50:00","4","52.357167","-0.107833","41.14","WYTON, UK","FM-15","EGUY ","V020","360,1,N,0036,1","00600,1,C,N","011265,1,N,1","+0100,1","+0090,1","99999,9","08,5,+00600,1,99,9",,,,"08,99,1,99,9,99,9,99999,9,99,9,99,9","10220,1,99999,9",,,,,"MET055METAR EGUY 120750Z 36007KT 9999 OVC020 10/09 Q1022 WHT;",
"03566099999","2010-10-12T08:50:00","4","52.357167","-0.107833","41.14","WYTON, UK","FM-15","EGUY ","V020","050,1,N,0051,1","00540,1,C,N","011265,1,N,1","+0110,1","+0090,1","99999,9","08,5,+00540,1,99,9",,,,"08,99,1,99,9,99,9,99999,9,99,9,99,9","10220,1,99999,9",,,,,"MET055METAR EGUY 120850Z 05010KT 9999 OVC018 11/09 Q1022 WHT;",
"03566099999","2010-10-12T09:50:00","4","52.357167","-0.107833","41.14","WYTON, UK","FM-15","EGUY ","V020","050,1,N,0051,1","00600,1,C,N","011265,1,N,1","+0120,1","+0080,1","99999,9","08,5,+00600,1,99,9",,,,"08,99,1,99,9,99,9,99999,9,99,9,99,9","10220,1,99999,9",,,,,"MET055METAR EGUY 120950Z 05010KT 9999 OVC020 12/08 Q1022 WHT;",
"03566099999","2010-10-12T10:50:00","4","52.357167","-0.107833","41.14","WYTON, UK","FM-15","EGUY ","V020","040,1,N,0051,1","00660,1,C,N","011265,1,N,1","+0120,1","+0080,1","99999,9","07,5,+00660,1,99,9",,,,"07,99,1,99,9,99,9,99999,9,99,9,99,9","10220,1,99999,9",,,,,"MET055METAR EGUY 121050Z 04010KT 9999 BKN022 12/08 Q1022 WHT;",
"03566099999","2010-10-12T11:50:00","4","52.357167","-0.107833","41.14","WYTON, UK","FM-15","EGUY ","V020","050,1,N,0046,1","00720,1,C,N","011265,1,N,1","+0130,1","+0080,1","99999,9","07,5,+00720,1,99,9",,,,"07,99,1,99,9,99,9,99999,9,99,9,99,9","10220,1,99999,9",,,,,"MET055METAR EGUY 121150Z 05009KT 9999 BKN024 13/08 Q1022 WHT;",
"03566099999","2010-10-12T12:50:00","4","52.357167","-0.107833","41.14","WYTON, UK","FM-15","EGUY ","V020","010,1,N,0046,1","22000,1,9,N","011265,1,N,1","+0140,1","+0080,1","99999,9","02,5,+00720,1,99,9",,,,"02,99,1,99,9,99,9,99999,9,99,9,99,9","10220,1,99999,9",,,,,"MET054METAR EGUY 121250Z 01009KT 9999 FEW024 14/8 Q1022 BLU;",
"03566099999","2010-10-12T13:50:00","4","52.357167","-0.107833","41.14","WYTON, UK","FM-15","EGUY ","V020","030,1,N,0057,1","22000,1,9,N","011265,1,N,1","+0140,1","+0080,1","99999,9","02,5,+00720,1,99,9",,,,"02,99,1,99,9,99,9,99999,9,99,9,99,9","10210,1,99999,9",,,,,"MET054METAR EGUY 121350Z 03011KT 9999 FEW024 14/8 Q1021 BLU;",
"03566099999","2010-10-12T14:50:00","4","52.357167","-0.107833","41.14","WYTON, UK","FM-15","EGUY ","V020","360,1,N,0057,1","00690,1,C,N","011265,1,N,1","+0130,1","+0090,1","99999,9","07,5,+00690,1,99,9",,,,"07,99,1,99,9,99,9,99999,9,99,9,99,9","10210,1,99999,9",,,,,"MET055METAR EGUY 121450Z 36011KT 9999 BKN023 13/09 Q1021 WHT;",
"03566099999","2010-10-13T06:50:00","4","52.357167","-0.107833","41.14","WYTON, UK","FM-15","EGUY ","V020","360,1,N,0036,1","00660,1,C,N","011265,1,N,1","+0090,1","+0070,1","99999,9","08,5,+00660,1,99,9",,,,"08,99,1,99,9,99,9,99999,9,99,9,99,9","10220,1,99999,9",,,,,"MET055METAR EGUY 130650Z 36007KT 9999 OVC022 09/07 Q1022 WHT;",
"03566099999","2010-10-13T07:50:00","4","52.357167","-0.107833","41.14","WYTON, UK","FM-15","EGUY ","V020","360,1,N,0041,1","00660,1,C,N","011265,1,N,1","+0100,1","+0070,1","99999,9","08,5,+00660,1,99,9",,,,"08,99,1,99,9,99,9,99999,9,99,9,99,9","10220,1,99999,9",,,,,"MET055METAR EGUY 130750Z 36008KT 9999 OVC022 10/07 Q1022 WHT;",
"03566099999","2010-10-13T08:50:00","4","52.357167","-0.107833","41.14","WYTON, UK","FM-15","EGUY ","V020","010,1,N,0031,1","00660,1,C,N","011265,1,N,1","+0100,1","+0080,1","99999,9","08,5,+00660,1,99,9",,,,"08,99,1,99,9,99,9,99999,9,99,9,99,9","10220,1,99999,9",,,,,"MET055METAR EGUY 130850Z 01006KT 9999 OVC022 10/08 Q1022 WHT;",
"03566099999","2010-10-13T09:50:00","4","52.357167","-0.107833","41.14","WYTON, UK","FM-15","EGUY ","V020","020,1,N,0036,1","00660,1,C,N","011265,1,N,1","+0110,1","+0070,1","99999,9","07,5,+00660,1,99,9",,,,"07,99,1,99,9,99,9,99999,9,99,9,99,9","10220,1,99999,9",,,,,"MET055METAR EGUY 130950Z 02007KT 9999 BKN022 11/07 Q1022 WHT;",
"03566099999","2010-10-13T10:50:00","4","52.357167","-0.107833","41.14","WYTON, UK","FM-15","EGUY ","V020","010,1,N,0036,1","00660,1,C,N","011265,1,N,1","+0110,1","+0070,1","99999,9","08,5,+00660,1,99,9",,,,"08,99,1,99,9,99,9,99999,9,99,9,99,9","10220,1,99999,9",,,,,"MET055METAR EGUY 131050Z 01007KT 9999 OVC022 11/07 Q1022 WHT;",
"03566099999","2010-10-13T11:50:00","4","52.357167","-0.107833","41.14","WYTON, UK","FM-15","EGUY ","V020","010,1,N,0046,1","00690,1,C,N","011265,1,N,1","+0110,1","+0070,1","99999,9","08,5,+00690,1,99,9",,,,"08,99,1,99,9,99,9,99999,9,99,9,99,9","10220,1,99999,9",,,,,"MET055METAR EGUY 131150Z 01009KT 9999 OVC023 11/07 Q1022 WHT;",
"03566099999","2010-10-13T12:50:00","4","52.357167","-0.107833","41.14","WYTON, UK","FM-15","EGUY ","V020","360,1,N,0051,1","00720,1,C,N","011265,1,N,1","+0110,1","+0070,1","99999,9","08,5,+00720,1,99,9",,,,"08,99,1,99,9,99,9,99999,9,99,9,99,9","10220,1,99999,9",,,,,"MET055METAR EGUY 131250Z 36010KT 9999 OVC024 11/07 Q1022 WHT;",
"03566099999","2010-10-13T13:50:00","4","52.357167","-0.107833","41.14","WYTON, UK","FM-15","EGUY ","V020","010,1,N,0046,1","00720,1,C,N","011265,1,N,1","+0110,1","+0070,1","99999,9","08,5,+00720,1,99,9",,,,"08,99,1,99,9,99,9,99999,9,99,9,99,9","10210,1,99999,9",,,,,"MET055METAR EGUY 131350Z 01009KT 9999 OVC024 11/07 Q1021 WHT;",
"03566099999","2010-10-13T14:50:00","4","52.357167","-0.107833","41.14","WYTON, UK","FM-15","EGUY ","V020","020,1,N,0051,1","00720,1,C,N","011265,1,N,1","+0110,1","+0070,1","99999,9","08,5,+00720,1,99,9",,,,"08,99,1,99,9,99,9,99999,9,99,9,99,9","10210,1,99999,9",,,,,"MET055METAR EGUY 131450Z 02010KT 9999 OVC024 11/07 Q1021 WHT;",
"03566099999","2010-10-14T06:50:00","4","52.357167","-0.107833","41.14","WYTON, UK","FM-15","EGUY ","V020","320,1,N,0031,1","00180,1,C,N","004000,1,N,1","+0080,1","+0080,1","99999,9","07,5,+00180,1,99,9","08,5,+00600,1,99,9",,,"08,99,1,99,9,99,9,99999,9,99,9,99,9","10210,1,99999,9","10,1",,,,"MET066METAR EGUY 140650Z 32006KT 4000 BR BKN006 OVC020 08/08 Q1021 YLO1;",
"03566099999","2010-10-14T07:50:00","4","52.357167","-0.107833","41.14","WYTON, UK","FM-15","EGUY ","V020","340,1,N,0036,1","00180,1,C,N","004000,1,N,1","+0080,1","+0080,1","99999,9","07,5,+00180,1,99,9","08,5,+00420,1,99,9",,,"08,99,1,99,9,99,9,99999,9,99,9,99,9","10220,1,99999,9","51,1",,,,"MET067METAR EGUY 140750Z 34007KT 4000 -DZ BKN006 OVC014 08/08 Q1022 YLO1;",
"03566099999","2010-10-14T08:50:00","4","52.357167","-0.107833","41.14","WYTON, UK","FM-15","EGUY ","V020","320,1,N,0031,1","00180,1,C,N","004000,1,N,1","+0090,1","+0080,1","99999,9","07,5,+00180,1,99,9","08,5,+00720,1,99,9",,,"08,99,1,99,9,99,9,99999,9,99,9,99,9","10220,1,99999,9","51,1",,,,"MET067METAR EGUY 140850Z 32006KT 4000 -DZ BKN006 OVC024 09/08 Q1022 YLO1;",
"03566099999","2010-10-14T09:50:00","4","52.357167","-0.107833","41.14","WYTON, UK","FM-15","EGUY ","V020","340,1,N,0041,1","00180,1,C,N","004500,1,N,1","+0100,1","+0090,1","99999,9","07,5,+00180,1,99,9","08,5,+00750,1,99,9",,,"08,99,1,99,9,99,9,99999,9,99,9,99,9","10220,1,99999,9","51,1",,,,"MET067METAR EGUY 140950Z 34008KT 4500 -DZ BKN006 OVC025 10/09 Q1022 YLO1;",
"03566099999","2010-10-14T10:50:00","4","52.357167","-0.107833","41.14","WYTON, UK","FM-15","EGUY ","V020","350,1,N,0036,1","00180,1,C,N","004500,1,N,1","+0100,1","+0090,1","99999,9","07,5,+00180,1,99,9","08,5,+00750,1,99,9",,,"08,99,1,99,9,99,9,99999,9,99,9,99,9","10220,1,99999,9","51,1",,,,"MET067METAR EGUY 141050Z 35007KT 4500 -DZ BKN006 OVC025 10/09 Q1022 YLO1;",
"03566099999","2010-10-14T11:50:00","4","52.357167","-0.107833","41.14","WYTON, UK","FM-15","EGUY ","V020","340,1,N,0041,1","00210,1,C,N","006000,1,N,1","+0100,1","+0090,1","99999,9","07,5,+00210,1,99,9","08,5,+00420,1,99,9",,,"08,99,1,99,9,99,9,99999,9,99,9,99,9","10220,1,99999,9","05,1",,,,"MET065METAR EGUY 141150Z 34008KT 6000 HZ BKN007 OVC014 10/09 Q1022 GRN;",
"03566099999","2010-10-14T12:50:00","4","52.357167","-0.107833","41.14","WYTON, UK","FM-15","EGUY ","V020","340,1,N,0041,1","00300,1,C,N","006000,1,N,1","+0110,1","+0090,1","99999,9","04,5,+00210,1,99,9","07,5,+00300,1,99,9","07,5,+00420,1,99,9",,"07,99,1,99,9,99,9,99999,9,99,9,99,9","10220,1,99999,9","51,1",,,,"MET073METAR EGUY 141250Z 34008KT 6000 -DZ SCT007 BKN010 BKN014 11/09 Q1022 GRN;",
"03566099999","2010-10-14T13:50:00","4","52.357167","-0.107833","41.14","WYTON, UK","FM-15","EGUY ","V020","340,1,N,0041,1","00600,5,9,N","999999,9,N,1","+0110,1","+0090,1","99999,9","02,5,+00420,5,99,9","08,5,+00600,5,99,9",,,,"10220,1,99999,9",,,,,"MET061METAR EGUY 141350Z 34008KT 999 FEW014 OVC020 11/09 Q1022 WHT;",
"03566099999","2010-10-14T14:50:00","4","52.357167","-0.107833","41.14","WYTON, UK","FM-15","EGUY ","V020","010,1,N,0041,1","00900,1,C,N","011265,1,N,1","+0110,1","+0090,1","99999,9","04,5,+00450,1,99,9","07,5,+00900,1,99,9",,,"07,99,1,99,9,99,9,99999,9,99,9,99,9","10210,1,99999,9",,,,,"MET062METAR EGUY 141450Z 01008KT 9999 SCT015 BKN030 11/09 Q1021 WHT;",
"03566099999","2010-10-15T06:50:00","4","52.357167","-0.107833","41.14","WYTON, UK","FM-15","EGUY ","V020","320,1,N,0036,1","01200,1,C,N","005000,1,N,1","+0090,1","+0090,1","99999,9","02,5,+00150,1,99,9","07,5,+01200,1,99,9",,,"07,99,1,99,9,99,9,99999,9,99,9,99,9","10200,1,99999,9","10,1",,,,"MET065METAR EGUY 150650Z 32007KT 5000 BR FEW005 BKN040 09/09 Q1020 WHT;",
"03566099999","2010-10-15T07:50:00","4","52.357167","-0.107833","41.14","WYTON, UK","FM-15","EGUY ","V020","310,1,N,0031,1","01350,1,C,N","005000,1,N,1","+0090,1","+0090,1","99999,9","02,5,+00750,1,99,9","08,5,+01350,1,99,9",,,"08,99,1,99,9,99,9,99999,9,99,9,99,9","10200,1,99999,9","10,1",,,,"MET065METAR EGUY 150750Z 31006KT 5000 BR FEW025 OVC045 09/09 Q1020 WHT;",
"03566099999","2010-10-15T08:50:00","4","52.357167","-0.107833","41.14","WYTON, UK","FM-15","EGUY ","V020","320,1,N,0031,1","01260,1,C,N","008000,1,N,1","+0100,1","+0090,1","99999,9","02,5,+00750,1,99,9","08,5,+01260,1,99,9",,,"08,99,1,99,9,99,9,99999,9,99,9,99,9","10200,1,99999,9","10,1",,,,"MET065METAR EGUY 150850Z 32006KT 8000 BR FEW025 OVC042 10/09 Q1020 BLU;",
"03566099999","2010-10-15T09:50:00","4","52.357167","-0.107833","41.14","WYTON, UK","FM-15","EGUY ","V020","320,1,N,0041,1","01350,1,C,N","011265,1,N,1","+0110,1","+0100,1","99999,9","08,5,+01350,1,99,9",,,,"08,99,1,99,9,99,9,99999,9,99,9,99,9","10200,1,99999,9",,,,,"MET055METAR EGUY 150950Z 32008KT 9999 OVC045 11/10 Q1020 BLU;",
"03566099999","2010-10-15T10:50:00","4","52.357167","-0.107833","41.14","WYTON, UK","FM-15","EGUY ","V020","310,1,N,0051,1","01350,1,C,N","011265,1,N,1","+0120,1","+0100,1","99999,9","08,5,+01350,1,99,9",,,,"08,99,1,99,9,99,9,99999,9,99,9,99,9","10190,1,99999,9",,,,,"MET055METAR EGUY 151050Z 31010KT 9999 OVC045 12/10 Q1019 BLU;",
"03566099999","2010-10-15T11:50:00","4","52.357167","-0.107833","41.14","WYTON, UK","FM-15","EGUY ","V020","290,1,N,0046,1","01350,1,C,N","011265,1,N,1","+0120,1","+0070,1","99999,9","08,5,+01350,1,99,9",,,,"08,99,1,99,9,99,9,99999,9,99,9,99,9","10180,1,99999,9",,,,,"MET055METAR EGUY 151150Z 29009KT 9999 OVC045 12/07 Q1018 BLU;",
"03566099999","2010-10-15T12:50:00","4","52.357167","-0.107833","41.14","WYTON, UK","FM-15","EGUY ","V020","310,1,N,0051,1","01350,1,C,N","011265,1,N,1","+0120,1","+0060,1","99999,9","02,5,+00750,1,99,9","08,5,+01350,1,99,9",,,"08,99,1,99,9,99,9,99999,9,99,9,99,9","10169,1,99999,9",,,,,"MET062METAR EGUY 151250Z 31010KT 9999 FEW025 OVC045 12/06 Q1017 BLU;",
"03566099999","2010-10-15T13:50:00","4","52.357167","-0.107833","41.14","WYTON, UK","FM-15","EGUY ","V020","300,1,N,0062,1","01350,1,C,N","011265,1,N,1","+0120,1","+0070,1","99999,9","04,5,+00750,1,99,9","08,5,+01350,1,99,9",,,"08,99,1,99,9,99,9,99999,9,99,9,99,9","10169,1,99999,9",,,,,"MET062METAR EGUY 151350Z 30012KT 9999 SCT025 OVC045 12/07 Q1017 BLU;",
"03566099999","2010-10-15T14:50:00","4","52.357167","-0.107833","41.14","WYTON, UK","FM-15","EGUY ","V020","300,1,N,0051,1","01350,1,C,N","011265,1,N,1","+0120,1","+0090,1","99999,9","04,5,+00750,1,99,9","07,5,+01350,1,99,9",,,"07,99,1,99,9,99,9,99999,9,99,9,99,9","10159,1,99999,9",,,,,"MET062METAR EGUY 151450Z 30010KT 9999 SCT025 BKN045 12/09 Q1016 BLU;",
"03566099999","2010-10-16T07:50:00","4","52.357167","-0.107833","41.14","WYTON, UK","FM-15","EGUY ","V020","330,1,N,0057,1","99999,9,C,N","011265,1,N,1","+0070,1","+0070,1","99999,9","02,5,+00210,1,99,9","04,5,+00750,1,99,9",,,"04,99,1,99,9,99,9,99999,9,99,9,99,9","10190,1,99999,9","16,1",,,,"MET067METAR EGUY 160750Z 33011KT 9999 VCSH FEW007 SCT025 07/07 Q1019 BLU;","P01 007503SCOCIG"
"03566099999","2010-10-16T08:50:00","4","52.357167","-0.107833","41.14","WYTON, UK","FM-15","EGUY ","V020","340,1,N,0072,1","99999,9,C,N","011265,1,N,1","+0090,1","+0080,1","99999,9","02,5,+00750,1,99,9","04,5,+01500,1,99,9",,,"04,99,1,99,9,99,9,99999,9,99,9,99,9","10200,1,99999,9",,,,,"MET062METAR EGUY 160850Z 34014KT 9999 FEW025 SCT050 09/08 Q1020 BLU;","P01 015003SCOCIG"
"03566099999","2010-10-16T10:50:00","4","52.357167","-0.107833","41.14","WYTON, UK","FM-15","EGUY ","V020","360,1,N,0077,1","00600,1,C,N","011265,1,N,1","+0110,1","+0090,1","99999,9","02,5,+00300,1,99,9","04,5,+00600,1,99,9","07,5,+01350,1,99,9",,"07,99,1,99,9,99,9,99999,9,99,9,99,9","10210,1,99999,9","16,1",,,,"MET074METAR EGUY 161050Z 36015KT 9999 VCSH FEW010 SCT020 BKN045 11/09 Q1021 WHT;",
"03566099999","2010-10-16T11:50:00","4","52.357167","-0.107833","41.14","WYTON, UK","FM-15","EGUY ","V020","360,1,N,0051,1","99999,9,C,N","011265,1,N,1","+0110,1","+0090,1","99999,9","02,5,+00240,1,99,9","04,5,+00600,1,99,9",,,"04,99,1,99,9,99,9,99999,9,99,9,99,9","10210,1,99999,9","16,1",,,,"MET067METAR EGUY 161150Z 36010KT 9999 VCSH FEW008 SCT020 11/09 Q1021 WHT;","P01 006003SCOCIG"
"03566099999","2010-10-16T12:50:00","4","52.357167","-0.107833","41.14","WYTON, UK","FM-15","EGUY ","V020","010,1,N,0062,1","99999,9,C,N","011265,1,N,1","+0110,1","+0080,1","99999,9","04,5,+00600,1,99,9","04,5,+01350,1,99,9",,,"04,99,1,99,9,99,9,99999,9,99,9,99,9","10210,1,99999,9","80,1",,,,"MET068METAR EGUY 161250Z 01012KT 9999 -SHRA SCT020 SCT045 11/08 Q1021 WHT;","P01 013503SCOCIG"
"03566099999","2010-10-16T14:50:00","4","52.357167","-0.107833","41.14","WYTON, UK","FM-15","EGUY ","V020","030,1,N,0072,1","22000,1,9,N","011265,1,N,1","+0110,1","+0060,1","99999,9","02,5,+00900,1,99,9",,,,"02,99,1,99,9,99,9,99999,9,99,9,99,9","10220,1,99999,9",,,,,"MET055METAR EGUY 161450Z 03014KT 9999 FEW030 11/06 Q1022 BLU;",
"03566099999","2010-10-17T06:50:00","4","52.357167","-0.107833","41.14","WYTON, UK","FM-15","EGUY ","V020","320,1,N,0036,1","99999,9,9,Y","009900,1,N,1","+0030,1","+0020,1","99999,9",,,,,,"10261,1,99999,9",,,,,"MET049METAR EGUY 170650Z 32007KT CAVOK 03/02 Q1026 BLU;",
"03566099999","2010-10-17T07:50:00","4","52.357167","-0.107833","41.14","WYTON, UK","FM-15","EGUY ","V020","320,1,N,0036,1","99999,9,9,Y","009900,1,N,1","+0060,1","+0040,1","99999,9",,,,,,"10271,1,99999,9",,,,,"MET049METAR EGUY 170750Z 32007KT CAVOK 06/04 Q1027 BLU;",
"03566099999","2010-10-17T08:50:00","4","52.357167","-0.107833","41.14","WYTON, UK","FM-15","EGUY ","V020","350,1,N,0021,1","99999,9,9,Y","009900,1,N,1","+0060,1","+0040,1","99999,9",,,,,,"10271,1,99999,9",,,,,"MET049METAR EGUY 170850Z 35004KT CAVOK 06/04 Q1027 BLU;",
"03566099999","2010-10-17T09:50:00","4","52.357167","-0.107833","41.14","WYTON, UK","FM-15","EGUY ","V020","350,1,N,0031,1","99999,9,9,Y","009900,1,N,1","+0090,1","+0050,1","99999,9",,,,,,"10271,1,99999,9",,,,,"MET049METAR EGUY 170950Z 35006KT CAVOK 09/05 Q1027 BLU;",
"03566099999","2010-10-17T10:50:00","4","52.357167","-0.107833","41.14","WYTON, UK","FM-15","EGUY ","V020","999,9,9,9999,9","22000,1,9,N","011265,1,N,1","+0110,1","+0040,1","99999,9","02,5,+00720,5,99,9",,,,,"10270,1,99999,9",,,,,"MET054METAR EGUY 171050Z 3407KT 9999 FEW024 11/04 Q1027 BLU;",
"03566099999","2010-10-17T11:50:00","4","52.357167","-0.107833","41.14","WYTON, UK","FM-15","EGUY ","V020","350,1,N,0026,1","22000,1,9,N","011265,1,N,1","+0110,1","+0040,1","99999,9","02,5,+00720,1,99,9",,,,"02,99,1,99,9,99,9,99999,9,99,9,99,9","10271,1,99999,9",,,,,"MET055METAR EGUY 171150Z 35005KT 9999 FEW024 11/04 Q1027 BLU;",
"03566099999","2010-10-17T13:50:00","4","52.357167","-0.107833","41.14","WYTON, UK","FM-15","EGUY ","V020","010,1,N,0015,1","22000,1,9,N","011265,1,N,1","+0110,1","+9999,9","99999,9","02,5,+00750,1,99,9",,,,"02,99,1,99,9,99,9,99999,9,99,9,99,9","10261,1,99999,9",,,,,"MET055METAR EGUY 171350Z 01003KT 9999 FEW025 11/// Q1026 BLU;",
"03566099999","2010-10-17T14:50:00","4","52.357167","-0.107833","41.14","WYTON, UK","FM-15","EGUY ","V020","270,1,N,0026,1","22000,1,9,N","011265,1,N,1","+0110,1","+0020,1","99999,9","02,5,+01080,1,99,9",,,,"02,99,1,99,9,99,9,99999,9,99,9,99,9","10251,1,99999,9",,,,,"MET055METAR EGUY 171450Z 27005KT 9999 FEW036 11/02 Q1025 BLU;",
"03566099999","2010-10-18T06:50:00","4","52.357167","-0.107833","41.14","WYTON, UK","FM-15","EGUY ","V020","220,1,N,0036,1","00720,1,C,N","011265,1,N,1","+0070,1","+0060,1","99999,9","07,5,+00720,1,99,9",,,,"07,99,1,99,9,99,9,99999,9,99,9,99,9","10200,1,99999,9",,,,,"MET055METAR EGUY 180650Z 22007KT 9999 BKN024 07/06 Q1020 WHT;",
"03566099999","2010-10-18T07:50:00","4","52.357167","-0.107833","41.14","WYTON, UK","FM-15","EGUY ","V020","230,1,N,0046,1","00960,1,C,N","011265,1,N,1","+0080,1","+0070,1","99999,9","02,5,+00720,1,99,9","07,5,+00960,1,99,9",,,"07,99,1,99,9,99,9,99999,9,99,9,99,9","10200,1,99999,9",,,,,"MET062METAR EGUY 180750Z 23009KT 9999 FEW024 BKN032 08/07 Q1020 BLU;",
"03566099999","2010-10-18T08:50:00","4","52.357167","-0.107833","41.14","WYTON, UK","FM-15","EGUY ","V020","240,1,N,0051,1","01800,1,C,N","011265,1,N,1","+0090,1","+0080,1","99999,9","02,5,+01200,1,99,9","07,5,+01800,1,99,9",,,"07,99,1,99,9,99,9,99999,9,99,9,99,9","10200,1,99999,9",,,,,"MET062METAR EGUY 180850Z 24010KT 9999 FEW040 BKN060 09/08 Q1020 BLU;",
"03566099999","2010-10-18T09:50:00","4","52.357167","-0.107833","41.14","WYTON, UK","FM-15","EGUY ","V020","240,1,N,0041,1","01800,1,C,N","011265,1,N,1","+0100,1","+0080,1","99999,9","02,5,+01350,1,99,9","04,5,+01800,1,99,9","07,5,+04200,1,99,9",,"07,99,1,99,9,99,9,99999,9,99,9,99,9","10200,1,99999,9",,,,,"MET069METAR EGUY 180950Z 24008KT 9999 FEW045 SCT060 BKN140 10/08 Q1020 BLU;",
"03566099999","2010-10-18T10:50:00","4","52.357167","-0.107833","41.14","WYTON, UK","FM-15","EGUY ","V020","240,1,N,0057,1","01800,1,C,N","011265,1,N,1","+0110,1","+0090,1","99999,9","02,5,+01350,1,99,9","07,5,+01800,1,99,9",,,"07,99,1,99,9,99,9,99999,9,99,9,99,9","10190,1,99999,9",,,,,"MET062METAR EGUY 181050Z 24011KT 9999 FEW045 BKN060 11/09 Q1019 BLU;",
"03566099999","2010-10-18T11:50:00","4","52.357167","-0.107833","41.14","WYTON, UK","FM-15","EGUY ","V020","250,1,N,0057,1","01800,1,C,N","011265,1,N,1","+0120,1","+0080,1","99999,9","02,5,+01200,1,99,9","07,5,+01800,1,99,9",,,"07,99,1,99,9,99,9,99999,9,99,9,99,9","10190,1,99999,9",,,,,"MET062METAR EGUY 181150Z 25011KT 9999 FEW040 BKN060 12/08 Q1019 BLU;",
"03566099999","2010-10-18T12:50:00","4","52.357167","-0.107833","41.14","WYTON, UK","FM-15","EGUY ","V020","250,1,N,0057,1","22000,1,9,N","011265,1,N,1","+0130,1","+0080,1","99999,9","02,5,+01200,1,99,9",,,,"02,99,1,99,9,99,9,99999,9,99,9,99,9","10180,1,99999,9",,,,,"MET055METAR EGUY 181250Z 25011KT 9999 FEW040 13/08 Q1018 BLU;",
"03566099999","2010-10-18T13:50:00","4","52.357167","-0.107833","41.14","WYTON, UK","FM-15","EGUY ","V020","260,1,N,0057,1","01200,1,C,N","011265,1,N,1","+0130,1","+0080,1","99999,9","02,5,+00750,1,99,9","07,5,+01200,1,99,9",,,"07,99,1,99,9,99,9,99999,9,99,9,99,9","10169,1,99999,9",,,,,"MET062METAR EGUY 181350Z 26011KT 9999 FEW025 BKN040 13/08 Q1017 BLU;",
"03566099999","2010-10-18T14:50:00","4","52.357167","-0.107833","41.14","WYTON, UK","FM-15","EGUY ","V020","270,1,N,0067,1","01800,1,C,N","011265,1,N,1","+0130,1","+0080,1","99999,9","02,5,+00900,1,99,9","07,5,+01800,1,99,9",,,"07,99,1,99,9,99,9,99999,9,99,9,99,9","10169,1,99999,9",,,,,"MET062METAR EGUY 181450Z 27013KT 9999 FEW030 BKN060 13/08 Q1017 BLU;",
"03566099999","2010-10-19T06:50:00","4","52.357167","-0.107833","41.14","WYTON, UK","FM-15","EGUY ","V020","280,1,N,0051,1","99999,9,9,Y","009900,1,N,1","+0060,1","+0050,1","99999,9",,,,,,"10102,1,99999,9",,,,,"MET049METAR EGUY 190650Z 28010KT CAVOK 06/05 Q1010 BLU;",
"03566099999","2010-10-19T07:50:00","4","52.357167","-0.107833","41.14","WYTON, UK","FM-15","EGUY ","V020","280,1,N,0057,1","99999,9,9,Y","009900,1,N,1","+0070,1","+0060,1","99999,9",,,,,,"10102,1,99999,9",,,,,"MET049METAR EGUY 190750Z 28011KT CAVOK 07/06 Q1010 BLU;",
"03566099999","2010-10-19T08:50:00","4","52.357167","-0.107833","41.14","WYTON, UK","FM-15","EGUY ","V020","270,1,N,0062,1","99999,9,9,Y","009900,1,N,1","+0090,1","+0070,1","99999,9",,,,,,"10108,1,99999,9",,,,,"MET049METAR EGUY 190850Z 27012KT CAVOK 09/07 Q1011 BLU;",
"03566099999","2010-10-19T09:50:00","4","52.357167","-0.107833","41.14","WYTON, UK","FM-15","EGUY ","V020","280,1,N,0077,1","99999,9,C,N","011265,1,N,1","+0100,1","+0070,1","99999,9","02,5,+00360,1,99,9","04,5,+01200,1,99,9",,,"04,99,1,99,9,99,9,99999,9,99,9,99,9","10102,1,99999,9",,,,,"MET062METAR EGUY 190950Z 28015KT 9999 FEW012 SCT040 10/07 Q1010 BLU;","P01 012003SCOCIG"
"03566099999","2010-10-19T10:50:00","4","52.357167","-0.107833","41.14","WYTON, UK","FM-15","EGUY ","V020","290,1,N,0067,1","01200,1,C,N","011265,1,N,1","+0110,1","+0070,1","99999,9","02,5,+00540,1,99,9","07,5,+01200,1,99,9",,,"07,99,1,99,9,99,9,99999,9,99,9,99,9","10102,1,99999,9","80,1",,,,"MET068METAR EGUY 191050Z 29013KT 9999 -SHRA FEW018 BKN040 11/07 Q1010 BLU;",
"03566099999","2010-10-19T11:50:00","4","52.357167","-0.107833","41.14","WYTON, UK","FM-15","EGUY ","V020","280,1,N,0062,1","01200,1,C,N","011265,1,N,1","+0110,1","+0070,1","99999,9","02,5,+00600,1,99,9","07,5,+01200,1,99,9",,,"07,99,1,99,9,99,9,99999,9,99,9,99,9","10102,1,99999,9",,,,,"MET062METAR EGUY 191150Z 28012KT 9999 FEW020 BKN040 11/07 Q1010 BLU;",
"03566099999","2010-10-19T12:50:00","4","52.357167","-0.107833","41.14","WYTON, UK","FM-15","EGUY ","V020","280,1,N,0062,1","00600,1,C,N","006000,1,N,1","+0110,1","+0060,1","99999,9","02,5,+00450,1,99,9","07,5,+00600,1,99,9",,,"07,99,1,99,9,99,9,99999,9,99,9,99,9",,"80,1",,,,"MET062METAR EGUY 191250Z 28012KT 6000 -SHRA FEW015 BKN020 11/06 WHT;",
"03566099999","2010-10-19T13:50:00","4","52.357167","-0.107833","41.14","WYTON, UK","FM-15","EGUY ","V020","280,1,N,0046,1","01200,1,C,N","011265,1,N,1","+0090,1","+0070,1","99999,9","02,5,+00600,1,99,9","07,5,+01200,1,99,9",,,"07,99,1,99,9,99,9,99999,9,99,9,99,9","10081,1,99999,9","61,1",,,,"MET066METAR EGUY 191350Z 28009KT 9999 -RA FEW020 BKN040 09/07 Q1008 BLU;",
"03566099999","2010-10-19T14:50:00","4","52.357167","-0.107833","41.14","WYTON, UK","FM-15","EGUY ","V020","280,1,N,0062,1","01200,1,C,N","011265,1,N,1","+0080,1","+0070,1","99999,9","02,5,+00540,1,99,9","04,5,+01200,1,99,9","07,5,+03000,1,99,9",,"07,99,1,99,9,99,9,99999,9,99,9,99,9","10081,1,99999,9","16,1",,,,"MET074METAR EGUY 191450Z 28012KT 9999 VCSH FEW018 SCT040 BKN100 08/07 Q1008 BLU;",
"03566099999","2010-10-20T06:50:00","4","52.357167","-0.107833","41.14","WYTON, UK","FM-15","EGUY ","V020","310,1,N,0051,1","99999,9,9,Y","009900,1,N,1","+0020,1","+0000,1","99999,9",,,,,,"10169,1,99999,9",,,,,"MET050METAR EGUY 200650Z 31010KT CAVOK 02/M00 Q1017 BLU;",
"03566099999","2010-10-20T07:50:00","4","52.357167","-0.107833","41.14","WYTON, UK","FM-15","EGUY ","V020","310,1,N,0051,1","99999,9,9,Y","009900,1,N,1","+0030,1","+0000,1","99999,9",,,,,,"10180,1,99999,9",,,,,"MET050METAR EGUY 200750Z 31010KT CAVOK 03/M00 Q1018 BLU;",
"03566099999","2010-10-20T08:50:00","4","52.357167","-0.107833","41.14","WYTON, UK","FM-15","EGUY ","V020","310,1,N,0062,1","99999,9,9,Y","009900,1,N,1","+0040,1","+0000,1","99999,9",,,,,,"10190,1,99999,9",,,,,"MET049METAR EGUY 200850Z 31012KT CAVOK 04/00 Q1019 BLU;",
"03566099999","2010-10-20T09:50:00","4","52.357167","-0.107833","41.14","WYTON, UK","FM-15","EGUY ","V020","310,1,N,0072,1","99999,9,9,Y","009900,1,N,1","+0050,1","+0010,1","99999,9",,,,,,"10190,1,99999,9",,,,,"MET049METAR EGUY 200950Z 31014KT CAVOK 05/01 Q1019 BLU;",
"03566099999","2010-10-20T10:50:00","4","52.357167","-0.107833","41.14","WYTON, UK","FM-15","EGUY ","V020","320,1,N,0072,1","22000,1,9,N","011265,1,N,1","+0060,1","+0010,1","99999,9","02,5,+00600,1,99,9",,,,"02,99,1,99,9,99,9,99999,9,99,9,99,9","10190,1,99999,9",,,,,"MET055METAR EGUY 201050Z 32014KT 9999 FEW020 06/01 Q1019 BLU;",
"03566099999","2010-10-20T11:50:00","4","52.357167","-0.107833","41.14","WYTON, UK","FM-15","EGUY ","V020","310,1,N,0077,1","22000,1,9,N","011265,1,N,1","+0070,1","+0000,1","99999,9","02,5,+00840,1,99,9",,,,"02,99,1,99,9,99,9,99999,9,99,9,99,9","10200,1,99999,9",,,,,"MET055METAR EGUY 201150Z 31015KT 9999 FEW028 07/00 Q1020 BLU;",
"03566099999","2010-10-20T12:50:00","4","52.357167","-0.107833","41.14","WYTON, UK","FM-15","EGUY ","V020","320,1,N,0082,1","22000,1,9,N","011265,1,N,1","+0080,1","+0000,1","99999,9","02,5,+00900,1,99,9",,,,"02,99,1,99,9,99,9,99999,9,99,9,99,9","10200,1,99999,9",,,,,"MET056METAR EGUY 201250Z 32016KT 9999 FEW030 08/M00 Q1020 BLU;",
"03566099999","2010-10-20T13:50:00","4","52.357167","-0.107833","41.14","WYTON, UK","FM-15","EGUY ","V020","320,1,N,0072,1","22000,1,9,N","011265,1,N,1","+0070,1","-0010,1","99999,9","02,5,+00900,1,99,9",,,,"02,99,1,99,9,99,9,99999,9,99,9,99,9","10200,1,99999,9",,,,,"MET056METAR EGUY 201350Z 32014KT 9999 FEW030 07/M01 Q1020 BLU;",
"03566099999","2010-10-20T14:50:00","4","52.357167","-0.107833","41.14","WYTON, UK","FM-15","EGUY ","V020","320,1,N,0072,1","22000,1,9,N","011265,1,N,1","+0080,1","-0030,1","99999,9","02,5,+01200,1,99,9",,,,"02,99,1,99,9,99,9,99999,9,99,9,99,9","10200,1,99999,9",,,,,"MET056METAR EGUY 201450Z 32014KT 9999 FEW040 08/M03 Q1020 BLU;",
"03566099999","2010-10-21T06:50:00","4","52.357167","-0.107833","41.14","WYTON, UK","FM-15","EGUY ","V020","220,1,N,0041,1","99999,9,9,Y","009900,1,N,1","+0010,1","-0010,1","99999,9",,,,,,"10220,1,99999,9",,,,,"MET050METAR EGUY 210650Z 22008KT CAVOK 01/M01 Q1022 BLU;",
"03566099999","2010-10-21T07:50:00","4","52.357167","-0.107833","41.14","WYTON, UK","FM-15","EGUY ","V020","210,1,N,0051,1","99999,9,9,Y","009900,1,N,1","+0020,1","+0000,1","99999,9",,,,,,"10220,1,99999,9",,,,,"MET050METAR EGUY 210750Z 21010KT CAVOK 02/M00 Q1022 BLU;",
"03566099999","2010-10-21T08:50:00","4","52.357167","-0.107833","41.14","WYTON, UK","FM-15","EGUY ","V020","220,1,N,0046,1","99999,9,9,Y","009900,1,N,1","+0040,1","+0010,1","99999,9",,,,,,"10220,1,99999,9",,,,,"MET049METAR EGUY 210850Z 22009KT CAVOK 04/01 Q1022 BLU;",
"03566099999","2010-10-21T09:50:00","4","52.357167","-0.107833","41.14","WYTON, UK","FM-15","EGUY ","V020","230,1,N,0062,1","99999,9,9,Y","009900,1,N,1","+0070,1","+0030,1","99999,9",,,,,,"10220,1,99999,9",,,,,"MET049METAR EGUY 210950Z 23012KT CAVOK 07/03 Q1022 BLU;",
"03566099999","2010-10-21T10:50:00","4","52.357167","-0.107833","41.14","WYTON, UK","FM-15","EGUY ","V020","240,1,N,0062,1","99999,9,9,Y","009900,1,N,1","+0090,1","+0040,1","99999,9",,,,,,"10220,1,99999,9",,,,,"MET049METAR EGUY 211050Z 24012KT CAVOK 09/04 Q1022 BLU;",
"03566099999","2010-10-21T11:50:00","4","52.357167","-0.107833","41.14","WYTON, UK","FM-15","EGUY ","V020","240,1,N,0051,1","99999,9,9,Y","009900,1,N,1","+0100,1","+0040,1","99999,9",,,,,,"10210,1,99999,9",,,,"0103,1","MET052METAR EGUY 211150Z 24010G20KT CAVOK 10/04 Q1021 BLU;",
"03566099999","2010-10-21T12:50:00","4","52.357167","-0.107833","41.14","WYTON, UK","FM-15","EGUY ","V020","250,1,N,0051,1","22000,1,9,N","011265,1,N,1","+0120,1","+0050,1","99999,9","02,5,+00900,1,99,9",,,,"02,99,1,99,9,99,9,99999,9,99,9,99,9","10210,1,99999,9",,,,,"MET055METAR EGUY 211250Z 25010KT 9999 FEW030 12/05 Q1021 BLU;",
"03566099999","2010-10-21T13:50:00","4","52.357167","-0.107833","41.14","WYTON, UK","FM-15","EGUY ","V020","250,1,N,0051,1","00960,1,C,N","011265,1,N,1","+0120,1","+0040,1","99999,9","07,5,+00960,1,99,9",,,,"07,99,1,99,9,99,9,99999,9,99,9,99,9","10200,1,99999,9",,,,,"MET055METAR EGUY 211350Z 25010KT 9999 BKN032 12/04 Q1020 BLU;",
"03566099999","2010-10-21T14:50:00","4","52.357167","-0.107833","41.14","WYTON, UK","FM-15","EGUY ","V020","270,1,N,0062,1","00750,1,C,N","011265,1,N,1","+0110,1","+0050,1","99999,9","07,5,+00750,1,99,9",,,,"07,99,1,99,9,99,9,99999,9,99,9,99,9","10200,1,99999,9",,,,,"MET055METAR EGUY 211450Z 27012KT 9999 BKN025 11/05 Q1020 BLU;",
"03566099999","2010-10-22T06:50:00","4","52.357167","-0.107833","41.14","WYTON, UK","FM-15","EGUY ","V020","220,1,N,0051,1","99999,9,C,N","009000,1,N,1","+0050,1","+0040,1","99999,9","04,5,+02400,1,99,9","04,5,+07500,1,99,9",,,"04,99,1,99,9,99,9,99999,9,99,9,99,9","10169,1,99999,9","05,1",,,,"MET065METAR EGUY 220650Z 22010KT 9000 HZ SCT080 SCT250 05/04 Q1017 BLU;","P01 075003SCOCIG"
"03566099999","2010-10-22T07:50:00","4","52.357167","-0.107833","41.14","WYTON, UK","FM-15","EGUY ","V020","220,1,N,0046,1","99999,9,C,N","011265,1,N,1","+0060,1","+0040,1","99999,9","04,5,+01440,1,99,9","04,5,+03000,1,99,9",,,"04,99,1,99,9,99,9,99999,9,99,9,99,9","10180,1,99999,9",,,,,"MET062METAR EGUY 220750Z 22009KT 9999 SCT048 SCT100 06/04 Q1018 BLU;","P01 030003SCOCIG"
"03566099999","2010-10-22T08:50:00","4","52.357167","-0.107833","41.14","WYTON, UK","FM-15","EGUY ","V020","220,1,N,0051,1","01350,1,C,N","011265,1,N,1","+0070,1","+0060,1","99999,9","07,5,+01350,1,99,9",,,,"07,99,1,99,9,99,9,99999,9,99,9,99,9","10169,1,99999,9",,,,,"MET055METAR EGUY 220850Z 22010KT 9999 BKN045 07/06 Q1017 BLU;",
"03566099999","2010-10-22T09:50:00","4","52.357167","-0.107833","41.14","WYTON, UK","FM-15","EGUY ","V020","220,1,N,0041,1","99999,9,C,N","011265,1,N,1","+0090,1","+0060,1","99999,9","04,5,+01350,1,99,9","04,5,+07500,1,99,9",,,"04,99,1,99,9,99,9,99999,9,99,9,99,9","10169,1,99999,9",,,,,"MET062METAR EGUY 220950Z 22008KT 9999 SCT045 SCT250 09/06 Q1017 BLU;","P01 075003SCOCIG"
"03566099999","2010-10-22T10:50:00","4","52.357167","-0.107833","41.14","WYTON, UK","FM-15","EGUY ","V020","240,1,N,0041,1","99999,9,9,Y","009900,1,N,1","+0110,1","+0070,1","99999,9",,,,,,"10169,1,99999,9",,,,,"MET049METAR EGUY 221050Z 24008KT CAVOK 11/07 Q1017 BLU;",
"03566099999","2010-10-22T11:50:00","4","52.357167","-0.107833","41.14","WYTON, UK","FM-15","EGUY ","V020","230,1,N,0072,1","22000,1,9,N","011265,1,N,1","+0130,1","+0060,1","99999,9","02,5,+00900,1,99,9",,,,"02,99,1,99,9,99,9,99999,9,99,9,99,9","10159,1,99999,9",,,,,"MET055METAR EGUY 221150Z 23014KT 9999 FEW030 13/06 Q1016 BLU;",
"03566099999","2010-10-22T12:50:00","4","52.357167","-0.107833","41.14","WYTON, UK","FM-15","EGUY ","V020","220,1,N,0072,1","22000,1,9,N","011265,1,N,1","+0130,1","+0070,1","99999,9","04,5,+00750,1,99,9",,,,"04,99,1,99,9,99,9,99999,9,99,9,99,9","10159,1,99999,9",,,,,"MET055METAR EGUY 221250Z 22014KT 9999 SCT025 13/07 Q1016 BLU;",
"03566099999","2010-10-22T13:50:00","4","52.357167","-0.107833","41.14","WYTON, UK","FM-15","EGUY ","V020","240,1,N,0062,1","99999,9,C,N","011265,1,N,1","+0130,1","+0060,1","99999,9","04,5,+00840,1,99,9","02,5,+00900,1,99,9",,,"04,99,1,99,9,99,9,99999,9,99,9,99,9","10149,1,99999,9",,,,,"MET062METAR EGUY 221350Z 24012KT 9999 FEW030 SCT028 13/06 Q1015 BLU;","P01 009003SCOCIG"
"03566099999","2010-10-22T14:50:00","4","52.357167","-0.107833","41.14","WYTON, UK","FM-15","EGUY ","V020","230,1,N,0072,1","99999,9,C,N","011265,1,N,1","+0130,1","+0060,1","99999,9","02,5,+00600,1,99,9","04,5,+00840,1,99,9",,,"04,99,1,99,9,99,9,99999,9,99,9,99,9","10149,1,99999,9",,,,,"MET062METAR EGUY 221450Z 23014KT 9999 FEW020 SCT028 13/06 Q1015 BLU;","P01 008403SCOCIG"
"03566099999","2010-10-23T07:50:00","4","52.357167","-0.107833","41.14","WYTON, UK","FM-15","EGUY ","V020","250,1,N,0041,1","99999,9,C,N","011265,1,N,1","+0090,1","+0080,1","99999,9","02,5,+00150,1,99,9","04,5,+00750,1,99,9",,,"04,99,1,99,9,99,9,99999,9,99,9,99,9","10000,1,99999,9",,,,,"MET062METAR EGUY 230750Z 25008KT 9999 FEW005 SCT025 09/08 Q1000 BLU;","P01 007503SCOCIG"
"03566099999","2010-10-23T08:50:00","4","52.357167","-0.107833","41.14","WYTON, UK","FM-15","EGUY ","V020","270,1,N,0062,1","99999,9,C,N","011265,1,N,1","+0090,1","+0080,1","99999,9","02,5,+00180,1,99,9","04,5,+01500,1,99,9",,,"04,99,1,99,9,99,9,99999,9,99,9,99,9","10000,1,99999,9",,,,,"MET062METAR EGUY 230850Z 27012KT 9999 FEW006 SCT050 09/08 Q1000 BLU;","P01 015003SCOCIG"
"03566099999","2010-10-23T09:50:00","4","52.357167","-0.107833","41.14","WYTON, UK","FM-15","EGUY ","V020","250,1,N,0062,1","22000,1,9,N","011265,1,N,1","+0100,1","+0090,1","99999,9","02,5,+00300,1,99,9",,,,"02,99,1,99,9,99,9,99999,9,99,9,99,9","09990,1,99999,9",,,,,"MET055METAR EGUY 230950Z 25012KT 9999 FEW010 10/09 Q0999 BLU;",
"03566099999","2010-10-23T10:00:00","4","52.357167","-0.107833","41.14","WYTON, UK","FM-15","EGUY ","V020","270,1,N,0087,1","00540,1,C,N","011265,1,N,1","+0110,1","+0080,1","99999,9","07,5,+00540,1,99,9",,,,"07,99,1,99,9,99,9,99999,9,99,9,99,9","10000,1,99999,9",,,,,"MET055METAR EGUY 231000Z 27017KT 9999 BKN018 11/08 Q1000 WHT;",
"03566099999","2010-10-23T10:50:00","4","52.357167","-0.107833","41.14","WYTON, UK","FM-15","EGUY ","V020","270,1,N,0082,1","99999,9,C,N","011265,1,N,1","+0110,1","+0080,1","99999,9","02,5,+00600,1,99,9","04,5,+01350,1,99,9",,,"04,99,1,99,9,99,9,99999,9,99,9,99,9","10000,1,99999,9",,,,,"MET062METAR EGUY 231050Z 27016KT 9999 FEW020 SCT045 11/08 Q1000 BLU;","P01 013503SCOCIG"
"03566099999","2010-10-23T11:50:00","4","52.357167","-0.107833","41.14","WYTON, UK","FM-15","EGUY ","V020","280,1,N,0072,1","01320,1,C,N","011265,1,N,1","+0100,1","+0070,1","99999,9","02,5,+00600,1,99,9","07,5,+01320,1,99,9",,,"07,99,1,99,9,99,9,99999,9,99,9,99,9","10000,1,99999,9","63,1",,,,"MET067METAR EGUY 231150Z 28014KT 9999 RERA FEW020 BKN044 10/07 Q1000 BLU;",
"03566099999","2010-10-23T14:50:00","4","52.357167","-0.107833","41.14","WYTON, UK","FM-15","EGUY ","V020","320,1,N,0057,1","00900,1,C,N","011265,1,N,1","+0080,1","+0070,1","99999,9","04,5,+00600,1,99,9","07,5,+00900,1,99,9",,,"07,99,1,99,9,99,9,99999,9,99,9,99,9","10010,1,99999,9","81,1",,,,"MET067METAR EGUY 231450Z 32011KT 9999 SHRA SCT020 BKN030 08/07 Q1001 WHT;",
"03566099999","2010-10-24T07:00:00","4","52.357167","-0.107833","41.14","WYTON, UK","FM-15","EGUY ","V020","320,1,N,0062,1","99999,9,9,Y","009900,1,N,1","+0030,1","+0020,1","99999,9",,,,,,"10119,1,99999,9",,,,,"MET049METAR EGUY 240700Z 32012KT CAVOK 03/02 Q1012 BLU;",
"03566099999","2010-10-24T07:50:00","4","52.357167","-0.107833","41.14","WYTON, UK","FM-15","EGUY ","V020","320,1,N,0062,1","99999,9,9,Y","009900,1,N,1","+0040,1","+0020,1","99999,9",,,,,,"10129,1,99999,9",,,,,"MET049METAR EGUY 240750Z 32012KT CAVOK 04/02 Q1013 BLU;",
"03566099999","2010-10-24T08:50:00","4","52.357167","-0.107833","41.14","WYTON, UK","FM-15","EGUY ","V020","330,1,N,0057,1","99999,9,9,Y","009900,1,N,1","+0050,1","+0030,1","99999,9",,,,,,"10139,1,99999,9",,,,,"MET049METAR EGUY 240850Z 33011KT CAVOK 05/03 Q1014 BLU;",
"03566099999","2010-10-24T09:50:00","4","52.357167","-0.107833","41.14","WYTON, UK","FM-15","EGUY ","V020","330,1,N,0067,1","99999,9,9,Y","009900,1,N,1","+0070,1","+0040,1","99999,9",,,,,,"10149,1,99999,9",,,,,"MET049METAR EGUY 240950Z 33013KT CAVOK 07/04 Q1015 BLU;",
"03566099999","2010-10-24T10:50:00","4","52.357167","-0.107833","41.14","WYTON, UK","FM-15","EGUY ","V020","330,1,N,0057,1","22000,1,9,N","011265,1,N,1","+0090,1","+0050,1","99999,9","02,5,+00480,1,99,9",,,,"02,99,1,99,9,99,9,99999,9,99,9,99,9","10149,1,99999,9",,,,,"MET055METAR EGUY 241050Z 33011KT 9999 FEW016 09/05 Q1015 BLU;",
"03566099999","2010-10-24T12:50:00","4","52.357167","-0.107833","41.14","WYTON, UK","FM-15","EGUY ","V020","350,1,N,0067,1","22000,1,9,N","011265,1,N,1","+0100,1","+0050,1","99999,9","02,5,+00600,1,99,9",,,,"02,99,1,99,9,99,9,99999,9,99,9,99,9","10159,1,99999,9",,,,,"MET055METAR EGUY 241250Z 35013KT 9999 FEW020 10/05 Q1016 BLU;",
"03566099999","2010-10-24T13:50:00","4","52.357167","-0.107833","41.14","WYTON, UK","FM-15","EGUY ","V020","350,1,N,0072,1","22000,1,9,N","011265,1,N,1","+0100,1","+0050,1","99999,9","04,5,+00750,1,99,9",,,,"04,99,1,99,9,99,9,99999,9,99,9,99,9","10169,1,99999,9",,,,,"MET055METAR EGUY 241350Z 35014KT 9999 SCT025 10/05 Q1017 BLU;",
"03566099999","2010-10-24T14:50:00","4","52.357167","-0.107833","41.14","WYTON, UK","FM-15","EGUY ","V020","350,1,N,0062,1","22000,1,9,N","011265,1,N,1","+0090,1","+0040,1","99999,9","02,5,+00750,1,99,9",,,,"02,99,1,99,9,99,9,99999,9,99,9,99,9","10169,1,99999,9",,,,,"MET055METAR EGUY 241450Z 35012KT 9999 FEW025 09/04 Q1017 BLU;",
"03566099999","2010-10-25T06:50:00","4","52.357167","-0.107833","41.14","WYTON, UK","FM-15","EGUY ","V020","310,1,N,0041,1","99999,9,9,Y","009900,1,N,1","+0000,1","+0000,1","99999,9",,,,,,"10271,1,99999,9",,,,,"MET049METAR EGUY 250650Z 31008KT CAVOK 00/00 Q1027 BLU;",
"03566099999","2010-10-25T07:50:00","4","52.357167","-0.107833","41.14","WYTON, UK","FM-15","EGUY ","V020","310,1,N,0041,1","99999,9,9,Y","009900,1,N,1","+0020,1","+0010,1","99999,9",,,,,,"10281,1,99999,9",,,,,"MET049METAR EGUY 250750Z 31008KT CAVOK 02/01 Q1028 BLU;",
"03566099999","2010-10-25T08:50:00","4","52.357167","-0.107833","41.14","WYTON, UK","FM-15","EGUY ","V020","320,1,N,0041,1","99999,9,9,Y","009900,1,N,1","+0040,1","+0020,1","99999,9",,,,,,"10291,1,99999,9",,,,,"MET049METAR EGUY 250850Z 32008KT CAVOK 04/02 Q1029 BLU;",
"03566099999","2010-10-25T09:50:00","4","52.357167","-0.107833","41.14","WYTON, UK","FM-15","EGUY ","V020","330,1,N,0031,1","99999,9,9,Y","009900,1,N,1","+0060,1","+0030,1","99999,9",,,,,,"10291,1,99999,9",,,,,"MET049METAR EGUY 250950Z 33006KT CAVOK 06/03 Q1029 BLU;",
"03566099999","2010-10-25T10:50:00","4","52.357167","-0.107833","41.14","WYTON, UK","FM-15","EGUY ","V020","350,1,N,0031,1","99999,9,9,Y","009900,1,N,1","+0070,1","+0040,1","99999,9",,,,,,"10291,1,99999,9",,,,,"MET049METAR EGUY 251050Z 35006KT CAVOK 07/04 Q1029 BLU;",
"03566099999","2010-10-25T11:50:00","4","52.357167","-0.107833","41.14","WYTON, UK","FM-15","EGUY ","V020","999,9,V,0010,1","99999,9,9,Y","009900,1,N,1","+0080,1","+0040,1","99999,9",,,,,,"10291,1,99999,9",,,,,"MET049METAR EGUY 251150Z VRB02KT CAVOK 08/04 Q1029 BLU;",
"03566099999","2010-10-25T12:50:00","4","52.357167","-0.107833","41.14","WYTON, UK","FM-15","EGUY ","V020","290,1,N,0021,1","99999,9,9,Y","009900,1,N,1","+0090,1","+0030,1","99999,9",,,,,,"10291,1,99999,9",,,,,"MET049METAR EGUY 251250Z 29004KT CAVOK 09/03 Q1029 BLU;",
"03566099999","2010-10-25T13:50:00","4","52.357167","-0.107833","41.14","WYTON, UK","FM-15","EGUY ","V020","230,1,N,0026,1","22000,1,9,N","011265,1,N,1","+0100,1","+0020,1","99999,9","02,5,+00900,1,99,9",,,,"02,99,1,99,9,99,9,99999,9,99,9,99,9","10291,1,99999,9",,,,,"MET055METAR EGUY 251350Z 23005KT 9999 FEW030 10/02 Q1029 BLU;",
"03566099999","2010-10-26T06:50:00","4","52.357167","-0.107833","41.14","WYTON, UK","FM-15","EGUY ","V020","180,1,N,0057,1","99999,9,9,Y","009900,1,N,1","+0060,1","+0030,1","99999,9",,,,,,"10240,1,99999,9",,,,,"MET049METAR EGUY 260650Z 18011KT CAVOK 06/03 Q1024 BLU;",
"03566099999","2010-10-26T07:50:00","4","52.357167","-0.107833","41.14","WYTON, UK","FM-15","EGUY ","V020","200,1,N,0062,1","01800,1,C,N","008000,1,N,1","+0070,1","+0040,1","99999,9","07,5,+01800,1,99,9",,,,"07,99,1,99,9,99,9,99999,9,99,9,99,9","10230,1,99999,9","61,1",,,,"MET059METAR EGUY 260750Z 20012KT 8000 -RA BKN060 07/04 Q1023 BLU;",
"03566099999","2010-10-26T08:50:00","4","52.357167","-0.107833","41.14","WYTON, UK","FM-15","EGUY ","V020","190,1,N,0057,1","02400,1,C,N","011265,1,N,1","+0070,1","+0060,1","99999,9","04,5,+01500,1,99,9","07,5,+02400,1,99,9",,,"07,99,1,99,9,99,9,99999,9,99,9,99,9","10230,1,99999,9","61,1",,,,"MET066METAR EGUY 260850Z 19011KT 9999 -RA SCT050 BKN080 07/06 Q1023 BLU;",
"03566099999","2010-10-26T09:50:00","4","52.357167","-0.107833","41.14","WYTON, UK","FM-15","EGUY ","V020","180,1,N,0077,1","01200,1,C,N","011265,1,N,1","+0080,1","+0070,1","99999,9","07,5,+01200,1,99,9","08,5,+01800,1,99,9",,,"08,99,1,99,9,99,9,99999,9,99,9,99,9","10220,1,99999,9","61,1",,,,"MET066METAR EGUY 260950Z 18015KT 9999 -RA BKN040 OVC060 08/07 Q1022 BLU;",
"03566099999","2010-10-26T10:50:00","4","52.357167","-0.107833","41.14","WYTON, UK","FM-15","EGUY ","V020","200,1,N,0077,1","01200,1,C,N","009000,1,N,1","+9999,9","+9999,9","99999,9","02,5,+00600,1,99,9","08,5,+01200,1,99,9",,,"08,99,1,99,9,99,9,99999,9,99,9,99,9","10210,1,99999,9","61,1",,,,"MET062METAR EGUY 261050Z 20015KT 9000 -RA FEW020 OVC040 ///// Q1021;",
"03566099999","2010-10-26T11:50:00","4","52.357167","-0.107833","41.14","WYTON, UK","FM-15","EGUY ","V020","190,1,N,0067,1","00300,1,C,N","006000,1,N,1","+0090,1","+0080,1","99999,9","07,5,+00300,1,99,9",,,,"07,99,1,99,9,99,9,99999,9,99,9,99,9","10200,1,99999,9","63,1",,,"0118,1","MET061METAR EGUY 261150Z 19013G23KT 6000 RA BKN010 09/08 Q1020 GRN;",
"03566099999","2010-10-26T12:50:00","4","52.357167","-0.107833","41.14","WYTON, UK","FM-15","EGUY ","V020","200,1,N,0082,1","00210,1,C,N","004500,1,N,1","+0090,1","+0090,1","99999,9","07,5,+00210,1,99,9","08,5,+00420,1,99,9",,,"08,99,1,99,9,99,9,99999,9,99,9,99,9","10200,1,99999,9","63,1",,,,"MET065METAR EGUY 261250Z 20016KT 4500 RA BKN007 OVC014 09/09 Q1020 GRN;",
"03566099999","2010-10-26T13:50:00","4","52.357167","-0.107833","41.14","WYTON, UK","FM-15","EGUY ","V020","200,1,N,0072,1","00270,1,C,N","007000,1,N,1","+0100,1","+0090,1","99999,9","02,5,+00150,1,99,9","07,5,+00270,1,99,9","08,5,+00450,1,99,9",,"08,99,1,99,9,99,9,99999,9,99,9,99,9","10190,1,99999,9","61,1",,,,"MET073METAR EGUY 261350Z 20014KT 7000 -RA FEW005 BKN009 OVC015 10/09 Q1019 GRN;",
"03566099999","2010-10-27T06:50:00","4","52.357167","-0.107833","41.14","WYTON, UK","FM-15","EGUY ","V020","220,1,N,0093,1","00300,1,C,N","011265,1,N,1","+0130,1","+0110,1","99999,9","07,5,+00300,1,99,9",,,,"07,99,1,99,9,99,9,99999,9,99,9,99,9","10139,1,99999,9",,,,,"MET055METAR EGUY 270650Z 22018KT 9999 BKN010 13/11 Q1014 GRN;",
"03566099999","2010-10-27T07:50:00","4","52.357167","-0.107833","41.14","WYTON, UK","FM-15","EGUY ","V020","220,1,N,0072,1","22000,1,9,N","011265,1,N,1","+0130,1","+0110,1","99999,9","02,5,+00450,1,99,9",,,,"02,99,1,99,9,99,9,99999,9,99,9,99,9","10149,1,99999,9",,,,,"MET055METAR EGUY 270750Z 22014KT 9999 FEW015 13/11 Q1015 BLU;",
"03566099999","2010-10-27T08:50:00","4","52.357167","-0.107833","41.14","WYTON, UK","FM-15","EGUY ","V020","230,1,N,0072,1","22000,1,9,N","011265,1,N,1","+0140,1","+0120,1","99999,9","02,5,+00450,1,99,9",,,,"02,99,1,99,9,99,9,99999,9,99,9,99,9","10149,1,99999,9",,,,,"MET055METAR EGUY 270850Z 23014KT 9999 FEW015 14/12 Q1015 BLU;",
"03566099999","2010-10-27T09:50:00","4","52.357167","-0.107833","41.14","WYTON, UK","FM-15","EGUY ","V020","220,1,N,0067,1","22000,1,9,N","011265,1,N,1","+0150,1","+0120,1","99999,9","02,5,+00510,1,99,9",,,,"02,99,1,99,9,99,9,99999,9,99,9,99,9","10149,1,99999,9",,,,,"MET055METAR EGUY 270950Z 22013KT 9999 FEW017 15/12 Q1015 BLU;",
"03566099999","2010-10-27T10:50:00","4","52.357167","-0.107833","41.14","WYTON, UK","FM-15","EGUY ","V020","240,1,N,0051,1","22000,1,9,N","011265,1,N,1","+0150,1","+0110,1","99999,9","02,5,+00510,1,99,9",,,,"02,99,1,99,9,99,9,99999,9,99,9,99,9","10149,1,99999,9",,,,,"MET055METAR EGUY 271050Z 24010KT 9999 FEW017 15/11 Q1015 BLU;",
"03566099999","2010-10-27T11:50:00","4","52.357167","-0.107833","41.14","WYTON, UK","FM-15","EGUY ","V020","240,1,N,0072,1","07500,1,C,N","011265,1,N,1","+0150,1","+0110,1","99999,9","02,5,+00600,1,99,9","07,5,+07500,1,99,9",,,"07,99,1,99,9,99,9,99999,9,99,9,99,9","10149,1,99999,9",,,,,"MET062METAR EGUY 271150Z 24014KT 9999 FEW020 BKN250 15/11 Q1015 BLU;",
"03566099999","2010-10-27T12:50:00","4","52.357167","-0.107833","41.14","WYTON, UK","FM-15","EGUY ","V020","250,1,N,0051,1","07500,1,C,N","011265,1,N,1","+0150,1","+0090,1","99999,9","02,5,+00720,1,99,9","07,5,+07500,1,99,9",,,"07,99,1,99,9,99,9,99999,9,99,9,99,9","10149,1,99999,9",,,,,"MET062METAR EGUY 271250Z 25010KT 9999 FEW024 BKN250 15/09 Q1015 BLU;",
"03566099999","2010-10-27T13:50:00","4","52.357167","-0.107833","41.14","WYTON, UK","FM-15","EGUY ","V020","260,1,N,0062,1","07500,1,C,N","011265,1,N,1","+0160,1","+0090,1","99999,9","02,5,+00840,1,99,9","07,5,+07500,1,99,9",,,"07,99,1,99,9,99,9,99999,9,99,9,99,9","10149,1,99999,9",,,,,"MET062METAR EGUY 271350Z 26012KT 9999 FEW028 BKN250 16/09 Q1015 BLU;",
"03566099999","2010-10-27T14:50:00","4","52.357167","-0.107833","41.14","WYTON, UK","FM-15","EGUY ","V020","260,1,N,0051,1","07500,1,C,N","011265,1,N,1","+0160,1","+0080,1","99999,9","02,5,+00900,1,99,9","07,5,+07500,1,99,9",,,"07,99,1,99,9,99,9,99999,9,99,9,99,9","10149,1,99999,9",,,,,"MET062METAR EGUY 271450Z 26010KT 9999 FEW030 BKN250 16/08 Q1015 BLU;",
"03566099999","2010-10-28T06:50:00","4","52.357167","-0.107833","41.14","WYTON, UK","FM-15","EGUY ","V020","220,1,N,0082,1","01800,1,C,N","011265,1,N,1","+0110,1","+0090,1","99999,9","04,5,+00600,1,99,9","04,5,+01800,1,99,9","07,5,+07500,1,99,9",,"07,99,1,99,9,99,9,99999,9,99,9,99,9","10129,1,99999,9","51,1",,,,"MET073METAR EGUY 280650Z 22016KT 9999 -DZ SCT020 SCT060 BKN250 11/09 Q1013 WHT;",
"03566099999","2010-10-28T07:50:00","4","52.357167","-0.107833","41.14","WYTON, UK","FM-15","EGUY ","V020","220,1,N,0062,1","07500,1,C,N","011265,1,N,1","+0110,1","+0090,1","99999,9","02,5,+00600,1,99,9","07,5,+07500,1,99,9",,,"07,99,1,99,9,99,9,99999,9,99,9,99,9","10139,1,99999,9",,,,,"MET062METAR EGUY 280750Z 22012KT 9999 FEW020 BKN250 11/09 Q1014 BLU;",
"03566099999","2010-10-28T08:50:00","4","52.357167","-0.107833","41.14","WYTON, UK","FM-15","EGUY ","V020","230,1,N,0051,1","99999,9,9,Y","009900,1,N,1","+0120,1","+0100,1","99999,9",,,,,,"10139,1,99999,9",,,,,"MET049METAR EGUY 280850Z 23010KT CAVOK 12/10 Q1014 BLU;",
"03566099999","2010-10-28T09:50:00","4","52.357167","-0.107833","41.14","WYTON, UK","FM-15","EGUY ","V020","220,1,N,0041,1","99999,9,9,Y","009900,1,N,1","+0130,1","+0100,1","99999,9","02,5,+02400,5,99,9","08,5,+07500,5,99,9",,,,"10150,1,99999,9",,,,,"MET063METAR EGUY 280950Z 22008KT CAVOK FEW080 OVC250 13/10 Q1015 BLU;",
"03566099999","2010-10-28T10:50:00","4","52.357167","-0.107833","41.14","WYTON, UK","FM-15","EGUY ","V020","220,1,N,0062,1","02400,1,C,N","011265,1,N,1","+0130,1","+0100,1","99999,9","02,5,+00360,1,99,9","04,5,+02400,1,99,9","08,5,+07500,1,99,9",,"08,99,1,99,9,99,9,99999,9,99,9,99,9","10149,1,99999,9",,,,,"MET069METAR EGUY 281050Z 22012KT 9999 FEW012 SCT080 OVC250 13/10 Q1015 BLU;",
"03566099999","2010-10-28T11:50:00","4","52.357167","-0.107833","41.14","WYTON, UK","FM-15","EGUY ","V020","220,1,N,0082,1","00420,1,C,N","011265,1,N,1","+0140,1","+0110,1","99999,9","07,5,+00420,1,99,9","08,5,+07500,1,99,9",,,"08,99,1,99,9,99,9,99999,9,99,9,99,9","10149,1,99999,9","80,1",,,,"MET068METAR EGUY 281150Z 22016KT 9999 -SHRA BKN014 OVC250 14/11 Q1015 GRN;",
"03566099999","2010-10-28T12:50:00","4","52.357167","-0.107833","41.14","WYTON, UK","FM-15","EGUY ","V020","230,1,N,0051,1","07500,1,C,N","011265,1,N,1","+0150,1","+0100,1","99999,9","04,5,+00510,1,99,9","07,5,+07500,1,99,9",,,"07,99,1,99,9,99,9,99999,9,99,9,99,9","10139,1,99999,9",,,,,"MET062METAR EGUY 281250Z 23010KT 9999 SCT017 BKN250 15/10 Q1014 WHT;",
"03566099999","2010-10-28T13:50:00","4","52.357167","-0.107833","41.14","WYTON, UK","FM-15","EGUY ","V020","210,1,N,0077,1","07500,1,C,N","011265,1,N,1","+0150,1","+0110,1","99999,9","04,5,+00480,1,99,9","07,5,+07500,1,99,9",,,"07,99,1,99,9,99,9,99999,9,99,9,99,9","10139,1,99999,9",,,,,"MET062METAR EGUY 281350Z 21015KT 9999 SCT016 BKN250 15/11 Q1014 WHT;",
"03566099999","2010-10-28T14:50:00","4","52.357167","-0.107833","41.14","WYTON, UK","FM-15","EGUY ","V020","210,1,N,0051,1","02700,1,C,N","011265,1,N,1","+0150,1","+0110,1","99999,9","02,5,+00600,1,99,9","04,5,+02700,1,99,9","07,5,+07500,1,99,9",,"07,99,1,99,9,99,9,99999,9,99,9,99,9","10129,1,99999,9",,,,"0103,1","MET072METAR EGUY 281450Z 21010G20KT 9999 FEW020 SCT090 BKN250 15/11 Q1013 BLU;",
"03566099999","2010-10-29T07:50:00","4","52.357167","-0.107833","41.14","WYTON, UK","FM-15","EGUY ","V020","190,1,N,0051,1","00420,1,C,N","011265,1,N,1","+0120,1","+0100,1","99999,9","08,5,+00420,1,99,9",,,,"08,99,1,99,9,99,9,99999,9,99,9,99,9","10031,1,99999,9",,,,,"MET055METAR EGUY 290750Z 19010KT 9999 OVC014 12/10 Q1003 GRN;",
"03566099999","2010-10-29T08:50:00","4","52.357167","-0.107833","41.14","WYTON, UK","FM-15","EGUY ","V020","160,1,N,0077,1","00540,1,C,N","011265,1,N,1","+0120,1","+0100,1","99999,9","02,5,+00420,1,99,9","07,5,+00540,1,99,9","07,5,+00900,1,99,9",,"07,99,1,99,9,99,9,99999,9,99,9,99,9","10020,1,99999,9",,,,,"MET069METAR EGUY 290850Z 16015KT 9999 FEW014 BKN018 BKN030 12/10 Q1002 WHT;",
"03566099999","2010-10-29T09:50:00","4","52.357167","-0.107833","41.14","WYTON, UK","FM-15","EGUY ","V020","150,1,N,0062,1","00360,1,C,N","011265,1,N,1","+0110,1","+0100,1","99999,9","04,5,+00270,1,99,9","08,5,+00360,1,99,9",,,"08,99,1,99,9,99,9,99999,9,99,9,99,9","10000,1,99999,9",,,,"0113,1","MET065METAR EGUY 290950Z 15012G22KT 9999 SCT009 OVC012 11/10 Q1000 GRN;",
"03566099999","2010-10-29T10:50:00","4","52.357167","-0.107833","41.14","WYTON, UK","FM-15","EGUY ","V020","160,1,N,0077,1","00240,1,C,N","011265,1,N,1","+0120,1","+0100,1","99999,9","07,5,+00240,1,99,9","08,5,+00900,1,99,9",,,"08,99,1,99,9,99,9,99999,9,99,9,99,9","10000,1,99999,9",,,,,"MET062METAR EGUY 291050Z 16015KT 9999 BKN008 OVC030 12/10 Q1000 GRN;",
"03566099999","2010-10-29T11:50:00","4","52.357167","-0.107833","41.14","WYTON, UK","FM-15","EGUY ","V020","160,1,N,0082,1","00300,1,C,N","011265,1,N,1","+0120,1","+0100,1","99999,9","07,5,+00300,1,99,9","08,5,+00750,1,99,9",,,"08,99,1,99,9,99,9,99999,9,99,9,99,9","09980,1,99999,9",,,,,"MET062METAR EGUY 291150Z 16016KT 9999 BKN010 OVC025 12/10 Q0998 GRN;",
"03566099999","2010-10-29T12:50:00","4","52.357167","-0.107833","41.14","WYTON, UK","FM-15","EGUY ","V020","150,1,N,0067,1","00360,1,C,N","011265,1,N,1","+0130,1","+0100,1","99999,9","07,5,+00360,1,99,9","08,5,+00450,1,99,9",,,"08,99,1,99,9,99,9,99999,9,99,9,99,9","09959,1,99999,9",,,,,"MET062METAR EGUY 291250Z 15013KT 9999 BKN012 OVC015 13/10 Q0996 GRN;",
"03566099999","2010-10-29T13:50:00","4","52.357167","-0.107833","41.14","WYTON, UK","FM-15","EGUY ","V020","160,1,N,0062,1","00750,1,C,N","011265,1,N,1","+0130,1","+0100,1","99999,9","04,5,+00360,1,99,9","08,5,+00750,1,99,9",,,"08,99,1,99,9,99,9,99999,9,99,9,99,9","09949,1,99999,9",,,,"0113,1","MET065METAR EGUY 291350Z 16012G22KT 9999 SCT012 OVC025 13/10 Q0995 GRN;",
"03566099999","2010-10-30T07:50:00","4","52.357167","-0.107833","41.14","WYTON, UK","FM-15","EGUY ","V020","200,1,N,0041,1","99999,9,9,Y","009900,1,N,1","+0080,1","+0070,1","99999,9",,,,,,"09970,1,99999,9",,,,,"MET049METAR EGUY 300750Z 20008KT CAVOK 08/07 Q0997 BLU;",
"03566099999","2010-10-30T08:50:00","4","52.357167","-0.107833","41.14","WYTON, UK","FM-15","EGUY ","V020","220,1,N,0041,1","99999,9,9,Y","009900,1,N,1","+0090,1","+0070,1","99999,9",,,,,,"09970,1,99999,9",,,,,"MET049METAR EGUY 300850Z 22008KT CAVOK 09/07 Q0997 BLU;",
"03566099999","2010-10-30T09:50:00","4","52.357167","-0.107833","41.14","WYTON, UK","FM-15","EGUY ","V020","220,1,N,0062,1","99999,9,9,Y","009900,1,N,1","+0110,1","+0080,1","99999,9",,,,,,"09980,1,99999,9",,,,,"MET049METAR EGUY 300950Z 22012KT CAVOK 11/08 Q0998 BLU;",
"03566099999","2010-10-30T10:50:00","4","52.357167","-0.107833","41.14","WYTON, UK","FM-15","EGUY ","V020","210,1,N,0062,1","07500,5,9,N","999999,9,N,1","+0120,1","+0080,1","99999,9","02,5,+00750,5,99,9","07,5,+07500,5,99,9",,,,"09980,1,99999,9",,,,,"MET057METAR EGUY 301050Z 21012KT FEW025 BKN250 12/08 Q0998 BLU;",
"03566099999","2010-10-30T11:50:00","4","52.357167","-0.107833","41.14","WYTON, UK","FM-15","EGUY ","V020","200,1,N,0036,1","07500,1,C,N","011265,1,N,1","+0130,1","+0080,1","99999,9","02,5,+00750,1,99,9","07,5,+07500,1,99,9",,,"07,99,1,99,9,99,9,99999,9,99,9,99,9","09970,1,99999,9",,,,,"MET062METAR EGUY 301150Z 20007KT 9999 FEW025 BKN250 13/08 Q0997 BLU;",
"03566099999","2010-10-30T12:50:00","4","52.357167","-0.107833","41.14","WYTON, UK","FM-15","EGUY ","V020","180,1,N,0062,1","07500,1,C,N","011265,1,N,1","+0140,1","+0070,1","99999,9","04,5,+00900,1,99,9","07,5,+07500,1,99,9",,,"07,99,1,99,9,99,9,99999,9,99,9,99,9","09970,1,99999,9",,,,,"MET062METAR EGUY 301250Z 18012KT 9999 SCT030 BKN250 14/07 Q0997 BLU;",
"03566099999","2010-10-30T13:50:00","4","52.357167","-0.107833","41.14","WYTON, UK","FM-15","EGUY ","V020","210,1,N,0082,1","07500,1,C,N","011265,1,N,1","+0140,1","+0060,1","99999,9","04,5,+00960,1,99,9","07,5,+07500,1,99,9",,,"07,99,1,99,9,99,9,99999,9,99,9,99,9","09970,1,99999,9",,,,,"MET062METAR EGUY 301350Z 21016KT 9999 SCT032 BKN250 14/06 Q0997 BLU;",
"03566099999","2010-10-30T14:50:00","4","52.357167","-0.107833","41.14","WYTON, UK","FM-15","EGUY ","V020","180,1,N,0041,1","07500,1,C,N","011265,1,N,1","+0130,1","+0070,1","99999,9","04,5,+00750,1,99,9","07,5,+07500,1,99,9",,,"07,99,1,99,9,99,9,99999,9,99,9,99,9","09970,1,99999,9",,,,,"MET062METAR EGUY 301450Z 18008KT 9999 SCT025 BKN250 13/07 Q0997 BLU;",
"03566099999","2010-10-31T08:50:00","4","52.357167","-0.107833","41.14","WYTON, UK","FM-15","EGUY ","V020","080,1,N,0026,1","01350,1,C,N","005000,1,N,1","+0090,1","+0090,1","99999,9","02,5,+00300,1,99,9","04,5,+01350,1,99,9","08,5,+03000,1,99,9",,"08,99,1,99,9,99,9,99999,9,99,9,99,9","09939,1,99999,9","10,1",,,,"MET072METAR EGUY 310850Z 08005KT 5000 BR FEW010 SCT045 OVC100 09/09 Q0994 WHT;",
"03566099999","2010-10-31T10:50:00","4","52.357167","-0.107833","41.14","WYTON, UK","FM-15","EGUY ","V020","100,1,N,0026,1","00750,1,C,N","011265,1,N,1","+0110,1","+0100,1","99999,9","02,5,+00300,1,99,9","04,5,+00750,1,99,9","07,5,+03000,1,99,9",,"07,99,1,99,9,99,9,99999,9,99,9,99,9","09949,1,99999,9",,,,,"MET069METAR EGUY 311050Z 10005KT 9999 FEW010 SCT025 BKN100 11/10 Q0995 BLU;",
"03566099999","2010-10-31T11:50:00","4","52.357167","-0.107833","41.14","WYTON, UK","FM-15","EGUY ","V020","100,1,N,0026,1","00600,1,C,N","011265,1,N,1","+0130,1","+0110,1","99999,9","02,5,+00240,1,99,9","04,5,+00600,1,99,9","07,5,+03000,1,99,9",,"07,99,1,99,9,99,9,99999,9,99,9,99,9","10000,1,99999,9",,,,,"MET069METAR EGUY 311150Z 10005KT 9999 FEW008 SCT020 BKN100 13/11 Q1000 WHT;",
"03566099999","2010-10-31T13:50:00","4","52.357167","-0.107833","41.14","WYTON, UK","FM-15","EGUY ","V020","050,1,N,0021,1","99999,9,C,N","011265,1,N,1","+0130,1","+0100,1","99999,9","04,5,+00660,1,99,9","04,5,+01200,1,99,9",,,"04,99,1,99,9,99,9,99999,9,99,9,99,9","10010,1,99999,9",,,,,"MET062METAR EGUY 311350Z 05004KT 9999 SCT022 SCT040 13/10 Q1001 WHT;","P01 012003SCOCIG"
"03566099999","2010-10-31T14:50:00","4","52.357167","-0.107833","41.14","WYTON, UK","FM-15","EGUY ","V020","350,1,N,0026,1","99999,9,C,N","011265,1,N,1","+0120,1","+0100,1","99999,9","02,5,+00300,1,99,9","04,5,+00450,1,99,9",,,"04,99,1,99,9,99,9,99999,9,99,9,99,9","10010,1,99999,9","81,1",,,,"MET073METAR EGUY 311450Z 35005KT 9999 7000W SHRA FEW010 SCT015 12/10 Q1001 WHT;","P01 004503SCOCIG"
"03566099999","2010-10-31T15:50:00","4","52.357167","-0.107833","41.14","WYTON, UK","FM-15","EGUY ","V020","010,1,N,0015,1","99999,9,C,N","011265,1,N,1","+0110,1","+0100,1","99999,9","02,5,+00300,1,99,9","04,5,+01200,1,99,9",,,"04,99,1,99,9,99,9,99999,9,99,9,99,9","10020,1,99999,9","16,1",,,,"MET067METAR EGUY 311550Z 01003KT 9999 VCSH FEW010 SCT040 11/10 Q1002 BLU;","P01 012003SCOCIG"
"03566099999","2010-11-01T07:50:00","4","52.357167","-0.107833","41.14","WYTON, UK","FM-15","EGUY ","V020","320,1,N,0026,1","99999,9,C,N","004500,1,N,1","+0090,1","+0090,1","99999,9","02,5,+00150,1,99,9","04,5,+01200,1,99,9",,,"04,99,1,99,9,99,9,99999,9,99,9,99,9","10139,1,99999,9","10,1",,,,"MET065METAR EGUY 010750Z 32005KT 4500 BR FEW005 SCT040 09/09 Q1014 GRN;","P01 012003SCOCIG"
"03566099999","2010-11-01T08:50:00","4","52.357167","-0.107833","41.14","WYTON, UK","FM-15","EGUY ","V020","300,1,N,0031,1","01800,1,C,N","004500,1,N,1","+0100,1","+0090,1","99999,9","04,5,+00210,1,99,9","07,5,+01800,1,99,9",,,"07,99,1,99,9,99,9,99999,9,99,9,99,9","10149,1,99999,9","10,1",,,,"MET065METAR EGUY 010850Z 30006KT 4500 BR SCT007 BKN060 10/09 Q1015 GRN;",
"03566099999","2010-11-01T09:30:00","4","52.357167","-0.107833","41.14","WYTON, UK","FM-15","EGUY ","V020","320,1,N,0031,1","00150,1,C,N","005000,1,N,1","+0100,1","+0090,1","99999,9","07,5,+00150,1,99,9",,,,"07,99,1,99,9,99,9,99999,9,99,9,99,9","10149,1,99999,9","10,1",,,,"MET059METAR EGUY 010930Z 32006KT 5000 BR BKN005 10/09 Q1015 YLO1;",
"03566099999","2010-11-01T09:50:00","4","52.357167","-0.107833","41.14","WYTON, UK","FM-15","EGUY ","V020","320,1,N,0031,1","00150,1,C,N","005000,1,N,1","+0100,1","+0100,1","99999,9","07,5,+00150,1,99,9",,,,"07,99,1,99,9,99,9,99999,9,99,9,99,9","10149,1,99999,9","10,1",,,,"MET059METAR EGUY 010950Z 32006KT 5000 BR BKN005 10/10 Q1015 YLO1;",
"03566099999","2010-11-01T10:50:00","4","52.357167","-0.107833","41.14","WYTON, UK","FM-15","EGUY ","V020","270,1,N,0036,1","00150,1,C,N","005000,1,N,1","+0100,1","+0100,1","99999,9","07,5,+00150,1,99,9",,,,"07,99,1,99,9,99,9,99999,9,99,9,99,9","10149,1,99999,9","10,1",,,,"MET059METAR EGUY 011050Z 27007KT 5000 BR BKN005 10/10 Q1015 YLO1;",
"03566099999","2010-11-01T11:50:00","4","52.357167","-0.107833","41.14","WYTON, UK","FM-15","EGUY ","V020","270,1,N,0026,1","00210,1,C,N","007000,1,N,1","+0110,1","+0090,1","99999,9","07,5,+00210,1,99,9",,,,"07,99,1,99,9,99,9,99999,9,99,9,99,9","10149,1,99999,9","05,1",,,,"MET058METAR EGUY 011150Z 27005KT 7000 HZ BKN007 11/09 Q1015 GRN;",
"03566099999","2010-11-01T12:50:00","4","52.357167","-0.107833","41.14","WYTON, UK","FM-15","EGUY ","V020","260,1,N,0036,1","00240,1,C,N","009000,1,N,1","+0110,1","+0090,1","99999,9","07,5,+00240,1,99,9","08,5,+00360,1,99,9",,,"08,99,1,99,9,99,9,99999,9,99,9,99,9","10149,1,99999,9","05,1",,,,"MET065METAR EGUY 011250Z 26007KT 9000 HZ BKN008 OVC012 11/09 Q1015 GRN;",
"03566099999","2010-11-01T13:50:00","4","52.357167","-0.107833","41.14","WYTON, UK","FM-15","EGUY ","V020","260,1,N,0026,1","00360,1,C,N","011265,1,N,1","+0110,1","+0080,1","99999,9","02,5,+00240,1,99,9","07,5,+00360,1,99,9",,,"07,99,1,99,9,99,9,99999,9,99,9,99,9","10139,1,99999,9",,,,,"MET062METAR EGUY 011350Z 26005KT 9999 FEW008 BKN012 11/08 Q1014 GRN;",
"03566099999","2010-11-01T14:50:00","4","52.357167","-0.107833","41.14","WYTON, UK","FM-15","EGUY ","V020","220,1,N,0031,1","00480,1,C,N","011265,1,N,1","+0110,1","+0080,1","99999,9","07,5,+00480,1,99,9",,,,"07,99,1,99,9,99,9,99999,9,99,9,99,9","10139,1,99999,9",,,,,"MET055METAR EGUY 011450Z 22006KT 9999 BKN016 11/08 Q1014 WHT;",
"03566099999","2010-11-01T15:00:00","4","52.357167","-0.107833","41.14","WYTON, UK","FM-15","EGUY ","V020","220,1,N,0026,1","22000,1,9,N","011265,1,N,1","+0120,1","+0080,1","99999,9","02,5,+00480,1,99,9",,,,"02,99,1,99,9,99,9,99999,9,99,9,99,9","10139,1,99999,9",,,,,"MET055METAR EGUY 011500Z 22005KT 9999 FEW016 12/08 Q1014 BLU;",
"03566099999","2010-11-01T15:50:00","4","52.357167","-0.107833","41.14","WYTON, UK","FM-15","EGUY ","V020","190,1,N,0026,1","22000,1,9,N","011265,1,N,1","+0110,1","+0080,1","99999,9","02,5,+00480,1,99,9",,,,"02,99,1,99,9,99,9,99999,9,99,9,99,9","10139,1,99999,9",,,,,"MET055METAR EGUY 011550Z 19005KT 9999 FEW016 11/08 Q1014 BLU;",
"03566099999","2010-11-02T08:50:00","4","52.357167","-0.107833","41.14","WYTON, UK","FM-15","EGUY ","V020","230,1,N,0067,1","99999,9,9,Y","009900,1,N,1","+0120,1","+0090,1","99999,9",,,,,,"10081,1,99999,9",,,,,"MET049METAR EGUY 020850Z 23013KT CAVOK 12/09 Q1008 BLU;",
"03566099999","2010-11-02T09:50:00","4","52.357167","-0.107833","41.14","WYTON, UK","FM-15","EGUY ","V020","230,1,N,0067,1","99999,9,9,Y","009900,1,N,1","+0120,1","+0090,1","99999,9",,,,,,"10081,1,99999,9",,,,,"MET049METAR EGUY 020950Z 23013KT CAVOK 12/09 Q1008 BLU;",
"03566099999","2010-11-02T10:50:00","4","52.357167","-0.107833","41.14","WYTON, UK","FM-15","EGUY ","V020","230,1,N,0072,1","99999,9,9,Y","009900,1,N,1","+0130,1","+0090,1","99999,9",,,,,,"10081,1,99999,9",,,,,"MET049METAR EGUY 021050Z 23014KT CAVOK 13/09 Q1008 BLU;",
"03566099999","2010-11-02T11:50:00","4","52.357167","-0.107833","41.14","WYTON, UK","FM-15","EGUY ","V020","230,1,N,0077,1","99999,9,9,Y","009900,1,N,1","+0130,1","+0090,1","99999,9",,,,,,"10081,1,99999,9",,,,,"MET049METAR EGUY 021150Z 23015KT CAVOK 13/09 Q1008 BLU;",
"03566099999","2010-11-02T12:50:00","4","52.357167","-0.107833","41.14","WYTON, UK","FM-15","EGUY ","V020","230,1,N,0067,1","01800,1,C,N","011265,1,N,1","+0140,1","+0090,1","99999,9","02,5,+00900,1,99,9","04,5,+01800,1,99,9","07,5,+05400,1,99,9",,"07,99,1,99,9,99,9,99999,9,99,9,99,9","10081,1,99999,9",,,,,"MET069METAR EGUY 021250Z 23013KT 9999 FEW030 SCT060 BKN180 14/09 Q1008 BLU;",
"03566099999","2010-11-02T13:50:00","4","52.357167","-0.107833","41.14","WYTON, UK","FM-15","EGUY ","V020","220,1,N,0077,1","01800,1,C,N","011265,1,N,1","+0150,1","+0100,1","99999,9","02,5,+00600,1,99,9","04,5,+01800,1,99,9","07,5,+05400,1,99,9",,"07,99,1,99,9,99,9,99999,9,99,9,99,9","10071,1,99999,9",,,,,"MET069METAR EGUY 021350Z 22015KT 9999 FEW020 SCT060 BKN180 15/10 Q1007 BLU;",
"03566099999","2010-11-02T14:50:00","4","52.357167","-0.107833","41.14","WYTON, UK","FM-15","EGUY ","V020","220,1,N,0082,1","05400,1,C,N","011265,1,N,1","+0140,1","+0100,1","99999,9","02,5,+00600,1,99,9","07,5,+05400,1,99,9",,,"07,99,1,99,9,99,9,99999,9,99,9,99,9","10071,1,99999,9",,,,,"MET062METAR EGUY 021450Z 22016KT 9999 FEW020 BKN180 14/10 Q1007 BLU;",
"03566099999","2010-11-02T15:50:00","4","52.357167","-0.107833","41.14","WYTON, UK","FM-15","EGUY ","V020","220,1,N,0082,1","02100,1,C,N","011265,1,N,1","+0140,1","+0080,1","99999,9","02,5,+00750,1,99,9","04,5,+02100,1,99,9","07,5,+06000,1,99,9",,"07,99,1,99,9,99,9,99999,9,99,9,99,9","10061,1,99999,9",,,,"0134,1","MET072METAR EGUY 021550Z 22016G26KT 9999 FEW025 SCT070 BKN200 14/08 Q1006 BLU;",
"03566099999","2010-11-03T07:50:00","4","52.357167","-0.107833","41.14","WYTON, UK","FM-15","EGUY ","V020","240,1,N,0041,1","99999,9,9,Y","009900,1,N,1","+0100,1","+0070,1","99999,9",,,,,,"10102,1,99999,9",,,,,"MET049METAR EGUY 030750Z 24008KT CAVOK 10/07 Q1010 BLU;",
"03566099999","2010-11-03T08:50:00","4","52.357167","-0.107833","41.14","WYTON, UK","FM-15","EGUY ","V020","240,1,N,0041,1","99999,9,9,Y","009900,1,N,1","+0110,1","+0070,1","99999,9",,,,,,"10108,1,99999,9",,,,,"MET049METAR EGUY 030850Z 24008KT CAVOK 11/07 Q1011 BLU;",
"03566099999","2010-11-03T09:50:00","4","52.357167","-0.107833","41.14","WYTON, UK","FM-15","EGUY ","V020","240,1,N,0062,1","99999,9,9,Y","009900,1,N,1","+0130,1","+0080,1","99999,9",,,,,,"10108,1,99999,9",,,,,"MET049METAR EGUY 030950Z 24012KT CAVOK 13/08 Q1011 BLU;",
"03566099999","2010-11-03T10:50:00","4","52.357167","-0.107833","41.14","WYTON, UK","FM-15","EGUY ","V020","230,1,N,0082,1","99999,9,9,Y","009900,1,N,1","+0130,1","+0080,1","99999,9",,,,,,"10108,1,99999,9",,,,,"MET049METAR EGUY 031050Z 23016KT CAVOK 13/08 Q1011 BLU;",
"03566099999","2010-11-03T11:50:00","4","52.357167","-0.107833","41.14","WYTON, UK","FM-15","EGUY ","V020","230,1,N,0082,1","06000,1,C,N","011265,1,N,1","+0130,1","+0070,1","99999,9","02,5,+00750,1,99,9","04,5,+06000,1,99,9","07,5,+07500,1,99,9",,"07,99,1,99,9,99,9,99999,9,99,9,99,9","10119,1,99999,9",,,,,"MET069METAR EGUY 031150Z 23016KT 9999 FEW025 SCT200 BKN250 13/07 Q1012 BLU;",
"03566099999","2010-11-03T12:50:00","4","52.357167","-0.107833","41.14","WYTON, UK","FM-15","EGUY ","V020","230,1,N,0062,1","04500,1,C,N","011265,1,N,1","+0130,1","+0080,1","99999,9","02,5,+00600,1,99,9","07,5,+04500,1,99,9",,,"07,99,1,99,9,99,9,99999,9,99,9,99,9","10119,1,99999,9",,,,,"MET062METAR EGUY 031250Z 23012KT 9999 FEW020 BKN150 13/08 Q1012 BLU;",
"03566099999","2010-11-03T13:50:00","4","52.357167","-0.107833","41.14","WYTON, UK","FM-15","EGUY ","V020","220,1,N,0041,1","02100,1,C,N","011265,1,N,1","+0130,1","+0080,1","99999,9","02,5,+00600,1,99,9","04,5,+02100,1,99,9","07,5,+04200,1,99,9",,"07,99,1,99,9,99,9,99999,9,99,9,99,9","10119,1,99999,9","61,1",,,,"MET073METAR EGUY 031350Z 22008KT 9999 -RA FEW020 SCT070 BKN140 13/08 Q1012 BLU;",
"03566099999","2010-11-03T14:00:00","4","52.357167","-0.107833","41.14","WYTON, UK","FM-15","EGUY ","V020","200,1,N,0041,1","04200,1,C,N","004000,1,N,1","+0130,1","+0090,1","99999,9","04,5,+00750,1,99,9","07,5,+04200,1,99,9",,,"07,99,1,99,9,99,9,99999,9,99,9,99,9","10119,1,99999,9","63,1",,,,"MET065METAR EGUY 031400Z 20008KT 4000 RA SCT025 BKN140 13/09 Q1012 GRN;",
"03566099999","2010-11-03T14:25:00","4","52.357167","-0.107833","41.14","WYTON, UK","FM-15","EGUY ","V020","220,1,N,0021,1","00750,1,C,N","007000,1,N,1","+0130,1","+0100,1","99999,9","07,5,+00750,1,99,9","08,5,+02100,1,99,9",,,"08,99,1,99,9,99,9,99999,9,99,9,99,9","10119,1,99999,9","61,1",,,,"MET066METAR EGUY 031425Z 22004KT 7000 -RA BKN025 OVC070 13/10 Q1012 WHT;",
"03566099999","2010-11-03T14:50:00","4","52.357167","-0.107833","41.14","WYTON, UK","FM-15","EGUY ","V020","220,1,N,0021,1","00750,1,C,N","004500,1,N,1","+0120,1","+0110,1","99999,9","04,5,+00600,1,99,9","07,5,+00750,1,99,9","08,5,+01500,1,99,9",,"08,99,1,99,9,99,9,99999,9,99,9,99,9","10119,1,99999,9","53,1","63,1",,,"MET074METAR EGUY 031450Z 22004KT 4500 RADZ SCT020 BKN025 OVC050 12/11 Q1012 GRN;",
"03566099999","2010-11-04T07:50:00","4","52.357167","-0.107833","41.14","WYTON, UK","FM-15","EGUY ","V020","230,1,N,0103,1","99999,9,C,N","011265,1,N,1","+0150,1","+0120,1","99999,9","04,5,+00450,1,99,9","04,5,+01500,1,99,9",,,"04,99,1,99,9,99,9,99999,9,99,9,99,9","10139,1,99999,9",,,,"0154,1","MET065METAR EGUY 040750Z 23020G30KT 9999 SCT015 SCT050 15/12 Q1014 WHT;","P01 015003SCOCIG"
"03566099999","2010-11-04T08:50:00","4","52.357167","-0.107833","41.14","WYTON, UK","FM-15","EGUY ","V020","230,1,N,0108,1","01800,1,C,N","011265,1,N,1","+0150,1","+0120,1","99999,9","04,5,+00600,1,99,9","04,5,+01800,1,99,9","07,5,+07500,1,99,9",,"07,99,1,99,9,99,9,99999,9,99,9,99,9","10149,1,99999,9",,,,,"MET069METAR EGUY 040850Z 23021KT 9999 SCT020 SCT060 BKN250 15/12 Q1015 WHT;",
"03566099999","2010-11-04T09:50:00","4","52.357167","-0.107833","41.14","WYTON, UK","FM-15","EGUY ","V020","230,1,N,0103,1","00990,1,C,N","011265,1,N,1","+0160,1","+0120,1","99999,9","04,5,+00510,1,99,9","04,5,+00990,1,99,9","07,5,+07500,1,99,9",,"07,99,1,99,9,99,9,99999,9,99,9,99,9","10149,1,99999,9",,,,,"MET069METAR EGUY 040950Z 23020KT 9999 SCT017 SCT033 BKN250 16/12 Q1015 WHT;",
"03566099999","2010-11-04T10:50:00","4","52.357167","-0.107833","41.14","WYTON, UK","FM-15","EGUY ","V020","230,1,N,0113,1","00660,1,C,N","011265,1,N,1","+0160,1","+0130,1","99999,9","07,5,+00660,1,99,9",,,,"07,99,1,99,9,99,9,99999,9,99,9,99,9","10159,1,99999,9",,,,,"MET055METAR EGUY 041050Z 23022KT 9999 BKN022 16/13 Q1016 WHT;",
"03566099999","2010-11-04T11:50:00","4","52.357167","-0.107833","41.14","WYTON, UK","FM-15","EGUY ","V020","230,1,N,0103,1","00750,1,C,N","011265,1,N,1","+0170,1","+0130,1","99999,9","02,5,+00600,1,99,9","07,5,+00750,1,99,9",,,"07,99,1,99,9,99,9,99999,9,99,9,99,9","10149,1,99999,9",,,,"0154,1","MET065METAR EGUY 041150Z 23020G30KT 9999 FEW020 BKN025 17/13 Q1015 BLU;",
"03566099999","2010-11-04T12:50:00","4","52.357167","-0.107833","41.14","WYTON, UK","FM-15","EGUY ","V020","230,1,N,0072,1","00660,1,C,N","011265,1,N,1","+0170,1","+0130,1","99999,9","02,5,+00480,1,99,9","07,5,+00660,1,99,9",,,"07,99,1,99,9,99,9,99999,9,99,9,99,9","10159,1,99999,9",,,,"0123,1","MET065METAR EGUY 041250Z 23014G24KT 9999 FEW016 BKN022 17/13 Q1016 WHT;",
"03566099999","2010-11-04T13:50:00","4","52.357167","-0.107833","41.14","WYTON, UK","FM-15","EGUY ","V020","230,1,N,0103,1","00870,1,C,N","011265,1,N,1","+0170,1","+0130,1","99999,9","04,5,+00570,1,99,9","04,5,+00870,1,99,9","07,5,+07500,1,99,9",,"07,99,1,99,9,99,9,99999,9,99,9,99,9","10159,1,99999,9",,,,"0154,1","MET072METAR EGUY 041350Z 23020G30KT 9999 SCT019 SCT029 BKN250 17/13 Q1016 WHT;",
"03566099999","2010-11-04T14:50:00","4","52.357167","-0.107833","41.14","WYTON, UK","FM-15","EGUY ","V020","230,1,N,0087,1","00450,1,C,N","011265,1,N,1","+0160,1","+0140,1","99999,9","07,5,+00450,1,99,9",,,,"07,99,1,99,9,99,9,99999,9,99,9,99,9","10149,1,99999,9",,,,"0139,1","MET058METAR EGUY 041450Z 23017G27KT 9999 BKN015 16/14 Q1015 WHT;",
"03566099999","2010-11-04T15:50:00","4","52.357167","-0.107833","41.14","WYTON, UK","FM-15","EGUY ","V020","230,1,N,0082,1","00540,1,C,N","011265,1,N,1","+0160,1","+0130,1","99999,9","02,5,+00450,1,99,9","07,5,+00540,1,99,9",,,"07,99,1,99,9,99,9,99999,9,99,9,99,9","10159,1,99999,9",,,,"0134,1","MET065METAR EGUY 041550Z 23016G26KT 9999 FEW015 BKN018 16/13 Q1016 WHT;",
"03566099999","2010-11-05T07:50:00","4","52.357167","-0.107833","41.14","WYTON, UK","FM-15","EGUY ","V020","240,1,N,0041,1","03600,1,C,N","011265,1,N,1","+0150,1","+0130,1","99999,9","02,5,+00450,1,99,9","07,5,+03600,1,99,9",,,"07,99,1,99,9,99,9,99999,9,99,9,99,9","10190,1,99999,9",,,,,"MET062METAR EGUY 050750Z 24008KT 9999 FEW015 BKN120 15/13 Q1019 BLU;",
"03566099999","2010-11-05T08:50:00","4","52.357167","-0.107833","41.14","WYTON, UK","FM-15","EGUY ","V020","240,1,N,0041,1","03000,1,C,N","011265,1,N,1","+0150,1","+0120,1","99999,9","02,5,+00450,1,99,9","07,5,+03000,1,99,9",,,"07,99,1,99,9,99,9,99999,9,99,9,99,9","10190,1,99999,9",,,,,"MET062METAR EGUY 050850Z 24008KT 9999 FEW015 BKN100 15/12 Q1019 BLU;",
"03566099999","2010-11-05T09:50:00","4","52.357167","-0.107833","41.14","WYTON, UK","FM-15","EGUY ","V020","270,1,N,0031,1","03000,1,C,N","011265,1,N,1","+0150,1","+0120,1","99999,9","02,5,+00450,1,99,9","07,5,+03000,1,99,9",,,"07,99,1,99,9,99,9,99999,9,99,9,99,9","10200,1,99999,9",,,,,"MET062METAR EGUY 050950Z 27006KT 9999 FEW015 BKN100 15/12 Q1020 BLU;",
"03566099999","2010-11-05T10:50:00","4","52.357167","-0.107833","41.14","WYTON, UK","FM-15","EGUY ","V020","270,1,N,0036,1","03000,1,C,N","011265,1,N,1","+0150,1","+0120,1","99999,9","02,5,+00360,1,99,9","07,5,+03000,1,99,9",,,"07,99,1,99,9,99,9,99999,9,99,9,99,9","10200,1,99999,9",,,,,"MET062METAR EGUY 051050Z 27007KT 9999 FEW012 BKN100 15/12 Q1020 BLU;",
"03566099999","2010-11-05T11:50:00","4","52.357167","-0.107833","41.14","WYTON, UK","FM-15","EGUY ","V020","240,1,N,0051,1","00750,1,C,N","011265,1,N,1","+0150,1","+0120,1","99999,9","02,5,+00360,1,99,9","04,5,+00750,1,99,9","07,5,+03000,1,99,9",,"07,99,1,99,9,99,9,99999,9,99,9,99,9","10190,1,99999,9",,,,,"MET069METAR EGUY 051150Z 24010KT 9999 FEW012 SCT025 BKN100 15/12 Q1019 BLU;",
"03566099999","2010-11-05T12:50:00","4","52.357167","-0.107833","41.14","WYTON, UK","FM-15","EGUY ","V020","230,1,N,0041,1","00750,1,C,N","011265,1,N,1","+0140,1","+0130,1","99999,9","02,5,+00600,1,99,9","04,5,+00750,1,99,9","07,5,+03000,1,99,9",,"07,99,1,99,9,99,9,99999,9,99,9,99,9","10180,1,99999,9",,,,,"MET069METAR EGUY 051250Z 23008KT 9999 FEW020 SCT025 BKN100 14/13 Q1018 BLU;",
"03566099999","2010-11-05T13:50:00","4","52.357167","-0.107833","41.14","WYTON, UK","FM-15","EGUY ","V020","230,1,N,0046,1","00750,1,C,N","006000,1,N,1","+0140,1","+0130,1","99999,9","04,5,+00210,1,99,9","07,5,+00750,1,99,9",,,"07,99,1,99,9,99,9,99999,9,99,9,99,9","10169,1,99999,9","53,1","63,1",,,"MET067METAR EGUY 051350Z 23009KT 6000 RADZ SCT007 BKN025 14/13 Q1017 GRN;",
"03566099999","2010-11-05T14:00:00","4","52.357167","-0.107833","41.14","WYTON, UK","FM-15","EGUY ","V020","270,1,N,0051,1","00750,1,C,N","003500,1,N,1","+0140,1","+0120,1","99999,9","04,5,+00180,1,99,9","08,5,+00750,1,99,9",,,"08,99,1,99,9,99,9,99999,9,99,9,99,9","10169,1,99999,9","53,1","63,1",,,"MET068METAR EGUY 051400Z 27010KT 3500 RADZ SCT006 OVC025 14/12 Q1017 YLO1;",
"03566099999","2010-11-05T14:50:00","4","52.357167","-0.107833","41.14","WYTON, UK","FM-15","EGUY ","V020","300,1,N,0062,1","00150,1,C,N","007000,1,N,1","+0120,1","+0100,1","99999,9","07,5,+00150,1,99,9",,,,"07,99,1,99,9,99,9,99999,9,99,9,99,9","10169,1,99999,9","51,1","61,1",,"0113,1","MET065METAR EGUY 051450Z 30012G22KT 7000 -RADZ BKN005 12/10 Q1017 YLO1;",
"03566099999","2010-11-06T08:50:00","4","52.357167","-0.107833","41.14","WYTON, UK","FM-15","EGUY ","V020","290,1,N,0036,1","99999,9,9,Y","009900,1,N,1","+0070,1","+0050,1","99999,9",,,,,,"10169,1,99999,9",,,,,"MET049METAR EGUY 060850Z 29007KT CAVOK 07/05 Q1017 BLU;",
"03566099999","2010-11-06T09:50:00","4","52.357167","-0.107833","41.14","WYTON, UK","FM-15","EGUY ","V020","300,1,N,0041,1","99999,9,9,Y","009900,1,N,1","+0080,1","+0050,1","99999,9",,,,,,"10169,1,99999,9",,,,,"MET049METAR EGUY 060950Z 30008KT CAVOK 08/05 Q1017 BLU;",
"03566099999","2010-11-06T10:50:00","4","52.357167","-0.107833","41.14","WYTON, UK","FM-15","EGUY ","V020","320,1,N,0036,1","22000,1,9,N","011265,1,N,1","+0090,1","+0060,1","99999,9","02,5,+00540,1,99,9",,,,"02,99,1,99,9,99,9,99999,9,99,9,99,9","10180,1,99999,9",,,,,"MET055METAR EGUY 061050Z 32007KT 9999 FEW018 09/06 Q1018 BLU;",
"03566099999","2010-11-06T11:20:00","4","52.357167","-0.107833","41.14","WYTON, UK","FM-15","EGUY ","V020","300,1,N,0036,1","00510,1,C,N","011265,1,N,1","+0090,1","+0060,1","99999,9","07,5,+00510,1,99,9",,,,"07,99,1,99,9,99,9,99999,9,99,9,99,9","10169,1,99999,9",,,,,"MET055METAR EGUY 061120Z 30007KT 9999 BKN017 09/06 Q1017 WHT;",
"03566099999","2010-11-06T11:50:00","4","52.357167","-0.107833","41.14","WYTON, UK","FM-15","EGUY ","V020","310,1,N,0036,1","00510,1,C,N","011265,1,N,1","+0090,1","+0060,1","99999,9","07,5,+00510,1,99,9",,,,"07,99,1,99,9,99,9,99999,9,99,9,99,9","10169,1,99999,9",,,,,"MET055METAR EGUY 061150Z 31007KT 9999 BKN017 09/06 Q1017 WHT;",
"03566099999","2010-11-06T12:50:00","4","52.357167","-0.107833","41.14","WYTON, UK","FM-15","EGUY ","V020","290,1,N,0041,1","99999,9,C,N","011265,1,N,1","+0100,1","+0060,1","99999,9","02,5,+00510,1,99,9","04,5,+00690,1,99,9",,,"04,99,1,99,9,99,9,99999,9,99,9,99,9","10169,1,99999,9",,,,,"MET062METAR EGUY 061250Z 29008KT 9999 FEW017 SCT023 10/06 Q1017 WHT;","P01 006903SCOCIG"
"03566099999","2010-11-06T13:50:00","4","52.357167","-0.107833","41.14","WYTON, UK","FM-15","EGUY ","V020","330,1,N,0031,1","22000,1,9,N","011265,1,N,1","+0100,1","+0050,1","99999,9","04,5,+00690,1,99,9",,,,"04,99,1,99,9,99,9,99999,9,99,9,99,9","10159,1,99999,9",,,,,"MET055METAR EGUY 061350Z 33006KT 9999 SCT023 10/05 Q1016 WHT;",
"03566099999","2010-11-06T14:50:00","4","52.357167","-0.107833","41.14","WYTON, UK","FM-15","EGUY ","V020","340,1,N,0021,1","22000,1,9,N","011265,1,N,1","+0100,1","+0060,1","99999,9","04,5,+00690,1,99,9",,,,"04,99,1,99,9,99,9,99999,9,99,9,99,9","10149,1,99999,9",,,,,"MET055METAR EGUY 061450Z 34004KT 9999 SCT023 10/06 Q1015 WHT;",
"03566099999","2010-11-07T08:50:00","4","52.357167","-0.107833","41.14","WYTON, UK","FM-15","EGUY ","V020","350,1,N,0051,1","99999,9,C,N","011265,1,N,1","+0040,1","+0030,1","99999,9","02,5,+01050,1,99,9","04,5,+01350,1,99,9",,,"04,99,1,99,9,99,9,99999,9,99,9,99,9","10102,1,99999,9",,,,,"MET062METAR EGUY 070850Z 35010KT 9999 FEW035 SCT045 04/03 Q1010 BLU;","P01 013503SCOCIG"
"03566099999","2010-11-07T09:50:00","4","52.357167","-0.107833","41.14","WYTON, UK","FM-15","EGUY ","V020","010,1,N,0046,1","99999,9,C,N","011265,1,N,1","+0050,1","+0040,1","99999,9","02,5,+00750,1,99,9","04,5,+01050,1,99,9",,,"04,99,1,99,9,99,9,99999,9,99,9,99,9","10102,1,99999,9",,,,,"MET062METAR EGUY 070950Z 01009KT 9999 FEW025 SCT035 05/04 Q1010 BLU;","P01 010503SCOCIG"
"03566099999","2010-11-07T10:50:00","4","52.357167","-0.107833","41.14","WYTON, UK","FM-15","EGUY ","V020","010,1,N,0046,1","01350,1,C,N","011265,1,N,1","+0080,1","+0050,1","99999,9","02,5,+00540,1,99,9","07,5,+01350,1,99,9",,,"07,99,1,99,9,99,9,99999,9,99,9,99,9","10102,1,99999,9",,,,,"MET062METAR EGUY 071050Z 01009KT 9999 FEW018 BKN045 08/05 Q1010 BLU;",
"03566099999","2010-11-07T11:50:00","4","52.357167","-0.107833","41.14","WYTON, UK","FM-15","EGUY ","V020","360,1,N,0051,1","22000,1,9,N","011265,1,N,1","+0070,1","+0050,1","99999,9","02,5,+00540,1,99,9",,,,"02,99,1,99,9,99,9,99999,9,99,9,99,9","10091,1,99999,9",,,,,"MET055METAR EGUY 071150Z 36010KT 9999 FEW018 07/05 Q1009 BLU;",
"03566099999","2010-11-07T12:50:00","4","52.357167","-0.107833","41.14","WYTON, UK","FM-15","EGUY ","V020","360,1,N,0041,1","22000,1,9,N","011265,1,N,1","+0090,1","+0050,1","99999,9","02,5,+00540,1,99,9",,,,"02,99,1,99,9,99,9,99999,9,99,9,99,9","10081,1,99999,9",,,,,"MET055METAR EGUY 071250Z 36008KT 9999 FEW018 09/05 Q1008 BLU;",
"03566099999","2010-11-07T13:50:00","4","52.357167","-0.107833","41.14","WYTON, UK","FM-15","EGUY ","V020","030,1,N,0036,1","22000,1,9,N","011265,1,N,1","+0090,1","+0030,1","99999,9","02,5,+00720,1,99,9",,,,"02,99,1,99,9,99,9,99999,9,99,9,99,9","10071,1,99999,9",,,,,"MET055METAR EGUY 071350Z 03007KT 9999 FEW024 09/03 Q1007 BLU;",
"03566099999","2010-11-07T14:50:00","4","52.357167","-0.107833","41.14","WYTON, UK","FM-15","EGUY ","V020","020,1,N,0031,1","22000,1,9,N","011265,1,N,1","+0080,1","+0030,1","99999,9","02,5,+00720,1,99,9",,,,"02,99,1,99,9,99,9,99999,9,99,9,99,9","10061,1,99999,9",,,,,"MET055METAR EGUY 071450Z 02006KT 9999 FEW024 08/03 Q1006 BLU;",
"03566099999","2010-11-07T15:50:00","4","52.357167","-0.107833","41.14","WYTON, UK","FM-15","EGUY ","V020","040,1,N,0031,1","22000,1,9,N","011265,1,N,1","+0060,1","+0020,1","99999,9","02,5,+00900,1,99,9",,,,"02,99,1,99,9,99,9,99999,9,99,9,99,9","10061,1,99999,9",,,,,"MET055METAR EGUY 071550Z 04006KT 9999 FEW030 06/02 Q1006 BLU;",
"03566099999","2010-11-08T07:50:00","4","52.357167","-0.107833","41.14","WYTON, UK","FM-15","EGUY ","V020","130,1,N,0077,1","00600,1,C,N","011265,1,N,1","+0060,1","+0040,1","99999,9","07,5,+00600,1,99,9",,,,"07,99,1,99,9,99,9,99999,9,99,9,99,9","09749,1,99999,9","80,1",,,"0129,1","MET064METAR EGUY 080750Z 13015G25KT 9999 -SHRA BKN020 06/04 Q0975 WHT;",
"03566099999","2010-11-08T09:50:00","4","52.357167","-0.107833","41.14","WYTON, UK","FM-15","EGUY ","V020","130,1,N,0103,1","01200,1,C,N","011265,1,N,1","+0060,1","+0030,1","99999,9","04,5,+00480,1,99,9","07,5,+01200,1,99,9",,,"07,99,1,99,9,99,9,99999,9,99,9,99,9","09719,1,99999,9","63,1",,,"0154,1","MET068METAR EGUY 080950Z 13020G30KT 9999 RA SCT016 BKN040 06/03 Q0972 WHT;",
"03566099999","2010-11-08T10:50:00","4","52.357167","-0.107833","41.14","WYTON, UK","FM-15","EGUY ","V020","120,1,N,0103,1","00540,1,C,N","011265,1,N,1","+0060,1","+0030,1","99999,9","07,5,+00540,1,99,9","08,5,+01200,1,99,9",,,"08,99,1,99,9,99,9,99999,9,99,9,99,9","09709,1,99999,9","61,1",,,"0170,1","MET069METAR EGUY 081050Z 12020G33KT 9999 -RA BKN018 OVC040 06/03 Q0971 WHT;",
"03566099999","2010-11-08T11:50:00","4","52.357167","-0.107833","41.14","WYTON, UK","FM-15","EGUY ","V020","130,1,N,0129,1","00360,1,C,N","011265,1,N,1","+0050,1","+0040,1","99999,9","08,5,+00360,1,99,9",,,,"08,99,1,99,9,99,9,99999,9,99,9,99,9","09699,1,99999,9","61,1",,,,"MET059METAR EGUY 081150Z 13025KT 9999 -RA OVC012 05/04 Q0970 GRN;",
"03566099999","2010-11-08T12:50:00","4","52.357167","-0.107833","41.14","WYTON, UK","FM-15","EGUY ","V020","130,1,N,0108,1","00360,1,C,N","011265,1,N,1","+0050,1","+0030,1","99999,9","08,5,+00360,1,99,9",,,,"08,99,1,99,9,99,9,99999,9,99,9,99,9","09688,1,99999,9",,,,"0159,1","MET058METAR EGUY 081250Z 13021G31KT 9999 OVC012 05/03 Q0969 GRN;",
"03566099999","2010-11-08T13:50:00","4","52.357167","-0.107833","41.14","WYTON, UK","FM-15","EGUY ","V020","120,1,N,0103,1","00300,1,C,N","011265,1,N,1","+0050,1","+0030,1","99999,9","08,5,+00300,1,99,9",,,,"08,99,1,99,9,99,9,99999,9,99,9,99,9","09682,1,99999,9","61,1",,,"0154,1","MET062METAR EGUY 081350Z 12020G30KT 9999 -RA OVC010 05/03 Q0968 GRN;",
"03566099999","2010-11-09T07:50:00","4","52.357167","-0.107833","41.14","WYTON, UK","FM-15","EGUY ","V020","060,1,N,0087,1","07500,1,C,N","011265,1,N,1","+0060,1","+0050,1","99999,9","04,5,+00750,1,99,9","07,5,+07500,1,99,9",,,"07,99,1,99,9,99,9,99999,9,99,9,99,9","09760,1,99999,9",,,,,"MET062METAR EGUY 090750Z 06017KT 9999 SCT025 BKN250 06/05 Q0976 BLU;",
"03566099999","2010-11-09T08:50:00","4","52.357167","-0.107833","41.14","WYTON, UK","FM-15","EGUY ","V020","050,1,N,0072,1","01050,1,C,N","011265,1,N,1","+0070,1","+0050,1","99999,9","04,5,+00540,1,99,9","04,5,+01050,1,99,9","07,5,+07500,1,99,9",,"07,99,1,99,9,99,9,99999,9,99,9,99,9","09770,1,99999,9",,,,,"MET069METAR EGUY 090850Z 05014KT 9999 SCT018 SCT035 BKN250 07/05 Q0977 WHT;",
"03566099999","2010-11-09T09:50:00","4","52.357167","-0.107833","41.14","WYTON, UK","FM-15","EGUY ","V020","050,1,N,0098,1","00300,1,C,N","011265,1,N,1","+0070,1","+0050,1","99999,9","02,5,+00180,1,99,9","04,5,+00300,1,99,9","07,5,+00480,1,99,9",,"07,99,1,99,9,99,9,99999,9,99,9,99,9","09780,1,99999,9",,,,,"MET069METAR EGUY 090950Z 05019KT 9999 FEW006 SCT010 BKN016 07/05 Q0978 GRN;",
"03566099999","2010-11-09T10:50:00","4","52.357167","-0.107833","41.14","WYTON, UK","FM-15","EGUY ","V020","050,1,N,0072,1","00480,1,C,N","011265,1,N,1","+0080,1","+0050,1","99999,9","04,5,+00360,1,99,9","07,5,+00480,1,99,9",,,"07,99,1,99,9,99,9,99999,9,99,9,99,9","09790,1,99999,9",,,,"0139,1","MET065METAR EGUY 091050Z 05014G27KT 9999 SCT012 BKN016 08/05 Q0979 GRN;",
"03566099999","2010-11-09T11:50:00","4","52.357167","-0.107833","41.14","WYTON, UK","FM-15","EGUY ","V020","060,1,N,0103,1","99999,9,C,N","011265,1,N,1","+0070,1","+0040,1","99999,9","02,5,+00360,1,99,9","04,5,+00480,1,99,9","04,5,+07500,1,99,9",,"04,99,1,99,9,99,9,99999,9,99,9,99,9","09800,1,99999,9",,,,,"MET069METAR EGUY 091150Z 06020KT 9999 FEW012 SCT016 SCT250 07/04 Q0980 WHT;","P01 004803SCOCIG"
"03566099999","2010-11-09T12:50:00","4","52.357167","-0.107833","41.14","WYTON, UK","FM-15","EGUY ","V020","060,1,N,0082,1","00600,1,C,N","011265,1,N,1","+0080,1","+0040,1","99999,9","02,5,+00480,1,99,9","04,5,+00600,1,99,9","07,5,+01200,1,99,9",,"07,99,1,99,9,99,9,99999,9,99,9,99,9","09810,1,99999,9",,,,"0134,1","MET072METAR EGUY 091250Z 06016G26KT 9999 FEW016 SCT020 BKN040 08/04 Q0981 WHT;",
"03566099999","2010-11-09T13:50:00","4","52.357167","-0.107833","41.14","WYTON, UK","FM-15","EGUY ","V020","040,1,N,0103,1","00600,1,C,N","011265,1,N,1","+0070,1","+0040,1","99999,9","02,5,+00480,1,99,9","04,5,+00600,1,99,9","07,5,+01200,1,99,9",,"07,99,1,99,9,99,9,99999,9,99,9,99,9","09810,1,99999,9",,,,,"MET069METAR EGUY 091350Z 04020KT 9999 FEW016 SCT020 BKN040 07/04 Q0981 WHT;",
"03566099999","2010-11-09T14:50:00","4","52.357167","-0.107833","41.14","WYTON, UK","FM-15","EGUY ","V020","040,1,N,0067,1","01500,1,C,N","011265,1,N,1","+0070,1","+0040,1","99999,9","02,5,+00600,1,99,9","04,5,+01500,1,99,9","07,5,+07500,1,99,9",,"07,99,1,99,9,99,9,99999,9,99,9,99,9","09821,1,99999,9",,,,,"MET069METAR EGUY 091450Z 04013KT 9999 FEW020 SCT050 BKN250 07/04 Q0982 BLU;",
"03566099999","2010-11-09T15:50:00","4","52.357167","-0.107833","41.14","WYTON, UK","FM-15","EGUY ","V020","030,1,N,0072,1","00900,1,C,N","011265,1,N,1","+0060,1","+0040,1","99999,9","02,5,+00600,1,99,9","04,5,+00900,1,99,9","07,5,+07500,1,99,9",,"07,99,1,99,9,99,9,99999,9,99,9,99,9","09831,1,99999,9",,,,,"MET069METAR EGUY 091550Z 03014KT 9999 FEW020 SCT030 BKN250 06/04 Q0983 BLU;",
"03566099999","2010-11-10T07:50:00","4","52.357167","-0.107833","41.14","WYTON, UK","FM-15","EGUY ","V020","300,1,N,0067,1","01200,1,C,N","011265,1,N,1","+0030,1","+0000,1","99999,9","07,5,+01200,1,99,9",,,,"07,99,1,99,9,99,9,99999,9,99,9,99,9","09959,1,99999,9",,,,,"MET056METAR EGUY 100750Z 30013KT 9999 BKN040 03/M00 Q0996 BLU;",
"03566099999","2010-11-10T08:50:00","4","52.357167","-0.107833","41.14","WYTON, UK","FM-15","EGUY ","V020","320,1,N,0051,1","01200,1,C,N","011265,1,N,1","+0030,1","+0010,1","99999,9","02,5,+00960,1,99,9","07,5,+01200,1,99,9",,,"07,99,1,99,9,99,9,99999,9,99,9,99,9","09959,1,99999,9",,,,,"MET062METAR EGUY 100850Z 32010KT 9999 FEW032 BKN040 03/01 Q0996 BLU;",
"03566099999","2010-11-10T09:50:00","4","52.357167","-0.107833","41.14","WYTON, UK","FM-15","EGUY ","V020","310,1,N,0067,1","01500,1,C,N","011265,1,N,1","+0040,1","+0000,1","99999,9","02,5,+00900,1,99,9","07,5,+01500,1,99,9",,,"07,99,1,99,9,99,9,99999,9,99,9,99,9","09970,1,99999,9",,,,,"MET062METAR EGUY 100950Z 31013KT 9999 FEW030 BKN050 04/00 Q0997 BLU;",
"03566099999","2010-11-10T10:50:00","4","52.357167","-0.107833","41.14","WYTON, UK","FM-15","EGUY ","V020","320,1,N,0067,1","99999,9,9,Y","009900,1,N,1","+0060,1","+0010,1","99999,9",,,,,,"09980,1,99999,9",,,,,"MET049METAR EGUY 101050Z 32013KT CAVOK 06/01 Q0998 BLU;",
"03566099999","2010-11-10T11:50:00","4","52.357167","-0.107833","41.14","WYTON, UK","FM-15","EGUY ","V020","310,1,N,0077,1","99999,9,9,Y","009900,1,N,1","+0070,1","+0010,1","99999,9",,,,,,"09990,1,99999,9",,,,,"MET049METAR EGUY 101150Z 31015KT CAVOK 07/01 Q0999 BLU;",
"03566099999","2010-11-10T12:50:00","4","52.357167","-0.107833","41.14","WYTON, UK","FM-15","EGUY ","V020","320,1,N,0062,1","99999,9,9,Y","009900,1,N,1","+0070,1","+0010,1","99999,9",,,,,,"09990,1,99999,9",,,,,"MET049METAR EGUY 101250Z 32012KT CAVOK 07/01 Q0999 BLU;",
"03566099999","2010-11-10T13:50:00","4","52.357167","-0.107833","41.14","WYTON, UK","FM-15","EGUY ","V020","310,1,N,0067,1","99999,9,9,Y","009900,1,N,1","+0070,1","+0010,1","99999,9",,,,,,"10000,1,99999,9",,,,,"MET049METAR EGUY 101350Z 31013KT CAVOK 07/01 Q1000 BLU;",
"03566099999","2010-11-10T14:50:00","4","52.357167","-0.107833","41.14","WYTON, UK","FM-15","EGUY ","V020","300,1,N,0046,1","99999,9,9,Y","009900,1,N,1","+0060,1","+0000,1","99999,9",,,,,,"10000,1,99999,9",,,,,"MET049METAR EGUY 101450Z 30009KT CAVOK 06/00 Q1000 BLU;",
"03566099999","2010-11-10T15:50:00","4","52.357167","-0.107833","41.14","WYTON, UK","FM-15","EGUY ","V020","300,1,N,0057,1","99999,9,9,Y","009900,1,N,1","+0060,1","+0000,1","99999,9",,,,,,"10010,1,99999,9",,,,,"MET049METAR EGUY 101550Z 30011KT CAVOK 06/00 Q1001 BLU;",
"03566099999","2010-11-11T07:50:00","4","52.357167","-0.107833","41.14","WYTON, UK","FM-15","EGUY ","V020","170,1,N,0108,1","00300,5,9,N","999999,9,N,1","+0080,1","+0070,1","99999,9","07,5,+00300,5,99,9","07,5,+00600,5,99,9","08,5,+01500,5,99,9",,,"09880,1,99999,9",,,,,"MET067METAR EGUY 110750Z 17021KT RA BKN010 BKN020 OVC050 08/07 Q0988 GRN;",
"03566099999","2010-11-11T08:50:00","4","52.357167","-0.107833","41.14","WYTON, UK","FM-15","EGUY ","V020","190,1,N,0108,1","00420,1,C,N","009000,1,N,1","+0090,1","+0080,1","99999,9","04,5,+00300,1,99,9","07,5,+00420,1,99,9","08,5,+01200,1,99,9",,"08,99,1,99,9,99,9,99999,9,99,9,99,9","09861,1,99999,9","61,1",,,"0159,1","MET072METAR EGUY 110850Z 19021G31KT 9000 -RA SCT010 BKN014 OVC040 09/08 Q0986;",
"03566099999","2010-11-11T09:50:00","4","52.357167","-0.107833","41.14","WYTON, UK","FM-15","EGUY ","V020","190,1,N,0113,1","00360,1,C,N","009000,1,N,1","+0090,1","+0080,1","99999,9","04,5,+00300,1,99,9","08,5,+00360,1,99,9",,,"08,99,1,99,9,99,9,99999,9,99,9,99,9","09841,1,99999,9","61,1",,,"0180,1","MET069METAR EGUY 110950Z 19022G35KT 9000 -RA SCT010 OVC012 09/08 Q0984 GRN;",
"03566099999","2010-11-11T10:50:00","4","52.357167","-0.107833","41.14","WYTON, UK","FM-15","EGUY ","V020","200,1,N,0108,1","00300,1,C,N","008000,1,N,1","+0100,1","+0090,1","99999,9","08,5,+00300,1,99,9",,,,"08,99,1,99,9,99,9,99999,9,99,9,99,9","09831,1,99999,9","61,1",,,"0165,1","MET062METAR EGUY 111050Z 20021G32KT 8000 -RA OVC010 10/09 Q0983 GRN;",
"03566099999","2010-11-11T11:50:00","4","52.357167","-0.107833","41.14","WYTON, UK","FM-15","EGUY ","V020","200,1,N,0098,1","00300,1,C,N","011265,1,N,1","+0120,1","+0110,1","99999,9","07,5,+00300,1,99,9","08,5,+00660,1,99,9",,,"08,99,1,99,9,99,9,99999,9,99,9,99,9","09810,1,99999,9",,,,,"MET062METAR EGUY 111150Z 20019KT 9999 BKN010 OVC022 12/11 Q0981 GRN;",
"03566099999","2010-11-12T07:50:00","4","52.357167","-0.107833","41.14","WYTON, UK","FM-15","EGUY ","V020","250,1,N,0123,1","99999,9,9,Y","009900,1,N,1","+0100,1","+0030,1","99999,9",,,,,,"09898,1,99999,9",,,,,"MET049METAR EGUY 120750Z 25024KT CAVOK 10/03 Q0990 BLU;",
"03566099999","2010-11-12T08:50:00","4","52.357167","-0.107833","41.14","WYTON, UK","FM-15","EGUY ","V020","230,1,N,0087,1","99999,9,9,Y","009900,1,N,1","+0100,1","+0040,1","99999,9",,,,,,"09909,1,99999,9",,,,,"MET049METAR EGUY 120850Z 23017KT CAVOK 10/04 Q0991 BLU;",
"03566099999","2010-11-12T09:50:00","4","52.357167","-0.107833","41.14","WYTON, UK","FM-15","EGUY ","V020","240,1,N,0108,1","99999,9,9,Y","009900,1,N,1","+0110,1","+0040,1","99999,9",,,,,,"09909,1,99999,9",,,,"0175,1","MET052METAR EGUY 120950Z 24021G34KT CAVOK 11/04 Q0991 BLU;",
"03566099999","2010-11-12T10:50:00","4","52.357167","-0.107833","41.14","WYTON, UK","FM-15","EGUY ","V020","240,1,N,0098,1","22000,1,9,N","011265,1,N,1","+0120,1","+0040,1","99999,9","02,5,+00750,1,99,9",,,,"02,99,1,99,9,99,9,99999,9,99,9,99,9","99999,9,99999,9",,,,"0149,1","MET058METAR EGUY 121050Z 24019G29KT 9999 FEW025 12/04 Q0980 BLU;","Q01+098003APOA  Q02 098003APOA  "
"03566099999","2010-11-12T11:50:00","4","52.357167","-0.107833","41.14","WYTON, UK","FM-15","EGUY ","V020","240,1,N,0093,1","22000,1,9,N","011265,1,N,1","+0120,1","+0050,1","99999,9","04,5,+00750,1,99,9",,,,"04,99,1,99,9,99,9,99999,9,99,9,99,9","09919,1,99999,9",,,,"0144,1","MET058METAR EGUY 121150Z 24018G28KT 9999 SCT025 12/05 Q0992 BLU;",
"03566099999","2010-11-12T12:50:00","4","52.357167","-0.107833","41.14","WYTON, UK","FM-15","EGUY ","V020","240,1,N,0093,1","07200,1,C,N","011265,1,N,1","+0120,1","+0040,1","99999,9","02,5,+00720,1,99,9","07,5,+07200,1,99,9",,,"07,99,1,99,9,99,9,99999,9,99,9,99,9","09919,1,99999,9",,,,,"MET062METAR EGUY 121250Z 24018KT 9999 FEW024 BKN240 12/04 Q0992 BLU;",
"03566099999","2010-11-12T13:50:00","4","52.357167","-0.107833","41.14","WYTON, UK","FM-15","EGUY ","V020","240,1,N,0087,1","05700,1,C,N","011265,1,N,1","+0120,1","+0050,1","99999,9","02,5,+00720,1,99,9","07,5,+05700,1,99,9",,,"07,99,1,99,9,99,9,99999,9,99,9,99,9","09909,1,99999,9",,,,,"MET062METAR EGUY 121350Z 24017KT 9999 FEW024 BKN190 12/05 Q0991 BLU;",
"03566099999","2010-11-12T14:50:00","4","52.357167","-0.107833","41.14","WYTON, UK","FM-15","EGUY ","V020","230,1,N,0087,1","05700,1,C,N","011265,1,N,1","+0110,1","+0060,1","99999,9","02,5,+00720,1,99,9","07,5,+05700,1,99,9",,,"07,99,1,99,9,99,9,99999,9,99,9,99,9","09909,1,99999,9",,,,,"MET062METAR EGUY 121450Z 23017KT 9999 FEW024 BKN190 11/06 Q0991 BLU;",
"03566099999","2010-11-12T15:50:00","4","52.357167","-0.107833","41.14","WYTON, UK","FM-15","EGUY ","V020","220,1,N,0067,1","05700,1,C,N","011265,1,N,1","+0100,1","+0080,1","99999,9","04,5,+00900,1,99,9","07,5,+05700,1,99,9",,,"07,99,1,99,9,99,9,99999,9,99,9,99,9","09909,1,99999,9",,,,,"MET062METAR EGUY 121550Z 22013KT 9999 SCT030 BKN190 10/08 Q0991 BLU;",
"03566099999","2010-11-13T08:50:00","4","52.357167","-0.107833","41.14","WYTON, UK","FM-15","EGUY ","V020","230,1,N,0057,1","99999,9,9,Y","009900,1,N,1","+0080,1","+0060,1","99999,9",,,,,,"09929,1,99999,9",,,,,"MET049METAR EGUY 130850Z 23011KT CAVOK 08/06 Q0993 BLU;",
"03566099999","2010-11-13T09:50:00","4","52.357167","-0.107833","41.14","WYTON, UK","FM-15","EGUY ","V020","230,1,N,0051,1","99999,9,9,Y","009900,1,N,1","+0080,1","+0060,1","99999,9",,,,,,"09929,1,99999,9",,,,,"MET049METAR EGUY 130950Z 23010KT CAVOK 08/06 Q0993 BLU;",
"03566099999","2010-11-13T10:50:00","4","52.357167","-0.107833","41.14","WYTON, UK","FM-15","EGUY ","V020","230,1,N,0057,1","99999,9,9,Y","009900,1,N,1","+0090,1","+0050,1","99999,9",,,,,,"09939,1,99999,9",,,,,"MET049METAR EGUY 131050Z 23011KT CAVOK 09/05 Q0994 BLU;",
"03566099999","2010-11-13T11:50:00","4","52.357167","-0.107833","41.14","WYTON, UK","FM-15","EGUY ","V020","230,1,N,0057,1","99999,9,9,Y","009900,1,N,1","+0090,1","+0050,1","99999,9",,,,,,"09929,1,99999,9",,,,,"MET049METAR EGUY 131150Z 23011KT CAVOK 09/05 Q0993 BLU;",
"03566099999","2010-11-13T12:50:00","4","52.357167","-0.107833","41.14","WYTON, UK","FM-15","EGUY ","V020","230,1,N,0051,1","99999,9,9,Y","009900,1,N,1","+0090,1","+0050,1","99999,9",,,,,,"09929,1,99999,9",,,,,"MET049METAR EGUY 131250Z 23010KT CAVOK 09/05 Q0993 BLU;",
"03566099999","2010-11-13T13:50:00","4","52.357167","-0.107833","41.14","WYTON, UK","FM-15","EGUY ","V020","220,1,N,0026,1","99999,9,9,Y","009900,1,N,1","+0090,1","+0060,1","99999,9",,,,,,"09929,1,99999,9",,,,,"MET049METAR EGUY 131350Z 22005KT CAVOK 09/06 Q0993 BLU;",
"03566099999","2010-11-13T14:50:00","4","52.357167","-0.107833","41.14","WYTON, UK","FM-15","EGUY ","V020","190,1,N,0026,1","99999,9,9,Y","009900,1,N,1","+0080,1","+0060,1","99999,9",,,,,,"09929,1,99999,9",,,,,"MET049METAR EGUY 131450Z 19005KT CAVOK 08/06 Q0993 BLU;",
"03566099999","2010-11-14T08:50:00","4","52.357167","-0.107833","41.14","WYTON, UK","FM-15","EGUY ","V020","270,1,N,0021,1","99999,9,C,N","011265,1,N,1","+0060,1","+0050,1","99999,9","04,5,+00900,1,99,9","04,5,+04500,1,99,9",,,"04,99,1,99,9,99,9,99999,9,99,9,99,9","09929,1,99999,9",,,,,"MET062METAR EGUY 140850Z 27004KT 9999 SCT030 SCT150 06/05 Q0993 BLU;","P01 045003SCOCIG"
"03566099999","2010-11-14T09:50:00","4","52.357167","-0.107833","41.14","WYTON, UK","FM-15","EGUY ","V020","270,1,N,0026,1","99999,9,C,N","011265,1,N,1","+0080,1","+0060,1","99999,9","02,5,+00900,1,99,9","04,5,+04500,1,99,9",,,"04,99,1,99,9,99,9,99999,9,99,9,99,9","09929,1,99999,9",,,,,"MET062METAR EGUY 140950Z 27005KT 9999 FEW030 SCT150 08/06 Q0993 BLU;","P01 045003SCOCIG"
"03566099999","2010-11-14T10:50:00","4","52.357167","-0.107833","41.14","WYTON, UK","FM-15","EGUY ","V020","280,1,N,0021,1","01050,1,C,N","011265,1,N,1","+0070,1","+0060,1","99999,9","07,5,+01050,1,99,9",,,,"07,99,1,99,9,99,9,99999,9,99,9,99,9","09929,1,99999,9",,,,,"MET055METAR EGUY 141050Z 28004KT 9999 BKN035 07/06 Q0993 BLU;",
"03566099999","2010-11-14T11:50:00","4","52.357167","-0.107833","41.14","WYTON, UK","FM-15","EGUY ","V020","260,1,N,0015,1","01050,1,C,N","011265,1,N,1","+0070,1","+0050,1","99999,9","02,5,+00750,1,99,9","07,5,+01050,1,99,9",,,"07,99,1,99,9,99,9,99999,9,99,9,99,9","09939,1,99999,9",,,,,"MET062METAR EGUY 141150Z 26003KT 9999 FEW025 BKN035 07/05 Q0994 BLU;",
"03566099999","2010-11-14T12:50:00","4","52.357167","-0.107833","41.14","WYTON, UK","FM-15","EGUY ","V020","240,1,N,0015,1","00900,1,C,N","011265,1,N,1","+0070,1","+0060,1","99999,9","02,5,+00300,1,99,9","07,5,+00900,1,99,9",,,"07,99,1,99,9,99,9,99999,9,99,9,99,9","09939,1,99999,9",,,,,"MET062METAR EGUY 141250Z 24003KT 9999 FEW010 BKN030 07/06 Q0994 BLU;",
"03566099999","2010-11-14T13:50:00","4","52.357167","-0.107833","41.14","WYTON, UK","FM-15","EGUY ","V020","270,1,N,0041,1","00450,1,C,N","011265,1,N,1","+0070,1","+0050,1","99999,9","02,5,+00300,1,99,9","04,5,+00450,1,99,9","07,5,+00900,1,99,9",,"07,99,1,99,9,99,9,99999,9,99,9,99,9","09949,1,99999,9",,,,,"MET069METAR EGUY 141350Z 27008KT 9999 FEW010 SCT015 BKN030 07/05 Q0995 WHT;",
"03566099999","2010-11-14T14:50:00","4","52.357167","-0.107833","41.14","WYTON, UK","FM-15","EGUY ","V020","230,1,N,0021,1","00900,1,C,N","011265,1,N,1","+0070,1","+0060,1","99999,9","04,5,+00600,1,99,9","07,5,+00900,1,99,9",,,"07,99,1,99,9,99,9,99999,9,99,9,99,9","09949,1,99999,9",,,,,"MET062METAR EGUY 141450Z 23004KT 9999 SCT020 BKN030 07/06 Q0995 WHT;",
"03566099999","2010-11-15T07:50:00","4","52.357167","-0.107833","41.14","WYTON, UK","FM-15","EGUY ","V020","240,1,N,0031,1","99999,9,9,Y","009900,1,N,1","+0000,1","-0010,1","99999,9",,,,,,"10119,1,99999,9",,,,,"MET051METAR EGUY 150750Z 24006KT CAVOK M00/M01 Q1012 WHT;",
"03566099999","2010-11-15T08:50:00","4","52.357167","-0.107833","41.14","WYTON, UK","FM-15","EGUY ","V020","240,1,N,0021,1","22000,1,9,N","007000,1,N,1","+0000,1","+0000,1","99999,9","02,5,+03600,1,99,9",,,,"02,99,1,99,9,99,9,99999,9,99,9,99,9","10129,1,99999,9",,,,,"MET055METAR EGUY 150850Z 24004KT 7000 FEW120 00/00 Q1013 WHT;",
"03566099999","2010-11-15T09:50:00","4","52.357167","-0.107833","41.14","WYTON, UK","FM-15","EGUY ","V020","230,1,N,0015,1","22000,1,9,N","007000,1,N,1","+0020,1","+0020,1","99999,9","02,5,+03600,1,99,9",,,,"02,99,1,99,9,99,9,99999,9,99,9,99,9","10129,1,99999,9",,,,,"MET055METAR EGUY 150950Z 23003KT 7000 FEW120 02/02 Q1013 WHT;",
"03566099999","2010-11-15T10:50:00","4","52.357167","-0.107833","41.14","WYTON, UK","FM-15","EGUY ","V020","300,1,N,0005,1","99999,9,9,Y","009900,1,N,1","+0050,1","+0040,1","99999,9",,,,,,"10139,1,99999,9",,,,,"MET049METAR EGUY 151050Z 30001KT CAVOK 05/04 Q1014 BLU;",
"03566099999","2010-11-15T11:50:00","4","52.357167","-0.107833","41.14","WYTON, UK","FM-15","EGUY ","V020","220,1,N,0005,1","99999,9,9,Y","009900,1,N,1","+0080,1","+0040,1","99999,9",,,,,,"10139,1,99999,9",,,,,"MET049METAR EGUY 151150Z 22001KT CAVOK 08/04 Q1014 BLU;",
"03566099999","2010-11-15T12:50:00","4","52.357167","-0.107833","41.14","WYTON, UK","FM-15","EGUY ","V020","190,1,N,0010,1","99999,9,9,Y","009900,1,N,1","+0080,1","+0040,1","99999,9",,,,,,"10139,1,99999,9",,,,,"MET049METAR EGUY 151250Z 19002KT CAVOK 08/04 Q1014 BLU;",
"03566099999","2010-11-15T13:50:00","4","52.357167","-0.107833","41.14","WYTON, UK","FM-15","EGUY ","V020","230,1,N,0015,1","99999,9,9,Y","009900,1,N,1","+0070,1","+0030,1","99999,9",,,,,,"10149,1,99999,9",,,,,"MET049METAR EGUY 151350Z 23003KT CAVOK 07/03 Q1015 BLU;",
"03566099999","2010-11-15T14:50:00","4","52.357167","-0.107833","41.14","WYTON, UK","FM-15","EGUY ","V020","180,1,N,0010,1","99999,9,9,Y","009900,1,N,1","+0080,1","+0040,1","99999,9",,,,,,"10149,1,99999,9",,,,,"MET049METAR EGUY 151450Z 18002KT CAVOK 08/04 Q1015 BLU;",
"03566099999","2010-11-16T08:50:00","4","52.357167","-0.107833","41.14","WYTON, UK","FM-15","EGUY ","V020","240,1,N,0046,1","22000,1,9,N","002000,1,N,1","+0010,1","+0010,1","99999,9","02,5,+01800,1,99,9",,,,"02,99,1,99,9,99,9,99999,9,99,9,99,9","10220,1,99999,9","10,1",,,,"MET059METAR EGUY 160850Z 24009KT 2000 BR FEW060 01/01 Q1022 YLO2;",
"03566099999","2010-11-16T09:50:00","4","52.357167","-0.107833","41.14","WYTON, UK","FM-15","EGUY ","V020","230,1,N,0031,1","22000,1,9,N","000900,1,N,1","+0020,1","+0020,1","99999,9","02,5,+00030,1,99,9",,,,"02,99,1,99,9,99,9,99999,9,99,9,99,9","10220,1,99999,9","44,1",,,,"MET058METAR EGUY 160950Z 23006KT 0900 FG FEW001 02/02 Q1022 AMB;",
"03566099999","2010-11-16T10:50:00","4","52.357167","-0.107833","41.14","WYTON, UK","FM-15","EGUY ","V020","230,1,N,0026,1","22000,1,9,N","000500,1,N,1","+0020,1","+0020,1","99999,9","04,5,+00030,1,99,9",,,,"04,99,1,99,9,99,9,99999,9,99,9,99,9","10220,1,99999,9","44,1",,,,"MET058METAR EGUY 161050Z 23005KT 0500 FG SCT001 02/02 Q1022 RED;",
"03566099999","2010-11-16T11:50:00","4","52.357167","-0.107833","41.14","WYTON, UK","FM-15","EGUY ","V020","240,1,N,0015,1","22000,1,9,N","001000,1,N,1","+0060,1","+0040,1","99999,9","02,5,+00030,1,99,9",,,,"02,99,1,99,9,99,9,99999,9,99,9,99,9","10210,1,99999,9","10,1",,,,"MET058METAR EGUY 161150Z 24003KT 1000 BR FEW001 06/04 Q1021 AMB;",
"03566099999","2010-11-16T12:50:00","4","52.357167","-0.107833","41.14","WYTON, UK","FM-15","EGUY ","V020","180,1,N,0010,1","22000,1,9,N","003500,1,N,1","+0070,1","+0050,1","99999,9","02,5,+01500,1,99,9",,,,"02,99,1,99,9,99,9,99999,9,99,9,99,9","10210,1,99999,9","05,1",,,,"MET059METAR EGUY 161250Z 18002KT 3500 HZ FEW050 07/05 Q1021 YLO1;",
"03566099999","2010-11-16T13:50:00","4","52.357167","-0.107833","41.14","WYTON, UK","FM-15","EGUY ","V020","190,1,N,0015,1","22000,1,9,N","009000,1,N,1","+0080,1","+0050,1","99999,9","02,5,+00540,1,99,9",,,,"02,99,1,99,9,99,9,99999,9,99,9,99,9","10210,1,99999,9","05,1",,,,"MET059METAR EGUY 161350Z 19003KT 9000 HZ FEW018 08/05 Q1021 BLU1;",
"03566099999","2010-11-16T14:50:00","4","52.357167","-0.107833","41.14","WYTON, UK","FM-15","EGUY ","V020","140,1,N,0010,1","22000,1,9,N","009000,1,N,1","+0080,1","+0050,1","99999,9","02,5,+00540,1,99,9",,,,"02,99,1,99,9,99,9,99999,9,99,9,99,9","10200,1,99999,9","05,1",,,,"MET058METAR EGUY 161450Z 14002KT 9000 HZ FEW018 08/05 Q1020 BLU;",
"03566099999","2010-11-17T07:50:00","4","52.357167","-0.107833","41.14","WYTON, UK","FM-15","EGUY ","V020","130,1,N,0072,1","00270,1,C,N","007000,1,N,1","+0060,1","+0040,1","99999,9","07,5,+00270,1,99,9",,,,"07,99,1,99,9,99,9,99999,9,99,9,99,9","10091,1,99999,9","05,1",,,"0123,1","MET061METAR EGUY 170750Z 13014G24KT 7000 HZ BKN009 06/04 Q1009 GRN;",
"03566099999","2010-11-17T08:50:00","4","52.357167","-0.107833","41.14","WYTON, UK","FM-15","EGUY ","V020","130,1,N,0067,1","00540,1,C,N","008000,1,N,1","+0050,1","+0040,1","99999,9","04,5,+00270,1,99,9","08,5,+00540,1,99,9",,,"08,99,1,99,9,99,9,99999,9,99,9,99,9","10091,1,99999,9","05,1",,,"0118,1","MET068METAR EGUY 170850Z 13013G23KT 8000 HZ SCT009 OVC018 05/04 Q1009 GRN;",
"03566099999","2010-11-17T09:50:00","4","52.357167","-0.107833","41.14","WYTON, UK","FM-15","EGUY ","V020","130,1,N,0072,1","04200,1,C,N","008000,1,N,1","+0060,1","+0030,1","99999,9","02,5,+00450,1,99,9","07,5,+04200,1,99,9",,,"07,99,1,99,9,99,9,99999,9,99,9,99,9","10091,1,99999,9","05,1",,,"0123,1","MET068METAR EGUY 170950Z 13014G24KT 8000 HZ FEW015 BKN140 06/03 Q1009 BLU;",
"03566099999","2010-11-17T10:50:00","4","52.357167","-0.107833","41.14","WYTON, UK","FM-15","EGUY ","V020","130,1,N,0082,1","04500,1,C,N","011265,1,N,1","+0060,1","+0030,1","99999,9","04,5,+00480,1,99,9","08,5,+04500,1,99,9",,,"08,99,1,99,9,99,9,99999,9,99,9,99,9","10081,1,99999,9",,,,"0134,1","MET065METAR EGUY 171050Z 13016G26KT 9999 SCT016 OVC150 06/03 Q1008 WHT;",
"03566099999","2010-11-17T11:50:00","4","52.357167","-0.107833","41.14","WYTON, UK","FM-15","EGUY ","V020","140,1,N,0067,1","00450,1,C,N","011265,1,N,1","+0060,1","+0040,1","99999,9","02,5,+00390,1,99,9","07,5,+00450,1,99,9","08,5,+04500,1,99,9",,"08,99,1,99,9,99,9,99999,9,99,9,99,9","10081,1,99999,9",,,,"0118,1","MET072METAR EGUY 171150Z 14013G23KT 9999 FEW013 BKN015 OVC150 06/04 Q1008 WHT;",
"03566099999","2010-11-17T12:50:00","4","52.357167","-0.107833","41.14","WYTON, UK","FM-15","EGUY ","V020","130,1,N,0098,1","00450,1,C,N","011265,1,N,1","+0060,1","+0030,1","99999,9","02,5,+00390,1,99,9","04,5,+00450,1,99,9","08,5,+04500,1,99,9",,"08,99,1,99,9,99,9,99999,9,99,9,99,9","10071,1,99999,9",,,,,"MET069METAR EGUY 171250Z 13019KT 9999 FEW013 SCT015 OVC150 06/03 Q1007 WHT;",
"03566099999","2010-11-17T13:50:00","4","52.357167","-0.107833","41.14","WYTON, UK","FM-15","EGUY ","V020","130,1,N,0113,1","02100,1,C,N","011265,1,N,1","+0060,1","+0030,1","99999,9","04,5,+00540,1,99,9","07,5,+02100,1,99,9","08,5,+04500,1,99,9",,"08,99,1,99,9,99,9,99999,9,99,9,99,9","10071,1,99999,9",,,,,"MET072METAR EGUY 171350Z 13022G22KT 9999 SCT018 BKN070 OVC150 06/03 Q1007 WHT;",
"03566099999","2010-11-17T14:50:00","4","52.357167","-0.107833","41.14","WYTON, UK","FM-15","EGUY ","V020","140,1,N,0062,1","02100,1,C,N","011265,1,N,1","+0060,1","+0030,1","99999,9","04,5,+00540,1,99,9","07,5,+02100,1,99,9","08,5,+04500,1,99,9",,"08,99,1,99,9,99,9,99999,9,99,9,99,9","10061,1,99999,9",,,,"0113,1","MET072METAR EGUY 171450Z 14012G22KT 9999 SCT018 BKN070 OVC150 06/03 Q1006 WHT;",
"03566099999","2010-11-18T07:50:00","4","52.357167","-0.107833","41.14","WYTON, UK","FM-15","EGUY ","V020","130,1,N,0041,1","02100,1,C,N","005000,1,N,1","+0050,1","+0040,1","99999,9","04,5,+00750,1,99,9","07,5,+02100,1,99,9",,,"07,99,1,99,9,99,9,99999,9,99,9,99,9","10051,1,99999,9","05,1",,,,"MET065METAR EGUY 180750Z 13008KT 5000 HZ SCT025 BKN070 05/04 Q1005 WHT;",
"03566099999","2010-11-18T08:50:00","4","52.357167","-0.107833","41.14","WYTON, UK","FM-15","EGUY ","V020","130,1,N,0051,1","02100,1,C,N","007000,1,N,1","+0050,1","+0040,1","99999,9","04,5,+01050,1,99,9","07,5,+02100,1,99,9",,,"07,99,1,99,9,99,9,99999,9,99,9,99,9","10051,1,99999,9","05,1",,,,"MET065METAR EGUY 180850Z 13010KT 7000 HZ SCT035 BKN070 05/04 Q1005 WHT;",
"03566099999","2010-11-18T09:50:00","4","52.357167","-0.107833","41.14","WYTON, UK","FM-15","EGUY ","V020","140,1,N,0051,1","01800,1,C,N","008000,1,N,1","+0060,1","+0050,1","99999,9","04,5,+00990,1,99,9","07,5,+01800,1,99,9",,,"07,99,1,99,9,99,9,99999,9,99,9,99,9","10051,1,99999,9","05,1",,,,"MET065METAR EGUY 180950Z 14010KT 8000 HZ SCT033 BKN060 06/05 Q1005 BLU;",
"03566099999","2010-11-18T11:50:00","4","52.357167","-0.107833","41.14","WYTON, UK","FM-15","EGUY ","V020","140,1,N,0072,1","00750,1,C,N","011265,1,N,1","+0080,1","+0060,1","99999,9","02,5,+00300,1,99,9","04,5,+00750,1,99,9","07,5,+01800,1,99,9",,"07,99,1,99,9,99,9,99999,9,99,9,99,9","10041,1,99999,9",,,,,"MET069METAR EGUY 181150Z 14014KT 9999 FEW010 SCT025 BKN060 08/06 Q1004 BLU;",
"03566099999","2010-11-18T12:50:00","4","52.357167","-0.107833","41.14","WYTON, UK","FM-15","EGUY ","V020","150,1,N,0062,1","99999,9,C,N","011265,1,N,1","+0090,1","+0070,1","99999,9","02,5,+00300,1,99,9","04,5,+00750,1,99,9",,,"04,99,1,99,9,99,9,99999,9,99,9,99,9","10051,1,99999,9",,,,,"MET062METAR EGUY 181250Z 15012KT 9999 FEW010 SCT025 09/07 Q1005 BLU;","P01 007503SCOCIG"
"03566099999","2010-11-18T13:25:00","4","52.357167","-0.107833","41.14","WYTON, UK","FM-15","EGUY ","V020","150,1,N,0072,1","99999,9,C,N","011265,1,N,1","+0090,1","+0060,1","99999,9","04,5,+00270,1,99,9","04,5,+00750,1,99,9",,,"04,99,1,99,9,99,9,99999,9,99,9,99,9","10041,1,99999,9",,,,,"MET062METAR EGUY 181325Z 15014KT 9999 SCT009 SCT025 09/06 Q1004 GRN;","P01 007503SCOCIG"
"03566099999","2010-11-18T13:50:00","4","52.357167","-0.107833","41.14","WYTON, UK","FM-15","EGUY ","V020","150,1,N,0051,1","00270,1,C,N","011265,1,N,1","+0090,1","+0070,1","99999,9","07,5,+00270,1,99,9","07,5,+00750,1,99,9",,,"07,99,1,99,9,99,9,99999,9,99,9,99,9","10041,1,99999,9",,,,,"MET062METAR EGUY 181350Z 15010KT 9999 BKN009 BKN025 09/07 Q1004 GRN;",
"03566099999","2010-11-18T14:50:00","4","52.357167","-0.107833","41.14","WYTON, UK","FM-15","EGUY ","V020","130,1,N,0046,1","00600,1,C,N","011265,1,N,1","+0080,1","+0070,1","99999,9","02,5,+00300,1,99,9","07,5,+00600,1,99,9",,,"07,99,1,99,9,99,9,99999,9,99,9,99,9","10051,1,99999,9",,,,,"MET062METAR EGUY 181450Z 13009KT 9999 FEW010 BKN020 08/07 Q1005 WHT;",
"03566099999","2010-11-19T07:50:00","4","52.357167","-0.107833","41.14","WYTON, UK","FM-15","EGUY ","V020","170,1,N,0010,1","00015,1,C,N","000200,1,N,1","+0050,1","+0050,1","99999,9","09,1,+00015,1,99,9",,,,"09,99,1,99,9,99,9,00025,1,99,9,99,9","10108,1,99999,9","45,1",,,,"MET057METAR EGUY 190750Z 17002KT 0200 FG VV/// 05/05 Q1011 RED;",
"03566099999","2010-11-19T08:50:00","4","52.357167","-0.107833","41.14","WYTON, UK","FM-15","EGUY ","V020","230,1,N,0015,1","00015,1,C,N","000200,1,N,1","+0040,1","+0040,1","99999,9","09,1,+00015,1,99,9",,,,"09,99,1,99,9,99,9,00025,1,99,9,99,9","10108,1,99999,9","45,1",,,,"MET057METAR EGUY 190850Z 23003KT 0200 FG VV/// 04/04 Q1011 RED;",
"03566099999","2010-11-19T09:50:00","4","52.357167","-0.107833","41.14","WYTON, UK","FM-15","EGUY ","V020","210,1,N,0021,1","00015,1,C,N","000250,1,N,1","+0040,1","+0040,1","99999,9","09,1,+00015,1,99,9",,,,"09,99,1,99,9,99,9,00025,1,99,9,99,9","10119,1,99999,9","45,1",,,,"MET057METAR EGUY 190950Z 21004KT 0250 FG VV/// 04/04 Q1012 RED;",
"03566099999","2010-11-20T08:50:00","4","52.357167","-0.107833","41.14","WYTON, UK","FM-15","EGUY ","V020","010,1,N,0026,1","00015,1,C,N","000400,1,N,1","+0030,1","+0030,1","99999,9","09,1,+00015,1,99,9",,,,"09,99,1,99,9,99,9,00025,1,99,9,99,9","10149,1,99999,9","45,1",,,,"MET057METAR EGUY 200850Z 01005KT 0400 FG VV/// 03/03 Q1015 RED;",
"03566099999","2010-11-20T09:50:00","4","52.357167","-0.107833","41.14","WYTON, UK","FM-15","EGUY ","V020","030,1,N,0021,1","00015,1,C,N","000400,1,N,1","+0040,1","+0040,1","99999,9","09,1,+00015,1,99,9",,,,"09,99,1,99,9,99,9,00025,1,99,9,99,9","10149,1,99999,9",,,,,"MET054METAR EGUY 200950Z 03004KT 0400 VV/// 04/04 Q1015 RED;",
"03566099999","2010-11-21T07:50:00","4","52.357167","-0.107833","41.14","WYTON, UK","FM-15","EGUY ","V020","360,1,N,0051,1","00900,1,C,N","011265,1,N,1","+0050,1","+0050,1","99999,9","07,5,+00900,1,99,9",,,,"07,99,1,99,9,99,9,99999,9,99,9,99,9","10129,1,99999,9",,,,,"MET055METAR EGUY 210750Z 36010KT 9999 BKN030 05/05 Q1013 BLU;",
"03566099999","2010-11-21T08:50:00","4","52.357167","-0.107833","41.14","WYTON, UK","FM-15","EGUY ","V020","360,1,N,0051,1","00900,1,C,N","011265,1,N,1","+0050,1","+0050,1","99999,9","07,5,+00900,1,99,9",,,,"07,99,1,99,9,99,9,99999,9,99,9,99,9","10129,1,99999,9",,,,,"MET055METAR EGUY 210850Z 36010KT 9999 BKN030 05/05 Q1013 BLU;",
"03566099999","2010-11-21T09:50:00","4","52.357167","-0.107833","41.14","WYTON, UK","FM-15","EGUY ","V020","360,1,N,0062,1","00900,1,C,N","011265,1,N,1","+0060,1","+0050,1","99999,9","02,5,+00240,1,99,9","07,5,+00900,1,99,9",,,"07,99,1,99,9,99,9,99999,9,99,9,99,9","10129,1,99999,9",,,,,"MET062METAR EGUY 210950Z 36012KT 9999 FEW008 BKN030 06/05 Q1013 BLU;",
"03566099999","2010-11-21T10:50:00","4","52.357167","-0.107833","41.14","WYTON, UK","FM-15","EGUY ","V020","350,1,N,0062,1","00900,1,C,N","011265,1,N,1","+0060,1","+0040,1","99999,9","02,5,+00300,1,99,9","07,5,+00900,1,99,9",,,"07,99,1,99,9,99,9,99999,9,99,9,99,9","10129,1,99999,9",,,,,"MET062METAR EGUY 211050Z 35012KT 9999 FEW010 BKN030 06/04 Q1013 BLU;",
"03566099999","2010-11-21T13:50:00","4","52.357167","-0.107833","41.14","WYTON, UK","FM-15","EGUY ","V020","350,1,N,0057,1","99999,9,C,N","011265,1,N,1","+0060,1","+0050,1","99999,9","04,5,+00300,1,99,9","04,5,+00900,1,99,9",,,"04,99,1,99,9,99,9,99999,9,99,9,99,9","10119,1,99999,9",,,,,"MET062METAR EGUY 211350Z 35011KT 9999 SCT010 SCT030 06/05 Q1012 GRN;","P01 009003SCOCIG"
"03566099999","2010-11-21T14:50:00","4","52.357167","-0.107833","41.14","WYTON, UK","FM-15","EGUY ","V020","350,1,N,0057,1","00750,1,C,N","011265,1,N,1","+0060,1","+0050,1","99999,9","02,5,+00300,1,99,9","07,5,+00750,1,99,9",,,"07,99,1,99,9,99,9,99999,9,99,9,99,9","10119,1,99999,9",,,,,"MET062METAR EGUY 211450Z 35011KT 9999 FEW010 BKN025 06/05 Q1012 BLU;",
"03566099999","2010-11-21T15:50:00","4","52.357167","-0.107833","41.14","WYTON, UK","FM-15","EGUY ","V020","340,1,N,0051,1","00450,1,C,N","011265,1,N,1","+0060,1","+0050,1","99999,9","02,5,+00210,1,99,9","04,5,+00450,1,99,9","07,5,+03000,1,99,9",,"07,99,1,99,9,99,9,99999,9,99,9,99,9","10119,1,99999,9",,,,,"MET069METAR EGUY 211550Z 34010KT 9999 FEW007 SCT015 BKN100 06/05 Q1012 WHT;",
"03566099999","2010-11-22T07:50:00","4","52.357167","-0.107833","41.14","WYTON, UK","FM-15","EGUY ","V020","360,1,N,0036,1","00750,1,C,N","007000,1,N,1","+0050,1","+0040,1","99999,9","02,5,+00540,1,99,9","04,5,+00750,1,99,9","07,5,+02400,1,99,9",,"07,99,1,99,9,99,9,99999,9,99,9,99,9","10102,1,99999,9","16,1",,,,"MET074METAR EGUY 220750Z 36007KT 7000 VCSH FEW018 SCT025 BKN080 05/04 Q1010 WHT;",
"03566099999","2010-11-22T08:50:00","4","52.357167","-0.107833","41.14","WYTON, UK","FM-15","EGUY ","V020","350,1,N,0046,1","01500,1,C,N","011265,1,N,1","+0050,1","+0040,1","99999,9","02,5,+00750,1,99,9","07,5,+01500,1,99,9",,,"07,99,1,99,9,99,9,99999,9,99,9,99,9","10102,1,99999,9",,,,,"MET062METAR EGUY 220850Z 35009KT 9999 FEW025 BKN050 05/04 Q1010 BLU;",
"03566099999","2010-11-22T09:50:00","4","52.357167","-0.107833","41.14","WYTON, UK","FM-15","EGUY ","V020","350,1,N,0041,1","01050,1,C,N","011265,1,N,1","+0050,1","+0050,1","99999,9","02,5,+00540,1,99,9","04,5,+01050,1,99,9","07,5,+02100,1,99,9",,"07,99,1,99,9,99,9,99999,9,99,9,99,9","10102,1,99999,9",,,,,"MET069METAR EGUY 220950Z 35008KT 9999 FEW018 SCT035 BKN070 05/05 Q1010 BLU;",
"03566099999","2010-11-22T10:50:00","4","52.357167","-0.107833","41.14","WYTON, UK","FM-15","EGUY ","V020","360,1,N,0041,1","01050,1,C,N","011265,1,N,1","+0060,1","+0050,1","99999,9","02,5,+00450,1,99,9","04,5,+01050,1,99,9","07,5,+02100,1,99,9",,"07,99,1,99,9,99,9,99999,9,99,9,99,9","10102,1,99999,9",,,,,"MET069METAR EGUY 221050Z 36008KT 9999 FEW015 SCT035 BKN070 06/05 Q1010 BLU;",
"03566099999","2010-11-22T11:50:00","4","52.357167","-0.107833","41.14","WYTON, UK","FM-15","EGUY ","V020","010,1,N,0036,1","01200,1,C,N","011265,1,N,1","+0070,1","+0060,1","99999,9","02,5,+00450,1,99,9","04,5,+01200,1,99,9","07,5,+01800,1,99,9",,"07,99,1,99,9,99,9,99999,9,99,9,99,9","10102,1,99999,9",,,,,"MET069METAR EGUY 221150Z 01007KT 9999 FEW015 SCT040 BKN060 07/06 Q1010 BLU;",
"03566099999","2010-11-22T12:50:00","4","52.357167","-0.107833","41.14","WYTON, UK","FM-15","EGUY ","V020","010,1,N,0046,1","00900,1,C,N","011265,1,N,1","+0070,1","+0050,1","99999,9","02,5,+00480,1,99,9","04,5,+00900,1,99,9","07,5,+02100,1,99,9",,"07,99,1,99,9,99,9,99999,9,99,9,99,9","10102,1,99999,9",,,,,"MET076METAR EGUY 221250Z 01009KT 9999 FEW016 SCT030 BKN070 07/05 Q1010 RESHRA BLU;",
"03566099999","2010-11-22T13:50:00","4","52.357167","-0.107833","41.14","WYTON, UK","FM-15","EGUY ","V020","010,1,N,0062,1","00540,1,C,N","011265,1,N,1","+0070,1","+0050,1","99999,9","07,5,+00540,1,99,9","07,5,+02100,1,99,9",,,"07,99,1,99,9,99,9,99999,9,99,9,99,9","10102,1,99999,9","16,1",,,,"MET067METAR EGUY 221350Z 01012KT 9999 VCSH BKN018 BKN070 07/05 Q1010 WHT;",
"03566099999","2010-11-22T14:50:00","4","52.357167","-0.107833","41.14","WYTON, UK","FM-15","EGUY ","V020","350,1,N,0036,1","00540,1,C,N","011265,1,N,1","+0060,1","+0060,1","99999,9","07,5,+00540,1,99,9","07,5,+02100,1,99,9",,,"07,99,1,99,9,99,9,99999,9,99,9,99,9","10102,1,99999,9",,,,,"MET062METAR EGUY 221450Z 35007KT 9999 BKN018 BKN070 06/06 Q1010 WHT;",
"03566099999","2010-11-23T07:50:00","4","52.357167","-0.107833","41.14","WYTON, UK","FM-15","EGUY ","V020","310,1,N,0046,1","01200,1,C,N","011265,1,N,1","+0050,1","+0040,1","99999,9","07,5,+01200,1,99,9",,,,"07,99,1,99,9,99,9,99999,9,99,9,99,9","10119,1,99999,9",,,,,"MET055METAR EGUY 230750Z 31009KT 9999 BKN040 05/04 Q1012 BLU;",
"03566099999","2010-11-23T08:50:00","4","52.357167","-0.107833","41.14","WYTON, UK","FM-15","EGUY ","V020","320,1,N,0051,1","99999,9,C,N","011265,1,N,1","+0050,1","+0040,1","99999,9","02,5,+01200,1,99,9","04,5,+03600,1,99,9",,,"04,99,1,99,9,99,9,99999,9,99,9,99,9","10108,1,99999,9",,,,,"MET062METAR EGUY 230850Z 32010KT 9999 FEW040 SCT120 05/04 Q1011 BLU;","P01 036003SCOCIG"
"03566099999","2010-11-23T09:50:00","4","52.357167","-0.107833","41.14","WYTON, UK","FM-15","EGUY ","V020","330,1,N,0067,1","99999,9,C,N","011265,1,N,1","+0060,1","+0040,1","99999,9","02,5,+01200,1,99,9","04,5,+03600,1,99,9",,,"04,99,1,99,9,99,9,99999,9,99,9,99,9","10108,1,99999,9",,,,,"MET062METAR EGUY 230950Z 33013KT 9999 FEW040 SCT120 06/04 Q1011 BLU;","P01 036003SCOCIG"
"03566099999","2010-11-23T10:50:00","4","52.357167","-0.107833","41.14","WYTON, UK","FM-15","EGUY ","V020","320,1,N,0072,1","00360,1,C,N","011265,1,N,1","+0060,1","+0040,1","99999,9","07,5,+00360,1,99,9",,,,"07,99,1,99,9,99,9,99999,9,99,9,99,9","10119,1,99999,9",,,,,"MET055METAR EGUY 231050Z 32014KT 9999 BKN012 06/04 Q1012 GRN;",
"03566099999","2010-11-23T11:50:00","4","52.357167","-0.107833","41.14","WYTON, UK","FM-15","EGUY ","V020","330,1,N,0077,1","00480,1,C,N","011265,1,N,1","+0060,1","+0040,1","99999,9","07,5,+00480,1,99,9",,,,"07,99,1,99,9,99,9,99999,9,99,9,99,9","10108,1,99999,9",,,,,"MET055METAR EGUY 231150Z 33015KT 9999 BKN016 06/04 Q1011 WHT;",
"03566099999","2010-11-23T12:50:00","4","52.357167","-0.107833","41.14","WYTON, UK","FM-15","EGUY ","V020","320,1,N,0067,1","00450,1,C,N","011265,1,N,1","+0060,1","+0040,1","99999,9","07,5,+00450,1,99,9",,,,"07,99,1,99,9,99,9,99999,9,99,9,99,9","10108,1,99999,9",,,,,"MET055METAR EGUY 231250Z 32013KT 9999 BKN015 06/04 Q1011 WHT;",
"03566099999","2010-11-23T13:50:00","4","52.357167","-0.107833","41.14","WYTON, UK","FM-15","EGUY ","V020","320,1,N,0072,1","00510,1,C,N","011265,1,N,1","+0060,1","+0030,1","99999,9","02,5,+00360,1,99,9","07,5,+00510,1,99,9",,,"07,99,1,99,9,99,9,99999,9,99,9,99,9","10108,1,99999,9",,,,,"MET062METAR EGUY 231350Z 32014KT 9999 FEW012 BKN017 06/03 Q1011 WHT;",
"03566099999","2010-11-23T14:50:00","4","52.357167","-0.107833","41.14","WYTON, UK","FM-15","EGUY ","V020","330,1,N,0062,1","01050,1,C,N","011265,1,N,1","+0060,1","+0040,1","99999,9","02,5,+00510,1,99,9","07,5,+01050,1,99,9",,,"07,99,1,99,9,99,9,99999,9,99,9,99,9","10108,1,99999,9",,,,,"MET062METAR EGUY 231450Z 33012KT 9999 FEW017 BKN035 06/04 Q1011 BLU;",
"03566099999","2010-11-24T07:50:00","4","52.357167","-0.107833","41.14","WYTON, UK","FM-15","EGUY ","V020","290,1,N,0041,1","99999,9,9,Y","009900,1,N,1","-0010,1","-0020,1","99999,9",,,,,,"10102,1,99999,9",,,,,"MET051METAR EGUY 240750Z 29008KT CAVOK M01/M02 Q1010 BLU;",
"03566099999","2010-11-24T08:50:00","4","52.357167","-0.107833","41.14","WYTON, UK","FM-15","EGUY ","V020","300,1,N,0046,1","99999,9,9,Y","009900,1,N,1","+0000,1","-0010,1","99999,9",,,,,,"10102,1,99999,9",,,,,"MET050METAR EGUY 240850Z 30009KT CAVOK 00/M01 Q1010 BLU;",
"03566099999","2010-11-24T09:50:00","4","52.357167","-0.107833","41.14","WYTON, UK","FM-15","EGUY ","V020","300,1,N,0046,1","07500,5,9,N","999999,9,N,1","+0010,1","-0020,1","99999,9","02,5,+00600,5,99,9","07,5,+07500,5,99,9",,,,"10100,1,99999,9",,,,,"MET058METAR EGUY 240950Z 30009KT FEW020 BKN250 01/M02 Q1010 BLU;",
"03566099999","2010-11-24T10:50:00","4","52.357167","-0.107833","41.14","WYTON, UK","FM-15","EGUY ","V020","300,1,N,0051,1","07500,5,9,N","999999,9,N,1","+0050,1","+0000,1","99999,9","02,5,+00900,5,99,9","07,5,+07500,5,99,9",,,,"10100,1,99999,9",,,,,"MET058METAR EGUY 241050Z 30010KT FEW030 BKN250 05/M00 Q1010 BLU;",
"03566099999","2010-11-24T11:50:00","4","52.357167","-0.107833","41.14","WYTON, UK","FM-15","EGUY ","V020","290,1,N,0041,1","07500,5,9,N","999999,9,N,1","+0030,1","+0000,1","99999,9","02,5,+00900,5,99,9","07,5,+07500,5,99,9",,,,"10100,1,99999,9",,,,,"MET057METAR EGUY 241150Z 29008KT FEW030 BKN250 03/00 Q1010 BLU;",
"03566099999","2010-11-24T12:50:00","4","52.357167","-0.107833","41.14","WYTON, UK","FM-15","EGUY ","V020","300,1,N,0046,1","07500,1,C,N","011265,1,N,1","+0040,1","+0000,1","99999,9","02,5,+00900,1,99,9","07,5,+07500,1,99,9",,,"07,99,1,99,9,99,9,99999,9,99,9,99,9","10091,1,99999,9",,,,,"MET062METAR EGUY 241250Z 30009KT 9999 FEW030 BKN250 04/00 Q1009 BLU;",
"03566099999","2010-11-24T13:50:00","4","52.357167","-0.107833","41.14","WYTON, UK","FM-15","EGUY ","V020","310,1,N,0051,1","00450,1,C,N","011265,1,N,1","+0040,1","+0010,1","99999,9","07,5,+00450,1,99,9",,,,"07,99,1,99,9,99,9,99999,9,99,9,99,9","10091,1,99999,9",,,,,"MET055METAR EGUY 241350Z 31010KT 9999 BKN015 04/01 Q1009 WHT;",
"03566099999","2010-11-24T14:50:00","4","52.357167","-0.107833","41.14","WYTON, UK","FM-15","EGUY ","V020","300,1,N,0046,1","00540,1,C,N","011265,1,N,1","+0040,1","+0010,1","99999,9","02,5,+00450,1,99,9","07,5,+00540,1,99,9",,,"07,99,1,99,9,99,9,99999,9,99,9,99,9","10091,1,99999,9",,,,,"MET062METAR EGUY 241450Z 30009KT 9999 FEW015 BKN018 04/01 Q1009 WHT;",
"03566099999","2010-11-25T07:50:00","4","52.357167","-0.107833","41.14","WYTON, UK","FM-15","EGUY ","V020","320,1,N,0041,1","22000,1,9,N","011265,1,N,1","-0020,1","-0030,1","99999,9","02,5,+00300,1,99,9",,,,"02,99,1,99,9,99,9,99999,9,99,9,99,9","10071,1,99999,9",,,,,"MET057METAR EGUY 250750Z 32008KT 9999 FEW010 M02/M03 Q1007 BLU;",
"03566099999","2010-11-25T08:50:00","4","52.357167","-0.107833","41.14","WYTON, UK","FM-15","EGUY ","V020","320,1,N,0046,1","22000,1,9,N","011265,1,N,1","-0010,1","-0030,1","99999,9","02,5,+00300,1,99,9",,,,"02,99,1,99,9,99,9,99999,9,99,9,99,9","10071,1,99999,9",,,,,"MET057METAR EGUY 250850Z 32009KT 9999 FEW010 M01/M03 Q1007 BLU;",
"03566099999","2010-11-25T09:50:00","4","52.357167","-0.107833","41.14","WYTON, UK","FM-15","EGUY ","V020","320,1,N,0062,1","22000,1,9,N","011265,1,N,1","+0000,1","-0020,1","99999,9","04,5,+00360,1,99,9",,,,"04,99,1,99,9,99,9,99999,9,99,9,99,9","10081,1,99999,9",,,,,"MET056METAR EGUY 250950Z 32012KT 9999 SCT012 00/M02 Q1008 GRN;",
"03566099999","2010-11-25T10:50:00","4","52.357167","-0.107833","41.14","WYTON, UK","FM-15","EGUY ","V020","340,1,N,0062,1","00360,1,C,N","011265,1,N,1","+0010,1","-0010,1","99999,9","07,5,+00360,1,99,9",,,,"07,99,1,99,9,99,9,99999,9,99,9,99,9","10081,1,99999,9",,,,,"MET056METAR EGUY 251050Z 34012KT 9999 BKN012 01/M01 Q1008 GRN;",
"03566099999","2010-11-25T11:50:00","4","52.357167","-0.107833","41.14","WYTON, UK","FM-15","EGUY ","V020","340,1,N,0072,1","00360,1,C,N","011265,1,N,1","+0010,1","+0000,1","99999,9","07,5,+00360,1,99,9",,,,"07,99,1,99,9,99,9,99999,9,99,9,99,9","10081,1,99999,9",,,,,"MET056METAR EGUY 251150Z 34014KT 9999 BKN012 01/M00 Q1008 GRN;",
"03566099999","2010-11-25T12:50:00","4","52.357167","-0.107833","41.14","WYTON, UK","FM-15","EGUY ","V020","350,1,N,0062,1","00570,1,C,N","011265,1,N,1","+0010,1","-0010,1","99999,9","04,5,+00330,1,99,9","07,5,+00570,1,99,9",,,"07,99,1,99,9,99,9,99999,9,99,9,99,9","10081,1,99999,9",,,,,"MET063METAR EGUY 251250Z 35012KT 9999 SCT011 BKN019 01/M01 Q1008 GRN;",
"03566099999","2010-11-25T13:50:00","4","52.357167","-0.107833","41.14","WYTON, UK","FM-15","EGUY ","V020","340,1,N,0072,1","00360,1,C,N","011265,1,N,1","+0010,1","-0010,1","99999,9","07,5,+00360,1,99,9",,,,"07,99,1,99,9,99,9,99999,9,99,9,99,9","10081,1,99999,9",,,,,"MET056METAR EGUY 251350Z 34014KT 9999 BKN012 01/M01 Q1008 GRN;",
"03566099999","2010-11-25T14:50:00","4","52.357167","-0.107833","41.14","WYTON, UK","FM-15","EGUY ","V020","340,1,N,0051,1","00600,1,C,N","011265,1,N,1","+0020,1","+0000,1","99999,9","04,5,+00360,1,99,9","07,5,+00600,1,99,9",,,"07,99,1,99,9,99,9,99999,9,99,9,99,9","10081,1,99999,9",,,,,"MET059METAR EGUY 251450Z 34010KT 9999 SCT012 BKN020 02/M00 Q1008;",
"03566099999","2010-11-26T07:50:00","4","52.357167","-0.107833","41.14","WYTON, UK","FM-15","EGUY ","V020","320,1,N,0051,1","99999,9,9,Y","009900,1,N,1","-0020,1","-0030,1","99999,9",,,,,,"10071,1,99999,9",,,,,"MET051METAR EGUY 260750Z 32010KT CAVOK M02/M03 Q1007 BLU;",
"03566099999","2010-11-26T08:50:00","4","52.357167","-0.107833","41.14","WYTON, UK","FM-15","EGUY ","V020","310,1,N,0041,1","99999,9,9,Y","009900,1,N,1","-0020,1","-0040,1","99999,9",,,,,,"10071,1,99999,9",,,,,"MET051METAR EGUY 260850Z 31008KT CAVOK M02/M04 Q1007 BLU;",
"03566099999","2010-11-26T09:50:00","4","52.357167","-0.107833","41.14","WYTON, UK","FM-15","EGUY ","V020","310,1,N,0031,1","99999,9,9,Y","009900,1,N,1","-0010,1","-0030,1","99999,9",,,,,,"10071,1,99999,9",,,,,"MET051METAR EGUY 260950Z 31006KT CAVOK M01/M03 Q1007 BLU;",
"03566099999","2010-11-26T10:50:00","4","52.357167","-0.107833","41.14","WYTON, UK","FM-15","EGUY ","V020","280,1,N,0041,1","22000,1,9,N","011265,1,N,1","+0000,1","-0020,1","99999,9","02,5,+00300,1,99,9","04,1,+00600,1,99,9",,,"04,99,1,99,9,99,9,99999,9,99,9,99,9","10071,1,99999,9",,,,,"MET062METAR EGUY 261050Z 28008KT 9999 FEW010 SCT20 00/M02 Q1007 BLU;",
"03566099999","2010-11-26T11:50:00","4","52.357167","-0.107833","41.14","WYTON, UK","FM-15","EGUY ","V020","310,1,N,0057,1","99999,9,C,N","011265,1,N,1","+0020,1","-0010,1","99999,9","02,5,+00300,1,99,9","04,5,+04500,1,99,9",,,"04,99,1,99,9,99,9,99999,9,99,9,99,9","10061,1,99999,9",,,,,"MET063METAR EGUY 261150Z 31011KT 9999 FEW010 SCT150 02/M01 Q1006 BLU;","P01 045003SCOCIG"
"03566099999","2010-11-26T12:50:00","4","52.357167","-0.107833","41.14","WYTON, UK","FM-15","EGUY ","V020","310,1,N,0051,1","22000,1,9,N","011265,1,N,1","+0020,1","-0020,1","99999,9","02,5,+00300,1,99,9",,,,"02,99,1,99,9,99,9,99999,9,99,9,99,9","10061,1,99999,9",,,,,"MET056METAR EGUY 261250Z 31010KT 9999 FEW010 02/M02 Q1006 BLU;",
"03566099999","2010-11-26T13:50:00","4","52.357167","-0.107833","41.14","WYTON, UK","FM-15","EGUY ","V020","330,1,N,0046,1","22000,1,9,N","011265,1,N,1","+0020,1","-0020,1","99999,9","02,5,+00450,1,99,9",,,,"02,99,1,99,9,99,9,99999,9,99,9,99,9","10051,1,99999,9",,,,,"MET056METAR EGUY 261350Z 33009KT 9999 FEW015 02/M02 Q1005 BLU;",
"03566099999","2010-11-26T14:50:00","4","52.357167","-0.107833","41.14","WYTON, UK","FM-15","EGUY ","V020","310,1,N,0041,1","22000,1,9,N","011265,1,N,1","+0020,1","-0020,1","99999,9","02,5,+00360,1,99,9",,,,"02,99,1,99,9,99,9,99999,9,99,9,99,9","10051,1,99999,9",,,,,"MET056METAR EGUY 261450Z 31008KT 9999 FEW012 02/M02 Q1005 BLU;",
"03566099999","2010-11-27T08:50:00","4","52.357167","-0.107833","41.14","WYTON, UK","FM-15","EGUY ","V020","040,1,N,0031,1","00120,1,C,N","001600,1,N,1","-0010,1","-0010,1","99999,9","08,5,+00120,1,99,9",,,,"08,99,1,99,9,99,9,99999,9,99,9,99,9","10041,1,99999,9","10,1",,,,"MET061METAR EGUY 270850Z 04006KT 1600 BR OVC004 M01/M01 Q1004 YLO2;",
"03566099999","2010-11-27T09:50:00","4","52.357167","-0.107833","41.14","WYTON, UK","FM-15","EGUY ","V020","050,1,N,0021,1","99999,9,C,N","004000,1,N,1","+0000,1","-0010,1","99999,9","02,5,+00120,1,99,9","04,5,+01500,1,99,9",,,"04,99,1,99,9,99,9,99999,9,99,9,99,9","10041,1,99999,9","10,1",,,,"MET068METAR EGUY 270950Z 05004KT 4000 BR FEW004 SCT050 M00/M01 Q1004 YLO1;","P01 015003SCOCIG"
"03566099999","2010-11-27T10:50:00","4","52.357167","-0.107833","41.14","WYTON, UK","FM-15","EGUY ","V020","030,1,N,0031,1","99999,9,C,N","011265,1,N,1","+0010,1","+0010,1","99999,9","02,5,+00180,1,99,9","04,5,+00750,1,99,9",,,"04,99,1,99,9,99,9,99999,9,99,9,99,9","10051,1,99999,9",,,,,"MET062METAR EGUY 271050Z 03006KT 9999 FEW006 SCT025 01/01 Q1005 BLU;","P01 007503SCOCIG"
"03566099999","2010-11-29T07:50:00","4","52.357167","-0.107833","41.14","WYTON, UK","FM-15","EGUY ","V020","340,1,N,0051,1","00660,1,C,N","004500,1,N,1","-0020,1","-0030,1","99999,9","08,5,+00660,1,99,9",,,,"08,99,1,99,9,99,9,99999,9,99,9,99,9","10119,1,99999,9","10,1",,,,"MET065METAR EGUY 290750Z 34010KT 4500 BR OVC022 M02/M03 Q1012 BLACKGRN;",
"03566099999","2010-11-29T08:50:00","4","52.357167","-0.107833","41.14","WYTON, UK","FM-15","EGUY ","V020","350,1,N,0057,1","00060,1,C,N","000800,1,N,1","-0020,1","-0020,1","99999,9","08,5,+00060,1,99,9",,,,"08,99,1,99,9,99,9,99999,9,99,9,99,9","10119,1,99999,9","73,1",,,,"MET065METAR EGUY 290850Z 35011KT 0800 SN OVC002 M02/M02 Q1012 BLACKAMB;",
"03566099999","2010-11-29T10:50:00","4","52.357167","-0.107833","41.14","WYTON, UK","FM-15","EGUY ","V020","350,1,N,0072,1","00660,1,C,N","006000,1,N,1","+9999,9","+9999,9","99999,9","04,5,+00150,1,99,9","07,5,+00660,1,99,9","07,5,+01350,1,99,9",,"07,99,1,99,9,99,9,99999,9,99,9,99,9",,"10,1",,,,"MET066METAR EGUY 291050Z 35014KT 6000 BR SCT005 BKN022 BKN045 BLACKYLO1;",
"03566099999","2010-11-29T11:50:00","4","52.357167","-0.107833","41.14","WYTON, UK","FM-15","EGUY ","V020","340,1,N,0062,1","00150,1,C,N","005000,1,N,1","-0010,1","-0010,1","99999,9","02,5,+00090,1,99,9","07,5,+00150,1,99,9",,,"07,99,1,99,9,99,9,99999,9,99,9,99,9",,"10,1",,,,"MET067METAR EGUY 291150Z 34012KT 5000 BR FEW003 BKN005 M01/M01 BLACKYLO1;",
"03566099999","2010-11-30T07:50:00","4","52.357167","-0.107833","41.14","WYTON, UK","FM-15","EGUY ","V020","040,1,N,0046,1","03000,1,C,N","011265,1,N,1","-0010,1","-0020,1","99999,9","02,5,+01500,1,99,9","07,5,+03000,1,99,9",,,"07,99,1,99,9,99,9,99999,9,99,9,99,9","10149,1,99999,9",,,,,"MET064METAR EGUY 300750Z 04009KT 9999 FEW050 BKN100 M01/M02 Q1015 BLU;",
"03566099999","2010-11-30T08:50:00","4","52.357167","-0.107833","41.14","WYTON, UK","FM-15","EGUY ","V020","040,1,N,0046,1","03000,1,C,N","011265,1,N,1","-0010,1","-0030,1","99999,9","02,5,+01500,1,99,9","07,5,+03000,1,99,9",,,"07,99,1,99,9,99,9,99999,9,99,9,99,9","10149,1,99999,9",,,,,"MET069METAR EGUY 300850Z 04009KT 9999 FEW050 BKN100 M01/M03 Q1015 BLACKBLU;",
"03566099999","2010-11-30T10:50:00","4","52.357167","-0.107833","41.14","WYTON, UK","FM-15","EGUY ","V020","030,1,N,0046,1","99999,9,C,N","011265,1,N,1","-0010,1","-0030,1","99999,9","02,5,+01500,1,99,9","04,5,+03000,1,99,9",,,"04,99,1,99,9,99,9,99999,9,99,9,99,9","10149,1,99999,9",,,,,"MET069METAR EGUY 301050Z 03009KT 9999 FEW050 SCT100 M01/M03 Q1015 BLACKBLU;","P01 030003SCOCIG"
"03566099999","2010-12-01T07:50:00","4","52.357167","-0.107833","41.14","WYTON, UK","FM-15","EGUY ","V020","010,1,N,0051,1","99999,9,9,Y","009900,1,N,1","-0040,1","-0080,1","99999,9",,,,,,"10102,1,99999,9",,,,,"MET056METAR EGUY 010750Z 01010KT CAVOK M04/M08 Q1010 BLACKBLU;",
"03566099999","2010-12-01T08:50:00","4","52.357167","-0.107833","41.14","WYTON, UK","FM-15","EGUY ","V020","040,1,N,0062,1","99999,9,9,Y","009900,1,N,1","-0020,1","-0070,1","99999,9",,,,,,"10102,1,99999,9",,,,,"MET056METAR EGUY 010850Z 04012KT CAVOK M02/M07 Q1010 BLACKBLU;",
"03566099999","2010-12-01T09:50:00","4","52.357167","-0.107833","41.14","WYTON, UK","FM-15","EGUY ","V020","050,1,N,0072,1","99999,9,9,Y","009900,1,N,1","-0010,1","-0060,1","99999,9",,,,,,"10102,1,99999,9",,,,,"MET056METAR EGUY 010950Z 05014KT CAVOK M01/M06 Q1010 BLACKBLU;",
"03566099999","2010-12-02T07:50:00","4","52.357167","-0.107833","41.14","WYTON, UK","FM-15","EGUY ","V020","050,1,N,0041,1","00270,1,C,N","011265,1,N,1","-0020,1","-0020,1","99999,9","07,5,+00270,1,99,9",,,,"07,99,1,99,9,99,9,99999,9,99,9,99,9","10081,1,99999,9","71,1",,,,"MET061METAR EGUY 020750Z 05008KT 9999 -SN BKN009 M02/M02 Q1008 GRN;",
"03566099999","2010-12-02T08:50:00","4","52.357167","-0.107833","41.14","WYTON, UK","FM-15","EGUY ","V020","060,1,N,0062,1","00270,1,C,N","006000,1,N,1","-0010,1","-0020,1","99999,9","07,5,+00270,1,99,9",,,,"07,99,1,99,9,99,9,99999,9,99,9,99,9","10091,1,99999,9","71,1",,,,"MET066METAR EGUY 020850Z 06012KT 6000 -SN BKN009 M01/M02 Q1009 BLACKGRN;",
"03566099999","2010-12-03T07:50:00","4","52.357167","-0.107833","41.14","WYTON, UK","FM-15","EGUY ","V020","290,1,N,0051,1","00120,1,C,N","005000,1,N,1","-0030,1","-0030,1","99999,9","08,5,+00120,1,99,9",,,,"08,99,1,99,9,99,9,99999,9,99,9,99,9","10119,1,99999,9","10,1",,,,"MET066METAR EGUY 030750Z 29010KT 5000 BR OVC004 M03/M03 Q1012 BLACKYLO2;",
"03566099999","2010-12-03T08:50:00","4","52.357167","-0.107833","41.14","WYTON, UK","FM-15","EGUY ","V020","280,1,N,0031,1","00150,1,C,N","006000,1,N,1","-0030,1","-0030,1","99999,9","08,5,+00150,1,99,9",,,,"08,99,1,99,9,99,9,99999,9,99,9,99,9","10119,1,99999,9","10,1",,,,"MET066METAR EGUY 030850Z 28006KT 6000 BR OVC005 M03/M03 Q1012 BLACKYLO2;",
"03566099999","2010-12-03T09:50:00","4","52.357167","-0.107833","41.14","WYTON, UK","FM-15","EGUY ","V020","280,1,N,0031,1","00120,1,C,N","005000,1,N,1","-0030,1","-0030,1","99999,9","08,5,+00120,1,99,9",,,,"08,99,1,99,9,99,9,99999,9,99,9,99,9","10119,1,99999,9","10,1",,,,"MET061METAR EGUY 030950Z 28006KT 5000 BR OVC004 M03/M03 Q1012 YLO2;",
"03566099999","2010-12-06T07:50:00","4","52.357167","-0.107833","41.14","WYTON, UK","FM-15","EGUY ","V020","300,1,N,0021,1","22000,1,9,N","005000,1,N,1","-0040,1","-0040,1","99999,9","04,5,+00600,1,99,9",,,,"04,99,1,99,9,99,9,99999,9,99,9,99,9","10031,1,99999,9","10,1",,,,"MET060METAR EGUY 060750Z 30004KT 5000 BR SCT020 M04/M04 Q1003 WHT;",
"03566099999","2010-12-06T08:50:00","4","52.357167","-0.107833","41.14","WYTON, UK","FM-15","EGUY ","V020","250,1,N,0015,1","00300,1,C,N","007000,1,N,1","-0040,1","-0040,1","99999,9","07,5,+00300,1,99,9",,,,"07,99,1,99,9,99,9,99999,9,99,9,99,9","10031,1,99999,9","10,1",,,,"MET060METAR EGUY 060850Z 25003KT 7000 BR BKN010 M04/M04 Q1003 GRN;",
"03566099999","2010-12-06T09:50:00","4","52.357167","-0.107833","41.14","WYTON, UK","FM-15","EGUY ","V020","270,1,N,0026,1","22000,1,9,N","007000,1,N,1","-0030,1","-0040,1","99999,9","02,5,+00900,1,99,9",,,,"02,99,1,99,9,99,9,99999,9,99,9,99,9","10031,1,99999,9","10,1",,,,"MET060METAR EGUY 060950Z 27005KT 7000 BR FEW030 M03/M04 Q1003 WHT;",
"03566099999","2010-12-06T10:50:00","4","52.357167","-0.107833","41.14","WYTON, UK","FM-15","EGUY ","V020","270,1,N,0021,1","22000,1,9,N","007000,1,N,1","-0020,1","-0040,1","99999,9","02,5,+01500,1,99,9",,,,"02,99,1,99,9,99,9,99999,9,99,9,99,9","10031,1,99999,9","10,1",,,,"MET060METAR EGUY 061050Z 27004KT 7000 BR FEW050 M02/M04 Q1003 WHT;",
"03566099999","2010-12-06T11:50:00","4","52.357167","-0.107833","41.14","WYTON, UK","FM-15","EGUY ","V020","270,1,N,0015,1","22000,1,9,N","008000,1,N,1","-0010,1","-0040,1","99999,9","02,5,+01500,1,99,9",,,,"02,99,1,99,9,99,9,99999,9,99,9,99,9","10020,1,99999,9","05,1",,,,"MET060METAR EGUY 061150Z 27003KT 8000 HZ FEW050 M01/M04 Q1002 BLU;",
"03566099999","2010-12-06T12:50:00","4","52.357167","-0.107833","41.14","WYTON, UK","FM-15","EGUY ","V020","280,1,N,0021,1","22000,1,9,N","009000,1,N,1","+0000,1","-0040,1","99999,9","02,5,+01500,1,99,9",,,,"02,99,1,99,9,99,9,99999,9,99,9,99,9","10020,1,99999,9","05,1",,,,"MET060METAR EGUY 061250Z 28004KT 9000 HZ FEW050 M00/M04 Q1002 BLU;",
"03566099999","2010-12-06T13:50:00","4","52.357167","-0.107833","41.14","WYTON, UK","FM-15","EGUY ","V020","320,1,N,0021,1","99999,9,9,Y","009900,1,N,1","+0000,1","-0030,1","99999,9",,,,,,"10020,1,99999,9",,,,,"MET050METAR EGUY 061350Z 32004KT CAVOK 00/M03 Q1002 BLU;",
"03566099999","2010-12-06T14:50:00","4","52.357167","-0.107833","41.14","WYTON, UK","FM-15","EGUY ","V020","330,1,N,0010,1","99999,9,9,Y","009900,1,N,1","+0000,1","-0030,1","99999,9",,,,,,"10020,1,99999,9",,,,,"MET050METAR EGUY 061450Z 33002KT CAVOK 00/M03 Q1002 BLU;",
"03566099999","2010-12-07T08:50:00","4","52.357167","-0.107833","41.14","WYTON, UK","FM-15","EGUY ","V020","999,9,C,0000,1","22000,1,9,N","007000,1,N,1","-0090,1","-0100,1","99999,9","02,5,+01800,1,99,9",,,,"02,99,1,99,9,99,9,99999,9,99,9,99,9","10061,1,99999,9","05,1",,,,"MET060METAR EGUY 070850Z 00000KT 7000 HZ FEW060 M09/M10 Q1006 WHT;",
"03566099999","2010-12-07T09:50:00","4","52.357167","-0.107833","41.14","WYTON, UK","FM-15","EGUY ","V020","290,1,N,0005,1","22000,1,9,N","007000,1,N,1","-0060,1","-0070,1","99999,9","02,5,+01800,1,99,9",,,,"02,99,1,99,9,99,9,99999,9,99,9,99,9","10071,1,99999,9","05,1",,,,"MET065METAR EGUY 070950Z 29001KT 7000 HZ FEW060 M06/M07 Q1007 BLACKWHT;",
"03566099999","2010-12-07T10:50:00","4","52.357167","-0.107833","41.14","WYTON, UK","FM-15","EGUY ","V020","360,1,N,0015,1","22000,1,9,N","007000,1,N,1","-0040,1","-0050,1","99999,9","02,5,+01800,1,99,9",,,,"02,99,1,99,9,99,9,99999,9,99,9,99,9","10071,1,99999,9","05,1",,,,"MET065METAR EGUY 071050Z 36003KT 7000 HZ FEW060 M04/M05 Q1007 BLACKWHT;",
"03566099999","2010-12-07T11:50:00","4","52.357167","-0.107833","41.14","WYTON, UK","FM-15","EGUY ","V020","330,1,N,0015,1","22000,1,9,N","006000,1,N,1","-0040,1","-0050,1","99999,9","02,5,+01800,1,99,9",,,,"02,99,1,99,9,99,9,99999,9,99,9,99,9","10061,1,99999,9","05,1",,,,"MET065METAR EGUY 071150Z 33003KT 6000 HZ FEW060 M04/M05 Q1006 BLACKWHT;",
"03566099999","2010-12-07T12:50:00","4","52.357167","-0.107833","41.14","WYTON, UK","FM-15","EGUY ","V020","340,1,N,0015,1","22000,1,9,N","008000,1,N,1","-0030,1","-0050,1","99999,9","02,5,+01800,1,99,9",,,,"02,99,1,99,9,99,9,99999,9,99,9,99,9","10061,1,99999,9","05,1",,,,"MET065METAR EGUY 071250Z 34003KT 8000 HZ FEW060 M03/M05 Q1006 BLACKBLU;",
"03566099999","2010-12-08T08:50:00","4","52.357167","-0.107833","41.14","WYTON, UK","FM-15","EGUY ","V020","340,1,N,0046,1","00090,1,C,N","002800,1,N,1","-0010,1","-0030,1","99999,9","08,5,+00090,1,99,9",,,,"08,99,1,99,9,99,9,99999,9,99,9,99,9","10108,1,99999,9","85,5",,,,"MET064METAR EGUY 080850Z 34009KT 2800 -SHSN OVC003 M01/M03 Q1011 YLO2;",
"03566099999","2010-12-08T09:50:00","4","52.357167","-0.107833","41.14","WYTON, UK","FM-15","EGUY ","V020","340,1,N,0051,1","00150,1,C,N","004500,1,N,1","-0010,1","-0030,1","99999,9","07,5,+00150,1,99,9",,,,"07,99,1,99,9,99,9,99999,9,99,9,99,9","10119,1,99999,9","10,1",,,,"MET061METAR EGUY 080950Z 34010KT 4500 BR BKN005 M01/M03 Q1012 YLO1;",
"03566099999","2010-12-08T10:50:00","4","52.357167","-0.107833","41.14","WYTON, UK","FM-15","EGUY ","V020","350,1,N,0051,1","99999,9,C,N","007000,1,N,1","+0000,1","+0000,1","99999,9","02,5,+00150,1,99,9","04,5,+00300,1,99,9","04,5,+01200,1,99,9",,"04,99,1,99,9,99,9,99999,9,99,9,99,9","10119,1,99999,9","10,1",,,,"MET074METAR EGUY 081050Z 35010KT 7000 BR FEW005 SCT010 SCT040 M00/M00 Q1012 GRN;","P01 003003SCOCIG"
"03566099999","2010-12-08T11:50:00","4","52.357167","-0.107833","41.14","WYTON, UK","FM-15","EGUY ","V020","350,1,N,0051,1","99999,9,C,N","009000,1,N,1","+0000,1","+9999,9","99999,9","02,5,+00300,1,99,9","04,5,+00900,1,99,9",,,"04,99,1,99,9,99,9,99999,9,99,9,99,9","10129,1,99999,9","10,1",,,,"MET061METAR EGUY 081150Z 35010KT 9000 BR FEW010 SCT030 00/01 Q1013;","P01 009003SCOCIG"
"03566099999","2010-12-08T12:50:00","4","52.357167","-0.107833","41.14","WYTON, UK","FM-15","EGUY ","V020","350,1,N,0077,1","22000,1,9,N","011265,1,N,1","+0010,1","-0010,1","99999,9","02,5,+00900,1,99,9",,,,"02,99,1,99,9,99,9,99999,9,99,9,99,9","10129,1,99999,9",,,,,"MET056METAR EGUY 081250Z 35015KT 9999 FEW030 01/M01 Q1013 BLU;",
"03566099999","2010-12-08T13:30:00","4","52.357167","-0.107833","41.14","WYTON, UK","FM-15","EGUY ","V020","350,1,N,0077,1","22000,1,9,N","011265,1,N,1","+0010,1","-0010,1","99999,9","02,5,+00900,1,99,9",,,,"02,99,1,99,9,99,9,99999,9,99,9,99,9","10129,1,99999,9",,,,,"MET056METAR EGUY 081330Z 35015KT 9999 FEW030 01/M01 Q1013 BLU;",
"03566099999","2010-12-08T14:30:00","4","52.357167","-0.107833","41.14","WYTON, UK","FM-15","EGUY ","V020","340,1,N,0077,1","22000,1,9,N","011265,1,N,1","+0000,1","-0010,1","99999,9","02,5,+00600,1,99,9",,,,"02,99,1,99,9,99,9,99999,9,99,9,99,9","10139,1,99999,9",,,,,"MET056METAR EGUY 081430Z 34015KT 9999 FEW020 00/M01 Q1014 BLU;",
"03566099999","2010-12-09T07:50:00","4","52.357167","-0.107833","41.14","WYTON, UK","FM-15","EGUY ","V020","280,1,N,0051,1","22000,1,9,N","011265,1,N,1","-0020,1","-0040,1","99999,9","02,5,+01350,1,99,9",,,,"02,99,1,99,9,99,9,99999,9,99,9,99,9","10281,1,99999,9",,,,,"MET057METAR EGUY 090750Z 28010KT 9999 FEW045 M02/M04 Q1028 BLU;",
"03566099999","2010-12-09T08:50:00","4","52.357167","-0.107833","41.14","WYTON, UK","FM-15","EGUY ","V020","270,1,N,0051,1","22000,1,9,N","011265,1,N,1","-0020,1","-0040,1","99999,9","02,5,+01350,1,99,9",,,,"02,99,1,99,9,99,9,99999,9,99,9,99,9","10281,1,99999,9",,,,,"MET057METAR EGUY 090850Z 27010KT 9999 FEW045 M02/M04 Q1028 BLU;",
"03566099999","2010-12-09T09:50:00","4","52.357167","-0.107833","41.14","WYTON, UK","FM-15","EGUY ","V020","290,1,N,0062,1","99999,9,9,Y","009900,1,N,1","+0010,1","-0020,1","99999,9",,,,,,"10291,1,99999,9",,,,,"MET050METAR EGUY 090950Z 29012KT CAVOK 01/M02 Q1029 BLU;",
"03566099999","2010-12-09T10:50:00","4","52.357167","-0.107833","41.14","WYTON, UK","FM-15","EGUY ","V020","290,1,N,0057,1","99999,9,9,Y","009900,1,N,1","+0030,1","-0020,1","99999,9",,,,,,"10291,1,99999,9",,,,,"MET050METAR EGUY 091050Z 29011KT CAVOK 03/M02 Q1029 BLU;",
"03566099999","2010-12-09T11:50:00","4","52.357167","-0.107833","41.14","WYTON, UK","FM-15","EGUY ","V020","280,1,N,0062,1","99999,9,9,Y","009900,1,N,1","+0030,1","-0010,1","99999,9",,,,,,"10291,1,99999,9",,,,,"MET050METAR EGUY 091150Z 28012KT CAVOK 03/M01 Q1029 BLU;",
"03566099999","2010-12-09T12:50:00","4","52.357167","-0.107833","41.14","WYTON, UK","FM-15","EGUY ","V020","290,1,N,0051,1","99999,9,C,N","011265,1,N,1","+0030,1","+0000,1","99999,9","02,5,+01350,1,99,9","04,5,+02100,1,99,9",,,"04,99,1,99,9,99,9,99999,9,99,9,99,9","10291,1,99999,9",,,,,"MET063METAR EGUY 091250Z 29010KT 9999 FEW045 SCT070 03/M00 Q1029 BLU;","P01 021003SCOCIG"
"03566099999","2010-12-09T13:50:00","4","52.357167","-0.107833","41.14","WYTON, UK","FM-15","EGUY ","V020","270,1,N,0051,1","99999,9,9,Y","009900,1,N,1","+0030,1","+0000,1","99999,9",,,,,,"10291,1,99999,9",,,,,"MET050METAR EGUY 091350Z 27010KT CAVOK 03/M00 Q1029 BLU;",
"03566099999","2010-12-09T14:50:00","4","52.357167","-0.107833","41.14","WYTON, UK","FM-15","EGUY ","V020","250,1,N,0051,1","99999,9,9,Y","009900,1,N,1","+0030,1","+0000,1","99999,9",,,,,,"10291,1,99999,9",,,,,"MET049METAR EGUY 091450Z 25010KT CAVOK 03/00 Q1029 BLU;",
"03566099999","2010-12-10T07:50:00","4","52.357167","-0.107833","41.14","WYTON, UK","FM-15","EGUY ","V020","250,1,N,0072,1","99999,9,C,N","007000,1,N,1","+0040,1","+0030,1","99999,9","02,5,+00450,1,99,9","04,5,+03600,1,99,9",,,"04,99,1,99,9,99,9,99999,9,99,9,99,9","10312,1,99999,9","05,1",,,,"MET065METAR EGUY 100750Z 25014KT 7000 HZ FEW015 SCT120 04/03 Q1031 WHT;","P01 036003SCOCIG"
"03566099999","2010-12-10T08:50:00","4","52.357167","-0.107833","41.14","WYTON, UK","FM-15","EGUY ","V020","250,1,N,0041,1","00660,1,C,N","007000,1,N,1","+0040,1","+0040,1","99999,9","02,5,+00300,1,99,9","07,5,+00660,1,99,9",,,"07,99,1,99,9,99,9,99999,9,99,9,99,9","10312,1,99999,9","05,1",,,,"MET065METAR EGUY 100850Z 25008KT 7000 HZ FEW010 BKN022 04/04 Q1031 WHT;",
"03566099999","2010-12-10T10:50:00","4","52.357167","-0.107833","41.14","WYTON, UK","FM-15","EGUY ","V020","260,1,N,0057,1","00600,1,C,N","011265,1,N,1","+0060,1","+0040,1","99999,9","07,5,+00600,1,99,9",,,,"07,99,1,99,9,99,9,99999,9,99,9,99,9","10312,1,99999,9",,,,,"MET055METAR EGUY 101050Z 26011KT 9999 BKN020 06/04 Q1031 WHT;",
"03566099999","2010-12-10T12:50:00","4","52.357167","-0.107833","41.14","WYTON, UK","FM-15","EGUY ","V020","250,1,N,0046,1","00540,1,C,N","011265,1,N,1","+0070,1","+0040,1","99999,9","08,5,+00540,1,99,9",,,,"08,99,1,99,9,99,9,99999,9,99,9,99,9","10301,1,99999,9",,,,,"MET055METAR EGUY 101250Z 25009KT 9999 OVC018 07/04 Q1030 WHT;",
"03566099999","2010-12-10T14:50:00","4","52.357167","-0.107833","41.14","WYTON, UK","FM-15","EGUY ","V020","260,1,N,0062,1","00420,1,C,N","011265,1,N,1","+0070,1","+0050,1","99999,9","08,5,+00420,1,99,9",,,,"08,99,1,99,9,99,9,99999,9,99,9,99,9","10291,1,99999,9",,,,,"MET055METAR EGUY 101450Z 26012KT 9999 OVC014 07/05 Q1029 GRN;",
"03566099999","2010-12-11T08:50:00","4","52.357167","-0.107833","41.14","WYTON, UK","FM-15","EGUY ","V020","260,1,N,0041,1","22000,1,9,N","008000,1,N,1","+0040,1","+0040,1","99999,9",,,,,"00,99,1,99,9,99,9,99999,9,99,9,99,9","10251,1,99999,9","05,1",,,,"MET055METAR EGUY 110850Z 26008KT 8000 HZ NSC 04/04 Q1025 BLU;","Q01    003SCCGA1"
"03566099999","2010-12-11T09:50:00","4","52.357167","-0.107833","41.14","WYTON, UK","FM-15","EGUY ","V020","260,1,N,0031,1","99999,9,9,Y","009900,1,N,1","+0050,1","+0040,1","99999,9",,,,,,"10251,1,99999,9",,,,,"MET049METAR EGUY 110950Z 26006KT CAVOK 05/04 Q1025 BLU;",
"03566099999","2010-12-11T10:50:00","4","52.357167","-0.107833","41.14","WYTON, UK","FM-15","EGUY ","V020","270,1,N,0036,1","99999,9,9,Y","009900,1,N,1","+0060,1","+0050,1","99999,9",,,,,,"10251,1,99999,9",,,,,"MET049METAR EGUY 111050Z 27007KT CAVOK 06/05 Q1025 BLU;",
"03566099999","2010-12-11T11:50:00","4","52.357167","-0.107833","41.14","WYTON, UK","FM-15","EGUY ","V020","300,1,N,0041,1","99999,9,9,Y","009900,1,N,1","+0080,1","+0060,1","99999,9",,,,,,"10251,1,99999,9",,,,,"MET049METAR EGUY 111150Z 30008KT CAVOK 08/06 Q1025 BLU;",
"03566099999","2010-12-11T12:50:00","4","52.357167","-0.107833","41.14","WYTON, UK","FM-15","EGUY ","V020","290,1,N,0051,1","99999,9,9,Y","009900,1,N,1","+0090,1","+0060,1","99999,9",,,,,,"10251,1,99999,9",,,,,"MET049METAR EGUY 111250Z 29010KT CAVOK 09/06 Q1025 BLU;",
"03566099999","2010-12-11T13:50:00","4","52.357167","-0.107833","41.14","WYTON, UK","FM-15","EGUY ","V020","290,1,N,0051,1","22000,1,9,N","011265,1,N,1","+0090,1","+0060,1","99999,9","02,5,+00600,1,99,9",,,,"02,99,1,99,9,99,9,99999,9,99,9,99,9","10240,1,99999,9",,,,,"MET055METAR EGUY 111350Z 29010KT 9999 FEW020 09/06 Q1024 BLU;",
"03566099999","2010-12-11T14:50:00","4","52.357167","-0.107833","41.14","WYTON, UK","FM-15","EGUY ","V020","300,1,N,0036,1","22000,1,9,N","011265,1,N,1","+0070,1","+0050,1","99999,9","02,5,+00600,1,99,9",,,,"02,99,1,99,9,99,9,99999,9,99,9,99,9","10240,1,99999,9",,,,,"MET055METAR EGUY 111450Z 30007KT 9999 FEW020 07/05 Q1024 BLU;",
"03566099999","2010-12-12T08:50:00","4","52.357167","-0.107833","41.14","WYTON, UK","FM-15","EGUY ","V020","320,1,N,0046,1","22000,1,9,N","011265,1,N,1","+0000,1","-0010,1","99999,9","04,5,+00750,1,99,9",,,,"04,99,1,99,9,99,9,99999,9,99,9,99,9","10240,1,99999,9",,,,,"MET057METAR EGUY 120850Z 32009KT 9999 SCT025 M00/M01 Q1024 BLU;",
"03566099999","2010-12-12T09:50:00","4","52.357167","-0.107833","41.14","WYTON, UK","FM-15","EGUY ","V020","320,1,N,0041,1","22000,1,9,N","011265,1,N,1","+0010,1","+0000,1","99999,9","04,5,+00750,1,99,9",,,,"04,99,1,99,9,99,9,99999,9,99,9,99,9","10251,1,99999,9",,,,,"MET055METAR EGUY 120950Z 32008KT 9999 SCT025 01/00 Q1025 BLU;",
"03566099999","2010-12-12T10:50:00","4","52.357167","-0.107833","41.14","WYTON, UK","FM-15","EGUY ","V020","320,1,N,0041,1","22000,1,9,N","011265,1,N,1","+0030,1","+0020,1","99999,9","02,5,+00900,1,99,9",,,,"02,99,1,99,9,99,9,99999,9,99,9,99,9","10251,1,99999,9",,,,,"MET055METAR EGUY 121050Z 32008KT 9999 FEW030 03/02 Q1025 BLU;",
"03566099999","2010-12-12T11:50:00","4","52.357167","-0.107833","41.14","WYTON, UK","FM-15","EGUY ","V020","330,1,N,0041,1","00750,1,C,N","011265,1,N,1","+0040,1","+0020,1","99999,9","07,5,+00750,1,99,9",,,,"07,99,1,99,9,99,9,99999,9,99,9,99,9","10251,1,99999,9",,,,,"MET055METAR EGUY 121150Z 33008KT 9999 BKN025 04/02 Q1025 BLU;",
"03566099999","2010-12-12T12:50:00","4","52.357167","-0.107833","41.14","WYTON, UK","FM-15","EGUY ","V020","340,1,N,0041,1","00750,1,C,N","011265,1,N,1","+0040,1","+0030,1","99999,9","07,5,+00750,1,99,9",,,,"07,99,1,99,9,99,9,99999,9,99,9,99,9","10251,1,99999,9",,,,,"MET055METAR EGUY 121250Z 34008KT 9999 BKN025 04/03 Q1025 BLU;",
"03566099999","2010-12-12T13:50:00","4","52.357167","-0.107833","41.14","WYTON, UK","FM-15","EGUY ","V020","330,1,N,0046,1","01050,1,C,N","011265,1,N,1","+0040,1","+0030,1","99999,9","02,5,+00600,1,99,9","07,5,+01050,1,99,9",,,"07,99,1,99,9,99,9,99999,9,99,9,99,9","10251,1,99999,9",,,,,"MET062METAR EGUY 121350Z 33009KT 9999 FEW020 BKN035 04/03 Q1025 BLU;",
"03566099999","2010-12-12T14:50:00","4","52.357167","-0.107833","41.14","WYTON, UK","FM-15","EGUY ","V020","330,1,N,0036,1","00810,1,C,N","007000,1,N,1","+0040,1","+0030,1","99999,9","04,5,+00660,1,99,9","07,5,+00810,1,99,9",,,"07,99,1,99,9,99,9,99999,9,99,9,99,9","10251,1,99999,9","16,1",,,,"MET067METAR EGUY 121450Z 33007KT 7000 VCSH SCT022 BKN027 04/03 Q1025 BLU;",
"03566099999","2010-12-13T07:50:00","4","52.357167","-0.107833","41.14","WYTON, UK","FM-15","EGUY ","V020","310,1,N,0015,1","00030,1,C,N","000200,1,N,1","+0000,1","+0000,1","99999,9","07,5,+00030,1,99,9",,,,"07,99,1,99,9,99,9,99999,9,99,9,99,9","10281,1,99999,9","44,1",,,,"MET058METAR EGUY 130750Z 31003KT 0200 FG BKN001 00/00 Q1028 RED;",
"03566099999","2010-12-13T08:50:00","4","52.357167","-0.107833","41.14","WYTON, UK","FM-15","EGUY ","V020","310,1,N,0010,1","00900,1,C,N","000400,1,N,1","+0000,1","+0000,1","99999,9","04,5,+00030,1,99,9","07,5,+00900,1,99,9",,,"07,99,1,99,9,99,9,99999,9,99,9,99,9","10281,1,99999,9","44,1",,,,"MET070METAR EGUY 130850Z 31002KT 0400 FG SCT001 BKN030 00/00 Q1028 BLACKRED;",
"03566099999","2010-12-13T09:50:00","4","52.357167","-0.107833","41.14","WYTON, UK","FM-15","EGUY ","V020","290,1,N,0010,1","00900,1,C,N","002500,1,N,1","+0010,1","+0010,1","99999,9","07,5,+00900,1,99,9",,,,"07,99,1,99,9,99,9,99999,9,99,9,99,9","10281,1,99999,9","10,1",,,,"MET064METAR EGUY 130950Z 29002KT 2500 BR BKN030 01/01 Q1028 BLACKYLO1;",
"03566099999","2010-12-13T10:50:00","4","52.357167","-0.107833","41.14","WYTON, UK","FM-15","EGUY ","V020","300,1,N,0041,1","00900,1,C,N","002000,1,N,1","+0010,1","+0010,1","99999,9","07,5,+00900,1,99,9",,,,"07,99,1,99,9,99,9,99999,9,99,9,99,9","10281,1,99999,9","10,1",,,,"MET059METAR EGUY 131050Z 30008KT 2000 BR BKN030 01/01 Q1028 YLO2;",
"03566099999","2010-12-13T11:50:00","4","52.357167","-0.107833","41.14","WYTON, UK","FM-15","EGUY ","V020","300,1,N,0031,1","99999,9,C,N","007000,1,N,1","+0030,1","+0030,1","99999,9","02,5,+00900,1,99,9","04,5,+01800,1,99,9",,,"04,99,1,99,9,99,9,99999,9,99,9,99,9","10281,1,99999,9","10,1",,,,"MET065METAR EGUY 131150Z 30006KT 7000 BR FEW030 SCT060 03/03 Q1028 WHT;","P01 018003SCOCIG"
"03566099999","2010-12-13T12:50:00","4","52.357167","-0.107833","41.14","WYTON, UK","FM-15","EGUY ","V020","340,1,N,0041,1","00840,1,C,N","007000,1,N,1","+0040,1","+0040,1","99999,9","04,5,+00240,1,99,9","07,5,+00840,1,99,9","07,5,+01800,1,99,9",,"07,99,1,99,9,99,9,99999,9,99,9,99,9","10281,1,99999,9","10,1",,,,"MET072METAR EGUY 131250Z 34008KT 7000 BR SCT008 BKN028 BKN060 04/04 Q1028 GRN;",
"03566099999","2010-12-13T13:50:00","4","52.357167","-0.107833","41.14","WYTON, UK","FM-15","EGUY ","V020","330,1,N,0046,1","00240,1,C,N","006000,1,N,1","+0040,1","+0040,1","99999,9","07,5,+00240,1,99,9","07,5,+00450,1,99,9",,,"07,99,1,99,9,99,9,99999,9,99,9,99,9","10271,1,99999,9","10,1",,,,"MET065METAR EGUY 131350Z 33009KT 6000 BR BKN008 BKN015 04/04 Q1027 GRN;",
"03566099999","2010-12-14T07:50:00","4","52.357167","-0.107833","41.14","WYTON, UK","FM-15","EGUY ","V020","340,1,N,0031,1","00120,1,C,N","000700,1,N,1","+0020,1","+0020,1","99999,9","08,5,+00120,1,99,9",,,,"08,99,1,99,9,99,9,99999,9,99,9,99,9","10318,1,99999,9","44,1",,,,"MET058METAR EGUY 140750Z 34006KT 0700 FG OVC004 02/02 Q1032 RED;",
"03566099999","2010-12-14T08:50:00","4","52.357167","-0.107833","41.14","WYTON, UK","FM-15","EGUY ","V020","360,1,N,0026,1","00480,1,C,N","001800,1,N,1","+0020,1","+0020,1","99999,9","04,5,+00120,1,99,9","07,5,+00480,1,99,9",,,"07,99,1,99,9,99,9,99999,9,99,9,99,9","10318,1,99999,9","10,1",,,,"MET066METAR EGUY 140850Z 36005KT 1800 BR SCT004 BKN016 02/02 Q1032 YLO2;",
"03566099999","2010-12-14T09:50:00","4","52.357167","-0.107833","41.14","WYTON, UK","FM-15","EGUY ","V020","030,1,N,0031,1","00900,1,C,N","004000,1,N,1","+0020,1","+0020,1","99999,9","02,5,+00180,1,99,9","07,5,+00900,1,99,9",,,"07,99,1,99,9,99,9,99999,9,99,9,99,9","10329,1,99999,9","10,1",,,,"MET065METAR EGUY 140950Z 03006KT 4000 BR FEW006 BKN030 02/02 Q1033 GRN;",
"03566099999","2010-12-14T10:50:00","4","52.357167","-0.107833","41.14","WYTON, UK","FM-15","EGUY ","V020","360,1,N,0031,1","00900,1,C,N","004500,1,N,1","+0030,1","+0030,1","99999,9","02,5,+00090,1,99,9","04,5,+00900,1,99,9","07,5,+02400,1,99,9",,"07,99,1,99,9,99,9,99999,9,99,9,99,9","10329,1,99999,9","10,1",,,,"MET072METAR EGUY 141050Z 36006KT 4500 BR FEW003 SCT030 BKN080 03/03 Q1033 GRN;",
"03566099999","2010-12-14T11:50:00","4","52.357167","-0.107833","41.14","WYTON, UK","FM-15","EGUY ","V020","360,1,N,0021,1","00900,1,C,N","005000,1,N,1","+0030,1","+0030,1","99999,9","02,5,+00090,1,99,9","04,5,+00900,1,99,9","08,5,+02400,1,99,9",,"08,99,1,99,9,99,9,99999,9,99,9,99,9","10339,1,99999,9","10,1",,,,"MET072METAR EGUY 141150Z 36004KT 5000 BR FEW003 SCT030 OVC080 03/03 Q1034 WHT;",
"03566099999","2010-12-14T12:50:00","4","52.357167","-0.107833","41.14","WYTON, UK","FM-15","EGUY ","V020","020,1,N,0015,1","00960,1,C,N","008000,1,N,1","+0040,1","+0030,1","99999,9","02,5,+00090,1,99,9","04,5,+00960,1,99,9","08,5,+02400,1,99,9",,"08,99,1,99,9,99,9,99999,9,99,9,99,9","10339,1,99999,9","10,1",,,,"MET072METAR EGUY 141250Z 02003KT 8000 BR FEW003 SCT032 OVC080 04/03 Q1034 BLU;",
"03566099999","2010-12-14T13:50:00","4","52.357167","-0.107833","41.14","WYTON, UK","FM-15","EGUY ","V020","040,1,N,0010,1","01500,1,C,N","011265,1,N,1","+0040,1","+0030,1","99999,9","02,5,+00180,1,99,9","04,5,+01500,1,99,9","07,5,+02550,5,99,9",,"07,99,1,99,9,99,9,99999,9,99,9,99,9","10339,1,99999,9",,,,,"MET069METAR EGUY 141350Z 04002KT 9999 FEW006 SCT050 BKN085 04/03 Q1034 BLU;",
"03566099999","2010-12-14T14:50:00","4","52.357167","-0.107833","41.14","WYTON, UK","FM-15","EGUY ","V020","050,1,N,0021,1","00900,1,C,N","011265,1,N,1","+0030,1","+0030,1","99999,9","02,5,+00300,1,99,9","04,5,+00900,1,99,9","07,5,+02400,1,99,9",,"07,99,1,99,9,99,9,99999,9,99,9,99,9","10339,1,99999,9",,,,,"MET069METAR EGUY 141450Z 05004KT 9999 FEW010 SCT030 BKN080 03/03 Q1034 BLU;",
"03566099999","2010-12-15T08:50:00","4","52.357167","-0.107833","41.14","WYTON, UK","FM-15","EGUY ","V020","350,1,N,0082,1","00015,1,C,N","000600,1,N,1","+0020,1","+0020,1","99999,9","08,5,+00000,5,99,9",,,,"08,99,1,99,9,99,9,99999,9,99,9,99,9","10359,1,99999,9","44,1",,,,"MET058METAR EGUY 150850Z 35016KT 0600 FG OVC000 02/02 Q1036 RED;",
"03566099999","2010-12-15T09:50:00","4","52.357167","-0.107833","41.14","WYTON, UK","FM-15","EGUY ","V020","290,1,N,0046,1","00150,1,C,N","003000,1,N,1","+0030,1","+0030,1","99999,9","08,5,+00150,1,99,9",,,,"08,99,1,99,9,99,9,99999,9,99,9,99,9","10359,1,99999,9","10,1",,,,"MET059METAR EGUY 150950Z 29009KT 3000 BR OVC005 03/03 Q1036 YLO1;",
"03566099999","2010-12-15T10:50:00","4","52.357167","-0.107833","41.14","WYTON, UK","FM-15","EGUY ","V020","320,1,N,0051,1","00180,1,C,N","007000,1,N,1","+0040,1","+0040,1","99999,9","04,5,+00120,1,99,9","08,5,+00180,1,99,9",,,"08,99,1,99,9,99,9,99999,9,99,9,99,9","10359,1,99999,9","10,1",,,,"MET066METAR EGUY 151050Z 32010KT 7000 BR SCT004 OVC006 04/04 Q1036 YLO2;",
"03566099999","2010-12-15T11:50:00","4","52.357167","-0.107833","41.14","WYTON, UK","FM-15","EGUY ","V020","340,1,N,0062,1","00180,1,C,N","007000,1,N,1","+0050,1","+0050,1","99999,9","04,5,+00120,1,99,9","08,5,+00180,1,99,9",,,"08,99,1,99,9,99,9,99999,9,99,9,99,9","10349,1,99999,9","61,1",,,,"MET067METAR EGUY 151150Z 34012KT 7000 -RA SCT004 OVC006 05/05 Q1035 YLO2;",
"03566099999","2010-12-15T12:50:00","4","52.357167","-0.107833","41.14","WYTON, UK","FM-15","EGUY ","V020","340,1,N,0062,1","00150,1,C,N","006000,1,N,1","+0050,1","+0050,1","99999,9","08,5,+00150,1,99,9",,,,"08,99,1,99,9,99,9,99999,9,99,9,99,9","10339,1,99999,9","51,1",,,,"MET060METAR EGUY 151250Z 34012KT 6000 -DZ OVC005 05/05 Q1034 YLO1;",
"03566099999","2010-12-15T13:50:00","4","52.357167","-0.107833","41.14","WYTON, UK","FM-15","EGUY ","V020","330,1,N,0062,1","00150,1,C,N","006000,1,N,1","+0050,1","+0050,1","99999,9","08,5,+00150,1,99,9",,,,"08,99,1,99,9,99,9,99999,9,99,9,99,9","10339,1,99999,9","63,1",,,,"MET059METAR EGUY 151350Z 33012KT 6000 RA OVC005 05/05 Q1034 YLO1;",
"03566099999","2010-12-16T07:50:00","4","52.357167","-0.107833","41.14","WYTON, UK","FM-15","EGUY ","V020","240,1,N,0062,1","00450,1,C,N","011265,1,N,1","+0060,1","+0040,1","99999,9","07,5,+00450,1,99,9","07,5,+02400,1,99,9",,,"07,99,1,99,9,99,9,99999,9,99,9,99,9","10108,1,99999,9",,,,,"MET062METAR EGUY 160750Z 24012KT 9999 BKN015 BKN080 06/04 Q1011 WHT;",
"03566099999","2010-12-16T08:50:00","4","52.357167","-0.107833","41.14","WYTON, UK","FM-15","EGUY ","V020","240,1,N,0072,1","00540,1,C,N","011265,1,N,1","+0060,1","+0040,1","99999,9","07,5,+00540,1,99,9","08,5,+00690,1,99,9",,,"08,99,1,99,9,99,9,99999,9,99,9,99,9","10091,1,99999,9",,,,,"MET062METAR EGUY 160850Z 24014KT 9999 BKN018 OVC023 06/04 Q1009 WHT;",
"03566099999","2010-12-16T09:50:00","4","52.357167","-0.107833","41.14","WYTON, UK","FM-15","EGUY ","V020","250,1,N,0067,1","00600,1,C,N","011265,1,N,1","+0060,1","+0050,1","99999,9","04,5,+00450,1,99,9","08,5,+00600,1,99,9",,,"08,99,1,99,9,99,9,99999,9,99,9,99,9","10071,1,99999,9","63,1",,,,"MET064METAR EGUY 160950Z 25013KT 9999RA SCT015 OVC020 06/05 Q1007 WHT;",
"03566099999","2010-12-16T10:50:00","4","52.357167","-0.107833","41.14","WYTON, UK","FM-15","EGUY ","V020","260,1,N,0093,1","00600,1,C,N","011265,1,N,1","+0060,1","+0050,1","99999,9","04,5,+00480,1,99,9","08,5,+00600,1,99,9",,,"08,99,1,99,9,99,9,99999,9,99,9,99,9","10051,1,99999,9","63,1",,,,"MET065METAR EGUY 161050Z 26018KT 9999 RA SCT016 OVC020 06/05 Q1005 WHT;",
"03566099999","2010-12-16T11:50:00","4","52.357167","-0.107833","41.14","WYTON, UK","FM-15","EGUY ","V020","260,1,N,0087,1","00900,1,C,N","011265,1,N,1","+0070,1","+0050,1","99999,9","04,5,+00480,1,99,9","07,5,+00900,1,99,9",,,"07,99,1,99,9,99,9,99999,9,99,9,99,9","10031,1,99999,9","61,1",,,"0139,1","MET069METAR EGUY 161150Z 26017G27KT 9999 -RA SCT016 BKN030 07/05 Q1003 WHT;",
"03566099999","2010-12-17T07:50:00","4","52.357167","-0.107833","41.14","WYTON, UK","FM-15","EGUY ","V020","270,1,N,0041,1","99999,9,9,Y","009900,1,N,1","-0040,1","-0050,1","99999,9",,,,,,"09980,1,99999,9",,,,,"MET056METAR EGUY 170750Z 27008KT CAVOK M04/M05 Q0998 BLACKBLU;",
"03566099999","2010-12-17T08:50:00","4","52.357167","-0.107833","41.14","WYTON, UK","FM-15","EGUY ","V020","300,1,N,0051,1","99999,9,C,N","011265,1,N,1","-0040,1","-0050,1","99999,9","02,5,+00900,1,99,9","04,5,+03600,1,99,9",,,"04,99,1,99,9,99,9,99999,9,99,9,99,9","09980,1,99999,9",,,,,"MET069METAR EGUY 170850Z 30010KT 9999 FEW030 SCT120 M04/M05 Q0998 BLACKBLU;","P01 036003SCOCIG"
"03566099999","2010-12-17T09:50:00","4","52.357167","-0.107833","41.14","WYTON, UK","FM-15","EGUY ","V020","250,1,N,0041,1","22000,1,9,N","011265,1,N,1","-0030,1","-0040,1","99999,9","02,5,+00450,1,99,9",,,,"02,99,1,99,9,99,9,99999,9,99,9,99,9","09980,1,99999,9",,,,,"MET057METAR EGUY 170950Z 25008KT 9999 FEW015 M03/M04 Q0998 BLU;",
"03566099999","2010-12-17T10:50:00","4","52.357167","-0.107833","41.14","WYTON, UK","FM-15","EGUY ","V020","260,1,N,0041,1","22000,1,9,N","011265,1,N,1","-0020,1","-0040,1","99999,9","02,5,+00600,1,99,9",,,,"02,99,1,99,9,99,9,99999,9,99,9,99,9","09970,1,99999,9",,,,,"MET062METAR EGUY 171050Z 26008KT 9999 FEW020 M02/M04 Q0997 BLACKBLU;",
"03566099999","2010-12-17T11:50:00","4","52.357167","-0.107833","41.14","WYTON, UK","FM-15","EGUY ","V020","310,1,N,0041,1","22000,1,9,N","011265,1,N,1","-0010,1","-0050,1","99999,9","02,5,+00600,1,99,9",,,,"02,99,1,99,9,99,9,99999,9,99,9,99,9","09970,1,99999,9",,,,,"MET057METAR EGUY 171150Z 31008KT 9999 FEW020 M01/M05 Q0997 BLU;",
"03566099999","2010-12-17T12:50:00","4","52.357167","-0.107833","41.14","WYTON, UK","FM-15","EGUY ","V020","290,1,N,0046,1","22000,1,9,N","011265,1,N,1","-0010,1","-0060,1","99999,9","02,5,+00600,1,99,9",,,,"02,99,1,99,9,99,9,99999,9,99,9,99,9","09959,1,99999,9",,,,,"MET057METAR EGUY 171250Z 29009KT 9999 FEW020 M01/M06 Q0996 BLU;",
"03566099999","2010-12-17T13:50:00","4","52.357167","-0.107833","41.14","WYTON, UK","FM-15","EGUY ","V020","310,1,N,0062,1","22000,1,9,N","011265,1,N,1","+9999,9","+9999,9","99999,9","02,5,+00450,1,99,9","02,5,+02100,1,99,9",,,"02,99,1,99,9,99,9,99999,9,99,9,99,9","09960,5,99999,9",,,,,"MET065METAR EGUY 171350Z 31012KT 9999 FEW015 FEW070 MS01/MS06 Q996 BLU;",
"03566099999","2010-12-17T14:50:00","4","52.357167","-0.107833","41.14","WYTON, UK","FM-15","EGUY ","V020","310,1,N,0041,1","22000,1,9,N","011265,1,N,1","-0020,1","-0060,1","99999,9","02,5,+00750,1,99,9",,,,"02,99,1,99,9,99,9,99999,9,99,9,99,9","09959,1,99999,9",,,,,"MET057METAR EGUY 171450Z 31008KT 9999 FEW025 M02/M06 Q0996 BLU;",
"03566099999","2010-12-19T08:50:00","4","52.357167","-0.107833","41.14","WYTON, UK","FM-15","EGUY ","V020","070,1,N,0021,1","06600,1,C,N","011265,1,N,1","-0050,1","-0060,1","99999,9","02,5,+00900,1,99,9","07,5,+06600,1,99,9",,,"07,99,1,99,9,99,9,99999,9,99,9,99,9","09949,1,99999,9",,,,,"MET064METAR EGUY 190850Z 07004KT 9999 FEW030 BKN220 M05/M06 Q0995 BLU;",
"03566099999","2010-12-19T10:50:00","4","52.357167","-0.107833","41.14","WYTON, UK","FM-15","EGUY ","V020","040,1,N,0041,1","99999,9,9,Y","009900,1,N,1","-0040,1","-0060,1","99999,9",,,,,,"09949,1,99999,9",,,,,"MET051METAR EGUY 191050Z 04008KT CAVOK M04/M06 Q0995 BLU;",
"03566099999","2010-12-20T07:50:00","4","52.357167","-0.107833","41.14","WYTON, UK","FM-15","EGUY ","V020","050,1,N,0010,1","00015,1,C,N","000250,1,N,1","-0090,1","-0100,1","99999,9","09,1,+00015,1,99,9",,,,"09,99,1,99,9,99,9,00025,1,99,9,99,9","10020,1,99999,9","49,1",,,,"MET061METAR EGUY 200750Z 05002KT 0250 FZFG VV/// M09/M10 Q1002 RED;",
"03566099999","2010-12-20T08:50:00","4","52.357167","-0.107833","41.14","WYTON, UK","FM-15","EGUY ","V020","999,9,C,0000,1","22000,1,9,N","000200,1,N,1","-0090,1","-0100,1","99999,9",,,,,,"10031,1,99999,9","48,1",,,,"MET055METAR EGUY 200850Z 00000KT 0200 FZFG M09/M10 Q1003 RED;",
"03566099999","2010-12-21T07:50:00","4","52.357167","-0.107833","41.14","WYTON, UK","FM-15","EGUY ","V020","030,1,N,0031,1","22000,1,9,N","011265,1,N,1","-0040,1","-0050,1","99999,9","02,5,+01500,1,99,9",,,,"02,99,1,99,9,99,9,99999,9,99,9,99,9","10031,1,99999,9",,,,,"MET062METAR EGUY 210750Z 03006KT 9999 FEW050 M04/M05 Q1003 BLACKBLU;",
"03566099999","2010-12-21T08:50:00","4","52.357167","-0.107833","41.14","WYTON, UK","FM-15","EGUY ","V020","360,1,N,0031,1","22000,1,9,N","008000,1,N,1","-0040,1","-0040,1","99999,9","04,5,+01500,1,99,9",,,,"04,99,1,99,9,99,9,99999,9,99,9,99,9","10041,1,99999,9","05,1",,,,"MET065METAR EGUY 210850Z 36006KT 8000 HZ SCT050 M04/M04 Q1004 BLACKBLU;",
"03566099999","2010-12-22T07:50:00","4","52.357167","-0.107833","41.14","WYTON, UK","FM-15","EGUY ","V020","350,1,N,0036,1","00360,1,C,N","011265,1,N,1","+0000,1","-0010,1","99999,9","08,5,+00360,1,99,9",,,,"08,99,1,99,9,99,9,99999,9,99,9,99,9","10051,1,99999,9",,,,,"MET057METAR EGUY 220750Z 35007KT 9999 OVC012 M00/M01 Q1005 GRN;",
"03566099999","2010-12-22T08:50:00","4","52.357167","-0.107833","41.14","WYTON, UK","FM-15","EGUY ","V020","350,1,N,0031,1","00360,1,C,N","011265,1,N,1","+0000,1","-0010,1","99999,9","08,5,+00360,1,99,9",,,,"08,99,1,99,9,99,9,99999,9,99,9,99,9","10061,1,99999,9",,,,,"MET057METAR EGUY 220850Z 35006KT 9999 OVC012 M00/M01 Q1006 GRN;",
