"STATION","DATE","SOURCE","LATITUDE","LONGITUDE","ELEVATION","NAME","REPORT_TYPE","CALL_SIGN","QUALITY_CONTROL","WND","CIG","VIS","TMP","DEW","SLP","GA1","GA2","GA3","GF1","KA1","MA1","MW1","MW2","MW3","OC1","REM","EQD"
"03658499999","2010-01-28T11:50:00","4","51.439083","-2.286389","180.74","COLERNE, UK","FM-15","EGUO ","V020","300,1,N,0062,1","01050,1,C,N","011265,1,N,1","+0060,1","+0020,1","99999,9","02,5,+00540,1,99,9","07,5,+01050,1,99,9",,"07,99,1,99,9,99,9,99999,9,99,9,99,9",,"10159,1,99999,9",,,,,"MET062METAR EGUO 281150Z 30012KT 9999 FEW018 BKN035 06/02 Q1016 BLU;",
"03658499999","2010-01-28T12:50:00","4","51.439083","-2.286389","180.74","COLERNE, UK","FM-15","EGUO ","V020","310,1,N,0041,1","00900,1,C,N","011265,1,N,1","+0060,1","+0010,1","99999,9","02,5,+00540,1,99,9","07,5,+00900,1,99,9",,"07,99,1,99,9,99,9,99999,9,99,9,99,9",,"10149,1,99999,9",,,,,"MET062METAR EGUO 281250Z 31008KT 9999 FEW018 BKN030 06/01 Q1015 BLU;",
"03658499999","2010-01-28T13:50:00","4","51.439083","-2.286389","180.74","COLERNE, UK","FM-15","EGUO ","V020","310,1,N,0051,1","01200,1,C,N","011265,1,N,1","+0070,1","+0010,1","99999,9","02,5,+00600,1,99,9","07,5,+01200,1,99,9",,"07,99,1,99,9,99,9,99999,9,99,9,99,9",,"10139,1,99999,9",,,,,"MET062METAR EGUO 281350Z 31010KT 9999 FEW020 BKN040 07/01 Q1014 BLU;",
"03658499999","2010-01-28T14:50:00","4","51.439083","-2.286389","180.74","COLERNE, UK","FM-15","EGUO ","V020","300,1,N,0077,1","01200,1,C,N","011265,1,N,1","+0060,1","+0010,1","99999,9","04,5,+00600,1,99,9","07,5,+01200,1,99,9",,"07,99,1,99,9,99,9,99999,9,99,9,99,9",,"10129,1,99999,9",,,,,"MET062METAR EGUO 281450Z 30015KT 9999 SCT020 BKN040 06/01 Q1013 WHT;",
"03658499999","2010-01-29T07:50:00","4","51.439083","-2.286389","180.74","COLERNE, UK","FM-15","EGUO ","V020","360,1,N,0129,1","00120,1,C,N","011265,1,N,1","+0050,1","+0030,1","99999,9","07,5,+00120,1,99,9",,,"07,99,1,99,9,99,9,99999,9,99,9,99,9",,"09919,1,99999,9","51,1","61,1",,,"MET062METAR EGUO 290750Z 36025KT 9999 -RADZ BKN004 05/03 Q0992 YLO2;",
"03658499999","2010-01-29T09:50:00","4","51.439083","-2.286389","180.74","COLERNE, UK","FM-15","EGUO ","V020","340,1,N,0082,1","00240,1,C,N","011265,1,N,1","+0040,1","+0020,1","99999,9","07,5,+00240,1,99,9",,,"07,99,1,99,9,99,9,99999,9,99,9,99,9",,"09929,1,99999,9",,,,,"MET055METAR EGUO 290950Z 34016KT 9999 BKN008 04/02 Q0993 GRN;",
"03658499999","2010-01-29T10:50:00","4","51.439083","-2.286389","180.74","COLERNE, UK","FM-15","EGUO ","V020","350,1,N,0067,1","00330,1,C,N","011265,1,N,1","+0040,1","+0030,1","99999,9","02,5,+00180,1,99,9","07,5,+00330,1,99,9",,"07,99,1,99,9,99,9,99999,9,99,9,99,9",,"09939,1,99999,9",,,,,"MET062METAR EGUO 291050Z 35013KT 9999 FEW006 BKN011 04/03 Q0994 GRN;",
"03658499999","2010-01-29T11:50:00","4","51.439083","-2.286389","180.74","COLERNE, UK","FM-15","EGUO ","V020","340,1,N,0082,1","99999,9,C,N","011265,1,N,1","+0050,1","+0020,1","99999,9","02,5,+00180,1,99,9","04,5,+00450,1,99,9",,"04,99,1,99,9,99,9,99999,9,99,9,99,9",,"09939,1,99999,9",,,,,"MET062METAR EGUO 291150Z 34016KT 9999 FEW006 SCT015 05/02 Q0994 WHT;","P01 004503SCOCIG"
"03658499999","2010-01-29T12:50:00","4","51.439083","-2.286389","180.74","COLERNE, UK","FM-15","EGUO ","V020","350,1,N,0077,1","01800,1,C,N","011265,1,N,1","+0040,1","+0010,1","99999,9","04,5,+00750,1,99,9","07,5,+01800,1,99,9",,"07,99,1,99,9,99,9,99999,9,99,9,99,9",,"09939,1,99999,9",,,,,"MET062METAR EGUO 291250Z 35015KT 9999 SCT025 BKN060 04/01 Q0994 BLU;",
"03658499999","2010-01-29T13:50:00","4","51.439083","-2.286389","180.74","COLERNE, UK","FM-15","EGUO ","V020","350,1,N,0098,1","22000,1,9,N","011265,1,N,1","+0040,1","+0010,1","99999,9","04,5,+00750,1,99,9",,,"04,99,1,99,9,99,9,99999,9,99,9,99,9",,"09939,1,99999,9",,,,,"MET055METAR EGUO 291350Z 35019KT 9999 SCT025 04/01 Q0994 BLU;",
"03658499999","2010-01-29T14:50:00","4","51.439083","-2.286389","180.74","COLERNE, UK","FM-15","EGUO ","V020","350,1,N,0098,1","99999,9,C,N","011265,1,N,1","+0020,1","+0000,1","99999,9","02,5,+00600,1,99,9","04,5,+00750,1,99,9",,"04,99,1,99,9,99,9,99999,9,99,9,99,9",,"09949,1,99999,9",,,,,"MET062METAR EGUO 291450Z 35019KT 9999 FEW020 SCT025 02/00 Q0995 BLU;","P01 007503SCOCIG"
"03658499999","2010-01-29T15:50:00","4","51.439083","-2.286389","180.74","COLERNE, UK","FM-15","EGUO ","V020","350,1,N,0062,1","00240,1,C,N","011265,1,N,1","+0020,1","-0020,1","99999,9","02,5,+00150,1,99,9","04,5,+00240,1,99,9","07,5,+00750,1,99,9","07,99,1,99,9,99,9,99999,9,99,9,99,9",,"09959,1,99999,9","86,5",,,,"MET082METAR EGUO 291550Z 35012KT 9999 4000NE SHSN FEW005 SCT008 BKN025 02/M02 Q0996 GRN;",
"03658499999","2010-01-30T07:50:00","4","51.439083","-2.286389","180.74","COLERNE, UK","FM-15","EGUO ","V020","340,1,N,0051,1","22000,1,9,N","011265,1,N,1","-0020,1","-0030,1","99999,9","02,5,+01200,1,99,9",,,"02,99,1,99,9,99,9,99999,9,99,9,99,9",,"10010,1,99999,9",,,,,"MET062METAR EGUO 300750Z 34010KT 9999 FEW040 M02/M03 Q1001 BLACKBLU;",
"03658499999","2010-01-30T08:50:00","4","51.439083","-2.286389","180.74","COLERNE, UK","FM-15","EGUO ","V020","350,1,N,0077,1","99999,9,9,Y","009900,1,N,1","-0020,1","-0020,1","99999,9",,,,,,"10010,1,99999,9",,,,,"MET056METAR EGUO 300850Z 35015KT CAVOK M02/M02 Q1001 BLACKBLU;",
"03658499999","2010-01-30T11:50:00","4","51.439083","-2.286389","180.74","COLERNE, UK","FM-15","EGUO ","V020","350,1,N,0062,1","22000,1,9,N","011265,1,N,1","+0010,1","+9999,9","99999,9","02,5,+01200,1,99,9",,,"02,99,1,99,9,99,9,99999,9,99,9,99,9",,"10031,1,99999,9",,,,,"MET055METAR EGUO 301150Z 35012KT 9999 FEW040 01/// Q1003 BLU;",
"03658499999","2010-01-30T12:50:00","4","51.439083","-2.286389","180.74","COLERNE, UK","FM-15","EGUO ","V020","340,1,N,0051,1","22000,1,9,N","011265,1,N,1","+0010,1","-0040,1","99999,9","02,5,+01200,1,99,9",,,"02,99,1,99,9,99,9,99999,9,99,9,99,9",,"10031,1,99999,9",,,,,"MET056METAR EGUO 301250Z 34010KT 9999 FEW040 01/M04 Q1003 BLU;",
"03658499999","2010-01-30T13:50:00","4","51.439083","-2.286389","180.74","COLERNE, UK","FM-15","EGUO ","V020","310,1,N,0041,1","22000,1,9,N","011265,1,N,1","+0020,1","-0050,1","99999,9","02,5,+00840,1,99,9",,,"02,99,1,99,9,99,9,99999,9,99,9,99,9",,"10031,1,99999,9",,,,,"MET056METAR EGUO 301350Z 31008KT 9999 FEW028 02/M05 Q1003 BLU;",
"03658499999","2010-01-30T14:50:00","4","51.439083","-2.286389","180.74","COLERNE, UK","FM-15","EGUO ","V020","300,1,N,0036,1","22000,1,9,N","011265,1,N,1","+0020,1","-0050,1","99999,9","02,5,+00900,1,99,9",,,"02,99,1,99,9,99,9,99999,9,99,9,99,9",,"10031,1,99999,9",,,,,"MET056METAR EGUO 301450Z 30007KT 9999 FEW030 02/M05 Q1003 BLU;",
"03658499999","2010-01-30T15:50:00","4","51.439083","-2.286389","180.74","COLERNE, UK","FM-15","EGUO ","V020","330,1,N,0036,1","22000,1,9,N","011265,1,N,1","+0020,1","-0050,1","99999,9","02,5,+00840,1,99,9",,,"02,99,1,99,9,99,9,99999,9,99,9,99,9",,"10041,1,99999,9",,,,,"MET056METAR EGUO 301550Z 33007KT 9999 FEW028 02/M05 Q1004 BLU;",
"03658499999","2010-01-31T07:50:00","4","51.439083","-2.286389","180.74","COLERNE, UK","FM-15","EGUO ","V020","270,1,N,0041,1","22000,1,9,N","011265,1,N,1","+0000,1","+9999,9","99999,9","04,5,+00900,1,99,9",,,"04,99,1,99,9,99,9,99999,9,99,9,99,9",,"10051,1,99999,9",,,,,"MET056METAR EGUO 310750Z 27008KT 9999 SCT030 M00/// Q1005 BLU;",
"03658499999","2010-01-31T10:50:00","4","51.439083","-2.286389","180.74","COLERNE, UK","FM-15","EGUO ","V020","250,1,N,0026,1","22000,1,9,N","011265,1,N,1","+0010,1","-0020,1","99999,9","02,5,+00900,1,99,9",,,"02,99,1,99,9,99,9,99999,9,99,9,99,9",,"10061,1,99999,9",,,,,"MET056METAR EGUO 311050Z 25005KT 9999 FEW030 01/M02 Q1006 BLU;",
"03658499999","2010-01-31T11:50:00","4","51.439083","-2.286389","180.74","COLERNE, UK","FM-15","EGUO ","V020","270,1,N,0041,1","02250,5,C,N","011265,1,N,1","+0020,1","-0010,1","99999,9","02,5,+00750,1,99,9","07,5,+02250,5,99,9",,"07,99,1,99,9,99,9,99999,9,99,9,99,9",,"10061,1,99999,9",,,,,"MET063METAR EGUO 311150Z 27008KT 9999 FEW025 BKN075 02/M01 Q1006 BLU;",
"03658499999","2010-01-31T12:50:00","4","51.439083","-2.286389","180.74","COLERNE, UK","FM-15","EGUO ","V020","250,1,N,0041,1","02400,1,C,N","011265,1,N,1","+0020,1","-0020,1","99999,9","02,5,+00750,1,99,9","07,5,+02400,1,99,9",,"07,99,1,99,9,99,9,99999,9,99,9,99,9",,"10061,1,99999,9",,,,,"MET063METAR EGUO 311250Z 25008KT 9999 FEW025 BKN080 02/M02 Q1006 BLU;",
"03658499999","2010-01-31T13:50:00","4","51.439083","-2.286389","180.74","COLERNE, UK","FM-15","EGUO ","V020","260,1,N,0036,1","22000,1,9,N","011265,1,N,1","+0020,1","-0010,1","99999,9","02,5,+00750,1,99,9",,,"02,99,1,99,9,99,9,99999,9,99,9,99,9",,"10051,1,99999,9",,,,,"MET056METAR EGUO 311350Z 26007KT 9999 FEW025 02/M01 Q1005 BLU;",
"03658499999","2010-02-03T07:50:00","4","51.439083","-2.286389","180.74","COLERNE, UK","FM-15","EGUO ","V020","070,1,N,0026,1","00900,1,C,N","003000,1,N,1","+0010,1","+0000,1","99999,9","07,5,+00900,1,99,9",,,"07,99,1,99,9,99,9,99999,9,99,9,99,9",,"10091,1,99999,9","71,1",,,,"MET060METAR EGUO 030750Z 07005KT 3000 -SN BKN030 01/00 Q1009 YLO1;",
"03658499999","2010-02-03T08:50:00","4","51.439083","-2.286389","180.74","COLERNE, UK","FM-15","EGUO ","V020","150,1,N,0026,1","00120,1,C,N","004000,1,N,1","+0010,1","+0010,1","99999,9","07,5,+00120,1,99,9",,,"07,99,1,99,9,99,9,99999,9,99,9,99,9",,"10091,1,99999,9","10,1",,,,"MET059METAR EGUO 030850Z 15005KT 4000 BR BKN004 01/01 Q1009 YLO2;",
"03658499999","2010-02-03T09:50:00","4","51.439083","-2.286389","180.74","COLERNE, UK","FM-15","EGUO ","V020","150,1,N,0026,1","00120,1,C,N","004000,1,N,1","+0010,1","+0010,1","99999,9","07,5,+00120,1,99,9",,,"07,99,1,99,9,99,9,99999,9,99,9,99,9",,"10091,1,99999,9","10,1",,,,"MET059METAR EGUO 030950Z 15005KT 4000 BR BKN004 01/01 Q1009 YLO2;",
"03658499999","2010-02-03T10:50:00","4","51.439083","-2.286389","180.74","COLERNE, UK","FM-15","EGUO ","V020","140,1,N,0026,1","00090,1,C,N","002000,1,N,1","+0020,1","+0010,1","99999,9","08,5,+00090,1,99,9",,,"08,99,1,99,9,99,9,99999,9,99,9,99,9",,"10091,1,99999,9","10,1",,,,"MET059METAR EGUO 031050Z 14005KT 2000 BR OVC003 02/01 Q1009 YLO2;",
"03658499999","2010-02-03T11:50:00","4","51.439083","-2.286389","180.74","COLERNE, UK","FM-15","EGUO ","V020","140,1,N,0036,1","00015,1,C,N","001000,1,N,1","+0030,1","+0020,1","99999,9","09,1,+00015,1,99,9",,,"09,99,1,99,9,99,9,00025,1,99,9,99,9",,"10091,1,99999,9","10,1",,,,"MET057METAR EGUO 031150Z 14007KT 1000 BR VV/// 03/02 Q1009 RED;",
"03658499999","2010-02-04T12:50:00","4","51.439083","-2.286389","180.74","COLERNE, UK","FM-15","EGUO ","V020","180,1,N,0062,1","00240,1,C,N","007000,1,N,1","+0070,1","+0070,1","99999,9","04,5,+00090,1,99,9","08,5,+00240,1,99,9",,"08,99,1,99,9,99,9,99999,9,99,9,99,9",,"10031,1,99999,9","05,1",,,,"MET066METAR EGUO 041250Z 18012KT 7000 HZ SCT003 OVC008 07/07 Q1003 YLO2;",
"03658499999","2010-02-04T13:50:00","4","51.439083","-2.286389","180.74","COLERNE, UK","FM-15","EGUO ","V020","180,1,N,0051,1","00210,1,C,N","003800,1,N,1","+0070,1","+0070,1","99999,9","04,5,+00120,1,99,9","08,5,+00210,1,99,9",,"08,99,1,99,9,99,9,99999,9,99,9,99,9",,"10031,1,99999,9","63,1",,,,"MET066METAR EGUO 041350Z 18010KT 3800 RA SCT004 OVC007 07/07 Q1003 YLO2;",
"03658499999","2010-02-04T14:50:00","4","51.439083","-2.286389","180.74","COLERNE, UK","FM-15","EGUO ","V020","170,1,N,0041,1","02400,1,C,N","008000,1,N,1","+0070,1","+0060,1","99999,9","04,5,+00180,1,99,9","08,5,+02400,1,99,9",,"08,99,1,99,9,99,9,99999,9,99,9,99,9",,"10020,1,99999,9","05,1",,,,"MET066METAR EGUO 041450Z 17008KT 8000 HZ SCT006 OVC080 07/06 Q1002 YLO1;",
"03658499999","2010-02-04T15:50:00","4","51.439083","-2.286389","180.74","COLERNE, UK","FM-15","EGUO ","V020","140,1,N,0062,1","01200,1,C,N","006000,1,N,1","+0070,1","+0060,1","99999,9","04,5,+00240,1,99,9","07,5,+01200,1,99,9",,"07,99,1,99,9,99,9,99999,9,99,9,99,9",,"10010,1,99999,9","05,1",,,,"MET065METAR EGUO 041550Z 14012KT 6000 HZ SCT008 BKN040 07/06 Q1001 GRN;",
"03658499999","2010-02-05T08:50:00","4","51.439083","-2.286389","180.74","COLERNE, UK","FM-15","EGUO ","V020","200,1,N,0051,1","22000,1,9,N","008000,1,N,1","+0060,1","+0050,1","99999,9","04,5,+01200,1,99,9",,,"04,99,1,99,9,99,9,99999,9,99,9,99,9",,"09990,1,99999,9","05,1",,,,"MET058METAR EGUO 050850Z 20010KT 8000 HZ SCT040 06/05 Q0999 BLU;",
"03658499999","2010-02-05T09:50:00","4","51.439083","-2.286389","180.74","COLERNE, UK","FM-15","EGUO ","V020","220,1,N,0041,1","22000,1,9,N","008000,1,N,1","+0060,1","+0050,1","99999,9","02,5,+02400,1,99,9",,,"02,99,1,99,9,99,9,99999,9,99,9,99,9",,"10000,1,99999,9","05,1",,,,"MET058METAR EGUO 050950Z 22008KT 8000 HZ FEW080 06/05 Q1000 BLU;",
"03658499999","2010-02-05T11:50:00","4","51.439083","-2.286389","180.74","COLERNE, UK","FM-15","EGUO ","V020","210,1,N,0026,1","22000,1,9,N","011265,1,N,1","+0090,1","+0040,1","99999,9","04,5,+00600,1,99,9",,,"04,99,1,99,9,99,9,99999,9,99,9,99,9",,"10000,1,99999,9",,,,,"MET055METAR EGUO 051150Z 21005KT 9999 SCT020 09/04 Q1000 BLU;",
"03658499999","2010-02-05T12:50:00","4","51.439083","-2.286389","180.74","COLERNE, UK","FM-15","EGUO ","V020","210,1,N,0026,1","00600,1,C,N","011265,1,N,1","+0080,1","+0050,1","99999,9","07,5,+00600,1,99,9",,,"07,99,1,99,9,99,9,99999,9,99,9,99,9",,"10010,1,99999,9","16,1",,,,"MET066METAR EGUO 051250Z 21005KT 9999 5000S VCSH BKN020 08/05 Q1001 WHT;",
"03658499999","2010-02-05T13:50:00","4","51.439083","-2.286389","180.74","COLERNE, UK","FM-15","EGUO ","V020","200,1,N,0031,1","22000,1,9,N","011265,1,N,1","+0080,1","+0040,1","99999,9","04,5,+00750,1,99,9",,,"04,99,1,99,9,99,9,99999,9,99,9,99,9",,"10010,1,99999,9",,,,,"MET055METAR EGUO 051350Z 20006KT 9999 SCT025 08/04 Q1001 BLU;",
"03658499999","2010-02-05T14:50:00","4","51.439083","-2.286389","180.74","COLERNE, UK","FM-15","EGUO ","V020","190,1,N,0072,1","22000,1,9,N","011265,1,N,1","+0090,1","+0040,1","99999,9","02,5,+00600,1,99,9",,,"02,99,1,99,9,99,9,99999,9,99,9,99,9",,"10010,1,99999,9",,,,,"MET055METAR EGUO 051450Z 19014KT 9999 FEW020 09/04 Q1001 BLU;",
"03658499999","2010-02-05T15:50:00","4","51.439083","-2.286389","180.74","COLERNE, UK","FM-15","EGUO ","V020","200,1,N,0051,1","22000,1,9,N","011265,1,N,1","+0080,1","+0030,1","99999,9","04,5,+00900,1,99,9",,,"04,99,1,99,9,99,9,99999,9,99,9,99,9",,"10010,1,99999,9",,,,,"MET055METAR EGUO 051550Z 20010KT 9999 SCT030 08/03 Q1001 BLU;",
"03658499999","2010-02-06T08:50:00","4","51.439083","-2.286389","180.74","COLERNE, UK","FM-15","EGUO ","V020","010,1,N,0041,1","22000,1,9,N","005000,1,N,1","+0030,1","+0020,1","99999,9","04,5,+01500,1,99,9",,,"04,99,1,99,9,99,9,99999,9,99,9,99,9",,"10108,1,99999,9","05,1",,,,"MET058METAR EGUO 060850Z 01008KT 5000 HZ SCT050 03/02 Q1011 WHT;",
"03658499999","2010-02-06T09:50:00","4","51.439083","-2.286389","180.74","COLERNE, UK","FM-15","EGUO ","V020","030,1,N,0046,1","22000,1,9,N","005000,1,N,1","+0050,1","+0030,1","99999,9","02,5,+00210,1,99,9",,,"02,99,1,99,9,99,9,99999,9,99,9,99,9",,"10129,1,99999,9","05,1",,,,"MET058METAR EGUO 060950Z 03009KT 5000 HZ FEW007 05/03 Q1013 WHT;",
"03658499999","2010-02-06T10:50:00","4","51.439083","-2.286389","180.74","COLERNE, UK","FM-15","EGUO ","V020","010,1,N,0062,1","22000,1,9,N","005000,1,N,1","+0060,1","+0030,1","99999,9","02,5,+00210,1,99,9",,,"02,99,1,99,9,99,9,99999,9,99,9,99,9",,"10139,1,99999,9","05,1",,,,"MET058METAR EGUO 061050Z 01012KT 5000 HZ FEW007 06/03 Q1014 WHT;",
"03658499999","2010-02-06T11:50:00","4","51.439083","-2.286389","180.74","COLERNE, UK","FM-15","EGUO ","V020","360,1,N,0062,1","00090,1,C,N","004000,1,N,1","+0050,1","+0040,1","99999,9","07,5,+00090,1,99,9",,,"07,99,1,99,9,99,9,99999,9,99,9,99,9",,"10149,1,99999,9","10,1",,,,"MET059METAR EGUO 061150Z 36012KT 4000 BR BKN003 05/04 Q1015 YLO2;",
"03658499999","2010-02-10T07:50:00","4","51.439083","-2.286389","180.74","COLERNE, UK","FM-15","EGUO ","V020","360,1,N,0062,1","99999,9,C,N","011265,1,N,1","+0010,1","-0010,1","99999,9","02,5,+00300,1,99,9","04,5,+01350,1,99,9",,"04,99,1,99,9,99,9,99999,9,99,9,99,9",,"10169,1,99999,9",,,,,"MET063METAR EGUO 100750Z 36012KT 9999 FEW010 SCT045 01/M01 Q1017 BLU;","P01 013503SCOCIG"
"03658499999","2010-02-10T08:50:00","4","51.439083","-2.286389","180.74","COLERNE, UK","FM-15","EGUO ","V020","360,1,N,0062,1","99999,9,9,Y","009900,1,N,1","+0010,1","-0020,1","99999,9",,,,,,"10169,1,99999,9",,,,,"MET050METAR EGUO 100850Z 36012KT CAVOK 01/M02 Q1017 BLU;",
"03658499999","2010-02-10T09:50:00","4","51.439083","-2.286389","180.74","COLERNE, UK","FM-15","EGUO ","V020","360,1,N,0051,1","22000,1,9,N","011265,1,N,1","+0020,1","-0020,1","99999,9","02,5,+00750,1,99,9",,,"02,99,1,99,9,99,9,99999,9,99,9,99,9",,"10169,1,99999,9",,,,,"MET056METAR EGUO 100950Z 36010KT 9999 FEW025 02/M02 Q1017 BLU;",
"03658499999","2010-02-10T10:50:00","4","51.439083","-2.286389","180.74","COLERNE, UK","FM-15","EGUO ","V020","010,1,N,0077,1","00840,1,C,N","011265,1,N,1","+0020,1","-0030,1","99999,9","02,5,+00450,1,99,9","07,5,+00840,1,99,9",,"07,99,1,99,9,99,9,99999,9,99,9,99,9",,"10180,1,99999,9","16,1",,,,"MET068METAR EGUO 101050Z 01015KT 9999 VCSH FEW015 BKN028 02/M03 Q1018 BLU;",
"03658499999","2010-02-10T11:50:00","4","51.439083","-2.286389","180.74","COLERNE, UK","FM-15","EGUO ","V020","030,1,N,0067,1","22000,1,9,N","011265,1,N,1","+0020,1","-0050,1","99999,9","02,5,+00450,1,99,9",,,"02,99,1,99,9,99,9,99999,9,99,9,99,9",,"10180,1,99999,9",,,,,"MET056METAR EGUO 101150Z 03013KT 9999 FEW015 02/M05 Q1018 BLU;",
"03658499999","2010-02-10T13:50:00","4","51.439083","-2.286389","180.74","COLERNE, UK","FM-15","EGUO ","V020","030,1,N,0041,1","00840,1,C,N","011265,1,N,1","+0010,1","-0020,1","99999,9","07,5,+00840,1,99,9",,,"07,99,1,99,9,99,9,99999,9,99,9,99,9",,"10180,1,99999,9",,,,,"MET056METAR EGUO 101350Z 03008KT 9999 BKN028 01/M02 Q1018 BLU;",
"03658499999","2010-02-10T14:50:00","4","51.439083","-2.286389","180.74","COLERNE, UK","FM-15","EGUO ","V020","060,1,N,0041,1","22000,1,9,N","011265,1,N,1","+0020,1","-0010,1","99999,9","04,5,+00750,1,99,9",,,"04,99,1,99,9,99,9,99999,9,99,9,99,9",,"10180,1,99999,9",,,,,"MET056METAR EGUO 101450Z 06008KT 9999 SCT025 02/M01 Q1018 BLU;",
"03658499999","2010-02-10T15:50:00","4","51.439083","-2.286389","180.74","COLERNE, UK","FM-15","EGUO ","V020","060,1,N,0057,1","22000,1,9,N","011265,1,N,1","-0010,1","-0010,1","99999,9","02,5,+00750,1,99,9",,,"02,99,1,99,9,99,9,99999,9,99,9,99,9",,"10190,1,99999,9",,,,,"MET057METAR EGUO 101550Z 06011KT 9999 FEW025 M01/M01 Q1019 BLU;",
"03658499999","2010-02-11T07:50:00","4","51.439083","-2.286389","180.74","COLERNE, UK","FM-15","EGUO ","V020","360,1,N,0051,1","99999,9,9,Y","009900,1,N,1","-0030,1","-0030,1","99999,9",,,,,,"10230,1,99999,9",,,,,"MET051METAR EGUO 110750Z 36010KT CAVOK M03/M03 Q1023 BLU;",
"03658499999","2010-02-11T09:50:00","4","51.439083","-2.286389","180.74","COLERNE, UK","FM-15","EGUO ","V020","010,1,N,0062,1","99999,9,9,Y","009900,1,N,1","-0010,1","-0030,1","99999,9",,,,,,"10230,1,99999,9",,,,,"MET051METAR EGUO 110950Z 01012KT CAVOK M01/M03 Q1023 BLU;",
"03658499999","2010-02-11T11:50:00","4","51.439083","-2.286389","180.74","COLERNE, UK","FM-15","EGUO ","V020","020,1,N,0062,1","01200,1,C,N","011265,1,N,1","+0010,1","-0020,1","99999,9","02,5,+00450,1,99,9","07,5,+01200,1,99,9",,"07,99,1,99,9,99,9,99999,9,99,9,99,9",,"10240,1,99999,9",,,,,"MET063METAR EGUO 111150Z 02012KT 9999 FEW015 BKN040 01/M02 Q1024 BLU;",
"03658499999","2010-02-11T13:50:00","4","51.439083","-2.286389","180.74","COLERNE, UK","FM-15","EGUO ","V020","030,1,N,0103,1","22000,1,9,N","011265,1,N,1","+0020,1","+0010,1","99999,9","04,5,+00900,1,99,9",,,"04,99,1,99,9,99,9,99999,9,99,9,99,9",,"10230,1,99999,9",,,,,"MET055METAR EGUO 111350Z 03020KT 9999 SCT030 02/01 Q1023 BLU;",
"03658499999","2010-02-12T07:50:00","4","51.439083","-2.286389","180.74","COLERNE, UK","FM-15","EGUO ","V020","010,1,N,0051,1","99999,9,C,N","004500,1,N,1","+0010,1","+0000,1","99999,9","02,5,+00540,1,99,9","04,5,+02100,1,99,9",,"04,99,1,99,9,99,9,99999,9,99,9,99,9",,"10240,1,99999,9","05,1",,,,"MET066METAR EGUO 120750Z 01010KT 4500 HZ FEW018 SCT070 01/M00 Q1024 GRN;","P01 021003SCOCIG"
"03658499999","2010-02-12T08:50:00","4","51.439083","-2.286389","180.74","COLERNE, UK","FM-15","EGUO ","V020","360,1,N,0051,1","99999,9,C,N","005000,1,N,1","+0010,1","-0010,1","99999,9","02,5,+00300,1,99,9","04,5,+02100,1,99,9",,"04,99,1,99,9,99,9,99999,9,99,9,99,9",,"10240,1,99999,9","05,1",,,,"MET066METAR EGUO 120850Z 36010KT 5000 HZ FEW010 SCT070 01/M01 Q1024 WHT;","P01 021003SCOCIG"
"03658499999","2010-02-12T09:50:00","4","51.439083","-2.286389","180.74","COLERNE, UK","FM-15","EGUO ","V020","999,9,9,9999,9","00750,5,9,N","000100,1,N,1","+0020,1","+0000,1","99999,9","04,5,+00270,5,99,9","07,5,+00750,5,99,9",,,,"10240,1,99999,9",,,,,"MET064METAR EGUO 120950Z 0100KT 5000 HZ SCT009 BKN025 02/00 Q1024 GRN;",
"03658499999","2010-02-12T10:50:00","4","51.439083","-2.286389","180.74","COLERNE, UK","FM-15","EGUO ","V020","010,1,N,0031,1","99999,9,C,N","005000,1,N,1","+0030,1","+0010,1","99999,9","02,5,+00240,1,99,9","04,5,+00420,1,99,9",,"04,99,1,99,9,99,9,99999,9,99,9,99,9",,"10240,1,99999,9","05,1",,,,"MET065METAR EGUO 121050Z 01006KT 5000 HZ FEW008 SCT014 03/01 Q1024 GRN;","P01 004203SCOCIG"
"03658499999","2010-02-12T12:50:00","4","51.439083","-2.286389","180.74","COLERNE, UK","FM-15","EGUO ","V020","010,1,N,0067,1","00300,1,C,N","011265,1,N,1","+0030,1","+0010,1","99999,9","07,5,+00300,1,99,9",,,"07,99,1,99,9,99,9,99999,9,99,9,99,9",,"10240,1,99999,9",,,,,"MET055METAR EGUO 121250Z 01013KT 9999 BKN010 03/01 Q1024 GRN;",
"03658499999","2010-02-12T14:50:00","4","51.439083","-2.286389","180.74","COLERNE, UK","FM-15","EGUO ","V020","030,1,N,0051,1","00750,1,C,N","011265,1,N,1","+0040,1","+0010,1","99999,9","02,5,+00450,1,99,9","07,5,+00750,1,99,9",,"07,99,1,99,9,99,9,99999,9,99,9,99,9",,"10240,1,99999,9",,,,,"MET062METAR EGUO 121450Z 03010KT 9999 FEW015 BKN025 04/01 Q1024 BLU;",
"03658499999","2010-02-13T07:50:00","4","51.439083","-2.286389","180.74","COLERNE, UK","FM-15","EGUO ","V020","050,1,N,0051,1","00900,1,C,N","011265,1,N,1","+0000,1","-0010,1","99999,9","02,5,+00600,1,99,9","07,5,+00900,1,99,9",,"07,99,1,99,9,99,9,99999,9,99,9,99,9",,"10240,1,99999,9",,,,,"MET063METAR EGUO 130750Z 05010KT 9999 FEW020 BKN030 00/M01 Q1024 BLU;",
"03658499999","2010-02-13T11:50:00","4","51.439083","-2.286389","180.74","COLERNE, UK","FM-15","EGUO ","V020","020,1,N,0051,1","00750,1,C,N","011265,1,N,1","+0030,1","-0030,1","99999,9","02,5,+00540,1,99,9","07,5,+00750,1,99,9",,"07,99,1,99,9,99,9,99999,9,99,9,99,9",,"10240,1,99999,9",,,,,"MET063METAR EGUO 131150Z 02010KT 9999 FEW018 BKN025 03/M03 Q1024 BLU;",
"03658499999","2010-02-13T14:50:00","4","51.439083","-2.286389","180.74","COLERNE, UK","FM-15","EGUO ","V020","010,1,N,0051,1","00750,1,C,N","011265,1,N,1","+0030,1","-0020,1","99999,9","02,5,+00600,1,99,9","07,5,+00750,1,99,9",,"07,99,1,99,9,99,9,99999,9,99,9,99,9",,"10220,1,99999,9",,,,,"MET063METAR EGUO 131450Z 01010KT 9999 FEW020 BKN025 03/M02 Q1022 BLU;",
"03658499999","2010-02-14T08:50:00","4","51.439083","-2.286389","180.74","COLERNE, UK","FM-15","EGUO ","V020","330,1,N,0026,1","00720,1,C,N","004200,1,N,1","+0020,1","+0010,1","99999,9","04,5,+00450,1,99,9","08,5,+00720,1,99,9",,"08,99,1,99,9,99,9,99999,9,99,9,99,9",,"10190,1,99999,9","05,1",,,,"MET065METAR EGUO 140850Z 33005KT 4200 HZ SCT015 OVC024 02/01 Q1019 GRN;",
"03658499999","2010-02-17T09:50:00","4","51.439083","-2.286389","180.74","COLERNE, UK","FM-15","EGUO ","V020","070,1,N,0026,1","00120,1,C,N","003500,1,N,1","+0020,1","+0020,1","99999,9","04,5,+00060,1,99,9","07,5,+00120,1,99,9",,"07,99,1,99,9,99,9,99999,9,99,9,99,9",,"09898,1,99999,9","10,1",,,,"MET065METAR EGUO 170950Z 07005KT 3500 BR SCT002 BKN004 02/02 Q0990 AMB;",
"03658499999","2010-02-17T10:50:00","4","51.439083","-2.286389","180.74","COLERNE, UK","FM-15","EGUO ","V020","110,1,N,0031,1","00060,1,C,N","001500,1,N,1","+0030,1","+0030,1","99999,9","07,5,+00060,1,99,9","08,5,+00120,1,99,9",,"08,99,1,99,9,99,9,99999,9,99,9,99,9",,"09898,1,99999,9","10,1",,,,"MET065METAR EGUO 171050Z 11006KT 1500 BR BKN002 OVC004 03/03 Q0990 AMB;",
"03658499999","2010-02-17T11:50:00","4","51.439083","-2.286389","180.74","COLERNE, UK","FM-15","EGUO ","V020","140,1,N,0041,1","00360,1,C,N","002000,1,N,1","+0040,1","+0030,1","99999,9","04,5,+00060,1,99,9","07,5,+00360,1,99,9",,"07,99,1,99,9,99,9,99999,9,99,9,99,9",,"09898,1,99999,9","10,1",,,,"MET065METAR EGUO 171150Z 14008KT 2000 BR SCT002 BKN012 04/03 Q0990 AMB;",
"03658499999","2010-02-19T13:50:00","4","51.439083","-2.286389","180.74","COLERNE, UK","FM-15","EGUO ","V020","270,1,N,0041,1","00750,1,C,N","011265,1,N,1","+0040,1","-0010,1","99999,9","07,5,+00750,1,99,9",,,"07,99,1,99,9,99,9,99999,9,99,9,99,9",,"09949,1,99999,9",,,,,"MET056METAR EGUO 191350Z 27008KT 9999 BKN025 04/M01 Q0995 BLU;",
"03658499999","2010-02-19T14:50:00","4","51.439083","-2.286389","180.74","COLERNE, UK","FM-15","EGUO ","V020","270,1,N,0031,1","00660,1,C,N","011265,1,N,1","+0040,1","+0000,1","99999,9","07,5,+00660,1,99,9",,,"07,99,1,99,9,99,9,99999,9,99,9,99,9",,"09949,1,99999,9",,,,,"MET056METAR EGUO 191450Z 27006KT 9999 BKN022 04/M00 Q0995 WHT;",
"03658499999","2010-02-19T15:50:00","4","51.439083","-2.286389","180.74","COLERNE, UK","FM-15","EGUO ","V020","250,1,N,0051,1","22000,1,9,N","011265,1,N,1","+0040,1","+0020,1","99999,9","04,5,+00600,1,99,9",,,"04,99,1,99,9,99,9,99999,9,99,9,99,9",,"09949,1,99999,9","16,1",,,,"MET067METAR EGUO 191550Z 25010KT 9999 4000SE VCSH SCT020 04/02 Q0995 GRN;",
"03658499999","2010-02-20T08:50:00","4","51.439083","-2.286389","180.74","COLERNE, UK","FM-15","EGUO ","V020","270,1,N,0026,1","99999,9,C,N","011265,1,N,1","+0000,1","-0010,1","99999,9","02,5,+00600,1,99,9","04,5,+04500,1,99,9",,"04,99,1,99,9,99,9,99999,9,99,9,99,9",,"09980,1,99999,9",,,,,"MET063METAR EGUO 200850Z 27005KT 9999 FEW020 SCT150 00/M01 Q0998 BLU;","P01 045003SCOCIG"
"03658499999","2010-02-20T09:50:00","4","51.439083","-2.286389","180.74","COLERNE, UK","FM-15","EGUO ","V020","250,1,N,0026,1","22000,1,9,N","011265,1,N,1","+0020,1","-0010,1","99999,9","02,5,+00750,1,99,9",,,"02,99,1,99,9,99,9,99999,9,99,9,99,9",,"09980,1,99999,9",,,,,"MET056METAR EGUO 200950Z 25005KT 9999 FEW025 02/M01 Q0998 BLU;",
"03658499999","2010-02-20T10:50:00","4","51.439083","-2.286389","180.74","COLERNE, UK","FM-15","EGUO ","V020","260,1,N,0026,1","99999,9,C,N","011265,1,N,1","+0030,1","+0000,1","99999,9","02,5,+00180,1,99,9","04,5,+00750,1,99,9",,"04,99,1,99,9,99,9,99999,9,99,9,99,9",,"09980,1,99999,9",,,,,"MET062METAR EGUO 201050Z 26005KT 9999 FEW006 SCT025 03/00 Q0998 BLU;","P01 007503SCOCIG"
"03658499999","2010-02-20T11:50:00","4","51.439083","-2.286389","180.74","COLERNE, UK","FM-15","EGUO ","V020","270,1,N,0026,1","22000,1,9,N","011265,1,N,1","+0040,1","+0010,1","99999,9","04,5,+00750,1,99,9",,,"04,99,1,99,9,99,9,99999,9,99,9,99,9",,"09980,1,99999,9",,,,,"MET055METAR EGUO 201150Z 27005KT 9999 SCT025 04/01 Q0998 BLU;",
"03658499999","2010-02-20T12:50:00","4","51.439083","-2.286389","180.74","COLERNE, UK","FM-15","EGUO ","V020","230,1,N,0026,1","00750,1,C,N","011265,1,N,1","+0040,1","-0020,1","99999,9","07,5,+00750,1,99,9",,,"07,99,1,99,9,99,9,99999,9,99,9,99,9",,"09970,1,99999,9",,,,,"MET056METAR EGUO 201250Z 23005KT 9999 BKN025 04/M02 Q0997 BLU;",
"03658499999","2010-02-20T13:50:00","4","51.439083","-2.286389","180.74","COLERNE, UK","FM-15","EGUO ","V020","280,1,N,0031,1","22000,1,9,N","011265,1,N,1","+0040,1","-0020,1","99999,9","04,5,+00750,1,99,9",,,"04,99,1,99,9,99,9,99999,9,99,9,99,9",,"09970,1,99999,9",,,,,"MET056METAR EGUO 201350Z 28006KT 9999 SCT025 04/M02 Q0997 BLU;",
"03658499999","2010-02-20T15:50:00","4","51.439083","-2.286389","180.74","COLERNE, UK","FM-15","EGUO ","V020","999,9,C,0000,1","22000,1,9,N","011265,1,N,1","+0050,1","-0030,1","99999,9","04,5,+01050,1,99,9",,,"04,99,1,99,9,99,9,99999,9,99,9,99,9",,"09970,1,99999,9",,,,,"MET056METAR EGUO 201550Z 00000KT 9999 SCT035 05/M03 Q0997 BLU;",
"03658499999","2010-02-21T07:50:00","4","51.439083","-2.286389","180.74","COLERNE, UK","FM-15","EGUO ","V020","210,1,N,0041,1","99999,9,C,N","011265,1,N,1","+0020,1","+0020,1","99999,9","04,5,+00120,1,99,9","04,5,+00600,1,99,9",,"04,99,1,99,9,99,9,99999,9,99,9,99,9",,"09919,1,99999,9","61,1",,,,"MET067METAR EGUO 210750Z 21008KT 9999 -RA SCT004 SCT020 02/02 Q0992 YLO2;","P01 006003SCOCIG"
"03658499999","2010-02-21T08:50:00","4","51.439083","-2.286389","180.74","COLERNE, UK","FM-15","EGUO ","V020","210,1,N,0026,1","00450,1,C,N","006000,1,N,1","+0030,1","+0020,1","99999,9","04,5,+00090,1,99,9","07,5,+00450,1,99,9",,"07,99,1,99,9,99,9,99999,9,99,9,99,9",,"09919,1,99999,9",,,,,"MET063METAR EGUO 210850Z 21005KT 6000 SCT003 BKN015 03/02 Q0992 YLO2;",
"03658499999","2010-02-21T09:50:00","4","51.439083","-2.286389","180.74","COLERNE, UK","FM-15","EGUO ","V020","220,1,N,0041,1","00240,1,C,N","007000,1,N,1","+0030,1","+0030,1","99999,9","04,5,+00090,1,99,9","07,5,+00240,1,99,9",,"07,99,1,99,9,99,9,99999,9,99,9,99,9",,"09919,1,99999,9","10,1",,,,"MET066METAR EGUO 210950Z 22008KT 7000 BR SCT003 BKN008 03/03 Q0992 YLO2;",
"03658499999","2010-02-21T10:50:00","4","51.439083","-2.286389","180.74","COLERNE, UK","FM-15","EGUO ","V020","250,1,N,0041,1","00450,1,C,N","011265,1,N,1","+0030,1","+0020,1","99999,9","04,5,+00210,1,99,9","07,5,+00450,1,99,9",,"07,99,1,99,9,99,9,99999,9,99,9,99,9",,"09919,1,99999,9",,,,,"MET062METAR EGUO 211050Z 25008KT 9999 SCT007 BKN015 03/02 Q0992 GRN;",
"03658499999","2010-02-21T11:50:00","4","51.439083","-2.286389","180.74","COLERNE, UK","FM-15","EGUO ","V020","240,1,N,0072,1","00510,1,C,N","011265,1,N,1","+0050,1","+0020,1","99999,9","02,5,+00300,1,99,9","07,5,+00510,1,99,9",,"07,99,1,99,9,99,9,99999,9,99,9,99,9",,"09919,1,99999,9",,,,,"MET062METAR EGUO 211150Z 24014KT 9999 FEW010 BKN017 05/02 Q0992 WHT;",
"03658499999","2010-02-21T12:50:00","4","51.439083","-2.286389","180.74","COLERNE, UK","FM-15","EGUO ","V020","270,1,N,0062,1","00540,1,C,N","011265,1,N,1","+0050,1","+0010,1","99999,9","02,5,+00300,1,99,9","07,5,+00540,1,99,9",,"07,99,1,99,9,99,9,99999,9,99,9,99,9",,"09919,1,99999,9",,,,,"MET062METAR EGUO 211250Z 27012KT 9999 FEW010 BKN018 05/01 Q0992 WHT;",
"03658499999","2010-02-21T13:50:00","4","51.439083","-2.286389","180.74","COLERNE, UK","FM-15","EGUO ","V020","250,1,N,0031,1","22000,1,9,N","011265,1,N,1","+0070,1","+0020,1","99999,9","04,5,+00600,1,99,9",,,"04,99,1,99,9,99,9,99999,9,99,9,99,9",,"09909,1,99999,9",,,,,"MET055METAR EGUO 211350Z 25006KT 9999 SCT020 07/02 Q0991 WHT;",
"03658499999","2010-02-21T14:50:00","4","51.439083","-2.286389","180.74","COLERNE, UK","FM-15","EGUO ","V020","280,1,N,0026,1","22000,1,9,N","011265,1,N,1","+0060,1","+0010,1","99999,9","04,5,+00600,1,99,9",,,"04,99,1,99,9,99,9,99999,9,99,9,99,9",,"09909,1,99999,9",,,,,"MET055METAR EGUO 211450Z 28005KT 9999 SCT020 06/01 Q0991 WHT;",
"03658499999","2010-02-21T15:50:00","4","51.439083","-2.286389","180.74","COLERNE, UK","FM-15","EGUO ","V020","240,1,N,0041,1","22000,1,9,N","011265,1,N,1","+0060,1","+9999,9","99999,9","04,5,+00690,1,99,9",,,"04,99,1,99,9,99,9,99999,9,99,9,99,9",,"09910,1,99999,9",,,,,"MET057METAR EGUO 211550Z 24008KT 9999 SCT023 06/MS01 Q0991 BLU;",
"03658499999","2010-02-24T07:50:00","4","51.439083","-2.286389","180.74","COLERNE, UK","FM-15","EGUO ","V020","170,1,N,0026,1","22000,1,9,N","000000,1,N,1","+0050,1","+0050,1","99999,9",,,,,,"09900,1,99999,9",,,,,"MET058METAR EGUO 240750Z 17005KT 00000 FG VV/// 05/05 Q0990 RED;",
"03658499999","2010-02-24T08:50:00","4","51.439083","-2.286389","180.74","COLERNE, UK","FM-15","EGUO ","V020","150,1,N,0031,1","00015,1,9,N","000000,1,N,1","+0060,1","+0060,1","99999,9","09,1,+00015,1,99,9",,,"09,99,1,99,9,99,9,00025,1,99,9,99,9",,"09898,1,99999,9","45,1",,,,"MET057METAR EGUO 240850Z 15006KT 0000 FG VV/// 06/06 Q0990 RED;",
"03658499999","2010-02-24T09:50:00","4","51.439083","-2.286389","180.74","COLERNE, UK","FM-15","EGUO ","V020","150,1,N,0041,1","00060,1,C,N","004000,1,N,1","+0070,1","+0070,1","99999,9","07,5,+00060,1,99,9",,,"07,99,1,99,9,99,9,99999,9,99,9,99,9",,"09898,1,99999,9","10,1",,,,"MET058METAR EGUO 240950Z 15008KT 4000 BR BKN002 07/07 Q0990 AMB;",
"03658499999","2010-02-25T07:50:00","4","51.439083","-2.286389","180.74","COLERNE, UK","FM-15","EGUO ","V020","180,1,N,0031,1","00030,1,C,N","002500,1,N,1","+0060,1","+0050,1","99999,9","08,5,+00030,1,99,9",,,"08,99,1,99,9,99,9,99999,9,99,9,99,9",,"09898,1,99999,9","10,1",,,,"MET058METAR EGUO 250750Z 18006KT 2500 BR OVC001 06/05 Q0990 RED;",
"03658499999","2010-02-25T08:50:00","4","51.439083","-2.286389","180.74","COLERNE, UK","FM-15","EGUO ","V020","180,1,N,0026,1","00060,1,C,N","003000,1,N,1","+0060,1","+0060,1","99999,9","08,5,+00060,1,99,9",,,"08,99,1,99,9,99,9,99999,9,99,9,99,9",,"09898,1,99999,9","10,1",,,,"MET058METAR EGUO 250850Z 18005KT 3000 BR OVC002 06/06 Q0990 AMB;",
"03658499999","2010-02-25T09:50:00","4","51.439083","-2.286389","180.74","COLERNE, UK","FM-15","EGUO ","V020","220,1,N,0036,1","00540,1,C,N","011265,1,N,1","+0060,1","+0050,1","99999,9","04,5,+00360,1,99,9","08,5,+00540,1,99,9",,"08,99,1,99,9,99,9,99999,9,99,9,99,9",,"09898,1,99999,9",,,,,"MET062METAR EGUO 250950Z 22007KT 9999 SCT012 OVC018 06/05 Q0990 GRN;",
"03658499999","2010-02-25T12:50:00","4","51.439083","-2.286389","180.74","COLERNE, UK","FM-15","EGUO ","V020","120,1,N,0031,1","99999,9,C,N","011265,1,N,1","+0070,1","+0040,1","99999,9","02,5,+00450,1,99,9","04,5,+01050,1,99,9",,"04,99,1,99,9,99,9,99999,9,99,9,99,9",,"09871,1,99999,9",,,,,"MET062METAR EGUO 251250Z 12006KT 9999 FEW015 SCT035 07/04 Q0987 BLU;","P01 010503SCOCIG"
"03658499999","2010-02-25T13:50:00","4","51.439083","-2.286389","180.74","COLERNE, UK","FM-15","EGUO ","V020","090,1,N,0041,1","22000,1,9,N","011265,1,N,1","+0070,1","+0040,1","99999,9","04,5,+00360,1,99,9",,,"04,99,1,99,9,99,9,99999,9,99,9,99,9",,"99999,9,99999,9","61,1",,,,"MET059METAR EGUO 251350Z 09008KT 9999 -RA SCT012 07/04 Q0996 GRN;","Q01+099593APOA  Q02 099603APOA  "
"03658499999","2010-02-25T14:50:00","4","51.439083","-2.286389","180.74","COLERNE, UK","FM-15","EGUO ","V020","090,1,N,0041,1","00360,1,C,N","007000,1,N,1","+0070,1","+0050,1","99999,9","02,5,+00240,1,99,9","07,5,+00360,1,99,9",,"07,99,1,99,9,99,9,99999,9,99,9,99,9",,"09841,1,99999,9","63,1",,,,"MET065METAR EGUO 251450Z 09008KT 7000 RA FEW008 BKN012 07/05 Q0984 GRN;",
"03658499999","2010-02-26T07:50:00","4","51.439083","-2.286389","180.74","COLERNE, UK","FM-15","EGUO ","V020","260,1,N,0062,1","99999,9,C,N","011265,1,N,1","+0030,1","+0000,1","99999,9","02,5,+00750,1,99,9","04,5,+01500,1,99,9",,"04,99,1,99,9,99,9,99999,9,99,9,99,9",,"09882,1,99999,9",,,,,"MET062METAR EGUO 260750Z 26012KT 9999 FEW025 SCT050 03/00 Q0988 BLU;","P01 015003SCOCIG"
"03658499999","2010-02-26T08:50:00","4","51.439083","-2.286389","180.74","COLERNE, UK","FM-15","EGUO ","V020","270,1,N,0077,1","01050,1,C,N","011265,1,N,1","+0030,1","+0010,1","99999,9","02,5,+00600,1,99,9","07,5,+01050,1,99,9",,"07,99,1,99,9,99,9,99999,9,99,9,99,9",,"09892,1,99999,9",,,,,"MET062METAR EGUO 260850Z 27015KT 9999 FEW020 BKN035 03/01 Q0989 BLU;",
"03658499999","2010-02-26T09:50:00","4","51.439083","-2.286389","180.74","COLERNE, UK","FM-15","EGUO ","V020","270,1,N,0082,1","00900,1,C,N","011265,1,N,1","+0040,1","+0010,1","99999,9","07,5,+00900,1,99,9",,,"07,99,1,99,9,99,9,99999,9,99,9,99,9",,"09898,1,99999,9",,,,,"MET055METAR EGUO 260950Z 27016KT 9999 BKN030 04/01 Q0990 BLU;",
"03658499999","2010-02-26T10:50:00","4","51.439083","-2.286389","180.74","COLERNE, UK","FM-15","EGUO ","V020","280,1,N,0098,1","00750,1,C,N","011265,1,N,1","+0050,1","+0000,1","99999,9","07,5,+00750,1,99,9",,,"07,99,1,99,9,99,9,99999,9,99,9,99,9",,"09909,1,99999,9",,,,"0159,1","MET058METAR EGUO 261050Z 28019G31KT 9999 BKN025 05/00 Q0991 BLU;",
"03658499999","2010-02-26T11:50:00","4","51.439083","-2.286389","180.74","COLERNE, UK","FM-15","EGUO ","V020","270,1,N,0077,1","22000,1,9,N","011265,1,N,1","+0060,1","+0010,1","99999,9","02,5,+00600,1,99,9",,,"02,99,1,99,9,99,9,99999,9,99,9,99,9",,"09929,1,99999,9",,,,,"MET055METAR EGUO 261150Z 27015KT 9999 FEW020 06/01 Q0993 BLU;",
"03658499999","2010-02-26T12:50:00","4","51.439083","-2.286389","180.74","COLERNE, UK","FM-15","EGUO ","V020","270,1,N,0103,1","22000,1,9,N","011265,1,N,1","+0050,1","+0010,1","99999,9","02,5,+00600,1,99,9",,,"02,99,1,99,9,99,9,99999,9,99,9,99,9",,"09939,1,99999,9","16,1",,,"0165,1","MET063METAR EGUO 261250Z 27020G32KT 9999 VCSH FEW020 05/01 Q0994 BLU;",
"03658499999","2010-02-26T14:50:00","4","51.439083","-2.286389","180.74","COLERNE, UK","FM-15","EGUO ","V020","240,1,N,0103,1","22000,1,9,N","011265,1,N,1","+0060,1","-0010,1","99999,9","04,5,+00840,1,99,9",,,"04,99,1,99,9,99,9,99999,9,99,9,99,9",,"09949,1,99999,9",,,,"0154,1","MET059METAR EGUO 261450Z 24020G30KT 9999 SCT028 06/M01 Q0995 BLU;",
"03658499999","2010-02-27T07:50:00","4","51.439083","-2.286389","180.74","COLERNE, UK","FM-15","EGUO ","V020","180,1,N,0041,1","99999,9,C,N","011265,1,N,1","+0040,1","+0040,1","99999,9","02,5,+00240,1,99,9","04,5,+00900,1,99,9",,"04,99,1,99,9,99,9,99999,9,99,9,99,9",,"09929,1,99999,9",,,,,"MET062METAR EGUO 270750Z 18008KT 9999 FEW008 SCT030 04/04 Q0993 BLU;","P01 009003SCOCIG"
"03658499999","2010-02-27T08:50:00","4","51.439083","-2.286389","180.74","COLERNE, UK","FM-15","EGUO ","V020","170,1,N,0026,1","00240,1,C,N","011265,1,N,1","+0050,1","+0040,1","99999,9","02,5,+00180,1,99,9","04,5,+00240,1,99,9","07,5,+00750,1,99,9","07,99,1,99,9,99,9,99999,9,99,9,99,9",,"09939,1,99999,9",,,,,"MET069METAR EGUO 270850Z 17005KT 9999 FEW006 SCT008 BKN025 05/04 Q0994 GRN;",
"03658499999","2010-02-27T09:50:00","4","51.439083","-2.286389","180.74","COLERNE, UK","FM-15","EGUO ","V020","180,1,N,0051,1","99999,9,C,N","011265,1,N,1","+0070,1","+0050,1","99999,9","02,5,+00240,1,99,9","04,5,+01050,1,99,9",,"04,99,1,99,9,99,9,99999,9,99,9,99,9",,"09929,1,99999,9",,,,,"MET062METAR EGUO 270950Z 18010KT 9999 FEW008 SCT035 07/05 Q0993 BLU;","P01 010503SCOCIG"
"03658499999","2010-02-27T10:50:00","4","51.439083","-2.286389","180.74","COLERNE, UK","FM-15","EGUO ","V020","170,1,N,0026,1","00360,1,C,N","011265,1,N,1","+0060,1","+0040,1","99999,9","02,5,+00180,1,99,9","04,5,+00360,1,99,9","07,5,+00750,1,99,9","07,99,1,99,9,99,9,99999,9,99,9,99,9",,"09929,1,99999,9","16,1",,,,"MET080METAR EGUO 271050Z 17005KT 9999 4000S VCSH FEW006 SCT012 BKN025 06/04 Q0993 GRN;",
"03658499999","2010-02-27T11:50:00","4","51.439083","-2.286389","180.74","COLERNE, UK","FM-15","EGUO ","V020","160,1,N,0026,1","00540,1,C,N","007000,1,N,1","+0060,1","+0050,1","99999,9","07,5,+00540,1,99,9",,,"07,99,1,99,9,99,9,99999,9,99,9,99,9",,"09929,1,99999,9","10,1",,,,"MET058METAR EGUO 271150Z 16005KT 7000 BR BKN018 06/05 Q0993 WHT;",
"03658499999","2010-02-27T15:50:00","4","51.439083","-2.286389","180.74","COLERNE, UK","FM-15","EGUO ","V020","220,1,N,0026,1","99999,9,C,N","011265,1,N,1","+0070,1","+0060,1","99999,9","02,5,+00360,1,99,9","04,5,+00900,1,99,9",,"04,99,1,99,9,99,9,99999,9,99,9,99,9",,"09898,1,99999,9",,,,,"MET062METAR EGUO 271550Z 22005KT 9999 FEW012 SCT030 07/06 Q0990 BLU;","P01 009003SCOCIG"
"03658499999","2010-02-28T08:50:00","4","51.439083","-2.286389","180.74","COLERNE, UK","FM-15","EGUO ","V020","330,1,N,0062,1","00120,1,C,N","001500,1,N,1","+0030,1","+0020,1","99999,9","08,5,+00120,1,99,9",,,"08,99,1,99,9,99,9,99999,9,99,9,99,9",,"09871,1,99999,9","61,1",,,,"MET059METAR EGUO 280850Z 33012KT 1500 -RA OVC004 03/02 Q0987 AMB;",
"03658499999","2010-02-28T09:50:00","4","51.439083","-2.286389","180.74","COLERNE, UK","FM-15","EGUO ","V020","330,1,N,0077,1","00210,1,C,N","004500,1,N,1","+0030,1","+0020,1","99999,9","07,5,+00210,1,99,9",,,"07,99,1,99,9,99,9,99999,9,99,9,99,9",,"09882,1,99999,9","51,1",,,,"MET059METAR EGUO 280950Z 33015KT 4500 -DZ BKN007 03/02 Q0988 GRN;",
"03658499999","2010-02-28T10:50:00","4","51.439083","-2.286389","180.74","COLERNE, UK","FM-15","EGUO ","V020","330,1,N,0062,1","00240,1,C,N","005000,1,N,1","+0030,1","+0020,1","99999,9","02,5,+00150,1,99,9","07,5,+00240,1,99,9",,"07,99,1,99,9,99,9,99999,9,99,9,99,9",,"09898,1,99999,9","51,1",,,,"MET066METAR EGUO 281050Z 33012KT 5000 -DZ FEW005 BKN008 03/02 Q0990 GRN;",
"03658499999","2010-02-28T11:50:00","4","51.439083","-2.286389","180.74","COLERNE, UK","FM-15","EGUO ","V020","310,1,N,0077,1","00360,1,C,N","005000,1,N,1","+0030,1","+0030,1","99999,9","04,5,+00240,1,99,9","07,5,+00360,1,99,9",,"07,99,1,99,9,99,9,99999,9,99,9,99,9",,"09919,1,99999,9","61,1",,,,"MET066METAR EGUO 281150Z 31015KT 5000 -RA SCT008 BKN012 03/03 Q0992 GRN;",
"03658499999","2010-02-28T13:50:00","4","51.439083","-2.286389","180.74","COLERNE, UK","FM-15","EGUO ","V020","300,1,N,0041,1","00600,1,C,N","011265,1,N,1","+0050,1","+0020,1","99999,9","02,5,+00300,1,99,9","07,5,+00600,1,99,9",,"07,99,1,99,9,99,9,99999,9,99,9,99,9",,"09949,1,99999,9",,,,,"MET062METAR EGUO 281350Z 30008KT 9999 FEW010 BKN020 05/02 Q0995 WHT;",
"03658499999","2010-02-28T14:50:00","4","51.439083","-2.286389","180.74","COLERNE, UK","FM-15","EGUO ","V020","280,1,N,0041,1","00600,1,C,N","011265,1,N,1","+0050,1","+0010,1","99999,9","07,5,+00600,1,99,9",,,"07,99,1,99,9,99,9,99999,9,99,9,99,9",,"09949,1,99999,9",,,,,"MET055METAR EGUO 281450Z 28008KT 9999 BKN020 05/01 Q0995 WHT;",
"03658499999","2010-03-03T07:50:00","4","51.439083","-2.286389","180.74","COLERNE, UK","FM-15","EGUO ","V020","080,1,N,0036,1","03000,1,C,N","008000,1,N,1","+0010,1","-0010,1","99999,9","04,5,+00300,1,99,9","07,5,+03000,1,99,9",,"07,99,1,99,9,99,9,99999,9,99,9,99,9",,"10210,1,99999,9","05,1",,,,"MET066METAR EGUO 030750Z 08007KT 8000 HZ SCT010 BKN100 01/M01 Q1021 GRN;",
"03658499999","2010-03-03T08:50:00","4","51.439083","-2.286389","180.74","COLERNE, UK","FM-15","EGUO ","V020","090,1,N,0051,1","04500,1,C,N","008000,1,N,1","+0010,1","-0020,1","99999,9","04,5,+00300,1,99,9","07,5,+04500,1,99,9",,"07,99,1,99,9,99,9,99999,9,99,9,99,9",,"10210,1,99999,9","05,1",,,,"MET066METAR EGUO 030850Z 09010KT 8000 HZ SCT010 BKN150 01/M02 Q1021 GRN;",
"03658499999","2010-03-03T09:50:00","4","51.439083","-2.286389","180.74","COLERNE, UK","FM-15","EGUO ","V020","090,1,N,0072,1","00750,1,C,N","011265,1,N,1","+0020,1","+0000,1","99999,9","07,5,+00750,1,99,9",,,"07,99,1,99,9,99,9,99999,9,99,9,99,9",,"10210,1,99999,9",,,,,"MET056METAR EGUO 030950Z 09014KT 9999 BKN025 02/M00 Q1021 BLU;",
"03658499999","2010-03-03T10:50:00","4","51.439083","-2.286389","180.74","COLERNE, UK","FM-15","EGUO ","V020","090,1,N,0051,1","03000,1,C,N","011265,1,N,1","+0030,1","-0020,1","99999,9","04,5,+00750,1,99,9","07,5,+03000,1,99,9",,"07,99,1,99,9,99,9,99999,9,99,9,99,9",,"10200,1,99999,9",,,,,"MET063METAR EGUO 031050Z 09010KT 9999 SCT025 BKN100 03/M02 Q1020 BLU;",
"03658499999","2010-03-03T11:50:00","4","51.439083","-2.286389","180.74","COLERNE, UK","FM-15","EGUO ","V020","090,1,N,0077,1","03000,1,C,N","011265,1,N,1","+0040,1","-0020,1","99999,9","04,5,+00750,1,99,9","07,5,+03000,1,99,9",,"07,99,1,99,9,99,9,99999,9,99,9,99,9",,"10200,1,99999,9",,,,,"MET063METAR EGUO 031150Z 09015KT 9999 SCT025 BKN100 04/M02 Q1020 BLU;",
"03658499999","2010-03-03T12:50:00","4","51.439083","-2.286389","180.74","COLERNE, UK","FM-15","EGUO ","V020","090,1,N,0051,1","03000,1,C,N","011265,1,N,1","+0040,1","-0030,1","99999,9","04,5,+00750,1,99,9","07,5,+03000,1,99,9","07,5,+04500,1,99,9","07,99,1,99,9,99,9,99999,9,99,9,99,9",,"10200,1,99999,9",,,,,"MET070METAR EGUO 031250Z 09010KT 9999 SCT025 BKN100 BKN150 04/M03 Q1020 BLU;",
"03658499999","2010-03-03T13:50:00","4","51.439083","-2.286389","180.74","COLERNE, UK","FM-15","EGUO ","V020","090,1,N,0051,1","04500,1,C,N","011265,1,N,1","+0050,1","-0030,1","99999,9","04,5,+01050,1,99,9","07,5,+04500,1,99,9",,"07,99,1,99,9,99,9,99999,9,99,9,99,9",,"10190,1,99999,9",,,,,"MET063METAR EGUO 031350Z 09010KT 9999 SCT035 BKN150 05/M03 Q1019 BLU;",
"03658499999","2010-03-03T15:50:00","4","51.439083","-2.286389","180.74","COLERNE, UK","FM-15","EGUO ","V020","080,1,N,0077,1","99999,9,9,Y","009900,1,N,1","+0050,1","-0030,1","99999,9",,,,,,"10169,1,99999,9",,,,,"MET050METAR EGUO 031550Z 08015KT CAVOK 05/M03 Q1017 BLU;",
"03658499999","2010-03-04T07:50:00","4","51.439083","-2.286389","180.74","COLERNE, UK","FM-15","EGUO ","V020","040,1,N,0087,1","00210,1,C,N","004000,1,N,1","+0000,1","-0010,1","99999,9","07,5,+00210,1,99,9","08,5,+00300,1,99,9",,"08,99,1,99,9,99,9,99999,9,99,9,99,9",,"10220,1,99999,9","10,1",,,,"MET066METAR EGUO 040750Z 04017KT 4000 BR BKN007 OVC010 00/M01 Q1022 GRN;",
"03658499999","2010-03-04T09:50:00","4","51.439083","-2.286389","180.74","COLERNE, UK","FM-15","EGUO ","V020","060,1,N,0087,1","00300,1,C,N","011265,1,N,1","+0020,1","-0010,1","99999,9","07,5,+00300,1,99,9",,,"07,99,1,99,9,99,9,99999,9,99,9,99,9",,"10240,1,99999,9",,,,,"MET056METAR EGUO 040950Z 06017KT 9999 BKN010 02/M01 Q1024 GRN;",
"03658499999","2010-03-04T10:50:00","4","51.439083","-2.286389","180.74","COLERNE, UK","FM-15","EGUO ","V020","050,1,N,0072,1","03000,1,C,N","011265,1,N,1","+0040,1","-0010,1","99999,9","04,5,+00360,1,99,9","07,5,+03000,1,99,9",,"07,99,1,99,9,99,9,99999,9,99,9,99,9",,"10251,1,99999,9",,,,,"MET063METAR EGUO 041050Z 05014KT 9999 SCT012 BKN100 04/M01 Q1025 GRN;",
"03658499999","2010-03-04T11:50:00","4","51.439083","-2.286389","180.74","COLERNE, UK","FM-15","EGUO ","V020","060,1,N,0077,1","03000,1,C,N","011265,1,N,1","+0050,1","-0020,1","99999,9","02,5,+00450,1,99,9","07,5,+03000,1,99,9",,"07,99,1,99,9,99,9,99999,9,99,9,99,9",,"10251,1,99999,9",,,,,"MET063METAR EGUO 041150Z 06015KT 9999 FEW015 BKN100 05/M02 Q1025 BLU;",
"03658499999","2010-03-04T12:50:00","4","51.439083","-2.286389","180.74","COLERNE, UK","FM-15","EGUO ","V020","050,1,N,0072,1","99999,9,C,N","011265,1,N,1","+0060,1","-0030,1","99999,9","02,5,+00600,1,99,9","04,5,+03000,1,99,9",,"04,99,1,99,9,99,9,99999,9,99,9,99,9",,"10261,1,99999,9",,,,,"MET063METAR EGUO 041250Z 05014KT 9999 FEW020 SCT100 06/M03 Q1026 BLU;","P01 030003SCOCIG"
"03658499999","2010-03-04T13:50:00","4","51.439083","-2.286389","180.74","COLERNE, UK","FM-15","EGUO ","V020","060,1,N,0062,1","22000,1,9,N","011265,1,N,1","+0060,1","-0030,1","99999,9","02,5,+00900,1,99,9",,,"02,99,1,99,9,99,9,99999,9,99,9,99,9",,"10261,1,99999,9",,,,,"MET056METAR EGUO 041350Z 06012KT 9999 FEW030 06/M03 Q1026 BLU;",
"03658499999","2010-03-04T14:50:00","4","51.439083","-2.286389","180.74","COLERNE, UK","FM-15","EGUO ","V020","070,1,N,0062,1","22000,1,9,N","011265,1,N,1","+0060,1","-0040,1","99999,9","02,5,+01200,1,99,9",,,"02,99,1,99,9,99,9,99999,9,99,9,99,9",,"10261,1,99999,9",,,,,"MET056METAR EGUO 041450Z 07012KT 9999 FEW040 06/M04 Q1026 BLU;",
"03658499999","2010-03-04T15:50:00","4","51.439083","-2.286389","180.74","COLERNE, UK","FM-15","EGUO ","V020","060,1,N,0062,1","99999,9,9,Y","009900,1,N,1","+0060,1","-0030,1","99999,9",,,,,,"10271,1,99999,9",,,,,"MET050METAR EGUO 041550Z 06012KT CAVOK 06/M03 Q1027 BLU;",
"03658499999","2010-03-05T08:50:00","4","51.439083","-2.286389","180.74","COLERNE, UK","FM-15","EGUO ","V020","999,9,C,0000,1","99999,9,9,Y","009900,1,N,1","+0010,1","-0040,1","99999,9",,,,,,"10318,1,99999,9",,,,,"MET050METAR EGUO 050850Z 00000KT CAVOK 01/M04 Q1032 BLU;",
"03658499999","2010-03-05T09:50:00","4","51.439083","-2.286389","180.74","COLERNE, UK","FM-15","EGUO ","V020","290,1,N,0026,1","99999,9,9,Y","009900,1,N,1","+0030,1","-0020,1","99999,9",,,,,,"10318,1,99999,9",,,,,"MET050METAR EGUO 050950Z 29005KT CAVOK 03/M02 Q1032 BLU;",
"03658499999","2010-03-05T10:50:00","4","51.439083","-2.286389","180.74","COLERNE, UK","FM-15","EGUO ","V020","320,1,N,0026,1","99999,9,9,Y","009900,1,N,1","+0050,1","-0020,1","99999,9",,,,,,"10318,1,99999,9",,,,,"MET050METAR EGUO 051050Z 32005KT CAVOK 05/M02 Q1032 BLU;",
"03658499999","2010-03-05T11:50:00","4","51.439083","-2.286389","180.74","COLERNE, UK","FM-15","EGUO ","V020","330,1,N,0026,1","99999,9,9,Y","009900,1,N,1","+0060,1","+0040,1","99999,9",,,,,,"10312,1,99999,9",,,,,"MET049METAR EGUO 051150Z 33005KT CAVOK 06/04 Q1031 BLU;",
"03658499999","2010-03-05T15:50:00","4","51.439083","-2.286389","180.74","COLERNE, UK","FM-15","EGUO ","V020","300,1,N,0051,1","99999,9,9,Y","009900,1,N,1","+0080,1","-0030,1","99999,9",,,,,,"10291,1,99999,9",,,,,"MET050METAR EGUO 051550Z 30010KT CAVOK 08/M03 Q1029 BLU;",
"03658499999","2010-03-06T07:50:00","4","51.439083","-2.286389","180.74","COLERNE, UK","FM-15","EGUO ","V020","330,1,N,0041,1","22000,1,9,N","011265,1,N,1","+0030,1","+0010,1","99999,9","04,5,+01200,1,99,9",,,"04,99,1,99,9,99,9,99999,9,99,9,99,9",,"10271,1,99999,9",,,,,"MET055METAR EGUO 060750Z 33008KT 9999 SCT040 03/01 Q1027 BLU;",
"03658499999","2010-03-06T08:50:00","4","51.439083","-2.286389","180.74","COLERNE, UK","FM-15","EGUO ","V020","010,1,N,0036,1","01050,1,C,N","011265,1,N,1","+0040,1","+0020,1","99999,9","07,5,+01050,1,99,9",,,"07,99,1,99,9,99,9,99999,9,99,9,99,9",,"10271,1,99999,9",,,,,"MET055METAR EGUO 060850Z 01007KT 9999 BKN035 04/02 Q1027 BLU;",
"03658499999","2010-03-06T09:50:00","4","51.439083","-2.286389","180.74","COLERNE, UK","FM-15","EGUO ","V020","010,1,N,0062,1","01050,1,C,N","011265,1,N,1","+0060,1","+0030,1","99999,9","07,5,+01050,1,99,9",,,"07,99,1,99,9,99,9,99999,9,99,9,99,9",,"10271,1,99999,9",,,,,"MET055METAR EGUO 060950Z 01012KT 9999 BKN035 06/03 Q1027 BLU;",
"03658499999","2010-03-06T10:50:00","4","51.439083","-2.286389","180.74","COLERNE, UK","FM-15","EGUO ","V020","040,1,N,0062,1","00360,1,C,N","011265,1,N,1","+0060,1","+0020,1","99999,9","07,5,+00360,1,99,9",,,"07,99,1,99,9,99,9,99999,9,99,9,99,9",,"10281,1,99999,9",,,,,"MET055METAR EGUO 061050Z 04012KT 9999 BKN012 06/02 Q1028 GRN;",
"03658499999","2010-03-06T11:50:00","4","51.439083","-2.286389","180.74","COLERNE, UK","FM-15","EGUO ","V020","060,1,N,0046,1","00300,1,C,N","011265,1,N,1","+0050,1","+0020,1","99999,9","07,5,+00300,1,99,9",,,"07,99,1,99,9,99,9,99999,9,99,9,99,9",,"10281,1,99999,9",,,,,"MET055METAR EGUO 061150Z 06009KT 9999 BKN010 05/02 Q1028 GRN;",
"03658499999","2010-03-06T12:50:00","4","51.439083","-2.286389","180.74","COLERNE, UK","FM-15","EGUO ","V020","060,1,N,0051,1","00750,1,C,N","011265,1,N,1","+0050,1","+0020,1","99999,9","04,5,+00300,1,99,9","07,5,+00750,1,99,9",,"07,99,1,99,9,99,9,99999,9,99,9,99,9",,"10281,1,99999,9",,,,,"MET062METAR EGUO 061250Z 06010KT 9999 SCT010 BKN025 05/02 Q1028 GRN;",
"03658499999","2010-03-06T13:50:00","4","51.439083","-2.286389","180.74","COLERNE, UK","FM-15","EGUO ","V020","060,1,N,0051,1","00750,1,C,N","011265,1,N,1","+0050,1","+0010,1","99999,9","02,5,+00450,1,99,9","07,5,+00750,1,99,9",,"07,99,1,99,9,99,9,99999,9,99,9,99,9",,"10271,1,99999,9",,,,,"MET062METAR EGUO 061350Z 06010KT 9999 FEW015 BKN025 05/01 Q1027 BLU;",
"03658499999","2010-03-06T14:50:00","4","51.439083","-2.286389","180.74","COLERNE, UK","FM-15","EGUO ","V020","050,1,N,0036,1","00810,1,C,N","011265,1,N,1","+0060,1","+0000,1","99999,9","02,5,+00600,1,99,9","07,5,+00810,1,99,9",,"07,99,1,99,9,99,9,99999,9,99,9,99,9",,"10271,1,99999,9",,,,,"MET062METAR EGUO 061450Z 05007KT 9999 FEW020 BKN027 06/00 Q1027 BLU;",
"03658499999","2010-03-06T15:50:00","4","51.439083","-2.286389","180.74","COLERNE, UK","FM-15","EGUO ","V020","080,1,N,0051,1","22000,1,9,N","011265,1,N,1","+0060,1","-0010,1","99999,9","04,5,+00750,1,99,9",,,"04,99,1,99,9,99,9,99999,9,99,9,99,9",,"10271,1,99999,9",,,,,"MET056METAR EGUO 061550Z 08010KT 9999 SCT025 06/M01 Q1027 BLU;",
"03658499999","2010-03-07T07:50:00","4","51.439083","-2.286389","180.74","COLERNE, UK","FM-15","EGUO ","V020","070,1,N,0041,1","99999,9,9,Y","009900,1,N,1","-0040,1","-0050,1","99999,9",,,,,,"10339,1,99999,9",,,,,"MET051METAR EGUO 070750Z 07008KT CAVOK M04/M05 Q1034 BLU;",
"03658499999","2010-03-07T08:50:00","4","51.439083","-2.286389","180.74","COLERNE, UK","FM-15","EGUO ","V020","060,1,N,0026,1","99999,9,9,Y","009900,1,N,1","-0020,1","-0040,1","99999,9",,,,,,"10339,1,99999,9",,,,,"MET051METAR EGUO 070850Z 06005KT CAVOK M02/M04 Q1034 BLU;",
"03658499999","2010-03-07T09:50:00","4","51.439083","-2.286389","180.74","COLERNE, UK","FM-15","EGUO ","V020","070,1,N,0026,1","99999,9,9,Y","009900,1,N,1","-0010,1","-0040,1","99999,9",,,,,,"10339,1,99999,9",,,,,"MET051METAR EGUO 070950Z 07005KT CAVOK M01/M04 Q1034 BLU;",
"03658499999","2010-03-07T10:50:00","4","51.439083","-2.286389","180.74","COLERNE, UK","FM-15","EGUO ","V020","080,1,N,0057,1","22000,1,9,N","011265,1,N,1","+0000,1","-0010,1","99999,9","02,5,+00600,1,99,9",,,"02,99,1,99,9,99,9,99999,9,99,9,99,9",,"10339,1,99999,9",,,,,"MET056METAR EGUO 071050Z 08011KT 9999 FEW020 00/M01 Q1034 BLU;",
"03658499999","2010-03-07T12:50:00","4","51.439083","-2.286389","180.74","COLERNE, UK","FM-15","EGUO ","V020","090,1,N,0062,1","99999,9,9,Y","009900,1,N,1","+0030,1","+0020,1","99999,9",,,,,,"10329,1,99999,9",,,,,"MET049METAR EGUO 071250Z 09012KT CAVOK 03/02 Q1033 BLU;",
"03658499999","2010-03-10T07:50:00","4","51.439083","-2.286389","180.74","COLERNE, UK","FM-15","EGUO ","V020","050,1,N,0051,1","00600,1,C,N","011265,1,N,1","+0020,1","-0010,1","99999,9","07,5,+00600,1,99,9",,,"07,99,1,99,9,99,9,99999,9,99,9,99,9",,"10301,1,99999,9",,,,,"MET056METAR EGUO 100750Z 05010KT 9999 BKN020 02/M01 Q1030 WHT;",
"03658499999","2010-03-10T08:50:00","4","51.439083","-2.286389","180.74","COLERNE, UK","FM-15","EGUO ","V020","060,1,N,0082,1","00750,1,C,N","011265,1,N,1","+0030,1","-0010,1","99999,9","07,5,+00750,1,99,9",,,"07,99,1,99,9,99,9,99999,9,99,9,99,9",,"10312,1,99999,9",,,,,"MET056METAR EGUO 100850Z 06016KT 9999 BKN025 03/M01 Q1031 BLU;",
"03658499999","2010-03-10T09:50:00","4","51.439083","-2.286389","180.74","COLERNE, UK","FM-15","EGUO ","V020","060,1,N,0046,1","00600,1,C,N","011265,1,N,1","+0030,1","-0010,1","99999,9","07,5,+00600,1,99,9",,,"07,99,1,99,9,99,9,99999,9,99,9,99,9",,"10312,1,99999,9",,,,,"MET056METAR EGUO 100950Z 06009KT 9999 BKN020 03/M01 Q1031 WHT;",
"03658499999","2010-03-10T10:50:00","4","51.439083","-2.286389","180.74","COLERNE, UK","FM-15","EGUO ","V020","060,1,N,0067,1","00450,1,C,N","011265,1,N,1","+0030,1","-0010,1","99999,9","07,5,+00450,1,99,9",,,"07,99,1,99,9,99,9,99999,9,99,9,99,9",,"10301,1,99999,9",,,,,"MET056METAR EGUO 101050Z 06013KT 9999 BKN015 03/M01 Q1030 WHT;",
"03658499999","2010-03-10T11:50:00","4","51.439083","-2.286389","180.74","COLERNE, UK","FM-15","EGUO ","V020","050,1,N,0077,1","00450,1,C,N","011265,1,N,1","+0030,1","+0000,1","99999,9","07,5,+00450,1,99,9",,,"07,99,1,99,9,99,9,99999,9,99,9,99,9",,"10301,1,99999,9",,,,,"MET055METAR EGUO 101150Z 05015KT 9999 BKN015 03/00 Q1030 WHT;",
"03658499999","2010-03-10T12:50:00","4","51.439083","-2.286389","180.74","COLERNE, UK","FM-15","EGUO ","V020","040,1,N,0077,1","00450,1,C,N","011265,1,N,1","+0040,1","-0010,1","99999,9","07,5,+00450,1,99,9",,,"07,99,1,99,9,99,9,99999,9,99,9,99,9",,"10291,1,99999,9",,,,,"MET056METAR EGUO 101250Z 04015KT 9999 BKN015 04/M01 Q1029 WHT;",
"03658499999","2010-03-10T13:50:00","4","51.439083","-2.286389","180.74","COLERNE, UK","FM-15","EGUO ","V020","030,1,N,0082,1","00450,1,C,N","011265,1,N,1","+0040,1","-0010,1","99999,9","07,5,+00450,1,99,9",,,"07,99,1,99,9,99,9,99999,9,99,9,99,9",,"10291,1,99999,9",,,,,"MET056METAR EGUO 101350Z 03016KT 9999 BKN015 04/M01 Q1029 WHT;",
"03658499999","2010-03-10T14:50:00","4","51.439083","-2.286389","180.74","COLERNE, UK","FM-15","EGUO ","V020","020,1,N,0077,1","00450,1,C,N","011265,1,N,1","+0050,1","-0020,1","99999,9","07,5,+00450,1,99,9",,,"07,99,1,99,9,99,9,99999,9,99,9,99,9",,"10281,1,99999,9",,,,,"MET056METAR EGUO 101450Z 02015KT 9999 BKN015 05/M02 Q1028 WHT;",
"03658499999","2010-03-10T15:50:00","4","51.439083","-2.286389","180.74","COLERNE, UK","FM-15","EGUO ","V020","040,1,N,0077,1","00540,1,C,N","011265,1,N,1","+0050,1","-0010,1","99999,9","07,5,+00540,1,99,9",,,"07,99,1,99,9,99,9,99999,9,99,9,99,9",,"10281,1,99999,9",,,,,"MET056METAR EGUO 101550Z 04015KT 9999 BKN018 05/M01 Q1028 WHT;",
"03658499999","2010-03-11T07:50:00","4","51.439083","-2.286389","180.74","COLERNE, UK","FM-15","EGUO ","V020","020,1,N,0041,1","22000,1,9,N","007000,1,N,1","+0020,1","-0010,1","99999,9","04,5,+06600,1,99,9",,,"04,99,1,99,9,99,9,99999,9,99,9,99,9",,"10261,1,99999,9","05,1",,,,"MET059METAR EGUO 110750Z 02008KT 7000 HZ SCT220 02/M01 Q1026 WHT;",
"03658499999","2010-03-11T08:50:00","4","51.439083","-2.286389","180.74","COLERNE, UK","FM-15","EGUO ","V020","060,1,N,0036,1","22000,1,9,N","008000,1,N,1","+0020,1","-0010,1","99999,9","02,5,+06600,1,99,9",,,"02,99,1,99,9,99,9,99999,9,99,9,99,9",,"10271,1,99999,9","05,1",,,,"MET059METAR EGUO 110850Z 06007KT 8000 HZ FEW220 02/M01 Q1027 BLU;",
"03658499999","2010-03-11T09:50:00","4","51.439083","-2.286389","180.74","COLERNE, UK","FM-15","EGUO ","V020","030,1,N,0036,1","99999,9,C,N","008000,1,N,1","+0040,1","-0010,1","99999,9","02,5,+00450,1,99,9","04,5,+06600,1,99,9",,"04,99,1,99,9,99,9,99999,9,99,9,99,9",,"10261,1,99999,9","05,1",,,,"MET066METAR EGUO 110950Z 03007KT 8000 HZ FEW015 SCT220 04/M01 Q1026 BLU;","P01 066003SCOCIG"
"03658499999","2010-03-11T10:50:00","4","51.439083","-2.286389","180.74","COLERNE, UK","FM-15","EGUO ","V020","050,1,N,0067,1","22000,1,9,N","011265,1,N,1","+0060,1","-0020,1","99999,9","04,5,+00900,1,99,9",,,"04,99,1,99,9,99,9,99999,9,99,9,99,9",,"10261,1,99999,9",,,,,"MET056METAR EGUO 111050Z 05013KT 9999 SCT030 06/M02 Q1026 BLU;",
"03658499999","2010-03-11T11:50:00","4","51.439083","-2.286389","180.74","COLERNE, UK","FM-15","EGUO ","V020","020,1,N,0036,1","00900,1,C,N","011265,1,N,1","+0050,1","-0030,1","99999,9","07,5,+00900,1,99,9",,,"07,99,1,99,9,99,9,99999,9,99,9,99,9",,"10251,1,99999,9",,,,,"MET056METAR EGUO 111150Z 02007KT 9999 BKN030 05/M03 Q1025 BLU;",
"03658499999","2010-03-11T12:50:00","4","51.439083","-2.286389","180.74","COLERNE, UK","FM-15","EGUO ","V020","010,1,N,0046,1","00900,1,C,N","011265,1,N,1","+0050,1","-0030,1","99999,9","07,5,+00900,1,99,9",,,"07,99,1,99,9,99,9,99999,9,99,9,99,9",,"10251,1,99999,9",,,,,"MET056METAR EGUO 111250Z 01009KT 9999 BKN030 05/M03 Q1025 BLU;",
"03658499999","2010-03-11T13:50:00","4","51.439083","-2.286389","180.74","COLERNE, UK","FM-15","EGUO ","V020","360,1,N,0051,1","00900,1,C,N","011265,1,N,1","+0050,1","-0020,1","99999,9","07,5,+00900,1,99,9",,,"07,99,1,99,9,99,9,99999,9,99,9,99,9",,"10240,1,99999,9",,,,,"MET056METAR EGUO 111350Z 36010KT 9999 BKN030 05/M02 Q1024 BLU;",
"03658499999","2010-03-11T14:50:00","4","51.439083","-2.286389","180.74","COLERNE, UK","FM-15","EGUO ","V020","350,1,N,0051,1","00900,1,C,N","007000,1,N,1","+0050,1","-0020,1","99999,9","07,5,+00900,1,99,9",,,"07,99,1,99,9,99,9,99999,9,99,9,99,9",,"10240,1,99999,9","05,1",,,,"MET059METAR EGUO 111450Z 35010KT 7000 HZ BKN030 05/M02 Q1024 WHT;",
"03658499999","2010-03-11T15:50:00","4","51.439083","-2.286389","180.74","COLERNE, UK","FM-15","EGUO ","V020","010,1,N,0031,1","00600,1,C,N","006000,1,N,1","+0050,1","-0020,1","99999,9","04,5,+00450,1,99,9","07,5,+00600,1,99,9",,"07,99,1,99,9,99,9,99999,9,99,9,99,9",,"10240,1,99999,9","05,1",,,,"MET066METAR EGUO 111550Z 01006KT 6000 HZ SCT015 BKN020 05/M02 Q1024 WHT;",
"03658499999","2010-03-12T07:50:00","4","51.439083","-2.286389","180.74","COLERNE, UK","FM-15","EGUO ","V020","290,1,N,0041,1","01350,1,C,N","011265,1,N,1","+0040,1","+0010,1","99999,9","02,5,+00450,1,99,9","07,5,+01350,1,99,9",,"07,99,1,99,9,99,9,99999,9,99,9,99,9",,"10210,1,99999,9",,,,,"MET062METAR EGUO 120750Z 29008KT 9999 FEW015 BKN045 04/01 Q1021 BLU;",
"03658499999","2010-03-12T08:50:00","4","51.439083","-2.286389","180.74","COLERNE, UK","FM-15","EGUO ","V020","300,1,N,0031,1","01800,1,C,N","011265,1,N,1","+0050,1","+0020,1","99999,9","07,5,+01800,1,99,9",,,"07,99,1,99,9,99,9,99999,9,99,9,99,9",,"10220,1,99999,9",,,,,"MET055METAR EGUO 120850Z 30006KT 9999 BKN060 05/02 Q1022 BLU;",
"03658499999","2010-03-12T09:50:00","4","51.439083","-2.286389","180.74","COLERNE, UK","FM-15","EGUO ","V020","300,1,N,0041,1","01800,1,C,N","011265,1,N,1","+0070,1","+0030,1","99999,9","02,5,+00600,1,99,9","07,5,+01800,1,99,9",,"07,99,1,99,9,99,9,99999,9,99,9,99,9",,"10220,1,99999,9",,,,,"MET062METAR EGUO 120950Z 30008KT 9999 FEW020 BKN060 07/03 Q1022 BLU;",
"03658499999","2010-03-12T10:50:00","4","51.439083","-2.286389","180.74","COLERNE, UK","FM-15","EGUO ","V020","300,1,N,0036,1","00750,1,C,N","011265,1,N,1","+0060,1","+0030,1","99999,9","02,5,+00450,1,99,9","07,5,+00750,1,99,9",,"07,99,1,99,9,99,9,99999,9,99,9,99,9",,"10220,1,99999,9",,,,,"MET062METAR EGUO 121050Z 30007KT 9999 FEW015 BKN025 06/03 Q1022 BLU;",
"03658499999","2010-03-12T11:50:00","4","51.439083","-2.286389","180.74","COLERNE, UK","FM-15","EGUO ","V020","330,1,N,0051,1","00750,1,C,N","011265,1,N,1","+0090,1","+0010,1","99999,9","02,5,+00450,1,99,9","07,5,+00750,1,99,9",,"07,99,1,99,9,99,9,99999,9,99,9,99,9",,"10220,1,99999,9",,,,,"MET062METAR EGUO 121150Z 33010KT 9999 FEW015 BKN025 09/01 Q1022 BLU;",
"03658499999","2010-03-12T12:50:00","4","51.439083","-2.286389","180.74","COLERNE, UK","FM-15","EGUO ","V020","350,1,N,0077,1","00750,1,C,N","011265,1,N,1","+0070,1","+0030,1","99999,9","02,5,+00450,1,99,9","07,5,+00750,1,99,9",,"07,99,1,99,9,99,9,99999,9,99,9,99,9",,"10230,1,99999,9","51,1",,,,"MET066METAR EGUO 121250Z 35015KT 9999 -DZ FEW015 BKN025 07/03 Q1023 BLU;",
"03658499999","2010-03-12T13:50:00","4","51.439083","-2.286389","180.74","COLERNE, UK","FM-15","EGUO ","V020","360,1,N,0062,1","00750,1,C,N","011265,1,N,1","+0080,1","+0030,1","99999,9","02,5,+00450,1,99,9","07,5,+00750,1,99,9",,"07,99,1,99,9,99,9,99999,9,99,9,99,9",,"10230,1,99999,9",,,,,"MET062METAR EGUO 121350Z 36012KT 9999 FEW015 BKN025 08/03 Q1023 BLU;",
"03658499999","2010-03-12T14:50:00","4","51.439083","-2.286389","180.74","COLERNE, UK","FM-15","EGUO ","V020","020,1,N,0072,1","00750,1,C,N","011265,1,N,1","+0070,1","+0050,1","99999,9","07,5,+00750,1,99,9",,,"07,99,1,99,9,99,9,99999,9,99,9,99,9",,"10230,1,99999,9",,,,,"MET055METAR EGUO 121450Z 02014KT 9999 BKN025 07/05 Q1023 BLU;",
"03658499999","2010-03-13T07:50:00","4","51.439083","-2.286389","180.74","COLERNE, UK","FM-15","EGUO ","V020","340,1,N,0021,1","00900,1,C,N","011265,1,N,1","+0040,1","+0000,1","99999,9","07,5,+00900,1,99,9",,,"07,99,1,99,9,99,9,99999,9,99,9,99,9",,"10312,1,99999,9",,,,,"MET055METAR EGUO 130750Z 34004KT 9999 BKN030 04/00 Q1031 BLU;",
"03658499999","2010-03-13T08:50:00","4","51.439083","-2.286389","180.74","COLERNE, UK","FM-15","EGUO ","V020","999,9,C,0000,1","99999,9,9,Y","009900,1,N,1","+0050,1","+0000,1","99999,9",,,,,,"10318,1,99999,9",,,,,"MET049METAR EGUO 130850Z 00000KT CAVOK 05/00 Q1032 BLU;",
"03658499999","2010-03-13T09:50:00","4","51.439083","-2.286389","180.74","COLERNE, UK","FM-15","EGUO ","V020","999,9,C,0000,1","99999,9,9,Y","009900,1,N,1","+0060,1","+0000,1","99999,9",,,,,,"10318,1,99999,9",,,,,"MET050METAR EGUO 130950Z 00000KT CAVOK 06/M00 Q1032 BLU;",
"03658499999","2010-03-13T11:50:00","4","51.439083","-2.286389","180.74","COLERNE, UK","FM-15","EGUO ","V020","300,1,N,0051,1","99999,9,9,Y","009900,1,N,1","+0080,1","+0000,1","99999,9",,,,,,"10318,1,99999,9",,,,,"MET046METAR EGUO 131150Z 30010KT CAVOK 08/M00 Q1032;",
"03658499999","2010-03-13T12:50:00","4","51.439083","-2.286389","180.74","COLERNE, UK","FM-15","EGUO ","V020","300,1,N,0036,1","99999,9,9,Y","009900,1,N,1","+0090,1","+0000,1","99999,9",,,,,,"10312,1,99999,9",,,,,"MET049METAR EGUO 131250Z 30007KT CAVOK 09/00 Q1031 BLU;",
"03658499999","2010-03-13T13:50:00","4","51.439083","-2.286389","180.74","COLERNE, UK","FM-15","EGUO ","V020","270,1,N,0041,1","99999,9,9,Y","009900,1,N,1","+0100,1","+0010,1","99999,9",,,,,,"10312,1,99999,9",,,,,"MET049METAR EGUO 131350Z 27008KT CAVOK 10/01 Q1031 BLU;",
"03658499999","2010-03-14T07:50:00","4","51.439083","-2.286389","180.74","COLERNE, UK","FM-15","EGUO ","V020","280,1,N,0041,1","99999,9,9,Y","009900,1,N,1","+0040,1","+0020,1","99999,9",,,,,,"10312,1,99999,9",,,,,"MET045METAR EGUO 140750Z 28008KT CAVOK 04/02 Q1031;",
"03658499999","2010-03-14T08:50:00","4","51.439083","-2.286389","180.74","COLERNE, UK","FM-15","EGUO ","V020","300,1,N,0051,1","99999,9,9,Y","009900,1,N,1","+0060,1","+0020,1","99999,9",,,,,,"10312,1,99999,9",,,,,"MET045METAR EGUO 140850Z 30010KT CAVOK 06/02 Q1031;",
"03658499999","2010-03-14T09:50:00","4","51.439083","-2.286389","180.74","COLERNE, UK","FM-15","EGUO ","V020","290,1,N,0041,1","99999,9,9,Y","009900,1,N,1","+0080,1","+0000,1","99999,9",,,,,,"10312,1,99999,9",,,,,"MET046METAR EGUO 140950Z 29008KT CAVOK 08/M00 Q1031;",
"03658499999","2010-03-14T10:50:00","4","51.439083","-2.286389","180.74","COLERNE, UK","FM-15","EGUO ","V020","300,1,N,0051,1","99999,9,C,N","011265,1,N,1","+0080,1","+0010,1","99999,9","02,5,+01050,1,99,9","04,5,+01800,1,99,9",,"04,99,1,99,9,99,9,99999,9,99,9,99,9",,"10312,1,99999,9",,,,,"MET062METAR EGUO 141050Z 30010KT 9999 FEW035 SCT060 08/01 Q1031 BLU;","P01 018003SCOCIG"
"03658499999","2010-03-14T11:50:00","4","51.439083","-2.286389","180.74","COLERNE, UK","FM-15","EGUO ","V020","290,1,N,0062,1","22000,1,9,N","011265,1,N,1","+0100,1","+0000,1","99999,9","04,5,+01050,1,99,9",,,"04,99,1,99,9,99,9,99999,9,99,9,99,9",,"10312,1,99999,9",,,,,"MET056METAR EGUO 141150Z 29012KT 9999 SCT035 10/M00 Q1031 BLU;",
"03658499999","2010-03-14T12:50:00","4","51.439083","-2.286389","180.74","COLERNE, UK","FM-15","EGUO ","V020","310,1,N,0051,1","22000,1,9,N","011265,1,N,1","+0100,1","-0030,1","99999,9","02,5,+01050,1,99,9",,,"02,99,1,99,9,99,9,99999,9,99,9,99,9",,"10301,1,99999,9",,,,,"MET056METAR EGUO 141250Z 31010KT 9999 FEW035 10/M03 Q1030 BLU;",
"03658499999","2010-03-14T13:50:00","4","51.439083","-2.286389","180.74","COLERNE, UK","FM-15","EGUO ","V020","300,1,N,0062,1","22000,1,9,N","011265,1,N,1","+0110,1","-0010,1","99999,9","04,5,+01050,1,99,9",,,"04,99,1,99,9,99,9,99999,9,99,9,99,9",,"10301,1,99999,9",,,,,"MET056METAR EGUO 141350Z 30012KT 9999 SCT035 11/M01 Q1030 BLU;",
"03658499999","2010-03-14T14:50:00","4","51.439083","-2.286389","180.74","COLERNE, UK","FM-15","EGUO ","V020","300,1,N,0051,1","22000,1,9,N","011265,1,N,1","+0110,1","+0000,1","99999,9","04,5,+01200,1,99,9",,,"04,99,1,99,9,99,9,99999,9,99,9,99,9",,"10291,1,99999,9",,,,,"MET056METAR EGUO 141450Z 30010KT 9999 SCT040 11/M00 Q1029 BLU;",
"03658499999","2010-03-17T07:50:00","4","51.439083","-2.286389","180.74","COLERNE, UK","FM-15","EGUO ","V020","200,1,N,0051,1","06600,1,C,N","008000,1,N,1","+0060,1","+0040,1","99999,9","04,5,+00750,1,99,9","08,5,+06600,1,99,9",,"08,99,1,99,9,99,9,99999,9,99,9,99,9",,"10210,1,99999,9","05,1",,,,"MET065METAR EGUO 170750Z 20010KT 8000 HZ SCT025 OVC220 06/04 Q1021 BLU;",
"03658499999","2010-03-17T08:50:00","4","51.439083","-2.286389","180.74","COLERNE, UK","FM-15","EGUO ","V020","220,1,N,0046,1","00750,1,C,N","009000,1,N,1","+0080,1","+0050,1","99999,9","07,5,+00750,1,99,9",,,"07,99,1,99,9,99,9,99999,9,99,9,99,9",,"10210,1,99999,9","05,1",,,,"MET058METAR EGUO 170850Z 22009KT 9000 HZ BKN025 08/05 Q1021 BLU;",
"03658499999","2010-03-17T09:50:00","4","51.439083","-2.286389","180.74","COLERNE, UK","FM-15","EGUO ","V020","220,1,N,0051,1","00750,1,C,N","008000,1,N,1","+0080,1","+0060,1","99999,9","02,5,+00450,1,99,9","07,5,+00750,1,99,9",,"07,99,1,99,9,99,9,99999,9,99,9,99,9",,"10210,1,99999,9","05,1",,,,"MET065METAR EGUO 170950Z 22010KT 8000 HZ FEW015 BKN025 08/06 Q1021 BLU;",
"03658499999","2010-03-17T10:50:00","4","51.439083","-2.286389","180.74","COLERNE, UK","FM-15","EGUO ","V020","220,1,N,0046,1","00300,1,C,N","007000,1,N,1","+0090,1","+0060,1","99999,9","07,5,+00300,1,99,9",,,"07,99,1,99,9,99,9,99999,9,99,9,99,9",,"10220,1,99999,9","05,1",,,,"MET058METAR EGUO 171050Z 22009KT 7000 HZ BKN010 09/06 Q1022 GRN;",
"03658499999","2010-03-17T11:50:00","4","51.439083","-2.286389","180.74","COLERNE, UK","FM-15","EGUO ","V020","220,1,N,0026,1","00360,1,C,N","011265,1,N,1","+0100,1","+0070,1","99999,9","07,5,+00360,1,99,9",,,"07,99,1,99,9,99,9,99999,9,99,9,99,9",,"10220,1,99999,9",,,,,"MET055METAR EGUO 171150Z 22005KT 9999 BKN012 10/07 Q1022 GRN;",
"03658499999","2010-03-17T13:50:00","4","51.439083","-2.286389","180.74","COLERNE, UK","FM-15","EGUO ","V020","220,1,N,0057,1","00660,1,C,N","011265,1,N,1","+0120,1","+0070,1","99999,9","04,5,+00480,1,99,9","07,5,+00660,1,99,9",,"07,99,1,99,9,99,9,99999,9,99,9,99,9",,"10210,1,99999,9",,,,,"MET062METAR EGUO 171350Z 22011KT 9999 SCT016 BKN022 12/07 Q1021 GRN;",
"03658499999","2010-03-17T14:50:00","4","51.439083","-2.286389","180.74","COLERNE, UK","FM-15","EGUO ","V020","210,1,N,0036,1","00900,1,C,N","011265,1,N,1","+0120,1","+0070,1","99999,9","02,5,+00600,1,99,9","07,5,+00900,1,99,9",,"07,99,1,99,9,99,9,99999,9,99,9,99,9",,"10210,1,99999,9",,,,,"MET062METAR EGUO 171450Z 21007KT 9999 FEW020 BKN030 12/07 Q1021 BLU;",
"03658499999","2010-03-18T07:50:00","4","51.439083","-2.286389","180.74","COLERNE, UK","FM-15","EGUO ","V020","150,1,N,0051,1","99999,9,C,N","006000,1,N,1","+0080,1","+0030,1","99999,9","02,5,+02400,1,99,9","04,5,+04200,1,99,9",,"04,99,1,99,9,99,9,99999,9,99,9,99,9",,"10159,1,99999,9","05,1",,,,"MET065METAR EGUO 180750Z 15010KT 6000 HZ FEW080 SCT140 08/03 Q1016 WHT;","P01 042003SCOCIG"
"03658499999","2010-03-18T08:50:00","4","51.439083","-2.286389","180.74","COLERNE, UK","FM-15","EGUO ","V020","150,1,N,0031,1","22000,1,9,N","007000,1,N,1","+0090,1","+0050,1","99999,9","04,5,+01800,1,99,9",,,"04,99,1,99,9,99,9,99999,9,99,9,99,9",,"10149,1,99999,9","05,1",,,,"MET058METAR EGUO 180850Z 15006KT 7000 HZ SCT060 09/05 Q1015 WHT;",
"03658499999","2010-03-18T09:50:00","4","51.439083","-2.286389","180.74","COLERNE, UK","FM-15","EGUO ","V020","190,1,N,0031,1","22000,1,9,N","008000,1,N,1","+0110,1","+0040,1","99999,9","04,5,+02100,1,99,9",,,"04,99,1,99,9,99,9,99999,9,99,9,99,9",,"10149,1,99999,9","05,1",,,,"MET058METAR EGUO 180950Z 19006KT 8000 HZ SCT070 11/04 Q1015 BLU;",
"03658499999","2010-03-18T10:50:00","4","51.439083","-2.286389","180.74","COLERNE, UK","FM-15","EGUO ","V020","180,1,N,0051,1","22000,1,9,N","008000,1,N,1","+0120,1","+0020,1","99999,9",,,,"00,99,1,99,9,99,9,99999,9,99,9,99,9",,"10139,1,99999,9","05,1",,,,"MET055METAR EGUO 181050Z 18010KT 8000 HZ NSC 12/02 Q1014 BLU;","Q01    003SCCGA1"
"03658499999","2010-03-18T11:50:00","4","51.439083","-2.286389","180.74","COLERNE, UK","FM-15","EGUO ","V020","150,1,N,0041,1","99999,9,9,Y","009900,1,N,1","+0130,1","+0020,1","99999,9",,,,,,"10129,1,99999,9",,,,,"MET049METAR EGUO 181150Z 15008KT CAVOK 13/02 Q1013 BLU;",
"03658499999","2010-03-18T12:50:00","4","51.439083","-2.286389","180.74","COLERNE, UK","FM-15","EGUO ","V020","160,1,N,0051,1","99999,9,9,Y","009900,1,N,1","+0130,1","+0010,1","99999,9",,,,,,"10119,1,99999,9",,,,,"MET049METAR EGUO 181250Z 16010KT CAVOK 13/01 Q1012 BLU;",
"03658499999","2010-03-18T13:50:00","4","51.439083","-2.286389","180.74","COLERNE, UK","FM-15","EGUO ","V020","190,1,N,0041,1","99999,9,9,Y","009900,1,N,1","+0130,1","+0010,1","99999,9",,,,,,"10119,1,99999,9",,,,,"MET049METAR EGUO 181350Z 19008KT CAVOK 13/01 Q1012 BLU;",
"03658499999","2010-03-19T07:50:00","4","51.439083","-2.286389","180.74","COLERNE, UK","FM-15","EGUO ","V020","210,1,N,0026,1","22000,1,9,N","009000,1,N,1","+0080,1","+0060,1","99999,9","02,5,+00450,1,99,9",,,"02,99,1,99,9,99,9,99999,9,99,9,99,9",,"10129,1,99999,9","05,1",,,,"MET058METAR EGUO 190750Z 21005KT 9000 HZ FEW015 08/06 Q1013 BLU;",
"03658499999","2010-03-19T08:50:00","4","51.439083","-2.286389","180.74","COLERNE, UK","FM-15","EGUO ","V020","200,1,N,0026,1","22000,1,9,N","009000,1,N,1","+0090,1","+0060,1","99999,9","04,5,+00750,1,99,9",,,"04,99,1,99,9,99,9,99999,9,99,9,99,9",,"10129,1,99999,9","05,1",,,,"MET058METAR EGUO 190850Z 20005KT 9000 HZ SCT025 09/06 Q1013 BLU;",
"03658499999","2010-03-19T09:50:00","4","51.439083","-2.286389","180.74","COLERNE, UK","FM-15","EGUO ","V020","210,1,N,0036,1","03000,1,C,N","009000,1,N,1","+0100,1","+0070,1","99999,9","04,5,+00900,1,99,9","07,5,+03000,1,99,9",,"07,99,1,99,9,99,9,99999,9,99,9,99,9",,"10129,1,99999,9","05,1",,,,"MET065METAR EGUO 190950Z 21007KT 9000 HZ SCT030 BKN100 10/07 Q1013 BLU;",
"03658499999","2010-03-19T10:50:00","4","51.439083","-2.286389","180.74","COLERNE, UK","FM-15","EGUO ","V020","160,1,N,0036,1","00900,1,C,N","008000,1,N,1","+0100,1","+0060,1","99999,9","02,5,+00450,1,99,9","07,5,+00900,1,99,9",,"07,99,1,99,9,99,9,99999,9,99,9,99,9",,"10129,1,99999,9","05,1",,,,"MET065METAR EGUO 191050Z 16007KT 8000 HZ FEW015 BKN030 10/06 Q1013 BLU;",
"03658499999","2010-03-19T11:50:00","4","51.439083","-2.286389","180.74","COLERNE, UK","FM-15","EGUO ","V020","180,1,N,0031,1","00240,1,C,N","006000,1,N,1","+0090,1","+0070,1","99999,9","04,5,+00180,1,99,9","07,5,+00240,1,99,9",,"07,99,1,99,9,99,9,99999,9,99,9,99,9",,"10119,1,99999,9","05,1",,,,"MET072METAR EGUO 191150Z 18006KT 6000 4000S HZ SCT006 BKN008 09/07 Q1012 YLO1;",
"03658499999","2010-03-19T12:50:00","4","51.439083","-2.286389","180.74","COLERNE, UK","FM-15","EGUO ","V020","170,1,N,0041,1","00090,1,C,N","003000,1,N,1","+0090,1","+0080,1","99999,9","07,5,+00090,1,99,9",,,"07,99,1,99,9,99,9,99999,9,99,9,99,9",,"10119,1,99999,9","51,1",,,,"MET060METAR EGUO 191250Z 17008KT 3000 -DZ BKN003 09/08 Q1012 YLO2;",
"03658499999","2010-03-19T13:50:00","4","51.439083","-2.286389","180.74","COLERNE, UK","FM-15","EGUO ","V020","140,1,N,0026,1","00030,1,C,N","001000,1,N,1","+0090,1","+0090,1","99999,9","08,5,+00030,1,99,9",,,"08,99,1,99,9,99,9,99999,9,99,9,99,9",,"10159,2,99999,9","51,1",,,,"MET059METAR EGUO 191350Z 14005KT 1000 -DZ OVC001 09/09 Q1016 RED;",
"03658499999","2010-03-21T07:50:00","4","51.439083","-2.286389","180.74","COLERNE, UK","FM-15","EGUO ","V020","270,1,N,0026,1","99999,9,9,Y","009900,1,N,1","+0060,1","+0040,1","99999,9",,,,,,"10159,1,99999,9",,,,,"MET049METAR EGUO 210750Z 27005KT CAVOK 06/04 Q1016 BLU;",
"03658499999","2010-03-21T08:50:00","4","51.439083","-2.286389","180.74","COLERNE, UK","FM-15","EGUO ","V020","270,1,N,0026,1","99999,9,9,Y","009900,1,N,1","+0080,1","+0040,1","99999,9",,,,,,"10169,1,99999,9",,,,,"MET049METAR EGUO 210850Z 27005KT CAVOK 08/04 Q1017 BLU;",
"03658499999","2010-03-21T09:50:00","4","51.439083","-2.286389","180.74","COLERNE, UK","FM-15","EGUO ","V020","280,1,N,0021,1","99999,9,9,Y","009900,1,N,1","+0080,1","+0040,1","99999,9",,,,,,"10180,1,99999,9",,,,,"MET049METAR EGUO 210950Z 28004KT CAVOK 08/04 Q1018 BLU;",
"03658499999","2010-03-21T10:50:00","4","51.439083","-2.286389","180.74","COLERNE, UK","FM-15","EGUO ","V020","310,1,N,0026,1","22000,1,9,N","011265,1,N,1","+0100,1","+0020,1","99999,9","04,5,+00900,1,99,9",,,"04,99,1,99,9,99,9,99999,9,99,9,99,9",,"10180,1,99999,9",,,,,"MET055METAR EGUO 211050Z 31005KT 9999 SCT030 10/02 Q1018 BLU;",
"03658499999","2010-03-21T11:50:00","4","51.439083","-2.286389","180.74","COLERNE, UK","FM-15","EGUO ","V020","270,1,N,0041,1","22000,1,9,N","011265,1,N,1","+0110,1","+0020,1","99999,9","04,5,+00900,1,99,9",,,"04,99,1,99,9,99,9,99999,9,99,9,99,9",,"10190,1,99999,9",,,,,"MET055METAR EGUO 211150Z 27008KT 9999 SCT030 11/02 Q1019 BLU;",
"03658499999","2010-03-21T12:50:00","4","51.439083","-2.286389","180.74","COLERNE, UK","FM-15","EGUO ","V020","250,1,N,0026,1","22000,1,9,N","011265,1,N,1","+0110,1","+0020,1","99999,9","04,5,+01080,1,99,9",,,"04,99,1,99,9,99,9,99999,9,99,9,99,9",,"10190,1,99999,9",,,,,"MET055METAR EGUO 211250Z 25005KT 9999 SCT036 11/02 Q1019 BLU;",
"03658499999","2010-03-21T13:50:00","4","51.439083","-2.286389","180.74","COLERNE, UK","FM-15","EGUO ","V020","260,1,N,0062,1","22000,1,9,N","011265,1,N,1","+0110,1","+0020,1","99999,9","02,5,+01080,1,99,9",,,"02,99,1,99,9,99,9,99999,9,99,9,99,9",,"10190,1,99999,9",,,,,"MET055METAR EGUO 211350Z 26012KT 9999 FEW036 11/02 Q1019 BLU;",
"03658499999","2010-03-24T08:20:00","4","51.439083","-2.286389","180.74","COLERNE, UK","FM-15","EGUO ","V020","170,1,N,0062,1","00600,1,C,N","003500,1,N,1","+0080,1","+0070,1","99999,9","02,5,+00240,1,99,9","07,5,+00600,1,99,9",,"07,99,1,99,9,99,9,99999,9,99,9,99,9",,"10041,1,99999,9","10,1",,,,"MET066METAR EGUO 240820Z 17012KT 3500 BR FEW008 BKN020 08/07 Q1004 YLO1;",
"03658499999","2010-03-24T11:50:00","4","51.439083","-2.286389","180.74","COLERNE, UK","FM-15","EGUO ","V020","180,1,N,0041,1","00450,1,C,N","011265,1,N,1","+0120,1","+0080,1","99999,9","07,5,+00450,1,99,9","07,5,+01350,1,99,9",,"07,99,1,99,9,99,9,99999,9,99,9,99,9",,"10041,1,99999,9",,,,,"MET062METAR EGUO 241150Z 18008KT 9999 BKN015 BKN045 12/08 Q1004 WHT;",
"03658499999","2010-03-24T12:50:00","4","51.439083","-2.286389","180.74","COLERNE, UK","FM-15","EGUO ","V020","180,1,N,0031,1","99999,9,C,N","011265,1,N,1","+0120,1","+0080,1","99999,9","02,5,+00450,1,99,9","04,5,+01500,1,99,9",,"04,99,1,99,9,99,9,99999,9,99,9,99,9",,"10041,1,99999,9",,,,,"MET062METAR EGUO 241250Z 18006KT 9999 FEW015 SCT050 12/08 Q1004 BLU;","P01 015003SCOCIG"
"03658499999","2010-03-24T13:50:00","4","51.439083","-2.286389","180.74","COLERNE, UK","FM-15","EGUO ","V020","200,1,N,0041,1","99999,9,C,N","011265,1,N,1","+0120,1","+0080,1","99999,9","02,5,+00420,1,99,9","04,5,+00570,1,99,9",,"04,99,1,99,9,99,9,99999,9,99,9,99,9",,"10031,1,99999,9",,,,,"MET062METAR EGUO 241350Z 20008KT 9999 FEW014 SCT019 12/08 Q1003 WHT;","P01 005703SCOCIG"
"03658499999","2010-03-24T14:50:00","4","51.439083","-2.286389","180.74","COLERNE, UK","FM-15","EGUO ","V020","220,1,N,0051,1","01500,1,C,N","011265,1,N,1","+0110,1","+0090,1","99999,9","02,5,+00450,1,99,9","07,5,+01500,1,99,9",,"07,99,1,99,9,99,9,99999,9,99,9,99,9",,"10031,1,99999,9",,,,,"MET068METAR EGUO 241450Z 22010KT 9999 FEW015 BKN050 11/09 Q1003 BLU NOSIG;",
"03658499999","2010-03-24T15:50:00","4","51.439083","-2.286389","180.74","COLERNE, UK","FM-15","EGUO ","V020","999,9,C,0000,1","02400,1,C,N","011265,1,N,1","+0110,1","+0090,1","99999,9","04,5,+00750,1,99,9","07,5,+02400,1,99,9",,"07,99,1,99,9,99,9,99999,9,99,9,99,9",,"10031,1,99999,9",,,,,"MET068METAR EGUO 241550Z 00000KT 9999 SCT025 BKN080 11/09 Q1003 BLU NOSIG;",
"03658499999","2010-03-25T07:50:00","4","51.439083","-2.286389","180.74","COLERNE, UK","FM-15","EGUO ","V020","160,1,N,0026,1","00600,1,C,N","007000,1,N,1","+0080,1","+0070,1","99999,9","02,5,+00150,1,99,9","04,5,+00600,1,99,9","07,5,+03000,1,99,9","07,99,1,99,9,99,9,99999,9,99,9,99,9",,"10000,1,99999,9","10,1",,,,"MET072METAR EGUO 250750Z 16005KT 7000 BR FEW005 SCT020 BKN100 08/07 Q1000 WHT;",
"03658499999","2010-03-25T08:50:00","4","51.439083","-2.286389","180.74","COLERNE, UK","FM-15","EGUO ","V020","180,1,N,0031,1","00450,1,C,N","011265,1,N,1","+0080,1","+0070,1","99999,9","04,5,+00240,1,99,9","07,5,+00450,1,99,9",,"07,99,1,99,9,99,9,99999,9,99,9,99,9",,"10000,1,99999,9",,,,,"MET062METAR EGUO 250850Z 18006KT 9999 SCT008 BKN015 08/07 Q1000 GRN;",
"03658499999","2010-03-25T09:50:00","4","51.439083","-2.286389","180.74","COLERNE, UK","FM-15","EGUO ","V020","170,1,N,0041,1","99999,9,C,N","011265,1,N,1","+0090,1","+0060,1","99999,9","02,5,+00240,1,99,9","04,5,+00450,1,99,9",,"04,99,1,99,9,99,9,99999,9,99,9,99,9",,"10000,1,99999,9",,,,,"MET062METAR EGUO 250950Z 17008KT 9999 FEW008 SCT015 09/06 Q1000 WHT;","P01 004503SCOCIG"
"03658499999","2010-03-25T10:50:00","4","51.439083","-2.286389","180.74","COLERNE, UK","FM-15","EGUO ","V020","150,1,N,0041,1","99999,9,C,N","011265,1,N,1","+0090,1","+0070,1","99999,9","02,5,+00360,1,99,9","04,5,+00600,1,99,9",,"04,99,1,99,9,99,9,99999,9,99,9,99,9",,"09990,1,99999,9",,,,,"MET062METAR EGUO 251050Z 15008KT 9999 FEW012 SCT020 09/07 Q0999 WHT;","P01 006003SCOCIG"
"03658499999","2010-03-25T12:50:00","4","51.439083","-2.286389","180.74","COLERNE, UK","FM-15","EGUO ","V020","130,1,N,0031,1","01500,1,C,N","011265,1,N,1","+0100,1","+0070,1","99999,9","02,5,+00450,1,99,9","04,5,+01500,1,99,9","08,5,+03600,1,99,9","08,99,1,99,9,99,9,99999,9,99,9,99,9",,"09970,1,99999,9",,,,,"MET069METAR EGUO 251250Z 13006KT 9999 FEW015 SCT050 OVC120 10/07 Q0997 BLU;",
"03658499999","2010-03-25T13:50:00","4","51.439083","-2.286389","180.74","COLERNE, UK","FM-15","EGUO ","V020","130,1,N,0026,1","00900,1,C,N","007000,1,N,1","+0100,1","+0070,1","99999,9","04,5,+00450,1,99,9","07,5,+00900,1,99,9",,"07,99,1,99,9,99,9,99999,9,99,9,99,9",,"09970,1,99999,9","61,1",,,,"MET066METAR EGUO 251350Z 13005KT 7000 -RA SCT015 BKN030 10/07 Q0997 WHT;",
"03658499999","2010-03-26T06:50:00","4","51.439083","-2.286389","180.74","COLERNE, UK","FM-15","EGUO ","V020","180,1,N,0077,1","00600,1,C,N","011265,1,N,1","+0080,1","+0050,1","99999,9","02,5,+00300,1,99,9","07,5,+00600,1,99,9",,"07,99,1,99,9,99,9,99999,9,99,9,99,9",,"10000,1,99999,9",,,,,"MET062METAR EGUO 260650Z 18015KT 9999 FEW010 BKN020 08/05 Q1000 WHT;",
"03658499999","2010-03-26T07:50:00","4","51.439083","-2.286389","180.74","COLERNE, UK","FM-15","EGUO ","V020","180,1,N,0077,1","00600,1,C,N","011265,1,N,1","+0080,1","+0050,1","99999,9","02,5,+00300,1,99,9","07,5,+00600,1,99,9",,"07,99,1,99,9,99,9,99999,9,99,9,99,9",,"10000,1,99999,9",,,,,"MET062METAR EGUO 260750Z 18015KT 9999 FEW010 BKN020 08/05 Q1000 WHT;",
"03658499999","2010-03-26T08:50:00","4","51.439083","-2.286389","180.74","COLERNE, UK","FM-15","EGUO ","V020","190,1,N,0077,1","00300,1,C,N","011265,1,N,1","+0080,1","+0050,1","99999,9","07,5,+00300,1,99,9",,,"07,99,1,99,9,99,9,99999,9,99,9,99,9",,"09990,1,99999,9",,,,,"MET055METAR EGUO 260850Z 19015KT 9999 BKN010 08/05 Q0999 GRN;",
"03658499999","2010-03-26T10:50:00","4","51.439083","-2.286389","180.74","COLERNE, UK","FM-15","EGUO ","V020","190,1,N,0051,1","00600,1,C,N","011265,1,N,1","+0090,1","+0050,1","99999,9","04,5,+00450,1,99,9","07,5,+00600,1,99,9",,"07,99,1,99,9,99,9,99999,9,99,9,99,9",,"09990,1,99999,9",,,,,"MET062METAR EGUO 261050Z 19010KT 9999 SCT015 BKN020 09/05 Q0999 WHT;",
"03658499999","2010-03-26T11:50:00","4","51.439083","-2.286389","180.74","COLERNE, UK","FM-15","EGUO ","V020","190,1,N,0062,1","00750,1,C,N","011265,1,N,1","+0090,1","+0050,1","99999,9","04,5,+00450,1,99,9","07,5,+00750,1,99,9",,"07,99,1,99,9,99,9,99999,9,99,9,99,9",,"10000,1,99999,9",,,,,"MET062METAR EGUO 261150Z 19012KT 9999 SCT015 BKN025 09/05 Q1000 WHT;",
"03658499999","2010-03-26T12:50:00","4","51.439083","-2.286389","180.74","COLERNE, UK","FM-15","EGUO ","V020","200,1,N,0093,1","00750,1,C,N","011265,1,N,1","+0100,1","+0050,1","99999,9","04,5,+00600,1,99,9","07,5,+00750,1,99,9",,"07,99,1,99,9,99,9,99999,9,99,9,99,9",,"09990,1,99999,9",,,,,"MET062METAR EGUO 261250Z 20018KT 9999 SCT020 BKN025 10/05 Q0999 WHT;",
"03658499999","2010-03-26T13:50:00","4","51.439083","-2.286389","180.74","COLERNE, UK","FM-15","EGUO ","V020","200,1,N,0077,1","00600,1,C,N","007000,1,N,1","+0090,1","+0050,1","99999,9","07,5,+00600,1,99,9","07,5,+01050,1,99,9",,"07,99,1,99,9,99,9,99999,9,99,9,99,9",,"09990,1,99999,9","80,1",,,,"MET068METAR EGUO 261350Z 20015KT 7000 -SHRA BKN020 BKN035 09/05 Q0999 WHT;",
"03658499999","2010-03-29T06:50:00","4","51.439083","-2.286389","180.74","COLERNE, UK","FM-15","EGUO ","V020","180,1,N,0041,1","00090,1,C,N","004000,1,N,1","+0080,1","+0080,1","99999,9","07,5,+00090,1,99,9",,,"07,99,1,99,9,99,9,99999,9,99,9,99,9",,"10010,1,99999,9","51,1","61,1",,,"MET062METAR EGUO 290650Z 18008KT 4000 -RADZ BKN003 08/08 Q1001 YLO2;",
"03658499999","2010-03-30T06:50:00","4","51.439083","-2.286389","180.74","COLERNE, UK","FM-15","EGUO ","V020","170,1,N,0051,1","00150,1,C,N","004000,1,N,1","+0070,1","+0060,1","99999,9","07,5,+00150,1,99,9",,,"07,99,1,99,9,99,9,99999,9,99,9,99,9",,"09861,1,99999,9","61,1",,,,"MET060METAR EGUO 300650Z 17010KT 4000 -RA BKN005 07/06 Q0986 YLO1;",
"03658499999","2010-03-30T07:50:00","4","51.439083","-2.286389","180.74","COLERNE, UK","FM-15","EGUO ","V020","200,1,N,0041,1","00240,1,C,N","011265,1,N,1","+0080,1","+0060,1","99999,9","07,5,+00240,1,99,9",,,"07,99,1,99,9,99,9,99999,9,99,9,99,9",,"09851,1,99999,9",,,,,"MET055METAR EGUO 300750Z 20008KT 9999 BKN008 08/06 Q0985 GRN;",
"03658499999","2010-03-30T08:50:00","4","51.439083","-2.286389","180.74","COLERNE, UK","FM-15","EGUO ","V020","150,1,N,0057,1","00240,1,C,N","011265,1,N,1","+0080,1","+0050,1","99999,9","07,5,+00240,1,99,9",,,"07,99,1,99,9,99,9,99999,9,99,9,99,9",,"09851,1,99999,9",,,,,"MET055METAR EGUO 300850Z 15011KT 9999 BKN008 08/05 Q0985 GRN;",
"03658499999","2010-03-30T09:50:00","4","51.439083","-2.286389","180.74","COLERNE, UK","FM-15","EGUO ","V020","210,1,N,0062,1","00240,1,C,N","007000,1,N,1","+0080,1","+0070,1","99999,9","02,5,+00150,1,99,9","07,5,+00240,1,99,9",,"07,99,1,99,9,99,9,99999,9,99,9,99,9",,"09841,1,99999,9","61,1",,,,"MET066METAR EGUO 300950Z 21012KT 7000 -RA FEW005 BKN008 08/07 Q0984 GRN;",
"03658499999","2010-03-30T10:50:00","4","51.439083","-2.286389","180.74","COLERNE, UK","FM-15","EGUO ","V020","180,1,N,0082,1","00450,1,C,N","011265,1,N,1","+0100,1","+0050,1","99999,9","04,5,+00300,1,99,9","07,5,+00450,1,99,9",,"07,99,1,99,9,99,9,99999,9,99,9,99,9",,"09831,1,99999,9",,,,,"MET062METAR EGUO 301050Z 18016KT 9999 SCT010 BKN015 10/05 Q0983 GRN;",
"03658499999","2010-03-30T11:50:00","4","51.439083","-2.286389","180.74","COLERNE, UK","FM-15","EGUO ","V020","240,1,N,0093,1","00150,1,C,N","005000,1,N,1","+0040,1","+0030,1","99999,9","07,5,+00150,1,99,9",,,"07,99,1,99,9,99,9,99999,9,99,9,99,9",,"09831,1,99999,9","65,1",,,,"MET060METAR EGUO 301150Z 24018KT 5000 +RA BKN005 04/03 Q0983 YLO1;",
"03658499999","2010-03-31T06:50:00","4","51.439083","-2.286389","180.74","COLERNE, UK","FM-15","EGUO ","V020","290,1,N,0067,1","00300,1,C,N","005000,1,N,1","+0030,1","+0010,1","99999,9","04,5,+00240,1,99,9","08,5,+00300,1,99,9",,"08,99,1,99,9,99,9,99999,9,99,9,99,9",,"09841,1,99999,9","61,1",,,"0129,1","MET069METAR EGUO 310650Z 29013G25KT 5000 -RA SCT008 OVC010 03/01 Q0984 GRN;",
"03658499999","2010-03-31T07:50:00","4","51.439083","-2.286389","180.74","COLERNE, UK","FM-15","EGUO ","V020","280,1,N,0077,1","00450,1,C,N","007000,1,N,1","+0030,1","+0010,1","99999,9","04,5,+00300,1,99,9","08,5,+00450,1,99,9",,"08,99,1,99,9,99,9,99999,9,99,9,99,9",,"09871,1,99999,9","53,1",,,"0129,1","MET068METAR EGUO 310750Z 28015G25KT 7000 DZ SCT010 OVC015 03/01 Q0987 GRN;",
"03658499999","2010-03-31T08:50:00","4","51.439083","-2.286389","180.74","COLERNE, UK","FM-15","EGUO ","V020","270,1,N,0077,1","00540,1,C,N","011265,1,N,1","+0030,1","+0010,1","99999,9","04,5,+00300,1,99,9","07,5,+00540,1,99,9",,"07,99,1,99,9,99,9,99999,9,99,9,99,9",,"09882,1,99999,9",,,,,"MET062METAR EGUO 310850Z 27015KT 9999 SCT010 BKN018 03/01 Q0988 GRN;",
"03658499999","2010-03-31T10:50:00","4","51.439083","-2.286389","180.74","COLERNE, UK","FM-15","EGUO ","V020","290,1,N,0077,1","00450,1,C,N","011265,1,N,1","+0040,1","+0010,1","99999,9","02,5,+00240,1,99,9","07,5,+00450,1,99,9",,"07,99,1,99,9,99,9,99999,9,99,9,99,9",,"09919,1,99999,9",,,,"0129,1","MET065METAR EGUO 311050Z 29015G25KT 9999 FEW008 BKN015 04/01 Q0992 WHT;",
"03658499999","2010-03-31T11:50:00","4","51.439083","-2.286389","180.74","COLERNE, UK","FM-15","EGUO ","V020","290,1,N,0067,1","99999,9,C,N","011265,1,N,1","+0050,1","+0010,1","99999,9","02,5,+00090,1,99,9","04,5,+00540,1,99,9",,"04,99,1,99,9,99,9,99999,9,99,9,99,9",,"09929,1,99999,9",,,,,"MET069METAR EGUO 311150Z 29013KT 9999 FEW003 SCT018 05/01 Q0993 RESHGS WHT;","P01 005403SCOCIG"
"03658499999","2010-03-31T12:50:00","4","51.439083","-2.286389","180.74","COLERNE, UK","FM-15","EGUO ","V020","290,1,N,0093,1","99999,9,C,N","011265,1,N,1","+0040,1","+0000,1","99999,9","02,5,+00300,1,99,9","04,5,+00600,1,99,9",,"04,99,1,99,9,99,9,99999,9,99,9,99,9",,"09949,1,99999,9","88,1",,,,"MET067METAR EGUO 311250Z 29018KT 9999 SHGS FEW010 SCT020 04/00 Q0995 WHT;","P01 006003SCOCIG"
"03658499999","2010-03-31T13:50:00","4","51.439083","-2.286389","180.74","COLERNE, UK","FM-15","EGUO ","V020","300,1,N,0077,1","00600,1,C,N","005000,1,N,1","+0030,1","+0010,1","99999,9","04,5,+00330,1,99,9","08,5,+00600,1,99,9",,"08,99,1,99,9,99,9,99999,9,99,9,99,9",,"09959,1,99999,9","88,1",,,,"MET065METAR EGUO 311350Z 30015KT 5000 GS SCT011 OVC020 03/01 Q0996 GRN;",
"03658499999","2010-04-01T06:50:00","4","51.439083","-2.286389","180.74","COLERNE, UK","FM-15","EGUO ","V020","270,1,N,0067,1","99999,9,9,Y","009900,1,N,1","+0020,1","-0010,1","99999,9",,,,,,"10081,1,99999,9",,,,,"MET050METAR EGUO 010650Z 27013KT CAVOK 02/M01 Q1008 BLU;",
"03658499999","2010-04-01T07:50:00","4","51.439083","-2.286389","180.74","COLERNE, UK","FM-15","EGUO ","V020","260,1,N,0041,1","99999,9,9,Y","009900,1,N,1","+0030,1","+0000,1","99999,9",,,,,,"10091,1,99999,9",,,,,"MET050METAR EGUO 010750Z 26008KT CAVOK 03/M00 Q1009 BLU;",
"03658499999","2010-04-01T08:50:00","4","51.439083","-2.286389","180.74","COLERNE, UK","FM-15","EGUO ","V020","270,1,N,0077,1","22000,1,9,N","011265,1,N,1","+0050,1","+0000,1","99999,9","04,5,+00810,1,99,9",,,"04,99,1,99,9,99,9,99999,9,99,9,99,9",,"10091,1,99999,9",,,,,"MET055METAR EGUO 010850Z 27015KT 9999 SCT027 05/00 Q1009 BLU;",
"03658499999","2010-04-01T09:50:00","4","51.439083","-2.286389","180.74","COLERNE, UK","FM-15","EGUO ","V020","240,1,N,0077,1","22000,1,9,N","011265,1,N,1","+0060,1","+0010,1","99999,9","04,5,+00720,1,99,9",,,"04,99,1,99,9,99,9,99999,9,99,9,99,9",,"10091,1,99999,9",,,,,"MET055METAR EGUO 010950Z 24015KT 9999 SCT024 06/01 Q1009 WHT;",
"03658499999","2010-04-01T10:50:00","4","51.439083","-2.286389","180.74","COLERNE, UK","FM-15","EGUO ","V020","260,1,N,0082,1","22000,1,9,N","011265,1,N,1","+0070,1","-0020,1","99999,9","04,5,+00900,1,99,9",,,"04,99,1,99,9,99,9,99999,9,99,9,99,9",,"10091,1,99999,9",,,,"0134,1","MET059METAR EGUO 011050Z 26016G26KT 9999 SCT030 07/M02 Q1009 BLU;",
"03658499999","2010-04-01T11:50:00","4","51.439083","-2.286389","180.74","COLERNE, UK","FM-15","EGUO ","V020","240,1,N,0077,1","22000,1,9,N","011265,1,N,1","+0080,1","-0020,1","99999,9","04,5,+00900,1,99,9",,,"04,99,1,99,9,99,9,99999,9,99,9,99,9",,"10091,1,99999,9",,,,,"MET056METAR EGUO 011150Z 24015KT 9999 SCT030 08/M02 Q1009 BLU;",
"03658499999","2010-04-06T06:50:00","4","51.439083","-2.286389","180.74","COLERNE, UK","FM-15","EGUO ","V020","150,1,N,0036,1","22000,1,9,N","011265,1,N,1","+0060,1","+0040,1","99999,9",,,,"00,99,1,99,9,99,9,99999,9,99,9,99,9",,"10149,1,99999,9",,,,,"MET052METAR EGUO 060650Z 15007KT 9999 NSC 06/04 Q1015 BLU;","Q01    003SCCGA1"
"03658499999","2010-04-06T07:50:00","4","51.439083","-2.286389","180.74","COLERNE, UK","FM-15","EGUO ","V020","180,1,N,0072,1","22000,1,9,N","011265,1,N,1","+0080,1","+0050,1","99999,9",,,,"00,99,1,99,9,99,9,99999,9,99,9,99,9",,"10139,1,99999,9",,,,,"MET052METAR EGUO 060750Z 18014KT 9999 NSC 08/05 Q1014 BLU;","Q01    003SCCGA1"
"03658499999","2010-04-06T08:50:00","4","51.439083","-2.286389","180.74","COLERNE, UK","FM-15","EGUO ","V020","180,1,N,0077,1","22000,1,9,N","011265,1,N,1","+0090,1","+0040,1","99999,9","02,5,+00450,1,99,9",,,"02,99,1,99,9,99,9,99999,9,99,9,99,9",,"10139,1,99999,9",,,,,"MET055METAR EGUO 060850Z 18015KT 9999 FEW015 09/04 Q1014 BLU;",
"03658499999","2010-04-06T09:50:00","4","51.439083","-2.286389","180.74","COLERNE, UK","FM-15","EGUO ","V020","170,1,N,0072,1","99999,9,C,N","011265,1,N,1","+0100,1","+0040,1","99999,9","02,5,+00360,1,99,9","04,5,+03000,1,99,9",,"04,99,1,99,9,99,9,99999,9,99,9,99,9",,"10139,1,99999,9",,,,,"MET062METAR EGUO 060950Z 17014KT 9999 FEW012 SCT100 10/04 Q1014 BLU;","P01 030003SCOCIG"
"03658499999","2010-04-06T10:50:00","4","51.439083","-2.286389","180.74","COLERNE, UK","FM-15","EGUO ","V020","180,1,N,0051,1","00900,1,C,N","011265,1,N,1","+0110,1","+0050,1","99999,9","02,5,+00450,1,99,9","04,5,+00900,1,99,9","07,5,+07500,1,99,9","07,99,1,99,9,99,9,99999,9,99,9,99,9",,"10129,1,99999,9",,,,,"MET069METAR EGUO 061050Z 18010KT 9999 FEW015 SCT030 BKN250 11/05 Q1013 BLU;",
"03658499999","2010-04-06T11:50:00","4","51.439083","-2.286389","180.74","COLERNE, UK","FM-15","EGUO ","V020","180,1,N,0051,1","22000,1,9,N","011265,1,N,1","+0120,1","+0050,1","99999,9","04,5,+01050,1,99,9",,,"04,99,1,99,9,99,9,99999,9,99,9,99,9",,"10129,1,99999,9",,,,,"MET055METAR EGUO 061150Z 18010KT 9999 SCT035 12/05 Q1013 BLU;",
"03658499999","2010-04-06T12:50:00","4","51.439083","-2.286389","180.74","COLERNE, UK","FM-15","EGUO ","V020","180,1,N,0077,1","02400,1,C,N","011265,1,N,1","+0130,1","+0040,1","99999,9","04,5,+01200,1,99,9","04,5,+02400,1,99,9","07,5,+07500,1,99,9","07,99,1,99,9,99,9,99999,9,99,9,99,9",,"10119,1,99999,9",,,,,"MET069METAR EGUO 061250Z 18015KT 9999 SCT040 SCT080 BKN250 13/04 Q1012 BLU;",
"03658499999","2010-04-06T13:50:00","4","51.439083","-2.286389","180.74","COLERNE, UK","FM-15","EGUO ","V020","999,9,9,9999,9","07500,5,9,N","011265,1,N,1","+0130,1","+0040,1","99999,9","02,5,+01200,5,99,9","07,5,+07500,5,99,9",,,,"10110,1,99999,9",,,,,"MET069METAR EGUO 061350Z 061350Z18006KT 9999 FEW040 BKN250 13/04 Q1011 BLU;",
"03658499999","2010-04-06T14:50:00","4","51.439083","-2.286389","180.74","COLERNE, UK","FM-15","EGUO ","V020","160,1,N,0062,1","99999,9,9,Y","009900,1,N,1","+0130,1","+0050,1","99999,9",,,,,,"10119,1,99999,9",,,,,"MET049METAR EGUO 061450Z 16012KT CAVOK 13/05 Q1012 BLU;",
"03658499999","2010-04-07T06:50:00","4","51.439083","-2.286389","180.74","COLERNE, UK","FM-15","EGUO ","V020","300,1,N,0036,1","22000,1,9,N","011265,1,N,1","+0070,1","+0060,1","99999,9","02,5,+01050,1,99,9",,,"02,99,1,99,9,99,9,99999,9,99,9,99,9",,"10169,1,99999,9",,,,,"MET055METAR EGUO 070650Z 30007KT 9999 FEW035 07/06 Q1017 BLU;",
"03658499999","2010-04-07T07:50:00","4","51.439083","-2.286389","180.74","COLERNE, UK","FM-15","EGUO ","V020","320,1,N,0026,1","22000,1,9,N","011265,1,N,1","+0070,1","+0060,1","99999,9","02,5,+00900,1,99,9",,,"02,99,1,99,9,99,9,99999,9,99,9,99,9",,"10180,1,99999,9",,,,,"MET055METAR EGUO 070750Z 32005KT 9999 FEW030 07/06 Q1018 BLU;",
"03658499999","2010-04-07T08:50:00","4","51.439083","-2.286389","180.74","COLERNE, UK","FM-15","EGUO ","V020","350,1,N,0051,1","00540,1,C,N","011265,1,N,1","+0080,1","+0060,1","99999,9","02,5,+00240,1,99,9","04,5,+00540,1,99,9","07,5,+01050,1,99,9","07,99,1,99,9,99,9,99999,9,99,9,99,9",,"10190,1,99999,9",,,,,"MET069METAR EGUO 070850Z 35010KT 9999 FEW008 SCT018 BKN035 08/06 Q1019 WHT;",
"03658499999","2010-04-07T09:50:00","4","51.439083","-2.286389","180.74","COLERNE, UK","FM-15","EGUO ","V020","350,1,N,0077,1","99999,9,C,N","011265,1,N,1","+0100,1","+0050,1","99999,9","02,5,+00300,1,99,9","04,5,+00450,1,99,9",,"04,99,1,99,9,99,9,99999,9,99,9,99,9",,"10190,1,99999,9",,,,,"MET062METAR EGUO 070950Z 35015KT 9999 FEW010 SCT015 10/05 Q1019 WHT;","P01 004503SCOCIG"
"03658499999","2010-04-07T10:50:00","4","51.439083","-2.286389","180.74","COLERNE, UK","FM-15","EGUO ","V020","350,1,N,0082,1","22000,1,9,N","011265,1,N,1","+0110,1","+0050,1","99999,9","04,5,+00720,1,99,9",,,"04,99,1,99,9,99,9,99999,9,99,9,99,9",,"10190,1,99999,9",,,,,"MET055METAR EGUO 071050Z 35016KT 9999 SCT024 11/05 Q1019 WHT;",
"03658499999","2010-04-07T11:50:00","4","51.439083","-2.286389","180.74","COLERNE, UK","FM-15","EGUO ","V020","340,1,N,0041,1","00900,1,C,N","011265,1,N,1","+0110,1","+0050,1","99999,9","07,5,+00900,1,99,9",,,"07,99,1,99,9,99,9,99999,9,99,9,99,9",,"10200,1,99999,9",,,,,"MET055METAR EGUO 071150Z 34008KT 9999 BKN030 11/05 Q1020 BLU;",
"03658499999","2010-04-07T12:50:00","4","51.439083","-2.286389","180.74","COLERNE, UK","FM-15","EGUO ","V020","340,1,N,0051,1","00840,1,C,N","011265,1,N,1","+0120,1","+0050,1","99999,9","07,5,+00840,1,99,9",,,"07,99,1,99,9,99,9,99999,9,99,9,99,9",,"10200,1,99999,9",,,,,"MET055METAR EGUO 071250Z 34010KT 9999 BKN028 12/05 Q1020 BLU;",
"03658499999","2010-04-07T13:50:00","4","51.439083","-2.286389","180.74","COLERNE, UK","FM-15","EGUO ","V020","320,1,N,0051,1","01050,1,C,N","011265,1,N,1","+0120,1","+0030,1","99999,9","07,5,+01050,1,99,9",,,"07,99,1,99,9,99,9,99999,9,99,9,99,9",,"10210,1,99999,9",,,,,"MET055METAR EGUO 071350Z 32010KT 9999 BKN035 12/03 Q1021 BLU;",
"03658499999","2010-04-07T14:50:00","4","51.439083","-2.286389","180.74","COLERNE, UK","FM-15","EGUO ","V020","330,1,N,0072,1","01800,1,C,N","011265,1,N,1","+0110,1","+0040,1","99999,9","04,5,+00840,1,99,9","07,5,+01800,1,99,9",,"07,99,1,99,9,99,9,99999,9,99,9,99,9",,"10210,1,99999,9",,,,,"MET062METAR EGUO 071450Z 33014KT 9999 SCT028 BKN060 11/04 Q1021 BLU;",
"03658499999","2010-04-08T06:50:00","4","51.439083","-2.286389","180.74","COLERNE, UK","FM-15","EGUO ","V020","290,1,N,0041,1","99999,9,9,Y","009900,1,N,1","+0050,1","+0010,1","99999,9",,,,,,"10312,1,99999,9",,,,,"MET049METAR EGUO 080650Z 29008KT CAVOK 05/01 Q1031 BLU;",
"03658499999","2010-04-08T07:50:00","4","51.439083","-2.286389","180.74","COLERNE, UK","FM-15","EGUO ","V020","300,1,N,0026,1","99999,9,9,Y","009900,1,N,1","+0060,1","+0020,1","99999,9",,,,,,"10312,1,99999,9",,,,,"MET049METAR EGUO 080750Z 30005KT CAVOK 06/02 Q1031 BLU;",
"03658499999","2010-04-08T08:50:00","4","51.439083","-2.286389","180.74","COLERNE, UK","FM-15","EGUO ","V020","350,1,N,0026,1","99999,9,9,Y","009900,1,N,1","+0090,1","+0020,1","99999,9",,,,,,"10318,1,99999,9",,,,,"MET049METAR EGUO 080850Z 35005KT CAVOK 09/02 Q1032 BLU;",
"03658499999","2010-04-08T09:50:00","4","51.439083","-2.286389","180.74","COLERNE, UK","FM-15","EGUO ","V020","999,9,C,0000,1","99999,9,9,Y","009900,1,N,1","+0110,1","+0030,1","99999,9",,,,,,"10318,1,99999,9",,,,,"MET049METAR EGUO 080950Z 00000KT CAVOK 11/03 Q1032 BLU;",
"03658499999","2010-04-08T10:50:00","4","51.439083","-2.286389","180.74","COLERNE, UK","FM-15","EGUO ","V020","999,9,C,0000,1","99999,9,9,Y","009900,1,N,1","+0120,1","+0020,1","99999,9",,,,,,"10318,1,99999,9",,,,,"MET049METAR EGUO 081050Z 00000KT CAVOK 12/02 Q1032 BLU;",
"03658499999","2010-04-08T11:50:00","4","51.439083","-2.286389","180.74","COLERNE, UK","FM-15","EGUO ","V020","310,1,N,0026,1","22000,1,9,N","011265,1,N,1","+0130,1","+0000,1","99999,9","02,5,+01200,1,99,9",,,"02,99,1,99,9,99,9,99999,9,99,9,99,9",,"10318,1,99999,9",,,,,"MET055METAR EGUO 081150Z 31005KT 9999 FEW040 13/00 Q1032 BLU;",
"03658499999","2010-04-08T12:50:00","4","51.439083","-2.286389","180.74","COLERNE, UK","FM-15","EGUO ","V020","999,9,C,0000,1","22000,1,9,N","011265,1,N,1","+0140,1","+0010,1","99999,9","02,5,+01200,1,99,9",,,"02,99,1,99,9,99,9,99999,9,99,9,99,9",,"10318,1,99999,9",,,,,"MET055METAR EGUO 081250Z 00000KT 9999 FEW040 14/01 Q1032 BLU;",
"03658499999","2010-04-09T06:50:00","4","51.439083","-2.286389","180.74","COLERNE, UK","FM-15","EGUO ","V020","999,9,C,0000,1","99999,9,9,Y","009900,1,N,1","+0070,1","+0050,1","99999,9",,,,,,"10339,1,99999,9",,,,,"MET049METAR EGUO 090650Z 00000KT CAVOK 07/05 Q1034 BLU;",
"03658499999","2010-04-09T07:50:00","4","51.439083","-2.286389","180.74","COLERNE, UK","FM-15","EGUO ","V020","999,9,C,0000,1","99999,9,9,Y","009900,1,N,1","+0080,1","+0060,1","99999,9",,,,,,"10339,1,99999,9",,,,,"MET049METAR EGUO 090750Z 00000KT CAVOK 08/06 Q1034 BLU;",
"03658499999","2010-04-09T08:50:00","4","51.439083","-2.286389","180.74","COLERNE, UK","FM-15","EGUO ","V020","999,9,C,0000,1","99999,9,9,Y","009900,1,N,1","+0100,1","+0060,1","99999,9",,,,,,"10349,1,99999,9",,,,,"MET049METAR EGUO 090850Z 00000KT CAVOK 10/06 Q1035 BLU;",
"03658499999","2010-04-09T09:50:00","4","51.439083","-2.286389","180.74","COLERNE, UK","FM-15","EGUO ","V020","999,9,C,0000,1","99999,9,9,Y","009900,1,N,1","+0130,1","+0070,1","99999,9",,,,,,"10349,1,99999,9",,,,,"MET049METAR EGUO 090950Z 00000KT CAVOK 13/07 Q1035 BLU;",
"03658499999","2010-04-09T10:50:00","4","51.439083","-2.286389","180.74","COLERNE, UK","FM-15","EGUO ","V020","999,9,C,0000,1","22000,1,9,N","011265,1,N,1","+0140,1","+0030,1","99999,9","02,5,+01200,1,99,9",,,"02,99,1,99,9,99,9,99999,9,99,9,99,9",,"10349,1,99999,9",,,,,"MET055METAR EGUO 091050Z 00000KT 9999 FEW040 14/03 Q1035 BLU;",
"03658499999","2010-04-09T11:50:00","4","51.439083","-2.286389","180.74","COLERNE, UK","FM-15","EGUO ","V020","999,9,C,0000,1","22000,1,9,N","011265,1,N,1","+0160,1","+0030,1","99999,9","02,5,+01350,1,99,9",,,"02,99,1,99,9,99,9,99999,9,99,9,99,9",,"10349,1,99999,9",,,,,"MET055METAR EGUO 091150Z 00000KT 9999 FEW045 16/03 Q1035 BLU;",
"03658499999","2010-04-12T06:50:00","4","51.439083","-2.286389","180.74","COLERNE, UK","FM-15","EGUO ","V020","030,1,N,0067,1","00750,1,C,N","011265,1,N,1","+0050,1","+0010,1","99999,9","07,5,+00750,1,99,9",,,"07,99,1,99,9,99,9,99999,9,99,9,99,9",,"10291,1,99999,9",,,,,"MET055METAR EGUO 120650Z 03013KT 9999 BKN025 05/01 Q1029 BLU;",
"03658499999","2010-04-12T07:50:00","4","51.439083","-2.286389","180.74","COLERNE, UK","FM-15","EGUO ","V020","040,1,N,0077,1","00750,1,C,N","011265,1,N,1","+0060,1","+0010,1","99999,9","07,5,+00750,1,99,9",,,"07,99,1,99,9,99,9,99999,9,99,9,99,9",,"10291,1,99999,9",,,,,"MET055METAR EGUO 120750Z 04015KT 9999 BKN025 06/01 Q1029 BLU;",
"03658499999","2010-04-12T08:50:00","4","51.439083","-2.286389","180.74","COLERNE, UK","FM-15","EGUO ","V020","060,1,N,0072,1","22000,1,9,N","011265,1,N,1","+0080,1","+0020,1","99999,9","04,5,+00750,1,99,9",,,"04,99,1,99,9,99,9,99999,9,99,9,99,9",,"10291,1,99999,9",,,,,"MET055METAR EGUO 120850Z 06014KT 9999 SCT025 08/02 Q1029 BLU;",
"03658499999","2010-04-12T09:50:00","4","51.439083","-2.286389","180.74","COLERNE, UK","FM-15","EGUO ","V020","030,1,N,0077,1","22000,1,9,N","011265,1,N,1","+0080,1","+0010,1","99999,9","02,5,+00900,1,99,9",,,"02,99,1,99,9,99,9,99999,9,99,9,99,9",,"10291,1,99999,9",,,,,"MET055METAR EGUO 120950Z 03015KT 9999 FEW030 08/01 Q1029 BLU;",
"03658499999","2010-04-12T10:50:00","4","51.439083","-2.286389","180.74","COLERNE, UK","FM-15","EGUO ","V020","080,1,N,0093,1","22000,1,9,N","011265,1,N,1","+0090,1","+0020,1","99999,9","02,5,+00900,1,99,9",,,"02,99,1,99,9,99,9,99999,9,99,9,99,9",,"10291,1,99999,9",,,,,"MET055METAR EGUO 121050Z 08018KT 9999 FEW030 09/02 Q1029 BLU;",
"03658499999","2010-04-12T11:50:00","4","51.439083","-2.286389","180.74","COLERNE, UK","FM-15","EGUO ","V020","060,1,N,0067,1","22000,1,9,N","011265,1,N,1","+0100,1","+0030,1","99999,9","02,5,+00900,1,99,9",,,"02,99,1,99,9,99,9,99999,9,99,9,99,9",,"10291,1,99999,9",,,,,"MET061METAR EGUO 121150Z 06013KT 9999 FEW030 10/03 Q1029 BLU NOSIG;",
"03658499999","2010-04-12T12:50:00","4","51.439083","-2.286389","180.74","COLERNE, UK","FM-15","EGUO ","V020","030,1,N,0077,1","22000,1,9,N","011265,1,N,1","+0120,1","+0030,1","99999,9","04,5,+00900,1,99,9",,,"04,99,1,99,9,99,9,99999,9,99,9,99,9",,"10281,1,99999,9",,,,,"MET055METAR EGUO 121250Z 03015KT 9999 SCT030 12/03 Q1028 BLU;",
"03658499999","2010-04-12T13:50:00","4","51.439083","-2.286389","180.74","COLERNE, UK","FM-15","EGUO ","V020","040,1,N,0067,1","00900,1,C,N","011265,1,N,1","+0120,1","+0040,1","99999,9","07,5,+00900,1,99,9",,,"07,99,1,99,9,99,9,99999,9,99,9,99,9",,"10281,1,99999,9",,,,,"MET055METAR EGUO 121350Z 04013KT 9999 BKN030 12/04 Q1028 BLU;",
"03658499999","2010-04-12T14:50:00","4","51.439083","-2.286389","180.74","COLERNE, UK","FM-15","EGUO ","V020","040,1,N,0062,1","00900,1,C,N","011265,1,N,1","+0120,1","+0040,1","99999,9","07,5,+00900,1,99,9",,,"07,99,1,99,9,99,9,99999,9,99,9,99,9",,"10271,1,99999,9",,,,,"MET055METAR EGUO 121450Z 04012KT 9999 BKN030 12/04 Q1027 BLU;",
"03658499999","2010-04-13T06:50:00","4","51.439083","-2.286389","180.74","COLERNE, UK","FM-15","EGUO ","V020","020,1,N,0051,1","00270,1,C,N","011265,1,N,1","+0050,1","+0030,1","99999,9","07,5,+00270,1,99,9",,,"07,99,1,99,9,99,9,99999,9,99,9,99,9",,"10261,1,99999,9","05,1",,,,"MET064METAR EGUO 130650Z 02010KT 9999 5000S HZ BKN009 05/03 Q1026 GRN;",
"03658499999","2010-04-13T07:50:00","4","51.439083","-2.286389","180.74","COLERNE, UK","FM-15","EGUO ","V020","040,1,N,0051,1","22000,1,9,N","011265,1,N,1","+0060,1","+0030,1","99999,9","04,5,+00270,1,99,9",,,"04,99,1,99,9,99,9,99999,9,99,9,99,9",,"10261,1,99999,9","05,1",,,,"MET064METAR EGUO 130750Z 04010KT 9999 4000S HZ SCT009 06/03 Q1026 GRN;",
"03658499999","2010-04-13T08:50:00","4","51.439083","-2.286389","180.74","COLERNE, UK","FM-15","EGUO ","V020","020,1,N,0041,1","22000,1,9,N","008000,1,N,1","+0080,1","+0020,1","99999,9","04,5,+00600,1,99,9",,,"04,99,1,99,9,99,9,99999,9,99,9,99,9",,"10271,1,99999,9","05,1",,,,"MET058METAR EGUO 130850Z 02008KT 8000 HZ SCT020 08/02 Q1027 WHT;",
"03658499999","2010-04-13T09:50:00","4","51.439083","-2.286389","180.74","COLERNE, UK","FM-15","EGUO ","V020","010,1,N,0051,1","22000,1,9,N","011265,1,N,1","+0090,1","+0020,1","99999,9","04,5,+00600,1,99,9",,,"04,99,1,99,9,99,9,99999,9,99,9,99,9",,"10261,1,99999,9",,,,,"MET055METAR EGUO 130950Z 01010KT 9999 SCT020 09/02 Q1026 WHT;",
"03658499999","2010-04-13T10:50:00","4","51.439083","-2.286389","180.74","COLERNE, UK","FM-15","EGUO ","V020","030,1,N,0051,1","22000,1,9,N","011265,1,N,1","+0100,1","+0010,1","99999,9","02,5,+00600,1,99,9",,,"02,99,1,99,9,99,9,99999,9,99,9,99,9",,"10261,1,99999,9",,,,,"MET055METAR EGUO 131050Z 03010KT 9999 FEW020 10/01 Q1026 BLU;",
"03658499999","2010-04-13T11:50:00","4","51.439083","-2.286389","180.74","COLERNE, UK","FM-15","EGUO ","V020","020,1,N,0067,1","22000,1,9,N","011265,1,N,1","+0110,1","+0010,1","99999,9","02,5,+00900,1,99,9",,,"02,99,1,99,9,99,9,99999,9,99,9,99,9",,"10251,1,99999,9",,,,,"MET055METAR EGUO 131150Z 02013KT 9999 FEW030 11/01 Q1025 BLU;",
"03658499999","2010-04-13T12:50:00","4","51.439083","-2.286389","180.74","COLERNE, UK","FM-15","EGUO ","V020","050,1,N,0062,1","22000,1,9,N","011265,1,N,1","+0130,1","+0000,1","99999,9","02,5,+00900,1,99,9",,,"02,99,1,99,9,99,9,99999,9,99,9,99,9",,"10251,1,99999,9",,,,,"MET055METAR EGUO 131250Z 05012KT 9999 FEW030 13/00 Q1025 BLU;",
"03658499999","2010-04-13T13:50:00","4","51.439083","-2.286389","180.74","COLERNE, UK","FM-15","EGUO ","V020","030,1,N,0077,1","22000,1,9,N","011265,1,N,1","+0130,1","+0000,1","99999,9","02,5,+01200,1,99,9",,,"02,99,1,99,9,99,9,99999,9,99,9,99,9",,"10251,1,99999,9",,,,,"MET056METAR EGUO 131350Z 03015KT 9999 FEW040 13/M00 Q1025 BLU;",
"03658499999","2010-04-13T14:50:00","4","51.439083","-2.286389","180.74","COLERNE, UK","FM-15","EGUO ","V020","010,1,N,0051,1","22000,1,9,N","011265,1,N,1","+0130,1","+0000,1","99999,9","02,5,+01350,1,99,9",,,"02,99,1,99,9,99,9,99999,9,99,9,99,9",,"10240,1,99999,9",,,,,"MET055METAR EGUO 131450Z 01010KT 9999 FEW045 13/00 Q1024 BLU;",
"03658499999","2010-04-14T06:50:00","4","51.439083","-2.286389","180.74","COLERNE, UK","FM-15","EGUO ","V020","030,1,N,0067,1","00900,1,C,N","011265,1,N,1","+0050,1","+0050,1","99999,9","08,5,+00900,1,99,9",,,"08,99,1,99,9,99,9,99999,9,99,9,99,9",,"10220,1,99999,9",,,,,"MET055METAR EGUO 140650Z 03013KT 9999 OVC030 05/05 Q1022 BLU;",
"03658499999","2010-04-14T07:50:00","4","51.439083","-2.286389","180.74","COLERNE, UK","FM-15","EGUO ","V020","030,1,N,0062,1","00600,1,C,N","011265,1,N,1","+0060,1","+0030,1","99999,9","08,5,+00600,1,99,9",,,"08,99,1,99,9,99,9,99999,9,99,9,99,9",,"10220,1,99999,9",,,,,"MET055METAR EGUO 140750Z 03012KT 9999 OVC020 06/03 Q1022 WHT;",
"03658499999","2010-04-14T08:50:00","4","51.439083","-2.286389","180.74","COLERNE, UK","FM-15","EGUO ","V020","020,1,N,0062,1","00390,1,C,N","005000,1,N,1","+0060,1","+0030,1","99999,9","08,5,+00390,1,99,9",,,"08,99,1,99,9,99,9,99999,9,99,9,99,9",,"10220,1,99999,9","05,1",,,,"MET058METAR EGUO 140850Z 02012KT 5000 HZ OVC013 06/03 Q1022 GRN;",
"03658499999","2010-04-14T09:50:00","4","51.439083","-2.286389","180.74","COLERNE, UK","FM-15","EGUO ","V020","040,1,N,0051,1","00390,1,C,N","007000,1,N,1","+0060,1","+0030,1","99999,9","08,5,+00390,1,99,9",,,"08,99,1,99,9,99,9,99999,9,99,9,99,9",,"10220,1,99999,9","05,1",,,,"MET058METAR EGUO 140950Z 04010KT 7000 HZ OVC013 06/03 Q1022 GRN;",
"03658499999","2010-04-14T10:50:00","4","51.439083","-2.286389","180.74","COLERNE, UK","FM-15","EGUO ","V020","030,1,N,0062,1","00390,1,C,N","006000,1,N,1","+0070,1","+0030,1","99999,9","08,5,+00390,1,99,9",,,"08,99,1,99,9,99,9,99999,9,99,9,99,9",,"10220,1,99999,9","05,1",,,,"MET058METAR EGUO 141050Z 03012KT 6000 HZ OVC013 07/03 Q1022 GRN;",
"03658499999","2010-04-14T11:50:00","4","51.439083","-2.286389","180.74","COLERNE, UK","FM-15","EGUO ","V020","060,1,N,0062,1","00390,1,C,N","008000,1,N,1","+0080,1","+0030,1","99999,9","08,5,+00390,1,99,9",,,"08,99,1,99,9,99,9,99999,9,99,9,99,9",,"10220,1,99999,9","05,1",,,,"MET058METAR EGUO 141150Z 06012KT 8000 HZ OVC013 08/03 Q1022 GRN;",
"03658499999","2010-04-14T12:50:00","4","51.439083","-2.286389","180.74","COLERNE, UK","FM-15","EGUO ","V020","050,1,N,0072,1","00390,1,C,N","008000,1,N,1","+0080,1","+0030,1","99999,9","08,5,+00390,1,99,9",,,"08,99,1,99,9,99,9,99999,9,99,9,99,9",,"10220,1,99999,9","05,1",,,,"MET058METAR EGUO 141250Z 05014KT 8000 HZ OVC013 08/03 Q1022 GRN;",
"03658499999","2010-04-14T13:50:00","4","51.439083","-2.286389","180.74","COLERNE, UK","FM-15","EGUO ","V020","040,1,N,0072,1","00600,1,C,N","011265,1,N,1","+0090,1","+0040,1","99999,9","07,5,+00600,1,99,9",,,"07,99,1,99,9,99,9,99999,9,99,9,99,9",,"10220,1,99999,9",,,,,"MET055METAR EGUO 141350Z 04014KT 9999 BKN020 09/04 Q1022 WHT;",
"03658499999","2010-04-14T14:50:00","4","51.439083","-2.286389","180.74","COLERNE, UK","FM-15","EGUO ","V020","060,1,N,0062,1","00660,1,C,N","011265,1,N,1","+0100,1","+0040,1","99999,9","07,5,+00660,1,99,9",,,"07,99,1,99,9,99,9,99999,9,99,9,99,9",,"10220,1,99999,9",,,,,"MET055METAR EGUO 141450Z 06012KT 9999 BKN022 10/04 Q1022 WHT;",
"03658499999","2010-04-15T06:50:00","4","51.439083","-2.286389","180.74","COLERNE, UK","FM-15","EGUO ","V020","060,1,N,0026,1","00210,1,C,N","004500,1,N,1","+0040,1","+0020,1","99999,9","04,5,+00180,1,99,9","08,5,+00210,1,99,9",,"08,99,1,99,9,99,9,99999,9,99,9,99,9",,"10240,1,99999,9","05,1",,,,"MET066METAR EGUO 150650Z 06005KT 4500 HZ SCT006 OVC007 04/02 Q1024 YLO1;",
"03658499999","2010-04-15T07:50:00","4","51.439083","-2.286389","180.74","COLERNE, UK","FM-15","EGUO ","V020","020,1,N,0051,1","00240,1,C,N","004000,1,N,1","+0050,1","+0030,1","99999,9","04,5,+00120,1,99,9","07,5,+00240,1,99,9",,"07,99,1,99,9,99,9,99999,9,99,9,99,9",,"10240,1,99999,9","05,1",,,,"MET066METAR EGUO 150750Z 02010KT 4000 HZ SCT004 BKN008 05/03 Q1024 YLO2;",
"03658499999","2010-04-15T08:50:00","4","51.439083","-2.286389","180.74","COLERNE, UK","FM-15","EGUO ","V020","050,1,N,0051,1","00300,1,C,N","004000,1,N,1","+0060,1","+0030,1","99999,9","07,5,+00300,1,99,9",,,"07,99,1,99,9,99,9,99999,9,99,9,99,9",,"10240,1,99999,9","05,1",,,,"MET058METAR EGUO 150850Z 05010KT 4000 HZ BKN010 06/03 Q1024 GRN;",
"03658499999","2010-04-15T09:50:00","4","51.439083","-2.286389","180.74","COLERNE, UK","FM-15","EGUO ","V020","050,1,N,0051,1","00300,1,C,N","004000,1,N,1","+0060,1","+0030,1","99999,9","07,5,+00300,1,99,9",,,"07,99,1,99,9,99,9,99999,9,99,9,99,9",,"10251,1,99999,9","05,1",,,,"MET058METAR EGUO 150950Z 05010KT 4000 HZ BKN010 06/03 Q1025 GRN;",
"03658499999","2010-04-15T10:50:00","4","51.439083","-2.286389","180.74","COLERNE, UK","FM-15","EGUO ","V020","040,1,N,0067,1","00360,1,C,N","004000,1,N,1","+0070,1","+0030,1","99999,9","07,5,+00360,1,99,9",,,"07,99,1,99,9,99,9,99999,9,99,9,99,9",,"10251,1,99999,9","05,1",,,,"MET058METAR EGUO 151050Z 04013KT 4000 HZ BKN012 07/03 Q1025 GRN;",
"03658499999","2010-04-16T06:50:00","4","51.439083","-2.286389","180.74","COLERNE, UK","FM-15","EGUO ","V020","060,1,N,0051,1","00300,1,C,N","004000,1,N,1","+0050,1","+0030,1","99999,9","07,5,+00300,1,99,9",,,"07,99,1,99,9,99,9,99999,9,99,9,99,9",,"10291,1,99999,9","05,1",,,,"MET058METAR EGUO 160650Z 06010KT 4000 HZ BKN010 05/03 Q1029 GRN;",
"03658499999","2010-04-16T07:50:00","4","51.439083","-2.286389","180.74","COLERNE, UK","FM-15","EGUO ","V020","040,1,N,0062,1","22000,1,9,N","007000,1,N,1","+0060,1","+0020,1","99999,9","02,5,+00360,1,99,9",,,"02,99,1,99,9,99,9,99999,9,99,9,99,9",,"10291,1,99999,9","05,1",,,,"MET058METAR EGUO 160750Z 04012KT 7000 HZ FEW012 06/02 Q1029 WHT;",
"03658499999","2010-04-16T08:50:00","4","51.439083","-2.286389","180.74","COLERNE, UK","FM-15","EGUO ","V020","060,1,N,0072,1","22000,1,9,N","011265,1,N,1","+0070,1","+0020,1","99999,9","02,5,+00600,1,99,9",,,"02,99,1,99,9,99,9,99999,9,99,9,99,9",,"10291,1,99999,9",,,,,"MET055METAR EGUO 160850Z 06014KT 9999 FEW020 07/02 Q1029 BLU;",
"03658499999","2010-04-16T09:50:00","4","51.439083","-2.286389","180.74","COLERNE, UK","FM-15","EGUO ","V020","070,1,N,0077,1","22000,1,9,N","011265,1,N,1","+0090,1","+0010,1","99999,9","04,5,+00750,1,99,9",,,"04,99,1,99,9,99,9,99999,9,99,9,99,9",,"10291,1,99999,9",,,,,"MET055METAR EGUO 160950Z 07015KT 9999 SCT025 09/01 Q1029 BLU;",
"03658499999","2010-04-16T10:50:00","4","51.439083","-2.286389","180.74","COLERNE, UK","FM-15","EGUO ","V020","070,1,N,0077,1","22000,1,9,N","011265,1,N,1","+0090,1","+0010,1","99999,9","04,5,+00750,1,99,9",,,"04,99,1,99,9,99,9,99999,9,99,9,99,9",,"10291,1,99999,9",,,,,"MET055METAR EGUO 161050Z 07015KT 9999 SCT025 09/01 Q1029 BLU;",
"03658499999","2010-04-16T11:50:00","4","51.439083","-2.286389","180.74","COLERNE, UK","FM-15","EGUO ","V020","080,1,N,0087,1","22000,1,9,N","011265,1,N,1","+0110,1","+0010,1","99999,9","04,5,+01200,1,99,9",,,"04,99,1,99,9,99,9,99999,9,99,9,99,9",,"10291,1,99999,9",,,,,"MET055METAR EGUO 161150Z 08017KT 9999 SCT040 11/01 Q1029 BLU;",
"03658499999","2010-04-21T06:50:00","4","51.439083","-2.286389","180.74","COLERNE, UK","FM-15","EGUO ","V020","350,1,N,0062,1","99999,9,9,Y","009900,1,N,1","+0040,1","-0020,1","99999,9",,,,,,"10220,1,99999,9",,,,,"MET050METAR EGUO 210650Z 35012KT CAVOK 04/M02 Q1022 BLU;",
"03658499999","2010-04-21T07:50:00","4","51.439083","-2.286389","180.74","COLERNE, UK","FM-15","EGUO ","V020","360,1,N,0041,1","22000,1,9,N","011265,1,N,1","+0050,1","-0020,1","99999,9","02,5,+00840,1,99,9",,,"02,99,1,99,9,99,9,99999,9,99,9,99,9",,"10220,1,99999,9",,,,,"MET056METAR EGUO 210750Z 36008KT 9999 FEW028 05/M02 Q1022 BLU;",
"03658499999","2010-04-21T08:50:00","4","51.439083","-2.286389","180.74","COLERNE, UK","FM-15","EGUO ","V020","330,1,N,0062,1","22000,1,9,N","011265,1,N,1","+0070,1","-0010,1","99999,9","02,5,+00840,1,99,9",,,"02,99,1,99,9,99,9,99999,9,99,9,99,9",,"10220,1,99999,9",,,,,"MET056METAR EGUO 210850Z 33012KT 9999 FEW028 07/M01 Q1022 BLU;",
"03658499999","2010-04-21T09:50:00","4","51.439083","-2.286389","180.74","COLERNE, UK","FM-15","EGUO ","V020","010,1,N,0046,1","22000,1,9,N","011265,1,N,1","+0080,1","-0010,1","99999,9","02,5,+01050,1,99,9",,,"02,99,1,99,9,99,9,99999,9,99,9,99,9",,"10220,1,99999,9",,,,,"MET056METAR EGUO 210950Z 01009KT 9999 FEW035 08/M01 Q1022 BLU;",
"03658499999","2010-04-21T10:50:00","4","51.439083","-2.286389","180.74","COLERNE, UK","FM-15","EGUO ","V020","330,1,N,0051,1","22000,1,9,N","011265,1,N,1","+0080,1","-0020,1","99999,9","02,5,+01050,1,99,9",,,"02,99,1,99,9,99,9,99999,9,99,9,99,9",,"10220,1,99999,9",,,,,"MET056METAR EGUO 211050Z 33010KT 9999 FEW035 08/M02 Q1022 BLU;",
"03658499999","2010-04-21T11:50:00","4","51.439083","-2.286389","180.74","COLERNE, UK","FM-15","EGUO ","V020","020,1,N,0036,1","22000,1,9,N","011265,1,N,1","+0080,1","-0020,1","99999,9","02,5,+01050,1,99,9",,,"02,99,1,99,9,99,9,99999,9,99,9,99,9",,"10220,1,99999,9",,,,,"MET056METAR EGUO 211150Z 02007KT 9999 FEW035 08/M02 Q1022 BLU;",
"03658499999","2010-04-21T12:50:00","4","51.439083","-2.286389","180.74","COLERNE, UK","FM-15","EGUO ","V020","360,1,N,0051,1","22000,1,9,N","011265,1,N,1","+0090,1","+0000,1","99999,9","02,5,+01050,1,99,9",,,"02,99,1,99,9,99,9,99999,9,99,9,99,9",,"10220,1,99999,9",,,,,"MET056METAR EGUO 211250Z 36010KT 9999 FEW035 09/M00 Q1022 BLU;",
"03658499999","2010-04-22T07:00:00","4","51.439083","-2.286389","180.74","COLERNE, UK","FM-15","EGUO ","V020","999,9,C,0000,1","99999,9,9,Y","009900,1,N,1","+0040,1","+0000,1","99999,9",,,,,,"10200,1,99999,9",,,,,"MET050METAR EGUO 220655Z 00000KT CAVOK 04/M00 Q1020 BLU;",
"03658499999","2010-04-22T08:50:00","4","51.439083","-2.286389","180.74","COLERNE, UK","FM-15","EGUO ","V020","120,1,N,0026,1","99999,9,9,Y","009900,1,N,1","+0080,1","-0030,1","99999,9",,,,,,"10200,1,99999,9",,,,,"MET050METAR EGUO 220850Z 12005KT CAVOK 08/M03 Q1020 BLU;",
"03658499999","2010-04-22T09:50:00","4","51.439083","-2.286389","180.74","COLERNE, UK","FM-15","EGUO ","V020","999,9,C,0000,1","99999,9,9,Y","009900,1,N,1","+0090,1","-0040,1","99999,9",,,,,,"10200,1,99999,9",,,,,"MET050METAR EGUO 220950Z 00000KT CAVOK 09/M04 Q1020 BLU;",
"03658499999","2010-04-22T10:50:00","4","51.439083","-2.286389","180.74","COLERNE, UK","FM-15","EGUO ","V020","999,9,C,0000,1","99999,9,9,Y","009900,1,N,1","+0100,1","-0030,1","99999,9",,,,,,"10190,1,99999,9",,,,,"MET050METAR EGUO 221050Z 00000KT CAVOK 10/M03 Q1019 BLU;",
"03658499999","2010-04-22T11:50:00","4","51.439083","-2.286389","180.74","COLERNE, UK","FM-15","EGUO ","V020","999,9,C,0000,1","99999,9,9,Y","009900,1,N,1","+0110,1","-0030,1","99999,9",,,,,,"10190,1,99999,9",,,,,"MET050METAR EGUO 221150Z 00000KT CAVOK 11/M03 Q1019 BLU;",
"03658499999","2010-04-22T12:50:00","4","51.439083","-2.286389","180.74","COLERNE, UK","FM-15","EGUO ","V020","999,9,C,0000,1","99999,9,9,Y","009900,1,N,1","+0110,1","-0040,1","99999,9",,,,,,"10180,1,99999,9",,,,,"MET050METAR EGUO 221250Z 00000KT CAVOK 11/M04 Q1018 BLU;",
"03658499999","2010-04-22T13:50:00","4","51.439083","-2.286389","180.74","COLERNE, UK","FM-15","EGUO ","V020","999,9,C,0000,1","99999,9,9,Y","009900,1,N,1","+0130,1","-0040,1","99999,9",,,,,,"10180,1,99999,9",,,,,"MET050METAR EGUO 221350Z 00000KT CAVOK 13/M04 Q1018 BLU;",
"03658499999","2010-04-22T14:50:00","4","51.439083","-2.286389","180.74","COLERNE, UK","FM-15","EGUO ","V020","999,9,C,0000,1","99999,9,9,Y","009900,1,N,1","+0120,1","-0050,1","99999,9",,,,,,"10169,1,99999,9",,,,,"MET050METAR EGUO 221450Z 00000KT CAVOK 12/M05 Q1017 BLU;",
"03658499999","2010-04-23T06:50:00","4","51.439083","-2.286389","180.74","COLERNE, UK","FM-15","EGUO ","V020","999,9,C,0000,1","99999,9,9,Y","009900,1,N,1","+0070,1","+0020,1","99999,9",,,,,,"10169,1,99999,9",,,,,"MET049METAR EGUO 230650Z 00000KT CAVOK 07/02 Q1017 BLU;",
"03658499999","2010-04-23T07:50:00","4","51.439083","-2.286389","180.74","COLERNE, UK","FM-15","EGUO ","V020","999,9,C,0000,1","99999,9,9,Y","009900,1,N,1","+0080,1","+0020,1","99999,9",,,,,,"10169,1,99999,9",,,,,"MET049METAR EGUO 230750Z 00000KT CAVOK 08/02 Q1017 BLU;",
"03658499999","2010-04-23T08:50:00","4","51.439083","-2.286389","180.74","COLERNE, UK","FM-15","EGUO ","V020","140,1,N,0026,1","99999,9,9,Y","009900,1,N,1","+0100,1","-0040,1","99999,9",,,,,,"10169,1,99999,9",,,,,"MET050METAR EGUO 230850Z 14005KT CAVOK 10/M04 Q1017 BLU;",
"03658499999","2010-04-23T09:50:00","4","51.439083","-2.286389","180.74","COLERNE, UK","FM-15","EGUO ","V020","170,1,N,0026,1","99999,9,9,Y","009900,1,N,1","+0110,1","-0010,1","99999,9",,,,,,"10169,1,99999,9",,,,,"MET050METAR EGUO 230950Z 17005KT CAVOK 11/M01 Q1017 BLU;",
"03658499999","2010-04-23T10:50:00","4","51.439083","-2.286389","180.74","COLERNE, UK","FM-15","EGUO ","V020","150,1,N,0041,1","99999,9,9,Y","009900,1,N,1","+0130,1","+0000,1","99999,9",,,,,,"10180,1,99999,9",,,,,"MET049METAR EGUO 231050Z 15008KT CAVOK 13/00 Q1018 BLU;",
"03658499999","2010-04-23T11:50:00","4","51.439083","-2.286389","180.74","COLERNE, UK","FM-15","EGUO ","V020","150,1,N,0041,1","22000,1,9,N","008000,1,N,1","+0130,1","+0010,1","99999,9",,,,"00,99,1,99,9,99,9,99999,9,99,9,99,9",,"10159,1,99999,9","05,1",,,,"MET055METAR EGUO 231150Z 15008KT 8000 HZ SKC 13/01 Q1016 BLU;","Q01    003SCCGA1"
"03658499999","2010-04-23T12:50:00","4","51.439083","-2.286389","180.74","COLERNE, UK","FM-15","EGUO ","V020","180,1,N,0026,1","99999,9,9,Y","009900,1,N,1","+0140,1","-0010,1","99999,9",,,,,,"10159,1,99999,9",,,,,"MET050METAR EGUO 231250Z 18005KT CAVOK 14/M01 Q1016 BLU;",
"03658499999","2010-04-23T13:50:00","4","51.439083","-2.286389","180.74","COLERNE, UK","FM-15","EGUO ","V020","999,9,C,0000,1","99999,9,9,Y","009900,1,N,1","+0170,1","+0000,1","99999,9",,,,,,"10159,1,99999,9",,,,,"MET049METAR EGUO 231350Z 00000KT CAVOK 17/00 Q1016 BLU;",
"03658499999","2010-04-24T06:50:00","4","51.439083","-2.286389","180.74","COLERNE, UK","FM-15","EGUO ","V020","140,1,N,0031,1","22000,1,9,N","008000,1,N,1","+0060,1","+0020,1","99999,9",,,,"00,99,1,99,9,99,9,99999,9,99,9,99,9",,"10180,1,99999,9","05,1",,,,"MET055METAR EGUO 240650Z 14006KT 8000 HZ NSC 06/02 Q1018 BLU;","Q01    003SCCGA1"
"03658499999","2010-04-24T07:50:00","4","51.439083","-2.286389","180.74","COLERNE, UK","FM-15","EGUO ","V020","150,1,N,0051,1","22000,1,9,N","007000,1,N,1","+0080,1","+0030,1","99999,9",,,,"00,99,1,99,9,99,9,99999,9,99,9,99,9",,"10180,1,99999,9","05,1",,,,"MET055METAR EGUO 240750Z 15010KT 7000 HZ NSC 08/03 Q1018 WHT;","Q01    003SCCGA1"
"03658499999","2010-04-24T08:50:00","4","51.439083","-2.286389","180.74","COLERNE, UK","FM-15","EGUO ","V020","150,1,N,0026,1","22000,1,9,N","007000,1,N,1","+0100,1","+0040,1","99999,9",,,,"00,99,1,99,9,99,9,99999,9,99,9,99,9",,"10180,1,99999,9","05,1",,,,"MET055METAR EGUO 240850Z 15005KT 7000 HZ NSC 10/04 Q1018 WHT;","Q01    003SCCGA1"
"03658499999","2010-04-24T09:50:00","4","51.439083","-2.286389","180.74","COLERNE, UK","FM-15","EGUO ","V020","120,1,N,0036,1","22000,1,9,N","007000,1,N,1","+0130,1","+0040,1","99999,9",,,,"00,99,1,99,9,99,9,99999,9,99,9,99,9",,"10180,1,99999,9","05,1",,,,"MET055METAR EGUO 240950Z 12007KT 7000 HZ NSC 13/04 Q1018 WHT;","Q01    003SCCGA1"
"03658499999","2010-04-24T10:50:00","4","51.439083","-2.286389","180.74","COLERNE, UK","FM-15","EGUO ","V020","130,1,N,0051,1","22000,1,9,N","006000,1,N,1","+0150,1","+0050,1","99999,9",,,,"00,99,1,99,9,99,9,99999,9,99,9,99,9",,"10180,1,99999,9","05,1",,,,"MET055METAR EGUO 241050Z 13010KT 6000 HZ NSC 15/05 Q1018 WHT;","Q01    003SCCGA1"
"03658499999","2010-04-24T11:50:00","4","51.439083","-2.286389","180.74","COLERNE, UK","FM-15","EGUO ","V020","150,1,N,0041,1","22000,1,9,N","007000,1,N,1","+0170,1","+0060,1","99999,9",,,,"00,99,1,99,9,99,9,99999,9,99,9,99,9",,"10180,1,99999,9","05,1",,,,"MET055METAR EGUO 241150Z 15008KT 7000 HZ NSC 17/06 Q1018 WHT;","Q01    003SCCGA1"
"03658499999","2010-04-24T12:50:00","4","51.439083","-2.286389","180.74","COLERNE, UK","FM-15","EGUO ","V020","170,1,N,0077,1","22000,1,9,N","005000,1,N,1","+0180,1","+0040,1","99999,9",,,,"00,99,1,99,9,99,9,99999,9,99,9,99,9",,"10169,1,99999,9","05,1",,,,"MET055METAR EGUO 241250Z 17015KT 5000 HZ NSC 18/04 Q1017 WHT;","Q01    003SCCGA1"
"03658499999","2010-04-28T06:50:00","4","51.439083","-2.286389","180.74","COLERNE, UK","FM-15","EGUO ","V020","180,1,N,0041,1","99999,9,C,N","005000,1,N,1","+0100,1","+0070,1","99999,9","02,5,+00900,1,99,9","04,5,+03600,1,99,9",,"04,99,1,99,9,99,9,99999,9,99,9,99,9",,"10220,1,99999,9","05,1",,,,"MET065METAR EGUO 280650Z 18008KT 5000 HZ FEW030 SCT120 10/07 Q1022 WHT;","P01 036003SCOCIG"
"03658499999","2010-04-28T07:50:00","4","51.439083","-2.286389","180.74","COLERNE, UK","FM-15","EGUO ","V020","190,1,N,0036,1","03600,1,C,N","005000,1,N,1","+0110,1","+0080,1","99999,9","02,5,+00900,1,99,9","04,5,+03600,1,99,9","08,5,+06000,1,99,9","08,99,1,99,9,99,9,99999,9,99,9,99,9",,"10210,1,99999,9","05,1",,,,"MET072METAR EGUO 280750Z 19007KT 5000 HZ FEW030 SCT120 OVC200 11/08 Q1021 WHT;",
"03658499999","2010-04-28T08:50:00","4","51.439083","-2.286389","180.74","COLERNE, UK","FM-15","EGUO ","V020","150,1,N,0041,1","06600,1,C,N","008000,1,N,1","+0130,1","+0090,1","99999,9","04,5,+04500,1,99,9","07,5,+06600,1,99,9",,"07,99,1,99,9,99,9,99999,9,99,9,99,9",,"10210,1,99999,9","05,1",,,,"MET065METAR EGUO 280850Z 15008KT 8000 HZ SCT150 BKN220 13/09 Q1021 BLU;",
"03658499999","2010-04-28T09:50:00","4","51.439083","-2.286389","180.74","COLERNE, UK","FM-15","EGUO ","V020","190,1,N,0051,1","99999,9,9,Y","009900,1,N,1","+0170,1","+0090,1","99999,9",,,,,,"10210,1,99999,9",,,,,"MET049METAR EGUO 280950Z 19010KT CAVOK 17/09 Q1021 BLU;",
"03658499999","2010-04-28T10:50:00","4","51.439083","-2.286389","180.74","COLERNE, UK","FM-15","EGUO ","V020","200,1,N,0051,1","99999,9,9,Y","009900,1,N,1","+0190,1","+0090,1","99999,9",,,,,,"10200,1,99999,9",,,,,"MET049METAR EGUO 281050Z 20010KT CAVOK 19/09 Q1020 BLU;",
"03658499999","2010-04-28T11:50:00","4","51.439083","-2.286389","180.74","COLERNE, UK","FM-15","EGUO ","V020","190,1,N,0046,1","99999,9,9,Y","009900,1,N,1","+0190,1","+0090,1","99999,9",,,,,,"10200,1,99999,9",,,,,"MET049METAR EGUO 281150Z 19009KT CAVOK 19/09 Q1020 BLU;",
"03658499999","2010-04-28T12:50:00","4","51.439083","-2.286389","180.74","COLERNE, UK","FM-15","EGUO ","V020","180,1,N,0067,1","99999,9,9,Y","009900,1,N,1","+0180,1","+0080,1","99999,9",,,,,,"10190,1,99999,9",,,,,"MET049METAR EGUO 281250Z 18013KT CAVOK 18/08 Q1019 BLU;",
"03658499999","2010-04-28T13:50:00","4","51.439083","-2.286389","180.74","COLERNE, UK","FM-15","EGUO ","V020","180,1,N,0077,1","99999,9,9,Y","009900,1,N,1","+0190,1","+0080,1","99999,9",,,,,,"10190,1,99999,9",,,,,"MET049METAR EGUO 281350Z 18015KT CAVOK 19/08 Q1019 BLU;",
"03658499999","2010-04-28T14:50:00","4","51.439083","-2.286389","180.74","COLERNE, UK","FM-15","EGUO ","V020","180,1,N,0062,1","99999,9,C,N","011265,1,N,1","+0190,1","+0070,1","99999,9","02,5,+00900,1,99,9","04,5,+04500,1,99,9",,"04,99,1,99,9,99,9,99999,9,99,9,99,9",,"10180,1,99999,9",,,,,"MET062METAR EGUO 281450Z 18012KT 9999 FEW030 SCT150 19/07 Q1018 BLU;","P01 045003SCOCIG"
"03658499999","2010-04-29T06:50:00","4","51.439083","-2.286389","180.74","COLERNE, UK","FM-15","EGUO ","V020","270,1,N,0026,1","00180,1,C,N","008000,1,N,1","+0110,1","+0100,1","99999,9","07,5,+00180,1,99,9",,,"07,99,1,99,9,99,9,99999,9,99,9,99,9",,"10129,1,99999,9",,,,,"MET056METAR EGUO 290650Z 27005KT 8000 BKN006 11/10 Q1013 YLO1;",
"03658499999","2010-04-29T07:50:00","4","51.439083","-2.286389","180.74","COLERNE, UK","FM-15","EGUO ","V020","250,1,N,0021,1","00180,1,C,N","008000,1,N,1","+0110,1","+0100,1","99999,9","07,5,+00180,1,99,9",,,"07,99,1,99,9,99,9,99999,9,99,9,99,9",,"10129,1,99999,9",,,,,"MET056METAR EGUO 290750Z 25004KT 8000 BKN006 11/10 Q1013 YLO1;",
"03658499999","2010-04-29T08:50:00","4","51.439083","-2.286389","180.74","COLERNE, UK","FM-15","EGUO ","V020","999,9,C,0000,1","00180,1,C,N","008000,1,N,1","+0120,1","+0090,1","99999,9","07,5,+00180,1,99,9",,,"07,99,1,99,9,99,9,99999,9,99,9,99,9",,"10129,1,99999,9",,,,,"MET056METAR EGUO 290850Z 00000KT 8000 BKN006 12/09 Q1013 YLO1;",
"03658499999","2010-04-29T09:50:00","4","51.439083","-2.286389","180.74","COLERNE, UK","FM-15","EGUO ","V020","250,1,N,0031,1","02400,1,C,N","008000,1,N,1","+0120,1","+0100,1","99999,9","04,5,+00300,1,99,9","08,5,+02400,1,99,9",,"08,99,1,99,9,99,9,99999,9,99,9,99,9",,"10129,1,99999,9","63,1",,,,"MET065METAR EGUO 290950Z 25006KT 8000 RA SCT010 OVC080 12/10 Q1013 GRN;",
"03658499999","2010-04-29T10:50:00","4","51.439083","-2.286389","180.74","COLERNE, UK","FM-15","EGUO ","V020","999,9,C,0000,1","02400,1,C,N","004000,1,N,1","+0110,1","+0110,1","99999,9","04,5,+00360,1,99,9","08,5,+02400,1,99,9",,"08,99,1,99,9,99,9,99999,9,99,9,99,9",,"10119,1,99999,9","63,1",,,,"MET065METAR EGUO 291050Z 00000KT 4000 RA SCT012 OVC080 11/11 Q1012 GRN;",
"03658499999","2010-04-30T06:50:00","4","51.439083","-2.286389","180.74","COLERNE, UK","FM-15","EGUO ","V020","999,9,C,0000,1","00360,1,C,N","011265,1,N,1","+0090,1","+0070,1","99999,9","04,5,+00210,1,99,9","07,5,+00360,1,99,9",,"07,99,1,99,9,99,9,99999,9,99,9,99,9",,"10102,1,99999,9",,,,,"MET062METAR EGUO 300650Z 00000KT 9999 SCT007 BKN012 09/07 Q1010 GRN;",
"03658499999","2010-04-30T07:20:00","4","51.439083","-2.286389","180.74","COLERNE, UK","FM-15","EGUO ","V020","230,1,N,0051,1","00360,1,C,N","011265,1,N,1","+0090,1","+0070,1","99999,9","04,5,+00210,1,99,9","07,5,+00360,1,99,9",,"07,99,1,99,9,99,9,99999,9,99,9,99,9",,"10102,1,99999,9",,,,,"MET062METAR EGUO 300720Z 23010KT 9999 SCT007 BKN012 09/07 Q1010 GRN;",
"03658499999","2010-04-30T08:50:00","4","51.439083","-2.286389","180.74","COLERNE, UK","FM-15","EGUO ","V020","250,1,N,0062,1","00300,1,C,N","011265,1,N,1","+0110,1","+0080,1","99999,9","04,5,+00240,1,99,9","07,5,+00300,1,99,9",,"07,99,1,99,9,99,9,99999,9,99,9,99,9",,"10108,1,99999,9",,,,,"MET062METAR EGUO 300850Z 25012KT 9999 SCT008 BKN010 11/08 Q1011 GRN;",
"03658499999","2010-04-30T09:50:00","4","51.439083","-2.286389","180.74","COLERNE, UK","FM-15","EGUO ","V020","240,1,N,0062,1","00450,1,C,N","011265,1,N,1","+0110,1","+0080,1","99999,9","04,5,+00300,1,99,9","07,5,+00450,1,99,9",,"07,99,1,99,9,99,9,99999,9,99,9,99,9",,"10108,1,99999,9",,,,,"MET062METAR EGUO 300950Z 24012KT 9999 SCT010 BKN015 11/08 Q1011 GRN;",
"03658499999","2010-04-30T10:50:00","4","51.439083","-2.286389","180.74","COLERNE, UK","FM-15","EGUO ","V020","250,1,N,0051,1","99999,9,C,N","011265,1,N,1","+0110,1","+0090,1","99999,9","02,5,+00240,1,99,9","04,5,+00600,1,99,9",,"04,99,1,99,9,99,9,99999,9,99,9,99,9",,"10102,1,99999,9",,,,,"MET062METAR EGUO 301050Z 25010KT 9999 FEW008 SCT020 11/09 Q1010 WHT;","P01 006003SCOCIG"
"03658499999","2010-04-30T12:50:00","4","51.439083","-2.286389","180.74","COLERNE, UK","FM-15","EGUO ","V020","240,1,N,0082,1","01500,1,C,N","011265,1,N,1","+0130,1","+0070,1","99999,9","04,5,+00750,1,99,9","07,5,+01500,1,99,9",,"07,99,1,99,9,99,9,99999,9,99,9,99,9",,"10102,1,99999,9","61,1",,,,"MET066METAR EGUO 301250Z 24016KT 9999 -RA SCT025 BKN050 13/07 Q1010 BLU;",
"03658499999","2010-04-30T13:50:00","4","51.439083","-2.286389","180.74","COLERNE, UK","FM-15","EGUO ","V020","250,1,N,0072,1","01500,1,C,N","011265,1,N,1","+0120,1","+0080,1","99999,9","04,5,+00300,1,99,9","07,5,+01500,1,99,9",,"07,99,1,99,9,99,9,99999,9,99,9,99,9",,"10102,1,99999,9","63,1",,,,"MET071METAR EGUO 301350Z 25014KT 9999 7000N RA SCT010 BKN050 12/08 Q1010 GRN;",
"03658499999","2010-05-01T06:50:00","4","51.439083","-2.286389","180.74","COLERNE, UK","FM-15","EGUO ","V020","280,1,N,0062,1","99999,9,C,N","011265,1,N,1","+0090,1","+0080,1","99999,9","02,5,+00150,1,99,9","04,5,+00360,1,99,9",,"04,99,1,99,9,99,9,99999,9,99,9,99,9",,"10102,1,99999,9",,,,,"MET062METAR EGUO 010650Z 28012KT 9999 FEW005 SCT012 09/08 Q1010 GRN;","P01 003603SCOCIG"
"03658499999","2010-05-01T07:50:00","4","51.439083","-2.286389","180.74","COLERNE, UK","FM-15","EGUO ","V020","260,1,N,0031,1","99999,9,C,N","011265,1,N,1","+0100,1","+0080,1","99999,9","02,5,+00240,1,99,9","04,5,+00360,1,99,9",,"04,99,1,99,9,99,9,99999,9,99,9,99,9",,"10102,1,99999,9",,,,,"MET062METAR EGUO 010750Z 26006KT 9999 FEW008 SCT012 10/08 Q1010 GRN;","P01 003603SCOCIG"
"03658499999","2010-05-01T08:50:00","4","51.439083","-2.286389","180.74","COLERNE, UK","FM-15","EGUO ","V020","270,1,N,0031,1","22000,1,9,N","011265,1,N,1","+0110,1","+0080,1","99999,9","04,5,+00450,1,99,9",,,"04,99,1,99,9,99,9,99999,9,99,9,99,9",,"10102,1,99999,9",,,,,"MET055METAR EGUO 010850Z 27006KT 9999 SCT015 11/08 Q1010 WHT;",
"03658499999","2010-05-01T10:50:00","4","51.439083","-2.286389","180.74","COLERNE, UK","FM-15","EGUO ","V020","999,9,C,0000,1","04500,1,C,N","011265,1,N,1","+0120,1","+0040,1","99999,9","04,5,+00900,1,99,9","07,5,+04500,1,99,9",,"07,99,1,99,9,99,9,99999,9,99,9,99,9",,"10102,1,99999,9",,,,,"MET062METAR EGUO 011050Z 00000KT 9999 SCT030 BKN150 12/04 Q1010 BLU;",
"03658499999","2010-05-01T11:50:00","4","51.439083","-2.286389","180.74","COLERNE, UK","FM-15","EGUO ","V020","999,9,C,0000,1","02400,1,C,N","011265,1,N,1","+0130,1","+0050,1","99999,9","02,5,+01080,1,99,9","07,5,+02400,1,99,9",,"07,99,1,99,9,99,9,99999,9,99,9,99,9",,"10102,1,99999,9",,,,,"MET062METAR EGUO 011150Z 00000KT 9999 FEW036 BKN080 13/05 Q1010 BLU;",
"03658499999","2010-05-01T12:50:00","4","51.439083","-2.286389","180.74","COLERNE, UK","FM-15","EGUO ","V020","999,9,C,0000,1","02400,1,C,N","011265,1,N,1","+0140,1","+0050,1","99999,9","02,5,+01140,1,99,9","07,5,+02400,1,99,9",,"07,99,1,99,9,99,9,99999,9,99,9,99,9",,"10102,1,99999,9",,,,,"MET062METAR EGUO 011250Z 00000KT 9999 FEW038 BKN080 14/05 Q1010 BLU;",
"03658499999","2010-05-01T13:50:00","4","51.439083","-2.286389","180.74","COLERNE, UK","FM-15","EGUO ","V020","999,9,C,0000,1","02400,1,C,N","011265,1,N,1","+0140,1","+0100,1","99999,9","04,5,+01050,1,99,9","07,5,+02400,1,99,9",,"07,99,1,99,9,99,9,99999,9,99,9,99,9",,"10091,1,99999,9",,,,,"MET062METAR EGUO 011350Z 00000KT 9999 SCT035 BKN080 14/10 Q1009 BLU;",
"03658499999","2010-05-01T14:50:00","4","51.439083","-2.286389","180.74","COLERNE, UK","FM-15","EGUO ","V020","230,1,N,0041,1","01050,1,C,N","011265,1,N,1","+0130,1","+0090,1","99999,9","07,5,+01050,1,99,9","07,5,+02400,1,99,9",,"07,99,1,99,9,99,9,99999,9,99,9,99,9",,"10091,1,99999,9","61,1",,,,"MET092METAR EGUO 011450Z 23008KT 9999 -RA BKN035 BKN080 13/09 Q1009 BLU TEMPO 4000 +SHRA BKN014CB;",
"03658499999","2010-05-05T06:50:00","4","51.439083","-2.286389","180.74","COLERNE, UK","FM-15","EGUO ","V020","360,1,N,0031,1","22000,1,9,N","007000,1,N,1","+0080,1","+0060,1","99999,9","04,5,+02100,1,99,9",,,"04,99,1,99,9,99,9,99999,9,99,9,99,9",,"10240,1,99999,9","05,1",,,,"MET058METAR EGUO 050650Z 36006KT 7000 HZ SCT070 08/06 Q1024 WHT;",
"03658499999","2010-05-05T07:50:00","4","51.439083","-2.286389","180.74","COLERNE, UK","FM-15","EGUO ","V020","360,1,N,0031,1","99999,9,C,N","007000,1,N,1","+0100,1","+0060,1","99999,9","02,5,+00600,1,99,9","04,5,+02400,1,99,9",,"04,99,1,99,9,99,9,99999,9,99,9,99,9",,"10240,1,99999,9","05,1",,,,"MET065METAR EGUO 050750Z 36006KT 7000 HZ FEW020 SCT080 10/06 Q1024 WHT;","P01 024003SCOCIG"
"03658499999","2010-05-05T08:50:00","4","51.439083","-2.286389","180.74","COLERNE, UK","FM-15","EGUO ","V020","360,1,N,0031,1","99999,9,C,N","007000,1,N,1","+0110,1","+0050,1","99999,9","02,5,+00660,1,99,9","04,5,+02400,1,99,9",,"04,99,1,99,9,99,9,99999,9,99,9,99,9",,"10240,1,99999,9","05,1",,,,"MET065METAR EGUO 050850Z 36006KT 7000 HZ FEW022 SCT080 11/05 Q1024 WHT;","P01 024003SCOCIG"
"03658499999","2010-05-05T10:50:00","4","51.439083","-2.286389","180.74","COLERNE, UK","FM-15","EGUO ","V020","350,1,N,0031,1","99999,9,C,N","011265,1,N,1","+0120,1","+0050,1","99999,9","02,5,+00810,1,99,9","04,5,+02400,1,99,9",,"04,99,1,99,9,99,9,99999,9,99,9,99,9",,"10230,1,99999,9",,,,,"MET062METAR EGUO 051050Z 35006KT 9999 FEW027 SCT080 12/05 Q1023 BLU;","P01 024003SCOCIG"
"03658499999","2010-05-05T11:50:00","4","51.439083","-2.286389","180.74","COLERNE, UK","FM-15","EGUO ","V020","999,9,C,0000,1","22000,1,9,N","011265,1,N,1","+0120,1","+0050,1","99999,9","02,5,+00900,1,99,9",,,"02,99,1,99,9,99,9,99999,9,99,9,99,9",,"10220,1,99999,9",,,,,"MET055METAR EGUO 051150Z 00000KT 9999 FEW030 12/05 Q1022 BLU;",
"03658499999","2010-05-06T06:50:00","4","51.439083","-2.286389","180.74","COLERNE, UK","FM-15","EGUO ","V020","010,1,N,0031,1","00240,1,C,N","001500,1,N,1","+0100,1","+0090,1","99999,9","08,5,+00240,1,99,9",,,"08,99,1,99,9,99,9,99999,9,99,9,99,9",,"10129,1,99999,9","10,1",,,,"MET058METAR EGUO 060650Z 01006KT 1500 BR OVC008 10/09 Q1013 AMB;",
"03658499999","2010-05-06T07:50:00","4","51.439083","-2.286389","180.74","COLERNE, UK","FM-15","EGUO ","V020","999,9,C,0000,1","00150,1,C,N","001500,1,N,1","+0100,1","+0090,1","99999,9","08,5,+00150,1,99,9",,,"08,99,1,99,9,99,9,99999,9,99,9,99,9",,"10129,1,99999,9","10,1",,,,"MET054METAR EGUO 060750Z 00000KT 1500 BR OVC005 10/09 Q1013;",
"03658499999","2010-05-06T08:50:00","4","51.439083","-2.286389","180.74","COLERNE, UK","FM-15","EGUO ","V020","080,1,N,0031,1","00210,1,C,N","004000,1,N,1","+0100,1","+0080,1","99999,9","08,5,+00210,1,99,9",,,"08,99,1,99,9,99,9,99999,9,99,9,99,9",,"10129,1,99999,9","10,1",,,,"MET058METAR EGUO 060850Z 08006KT 4000 BR OVC007 10/08 Q1013 GRN;",
"03658499999","2010-05-06T09:50:00","4","51.439083","-2.286389","180.74","COLERNE, UK","FM-15","EGUO ","V020","999,9,C,0000,1","00240,1,C,N","002000,1,N,1","+0090,1","+0080,1","99999,9","07,5,+00240,1,99,9","08,5,+00540,1,99,9",,"08,99,1,99,9,99,9,99999,9,99,9,99,9",,"10129,1,99999,9","53,1","63,1",,,"MET068METAR EGUO 060950Z 00000KT 2000 RADZ BKN008 OVC018 09/08 Q1013 YLO2;",
"03658499999","2010-05-06T11:50:00","4","51.439083","-2.286389","180.74","COLERNE, UK","FM-15","EGUO ","V020","999,9,C,0000,1","00660,1,C,N","011265,1,N,1","+0120,1","+0080,1","99999,9","02,5,+00450,1,99,9","07,5,+00660,1,99,9",,"07,99,1,99,9,99,9,99999,9,99,9,99,9",,"10129,1,99999,9",,,,,"MET062METAR EGUO 061150Z 00000KT 9999 FEW015 BKN022 12/08 Q1013 WHT;",
"03658499999","2010-05-06T12:50:00","4","51.439083","-2.286389","180.74","COLERNE, UK","FM-15","EGUO ","V020","999,9,C,0000,1","00750,1,C,N","011265,1,N,1","+0120,1","+0080,1","99999,9","02,5,+00540,1,99,9","07,5,+00750,1,99,9",,"07,99,1,99,9,99,9,99999,9,99,9,99,9",,"10129,1,99999,9",,,,,"MET062METAR EGUO 061250Z 00000KT 9999 FEW018 BKN025 12/08 Q1013 BLU;",
"03658499999","2010-05-06T13:50:00","4","51.439083","-2.286389","180.74","COLERNE, UK","FM-15","EGUO ","V020","040,1,N,0051,1","99999,9,C,N","011265,1,N,1","+0120,1","+0080,1","99999,9","02,5,+00600,1,99,9","04,5,+00900,1,99,9",,"04,99,1,99,9,99,9,99999,9,99,9,99,9",,"10129,1,99999,9",,,,,"MET062METAR EGUO 061350Z 04010KT 9999 FEW020 SCT030 12/08 Q1013 BLU;","P01 009003SCOCIG"
"03658499999","2010-05-06T14:50:00","4","51.439083","-2.286389","180.74","COLERNE, UK","FM-15","EGUO ","V020","030,1,N,0051,1","00960,1,C,N","011265,1,N,1","+0120,1","+0070,1","99999,9","02,5,+00600,1,99,9","07,5,+00960,1,99,9",,"07,99,1,99,9,99,9,99999,9,99,9,99,9",,"10129,1,99999,9",,,,,"MET062METAR EGUO 061450Z 03010KT 9999 FEW020 BKN032 12/07 Q1013 BLU;",
"03658499999","2010-05-07T06:50:00","4","51.439083","-2.286389","180.74","COLERNE, UK","FM-15","EGUO ","V020","030,1,N,0036,1","99999,9,C,N","011265,1,N,1","+0060,1","+0030,1","99999,9","02,5,+00600,1,99,9","04,5,+00900,1,99,9",,"04,99,1,99,9,99,9,99999,9,99,9,99,9",,"10129,1,99999,9",,,,,"MET062METAR EGUO 070650Z 03007KT 9999 FEW020 SCT030 06/03 Q1013 WHT;","P01 009003SCOCIG"
"03658499999","2010-05-07T07:50:00","4","51.439083","-2.286389","180.74","COLERNE, UK","FM-15","EGUO ","V020","040,1,N,0041,1","02400,1,C,N","011265,1,N,1","+0070,1","+0040,1","99999,9","04,5,+00600,1,99,9","07,5,+02400,1,99,9",,"07,99,1,99,9,99,9,99999,9,99,9,99,9",,"10129,1,99999,9",,,,,"MET062METAR EGUO 070750Z 04008KT 9999 SCT020 BKN080 07/04 Q1013 WHT;",
"03658499999","2010-05-07T08:50:00","4","51.439083","-2.286389","180.74","COLERNE, UK","FM-15","EGUO ","V020","030,1,N,0041,1","02400,1,C,N","011265,1,N,1","+0070,1","+0030,1","99999,9","04,5,+00540,1,99,9","07,5,+02400,1,99,9",,"07,99,1,99,9,99,9,99999,9,99,9,99,9",,"10129,1,99999,9",,,,,"MET062METAR EGUO 070850Z 03008KT 9999 SCT018 BKN080 07/03 Q1013 WHT;",
"03658499999","2010-05-07T09:50:00","4","51.439083","-2.286389","180.74","COLERNE, UK","FM-15","EGUO ","V020","040,1,N,0036,1","00600,1,C,N","011265,1,N,1","+0070,1","+0040,1","99999,9","07,5,+00600,1,99,9",,,"07,99,1,99,9,99,9,99999,9,99,9,99,9",,"10129,1,99999,9","61,1",,,,"MET059METAR EGUO 070950Z 04007KT 9999 -RA BKN020 07/04 Q1013 WHT;",
"03658499999","2010-05-07T10:50:00","4","51.439083","-2.286389","180.74","COLERNE, UK","FM-15","EGUO ","V020","040,1,N,0051,1","00750,1,C,N","011265,1,N,1","+0080,1","+0040,1","99999,9","07,5,+00750,1,99,9",,,"07,99,1,99,9,99,9,99999,9,99,9,99,9",,"10129,1,99999,9",,,,,"MET055METAR EGUO 071050Z 04010KT 9999 BKN025 08/04 Q1013 BLU;",
"03658499999","2010-05-07T11:50:00","4","51.439083","-2.286389","180.74","COLERNE, UK","FM-15","EGUO ","V020","030,1,N,0051,1","00960,1,C,N","011265,1,N,1","+0090,1","+0030,1","99999,9","04,5,+00750,1,99,9","07,5,+00960,1,99,9",,"07,99,1,99,9,99,9,99999,9,99,9,99,9",,"10119,1,99999,9",,,,,"MET062METAR EGUO 071150Z 03010KT 9999 SCT025 BKN032 09/03 Q1012 BLU;",
"03658499999","2010-05-07T12:50:00","4","51.439083","-2.286389","180.74","COLERNE, UK","FM-15","EGUO ","V020","060,1,N,0051,1","01050,1,C,N","011265,1,N,1","+0100,1","+0030,1","99999,9","02,5,+00840,1,99,9","07,5,+01050,1,99,9",,"07,99,1,99,9,99,9,99999,9,99,9,99,9",,"10119,1,99999,9",,,,,"MET062METAR EGUO 071250Z 06010KT 9999 FEW028 BKN035 10/03 Q1012 BLU;",
"03658499999","2010-05-07T13:50:00","4","51.439083","-2.286389","180.74","COLERNE, UK","FM-15","EGUO ","V020","040,1,N,0051,1","01200,1,C,N","011265,1,N,1","+0100,1","+0030,1","99999,9","02,5,+00750,1,99,9","07,5,+01200,1,99,9",,"07,99,1,99,9,99,9,99999,9,99,9,99,9",,"10119,1,99999,9",,,,,"MET062METAR EGUO 071350Z 04010KT 9999 FEW025 BKN040 10/03 Q1012 BLU;",
"03658499999","2010-05-07T14:50:00","4","51.439083","-2.286389","180.74","COLERNE, UK","FM-15","EGUO ","V020","050,1,N,0051,1","99999,9,C,N","011265,1,N,1","+0110,1","+0020,1","99999,9","02,5,+00750,1,99,9","04,5,+01200,1,99,9",,"04,99,1,99,9,99,9,99999,9,99,9,99,9",,"10119,1,99999,9",,,,,"MET062METAR EGUO 071450Z 05010KT 9999 FEW025 SCT040 11/02 Q1012 BLU;","P01 012003SCOCIG"
"03658499999","2010-05-08T06:50:00","4","51.439083","-2.286389","180.74","COLERNE, UK","FM-15","EGUO ","V020","030,1,N,0041,1","00150,1,C,N","007000,1,N,1","+0060,1","+0050,1","99999,9","07,5,+00150,1,99,9","08,5,+00300,1,99,9",,"08,99,1,99,9,99,9,99999,9,99,9,99,9",,"10129,1,99999,9","61,1",,,,"MET067METAR EGUO 080650Z 03008KT 7000 -RA BKN005 OVC010 06/05 Q1013 YLO1;",
"03658499999","2010-05-08T07:50:00","4","51.439083","-2.286389","180.74","COLERNE, UK","FM-15","EGUO ","V020","030,1,N,0041,1","00150,1,C,N","007000,1,N,1","+0060,1","+0050,1","99999,9","07,5,+00150,1,99,9","08,5,+00300,1,99,9",,"08,99,1,99,9,99,9,99999,9,99,9,99,9",,"10129,1,99999,9","63,1",,,,"MET066METAR EGUO 080750Z 03008KT 7000 RA BKN005 OVC010 06/05 Q1013 YLO1;",
"03658499999","2010-05-08T08:50:00","4","51.439083","-2.286389","180.74","COLERNE, UK","FM-15","EGUO ","V020","040,1,N,0067,1","00180,1,C,N","008000,1,N,1","+0070,1","+0050,1","99999,9","07,5,+00180,1,99,9","08,5,+00300,1,99,9",,"08,99,1,99,9,99,9,99999,9,99,9,99,9",,"10129,1,99999,9","61,1",,,,"MET067METAR EGUO 080850Z 04013KT 8000 -RA BKN006 OVC010 07/05 Q1013 YLO1;",
"03658499999","2010-05-09T06:50:00","4","51.439083","-2.286389","180.74","COLERNE, UK","FM-15","EGUO ","V020","060,1,N,0041,1","00450,1,C,N","008000,1,N,1","+0060,1","+0040,1","99999,9","04,5,+00270,1,99,9","07,5,+00450,1,99,9",,"07,99,1,99,9,99,9,99999,9,99,9,99,9",,"10139,1,99999,9","05,1",,,,"MET065METAR EGUO 090650Z 06008KT 8000 HZ SCT009 BKN015 06/04 Q1014 GRN;",
"03658499999","2010-05-09T08:50:00","4","51.439083","-2.286389","180.74","COLERNE, UK","FM-15","EGUO ","V020","060,1,N,0051,1","00600,1,C,N","011265,1,N,1","+0070,1","+0060,1","99999,9","04,5,+00450,1,99,9","07,5,+00600,1,99,9",,"07,99,1,99,9,99,9,99999,9,99,9,99,9",,"10139,1,99999,9",,,,,"MET062METAR EGUO 090850Z 06010KT 9999 SCT015 BKN020 07/06 Q1014 WHT;",
"03658499999","2010-05-09T09:50:00","4","51.439083","-2.286389","180.74","COLERNE, UK","FM-15","EGUO ","V020","050,1,N,0046,1","01500,1,C,N","011265,1,N,1","+0070,1","+0040,1","99999,9","04,5,+00600,1,99,9","08,5,+01500,1,99,9",,"08,99,1,99,9,99,9,99999,9,99,9,99,9",,"10139,1,99999,9",,,,,"MET062METAR EGUO 090950Z 05009KT 9999 SCT020 OVC050 07/04 Q1014 WHT;",
"03658499999","2010-05-09T11:50:00","4","51.439083","-2.286389","180.74","COLERNE, UK","FM-15","EGUO ","V020","050,1,N,0051,1","01500,1,C,N","011265,1,N,1","+0100,1","+0040,1","99999,9","04,5,+00750,1,99,9","07,5,+01500,1,99,9",,"07,99,1,99,9,99,9,99999,9,99,9,99,9",,"10129,1,99999,9",,,,,"MET062METAR EGUO 091150Z 05010KT 9999 SCT025 BKN050 10/04 Q1013 BLU;",
"03658499999","2010-05-09T12:50:00","4","51.439083","-2.286389","180.74","COLERNE, UK","FM-15","EGUO ","V020","050,1,N,0051,1","00750,1,C,N","011265,1,N,1","+0090,1","+0040,1","99999,9","07,5,+00750,1,99,9",,,"07,99,1,99,9,99,9,99999,9,99,9,99,9",,"10129,1,99999,9",,,,,"MET055METAR EGUO 091250Z 05010KT 9999 BKN025 09/04 Q1013 BLU;",
"03658499999","2010-05-09T14:00:00","4","51.439083","-2.286389","180.74","COLERNE, UK","FM-15","EGUO ","V020","050,1,N,0051,1","00750,1,C,N","011265,1,N,1","+0090,1","+0040,1","99999,9","07,5,+00750,1,99,9",,,"07,99,1,99,9,99,9,99999,9,99,9,99,9",,"10129,1,99999,9",,,,,"MET055METAR EGUO 091355Z 05010KT 9999 BKN025 09/04 Q1013 BLU;",
"03658499999","2010-05-12T06:50:00","4","51.439083","-2.286389","180.74","COLERNE, UK","FM-15","EGUO ","V020","999,9,C,0000,1","22000,1,9,N","011265,1,N,1","+0050,1","+0010,1","99999,9","04,5,+00960,1,99,9",,,"04,99,1,99,9,99,9,99999,9,99,9,99,9",,"10149,1,99999,9",,,,,"MET055METAR EGUO 120650Z 00000KT 9999 SCT032 05/01 Q1015 BLU;",
"03658499999","2010-05-12T07:50:00","4","51.439083","-2.286389","180.74","COLERNE, UK","FM-15","EGUO ","V020","330,1,N,0026,1","99999,9,C,N","011265,1,N,1","+0070,1","+0020,1","99999,9","02,5,+00600,1,99,9","04,5,+01050,1,99,9",,"04,99,1,99,9,99,9,99999,9,99,9,99,9",,"10159,1,99999,9",,,,,"MET062METAR EGUO 120750Z 33005KT 9999 FEW020 SCT035 07/02 Q1016 BLU;","P01 010503SCOCIG"
"03658499999","2010-05-12T08:50:00","4","51.439083","-2.286389","180.74","COLERNE, UK","FM-15","EGUO ","V020","999,9,C,0000,1","99999,9,C,N","011265,1,N,1","+0070,1","+0010,1","99999,9","02,5,+00450,1,99,9","04,5,+01050,1,99,9",,"04,99,1,99,9,99,9,99999,9,99,9,99,9",,"10159,1,99999,9",,,,,"MET062METAR EGUO 120850Z 00000KT 9999 FEW015 SCT035 07/01 Q1016 BLU;","P01 010503SCOCIG"
"03658499999","2010-05-12T09:50:00","4","51.439083","-2.286389","180.74","COLERNE, UK","FM-15","EGUO ","V020","999,9,C,0000,1","99999,9,C,N","011265,1,N,1","+0090,1","+0010,1","99999,9","02,5,+00750,1,99,9","04,5,+01050,1,99,9",,"04,99,1,99,9,99,9,99999,9,99,9,99,9",,"10159,1,99999,9",,,,,"MET062METAR EGUO 120950Z 00000KT 9999 FEW025 SCT035 09/01 Q1016 BLU;","P01 010503SCOCIG"
"03658499999","2010-05-12T10:50:00","4","51.439083","-2.286389","180.74","COLERNE, UK","FM-15","EGUO ","V020","999,9,C,0000,1","00900,1,C,N","011265,1,N,1","+0090,1","+0000,1","99999,9","04,5,+00750,1,99,9","07,5,+00900,1,99,9",,"07,99,1,99,9,99,9,99999,9,99,9,99,9",,"10159,1,99999,9",,,,,"MET062METAR EGUO 121050Z 00000KT 9999 SCT025 BKN030 09/00 Q1016 BLU;",
"03658499999","2010-05-12T11:50:00","4","51.439083","-2.286389","180.74","COLERNE, UK","FM-15","EGUO ","V020","999,9,C,0000,1","00900,1,C,N","011265,1,N,1","+0070,1","+0020,1","99999,9","07,5,+00900,1,99,9",,,"07,99,1,99,9,99,9,99999,9,99,9,99,9",,"10159,1,99999,9","16,1",,,,"MET060METAR EGUO 121150Z 00000KT 9999 VCSH BKN030 07/02 Q1016 BLU;",
"03658499999","2010-05-12T12:50:00","4","51.439083","-2.286389","180.74","COLERNE, UK","FM-15","EGUO ","V020","250,1,N,0041,1","99999,9,C,N","011265,1,N,1","+0070,1","+0020,1","99999,9","02,5,+00750,1,99,9","04,5,+00900,1,99,9",,"04,99,1,99,9,99,9,99999,9,99,9,99,9",,"10159,1,99999,9","16,1",,,,"MET074METAR EGUO 121250Z 25008KT 9999 6000SW VCSH FEW025 SCT030 07/02 Q1016 WHT;","P01 009003SCOCIG"
"03658499999","2010-05-12T13:50:00","4","51.439083","-2.286389","180.74","COLERNE, UK","FM-15","EGUO ","V020","999,9,C,0000,1","01500,1,C,N","011265,1,N,1","+0090,1","+0020,1","99999,9","04,5,+00900,1,99,9","07,5,+01500,1,99,9",,"07,99,1,99,9,99,9,99999,9,99,9,99,9",,"10159,1,99999,9",,,,,"MET062METAR EGUO 121350Z 00000KT 9999 SCT030 BKN050 09/02 Q1016 BLU;",
"03658499999","2010-05-12T14:50:00","4","51.439083","-2.286389","180.74","COLERNE, UK","FM-15","EGUO ","V020","999,9,C,0000,1","01650,5,C,N","011265,1,N,1","+0100,1","+0010,1","99999,9","04,5,+00900,1,99,9","07,5,+01650,5,99,9",,"07,99,1,99,9,99,9,99999,9,99,9,99,9",,"10159,1,99999,9",,,,,"MET062METAR EGUO 121450Z 00000KT 9999 SCT030 BKN055 10/01 Q1016 BLU;",
"03658499999","2010-05-13T06:50:00","4","51.439083","-2.286389","180.74","COLERNE, UK","FM-15","EGUO ","V020","170,1,N,0015,1","22000,1,9,N","008000,1,N,1","+0060,1","+0020,1","99999,9","02,5,+06000,1,99,9",,,"02,99,1,99,9,99,9,99999,9,99,9,99,9",,"10159,1,99999,9",,,,,"MET055METAR EGUO 130650Z 17003KT 8000 FEW200 06/02 Q1016 BLU;",
"03658499999","2010-05-13T07:50:00","4","51.439083","-2.286389","180.74","COLERNE, UK","FM-15","EGUO ","V020","170,1,N,0026,1","22000,1,9,N","008000,1,N,1","+0060,1","+0030,1","99999,9",,,,"00,99,1,99,9,99,9,99999,9,99,9,99,9",,"10159,1,99999,9",,,,,"MET052METAR EGUO 130750Z 17005KT 8000 NSC 06/03 Q1016 BLU;","Q01    003SCCGA1"
"03658499999","2010-05-13T08:50:00","4","51.439083","-2.286389","180.74","COLERNE, UK","FM-15","EGUO ","V020","999,9,C,0000,1","22000,1,9,N","008000,1,N,1","+0090,1","+0030,1","99999,9","04,5,+01050,1,99,9",,,"04,99,1,99,9,99,9,99999,9,99,9,99,9",,"10149,1,99999,9",,,,,"MET055METAR EGUO 130850Z 00000KT 8000 SCT035 09/03 Q1015 BLU;",
"03658499999","2010-05-13T09:50:00","4","51.439083","-2.286389","180.74","COLERNE, UK","FM-15","EGUO ","V020","999,9,C,0000,1","00900,1,C,N","011265,1,N,1","+0100,1","+0030,1","99999,9","07,5,+00900,1,99,9",,,"07,99,1,99,9,99,9,99999,9,99,9,99,9",,"10149,1,99999,9",,,,,"MET055METAR EGUO 130950Z 00000KT 9999 BKN030 10/03 Q1015 BLU;",
"03658499999","2010-05-13T10:50:00","4","51.439083","-2.286389","180.74","COLERNE, UK","FM-15","EGUO ","V020","999,9,C,0000,1","00900,1,C,N","011265,1,N,1","+0090,1","+0010,1","99999,9","07,5,+00900,1,99,9",,,"07,99,1,99,9,99,9,99999,9,99,9,99,9",,"10149,1,99999,9",,,,,"MET055METAR EGUO 131050Z 00000KT 9999 BKN030 09/01 Q1015 BLU;",
"03658499999","2010-05-13T11:50:00","4","51.439083","-2.286389","180.74","COLERNE, UK","FM-15","EGUO ","V020","270,1,N,0026,1","01050,1,C,N","011265,1,N,1","+0110,1","+0020,1","99999,9","07,5,+01050,1,99,9",,,"07,99,1,99,9,99,9,99999,9,99,9,99,9",,"10149,1,99999,9",,,,,"MET055METAR EGUO 131150Z 27005KT 9999 BKN035 11/02 Q1015 BLU;",
"03658499999","2010-05-13T12:50:00","4","51.439083","-2.286389","180.74","COLERNE, UK","FM-15","EGUO ","V020","300,1,N,0031,1","01200,1,C,N","011265,1,N,1","+0110,1","+0020,1","99999,9","07,5,+01200,1,99,9",,,"07,99,1,99,9,99,9,99999,9,99,9,99,9",,"10139,1,99999,9",,,,,"MET055METAR EGUO 131250Z 30006KT 9999 BKN040 11/02 Q1014 BLU;",
"03658499999","2010-05-13T14:50:00","4","51.439083","-2.286389","180.74","COLERNE, UK","FM-15","EGUO ","V020","240,1,N,0041,1","01200,1,C,N","011265,1,N,1","+0120,1","+0020,1","99999,9","07,5,+01200,1,99,9",,,"07,99,1,99,9,99,9,99999,9,99,9,99,9",,"10139,1,99999,9",,,,,"MET055METAR EGUO 131450Z 24008KT 9999 BKN040 12/02 Q1014 BLU;",
"03658499999","2010-05-14T06:50:00","4","51.439083","-2.286389","180.74","COLERNE, UK","FM-15","EGUO ","V020","170,1,N,0041,1","99999,9,C,N","011265,1,N,1","+0070,1","+0050,1","99999,9","02,5,+00300,1,99,9","04,5,+00450,1,99,9",,"04,99,1,99,9,99,9,99999,9,99,9,99,9",,"10102,1,99999,9","05,1",,,,"MET065METAR EGUO 140650Z 17008KT 9999 HZ FEW010 SCT015 07/05 Q1010 WHT;","P01 004503SCOCIG"
"03658499999","2010-05-14T07:50:00","4","51.439083","-2.286389","180.74","COLERNE, UK","FM-15","EGUO ","V020","190,1,N,0051,1","00750,1,C,N","011265,1,N,1","+0090,1","+0050,1","99999,9","02,5,+00360,1,99,9","07,5,+00750,1,99,9",,"07,99,1,99,9,99,9,99999,9,99,9,99,9",,"10102,1,99999,9",,,,,"MET062METAR EGUO 140750Z 19010KT 9999 FEW012 BKN025 09/05 Q1010 BLU;",
"03658499999","2010-05-14T08:50:00","4","51.439083","-2.286389","180.74","COLERNE, UK","FM-15","EGUO ","V020","190,1,N,0051,1","02700,1,C,N","011265,1,N,1","+0090,1","+0020,1","99999,9","04,5,+00720,1,99,9","07,5,+02700,1,99,9",,"07,99,1,99,9,99,9,99999,9,99,9,99,9",,"10102,1,99999,9",,,,,"MET062METAR EGUO 140850Z 19010KT 9999 SCT024 BKN090 09/02 Q1010 WHT;",
"03658499999","2010-05-14T09:50:00","4","51.439083","-2.286389","180.74","COLERNE, UK","FM-15","EGUO ","V020","190,1,N,0046,1","02700,1,C,N","011265,1,N,1","+0090,1","+0040,1","99999,9","04,5,+00750,1,99,9","07,5,+02700,1,99,9",,"07,99,1,99,9,99,9,99999,9,99,9,99,9",,"10102,1,99999,9",,,,,"MET062METAR EGUO 140950Z 19009KT 9999 SCT025 BKN090 09/04 Q1010 BLU;",
"03658499999","2010-05-14T10:50:00","4","51.439083","-2.286389","180.74","COLERNE, UK","FM-15","EGUO ","V020","240,1,N,0067,1","02700,1,C,N","011265,1,N,1","+0100,1","+0040,1","99999,9","02,5,+00600,1,99,9","07,5,+02700,1,99,9",,"07,99,1,99,9,99,9,99999,9,99,9,99,9",,"10108,1,99999,9",,,,,"MET062METAR EGUO 141050Z 24013KT 9999 FEW020 BKN090 10/04 Q1011 BLU;",
"03658499999","2010-05-14T11:50:00","4","51.439083","-2.286389","180.74","COLERNE, UK","FM-15","EGUO ","V020","210,1,N,0051,1","02700,1,C,N","011265,1,N,1","+0100,1","+0030,1","99999,9","02,5,+00750,1,99,9","07,5,+02700,1,99,9",,"07,99,1,99,9,99,9,99999,9,99,9,99,9",,"10108,1,99999,9",,,,,"MET062METAR EGUO 141150Z 21010KT 9999 FEW025 BKN090 10/03 Q1011 BLU;",
"03658499999","2010-05-14T12:50:00","4","51.439083","-2.286389","180.74","COLERNE, UK","FM-15","EGUO ","V020","240,1,N,0057,1","03000,1,C,N","011265,1,N,1","+0120,1","+0040,1","99999,9","02,5,+00900,1,99,9","07,5,+03000,1,99,9",,"07,99,1,99,9,99,9,99999,9,99,9,99,9",,"10108,1,99999,9",,,,,"MET062METAR EGUO 141250Z 24011KT 9999 FEW030 BKN100 12/04 Q1011 BLU;",
"03658499999","2010-05-14T13:50:00","4","51.439083","-2.286389","180.74","COLERNE, UK","FM-15","EGUO ","V020","250,1,N,0057,1","03000,1,C,N","011265,1,N,1","+0120,1","+0030,1","99999,9","02,5,+00900,1,99,9","07,5,+03000,1,99,9",,"07,99,1,99,9,99,9,99999,9,99,9,99,9",,"10108,1,99999,9",,,,,"MET062METAR EGUO 141350Z 25011KT 9999 FEW030 BKN100 12/03 Q1011 BLU;",
"03658499999","2010-05-14T14:50:00","4","51.439083","-2.286389","180.74","COLERNE, UK","FM-15","EGUO ","V020","230,1,N,0041,1","03600,1,C,N","011265,1,N,1","+0110,1","+0030,1","99999,9","02,5,+00930,1,99,9","07,5,+03600,1,99,9",,"07,99,1,99,9,99,9,99999,9,99,9,99,9",,"10119,1,99999,9",,,,,"MET062METAR EGUO 141450Z 23008KT 9999 FEW031 BKN120 11/03 Q1012 BLU;",
"03658499999","2010-05-15T06:50:00","4","51.439083","-2.286389","180.74","COLERNE, UK","FM-15","EGUO ","V020","360,1,N,0026,1","22000,1,9,N","011265,1,N,1","+0090,1","+0060,1","99999,9","02,5,+00360,1,99,9",,,"02,99,1,99,9,99,9,99999,9,99,9,99,9",,"10159,1,99999,9",,,,,"MET055METAR EGUO 150650Z 36005KT 9999 FEW012 09/06 Q1016 BLU;",
"03658499999","2010-05-15T08:50:00","4","51.439083","-2.286389","180.74","COLERNE, UK","FM-15","EGUO ","V020","010,1,N,0026,1","22000,1,9,N","011265,1,N,1","+0100,1","+0080,1","99999,9","02,5,+00600,1,99,9",,,"02,99,1,99,9,99,9,99999,9,99,9,99,9",,"10159,1,99999,9",,,,,"MET055METAR EGUO 150850Z 01005KT 9999 FEW020 10/08 Q1016 BLU;",
"03658499999","2010-05-15T09:50:00","4","51.439083","-2.286389","180.74","COLERNE, UK","FM-15","EGUO ","V020","010,1,N,0036,1","22000,1,9,N","011265,1,N,1","+0130,1","+0040,1","99999,9","02,5,+01080,1,99,9",,,"02,99,1,99,9,99,9,99999,9,99,9,99,9",,"10169,1,99999,9",,,,,"MET055METAR EGUO 150950Z 01007KT 9999 FEW036 13/04 Q1017 BLU;",
"03658499999","2010-05-15T10:50:00","4","51.439083","-2.286389","180.74","COLERNE, UK","FM-15","EGUO ","V020","270,1,N,0036,1","22000,1,9,N","011265,1,N,1","+0130,1","+0040,1","99999,9","04,5,+01080,1,99,9",,,"04,99,1,99,9,99,9,99999,9,99,9,99,9",,"10169,1,99999,9",,,,,"MET055METAR EGUO 151050Z 27007KT 9999 SCT036 13/04 Q1017 BLU;",
"03658499999","2010-05-15T11:50:00","4","51.439083","-2.286389","180.74","COLERNE, UK","FM-15","EGUO ","V020","310,1,N,0036,1","22000,1,9,N","011265,1,N,1","+0130,1","+0040,1","99999,9","04,5,+01140,1,99,9",,,"04,99,1,99,9,99,9,99999,9,99,9,99,9",,"10169,1,99999,9",,,,,"MET055METAR EGUO 151150Z 31007KT 9999 SCT038 13/04 Q1017 BLU;",
"03658499999","2010-05-16T06:50:00","4","51.439083","-2.286389","180.74","COLERNE, UK","FM-15","EGUO ","V020","210,1,N,0031,1","00240,1,C,N","007000,1,N,1","+0070,1","+0070,1","99999,9","07,5,+00240,1,99,9",,,"07,99,1,99,9,99,9,99999,9,99,9,99,9",,"10159,1,99999,9","10,1",,,,"MET058METAR EGUO 160650Z 21006KT 7000 BR BKN008 07/07 Q1016 GRN;",
"03658499999","2010-05-16T08:50:00","4","51.439083","-2.286389","180.74","COLERNE, UK","FM-15","EGUO ","V020","230,1,N,0041,1","00150,1,C,N","005000,1,N,1","+0090,1","+0080,1","99999,9","07,5,+00150,1,99,9",,,"07,99,1,99,9,99,9,99999,9,99,9,99,9",,"10169,1,99999,9","10,1",,,,"MET059METAR EGUO 160850Z 23008KT 5000 BR BKN005 09/08 Q1017 YLO1;",
"03658499999","2010-05-19T06:50:00","4","51.439083","-2.286389","180.74","COLERNE, UK","FM-15","EGUO ","V020","999,9,C,0000,1","01500,5,9,N","999999,9,N,1","+0110,1","+0080,1","99999,9","07,5,+01500,5,99,9",,,,,"10300,1,99999,9",,,,,"MET053METAR EGUO 190650Z 00000KT HZ BKN050 11/08 Q1030 BLU;",
"03658499999","2010-05-19T07:50:00","4","51.439083","-2.286389","180.74","COLERNE, UK","FM-15","EGUO ","V020","999,9,C,0000,1","01350,5,9,N","999999,9,N,1","+0130,1","+0080,1","99999,9","07,5,+01350,5,99,9",,,,,"10300,1,99999,9",,,,,"MET053METAR EGUO 190750Z 00000KT HZ BKN045 13/08 Q1030 BLU;",
"03658499999","2010-05-19T10:50:00","4","51.439083","-2.286389","180.74","COLERNE, UK","FM-15","EGUO ","V020","210,1,N,0051,1","00300,1,C,N","011265,1,N,1","+0130,1","+0090,1","99999,9","07,5,+00300,1,99,9","08,5,+00420,1,99,9",,"08,99,1,99,9,99,9,99999,9,99,9,99,9",,"10312,1,99999,9",,,,,"MET062METAR EGUO 191050Z 21010KT 9999 BKN010 OVC014 13/09 Q1031 GRN;",
"03658499999","2010-05-19T11:50:00","4","51.439083","-2.286389","180.74","COLERNE, UK","FM-15","EGUO ","V020","220,1,N,0041,1","00420,1,C,N","011265,1,N,1","+0140,1","+0020,1","99999,9","07,5,+00420,1,99,9",,,"07,99,1,99,9,99,9,99999,9,99,9,99,9",,"10312,1,99999,9",,,,,"MET055METAR EGUO 191150Z 22008KT 9999 BKN014 14/02 Q1031 GRN;",
"03658499999","2010-05-19T12:50:00","4","51.439083","-2.286389","180.74","COLERNE, UK","FM-15","EGUO ","V020","240,1,N,0036,1","00450,1,C,N","011265,1,N,1","+0150,1","+9999,9","99999,9","07,5,+00450,1,99,9",,,"07,99,1,99,9,99,9,99999,9,99,9,99,9",,"10312,1,99999,9",,,,,"MET055METAR EGUO 191250Z 24007KT 9999 BKN015 15/10 Q1031 WHT;","Q01+001003ATOD  "
"03658499999","2010-05-19T13:50:00","4","51.439083","-2.286389","180.74","COLERNE, UK","FM-15","EGUO ","V020","999,9,9,9999,9","00450,5,9,N","011265,1,N,1","+0150,1","+0110,1","99999,9","07,5,+00450,5,99,9",,,,,"10310,1,99999,9",,,,,"MET062METAR EGUO 191350Z 191350Z24005KT 9999 BKN015 15/11 Q1031 WHT;",
"03658499999","2010-05-20T06:50:00","4","51.439083","-2.286389","180.74","COLERNE, UK","FM-15","EGUO ","V020","270,1,N,0026,1","01200,1,C,N","008000,1,N,1","+0140,1","+0120,1","99999,9","04,5,+00900,1,99,9","07,5,+01200,1,99,9",,"07,99,1,99,9,99,9,99999,9,99,9,99,9",,"10329,1,99999,9","05,1",,,,"MET065METAR EGUO 200650Z 27005KT 8000 HZ SCT030 BKN040 14/12 Q1033 BLU;",
"03658499999","2010-05-20T07:50:00","4","51.439083","-2.286389","180.74","COLERNE, UK","FM-15","EGUO ","V020","999,9,C,0000,1","00900,1,C,N","008000,1,N,1","+0140,1","+0120,1","99999,9","02,5,+00240,1,99,9","07,5,+00900,1,99,9",,"07,99,1,99,9,99,9,99999,9,99,9,99,9",,"10339,1,99999,9","05,1",,,,"MET065METAR EGUO 200750Z 00000KT 8000 HZ FEW008 BKN030 14/12 Q1034 BLU;",
"03658499999","2010-05-20T08:50:00","4","51.439083","-2.286389","180.74","COLERNE, UK","FM-15","EGUO ","V020","270,1,N,0026,1","00900,1,C,N","007000,1,N,1","+0150,1","+0130,1","99999,9","02,5,+00300,1,99,9","08,5,+00900,1,99,9",,"08,99,1,99,9,99,9,99999,9,99,9,99,9",,"10339,1,99999,9","05,1",,,,"MET065METAR EGUO 200850Z 27005KT 7000 HZ FEW010 OVC030 15/13 Q1034 WHT;",
"03658499999","2010-05-20T09:50:00","4","51.439083","-2.286389","180.74","COLERNE, UK","FM-15","EGUO ","V020","999,9,C,0000,1","01050,1,C,N","011265,1,N,1","+0170,1","+0130,1","99999,9","02,5,+00450,1,99,9","07,5,+01050,1,99,9",,"07,99,1,99,9,99,9,99999,9,99,9,99,9",,"10339,1,99999,9",,,,,"MET062METAR EGUO 200950Z 00000KT 9999 FEW015 BKN035 17/13 Q1034 BLU;",
"03658499999","2010-05-20T10:50:00","4","51.439083","-2.286389","180.74","COLERNE, UK","FM-15","EGUO ","V020","999,9,C,0000,1","22000,1,9,N","011265,1,N,1","+0180,1","+0120,1","99999,9","04,5,+00450,1,99,9",,,"04,99,1,99,9,99,9,99999,9,99,9,99,9",,"10339,1,99999,9",,,,,"MET055METAR EGUO 201050Z 00000KT 9999 SCT015 18/12 Q1034 WHT;",
"03658499999","2010-05-20T11:50:00","4","51.439083","-2.286389","180.74","COLERNE, UK","FM-15","EGUO ","V020","999,9,C,0000,1","01200,1,C,N","011265,1,N,1","+0180,1","+0120,1","99999,9","04,5,+00600,1,99,9","07,5,+01200,1,99,9",,"07,99,1,99,9,99,9,99999,9,99,9,99,9",,"10339,1,99999,9",,,,,"MET062METAR EGUO 201150Z 00000KT 9999 SCT020 BKN040 18/12 Q1034 WHT;",
"03658499999","2010-05-20T12:50:00","4","51.439083","-2.286389","180.74","COLERNE, UK","FM-15","EGUO ","V020","999,9,C,0000,1","01200,1,C,N","011265,1,N,1","+0180,1","+0130,1","99999,9","02,5,+00600,1,99,9","07,5,+01200,1,99,9",,"07,99,1,99,9,99,9,99999,9,99,9,99,9",,"10329,1,99999,9",,,,,"MET062METAR EGUO 201250Z 00000KT 9999 FEW020 BKN040 18/13 Q1033 BLU;",
"03658499999","2010-05-21T06:50:00","4","51.439083","-2.286389","180.74","COLERNE, UK","FM-15","EGUO ","V020","360,1,N,0021,1","01350,1,C,N","007000,1,N,1","+0160,1","+0130,1","99999,9","07,5,+01350,1,99,9",,,"07,99,1,99,9,99,9,99999,9,99,9,99,9",,"10329,1,99999,9","05,1",,,,"MET058METAR EGUO 210650Z 36004KT 7000 HZ BKN045 16/13 Q1033 WHT;",
"03658499999","2010-05-21T07:50:00","4","51.439083","-2.286389","180.74","COLERNE, UK","FM-15","EGUO ","V020","999,9,C,0000,1","22000,1,9,N","007000,1,N,1","+0180,1","+0140,1","99999,9","02,5,+01350,1,99,9",,,"02,99,1,99,9,99,9,99999,9,99,9,99,9",,"10329,1,99999,9","05,1",,,,"MET058METAR EGUO 210750Z 00000KT 7000 HZ FEW045 18/14 Q1033 WHT;",
"03658499999","2010-05-21T08:50:00","4","51.439083","-2.286389","180.74","COLERNE, UK","FM-15","EGUO ","V020","999,9,C,0000,1","22000,1,9,N","007000,1,N,1","+0190,1","+0140,1","99999,9",,,,"00,99,1,99,9,99,9,99999,9,99,9,99,9",,"10329,1,99999,9","05,1",,,,"MET055METAR EGUO 210850Z 00000KT 7000 HZ NSC 19/14 Q1033 WHT;","Q01    003SCCGA1"
"03658499999","2010-05-21T09:50:00","4","51.439083","-2.286389","180.74","COLERNE, UK","FM-15","EGUO ","V020","999,9,C,0000,1","22000,1,9,N","008000,1,N,1","+0210,1","+0140,1","99999,9","02,5,+00840,1,99,9",,,"02,99,1,99,9,99,9,99999,9,99,9,99,9",,"10329,1,99999,9","05,1",,,,"MET058METAR EGUO 210950Z 00000KT 8000 HZ FEW028 21/14 Q1033 BLU;",
"03658499999","2010-05-21T10:50:00","4","51.439083","-2.286389","180.74","COLERNE, UK","FM-15","EGUO ","V020","080,1,N,0026,1","22000,1,9,N","011265,1,N,1","+0220,1","+0140,1","99999,9","04,5,+00900,1,99,9",,,"04,99,1,99,9,99,9,99999,9,99,9,99,9",,"10329,1,99999,9",,,,,"MET055METAR EGUO 211050Z 08005KT 9999 SCT030 22/14 Q1033 BLU;",
"03658499999","2010-05-21T11:50:00","4","51.439083","-2.286389","180.74","COLERNE, UK","FM-15","EGUO ","V020","999,9,C,0000,1","22000,1,9,N","011265,1,N,1","+0230,1","+0130,1","99999,9","04,5,+01200,1,99,9",,,"04,99,1,99,9,99,9,99999,9,99,9,99,9",,"10318,1,99999,9",,,,,"MET055METAR EGUO 211150Z 00000KT 9999 SCT040 23/13 Q1032 BLU;",
"03658499999","2010-05-21T12:50:00","4","51.439083","-2.286389","180.74","COLERNE, UK","FM-15","EGUO ","V020","060,1,N,0041,1","22000,1,9,N","011265,1,N,1","+0230,1","+0140,1","99999,9","04,5,+01260,1,99,9",,,"04,99,1,99,9,99,9,99999,9,99,9,99,9",,"10318,1,99999,9",,,,,"MET055METAR EGUO 211250Z 06008KT 9999 SCT042 23/14 Q1032 BLU;",
"03658499999","2010-05-21T13:50:00","4","51.439083","-2.286389","180.74","COLERNE, UK","FM-15","EGUO ","V020","050,1,N,0031,1","22000,1,9,N","011265,1,N,1","+0230,1","+0130,1","99999,9","04,5,+01170,1,99,9",,,"04,99,1,99,9,99,9,99999,9,99,9,99,9",,"10318,1,99999,9",,,,,"MET055METAR EGUO 211350Z 05006KT 9999 SCT039 23/13 Q1032 BLU;",
"03658499999","2010-05-21T14:50:00","4","51.439083","-2.286389","180.74","COLERNE, UK","FM-15","EGUO ","V020","060,1,N,0041,1","22000,1,9,N","011265,1,N,1","+0230,1","+0130,1","99999,9","04,5,+01140,1,99,9",,,"04,99,1,99,9,99,9,99999,9,99,9,99,9",,"10312,1,99999,9",,,,,"MET055METAR EGUO 211450Z 06008KT 9999 SCT038 23/13 Q1031 BLU;",
"03658499999","2010-05-22T06:50:00","4","51.439083","-2.286389","180.74","COLERNE, UK","FM-15","EGUO ","V020","999,9,C,0000,1","22000,1,9,N","007000,1,N,1","+0140,1","+0110,1","99999,9","02,5,+07500,1,99,9",,,"02,99,1,99,9,99,9,99999,9,99,9,99,9",,"10312,1,99999,9","05,1",,,,"MET058METAR EGUO 220650Z 00000KT 7000 HZ FEW250 14/11 Q1031 WHT;",
"03658499999","2010-05-22T07:50:00","4","51.439083","-2.286389","180.74","COLERNE, UK","FM-15","EGUO ","V020","999,9,C,0000,1","22000,1,9,N","008000,1,N,1","+0170,1","+0120,1","99999,9","02,5,+07500,1,99,9",,,"02,99,1,99,9,99,9,99999,9,99,9,99,9",,"10312,1,99999,9","05,1",,,,"MET058METAR EGUO 220750Z 00000KT 8000 HZ FEW250 17/12 Q1031 BLU;",
"03658499999","2010-05-22T08:50:00","4","51.439083","-2.286389","180.74","COLERNE, UK","FM-15","EGUO ","V020","100,1,N,0031,1","22000,1,9,N","008000,1,N,1","+0180,1","+0120,1","99999,9",,,,"00,99,1,99,9,99,9,99999,9,99,9,99,9",,"10312,1,99999,9","05,1",,,,"MET055METAR EGUO 220850Z 10006KT 8000 HZ NSC 18/12 Q1031 BLU;","Q01    003SCCGA1"
"03658499999","2010-05-22T09:50:00","4","51.439083","-2.286389","180.74","COLERNE, UK","FM-15","EGUO ","V020","080,1,N,0036,1","22000,1,9,N","008000,1,N,1","+0190,1","+0120,1","99999,9","02,5,+07500,1,99,9",,,"02,99,1,99,9,99,9,99999,9,99,9,99,9",,"10312,1,99999,9","05,1",,,,"MET058METAR EGUO 220950Z 08007KT 8000 HZ FEW250 19/12 Q1031 BLU;",
"03658499999","2010-05-22T10:50:00","4","51.439083","-2.286389","180.74","COLERNE, UK","FM-15","EGUO ","V020","070,1,N,0036,1","22000,1,9,N","008000,1,N,1","+0200,1","+0130,1","99999,9",,,,"00,99,1,99,9,99,9,99999,9,99,9,99,9",,"10301,1,99999,9","05,1",,,,"MET055METAR EGUO 221050Z 07007KT 8000 HZ NSC 20/13 Q1030 BLU;","Q01    003SCCGA1"
"03658499999","2010-05-22T11:50:00","4","51.439083","-2.286389","180.74","COLERNE, UK","FM-15","EGUO ","V020","060,1,N,0051,1","99999,9,C,N","011265,1,N,1","+0210,1","+0120,1","99999,9","02,5,+00900,1,99,9","04,5,+07500,1,99,9",,"04,99,1,99,9,99,9,99999,9,99,9,99,9",,"10301,1,99999,9",,,,,"MET062METAR EGUO 221150Z 06010KT 9999 FEW030 SCT250 21/12 Q1030 BLU;","P01 075003SCOCIG"
"03658499999","2010-05-22T12:50:00","4","51.439083","-2.286389","180.74","COLERNE, UK","FM-15","EGUO ","V020","060,1,N,0041,1","99999,9,C,N","011265,1,N,1","+0220,1","+0120,1","99999,9","02,5,+01050,1,99,9","04,5,+07500,1,99,9",,"04,99,1,99,9,99,9,99999,9,99,9,99,9",,"10301,1,99999,9",,,,,"MET062METAR EGUO 221250Z 06008KT 9999 FEW035 SCT250 22/12 Q1030 BLU;","P01 075003SCOCIG"
"03658499999","2010-05-23T06:50:00","4","51.439083","-2.286389","180.74","COLERNE, UK","FM-15","EGUO ","V020","999,9,C,0000,1","99999,9,9,Y","009900,1,N,1","+0150,1","+0100,1","99999,9",,,,,,"10271,1,99999,9",,,,,"MET049METAR EGUO 230650Z 00000KT CAVOK 15/10 Q1027 BLU;",
"03658499999","2010-05-23T07:50:00","4","51.439083","-2.286389","180.74","COLERNE, UK","FM-15","EGUO ","V020","999,9,C,0000,1","99999,9,9,Y","009900,1,N,1","+0170,1","+0100,1","99999,9",,,,,,"10271,1,99999,9",,,,,"MET049METAR EGUO 230750Z 00000KT CAVOK 17/10 Q1027 BLU;",
"03658499999","2010-05-23T08:50:00","4","51.439083","-2.286389","180.74","COLERNE, UK","FM-15","EGUO ","V020","090,1,N,0026,1","99999,9,9,Y","009900,1,N,1","+0190,1","+0100,1","99999,9",,,,,,"10271,1,99999,9",,,,,"MET049METAR EGUO 230850Z 09005KT CAVOK 19/10 Q1027 BLU;",
"03658499999","2010-05-23T09:50:00","4","51.439083","-2.286389","180.74","COLERNE, UK","FM-15","EGUO ","V020","090,1,N,0026,1","99999,9,9,Y","009900,1,N,1","+0200,1","+0100,1","99999,9",,,,,,"10261,1,99999,9",,,,,"MET049METAR EGUO 230950Z 09005KT CAVOK 20/10 Q1026 BLU;",
"03658499999","2010-05-23T10:50:00","4","51.439083","-2.286389","180.74","COLERNE, UK","FM-15","EGUO ","V020","999,9,C,0000,1","99999,9,9,Y","009900,1,N,1","+0220,1","+0110,1","99999,9",,,,,,"10261,1,99999,9",,,,,"MET049METAR EGUO 231050Z 00000KT CAVOK 22/11 Q1026 BLU;",
"03658499999","2010-05-23T11:50:00","4","51.439083","-2.286389","180.74","COLERNE, UK","FM-15","EGUO ","V020","999,9,C,0000,1","99999,9,9,Y","009900,1,N,1","+0220,1","+0110,1","99999,9",,,,,,"10251,1,99999,9",,,,,"MET049METAR EGUO 231150Z 00000KT CAVOK 22/11 Q1025 BLU;",
"03658499999","2010-05-23T12:50:00","4","51.439083","-2.286389","180.74","COLERNE, UK","FM-15","EGUO ","V020","160,1,N,0026,1","99999,9,9,Y","009900,1,N,1","+0240,1","+0120,1","99999,9",,,,,,"10251,1,99999,9",,,,,"MET049METAR EGUO 231250Z 16005KT CAVOK 24/12 Q1025 BLU;",
"03658499999","2010-05-26T06:50:00","4","51.439083","-2.286389","180.74","COLERNE, UK","FM-15","EGUO ","V020","050,1,N,0041,1","01320,1,C,N","011265,1,N,1","+0090,1","+0040,1","99999,9","07,5,+01320,1,99,9",,,"07,99,1,99,9,99,9,99999,9,99,9,99,9",,"10102,1,99999,9",,,,,"MET055METAR EGUO 260650Z 05008KT 9999 BKN044 09/04 Q1010 BLU;",
"03658499999","2010-05-26T07:50:00","4","51.439083","-2.286389","180.74","COLERNE, UK","FM-15","EGUO ","V020","050,1,N,0057,1","01260,1,C,N","011265,1,N,1","+0100,1","+0050,1","99999,9","07,5,+01260,1,99,9",,,"07,99,1,99,9,99,9,99999,9,99,9,99,9",,"10108,1,99999,9",,,,,"MET055METAR EGUO 260750Z 05011KT 9999 BKN042 10/05 Q1011 BLU;",
"03658499999","2010-05-26T08:50:00","4","51.439083","-2.286389","180.74","COLERNE, UK","FM-15","EGUO ","V020","070,1,N,0041,1","99999,9,9,Y","009900,1,N,1","+0110,1","+0060,1","99999,9",,,,,,"10108,1,99999,9",,,,,"MET049METAR EGUO 260850Z 07008KT CAVOK 11/06 Q1011 BLU;",
"03658499999","2010-05-26T09:50:00","4","51.439083","-2.286389","180.74","COLERNE, UK","FM-15","EGUO ","V020","050,1,N,0041,1","99999,9,9,Y","009900,1,N,1","+0130,1","+0050,1","99999,9",,,,,,"10108,1,99999,9",,,,,"MET049METAR EGUO 260950Z 05008KT CAVOK 13/05 Q1011 BLU;",
"03658499999","2010-05-26T12:50:00","4","51.439083","-2.286389","180.74","COLERNE, UK","FM-15","EGUO ","V020","999,9,C,0000,1","22000,1,9,N","011265,1,N,1","+0160,1","+0060,1","99999,9","02,5,+01200,1,99,9",,,"02,99,1,99,9,99,9,99999,9,99,9,99,9",,"10102,1,99999,9",,,,,"MET055METAR EGUO 261250Z 00000KT 9999 FEW040 16/06 Q1010 BLU;",
"03658499999","2010-05-26T13:50:00","4","51.439083","-2.286389","180.74","COLERNE, UK","FM-15","EGUO ","V020","999,9,C,0000,1","22000,1,9,N","011265,1,N,1","+0160,1","+0060,1","99999,9","04,5,+01200,1,99,9",,,"04,99,1,99,9,99,9,99999,9,99,9,99,9",,"10102,1,99999,9",,,,,"MET055METAR EGUO 261350Z 00000KT 9999 SCT040 16/06 Q1010 BLU;",
"03658499999","2010-05-26T14:50:00","4","51.439083","-2.286389","180.74","COLERNE, UK","FM-15","EGUO ","V020","999,9,C,0000,1","22000,1,9,N","011265,1,N,1","+0170,1","+0060,1","99999,9","04,5,+01200,1,99,9",,,"04,99,1,99,9,99,9,99999,9,99,9,99,9",,"10091,1,99999,9",,,,,"MET055METAR EGUO 261450Z 00000KT 9999 SCT040 17/06 Q1009 BLU;",
"03658499999","2010-05-27T06:50:00","4","51.439083","-2.286389","180.74","COLERNE, UK","FM-15","EGUO ","V020","010,1,N,0062,1","99999,9,C,N","008000,1,N,1","+0100,1","+0070,1","99999,9","02,5,+00360,1,99,9","04,5,+01200,1,99,9",,"04,99,1,99,9,99,9,99999,9,99,9,99,9",,"10108,1,99999,9","05,1",,,,"MET071METAR EGUO 270650Z 01012KT 8000 5000S HZ FEW012 SCT040 10/07 Q1011 WHT;","P01 012003SCOCIG"
"03658499999","2010-05-27T07:50:00","4","51.439083","-2.286389","180.74","COLERNE, UK","FM-15","EGUO ","V020","010,1,N,0041,1","22000,1,9,N","008000,1,N,1","+0100,1","+0050,1","99999,9","04,5,+00360,1,99,9",,,"04,99,1,99,9,99,9,99999,9,99,9,99,9",,"10108,1,99999,9","05,1",,,,"MET064METAR EGUO 270750Z 01008KT 8000 5000S HZ SCT012 10/05 Q1011 GRN;",
"03658499999","2010-05-27T08:50:00","4","51.439083","-2.286389","180.74","COLERNE, UK","FM-15","EGUO ","V020","010,1,N,0046,1","22000,1,9,N","008000,1,N,1","+0120,1","+0030,1","99999,9","02,5,+00780,1,99,9",,,"02,99,1,99,9,99,9,99999,9,99,9,99,9",,"10108,1,99999,9","05,1",,,,"MET058METAR EGUO 270850Z 01009KT 8000 HZ FEW026 12/03 Q1011 BLU;",
"03658499999","2010-05-27T09:50:00","4","51.439083","-2.286389","180.74","COLERNE, UK","FM-15","EGUO ","V020","350,1,N,0062,1","22000,1,9,N","011265,1,N,1","+0120,1","+0030,1","99999,9","02,5,+00960,1,99,9",,,"02,99,1,99,9,99,9,99999,9,99,9,99,9",,"10108,1,99999,9",,,,,"MET055METAR EGUO 270950Z 35012KT 9999 FEW032 12/03 Q1011 BLU;",
"03658499999","2010-05-27T10:50:00","4","51.439083","-2.286389","180.74","COLERNE, UK","FM-15","EGUO ","V020","350,1,N,0041,1","22000,1,9,N","011265,1,N,1","+0130,1","+0040,1","99999,9","04,5,+01050,1,99,9",,,"04,99,1,99,9,99,9,99999,9,99,9,99,9",,"10108,1,99999,9",,,,,"MET055METAR EGUO 271050Z 35008KT 9999 SCT035 13/04 Q1011 BLU;",
"03658499999","2010-05-27T11:50:00","4","51.439083","-2.286389","180.74","COLERNE, UK","FM-15","EGUO ","V020","310,1,N,0041,1","22000,1,9,N","011265,1,N,1","+0140,1","+0040,1","99999,9","04,5,+01200,1,99,9",,,"04,99,1,99,9,99,9,99999,9,99,9,99,9",,"10108,1,99999,9",,,,,"MET055METAR EGUO 271150Z 31008KT 9999 SCT040 14/04 Q1011 BLU;",
"03658499999","2010-05-27T12:50:00","4","51.439083","-2.286389","180.74","COLERNE, UK","FM-15","EGUO ","V020","300,1,N,0026,1","22000,1,9,N","011265,1,N,1","+0130,1","+0020,1","99999,9","04,5,+01200,1,99,9",,,"04,99,1,99,9,99,9,99999,9,99,9,99,9",,"10108,1,99999,9",,,,,"MET055METAR EGUO 271250Z 30005KT 9999 SCT040 13/02 Q1011 BLU;",
"03658499999","2010-05-27T13:50:00","4","51.439083","-2.286389","180.74","COLERNE, UK","FM-15","EGUO ","V020","260,1,N,0067,1","22000,1,9,N","011265,1,N,1","+0130,1","+0040,1","99999,9","04,5,+01200,1,99,9",,,"04,99,1,99,9,99,9,99999,9,99,9,99,9",,"10108,1,99999,9",,,,,"MET055METAR EGUO 271350Z 26013KT 9999 SCT040 13/04 Q1011 BLU;",
"03658499999","2010-05-27T14:50:00","4","51.439083","-2.286389","180.74","COLERNE, UK","FM-15","EGUO ","V020","270,1,N,0062,1","22000,1,9,N","011265,1,N,1","+0140,1","+0040,1","99999,9","04,5,+01230,1,99,9",,,"04,99,1,99,9,99,9,99999,9,99,9,99,9",,"10108,1,99999,9",,,,,"MET055METAR EGUO 271450Z 27012KT 9999 SCT041 14/04 Q1011 BLU;",
"03658499999","2010-05-28T05:50:00","4","51.439083","-2.286389","180.74","COLERNE, UK","FM-15","EGUO ","V020","280,1,N,0031,1","22000,1,9,N","011265,1,N,1","+0110,1","+0070,1","99999,9","04,5,+00420,1,99,9",,,"04,99,1,99,9,99,9,99999,9,99,9,99,9",,"10139,1,99999,9",,,,,"MET055METAR EGUO 280550Z 28006KT 9999 SCT014 11/07 Q1014 GRN;",
"03658499999","2010-05-28T07:20:00","4","51.439083","-2.286389","180.74","COLERNE, UK","FM-15","EGUO ","V020","270,1,N,0031,1","22000,1,9,N","011265,1,N,1","+0100,1","+0060,1","99999,9","04,5,+00480,1,99,9",,,"04,99,1,99,9,99,9,99999,9,99,9,99,9",,"10149,1,99999,9",,,,,"MET055METAR EGUO 280720Z 27006KT 9999 SCT016 10/06 Q1015 WHT;",
"03658499999","2010-05-28T07:50:00","4","51.439083","-2.286389","180.74","COLERNE, UK","FM-15","EGUO ","V020","270,1,N,0036,1","22000,1,9,N","011265,1,N,1","+0110,1","+0050,1","99999,9","04,5,+00600,1,99,9",,,"04,99,1,99,9,99,9,99999,9,99,9,99,9",,"10149,1,99999,9",,,,,"MET055METAR EGUO 280750Z 27007KT 9999 SCT020 11/05 Q1015 WHT;",
"03658499999","2010-05-28T08:50:00","4","51.439083","-2.286389","180.74","COLERNE, UK","FM-15","EGUO ","V020","310,1,N,0026,1","22000,1,9,N","011265,1,N,1","+0130,1","+0030,1","99999,9","04,5,+00780,1,99,9",,,"04,99,1,99,9,99,9,99999,9,99,9,99,9",,"10149,1,99999,9",,,,,"MET055METAR EGUO 280850Z 31005KT 9999 SCT026 13/03 Q1015 BLU;",
"03658499999","2010-05-28T09:50:00","4","51.439083","-2.286389","180.74","COLERNE, UK","FM-15","EGUO ","V020","240,1,N,0051,1","22000,1,9,N","011265,1,N,1","+0140,1","+0030,1","99999,9","04,5,+01320,1,99,9",,,"04,99,1,99,9,99,9,99999,9,99,9,99,9",,"10149,1,99999,9",,,,,"MET055METAR EGUO 280950Z 24010KT 9999 SCT044 14/03 Q1015 BLU;",
"03658499999","2010-05-28T10:50:00","4","51.439083","-2.286389","180.74","COLERNE, UK","FM-15","EGUO ","V020","270,1,N,0041,1","22000,1,9,N","011265,1,N,1","+0140,1","+0040,1","99999,9","04,5,+01200,1,99,9",,,"04,99,1,99,9,99,9,99999,9,99,9,99,9",,"10159,1,99999,9",,,,,"MET055METAR EGUO 281050Z 27008KT 9999 SCT040 14/04 Q1016 BLU;",
"03658499999","2010-05-28T11:50:00","4","51.439083","-2.286389","180.74","COLERNE, UK","FM-15","EGUO ","V020","250,1,N,0067,1","22000,1,9,N","011265,1,N,1","+0150,1","+0030,1","99999,9","02,5,+01320,1,99,9",,,"02,99,1,99,9,99,9,99999,9,99,9,99,9",,"10159,1,99999,9",,,,,"MET055METAR EGUO 281150Z 25013KT 9999 FEW044 15/03 Q1016 BLU;",
"03658499999","2010-05-28T12:50:00","4","51.439083","-2.286389","180.74","COLERNE, UK","FM-15","EGUO ","V020","250,1,N,0062,1","22000,1,9,N","011265,1,N,1","+0160,1","+0020,1","99999,9","02,5,+01200,1,99,9",,,"02,99,1,99,9,99,9,99999,9,99,9,99,9",,"10159,1,99999,9",,,,,"MET055METAR EGUO 281250Z 25012KT 9999 FEW040 16/02 Q1016 BLU;",
"03658499999","2010-05-28T13:50:00","4","51.439083","-2.286389","180.74","COLERNE, UK","FM-15","EGUO ","V020","270,1,N,0051,1","22000,1,9,N","011265,1,N,1","+0150,1","+0020,1","99999,9","02,5,+01260,1,99,9",,,"02,99,1,99,9,99,9,99999,9,99,9,99,9",,"10159,1,99999,9",,,,,"MET055METAR EGUO 281350Z 27010KT 9999 FEW042 15/02 Q1016 BLU;",
"03658499999","2010-05-28T14:50:00","4","51.439083","-2.286389","180.74","COLERNE, UK","FM-15","EGUO ","V020","240,1,N,0041,1","22000,1,9,N","011265,1,N,1","+0160,1","+0040,1","99999,9","02,5,+01440,1,99,9",,,"02,99,1,99,9,99,9,99999,9,99,9,99,9",,"10159,1,99999,9",,,,"0093,1","MET058METAR EGUO 281450Z 24008G18KT 9999 FEW048 16/04 Q1016 BLU;",
"03658499999","2010-06-02T06:50:00","4","51.439083","-2.286389","180.74","COLERNE, UK","FM-15","EGUO ","V020","999,9,C,0000,1","00015,1,C,N","000750,1,N,1","+0100,1","+0100,1","99999,9","09,1,+00015,1,99,9",,,"09,99,1,99,9,99,9,00025,1,99,9,99,9",,"10230,1,99999,9","45,1",,,,"MET057METAR EGUO 020650Z 00000KT 0750 FG VV/// 10/10 Q1023 RED;",
"03658499999","2010-06-02T07:50:00","4","51.439083","-2.286389","180.74","COLERNE, UK","FM-15","EGUO ","V020","999,9,C,0000,1","00015,1,C,N","002000,1,N,1","+0100,1","+0090,1","99999,9","09,1,+00015,1,99,9",,,"09,99,1,99,9,99,9,00025,1,99,9,99,9",,"10230,1,99999,9","10,1",,,,"MET057METAR EGUO 020750Z 00000KT 2000 BR VV/// 10/09 Q1023 RED;",
"03658499999","2010-06-02T08:50:00","4","51.439083","-2.286389","180.74","COLERNE, UK","FM-15","EGUO ","V020","999,9,C,0000,1","00060,1,C,N","004500,1,N,1","+0110,1","+0100,1","99999,9","08,5,+00060,1,99,9",,,"08,99,1,99,9,99,9,99999,9,99,9,99,9",,"10230,1,99999,9","10,1",,,,"MET058METAR EGUO 020850Z 00000KT 4500 BR OVC002 11/10 Q1023 AMB;",
"03658499999","2010-06-02T09:50:00","4","51.439083","-2.286389","180.74","COLERNE, UK","FM-15","EGUO ","V020","999,9,C,0000,1","00120,1,C,N","006000,1,N,1","+0130,1","+0100,1","99999,9","07,5,+00120,1,99,9",,,"07,99,1,99,9,99,9,99999,9,99,9,99,9",,"10240,1,99999,9","10,1",,,,"MET059METAR EGUO 020950Z 00000KT 6000 BR BKN004 13/10 Q1024 YLO2;",
"03658499999","2010-06-02T10:50:00","4","51.439083","-2.286389","180.74","COLERNE, UK","FM-15","EGUO ","V020","999,9,C,0000,1","00360,1,C,N","007000,1,N,1","+9999,9","+9999,9","99999,9","02,5,+00240,1,99,9","04,5,+00360,1,99,9","07,5,+00540,1,99,9","07,99,1,99,9,99,9,99999,9,99,9,99,9",,"10240,1,99999,9",,,,,"MET063METAR EGUO 021050Z 00000KT 7000 FEW008 SCT012 BKN018 Q1024 GRN;",
"03658499999","2010-06-02T11:50:00","4","51.439083","-2.286389","180.74","COLERNE, UK","FM-15","EGUO ","V020","060,1,N,0026,1","99999,9,C,N","011265,1,N,1","+0150,1","+0100,1","99999,9","02,5,+00450,1,99,9","04,5,+00600,1,99,9",,"04,99,1,99,9,99,9,99999,9,99,9,99,9",,"10240,1,99999,9",,,,,"MET062METAR EGUO 021150Z 06005KT 9999 FEW015 SCT020 15/10 Q1024 WHT;","P01 006003SCOCIG"
"03658499999","2010-06-02T12:50:00","4","51.439083","-2.286389","180.74","COLERNE, UK","FM-15","EGUO ","V020","060,1,N,0026,1","99999,9,C,N","011265,1,N,1","+0170,1","+0090,1","99999,9","02,5,+00540,1,99,9","04,5,+00660,1,99,9",,"04,99,1,99,9,99,9,99999,9,99,9,99,9",,"10240,1,99999,9",,,,,"MET062METAR EGUO 021250Z 06005KT 9999 FEW018 SCT022 17/09 Q1024 WHT;","P01 006603SCOCIG"
"03658499999","2010-06-02T13:50:00","4","51.439083","-2.286389","180.74","COLERNE, UK","FM-15","EGUO ","V020","060,1,N,0026,1","22000,1,9,N","011265,1,N,1","+0170,1","+0070,1","99999,9","02,5,+01200,1,99,9",,,"02,99,1,99,9,99,9,99999,9,99,9,99,9",,"10230,1,99999,9",,,,,"MET055METAR EGUO 021350Z 06005KT 9999 FEW040 17/07 Q1023 BLU;",
"03658499999","2010-06-02T14:50:00","4","51.439083","-2.286389","180.74","COLERNE, UK","FM-15","EGUO ","V020","110,1,N,0026,1","22000,1,9,N","011265,1,N,1","+0180,1","+0080,1","99999,9","02,5,+01200,1,99,9",,,"02,99,1,99,9,99,9,99999,9,99,9,99,9",,"10240,1,99999,9",,,,,"MET055METAR EGUO 021450Z 11005KT 9999 FEW040 18/08 Q1024 BLU;",
"03658499999","2010-06-03T06:50:00","4","51.439083","-2.286389","180.74","COLERNE, UK","FM-15","EGUO ","V020","999,9,C,0000,1","22000,1,9,N","003000,1,N,1","+0130,1","+0110,1","99999,9",,,,"00,99,1,99,9,99,9,99999,9,99,9,99,9",,"10240,1,99999,9","05,1",,,,"MET056METAR EGUO 030650Z 00000KT 3000 HZ NSC 13/11 Q1024 YLO1;","Q01    003SCCGA1"
"03658499999","2010-06-03T07:50:00","4","51.439083","-2.286389","180.74","COLERNE, UK","FM-15","EGUO ","V020","120,1,N,0026,1","22000,1,9,N","003500,1,N,1","+0150,1","+0100,1","99999,9",,,,"00,99,1,99,9,99,9,99999,9,99,9,99,9",,"10251,1,99999,9","05,1",,,,"MET056METAR EGUO 030750Z 12005KT 3500 HZ NSC 15/10 Q1025 YLO1;","Q01    003SCCGA1"
"03658499999","2010-06-03T08:50:00","4","51.439083","-2.286389","180.74","COLERNE, UK","FM-15","EGUO ","V020","120,1,N,0026,1","22000,1,9,N","004000,1,N,1","+0180,1","+0100,1","99999,9",,,,"00,99,1,99,9,99,9,99999,9,99,9,99,9",,"10240,1,99999,9","05,1",,,,"MET055METAR EGUO 030850Z 12005KT 4000 HZ NSC 18/10 Q1024 GRN;","Q01    003SCCGA1"
"03658499999","2010-06-03T09:50:00","4","51.439083","-2.286389","180.74","COLERNE, UK","FM-15","EGUO ","V020","100,1,N,0026,1","22000,1,9,N","005000,1,N,1","+0170,1","+0110,1","99999,9","04,5,+00750,1,99,9",,,"04,99,1,99,9,99,9,99999,9,99,9,99,9",,"10240,1,99999,9","05,1",,,,"MET058METAR EGUO 030950Z 10005KT 5000 HZ SCT025 17/11 Q1024 WHT;",
"03658499999","2010-06-03T10:50:00","4","51.439083","-2.286389","180.74","COLERNE, UK","FM-15","EGUO ","V020","090,1,N,0041,1","22000,1,9,N","011265,1,N,1","+0190,1","+0080,1","99999,9","04,5,+00900,1,99,9",,,"04,99,1,99,9,99,9,99999,9,99,9,99,9",,"10230,1,99999,9",,,,,"MET055METAR EGUO 031050Z 09008KT 9999 SCT030 19/08 Q1023 BLU;",
"03658499999","2010-06-03T11:50:00","4","51.439083","-2.286389","180.74","COLERNE, UK","FM-15","EGUO ","V020","120,1,N,0026,1","22000,1,9,N","011265,1,N,1","+0200,1","+0070,1","99999,9","02,5,+01200,1,99,9",,,"02,99,1,99,9,99,9,99999,9,99,9,99,9",,"10230,1,99999,9",,,,,"MET055METAR EGUO 031150Z 12005KT 9999 FEW040 20/07 Q1023 BLU;",
"03658499999","2010-06-03T12:50:00","4","51.439083","-2.286389","180.74","COLERNE, UK","FM-15","EGUO ","V020","060,1,N,0031,1","99999,9,9,Y","009900,1,N,1","+0200,1","+0060,1","99999,9",,,,,,"10220,1,99999,9",,,,,"MET049METAR EGUO 031250Z 06006KT CAVOK 20/06 Q1022 BLU;",
"03658499999","2010-06-03T13:50:00","4","51.439083","-2.286389","180.74","COLERNE, UK","FM-15","EGUO ","V020","120,1,N,0021,1","99999,9,9,Y","009900,1,N,1","+0210,1","+0080,1","99999,9",,,,,,"10220,1,99999,9",,,,,"MET049METAR EGUO 031350Z 12004KT CAVOK 21/08 Q1022 BLU;",
"03658499999","2010-06-03T14:50:00","4","51.439083","-2.286389","180.74","COLERNE, UK","FM-15","EGUO ","V020","110,1,N,0051,1","99999,9,9,Y","009900,1,N,1","+0210,1","+0070,1","99999,9",,,,,,"10220,1,99999,9",,,,,"MET049METAR EGUO 031450Z 11010KT CAVOK 21/07 Q1022 BLU;",
"03658499999","2010-06-04T06:50:00","4","51.439083","-2.286389","180.74","COLERNE, UK","FM-15","EGUO ","V020","100,1,N,0026,1","22000,1,9,N","008000,1,N,1","+0130,1","+0130,1","99999,9","02,5,+01050,1,99,9",,,"02,99,1,99,9,99,9,99999,9,99,9,99,9",,"10210,1,99999,9",,,,,"MET055METAR EGUO 040650Z 10005KT 8000 FEW035 13/13 Q1021 BLU;",
"03658499999","2010-06-04T07:50:00","4","51.439083","-2.286389","180.74","COLERNE, UK","FM-15","EGUO ","V020","130,1,N,0036,1","99999,9,9,Y","009900,1,N,1","+0150,1","+0090,1","99999,9",,,,,,"10210,1,99999,9",,,,,"MET049METAR EGUO 040750Z 13007KT CAVOK 15/09 Q1021 BLU;",
"03658499999","2010-06-04T08:50:00","4","51.439083","-2.286389","180.74","COLERNE, UK","FM-15","EGUO ","V020","130,1,N,0026,1","99999,9,9,Y","009900,1,N,1","+0170,1","+0110,1","99999,9",,,,,,"10210,1,99999,9",,,,,"MET045METAR EGUO 040850Z 13005KT CAVOK 17/11 Q1021;",
"03658499999","2010-06-04T09:50:00","4","51.439083","-2.286389","180.74","COLERNE, UK","FM-15","EGUO ","V020","999,9,C,0000,1","99999,9,9,Y","009900,1,N,1","+0200,1","+0110,1","99999,9",,,,,,"10210,1,99999,9",,,,,"MET049METAR EGUO 040950Z 00000KT CAVOK 20/11 Q1021 BLU;",
"03658499999","2010-06-04T10:50:00","4","51.439083","-2.286389","180.74","COLERNE, UK","FM-15","EGUO ","V020","150,1,N,0031,1","99999,9,9,Y","009900,1,N,1","+0220,1","+0120,1","99999,9",,,,,,"10200,1,99999,9",,,,,"MET049METAR EGUO 041050Z 15006KT CAVOK 22/12 Q1020 BLU;",
"03658499999","2010-06-04T11:50:00","4","51.439083","-2.286389","180.74","COLERNE, UK","FM-15","EGUO ","V020","180,1,N,0041,1","22000,1,9,N","011265,1,N,1","+0230,1","+0110,1","99999,9","02,5,+01440,1,99,9",,,"02,99,1,99,9,99,9,99999,9,99,9,99,9",,"10200,1,99999,9",,,,,"MET055METAR EGUO 041150Z 18008KT 9999 FEW048 23/11 Q1020 BLU;",
"03658499999","2010-06-04T12:50:00","4","51.439083","-2.286389","180.74","COLERNE, UK","FM-15","EGUO ","V020","100,1,N,0051,1","22000,1,9,N","011265,1,N,1","+0240,1","+0130,1","99999,9","02,5,+01440,1,99,9",,,"02,99,1,99,9,99,9,99999,9,99,9,99,9",,"10200,1,99999,9",,,,,"MET055METAR EGUO 041250Z 10010KT 9999 FEW048 24/13 Q1020 BLU;",
"03658499999","2010-06-04T13:50:00","4","51.439083","-2.286389","180.74","COLERNE, UK","FM-15","EGUO ","V020","160,1,N,0041,1","22000,1,9,N","011265,1,N,1","+0240,1","+0120,1","99999,9","04,5,+01440,1,99,9",,,"04,99,1,99,9,99,9,99999,9,99,9,99,9",,"10200,1,99999,9",,,,,"MET055METAR EGUO 041350Z 16008KT 9999 SCT048 24/12 Q1020 BLU;",
"03658499999","2010-06-04T14:50:00","4","51.439083","-2.286389","180.74","COLERNE, UK","FM-15","EGUO ","V020","150,1,N,0041,1","22000,1,9,N","011265,1,N,1","+0240,1","+0130,1","99999,9","04,5,+01440,1,99,9",,,"04,99,1,99,9,99,9,99999,9,99,9,99,9",,"10200,1,99999,9",,,,,"MET055METAR EGUO 041450Z 15008KT 9999 SCT048 24/13 Q1020 BLU;",
"03658499999","2010-06-05T06:50:00","4","51.439083","-2.286389","180.74","COLERNE, UK","FM-15","EGUO ","V020","999,9,C,0000,1","22000,1,9,N","004500,1,N,1","+0160,1","+0100,1","99999,9","04,5,+03000,1,99,9",,,"04,99,1,99,9,99,9,99999,9,99,9,99,9",,"10200,1,99999,9","05,1",,,,"MET058METAR EGUO 050650Z 00000KT 4500 HZ SCT100 16/10 Q1020 GRN;",
"03658499999","2010-06-05T07:50:00","4","51.439083","-2.286389","180.74","COLERNE, UK","FM-15","EGUO ","V020","999,9,C,0000,1","03000,1,C,N","004500,1,N,1","+0170,1","+0120,1","99999,9","02,5,+01200,1,99,9","07,5,+03000,1,99,9",,"07,99,1,99,9,99,9,99999,9,99,9,99,9",,"10200,1,99999,9","05,1",,,,"MET065METAR EGUO 050750Z 00000KT 4500 HZ FEW040 BKN100 17/12 Q1020 GRN;",
"03658499999","2010-06-05T08:50:00","4","51.439083","-2.286389","180.74","COLERNE, UK","FM-15","EGUO ","V020","999,9,9,9999,9","02400,5,9,N","005000,1,N,1","+0190,1","+0120,1","99999,9","07,5,+02400,5,99,9",,,,,"10200,1,99999,9",,,,,"MET057METAR EGUO 050850Z 0000KT 5000 HZ BKN080 19/12 Q1020 WHT;",
"03658499999","2010-06-05T09:50:00","4","51.439083","-2.286389","180.74","COLERNE, UK","FM-15","EGUO ","V020","110,1,N,0026,1","02400,1,C,N","006000,1,N,1","+0200,1","+0120,1","99999,9","02,5,+01200,1,99,9","07,5,+02400,1,99,9",,"07,99,1,99,9,99,9,99999,9,99,9,99,9",,"10190,1,99999,9","05,1",,,,"MET065METAR EGUO 050950Z 11005KT 6000 HZ FEW040 BKN080 20/12 Q1019 WHT;",
"03658499999","2010-06-05T10:50:00","4","51.439083","-2.286389","180.74","COLERNE, UK","FM-15","EGUO ","V020","999,9,C,0000,1","02400,1,C,N","007000,1,N,1","+0210,1","+0110,1","99999,9","02,5,+01200,1,99,9","07,5,+02400,1,99,9",,"07,99,1,99,9,99,9,99999,9,99,9,99,9",,"10190,1,99999,9","05,1",,,,"MET065METAR EGUO 051050Z 00000KT 7000 HZ FEW040 BKN080 21/11 Q1019 WHT;",
"03658499999","2010-06-05T12:50:00","4","51.439083","-2.286389","180.74","COLERNE, UK","FM-15","EGUO ","V020","999,9,C,0000,1","22000,1,9,N","011265,1,N,1","+0230,1","+0130,1","99999,9","02,5,+01440,1,99,9",,,"02,99,1,99,9,99,9,99999,9,99,9,99,9",,"10180,1,99999,9",,,,,"MET055METAR EGUO 051250Z 00000KT 9999 FEW048 23/13 Q1018 BLU;",
"03658499999","2010-06-05T13:50:00","4","51.439083","-2.286389","180.74","COLERNE, UK","FM-15","EGUO ","V020","999,9,C,0000,1","22000,1,9,N","011265,1,N,1","+0230,1","+0140,1","99999,9","04,5,+01350,1,99,9",,,"04,99,1,99,9,99,9,99999,9,99,9,99,9",,"10180,1,99999,9",,,,,"MET055METAR EGUO 051350Z 00000KT 9999 SCT045 23/14 Q1018 BLU;",
"03658499999","2010-06-06T06:50:00","4","51.439083","-2.286389","180.74","COLERNE, UK","FM-15","EGUO ","V020","270,1,N,0036,1","02100,1,C,N","011265,1,N,1","+0150,1","+0110,1","99999,9","02,5,+00300,1,99,9","04,5,+02100,1,99,9","07,5,+03600,1,99,9","07,99,1,99,9,99,9,99999,9,99,9,99,9",,"10129,1,99999,9",,,,,"MET069METAR EGUO 060650Z 27007KT 9999 FEW010 SCT070 BKN120 15/11 Q1013 BLU;",
"03658499999","2010-06-06T07:50:00","4","51.439083","-2.286389","180.74","COLERNE, UK","FM-15","EGUO ","V020","260,1,N,0046,1","02100,1,C,N","011265,1,N,1","+0150,1","+0120,1","99999,9","02,5,+00360,1,99,9","07,5,+02100,1,99,9",,"07,99,1,99,9,99,9,99999,9,99,9,99,9",,"10129,1,99999,9",,,,,"MET062METAR EGUO 060750Z 26009KT 9999 FEW012 BKN070 15/12 Q1013 BLU;",
"03658499999","2010-06-06T09:50:00","4","51.439083","-2.286389","180.74","COLERNE, UK","FM-15","EGUO ","V020","260,1,N,0051,1","01800,1,C,N","011265,1,N,1","+0160,1","+0110,1","99999,9","02,5,+00300,1,99,9","07,5,+01800,1,99,9",,"07,99,1,99,9,99,9,99999,9,99,9,99,9",,"10129,1,99999,9",,,,,"MET062METAR EGUO 060950Z 26010KT 9999 FEW010 BKN060 16/11 Q1013 BLU;",
"03658499999","2010-06-06T10:50:00","4","51.439083","-2.286389","180.74","COLERNE, UK","FM-15","EGUO ","V020","260,1,N,0036,1","01800,1,C,N","011265,1,N,1","+0150,1","+0120,1","99999,9","02,5,+00360,1,99,9","04,5,+01800,1,99,9","07,5,+03600,1,99,9","07,99,1,99,9,99,9,99999,9,99,9,99,9",,"10129,1,99999,9",,,,,"MET069METAR EGUO 061050Z 26007KT 9999 FEW012 SCT060 BKN120 15/12 Q1013 BLU;",
"03658499999","2010-06-06T11:50:00","4","51.439083","-2.286389","180.74","COLERNE, UK","FM-15","EGUO ","V020","250,1,N,0026,1","01800,1,C,N","011265,1,N,1","+0180,1","+0120,1","99999,9","02,5,+00600,1,99,9","07,5,+01800,1,99,9",,"07,99,1,99,9,99,9,99999,9,99,9,99,9",,"10129,1,99999,9",,,,,"MET062METAR EGUO 061150Z 25005KT 9999 FEW020 BKN060 18/12 Q1013 BLU;",
"03658499999","2010-06-09T06:50:00","4","51.439083","-2.286389","180.74","COLERNE, UK","FM-15","EGUO ","V020","160,1,N,0021,1","00120,1,C,N","002200,1,N,1","+0120,1","+0110,1","99999,9","07,5,+00120,1,99,9","08,5,+00180,1,99,9",,"08,99,1,99,9,99,9,99999,9,99,9,99,9",,"10041,1,99999,9","10,1",,,,"MET066METAR EGUO 090650Z 16004KT 2200 BR BKN004 OVC006 12/11 Q1004 YLO2;",
"03658499999","2010-06-09T07:50:00","4","51.439083","-2.286389","180.74","COLERNE, UK","FM-15","EGUO ","V020","130,1,N,0021,1","00150,1,C,N","002200,1,N,1","+0130,1","+0120,1","99999,9","07,5,+00150,1,99,9","08,5,+00180,1,99,9",,"08,99,1,99,9,99,9,99999,9,99,9,99,9",,"10041,1,99999,9","10,1",,,,"MET066METAR EGUO 090750Z 13004KT 2200 BR BKN005 OVC006 13/12 Q1004 YLO2;",
"03658499999","2010-06-09T08:50:00","4","51.439083","-2.286389","180.74","COLERNE, UK","FM-15","EGUO ","V020","999,9,C,0000,1","00180,1,C,N","005000,1,N,1","+0140,1","+0120,1","99999,9","07,5,+00180,1,99,9",,,"07,99,1,99,9,99,9,99999,9,99,9,99,9",,"10051,1,99999,9","05,1",,,,"MET059METAR EGUO 090850Z 00000KT 5000 HZ BKN006 14/12 Q1005 YLO1;",
"03658499999","2010-06-09T09:50:00","4","51.439083","-2.286389","180.74","COLERNE, UK","FM-15","EGUO ","V020","999,9,C,0000,1","00450,1,C,N","011265,1,N,1","+9999,9","+9999,9","99999,9","02,5,+00300,1,99,9","04,5,+00450,1,99,9","07,5,+01200,1,99,9","07,99,1,99,9,99,9,99999,9,99,9,99,9",,"10050,1,99999,9",,,,,"MET073METAR EGUO 090950Z 00000KT 9999 FEW010 SCT015 BKN040 PS15/PS11 Q1005 WHT;",
"03658499999","2010-06-09T10:50:00","4","51.439083","-2.286389","180.74","COLERNE, UK","FM-15","EGUO ","V020","999,9,C,0000,1","01800,1,C,N","011265,1,N,1","+0170,1","+0120,1","99999,9","04,5,+00600,1,99,9","07,5,+01800,1,99,9",,"07,99,1,99,9,99,9,99999,9,99,9,99,9",,"10051,1,99999,9",,,,,"MET062METAR EGUO 091050Z 00000KT 9999 SCT020 BKN060 17/12 Q1005 WHT;",
"03658499999","2010-06-09T11:50:00","4","51.439083","-2.286389","180.74","COLERNE, UK","FM-15","EGUO ","V020","999,9,C,0000,1","01800,1,C,N","011265,1,N,1","+0170,1","+0110,1","99999,9","04,5,+00600,1,99,9","07,5,+01800,1,99,9",,"07,99,1,99,9,99,9,99999,9,99,9,99,9",,"10051,1,99999,9",,,,,"MET062METAR EGUO 091150Z 00000KT 9999 SCT020 BKN060 17/11 Q1005 WHT;",
"03658499999","2010-06-09T12:50:00","4","51.439083","-2.286389","180.74","COLERNE, UK","FM-15","EGUO ","V020","999,9,C,0000,1","01800,1,C,N","011265,1,N,1","+0170,1","+0120,1","99999,9","04,5,+00540,1,99,9","07,5,+01800,1,99,9",,"07,99,1,99,9,99,9,99999,9,99,9,99,9",,"10051,1,99999,9",,,,,"MET062METAR EGUO 091250Z 00000KT 9999 SCT018 BKN060 17/12 Q1005 WHT;",
"03658499999","2010-06-09T13:50:00","4","51.439083","-2.286389","180.74","COLERNE, UK","FM-15","EGUO ","V020","999,9,C,0000,1","01200,1,C,N","011265,1,N,1","+0180,1","+0120,1","99999,9","04,5,+00450,1,99,9","07,5,+01200,1,99,9",,"07,99,1,99,9,99,9,99999,9,99,9,99,9",,"10051,1,99999,9",,,,,"MET062METAR EGUO 091350Z 00000KT 9999 SCT015 BKN040 18/12 Q1005 WHT;",
"03658499999","2010-06-09T14:50:00","4","51.439083","-2.286389","180.74","COLERNE, UK","FM-15","EGUO ","V020","100,1,N,0026,1","00780,1,C,N","011265,1,N,1","+0180,1","+0110,1","99999,9","02,5,+00450,1,99,9","04,5,+00780,1,99,9","07,5,+01500,1,99,9","07,99,1,99,9,99,9,99999,9,99,9,99,9",,"10051,1,99999,9",,,,,"MET069METAR EGUO 091450Z 10005KT 9999 FEW015 SCT026 BKN050 18/11 Q1005 BLU;",
"03658499999","2010-06-10T06:50:00","4","51.439083","-2.286389","180.74","COLERNE, UK","FM-15","EGUO ","V020","030,1,N,0072,1","00015,1,C,N","002000,1,N,1","+0130,1","+0120,1","99999,9","09,1,+00015,1,99,9",,,"09,99,1,99,9,99,9,00025,1,99,9,99,9",,"10081,1,99999,9","10,1",,,,"MET057METAR EGUO 100650Z 03014KT 2000 BR VV/// 13/12 Q1008 RED;",
"03658499999","2010-06-10T07:50:00","4","51.439083","-2.286389","180.74","COLERNE, UK","FM-15","EGUO ","V020","030,1,N,0082,1","00180,1,C,N","004500,1,N,1","+0130,1","+0120,1","99999,9","04,5,+00120,1,99,9","07,5,+00180,1,99,9",,"07,99,1,99,9,99,9,99999,9,99,9,99,9",,"10081,1,99999,9","10,1",,,,"MET066METAR EGUO 100750Z 03016KT 4500 BR SCT004 BKN006 13/12 Q1008 YLO2;",
"03658499999","2010-06-10T08:50:00","4","51.439083","-2.286389","180.74","COLERNE, UK","FM-15","EGUO ","V020","040,1,N,0077,1","00120,1,C,N","004000,1,N,1","+0140,1","+0120,1","99999,9","07,5,+00120,1,99,9","08,5,+00180,1,99,9",,"08,99,1,99,9,99,9,99999,9,99,9,99,9",,"10091,1,99999,9","05,1",,,,"MET066METAR EGUO 100850Z 04015KT 4000 HZ BKN004 OVC006 14/12 Q1009 YLO2;",
"03658499999","2010-06-10T09:50:00","4","51.439083","-2.286389","180.74","COLERNE, UK","FM-15","EGUO ","V020","050,1,N,0062,1","00240,1,C,N","007000,1,N,1","+0150,1","+0120,1","99999,9","04,5,+00150,1,99,9","07,5,+00240,1,99,9",,"07,99,1,99,9,99,9,99999,9,99,9,99,9",,"10091,1,99999,9","05,1",,,,"MET066METAR EGUO 100950Z 05012KT 7000 HZ SCT005 BKN008 15/12 Q1009 YLO1;",
"03658499999","2010-06-10T10:50:00","4","51.439083","-2.286389","180.74","COLERNE, UK","FM-15","EGUO ","V020","030,1,N,0087,1","00300,1,C,N","011265,1,N,1","+0160,1","+0120,1","99999,9","04,5,+00180,1,99,9","07,5,+00300,1,99,9",,"07,99,1,99,9,99,9,99999,9,99,9,99,9",,"10091,1,99999,9",,,,,"MET063METAR EGUO 101050Z 03017KT 9999 SCT006 BKN010 16/12 Q1009 YLO1;",
"03658499999","2010-06-10T11:50:00","4","51.439083","-2.286389","180.74","COLERNE, UK","FM-15","EGUO ","V020","040,1,N,0103,1","00300,1,C,N","011265,1,N,1","+0150,1","+0120,1","99999,9","04,5,+00180,1,99,9","08,5,+00300,1,99,9",,"08,99,1,99,9,99,9,99999,9,99,9,99,9",,"10091,1,99999,9",,,,,"MET063METAR EGUO 101150Z 04020KT 9999 SCT006 OVC010 15/12 Q1009 YLO1;",
"03658499999","2010-06-10T13:50:00","4","51.439083","-2.286389","180.74","COLERNE, UK","FM-15","EGUO ","V020","040,1,N,0067,1","00450,1,C,N","011265,1,N,1","+0150,1","+0120,1","99999,9","02,5,+00240,1,99,9","08,5,+00450,1,99,9",,"08,99,1,99,9,99,9,99999,9,99,9,99,9",,"10091,1,99999,9",,,,,"MET062METAR EGUO 101350Z 04013KT 9999 FEW008 OVC015 15/12 Q1009 WHT;",
"03658499999","2010-06-10T14:50:00","4","51.439083","-2.286389","180.74","COLERNE, UK","FM-15","EGUO ","V020","030,1,N,0077,1","00450,1,C,N","011265,1,N,1","+0150,1","+0120,1","99999,9","02,5,+00240,1,99,9","08,5,+00450,1,99,9",,"08,99,1,99,9,99,9,99999,9,99,9,99,9",,"10091,1,99999,9",,,,,"MET062METAR EGUO 101450Z 03015KT 9999 FEW008 OVC015 15/12 Q1009 WHT;",
"03658499999","2010-06-11T06:50:00","4","51.439083","-2.286389","180.74","COLERNE, UK","FM-15","EGUO ","V020","360,1,N,0041,1","00300,1,C,N","005000,1,N,1","+0110,1","+0090,1","99999,9","04,5,+00240,1,99,9","07,5,+00300,1,99,9",,"07,99,1,99,9,99,9,99999,9,99,9,99,9",,"10102,1,99999,9","05,1",,,,"MET065METAR EGUO 110650Z 36008KT 5000 HZ SCT008 BKN010 11/09 Q1010 GRN;",
"03658499999","2010-06-11T08:50:00","4","51.439083","-2.286389","180.74","COLERNE, UK","FM-15","EGUO ","V020","010,1,N,0057,1","99999,9,C,N","005000,1,N,1","+0130,1","+0100,1","99999,9","02,5,+00300,1,99,9","04,5,+00450,1,99,9",,"04,99,1,99,9,99,9,99999,9,99,9,99,9",,"10102,1,99999,9","05,1",,,,"MET065METAR EGUO 110850Z 01011KT 5000 HZ FEW010 SCT015 13/10 Q1010 WHT;","P01 004503SCOCIG"
"03658499999","2010-06-11T09:50:00","4","51.439083","-2.286389","180.74","COLERNE, UK","FM-15","EGUO ","V020","350,1,N,0062,1","00450,1,C,N","008000,1,N,1","+0140,1","+0090,1","99999,9","02,5,+00300,1,99,9","07,5,+00450,1,99,9",,"07,99,1,99,9,99,9,99999,9,99,9,99,9",,"10108,1,99999,9","05,1",,,,"MET065METAR EGUO 110950Z 35012KT 8000 HZ FEW010 BKN015 14/09 Q1011 WHT;",
"03658499999","2010-06-11T10:50:00","4","51.439083","-2.286389","180.74","COLERNE, UK","FM-15","EGUO ","V020","999,9,9,9999,9","00600,5,9,N","011265,1,N,1","+0160,1","+0110,1","99999,9","02,5,+00450,5,99,9","04,5,+00600,5,99,9",,,,"10110,1,99999,9",,,,,"MET061METAR EGUO 111050Z 3510KT 9999 FEW015 SCT020 16/11 Q1011 WHT;",
"03658499999","2010-06-11T11:50:00","4","51.439083","-2.286389","180.74","COLERNE, UK","FM-15","EGUO ","V020","010,1,N,0041,1","22000,1,9,N","011265,1,N,1","+0170,1","+0110,1","99999,9","04,5,+00720,1,99,9",,,"04,99,1,99,9,99,9,99999,9,99,9,99,9",,"10108,1,99999,9",,,,,"MET055METAR EGUO 111150Z 01008KT 9999 SCT024 17/11 Q1011 WHT;",
"03658499999","2010-06-11T12:50:00","4","51.439083","-2.286389","180.74","COLERNE, UK","FM-15","EGUO ","V020","340,1,N,0026,1","22000,1,9,N","011265,1,N,1","+0170,1","+0100,1","99999,9","04,5,+00900,1,99,9",,,"04,99,1,99,9,99,9,99999,9,99,9,99,9",,"10108,1,99999,9",,,,,"MET055METAR EGUO 111250Z 34005KT 9999 SCT030 17/10 Q1011 BLU;",
"03658499999","2010-06-11T13:50:00","4","51.439083","-2.286389","180.74","COLERNE, UK","FM-15","EGUO ","V020","340,1,N,0026,1","22000,1,9,N","011265,1,N,1","+0180,1","+0100,1","99999,9","04,5,+00900,1,99,9",,,"04,99,1,99,9,99,9,99999,9,99,9,99,9",,"10108,1,99999,9",,,,,"MET055METAR EGUO 111350Z 34005KT 9999 SCT030 18/10 Q1011 BLU;",
"03658499999","2010-06-11T14:50:00","4","51.439083","-2.286389","180.74","COLERNE, UK","FM-15","EGUO ","V020","340,1,N,0036,1","22000,1,9,N","011265,1,N,1","+0190,1","+0090,1","99999,9","04,5,+01080,1,99,9",,,"04,99,1,99,9,99,9,99999,9,99,9,99,9",,"10108,1,99999,9",,,,,"MET055METAR EGUO 111450Z 34007KT 9999 SCT036 19/09 Q1011 BLU;",
"03658499999","2010-06-12T06:50:00","4","51.439083","-2.286389","180.74","COLERNE, UK","FM-15","EGUO ","V020","350,1,N,0067,1","00660,1,C,N","011265,1,N,1","+0110,1","+0060,1","99999,9","07,5,+00660,1,99,9",,,"07,99,1,99,9,99,9,99999,9,99,9,99,9",,"10159,1,99999,9",,,,,"MET055METAR EGUO 120650Z 35013KT 9999 BKN022 11/06 Q1016 WHT;",
"03658499999","2010-06-12T07:50:00","4","51.439083","-2.286389","180.74","COLERNE, UK","FM-15","EGUO ","V020","350,1,N,0062,1","00750,1,C,N","011265,1,N,1","+0120,1","+0060,1","99999,9","07,5,+00750,1,99,9",,,"07,99,1,99,9,99,9,99999,9,99,9,99,9",,"10159,1,99999,9",,,,,"MET055METAR EGUO 120750Z 35012KT 9999 BKN025 12/06 Q1016 BLU;",
"03658499999","2010-06-12T08:50:00","4","51.439083","-2.286389","180.74","COLERNE, UK","FM-15","EGUO ","V020","360,1,N,0041,1","00750,1,C,N","011265,1,N,1","+0120,1","+0060,1","99999,9","07,5,+00750,1,99,9",,,"07,99,1,99,9,99,9,99999,9,99,9,99,9",,"10169,1,99999,9",,,,,"MET055METAR EGUO 120850Z 36008KT 9999 BKN025 12/06 Q1017 BLU;",
"03658499999","2010-06-12T09:50:00","4","51.439083","-2.286389","180.74","COLERNE, UK","FM-15","EGUO ","V020","350,1,N,0077,1","00930,1,C,N","011265,1,N,1","+0140,1","+0060,1","99999,9","07,5,+00930,1,99,9",,,"07,99,1,99,9,99,9,99999,9,99,9,99,9",,"10169,1,99999,9",,,,,"MET055METAR EGUO 120950Z 35015KT 9999 BKN031 14/06 Q1017 BLU;",
"03658499999","2010-06-12T10:50:00","4","51.439083","-2.286389","180.74","COLERNE, UK","FM-15","EGUO ","V020","360,1,N,0051,1","22000,1,9,N","011265,1,N,1","+0150,1","+0070,1","99999,9","04,5,+00900,1,99,9",,,"04,99,1,99,9,99,9,99999,9,99,9,99,9",,"10169,1,99999,9",,,,,"MET055METAR EGUO 121050Z 36010KT 9999 SCT030 15/07 Q1017 BLU;",
"03658499999","2010-06-12T12:50:00","4","51.439083","-2.286389","180.74","COLERNE, UK","FM-15","EGUO ","V020","030,1,N,0051,1","22000,1,9,N","011265,1,N,1","+0160,1","+0070,1","99999,9","04,5,+01080,1,99,9",,,"04,99,1,99,9,99,9,99999,9,99,9,99,9",,"10180,1,99999,9",,,,,"MET055METAR EGUO 121250Z 03010KT 9999 SCT036 16/07 Q1018 BLU;",
"03658499999","2010-06-12T13:50:00","4","51.439083","-2.286389","180.74","COLERNE, UK","FM-15","EGUO ","V020","350,1,N,0036,1","22000,1,9,N","011265,1,N,1","+0160,1","+0060,1","99999,9","04,5,+01260,1,99,9",,,"04,99,1,99,9,99,9,99999,9,99,9,99,9",,"10180,1,99999,9",,,,,"MET055METAR EGUO 121350Z 35007KT 9999 SCT042 16/06 Q1018 BLU;",
"03658499999","2010-06-12T14:50:00","4","51.439083","-2.286389","180.74","COLERNE, UK","FM-15","EGUO ","V020","360,1,N,0026,1","22000,1,9,N","011265,1,N,1","+0170,1","+0070,1","99999,9","04,5,+01200,1,99,9",,,"04,99,1,99,9,99,9,99999,9,99,9,99,9",,"10180,1,99999,9",,,,,"MET055METAR EGUO 121450Z 36005KT 9999 SCT040 17/07 Q1018 BLU;",
"03658499999","2010-06-13T06:50:00","4","51.439083","-2.286389","180.74","COLERNE, UK","FM-15","EGUO ","V020","230,1,N,0031,1","99999,9,9,Y","009900,1,N,1","+0120,1","+0100,1","99999,9",,,,,,"10180,1,99999,9",,,,,"MET049METAR EGUO 130650Z 23006KT CAVOK 12/10 Q1018 BLU;",
"03658499999","2010-06-13T07:50:00","4","51.439083","-2.286389","180.74","COLERNE, UK","FM-15","EGUO ","V020","240,1,N,0031,1","99999,9,9,Y","009900,1,N,1","+0130,1","+0090,1","99999,9",,,,,,"10180,1,99999,9",,,,,"MET049METAR EGUO 130750Z 24006KT CAVOK 13/09 Q1018 BLU;",
"03658499999","2010-06-13T08:50:00","4","51.439083","-2.286389","180.74","COLERNE, UK","FM-15","EGUO ","V020","240,1,N,0031,1","99999,9,C,N","011265,1,N,1","+0150,1","+0090,1","99999,9","02,5,+00630,1,99,9","04,5,+03000,1,99,9",,"04,99,1,99,9,99,9,99999,9,99,9,99,9",,"10180,1,99999,9",,,,,"MET062METAR EGUO 130850Z 24006KT 9999 FEW021 SCT100 15/09 Q1018 BLU;","P01 030003SCOCIG"
"03658499999","2010-06-13T09:50:00","4","51.439083","-2.286389","180.74","COLERNE, UK","FM-15","EGUO ","V020","260,1,N,0036,1","22000,1,9,N","011265,1,N,1","+0170,1","+0090,1","99999,9","04,5,+00840,1,99,9",,,"04,99,1,99,9,99,9,99999,9,99,9,99,9",,"10169,1,99999,9",,,,,"MET055METAR EGUO 130950Z 26007KT 9999 SCT028 17/09 Q1017 BLU;",
"03658499999","2010-06-13T10:50:00","4","51.439083","-2.286389","180.74","COLERNE, UK","FM-15","EGUO ","V020","300,1,N,0041,1","22000,1,9,N","011265,1,N,1","+0170,1","+0070,1","99999,9","04,5,+01020,1,99,9",,,"04,99,1,99,9,99,9,99999,9,99,9,99,9",,"10169,1,99999,9",,,,,"MET055METAR EGUO 131050Z 30008KT 9999 SCT034 17/07 Q1017 BLU;",
"03658499999","2010-06-13T11:50:00","4","51.439083","-2.286389","180.74","COLERNE, UK","FM-15","EGUO ","V020","250,1,N,0046,1","22000,1,9,N","011265,1,N,1","+0170,1","+0100,1","99999,9","04,5,+00840,1,99,9",,,"04,99,1,99,9,99,9,99999,9,99,9,99,9",,"10149,1,99999,9",,,,,"MET055METAR EGUO 131150Z 25009KT 9999 SCT028 17/10 Q1015 BLU;",
"03658499999","2010-06-16T06:50:00","4","51.439083","-2.286389","180.74","COLERNE, UK","FM-15","EGUO ","V020","040,1,N,0041,1","22000,1,9,N","011265,1,N,1","+0100,1","+0060,1","99999,9","02,5,+00480,1,99,9",,,"02,99,1,99,9,99,9,99999,9,99,9,99,9",,"10281,1,99999,9",,,,,"MET055METAR EGUO 160650Z 04008KT 9999 FEW016 10/06 Q1028 BLU;",
"03658499999","2010-06-16T07:50:00","4","51.439083","-2.286389","180.74","COLERNE, UK","FM-15","EGUO ","V020","030,1,N,0062,1","22000,1,9,N","011265,1,N,1","+0120,1","+0060,1","99999,9","02,5,+00720,1,99,9",,,"02,99,1,99,9,99,9,99999,9,99,9,99,9",,"10281,1,99999,9",,,,,"MET055METAR EGUO 160750Z 03012KT 9999 FEW024 12/06 Q1028 BLU;",
"03658499999","2010-06-16T08:50:00","4","51.439083","-2.286389","180.74","COLERNE, UK","FM-15","EGUO ","V020","030,1,N,0072,1","22000,1,9,N","011265,1,N,1","+0120,1","+0060,1","99999,9","02,5,+00720,1,99,9",,,"02,99,1,99,9,99,9,99999,9,99,9,99,9",,"10281,1,99999,9",,,,,"MET055METAR EGUO 160850Z 03014KT 9999 FEW024 12/06 Q1028 BLU;",
"03658499999","2010-06-16T09:50:00","4","51.439083","-2.286389","180.74","COLERNE, UK","FM-15","EGUO ","V020","020,1,N,0041,1","22000,1,9,N","011265,1,N,1","+0140,1","+0060,1","99999,9","02,5,+00960,1,99,9",,,"02,99,1,99,9,99,9,99999,9,99,9,99,9",,"10271,1,99999,9",,,,,"MET055METAR EGUO 160950Z 02008KT 9999 FEW032 14/06 Q1027 BLU;",
"03658499999","2010-06-16T10:50:00","4","51.439083","-2.286389","180.74","COLERNE, UK","FM-15","EGUO ","V020","050,1,N,0046,1","22000,1,9,N","011265,1,N,1","+0150,1","+0050,1","99999,9","02,5,+01200,1,99,9",,,"02,99,1,99,9,99,9,99999,9,99,9,99,9",,"10271,1,99999,9",,,,,"MET055METAR EGUO 161050Z 05009KT 9999 FEW040 15/05 Q1027 BLU;",
"03658499999","2010-06-16T11:50:00","4","51.439083","-2.286389","180.74","COLERNE, UK","FM-15","EGUO ","V020","060,1,N,0077,1","99999,9,9,Y","009900,1,N,1","+0170,1","+0050,1","99999,9",,,,,,"10261,1,99999,9",,,,,"MET049METAR EGUO 161150Z 06015KT CAVOK 17/05 Q1026 BLU;",
"03658499999","2010-06-16T12:50:00","4","51.439083","-2.286389","180.74","COLERNE, UK","FM-15","EGUO ","V020","040,1,N,0072,1","99999,9,9,Y","009900,1,N,1","+0170,1","+0050,1","99999,9",,,,,,"10261,1,99999,9",,,,,"MET049METAR EGUO 161250Z 04014KT CAVOK 17/05 Q1026 BLU;",
"03658499999","2010-06-16T13:50:00","4","51.439083","-2.286389","180.74","COLERNE, UK","FM-15","EGUO ","V020","030,1,N,0046,1","99999,9,9,Y","009900,1,N,1","+0180,1","+0050,1","99999,9",,,,,,"10251,1,99999,9",,,,,"MET049METAR EGUO 161350Z 03009KT CAVOK 18/05 Q1025 BLU;",
"03658499999","2010-06-16T14:50:00","4","51.439083","-2.286389","180.74","COLERNE, UK","FM-15","EGUO ","V020","030,1,N,0077,1","99999,9,9,Y","009900,1,N,1","+0190,1","+0070,1","99999,9",,,,,,"10251,1,99999,9",,,,,"MET049METAR EGUO 161450Z 03015KT CAVOK 19/07 Q1025 BLU;",
"03658499999","2010-06-17T06:50:00","4","51.439083","-2.286389","180.74","COLERNE, UK","FM-15","EGUO ","V020","030,1,N,0051,1","22000,1,9,N","011265,1,N,1","+0100,1","+0070,1","99999,9","02,5,+00180,1,99,9",,,"02,99,1,99,9,99,9,99999,9,99,9,99,9",,"10240,1,99999,9",,,,,"MET055METAR EGUO 170650Z 03010KT 9999 FEW006 10/07 Q1024 BLU;",
"03658499999","2010-06-17T07:50:00","4","51.439083","-2.286389","180.74","COLERNE, UK","FM-15","EGUO ","V020","030,1,N,0062,1","99999,9,9,Y","009900,1,N,1","+0120,1","+0070,1","99999,9",,,,,,"10240,1,99999,9",,,,,"MET049METAR EGUO 170750Z 03012KT CAVOK 12/07 Q1024 BLU;",
"03658499999","2010-06-17T08:50:00","4","51.439083","-2.286389","180.74","COLERNE, UK","FM-15","EGUO ","V020","050,1,N,0051,1","99999,9,9,Y","009900,1,N,1","+0140,1","+0070,1","99999,9",,,,,,"10240,1,99999,9",,,,,"MET049METAR EGUO 170850Z 05010KT CAVOK 14/07 Q1024 BLU;",
"03658499999","2010-06-17T09:50:00","4","51.439083","-2.286389","180.74","COLERNE, UK","FM-15","EGUO ","V020","020,1,N,0051,1","99999,9,9,Y","009900,1,N,1","+9999,9","+9999,9","99999,9",,,,,,"10240,1,99999,9",,,,,"MET053METAR EGUO 170950Z 02010KT CAVOK PS16/PS11 Q1024 BLU;",
"03658499999","2010-06-17T10:50:00","4","51.439083","-2.286389","180.74","COLERNE, UK","FM-15","EGUO ","V020","050,1,N,0067,1","99999,9,9,Y","009900,1,N,1","+0170,1","+0040,1","99999,9",,,,,,"10240,1,99999,9",,,,,"MET049METAR EGUO 171050Z 05013KT CAVOK 17/04 Q1024 BLU;",
"03658499999","2010-06-17T11:50:00","4","51.439083","-2.286389","180.74","COLERNE, UK","FM-15","EGUO ","V020","070,1,N,0041,1","99999,9,9,Y","009900,1,N,1","+0180,1","+0050,1","99999,9",,,,,,"10230,1,99999,9",,,,,"MET049METAR EGUO 171150Z 07008KT CAVOK 18/05 Q1023 BLU;",
"03658499999","2010-06-17T12:50:00","4","51.439083","-2.286389","180.74","COLERNE, UK","FM-15","EGUO ","V020","060,1,N,0051,1","99999,9,9,Y","009900,1,N,1","+0190,1","+0030,1","99999,9",,,,,,"10230,1,99999,9",,,,,"MET049METAR EGUO 171250Z 06010KT CAVOK 19/03 Q1023 BLU;",
"03658499999","2010-06-17T13:50:00","4","51.439083","-2.286389","180.74","COLERNE, UK","FM-15","EGUO ","V020","060,1,N,0062,1","99999,9,9,Y","009900,1,N,1","+0200,1","+0030,1","99999,9",,,,,,"10230,1,99999,9",,,,,"MET049METAR EGUO 171350Z 06012KT CAVOK 20/03 Q1023 BLU;",
"03658499999","2010-06-17T14:50:00","4","51.439083","-2.286389","180.74","COLERNE, UK","FM-15","EGUO ","V020","050,1,N,0051,1","99999,9,9,Y","009900,1,N,1","+0210,1","+0060,1","99999,9",,,,,,"10220,1,99999,9",,,,,"MET049METAR EGUO 171450Z 05010KT CAVOK 21/06 Q1022 BLU;",
"03658499999","2010-06-18T06:50:00","4","51.439083","-2.286389","180.74","COLERNE, UK","FM-15","EGUO ","V020","999,9,C,0000,1","02400,1,C,N","008000,1,N,1","+0120,1","+0090,1","99999,9","07,5,+02400,1,99,9",,,"07,99,1,99,9,99,9,99999,9,99,9,99,9",,"10220,1,99999,9","05,1",,,,"MET058METAR EGUO 180650Z 00000KT 8000 HZ BKN080 12/09 Q1022 BLU;",
"03658499999","2010-06-18T07:50:00","4","51.439083","-2.286389","180.74","COLERNE, UK","FM-15","EGUO ","V020","999,9,C,0000,1","99999,9,9,Y","009900,1,N,1","+9999,9","+9999,9","99999,9",,,,,,"10220,1,99999,9",,,,,"MET053METAR EGUO 180750Z 00000KT CAVOK PS13/PS10 Q1022 BLU;",
"03658499999","2010-06-18T08:50:00","4","51.439083","-2.286389","180.74","COLERNE, UK","FM-15","EGUO ","V020","030,1,N,0026,1","99999,9,9,Y","009900,1,N,1","+0160,1","+0100,1","99999,9",,,,,,"10220,1,99999,9",,,,,"MET049METAR EGUO 180850Z 03005KT CAVOK 16/10 Q1022 BLU;",
"03658499999","2010-06-18T09:50:00","4","51.439083","-2.286389","180.74","COLERNE, UK","FM-15","EGUO ","V020","999,9,C,0000,1","99999,9,C,N","011265,1,N,1","+0170,1","+0110,1","99999,9","02,5,+00810,1,99,9","04,5,+01500,1,99,9",,"04,99,1,99,9,99,9,99999,9,99,9,99,9",,"10220,1,99999,9",,,,,"MET062METAR EGUO 180950Z 00000KT 9999 FEW027 SCT050 17/11 Q1022 BLU;","P01 015003SCOCIG"
"03658499999","2010-06-18T10:50:00","4","51.439083","-2.286389","180.74","COLERNE, UK","FM-15","EGUO ","V020","999,9,C,0000,1","01500,1,C,N","011265,1,N,1","+0180,1","+0120,1","99999,9","02,5,+00750,1,99,9","04,5,+01500,1,99,9","07,5,+02400,1,99,9","07,99,1,99,9,99,9,99999,9,99,9,99,9",,"10210,1,99999,9",,,,,"MET069METAR EGUO 181050Z 00000KT 9999 FEW025 SCT050 BKN080 18/12 Q1021 BLU;",
"03658499999","2010-06-18T11:50:00","4","51.439083","-2.286389","180.74","COLERNE, UK","FM-15","EGUO ","V020","030,1,N,0036,1","01500,5,9,N","999999,9,N,1","+0200,1","+0120,1","99999,9","04,5,+00750,5,99,9","07,5,+01500,5,99,9",,,,"10210,1,99999,9",,,,,"MET057METAR EGUO 181150Z 03007KT SCT025 BKN050 20/12 Q1021 BLU;",
"03658499999","2010-06-18T12:50:00","4","51.439083","-2.286389","180.74","COLERNE, UK","FM-15","EGUO ","V020","350,1,N,0046,1","01350,1,C,N","011265,1,N,1","+0180,1","+0120,1","99999,9","04,5,+00750,1,99,9","07,5,+01350,1,99,9",,"07,99,1,99,9,99,9,99999,9,99,9,99,9",,"10210,1,99999,9",,,,,"MET062METAR EGUO 181250Z 35009KT 9999 SCT025 BKN045 18/12 Q1021 BLU;",
"03658499999","2010-06-18T13:50:00","4","51.439083","-2.286389","180.74","COLERNE, UK","FM-15","EGUO ","V020","010,1,N,0026,1","00600,1,C,N","011265,1,N,1","+0160,1","+0130,1","99999,9","07,5,+00600,1,99,9","08,5,+01200,1,99,9",,"08,99,1,99,9,99,9,99999,9,99,9,99,9",,"10210,1,99999,9",,,,,"MET062METAR EGUO 181350Z 01005KT 9999 BKN020 OVC040 16/13 Q1021 WHT;",
"03658499999","2010-06-18T14:50:00","4","51.439083","-2.286389","180.74","COLERNE, UK","FM-15","EGUO ","V020","010,1,N,0026,1","01200,1,C,N","011265,1,N,1","+0180,1","+0120,1","99999,9","02,5,+00660,1,99,9","07,5,+01200,1,99,9","08,5,+01800,1,99,9","08,99,1,99,9,99,9,99999,9,99,9,99,9",,"10210,1,99999,9",,,,,"MET069METAR EGUO 181450Z 01005KT 9999 FEW022 BKN040 OVC060 18/12 Q1021 BLU;",
"03658499999","2010-06-19T06:50:00","4","51.439083","-2.286389","180.74","COLERNE, UK","FM-15","EGUO ","V020","050,1,N,0051,1","22000,1,9,N","011265,1,N,1","+0110,1","+0060,1","99999,9","02,5,+00600,1,99,9",,,"02,99,1,99,9,99,9,99999,9,99,9,99,9",,"10190,1,99999,9",,,,,"MET055METAR EGUO 190650Z 05010KT 9999 FEW020 11/06 Q1019 BLU;",
"03658499999","2010-06-19T08:50:00","4","51.439083","-2.286389","180.74","COLERNE, UK","FM-15","EGUO ","V020","050,1,N,0057,1","22000,1,9,N","011265,1,N,1","+0120,1","+0040,1","99999,9","04,5,+00780,1,99,9",,,"04,99,1,99,9,99,9,99999,9,99,9,99,9",,"10190,1,99999,9",,,,,"MET055METAR EGUO 190850Z 05011KT 9999 SCT026 12/04 Q1019 BLU;",
"03658499999","2010-06-19T09:50:00","4","51.439083","-2.286389","180.74","COLERNE, UK","FM-15","EGUO ","V020","030,1,N,0046,1","00750,1,C,N","011265,1,N,1","+0120,1","+0060,1","99999,9","07,5,+00750,1,99,9",,,"07,99,1,99,9,99,9,99999,9,99,9,99,9",,"10190,1,99999,9",,,,,"MET055METAR EGUO 190950Z 03009KT 9999 BKN025 12/06 Q1019 BLU;",
"03658499999","2010-06-19T10:50:00","4","51.439083","-2.286389","180.74","COLERNE, UK","FM-15","EGUO ","V020","360,1,N,0026,1","00690,1,C,N","011265,1,N,1","+0120,1","+0060,1","99999,9","07,5,+00690,1,99,9",,,"07,99,1,99,9,99,9,99999,9,99,9,99,9",,"10190,1,99999,9",,,,,"MET055METAR EGUO 191050Z 36005KT 9999 BKN023 12/06 Q1019 WHT;",
"03658499999","2010-06-23T07:50:00","4","51.439083","-2.286389","180.74","COLERNE, UK","FM-15","EGUO ","V020","240,1,N,0031,1","99999,9,9,Y","009900,1,N,1","+0180,1","+0100,1","99999,9",,,,,,"10240,1,99999,9",,,,,"MET049METAR EGUO 230750Z 24006KT CAVOK 18/10 Q1024 BLU;",
"03658499999","2010-06-23T08:50:00","4","51.439083","-2.286389","180.74","COLERNE, UK","FM-15","EGUO ","V020","250,1,N,0026,1","99999,9,9,Y","009900,1,N,1","+0190,1","+0090,1","99999,9",,,,,,"10240,1,99999,9",,,,,"MET049METAR EGUO 230850Z 25005KT CAVOK 19/09 Q1024 BLU;",
"03658499999","2010-06-23T09:50:00","4","51.439083","-2.286389","180.74","COLERNE, UK","FM-15","EGUO ","V020","260,1,N,0026,1","99999,9,9,Y","009900,1,N,1","+0200,1","+0090,1","99999,9",,,,,,"10240,1,99999,9",,,,,"MET049METAR EGUO 230950Z 26005KT CAVOK 20/09 Q1024 BLU;",
"03658499999","2010-06-23T10:50:00","4","51.439083","-2.286389","180.74","COLERNE, UK","FM-15","EGUO ","V020","220,1,N,0026,1","22000,1,9,N","011265,1,N,1","+0200,1","+0090,1","99999,9","02,5,+01380,1,99,9",,,"02,99,1,99,9,99,9,99999,9,99,9,99,9",,"10230,1,99999,9",,,,,"MET055METAR EGUO 231050Z 22005KT 9999 FEW046 20/09 Q1023 BLU;",
"03658499999","2010-06-23T11:50:00","4","51.439083","-2.286389","180.74","COLERNE, UK","FM-15","EGUO ","V020","240,1,N,0082,1","99999,9,C,N","011265,1,N,1","+0210,1","+0100,1","99999,9","02,5,+01320,1,99,9","04,5,+06000,1,99,9",,"04,99,1,99,9,99,9,99999,9,99,9,99,9",,"10230,1,99999,9",,,,,"MET062METAR EGUO 231150Z 24016KT 9999 FEW044 SCT200 21/10 Q1023 BLU;","P01 060003SCOCIG"
"03658499999","2010-06-23T12:50:00","4","51.439083","-2.286389","180.74","COLERNE, UK","FM-15","EGUO ","V020","250,1,N,0031,1","99999,9,C,N","011265,1,N,1","+0220,1","+0090,1","99999,9","02,5,+00750,1,99,9","04,5,+01350,1,99,9",,"04,99,1,99,9,99,9,99999,9,99,9,99,9",,"10230,1,99999,9",,,,,"MET062METAR EGUO 231250Z 25006KT 9999 FEW025 SCT045 22/09 Q1023 BLU;","P01 013503SCOCIG"
"03658499999","2010-06-23T14:50:00","4","51.439083","-2.286389","180.74","COLERNE, UK","FM-15","EGUO ","V020","240,1,N,0051,1","22000,1,9,N","011265,1,N,1","+0230,1","+0090,1","99999,9","02,5,+01050,1,99,9",,,"02,99,1,99,9,99,9,99999,9,99,9,99,9",,"10220,1,99999,9",,,,,"MET055METAR EGUO 231450Z 24010KT 9999 FEW035 23/09 Q1022 BLU;",
"03658499999","2010-06-24T06:50:00","4","51.439083","-2.286389","180.74","COLERNE, UK","FM-15","EGUO ","V020","250,1,N,0026,1","99999,9,C,N","007000,1,N,1","+0160,1","+0130,1","99999,9","02,5,+00300,1,99,9","04,5,+05400,1,99,9",,"04,99,1,99,9,99,9,99999,9,99,9,99,9",,"10210,1,99999,9","05,1",,,,"MET065METAR EGUO 240650Z 25005KT 7000 HZ FEW010 SCT180 16/13 Q1021 WHT;","P01 054003SCOCIG"
"03658499999","2010-06-24T07:50:00","4","51.439083","-2.286389","180.74","COLERNE, UK","FM-15","EGUO ","V020","260,1,N,0026,1","99999,9,C,N","011265,1,N,1","+0170,1","+0130,1","99999,9","02,5,+00300,1,99,9","04,5,+00360,1,99,9",,"04,99,1,99,9,99,9,99999,9,99,9,99,9",,"10220,1,99999,9",,,,,"MET062METAR EGUO 240750Z 26005KT 9999 FEW010 SCT012 17/13 Q1022 GRN;","P01 003603SCOCIG"
"03658499999","2010-06-24T08:50:00","4","51.439083","-2.286389","180.74","COLERNE, UK","FM-15","EGUO ","V020","999,9,C,0000,1","99999,9,C,N","011265,1,N,1","+0180,1","+0120,1","99999,9","02,5,+00360,1,99,9","04,5,+00660,1,99,9",,"04,99,1,99,9,99,9,99999,9,99,9,99,9",,"10210,1,99999,9",,,,,"MET062METAR EGUO 240850Z 00000KT 9999 FEW012 SCT022 18/12 Q1021 WHT;","P01 006603SCOCIG"
"03658499999","2010-06-24T09:50:00","4","51.439083","-2.286389","180.74","COLERNE, UK","FM-15","EGUO ","V020","240,1,N,0057,1","99999,9,C,N","011265,1,N,1","+0200,1","+0120,1","99999,9","02,5,+00450,1,99,9","04,5,+00780,1,99,9",,"04,99,1,99,9,99,9,99999,9,99,9,99,9",,"10210,1,99999,9",,,,,"MET062METAR EGUO 240950Z 24011KT 9999 FEW015 SCT026 20/12 Q1021 BLU;","P01 007803SCOCIG"
"03658499999","2010-06-24T10:50:00","4","51.439083","-2.286389","180.74","COLERNE, UK","FM-15","EGUO ","V020","200,1,N,0051,1","22000,1,9,N","011265,1,N,1","+0200,1","+0120,1","99999,9","02,5,+00960,1,99,9",,,"02,99,1,99,9,99,9,99999,9,99,9,99,9",,"10210,1,99999,9",,,,,"MET055METAR EGUO 241050Z 20010KT 9999 FEW032 20/12 Q1021 BLU;",
"03658499999","2010-06-24T11:50:00","4","51.439083","-2.286389","180.74","COLERNE, UK","FM-15","EGUO ","V020","270,1,N,0031,1","22000,1,9,N","011265,1,N,1","+0210,1","+0120,1","99999,9","04,5,+01080,1,99,9",,,"04,99,1,99,9,99,9,99999,9,99,9,99,9",,"10210,1,99999,9",,,,,"MET055METAR EGUO 241150Z 27006KT 9999 SCT036 21/12 Q1021 BLU;",
"03658499999","2010-06-24T12:50:00","4","51.439083","-2.286389","180.74","COLERNE, UK","FM-15","EGUO ","V020","260,1,N,0051,1","22000,1,9,N","011265,1,N,1","+0210,1","+0120,1","99999,9","04,5,+01080,1,99,9",,,"04,99,1,99,9,99,9,99999,9,99,9,99,9",,"10210,1,99999,9",,,,,"MET055METAR EGUO 241250Z 26010KT 9999 SCT036 21/12 Q1021 BLU;",
"03658499999","2010-06-24T13:50:00","4","51.439083","-2.286389","180.74","COLERNE, UK","FM-15","EGUO ","V020","260,1,N,0062,1","22000,1,9,N","011265,1,N,1","+0210,1","+0120,1","99999,9","02,5,+01080,1,99,9",,,"02,99,1,99,9,99,9,99999,9,99,9,99,9",,"10210,1,99999,9",,,,,"MET055METAR EGUO 241350Z 26012KT 9999 FEW036 21/12 Q1021 BLU;",
"03658499999","2010-06-24T14:50:00","4","51.439083","-2.286389","180.74","COLERNE, UK","FM-15","EGUO ","V020","260,1,N,0041,1","22000,1,9,N","011265,1,N,1","+0200,1","+0110,1","99999,9","02,5,+01080,1,99,9",,,"02,99,1,99,9,99,9,99999,9,99,9,99,9",,"10210,1,99999,9",,,,,"MET055METAR EGUO 241450Z 26008KT 9999 FEW036 20/11 Q1021 BLU;",
"03658499999","2010-06-25T08:50:00","4","51.439083","-2.286389","180.74","COLERNE, UK","FM-15","EGUO ","V020","010,1,N,0031,1","99999,9,9,Y","009900,1,N,1","+0180,1","+0090,1","99999,9",,,,,,"10200,1,99999,9",,,,,"MET049METAR EGUO 250850Z 01006KT CAVOK 18/09 Q1020 BLU;",
"03658499999","2010-06-25T09:50:00","4","51.439083","-2.286389","180.74","COLERNE, UK","FM-15","EGUO ","V020","020,1,N,0041,1","22000,1,9,N","011265,1,N,1","+0190,1","+0090,1","99999,9","04,5,+01200,1,99,9",,,"04,99,1,99,9,99,9,99999,9,99,9,99,9",,"10200,1,99999,9",,,,,"MET055METAR EGUO 250950Z 02008KT 9999 SCT040 19/09 Q1020 BLU;",
"03658499999","2010-06-25T10:50:00","4","51.439083","-2.286389","180.74","COLERNE, UK","FM-15","EGUO ","V020","010,1,N,0026,1","22000,1,9,N","011265,1,N,1","+0190,1","+0090,1","99999,9","04,5,+01260,1,99,9",,,"04,99,1,99,9,99,9,99999,9,99,9,99,9",,"10190,1,99999,9",,,,,"MET055METAR EGUO 251050Z 01005KT 9999 SCT042 19/09 Q1019 BLU;",
"03658499999","2010-06-25T11:50:00","4","51.439083","-2.286389","180.74","COLERNE, UK","FM-15","EGUO ","V020","120,1,N,0021,1","22000,1,9,N","011265,1,N,1","+0200,1","+0080,1","99999,9","02,5,+01440,1,99,9",,,"02,99,1,99,9,99,9,99999,9,99,9,99,9",,"10190,1,99999,9",,,,,"MET055METAR EGUO 251150Z 12004KT 9999 FEW048 20/08 Q1019 BLU;",
"03658499999","2010-06-25T12:50:00","4","51.439083","-2.286389","180.74","COLERNE, UK","FM-15","EGUO ","V020","999,9,C,0000,1","22000,1,9,N","011265,1,N,1","+0210,1","+0080,1","99999,9","02,5,+01380,1,99,9",,,"02,99,1,99,9,99,9,99999,9,99,9,99,9",,"10190,1,99999,9",,,,,"MET055METAR EGUO 251250Z 00000KT 9999 FEW046 21/08 Q1019 BLU;",
"03658499999","2010-06-25T13:50:00","4","51.439083","-2.286389","180.74","COLERNE, UK","FM-15","EGUO ","V020","060,1,N,0026,1","22000,1,9,N","011265,1,N,1","+0220,1","+0080,1","99999,9","02,5,+01440,1,99,9",,,"02,99,1,99,9,99,9,99999,9,99,9,99,9",,"10180,1,99999,9",,,,,"MET055METAR EGUO 251350Z 06005KT 9999 FEW048 22/08 Q1018 BLU;",
"03658499999","2010-06-27T06:50:00","4","51.439083","-2.286389","180.74","COLERNE, UK","FM-15","EGUO ","V020","270,1,N,0031,1","99999,9,9,Y","009900,1,N,1","+0180,1","+0110,1","99999,9",,,,,,"10190,1,99999,9",,,,,"MET049METAR EGUO 270650Z 27006KT CAVOK 18/11 Q1019 BLU;",
"03658499999","2010-06-27T07:50:00","4","51.439083","-2.286389","180.74","COLERNE, UK","FM-15","EGUO ","V020","270,1,N,0041,1","99999,9,9,Y","009900,1,N,1","+0190,1","+0110,1","99999,9",,,,,,"10200,1,99999,9",,,,,"MET049METAR EGUO 270750Z 27008KT CAVOK 19/11 Q1020 BLU;",
"03658499999","2010-06-27T08:50:00","4","51.439083","-2.286389","180.74","COLERNE, UK","FM-15","EGUO ","V020","270,1,N,0026,1","99999,9,9,Y","009900,1,N,1","+0200,1","+0120,1","99999,9",,,,,,"10200,1,99999,9",,,,,"MET049METAR EGUO 270850Z 27005KT CAVOK 20/12 Q1020 BLU;",
"03658499999","2010-06-27T09:50:00","4","51.439083","-2.286389","180.74","COLERNE, UK","FM-15","EGUO ","V020","280,1,N,0026,1","22000,1,9,N","011265,1,N,1","+0220,1","+0130,1","99999,9","02,5,+01080,1,99,9",,,"02,99,1,99,9,99,9,99999,9,99,9,99,9",,"10200,1,99999,9",,,,,"MET055METAR EGUO 270950Z 28005KT 9999 FEW036 22/13 Q1020 BLU;",
"03658499999","2010-06-27T10:50:00","4","51.439083","-2.286389","180.74","COLERNE, UK","FM-15","EGUO ","V020","230,1,N,0031,1","22000,1,9,N","011265,1,N,1","+0230,1","+0130,1","99999,9","04,5,+01140,1,99,9",,,"04,99,1,99,9,99,9,99999,9,99,9,99,9",,"10200,1,99999,9",,,,,"MET055METAR EGUO 271050Z 23006KT 9999 SCT038 23/13 Q1020 BLU;",
"03658499999","2010-06-27T11:50:00","4","51.439083","-2.286389","180.74","COLERNE, UK","FM-15","EGUO ","V020","250,1,N,0026,1","22000,1,9,N","011265,1,N,1","+0220,1","+0130,1","99999,9","04,5,+01200,1,99,9",,,"04,99,1,99,9,99,9,99999,9,99,9,99,9",,"10200,1,99999,9",,,,,"MET055METAR EGUO 271150Z 25005KT 9999 SCT040 22/13 Q1020 BLU;",
"03658499999","2010-06-27T12:50:00","4","51.439083","-2.286389","180.74","COLERNE, UK","FM-15","EGUO ","V020","270,1,N,0041,1","22000,1,9,N","011265,1,N,1","+0240,1","+0120,1","99999,9","04,5,+01200,1,99,9",,,"04,99,1,99,9,99,9,99999,9,99,9,99,9",,"10200,1,99999,9",,,,,"MET055METAR EGUO 271250Z 27008KT 9999 SCT040 24/12 Q1020 BLU;",
"03658499999","2010-06-27T13:50:00","4","51.439083","-2.286389","180.74","COLERNE, UK","FM-15","EGUO ","V020","270,1,N,0051,1","22000,1,9,N","011265,1,N,1","+0240,1","+0120,1","99999,9","02,5,+01440,1,99,9",,,"02,99,1,99,9,99,9,99999,9,99,9,99,9",,"10200,1,99999,9",,,,,"MET055METAR EGUO 271350Z 27010KT 9999 FEW048 24/12 Q1020 BLU;",
"03658499999","2010-06-30T06:50:00","4","51.439083","-2.286389","180.74","COLERNE, UK","FM-15","EGUO ","V020","250,1,N,0026,1","00750,1,C,N","007000,1,N,1","+0170,1","+0140,1","99999,9","04,5,+00180,1,99,9","07,5,+00750,1,99,9",,"07,99,1,99,9,99,9,99999,9,99,9,99,9",,"10210,1,99999,9","05,1",,,,"MET066METAR EGUO 300650Z 25005KT 7000 HZ SCT006 BKN025 17/14 Q1021 YLO1;",
"03658499999","2010-06-30T07:50:00","4","51.439083","-2.286389","180.74","COLERNE, UK","FM-15","EGUO ","V020","999,9,C,0000,1","00450,1,C,N","011265,1,N,1","+0170,1","+0140,1","99999,9","02,5,+00180,1,99,9","04,5,+00450,1,99,9","07,5,+01800,1,99,9","07,99,1,99,9,99,9,99999,9,99,9,99,9",,"10200,1,99999,9",,,,,"MET069METAR EGUO 300750Z 00000KT 9999 FEW006 SCT015 BKN060 17/14 Q1020 WHT;",
"03658499999","2010-06-30T08:50:00","4","51.439083","-2.286389","180.74","COLERNE, UK","FM-15","EGUO ","V020","230,1,N,0026,1","00390,1,C,N","011265,1,N,1","+0180,1","+0130,1","99999,9","07,5,+00390,1,99,9",,,"07,99,1,99,9,99,9,99999,9,99,9,99,9",,"10200,1,99999,9",,,,,"MET055METAR EGUO 300850Z 23005KT 9999 BKN013 18/13 Q1020 GRN;",
"03658499999","2010-06-30T09:50:00","4","51.439083","-2.286389","180.74","COLERNE, UK","FM-15","EGUO ","V020","250,1,N,0041,1","00390,1,C,N","011265,1,N,1","+0190,1","+0130,1","99999,9","02,5,+00240,1,99,9","07,5,+00390,1,99,9",,"07,99,1,99,9,99,9,99999,9,99,9,99,9",,"10210,1,99999,9",,,,,"MET062METAR EGUO 300950Z 25008KT 9999 FEW008 BKN013 19/13 Q1021 GRN;",
"03658499999","2010-06-30T10:50:00","4","51.439083","-2.286389","180.74","COLERNE, UK","FM-15","EGUO ","V020","260,1,N,0041,1","00750,1,C,N","011265,1,N,1","+0180,1","+0130,1","99999,9","02,5,+00300,1,99,9","07,5,+00750,1,99,9",,"07,99,1,99,9,99,9,99999,9,99,9,99,9",,"10210,1,99999,9",,,,,"MET062METAR EGUO 301050Z 26008KT 9999 FEW010 BKN025 18/13 Q1021 BLU;",
"03658499999","2010-06-30T11:50:00","4","51.439083","-2.286389","180.74","COLERNE, UK","FM-15","EGUO ","V020","290,1,N,0026,1","22000,1,9,N","011265,1,N,1","+0210,1","+0110,1","99999,9","04,5,+00840,1,99,9",,,"04,99,1,99,9,99,9,99999,9,99,9,99,9",,"10200,1,99999,9",,,,,"MET055METAR EGUO 301150Z 29005KT 9999 SCT028 21/11 Q1020 BLU;",
"03658499999","2010-06-30T12:50:00","4","51.439083","-2.286389","180.74","COLERNE, UK","FM-15","EGUO ","V020","210,1,N,0026,1","22000,1,9,N","011265,1,N,1","+0210,1","+0100,1","99999,9","04,5,+01050,1,99,9",,,"04,99,1,99,9,99,9,99999,9,99,9,99,9",,"10200,1,99999,9",,,,,"MET055METAR EGUO 301250Z 21005KT 9999 SCT035 21/10 Q1020 BLU;",
"03658499999","2010-06-30T13:50:00","4","51.439083","-2.286389","180.74","COLERNE, UK","FM-15","EGUO ","V020","999,9,C,0000,1","01290,1,C,N","011265,1,N,1","+0220,1","+0090,1","99999,9","04,5,+01050,1,99,9","07,5,+01290,1,99,9",,"07,99,1,99,9,99,9,99999,9,99,9,99,9",,"10190,1,99999,9",,,,,"MET062METAR EGUO 301350Z 00000KT 9999 SCT035 BKN043 22/09 Q1019 BLU;",
"03658499999","2010-07-01T06:50:00","4","51.439083","-2.286389","180.74","COLERNE, UK","FM-15","EGUO ","V020","200,1,N,0046,1","00450,1,C,N","011265,1,N,1","+0160,1","+0130,1","99999,9","04,5,+00240,1,99,9","07,5,+00450,1,99,9",,"07,99,1,99,9,99,9,99999,9,99,9,99,9",,"10139,1,99999,9",,,,,"MET062METAR EGUO 010650Z 20009KT 9999 SCT008 BKN015 16/13 Q1014 GRN;",
"03658499999","2010-07-01T07:50:00","4","51.439083","-2.286389","180.74","COLERNE, UK","FM-15","EGUO ","V020","200,1,N,0051,1","00450,1,C,N","011265,1,N,1","+0170,1","+0130,1","99999,9","04,5,+00300,1,99,9","07,5,+00450,1,99,9",,"07,99,1,99,9,99,9,99999,9,99,9,99,9",,"10139,1,99999,9",,,,,"MET062METAR EGUO 010750Z 20010KT 9999 SCT010 BKN015 17/13 Q1014 GRN;",
"03658499999","2010-07-01T08:50:00","4","51.439083","-2.286389","180.74","COLERNE, UK","FM-15","EGUO ","V020","190,1,N,0062,1","00540,1,C,N","011265,1,N,1","+0180,1","+0140,1","99999,9","04,5,+00300,1,99,9","07,5,+00540,1,99,9",,"07,99,1,99,9,99,9,99999,9,99,9,99,9",,"10139,1,99999,9",,,,,"MET062METAR EGUO 010850Z 19012KT 9999 SCT010 BKN018 18/14 Q1014 GRN;",
"03658499999","2010-07-01T09:50:00","4","51.439083","-2.286389","180.74","COLERNE, UK","FM-15","EGUO ","V020","180,1,N,0051,1","22000,1,9,N","011265,1,N,1","+0210,1","+0120,1","99999,9","02,5,+00600,1,99,9",,,"02,99,1,99,9,99,9,99999,9,99,9,99,9",,"10129,1,99999,9",,,,,"MET055METAR EGUO 010950Z 18010KT 9999 FEW020 21/12 Q1013 BLU;",
"03658499999","2010-07-01T10:50:00","4","51.439083","-2.286389","180.74","COLERNE, UK","FM-15","EGUO ","V020","200,1,N,0062,1","99999,9,C,N","011265,1,N,1","+0220,1","+0100,1","99999,9","02,5,+00840,1,99,9","04,5,+02400,1,99,9",,"04,99,1,99,9,99,9,99999,9,99,9,99,9",,"10129,1,99999,9",,,,,"MET062METAR EGUO 011050Z 20012KT 9999 FEW028 SCT080 22/10 Q1013 BLU;","P01 024003SCOCIG"
"03658499999","2010-07-01T11:50:00","4","51.439083","-2.286389","180.74","COLERNE, UK","FM-15","EGUO ","V020","190,1,N,0077,1","22000,1,9,N","011265,1,N,1","+0220,1","+0090,1","99999,9","02,5,+00900,1,99,9",,,"02,99,1,99,9,99,9,99999,9,99,9,99,9",,"10129,1,99999,9",,,,,"MET055METAR EGUO 011150Z 19015KT 9999 FEW030 22/09 Q1013 BLU;",
"03658499999","2010-07-01T12:50:00","4","51.439083","-2.286389","180.74","COLERNE, UK","FM-15","EGUO ","V020","200,1,N,0077,1","99999,9,C,N","011265,1,N,1","+0240,1","+0080,1","99999,9","02,5,+00900,1,99,9","04,5,+01950,5,99,9",,"04,99,1,99,9,99,9,99999,9,99,9,99,9",,"10119,1,99999,9",,,,,"MET062METAR EGUO 011250Z 20015KT 9999 FEW030 SCT065 24/08 Q1012 BLU;","P01 019503SCOCIG"
"03658499999","2010-07-01T13:50:00","4","51.439083","-2.286389","180.74","COLERNE, UK","FM-15","EGUO ","V020","200,1,N,0093,1","99999,9,9,Y","009900,1,N,1","+0230,1","+0070,1","99999,9",,,,,,"10119,1,99999,9",,,,,"MET049METAR EGUO 011350Z 20018KT CAVOK 23/07 Q1012 BLU;",
"03658499999","2010-07-02T06:50:00","4","51.439083","-2.286389","180.74","COLERNE, UK","FM-15","EGUO ","V020","270,1,N,0026,1","00015,1,C,N","005000,1,N,1","+0140,1","+0130,1","99999,9","09,1,+00015,1,99,9",,,"09,99,1,99,9,99,9,00025,1,99,9,99,9",,"10108,1,99999,9","10,1","61,1",,,"MET061METAR EGUO 020650Z 27005KT 5000 -RA BR VV/// 14/13 Q1011 RED;",
"03658499999","2010-07-02T07:50:00","4","51.439083","-2.286389","180.74","COLERNE, UK","FM-15","EGUO ","V020","240,1,N,0026,1","00450,1,C,N","008000,1,N,1","+0140,1","+0130,1","99999,9","02,5,+00120,1,99,9","07,5,+00450,1,99,9",,"07,99,1,99,9,99,9,99999,9,99,9,99,9",,"10119,1,99999,9","10,1",,,,"MET065METAR EGUO 020750Z 24005KT 8000 BR FEW004 BKN015 14/13 Q1012 WHT;",
"03658499999","2010-07-02T08:50:00","4","51.439083","-2.286389","180.74","COLERNE, UK","FM-15","EGUO ","V020","999,9,C,0000,1","99999,9,C,N","008000,1,N,1","+0150,1","+0130,1","99999,9","02,5,+00210,1,99,9","04,5,+00480,1,99,9","04,5,+02400,1,99,9","04,99,1,99,9,99,9,99999,9,99,9,99,9",,"10119,1,99999,9","61,1",,,,"MET073METAR EGUO 020850Z 00000KT 8000 -RA FEW007 SCT016 SCT080 15/13 Q1012 WHT;","P01 004803SCOCIG"
"03658499999","2010-07-02T09:50:00","4","51.439083","-2.286389","180.74","COLERNE, UK","FM-15","EGUO ","V020","220,1,N,0026,1","02400,1,C,N","011265,1,N,1","+0160,1","+0130,1","99999,9","04,5,+00450,1,99,9","07,5,+02400,1,99,9",,"07,99,1,99,9,99,9,99999,9,99,9,99,9",,"10129,1,99999,9",,,,,"MET062METAR EGUO 020950Z 22005KT 9999 SCT015 BKN080 16/13 Q1013 WHT;",
"03658499999","2010-07-02T10:50:00","4","51.439083","-2.286389","180.74","COLERNE, UK","FM-15","EGUO ","V020","220,1,N,0026,1","02400,1,C,N","011265,1,N,1","+0180,1","+0130,1","99999,9","04,5,+00600,1,99,9","07,5,+02400,1,99,9",,"07,99,1,99,9,99,9,99999,9,99,9,99,9",,"10129,1,99999,9",,,,,"MET062METAR EGUO 021050Z 22005KT 9999 SCT020 BKN080 18/13 Q1013 WHT;",
"03658499999","2010-07-02T11:50:00","4","51.439083","-2.286389","180.74","COLERNE, UK","FM-15","EGUO ","V020","260,1,N,0026,1","00600,1,C,N","011265,1,N,1","+0190,1","+0120,1","99999,9","07,5,+00600,1,99,9",,,"07,99,1,99,9,99,9,99999,9,99,9,99,9",,"10129,1,99999,9",,,,,"MET055METAR EGUO 021150Z 26005KT 9999 BKN020 19/12 Q1013 WHT;",
"03658499999","2010-07-02T12:50:00","4","51.439083","-2.286389","180.74","COLERNE, UK","FM-15","EGUO ","V020","260,1,N,0026,1","22000,1,9,N","011265,1,N,1","+0190,1","+0110,1","99999,9","04,5,+00540,1,99,9",,,"04,99,1,99,9,99,9,99999,9,99,9,99,9",,"10129,1,99999,9",,,,,"MET055METAR EGUO 021250Z 26005KT 9999 SCT018 19/11 Q1013 WHT;",
"03658499999","2010-07-02T13:50:00","4","51.439083","-2.286389","180.74","COLERNE, UK","FM-15","EGUO ","V020","999,9,C,0000,1","22000,1,9,N","011265,1,N,1","+0210,1","+0110,1","99999,9","04,5,+00780,1,99,9",,,"04,99,1,99,9,99,9,99999,9,99,9,99,9",,"10129,1,99999,9",,,,,"MET055METAR EGUO 021350Z 00000KT 9999 SCT026 21/11 Q1013 BLU;",
"03658499999","2010-07-02T14:50:00","4","51.439083","-2.286389","180.74","COLERNE, UK","FM-15","EGUO ","V020","230,1,N,0041,1","02400,1,C,N","011265,1,N,1","+0210,1","+0100,1","99999,9","02,5,+01050,1,99,9","07,5,+02400,1,99,9",,"07,99,1,99,9,99,9,99999,9,99,9,99,9",,"10129,1,99999,9",,,,,"MET062METAR EGUO 021450Z 23008KT 9999 FEW035 BKN080 21/10 Q1013 BLU;",
"03658499999","2010-07-05T06:50:00","4","51.439083","-2.286389","180.74","COLERNE, UK","FM-15","EGUO ","V020","270,1,N,0026,1","00450,1,C,N","007000,1,N,1","+0150,1","+0100,1","99999,9","02,5,+00240,1,99,9","04,5,+00450,1,99,9","07,5,+01500,1,99,9","07,99,1,99,9,99,9,99999,9,99,9,99,9",,"10220,1,99999,9","05,1",,,,"MET072METAR EGUO 050650Z 27005KT 7000 HZ FEW008 SCT015 BKN050 15/10 Q1022 WHT;",
"03658499999","2010-07-05T07:50:00","4","51.439083","-2.286389","180.74","COLERNE, UK","FM-15","EGUO ","V020","300,1,N,0041,1","99999,9,C,N","011265,1,N,1","+0150,1","+0090,1","99999,9","02,5,+00240,1,99,9","04,5,+00600,1,99,9","04,5,+02400,1,99,9","04,99,1,99,9,99,9,99999,9,99,9,99,9",,"10230,1,99999,9",,,,,"MET069METAR EGUO 050750Z 30008KT 9999 FEW008 SCT020 SCT080 15/09 Q1023 WHT;","P01 006003SCOCIG"
"03658499999","2010-07-05T09:50:00","4","51.439083","-2.286389","180.74","COLERNE, UK","FM-15","EGUO ","V020","310,1,N,0051,1","22000,1,9,N","011265,1,N,1","+0170,1","+0060,1","99999,9","04,5,+00840,1,99,9",,,"04,99,1,99,9,99,9,99999,9,99,9,99,9",,"10230,1,99999,9",,,,,"MET055METAR EGUO 050950Z 31010KT 9999 SCT028 17/06 Q1023 BLU;",
"03658499999","2010-07-05T10:50:00","4","51.439083","-2.286389","180.74","COLERNE, UK","FM-15","EGUO ","V020","300,1,N,0051,1","22000,1,9,N","011265,1,N,1","+0180,1","+0070,1","99999,9","04,5,+01050,1,99,9",,,"04,99,1,99,9,99,9,99999,9,99,9,99,9",,"10230,1,99999,9",,,,,"MET055METAR EGUO 051050Z 30010KT 9999 SCT035 18/07 Q1023 BLU;",
"03658499999","2010-07-05T11:50:00","4","51.439083","-2.286389","180.74","COLERNE, UK","FM-15","EGUO ","V020","300,1,N,0051,1","22000,1,9,N","011265,1,N,1","+0180,1","+0070,1","99999,9","04,5,+01140,1,99,9",,,"04,99,1,99,9,99,9,99999,9,99,9,99,9",,"10240,1,99999,9",,,,,"MET055METAR EGUO 051150Z 30010KT 9999 SCT038 18/07 Q1024 BLU;",
"03658499999","2010-07-05T12:50:00","4","51.439083","-2.286389","180.74","COLERNE, UK","FM-15","EGUO ","V020","310,1,N,0046,1","22000,1,9,N","011265,1,N,1","+0190,1","+0060,1","99999,9","04,5,+01200,1,99,9",,,"04,99,1,99,9,99,9,99999,9,99,9,99,9",,"10240,1,99999,9",,,,,"MET055METAR EGUO 051250Z 31009KT 9999 SCT040 19/06 Q1024 BLU;",
"03658499999","2010-07-05T13:50:00","4","51.439083","-2.286389","180.74","COLERNE, UK","FM-15","EGUO ","V020","300,1,N,0051,1","01200,1,C,N","011265,1,N,1","+0190,1","+0060,1","99999,9","07,5,+01200,1,99,9",,,"07,99,1,99,9,99,9,99999,9,99,9,99,9",,"10240,1,99999,9",,,,,"MET055METAR EGUO 051350Z 30010KT 9999 BKN040 19/06 Q1024 BLU;",
"03658499999","2010-07-05T14:50:00","4","51.439083","-2.286389","180.74","COLERNE, UK","FM-15","EGUO ","V020","270,1,N,0072,1","01200,1,C,N","011265,1,N,1","+0190,1","+0090,1","99999,9","07,5,+01200,1,99,9",,,"07,99,1,99,9,99,9,99999,9,99,9,99,9",,"10240,1,99999,9",,,,,"MET055METAR EGUO 051450Z 27014KT 9999 BKN040 19/09 Q1024 BLU;",
"03658499999","2010-07-06T06:50:00","4","51.439083","-2.286389","180.74","COLERNE, UK","FM-15","EGUO ","V020","999,9,C,0000,1","99999,9,9,Y","009900,1,N,1","+0140,1","+0110,1","99999,9",,,,,,"10271,1,99999,9",,,,,"MET049METAR EGUO 060650Z 00000KT CAVOK 14/11 Q1027 BLU;",
"03658499999","2010-07-06T07:50:00","4","51.439083","-2.286389","180.74","COLERNE, UK","FM-15","EGUO ","V020","999,9,C,0000,1","99999,9,9,Y","009900,1,N,1","+0170,1","+0090,1","99999,9",,,,,,"10281,1,99999,9",,,,,"MET049METAR EGUO 060750Z 00000KT CAVOK 17/09 Q1028 BLU;",
"03658499999","2010-07-06T08:50:00","4","51.439083","-2.286389","180.74","COLERNE, UK","FM-15","EGUO ","V020","999,9,C,0000,1","22000,1,9,N","011265,1,N,1","+0170,1","+0030,1","99999,9","04,5,+01050,1,99,9",,,"04,99,1,99,9,99,9,99999,9,99,9,99,9",,"10281,1,99999,9",,,,,"MET055METAR EGUO 060850Z 00000KT 9999 SCT035 17/03 Q1028 BLU;",
"03658499999","2010-07-06T09:50:00","4","51.439083","-2.286389","180.74","COLERNE, UK","FM-15","EGUO ","V020","220,1,N,0031,1","22000,1,9,N","011265,1,N,1","+0190,1","+0080,1","99999,9","04,5,+00900,1,99,9",,,"04,99,1,99,9,99,9,99999,9,99,9,99,9",,"10271,1,99999,9",,,,,"MET055METAR EGUO 060950Z 22006KT 9999 SCT030 19/08 Q1027 BLU;",
"03658499999","2010-07-06T10:50:00","4","51.439083","-2.286389","180.74","COLERNE, UK","FM-15","EGUO ","V020","240,1,N,0051,1","22000,1,9,N","011265,1,N,1","+0190,1","+0070,1","99999,9","04,5,+00780,1,99,9",,,"04,99,1,99,9,99,9,99999,9,99,9,99,9",,"10271,1,99999,9",,,,,"MET055METAR EGUO 061050Z 24010KT 9999 SCT026 19/07 Q1027 BLU;",
"03658499999","2010-07-06T11:50:00","4","51.439083","-2.286389","180.74","COLERNE, UK","FM-15","EGUO ","V020","250,1,N,0026,1","00900,1,C,N","011265,1,N,1","+0200,1","+0070,1","99999,9","07,5,+00900,1,99,9",,,"07,99,1,99,9,99,9,99999,9,99,9,99,9",,"10261,1,99999,9",,,,,"MET055METAR EGUO 061150Z 25005KT 9999 BKN030 20/07 Q1026 BLU;",
"03658499999","2010-07-06T12:50:00","4","51.439083","-2.286389","180.74","COLERNE, UK","FM-15","EGUO ","V020","240,1,N,0046,1","01800,1,C,N","011265,1,N,1","+0200,1","+0070,1","99999,9","04,5,+00900,1,99,9","07,5,+01800,1,99,9",,"07,99,1,99,9,99,9,99999,9,99,9,99,9",,"10261,1,99999,9",,,,,"MET062METAR EGUO 061250Z 24009KT 9999 SCT030 BKN060 20/07 Q1026 BLU;",
"03658499999","2010-07-06T13:50:00","4","51.439083","-2.286389","180.74","COLERNE, UK","FM-15","EGUO ","V020","240,1,N,0051,1","02100,1,C,N","011265,1,N,1","+0200,1","+0060,1","99999,9","02,5,+00900,1,99,9","07,5,+02100,1,99,9",,"07,99,1,99,9,99,9,99999,9,99,9,99,9",,"10251,1,99999,9",,,,,"MET062METAR EGUO 061350Z 24010KT 9999 FEW030 BKN070 20/06 Q1025 BLU;",
"03658499999","2010-07-07T06:50:00","4","51.439083","-2.286389","180.74","COLERNE, UK","FM-15","EGUO ","V020","210,1,N,0051,1","00210,1,C,N","008000,1,N,1","+0160,1","+0140,1","99999,9","02,5,+00120,1,99,9","07,5,+00210,1,99,9",,"07,99,1,99,9,99,9,99999,9,99,9,99,9",,"10200,1,99999,9","05,1",,,,"MET065METAR EGUO 070650Z 21010KT 8000 HZ FEW004 BKN007 16/14 Q1020 GRN;",
"03658499999","2010-07-07T07:50:00","4","51.439083","-2.286389","180.74","COLERNE, UK","FM-15","EGUO ","V020","210,1,N,0051,1","00210,1,C,N","008000,1,N,1","+0160,1","+0140,1","99999,9","07,5,+00210,1,99,9",,,"07,99,1,99,9,99,9,99999,9,99,9,99,9",,"10200,1,99999,9","05,1",,,,"MET058METAR EGUO 070750Z 21010KT 8000 HZ BKN007 16/14 Q1020 GRN;",
"03658499999","2010-07-07T08:50:00","4","51.439083","-2.286389","180.74","COLERNE, UK","FM-15","EGUO ","V020","210,1,N,0041,1","00210,1,C,N","011265,1,N,1","+0170,1","+0150,1","99999,9","07,5,+00210,1,99,9",,,"07,99,1,99,9,99,9,99999,9,99,9,99,9",,"10200,1,99999,9",,,,,"MET055METAR EGUO 070850Z 21008KT 9999 BKN007 17/15 Q1020 GRN;",
"03658499999","2010-07-07T09:50:00","4","51.439083","-2.286389","180.74","COLERNE, UK","FM-15","EGUO ","V020","210,1,N,0041,1","00210,1,C,N","011265,1,N,1","+0170,1","+0150,1","99999,9","07,5,+00210,1,99,9",,,"07,99,1,99,9,99,9,99999,9,99,9,99,9",,"10200,1,99999,9",,,,,"MET055METAR EGUO 070950Z 21008KT 9999 BKN007 17/15 Q1020 GRN;",
"03658499999","2010-07-07T10:50:00","4","51.439083","-2.286389","180.74","COLERNE, UK","FM-15","EGUO ","V020","200,1,N,0067,1","00240,1,C,N","011265,1,N,1","+0180,1","+0150,1","99999,9","07,5,+00240,1,99,9",,,"07,99,1,99,9,99,9,99999,9,99,9,99,9",,"10200,1,99999,9",,,,,"MET055METAR EGUO 071050Z 20013KT 9999 BKN008 18/15 Q1020 GRN;",
"03658499999","2010-07-07T11:50:00","4","51.439083","-2.286389","180.74","COLERNE, UK","FM-15","EGUO ","V020","210,1,N,0062,1","00240,1,C,N","011265,1,N,1","+0190,1","+0180,1","99999,9","02,5,+00120,1,99,9","07,5,+00240,1,99,9",,"07,99,1,99,9,99,9,99999,9,99,9,99,9",,"10200,1,99999,9",,,,,"MET062METAR EGUO 071150Z 21012KT 9999 FEW004 BKN008 19/18 Q1020 GRN;",
"03658499999","2010-07-07T12:50:00","4","51.439083","-2.286389","180.74","COLERNE, UK","FM-15","EGUO ","V020","210,1,N,0046,1","00210,1,C,N","011265,1,N,1","+0180,1","+0160,1","99999,9","02,5,+00120,1,99,9","07,5,+00210,1,99,9",,"07,99,1,99,9,99,9,99999,9,99,9,99,9",,"10210,1,99999,9",,,,,"MET062METAR EGUO 071250Z 21009KT 9999 FEW004 BKN007 18/16 Q1021 GRN;",
"03658499999","2010-07-08T06:50:00","4","51.439083","-2.286389","180.74","COLERNE, UK","FM-15","EGUO ","V020","999,9,C,0000,1","00600,1,C,N","011265,1,N,1","+0150,1","+0130,1","99999,9","02,5,+00450,1,99,9","04,5,+00600,1,99,9","07,5,+02700,1,99,9","07,99,1,99,9,99,9,99999,9,99,9,99,9",,"10200,1,99999,9",,,,,"MET069METAR EGUO 080650Z 00000KT 9999 FEW015 SCT020 BKN090 15/13 Q1020 WHT;",
"03658499999","2010-07-08T07:50:00","4","51.439083","-2.286389","180.74","COLERNE, UK","FM-15","EGUO ","V020","999,9,C,0000,1","00600,1,C,N","011265,1,N,1","+0150,1","+0130,1","99999,9","02,5,+00450,1,99,9","04,5,+00600,1,99,9","07,5,+02700,1,99,9","07,99,1,99,9,99,9,99999,9,99,9,99,9",,"10200,1,99999,9",,,,,"MET069METAR EGUO 080750Z 00000KT 9999 FEW015 SCT020 BKN090 15/13 Q1020 WHT;",
"03658499999","2010-07-08T08:50:00","4","51.439083","-2.286389","180.74","COLERNE, UK","FM-15","EGUO ","V020","999,9,C,0000,1","00750,1,C,N","011265,1,N,1","+0160,1","+0120,1","99999,9","02,5,+00300,1,99,9","04,5,+00750,1,99,9","07,5,+02550,5,99,9","07,99,1,99,9,99,9,99999,9,99,9,99,9",,"10200,1,99999,9",,,,,"MET069METAR EGUO 080850Z 00000KT 9999 FEW010 SCT025 BKN085 16/12 Q1020 BLU;",
"03658499999","2010-07-08T09:50:00","4","51.439083","-2.286389","180.74","COLERNE, UK","FM-15","EGUO ","V020","999,9,C,0000,1","00660,1,C,N","011265,1,N,1","+0180,1","+0100,1","99999,9","02,5,+00300,1,99,9","04,5,+00660,1,99,9","07,5,+06000,1,99,9","07,99,1,99,9,99,9,99999,9,99,9,99,9",,"10200,1,99999,9",,,,,"MET069METAR EGUO 080950Z 00000KT 9999 FEW010 SCT022 BKN200 18/10 Q1020 WHT;",
"03658499999","2010-07-08T10:50:00","4","51.439083","-2.286389","180.74","COLERNE, UK","FM-15","EGUO ","V020","210,1,N,0041,1","22000,1,9,N","011265,1,N,1","+0200,1","+0080,1","99999,9","02,5,+00300,1,99,9",,,"02,99,1,99,9,99,9,99999,9,99,9,99,9",,"10190,1,99999,9",,,,,"MET055METAR EGUO 081050Z 21008KT 9999 FEW010 20/08 Q1019 BLU;",
"03658499999","2010-07-08T11:50:00","4","51.439083","-2.286389","180.74","COLERNE, UK","FM-15","EGUO ","V020","220,1,N,0031,1","02400,1,C,N","011265,1,N,1","+0210,1","+0090,1","99999,9","02,5,+00750,1,99,9","04,5,+02400,1,99,9","07,5,+06000,1,99,9","07,99,1,99,9,99,9,99999,9,99,9,99,9",,"10190,1,99999,9",,,,,"MET069METAR EGUO 081150Z 22006KT 9999 FEW025 SCT080 BKN200 21/09 Q1019 BLU;",
"03658499999","2010-07-08T12:50:00","4","51.439083","-2.286389","180.74","COLERNE, UK","FM-15","EGUO ","V020","250,1,N,0051,1","01500,1,C,N","011265,1,N,1","+0210,1","+0070,1","99999,9","02,5,+00600,1,99,9","04,5,+01500,1,99,9","07,5,+06000,1,99,9","07,99,1,99,9,99,9,99999,9,99,9,99,9",,"10190,1,99999,9",,,,,"MET069METAR EGUO 081250Z 25010KT 9999 FEW020 SCT050 BKN200 21/07 Q1019 BLU;",
"03658499999","2010-07-08T14:50:00","4","51.439083","-2.286389","180.74","COLERNE, UK","FM-15","EGUO ","V020","250,1,N,0026,1","01800,1,C,N","011265,1,N,1","+0220,1","+0090,1","99999,9","02,5,+00900,1,99,9","07,5,+01800,1,99,9",,"07,99,1,99,9,99,9,99999,9,99,9,99,9",,"10190,1,99999,9",,,,,"MET062METAR EGUO 081450Z 25005KT 9999 FEW030 BKN060 22/09 Q1019 BLU;",
"03658499999","2010-07-09T06:50:00","4","51.439083","-2.286389","180.74","COLERNE, UK","FM-15","EGUO ","V020","240,1,N,0026,1","99999,9,C,N","007000,1,N,1","+0150,1","+0130,1","99999,9","02,5,+00750,1,99,9","04,5,+06000,1,99,9",,"04,99,1,99,9,99,9,99999,9,99,9,99,9",,"10169,1,99999,9","05,1",,,,"MET065METAR EGUO 090650Z 24005KT 7000 HZ FEW025 SCT200 15/13 Q1017 WHT;","P01 060003SCOCIG"
"03658499999","2010-07-09T07:50:00","4","51.439083","-2.286389","180.74","COLERNE, UK","FM-15","EGUO ","V020","240,1,N,0041,1","99999,9,9,Y","009900,1,N,1","+0180,1","+0130,1","99999,9",,,,,,"10169,1,99999,9",,,,,"MET049METAR EGUO 090750Z 24008KT CAVOK 18/13 Q1017 BLU;",
"03658499999","2010-07-09T08:50:00","4","51.439083","-2.286389","180.74","COLERNE, UK","FM-15","EGUO ","V020","200,1,N,0021,1","99999,9,9,Y","009900,1,N,1","+0200,1","+0120,1","99999,9",,,,,,"10180,1,99999,9",,,,,"MET049METAR EGUO 090850Z 20004KT CAVOK 20/12 Q1018 BLU;",
"03658499999","2010-07-09T09:50:00","4","51.439083","-2.286389","180.74","COLERNE, UK","FM-15","EGUO ","V020","230,1,N,0031,1","99999,9,9,Y","009900,1,N,1","+0220,1","+0100,1","99999,9",,,,,,"10169,1,99999,9",,,,,"MET049METAR EGUO 090950Z 23006KT CAVOK 22/10 Q1017 BLU;",
"03658499999","2010-07-09T10:50:00","4","51.439083","-2.286389","180.74","COLERNE, UK","FM-15","EGUO ","V020","240,1,N,0051,1","99999,9,9,Y","009900,1,N,1","+0240,1","+0110,1","99999,9",,,,,,"10180,1,99999,9",,,,,"MET049METAR EGUO 091050Z 24010KT CAVOK 24/11 Q1018 BLU;",
"03658499999","2010-07-09T11:50:00","4","51.439083","-2.286389","180.74","COLERNE, UK","FM-15","EGUO ","V020","250,1,N,0031,1","22000,1,9,N","011265,1,N,1","+0240,1","+0130,1","99999,9","02,5,+01050,1,99,9",,,"02,99,1,99,9,99,9,99999,9,99,9,99,9",,"10180,1,99999,9",,,,,"MET055METAR EGUO 091150Z 25006KT 9999 FEW035 24/13 Q1018 BLU;",
"03658499999","2010-07-09T12:50:00","4","51.439083","-2.286389","180.74","COLERNE, UK","FM-15","EGUO ","V020","280,1,N,0062,1","22000,1,9,N","011265,1,N,1","+0250,1","+0120,1","99999,9","02,5,+01200,1,99,9",,,"02,99,1,99,9,99,9,99999,9,99,9,99,9",,"10169,1,99999,9",,,,,"MET055METAR EGUO 091250Z 28012KT 9999 FEW040 25/12 Q1017 BLU;",
"03658499999","2010-07-09T13:50:00","4","51.439083","-2.286389","180.74","COLERNE, UK","FM-15","EGUO ","V020","240,1,N,0046,1","22000,1,9,N","011265,1,N,1","+0240,1","+0130,1","99999,9","04,5,+00750,1,99,9",,,"04,99,1,99,9,99,9,99999,9,99,9,99,9",,"10169,1,99999,9",,,,,"MET055METAR EGUO 091350Z 24009KT 9999 SCT025 24/13 Q1017 BLU;",
"03658499999","2010-07-09T14:50:00","4","51.439083","-2.286389","180.74","COLERNE, UK","FM-15","EGUO ","V020","250,1,N,0051,1","04800,1,C,N","011265,1,N,1","+0240,1","+0140,1","99999,9","04,5,+00750,1,99,9","07,5,+04800,1,99,9",,"07,99,1,99,9,99,9,99999,9,99,9,99,9",,"10180,1,99999,9",,,,,"MET062METAR EGUO 091450Z 25010KT 9999 SCT025 BKN160 24/14 Q1018 BLU;",
"03658499999","2010-07-12T06:50:00","4","51.439083","-2.286389","180.74","COLERNE, UK","FM-15","EGUO ","V020","999,9,C,0000,1","02400,1,C,N","011265,1,N,1","+0140,1","+0110,1","99999,9","02,5,+00750,1,99,9","07,5,+02400,1,99,9",,"07,99,1,99,9,99,9,99999,9,99,9,99,9",,"10129,1,99999,9",,,,,"MET062METAR EGUO 120650Z 00000KT 9999 FEW025 BKN080 14/11 Q1013 BLU;",
"03658499999","2010-07-12T07:50:00","4","51.439083","-2.286389","180.74","COLERNE, UK","FM-15","EGUO ","V020","999,9,C,0000,1","99999,9,9,Y","011265,1,N,1","+0150,1","+0110,1","99999,9",,,,,,"10130,1,99999,9",,,,,"MET054METAR EGUO 120750Z 00000KT 9999 CAVOK 15/11 Q1013 BLU;",
"03658499999","2010-07-12T08:50:00","4","51.439083","-2.286389","180.74","COLERNE, UK","FM-15","EGUO ","V020","999,9,C,0000,1","99999,9,9,Y","009900,1,N,1","+0150,1","+0110,1","99999,9",,,,,,"10129,1,99999,9",,,,,"MET049METAR EGUO 120850Z 00000KT CAVOK 15/11 Q1013 BLU;",
"03658499999","2010-07-12T09:50:00","4","51.439083","-2.286389","180.74","COLERNE, UK","FM-15","EGUO ","V020","320,1,N,0041,1","02100,1,C,N","011265,1,N,1","+0170,1","+0110,1","99999,9","04,5,+00750,1,99,9","07,5,+02100,1,99,9",,"07,99,1,99,9,99,9,99999,9,99,9,99,9",,"10129,1,99999,9",,,,,"MET062METAR EGUO 120950Z 32008KT 9999 SCT025 BKN070 17/11 Q1013 BLU;",
"03658499999","2010-07-12T10:50:00","4","51.439083","-2.286389","180.74","COLERNE, UK","FM-15","EGUO ","V020","330,1,N,0026,1","01500,1,C,N","011265,1,N,1","+0170,1","+0100,1","99999,9","04,5,+00720,1,99,9","07,5,+01500,1,99,9",,"07,99,1,99,9,99,9,99999,9,99,9,99,9",,"10129,1,99999,9",,,,,"MET062METAR EGUO 121050Z 33005KT 9999 SCT024 BKN050 17/10 Q1013 WHT;",
"03658499999","2010-07-12T11:50:00","4","51.439083","-2.286389","180.74","COLERNE, UK","FM-15","EGUO ","V020","999,9,C,0000,1","00600,1,C,N","011265,1,N,1","+0170,1","+0100,1","99999,9","07,5,+00600,1,99,9",,,"07,99,1,99,9,99,9,99999,9,99,9,99,9",,"10129,1,99999,9",,,,,"MET055METAR EGUO 121150Z 00000KT 9999 BKN020 17/10 Q1013 WHT;",
"03658499999","2010-07-12T12:50:00","4","51.439083","-2.286389","180.74","COLERNE, UK","FM-15","EGUO ","V020","999,9,C,0000,1","01350,1,C,N","011265,1,N,1","+0170,1","+0100,1","99999,9","04,5,+00840,1,99,9","07,5,+01350,1,99,9",,"07,99,1,99,9,99,9,99999,9,99,9,99,9",,"10129,1,99999,9",,,,,"MET062METAR EGUO 121250Z 00000KT 9999 SCT028 BKN045 17/10 Q1013 BLU;",
"03658499999","2010-07-12T13:50:00","4","51.439083","-2.286389","180.74","COLERNE, UK","FM-15","EGUO ","V020","999,9,C,0000,1","99999,9,C,N","011265,1,N,1","+0190,1","+0090,1","99999,9","02,5,+00660,1,99,9","04,5,+01050,1,99,9",,"04,99,1,99,9,99,9,99999,9,99,9,99,9",,"10129,1,99999,9",,,,,"MET062METAR EGUO 121350Z 00000KT 9999 FEW022 SCT035 19/09 Q1013 BLU;","P01 010503SCOCIG"
"03658499999","2010-07-13T06:50:00","4","51.439083","-2.286389","180.74","COLERNE, UK","FM-15","EGUO ","V020","060,1,N,0031,1","00015,1,C,N","001800,1,N,1","+0130,1","+0130,1","99999,9","09,1,+00015,1,99,9",,,"09,99,1,99,9,99,9,00025,1,99,9,99,9",,"10102,1,99999,9","10,1","53,1",,,"MET060METAR EGUO 130650Z 06006KT 1800 DZ BR VV/// 13/13 Q1010 RED;",
"03658499999","2010-07-13T07:50:00","4","51.439083","-2.286389","180.74","COLERNE, UK","FM-15","EGUO ","V020","070,1,N,0051,1","00015,1,C,N","001000,1,N,1","+0130,1","+0130,1","99999,9","09,1,+00015,1,99,9",,,"09,99,1,99,9,99,9,00025,1,99,9,99,9",,"10102,1,99999,9","10,1","53,1",,,"MET060METAR EGUO 130750Z 07010KT 1000 DZ BR VV/// 13/13 Q1010 RED;",
"03658499999","2010-07-13T08:50:00","4","51.439083","-2.286389","180.74","COLERNE, UK","FM-15","EGUO ","V020","060,1,N,0041,1","00015,1,C,N","001000,1,N,1","+0140,1","+0130,1","99999,9","09,1,+00015,1,99,9",,,"09,99,1,99,9,99,9,00025,1,99,9,99,9",,"10091,1,99999,9","10,1","53,1",,,"MET060METAR EGUO 130850Z 06008KT 1000 DZ BR VV/// 14/13 Q1009 RED;",
"03658499999","2010-07-13T09:50:00","4","51.439083","-2.286389","180.74","COLERNE, UK","FM-15","EGUO ","V020","070,1,N,0036,1","00120,1,C,N","002500,1,N,1","+0140,1","+0140,1","99999,9","07,5,+00120,1,99,9","08,5,+00300,1,99,9",,"08,99,1,99,9,99,9,99999,9,99,9,99,9",,"10091,1,99999,9","10,1","53,1",,,"MET069METAR EGUO 130950Z 07007KT 2500 DZ BR BKN004 OVC010 14/14 Q1009 YLO2;",
"03658499999","2010-07-13T10:50:00","4","51.439083","-2.286389","180.74","COLERNE, UK","FM-15","EGUO ","V020","070,1,N,0026,1","00120,1,C,N","002000,1,N,1","+0140,1","+0140,1","99999,9","08,5,+00120,1,99,9",,,"08,99,1,99,9,99,9,99999,9,99,9,99,9",,"10091,1,99999,9","10,1","53,1",,,"MET062METAR EGUO 131050Z 07005KT 2000 DZ BR OVC004 14/14 Q1009 YLO2;",
"03658499999","2010-07-13T11:50:00","4","51.439083","-2.286389","180.74","COLERNE, UK","FM-15","EGUO ","V020","080,1,N,0026,1","00120,1,C,N","002000,1,N,1","+0150,1","+0150,1","99999,9","08,5,+00120,1,99,9",,,"08,99,1,99,9,99,9,99999,9,99,9,99,9",,"10081,1,99999,9","10,1","53,1",,,"MET062METAR EGUO 131150Z 08005KT 2000 DZ BR OVC004 15/15 Q1008 YLO2;",
"03658499999","2010-07-13T12:50:00","4","51.439083","-2.286389","180.74","COLERNE, UK","FM-15","EGUO ","V020","090,1,N,0026,1","00060,1,C,N","001500,1,N,1","+0160,1","+0150,1","99999,9","07,5,+00060,1,99,9",,,"07,99,1,99,9,99,9,99999,9,99,9,99,9",,"10081,1,99999,9","53,1","63,1",,,"MET060METAR EGUO 131250Z 09005KT 1500 RADZ BKN002 16/15 Q1008 AMB;",
"03658499999","2010-07-13T13:50:00","4","51.439083","-2.286389","180.74","COLERNE, UK","FM-15","EGUO ","V020","200,1,N,0026,1","00240,1,C,N","011265,1,N,1","+0170,1","+0160,1","99999,9","02,5,+00150,1,99,9","07,5,+00240,1,99,9",,"07,99,1,99,9,99,9,99999,9,99,9,99,9",,"10071,1,99999,9","61,1",,,,"MET066METAR EGUO 131350Z 20005KT 9999 -RA FEW005 BKN008 17/16 Q1007 GRN;",
"03658499999","2010-07-14T06:50:00","4","51.439083","-2.286389","180.74","COLERNE, UK","FM-15","EGUO ","V020","150,1,N,0046,1","00015,1,C,N","001000,1,N,1","+0150,1","+0150,1","99999,9","09,1,+00015,1,99,9",,,"09,99,1,99,9,99,9,00025,1,99,9,99,9",,"10031,1,99999,9","45,1","53,1",,,"MET060METAR EGUO 140650Z 15009KT 1000 DZ FG VV/// 15/15 Q1003 RED;",
"03658499999","2010-07-14T07:50:00","4","51.439083","-2.286389","180.74","COLERNE, UK","FM-15","EGUO ","V020","150,1,N,0051,1","00015,1,C,N","001000,1,N,1","+0150,1","+0150,1","99999,9","09,1,+00015,1,99,9",,,"09,99,1,99,9,99,9,00025,1,99,9,99,9",,"10020,1,99999,9","45,1","53,1",,,"MET067METAR EGUO 140750Z 15010KT 1000 0500 W DZ FG VV/// 15/15 Q1002 RED;",
"03658499999","2010-07-14T08:50:00","4","51.439083","-2.286389","180.74","COLERNE, UK","FM-15","EGUO ","V020","140,1,N,0051,1","00240,1,C,N","003000,1,N,1","+0160,1","+0150,1","99999,9","04,5,+00120,1,99,9","07,5,+00240,1,99,9",,"07,99,1,99,9,99,9,99999,9,99,9,99,9",,"10020,1,99999,9","10,1",,,,"MET066METAR EGUO 140850Z 14010KT 3000 BR SCT004 BKN008 16/15 Q1002 YLO2;",
"03658499999","2010-07-14T09:50:00","4","51.439083","-2.286389","180.74","COLERNE, UK","FM-15","EGUO ","V020","200,1,N,0051,1","00240,1,C,N","011265,1,N,1","+0160,1","+0150,1","99999,9","04,5,+00150,1,99,9","07,5,+00240,1,99,9",,"07,99,1,99,9,99,9,99999,9,99,9,99,9",,"10020,1,99999,9",,,,,"MET063METAR EGUO 140950Z 20010KT 9999 SCT005 BKN008 16/15 Q1002 YLO1;",
"03658499999","2010-07-14T10:50:00","4","51.439083","-2.286389","180.74","COLERNE, UK","FM-15","EGUO ","V020","190,1,N,0062,1","00360,1,C,N","011265,1,N,1","+0190,1","+0140,1","99999,9","04,5,+00240,1,99,9","07,5,+00360,1,99,9",,"07,99,1,99,9,99,9,99999,9,99,9,99,9",,"10010,1,99999,9",,,,,"MET062METAR EGUO 141050Z 19012KT 9999 SCT008 BKN012 19/14 Q1001 GRN;",
"03658499999","2010-07-14T11:50:00","4","51.439083","-2.286389","180.74","COLERNE, UK","FM-15","EGUO ","V020","190,1,N,0057,1","00540,1,C,N","011265,1,N,1","+0190,1","+0140,1","99999,9","04,5,+00240,1,99,9","07,5,+00540,1,99,9",,"07,99,1,99,9,99,9,99999,9,99,9,99,9",,"99999,9,99999,9",,,,,"MET062METAR EGUO 141150Z 19011KT 9999 SCT008 BKN018 19/14 Q1010 GRN;","Q01+101023APOA  Q02 101003APOA  "
"03658499999","2010-07-14T12:50:00","4","51.439083","-2.286389","180.74","COLERNE, UK","FM-15","EGUO ","V020","180,1,N,0051,1","00660,1,C,N","011265,1,N,1","+0180,1","+0130,1","99999,9","02,5,+00540,1,99,9","07,5,+00660,1,99,9",,"07,99,1,99,9,99,9,99999,9,99,9,99,9",,"10000,1,99999,9",,,,,"MET062METAR EGUO 141250Z 18010KT 9999 FEW018 BKN022 18/13 Q1000 WHT;",
"03658499999","2010-07-14T13:50:00","4","51.439083","-2.286389","180.74","COLERNE, UK","FM-15","EGUO ","V020","190,1,N,0057,1","22000,1,9,N","011265,1,N,1","+0190,1","+0130,1","99999,9","04,5,+00750,1,99,9",,,"04,99,1,99,9,99,9,99999,9,99,9,99,9",,"10000,1,99999,9",,,,,"MET055METAR EGUO 141350Z 19011KT 9999 SCT025 19/13 Q1000 BLU;",
"03658499999","2010-07-14T14:50:00","4","51.439083","-2.286389","180.74","COLERNE, UK","FM-15","EGUO ","V020","200,1,N,0077,1","00600,1,C,N","011265,1,N,1","+0190,1","+0120,1","99999,9","07,5,+00600,1,99,9",,,"07,99,1,99,9,99,9,99999,9,99,9,99,9",,"10000,1,99999,9",,,,,"MET055METAR EGUO 141450Z 20015KT 9999 BKN020 19/12 Q1000 WHT;",
"03658499999","2010-07-15T06:50:00","4","51.439083","-2.286389","180.74","COLERNE, UK","FM-15","EGUO ","V020","210,1,N,0098,1","00300,1,C,N","011265,1,N,1","+0150,1","+0150,1","99999,9","07,5,+00300,1,99,9",,,"07,99,1,99,9,99,9,99999,9,99,9,99,9",,"10010,1,99999,9",,,,,"MET055METAR EGUO 150650Z 21019KT 9999 BKN010 15/15 Q1001 GRN;",
"03658499999","2010-07-15T07:50:00","4","51.439083","-2.286389","180.74","COLERNE, UK","FM-15","EGUO ","V020","210,1,N,0087,1","00360,1,C,N","011265,1,N,1","+0160,1","+0150,1","99999,9","07,5,+00360,1,99,9",,,"07,99,1,99,9,99,9,99999,9,99,9,99,9",,"10020,1,99999,9",,,,,"MET055METAR EGUO 150750Z 21017KT 9999 BKN012 16/15 Q1002 GRN;",
"03658499999","2010-07-15T08:50:00","4","51.439083","-2.286389","180.74","COLERNE, UK","FM-15","EGUO ","V020","220,1,N,0077,1","00360,1,C,N","011265,1,N,1","+0160,1","+0160,1","99999,9","04,5,+00300,1,99,9","07,5,+00360,1,99,9",,"07,99,1,99,9,99,9,99999,9,99,9,99,9",,"10031,1,99999,9","63,1",,,"0165,1","MET075METAR EGUO 150850Z 22015G32KT 9999 6000SE RA SCT010 BKN012 16/16 Q1003 GRN;",
"03658499999","2010-07-15T09:50:00","4","51.439083","-2.286389","180.74","COLERNE, UK","FM-15","EGUO ","V020","220,1,N,0103,1","00420,1,C,N","011265,1,N,1","+0170,1","+0170,1","99999,9","04,5,+00300,1,99,9","07,5,+00420,1,99,9",,"07,99,1,99,9,99,9,99999,9,99,9,99,9",,"10041,1,99999,9",,,,,"MET062METAR EGUO 150950Z 22020KT 9999 SCT010 BKN014 17/17 Q1004 GRN;",
"03658499999","2010-07-15T11:50:00","4","51.439083","-2.286389","180.74","COLERNE, UK","FM-15","EGUO ","V020","240,1,N,0093,1","00450,1,C,N","011265,1,N,1","+0170,1","+0170,1","99999,9","04,5,+00300,1,99,9","07,5,+00450,1,99,9",,"07,99,1,99,9,99,9,99999,9,99,9,99,9",,"10041,1,99999,9","81,1",,,"0144,1","MET076METAR EGUO 151150Z 24018G28KT 9999 5000N SHRA SCT010 BKN015 17/17 Q1004 GRN;",
"03658499999","2010-07-15T12:50:00","4","51.439083","-2.286389","180.74","COLERNE, UK","FM-15","EGUO ","V020","220,1,N,0113,1","00600,1,C,N","011265,1,N,1","+0190,1","+0180,1","99999,9","02,5,+00300,1,99,9","07,5,+00600,1,99,9",,"07,99,1,99,9,99,9,99999,9,99,9,99,9",,"10061,1,99999,9",,,,,"MET062METAR EGUO 151250Z 22022KT 9999 FEW010 BKN020 19/18 Q1006 WHT;",
"03658499999","2010-07-15T13:50:00","4","51.439083","-2.286389","180.74","COLERNE, UK","FM-15","EGUO ","V020","210,1,N,0087,1","00600,1,C,N","011265,1,N,1","+0190,1","+0190,1","99999,9","02,5,+00300,1,99,9","07,5,+00600,1,99,9",,"07,99,1,99,9,99,9,99999,9,99,9,99,9",,"10061,1,99999,9",,,,,"MET062METAR EGUO 151350Z 21017KT 9999 FEW010 BKN020 19/19 Q1006 WHT;",
"03658499999","2010-07-16T06:50:00","4","51.439083","-2.286389","180.74","COLERNE, UK","FM-15","EGUO ","V020","210,1,N,0093,1","99999,9,C,N","011265,1,N,1","+0140,1","+0110,1","99999,9","02,5,+00300,1,99,9","04,5,+00450,1,99,9",,"04,99,1,99,9,99,9,99999,9,99,9,99,9",,"10051,1,99999,9",,,,,"MET062METAR EGUO 160650Z 21018KT 9999 FEW010 SCT015 14/11 Q1005 WHT;","P01 004503SCOCIG"
"03658499999","2010-07-16T07:50:00","4","51.439083","-2.286389","180.74","COLERNE, UK","FM-15","EGUO ","V020","210,1,N,0103,1","00540,1,C,N","011265,1,N,1","+0150,1","+0100,1","99999,9","07,5,+00540,1,99,9",,,"07,99,1,99,9,99,9,99999,9,99,9,99,9",,"10061,1,99999,9",,,,,"MET055METAR EGUO 160750Z 21020KT 9999 BKN018 15/10 Q1006 WHT;",
"03658499999","2010-07-16T08:50:00","4","51.439083","-2.286389","180.74","COLERNE, UK","FM-15","EGUO ","V020","210,1,N,0103,1","00570,1,C,N","011265,1,N,1","+0170,1","+0110,1","99999,9","07,5,+00570,1,99,9",,,"07,99,1,99,9,99,9,99999,9,99,9,99,9",,"10071,1,99999,9",,,,,"MET055METAR EGUO 160850Z 21020KT 9999 BKN019 17/11 Q1007 WHT;",
"03658499999","2010-07-16T09:50:00","4","51.439083","-2.286389","180.74","COLERNE, UK","FM-15","EGUO ","V020","210,1,N,0082,1","00600,1,C,N","011265,1,N,1","+0170,1","+0110,1","99999,9","07,5,+00600,1,99,9",,,"07,99,1,99,9,99,9,99999,9,99,9,99,9",,"10081,1,99999,9",,,,,"MET055METAR EGUO 160950Z 21016KT 9999 BKN020 17/11 Q1008 WHT;",
"03658499999","2010-07-16T11:50:00","4","51.439083","-2.286389","180.74","COLERNE, UK","FM-15","EGUO ","V020","220,1,N,0062,1","00600,1,C,N","011265,1,N,1","+0150,1","+0130,1","99999,9","07,5,+00600,1,99,9",,,"07,99,1,99,9,99,9,99999,9,99,9,99,9",,"10081,1,99999,9","16,1",,,,"MET067METAR EGUO 161150Z 22012KT 9999 4000NE VCSH BKN020 15/13 Q1008 GRN;",
"03658499999","2010-07-16T12:50:00","4","51.439083","-2.286389","180.74","COLERNE, UK","FM-15","EGUO ","V020","210,1,N,0087,1","00600,1,C,N","011265,1,N,1","+0180,1","+0120,1","99999,9","07,5,+00600,1,99,9",,,"07,99,1,99,9,99,9,99999,9,99,9,99,9",,"10091,1,99999,9","16,1",,,,"MET066METAR EGUO 161250Z 21017KT 9999 4000W VCSH BKN020 18/12 Q1009 GRN;",
"03658499999","2010-07-16T13:50:00","4","51.439083","-2.286389","180.74","COLERNE, UK","FM-15","EGUO ","V020","210,1,N,0062,1","00600,1,C,N","011265,1,N,1","+0170,1","+0130,1","99999,9","07,5,+00600,1,99,9",,,"07,99,1,99,9,99,9,99999,9,99,9,99,9",,"10091,1,99999,9","16,1",,,,"MET067METAR EGUO 161350Z 21012KT 9999 5000NE VCSH BKN020 17/13 Q1009 WHT;",
"03658499999","2010-07-16T14:50:00","4","51.439083","-2.286389","180.74","COLERNE, UK","FM-15","EGUO ","V020","230,1,N,0093,1","00540,1,C,N","008000,1,N,1","+0170,1","+0130,1","99999,9","04,5,+00300,1,99,9","07,5,+00540,1,99,9",,"07,99,1,99,9,99,9,99999,9,99,9,99,9",,"10102,1,99999,9",,,,,"MET062METAR EGUO 161450Z 23018KT 8000 SCT010 BKN018 17/13 Q1010 GRN;",
"03658499999","2010-07-19T06:50:00","4","51.439083","-2.286389","180.74","COLERNE, UK","FM-15","EGUO ","V020","210,1,N,0046,1","00450,1,C,N","005000,1,N,1","+0140,1","+0130,1","99999,9","02,5,+00120,1,99,9","04,5,+00450,1,99,9","07,5,+02100,1,99,9","07,99,1,99,9,99,9,99999,9,99,9,99,9",,"10230,1,99999,9","05,1",,,,"MET072METAR EGUO 190650Z 21009KT 5000 HZ FEW004 SCT015 BKN070 14/13 Q1023 WHT;",
"03658499999","2010-07-19T07:50:00","4","51.439083","-2.286389","180.74","COLERNE, UK","FM-15","EGUO ","V020","190,1,N,0041,1","02100,1,C,N","008000,1,N,1","+0150,1","+0130,1","99999,9","04,5,+00600,1,99,9","07,5,+02100,1,99,9",,"07,99,1,99,9,99,9,99999,9,99,9,99,9",,"10230,1,99999,9","05,1",,,,"MET065METAR EGUO 190750Z 19008KT 8000 HZ SCT020 BKN070 15/13 Q1023 WHT;",
"03658499999","2010-07-19T09:50:00","4","51.439083","-2.286389","180.74","COLERNE, UK","FM-15","EGUO ","V020","190,1,N,0041,1","99999,9,9,Y","009900,1,N,1","+0200,1","+0120,1","99999,9",,,,,,"10230,1,99999,9",,,,,"MET049METAR EGUO 190950Z 19008KT CAVOK 20/12 Q1023 BLU;",
"03658499999","2010-07-19T10:50:00","4","51.439083","-2.286389","180.74","COLERNE, UK","FM-15","EGUO ","V020","210,1,N,0046,1","22000,1,9,N","011265,1,N,1","+0220,1","+0120,1","99999,9","02,5,+01350,1,99,9",,,"02,99,1,99,9,99,9,99999,9,99,9,99,9",,"10220,1,99999,9",,,,,"MET055METAR EGUO 191050Z 21009KT 9999 FEW045 22/12 Q1022 BLU;",
"03658499999","2010-07-19T11:50:00","4","51.439083","-2.286389","180.74","COLERNE, UK","FM-15","EGUO ","V020","210,1,N,0051,1","99999,9,9,Y","009900,1,N,1","+0230,1","+0120,1","99999,9",,,,,,"10220,1,99999,9",,,,,"MET049METAR EGUO 191150Z 21010KT CAVOK 23/12 Q1022 BLU;",
"03658499999","2010-07-19T12:50:00","4","51.439083","-2.286389","180.74","COLERNE, UK","FM-15","EGUO ","V020","170,1,N,0062,1","99999,9,9,Y","009900,1,N,1","+0240,1","+0100,1","99999,9",,,,,,"10210,1,99999,9",,,,,"MET049METAR EGUO 191250Z 17012KT CAVOK 24/10 Q1021 BLU;",
"03658499999","2010-07-19T13:50:00","4","51.439083","-2.286389","180.74","COLERNE, UK","FM-15","EGUO ","V020","210,1,N,0062,1","99999,9,9,Y","009900,1,N,1","+0240,1","+0100,1","99999,9",,,,,,"10200,1,99999,9",,,,,"MET049METAR EGUO 191350Z 21012KT CAVOK 24/10 Q1020 BLU;",
"03658499999","2010-07-20T06:50:00","4","51.439083","-2.286389","180.74","COLERNE, UK","FM-15","EGUO ","V020","170,1,N,0031,1","99999,9,9,Y","009900,1,N,1","+0160,1","+0150,1","99999,9",,,,,,"10139,1,99999,9",,,,,"MET049METAR EGUO 200650Z 17006KT CAVOK 16/15 Q1014 BLU;",
"03658499999","2010-07-20T07:50:00","4","51.439083","-2.286389","180.74","COLERNE, UK","FM-15","EGUO ","V020","190,1,N,0026,1","99999,9,C,N","011265,1,N,1","+0180,1","+0150,1","99999,9","02,5,+01440,1,99,9","04,5,+02400,1,99,9",,"04,99,1,99,9,99,9,99999,9,99,9,99,9",,"10139,1,99999,9",,,,,"MET062METAR EGUO 200750Z 19005KT 9999 FEW048 SCT080 18/15 Q1014 BLU;","P01 024003SCOCIG"
"03658499999","2010-07-20T08:50:00","4","51.439083","-2.286389","180.74","COLERNE, UK","FM-15","EGUO ","V020","220,1,N,0026,1","99999,9,9,Y","009900,1,N,1","+0190,1","+0160,1","99999,9",,,,,,"10129,1,99999,9",,,,,"MET049METAR EGUO 200850Z 22005KT CAVOK 19/16 Q1013 BLU;",
"03658499999","2010-07-20T09:50:00","4","51.439083","-2.286389","180.74","COLERNE, UK","FM-15","EGUO ","V020","190,1,N,0041,1","99999,9,C,N","011265,1,N,1","+0210,1","+0140,1","99999,9","02,5,+00600,1,99,9","04,5,+01500,1,99,9",,"04,99,1,99,9,99,9,99999,9,99,9,99,9",,"10129,1,99999,9",,,,,"MET062METAR EGUO 200950Z 19008KT 9999 FEW020 SCT050 21/14 Q1013 BLU;","P01 015003SCOCIG"
"03658499999","2010-07-20T10:50:00","4","51.439083","-2.286389","180.74","COLERNE, UK","FM-15","EGUO ","V020","200,1,N,0051,1","01500,1,C,N","011265,1,N,1","+0230,1","+0150,1","99999,9","04,5,+00600,1,99,9","07,5,+01500,1,99,9",,"07,99,1,99,9,99,9,99999,9,99,9,99,9",,"10119,1,99999,9",,,,,"MET062METAR EGUO 201050Z 20010KT 9999 SCT020 BKN050 23/15 Q1012 WHT;",
"03658499999","2010-07-20T11:50:00","4","51.439083","-2.286389","180.74","COLERNE, UK","FM-15","EGUO ","V020","220,1,N,0046,1","01800,1,C,N","011265,1,N,1","+0230,1","+0140,1","99999,9","04,5,+00750,1,99,9","07,5,+01800,1,99,9",,"07,99,1,99,9,99,9,99999,9,99,9,99,9",,"10108,1,99999,9",,,,,"MET062METAR EGUO 201150Z 22009KT 9999 SCT025 BKN060 23/14 Q1011 BLU;",
"03658499999","2010-07-20T12:50:00","4","51.439083","-2.286389","180.74","COLERNE, UK","FM-15","EGUO ","V020","250,1,N,0051,1","01800,1,C,N","011265,1,N,1","+0240,1","+0140,1","99999,9","02,5,+00750,1,99,9","07,5,+01800,1,99,9",,"07,99,1,99,9,99,9,99999,9,99,9,99,9",,"10102,1,99999,9",,,,,"MET062METAR EGUO 201250Z 25010KT 9999 FEW025 BKN060 24/14 Q1010 BLU;",
"03658499999","2010-07-20T13:50:00","4","51.439083","-2.286389","180.74","COLERNE, UK","FM-15","EGUO ","V020","200,1,N,0062,1","01800,1,C,N","011265,1,N,1","+0240,1","+0130,1","99999,9","02,5,+00750,1,99,9","07,5,+01800,1,99,9",,"07,99,1,99,9,99,9,99999,9,99,9,99,9",,"10102,1,99999,9",,,,,"MET062METAR EGUO 201350Z 20012KT 9999 FEW025 BKN060 24/13 Q1010 BLU;",
"03658499999","2010-07-20T14:50:00","4","51.439083","-2.286389","180.74","COLERNE, UK","FM-15","EGUO ","V020","210,1,N,0072,1","22000,1,9,N","011265,1,N,1","+0230,1","+0130,1","99999,9","04,5,+00750,1,99,9",,,"04,99,1,99,9,99,9,99999,9,99,9,99,9",,"10102,1,99999,9",,,,,"MET055METAR EGUO 201450Z 21014KT 9999 SCT025 23/13 Q1010 BLU;",
"03658499999","2010-07-21T07:50:00","4","51.439083","-2.286389","180.74","COLERNE, UK","FM-15","EGUO ","V020","210,1,N,0057,1","22000,1,9,N","011265,1,N,1","+0140,1","+0120,1","99999,9","04,5,+00180,1,99,9",,,"04,99,1,99,9,99,9,99999,9,99,9,99,9",,"10061,1,99999,9",,,,,"MET056METAR EGUO 210750Z 21011KT 9999 SCT006 14/12 Q1006 YLO1;",
"03658499999","2010-07-21T08:50:00","4","51.439083","-2.286389","180.74","COLERNE, UK","FM-15","EGUO ","V020","230,1,N,0057,1","22000,1,9,N","011265,1,N,1","+0170,1","+0110,1","99999,9","04,5,+00720,1,99,9",,,"04,99,1,99,9,99,9,99999,9,99,9,99,9",,"10071,1,99999,9",,,,,"MET055METAR EGUO 210850Z 23011KT 9999 SCT024 17/11 Q1007 WHT;",
"03658499999","2010-07-21T09:50:00","4","51.439083","-2.286389","180.74","COLERNE, UK","FM-15","EGUO ","V020","230,1,N,0057,1","22000,1,9,N","011265,1,N,1","+0170,1","+0090,1","99999,9","04,5,+00660,1,99,9",,,"04,99,1,99,9,99,9,99999,9,99,9,99,9",,"10071,1,99999,9",,,,,"MET055METAR EGUO 210950Z 23011KT 9999 SCT022 17/09 Q1007 WHT;",
"03658499999","2010-07-21T10:50:00","4","51.439083","-2.286389","180.74","COLERNE, UK","FM-15","EGUO ","V020","220,1,N,0067,1","99999,9,C,N","011265,1,N,1","+0180,1","+0090,1","99999,9","02,5,+00360,1,99,9","04,5,+00660,1,99,9",,"04,99,1,99,9,99,9,99999,9,99,9,99,9",,"10071,1,99999,9",,,,,"MET062METAR EGUO 211050Z 22013KT 9999 FEW012 SCT022 18/09 Q1007 WHT;","P01 006603SCOCIG"
"03658499999","2010-07-21T11:50:00","4","51.439083","-2.286389","180.74","COLERNE, UK","FM-15","EGUO ","V020","210,1,N,0067,1","00660,1,C,N","011265,1,N,1","+0190,1","+0110,1","99999,9","04,5,+00450,1,99,9","07,5,+00660,1,99,9",,"07,99,1,99,9,99,9,99999,9,99,9,99,9",,"10071,1,99999,9",,,,,"MET062METAR EGUO 211150Z 21013KT 9999 SCT015 BKN022 19/11 Q1007 WHT;",
"03658499999","2010-07-21T12:50:00","4","51.439083","-2.286389","180.74","COLERNE, UK","FM-15","EGUO ","V020","220,1,N,0067,1","22000,1,9,N","011265,1,N,1","+0190,1","+0100,1","99999,9","04,5,+01080,1,99,9",,,"04,99,1,99,9,99,9,99999,9,99,9,99,9",,"10061,1,99999,9",,,,,"MET055METAR EGUO 211250Z 22013KT 9999 SCT036 19/10 Q1006 BLU;",
"03658499999","2010-07-21T13:50:00","4","51.439083","-2.286389","180.74","COLERNE, UK","FM-15","EGUO ","V020","220,1,N,0093,1","22000,1,9,N","011265,1,N,1","+0200,1","+0090,1","99999,9","04,5,+01080,1,99,9",,,"04,99,1,99,9,99,9,99999,9,99,9,99,9",,"10061,1,99999,9",,,,,"MET055METAR EGUO 211350Z 22018KT 9999 SCT036 20/09 Q1006 BLU;",
"03658499999","2010-07-21T14:50:00","4","51.439083","-2.286389","180.74","COLERNE, UK","FM-15","EGUO ","V020","210,1,N,0077,1","22000,1,9,N","011265,1,N,1","+0200,1","+0090,1","99999,9","04,5,+01200,1,99,9",,,"04,99,1,99,9,99,9,99999,9,99,9,99,9",,"10061,1,99999,9",,,,,"MET055METAR EGUO 211450Z 21015KT 9999 SCT040 20/09 Q1006 BLU;",
"03658499999","2010-07-22T06:50:00","4","51.439083","-2.286389","180.74","COLERNE, UK","FM-15","EGUO ","V020","999,9,C,0000,1","99999,9,C,N","007000,1,N,1","+0130,1","+0120,1","99999,9","02,5,+00120,1,99,9","04,5,+00750,1,99,9",,"04,99,1,99,9,99,9,99999,9,99,9,99,9",,"10102,1,99999,9",,,,,"MET062METAR EGUO 220650Z 00000KT 7000 FEW004 SCT025 13/12 Q1010 WHT;","P01 007503SCOCIG"
"03658499999","2010-07-22T07:50:00","4","51.439083","-2.286389","180.74","COLERNE, UK","FM-15","EGUO ","V020","150,1,N,0026,1","00150,1,C,N","011265,1,N,1","+0140,1","+0140,1","99999,9","07,5,+00150,1,99,9",,,"07,99,1,99,9,99,9,99999,9,99,9,99,9",,"10108,1,99999,9","61,1",,,,"MET060METAR EGUO 220750Z 15005KT 9999 -RA BKN005 14/14 Q1011 YLO1;",
"03658499999","2010-07-22T08:50:00","4","51.439083","-2.286389","180.74","COLERNE, UK","FM-15","EGUO ","V020","999,9,C,0000,1","00150,1,C,N","011265,1,N,1","+0150,1","+0130,1","99999,9","02,5,+00120,1,99,9","04,5,+00150,1,99,9","07,5,+00300,1,99,9","07,99,1,99,9,99,9,99999,9,99,9,99,9",,"10108,1,99999,9","16,1",,,,"MET081METAR EGUO 220850Z 00000KT 9999 4000S VCSH FEW004 SCT005 BKN010 15/13 Q1011 YLO1;",
"03658499999","2010-07-22T09:50:00","4","51.439083","-2.286389","180.74","COLERNE, UK","FM-15","EGUO ","V020","999,9,C,0000,1","00450,1,C,N","011265,1,N,1","+0160,1","+0120,1","99999,9","02,5,+00240,1,99,9","04,5,+00450,1,99,9","07,5,+01200,1,99,9","07,99,1,99,9,99,9,99999,9,99,9,99,9",,"10108,1,99999,9",,,,,"MET069METAR EGUO 220950Z 00000KT 9999 FEW008 SCT015 BKN040 16/12 Q1011 WHT;",
"03658499999","2010-07-22T10:50:00","4","51.439083","-2.286389","180.74","COLERNE, UK","FM-15","EGUO ","V020","999,9,C,0000,1","00750,1,C,N","011265,1,N,1","+0180,1","+0110,1","99999,9","07,5,+00750,1,99,9",,,"07,99,1,99,9,99,9,99999,9,99,9,99,9",,"10119,1,99999,9",,,,,"MET055METAR EGUO 221050Z 00000KT 9999 BKN025 18/11 Q1012 BLU;",
"03658499999","2010-07-22T11:50:00","4","51.439083","-2.286389","180.74","COLERNE, UK","FM-15","EGUO ","V020","999,9,C,0000,1","00750,1,C,N","011265,1,N,1","+0160,1","+0130,1","99999,9","07,5,+00750,1,99,9",,,"07,99,1,99,9,99,9,99999,9,99,9,99,9",,"10119,1,99999,9",,,,,"MET055METAR EGUO 221150Z 00000KT 9999 BKN025 16/13 Q1012 BLU;",
"03658499999","2010-07-23T06:50:00","4","51.439083","-2.286389","180.74","COLERNE, UK","FM-15","EGUO ","V020","030,1,N,0062,1","00120,1,C,N","002000,1,N,1","+0130,1","+0110,1","99999,9","08,5,+00120,1,99,9",,,"08,99,1,99,9,99,9,99999,9,99,9,99,9",,"10200,1,99999,9","51,1",,,,"MET060METAR EGUO 230650Z 03012KT 2000 -DZ OVC004 13/11 Q1020 YLO2;",
"03658499999","2010-07-23T07:50:00","4","51.439083","-2.286389","180.74","COLERNE, UK","FM-15","EGUO ","V020","030,1,N,0031,1","00120,1,C,N","003000,1,N,1","+0140,1","+0120,1","99999,9","07,5,+00120,1,99,9",,,"07,99,1,99,9,99,9,99999,9,99,9,99,9",,"10210,1,99999,9","10,1",,,,"MET059METAR EGUO 230750Z 03006KT 3000 BR BKN004 14/12 Q1021 YLO2;",
"03658499999","2010-07-23T08:50:00","4","51.439083","-2.286389","180.74","COLERNE, UK","FM-15","EGUO ","V020","020,1,N,0031,1","00150,1,C,N","006000,1,N,1","+0140,1","+0120,1","99999,9","07,5,+00150,1,99,9",,,"07,99,1,99,9,99,9,99999,9,99,9,99,9",,"10220,1,99999,9","10,1",,,,"MET059METAR EGUO 230850Z 02006KT 6000 BR BKN005 14/12 Q1022 YLO1;",
"03658499999","2010-07-23T09:50:00","4","51.439083","-2.286389","180.74","COLERNE, UK","FM-15","EGUO ","V020","050,1,N,0021,1","99999,9,C,N","006000,1,N,1","+0150,1","+0120,1","99999,9","02,5,+00360,1,99,9","04,5,+00540,1,99,9",,"04,99,1,99,9,99,9,99999,9,99,9,99,9",,"10220,1,99999,9","10,1",,,,"MET065METAR EGUO 230950Z 05004KT 6000 BR FEW012 SCT018 15/12 Q1022 WHT;","P01 005403SCOCIG"
"03658499999","2010-07-23T10:50:00","4","51.439083","-2.286389","180.74","COLERNE, UK","FM-15","EGUO ","V020","060,1,N,0026,1","99999,9,C,N","007000,1,N,1","+0160,1","+0110,1","99999,9","02,5,+00420,1,99,9","04,5,+00600,1,99,9",,"04,99,1,99,9,99,9,99999,9,99,9,99,9",,"10220,1,99999,9","05,1",,,,"MET065METAR EGUO 231050Z 06005KT 7000 HZ FEW014 SCT020 16/11 Q1022 WHT;","P01 006003SCOCIG"
"03658499999","2010-07-23T11:50:00","4","51.439083","-2.286389","180.74","COLERNE, UK","FM-15","EGUO ","V020","999,9,C,0000,1","22000,1,9,N","011265,1,N,1","+0170,1","+0100,1","99999,9","04,5,+00600,1,99,9",,,"04,99,1,99,9,99,9,99999,9,99,9,99,9",,"10220,1,99999,9",,,,,"MET055METAR EGUO 231150Z 00000KT 9999 SCT020 17/10 Q1022 WHT;",
"03658499999","2010-07-23T13:50:00","4","51.439083","-2.286389","180.74","COLERNE, UK","FM-15","EGUO ","V020","330,1,N,0026,1","99999,9,C,N","011265,1,N,1","+0190,1","+0090,1","99999,9","02,5,+00960,1,99,9","04,5,+01200,1,99,9",,"04,99,1,99,9,99,9,99999,9,99,9,99,9",,"10230,1,99999,9",,,,,"MET062METAR EGUO 231350Z 33005KT 9999 FEW032 SCT040 19/09 Q1023 BLU;","P01 012003SCOCIG"
"03658499999","2010-07-23T14:50:00","4","51.439083","-2.286389","180.74","COLERNE, UK","FM-15","EGUO ","V020","340,1,N,0031,1","22000,1,9,N","011265,1,N,1","+0190,1","+0100,1","99999,9","04,5,+00960,1,99,9",,,"04,99,1,99,9,99,9,99999,9,99,9,99,9",,"10230,1,99999,9",,,,,"MET055METAR EGUO 231450Z 34006KT 9999 SCT032 19/10 Q1023 BLU;",
"03658499999","2010-07-26T06:50:00","4","51.439083","-2.286389","180.74","COLERNE, UK","FM-15","EGUO ","V020","290,1,N,0036,1","00450,1,C,N","011265,1,N,1","+0190,1","+0160,1","99999,9","02,5,+00150,1,99,9","04,5,+00450,1,99,9","07,5,+00600,1,99,9","07,99,1,99,9,99,9,99999,9,99,9,99,9",,"10180,1,99999,9",,,,,"MET069METAR EGUO 260650Z 29007KT 9999 FEW005 SCT015 BKN020 19/16 Q1018 WHT;",
"03658499999","2010-07-26T07:50:00","4","51.439083","-2.286389","180.74","COLERNE, UK","FM-15","EGUO ","V020","290,1,N,0046,1","00480,1,C,N","011265,1,N,1","+0200,1","+0160,1","99999,9","02,5,+00240,1,99,9","07,5,+00480,1,99,9",,"07,99,1,99,9,99,9,99999,9,99,9,99,9",,"10180,1,99999,9",,,,,"MET062METAR EGUO 260750Z 29009KT 9999 FEW008 BKN016 20/16 Q1018 WHT;",
"03658499999","2010-07-26T08:50:00","4","51.439083","-2.286389","180.74","COLERNE, UK","FM-15","EGUO ","V020","310,1,N,0041,1","00450,1,C,N","011265,1,N,1","+0200,1","+0160,1","99999,9","02,5,+00360,1,99,9","07,5,+00450,1,99,9",,"07,99,1,99,9,99,9,99999,9,99,9,99,9",,"10190,1,99999,9",,,,,"MET062METAR EGUO 260850Z 31008KT 9999 FEW012 BKN015 20/16 Q1019 WHT;",
"03658499999","2010-07-26T09:50:00","4","51.439083","-2.286389","180.74","COLERNE, UK","FM-15","EGUO ","V020","300,1,N,0051,1","00630,1,C,N","011265,1,N,1","+0210,1","+0200,1","99999,9","02,5,+00360,1,99,9","07,5,+00630,1,99,9",,"07,99,1,99,9,99,9,99999,9,99,9,99,9",,"10190,1,99999,9",,,,,"MET062METAR EGUO 260950Z 30010KT 9999 FEW012 BKN021 21/20 Q1019 WHT;",
"03658499999","2010-07-26T10:50:00","4","51.439083","-2.286389","180.74","COLERNE, UK","FM-15","EGUO ","V020","300,1,N,0036,1","99999,9,C,N","011265,1,N,1","+0230,1","+0160,1","99999,9","02,5,+00420,1,99,9","04,5,+00660,1,99,9",,"04,99,1,99,9,99,9,99999,9,99,9,99,9",,"10180,1,99999,9",,,,,"MET062METAR EGUO 261050Z 30007KT 9999 FEW014 SCT022 23/16 Q1018 WHT;","P01 006603SCOCIG"
"03658499999","2010-07-26T11:50:00","4","51.439083","-2.286389","180.74","COLERNE, UK","FM-15","EGUO ","V020","330,1,N,0051,1","22000,1,9,N","011265,1,N,1","+0230,1","+0150,1","99999,9","04,5,+00900,1,99,9",,,"04,99,1,99,9,99,9,99999,9,99,9,99,9",,"10180,1,99999,9",,,,,"MET055METAR EGUO 261150Z 33010KT 9999 SCT030 23/15 Q1018 BLU;",
"03658499999","2010-07-26T12:50:00","4","51.439083","-2.286389","180.74","COLERNE, UK","FM-15","EGUO ","V020","320,1,N,0057,1","22000,1,9,N","011265,1,N,1","+0230,1","+0160,1","99999,9","04,5,+00900,1,99,9",,,"04,99,1,99,9,99,9,99999,9,99,9,99,9",,"10180,1,99999,9",,,,,"MET055METAR EGUO 261250Z 32011KT 9999 SCT030 23/16 Q1018 BLU;",
"03658499999","2010-07-26T13:50:00","4","51.439083","-2.286389","180.74","COLERNE, UK","FM-15","EGUO ","V020","300,1,N,0041,1","22000,1,9,N","011265,1,N,1","+0240,1","+0150,1","99999,9","04,5,+00900,1,99,9",,,"04,99,1,99,9,99,9,99999,9,99,9,99,9",,,,,,,"MET054METAR EGUO 261350Z 30008KT 9999 SCT030 24/15 1018 BLU;",
"03658499999","2010-07-27T06:50:00","4","51.439083","-2.286389","180.74","COLERNE, UK","FM-15","EGUO ","V020","240,1,N,0041,1","00120,1,C,N","002800,1,N,1","+0170,1","+0160,1","99999,9","08,5,+00120,1,99,9",,,"08,99,1,99,9,99,9,99999,9,99,9,99,9",,"10190,1,99999,9","10,1",,,,"MET059METAR EGUO 270650Z 24008KT 2800 BR OVC004 17/16 Q1019 YLO2;",
"03658499999","2010-07-27T07:20:00","4","51.439083","-2.286389","180.74","COLERNE, UK","FM-15","EGUO ","V020","250,1,N,0041,1","00600,1,C,N","003500,1,N,1","+0180,1","+0160,1","99999,9","04,5,+00150,1,99,9","07,5,+00600,1,99,9",,"07,99,1,99,9,99,9,99999,9,99,9,99,9",,"10190,1,99999,9","10,1",,,,"MET066METAR EGUO 270720Z 25008KT 3500 BR SCT005 BKN020 18/16 Q1019 YLO1;",
"03658499999","2010-07-27T08:50:00","4","51.439083","-2.286389","180.74","COLERNE, UK","FM-15","EGUO ","V020","240,1,N,0036,1","00540,1,C,N","005000,1,N,1","+0190,1","+0160,1","99999,9","04,5,+00150,1,99,9","07,5,+00540,1,99,9",,"07,99,1,99,9,99,9,99999,9,99,9,99,9",,"10190,1,99999,9","05,1",,,,"MET066METAR EGUO 270850Z 24007KT 5000 HZ SCT005 BKN018 19/16 Q1019 YLO1;",
"03658499999","2010-07-27T09:50:00","4","51.439083","-2.286389","180.74","COLERNE, UK","FM-15","EGUO ","V020","250,1,N,0046,1","00360,1,C,N","005000,1,N,1","+0180,1","+0160,1","99999,9","04,5,+00150,1,99,9","07,5,+00360,1,99,9",,"07,99,1,99,9,99,9,99999,9,99,9,99,9",,"10210,1,99999,9","05,1",,,,"MET066METAR EGUO 270950Z 25009KT 5000 HZ SCT005 BKN012 18/16 Q1021 YLO1;",
"03658499999","2010-07-27T10:50:00","4","51.439083","-2.286389","180.74","COLERNE, UK","FM-15","EGUO ","V020","240,1,N,0041,1","00150,1,C,N","011265,1,N,1","+0190,1","+9999,9","99999,9","07,5,+00150,1,99,9",,,"07,99,1,99,9,99,9,99999,9,99,9,99,9",,"10190,1,99999,9",,,,,"MET056METAR EGUO 271050Z 24008KT 9999 BKN005 19/06 Q1019 YLO1;","Q01 +00603ATOD  "
"03658499999","2010-07-27T11:50:00","4","51.439083","-2.286389","180.74","COLERNE, UK","FM-15","EGUO ","V020","999,9,9,9999,9","00150,5,9,N","011265,1,N,1","+0190,1","+0160,1","99999,9","07,5,+00150,5,99,9",,,,,"10190,1,99999,9",,,,,"MET063METAR EGUO 271150Z 271150Z24012KT 9999 BKN005 19/16 Q1019 YLO1;",
"03658499999","2010-07-27T12:50:00","4","51.439083","-2.286389","180.74","COLERNE, UK","FM-15","EGUO ","V020","260,1,N,0046,1","22000,1,9,N","011265,1,N,1","+0200,1","+0160,1","99999,9","04,5,+00180,1,99,9",,,"04,99,1,99,9,99,9,99999,9,99,9,99,9",,"10190,1,99999,9",,,,,"MET056METAR EGUO 271250Z 26009KT 9999 SCT006 20/16 Q1019 YLO1;",
"03658499999","2010-07-27T13:50:00","4","51.439083","-2.286389","180.74","COLERNE, UK","FM-15","EGUO ","V020","270,1,N,0051,1","99999,9,C,N","011265,1,N,1","+0210,1","+0150,1","99999,9","02,5,+00180,1,99,9","04,5,+00720,1,99,9",,"04,99,1,99,9,99,9,99999,9,99,9,99,9",,"10190,1,99999,9",,,,,"MET062METAR EGUO 271350Z 27010KT 9999 FEW006 SCT024 21/15 Q1019 WHT;","P01 007203SCOCIG"
"03658499999","2010-07-27T14:50:00","4","51.439083","-2.286389","180.74","COLERNE, UK","FM-15","EGUO ","V020","250,1,N,0062,1","99999,9,C,N","011265,1,N,1","+0200,1","+0150,1","99999,9","02,5,+00240,1,99,9","04,5,+00450,1,99,9",,"04,99,1,99,9,99,9,99999,9,99,9,99,9",,"10190,1,99999,9",,,,,"MET062METAR EGUO 271450Z 25012KT 9999 FEW008 SCT015 20/15 Q1019 WHT;","P01 004503SCOCIG"
"03658499999","2010-07-28T06:50:00","4","51.439083","-2.286389","180.74","COLERNE, UK","FM-15","EGUO ","V020","280,1,N,0026,1","22000,1,9,N","006000,1,N,1","+0160,1","+0140,1","99999,9","04,5,+00180,1,99,9",,,"04,99,1,99,9,99,9,99999,9,99,9,99,9",,"10200,1,99999,9","05,1",,,,"MET059METAR EGUO 280650Z 28005KT 6000 HZ SCT006 16/14 Q1020 YLO1;",
"03658499999","2010-07-28T07:50:00","4","51.439083","-2.286389","180.74","COLERNE, UK","FM-15","EGUO ","V020","260,1,N,0046,1","22000,1,9,N","008000,1,N,1","+0170,1","+0120,1","99999,9","04,5,+00600,1,99,9",,,"04,99,1,99,9,99,9,99999,9,99,9,99,9",,"10200,1,99999,9",,,,,"MET055METAR EGUO 280750Z 26009KT 8000 SCT020 17/12 Q1020 WHT;",
"03658499999","2010-07-28T08:50:00","4","51.439083","-2.286389","180.74","COLERNE, UK","FM-15","EGUO ","V020","280,1,N,0036,1","22000,1,9,N","011265,1,N,1","+0170,1","+0100,1","99999,9","04,5,+00840,1,99,9",,,"04,99,1,99,9,99,9,99999,9,99,9,99,9",,"10200,1,99999,9",,,,,"MET055METAR EGUO 280850Z 28007KT 9999 SCT028 17/10 Q1020 BLU;",
"03658499999","2010-07-28T09:50:00","4","51.439083","-2.286389","180.74","COLERNE, UK","FM-15","EGUO ","V020","280,1,N,0031,1","00750,1,C,N","011265,1,N,1","+0180,1","+0110,1","99999,9","07,5,+00750,1,99,9",,,"07,99,1,99,9,99,9,99999,9,99,9,99,9",,"10200,1,99999,9",,,,,"MET055METAR EGUO 280950Z 28006KT 9999 BKN025 18/11 Q1020 BLU;",
"03658499999","2010-07-28T10:50:00","4","51.439083","-2.286389","180.74","COLERNE, UK","FM-15","EGUO ","V020","270,1,N,0062,1","22000,1,9,N","011265,1,N,1","+0190,1","+0100,1","99999,9","04,5,+00840,1,99,9",,,"04,99,1,99,9,99,9,99999,9,99,9,99,9",,"10200,1,99999,9",,,,,"MET055METAR EGUO 281050Z 27012KT 9999 SCT028 19/10 Q1020 BLU;",
"03658499999","2010-07-28T11:50:00","4","51.439083","-2.286389","180.74","COLERNE, UK","FM-15","EGUO ","V020","270,1,N,0051,1","22000,1,9,N","011265,1,N,1","+0190,1","+0090,1","99999,9","04,5,+00900,1,99,9",,,"04,99,1,99,9,99,9,99999,9,99,9,99,9",,"10190,1,99999,9",,,,,"MET055METAR EGUO 281150Z 27010KT 9999 SCT030 19/09 Q1019 BLU;",
"03658499999","2010-07-28T12:50:00","4","51.439083","-2.286389","180.74","COLERNE, UK","FM-15","EGUO ","V020","290,1,N,0057,1","22000,1,9,N","011265,1,N,1","+0190,1","+0090,1","99999,9","04,5,+00900,1,99,9",,,"04,99,1,99,9,99,9,99999,9,99,9,99,9",,"10190,1,99999,9",,,,,"MET055METAR EGUO 281250Z 29011KT 9999 SCT030 19/09 Q1019 BLU;",
"03658499999","2010-07-28T13:50:00","4","51.439083","-2.286389","180.74","COLERNE, UK","FM-15","EGUO ","V020","270,1,N,0051,1","22000,1,9,N","011265,1,N,1","+0180,1","+0110,1","99999,9","04,5,+00900,1,99,9",,,"04,99,1,99,9,99,9,99999,9,99,9,99,9",,"10190,1,99999,9",,,,,"MET055METAR EGUO 281350Z 27010KT 9999 SCT030 18/11 Q1019 BLU;",
"03658499999","2010-07-28T14:50:00","4","51.439083","-2.286389","180.74","COLERNE, UK","FM-15","EGUO ","V020","250,1,N,0077,1","22000,1,9,N","011265,1,N,1","+0190,1","+0100,1","99999,9","04,5,+00900,1,99,9",,,"04,99,1,99,9,99,9,99999,9,99,9,99,9",,"10180,1,99999,9",,,,,"MET055METAR EGUO 281450Z 25015KT 9999 SCT030 19/10 Q1018 BLU;",
"03658499999","2010-07-29T06:50:00","4","51.439083","-2.286389","180.74","COLERNE, UK","FM-15","EGUO ","V020","300,1,N,0046,1","99999,9,9,Y","009900,1,N,1","+0140,1","+0110,1","99999,9",,,,,,"10190,1,99999,9",,,,,"MET049METAR EGUO 290650Z 30009KT CAVOK 14/11 Q1019 BLU;",
"03658499999","2010-07-29T07:50:00","4","51.439083","-2.286389","180.74","COLERNE, UK","FM-15","EGUO ","V020","310,1,N,0036,1","99999,9,C,N","011265,1,N,1","+0160,1","+0120,1","99999,9","02,5,+00900,1,99,9","04,5,+02400,1,99,9",,"04,99,1,99,9,99,9,99999,9,99,9,99,9",,"10190,1,99999,9",,,,,"MET062METAR EGUO 290750Z 31007KT 9999 FEW030 SCT080 16/12 Q1019 BLU;","P01 024003SCOCIG"
"03658499999","2010-07-29T08:50:00","4","51.439083","-2.286389","180.74","COLERNE, UK","FM-15","EGUO ","V020","300,1,N,0036,1","22000,1,9,N","011265,1,N,1","+0180,1","+0100,1","99999,9","04,5,+00900,1,99,9",,,"04,99,1,99,9,99,9,99999,9,99,9,99,9",,"10180,1,99999,9",,,,,"MET055METAR EGUO 290850Z 30007KT 9999 SCT030 18/10 Q1018 BLU;",
"03658499999","2010-07-29T10:50:00","4","51.439083","-2.286389","180.74","COLERNE, UK","FM-15","EGUO ","V020","300,1,N,0067,1","00900,1,C,N","011265,1,N,1","+0180,1","+0080,1","99999,9","07,5,+00900,1,99,9",,,"07,99,1,99,9,99,9,99999,9,99,9,99,9",,"10180,1,99999,9",,,,,"MET055METAR EGUO 291050Z 30013KT 9999 BKN030 18/08 Q1018 BLU;",
"03658499999","2010-07-29T11:50:00","4","51.439083","-2.286389","180.74","COLERNE, UK","FM-15","EGUO ","V020","310,1,N,0051,1","00960,1,C,N","011265,1,N,1","+0200,1","+0090,1","99999,9","07,5,+00960,1,99,9",,,"07,99,1,99,9,99,9,99999,9,99,9,99,9",,"10180,1,99999,9",,,,,"MET055METAR EGUO 291150Z 31010KT 9999 BKN032 20/09 Q1018 BLU;",
"03658499999","2010-07-29T12:50:00","4","51.439083","-2.286389","180.74","COLERNE, UK","FM-15","EGUO ","V020","250,1,N,0026,1","01200,1,C,N","011265,1,N,1","+0200,1","+0080,1","99999,9","07,5,+01200,1,99,9",,,"07,99,1,99,9,99,9,99999,9,99,9,99,9",,"10180,1,99999,9",,,,,"MET055METAR EGUO 291250Z 25005KT 9999 BKN040 20/08 Q1018 BLU;",
"03658499999","2010-07-29T13:50:00","4","51.439083","-2.286389","180.74","COLERNE, UK","FM-15","EGUO ","V020","300,1,N,0051,1","01200,1,C,N","011265,1,N,1","+0200,1","+0100,1","99999,9","07,5,+01200,1,99,9",,,"07,99,1,99,9,99,9,99999,9,99,9,99,9",,"10180,1,99999,9",,,,,"MET055METAR EGUO 291350Z 30010KT 9999 BKN040 20/10 Q1018 BLU;",
"03658499999","2010-07-30T06:50:00","4","51.439083","-2.286389","180.74","COLERNE, UK","FM-15","EGUO ","V020","999,9,C,0000,1","02400,1,C,N","011265,1,N,1","+0140,1","+0110,1","99999,9","02,5,+00900,1,99,9","07,5,+02400,1,99,9",,"07,99,1,99,9,99,9,99999,9,99,9,99,9",,"10169,1,99999,9",,,,,"MET062METAR EGUO 300650Z 00000KT 9999 FEW030 BKN080 14/11 Q1017 BLU;",
"03658499999","2010-07-30T07:50:00","4","51.439083","-2.286389","180.74","COLERNE, UK","FM-15","EGUO ","V020","999,9,C,0000,1","02400,1,C,N","011265,1,N,1","+0150,1","+0100,1","99999,9","04,5,+01200,1,99,9","07,5,+02400,1,99,9",,"07,99,1,99,9,99,9,99999,9,99,9,99,9",,"10169,1,99999,9",,,,,"MET062METAR EGUO 300750Z 00000KT 9999 SCT040 BKN080 15/10 Q1017 BLU;",
"03658499999","2010-07-30T08:50:00","4","51.439083","-2.286389","180.74","COLERNE, UK","FM-15","EGUO ","V020","999,9,C,0000,1","02100,1,C,N","011265,1,N,1","+0160,1","+0090,1","99999,9","02,5,+00840,1,99,9","07,5,+02100,1,99,9",,"07,99,1,99,9,99,9,99999,9,99,9,99,9",,"10169,1,99999,9",,,,,"MET062METAR EGUO 300850Z 00000KT 9999 FEW028 BKN070 16/09 Q1017 BLU;",
"03658499999","2010-07-30T09:50:00","4","51.439083","-2.286389","180.74","COLERNE, UK","FM-15","EGUO ","V020","230,1,N,0051,1","01800,1,C,N","011265,1,N,1","+0170,1","+0090,1","99999,9","02,5,+00840,1,99,9","07,5,+01800,1,99,9",,"07,99,1,99,9,99,9,99999,9,99,9,99,9",,"10159,1,99999,9",,,,,"MET062METAR EGUO 300950Z 23010KT 9999 FEW028 BKN060 17/09 Q1016 BLU;",
"03658499999","2010-07-30T10:50:00","4","51.439083","-2.286389","180.74","COLERNE, UK","FM-15","EGUO ","V020","230,1,N,0062,1","02400,1,C,N","011265,1,N,1","+0170,1","+0100,1","99999,9","02,5,+00900,1,99,9","07,5,+02400,1,99,9",,"07,99,1,99,9,99,9,99999,9,99,9,99,9",,"10159,1,99999,9",,,,,"MET062METAR EGUO 301050Z 23012KT 9999 FEW030 BKN080 17/10 Q1016 BLU;",
"03658499999","2010-07-30T11:50:00","4","51.439083","-2.286389","180.74","COLERNE, UK","FM-15","EGUO ","V020","240,1,N,0051,1","02100,1,C,N","011265,1,N,1","+0170,1","+0100,1","99999,9","02,5,+00900,1,99,9","07,5,+02100,1,99,9",,"07,99,1,99,9,99,9,99999,9,99,9,99,9",,"10159,1,99999,9",,,,,"MET062METAR EGUO 301150Z 24010KT 9999 FEW030 BKN070 17/10 Q1016 BLU;",
"03658499999","2010-07-30T12:50:00","4","51.439083","-2.286389","180.74","COLERNE, UK","FM-15","EGUO ","V020","220,1,N,0046,1","02100,1,C,N","011265,1,N,1","+0190,1","+0110,1","99999,9","02,5,+01350,1,99,9","07,5,+02100,1,99,9",,"07,99,1,99,9,99,9,99999,9,99,9,99,9",,"10149,1,99999,9",,,,,"MET062METAR EGUO 301250Z 22009KT 9999 FEW045 BKN070 19/11 Q1015 BLU;",
"03658499999","2010-07-30T14:50:00","4","51.439083","-2.286389","180.74","COLERNE, UK","FM-15","EGUO ","V020","210,1,N,0026,1","00900,1,C,N","011265,1,N,1","+0190,1","+0110,1","99999,9","07,5,+00900,1,99,9",,,"07,99,1,99,9,99,9,99999,9,99,9,99,9",,"10149,1,99999,9",,,,,"MET055METAR EGUO 301450Z 21005KT 9999 BKN030 19/11 Q1015 BLU;",
"03658499999","2010-08-02T06:50:00","4","51.439083","-2.286389","180.74","COLERNE, UK","FM-15","EGUO ","V020","999,9,C,0000,1","99999,9,9,Y","009900,1,N,1","+0140,1","+0110,1","99999,9",,,,,,"10190,1,99999,9",,,,,"MET049METAR EGUO 020650Z 00000KT CAVOK 14/11 Q1019 BLU;",
"03658499999","2010-08-02T07:50:00","4","51.439083","-2.286389","180.74","COLERNE, UK","FM-15","EGUO ","V020","010,1,N,0051,1","22000,1,9,N","011265,1,N,1","+0160,1","+0100,1","99999,9","02,5,+00900,1,99,9",,,"02,99,1,99,9,99,9,99999,9,99,9,99,9",,"10190,1,99999,9",,,,,"MET055METAR EGUO 020750Z 01010KT 9999 FEW030 16/10 Q1019 BLU;",
"03658499999","2010-08-02T08:50:00","4","51.439083","-2.286389","180.74","COLERNE, UK","FM-15","EGUO ","V020","330,1,N,0046,1","99999,9,C,N","011265,1,N,1","+0170,1","+0100,1","99999,9","02,5,+00300,1,99,9","04,5,+00750,1,99,9",,"04,99,1,99,9,99,9,99999,9,99,9,99,9",,"10190,1,99999,9",,,,,"MET062METAR EGUO 020850Z 33009KT 9999 FEW010 SCT025 17/10 Q1019 BLU;","P01 007503SCOCIG"
"03658499999","2010-08-02T09:50:00","4","51.439083","-2.286389","180.74","COLERNE, UK","FM-15","EGUO ","V020","340,1,N,0041,1","22000,1,9,N","011265,1,N,1","+0170,1","+0100,1","99999,9","04,5,+00750,1,99,9",,,"04,99,1,99,9,99,9,99999,9,99,9,99,9",,"10190,1,99999,9",,,,,"MET055METAR EGUO 020950Z 34008KT 9999 SCT025 17/10 Q1019 BLU;",
"03658499999","2010-08-02T10:50:00","4","51.439083","-2.286389","180.74","COLERNE, UK","FM-15","EGUO ","V020","300,1,N,0051,1","00750,1,C,N","011265,1,N,1","+0180,1","+0100,1","99999,9","07,5,+00750,1,99,9",,,"07,99,1,99,9,99,9,99999,9,99,9,99,9",,"10200,1,99999,9",,,,,"MET055METAR EGUO 021050Z 30010KT 9999 BKN025 18/10 Q1020 BLU;",
"03658499999","2010-08-02T11:50:00","4","51.439083","-2.286389","180.74","COLERNE, UK","FM-15","EGUO ","V020","310,1,N,0026,1","99999,9,C,N","011265,1,N,1","+0190,1","+0090,1","99999,9","02,5,+00750,1,99,9","04,5,+01200,1,99,9",,"04,99,1,99,9,99,9,99999,9,99,9,99,9",,"10190,1,99999,9",,,,,"MET062METAR EGUO 021150Z 31005KT 9999 FEW025 SCT040 19/09 Q1019 BLU;","P01 012003SCOCIG"
"03658499999","2010-08-02T12:50:00","4","51.439083","-2.286389","180.74","COLERNE, UK","FM-15","EGUO ","V020","310,1,N,0026,1","22000,1,9,N","011265,1,N,1","+0190,1","+0090,1","99999,9","04,5,+00750,1,99,9",,,"04,99,1,99,9,99,9,99999,9,99,9,99,9",,"10190,1,99999,9",,,,,"MET055METAR EGUO 021250Z 31005KT 9999 SCT025 19/09 Q1019 BLU;",
"03658499999","2010-08-02T13:50:00","4","51.439083","-2.286389","180.74","COLERNE, UK","FM-15","EGUO ","V020","300,1,N,0051,1","22000,1,9,N","011265,1,N,1","+0210,1","+0080,1","99999,9","04,5,+00750,1,99,9",,,"04,99,1,99,9,99,9,99999,9,99,9,99,9",,"10190,1,99999,9",,,,,"MET055METAR EGUO 021350Z 30010KT 9999 SCT025 21/08 Q1019 BLU;",
"03658499999","2010-08-02T14:50:00","4","51.439083","-2.286389","180.74","COLERNE, UK","FM-15","EGUO ","V020","270,1,N,0041,1","00750,1,C,N","011265,1,N,1","+0200,1","+0090,1","99999,9","07,5,+00750,1,99,9",,,"07,99,1,99,9,99,9,99999,9,99,9,99,9",,"10190,1,99999,9",,,,,"MET055METAR EGUO 021450Z 27008KT 9999 BKN025 20/09 Q1019 BLU;",
"03658499999","2010-08-03T06:50:00","4","51.439083","-2.286389","180.74","COLERNE, UK","FM-15","EGUO ","V020","999,9,C,0000,1","00840,1,C,N","011265,1,N,1","+0130,1","+0100,1","99999,9","02,5,+00450,1,99,9","07,5,+00840,1,99,9",,"07,99,1,99,9,99,9,99999,9,99,9,99,9",,"10190,1,99999,9",,,,,"MET062METAR EGUO 030650Z 00000KT 9999 FEW015 BKN028 13/10 Q1019 BLU;",
"03658499999","2010-08-03T07:20:00","4","51.439083","-2.286389","180.74","COLERNE, UK","FM-15","EGUO ","V020","999,9,C,0000,1","00840,1,C,N","011265,1,N,1","+0130,1","+0100,1","99999,9","02,5,+00450,1,99,9","07,5,+00840,1,99,9",,"07,99,1,99,9,99,9,99999,9,99,9,99,9",,"10190,1,99999,9",,,,,"MET062METAR EGUO 030720Z 00000KT 9999 FEW015 BKN028 13/10 Q1019 BLU;",
"03658499999","2010-08-03T08:50:00","4","51.439083","-2.286389","180.74","COLERNE, UK","FM-15","EGUO ","V020","999,9,C,0000,1","00600,1,C,N","011265,1,N,1","+0160,1","+0110,1","99999,9","02,5,+00360,1,99,9","04,5,+00600,1,99,9","07,5,+02100,1,99,9","07,99,1,99,9,99,9,99999,9,99,9,99,9",,"10180,1,99999,9",,,,,"MET069METAR EGUO 030850Z 00000KT 9999 FEW012 SCT020 BKN070 16/11 Q1018 WHT;",
"03658499999","2010-08-03T09:50:00","4","51.439083","-2.286389","180.74","COLERNE, UK","FM-15","EGUO ","V020","999,9,C,0000,1","00600,1,C,N","011265,1,N,1","+0160,1","+0120,1","99999,9","02,5,+00300,1,99,9","07,5,+00600,1,99,9",,"07,99,1,99,9,99,9,99999,9,99,9,99,9",,"10180,1,99999,9",,,,,"MET062METAR EGUO 030950Z 00000KT 9999 FEW010 BKN020 16/12 Q1018 WHT;",
"03658499999","2010-08-03T10:50:00","4","51.439083","-2.286389","180.74","COLERNE, UK","FM-15","EGUO ","V020","230,1,N,0041,1","00750,1,C,N","011265,1,N,1","+0170,1","+0110,1","99999,9","02,5,+00300,1,99,9","07,5,+00750,1,99,9",,"07,99,1,99,9,99,9,99999,9,99,9,99,9",,"10180,1,99999,9",,,,,"MET062METAR EGUO 031050Z 23008KT 9999 FEW010 BKN025 17/11 Q1018 BLU;",
"03658499999","2010-08-03T11:50:00","4","51.439083","-2.286389","180.74","COLERNE, UK","FM-15","EGUO ","V020","240,1,N,0026,1","00600,1,C,N","011265,1,N,1","+0190,1","+0120,1","99999,9","07,5,+00600,1,99,9",,,"07,99,1,99,9,99,9,99999,9,99,9,99,9",,"10169,1,99999,9",,,,,"MET055METAR EGUO 031150Z 24005KT 9999 BKN020 19/12 Q1017 BLU;",
"03658499999","2010-08-03T12:50:00","4","51.439083","-2.286389","180.74","COLERNE, UK","FM-15","EGUO ","V020","210,1,N,0041,1","00600,1,C,N","011265,1,N,1","+0190,1","+0130,1","99999,9","07,5,+00600,1,99,9",,,"07,99,1,99,9,99,9,99999,9,99,9,99,9",,"10169,1,99999,9",,,,,"MET055METAR EGUO 031250Z 21008KT 9999 BKN020 19/13 Q1017 BLU;",
"03658499999","2010-08-03T13:50:00","4","51.439083","-2.286389","180.74","COLERNE, UK","FM-15","EGUO ","V020","250,1,N,0031,1","00600,1,C,N","005000,1,N,1","+0170,1","+0140,1","99999,9","04,5,+00450,1,99,9","07,5,+00600,1,99,9",,"07,99,1,99,9,99,9,99999,9,99,9,99,9",,"10159,1,99999,9","51,1",,,,"MET066METAR EGUO 031350Z 25006KT 5000 -DZ SCT015 BKN020 17/14 Q1016 WHT;",
"03658499999","2010-08-03T14:50:00","4","51.439083","-2.286389","180.74","COLERNE, UK","FM-15","EGUO ","V020","230,1,N,0057,1","00600,1,C,N","011265,1,N,1","+0200,1","+0130,1","99999,9","04,5,+00450,1,99,9","07,5,+00600,1,99,9",,"07,99,1,99,9,99,9,99999,9,99,9,99,9",,"10159,1,99999,9",,,,,"MET062METAR EGUO 031450Z 23011KT 9999 SCT015 BKN020 20/13 Q1016 WHT;",
"03658499999","2010-08-04T06:50:00","4","51.439083","-2.286389","180.74","COLERNE, UK","FM-15","EGUO ","V020","270,1,N,0062,1","99999,9,C,N","011265,1,N,1","+0150,1","+0130,1","99999,9","02,5,+00300,1,99,9","04,5,+00450,1,99,9",,"04,99,1,99,9,99,9,99999,9,99,9,99,9",,"10091,1,99999,9",,,,,"MET062METAR EGUO 040650Z 27012KT 9999 FEW010 SCT015 15/13 Q1009 WHT;","P01 004503SCOCIG"
"03658499999","2010-08-04T07:50:00","4","51.439083","-2.286389","180.74","COLERNE, UK","FM-15","EGUO ","V020","230,1,N,0051,1","99999,9,C,N","011265,1,N,1","+0150,1","+0130,1","99999,9","02,5,+00240,1,99,9","04,5,+00300,1,99,9",,"04,99,1,99,9,99,9,99999,9,99,9,99,9",,"10081,1,99999,9","51,1",,,,"MET066METAR EGUO 040750Z 23010KT 9999 -DZ FEW008 SCT010 15/13 Q1008 GRN;","P01 003003SCOCIG"
"03658499999","2010-08-04T08:50:00","4","51.439083","-2.286389","180.74","COLERNE, UK","FM-15","EGUO ","V020","220,1,N,0041,1","00120,1,C,N","001500,1,N,1","+0140,1","+0140,1","99999,9","08,5,+00120,1,99,9",,,"08,99,1,99,9,99,9,99999,9,99,9,99,9",,"10081,1,99999,9","65,1",,,,"MET059METAR EGUO 040850Z 22008KT 1500 +RA OVC004 14/14 Q1008 AMB;",
"03658499999","2010-08-04T09:50:00","4","51.439083","-2.286389","180.74","COLERNE, UK","FM-15","EGUO ","V020","240,1,N,0021,1","00120,1,C,N","008000,1,N,1","+0160,1","+0150,1","99999,9","07,5,+00120,1,99,9",,,"07,99,1,99,9,99,9,99999,9,99,9,99,9",,"99999,9,99999,9","10,1",,,,"MET059METAR EGUO 040950Z 24004KT 8000 BR BKN004 16/15 Q1017 YLO2;","Q01+101693APOA  Q02 101703APOA  "
"03658499999","2010-08-04T10:50:00","4","51.439083","-2.286389","180.74","COLERNE, UK","FM-15","EGUO ","V020","250,1,N,0021,1","22000,1,9,N","011265,1,N,1","+0180,1","+0140,1","99999,9","04,5,+00180,1,99,9",,,"04,99,1,99,9,99,9,99999,9,99,9,99,9",,"10071,1,99999,9",,,,,"MET056METAR EGUO 041050Z 25004KT 9999 SCT006 18/14 Q1007 YLO1;",
"03658499999","2010-08-04T11:50:00","4","51.439083","-2.286389","180.74","COLERNE, UK","FM-15","EGUO ","V020","330,1,N,0087,1","99999,9,C,N","011265,1,N,1","+0170,1","+0130,1","99999,9","02,5,+00240,1,99,9","04,5,+00600,1,99,9",,"04,99,1,99,9,99,9,99999,9,99,9,99,9",,"10071,1,99999,9",,,,,"MET062METAR EGUO 041150Z 33017KT 9999 FEW008 SCT020 17/13 Q1007 WHT;","P01 006003SCOCIG"
"03658499999","2010-08-04T12:50:00","4","51.439083","-2.286389","180.74","COLERNE, UK","FM-15","EGUO ","V020","010,1,N,0082,1","99999,9,C,N","011265,1,N,1","+0170,1","+0110,1","99999,9","02,5,+00300,1,99,9","04,5,+00600,1,99,9",,"04,99,1,99,9,99,9,99999,9,99,9,99,9",,"10081,1,99999,9",,,,,"MET062METAR EGUO 041250Z 01016KT 9999 FEW010 SCT020 17/11 Q1008 WHT;","P01 006003SCOCIG"
"03658499999","2010-08-04T13:50:00","4","51.439083","-2.286389","180.74","COLERNE, UK","FM-15","EGUO ","V020","010,1,N,0082,1","22000,1,9,N","011265,1,N,1","+0180,1","+0110,1","99999,9","04,5,+00360,1,99,9",,,"04,99,1,99,9,99,9,99999,9,99,9,99,9",,"10081,1,99999,9",,,,,"MET055METAR EGUO 041350Z 01016KT 9999 SCT012 18/11 Q1008 GRN;",
"03658499999","2010-08-04T14:50:00","4","51.439083","-2.286389","180.74","COLERNE, UK","FM-15","EGUO ","V020","340,1,N,0057,1","22000,1,9,N","011265,1,N,1","+0170,1","+0090,1","99999,9","04,5,+00600,1,99,9",,,"04,99,1,99,9,99,9,99999,9,99,9,99,9",,"10081,1,99999,9",,,,,"MET055METAR EGUO 041450Z 34011KT 9999 SCT020 17/09 Q1008 WHT;",
"03658499999","2010-08-05T06:50:00","4","51.439083","-2.286389","180.74","COLERNE, UK","FM-15","EGUO ","V020","250,1,N,0041,1","00900,1,C,N","011265,1,N,1","+0130,1","+0090,1","99999,9","07,5,+00900,1,99,9",,,"07,99,1,99,9,99,9,99999,9,99,9,99,9",,"10139,1,99999,9",,,,,"MET055METAR EGUO 050650Z 25008KT 9999 BKN030 13/09 Q1014 BLU;",
"03658499999","2010-08-05T07:50:00","4","51.439083","-2.286389","180.74","COLERNE, UK","FM-15","EGUO ","V020","300,1,N,0026,1","00900,1,C,N","011265,1,N,1","+0140,1","+0090,1","99999,9","07,5,+00900,1,99,9",,,"07,99,1,99,9,99,9,99999,9,99,9,99,9",,"10139,1,99999,9",,,,,"MET055METAR EGUO 050750Z 30005KT 9999 BKN030 14/09 Q1014 BLU;",
"03658499999","2010-08-05T08:50:00","4","51.439083","-2.286389","180.74","COLERNE, UK","FM-15","EGUO ","V020","300,1,N,0062,1","00900,1,C,N","011265,1,N,1","+0150,1","+0080,1","99999,9","02,5,+00750,1,99,9","07,5,+00900,1,99,9",,"07,99,1,99,9,99,9,99999,9,99,9,99,9",,"10139,1,99999,9",,,,,"MET062METAR EGUO 050850Z 30012KT 9999 FEW025 BKN030 15/08 Q1014 BLU;",
"03658499999","2010-08-05T09:50:00","4","51.439083","-2.286389","180.74","COLERNE, UK","FM-15","EGUO ","V020","260,1,N,0041,1","00900,1,C,N","011265,1,N,1","+0150,1","+0090,1","99999,9","02,5,+00750,1,99,9","07,5,+00900,1,99,9",,"07,99,1,99,9,99,9,99999,9,99,9,99,9",,"10139,1,99999,9",,,,,"MET062METAR EGUO 050950Z 26008KT 9999 FEW025 BKN030 15/09 Q1014 BLU;",
"03658499999","2010-08-05T10:50:00","4","51.439083","-2.286389","180.74","COLERNE, UK","FM-15","EGUO ","V020","250,1,N,0067,1","22000,1,9,N","011265,1,N,1","+0170,1","+0080,1","99999,9","04,5,+00900,1,99,9",,,"04,99,1,99,9,99,9,99999,9,99,9,99,9",,"10139,1,99999,9",,,,,"MET055METAR EGUO 051050Z 25013KT 9999 SCT030 17/08 Q1014 BLU;",
"03658499999","2010-08-05T11:50:00","4","51.439083","-2.286389","180.74","COLERNE, UK","FM-15","EGUO ","V020","310,1,N,0051,1","22000,1,9,N","011265,1,N,1","+0190,1","+0060,1","99999,9","04,5,+00900,1,99,9",,,"04,99,1,99,9,99,9,99999,9,99,9,99,9",,"10139,1,99999,9",,,,,"MET055METAR EGUO 051150Z 31010KT 9999 SCT030 19/06 Q1014 BLU;",
"03658499999","2010-08-05T12:50:00","4","51.439083","-2.286389","180.74","COLERNE, UK","FM-15","EGUO ","V020","260,1,N,0062,1","22000,1,9,N","011265,1,N,1","+0180,1","+0070,1","99999,9","04,5,+00900,1,99,9",,,"04,99,1,99,9,99,9,99999,9,99,9,99,9",,"10149,1,99999,9",,,,,"MET055METAR EGUO 051250Z 26012KT 9999 SCT030 18/07 Q1015 BLU;",
"03658499999","2010-08-05T13:50:00","4","51.439083","-2.286389","180.74","COLERNE, UK","FM-15","EGUO ","V020","270,1,N,0051,1","22000,1,9,N","011265,1,N,1","+0190,1","+0070,1","99999,9","04,5,+00900,1,99,9",,,"04,99,1,99,9,99,9,99999,9,99,9,99,9",,"10149,1,99999,9",,,,,"MET055METAR EGUO 051350Z 27010KT 9999 SCT030 19/07 Q1015 BLU;",
"03658499999","2010-08-05T14:50:00","4","51.439083","-2.286389","180.74","COLERNE, UK","FM-15","EGUO ","V020","300,1,N,0067,1","22000,1,9,N","011265,1,N,1","+0180,1","+0070,1","99999,9","04,5,+00900,1,99,9",,,"04,99,1,99,9,99,9,99999,9,99,9,99,9",,"10149,1,99999,9",,,,,"MET055METAR EGUO 051450Z 30013KT 9999 SCT030 18/07 Q1015 BLU;",
"03658499999","2010-08-06T06:50:00","4","51.439083","-2.286389","180.74","COLERNE, UK","FM-15","EGUO ","V020","220,1,N,0041,1","01500,1,C,N","011265,1,N,1","+0140,1","+0120,1","99999,9","02,5,+00360,1,99,9","07,5,+01500,1,99,9",,"07,99,1,99,9,99,9,99999,9,99,9,99,9",,"10149,1,99999,9",,,,,"MET062METAR EGUO 060650Z 22008KT 9999 FEW012 BKN050 14/12 Q1015 BLU;",
"03658499999","2010-08-06T07:50:00","4","51.439083","-2.286389","180.74","COLERNE, UK","FM-15","EGUO ","V020","190,1,N,0041,1","00900,1,C,N","011265,1,N,1","+0150,1","+0120,1","99999,9","02,5,+00300,1,99,9","07,5,+00900,1,99,9",,"07,99,1,99,9,99,9,99999,9,99,9,99,9",,"10149,1,99999,9",,,,,"MET062METAR EGUO 060750Z 19008KT 9999 FEW010 BKN030 15/12 Q1015 BLU;",
"03658499999","2010-08-06T08:50:00","4","51.439083","-2.286389","180.74","COLERNE, UK","FM-15","EGUO ","V020","210,1,N,0062,1","22000,1,9,N","011265,1,N,1","+0160,1","+0130,1","99999,9",,,,,,"10149,1,99999,9","16,1",,,,"MET059METAR EGUO 060850Z 21012KT 9999 7000N VCSH 16/13 Q1015 GRN;",
"03658499999","2010-08-09T06:50:00","4","51.439083","-2.286389","180.74","COLERNE, UK","FM-15","EGUO ","V020","230,1,N,0031,1","99999,9,C,N","011265,1,N,1","+0130,1","+0090,1","99999,9","02,5,+00660,1,99,9","04,5,+00900,1,99,9",,"04,99,1,99,9,99,9,99999,9,99,9,99,9",,"10169,1,99999,9",,,,,"MET062METAR EGUO 090650Z 23006KT 9999 FEW022 SCT030 13/09 Q1017 BLU;","P01 009003SCOCIG"
"03658499999","2010-08-09T07:50:00","4","51.439083","-2.286389","180.74","COLERNE, UK","FM-15","EGUO ","V020","230,1,N,0041,1","99999,9,9,Y","009900,1,N,1","+0140,1","+0100,1","99999,9",,,,,,"10169,1,99999,9",,,,,"MET049METAR EGUO 090750Z 23008KT CAVOK 14/10 Q1017 BLU;",
"03658499999","2010-08-09T08:50:00","4","51.439083","-2.286389","180.74","COLERNE, UK","FM-15","EGUO ","V020","210,1,N,0051,1","22000,1,9,N","011265,1,N,1","+0170,1","+0110,1","99999,9","04,5,+00720,1,99,9",,,"04,99,1,99,9,99,9,99999,9,99,9,99,9",,"10169,1,99999,9",,,,,"MET055METAR EGUO 090850Z 21010KT 9999 SCT024 17/11 Q1017 WHT;",
"03658499999","2010-08-09T09:50:00","4","51.439083","-2.286389","180.74","COLERNE, UK","FM-15","EGUO ","V020","240,1,N,0062,1","22000,1,9,N","011265,1,N,1","+0170,1","+0100,1","99999,9","04,5,+00840,1,99,9",,,"04,99,1,99,9,99,9,99999,9,99,9,99,9",,"10169,1,99999,9",,,,,"MET055METAR EGUO 090950Z 24012KT 9999 SCT028 17/10 Q1017 BLU;",
"03658499999","2010-08-09T10:50:00","4","51.439083","-2.286389","180.74","COLERNE, UK","FM-15","EGUO ","V020","240,1,N,0051,1","22000,1,9,N","011265,1,N,1","+0190,1","+0100,1","99999,9","02,5,+00960,1,99,9",,,"02,99,1,99,9,99,9,99999,9,99,9,99,9",,"10159,1,99999,9",,,,,"MET055METAR EGUO 091050Z 24010KT 9999 FEW032 19/10 Q1016 BLU;",
"03658499999","2010-08-09T11:50:00","4","51.439083","-2.286389","180.74","COLERNE, UK","FM-15","EGUO ","V020","220,1,N,0051,1","22000,1,9,N","011265,1,N,1","+0210,1","+0100,1","99999,9","02,5,+01200,1,99,9","04,1,+01800,1,99,9",,"04,99,1,99,9,99,9,99999,9,99,9,99,9",,"10159,1,99999,9",,,,,"MET061METAR EGUO 091150Z 22010KT 9999 FEW040 SCT60 21/10 Q1016 BLU;",
"03658499999","2010-08-09T12:50:00","4","51.439083","-2.286389","180.74","COLERNE, UK","FM-15","EGUO ","V020","230,1,N,0062,1","00660,1,C,N","011265,1,N,1","+0190,1","+0120,1","99999,9","02,5,+00360,1,99,9","07,5,+00660,1,99,9",,"07,99,1,99,9,99,9,99999,9,99,9,99,9",,"10149,1,99999,9","51,1",,,,"MET066METAR EGUO 091250Z 23012KT 9999 -DZ FEW012 BKN022 19/12 Q1015 WHT;",
"03658499999","2010-08-09T13:50:00","4","51.439083","-2.286389","180.74","COLERNE, UK","FM-15","EGUO ","V020","220,1,N,0067,1","00240,1,C,N","007000,1,N,1","+0180,1","+0130,1","99999,9","02,5,+00150,1,99,9","07,5,+00240,1,99,9",,"07,99,1,99,9,99,9,99999,9,99,9,99,9",,"10149,1,99999,9","55,1",,,,"MET073METAR EGUO 091350Z 22013KT 7000 3500W +DZ FEW005 BKN008 18/13 Q1015 YLO1;",
"03658499999","2010-08-10T06:50:00","4","51.439083","-2.286389","180.74","COLERNE, UK","FM-15","EGUO ","V020","240,1,N,0041,1","22000,1,9,N","008000,1,N,1","+0120,1","+0100,1","99999,9","04,5,+00600,1,99,9",,,"04,99,1,99,9,99,9,99999,9,99,9,99,9",,"10119,1,99999,9","51,1",,,,"MET059METAR EGUO 100650Z 24008KT 8000 -DZ SCT020 12/10 Q1012 WHT;",
"03658499999","2010-08-10T07:50:00","4","51.439083","-2.286389","180.74","COLERNE, UK","FM-15","EGUO ","V020","210,1,N,0036,1","01500,1,C,N","011265,1,N,1","+0120,1","+0110,1","99999,9","02,5,+00180,1,99,9","08,5,+01500,1,99,9",,"08,99,1,99,9,99,9,99999,9,99,9,99,9",,"10102,1,99999,9",,,,,"MET068METAR EGUO 100750Z 21007KT 9999 6000S FEW006 OVC050 12/11 Q1010 BLU;",
"03658499999","2010-08-10T08:50:00","4","51.439083","-2.286389","180.74","COLERNE, UK","FM-15","EGUO ","V020","999,9,9,9999,9","01050,5,9,N","011265,1,N,1","+0130,1","+0120,1","99999,9","02,5,+00180,5,99,9","08,5,+01050,5,99,9",,,"999,M,+9999,9","10120,1,99999,9",,,,,"MET073METAR EGUO 100850Z 100850Z24010KT 9999 +RA FEW006 OVC035 13/12 Q1012 BLU;","Q01 +00852ATMX  "
"03658499999","2010-08-10T09:50:00","4","51.439083","-2.286389","180.74","COLERNE, UK","FM-15","EGUO ","V020","230,1,N,0051,1","00540,1,C,N","008000,1,N,1","+0130,1","+0120,1","99999,9","04,5,+00180,1,99,9","08,5,+00540,1,99,9",,"08,99,1,99,9,99,9,99999,9,99,9,99,9",,"10108,1,99999,9","65,1",,,,"MET067METAR EGUO 100950Z 23010KT 8000 +RA SCT006 OVC018 13/12 Q1011 YLO1;",
"03658499999","2010-08-11T06:50:00","4","51.439083","-2.286389","180.74","COLERNE, UK","FM-15","EGUO ","V020","999,9,C,0000,1","99999,9,C,N","008000,1,N,1","+0140,1","+0130,1","99999,9","02,5,+00300,1,99,9","04,5,+02400,1,99,9",,"04,99,1,99,9,99,9,99999,9,99,9,99,9",,"10139,1,99999,9","05,1",,,,"MET065METAR EGUO 110650Z 00000KT 8000 HZ FEW010 SCT080 14/13 Q1014 BLU;","P01 024003SCOCIG"
"03658499999","2010-08-11T07:50:00","4","51.439083","-2.286389","180.74","COLERNE, UK","FM-15","EGUO ","V020","999,9,9,9999,9","02400,5,9,N","008000,1,N,1","+0150,1","+0130,1","99999,9","02,5,+00300,5,99,9","04,5,+02400,5,99,9",,,"999,M,+9999,9","10150,1,99999,9",,,,,"MET072METAR EGUO 110750Z 110750Z30005KT 8000 HZ FEW010 SCT080 15/13 Q1015 BLU;","Q01 -00752ATMX  "
"03658499999","2010-08-11T08:50:00","4","51.439083","-2.286389","180.74","COLERNE, UK","FM-15","EGUO ","V020","999,9,9,9999,9","02400,5,9,N","011265,1,N,1","+0170,1","+0110,1","99999,9","02,5,+00600,5,99,9","07,5,+02400,5,99,9",,,"999,M,+9999,9","10150,1,99999,9",,,,,"MET069METAR EGUO 110850Z 110850Z30005KT 9999 FEW020 BKN080 17/11 Q1015 BLU;","Q01 -00852ATMX  "
"03658499999","2010-08-11T09:50:00","4","51.439083","-2.286389","180.74","COLERNE, UK","FM-15","EGUO ","V020","999,9,C,0000,1","02400,1,C,N","011265,1,N,1","+0170,1","+0100,1","99999,9","04,5,+00600,1,99,9","07,5,+02400,1,99,9",,"07,99,1,99,9,99,9,99999,9,99,9,99,9",,"10149,1,99999,9",,,,,"MET062METAR EGUO 110950Z 00000KT 9999 SCT020 BKN080 17/10 Q1015 WHT;",
"03658499999","2010-08-11T10:50:00","4","51.439083","-2.286389","180.74","COLERNE, UK","FM-15","EGUO ","V020","310,1,N,0041,1","22000,1,9,N","011265,1,N,1","+0170,1","+0100,1","99999,9","04,5,+00690,1,99,9",,,"04,99,1,99,9,99,9,99999,9,99,9,99,9",,"10149,1,99999,9",,,,,"MET055METAR EGUO 111050Z 31008KT 9999 SCT023 17/10 Q1015 WHT;",
"03658499999","2010-08-11T11:50:00","4","51.439083","-2.286389","180.74","COLERNE, UK","FM-15","EGUO ","V020","270,1,N,0041,1","22000,1,9,N","011265,1,N,1","+0180,1","+0090,1","99999,9","04,5,+00600,1,99,9",,,"04,99,1,99,9,99,9,99999,9,99,9,99,9",,"10149,1,99999,9",,,,,"MET055METAR EGUO 111150Z 27008KT 9999 SCT020 18/09 Q1015 WHT;",
"03658499999","2010-08-11T12:50:00","4","51.439083","-2.286389","180.74","COLERNE, UK","FM-15","EGUO ","V020","300,1,N,0057,1","22000,1,9,N","011265,1,N,1","+0180,1","+0090,1","99999,9","04,5,+00780,1,99,9",,,"04,99,1,99,9,99,9,99999,9,99,9,99,9",,"10149,1,99999,9",,,,,"MET055METAR EGUO 111250Z 30011KT 9999 SCT026 18/09 Q1015 BLU;",
"03658499999","2010-08-11T13:50:00","4","51.439083","-2.286389","180.74","COLERNE, UK","FM-15","EGUO ","V020","300,1,N,0036,1","22000,1,9,N","011265,1,N,1","+0190,1","+0090,1","99999,9","04,5,+00840,1,99,9",,,"04,99,1,99,9,99,9,99999,9,99,9,99,9",,"10149,1,99999,9",,,,,"MET055METAR EGUO 111350Z 30007KT 9999 SCT028 19/09 Q1015 BLU;",
"03658499999","2010-08-11T14:50:00","4","51.439083","-2.286389","180.74","COLERNE, UK","FM-15","EGUO ","V020","270,1,N,0036,1","22000,1,9,N","011265,1,N,1","+0190,1","+0100,1","99999,9","04,5,+00780,1,99,9",,,"04,99,1,99,9,99,9,99999,9,99,9,99,9",,"10149,1,99999,9",,,,,"MET055METAR EGUO 111450Z 27007KT 9999 SCT026 19/10 Q1015 BLU;",
"03658499999","2010-08-12T06:50:00","4","51.439083","-2.286389","180.74","COLERNE, UK","FM-15","EGUO ","V020","280,1,N,0041,1","99999,9,9,Y","009900,1,N,1","+0130,1","+0130,1","99999,9",,,,,,"10169,1,99999,9",,,,,"MET049METAR EGUO 120650Z 28008KT CAVOK 13/13 Q1017 BLU;",
"03658499999","2010-08-12T07:50:00","4","51.439083","-2.286389","180.74","COLERNE, UK","FM-15","EGUO ","V020","300,1,N,0077,1","99999,9,9,Y","009900,1,N,1","+0160,1","+0090,1","99999,9",,,,,,"10180,1,99999,9",,,,,"MET049METAR EGUO 120750Z 30015KT CAVOK 16/09 Q1018 BLU;",
"03658499999","2010-08-12T08:50:00","4","51.439083","-2.286389","180.74","COLERNE, UK","FM-15","EGUO ","V020","310,1,N,0057,1","99999,9,C,N","011265,1,N,1","+0160,1","+0070,1","99999,9","02,5,+01050,1,99,9","04,5,+01500,1,99,9",,"04,99,1,99,9,99,9,99999,9,99,9,99,9",,"10180,1,99999,9",,,,,"MET062METAR EGUO 120850Z 31011KT 9999 FEW035 SCT050 16/07 Q1018 BLU;","P01 015003SCOCIG"
"03658499999","2010-08-12T09:50:00","4","51.439083","-2.286389","180.74","COLERNE, UK","FM-15","EGUO ","V020","310,1,N,0072,1","01500,1,C,N","011265,1,N,1","+0170,1","+0080,1","99999,9","04,5,+00600,1,99,9","07,5,+01500,1,99,9",,"07,99,1,99,9,99,9,99999,9,99,9,99,9",,"10180,1,99999,9",,,,,"MET062METAR EGUO 120950Z 31014KT 9999 SCT020 BKN050 17/08 Q1018 WHT;",
"03658499999","2010-08-12T10:50:00","4","51.439083","-2.286389","180.74","COLERNE, UK","FM-15","EGUO ","V020","300,1,N,0051,1","00750,1,C,N","011265,1,N,1","+0160,1","+0090,1","99999,9","02,5,+00450,1,99,9","04,5,+00750,1,99,9","07,5,+01140,1,99,9","07,99,1,99,9,99,9,99999,9,99,9,99,9",,"10180,1,99999,9",,,,,"MET069METAR EGUO 121050Z 30010KT 9999 FEW015 SCT025 BKN038 16/09 Q1018 BLU;",
"03658499999","2010-08-12T11:50:00","4","51.439083","-2.286389","180.74","COLERNE, UK","FM-15","EGUO ","V020","300,1,N,0072,1","00750,1,C,N","011265,1,N,1","+0170,1","+0090,1","99999,9","02,5,+00600,1,99,9","07,5,+00750,1,99,9",,"07,99,1,99,9,99,9,99999,9,99,9,99,9",,"10180,1,99999,9",,,,,"MET062METAR EGUO 121150Z 30014KT 9999 FEW020 BKN025 17/09 Q1018 BLU;",
"03658499999","2010-08-12T12:50:00","4","51.439083","-2.286389","180.74","COLERNE, UK","FM-15","EGUO ","V020","300,1,N,0051,1","00900,1,C,N","011265,1,N,1","+0160,1","+0100,1","99999,9","02,5,+00600,1,99,9","07,5,+00900,1,99,9",,"07,99,1,99,9,99,9,99999,9,99,9,99,9",,"10190,1,99999,9",,,,,"MET062METAR EGUO 121250Z 30010KT 9999 FEW020 BKN030 16/10 Q1019 BLU;",
"03658499999","2010-08-12T13:50:00","4","51.439083","-2.286389","180.74","COLERNE, UK","FM-15","EGUO ","V020","290,1,N,0051,1","99999,9,C,N","011265,1,N,1","+0170,1","+0100,1","99999,9","02,5,+00600,1,99,9","04,5,+00750,1,99,9",,"04,99,1,99,9,99,9,99999,9,99,9,99,9",,"10190,1,99999,9",,,,,"MET062METAR EGUO 121350Z 29010KT 9999 FEW020 SCT025 17/10 Q1019 BLU;","P01 007503SCOCIG"
"03658499999","2010-08-12T14:50:00","4","51.439083","-2.286389","180.74","COLERNE, UK","FM-15","EGUO ","V020","290,1,N,0046,1","00750,1,C,N","011265,1,N,1","+0170,1","+0090,1","99999,9","04,5,+00600,1,99,9","07,5,+00750,1,99,9",,"07,99,1,99,9,99,9,99999,9,99,9,99,9",,"10190,1,99999,9",,,,,"MET062METAR EGUO 121450Z 29009KT 9999 SCT020 BKN025 17/09 Q1019 WHT;",
"03658499999","2010-08-13T06:50:00","4","51.439083","-2.286389","180.74","COLERNE, UK","FM-15","EGUO ","V020","300,1,N,0057,1","22000,1,9,N","011265,1,N,1","+0120,1","+0090,1","99999,9","04,5,+01050,1,99,9",,,"04,99,1,99,9,99,9,99999,9,99,9,99,9",,"10200,1,99999,9",,,,,"MET055METAR EGUO 130650Z 30011KT 9999 SCT035 12/09 Q1020 BLU;",
"03658499999","2010-08-13T07:50:00","4","51.439083","-2.286389","180.74","COLERNE, UK","FM-15","EGUO ","V020","310,1,N,0031,1","99999,9,C,N","011265,1,N,1","+0140,1","+0100,1","99999,9","02,5,+00750,1,99,9","04,5,+01050,1,99,9",,"04,99,1,99,9,99,9,99999,9,99,9,99,9",,"10200,1,99999,9",,,,,"MET062METAR EGUO 130750Z 31006KT 9999 FEW025 SCT035 14/10 Q1020 BLU;","P01 010503SCOCIG"
"03658499999","2010-08-13T08:50:00","4","51.439083","-2.286389","180.74","COLERNE, UK","FM-15","EGUO ","V020","320,1,N,0051,1","22000,1,9,N","011265,1,N,1","+0150,1","+0100,1","99999,9","04,5,+00600,1,99,9",,,"04,99,1,99,9,99,9,99999,9,99,9,99,9",,"10200,1,99999,9",,,,,"MET055METAR EGUO 130850Z 32010KT 9999 SCT020 15/10 Q1020 WHT;",
"03658499999","2010-08-13T09:50:00","4","51.439083","-2.286389","180.74","COLERNE, UK","FM-15","EGUO ","V020","300,1,N,0062,1","99999,9,C,N","011265,1,N,1","+0160,1","+0090,1","99999,9","02,5,+00600,1,99,9","04,5,+01200,1,99,9",,"04,99,1,99,9,99,9,99999,9,99,9,99,9",,"10190,1,99999,9",,,,,"MET062METAR EGUO 130950Z 30012KT 9999 FEW020 SCT040 16/09 Q1019 BLU;","P01 012003SCOCIG"
"03658499999","2010-08-13T10:50:00","4","51.439083","-2.286389","180.74","COLERNE, UK","FM-15","EGUO ","V020","330,1,N,0057,1","22000,1,9,N","011265,1,N,1","+0170,1","+0090,1","99999,9","04,5,+00870,1,99,9",,,"04,99,1,99,9,99,9,99999,9,99,9,99,9",,"10190,1,99999,9",,,,,"MET055METAR EGUO 131050Z 33011KT 9999 SCT029 17/09 Q1019 BLU;",
"03658499999","2010-08-13T11:50:00","4","51.439083","-2.286389","180.74","COLERNE, UK","FM-15","EGUO ","V020","330,1,N,0067,1","01200,1,C,N","011265,1,N,1","+0170,1","+0090,1","99999,9","02,5,+00390,1,99,9","07,5,+01200,1,99,9",,"07,99,1,99,9,99,9,99999,9,99,9,99,9",,"10190,1,99999,9",,,,,"MET062METAR EGUO 131150Z 33013KT 9999 FEW013 BKN040 17/09 Q1019 BLU;",
"03658499999","2010-08-13T12:50:00","4","51.439083","-2.286389","180.74","COLERNE, UK","FM-15","EGUO ","V020","330,1,N,0036,1","01200,1,C,N","011265,1,N,1","+0160,1","+0100,1","99999,9","02,5,+00390,1,99,9","07,5,+01200,1,99,9",,"07,99,1,99,9,99,9,99999,9,99,9,99,9",,"10190,1,99999,9",,,,,"MET062METAR EGUO 131250Z 33007KT 9999 FEW013 BKN040 16/10 Q1019 BLU;",
"03658499999","2010-08-13T13:50:00","4","51.439083","-2.286389","180.74","COLERNE, UK","FM-15","EGUO ","V020","330,1,N,0051,1","99999,9,C,N","011265,1,N,1","+0160,1","+0120,1","99999,9","02,5,+00270,1,99,9","04,5,+01200,1,99,9",,"04,99,1,99,9,99,9,99999,9,99,9,99,9",,"10190,1,99999,9",,,,,"MET062METAR EGUO 131350Z 33010KT 9999 FEW009 SCT040 16/12 Q1019 BLU;","P01 012003SCOCIG"
"03658499999","2010-08-16T06:50:00","4","51.439083","-2.286389","180.74","COLERNE, UK","FM-15","EGUO ","V020","310,1,N,0041,1","99999,9,9,Y","009900,1,N,1","+0140,1","+0100,1","99999,9",,,,,,"10200,1,99999,9",,,,,"MET049METAR EGUO 160650Z 31008KT CAVOK 14/10 Q1020 BLU;",
"03658499999","2010-08-16T07:50:00","4","51.439083","-2.286389","180.74","COLERNE, UK","FM-15","EGUO ","V020","330,1,N,0041,1","99999,9,9,Y","009900,1,N,1","+0150,1","+0100,1","99999,9",,,,,,"10200,1,99999,9",,,,,"MET049METAR EGUO 160750Z 33008KT CAVOK 15/10 Q1020 BLU;",
"03658499999","2010-08-16T08:50:00","4","51.439083","-2.286389","180.74","COLERNE, UK","FM-15","EGUO ","V020","330,1,N,0046,1","99999,9,9,Y","009900,1,N,1","+0170,1","+0100,1","99999,9",,,,,,"10200,1,99999,9",,,,,"MET049METAR EGUO 160850Z 33009KT CAVOK 17/10 Q1020 BLU;",
"03658499999","2010-08-16T09:50:00","4","51.439083","-2.286389","180.74","COLERNE, UK","FM-15","EGUO ","V020","330,1,N,0067,1","22000,1,9,N","011265,1,N,1","+0190,1","+0110,1","99999,9","02,5,+01020,1,99,9",,,"02,99,1,99,9,99,9,99999,9,99,9,99,9",,"10190,1,99999,9",,,,,"MET055METAR EGUO 160950Z 33013KT 9999 FEW034 19/11 Q1019 BLU;",
"03658499999","2010-08-16T10:50:00","4","51.439083","-2.286389","180.74","COLERNE, UK","FM-15","EGUO ","V020","330,1,N,0082,1","22000,1,9,N","011265,1,N,1","+0210,1","+0090,1","99999,9","02,5,+01050,1,99,9",,,"02,99,1,99,9,99,9,99999,9,99,9,99,9",,"10190,1,99999,9",,,,,"MET055METAR EGUO 161050Z 33016KT 9999 FEW035 21/09 Q1019 BLU;",
"03658499999","2010-08-16T11:50:00","4","51.439083","-2.286389","180.74","COLERNE, UK","FM-15","EGUO ","V020","340,1,N,0062,1","22000,1,9,N","011265,1,N,1","+0210,1","+0100,1","99999,9","02,5,+01200,1,99,9",,,"02,99,1,99,9,99,9,99999,9,99,9,99,9",,"10190,1,99999,9",,,,,"MET055METAR EGUO 161150Z 34012KT 9999 FEW040 21/10 Q1019 BLU;",
"03658499999","2010-08-16T12:50:00","4","51.439083","-2.286389","180.74","COLERNE, UK","FM-15","EGUO ","V020","340,1,N,0051,1","22000,1,9,N","011265,1,N,1","+0220,1","+0090,1","99999,9","02,5,+01200,1,99,9",,,"02,99,1,99,9,99,9,99999,9,99,9,99,9",,"10180,1,99999,9",,,,,"MET055METAR EGUO 161250Z 34010KT 9999 FEW040 22/09 Q1018 BLU;",
"03658499999","2010-08-16T13:50:00","4","51.439083","-2.286389","180.74","COLERNE, UK","FM-15","EGUO ","V020","310,1,N,0051,1","22000,1,9,N","011265,1,N,1","+0230,1","+0100,1","99999,9","02,5,+01200,1,99,9",,,"02,99,1,99,9,99,9,99999,9,99,9,99,9",,"10180,1,99999,9",,,,,"MET055METAR EGUO 161350Z 31010KT 9999 FEW040 23/10 Q1018 BLU;",
"03658499999","2010-08-16T14:50:00","4","51.439083","-2.286389","180.74","COLERNE, UK","FM-15","EGUO ","V020","330,1,N,0077,1","22000,1,9,N","011265,1,N,1","+0220,1","+0120,1","99999,9","02,5,+01200,1,99,9",,,"02,99,1,99,9,99,9,99999,9,99,9,99,9",,"10180,1,99999,9",,,,,"MET055METAR EGUO 161450Z 33015KT 9999 FEW040 22/12 Q1018 BLU;",
"03658499999","2010-08-17T06:50:00","4","51.439083","-2.286389","180.74","COLERNE, UK","FM-15","EGUO ","V020","230,1,N,0036,1","00540,1,C,N","011265,1,N,1","+0140,1","+0130,1","99999,9","02,5,+00240,1,99,9","07,5,+00540,1,99,9",,"07,99,1,99,9,99,9,99999,9,99,9,99,9",,"10119,1,99999,9",,,,,"MET062METAR EGUO 170650Z 23007KT 9999 FEW008 BKN018 14/13 Q1012 WHT;",
"03658499999","2010-08-17T07:50:00","4","51.439083","-2.286389","180.74","COLERNE, UK","FM-15","EGUO ","V020","220,1,N,0041,1","00360,1,C,N","007000,1,N,1","+0140,1","+0120,1","99999,9","04,5,+00300,1,99,9","07,5,+00360,1,99,9",,"07,99,1,99,9,99,9,99999,9,99,9,99,9",,"10119,1,99999,9","51,1",,,,"MET066METAR EGUO 170750Z 22008KT 7000 -DZ SCT010 BKN012 14/12 Q1012 GRN;",
"03658499999","2010-08-17T08:50:00","4","51.439083","-2.286389","180.74","COLERNE, UK","FM-15","EGUO ","V020","220,1,N,0057,1","00450,1,C,N","011265,1,N,1","+0150,1","+0130,1","99999,9","02,5,+00240,1,99,9","07,5,+00450,1,99,9",,"07,99,1,99,9,99,9,99999,9,99,9,99,9",,"10119,1,99999,9",,,,,"MET062METAR EGUO 170850Z 22011KT 9999 FEW008 BKN015 15/13 Q1012 WHT;",
"03658499999","2010-08-17T09:50:00","4","51.439083","-2.286389","180.74","COLERNE, UK","FM-15","EGUO ","V020","230,1,N,0041,1","00240,1,C,N","011265,1,N,1","+0150,1","+0140,1","99999,9","07,5,+00240,1,99,9",,,"07,99,1,99,9,99,9,99999,9,99,9,99,9",,"10119,1,99999,9",,,,,"MET055METAR EGUO 170950Z 23008KT 9999 BKN008 15/14 Q1012 GRN;",
"03658499999","2010-08-17T10:50:00","4","51.439083","-2.286389","180.74","COLERNE, UK","FM-15","EGUO ","V020","230,1,N,0046,1","00210,1,C,N","008000,1,N,1","+0170,1","+0140,1","99999,9","07,5,+00210,1,99,9",,,"07,99,1,99,9,99,9,99999,9,99,9,99,9",,"10119,1,99999,9","51,1",,,,"MET059METAR EGUO 171050Z 23009KT 8000 -DZ BKN007 17/14 Q1012 GRN;",
"03658499999","2010-08-17T11:50:00","4","51.439083","-2.286389","180.74","COLERNE, UK","FM-15","EGUO ","V020","240,1,N,0046,1","00270,1,C,N","011265,1,N,1","+0180,1","+0140,1","99999,9","07,5,+00270,1,99,9",,,"07,99,1,99,9,99,9,99999,9,99,9,99,9",,"10108,1,99999,9",,,,,"MET055METAR EGUO 171150Z 24009KT 9999 BKN009 18/14 Q1011 GRN;",
"03658499999","2010-08-17T12:50:00","4","51.439083","-2.286389","180.74","COLERNE, UK","FM-15","EGUO ","V020","250,1,N,0036,1","99999,9,C,N","011265,1,N,1","+0180,1","+0150,1","99999,9","02,5,+00270,1,99,9","04,5,+00330,1,99,9",,"04,99,1,99,9,99,9,99999,9,99,9,99,9",,"10108,1,99999,9",,,,,"MET062METAR EGUO 171250Z 25007KT 9999 FEW009 SCT011 18/15 Q1011 GRN;","P01 003303SCOCIG"
"03658499999","2010-08-17T13:50:00","4","51.439083","-2.286389","180.74","COLERNE, UK","FM-15","EGUO ","V020","250,1,N,0051,1","22000,1,9,N","011265,1,N,1","+0200,1","+0150,1","99999,9","04,5,+00360,1,99,9",,,"04,99,1,99,9,99,9,99999,9,99,9,99,9",,"10108,1,99999,9",,,,,"MET051METAR EGUO 171350Z 25010KT 9999 SCT012 20/15 Q1011;",
"03658499999","2010-08-18T06:50:00","4","51.439083","-2.286389","180.74","COLERNE, UK","FM-15","EGUO ","V020","270,1,N,0026,1","99999,9,9,Y","009900,1,N,1","+0130,1","+0090,1","99999,9",,,,,,"10102,1,99999,9",,,,,"MET049METAR EGUO 180650Z 27005KT CAVOK 13/09 Q1010 BLU;",
"03658499999","2010-08-18T07:50:00","4","51.439083","-2.286389","180.74","COLERNE, UK","FM-15","EGUO ","V020","260,1,N,0036,1","01500,1,C,N","011265,1,N,1","+0140,1","+0100,1","99999,9","02,5,+00360,1,99,9","07,5,+01500,1,99,9",,"07,99,1,99,9,99,9,99999,9,99,9,99,9",,"10102,1,99999,9",,,,,"MET062METAR EGUO 180750Z 26007KT 9999 FEW012 BKN050 14/10 Q1010 BLU;",
"03658499999","2010-08-18T08:50:00","4","51.439083","-2.286389","180.74","COLERNE, UK","FM-15","EGUO ","V020","270,1,N,0041,1","01500,1,C,N","011265,1,N,1","+0150,1","+0090,1","99999,9","02,5,+00360,1,99,9","07,5,+01500,1,99,9",,"07,99,1,99,9,99,9,99999,9,99,9,99,9",,"10102,1,99999,9",,,,,"MET062METAR EGUO 180850Z 27008KT 9999 FEW012 BKN050 15/09 Q1010 BLU;",
"03658499999","2010-08-18T09:50:00","4","51.439083","-2.286389","180.74","COLERNE, UK","FM-15","EGUO ","V020","250,1,N,0077,1","22000,1,9,N","011265,1,N,1","+0160,1","+0080,1","99999,9","04,5,+01050,1,99,9",,,"04,99,1,99,9,99,9,99999,9,99,9,99,9",,"10102,1,99999,9",,,,,"MET055METAR EGUO 180950Z 25015KT 9999 SCT035 16/08 Q1010 BLU;",
"03658499999","2010-08-18T10:50:00","4","51.439083","-2.286389","180.74","COLERNE, UK","FM-15","EGUO ","V020","270,1,N,0051,1","22000,1,9,N","011265,1,N,1","+0170,1","+0080,1","99999,9","04,5,+01080,1,99,9",,,"04,99,1,99,9,99,9,99999,9,99,9,99,9",,"10100,1,99999,9",,,,,"MET061METAR EGUO 181050Z 27010KT 9999 SCT036 17/08 Q1018 Q1010 BLU;","Q01+101803APOA  "
"03658499999","2010-08-18T11:50:00","4","51.439083","-2.286389","180.74","COLERNE, UK","FM-15","EGUO ","V020","260,1,N,0062,1","00960,1,C,N","011265,1,N,1","+0160,1","+0100,1","99999,9","02,5,+00750,1,99,9","07,5,+00960,1,99,9",,"07,99,1,99,9,99,9,99999,9,99,9,99,9",,"10091,1,99999,9",,,,,"MET062METAR EGUO 181150Z 26012KT 9999 FEW025 BKN032 16/10 Q1009 BLU;",
"03658499999","2010-08-18T12:50:00","4","51.439083","-2.286389","180.74","COLERNE, UK","FM-15","EGUO ","V020","240,1,N,0062,1","22000,1,9,N","011265,1,N,1","+0170,1","+0100,1","99999,9","04,5,+00750,1,99,9",,,"04,99,1,99,9,99,9,99999,9,99,9,99,9",,"10091,1,99999,9","16,1",,,,"MET066METAR EGUO 181250Z 24012KT 9999 6000S VCSH SCT025 17/10 Q1009 WHT;",
"03658499999","2010-08-18T13:50:00","4","51.439083","-2.286389","180.74","COLERNE, UK","FM-15","EGUO ","V020","260,1,N,0077,1","22000,1,9,N","011265,1,N,1","+0180,1","+0080,1","99999,9","04,5,+00750,1,99,9",,,"04,99,1,99,9,99,9,99999,9,99,9,99,9",,"10091,1,99999,9",,,,,"MET055METAR EGUO 181350Z 26015KT 9999 SCT025 18/08 Q1009 BLU;",
"03658499999","2010-08-18T14:50:00","4","51.439083","-2.286389","180.74","COLERNE, UK","FM-15","EGUO ","V020","270,1,N,0077,1","22000,1,9,N","011265,1,N,1","+0190,1","+0080,1","99999,9","04,5,+00750,1,99,9",,,"04,99,1,99,9,99,9,99999,9,99,9,99,9",,"10091,1,99999,9",,,,,"MET055METAR EGUO 181450Z 27015KT 9999 SCT025 19/08 Q1009 BLU;",
"03658499999","2010-08-19T06:50:00","4","51.439083","-2.286389","180.74","COLERNE, UK","FM-15","EGUO ","V020","160,1,N,0026,1","01500,1,C,N","011265,1,N,1","+0120,1","+0110,1","99999,9","02,5,+00120,1,99,9","04,5,+01500,1,99,9","07,5,+03000,1,99,9","07,99,1,99,9,99,9,99999,9,99,9,99,9",,"10119,1,99999,9",,,,,"MET069METAR EGUO 190650Z 16005KT 9999 FEW004 SCT050 BKN100 12/11 Q1012 BLU;",
"03658499999","2010-08-19T08:50:00","4","51.439083","-2.286389","180.74","COLERNE, UK","FM-15","EGUO ","V020","190,1,N,0077,1","99999,9,C,N","011265,1,N,1","+0160,1","+0120,1","99999,9","02,5,+00120,1,99,9","04,5,+00420,1,99,9",,"04,99,1,99,9,99,9,99999,9,99,9,99,9",,"10119,1,99999,9",,,,,"MET062METAR EGUO 190850Z 19015KT 9999 FEW004 SCT014 16/12 Q1012 GRN;","P01 004203SCOCIG"
"03658499999","2010-08-19T09:50:00","4","51.439083","-2.286389","180.74","COLERNE, UK","FM-15","EGUO ","V020","210,1,N,0077,1","22000,1,9,N","011265,1,N,1","+0180,1","+0110,1","99999,9","04,5,+00840,1,99,9",,,"04,99,1,99,9,99,9,99999,9,99,9,99,9",,"10129,1,99999,9",,,,,"MET055METAR EGUO 190950Z 21015KT 9999 SCT028 18/11 Q1013 BLU;",
"03658499999","2010-08-19T10:50:00","4","51.439083","-2.286389","180.74","COLERNE, UK","FM-15","EGUO ","V020","220,1,N,0067,1","22000,1,9,N","011265,1,N,1","+0180,1","+0110,1","99999,9","04,5,+00750,1,99,9",,,"04,99,1,99,9,99,9,99999,9,99,9,99,9",,"10129,1,99999,9",,,,,"MET055METAR EGUO 191050Z 22013KT 9999 SCT025 18/11 Q1013 BLU;",
"03658499999","2010-08-19T11:50:00","4","51.439083","-2.286389","180.74","COLERNE, UK","FM-15","EGUO ","V020","210,1,N,0051,1","00750,1,C,N","011265,1,N,1","+0170,1","+0120,1","99999,9","07,5,+00750,1,99,9",,,"07,99,1,99,9,99,9,99999,9,99,9,99,9",,"10129,1,99999,9",,,,,"MET055METAR EGUO 191150Z 21010KT 9999 BKN025 17/12 Q1013 BLU;",
"03658499999","2010-08-19T12:50:00","4","51.439083","-2.286389","180.74","COLERNE, UK","FM-15","EGUO ","V020","220,1,N,0062,1","22000,1,9,N","011265,1,N,1","+0190,1","+0110,1","99999,9","04,5,+00750,1,99,9",,,"04,99,1,99,9,99,9,99999,9,99,9,99,9",,"10129,1,99999,9",,,,,"MET055METAR EGUO 191250Z 22012KT 9999 SCT025 19/11 Q1013 BLU;",
"03658499999","2010-08-19T13:50:00","4","51.439083","-2.286389","180.74","COLERNE, UK","FM-15","EGUO ","V020","180,1,N,0051,1","22000,1,9,N","011265,1,N,1","+0180,1","+0110,1","99999,9","04,5,+00750,1,99,9",,,"04,99,1,99,9,99,9,99999,9,99,9,99,9",,"10129,1,99999,9",,,,,"MET055METAR EGUO 191350Z 18010KT 9999 SCT025 18/11 Q1013 BLU;",
"03658499999","2010-08-19T14:50:00","4","51.439083","-2.286389","180.74","COLERNE, UK","FM-15","EGUO ","V020","200,1,N,0062,1","00660,1,C,N","011265,1,N,1","+0160,1","+0120,1","99999,9","02,5,+00240,1,99,9","07,5,+00660,1,99,9",,"07,99,1,99,9,99,9,99999,9,99,9,99,9",,"10119,1,99999,9","16,1",,,,"MET078METAR EGUO 191450Z 20012KT 9999 6000N VCSH FEW008 BKN022 16/12 Q1012 RERA WHT;",
"03658499999","2010-08-20T08:50:00","4","51.439083","-2.286389","180.74","COLERNE, UK","FM-15","EGUO ","V020","220,1,N,0067,1","00090,1,C,N","005000,1,N,1","+0170,1","+0170,1","99999,9","08,5,+00090,1,99,9",,,"08,99,1,99,9,99,9,99999,9,99,9,99,9",,"10139,1,99999,9","10,1",,,,"MET059METAR EGUO 200850Z 22013KT 5000 BR OVC003 17/17 Q1014 YLO2;",
"03658499999","2010-08-20T09:50:00","4","51.439083","-2.286389","180.74","COLERNE, UK","FM-15","EGUO ","V020","200,1,N,0072,1","00120,1,C,N","011265,1,N,1","+0180,1","+0170,1","99999,9","08,5,+00120,1,99,9",,,"08,99,1,99,9,99,9,99999,9,99,9,99,9",,"10149,1,99999,9",,,,,"MET056METAR EGUO 200950Z 20014KT 9999 OVC004 18/17 Q1015 YLO2;",
"03658499999","2010-08-20T10:50:00","4","51.439083","-2.286389","180.74","COLERNE, UK","FM-15","EGUO ","V020","180,1,N,0077,1","00120,1,C,N","011265,1,N,1","+0180,1","+0170,1","99999,9","08,5,+00120,1,99,9",,,"08,99,1,99,9,99,9,99999,9,99,9,99,9",,"10149,1,99999,9",,,,,"MET056METAR EGUO 201050Z 18015KT 9999 OVC004 18/17 Q1015 YLO2;",
"03658499999","2010-08-20T11:50:00","4","51.439083","-2.286389","180.74","COLERNE, UK","FM-15","EGUO ","V020","180,1,N,0067,1","00120,1,C,N","011265,1,N,1","+0180,1","+0170,1","99999,9","08,5,+00120,1,99,9",,,"08,99,1,99,9,99,9,99999,9,99,9,99,9",,"10149,1,99999,9",,,,,"MET063METAR EGUO 201150Z 18013KT 9999 OVC004 18/17 Q1015 RESHRA YLO2;",
"03658499999","2010-08-23T06:50:00","4","51.439083","-2.286389","180.74","COLERNE, UK","FM-15","EGUO ","V020","280,1,N,0062,1","00180,1,C,N","004500,1,N,1","+9999,9","+9999,9","99999,9","04,5,+00120,1,99,9","07,5,+00180,1,99,9",,"07,99,1,99,9,99,9,99999,9,99,9,99,9",,"10000,1,99999,9","10,1",,,,"MET060METAR EGUO 230650Z 28012KT 4500 BR SCT004 BKN006 Q1000 YLO2;",
"03658499999","2010-08-23T07:50:00","4","51.439083","-2.286389","180.74","COLERNE, UK","FM-15","EGUO ","V020","270,1,N,0051,1","00180,1,C,N","006000,1,N,1","+0160,1","+0090,1","99999,9","04,5,+00120,1,99,9","07,5,+00180,1,99,9",,"07,99,1,99,9,99,9,99999,9,99,9,99,9",,"10000,1,99999,9","05,1",,,,"MET066METAR EGUO 230750Z 27010KT 6000 HZ SCT004 BKN006 16/09 Q1000 YLO2;",
"03658499999","2010-08-23T08:50:00","4","51.439083","-2.286389","180.74","COLERNE, UK","FM-15","EGUO ","V020","210,1,N,0031,1","99999,9,C,N","011265,1,N,1","+0170,1","+0140,1","99999,9","04,5,+00180,1,99,9","04,5,+00600,1,99,9",,"04,99,1,99,9,99,9,99999,9,99,9,99,9",,"10000,1,99999,9",,,,,"MET063METAR EGUO 230850Z 21006KT 9999 SCT006 SCT020 17/14 Q1000 YLO1;","P01 006003SCOCIG"
"03658499999","2010-08-23T09:50:00","4","51.439083","-2.286389","180.74","COLERNE, UK","FM-15","EGUO ","V020","240,1,N,0026,1","00240,1,C,N","001500,1,N,1","+0170,1","+0150,1","99999,9","04,5,+00120,1,99,9","07,5,+00240,1,99,9","08,5,+00270,1,99,9","08,99,1,99,9,99,9,99999,9,99,9,99,9",,"10000,1,99999,9","55,1",,,,"MET073METAR EGUO 230950Z 24005KT 1500 +DZ SCT004 BKN008 OVC009 17/15 Q1000 AMB;",
"03658499999","2010-08-23T10:50:00","4","51.439083","-2.286389","180.74","COLERNE, UK","FM-15","EGUO ","V020","210,1,N,0041,1","00360,1,C,N","011265,1,N,1","+0170,1","+0160,1","99999,9","04,5,+00240,1,99,9","07,5,+00360,1,99,9",,"07,99,1,99,9,99,9,99999,9,99,9,99,9",,"09990,1,99999,9",,,,,"MET062METAR EGUO 231050Z 21008KT 9999 SCT008 BKN012 17/16 Q0999 GRN;",
"03658499999","2010-08-23T11:50:00","4","51.439083","-2.286389","180.74","COLERNE, UK","FM-15","EGUO ","V020","220,1,N,0041,1","99999,9,C,N","011265,1,N,1","+0190,1","+0160,1","99999,9","02,5,+00360,1,99,9","04,5,+00450,1,99,9",,"04,99,1,99,9,99,9,99999,9,99,9,99,9",,"09980,1,99999,9",,,,,"MET062METAR EGUO 231150Z 22008KT 9999 FEW012 SCT015 19/16 Q0998 WHT;","P01 004503SCOCIG"
"03658499999","2010-08-24T06:50:00","4","51.439083","-2.286389","180.74","COLERNE, UK","FM-15","EGUO ","V020","230,1,N,0041,1","99999,9,C,N","011265,1,N,1","+0120,1","+0110,1","99999,9","02,5,+00360,1,99,9","04,5,+00750,1,99,9",,"04,99,1,99,9,99,9,99999,9,99,9,99,9",,"10081,1,99999,9",,,,,"MET062METAR EGUO 240650Z 23008KT 9999 FEW012 SCT025 12/11 Q1008 BLU;","P01 007503SCOCIG"
"03658499999","2010-08-24T07:50:00","4","51.439083","-2.286389","180.74","COLERNE, UK","FM-15","EGUO ","V020","240,1,N,0062,1","99999,9,C,N","011265,1,N,1","+0130,1","+0110,1","99999,9","02,5,+00270,1,99,9","04,5,+00600,1,99,9",,"04,99,1,99,9,99,9,99999,9,99,9,99,9",,"10091,1,99999,9","16,1",,,,"MET074METAR EGUO 240750Z 24012KT 9999 5000SW VCSH FEW009 SCT020 13/11 Q1009 WHT;","P01 006003SCOCIG"
"03658499999","2010-08-24T08:50:00","4","51.439083","-2.286389","180.74","COLERNE, UK","FM-15","EGUO ","V020","240,1,N,0062,1","99999,9,C,N","011265,1,N,1","+0130,1","+0120,1","99999,9","02,5,+00270,1,99,9","04,5,+00450,1,99,9",,"04,99,1,99,9,99,9,99999,9,99,9,99,9",,"10091,1,99999,9","16,1",,,,"MET073METAR EGUO 240850Z 24012KT 9999 7000S VCSH FEW009 SCT015 13/12 Q1009 WHT;","P01 004503SCOCIG"
"03658499999","2010-08-24T09:50:00","4","51.439083","-2.286389","180.74","COLERNE, UK","FM-15","EGUO ","V020","240,1,N,0093,1","99999,9,C,N","011265,1,N,1","+0140,1","+0120,1","99999,9","02,5,+00300,1,99,9","04,5,+00450,1,99,9",,"04,99,1,99,9,99,9,99999,9,99,9,99,9",,"10102,1,99999,9","16,1",,,,"MET073METAR EGUO 240950Z 24018KT 9999 7000S VCSH FEW010 SCT015 14/12 Q1010 WHT;","P01 004503SCOCIG"
"03658499999","2010-08-24T10:50:00","4","51.439083","-2.286389","180.74","COLERNE, UK","FM-15","EGUO ","V020","040,1,N,0093,1","99999,9,C,N","011265,1,N,1","+0150,1","+0120,1","99999,9","02,5,+00300,1,99,9","04,5,+00600,1,99,9",,"04,99,1,99,9,99,9,99999,9,99,9,99,9",,"10102,1,99999,9",,,,"0154,1","MET065METAR EGUO 241050Z 04018G30KT 9999 FEW010 SCT020 15/12 Q1010 WHT;","P01 006003SCOCIG"
"03658499999","2010-08-24T11:50:00","4","51.439083","-2.286389","180.74","COLERNE, UK","FM-15","EGUO ","V020","260,1,N,0093,1","99999,9,C,N","011265,1,N,1","+0160,1","+0120,1","99999,9","02,5,+00270,1,99,9","04,5,+00600,1,99,9",,"04,99,1,99,9,99,9,99999,9,99,9,99,9",,"10102,1,99999,9",,,,"0144,1","MET065METAR EGUO 241150Z 26018G28KT 9999 FEW009 SCT020 16/12 Q1010 WHT;","P01 006003SCOCIG"
"03658499999","2010-08-24T12:50:00","4","51.439083","-2.286389","180.74","COLERNE, UK","FM-15","EGUO ","V020","270,1,N,0103,1","22000,1,9,N","011265,1,N,1","+0160,1","+0120,1","99999,9","04,5,+00600,1,99,9",,,"04,99,1,99,9,99,9,99999,9,99,9,99,9",,"10108,1,99999,9",,,,"0154,1","MET058METAR EGUO 241250Z 27020G30KT 9999 SCT020 16/12 Q1011 WHT;",
"03658499999","2010-08-24T13:50:00","4","51.439083","-2.286389","180.74","COLERNE, UK","FM-15","EGUO ","V020","250,1,N,0113,1","22000,1,9,N","011265,1,N,1","+0170,1","+0080,1","99999,9","04,5,+00750,1,99,9",,,"04,99,1,99,9,99,9,99999,9,99,9,99,9",,"10108,1,99999,9",,,,"0180,1","MET058METAR EGUO 241350Z 25022G35KT 9999 SCT025 17/08 Q1011 BLU;",
"03658499999","2010-08-24T15:50:00","4","51.439083","-2.286389","180.74","COLERNE, UK","FM-15","EGUO ","V020","250,1,N,0093,1","22000,1,9,N","011265,1,N,1","+0160,1","+0110,1","99999,9","04,5,+00750,1,99,9",,,"04,99,1,99,9,99,9,99999,9,99,9,99,9",,"10119,1,99999,9",,,,"0144,1","MET058METAR EGUO 241550Z 25018G28KT 9999 SCT025 16/11 Q1012 BLU;",
"03658499999","2010-08-25T06:50:00","4","51.439083","-2.286389","180.74","COLERNE, UK","FM-15","EGUO ","V020","999,9,C,0000,1","00600,1,C,N","008000,1,N,1","+0110,1","+0100,1","99999,9","07,5,+00600,1,99,9",,,"07,99,1,99,9,99,9,99999,9,99,9,99,9",,"10149,1,99999,9",,,,,"MET055METAR EGUO 250650Z 00000KT 8000 BKN020 11/10 Q1015 WHT;",
"03658499999","2010-08-25T07:50:00","4","51.439083","-2.286389","180.74","COLERNE, UK","FM-15","EGUO ","V020","180,1,N,0026,1","00600,1,C,N","007000,1,N,1","+0130,1","+0120,1","99999,9","07,5,+00600,1,99,9",,,"07,99,1,99,9,99,9,99999,9,99,9,99,9",,"10149,1,99999,9","05,1",,,,"MET058METAR EGUO 250750Z 18005KT 7000 HZ BKN020 13/12 Q1015 WHT;",
"03658499999","2010-08-25T08:50:00","4","51.439083","-2.286389","180.74","COLERNE, UK","FM-15","EGUO ","V020","160,1,N,0026,1","01050,1,C,N","011265,1,N,1","+0130,1","+0120,1","99999,9","02,5,+00180,1,99,9","08,5,+01050,1,99,9",,"08,99,1,99,9,99,9,99999,9,99,9,99,9",,"10149,1,99999,9","05,1",,,,"MET065METAR EGUO 250850Z 16005KT 9999 HZ FEW006 OVC035 13/12 Q1015 BLU;",
"03658499999","2010-08-25T09:50:00","4","51.439083","-2.286389","180.74","COLERNE, UK","FM-15","EGUO ","V020","170,1,N,0026,1","01050,1,C,N","011265,1,N,1","+0130,1","+0120,1","99999,9","02,5,+00180,1,99,9","08,5,+01050,1,99,9",,"08,99,1,99,9,99,9,99999,9,99,9,99,9",,"10149,1,99999,9","61,1",,,,"MET066METAR EGUO 250950Z 17005KT 9999 -RA FEW006 OVC035 13/12 Q1015 BLU;",
"03658499999","2010-08-25T10:50:00","4","51.439083","-2.286389","180.74","COLERNE, UK","FM-15","EGUO ","V020","999,9,C,0000,1","01350,1,C,N","007000,1,N,1","+0130,1","+0120,1","99999,9","02,5,+00180,1,99,9","08,5,+01350,1,99,9",,"08,99,1,99,9,99,9,99999,9,99,9,99,9",,"10150,1,99999,9","63,1",,,,"MET065METAR EGUO 251050Z 00000KT 7000 RA FEW006 OVC045 13/12/Q1015 BLU;",
"03658499999","2010-08-26T06:50:00","4","51.439083","-2.286389","180.74","COLERNE, UK","FM-15","EGUO ","V020","010,1,N,0026,1","00090,1,C,N","002000,1,N,1","+0130,1","+0130,1","99999,9","08,5,+00090,1,99,9",,,"08,99,1,99,9,99,9,99999,9,99,9,99,9",,"10041,1,99999,9","10,1",,,,"MET059METAR EGUO 260650Z 01005KT 2000 BR OVC003 13/13 Q1004 YLO2;",
"03658499999","2010-08-26T08:50:00","4","51.439083","-2.286389","180.74","COLERNE, UK","FM-15","EGUO ","V020","010,1,N,0046,1","00030,1,C,N","001500,1,N,1","+0140,1","+0140,1","99999,9","07,5,+00030,1,99,9","08,5,+00090,1,99,9",,"08,99,1,99,9,99,9,99999,9,99,9,99,9",,"10051,1,99999,9","40,1",,,,"MET067METAR EGUO 260850Z 01009KT 1500 VCFG BKN001 OVC003 14/14 Q1005 RED;",
"03658499999","2010-08-26T09:50:00","4","51.439083","-2.286389","180.74","COLERNE, UK","FM-15","EGUO ","V020","020,1,N,0031,1","00060,1,C,N","007000,1,N,1","+0140,1","+0140,1","99999,9","07,5,+00060,1,99,9","08,5,+00090,1,99,9",,"08,99,1,99,9,99,9,99999,9,99,9,99,9",,"10061,1,99999,9","10,1",,,,"MET071METAR EGUO 260950Z 02006KT 7000 1000S BR BKN002 OVC003 14/14 Q1006 AMB;",
"03658499999","2010-08-26T10:50:00","4","51.439083","-2.286389","180.74","COLERNE, UK","FM-15","EGUO ","V020","020,1,N,0031,1","00120,1,C,N","007000,1,N,1","+0150,1","+0140,1","99999,9","08,5,+00120,1,99,9",,,"08,99,1,99,9,99,9,99999,9,99,9,99,9",,"10061,1,99999,9","05,1",,,,"MET059METAR EGUO 261050Z 02006KT 7000 HZ OVC004 15/14 Q1006 YLO2;",
"03658499999","2010-08-27T06:50:00","4","51.439083","-2.286389","180.74","COLERNE, UK","FM-15","EGUO ","V020","020,1,N,0062,1","00540,1,C,N","008000,1,N,1","+0110,1","+0100,1","99999,9","04,5,+00120,1,99,9","07,5,+00540,1,99,9",,"07,99,1,99,9,99,9,99999,9,99,9,99,9",,"10091,1,99999,9","05,1",,,,"MET066METAR EGUO 270650Z 02012KT 8000 HZ SCT004 BKN018 11/10 Q1009 YLO2;",
"03658499999","2010-08-27T07:50:00","4","51.439083","-2.286389","180.74","COLERNE, UK","FM-15","EGUO ","V020","010,1,N,0062,1","99999,9,C,N","011265,1,N,1","+0110,1","+0100,1","99999,9","02,5,+00120,1,99,9","04,5,+00900,1,99,9",,"04,99,1,99,9,99,9,99999,9,99,9,99,9",,"10102,1,99999,9",,,,,"MET062METAR EGUO 270750Z 01012KT 9999 FEW004 SCT030 11/10 Q1010 BLU;","P01 009003SCOCIG"
"03658499999","2010-08-27T08:50:00","4","51.439083","-2.286389","180.74","COLERNE, UK","FM-15","EGUO ","V020","010,1,N,0051,1","22000,1,9,N","011265,1,N,1","+0120,1","+0090,1","99999,9","04,5,+00450,1,99,9",,,"04,99,1,99,9,99,9,99999,9,99,9,99,9",,"10108,1,99999,9",,,,,"MET055METAR EGUO 270850Z 01010KT 9999 SCT015 12/09 Q1011 WHT;",
"03658499999","2010-08-27T09:50:00","4","51.439083","-2.286389","180.74","COLERNE, UK","FM-15","EGUO ","V020","020,1,N,0072,1","22000,1,9,N","011265,1,N,1","+0130,1","+0100,1","99999,9","04,5,+00450,1,99,9",,,"04,99,1,99,9,99,9,99999,9,99,9,99,9",,"10119,1,99999,9",,,,,"MET055METAR EGUO 270950Z 02014KT 9999 SCT015 13/10 Q1012 WHT;",
"03658499999","2010-08-27T10:50:00","4","51.439083","-2.286389","180.74","COLERNE, UK","FM-15","EGUO ","V020","010,1,N,0067,1","22000,1,9,N","011265,1,N,1","+0150,1","+0110,1","99999,9","04,5,+00480,1,99,9",,,"04,99,1,99,9,99,9,99999,9,99,9,99,9",,"10119,1,99999,9",,,,,"MET055METAR EGUO 271050Z 01013KT 9999 SCT016 15/11 Q1012 WHT;",
"03658499999","2010-08-27T11:50:00","4","51.439083","-2.286389","180.74","COLERNE, UK","FM-15","EGUO ","V020","350,1,N,0062,1","22000,1,9,N","011265,1,N,1","+0150,1","+0110,1","99999,9","04,5,+00540,1,99,9",,,"04,99,1,99,9,99,9,99999,9,99,9,99,9",,"10129,1,99999,9",,,,,"MET055METAR EGUO 271150Z 35012KT 9999 SCT018 15/11 Q1013 WHT;",
"03658499999","2010-08-27T12:50:00","4","51.439083","-2.286389","180.74","COLERNE, UK","FM-15","EGUO ","V020","360,1,N,0046,1","22000,1,9,N","011265,1,N,1","+0150,1","+0110,1","99999,9","04,5,+00600,1,99,9",,,"04,99,1,99,9,99,9,99999,9,99,9,99,9",,"10139,1,99999,9",,,,,"MET055METAR EGUO 271250Z 36009KT 9999 SCT020 15/11 Q1014 WHT;",
"03658499999","2010-09-08T06:50:00","4","51.439083","-2.286389","180.74","COLERNE, UK","FM-15","EGUO ","V020","999,9,C,0000,1","22000,1,9,N","005000,1,N,1","+0120,1","+0110,1","99999,9","04,5,+00180,1,99,9",,,"04,99,1,99,9,99,9,99999,9,99,9,99,9",,"10031,1,99999,9","10,1",,,,"MET059METAR EGUO 080650Z 00000KT 5000 BR SCT006 12/11 Q1003 YLO1;",
"03658499999","2010-09-08T07:50:00","4","51.439083","-2.286389","180.74","COLERNE, UK","FM-15","EGUO ","V020","999,9,C,0000,1","00060,1,C,N","001800,1,N,1","+0130,1","+0120,1","99999,9","07,5,+00060,1,99,9",,,"07,99,1,99,9,99,9,99999,9,99,9,99,9",,"10031,1,99999,9","10,1",,,,"MET058METAR EGUO 080750Z 00000KT 1800 BR BKN002 13/12 Q1003 AMB;",
"03658499999","2010-09-08T08:50:00","4","51.439083","-2.286389","180.74","COLERNE, UK","FM-15","EGUO ","V020","999,9,C,0000,1","99999,9,C,N","006000,1,N,1","+0130,1","+0120,1","99999,9","02,5,+00090,1,99,9","04,5,+01800,1,99,9",,"04,99,1,99,9,99,9,99999,9,99,9,99,9",,"10041,1,99999,9","10,1",,,,"MET065METAR EGUO 080850Z 00000KT 6000 BR FEW003 SCT060 13/12 Q1004 WHT;","P01 018003SCOCIG"
"03658499999","2010-09-08T09:50:00","4","51.439083","-2.286389","180.74","COLERNE, UK","FM-15","EGUO ","V020","999,9,C,0000,1","99999,9,C,N","008000,1,N,1","+0150,1","+0130,1","99999,9","02,5,+00210,1,99,9","04,5,+00540,1,99,9",,"04,99,1,99,9,99,9,99999,9,99,9,99,9",,"10041,1,99999,9","05,1",,,,"MET065METAR EGUO 080950Z 00000KT 8000 HZ FEW007 SCT018 15/13 Q1004 WHT;","P01 005403SCOCIG"
"03658499999","2010-09-08T10:50:00","4","51.439083","-2.286389","180.74","COLERNE, UK","FM-15","EGUO ","V020","999,9,C,0000,1","99999,9,C,N","011265,1,N,1","+0160,1","+0110,1","99999,9","02,5,+00450,1,99,9","04,5,+00600,1,99,9",,"04,99,1,99,9,99,9,99999,9,99,9,99,9",,"10041,1,99999,9",,,,,"MET062METAR EGUO 081050Z 00000KT 9999 FEW015 SCT020 16/11 Q1004 WHT;","P01 006003SCOCIG"
"03658499999","2010-09-08T11:50:00","4","51.439083","-2.286389","180.74","COLERNE, UK","FM-15","EGUO ","V020","999,9,C,0000,1","22000,1,9,N","011265,1,N,1","+0170,1","+0100,1","99999,9","04,5,+00900,1,99,9",,,"04,99,1,99,9,99,9,99999,9,99,9,99,9",,"10041,1,99999,9",,,,,"MET055METAR EGUO 081150Z 00000KT 9999 SCT030 17/10 Q1004 BLU;",
"03658499999","2010-09-08T12:50:00","4","51.439083","-2.286389","180.74","COLERNE, UK","FM-15","EGUO ","V020","999,9,C,0000,1","22000,1,9,N","011265,1,N,1","+0190,1","+0100,1","99999,9","04,5,+00960,1,99,9",,,"04,99,1,99,9,99,9,99999,9,99,9,99,9",,"10041,1,99999,9",,,,,"MET055METAR EGUO 081250Z 00000KT 9999 SCT032 19/10 Q1004 BLU;",
"03658499999","2010-09-08T13:50:00","4","51.439083","-2.286389","180.74","COLERNE, UK","FM-15","EGUO ","V020","999,9,C,0000,1","99999,9,C,N","011265,1,N,1","+0180,1","+0090,1","99999,9","02,5,+00750,1,99,9","04,5,+01080,1,99,9",,"04,99,1,99,9,99,9,99999,9,99,9,99,9",,"10041,1,99999,9",,,,,"MET062METAR EGUO 081350Z 00000KT 9999 FEW025 SCT036 18/09 Q1004 BLU;","P01 010803SCOCIG"
"03658499999","2010-09-08T14:50:00","4","51.439083","-2.286389","180.74","COLERNE, UK","FM-15","EGUO ","V020","999,9,C,0000,1","22000,1,9,N","011265,1,N,1","+0180,1","+0090,1","99999,9","04,5,+00900,1,99,9",,,"04,99,1,99,9,99,9,99999,9,99,9,99,9",,"10051,1,99999,9",,,,,"MET055METAR EGUO 081450Z 00000KT 9999 SCT030 18/09 Q1005 BLU;",
"03658499999","2010-09-09T06:50:00","4","51.439083","-2.286389","180.74","COLERNE, UK","FM-15","EGUO ","V020","250,1,N,0026,1","99999,9,C,N","006000,1,N,1","+0140,1","+0130,1","99999,9","02,5,+00450,1,99,9","04,5,+00900,1,99,9",,"04,99,1,99,9,99,9,99999,9,99,9,99,9",,"10139,1,99999,9","10,1",,,,"MET065METAR EGUO 090650Z 25005KT 6000 BR FEW015 SCT030 14/13 Q1014 WHT;","P01 009003SCOCIG"
"03658499999","2010-09-09T07:50:00","4","51.439083","-2.286389","180.74","COLERNE, UK","FM-15","EGUO ","V020","270,1,N,0026,1","99999,9,C,N","008000,1,N,1","+0150,1","+0130,1","99999,9","02,5,+00450,1,99,9","04,5,+00960,1,99,9",,"04,99,1,99,9,99,9,99999,9,99,9,99,9",,"10139,1,99999,9","05,1",,,,"MET061METAR EGUO 090750Z 27005KT 8000 HZ FEW015 SCT032 15/13 Q1014;","P01 009603SCOCIG"
"03658499999","2010-09-09T08:50:00","4","51.439083","-2.286389","180.74","COLERNE, UK","FM-15","EGUO ","V020","280,1,N,0031,1","00660,1,C,N","011265,1,N,1","+0160,1","+0130,1","99999,9","02,5,+00450,1,99,9","04,5,+00660,1,99,9","07,5,+01050,1,99,9","07,99,1,99,9,99,9,99999,9,99,9,99,9",,"10149,1,99999,9","05,1",,,,"MET072METAR EGUO 090850Z 28006KT 9999 HZ FEW015 SCT022 BKN035 16/13 Q1015 WHT;",
"03658499999","2010-09-09T09:50:00","4","51.439083","-2.286389","180.74","COLERNE, UK","FM-15","EGUO ","V020","280,1,N,0031,1","22000,1,9,N","011265,1,N,1","+0170,1","+0130,1","99999,9","04,5,+00570,1,99,9",,,"04,99,1,99,9,99,9,99999,9,99,9,99,9",,"10159,1,99999,9",,,,,"MET055METAR EGUO 090950Z 28006KT 9999 SCT019 17/13 Q1016 WHT;",
"03658499999","2010-09-09T10:50:00","4","51.439083","-2.286389","180.74","COLERNE, UK","FM-15","EGUO ","V020","290,1,N,0026,1","22000,1,9,N","011265,1,N,1","+0170,1","+0130,1","99999,9","04,5,+00600,5,99,9",,,,,"10160,1,99999,9",,,,,"MET056METAR EGUO 091050Z 29005KT 99999 SCT020 17/13 Q1016 WHT;",
"03658499999","2010-09-09T11:50:00","4","51.439083","-2.286389","180.74","COLERNE, UK","FM-15","EGUO ","V020","270,1,N,0036,1","22000,1,9,N","011265,1,N,1","+0170,1","+0120,1","99999,9","04,5,+00600,1,99,9",,,"04,99,1,99,9,99,9,99999,9,99,9,99,9",,"10169,1,99999,9",,,,,"MET055METAR EGUO 091150Z 27007KT 9999 SCT020 17/12 Q1017 WHT;",
"03658499999","2010-09-09T12:50:00","4","51.439083","-2.286389","180.74","COLERNE, UK","FM-15","EGUO ","V020","300,1,N,0041,1","22000,1,9,N","011265,1,N,1","+0190,1","+0140,1","99999,9","04,5,+00630,1,99,9",,,"04,99,1,99,9,99,9,99999,9,99,9,99,9",,"10169,1,99999,9",,,,,"MET055METAR EGUO 091250Z 30008KT 9999 SCT021 19/14 Q1017 WHT;",
"03658499999","2010-09-09T13:50:00","4","51.439083","-2.286389","180.74","COLERNE, UK","FM-15","EGUO ","V020","250,1,N,0051,1","22000,1,9,N","011265,1,N,1","+0190,1","+0140,1","99999,9","04,5,+00540,1,99,9",,,"04,99,1,99,9,99,9,99999,9,99,9,99,9",,"10169,1,99999,9",,,,,"MET055METAR EGUO 091350Z 25010KT 9999 SCT018 19/14 Q1017 WHT;",
"03658499999","2010-09-09T14:50:00","4","51.439083","-2.286389","180.74","COLERNE, UK","FM-15","EGUO ","V020","260,1,N,0046,1","22000,1,9,N","011265,1,N,1","+0190,1","+0140,1","99999,9","04,5,+00600,1,99,9",,,"04,99,1,99,9,99,9,99999,9,99,9,99,9",,"10169,1,99999,9",,,,,"MET055METAR EGUO 091450Z 26009KT 9999 SCT020 19/14 Q1017 WHT;",
"03658499999","2010-09-10T07:50:00","4","51.439083","-2.286389","180.74","COLERNE, UK","FM-15","EGUO ","V020","200,1,N,0077,1","00360,1,C,N","011265,1,N,1","+0160,1","+0140,1","99999,9","02,5,+00240,1,99,9","07,5,+00360,1,99,9",,"07,99,1,99,9,99,9,99999,9,99,9,99,9",,"10180,1,99999,9","05,1",,,,"MET065METAR EGUO 100750Z 20015KT 9999 HZ FEW008 BKN012 16/14 Q1018 GRN;",
"03658499999","2010-09-10T08:50:00","4","51.439083","-2.286389","180.74","COLERNE, UK","FM-15","EGUO ","V020","210,1,N,0062,1","00360,1,C,N","008000,1,N,1","+0170,1","+0150,1","99999,9","02,5,+00240,1,99,9","07,5,+00360,1,99,9",,"07,99,1,99,9,99,9,99999,9,99,9,99,9",,"10180,1,99999,9","05,1",,,,"MET065METAR EGUO 100850Z 21012KT 8000 HZ FEW008 BKN012 17/15 Q1018 GRN;",
"03658499999","2010-09-10T09:50:00","4","51.439083","-2.286389","180.74","COLERNE, UK","FM-15","EGUO ","V020","190,1,N,0041,1","00360,1,C,N","011265,1,N,1","+9999,9","+9999,9","99999,9","07,5,+00360,1,99,9",,,"07,99,1,99,9,99,9,99999,9,99,9,99,9",,"10180,1,99999,9",,,,,"MET054METAR EGUO 100950Z 19008KT 9999 BKN012 1715 Q1018 GRN;",
"03658499999","2010-09-10T10:50:00","4","51.439083","-2.286389","180.74","COLERNE, UK","FM-15","EGUO ","V020","210,1,N,0067,1","99999,9,C,N","011265,1,N,1","+0180,1","+0160,1","99999,9","02,5,+00270,1,99,9","04,5,+00360,1,99,9",,"04,99,1,99,9,99,9,99999,9,99,9,99,9",,"10180,1,99999,9",,,,,"MET062METAR EGUO 101050Z 21013KT 9999 FEW009 SCT012 18/16 Q1018 GRN;","P01 003603SCOCIG"
"03658499999","2010-09-10T11:50:00","4","51.439083","-2.286389","180.74","COLERNE, UK","FM-15","EGUO ","V020","210,1,N,0051,1","00450,1,C,N","011265,1,N,1","+0190,1","+0150,1","99999,9","07,5,+00450,1,99,9",,,"07,99,1,99,9,99,9,99999,9,99,9,99,9",,"10180,1,99999,9",,,,,"MET055METAR EGUO 101150Z 21010KT 9999 BKN015 19/15 Q1018 WHT;",
"03658499999","2010-09-10T12:50:00","4","51.439083","-2.286389","180.74","COLERNE, UK","FM-15","EGUO ","V020","220,1,N,0082,1","00600,1,C,N","011265,1,N,1","+0200,1","+0170,1","99999,9","02,5,+00450,1,99,9","07,5,+00600,1,99,9",,"07,99,1,99,9,99,9,99999,9,99,9,99,9",,"10169,1,99999,9",,,,,"MET062METAR EGUO 101250Z 22016KT 9999 FEW015 BKN020 20/17 Q1017 WHT;",
"03658499999","2010-09-10T13:50:00","4","51.439083","-2.286389","180.74","COLERNE, UK","FM-15","EGUO ","V020","210,1,N,0093,1","00600,1,C,N","011265,1,N,1","+0200,1","+0170,1","99999,9","02,5,+00450,1,99,9","07,5,+00600,1,99,9",,"07,99,1,99,9,99,9,99999,9,99,9,99,9",,"10169,1,99999,9",,,,,"MET062METAR EGUO 101350Z 21018KT 9999 FEW015 BKN020 20/17 Q1017 WHT;",
"03658499999","2010-09-11T07:50:00","4","51.439083","-2.286389","180.74","COLERNE, UK","FM-15","EGUO ","V020","250,1,N,0077,1","00240,1,C,N","003000,1,N,1","+0160,1","+0150,1","99999,9","02,5,+00180,1,99,9","07,5,+00240,1,99,9",,"07,99,1,99,9,99,9,99999,9,99,9,99,9",,"10129,1,99999,9","63,1",,,,"MET066METAR EGUO 110750Z 25015KT 3000 RA FEW006 BKN008 16/15 Q1013 YLO1;",
"03658499999","2010-09-11T09:50:00","4","51.439083","-2.286389","180.74","COLERNE, UK","FM-15","EGUO ","V020","250,1,N,0062,1","00720,1,C,N","011265,1,N,1","+0180,1","+0150,1","99999,9","02,5,+00330,1,99,9","04,5,+00720,1,99,9","07,5,+03000,1,99,9","07,99,1,99,9,99,9,99999,9,99,9,99,9",,"10139,1,99999,9",,,,,"MET069METAR EGUO 110950Z 25012KT 9999 FEW011 SCT024 BKN100 18/15 Q1014 BLU;",
"03658499999","2010-09-11T10:50:00","4","51.439083","-2.286389","180.74","COLERNE, UK","FM-15","EGUO ","V020","240,1,N,0072,1","99999,9,C,N","011265,1,N,1","+0180,1","+0150,1","99999,9","02,5,+00750,1,99,9","04,5,+01050,1,99,9",,"04,99,1,99,9,99,9,99999,9,99,9,99,9",,"10139,1,99999,9",,,,,"MET062METAR EGUO 111050Z 24014KT 9999 FEW025 SCT035 18/15 Q1014 BLU;","P01 010503SCOCIG"
"03658499999","2010-09-11T11:50:00","4","51.439083","-2.286389","180.74","COLERNE, UK","FM-15","EGUO ","V020","250,1,N,0067,1","22000,1,9,N","011265,1,N,1","+0180,1","+0150,1","99999,9","04,5,+01050,1,99,9",,,"04,99,1,99,9,99,9,99999,9,99,9,99,9",,"10149,1,99999,9",,,,,"MET055METAR EGUO 111150Z 25013KT 9999 SCT035 18/15 Q1015 BLU;",
"03658499999","2010-09-12T06:50:00","4","51.439083","-2.286389","180.74","COLERNE, UK","FM-15","EGUO ","V020","270,1,N,0036,1","99999,9,9,Y","009900,1,N,1","+0120,1","+0100,1","99999,9",,,,,,"10230,1,99999,9",,,,,"MET049METAR EGUO 120650Z 27007KT CAVOK 12/10 Q1023 BLU;",
"03658499999","2010-09-12T07:50:00","4","51.439083","-2.286389","180.74","COLERNE, UK","FM-15","EGUO ","V020","290,1,N,0036,1","22000,1,9,N","011265,1,N,1","+0130,1","+0100,1","99999,9","02,5,+00900,1,99,9",,,"02,99,1,99,9,99,9,99999,9,99,9,99,9",,"10240,1,99999,9",,,,,"MET055METAR EGUO 120750Z 29007KT 9999 FEW030 13/10 Q1024 BLU;",
"03658499999","2010-09-12T08:50:00","4","51.439083","-2.286389","180.74","COLERNE, UK","FM-15","EGUO ","V020","300,1,N,0062,1","22000,1,9,N","011265,1,N,1","+0140,1","+0090,1","99999,9","02,5,+00750,1,99,9",,,"02,99,1,99,9,99,9,99999,9,99,9,99,9",,"10240,1,99999,9",,,,,"MET055METAR EGUO 120850Z 30012KT 9999 FEW025 14/09 Q1024 BLU;",
"03658499999","2010-09-12T09:50:00","4","51.439083","-2.286389","180.74","COLERNE, UK","FM-15","EGUO ","V020","300,1,N,0051,1","22000,1,9,N","011265,1,N,1","+0150,1","+0100,1","99999,9","04,5,+00690,1,99,9",,,"04,99,1,99,9,99,9,99999,9,99,9,99,9",,"10251,1,99999,9",,,,,"MET055METAR EGUO 120950Z 30010KT 9999 SCT023 15/10 Q1025 WHT;",
"03658499999","2010-09-12T10:50:00","4","51.439083","-2.286389","180.74","COLERNE, UK","FM-15","EGUO ","V020","280,1,N,0036,1","22000,1,9,N","011265,1,N,1","+0160,1","+0090,1","99999,9","04,5,+00750,1,99,9",,,"04,99,1,99,9,99,9,99999,9,99,9,99,9",,"10251,1,99999,9",,,,,"MET055METAR EGUO 121050Z 28007KT 9999 SCT025 16/09 Q1025 BLU;",
"03658499999","2010-09-12T11:50:00","4","51.439083","-2.286389","180.74","COLERNE, UK","FM-15","EGUO ","V020","300,1,N,0036,1","22000,1,9,N","011265,1,N,1","+0170,1","+0090,1","99999,9","04,5,+00900,1,99,9",,,"04,99,1,99,9,99,9,99999,9,99,9,99,9",,"10251,1,99999,9",,,,,"MET055METAR EGUO 121150Z 30007KT 9999 SCT030 17/09 Q1025 BLU;",
"03658499999","2010-09-12T12:50:00","4","51.439083","-2.286389","180.74","COLERNE, UK","FM-15","EGUO ","V020","300,1,N,0031,1","22000,1,9,N","011265,1,N,1","+0170,1","+0080,1","99999,9","04,5,+01050,1,99,9",,,"04,99,1,99,9,99,9,99999,9,99,9,99,9",,"10251,1,99999,9",,,,,"MET055METAR EGUO 121250Z 30006KT 9999 SCT035 17/08 Q1025 BLU;",
"03658499999","2010-09-15T06:50:00","4","51.439083","-2.286389","180.74","COLERNE, UK","FM-15","EGUO ","V020","250,1,N,0072,1","22000,1,9,N","008000,1,N,1","+0100,1","+0080,1","99999,9","02,5,+01200,1,99,9",,,"02,99,1,99,9,99,9,99999,9,99,9,99,9",,"10139,1,99999,9","05,1",,,,"MET058METAR EGUO 150650Z 25014KT 8000 HZ FEW040 10/08 Q1014 BLU;",
"03658499999","2010-09-15T07:50:00","4","51.439083","-2.286389","180.74","COLERNE, UK","FM-15","EGUO ","V020","270,1,N,0051,1","99999,9,C,N","008000,1,N,1","+0120,1","+0080,1","99999,9","02,5,+00600,1,99,9","04,5,+01800,1,99,9",,"04,99,1,99,9,99,9,99999,9,99,9,99,9",,"10139,1,99999,9","05,1",,,,"MET065METAR EGUO 150750Z 27010KT 8000 HZ FEW020 SCT060 12/08 Q1014 BLU;","P01 018003SCOCIG"
"03658499999","2010-09-15T08:50:00","4","51.439083","-2.286389","180.74","COLERNE, UK","FM-15","EGUO ","V020","260,1,N,0077,1","99999,9,C,N","011265,1,N,1","+0130,1","+0070,1","99999,9","02,5,+00600,1,99,9","04,5,+01800,1,99,9",,"04,99,1,99,9,99,9,99999,9,99,9,99,9",,"10139,1,99999,9",,,,,"MET062METAR EGUO 150850Z 26015KT 9999 FEW020 SCT060 13/07 Q1014 BLU;","P01 018003SCOCIG"
"03658499999","2010-09-15T09:50:00","4","51.439083","-2.286389","180.74","COLERNE, UK","FM-15","EGUO ","V020","270,1,N,0093,1","22000,1,9,N","011265,1,N,1","+0140,1","+0060,1","99999,9","04,5,+00840,1,99,9",,,"04,99,1,99,9,99,9,99999,9,99,9,99,9",,"10129,1,99999,9",,,,"0165,1","MET058METAR EGUO 150950Z 27018G32KT 9999 SCT028 14/06 Q1013 BLU;",
"03658499999","2010-09-15T10:50:00","4","51.439083","-2.286389","180.74","COLERNE, UK","FM-15","EGUO ","V020","270,1,N,0093,1","99999,9,C,N","011265,1,N,1","+0140,1","+0070,1","99999,9","02,5,+00600,1,99,9","04,5,+00840,1,99,9",,"04,99,1,99,9,99,9,99999,9,99,9,99,9",,"10129,1,99999,9",,,,,"MET062METAR EGUO 151050Z 27018KT 9999 FEW020 SCT028 14/07 Q1013 BLU;","P01 008403SCOCIG"
"03658499999","2010-09-15T11:50:00","4","51.439083","-2.286389","180.74","COLERNE, UK","FM-15","EGUO ","V020","270,1,N,0077,1","00900,1,C,N","011265,1,N,1","+0140,1","+0070,1","99999,9","07,5,+00900,1,99,9",,,"07,99,1,99,9,99,9,99999,9,99,9,99,9",,"10129,1,99999,9",,,,"0129,1","MET058METAR EGUO 151150Z 27015G25KT 9999 BKN030 14/07 Q1013 BLU;",
"03658499999","2010-09-15T12:50:00","4","51.439083","-2.286389","180.74","COLERNE, UK","FM-15","EGUO ","V020","260,1,N,0067,1","99999,9,C,N","011265,1,N,1","+0140,1","+0080,1","99999,9","02,5,+00600,1,99,9","04,5,+00750,1,99,9",,"04,99,1,99,9,99,9,99999,9,99,9,99,9",,"10129,1,99999,9",,,,,"MET062METAR EGUO 151250Z 26013KT 9999 FEW020 SCT025 14/08 Q1013 BLU;","P01 007503SCOCIG"
"03658499999","2010-09-15T13:50:00","4","51.439083","-2.286389","180.74","COLERNE, UK","FM-15","EGUO ","V020","260,1,N,0072,1","01080,1,C,N","011265,1,N,1","+0140,1","+0080,1","99999,9","04,5,+00750,1,99,9","07,5,+01080,1,99,9",,"07,99,1,99,9,99,9,99999,9,99,9,99,9",,"10119,1,99999,9",,,,,"MET062METAR EGUO 151350Z 26014KT 9999 SCT025 BKN036 14/08 Q1012 BLU;",
"03658499999","2010-09-16T06:50:00","4","51.439083","-2.286389","180.74","COLERNE, UK","FM-15","EGUO ","V020","270,1,N,0036,1","01350,1,C,N","011265,1,N,1","+0120,1","+0090,1","99999,9","02,5,+00360,1,99,9","07,5,+01350,1,99,9",,"07,99,1,99,9,99,9,99999,9,99,9,99,9",,"10129,1,99999,9",,,,,"MET062METAR EGUO 160650Z 27007KT 9999 FEW012 BKN045 12/09 Q1013 BLU;",
"03658499999","2010-09-16T07:50:00","4","51.439083","-2.286389","180.74","COLERNE, UK","FM-15","EGUO ","V020","290,1,N,0051,1","01350,1,C,N","011265,1,N,1","+0120,1","+0090,1","99999,9","02,5,+00450,1,99,9","07,5,+01350,1,99,9",,"07,99,1,99,9,99,9,99999,9,99,9,99,9",,"10129,1,99999,9",,,,,"MET062METAR EGUO 160750Z 29010KT 9999 FEW015 BKN045 12/09 Q1013 BLU;",
"03658499999","2010-09-16T08:50:00","4","51.439083","-2.286389","180.74","COLERNE, UK","FM-15","EGUO ","V020","280,1,N,0051,1","99999,9,C,N","011265,1,N,1","+0140,1","+0100,1","99999,9","02,5,+00450,1,99,9","04,5,+00750,1,99,9",,"04,99,1,99,9,99,9,99999,9,99,9,99,9",,"10129,1,99999,9",,,,,"MET062METAR EGUO 160850Z 28010KT 9999 FEW015 SCT025 14/10 Q1013 BLU;","P01 007503SCOCIG"
"03658499999","2010-09-16T09:50:00","4","51.439083","-2.286389","180.74","COLERNE, UK","FM-15","EGUO ","V020","300,1,N,0046,1","99999,9,C,N","011265,1,N,1","+0140,1","+0090,1","99999,9","02,5,+00450,1,99,9","04,5,+00600,1,99,9",,"04,99,1,99,9,99,9,99999,9,99,9,99,9",,"10129,1,99999,9",,,,,"MET062METAR EGUO 160950Z 30009KT 9999 FEW015 SCT020 14/09 Q1013 WHT;","P01 006003SCOCIG"
"03658499999","2010-09-16T10:50:00","4","51.439083","-2.286389","180.74","COLERNE, UK","FM-15","EGUO ","V020","300,1,N,0062,1","99999,9,C,N","011265,1,N,1","+0150,1","+0090,1","99999,9","02,5,+00540,1,99,9","04,5,+00750,1,99,9",,"04,99,1,99,9,99,9,99999,9,99,9,99,9",,"10129,1,99999,9",,,,,"MET062METAR EGUO 161050Z 30012KT 9999 FEW018 SCT025 15/09 Q1013 BLU;","P01 007503SCOCIG"
"03658499999","2010-09-16T11:50:00","4","51.439083","-2.286389","180.74","COLERNE, UK","FM-15","EGUO ","V020","300,1,N,0051,1","99999,9,C,N","011265,1,N,1","+0150,1","+0070,1","99999,9","02,5,+00450,1,99,9","04,5,+00600,1,99,9",,"04,99,1,99,9,99,9,99999,9,99,9,99,9",,"10129,1,99999,9","80,1",,,,"MET068METAR EGUO 161150Z 30010KT 9999 -SHRA FEW015 SCT020 15/07 Q1013 WHT;","P01 006003SCOCIG"
"03658499999","2010-09-16T12:50:00","4","51.439083","-2.286389","180.74","COLERNE, UK","FM-15","EGUO ","V020","330,1,N,0082,1","22000,1,9,N","011265,1,N,1","+0160,1","+0070,1","99999,9","04,5,+00600,1,99,9",,,"04,99,1,99,9,99,9,99999,9,99,9,99,9",,"10129,1,99999,9",,,,,"MET055METAR EGUO 161250Z 33016KT 9999 SCT020 16/07 Q1013 WHT;",
"03658499999","2010-09-16T13:50:00","4","51.439083","-2.286389","180.74","COLERNE, UK","FM-15","EGUO ","V020","300,1,N,0062,1","22000,1,9,N","011265,1,N,1","+0160,1","+0080,1","99999,9","04,5,+00900,1,99,9",,,"04,99,1,99,9,99,9,99999,9,99,9,99,9",,"10129,1,99999,9",,,,,"MET055METAR EGUO 161350Z 30012KT 9999 SCT030 16/08 Q1013 BLU;",
"03658499999","2010-09-16T14:50:00","4","51.439083","-2.286389","180.74","COLERNE, UK","FM-15","EGUO ","V020","300,1,N,0051,1","01050,1,C,N","011265,1,N,1","+0160,1","+0080,1","99999,9","07,5,+01050,1,99,9",,,"07,99,1,99,9,99,9,99999,9,99,9,99,9",,"10129,1,99999,9",,,,,"MET055METAR EGUO 161450Z 30010KT 9999 BKN035 16/08 Q1013 BLU;",
"03658499999","2010-09-17T06:50:00","4","51.439083","-2.286389","180.74","COLERNE, UK","FM-15","EGUO ","V020","300,1,N,0041,1","99999,9,9,Y","009900,1,N,1","+0090,1","+0070,1","99999,9",,,,,,"10169,1,99999,9",,,,,"MET049METAR EGUO 170650Z 30008KT CAVOK 09/07 Q1017 BLU;",
"03658499999","2010-09-17T07:50:00","4","51.439083","-2.286389","180.74","COLERNE, UK","FM-15","EGUO ","V020","300,1,N,0036,1","99999,9,9,Y","009900,1,N,1","+0110,1","+0070,1","99999,9",,,,,,"10180,1,99999,9",,,,,"MET049METAR EGUO 170750Z 30007KT CAVOK 11/07 Q1018 BLU;",
"03658499999","2010-09-17T08:50:00","4","51.439083","-2.286389","180.74","COLERNE, UK","FM-15","EGUO ","V020","310,1,N,0041,1","22000,1,9,N","011265,1,N,1","+0120,1","+0060,1","99999,9","02,5,+00750,1,99,9",,,"02,99,1,99,9,99,9,99999,9,99,9,99,9",,"10180,1,99999,9",,,,,"MET055METAR EGUO 170850Z 31008KT 9999 FEW025 12/06 Q1018 BLU;",
"03658499999","2010-09-17T09:50:00","4","51.439083","-2.286389","180.74","COLERNE, UK","FM-15","EGUO ","V020","350,1,N,0062,1","99999,9,C,N","011265,1,N,1","+0130,1","+0060,1","99999,9","02,5,+00600,1,99,9","04,5,+00900,1,99,9",,"04,99,1,99,9,99,9,99999,9,99,9,99,9",,"10190,1,99999,9",,,,,"MET062METAR EGUO 170950Z 35012KT 9999 FEW020 SCT030 13/06 Q1019 BLU;","P01 009003SCOCIG"
"03658499999","2010-09-17T10:50:00","4","51.439083","-2.286389","180.74","COLERNE, UK","FM-15","EGUO ","V020","330,1,N,0051,1","22000,1,9,N","011265,1,N,1","+0130,1","+0080,1","99999,9","04,5,+00840,1,99,9",,,"04,99,1,99,9,99,9,99999,9,99,9,99,9",,"10190,1,99999,9",,,,,"MET055METAR EGUO 171050Z 33010KT 9999 SCT028 13/08 Q1019 BLU;",
"03658499999","2010-09-17T11:50:00","4","51.439083","-2.286389","180.74","COLERNE, UK","FM-15","EGUO ","V020","310,1,N,0051,1","22000,1,9,N","011265,1,N,1","+0130,1","+0060,1","99999,9","04,5,+00930,1,99,9",,,"04,99,1,99,9,99,9,99999,9,99,9,99,9",,"10190,1,99999,9",,,,,"MET055METAR EGUO 171150Z 31010KT 9999 SCT031 13/06 Q1019 BLU;",
"03658499999","2010-09-17T12:50:00","4","51.439083","-2.286389","180.74","COLERNE, UK","FM-15","EGUO ","V020","300,1,N,0041,1","22000,1,9,N","011265,1,N,1","+0140,1","+0050,1","99999,9","04,5,+01050,1,99,9",,,"04,99,1,99,9,99,9,99999,9,99,9,99,9",,"10190,1,99999,9",,,,,"MET055METAR EGUO 171250Z 30008KT 9999 SCT035 14/05 Q1019 BLU;",
"03658499999","2010-09-17T13:50:00","4","51.439083","-2.286389","180.74","COLERNE, UK","FM-15","EGUO ","V020","350,1,N,0062,1","22000,1,9,N","011265,1,N,1","+0140,1","+0060,1","99999,9","04,5,+01050,1,99,9",,,"04,99,1,99,9,99,9,99999,9,99,9,99,9",,"10190,1,99999,9",,,,,"MET055METAR EGUO 171350Z 35012KT 9999 SCT035 14/06 Q1019 BLU;",
"03658499999","2010-09-17T14:50:00","4","51.439083","-2.286389","180.74","COLERNE, UK","FM-15","EGUO ","V020","320,1,N,0051,1","22000,1,9,N","011265,1,N,1","+0150,1","+0050,1","99999,9","04,5,+01050,1,99,9",,,"04,99,1,99,9,99,9,99999,9,99,9,99,9",,"10190,1,99999,9",,,,,"MET055METAR EGUO 171450Z 32010KT 9999 SCT035 15/05 Q1019 BLU;",
"03658499999","2010-09-18T06:50:00","4","51.439083","-2.286389","180.74","COLERNE, UK","FM-15","EGUO ","V020","300,1,N,0031,1","99999,9,9,Y","009900,1,N,1","+0090,1","+0050,1","99999,9",,,,,,"10210,1,99999,9",,,,,"MET049METAR EGUO 180650Z 30006KT CAVOK 09/05 Q1021 BLU;",
"03658499999","2010-09-18T07:50:00","4","51.439083","-2.286389","180.74","COLERNE, UK","FM-15","EGUO ","V020","290,1,N,0036,1","99999,9,9,Y","009900,1,N,1","+0100,1","+0060,1","99999,9",,,,,,"10220,1,99999,9",,,,,"MET049METAR EGUO 180750Z 29007KT CAVOK 10/06 Q1022 BLU;",
"03658499999","2010-09-18T08:50:00","4","51.439083","-2.286389","180.74","COLERNE, UK","FM-15","EGUO ","V020","300,1,N,0031,1","99999,9,C,N","011265,1,N,1","+0120,1","+0060,1","99999,9","02,5,+01200,1,99,9","04,5,+04500,1,99,9",,"04,99,1,99,9,99,9,99999,9,99,9,99,9",,"10220,1,99999,9",,,,,"MET062METAR EGUO 180850Z 30006KT 9999 FEW040 SCT150 12/06 Q1022 BLU;","P01 045003SCOCIG"
"03658499999","2010-09-18T09:50:00","4","51.439083","-2.286389","180.74","COLERNE, UK","FM-15","EGUO ","V020","999,9,C,0000,1","99999,9,C,N","011265,1,N,1","+0120,1","+0060,1","99999,9","02,5,+00750,1,99,9","04,5,+04500,1,99,9",,"04,99,1,99,9,99,9,99999,9,99,9,99,9",,"10220,1,99999,9",,,,,"MET062METAR EGUO 180950Z 00000KT 9999 FEW025 SCT150 12/06 Q1022 BLU;","P01 045003SCOCIG"
"03658499999","2010-09-18T10:50:00","4","51.439083","-2.286389","180.74","COLERNE, UK","FM-15","EGUO ","V020","250,1,N,0041,1","99999,9,C,N","011265,1,N,1","+0130,1","+0040,1","99999,9","02,5,+00750,1,99,9","04,5,+04500,1,99,9",,"04,99,1,99,9,99,9,99999,9,99,9,99,9",,"10210,1,99999,9",,,,,"MET062METAR EGUO 181050Z 25008KT 9999 FEW025 SCT150 13/04 Q1021 BLU;","P01 045003SCOCIG"
"03658499999","2010-09-18T11:50:00","4","51.439083","-2.286389","180.74","COLERNE, UK","FM-15","EGUO ","V020","999,9,C,0000,1","07500,1,C,N","011265,1,N,1","+0140,1","+0050,1","99999,9","04,5,+01200,1,99,9","07,5,+07500,1,99,9",,"07,99,1,99,9,99,9,99999,9,99,9,99,9",,"10210,1,99999,9",,,,,"MET062METAR EGUO 181150Z 00000KT 9999 SCT040 BKN250 14/05 Q1021 BLU;",
"03658499999","2010-09-18T12:50:00","4","51.439083","-2.286389","180.74","COLERNE, UK","FM-15","EGUO ","V020","300,1,N,0026,1","04500,1,C,N","011265,1,N,1","+0150,1","+0040,1","99999,9","04,5,+01200,1,99,9","07,5,+04500,1,99,9",,"07,99,1,99,9,99,9,99999,9,99,9,99,9",,"10210,1,99999,9",,,,,"MET062METAR EGUO 181250Z 30005KT 9999 SCT040 BKN150 15/04 Q1021 BLU;",
"03658499999","2010-09-18T13:50:00","4","51.439083","-2.286389","180.74","COLERNE, UK","FM-15","EGUO ","V020","240,1,N,0026,1","22000,1,9,N","011265,1,N,1","+0140,1","+0060,1","99999,9","04,5,+01200,1,99,9",,,"04,99,1,99,9,99,9,99999,9,99,9,99,9",,"10210,1,99999,9",,,,,"MET055METAR EGUO 181350Z 24005KT 9999 SCT040 14/06 Q1021 BLU;",
"03658499999","2010-09-19T06:50:00","4","51.439083","-2.286389","180.74","COLERNE, UK","FM-15","EGUO ","V020","240,1,N,0051,1","99999,9,9,Y","009900,1,N,1","+0110,1","+0090,1","99999,9",,,,,,"10159,1,99999,9",,,,,"MET049METAR EGUO 190650Z 24010KT CAVOK 11/09 Q1016 BLU;",
"03658499999","2010-09-19T07:50:00","4","51.439083","-2.286389","180.74","COLERNE, UK","FM-15","EGUO ","V020","230,1,N,0051,1","99999,9,9,Y","009900,1,N,1","+0120,1","+0080,1","99999,9",,,,,,"10169,1,99999,9",,,,,"MET049METAR EGUO 190750Z 23010KT CAVOK 12/08 Q1017 BLU;",
"03658499999","2010-09-19T08:50:00","4","51.439083","-2.286389","180.74","COLERNE, UK","FM-15","EGUO ","V020","230,1,N,0067,1","99999,9,9,Y","009900,1,N,1","+0120,1","+0090,1","99999,9",,,,,,"10169,1,99999,9",,,,,"MET049METAR EGUO 190850Z 23013KT CAVOK 12/09 Q1017 BLU;",
"03658499999","2010-09-19T09:50:00","4","51.439083","-2.286389","180.74","COLERNE, UK","FM-15","EGUO ","V020","220,1,N,0077,1","99999,9,C,N","011265,1,N,1","+0130,1","+0090,1","99999,9","02,5,+01050,1,99,9","04,5,+02400,1,99,9",,"04,99,1,99,9,99,9,99999,9,99,9,99,9",,"10169,1,99999,9",,,,,"MET062METAR EGUO 190950Z 22015KT 9999 FEW035 SCT080 13/09 Q1017 BLU;","P01 024003SCOCIG"
"03658499999","2010-09-19T10:50:00","4","51.439083","-2.286389","180.74","COLERNE, UK","FM-15","EGUO ","V020","220,1,N,0072,1","99999,9,C,N","011265,1,N,1","+0140,1","+0100,1","99999,9","02,5,+01050,1,99,9","04,5,+02400,1,99,9",,"04,99,1,99,9,99,9,99999,9,99,9,99,9",,"10169,1,99999,9",,,,,"MET062METAR EGUO 191050Z 22014KT 9999 FEW035 SCT080 14/10 Q1017 BLU;","P01 024003SCOCIG"
"03658499999","2010-09-19T11:50:00","4","51.439083","-2.286389","180.74","COLERNE, UK","FM-15","EGUO ","V020","220,1,N,0062,1","99999,9,C,N","011265,1,N,1","+0150,1","+0110,1","99999,9","02,5,+00540,1,99,9","04,5,+00750,1,99,9",,"04,99,1,99,9,99,9,99999,9,99,9,99,9",,"10159,1,99999,9",,,,,"MET062METAR EGUO 191150Z 22012KT 9999 FEW018 SCT025 15/11 Q1016 BLU;","P01 007503SCOCIG"
"03658499999","2010-09-19T12:50:00","4","51.439083","-2.286389","180.74","COLERNE, UK","FM-15","EGUO ","V020","230,1,N,0051,1","22000,1,9,N","011265,1,N,1","+0150,1","+0110,1","99999,9","04,5,+00810,1,99,9",,,"04,99,1,99,9,99,9,99999,9,99,9,99,9",,"10159,1,99999,9",,,,,"MET055METAR EGUO 191250Z 23010KT 9999 SCT027 15/11 Q1016 BLU;",
"03658499999","2010-09-19T13:50:00","4","51.439083","-2.286389","180.74","COLERNE, UK","FM-15","EGUO ","V020","220,1,N,0046,1","99999,9,C,N","011265,1,N,1","+0160,1","+0110,1","99999,9","02,5,+00600,1,99,9","04,5,+00750,1,99,9",,"04,99,1,99,9,99,9,99999,9,99,9,99,9",,"10149,1,99999,9",,,,,"MET062METAR EGUO 191350Z 22009KT 9999 FEW020 SCT025 16/11 Q1015 BLU;","P01 007503SCOCIG"
"03658499999","2010-09-22T06:50:00","4","51.439083","-2.286389","180.74","COLERNE, UK","FM-15","EGUO ","V020","999,9,C,0000,1","00015,1,9,N","000050,1,N,1","+0120,1","+0120,1","99999,9","09,1,+00015,1,99,9",,,"09,99,1,99,9,99,9,00025,1,99,9,99,9",,"10169,1,99999,9","45,1",,,,"MET057METAR EGUO 220650Z 00000KT 0050 FG VV/// 12/12 Q1017 RED;",
"03658499999","2010-09-22T07:50:00","4","51.439083","-2.286389","180.74","COLERNE, UK","FM-15","EGUO ","V020","999,9,C,0000,1","00015,1,9,N","000050,1,N,1","+0130,1","+0120,1","99999,9","09,1,+00015,1,99,9",,,"09,99,1,99,9,99,9,00025,1,99,9,99,9",,"10169,1,99999,9","45,1",,,,"MET057METAR EGUO 220750Z 00000KT 0050 FG VV/// 13/12 Q1017 RED;",
"03658499999","2010-09-22T08:50:00","4","51.439083","-2.286389","180.74","COLERNE, UK","FM-15","EGUO ","V020","150,1,N,0026,1","00015,1,C,N","000200,1,N,1","+0130,1","+0130,1","99999,9","09,1,+00015,1,99,9",,,"09,99,1,99,9,99,9,00025,1,99,9,99,9",,"10169,1,99999,9","45,1",,,,"MET057METAR EGUO 220850Z 15005KT 0200 FG VV/// 13/13 Q1017 RED;",
"03658499999","2010-09-22T09:50:00","4","51.439083","-2.286389","180.74","COLERNE, UK","FM-15","EGUO ","V020","200,1,N,0026,1","22000,1,9,N","003800,1,N,1","+0150,1","+0140,1","99999,9","04,5,+00120,1,99,9",,,"04,99,1,99,9,99,9,99999,9,99,9,99,9",,"10169,1,99999,9","10,1",,,,"MET059METAR EGUO 220950Z 20005KT 3800 BR SCT004 15/14 Q1017 YLO2;",
"03658499999","2010-09-22T10:50:00","4","51.439083","-2.286389","180.74","COLERNE, UK","FM-15","EGUO ","V020","250,1,N,0041,1","99999,9,C,N","008000,1,N,1","+0180,1","+0120,1","99999,9","02,5,+00180,1,99,9","04,5,+00480,1,99,9",,"04,99,1,99,9,99,9,99999,9,99,9,99,9",,"10159,1,99999,9","05,1",,,,"MET065METAR EGUO 221050Z 25008KT 8000 HZ FEW006 SCT016 18/12 Q1016 WHT;","P01 004803SCOCIG"
"03658499999","2010-09-22T11:50:00","4","51.439083","-2.286389","180.74","COLERNE, UK","FM-15","EGUO ","V020","230,1,N,0046,1","22000,1,9,N","008000,1,N,1","+0180,1","+0120,1","99999,9","04,5,+00600,1,99,9",,,"04,99,1,99,9,99,9,99999,9,99,9,99,9",,"10159,1,99999,9","05,1",,,,"MET058METAR EGUO 221150Z 23009KT 8000 HZ SCT020 18/12 Q1016 WHT;",
"03658499999","2010-09-22T12:50:00","4","51.439083","-2.286389","180.74","COLERNE, UK","FM-15","EGUO ","V020","240,1,N,0051,1","22000,1,9,N","011265,1,N,1","+0190,1","+0120,1","99999,9","04,5,+00750,1,99,9",,,"04,99,1,99,9,99,9,99999,9,99,9,99,9",,"10149,1,99999,9",,,,,"MET055METAR EGUO 221250Z 24010KT 9999 SCT025 19/12 Q1015 BLU;",
"03658499999","2010-09-22T13:50:00","4","51.439083","-2.286389","180.74","COLERNE, UK","FM-15","EGUO ","V020","220,1,N,0036,1","22000,1,9,N","011265,1,N,1","+0200,1","+0120,1","99999,9","04,5,+00840,1,99,9",,,"04,99,1,99,9,99,9,99999,9,99,9,99,9",,"10149,1,99999,9",,,,,"MET055METAR EGUO 221350Z 22007KT 9999 SCT028 20/12 Q1015 BLU;",
"03658499999","2010-09-22T14:50:00","4","51.439083","-2.286389","180.74","COLERNE, UK","FM-15","EGUO ","V020","210,1,N,0067,1","22000,1,9,N","011265,1,N,1","+0190,1","+0130,1","99999,9","04,5,+00840,1,99,9",,,"04,99,1,99,9,99,9,99999,9,99,9,99,9",,"10149,1,99999,9",,,,,"MET055METAR EGUO 221450Z 21013KT 9999 SCT028 19/13 Q1015 BLU;",
"03658499999","2010-09-23T06:50:00","4","51.439083","-2.286389","180.74","COLERNE, UK","FM-15","EGUO ","V020","999,9,C,0000,1","00960,1,C,N","011265,1,N,1","+0140,1","+0130,1","99999,9","02,5,+00450,1,99,9","07,5,+00960,1,99,9",,"07,99,1,99,9,99,9,99999,9,99,9,99,9",,"10081,1,99999,9",,,,,"MET062METAR EGUO 230650Z 00000KT 9999 FEW015 BKN032 14/13 Q1008 BLU;",
"03658499999","2010-09-23T07:50:00","4","51.439083","-2.286389","180.74","COLERNE, UK","FM-15","EGUO ","V020","999,9,C,0000,1","99999,9,C,N","011265,1,N,1","+0150,1","+0130,1","99999,9","02,5,+00180,1,99,9","04,5,+01050,1,99,9",,"04,99,1,99,9,99,9,99999,9,99,9,99,9",,"10081,1,99999,9",,,,,"MET062METAR EGUO 230750Z 00000KT 9999 FEW006 SCT035 15/13 Q1008 BLU;","P01 010503SCOCIG"
"03658499999","2010-09-23T09:50:00","4","51.439083","-2.286389","180.74","COLERNE, UK","FM-15","EGUO ","V020","230,1,N,0046,1","99999,9,C,N","011265,1,N,1","+0160,1","+0130,1","99999,9","02,5,+00240,1,99,9","04,5,+00300,1,99,9",,"04,99,1,99,9,99,9,99999,9,99,9,99,9",,"10081,1,99999,9",,,,,"MET062METAR EGUO 230950Z 23009KT 9999 FEW008 SCT010 16/13 Q1008 GRN;","P01 003003SCOCIG"
"03658499999","2010-09-23T10:50:00","4","51.439083","-2.286389","180.74","COLERNE, UK","FM-15","EGUO ","V020","240,1,N,0067,1","00360,1,C,N","011265,1,N,1","+0160,1","+0130,1","99999,9","02,5,+00240,1,99,9","04,5,+00360,1,99,9","07,5,+01350,1,99,9","07,99,1,99,9,99,9,99999,9,99,9,99,9",,"10071,1,99999,9",,,,,"MET069METAR EGUO 231050Z 24013KT 9999 FEW008 SCT012 BKN045 16/13 Q1007 GRN;",
"03658499999","2010-09-23T11:50:00","4","51.439083","-2.286389","180.74","COLERNE, UK","FM-15","EGUO ","V020","220,1,N,0051,1","00480,1,C,N","011265,1,N,1","+0160,1","+0120,1","99999,9","02,5,+00240,1,99,9","07,5,+00480,1,99,9",,"07,99,1,99,9,99,9,99999,9,99,9,99,9",,"10071,1,99999,9",,,,,"MET062METAR EGUO 231150Z 22010KT 9999 FEW008 BKN016 16/12 Q1007 WHT;",
"03658499999","2010-09-23T12:50:00","4","51.439083","-2.286389","180.74","COLERNE, UK","FM-15","EGUO ","V020","240,1,N,0067,1","99999,9,C,N","011265,1,N,1","+0160,1","+0120,1","99999,9","02,5,+00240,1,99,9","04,5,+00480,1,99,9",,"04,99,1,99,9,99,9,99999,9,99,9,99,9",,"10061,1,99999,9",,,,,"MET062METAR EGUO 231250Z 24013KT 9999 FEW008 SCT016 16/12 Q1006 WHT;","P01 004803SCOCIG"
"03658499999","2010-09-23T13:50:00","4","51.439083","-2.286389","180.74","COLERNE, UK","FM-15","EGUO ","V020","230,1,N,0067,1","22000,1,9,N","011265,1,N,1","+0170,1","+0120,1","99999,9","04,5,+00450,1,99,9",,,"04,99,1,99,9,99,9,99999,9,99,9,99,9",,"10051,1,99999,9",,,,,"MET055METAR EGUO 231350Z 23013KT 9999 SCT015 17/12 Q1005 WHT;",
"03658499999","2010-09-23T14:50:00","4","51.439083","-2.286389","180.74","COLERNE, UK","FM-15","EGUO ","V020","230,1,N,0041,1","99999,9,C,N","011265,1,N,1","+0130,1","+0110,1","99999,9","02,5,+00240,1,99,9","04,5,+00450,1,99,9",,"04,99,1,99,9,99,9,99999,9,99,9,99,9",,"10051,1,99999,9",,,,,"MET068METAR EGUO 231450Z 23008KT 9999 8000E FEW008 SCT015 13/11 Q1005 WHT;","P01 004503SCOCIG"
"03658499999","2010-09-24T06:50:00","4","51.439083","-2.286389","180.74","COLERNE, UK","FM-15","EGUO ","V020","330,1,N,0051,1","00750,1,C,N","011265,1,N,1","+0110,1","+0100,1","99999,9","02,5,+00240,1,99,9","07,5,+00750,1,99,9",,"07,99,1,99,9,99,9,99999,9,99,9,99,9",,"10051,1,99999,9",,,,,"MET062METAR EGUO 240650Z 33010KT 9999 FEW008 BKN025 11/10 Q1005 BLU;",
"03658499999","2010-09-24T07:50:00","4","51.439083","-2.286389","180.74","COLERNE, UK","FM-15","EGUO ","V020","350,1,N,0067,1","00240,1,C,N","011265,1,N,1","+0120,1","+0100,1","99999,9","07,5,+00240,1,99,9",,,"07,99,1,99,9,99,9,99999,9,99,9,99,9",,"10051,1,99999,9",,,,,"MET055METAR EGUO 240750Z 35013KT 9999 BKN008 12/10 Q1005 GRN;",
"03658499999","2010-09-24T09:50:00","4","51.439083","-2.286389","180.74","COLERNE, UK","FM-15","EGUO ","V020","350,1,N,0113,1","00360,1,C,N","011265,1,N,1","+0120,1","+0080,1","99999,9","07,5,+00360,1,99,9",,,"07,99,1,99,9,99,9,99999,9,99,9,99,9",,"10071,1,99999,9",,,,,"MET055METAR EGUO 240950Z 35022KT 9999 BKN012 12/08 Q1007 GRN;",
"03658499999","2010-09-24T10:50:00","4","51.439083","-2.286389","180.74","COLERNE, UK","FM-15","EGUO ","V020","350,1,N,0072,1","00450,1,C,N","011265,1,N,1","+0110,1","+0090,1","99999,9","07,5,+00450,1,99,9",,,"07,99,1,99,9,99,9,99999,9,99,9,99,9",,"10081,1,99999,9",,,,,"MET055METAR EGUO 241050Z 35014KT 9999 BKN015 11/09 Q1008 WHT;",
"03658499999","2010-09-24T11:50:00","4","51.439083","-2.286389","180.74","COLERNE, UK","FM-15","EGUO ","V020","350,1,N,0077,1","00450,1,C,N","011265,1,N,1","+0110,1","+0080,1","99999,9","07,5,+00450,1,99,9",,,"07,99,1,99,9,99,9,99999,9,99,9,99,9",,"10091,1,99999,9",,,,"0129,1","MET058METAR EGUO 241150Z 35015G25KT 9999 BKN015 11/08 Q1009 WHT;",
"03658499999","2010-09-24T12:50:00","4","51.439083","-2.286389","180.74","COLERNE, UK","FM-15","EGUO ","V020","360,1,N,0113,1","00450,1,C,N","011265,1,N,1","+0110,1","+0070,1","99999,9","07,5,+00450,1,99,9",,,"07,99,1,99,9,99,9,99999,9,99,9,99,9",,"10102,1,99999,9",,,,,"MET055METAR EGUO 241250Z 36022KT 9999 BKN015 11/07 Q1010 WHT;",
"03658499999","2010-09-24T13:50:00","4","51.439083","-2.286389","180.74","COLERNE, UK","FM-15","EGUO ","V020","360,1,N,0072,1","00450,1,C,N","011265,1,N,1","+0110,1","+0070,1","99999,9","07,5,+00450,1,99,9",,,"07,99,1,99,9,99,9,99999,9,99,9,99,9",,"10108,1,99999,9",,,,,"MET055METAR EGUO 241350Z 36014KT 9999 BKN015 11/07 Q1011 WHT;",
"03658499999","2010-09-25T07:50:00","4","51.439083","-2.286389","180.74","COLERNE, UK","FM-15","EGUO ","V020","330,1,N,0051,1","99999,9,9,Y","009900,1,N,1","+0070,1","+0020,1","99999,9",,,,,,"10190,1,99999,9",,,,,"MET049METAR EGUO 250750Z 33010KT CAVOK 07/02 Q1019 BLU;",
"03658499999","2010-09-25T08:50:00","4","51.439083","-2.286389","180.74","COLERNE, UK","FM-15","EGUO ","V020","330,1,N,0062,1","99999,9,9,Y","009900,1,N,1","+0080,1","+0010,1","99999,9",,,,,,"10190,1,99999,9",,,,,"MET049METAR EGUO 250850Z 33012KT CAVOK 08/01 Q1019 BLU;",
"03658499999","2010-09-25T09:50:00","4","51.439083","-2.286389","180.74","COLERNE, UK","FM-15","EGUO ","V020","350,1,N,0051,1","22000,1,9,N","011265,1,N,1","+0090,1","+0020,1","99999,9","04,5,+00900,1,99,9",,,"04,99,1,99,9,99,9,99999,9,99,9,99,9",,"10190,1,99999,9",,,,,"MET055METAR EGUO 250950Z 35010KT 9999 SCT030 09/02 Q1019 BLU;",
"03658499999","2010-09-25T10:50:00","4","51.439083","-2.286389","180.74","COLERNE, UK","FM-15","EGUO ","V020","340,1,N,0072,1","22000,1,9,N","011265,1,N,1","+0100,1","+0010,1","99999,9","04,5,+01050,1,99,9",,,"04,99,1,99,9,99,9,99999,9,99,9,99,9",,"10190,1,99999,9",,,,,"MET055METAR EGUO 251050Z 34014KT 9999 SCT035 10/01 Q1019 BLU;",
"03658499999","2010-09-25T11:50:00","4","51.439083","-2.286389","180.74","COLERNE, UK","FM-15","EGUO ","V020","330,1,N,0062,1","22000,1,9,N","011265,1,N,1","+0110,1","+0070,1","99999,9","02,5,+01200,1,99,9",,,"02,99,1,99,9,99,9,99999,9,99,9,99,9",,"10200,1,99999,9",,,,,"MET055METAR EGUO 251150Z 33012KT 9999 FEW040 11/07 Q1020 BLU;",
"03658499999","2010-09-25T12:50:00","4","51.439083","-2.286389","180.74","COLERNE, UK","FM-15","EGUO ","V020","330,1,N,0093,1","22000,1,9,N","011265,1,N,1","+0110,1","+0070,1","99999,9","02,5,+01200,1,99,9",,,"02,99,1,99,9,99,9,99999,9,99,9,99,9",,"10190,1,99999,9",,,,,"MET055METAR EGUO 251250Z 33018KT 9999 FEW040 11/07 Q1019 BLU;",
"03658499999","2010-09-25T14:50:00","4","51.439083","-2.286389","180.74","COLERNE, UK","FM-15","EGUO ","V020","350,1,N,0062,1","22000,1,9,N","011265,1,N,1","+0120,1","+0000,1","99999,9","02,5,+00900,1,99,9",,,"02,99,1,99,9,99,9,99999,9,99,9,99,9",,"10190,1,99999,9",,,,,"MET055METAR EGUO 251450Z 35012KT 9999 FEW030 12/00 Q1019 BLU;",
"03658499999","2010-09-26T07:50:00","4","51.439083","-2.286389","180.74","COLERNE, UK","FM-15","EGUO ","V020","330,1,N,0067,1","99999,9,9,Y","009900,1,N,1","+0070,1","+0030,1","99999,9",,,,,,"10169,1,99999,9",,,,,"MET049METAR EGUO 260750Z 33013KT CAVOK 07/03 Q1017 BLU;",
"03658499999","2010-09-26T08:50:00","4","51.439083","-2.286389","180.74","COLERNE, UK","FM-15","EGUO ","V020","330,1,N,0062,1","99999,9,9,Y","009900,1,N,1","+0080,1","+0030,1","99999,9",,,,,,"10169,1,99999,9",,,,,"MET049METAR EGUO 260850Z 33012KT CAVOK 08/03 Q1017 BLU;",
"03658499999","2010-09-26T09:50:00","4","51.439083","-2.286389","180.74","COLERNE, UK","FM-15","EGUO ","V020","340,1,N,0062,1","01350,1,C,N","011265,1,N,1","+0090,1","+0040,1","99999,9","07,5,+01350,1,99,9",,,"07,99,1,99,9,99,9,99999,9,99,9,99,9",,"10169,1,99999,9",,,,,"MET055METAR EGUO 260950Z 34012KT 9999 BKN045 09/04 Q1017 BLU;",
"03658499999","2010-09-26T10:50:00","4","51.439083","-2.286389","180.74","COLERNE, UK","FM-15","EGUO ","V020","330,1,N,0062,1","01200,1,C,N","011265,1,N,1","+0100,1","+0040,1","99999,9","07,5,+01200,1,99,9",,,"07,99,1,99,9,99,9,99999,9,99,9,99,9",,"10159,1,99999,9",,,,,"MET055METAR EGUO 261050Z 33012KT 9999 BKN040 10/04 Q1016 BLU;",
"03658499999","2010-09-26T11:50:00","4","51.439083","-2.286389","180.74","COLERNE, UK","FM-15","EGUO ","V020","340,1,N,0062,1","01200,1,C,N","011265,1,N,1","+0110,1","+0060,1","99999,9","02,5,+00870,1,99,9","07,5,+01200,1,99,9",,"07,99,1,99,9,99,9,99999,9,99,9,99,9",,"10159,1,99999,9",,,,,"MET062METAR EGUO 261150Z 34012KT 9999 FEW029 BKN040 11/06 Q1016 BLU;",
"03658499999","2010-09-26T12:50:00","4","51.439083","-2.286389","180.74","COLERNE, UK","FM-15","EGUO ","V020","340,1,N,0077,1","01200,1,C,N","011265,1,N,1","+0120,1","+0060,1","99999,9","04,5,+00750,1,99,9","07,5,+01200,1,99,9",,"07,99,1,99,9,99,9,99999,9,99,9,99,9",,"10159,1,99999,9",,,,,"MET062METAR EGUO 261250Z 34015KT 9999 SCT025 BKN040 12/06 Q1016 BLU;",
"03658499999","2010-09-26T13:50:00","4","51.439083","-2.286389","180.74","COLERNE, UK","FM-15","EGUO ","V020","330,1,N,0057,1","00900,1,C,N","011265,1,N,1","+0120,1","+0060,1","99999,9","07,5,+00900,1,99,9",,,"07,99,1,99,9,99,9,99999,9,99,9,99,9",,"10159,1,99999,9",,,,,"MET055METAR EGUO 261350Z 33011KT 9999 BKN030 12/06 Q1016 BLU;",
"03658499999","2010-09-29T06:50:00","4","51.439083","-2.286389","180.74","COLERNE, UK","FM-15","EGUO ","V020","190,1,N,0051,1","00150,1,C,N","006000,1,N,1","+0130,1","+0130,1","99999,9","07,5,+00150,1,99,9",,,"07,99,1,99,9,99,9,99999,9,99,9,99,9",,"10149,1,99999,9","63,1",,,,"MET059METAR EGUO 290650Z 19010KT 6000 RA BKN005 13/13 Q1015 YLO1;",
"03658499999","2010-09-29T07:50:00","4","51.439083","-2.286389","180.74","COLERNE, UK","FM-15","EGUO ","V020","150,1,N,0041,1","00150,1,C,N","005000,1,N,1","+0130,1","+0130,1","99999,9","02,5,+00060,1,99,9","07,5,+00150,1,99,9",,"07,99,1,99,9,99,9,99999,9,99,9,99,9",,"10139,1,99999,9","63,1",,,,"MET066METAR EGUO 290750Z 15008KT 5000 RA FEW002 BKN005 13/13 Q1014 YLO1;",
"03658499999","2010-09-29T08:50:00","4","51.439083","-2.286389","180.74","COLERNE, UK","FM-15","EGUO ","V020","170,1,N,0026,1","00150,1,C,N","008000,1,N,1","+0140,1","+0130,1","99999,9","07,5,+00150,1,99,9",,,"07,99,1,99,9,99,9,99999,9,99,9,99,9",,"10149,1,99999,9","10,1",,,,"MET059METAR EGUO 290850Z 17005KT 8000 BR BKN005 14/13 Q1015 YLO1;",
"03658499999","2010-09-29T09:50:00","4","51.439083","-2.286389","180.74","COLERNE, UK","FM-15","EGUO ","V020","170,1,N,0062,1","00120,1,C,N","003000,1,N,1","+0140,1","+0130,1","99999,9","07,5,+00120,1,99,9",,,"07,99,1,99,9,99,9,99999,9,99,9,99,9",,"10139,1,99999,9","81,1",,,,"MET061METAR EGUO 290950Z 17012KT 3000 SHRA BKN004 14/13 Q1014 YLO2;",
"03658499999","2010-09-29T10:50:00","4","51.439083","-2.286389","180.74","COLERNE, UK","FM-15","EGUO ","V020","190,1,N,0051,1","00090,1,C,N","001500,1,N,1","+0140,1","+0130,1","99999,9","08,5,+00090,1,99,9",,,"08,99,1,99,9,99,9,99999,9,99,9,99,9",,"10139,1,99999,9","63,1",,,,"MET058METAR EGUO 291050Z 19010KT 1500 RA OVC003 14/13 Q1014 AMB;",
"03658499999","2010-09-29T11:50:00","4","51.439083","-2.286389","180.74","COLERNE, UK","FM-15","EGUO ","V020","200,1,N,0062,1","00015,1,C,N","001500,1,N,1","+0140,1","+0140,1","99999,9","08,5,+00000,5,99,9",,,"08,99,1,99,9,99,9,99999,9,99,9,99,9",,"10139,1,99999,9","65,1",,,,"MET059METAR EGUO 291150Z 20012KT 1500 +RA OVC000 14/14 Q1014 RED;",
"03658499999","2010-09-29T12:50:00","4","51.439083","-2.286389","180.74","COLERNE, UK","FM-15","EGUO ","V020","250,1,N,0051,1","00030,1,C,N","001500,1,N,1","+0130,1","+0130,1","99999,9","08,5,+00030,1,99,9",,,"08,99,1,99,9,99,9,99999,9,99,9,99,9",,"10139,1,99999,9","81,1",,,,"MET060METAR EGUO 291250Z 25010KT 1500 SHRA OVC001 13/13 Q1014 RED;",
"03658499999","2010-09-29T13:50:00","4","51.439083","-2.286389","180.74","COLERNE, UK","FM-15","EGUO ","V020","250,1,N,0041,1","00300,1,C,N","004000,1,N,1","+0120,1","+0110,1","99999,9","07,5,+00300,1,99,9",,,"07,99,1,99,9,99,9,99999,9,99,9,99,9",,"10139,1,99999,9","63,1",,,,"MET058METAR EGUO 291350Z 25008KT 4000 RA BKN010 12/11 Q1014 GRN;",
"03658499999","2010-09-30T06:50:00","4","51.439083","-2.286389","180.74","COLERNE, UK","FM-15","EGUO ","V020","240,1,N,0021,1","22000,1,9,N","011265,1,N,1","+0090,1","+0090,1","99999,9","02,5,+00600,1,99,9",,,"02,99,1,99,9,99,9,99999,9,99,9,99,9",,"10159,1,99999,9","40,1",,,,"MET060METAR EGUO 300650Z 24004KT 9999 VCFG FEW020 09/09 Q1016 BLU;",
"03658499999","2010-09-30T07:50:00","4","51.439083","-2.286389","180.74","COLERNE, UK","FM-15","EGUO ","V020","999,9,C,0000,1","99999,9,9,Y","009900,1,N,1","+0100,1","+0100,1","99999,9",,,,,,"10159,1,99999,9",,,,,"MET049METAR EGUO 300750Z 00000KT CAVOK 10/10 Q1016 BLU;",
"03658499999","2010-09-30T08:50:00","4","51.439083","-2.286389","180.74","COLERNE, UK","FM-15","EGUO ","V020","220,1,N,0026,1","99999,9,9,Y","009900,1,N,1","+0120,1","+0110,1","99999,9",,,,,,"10159,1,99999,9",,,,,"MET049METAR EGUO 300850Z 22005KT CAVOK 12/11 Q1016 BLU;",
"03658499999","2010-09-30T09:50:00","4","51.439083","-2.286389","180.74","COLERNE, UK","FM-15","EGUO ","V020","210,1,N,0036,1","99999,9,C,N","011265,1,N,1","+0130,1","+0110,1","99999,9","02,5,+00450,1,99,9","04,5,+00750,1,99,9",,"04,99,1,99,9,99,9,99999,9,99,9,99,9",,"10149,1,99999,9",,,,,"MET062METAR EGUO 300950Z 21007KT 9999 FEW015 SCT025 13/11 Q1015 BLU;","P01 007503SCOCIG"
"03658499999","2010-09-30T10:50:00","4","51.439083","-2.286389","180.74","COLERNE, UK","FM-15","EGUO ","V020","230,1,N,0026,1","22000,1,9,N","011265,1,N,1","+0140,1","+0110,1","99999,9","04,5,+00450,1,99,9",,,"04,99,1,99,9,99,9,99999,9,99,9,99,9",,"10149,1,99999,9",,,,,"MET055METAR EGUO 301050Z 23005KT 9999 SCT015 14/11 Q1015 WHT;",
"03658499999","2010-09-30T11:50:00","4","51.439083","-2.286389","180.74","COLERNE, UK","FM-15","EGUO ","V020","210,1,N,0041,1","22000,1,9,N","011265,1,N,1","+0140,1","+0100,1","99999,9","04,5,+00450,1,99,9",,,"04,99,1,99,9,99,9,99999,9,99,9,99,9",,"10149,1,99999,9",,,,,"MET055METAR EGUO 301150Z 21008KT 9999 SCT015 14/10 Q1015 WHT;",
"03658499999","2010-09-30T12:50:00","4","51.439083","-2.286389","180.74","COLERNE, UK","FM-15","EGUO ","V020","210,1,N,0051,1","22000,1,9,N","011265,1,N,1","+0150,1","+0100,1","99999,9","04,5,+00450,1,99,9",,,"04,99,1,99,9,99,9,99999,9,99,9,99,9",,"10139,1,99999,9",,,,,"MET055METAR EGUO 301250Z 21010KT 9999 SCT015 15/10 Q1014 WHT;",
"03658499999","2010-09-30T13:50:00","4","51.439083","-2.286389","180.74","COLERNE, UK","FM-15","EGUO ","V020","220,1,N,0036,1","99999,9,C,N","011265,1,N,1","+0150,1","+0090,1","99999,9","02,5,+00360,1,99,9","04,5,+00660,1,99,9",,"04,99,1,99,9,99,9,99999,9,99,9,99,9",,"10139,1,99999,9",,,,,"MET062METAR EGUO 301350Z 22007KT 9999 FEW012 SCT022 15/09 Q1014 WHT;","P01 006603SCOCIG"
"03658499999","2010-09-30T14:50:00","4","51.439083","-2.286389","180.74","COLERNE, UK","FM-15","EGUO ","V020","220,1,N,0026,1","99999,9,C,N","011265,1,N,1","+0140,1","+0090,1","99999,9","02,5,+00450,1,99,9","04,5,+00750,1,99,9",,"04,99,1,99,9,99,9,99999,9,99,9,99,9",,"10129,1,99999,9",,,,,"MET062METAR EGUO 301450Z 22005KT 9999 FEW015 SCT025 14/09 Q1013 BLU;","P01 007503SCOCIG"
"03658499999","2010-10-01T06:50:00","4","51.439083","-2.286389","180.74","COLERNE, UK","FM-15","EGUO ","V020","200,1,N,0062,1","00015,1,C,N","001500,1,N,1","+0130,1","+0130,1","99999,9","08,5,+00000,5,99,9",,,"08,99,1,99,9,99,9,99999,9,99,9,99,9",,"10010,1,99999,9","65,1",,,,"MET059METAR EGUO 010650Z 20012KT 1500 +RA OVC000 13/13 Q1001 RED;",
"03658499999","2010-10-01T07:50:00","4","51.439083","-2.286389","180.74","COLERNE, UK","FM-15","EGUO ","V020","200,1,N,0077,1","00030,1,C,N","001500,1,N,1","+0130,1","+0130,1","99999,9","08,5,+00030,1,99,9",,,"08,99,1,99,9,99,9,99999,9,99,9,99,9",,"10000,1,99999,9","10,1","65,1",,,"MET062METAR EGUO 010750Z 20015KT 1500 +RA BR OVC001 13/13 Q1000 RED;",
"03658499999","2010-10-02T06:50:00","4","51.439083","-2.286389","180.74","COLERNE, UK","FM-15","EGUO ","V020","999,9,C,0000,1","99999,9,C,N","011265,1,N,1","+0070,1","+0070,1","99999,9","02,5,+03600,1,99,9","04,5,+04800,1,99,9",,"04,99,1,99,9,99,9,99999,9,99,9,99,9",,"10061,1,99999,9","40,1",,,,"MET067METAR EGUO 020650Z 00000KT 9999 VCFG FEW120 SCT160 07/07 Q1006 BLU;","P01 048003SCOCIG"
"03658499999","2010-10-02T07:50:00","4","51.439083","-2.286389","180.74","COLERNE, UK","FM-15","EGUO ","V020","999,9,C,0000,1","99999,9,C,N","011265,1,N,1","+0090,1","+0080,1","99999,9","02,5,+03600,1,99,9","04,5,+06000,1,99,9",,"04,99,1,99,9,99,9,99999,9,99,9,99,9",,"10061,1,99999,9","40,1",,,,"MET067METAR EGUO 020750Z 00000KT 9999 VCFG FEW120 SCT200 09/08 Q1006 BLU;","P01 060003SCOCIG"
"03658499999","2010-10-02T08:50:00","4","51.439083","-2.286389","180.74","COLERNE, UK","FM-15","EGUO ","V020","160,1,N,0031,1","99999,9,9,Y","009900,1,N,1","+0110,1","+0090,1","99999,9",,,,,,"10061,1,99999,9",,,,,"MET049METAR EGUO 020850Z 16006KT CAVOK 11/09 Q1006 BLU;",
"03658499999","2010-10-02T09:50:00","4","51.439083","-2.286389","180.74","COLERNE, UK","FM-15","EGUO ","V020","160,1,N,0036,1","99999,9,9,Y","009900,1,N,1","+0110,1","+0090,1","99999,9",,,,,,"10061,1,99999,9",,,,,"MET049METAR EGUO 020950Z 16007KT CAVOK 11/09 Q1006 BLU;",
"03658499999","2010-10-02T10:50:00","4","51.439083","-2.286389","180.74","COLERNE, UK","FM-15","EGUO ","V020","170,1,N,0036,1","99999,9,C,N","011265,1,N,1","+0120,1","+0100,1","99999,9","02,5,+00750,1,99,9","04,5,+01350,1,99,9",,"04,99,1,99,9,99,9,99999,9,99,9,99,9",,"10051,1,99999,9",,,,,"MET062METAR EGUO 021050Z 17007KT 9999 FEW025 SCT045 12/10 Q1005 BLU;","P01 013503SCOCIG"
"03658499999","2010-10-02T11:50:00","4","51.439083","-2.286389","180.74","COLERNE, UK","FM-15","EGUO ","V020","150,1,N,0036,1","00450,1,C,N","011265,1,N,1","+0140,1","+0110,1","99999,9","02,5,+00300,1,99,9","04,5,+00450,1,99,9","07,5,+01200,1,99,9","07,99,1,99,9,99,9,99999,9,99,9,99,9",,"10041,1,99999,9",,,,,"MET069METAR EGUO 021150Z 15007KT 9999 FEW010 SCT015 BKN040 14/11 Q1004 WHT;",
"03658499999","2010-10-02T12:50:00","4","51.439083","-2.286389","180.74","COLERNE, UK","FM-15","EGUO ","V020","170,1,N,0041,1","99999,9,C,N","011265,1,N,1","+0150,1","+0110,1","99999,9","02,5,+00450,1,99,9","04,5,+00600,1,99,9",,"04,99,1,99,9,99,9,99999,9,99,9,99,9",,"10031,1,99999,9",,,,,"MET062METAR EGUO 021250Z 17008KT 9999 FEW015 SCT020 15/11 Q1003 WHT;","P01 006003SCOCIG"
"03658499999","2010-10-02T13:50:00","4","51.439083","-2.286389","180.74","COLERNE, UK","FM-15","EGUO ","V020","160,1,N,0031,1","99999,9,C,N","011265,1,N,1","+0150,1","+0110,1","99999,9","02,5,+00300,1,99,9","04,5,+00600,1,99,9",,"04,99,1,99,9,99,9,99999,9,99,9,99,9",,"10031,1,99999,9",,,,,"MET062METAR EGUO 021350Z 16006KT 9999 FEW010 SCT020 15/11 Q1003 WHT;","P01 006003SCOCIG"
"03658499999","2010-10-06T08:25:00","4","51.439083","-2.286389","180.74","COLERNE, UK","FM-15","EGUO ","V020","210,1,N,0051,1","22000,1,9,N","011265,1,N,1","+0120,1","+0110,1","99999,9","02,5,+00120,1,99,9",,,"02,99,1,99,9,99,9,99999,9,99,9,99,9",,"10031,1,99999,9",,,,,"MET051METAR EGUO 060825Z 21010KT 9999 FEW004 12/11 Q1003;",
"03658499999","2010-10-06T08:50:00","4","51.439083","-2.286389","180.74","COLERNE, UK","FM-15","EGUO ","V020","230,1,N,0051,1","22000,1,9,N","011265,1,N,1","+0120,1","+0100,1","99999,9","02,5,+00120,1,99,9",,,"02,99,1,99,9,99,9,99999,9,99,9,99,9",,"10041,1,99999,9",,,,,"MET055METAR EGUO 060850Z 23010KT 9999 FEW004 12/10 Q1004 BLU;",
"03658499999","2010-10-06T09:50:00","4","51.439083","-2.286389","180.74","COLERNE, UK","FM-15","EGUO ","V020","250,1,N,0062,1","22000,1,9,N","011265,1,N,1","+0140,1","+0090,1","99999,9","02,5,+00180,1,99,9",,,"02,99,1,99,9,99,9,99999,9,99,9,99,9",,"10051,1,99999,9",,,,,"MET055METAR EGUO 060950Z 25012KT 9999 FEW006 14/09 Q1005 BLU;",
"03658499999","2010-10-06T10:50:00","4","51.439083","-2.286389","180.74","COLERNE, UK","FM-15","EGUO ","V020","220,1,N,0077,1","22000,1,9,N","011265,1,N,1","+0140,1","+0080,1","99999,9","04,5,+00600,1,99,9",,,"04,99,1,99,9,99,9,99999,9,99,9,99,9",,"10061,1,99999,9",,,,,"MET055METAR EGUO 061050Z 22015KT 9999 SCT020 14/08 Q1006 WHT;",
"03658499999","2010-10-06T11:50:00","4","51.439083","-2.286389","180.74","COLERNE, UK","FM-15","EGUO ","V020","240,1,N,0062,1","22000,1,9,N","011265,1,N,1","+0130,1","+0080,1","99999,9","04,5,+00600,1,99,9",,,"04,99,1,99,9,99,9,99999,9,99,9,99,9",,"10071,1,99999,9",,,,,"MET055METAR EGUO 061150Z 24012KT 9999 SCT020 13/08 Q1007 WHT;",
"03658499999","2010-10-06T12:50:00","4","51.439083","-2.286389","180.74","COLERNE, UK","FM-15","EGUO ","V020","250,1,N,0077,1","22000,1,9,N","011265,1,N,1","+0150,1","+0070,1","99999,9","04,5,+01140,1,99,9",,,"04,99,1,99,9,99,9,99999,9,99,9,99,9",,"10081,1,99999,9",,,,,"MET055METAR EGUO 061250Z 25015KT 9999 SCT038 15/07 Q1008 BLU;",
"03658499999","2010-10-06T13:50:00","4","51.439083","-2.286389","180.74","COLERNE, UK","FM-15","EGUO ","V020","220,1,N,0082,1","22000,1,9,N","011265,1,N,1","+0160,1","+0060,1","99999,9","04,5,+01200,1,99,9",,,"04,99,1,99,9,99,9,99999,9,99,9,99,9",,"10091,1,99999,9",,,,,"MET055METAR EGUO 061350Z 22016KT 9999 SCT040 16/06 Q1009 BLU;",
"03658499999","2010-10-06T14:50:00","4","51.439083","-2.286389","180.74","COLERNE, UK","FM-15","EGUO ","V020","230,1,N,0062,1","22000,1,9,N","011265,1,N,1","+0150,1","+0060,1","99999,9","02,5,+01200,1,99,9",,,"02,99,1,99,9,99,9,99999,9,99,9,99,9",,"10091,1,99999,9",,,,,"MET055METAR EGUO 061450Z 23012KT 9999 FEW040 15/06 Q1009 BLU;",
"03658499999","2010-10-07T06:50:00","4","51.439083","-2.286389","180.74","COLERNE, UK","FM-15","EGUO ","V020","160,1,N,0031,1","00015,1,C,N","001000,1,N,1","+0090,1","+0090,1","99999,9","09,1,+00015,1,99,9",,,"09,99,1,99,9,99,9,00025,1,99,9,99,9",,"10180,1,99999,9","10,1",,,,"MET057METAR EGUO 070650Z 16006KT 1000 BR VV/// 09/09 Q1018 RED;",
"03658499999","2010-10-07T07:50:00","4","51.439083","-2.286389","180.74","COLERNE, UK","FM-15","EGUO ","V020","140,1,N,0026,1","22000,1,9,N","002000,1,N,1","+0100,1","+0090,1","99999,9","04,5,+00030,1,99,9",,,"04,99,1,99,9,99,9,99999,9,99,9,99,9",,"10190,1,99999,9","10,1",,,,"MET058METAR EGUO 070750Z 14005KT 2000 BR SCT001 10/09 Q1019 RED;",
"03658499999","2010-10-07T08:50:00","4","51.439083","-2.286389","180.74","COLERNE, UK","FM-15","EGUO ","V020","140,1,N,0031,1","22000,1,9,N","007000,1,N,1","+0110,1","+0110,1","99999,9","02,5,+00150,1,99,9",,,"02,99,1,99,9,99,9,99999,9,99,9,99,9",,"10190,1,99999,9","10,1",,,,"MET058METAR EGUO 070850Z 14006KT 7000 BR FEW005 11/11 Q1019 WHT;",
"03658499999","2010-10-07T09:50:00","4","51.439083","-2.286389","180.74","COLERNE, UK","FM-15","EGUO ","V020","150,1,N,0041,1","99999,9,C,N","011265,1,N,1","+0140,1","+0110,1","99999,9","02,5,+00300,1,99,9","04,5,+05400,1,99,9",,"04,99,1,99,9,99,9,99999,9,99,9,99,9",,"10190,1,99999,9",,,,,"MET062METAR EGUO 070950Z 15008KT 9999 FEW010 SCT180 14/11 Q1019 WHT;","P01 054003SCOCIG"
"03658499999","2010-10-07T10:50:00","4","51.439083","-2.286389","180.74","COLERNE, UK","FM-15","EGUO ","V020","140,1,N,0062,1","99999,9,C,N","011265,1,N,1","+0150,1","+0100,1","99999,9","02,5,+00540,1,99,9","04,5,+00750,1,99,9",,"04,99,1,99,9,99,9,99999,9,99,9,99,9",,"10180,1,99999,9",,,,,"MET062METAR EGUO 071050Z 14012KT 9999 FEW018 SCT025 15/10 Q1018 BLU;","P01 007503SCOCIG"
"03658499999","2010-10-07T11:50:00","4","51.439083","-2.286389","180.74","COLERNE, UK","FM-15","EGUO ","V020","130,1,N,0062,1","22000,1,9,N","011265,1,N,1","+0160,1","+0090,1","99999,9","02,5,+00750,1,99,9",,,"02,99,1,99,9,99,9,99999,9,99,9,99,9",,"10169,1,99999,9",,,,,"MET055METAR EGUO 071150Z 13012KT 9999 FEW025 16/09 Q1017 BLU;",
"03658499999","2010-10-07T12:50:00","4","51.439083","-2.286389","180.74","COLERNE, UK","FM-15","EGUO ","V020","120,1,N,0051,1","22000,1,9,N","011265,1,N,1","+0170,1","+0100,1","99999,9","04,5,+00840,1,99,9",,,"04,99,1,99,9,99,9,99999,9,99,9,99,9",,"10169,1,99999,9",,,,,"MET055METAR EGUO 071250Z 12010KT 9999 SCT028 17/10 Q1017 BLU;",
"03658499999","2010-10-07T13:50:00","4","51.439083","-2.286389","180.74","COLERNE, UK","FM-15","EGUO ","V020","130,1,N,0062,1","22000,1,9,N","011265,1,N,1","+0160,1","+0100,1","99999,9","04,5,+00900,1,99,9",,,"04,99,1,99,9,99,9,99999,9,99,9,99,9",,"10159,1,99999,9",,,,,"MET055METAR EGUO 071350Z 13012KT 9999 SCT030 16/10 Q1016 BLU;",
"03658499999","2010-10-07T14:50:00","4","51.439083","-2.286389","180.74","COLERNE, UK","FM-15","EGUO ","V020","130,1,N,0062,1","22000,1,9,N","011265,1,N,1","+0170,1","+0100,1","99999,9","04,5,+00900,1,99,9",,,"04,99,1,99,9,99,9,99999,9,99,9,99,9",,"10159,1,99999,9",,,,,"MET055METAR EGUO 071450Z 13012KT 9999 SCT030 17/10 Q1016 BLU;",
"03658499999","2010-10-08T06:50:00","4","51.439083","-2.286389","180.74","COLERNE, UK","FM-15","EGUO ","V020","090,1,N,0041,1","00030,1,C,N","001000,1,N,1","+0130,1","+0130,1","99999,9","08,5,+00030,1,99,9",,,"08,99,1,99,9,99,9,99999,9,99,9,99,9",,"10139,1,99999,9","10,1",,,,"MET058METAR EGUO 080650Z 09008KT 1000 BR OVC001 13/13 Q1014 RED;",
"03658499999","2010-10-08T07:50:00","4","51.439083","-2.286389","180.74","COLERNE, UK","FM-15","EGUO ","V020","070,1,N,0041,1","00030,1,C,N","000600,1,N,1","+0140,1","+0130,1","99999,9","07,5,+00030,1,99,9",,,"07,99,1,99,9,99,9,99999,9,99,9,99,9",,"10149,1,99999,9","44,1",,,,"MET058METAR EGUO 080750Z 07008KT 0600 FG BKN001 14/13 Q1015 RED;",
"03658499999","2010-10-08T08:50:00","4","51.439083","-2.286389","180.74","COLERNE, UK","FM-15","EGUO ","V020","090,1,N,0051,1","00090,1,C,N","002500,1,N,1","+0150,1","+0140,1","99999,9","07,5,+00090,1,99,9",,,"07,99,1,99,9,99,9,99999,9,99,9,99,9",,"10149,1,99999,9","10,1",,,,"MET059METAR EGUO 080850Z 09010KT 2500 BR BKN003 15/14 Q1015 YLO2;",
"03658499999","2010-10-08T10:50:00","4","51.439083","-2.286389","180.74","COLERNE, UK","FM-15","EGUO ","V020","110,1,N,0051,1","00150,1,C,N","003800,1,N,1","+0180,1","+0150,1","99999,9","07,5,+00150,1,99,9",,,"07,99,1,99,9,99,9,99999,9,99,9,99,9",,"10149,1,99999,9","10,1",,,,"MET059METAR EGUO 081050Z 11010KT 3800 BR BKN005 18/15 Q1015 YLO1;",
"03658499999","2010-10-08T11:50:00","4","51.439083","-2.286389","180.74","COLERNE, UK","FM-15","EGUO ","V020","120,1,N,0062,1","00450,1,C,N","004000,1,N,1","+0180,1","+0150,1","99999,9","07,5,+00450,1,99,9",,,"07,99,1,99,9,99,9,99999,9,99,9,99,9",,"10149,1,99999,9","10,1",,,,"MET058METAR EGUO 081150Z 12012KT 4000 BR BKN015 18/15 Q1015 GRN;",
"03658499999","2010-10-08T12:50:00","4","51.439083","-2.286389","180.74","COLERNE, UK","FM-15","EGUO ","V020","120,1,N,0051,1","00900,1,C,N","007000,1,N,1","+0190,1","+0150,1","99999,9","02,5,+00360,1,99,9","07,5,+00900,1,99,9",,"07,99,1,99,9,99,9,99999,9,99,9,99,9",,"10149,1,99999,9","10,1",,,,"MET065METAR EGUO 081250Z 12010KT 7000 BR FEW012 BKN030 19/15 Q1015 WHT;",
"03658499999","2010-10-08T13:50:00","4","51.439083","-2.286389","180.74","COLERNE, UK","FM-15","EGUO ","V020","090,1,N,0062,1","99999,9,C,N","011265,1,N,1","+0200,1","+0150,1","99999,9","02,5,+00450,1,99,9","04,5,+01500,1,99,9",,"04,99,1,99,9,99,9,99999,9,99,9,99,9",,"10139,1,99999,9","05,1",,,,"MET070METAR EGUO 081350Z 09012KT 9999 7000 HZ FEW015 SCT050 20/15 Q1014 WHT;","P01 015003SCOCIG"
"03658499999","2010-10-08T14:50:00","4","51.439083","-2.286389","180.74","COLERNE, UK","FM-15","EGUO ","V020","110,1,N,0051,1","99999,9,C,N","011265,1,N,1","+0200,1","+0150,1","99999,9","02,5,+00450,1,99,9","04,5,+02400,1,99,9",,"04,99,1,99,9,99,9,99999,9,99,9,99,9",,"10139,1,99999,9",,,,,"MET062METAR EGUO 081450Z 11010KT 9999 FEW015 SCT080 20/15 Q1014 BLU;","P01 024003SCOCIG"
"03658499999","2010-10-09T07:50:00","4","51.439083","-2.286389","180.74","COLERNE, UK","FM-15","EGUO ","V020","070,1,N,0077,1","00090,1,C,N","001200,1,N,1","+0140,1","+0130,1","99999,9","07,5,+00090,1,99,9","08,5,+00120,1,99,9",,"08,99,1,99,9,99,9,99999,9,99,9,99,9",,"10149,1,99999,9","10,1",,,,"MET065METAR EGUO 090750Z 07015KT 1200 BR BKN003 OVC004 14/13 Q1015 AMB;",
"03658499999","2010-10-09T08:50:00","4","51.439083","-2.286389","180.74","COLERNE, UK","FM-15","EGUO ","V020","070,1,N,0077,1","00090,1,C,N","001200,1,N,1","+0140,1","+0130,1","99999,9","08,5,+00090,1,99,9",,,"08,99,1,99,9,99,9,99999,9,99,9,99,9",,"10149,1,99999,9","10,1",,,,"MET058METAR EGUO 090850Z 07015KT 1200 BR OVC003 14/13 Q1015 AMB;",
"03658499999","2010-10-09T09:50:00","4","51.439083","-2.286389","180.74","COLERNE, UK","FM-15","EGUO ","V020","070,1,N,0051,1","00090,1,C,N","001500,1,N,1","+0140,1","+0130,1","99999,9","08,5,+00090,1,99,9",,,"08,99,1,99,9,99,9,99999,9,99,9,99,9",,"10159,1,99999,9","10,1",,,,"MET058METAR EGUO 090950Z 07010KT 1500 BR OVC003 14/13 Q1016 AMB;",
"03658499999","2010-10-09T10:50:00","4","51.439083","-2.286389","180.74","COLERNE, UK","FM-15","EGUO ","V020","070,1,N,0051,1","00150,1,C,N","002000,1,N,1","+0140,1","+0130,1","99999,9","08,5,+00150,1,99,9",,,"08,99,1,99,9,99,9,99999,9,99,9,99,9",,"10149,1,99999,9","10,1",,,,"MET059METAR EGUO 091050Z 07010KT 2000 BR OVC005 14/13 Q1015 YLO2;",
"03658499999","2010-10-10T06:50:00","4","51.439083","-2.286389","180.74","COLERNE, UK","FM-15","EGUO ","V020","060,1,N,0051,1","00015,1,C,N","000500,1,N,1","+0120,1","+0120,1","99999,9","09,1,+00015,1,99,9",,,"09,99,1,99,9,99,9,00025,1,99,9,99,9",,"10119,1,99999,9","45,1",,,,"MET057METAR EGUO 100650Z 06010KT 0500 FG VV/// 12/12 Q1012 RED;",
"03658499999","2010-10-10T07:50:00","4","51.439083","-2.286389","180.74","COLERNE, UK","FM-15","EGUO ","V020","070,1,N,0072,1","00015,1,C,N","000500,1,N,1","+0130,1","+0120,1","99999,9","09,1,+00015,1,99,9",,,"09,99,1,99,9,99,9,00025,1,99,9,99,9",,"10119,1,99999,9","45,1",,,,"MET057METAR EGUO 100750Z 07014KT 0500 FG VV/// 13/12 Q1012 RED;",
"03658499999","2010-10-10T08:50:00","4","51.439083","-2.286389","180.74","COLERNE, UK","FM-15","EGUO ","V020","020,1,N,0077,1","00015,1,C,N","001200,1,N,1","+0130,1","+0110,1","99999,9","09,1,+00015,1,99,9",,,"09,99,1,99,9,99,9,00025,1,99,9,99,9",,"10119,1,99999,9","10,1",,,,"MET057METAR EGUO 100850Z 02015KT 1200 BR VV/// 13/11 Q1012 RED;",
"03658499999","2010-10-10T09:50:00","4","51.439083","-2.286389","180.74","COLERNE, UK","FM-15","EGUO ","V020","050,1,N,0051,1","00015,1,C,N","002000,1,N,1","+0140,1","+0120,1","99999,9","09,1,+00015,1,99,9",,,"09,99,1,99,9,99,9,00025,1,99,9,99,9",,"10119,1,99999,9","10,1",,,,"MET057METAR EGUO 100950Z 05010KT 2000 BR VV/// 14/12 Q1012 RED;",
"03658499999","2010-10-13T06:50:00","4","51.439083","-2.286389","180.74","COLERNE, UK","FM-15","EGUO ","V020","999,9,C,0000,1","00300,1,C,N","006000,1,N,1","+0070,1","+0050,1","99999,9","07,5,+00300,1,99,9",,,"07,99,1,99,9,99,9,99999,9,99,9,99,9",,"10220,1,99999,9","10,1",,,,"MET058METAR EGUO 130650Z 00000KT 6000 BR BKN010 07/05 Q1022 GRN;",
"03658499999","2010-10-13T07:50:00","4","51.439083","-2.286389","180.74","COLERNE, UK","FM-15","EGUO ","V020","040,1,N,0046,1","00360,1,C,N","008000,1,N,1","+0070,1","+0050,1","99999,9","07,5,+00360,1,99,9",,,"07,99,1,99,9,99,9,99999,9,99,9,99,9",,"10230,1,99999,9","05,1",,,,"MET058METAR EGUO 130750Z 04009KT 8000 HZ BKN012 07/05 Q1023 GRN;",
"03658499999","2010-10-13T08:50:00","4","51.439083","-2.286389","180.74","COLERNE, UK","FM-15","EGUO ","V020","070,1,N,0041,1","00360,1,C,N","008000,1,N,1","+0070,1","+0040,1","99999,9","07,5,+00360,1,99,9",,,"07,99,1,99,9,99,9,99999,9,99,9,99,9",,"99999,9,99999,9","05,1",,,,"MET058METAR EGUO 130850Z 07008KT 8000 HZ BKN012 07/04 Q1001 GRN;","Q01+100103APOA  Q02 100103APOA  "
"03658499999","2010-10-13T09:50:00","4","51.439083","-2.286389","180.74","COLERNE, UK","FM-15","EGUO ","V020","030,1,N,0031,1","00450,1,C,N","011265,1,N,1","+0070,1","+0040,1","99999,9","07,5,+00450,1,99,9",,,"07,99,1,99,9,99,9,99999,9,99,9,99,9",,"10230,1,99999,9",,,,,"MET055METAR EGUO 130950Z 03006KT 9999 BKN015 07/04 Q1023 WHT;",
"03658499999","2010-10-13T10:50:00","4","51.439083","-2.286389","180.74","COLERNE, UK","FM-15","EGUO ","V020","070,1,N,0036,1","00390,1,C,N","011265,1,N,1","+0080,1","+0040,1","99999,9","07,5,+00390,1,99,9",,,"07,99,1,99,9,99,9,99999,9,99,9,99,9",,"10230,1,99999,9",,,,,"MET055METAR EGUO 131050Z 07007KT 9999 BKN013 08/04 Q1023 GRN;",
"03658499999","2010-10-13T11:50:00","4","51.439083","-2.286389","180.74","COLERNE, UK","FM-15","EGUO ","V020","030,1,N,0031,1","00390,1,C,N","011265,1,N,1","+0080,1","+0040,1","99999,9","07,5,+00390,1,99,9",,,"07,99,1,99,9,99,9,99999,9,99,9,99,9",,"10230,1,99999,9",,,,,"MET055METAR EGUO 131150Z 03006KT 9999 BKN013 08/04 Q1023 GRN;",
"03658499999","2010-10-13T12:50:00","4","51.439083","-2.286389","180.74","COLERNE, UK","FM-15","EGUO ","V020","030,1,N,0041,1","00450,1,C,N","011265,1,N,1","+0080,1","+0040,1","99999,9","07,5,+00450,1,99,9",,,"07,99,1,99,9,99,9,99999,9,99,9,99,9",,"10230,1,99999,9",,,,,"MET055METAR EGUO 131250Z 03008KT 9999 BKN015 08/04 Q1023 WHT;",
"03658499999","2010-10-13T13:50:00","4","51.439083","-2.286389","180.74","COLERNE, UK","FM-15","EGUO ","V020","030,1,N,0026,1","00450,1,C,N","011265,1,N,1","+0090,1","+0050,1","99999,9","07,5,+00450,1,99,9",,,"07,99,1,99,9,99,9,99999,9,99,9,99,9",,"10220,1,99999,9",,,,,"MET055METAR EGUO 131350Z 03005KT 9999 BKN015 09/05 Q1022 WHT;",
"03658499999","2010-10-13T14:50:00","4","51.439083","-2.286389","180.74","COLERNE, UK","FM-15","EGUO ","V020","030,1,N,0026,1","00540,1,C,N","011265,1,N,1","+0090,1","+0040,1","99999,9","07,5,+00540,1,99,9",,,"07,99,1,99,9,99,9,99999,9,99,9,99,9",,"10220,1,99999,9",,,,,"MET055METAR EGUO 131450Z 03005KT 9999 BKN018 09/04 Q1022 WHT;",
"03658499999","2010-10-14T06:50:00","4","51.439083","-2.286389","180.74","COLERNE, UK","FM-15","EGUO ","V020","040,1,N,0031,1","00450,1,C,N","005000,1,N,1","+0070,1","+0040,1","99999,9","08,5,+00450,1,99,9",,,"08,99,1,99,9,99,9,99999,9,99,9,99,9",,"10220,1,99999,9","10,1",,,,"MET058METAR EGUO 140650Z 04006KT 5000 BR OVC015 07/04 Q1022 WHT;",
"03658499999","2010-10-14T07:20:00","4","51.439083","-2.286389","180.74","COLERNE, UK","FM-15","EGUO ","V020","040,1,N,0026,1","00450,1,C,N","005000,1,N,1","+0070,1","+0050,1","99999,9","08,5,+00450,1,99,9",,,"08,99,1,99,9,99,9,99999,9,99,9,99,9",,"10230,1,99999,9","05,1",,,,"MET058METAR EGUO 140720Z 04005KT 5000 HZ OVC015 07/05 Q1023 WHT;",
"03658499999","2010-10-14T08:50:00","4","51.439083","-2.286389","180.74","COLERNE, UK","FM-15","EGUO ","V020","040,1,N,0026,1","00240,1,C,N","003000,1,N,1","+0070,1","+0050,1","99999,9","08,5,+00240,1,99,9",,,"08,99,1,99,9,99,9,99999,9,99,9,99,9",,"10230,1,99999,9","05,1",,,,"MET059METAR EGUO 140850Z 04005KT 3000 HZ OVC008 07/05 Q1023 YL01;",
"03658499999","2010-10-14T09:50:00","4","51.439083","-2.286389","180.74","COLERNE, UK","FM-15","EGUO ","V020","040,1,N,0026,1","00240,1,C,N","003500,1,N,1","+0070,1","+0060,1","99999,9","08,5,+00240,1,99,9",,,"08,99,1,99,9,99,9,99999,9,99,9,99,9",,"10230,1,99999,9","05,1",,,,"MET059METAR EGUO 140950Z 04005KT 3500 HZ OVC008 07/06 Q1023 YLO1;",
"03658499999","2010-10-14T10:50:00","4","51.439083","-2.286389","180.74","COLERNE, UK","FM-15","EGUO ","V020","070,1,N,0026,1","00240,1,C,N","003000,1,N,1","+0080,1","+0050,1","99999,9","08,5,+00240,1,99,9",,,"08,99,1,99,9,99,9,99999,9,99,9,99,9",,"10230,1,99999,9","05,1",,,,"MET059METAR EGUO 141050Z 07005KT 3000 HZ OVC008 08/05 Q1023 YLO1;",
"03658499999","2010-10-15T06:50:00","4","51.439083","-2.286389","180.74","COLERNE, UK","FM-15","EGUO ","V020","350,1,N,0036,1","22000,1,9,N","003500,1,N,1","+0080,1","+0060,1","99999,9","04,5,+00540,1,99,9",,,"04,99,1,99,9,99,9,99999,9,99,9,99,9",,"10210,1,99999,9","05,1",,,,"MET059METAR EGUO 150650Z 35007KT 3500 HZ SCT018 08/06 Q1021 YLO1;",
"03658499999","2010-10-15T07:50:00","4","51.439083","-2.286389","180.74","COLERNE, UK","FM-15","EGUO ","V020","330,1,N,0041,1","22000,1,9,N","004000,1,N,1","+0080,1","+0070,1","99999,9","04,5,+00750,1,99,9",,,"04,99,1,99,9,99,9,99999,9,99,9,99,9",,"10220,1,99999,9","05,1",,,,"MET058METAR EGUO 150750Z 33008KT 4000 HZ SCT025 08/07 Q1022 GRN;",
"03658499999","2010-10-15T09:50:00","4","51.439083","-2.286389","180.74","COLERNE, UK","FM-15","EGUO ","V020","330,1,N,0036,1","99999,9,C,N","004500,1,N,1","+0100,1","+0070,1","99999,9","02,5,+00540,1,99,9","04,5,+01050,1,99,9",,"04,99,1,99,9,99,9,99999,9,99,9,99,9",,"10220,1,99999,9","05,1",,,,"MET065METAR EGUO 150950Z 33007KT 4500 HZ FEW018 SCT035 10/07 Q1022 GRN;","P01 010503SCOCIG"
"03658499999","2010-10-15T10:50:00","4","51.439083","-2.286389","180.74","COLERNE, UK","FM-15","EGUO ","V020","340,1,N,0036,1","00960,1,C,N","005000,1,N,1","+0100,1","+0070,1","99999,9","02,5,+00540,1,99,9","07,5,+00960,1,99,9",,"07,99,1,99,9,99,9,99999,9,99,9,99,9",,"10220,1,99999,9","05,1",,,,"MET065METAR EGUO 151050Z 34007KT 5000 HZ FEW018 BKN032 10/07 Q1022 WHT;",
"03658499999","2010-10-15T11:50:00","4","51.439083","-2.286389","180.74","COLERNE, UK","FM-15","EGUO ","V020","350,1,N,0041,1","00540,1,C,N","006000,1,N,1","+0110,1","+0060,1","99999,9","02,5,+00300,1,99,9","04,5,+00540,1,99,9","07,5,+00960,1,99,9","07,99,1,99,9,99,9,99999,9,99,9,99,9",,"10210,1,99999,9","05,1",,,,"MET072METAR EGUO 151150Z 35008KT 6000 HZ FEW010 SCT018 BKN032 11/06 Q1021 WHT;",
"03658499999","2010-10-15T12:50:00","4","51.439083","-2.286389","180.74","COLERNE, UK","FM-15","EGUO ","V020","320,1,N,0026,1","22000,1,9,N","011265,1,N,1","+0110,1","+0070,1","99999,9","04,5,+01200,1,99,9",,,"04,99,1,99,9,99,9,99999,9,99,9,99,9",,"10200,1,99999,9",,,,,"MET055METAR EGUO 151250Z 32005KT 9999 SCT040 11/07 Q1020 BLU;",
"03658499999","2010-10-15T14:20:00","4","51.439083","-2.286389","180.74","COLERNE, UK","FM-15","EGUO ","V020","290,1,N,0041,1","99999,9,C,N","011265,1,N,1","+0120,1","+0060,1","99999,9","02,5,+00660,1,99,9","04,5,+01200,1,99,9",,"04,99,1,99,9,99,9,99999,9,99,9,99,9",,"10200,1,99999,9",,,,,"MET062METAR EGUO 151420Z 29008KT 9999 FEW022 SCT040 12/06 Q1020 BLU;","P01 012003SCOCIG"
"03658499999","2010-10-16T06:50:00","4","51.439083","-2.286389","180.74","COLERNE, UK","FM-15","EGUO ","V020","360,1,N,0041,1","99999,9,9,Y","009900,1,N,1","+0050,1","+0040,1","99999,9",,,,,,"10220,1,99999,9",,,,,"MET049METAR EGUO 160650Z 36008KT CAVOK 05/04 Q1022 BLU;",
"03658499999","2010-10-16T07:50:00","4","51.439083","-2.286389","180.74","COLERNE, UK","FM-15","EGUO ","V020","360,1,N,0051,1","99999,9,9,Y","009900,1,N,1","+0070,1","+0050,1","99999,9",,,,,,"10210,1,99999,9",,,,,"MET049METAR EGUO 160750Z 36010KT CAVOK 07/05 Q1021 BLU;",
"03658499999","2010-10-16T08:50:00","4","51.439083","-2.286389","180.74","COLERNE, UK","FM-15","EGUO ","V020","010,1,N,0062,1","22000,1,9,N","011265,1,N,1","+0080,1","+0060,1","99999,9","02,5,+00900,1,99,9",,,"02,99,1,99,9,99,9,99999,9,99,9,99,9",,"10220,1,99999,9",,,,,"MET055METAR EGUO 160850Z 01012KT 9999 FEW030 08/06 Q1022 BLU;",
"03658499999","2010-10-16T09:50:00","4","51.439083","-2.286389","180.74","COLERNE, UK","FM-15","EGUO ","V020","010,1,N,0051,1","22000,1,9,N","011265,1,N,1","+0090,1","+0060,1","99999,9","04,5,+00540,1,99,9",,,"04,99,1,99,9,99,9,99999,9,99,9,99,9",,"10220,1,99999,9",,,,,"MET055METAR EGUO 160950Z 01010KT 9999 SCT018 09/06 Q1022 WHT;",
"03658499999","2010-10-16T10:50:00","4","51.439083","-2.286389","180.74","COLERNE, UK","FM-15","EGUO ","V020","020,1,N,0062,1","22000,1,9,N","011265,1,N,1","+0100,1","+0060,1","99999,9","04,5,+00450,1,99,9",,,"04,99,1,99,9,99,9,99999,9,99,9,99,9",,"10220,1,99999,9",,,,,"MET055METAR EGUO 161050Z 02012KT 9999 SCT015 10/06 Q1022 WHT;",
"03658499999","2010-10-16T11:50:00","4","51.439083","-2.286389","180.74","COLERNE, UK","FM-15","EGUO ","V020","020,1,N,0057,1","22000,1,9,N","011265,1,N,1","+0110,1","+0070,1","99999,9","04,5,+00540,1,99,9",,,"04,99,1,99,9,99,9,99999,9,99,9,99,9",,"10230,1,99999,9",,,,,"MET055METAR EGUO 161150Z 02011KT 9999 SCT018 11/07 Q1023 WHT;",
"03658499999","2010-10-16T12:50:00","4","51.439083","-2.286389","180.74","COLERNE, UK","FM-15","EGUO ","V020","020,1,N,0051,1","22000,1,9,N","011265,1,N,1","+0120,1","+0050,1","99999,9","04,5,+00600,1,99,9",,,"04,99,1,99,9,99,9,99999,9,99,9,99,9",,"10220,1,99999,9",,,,,"MET055METAR EGUO 161250Z 02010KT 9999 SCT020 12/05 Q1022 WHT;",
"03658499999","2010-10-17T06:50:00","4","51.439083","-2.286389","180.74","COLERNE, UK","FM-15","EGUO ","V020","999,9,C,0000,1","99999,9,9,Y","009900,1,N,1","+0030,1","-0010,1","99999,9",,,,,,,,,,,"MET051METAR EGUO 170650Z 00000KT CAVOK 03/M01 Q10928 BLU;","Q01+109211APOA  "
"03658499999","2010-10-17T07:50:00","4","51.439083","-2.286389","180.74","COLERNE, UK","FM-15","EGUO ","V020","999,9,C,0000,1","99999,9,9,Y","009900,1,N,1","+0040,1","+0010,1","99999,9",,,,,,"10271,1,99999,9",,,,,"MET049METAR EGUO 170750Z 00000KT CAVOK 04/01 Q1027 BLU;",
"03658499999","2010-10-17T08:50:00","4","51.439083","-2.286389","180.74","COLERNE, UK","FM-15","EGUO ","V020","999,9,C,0000,1","99999,9,9,Y","009900,1,N,1","+0060,1","+0010,1","99999,9",,,,,,"10281,1,99999,9",,,,,"MET049METAR EGUO 170850Z 00000KT CAVOK 06/01 Q1028 BLU;",
"03658499999","2010-10-17T09:50:00","4","51.439083","-2.286389","180.74","COLERNE, UK","FM-15","EGUO ","V020","999,9,C,0000,1","99999,9,9,Y","009900,1,N,1","+0080,1","+0020,1","99999,9",,,,,,"10281,1,99999,9",,,,,"MET049METAR EGUO 170950Z 00000KT CAVOK 08/02 Q1028 BLU;",
"03658499999","2010-10-17T10:50:00","4","51.439083","-2.286389","180.74","COLERNE, UK","FM-15","EGUO ","V020","999,9,C,0000,1","22000,1,9,N","011265,1,N,1","+0090,1","+0000,1","99999,9","02,5,+01080,1,99,9",,,"02,99,1,99,9,99,9,99999,9,99,9,99,9",,"10281,1,99999,9",,,,,"MET056METAR EGUO 171050Z 00000KT 9999 FEW036 09/M00 Q1028 BLU;",
"03658499999","2010-10-17T11:50:00","4","51.439083","-2.286389","180.74","COLERNE, UK","FM-15","EGUO ","V020","999,9,C,0000,1","22000,1,9,N","011265,1,N,1","+0100,1","-0010,1","99999,9","02,5,+01050,1,99,9",,,"02,99,1,99,9,99,9,99999,9,99,9,99,9",,"10281,1,99999,9",,,,,"MET056METAR EGUO 171150Z 00000KT 9999 FEW035 10/M01 Q1028 BLU;",
"03658499999","2010-10-17T12:50:00","4","51.439083","-2.286389","180.74","COLERNE, UK","FM-15","EGUO ","V020","999,9,C,0000,1","22000,1,9,N","011265,1,N,1","+0100,1","-0010,1","99999,9","02,5,+01200,1,99,9",,,"02,99,1,99,9,99,9,99999,9,99,9,99,9",,"10271,1,99999,9",,,,,"MET056METAR EGUO 171250Z 00000KT 9999 FEW040 10/M01 Q1027 BLU;",
"03658499999","2010-10-17T13:50:00","4","51.439083","-2.286389","180.74","COLERNE, UK","FM-15","EGUO ","V020","999,9,C,0000,1","22000,1,9,N","011265,1,N,1","+0100,1","+0020,1","99999,9","02,5,+01200,1,99,9",,,"02,99,1,99,9,99,9,99999,9,99,9,99,9",,"10271,1,99999,9",,,,,"MET055METAR EGUO 171350Z 00000KT 9999 FEW040 10/02 Q1027 BLU;",
"03658499999","2010-10-20T06:50:00","4","51.439083","-2.286389","180.74","COLERNE, UK","FM-15","EGUO ","V020","320,1,N,0046,1","99999,9,9,Y","009900,1,N,1","+0030,1","+0020,1","99999,9",,,,,,"10200,1,99999,9",,,,,"MET049METAR EGUO 200650Z 32009KT CAVOK 03/02 Q1020 BLU;",
"03658499999","2010-10-20T07:50:00","4","51.439083","-2.286389","180.74","COLERNE, UK","FM-15","EGUO ","V020","300,1,N,0031,1","99999,9,9,Y","009900,1,N,1","+0040,1","+0020,1","99999,9",,,,,,"10210,1,99999,9",,,,,"MET049METAR EGUO 200750Z 30006KT CAVOK 04/02 Q1021 BLU;",
"03658499999","2010-10-20T08:50:00","4","51.439083","-2.286389","180.74","COLERNE, UK","FM-15","EGUO ","V020","330,1,N,0041,1","99999,9,9,Y","009900,1,N,1","+0050,1","+0020,1","99999,9",,,,,,"10210,1,99999,9",,,,,"MET049METAR EGUO 200850Z 33008KT CAVOK 05/02 Q1021 BLU;",
"03658499999","2010-10-20T09:50:00","4","51.439083","-2.286389","180.74","COLERNE, UK","FM-15","EGUO ","V020","330,1,N,0041,1","22000,1,9,N","011265,1,N,1","+0060,1","+0010,1","99999,9","02,5,+00600,1,99,9",,,"02,99,1,99,9,99,9,99999,9,99,9,99,9",,"10220,1,99999,9",,,,,"MET055METAR EGUO 200950Z 33008KT 9999 FEW020 06/01 Q1022 BLU;",
"03658499999","2010-10-20T10:50:00","4","51.439083","-2.286389","180.74","COLERNE, UK","FM-15","EGUO ","V020","320,1,N,0051,1","22000,1,9,N","011265,1,N,1","+0070,1","+0000,1","99999,9","02,5,+00600,1,99,9",,,"02,99,1,99,9,99,9,99999,9,99,9,99,9",,"10220,1,99999,9",,,,,"MET055METAR EGUO 201050Z 32010KT 9999 FEW020 07/00 Q1022 BLU;",
"03658499999","2010-10-20T11:50:00","4","51.439083","-2.286389","180.74","COLERNE, UK","FM-15","EGUO ","V020","320,1,N,0062,1","22000,1,9,N","011265,1,N,1","+0080,1","-0020,1","99999,9","02,5,+00750,1,99,9",,,"02,99,1,99,9,99,9,99999,9,99,9,99,9",,"10230,1,99999,9",,,,,"MET056METAR EGUO 201150Z 32012KT 9999 FEW025 08/M02 Q1023 BLU;",
"03658499999","2010-10-20T12:50:00","4","51.439083","-2.286389","180.74","COLERNE, UK","FM-15","EGUO ","V020","350,1,N,0062,1","22000,1,9,N","011265,1,N,1","+0080,1","-0010,1","99999,9","02,5,+00750,1,99,9",,,"02,99,1,99,9,99,9,99999,9,99,9,99,9",,"10220,1,99999,9",,,,,"MET056METAR EGUO 201250Z 35012KT 9999 FEW025 08/M01 Q1022 BLU;",
"03658499999","2010-10-20T13:50:00","4","51.439083","-2.286389","180.74","COLERNE, UK","FM-15","EGUO ","V020","330,1,N,0062,1","22000,1,9,N","011265,1,N,1","+0080,1","-0010,1","99999,9","02,5,+00750,1,99,9",,,"02,99,1,99,9,99,9,99999,9,99,9,99,9",,"10230,1,99999,9",,,,,"MET056METAR EGUO 201350Z 33012KT 9999 FEW025 08/M01 Q1023 BLU;",
"03658499999","2010-10-20T14:50:00","4","51.439083","-2.286389","180.74","COLERNE, UK","FM-15","EGUO ","V020","350,1,N,0051,1","22000,1,9,N","011265,1,N,1","+0080,1","-0010,1","99999,9","02,5,+00750,1,99,9",,,"02,99,1,99,9,99,9,99999,9,99,9,99,9",,"10230,1,99999,9",,,,,"MET056METAR EGUO 201450Z 35010KT 9999 FEW025 08/M01 Q1023 BLU;",
"03658499999","2010-10-21T07:20:00","4","51.439083","-2.286389","180.74","COLERNE, UK","FM-15","EGUO ","V020","230,1,N,0051,1","99999,9,9,Y","009900,1,N,1","+0030,1","+0000,1","99999,9",,,,,,"10240,1,99999,9",,,,,"MET049METAR EGUO 210720Z 23010KT CAVOK 03/00 Q1024 BLU;",
"03658499999","2010-10-21T09:50:00","4","51.439083","-2.286389","180.74","COLERNE, UK","FM-15","EGUO ","V020","220,1,N,0031,1","22000,1,9,N","011265,1,N,1","+0070,1","+0030,1","99999,9","04,5,+01200,1,99,9",,,"04,99,1,99,9,99,9,99999,9,99,9,99,9",,"10240,1,99999,9",,,,,"MET055METAR EGUO 210950Z 22006KT 9999 SCT040 07/03 Q1024 BLU;",
"03658499999","2010-10-21T10:50:00","4","51.439083","-2.286389","180.74","COLERNE, UK","FM-15","EGUO ","V020","250,1,N,0057,1","22000,1,9,N","011265,1,N,1","+0090,1","+0040,1","99999,9","02,5,+01440,1,99,9",,,"02,99,1,99,9,99,9,99999,9,99,9,99,9",,"10240,1,99999,9",,,,,"MET055METAR EGUO 211050Z 25011KT 9999 FEW048 09/04 Q1024 BLU;",
"03658499999","2010-10-21T11:50:00","4","51.439083","-2.286389","180.74","COLERNE, UK","FM-15","EGUO ","V020","240,1,N,0051,1","00600,1,C,N","011265,1,N,1","+0090,1","+0040,1","99999,9","07,5,+00600,1,99,9",,,"07,99,1,99,9,99,9,99999,9,99,9,99,9",,"10240,1,99999,9",,,,,"MET055METAR EGUO 211150Z 24010KT 9999 BKN020 09/04 Q1024 WHT;",
"03658499999","2010-10-21T12:50:00","4","51.439083","-2.286389","180.74","COLERNE, UK","FM-15","EGUO ","V020","240,1,N,0077,1","99999,9,C,N","011265,1,N,1","+0090,1","+0050,1","99999,9","02,5,+00450,1,99,9","04,5,+01200,1,99,9",,"04,99,1,99,9,99,9,99999,9,99,9,99,9",,"10240,1,99999,9","16,1",,,,"MET067METAR EGUO 211250Z 24015KT 9999 VCSH FEW015 SCT040 09/05 Q1024 BLU;","P01 012003SCOCIG"
"03658499999","2010-10-21T13:50:00","4","51.439083","-2.286389","180.74","COLERNE, UK","FM-15","EGUO ","V020","270,1,N,0062,1","99999,9,C,N","011265,1,N,1","+0090,1","+0060,1","99999,9","02,5,+00450,1,99,9","04,5,+01050,1,99,9",,"04,99,1,99,9,99,9,99999,9,99,9,99,9",,"10230,1,99999,9",,,,,"MET062METAR EGUO 211350Z 27012KT 9999 FEW015 SCT035 09/06 Q1023 BLU;","P01 010503SCOCIG"
"03658499999","2010-10-22T06:50:00","4","51.439083","-2.286389","180.74","COLERNE, UK","FM-15","EGUO ","V020","999,9,9,9999,9","00750,5,9,N","011265,1,N,1","+0060,1","+0050,1","99999,9","02,5,+00600,5,99,9","04,5,+00750,5,99,9",,,,"10200,1,99999,9",,,,,"MET069METAR EGUO 220650Z 220650Z21005KT 9999 FEW020 SCT025 06/05 Q1020 BLU;",
"03658499999","2010-10-22T08:50:00","4","51.439083","-2.286389","180.74","COLERNE, UK","FM-15","EGUO ","V020","210,1,N,0031,1","00900,1,C,N","011265,1,N,1","+0070,1","+0060,1","99999,9","02,5,+00600,1,99,9","07,5,+00900,1,99,9",,"07,99,1,99,9,99,9,99999,9,99,9,99,9",,"10200,1,99999,9",,,,,"MET062METAR EGUO 220850Z 21006KT 9999 FEW020 BKN030 07/06 Q1020 BLU;",
"03658499999","2010-10-22T09:50:00","4","51.439083","-2.286389","180.74","COLERNE, UK","FM-15","EGUO ","V020","220,1,N,0026,1","00450,1,C,N","011265,1,N,1","+0080,1","+0050,1","99999,9","02,5,+00300,1,99,9","04,5,+00450,1,99,9","07,5,+00900,1,99,9","07,99,1,99,9,99,9,99999,9,99,9,99,9",,"10200,1,99999,9","16,1",,,,"MET080METAR EGUO 220950Z 22005KT 9999 6000N VCSH FEW010 SCT015 BKN030 08/05 Q1020 WHT;",
"03658499999","2010-10-22T10:50:00","4","51.439083","-2.286389","180.74","COLERNE, UK","FM-15","EGUO ","V020","220,1,N,0026,1","01200,1,C,N","011265,1,N,1","+0090,1","+0070,1","99999,9","07,5,+01200,1,99,9",,,"07,99,1,99,9,99,9,99999,9,99,9,99,9",,"10190,1,99999,9",,,,,"MET055METAR EGUO 221050Z 22005KT 9999 BKN040 09/07 Q1019 BLU;",
"03658499999","2010-10-22T11:50:00","4","51.439083","-2.286389","180.74","COLERNE, UK","FM-15","EGUO ","V020","220,1,N,0031,1","00600,1,C,N","011265,1,N,1","+0100,1","+0070,1","99999,9","02,5,+00360,1,99,9","04,5,+00600,1,99,9","07,5,+01200,1,99,9","07,99,1,99,9,99,9,99999,9,99,9,99,9",,"10190,1,99999,9",,,,,"MET069METAR EGUO 221150Z 22006KT 9999 FEW012 SCT020 BKN040 10/07 Q1019 WHT;",
"03658499999","2010-10-22T12:50:00","4","51.439083","-2.286389","180.74","COLERNE, UK","FM-15","EGUO ","V020","220,1,N,0067,1","01200,1,C,N","011265,1,N,1","+0110,1","+0060,1","99999,9","02,5,+00540,1,99,9","07,5,+01200,1,99,9",,"07,99,1,99,9,99,9,99999,9,99,9,99,9",,"10180,1,99999,9",,,,,"MET062METAR EGUO 221250Z 22013KT 9999 FEW018 BKN040 11/06 Q1018 BLU;",
"03658499999","2010-10-27T06:50:00","4","51.439083","-2.286389","180.74","COLERNE, UK","FM-15","EGUO ","V020","220,1,N,0026,1","99999,9,C,N","011265,1,N,1","+0120,1","+0110,1","99999,9","02,5,+00060,1,99,9","04,5,+00150,1,99,9",,"04,99,1,99,9,99,9,99999,9,99,9,99,9",,"10169,1,99999,9",,,,,"MET063METAR EGUO 270650Z 22005KT 9999 FEW002 SCT005 12/11 Q1017 YLO1;","P01 001503SCOCIG"
"03658499999","2010-10-27T07:50:00","4","51.439083","-2.286389","180.74","COLERNE, UK","FM-15","EGUO ","V020","250,1,N,0041,1","99999,9,C,N","011265,1,N,1","+0120,1","+0110,1","99999,9","02,5,+00150,1,99,9","04,5,+00240,1,99,9",,"04,99,1,99,9,99,9,99999,9,99,9,99,9",,"10169,1,99999,9",,,,,"MET062METAR EGUO 270750Z 25008KT 9999 FEW005 SCT008 12/11 Q1017 GRN;","P01 002403SCOCIG"
"03658499999","2010-10-27T08:50:00","4","51.439083","-2.286389","180.74","COLERNE, UK","FM-15","EGUO ","V020","240,1,N,0041,1","99999,9,C,N","011265,1,N,1","+0130,1","+0110,1","99999,9","02,5,+00150,1,99,9","04,5,+00360,1,99,9",,"04,99,1,99,9,99,9,99999,9,99,9,99,9",,"10169,1,99999,9",,,,,"MET062METAR EGUO 270850Z 24008KT 9999 FEW005 SCT012 13/11 Q1017 GRN;","P01 003603SCOCIG"
"03658499999","2010-10-27T09:50:00","4","51.439083","-2.286389","180.74","COLERNE, UK","FM-15","EGUO ","V020","250,1,N,0051,1","99999,9,C,N","011265,1,N,1","+0130,1","+0100,1","99999,9","02,5,+00180,1,99,9","04,5,+00300,1,99,9",,"04,99,1,99,9,99,9,99999,9,99,9,99,9",,"10180,1,99999,9",,,,,"MET062METAR EGUO 270950Z 25010KT 9999 FEW006 SCT010 13/10 Q1018 GRN;","P01 003003SCOCIG"
"03658499999","2010-10-27T10:50:00","4","51.439083","-2.286389","180.74","COLERNE, UK","FM-15","EGUO ","V020","240,1,N,0062,1","99999,9,C,N","011265,1,N,1","+0130,1","+0090,1","99999,9","02,5,+00240,1,99,9","04,5,+00300,1,99,9",,"04,99,1,99,9,99,9,99999,9,99,9,99,9",,"10180,1,99999,9",,,,,"MET062METAR EGUO 271050Z 24012KT 9999 FEW008 SCT010 13/09 Q1018 GRN;","P01 003003SCOCIG"
"03658499999","2010-10-27T11:50:00","4","51.439083","-2.286389","180.74","COLERNE, UK","FM-15","EGUO ","V020","240,1,N,0077,1","22000,1,9,N","011265,1,N,1","+0140,1","+0080,1","99999,9","02,5,+00450,1,99,9",,,"02,99,1,99,9,99,9,99999,9,99,9,99,9",,"10180,1,99999,9",,,,,"MET055METAR EGUO 271150Z 24015KT 9999 FEW015 14/08 Q1018 BLU;",
"03658499999","2010-10-27T12:50:00","4","51.439083","-2.286389","180.74","COLERNE, UK","FM-15","EGUO ","V020","240,1,N,0067,1","99999,9,C,N","011265,1,N,1","+0140,1","+0090,1","99999,9","02,5,+00450,1,99,9","04,5,+00600,1,99,9",,"04,99,1,99,9,99,9,99999,9,99,9,99,9",,"10180,1,99999,9",,,,,"MET062METAR EGUO 271250Z 24013KT 9999 FEW015 SCT020 14/09 Q1018 WHT;","P01 006003SCOCIG"
"03658499999","2010-10-27T13:50:00","4","51.439083","-2.286389","180.74","COLERNE, UK","FM-15","EGUO ","V020","270,1,N,0051,1","22000,1,9,N","011265,1,N,1","+0140,1","+0080,1","99999,9","02,5,+00540,1,99,9",,,"02,99,1,99,9,99,9,99999,9,99,9,99,9",,"10169,1,99999,9",,,,,"MET055METAR EGUO 271350Z 27010KT 9999 FEW018 14/08 Q1017 BLU;",
"03658499999","2010-10-27T14:50:00","4","51.439083","-2.286389","180.74","COLERNE, UK","FM-15","EGUO ","V020","240,1,N,0036,1","22000,1,9,N","011265,1,N,1","+0140,1","+0080,1","99999,9","02,5,+00600,1,99,9",,,"02,99,1,99,9,99,9,99999,9,99,9,99,9",,"10169,1,99999,9",,,,,"MET055METAR EGUO 271450Z 24007KT 9999 FEW020 14/08 Q1017 BLU;",
"03658499999","2010-10-28T06:50:00","4","51.439083","-2.286389","180.74","COLERNE, UK","FM-15","EGUO ","V020","210,1,N,0072,1","22000,1,9,N","007000,1,N,1","+0110,1","+0090,1","99999,9","04,5,+00600,1,99,9",,,"04,99,1,99,9,99,9,99999,9,99,9,99,9",,"10149,1,99999,9","05,1",,,,"MET058METAR EGUO 280650Z 21014KT 7000 HZ SCT020 11/09 Q1015 WHT;",
"03658499999","2010-10-28T07:50:00","4","51.439083","-2.286389","180.74","COLERNE, UK","FM-15","EGUO ","V020","210,1,N,0062,1","00600,1,C,N","007000,1,N,1","+0110,1","+0090,1","99999,9","04,5,+00360,1,99,9","07,5,+00600,1,99,9",,"07,99,1,99,9,99,9,99999,9,99,9,99,9",,"10149,1,99999,9","51,1",,,,"MET066METAR EGUO 280750Z 21012KT 7000 -DZ SCT012 BKN020 11/09 Q1015 GRN;",
"03658499999","2010-10-28T08:50:00","4","51.439083","-2.286389","180.74","COLERNE, UK","FM-15","EGUO ","V020","210,1,N,0041,1","99999,9,C,N","008000,1,N,1","+0120,1","+0100,1","99999,9","02,5,+00240,1,99,9","04,5,+00450,1,99,9",,"04,99,1,99,9,99,9,99999,9,99,9,99,9",,"10159,1,99999,9","05,1",,,,"MET065METAR EGUO 280850Z 21008KT 8000 HZ FEW008 SCT015 12/10 Q1016 WHT;","P01 004503SCOCIG"
"03658499999","2010-10-28T09:50:00","4","51.439083","-2.286389","180.74","COLERNE, UK","FM-15","EGUO ","V020","220,1,N,0062,1","22000,1,9,N","008000,1,N,1","+0130,1","+0100,1","99999,9","04,5,+00240,1,99,9",,,"04,99,1,99,9,99,9,99999,9,99,9,99,9",,"10159,1,99999,9","05,1",,,,"MET058METAR EGUO 280950Z 22012KT 8000 HZ SCT008 13/10 Q1016 GRN;",
"03658499999","2010-10-28T10:50:00","4","51.439083","-2.286389","180.74","COLERNE, UK","FM-15","EGUO ","V020","220,1,N,0051,1","22000,1,9,N","008000,1,N,1","+0130,1","+0100,1","99999,9","04,5,+00240,1,99,9",,,"04,99,1,99,9,99,9,99999,9,99,9,99,9",,"10159,1,99999,9","05,1",,,,"MET058METAR EGUO 281050Z 22010KT 8000 HZ SCT008 13/10 Q1016 GRN;",
"03658499999","2010-10-28T12:50:00","4","51.439083","-2.286389","180.74","COLERNE, UK","FM-15","EGUO ","V020","220,1,N,0072,1","22000,1,9,N","011265,1,N,1","+0140,1","+0100,1","99999,9","04,5,+00600,1,99,9",,,"04,99,1,99,9,99,9,99999,9,99,9,99,9",,"10149,1,99999,9",,,,,"MET055METAR EGUO 281250Z 22014KT 9999 SCT020 14/10 Q1015 WHT;",
"03658499999","2010-10-28T13:50:00","4","51.439083","-2.286389","180.74","COLERNE, UK","FM-15","EGUO ","V020","200,1,N,0077,1","99999,9,C,N","011265,1,N,1","+0140,1","+0100,1","99999,9","02,5,+00300,1,99,9","04,5,+00540,1,99,9",,"04,99,1,99,9,99,9,99999,9,99,9,99,9",,"10149,1,99999,9",,,,,"MET062METAR EGUO 281350Z 20015KT 9999 FEW010 SCT018 14/10 Q1015 WHT;","P01 005403SCOCIG"
"03658499999","2010-10-28T14:50:00","4","51.439083","-2.286389","180.74","COLERNE, UK","FM-15","EGUO ","V020","200,1,N,0072,1","22000,1,9,N","011265,1,N,1","+0140,1","+0100,1","99999,9","02,5,+00540,1,99,9",,,"02,99,1,99,9,99,9,99999,9,99,9,99,9",,"10139,1,99999,9",,,,,"MET055METAR EGUO 281450Z 20014KT 9999 FEW018 14/10 Q1014 BLU;",
"03658499999","2010-10-29T06:50:00","4","51.439083","-2.286389","180.74","COLERNE, UK","FM-15","EGUO ","V020","200,1,N,0087,1","00120,1,C,N","003800,1,N,1","+0130,1","+0110,1","99999,9","07,5,+00120,1,99,9",,,"07,99,1,99,9,99,9,99999,9,99,9,99,9",,"10010,1,99999,9","10,1",,,,"MET059METAR EGUO 290650Z 20017KT 3800 BR BKN004 13/11 Q1001 YLO2;",
"03658499999","2010-10-29T07:50:00","4","51.439083","-2.286389","180.74","COLERNE, UK","FM-15","EGUO ","V020","200,1,N,0098,1","00090,1,C,N","005000,1,N,1","+0130,1","+0110,1","99999,9","07,5,+00090,1,99,9",,,"07,99,1,99,9,99,9,99999,9,99,9,99,9",,"10000,1,99999,9","10,1",,,,"MET059METAR EGUO 290750Z 20019KT 5000 BR BKN003 13/11 Q1000 YLO2;",
"03658499999","2010-10-29T08:50:00","4","51.439083","-2.286389","180.74","COLERNE, UK","FM-15","EGUO ","V020","180,1,N,0062,1","00120,1,C,N","005000,1,N,1","+0120,1","+0100,1","99999,9","07,5,+00120,1,99,9",,,"07,99,1,99,9,99,9,99999,9,99,9,99,9",,"09990,1,99999,9","05,1",,,,"MET059METAR EGUO 290850Z 18012KT 5000 HZ BKN004 12/10 Q0999 YLO2;",
"03658499999","2010-10-29T09:50:00","4","51.439083","-2.286389","180.74","COLERNE, UK","FM-15","EGUO ","V020","170,1,N,0072,1","00300,1,C,N","011265,1,N,1","+0120,1","+0100,1","99999,9","02,5,+00210,1,99,9","04,5,+00300,1,99,9","07,5,+00600,1,99,9","07,99,1,99,9,99,9,99999,9,99,9,99,9",,"09980,1,99999,9",,,,,"MET069METAR EGUO 290950Z 17014KT 9999 FEW007 SCT010 BKN020 12/10 Q0998 GRN;",
"03658499999","2010-10-29T10:50:00","4","51.439083","-2.286389","180.74","COLERNE, UK","FM-15","EGUO ","V020","180,1,N,0062,1","99999,9,C,N","011265,1,N,1","+0130,1","+0100,1","99999,9","02,5,+00300,1,99,9","04,5,+00540,1,99,9",,"04,99,1,99,9,99,9,99999,9,99,9,99,9",,"09980,1,99999,9",,,,,"MET062METAR EGUO 291050Z 18012KT 9999 FEW010 SCT018 13/10 Q0998 WHT;","P01 005403SCOCIG"
"03658499999","2010-10-29T11:50:00","4","51.439083","-2.286389","180.74","COLERNE, UK","FM-15","EGUO ","V020","170,1,N,0077,1","99999,9,C,N","011265,1,N,1","+0130,1","+0090,1","99999,9","02,5,+00300,1,99,9","04,5,+00600,1,99,9",,"04,99,1,99,9,99,9,99999,9,99,9,99,9",,"09949,1,99999,9",,,,,"MET062METAR EGUO 291150Z 17015KT 9999 FEW010 SCT020 13/09 Q0995 WHT;","P01 006003SCOCIG"
"03658499999","2010-10-30T07:50:00","4","51.439083","-2.286389","180.74","COLERNE, UK","FM-15","EGUO ","V020","190,1,N,0026,1","99999,9,C,N","011265,1,N,1","+0080,1","+0060,1","99999,9","02,5,+01500,1,09,1","04,5,+06000,1,99,9",,"04,99,1,99,9,99,9,99999,9,99,9,99,9",,"09980,1,99999,9",,,,,"MET064METAR EGUO 300750Z 19005KT 9999 FEW050CB SCT200 08/06 Q0998 BLU;","P01 060003SCOCIG"
"03658499999","2010-10-30T08:50:00","4","51.439083","-2.286389","180.74","COLERNE, UK","FM-15","EGUO ","V020","999,9,C,0000,1","99999,9,C,N","011265,1,N,1","+0090,1","+0070,1","99999,9","02,5,+01350,1,99,9","04,5,+06000,1,99,9",,"04,99,1,99,9,99,9,99999,9,99,9,99,9",,"09980,1,99999,9",,,,,"MET062METAR EGUO 300850Z 00000KT 9999 FEW045 SCT200 09/07 Q0998 BLU;","P01 060003SCOCIG"
"03658499999","2010-10-30T09:50:00","4","51.439083","-2.286389","180.74","COLERNE, UK","FM-15","EGUO ","V020","170,1,N,0036,1","99999,9,C,N","011265,1,N,1","+0110,1","+0080,1","99999,9","02,5,+00450,1,99,9","04,5,+06000,1,99,9",,"04,99,1,99,9,99,9,99999,9,99,9,99,9",,"09980,1,99999,9",,,,,"MET062METAR EGUO 300950Z 17007KT 9999 FEW015 SCT200 11/08 Q0998 BLU;","P01 060003SCOCIG"
"03658499999","2010-10-30T10:50:00","4","51.439083","-2.286389","180.74","COLERNE, UK","FM-15","EGUO ","V020","240,1,N,0026,1","22000,1,9,N","011265,1,N,1","+0130,1","+0070,1","99999,9","02,5,+00720,1,99,9",,,"02,99,1,99,9,99,9,99999,9,99,9,99,9",,"09970,1,99999,9",,,,,"MET055METAR EGUO 301050Z 24005KT 9999 FEW024 13/07 Q0997 BLU;",
"03658499999","2010-10-30T11:50:00","4","51.439083","-2.286389","180.74","COLERNE, UK","FM-15","EGUO ","V020","220,1,N,0072,1","22000,1,9,N","011265,1,N,1","+0120,1","+0070,1","99999,9","04,5,+00690,1,99,9",,,"04,99,1,99,9,99,9,99999,9,99,9,99,9",,"09970,1,99999,9",,,,,"MET055METAR EGUO 301150Z 22014KT 9999 SCT023 12/07 Q0997 WHT;",
"03658499999","2010-10-30T12:50:00","4","51.439083","-2.286389","180.74","COLERNE, UK","FM-15","EGUO ","V020","220,1,N,0041,1","22000,1,9,N","011265,1,N,1","+0110,1","+0070,1","99999,9","04,5,+00600,1,99,9",,,"04,99,1,99,9,99,9,99999,9,99,9,99,9",,"09970,1,99999,9","16,1",,,,"MET066METAR EGUO 301250Z 22008KT 9999 6000N VCSH SCT020 11/07 Q0997 WHT;",
"03658499999","2010-10-30T13:50:00","4","51.439083","-2.286389","180.74","COLERNE, UK","FM-15","EGUO ","V020","190,1,N,0062,1","22000,1,9,N","011265,1,N,1","+0130,1","+0060,1","99999,9","04,5,+00600,1,99,9",,,"04,99,1,99,9,99,9,99999,9,99,9,99,9",,"09970,1,99999,9",,,,,"MET055METAR EGUO 301350Z 19012KT 9999 SCT020 13/06 Q0997 WHT;",
"03658499999","2010-10-31T06:50:00","4","51.439083","-2.286389","180.74","COLERNE, UK","FM-15","EGUO ","V020","070,1,N,0041,1","00450,1,C,N","007000,1,N,1","+0100,1","+0090,1","99999,9","02,5,+00300,1,99,9","04,5,+00450,1,99,9","08,5,+00600,1,99,9","08,99,1,99,9,99,9,99999,9,99,9,99,9",,"09970,1,99999,9","10,1",,,,"MET072METAR EGUO 310650Z 07008KT 7000 BR FEW010 SCT015 OVC020 10/09 Q0997 WHT;",
"03658499999","2010-10-31T07:50:00","4","51.439083","-2.286389","180.74","COLERNE, UK","FM-15","EGUO ","V020","070,1,N,0051,1","22000,1,9,N","007000,1,N,1","+0100,1","+0090,1","99999,9","04,5,+00210,1,99,9",,,"04,99,1,99,9,99,9,99999,9,99,9,99,9",,"09980,1,99999,9","10,1",,,,"MET058METAR EGUO 310750Z 07010KT 7000 BR SCT007 10/09 Q0998 GRN;",
"03658499999","2010-11-03T07:50:00","4","51.439083","-2.286389","180.74","COLERNE, UK","FM-15","EGUO ","V020","250,1,N,0051,1","06000,1,C,N","007000,1,N,1","+0110,1","+0080,1","99999,9","07,5,+06000,1,99,9",,,"07,99,1,99,9,99,9,99999,9,99,9,99,9",,"10129,1,99999,9",,,,,"MET055METAR EGUO 030750Z 25010KT 7000 BKN200 11/08 Q1013 WHT;",
"03658499999","2010-11-03T08:50:00","4","51.439083","-2.286389","180.74","COLERNE, UK","FM-15","EGUO ","V020","270,1,N,0057,1","06000,1,C,N","008000,1,N,1","+0110,1","+0100,1","99999,9","02,5,+00600,1,99,9","07,5,+06000,1,99,9",,"07,99,1,99,9,99,9,99999,9,99,9,99,9",,"10129,1,99999,9","05,1",,,,"MET065METAR EGUO 030850Z 27011KT 8000 HZ FEW020 BKN200 11/10 Q1013 BLU;",
"03658499999","2010-11-03T09:50:00","4","51.439083","-2.286389","180.74","COLERNE, UK","FM-15","EGUO ","V020","250,1,N,0036,1","99999,9,C,N","011265,1,N,1","+0130,1","+0100,1","99999,9","02,5,+00270,1,99,9","04,5,+00300,1,99,9",,"04,99,1,99,9,99,9,99999,9,99,9,99,9",,"10139,1,99999,9",,,,,"MET062METAR EGUO 030950Z 25007KT 9999 FEW009 SCT010 13/10 Q1014 GRN;","P01 003003SCOCIG"
"03658499999","2010-11-03T10:50:00","4","51.439083","-2.286389","180.74","COLERNE, UK","FM-15","EGUO ","V020","999,9,9,9999,9","00450,5,9,N","011265,1,N,1","+0130,1","+0090,1","99999,9","02,5,+00300,5,99,9","04,5,+00450,5,99,9",,,,"10140,1,99999,9",,,,,"MET069METAR EGUO 031050Z 031050Z24014KT 9999 FEW010 SCT015 13/09 Q1014 WHT;",
"03658499999","2010-11-03T11:50:00","4","51.439083","-2.286389","180.74","COLERNE, UK","FM-15","EGUO ","V020","240,1,N,0077,1","00540,1,C,N","011265,1,N,1","+0130,1","+0090,1","99999,9","07,5,+00540,1,99,9",,,"07,99,1,99,9,99,9,99999,9,99,9,99,9",,"10139,1,99999,9",,,,,"MET055METAR EGUO 031150Z 24015KT 9999 BKN018 13/09 Q1014 WHT;",
"03658499999","2010-11-03T12:50:00","4","51.439083","-2.286389","180.74","COLERNE, UK","FM-15","EGUO ","V020","220,1,N,0077,1","00540,1,C,N","011265,1,N,1","+0140,1","+0100,1","99999,9","07,5,+00540,1,99,9",,,"07,99,1,99,9,99,9,99999,9,99,9,99,9",,"10129,1,99999,9",,,,,"MET055METAR EGUO 031250Z 22015KT 9999 BKN018 14/10 Q1013 WHT;",
"03658499999","2010-11-03T13:50:00","4","51.439083","-2.286389","180.74","COLERNE, UK","FM-15","EGUO ","V020","230,1,N,0062,1","00240,1,C,N","005000,1,N,1","+0140,1","+0110,1","99999,9","07,5,+00240,1,99,9",,,"07,99,1,99,9,99,9,99999,9,99,9,99,9",,"10129,1,99999,9","16,1",,,,"MET060METAR EGUO 031350Z 23012KT 5000 VCSH BKN008 14/11 Q1013 GRN;",
"03658499999","2010-11-03T14:50:00","4","51.439083","-2.286389","180.74","COLERNE, UK","FM-15","EGUO ","V020","999,9,9,9999,9","00300,5,9,N","006000,1,N,1","+0140,1","+0120,1","99999,9","07,5,+00300,5,99,9",,,,,"10130,1,99999,9",,,,,"MET065METAR EGUO 031450Z 031450Z23013KT 6000 HZ BKN010 14/12 Q1013 GRN;",
"03658499999","2010-11-04T09:50:00","4","51.439083","-2.286389","180.74","COLERNE, UK","FM-15","EGUO ","V020","230,1,N,0093,1","22000,1,9,N","009000,1,N,1","+0140,1","+0120,1","99999,9","04,5,+00300,1,99,9",,,"04,99,1,99,9,99,9,99999,9,99,9,99,9",,"10200,1,99999,9","05,1",,,,"MET058METAR EGUO 040950Z 23018KT 9000 HZ SCT010 14/12 Q1020 GRN;",
"03658499999","2010-11-04T10:50:00","4","51.439083","-2.286389","180.74","COLERNE, UK","FM-15","EGUO ","V020","240,1,N,0082,1","00240,1,C,N","004000,1,N,1","+0140,1","+0130,1","99999,9","07,5,+00240,1,99,9",,,"07,99,1,99,9,99,9,99999,9,99,9,99,9",,"10200,1,99999,9","51,1",,,,"MET059METAR EGUO 041050Z 24016KT 4000 -DZ BKN008 14/13 Q1020 GRN;",
"03658499999","2010-11-04T11:50:00","4","51.439083","-2.286389","180.74","COLERNE, UK","FM-15","EGUO ","V020","230,1,N,0077,1","00210,1,C,N","011265,1,N,1","+0140,1","+0130,1","99999,9","07,5,+00210,1,99,9",,,"07,99,1,99,9,99,9,99999,9,99,9,99,9",,"10200,1,99999,9","10,1",,,,"MET064METAR EGUO 041150Z 23015KT 9999 6000N BR BKN007 14/13 Q1020 GRN;",
"03658499999","2010-11-04T12:50:00","4","51.439083","-2.286389","180.74","COLERNE, UK","FM-15","EGUO ","V020","999,9,9,9999,9","00210,5,9,N","011265,1,N,1","+0150,1","+0130,1","99999,9","07,5,+00210,5,99,9",,,,,"10210,1,99999,9",,,,,"MET062METAR EGUO 041250Z 041250Z23008KT 9999 BKN007 15/13 Q1021 GRN;",
"03658499999","2010-11-04T13:50:00","4","51.439083","-2.286389","180.74","COLERNE, UK","FM-15","EGUO ","V020","240,1,N,0062,1","00240,1,C,N","011265,1,N,1","+0150,1","+0130,1","99999,9","07,5,+00240,1,99,9",,,"07,99,1,99,9,99,9,99999,9,99,9,99,9",,"10200,1,99999,9",,,,,"MET055METAR EGUO 041350Z 24012KT 9999 BKN008 15/13 Q1020 GRN;",
"03658499999","2010-11-05T07:50:00","4","51.439083","-2.286389","180.74","COLERNE, UK","FM-15","EGUO ","V020","240,1,N,0062,1","00090,1,C,N","002500,1,N,1","+0130,1","+0130,1","99999,9","07,5,+00090,1,99,9",,,"07,99,1,99,9,99,9,99999,9,99,9,99,9",,"10210,1,99999,9","10,1","51,1","61,1",,"MET065METAR EGUO 050750Z 24012KT 2500 -RADZ BR BKN003 13/13 Q1021 YLO2;",
"03658499999","2010-11-05T08:50:00","4","51.439083","-2.286389","180.74","COLERNE, UK","FM-15","EGUO ","V020","220,1,N,0041,1","00060,1,C,N","002000,1,N,1","+0130,1","+0120,1","99999,9","08,5,+00060,1,99,9",,,"08,99,1,99,9,99,9,99999,9,99,9,99,9",,"10210,1,99999,9","10,1","51,1","61,1",,"MET064METAR EGUO 050850Z 22008KT 2000 -RADZ BR OVC002 13/12 Q1021 AMB;",
"03658499999","2010-11-05T09:50:00","4","51.439083","-2.286389","180.74","COLERNE, UK","FM-15","EGUO ","V020","230,1,N,0051,1","00060,1,C,N","002000,1,N,1","+0130,1","+0120,1","99999,9","08,5,+00060,1,99,9",,,"08,99,1,99,9,99,9,99999,9,99,9,99,9",,"10220,1,99999,9","63,1",,,,"MET058METAR EGUO 050950Z 23010KT 2000 RA OVC002 13/12 Q1022 AMB;",
"03658499999","2010-11-05T10:50:00","4","51.439083","-2.286389","180.74","COLERNE, UK","FM-15","EGUO ","V020","210,1,N,0031,1","00060,1,C,N","002000,1,N,1","+0130,1","+0130,1","99999,9","08,5,+00060,1,99,9",,,"08,99,1,99,9,99,9,99999,9,99,9,99,9",,"10210,1,99999,9","10,1",,,,"MET058METAR EGUO 051050Z 21006KT 2000 BR OVC002 13/13 Q1021 AMB;",
"03658499999","2010-11-05T11:50:00","4","51.439083","-2.286389","180.74","COLERNE, UK","FM-15","EGUO ","V020","240,1,N,0041,1","00060,1,C,N","001200,1,N,1","+0140,1","+0130,1","99999,9","08,5,+00060,1,99,9",,,"08,99,1,99,9,99,9,99999,9,99,9,99,9",,"10210,1,99999,9","10,1",,,,"MET058METAR EGUO 051150Z 24008KT 1200 BR OVC002 14/13 Q1021 AMB;",
"03658499999","2010-11-05T12:50:00","4","51.439083","-2.286389","180.74","COLERNE, UK","FM-15","EGUO ","V020","230,1,N,0051,1","00060,1,C,N","002000,1,N,1","+0140,1","+0140,1","99999,9","08,5,+00060,1,99,9",,,"08,99,1,99,9,99,9,99999,9,99,9,99,9",,"10190,1,99999,9","10,1",,,,"MET058METAR EGUO 051250Z 23010KT 2000 BR OVC002 14/14 Q1019 AMB;",
"03658499999","2010-11-05T13:50:00","4","51.439083","-2.286389","180.74","COLERNE, UK","FM-15","EGUO ","V020","250,1,N,0051,1","00060,1,C,N","003800,1,N,1","+0150,1","+0140,1","99999,9","08,5,+00060,1,99,9",,,"08,99,1,99,9,99,9,99999,9,99,9,99,9",,"10190,1,99999,9","10,1",,,,"MET058METAR EGUO 051350Z 25010KT 3800 BR OVC002 15/14 Q1019 AMB;",
"03658499999","2010-11-06T07:50:00","4","51.439083","-2.286389","180.74","COLERNE, UK","FM-15","EGUO ","V020","260,1,N,0026,1","22000,1,9,N","007000,1,N,1","+0080,1","+0070,1","99999,9","04,5,+00600,1,99,9",,,"04,99,1,99,9,99,9,99999,9,99,9,99,9",,"10190,1,99999,9","10,1",,,,"MET058METAR EGUO 060750Z 26005KT 7000 BR SCT020 08/07 Q1019 WHT;",
"03658499999","2010-11-06T08:20:00","4","51.439083","-2.286389","180.74","COLERNE, UK","FM-15","EGUO ","V020","999,9,C,0000,1","22000,1,9,N","007000,1,N,1","+0080,1","+0070,1","99999,9","04,5,+00600,1,99,9",,,"04,99,1,99,9,99,9,99999,9,99,9,99,9",,"10190,1,99999,9","10,1",,,,"MET058METAR EGUO 060820Z 00000KT 7000 BR SCT020 08/07 Q1019 WHT;",
"03658499999","2010-11-06T08:50:00","4","51.439083","-2.286389","180.74","COLERNE, UK","FM-15","EGUO ","V020","999,9,C,0000,1","22000,1,9,N","008000,1,N,1","+0090,1","+0080,1","99999,9","04,5,+00600,1,99,9",,,"04,99,1,99,9,99,9,99999,9,99,9,99,9",,"10190,1,99999,9","10,1",,,,"MET058METAR EGUO 060850Z 00000KT 8000 BR SCT020 09/08 Q1019 WHT;",
"03658499999","2010-11-06T09:50:00","4","51.439083","-2.286389","180.74","COLERNE, UK","FM-15","EGUO ","V020","999,9,C,0000,1","22000,1,9,N","011265,1,N,1","+0090,1","+0070,1","99999,9","04,5,+00600,1,99,9",,,"04,99,1,99,9,99,9,99999,9,99,9,99,9",,"10190,1,99999,9",,,,,"MET055METAR EGUO 060950Z 00000KT 9999 SCT020 09/07 Q1019 WHT;",
"03658499999","2010-11-06T10:50:00","4","51.439083","-2.286389","180.74","COLERNE, UK","FM-15","EGUO ","V020","010,1,N,0026,1","01200,1,C,N","011265,1,N,1","+0090,1","+0060,1","99999,9","04,5,+00150,1,99,9","07,5,+01200,1,99,9",,"07,99,1,99,9,99,9,99999,9,99,9,99,9",,"10190,1,99999,9",,,,,"MET063METAR EGUO 061050Z 01005KT 9999 SCT005 BKN040 09/06 Q1019 YLO1;",
"03658499999","2010-11-06T11:50:00","4","51.439083","-2.286389","180.74","COLERNE, UK","FM-15","EGUO ","V020","999,9,C,0000,1","00600,1,C,N","011265,1,N,1","+0100,1","+0060,1","99999,9","07,5,+00600,1,99,9",,,"07,99,1,99,9,99,9,99999,9,99,9,99,9",,"10180,1,99999,9",,,,,"MET055METAR EGUO 061150Z 00000KT 9999 BKN020 10/06 Q1018 WHT;",
"03658499999","2010-11-06T12:50:00","4","51.439083","-2.286389","180.74","COLERNE, UK","FM-15","EGUO ","V020","999,9,C,0000,1","00600,1,C,N","011265,1,N,1","+0100,1","+0060,1","99999,9","07,5,+00600,1,99,9",,,"07,99,1,99,9,99,9,99999,9,99,9,99,9",,"10169,1,99999,9",,,,,"MET055METAR EGUO 061250Z 00000KT 9999 BKN020 10/06 Q1017 WHT;",
"03658499999","2010-11-06T13:50:00","4","51.439083","-2.286389","180.74","COLERNE, UK","FM-15","EGUO ","V020","020,1,N,0026,1","00600,1,C,N","011265,1,N,1","+0090,1","+0060,1","99999,9","07,5,+00600,1,99,9",,,"07,99,1,99,9,99,9,99999,9,99,9,99,9",,"10169,1,99999,9",,,,,"MET055METAR EGUO 061350Z 02005KT 9999 BKN020 09/06 Q1017 WHT;",
"03658499999","2010-11-06T14:50:00","4","51.439083","-2.286389","180.74","COLERNE, UK","FM-15","EGUO ","V020","999,9,C,0000,1","22000,1,9,N","011265,1,N,1","+0090,1","+0060,1","99999,9","04,5,+00600,1,99,9",,,"04,99,1,99,9,99,9,99999,9,99,9,99,9",,"10149,1,99999,9",,,,,"MET055METAR EGUO 061450Z 00000KT 9999 SCT020 09/06 Q1015 WHT;",
"03658499999","2010-11-06T15:50:00","4","51.439083","-2.286389","180.74","COLERNE, UK","FM-15","EGUO ","V020","999,9,C,0000,1","22000,1,9,N","011265,1,N,1","+0090,1","+0050,1","99999,9","04,5,+00600,1,99,9",,,"04,99,1,99,9,99,9,99999,9,99,9,99,9",,"10149,1,99999,9",,,,,"MET055METAR EGUO 061550Z 00000KT 9999 SCT020 09/05 Q1015 WHT;",
"03658499999","2010-11-07T07:50:00","4","51.439083","-2.286389","180.74","COLERNE, UK","FM-15","EGUO ","V020","010,1,N,0031,1","22000,1,9,N","008000,1,N,1","+0030,1","+0020,1","99999,9","04,5,+00240,1,99,9",,,"04,99,1,99,9,99,9,99999,9,99,9,99,9",,"10119,1,99999,9","51,1",,,,"MET059METAR EGUO 070750Z 01006KT 8000 -DZ SCT008 03/02 Q1012 GRN;",
"03658499999","2010-11-07T08:50:00","4","51.439083","-2.286389","180.74","COLERNE, UK","FM-15","EGUO ","V020","010,1,N,0046,1","22000,1,9,N","005000,1,N,1","+0040,1","+0030,1","99999,9","02,5,+00240,1,99,9",,,"02,99,1,99,9,99,9,99999,9,99,9,99,9",,"10108,1,99999,9","05,1",,,,"MET058METAR EGUO 070850Z 01009KT 5000 HZ FEW008 04/03 Q1011 WHT;",
"03658499999","2010-11-07T10:50:00","4","51.439083","-2.286389","180.74","COLERNE, UK","FM-15","EGUO ","V020","010,1,N,0062,1","99999,9,C,N","008000,1,N,1","+0060,1","+0030,1","99999,9","02,5,+00240,1,99,9","04,5,+00450,1,99,9",,"04,99,1,99,9,99,9,99999,9,99,9,99,9",,"10108,1,99999,9",,,,,"MET062METAR EGUO 071050Z 01012KT 8000 FEW008 SCT015 06/03 Q1011 WHT;","P01 004503SCOCIG"
"03658499999","2010-11-07T11:50:00","4","51.439083","-2.286389","180.74","COLERNE, UK","FM-15","EGUO ","V020","010,1,N,0062,1","22000,1,9,N","008000,1,N,1","+0050,1","+0030,1","99999,9","04,5,+00360,1,99,9",,,"04,99,1,99,9,99,9,99999,9,99,9,99,9",,"10102,1,99999,9",,,,,"MET055METAR EGUO 071150Z 01012KT 8000 SCT012 05/03 Q1010 GRN;",
"03658499999","2010-11-07T12:50:00","4","51.439083","-2.286389","180.74","COLERNE, UK","FM-15","EGUO ","V020","010,1,N,0041,1","00330,1,C,N","009000,1,N,1","+0060,1","+0030,1","99999,9","07,5,+00330,1,99,9",,,"07,99,1,99,9,99,9,99999,9,99,9,99,9",,"10091,1,99999,9",,,,,"MET055METAR EGUO 071250Z 01008KT 9000 BKN011 06/03 Q1009 GRN;",
"03658499999","2010-11-10T07:50:00","4","51.439083","-2.286389","180.74","COLERNE, UK","FM-15","EGUO ","V020","330,1,N,0041,1","99999,9,9,Y","009900,1,N,1","+0000,1","-0020,1","99999,9",,,,,,"09990,1,99999,9",,,,,"MET050METAR EGUO 100750Z 33008KT CAVOK 00/M02 Q0999 BLU;",
"03658499999","2010-11-10T09:50:00","4","51.439083","-2.286389","180.74","COLERNE, UK","FM-15","EGUO ","V020","330,1,N,0031,1","99999,9,9,Y","009900,1,N,1","+0030,1","-0020,1","99999,9",,,,,,"10010,1,99999,9",,,,,"MET050METAR EGUO 100950Z 33006KT CAVOK 03/M02 Q1001 BLU;",
"03658499999","2010-11-10T10:50:00","4","51.439083","-2.286389","180.74","COLERNE, UK","FM-15","EGUO ","V020","330,1,N,0051,1","99999,9,9,Y","009900,1,N,1","+0050,1","-0020,1","99999,9",,,,,,"10010,1,99999,9",,,,,"MET050METAR EGUO 101050Z 33010KT CAVOK 05/M02 Q1001 BLU;",
"03658499999","2010-11-10T11:50:00","4","51.439083","-2.286389","180.74","COLERNE, UK","FM-15","EGUO ","V020","340,1,N,0062,1","99999,9,9,Y","009900,1,N,1","+0060,1","-0020,1","99999,9",,,,,,"10020,1,99999,9",,,,,"MET050METAR EGUO 101150Z 34012KT CAVOK 06/M02 Q1002 BLU;",
"03658499999","2010-11-10T12:50:00","4","51.439083","-2.286389","180.74","COLERNE, UK","FM-15","EGUO ","V020","330,1,N,0057,1","22000,1,9,N","011265,1,N,1","+0060,1","-0040,1","99999,9","02,5,+01140,1,99,9",,,"02,99,1,99,9,99,9,99999,9,99,9,99,9",,"10020,1,99999,9",,,,,"MET056METAR EGUO 101250Z 33011KT 9999 FEW038 06/M04 Q1002 BLU;",
"03658499999","2010-11-10T13:50:00","4","51.439083","-2.286389","180.74","COLERNE, UK","FM-15","EGUO ","V020","310,1,N,0041,1","22000,1,9,N","011265,1,N,1","+0060,1","-0040,1","99999,9","02,5,+01140,1,99,9",,,"02,99,1,99,9,99,9,99999,9,99,9,99,9",,"10020,1,99999,9",,,,,"MET056METAR EGUO 101350Z 31008KT 9999 FEW038 06/M04 Q1002 BLU;",
"03658499999","2010-11-10T14:50:00","4","51.439083","-2.286389","180.74","COLERNE, UK","FM-15","EGUO ","V020","290,1,N,0031,1","22000,1,9,N","011265,1,N,1","+0060,1","-0040,1","99999,9","02,5,+01140,1,99,9",,,"02,99,1,99,9,99,9,99999,9,99,9,99,9",,"10031,1,99999,9",,,,,"MET056METAR EGUO 101450Z 29006KT 9999 FEW038 06/M04 Q1003 BLU;",
"03658499999","2010-11-10T15:50:00","4","51.439083","-2.286389","180.74","COLERNE, UK","FM-15","EGUO ","V020","999,9,C,0000,1","22000,1,9,N","011265,1,N,1","+0050,1","-0030,1","99999,9","02,5,+01200,1,99,9",,,"02,99,1,99,9,99,9,99999,9,99,9,99,9",,"10041,1,99999,9",,,,,"MET056METAR EGUO 101550Z 00000KT 9999 FEW040 05/M03 Q1004 BLU;",
"03658499999","2010-11-11T07:50:00","4","51.439083","-2.286389","180.74","COLERNE, UK","FM-15","EGUO ","V020","240,1,N,0103,1","00150,1,C,N","002500,1,N,1","+0110,1","+0100,1","99999,9","07,5,+00150,1,99,9",,,"07,99,1,99,9,99,9,99999,9,99,9,99,9",,"09882,1,99999,9","63,1",,,,"MET059METAR EGUO 110750Z 24020KT 2500 RA BKN005 11/10 Q0988 YLO1;",
"03658499999","2010-11-11T08:50:00","4","51.439083","-2.286389","180.74","COLERNE, UK","FM-15","EGUO ","V020","220,1,N,0093,1","00120,1,C,N","003000,1,N,1","+0120,1","+0110,1","99999,9","07,5,+00120,1,99,9",,,"07,99,1,99,9,99,9,99999,9,99,9,99,9",,"09871,1,99999,9","51,1",,,,"MET060METAR EGUO 110850Z 22018KT 3000 -DZ BKN004 12/11 Q0987 YLO2;",
"03658499999","2010-11-11T09:50:00","4","51.439083","-2.286389","180.74","COLERNE, UK","FM-15","EGUO ","V020","220,1,N,0118,1","00120,1,C,N","003000,1,N,1","+0120,1","+0110,1","99999,9","07,5,+00120,1,99,9",,,"07,99,1,99,9,99,9,99999,9,99,9,99,9",,"09861,1,99999,9","61,1",,,"0165,1","MET063METAR EGUO 110950Z 22023G32KT 3000 -RA BKN004 12/11 Q0986 YLO2;",
"03658499999","2010-11-11T10:50:00","4","51.439083","-2.286389","180.74","COLERNE, UK","FM-15","EGUO ","V020","220,1,N,0098,1","00180,1,C,N","003000,1,N,1","+0130,1","+0120,1","99999,9","07,5,+00180,1,99,9",,,"07,99,1,99,9,99,9,99999,9,99,9,99,9",,"09851,1,99999,9","51,1",,,,"MET060METAR EGUO 111050Z 22019KT 3000 -DZ BKN006 13/12 Q0985 YLO1;",
"03658499999","2010-11-11T11:50:00","4","51.439083","-2.286389","180.74","COLERNE, UK","FM-15","EGUO ","V020","240,1,N,0093,1","00120,1,C,N","006000,1,N,1","+0110,1","+0100,1","99999,9","07,5,+00120,1,99,9",,,"07,99,1,99,9,99,9,99999,9,99,9,99,9",,"09851,1,99999,9","81,1",,,"0154,1","MET064METAR EGUO 111150Z 24018G30KT 6000 SHRA BKN004 11/10 Q0985 YLO2;",
"03658499999","2010-11-11T12:50:00","4","51.439083","-2.286389","180.74","COLERNE, UK","FM-15","EGUO ","V020","250,1,N,0103,1","00360,1,C,N","011265,1,N,1","+0120,1","+0080,1","99999,9","04,5,+00300,1,99,9","07,5,+00360,1,99,9",,"07,99,1,99,9,99,9,99999,9,99,9,99,9",,"09841,1,99999,9","61,1",,,"0154,1","MET069METAR EGUO 111250Z 25020G30KT 9999 -RA SCT010 BKN012 12/08 Q0984 GRN;",
"03658499999","2010-11-12T07:50:00","4","51.439083","-2.286389","180.74","COLERNE, UK","FM-15","EGUO ","V020","250,1,N,0103,1","00450,1,C,N","006000,1,N,1","+0090,1","+0060,1","99999,9","04,5,+00360,1,99,9","07,5,+00450,1,99,9",,"07,99,1,99,9,99,9,99999,9,99,9,99,9",,"09959,1,99999,9","05,1",,,,"MET065METAR EGUO 120750Z 25020KT 6000 HZ SCT012 BKN015 09/06 Q0996 GRN;",
"03658499999","2010-11-12T08:50:00","4","51.439083","-2.286389","180.74","COLERNE, UK","FM-15","EGUO ","V020","250,1,N,0072,1","01800,1,C,N","008000,1,N,1","+0100,1","+0060,1","99999,9","04,5,+00450,1,99,9","07,5,+01800,1,99,9",,"07,99,1,99,9,99,9,99999,9,99,9,99,9",,"09959,1,99999,9","05,1",,,,"MET065METAR EGUO 120850Z 25014KT 8000 HZ SCT015 BKN060 10/06 Q0996 WHT;",
"03658499999","2010-11-12T09:50:00","4","51.439083","-2.286389","180.74","COLERNE, UK","FM-15","EGUO ","V020","250,1,N,0072,1","00540,1,C,N","011265,1,N,1","+0100,1","+0070,1","99999,9","02,5,+00360,1,99,9","04,5,+00540,1,99,9","07,5,+01200,1,99,9","07,99,1,99,9,99,9,99999,9,99,9,99,9",,"09959,1,99999,9",,,,"0129,1","MET072METAR EGUO 120950Z 25014G25KT 9999 FEW012 SCT018 BKN040 10/07 Q0996 WHT;",
"03658499999","2010-11-12T10:50:00","4","51.439083","-2.286389","180.74","COLERNE, UK","FM-15","EGUO ","V020","250,1,N,0062,1","00600,1,C,N","008000,1,N,1","+0100,1","+0050,1","99999,9","07,5,+00600,1,99,9",,,"07,99,1,99,9,99,9,99999,9,99,9,99,9",,"09959,1,99999,9",,,,"0113,1","MET058METAR EGUO 121050Z 25012G22KT 8000 BKN020 10/05 Q0996 WHT;",
"03658499999","2010-11-12T11:50:00","4","51.439083","-2.286389","180.74","COLERNE, UK","FM-15","EGUO ","V020","250,1,N,0093,1","00480,1,C,N","008000,1,N,1","+0100,1","+0060,1","99999,9","07,5,+00480,1,99,9",,,"07,99,1,99,9,99,9,99999,9,99,9,99,9",,"09959,1,99999,9",,,,,"MET055METAR EGUO 121150Z 25018KT 8000 BKN016 10/06 Q0996 WHT;",
"03658499999","2010-11-12T12:50:00","4","51.439083","-2.286389","180.74","COLERNE, UK","FM-15","EGUO ","V020","240,1,N,0072,1","00750,1,C,N","011265,1,N,1","+0100,1","+0070,1","99999,9","04,5,+00360,1,99,9","07,5,+00750,1,99,9",,"07,99,1,99,9,99,9,99999,9,99,9,99,9",,"09949,1,99999,9","61,1",,,,"MET066METAR EGUO 121250Z 24014KT 9999 -RA SCT012 BKN025 10/07 Q0995 GRN;",
"03658499999","2010-11-13T07:50:00","4","51.439083","-2.286389","180.74","COLERNE, UK","FM-15","EGUO ","V020","240,1,N,0051,1","99999,9,C,N","011265,1,N,1","+0070,1","+0050,1","99999,9","02,5,+00300,1,99,9","04,5,+00750,1,99,9",,"04,99,1,99,9,99,9,99999,9,99,9,99,9",,"09949,1,99999,9",,,,,"MET062METAR EGUO 130750Z 24010KT 9999 FEW010 SCT025 07/05 Q0995 BLU;","P01 007503SCOCIG"
"03658499999","2010-11-13T08:50:00","4","51.439083","-2.286389","180.74","COLERNE, UK","FM-15","EGUO ","V020","250,1,N,0031,1","99999,9,C,N","011265,1,N,1","+0070,1","+0050,1","99999,9","02,5,+00300,1,99,9","04,5,+01200,1,99,9",,"04,99,1,99,9,99,9,99999,9,99,9,99,9",,"09949,1,99999,9",,,,,"MET062METAR EGUO 130850Z 25006KT 9999 FEW010 SCT040 07/05 Q0995 BLU;","P01 012003SCOCIG"
"03658499999","2010-11-13T09:50:00","4","51.439083","-2.286389","180.74","COLERNE, UK","FM-15","EGUO ","V020","240,1,N,0036,1","99999,9,C,N","011265,1,N,1","+0080,1","+0060,1","99999,9","02,5,+00300,1,99,9","04,5,+03600,1,99,9",,"04,99,1,99,9,99,9,99999,9,99,9,99,9","999,M,+9999,9",,,,,,"MET062METAR EGUO 130950Z 24007KT 9999 FEW010 SCT120 08/06 10995 BLU;","P01 036003SCOCIG"
"03658499999","2010-11-13T10:50:00","4","51.439083","-2.286389","180.74","COLERNE, UK","FM-15","EGUO ","V020","999,9,C,0000,1","99999,9,9,Y","009900,1,N,1","+0080,1","+0050,1","99999,9",,,,,,"09949,1,99999,9",,,,,"MET049METAR EGUO 131050Z 00000KT CAVOK 08/05 Q0995 BLU;",
"03658499999","2010-11-13T11:50:00","4","51.439083","-2.286389","180.74","COLERNE, UK","FM-15","EGUO ","V020","240,1,N,0036,1","99999,9,C,N","011265,1,N,1","+0080,1","+0050,1","99999,9","02,5,+00450,1,99,9","04,5,+03600,1,99,9",,"04,99,1,99,9,99,9,99999,9,99,9,99,9",,"09949,1,99999,9",,,,,"MET062METAR EGUO 131150Z 24007KT 9999 FEW015 SCT120 08/05 Q0995 BLU;","P01 036003SCOCIG"
"03658499999","2010-11-13T12:50:00","4","51.439083","-2.286389","180.74","COLERNE, UK","FM-15","EGUO ","V020","240,1,N,0026,1","99999,9,C,N","011265,1,N,1","+0080,1","+0050,1","99999,9","02,5,+00450,1,99,9","04,5,+03600,1,99,9",,"04,99,1,99,9,99,9,99999,9,99,9,99,9",,"09949,1,99999,9",,,,,"MET062METAR EGUO 131250Z 24005KT 9999 FEW015 SCT120 08/05 Q0995 BLU;","P01 036003SCOCIG"
"03658499999","2010-11-13T13:50:00","4","51.439083","-2.286389","180.74","COLERNE, UK","FM-15","EGUO ","V020","200,1,N,0026,1","03600,1,C,N","011265,1,N,1","+0080,1","+0050,1","99999,9","02,5,+00600,1,99,9","07,5,+03600,1,99,9",,"07,99,1,99,9,99,9,99999,9,99,9,99,9",,"09939,1,99999,9",,,,,"MET062METAR EGUO 131350Z 20005KT 9999 FEW020 BKN120 08/05 Q0994 BLU;",
"03658499999","2010-11-13T14:50:00","4","51.439083","-2.286389","180.74","COLERNE, UK","FM-15","EGUO ","V020","999,9,C,0000,1","99999,9,9,Y","009900,1,N,1","+0080,1","+0050,1","99999,9",,,,,,"09939,1,99999,9",,,,,"MET049METAR EGUO 131450Z 00000KT CAVOK 08/05 Q0994 BLU;",
"03658499999","2010-11-14T07:50:00","4","51.439083","-2.286389","180.74","COLERNE, UK","FM-15","EGUO ","V020","300,1,N,0026,1","01200,1,C,N","011265,1,N,1","+0050,1","+0040,1","99999,9","02,5,+00120,1,99,9","07,5,+01200,1,99,9",,"07,99,1,99,9,99,9,99999,9,99,9,99,9",,"09929,1,99999,9","40,1",,,,"MET067METAR EGUO 140750Z 30005KT 9999 VCFG FEW004 BKN040 05/04 Q0993 BLU;",
"03658499999","2010-11-14T08:50:00","4","51.439083","-2.286389","180.74","COLERNE, UK","FM-15","EGUO ","V020","999,9,C,0000,1","01200,1,C,N","011265,1,N,1","+0060,1","+0050,1","99999,9","04,5,+00150,1,99,9","07,5,+01200,1,99,9",,"07,99,1,99,9,99,9,99999,9,99,9,99,9",,"09929,1,99999,9","40,1",,,,"MET068METAR EGUO 140850Z 00000KT 9999 VCFG SCT005 BKN040 06/05 Q0993 YLO1;",
"03658499999","2010-11-14T10:50:00","4","51.439083","-2.286389","180.74","COLERNE, UK","FM-15","EGUO ","V020","999,9,C,0000,1","01200,1,C,N","008000,1,N,1","+0050,1","+0050,1","99999,9","04,5,+00360,1,99,9","07,5,+01200,1,99,9",,"07,99,1,99,9,99,9,99999,9,99,9,99,9",,"09949,1,99999,9","40,1",,,,"MET067METAR EGUO 141050Z 00000KT 8000 VCFG SCT012 BKN040 05/05 Q0995 GRN;",
"03658499999","2010-11-14T12:50:00","4","51.439083","-2.286389","180.74","COLERNE, UK","FM-15","EGUO ","V020","999,9,C,0000,1","01200,1,C,N","011265,1,N,1","+0060,1","+0050,1","99999,9","02,5,+00300,1,99,9","07,5,+01200,1,99,9",,"07,99,1,99,9,99,9,99999,9,99,9,99,9",,"09949,1,99999,9","40,1",,,,"MET067METAR EGUO 141250Z 00000KT 9999 VCFG FEW010 BKN040 06/05 Q0995 BLU;",
"03658499999","2010-11-14T13:50:00","4","51.439083","-2.286389","180.74","COLERNE, UK","FM-15","EGUO ","V020","230,1,N,0031,1","01200,1,C,N","011265,1,N,1","+0060,1","+0040,1","99999,9","02,5,+00240,1,99,9","07,5,+01200,1,99,9",,"07,99,1,99,9,99,9,99999,9,99,9,99,9",,"09959,1,99999,9",,,,,"MET062METAR EGUO 141350Z 23006KT 9999 FEW008 BKN040 06/04 Q0996 BLU;",
"03658499999","2010-11-14T14:50:00","4","51.439083","-2.286389","180.74","COLERNE, UK","FM-15","EGUO ","V020","240,1,N,0026,1","99999,9,C,N","011265,1,N,1","+0060,1","+0040,1","99999,9","02,5,+00300,1,99,9","04,5,+01200,1,99,9",,"04,99,1,99,9,99,9,99999,9,99,9,99,9",,"09970,1,99999,9",,,,,"MET062METAR EGUO 141450Z 24005KT 9999 FEW010 SCT040 06/04 Q0997 BLU;","P01 012003SCOCIG"
"03658499999","2010-11-14T15:50:00","4","51.439083","-2.286389","180.74","COLERNE, UK","FM-15","EGUO ","V020","240,1,N,0026,1","22000,1,9,N","011265,1,N,1","+0060,1","+0040,1","99999,9","04,5,+00360,1,99,9",,,"04,99,1,99,9,99,9,99999,9,99,9,99,9",,"09990,1,99999,9",,,,,"MET055METAR EGUO 141550Z 24005KT 9999 SCT012 06/04 Q0999 GRN;",
"03658499999","2010-11-17T07:50:00","4","51.439083","-2.286389","180.74","COLERNE, UK","FM-15","EGUO ","V020","150,1,N,0087,1","00150,1,C,N","003000,1,N,1","+0050,1","+0050,1","99999,9","07,5,+00150,1,99,9",,,"07,99,1,99,9,99,9,99999,9,99,9,99,9",,"10041,1,99999,9","63,1",,,,"MET059METAR EGUO 170750Z 15017KT 3000 RA BKN005 05/05 Q1004 YLO1;",
"03658499999","2010-11-17T08:50:00","4","51.439083","-2.286389","180.74","COLERNE, UK","FM-15","EGUO ","V020","150,1,N,0103,1","00150,1,C,N","003000,1,N,1","+0060,1","+0050,1","99999,9","07,5,+00150,1,99,9",,,"07,99,1,99,9,99,9,99999,9,99,9,99,9",,"10031,1,99999,9","63,1",,,,"MET059METAR EGUO 170850Z 15020KT 3000 RA BKN005 06/05 Q1003 YLO1;",
"03658499999","2010-11-17T09:50:00","4","51.439083","-2.286389","180.74","COLERNE, UK","FM-15","EGUO ","V020","150,1,N,0093,1","00150,1,C,N","003000,1,N,1","+0060,1","+0050,1","99999,9","07,5,+00150,1,99,9",,,"07,99,1,99,9,99,9,99999,9,99,9,99,9",,"10031,1,99999,9","63,1",,,,"MET059METAR EGUO 170950Z 15018KT 3000 RA BKN005 06/05 Q1003 YLO1;",
"03658499999","2010-11-17T10:50:00","4","51.439083","-2.286389","180.74","COLERNE, UK","FM-15","EGUO ","V020","150,1,N,0082,1","00120,1,C,N","003000,1,N,1","+0070,1","+0060,1","99999,9","07,5,+00120,1,99,9",,,"07,99,1,99,9,99,9,99999,9,99,9,99,9",,"10031,1,99999,9","63,1",,,,"MET059METAR EGUO 171050Z 15016KT 3000 RA BKN004 07/06 Q1003 YLO2;",
"03658499999","2010-11-17T11:50:00","4","51.439083","-2.286389","180.74","COLERNE, UK","FM-15","EGUO ","V020","150,1,N,0077,1","00150,1,C,N","006000,1,N,1","+0070,1","+0060,1","99999,9","07,5,+00150,1,99,9",,,"07,99,1,99,9,99,9,99999,9,99,9,99,9",,"99999,9,99999,9","61,1",,,,"MET060METAR EGUO 171150Z 15015KT 6000 -RA BKN005 07/06 Q1008 YLO1;","Q01+100813APOA  Q02 100803APOA  "
"03658499999","2010-11-17T12:50:00","4","51.439083","-2.286389","180.74","COLERNE, UK","FM-15","EGUO ","V020","160,1,N,0062,1","00180,1,C,N","006000,1,N,1","+0060,1","+0050,1","99999,9","07,5,+00180,1,99,9",,,"07,99,1,99,9,99,9,99999,9,99,9,99,9",,"10031,1,99999,9","63,1",,,,"MET059METAR EGUO 171250Z 16012KT 6000 RA BKN006 06/05 Q1003 YLO1;",
"03658499999","2010-11-18T08:50:00","4","51.439083","-2.286389","180.74","COLERNE, UK","FM-15","EGUO ","V020","160,1,N,0036,1","00015,1,C,N","001500,1,N,1","+0060,1","+0060,1","99999,9","09,1,+00015,1,99,9",,,"09,99,1,99,9,99,9,00025,1,99,9,99,9",,"10020,1,99999,9","61,1",,,,"MET058METAR EGUO 180850Z 16007KT 1500 -RA VV/// 06/06 Q1002 RED;",
"03658499999","2010-11-18T09:50:00","4","51.439083","-2.286389","180.74","COLERNE, UK","FM-15","EGUO ","V020","160,1,N,0031,1","01050,1,C,N","009000,1,N,1","+0070,1","+0070,1","99999,9","04,5,+00180,1,99,9","07,5,+01050,1,99,9",,"07,99,1,99,9,99,9,99999,9,99,9,99,9",,"10031,1,99999,9","05,1",,,,"MET066METAR EGUO 180950Z 16006KT 9000 HZ SCT006 BKN035 07/07 Q1003 YLO1;",
"03658499999","2010-11-18T10:50:00","4","51.439083","-2.286389","180.74","COLERNE, UK","FM-15","EGUO ","V020","180,1,N,0041,1","99999,9,C,N","011265,1,N,1","+0080,1","+0080,1","99999,9","02,5,+00180,1,99,9","04,5,+01050,1,99,9",,"04,99,1,99,9,99,9,99999,9,99,9,99,9",,"10031,1,99999,9",,,,,"MET062METAR EGUO 181050Z 18008KT 9999 FEW006 SCT035 08/08 Q1003 BLU;","P01 010503SCOCIG"
"03658499999","2010-11-18T11:50:00","4","51.439083","-2.286389","180.74","COLERNE, UK","FM-15","EGUO ","V020","190,1,N,0051,1","00300,1,C,N","011265,1,N,1","+0100,1","+0080,1","99999,9","04,5,+00270,1,99,9","07,5,+00300,1,99,9",,"07,99,1,99,9,99,9,99999,9,99,9,99,9",,"10031,1,99999,9",,,,,"MET062METAR EGUO 181150Z 19010KT 9999 SCT009 BKN010 10/08 Q1003 GRN;",
"03658499999","2010-11-18T12:50:00","4","51.439083","-2.286389","180.74","COLERNE, UK","FM-15","EGUO ","V020","190,1,N,0031,1","00300,1,C,N","011265,1,N,1","+0100,1","+0070,1","99999,9","04,5,+00240,1,99,9","07,5,+00300,1,99,9",,"07,99,1,99,9,99,9,99999,9,99,9,99,9",,"10031,1,99999,9",,,,,"MET062METAR EGUO 181250Z 19006KT 9999 SCT008 BKN010 10/07 Q1003 GRN;",
"03658499999","2010-11-18T13:50:00","4","51.439083","-2.286389","180.74","COLERNE, UK","FM-15","EGUO ","V020","180,1,N,0026,1","00300,1,C,N","011265,1,N,1","+0100,1","+0070,1","99999,9","04,5,+00240,1,99,9","07,5,+00300,1,99,9",,"07,99,1,99,9,99,9,99999,9,99,9,99,9",,"10031,1,99999,9",,,,,"MET062METAR EGUO 181350Z 18005KT 9999 SCT008 BKN010 10/07 Q1003 GRN;",
"03658499999","2010-11-18T14:50:00","4","51.439083","-2.286389","180.74","COLERNE, UK","FM-15","EGUO ","V020","200,1,N,0041,1","99999,9,C,N","011265,1,N,1","+0100,1","+0060,1","99999,9","02,5,+00450,1,99,9","04,5,+00750,1,99,9",,"04,99,1,99,9,99,9,99999,9,99,9,99,9",,"10031,1,99999,9","16,1",,,,"MET067METAR EGUO 181450Z 20008KT 9999 VCSH FEW015 SCT025 10/06 Q1003 BLU;","P01 007503SCOCIG"
"03658499999","2010-11-18T15:50:00","4","51.439083","-2.286389","180.74","COLERNE, UK","FM-15","EGUO ","V020","200,1,N,0036,1","22000,1,9,N","008000,1,N,1","+0090,1","+0060,1","99999,9","04,5,+00450,1,99,9",,,"04,99,1,99,9,99,9,99999,9,99,9,99,9",,"10041,1,99999,9","61,1",,,,"MET059METAR EGUO 181550Z 20007KT 8000 -RA SCT015 09/06 Q1004 WHT;",
"03658499999","2010-11-19T07:50:00","4","51.439083","-2.286389","180.74","COLERNE, UK","FM-15","EGUO ","V020","999,9,C,0000,1","02400,1,C,N","008000,1,N,1","+0040,1","+0040,1","99999,9","02,5,+01050,1,99,9","07,5,+02400,1,99,9",,"07,99,1,99,9,99,9,99999,9,99,9,99,9",,"10108,1,99999,9","10,1",,,,"MET065METAR EGUO 190750Z 00000KT 8000 BR FEW035 BKN080 04/04 Q1011 BLU;",
"03658499999","2010-11-19T09:50:00","4","51.439083","-2.286389","180.74","COLERNE, UK","FM-15","EGUO ","V020","999,9,C,0000,1","99999,9,C,N","011265,1,N,1","+0060,1","+0050,1","99999,9","02,5,+00750,1,99,9","04,5,+02400,1,99,9",,"04,99,1,99,9,99,9,99999,9,99,9,99,9",,"10119,1,99999,9",,,,,"MET062METAR EGUO 190950Z 00000KT 9999 FEW025 SCT080 06/05 Q1012 BLU;","P01 024003SCOCIG"
"03658499999","2010-11-19T10:50:00","4","51.439083","-2.286389","180.74","COLERNE, UK","FM-15","EGUO ","V020","999,9,C,0000,1","22000,1,9,N","011265,1,N,1","+0080,1","+0050,1","99999,9","02,5,+01200,1,99,9",,,"02,99,1,99,9,99,9,99999,9,99,9,99,9",,"10119,1,99999,9",,,,,"MET055METAR EGUO 191050Z 00000KT 9999 FEW040 08/05 Q1012 BLU;",
"03658499999","2010-11-19T12:50:00","4","51.439083","-2.286389","180.74","COLERNE, UK","FM-15","EGUO ","V020","160,1,N,0026,1","22000,1,9,N","011265,1,N,1","+0100,1","+0070,1","99999,9","02,5,+00480,1,99,9",,,"02,99,1,99,9,99,9,99999,9,99,9,99,9",,"10108,1,99999,9",,,,,"MET055METAR EGUO 191250Z 16005KT 9999 FEW016 10/07 Q1011 BLU;",
"03658499999","2010-11-19T13:50:00","4","51.439083","-2.286389","180.74","COLERNE, UK","FM-15","EGUO ","V020","999,9,C,0000,1","22000,1,9,N","011265,1,N,1","+0100,1","+0070,1","99999,9","02,5,+00480,1,99,9",,,"02,99,1,99,9,99,9,99999,9,99,9,99,9",,"10108,1,99999,9",,,,,"MET055METAR EGUO 191350Z 00000KT 9999 FEW016 10/07 Q1011 BLU;",
"03658499999","2010-11-19T15:50:00","4","51.439083","-2.286389","180.74","COLERNE, UK","FM-15","EGUO ","V020","110,1,N,0026,1","22000,1,9,N","011265,1,N,1","+0080,1","+0060,1","99999,9","02,5,+00900,1,99,9",,,"02,99,1,99,9,99,9,99999,9,99,9,99,9",,"10108,1,99999,9",,,,,"MET055METAR EGUO 191550Z 11005KT 9999 FEW030 08/06 Q1011 BLU;",
"03658499999","2010-11-20T07:50:00","4","51.439083","-2.286389","180.74","COLERNE, UK","FM-15","EGUO ","V020","050,1,N,0057,1","00015,1,C,N","000700,1,N,1","+0050,1","+0040,1","99999,9","09,1,+00015,1,99,9",,,"09,99,1,99,9,99,9,00025,1,99,9,99,9",,"10129,1,99999,9","45,1",,,,"MET057METAR EGUO 200750Z 05011KT 0700 FG VV/// 05/04 Q1013 RED;",
"03658499999","2010-11-20T08:50:00","4","51.439083","-2.286389","180.74","COLERNE, UK","FM-15","EGUO ","V020","060,1,N,0051,1","00015,1,C,N","000700,1,N,1","+0050,1","+0050,1","99999,9","09,1,+00015,1,99,9",,,"09,99,1,99,9,99,9,00025,1,99,9,99,9",,"10129,1,99999,9","45,1",,,,"MET057METAR EGUO 200850Z 06010KT 0700 FG VV/// 05/05 Q1013 RED;",
"03658499999","2010-11-21T08:50:00","4","51.439083","-2.286389","180.74","COLERNE, UK","FM-15","EGUO ","V020","030,1,N,0062,1","00210,1,C,N","011265,1,N,1","+0050,1","+0040,1","99999,9","04,5,+00180,1,99,9","07,5,+00210,1,99,9",,"07,99,1,99,9,99,9,99999,9,99,9,99,9",,"10129,1,99999,9",,,,,"MET063METAR EGUO 210850Z 03012KT 9999 SCT006 BKN007 05/04 Q1013 YLO1;",
"03658499999","2010-11-21T09:50:00","4","51.439083","-2.286389","180.74","COLERNE, UK","FM-15","EGUO ","V020","040,1,N,0051,1","00240,1,C,N","011265,1,N,1","+0050,1","+0040,1","99999,9","07,5,+00240,1,99,9",,,"07,99,1,99,9,99,9,99999,9,99,9,99,9",,"10129,1,99999,9",,,,,"MET055METAR EGUO 210950Z 04010KT 9999 BKN008 05/04 Q1013 GRN;",
"03658499999","2010-11-24T07:50:00","4","51.439083","-2.286389","180.74","COLERNE, UK","FM-15","EGUO ","V020","999,9,C,0000,1","22000,1,9,N","011265,1,N,1","+0020,1","+0000,1","99999,9","02,5,+01350,1,99,9",,,"02,99,1,99,9,99,9,99999,9,99,9,99,9",,"10119,1,99999,9",,,,,"MET055METAR EGUO 240750Z 00000KT 9999 FEW045 02/00 Q1012 BLU;",
"03658499999","2010-11-24T08:50:00","4","51.439083","-2.286389","180.74","COLERNE, UK","FM-15","EGUO ","V020","999,9,C,0000,1","22000,1,9,N","011265,1,N,1","+0010,1","+0000,1","99999,9","02,5,+01350,1,99,9",,,"02,99,1,99,9,99,9,99999,9,99,9,99,9",,"10119,1,99999,9",,,,,"MET056METAR EGUO 240850Z 00000KT 9999 FEW045 01/M00 Q1012 BLU;",
"03658499999","2010-11-24T09:50:00","4","51.439083","-2.286389","180.74","COLERNE, UK","FM-15","EGUO ","V020","999,9,C,0000,1","22000,1,9,N","011265,1,N,1","+0030,1","+0000,1","99999,9","02,5,+01500,1,99,9",,,"02,99,1,99,9,99,9,99999,9,99,9,99,9",,"10119,1,99999,9",,,,,"MET055METAR EGUO 240950Z 00000KT 9999 FEW050 03/00 Q1012 BLU;",
"03658499999","2010-11-24T10:50:00","4","51.439083","-2.286389","180.74","COLERNE, UK","FM-15","EGUO ","V020","300,1,N,0031,1","22000,1,9,N","011265,1,N,1","+0030,1","+0010,1","99999,9","02,5,+01350,1,99,9",,,"02,99,1,99,9,99,9,99999,9,99,9,99,9",,"10119,1,99999,9",,,,,"MET055METAR EGUO 241050Z 30006KT 9999 FEW045 03/01 Q1012 BLU;",
"03658499999","2010-11-24T11:50:00","4","51.439083","-2.286389","180.74","COLERNE, UK","FM-15","EGUO ","V020","330,1,N,0026,1","99999,9,C,N","011265,1,N,1","+0040,1","+0000,1","99999,9","02,5,+00600,1,99,9","04,5,+04200,1,99,9",,"04,99,1,99,9,99,9,99999,9,99,9,99,9",,"10119,1,99999,9",,,,,"MET062METAR EGUO 241150Z 33005KT 9999 FEW020 SCT140 04/00 Q1012 BLU;","P01 042003SCOCIG"
"03658499999","2010-11-24T12:50:00","4","51.439083","-2.286389","180.74","COLERNE, UK","FM-15","EGUO ","V020","300,1,N,0026,1","22000,1,9,N","011265,1,N,1","+0040,1","+0010,1","99999,9","02,5,+00600,1,99,9",,,"02,99,1,99,9,99,9,99999,9,99,9,99,9",,"10119,1,99999,9",,,,,"MET055METAR EGUO 241250Z 30005KT 9999 FEW020 04/01 Q1012 BLU;",
"03658499999","2010-11-25T07:50:00","4","51.439083","-2.286389","180.74","COLERNE, UK","FM-15","EGUO ","V020","330,1,N,0062,1","22000,1,9,N","007000,1,N,1","-0020,1","-0030,1","99999,9","02,5,+00900,1,99,9",,,"02,99,1,99,9,99,9,99999,9,99,9,99,9",,"10102,1,99999,9","10,1",,,,"MET060METAR EGUO 250750Z 33012KT 7000 BR FEW030 M02/M03 Q1010 BLU;",
"03658499999","2010-11-25T08:50:00","4","51.439083","-2.286389","180.74","COLERNE, UK","FM-15","EGUO ","V020","330,1,N,0062,1","22000,1,9,N","007000,1,N,1","-0020,1","-0040,1","99999,9","02,5,+00900,1,99,9",,,"02,99,1,99,9,99,9,99999,9,99,9,99,9",,"10102,1,99999,9","05,1",,,,"MET060METAR EGUO 250850Z 33012KT 7000 HZ FEW030 M02/M04 Q1010 BLU;",
"03658499999","2010-11-25T09:50:00","4","51.439083","-2.286389","180.74","COLERNE, UK","FM-15","EGUO ","V020","330,1,N,0067,1","99999,9,9,Y","009900,1,N,1","-0010,1","-0040,1","99999,9",,,,,,"10102,1,99999,9",,,,,"MET050METAR EGUO 250950Z 33013KT CAVOK M01/M4 Q1010 BLU;",
"03658499999","2010-11-25T10:50:00","4","51.439083","-2.286389","180.74","COLERNE, UK","FM-15","EGUO ","V020","350,1,N,0051,1","99999,9,9,Y","009900,1,N,1","+0000,1","-0030,1","99999,9",,,,,,"10102,1,99999,9",,,,,"MET050METAR EGUO 251050Z 35010KT CAVOK 00/M03 Q1010 BLU;",
"03658499999","2010-11-25T11:50:00","4","51.439083","-2.286389","180.74","COLERNE, UK","FM-15","EGUO ","V020","360,1,N,0051,1","22000,1,9,N","011265,1,N,1","+0010,1","-0020,1","99999,9","02,5,+00360,1,99,9",,,"02,99,1,99,9,99,9,99999,9,99,9,99,9",,"10102,1,99999,9",,,,,"MET056METAR EGUO 251150Z 36010KT 9999 FEW012 01/M02 Q1010 BLU;",
"03658499999","2010-11-25T12:50:00","4","51.439083","-2.286389","180.74","COLERNE, UK","FM-15","EGUO ","V020","360,1,N,0057,1","00660,1,C,N","011265,1,N,1","+0020,1","+0010,1","99999,9","07,5,+00660,1,99,9",,,"07,99,1,99,9,99,9,99999,9,99,9,99,9",,"10102,1,99999,9",,,,,"MET055METAR EGUO 251250Z 36011KT 9999 BKN022 02/01 Q1010 WHT;",
"03658499999","2010-11-25T13:50:00","4","51.439083","-2.286389","180.74","COLERNE, UK","FM-15","EGUO ","V020","350,1,N,0082,1","00660,1,C,N","011265,1,N,1","+0010,1","+0010,1","99999,9","07,5,+00660,1,99,9",,,"07,99,1,99,9,99,9,99999,9,99,9,99,9",,"10102,1,99999,9",,,,,"MET055METAR EGUO 251350Z 35016KT 9999 BKN022 01/01 Q1010 WHT;",
"03658499999","2010-11-25T15:50:00","4","51.439083","-2.286389","180.74","COLERNE, UK","FM-15","EGUO ","V020","340,1,N,0062,1","01200,1,C,N","011265,1,N,1","+0010,1","+0010,1","99999,9","02,5,+00600,1,99,9","07,5,+01200,1,99,9",,"07,99,1,99,9,99,9,99999,9,99,9,99,9",,"10102,1,99999,9",,,,,"MET062METAR EGUO 251550Z 34012KT 9999 FEW020 BKN040 01/01 Q1010 BLU;",
"03658499999","2010-11-26T07:50:00","4","51.439083","-2.286389","180.74","COLERNE, UK","FM-15","EGUO ","V020","280,1,N,0031,1","99999,9,9,Y","009900,1,N,1","-0030,1","-0030,1","99999,9",,,,,,"10091,1,99999,9",,,,,"MET051METAR EGUO 260750Z 28006KT CAVOK M03/M03 Q1009 BLU;",
"03658499999","2010-11-26T08:50:00","4","51.439083","-2.286389","180.74","COLERNE, UK","FM-15","EGUO ","V020","300,1,N,0026,1","99999,9,9,Y","009900,1,N,1","-0010,1","-0030,1","99999,9",,,,,,"10091,1,99999,9",,,,,"MET051METAR EGUO 260850Z 30005KT CAVOK M01/M03 Q1009 BLU;",
"03658499999","2010-11-26T09:50:00","4","51.439083","-2.286389","180.74","COLERNE, UK","FM-15","EGUO ","V020","280,1,N,0031,1","99999,9,9,Y","009900,1,N,1","+0000,1","-0020,1","99999,9",,,,,,"10091,1,99999,9",,,,,"MET050METAR EGUO 260950Z 28006KT CAVOK 00/M02 Q1009 BLU;",
"03658499999","2010-11-26T10:50:00","4","51.439083","-2.286389","180.74","COLERNE, UK","FM-15","EGUO ","V020","260,1,N,0031,1","99999,9,9,Y","009900,1,N,1","+0020,1","-0030,1","99999,9",,,,,,"10091,1,99999,9",,,,,"MET050METAR EGUO 261050Z 26006KT CAVOK 02/M03 Q1009 BLU;",
"03658499999","2010-11-26T11:50:00","4","51.439083","-2.286389","180.74","COLERNE, UK","FM-15","EGUO ","V020","260,1,N,0026,1","22000,1,9,N","011265,1,N,1","+0030,1","-0020,1","99999,9","02,5,+00900,1,99,9",,,"02,99,1,99,9,99,9,99999,9,99,9,99,9",,"10081,1,99999,9",,,,,"MET056METAR EGUO 261150Z 26005KT 9999 FEW030 03/M02 Q1008 BLU;",
"03658499999","2010-11-26T12:50:00","4","51.439083","-2.286389","180.74","COLERNE, UK","FM-15","EGUO ","V020","280,1,N,0026,1","00900,1,C,N","011265,1,N,1","+0030,1","-0020,1","99999,9","02,5,+00240,1,99,9","07,5,+00900,1,99,9",,"07,99,1,99,9,99,9,99999,9,99,9,99,9",,"10071,1,99999,9",,,,,"MET063METAR EGUO 261250Z 28005KT 9999 FEW008 BKN030 03/M02 Q1007 BLU;",
"03658499999","2010-11-26T13:50:00","4","51.439083","-2.286389","180.74","COLERNE, UK","FM-15","EGUO ","V020","999,9,C,0000,1","01500,1,C,N","011265,1,N,1","+0030,1","-0020,1","99999,9","02,5,+00600,1,99,9","07,5,+01500,1,99,9",,"07,99,1,99,9,99,9,99999,9,99,9,99,9",,"10071,1,99999,9",,,,,"MET063METAR EGUO 261350Z 00000KT 9999 FEW020 BKN050 03/M02 Q1007 BLU;",
"03658499999","2010-11-26T14:50:00","4","51.439083","-2.286389","180.74","COLERNE, UK","FM-15","EGUO ","V020","300,1,N,0026,1","01500,1,C,N","011265,1,N,1","+0020,1","-0020,1","99999,9","02,5,+00600,1,99,9","07,5,+01500,1,99,9",,"07,99,1,99,9,99,9,99999,9,99,9,99,9",,"10061,1,99999,9",,,,,"MET070METAR EGUO 261450Z 30005KT 9999 FEW020 BKN050 02/M02 Q1006 RESHSN BLU;",
"03658499999","2010-11-27T07:50:00","4","51.439083","-2.286389","180.74","COLERNE, UK","FM-15","EGUO ","V020","020,1,N,0051,1","00210,1,C,N","001500,1,N,1","-0020,1","-0020,1","99999,9","04,5,+00090,1,99,9","07,5,+00210,1,99,9",,"07,99,1,99,9,99,9,99999,9,99,9,99,9",,"10031,1,99999,9","10,1",,,,"MET067METAR EGUO 270750Z 02010KT 1500 BR SCT003 BKN007 M02/M02 Q1003 AMB;",
"03658499999","2010-11-27T08:50:00","4","51.439083","-2.286389","180.74","COLERNE, UK","FM-15","EGUO ","V020","030,1,N,0041,1","00090,1,C,N","001500,1,N,1","-0010,1","-0010,1","99999,9","07,5,+00090,1,99,9","07,5,+00210,1,99,9",,"07,99,1,99,9,99,9,99999,9,99,9,99,9",,"10041,1,99999,9","10,1",,,,"MET067METAR EGUO 270850Z 03008KT 1500 BR BKN003 BKN007 M01/M01 Q1004 AMB;",
"03658499999","2010-11-27T09:50:00","4","51.439083","-2.286389","180.74","COLERNE, UK","FM-15","EGUO ","V020","020,1,N,0041,1","00150,1,C,N","001500,1,N,1","+9999,9","+9999,9","99999,9","07,5,+00150,1,99,9",,,"07,99,1,99,9,99,9,99999,9,99,9,99,9",,"10040,1,99999,9","10,1",,,,"MET062METAR EGUO 270950Z 02008KT 1500 BR BKN005 MS01/MS01 Q1004 AMB;",
"03658499999","2010-11-27T10:50:00","4","51.439083","-2.286389","180.74","COLERNE, UK","FM-15","EGUO ","V020","020,1,N,0077,1","00120,1,C,N","001000,1,N,1","+0000,1","-0010,1","99999,9","07,5,+00120,1,99,9",,,"07,99,1,99,9,99,9,99999,9,99,9,99,9",,"10041,1,99999,9","77,1",,,,"MET060METAR EGUO 271050Z 02015KT 1000 SG BKN004 M00/M01 Q1004 AMB;",
"03658499999","2010-11-27T11:50:00","4","51.439083","-2.286389","180.74","COLERNE, UK","FM-15","EGUO ","V020","020,1,N,0062,1","00090,1,C,N","001500,1,N,1","-0010,1","-0010,1","99999,9","07,5,+00090,1,99,9",,,"07,99,1,99,9,99,9,99999,9,99,9,99,9",,"10041,1,99999,9","77,1",,,,"MET060METAR EGUO 271150Z 02012KT 1500 SG BKN003 M01/M01 Q1004 AMB;",
"03658499999","2010-12-01T07:50:00","4","51.439083","-2.286389","180.74","COLERNE, UK","FM-15","EGUO ","V020","040,1,N,0093,1","22000,1,9,N","008000,1,N,1","-0030,1","-0030,1","99999,9","04,5,+00600,1,99,9",,,"04,99,1,99,9,99,9,99999,9,99,9,99,9",,"10102,1,99999,9","10,1",,,,"MET060METAR EGUO 010750Z 04018KT 8000 BR SCT020 M03/M03 Q1010 WHT;",
"03658499999","2010-12-01T08:50:00","4","51.439083","-2.286389","180.74","COLERNE, UK","FM-15","EGUO ","V020","030,1,N,0077,1","22000,1,9,N","011265,1,N,1","-0030,1","-0030,1","99999,9","04,5,+00600,1,99,9",,,"04,99,1,99,9,99,9,99999,9,99,9,99,9",,"10102,1,99999,9",,,,,"MET057METAR EGUO 010850Z 03015KT 9999 SCT020 M03/M03 Q1010 WHT;",
"03658499999","2010-12-01T09:50:00","4","51.439083","-2.286389","180.74","COLERNE, UK","FM-15","EGUO ","V020","030,1,N,0072,1","99999,9,9,Y","009900,1,N,1","-0030,1","-0030,1","99999,9",,,,,,"10102,1,99999,9",,,,,"MET056METAR EGUO 010950Z 03014KT CAVOK M03/M03 Q1010 BLACKBLU;",
"03658499999","2010-12-01T10:50:00","4","51.439083","-2.286389","180.74","COLERNE, UK","FM-15","EGUO ","V020","020,1,N,0077,1","22000,1,9,N","011265,1,N,1","-0020,1","-0020,1","99999,9","02,5,+00750,1,99,9",,,"02,99,1,99,9,99,9,99999,9,99,9,99,9",,"10102,1,99999,9",,,,,"MET062METAR EGUO 011050Z 02015KT 9999 FEW025 M02/M02 Q1010 BLACKBLU;",
"03658499999","2010-12-01T11:50:00","4","51.439083","-2.286389","180.74","COLERNE, UK","FM-15","EGUO ","V020","030,1,N,0093,1","22000,1,9,N","011265,1,N,1","-0020,1","-0020,1","99999,9","04,5,+00750,1,99,9",,,"04,99,1,99,9,99,9,99999,9,99,9,99,9",,"10091,1,99999,9",,,,,"MET062METAR EGUO 011150Z 03018KT 9999 SCT025 M02/M02 Q1009 BLACKBLU;",
"03658499999","2010-12-01T12:50:00","4","51.439083","-2.286389","180.74","COLERNE, UK","FM-15","EGUO ","V020","050,1,N,0093,1","22000,1,9,N","011265,1,N,1","-0020,1","-0020,1","99999,9","04,5,+00750,1,99,9",,,"04,99,1,99,9,99,9,99999,9,99,9,99,9",,"10081,1,99999,9",,,,,"MET062METAR EGUO 011250Z 05018KT 9999 SCT025 M02/M02 Q1008 BLACKBLU;",
"03658499999","2010-12-02T07:50:00","4","51.439083","-2.286389","180.74","COLERNE, UK","FM-15","EGUO ","V020","050,1,N,0087,1","00450,1,C,N","008000,1,N,1","-0020,1","-0020,1","99999,9","04,5,+00300,1,99,9","08,5,+00450,1,99,9",,"08,99,1,99,9,99,9,99999,9,99,9,99,9",,"10071,1,99999,9",,,,,"MET069METAR EGUO 020750Z 05017KT 8000 SCT010 OVC015 M02/M02 Q1007 BLACKGRN;",
"03658499999","2010-12-02T08:30:00","4","51.439083","-2.286389","180.74","COLERNE, UK","FM-15","EGUO ","V020","050,1,N,0103,1","00300,1,C,N","003800,1,N,1","-0020,1","-0020,1","99999,9","07,5,+00300,1,99,9","08,5,+00360,1,99,9",,"08,99,1,99,9,99,9,99999,9,99,9,99,9",,"10081,1,99999,9","73,1",,,,"MET072METAR EGUO 020830Z 05020KT 3800 SN BKN010 OVC012 M02/M02 Q1008 BLACKGRN;",
"03658499999","2010-12-04T07:50:00","4","51.439083","-2.286389","180.74","COLERNE, UK","FM-15","EGUO ","V020","999,9,C,0000,1","00015,1,C,N","000200,1,N,1","+0010,1","+0000,1","99999,9","09,1,+00015,1,99,9",,,"09,99,1,99,9,99,9,00025,1,99,9,99,9",,"10051,1,99999,9","45,1",,,,"MET057METAR EGUO 040750Z 00000KT 0200 FG VV/// 01/00 Q1005 RED;",
"03658499999","2010-12-09T07:50:00","4","51.439083","-2.286389","180.74","COLERNE, UK","FM-15","EGUO ","V020","280,1,N,0041,1","99999,9,9,Y","009900,1,N,1","+9999,9","+9999,9","99999,9",,,,,,"10310,1,99999,9",,,,,"MET058METAR EGUO 090750Z 28008KT CAVOK MS03/MS04 Q1031 BLACKBLU;",
"03658499999","2010-12-09T08:50:00","4","51.439083","-2.286389","180.74","COLERNE, UK","FM-15","EGUO ","V020","280,1,N,0041,1","99999,9,9,Y","009900,1,N,1","+9999,9","+9999,9","99999,9",,,,,,"10320,1,99999,9",,,,,"MET058METAR EGUO 090850Z 28008KT CAVOK MS02/MS04 Q1032 BLACKBLU;",
"03658499999","2010-12-09T10:50:00","4","51.439083","-2.286389","180.74","COLERNE, UK","FM-15","EGUO ","V020","280,1,N,0067,1","99999,9,9,Y","009900,1,N,1","+9999,9","+9999,9","99999,9",,,,,,"10330,1,99999,9",,,,,"MET058METAR EGUO 091050Z 28013KT CAVOK PS02/MS02 Q1033 BLACKBLU;",
"03658499999","2010-12-09T11:50:00","4","51.439083","-2.286389","180.74","COLERNE, UK","FM-15","EGUO ","V020","270,1,N,0026,1","99999,9,9,Y","009900,1,N,1","+9999,9","+9999,9","99999,9",,,,,,"10330,1,99999,9",,,,,"MET058METAR EGUO 091150Z 27005KT CAVOK PS03/PS00 Q1033 BLACKBLU;",
"03658499999","2010-12-09T12:50:00","4","51.439083","-2.286389","180.74","COLERNE, UK","FM-15","EGUO ","V020","280,1,N,0041,1","99999,9,9,Y","009900,1,N,1","+0040,1","+0000,1","99999,9",,,,,,"10329,1,99999,9",,,,,"MET049METAR EGUO 091250Z 28008KT CAVOK 04/00 Q1033 BLU;",
"03658499999","2010-12-09T13:50:00","4","51.439083","-2.286389","180.74","COLERNE, UK","FM-15","EGUO ","V020","280,1,N,0041,1","99999,9,9,Y","009900,1,N,1","+0050,1","+0000,1","99999,9",,,,,,"10329,1,99999,9",,,,,"MET050METAR EGUO 091350Z 28008KT CAVOK 05/M00 Q1033 BLU;",
"03658499999","2010-12-09T14:50:00","4","51.439083","-2.286389","180.74","COLERNE, UK","FM-15","EGUO ","V020","260,1,N,0031,1","99999,9,9,Y","009900,1,N,1","+0040,1","+0000,1","99999,9",,,,,,"10318,1,99999,9",,,,,"MET049METAR EGUO 091450Z 26006KT CAVOK 04/00 Q1032 BLU;",
"03658499999","2010-12-09T15:50:00","4","51.439083","-2.286389","180.74","COLERNE, UK","FM-15","EGUO ","V020","250,1,N,0051,1","99999,9,9,Y","009900,1,N,1","+0030,1","+0000,1","99999,9",,,,,,"10329,1,99999,9",,,,,"MET049METAR EGUO 091550Z 25010KT CAVOK 03/00 Q1033 BLU;",
"03658499999","2010-12-10T07:50:00","4","51.439083","-2.286389","180.74","COLERNE, UK","FM-15","EGUO ","V020","999,9,C,0000,1","00600,1,C,N","011265,1,N,1","+0040,1","+0030,1","99999,9","02,5,+00210,1,99,9","07,5,+00600,1,99,9",,"07,99,1,99,9,99,9,99999,9,99,9,99,9",,"10339,1,99999,9",,,,,"MET062METAR EGUO 100750Z 00000KT 9999 FEW007 BKN020 04/03 Q1034 WHT;",
"03658499999","2010-12-10T08:50:00","4","51.439083","-2.286389","180.74","COLERNE, UK","FM-15","EGUO ","V020","300,1,N,0031,1","00600,1,C,N","008000,1,N,1","+0050,1","+0030,1","99999,9","07,5,+00600,1,99,9",,,"07,99,1,99,9,99,9,99999,9,99,9,99,9",,"10339,1,99999,9","05,1",,,,"MET058METAR EGUO 100850Z 30006KT 8000 HZ BKN020 05/03 Q1034 WHT;",
"03658499999","2010-12-10T09:50:00","4","51.439083","-2.286389","180.74","COLERNE, UK","FM-15","EGUO ","V020","300,1,N,0051,1","00540,1,C,N","011265,1,N,1","+0050,1","+0030,1","99999,9","02,5,+00210,1,99,9","07,5,+00540,1,99,9",,"07,99,1,99,9,99,9,99999,9,99,9,99,9",,"10339,1,99999,9",,,,,"MET062METAR EGUO 100950Z 30010KT 9999 FEW007 BKN018 05/03 Q1034 WHT;",
"03658499999","2010-12-10T10:50:00","4","51.439083","-2.286389","180.74","COLERNE, UK","FM-15","EGUO ","V020","270,1,N,0026,1","00600,1,C,N","008000,1,N,1","+0060,1","+0040,1","99999,9","02,5,+00240,1,99,9","07,5,+00600,1,99,9",,"07,99,1,99,9,99,9,99999,9,99,9,99,9",,"10339,1,99999,9","05,1",,,,"MET065METAR EGUO 101050Z 27005KT 8000 HZ FEW008 BKN020 06/04 Q1034 WHT;",
"03658499999","2010-12-10T11:50:00","4","51.439083","-2.286389","180.74","COLERNE, UK","FM-15","EGUO ","V020","270,1,N,0041,1","00600,1,C,N","011265,1,N,1","+0070,1","+0040,1","99999,9","02,5,+00240,1,99,9","07,5,+00600,1,99,9",,"07,99,1,99,9,99,9,99999,9,99,9,99,9",,"10339,1,99999,9",,,,,"MET062METAR EGUO 101150Z 27008KT 9999 FEW008 BKN020 07/04 Q1034 WHT;",
"03658499999","2010-12-10T12:50:00","4","51.439083","-2.286389","180.74","COLERNE, UK","FM-15","EGUO ","V020","270,1,N,0051,1","00600,1,C,N","011265,1,N,1","+0060,1","+0050,1","99999,9","02,5,+00240,1,99,9","07,5,+00600,1,99,9",,"07,99,1,99,9,99,9,99999,9,99,9,99,9",,"10329,1,99999,9",,,,,"MET062METAR EGUO 101250Z 27010KT 9999 FEW008 BKN020 06/05 Q1033 WHT;",
"03658499999","2010-12-10T14:50:00","4","51.439083","-2.286389","180.74","COLERNE, UK","FM-15","EGUO ","V020","250,1,N,0026,1","22000,1,9,N","011265,1,N,1","+0060,1","+0040,1","99999,9","02,5,+00480,1,99,9",,,"02,99,1,99,9,99,9,99999,9,99,9,99,9",,"10318,1,99999,9",,,,,"MET055METAR EGUO 101450Z 25005KT 9999 FEW016 06/04 Q1032 BLU;",
"03658499999","2010-12-10T15:50:00","4","51.439083","-2.286389","180.74","COLERNE, UK","FM-15","EGUO ","V020","280,1,N,0041,1","22000,1,9,N","011265,1,N,1","+0050,1","+0030,1","99999,9","02,5,+00480,1,99,9",,,"02,99,1,99,9,99,9,99999,9,99,9,99,9",,"10318,1,99999,9",,,,,"MET055METAR EGUO 101550Z 28008KT 9999 FEW016 05/03 Q1032 BLU;",
"03658499999","2010-12-11T07:50:00","4","51.439083","-2.286389","180.74","COLERNE, UK","FM-15","EGUO ","V020","300,1,N,0031,1","00240,1,C,N","006000,1,N,1","+0040,1","+0030,1","99999,9","07,5,+00240,1,99,9",,,"07,99,1,99,9,99,9,99999,9,99,9,99,9",,"10291,1,99999,9","05,1",,,,"MET058METAR EGUO 110750Z 30006KT 6000 HZ BKN008 04/03 Q1029 GRN;",
"03658499999","2010-12-11T08:50:00","4","51.439083","-2.286389","180.74","COLERNE, UK","FM-15","EGUO ","V020","280,1,N,0041,1","00360,1,C,N","011265,1,N,1","+0040,1","+0030,1","99999,9","07,5,+00360,1,99,9",,,"07,99,1,99,9,99,9,99999,9,99,9,99,9",,"10281,1,99999,9",,,,,"MET055METAR EGUO 110850Z 28008KT 9999 BKN012 04/03 Q1028 GRN;",
"03658499999","2010-12-11T09:50:00","4","51.439083","-2.286389","180.74","COLERNE, UK","FM-15","EGUO ","V020","300,1,N,0031,1","00360,1,C,N","011265,1,N,1","+0050,1","+0040,1","99999,9","07,5,+00360,1,99,9",,,"07,99,1,99,9,99,9,99999,9,99,9,99,9",,"10281,1,99999,9",,,,,"MET055METAR EGUO 110950Z 30006KT 9999 BKN012 05/04 Q1028 GRN;",
"03658499999","2010-12-11T10:50:00","4","51.439083","-2.286389","180.74","COLERNE, UK","FM-15","EGUO ","V020","999,9,C,0000,1","00300,1,C,N","011265,1,N,1","+0050,1","+0040,1","99999,9","07,5,+00300,1,99,9",,,"07,99,1,99,9,99,9,99999,9,99,9,99,9",,"10281,1,99999,9",,,,,"MET055METAR EGUO 111050Z 00000KT 9999 BKN010 05/04 Q1028 GRN;",
"03658499999","2010-12-11T11:50:00","4","51.439083","-2.286389","180.74","COLERNE, UK","FM-15","EGUO ","V020","300,1,N,0026,1","00300,1,C,N","011265,1,N,1","+0050,1","+0040,1","99999,9","07,5,+00300,1,99,9",,,"07,99,1,99,9,99,9,99999,9,99,9,99,9",,"10281,1,99999,9",,,,,"MET055METAR EGUO 111150Z 30005KT 9999 BKN010 05/04 Q1028 GRN;",
"03658499999","2010-12-11T12:50:00","4","51.439083","-2.286389","180.74","COLERNE, UK","FM-15","EGUO ","V020","999,9,C,0000,1","00300,1,C,N","011265,1,N,1","+0060,1","+0040,1","99999,9","07,5,+00300,1,99,9",,,"07,99,1,99,9,99,9,99999,9,99,9,99,9",,"10271,1,99999,9",,,,,"MET055METAR EGUO 111250Z 00000KT 9999 BKN010 06/04 Q1027 GRN;",
"03658499999","2010-12-12T07:50:00","4","51.439083","-2.286389","180.74","COLERNE, UK","FM-15","EGUO ","V020","020,1,N,0026,1","22000,1,9,N","006000,1,N,1","+0000,1","-0010,1","99999,9","02,5,+03600,1,99,9",,,"02,99,1,99,9,99,9,99999,9,99,9,99,9",,"10251,1,99999,9","05,1",,,,"MET060METAR EGUO 120750Z 02005KT 6000 HZ FEW120 M00/M01 Q1025 WHT;",
"03658499999","2010-12-12T08:50:00","4","51.439083","-2.286389","180.74","COLERNE, UK","FM-15","EGUO ","V020","020,1,N,0026,1","22000,1,9,N","007000,1,N,1","+0000,1","-0010,1","99999,9","02,5,+03600,1,99,9",,,"02,99,1,99,9,99,9,99999,9,99,9,99,9",,"10251,1,99999,9","05,1",,,,"MET065METAR EGUO 120850Z 02005KT 7000 HZ FEW120 M00/M01 Q1025 BLACKWHT;",
"03658499999","2010-12-12T09:50:00","4","51.439083","-2.286389","180.74","COLERNE, UK","FM-15","EGUO ","V020","020,1,N,0041,1","22000,1,9,N","007000,1,N,1","+0010,1","+0000,1","99999,9","02,5,+04200,1,99,9",,,"02,99,1,99,9,99,9,99999,9,99,9,99,9",,"10261,1,99999,9","05,1",,,,"MET063METAR EGUO 120950Z 02008KT 7000 HZ FEW140 01/00 Q1026 BLACKWHT;",
"03658499999","2010-12-12T10:50:00","4","51.439083","-2.286389","180.74","COLERNE, UK","FM-15","EGUO ","V020","030,1,N,0041,1","22000,1,9,N","007000,1,N,1","+0030,1","+0010,1","99999,9","02,5,+04800,1,99,9",,,"02,99,1,99,9,99,9,99999,9,99,9,99,9",,"10261,1,99999,9","05,1",,,,"MET063METAR EGUO 121050Z 03008KT 7000 HZ FEW160 03/01 Q1026 BLACKWHT;",
"03658499999","2010-12-12T11:50:00","4","51.439083","-2.286389","180.74","COLERNE, UK","FM-15","EGUO ","V020","040,1,N,0041,1","22000,1,9,N","008000,1,N,1","+0040,1","+0010,1","99999,9","02,5,+05400,1,99,9",,,"02,99,1,99,9,99,9,99999,9,99,9,99,9",,"10261,1,99999,9","05,1",,,,"MET058METAR EGUO 121150Z 04008KT 8000 HZ FEW180 04/01 Q1026 BLU;",
"03658499999","2010-12-12T12:50:00","4","51.439083","-2.286389","180.74","COLERNE, UK","FM-15","EGUO ","V020","050,1,N,0026,1","22000,1,9,N","008000,1,N,1","+0040,1","+0010,1","99999,9","02,5,+05400,1,99,9",,,"02,99,1,99,9,99,9,99999,9,99,9,99,9",,"10251,1,99999,9","05,1",,,,"MET058METAR EGUO 121250Z 05005KT 8000 HZ FEW180 04/01 Q1025 BLU;",
"03658499999","2010-12-12T13:50:00","4","51.439083","-2.286389","180.74","COLERNE, UK","FM-15","EGUO ","V020","040,1,N,0036,1","22000,1,9,N","007000,1,N,1","+0040,1","+0020,1","99999,9","02,5,+02400,1,99,9",,,"02,99,1,99,9,99,9,99999,9,99,9,99,9",,"10251,1,99999,9","05,1",,,,"MET058METAR EGUO 121350Z 04007KT 7000 HZ FEW080 04/02 Q1025 WHT;",
"03658499999","2010-12-12T14:50:00","4","51.439083","-2.286389","180.74","COLERNE, UK","FM-15","EGUO ","V020","040,1,N,0041,1","22000,1,9,N","008000,1,N,1","+0040,1","+0020,1","99999,9","04,5,+01800,1,99,9",,,"04,99,1,99,9,99,9,99999,9,99,9,99,9",,"10251,1,99999,9","05,1",,,,"MET058METAR EGUO 121450Z 04008KT 8000 HZ SCT060 04/02 Q1025 BLU;",
"03658499999","2010-12-12T15:50:00","4","51.439083","-2.286389","180.74","COLERNE, UK","FM-15","EGUO ","V020","999,9,C,0000,1","01500,1,C,N","006000,1,N,1","+0030,1","+0020,1","99999,9","07,5,+01500,1,99,9",,,"07,99,1,99,9,99,9,99999,9,99,9,99,9",,"10251,1,99999,9","05,1",,,,"MET058METAR EGUO 121550Z 00000KT 6000 HZ BKN050 03/02 Q1025 WHT;",
"03658499999","2010-12-15T07:50:00","4","51.439083","-2.286389","180.74","COLERNE, UK","FM-15","EGUO ","V020","320,1,N,0041,1","22000,1,9,N","001000,1,N,1","+0010,1","+0010,1","99999,9","02,5,+01200,1,99,9",,,"02,99,1,99,9,99,9,99999,9,99,9,99,9",,"10389,1,99999,9","10,1",,,,"MET058METAR EGUO 150750Z 32008KT 1000 BR FEW040 01/01 Q1039 AMB;",
"03658499999","2010-12-15T08:50:00","4","51.439083","-2.286389","180.74","COLERNE, UK","FM-15","EGUO ","V020","330,1,N,0051,1","00090,1,C,N","001000,1,N,1","+0010,1","+0010,1","99999,9","07,5,+00090,1,99,9",,,"07,99,1,99,9,99,9,99999,9,99,9,99,9",,"10379,1,99999,9","10,1",,,,"MET063METAR EGUO 150850Z 33010KT 1000 BR BKN003 01/01 Q1038 BLACKAMB;",
"03658499999","2010-12-15T09:50:00","4","51.439083","-2.286389","180.74","COLERNE, UK","FM-15","EGUO ","V020","340,1,N,0031,1","00090,1,C,N","001500,1,N,1","+0020,1","+0020,1","99999,9","07,5,+00090,1,99,9",,,"07,99,1,99,9,99,9,99999,9,99,9,99,9",,"10389,1,99999,9","10,1",,,,"MET063METAR EGUO 150950Z 34006KT 1500 BR BKN003 02/02 Q1039 BLACKAMB;",
"03658499999","2010-12-15T10:50:00","4","51.439083","-2.286389","180.74","COLERNE, UK","FM-15","EGUO ","V020","330,1,N,0062,1","00150,1,C,N","001500,1,N,1","+0030,1","+0020,1","99999,9","07,5,+00150,1,99,9",,,"07,99,1,99,9,99,9,99999,9,99,9,99,9",,"10379,1,99999,9","10,1",,,,"MET058METAR EGUO 151050Z 33012KT 1500 BR BKN005 03/02 Q1038 AMB;",
"03658499999","2010-12-15T11:50:00","4","51.439083","-2.286389","180.74","COLERNE, UK","FM-15","EGUO ","V020","340,1,N,0051,1","00240,1,C,N","005000,1,N,1","+0040,1","+0030,1","99999,9","07,5,+00240,1,99,9",,,"07,99,1,99,9,99,9,99999,9,99,9,99,9",,"10369,1,99999,9","10,1",,,,"MET058METAR EGUO 151150Z 34010KT 5000 BR BKN008 04/03 Q1037 GRN;",
"03658499999","2010-12-15T12:50:00","4","51.439083","-2.286389","180.74","COLERNE, UK","FM-15","EGUO ","V020","330,1,N,0062,1","00240,1,C,N","005000,1,N,1","+0040,1","+0030,1","99999,9","07,5,+00240,1,99,9",,,"07,99,1,99,9,99,9,99999,9,99,9,99,9",,"10369,1,99999,9","10,1",,,,"MET058METAR EGUO 151250Z 33012KT 5000 BR BKN008 04/03 Q1037 GRN;",
"03658499999","2010-12-15T13:50:00","4","51.439083","-2.286389","180.74","COLERNE, UK","FM-15","EGUO ","V020","340,1,N,0051,1","99999,9,C,N","005000,1,N,1","+0040,1","+0030,1","99999,9","02,5,+00240,1,99,9","04,5,+00300,1,99,9",,"04,99,1,99,9,99,9,99999,9,99,9,99,9",,"10359,1,99999,9","10,1",,,,"MET065METAR EGUO 151350Z 34010KT 5000 BR FEW008 SCT010 04/03 Q1036 GRN;","P01 003003SCOCIG"
"03658499999","2010-12-15T14:50:00","4","51.439083","-2.286389","180.74","COLERNE, UK","FM-15","EGUO ","V020","340,1,N,0062,1","99999,9,C,N","006000,1,N,1","+0040,1","+0020,1","99999,9","02,5,+00240,1,99,9","04,5,+00300,1,99,9",,"04,99,1,99,9,99,9,99999,9,99,9,99,9",,"10359,1,99999,9","05,1",,,,"MET065METAR EGUO 151450Z 34012KT 6000 HZ FEW008 SCT010 04/02 Q1036 GRN;","P01 003003SCOCIG"
"03658499999","2010-12-16T07:50:00","4","51.439083","-2.286389","180.74","COLERNE, UK","FM-15","EGUO ","V020","250,1,N,0103,1","00270,1,C,N","006000,1,N,1","+0050,1","+0040,1","99999,9","07,5,+00270,1,99,9",,,"07,99,1,99,9,99,9,99999,9,99,9,99,9",,"10159,1,99999,9","10,1",,,,"MET058METAR EGUO 160750Z 25020KT 6000 BR BKN009 05/04 Q1016 GRN;",
"03658499999","2010-12-16T08:50:00","4","51.439083","-2.286389","180.74","COLERNE, UK","FM-15","EGUO ","V020","270,1,N,0093,1","00240,1,C,N","011265,1,N,1","+0050,1","+0040,1","99999,9","02,5,+00180,1,99,9","07,5,+00240,1,99,9",,"07,99,1,99,9,99,9,99999,9,99,9,99,9",,"10139,1,99999,9",,,,,"MET062METAR EGUO 160850Z 27018KT 9999 FEW006 BKN008 05/04 Q1014 GRN;",
"03658499999","2010-12-16T09:50:00","4","51.439083","-2.286389","180.74","COLERNE, UK","FM-15","EGUO ","V020","270,1,N,0082,1","00300,1,C,N","011265,1,N,1","+0050,1","+0040,1","99999,9","02,5,+00240,1,99,9","07,5,+00300,1,99,9",,"07,99,1,99,9,99,9,99999,9,99,9,99,9",,"99999,9,99999,9",,,,,"MET062METAR EGUO 160950Z 27016KT 9999 FEW008 BKN010 05/04 Q1021 GRN;","Q01+102103APOA  Q02 102103APOA  "
"03658499999","2010-12-16T10:50:00","4","51.439083","-2.286389","180.74","COLERNE, UK","FM-15","EGUO ","V020","270,1,N,0077,1","00240,1,C,N","011265,1,N,1","+0060,1","+0040,1","99999,9","07,5,+00240,1,99,9","08,5,+00300,1,99,9",,"08,99,1,99,9,99,9,99999,9,99,9,99,9",,"10108,1,99999,9",,,,,"MET062METAR EGUO 161050Z 27015KT 9999 BKN008 OVC010 06/04 Q1011 GRN;",
"03658499999","2010-12-17T07:50:00","4","51.439083","-2.286389","180.74","COLERNE, UK","FM-15","EGUO ","V020","280,1,N,0051,1","22000,1,9,N","006000,1,N,1","-0030,1","-0030,1","99999,9","02,5,+00030,1,99,9",,,"02,99,1,99,9,99,9,99999,9,99,9,99,9",,"10010,1,99999,9","05,1",,,,"MET073METAR EGUO 170750Z 28010KT 6000 3000SW HZ FEW001 M03/M03 Q1001 YLO1BLACK;",
"03658499999","2010-12-17T08:20:00","4","51.439083","-2.286389","180.74","COLERNE, UK","FM-15","EGUO ","V020","260,1,N,0026,1","22000,1,9,N","006000,1,N,1","-0030,1","-0030,1","99999,9","02,5,+00030,1,99,9",,,"02,99,1,99,9,99,9,99999,9,99,9,99,9",,"10010,1,99999,9","05,1",,,,"MET065METAR EGUO 170820Z 26005KT 6000 HZ FEW001 M03/M03 Q1001 BLACKWHT;",
"03658499999","2010-12-17T08:50:00","4","51.439083","-2.286389","180.74","COLERNE, UK","FM-15","EGUO ","V020","280,1,N,0041,1","99999,9,C,N","006000,1,N,1","-0030,1","-0030,1","99999,9","02,5,+00090,1,99,9","04,5,+01200,1,99,9",,"04,99,1,99,9,99,9,99999,9,99,9,99,9",,"10010,1,99999,9","05,1",,,,"MET072METAR EGUO 170850Z 28008KT 6000 HZ FEW003 SCT040 M03/M03 Q1001 BLACKWHT;","P01 012003SCOCIG"
"03658499999","2010-12-17T09:50:00","4","51.439083","-2.286389","180.74","COLERNE, UK","FM-15","EGUO ","V020","300,1,N,0051,1","01350,1,C,N","011265,1,N,1","-0020,1","-0030,1","99999,9","02,5,+00600,1,99,9","07,5,+01350,1,99,9",,"07,99,1,99,9,99,9,99999,9,99,9,99,9",,"10000,1,99999,9",,,,,"MET069METAR EGUO 170950Z 30010KT 9999 FEW020 BKN045 M02/M03 Q1000 BLACKBLU;",
