"STATION","DATE","SOURCE","LATITUDE","LONGITUDE","ELEVATION","NAME","REPORT_TYPE","CALL_SIGN","QUALITY_CONTROL","WND","CIG","VIS","TMP","DEW","SLP","GA1","GA2","GA3","GF1","MA1","MW1","MW2","MW3","OC1","REM","EQD"
"06066099999","2010-01-04T07:20:00","4","55.990122","8.353906","5.18","STAUNING, DA","FM-15","EKVJ ","V020","310,1,N,0031,1","22000,1,9,N","011265,1,N,1","-0020,1","-0030,1","99999,9","02,5,+00900,1,99,9",,,"02,99,1,99,9,99,9,99999,9,99,9,99,9","10108,1,99999,9",,,,,"MET062METAR EKVJ 040720Z 31006KT 9999 FEW030 M02/M03 Q1011 27791091;",
"06066099999","2010-01-04T07:50:00","4","55.990122","8.353906","5.18","STAUNING, DA","FM-15","EKVJ ","V020","310,1,N,0031,1","22000,1,9,N","011265,1,N,1","-0020,1","-0030,1","99999,9","02,5,+00900,1,99,9",,,"02,99,1,99,9,99,9,99999,9,99,9,99,9","10102,1,99999,9",,,,,"MET062METAR EKVJ 040750Z 31006KT 9999 FEW030 M02/M03 Q1010 27791091;",
"06066099999","2010-01-04T09:20:00","4","55.990122","8.353906","5.18","STAUNING, DA","FM-15","EKVJ ","V020","310,1,N,0031,1","99999,9,9,Y","009900,1,N,1","+0010,1","+0000,1","99999,9",,,,,"10102,1,99999,9",,,,,"MET055METAR EKVJ 040920Z 31006KT CAVOK 01/M00 Q1010 27791091;",
"06066099999","2010-01-04T09:50:00","4","55.990122","8.353906","5.18","STAUNING, DA","FM-15","EKVJ ","V020","310,1,N,0031,1","99999,9,9,Y","009900,1,N,1","+0020,1","+0000,1","99999,9",,,,,"10102,1,99999,9",,,,,"MET054METAR EKVJ 040950Z 31006KT CAVOK 02/00 Q1010 27791091;",
"06066099999","2010-01-04T11:50:00","4","55.990122","8.353906","5.18","STAUNING, DA","FM-15","EKVJ ","V020","310,1,N,0031,1","99999,9,9,Y","009900,1,N,1","+0030,1","+0010,1","99999,9",,,,,"10102,1,99999,9",,,,,"MET054METAR EKVJ 041150Z 31006KT CAVOK 03/01 Q1010 27791091;",
"06066099999","2010-01-04T12:50:00","4","55.990122","8.353906","5.18","STAUNING, DA","FM-15","EKVJ ","V020","310,1,N,0031,1","99999,9,9,Y","009900,1,N,1","+0030,1","+0010,1","99999,9",,,,,"10102,1,99999,9",,,,,"MET054METAR EKVJ 041250Z 31006KT CAVOK 03/01 Q1010 27791091;",
"06066099999","2010-01-04T14:50:00","4","55.990122","8.353906","5.18","STAUNING, DA","FM-15","EKVJ ","V020","310,1,N,0031,1","22000,1,9,N","011265,1,N,1","+0010,1","-0010,1","99999,9",,,,,"10091,1,99999,9","83,1",,,,"MET062METAR EKVJ 041450Z 31006KT 9999 -SHRASN 01/M01 Q1009 27791091;",
"06066099999","2010-01-05T07:20:00","4","55.990122","8.353906","5.18","STAUNING, DA","FM-15","EKVJ ","V020","200,1,N,0021,1","00450,1,C,N","006000,1,N,1","+0010,1","+0010,1","99999,9","07,5,+00450,1,99,9",,,"07,99,1,99,9,99,9,99999,9,99,9,99,9","10020,1,99999,9",,,,,"MET060METAR EKVJ 050720Z 20004KT 6000 BKN015 01/01 Q1002 27790291;",
"06066099999","2010-01-05T07:50:00","4","55.990122","8.353906","5.18","STAUNING, DA","FM-15","EKVJ ","V020","180,1,N,0026,1","00450,1,C,N","006000,1,N,1","+0010,1","+0010,1","99999,9","07,5,+00450,1,99,9",,,"07,99,1,99,9,99,9,99999,9,99,9,99,9","10020,1,99999,9",,,,,"MET060METAR EKVJ 050750Z 18005KT 6000 BKN015 01/01 Q1002 27790291;",
"06066099999","2010-01-05T08:50:00","4","55.990122","8.353906","5.18","STAUNING, DA","FM-15","EKVJ ","V020","170,1,N,0041,1","00450,1,C,N","008000,1,N,1","+0010,1","+0010,1","99999,9","07,5,+00450,1,99,9",,,"07,99,1,99,9,99,9,99999,9,99,9,99,9","10020,1,99999,9",,,,,"MET060METAR EKVJ 050850Z 17008KT 8000 BKN015 01/01 Q1002 09790291;",
"06066099999","2010-01-05T10:50:00","4","55.990122","8.353906","5.18","STAUNING, DA","FM-15","EKVJ ","V020","170,1,N,0041,1","00150,1,C,N","004000,1,N,1","+0010,1","+0010,1","99999,9","07,5,+00150,1,99,9",,,"07,99,1,99,9,99,9,99999,9,99,9,99,9","10020,1,99999,9","10,1",,,,"MET063METAR EKVJ 051050Z 17008KT 4000 BR BKN005 01/01 Q1002 09790291;",
"06066099999","2010-01-05T11:50:00","4","55.990122","8.353906","5.18","STAUNING, DA","FM-15","EKVJ ","V020","160,1,N,0051,1","00150,1,C,N","003000,1,N,1","+0010,1","+0010,1","99999,9","07,5,+00150,1,99,9",,,"07,99,1,99,9,99,9,99999,9,99,9,99,9","10020,1,99999,9","10,1",,,,"MET063METAR EKVJ 051150Z 16010KT 3000 BR BKN005 01/01 Q1002 09790291;",
"06066099999","2010-01-05T12:50:00","4","55.990122","8.353906","5.18","STAUNING, DA","FM-15","EKVJ ","V020","160,1,N,0051,1","00150,1,C,N","002500,1,N,1","+0010,1","+0010,1","99999,9","07,5,+00150,1,99,9",,,"07,99,1,99,9,99,9,99999,9,99,9,99,9","10020,1,99999,9","10,1",,,,"MET063METAR EKVJ 051250Z 16010KT 2500 BR BKN005 01/01 Q1002 09790291;",
"06066099999","2010-01-05T13:50:00","4","55.990122","8.353906","5.18","STAUNING, DA","FM-15","EKVJ ","V020","160,1,N,0051,1","00090,1,C,N","002000,1,N,1","+0010,1","+0010,1","99999,9","08,5,+00090,1,99,9",,,"08,99,1,99,9,99,9,99999,9,99,9,99,9","10010,1,99999,9","71,1",,,,"MET064METAR EKVJ 051350Z 16010KT 2000 -SN OVC003 01/01 Q1001 09790291;",
"06066099999","2010-01-05T14:50:00","4","55.990122","8.353906","5.18","STAUNING, DA","FM-15","EKVJ ","V020","150,1,N,0051,1","00090,1,C,N","002500,1,N,1","+0000,1","+0000,1","99999,9","08,5,+00090,1,99,9",,,"08,99,1,99,9,99,9,99999,9,99,9,99,9","10010,1,99999,9","10,1",,,,"MET064METAR EKVJ 051450Z 15010KT 2500 BR OVC003 00/M00 Q1001 09790291;",
"06066099999","2010-01-06T07:20:00","4","55.990122","8.353906","5.18","STAUNING, DA","FM-15","EKVJ ","V020","040,1,N,0041,1","00090,1,C,N","001500,1,N,1","-0030,1","-0030,1","99999,9","08,5,+00090,1,99,9",,,"08,99,1,99,9,99,9,99999,9,99,9,99,9","10031,1,99999,9","10,1","71,1",,,"MET069METAR EKVJ 060720Z 04008KT 1500 BR -SN OVC003 M03/M03 Q1003 09493091;",
"06066099999","2010-01-06T08:50:00","4","55.990122","8.353906","5.18","STAUNING, DA","FM-15","EKVJ ","V020","060,1,N,0041,1","00090,1,C,N","001500,1,N,1","-0030,1","-0030,1","99999,9","08,5,+00090,1,99,9",,,"08,99,1,99,9,99,9,99999,9,99,9,99,9","10041,1,99999,9","10,1","71,1",,,"MET069METAR EKVJ 060850Z 06008KT 1500 BR -SN OVC003 M03/M03 Q1004 09493091;",
"06066099999","2010-01-07T07:20:00","4","55.990122","8.353906","5.18","STAUNING, DA","FM-15","EKVJ ","V020","060,1,N,0031,1","00240,1,C,N","011265,1,N,1","-0050,1","-0050,1","99999,9","07,5,+00240,1,99,9",,,"07,99,1,99,9,99,9,99999,9,99,9,99,9","10119,1,99999,9",,,,,"MET062METAR EKVJ 070720Z 06006KT 9999 BKN008 M05/M05 Q1012 09790392;",
"06066099999","2010-01-07T07:50:00","4","55.990122","8.353906","5.18","STAUNING, DA","FM-15","EKVJ ","V020","060,1,N,0031,1","00240,1,C,N","006000,1,N,1","-0050,1","-0050,1","99999,9","07,5,+00240,1,99,9",,,"07,99,1,99,9,99,9,99999,9,99,9,99,9","10119,1,99999,9",,,,,"MET062METAR EKVJ 070750Z 06006KT 6000 BKN008 M05/M05 Q1012 09790392;",
"06066099999","2010-01-07T08:50:00","4","55.990122","8.353906","5.18","STAUNING, DA","FM-15","EKVJ ","V020","060,1,N,0041,1","00240,1,C,N","008000,1,N,1","-0060,1","-0060,1","99999,9","07,5,+00240,1,99,9",,,"07,99,1,99,9,99,9,99999,9,99,9,99,9","10129,1,99999,9",,,,,"MET062METAR EKVJ 070850Z 06008KT 8000 BKN008 M06/M06 Q1013 09790392;",
"06066099999","2010-01-07T09:50:00","4","55.990122","8.353906","5.18","STAUNING, DA","FM-15","EKVJ ","V020","050,1,N,0041,1","00210,1,C,N","008000,1,N,1","-0060,1","-0060,1","99999,9","07,5,+00210,1,99,9",,,"07,99,1,99,9,99,9,99999,9,99,9,99,9","10129,1,99999,9",,,,,"MET062METAR EKVJ 070950Z 05008KT 8000 BKN007 M06/M06 Q1013 09790392;",
"06066099999","2010-01-07T10:50:00","4","55.990122","8.353906","5.18","STAUNING, DA","FM-15","EKVJ ","V020","050,1,N,0041,1","00210,1,C,N","008000,1,N,1","-0060,1","-0060,1","99999,9","07,5,+00210,1,99,9",,,"07,99,1,99,9,99,9,99999,9,99,9,99,9","10129,1,99999,9",,,,,"MET062METAR EKVJ 071050Z 05008KT 8000 BKN007 M06/M06 Q1013 09790392;",
"06066099999","2010-01-07T11:50:00","4","55.990122","8.353906","5.18","STAUNING, DA","FM-15","EKVJ ","V020","050,1,N,0041,1","00210,1,C,N","008000,1,N,1","-0060,1","-0060,1","99999,9","07,5,+00210,1,99,9",,,"07,99,1,99,9,99,9,99999,9,99,9,99,9","10139,1,99999,9",,,,,"MET062METAR EKVJ 071150Z 05008KT 8000 BKN007 M06/M06 Q1014 09790392;",
"06066099999","2010-01-07T12:50:00","4","55.990122","8.353906","5.18","STAUNING, DA","FM-15","EKVJ ","V020","050,1,N,0041,1","00210,1,C,N","008000,1,N,1","-0060,1","-0060,1","99999,9","07,5,+00210,1,99,9",,,"07,99,1,99,9,99,9,99999,9,99,9,99,9","10139,1,99999,9",,,,,"MET062METAR EKVJ 071250Z 05008KT 8000 BKN007 M06/M06 Q1014 09790392;",
"06066099999","2010-01-07T13:50:00","4","55.990122","8.353906","5.18","STAUNING, DA","FM-15","EKVJ ","V020","050,1,N,0041,1","00150,1,C,N","005000,1,N,1","-0060,1","-0060,1","99999,9","07,5,+00150,1,99,9",,,"07,99,1,99,9,99,9,99999,9,99,9,99,9","10149,1,99999,9","71,1",,,,"MET066METAR EKVJ 071350Z 05008KT 5000 -SN BKN005 M06/M06 Q1015 09790392;",
"06066099999","2010-01-07T14:50:00","4","55.990122","8.353906","5.18","STAUNING, DA","FM-15","EKVJ ","V020","060,1,N,0031,1","00150,1,C,N","007000,1,N,1","-0060,1","-0060,1","99999,9","07,5,+00150,1,99,9",,,"07,99,1,99,9,99,9,99999,9,99,9,99,9","10149,1,99999,9",,,,,"MET062METAR EKVJ 071450Z 06006KT 7000 BKN005 M06/M06 Q1015 09790392;",
"06066099999","2010-01-08T07:20:00","4","55.990122","8.353906","5.18","STAUNING, DA","FM-15","EKVJ ","V020","040,1,N,0026,1","22000,1,9,N","011265,1,N,1","-0050,1","-0060,1","99999,9",,,,,"10240,1,99999,9",,,,,"MET054METAR EKVJ 080720Z 04005KT 9999 M05/M06 Q1024 0979599;",
"06066099999","2010-01-08T07:50:00","4","55.990122","8.353906","5.18","STAUNING, DA","FM-15","EKVJ ","V020","040,1,N,0026,1","22000,1,9,N","011265,1,N,1","-0050,1","-0060,1","99999,9",,,,,"10240,1,99999,9",,,,,"MET054METAR EKVJ 080750Z 04005KT 9999 M05/M06 Q1024 0979599;",
"06066099999","2010-01-08T08:50:00","4","55.990122","8.353906","5.18","STAUNING, DA","FM-15","EKVJ ","V020","040,1,N,0026,1","22000,1,9,N","011265,1,N,1","-0050,1","-0060,1","99999,9",,,,,"10240,1,99999,9",,,,,"MET055METAR EKVJ 080850Z 04005KT 9999 M05/M06 Q1024 09790599;",
"06066099999","2010-01-08T09:50:00","4","55.990122","8.353906","5.18","STAUNING, DA","FM-15","EKVJ ","V020","080,1,N,0041,1","99999,9,9,Y","009900,1,N,1","-0050,1","-0060,1","99999,9",,,,,"10240,1,99999,9",,,,,"MET056METAR EKVJ 080950Z 08008KT CAVOK M05/M06 Q1024 09790599;",
"06066099999","2010-01-08T10:50:00","4","55.990122","8.353906","5.18","STAUNING, DA","FM-15","EKVJ ","V020","080,1,N,0041,1","99999,9,9,Y","009900,1,N,1","-0050,1","-0060,1","99999,9",,,,,"10251,1,99999,9",,,,,"MET056METAR EKVJ 081050Z 08008KT CAVOK M05/M06 Q1025 09790599;",
"06066099999","2010-01-08T11:50:00","4","55.990122","8.353906","5.18","STAUNING, DA","FM-15","EKVJ ","V020","080,1,N,0041,1","99999,9,9,Y","009900,1,N,1","-0050,1","-0060,1","99999,9",,,,,"10261,1,99999,9",,,,,"MET056METAR EKVJ 081150Z 08008KT CAVOK M05/M06 Q1026 09790599;",
"06066099999","2010-01-08T13:50:00","4","55.990122","8.353906","5.18","STAUNING, DA","FM-15","EKVJ ","V020","080,1,N,0041,1","99999,9,9,Y","009900,1,N,1","-0050,1","-0060,1","99999,9",,,,,"10271,1,99999,9",,,,,"MET056METAR EKVJ 081350Z 08008KT CAVOK M05/M06 Q1027 09790599;",
"06066099999","2010-01-08T14:50:00","4","55.990122","8.353906","5.18","STAUNING, DA","FM-15","EKVJ ","V020","080,1,N,0041,1","99999,9,9,Y","009900,1,N,1","-0050,1","-0060,1","99999,9",,,,,"10271,1,99999,9",,,,,"MET056METAR EKVJ 081450Z 08008KT CAVOK M05/M06 Q1027 09790599;",
"06066099999","2010-01-11T07:20:00","4","55.990122","8.353906","5.18","STAUNING, DA","FM-15","EKVJ ","V020","070,1,N,0041,1","00900,1,C,N","011265,1,N,1","-0050,1","-0060,1","99999,9","07,5,+00900,1,99,9",,,"07,99,1,99,9,99,9,99999,9,99,9,99,9","10271,1,99999,9",,,,,"MET062METAR EKVJ 110720Z 07008KT 9999 BKN030 M05/M06 Q1027 09790599;",
"06066099999","2010-01-11T07:50:00","4","55.990122","8.353906","5.18","STAUNING, DA","FM-15","EKVJ ","V020","070,1,N,0051,1","00900,1,C,N","011265,1,N,1","-0050,1","-0060,1","99999,9","07,5,+00900,1,99,9",,,"07,99,1,99,9,99,9,99999,9,99,9,99,9","10271,1,99999,9",,,,,"MET062METAR EKVJ 110750Z 07010KT 9999 BKN030 M05/M06 Q1027 09790599;",
"06066099999","2010-01-11T08:50:00","4","55.990122","8.353906","5.18","STAUNING, DA","FM-15","EKVJ ","V020","050,1,N,0041,1","00900,1,C,N","011265,1,N,1","-0050,1","-0060,1","99999,9","07,5,+00900,1,99,9",,,"07,99,1,99,9,99,9,99999,9,99,9,99,9","10271,1,99999,9",,,,,"MET062METAR EKVJ 110850Z 05008KT 9999 BKN030 M05/M06 Q1027 09790599;",
"06066099999","2010-01-11T09:50:00","4","55.990122","8.353906","5.18","STAUNING, DA","FM-15","EKVJ ","V020","050,1,N,0041,1","00900,1,C,N","011265,1,N,1","-0050,1","-0060,1","99999,9","07,5,+00900,1,99,9",,,"07,99,1,99,9,99,9,99999,9,99,9,99,9","10271,1,99999,9",,,,,"MET062METAR EKVJ 110950Z 05008KT 9999 BKN030 M05/M06 Q1027 09790599;",
"06066099999","2010-01-11T10:50:00","4","55.990122","8.353906","5.18","STAUNING, DA","FM-15","EKVJ ","V020","050,1,N,0041,1","03000,1,C,N","011265,1,N,1","-0040,1","-0050,1","99999,9","02,5,+00750,1,99,9","07,5,+03000,1,99,9",,"07,99,1,99,9,99,9,99999,9,99,9,99,9","10271,1,99999,9",,,,,"MET069METAR EKVJ 111050Z 05008KT 9999 FEW025 BKN100 M04/M05 Q1027 09790599;",
"06066099999","2010-01-11T11:50:00","4","55.990122","8.353906","5.18","STAUNING, DA","FM-15","EKVJ ","V020","070,1,N,0041,1","99999,9,9,Y","009900,1,N,1","-0040,1","-0050,1","99999,9",,,,,"10271,1,99999,9",,,,,"MET056METAR EKVJ 111150Z 07008KT CAVOK M04/M05 Q1027 09790599;",
"06066099999","2010-01-11T12:50:00","4","55.990122","8.353906","5.18","STAUNING, DA","FM-15","EKVJ ","V020","070,1,N,0051,1","99999,9,9,Y","009900,1,N,1","-0030,1","-0040,1","99999,9",,,,,"10261,1,99999,9",,,,,"MET056METAR EKVJ 111250Z 07010KT CAVOK M03/M04 Q1026 09790599;",
"06066099999","2010-01-11T13:50:00","4","55.990122","8.353906","5.18","STAUNING, DA","FM-15","EKVJ ","V020","070,1,N,0051,1","99999,9,9,Y","009900,1,N,1","-0030,1","-0040,1","99999,9",,,,,"10261,1,99999,9",,,,,"MET056METAR EKVJ 111350Z 07010KT CAVOK M03/M04 Q1026 09790599;",
"06066099999","2010-01-11T14:50:00","4","55.990122","8.353906","5.18","STAUNING, DA","FM-15","EKVJ ","V020","070,1,N,0051,1","99999,9,9,Y","009900,1,N,1","-0040,1","-0050,1","99999,9",,,,,"10261,1,99999,9",,,,,"MET056METAR EKVJ 111450Z 07010KT CAVOK M04/M05 Q1026 09790599;",
"06066099999","2010-01-12T07:20:00","4","55.990122","8.353906","5.18","STAUNING, DA","FM-15","EKVJ ","V020","060,1,N,0041,1","01200,1,C,N","011265,1,N,1","-0020,1","-0030,1","99999,9","02,5,+00600,1,99,9","07,5,+01200,1,99,9",,"07,99,1,99,9,99,9,99999,9,99,9,99,9","10230,1,99999,9",,,,,"MET069METAR EKVJ 120720Z 06008KT 9999 FEW020 BKN040 M02/M03 Q1023 09790599;",
"06066099999","2010-01-12T07:50:00","4","55.990122","8.353906","5.18","STAUNING, DA","FM-15","EKVJ ","V020","060,1,N,0041,1","01200,1,C,N","011265,1,N,1","-0020,1","-0030,1","99999,9","04,5,+00600,1,99,9","07,5,+01200,1,99,9",,"07,99,1,99,9,99,9,99999,9,99,9,99,9","10230,1,99999,9",,,,,"MET069METAR EKVJ 120750Z 06008KT 9999 SCT020 BKN040 M02/M03 Q1023 09790599;",
"06066099999","2010-01-12T08:50:00","4","55.990122","8.353906","5.18","STAUNING, DA","FM-15","EKVJ ","V020","060,1,N,0041,1","01200,1,C,N","011265,1,N,1","-0020,1","-0030,1","99999,9","04,5,+00600,1,99,9","07,5,+01200,1,99,9",,"07,99,1,99,9,99,9,99999,9,99,9,99,9","10230,1,99999,9",,,,,"MET069METAR EKVJ 120850Z 06008KT 9999 SCT020 BKN040 M02/M03 Q1023 09790599;",
"06066099999","2010-01-12T09:50:00","4","55.990122","8.353906","5.18","STAUNING, DA","FM-15","EKVJ ","V020","060,1,N,0041,1","00600,1,C,N","011265,1,N,1","-0020,1","-0030,1","99999,9","07,5,+00600,1,99,9",,,"07,99,1,99,9,99,9,99999,9,99,9,99,9","10230,1,99999,9",,,,,"MET062METAR EKVJ 120950Z 06008KT 9999 BKN020 M02/M03 Q1023 09790599;",
"06066099999","2010-01-12T10:50:00","4","55.990122","8.353906","5.18","STAUNING, DA","FM-15","EKVJ ","V020","060,1,N,0041,1","00600,1,C,N","011265,1,N,1","-0010,1","-0020,1","99999,9","07,5,+00600,1,99,9",,,"07,99,1,99,9,99,9,99999,9,99,9,99,9","10230,1,99999,9",,,,,"MET062METAR EKVJ 121050Z 06008KT 9999 BKN020 M01/M02 Q1023 09790599;",
"06066099999","2010-01-12T11:50:00","4","55.990122","8.353906","5.18","STAUNING, DA","FM-15","EKVJ ","V020","070,1,N,0041,1","00600,1,C,N","011265,1,N,1","-0010,1","-0020,1","99999,9","07,5,+00600,1,99,9",,,"07,99,1,99,9,99,9,99999,9,99,9,99,9","10220,1,99999,9",,,,,"MET062METAR EKVJ 121150Z 07008KT 9999 BKN020 M01/M02 Q1022 09790599;",
"06066099999","2010-01-12T12:50:00","4","55.990122","8.353906","5.18","STAUNING, DA","FM-15","EKVJ ","V020","070,1,N,0041,1","00600,1,C,N","011265,1,N,1","-0010,1","-0020,1","99999,9","07,5,+00600,1,99,9",,,"07,99,1,99,9,99,9,99999,9,99,9,99,9","10220,1,99999,9",,,,,"MET062METAR EKVJ 121250Z 07008KT 9999 BKN020 M01/M02 Q1022 09790599;",
"06066099999","2010-01-12T13:50:00","4","55.990122","8.353906","5.18","STAUNING, DA","FM-15","EKVJ ","V020","080,1,N,0051,1","00600,1,C,N","011265,1,N,1","+0000,1","-0010,1","99999,9","07,5,+00600,1,99,9",,,"07,99,1,99,9,99,9,99999,9,99,9,99,9","10210,1,99999,9",,,,,"MET061METAR EKVJ 121350Z 08010KT 9999 BKN020 00/M01 Q1021 09790599;",
"06066099999","2010-01-12T14:50:00","4","55.990122","8.353906","5.18","STAUNING, DA","FM-15","EKVJ ","V020","080,1,N,0051,1","00600,1,C,N","011265,1,N,1","+0000,1","-0010,1","99999,9","07,5,+00600,1,99,9",,,"07,99,1,99,9,99,9,99999,9,99,9,99,9","10210,1,99999,9",,,,,"MET061METAR EKVJ 121450Z 08010KT 9999 BKN020 00/M01 Q1021 09790599;",
"06066099999","2010-01-13T07:20:00","4","55.990122","8.353906","5.18","STAUNING, DA","FM-15","EKVJ ","V020","110,1,N,0082,1","00450,1,C,N","011265,1,N,1","+0010,1","+0010,1","99999,9","07,5,+00450,1,99,9",,,"07,99,1,99,9,99,9,99999,9,99,9,99,9","10159,1,99999,9",,,,,"MET060METAR EKVJ 130720Z 11016KT 9999 BKN015 01/01 Q1016 09790599;",
"06066099999","2010-01-13T07:50:00","4","55.990122","8.353906","5.18","STAUNING, DA","FM-15","EKVJ ","V020","110,1,N,0093,1","00210,1,C,N","011265,1,N,1","+0010,1","+0010,1","99999,9","07,5,+00210,1,99,9",,,"07,99,1,99,9,99,9,99999,9,99,9,99,9","10159,1,99999,9",,,,,"MET060METAR EKVJ 130750Z 11018KT 9999 BKN007 01/01 Q1016 09790599;",
"06066099999","2010-01-13T08:50:00","4","55.990122","8.353906","5.18","STAUNING, DA","FM-15","EKVJ ","V020","110,1,N,0093,1","00210,1,C,N","011265,1,N,1","+0010,1","+0010,1","99999,9","07,5,+00210,1,99,9",,,"07,99,1,99,9,99,9,99999,9,99,9,99,9","10159,1,99999,9",,,,,"MET060METAR EKVJ 130850Z 11018KT 9999 BKN007 01/01 Q1016 09790599;",
"06066099999","2010-01-13T09:50:00","4","55.990122","8.353906","5.18","STAUNING, DA","FM-15","EKVJ ","V020","110,1,N,0093,1","00300,1,C,N","011265,1,N,1","+0010,1","+0010,1","99999,9","07,5,+00300,1,99,9",,,"07,99,1,99,9,99,9,99999,9,99,9,99,9","10159,1,99999,9",,,,,"MET060METAR EKVJ 130950Z 11018KT 9999 BKN010 01/01 Q1016 09790599;",
"06066099999","2010-01-13T11:20:00","4","55.990122","8.353906","5.18","STAUNING, DA","FM-15","EKVJ ","V020","110,1,N,0093,1","00300,1,C,N","011265,1,N,1","+0010,1","+0010,1","99999,9","07,5,+00300,1,99,9",,,"07,99,1,99,9,99,9,99999,9,99,9,99,9","10159,1,99999,9",,,,,"MET060METAR EKVJ 131120Z 11018KT 9999 BKN010 01/01 Q1016 09790599;",
"06066099999","2010-01-13T11:50:00","4","55.990122","8.353906","5.18","STAUNING, DA","FM-15","EKVJ ","V020","110,1,N,0093,1","00300,1,C,N","011265,1,N,1","+0020,1","+0010,1","99999,9","07,5,+00300,1,99,9",,,"07,99,1,99,9,99,9,99999,9,99,9,99,9","10159,1,99999,9",,,,,"MET060METAR EKVJ 131150Z 11018KT 9999 BKN010 02/01 Q1016 09790599;",
"06066099999","2010-01-13T12:50:00","4","55.990122","8.353906","5.18","STAUNING, DA","FM-15","EKVJ ","V020","110,1,N,0082,1","00300,1,C,N","006000,1,N,1","+0020,1","+0010,1","99999,9","07,5,+00300,1,99,9",,,"07,99,1,99,9,99,9,99999,9,99,9,99,9","10149,1,99999,9","51,1",,,,"MET064METAR EKVJ 131250Z 11016KT 6000 -DZ BKN010 02/01 Q1015 09790599;",
"06066099999","2010-01-14T07:20:00","4","55.990122","8.353906","5.18","STAUNING, DA","FM-15","EKVJ ","V020","140,1,N,0093,1","00240,1,C,N","005000,1,N,1","-0020,1","-0030,1","99999,9","07,5,+00240,1,99,9",,,"07,99,1,99,9,99,9,99999,9,99,9,99,9","10139,1,99999,9","10,1",,,,"MET065METAR EKVJ 140720Z 14018KT 5000 BR BKN008 M02/M03 Q1014 09790591;",
"06066099999","2010-01-14T07:50:00","4","55.990122","8.353906","5.18","STAUNING, DA","FM-15","EKVJ ","V020","140,1,N,0082,1","00240,1,C,N","005000,1,N,1","-0020,1","-0030,1","99999,9","07,5,+00240,1,99,9",,,"07,99,1,99,9,99,9,99999,9,99,9,99,9","10139,1,99999,9","10,1",,,,"MET065METAR EKVJ 140750Z 14016KT 5000 BR BKN008 M02/M03 Q1014 09790591;",
"06066099999","2010-01-14T08:50:00","4","55.990122","8.353906","5.18","STAUNING, DA","FM-15","EKVJ ","V020","120,1,N,0093,1","00240,1,C,N","005000,1,N,1","-0020,1","-0030,1","99999,9","07,5,+00240,1,99,9",,,"07,99,1,99,9,99,9,99999,9,99,9,99,9","10149,1,99999,9","10,1","51,1",,,"MET069METAR EKVJ 140850Z 12018KT 5000 BR -DZ BKN008 M02/M03 Q1015 09790592;",
"06066099999","2010-01-14T09:50:00","4","55.990122","8.353906","5.18","STAUNING, DA","FM-15","EKVJ ","V020","120,1,N,0093,1","00240,1,C,N","006000,1,N,1","-0020,1","-0030,1","99999,9","07,5,+00240,1,99,9",,,"07,99,1,99,9,99,9,99999,9,99,9,99,9","10159,1,99999,9","51,1",,,,"MET066METAR EKVJ 140950Z 12018KT 6000 -DZ BKN008 M02/M03 Q1016 09790592;",
"06066099999","2010-01-14T10:50:00","4","55.990122","8.353906","5.18","STAUNING, DA","FM-15","EKVJ ","V020","120,1,N,0082,1","00240,1,C,N","006000,1,N,1","-0020,1","-0030,1","99999,9","07,5,+00240,1,99,9",,,"07,99,1,99,9,99,9,99999,9,99,9,99,9","10159,1,99999,9",,,,,"MET062METAR EKVJ 141050Z 12016KT 6000 BKN008 M02/M03 Q1016 09790592;",
"06066099999","2010-01-14T11:50:00","4","55.990122","8.353906","5.18","STAUNING, DA","FM-15","EKVJ ","V020","120,1,N,0082,1","00240,1,C,N","006000,1,N,1","-0020,1","-0030,1","99999,9","07,5,+00240,1,99,9",,,"07,99,1,99,9,99,9,99999,9,99,9,99,9","10159,1,99999,9",,,,,"MET062METAR EKVJ 141150Z 12016KT 6000 BKN008 M02/M03 Q1016 09790592;",
"06066099999","2010-01-14T12:50:00","4","55.990122","8.353906","5.18","STAUNING, DA","FM-15","EKVJ ","V020","120,1,N,0082,1","00240,1,C,N","006000,1,N,1","-0020,1","-0030,1","99999,9","07,5,+00240,1,99,9",,,"07,99,1,99,9,99,9,99999,9,99,9,99,9","10149,1,99999,9",,,,,"MET062METAR EKVJ 141250Z 12016KT 6000 BKN008 M02/M03 Q1015 09790592;",
"06066099999","2010-01-14T13:50:00","4","55.990122","8.353906","5.18","STAUNING, DA","FM-15","EKVJ ","V020","110,1,N,0082,1","00240,1,C,N","006000,1,N,1","-0020,1","-0030,1","99999,9","07,5,+00240,1,99,9",,,"07,99,1,99,9,99,9,99999,9,99,9,99,9","10149,1,99999,9",,,,,"MET062METAR EKVJ 141350Z 11016KT 6000 BKN008 M02/M03 Q1015 09790592;",
"06066099999","2010-01-14T14:50:00","4","55.990122","8.353906","5.18","STAUNING, DA","FM-15","EKVJ ","V020","110,1,N,0062,1","00240,1,C,N","006000,1,N,1","-0020,1","-0030,1","99999,9","07,5,+00240,1,99,9",,,"07,99,1,99,9,99,9,99999,9,99,9,99,9","10149,1,99999,9",,,,,"MET062METAR EKVJ 141450Z 11012KT 6000 BKN008 M02/M03 Q1015 09790592;",
"06066099999","2010-01-15T07:20:00","4","55.990122","8.353906","5.18","STAUNING, DA","FM-15","EKVJ ","V020","110,1,N,0051,1","00300,1,C,N","008000,1,N,1","-0020,1","-0030,1","99999,9","07,5,+00300,1,99,9",,,"07,99,1,99,9,99,9,99999,9,99,9,99,9","10230,1,99999,9",,,,,"MET062METAR EKVJ 150720Z 11010KT 8000 BKN010 M02/M03 Q1023 09790592;",
"06066099999","2010-01-15T07:50:00","4","55.990122","8.353906","5.18","STAUNING, DA","FM-15","EKVJ ","V020","110,1,N,0051,1","00300,1,C,N","006000,1,N,1","-0020,1","-0030,1","99999,9","07,5,+00300,1,99,9",,,"07,99,1,99,9,99,9,99999,9,99,9,99,9","10230,1,99999,9",,,,,"MET062METAR EKVJ 150750Z 11010KT 6000 BKN010 M02/M03 Q1023 09790592;",
"06066099999","2010-01-15T08:50:00","4","55.990122","8.353906","5.18","STAUNING, DA","FM-15","EKVJ ","V020","110,1,N,0051,1","00300,1,C,N","006000,1,N,1","-0020,1","-0030,1","99999,9","07,5,+00300,1,99,9",,,"07,99,1,99,9,99,9,99999,9,99,9,99,9","10230,1,99999,9",,,,,"MET062METAR EKVJ 150850Z 11010KT 6000 BKN010 M02/M03 Q1023 09790592;",
"06066099999","2010-01-15T09:50:00","4","55.990122","8.353906","5.18","STAUNING, DA","FM-15","EKVJ ","V020","120,1,N,0041,1","00300,1,C,N","006000,1,N,1","-0020,1","-0030,1","99999,9","07,5,+00300,1,99,9",,,"07,99,1,99,9,99,9,99999,9,99,9,99,9","10240,1,99999,9",,,,,"MET062METAR EKVJ 150950Z 12008KT 6000 BKN010 M02/M03 Q1024 09790592;",
"06066099999","2010-01-15T10:50:00","4","55.990122","8.353906","5.18","STAUNING, DA","FM-15","EKVJ ","V020","120,1,N,0041,1","00300,1,C,N","006000,1,N,1","-0010,1","-0020,1","99999,9","07,5,+00300,1,99,9",,,"07,99,1,99,9,99,9,99999,9,99,9,99,9","10251,1,99999,9",,,,,"MET062METAR EKVJ 151050Z 12008KT 6000 BKN010 M01/M02 Q1025 09790592;",
"06066099999","2010-01-15T11:50:00","4","55.990122","8.353906","5.18","STAUNING, DA","FM-15","EKVJ ","V020","120,1,N,0041,1","00300,1,C,N","006000,1,N,1","-0010,1","-0020,1","99999,9","07,5,+00300,1,99,9",,,"07,99,1,99,9,99,9,99999,9,99,9,99,9","10251,1,99999,9",,,,,"MET062METAR EKVJ 151150Z 12008KT 6000 BKN010 M01/M02 Q1025 09790592;",
"06066099999","2010-01-15T12:50:00","4","55.990122","8.353906","5.18","STAUNING, DA","FM-15","EKVJ ","V020","120,1,N,0051,1","00300,1,C,N","006000,1,N,1","-0010,1","-0020,1","99999,9","07,5,+00300,1,99,9",,,"07,99,1,99,9,99,9,99999,9,99,9,99,9","10251,1,99999,9",,,,,"MET062METAR EKVJ 151250Z 12010KT 6000 BKN010 M01/M02 Q1025 09790592;",
"06066099999","2010-01-15T13:50:00","4","55.990122","8.353906","5.18","STAUNING, DA","FM-15","EKVJ ","V020","120,1,N,0051,1","00300,1,C,N","006000,1,N,1","-0010,1","-0020,1","99999,9","07,5,+00300,1,99,9",,,"07,99,1,99,9,99,9,99999,9,99,9,99,9","10261,1,99999,9",,,,,"MET062METAR EKVJ 151350Z 12010KT 6000 BKN010 M01/M02 Q1026 09790592;",
"06066099999","2010-01-15T14:50:00","4","55.990122","8.353906","5.18","STAUNING, DA","FM-15","EKVJ ","V020","120,1,N,0051,1","00300,1,C,N","006000,1,N,1","-0010,1","-0020,1","99999,9","07,5,+00300,1,99,9",,,"07,99,1,99,9,99,9,99999,9,99,9,99,9","10261,1,99999,9",,,,,"MET062METAR EKVJ 151450Z 12010KT 6000 BKN010 M01/M02 Q1026 09790592;",
"06066099999","2010-01-18T07:20:00","4","55.990122","8.353906","5.18","STAUNING, DA","FM-15","EKVJ ","V020","040,1,N,0015,1","00090,1,C,N","002000,1,N,1","-0030,1","-0030,1","99999,9","07,5,+00090,1,99,9",,,"07,99,1,99,9,99,9,99999,9,99,9,99,9","10220,1,99999,9","10,1",,,,"MET065METAR EKVJ 180720Z 04003KT 2000 BR BKN003 M03/M03 Q1022 09790591;",
"06066099999","2010-01-18T07:50:00","4","55.990122","8.353906","5.18","STAUNING, DA","FM-15","EKVJ ","V020","040,1,N,0015,1","00090,1,C,N","002000,1,N,1","-0030,1","-0030,1","99999,9","07,5,+00090,1,99,9",,,"07,99,1,99,9,99,9,99999,9,99,9,99,9","10220,1,99999,9","10,1",,,,"MET065METAR EKVJ 180750Z 04003KT 2000 BR BKN003 M03/M03 Q1022 09790591;",
"06066099999","2010-01-18T08:50:00","4","55.990122","8.353906","5.18","STAUNING, DA","FM-15","EKVJ ","V020","040,1,N,0015,1","00090,1,C,N","002000,1,N,1","-0030,1","-0030,1","99999,9","07,5,+00090,1,99,9",,,"07,99,1,99,9,99,9,99999,9,99,9,99,9","10220,1,99999,9","10,1",,,,"MET065METAR EKVJ 180850Z 04003KT 2000 BR BKN003 M03/M03 Q1022 09790591;",
"06066099999","2010-01-18T10:50:00","4","55.990122","8.353906","5.18","STAUNING, DA","FM-15","EKVJ ","V020","040,1,N,0015,1","00090,1,C,N","002000,1,N,1","-0020,1","-0030,1","99999,9","07,5,+00090,1,99,9",,,"07,99,1,99,9,99,9,99999,9,99,9,99,9","10220,1,99999,9","10,1",,,,"MET065METAR EKVJ 181050Z 04003KT 2000 BR BKN003 M02/M03 Q1022 09790591;",
"06066099999","2010-01-18T11:50:00","4","55.990122","8.353906","5.18","STAUNING, DA","FM-15","EKVJ ","V020","040,1,N,0015,1","22000,1,9,N","002500,1,N,1","-0020,1","-0030,1","99999,9","04,5,+02400,1,99,9",,,"04,99,1,99,9,99,9,99999,9,99,9,99,9","10220,1,99999,9","10,1",,,,"MET065METAR EKVJ 181150Z 04003KT 2500 BR SCT080 M02/M03 Q1022 09790591;",
"06066099999","2010-01-18T12:50:00","4","55.990122","8.353906","5.18","STAUNING, DA","FM-15","EKVJ ","V020","040,1,N,0015,1","22000,1,9,N","002500,1,N,1","-0020,1","-0030,1","99999,9","04,5,+02400,1,99,9",,,"04,99,1,99,9,99,9,99999,9,99,9,99,9","10220,1,99999,9","10,1",,,,"MET065METAR EKVJ 181250Z 04003KT 2500 BR SCT080 M02/M03 Q1022 09790591;",
"06066099999","2010-01-18T13:20:00","4","55.990122","8.353906","5.18","STAUNING, DA","FM-15","EKVJ ","V020","040,1,N,0015,1","22000,1,9,N","002500,1,N,1","-0020,1","-0030,1","99999,9","04,5,+02400,1,99,9",,,"04,99,1,99,9,99,9,99999,9,99,9,99,9","10220,1,99999,9","10,1",,,,"MET065METAR EKVJ 181320Z 04003KT 2500 BR SCT080 M02/M03 Q1022 09790591;",
"06066099999","2010-01-18T13:50:00","4","55.990122","8.353906","5.18","STAUNING, DA","FM-15","EKVJ ","V020","040,1,N,0015,1","22000,1,9,N","002500,1,N,1","-0020,1","-0030,1","99999,9","04,5,+02400,1,99,9",,,"04,99,1,99,9,99,9,99999,9,99,9,99,9","10220,1,99999,9","10,1",,,,"MET065METAR EKVJ 181350Z 04003KT 2500 BR SCT080 M02/M03 Q1022 09790591;",
"06066099999","2010-01-19T09:20:00","4","55.990122","8.353906","5.18","STAUNING, DA","FM-15","EKVJ ","V020","030,1,N,0015,1","00300,1,C,N","007000,1,N,1","-0010,1","-0020,1","99999,9","07,5,+00300,1,99,9",,,"07,99,1,99,9,99,9,99999,9,99,9,99,9","10251,1,99999,9",,,,,"MET062METAR EKVJ 190920Z 03003KT 7000 BKN010 M01/M02 Q1025 09790591;",
"06066099999","2010-01-19T09:50:00","4","55.990122","8.353906","5.18","STAUNING, DA","FM-15","EKVJ ","V020","030,1,N,0015,1","00300,1,C,N","011265,1,N,1","-0010,1","-0020,1","99999,9","07,5,+00300,1,99,9",,,"07,99,1,99,9,99,9,99999,9,99,9,99,9","10251,1,99999,9",,,,,"MET062METAR EKVJ 190950Z 03003KT 9999 BKN010 M01/M02 Q1025 09791092;",
"06066099999","2010-01-19T10:50:00","4","55.990122","8.353906","5.18","STAUNING, DA","FM-15","EKVJ ","V020","030,1,N,0026,1","00720,1,C,N","011265,1,N,1","-0010,1","-0020,1","99999,9","07,5,+00720,1,99,9",,,"07,99,1,99,9,99,9,99999,9,99,9,99,9","10251,1,99999,9",,,,,"MET062METAR EKVJ 191050Z 03005KT 9999 BKN024 M01/M02 Q1025 09791092;",
"06066099999","2010-01-19T11:50:00","4","55.990122","8.353906","5.18","STAUNING, DA","FM-15","EKVJ ","V020","030,1,N,0026,1","00720,1,C,N","011265,1,N,1","-0010,1","-0020,1","99999,9","07,5,+00720,1,99,9",,,"07,99,1,99,9,99,9,99999,9,99,9,99,9","10251,1,99999,9",,,,,"MET062METAR EKVJ 191150Z 03005KT 9999 BKN024 M01/M02 Q1025 09791092;",
"06066099999","2010-01-19T12:50:00","4","55.990122","8.353906","5.18","STAUNING, DA","FM-15","EKVJ ","V020","030,1,N,0026,1","00720,1,C,N","011265,1,N,1","-0010,1","-0020,1","99999,9","07,5,+00720,1,99,9",,,"07,99,1,99,9,99,9,99999,9,99,9,99,9","10251,1,99999,9",,,,,"MET062METAR EKVJ 191250Z 03005KT 9999 BKN024 M01/M02 Q1025 09791092;",
"06066099999","2010-01-19T13:50:00","4","55.990122","8.353906","5.18","STAUNING, DA","FM-15","EKVJ ","V020","030,1,N,0026,1","99999,9,C,N","011265,1,N,1","+0000,1","-0010,1","99999,9","02,5,+00600,1,99,9","04,5,+03000,1,99,9",,"04,99,1,99,9,99,9,99999,9,99,9,99,9","10251,1,99999,9",,,,,"MET068METAR EKVJ 191350Z 03005KT 9999 FEW020 SCT100 00/M01 Q1025 09791092;","P01 030003SCOCIG"
"06066099999","2010-01-19T14:50:00","4","55.990122","8.353906","5.18","STAUNING, DA","FM-15","EKVJ ","V020","030,1,N,0026,1","00600,1,C,N","011265,1,N,1","+0000,1","-0010,1","99999,9","07,5,+00600,1,99,9",,,"07,99,1,99,9,99,9,99999,9,99,9,99,9","10251,1,99999,9",,,,,"MET061METAR EKVJ 191450Z 03005KT 9999 BKN020 00/M01 Q1025 09791092;",
"06066099999","2010-01-20T07:20:00","4","55.990122","8.353906","5.18","STAUNING, DA","FM-15","EKVJ ","V020","080,1,N,0041,1","00210,1,C,N","006000,1,N,1","+0010,1","+0000,1","99999,9","07,5,+00210,1,99,9",,,"07,99,1,99,9,99,9,99999,9,99,9,99,9","10230,1,99999,9",,,,,"MET060METAR EKVJ 200720Z 08008KT 6000 BKN007 01/00 Q1023 09791092;",
"06066099999","2010-01-20T07:50:00","4","55.990122","8.353906","5.18","STAUNING, DA","FM-15","EKVJ ","V020","080,1,N,0051,1","00180,1,C,N","005000,1,N,1","+0010,1","+0000,1","99999,9","07,5,+00180,1,99,9",,,"07,99,1,99,9,99,9,99999,9,99,9,99,9","10230,1,99999,9","10,1","71,1",,,"MET067METAR EKVJ 200750Z 08010KT 5000 -SN BR BKN006 01/00 Q1023 09791092;",
"06066099999","2010-01-20T08:50:00","4","55.990122","8.353906","5.18","STAUNING, DA","FM-15","EKVJ ","V020","080,1,N,0062,1","00180,1,C,N","005000,1,N,1","+0010,1","+0000,1","99999,9","07,5,+00180,1,99,9",,,"07,99,1,99,9,99,9,99999,9,99,9,99,9","10230,1,99999,9","10,1","71,1",,,"MET067METAR EKVJ 200850Z 08012KT 5000 -SN BR BKN006 01/00 Q1023 09791092;",
"06066099999","2010-01-20T09:50:00","4","55.990122","8.353906","5.18","STAUNING, DA","FM-15","EKVJ ","V020","090,1,N,0072,1","00180,1,C,N","003000,1,N,1","+0000,1","-0010,1","99999,9","07,5,+00180,1,99,9",,,"07,99,1,99,9,99,9,99999,9,99,9,99,9","10230,1,99999,9","10,1","71,1",,,"MET068METAR EKVJ 200950Z 09014KT 3000 -SN BR BKN006 00/M01 Q1023 09791092;",
"06066099999","2010-01-20T10:50:00","4","55.990122","8.353906","5.18","STAUNING, DA","FM-15","EKVJ ","V020","090,1,N,0072,1","00180,1,C,N","004000,1,N,1","+0000,1","-0010,1","99999,9","07,5,+00180,1,99,9",,,"07,99,1,99,9,99,9,99999,9,99,9,99,9","10230,1,99999,9","10,1","71,1",,,"MET068METAR EKVJ 201050Z 09014KT 4000 -SN BR BKN006 00/M01 Q1023 09791092;",
"06066099999","2010-01-20T11:50:00","4","55.990122","8.353906","5.18","STAUNING, DA","FM-15","EKVJ ","V020","090,1,N,0082,1","00300,1,C,N","008000,1,N,1","+0000,1","-0010,1","99999,9","07,5,+00300,1,99,9",,,"07,99,1,99,9,99,9,99999,9,99,9,99,9","10230,1,99999,9",,,,,"MET061METAR EKVJ 201150Z 09016KT 8000 BKN010 00/M01 Q1023 09791092;",
"06066099999","2010-01-20T12:50:00","4","55.990122","8.353906","5.18","STAUNING, DA","FM-15","EKVJ ","V020","090,1,N,0082,1","00300,1,C,N","011265,1,N,1","+0000,1","-0010,1","99999,9","07,5,+00300,1,99,9",,,"07,99,1,99,9,99,9,99999,9,99,9,99,9","10230,1,99999,9",,,,,"MET061METAR EKVJ 201250Z 09016KT 9999 BKN010 00/M01 Q1023 09791092;",
"06066099999","2010-01-20T13:50:00","4","55.990122","8.353906","5.18","STAUNING, DA","FM-15","EKVJ ","V020","090,1,N,0082,1","00300,1,C,N","011265,1,N,1","+0000,1","-0010,1","99999,9","07,5,+00300,1,99,9",,,"07,99,1,99,9,99,9,99999,9,99,9,99,9","10230,1,99999,9",,,,,"MET061METAR EKVJ 201350Z 09016KT 9999 BKN010 00/M01 Q1023 09791092;",
"06066099999","2010-01-20T14:50:00","4","55.990122","8.353906","5.18","STAUNING, DA","FM-15","EKVJ ","V020","090,1,N,0082,1","00300,1,C,N","007000,1,N,1","+0000,1","-0010,1","99999,9","07,5,+00300,1,99,9",,,"07,99,1,99,9,99,9,99999,9,99,9,99,9","10230,1,99999,9","71,1",,,,"MET065METAR EKVJ 201450Z 09016KT 7000 -SN BKN010 00/M01 Q1023 09791092;",
"06066099999","2010-01-21T07:20:00","4","55.990122","8.353906","5.18","STAUNING, DA","FM-15","EKVJ ","V020","110,1,N,0051,1","00300,1,C,N","009000,1,N,1","-0020,1","-0030,1","99999,9","07,5,+00300,1,99,9",,,"07,99,1,99,9,99,9,99999,9,99,9,99,9","10261,1,99999,9",,,,,"MET062METAR EKVJ 210720Z 11010KT 9000 BKN010 M02/M03 Q1026 09791092;",
"06066099999","2010-01-21T07:50:00","4","55.990122","8.353906","5.18","STAUNING, DA","FM-15","EKVJ ","V020","110,1,N,0051,1","00300,1,C,N","009000,1,N,1","-0020,1","-0030,1","99999,9","07,5,+00300,1,99,9",,,"07,99,1,99,9,99,9,99999,9,99,9,99,9","10261,1,99999,9",,,,,"MET062METAR EKVJ 210750Z 11010KT 9000 BKN010 M02/M03 Q1026 09791092;",
"06066099999","2010-01-21T08:50:00","4","55.990122","8.353906","5.18","STAUNING, DA","FM-15","EKVJ ","V020","110,1,N,0062,1","00300,1,C,N","009000,1,N,1","-0020,1","-0030,1","99999,9","07,5,+00300,1,99,9",,,"07,99,1,99,9,99,9,99999,9,99,9,99,9","10261,1,99999,9",,,,,"MET062METAR EKVJ 210850Z 11012KT 9000 BKN010 M02/M03 Q1026 09791092;",
"06066099999","2010-01-21T09:50:00","4","55.990122","8.353906","5.18","STAUNING, DA","FM-15","EKVJ ","V020","100,1,N,0062,1","00300,1,C,N","009000,1,N,1","-0020,1","-0030,1","99999,9","07,5,+00300,1,99,9",,,"07,99,1,99,9,99,9,99999,9,99,9,99,9","10271,1,99999,9",,,,,"MET062METAR EKVJ 210950Z 10012KT 9000 BKN010 M02/M03 Q1027 09791092;",
"06066099999","2010-01-21T10:50:00","4","55.990122","8.353906","5.18","STAUNING, DA","FM-15","EKVJ ","V020","100,1,N,0062,1","00300,1,C,N","008000,1,N,1","-0020,1","-0030,1","99999,9","07,5,+00300,1,99,9",,,"07,99,1,99,9,99,9,99999,9,99,9,99,9","10281,1,99999,9",,,,,"MET062METAR EKVJ 211050Z 10012KT 8000 BKN010 M02/M03 Q1028 09731092;",
"06066099999","2010-01-21T11:50:00","4","55.990122","8.353906","5.18","STAUNING, DA","FM-15","EKVJ ","V020","100,1,N,0062,1","00300,1,C,N","008000,1,N,1","-0020,1","-0030,1","99999,9","07,5,+00300,1,99,9",,,"07,99,1,99,9,99,9,99999,9,99,9,99,9","10281,1,99999,9",,,,,"MET062METAR EKVJ 211150Z 10012KT 8000 BKN010 M02/M03 Q1028 09731092;",
"06066099999","2010-01-22T07:20:00","4","55.990122","8.353906","5.18","STAUNING, DA","FM-15","EKVJ ","V020","130,1,N,0041,1","99999,9,9,Y","009900,1,N,1","-0070,1","-0080,1","99999,9",,,,,"10312,1,99999,9",,,,,"MET056METAR EKVJ 220720Z 13008KT CAVOK M07/M08 Q1031 09731092;",
"06066099999","2010-01-22T07:50:00","4","55.990122","8.353906","5.18","STAUNING, DA","FM-15","EKVJ ","V020","130,1,N,0051,1","99999,9,9,Y","009900,1,N,1","-0070,1","-0080,1","99999,9",,,,,"10312,1,99999,9",,,,,"MET056METAR EKVJ 220750Z 13010KT CAVOK M07/M08 Q1031 09731092;",
"06066099999","2010-01-22T08:50:00","4","55.990122","8.353906","5.18","STAUNING, DA","FM-15","EKVJ ","V020","120,1,N,0051,1","99999,9,9,Y","009900,1,N,1","-0070,1","-0080,1","99999,9",,,,,"10318,1,99999,9",,,,,"MET056METAR EKVJ 220850Z 12010KT CAVOK M07/M08 Q1032 09731092;",
"06066099999","2010-01-22T09:50:00","4","55.990122","8.353906","5.18","STAUNING, DA","FM-15","EKVJ ","V020","120,1,N,0062,1","00450,1,C,N","011265,1,N,1","-0070,1","-0080,1","99999,9","07,5,+00450,1,99,9",,,"07,99,1,99,9,99,9,99999,9,99,9,99,9","10318,1,99999,9",,,,,"MET062METAR EKVJ 220950Z 12012KT 9999 BKN015 M07/M08 Q1032 09731092;",
"06066099999","2010-01-22T10:50:00","4","55.990122","8.353906","5.18","STAUNING, DA","FM-15","EKVJ ","V020","120,1,N,0062,1","00450,1,C,N","011265,1,N,1","-0050,1","-0060,1","99999,9","07,5,+00450,1,99,9",,,"07,99,1,99,9,99,9,99999,9,99,9,99,9","10318,1,99999,9",,,,,"MET062METAR EKVJ 221050Z 12012KT 9999 BKN015 M05/M06 Q1032 09731092;",
"06066099999","2010-01-22T11:50:00","4","55.990122","8.353906","5.18","STAUNING, DA","FM-15","EKVJ ","V020","120,1,N,0062,1","00450,1,C,N","011265,1,N,1","-0050,1","-0060,1","99999,9","07,5,+00450,1,99,9",,,"07,99,1,99,9,99,9,99999,9,99,9,99,9","10318,1,99999,9",,,,,"MET062METAR EKVJ 221150Z 12012KT 9999 BKN015 M05/M06 Q1032 09731092;",
"06066099999","2010-01-22T12:50:00","4","55.990122","8.353906","5.18","STAUNING, DA","FM-15","EKVJ ","V020","120,1,N,0062,1","22000,1,9,N","011265,1,N,1","-0050,1","-0060,1","99999,9","02,5,+00450,1,99,9",,,"02,99,1,99,9,99,9,99999,9,99,9,99,9","10312,1,99999,9",,,,,"MET062METAR EKVJ 221250Z 12012KT 9999 FEW015 M05/M06 Q1031 09731092;",
"06066099999","2010-01-22T13:50:00","4","55.990122","8.353906","5.18","STAUNING, DA","FM-15","EKVJ ","V020","120,1,N,0051,1","99999,9,9,Y","009900,1,N,1","-0050,1","-0060,1","99999,9",,,,,"10312,1,99999,9",,,,,"MET056METAR EKVJ 221350Z 12010KT CAVOK M05/M06 Q1031 09731092;",
"06066099999","2010-01-22T14:50:00","4","55.990122","8.353906","5.18","STAUNING, DA","FM-15","EKVJ ","V020","120,1,N,0051,1","99999,9,9,Y","009900,1,N,1","-0040,1","-0060,1","99999,9",,,,,"10312,1,99999,9",,,,,"MET056METAR EKVJ 221450Z 12010KT CAVOK M04/M06 Q1031 09731092;",
"06066099999","2010-01-25T07:20:00","4","55.990122","8.353906","5.18","STAUNING, DA","FM-15","EKVJ ","V020","060,1,N,0021,1","99999,9,9,Y","009900,1,N,1","-0080,1","-0100,1","99999,9",,,,,"10339,1,99999,9",,,,,"MET056METAR EKVJ 250720Z 06004KT CAVOK M08/M10 Q1034 09731092;",
"06066099999","2010-01-25T07:50:00","4","55.990122","8.353906","5.18","STAUNING, DA","FM-15","EKVJ ","V020","060,1,N,0021,1","99999,9,9,Y","009900,1,N,1","-0080,1","-0100,1","99999,9",,,,,"10339,1,99999,9",,,,,"MET056METAR EKVJ 250750Z 06004KT CAVOK M08/M10 Q1034 09731092;",
"06066099999","2010-01-25T08:50:00","4","55.990122","8.353906","5.18","STAUNING, DA","FM-15","EKVJ ","V020","060,1,N,0051,1","99999,9,9,Y","009900,1,N,1","-0070,1","-0090,1","99999,9",,,,,"10349,1,99999,9",,,,,"MET056METAR EKVJ 250850Z 06010KT CAVOK M07/M09 Q1035 09731092;",
"06066099999","2010-01-25T09:50:00","4","55.990122","8.353906","5.18","STAUNING, DA","FM-15","EKVJ ","V020","090,1,N,0062,1","99999,9,9,Y","009900,1,N,1","-0050,1","-0070,1","99999,9",,,,,"10349,1,99999,9",,,,,"MET056METAR EKVJ 250950Z 09012KT CAVOK M05/M07 Q1035 09731092;",
"06066099999","2010-01-25T10:50:00","4","55.990122","8.353906","5.18","STAUNING, DA","FM-15","EKVJ ","V020","090,1,N,0062,1","99999,9,9,Y","009900,1,N,1","-0040,1","-0060,1","99999,9",,,,,"10359,1,99999,9",,,,,"MET056METAR EKVJ 251050Z 09012KT CAVOK M04/M06 Q1036 09731092;",
"06066099999","2010-01-25T11:50:00","4","55.990122","8.353906","5.18","STAUNING, DA","FM-15","EKVJ ","V020","090,1,N,0062,1","99999,9,9,Y","009900,1,N,1","-0050,1","-0070,1","99999,9",,,,,"10369,1,99999,9",,,,,"MET056METAR EKVJ 251150Z 09012KT CAVOK M05/M07 Q1037 09731092;",
"06066099999","2010-01-25T12:50:00","4","55.990122","8.353906","5.18","STAUNING, DA","FM-15","EKVJ ","V020","090,1,N,0051,1","99999,9,9,Y","009900,1,N,1","-0040,1","-0060,1","99999,9",,,,,"10369,1,99999,9",,,,,"MET056METAR EKVJ 251250Z 09010KT CAVOK M04/M06 Q1037 09731092;",
"06066099999","2010-01-25T13:50:00","4","55.990122","8.353906","5.18","STAUNING, DA","FM-15","EKVJ ","V020","090,1,N,0051,1","99999,9,9,Y","009900,1,N,1","-0040,1","-0060,1","99999,9",,,,,"10369,1,99999,9",,,,,"MET056METAR EKVJ 251350Z 09010KT CAVOK M04/M06 Q1037 09731092;",
"06066099999","2010-01-26T06:50:00","4","55.990122","8.353906","5.18","STAUNING, DA","FM-15","EKVJ ","V020","999,9,C,0000,1","99999,9,9,Y","009900,1,N,1","-0100,1","-0100,1","99999,9",,,,,"10430,1,99999,9",,,,,"MET056METAR EKVJ 260650Z 00000KT CAVOK M10/M10 Q1043 09731092;",
"06066099999","2010-01-26T07:50:00","4","55.990122","8.353906","5.18","STAUNING, DA","FM-15","EKVJ ","V020","999,9,C,0000,1","99999,9,9,Y","009900,1,N,1","-0110,1","-0110,1","99999,9",,,,,"10440,1,99999,9",,,,,"MET056METAR EKVJ 260750Z 00000KT CAVOK M11/M11 Q1044 09731092;",
"06066099999","2010-01-26T08:50:00","4","55.990122","8.353906","5.18","STAUNING, DA","FM-15","EKVJ ","V020","999,9,C,0000,1","99999,9,9,Y","009900,1,N,1","-0100,1","-0100,1","99999,9",,,,,"10450,1,99999,9",,,,,"MET056METAR EKVJ 260850Z 00000KT CAVOK M10/M10 Q1045 09730593;",
"06066099999","2010-01-26T09:50:00","4","55.990122","8.353906","5.18","STAUNING, DA","FM-15","EKVJ ","V020","999,9,C,0000,1","99999,9,9,Y","009900,1,N,1","-0080,1","-0090,1","99999,9",,,,,"10450,1,99999,9",,,,,"MET056METAR EKVJ 260950Z 00000KT CAVOK M08/M09 Q1045 09730593;",
"06066099999","2010-01-26T10:50:00","4","55.990122","8.353906","5.18","STAUNING, DA","FM-15","EKVJ ","V020","999,9,C,0000,1","99999,9,9,Y","009900,1,N,1","-0080,1","-0090,1","99999,9",,,,,"10450,1,99999,9",,,,,"MET056METAR EKVJ 261050Z 00000KT CAVOK M08/M09 Q1045 09730593;",
"06066099999","2010-01-26T11:50:00","4","55.990122","8.353906","5.18","STAUNING, DA","FM-15","EKVJ ","V020","999,9,C,0000,1","99999,9,9,Y","009900,1,N,1","-0060,1","-0070,1","99999,9",,,,,"10450,1,99999,9",,,,,"MET056METAR EKVJ 261150Z 00000KT CAVOK M06/M07 Q1045 09730593;",
"06066099999","2010-01-26T12:50:00","4","55.990122","8.353906","5.18","STAUNING, DA","FM-15","EKVJ ","V020","999,9,C,0000,1","99999,9,9,Y","009900,1,N,1","-0050,1","-0060,1","99999,9",,,,,"10430,1,99999,9",,,,,"MET056METAR EKVJ 261250Z 00000KT CAVOK M05/M06 Q1043 09730593;",
"06066099999","2010-01-26T13:50:00","4","55.990122","8.353906","5.18","STAUNING, DA","FM-15","EKVJ ","V020","999,9,C,0000,1","99999,9,9,Y","009900,1,N,1","-0050,1","-0060,1","99999,9",,,,,"10430,1,99999,9",,,,,"MET056METAR EKVJ 261350Z 00000KT CAVOK M05/M06 Q1043 09730593;",
"06066099999","2010-01-27T07:20:00","4","55.990122","8.353906","5.18","STAUNING, DA","FM-15","EKVJ ","V020","210,1,N,0062,1","00600,1,C,N","004000,1,N,1","+0010,1","+0010,1","99999,9","07,5,+00600,1,99,9",,,"07,99,1,99,9,99,9,99999,9,99,9,99,9","10251,1,99999,9","10,1","71,1",,,"MET067METAR EKVJ 270720Z 21012KT 4000 BR -SN BKN020 01/01 Q1025 09730593;",
"06066099999","2010-01-27T07:50:00","4","55.990122","8.353906","5.18","STAUNING, DA","FM-15","EKVJ ","V020","220,1,N,0072,1","00600,1,C,N","005000,1,N,1","+0010,1","+0010,1","99999,9","07,5,+00600,1,99,9",,,"07,99,1,99,9,99,9,99999,9,99,9,99,9","10251,1,99999,9","10,1","71,1",,,"MET067METAR EKVJ 270750Z 22014KT 5000 BR -SN BKN020 01/01 Q1025 09730593;",
"06066099999","2010-01-27T08:50:00","4","55.990122","8.353906","5.18","STAUNING, DA","FM-15","EKVJ ","V020","220,1,N,0072,1","00300,1,C,N","003000,1,N,1","+0010,1","+0010,1","99999,9","07,5,+00300,1,99,9",,,"07,99,1,99,9,99,9,99999,9,99,9,99,9","10200,1,99999,9","10,1","61,1","71,1",,"MET069METAR EKVJ 270850Z 22014KT 3000 BR -RASN BKN010 01/01 Q1020 09730593;",
"06066099999","2010-01-27T09:50:00","4","55.990122","8.353906","5.18","STAUNING, DA","FM-15","EKVJ ","V020","220,1,N,0072,1","00300,1,C,N","003000,1,N,1","+0010,1","+0010,1","99999,9","07,5,+00300,1,99,9",,,"07,99,1,99,9,99,9,99999,9,99,9,99,9","10200,1,99999,9","10,1","61,1","71,1",,"MET069METAR EKVJ 270950Z 22014KT 3000 BR -RASN BKN010 01/01 Q1020 09730593;",
"06066099999","2010-01-27T10:20:00","4","55.990122","8.353906","5.18","STAUNING, DA","FM-15","EKVJ ","V020","220,1,N,0072,1","00240,1,C,N","003000,1,N,1","+0020,1","+0020,1","99999,9","07,5,+00240,1,99,9",,,"07,99,1,99,9,99,9,99999,9,99,9,99,9","10169,1,99999,9","10,1","61,1","71,1",,"MET069METAR EKVJ 271020Z 22014KT 3000 BR -RASN BKN008 02/02 Q1017 09730593;",
"06066099999","2010-01-27T10:50:00","4","55.990122","8.353906","5.18","STAUNING, DA","FM-15","EKVJ ","V020","220,1,N,0082,1","00240,1,C,N","003000,1,N,1","+0020,1","+0020,1","99999,9","07,5,+00240,1,99,9","07,5,+00300,1,99,9",,"07,99,1,99,9,99,9,99999,9,99,9,99,9","10129,1,99999,9","10,1","61,1","71,1",,"MET076METAR EKVJ 271050Z 22016KT 3000 BR -RASN BKN008 BKN010 02/02 Q1013 09730593;",
"06066099999","2010-01-27T11:20:00","4","55.990122","8.353906","5.18","STAUNING, DA","FM-15","EKVJ ","V020","220,1,N,0082,1","00240,1,C,N","003000,1,N,1","+0020,1","+0020,1","99999,9","07,5,+00240,1,99,9","07,5,+00300,1,99,9",,"07,99,1,99,9,99,9,99999,9,99,9,99,9","10119,1,99999,9","10,1","61,1","71,1",,"MET076METAR EKVJ 271120Z 22016KT 3000 BR -RASN BKN008 BKN010 02/02 Q1012 09730593;",
"06066099999","2010-01-27T11:50:00","4","55.990122","8.353906","5.18","STAUNING, DA","FM-15","EKVJ ","V020","220,1,N,0082,1","00240,1,C,N","002000,1,N,1","+0020,1","+0020,1","99999,9","07,5,+00240,1,99,9","07,5,+00300,1,99,9",,"07,99,1,99,9,99,9,99999,9,99,9,99,9","10119,1,99999,9","10,1","61,1","71,1",,"MET076METAR EKVJ 271150Z 22016KT 2000 BR -RASN BKN008 BKN010 02/02 Q1012 09730593;",
"06066099999","2010-01-27T12:50:00","4","55.990122","8.353906","5.18","STAUNING, DA","FM-15","EKVJ ","V020","240,1,N,0093,1","00120,1,C,N","001000,1,N,1","+0020,1","+0020,1","99999,9","07,5,+00120,1,99,9",,,"07,99,1,99,9,99,9,99999,9,99,9,99,9","10091,1,99999,9","10,1","61,1","71,1",,"MET069METAR EKVJ 271250Z 24018KT 1000 BR -RASN BKN004 02/02 Q1009 09730593;",
"06066099999","2010-01-27T13:20:00","4","55.990122","8.353906","5.18","STAUNING, DA","FM-15","EKVJ ","V020","240,1,N,0103,1","00120,1,C,N","002500,1,N,1","+0020,1","+0020,1","99999,9","07,5,+00120,1,99,9",,,"07,99,1,99,9,99,9,99999,9,99,9,99,9","10091,1,99999,9","10,1","61,1","71,1",,"MET069METAR EKVJ 271320Z 24020KT 2500 BR -RASN BKN004 02/02 Q1009 09730593;",
"06066099999","2010-01-27T13:50:00","4","55.990122","8.353906","5.18","STAUNING, DA","FM-15","EKVJ ","V020","240,1,N,0113,1","00120,1,C,N","002500,1,N,1","+0020,1","+0020,1","99999,9","07,5,+00120,1,99,9",,,"07,99,1,99,9,99,9,99999,9,99,9,99,9","10061,1,99999,9","10,1","51,1","61,1",,"MET069METAR EKVJ 271350Z 24022KT 2500 BR -RADZ BKN004 02/02 Q1006 09730593;",
"06066099999","2010-01-27T14:20:00","4","55.990122","8.353906","5.18","STAUNING, DA","FM-15","EKVJ ","V020","240,1,N,0113,1","00120,1,C,N","002500,1,N,1","+0020,1","+0020,1","99999,9","07,5,+00120,1,99,9",,,"07,99,1,99,9,99,9,99999,9,99,9,99,9","10061,1,99999,9","10,1","51,1","61,1",,"MET069METAR EKVJ 271420Z 24022KT 2500 BR -RADZ BKN004 02/02 Q1006 09730593;",
"06066099999","2010-01-27T14:50:00","4","55.990122","8.353906","5.18","STAUNING, DA","FM-15","EKVJ ","V020","240,1,N,0093,1","00120,1,C,N","003000,1,N,1","+0020,1","+0020,1","99999,9","07,5,+00120,1,99,9",,,"07,99,1,99,9,99,9,99999,9,99,9,99,9","10041,2,99999,9","10,1","61,1",,,"MET067METAR EKVJ 271450Z 24018KT 3000 BR -RA BKN004 02/02 Q1004 09730593;",
"06066099999","2010-01-28T07:20:00","4","55.990122","8.353906","5.18","STAUNING, DA","FM-15","EKVJ ","V020","310,1,N,0062,1","99999,9,9,Y","003000,1,N,1","+0010,1","+0000,1","99999,9",,,,,"09970,1,99999,9",,,,,"MET060METAR EKVJ 280720Z 31012KT 3000 CAVOK 01/M00 Q0997 27730592;",
"06066099999","2010-01-28T07:50:00","4","55.990122","8.353906","5.18","STAUNING, DA","FM-15","EKVJ ","V020","310,1,N,0062,1","99999,9,9,Y","009900,1,N,1","+0010,1","+0000,1","99999,9",,,,,"09970,1,99999,9",,,,,"MET055METAR EKVJ 280750Z 31012KT CAVOK 01/M00 Q0997 27730592;",
"06066099999","2010-01-28T08:50:00","4","55.990122","8.353906","5.18","STAUNING, DA","FM-15","EKVJ ","V020","320,1,N,0062,1","99999,9,9,Y","009900,1,N,1","+0020,1","+0010,1","99999,9",,,,,"09970,1,99999,9",,,,,"MET054METAR EKVJ 280850Z 32012KT CAVOK 02/01 Q0997 27730592;",
"06066099999","2010-01-28T10:20:00","4","55.990122","8.353906","5.18","STAUNING, DA","FM-15","EKVJ ","V020","320,1,N,0062,1","22000,1,9,N","011265,1,N,1","+0030,1","+0010,1","99999,9","02,5,+00600,1,99,9",,,"02,99,1,99,9,99,9,99999,9,99,9,99,9","09959,1,99999,9",,,,,"MET060METAR EKVJ 281020Z 32012KT 9999 FEW020 03/01 Q0996 27730593;",
"06066099999","2010-01-28T10:50:00","4","55.990122","8.353906","5.18","STAUNING, DA","FM-15","EKVJ ","V020","330,1,N,0062,1","22000,1,9,N","011265,1,N,1","+0030,1","+0010,1","99999,9","02,5,+00600,1,99,9",,,"02,99,1,99,9,99,9,99999,9,99,9,99,9","09959,1,99999,9",,,,,"MET060METAR EKVJ 281050Z 33012KT 9999 FEW020 03/01 Q0996 27730593;",
"06066099999","2010-01-28T11:50:00","4","55.990122","8.353906","5.18","STAUNING, DA","FM-15","EKVJ ","V020","310,1,N,0051,1","99999,9,9,Y","009900,1,N,1","+0030,1","+0010,1","99999,9",,,,,"09959,1,99999,9",,,,,"MET054METAR EKVJ 281150Z 31010KT CAVOK 03/01 Q0996 27730593;",
"06066099999","2010-01-28T12:50:00","4","55.990122","8.353906","5.18","STAUNING, DA","FM-15","EKVJ ","V020","310,1,N,0051,1","99999,9,9,Y","009900,1,N,1","+0030,1","+0010,1","99999,9",,,,,"09949,1,99999,9",,,,,"MET054METAR EKVJ 281250Z 31010KT CAVOK 03/01 Q0995 27730593;",
"06066099999","2010-01-28T13:50:00","4","55.990122","8.353906","5.18","STAUNING, DA","FM-15","EKVJ ","V020","310,1,N,0051,1","00600,1,C,N","011265,1,N,1","+0030,1","+0010,1","99999,9","07,5,+00600,1,99,9",,,"07,99,1,99,9,99,9,99999,9,99,9,99,9","09949,1,99999,9",,,,,"MET060METAR EKVJ 281350Z 31010KT 9999 BKN020 03/01 Q0995 27730593;",
"06066099999","2010-01-28T14:50:00","4","55.990122","8.353906","5.18","STAUNING, DA","FM-15","EKVJ ","V020","310,1,N,0051,1","22000,1,9,N","011265,1,N,1","+0020,1","+0010,1","99999,9","02,5,+00600,1,99,9",,,"02,99,1,99,9,99,9,99999,9,99,9,99,9","09939,1,99999,9",,,,,"MET060METAR EKVJ 281450Z 31010KT 9999 FEW020 02/01 Q0994 27730593;",
"06066099999","2010-01-29T07:20:00","4","55.990122","8.353906","5.18","STAUNING, DA","FM-15","EKVJ ","V020","999,9,C,0000,1","00120,1,9,N","000900,1,N,1","-0010,1","-0020,1","99999,9","09,1,+00120,1,99,9",,,"09,99,1,99,9,99,9,00025,1,99,9,99,9","09950,1,99999,9",,,,,"MET066METAR EKVJ 290720Z 00000KT 0900 VV004 FZFG M01/M02 Q0995 27730593;",
"06066099999","2010-01-29T07:50:00","4","55.990122","8.353906","5.18","STAUNING, DA","FM-15","EKVJ ","V020","999,9,C,0000,1","00120,1,9,N","000900,1,N,1","-0010,1","-0020,1","99999,9","09,1,+00120,1,99,9",,,"09,99,1,99,9,99,9,00025,1,99,9,99,9","09950,1,99999,9",,,,,"MET066METAR EKVJ 290750Z 00000KT 0900 VV004 FZFG M01/M02 Q0995 27491094;",
"06066099999","2010-01-29T08:20:00","4","55.990122","8.353906","5.18","STAUNING, DA","FM-15","EKVJ ","V020","999,9,C,0000,1","00120,1,9,N","000800,1,N,1","-0010,1","-0020,1","99999,9","09,1,+00120,1,99,9",,,"09,99,1,99,9,99,9,00025,1,99,9,99,9","09850,1,99999,9",,,,,"MET066METAR EKVJ 290820Z 00000KT 0800 VV004 FZFG M01/M02 Q0985 27790299;",
"06066099999","2010-01-29T08:50:00","4","55.990122","8.353906","5.18","STAUNING, DA","FM-15","EKVJ ","V020","999,9,C,0000,1","00120,1,C,N","000500,1,N,1","-0010,1","-0020,1","99999,9","07,5,+00120,1,99,9",,,"07,99,1,99,9,99,9,99999,9,99,9,99,9","09851,1,99999,9","48,1",,,,"MET067METAR EKVJ 290850Z 00000KT 0500 FZFG BKN004 M01/M02 Q0985 27790299;",
"06066099999","2010-01-29T09:20:00","4","55.990122","8.353906","5.18","STAUNING, DA","FM-15","EKVJ ","V020","999,9,C,0000,1","00120,1,C,N","000900,1,N,1","-0010,1","-0020,1","99999,9","07,5,+00120,1,99,9",,,"07,99,1,99,9,99,9,99999,9,99,9,99,9","09851,1,99999,9","48,1",,,,"MET067METAR EKVJ 290920Z 00000KT 0900 FZFG BKN004 M01/M02 Q0985 27790299;",
"06066099999","2010-01-29T09:50:00","4","55.990122","8.353906","5.18","STAUNING, DA","FM-15","EKVJ ","V020","999,9,C,0000,1","00120,1,C,N","000500,1,N,1","-0010,1","-0020,1","99999,9","07,5,+00120,1,99,9",,,"07,99,1,99,9,99,9,99999,9,99,9,99,9","09851,1,99999,9","48,1",,,,"MET067METAR EKVJ 290950Z 00000KT 0500 FZFG BKN004 M01/M02 Q0985 27790299;",
"06066099999","2010-01-29T10:50:00","4","55.990122","8.353906","5.18","STAUNING, DA","FM-15","EKVJ ","V020","999,9,C,0000,1","00120,1,C,N","000400,1,N,1","-0010,1","-0020,1","99999,9","07,5,+00120,1,99,9",,,"07,99,1,99,9,99,9,99999,9,99,9,99,9","09851,1,99999,9","48,1",,,,"MET067METAR EKVJ 291050Z 00000KT 0400 FZFG BKN004 M01/M02 Q0985 27790299;",
"06066099999","2010-01-29T11:20:00","4","55.990122","8.353906","5.18","STAUNING, DA","FM-15","EKVJ ","V020","999,9,C,0000,1","00120,1,C,N","000400,1,N,1","-0010,1","-0020,1","99999,9","07,5,+00120,1,99,9",,,"07,99,1,99,9,99,9,99999,9,99,9,99,9","09851,1,99999,9","48,1",,,,"MET067METAR EKVJ 291120Z 00000KT 0400 FZFG BKN004 M01/M02 Q0985 27790299;",
"06066099999","2010-01-29T12:50:00","4","55.990122","8.353906","5.18","STAUNING, DA","FM-15","EKVJ ","V020","999,9,C,0000,1","00120,1,C,N","000400,1,N,1","-0010,1","-0020,1","99999,9","07,5,+00120,1,99,9",,,"07,99,1,99,9,99,9,99999,9,99,9,99,9","09831,1,99999,9","48,1",,,,"MET067METAR EKVJ 291250Z 00000KT 0400 FZFG BKN004 M01/M02 Q0983 27790299;",
"06066099999","2010-01-29T14:50:00","4","55.990122","8.353906","5.18","STAUNING, DA","FM-15","EKVJ ","V020","999,9,C,0000,1","22000,1,9,N","000400,1,N,1","-0010,1","-0020,1","99999,9",,,,"00,99,1,99,9,99,9,99999,9,99,9,99,9","09831,1,99999,9","48,1",,,,"MET064METAR EKVJ 291450Z 00000KT 0400 FZFG SKC M01/M02 Q0983 27790299;","Q01    003SCCGA1"
"06066099999","2010-02-01T07:20:00","4","55.990122","8.353906","5.18","STAUNING, DA","FM-15","EKVJ ","V020","010,1,N,0031,1","00300,1,C,N","011265,1,N,1","-0040,1","-0050,1","99999,9","07,5,+00300,1,99,9",,,"07,99,1,99,9,99,9,99999,9,99,9,99,9","10031,1,99999,9",,,,,"MET063METAR EKVJ 010720Z 01006KT 9999 BKN010 M04/M05 Q1003 274920992;",
"06066099999","2010-02-01T07:50:00","4","55.990122","8.353906","5.18","STAUNING, DA","FM-15","EKVJ ","V020","010,1,N,0031,1","00300,1,C,N","011265,1,N,1","-0040,1","-0050,1","99999,9","07,5,+00300,1,99,9",,,"07,99,1,99,9,99,9,99999,9,99,9,99,9","10031,1,99999,9",,,,,"MET062METAR EKVJ 010750Z 01006KT 9999 BKN010 M04/M05 Q1003 27492092;",
"06066099999","2010-02-01T08:50:00","4","55.990122","8.353906","5.18","STAUNING, DA","FM-15","EKVJ ","V020","020,1,N,0031,1","00300,1,C,N","011265,1,N,1","-0040,1","-0050,1","99999,9","07,5,+00300,1,99,9",,,"07,99,1,99,9,99,9,99999,9,99,9,99,9","10041,1,99999,9",,,,,"MET062METAR EKVJ 010850Z 02006KT 9999 BKN010 M04/M05 Q1004 27492092;",
"06066099999","2010-02-01T09:50:00","4","55.990122","8.353906","5.18","STAUNING, DA","FM-15","EKVJ ","V020","020,1,N,0031,1","00300,1,C,N","011265,1,N,1","-0040,1","-0050,1","99999,9","07,5,+00300,1,99,9",,,"07,99,1,99,9,99,9,99999,9,99,9,99,9","10051,1,99999,9",,,,,"MET062METAR EKVJ 010950Z 02006KT 9999 BKN010 M04/M05 Q1005 27492092;",
"06066099999","2010-02-01T10:50:00","4","55.990122","8.353906","5.18","STAUNING, DA","FM-15","EKVJ ","V020","020,1,N,0041,1","00300,1,C,N","008000,1,N,1","-0040,1","-0050,1","99999,9","07,5,+00300,1,99,9",,,"07,99,1,99,9,99,9,99999,9,99,9,99,9","10051,1,99999,9","77,1",,,,"MET066METAR EKVJ 011050Z 02008KT 8000 -SG BKN010 M04/M05 Q1005 27492092;",
"06066099999","2010-02-01T11:50:00","4","55.990122","8.353906","5.18","STAUNING, DA","FM-15","EKVJ ","V020","020,1,N,0041,1","22000,1,9,N","011265,1,N,1","-0040,1","-0060,1","99999,9","02,5,+00600,1,99,9",,,"02,99,1,99,9,99,9,99999,9,99,9,99,9","10051,1,99999,9",,,,,"MET062METAR EKVJ 011150Z 02008KT 9999 FEW020 M04/M06 Q1005 27492092;",
"06066099999","2010-02-01T12:50:00","4","55.990122","8.353906","5.18","STAUNING, DA","FM-15","EKVJ ","V020","010,1,N,0041,1","22000,1,9,N","011265,1,N,1","-0030,1","-0050,1","99999,9","02,5,+00600,1,99,9",,,"02,99,1,99,9,99,9,99999,9,99,9,99,9","10061,1,99999,9",,,,,"MET062METAR EKVJ 011250Z 01008KT 9999 FEW020 M03/M05 Q1006 27492092;",
"06066099999","2010-02-01T13:50:00","4","55.990122","8.353906","5.18","STAUNING, DA","FM-15","EKVJ ","V020","360,1,N,0031,1","99999,9,9,Y","009900,1,N,1","-0030,1","-0050,1","99999,9",,,,,"10071,1,99999,9",,,,,"MET056METAR EKVJ 011350Z 36006KT CAVOK M03/M05 Q1007 27492092;",
"06066099999","2010-02-01T14:50:00","4","55.990122","8.353906","5.18","STAUNING, DA","FM-15","EKVJ ","V020","350,1,N,0021,1","99999,9,9,Y","009900,1,N,1","-0030,1","-0050,1","99999,9",,,,,"10081,1,99999,9",,,,,"MET056METAR EKVJ 011450Z 35004KT CAVOK M03/M05 Q1008 27492092;",
"06066099999","2010-02-02T07:20:00","4","55.990122","8.353906","5.18","STAUNING, DA","FM-15","EKVJ ","V020","190,1,N,0072,1","00150,1,C,N","004000,1,N,1","+0010,1","+0010,1","99999,9","07,5,+00150,1,99,9",,,"07,99,1,99,9,99,9,99999,9,99,9,99,9","09970,1,99999,9","61,1","71,1",,,"MET066METAR EKVJ 020720Z 19014KT 4000 -RASN BKN005 01/01 Q0997 27592092;",
"06066099999","2010-02-02T07:50:00","4","55.990122","8.353906","5.18","STAUNING, DA","FM-15","EKVJ ","V020","190,1,N,0082,1","00150,1,C,N","003000,1,N,1","+0010,1","+0010,1","99999,9","07,5,+00150,1,99,9",,,"07,99,1,99,9,99,9,99999,9,99,9,99,9","09970,1,99999,9","61,1","71,1",,,"MET066METAR EKVJ 020750Z 19016KT 3000 -RASN BKN005 01/01 Q0997 27592092;",
"06066099999","2010-02-02T08:50:00","4","55.990122","8.353906","5.18","STAUNING, DA","FM-15","EKVJ ","V020","190,1,N,0103,1","00120,1,C,N","003000,1,N,1","+0010,1","+0010,1","99999,9","07,5,+00120,1,99,9",,,"07,99,1,99,9,99,9,99999,9,99,9,99,9","09949,1,99999,9","71,1",,,,"MET064METAR EKVJ 020850Z 19020KT 3000 -SN BKN004 01/01 Q0995 27592092;",
"06066099999","2010-02-02T10:50:00","4","55.990122","8.353906","5.18","STAUNING, DA","FM-15","EKVJ ","V020","190,1,N,0103,1","00120,1,C,N","002500,1,N,1","+0000,1","+0000,1","99999,9","07,5,+00120,1,99,9",,,"07,99,1,99,9,99,9,99999,9,99,9,99,9","09919,1,99999,9","71,1",,,,"MET065METAR EKVJ 021050Z 19020KT 2500 -SN BKN004 00/M00 Q0992 27592092;",
"06066099999","2010-02-02T14:20:00","4","55.990122","8.353906","5.18","STAUNING, DA","FM-15","EKVJ ","V020","220,1,N,0051,1","22000,1,9,N","011265,1,N,1","+0020,1","+0020,1","99999,9","04,5,+00600,1,99,9",,,"04,99,1,99,9,99,9,99999,9,99,9,99,9","09892,1,99999,9",,,,,"MET060METAR EKVJ 021420Z 22010KT 9999 SCT020 02/02 Q0989 27720294;",
"06066099999","2010-02-02T14:50:00","4","55.990122","8.353906","5.18","STAUNING, DA","FM-15","EKVJ ","V020","220,1,N,0051,1","22000,1,9,N","011265,1,N,1","+0020,1","+0020,1","99999,9","04,5,+00600,1,99,9",,,"04,99,1,99,9,99,9,99999,9,99,9,99,9","09892,1,99999,9",,,,,"MET060METAR EKVJ 021450Z 22010KT 9999 SCT020 02/02 Q0989 27720294;",
"06066099999","2010-02-03T07:20:00","4","55.990122","8.353906","5.18","STAUNING, DA","FM-15","EKVJ ","V020","310,1,N,0031,1","00600,1,C,N","011265,1,N,1","-0030,1","-0040,1","99999,9","02,5,+00300,1,99,9","07,5,+00600,1,99,9",,"07,99,1,99,9,99,9,99999,9,99,9,99,9","09959,1,99999,9",,,,,"MET069METAR EKVJ 030720Z 31006KT 9999 FEW010 BKN020 M03/M04 Q0996 27720294;",
"06066099999","2010-02-03T07:50:00","4","55.990122","8.353906","5.18","STAUNING, DA","FM-15","EKVJ ","V020","310,1,N,0031,1","00600,1,C,N","011265,1,N,1","-0030,1","-0040,1","99999,9","02,5,+00300,1,99,9","07,5,+00600,1,99,9",,"07,99,1,99,9,99,9,99999,9,99,9,99,9","09959,1,99999,9",,,,,"MET069METAR EKVJ 030750Z 31006KT 9999 FEW010 BKN020 M03/M04 Q0996 27720294;",
"06066099999","2010-02-03T08:50:00","4","55.990122","8.353906","5.18","STAUNING, DA","FM-15","EKVJ ","V020","310,1,N,0031,1","00600,1,C,N","011265,1,N,1","-0020,1","-0030,1","99999,9","07,5,+00600,1,99,9",,,"07,99,1,99,9,99,9,99999,9,99,9,99,9","09959,1,99999,9",,,,,"MET062METAR EKVJ 030850Z 31006KT 9999 BKN020 M02/M03 Q0996 27720294;",
"06066099999","2010-02-03T09:50:00","4","55.990122","8.353906","5.18","STAUNING, DA","FM-15","EKVJ ","V020","310,1,N,0021,1","00750,1,C,N","011265,1,N,1","-0010,1","-0020,1","99999,9","07,5,+00750,1,99,9",,,"07,99,1,99,9,99,9,99999,9,99,9,99,9","09959,1,99999,9",,,,,"MET062METAR EKVJ 030950Z 31004KT 9999 BKN025 M01/M02 Q0996 27720294;",
"06066099999","2010-02-03T10:50:00","4","55.990122","8.353906","5.18","STAUNING, DA","FM-15","EKVJ ","V020","320,1,N,0031,1","00750,1,C,N","011265,1,N,1","+0000,1","+0000,1","99999,9","07,5,+00750,1,99,9",,,"07,99,1,99,9,99,9,99999,9,99,9,99,9","09980,1,99999,9",,,,,"MET061METAR EKVJ 031050Z 32006KT 9999 BKN025 00/M00 Q0998 27720294;",
"06066099999","2010-02-03T11:50:00","4","55.990122","8.353906","5.18","STAUNING, DA","FM-15","EKVJ ","V020","320,1,N,0041,1","00600,1,C,N","011265,1,N,1","+0000,1","+0000,1","99999,9","07,5,+00600,1,99,9",,,"07,99,1,99,9,99,9,99999,9,99,9,99,9","09990,1,99999,9",,,,,"MET061METAR EKVJ 031150Z 32008KT 9999 BKN020 00/M00 Q0999 27720294;",
"06066099999","2010-02-03T12:50:00","4","55.990122","8.353906","5.18","STAUNING, DA","FM-15","EKVJ ","V020","320,1,N,0051,1","00600,1,C,N","011265,1,N,1","+0000,1","-0020,1","99999,9","07,5,+00600,1,99,9",,,"07,99,1,99,9,99,9,99999,9,99,9,99,9","10000,1,99999,9",,,,,"MET061METAR EKVJ 031250Z 32010KT 9999 BKN020 00/M02 Q1000 27720294;",
"06066099999","2010-02-03T13:50:00","4","55.990122","8.353906","5.18","STAUNING, DA","FM-15","EKVJ ","V020","320,1,N,0051,1","22000,1,9,N","011265,1,N,1","+0000,1","-0020,1","99999,9","02,5,+00600,1,99,9",,,"02,99,1,99,9,99,9,99999,9,99,9,99,9","10010,1,99999,9",,,,,"MET061METAR EKVJ 031350Z 32010KT 9999 FEW020 00/M02 Q1001 27720294;",
"06066099999","2010-02-03T14:50:00","4","55.990122","8.353906","5.18","STAUNING, DA","FM-15","EKVJ ","V020","320,1,N,0051,1","22000,1,9,N","011265,1,N,1","+0000,1","-0020,1","99999,9","02,5,+00600,1,99,9",,,"02,99,1,99,9,99,9,99999,9,99,9,99,9","10010,1,99999,9",,,,,"MET061METAR EKVJ 031450Z 32010KT 9999 FEW020 00/M02 Q1001 27720294;",
"06066099999","2010-02-04T07:20:00","4","55.990122","8.353906","5.18","STAUNING, DA","FM-15","EKVJ ","V020","120,1,N,0041,1","00600,1,C,N","005000,1,N,1","-0030,1","-0030,1","99999,9","02,5,+00300,1,99,9","07,5,+00600,1,99,9",,"07,99,1,99,9,99,9,99999,9,99,9,99,9","10119,1,99999,9","10,1",,,,"MET072METAR EKVJ 040720Z 12008KT 5000 BR FEW010 BKN020 M03/M03 Q1012 09720294;",
"06066099999","2010-02-04T07:50:00","4","55.990122","8.353906","5.18","STAUNING, DA","FM-15","EKVJ ","V020","120,1,N,0031,1","00600,1,C,N","007000,1,N,1","-0030,1","-0030,1","99999,9","02,5,+00300,1,99,9","07,5,+00600,1,99,9",,"07,99,1,99,9,99,9,99999,9,99,9,99,9","10119,1,99999,9",,,,,"MET069METAR EKVJ 040750Z 12006KT 7000 FEW010 BKN020 M03/M03 Q1012 09720294;",
"06066099999","2010-02-04T08:20:00","4","55.990122","8.353906","5.18","STAUNING, DA","FM-15","EKVJ ","V020","120,1,N,0031,1","00180,1,C,N","002500,1,N,1","-0030,1","-0030,1","99999,9","07,5,+00180,1,99,9",,,"07,99,1,99,9,99,9,99999,9,99,9,99,9","10119,1,99999,9","10,1",,,,"MET065METAR EKVJ 040820Z 12006KT 2500 BR BKN006 M03/M03 Q1012 09720294;",
"06066099999","2010-02-04T08:50:00","4","55.990122","8.353906","5.18","STAUNING, DA","FM-15","EKVJ ","V020","110,1,N,0031,1","00060,1,9,N","000500,1,N,1","-0020,1","-0020,1","99999,9","09,1,+00060,1,99,9",,,"09,99,1,99,9,99,9,00025,1,99,9,99,9","10119,1,99999,9","10,1",,,,"MET064METAR EKVJ 040850Z 11006KT 0500 BR VV002 M02/M02 Q1012 09720294;",
"06066099999","2010-02-04T09:20:00","4","55.990122","8.353906","5.18","STAUNING, DA","FM-15","EKVJ ","V020","110,1,N,0031,1","00060,1,9,N","000500,1,N,1","-0020,1","-0020,1","99999,9","09,1,+00060,1,99,9",,,"09,99,1,99,9,99,9,00025,1,99,9,99,9","10129,1,99999,9","10,1",,,,"MET064METAR EKVJ 040920Z 11006KT 0500 BR VV002 M02/M02 Q1013 09720294;",
"06066099999","2010-02-04T09:50:00","4","55.990122","8.353906","5.18","STAUNING, DA","FM-15","EKVJ ","V020","120,1,N,0041,1","00060,1,9,N","000700,1,N,1","-0020,1","-0020,1","99999,9","09,1,+00060,1,99,9",,,"09,99,1,99,9,99,9,00025,1,99,9,99,9","10129,1,99999,9","49,1",,,,"MET066METAR EKVJ 040950Z 12008KT 0700 FZFG VV002 M02/M02 Q1013 09720294;",
"06066099999","2010-02-04T10:20:00","4","55.990122","8.353906","5.18","STAUNING, DA","FM-15","EKVJ ","V020","120,1,N,0041,1","00060,1,9,N","000700,1,N,1","-0010,1","-0010,1","99999,9","09,1,+00060,1,99,9",,,"09,99,1,99,9,99,9,00025,1,99,9,99,9","10129,1,99999,9","49,1",,,,"MET066METAR EKVJ 041020Z 12008KT 0700 FZFG VV002 M01/M01 Q1013 09720294;",
"06066099999","2010-02-04T10:50:00","4","55.990122","8.353906","5.18","STAUNING, DA","FM-15","EKVJ ","V020","120,1,N,0041,1","00060,1,9,N","000700,1,N,1","-0010,1","-0010,1","99999,9","09,1,+00060,1,99,9",,,"09,99,1,99,9,99,9,00025,1,99,9,99,9","10129,1,99999,9","49,1",,,,"MET066METAR EKVJ 041050Z 12008KT 0700 FZFG VV002 M01/M01 Q1013 09720294;",
"06066099999","2010-02-04T11:20:00","4","55.990122","8.353906","5.18","STAUNING, DA","FM-15","EKVJ ","V020","120,1,N,0041,1","00120,1,C,N","001500,1,N,1","+0000,1","+0000,1","99999,9","07,5,+00120,1,99,9",,,"07,99,1,99,9,99,9,99999,9,99,9,99,9","10129,1,99999,9","10,1",,,,"MET064METAR EKVJ 041120Z 12008KT 1500 BR BKN004 00/M00 Q1013 09720294;",
"06066099999","2010-02-04T11:50:00","4","55.990122","8.353906","5.18","STAUNING, DA","FM-15","EKVJ ","V020","120,1,N,0041,1","00120,1,C,N","002500,1,N,1","+0000,1","+0000,1","99999,9","07,5,+00120,1,99,9",,,"07,99,1,99,9,99,9,99999,9,99,9,99,9","10129,1,99999,9","10,1",,,,"MET064METAR EKVJ 041150Z 12008KT 2500 BR BKN004 00/M00 Q1013 09720294;",
"06066099999","2010-02-04T12:20:00","4","55.990122","8.353906","5.18","STAUNING, DA","FM-15","EKVJ ","V020","120,1,N,0041,1","00150,1,C,N","002500,1,N,1","+0000,1","+0000,1","99999,9","07,5,+00150,1,99,9",,,"07,99,1,99,9,99,9,99999,9,99,9,99,9","10129,1,99999,9","10,1",,,,"MET064METAR EKVJ 041220Z 12008KT 2500 BR BKN005 00/M00 Q1013 09720294;",
"06066099999","2010-02-04T12:50:00","4","55.990122","8.353906","5.18","STAUNING, DA","FM-15","EKVJ ","V020","120,1,N,0041,1","00150,1,C,N","003000,1,N,1","+0000,1","+0000,1","99999,9","07,5,+00150,1,99,9",,,"07,99,1,99,9,99,9,99999,9,99,9,99,9","10129,1,99999,9","10,1",,,,"MET064METAR EKVJ 041250Z 12008KT 3000 BR BKN005 00/M00 Q1013 09720294;",
"06066099999","2010-02-04T13:20:00","4","55.990122","8.353906","5.18","STAUNING, DA","FM-15","EKVJ ","V020","120,1,N,0041,1","00120,1,C,N","002500,1,N,1","+0000,1","+0000,1","99999,9","07,5,+00120,1,99,9",,,"07,99,1,99,9,99,9,99999,9,99,9,99,9","10129,1,99999,9","10,1",,,,"MET064METAR EKVJ 041320Z 12008KT 2500 BR BKN004 00/M00 Q1013 09720294;",
"06066099999","2010-02-04T13:50:00","4","55.990122","8.353906","5.18","STAUNING, DA","FM-15","EKVJ ","V020","110,1,N,0051,1","00120,1,C,N","001500,1,N,1","+0000,1","+0000,1","99999,9","07,5,+00120,1,99,9",,,"07,99,1,99,9,99,9,99999,9,99,9,99,9","10129,1,99999,9","10,1",,,,"MET064METAR EKVJ 041350Z 11010KT 1500 BR BKN004 00/M00 Q1013 09720294;",
"06066099999","2010-02-04T14:20:00","4","55.990122","8.353906","5.18","STAUNING, DA","FM-15","EKVJ ","V020","110,1,N,0051,1","00120,1,C,N","001500,1,N,1","+0000,1","+0000,1","99999,9","07,5,+00120,1,99,9",,,"07,99,1,99,9,99,9,99999,9,99,9,99,9","10129,1,99999,9","10,1",,,,"MET064METAR EKVJ 041420Z 11010KT 1500 BR BKN004 00/M00 Q1013 09720294;",
"06066099999","2010-02-04T14:50:00","4","55.990122","8.353906","5.18","STAUNING, DA","FM-15","EKVJ ","V020","110,1,N,0051,1","00120,1,C,N","001500,1,N,1","+0000,1","+0000,1","99999,9","07,5,+00120,1,99,9",,,"07,99,1,99,9,99,9,99999,9,99,9,99,9","10129,1,99999,9","10,1",,,,"MET064METAR EKVJ 041450Z 11010KT 1500 BR BKN004 00/M00 Q1013 09720294;",
"06066099999","2010-02-05T07:20:00","4","55.990122","8.353906","5.18","STAUNING, DA","FM-15","EKVJ ","V020","110,1,N,0082,1","00120,1,C,N","002500,1,N,1","+0000,1","+0000,1","99999,9","07,5,+00120,1,99,9",,,"07,99,1,99,9,99,9,99999,9,99,9,99,9","10139,1,99999,9","10,1",,,,"MET064METAR EKVJ 050720Z 11016KT 2500 BR BKN004 00/M00 Q1014 09720195;",
"06066099999","2010-02-05T07:50:00","4","55.990122","8.353906","5.18","STAUNING, DA","FM-15","EKVJ ","V020","110,1,N,0082,1","00120,1,C,N","002500,1,N,1","+0000,1","+0000,1","99999,9","07,5,+00120,1,99,9",,,"07,99,1,99,9,99,9,99999,9,99,9,99,9","10139,1,99999,9","10,1",,,,"MET064METAR EKVJ 050750Z 11016KT 2500 BR BKN004 00/M00 Q1014 09720195;",
"06066099999","2010-02-05T08:50:00","4","55.990122","8.353906","5.18","STAUNING, DA","FM-15","EKVJ ","V020","110,1,N,0072,1","00120,1,C,N","002500,1,N,1","+0010,1","+0010,1","99999,9","07,5,+00120,1,99,9",,,"07,99,1,99,9,99,9,99999,9,99,9,99,9","10139,1,99999,9","10,1",,,,"MET063METAR EKVJ 050850Z 11014KT 2500 BR BKN004 01/01 Q1014 09720195;",
"06066099999","2010-02-05T09:50:00","4","55.990122","8.353906","5.18","STAUNING, DA","FM-15","EKVJ ","V020","110,1,N,0082,1","00180,1,C,N","005000,1,N,1","+0010,1","+0010,1","99999,9","07,5,+00180,1,99,9",,,"07,99,1,99,9,99,9,99999,9,99,9,99,9","10129,1,99999,9",,,,,"MET060METAR EKVJ 050950Z 11016KT 5000 BKN006 01/01 Q1013 09720195;",
"06066099999","2010-02-05T10:50:00","4","55.990122","8.353906","5.18","STAUNING, DA","FM-15","EKVJ ","V020","110,1,N,0082,1","00240,1,C,N","006000,1,N,1","+0010,1","+0010,1","99999,9","07,5,+00240,1,99,9",,,"07,99,1,99,9,99,9,99999,9,99,9,99,9","10129,1,99999,9",,,,,"MET060METAR EKVJ 051050Z 11016KT 6000 BKN008 01/01 Q1013 09720195;",
"06066099999","2010-02-05T11:50:00","4","55.990122","8.353906","5.18","STAUNING, DA","FM-15","EKVJ ","V020","110,1,N,0082,1","00240,1,C,N","006000,1,N,1","+0010,1","+0010,1","99999,9","07,5,+00240,1,99,9",,,"07,99,1,99,9,99,9,99999,9,99,9,99,9","10129,1,99999,9",,,,,"MET060METAR EKVJ 051150Z 11016KT 6000 BKN008 01/01 Q1013 09720195;",
"06066099999","2010-02-05T13:50:00","4","55.990122","8.353906","5.18","STAUNING, DA","FM-15","EKVJ ","V020","110,1,N,0123,1","00300,1,C,N","011265,1,N,1","+0010,1","+0010,1","99999,9","07,5,+00300,1,99,9",,,"07,99,1,99,9,99,9,99999,9,99,9,99,9","10102,1,99999,9",,,,,"MET060METAR EKVJ 051350Z 11024KT 9999 BKN010 01/01 Q1010 09720195;",
"06066099999","2010-02-06T10:50:00","4","55.990122","8.353906","5.18","STAUNING, DA","FM-15","EKVJ ","V020","090,1,N,0082,1","00600,1,C,N","006000,1,N,1","+0010,1","-0010,1","99999,9","02,5,+00450,1,99,9","07,5,+00600,1,99,9",,"07,99,1,99,9,99,9,99999,9,99,9,99,9","10190,1,99999,9",,,,,"MET068METAR EKVJ 061050Z 09016KT 6000 FEW015 BKN020 01/M01 Q1019 09720195;",
"06066099999","2010-02-08T07:50:00","4","55.990122","8.353906","5.18","STAUNING, DA","FM-15","EKVJ ","V020","080,1,N,0051,1","00300,1,C,N","008000,1,N,1","-0040,1","-0050,1","99999,9","07,5,+00300,1,99,9",,,"07,99,1,99,9,99,9,99999,9,99,9,99,9","10200,1,99999,9",,,,,"MET062METAR EKVJ 080750Z 08010KT 8000 BKN010 M04/M05 Q1020 09720195;",
"06066099999","2010-02-08T08:50:00","4","55.990122","8.353906","5.18","STAUNING, DA","FM-15","EKVJ ","V020","080,1,N,0041,1","00300,1,C,N","008000,1,N,1","-0040,1","-0050,1","99999,9","07,5,+00300,1,99,9",,,"07,99,1,99,9,99,9,99999,9,99,9,99,9","10200,1,99999,9",,,,,"MET062METAR EKVJ 080850Z 08008KT 8000 BKN010 M04/M05 Q1020 09720195;",
"06066099999","2010-02-08T09:50:00","4","55.990122","8.353906","5.18","STAUNING, DA","FM-15","EKVJ ","V020","140,1,N,0041,1","00300,1,C,N","008000,1,N,1","-0040,1","-0050,1","99999,9","07,5,+00300,1,99,9",,,"07,99,1,99,9,99,9,99999,9,99,9,99,9","10200,1,99999,9",,,,,"MET062METAR EKVJ 080950Z 14008KT 8000 BKN010 M04/M05 Q1020 09720195;",
"06066099999","2010-02-08T10:50:00","4","55.990122","8.353906","5.18","STAUNING, DA","FM-15","EKVJ ","V020","170,1,N,0031,1","00300,1,C,N","008000,1,N,1","-0040,1","-0050,1","99999,9","07,5,+00300,1,99,9",,,"07,99,1,99,9,99,9,99999,9,99,9,99,9","10200,1,99999,9",,,,,"MET062METAR EKVJ 081050Z 17006KT 8000 BKN010 M04/M05 Q1020 09720195;",
"06066099999","2010-02-08T11:50:00","4","55.990122","8.353906","5.18","STAUNING, DA","FM-15","EKVJ ","V020","180,1,N,0031,1","00300,1,C,N","008000,1,N,1","-0040,1","-0050,1","99999,9","07,5,+00300,1,99,9",,,"07,99,1,99,9,99,9,99999,9,99,9,99,9","10200,1,99999,9",,,,,"MET062METAR EKVJ 081150Z 18006KT 8000 BKN010 M04/M05 Q1020 09720195;",
"06066099999","2010-02-08T12:50:00","4","55.990122","8.353906","5.18","STAUNING, DA","FM-15","EKVJ ","V020","190,1,N,0015,1","00300,1,C,N","008000,1,N,1","-0040,1","-0050,1","99999,9","07,5,+00300,1,99,9",,,"07,99,1,99,9,99,9,99999,9,99,9,99,9","10180,1,99999,9",,,,,"MET062METAR EKVJ 081250Z 19003KT 8000 BKN010 M04/M05 Q1018 09720195;",
"06066099999","2010-02-08T14:50:00","4","55.990122","8.353906","5.18","STAUNING, DA","FM-15","EKVJ ","V020","999,9,C,0000,1","00300,1,C,N","008000,1,N,1","-0040,1","-0050,1","99999,9","07,5,+00300,1,99,9",,,"07,99,1,99,9,99,9,99999,9,99,9,99,9","10169,1,99999,9",,,,,"MET062METAR EKVJ 081450Z 00000KT 8000 BKN010 M04/M05 Q1017 09720195;",
"06066099999","2010-02-09T07:20:00","4","55.990122","8.353906","5.18","STAUNING, DA","FM-15","EKVJ ","V020","090,1,N,0015,1","00780,1,C,N","006000,1,N,1","-0050,1","-0060,1","99999,9","07,5,+00780,1,99,9",,,"07,99,1,99,9,99,9,99999,9,99,9,99,9","10108,1,99999,9","71,1",,,,"MET066METAR EKVJ 090720Z 09003KT 6000 -SN BKN026 M05/M06 Q1011 09491095;",
"06066099999","2010-02-09T07:50:00","4","55.990122","8.353906","5.18","STAUNING, DA","FM-15","EKVJ ","V020","090,1,N,0015,1","00780,1,C,N","011265,1,N,1","-0050,1","-0060,1","99999,9","07,5,+00780,1,99,9",,,"07,99,1,99,9,99,9,99999,9,99,9,99,9","10108,1,99999,9","71,1",,,,"MET066METAR EKVJ 090750Z 09003KT 9999 -SN BKN026 M05/M06 Q1011 09491095;",
"06066099999","2010-02-09T08:50:00","4","55.990122","8.353906","5.18","STAUNING, DA","FM-15","EKVJ ","V020","090,1,N,0015,1","00780,1,C,N","007000,1,N,1","-0050,1","-0060,1","99999,9","07,5,+00780,1,99,9",,,"07,99,1,99,9,99,9,99999,9,99,9,99,9","10108,1,99999,9","71,1",,,,"MET066METAR EKVJ 090850Z 09003KT 7000 -SN BKN026 M05/M06 Q1011 09491095;",
"06066099999","2010-02-09T09:50:00","4","55.990122","8.353906","5.18","STAUNING, DA","FM-15","EKVJ ","V020","090,1,N,0015,1","00780,1,C,N","011265,1,N,1","-0050,1","-0060,1","99999,9","07,5,+00780,1,99,9",,,"07,99,1,99,9,99,9,99999,9,99,9,99,9","10108,1,99999,9",,,,,"MET062METAR EKVJ 090950Z 09003KT 9999 BKN026 M05/M06 Q1011 09491095;",
"06066099999","2010-02-09T10:50:00","4","55.990122","8.353906","5.18","STAUNING, DA","FM-15","EKVJ ","V020","150,1,N,0015,1","00780,1,C,N","011265,1,N,1","-0050,1","-0060,1","99999,9","07,5,+00780,1,99,9",,,"07,99,1,99,9,99,9,99999,9,99,9,99,9","10119,1,99999,9",,,,,"MET062METAR EKVJ 091050Z 15003KT 9999 BKN026 M05/M06 Q1012 09491095;",
"06066099999","2010-02-09T12:50:00","4","55.990122","8.353906","5.18","STAUNING, DA","FM-15","EKVJ ","V020","150,1,N,0015,1","00780,1,C,N","011265,1,N,1","-0030,1","-0040,1","99999,9","07,5,+00780,1,99,9",,,"07,99,1,99,9,99,9,99999,9,99,9,99,9","10108,1,99999,9",,,,,"MET062METAR EKVJ 091250Z 15003KT 9999 BKN026 M03/M04 Q1011 09491095;",
"06066099999","2010-02-09T13:50:00","4","55.990122","8.353906","5.18","STAUNING, DA","FM-15","EKVJ ","V020","150,1,N,0015,1","22000,1,9,N","011265,1,N,1","-0030,1","-0040,1","99999,9","04,5,+00780,1,99,9",,,"04,99,1,99,9,99,9,99999,9,99,9,99,9","10108,1,99999,9",,,,,"MET062METAR EKVJ 091350Z 15003KT 9999 SCT026 M03/M04 Q1011 09491095;",
"06066099999","2010-02-10T07:20:00","4","55.990122","8.353906","5.18","STAUNING, DA","FM-15","EKVJ ","V020","040,1,N,0051,1","00300,1,C,N","008000,1,N,1","-0030,1","-0040,1","99999,9","07,5,+00300,1,99,9",,,"07,99,1,99,9,99,9,99999,9,99,9,99,9","10159,1,99999,9",,,,,"MET062METAR EKVJ 100720Z 04010KT 8000 BKN010 M03/M04 Q1016 09491095;",
"06066099999","2010-02-10T07:50:00","4","55.990122","8.353906","5.18","STAUNING, DA","FM-15","EKVJ ","V020","060,1,N,0062,1","00300,1,C,N","011265,1,N,1","-0030,1","-0040,1","99999,9","07,5,+00300,1,99,9",,,"07,99,1,99,9,99,9,99999,9,99,9,99,9","10159,1,99999,9",,,,,"MET062METAR EKVJ 100750Z 06012KT 9999 BKN010 M03/M04 Q1016 09491095;",
"06066099999","2010-02-10T08:50:00","4","55.990122","8.353906","5.18","STAUNING, DA","FM-15","EKVJ ","V020","060,1,N,0062,1","00300,1,C,N","011265,1,N,1","-0030,1","-0040,1","99999,9","07,5,+00300,1,99,9",,,"07,99,1,99,9,99,9,99999,9,99,9,99,9","10159,1,99999,9",,,,,"MET062METAR EKVJ 100850Z 06012KT 9999 BKN010 M03/M04 Q1016 09410195;",
"06066099999","2010-02-10T09:50:00","4","55.990122","8.353906","5.18","STAUNING, DA","FM-15","EKVJ ","V020","060,1,N,0062,1","22000,1,9,N","011265,1,N,1","-0030,1","-0040,1","99999,9","04,5,+00300,1,99,9",,,"04,99,1,99,9,99,9,99999,9,99,9,99,9","10159,1,99999,9",,,,,"MET062METAR EKVJ 100950Z 06012KT 9999 SCT010 M03/M04 Q1016 09410195;",
"06066099999","2010-02-10T10:50:00","4","55.990122","8.353906","5.18","STAUNING, DA","FM-15","EKVJ ","V020","060,1,N,0051,1","00300,1,C,N","011265,1,N,1","-0020,1","-0040,1","99999,9","07,5,+00300,1,99,9",,,"07,99,1,99,9,99,9,99999,9,99,9,99,9","10180,1,99999,9",,,,,"MET062METAR EKVJ 101050Z 06010KT 9999 BKN010 M02/M04 Q1018 09410195;",
"06066099999","2010-02-10T11:50:00","4","55.990122","8.353906","5.18","STAUNING, DA","FM-15","EKVJ ","V020","060,1,N,0051,1","00450,1,C,N","011265,1,N,1","-0020,1","-0040,1","99999,9","07,5,+00450,1,99,9",,,"07,99,1,99,9,99,9,99999,9,99,9,99,9","10180,1,99999,9",,,,,"MET062METAR EKVJ 101150Z 06010KT 9999 BKN015 M02/M04 Q1018 09410195;",
"06066099999","2010-02-10T12:50:00","4","55.990122","8.353906","5.18","STAUNING, DA","FM-15","EKVJ ","V020","050,1,N,0051,1","00600,1,C,N","011265,1,N,1","-0020,1","-0040,1","99999,9","07,5,+00600,1,99,9",,,"07,99,1,99,9,99,9,99999,9,99,9,99,9","10190,1,99999,9",,,,,"MET062METAR EKVJ 101250Z 05010KT 9999 BKN020 M02/M04 Q1019 09710195;",
"06066099999","2010-02-10T13:50:00","4","55.990122","8.353906","5.18","STAUNING, DA","FM-15","EKVJ ","V020","040,1,N,0051,1","00600,1,C,N","011265,1,N,1","-0010,1","-0030,1","99999,9","07,5,+00600,1,99,9",,,"07,99,1,99,9,99,9,99999,9,99,9,99,9","10190,1,99999,9",,,,,"MET062METAR EKVJ 101350Z 04010KT 9999 BKN020 M01/M03 Q1019 09710195;",
"06066099999","2010-02-10T14:50:00","4","55.990122","8.353906","5.18","STAUNING, DA","FM-15","EKVJ ","V020","040,1,N,0041,1","22000,1,9,N","011265,1,N,1","-0020,1","-0040,1","99999,9","02,5,+00600,1,99,9",,,"02,99,1,99,9,99,9,99999,9,99,9,99,9","10200,1,99999,9",,,,,"MET062METAR EKVJ 101450Z 04008KT 9999 FEW020 M02/M04 Q1020 09710195;",
"06066099999","2010-02-11T07:20:00","4","55.990122","8.353906","5.18","STAUNING, DA","FM-15","EKVJ ","V020","999,9,V,0015,1","99999,9,9,Y","009900,1,N,1","-0090,1","-0100,1","99999,9",,,,,"10220,1,99999,9",,,,,"MET047METAR EKVJ 110720Z VRB03KT CAVOK M09/M10 Q1022;",
"06066099999","2010-02-11T08:20:00","4","55.990122","8.353906","5.18","STAUNING, DA","FM-15","EKVJ ","V020","999,9,V,0015,1","99999,9,9,Y","009900,1,N,1","-0090,1","-0100,1","99999,9",,,,,"10220,1,99999,9",,,,,"MET047METAR EKVJ 110820Z VRB03KT CAVOK M09/M10 Q1022;",
"06066099999","2010-02-11T09:50:00","4","55.990122","8.353906","5.18","STAUNING, DA","FM-15","EKVJ ","V020","999,9,V,0015,1","99999,9,9,Y","009900,1,N,1","-0090,1","-0100,1","99999,9",,,,,"10220,1,99999,9",,,,,"MET047METAR EKVJ 110950Z VRB03KT CAVOK M09/M10 Q1022;",
"06066099999","2010-02-11T10:50:00","4","55.990122","8.353906","5.18","STAUNING, DA","FM-15","EKVJ ","V020","999,9,V,0015,1","99999,9,9,Y","009900,1,N,1","-0050,1","-0070,1","99999,9",,,,,"10220,1,99999,9",,,,,"MET047METAR EKVJ 111050Z VRB03KT CAVOK M05/M07 Q1022;",
"06066099999","2010-02-11T11:50:00","4","55.990122","8.353906","5.18","STAUNING, DA","FM-15","EKVJ ","V020","999,9,V,0015,1","99999,9,9,Y","009900,1,N,1","-0030,1","-0050,1","99999,9",,,,,"10210,1,99999,9",,,,,"MET047METAR EKVJ 111150Z VRB03KT CAVOK M03/M05 Q1021;",
"06066099999","2010-02-11T12:50:00","4","55.990122","8.353906","5.18","STAUNING, DA","FM-15","EKVJ ","V020","999,9,V,0015,1","99999,9,9,Y","009900,1,N,1","-0030,1","-0050,1","99999,9",,,,,"10200,1,99999,9",,,,,"MET047METAR EKVJ 111250Z VRB03KT CAVOK M03/M05 Q1020;",
"06066099999","2010-02-11T14:20:00","4","55.990122","8.353906","5.18","STAUNING, DA","FM-15","EKVJ ","V020","999,9,V,0015,1","99999,9,9,Y","009900,1,N,1","-0030,1","-0050,1","99999,9",,,,,"10200,1,99999,9",,,,,"MET047METAR EKVJ 111420Z VRB03KT CAVOK M03/M05 Q1020;",
"06066099999","2010-02-11T14:50:00","4","55.990122","8.353906","5.18","STAUNING, DA","FM-15","EKVJ ","V020","999,9,V,0015,1","99999,9,9,Y","009900,1,N,1","-0030,1","-0050,1","99999,9",,,,,"10200,1,99999,9",,,,,"MET047METAR EKVJ 111450Z VRB03KT CAVOK M03/M05 Q1020;",
"06066099999","2010-02-12T07:20:00","4","55.990122","8.353906","5.18","STAUNING, DA","FM-15","EKVJ ","V020","050,1,N,0041,1","00300,1,C,N","007000,1,N,1","-0040,1","-0050,1","99999,9","07,5,+00300,1,99,9",,,"07,99,1,99,9,99,9,99999,9,99,9,99,9","10240,1,99999,9",,,,,"MET053METAR EKVJ 120720Z 05008KT 7000 BKN010 M04/M05 Q1024;",
"06066099999","2010-02-12T07:50:00","4","55.990122","8.353906","5.18","STAUNING, DA","FM-15","EKVJ ","V020","060,1,N,0041,1","00300,1,C,N","008000,1,N,1","-0040,1","-0050,1","99999,9","07,5,+00300,1,99,9",,,"07,99,1,99,9,99,9,99999,9,99,9,99,9","10240,1,99999,9",,,,,"MET053METAR EKVJ 120750Z 06008KT 8000 BKN010 M04/M05 Q1024;",
"06066099999","2010-02-12T08:50:00","4","55.990122","8.353906","5.18","STAUNING, DA","FM-15","EKVJ ","V020","060,1,N,0041,1","00300,1,C,N","011265,1,N,1","-0030,1","-0040,1","99999,9","07,5,+00300,1,99,9",,,"07,99,1,99,9,99,9,99999,9,99,9,99,9","10240,1,99999,9",,,,,"MET053METAR EKVJ 120850Z 06008KT 9999 BKN010 M03/M04 Q1024;",
"06066099999","2010-02-12T09:50:00","4","55.990122","8.353906","5.18","STAUNING, DA","FM-15","EKVJ ","V020","040,1,N,0041,1","00300,1,C,N","011265,1,N,1","-0020,1","-0030,1","99999,9","07,5,+00300,1,99,9",,,"07,99,1,99,9,99,9,99999,9,99,9,99,9","10240,1,99999,9",,,,,"MET053METAR EKVJ 120950Z 04008KT 9999 BKN010 M02/M03 Q1024;",
"06066099999","2010-02-12T10:50:00","4","55.990122","8.353906","5.18","STAUNING, DA","FM-15","EKVJ ","V020","040,1,N,0041,1","00300,1,C,N","011265,1,N,1","-0010,1","-0020,1","99999,9","07,5,+00300,1,99,9",,,"07,99,1,99,9,99,9,99999,9,99,9,99,9","10240,1,99999,9",,,,,"MET053METAR EKVJ 121050Z 04008KT 9999 BKN010 M01/M02 Q1024;",
"06066099999","2010-02-12T11:50:00","4","55.990122","8.353906","5.18","STAUNING, DA","FM-15","EKVJ ","V020","040,1,N,0041,1","00300,1,C,N","011265,1,N,1","-0010,1","-0020,1","99999,9","07,5,+00300,1,99,9",,,"07,99,1,99,9,99,9,99999,9,99,9,99,9","10240,1,99999,9",,,,,"MET053METAR EKVJ 121150Z 04008KT 9999 BKN010 M01/M02 Q1024;",
"06066099999","2010-02-12T14:50:00","4","55.990122","8.353906","5.18","STAUNING, DA","FM-15","EKVJ ","V020","030,1,N,0051,1","00300,1,C,N","011265,1,N,1","-0020,1","-0030,1","99999,9","07,5,+00300,1,99,9",,,"07,99,1,99,9,99,9,99999,9,99,9,99,9","10240,1,99999,9",,,,,"MET053METAR EKVJ 121450Z 03010KT 9999 BKN010 M02/M03 Q1024;",
"06066099999","2010-02-15T07:50:00","4","55.990122","8.353906","5.18","STAUNING, DA","FM-15","EKVJ ","V020","100,1,N,0021,1","00180,1,C,N","004000,1,N,1","-0020,1","-0030,1","99999,9","07,5,+00180,1,99,9",,,"07,99,1,99,9,99,9,99999,9,99,9,99,9","10108,1,99999,9","71,1",,,,"MET057METAR EKVJ 150750Z 10004KT 4000 -SN BKN006 M02/M03 Q1011;",
"06066099999","2010-02-15T08:50:00","4","55.990122","8.353906","5.18","STAUNING, DA","FM-15","EKVJ ","V020","100,1,N,0021,1","00180,1,C,N","004000,1,N,1","-0020,1","-0030,1","99999,9","07,5,+00180,1,99,9",,,"07,99,1,99,9,99,9,99999,9,99,9,99,9","10108,1,99999,9","71,1",,,,"MET066METAR EKVJ 150850Z 10004KT 4000 -SN BKN006 M02/M03 Q1011 09491095;",
"06066099999","2010-02-15T09:50:00","4","55.990122","8.353906","5.18","STAUNING, DA","FM-15","EKVJ ","V020","100,1,N,0021,1","00180,1,C,N","004000,1,N,1","-0020,1","-0030,1","99999,9","07,5,+00180,1,99,9",,,"07,99,1,99,9,99,9,99999,9,99,9,99,9","10102,1,99999,9","71,1",,,,"MET066METAR EKVJ 150950Z 10004KT 4000 -SN BKN006 M02/M03 Q1010 09491095;",
"06066099999","2010-02-15T10:50:00","4","55.990122","8.353906","5.18","STAUNING, DA","FM-15","EKVJ ","V020","100,1,N,0021,1","00180,1,C,N","004000,1,N,1","-0020,1","-0030,1","99999,9","07,5,+00180,1,99,9",,,"07,99,1,99,9,99,9,99999,9,99,9,99,9","10102,1,99999,9","71,1",,,,"MET066METAR EKVJ 151050Z 10004KT 4000 -SN BKN006 M02/M03 Q1010 09491095;",
"06066099999","2010-02-15T11:50:00","4","55.990122","8.353906","5.18","STAUNING, DA","FM-15","EKVJ ","V020","100,1,N,0021,1","00180,1,C,N","004000,1,N,1","-0020,1","-0030,1","99999,9","07,5,+00180,1,99,9",,,"07,99,1,99,9,99,9,99999,9,99,9,99,9","10102,1,99999,9","71,1",,,,"MET066METAR EKVJ 151150Z 10004KT 4000 -SN BKN006 M02/M03 Q1010 09491095;",
"06066099999","2010-02-15T13:50:00","4","55.990122","8.353906","5.18","STAUNING, DA","FM-15","EKVJ ","V020","100,1,N,0021,1","00180,1,C,N","011265,1,N,1","-0020,1","-0030,1","99999,9","07,5,+00180,1,99,9",,,"07,99,1,99,9,99,9,99999,9,99,9,99,9","10091,1,99999,9",,,,,"MET062METAR EKVJ 151350Z 10004KT 9999 BKN006 M02/M03 Q1009 09491095;",
"06066099999","2010-02-15T14:50:00","4","55.990122","8.353906","5.18","STAUNING, DA","FM-15","EKVJ ","V020","100,1,N,0021,1","00900,1,C,N","011265,1,N,1","-0010,1","-0020,1","99999,9","07,5,+00900,1,99,9",,,"07,99,1,99,9,99,9,99999,9,99,9,99,9","10081,1,99999,9",,,,,"MET062METAR EKVJ 151450Z 10004KT 9999 BKN030 M01/M02 Q1008 09491095;",
"06066099999","2010-02-16T07:20:00","4","55.990122","8.353906","5.18","STAUNING, DA","FM-15","EKVJ ","V020","120,1,N,0051,1","01200,1,C,N","006000,1,N,1","-0030,1","-0040,1","99999,9","07,5,+01200,1,99,9",,,"07,99,1,99,9,99,9,99999,9,99,9,99,9","10051,1,99999,9",,,,,"MET062METAR EKVJ 160720Z 12010KT 6000 BKN040 M03/M04 Q1005 09491095;",
"06066099999","2010-02-16T07:50:00","4","55.990122","8.353906","5.18","STAUNING, DA","FM-15","EKVJ ","V020","120,1,N,0051,1","01200,1,C,N","006000,1,N,1","-0030,1","-0040,1","99999,9","07,5,+01200,1,99,9",,,"07,99,1,99,9,99,9,99999,9,99,9,99,9","10051,1,99999,9",,,,,"MET062METAR EKVJ 160750Z 12010KT 6000 BKN040 M03/M04 Q1005 09491095;",
"06066099999","2010-02-16T08:50:00","4","55.990122","8.353906","5.18","STAUNING, DA","FM-15","EKVJ ","V020","120,1,N,0051,1","01200,1,C,N","006000,1,N,1","-0020,1","-0030,1","99999,9","07,5,+01200,1,99,9",,,"07,99,1,99,9,99,9,99999,9,99,9,99,9","10041,1,99999,9","71,1",,,,"MET066METAR EKVJ 160850Z 12010KT 6000 -SN BKN040 M02/M03 Q1004 09491095;",
"06066099999","2010-02-16T09:50:00","4","55.990122","8.353906","5.18","STAUNING, DA","FM-15","EKVJ ","V020","130,1,N,0051,1","01200,1,C,N","005000,1,N,1","-0020,1","-0030,1","99999,9","07,5,+01200,1,99,9",,,"07,99,1,99,9,99,9,99999,9,99,9,99,9","10041,1,99999,9","10,1","71,1",,,"MET069METAR EKVJ 160950Z 13010KT 5000 BR -SN BKN040 M02/M03 Q1004 09491095;",
"06066099999","2010-02-16T10:50:00","4","55.990122","8.353906","5.18","STAUNING, DA","FM-15","EKVJ ","V020","130,1,N,0062,1","01200,1,C,N","005000,1,N,1","-0020,1","-0030,1","99999,9","04,5,+00600,1,99,9","07,5,+01200,1,99,9",,"07,99,1,99,9,99,9,99999,9,99,9,99,9","10051,1,99999,9","10,1",,,,"MET072METAR EKVJ 161050Z 13012KT 5000 BR SCT020 BKN040 M02/M03 Q1005 09491095;",
"06066099999","2010-02-16T11:50:00","4","55.990122","8.353906","5.18","STAUNING, DA","FM-15","EKVJ ","V020","130,1,N,0062,1","01200,1,C,N","006000,1,N,1","-0010,1","-0020,1","99999,9","04,5,+00600,1,99,9","07,5,+01200,1,99,9",,"07,99,1,99,9,99,9,99999,9,99,9,99,9","10051,1,99999,9",,,,,"MET069METAR EKVJ 161150Z 13012KT 6000 SCT020 BKN040 M01/M02 Q1005 09491095;",
"06066099999","2010-02-16T12:50:00","4","55.990122","8.353906","5.18","STAUNING, DA","FM-15","EKVJ ","V020","130,1,N,0062,1","01200,1,C,N","006000,1,N,1","-0010,1","-0020,1","99999,9","04,5,+00600,1,99,9","07,5,+01200,1,99,9",,"07,99,1,99,9,99,9,99999,9,99,9,99,9","10051,1,99999,9",,,,,"MET069METAR EKVJ 161250Z 13012KT 6000 SCT020 BKN040 M01/M02 Q1005 09491095;",
"06066099999","2010-02-16T13:50:00","4","55.990122","8.353906","5.18","STAUNING, DA","FM-15","EKVJ ","V020","130,1,N,0062,1","22000,1,9,N","008000,1,N,1","-0010,1","-0020,1","99999,9","02,5,+00600,1,99,9",,,"02,99,1,99,9,99,9,99999,9,99,9,99,9","10041,1,99999,9",,,,,"MET062METAR EKVJ 161350Z 13012KT 8000 FEW020 M01/M02 Q1004 09491095;",
"06066099999","2010-02-16T14:50:00","4","55.990122","8.353906","5.18","STAUNING, DA","FM-15","EKVJ ","V020","130,1,N,0062,1","00750,1,C,N","007000,1,N,1","-0010,1","-0020,1","99999,9","04,5,+00600,1,99,9","07,5,+00750,1,99,9",,"07,99,1,99,9,99,9,99999,9,99,9,99,9","10041,1,99999,9",,,,,"MET069METAR EKVJ 161450Z 13012KT 7000 SCT020 BKN025 M01/M02 Q1004 09491095;",
"06066099999","2010-02-17T07:20:00","4","55.990122","8.353906","5.18","STAUNING, DA","FM-15","EKVJ ","V020","110,1,N,0041,1","00300,1,C,N","004000,1,N,1","-0030,1","-0040,1","99999,9","07,5,+00300,1,99,9",,,"07,99,1,99,9,99,9,99999,9,99,9,99,9","10031,1,99999,9","10,1",,,,"MET056METAR EKVJ 170720Z 11008KT 4000 BR BKN010 M03/M04 Q1003;",
"06066099999","2010-02-17T07:50:00","4","55.990122","8.353906","5.18","STAUNING, DA","FM-15","EKVJ ","V020","100,1,N,0041,1","00300,1,C,N","004000,1,N,1","-0030,1","-0040,1","99999,9","07,5,+00300,1,99,9",,,"07,99,1,99,9,99,9,99999,9,99,9,99,9","10031,1,99999,9","10,1",,,,"MET056METAR EKVJ 170750Z 10008KT 4000 BR BKN010 M03/M04 Q1003;",
"06066099999","2010-02-17T08:50:00","4","55.990122","8.353906","5.18","STAUNING, DA","FM-15","EKVJ ","V020","100,1,N,0051,1","00300,1,C,N","004000,1,N,1","-0020,1","-0030,1","99999,9","07,5,+00300,1,99,9",,,"07,99,1,99,9,99,9,99999,9,99,9,99,9","10031,1,99999,9","10,1",,,,"MET056METAR EKVJ 170850Z 10010KT 4000 BR BKN010 M02/M03 Q1003;",
"06066099999","2010-02-17T09:50:00","4","55.990122","8.353906","5.18","STAUNING, DA","FM-15","EKVJ ","V020","100,1,N,0051,1","00300,1,C,N","004000,1,N,1","-0010,1","-0020,1","99999,9","07,5,+00300,1,99,9",,,"07,99,1,99,9,99,9,99999,9,99,9,99,9","10031,1,99999,9","10,1",,,,"MET056METAR EKVJ 170950Z 10010KT 4000 BR BKN010 M01/M02 Q1003;",
"06066099999","2010-02-17T10:50:00","4","55.990122","8.353906","5.18","STAUNING, DA","FM-15","EKVJ ","V020","100,1,N,0041,1","00300,1,C,N","004500,1,N,1","-0010,1","-0020,1","99999,9","07,5,+00300,1,99,9",,,"07,99,1,99,9,99,9,99999,9,99,9,99,9","10020,1,99999,9","10,1",,,,"MET056METAR EKVJ 171050Z 10008KT 4500 BR BKN010 M01/M02 Q1002;",
"06066099999","2010-02-17T11:50:00","4","55.990122","8.353906","5.18","STAUNING, DA","FM-15","EKVJ ","V020","110,1,N,0051,1","00300,1,C,N","005000,1,N,1","-0010,1","-0020,1","99999,9","07,5,+00300,1,99,9",,,"07,99,1,99,9,99,9,99999,9,99,9,99,9","10010,1,99999,9",,,,,"MET053METAR EKVJ 171150Z 11010KT 5000 BKN010 M01/M02 Q1001;",
"06066099999","2010-02-17T12:50:00","4","55.990122","8.353906","5.18","STAUNING, DA","FM-15","EKVJ ","V020","110,1,N,0072,1","00450,1,C,N","006000,1,N,1","-0010,1","-0020,1","99999,9","07,5,+00450,1,99,9",,,"07,99,1,99,9,99,9,99999,9,99,9,99,9","10010,1,99999,9",,,,,"MET053METAR EKVJ 171250Z 11014KT 6000 BKN015 M01/M02 Q1001;",
"06066099999","2010-02-17T13:50:00","4","55.990122","8.353906","5.18","STAUNING, DA","FM-15","EKVJ ","V020","110,1,N,0093,1","00600,1,C,N","007000,1,N,1","+0000,1","-0010,1","99999,9","04,5,+00450,1,99,9","07,5,+00600,1,99,9",,"07,99,1,99,9,99,9,99999,9,99,9,99,9","10010,1,99999,9",,,,,"MET059METAR EKVJ 171350Z 11018KT 7000 SCT015 BKN020 00/M01 Q1001;",
"06066099999","2010-02-17T14:50:00","4","55.990122","8.353906","5.18","STAUNING, DA","FM-15","EKVJ ","V020","110,1,N,0072,1","00600,1,C,N","006000,1,N,1","+0000,1","-0010,1","99999,9","02,5,+00450,1,99,9","07,5,+00600,1,99,9",,"07,99,1,99,9,99,9,99999,9,99,9,99,9","10010,1,99999,9",,,,,"MET059METAR EKVJ 171450Z 11014KT 6000 FEW015 BKN020 00/M01 Q1001;",
"06066099999","2010-02-18T07:20:00","4","55.990122","8.353906","5.18","STAUNING, DA","FM-15","EKVJ ","V020","110,1,N,0082,1","00150,1,C,N","002500,1,N,1","+0000,1","-0010,1","99999,9","07,5,+00150,1,99,9",,,"07,99,1,99,9,99,9,99999,9,99,9,99,9","09970,1,99999,9","10,1","71,1",,,"MET059METAR EKVJ 180720Z 11016KT 2500 BR -SN BKN005 00/M01 Q0997;",
"06066099999","2010-02-18T07:50:00","4","55.990122","8.353906","5.18","STAUNING, DA","FM-15","EKVJ ","V020","110,1,N,0082,1","00150,1,C,N","002000,1,N,1","+0000,1","-0010,1","99999,9","07,5,+00150,1,99,9",,,"07,99,1,99,9,99,9,99999,9,99,9,99,9","09970,1,99999,9","10,1","71,1",,,"MET059METAR EKVJ 180750Z 11016KT 2000 BR -SN BKN005 00/M01 Q0997;",
"06066099999","2010-02-18T08:20:00","4","55.990122","8.353906","5.18","STAUNING, DA","FM-15","EKVJ ","V020","110,1,N,0093,1","00090,1,9,N","001000,1,N,1","+0000,1","-0010,1","99999,9","09,1,+00090,1,99,9",,,"09,99,1,99,9,99,9,00025,1,99,9,99,9","09970,1,99999,9","10,1","71,1",,,"MET058METAR EKVJ 180820Z 11018KT 1000 BR -SN VV003 00/M01 Q0997;",
"06066099999","2010-02-18T08:50:00","4","55.990122","8.353906","5.18","STAUNING, DA","FM-15","EKVJ ","V020","110,1,N,0082,1","00150,1,C,N","002500,1,N,1","+0000,1","-0010,1","99999,9","07,5,+00150,1,99,9",,,"07,99,1,99,9,99,9,99999,9,99,9,99,9","09970,1,99999,9","10,1","71,1",,,"MET068METAR EKVJ 180850Z 11016KT 2500 BR -SN BKN005 00/M01 Q0997 09490594;",
"06066099999","2010-02-18T09:50:00","4","55.990122","8.353906","5.18","STAUNING, DA","FM-15","EKVJ ","V020","110,1,N,0082,1","00150,1,C,N","002500,1,N,1","+0000,1","-0010,1","99999,9","07,5,+00150,1,99,9",,,"07,99,1,99,9,99,9,99999,9,99,9,99,9","09970,1,99999,9","10,1","36,1",,,"MET070METAR EKVJ 180950Z 11016KT 2500 BR -DRSN BKN005 00/M01 Q0997 09490594;",
"06066099999","2010-02-18T10:50:00","4","55.990122","8.353906","5.18","STAUNING, DA","FM-15","EKVJ ","V020","110,1,N,0082,1","00090,1,9,N","001000,1,N,1","+0000,1","-0010,1","99999,9","09,1,+00090,1,99,9",,,"09,99,1,99,9,99,9,00025,1,99,9,99,9","09959,1,99999,9","36,1",,,,"MET066METAR EKVJ 181050Z 11016KT 1000 -DRSN VV003 00/M01 Q0996 09490594;",
"06066099999","2010-02-18T11:50:00","4","55.990122","8.353906","5.18","STAUNING, DA","FM-15","EKVJ ","V020","110,1,N,0072,1","00120,1,C,N","002000,1,N,1","+0000,1","-0010,1","99999,9","07,5,+00120,1,99,9",,,"07,99,1,99,9,99,9,99999,9,99,9,99,9","09949,1,99999,9","10,1","36,1",,,"MET069METAR EKVJ 181150Z 11014KT 2000 BR DRSN BKN004 00/M01 Q0995 09491094;",
"06066099999","2010-02-18T12:20:00","4","55.990122","8.353906","5.18","STAUNING, DA","FM-15","EKVJ ","V020","100,1,N,0062,1","00090,1,9,N","001000,1,N,1","+0000,1","-0010,1","99999,9","09,1,+00090,1,99,9",,,"09,99,1,99,9,99,9,00025,1,99,9,99,9","09949,1,99999,9","73,1",,,,"MET063METAR EKVJ 181220Z 10012KT 1000 SN VV003 00/M01 Q0995 09491094;",
"06066099999","2010-02-18T12:50:00","4","55.990122","8.353906","5.18","STAUNING, DA","FM-15","EKVJ ","V020","100,1,N,0072,1","00090,1,9,N","001000,1,N,1","+0000,1","-0010,1","99999,9","09,1,+00090,1,99,9",,,"09,99,1,99,9,99,9,00025,1,99,9,99,9","09949,1,99999,9","71,1",,,,"MET064METAR EKVJ 181250Z 10014KT 1000 -SN VV003 00/M01 Q0995 09491094;",
"06066099999","2010-02-18T13:50:00","4","55.990122","8.353906","5.18","STAUNING, DA","FM-15","EKVJ ","V020","120,1,N,0062,1","00090,1,9,N","001000,1,N,1","+0000,1","+0000,1","99999,9","09,1,+00090,1,99,9",,,"09,99,1,99,9,99,9,00025,1,99,9,99,9","09949,1,99999,9","71,1",,,,"MET064METAR EKVJ 181350Z 12012KT 1000 -SN VV003 00/M00 Q0995 09491094;",
"06066099999","2010-02-18T14:50:00","4","55.990122","8.353906","5.18","STAUNING, DA","FM-15","EKVJ ","V020","130,1,N,0051,1","00120,1,C,N","001500,1,N,1","+0000,1","+0000,1","99999,9","07,5,+00120,1,99,9",,,"07,99,1,99,9,99,9,99999,9,99,9,99,9","09939,1,99999,9","71,1",,,,"MET065METAR EKVJ 181450Z 13010KT 1500 -SN BKN004 00/M00 Q0994 09491094;",
"06066099999","2010-02-19T07:20:00","4","55.990122","8.353906","5.18","STAUNING, DA","FM-15","EKVJ ","V020","090,1,N,0041,1","00120,1,C,N","002000,1,N,1","+0000,1","+0000,1","99999,9","07,5,+00120,1,99,9",,,"07,99,1,99,9,99,9,99999,9,99,9,99,9","09898,1,99999,9","10,1",,,,"MET064METAR EKVJ 190720Z 09008KT 2000 BR BKN004 00/M00 Q0990 09491094;",
"06066099999","2010-02-19T07:50:00","4","55.990122","8.353906","5.18","STAUNING, DA","FM-15","EKVJ ","V020","090,1,N,0041,1","00120,1,C,N","002000,1,N,1","+0000,1","+0000,1","99999,9","07,5,+00120,1,99,9",,,"07,99,1,99,9,99,9,99999,9,99,9,99,9","09898,1,99999,9","10,1",,,,"MET064METAR EKVJ 190750Z 09008KT 2000 BR BKN004 00/M00 Q0990 09491094;",
"06066099999","2010-02-19T08:50:00","4","55.990122","8.353906","5.18","STAUNING, DA","FM-15","EKVJ ","V020","090,1,N,0041,1","00120,1,C,N","002000,1,N,1","+0000,1","+0000,1","99999,9","07,5,+00120,1,99,9",,,"07,99,1,99,9,99,9,99999,9,99,9,99,9","09898,1,99999,9","10,1",,,,"MET064METAR EKVJ 190850Z 09008KT 2000 BR BKN004 00/M00 Q0990 09491094;",
"06066099999","2010-02-19T09:50:00","4","55.990122","8.353906","5.18","STAUNING, DA","FM-15","EKVJ ","V020","090,1,N,0041,1","00120,1,C,N","003000,1,N,1","+0000,1","+0000,1","99999,9","07,5,+00120,1,99,9",,,"07,99,1,99,9,99,9,99999,9,99,9,99,9","09898,1,99999,9","10,1",,,,"MET064METAR EKVJ 190950Z 09008KT 3000 BR BKN004 00/M00 Q0990 09491094;",
"06066099999","2010-02-19T10:50:00","4","55.990122","8.353906","5.18","STAUNING, DA","FM-15","EKVJ ","V020","090,1,N,0041,1","00120,1,C,N","003000,1,N,1","+0010,1","+0000,1","99999,9","07,5,+00120,1,99,9",,,"07,99,1,99,9,99,9,99999,9,99,9,99,9","09892,1,99999,9","71,1",,,,"MET064METAR EKVJ 191050Z 09008KT 3000 -SN BKN004 01/00 Q0989 09491094;",
"06066099999","2010-02-19T11:50:00","4","55.990122","8.353906","5.18","STAUNING, DA","FM-15","EKVJ ","V020","090,1,N,0041,1","00120,1,C,N","003000,1,N,1","+0010,1","+0000,1","99999,9","07,5,+00120,1,99,9",,,"07,99,1,99,9,99,9,99999,9,99,9,99,9","09892,1,99999,9","71,1",,,,"MET064METAR EKVJ 191150Z 09008KT 3000 -SN BKN004 01/00 Q0989 09491094;",
"06066099999","2010-02-19T12:20:00","4","55.990122","8.353906","5.18","STAUNING, DA","FM-15","EKVJ ","V020","090,1,N,0041,1","00120,1,C,N","003500,1,N,1","+0010,1","+0000,1","99999,9","07,5,+00120,1,99,9",,,"07,99,1,99,9,99,9,99999,9,99,9,99,9","09882,1,99999,9","71,1",,,,"MET064METAR EKVJ 191220Z 09008KT 3500 -SN BKN004 01/00 Q0988 09491094;",
"06066099999","2010-02-19T12:50:00","4","55.990122","8.353906","5.18","STAUNING, DA","FM-15","EKVJ ","V020","090,1,N,0041,1","00120,1,C,N","003500,1,N,1","+0010,1","+0000,1","99999,9","07,5,+00120,1,99,9",,,"07,99,1,99,9,99,9,99999,9,99,9,99,9","09882,1,99999,9","61,1","71,1",,,"MET066METAR EKVJ 191250Z 09008KT 3500 -RASN BKN004 01/00 Q0988 09491094;",
"06066099999","2010-02-19T13:50:00","4","55.990122","8.353906","5.18","STAUNING, DA","FM-15","EKVJ ","V020","090,1,N,0041,1","00120,1,C,N","003500,1,N,1","+0010,1","+0000,1","99999,9","07,5,+00120,1,99,9",,,"07,99,1,99,9,99,9,99999,9,99,9,99,9","09882,1,99999,9","61,1","71,1",,,"MET066METAR EKVJ 191350Z 09008KT 3500 -RASN BKN004 01/00 Q0988 09491094;",
"06066099999","2010-02-19T14:20:00","4","55.990122","8.353906","5.18","STAUNING, DA","FM-15","EKVJ ","V020","090,1,N,0041,1","00120,1,C,N","003500,1,N,1","+0010,1","+0000,1","99999,9","07,5,+00120,1,99,9",,,"07,99,1,99,9,99,9,99999,9,99,9,99,9","09882,1,99999,9","10,1",,,,"MET063METAR EKVJ 191420Z 09008KT 3500 BR BKN004 01/00 Q0988 09491094;",
"06066099999","2010-02-19T14:50:00","4","55.990122","8.353906","5.18","STAUNING, DA","FM-15","EKVJ ","V020","090,1,N,0041,1","00120,1,C,N","003500,1,N,1","+0010,1","+0000,1","99999,9","07,5,+00120,1,99,9",,,"07,99,1,99,9,99,9,99999,9,99,9,99,9","09882,1,99999,9","10,1",,,,"MET063METAR EKVJ 191450Z 09008KT 3500 BR BKN004 01/00 Q0988 09491094;",
"06066099999","2010-02-21T08:50:00","4","55.990122","8.353906","5.18","STAUNING, DA","FM-15","EKVJ ","V020","330,1,N,0021,1","99999,9,9,Y","009900,1,N,1","-0050,1","+9999,9","99999,9",,,,,"09990,1,99999,9",,,,,"MET055METAR EKVJ 210850Z 33004KT CAVOK M05/00 Q0999 27711095;",
"06066099999","2010-02-21T09:50:00","4","55.990122","8.353906","5.18","STAUNING, DA","FM-15","EKVJ ","V020","330,1,N,0021,1","99999,9,9,Y","009900,1,N,1","-0050,1","+9999,9","99999,9",,,,,"09990,1,99999,9",,,,,"MET055METAR EKVJ 210950Z 33004KT CAVOK M05/00 Q0999 27711095;",
"06066099999","2010-02-22T07:20:00","4","55.990122","8.353906","5.18","STAUNING, DA","FM-15","EKVJ ","V020","090,1,N,0031,1","00150,1,C,N","008000,1,N,1","-0010,1","-0020,1","99999,9","07,5,+00150,1,99,9","07,5,+00240,1,99,9",,"07,99,1,99,9,99,9,99999,9,99,9,99,9","09898,1,99999,9",,,,,"MET068METAR EKVJ 220720Z 09006KT 8000 BKN005 BKN008 M01/M02 Q0990 0931094;",
"06066099999","2010-02-22T07:50:00","4","55.990122","8.353906","5.18","STAUNING, DA","FM-15","EKVJ ","V020","090,1,N,0031,1","00150,1,C,N","008000,1,N,1","-0010,1","-0020,1","99999,9","07,5,+00150,1,99,9","07,5,+00240,1,99,9",,"07,99,1,99,9,99,9,99999,9,99,9,99,9","09898,1,99999,9",,,,,"MET068METAR EKVJ 220750Z 09006KT 8000 BKN005 BKN008 M01/M02 Q0990 0931094;",
"06066099999","2010-02-22T08:50:00","4","55.990122","8.353906","5.18","STAUNING, DA","FM-15","EKVJ ","V020","090,1,N,0031,1","00150,1,C,N","008000,1,N,1","-0010,1","-0020,1","99999,9","07,5,+00150,1,99,9","07,5,+00240,1,99,9",,"07,99,1,99,9,99,9,99999,9,99,9,99,9","09898,1,99999,9",,,,,"MET068METAR EKVJ 220850Z 09006KT 8000 BKN005 BKN008 M01/M02 Q0990 0931094;",
"06066099999","2010-02-22T09:50:00","4","55.990122","8.353906","5.18","STAUNING, DA","FM-15","EKVJ ","V020","090,1,N,0031,1","00150,1,C,N","008000,1,N,1","+0000,1","-0010,1","99999,9","07,5,+00150,1,99,9","07,5,+00240,1,99,9",,"07,99,1,99,9,99,9,99999,9,99,9,99,9","09898,1,99999,9",,,,,"MET068METAR EKVJ 220950Z 09006KT 8000 BKN005 BKN008 M00/M01 Q0990 0931094;",
"06066099999","2010-02-22T10:50:00","4","55.990122","8.353906","5.18","STAUNING, DA","FM-15","EKVJ ","V020","090,1,N,0031,1","00150,1,C,N","004000,1,N,1","+0000,1","-0010,1","99999,9","07,5,+00150,1,99,9","07,5,+00240,1,99,9",,"07,99,1,99,9,99,9,99999,9,99,9,99,9","09898,1,99999,9","10,1",,,,"MET071METAR EKVJ 221050Z 09006KT 4000 BR BKN005 BKN008 M00/M01 Q0990 0931094;",
"06066099999","2010-02-22T13:20:00","4","55.990122","8.353906","5.18","STAUNING, DA","FM-15","EKVJ ","V020","150,1,N,0026,1","00120,1,C,N","002800,1,N,1","+0000,1","-0010,1","99999,9","07,5,+00120,1,99,9","07,5,+00180,1,99,9",,"07,99,1,99,9,99,9,99999,9,99,9,99,9","09898,1,99999,9","10,1",,,,"MET063METAR EKVJ 221320Z 15005KT 2800 BR BKN004 BKN006 M00/M01 Q0990;",
"06066099999","2010-02-22T13:50:00","4","55.990122","8.353906","5.18","STAUNING, DA","FM-15","EKVJ ","V020","150,1,N,0026,1","00090,1,C,N","001000,1,N,1","-0010,1","-0020,1","99999,9","07,5,+00090,1,99,9","07,5,+00120,1,99,9",,"07,99,1,99,9,99,9,99999,9,99,9,99,9","09898,1,99999,9","48,1","71,1",,,"MET069METAR EKVJ 221350Z 15005KT 1000 FZFG -SN BKN003 BKN004 M01/M02 Q0990;",
"06066099999","2010-02-22T15:50:00","4","55.990122","8.353906","5.18","STAUNING, DA","FM-15","EKVJ ","V020","150,1,N,0026,1","00090,1,C,N","000800,1,N,1","-0010,1","-0020,1","99999,9","07,5,+00090,1,99,9","07,5,+00120,1,99,9",,"07,99,1,99,9,99,9,99999,9,99,9,99,9","09898,1,99999,9","48,1",,,,"MET065METAR EKVJ 221550Z 15005KT 0800 FZFG BKN003 BKN004 M01/M02 Q0990;",
"06066099999","2010-02-23T07:20:00","4","55.990122","8.353906","5.18","STAUNING, DA","FM-15","EKVJ ","V020","360,1,N,0015,1","99999,9,C,N","008000,1,N,1","-0030,1","-0030,1","99999,9","02,5,+00150,1,99,9","04,5,+00750,1,99,9",,"04,99,1,99,9,99,9,99999,9,99,9,99,9","09949,1,99999,9",,,,,"MET060METAR EKVJ 230720Z 36003KT 8000 FEW005 SCT025 M03/M03 Q0995;","P01 007503SCOCIG"
"06066099999","2010-02-23T07:50:00","4","55.990122","8.353906","5.18","STAUNING, DA","FM-15","EKVJ ","V020","999,9,C,0000,1","22000,1,9,N","008000,1,N,1","-0030,1","-0030,1","99999,9","04,5,+00750,1,99,9",,,"04,99,1,99,9,99,9,99999,9,99,9,99,9","09949,1,99999,9",,,,,"MET062METAR EKVJ 230750Z 00000KT 8000 SCT025 M03/M03 Q0995 27790293;",
"06066099999","2010-02-23T08:50:00","4","55.990122","8.353906","5.18","STAUNING, DA","FM-15","EKVJ ","V020","999,9,C,0000,1","22000,1,9,N","008000,1,N,1","-0030,1","-0030,1","99999,9","02,5,+00750,1,99,9",,,"02,99,1,99,9,99,9,99999,9,99,9,99,9","09970,1,99999,9",,,,,"MET062METAR EKVJ 230850Z 00000KT 8000 FEW025 M03/M03 Q0997 27790293;",
"06066099999","2010-02-23T09:50:00","4","55.990122","8.353906","5.18","STAUNING, DA","FM-15","EKVJ ","V020","360,1,N,0015,1","22000,1,9,N","008000,1,N,1","-0020,1","-0020,1","99999,9","02,5,+00750,1,99,9",,,"02,99,1,99,9,99,9,99999,9,99,9,99,9","09980,1,99999,9",,,,,"MET062METAR EKVJ 230950Z 36003KT 8000 FEW025 M02/M02 Q0998 27790293;",
"06066099999","2010-02-23T10:50:00","4","55.990122","8.353906","5.18","STAUNING, DA","FM-15","EKVJ ","V020","360,1,N,0021,1","99999,9,9,Y","009900,1,N,1","-0010,1","-0020,1","99999,9",,,,,"09980,1,99999,9",,,,,"MET056METAR EKVJ 231050Z 36004KT CAVOK M01/M02 Q0998 27790293;",
"06066099999","2010-02-23T11:50:00","4","55.990122","8.353906","5.18","STAUNING, DA","FM-15","EKVJ ","V020","360,1,N,0021,1","99999,9,9,Y","009900,1,N,1","+0000,1","-0020,1","99999,9",,,,,"09990,1,99999,9",,,,,"MET046METAR EKVJ 231150Z 36004KT CAVOK 00/M02 Q0999;",
"06066099999","2010-02-23T12:50:00","4","55.990122","8.353906","5.18","STAUNING, DA","FM-15","EKVJ ","V020","360,1,N,0021,1","99999,9,9,Y","009900,1,N,1","-0010,1","-0030,1","99999,9",,,,,"10000,1,99999,9",,,,,"MET055METAR EKVJ 231250Z 36004KT 330V030 CAVOK M01/M03 Q1000;",
"06066099999","2010-02-23T13:50:00","4","55.990122","8.353906","5.18","STAUNING, DA","FM-15","EKVJ ","V020","310,1,N,0021,1","99999,9,9,Y","009900,1,N,1","-0010,1","-0030,1","99999,9",,,,,"10000,1,99999,9",,,,,"MET047METAR EKVJ 231350Z 31004KT CAVOK M01/M03 Q1000;",
"06066099999","2010-02-23T14:50:00","4","55.990122","8.353906","5.18","STAUNING, DA","FM-15","EKVJ ","V020","280,1,N,0021,1","99999,9,9,Y","009900,1,N,1","-0010,1","-0030,1","99999,9",,,,,"10000,1,99999,9",,,,,"MET047METAR EKVJ 231450Z 28004KT CAVOK M01/M03 Q1000;",
"06066099999","2010-02-24T07:20:00","4","55.990122","8.353906","5.18","STAUNING, DA","FM-15","EKVJ ","V020","090,1,N,0062,1","03000,1,C,N","005000,1,N,1","-0060,1","-0060,1","99999,9","04,5,+00600,1,99,9","07,5,+03000,1,99,9",,"07,99,1,99,9,99,9,99999,9,99,9,99,9","10041,1,99999,9",,,,,"MET060METAR EKVJ 240720Z 09012KT 5000 SCT020 BKN100 M06/M06 Q1004;",
"06066099999","2010-02-24T07:50:00","4","55.990122","8.353906","5.18","STAUNING, DA","FM-15","EKVJ ","V020","100,1,N,0062,1","03000,1,C,N","005000,1,N,1","-0060,1","-0060,1","99999,9","04,5,+00600,1,99,9","07,5,+03000,1,99,9",,"07,99,1,99,9,99,9,99999,9,99,9,99,9","10041,1,99999,9",,,,,"MET060METAR EKVJ 240750Z 10012KT 5000 SCT020 BKN100 M06/M06 Q1004;",
"06066099999","2010-02-24T08:50:00","4","55.990122","8.353906","5.18","STAUNING, DA","FM-15","EKVJ ","V020","100,1,N,0062,1","03000,1,C,N","005000,1,N,1","-0060,1","-0060,1","99999,9","04,5,+00600,1,99,9","07,5,+03000,1,99,9",,"07,99,1,99,9,99,9,99999,9,99,9,99,9","10041,1,99999,9",,,,,"MET060METAR EKVJ 240850Z 10012KT 5000 SCT020 BKN100 M06/M06 Q1004;",
"06066099999","2010-02-24T09:50:00","4","55.990122","8.353906","5.18","STAUNING, DA","FM-15","EKVJ ","V020","100,1,N,0082,1","03000,1,C,N","011265,1,N,1","-0030,1","-0040,1","99999,9","04,5,+00600,1,99,9","07,5,+03000,1,99,9",,"07,99,1,99,9,99,9,99999,9,99,9,99,9","10041,1,99999,9",,,,,"MET060METAR EKVJ 240950Z 10016KT 9999 SCT020 BKN100 M03/M04 Q1004;",
"06066099999","2010-02-24T10:50:00","4","55.990122","8.353906","5.18","STAUNING, DA","FM-15","EKVJ ","V020","110,1,N,0093,1","03000,1,C,N","011265,1,N,1","-0020,1","-0030,1","99999,9","04,5,+00600,1,99,9","07,5,+03000,1,99,9",,"07,99,1,99,9,99,9,99999,9,99,9,99,9","10041,1,99999,9",,,,,"MET060METAR EKVJ 241050Z 11018KT 9999 SCT020 BKN100 M02/M03 Q1004;",
"06066099999","2010-02-24T11:50:00","4","55.990122","8.353906","5.18","STAUNING, DA","FM-15","EKVJ ","V020","110,1,N,0093,1","00600,1,C,N","011265,1,N,1","-0010,1","-0020,1","99999,9","07,5,+00600,1,99,9",,,"07,99,1,99,9,99,9,99999,9,99,9,99,9","10041,1,99999,9",,,,,"MET053METAR EKVJ 241150Z 11018KT 9999 BKN020 M01/M02 Q1004;",
"06066099999","2010-02-24T12:50:00","4","55.990122","8.353906","5.18","STAUNING, DA","FM-15","EKVJ ","V020","110,1,N,0093,1","03000,1,C,N","011265,1,N,1","-0010,1","-0020,1","99999,9","04,5,+00600,1,99,9","07,5,+03000,1,99,9",,"07,99,1,99,9,99,9,99999,9,99,9,99,9","10031,1,99999,9",,,,,"MET060METAR EKVJ 241250Z 11018KT 9999 SCT020 BKN100 M01/M02 Q1003;",
"06066099999","2010-02-24T13:50:00","4","55.990122","8.353906","5.18","STAUNING, DA","FM-15","EKVJ ","V020","120,1,N,0103,1","03000,1,C,N","011265,1,N,1","+0000,1","-0010,1","99999,9","02,5,+00600,1,99,9","07,5,+03000,1,99,9",,"07,99,1,99,9,99,9,99999,9,99,9,99,9","10031,1,99999,9",,,,,"MET059METAR EKVJ 241350Z 12020KT 9999 FEW020 BKN100 00/M01 Q1003;",
"06066099999","2010-02-24T14:50:00","4","55.990122","8.353906","5.18","STAUNING, DA","FM-15","EKVJ ","V020","120,1,N,0093,1","03000,1,C,N","011265,1,N,1","+0000,1","-0010,1","99999,9","04,5,+00600,1,99,9","07,5,+03000,1,99,9",,"07,99,1,99,9,99,9,99999,9,99,9,99,9","10031,1,99999,9",,,,,"MET059METAR EKVJ 241450Z 12018KT 9999 SCT020 BKN100 00/M01 Q1003;",
"06066099999","2010-02-25T07:20:00","4","55.990122","8.353906","5.18","STAUNING, DA","FM-15","EKVJ ","V020","110,1,N,0093,1","00150,1,C,N","006000,1,N,1","+0010,1","+0010,1","99999,9","07,5,+00150,1,99,9",,,"07,99,1,99,9,99,9,99999,9,99,9,99,9","09959,1,99999,9","61,1",,,,"MET055METAR EKVJ 250720Z 11018KT 6000 -RA BKN005 01/01 Q0996;",
"06066099999","2010-02-25T07:50:00","4","55.990122","8.353906","5.18","STAUNING, DA","FM-15","EKVJ ","V020","110,1,N,0082,1","00150,1,C,N","006000,1,N,1","+0010,1","+0010,1","99999,9","07,5,+00150,1,99,9",,,"07,99,1,99,9,99,9,99999,9,99,9,99,9","09959,1,99999,9","61,1",,,,"MET055METAR EKVJ 250750Z 11016KT 6000 -RA BKN005 01/01 Q0996;",
"06066099999","2010-02-25T08:50:00","4","55.990122","8.353906","5.18","STAUNING, DA","FM-15","EKVJ ","V020","110,1,N,0082,1","00150,1,C,N","007000,1,N,1","+0010,1","+0010,1","99999,9","07,5,+00150,1,99,9",,,"07,99,1,99,9,99,9,99999,9,99,9,99,9","09959,1,99999,9","51,1",,,,"MET055METAR EKVJ 250850Z 11016KT 7000 -DZ BKN005 01/01 Q0996;",
"06066099999","2010-02-25T09:50:00","4","55.990122","8.353906","5.18","STAUNING, DA","FM-15","EKVJ ","V020","110,1,N,0082,1","00150,1,C,N","007000,1,N,1","+0010,1","+0010,1","99999,9","07,5,+00150,1,99,9",,,"07,99,1,99,9,99,9,99999,9,99,9,99,9","09959,1,99999,9","51,1",,,,"MET055METAR EKVJ 250950Z 11016KT 7000 -DZ BKN005 01/01 Q0996;",
"06066099999","2010-02-25T10:50:00","4","55.990122","8.353906","5.18","STAUNING, DA","FM-15","EKVJ ","V020","110,1,N,0062,1","00150,1,C,N","004000,1,N,1","+0010,1","+0010,1","99999,9","07,5,+00150,1,99,9",,,"07,99,1,99,9,99,9,99999,9,99,9,99,9","09949,1,99999,9","10,1",,,,"MET054METAR EKVJ 251050Z 11012KT 4000 BR BKN005 01/01 Q0995;",
"06066099999","2010-02-25T11:50:00","4","55.990122","8.353906","5.18","STAUNING, DA","FM-15","EKVJ ","V020","100,1,N,0062,1","00150,1,C,N","004000,1,N,1","+0010,1","+0010,1","99999,9","07,5,+00150,1,99,9",,,"07,99,1,99,9,99,9,99999,9,99,9,99,9","09949,1,99999,9","10,1",,,,"MET054METAR EKVJ 251150Z 10012KT 4000 BR BKN005 01/01 Q0995;",
"06066099999","2010-02-25T12:50:00","4","55.990122","8.353906","5.18","STAUNING, DA","FM-15","EKVJ ","V020","100,1,N,0051,1","00150,1,C,N","003000,1,N,1","+0010,1","+0010,1","99999,9","07,5,+00150,1,99,9",,,"07,99,1,99,9,99,9,99999,9,99,9,99,9","09949,1,99999,9","10,1",,,,"MET054METAR EKVJ 251250Z 10010KT 3000 BR BKN005 01/01 Q0995;",
"06066099999","2010-02-25T13:50:00","4","55.990122","8.353906","5.18","STAUNING, DA","FM-15","EKVJ ","V020","100,1,N,0051,1","00150,1,C,N","003000,1,N,1","+0010,1","+0010,1","99999,9","07,5,+00150,1,99,9",,,"07,99,1,99,9,99,9,99999,9,99,9,99,9","09949,1,99999,9","10,1",,,,"MET054METAR EKVJ 251350Z 10010KT 3000 BR BKN005 01/01 Q0995;",
"06066099999","2010-02-25T14:50:00","4","55.990122","8.353906","5.18","STAUNING, DA","FM-15","EKVJ ","V020","100,1,N,0051,1","00150,1,C,N","003000,1,N,1","+0010,1","+0010,1","99999,9","07,5,+00150,1,99,9",,,"07,99,1,99,9,99,9,99999,9,99,9,99,9","09929,1,99999,9","10,1",,,,"MET054METAR EKVJ 251450Z 10010KT 3000 BR BKN005 01/01 Q0993;",
"06066099999","2010-02-26T07:20:00","4","55.990122","8.353906","5.18","STAUNING, DA","FM-15","EKVJ ","V020","100,1,N,0041,1","00150,1,C,N","002000,1,N,1","+0020,1","+0020,1","99999,9","07,5,+00150,1,99,9",,,"07,99,1,99,9,99,9,99999,9,99,9,99,9","09898,1,99999,9","10,1",,,,"MET054METAR EKVJ 260720Z 10008KT 2000 BR BKN005 02/02 Q0990;",
"06066099999","2010-02-26T07:50:00","4","55.990122","8.353906","5.18","STAUNING, DA","FM-15","EKVJ ","V020","100,1,N,0041,1","00150,1,C,N","002000,1,N,1","+0020,1","+0020,1","99999,9","07,5,+00150,1,99,9",,,"07,99,1,99,9,99,9,99999,9,99,9,99,9","09898,1,99999,9","10,1",,,,"MET054METAR EKVJ 260750Z 10008KT 2000 BR BKN005 02/02 Q0990;",
"06066099999","2010-02-26T08:50:00","4","55.990122","8.353906","5.18","STAUNING, DA","FM-15","EKVJ ","V020","100,1,N,0041,1","00900,1,C,N","003000,1,N,1","+0020,1","+0020,1","99999,9","04,5,+00150,1,99,9","07,5,+00900,1,99,9",,"07,99,1,99,9,99,9,99999,9,99,9,99,9","09898,1,99999,9","10,1","61,1",,,"MET065METAR EKVJ 260850Z 10008KT 3000 BR -RA SCT005 BKN030 02/02 Q0990;",
"06066099999","2010-02-26T09:50:00","4","55.990122","8.353906","5.18","STAUNING, DA","FM-15","EKVJ ","V020","100,1,N,0041,1","00900,1,C,N","003000,1,N,1","+0020,1","+0020,1","99999,9","04,5,+00150,1,99,9","07,5,+00900,1,99,9",,"07,99,1,99,9,99,9,99999,9,99,9,99,9","09898,1,99999,9","10,1",,,,"MET061METAR EKVJ 260950Z 10008KT 3000 BR SCT005 BKN030 02/02 Q0990;",
"06066099999","2010-02-26T10:50:00","4","55.990122","8.353906","5.18","STAUNING, DA","FM-15","EKVJ ","V020","100,1,N,0041,1","00600,1,C,N","005000,1,N,1","+0030,1","+0030,1","99999,9","02,5,+00150,1,99,9","07,5,+00600,1,99,9",,"07,99,1,99,9,99,9,99999,9,99,9,99,9","09898,1,99999,9",,,,,"MET058METAR EKVJ 261050Z 10008KT 5000 FEW005 BKN020 03/03 Q0990;",
"06066099999","2010-02-26T11:50:00","4","55.990122","8.353906","5.18","STAUNING, DA","FM-15","EKVJ ","V020","100,1,N,0041,1","00600,1,C,N","005000,1,N,1","+0030,1","+0030,1","99999,9","02,5,+00150,1,99,9","07,5,+00600,1,99,9",,"07,99,1,99,9,99,9,99999,9,99,9,99,9","09892,1,99999,9",,,,,"MET058METAR EKVJ 261150Z 10008KT 5000 FEW005 BKN020 03/03 Q0989;",
"06066099999","2010-02-26T12:50:00","4","55.990122","8.353906","5.18","STAUNING, DA","FM-15","EKVJ ","V020","110,1,N,0041,1","00600,1,C,N","006000,1,N,1","+0030,1","+0030,1","99999,9","04,5,+00240,1,99,9","07,5,+00600,1,99,9",,"07,99,1,99,9,99,9,99999,9,99,9,99,9","09892,1,99999,9",,,,,"MET058METAR EKVJ 261250Z 11008KT 6000 SCT008 BKN020 03/03 Q0989;",
"06066099999","2010-02-26T13:50:00","4","55.990122","8.353906","5.18","STAUNING, DA","FM-15","EKVJ ","V020","110,1,N,0041,1","00600,1,C,N","006000,1,N,1","+0030,1","+0030,1","99999,9","04,5,+00240,1,99,9","07,5,+00600,1,99,9",,"07,99,1,99,9,99,9,99999,9,99,9,99,9","09892,1,99999,9",,,,,"MET058METAR EKVJ 261350Z 11008KT 6000 SCT008 BKN020 03/03 Q0989;",
"06066099999","2010-02-26T14:50:00","4","55.990122","8.353906","5.18","STAUNING, DA","FM-15","EKVJ ","V020","110,1,N,0041,1","00300,1,C,N","006000,1,N,1","+0030,1","+0030,1","99999,9","07,5,+00300,1,99,9",,,"07,99,1,99,9,99,9,99999,9,99,9,99,9","09892,1,99999,9","61,1",,,,"MET055METAR EKVJ 261450Z 11008KT 6000 -RA BKN010 03/03 Q0989;",
"06066099999","2010-03-01T07:50:00","4","55.990122","8.353906","5.18","STAUNING, DA","FM-15","EKVJ ","V020","330,1,N,0062,1","00300,1,C,N","008000,1,N,1","+0010,1","-0010,1","99999,9","04,5,+00180,1,99,9","07,5,+00300,1,99,9",,"07,99,1,99,9,99,9,99999,9,99,9,99,9","09919,1,99999,9",,,,,"MET068METAR EKVJ 010750Z 33012KT 8000 SCT006 BKN010 01/M01 Q0992 27590395;",
"06066099999","2010-03-01T08:50:00","4","55.990122","8.353906","5.18","STAUNING, DA","FM-15","EKVJ ","V020","330,1,N,0051,1","00300,1,C,N","011265,1,N,1","+0010,1","-0010,1","99999,9","04,5,+00180,1,99,9","07,5,+00300,1,99,9",,"07,99,1,99,9,99,9,99999,9,99,9,99,9","09959,1,99999,9",,,,,"MET059METAR EKVJ 010850Z 33010KT 9999 SCT006 BKN010 01/M01 Q0996;",
"06066099999","2010-03-01T09:50:00","4","55.990122","8.353906","5.18","STAUNING, DA","FM-15","EKVJ ","V020","310,1,N,0041,1","06000,1,C,N","011265,1,N,1","+0020,1","-0020,1","99999,9","02,5,+00600,1,99,9","07,5,+06000,1,99,9",,"07,99,1,99,9,99,9,99999,9,99,9,99,9","09970,1,99999,9",,,,,"MET059METAR EKVJ 010950Z 31008KT 9999 FEW020 BKN200 02/M02 Q0997;",
"06066099999","2010-03-01T10:50:00","4","55.990122","8.353906","5.18","STAUNING, DA","FM-15","EKVJ ","V020","300,1,N,0051,1","06000,1,C,N","011265,1,N,1","+0020,1","+0010,1","99999,9","02,5,+00600,1,99,9","07,5,+06000,1,99,9",,"07,99,1,99,9,99,9,99999,9,99,9,99,9","09980,1,99999,9",,,,,"MET058METAR EKVJ 011050Z 30010KT 9999 FEW020 BKN200 02/01 Q0998;",
"06066099999","2010-03-01T11:50:00","4","55.990122","8.353906","5.18","STAUNING, DA","FM-15","EKVJ ","V020","300,1,N,0062,1","06000,1,C,N","011265,1,N,1","+0020,1","+0010,1","99999,9","02,5,+00600,1,99,9","07,5,+06000,1,99,9",,"07,99,1,99,9,99,9,99999,9,99,9,99,9","09980,1,99999,9",,,,,"MET058METAR EKVJ 011150Z 30012KT 9999 FEW020 BKN200 02/01 Q0998;",
"06066099999","2010-03-01T12:50:00","4","55.990122","8.353906","5.18","STAUNING, DA","FM-15","EKVJ ","V020","320,1,N,0072,1","06000,1,C,N","011265,1,N,1","+0030,1","+0010,1","99999,9","02,5,+00600,1,99,9","07,5,+06000,1,99,9",,"07,99,1,99,9,99,9,99999,9,99,9,99,9","09990,1,99999,9",,,,,"MET058METAR EKVJ 011250Z 32014KT 9999 FEW020 BKN200 03/01 Q0999;",
"06066099999","2010-03-01T13:50:00","4","55.990122","8.353906","5.18","STAUNING, DA","FM-15","EKVJ ","V020","300,1,N,0062,1","99999,9,C,N","011265,1,N,1","+0030,1","+0010,1","99999,9","02,5,+00600,1,99,9","04,5,+06000,1,99,9",,"04,99,1,99,9,99,9,99999,9,99,9,99,9","10010,1,99999,9",,,,,"MET058METAR EKVJ 011350Z 30012KT 9999 FEW020 SCT200 03/01 Q1001;","P01 060003SCOCIG"
"06066099999","2010-03-01T14:50:00","4","55.990122","8.353906","5.18","STAUNING, DA","FM-15","EKVJ ","V020","300,1,N,0072,1","99999,9,C,N","011265,1,N,1","+0030,1","+0010,1","99999,9","02,5,+00600,1,99,9","04,5,+06000,1,99,9",,"04,99,1,99,9,99,9,99999,9,99,9,99,9","10020,1,99999,9",,,,,"MET058METAR EKVJ 011450Z 30014KT 9999 FEW020 SCT200 03/01 Q1002;","P01 060003SCOCIG"
"06066099999","2010-03-02T07:20:00","4","55.990122","8.353906","5.18","STAUNING, DA","FM-15","EKVJ ","V020","260,1,N,0051,1","99999,9,9,Y","009900,1,N,1","+0000,1","-0010,1","99999,9",,,,,"10102,1,99999,9",,,,,"MET046METAR EKVJ 020720Z 26010KT CAVOK 00/M01 Q1010;",
"06066099999","2010-03-02T07:50:00","4","55.990122","8.353906","5.18","STAUNING, DA","FM-15","EKVJ ","V020","260,1,N,0051,1","22000,1,9,N","011265,1,N,1","+0000,1","-0010,1","99999,9","04,5,+00720,1,99,9",,,"04,99,1,99,9,99,9,99999,9,99,9,99,9","10102,1,99999,9",,,,,"MET061METAR EKVJ 020750Z 26010KT 9999 SCT024 00/M01 Q1010 27390295;",
"06066099999","2010-03-02T08:50:00","4","55.990122","8.353906","5.18","STAUNING, DA","FM-15","EKVJ ","V020","260,1,N,0051,1","22000,1,9,N","011265,1,N,1","+0000,1","-0010,1","99999,9","04,5,+00720,1,99,9",,,"04,99,1,99,9,99,9,99999,9,99,9,99,9","10102,1,99999,9",,,,,"MET052METAR EKVJ 020850Z 26010KT 9999 SCT024 00/M01 Q1010;",
"06066099999","2010-03-02T10:20:00","4","55.990122","8.353906","5.18","STAUNING, DA","FM-15","EKVJ ","V020","260,1,N,0062,1","00300,1,C,N","002000,1,N,1","+0000,1","-0010,1","99999,9","07,5,+00300,1,99,9",,,"07,99,1,99,9,99,9,99999,9,99,9,99,9","10108,1,99999,9","86,5",,,,"MET057METAR EKVJ 021020Z 26012KT 2000 SHSN BKN010 00/M01 Q1011;",
"06066099999","2010-03-02T10:50:00","4","55.990122","8.353906","5.18","STAUNING, DA","FM-15","EKVJ ","V020","260,1,N,0062,1","00300,1,C,N","011265,1,N,1","+0020,1","+0010,1","99999,9","07,5,+00300,1,99,9",,,"07,99,1,99,9,99,9,99999,9,99,9,99,9","10119,1,99999,9",,,,,"MET051METAR EKVJ 021050Z 26012KT 9999 BKN010 02/01 Q1012;",
"06066099999","2010-03-02T11:50:00","4","55.990122","8.353906","5.18","STAUNING, DA","FM-15","EKVJ ","V020","300,1,N,0062,1","00300,1,C,N","011265,1,N,1","+0020,1","+0010,1","99999,9","07,5,+00300,1,99,9",,,"07,99,1,99,9,99,9,99999,9,99,9,99,9","10119,1,99999,9",,,,,"MET051METAR EKVJ 021150Z 30012KT 9999 BKN010 02/01 Q1012;",
"06066099999","2010-03-02T12:50:00","4","55.990122","8.353906","5.18","STAUNING, DA","FM-15","EKVJ ","V020","360,1,N,0041,1","22000,1,9,N","011265,1,N,1","+0020,1","+0010,1","99999,9","04,5,+00300,1,99,9",,,"04,99,1,99,9,99,9,99999,9,99,9,99,9","10119,1,99999,9",,,,,"MET051METAR EKVJ 021250Z 36008KT 9999 SCT010 02/01 Q1012;",
"06066099999","2010-03-02T13:50:00","4","55.990122","8.353906","5.18","STAUNING, DA","FM-15","EKVJ ","V020","300,1,N,0041,1","22000,1,9,N","011265,1,N,1","+0020,1","+0010,1","99999,9","02,5,+00300,1,99,9",,,"02,99,1,99,9,99,9,99999,9,99,9,99,9","10119,1,99999,9",,,,,"MET051METAR EKVJ 021350Z 30008KT 9999 FEW010 02/01 Q1012;",
"06066099999","2010-03-02T14:50:00","4","55.990122","8.353906","5.18","STAUNING, DA","FM-15","EKVJ ","V020","300,1,N,0041,1","22000,1,9,N","011265,1,N,1","+0020,1","+0010,1","99999,9","02,5,+00300,1,99,9",,,"02,99,1,99,9,99,9,99999,9,99,9,99,9","10119,1,99999,9",,,,,"MET051METAR EKVJ 021450Z 30008KT 9999 FEW010 02/01 Q1012;",
"06066099999","2010-03-03T07:20:00","4","55.990122","8.353906","5.18","STAUNING, DA","FM-15","EKVJ ","V020","310,1,N,0051,1","99999,9,9,Y","009900,1,N,1","-0010,1","-0020,1","99999,9",,,,,"10180,1,99999,9",,,,,"MET047METAR EKVJ 030720Z 31010KT CAVOK M01/M02 Q1018;",
"06066099999","2010-03-03T07:50:00","4","55.990122","8.353906","5.18","STAUNING, DA","FM-15","EKVJ ","V020","310,1,N,0051,1","22000,1,9,N","011265,1,N,1","+0010,1","+0000,1","99999,9","04,5,+00450,1,99,9",,,"04,99,1,99,9,99,9,99999,9,99,9,99,9","10180,1,99999,9",,,,,"MET051METAR EKVJ 030750Z 31010KT 9999 SCT015 01/00 Q1018;",
"06066099999","2010-03-03T08:50:00","4","55.990122","8.353906","5.18","STAUNING, DA","FM-15","EKVJ ","V020","310,1,N,0041,1","22000,1,9,N","011265,1,N,1","+0010,1","+0000,1","99999,9","04,5,+00540,1,99,9",,,"04,99,1,99,9,99,9,99999,9,99,9,99,9","10180,1,99999,9",,,,,"MET051METAR EKVJ 030850Z 31008KT 9999 SCT018 01/00 Q1018;",
"06066099999","2010-03-03T10:20:00","4","55.990122","8.353906","5.18","STAUNING, DA","FM-15","EKVJ ","V020","310,1,N,0041,1","22000,1,9,N","011265,1,N,1","+0020,1","+0000,1","99999,9","02,5,+00540,1,99,9",,,"02,99,1,99,9,99,9,99999,9,99,9,99,9","10180,1,99999,9",,,,,"MET051METAR EKVJ 031020Z 31008KT 9999 FEW018 02/00 Q1018;",
"06066099999","2010-03-03T10:50:00","4","55.990122","8.353906","5.18","STAUNING, DA","FM-15","EKVJ ","V020","310,1,N,0041,1","22000,1,9,N","011265,1,N,1","+0020,1","+0000,1","99999,9","02,5,+00600,1,99,9",,,"02,99,1,99,9,99,9,99999,9,99,9,99,9","10180,1,99999,9",,,,,"MET051METAR EKVJ 031050Z 31008KT 9999 FEW020 02/00 Q1018;",
"06066099999","2010-03-03T11:50:00","4","55.990122","8.353906","5.18","STAUNING, DA","FM-15","EKVJ ","V020","310,1,N,0041,1","22000,1,9,N","011265,1,N,1","+0020,1","+0000,1","99999,9","02,5,+00600,1,99,9",,,"02,99,1,99,9,99,9,99999,9,99,9,99,9","10180,1,99999,9",,,,,"MET051METAR EKVJ 031150Z 31008KT 9999 FEW020 02/00 Q1018;",
"06066099999","2010-03-03T12:50:00","4","55.990122","8.353906","5.18","STAUNING, DA","FM-15","EKVJ ","V020","290,1,N,0051,1","22000,1,9,N","011265,1,N,1","+0020,1","+0000,1","99999,9","04,5,+00600,1,99,9",,,"04,99,1,99,9,99,9,99999,9,99,9,99,9","10190,1,99999,9",,,,,"MET051METAR EKVJ 031250Z 29010KT 9999 SCT020 02/00 Q1019;",
"06066099999","2010-03-03T13:50:00","4","55.990122","8.353906","5.18","STAUNING, DA","FM-15","EKVJ ","V020","290,1,N,0051,1","00600,1,C,N","011265,1,N,1","+0020,1","+0000,1","99999,9","07,5,+00600,1,99,9",,,"07,99,1,99,9,99,9,99999,9,99,9,99,9","10190,1,99999,9",,,,,"MET051METAR EKVJ 031350Z 29010KT 9999 BKN020 02/00 Q1019;",
"06066099999","2010-03-03T14:50:00","4","55.990122","8.353906","5.18","STAUNING, DA","FM-15","EKVJ ","V020","290,1,N,0051,1","00600,1,C,N","011265,1,N,1","+0020,1","+0000,1","99999,9","07,5,+00600,1,99,9",,,"07,99,1,99,9,99,9,99999,9,99,9,99,9","10190,1,99999,9",,,,,"MET051METAR EKVJ 031450Z 29010KT 9999 BKN020 02/00 Q1019;",
"06066099999","2010-03-04T07:20:00","4","55.990122","8.353906","5.18","STAUNING, DA","FM-15","EKVJ ","V020","320,1,N,0021,1","99999,9,9,Y","009900,1,N,1","-0030,1","-0070,1","99999,9",,,,,"10190,1,99999,9",,,,,"MET047METAR EKVJ 040720Z 32004KT CAVOK M03/M07 Q1019;",
"06066099999","2010-03-04T07:50:00","4","55.990122","8.353906","5.18","STAUNING, DA","FM-15","EKVJ ","V020","320,1,N,0021,1","99999,9,9,Y","009900,1,N,1","-0030,1","-0070,1","99999,9",,,,,"10190,1,99999,9",,,,,"MET056METAR EKVJ 040750Z 32004KT CAVOK M03/M07 Q1019 27490295;",
"06066099999","2010-03-04T10:20:00","4","55.990122","8.353906","5.18","STAUNING, DA","FM-15","EKVJ ","V020","320,1,N,0021,1","99999,9,9,Y","009900,1,N,1","+0000,1","-0010,1","99999,9",,,,,"10200,1,99999,9",,,,,"MET046METAR EKVJ 041020Z 32004KT CAVOK 00/M01 Q1020;",
"06066099999","2010-03-04T11:20:00","4","55.990122","8.353906","5.18","STAUNING, DA","FM-15","EKVJ ","V020","320,1,N,0021,1","99999,9,9,Y","009900,1,N,1","+0000,1","-0010,1","99999,9",,,,,"10210,1,99999,9",,,,,"MET046METAR EKVJ 041120Z 32004KT CAVOK 00/M01 Q1021;",
"06066099999","2010-03-04T11:50:00","4","55.990122","8.353906","5.18","STAUNING, DA","FM-15","EKVJ ","V020","330,1,N,0041,1","99999,9,9,Y","009900,1,N,1","+0010,1","+0000,1","99999,9",,,,,"10210,1,99999,9",,,,,"MET046METAR EKVJ 041150Z 33008KT CAVOK 01/M00 Q1021;",
"06066099999","2010-03-04T12:50:00","4","55.990122","8.353906","5.18","STAUNING, DA","FM-15","EKVJ ","V020","330,1,N,0041,1","99999,9,9,Y","009900,1,N,1","+0010,1","+0000,1","99999,9",,,,,"10210,1,99999,9",,,,,"MET046METAR EKVJ 041250Z 33008KT CAVOK 01/M00 Q1021;",
"06066099999","2010-03-04T13:50:00","4","55.990122","8.353906","5.18","STAUNING, DA","FM-15","EKVJ ","V020","360,1,N,0062,1","22000,1,9,N","011265,1,N,1","+0020,1","+0010,1","99999,9","02,5,+00900,1,99,9",,,"02,99,1,99,9,99,9,99999,9,99,9,99,9","10210,1,99999,9",,,,,"MET051METAR EKVJ 041350Z 36012KT 9999 FEW030 02/01 Q1021;",
"06066099999","2010-03-04T14:50:00","4","55.990122","8.353906","5.18","STAUNING, DA","FM-15","EKVJ ","V020","030,1,N,0062,1","99999,9,9,Y","009900,1,N,1","+0020,1","+0010,1","99999,9",,,,,"10210,1,99999,9",,,,,"MET045METAR EKVJ 041450Z 03012KT CAVOK 02/01 Q1021;",
"06066099999","2010-03-05T07:20:00","4","55.990122","8.353906","5.18","STAUNING, DA","FM-15","EKVJ ","V020","999,9,C,0000,1","99999,9,9,Y","009900,1,N,1","-0040,1","-0040,1","99999,9",,,,,"10230,1,99999,9",,,,,"MET047METAR EKVJ 050720Z 00000KT CAVOK M04/M04 Q1023;",
"06066099999","2010-03-05T07:50:00","4","55.990122","8.353906","5.18","STAUNING, DA","FM-15","EKVJ ","V020","330,1,N,0015,1","99999,9,9,Y","009900,1,N,1","-0030,1","-0030,1","99999,9",,,,,"10220,1,99999,9",,,,,"MET047METAR EKVJ 050750Z 33003KT CAVOK M03/M03 Q1022;",
"06066099999","2010-03-05T08:50:00","4","55.990122","8.353906","5.18","STAUNING, DA","FM-15","EKVJ ","V020","330,1,N,0015,1","99999,9,9,Y","009900,1,N,1","-0020,1","-0020,1","99999,9",,,,,"10210,1,99999,9",,,,,"MET047METAR EKVJ 050850Z 33003KT CAVOK M02/M02 Q1021;",
"06066099999","2010-03-05T09:50:00","4","55.990122","8.353906","5.18","STAUNING, DA","FM-15","EKVJ ","V020","110,1,N,0015,1","99999,9,9,Y","009900,1,N,1","+0000,1","+0000,1","99999,9",,,,,"10210,1,99999,9",,,,,"MET046METAR EKVJ 050950Z 11003KT CAVOK 00/M00 Q1021;",
"06066099999","2010-03-05T10:50:00","4","55.990122","8.353906","5.18","STAUNING, DA","FM-15","EKVJ ","V020","120,1,N,0021,1","06000,1,C,N","011265,1,N,1","+0010,1","+0000,1","99999,9","02,5,+00750,1,99,9","07,5,+06000,1,99,9",,"07,99,1,99,9,99,9,99999,9,99,9,99,9","10200,1,99999,9",,,,,"MET058METAR EKVJ 051050Z 12004KT 9999 FEW025 BKN200 01/00 Q1020;",
"06066099999","2010-03-05T11:50:00","4","55.990122","8.353906","5.18","STAUNING, DA","FM-15","EKVJ ","V020","160,1,N,0031,1","06000,1,C,N","011265,1,N,1","+0020,1","+0010,1","99999,9","04,5,+00750,1,99,9","07,5,+06000,1,99,9",,"07,99,1,99,9,99,9,99999,9,99,9,99,9","10190,1,99999,9",,,,,"MET058METAR EKVJ 051150Z 16006KT 9999 SCT025 BKN200 02/01 Q1019;",
"06066099999","2010-03-05T12:50:00","4","55.990122","8.353906","5.18","STAUNING, DA","FM-15","EKVJ ","V020","180,1,N,0051,1","00300,1,C,N","003000,1,N,1","+0020,1","+0010,1","99999,9","07,5,+00300,1,99,9",,,"07,99,1,99,9,99,9,99999,9,99,9,99,9","10169,1,99999,9","71,1",,,,"MET055METAR EKVJ 051250Z 18010KT 3000 -SN BKN010 02/01 Q1017;",
"06066099999","2010-03-05T13:50:00","4","55.990122","8.353906","5.18","STAUNING, DA","FM-15","EKVJ ","V020","180,1,N,0051,1","00150,1,C,N","001000,1,N,1","+0000,1","+0000,1","99999,9","07,5,+00150,1,99,9",,,"07,99,1,99,9,99,9,99999,9,99,9,99,9","10149,1,99999,9","10,1","71,1",,,"MET059METAR EKVJ 051350Z 18010KT 1000 -SN BR BKN005 00/M00 Q1015;",
"06066099999","2010-03-05T14:50:00","4","55.990122","8.353906","5.18","STAUNING, DA","FM-15","EKVJ ","V020","190,1,N,0051,1","00150,1,C,N","001000,1,N,1","+0000,1","+0000,1","99999,9","07,5,+00150,1,99,9",,,"07,99,1,99,9,99,9,99999,9,99,9,99,9","10139,1,99999,9","10,1","73,1",,,"MET058METAR EKVJ 051450Z 19010KT 1000 SN BR BKN005 00/M00 Q1014;",
"06066099999","2010-03-08T07:20:00","4","55.990122","8.353906","5.18","STAUNING, DA","FM-15","EKVJ ","V020","999,9,C,0000,1","00150,1,C,N","005000,1,N,1","-0010,1","-0020,1","99999,9","07,5,+00150,1,99,9","07,5,+00180,1,99,9",,"07,99,1,99,9,99,9,99999,9,99,9,99,9","10291,1,99999,9","10,1",,,,"MET063METAR EKVJ 080720Z 00000KT 5000 BR BKN005 BKN006 M01/M02 Q1029;",
"06066099999","2010-03-08T07:50:00","4","55.990122","8.353906","5.18","STAUNING, DA","FM-15","EKVJ ","V020","999,9,C,0000,1","00150,1,C,N","005000,1,N,1","-0010,1","-0020,1","99999,9","07,5,+00150,1,99,9","07,5,+00180,1,99,9",,"07,99,1,99,9,99,9,99999,9,99,9,99,9","10291,1,99999,9","10,1",,,,"MET063METAR EKVJ 080750Z 00000KT 5000 BR BKN005 BKN006 M01/M02 Q1029;",
"06066099999","2010-03-08T08:50:00","4","55.990122","8.353906","5.18","STAUNING, DA","FM-15","EKVJ ","V020","999,9,C,0000,1","00150,1,C,N","005000,1,N,1","+0000,1","-0010,1","99999,9","07,5,+00150,1,99,9","07,5,+00180,1,99,9",,"07,99,1,99,9,99,9,99999,9,99,9,99,9","10291,1,99999,9","10,1",,,,"MET063METAR EKVJ 080850Z 00000KT 5000 BR BKN005 BKN006 M00/M01 Q1029;",
"06066099999","2010-03-08T09:50:00","4","55.990122","8.353906","5.18","STAUNING, DA","FM-15","EKVJ ","V020","210,1,N,0031,1","00150,1,C,N","007000,1,N,1","+0010,1","+0000,1","99999,9","07,5,+00150,1,99,9","07,5,+00180,1,99,9",,"07,99,1,99,9,99,9,99999,9,99,9,99,9","10291,1,99999,9","10,1",,,,"MET062METAR EKVJ 080950Z 21006KT 7000 BR BKN005 BKN006 01/M00 Q1029;",
"06066099999","2010-03-08T10:50:00","4","55.990122","8.353906","5.18","STAUNING, DA","FM-15","EKVJ ","V020","210,1,N,0031,1","00150,1,C,N","006000,1,N,1","+0000,1","+0000,1","99999,9","07,5,+00150,1,99,9","07,5,+00180,1,99,9",,"07,99,1,99,9,99,9,99999,9,99,9,99,9","10301,1,99999,9",,,,,"MET059METAR EKVJ 081050Z 21006KT 6000 BKN005 BKN006 00/M00 Q1030;",
"06066099999","2010-03-08T11:50:00","4","55.990122","8.353906","5.18","STAUNING, DA","FM-15","EKVJ ","V020","210,1,N,0031,1","00120,1,C,N","004000,1,N,1","+0000,1","+0000,1","99999,9","07,5,+00120,1,99,9","07,5,+00150,1,99,9",,"07,99,1,99,9,99,9,99999,9,99,9,99,9","10301,1,99999,9",,,,,"MET059METAR EKVJ 081150Z 21006KT 4000 BKN004 BKN005 00/M00 Q1030;",
"06066099999","2010-03-08T12:50:00","4","55.990122","8.353906","5.18","STAUNING, DA","FM-15","EKVJ ","V020","210,1,N,0031,1","00120,1,C,N","004000,1,N,1","+0000,1","+0000,1","99999,9","07,5,+00120,1,99,9","07,5,+00150,1,99,9",,"07,99,1,99,9,99,9,99999,9,99,9,99,9","10301,1,99999,9",,,,,"MET059METAR EKVJ 081250Z 21006KT 4000 BKN004 BKN005 00/M00 Q1030;",
"06066099999","2010-03-08T13:20:00","4","55.990122","8.353906","5.18","STAUNING, DA","FM-15","EKVJ ","V020","210,1,N,0031,1","00120,1,C,N","002000,1,N,1","+0000,1","+0000,1","99999,9","07,5,+00120,1,99,9","07,5,+00150,1,99,9",,"07,99,1,99,9,99,9,99999,9,99,9,99,9","10301,1,99999,9","10,1",,,,"MET062METAR EKVJ 081320Z 21006KT 2000 BR BKN004 BKN005 00/M00 Q1030;",
"06066099999","2010-03-08T13:50:00","4","55.990122","8.353906","5.18","STAUNING, DA","FM-15","EKVJ ","V020","210,1,N,0031,1","00120,1,C,N","001800,1,N,1","+0000,1","+0000,1","99999,9","07,5,+00120,1,99,9","07,5,+00150,1,99,9",,"07,99,1,99,9,99,9,99999,9,99,9,99,9","10301,1,99999,9","10,1",,,,"MET062METAR EKVJ 081350Z 21006KT 1800 BR BKN004 BKN005 00/M00 Q1030;",
"06066099999","2010-03-09T07:20:00","4","55.990122","8.353906","5.18","STAUNING, DA","FM-15","EKVJ ","V020","180,1,N,0015,1","00090,1,C,N","001500,1,N,1","+0000,1","+0000,1","99999,9","07,5,+00090,1,99,9","07,5,+00120,1,99,9",,"07,99,1,99,9,99,9,99999,9,99,9,99,9","10281,1,99999,9","10,1",,,,"MET062METAR EKVJ 090720Z 18003KT 1500 BR BKN003 BKN004 00/M00 Q1028;",
"06066099999","2010-03-09T07:50:00","4","55.990122","8.353906","5.18","STAUNING, DA","FM-15","EKVJ ","V020","180,1,N,0015,1","00090,1,C,N","002500,1,N,1","+0000,1","+0000,1","99999,9","07,5,+00090,1,99,9","07,5,+00120,1,99,9",,"07,99,1,99,9,99,9,99999,9,99,9,99,9","10281,1,99999,9","10,1",,,,"MET062METAR EKVJ 090750Z 18003KT 2500 BR BKN003 BKN004 00/M00 Q1028;",
"06066099999","2010-03-09T08:50:00","4","55.990122","8.353906","5.18","STAUNING, DA","FM-15","EKVJ ","V020","170,1,N,0015,1","00090,1,C,N","003000,1,N,1","+0000,1","+0000,1","99999,9","07,5,+00090,1,99,9","07,5,+00120,1,99,9",,"07,99,1,99,9,99,9,99999,9,99,9,99,9","10291,1,99999,9","10,1",,,,"MET062METAR EKVJ 090850Z 17003KT 3000 BR BKN003 BKN004 00/M00 Q1029;",
"06066099999","2010-03-09T10:50:00","4","55.990122","8.353906","5.18","STAUNING, DA","FM-15","EKVJ ","V020","160,1,N,0015,1","00210,1,C,N","007000,1,N,1","+0010,1","+0010,1","99999,9","07,5,+00210,1,99,9","07,5,+00240,1,99,9",,"07,99,1,99,9,99,9,99999,9,99,9,99,9","10301,1,99999,9",,,,,"MET058METAR EKVJ 091050Z 16003KT 7000 BKN007 BKN008 01/01 Q1030;",
"06066099999","2010-03-09T11:50:00","4","55.990122","8.353906","5.18","STAUNING, DA","FM-15","EKVJ ","V020","160,1,N,0015,1","00210,1,C,N","008000,1,N,1","+0010,1","+0010,1","99999,9","07,5,+00210,1,99,9","07,5,+00240,1,99,9",,"07,99,1,99,9,99,9,99999,9,99,9,99,9","10301,1,99999,9",,,,,"MET058METAR EKVJ 091150Z 16003KT 8000 BKN007 BKN008 01/01 Q1030;",
"06066099999","2010-03-09T12:50:00","4","55.990122","8.353906","5.18","STAUNING, DA","FM-15","EKVJ ","V020","200,1,N,0015,1","00240,1,C,N","011265,1,N,1","+0020,1","+0010,1","99999,9","04,5,+00210,1,99,9","07,5,+00240,1,99,9",,"07,99,1,99,9,99,9,99999,9,99,9,99,9","10312,1,99999,9",,,,,"MET058METAR EKVJ 091250Z 20003KT 9999 SCT007 BKN008 02/01 Q1031;",
"06066099999","2010-03-09T13:50:00","4","55.990122","8.353906","5.18","STAUNING, DA","FM-15","EKVJ ","V020","999,9,C,0000,1","00240,1,C,N","011265,1,N,1","+0020,1","+0010,1","99999,9","04,5,+00210,1,99,9","07,5,+00240,1,99,9",,"07,99,1,99,9,99,9,99999,9,99,9,99,9","10301,1,99999,9",,,,,"MET058METAR EKVJ 091350Z 00000KT 9999 SCT007 BKN008 02/01 Q1030;",
"06066099999","2010-03-09T14:50:00","4","55.990122","8.353906","5.18","STAUNING, DA","FM-15","EKVJ ","V020","999,9,C,0000,1","00240,1,C,N","011265,1,N,1","+0020,1","+0010,1","99999,9","04,5,+00210,1,99,9","07,5,+00240,1,99,9",,"07,99,1,99,9,99,9,99999,9,99,9,99,9","10301,1,99999,9",,,,,"MET058METAR EKVJ 091450Z 00000KT 9999 SCT007 BKN008 02/01 Q1030;",
"06066099999","2010-03-10T07:20:00","4","55.990122","8.353906","5.18","STAUNING, DA","FM-15","EKVJ ","V020","280,1,N,0015,1","00090,1,9,N","001000,1,N,1","-0020,1","-0020,1","99999,9","09,1,+00090,1,99,9",,,"09,99,1,99,9,99,9,00025,1,99,9,99,9","10312,1,99999,9","10,1",,,,"MET055METAR EKVJ 100720Z 28003KT 1000 BR VV003 M02/M02 Q1031;",
"06066099999","2010-03-10T07:50:00","4","55.990122","8.353906","5.18","STAUNING, DA","FM-15","EKVJ ","V020","270,1,N,0015,1","00090,1,9,N","001000,1,N,1","-0020,1","-0020,1","99999,9","09,1,+00090,1,99,9",,,"09,99,1,99,9,99,9,00025,1,99,9,99,9","10312,1,99999,9","10,1",,,,"MET055METAR EKVJ 100750Z 27003KT 1000 BR VV003 M02/M02 Q1031;",
"06066099999","2010-03-10T08:20:00","4","55.990122","8.353906","5.18","STAUNING, DA","FM-15","EKVJ ","V020","270,1,N,0015,1","00090,1,9,N","001000,1,N,1","-0020,1","-0020,1","99999,9","09,1,+00090,1,99,9",,,"09,99,1,99,9,99,9,00025,1,99,9,99,9","10312,1,99999,9","10,1",,,,"MET055METAR EKVJ 100820Z 27003KT 1000 BR VV003 M02/M02 Q1031;",
"06066099999","2010-03-10T09:20:00","4","55.990122","8.353906","5.18","STAUNING, DA","FM-15","EKVJ ","V020","240,1,N,0031,1","00090,1,9,N","001000,1,N,1","-0020,1","-0020,1","99999,9","09,1,+00090,1,99,9",,,"09,99,1,99,9,99,9,00025,1,99,9,99,9","10312,1,99999,9","10,1",,,,"MET055METAR EKVJ 100920Z 24006KT 1000 BR VV003 M02/M02 Q1031;",
"06066099999","2010-03-10T09:50:00","4","55.990122","8.353906","5.18","STAUNING, DA","FM-15","EKVJ ","V020","240,1,N,0031,1","00090,1,9,N","001000,1,N,1","+0000,1","+0000,1","99999,9","09,1,+00090,1,99,9",,,"09,99,1,99,9,99,9,00025,1,99,9,99,9","10312,1,99999,9","10,1",,,,"MET053METAR EKVJ 100950Z 24006KT 1000 BR VV003 00/00 Q1031;",
"06066099999","2010-03-10T10:50:00","4","55.990122","8.353906","5.18","STAUNING, DA","FM-15","EKVJ ","V020","240,1,N,0031,1","00090,1,9,N","002000,1,N,1","+0010,1","+0010,1","99999,9","09,1,+00090,1,99,9",,,"09,99,1,99,9,99,9,00025,1,99,9,99,9","10312,1,99999,9","10,1",,,,"MET053METAR EKVJ 101050Z 24006KT 2000 BR VV003 01/01 Q1031;",
"06066099999","2010-03-10T11:50:00","4","55.990122","8.353906","5.18","STAUNING, DA","FM-15","EKVJ ","V020","260,1,N,0031,1","00090,1,C,N","003000,1,N,1","+0020,1","+0020,1","99999,9","07,5,+00090,1,99,9",,,"07,99,1,99,9,99,9,99999,9,99,9,99,9","10312,1,99999,9","10,1",,,,"MET054METAR EKVJ 101150Z 26006KT 3000 BR BKN003 02/02 Q1031;",
"06066099999","2010-03-10T12:50:00","4","55.990122","8.353906","5.18","STAUNING, DA","FM-15","EKVJ ","V020","300,1,N,0041,1","00150,1,C,N","011265,1,N,1","+0030,1","+0030,1","99999,9","07,5,+00150,1,99,9",,,"07,99,1,99,9,99,9,99999,9,99,9,99,9","10301,1,99999,9",,,,,"MET051METAR EKVJ 101250Z 30008KT 9999 BKN005 03/03 Q1030;",
"06066099999","2010-03-10T13:50:00","4","55.990122","8.353906","5.18","STAUNING, DA","FM-15","EKVJ ","V020","300,1,N,0041,1","00180,1,C,N","011265,1,N,1","+0040,1","+0030,1","99999,9","07,5,+00180,1,99,9",,,"07,99,1,99,9,99,9,99999,9,99,9,99,9","10301,1,99999,9",,,,,"MET051METAR EKVJ 101350Z 30008KT 9999 BKN006 04/03 Q1030;",
"06066099999","2010-03-10T14:50:00","4","55.990122","8.353906","5.18","STAUNING, DA","FM-15","EKVJ ","V020","290,1,N,0041,1","00300,1,C,N","011265,1,N,1","+0040,1","+0030,1","99999,9","07,5,+00300,1,99,9",,,"07,99,1,99,9,99,9,99999,9,99,9,99,9","10291,1,99999,9",,,,,"MET051METAR EKVJ 101450Z 29008KT 9999 BKN010 04/03 Q1029;",
"06066099999","2010-03-11T07:20:00","4","55.990122","8.353906","5.18","STAUNING, DA","FM-15","EKVJ ","V020","310,1,N,0031,1","00090,1,C,N","002500,1,N,1","+0030,1","+0030,1","99999,9","07,5,+00090,1,99,9",,,"07,99,1,99,9,99,9,99999,9,99,9,99,9","10200,1,99999,9","10,1",,,,"MET054METAR EKVJ 110720Z 31006KT 2500 BR BKN003 03/03 Q1020;",
"06066099999","2010-03-11T07:50:00","4","55.990122","8.353906","5.18","STAUNING, DA","FM-15","EKVJ ","V020","300,1,N,0031,1","00060,1,9,N","000800,1,N,1","+0030,1","+0030,1","99999,9","09,1,+00060,1,99,9",,,"09,99,1,99,9,99,9,00025,1,99,9,99,9","10200,1,99999,9","10,1",,,,"MET053METAR EKVJ 110750Z 30006KT 0800 BR VV002 03/03 Q1020;",
"06066099999","2010-03-11T08:20:00","4","55.990122","8.353906","5.18","STAUNING, DA","FM-15","EKVJ ","V020","300,1,N,0031,1","00060,1,9,N","000800,1,N,1","+0030,1","+0030,1","99999,9","09,1,+00060,1,99,9",,,"09,99,1,99,9,99,9,00025,1,99,9,99,9","10200,1,99999,9","45,1",,,,"MET053METAR EKVJ 110820Z 30006KT 0800 FG VV002 03/03 Q1020;",
"06066099999","2010-03-11T08:50:00","4","55.990122","8.353906","5.18","STAUNING, DA","FM-15","EKVJ ","V020","300,1,N,0031,1","00090,1,C,N","002500,1,N,1","+0030,1","+0030,1","99999,9","07,5,+00090,1,99,9",,,"07,99,1,99,9,99,9,99999,9,99,9,99,9","10200,1,99999,9","10,1",,,,"MET054METAR EKVJ 110850Z 30006KT 2500 BR BKN003 03/03 Q1020;",
"06066099999","2010-03-11T09:50:00","4","55.990122","8.353906","5.18","STAUNING, DA","FM-15","EKVJ ","V020","300,1,N,0041,1","00090,1,C,N","004000,1,N,1","+0030,1","+0030,1","99999,9","07,5,+00090,1,99,9",,,"07,99,1,99,9,99,9,99999,9,99,9,99,9","10190,1,99999,9","10,1",,,,"MET054METAR EKVJ 110950Z 30008KT 4000 BR BKN003 03/03 Q1019;",
"06066099999","2010-03-11T10:50:00","4","55.990122","8.353906","5.18","STAUNING, DA","FM-15","EKVJ ","V020","300,1,N,0041,1","00120,1,C,N","006000,1,N,1","+0030,1","+0030,1","99999,9","07,5,+00120,1,99,9",,,"07,99,1,99,9,99,9,99999,9,99,9,99,9","10190,1,99999,9",,,,,"MET051METAR EKVJ 111050Z 30008KT 6000 BKN004 03/03 Q1019;",
"06066099999","2010-03-11T11:50:00","4","55.990122","8.353906","5.18","STAUNING, DA","FM-15","EKVJ ","V020","300,1,N,0041,1","00300,1,C,N","008000,1,N,1","+0040,1","+0040,1","99999,9","04,5,+00150,1,99,9","07,5,+00300,1,99,9",,"07,99,1,99,9,99,9,99999,9,99,9,99,9","10180,1,99999,9",,,,,"MET058METAR EKVJ 111150Z 30008KT 8000 SCT005 BKN010 04/04 Q1018;",
"06066099999","2010-03-11T12:50:00","4","55.990122","8.353906","5.18","STAUNING, DA","FM-15","EKVJ ","V020","300,1,N,0041,1","00300,1,C,N","008000,1,N,1","+0040,1","+0040,1","99999,9","07,5,+00300,1,99,9",,,"07,99,1,99,9,99,9,99999,9,99,9,99,9","10169,1,99999,9",,,,,"MET051METAR EKVJ 111250Z 30008KT 8000 BKN010 04/04 Q1017;",
"06066099999","2010-03-11T13:50:00","4","55.990122","8.353906","5.18","STAUNING, DA","FM-15","EKVJ ","V020","280,1,N,0051,1","00180,1,C,N","008000,1,N,1","+0040,1","+0040,1","99999,9","07,5,+00180,1,99,9",,,"07,99,1,99,9,99,9,99999,9,99,9,99,9","10169,1,99999,9",,,,,"MET051METAR EKVJ 111350Z 28010KT 8000 BKN006 04/04 Q1017;",
"06066099999","2010-03-11T14:50:00","4","55.990122","8.353906","5.18","STAUNING, DA","FM-15","EKVJ ","V020","280,1,N,0051,1","00150,1,C,N","005000,1,N,1","+0040,1","+0040,1","99999,9","07,5,+00150,1,99,9",,,"07,99,1,99,9,99,9,99999,9,99,9,99,9","10159,1,99999,9","10,1",,,,"MET054METAR EKVJ 111450Z 28010KT 5000 BR BKN005 04/04 Q1016;",
"06066099999","2010-03-12T07:20:00","4","55.990122","8.353906","5.18","STAUNING, DA","FM-15","EKVJ ","V020","310,1,N,0031,1","00090,1,C,N","003000,1,N,1","+0030,1","+0030,1","99999,9","07,5,+00090,1,99,9",,,"07,99,1,99,9,99,9,99999,9,99,9,99,9","10108,1,99999,9","10,1",,,,"MET054METAR EKVJ 120720Z 31006KT 3000 BR BKN003 03/03 Q1011;",
"06066099999","2010-03-12T07:50:00","4","55.990122","8.353906","5.18","STAUNING, DA","FM-15","EKVJ ","V020","310,1,N,0031,1","00090,1,C,N","001200,1,N,1","+0030,1","+0030,1","99999,9","07,5,+00090,1,99,9",,,"07,99,1,99,9,99,9,99999,9,99,9,99,9","10108,1,99999,9","10,1",,,,"MET054METAR EKVJ 120750Z 31006KT 1200 BR BKN003 03/03 Q1011;",
"06066099999","2010-03-12T08:50:00","4","55.990122","8.353906","5.18","STAUNING, DA","FM-15","EKVJ ","V020","310,1,N,0031,1","00210,1,C,N","005000,1,N,1","+0040,1","+0030,1","99999,9","04,5,+00150,1,99,9","07,5,+00210,1,99,9",,"07,99,1,99,9,99,9,99999,9,99,9,99,9","10108,1,99999,9",,,,,"MET058METAR EKVJ 120850Z 31006KT 5000 SCT005 BKN007 04/03 Q1011;",
"06066099999","2010-03-12T09:50:00","4","55.990122","8.353906","5.18","STAUNING, DA","FM-15","EKVJ ","V020","310,1,N,0031,1","00210,1,C,N","005000,1,N,1","+0040,1","+0030,1","99999,9","04,5,+00150,1,99,9","07,5,+00210,1,99,9",,"07,99,1,99,9,99,9,99999,9,99,9,99,9","10108,1,99999,9",,,,,"MET058METAR EKVJ 120950Z 31006KT 5000 SCT005 BKN007 04/03 Q1011;",
"06066099999","2010-03-12T10:50:00","4","55.990122","8.353906","5.18","STAUNING, DA","FM-15","EKVJ ","V020","290,1,N,0062,1","22000,1,9,N","011265,1,N,1","+0050,1","+0030,1","99999,9","04,5,+00180,1,99,9",,,"04,99,1,99,9,99,9,99999,9,99,9,99,9","10119,1,99999,9",,,,,"MET051METAR EKVJ 121050Z 29012KT 9999 SCT006 05/03 Q1012;",
"06066099999","2010-03-12T11:50:00","4","55.990122","8.353906","5.18","STAUNING, DA","FM-15","EKVJ ","V020","290,1,N,0062,1","22000,1,9,N","011265,1,N,1","+0060,1","+0040,1","99999,9","02,5,+00180,1,99,9",,,"02,99,1,99,9,99,9,99999,9,99,9,99,9","10119,1,99999,9",,,,,"MET051METAR EKVJ 121150Z 29012KT 9999 FEW006 06/04 Q1012;",
"06066099999","2010-03-12T12:50:00","4","55.990122","8.353906","5.18","STAUNING, DA","FM-15","EKVJ ","V020","290,1,N,0062,1","22000,1,9,N","011265,1,N,1","+0060,1","+0040,1","99999,9","02,5,+00300,1,99,9",,,"02,99,1,99,9,99,9,99999,9,99,9,99,9","10119,1,99999,9",,,,,"MET051METAR EKVJ 121250Z 29012KT 9999 FEW010 06/04 Q1012;",
"06066099999","2010-03-12T14:50:00","4","55.990122","8.353906","5.18","STAUNING, DA","FM-15","EKVJ ","V020","290,1,N,0062,1","22000,1,9,N","011265,1,N,1","+0060,1","+0040,1","99999,9","02,5,+00300,1,99,9",,,"02,99,1,99,9,99,9,99999,9,99,9,99,9","10119,1,99999,9",,,,,"MET051METAR EKVJ 121450Z 29012KT 9999 FEW010 06/04 Q1012;",
"06066099999","2010-03-15T07:20:00","4","55.990122","8.353906","5.18","STAUNING, DA","FM-15","EKVJ ","V020","280,1,N,0041,1","99999,9,9,Y","009900,1,N,1","+0020,1","+0010,1","99999,9",,,,,"10149,1,99999,9",,,,,"MET045METAR EKVJ 150720Z 28008KT CAVOK 02/01 Q1015;",
"06066099999","2010-03-15T07:50:00","4","55.990122","8.353906","5.18","STAUNING, DA","FM-15","EKVJ ","V020","280,1,N,0062,1","22000,1,9,N","011265,1,N,1","+0030,1","+0020,1","99999,9","02,5,+00750,1,99,9",,,"02,99,1,99,9,99,9,99999,9,99,9,99,9","10149,1,99999,9",,,,,"MET051METAR EKVJ 150750Z 28012KT 9999 FEW025 03/02 Q1015;",
"06066099999","2010-03-15T08:50:00","4","55.990122","8.353906","5.18","STAUNING, DA","FM-15","EKVJ ","V020","290,1,N,0062,1","02100,1,C,N","011265,1,N,1","+0030,1","+0020,1","99999,9","02,5,+00750,1,99,9","07,5,+02100,1,99,9",,"07,99,1,99,9,99,9,99999,9,99,9,99,9","10149,1,99999,9",,,,,"MET058METAR EKVJ 150850Z 29012KT 9999 FEW025 BKN070 03/02 Q1015;",
"06066099999","2010-03-15T09:50:00","4","55.990122","8.353906","5.18","STAUNING, DA","FM-15","EKVJ ","V020","290,1,N,0062,1","06000,1,C,N","011265,1,N,1","+0030,1","+0020,1","99999,9","02,5,+00750,1,99,9","07,5,+06000,1,99,9",,"07,99,1,99,9,99,9,99999,9,99,9,99,9","10149,1,99999,9",,,,,"MET058METAR EKVJ 150950Z 29012KT 9999 FEW025 BKN200 03/02 Q1015;",
"06066099999","2010-03-15T10:50:00","4","55.990122","8.353906","5.18","STAUNING, DA","FM-15","EKVJ ","V020","290,1,N,0051,1","06000,1,C,N","011265,1,N,1","+0040,1","+0020,1","99999,9","02,5,+00750,1,99,9","07,5,+06000,1,99,9",,"07,99,1,99,9,99,9,99999,9,99,9,99,9","10149,1,99999,9",,,,,"MET058METAR EKVJ 151050Z 29010KT 9999 FEW025 BKN200 04/02 Q1015;",
"06066099999","2010-03-15T11:50:00","4","55.990122","8.353906","5.18","STAUNING, DA","FM-15","EKVJ ","V020","290,1,N,0051,1","06000,1,C,N","011265,1,N,1","+0040,1","+0020,1","99999,9","04,5,+00600,1,99,9","07,5,+06000,1,99,9",,"07,99,1,99,9,99,9,99999,9,99,9,99,9","10149,1,99999,9",,,,,"MET058METAR EKVJ 151150Z 29010KT 9999 SCT020 BKN200 04/02 Q1015;",
"06066099999","2010-03-15T12:50:00","4","55.990122","8.353906","5.18","STAUNING, DA","FM-15","EKVJ ","V020","290,1,N,0051,1","22000,1,9,N","011265,1,N,1","+0050,1","+0020,1","99999,9","04,5,+00750,1,99,9",,,"04,99,1,99,9,99,9,99999,9,99,9,99,9","10139,1,99999,9",,,,,"MET051METAR EKVJ 151250Z 29010KT 9999 SCT025 05/02 Q1014;",
"06066099999","2010-03-15T13:50:00","4","55.990122","8.353906","5.18","STAUNING, DA","FM-15","EKVJ ","V020","290,1,N,0062,1","22000,1,9,N","011265,1,N,1","+0050,1","+0020,1","99999,9","04,5,+00750,1,99,9",,,"04,99,1,99,9,99,9,99999,9,99,9,99,9","10139,1,99999,9",,,,,"MET051METAR EKVJ 151350Z 29012KT 9999 SCT025 05/02 Q1014;",
"06066099999","2010-03-15T14:50:00","4","55.990122","8.353906","5.18","STAUNING, DA","FM-15","EKVJ ","V020","300,1,N,0067,1","22000,1,9,N","011265,1,N,1","+0050,1","+0020,1","99999,9","02,5,+00750,1,99,9",,,"02,99,1,99,9,99,9,99999,9,99,9,99,9","10139,1,99999,9",,,,,"MET051METAR EKVJ 151450Z 30013KT 9999 FEW025 05/02 Q1014;",
"06066099999","2010-03-16T07:20:00","4","55.990122","8.353906","5.18","STAUNING, DA","FM-15","EKVJ ","V020","290,1,N,0031,1","00900,1,C,N","011265,1,N,1","+0020,1","+0010,1","99999,9","07,5,+00900,1,99,9",,,"07,99,1,99,9,99,9,99999,9,99,9,99,9","10190,1,99999,9",,,,,"MET051METAR EKVJ 160720Z 29006KT 9999 BKN030 02/01 Q1019;",
"06066099999","2010-03-16T07:50:00","4","55.990122","8.353906","5.18","STAUNING, DA","FM-15","EKVJ ","V020","290,1,N,0051,1","22000,1,9,N","011265,1,N,1","+0020,1","+0010,1","99999,9","04,5,+00900,1,99,9",,,"04,99,1,99,9,99,9,99999,9,99,9,99,9","10200,1,99999,9",,,,,"MET051METAR EKVJ 160750Z 29010KT 9999 SCT030 02/01 Q1020;",
"06066099999","2010-03-16T08:50:00","4","55.990122","8.353906","5.18","STAUNING, DA","FM-15","EKVJ ","V020","300,1,N,0051,1","22000,1,9,N","011265,1,N,1","+0030,1","+0020,1","99999,9","04,5,+00900,1,99,9",,,"04,99,1,99,9,99,9,99999,9,99,9,99,9","10210,1,99999,9",,,,,"MET051METAR EKVJ 160850Z 30010KT 9999 SCT030 03/02 Q1021;",
"06066099999","2010-03-16T09:50:00","4","55.990122","8.353906","5.18","STAUNING, DA","FM-15","EKVJ ","V020","300,1,N,0041,1","99999,9,C,N","011265,1,N,1","+0030,1","+0020,1","99999,9","02,5,+00600,1,99,9","04,5,+01200,1,99,9",,"04,99,1,99,9,99,9,99999,9,99,9,99,9","10210,1,99999,9",,,,,"MET058METAR EKVJ 160950Z 30008KT 9999 FEW020 SCT040 03/02 Q1021;","P01 012003SCOCIG"
"06066099999","2010-03-16T10:50:00","4","55.990122","8.353906","5.18","STAUNING, DA","FM-15","EKVJ ","V020","300,1,N,0051,1","99999,9,C,N","011265,1,N,1","+0040,1","+0020,1","99999,9","02,5,+00600,1,99,9","04,5,+01200,1,99,9",,"04,99,1,99,9,99,9,99999,9,99,9,99,9","10210,1,99999,9",,,,,"MET058METAR EKVJ 161050Z 30010KT 9999 FEW020 SCT040 04/02 Q1021;","P01 012003SCOCIG"
"06066099999","2010-03-16T11:50:00","4","55.990122","8.353906","5.18","STAUNING, DA","FM-15","EKVJ ","V020","300,1,N,0051,1","22000,1,9,N","011265,1,N,1","+0050,1","+0030,1","99999,9","04,5,+00750,1,99,9",,,"04,99,1,99,9,99,9,99999,9,99,9,99,9","10220,1,99999,9",,,,,"MET051METAR EKVJ 161150Z 30010KT 9999 SCT025 05/03 Q1022;",
"06066099999","2010-03-16T12:50:00","4","55.990122","8.353906","5.18","STAUNING, DA","FM-15","EKVJ ","V020","300,1,N,0062,1","22000,1,9,N","011265,1,N,1","+0050,1","+0030,1","99999,9","04,5,+00750,1,99,9",,,"04,99,1,99,9,99,9,99999,9,99,9,99,9","10220,1,99999,9",,,,,"MET051METAR EKVJ 161250Z 30012KT 9999 SCT025 05/03 Q1022;",
"06066099999","2010-03-16T13:50:00","4","55.990122","8.353906","5.18","STAUNING, DA","FM-15","EKVJ ","V020","300,1,N,0062,1","22000,1,9,N","011265,1,N,1","+0050,1","+0030,1","99999,9","02,5,+00750,1,99,9",,,"02,99,1,99,9,99,9,99999,9,99,9,99,9","10220,1,99999,9",,,,,"MET051METAR EKVJ 161350Z 30012KT 9999 FEW025 05/03 Q1022;",
"06066099999","2010-03-16T14:50:00","4","55.990122","8.353906","5.18","STAUNING, DA","FM-15","EKVJ ","V020","300,1,N,0051,1","06000,1,C,N","011265,1,N,1","+0050,1","+0030,1","99999,9","02,5,+00750,1,99,9","07,5,+06000,1,99,9",,"07,99,1,99,9,99,9,99999,9,99,9,99,9","10220,1,99999,9",,,,,"MET058METAR EKVJ 161450Z 30010KT 9999 FEW025 BKN200 05/03 Q1022;",
"06066099999","2010-03-17T07:20:00","4","55.990122","8.353906","5.18","STAUNING, DA","FM-15","EKVJ ","V020","250,1,N,0041,1","01200,1,C,N","008000,1,N,1","+0030,1","+0030,1","99999,9","04,5,+00450,1,99,9","07,5,+01200,1,99,9",,"07,99,1,99,9,99,9,99999,9,99,9,99,9","10190,1,99999,9",,,,,"MET058METAR EKVJ 170720Z 25008KT 8000 SCT015 BKN040 03/03 Q1019;",
"06066099999","2010-03-17T07:50:00","4","55.990122","8.353906","5.18","STAUNING, DA","FM-15","EKVJ ","V020","250,1,N,0041,1","01200,1,C,N","008000,1,N,1","+0030,1","+0030,1","99999,9","04,5,+00450,1,99,9","07,5,+01200,1,99,9",,"07,99,1,99,9,99,9,99999,9,99,9,99,9","10190,1,99999,9",,,,,"MET058METAR EKVJ 170750Z 25008KT 8000 SCT015 BKN040 03/03 Q1019;",
"06066099999","2010-03-17T08:50:00","4","55.990122","8.353906","5.18","STAUNING, DA","FM-15","EKVJ ","V020","250,1,N,0041,1","01200,1,C,N","008000,1,N,1","+0030,1","+0030,1","99999,9","02,5,+00450,1,99,9","07,5,+01200,1,99,9",,"07,99,1,99,9,99,9,99999,9,99,9,99,9","10190,1,99999,9",,,,,"MET058METAR EKVJ 170850Z 25008KT 8000 FEW015 BKN040 03/03 Q1019;",
"06066099999","2010-03-17T09:50:00","4","55.990122","8.353906","5.18","STAUNING, DA","FM-15","EKVJ ","V020","240,1,N,0041,1","01200,1,C,N","007000,1,N,1","+0040,1","+0040,1","99999,9","07,5,+01200,1,99,9",,,"07,99,1,99,9,99,9,99999,9,99,9,99,9","10180,1,99999,9",,,,,"MET051METAR EKVJ 170950Z 24008KT 7000 BKN040 04/04 Q1018;",
"06066099999","2010-03-17T10:50:00","4","55.990122","8.353906","5.18","STAUNING, DA","FM-15","EKVJ ","V020","240,1,N,0051,1","01200,1,C,N","007000,1,N,1","+0040,1","+0040,1","99999,9","07,5,+01200,1,99,9",,,"07,99,1,99,9,99,9,99999,9,99,9,99,9","10180,1,99999,9",,,,,"MET051METAR EKVJ 171050Z 24010KT 7000 BKN040 04/04 Q1018;",
"06066099999","2010-03-17T11:50:00","4","55.990122","8.353906","5.18","STAUNING, DA","FM-15","EKVJ ","V020","240,1,N,0051,1","01200,1,C,N","007000,1,N,1","+0050,1","+0050,1","99999,9","07,5,+01200,1,99,9",,,"07,99,1,99,9,99,9,99999,9,99,9,99,9","10180,1,99999,9",,,,,"MET051METAR EKVJ 171150Z 24010KT 7000 BKN040 05/05 Q1018;",
"06066099999","2010-03-17T13:50:00","4","55.990122","8.353906","5.18","STAUNING, DA","FM-15","EKVJ ","V020","230,1,N,0062,1","99999,9,9,Y","009900,1,N,1","+0050,1","+0040,1","99999,9",,,,,"10169,1,99999,9",,,,,"MET045METAR EKVJ 171350Z 23012KT CAVOK 05/04 Q1017;",
"06066099999","2010-03-17T14:50:00","4","55.990122","8.353906","5.18","STAUNING, DA","FM-15","EKVJ ","V020","230,1,N,0051,1","99999,9,9,Y","009900,1,N,1","+0040,1","+0030,1","99999,9",,,,,"10169,1,99999,9",,,,,"MET045METAR EKVJ 171450Z 23010KT CAVOK 04/03 Q1017;",
"06066099999","2010-03-18T07:20:00","4","55.990122","8.353906","5.18","STAUNING, DA","FM-15","EKVJ ","V020","210,1,N,0041,1","03000,1,C,N","003000,1,N,1","+0040,1","+0040,1","99999,9","07,5,+03000,1,99,9",,,"07,99,1,99,9,99,9,99999,9,99,9,99,9","10169,1,99999,9","10,1",,,,"MET054METAR EKVJ 180720Z 21008KT 3000 BR BKN100 04/04 Q1017;",
"06066099999","2010-03-18T07:50:00","4","55.990122","8.353906","5.18","STAUNING, DA","FM-15","EKVJ ","V020","210,1,N,0041,1","03000,1,C,N","003000,1,N,1","+0040,1","+0040,1","99999,9","07,5,+03000,1,99,9",,,"07,99,1,99,9,99,9,99999,9,99,9,99,9","10169,1,99999,9","10,1",,,,"MET054METAR EKVJ 180750Z 21008KT 3000 BR BKN100 04/04 Q1017;",
"06066099999","2010-03-18T08:50:00","4","55.990122","8.353906","5.18","STAUNING, DA","FM-15","EKVJ ","V020","230,1,N,0051,1","03000,1,C,N","003000,1,N,1","+0040,1","+0040,1","99999,9","04,5,+00900,1,99,9","07,5,+03000,1,99,9",,"07,99,1,99,9,99,9,99999,9,99,9,99,9","10169,1,99999,9","10,1",,,,"MET061METAR EKVJ 180850Z 23010KT 3000 BR SCT030 BKN100 04/04 Q1017;",
"06066099999","2010-03-18T09:50:00","4","55.990122","8.353906","5.18","STAUNING, DA","FM-15","EKVJ ","V020","230,1,N,0051,1","03000,1,C,N","004000,1,N,1","+0050,1","+0050,1","99999,9","02,5,+00900,1,99,9","07,5,+03000,1,99,9",,"07,99,1,99,9,99,9,99999,9,99,9,99,9","10169,1,99999,9","10,1",,,,"MET061METAR EKVJ 180950Z 23010KT 4000 BR FEW030 BKN100 05/05 Q1017;",
"06066099999","2010-03-18T10:50:00","4","55.990122","8.353906","5.18","STAUNING, DA","FM-15","EKVJ ","V020","230,1,N,0051,1","03000,1,C,N","005000,1,N,1","+0060,1","+0060,1","99999,9","02,5,+00900,1,99,9","07,5,+03000,1,99,9",,"07,99,1,99,9,99,9,99999,9,99,9,99,9","10169,1,99999,9","10,1",,,,"MET061METAR EKVJ 181050Z 23010KT 5000 BR FEW030 BKN100 06/06 Q1017;",
"06066099999","2010-03-18T11:50:00","4","55.990122","8.353906","5.18","STAUNING, DA","FM-15","EKVJ ","V020","230,1,N,0051,1","22000,1,9,N","005000,1,N,1","+0060,1","+0050,1","99999,9","04,5,+06000,1,99,9",,,"04,99,1,99,9,99,9,99999,9,99,9,99,9","10169,1,99999,9","10,1",,,,"MET054METAR EKVJ 181150Z 23010KT 5000 BR SCT200 06/05 Q1017;",
"06066099999","2010-03-18T13:50:00","4","55.990122","8.353906","5.18","STAUNING, DA","FM-15","EKVJ ","V020","210,1,N,0067,1","99999,9,C,N","005000,1,N,1","+0060,1","+0050,1","99999,9","02,5,+00900,1,99,9","04,5,+06000,1,99,9",,"04,99,1,99,9,99,9,99999,9,99,9,99,9","10159,1,99999,9","10,1",,,,"MET061METAR EKVJ 181350Z 21013KT 5000 BR FEW030 SCT200 06/05 Q1016;","P01 060003SCOCIG"
"06066099999","2010-03-18T14:50:00","4","55.990122","8.353906","5.18","STAUNING, DA","FM-15","EKVJ ","V020","210,1,N,0067,1","99999,9,C,N","005000,1,N,1","+0060,1","+0050,1","99999,9","02,5,+00900,1,99,9","04,5,+06000,1,99,9",,"04,99,1,99,9,99,9,99999,9,99,9,99,9","10159,1,99999,9","10,1",,,,"MET061METAR EKVJ 181450Z 21013KT 5000 BR FEW030 SCT200 06/05 Q1016;","P01 060003SCOCIG"
"06066099999","2010-03-19T07:20:00","4","55.990122","8.353906","5.18","STAUNING, DA","FM-15","EKVJ ","V020","240,1,N,0062,1","00150,1,C,N","001500,1,N,1","+0050,1","+0050,1","99999,9","07,5,+00150,1,99,9",,,"07,99,1,99,9,99,9,99999,9,99,9,99,9","10071,1,99999,9","10,1",,,,"MET054METAR EKVJ 190720Z 24012KT 1500 BR BKN005 05/05 Q1007;",
"06066099999","2010-03-19T07:50:00","4","55.990122","8.353906","5.18","STAUNING, DA","FM-15","EKVJ ","V020","240,1,N,0062,1","00090,1,9,N","000500,1,N,1","+0050,1","+0050,1","99999,9","09,1,+00090,1,99,9",,,"09,99,1,99,9,99,9,00025,1,99,9,99,9","10071,1,99999,9","45,1",,,,"MET053METAR EKVJ 190750Z 24012KT 0500 FG VV003 05/05 Q1007;",
"06066099999","2010-03-19T08:20:00","4","55.990122","8.353906","5.18","STAUNING, DA","FM-15","EKVJ ","V020","240,1,N,0062,1","00150,1,C,N","001000,1,N,1","+0050,1","+0050,1","99999,9","07,5,+00150,1,99,9",,,"07,99,1,99,9,99,9,99999,9,99,9,99,9","10071,1,99999,9","44,1",,,,"MET054METAR EKVJ 190820Z 24012KT 1000 FG BKN005 05/05 Q1007;",
"06066099999","2010-03-19T08:50:00","4","55.990122","8.353906","5.18","STAUNING, DA","FM-15","EKVJ ","V020","240,1,N,0072,1","99999,9,C,N","001500,1,N,1","+0050,1","+0050,1","99999,9","02,5,+00150,1,99,9","04,5,+01200,1,99,9",,"04,99,1,99,9,99,9,99999,9,99,9,99,9","10071,1,99999,9","10,1",,,,"MET061METAR EKVJ 190850Z 24014KT 1500 BR FEW005 SCT040 05/05 Q1007;","P01 012003SCOCIG"
"06066099999","2010-03-19T09:20:00","4","55.990122","8.353906","5.18","STAUNING, DA","FM-15","EKVJ ","V020","240,1,N,0072,1","01200,1,C,N","003500,1,N,1","+0060,1","+0060,1","99999,9","02,5,+00150,1,99,9","07,5,+01200,1,99,9",,"07,99,1,99,9,99,9,99999,9,99,9,99,9","10081,1,99999,9","10,1",,,,"MET061METAR EKVJ 190920Z 24014KT 3500 BR FEW005 BKN040 06/06 Q1008;",
"06066099999","2010-03-19T09:50:00","4","55.990122","8.353906","5.18","STAUNING, DA","FM-15","EKVJ ","V020","240,1,N,0072,1","22000,1,9,N","003500,1,N,1","+0060,1","+0060,1","99999,9","02,5,+00150,1,99,9",,,"02,99,1,99,9,99,9,99999,9,99,9,99,9","10081,1,99999,9","10,1",,,,"MET054METAR EKVJ 190950Z 24014KT 3500 BR FEW005 06/06 Q1008;",
"06066099999","2010-03-19T10:20:00","4","55.990122","8.353906","5.18","STAUNING, DA","FM-15","EKVJ ","V020","230,1,N,0082,1","22000,1,9,N","005000,1,N,1","+0070,1","+0070,1","99999,9","02,5,+01200,1,99,9",,,"02,99,1,99,9,99,9,99999,9,99,9,99,9","10081,1,99999,9",,,,,"MET051METAR EKVJ 191020Z 23016KT 5000 FEW040 07/07 Q1008;",
"06066099999","2010-03-19T10:50:00","4","55.990122","8.353906","5.18","STAUNING, DA","FM-15","EKVJ ","V020","230,1,N,0082,1","22000,1,9,N","005000,1,N,1","+0070,1","+0070,1","99999,9","02,5,+01200,1,99,9",,,"02,99,1,99,9,99,9,99999,9,99,9,99,9","10091,1,99999,9","10,1",,,,"MET054METAR EKVJ 191050Z 23016KT 5000 BR FEW040 07/07 Q1009;",
"06066099999","2010-03-19T11:20:00","4","55.990122","8.353906","5.18","STAUNING, DA","FM-15","EKVJ ","V020","230,1,N,0082,1","22000,1,9,N","005000,1,N,1","+0070,1","+0060,1","99999,9","02,5,+01200,1,99,9",,,"02,99,1,99,9,99,9,99999,9,99,9,99,9","10091,1,99999,9","10,1",,,,"MET054METAR EKVJ 191120Z 23016KT 5000 BR FEW040 07/06 Q1009;",
"06066099999","2010-03-19T11:50:00","4","55.990122","8.353906","5.18","STAUNING, DA","FM-15","EKVJ ","V020","230,1,N,0082,1","22000,1,9,N","006000,1,N,1","+0070,1","+0060,1","99999,9","02,5,+01200,1,99,9",,,"02,99,1,99,9,99,9,99999,9,99,9,99,9","10091,1,99999,9","10,1",,,,"MET054METAR EKVJ 191150Z 23016KT 6000 BR FEW040 07/06 Q1009;",
"06066099999","2010-03-19T12:50:00","4","55.990122","8.353906","5.18","STAUNING, DA","FM-15","EKVJ ","V020","230,1,N,0082,1","01200,1,C,N","008000,1,N,1","+0070,1","+0060,1","99999,9","07,5,+01200,1,99,9",,,"07,99,1,99,9,99,9,99999,9,99,9,99,9","10091,1,99999,9",,,,,"MET051METAR EKVJ 191250Z 23016KT 8000 BKN040 07/06 Q1009;",
"06066099999","2010-03-22T07:20:00","4","55.990122","8.353906","5.18","STAUNING, DA","FM-15","EKVJ ","V020","180,1,N,0031,1","00150,1,C,N","002500,1,N,1","+0040,1","+0040,1","99999,9","07,5,+00150,1,99,9",,,"07,99,1,99,9,99,9,99999,9,99,9,99,9","10200,1,99999,9","10,1",,,,"MET054METAR EKVJ 220720Z 18006KT 2500 BR BKN005 04/04 Q1020;",
"06066099999","2010-03-22T07:50:00","4","55.990122","8.353906","5.18","STAUNING, DA","FM-15","EKVJ ","V020","170,1,N,0031,1","00150,1,C,N","004000,1,N,1","+0040,1","+0040,1","99999,9","07,5,+00150,1,99,9",,,"07,99,1,99,9,99,9,99999,9,99,9,99,9","10200,1,99999,9","10,1",,,,"MET054METAR EKVJ 220750Z 17006KT 4000 BR BKN005 04/04 Q1020;",
"06066099999","2010-03-22T08:50:00","4","55.990122","8.353906","5.18","STAUNING, DA","FM-15","EKVJ ","V020","170,1,N,0031,1","06000,1,C,N","011265,1,N,1","+0050,1","+0050,1","99999,9","02,5,+00150,1,99,9","07,5,+06000,1,99,9",,"07,99,1,99,9,99,9,99999,9,99,9,99,9","10200,1,99999,9",,,,,"MET058METAR EKVJ 220850Z 17006KT 9999 FEW005 BKN200 05/05 Q1020;",
"06066099999","2010-03-22T09:50:00","4","55.990122","8.353906","5.18","STAUNING, DA","FM-15","EKVJ ","V020","180,1,N,0041,1","99999,9,9,Y","009900,1,N,1","+0080,1","+0060,1","99999,9",,,,,"10200,1,99999,9",,,,,"MET045METAR EKVJ 220950Z 18008KT CAVOK 08/06 Q1020;",
"06066099999","2010-03-22T10:50:00","4","55.990122","8.353906","5.18","STAUNING, DA","FM-15","EKVJ ","V020","210,1,N,0051,1","99999,9,9,Y","009900,1,N,1","+0080,1","+0060,1","99999,9",,,,,"10200,1,99999,9",,,,,"MET045METAR EKVJ 221050Z 21010KT CAVOK 08/06 Q1020;",
"06066099999","2010-03-22T11:50:00","4","55.990122","8.353906","5.18","STAUNING, DA","FM-15","EKVJ ","V020","210,1,N,0051,1","99999,9,9,Y","009900,1,N,1","+0070,1","+0050,1","99999,9",,,,,"10200,1,99999,9",,,,,"MET045METAR EKVJ 221150Z 21010KT CAVOK 07/05 Q1020;",
"06066099999","2010-03-22T12:50:00","4","55.990122","8.353906","5.18","STAUNING, DA","FM-15","EKVJ ","V020","220,1,N,0057,1","99999,9,9,Y","009900,1,N,1","+0080,1","+0060,1","99999,9",,,,,"10190,1,99999,9",,,,,"MET045METAR EKVJ 221250Z 22011KT CAVOK 08/06 Q1019;",
"06066099999","2010-03-22T13:50:00","4","55.990122","8.353906","5.18","STAUNING, DA","FM-15","EKVJ ","V020","220,1,N,0057,1","22000,1,9,N","011265,1,N,1","+0080,1","+0060,1","99999,9","02,5,+00600,1,99,9",,,"02,99,1,99,9,99,9,99999,9,99,9,99,9","10190,1,99999,9",,,,,"MET051METAR EKVJ 221350Z 22011KT 9999 FEW020 08/06 Q1019;",
"06066099999","2010-03-22T14:50:00","4","55.990122","8.353906","5.18","STAUNING, DA","FM-15","EKVJ ","V020","220,1,N,0062,1","22000,1,9,N","011265,1,N,1","+0080,1","+0060,1","99999,9","02,5,+00600,1,99,9",,,"02,99,1,99,9,99,9,99999,9,99,9,99,9","10190,1,99999,9",,,,,"MET051METAR EKVJ 221450Z 22012KT 9999 FEW020 08/06 Q1019;",
"06066099999","2010-03-23T06:20:00","4","55.990122","8.353906","5.18","STAUNING, DA","FM-15","EKVJ ","V020","250,1,N,0077,1","22000,1,9,N","011265,1,N,1","+0040,1","+0030,1","99999,9","02,5,+00300,1,99,9",,,"02,99,1,99,9,99,9,99999,9,99,9,99,9","10119,1,99999,9",,,,,"MET051METAR EKVJ 230620Z 25015KT 9999 FEW010 04/03 Q1012;",
"06066099999","2010-03-23T06:50:00","4","55.990122","8.353906","5.18","STAUNING, DA","FM-15","EKVJ ","V020","250,1,N,0077,1","22000,1,9,N","011265,1,N,1","+0040,1","+0030,1","99999,9","02,5,+00300,1,99,9",,,"02,99,1,99,9,99,9,99999,9,99,9,99,9","10119,1,99999,9",,,,,"MET051METAR EKVJ 230650Z 25015KT 9999 FEW010 04/03 Q1012;",
"06066099999","2010-03-23T07:50:00","4","55.990122","8.353906","5.18","STAUNING, DA","FM-15","EKVJ ","V020","250,1,N,0082,1","22000,1,9,N","011265,1,N,1","+0040,1","+0030,1","99999,9","02,5,+00300,1,99,9",,,"02,99,1,99,9,99,9,99999,9,99,9,99,9","10129,1,99999,9",,,,,"MET051METAR EKVJ 230750Z 25016KT 9999 FEW010 04/03 Q1013;",
"06066099999","2010-03-23T09:20:00","4","55.990122","8.353906","5.18","STAUNING, DA","FM-15","EKVJ ","V020","250,1,N,0082,1","00300,1,C,N","011265,1,N,1","+0060,1","+0050,1","99999,9","07,5,+00300,1,99,9",,,"07,99,1,99,9,99,9,99999,9,99,9,99,9","10129,1,99999,9",,,,,"MET051METAR EKVJ 230920Z 25016KT 9999 BKN010 06/05 Q1013;",
"06066099999","2010-03-23T09:50:00","4","55.990122","8.353906","5.18","STAUNING, DA","FM-15","EKVJ ","V020","250,1,N,0082,1","22000,1,9,N","011265,1,N,1","+0060,1","+0050,1","99999,9","04,5,+00300,1,99,9",,,"04,99,1,99,9,99,9,99999,9,99,9,99,9","10129,1,99999,9",,,,,"MET051METAR EKVJ 230950Z 25016KT 9999 SCT010 06/05 Q1013;",
"06066099999","2010-03-23T10:50:00","4","55.990122","8.353906","5.18","STAUNING, DA","FM-15","EKVJ ","V020","270,1,N,0082,1","22000,1,9,N","011265,1,N,1","+0060,1","+0050,1","99999,9","04,5,+00300,1,99,9",,,"04,99,1,99,9,99,9,99999,9,99,9,99,9","10139,1,99999,9",,,,,"MET051METAR EKVJ 231050Z 27016KT 9999 SCT010 06/05 Q1014;",
"06066099999","2010-03-23T11:50:00","4","55.990122","8.353906","5.18","STAUNING, DA","FM-15","EKVJ ","V020","270,1,N,0082,1","22000,1,9,N","011265,1,N,1","+0080,1","+0050,1","99999,9","02,5,+00300,1,99,9",,,"02,99,1,99,9,99,9,99999,9,99,9,99,9","10149,1,99999,9",,,,,"MET051METAR EKVJ 231150Z 27016KT 9999 FEW010 08/05 Q1015;",
"06066099999","2010-03-23T14:50:00","4","55.990122","8.353906","5.18","STAUNING, DA","FM-15","EKVJ ","V020","270,1,N,0082,1","22000,1,9,N","011265,1,N,1","+0080,1","+0050,1","99999,9","02,5,+00300,1,99,9",,,"02,99,1,99,9,99,9,99999,9,99,9,99,9","10149,1,99999,9",,,,,"MET051METAR EKVJ 231450Z 27016KT 9999 FEW010 08/05 Q1015;",
"06066099999","2010-03-24T07:20:00","4","55.990122","8.353906","5.18","STAUNING, DA","FM-15","EKVJ ","V020","130,1,N,0051,1","99999,9,9,Y","009900,1,N,1","+0040,1","+0030,1","99999,9",,,,,"10159,1,99999,9",,,,,"MET045METAR EKVJ 240720Z 13010KT CAVOK 04/03 Q1016;",
"06066099999","2010-03-24T07:50:00","4","55.990122","8.353906","5.18","STAUNING, DA","FM-15","EKVJ ","V020","130,1,N,0051,1","99999,9,9,Y","009900,1,N,1","+0040,1","+0030,1","99999,9",,,,,"10159,1,99999,9",,,,,"MET045METAR EKVJ 240750Z 13010KT CAVOK 04/03 Q1016;",
"06066099999","2010-03-24T08:50:00","4","55.990122","8.353906","5.18","STAUNING, DA","FM-15","EKVJ ","V020","130,1,N,0051,1","99999,9,9,Y","009900,1,N,1","+0060,1","+0040,1","99999,9",,,,,"10159,1,99999,9",,,,,"MET045METAR EKVJ 240850Z 13010KT CAVOK 06/04 Q1016;",
"06066099999","2010-03-24T09:50:00","4","55.990122","8.353906","5.18","STAUNING, DA","FM-15","EKVJ ","V020","140,1,N,0067,1","22000,1,9,N","011265,1,N,1","+0090,1","+0060,1","99999,9","02,5,+00900,1,99,9",,,"02,99,1,99,9,99,9,99999,9,99,9,99,9","10159,1,99999,9",,,,,"MET051METAR EKVJ 240950Z 14013KT 9999 FEW030 09/06 Q1016;",
"06066099999","2010-03-24T10:50:00","4","55.990122","8.353906","5.18","STAUNING, DA","FM-15","EKVJ ","V020","140,1,N,0067,1","22000,1,9,N","011265,1,N,1","+0100,1","+0060,1","99999,9","02,5,+00900,1,99,9",,,"02,99,1,99,9,99,9,99999,9,99,9,99,9","10159,1,99999,9",,,,,"MET051METAR EKVJ 241050Z 14013KT 9999 FEW030 10/06 Q1016;",
"06066099999","2010-03-24T11:50:00","4","55.990122","8.353906","5.18","STAUNING, DA","FM-15","EKVJ ","V020","160,1,N,0072,1","22000,1,9,N","011265,1,N,1","+0110,1","+0060,1","99999,9","02,5,+00900,1,99,9",,,"02,99,1,99,9,99,9,99999,9,99,9,99,9","10159,1,99999,9",,,,,"MET051METAR EKVJ 241150Z 16014KT 9999 FEW030 11/06 Q1016;",
"06066099999","2010-03-24T13:50:00","4","55.990122","8.353906","5.18","STAUNING, DA","FM-15","EKVJ ","V020","160,1,N,0072,1","06000,1,C,N","011265,1,N,1","+0110,1","+0060,1","99999,9","02,5,+00900,1,99,9","07,5,+06000,1,99,9",,"07,99,1,99,9,99,9,99999,9,99,9,99,9","10139,1,99999,9",,,,,"MET058METAR EKVJ 241350Z 16014KT 9999 FEW030 BKN200 11/06 Q1014;",
"06066099999","2010-03-25T07:20:00","4","55.990122","8.353906","5.18","STAUNING, DA","FM-15","EKVJ ","V020","120,1,N,0051,1","06000,1,C,N","011265,1,N,1","+0070,1","+0050,1","99999,9","02,5,+00900,1,99,9","07,5,+06000,1,99,9",,"07,99,1,99,9,99,9,99999,9,99,9,99,9","10091,1,99999,9",,,,,"MET058METAR EKVJ 250720Z 12010KT 9999 FEW030 BKN200 07/05 Q1009;",
"06066099999","2010-03-25T07:50:00","4","55.990122","8.353906","5.18","STAUNING, DA","FM-15","EKVJ ","V020","120,1,N,0051,1","06000,1,C,N","011265,1,N,1","+0070,1","+0050,1","99999,9","02,5,+00900,1,99,9","07,5,+06000,1,99,9",,"07,99,1,99,9,99,9,99999,9,99,9,99,9","10091,1,99999,9",,,,,"MET058METAR EKVJ 250750Z 12010KT 9999 FEW030 BKN200 07/05 Q1009;",
"06066099999","2010-03-25T08:50:00","4","55.990122","8.353906","5.18","STAUNING, DA","FM-15","EKVJ ","V020","120,1,N,0062,1","99999,9,C,N","011265,1,N,1","+0100,1","+0080,1","99999,9","02,5,+00900,1,99,9","04,5,+06000,1,99,9",,"04,99,1,99,9,99,9,99999,9,99,9,99,9","10091,1,99999,9",,,,,"MET058METAR EKVJ 250850Z 12012KT 9999 FEW030 SCT200 10/08 Q1009;","P01 060003SCOCIG"
"06066099999","2010-03-25T09:50:00","4","55.990122","8.353906","5.18","STAUNING, DA","FM-15","EKVJ ","V020","120,1,N,0062,1","99999,9,C,N","011265,1,N,1","+0120,1","+0100,1","99999,9","02,5,+00900,1,99,9","04,5,+06000,1,99,9",,"04,99,1,99,9,99,9,99999,9,99,9,99,9","10091,1,99999,9",,,,,"MET058METAR EKVJ 250950Z 12012KT 9999 FEW030 SCT200 12/10 Q1009;","P01 060003SCOCIG"
"06066099999","2010-03-25T10:50:00","4","55.990122","8.353906","5.18","STAUNING, DA","FM-15","EKVJ ","V020","120,1,N,0062,1","99999,9,C,N","011265,1,N,1","+0120,1","+0100,1","99999,9","02,5,+00900,1,99,9","04,5,+06000,1,99,9",,"04,99,1,99,9,99,9,99999,9,99,9,99,9","10091,1,99999,9",,,,,"MET058METAR EKVJ 251050Z 12012KT 9999 FEW030 SCT200 12/10 Q1009;","P01 060003SCOCIG"
"06066099999","2010-03-25T11:50:00","4","55.990122","8.353906","5.18","STAUNING, DA","FM-15","EKVJ ","V020","120,1,N,0072,1","99999,9,C,N","011265,1,N,1","+0160,1","+0100,1","99999,9","02,5,+00900,1,99,9","04,5,+06000,1,99,9",,"04,99,1,99,9,99,9,99999,9,99,9,99,9","10081,1,99999,9",,,,,"MET058METAR EKVJ 251150Z 12014KT 9999 FEW030 SCT200 16/10 Q1008;","P01 060003SCOCIG"
"06066099999","2010-03-25T13:50:00","4","55.990122","8.353906","5.18","STAUNING, DA","FM-15","EKVJ ","V020","120,1,N,0072,1","99999,9,9,Y","009900,1,N,1","+0160,1","+0100,1","99999,9",,,,,"10071,1,99999,9",,,,,"MET045METAR EKVJ 251350Z 12014KT CAVOK 16/10 Q1007;",
"06066099999","2010-03-25T14:50:00","4","55.990122","8.353906","5.18","STAUNING, DA","FM-15","EKVJ ","V020","120,1,N,0072,1","99999,9,9,Y","009900,1,N,1","+0160,1","+0100,1","99999,9",,,,,"10071,1,99999,9",,,,,"MET045METAR EKVJ 251450Z 12014KT CAVOK 16/10 Q1007;",
"06066099999","2010-03-26T06:20:00","4","55.990122","8.353906","5.18","STAUNING, DA","FM-15","EKVJ ","V020","180,1,N,0026,1","22000,1,9,N","006000,1,N,1","+0090,1","+0090,1","99999,9",,,,"00,99,1,99,9,99,9,99999,9,99,9,99,9","10031,1,99999,9",,,,,"MET048METAR EKVJ 260620Z 18005KT 6000 NSC 09/09 Q1003;","Q01    003SCCGA1"
"06066099999","2010-03-26T06:50:00","4","55.990122","8.353906","5.18","STAUNING, DA","FM-15","EKVJ ","V020","180,1,N,0031,1","00900,1,C,N","005000,1,N,1","+0090,1","+0090,1","99999,9","07,5,+00900,1,99,9",,,"07,99,1,99,9,99,9,99999,9,99,9,99,9","10041,1,99999,9","10,1",,,,"MET054METAR EKVJ 260650Z 18006KT 5000 BR BKN030 09/09 Q1004;",
"06066099999","2010-03-26T07:50:00","4","55.990122","8.353906","5.18","STAUNING, DA","FM-15","EKVJ ","V020","210,1,N,0051,1","00750,1,C,N","004000,1,N,1","+0090,1","+0090,1","99999,9","07,5,+00750,1,99,9",,,"07,99,1,99,9,99,9,99999,9,99,9,99,9","10041,1,99999,9","10,1",,,,"MET054METAR EKVJ 260750Z 21010KT 4000 BR BKN025 09/09 Q1004;",
"06066099999","2010-03-26T08:20:00","4","55.990122","8.353906","5.18","STAUNING, DA","FM-15","EKVJ ","V020","210,1,N,0051,1","00750,1,C,N","003000,1,N,1","+0090,1","+0090,1","99999,9","02,5,+00300,1,99,9","07,5,+00750,1,99,9",,"07,99,1,99,9,99,9,99999,9,99,9,99,9","10041,1,99999,9","10,1","51,1",,,"MET065METAR EKVJ 260820Z 21010KT 3000 BR -DZ FEW010 BKN025 09/09 Q1004;",
"06066099999","2010-03-26T08:50:00","4","55.990122","8.353906","5.18","STAUNING, DA","FM-15","EKVJ ","V020","210,1,N,0041,1","00750,1,C,N","003000,1,N,1","+0080,1","+0080,1","99999,9","02,5,+00300,1,99,9","07,5,+00750,1,99,9",,"07,99,1,99,9,99,9,99999,9,99,9,99,9","10041,1,99999,9","10,1","51,1",,,"MET065METAR EKVJ 260850Z 21008KT 3000 BR -DZ FEW010 BKN025 08/08 Q1004;",
"06066099999","2010-03-26T09:20:00","4","55.990122","8.353906","5.18","STAUNING, DA","FM-15","EKVJ ","V020","220,1,N,0041,1","00900,1,C,N","004000,1,N,1","+0080,1","+0080,1","99999,9","02,5,+00300,1,99,9","07,5,+00900,1,99,9",,"07,99,1,99,9,99,9,99999,9,99,9,99,9","10041,1,99999,9","10,1",,,,"MET061METAR EKVJ 260920Z 22008KT 4000 BR FEW010 BKN030 08/08 Q1004;",
"06066099999","2010-03-26T09:50:00","4","55.990122","8.353906","5.18","STAUNING, DA","FM-15","EKVJ ","V020","220,1,N,0051,1","00900,1,C,N","005000,1,N,1","+0080,1","+0080,1","99999,9","07,5,+00900,1,99,9",,,"07,99,1,99,9,99,9,99999,9,99,9,99,9","10051,1,99999,9","10,1",,,,"MET054METAR EKVJ 260950Z 22010KT 5000 BR BKN030 08/08 Q1005;",
"06066099999","2010-03-26T11:50:00","4","55.990122","8.353906","5.18","STAUNING, DA","FM-15","EKVJ ","V020","220,1,N,0041,1","22000,1,9,N","011265,1,N,1","+0090,1","+0080,1","99999,9","02,5,+01350,1,99,9",,,"02,99,1,99,9,99,9,99999,9,99,9,99,9","10051,1,99999,9",,,,,"MET051METAR EKVJ 261150Z 22008KT 9999 FEW045 09/08 Q1005;",
"06066099999","2010-03-26T12:50:00","4","55.990122","8.353906","5.18","STAUNING, DA","FM-15","EKVJ ","V020","220,1,N,0051,1","99999,9,9,Y","009900,1,N,1","+0090,1","+0070,1","99999,9",,,,,"10051,1,99999,9",,,,,"MET045METAR EKVJ 261250Z 22010KT CAVOK 09/07 Q1005;",
"06066099999","2010-03-26T13:50:00","4","55.990122","8.353906","5.18","STAUNING, DA","FM-15","EKVJ ","V020","220,1,N,0051,1","99999,9,9,Y","009900,1,N,1","+0080,1","+0060,1","99999,9",,,,,"10051,1,99999,9",,,,,"MET045METAR EKVJ 261350Z 22010KT CAVOK 08/06 Q1005;",
"06066099999","2010-03-26T14:50:00","4","55.990122","8.353906","5.18","STAUNING, DA","FM-15","EKVJ ","V020","220,1,N,0051,1","00900,1,C,N","011265,1,N,1","+0080,1","+0060,1","99999,9","07,5,+00900,1,99,9",,,"07,99,1,99,9,99,9,99999,9,99,9,99,9","10051,1,99999,9",,,,,"MET051METAR EKVJ 261450Z 22010KT 9999 BKN030 08/06 Q1005;",
"06066099999","2010-03-27T09:20:00","4","55.990122","8.353906","5.18","STAUNING, DA","FM-15","EKVJ ","V020","250,1,N,0041,1","22000,1,9,N","006000,1,N,1","+0070,1","+0070,1","99999,9","04,5,+00150,1,99,9",,,"04,99,1,99,9,99,9,99999,9,99,9,99,9","10000,1,99999,9",,,,,"MET051METAR EKVJ 270920Z 25008KT 6000 SCT005 07/07 Q1000;",
"06066099999","2010-03-27T09:50:00","4","55.990122","8.353906","5.18","STAUNING, DA","FM-15","EKVJ ","V020","250,1,N,0041,1","22000,1,9,N","007000,1,N,1","+0070,1","+0070,1","99999,9","04,5,+00150,1,99,9",,,"04,99,1,99,9,99,9,99999,9,99,9,99,9","10000,1,99999,9",,,,,"MET051METAR EKVJ 270950Z 25008KT 7000 SCT005 07/07 Q1000;",
"06066099999","2010-03-27T10:50:00","4","55.990122","8.353906","5.18","STAUNING, DA","FM-15","EKVJ ","V020","240,1,N,0041,1","02400,1,C,N","008000,1,N,1","+0070,1","+0060,1","99999,9","02,5,+00150,1,99,9","07,5,+02400,1,99,9",,"07,99,1,99,9,99,9,99999,9,99,9,99,9","10000,1,99999,9",,,,,"MET058METAR EKVJ 271050Z 24008KT 8000 FEW005 BKN080 07/06 Q1000;",
"06066099999","2010-03-27T11:50:00","4","55.990122","8.353906","5.18","STAUNING, DA","FM-15","EKVJ ","V020","240,1,N,0051,1","02400,1,C,N","011265,1,N,1","+0070,1","+0060,1","99999,9","02,5,+00150,1,99,9","07,5,+02400,1,99,9",,"07,99,1,99,9,99,9,99999,9,99,9,99,9","10000,1,99999,9",,,,,"MET058METAR EKVJ 271150Z 24010KT 9999 FEW005 BKN080 07/06 Q1000;",
"06066099999","2010-03-27T12:50:00","4","55.990122","8.353906","5.18","STAUNING, DA","FM-15","EKVJ ","V020","240,1,N,0051,1","02400,1,C,N","011265,1,N,1","+0080,1","+0070,1","99999,9","02,5,+00210,1,99,9","07,5,+02400,1,99,9",,"07,99,1,99,9,99,9,99999,9,99,9,99,9","10000,1,99999,9",,,,,"MET058METAR EKVJ 271250Z 24010KT 9999 FEW007 BKN080 08/07 Q1000;",
"06066099999","2010-03-27T14:50:00","4","55.990122","8.353906","5.18","STAUNING, DA","FM-15","EKVJ ","V020","240,1,N,0051,1","00150,1,C,N","007000,1,N,1","+0080,1","+0070,1","99999,9","07,5,+00150,1,99,9",,,"07,99,1,99,9,99,9,99999,9,99,9,99,9","10000,1,99999,9",,,,,"MET051METAR EKVJ 271450Z 24010KT 7000 BKN005 08/07 Q1000;",
"06066099999","2010-03-28T10:50:00","4","55.990122","8.353906","5.18","STAUNING, DA","FM-15","EKVJ ","V020","240,1,N,0051,1","00900,1,C,N","011265,1,N,1","+0060,1","+0050,1","99999,9","02,5,+00300,1,99,9","07,5,+00900,1,99,9",,"07,99,1,99,9,99,9,99999,9,99,9,99,9","10010,1,99999,9",,,,,"MET058METAR EKVJ 281050Z 24010KT 9999 FEW010 BKN030 06/05 Q1001;",
"06066099999","2010-03-28T11:50:00","4","55.990122","8.353906","5.18","STAUNING, DA","FM-15","EKVJ ","V020","240,1,N,0082,1","00900,1,C,N","011265,1,N,1","+0060,1","+0050,1","99999,9","04,5,+00300,1,99,9","07,5,+00900,1,99,9",,"07,99,1,99,9,99,9,99999,9,99,9,99,9","10010,1,99999,9",,,,,"MET058METAR EKVJ 281150Z 24016KT 9999 SCT010 BKN030 06/05 Q1001;",
"06066099999","2010-03-28T12:50:00","4","55.990122","8.353906","5.18","STAUNING, DA","FM-15","EKVJ ","V020","240,1,N,0082,1","01200,1,C,N","011265,1,N,1","+0070,1","+0060,1","99999,9","02,5,+00300,1,99,9","07,5,+01200,1,99,9",,"07,99,1,99,9,99,9,99999,9,99,9,99,9","10000,1,99999,9",,,,,"MET058METAR EKVJ 281250Z 24016KT 9999 FEW010 BKN040 07/06 Q1000;",
"06066099999","2010-03-28T13:50:00","4","55.990122","8.353906","5.18","STAUNING, DA","FM-15","EKVJ ","V020","240,1,N,0082,1","01200,1,C,N","011265,1,N,1","+0070,1","+0060,1","99999,9","04,5,+00300,1,99,9","07,5,+01200,1,99,9",,"07,99,1,99,9,99,9,99999,9,99,9,99,9","10000,1,99999,9",,,,,"MET058METAR EKVJ 281350Z 24016KT 9999 SCT010 BKN040 07/06 Q1000;",
"06066099999","2010-03-28T14:50:00","4","55.990122","8.353906","5.18","STAUNING, DA","FM-15","EKVJ ","V020","240,1,N,0082,1","00300,1,C,N","011265,1,N,1","+0070,1","+0060,1","99999,9","07,5,+00300,1,99,9",,,"07,99,1,99,9,99,9,99999,9,99,9,99,9","10000,1,99999,9",,,,,"MET051METAR EKVJ 281450Z 24016KT 9999 BKN010 07/06 Q1000;",
"06066099999","2010-03-29T06:50:00","4","55.990122","8.353906","5.18","STAUNING, DA","FM-15","EKVJ ","V020","260,1,N,0051,1","00210,1,C,N","011265,1,N,1","+0050,1","+0040,1","99999,9","07,5,+00210,1,99,9","07,5,+00300,1,99,9",,"07,99,1,99,9,99,9,99999,9,99,9,99,9","09990,1,99999,9",,,,,"MET058METAR EKVJ 290650Z 26010KT 9999 BKN007 BKN010 05/04 Q0999;",
"06066099999","2010-03-29T07:50:00","4","55.990122","8.353906","5.18","STAUNING, DA","FM-15","EKVJ ","V020","260,1,N,0062,1","00210,1,C,N","011265,1,N,1","+0050,1","+0040,1","99999,9","07,5,+00210,1,99,9","07,5,+00300,1,99,9",,"07,99,1,99,9,99,9,99999,9,99,9,99,9","10000,1,99999,9",,,,,"MET058METAR EKVJ 290750Z 26012KT 9999 BKN007 BKN010 05/04 Q1000;",
"06066099999","2010-03-29T09:20:00","4","55.990122","8.353906","5.18","STAUNING, DA","FM-15","EKVJ ","V020","260,1,N,0062,1","00210,1,C,N","011265,1,N,1","+0050,1","+0040,1","99999,9","07,5,+00210,1,99,9","07,5,+00300,1,99,9",,"07,99,1,99,9,99,9,99999,9,99,9,99,9","10000,1,99999,9",,,,,"MET058METAR EKVJ 290920Z 26012KT 9999 BKN007 BKN010 05/04 Q1000;",
"06066099999","2010-03-29T09:50:00","4","55.990122","8.353906","5.18","STAUNING, DA","FM-15","EKVJ ","V020","260,1,N,0062,1","00450,1,C,N","011265,1,N,1","+0050,1","+0040,1","99999,9","02,5,+00360,1,99,9","07,5,+00450,1,99,9",,"07,99,1,99,9,99,9,99999,9,99,9,99,9","10000,1,99999,9",,,,,"MET058METAR EKVJ 290950Z 26012KT 9999 FEW012 BKN015 05/04 Q1000;",
"06066099999","2010-03-29T10:50:00","4","55.990122","8.353906","5.18","STAUNING, DA","FM-15","EKVJ ","V020","260,1,N,0062,1","99999,9,C,N","011265,1,N,1","+0050,1","+0040,1","99999,9","02,5,+00360,1,99,9","04,5,+00450,1,99,9",,"04,99,1,99,9,99,9,99999,9,99,9,99,9","10010,1,99999,9",,,,,"MET058METAR EKVJ 291050Z 26012KT 9999 FEW012 SCT015 05/04 Q1001;","P01 004503SCOCIG"
"06066099999","2010-03-29T11:50:00","4","55.990122","8.353906","5.18","STAUNING, DA","FM-15","EKVJ ","V020","260,1,N,0072,1","99999,9,C,N","011265,1,N,1","+0050,1","+0040,1","99999,9","02,5,+00360,1,99,9","04,5,+00450,1,99,9",,"04,99,1,99,9,99,9,99999,9,99,9,99,9","10010,1,99999,9",,,,,"MET058METAR EKVJ 291150Z 26014KT 9999 FEW012 SCT015 05/04 Q1001;","P01 004503SCOCIG"
"06066099999","2010-03-29T12:50:00","4","55.990122","8.353906","5.18","STAUNING, DA","FM-15","EKVJ ","V020","260,1,N,0072,1","99999,9,C,N","011265,1,N,1","+0060,1","+0050,1","99999,9","02,5,+00360,1,99,9","04,5,+00450,1,99,9",,"04,99,1,99,9,99,9,99999,9,99,9,99,9","10020,1,99999,9",,,,,"MET058METAR EKVJ 291250Z 26014KT 9999 FEW012 SCT015 06/05 Q1002;","P01 004503SCOCIG"
"06066099999","2010-03-29T13:50:00","4","55.990122","8.353906","5.18","STAUNING, DA","FM-15","EKVJ ","V020","280,1,N,0072,1","99999,9,C,N","011265,1,N,1","+0060,1","+0050,1","99999,9","02,5,+00360,1,99,9","04,5,+00450,1,99,9",,"04,99,1,99,9,99,9,99999,9,99,9,99,9","10020,1,99999,9",,,,,"MET058METAR EKVJ 291350Z 28014KT 9999 FEW012 SCT015 06/05 Q1002;","P01 004503SCOCIG"
"06066099999","2010-03-30T06:20:00","4","55.990122","8.353906","5.18","STAUNING, DA","FM-15","EKVJ ","V020","110,1,N,0072,1","99999,9,9,Y","009900,1,N,1","+0040,1","+0030,1","99999,9",,,,,"09990,1,99999,9",,,,,"MET045METAR EKVJ 300620Z 11014KT CAVOK 04/03 Q0999;",
"06066099999","2010-03-30T06:50:00","4","55.990122","8.353906","5.18","STAUNING, DA","FM-15","EKVJ ","V020","120,1,N,0082,1","99999,9,9,Y","009900,1,N,1","+0040,1","+0030,1","99999,9",,,,,"09990,1,99999,9",,,,,"MET045METAR EKVJ 300650Z 12016KT CAVOK 04/03 Q0999;",
"06066099999","2010-03-30T07:50:00","4","55.990122","8.353906","5.18","STAUNING, DA","FM-15","EKVJ ","V020","120,1,N,0082,1","99999,9,9,Y","009900,1,N,1","+0060,1","+0040,1","99999,9",,,,,"09980,1,99999,9",,,,,"MET045METAR EKVJ 300750Z 12016KT CAVOK 06/04 Q0998;",
"06066099999","2010-03-30T08:50:00","4","55.990122","8.353906","5.18","STAUNING, DA","FM-15","EKVJ ","V020","999,9,N,0093,1","99999,9,9,Y","009900,1,N,1","+0080,1","+0060,1","99999,9",,,,,"09970,1,99999,9",,,,,"MET045METAR EKVJ 300850Z 12318KT CAVOK 08/06 Q0997;",
"06066099999","2010-03-30T09:50:00","4","55.990122","8.353906","5.18","STAUNING, DA","FM-15","EKVJ ","V020","130,1,N,0103,1","01800,1,C,N","011265,1,N,1","+0090,1","+0060,1","99999,9","02,5,+00900,1,99,9","07,5,+01800,1,99,9",,"07,99,1,99,9,99,9,99999,9,99,9,99,9","09959,1,99999,9","51,1",,,,"MET062METAR EKVJ 300950Z 13020KT 9999 -DZ FEW030 BKN060 09/06 Q0996;",
"06066099999","2010-03-30T10:50:00","4","55.990122","8.353906","5.18","STAUNING, DA","FM-15","EKVJ ","V020","130,1,N,0082,1","01200,1,C,N","011265,1,N,1","+0090,1","+0060,1","99999,9","02,5,+00600,1,99,9","07,5,+01200,1,99,9",,"07,99,1,99,9,99,9,99999,9,99,9,99,9","09959,1,99999,9","61,1",,,"0134,1","MET065METAR EKVJ 301050Z 13016G26KT 9999 -RA FEW020 BKN040 09/06 Q0996;",
"06066099999","2010-03-30T11:50:00","4","55.990122","8.353906","5.18","STAUNING, DA","FM-15","EKVJ ","V020","130,1,N,0082,1","01200,1,C,N","011265,1,N,1","+0090,1","+0080,1","99999,9","02,5,+00600,1,99,9","07,5,+01200,1,99,9",,"07,99,1,99,9,99,9,99999,9,99,9,99,9","09959,1,99999,9","51,1","61,1",,"0134,1","MET067METAR EKVJ 301150Z 13016G26KT 9999 -DZRA FEW020 BKN040 09/08 Q0996;",
"06066099999","2010-03-30T12:50:00","4","55.990122","8.353906","5.18","STAUNING, DA","FM-15","EKVJ ","V020","130,1,N,0082,1","00900,1,C,N","011265,1,N,1","+0090,1","+0080,1","99999,9","04,5,+00300,1,99,9","07,5,+00900,1,99,9",,"07,99,1,99,9,99,9,99999,9,99,9,99,9","09959,1,99999,9",,,,,"MET058METAR EKVJ 301250Z 13016KT 9999 SCT010 BKN030 09/08 Q0996;",
"06066099999","2010-03-30T13:50:00","4","55.990122","8.353906","5.18","STAUNING, DA","FM-15","EKVJ ","V020","130,1,N,0072,1","00900,1,C,N","011265,1,N,1","+0090,1","+0080,1","99999,9","04,5,+00300,1,99,9","07,5,+00900,1,99,9",,"07,99,1,99,9,99,9,99999,9,99,9,99,9","09959,1,99999,9",,,,,"MET058METAR EKVJ 301350Z 13014KT 9999 SCT010 BKN030 09/08 Q0996;",
"06066099999","2010-03-31T06:20:00","4","55.990122","8.353906","5.18","STAUNING, DA","FM-15","EKVJ ","V020","200,1,N,0062,1","03000,1,C,N","011265,1,N,1","+0060,1","+0050,1","99999,9","04,5,+00780,1,99,9","07,5,+03000,1,99,9",,"07,99,1,99,9,99,9,99999,9,99,9,99,9","09949,1,99999,9",,,,,"MET058METAR EKVJ 310620Z 20012KT 9999 SCT026 BKN100 06/05 Q0995;",
"06066099999","2010-03-31T06:50:00","4","55.990122","8.353906","5.18","STAUNING, DA","FM-15","EKVJ ","V020","200,1,N,0062,1","03000,1,C,N","011265,1,N,1","+0060,1","+0050,1","99999,9","04,5,+00780,1,99,9","07,5,+03000,1,99,9",,"07,99,1,99,9,99,9,99999,9,99,9,99,9","09949,1,99999,9",,,,,"MET058METAR EKVJ 310650Z 20012KT 9999 SCT026 BKN100 06/05 Q0995;",
"06066099999","2010-03-31T07:50:00","4","55.990122","8.353906","5.18","STAUNING, DA","FM-15","EKVJ ","V020","200,1,N,0062,1","22000,1,9,N","011265,1,N,1","+0080,1","+0070,1","99999,9","04,5,+00780,1,99,9",,,"04,99,1,99,9,99,9,99999,9,99,9,99,9","09959,1,99999,9",,,,,"MET051METAR EKVJ 310750Z 20012KT 9999 SCT026 08/07 Q0996;",
"06066099999","2010-03-31T08:50:00","4","55.990122","8.353906","5.18","STAUNING, DA","FM-15","EKVJ ","V020","200,1,N,0062,1","22000,1,9,N","011265,1,N,1","+0080,1","+0070,1","99999,9","04,5,+00780,1,99,9",,,"04,99,1,99,9,99,9,99999,9,99,9,99,9","09959,1,99999,9",,,,,"MET051METAR EKVJ 310850Z 20012KT 9999 SCT026 08/07 Q0996;",
"06066099999","2010-03-31T09:50:00","4","55.990122","8.353906","5.18","STAUNING, DA","FM-15","EKVJ ","V020","190,1,N,0072,1","22000,1,9,N","011265,1,N,1","+0080,1","+0070,1","99999,9","04,5,+00780,1,99,9",,,"04,99,1,99,9,99,9,99999,9,99,9,99,9","09959,1,99999,9",,,,,"MET051METAR EKVJ 310950Z 19014KT 9999 SCT026 08/07 Q0996;",
"06066099999","2010-03-31T11:50:00","4","55.990122","8.353906","5.18","STAUNING, DA","FM-15","EKVJ ","V020","190,1,N,0072,1","22000,1,9,N","011265,1,N,1","+0080,1","+0070,1","99999,9","04,5,+00780,1,99,9",,,"04,99,1,99,9,99,9,99999,9,99,9,99,9","09970,1,99999,9",,,,,"MET051METAR EKVJ 311150Z 19014KT 9999 SCT026 08/07 Q0997;",
"06066099999","2010-03-31T13:50:00","4","55.990122","8.353906","5.18","STAUNING, DA","FM-15","EKVJ ","V020","190,1,N,0082,1","22000,1,9,N","011265,1,N,1","+0080,1","+0070,1","99999,9","04,5,+00780,1,99,9",,,"04,99,1,99,9,99,9,99999,9,99,9,99,9","09970,1,99999,9",,,,,"MET051METAR EKVJ 311350Z 19016KT 9999 SCT026 08/07 Q0997;",
"06066099999","2010-04-01T09:50:00","4","55.990122","8.353906","5.18","STAUNING, DA","FM-15","EKVJ ","V020","200,1,N,0051,1","00300,1,C,N","011265,1,N,1","+0040,1","+0030,1","99999,9","02,5,+00150,1,99,9","07,5,+00300,1,99,9",,"07,99,1,99,9,99,9,99999,9,99,9,99,9","09990,1,99999,9","61,1",,,,"MET062METAR EKVJ 010950Z 20010KT 9999 -RA FEW005 BKN010 04/03 Q0999;",
"06066099999","2010-04-01T10:50:00","4","55.990122","8.353906","5.18","STAUNING, DA","FM-15","EKVJ ","V020","220,1,N,0051,1","00750,1,C,N","011265,1,N,1","+0040,1","+0030,1","99999,9","04,5,+00240,1,99,9","07,5,+00750,1,99,9",,"07,99,1,99,9,99,9,99999,9,99,9,99,9","09990,1,99999,9",,,,,"MET058METAR EKVJ 011050Z 22010KT 9999 SCT008 BKN025 04/03 Q0999;",
"06066099999","2010-04-01T11:50:00","4","55.990122","8.353906","5.18","STAUNING, DA","FM-15","EKVJ ","V020","220,1,N,0062,1","00300,1,C,N","011265,1,N,1","+0060,1","+0050,1","99999,9","07,5,+00300,1,99,9",,,"07,99,1,99,9,99,9,99999,9,99,9,99,9","10000,1,99999,9",,,,,"MET051METAR EKVJ 011150Z 22012KT 9999 BKN010 06/05 Q1000;",
"06066099999","2010-04-01T12:50:00","4","55.990122","8.353906","5.18","STAUNING, DA","FM-15","EKVJ ","V020","220,1,N,0051,1","00450,1,C,N","011265,1,N,1","+0060,1","+0050,1","99999,9","07,5,+00450,1,99,9",,,"07,99,1,99,9,99,9,99999,9,99,9,99,9","10000,1,99999,9",,,,"0103,1","MET054METAR EKVJ 011250Z 22010G20KT 9999 BKN015 06/05 Q1000;",
"06066099999","2010-04-01T13:50:00","4","55.990122","8.353906","5.18","STAUNING, DA","FM-15","EKVJ ","V020","220,1,N,0051,1","01200,1,C,N","011265,1,N,1","+0060,1","+0040,1","99999,9","04,5,+00450,1,99,9","07,5,+01200,1,99,9",,"07,99,1,99,9,99,9,99999,9,99,9,99,9","10020,1,99999,9",,,,"0103,1","MET061METAR EKVJ 011350Z 22010G20KT 9999 SCT015 BKN040 06/04 Q1002;",
"06066099999","2010-04-06T06:20:00","4","55.990122","8.353906","5.18","STAUNING, DA","FM-15","EKVJ ","V020","190,1,N,0041,1","01200,1,C,N","011265,1,N,1","+0070,1","+0050,1","99999,9","07,5,+01200,1,99,9",,,"07,99,1,99,9,99,9,99999,9,99,9,99,9","10230,1,99999,9",,,,,"MET051METAR EKVJ 060620Z 19008KT 9999 BKN040 07/05 Q1023;",
"06066099999","2010-04-06T06:50:00","4","55.990122","8.353906","5.18","STAUNING, DA","FM-15","EKVJ ","V020","190,1,N,0041,1","01200,1,C,N","011265,1,N,1","+0070,1","+0050,1","99999,9","07,5,+01200,1,99,9",,,"07,99,1,99,9,99,9,99999,9,99,9,99,9","10230,1,99999,9",,,,,"MET051METAR EKVJ 060650Z 19008KT 9999 BKN040 07/05 Q1023;",
"06066099999","2010-04-06T07:50:00","4","55.990122","8.353906","5.18","STAUNING, DA","FM-15","EKVJ ","V020","180,1,N,0051,1","01200,1,C,N","008000,1,N,1","+0070,1","+0050,1","99999,9","07,5,+01200,1,99,9",,,"07,99,1,99,9,99,9,99999,9,99,9,99,9","10230,1,99999,9",,,,,"MET051METAR EKVJ 060750Z 18010KT 8000 BKN040 07/05 Q1023;",
"06066099999","2010-04-06T09:50:00","4","55.990122","8.353906","5.18","STAUNING, DA","FM-15","EKVJ ","V020","180,1,N,0041,1","01200,1,C,N","008000,1,N,1","+0070,1","+0050,1","99999,9","07,5,+01200,1,99,9",,,"07,99,1,99,9,99,9,99999,9,99,9,99,9","10230,1,99999,9",,,,,"MET051METAR EKVJ 060950Z 18008KT 8000 BKN040 07/05 Q1023;",
"06066099999","2010-04-06T10:50:00","4","55.990122","8.353906","5.18","STAUNING, DA","FM-15","EKVJ ","V020","190,1,N,0041,1","01200,1,C,N","008000,1,N,1","+0070,1","+0050,1","99999,9","07,5,+01200,1,99,9",,,"07,99,1,99,9,99,9,99999,9,99,9,99,9","10240,1,99999,9",,,,,"MET051METAR EKVJ 061050Z 19008KT 8000 BKN040 07/05 Q1024;",
"06066099999","2010-04-06T11:50:00","4","55.990122","8.353906","5.18","STAUNING, DA","FM-15","EKVJ ","V020","210,1,N,0041,1","01200,1,C,N","008000,1,N,1","+0070,1","+0050,1","99999,9","07,5,+01200,1,99,9",,,"07,99,1,99,9,99,9,99999,9,99,9,99,9","10240,1,99999,9",,,,,"MET051METAR EKVJ 061150Z 21008KT 8000 BKN040 07/05 Q1024;",
"06066099999","2010-04-06T12:50:00","4","55.990122","8.353906","5.18","STAUNING, DA","FM-15","EKVJ ","V020","210,1,N,0041,1","01200,1,C,N","011265,1,N,1","+0070,1","+0050,1","99999,9","02,5,+00600,1,99,9","07,5,+01200,1,99,9",,"07,99,1,99,9,99,9,99999,9,99,9,99,9","10240,1,99999,9",,,,,"MET058METAR EKVJ 061250Z 21008KT 9999 FEW020 BKN040 07/05 Q1024;",
"06066099999","2010-04-06T13:50:00","4","55.990122","8.353906","5.18","STAUNING, DA","FM-15","EKVJ ","V020","210,1,N,0041,1","01200,1,C,N","011265,1,N,1","+0070,1","+0050,1","99999,9","02,5,+00600,1,99,9","07,5,+01200,1,99,9",,"07,99,1,99,9,99,9,99999,9,99,9,99,9","10240,1,99999,9",,,,,"MET058METAR EKVJ 061350Z 21008KT 9999 FEW020 BKN040 07/05 Q1024;",
"06066099999","2010-04-07T06:20:00","4","55.990122","8.353906","5.18","STAUNING, DA","FM-15","EKVJ ","V020","130,1,N,0051,1","99999,9,9,Y","009900,1,N,1","+0070,1","+0050,1","99999,9",,,,,"10200,1,99999,9",,,,,"MET045METAR EKVJ 070620Z 13010KT CAVOK 07/05 Q1020;",
"06066099999","2010-04-07T06:50:00","4","55.990122","8.353906","5.18","STAUNING, DA","FM-15","EKVJ ","V020","130,1,N,0051,1","99999,9,9,Y","009900,1,N,1","+0070,1","+0050,1","99999,9",,,,,"10200,1,99999,9",,,,,"MET045METAR EKVJ 070650Z 13010KT CAVOK 07/05 Q1020;",
"06066099999","2010-04-07T08:20:00","4","55.990122","8.353906","5.18","STAUNING, DA","FM-15","EKVJ ","V020","130,1,N,0051,1","99999,9,9,Y","009900,1,N,1","+0080,1","+0060,1","99999,9",,,,,"10200,1,99999,9",,,,,"MET045METAR EKVJ 070820Z 13010KT CAVOK 08/06 Q1020;",
"06066099999","2010-04-07T08:50:00","4","55.990122","8.353906","5.18","STAUNING, DA","FM-15","EKVJ ","V020","130,1,N,0051,1","99999,9,9,Y","009900,1,N,1","+0120,1","+0100,1","99999,9",,,,,"10200,1,99999,9",,,,,"MET045METAR EKVJ 070850Z 13010KT CAVOK 12/10 Q1020;",
"06066099999","2010-04-07T09:50:00","4","55.990122","8.353906","5.18","STAUNING, DA","FM-15","EKVJ ","V020","130,1,N,0051,1","99999,9,9,Y","009900,1,N,1","+0120,1","+0100,1","99999,9",,,,,"10200,1,99999,9",,,,,"MET045METAR EKVJ 070950Z 13010KT CAVOK 12/10 Q1020;",
"06066099999","2010-04-07T10:50:00","4","55.990122","8.353906","5.18","STAUNING, DA","FM-15","EKVJ ","V020","150,1,N,0072,1","99999,9,9,Y","009900,1,N,1","+0150,1","+0070,1","99999,9",,,,,"10200,1,99999,9",,,,,"MET045METAR EKVJ 071050Z 15014KT CAVOK 15/07 Q1020;",
"06066099999","2010-04-07T11:50:00","4","55.990122","8.353906","5.18","STAUNING, DA","FM-15","EKVJ ","V020","150,1,N,0072,1","99999,9,9,Y","009900,1,N,1","+0150,1","+0070,1","99999,9",,,,,"10200,1,99999,9",,,,,"MET045METAR EKVJ 071150Z 15014KT CAVOK 15/07 Q1020;",
"06066099999","2010-04-07T12:50:00","4","55.990122","8.353906","5.18","STAUNING, DA","FM-15","EKVJ ","V020","150,1,N,0072,1","99999,9,9,Y","009900,1,N,1","+0150,1","+0070,1","99999,9",,,,,"10190,1,99999,9",,,,,"MET045METAR EKVJ 071250Z 15014KT CAVOK 15/07 Q1019;",
"06066099999","2010-04-07T13:50:00","4","55.990122","8.353906","5.18","STAUNING, DA","FM-15","EKVJ ","V020","150,1,N,0072,1","99999,9,9,Y","009900,1,N,1","+0150,1","+0070,1","99999,9",,,,,"10190,1,99999,9",,,,,"MET045METAR EKVJ 071350Z 15014KT CAVOK 15/07 Q1019;",
"06066099999","2010-04-08T06:20:00","4","55.990122","8.353906","5.18","STAUNING, DA","FM-15","EKVJ ","V020","300,1,N,0021,1","01200,1,C,N","006000,1,N,1","+0080,1","+0070,1","99999,9","07,5,+01200,1,99,9",,,"07,99,1,99,9,99,9,99999,9,99,9,99,9","10210,1,99999,9",,,,,"MET051METAR EKVJ 080620Z 30004KT 6000 BKN040 08/07 Q1021;",
"06066099999","2010-04-08T06:50:00","4","55.990122","8.353906","5.18","STAUNING, DA","FM-15","EKVJ ","V020","300,1,N,0021,1","02400,1,C,N","006000,1,N,1","+0080,1","+0070,1","99999,9","07,5,+02400,1,99,9",,,"07,99,1,99,9,99,9,99999,9,99,9,99,9","10210,1,99999,9",,,,,"MET051METAR EKVJ 080650Z 30004KT 6000 BKN080 08/07 Q1021;",
"06066099999","2010-04-08T07:50:00","4","55.990122","8.353906","5.18","STAUNING, DA","FM-15","EKVJ ","V020","300,1,N,0021,1","02400,1,C,N","006000,1,N,1","+0080,1","+0070,1","99999,9","07,5,+02400,1,99,9",,,"07,99,1,99,9,99,9,99999,9,99,9,99,9","10210,1,99999,9",,,,,"MET051METAR EKVJ 080750Z 30004KT 6000 BKN080 08/07 Q1021;",
"06066099999","2010-04-08T09:50:00","4","55.990122","8.353906","5.18","STAUNING, DA","FM-15","EKVJ ","V020","300,1,N,0021,1","02400,1,C,N","006000,1,N,1","+0080,1","+0070,1","99999,9","07,5,+02400,1,99,9",,,"07,99,1,99,9,99,9,99999,9,99,9,99,9","10210,1,99999,9",,,,,"MET051METAR EKVJ 080950Z 30004KT 6000 BKN080 08/07 Q1021;",
"06066099999","2010-04-08T10:50:00","4","55.990122","8.353906","5.18","STAUNING, DA","FM-15","EKVJ ","V020","300,1,N,0041,1","00300,1,C,N","005000,1,N,1","+0080,1","+0070,1","99999,9","07,5,+00300,1,99,9",,,"07,99,1,99,9,99,9,99999,9,99,9,99,9","10230,1,99999,9","10,1",,,,"MET054METAR EKVJ 081050Z 30008KT 5000 BR BKN010 08/07 Q1023;",
"06066099999","2010-04-08T11:50:00","4","55.990122","8.353906","5.18","STAUNING, DA","FM-15","EKVJ ","V020","290,1,N,0062,1","00300,1,C,N","008000,1,N,1","+0080,1","+0070,1","99999,9","07,5,+00300,1,99,9",,,"07,99,1,99,9,99,9,99999,9,99,9,99,9","10230,1,99999,9",,,,,"MET051METAR EKVJ 081150Z 29012KT 8000 BKN010 08/07 Q1023;",
"06066099999","2010-04-08T13:20:00","4","55.990122","8.353906","5.18","STAUNING, DA","FM-15","EKVJ ","V020","290,1,N,0062,1","00240,1,C,N","011265,1,N,1","+0080,1","+0070,1","99999,9","07,5,+00240,1,99,9",,,"07,99,1,99,9,99,9,99999,9,99,9,99,9","10240,1,99999,9",,,,,"MET051METAR EKVJ 081320Z 29012KT 9999 BKN008 08/07 Q1024;",
"06066099999","2010-04-09T06:20:00","4","55.990122","8.353906","5.18","STAUNING, DA","FM-15","EKVJ ","V020","310,1,N,0051,1","00120,1,C,N","011265,1,N,1","+0060,1","+0060,1","99999,9","07,5,+00120,1,99,9",,,"07,99,1,99,9,99,9,99999,9,99,9,99,9","10281,1,99999,9",,,,,"MET051METAR EKVJ 090620Z 31010KT 9999 BKN004 06/06 Q1028;",
"06066099999","2010-04-09T06:50:00","4","55.990122","8.353906","5.18","STAUNING, DA","FM-15","EKVJ ","V020","310,1,N,0051,1","00150,1,C,N","011265,1,N,1","+0070,1","+0060,1","99999,9","04,5,+00120,1,99,9","07,5,+00150,1,99,9",,"07,99,1,99,9,99,9,99999,9,99,9,99,9","10281,1,99999,9",,,,,"MET058METAR EKVJ 090650Z 31010KT 9999 SCT004 BKN005 07/06 Q1028;",
"06066099999","2010-04-09T07:50:00","4","55.990122","8.353906","5.18","STAUNING, DA","FM-15","EKVJ ","V020","310,1,N,0062,1","00180,1,C,N","011265,1,N,1","+0070,1","+0060,1","99999,9","04,5,+00120,1,99,9","07,5,+00180,1,99,9",,"07,99,1,99,9,99,9,99999,9,99,9,99,9","10281,1,99999,9",,,,,"MET058METAR EKVJ 090750Z 31012KT 9999 SCT004 BKN006 07/06 Q1028;",
"06066099999","2010-04-09T08:50:00","4","55.990122","8.353906","5.18","STAUNING, DA","FM-15","EKVJ ","V020","300,1,N,0062,1","00300,1,C,N","011265,1,N,1","+0070,1","+0060,1","99999,9","04,5,+00150,1,99,9","07,5,+00300,1,99,9",,"07,99,1,99,9,99,9,99999,9,99,9,99,9","10281,1,99999,9",,,,,"MET058METAR EKVJ 090850Z 30012KT 9999 SCT005 BKN010 07/06 Q1028;",
"06066099999","2010-04-09T09:50:00","4","55.990122","8.353906","5.18","STAUNING, DA","FM-15","EKVJ ","V020","300,1,N,0062,1","00300,1,C,N","011265,1,N,1","+0070,1","+0060,1","99999,9","04,5,+00150,1,99,9","07,5,+00300,1,99,9",,"07,99,1,99,9,99,9,99999,9,99,9,99,9","10281,1,99999,9",,,,,"MET058METAR EKVJ 090950Z 30012KT 9999 SCT005 BKN010 07/06 Q1028;",
"06066099999","2010-04-09T11:20:00","4","55.990122","8.353906","5.18","STAUNING, DA","FM-15","EKVJ ","V020","300,1,N,0062,1","00300,1,C,N","011265,1,N,1","+0070,1","+0060,1","99999,9","02,5,+00150,1,99,9","07,5,+00300,1,99,9",,"07,99,1,99,9,99,9,99999,9,99,9,99,9","10281,1,99999,9",,,,,"MET058METAR EKVJ 091120Z 30012KT 9999 FEW005 BKN010 07/06 Q1028;",
"06066099999","2010-04-09T11:50:00","4","55.990122","8.353906","5.18","STAUNING, DA","FM-15","EKVJ ","V020","300,1,N,0062,1","00600,1,C,N","011265,1,N,1","+0080,1","+0070,1","99999,9","02,5,+00240,1,99,9","07,5,+00600,1,99,9",,"07,99,1,99,9,99,9,99999,9,99,9,99,9","10291,1,99999,9",,,,,"MET058METAR EKVJ 091150Z 30012KT 9999 FEW008 BKN020 08/07 Q1029;",
"06066099999","2010-04-09T12:50:00","4","55.990122","8.353906","5.18","STAUNING, DA","FM-15","EKVJ ","V020","300,1,N,0062,1","00600,1,C,N","011265,1,N,1","+0080,1","+0070,1","99999,9","02,5,+00240,1,99,9","07,5,+00600,1,99,9",,"07,99,1,99,9,99,9,99999,9,99,9,99,9","10291,1,99999,9",,,,,"MET058METAR EKVJ 091250Z 30012KT 9999 FEW008 BKN020 08/07 Q1029;",
"06066099999","2010-04-09T13:50:00","4","55.990122","8.353906","5.18","STAUNING, DA","FM-15","EKVJ ","V020","300,1,N,0062,1","00600,1,C,N","011265,1,N,1","+0080,1","+0070,1","99999,9","04,5,+00240,1,99,9","07,5,+00600,1,99,9",,"07,99,1,99,9,99,9,99999,9,99,9,99,9","10291,1,99999,9",,,,,"MET058METAR EKVJ 091350Z 30012KT 9999 SCT008 BKN020 08/07 Q1029;",
"06066099999","2010-04-10T07:50:00","4","55.990122","8.353906","5.18","STAUNING, DA","FM-15","EKVJ ","V020","060,1,N,0041,1","99999,9,9,Y","009900,1,N,1","+0080,1","+0070,1","99999,9",,,,,"10301,1,99999,9",,,,,"MET045METAR EKVJ 100750Z 06008KT CAVOK 08/07 Q1030;",
"06066099999","2010-04-12T07:50:00","4","55.990122","8.353906","5.18","STAUNING, DA","FM-15","EKVJ ","V020","060,1,N,0051,1","99999,9,9,Y","009900,1,N,1","+0080,1","+0060,1","99999,9",,,,,"10312,1,99999,9",,,,,"MET045METAR EKVJ 120750Z 06010KT CAVOK 08/06 Q1031;",
"06066099999","2010-04-12T08:50:00","4","55.990122","8.353906","5.18","STAUNING, DA","FM-15","EKVJ ","V020","060,1,N,0051,1","99999,9,9,Y","009900,1,N,1","+0080,1","+0060,1","99999,9",,,,,"10312,1,99999,9",,,,,"MET045METAR EKVJ 120850Z 06010KT CAVOK 08/06 Q1031;",
"06066099999","2010-04-12T09:50:00","4","55.990122","8.353906","5.18","STAUNING, DA","FM-15","EKVJ ","V020","060,1,N,0051,1","22000,1,9,N","011265,1,N,1","+0080,1","+0060,1","99999,9","02,5,+00750,1,99,9",,,"02,99,1,99,9,99,9,99999,9,99,9,99,9","10312,1,99999,9",,,,,"MET051METAR EKVJ 120950Z 06010KT 9999 FEW025 08/06 Q1031;",
"06066099999","2010-04-12T10:50:00","4","55.990122","8.353906","5.18","STAUNING, DA","FM-15","EKVJ ","V020","060,1,N,0051,1","22000,1,9,N","011265,1,N,1","+0100,1","+0080,1","99999,9","02,5,+00750,1,99,9",,,"02,99,1,99,9,99,9,99999,9,99,9,99,9","10312,1,99999,9",,,,,"MET051METAR EKVJ 121050Z 06010KT 9999 FEW025 10/08 Q1031;",
"06066099999","2010-04-12T12:50:00","4","55.990122","8.353906","5.18","STAUNING, DA","FM-15","EKVJ ","V020","060,1,N,0051,1","22000,1,9,N","011265,1,N,1","+0100,1","+0080,1","99999,9","02,5,+00750,1,99,9",,,"02,99,1,99,9,99,9,99999,9,99,9,99,9","10291,1,99999,9",,,,,"MET051METAR EKVJ 121250Z 06010KT 9999 FEW025 10/08 Q1029;",
"06066099999","2010-04-12T15:20:00","4","55.990122","8.353906","5.18","STAUNING, DA","FM-15","EKVJ ","V020","060,1,N,0026,1","22000,1,9,N","011265,1,N,1","+0140,1","+0120,1","99999,9","02,5,+01200,1,99,9",,,"02,99,1,99,9,99,9,99999,9,99,9,99,9","10271,1,99999,9",,,,,"MET051METAR EKVJ 121520Z 06005KT 9999 FEW040 14/12 Q1027;",
"06066099999","2010-04-13T06:20:00","4","55.990122","8.353906","5.18","STAUNING, DA","FM-15","EKVJ ","V020","300,1,N,0031,1","00600,1,C,N","011265,1,N,1","+0020,1","+0010,1","99999,9","07,5,+00600,1,99,9",,,"07,99,1,99,9,99,9,99999,9,99,9,99,9","10220,1,99999,9",,,,,"MET051METAR EKVJ 130620Z 30006KT 9999 BKN020 02/01 Q1022;",
"06066099999","2010-04-13T07:20:00","4","55.990122","8.353906","5.18","STAUNING, DA","FM-15","EKVJ ","V020","300,1,N,0031,1","00600,1,C,N","011265,1,N,1","+0020,1","+0010,1","99999,9","07,5,+00600,1,99,9",,,"07,99,1,99,9,99,9,99999,9,99,9,99,9","10220,1,99999,9",,,,,"MET051METAR EKVJ 130720Z 30006KT 9999 BKN020 02/01 Q1022;",
"06066099999","2010-04-13T07:50:00","4","55.990122","8.353906","5.18","STAUNING, DA","FM-15","EKVJ ","V020","310,1,N,0051,1","00300,1,C,N","011265,1,N,1","+0060,1","+0050,1","99999,9","07,5,+00300,1,99,9","07,5,+00480,1,99,9",,"07,99,1,99,9,99,9,99999,9,99,9,99,9","10220,1,99999,9",,,,,"MET058METAR EKVJ 130750Z 31010KT 9999 BKN010 BKN016 06/05 Q1022;",
"06066099999","2010-04-13T08:50:00","4","55.990122","8.353906","5.18","STAUNING, DA","FM-15","EKVJ ","V020","310,1,N,0051,1","00300,1,C,N","011265,1,N,1","+0060,1","+0050,1","99999,9","07,5,+00300,1,99,9","07,5,+00480,1,99,9",,"07,99,1,99,9,99,9,99999,9,99,9,99,9","10220,1,99999,9",,,,,"MET058METAR EKVJ 130850Z 31010KT 9999 BKN010 BKN016 06/05 Q1022;",
"06066099999","2010-04-13T09:50:00","4","55.990122","8.353906","5.18","STAUNING, DA","FM-15","EKVJ ","V020","280,1,N,0031,1","00300,1,C,N","011265,1,N,1","+0060,1","+0050,1","99999,9","07,5,+00300,1,99,9",,,"07,99,1,99,9,99,9,99999,9,99,9,99,9","10220,1,99999,9",,,,,"MET059METAR EKVJ 130950Z 28006KT 240V300 9999 BKN010 06/05 Q1022;",
"06066099999","2010-04-13T10:50:00","4","55.990122","8.353906","5.18","STAUNING, DA","FM-15","EKVJ ","V020","280,1,N,0031,1","22000,1,9,N","011265,1,N,1","+0060,1","+0050,1","99999,9","04,5,+00300,1,99,9",,,"04,99,1,99,9,99,9,99999,9,99,9,99,9","10220,1,99999,9",,,,,"MET059METAR EKVJ 131050Z 28006KT 240V300 9999 SCT010 06/05 Q1022;",
"06066099999","2010-04-13T11:50:00","4","55.990122","8.353906","5.18","STAUNING, DA","FM-15","EKVJ ","V020","999,9,V,0015,1","22000,1,9,N","011265,1,N,1","+0060,1","+0050,1","99999,9","02,5,+00300,1,99,9",,,"02,99,1,99,9,99,9,99999,9,99,9,99,9","10200,1,99999,9",,,,,"MET051METAR EKVJ 131150Z VRB03KT 9999 FEW010 06/05 Q1020;",
"06066099999","2010-04-13T12:50:00","4","55.990122","8.353906","5.18","STAUNING, DA","FM-15","EKVJ ","V020","999,9,V,0015,1","22000,1,9,N","011265,1,N,1","+0120,1","+0100,1","99999,9","02,5,+00600,1,99,9",,,"02,99,1,99,9,99,9,99999,9,99,9,99,9","10200,1,99999,9",,,,,"MET051METAR EKVJ 131250Z VRB03KT 9999 FEW020 12/10 Q1020;",
"06066099999","2010-04-13T13:50:00","4","55.990122","8.353906","5.18","STAUNING, DA","FM-15","EKVJ ","V020","100,1,N,0041,1","22000,1,9,N","011265,1,N,1","+0120,1","+0100,1","99999,9","02,5,+01200,1,99,9",,,"02,99,1,99,9,99,9,99999,9,99,9,99,9","10200,1,99999,9",,,,,"MET051METAR EKVJ 131350Z 10008KT 9999 FEW040 12/10 Q1020;",
"06066099999","2010-04-14T06:20:00","4","55.990122","8.353906","5.18","STAUNING, DA","FM-15","EKVJ ","V020","080,1,N,0051,1","99999,9,9,Y","009900,1,N,1","+0070,1","+0040,1","99999,9",,,,,"10251,1,99999,9",,,,,"MET045METAR EKVJ 140620Z 08010KT CAVOK 07/04 Q1025;",
"06066099999","2010-04-14T06:50:00","4","55.990122","8.353906","5.18","STAUNING, DA","FM-15","EKVJ ","V020","080,1,N,0041,1","99999,9,9,Y","009900,1,N,1","+0070,1","+0040,1","99999,9",,,,,"10251,1,99999,9",,,,,"MET045METAR EKVJ 140650Z 08008KT CAVOK 07/04 Q1025;",
"06066099999","2010-04-14T07:50:00","4","55.990122","8.353906","5.18","STAUNING, DA","FM-15","EKVJ ","V020","070,1,N,0041,1","99999,9,9,Y","009900,1,N,1","+0100,1","+0060,1","99999,9",,,,,"10251,1,99999,9",,,,,"MET045METAR EKVJ 140750Z 07008KT CAVOK 10/06 Q1025;",
"06066099999","2010-04-14T08:50:00","4","55.990122","8.353906","5.18","STAUNING, DA","FM-15","EKVJ ","V020","070,1,N,0041,1","99999,9,9,Y","009900,1,N,1","+0110,1","+0040,1","99999,9",,,,,"10251,1,99999,9",,,,,"MET045METAR EKVJ 140850Z 07008KT CAVOK 11/04 Q1025;",
"06066099999","2010-04-14T10:50:00","4","55.990122","8.353906","5.18","STAUNING, DA","FM-15","EKVJ ","V020","090,1,N,0062,1","22000,1,9,N","011265,1,N,1","+0120,1","+0030,1","99999,9","04,5,+01200,1,99,9",,,"04,99,1,99,9,99,9,99999,9,99,9,99,9","10251,1,99999,9",,,,,"MET051METAR EKVJ 141050Z 09012KT 9999 SCT040 12/03 Q1025;",
"06066099999","2010-04-14T11:50:00","4","55.990122","8.353906","5.18","STAUNING, DA","FM-15","EKVJ ","V020","090,1,N,0062,1","22000,1,9,N","011265,1,N,1","+0140,1","+0040,1","99999,9","04,5,+01200,1,99,9",,,"04,99,1,99,9,99,9,99999,9,99,9,99,9","10240,1,99999,9",,,,,"MET051METAR EKVJ 141150Z 09012KT 9999 SCT040 14/04 Q1024;",
"06066099999","2010-04-14T12:50:00","4","55.990122","8.353906","5.18","STAUNING, DA","FM-15","EKVJ ","V020","090,1,N,0041,1","22000,1,9,N","011265,1,N,1","+0140,1","+0040,1","99999,9","04,5,+01200,1,99,9",,,"04,99,1,99,9,99,9,99999,9,99,9,99,9","10240,1,99999,9",,,,,"MET051METAR EKVJ 141250Z 09008KT 9999 SCT040 14/04 Q1024;",
"06066099999","2010-04-14T13:50:00","4","55.990122","8.353906","5.18","STAUNING, DA","FM-15","EKVJ ","V020","100,1,N,0041,1","22000,1,9,N","011265,1,N,1","+0140,1","+0030,1","99999,9","02,5,+01200,1,99,9",,,"02,99,1,99,9,99,9,99999,9,99,9,99,9","10240,1,99999,9",,,,,"MET051METAR EKVJ 141350Z 10008KT 9999 FEW040 14/03 Q1024;",
"06066099999","2010-04-15T06:20:00","4","55.990122","8.353906","5.18","STAUNING, DA","FM-15","EKVJ ","V020","999,9,C,0000,1","99999,9,9,Y","009900,1,N,1","+0040,1","+0040,1","99999,9",,,,,"10220,1,99999,9",,,,,"MET045METAR EKVJ 150620Z 00000KT CAVOK 04/04 Q1022;",
"06066099999","2010-04-15T06:50:00","4","55.990122","8.353906","5.18","STAUNING, DA","FM-15","EKVJ ","V020","310,1,N,0031,1","99999,9,9,Y","009900,1,N,1","+0070,1","+0060,1","99999,9",,,,,"10220,1,99999,9",,,,,"MET045METAR EKVJ 150650Z 31006KT CAVOK 07/06 Q1022;",
"06066099999","2010-04-15T07:50:00","4","55.990122","8.353906","5.18","STAUNING, DA","FM-15","EKVJ ","V020","310,1,N,0051,1","22000,1,9,N","011265,1,N,1","+0080,1","+0070,1","99999,9","04,5,+00270,1,99,9",,,"04,99,1,99,9,99,9,99999,9,99,9,99,9","10220,1,99999,9",,,,,"MET051METAR EKVJ 150750Z 31010KT 9999 SCT009 08/07 Q1022;",
"06066099999","2010-04-15T08:50:00","4","55.990122","8.353906","5.18","STAUNING, DA","FM-15","EKVJ ","V020","310,1,N,0051,1","00240,1,C,N","011265,1,N,1","+0080,1","+0070,1","99999,9","07,5,+00240,1,99,9",,,"07,99,1,99,9,99,9,99999,9,99,9,99,9","10220,1,99999,9",,,,,"MET051METAR EKVJ 150850Z 31010KT 9999 BKN008 08/07 Q1022;",
"06066099999","2010-04-15T09:50:00","4","55.990122","8.353906","5.18","STAUNING, DA","FM-15","EKVJ ","V020","310,1,N,0051,1","22000,1,9,N","011265,1,N,1","+0080,1","+0060,1","99999,9","04,5,+00240,1,99,9",,,"04,99,1,99,9,99,9,99999,9,99,9,99,9","10220,1,99999,9",,,,,"MET051METAR EKVJ 150950Z 31010KT 9999 SCT008 08/06 Q1022;",
"06066099999","2010-04-15T10:50:00","4","55.990122","8.353906","5.18","STAUNING, DA","FM-15","EKVJ ","V020","310,1,N,0062,1","00240,1,C,N","011265,1,N,1","+0070,1","+0050,1","99999,9","07,5,+00240,1,99,9",,,"07,99,1,99,9,99,9,99999,9,99,9,99,9","10220,1,99999,9",,,,,"MET051METAR EKVJ 151050Z 31012KT 9999 BKN008 07/05 Q1022;",
"06066099999","2010-04-15T11:50:00","4","55.990122","8.353906","5.18","STAUNING, DA","FM-15","EKVJ ","V020","310,1,N,0051,1","00240,1,C,N","011265,1,N,1","+0070,1","+0050,1","99999,9","07,5,+00240,1,99,9",,,"07,99,1,99,9,99,9,99999,9,99,9,99,9","10220,1,99999,9",,,,,"MET051METAR EKVJ 151150Z 31010KT 9999 BKN008 07/05 Q1022;",
"06066099999","2010-04-15T12:50:00","4","55.990122","8.353906","5.18","STAUNING, DA","FM-15","EKVJ ","V020","300,1,N,0051,1","22000,1,9,N","011265,1,N,1","+0090,1","+0060,1","99999,9","04,5,+00240,1,99,9",,,"04,99,1,99,9,99,9,99999,9,99,9,99,9","10220,1,99999,9",,,,,"MET051METAR EKVJ 151250Z 30010KT 9999 SCT008 09/06 Q1022;",
"06066099999","2010-04-15T13:50:00","4","55.990122","8.353906","5.18","STAUNING, DA","FM-15","EKVJ ","V020","300,1,N,0062,1","22000,1,9,N","011265,1,N,1","+0090,1","+0060,1","99999,9","04,5,+00300,1,99,9",,,"04,99,1,99,9,99,9,99999,9,99,9,99,9","10220,1,99999,9",,,,,"MET051METAR EKVJ 151350Z 30012KT 9999 SCT010 09/06 Q1022;",
"06066099999","2010-04-16T06:20:00","4","55.990122","8.353906","5.18","STAUNING, DA","FM-15","EKVJ ","V020","330,1,N,0093,1","99999,9,9,Y","009900,1,N,1","+0070,1","+0020,1","99999,9",,,,,"10169,1,99999,9",,,,,"MET045METAR EKVJ 160620Z 33018KT CAVOK 07/02 Q1017;",
"06066099999","2010-04-16T06:50:00","4","55.990122","8.353906","5.18","STAUNING, DA","FM-15","EKVJ ","V020","330,1,N,0093,1","99999,9,9,Y","009900,1,N,1","+0070,1","+0020,1","99999,9",,,,,"10169,1,99999,9",,,,,"MET045METAR EKVJ 160650Z 33018KT CAVOK 07/02 Q1017;",
"06066099999","2010-04-21T06:20:00","4","55.990122","8.353906","5.18","STAUNING, DA","FM-15","EKVJ ","V020","310,1,N,0082,1","00300,1,C,N","011265,1,N,1","+0030,1","+0020,1","99999,9","07,5,+00300,1,99,9","07,5,+02400,1,99,9",,"07,99,1,99,9,99,9,99999,9,99,9,99,9","10091,1,99999,9",,,,,"MET058METAR EKVJ 210620Z 31016KT 9999 BKN010 BKN080 03/02 Q1009;",
"06066099999","2010-04-21T06:50:00","4","55.990122","8.353906","5.18","STAUNING, DA","FM-15","EKVJ ","V020","310,1,N,0082,1","00300,1,C,N","011265,1,N,1","+0030,1","+0020,1","99999,9","07,5,+00300,1,99,9","07,5,+02400,1,99,9",,"07,99,1,99,9,99,9,99999,9,99,9,99,9","10091,1,99999,9",,,,,"MET058METAR EKVJ 210650Z 31016KT 9999 BKN010 BKN080 03/02 Q1009;",
"06066099999","2010-04-21T07:50:00","4","55.990122","8.353906","5.18","STAUNING, DA","FM-15","EKVJ ","V020","310,1,N,0082,1","00300,1,C,N","011265,1,N,1","+0030,1","+0020,1","99999,9","07,5,+00300,1,99,9","07,5,+02400,1,99,9",,"07,99,1,99,9,99,9,99999,9,99,9,99,9","10091,1,99999,9",,,,,"MET058METAR EKVJ 210750Z 31016KT 9999 BKN010 BKN080 03/02 Q1009;",
"06066099999","2010-04-21T08:50:00","4","55.990122","8.353906","5.18","STAUNING, DA","FM-15","EKVJ ","V020","310,1,N,0082,1","00300,1,C,N","011265,1,N,1","+0030,1","+0020,1","99999,9","07,5,+00300,1,99,9","07,5,+02400,1,99,9",,"07,99,1,99,9,99,9,99999,9,99,9,99,9","10091,1,99999,9",,,,,"MET058METAR EKVJ 210850Z 31016KT 9999 BKN010 BKN080 03/02 Q1009;",
"06066099999","2010-04-21T10:50:00","4","55.990122","8.353906","5.18","STAUNING, DA","FM-15","EKVJ ","V020","310,1,N,0082,1","99999,9,C,N","011265,1,N,1","+0040,1","+0030,1","99999,9","04,5,+00300,1,99,9","04,5,+02400,1,99,9",,"04,99,1,99,9,99,9,99999,9,99,9,99,9","10102,1,99999,9",,,,,"MET058METAR EKVJ 211050Z 31016KT 9999 SCT010 SCT080 04/03 Q1010;","P01 024003SCOCIG"
"06066099999","2010-04-21T11:50:00","4","55.990122","8.353906","5.18","STAUNING, DA","FM-15","EKVJ ","V020","310,1,N,0082,1","22000,1,9,N","011265,1,N,1","+0040,1","+0030,1","99999,9","04,5,+00600,1,99,9",,,"04,99,1,99,9,99,9,99999,9,99,9,99,9","10102,1,99999,9",,,,,"MET051METAR EKVJ 211150Z 31016KT 9999 SCT020 04/03 Q1010;",
"06066099999","2010-04-21T12:50:00","4","55.990122","8.353906","5.18","STAUNING, DA","FM-15","EKVJ ","V020","310,1,N,0082,1","22000,1,9,N","011265,1,N,1","+0040,1","+0030,1","99999,9","04,5,+00600,1,99,9",,,"04,99,1,99,9,99,9,99999,9,99,9,99,9","10102,1,99999,9",,,,,"MET051METAR EKVJ 211250Z 31016KT 9999 SCT020 04/03 Q1010;",
"06066099999","2010-04-22T06:20:00","4","55.990122","8.353906","5.18","STAUNING, DA","FM-15","EKVJ ","V020","310,1,N,0051,1","00360,1,C,N","011265,1,N,1","+0060,1","+0050,1","99999,9","02,5,+00300,1,99,9","07,5,+00360,1,99,9",,"07,99,1,99,9,99,9,99999,9,99,9,99,9","10149,1,99999,9",,,,,"MET058METAR EKVJ 220620Z 31010KT 9999 FEW010 BKN012 06/05 Q1015;",
"06066099999","2010-04-22T06:50:00","4","55.990122","8.353906","5.18","STAUNING, DA","FM-15","EKVJ ","V020","310,1,N,0041,1","00360,1,C,N","011265,1,N,1","+0060,1","+0050,1","99999,9","02,5,+00300,1,99,9","07,5,+00360,1,99,9",,"07,99,1,99,9,99,9,99999,9,99,9,99,9","10149,1,99999,9",,,,,"MET058METAR EKVJ 220650Z 31008KT 9999 FEW010 BKN012 06/05 Q1015;",
"06066099999","2010-04-22T07:50:00","4","55.990122","8.353906","5.18","STAUNING, DA","FM-15","EKVJ ","V020","310,1,N,0062,1","22000,1,9,N","011265,1,N,1","+0070,1","+0040,1","99999,9","04,5,+00600,1,99,9",,,"04,99,1,99,9,99,9,99999,9,99,9,99,9","10149,1,99999,9",,,,,"MET051METAR EKVJ 220750Z 31012KT 9999 SCT020 07/04 Q1015;",
"06066099999","2010-04-22T08:50:00","4","55.990122","8.353906","5.18","STAUNING, DA","FM-15","EKVJ ","V020","310,1,N,0062,1","00600,1,C,N","011265,1,N,1","+0080,1","+0050,1","99999,9","07,5,+00600,1,99,9",,,"07,99,1,99,9,99,9,99999,9,99,9,99,9","10149,1,99999,9",,,,,"MET051METAR EKVJ 220850Z 31012KT 9999 BKN020 08/05 Q1015;",
"06066099999","2010-04-22T09:50:00","4","55.990122","8.353906","5.18","STAUNING, DA","FM-15","EKVJ ","V020","310,1,N,0062,1","22000,1,9,N","011265,1,N,1","+0090,1","+0050,1","99999,9","04,5,+00750,1,99,9",,,"04,99,1,99,9,99,9,99999,9,99,9,99,9","10149,1,99999,9",,,,,"MET051METAR EKVJ 220950Z 31012KT 9999 SCT025 09/05 Q1015;",
"06066099999","2010-04-22T10:50:00","4","55.990122","8.353906","5.18","STAUNING, DA","FM-15","EKVJ ","V020","310,1,N,0072,1","00750,1,C,N","011265,1,N,1","+0090,1","+0060,1","99999,9","07,5,+00750,1,99,9",,,"07,99,1,99,9,99,9,99999,9,99,9,99,9","10149,1,99999,9",,,,,"MET051METAR EKVJ 221050Z 31014KT 9999 BKN025 09/06 Q1015;",
"06066099999","2010-04-22T11:50:00","4","55.990122","8.353906","5.18","STAUNING, DA","FM-15","EKVJ ","V020","300,1,N,0072,1","00900,1,C,N","011265,1,N,1","+0090,1","+0050,1","99999,9","07,5,+00900,1,02,1",,,"07,99,1,99,9,99,9,99999,9,99,9,99,9","10149,1,99999,9",,,,,"MET062METAR EKVJ 221150Z 30014KT 270V330 9999 BKN030TCU 09/05 Q1015;",
"06066099999","2010-04-22T12:50:00","4","55.990122","8.353906","5.18","STAUNING, DA","FM-15","EKVJ ","V020","300,1,N,0072,1","00900,1,C,N","011265,1,N,1","+0090,1","+0050,1","99999,9","07,5,+00900,1,02,1",,,"07,99,1,99,9,99,9,99999,9,99,9,99,9","10149,1,99999,9",,,,,"MET062METAR EKVJ 221250Z 30014KT 270V330 9999 BKN030TCU 09/05 Q1015;",
"06066099999","2010-04-22T13:50:00","4","55.990122","8.353906","5.18","STAUNING, DA","FM-15","EKVJ ","V020","300,1,N,0062,1","22000,1,9,N","011265,1,N,1","+0090,1","+0050,1","99999,9","04,5,+00900,1,02,1",,,"04,99,1,99,9,99,9,99999,9,99,9,99,9","10149,1,99999,9",,,,,"MET062METAR EKVJ 221350Z 30012KT 270V330 9999 SCT030TCU 09/05 Q1015;",
"06066099999","2010-04-23T06:20:00","4","55.990122","8.353906","5.18","STAUNING, DA","FM-15","EKVJ ","V020","300,1,N,0051,1","99999,9,C,N","011265,1,N,1","+0060,1","+0040,1","99999,9","02,5,+00450,1,99,9","04,5,+00600,1,99,9",,"04,99,1,99,9,99,9,99999,9,99,9,99,9","10139,1,99999,9",,,,,"MET058METAR EKVJ 230620Z 30010KT 9999 FEW015 SCT020 06/04 Q1014;","P01 006003SCOCIG"
"06066099999","2010-04-23T06:50:00","4","55.990122","8.353906","5.18","STAUNING, DA","FM-15","EKVJ ","V020","300,1,N,0062,1","99999,9,C,N","011265,1,N,1","+0060,1","+0040,1","99999,9","02,5,+00450,1,99,9","02,5,+00600,1,99,9","04,5,+01500,1,99,9","04,99,1,99,9,99,9,99999,9,99,9,99,9","10139,1,99999,9",,,,,"MET065METAR EKVJ 230650Z 30012KT 9999 FEW015 FEW020 SCT050 06/04 Q1014;","P01 015003SCOCIG"
"06066099999","2010-04-23T07:50:00","4","55.990122","8.353906","5.18","STAUNING, DA","FM-15","EKVJ ","V020","300,1,N,0062,1","01500,1,C,N","011265,1,N,1","+0070,1","+0040,1","99999,9","02,5,+00600,1,99,9","07,5,+01500,1,99,9",,"07,99,1,99,9,99,9,99999,9,99,9,99,9","10149,1,99999,9",,,,,"MET058METAR EKVJ 230750Z 30012KT 9999 FEW020 BKN050 07/04 Q1015;",
"06066099999","2010-04-23T08:50:00","4","55.990122","8.353906","5.18","STAUNING, DA","FM-15","EKVJ ","V020","300,1,N,0062,1","99999,9,C,N","011265,1,N,1","+0070,1","+0040,1","99999,9","04,5,+00600,1,99,9","04,5,+01500,1,99,9",,"04,99,1,99,9,99,9,99999,9,99,9,99,9","10149,1,99999,9",,,,,"MET058METAR EKVJ 230850Z 30012KT 9999 SCT020 SCT050 07/04 Q1015;","P01 015003SCOCIG"
"06066099999","2010-04-23T09:50:00","4","55.990122","8.353906","5.18","STAUNING, DA","FM-15","EKVJ ","V020","280,1,N,0062,1","99999,9,C,N","011265,1,N,1","+0080,1","+0030,1","99999,9","02,5,+00600,1,99,9","04,5,+01500,1,99,9",,"04,99,1,99,9,99,9,99999,9,99,9,99,9","10149,1,99999,9",,,,,"MET058METAR EKVJ 230950Z 28012KT 9999 FEW020 SCT050 08/03 Q1015;","P01 015003SCOCIG"
"06066099999","2010-04-23T10:50:00","4","55.990122","8.353906","5.18","STAUNING, DA","FM-15","EKVJ ","V020","280,1,N,0062,1","01500,1,C,N","011265,1,N,1","+0080,1","+0030,1","99999,9","02,5,+00750,1,99,9","07,5,+01500,1,99,9",,"07,99,1,99,9,99,9,99999,9,99,9,99,9","10149,1,99999,9",,,,,"MET058METAR EKVJ 231050Z 28012KT 9999 FEW025 BKN050 08/03 Q1015;",
"06066099999","2010-04-23T11:50:00","4","55.990122","8.353906","5.18","STAUNING, DA","FM-15","EKVJ ","V020","280,1,N,0072,1","01500,1,C,N","011265,1,N,1","+0080,1","+0030,1","99999,9","02,5,+00750,1,99,9","07,5,+01500,1,99,9",,"07,99,1,99,9,99,9,99999,9,99,9,99,9","10149,1,99999,9",,,,,"MET058METAR EKVJ 231150Z 28014KT 9999 FEW025 BKN050 08/03 Q1015;",
"06066099999","2010-04-23T12:50:00","4","55.990122","8.353906","5.18","STAUNING, DA","FM-15","EKVJ ","V020","280,1,N,0082,1","01500,1,C,N","011265,1,N,1","+0080,1","+0030,1","99999,9","02,5,+00750,1,99,9","07,5,+01500,1,99,9",,"07,99,1,99,9,99,9,99999,9,99,9,99,9","10149,1,99999,9",,,,,"MET058METAR EKVJ 231250Z 28016KT 9999 FEW025 BKN050 08/03 Q1015;",
"06066099999","2010-04-23T13:50:00","4","55.990122","8.353906","5.18","STAUNING, DA","FM-15","EKVJ ","V020","280,1,N,0082,1","00900,1,C,N","011265,1,N,1","+0060,1","+0030,1","99999,9","04,5,+00750,1,99,9","07,5,+00900,1,99,9",,"07,99,1,99,9,99,9,99999,9,99,9,99,9","10159,1,99999,9","51,1",,,,"MET062METAR EKVJ 231350Z 28016KT 9999 -DZ SCT025 BKN030 06/03 Q1016;",
"06066099999","2010-04-24T10:50:00","4","55.990122","8.353906","5.18","STAUNING, DA","FM-15","EKVJ ","V020","280,1,N,0026,1","22000,1,9,N","011265,1,N,1","+0100,1","+0050,1","99999,9","02,5,+00900,1,99,9",,,"02,99,1,99,9,99,9,99999,9,99,9,99,9","10220,1,99999,9",,,,,"MET051METAR EKVJ 241050Z 28005KT 9999 FEW030 10/05 Q1022;",
"06066099999","2010-04-26T06:20:00","4","55.990122","8.353906","5.18","STAUNING, DA","FM-15","EKVJ ","V020","110,1,N,0031,1","01800,1,C,N","011265,1,N,1","+0090,1","+0080,1","99999,9","04,5,+00900,1,99,9","07,5,+01800,1,99,9",,"07,99,1,99,9,99,9,99999,9,99,9,99,9","10190,1,99999,9",,,,,"MET058METAR EKVJ 260620Z 11006KT 9999 SCT030 BKN060 09/08 Q1019;",
"06066099999","2010-04-26T06:50:00","4","55.990122","8.353906","5.18","STAUNING, DA","FM-15","EKVJ ","V020","120,1,N,0021,1","02100,1,C,N","011265,1,N,1","+0100,1","+0090,1","99999,9","02,5,+00900,1,99,9","07,5,+02100,1,99,9",,"07,99,1,99,9,99,9,99999,9,99,9,99,9","10190,1,99999,9",,,,,"MET058METAR EKVJ 260650Z 12004KT 9999 FEW030 BKN070 10/09 Q1019;",
"06066099999","2010-04-26T07:50:00","4","55.990122","8.353906","5.18","STAUNING, DA","FM-15","EKVJ ","V020","170,1,N,0021,1","02100,1,C,N","011265,1,N,1","+0110,1","+0090,1","99999,9","02,5,+01050,1,99,9","07,5,+02100,1,99,9",,"07,99,1,99,9,99,9,99999,9,99,9,99,9","10190,1,99999,9",,,,,"MET058METAR EKVJ 260750Z 17004KT 9999 FEW035 BKN070 11/09 Q1019;",
"06066099999","2010-04-26T08:50:00","4","55.990122","8.353906","5.18","STAUNING, DA","FM-15","EKVJ ","V020","180,1,N,0031,1","02100,1,C,N","008000,1,N,1","+0110,1","+0090,1","99999,9","02,5,+01050,1,99,9","07,5,+02100,1,99,9",,"07,99,1,99,9,99,9,99999,9,99,9,99,9","10190,1,99999,9",,,,,"MET058METAR EKVJ 260850Z 18006KT 8000 FEW035 BKN070 11/09 Q1019;",
"06066099999","2010-04-26T09:50:00","4","55.990122","8.353906","5.18","STAUNING, DA","FM-15","EKVJ ","V020","190,1,N,0041,1","01800,1,C,N","008000,1,N,1","+0120,1","+0100,1","99999,9","02,5,+01050,1,99,9","07,5,+01800,1,99,9",,"07,99,1,99,9,99,9,99999,9,99,9,99,9","10200,1,99999,9",,,,,"MET058METAR EKVJ 260950Z 19008KT 8000 FEW035 BKN060 12/10 Q1020;",
"06066099999","2010-04-26T10:50:00","4","55.990122","8.353906","5.18","STAUNING, DA","FM-15","EKVJ ","V020","180,1,N,0041,1","01800,1,C,N","008000,1,N,1","+0120,1","+0090,1","99999,9","02,5,+01050,1,99,9","07,5,+01800,1,99,9",,"07,99,1,99,9,99,9,99999,9,99,9,99,9","10200,1,99999,9",,,,,"MET058METAR EKVJ 261050Z 18008KT 8000 FEW035 BKN060 12/09 Q1020;",
"06066099999","2010-04-26T11:50:00","4","55.990122","8.353906","5.18","STAUNING, DA","FM-15","EKVJ ","V020","230,1,N,0041,1","01800,1,C,N","007000,1,N,1","+0120,1","+0090,1","99999,9","02,5,+01050,1,99,9","07,5,+01800,1,99,9",,"07,99,1,99,9,99,9,99999,9,99,9,99,9","10200,1,99999,9",,,,,"MET058METAR EKVJ 261150Z 23008KT 7000 FEW035 BKN060 12/09 Q1020;",
"06066099999","2010-04-26T12:50:00","4","55.990122","8.353906","5.18","STAUNING, DA","FM-15","EKVJ ","V020","250,1,N,0051,1","01800,1,C,N","007000,1,N,1","+0110,1","+0090,1","99999,9","02,5,+01050,1,99,9","07,5,+01800,1,99,9",,"07,99,1,99,9,99,9,99999,9,99,9,99,9","10200,1,99999,9",,,,,"MET058METAR EKVJ 261250Z 25010KT 7000 FEW035 BKN060 11/09 Q1020;",
"06066099999","2010-04-26T13:50:00","4","55.990122","8.353906","5.18","STAUNING, DA","FM-15","EKVJ ","V020","250,1,N,0051,1","01800,1,C,N","007000,1,N,1","+0110,1","+0090,1","99999,9","02,5,+01050,1,99,9","07,5,+01800,1,99,9",,"07,99,1,99,9,99,9,99999,9,99,9,99,9","10200,1,99999,9",,,,,"MET058METAR EKVJ 261350Z 25010KT 7000 FEW035 BKN060 11/09 Q1020;",
"06066099999","2010-04-27T06:20:00","4","55.990122","8.353906","5.18","STAUNING, DA","FM-15","EKVJ ","V020","290,1,N,0041,1","01200,1,C,N","011265,1,N,1","+0090,1","+0080,1","99999,9","02,5,+00900,1,99,9","07,5,+01200,1,99,9",,"07,99,1,99,9,99,9,99999,9,99,9,99,9","10230,1,99999,9",,,,,"MET058METAR EKVJ 270620Z 29008KT 9999 FEW030 BKN040 09/08 Q1023;",
"06066099999","2010-04-27T06:50:00","4","55.990122","8.353906","5.18","STAUNING, DA","FM-15","EKVJ ","V020","290,1,N,0051,1","01200,1,C,N","011265,1,N,1","+0090,1","+0080,1","99999,9","02,5,+00900,1,99,9","07,5,+01200,1,99,9",,"07,99,1,99,9,99,9,99999,9,99,9,99,9","10230,1,99999,9",,,,,"MET058METAR EKVJ 270650Z 29010KT 9999 FEW030 BKN040 09/08 Q1023;",
"06066099999","2010-04-27T08:20:00","4","55.990122","8.353906","5.18","STAUNING, DA","FM-15","EKVJ ","V020","290,1,N,0062,1","00240,1,C,N","011265,1,N,1","+0090,1","+0080,1","99999,9","07,5,+00240,1,99,9",,,"07,99,1,99,9,99,9,99999,9,99,9,99,9","10240,1,99999,9",,,,,"MET051METAR EKVJ 270820Z 29012KT 9999 BKN008 09/08 Q1024;",
"06066099999","2010-04-27T08:50:00","4","55.990122","8.353906","5.18","STAUNING, DA","FM-15","EKVJ ","V020","290,1,N,0062,1","00240,1,C,N","011265,1,N,1","+0100,1","+0090,1","99999,9","07,5,+00240,1,99,9",,,"07,99,1,99,9,99,9,99999,9,99,9,99,9","10240,1,99999,9",,,,,"MET051METAR EKVJ 270850Z 29012KT 9999 BKN008 10/09 Q1024;",
"06066099999","2010-04-27T09:50:00","4","55.990122","8.353906","5.18","STAUNING, DA","FM-15","EKVJ ","V020","290,1,N,0062,1","00240,1,C,N","011265,1,N,1","+0100,1","+0090,1","99999,9","07,5,+00240,1,99,9",,,"07,99,1,99,9,99,9,99999,9,99,9,99,9","10240,1,99999,9",,,,,"MET051METAR EKVJ 270950Z 29012KT 9999 BKN008 10/09 Q1024;",
"06066099999","2010-04-27T10:50:00","4","55.990122","8.353906","5.18","STAUNING, DA","FM-15","EKVJ ","V020","310,1,N,0062,1","00240,1,C,N","011265,1,N,1","+0100,1","+0090,1","99999,9","07,5,+00240,1,99,9",,,"07,99,1,99,9,99,9,99999,9,99,9,99,9","10251,1,99999,9",,,,,"MET051METAR EKVJ 271050Z 31012KT 9999 BKN008 10/09 Q1025;",
"06066099999","2010-04-27T11:50:00","4","55.990122","8.353906","5.18","STAUNING, DA","FM-15","EKVJ ","V020","310,1,N,0072,1","22000,1,9,N","011265,1,N,1","+0110,1","+0090,1","99999,9","04,5,+00300,1,99,9",,,"04,99,1,99,9,99,9,99999,9,99,9,99,9","10251,1,99999,9",,,,,"MET051METAR EKVJ 271150Z 31014KT 9999 SCT010 11/09 Q1025;",
"06066099999","2010-04-27T12:50:00","4","55.990122","8.353906","5.18","STAUNING, DA","FM-15","EKVJ ","V020","310,1,N,0072,1","22000,1,9,N","011265,1,N,1","+0110,1","+0090,1","99999,9","04,5,+00300,1,99,9",,,"04,99,1,99,9,99,9,99999,9,99,9,99,9","10251,1,99999,9",,,,,"MET051METAR EKVJ 271250Z 31014KT 9999 SCT010 11/09 Q1025;",
"06066099999","2010-04-27T13:50:00","4","55.990122","8.353906","5.18","STAUNING, DA","FM-15","EKVJ ","V020","310,1,N,0062,1","22000,1,9,N","011265,1,N,1","+0110,1","+0090,1","99999,9","04,5,+00300,1,99,9",,,"04,99,1,99,9,99,9,99999,9,99,9,99,9","10251,1,99999,9",,,,,"MET051METAR EKVJ 271350Z 31012KT 9999 SCT010 11/09 Q1025;",
"06066099999","2010-04-28T06:20:00","4","55.990122","8.353906","5.18","STAUNING, DA","FM-15","EKVJ ","V020","200,1,N,0031,1","99999,9,9,Y","009900,1,N,1","+0080,1","+0070,1","99999,9",,,,,"10240,1,99999,9",,,,,"MET045METAR EKVJ 280620Z 20006KT CAVOK 08/07 Q1024;",
"06066099999","2010-04-28T06:50:00","4","55.990122","8.353906","5.18","STAUNING, DA","FM-15","EKVJ ","V020","200,1,N,0031,1","99999,9,9,Y","009900,1,N,1","+0080,1","+0070,1","99999,9",,,,,"10240,1,99999,9",,,,,"MET045METAR EKVJ 280650Z 20006KT CAVOK 08/07 Q1024;",
"06066099999","2010-04-28T07:50:00","4","55.990122","8.353906","5.18","STAUNING, DA","FM-15","EKVJ ","V020","210,1,N,0051,1","99999,9,9,Y","009900,1,N,1","+0100,1","+0090,1","99999,9",,,,,"10240,1,99999,9",,,,,"MET045METAR EKVJ 280750Z 21010KT CAVOK 10/09 Q1024;",
"06066099999","2010-04-28T08:50:00","4","55.990122","8.353906","5.18","STAUNING, DA","FM-15","EKVJ ","V020","210,1,N,0062,1","99999,9,9,Y","009900,1,N,1","+0120,1","+0100,1","99999,9",,,,,"10240,1,99999,9",,,,,"MET045METAR EKVJ 280850Z 21012KT CAVOK 12/10 Q1024;",
"06066099999","2010-04-28T09:50:00","4","55.990122","8.353906","5.18","STAUNING, DA","FM-15","EKVJ ","V020","210,1,N,0051,1","99999,9,9,Y","009900,1,N,1","+0120,1","+0100,1","99999,9",,,,,"10240,1,99999,9",,,,,"MET045METAR EKVJ 280950Z 21010KT CAVOK 12/10 Q1024;",
"06066099999","2010-04-28T10:50:00","4","55.990122","8.353906","5.18","STAUNING, DA","FM-15","EKVJ ","V020","210,1,N,0072,1","99999,9,9,Y","009900,1,N,1","+0120,1","+0100,1","99999,9",,,,,"10240,1,99999,9",,,,,"MET045METAR EKVJ 281050Z 21014KT CAVOK 12/10 Q1024;",
"06066099999","2010-04-28T12:20:00","4","55.990122","8.353906","5.18","STAUNING, DA","FM-15","EKVJ ","V020","210,1,N,0072,1","99999,9,9,Y","009900,1,N,1","+0120,1","+0100,1","99999,9",,,,,"10230,1,99999,9",,,,,"MET045METAR EKVJ 281220Z 21014KT CAVOK 12/10 Q1023;",
"06066099999","2010-04-29T06:20:00","4","55.990122","8.353906","5.18","STAUNING, DA","FM-15","EKVJ ","V020","180,1,N,0041,1","00600,1,C,N","006000,1,N,1","+0130,1","+0100,1","99999,9","07,5,+00600,1,99,9",,,"07,99,1,99,9,99,9,99999,9,99,9,99,9","10210,1,99999,9",,,,,"MET051METAR EKVJ 290620Z 18008KT 6000 BKN020 13/10 Q1021;",
"06066099999","2010-04-29T06:50:00","4","55.990122","8.353906","5.18","STAUNING, DA","FM-15","EKVJ ","V020","180,1,N,0041,1","02400,1,C,N","006000,1,N,1","+0130,1","+0100,1","99999,9","02,5,+00600,1,99,9","07,5,+02400,1,99,9",,"07,99,1,99,9,99,9,99999,9,99,9,99,9","10102,1,99999,9",,,,,"MET058METAR EKVJ 290650Z 18008KT 6000 FEW020 BKN080 13/10 Q1010;",
"06066099999","2010-04-29T07:50:00","4","55.990122","8.353906","5.18","STAUNING, DA","FM-15","EKVJ ","V020","180,1,N,0041,1","02400,1,C,N","006000,1,N,1","+0130,1","+0100,1","99999,9","02,5,+00600,1,99,9","07,5,+02400,1,99,9",,"07,99,1,99,9,99,9,99999,9,99,9,99,9","10102,1,99999,9",,,,,"MET058METAR EKVJ 290750Z 18008KT 6000 FEW020 BKN080 13/10 Q1010;",
"06066099999","2010-04-29T08:50:00","4","55.990122","8.353906","5.18","STAUNING, DA","FM-15","EKVJ ","V020","200,1,N,0051,1","02400,1,C,N","008000,1,N,1","+0130,1","+0100,1","99999,9","02,5,+00600,1,99,9","07,5,+02400,1,99,9",,"07,99,1,99,9,99,9,99999,9,99,9,99,9","10102,1,99999,9",,,,,"MET058METAR EKVJ 290850Z 20010KT 8000 FEW020 BKN080 13/10 Q1010;",
"06066099999","2010-04-29T10:50:00","4","55.990122","8.353906","5.18","STAUNING, DA","FM-15","EKVJ ","V020","200,1,N,0051,1","22000,1,9,N","008000,1,N,1","+0130,1","+0100,1","99999,9","02,5,+00600,1,99,9",,,"02,99,1,99,9,99,9,99999,9,99,9,99,9","10102,1,99999,9",,,,,"MET051METAR EKVJ 291050Z 20010KT 8000 FEW020 13/10 Q1010;",
"06066099999","2010-04-29T11:50:00","4","55.990122","8.353906","5.18","STAUNING, DA","FM-15","EKVJ ","V020","210,1,N,0051,1","22000,1,9,N","008000,1,N,1","+0130,1","+0100,1","99999,9","02,5,+00600,1,99,9",,,"02,99,1,99,9,99,9,99999,9,99,9,99,9","10091,1,99999,9",,,,,"MET051METAR EKVJ 291150Z 21010KT 8000 FEW020 13/10 Q1009;",
"06066099999","2010-04-29T12:50:00","4","55.990122","8.353906","5.18","STAUNING, DA","FM-15","EKVJ ","V020","210,1,N,0051,1","22000,1,9,N","008000,1,N,1","+0160,1","+0120,1","99999,9",,,,"00,99,1,99,9,99,9,99999,9,99,9,99,9","10091,1,99999,9",,,,,"MET048METAR EKVJ 291250Z 21010KT 8000 NSC 16/12 Q1009;","Q01    003SCCGA1"
"06066099999","2010-04-29T13:50:00","4","55.990122","8.353906","5.18","STAUNING, DA","FM-15","EKVJ ","V020","210,1,N,0051,1","22000,1,9,N","008000,1,N,1","+0160,1","+0120,1","99999,9",,,,"00,99,1,99,9,99,9,99999,9,99,9,99,9","10091,1,99999,9",,,,,"MET048METAR EKVJ 291350Z 21010KT 8000 NSC 16/12 Q1009;","Q01    003SCCGA1"
"06066099999","2010-05-03T06:20:00","4","55.990122","8.353906","5.18","STAUNING, DA","FM-15","EKVJ ","V020","360,1,N,0015,1","03000,1,C,N","011265,1,N,1","+0060,1","+0030,1","99999,9","02,5,+00900,1,99,9","07,5,+03000,1,99,9",,"07,99,1,99,9,99,9,99999,9,99,9,99,9","10159,1,99999,9",,,,,"MET058METAR EKVJ 030620Z 36003KT 9999 FEW030 BKN100 06/03 Q1016;",
"06066099999","2010-05-03T06:50:00","4","55.990122","8.353906","5.18","STAUNING, DA","FM-15","EKVJ ","V020","030,1,N,0015,1","99999,9,9,Y","009900,1,N,1","+0060,1","+0030,1","99999,9",,,,,"10159,1,99999,9",,,,,"MET045METAR EKVJ 030650Z 03003KT CAVOK 06/03 Q1016;",
"06066099999","2010-05-03T07:50:00","4","55.990122","8.353906","5.18","STAUNING, DA","FM-15","EKVJ ","V020","010,1,N,0015,1","99999,9,9,Y","009900,1,N,1","+0080,1","+0030,1","99999,9",,,,,"10159,1,99999,9",,,,,"MET045METAR EKVJ 030750Z 01003KT CAVOK 08/03 Q1016;",
"06066099999","2010-05-03T08:50:00","4","55.990122","8.353906","5.18","STAUNING, DA","FM-15","EKVJ ","V020","040,1,N,0031,1","99999,9,9,Y","009900,1,N,1","+0090,1","+0040,1","99999,9",,,,,"10159,1,99999,9",,,,,"MET045METAR EKVJ 030850Z 04006KT CAVOK 09/04 Q1016;",
"06066099999","2010-05-03T09:50:00","4","55.990122","8.353906","5.18","STAUNING, DA","FM-15","EKVJ ","V020","050,1,N,0041,1","99999,9,9,Y","009900,1,N,1","+0110,1","+0040,1","99999,9",,,,,"10159,1,99999,9",,,,,"MET045METAR EKVJ 030950Z 05008KT CAVOK 11/04 Q1016;",
"06066099999","2010-05-03T10:50:00","4","55.990122","8.353906","5.18","STAUNING, DA","FM-15","EKVJ ","V020","050,1,N,0041,1","99999,9,9,Y","009900,1,N,1","+0110,1","+0040,1","99999,9",,,,,"10159,1,99999,9",,,,,"MET045METAR EKVJ 031050Z 05008KT CAVOK 11/04 Q1016;",
"06066099999","2010-05-03T11:50:00","4","55.990122","8.353906","5.18","STAUNING, DA","FM-15","EKVJ ","V020","040,1,N,0026,1","03600,1,C,N","011265,1,N,1","+0110,1","+0030,1","99999,9","02,5,+01200,1,99,9","07,5,+03600,1,99,9",,"07,99,1,99,9,99,9,99999,9,99,9,99,9","10159,1,99999,9",,,,,"MET066METAR EKVJ 031150Z 04005KT 360V070 9999 FEW040 BKN120 11/03 Q1016;",
"06066099999","2010-05-03T12:50:00","4","55.990122","8.353906","5.18","STAUNING, DA","FM-15","EKVJ ","V020","040,1,N,0031,1","03600,1,C,N","011265,1,N,1","+0130,1","+0040,1","99999,9","02,5,+01200,1,99,9","07,5,+03600,1,99,9",,"07,99,1,99,9,99,9,99999,9,99,9,99,9","10159,1,99999,9",,,,,"MET066METAR EKVJ 031250Z 04006KT 360V090 9999 FEW040 BKN120 13/04 Q1016;",
"06066099999","2010-05-03T13:50:00","4","55.990122","8.353906","5.18","STAUNING, DA","FM-15","EKVJ ","V020","040,1,N,0031,1","03600,1,C,N","011265,1,N,1","+0130,1","+0020,1","99999,9","02,5,+01200,1,99,9","07,5,+03600,1,99,9",,"07,99,1,99,9,99,9,99999,9,99,9,99,9","10159,1,99999,9",,,,,"MET066METAR EKVJ 031350Z 04006KT 360V090 9999 FEW040 BKN120 13/02 Q1016;",
"06066099999","2010-05-04T06:20:00","4","55.990122","8.353906","5.18","STAUNING, DA","FM-15","EKVJ ","V020","320,1,N,0082,1","22000,1,9,N","011265,1,N,1","+0060,1","+0020,1","99999,9","04,5,+00780,1,99,9",,,"04,99,1,99,9,99,9,99999,9,99,9,99,9","10159,1,99999,9",,,,,"MET051METAR EKVJ 040620Z 32016KT 9999 SCT026 06/02 Q1016;",
"06066099999","2010-05-04T06:50:00","4","55.990122","8.353906","5.18","STAUNING, DA","FM-15","EKVJ ","V020","320,1,N,0082,1","22000,1,9,N","011265,1,N,1","+0060,1","+0020,1","99999,9","04,5,+00780,1,99,9",,,"04,99,1,99,9,99,9,99999,9,99,9,99,9","10159,1,99999,9",,,,,"MET051METAR EKVJ 040650Z 32016KT 9999 SCT026 06/02 Q1016;",
"06066099999","2010-05-04T07:50:00","4","55.990122","8.353906","5.18","STAUNING, DA","FM-15","EKVJ ","V020","320,1,N,0082,1","22000,1,9,N","011265,1,N,1","+0060,1","+0020,1","99999,9","04,5,+00780,1,99,9",,,"04,99,1,99,9,99,9,99999,9,99,9,99,9","10159,1,99999,9",,,,,"MET051METAR EKVJ 040750Z 32016KT 9999 SCT026 06/02 Q1016;",
"06066099999","2010-05-04T08:50:00","4","55.990122","8.353906","5.18","STAUNING, DA","FM-15","EKVJ ","V020","320,1,N,0082,1","22000,1,9,N","011265,1,N,1","+0060,1","+0020,1","99999,9","04,5,+00780,1,99,9",,,"04,99,1,99,9,99,9,99999,9,99,9,99,9","10159,1,99999,9",,,,,"MET051METAR EKVJ 040850Z 32016KT 9999 SCT026 06/02 Q1016;",
"06066099999","2010-05-04T09:50:00","4","55.990122","8.353906","5.18","STAUNING, DA","FM-15","EKVJ ","V020","300,1,N,0103,1","22000,1,9,N","011265,1,N,1","+0060,1","+0020,1","99999,9","04,5,+00780,1,99,9",,,"04,99,1,99,9,99,9,99999,9,99,9,99,9","10169,1,99999,9",,,,,"MET051METAR EKVJ 040950Z 30020KT 9999 SCT026 06/02 Q1017;",
"06066099999","2010-05-04T10:50:00","4","55.990122","8.353906","5.18","STAUNING, DA","FM-15","EKVJ ","V020","300,1,N,0103,1","22000,1,9,N","011265,1,N,1","+0060,1","+0020,1","99999,9","04,5,+00780,1,99,9",,,"04,99,1,99,9,99,9,99999,9,99,9,99,9","10169,1,99999,9",,,,,"MET051METAR EKVJ 041050Z 30020KT 9999 SCT026 06/02 Q1017;",
"06066099999","2010-05-04T11:50:00","4","55.990122","8.353906","5.18","STAUNING, DA","FM-15","EKVJ ","V020","300,1,N,0103,1","22000,1,9,N","011265,1,N,1","+0060,1","+0020,1","99999,9","02,5,+00780,1,99,9",,,"02,99,1,99,9,99,9,99999,9,99,9,99,9","10169,1,99999,9",,,,,"MET051METAR EKVJ 041150Z 30020KT 9999 FEW026 06/02 Q1017;",
"06066099999","2010-05-04T13:50:00","4","55.990122","8.353906","5.18","STAUNING, DA","FM-15","EKVJ ","V020","300,1,N,0103,1","22000,1,9,N","011265,1,N,1","+0060,1","+0020,1","99999,9","02,5,+00780,1,99,9",,,"02,99,1,99,9,99,9,99999,9,99,9,99,9","10180,1,99999,9",,,,,"MET051METAR EKVJ 041350Z 30020KT 9999 FEW026 06/02 Q1018;",
"06066099999","2010-05-05T06:20:00","4","55.990122","8.353906","5.18","STAUNING, DA","FM-15","EKVJ ","V020","040,1,N,0021,1","99999,9,9,Y","009900,1,N,1","+0060,1","+0050,1","99999,9",,,,,"10210,1,99999,9",,,,,"MET045METAR EKVJ 050620Z 04004KT CAVOK 06/05 Q1021;",
"06066099999","2010-05-05T06:50:00","4","55.990122","8.353906","5.18","STAUNING, DA","FM-15","EKVJ ","V020","040,1,N,0021,1","22000,1,9,N","011265,1,N,1","+0060,1","+0050,1","99999,9","04,5,+00600,1,99,9",,,"04,99,1,99,9,99,9,99999,9,99,9,99,9","10210,1,99999,9",,,,,"MET051METAR EKVJ 050650Z 04004KT 9999 SCT020 06/05 Q1021;",
"06066099999","2010-05-05T07:50:00","4","55.990122","8.353906","5.18","STAUNING, DA","FM-15","EKVJ ","V020","050,1,N,0031,1","22000,1,9,N","011265,1,N,1","+0080,1","+0040,1","99999,9","04,5,+00750,1,99,9",,,"04,99,1,99,9,99,9,99999,9,99,9,99,9","10220,1,99999,9",,,,,"MET051METAR EKVJ 050750Z 05006KT 9999 SCT025 08/04 Q1022;",
"06066099999","2010-05-05T08:50:00","4","55.990122","8.353906","5.18","STAUNING, DA","FM-15","EKVJ ","V020","050,1,N,0031,1","22000,1,9,N","011265,1,N,1","+0090,1","+0040,1","99999,9","04,5,+00900,1,99,9",,,"04,99,1,99,9,99,9,99999,9,99,9,99,9","10220,1,99999,9",,,,,"MET059METAR EKVJ 050850Z 05006KT 350V080 9999 SCT030 09/04 Q1022;",
"06066099999","2010-05-05T09:50:00","4","55.990122","8.353906","5.18","STAUNING, DA","FM-15","EKVJ ","V020","060,1,N,0031,1","22000,1,9,N","011265,1,N,1","+0100,1","+0030,1","99999,9","04,5,+00900,1,99,9",,,"04,99,1,99,9,99,9,99999,9,99,9,99,9","10220,1,99999,9",,,,,"MET059METAR EKVJ 050950Z 06006KT 030V120 9999 SCT030 10/03 Q1022;",
"06066099999","2010-05-05T10:50:00","4","55.990122","8.353906","5.18","STAUNING, DA","FM-15","EKVJ ","V020","300,1,N,0041,1","00900,1,C,N","011265,1,N,1","+0110,1","+0060,1","99999,9","07,5,+00900,1,99,9",,,"07,99,1,99,9,99,9,99999,9,99,9,99,9","10220,1,99999,9",,,,,"MET051METAR EKVJ 051050Z 30008KT 9999 BKN030 11/06 Q1022;",
"06066099999","2010-05-05T11:50:00","4","55.990122","8.353906","5.18","STAUNING, DA","FM-15","EKVJ ","V020","300,1,N,0051,1","00900,1,C,N","011265,1,N,1","+0120,1","+0060,1","99999,9","07,5,+00900,1,99,9",,,"07,99,1,99,9,99,9,99999,9,99,9,99,9","10210,1,99999,9",,,,,"MET059METAR EKVJ 051150Z 30010KT 270V330 9999 BKN030 12/06 Q1021;",
"06066099999","2010-05-05T12:50:00","4","55.990122","8.353906","5.18","STAUNING, DA","FM-15","EKVJ ","V020","300,1,N,0062,1","00900,1,C,N","011265,1,N,1","+0120,1","+0060,1","99999,9","07,5,+00900,1,99,9",,,"07,99,1,99,9,99,9,99999,9,99,9,99,9","10210,1,99999,9",,,,,"MET059METAR EKVJ 051250Z 30012KT 270V340 9999 BKN030 12/06 Q1021;",
"06066099999","2010-05-05T13:50:00","4","55.990122","8.353906","5.18","STAUNING, DA","FM-15","EKVJ ","V020","300,1,N,0062,1","01050,1,C,N","011265,1,N,1","+0120,1","+0060,1","99999,9","07,5,+01050,1,99,9",,,"07,99,1,99,9,99,9,99999,9,99,9,99,9","10210,1,99999,9",,,,,"MET059METAR EKVJ 051350Z 30012KT 270V340 9999 BKN035 12/06 Q1021;",
"06066099999","2010-05-06T06:20:00","4","55.990122","8.353906","5.18","STAUNING, DA","FM-15","EKVJ ","V020","100,1,N,0041,1","22000,1,9,N","011265,1,N,1","+0070,1","+0060,1","99999,9","02,5,+00900,1,99,9",,,"02,99,1,99,9,99,9,99999,9,99,9,99,9","10169,1,99999,9",,,,,"MET051METAR EKVJ 060620Z 10008KT 9999 FEW030 07/06 Q1017;",
"06066099999","2010-05-06T06:50:00","4","55.990122","8.353906","5.18","STAUNING, DA","FM-15","EKVJ ","V020","100,1,N,0041,1","22000,1,9,N","011265,1,N,1","+0070,1","+0060,1","99999,9","02,5,+00900,1,99,9",,,"02,99,1,99,9,99,9,99999,9,99,9,99,9","10169,1,99999,9",,,,,"MET051METAR EKVJ 060650Z 10008KT 9999 FEW030 07/06 Q1017;",
"06066099999","2010-05-06T07:50:00","4","55.990122","8.353906","5.18","STAUNING, DA","FM-15","EKVJ ","V020","100,1,N,0041,1","22000,1,9,N","011265,1,N,1","+0070,1","+0060,1","99999,9","02,5,+00900,1,99,9",,,"02,99,1,99,9,99,9,99999,9,99,9,99,9","10169,1,99999,9",,,,,"MET051METAR EKVJ 060750Z 10008KT 9999 FEW030 07/06 Q1017;",
"06066099999","2010-05-06T08:50:00","4","55.990122","8.353906","5.18","STAUNING, DA","FM-15","EKVJ ","V020","100,1,N,0041,1","22000,1,9,N","011265,1,N,1","+0070,1","+0060,1","99999,9","02,5,+00900,1,99,9",,,"02,99,1,99,9,99,9,99999,9,99,9,99,9","10169,1,99999,9",,,,,"MET051METAR EKVJ 060850Z 10008KT 9999 FEW030 07/06 Q1017;",
"06066099999","2010-05-06T09:50:00","4","55.990122","8.353906","5.18","STAUNING, DA","FM-15","EKVJ ","V020","100,1,N,0062,1","22000,1,9,N","011265,1,N,1","+0070,1","+0060,1","99999,9","04,5,+00900,1,99,9",,,"04,99,1,99,9,99,9,99999,9,99,9,99,9","10159,1,99999,9",,,,,"MET051METAR EKVJ 060950Z 10012KT 9999 SCT030 07/06 Q1016;",
"06066099999","2010-05-06T10:50:00","4","55.990122","8.353906","5.18","STAUNING, DA","FM-15","EKVJ ","V020","110,1,N,0082,1","22000,1,9,N","011265,1,N,1","+0070,1","+0060,1","99999,9","04,5,+00900,1,99,9",,,"04,99,1,99,9,99,9,99999,9,99,9,99,9","10159,1,99999,9",,,,,"MET051METAR EKVJ 061050Z 11016KT 9999 SCT030 07/06 Q1016;",
"06066099999","2010-05-06T11:50:00","4","55.990122","8.353906","5.18","STAUNING, DA","FM-15","EKVJ ","V020","110,1,N,0082,1","22000,1,9,N","011265,1,N,1","+0090,1","+0060,1","99999,9","04,5,+00900,1,99,9",,,"04,99,1,99,9,99,9,99999,9,99,9,99,9","10149,1,99999,9",,,,,"MET051METAR EKVJ 061150Z 11016KT 9999 SCT030 09/06 Q1015;",
"06066099999","2010-05-06T12:50:00","4","55.990122","8.353906","5.18","STAUNING, DA","FM-15","EKVJ ","V020","110,1,N,0082,1","22000,1,9,N","011265,1,N,1","+0100,1","+0070,1","99999,9","04,5,+00900,1,99,9",,,"04,99,1,99,9,99,9,99999,9,99,9,99,9","10149,1,99999,9",,,,,"MET051METAR EKVJ 061250Z 11016KT 9999 SCT030 10/07 Q1015;",
"06066099999","2010-05-07T06:20:00","4","55.990122","8.353906","5.18","STAUNING, DA","FM-15","EKVJ ","V020","040,1,N,0051,1","02400,1,C,N","011265,1,N,1","+0070,1","+0030,1","99999,9","02,5,+00900,1,99,9","07,5,+02400,1,99,9",,"07,99,1,99,9,99,9,99999,9,99,9,99,9","10129,1,99999,9",,,,,"MET058METAR EKVJ 070620Z 04010KT 9999 FEW030 BKN080 07/03 Q1013;",
"06066099999","2010-05-07T06:50:00","4","55.990122","8.353906","5.18","STAUNING, DA","FM-15","EKVJ ","V020","050,1,N,0051,1","02400,1,C,N","011265,1,N,1","+0070,1","+0030,1","99999,9","02,5,+00900,1,99,9","07,5,+02400,1,99,9",,"07,99,1,99,9,99,9,99999,9,99,9,99,9","10129,1,99999,9",,,,,"MET058METAR EKVJ 070650Z 05010KT 9999 FEW030 BKN080 07/03 Q1013;",
"06066099999","2010-05-07T07:50:00","4","55.990122","8.353906","5.18","STAUNING, DA","FM-15","EKVJ ","V020","060,1,N,0051,1","01500,1,C,N","011265,1,N,1","+0090,1","+0040,1","99999,9","04,5,+00900,1,99,9","07,5,+01500,1,99,9",,"07,99,1,99,9,99,9,99999,9,99,9,99,9","10129,1,99999,9",,,,"0103,1","MET069METAR EKVJ 070750Z 06010G20KT 030V100 9999 SCT030 BKN050 09/04 Q1013;",
"06066099999","2010-05-07T08:50:00","4","55.990122","8.353906","5.18","STAUNING, DA","FM-15","EKVJ ","V020","060,1,N,0051,1","00900,1,C,N","011265,1,N,1","+0090,1","+0040,1","99999,9","07,5,+00900,1,99,9",,,"07,99,1,99,9,99,9,99999,9,99,9,99,9","10129,1,99999,9",,,,"0103,1","MET062METAR EKVJ 070850Z 06010G20KT 030V100 9999 BKN030 09/04 Q1013;",
"06066099999","2010-05-07T09:50:00","4","55.990122","8.353906","5.18","STAUNING, DA","FM-15","EKVJ ","V020","060,1,N,0051,1","00900,1,C,N","011265,1,N,1","+0090,1","+0040,1","99999,9","07,5,+00900,1,99,9",,,"07,99,1,99,9,99,9,99999,9,99,9,99,9","10129,1,99999,9",,,,"0103,1","MET062METAR EKVJ 070950Z 06010G20KT 010V120 9999 BKN030 09/04 Q1013;",
"06066099999","2010-05-07T10:50:00","4","55.990122","8.353906","5.18","STAUNING, DA","FM-15","EKVJ ","V020","060,1,N,0051,1","00900,1,C,N","011265,1,N,1","+0100,1","+0050,1","99999,9","07,5,+00900,1,99,9",,,"07,99,1,99,9,99,9,99999,9,99,9,99,9","10129,1,99999,9",,,,"0103,1","MET062METAR EKVJ 071050Z 06010G20KT 010V120 9999 BKN030 10/05 Q1013;",
"06066099999","2010-05-07T11:50:00","4","55.990122","8.353906","5.18","STAUNING, DA","FM-15","EKVJ ","V020","060,1,N,0051,1","00900,1,C,N","011265,1,N,1","+0100,1","+0050,1","99999,9","07,5,+00900,1,99,9",,,"07,99,1,99,9,99,9,99999,9,99,9,99,9","10129,1,99999,9",,,,"0103,1","MET062METAR EKVJ 071150Z 06010G20KT 010V130 9999 BKN030 10/05 Q1013;",
"06066099999","2010-05-07T12:50:00","4","55.990122","8.353906","5.18","STAUNING, DA","FM-15","EKVJ ","V020","060,1,N,0051,1","00900,1,C,N","011265,1,N,1","+0100,1","+0050,1","99999,9","07,5,+00900,1,99,9",,,"07,99,1,99,9,99,9,99999,9,99,9,99,9","10129,1,99999,9",,,,"0103,1","MET062METAR EKVJ 071250Z 06010G20KT 010V130 9999 BKN030 10/05 Q1013;",
"06066099999","2010-05-07T13:50:00","4","55.990122","8.353906","5.18","STAUNING, DA","FM-15","EKVJ ","V020","060,1,N,0051,1","00900,1,C,N","011265,1,N,1","+0100,1","+0040,1","99999,9","07,5,+00900,1,99,9",,,"07,99,1,99,9,99,9,99999,9,99,9,99,9","10129,1,99999,9",,,,"0103,1","MET062METAR EKVJ 071350Z 06010G20KT 010V130 9999 BKN030 10/04 Q1013;",
"06066099999","2010-05-08T08:50:00","4","55.990122","8.353906","5.18","STAUNING, DA","FM-15","EKVJ ","V020","060,1,N,0051,1","01200,1,C,N","011265,1,N,1","+0090,1","+0050,1","99999,9","04,5,+00750,1,99,9","07,5,+01200,1,99,9",,"07,99,1,99,9,99,9,99999,9,99,9,99,9","10129,1,99999,9",,,,,"MET058METAR EKVJ 080850Z 06010KT 9999 SCT025 BKN040 09/05 Q1013;",
"06066099999","2010-05-08T09:50:00","4","55.990122","8.353906","5.18","STAUNING, DA","FM-15","EKVJ ","V020","060,1,N,0041,1","01200,1,C,N","011265,1,N,1","+0090,1","+0050,1","99999,9","04,5,+00750,1,99,9","07,5,+01200,1,99,9",,"07,99,1,99,9,99,9,99999,9,99,9,99,9","10129,1,99999,9",,,,,"MET066METAR EKVJ 080950Z 06008KT 030V090 9999 SCT025 BKN040 09/05 Q1013;",
"06066099999","2010-05-08T10:50:00","4","55.990122","8.353906","5.18","STAUNING, DA","FM-15","EKVJ ","V020","060,1,N,0041,1","00600,1,C,N","011265,1,N,1","+0090,1","+0050,1","99999,9","07,5,+00600,1,99,9","07,5,+01200,1,99,9",,"07,99,1,99,9,99,9,99999,9,99,9,99,9","10129,1,99999,9","80,1",,,,"MET072METAR EKVJ 081050Z 06008KT 030V090 9999 -SHRA BKN020 BKN040 09/05 Q1013;",
"06066099999","2010-05-08T11:50:00","4","55.990122","8.353906","5.18","STAUNING, DA","FM-15","EKVJ ","V020","060,1,N,0041,1","00600,1,C,N","011265,1,N,1","+0090,1","+0050,1","99999,9","07,5,+00600,1,99,9","07,5,+01200,1,99,9",,"07,99,1,99,9,99,9,99999,9,99,9,99,9","10129,1,99999,9","80,1",,,,"MET072METAR EKVJ 081150Z 06008KT 030V090 9999 -SHRA BKN020 BKN040 09/05 Q1013;",
"06066099999","2010-05-08T12:50:00","4","55.990122","8.353906","5.18","STAUNING, DA","FM-15","EKVJ ","V020","060,1,N,0031,1","00600,1,C,N","011265,1,N,1","+0090,1","+0050,1","99999,9","07,5,+00600,1,99,9","07,5,+01200,1,99,9",,"07,99,1,99,9,99,9,99999,9,99,9,99,9","10129,1,99999,9",,,,,"MET066METAR EKVJ 081250Z 06006KT 030V090 9999 BKN020 BKN040 09/05 Q1013;",
"06066099999","2010-05-08T13:50:00","4","55.990122","8.353906","5.18","STAUNING, DA","FM-15","EKVJ ","V020","060,1,N,0031,1","00600,1,C,N","011265,1,N,1","+0090,1","+0050,1","99999,9","07,5,+00600,1,99,9","07,5,+01200,1,99,9",,"07,99,1,99,9,99,9,99999,9,99,9,99,9","10129,1,99999,9",,,,,"MET066METAR EKVJ 081350Z 06006KT 030V090 9999 BKN020 BKN040 09/05 Q1013;",
"06066099999","2010-05-09T08:20:00","4","55.990122","8.353906","5.18","STAUNING, DA","FM-15","EKVJ ","V020","270,1,N,0031,1","22000,1,9,N","011265,1,N,1","+0090,1","+0060,1","99999,9","04,5,+00600,1,99,9",,,"04,99,1,99,9,99,9,99999,9,99,9,99,9","10108,1,99999,9",,,,,"MET051METAR EKVJ 090820Z 27006KT 9999 SCT020 09/06 Q1011;",
"06066099999","2010-05-09T08:50:00","4","55.990122","8.353906","5.18","STAUNING, DA","FM-15","EKVJ ","V020","270,1,N,0041,1","22000,1,9,N","011265,1,N,1","+0090,1","+0060,1","99999,9","04,5,+00600,1,99,9",,,"04,99,1,99,9,99,9,99999,9,99,9,99,9","10108,1,99999,9",,,,,"MET051METAR EKVJ 090850Z 27008KT 9999 SCT020 09/06 Q1011;",
"06066099999","2010-05-09T09:50:00","4","55.990122","8.353906","5.18","STAUNING, DA","FM-15","EKVJ ","V020","270,1,N,0041,1","22000,1,9,N","011265,1,N,1","+0100,1","+0060,1","99999,9","04,5,+00600,1,99,9",,,"04,99,1,99,9,99,9,99999,9,99,9,99,9","10102,1,99999,9",,,,,"MET051METAR EKVJ 090950Z 27008KT 9999 SCT020 10/06 Q1010;",
"06066099999","2010-05-09T10:50:00","4","55.990122","8.353906","5.18","STAUNING, DA","FM-15","EKVJ ","V020","280,1,N,0041,1","00600,1,C,N","011265,1,N,1","+0100,1","+0060,1","99999,9","07,5,+00600,1,99,9",,,"07,99,1,99,9,99,9,99999,9,99,9,99,9","10102,1,99999,9",,,,,"MET051METAR EKVJ 091050Z 28008KT 9999 BKN020 10/06 Q1010;",
"06066099999","2010-05-09T11:50:00","4","55.990122","8.353906","5.18","STAUNING, DA","FM-15","EKVJ ","V020","280,1,N,0051,1","00750,1,C,N","011265,1,N,1","+0100,1","+0060,1","99999,9","07,5,+00750,1,99,9",,,"07,99,1,99,9,99,9,99999,9,99,9,99,9","10102,1,99999,9",,,,,"MET051METAR EKVJ 091150Z 28010KT 9999 BKN025 10/06 Q1010;",
"06066099999","2010-05-09T12:50:00","4","55.990122","8.353906","5.18","STAUNING, DA","FM-15","EKVJ ","V020","280,1,N,0051,1","00750,1,C,N","011265,1,N,1","+0100,1","+0060,1","99999,9","07,5,+00750,1,99,9",,,"07,99,1,99,9,99,9,99999,9,99,9,99,9","10102,1,99999,9",,,,,"MET051METAR EKVJ 091250Z 28010KT 9999 BKN025 10/06 Q1010;",
"06066099999","2010-05-09T13:50:00","4","55.990122","8.353906","5.18","STAUNING, DA","FM-15","EKVJ ","V020","280,1,N,0041,1","00750,1,C,N","011265,1,N,1","+0100,1","+0060,1","99999,9","07,5,+00750,1,99,9",,,"07,99,1,99,9,99,9,99999,9,99,9,99,9","10102,1,99999,9",,,,,"MET051METAR EKVJ 091350Z 28008KT 9999 BKN025 10/06 Q1010;",
"06066099999","2010-05-10T06:20:00","4","55.990122","8.353906","5.18","STAUNING, DA","FM-15","EKVJ ","V020","270,1,N,0051,1","22000,1,9,N","011265,1,N,1","+0080,1","+0060,1","99999,9","04,5,+00540,1,99,9",,,"04,99,1,99,9,99,9,99999,9,99,9,99,9","10081,1,99999,9",,,,,"MET051METAR EKVJ 100620Z 27010KT 9999 SCT018 08/06 Q1008;",
"06066099999","2010-05-10T06:50:00","4","55.990122","8.353906","5.18","STAUNING, DA","FM-15","EKVJ ","V020","270,1,N,0051,1","22000,1,9,N","011265,1,N,1","+0080,1","+0060,1","99999,9","04,5,+00540,1,99,9",,,"04,99,1,99,9,99,9,99999,9,99,9,99,9","10081,1,99999,9",,,,,"MET051METAR EKVJ 100650Z 27010KT 9999 SCT018 08/06 Q1008;",
"06066099999","2010-05-10T07:50:00","4","55.990122","8.353906","5.18","STAUNING, DA","FM-15","EKVJ ","V020","270,1,N,0051,1","22000,1,9,N","011265,1,N,1","+0080,1","+0060,1","99999,9","04,5,+00540,1,99,9",,,"04,99,1,99,9,99,9,99999,9,99,9,99,9","10081,1,99999,9",,,,,"MET051METAR EKVJ 100750Z 27010KT 9999 SCT018 08/06 Q1008;",
"06066099999","2010-05-10T08:50:00","4","55.990122","8.353906","5.18","STAUNING, DA","FM-15","EKVJ ","V020","310,1,N,0062,1","22000,1,9,N","011265,1,N,1","+0100,1","+0080,1","99999,9","04,5,+00600,1,99,9",,,"04,99,1,99,9,99,9,99999,9,99,9,99,9","10081,1,99999,9",,,,,"MET051METAR EKVJ 100850Z 31012KT 9999 SCT020 10/08 Q1008;",
"06066099999","2010-05-10T09:50:00","4","55.990122","8.353906","5.18","STAUNING, DA","FM-15","EKVJ ","V020","310,1,N,0062,1","22000,1,9,N","011265,1,N,1","+0100,1","+0080,1","99999,9","04,5,+00600,1,99,9",,,"04,99,1,99,9,99,9,99999,9,99,9,99,9","10081,1,99999,9",,,,,"MET051METAR EKVJ 100950Z 31012KT 9999 SCT020 10/08 Q1008;",
"06066099999","2010-05-10T10:50:00","4","55.990122","8.353906","5.18","STAUNING, DA","FM-15","EKVJ ","V020","310,1,N,0062,1","22000,1,9,N","011265,1,N,1","+0100,1","+0080,1","99999,9","04,5,+00600,1,99,9",,,"04,99,1,99,9,99,9,99999,9,99,9,99,9","10081,1,99999,9",,,,,"MET051METAR EKVJ 101050Z 31012KT 9999 SCT020 10/08 Q1008;",
"06066099999","2010-05-10T11:50:00","4","55.990122","8.353906","5.18","STAUNING, DA","FM-15","EKVJ ","V020","310,1,N,0062,1","22000,1,9,N","011265,1,N,1","+0100,1","+0080,1","99999,9","04,5,+00600,1,99,9",,,"04,99,1,99,9,99,9,99999,9,99,9,99,9","10081,1,99999,9",,,,,"MET051METAR EKVJ 101150Z 31012KT 9999 SCT020 10/08 Q1008;",
"06066099999","2010-05-10T12:50:00","4","55.990122","8.353906","5.18","STAUNING, DA","FM-15","EKVJ ","V020","310,1,N,0062,1","22000,1,9,N","011265,1,N,1","+0100,1","+0080,1","99999,9","04,5,+00600,1,99,9",,,"04,99,1,99,9,99,9,99999,9,99,9,99,9","10081,1,99999,9",,,,,"MET051METAR EKVJ 101250Z 31012KT 9999 SCT020 10/08 Q1008;",
"06066099999","2010-05-10T13:50:00","4","55.990122","8.353906","5.18","STAUNING, DA","FM-15","EKVJ ","V020","310,1,N,0062,1","22000,1,9,N","011265,1,N,1","+0100,1","+0080,1","99999,9","04,5,+00600,1,99,9",,,"04,99,1,99,9,99,9,99999,9,99,9,99,9","10081,1,99999,9",,,,,"MET051METAR EKVJ 101350Z 31012KT 9999 SCT020 10/08 Q1008;",
"06066099999","2010-05-11T06:20:00","4","55.990122","8.353906","5.18","STAUNING, DA","FM-15","EKVJ ","V020","999,9,C,0000,1","22000,1,9,N","011265,1,N,1","+0060,1","+0040,1","99999,9","04,5,+00600,1,99,9",,,"04,99,1,99,9,99,9,99999,9,99,9,99,9","10119,1,99999,9",,,,,"MET051METAR EKVJ 110620Z 00000KT 9999 SCT020 06/04 Q1012;",
"06066099999","2010-05-11T06:50:00","4","55.990122","8.353906","5.18","STAUNING, DA","FM-15","EKVJ ","V020","999,9,C,0000,1","22000,1,9,N","011265,1,N,1","+0060,1","+0040,1","99999,9","04,5,+00600,1,99,9",,,"04,99,1,99,9,99,9,99999,9,99,9,99,9","10119,1,99999,9",,,,,"MET051METAR EKVJ 110650Z 00000KT 9999 SCT020 06/04 Q1012;",
"06066099999","2010-05-11T07:50:00","4","55.990122","8.353906","5.18","STAUNING, DA","FM-15","EKVJ ","V020","999,9,C,0000,1","22000,1,9,N","011265,1,N,1","+0060,1","+0040,1","99999,9","04,5,+00600,1,99,9",,,"04,99,1,99,9,99,9,99999,9,99,9,99,9","10119,1,99999,9",,,,,"MET051METAR EKVJ 110750Z 00000KT 9999 SCT020 06/04 Q1012;",
"06066099999","2010-05-11T08:50:00","4","55.990122","8.353906","5.18","STAUNING, DA","FM-15","EKVJ ","V020","999,9,V,0021,1","22000,1,9,N","011265,1,N,1","+0060,1","+0040,1","99999,9","04,5,+00600,1,99,9",,,"04,99,1,99,9,99,9,99999,9,99,9,99,9","10129,1,99999,9",,,,,"MET051METAR EKVJ 110850Z VRB04KT 9999 SCT020 06/04 Q1013;",
"06066099999","2010-05-11T09:50:00","4","55.990122","8.353906","5.18","STAUNING, DA","FM-15","EKVJ ","V020","999,9,V,0021,1","22000,1,9,N","011265,1,N,1","+0060,1","+0040,1","99999,9","04,5,+00600,1,99,9",,,"04,99,1,99,9,99,9,99999,9,99,9,99,9","10129,1,99999,9",,,,,"MET051METAR EKVJ 110950Z VRB04KT 9999 SCT020 06/04 Q1013;",
"06066099999","2010-05-11T10:50:00","4","55.990122","8.353906","5.18","STAUNING, DA","FM-15","EKVJ ","V020","999,9,V,0021,1","22000,1,9,N","011265,1,N,1","+0080,1","+0060,1","99999,9","04,5,+00600,1,99,9",,,"04,99,1,99,9,99,9,99999,9,99,9,99,9","10129,1,99999,9",,,,,"MET051METAR EKVJ 111050Z VRB04KT 9999 SCT020 08/06 Q1013;",
"06066099999","2010-05-11T11:50:00","4","55.990122","8.353906","5.18","STAUNING, DA","FM-15","EKVJ ","V020","999,9,V,0021,1","22000,1,9,N","011265,1,N,1","+0080,1","+0060,1","99999,9","04,5,+00780,1,99,9",,,"04,99,1,99,9,99,9,99999,9,99,9,99,9","10129,1,99999,9",,,,,"MET051METAR EKVJ 111150Z VRB04KT 9999 SCT026 08/06 Q1013;",
"06066099999","2010-05-11T12:50:00","4","55.990122","8.353906","5.18","STAUNING, DA","FM-15","EKVJ ","V020","999,9,V,0021,1","22000,1,9,N","011265,1,N,1","+0080,1","+0060,1","99999,9","04,5,+00780,1,99,9",,,"04,99,1,99,9,99,9,99999,9,99,9,99,9","10129,1,99999,9",,,,,"MET051METAR EKVJ 111250Z VRB04KT 9999 SCT026 08/06 Q1013;",
"06066099999","2010-05-11T13:50:00","4","55.990122","8.353906","5.18","STAUNING, DA","FM-15","EKVJ ","V020","300,1,N,0031,1","22000,1,9,N","011265,1,N,1","+0080,1","+0060,1","99999,9","04,5,+00780,1,99,9",,,"04,99,1,99,9,99,9,99999,9,99,9,99,9","10129,1,99999,9",,,,,"MET051METAR EKVJ 111350Z 30006KT 9999 SCT026 08/06 Q1013;",
"06066099999","2010-05-12T06:20:00","4","55.990122","8.353906","5.18","STAUNING, DA","FM-15","EKVJ ","V020","060,1,N,0041,1","01200,1,C,N","011265,1,N,1","+0070,1","+0040,1","99999,9","07,5,+01200,1,99,9",,,"07,99,1,99,9,99,9,99999,9,99,9,99,9","10139,1,99999,9",,,,,"MET051METAR EKVJ 120620Z 06008KT 9999 BKN040 07/04 Q1014;",
"06066099999","2010-05-12T06:50:00","4","55.990122","8.353906","5.18","STAUNING, DA","FM-15","EKVJ ","V020","060,1,N,0041,1","01200,1,C,N","011265,1,N,1","+0070,1","+0040,1","99999,9","07,5,+01200,1,99,9",,,"07,99,1,99,9,99,9,99999,9,99,9,99,9","10139,1,99999,9",,,,,"MET051METAR EKVJ 120650Z 06008KT 9999 BKN040 07/04 Q1014;",
"06066099999","2010-05-12T07:50:00","4","55.990122","8.353906","5.18","STAUNING, DA","FM-15","EKVJ ","V020","080,1,N,0051,1","01200,1,C,N","011265,1,N,1","+0080,1","+0040,1","99999,9","07,5,+01200,1,99,9",,,"07,99,1,99,9,99,9,99999,9,99,9,99,9","10129,1,99999,9",,,,,"MET051METAR EKVJ 120750Z 08010KT 9999 BKN040 08/04 Q1013;",
"06066099999","2010-05-12T08:50:00","4","55.990122","8.353906","5.18","STAUNING, DA","FM-15","EKVJ ","V020","060,1,N,0062,1","01200,1,C,N","011265,1,N,1","+0080,1","+0040,1","99999,9","02,5,+00600,1,99,9","07,5,+01200,1,99,9",,"07,99,1,99,9,99,9,99999,9,99,9,99,9","10119,1,99999,9","61,1",,,,"MET070METAR EKVJ 120850Z 06012KT 030V100 9999 -RA FEW020 BKN040 08/04 Q1012;",
"06066099999","2010-05-12T09:50:00","4","55.990122","8.353906","5.18","STAUNING, DA","FM-15","EKVJ ","V020","060,1,N,0062,1","01200,1,C,N","011265,1,N,1","+0070,1","+0040,1","99999,9","02,5,+00600,1,99,9","07,5,+01200,1,99,9",,"07,99,1,99,9,99,9,99999,9,99,9,99,9","10119,1,99999,9","61,1",,,,"MET070METAR EKVJ 120950Z 06012KT 030V100 9999 -RA FEW020 BKN040 07/04 Q1012;",
"06066099999","2010-05-12T10:50:00","4","55.990122","8.353906","5.18","STAUNING, DA","FM-15","EKVJ ","V020","060,1,N,0062,1","01200,1,C,N","011265,1,N,1","+0070,1","+0040,1","99999,9","02,5,+00600,1,99,9","07,5,+01200,1,99,9",,"07,99,1,99,9,99,9,99999,9,99,9,99,9","10119,1,99999,9","61,1",,,,"MET070METAR EKVJ 121050Z 06012KT 030V100 9999 -RA FEW020 BKN040 07/04 Q1012;",
"06066099999","2010-05-12T11:50:00","4","55.990122","8.353906","5.18","STAUNING, DA","FM-15","EKVJ ","V020","060,1,N,0062,1","00450,1,C,N","008000,1,N,1","+0070,1","+0050,1","99999,9","07,5,+00450,1,99,9","07,5,+00900,1,99,9",,"07,99,1,99,9,99,9,99999,9,99,9,99,9","10119,1,99999,9","63,1",,,,"MET069METAR EKVJ 121150Z 06012KT 030V100 8000 RA BKN015 BKN030 07/05 Q1012;",
"06066099999","2010-05-12T12:50:00","4","55.990122","8.353906","5.18","STAUNING, DA","FM-15","EKVJ ","V020","060,1,N,0062,1","00450,1,C,N","008000,1,N,1","+0070,1","+0050,1","99999,9","07,5,+00450,1,99,9","07,5,+00900,1,99,9",,"07,99,1,99,9,99,9,99999,9,99,9,99,9","10119,1,99999,9","63,1",,,,"MET069METAR EKVJ 121250Z 06012KT 030V100 8000 RA BKN015 BKN030 07/05 Q1012;",
"06066099999","2010-05-12T13:50:00","4","55.990122","8.353906","5.18","STAUNING, DA","FM-15","EKVJ ","V020","060,1,N,0062,1","00450,1,C,N","011265,1,N,1","+0070,1","+0060,1","99999,9","07,5,+00450,1,99,9","07,5,+00900,1,99,9",,"07,99,1,99,9,99,9,99999,9,99,9,99,9","10119,1,99999,9","61,1",,,,"MET070METAR EKVJ 121350Z 06012KT 010V100 9999 -RA BKN015 BKN030 07/06 Q1012;",
"06066099999","2010-05-14T06:20:00","4","55.990122","8.353906","5.18","STAUNING, DA","FM-15","EKVJ ","V020","310,1,N,0051,1","22000,1,9,N","011265,1,N,1","+0060,1","+0040,1","99999,9","04,5,+00780,1,99,9",,,"04,99,1,99,9,99,9,99999,9,99,9,99,9","10119,1,99999,9",,,,,"MET051METAR EKVJ 140620Z 31010KT 9999 SCT026 06/04 Q1012;",
"06066099999","2010-05-14T07:20:00","4","55.990122","8.353906","5.18","STAUNING, DA","FM-15","EKVJ ","V020","310,1,N,0051,1","22000,1,9,N","011265,1,N,1","+0060,1","+0040,1","99999,9","04,5,+00780,1,99,9",,,"04,99,1,99,9,99,9,99999,9,99,9,99,9","10119,1,99999,9",,,,,"MET051METAR EKVJ 140720Z 31010KT 9999 SCT026 06/04 Q1012;",
"06066099999","2010-05-14T07:50:00","4","55.990122","8.353906","5.18","STAUNING, DA","FM-15","EKVJ ","V020","310,1,N,0051,1","22000,1,9,N","011265,1,N,1","+0100,1","+0040,1","99999,9","04,5,+00780,1,99,9",,,"04,99,1,99,9,99,9,99999,9,99,9,99,9","10119,1,99999,9",,,,,"MET051METAR EKVJ 140750Z 31010KT 9999 SCT026 10/04 Q1012;",
"06066099999","2010-05-17T06:20:00","4","55.990122","8.353906","5.18","STAUNING, DA","FM-15","EKVJ ","V020","300,1,N,0041,1","22000,1,9,N","011265,1,N,1","+0100,1","+0090,1","99999,9","02,5,+00450,1,99,9",,,"02,99,1,99,9,99,9,99999,9,99,9,99,9","10159,1,99999,9",,,,,"MET051METAR EKVJ 170620Z 30008KT 9999 FEW015 10/09 Q1016;",
"06066099999","2010-05-17T06:50:00","4","55.990122","8.353906","5.18","STAUNING, DA","FM-15","EKVJ ","V020","300,1,N,0051,1","22000,1,9,N","011265,1,N,1","+0100,1","+0090,1","99999,9","02,5,+00450,1,99,9",,,"02,99,1,99,9,99,9,99999,9,99,9,99,9","10159,1,99999,9",,,,,"MET051METAR EKVJ 170650Z 30010KT 9999 FEW015 10/09 Q1016;",
"06066099999","2010-05-17T07:50:00","4","55.990122","8.353906","5.18","STAUNING, DA","FM-15","EKVJ ","V020","300,1,N,0051,1","00600,1,C,N","011265,1,N,1","+0100,1","+0080,1","99999,9","04,5,+00450,1,99,9","07,5,+00600,1,99,9",,"07,99,1,99,9,99,9,99999,9,99,9,99,9","10169,1,99999,9",,,,,"MET058METAR EKVJ 170750Z 30010KT 9999 SCT015 BKN020 10/08 Q1017;",
"06066099999","2010-05-17T08:50:00","4","55.990122","8.353906","5.18","STAUNING, DA","FM-15","EKVJ ","V020","310,1,N,0051,1","00600,1,C,N","011265,1,N,1","+0100,1","+0080,1","99999,9","02,5,+00450,1,99,9","07,5,+00600,1,99,9",,"07,99,1,99,9,99,9,99999,9,99,9,99,9","10169,1,99999,9",,,,,"MET058METAR EKVJ 170850Z 31010KT 9999 FEW015 BKN020 10/08 Q1017;",
"06066099999","2010-05-17T09:50:00","4","55.990122","8.353906","5.18","STAUNING, DA","FM-15","EKVJ ","V020","310,1,N,0051,1","00750,1,C,N","011265,1,N,1","+0110,1","+0090,1","99999,9","02,5,+00450,1,99,9","07,5,+00750,1,99,9",,"07,99,1,99,9,99,9,99999,9,99,9,99,9","10180,1,99999,9",,,,,"MET058METAR EKVJ 170950Z 31010KT 9999 FEW015 BKN025 11/09 Q1018;",
"06066099999","2010-05-17T10:50:00","4","55.990122","8.353906","5.18","STAUNING, DA","FM-15","EKVJ ","V020","300,1,N,0051,1","00750,1,C,N","011265,1,N,1","+0110,1","+0080,1","99999,9","02,5,+00450,1,99,9","07,5,+00750,1,99,9",,"07,99,1,99,9,99,9,99999,9,99,9,99,9","10180,1,99999,9",,,,,"MET058METAR EKVJ 171050Z 30010KT 9999 FEW015 BKN025 11/08 Q1018;",
"06066099999","2010-05-17T11:50:00","4","55.990122","8.353906","5.18","STAUNING, DA","FM-15","EKVJ ","V020","300,1,N,0062,1","00750,1,C,N","011265,1,N,1","+0120,1","+0090,1","99999,9","07,5,+00750,1,99,9",,,"07,99,1,99,9,99,9,99999,9,99,9,99,9","10190,1,99999,9",,,,,"MET051METAR EKVJ 171150Z 30012KT 9999 BKN025 12/09 Q1019;",
"06066099999","2010-05-17T12:50:00","4","55.990122","8.353906","5.18","STAUNING, DA","FM-15","EKVJ ","V020","290,1,N,0062,1","00750,1,C,N","011265,1,N,1","+0120,1","+0090,1","99999,9","07,5,+00750,1,99,9",,,"07,99,1,99,9,99,9,99999,9,99,9,99,9","10190,1,99999,9",,,,,"MET059METAR EKVJ 171250Z 29012KT 250V330 9999 BKN025 12/09 Q1019;",
"06066099999","2010-05-17T13:50:00","4","55.990122","8.353906","5.18","STAUNING, DA","FM-15","EKVJ ","V020","290,1,N,0067,1","00750,1,C,N","011265,1,N,1","+0120,1","+0090,1","99999,9","07,5,+00750,1,99,9",,,"07,99,1,99,9,99,9,99999,9,99,9,99,9","10200,1,99999,9",,,,,"MET059METAR EKVJ 171350Z 29013KT 250V330 9999 BKN025 12/09 Q1020;",
"06066099999","2010-05-18T06:20:00","4","55.990122","8.353906","5.18","STAUNING, DA","FM-15","EKVJ ","V020","320,1,N,0062,1","00360,1,C,N","011265,1,N,1","+0090,1","+0080,1","99999,9","07,5,+00360,1,99,9",,,"07,99,1,99,9,99,9,99999,9,99,9,99,9","10220,1,99999,9",,,,,"MET051METAR EKVJ 180620Z 32012KT 9999 BKN012 09/08 Q1022;",
"06066099999","2010-05-18T06:50:00","4","55.990122","8.353906","5.18","STAUNING, DA","FM-15","EKVJ ","V020","320,1,N,0072,1","00360,1,C,N","011265,1,N,1","+0090,1","+0080,1","99999,9","07,5,+00360,1,99,9",,,"07,99,1,99,9,99,9,99999,9,99,9,99,9","10220,1,99999,9",,,,,"MET051METAR EKVJ 180650Z 32014KT 9999 BKN012 09/08 Q1022;",
"06066099999","2010-05-18T08:50:00","4","55.990122","8.353906","5.18","STAUNING, DA","FM-15","EKVJ ","V020","310,1,N,0072,1","99999,9,C,N","011265,1,N,1","+0110,1","+0090,1","99999,9","02,5,+00450,1,99,9","04,5,+06000,1,99,9",,"04,99,1,99,9,99,9,99999,9,99,9,99,9","10230,1,99999,9",,,,,"MET066METAR EKVJ 180850Z 31014KT 280V350 9999 FEW015 SCT200 11/09 Q1023;","P01 060003SCOCIG"
"06066099999","2010-05-18T09:50:00","4","55.990122","8.353906","5.18","STAUNING, DA","FM-15","EKVJ ","V020","310,1,N,0062,1","99999,9,C,N","011265,1,N,1","+0120,1","+0100,1","99999,9","02,5,+00450,1,99,9","04,5,+06000,1,99,9",,"04,99,1,99,9,99,9,99999,9,99,9,99,9","10230,1,99999,9",,,,,"MET066METAR EKVJ 180950Z 31012KT 280V350 9999 FEW015 SCT200 12/10 Q1023;","P01 060003SCOCIG"
"06066099999","2010-05-18T10:50:00","4","55.990122","8.353906","5.18","STAUNING, DA","FM-15","EKVJ ","V020","310,1,N,0072,1","22000,1,9,N","011265,1,N,1","+0120,1","+0090,1","99999,9","02,5,+00750,1,99,9","02,5,+06000,1,99,9",,"02,99,1,99,9,99,9,99999,9,99,9,99,9","10230,1,99999,9",,,,,"MET066METAR EKVJ 181050Z 31014KT 280V350 9999 FEW025 FEW200 12/09 Q1023;",
"06066099999","2010-05-18T11:50:00","4","55.990122","8.353906","5.18","STAUNING, DA","FM-15","EKVJ ","V020","310,1,N,0072,1","22000,1,9,N","011265,1,N,1","+0130,1","+0100,1","99999,9","02,5,+00750,1,99,9","02,5,+06000,1,99,9",,"02,99,1,99,9,99,9,99999,9,99,9,99,9","10230,1,99999,9",,,,,"MET066METAR EKVJ 181150Z 31014KT 280V350 9999 FEW025 FEW200 13/10 Q1023;",
"06066099999","2010-05-18T12:50:00","4","55.990122","8.353906","5.18","STAUNING, DA","FM-15","EKVJ ","V020","310,1,N,0072,1","22000,1,9,N","011265,1,N,1","+0130,1","+0100,1","99999,9","02,5,+00750,1,99,9",,,"02,99,1,99,9,99,9,99999,9,99,9,99,9","10230,1,99999,9",,,,,"MET059METAR EKVJ 181250Z 31014KT 280V350 9999 FEW025 13/10 Q1023;",
"06066099999","2010-05-18T13:50:00","4","55.990122","8.353906","5.18","STAUNING, DA","FM-15","EKVJ ","V020","310,1,N,0062,1","22000,1,9,N","011265,1,N,1","+0130,1","+0100,1","99999,9","02,5,+00750,1,99,9",,,"02,99,1,99,9,99,9,99999,9,99,9,99,9","10230,1,99999,9",,,,,"MET059METAR EKVJ 181350Z 31012KT 260V340 9999 FEW025 13/10 Q1023;",
"06066099999","2010-05-19T06:20:00","4","55.990122","8.353906","5.18","STAUNING, DA","FM-15","EKVJ ","V020","320,1,N,0041,1","01050,1,C,N","011265,1,N,1","+0100,1","+0090,1","99999,9","02,5,+00150,1,99,9","07,5,+01050,1,99,9",,"07,99,1,99,9,99,9,99999,9,99,9,99,9","10240,1,99999,9",,,,,"MET066METAR EKVJ 190620Z 32008KT 290V340 9999 FEW005 BKN035 10/09 Q1024;",
"06066099999","2010-05-19T06:50:00","4","55.990122","8.353906","5.18","STAUNING, DA","FM-15","EKVJ ","V020","320,1,N,0051,1","01050,1,C,N","011265,1,N,1","+0100,1","+0090,1","99999,9","02,5,+00150,1,99,9","07,5,+01050,1,99,9",,"07,99,1,99,9,99,9,99999,9,99,9,99,9","10240,1,99999,9",,,,,"MET066METAR EKVJ 190650Z 32010KT 290V340 9999 FEW005 BKN035 10/09 Q1024;",
"06066099999","2010-05-19T07:50:00","4","55.990122","8.353906","5.18","STAUNING, DA","FM-15","EKVJ ","V020","320,1,N,0051,1","01050,1,C,N","011265,1,N,1","+0100,1","+0090,1","99999,9","02,5,+00300,1,99,9","07,5,+01050,1,99,9",,"07,99,1,99,9,99,9,99999,9,99,9,99,9","10251,1,99999,9",,,,,"MET066METAR EKVJ 190750Z 32010KT 290V340 9999 FEW010 BKN035 10/09 Q1025;",
"06066099999","2010-05-19T08:50:00","4","55.990122","8.353906","5.18","STAUNING, DA","FM-15","EKVJ ","V020","330,1,N,0062,1","01050,1,C,N","011265,1,N,1","+0100,1","+0090,1","99999,9","02,5,+00300,1,99,9","07,5,+01050,1,99,9",,"07,99,1,99,9,99,9,99999,9,99,9,99,9","10251,1,99999,9",,,,,"MET066METAR EKVJ 190850Z 33012KT 300V360 9999 FEW010 BKN035 10/09 Q1025;",
"06066099999","2010-05-19T09:50:00","4","55.990122","8.353906","5.18","STAUNING, DA","FM-15","EKVJ ","V020","330,1,N,0067,1","99999,9,9,Y","009900,1,N,1","+0130,1","+0100,1","99999,9",,,,,"10251,1,99999,9",,,,,"MET053METAR EKVJ 190950Z 33013KT 300V360 CAVOK 13/10 Q1025;",
"06066099999","2010-05-19T10:50:00","4","55.990122","8.353906","5.18","STAUNING, DA","FM-15","EKVJ ","V020","330,1,N,0067,1","99999,9,9,Y","009900,1,N,1","+0140,1","+0120,1","99999,9",,,,,"10251,1,99999,9",,,,,"MET053METAR EKVJ 191050Z 33013KT 300V360 CAVOK 14/12 Q1025;",
"06066099999","2010-05-19T11:50:00","4","55.990122","8.353906","5.18","STAUNING, DA","FM-15","EKVJ ","V020","320,1,N,0072,1","99999,9,9,Y","009900,1,N,1","+0150,1","+0120,1","99999,9",,,,,"10251,1,99999,9",,,,,"MET053METAR EKVJ 191150Z 32014KT 280V350 CAVOK 15/12 Q1025;",
"06066099999","2010-05-19T12:50:00","4","55.990122","8.353906","5.18","STAUNING, DA","FM-15","EKVJ ","V020","320,1,N,0072,1","99999,9,9,Y","009900,1,N,1","+0150,1","+0120,1","99999,9",,,,,"10251,1,99999,9",,,,,"MET053METAR EKVJ 191250Z 32014KT 280V350 CAVOK 15/12 Q1025;",
"06066099999","2010-05-19T13:50:00","4","55.990122","8.353906","5.18","STAUNING, DA","FM-15","EKVJ ","V020","320,1,N,0072,1","01500,1,C,N","011265,1,N,1","+0150,1","+0120,1","99999,9","07,5,+01500,1,99,9",,,"07,99,1,99,9,99,9,99999,9,99,9,99,9","10251,1,99999,9",,,,,"MET059METAR EKVJ 191350Z 32014KT 280V350 9999 BKN050 15/12 Q1025;",
"06066099999","2010-05-20T06:20:00","4","55.990122","8.353906","5.18","STAUNING, DA","FM-15","EKVJ ","V020","320,1,N,0072,1","22000,1,9,N","999999,9,N,1","+0110,1","+0090,1","99999,9",,,,,"10281,1,99999,9",,,,,"MET039METAR EKVJ 200620Z 32014KT 11/09 Q1028;",
"06066099999","2010-05-20T06:50:00","4","55.990122","8.353906","5.18","STAUNING, DA","FM-15","EKVJ ","V020","320,1,N,0072,1","99999,9,9,Y","009900,1,N,1","+0110,1","+0090,1","99999,9",,,,,"10281,1,99999,9",,,,,"MET045METAR EKVJ 200650Z 32014KT CAVOK 11/09 Q1028;",
"06066099999","2010-05-20T07:50:00","4","55.990122","8.353906","5.18","STAUNING, DA","FM-15","EKVJ ","V020","310,1,N,0072,1","99999,9,9,Y","009900,1,N,1","+0120,1","+0090,1","99999,9",,,,,"10281,1,99999,9",,,,,"MET053METAR EKVJ 200750Z 31014KT 280V340 CAVOK 12/09 Q1028;",
"06066099999","2010-05-20T08:50:00","4","55.990122","8.353906","5.18","STAUNING, DA","FM-15","EKVJ ","V020","310,1,N,0072,1","99999,9,9,Y","009900,1,N,1","+0130,1","+0100,1","99999,9",,,,,"10281,1,99999,9",,,,,"MET053METAR EKVJ 200850Z 31014KT 280V340 CAVOK 13/10 Q1028;",
"06066099999","2010-05-20T09:50:00","4","55.990122","8.353906","5.18","STAUNING, DA","FM-15","EKVJ ","V020","310,1,N,0072,1","99999,9,9,Y","009900,1,N,1","+0130,1","+0090,1","99999,9",,,,,"10291,1,99999,9",,,,,"MET053METAR EKVJ 200950Z 31014KT 280V340 CAVOK 13/09 Q1029;",
"06066099999","2010-05-20T10:50:00","4","55.990122","8.353906","5.18","STAUNING, DA","FM-15","EKVJ ","V020","310,1,N,0072,1","99999,9,9,Y","009900,1,N,1","+0140,1","+0090,1","99999,9",,,,,"10291,1,99999,9",,,,,"MET053METAR EKVJ 201050Z 31014KT 280V340 CAVOK 14/09 Q1029;",
"06066099999","2010-05-20T11:50:00","4","55.990122","8.353906","5.18","STAUNING, DA","FM-15","EKVJ ","V020","310,1,N,0072,1","99999,9,9,Y","009900,1,N,1","+0150,1","+0100,1","99999,9",,,,,"10291,1,99999,9",,,,,"MET053METAR EKVJ 201150Z 31014KT 270V340 CAVOK 15/10 Q1029;",
"06066099999","2010-05-20T12:50:00","4","55.990122","8.353906","5.18","STAUNING, DA","FM-15","EKVJ ","V020","310,1,N,0072,1","99999,9,9,Y","009900,1,N,1","+0150,1","+0100,1","99999,9",,,,,"10291,1,99999,9",,,,,"MET053METAR EKVJ 201250Z 31014KT 270V340 CAVOK 15/10 Q1029;",
"06066099999","2010-05-20T13:50:00","4","55.990122","8.353906","5.18","STAUNING, DA","FM-15","EKVJ ","V020","310,1,N,0062,1","99999,9,9,Y","009900,1,N,1","+0150,1","+0100,1","99999,9",,,,,"10291,1,99999,9",,,,,"MET053METAR EKVJ 201350Z 31012KT 270V340 CAVOK 15/10 Q1029;",
"06066099999","2010-05-21T06:20:00","4","55.990122","8.353906","5.18","STAUNING, DA","FM-15","EKVJ ","V020","330,1,N,0031,1","99999,9,9,Y","009900,1,N,1","+0120,1","+0110,1","99999,9",,,,,"10261,1,99999,9",,,,,"MET045METAR EKVJ 210620Z 33006KT CAVOK 12/11 Q1026;",
"06066099999","2010-05-21T06:50:00","4","55.990122","8.353906","5.18","STAUNING, DA","FM-15","EKVJ ","V020","330,1,N,0031,1","99999,9,9,Y","009900,1,N,1","+0120,1","+0110,1","99999,9",,,,,"10261,1,99999,9",,,,,"MET045METAR EKVJ 210650Z 33006KT CAVOK 12/11 Q1026;",
"06066099999","2010-05-21T08:50:00","4","55.990122","8.353906","5.18","STAUNING, DA","FM-15","EKVJ ","V020","310,1,N,0031,1","99999,9,9,Y","009900,1,N,1","+0150,1","+0120,1","99999,9",,,,,"10271,1,99999,9",,,,,"MET053METAR EKVJ 210850Z 31006KT 280V350 CAVOK 15/12 Q1027;",
"06066099999","2010-05-21T09:50:00","4","55.990122","8.353906","5.18","STAUNING, DA","FM-15","EKVJ ","V020","310,1,N,0041,1","99999,9,9,Y","009900,1,N,1","+0160,1","+0130,1","99999,9",,,,,"10271,1,99999,9",,,,,"MET053METAR EKVJ 210950Z 31008KT 260V350 CAVOK 16/13 Q1027;",
"06066099999","2010-05-21T10:50:00","4","55.990122","8.353906","5.18","STAUNING, DA","FM-15","EKVJ ","V020","310,1,N,0051,1","99999,9,9,Y","009900,1,N,1","+0160,1","+0130,1","99999,9",,,,,"10271,1,99999,9",,,,,"MET053METAR EKVJ 211050Z 31010KT 260V350 CAVOK 16/13 Q1027;",
"06066099999","2010-05-21T11:50:00","4","55.990122","8.353906","5.18","STAUNING, DA","FM-15","EKVJ ","V020","310,1,N,0051,1","99999,9,9,Y","009900,1,N,1","+0170,1","+0140,1","99999,9",,,,,"10271,1,99999,9",,,,,"MET053METAR EKVJ 211150Z 31010KT 260V350 CAVOK 17/14 Q1027;",
"06066099999","2010-05-21T12:50:00","4","55.990122","8.353906","5.18","STAUNING, DA","FM-15","EKVJ ","V020","310,1,N,0051,1","22000,1,9,N","011265,1,N,1","+0180,1","+0140,1","99999,9","02,5,+01050,1,99,9",,,"02,99,1,99,9,99,9,99999,9,99,9,99,9","10271,1,99999,9",,,,,"MET059METAR EKVJ 211250Z 31010KT 260V350 9999 FEW035 18/14 Q1027;",
"06066099999","2010-05-21T13:50:00","4","55.990122","8.353906","5.18","STAUNING, DA","FM-15","EKVJ ","V020","310,1,N,0051,1","22000,1,9,N","011265,1,N,1","+0170,1","+0130,1","99999,9","02,5,+01050,1,99,9",,,"02,99,1,99,9,99,9,99999,9,99,9,99,9","10271,1,99999,9",,,,,"MET059METAR EKVJ 211350Z 31010KT 260V350 9999 FEW035 17/13 Q1027;",
"06066099999","2010-05-25T06:50:00","4","55.990122","8.353906","5.18","STAUNING, DA","FM-15","EKVJ ","V020","320,1,N,0082,1","22000,1,9,N","011265,1,N,1","+0100,1","+0050,1","99999,9","04,5,+00840,1,99,9",,,"04,99,1,99,9,99,9,99999,9,99,9,99,9","10071,1,99999,9",,,,,"MET051METAR EKVJ 250650Z 32016KT 9999 SCT028 10/05 Q1007;",
"06066099999","2010-05-25T07:50:00","4","55.990122","8.353906","5.18","STAUNING, DA","FM-15","EKVJ ","V020","320,1,N,0103,1","22000,1,9,N","011265,1,N,1","+0100,1","+0050,1","99999,9","04,5,+00840,1,99,9",,,"04,99,1,99,9,99,9,99999,9,99,9,99,9","10071,1,99999,9",,,,,"MET051METAR EKVJ 250750Z 32020KT 9999 SCT028 10/05 Q1007;",
"06066099999","2010-05-25T08:50:00","4","55.990122","8.353906","5.18","STAUNING, DA","FM-15","EKVJ ","V020","320,1,N,0103,1","22000,1,9,N","011265,1,N,1","+0100,1","+0050,1","99999,9","04,5,+00840,1,99,9",,,"04,99,1,99,9,99,9,99999,9,99,9,99,9","10071,1,99999,9",,,,,"MET051METAR EKVJ 250850Z 32020KT 9999 SCT028 10/05 Q1007;",
"06066099999","2010-05-25T09:50:00","4","55.990122","8.353906","5.18","STAUNING, DA","FM-15","EKVJ ","V020","320,1,N,0103,1","22000,1,9,N","011265,1,N,1","+0100,1","+0050,1","99999,9","04,5,+00840,1,99,9",,,"04,99,1,99,9,99,9,99999,9,99,9,99,9","10081,1,99999,9",,,,,"MET051METAR EKVJ 250950Z 32020KT 9999 SCT028 10/05 Q1008;",
"06066099999","2010-05-25T10:50:00","4","55.990122","8.353906","5.18","STAUNING, DA","FM-15","EKVJ ","V020","320,1,N,0103,1","22000,1,9,N","011265,1,N,1","+0100,1","+0050,1","99999,9","04,5,+00840,1,99,9",,,"04,99,1,99,9,99,9,99999,9,99,9,99,9","10081,1,99999,9",,,,,"MET051METAR EKVJ 251050Z 32020KT 9999 SCT028 10/05 Q1008;",
"06066099999","2010-05-25T11:50:00","4","55.990122","8.353906","5.18","STAUNING, DA","FM-15","EKVJ ","V020","300,1,N,0093,1","22000,1,9,N","011265,1,N,1","+0100,1","+0050,1","99999,9","04,5,+00840,1,99,9",,,"04,99,1,99,9,99,9,99999,9,99,9,99,9","10081,1,99999,9",,,,,"MET051METAR EKVJ 251150Z 30018KT 9999 SCT028 10/05 Q1008;",
"06066099999","2010-05-25T13:50:00","4","55.990122","8.353906","5.18","STAUNING, DA","FM-15","EKVJ ","V020","300,1,N,0093,1","22000,1,9,N","011265,1,N,1","+0100,1","+0050,1","99999,9","04,5,+00840,1,99,9",,,"04,99,1,99,9,99,9,99999,9,99,9,99,9","10081,1,99999,9",,,,,"MET051METAR EKVJ 251350Z 30018KT 9999 SCT028 10/05 Q1008;",
"06066099999","2010-05-26T06:20:00","4","55.990122","8.353906","5.18","STAUNING, DA","FM-15","EKVJ ","V020","310,1,N,0051,1","22000,1,9,N","011265,1,N,1","+0100,1","+0060,1","99999,9","04,5,+00780,1,99,9",,,"04,99,1,99,9,99,9,99999,9,99,9,99,9","10102,1,99999,9",,,,,"MET051METAR EKVJ 260620Z 31010KT 9999 SCT026 10/06 Q1010;",
"06066099999","2010-05-26T06:50:00","4","55.990122","8.353906","5.18","STAUNING, DA","FM-15","EKVJ ","V020","310,1,N,0051,1","22000,1,9,N","011265,1,N,1","+0100,1","+0060,1","99999,9","04,5,+00780,1,99,9",,,"04,99,1,99,9,99,9,99999,9,99,9,99,9","10102,1,99999,9",,,,,"MET051METAR EKVJ 260650Z 31010KT 9999 SCT026 10/06 Q1010;",
"06066099999","2010-05-26T07:50:00","4","55.990122","8.353906","5.18","STAUNING, DA","FM-15","EKVJ ","V020","310,1,N,0051,1","22000,1,9,N","011265,1,N,1","+0100,1","+0060,1","99999,9","04,5,+00780,1,99,9",,,"04,99,1,99,9,99,9,99999,9,99,9,99,9","10102,1,99999,9",,,,,"MET051METAR EKVJ 260750Z 31010KT 9999 SCT026 10/06 Q1010;",
"06066099999","2010-05-26T08:50:00","4","55.990122","8.353906","5.18","STAUNING, DA","FM-15","EKVJ ","V020","310,1,N,0051,1","22000,1,9,N","011265,1,N,1","+0120,1","+0060,1","99999,9","04,5,+00780,1,99,9",,,"04,99,1,99,9,99,9,99999,9,99,9,99,9","10102,1,99999,9",,,,,"MET051METAR EKVJ 260850Z 31010KT 9999 SCT026 12/06 Q1010;",
"06066099999","2010-05-26T09:50:00","4","55.990122","8.353906","5.18","STAUNING, DA","FM-15","EKVJ ","V020","310,1,N,0051,1","22000,1,9,N","011265,1,N,1","+0120,1","+0060,1","99999,9","04,5,+00780,1,99,9",,,"04,99,1,99,9,99,9,99999,9,99,9,99,9","10102,1,99999,9",,,,,"MET051METAR EKVJ 260950Z 31010KT 9999 SCT026 12/06 Q1010;",
"06066099999","2010-05-26T10:50:00","4","55.990122","8.353906","5.18","STAUNING, DA","FM-15","EKVJ ","V020","280,1,N,0041,1","22000,1,9,N","011265,1,N,1","+0120,1","+0060,1","99999,9","04,5,+00900,1,99,9",,,"04,99,1,99,9,99,9,99999,9,99,9,99,9","10102,1,99999,9",,,,,"MET051METAR EKVJ 261050Z 28008KT 9999 SCT030 12/06 Q1010;",
"06066099999","2010-05-26T11:50:00","4","55.990122","8.353906","5.18","STAUNING, DA","FM-15","EKVJ ","V020","280,1,N,0041,1","22000,1,9,N","011265,1,N,1","+0120,1","+0060,1","99999,9","04,5,+00900,1,99,9",,,"04,99,1,99,9,99,9,99999,9,99,9,99,9","10102,1,99999,9",,,,,"MET051METAR EKVJ 261150Z 28008KT 9999 SCT030 12/06 Q1010;",
"06066099999","2010-05-26T12:50:00","4","55.990122","8.353906","5.18","STAUNING, DA","FM-15","EKVJ ","V020","280,1,N,0041,1","22000,1,9,N","011265,1,N,1","+0120,1","+0060,1","99999,9","04,5,+00900,1,99,9",,,"04,99,1,99,9,99,9,99999,9,99,9,99,9","10102,1,99999,9",,,,,"MET051METAR EKVJ 261250Z 28008KT 9999 SCT030 12/06 Q1010;",
"06066099999","2010-05-26T13:50:00","4","55.990122","8.353906","5.18","STAUNING, DA","FM-15","EKVJ ","V020","280,1,N,0041,1","22000,1,9,N","011265,1,N,1","+0120,1","+0060,1","99999,9","04,5,+00900,1,99,9",,,"04,99,1,99,9,99,9,99999,9,99,9,99,9","10102,1,99999,9",,,,,"MET051METAR EKVJ 261350Z 28008KT 9999 SCT030 12/06 Q1010;",
"06066099999","2010-05-27T06:50:00","4","55.990122","8.353906","5.18","STAUNING, DA","FM-15","EKVJ ","V020","240,1,N,0031,1","22000,1,9,N","011265,1,N,1","+0080,1","+0060,1","99999,9","04,5,+00840,1,99,9",,,"04,99,1,99,9,99,9,99999,9,99,9,99,9","10091,1,99999,9",,,,,"MET051METAR EKVJ 270650Z 24006KT 9999 SCT028 08/06 Q1009;",
"06066099999","2010-05-27T07:20:00","4","55.990122","8.353906","5.18","STAUNING, DA","FM-15","EKVJ ","V020","260,1,N,0031,1","22000,1,9,N","011265,1,N,1","+0080,1","+0060,1","99999,9","04,5,+00840,1,99,9",,,"04,99,1,99,9,99,9,99999,9,99,9,99,9","10091,1,99999,9",,,,,"MET051METAR EKVJ 270720Z 26006KT 9999 SCT028 08/06 Q1009;",
"06066099999","2010-05-27T07:50:00","4","55.990122","8.353906","5.18","STAUNING, DA","FM-15","EKVJ ","V020","260,1,N,0031,1","22000,1,9,N","011265,1,N,1","+0080,1","+0060,1","99999,9","04,5,+00840,1,99,9",,,"04,99,1,99,9,99,9,99999,9,99,9,99,9","10091,1,99999,9",,,,,"MET051METAR EKVJ 270750Z 26006KT 9999 SCT028 08/06 Q1009;",
"06066099999","2010-05-27T09:50:00","4","55.990122","8.353906","5.18","STAUNING, DA","FM-15","EKVJ ","V020","260,1,N,0031,1","22000,1,9,N","011265,1,N,1","+0100,1","+0060,1","99999,9","04,5,+00840,1,99,9",,,"04,99,1,99,9,99,9,99999,9,99,9,99,9","10091,1,99999,9",,,,,"MET051METAR EKVJ 270950Z 26006KT 9999 SCT028 10/06 Q1009;",
"06066099999","2010-05-27T10:50:00","4","55.990122","8.353906","5.18","STAUNING, DA","FM-15","EKVJ ","V020","260,1,N,0031,1","22000,1,9,N","011265,1,N,1","+0120,1","+0060,1","99999,9","04,5,+01050,1,99,9",,,"04,99,1,99,9,99,9,99999,9,99,9,99,9","10091,1,99999,9",,,,,"MET051METAR EKVJ 271050Z 26006KT 9999 SCT035 12/06 Q1009;",
"06066099999","2010-05-27T11:50:00","4","55.990122","8.353906","5.18","STAUNING, DA","FM-15","EKVJ ","V020","260,1,N,0031,1","22000,1,9,N","011265,1,N,1","+0120,1","+0060,1","99999,9","04,5,+01050,1,99,9",,,"04,99,1,99,9,99,9,99999,9,99,9,99,9","10102,1,99999,9",,,,,"MET051METAR EKVJ 271150Z 26006KT 9999 SCT035 12/06 Q1010;",
"06066099999","2010-05-27T12:50:00","4","55.990122","8.353906","5.18","STAUNING, DA","FM-15","EKVJ ","V020","260,1,N,0031,1","22000,1,9,N","011265,1,N,1","+0120,1","+0060,1","99999,9","04,5,+01050,1,99,9",,,"04,99,1,99,9,99,9,99999,9,99,9,99,9","10102,1,99999,9",,,,,"MET051METAR EKVJ 271250Z 26006KT 9999 SCT035 12/06 Q1010;",
"06066099999","2010-05-27T13:50:00","4","55.990122","8.353906","5.18","STAUNING, DA","FM-15","EKVJ ","V020","260,1,N,0031,1","22000,1,9,N","011265,1,N,1","+0120,1","+0060,1","99999,9","04,5,+01050,1,99,9",,,"04,99,1,99,9,99,9,99999,9,99,9,99,9","10102,1,99999,9",,,,,"MET051METAR EKVJ 271350Z 26006KT 9999 SCT035 12/06 Q1010;",
"06066099999","2010-05-28T06:20:00","4","55.990122","8.353906","5.18","STAUNING, DA","FM-15","EKVJ ","V020","220,1,N,0031,1","01050,1,C,N","011265,1,N,1","+0120,1","+0060,1","99999,9","07,5,+01050,1,99,9",,,"07,99,1,99,9,99,9,99999,9,99,9,99,9","10091,1,99999,9",,,,,"MET051METAR EKVJ 280620Z 22006KT 9999 BKN035 12/06 Q1009;",
"06066099999","2010-05-28T07:50:00","4","55.990122","8.353906","5.18","STAUNING, DA","FM-15","EKVJ ","V020","220,1,N,0031,1","03000,1,C,N","011265,1,N,1","+0120,1","+0060,1","99999,9","04,5,+01050,1,99,9","07,5,+03000,1,99,9",,"07,99,1,99,9,99,9,99999,9,99,9,99,9","10091,1,99999,9",,,,,"MET058METAR EKVJ 280750Z 22006KT 9999 SCT035 BKN100 12/06 Q1009;",
"06066099999","2010-05-28T08:50:00","4","55.990122","8.353906","5.18","STAUNING, DA","FM-15","EKVJ ","V020","220,1,N,0041,1","99999,9,C,N","011265,1,N,1","+0130,1","+0060,1","99999,9","04,5,+01050,1,99,9","04,5,+03000,1,99,9",,"04,99,1,99,9,99,9,99999,9,99,9,99,9","10091,1,99999,9",,,,,"MET058METAR EKVJ 280850Z 22008KT 9999 SCT035 SCT100 13/06 Q1009;","P01 030003SCOCIG"
"06066099999","2010-05-28T09:50:00","4","55.990122","8.353906","5.18","STAUNING, DA","FM-15","EKVJ ","V020","220,1,N,0041,1","99999,9,C,N","011265,1,N,1","+0130,1","+0060,1","99999,9","04,5,+01050,1,99,9","04,5,+03000,1,99,9",,"04,99,1,99,9,99,9,99999,9,99,9,99,9","10091,1,99999,9",,,,,"MET058METAR EKVJ 280950Z 22008KT 9999 SCT035 SCT100 13/06 Q1009;","P01 030003SCOCIG"
"06066099999","2010-05-28T10:50:00","4","55.990122","8.353906","5.18","STAUNING, DA","FM-15","EKVJ ","V020","220,1,N,0041,1","99999,9,C,N","011265,1,N,1","+0130,1","+0060,1","99999,9","04,5,+01050,1,99,9","04,5,+03000,1,99,9",,"04,99,1,99,9,99,9,99999,9,99,9,99,9","10091,1,99999,9",,,,,"MET058METAR EKVJ 281050Z 22008KT 9999 SCT035 SCT100 13/06 Q1009;","P01 030003SCOCIG"
"06066099999","2010-05-28T12:50:00","4","55.990122","8.353906","5.18","STAUNING, DA","FM-15","EKVJ ","V020","220,1,N,0041,1","22000,1,9,N","011265,1,N,1","+0130,1","+0060,1","99999,9","04,5,+01050,1,99,9",,,"04,99,1,99,9,99,9,99999,9,99,9,99,9","10091,1,99999,9",,,,,"MET051METAR EKVJ 281250Z 22008KT 9999 SCT035 13/06 Q1009;",
"06066099999","2010-05-28T13:50:00","4","55.990122","8.353906","5.18","STAUNING, DA","FM-15","EKVJ ","V020","240,1,N,0062,1","22000,1,9,N","011265,1,N,1","+0130,1","+0060,1","99999,9","04,5,+01050,1,02,1",,,"04,99,1,99,9,99,9,99999,9,99,9,99,9","10091,1,99999,9",,,,"0123,1","MET057METAR EKVJ 281350Z 24012G24KT 9999 SCT035TCU 13/06 Q1009;",
"06066099999","2010-05-31T06:20:00","4","55.990122","8.353906","5.18","STAUNING, DA","FM-15","EKVJ ","V020","050,1,N,0051,1","99999,9,9,Y","009900,1,N,1","+0130,1","+0100,1","99999,9",,,,,"10102,1,99999,9",,,,,"MET045METAR EKVJ 310620Z 05010KT CAVOK 13/10 Q1010;",
"06066099999","2010-05-31T06:50:00","4","55.990122","8.353906","5.18","STAUNING, DA","FM-15","EKVJ ","V020","050,1,N,0051,1","99999,9,9,Y","009900,1,N,1","+0130,1","+0100,1","99999,9",,,,,"10102,1,99999,9",,,,,"MET045METAR EKVJ 310650Z 05010KT CAVOK 13/10 Q1010;",
"06066099999","2010-05-31T07:50:00","4","55.990122","8.353906","5.18","STAUNING, DA","FM-15","EKVJ ","V020","070,1,N,0051,1","99999,9,9,Y","009900,1,N,1","+0150,1","+0120,1","99999,9",,,,,"10108,1,99999,9",,,,,"MET045METAR EKVJ 310750Z 07010KT CAVOK 15/12 Q1011;",
"06066099999","2010-05-31T08:50:00","4","55.990122","8.353906","5.18","STAUNING, DA","FM-15","EKVJ ","V020","070,1,N,0051,1","99999,9,9,Y","009900,1,N,1","+0150,1","+0120,1","99999,9",,,,,"10119,1,99999,9",,,,,"MET045METAR EKVJ 310850Z 07010KT CAVOK 15/12 Q1012;",
"06066099999","2010-05-31T09:50:00","4","55.990122","8.353906","5.18","STAUNING, DA","FM-15","EKVJ ","V020","070,1,N,0051,1","99999,9,9,Y","009900,1,N,1","+0150,1","+0120,1","99999,9",,,,,"10129,1,99999,9",,,,,"MET045METAR EKVJ 310950Z 07010KT CAVOK 15/12 Q1013;",
"06066099999","2010-05-31T10:50:00","4","55.990122","8.353906","5.18","STAUNING, DA","FM-15","EKVJ ","V020","030,1,N,0041,1","99999,9,9,Y","009900,1,N,1","+0150,1","+0120,1","99999,9",,,,,"10129,1,99999,9",,,,,"MET045METAR EKVJ 311050Z 03008KT CAVOK 15/12 Q1013;",
"06066099999","2010-06-01T06:20:00","4","55.990122","8.353906","5.18","STAUNING, DA","FM-15","EKVJ ","V020","330,1,N,0026,1","99999,9,9,Y","009900,1,N,1","+0130,1","+0110,1","99999,9",,,,,"10169,1,99999,9",,,,,"MET045METAR EKVJ 010620Z 33005KT CAVOK 13/11 Q1017;",
"06066099999","2010-06-01T06:50:00","4","55.990122","8.353906","5.18","STAUNING, DA","FM-15","EKVJ ","V020","030,1,N,0026,1","99999,9,9,Y","009900,1,N,1","+0130,1","+0110,1","99999,9",,,,,"10169,1,99999,9",,,,,"MET053METAR EKVJ 010650Z 03005KT 360V060 CAVOK 13/11 Q1017;",
"06066099999","2010-06-01T07:50:00","4","55.990122","8.353906","5.18","STAUNING, DA","FM-15","EKVJ ","V020","030,1,N,0026,1","99999,9,9,Y","009900,1,N,1","+0180,1","+0100,1","99999,9",,,,,"10169,1,99999,9",,,,,"MET053METAR EKVJ 010750Z 03005KT 360V060 CAVOK 18/10 Q1017;",
"06066099999","2010-06-01T08:50:00","4","55.990122","8.353906","5.18","STAUNING, DA","FM-15","EKVJ ","V020","330,1,N,0026,1","99999,9,9,Y","009900,1,N,1","+0190,1","+0100,1","99999,9",,,,,"10169,1,99999,9",,,,,"MET053METAR EKVJ 010850Z 33005KT 290V360 CAVOK 19/10 Q1017;",
"06066099999","2010-06-01T09:50:00","4","55.990122","8.353906","5.18","STAUNING, DA","FM-15","EKVJ ","V020","330,1,N,0041,1","22000,1,9,N","011265,1,N,1","+0190,1","+0130,1","99999,9","02,5,+00900,1,99,9",,,"02,99,1,99,9,99,9,99999,9,99,9,99,9","10169,1,99999,9",,,,,"MET059METAR EKVJ 010950Z 33008KT 290V360 9999 FEW030 19/13 Q1017;",
"06066099999","2010-06-01T10:50:00","4","55.990122","8.353906","5.18","STAUNING, DA","FM-15","EKVJ ","V020","300,1,N,0041,1","22000,1,9,N","011265,1,N,1","+0200,1","+0140,1","99999,9","02,5,+00900,1,99,9",,,"02,99,1,99,9,99,9,99999,9,99,9,99,9","10159,1,99999,9",,,,,"MET059METAR EKVJ 011050Z 30008KT 250V340 9999 FEW030 20/14 Q1016;",
"06066099999","2010-06-01T11:50:00","4","55.990122","8.353906","5.18","STAUNING, DA","FM-15","EKVJ ","V020","020,1,N,0041,1","22000,1,9,N","011265,1,N,1","+0200,1","+0140,1","99999,9","02,5,+00900,1,99,9",,,"02,99,1,99,9,99,9,99999,9,99,9,99,9","10159,1,99999,9",,,,,"MET059METAR EKVJ 011150Z 02008KT 300V090 9999 FEW030 20/14 Q1016;",
"06066099999","2010-06-01T12:50:00","4","55.990122","8.353906","5.18","STAUNING, DA","FM-15","EKVJ ","V020","030,1,N,0041,1","22000,1,9,N","011265,1,N,1","+0210,1","+0070,1","99999,9","02,5,+00900,1,99,9",,,"02,99,1,99,9,99,9,99999,9,99,9,99,9","10159,1,99999,9",,,,,"MET059METAR EKVJ 011250Z 03008KT 360V100 9999 FEW030 21/07 Q1016;",
"06066099999","2010-06-02T06:20:00","4","55.990122","8.353906","5.18","STAUNING, DA","FM-15","EKVJ ","V020","999,9,C,0000,1","99999,9,9,Y","009900,1,N,1","+0150,1","+0110,1","99999,9",,,,,"10200,1,99999,9",,,,,"MET045METAR EKVJ 020620Z 00000KT CAVOK 15/11 Q1020;",
"06066099999","2010-06-02T06:50:00","4","55.990122","8.353906","5.18","STAUNING, DA","FM-15","EKVJ ","V020","280,1,N,0015,1","99999,9,9,Y","009900,1,N,1","+0150,1","+0110,1","99999,9",,,,,"10200,1,99999,9",,,,,"MET045METAR EKVJ 020650Z 28003KT CAVOK 15/11 Q1020;",
"06066099999","2010-06-02T07:50:00","4","55.990122","8.353906","5.18","STAUNING, DA","FM-15","EKVJ ","V020","280,1,N,0015,1","99999,9,9,Y","009900,1,N,1","+0150,1","+0110,1","99999,9",,,,,"10200,1,99999,9",,,,,"MET045METAR EKVJ 020750Z 28003KT CAVOK 15/11 Q1020;",
"06066099999","2010-06-02T08:50:00","4","55.990122","8.353906","5.18","STAUNING, DA","FM-15","EKVJ ","V020","280,1,N,0015,1","99999,9,9,Y","009900,1,N,1","+0190,1","+0110,1","99999,9",,,,,"10190,1,99999,9",,,,,"MET045METAR EKVJ 020850Z 28003KT CAVOK 19/11 Q1019;",
"06066099999","2010-06-02T09:50:00","4","55.990122","8.353906","5.18","STAUNING, DA","FM-15","EKVJ ","V020","280,1,N,0015,1","99999,9,9,Y","009900,1,N,1","+0190,1","+0110,1","99999,9",,,,,"10190,1,99999,9",,,,,"MET045METAR EKVJ 020950Z 28003KT CAVOK 19/11 Q1019;",
"06066099999","2010-06-02T10:50:00","4","55.990122","8.353906","5.18","STAUNING, DA","FM-15","EKVJ ","V020","310,1,N,0041,1","99999,9,9,Y","009900,1,N,1","+0200,1","+0110,1","99999,9",,,,,"10190,1,99999,9",,,,,"MET045METAR EKVJ 021050Z 31008KT CAVOK 20/11 Q1019;",
"06066099999","2010-06-02T11:50:00","4","55.990122","8.353906","5.18","STAUNING, DA","FM-15","EKVJ ","V020","310,1,N,0041,1","99999,9,9,Y","009900,1,N,1","+0200,1","+0110,1","99999,9",,,,,"10190,1,99999,9",,,,,"MET045METAR EKVJ 021150Z 31008KT CAVOK 20/11 Q1019;",
"06066099999","2010-06-02T12:50:00","4","55.990122","8.353906","5.18","STAUNING, DA","FM-15","EKVJ ","V020","310,1,N,0041,1","99999,9,9,Y","009900,1,N,1","+0200,1","+0110,1","99999,9",,,,,"10190,1,99999,9",,,,,"MET045METAR EKVJ 021250Z 31008KT CAVOK 20/11 Q1019;",
"06066099999","2010-06-02T13:50:00","4","55.990122","8.353906","5.18","STAUNING, DA","FM-15","EKVJ ","V020","310,1,N,0062,1","99999,9,9,Y","009900,1,N,1","+0200,1","+0110,1","99999,9",,,,,"10190,1,99999,9",,,,,"MET045METAR EKVJ 021350Z 31012KT CAVOK 20/11 Q1019;",
"06066099999","2010-06-03T06:20:00","4","55.990122","8.353906","5.18","STAUNING, DA","FM-15","EKVJ ","V020","320,1,N,0041,1","99999,9,9,Y","009900,1,N,1","+0140,1","+0120,1","99999,9",,,,,"10230,1,99999,9",,,,,"MET045METAR EKVJ 030620Z 32008KT CAVOK 14/12 Q1023;",
"06066099999","2010-06-03T06:50:00","4","55.990122","8.353906","5.18","STAUNING, DA","FM-15","EKVJ ","V020","320,1,N,0041,1","99999,9,9,Y","009900,1,N,1","+0150,1","+0120,1","99999,9",,,,,"10230,1,99999,9",,,,,"MET045METAR EKVJ 030650Z 32008KT CAVOK 15/12 Q1023;",
"06066099999","2010-06-03T07:50:00","4","55.990122","8.353906","5.18","STAUNING, DA","FM-15","EKVJ ","V020","310,1,N,0041,1","22000,1,9,N","011265,1,N,1","+0160,1","+0130,1","99999,9","02,5,+00600,1,99,9",,,"02,99,1,99,9,99,9,99999,9,99,9,99,9","10240,1,99999,9",,,,,"MET051METAR EKVJ 030750Z 31008KT 9999 FEW020 16/13 Q1024;",
"06066099999","2010-06-03T08:50:00","4","55.990122","8.353906","5.18","STAUNING, DA","FM-15","EKVJ ","V020","310,1,N,0041,1","22000,1,9,N","011265,1,N,1","+0160,1","+0130,1","99999,9","02,5,+00750,1,99,9",,,"02,99,1,99,9,99,9,99999,9,99,9,99,9","10230,1,99999,9",,,,,"MET051METAR EKVJ 030850Z 31008KT 9999 FEW025 16/13 Q1023;",
"06066099999","2010-06-03T09:50:00","4","55.990122","8.353906","5.18","STAUNING, DA","FM-15","EKVJ ","V020","280,1,N,0051,1","22000,1,9,N","011265,1,N,1","+0160,1","+0110,1","99999,9","02,5,+00750,1,99,9",,,"02,99,1,99,9,99,9,99999,9,99,9,99,9","10230,1,99999,9",,,,,"MET059METAR EKVJ 030950Z 28010KT 240V320 9999 FEW025 16/11 Q1023;",
"06066099999","2010-06-03T10:50:00","4","55.990122","8.353906","5.18","STAUNING, DA","FM-15","EKVJ ","V020","300,1,N,0062,1","22000,1,9,N","011265,1,N,1","+0170,1","+0130,1","99999,9","02,5,+00750,1,99,9",,,"02,99,1,99,9,99,9,99999,9,99,9,99,9","10230,1,99999,9",,,,,"MET059METAR EKVJ 031050Z 30012KT 240V320 9999 FEW025 17/13 Q1023;",
"06066099999","2010-06-03T11:50:00","4","55.990122","8.353906","5.18","STAUNING, DA","FM-15","EKVJ ","V020","300,1,N,0067,1","22000,1,9,N","011265,1,N,1","+0170,1","+0110,1","99999,9","02,5,+00750,1,99,9",,,"02,99,1,99,9,99,9,99999,9,99,9,99,9","10230,1,99999,9",,,,,"MET059METAR EKVJ 031150Z 30013KT 240V320 9999 FEW025 17/11 Q1023;",
"06066099999","2010-06-03T12:50:00","4","55.990122","8.353906","5.18","STAUNING, DA","FM-15","EKVJ ","V020","300,1,N,0067,1","22000,1,9,N","011265,1,N,1","+0170,1","+0120,1","99999,9","02,5,+00750,1,99,9",,,"02,99,1,99,9,99,9,99999,9,99,9,99,9","10230,1,99999,9",,,,,"MET059METAR EKVJ 031250Z 30013KT 240V320 9999 FEW025 17/12 Q1023;",
"06066099999","2010-06-03T13:50:00","4","55.990122","8.353906","5.18","STAUNING, DA","FM-15","EKVJ ","V020","300,1,N,0082,1","22000,1,9,N","011265,1,N,1","+0170,1","+0120,1","99999,9","02,5,+00750,1,99,9",,,"02,99,1,99,9,99,9,99999,9,99,9,99,9","10230,1,99999,9",,,,,"MET059METAR EKVJ 031350Z 30016KT 240V340 9999 FEW025 17/12 Q1023;",
"06066099999","2010-06-04T06:20:00","4","55.990122","8.353906","5.18","STAUNING, DA","FM-15","EKVJ ","V020","360,1,N,0026,1","99999,9,9,Y","009900,1,N,1","+0140,1","+0120,1","99999,9",,,,,"10200,1,99999,9",,,,,"MET045METAR EKVJ 040620Z 36005KT CAVOK 14/12 Q1020;",
"06066099999","2010-06-04T06:50:00","4","55.990122","8.353906","5.18","STAUNING, DA","FM-15","EKVJ ","V020","360,1,N,0026,1","99999,9,9,Y","009900,1,N,1","+0140,1","+0120,1","99999,9",,,,,"10200,1,99999,9",,,,,"MET045METAR EKVJ 040650Z 36005KT CAVOK 14/12 Q1020;",
"06066099999","2010-06-04T07:50:00","4","55.990122","8.353906","5.18","STAUNING, DA","FM-15","EKVJ ","V020","360,1,N,0026,1","99999,9,9,Y","009900,1,N,1","+0160,1","+0120,1","99999,9",,,,,"10200,1,99999,9",,,,,"MET045METAR EKVJ 040750Z 36005KT CAVOK 16/12 Q1020;",
"06066099999","2010-06-04T08:50:00","4","55.990122","8.353906","5.18","STAUNING, DA","FM-15","EKVJ ","V020","360,1,N,0026,1","99999,9,9,Y","009900,1,N,1","+0160,1","+0120,1","99999,9",,,,,"10200,1,99999,9",,,,,"MET045METAR EKVJ 040850Z 36005KT CAVOK 16/12 Q1020;",
"06066099999","2010-06-04T10:50:00","4","55.990122","8.353906","5.18","STAUNING, DA","FM-15","EKVJ ","V020","360,1,N,0026,1","99999,9,9,Y","009900,1,N,1","+0190,1","+0120,1","99999,9",,,,,"10200,1,99999,9",,,,,"MET045METAR EKVJ 041050Z 36005KT CAVOK 19/12 Q1020;",
"06066099999","2010-06-04T11:50:00","4","55.990122","8.353906","5.18","STAUNING, DA","FM-15","EKVJ ","V020","360,1,N,0026,1","99999,9,9,Y","009900,1,N,1","+0210,1","+0120,1","99999,9",,,,,"10200,1,99999,9",,,,,"MET045METAR EKVJ 041150Z 36005KT CAVOK 21/12 Q1020;",
"06066099999","2010-06-04T12:50:00","4","55.990122","8.353906","5.18","STAUNING, DA","FM-15","EKVJ ","V020","360,1,N,0026,1","99999,9,9,Y","009900,1,N,1","+0210,1","+0120,1","99999,9",,,,,"10200,1,99999,9",,,,,"MET045METAR EKVJ 041250Z 36005KT CAVOK 21/12 Q1020;",
"06066099999","2010-06-05T09:20:00","4","55.990122","8.353906","5.18","STAUNING, DA","FM-15","EKVJ ","V020","300,1,N,0041,1","00600,1,C,N","011265,1,N,1","+0130,1","+0100,1","99999,9","07,5,+00600,1,99,9",,,"07,99,1,99,9,99,9,99999,9,99,9,99,9","10210,1,99999,9",,,,,"MET051METAR EKVJ 050920Z 30008KT 9999 BKN020 13/10 Q1021;",
"06066099999","2010-06-05T09:50:00","4","55.990122","8.353906","5.18","STAUNING, DA","FM-15","EKVJ ","V020","280,1,N,0051,1","00600,1,C,N","011265,1,N,1","+0130,1","+0100,1","99999,9","07,5,+00600,1,99,9",,,"07,99,1,99,9,99,9,99999,9,99,9,99,9","10210,1,99999,9",,,,,"MET051METAR EKVJ 050950Z 28010KT 9999 BKN020 13/10 Q1021;",
"06066099999","2010-06-05T10:50:00","4","55.990122","8.353906","5.18","STAUNING, DA","FM-15","EKVJ ","V020","280,1,N,0051,1","22000,1,9,N","011265,1,N,1","+0140,1","+0100,1","99999,9","04,5,+00600,1,99,9",,,"04,99,1,99,9,99,9,99999,9,99,9,99,9","10210,1,99999,9",,,,,"MET059METAR EKVJ 051050Z 28010KT 240V330 9999 SCT020 14/10 Q1021;",
"06066099999","2010-06-05T11:50:00","4","55.990122","8.353906","5.18","STAUNING, DA","FM-15","EKVJ ","V020","280,1,N,0051,1","22000,1,9,N","011265,1,N,1","+0140,1","+0100,1","99999,9","04,5,+00600,1,99,9",,,"04,99,1,99,9,99,9,99999,9,99,9,99,9","10210,1,99999,9",,,,,"MET059METAR EKVJ 051150Z 28010KT 240V330 9999 SCT020 14/10 Q1021;",
"06066099999","2010-06-05T12:50:00","4","55.990122","8.353906","5.18","STAUNING, DA","FM-15","EKVJ ","V020","280,1,N,0051,1","22000,1,9,N","011265,1,N,1","+0140,1","+0100,1","99999,9","04,5,+00750,1,99,9",,,"04,99,1,99,9,99,9,99999,9,99,9,99,9","10210,1,99999,9",,,,,"MET059METAR EKVJ 051250Z 28010KT 240V330 9999 SCT025 14/10 Q1021;",
"06066099999","2010-06-05T13:50:00","4","55.990122","8.353906","5.18","STAUNING, DA","FM-15","EKVJ ","V020","280,1,N,0051,1","22000,1,9,N","011265,1,N,1","+0150,1","+0110,1","99999,9","04,5,+00750,1,99,9",,,"04,99,1,99,9,99,9,99999,9,99,9,99,9","10210,1,99999,9",,,,,"MET059METAR EKVJ 051350Z 28010KT 240V350 9999 SCT025 15/11 Q1021;",
"06066099999","2010-06-06T08:50:00","4","55.990122","8.353906","5.18","STAUNING, DA","FM-15","EKVJ ","V020","250,1,N,0015,1","99999,9,9,Y","009900,1,N,1","+0160,1","+0130,1","99999,9",,,,,"10149,1,99999,9",,,,,"MET045METAR EKVJ 060850Z 25003KT CAVOK 16/13 Q1015;",
"06066099999","2010-06-06T09:50:00","4","55.990122","8.353906","5.18","STAUNING, DA","FM-15","EKVJ ","V020","250,1,N,0015,1","99999,9,9,Y","009900,1,N,1","+0160,1","+0110,1","99999,9",,,,,"10149,1,99999,9",,,,,"MET045METAR EKVJ 060950Z 25003KT CAVOK 16/11 Q1015;",
"06066099999","2010-06-06T10:50:00","4","55.990122","8.353906","5.18","STAUNING, DA","FM-15","EKVJ ","V020","250,1,N,0026,1","99999,9,9,Y","009900,1,N,1","+0170,1","+0110,1","99999,9",,,,,"10149,1,99999,9",,,,,"MET045METAR EKVJ 061050Z 25005KT CAVOK 17/11 Q1015;",
"06066099999","2010-06-06T11:50:00","4","55.990122","8.353906","5.18","STAUNING, DA","FM-15","EKVJ ","V020","290,1,N,0041,1","99999,9,9,Y","009900,1,N,1","+0180,1","+0120,1","99999,9",,,,,"10139,1,99999,9",,,,,"MET045METAR EKVJ 061150Z 29008KT CAVOK 18/12 Q1014;",
"06066099999","2010-06-06T12:50:00","4","55.990122","8.353906","5.18","STAUNING, DA","FM-15","EKVJ ","V020","300,1,N,0031,1","99999,9,9,Y","009900,1,N,1","+0190,1","+0120,1","99999,9",,,,,"10139,1,99999,9",,,,,"MET053METAR EKVJ 061250Z 30006KT 240V360 CAVOK 19/12 Q1014;",
"06066099999","2010-06-07T06:20:00","4","55.990122","8.353906","5.18","STAUNING, DA","FM-15","EKVJ ","V020","330,1,N,0026,1","01500,1,C,N","006000,1,N,1","+0110,1","+0110,1","99999,9","02,5,+00900,1,99,9","07,5,+01500,1,99,9",,"07,99,1,99,9,99,9,99999,9,99,9,99,9","10061,1,99999,9","61,1",,,,"MET070METAR EKVJ 070620Z 33005KT 300V360 6000 -RA FEW030 BKN050 11/11 Q1006;",
"06066099999","2010-06-07T06:50:00","4","55.990122","8.353906","5.18","STAUNING, DA","FM-15","EKVJ ","V020","330,1,N,0026,1","01500,1,C,N","007000,1,N,1","+0120,1","+0120,1","99999,9","02,5,+00900,1,99,9","07,5,+01500,1,99,9",,"07,99,1,99,9,99,9,99999,9,99,9,99,9","10061,1,99999,9","61,1",,,,"MET070METAR EKVJ 070650Z 33005KT 300V360 7000 -RA FEW030 BKN050 12/12 Q1006;",
"06066099999","2010-06-07T07:50:00","4","55.990122","8.353906","5.18","STAUNING, DA","FM-15","EKVJ ","V020","330,1,N,0031,1","01200,1,C,N","008000,1,N,1","+0120,1","+0120,1","99999,9","02,5,+00300,1,99,9","07,5,+01200,1,99,9",,"07,99,1,99,9,99,9,99999,9,99,9,99,9","10061,1,99999,9","51,1",,,,"MET070METAR EKVJ 070750Z 33006KT 300V360 8000 -DZ FEW010 BKN040 12/12 Q1006;",
"06066099999","2010-06-07T08:50:00","4","55.990122","8.353906","5.18","STAUNING, DA","FM-15","EKVJ ","V020","340,1,N,0031,1","01200,1,C,N","008000,1,N,1","+0120,1","+0120,1","99999,9","02,5,+00180,1,99,9","07,5,+01200,1,99,9",,"07,99,1,99,9,99,9,99999,9,99,9,99,9","10061,1,99999,9","63,1",,,,"MET069METAR EKVJ 070850Z 34006KT 300V020 8000 RA FEW006 BKN040 12/12 Q1006;",
"06066099999","2010-06-07T09:50:00","4","55.990122","8.353906","5.18","STAUNING, DA","FM-15","EKVJ ","V020","340,1,N,0031,1","01200,1,C,N","008000,1,N,1","+0120,1","+0120,1","99999,9","02,5,+00180,1,99,9","07,5,+01200,1,99,9",,"07,99,1,99,9,99,9,99999,9,99,9,99,9","10061,1,99999,9","61,1",,,,"MET070METAR EKVJ 070950Z 34006KT 300V020 8000 -RA FEW006 BKN040 12/12 Q1006;",
"06066099999","2010-06-07T10:50:00","4","55.990122","8.353906","5.18","STAUNING, DA","FM-15","EKVJ ","V020","340,1,N,0021,1","01200,1,C,N","008000,1,N,1","+0120,1","+0120,1","99999,9","04,5,+00180,1,99,9","07,5,+01200,1,99,9",,"07,99,1,99,9,99,9,99999,9,99,9,99,9","10061,1,99999,9","51,1",,,,"MET070METAR EKVJ 071050Z 34004KT 300V020 8000 -DZ SCT006 BKN040 12/12 Q1006;",
"06066099999","2010-06-07T11:50:00","4","55.990122","8.353906","5.18","STAUNING, DA","FM-15","EKVJ ","V020","290,1,N,0021,1","00900,1,C,N","006000,1,N,1","+0120,1","+0120,1","99999,9","02,5,+00180,1,99,9","07,5,+00900,1,99,9",,"07,99,1,99,9,99,9,99999,9,99,9,99,9","10061,1,99999,9","51,1",,,,"MET062METAR EKVJ 071150Z 29004KT 6000 -DZ FEW006 BKN030 12/12 Q1006;",
"06066099999","2010-06-07T12:50:00","4","55.990122","8.353906","5.18","STAUNING, DA","FM-15","EKVJ ","V020","240,1,N,0015,1","01200,1,C,N","011265,1,N,1","+0130,1","+0120,1","99999,9","04,5,+00360,1,99,9","07,5,+01200,1,99,9",,"07,99,1,99,9,99,9,99999,9,99,9,99,9","10061,1,99999,9",,,,,"MET058METAR EKVJ 071250Z 24003KT 9999 SCT012 BKN040 13/12 Q1006;",
"06066099999","2010-06-07T13:50:00","4","55.990122","8.353906","5.18","STAUNING, DA","FM-15","EKVJ ","V020","240,1,N,0026,1","01200,1,C,N","011265,1,N,1","+0140,1","+0130,1","99999,9","04,5,+00360,1,99,9","07,5,+01200,1,99,9",,"07,99,1,99,9,99,9,99999,9,99,9,99,9","10061,1,99999,9",,,,,"MET058METAR EKVJ 071350Z 24005KT 9999 SCT012 BKN040 14/13 Q1006;",
"06066099999","2010-06-08T06:20:00","4","55.990122","8.353906","5.18","STAUNING, DA","FM-15","EKVJ ","V020","350,1,N,0015,1","00600,1,C,N","011265,1,N,1","+0130,1","+0120,1","99999,9","04,5,+00450,1,99,9","07,5,+00600,1,99,9",,"07,99,1,99,9,99,9,99999,9,99,9,99,9","10081,1,99999,9",,,,,"MET058METAR EKVJ 080620Z 35003KT 9999 SCT015 BKN020 13/12 Q1008;",
"06066099999","2010-06-08T06:50:00","4","55.990122","8.353906","5.18","STAUNING, DA","FM-15","EKVJ ","V020","350,1,N,0015,1","00600,1,C,N","011265,1,N,1","+0130,1","+0120,1","99999,9","04,5,+00450,1,99,9","07,5,+00600,1,99,9",,"07,99,1,99,9,99,9,99999,9,99,9,99,9","10081,1,99999,9",,,,,"MET058METAR EKVJ 080650Z 35003KT 9999 SCT015 BKN020 13/12 Q1008;",
"06066099999","2010-06-08T07:50:00","4","55.990122","8.353906","5.18","STAUNING, DA","FM-15","EKVJ ","V020","999,9,C,0000,1","00600,1,C,N","011265,1,N,1","+0130,1","+0120,1","99999,9","04,5,+00450,1,99,9","07,5,+00600,1,99,9",,"07,99,1,99,9,99,9,99999,9,99,9,99,9","10081,1,99999,9",,,,,"MET058METAR EKVJ 080750Z 00000KT 9999 SCT015 BKN020 13/12 Q1008;",
"06066099999","2010-06-08T08:50:00","4","55.990122","8.353906","5.18","STAUNING, DA","FM-15","EKVJ ","V020","070,1,N,0015,1","00600,1,C,N","011265,1,N,1","+0140,1","+0120,1","99999,9","04,5,+00450,1,99,9","07,5,+00600,1,99,9",,"07,99,1,99,9,99,9,99999,9,99,9,99,9","10081,1,99999,9",,,,,"MET058METAR EKVJ 080850Z 07003KT 9999 SCT015 BKN020 14/12 Q1008;",
"06066099999","2010-06-08T10:50:00","4","55.990122","8.353906","5.18","STAUNING, DA","FM-15","EKVJ ","V020","300,1,N,0015,1","00600,1,C,N","011265,1,N,1","+0140,1","+0120,1","99999,9","04,5,+00360,1,99,9","07,5,+00600,1,99,9",,"07,99,1,99,9,99,9,99999,9,99,9,99,9","10081,1,99999,9",,,,,"MET058METAR EKVJ 081050Z 30003KT 9999 SCT012 BKN020 14/12 Q1008;",
"06066099999","2010-06-08T11:50:00","4","55.990122","8.353906","5.18","STAUNING, DA","FM-15","EKVJ ","V020","270,1,N,0015,1","00600,1,C,N","011265,1,N,1","+0150,1","+0130,1","99999,9","04,5,+00450,1,99,9","07,5,+00600,1,99,9",,"07,99,1,99,9,99,9,99999,9,99,9,99,9","10081,1,99999,9",,,,,"MET058METAR EKVJ 081150Z 27003KT 9999 SCT015 BKN020 15/13 Q1008;",
"06066099999","2010-06-08T12:50:00","4","55.990122","8.353906","5.18","STAUNING, DA","FM-15","EKVJ ","V020","270,1,N,0026,1","01800,1,C,N","011265,1,N,1","+0150,1","+0130,1","99999,9","04,5,+00450,1,99,9","07,5,+01800,1,99,9",,"07,99,1,99,9,99,9,99999,9,99,9,99,9","10091,1,99999,9",,,,,"MET058METAR EKVJ 081250Z 27005KT 9999 SCT015 BKN060 15/13 Q1009;",
"06066099999","2010-06-08T13:50:00","4","55.990122","8.353906","5.18","STAUNING, DA","FM-15","EKVJ ","V020","270,1,N,0026,1","01800,1,C,N","011265,1,N,1","+0150,1","+0130,1","99999,9","02,5,+00600,1,99,9","07,5,+01800,1,99,9",,"07,99,1,99,9,99,9,99999,9,99,9,99,9","10091,1,99999,9",,,,,"MET058METAR EKVJ 081350Z 27005KT 9999 FEW020 BKN060 15/13 Q1009;",
"06066099999","2010-06-09T06:20:00","4","55.990122","8.353906","5.18","STAUNING, DA","FM-15","EKVJ ","V020","060,1,N,0041,1","00300,1,C,N","007000,1,N,1","+0140,1","+0130,1","99999,9","04,5,+00180,1,99,9","07,5,+00300,1,99,9",,"07,99,1,99,9,99,9,99999,9,99,9,99,9","10071,1,99999,9",,,,,"MET058METAR EKVJ 090620Z 06008KT 7000 SCT006 BKN010 14/13 Q1007;",
"06066099999","2010-06-09T06:50:00","4","55.990122","8.353906","5.18","STAUNING, DA","FM-15","EKVJ ","V020","080,1,N,0051,1","00150,1,C,N","006000,1,N,1","+0140,1","+0130,1","99999,9","07,5,+00150,1,99,9",,,"07,99,1,99,9,99,9,99999,9,99,9,99,9","10071,1,99999,9","61,1",,,,"MET055METAR EKVJ 090650Z 08010KT 6000 -RA BKN005 14/13 Q1007;",
"06066099999","2010-06-09T07:50:00","4","55.990122","8.353906","5.18","STAUNING, DA","FM-15","EKVJ ","V020","080,1,N,0051,1","00150,1,C,N","008000,1,N,1","+0140,1","+0130,1","99999,9","07,5,+00150,1,99,9",,,"07,99,1,99,9,99,9,99999,9,99,9,99,9","10081,1,99999,9","61,1",,,,"MET055METAR EKVJ 090750Z 08010KT 8000 -RA BKN005 14/13 Q1008;",
"06066099999","2010-06-09T08:50:00","4","55.990122","8.353906","5.18","STAUNING, DA","FM-15","EKVJ ","V020","080,1,N,0041,1","00150,1,C,N","008000,1,N,1","+0140,1","+0130,1","99999,9","07,5,+00150,1,99,9",,,"07,99,1,99,9,99,9,99999,9,99,9,99,9","10081,1,99999,9","61,1",,,,"MET055METAR EKVJ 090850Z 08008KT 8000 -RA BKN005 14/13 Q1008;",
"06066099999","2010-06-09T09:50:00","4","55.990122","8.353906","5.18","STAUNING, DA","FM-15","EKVJ ","V020","080,1,N,0041,1","00210,1,C,N","011265,1,N,1","+0150,1","+0150,1","99999,9","07,5,+00210,1,99,9",,,"07,99,1,99,9,99,9,99999,9,99,9,99,9","10081,1,99999,9",,,,,"MET051METAR EKVJ 090950Z 08008KT 9999 BKN007 15/15 Q1008;",
"06066099999","2010-06-09T10:50:00","4","55.990122","8.353906","5.18","STAUNING, DA","FM-15","EKVJ ","V020","080,1,N,0041,1","00240,1,C,N","011265,1,N,1","+0150,1","+0150,1","99999,9","07,5,+00240,1,99,9",,,"07,99,1,99,9,99,9,99999,9,99,9,99,9","10081,1,99999,9",,,,,"MET051METAR EKVJ 091050Z 08008KT 9999 BKN008 15/15 Q1008;",
"06066099999","2010-06-09T11:50:00","4","55.990122","8.353906","5.18","STAUNING, DA","FM-15","EKVJ ","V020","070,1,N,0041,1","00300,1,C,N","011265,1,N,1","+0160,1","+0150,1","99999,9","07,5,+00300,1,99,9",,,"07,99,1,99,9,99,9,99999,9,99,9,99,9","10091,1,99999,9",,,,,"MET051METAR EKVJ 091150Z 07008KT 9999 BKN010 16/15 Q1009;",
"06066099999","2010-06-09T12:50:00","4","55.990122","8.353906","5.18","STAUNING, DA","FM-15","EKVJ ","V020","070,1,N,0041,1","00360,1,C,N","011265,1,N,1","+0160,1","+0150,1","99999,9","07,5,+00360,1,99,9",,,"07,99,1,99,9,99,9,99999,9,99,9,99,9","10091,1,99999,9",,,,,"MET051METAR EKVJ 091250Z 07008KT 9999 BKN012 16/15 Q1009;",
"06066099999","2010-06-09T13:50:00","4","55.990122","8.353906","5.18","STAUNING, DA","FM-15","EKVJ ","V020","070,1,N,0041,1","00360,1,C,N","011265,1,N,1","+0160,1","+0140,1","99999,9","07,5,+00360,1,99,9",,,"07,99,1,99,9,99,9,99999,9,99,9,99,9","10091,1,99999,9",,,,,"MET051METAR EKVJ 091350Z 07008KT 9999 BKN012 16/14 Q1009;",
"06066099999","2010-06-10T06:20:00","4","55.990122","8.353906","5.18","STAUNING, DA","FM-15","EKVJ ","V020","070,1,N,0041,1","00150,1,C,N","006000,1,N,1","+0150,1","+0150,1","99999,9","07,5,+00150,1,99,9",,,"07,99,1,99,9,99,9,99999,9,99,9,99,9","10108,1,99999,9","61,1",,,,"MET055METAR EKVJ 100620Z 07008KT 6000 -RA BKN005 15/15 Q1011;",
"06066099999","2010-06-10T06:50:00","4","55.990122","8.353906","5.18","STAUNING, DA","FM-15","EKVJ ","V020","070,1,N,0041,1","00150,1,C,N","006000,1,N,1","+0150,1","+0150,1","99999,9","07,5,+00150,1,99,9",,,"07,99,1,99,9,99,9,99999,9,99,9,99,9","10108,1,99999,9","61,1",,,,"MET055METAR EKVJ 100650Z 07008KT 6000 -RA BKN005 15/15 Q1011;",
"06066099999","2010-06-10T07:50:00","4","55.990122","8.353906","5.18","STAUNING, DA","FM-15","EKVJ ","V020","080,1,N,0051,1","00150,1,C,N","004000,1,N,1","+0150,1","+0150,1","99999,9","07,5,+00150,1,99,9",,,"07,99,1,99,9,99,9,99999,9,99,9,99,9","10108,1,99999,9","63,1",,,,"MET054METAR EKVJ 100750Z 08010KT 4000 RA BKN005 15/15 Q1011;",
"06066099999","2010-06-10T08:50:00","4","55.990122","8.353906","5.18","STAUNING, DA","FM-15","EKVJ ","V020","080,1,N,0051,1","00150,1,C,N","005000,1,N,1","+0150,1","+0150,1","99999,9","07,5,+00150,1,99,9",,,"07,99,1,99,9,99,9,99999,9,99,9,99,9","10108,1,99999,9","63,1",,,,"MET054METAR EKVJ 100850Z 08010KT 5000 RA BKN005 15/15 Q1011;",
"06066099999","2010-06-10T09:50:00","4","55.990122","8.353906","5.18","STAUNING, DA","FM-15","EKVJ ","V020","080,1,N,0051,1","00150,1,C,N","006000,1,N,1","+0150,1","+0150,1","99999,9","04,5,+00120,1,99,9","07,5,+00150,1,99,9",,"07,99,1,99,9,99,9,99999,9,99,9,99,9","10108,1,99999,9","63,1",,,,"MET061METAR EKVJ 100950Z 08010KT 6000 RA SCT004 BKN005 15/15 Q1011;",
"06066099999","2010-06-10T10:50:00","4","55.990122","8.353906","5.18","STAUNING, DA","FM-15","EKVJ ","V020","080,1,N,0041,1","00150,1,C,N","006000,1,N,1","+0140,1","+0140,1","99999,9","04,5,+00120,1,99,9","07,5,+00150,1,99,9",,"07,99,1,99,9,99,9,99999,9,99,9,99,9","10108,1,99999,9","63,1",,,,"MET061METAR EKVJ 101050Z 08008KT 6000 RA SCT004 BKN005 14/14 Q1011;",
"06066099999","2010-06-10T11:50:00","4","55.990122","8.353906","5.18","STAUNING, DA","FM-15","EKVJ ","V020","080,1,N,0051,1","00150,1,C,N","008000,1,N,1","+0150,1","+0150,1","99999,9","07,5,+00150,1,99,9",,,"07,99,1,99,9,99,9,99999,9,99,9,99,9","10108,1,99999,9","61,1",,,,"MET055METAR EKVJ 101150Z 08010KT 8000 -RA BKN005 15/15 Q1011;",
"06066099999","2010-06-10T12:50:00","4","55.990122","8.353906","5.18","STAUNING, DA","FM-15","EKVJ ","V020","080,1,N,0051,1","00150,1,C,N","011265,1,N,1","+0150,1","+0150,1","99999,9","07,5,+00150,1,99,9",,,"07,99,1,99,9,99,9,99999,9,99,9,99,9","10102,1,99999,9","51,1",,,,"MET055METAR EKVJ 101250Z 08010KT 9999 -DZ BKN005 15/15 Q1010;",
"06066099999","2010-06-10T13:50:00","4","55.990122","8.353906","5.18","STAUNING, DA","FM-15","EKVJ ","V020","080,1,N,0062,1","00180,1,C,N","011265,1,N,1","+0150,1","+0150,1","99999,9","07,5,+00180,1,99,9",,,"07,99,1,99,9,99,9,99999,9,99,9,99,9","10102,1,99999,9",,,,,"MET051METAR EKVJ 101350Z 08012KT 9999 BKN006 15/15 Q1010;",
"06066099999","2010-06-10T14:50:00","4","55.990122","8.353906","5.18","STAUNING, DA","FM-15","EKVJ ","V020","080,1,N,0051,1","00180,1,C,N","011265,1,N,1","+0150,1","+0150,1","99999,9","07,5,+00180,1,99,9",,,"07,99,1,99,9,99,9,99999,9,99,9,99,9","10102,1,99999,9",,,,,"MET051METAR EKVJ 101450Z 08010KT 9999 BKN006 15/15 Q1010;",
"06066099999","2010-06-10T15:50:00","4","55.990122","8.353906","5.18","STAUNING, DA","FM-15","EKVJ ","V020","090,1,N,0051,1","00180,1,C,N","011265,1,N,1","+0150,1","+0150,1","99999,9","07,5,+00180,1,99,9",,,"07,99,1,99,9,99,9,99999,9,99,9,99,9","10102,1,99999,9",,,,,"MET051METAR EKVJ 101550Z 09010KT 9999 BKN006 15/15 Q1010;",
"06066099999","2010-06-10T16:50:00","4","55.990122","8.353906","5.18","STAUNING, DA","FM-15","EKVJ ","V020","090,1,N,0051,1","00210,1,C,N","011265,1,N,1","+0150,1","+0150,1","99999,9","07,5,+00210,1,99,9",,,"07,99,1,99,9,99,9,99999,9,99,9,99,9","10102,1,99999,9",,,,,"MET051METAR EKVJ 101650Z 09010KT 9999 BKN007 15/15 Q1010;",
"06066099999","2010-06-10T17:50:00","4","55.990122","8.353906","5.18","STAUNING, DA","FM-15","EKVJ ","V020","090,1,N,0051,1","00210,1,C,N","011265,1,N,1","+0150,1","+0150,1","99999,9","07,5,+00210,1,99,9",,,"07,99,1,99,9,99,9,99999,9,99,9,99,9","10091,1,99999,9",,,,,"MET051METAR EKVJ 101750Z 09010KT 9999 BKN007 15/15 Q1009;",
"06066099999","2010-06-11T06:20:00","4","55.990122","8.353906","5.18","STAUNING, DA","FM-15","EKVJ ","V020","170,1,N,0026,1","00090,1,C,N","004000,1,N,1","+0150,1","+0150,1","99999,9","07,5,+00090,1,99,9",,,"07,99,1,99,9,99,9,99999,9,99,9,99,9","10041,1,99999,9",,,,,"MET051METAR EKVJ 110620Z 17005KT 4000 BKN003 15/15 Q1004;",
"06066099999","2010-06-11T06:50:00","4","55.990122","8.353906","5.18","STAUNING, DA","FM-15","EKVJ ","V020","180,1,N,0021,1","00090,1,C,N","005000,1,N,1","+0150,1","+0150,1","99999,9","07,5,+00090,1,99,9",,,"07,99,1,99,9,99,9,99999,9,99,9,99,9","10041,1,99999,9",,,,,"MET051METAR EKVJ 110650Z 18004KT 5000 BKN003 15/15 Q1004;",
"06066099999","2010-06-11T07:50:00","4","55.990122","8.353906","5.18","STAUNING, DA","FM-15","EKVJ ","V020","210,1,N,0015,1","00120,1,C,N","005000,1,N,1","+0150,1","+0150,1","99999,9","07,5,+00120,1,99,9",,,"07,99,1,99,9,99,9,99999,9,99,9,99,9","10031,1,99999,9","61,1",,,,"MET055METAR EKVJ 110750Z 21003KT 5000 -RA BKN004 15/15 Q1003;",
"06066099999","2010-06-11T08:20:00","4","55.990122","8.353906","5.18","STAUNING, DA","FM-15","EKVJ ","V020","210,1,N,0015,1","00120,1,C,N","005000,1,N,1","+0150,1","+0150,1","99999,9","07,5,+00120,1,99,9",,,"07,99,1,99,9,99,9,99999,9,99,9,99,9","10031,1,99999,9","51,1",,,,"MET055METAR EKVJ 110820Z 21003KT 5000 -DZ BKN004 15/15 Q1003;",
"06066099999","2010-06-11T08:50:00","4","55.990122","8.353906","5.18","STAUNING, DA","FM-15","EKVJ ","V020","999,9,C,0000,1","00120,1,C,N","005000,1,N,1","+0160,1","+0150,1","99999,9","07,5,+00120,1,99,9",,,"07,99,1,99,9,99,9,99999,9,99,9,99,9","10031,1,99999,9","51,1",,,,"MET055METAR EKVJ 110850Z 00000KT 5000 -DZ BKN004 16/15 Q1003;",
"06066099999","2010-06-11T09:20:00","4","55.990122","8.353906","5.18","STAUNING, DA","FM-15","EKVJ ","V020","999,9,C,0000,1","00120,1,C,N","005000,1,N,1","+0160,1","+0150,1","99999,9","07,5,+00120,1,99,9",,,"07,99,1,99,9,99,9,99999,9,99,9,99,9","10031,1,99999,9","61,1",,,,"MET055METAR EKVJ 110920Z 00000KT 5000 -RA BKN004 16/15 Q1003;",
"06066099999","2010-06-11T09:50:00","4","55.990122","8.353906","5.18","STAUNING, DA","FM-15","EKVJ ","V020","240,1,N,0021,1","00120,1,C,N","006000,1,N,1","+0160,1","+0150,1","99999,9","07,5,+00120,1,99,9",,,"07,99,1,99,9,99,9,99999,9,99,9,99,9","10020,1,99999,9","61,1",,,,"MET055METAR EKVJ 110950Z 24004KT 6000 -RA BKN004 16/15 Q1002;",
"06066099999","2010-06-11T10:20:00","4","55.990122","8.353906","5.18","STAUNING, DA","FM-15","EKVJ ","V020","240,1,N,0021,1","00120,1,C,N","006000,1,N,1","+0160,1","+0150,1","99999,9","07,5,+00120,1,99,9",,,"07,99,1,99,9,99,9,99999,9,99,9,99,9","10020,1,99999,9","61,1",,,,"MET055METAR EKVJ 111020Z 24004KT 6000 -RA BKN004 16/15 Q1002;",
"06066099999","2010-06-11T10:50:00","4","55.990122","8.353906","5.18","STAUNING, DA","FM-15","EKVJ ","V020","240,1,N,0021,1","00120,1,C,N","004000,1,N,1","+0150,1","+0150,1","99999,9","07,5,+00120,1,99,9",,,"07,99,1,99,9,99,9,99999,9,99,9,99,9","10020,1,99999,9","80,1",,,,"MET057METAR EKVJ 111050Z 24004KT 4000 -SHRA BKN004 15/15 Q1002;",
"06066099999","2010-06-11T11:50:00","4","55.990122","8.353906","5.18","STAUNING, DA","FM-15","EKVJ ","V020","240,1,N,0021,1","00090,1,C,N","003000,1,N,1","+0150,1","+0150,1","99999,9","07,5,+00090,1,99,9",,,"07,99,1,99,9,99,9,99999,9,99,9,99,9","10020,1,99999,9","80,1",,,,"MET057METAR EKVJ 111150Z 24004KT 3000 -SHRA BKN003 15/15 Q1002;",
"06066099999","2010-06-11T12:20:00","4","55.990122","8.353906","5.18","STAUNING, DA","FM-15","EKVJ ","V020","240,1,N,0021,1","00090,1,C,N","003000,1,N,1","+0150,1","+0150,1","99999,9","07,5,+00090,1,99,9",,,"07,99,1,99,9,99,9,99999,9,99,9,99,9","10010,1,99999,9","80,1",,,,"MET057METAR EKVJ 111220Z 24004KT 3000 -SHRA BKN003 15/15 Q1001;",
"06066099999","2010-06-11T12:50:00","4","55.990122","8.353906","5.18","STAUNING, DA","FM-15","EKVJ ","V020","240,1,N,0021,1","00120,1,C,N","005000,1,N,1","+0150,1","+0150,1","99999,9","07,5,+00120,1,99,9",,,"07,99,1,99,9,99,9,99999,9,99,9,99,9","10010,1,99999,9","80,1",,,,"MET057METAR EKVJ 111250Z 24004KT 5000 -SHRA BKN004 15/15 Q1001;",
"06066099999","2010-06-11T13:50:00","4","55.990122","8.353906","5.18","STAUNING, DA","FM-15","EKVJ ","V020","240,1,N,0021,1","00120,1,C,N","004500,1,N,1","+0150,1","+0150,1","99999,9","07,5,+00120,1,99,9",,,"07,99,1,99,9,99,9,99999,9,99,9,99,9","10010,1,99999,9","81,1",,,,"MET056METAR EKVJ 111350Z 24004KT 4500 SHRA BKN004 15/15 Q1001;",
"06066099999","2010-06-11T14:20:00","4","55.990122","8.353906","5.18","STAUNING, DA","FM-15","EKVJ ","V020","240,1,N,0021,1","00120,1,C,N","005000,1,N,1","+0150,1","+0150,1","99999,9","07,5,+00120,1,99,9",,,"07,99,1,99,9,99,9,99999,9,99,9,99,9","10010,1,99999,9","80,1",,,,"MET057METAR EKVJ 111420Z 24004KT 5000 -SHRA BKN004 15/15 Q1001;",
"06066099999","2010-06-11T14:50:00","4","55.990122","8.353906","5.18","STAUNING, DA","FM-15","EKVJ ","V020","310,1,N,0041,1","00120,1,C,N","008000,1,N,1","+0150,1","+0150,1","99999,9","07,5,+00120,1,99,9",,,"07,99,1,99,9,99,9,99999,9,99,9,99,9","10000,1,99999,9",,,,,"MET051METAR EKVJ 111450Z 31008KT 8000 BKN004 15/15 Q1000;",
"06066099999","2010-06-11T15:50:00","4","55.990122","8.353906","5.18","STAUNING, DA","FM-15","EKVJ ","V020","310,1,N,0062,1","00120,1,C,N","011265,1,N,1","+0140,1","+0140,1","99999,9","07,5,+00120,1,99,9",,,"07,99,1,99,9,99,9,99999,9,99,9,99,9","10000,1,99999,9",,,,,"MET051METAR EKVJ 111550Z 31012KT 9999 BKN004 14/14 Q1000;",
"06066099999","2010-06-11T16:50:00","4","55.990122","8.353906","5.18","STAUNING, DA","FM-15","EKVJ ","V020","310,1,N,0077,1","00120,1,C,N","011265,1,N,1","+0130,1","+0130,1","99999,9","07,5,+00120,1,99,9",,,"07,99,1,99,9,99,9,99999,9,99,9,99,9","10000,1,99999,9",,,,,"MET051METAR EKVJ 111650Z 31015KT 9999 BKN004 13/13 Q1000;",
"06066099999","2010-06-11T17:50:00","4","55.990122","8.353906","5.18","STAUNING, DA","FM-15","EKVJ ","V020","310,1,N,0072,1","00180,1,C,N","011265,1,N,1","+0130,1","+0120,1","99999,9","07,5,+00180,1,99,9",,,"07,99,1,99,9,99,9,99999,9,99,9,99,9","10010,1,99999,9",,,,,"MET051METAR EKVJ 111750Z 31014KT 9999 BKN006 13/12 Q1001;",
"06066099999","2010-06-11T18:20:00","4","55.990122","8.353906","5.18","STAUNING, DA","FM-15","EKVJ ","V020","300,1,N,0072,1","00270,1,C,N","011265,1,N,1","+0130,1","+0120,1","99999,9","04,5,+00180,1,99,9","07,5,+00270,1,99,9",,"07,99,1,99,9,99,9,99999,9,99,9,99,9","10010,1,99999,9",,,,,"MET058METAR EKVJ 111820Z 30014KT 9999 SCT006 BKN009 13/12 Q1001;",
"06066099999","2010-06-11T18:50:00","4","55.990122","8.353906","5.18","STAUNING, DA","FM-15","EKVJ ","V020","300,1,N,0072,1","00270,1,C,N","011265,1,N,1","+0130,1","+0120,1","99999,9","04,5,+00180,1,99,9","07,5,+00270,1,99,9",,"07,99,1,99,9,99,9,99999,9,99,9,99,9","10020,1,99999,9",,,,,"MET058METAR EKVJ 111850Z 30014KT 9999 SCT006 BKN009 13/12 Q1002;",
"06066099999","2010-06-12T05:50:00","4","55.990122","8.353906","5.18","STAUNING, DA","FM-15","EKVJ ","V020","270,1,N,0062,1","00360,1,C,N","011265,1,N,1","+0130,1","+0110,1","99999,9","04,5,+00300,1,99,9","07,5,+00360,1,99,9",,"07,99,1,99,9,99,9,99999,9,99,9,99,9","10020,1,99999,9",,,,"0113,1","MET061METAR EKVJ 120550Z 27012G22KT 9999 SCT010 BKN012 13/11 Q1002;",
"06066099999","2010-06-12T06:20:00","4","55.990122","8.353906","5.18","STAUNING, DA","FM-15","EKVJ ","V020","270,1,N,0082,1","00360,1,C,N","011265,1,N,1","+0130,1","+0110,1","99999,9","04,5,+00300,1,99,9","07,5,+00360,1,99,9",,"07,99,1,99,9,99,9,99999,9,99,9,99,9","10020,1,99999,9",,,,"0144,1","MET061METAR EKVJ 120620Z 27016G28KT 9999 SCT010 BKN012 13/11 Q1002;",
"06066099999","2010-06-12T06:50:00","4","55.990122","8.353906","5.18","STAUNING, DA","FM-15","EKVJ ","V020","270,1,N,0082,1","00450,1,C,N","011265,1,N,1","+0130,1","+0110,1","99999,9","04,5,+00360,1,99,9","07,5,+00450,1,99,9",,"07,99,1,99,9,99,9,99999,9,99,9,99,9","10020,1,99999,9",,,,"0144,1","MET061METAR EKVJ 120650Z 27016G28KT 9999 SCT012 BKN015 13/11 Q1002;",
"06066099999","2010-06-12T07:50:00","4","55.990122","8.353906","5.18","STAUNING, DA","FM-15","EKVJ ","V020","270,1,N,0082,1","99999,9,C,N","011265,1,N,1","+0130,1","+0110,1","99999,9","02,5,+00360,1,99,9","04,5,+00540,1,99,9",,"04,99,1,99,9,99,9,99999,9,99,9,99,9","10020,1,99999,9",,,,"0144,1","MET061METAR EKVJ 120750Z 27016G28KT 9999 FEW012 SCT018 13/11 Q1002;","P01 005403SCOCIG"
"06066099999","2010-06-12T08:50:00","4","55.990122","8.353906","5.18","STAUNING, DA","FM-15","EKVJ ","V020","270,1,N,0062,1","99999,9,C,N","011265,1,N,1","+0140,1","+0110,1","99999,9","02,5,+00360,1,99,9","04,5,+00540,1,99,9",,"04,99,1,99,9,99,9,99999,9,99,9,99,9","10031,1,99999,9",,,,"0113,1","MET061METAR EKVJ 120850Z 27012G22KT 9999 FEW012 SCT018 14/11 Q1003;","P01 005403SCOCIG"
"06066099999","2010-06-12T09:50:00","4","55.990122","8.353906","5.18","STAUNING, DA","FM-15","EKVJ ","V020","270,1,N,0062,1","99999,9,C,N","011265,1,N,1","+0140,1","+0100,1","99999,9","02,5,+00360,1,99,9","04,5,+00540,1,99,9",,"04,99,1,99,9,99,9,99999,9,99,9,99,9","10031,1,99999,9",,,,"0123,1","MET061METAR EKVJ 120950Z 27012G24KT 9999 FEW012 SCT018 14/10 Q1003;","P01 005403SCOCIG"
"06066099999","2010-06-12T10:20:00","4","55.990122","8.353906","5.18","STAUNING, DA","FM-15","EKVJ ","V020","270,1,N,0062,1","99999,9,C,N","011265,1,N,1","+0140,1","+0100,1","99999,9","02,5,+00360,1,99,9","04,5,+00540,1,99,9",,"04,99,1,99,9,99,9,99999,9,99,9,99,9","10031,1,99999,9",,,,"0123,1","MET061METAR EKVJ 121020Z 27012G24KT 9999 FEW012 SCT018 14/10 Q1003;","P01 005403SCOCIG"
"06066099999","2010-06-12T10:50:00","4","55.990122","8.353906","5.18","STAUNING, DA","FM-15","EKVJ ","V020","280,1,N,0062,1","99999,9,C,N","011265,1,N,1","+0140,1","+0100,1","99999,9","02,5,+00360,1,99,9","04,5,+00540,1,99,9",,"04,99,1,99,9,99,9,99999,9,99,9,99,9","10041,1,99999,9",,,,"0123,1","MET069METAR EKVJ 121050Z 28012G24KT 240V310 9999 FEW012 SCT018 14/10 Q1004;","P01 005403SCOCIG"
"06066099999","2010-06-12T11:20:00","4","55.990122","8.353906","5.18","STAUNING, DA","FM-15","EKVJ ","V020","280,1,N,0062,1","99999,9,C,N","011265,1,N,1","+0140,1","+0100,1","99999,9","02,5,+00360,1,99,9","04,5,+00540,1,99,9",,"04,99,1,99,9,99,9,99999,9,99,9,99,9","10041,1,99999,9",,,,"0134,1","MET069METAR EKVJ 121120Z 28012G26KT 230V310 9999 FEW012 SCT018 14/10 Q1004;","P01 005403SCOCIG"
"06066099999","2010-06-12T11:50:00","4","55.990122","8.353906","5.18","STAUNING, DA","FM-15","EKVJ ","V020","270,1,N,0062,1","00540,1,C,N","011265,1,N,1","+0140,1","+0100,1","99999,9","04,5,+00360,1,99,9","07,5,+00540,1,99,9",,"07,99,1,99,9,99,9,99999,9,99,9,99,9","10041,1,99999,9",,,,"0113,1","MET061METAR EKVJ 121150Z 27012G22KT 9999 SCT012 BKN018 14/10 Q1004;",
"06066099999","2010-06-12T12:20:00","4","55.990122","8.353906","5.18","STAUNING, DA","FM-15","EKVJ ","V020","270,1,N,0062,1","00540,1,C,N","011265,1,N,1","+0150,1","+0100,1","99999,9","04,5,+00360,1,99,9","07,5,+00540,1,99,9",,"07,99,1,99,9,99,9,99999,9,99,9,99,9","10031,1,99999,9",,,,"0113,1","MET061METAR EKVJ 121220Z 27012G22KT 9999 SCT012 BKN018 15/10 Q1003;",
"06066099999","2010-06-12T12:50:00","4","55.990122","8.353906","5.18","STAUNING, DA","FM-15","EKVJ ","V020","270,1,N,0072,1","00540,1,C,N","011265,1,N,1","+0130,1","+0100,1","99999,9","04,5,+00360,1,99,9","07,5,+00540,1,99,9",,"07,99,1,99,9,99,9,99999,9,99,9,99,9","10031,1,99999,9","61,1",,,"0123,1","MET065METAR EKVJ 121250Z 27014G24KT 9999 -RA SCT012 BKN018 13/10 Q1003;",
"06066099999","2010-06-12T13:20:00","4","55.990122","8.353906","5.18","STAUNING, DA","FM-15","EKVJ ","V020","270,1,N,0093,1","00540,1,C,N","011265,1,N,1","+0120,1","+0090,1","99999,9","04,5,+00360,1,99,9","07,5,+00540,1,99,9",,"07,99,1,99,9,99,9,99999,9,99,9,99,9","10031,1,99999,9","61,1",,,,"MET062METAR EKVJ 121320Z 27018KT 9999 -RA SCT012 BKN018 12/09 Q1003;",
"06066099999","2010-06-12T13:50:00","4","55.990122","8.353906","5.18","STAUNING, DA","FM-15","EKVJ ","V020","270,1,N,0093,1","00540,1,C,N","011265,1,N,1","+0120,1","+0110,1","99999,9","04,5,+00360,1,99,9","07,5,+00540,1,99,9",,"07,99,1,99,9,99,9,99999,9,99,9,99,9","10031,1,99999,9",,,,,"MET062METAR EKVJ 121350Z 27018KT 9999 -SH SCT012 BKN018 12/11 Q1003;",
"06066099999","2010-06-12T14:20:00","4","55.990122","8.353906","5.18","STAUNING, DA","FM-15","EKVJ ","V020","270,1,N,0093,1","00540,1,C,N","011265,1,N,1","+0120,1","+0110,1","99999,9","04,5,+00360,1,99,9","07,5,+00540,1,99,9",,"07,99,1,99,9,99,9,99999,9,99,9,99,9","10031,1,99999,9",,,,,"MET061METAR EKVJ 121420Z 27018KT 9999 SH SCT012 BKN018 12/11 Q1003;",
"06066099999","2010-06-12T14:50:00","4","55.990122","8.353906","5.18","STAUNING, DA","FM-15","EKVJ ","V020","270,1,N,0093,1","00300,1,C,N","011265,1,N,1","+0120,1","+0110,1","99999,9","07,5,+00300,1,99,9",,,"07,99,1,99,9,99,9,99999,9,99,9,99,9","10031,1,99999,9","81,1",,,"0154,1","MET059METAR EKVJ 121450Z 27018G30KT 9999 SHRA BKN010 12/11 Q1003;",
"06066099999","2010-06-12T15:50:00","4","55.990122","8.353906","5.18","STAUNING, DA","FM-15","EKVJ ","V020","280,1,N,0082,1","00300,1,C,N","011265,1,N,1","+0120,1","+0110,1","99999,9","02,5,+00150,1,99,9","07,5,+00300,1,99,9",,"07,99,1,99,9,99,9,99999,9,99,9,99,9","10041,1,99999,9",,,,"0154,1","MET061METAR EKVJ 121550Z 28016G30KT 9999 FEW005 BKN010 12/11 Q1004;",
"06066099999","2010-06-14T06:20:00","4","55.990122","8.353906","5.18","STAUNING, DA","FM-15","EKVJ ","V020","300,1,N,0041,1","01200,1,C,N","011265,1,N,1","+0110,1","+0080,1","99999,9","02,5,+00450,1,99,9","07,5,+01200,1,99,9",,"07,99,1,99,9,99,9,99999,9,99,9,99,9","10159,1,99999,9",,,,,"MET058METAR EKVJ 140620Z 30008KT 9999 FEW015 BKN040 11/08 Q1016;",
"06066099999","2010-06-14T06:50:00","4","55.990122","8.353906","5.18","STAUNING, DA","FM-15","EKVJ ","V020","290,1,N,0041,1","01200,1,C,N","011265,1,N,1","+0110,1","+0080,1","99999,9","02,5,+00450,1,99,9","07,5,+01200,1,99,9",,"07,99,1,99,9,99,9,99999,9,99,9,99,9","10159,1,99999,9",,,,,"MET058METAR EKVJ 140650Z 29008KT 9999 FEW015 BKN040 11/08 Q1016;",
"06066099999","2010-06-14T07:50:00","4","55.990122","8.353906","5.18","STAUNING, DA","FM-15","EKVJ ","V020","290,1,N,0041,1","01200,1,C,N","011265,1,N,1","+0120,1","+0080,1","99999,9","02,5,+00450,1,99,9","07,5,+01200,1,99,9",,"07,99,1,99,9,99,9,99999,9,99,9,99,9","10159,1,99999,9",,,,,"MET058METAR EKVJ 140750Z 29008KT 9999 FEW015 BKN040 12/08 Q1016;",
"06066099999","2010-06-14T08:50:00","4","55.990122","8.353906","5.18","STAUNING, DA","FM-15","EKVJ ","V020","290,1,N,0051,1","03000,1,C,N","011265,1,N,1","+0130,1","+0090,1","99999,9","04,5,+00750,1,99,9","07,5,+03000,1,99,9",,"07,99,1,99,9,99,9,99999,9,99,9,99,9","10169,1,99999,9",,,,,"MET058METAR EKVJ 140850Z 29010KT 9999 SCT025 BKN100 13/09 Q1017;",
"06066099999","2010-06-14T09:50:00","4","55.990122","8.353906","5.18","STAUNING, DA","FM-15","EKVJ ","V020","290,1,N,0062,1","22000,1,9,N","011265,1,N,1","+0140,1","+0100,1","99999,9","04,5,+00750,1,99,9",,,"04,99,1,99,9,99,9,99999,9,99,9,99,9","10169,1,99999,9",,,,,"MET051METAR EKVJ 140950Z 29012KT 9999 SCT025 14/10 Q1017;",
"06066099999","2010-06-14T10:50:00","4","55.990122","8.353906","5.18","STAUNING, DA","FM-15","EKVJ ","V020","300,1,N,0062,1","22000,1,9,N","011265,1,N,1","+0140,1","+0100,1","99999,9","04,5,+00750,1,99,9",,,"04,99,1,99,9,99,9,99999,9,99,9,99,9","10169,1,99999,9",,,,,"MET051METAR EKVJ 141050Z 30012KT 9999 SCT025 14/10 Q1017;",
"06066099999","2010-06-14T11:50:00","4","55.990122","8.353906","5.18","STAUNING, DA","FM-15","EKVJ ","V020","300,1,N,0062,1","22000,1,9,N","011265,1,N,1","+0140,1","+0100,1","99999,9","02,5,+00750,1,99,9",,,"02,99,1,99,9,99,9,99999,9,99,9,99,9","10169,1,99999,9",,,,,"MET051METAR EKVJ 141150Z 30012KT 9999 FEW025 14/10 Q1017;",
"06066099999","2010-06-14T12:50:00","4","55.990122","8.353906","5.18","STAUNING, DA","FM-15","EKVJ ","V020","300,1,N,0072,1","22000,1,9,N","011265,1,N,1","+0140,1","+0090,1","99999,9","02,5,+00750,1,99,9",,,"02,99,1,99,9,99,9,99999,9,99,9,99,9","10169,1,99999,9",,,,,"MET051METAR EKVJ 141250Z 30014KT 9999 FEW025 14/09 Q1017;",
"06066099999","2010-06-14T13:50:00","4","55.990122","8.353906","5.18","STAUNING, DA","FM-15","EKVJ ","V020","300,1,N,0072,1","22000,1,9,N","011265,1,N,1","+0140,1","+0090,1","99999,9","04,5,+00750,1,99,9",,,"04,99,1,99,9,99,9,99999,9,99,9,99,9","10169,1,99999,9",,,,,"MET051METAR EKVJ 141350Z 30014KT 9999 SCT025 14/09 Q1017;",
"06066099999","2010-06-15T06:20:00","4","55.990122","8.353906","5.18","STAUNING, DA","FM-15","EKVJ ","V020","340,1,N,0041,1","22000,1,9,N","011265,1,N,1","+0110,1","+0090,1","99999,9","02,5,+00900,1,99,9",,,"02,99,1,99,9,99,9,99999,9,99,9,99,9","10180,1,99999,9",,,,,"MET051METAR EKVJ 150620Z 34008KT 9999 FEW030 11/09 Q1018;",
"06066099999","2010-06-15T06:50:00","4","55.990122","8.353906","5.18","STAUNING, DA","FM-15","EKVJ ","V020","340,1,N,0041,1","22000,1,9,N","011265,1,N,1","+0110,1","+0090,1","99999,9","02,5,+00900,1,99,9",,,"02,99,1,99,9,99,9,99999,9,99,9,99,9","10180,1,99999,9",,,,,"MET051METAR EKVJ 150650Z 34008KT 9999 FEW030 11/09 Q1018;",
"06066099999","2010-06-15T08:50:00","4","55.990122","8.353906","5.18","STAUNING, DA","FM-15","EKVJ ","V020","340,1,N,0041,1","22000,1,9,N","011265,1,N,1","+0110,1","+0090,1","99999,9","04,5,+00900,1,99,9",,,"04,99,1,99,9,99,9,99999,9,99,9,99,9","10180,1,99999,9",,,,,"MET051METAR EKVJ 150850Z 34008KT 9999 SCT030 11/09 Q1018;",
"06066099999","2010-06-15T09:50:00","4","55.990122","8.353906","5.18","STAUNING, DA","FM-15","EKVJ ","V020","340,1,N,0072,1","22000,1,9,N","011265,1,N,1","+0110,1","+0090,1","99999,9","04,5,+00900,1,99,9",,,"04,99,1,99,9,99,9,99999,9,99,9,99,9","10190,1,99999,9",,,,,"MET051METAR EKVJ 150950Z 34014KT 9999 SCT030 11/09 Q1019;",
"06066099999","2010-06-15T10:50:00","4","55.990122","8.353906","5.18","STAUNING, DA","FM-15","EKVJ ","V020","310,1,N,0072,1","22000,1,9,N","011265,1,N,1","+0150,1","+0100,1","99999,9","04,5,+00900,1,99,9",,,"04,99,1,99,9,99,9,99999,9,99,9,99,9","10210,1,99999,9",,,,,"MET051METAR EKVJ 151050Z 31014KT 9999 SCT030 15/10 Q1021;",
"06066099999","2010-06-15T11:50:00","4","55.990122","8.353906","5.18","STAUNING, DA","FM-15","EKVJ ","V020","310,1,N,0062,1","22000,1,9,N","011265,1,N,1","+0150,1","+0100,1","99999,9","04,5,+00900,1,99,9",,,"04,99,1,99,9,99,9,99999,9,99,9,99,9","10210,1,99999,9",,,,,"MET051METAR EKVJ 151150Z 31012KT 9999 SCT030 15/10 Q1021;",
"06066099999","2010-06-15T12:50:00","4","55.990122","8.353906","5.18","STAUNING, DA","FM-15","EKVJ ","V020","310,1,N,0062,1","22000,1,9,N","011265,1,N,1","+0150,1","+0100,1","99999,9","04,5,+00900,1,99,9",,,"04,99,1,99,9,99,9,99999,9,99,9,99,9","10210,1,99999,9",,,,,"MET051METAR EKVJ 151250Z 31012KT 9999 SCT030 15/10 Q1021;",
"06066099999","2010-06-15T13:50:00","4","55.990122","8.353906","5.18","STAUNING, DA","FM-15","EKVJ ","V020","310,1,N,0062,1","22000,1,9,N","011265,1,N,1","+0150,1","+0100,1","99999,9","04,5,+00900,1,99,9",,,"04,99,1,99,9,99,9,99999,9,99,9,99,9","10220,1,99999,9",,,,,"MET051METAR EKVJ 151350Z 31012KT 9999 SCT030 15/10 Q1022;",
"06066099999","2010-06-16T06:20:00","4","55.990122","8.353906","5.18","STAUNING, DA","FM-15","EKVJ ","V020","310,1,N,0051,1","22000,1,9,N","011265,1,N,1","+0120,1","+0090,1","99999,9","02,5,+00900,1,99,9",,,"02,99,1,99,9,99,9,99999,9,99,9,99,9","10271,1,99999,9",,,,,"MET051METAR EKVJ 160620Z 31010KT 9999 FEW030 12/09 Q1027;",
"06066099999","2010-06-16T06:50:00","4","55.990122","8.353906","5.18","STAUNING, DA","FM-15","EKVJ ","V020","310,1,N,0051,1","22000,1,9,N","011265,1,N,1","+0120,1","+0090,1","99999,9","02,5,+00900,1,99,9",,,"02,99,1,99,9,99,9,99999,9,99,9,99,9","10271,1,99999,9",,,,,"MET051METAR EKVJ 160650Z 31010KT 9999 FEW030 12/09 Q1027;",
"06066099999","2010-06-16T07:50:00","4","55.990122","8.353906","5.18","STAUNING, DA","FM-15","EKVJ ","V020","310,1,N,0051,1","22000,1,9,N","011265,1,N,1","+0120,1","+0090,1","99999,9","02,5,+00900,1,99,9",,,"02,99,1,99,9,99,9,99999,9,99,9,99,9","10271,1,99999,9",,,,,"MET051METAR EKVJ 160750Z 31010KT 9999 FEW030 12/09 Q1027;",
"06066099999","2010-06-16T08:50:00","4","55.990122","8.353906","5.18","STAUNING, DA","FM-15","EKVJ ","V020","310,1,N,0041,1","22000,1,9,N","011265,1,N,1","+0130,1","+0080,1","99999,9","02,5,+00900,1,99,9",,,"02,99,1,99,9,99,9,99999,9,99,9,99,9","10271,1,99999,9",,,,,"MET051METAR EKVJ 160850Z 31008KT 9999 FEW030 13/08 Q1027;",
"06066099999","2010-06-16T09:50:00","4","55.990122","8.353906","5.18","STAUNING, DA","FM-15","EKVJ ","V020","310,1,N,0051,1","22000,1,9,N","011265,1,N,1","+0140,1","+0090,1","99999,9","02,5,+00900,1,99,9",,,"02,99,1,99,9,99,9,99999,9,99,9,99,9","10271,1,99999,9",,,,,"MET051METAR EKVJ 160950Z 31010KT 9999 FEW030 14/09 Q1027;",
"06066099999","2010-06-16T10:50:00","4","55.990122","8.353906","5.18","STAUNING, DA","FM-15","EKVJ ","V020","310,1,N,0051,1","22000,1,9,N","011265,1,N,1","+0140,1","+0090,1","99999,9","04,5,+00900,1,99,9",,,"04,99,1,99,9,99,9,99999,9,99,9,99,9","10271,1,99999,9",,,,,"MET051METAR EKVJ 161050Z 31010KT 9999 SCT030 14/09 Q1027;",
"06066099999","2010-06-16T11:50:00","4","55.990122","8.353906","5.18","STAUNING, DA","FM-15","EKVJ ","V020","310,1,N,0051,1","22000,1,9,N","011265,1,N,1","+0140,1","+0080,1","99999,9","04,5,+00900,1,99,9",,,"04,99,1,99,9,99,9,99999,9,99,9,99,9","10271,1,99999,9",,,,,"MET051METAR EKVJ 161150Z 31010KT 9999 SCT030 14/08 Q1027;",
"06066099999","2010-06-16T12:50:00","4","55.990122","8.353906","5.18","STAUNING, DA","FM-15","EKVJ ","V020","310,1,N,0051,1","22000,1,9,N","011265,1,N,1","+0140,1","+0080,1","99999,9","04,5,+00900,1,99,9",,,"04,99,1,99,9,99,9,99999,9,99,9,99,9","10271,1,99999,9",,,,,"MET051METAR EKVJ 161250Z 31010KT 9999 SCT030 14/08 Q1027;",
"06066099999","2010-06-16T13:50:00","4","55.990122","8.353906","5.18","STAUNING, DA","FM-15","EKVJ ","V020","310,1,N,0051,1","22000,1,9,N","011265,1,N,1","+0140,1","+0090,1","99999,9","04,5,+00900,1,99,9",,,"04,99,1,99,9,99,9,99999,9,99,9,99,9","10261,1,99999,9",,,,,"MET051METAR EKVJ 161350Z 31010KT 9999 SCT030 14/09 Q1026;",
"06066099999","2010-06-17T06:20:00","4","55.990122","8.353906","5.18","STAUNING, DA","FM-15","EKVJ ","V020","300,1,N,0041,1","00900,1,C,N","011265,1,N,1","+0110,1","+0100,1","99999,9","02,5,+00360,1,99,9","07,5,+00900,1,99,9",,"07,99,1,99,9,99,9,99999,9,99,9,99,9","10230,1,99999,9",,,,,"MET058METAR EKVJ 170620Z 30008KT 9999 FEW012 BKN030 11/10 Q1023;",
"06066099999","2010-06-17T06:50:00","4","55.990122","8.353906","5.18","STAUNING, DA","FM-15","EKVJ ","V020","300,1,N,0041,1","00900,1,C,N","011265,1,N,1","+0110,1","+0100,1","99999,9","02,5,+00360,1,99,9","07,5,+00900,1,99,9",,"07,99,1,99,9,99,9,99999,9,99,9,99,9","10230,1,99999,9",,,,,"MET058METAR EKVJ 170650Z 30008KT 9999 FEW012 BKN030 11/10 Q1023;",
"06066099999","2010-06-17T07:50:00","4","55.990122","8.353906","5.18","STAUNING, DA","FM-15","EKVJ ","V020","300,1,N,0041,1","00900,1,C,N","011265,1,N,1","+0110,1","+0090,1","99999,9","02,5,+00360,1,99,9","07,5,+00900,1,99,9",,"07,99,1,99,9,99,9,99999,9,99,9,99,9","10230,1,99999,9",,,,,"MET058METAR EKVJ 170750Z 30008KT 9999 FEW012 BKN030 11/09 Q1023;",
"06066099999","2010-06-17T08:50:00","4","55.990122","8.353906","5.18","STAUNING, DA","FM-15","EKVJ ","V020","300,1,N,0041,1","00600,1,C,N","011265,1,N,1","+0110,1","+0090,1","99999,9","02,5,+00360,1,99,9","07,5,+00600,1,99,9",,"07,99,1,99,9,99,9,99999,9,99,9,99,9","10230,1,99999,9",,,,,"MET058METAR EKVJ 170850Z 30008KT 9999 FEW012 BKN020 11/09 Q1023;",
"06066099999","2010-06-17T09:50:00","4","55.990122","8.353906","5.18","STAUNING, DA","FM-15","EKVJ ","V020","310,1,N,0041,1","00600,1,C,N","011265,1,N,1","+0110,1","+0090,1","99999,9","02,5,+00360,1,99,9","07,5,+00600,1,99,9",,"07,99,1,99,9,99,9,99999,9,99,9,99,9","10230,1,99999,9",,,,,"MET058METAR EKVJ 170950Z 31008KT 9999 FEW012 BKN020 11/09 Q1023;",
"06066099999","2010-06-17T10:50:00","4","55.990122","8.353906","5.18","STAUNING, DA","FM-15","EKVJ ","V020","310,1,N,0041,1","00600,1,C,N","011265,1,N,1","+0110,1","+0090,1","99999,9","02,5,+00360,1,99,9","07,5,+00600,1,99,9",,"07,99,1,99,9,99,9,99999,9,99,9,99,9","10230,1,99999,9",,,,,"MET058METAR EKVJ 171050Z 31008KT 9999 FEW012 BKN020 11/09 Q1023;",
"06066099999","2010-06-17T11:50:00","4","55.990122","8.353906","5.18","STAUNING, DA","FM-15","EKVJ ","V020","310,1,N,0041,1","00600,1,C,N","011265,1,N,1","+0110,1","+0090,1","99999,9","02,5,+00360,1,99,9","07,5,+00600,1,99,9",,"07,99,1,99,9,99,9,99999,9,99,9,99,9","10230,1,99999,9",,,,,"MET058METAR EKVJ 171150Z 31008KT 9999 FEW012 BKN020 11/09 Q1023;",
"06066099999","2010-06-17T12:50:00","4","55.990122","8.353906","5.18","STAUNING, DA","FM-15","EKVJ ","V020","280,1,N,0041,1","00600,1,C,N","011265,1,N,1","+0110,1","+0090,1","99999,9","02,5,+00360,1,99,9","07,5,+00600,1,99,9",,"07,99,1,99,9,99,9,99999,9,99,9,99,9","10230,1,99999,9",,,,,"MET058METAR EKVJ 171250Z 28008KT 9999 FEW012 BKN020 11/09 Q1023;",
"06066099999","2010-06-17T13:50:00","4","55.990122","8.353906","5.18","STAUNING, DA","FM-15","EKVJ ","V020","280,1,N,0041,1","00600,1,C,N","011265,1,N,1","+0140,1","+0100,1","99999,9","02,5,+00360,1,99,9","07,5,+00600,1,99,9",,"07,99,1,99,9,99,9,99999,9,99,9,99,9","10220,1,99999,9",,,,,"MET058METAR EKVJ 171350Z 28008KT 9999 FEW012 BKN020 14/10 Q1022;",
"06066099999","2010-06-18T06:20:00","4","55.990122","8.353906","5.18","STAUNING, DA","FM-15","EKVJ ","V020","320,1,N,0082,1","00600,1,C,N","011265,1,N,1","+0120,1","+0100,1","99999,9","04,5,+00360,1,99,9","07,5,+00600,1,99,9",,"07,99,1,99,9,99,9,99999,9,99,9,99,9","10129,1,99999,9",,,,,"MET058METAR EKVJ 180620Z 32016KT 9999 SCT012 BKN020 12/10 Q1013;",
"06066099999","2010-06-18T06:50:00","4","55.990122","8.353906","5.18","STAUNING, DA","FM-15","EKVJ ","V020","310,1,N,0082,1","00600,1,C,N","011265,1,N,1","+0120,1","+0100,1","99999,9","02,5,+00360,1,99,9","07,5,+00600,1,99,9",,"07,99,1,99,9,99,9,99999,9,99,9,99,9","10129,1,99999,9",,,,,"MET058METAR EKVJ 180650Z 31016KT 9999 FEW012 BKN020 12/10 Q1013;",
"06066099999","2010-06-18T07:50:00","4","55.990122","8.353906","5.18","STAUNING, DA","FM-15","EKVJ ","V020","310,1,N,0082,1","00600,1,C,N","011265,1,N,1","+0130,1","+0090,1","99999,9","07,5,+00600,1,99,9",,,"07,99,1,99,9,99,9,99999,9,99,9,99,9","10129,1,99999,9",,,,,"MET051METAR EKVJ 180750Z 31016KT 9999 BKN020 13/09 Q1013;",
"06066099999","2010-06-18T08:50:00","4","55.990122","8.353906","5.18","STAUNING, DA","FM-15","EKVJ ","V020","310,1,N,0082,1","00750,1,C,N","011265,1,N,1","+0130,1","+0080,1","99999,9","07,5,+00750,1,99,9",,,"07,99,1,99,9,99,9,99999,9,99,9,99,9","10119,1,99999,9",,,,"0123,1","MET054METAR EKVJ 180850Z 31016G24KT 9999 BKN025 13/08 Q1012;",
"06066099999","2010-06-18T09:50:00","4","55.990122","8.353906","5.18","STAUNING, DA","FM-15","EKVJ ","V020","330,1,N,0072,1","00750,1,C,N","011265,1,N,1","+0130,1","+0080,1","99999,9","07,5,+00750,1,99,9",,,"07,99,1,99,9,99,9,99999,9,99,9,99,9","10119,1,99999,9",,,,"0144,1","MET062METAR EKVJ 180950Z 33014G28KT 300V360 9999 BKN025 13/08 Q1012;",
"06066099999","2010-06-18T10:50:00","4","55.990122","8.353906","5.18","STAUNING, DA","FM-15","EKVJ ","V020","330,1,N,0082,1","00750,1,C,N","011265,1,N,1","+0130,1","+0080,1","99999,9","07,5,+00750,1,99,9",,,"07,99,1,99,9,99,9,99999,9,99,9,99,9","10119,1,99999,9",,,,"0144,1","MET062METAR EKVJ 181050Z 33016G28KT 300V360 9999 BKN025 13/08 Q1012;",
"06066099999","2010-06-18T11:50:00","4","55.990122","8.353906","5.18","STAUNING, DA","FM-15","EKVJ ","V020","330,1,N,0082,1","22000,1,9,N","011265,1,N,1","+0140,1","+0090,1","99999,9","04,5,+00750,1,99,9",,,"04,99,1,99,9,99,9,99999,9,99,9,99,9","10102,1,99999,9",,,,"0144,1","MET062METAR EKVJ 181150Z 33016G28KT 300V360 9999 SCT025 14/09 Q1010;",
"06066099999","2010-06-18T12:50:00","4","55.990122","8.353906","5.18","STAUNING, DA","FM-15","EKVJ ","V020","330,1,N,0082,1","22000,1,9,N","011265,1,N,1","+0130,1","+0080,1","99999,9","04,5,+00750,1,99,9",,,"04,99,1,99,9,99,9,99999,9,99,9,99,9","10102,1,99999,9",,,,"0144,1","MET062METAR EKVJ 181250Z 33016G28KT 300V360 9999 SCT025 13/08 Q1010;",
"06066099999","2010-06-18T13:50:00","4","55.990122","8.353906","5.18","STAUNING, DA","FM-15","EKVJ ","V020","330,1,N,0082,1","22000,1,9,N","011265,1,N,1","+0130,1","+0080,1","99999,9","04,5,+00750,1,99,9",,,"04,99,1,99,9,99,9,99999,9,99,9,99,9","10091,1,99999,9",,,,"0144,1","MET062METAR EKVJ 181350Z 33016G28KT 300V360 9999 SCT025 13/08 Q1009;",
"06066099999","2010-06-21T06:20:00","4","55.990122","8.353906","5.18","STAUNING, DA","FM-15","EKVJ ","V020","999,9,V,0015,1","99999,9,9,Y","009900,1,N,1","+0120,1","+0100,1","99999,9",,,,,"10180,1,99999,9",,,,,"MET045METAR EKVJ 210620Z VRB03KT CAVOK 12/10 Q1018;",
"06066099999","2010-06-21T06:50:00","4","55.990122","8.353906","5.18","STAUNING, DA","FM-15","EKVJ ","V020","999,9,V,0015,1","99999,9,9,Y","009900,1,N,1","+0120,1","+0100,1","99999,9",,,,,"10180,1,99999,9",,,,,"MET045METAR EKVJ 210650Z VRB03KT CAVOK 12/10 Q1018;",
"06066099999","2010-06-21T07:50:00","4","55.990122","8.353906","5.18","STAUNING, DA","FM-15","EKVJ ","V020","999,9,V,0015,1","99999,9,9,Y","009900,1,N,1","+0140,1","+0100,1","99999,9",,,,,"10180,1,99999,9",,,,,"MET045METAR EKVJ 210750Z VRB03KT CAVOK 14/10 Q1018;",
"06066099999","2010-06-21T08:50:00","4","55.990122","8.353906","5.18","STAUNING, DA","FM-15","EKVJ ","V020","999,9,V,0015,1","99999,9,9,Y","009900,1,N,1","+0140,1","+0100,1","99999,9",,,,,"10190,1,99999,9",,,,,"MET045METAR EKVJ 210850Z VRB03KT CAVOK 14/10 Q1019;",
"06066099999","2010-06-21T09:50:00","4","55.990122","8.353906","5.18","STAUNING, DA","FM-15","EKVJ ","V020","999,9,V,0015,1","22000,1,9,N","011265,1,N,1","+0160,1","+0100,1","99999,9","02,5,+01200,1,99,9",,,"02,99,1,99,9,99,9,99999,9,99,9,99,9","10190,1,99999,9",,,,,"MET051METAR EKVJ 210950Z VRB03KT 9999 FEW040 16/10 Q1019;",
"06066099999","2010-06-21T10:50:00","4","55.990122","8.353906","5.18","STAUNING, DA","FM-15","EKVJ ","V020","300,1,N,0031,1","22000,1,9,N","011265,1,N,1","+0160,1","+0100,1","99999,9","02,5,+01200,1,99,9",,,"02,99,1,99,9,99,9,99999,9,99,9,99,9","10190,1,99999,9",,,,,"MET051METAR EKVJ 211050Z 30006KT 9999 FEW040 16/10 Q1019;",
"06066099999","2010-06-21T12:20:00","4","55.990122","8.353906","5.18","STAUNING, DA","FM-15","EKVJ ","V020","300,1,N,0041,1","22000,1,9,N","011265,1,N,1","+0160,1","+0100,1","99999,9","02,5,+01200,1,99,9",,,"02,99,1,99,9,99,9,99999,9,99,9,99,9","10200,1,99999,9",,,,,"MET051METAR EKVJ 211220Z 30008KT 9999 FEW040 16/10 Q1020;",
"06066099999","2010-06-21T12:50:00","4","55.990122","8.353906","5.18","STAUNING, DA","FM-15","EKVJ ","V020","300,1,N,0041,1","22000,1,9,N","011265,1,N,1","+0170,1","+0100,1","99999,9","02,5,+01200,1,99,9",,,"02,99,1,99,9,99,9,99999,9,99,9,99,9","10200,1,99999,9",,,,,"MET051METAR EKVJ 211250Z 30008KT 9999 FEW040 17/10 Q1020;",
"06066099999","2010-06-22T06:20:00","4","55.990122","8.353906","5.18","STAUNING, DA","FM-15","EKVJ ","V020","310,1,N,0031,1","00450,1,C,N","011265,1,N,1","+0120,1","+0100,1","99999,9","07,5,+00450,1,99,9",,,"07,99,1,99,9,99,9,99999,9,99,9,99,9","10240,1,99999,9",,,,,"MET051METAR EKVJ 220620Z 31006KT 9999 BKN015 12/10 Q1024;",
"06066099999","2010-06-22T06:50:00","4","55.990122","8.353906","5.18","STAUNING, DA","FM-15","EKVJ ","V020","310,1,N,0031,1","00450,1,C,N","011265,1,N,1","+0120,1","+0100,1","99999,9","07,5,+00450,1,99,9",,,"07,99,1,99,9,99,9,99999,9,99,9,99,9","10240,1,99999,9",,,,,"MET051METAR EKVJ 220650Z 31006KT 9999 BKN015 12/10 Q1024;",
"06066099999","2010-06-22T07:50:00","4","55.990122","8.353906","5.18","STAUNING, DA","FM-15","EKVJ ","V020","320,1,N,0031,1","00450,1,C,N","011265,1,N,1","+0130,1","+0110,1","99999,9","07,5,+00450,1,99,9",,,"07,99,1,99,9,99,9,99999,9,99,9,99,9","10240,1,99999,9",,,,,"MET051METAR EKVJ 220750Z 32006KT 9999 BKN015 13/11 Q1024;",
"06066099999","2010-06-22T08:50:00","4","55.990122","8.353906","5.18","STAUNING, DA","FM-15","EKVJ ","V020","310,1,N,0031,1","00450,1,C,N","011265,1,N,1","+0130,1","+0110,1","99999,9","07,5,+00450,1,99,9",,,"07,99,1,99,9,99,9,99999,9,99,9,99,9","10240,1,99999,9",,,,,"MET051METAR EKVJ 220850Z 31006KT 9999 BKN015 13/11 Q1024;",
"06066099999","2010-06-22T09:50:00","4","55.990122","8.353906","5.18","STAUNING, DA","FM-15","EKVJ ","V020","270,1,N,0041,1","00450,1,C,N","011265,1,N,1","+0130,1","+0110,1","99999,9","07,5,+00450,1,99,9",,,"07,99,1,99,9,99,9,99999,9,99,9,99,9","10240,1,99999,9",,,,,"MET059METAR EKVJ 220950Z 27008KT 240V300 9999 BKN015 13/11 Q1024;",
"06066099999","2010-06-22T10:50:00","4","55.990122","8.353906","5.18","STAUNING, DA","FM-15","EKVJ ","V020","270,1,N,0041,1","00600,1,C,N","011265,1,N,1","+0130,1","+0110,1","99999,9","02,5,+00450,1,99,9","07,5,+00600,1,99,9",,"07,99,1,99,9,99,9,99999,9,99,9,99,9","10240,1,99999,9",,,,,"MET066METAR EKVJ 221050Z 27008KT 240V300 9999 FEW015 BKN020 13/11 Q1024;",
"06066099999","2010-06-22T11:50:00","4","55.990122","8.353906","5.18","STAUNING, DA","FM-15","EKVJ ","V020","270,1,N,0051,1","00600,1,C,N","011265,1,N,1","+0150,1","+0130,1","99999,9","07,5,+00600,1,99,9","07,5,+01800,1,99,9",,"07,99,1,99,9,99,9,99999,9,99,9,99,9","10240,1,99999,9",,,,,"MET066METAR EKVJ 221150Z 27010KT 240V300 9999 BKN020 BKN060 15/13 Q1024;",
"06066099999","2010-06-22T12:50:00","4","55.990122","8.353906","5.18","STAUNING, DA","FM-15","EKVJ ","V020","270,1,N,0062,1","00600,1,C,N","011265,1,N,1","+0150,1","+0120,1","99999,9","07,5,+00600,1,99,9",,,"07,99,1,99,9,99,9,99999,9,99,9,99,9","10240,1,99999,9",,,,,"MET059METAR EKVJ 221250Z 27012KT 240V300 9999 BKN020 15/12 Q1024;",
"06066099999","2010-06-22T13:50:00","4","55.990122","8.353906","5.18","STAUNING, DA","FM-15","EKVJ ","V020","270,1,N,0062,1","00600,1,C,N","011265,1,N,1","+0150,1","+0120,1","99999,9","07,5,+00600,1,99,9",,,"07,99,1,99,9,99,9,99999,9,99,9,99,9","10240,1,99999,9",,,,,"MET059METAR EKVJ 221350Z 27012KT 240V300 9999 BKN020 15/12 Q1024;",
"06066099999","2010-06-23T06:20:00","4","55.990122","8.353906","5.18","STAUNING, DA","FM-15","EKVJ ","V020","280,1,N,0031,1","00450,1,C,N","011265,1,N,1","+0130,1","+0120,1","99999,9","07,5,+00450,1,99,9",,,"07,99,1,99,9,99,9,99999,9,99,9,99,9","10220,1,99999,9",,,,,"MET051METAR EKVJ 230620Z 28006KT 9999 BKN015 13/12 Q1022;",
"06066099999","2010-06-23T07:50:00","4","55.990122","8.353906","5.18","STAUNING, DA","FM-15","EKVJ ","V020","280,1,N,0031,1","00450,1,C,N","011265,1,N,1","+0130,1","+0120,1","99999,9","07,5,+00450,1,99,9",,,"07,99,1,99,9,99,9,99999,9,99,9,99,9","10220,1,99999,9",,,,,"MET051METAR EKVJ 230750Z 28006KT 9999 BKN015 13/12 Q1022;",
"06066099999","2010-06-23T08:50:00","4","55.990122","8.353906","5.18","STAUNING, DA","FM-15","EKVJ ","V020","280,1,N,0031,1","00270,1,C,N","011265,1,N,1","+0130,1","+0120,1","99999,9","07,5,+00270,1,99,9",,,"07,99,1,99,9,99,9,99999,9,99,9,99,9","10220,1,99999,9",,,,,"MET051METAR EKVJ 230850Z 28006KT 9999 BKN009 13/12 Q1022;",
"06066099999","2010-06-23T09:50:00","4","55.990122","8.353906","5.18","STAUNING, DA","FM-15","EKVJ ","V020","280,1,N,0041,1","00270,1,C,N","011265,1,N,1","+0130,1","+0120,1","99999,9","07,5,+00270,1,99,9",,,"07,99,1,99,9,99,9,99999,9,99,9,99,9","10220,1,99999,9",,,,,"MET051METAR EKVJ 230950Z 28008KT 9999 BKN009 13/12 Q1022;",
"06066099999","2010-06-23T10:50:00","4","55.990122","8.353906","5.18","STAUNING, DA","FM-15","EKVJ ","V020","280,1,N,0041,1","00270,1,C,N","011265,1,N,1","+0130,1","+0120,1","99999,9","07,5,+00270,1,99,9",,,"07,99,1,99,9,99,9,99999,9,99,9,99,9","10220,1,99999,9",,,,,"MET051METAR EKVJ 231050Z 28008KT 9999 BKN009 13/12 Q1022;",
"06066099999","2010-06-23T12:50:00","4","55.990122","8.353906","5.18","STAUNING, DA","FM-15","EKVJ ","V020","240,1,N,0041,1","00360,1,C,N","011265,1,N,1","+0140,1","+0130,1","99999,9","07,5,+00360,1,99,9",,,"07,99,1,99,9,99,9,99999,9,99,9,99,9","10220,1,99999,9",,,,,"MET051METAR EKVJ 231250Z 24008KT 9999 BKN012 14/13 Q1022;",
"06066099999","2010-06-23T13:50:00","4","55.990122","8.353906","5.18","STAUNING, DA","FM-15","EKVJ ","V020","240,1,N,0041,1","00240,1,C,N","011265,1,N,1","+0140,1","+0130,1","99999,9","07,5,+00240,1,99,9",,,"07,99,1,99,9,99,9,99999,9,99,9,99,9","10220,1,99999,9",,,,,"MET051METAR EKVJ 231350Z 24008KT 9999 BKN008 14/13 Q1022;",
"06066099999","2010-06-24T06:20:00","4","55.990122","8.353906","5.18","STAUNING, DA","FM-15","EKVJ ","V020","220,1,N,0021,1","00090,1,C,N","002000,1,N,1","+0150,1","+0150,1","99999,9","07,5,+00090,1,99,9","07,5,+00120,1,99,9",,"07,99,1,99,9,99,9,99999,9,99,9,99,9","10180,1,99999,9","10,1",,,,"MET061METAR EKVJ 240620Z 22004KT 2000 BR BKN003 BKN004 15/15 Q1018;",
"06066099999","2010-06-24T06:50:00","4","55.990122","8.353906","5.18","STAUNING, DA","FM-15","EKVJ ","V020","220,1,N,0021,1","00090,1,C,N","003400,1,N,1","+0150,1","+0150,1","99999,9","07,5,+00090,1,99,9","07,5,+00120,1,99,9",,"07,99,1,99,9,99,9,99999,9,99,9,99,9","10180,1,99999,9","10,1",,,,"MET061METAR EKVJ 240650Z 22004KT 3400 BR BKN003 BKN004 15/15 Q1018;",
"06066099999","2010-06-24T07:20:00","4","55.990122","8.353906","5.18","STAUNING, DA","FM-15","EKVJ ","V020","220,1,N,0021,1","00120,1,C,N","004000,1,N,1","+0150,1","+0150,1","99999,9","07,5,+00120,1,99,9","07,5,+00180,1,99,9",,"07,99,1,99,9,99,9,99999,9,99,9,99,9","10180,1,99999,9","10,1",,,,"MET061METAR EKVJ 240720Z 22004KT 4000 BR BKN004 BKN006 15/15 Q1018;",
"06066099999","2010-06-24T07:50:00","4","55.990122","8.353906","5.18","STAUNING, DA","FM-15","EKVJ ","V020","250,1,N,0031,1","00120,1,C,N","004000,1,N,1","+0150,1","+0140,1","99999,9","07,5,+00120,1,99,9","07,5,+00180,1,99,9",,"07,99,1,99,9,99,9,99999,9,99,9,99,9","10180,1,99999,9","10,1",,,,"MET061METAR EKVJ 240750Z 25006KT 4000 BR BKN004 BKN006 15/14 Q1018;",
"06066099999","2010-06-24T08:20:00","4","55.990122","8.353906","5.18","STAUNING, DA","FM-15","EKVJ ","V020","250,1,N,0031,1","00120,1,C,N","005000,1,N,1","+0150,1","+0140,1","99999,9","07,5,+00120,1,99,9","07,5,+00180,1,99,9",,"07,99,1,99,9,99,9,99999,9,99,9,99,9","10180,1,99999,9","10,1",,,,"MET061METAR EKVJ 240820Z 25006KT 5000 BR BKN004 BKN006 15/14 Q1018;",
"06066099999","2010-06-24T08:50:00","4","55.990122","8.353906","5.18","STAUNING, DA","FM-15","EKVJ ","V020","250,1,N,0031,1","00120,1,C,N","005000,1,N,1","+0150,1","+0140,1","99999,9","07,5,+00120,1,99,9","07,5,+00180,1,99,9",,"07,99,1,99,9,99,9,99999,9,99,9,99,9","10180,1,99999,9","10,1",,,,"MET061METAR EKVJ 240850Z 25006KT 5000 BR BKN004 BKN006 15/14 Q1018;",
"06066099999","2010-06-24T09:50:00","4","55.990122","8.353906","5.18","STAUNING, DA","FM-15","EKVJ ","V020","250,1,N,0031,1","22000,1,9,N","011265,1,N,1","+0160,1","+0150,1","99999,9","02,5,+00240,1,99,9",,,"02,99,1,99,9,99,9,99999,9,99,9,99,9","10180,1,99999,9",,,,,"MET051METAR EKVJ 240950Z 25006KT 9999 FEW008 16/15 Q1018;",
"06066099999","2010-06-24T10:50:00","4","55.990122","8.353906","5.18","STAUNING, DA","FM-15","EKVJ ","V020","250,1,N,0031,1","99999,9,9,Y","009900,1,N,1","+0180,1","+0160,1","99999,9",,,,,"10169,1,99999,9",,,,,"MET045METAR EKVJ 241050Z 25006KT CAVOK 18/16 Q1017;",
"06066099999","2010-06-24T11:50:00","4","55.990122","8.353906","5.18","STAUNING, DA","FM-15","EKVJ ","V020","250,1,N,0031,1","99999,9,9,Y","009900,1,N,1","+0180,1","+0160,1","99999,9",,,,,"10169,1,99999,9",,,,,"MET045METAR EKVJ 241150Z 25006KT CAVOK 18/16 Q1017;",
"06066099999","2010-06-24T12:50:00","4","55.990122","8.353906","5.18","STAUNING, DA","FM-15","EKVJ ","V020","250,1,N,0031,1","99999,9,9,Y","009900,1,N,1","+0200,1","+0170,1","99999,9",,,,,"10169,1,99999,9",,,,,"MET045METAR EKVJ 241250Z 25006KT CAVOK 20/17 Q1017;",
"06066099999","2010-06-25T03:20:00","4","55.990122","8.353906","5.18","STAUNING, DA","FM-15","EKVJ ","V020","320,1,N,0031,1","00270,1,C,N","011265,1,N,1","+0130,1","+0120,1","99999,9","07,5,+00270,1,99,9",,,"07,99,1,99,9,99,9,99999,9,99,9,99,9","10159,1,99999,9",,,,,"MET051METAR EKVJ 250320Z 32006KT 9999 BKN009 13/12 Q1016;",
"06066099999","2010-06-25T03:50:00","4","55.990122","8.353906","5.18","STAUNING, DA","FM-15","EKVJ ","V020","320,1,N,0031,1","00240,1,C,N","011265,1,N,1","+0130,1","+0120,1","99999,9","07,5,+00240,1,99,9",,,"07,99,1,99,9,99,9,99999,9,99,9,99,9","10159,1,99999,9",,,,,"MET051METAR EKVJ 250350Z 32006KT 9999 BKN008 13/12 Q1016;",
"06066099999","2010-06-25T04:50:00","4","55.990122","8.353906","5.18","STAUNING, DA","FM-15","EKVJ ","V020","320,1,N,0031,1","00360,1,C,N","011265,1,N,1","+0130,1","+0120,1","99999,9","07,5,+00360,1,99,9",,,"07,99,1,99,9,99,9,99999,9,99,9,99,9","10159,1,99999,9",,,,,"MET051METAR EKVJ 250450Z 32006KT 9999 BKN012 13/12 Q1016;",
"06066099999","2010-06-25T05:50:00","4","55.990122","8.353906","5.18","STAUNING, DA","FM-15","EKVJ ","V020","320,1,N,0031,1","00360,1,C,N","011265,1,N,1","+0130,1","+0120,1","99999,9","07,5,+00360,1,99,9",,,"07,99,1,99,9,99,9,99999,9,99,9,99,9","10159,1,99999,9",,,,,"MET051METAR EKVJ 250550Z 32006KT 9999 BKN012 13/12 Q1016;",
"06066099999","2010-06-25T06:50:00","4","55.990122","8.353906","5.18","STAUNING, DA","FM-15","EKVJ ","V020","320,1,N,0031,1","00360,1,C,N","011265,1,N,1","+0130,1","+0120,1","99999,9","07,5,+00360,1,99,9",,,"07,99,1,99,9,99,9,99999,9,99,9,99,9","10159,1,99999,9",,,,,"MET051METAR EKVJ 250650Z 32006KT 9999 BKN012 13/12 Q1016;",
"06066099999","2010-06-25T07:50:00","4","55.990122","8.353906","5.18","STAUNING, DA","FM-15","EKVJ ","V020","320,1,N,0031,1","00360,1,C,N","011265,1,N,1","+0130,1","+0120,1","99999,9","07,5,+00360,1,99,9",,,"07,99,1,99,9,99,9,99999,9,99,9,99,9","10169,1,99999,9",,,,,"MET051METAR EKVJ 250750Z 32006KT 9999 BKN012 13/12 Q1017;",
"06066099999","2010-06-25T08:50:00","4","55.990122","8.353906","5.18","STAUNING, DA","FM-15","EKVJ ","V020","310,1,N,0041,1","00450,1,C,N","011265,1,N,1","+0150,1","+0130,1","99999,9","07,5,+00450,1,99,9",,,"07,99,1,99,9,99,9,99999,9,99,9,99,9","10169,1,99999,9",,,,,"MET051METAR EKVJ 250850Z 31008KT 9999 BKN015 15/13 Q1017;",
"06066099999","2010-06-25T09:50:00","4","55.990122","8.353906","5.18","STAUNING, DA","FM-15","EKVJ ","V020","300,1,N,0041,1","00450,1,C,N","011265,1,N,1","+0150,1","+0130,1","99999,9","07,5,+00450,1,99,9",,,"07,99,1,99,9,99,9,99999,9,99,9,99,9","10169,1,99999,9",,,,,"MET051METAR EKVJ 250950Z 30008KT 9999 BKN015 15/13 Q1017;",
"06066099999","2010-06-25T10:50:00","4","55.990122","8.353906","5.18","STAUNING, DA","FM-15","EKVJ ","V020","300,1,N,0041,1","00450,1,C,N","011265,1,N,1","+0150,1","+0130,1","99999,9","07,5,+00450,1,99,9",,,"07,99,1,99,9,99,9,99999,9,99,9,99,9","10169,1,99999,9",,,,,"MET051METAR EKVJ 251050Z 30008KT 9999 BKN015 15/13 Q1017;",
"06066099999","2010-06-25T11:50:00","4","55.990122","8.353906","5.18","STAUNING, DA","FM-15","EKVJ ","V020","300,1,N,0041,1","00360,1,C,N","011265,1,N,1","+0150,1","+0130,1","99999,9","07,5,+00360,1,99,9",,,"07,99,1,99,9,99,9,99999,9,99,9,99,9","10169,1,99999,9",,,,,"MET051METAR EKVJ 251150Z 30008KT 9999 BKN012 15/13 Q1017;",
"06066099999","2010-06-25T12:50:00","4","55.990122","8.353906","5.18","STAUNING, DA","FM-15","EKVJ ","V020","300,1,N,0041,1","00360,1,C,N","011265,1,N,1","+0160,1","+0130,1","99999,9","07,5,+00360,1,99,9",,,"07,99,1,99,9,99,9,99999,9,99,9,99,9","10169,1,99999,9",,,,,"MET051METAR EKVJ 251250Z 30008KT 9999 BKN012 16/13 Q1017;",
"06066099999","2010-06-25T13:50:00","4","55.990122","8.353906","5.18","STAUNING, DA","FM-15","EKVJ ","V020","300,1,N,0051,1","00240,1,C,N","011265,1,N,1","+0160,1","+0130,1","99999,9","07,5,+00240,1,99,9",,,"07,99,1,99,9,99,9,99999,9,99,9,99,9","10169,1,99999,9",,,,,"MET051METAR EKVJ 251350Z 30010KT 9999 BKN008 16/13 Q1017;",
"06066099999","2010-06-26T08:20:00","4","55.990122","8.353906","5.18","STAUNING, DA","FM-15","EKVJ ","V020","290,1,N,0051,1","00600,1,C,N","011265,1,N,1","+0150,1","+0110,1","99999,9","04,5,+00450,1,99,9","07,5,+00600,1,99,9",,"07,99,1,99,9,99,9,99999,9,99,9,99,9","10190,1,99999,9",,,,,"MET058METAR EKVJ 260820Z 29010KT 9999 SCT015 BKN020 15/11 Q1019;",
"06066099999","2010-06-26T08:50:00","4","55.990122","8.353906","5.18","STAUNING, DA","FM-15","EKVJ ","V020","290,1,N,0051,1","00450,1,C,N","011265,1,N,1","+0150,1","+0110,1","99999,9","07,5,+00450,1,99,9",,,"07,99,1,99,9,99,9,99999,9,99,9,99,9","10190,1,99999,9",,,,,"MET051METAR EKVJ 260850Z 29010KT 9999 BKN015 15/11 Q1019;",
"06066099999","2010-06-26T09:50:00","4","55.990122","8.353906","5.18","STAUNING, DA","FM-15","EKVJ ","V020","310,1,N,0062,1","00450,1,C,N","011265,1,N,1","+0150,1","+0110,1","99999,9","07,5,+00450,1,99,9",,,"07,99,1,99,9,99,9,99999,9,99,9,99,9","10200,1,99999,9",,,,,"MET051METAR EKVJ 260950Z 31012KT 9999 BKN015 15/11 Q1020;",
"06066099999","2010-06-26T10:50:00","4","55.990122","8.353906","5.18","STAUNING, DA","FM-15","EKVJ ","V020","310,1,N,0062,1","00600,1,C,N","011265,1,N,1","+0150,1","+0110,1","99999,9","07,5,+00600,1,99,9",,,"07,99,1,99,9,99,9,99999,9,99,9,99,9","10200,1,99999,9",,,,,"MET051METAR EKVJ 261050Z 31012KT 9999 BKN020 15/11 Q1020;",
"06066099999","2010-06-26T11:50:00","4","55.990122","8.353906","5.18","STAUNING, DA","FM-15","EKVJ ","V020","310,1,N,0062,1","00750,1,C,N","011265,1,N,1","+0150,1","+0110,1","99999,9","07,5,+00750,1,99,9",,,"07,99,1,99,9,99,9,99999,9,99,9,99,9","10200,1,99999,9",,,,,"MET051METAR EKVJ 261150Z 31012KT 9999 BKN025 15/11 Q1020;",
"06066099999","2010-06-26T12:50:00","4","55.990122","8.353906","5.18","STAUNING, DA","FM-15","EKVJ ","V020","310,1,N,0062,1","00750,1,C,N","011265,1,N,1","+0150,1","+0110,1","99999,9","07,5,+00750,1,99,9",,,"07,99,1,99,9,99,9,99999,9,99,9,99,9","10200,1,99999,9",,,,,"MET051METAR EKVJ 261250Z 31012KT 9999 BKN025 15/11 Q1020;",
"06066099999","2010-06-28T06:20:00","4","55.990122","8.353906","5.18","STAUNING, DA","FM-15","EKVJ ","V020","110,1,N,0021,1","99999,9,9,Y","009900,1,N,1","+0160,1","+0140,1","99999,9",,,,,"10210,1,99999,9",,,,,"MET045METAR EKVJ 280620Z 11004KT CAVOK 16/14 Q1021;",
"06066099999","2010-06-28T06:50:00","4","55.990122","8.353906","5.18","STAUNING, DA","FM-15","EKVJ ","V020","120,1,N,0021,1","99999,9,9,Y","009900,1,N,1","+0160,1","+0140,1","99999,9",,,,,"10210,1,99999,9",,,,,"MET045METAR EKVJ 280650Z 12004KT CAVOK 16/14 Q1021;",
"06066099999","2010-06-28T07:50:00","4","55.990122","8.353906","5.18","STAUNING, DA","FM-15","EKVJ ","V020","120,1,N,0031,1","99999,9,9,Y","009900,1,N,1","+0210,1","+0160,1","99999,9",,,,,"10210,1,99999,9",,,,,"MET045METAR EKVJ 280750Z 12006KT CAVOK 21/16 Q1021;",
"06066099999","2010-06-28T08:50:00","4","55.990122","8.353906","5.18","STAUNING, DA","FM-15","EKVJ ","V020","120,1,N,0031,1","99999,9,9,Y","009900,1,N,1","+0220,1","+0160,1","99999,9",,,,,"10210,1,99999,9",,,,,"MET045METAR EKVJ 280850Z 12006KT CAVOK 22/16 Q1021;",
"06066099999","2010-06-28T09:50:00","4","55.990122","8.353906","5.18","STAUNING, DA","FM-15","EKVJ ","V020","200,1,N,0031,1","22000,1,9,N","011265,1,N,1","+0240,1","+0160,1","99999,9","02,5,+00900,1,99,9",,,"02,99,1,99,9,99,9,99999,9,99,9,99,9","10200,1,99999,9",,,,,"MET051METAR EKVJ 280950Z 20006KT 9999 FEW030 24/16 Q1020;",
"06066099999","2010-06-28T10:50:00","4","55.990122","8.353906","5.18","STAUNING, DA","FM-15","EKVJ ","V020","240,1,N,0041,1","22000,1,9,N","011265,1,N,1","+0240,1","+0160,1","99999,9","02,5,+00900,1,99,9",,,"02,99,1,99,9,99,9,99999,9,99,9,99,9","10200,1,99999,9",,,,,"MET059METAR EKVJ 281050Z 24008KT 200V270 9999 FEW030 24/16 Q1020;",
"06066099999","2010-06-28T11:50:00","4","55.990122","8.353906","5.18","STAUNING, DA","FM-15","EKVJ ","V020","240,1,N,0041,1","22000,1,9,N","011265,1,N,1","+0230,1","+0170,1","99999,9","02,5,+00900,1,99,9",,,"02,99,1,99,9,99,9,99999,9,99,9,99,9","10200,1,99999,9",,,,,"MET059METAR EKVJ 281150Z 24008KT 200V270 9999 FEW030 23/17 Q1020;",
"06066099999","2010-06-28T12:50:00","4","55.990122","8.353906","5.18","STAUNING, DA","FM-15","EKVJ ","V020","240,1,N,0041,1","22000,1,9,N","011265,1,N,1","+0230,1","+0170,1","99999,9","02,5,+01200,1,99,9",,,"02,99,1,99,9,99,9,99999,9,99,9,99,9","10200,1,99999,9",,,,,"MET059METAR EKVJ 281250Z 24008KT 200V270 9999 FEW040 23/17 Q1020;",
"06066099999","2010-06-28T13:50:00","4","55.990122","8.353906","5.18","STAUNING, DA","FM-15","EKVJ ","V020","240,1,N,0041,1","22000,1,9,N","011265,1,N,1","+0230,1","+0170,1","99999,9","02,5,+01200,1,99,9",,,"02,99,1,99,9,99,9,99999,9,99,9,99,9","10190,1,99999,9",,,,,"MET059METAR EKVJ 281350Z 24008KT 200V270 9999 FEW040 23/17 Q1019;",
"06066099999","2010-06-29T06:20:00","4","55.990122","8.353906","5.18","STAUNING, DA","FM-15","EKVJ ","V020","150,1,N,0015,1","99999,9,9,Y","009900,1,N,1","+0180,1","+0160,1","99999,9",,,,,"10180,1,99999,9",,,,,"MET045METAR EKVJ 290620Z 15003KT CAVOK 18/16 Q1018;",
"06066099999","2010-06-29T06:50:00","4","55.990122","8.353906","5.18","STAUNING, DA","FM-15","EKVJ ","V020","180,1,N,0015,1","99999,9,9,Y","009900,1,N,1","+0190,1","+0170,1","99999,9",,,,,"10180,1,99999,9",,,,,"MET045METAR EKVJ 290650Z 18003KT CAVOK 19/17 Q1018;",
"06066099999","2010-06-29T07:50:00","4","55.990122","8.353906","5.18","STAUNING, DA","FM-15","EKVJ ","V020","190,1,N,0021,1","99999,9,9,Y","009900,1,N,1","+0190,1","+0170,1","99999,9",,,,,"10180,1,99999,9",,,,,"MET045METAR EKVJ 290750Z 19004KT CAVOK 19/17 Q1018;",
"06066099999","2010-06-29T08:50:00","4","55.990122","8.353906","5.18","STAUNING, DA","FM-15","EKVJ ","V020","250,1,N,0041,1","99999,9,9,Y","009900,1,N,1","+0210,1","+0170,1","99999,9",,,,,"10180,1,99999,9",,,,,"MET045METAR EKVJ 290850Z 25008KT CAVOK 21/17 Q1018;",
"06066099999","2010-06-29T09:50:00","4","55.990122","8.353906","5.18","STAUNING, DA","FM-15","EKVJ ","V020","250,1,N,0041,1","99999,9,9,Y","009900,1,N,1","+0210,1","+0170,1","99999,9",,,,,"10169,1,99999,9",,,,,"MET045METAR EKVJ 290950Z 25008KT CAVOK 21/17 Q1017;",
"06066099999","2010-06-29T10:50:00","4","55.990122","8.353906","5.18","STAUNING, DA","FM-15","EKVJ ","V020","260,1,N,0041,1","99999,9,9,Y","009900,1,N,1","+0210,1","+0160,1","99999,9",,,,,"10169,1,99999,9",,,,,"MET045METAR EKVJ 291050Z 26008KT CAVOK 21/16 Q1017;",
"06066099999","2010-06-29T11:50:00","4","55.990122","8.353906","5.18","STAUNING, DA","FM-15","EKVJ ","V020","260,1,N,0051,1","99999,9,C,N","011265,1,N,1","+0220,1","+0170,1","99999,9","02,5,+01200,1,99,9","04,5,+06000,1,99,9",,"04,99,1,99,9,99,9,99999,9,99,9,99,9","10169,1,99999,9",,,,,"MET058METAR EKVJ 291150Z 26010KT 9999 FEW040 SCT200 22/17 Q1017;","P01 060003SCOCIG"
"06066099999","2010-06-29T12:50:00","4","55.990122","8.353906","5.18","STAUNING, DA","FM-15","EKVJ ","V020","260,1,N,0051,1","99999,9,C,N","011265,1,N,1","+0220,1","+0170,1","99999,9","02,5,+01200,1,99,9","04,5,+06000,1,99,9",,"04,99,1,99,9,99,9,99999,9,99,9,99,9","10169,1,99999,9",,,,,"MET058METAR EKVJ 291250Z 26010KT 9999 FEW040 SCT200 22/17 Q1017;","P01 060003SCOCIG"
"06066099999","2010-06-29T13:50:00","4","55.990122","8.353906","5.18","STAUNING, DA","FM-15","EKVJ ","V020","260,1,N,0051,1","99999,9,C,N","011265,1,N,1","+0200,1","+0170,1","99999,9","02,5,+01200,1,99,9","04,5,+01500,1,99,9",,"04,99,1,99,9,99,9,99999,9,99,9,99,9","10169,1,99999,9",,,,,"MET058METAR EKVJ 291350Z 26010KT 9999 FEW040 SCT050 20/17 Q1017;","P01 015003SCOCIG"
"06066099999","2010-06-30T06:20:00","4","55.990122","8.353906","5.18","STAUNING, DA","FM-15","EKVJ ","V020","300,1,N,0051,1","00300,1,C,N","011265,1,N,1","+0150,1","+0140,1","99999,9","07,5,+00300,1,99,9",,,"07,99,1,99,9,99,9,99999,9,99,9,99,9","10169,1,99999,9",,,,,"MET051METAR EKVJ 300620Z 30010KT 9999 BKN010 15/14 Q1017;",
"06066099999","2010-06-30T06:50:00","4","55.990122","8.353906","5.18","STAUNING, DA","FM-15","EKVJ ","V020","300,1,N,0051,1","00300,1,C,N","011265,1,N,1","+0150,1","+0140,1","99999,9","07,5,+00300,1,99,9",,,"07,99,1,99,9,99,9,99999,9,99,9,99,9","10169,1,99999,9","51,1",,,,"MET055METAR EKVJ 300650Z 30010KT 9999 -DZ BKN010 15/14 Q1017;",
"06066099999","2010-06-30T07:50:00","4","55.990122","8.353906","5.18","STAUNING, DA","FM-15","EKVJ ","V020","300,1,N,0062,1","00300,1,C,N","011265,1,N,1","+0140,1","+0130,1","99999,9","07,5,+00300,1,99,9",,,"07,99,1,99,9,99,9,99999,9,99,9,99,9","10180,1,99999,9","51,1",,,,"MET063METAR EKVJ 300750Z 30012KT 260V330 9999 -DZ BKN010 14/13 Q1018;",
"06066099999","2010-06-30T08:50:00","4","55.990122","8.353906","5.18","STAUNING, DA","FM-15","EKVJ ","V020","300,1,N,0062,1","00300,1,C,N","011265,1,N,1","+0140,1","+0130,1","99999,9","07,5,+00300,1,99,9",,,"07,99,1,99,9,99,9,99999,9,99,9,99,9","10180,1,99999,9","51,1",,,,"MET063METAR EKVJ 300850Z 30012KT 260V330 9999 -DZ BKN010 14/13 Q1018;",
"06066099999","2010-06-30T09:50:00","4","55.990122","8.353906","5.18","STAUNING, DA","FM-15","EKVJ ","V020","300,1,N,0062,1","00300,1,C,N","011265,1,N,1","+0150,1","+0130,1","99999,9","07,5,+00300,1,99,9",,,"07,99,1,99,9,99,9,99999,9,99,9,99,9","10190,1,99999,9",,,,,"MET059METAR EKVJ 300950Z 30012KT 260V330 9999 BKN010 15/13 Q1019;",
"06066099999","2010-06-30T10:50:00","4","55.990122","8.353906","5.18","STAUNING, DA","FM-15","EKVJ ","V020","300,1,N,0062,1","00450,1,C,N","011265,1,N,1","+0150,1","+0120,1","99999,9","07,5,+00450,1,99,9",,,"07,99,1,99,9,99,9,99999,9,99,9,99,9","10190,1,99999,9",,,,,"MET059METAR EKVJ 301050Z 30012KT 260V330 9999 BKN015 15/12 Q1019;",
"06066099999","2010-06-30T11:50:00","4","55.990122","8.353906","5.18","STAUNING, DA","FM-15","EKVJ ","V020","300,1,N,0062,1","00600,1,C,N","011265,1,N,1","+0160,1","+0120,1","99999,9","07,5,+00600,1,99,9",,,"07,99,1,99,9,99,9,99999,9,99,9,99,9","10190,1,99999,9",,,,,"MET059METAR EKVJ 301150Z 30012KT 260V330 9999 BKN020 16/12 Q1019;",
"06066099999","2010-06-30T12:50:00","4","55.990122","8.353906","5.18","STAUNING, DA","FM-15","EKVJ ","V020","300,1,N,0062,1","00600,1,C,N","011265,1,N,1","+0160,1","+0120,1","99999,9","07,5,+00600,1,99,9",,,"07,99,1,99,9,99,9,99999,9,99,9,99,9","10200,1,99999,9",,,,,"MET059METAR EKVJ 301250Z 30012KT 260V330 9999 BKN020 16/12 Q1020;",
"06066099999","2010-06-30T13:50:00","4","55.990122","8.353906","5.18","STAUNING, DA","FM-15","EKVJ ","V020","300,1,N,0062,1","00600,1,C,N","011265,1,N,1","+0160,1","+0120,1","99999,9","07,5,+00600,1,99,9",,,"07,99,1,99,9,99,9,99999,9,99,9,99,9","10200,1,99999,9",,,,,"MET059METAR EKVJ 301350Z 30012KT 260V330 9999 BKN020 16/12 Q1020;",
"06066099999","2010-07-01T06:20:00","4","55.990122","8.353906","5.18","STAUNING, DA","FM-15","EKVJ ","V020","310,1,N,0031,1","22000,1,9,N","011265,1,N,1","+0150,1","+0130,1","99999,9","02,5,+00600,1,99,9",,,"02,99,1,99,9,99,9,99999,9,99,9,99,9","10190,1,99999,9",,,,,"MET051METAR EKVJ 010620Z 31006KT 9999 FEW020 15/13 Q1019;",
"06066099999","2010-07-01T06:50:00","4","55.990122","8.353906","5.18","STAUNING, DA","FM-15","EKVJ ","V020","310,1,N,0031,1","99999,9,9,Y","009900,1,N,1","+0150,1","+0130,1","99999,9",,,,,"10190,1,99999,9",,,,,"MET053METAR EKVJ 010650Z 31006KT 270V340 CAVOK 15/13 Q1019;",
"06066099999","2010-07-01T07:50:00","4","55.990122","8.353906","5.18","STAUNING, DA","FM-15","EKVJ ","V020","240,1,N,0031,1","99999,9,9,Y","009900,1,N,1","+0170,1","+0140,1","99999,9",,,,,"10180,1,99999,9",,,,,"MET053METAR EKVJ 010750Z 24006KT 200V300 CAVOK 17/14 Q1018;",
"06066099999","2010-07-01T08:50:00","4","55.990122","8.353906","5.18","STAUNING, DA","FM-15","EKVJ ","V020","240,1,N,0031,1","99999,9,9,Y","009900,1,N,1","+0170,1","+0140,1","99999,9",,,,,"10180,1,99999,9",,,,,"MET053METAR EKVJ 010850Z 24006KT 200V300 CAVOK 17/14 Q1018;",
"06066099999","2010-07-01T09:50:00","4","55.990122","8.353906","5.18","STAUNING, DA","FM-15","EKVJ ","V020","220,1,N,0031,1","22000,1,9,N","011265,1,N,1","+0180,1","+0150,1","99999,9","02,5,+00900,1,99,9",,,"02,99,1,99,9,99,9,99999,9,99,9,99,9","10180,1,99999,9",,,,,"MET051METAR EKVJ 010950Z 22006KT 9999 FEW030 18/15 Q1018;",
"06066099999","2010-07-01T10:50:00","4","55.990122","8.353906","5.18","STAUNING, DA","FM-15","EKVJ ","V020","220,1,N,0031,1","22000,1,9,N","011265,1,N,1","+0190,1","+0130,1","99999,9","02,5,+00900,1,99,9",,,"02,99,1,99,9,99,9,99999,9,99,9,99,9","10180,1,99999,9",,,,,"MET051METAR EKVJ 011050Z 22006KT 9999 FEW030 19/13 Q1018;",
"06066099999","2010-07-01T11:50:00","4","55.990122","8.353906","5.18","STAUNING, DA","FM-15","EKVJ ","V020","999,9,V,0026,1","22000,1,9,N","011265,1,N,1","+0210,1","+0130,1","99999,9","02,5,+01050,1,99,9",,,"02,99,1,99,9,99,9,99999,9,99,9,99,9","10169,1,99999,9",,,,,"MET051METAR EKVJ 011150Z VRB05KT 9999 FEW035 21/13 Q1017;",
"06066099999","2010-07-01T12:50:00","4","55.990122","8.353906","5.18","STAUNING, DA","FM-15","EKVJ ","V020","999,9,V,0026,1","22000,1,9,N","011265,1,N,1","+0220,1","+0130,1","99999,9","02,5,+01050,1,99,9",,,"02,99,1,99,9,99,9,99999,9,99,9,99,9","10169,1,99999,9",,,,,"MET051METAR EKVJ 011250Z VRB05KT 9999 FEW035 22/13 Q1017;",
"06066099999","2010-07-01T13:50:00","4","55.990122","8.353906","5.18","STAUNING, DA","FM-15","EKVJ ","V020","999,9,V,0015,1","22000,1,9,N","011265,1,N,1","+0230,1","+0130,1","99999,9","02,5,+01050,1,99,9",,,"02,99,1,99,9,99,9,99999,9,99,9,99,9","10159,1,99999,9",,,,,"MET051METAR EKVJ 011350Z VRB03KT 9999 FEW035 23/13 Q1016;",
"06066099999","2010-07-02T06:20:00","4","55.990122","8.353906","5.18","STAUNING, DA","FM-15","EKVJ ","V020","180,1,N,0031,1","99999,9,9,Y","009900,1,N,1","+0190,1","+0160,1","99999,9",,,,,"10139,1,99999,9",,,,,"MET045METAR EKVJ 020620Z 18006KT CAVOK 19/16 Q1014;",
"06066099999","2010-07-02T06:50:00","4","55.990122","8.353906","5.18","STAUNING, DA","FM-15","EKVJ ","V020","180,1,N,0031,1","99999,9,9,Y","009900,1,N,1","+0190,1","+0160,1","99999,9",,,,,"10139,1,99999,9",,,,,"MET045METAR EKVJ 020650Z 18006KT CAVOK 19/16 Q1014;",
"06066099999","2010-07-02T07:50:00","4","55.990122","8.353906","5.18","STAUNING, DA","FM-15","EKVJ ","V020","180,1,N,0031,1","99999,9,9,Y","009900,1,N,1","+0220,1","+0180,1","99999,9",,,,,"10139,1,99999,9",,,,,"MET045METAR EKVJ 020750Z 18006KT CAVOK 22/18 Q1014;",
"06066099999","2010-07-02T08:50:00","4","55.990122","8.353906","5.18","STAUNING, DA","FM-15","EKVJ ","V020","170,1,N,0031,1","99999,9,9,Y","009900,1,N,1","+0240,1","+0170,1","99999,9",,,,,"10139,1,99999,9",,,,,"MET045METAR EKVJ 020850Z 17006KT CAVOK 24/17 Q1014;",
"06066099999","2010-07-02T09:50:00","4","55.990122","8.353906","5.18","STAUNING, DA","FM-15","EKVJ ","V020","170,1,N,0041,1","99999,9,9,Y","009900,1,N,1","+0260,1","+0180,1","99999,9",,,,,"10139,1,99999,9",,,,,"MET045METAR EKVJ 020950Z 17008KT CAVOK 26/18 Q1014;",
"06066099999","2010-07-02T10:50:00","4","55.990122","8.353906","5.18","STAUNING, DA","FM-15","EKVJ ","V020","170,1,N,0041,1","99999,9,9,Y","009900,1,N,1","+0270,1","+0190,1","99999,9",,,,,"10139,1,99999,9",,,,,"MET045METAR EKVJ 021050Z 17008KT CAVOK 27/19 Q1014;",
"06066099999","2010-07-02T11:50:00","4","55.990122","8.353906","5.18","STAUNING, DA","FM-15","EKVJ ","V020","170,1,N,0051,1","99999,9,9,Y","009900,1,N,1","+0290,1","+0190,1","99999,9",,,,,"10139,1,99999,9",,,,,"MET045METAR EKVJ 021150Z 17010KT CAVOK 29/19 Q1014;",
"06066099999","2010-07-02T12:50:00","4","55.990122","8.353906","5.18","STAUNING, DA","FM-15","EKVJ ","V020","240,1,N,0051,1","99999,9,9,Y","009900,1,N,1","+0280,1","+0190,1","99999,9",,,,,"10139,1,99999,9",,,,,"MET045METAR EKVJ 021250Z 24010KT CAVOK 28/19 Q1014;",
"06066099999","2010-07-02T13:50:00","4","55.990122","8.353906","5.18","STAUNING, DA","FM-15","EKVJ ","V020","220,1,N,0051,1","99999,9,9,Y","009900,1,N,1","+0280,1","+0190,1","99999,9",,,,,"10139,1,99999,9",,,,,"MET045METAR EKVJ 021350Z 22010KT CAVOK 28/19 Q1014;",
"06066099999","2010-07-05T06:20:00","4","55.990122","8.353906","5.18","STAUNING, DA","FM-15","EKVJ ","V020","250,1,N,0062,1","22000,1,9,N","011265,1,N,1","+0180,1","+0160,1","99999,9","04,5,+00900,1,99,9",,,"04,99,1,99,9,99,9,99999,9,99,9,99,9","10159,1,99999,9",,,,,"MET051METAR EKVJ 050620Z 25012KT 9999 SCT030 18/16 Q1016;",
"06066099999","2010-07-05T06:50:00","4","55.990122","8.353906","5.18","STAUNING, DA","FM-15","EKVJ ","V020","270,1,N,0062,1","22000,1,9,N","011265,1,N,1","+0180,1","+0160,1","99999,9","04,5,+00900,1,99,9",,,"04,99,1,99,9,99,9,99999,9,99,9,99,9","10159,1,99999,9",,,,,"MET051METAR EKVJ 050650Z 27012KT 9999 SCT030 18/16 Q1016;",
"06066099999","2010-07-05T07:50:00","4","55.990122","8.353906","5.18","STAUNING, DA","FM-15","EKVJ ","V020","270,1,N,0062,1","22000,1,9,N","011265,1,N,1","+0180,1","+0160,1","99999,9","04,5,+00900,1,99,9",,,"04,99,1,99,9,99,9,99999,9,99,9,99,9","10159,1,99999,9",,,,,"MET051METAR EKVJ 050750Z 27012KT 9999 SCT030 18/16 Q1016;",
"06066099999","2010-07-05T09:20:00","4","55.990122","8.353906","5.18","STAUNING, DA","FM-15","EKVJ ","V020","300,1,N,0041,1","22000,1,9,N","011265,1,N,1","+0210,1","+0160,1","99999,9","04,5,+00900,1,99,9",,,"04,99,1,99,9,99,9,99999,9,99,9,99,9","10159,1,99999,9",,,,,"MET051METAR EKVJ 050920Z 30008KT 9999 SCT030 21/16 Q1016;",
"06066099999","2010-07-05T09:50:00","4","55.990122","8.353906","5.18","STAUNING, DA","FM-15","EKVJ ","V020","300,1,N,0041,1","22000,1,9,N","011265,1,N,1","+0210,1","+0160,1","99999,9","02,5,+00900,1,99,9",,,"02,99,1,99,9,99,9,99999,9,99,9,99,9","10159,1,99999,9",,,,,"MET051METAR EKVJ 050950Z 30008KT 9999 FEW030 21/16 Q1016;",
"06066099999","2010-07-05T10:50:00","4","55.990122","8.353906","5.18","STAUNING, DA","FM-15","EKVJ ","V020","300,1,N,0041,1","22000,1,9,N","011265,1,N,1","+0210,1","+0160,1","99999,9","02,5,+00900,1,99,9",,,"02,99,1,99,9,99,9,99999,9,99,9,99,9","10159,1,99999,9",,,,,"MET051METAR EKVJ 051050Z 30008KT 9999 FEW030 21/16 Q1016;",
"06066099999","2010-07-05T11:50:00","4","55.990122","8.353906","5.18","STAUNING, DA","FM-15","EKVJ ","V020","260,1,N,0041,1","22000,1,9,N","011265,1,N,1","+0210,1","+0160,1","99999,9","02,5,+00900,1,99,9",,,"02,99,1,99,9,99,9,99999,9,99,9,99,9","10159,1,99999,9",,,,,"MET051METAR EKVJ 051150Z 26008KT 9999 FEW030 21/16 Q1016;",
"06066099999","2010-07-05T12:50:00","4","55.990122","8.353906","5.18","STAUNING, DA","FM-15","EKVJ ","V020","260,1,N,0051,1","22000,1,9,N","011265,1,N,1","+0190,1","+0140,1","99999,9","02,5,+00900,1,99,9",,,"02,99,1,99,9,99,9,99999,9,99,9,99,9","10169,1,99999,9",,,,,"MET051METAR EKVJ 051250Z 26010KT 9999 FEW030 19/14 Q1017;",
"06066099999","2010-07-05T13:50:00","4","55.990122","8.353906","5.18","STAUNING, DA","FM-15","EKVJ ","V020","270,1,N,0051,1","22000,1,9,N","011265,1,N,1","+0190,1","+0140,1","99999,9","04,5,+00900,1,99,9",,,"04,99,1,99,9,99,9,99999,9,99,9,99,9","10169,1,99999,9",,,,,"MET051METAR EKVJ 051350Z 27010KT 9999 SCT030 19/14 Q1017;",
"06066099999","2010-07-06T06:50:00","4","55.990122","8.353906","5.18","STAUNING, DA","FM-15","EKVJ ","V020","300,1,N,0041,1","22000,1,9,N","011265,1,N,1","+0170,1","+0140,1","99999,9","04,5,+00900,1,99,9",,,"04,99,1,99,9,99,9,99999,9,99,9,99,9","10180,1,99999,9",,,,,"MET051METAR EKVJ 060650Z 30008KT 9999 SCT030 17/14 Q1018;",
"06066099999","2010-07-06T07:50:00","4","55.990122","8.353906","5.18","STAUNING, DA","FM-15","EKVJ ","V020","300,1,N,0041,1","22000,1,9,N","011265,1,N,1","+0170,1","+0140,1","99999,9","04,5,+00900,1,99,9",,,"04,99,1,99,9,99,9,99999,9,99,9,99,9","10180,1,99999,9",,,,,"MET051METAR EKVJ 060750Z 30008KT 9999 SCT030 17/14 Q1018;",
"06066099999","2010-07-06T08:50:00","4","55.990122","8.353906","5.18","STAUNING, DA","FM-15","EKVJ ","V020","300,1,N,0041,1","22000,1,9,N","011265,1,N,1","+0170,1","+0140,1","99999,9","02,5,+00900,1,99,9",,,"02,99,1,99,9,99,9,99999,9,99,9,99,9","10190,1,99999,9",,,,,"MET051METAR EKVJ 060850Z 30008KT 9999 FEW030 17/14 Q1019;",
"06066099999","2010-07-06T09:50:00","4","55.990122","8.353906","5.18","STAUNING, DA","FM-15","EKVJ ","V020","300,1,N,0041,1","22000,1,9,N","011265,1,N,1","+0190,1","+0140,1","99999,9","02,5,+00900,1,99,9",,,"02,99,1,99,9,99,9,99999,9,99,9,99,9","10190,1,99999,9",,,,,"MET051METAR EKVJ 060950Z 30008KT 9999 FEW030 19/14 Q1019;",
"06066099999","2010-07-06T10:50:00","4","55.990122","8.353906","5.18","STAUNING, DA","FM-15","EKVJ ","V020","300,1,N,0051,1","22000,1,9,N","011265,1,N,1","+0190,1","+0140,1","99999,9","04,5,+00900,1,99,9",,,"04,99,1,99,9,99,9,99999,9,99,9,99,9","10200,1,99999,9",,,,,"MET051METAR EKVJ 061050Z 30010KT 9999 SCT030 19/14 Q1020;",
"06066099999","2010-07-06T11:50:00","4","55.990122","8.353906","5.18","STAUNING, DA","FM-15","EKVJ ","V020","300,1,N,0062,1","22000,1,9,N","011265,1,N,1","+0190,1","+0140,1","99999,9","04,5,+00900,1,99,9",,,"04,99,1,99,9,99,9,99999,9,99,9,99,9","10200,1,99999,9",,,,,"MET051METAR EKVJ 061150Z 30012KT 9999 SCT030 19/14 Q1020;",
"06066099999","2010-07-06T12:50:00","4","55.990122","8.353906","5.18","STAUNING, DA","FM-15","EKVJ ","V020","300,1,N,0062,1","22000,1,9,N","011265,1,N,1","+0190,1","+0140,1","99999,9","04,5,+00900,1,99,9",,,"04,99,1,99,9,99,9,99999,9,99,9,99,9","10200,1,99999,9",,,,,"MET051METAR EKVJ 061250Z 30012KT 9999 SCT030 19/14 Q1020;",
"06066099999","2010-07-06T13:50:00","4","55.990122","8.353906","5.18","STAUNING, DA","FM-15","EKVJ ","V020","310,1,N,0062,1","22000,1,9,N","011265,1,N,1","+0190,1","+0130,1","99999,9","04,5,+00900,1,99,9",,,"04,99,1,99,9,99,9,99999,9,99,9,99,9","10210,1,99999,9",,,,,"MET051METAR EKVJ 061350Z 31012KT 9999 SCT030 19/13 Q1021;",
"06066099999","2010-07-07T07:50:00","4","55.990122","8.353906","5.18","STAUNING, DA","FM-15","EKVJ ","V020","230,1,N,0062,1","22000,1,9,N","011265,1,N,1","+0170,1","+0130,1","99999,9","02,5,+00720,1,99,9",,,"02,99,1,99,9,99,9,99999,9,99,9,99,9","10210,1,99999,9",,,,,"MET051METAR EKVJ 070750Z 23012KT 9999 FEW024 17/13 Q1021;",
"06066099999","2010-07-07T08:50:00","4","55.990122","8.353906","5.18","STAUNING, DA","FM-15","EKVJ ","V020","230,1,N,0062,1","22000,1,9,N","011265,1,N,1","+0170,1","+0130,1","99999,9","02,5,+00720,1,99,9",,,"02,99,1,99,9,99,9,99999,9,99,9,99,9","10210,1,99999,9",,,,,"MET051METAR EKVJ 070850Z 23012KT 9999 FEW024 17/13 Q1021;",
"06066099999","2010-07-07T09:50:00","4","55.990122","8.353906","5.18","STAUNING, DA","FM-15","EKVJ ","V020","230,1,N,0062,1","22000,1,9,N","011265,1,N,1","+0170,1","+0130,1","99999,9","02,5,+00720,1,99,9",,,"02,99,1,99,9,99,9,99999,9,99,9,99,9","10210,1,99999,9",,,,,"MET051METAR EKVJ 070950Z 23012KT 9999 FEW024 17/13 Q1021;",
"06066099999","2010-07-07T10:50:00","4","55.990122","8.353906","5.18","STAUNING, DA","FM-15","EKVJ ","V020","210,1,N,0082,1","22000,1,9,N","011265,1,N,1","+0200,1","+0120,1","99999,9","02,5,+00720,1,99,9",,,"02,99,1,99,9,99,9,99999,9,99,9,99,9","10210,1,99999,9",,,,,"MET051METAR EKVJ 071050Z 21016KT 9999 FEW024 20/12 Q1021;",
"06066099999","2010-07-07T11:50:00","4","55.990122","8.353906","5.18","STAUNING, DA","FM-15","EKVJ ","V020","210,1,N,0087,1","22000,1,9,N","011265,1,N,1","+0200,1","+0120,1","99999,9","02,5,+00720,1,99,9",,,"02,99,1,99,9,99,9,99999,9,99,9,99,9","10210,1,99999,9",,,,,"MET051METAR EKVJ 071150Z 21017KT 9999 FEW024 20/12 Q1021;",
"06066099999","2010-07-07T12:50:00","4","55.990122","8.353906","5.18","STAUNING, DA","FM-15","EKVJ ","V020","210,1,N,0098,1","22000,1,9,N","011265,1,N,1","+0200,1","+0120,1","99999,9","02,5,+00720,1,99,9",,,"02,99,1,99,9,99,9,99999,9,99,9,99,9","10210,1,99999,9",,,,,"MET051METAR EKVJ 071250Z 21019KT 9999 FEW024 20/12 Q1021;",
"06066099999","2010-07-07T13:50:00","4","55.990122","8.353906","5.18","STAUNING, DA","FM-15","EKVJ ","V020","210,1,N,0098,1","22000,1,9,N","011265,1,N,1","+0200,1","+0150,1","99999,9","02,5,+00720,1,99,9",,,"02,99,1,99,9,99,9,99999,9,99,9,99,9","10210,1,99999,9",,,,,"MET051METAR EKVJ 071350Z 21019KT 9999 FEW024 20/15 Q1021;",
"06066099999","2010-07-08T08:50:00","4","55.990122","8.353906","5.18","STAUNING, DA","FM-15","EKVJ ","V020","180,1,N,0031,1","01200,1,C,N","008000,1,N,1","+0200,1","+0170,1","99999,9","04,5,+00600,1,99,9","07,5,+01200,1,99,9",,"07,99,1,99,9,99,9,99999,9,99,9,99,9","10169,1,99999,9","61,1",,,,"MET062METAR EKVJ 080850Z 18006KT 8000 -RA SCT020 BKN040 20/17 Q1017;",
"06066099999","2010-07-08T09:50:00","4","55.990122","8.353906","5.18","STAUNING, DA","FM-15","EKVJ ","V020","180,1,N,0031,1","01200,1,C,N","008000,1,N,1","+0200,1","+0170,1","99999,9","04,5,+00600,1,99,9","07,5,+01200,1,99,9",,"07,99,1,99,9,99,9,99999,9,99,9,99,9","10169,1,99999,9","63,1",,,,"MET061METAR EKVJ 080950Z 18006KT 8000 RA SCT020 BKN040 20/17 Q1017;",
"06066099999","2010-07-08T10:50:00","4","55.990122","8.353906","5.18","STAUNING, DA","FM-15","EKVJ ","V020","200,1,N,0041,1","00540,1,C,N","005000,1,N,1","+0200,1","+0170,1","99999,9","02,5,+00300,1,99,9","07,5,+00540,1,99,9","07,5,+00600,1,99,9","07,99,1,99,9,99,9,99999,9,99,9,99,9","10180,1,99999,9","63,1",,,,"MET068METAR EKVJ 081050Z 20008KT 5000 RA FEW010 BKN018 BKN020 20/17 Q1018;",
"06066099999","2010-07-08T11:20:00","4","55.990122","8.353906","5.18","STAUNING, DA","FM-15","EKVJ ","V020","200,1,N,0041,1","00300,1,C,N","005000,1,N,1","+0200,1","+0170,1","99999,9","04,5,+00180,1,99,9","07,5,+00300,1,99,9","07,5,+00600,1,99,9","07,99,1,99,9,99,9,99999,9,99,9,99,9","10180,1,99999,9","61,1",,,,"MET069METAR EKVJ 081120Z 20008KT 5000 -RA SCT006 BKN010 BKN020 20/17 Q1018;",
"06066099999","2010-07-08T11:50:00","4","55.990122","8.353906","5.18","STAUNING, DA","FM-15","EKVJ ","V020","200,1,N,0041,1","00300,1,C,N","005000,1,N,1","+0200,1","+0170,1","99999,9","04,5,+00180,1,99,9","07,5,+00300,1,99,9","07,5,+00600,1,99,9","07,99,1,99,9,99,9,99999,9,99,9,99,9","10180,1,99999,9","80,1",,,,"MET071METAR EKVJ 081150Z 20008KT 5000 -SHRA SCT006 BKN010 BKN020 20/17 Q1018;",
"06066099999","2010-07-08T12:50:00","4","55.990122","8.353906","5.18","STAUNING, DA","FM-15","EKVJ ","V020","200,1,N,0031,1","00300,1,C,N","005000,1,N,1","+0200,1","+0170,1","99999,9","04,5,+00180,1,99,9","07,5,+00300,1,99,9","07,5,+00600,1,99,9","07,99,1,99,9,99,9,99999,9,99,9,99,9","10180,1,99999,9","80,1",,,,"MET071METAR EKVJ 081250Z 20006KT 5000 -SHRA SCT006 BKN010 BKN020 20/17 Q1018;",
"06066099999","2010-07-08T13:50:00","4","55.990122","8.353906","5.18","STAUNING, DA","FM-15","EKVJ ","V020","200,1,N,0031,1","00300,1,C,N","009000,1,N,1","+0200,1","+0170,1","99999,9","04,5,+00180,1,99,9","07,5,+00300,1,99,9","07,5,+00600,1,99,9","07,99,1,99,9,99,9,99999,9,99,9,99,9","10180,1,99999,9",,,,,"MET065METAR EKVJ 081350Z 20006KT 9000 SCT006 BKN010 BKN020 20/17 Q1018;",
"06066099999","2010-07-09T06:20:00","4","55.990122","8.353906","5.18","STAUNING, DA","FM-15","EKVJ ","V020","320,1,N,0015,1","06000,1,C,N","011265,1,N,1","+0170,1","+0150,1","99999,9","02,5,+00600,1,99,9","07,5,+06000,1,99,9",,"07,99,1,99,9,99,9,99999,9,99,9,99,9","10200,1,99999,9",,,,,"MET058METAR EKVJ 090620Z 32003KT 9999 FEW020 BKN200 17/15 Q1020;",
"06066099999","2010-07-09T06:50:00","4","55.990122","8.353906","5.18","STAUNING, DA","FM-15","EKVJ ","V020","320,1,N,0015,1","06000,1,C,N","011265,1,N,1","+0170,1","+0150,1","99999,9","02,5,+00600,1,99,9","07,5,+06000,1,99,9",,"07,99,1,99,9,99,9,99999,9,99,9,99,9","10200,1,99999,9",,,,,"MET058METAR EKVJ 090650Z 32003KT 9999 FEW020 BKN200 17/15 Q1020;",
"06066099999","2010-07-09T07:50:00","4","55.990122","8.353906","5.18","STAUNING, DA","FM-15","EKVJ ","V020","999,9,V,0015,1","06000,1,C,N","011265,1,N,1","+0190,1","+0160,1","99999,9","02,5,+00600,1,99,9","07,5,+06000,1,99,9",,"07,99,1,99,9,99,9,99999,9,99,9,99,9","10200,1,99999,9",,,,,"MET058METAR EKVJ 090750Z VRB03KT 9999 FEW020 BKN200 19/16 Q1020;",
"06066099999","2010-07-09T08:50:00","4","55.990122","8.353906","5.18","STAUNING, DA","FM-15","EKVJ ","V020","999,9,V,0015,1","03600,1,C,N","011265,1,N,1","+0190,1","+0150,1","99999,9","02,5,+00600,1,99,9","07,5,+03600,1,99,9",,"07,99,1,99,9,99,9,99999,9,99,9,99,9","10200,1,99999,9",,,,,"MET058METAR EKVJ 090850Z VRB03KT 9999 FEW020 BKN120 19/15 Q1020;",
"06066099999","2010-07-09T09:50:00","4","55.990122","8.353906","5.18","STAUNING, DA","FM-15","EKVJ ","V020","999,9,V,0026,1","99999,9,9,Y","009900,1,N,1","+0200,1","+0160,1","99999,9",,,,,"10210,1,99999,9",,,,,"MET045METAR EKVJ 090950Z VRB05KT CAVOK 20/16 Q1021;",
"06066099999","2010-07-09T10:50:00","4","55.990122","8.353906","5.18","STAUNING, DA","FM-15","EKVJ ","V020","999,9,V,0021,1","99999,9,9,Y","009900,1,N,1","+0210,1","+0150,1","99999,9",,,,,"10210,1,99999,9",,,,,"MET045METAR EKVJ 091050Z VRB04KT CAVOK 21/15 Q1021;",
"06066099999","2010-07-09T11:50:00","4","55.990122","8.353906","5.18","STAUNING, DA","FM-15","EKVJ ","V020","999,9,V,0015,1","99999,9,9,Y","009900,1,N,1","+0220,1","+0140,1","99999,9",,,,,"10200,1,99999,9",,,,,"MET045METAR EKVJ 091150Z VRB03KT CAVOK 22/14 Q1020;",
"06066099999","2010-07-09T12:50:00","4","55.990122","8.353906","5.18","STAUNING, DA","FM-15","EKVJ ","V020","140,1,N,0021,1","99999,9,9,Y","009900,1,N,1","+0240,1","+0140,1","99999,9",,,,,"10200,1,99999,9",,,,,"MET045METAR EKVJ 091250Z 14004KT CAVOK 24/14 Q1020;",
"06066099999","2010-07-09T13:50:00","4","55.990122","8.353906","5.18","STAUNING, DA","FM-15","EKVJ ","V020","120,1,N,0021,1","99999,9,9,Y","009900,1,N,1","+0250,1","+0140,1","99999,9",,,,,"10190,1,99999,9",,,,,"MET045METAR EKVJ 091350Z 12004KT CAVOK 25/14 Q1019;",
"06066099999","2010-07-10T08:50:00","4","55.990122","8.353906","5.18","STAUNING, DA","FM-15","EKVJ ","V020","300,1,N,0015,1","99999,9,9,Y","009900,1,N,1","+0240,1","+0200,1","99999,9",,,,,"10190,1,99999,9",,,,,"MET045METAR EKVJ 100850Z 30003KT CAVOK 24/20 Q1019;",
"06066099999","2010-07-10T09:50:00","4","55.990122","8.353906","5.18","STAUNING, DA","FM-15","EKVJ ","V020","300,1,N,0015,1","99999,9,9,Y","009900,1,N,1","+0250,1","+0180,1","99999,9",,,,,"10190,1,99999,9",,,,,"MET045METAR EKVJ 100950Z 30003KT CAVOK 25/18 Q1019;",
"06066099999","2010-07-10T10:50:00","4","55.990122","8.353906","5.18","STAUNING, DA","FM-15","EKVJ ","V020","300,1,N,0015,1","99999,9,9,Y","009900,1,N,1","+0260,1","+0170,1","99999,9",,,,,"10190,1,99999,9",,,,,"MET053METAR EKVJ 101050Z 30003KT 270V330 CAVOK 26/17 Q1019;",
"06066099999","2010-07-10T11:50:00","4","55.990122","8.353906","5.18","STAUNING, DA","FM-15","EKVJ ","V020","250,1,N,0015,1","99999,9,9,Y","009900,1,N,1","+0260,1","+0170,1","99999,9",,,,,"10190,1,99999,9",,,,,"MET045METAR EKVJ 101150Z 25003KT CAVOK 26/17 Q1019;",
"06066099999","2010-07-10T12:50:00","4","55.990122","8.353906","5.18","STAUNING, DA","FM-15","EKVJ ","V020","250,1,N,0021,1","99999,9,9,Y","009900,1,N,1","+0270,1","+0180,1","99999,9",,,,,"10190,1,99999,9",,,,,"MET045METAR EKVJ 101250Z 25004KT CAVOK 27/18 Q1019;",
"06066099999","2010-07-11T09:20:00","4","55.990122","8.353906","5.18","STAUNING, DA","FM-15","EKVJ ","V020","150,1,N,0041,1","03000,1,C,N","011265,1,N,1","+0210,1","+0200,1","99999,9","04,5,+00240,1,99,9","07,5,+03000,1,99,9",,"07,99,1,99,9,99,9,99999,9,99,9,99,9","10149,1,99999,9",,,,,"MET058METAR EKVJ 110920Z 15008KT 9999 SCT008 BKN100 21/20 Q1015;",
"06066099999","2010-07-11T09:50:00","4","55.990122","8.353906","5.18","STAUNING, DA","FM-15","EKVJ ","V020","150,1,N,0031,1","00900,1,C,N","011265,1,N,1","+0210,1","+0200,1","99999,9","04,5,+00240,1,99,9","07,5,+00900,1,99,9",,"07,99,1,99,9,99,9,99999,9,99,9,99,9","10149,1,99999,9",,,,,"MET058METAR EKVJ 110950Z 15006KT 9999 SCT008 BKN030 21/20 Q1015;",
"06066099999","2010-07-11T10:50:00","4","55.990122","8.353906","5.18","STAUNING, DA","FM-15","EKVJ ","V020","180,1,N,0051,1","00750,1,C,N","011265,1,N,1","+0230,1","+0210,1","99999,9","04,5,+00450,1,99,9","07,5,+00750,1,99,9",,"07,99,1,99,9,99,9,99999,9,99,9,99,9","10149,1,99999,9",,,,,"MET058METAR EKVJ 111050Z 18010KT 9999 SCT015 BKN025 23/21 Q1015;",
"06066099999","2010-07-11T11:50:00","4","55.990122","8.353906","5.18","STAUNING, DA","FM-15","EKVJ ","V020","210,1,N,0077,1","00750,1,C,N","011265,1,N,1","+0230,1","+0210,1","99999,9","02,5,+00450,1,99,9","07,5,+00750,1,99,9",,"07,99,1,99,9,99,9,99999,9,99,9,99,9","10159,1,99999,9",,,,,"MET058METAR EKVJ 111150Z 21015KT 9999 FEW015 BKN025 23/21 Q1016;",
"06066099999","2010-07-11T12:50:00","4","55.990122","8.353906","5.18","STAUNING, DA","FM-15","EKVJ ","V020","210,1,N,0077,1","99999,9,C,N","011265,1,N,1","+0230,1","+0210,1","99999,9","02,5,+00450,1,99,9","04,5,+00750,1,99,9",,"04,99,1,99,9,99,9,99999,9,99,9,99,9","10159,1,99999,9",,,,,"MET058METAR EKVJ 111250Z 21015KT 9999 FEW015 SCT025 23/21 Q1016;","P01 007503SCOCIG"
"06066099999","2010-07-12T06:50:00","4","55.990122","8.353906","5.18","STAUNING, DA","FM-15","EKVJ ","V020","999,9,V,0015,1","00480,1,C,N","011265,1,N,1","+0180,1","+0150,1","99999,9","07,5,+00480,1,99,9","07,5,+00600,1,99,9",,"07,99,1,99,9,99,9,99999,9,99,9,99,9","10180,1,99999,9",,,,,"MET058METAR EKVJ 120650Z VRB03KT 9999 BKN016 BKN020 18/15 Q1018;",
"06066099999","2010-07-12T07:50:00","4","55.990122","8.353906","5.18","STAUNING, DA","FM-15","EKVJ ","V020","050,1,N,0026,1","00360,1,C,N","011265,1,N,1","+0180,1","+0150,1","99999,9","07,5,+00360,1,99,9","07,5,+00540,1,99,9",,"07,99,1,99,9,99,9,99999,9,99,9,99,9","10180,1,99999,9",,,,,"MET058METAR EKVJ 120750Z 05005KT 9999 BKN012 BKN018 18/15 Q1018;",
"06066099999","2010-07-12T08:50:00","4","55.990122","8.353906","5.18","STAUNING, DA","FM-15","EKVJ ","V020","050,1,N,0026,1","00540,1,C,N","011265,1,N,1","+0200,1","+0150,1","99999,9","04,5,+00300,1,99,9","07,5,+00540,1,99,9",,"07,99,1,99,9,99,9,99999,9,99,9,99,9","10180,1,99999,9",,,,,"MET058METAR EKVJ 120850Z 05005KT 9999 SCT010 BKN018 20/15 Q1018;",
"06066099999","2010-07-12T09:50:00","4","55.990122","8.353906","5.18","STAUNING, DA","FM-15","EKVJ ","V020","080,1,N,0026,1","02400,1,C,N","011265,1,N,1","+0200,1","+0150,1","99999,9","04,5,+00300,1,99,9","07,5,+02400,1,99,9",,"07,99,1,99,9,99,9,99999,9,99,9,99,9","10159,1,99999,9","61,1",,,,"MET062METAR EKVJ 120950Z 08005KT 9999 -RA SCT010 BKN080 20/15 Q1016;",
"06066099999","2010-07-12T10:50:00","4","55.990122","8.353906","5.18","STAUNING, DA","FM-15","EKVJ ","V020","080,1,N,0026,1","02400,1,C,N","011265,1,N,1","+0200,1","+0150,1","99999,9","04,5,+00300,1,99,9","07,5,+02400,1,99,9",,"07,99,1,99,9,99,9,99999,9,99,9,99,9","10159,1,99999,9","61,1",,,,"MET062METAR EKVJ 121050Z 08005KT 9999 -RA SCT010 BKN080 20/15 Q1016;",
"06066099999","2010-07-12T11:50:00","4","55.990122","8.353906","5.18","STAUNING, DA","FM-15","EKVJ ","V020","080,1,N,0026,1","02400,1,C,N","011265,1,N,1","+0200,1","+0150,1","99999,9","04,5,+00300,1,99,9","07,5,+02400,1,99,9",,"07,99,1,99,9,99,9,99999,9,99,9,99,9","10149,1,99999,9","61,1",,,,"MET062METAR EKVJ 121150Z 08005KT 9999 -RA SCT010 BKN080 20/15 Q1015;",
"06066099999","2010-07-12T12:50:00","4","55.990122","8.353906","5.18","STAUNING, DA","FM-15","EKVJ ","V020","100,1,N,0031,1","00180,1,C,N","006000,1,N,1","+0200,1","+0150,1","99999,9","07,5,+00180,1,99,9","07,5,+00600,1,09,5","07,5,+01500,1,99,9","07,99,1,99,9,99,9,99999,9,99,9,99,9","10139,1,99999,9","63,1",,,,"MET070METAR EKVJ 121250Z 10006KT 6000 RA BKN006 BKN020CB BKN050 20/15 Q1014;",
"06066099999","2010-07-12T13:50:00","4","55.990122","8.353906","5.18","STAUNING, DA","FM-15","EKVJ ","V020","100,1,N,0031,1","00180,1,C,N","006000,1,N,1","+0200,1","+0150,1","99999,9","07,5,+00180,1,99,9","07,5,+00600,1,09,5","07,5,+01500,1,99,9","07,99,1,99,9,99,9,99999,9,99,9,99,9","10139,1,99999,9","81,1",,,,"MET072METAR EKVJ 121350Z 10006KT 6000 SHRA BKN006 BKN020CB BKN050 20/15 Q1014;",
"06066099999","2010-07-13T06:20:00","4","55.990122","8.353906","5.18","STAUNING, DA","FM-15","EKVJ ","V020","290,1,N,0031,1","00600,1,C,N","011265,1,N,1","+0190,1","+0150,1","99999,9","07,5,+00600,1,99,9",,,"07,99,1,99,9,99,9,99999,9,99,9,99,9","10071,1,99999,9",,,,,"MET051METAR EKVJ 130620Z 29006KT 9999 BKN020 19/15 Q1007;",
"06066099999","2010-07-13T06:50:00","4","55.990122","8.353906","5.18","STAUNING, DA","FM-15","EKVJ ","V020","290,1,N,0031,1","00600,1,C,N","011265,1,N,1","+0190,1","+0150,1","99999,9","07,5,+00600,1,99,9",,,"07,99,1,99,9,99,9,99999,9,99,9,99,9","10071,1,99999,9",,,,,"MET051METAR EKVJ 130650Z 29006KT 9999 BKN020 19/15 Q1007;",
"06066099999","2010-07-13T07:50:00","4","55.990122","8.353906","5.18","STAUNING, DA","FM-15","EKVJ ","V020","290,1,N,0031,1","00360,1,C,N","011265,1,N,1","+0190,1","+0150,1","99999,9","07,5,+00360,1,99,9",,,"07,99,1,99,9,99,9,99999,9,99,9,99,9","10081,1,99999,9",,,,,"MET051METAR EKVJ 130750Z 29006KT 9999 BKN012 19/15 Q1008;",
"06066099999","2010-07-13T08:50:00","4","55.990122","8.353906","5.18","STAUNING, DA","FM-15","EKVJ ","V020","290,1,N,0031,1","00360,1,C,N","011265,1,N,1","+0190,1","+0150,1","99999,9","07,5,+00360,1,99,9",,,"07,99,1,99,9,99,9,99999,9,99,9,99,9","10081,1,99999,9",,,,,"MET051METAR EKVJ 130850Z 29006KT 9999 BKN012 19/15 Q1008;",
"06066099999","2010-07-13T09:50:00","4","55.990122","8.353906","5.18","STAUNING, DA","FM-15","EKVJ ","V020","290,1,N,0031,1","00360,1,C,N","011265,1,N,1","+0190,1","+0150,1","99999,9","07,5,+00360,1,99,9",,,"07,99,1,99,9,99,9,99999,9,99,9,99,9","10081,1,99999,9",,,,,"MET051METAR EKVJ 130950Z 29006KT 9999 BKN012 19/15 Q1008;",
"06066099999","2010-07-13T10:50:00","4","55.990122","8.353906","5.18","STAUNING, DA","FM-15","EKVJ ","V020","290,1,N,0031,1","00360,1,C,N","011265,1,N,1","+0190,1","+0150,1","99999,9","07,5,+00360,1,99,9",,,"07,99,1,99,9,99,9,99999,9,99,9,99,9","10091,1,99999,9",,,,,"MET051METAR EKVJ 131050Z 29006KT 9999 BKN012 19/15 Q1009;",
"06066099999","2010-07-13T11:50:00","4","55.990122","8.353906","5.18","STAUNING, DA","FM-15","EKVJ ","V020","290,1,N,0031,1","00360,1,C,N","011265,1,N,1","+0190,1","+0150,1","99999,9","07,5,+00360,1,99,9",,,"07,99,1,99,9,99,9,99999,9,99,9,99,9","10091,1,99999,9",,,,,"MET051METAR EKVJ 131150Z 29006KT 9999 BKN012 19/15 Q1009;",
"06066099999","2010-07-13T12:50:00","4","55.990122","8.353906","5.18","STAUNING, DA","FM-15","EKVJ ","V020","260,1,N,0031,1","00360,1,C,N","011265,1,N,1","+0190,1","+0150,1","99999,9","07,5,+00360,1,99,9",,,"07,99,1,99,9,99,9,99999,9,99,9,99,9","10091,1,99999,9",,,,,"MET051METAR EKVJ 131250Z 26006KT 9999 BKN012 19/15 Q1009;",
"06066099999","2010-07-14T06:20:00","4","55.990122","8.353906","5.18","STAUNING, DA","FM-15","EKVJ ","V020","110,1,N,0041,1","00900,1,C,N","011265,1,N,1","+0180,1","+0160,1","99999,9","02,5,+00420,1,99,9","07,5,+00900,1,99,9",,"07,99,1,99,9,99,9,99999,9,99,9,99,9","10102,1,99999,9",,,,,"MET058METAR EKVJ 140620Z 11008KT 9999 FEW014 BKN030 18/16 Q1010;",
"06066099999","2010-07-14T06:50:00","4","55.990122","8.353906","5.18","STAUNING, DA","FM-15","EKVJ ","V020","110,1,N,0041,1","00900,1,C,N","011265,1,N,1","+0180,1","+0160,1","99999,9","02,5,+00420,1,99,9","07,5,+00900,1,99,9",,"07,99,1,99,9,99,9,99999,9,99,9,99,9","10102,1,99999,9",,,,,"MET058METAR EKVJ 140650Z 11008KT 9999 FEW014 BKN030 18/16 Q1010;",
"06066099999","2010-07-14T07:50:00","4","55.990122","8.353906","5.18","STAUNING, DA","FM-15","EKVJ ","V020","110,1,N,0041,1","00900,1,C,N","011265,1,N,1","+0180,1","+0160,1","99999,9","02,5,+00420,1,99,9","07,5,+00900,1,99,9",,"07,99,1,99,9,99,9,99999,9,99,9,99,9","10102,1,99999,9",,,,,"MET058METAR EKVJ 140750Z 11008KT 9999 FEW014 BKN030 18/16 Q1010;",
"06066099999","2010-07-14T08:50:00","4","55.990122","8.353906","5.18","STAUNING, DA","FM-15","EKVJ ","V020","130,1,N,0041,1","01200,1,C,N","011265,1,N,1","+0180,1","+0160,1","99999,9","02,5,+00420,1,99,9","07,5,+01200,1,99,9",,"07,99,1,99,9,99,9,99999,9,99,9,99,9","10102,1,99999,9",,,,,"MET058METAR EKVJ 140850Z 13008KT 9999 FEW014 BKN040 18/16 Q1010;",
"06066099999","2010-07-14T09:50:00","4","55.990122","8.353906","5.18","STAUNING, DA","FM-15","EKVJ ","V020","130,1,N,0041,1","22000,1,9,N","011265,1,N,1","+0200,1","+0160,1","99999,9","02,5,+01200,1,99,9",,,"02,99,1,99,9,99,9,99999,9,99,9,99,9","10102,1,99999,9",,,,,"MET051METAR EKVJ 140950Z 13008KT 9999 FEW040 20/16 Q1010;",
"06066099999","2010-07-14T10:50:00","4","55.990122","8.353906","5.18","STAUNING, DA","FM-15","EKVJ ","V020","130,1,N,0041,1","22000,1,9,N","011265,1,N,1","+0200,1","+0160,1","99999,9","02,5,+01200,1,99,9",,,"02,99,1,99,9,99,9,99999,9,99,9,99,9","10102,1,99999,9",,,,,"MET051METAR EKVJ 141050Z 13008KT 9999 FEW040 20/16 Q1010;",
"06066099999","2010-07-14T12:50:00","4","55.990122","8.353906","5.18","STAUNING, DA","FM-15","EKVJ ","V020","210,1,N,0041,1","22000,1,9,N","011265,1,N,1","+0260,1","+0200,1","99999,9","02,5,+01200,1,99,9",,,"02,99,1,99,9,99,9,99999,9,99,9,99,9","10102,1,99999,9",,,,,"MET051METAR EKVJ 141250Z 21008KT 9999 FEW040 26/20 Q1010;",
"06066099999","2010-07-14T13:50:00","4","55.990122","8.353906","5.18","STAUNING, DA","FM-15","EKVJ ","V020","210,1,N,0041,1","22000,1,9,N","011265,1,N,1","+0260,1","+0200,1","99999,9","02,5,+01200,1,99,9",,,"02,99,1,99,9,99,9,99999,9,99,9,99,9","10091,1,99999,9",,,,,"MET051METAR EKVJ 141350Z 21008KT 9999 FEW040 26/20 Q1009;",
"06066099999","2010-07-15T06:20:00","4","55.990122","8.353906","5.18","STAUNING, DA","FM-15","EKVJ ","V020","200,1,N,0062,1","22000,1,9,N","011265,1,N,1","+0190,1","+0160,1","99999,9","04,5,+00480,1,99,9",,,"04,99,1,99,9,99,9,99999,9,99,9,99,9","10051,1,99999,9",,,,,"MET051METAR EKVJ 150620Z 20012KT 9999 SCT016 19/16 Q1005;",
"06066099999","2010-07-15T06:50:00","4","55.990122","8.353906","5.18","STAUNING, DA","FM-15","EKVJ ","V020","200,1,N,0062,1","22000,1,9,N","011265,1,N,1","+0190,1","+0160,1","99999,9","04,5,+00480,1,99,9",,,"04,99,1,99,9,99,9,99999,9,99,9,99,9","10051,1,99999,9",,,,,"MET051METAR EKVJ 150650Z 20012KT 9999 SCT016 19/16 Q1005;",
"06066099999","2010-07-15T08:20:00","4","55.990122","8.353906","5.18","STAUNING, DA","FM-15","EKVJ ","V020","200,1,N,0077,1","22000,1,9,N","011265,1,N,1","+0200,1","+0160,1","99999,9","04,5,+00480,1,02,1",,,"04,99,1,99,9,99,9,99999,9,99,9,99,9","10051,1,99999,9",,,,,"MET054METAR EKVJ 150820Z 20015KT 9999 SCT016TCU 20/16 Q1005;",
"06066099999","2010-07-15T09:20:00","4","55.990122","8.353906","5.18","STAUNING, DA","FM-15","EKVJ ","V020","200,1,N,0077,1","22000,1,9,N","011265,1,N,1","+0200,1","+0160,1","99999,9","04,5,+00480,1,02,1",,,"04,99,1,99,9,99,9,99999,9,99,9,99,9","10051,1,99999,9",,,,,"MET054METAR EKVJ 150920Z 20015KT 9999 SCT016TCU 20/16 Q1005;",
"06066099999","2010-07-15T09:50:00","4","55.990122","8.353906","5.18","STAUNING, DA","FM-15","EKVJ ","V020","200,1,N,0082,1","22000,1,9,N","011265,1,N,1","+0200,1","+0160,1","99999,9","04,5,+00480,1,02,1",,,"04,99,1,99,9,99,9,99999,9,99,9,99,9","10071,1,99999,9",,,,,"MET054METAR EKVJ 150950Z 20016KT 9999 SCT016TCU 20/16 Q1007;",
"06066099999","2010-07-15T10:50:00","4","55.990122","8.353906","5.18","STAUNING, DA","FM-15","EKVJ ","V020","200,1,N,0082,1","22000,1,9,N","011265,1,N,1","+0200,1","+0160,1","99999,9","04,5,+00480,1,02,1",,,"04,99,1,99,9,99,9,99999,9,99,9,99,9","10071,1,99999,9",,,,,"MET054METAR EKVJ 151050Z 20016KT 9999 SCT016TCU 20/16 Q1007;",
"06066099999","2010-07-15T11:50:00","4","55.990122","8.353906","5.18","STAUNING, DA","FM-15","EKVJ ","V020","220,1,N,0087,1","22000,1,9,N","011265,1,N,1","+0200,1","+0160,1","99999,9","04,5,+00480,1,02,1",,,"04,99,1,99,9,99,9,99999,9,99,9,99,9","10091,1,99999,9",,,,,"MET054METAR EKVJ 151150Z 22017KT 9999 SCT016TCU 20/16 Q1009;",
"06066099999","2010-07-15T12:50:00","4","55.990122","8.353906","5.18","STAUNING, DA","FM-15","EKVJ ","V020","220,1,N,0087,1","22000,1,9,N","011265,1,N,1","+0200,1","+0160,1","99999,9","04,5,+00480,1,02,1",,,"04,99,1,99,9,99,9,99999,9,99,9,99,9","10091,1,99999,9",,,,,"MET054METAR EKVJ 151250Z 22017KT 9999 SCT016TCU 20/16 Q1009;",
"06066099999","2010-07-15T13:50:00","4","55.990122","8.353906","5.18","STAUNING, DA","FM-15","EKVJ ","V020","220,1,N,0087,1","22000,1,9,N","011265,1,N,1","+0200,1","+0160,1","99999,9","04,5,+00480,1,02,1",,,"04,99,1,99,9,99,9,99999,9,99,9,99,9","10091,1,99999,9",,,,,"MET054METAR EKVJ 151350Z 22017KT 9999 SCT016TCU 20/16 Q1009;",
"06066099999","2010-07-16T06:20:00","4","55.990122","8.353906","5.18","STAUNING, DA","FM-15","EKVJ ","V020","150,1,N,0072,1","99999,9,9,Y","009900,1,N,1","+0200,1","+0160,1","99999,9",,,,,"10139,1,99999,9",,,,,"MET045METAR EKVJ 160620Z 15014KT CAVOK 20/16 Q1014;",
"06066099999","2010-07-16T06:50:00","4","55.990122","8.353906","5.18","STAUNING, DA","FM-15","EKVJ ","V020","150,1,N,0072,1","99999,9,9,Y","009900,1,N,1","+0200,1","+0160,1","99999,9",,,,,"10139,1,99999,9",,,,,"MET045METAR EKVJ 160650Z 15014KT CAVOK 20/16 Q1014;",
"06066099999","2010-07-16T07:50:00","4","55.990122","8.353906","5.18","STAUNING, DA","FM-15","EKVJ ","V020","150,1,N,0072,1","99999,9,9,Y","009900,1,N,1","+0200,1","+0160,1","99999,9",,,,,"10139,1,99999,9",,,,,"MET045METAR EKVJ 160750Z 15014KT CAVOK 20/16 Q1014;",
"06066099999","2010-07-16T08:50:00","4","55.990122","8.353906","5.18","STAUNING, DA","FM-15","EKVJ ","V020","150,1,N,0077,1","99999,9,9,Y","009900,1,N,1","+0220,1","+0160,1","99999,9",,,,,"10139,1,99999,9",,,,,"MET045METAR EKVJ 160850Z 15015KT CAVOK 22/16 Q1014;",
"06066099999","2010-07-16T10:20:00","4","55.990122","8.353906","5.18","STAUNING, DA","FM-15","EKVJ ","V020","160,1,N,0113,1","22000,1,9,N","011265,1,N,1","+0220,1","+0160,1","99999,9","02,5,+00780,1,99,9",,,"02,99,1,99,9,99,9,99999,9,99,9,99,9","10139,1,99999,9",,,,,"MET051METAR EKVJ 161020Z 16022KT 9999 FEW026 22/16 Q1014;",
"06066099999","2010-07-16T10:50:00","4","55.990122","8.353906","5.18","STAUNING, DA","FM-15","EKVJ ","V020","170,1,N,0113,1","22000,1,9,N","011265,1,N,1","+0230,1","+0160,1","99999,9","02,5,+00780,1,99,9",,,"02,99,1,99,9,99,9,99999,9,99,9,99,9","10129,1,99999,9",,,,,"MET051METAR EKVJ 161050Z 17022KT 9999 FEW026 23/16 Q1013;",
"06066099999","2010-07-16T11:20:00","4","55.990122","8.353906","5.18","STAUNING, DA","FM-15","EKVJ ","V020","170,1,N,0082,1","22000,1,9,N","011265,1,N,1","+0230,1","+0160,1","99999,9","02,5,+00780,1,99,9",,,"02,99,1,99,9,99,9,99999,9,99,9,99,9","10129,1,99999,9",,,,"0123,1","MET054METAR EKVJ 161120Z 17016G24KT 9999 FEW026 23/16 Q1013;",
"06066099999","2010-07-16T11:50:00","4","55.990122","8.353906","5.18","STAUNING, DA","FM-15","EKVJ ","V020","190,1,N,0082,1","22000,1,9,N","011265,1,N,1","+0230,1","+0160,1","99999,9","02,5,+00780,1,99,9",,,"02,99,1,99,9,99,9,99999,9,99,9,99,9","10129,1,99999,9",,,,"0123,1","MET054METAR EKVJ 161150Z 19016G24KT 9999 FEW026 23/16 Q1013;",
"06066099999","2010-07-16T12:50:00","4","55.990122","8.353906","5.18","STAUNING, DA","FM-15","EKVJ ","V020","190,1,N,0082,1","22000,1,9,N","011265,1,N,1","+0230,1","+0160,1","99999,9","02,5,+00780,1,99,9",,,"02,99,1,99,9,99,9,99999,9,99,9,99,9","10119,1,99999,9",,,,"0123,1","MET054METAR EKVJ 161250Z 19016G24KT 9999 FEW026 23/16 Q1012;",
"06066099999","2010-07-16T13:50:00","4","55.990122","8.353906","5.18","STAUNING, DA","FM-15","EKVJ ","V020","190,1,N,0082,1","01200,1,C,N","011265,1,N,1","+0230,1","+0160,1","99999,9","07,5,+01200,1,99,9",,,"07,99,1,99,9,99,9,99999,9,99,9,99,9","10120,1,99999,9",,,,"0123,1","MET060METAR EKVJ 161350Z 19016G24KT 9999 BKN040 -SHRA 23/16 Q1012;",
"06066099999","2010-07-19T06:20:00","4","55.990122","8.353906","5.18","STAUNING, DA","FM-15","EKVJ ","V020","200,1,N,0051,1","01200,1,C,N","011265,1,N,1","+0190,1","+0150,1","99999,9","07,5,+01200,1,99,9",,,"07,99,1,99,9,99,9,99999,9,99,9,99,9","10230,1,99999,9",,,,,"MET051METAR EKVJ 190620Z 20010KT 9999 BKN040 19/15 Q1023;",
"06066099999","2010-07-19T06:50:00","4","55.990122","8.353906","5.18","STAUNING, DA","FM-15","EKVJ ","V020","210,1,N,0062,1","01200,1,C,N","011265,1,N,1","+0190,1","+0150,1","99999,9","07,5,+01200,1,99,9",,,"07,99,1,99,9,99,9,99999,9,99,9,99,9","10230,1,99999,9",,,,,"MET051METAR EKVJ 190650Z 21012KT 9999 BKN040 19/15 Q1023;",
"06066099999","2010-07-19T07:50:00","4","55.990122","8.353906","5.18","STAUNING, DA","FM-15","EKVJ ","V020","210,1,N,0062,1","01200,1,C,N","011265,1,N,1","+0190,1","+0150,1","99999,9","07,5,+01200,1,99,9",,,"07,99,1,99,9,99,9,99999,9,99,9,99,9","10230,1,99999,9",,,,,"MET051METAR EKVJ 190750Z 21012KT 9999 BKN040 19/15 Q1023;",
"06066099999","2010-07-19T08:50:00","4","55.990122","8.353906","5.18","STAUNING, DA","FM-15","EKVJ ","V020","210,1,N,0062,1","01200,1,C,N","011265,1,N,1","+0200,1","+0150,1","99999,9","07,5,+01200,1,99,9",,,"07,99,1,99,9,99,9,99999,9,99,9,99,9","10240,1,99999,9",,,,,"MET051METAR EKVJ 190850Z 21012KT 9999 BKN040 20/15 Q1024;",
"06066099999","2010-07-19T09:50:00","4","55.990122","8.353906","5.18","STAUNING, DA","FM-15","EKVJ ","V020","210,1,N,0062,1","01200,1,C,N","011265,1,N,1","+0200,1","+0150,1","99999,9","07,5,+01200,1,99,9",,,"07,99,1,99,9,99,9,99999,9,99,9,99,9","10240,1,99999,9",,,,,"MET051METAR EKVJ 190950Z 21012KT 9999 BKN040 20/15 Q1024;",
"06066099999","2010-07-19T10:50:00","4","55.990122","8.353906","5.18","STAUNING, DA","FM-15","EKVJ ","V020","210,1,N,0082,1","00900,1,C,N","011265,1,N,1","+0200,1","+0150,1","99999,9","07,5,+00900,1,99,9",,,"07,99,1,99,9,99,9,99999,9,99,9,99,9","10240,1,99999,9",,,,,"MET051METAR EKVJ 191050Z 21016KT 9999 BKN030 20/15 Q1024;",
"06066099999","2010-07-19T12:50:00","4","55.990122","8.353906","5.18","STAUNING, DA","FM-15","EKVJ ","V020","210,1,N,0082,1","00900,1,C,N","011265,1,N,1","+0200,1","+0150,1","99999,9","07,5,+00900,1,99,9",,,"07,99,1,99,9,99,9,99999,9,99,9,99,9","10240,1,99999,9",,,,,"MET051METAR EKVJ 191250Z 21016KT 9999 BKN030 20/15 Q1024;",
"06066099999","2010-07-19T13:50:00","4","55.990122","8.353906","5.18","STAUNING, DA","FM-15","EKVJ ","V020","220,1,N,0041,1","22000,1,9,N","011265,1,N,1","+0200,1","+0150,1","99999,9","04,5,+01350,1,99,9",,,"04,99,1,99,9,99,9,99999,9,99,9,99,9","10240,1,99999,9",,,,,"MET051METAR EKVJ 191350Z 22008KT 9999 SCT045 20/15 Q1024;",
"06066099999","2010-07-20T06:20:00","4","55.990122","8.353906","5.18","STAUNING, DA","FM-15","EKVJ ","V020","150,1,N,0041,1","99999,9,9,Y","009900,1,N,1","+0200,1","+0150,1","99999,9",,,,,"10169,1,99999,9",,,,,"MET045METAR EKVJ 200620Z 15008KT CAVOK 20/15 Q1017;",
"06066099999","2010-07-20T06:50:00","4","55.990122","8.353906","5.18","STAUNING, DA","FM-15","EKVJ ","V020","150,1,N,0041,1","99999,9,9,Y","009900,1,N,1","+0200,1","+0150,1","99999,9",,,,,"10169,1,99999,9",,,,,"MET045METAR EKVJ 200650Z 15008KT CAVOK 20/15 Q1017;",
"06066099999","2010-07-20T07:50:00","4","55.990122","8.353906","5.18","STAUNING, DA","FM-15","EKVJ ","V020","150,1,N,0041,1","22000,1,9,N","011265,1,N,1","+0220,1","+0150,1","99999,9","02,5,+01200,1,99,9",,,"02,99,1,99,9,99,9,99999,9,99,9,99,9","10169,1,99999,9",,,,,"MET051METAR EKVJ 200750Z 15008KT 9999 FEW040 22/15 Q1017;",
"06066099999","2010-07-20T08:50:00","4","55.990122","8.353906","5.18","STAUNING, DA","FM-15","EKVJ ","V020","180,1,N,0041,1","22000,1,9,N","011265,1,N,1","+0240,1","+0150,1","99999,9","02,5,+01200,1,99,9",,,"02,99,1,99,9,99,9,99999,9,99,9,99,9","10169,1,99999,9",,,,,"MET051METAR EKVJ 200850Z 18008KT 9999 FEW040 24/15 Q1017;",
"06066099999","2010-07-20T09:50:00","4","55.990122","8.353906","5.18","STAUNING, DA","FM-15","EKVJ ","V020","180,1,N,0041,1","03000,1,C,N","011265,1,N,1","+0240,1","+0150,1","99999,9","02,5,+01200,1,99,9","07,5,+03000,1,99,9",,"07,99,1,99,9,99,9,99999,9,99,9,99,9","10169,1,99999,9",,,,,"MET058METAR EKVJ 200950Z 18008KT 9999 FEW040 BKN100 24/15 Q1017;",
"06066099999","2010-07-20T10:50:00","4","55.990122","8.353906","5.18","STAUNING, DA","FM-15","EKVJ ","V020","200,1,N,0031,1","03000,1,C,N","011265,1,N,1","+0240,1","+0150,1","99999,9","02,5,+01200,1,99,9","07,5,+03000,1,99,9",,"07,99,1,99,9,99,9,99999,9,99,9,99,9","10169,1,99999,9",,,,,"MET058METAR EKVJ 201050Z 20006KT 9999 FEW040 BKN100 24/15 Q1017;",
"06066099999","2010-07-20T11:50:00","4","55.990122","8.353906","5.18","STAUNING, DA","FM-15","EKVJ ","V020","240,1,N,0041,1","03000,1,C,N","011265,1,N,1","+0260,1","+0150,1","99999,9","02,5,+01200,1,99,9","07,5,+03000,1,99,9",,"07,99,1,99,9,99,9,99999,9,99,9,99,9","10159,1,99999,9",,,,,"MET058METAR EKVJ 201150Z 24008KT 9999 FEW040 BKN100 26/15 Q1016;",
"06066099999","2010-07-20T12:50:00","4","55.990122","8.353906","5.18","STAUNING, DA","FM-15","EKVJ ","V020","240,1,N,0041,1","03000,1,C,N","011265,1,N,1","+0260,1","+0150,1","99999,9","02,5,+01200,1,99,9","07,5,+03000,1,99,9",,"07,99,1,99,9,99,9,99999,9,99,9,99,9","10159,1,99999,9",,,,,"MET058METAR EKVJ 201250Z 24008KT 9999 FEW040 BKN100 26/15 Q1016;",
"06066099999","2010-07-21T06:20:00","4","55.990122","8.353906","5.18","STAUNING, DA","FM-15","EKVJ ","V020","110,1,N,0031,1","99999,9,9,Y","009900,1,N,1","+0200,1","+0180,1","99999,9",,,,,"10091,1,99999,9",,,,,"MET045METAR EKVJ 210620Z 11006KT CAVOK 20/18 Q1009;",
"06066099999","2010-07-21T06:50:00","4","55.990122","8.353906","5.18","STAUNING, DA","FM-15","EKVJ ","V020","110,1,N,0031,1","99999,9,9,Y","009900,1,N,1","+0200,1","+0180,1","99999,9",,,,,"10091,1,99999,9",,,,,"MET045METAR EKVJ 210650Z 11006KT CAVOK 20/18 Q1009;",
"06066099999","2010-07-21T07:50:00","4","55.990122","8.353906","5.18","STAUNING, DA","FM-15","EKVJ ","V020","110,1,N,0031,1","99999,9,9,Y","009900,1,N,1","+0250,1","+0180,1","99999,9",,,,,"10091,1,99999,9",,,,,"MET045METAR EKVJ 210750Z 11006KT CAVOK 25/18 Q1009;",
"06066099999","2010-07-21T08:50:00","4","55.990122","8.353906","5.18","STAUNING, DA","FM-15","EKVJ ","V020","150,1,N,0021,1","99999,9,9,Y","009900,1,N,1","+0250,1","+0180,1","99999,9",,,,,"10081,1,99999,9",,,,,"MET045METAR EKVJ 210850Z 15004KT CAVOK 25/18 Q1008;",
"06066099999","2010-07-21T09:50:00","4","55.990122","8.353906","5.18","STAUNING, DA","FM-15","EKVJ ","V020","150,1,N,0021,1","99999,9,9,Y","009900,1,N,1","+0250,1","+0180,1","99999,9",,,,,"10081,1,99999,9",,,,,"MET045METAR EKVJ 210950Z 15004KT CAVOK 25/18 Q1008;",
"06066099999","2010-07-21T10:50:00","4","55.990122","8.353906","5.18","STAUNING, DA","FM-15","EKVJ ","V020","150,1,N,0082,1","22000,1,9,N","011265,1,N,1","+0250,1","+0180,1","99999,9","02,5,+01200,1,99,9",,,"02,99,1,99,9,99,9,99999,9,99,9,99,9","10081,1,99999,9",,,,,"MET051METAR EKVJ 211050Z 15016KT 9999 FEW040 25/18 Q1008;",
"06066099999","2010-07-21T12:50:00","4","55.990122","8.353906","5.18","STAUNING, DA","FM-15","EKVJ ","V020","150,1,N,0082,1","99999,9,C,N","011265,1,N,1","+0270,1","+0180,1","99999,9","02,5,+01200,1,99,9","04,5,+03000,1,99,9",,"04,99,1,99,9,99,9,99999,9,99,9,99,9","10071,1,99999,9",,,,,"MET058METAR EKVJ 211250Z 15016KT 9999 FEW040 SCT100 27/18 Q1007;","P01 030003SCOCIG"
"06066099999","2010-07-21T13:50:00","4","55.990122","8.353906","5.18","STAUNING, DA","FM-15","EKVJ ","V020","150,1,N,0082,1","99999,9,C,N","011265,1,N,1","+0270,1","+0180,1","99999,9","02,5,+01200,1,99,9","04,5,+03000,1,99,9",,"04,99,1,99,9,99,9,99999,9,99,9,99,9","10071,1,99999,9",,,,,"MET058METAR EKVJ 211350Z 15016KT 9999 FEW040 SCT100 27/18 Q1007;","P01 030003SCOCIG"
"06066099999","2010-07-22T06:20:00","4","55.990122","8.353906","5.18","STAUNING, DA","FM-15","EKVJ ","V020","250,1,N,0031,1","99999,9,9,Y","009900,1,N,1","+0210,1","+0160,1","99999,9",,,,,"10091,1,99999,9",,,,,"MET045METAR EKVJ 220620Z 25006KT CAVOK 21/16 Q1009;",
"06066099999","2010-07-22T07:50:00","4","55.990122","8.353906","5.18","STAUNING, DA","FM-15","EKVJ ","V020","250,1,N,0031,1","99999,9,9,Y","009900,1,N,1","+0210,1","+0160,1","99999,9",,,,,"10091,1,99999,9",,,,,"MET045METAR EKVJ 220750Z 25006KT CAVOK 21/16 Q1009;",
"06066099999","2010-07-22T08:50:00","4","55.990122","8.353906","5.18","STAUNING, DA","FM-15","EKVJ ","V020","260,1,N,0031,1","22000,1,9,N","011265,1,N,1","+0230,1","+0160,1","99999,9","02,5,+00780,1,99,9",,,"02,99,1,99,9,99,9,99999,9,99,9,99,9","10102,1,99999,9",,,,,"MET051METAR EKVJ 220850Z 26006KT 9999 FEW026 23/16 Q1010;",
"06066099999","2010-07-22T09:50:00","4","55.990122","8.353906","5.18","STAUNING, DA","FM-15","EKVJ ","V020","260,1,N,0031,1","03000,1,C,N","011265,1,N,1","+0230,1","+0160,1","99999,9","02,5,+00780,1,99,9","07,5,+03000,1,99,9",,"07,99,1,99,9,99,9,99999,9,99,9,99,9","10102,1,99999,9",,,,,"MET058METAR EKVJ 220950Z 26006KT 9999 FEW026 BKN100 23/16 Q1010;",
"06066099999","2010-07-22T10:50:00","4","55.990122","8.353906","5.18","STAUNING, DA","FM-15","EKVJ ","V020","999,9,V,0021,1","03000,1,C,N","011265,1,N,1","+0230,1","+0160,1","99999,9","04,5,+00780,1,99,9","07,5,+03000,1,99,9",,"07,99,1,99,9,99,9,99999,9,99,9,99,9","10102,1,99999,9",,,,,"MET058METAR EKVJ 221050Z VRB04KT 9999 SCT026 BKN100 23/16 Q1010;",
"06066099999","2010-07-22T11:50:00","4","55.990122","8.353906","5.18","STAUNING, DA","FM-15","EKVJ ","V020","999,9,V,0021,1","03000,1,C,N","011265,1,N,1","+0230,1","+0160,1","99999,9","04,5,+00780,1,99,9","07,5,+03000,1,99,9",,"07,99,1,99,9,99,9,99999,9,99,9,99,9","10102,1,99999,9",,,,,"MET058METAR EKVJ 221150Z VRB04KT 9999 SCT026 BKN100 23/16 Q1010;",
"06066099999","2010-07-22T13:50:00","4","55.990122","8.353906","5.18","STAUNING, DA","FM-15","EKVJ ","V020","999,9,V,0021,1","03000,1,C,N","011265,1,N,1","+0230,1","+0160,1","99999,9","04,5,+00780,1,99,9","07,5,+03000,1,99,9",,"07,99,1,99,9,99,9,99999,9,99,9,99,9","10102,1,99999,9",,,,,"MET058METAR EKVJ 221350Z VRB04KT 9999 SCT026 BKN100 23/16 Q1010;",
"06066099999","2010-07-23T06:20:00","4","55.990122","8.353906","5.18","STAUNING, DA","FM-15","EKVJ ","V020","310,1,N,0031,1","99999,9,9,Y","009900,1,N,1","+0160,1","+0140,1","99999,9",,,,,"10159,1,99999,9",,,,,"MET045METAR EKVJ 230620Z 31006KT CAVOK 16/14 Q1016;",
"06066099999","2010-07-23T06:50:00","4","55.990122","8.353906","5.18","STAUNING, DA","FM-15","EKVJ ","V020","310,1,N,0031,1","99999,9,9,Y","009900,1,N,1","+0160,1","+0140,1","99999,9",,,,,"10159,1,99999,9",,,,,"MET045METAR EKVJ 230650Z 31006KT CAVOK 16/14 Q1016;",
"06066099999","2010-07-23T07:50:00","4","55.990122","8.353906","5.18","STAUNING, DA","FM-15","EKVJ ","V020","310,1,N,0031,1","99999,9,9,Y","009900,1,N,1","+0180,1","+0140,1","99999,9",,,,,"10169,1,99999,9",,,,,"MET045METAR EKVJ 230750Z 31006KT CAVOK 18/14 Q1017;",
"06066099999","2010-07-23T08:50:00","4","55.990122","8.353906","5.18","STAUNING, DA","FM-15","EKVJ ","V020","310,1,N,0031,1","99999,9,9,Y","009900,1,N,1","+0180,1","+0140,1","99999,9",,,,,"10169,1,99999,9",,,,,"MET045METAR EKVJ 230850Z 31006KT CAVOK 18/14 Q1017;",
"06066099999","2010-07-23T09:50:00","4","55.990122","8.353906","5.18","STAUNING, DA","FM-15","EKVJ ","V020","310,1,N,0031,1","22000,1,9,N","011265,1,N,1","+0200,1","+0140,1","99999,9","02,5,+00900,1,99,9",,,"02,99,1,99,9,99,9,99999,9,99,9,99,9","10169,1,99999,9",,,,,"MET051METAR EKVJ 230950Z 31006KT 9999 FEW030 20/14 Q1017;",
"06066099999","2010-07-23T10:50:00","4","55.990122","8.353906","5.18","STAUNING, DA","FM-15","EKVJ ","V020","310,1,N,0031,1","22000,1,9,N","011265,1,N,1","+0200,1","+0140,1","99999,9","02,5,+00900,1,99,9",,,"02,99,1,99,9,99,9,99999,9,99,9,99,9","10169,1,99999,9",,,,,"MET051METAR EKVJ 231050Z 31006KT 9999 FEW030 20/14 Q1017;",
"06066099999","2010-07-23T11:50:00","4","55.990122","8.353906","5.18","STAUNING, DA","FM-15","EKVJ ","V020","310,1,N,0031,1","22000,1,9,N","011265,1,N,1","+0200,1","+0140,1","99999,9","02,5,+00900,1,99,9",,,"02,99,1,99,9,99,9,99999,9,99,9,99,9","10169,1,99999,9",,,,,"MET051METAR EKVJ 231150Z 31006KT 9999 FEW030 20/14 Q1017;",
"06066099999","2010-07-23T12:50:00","4","55.990122","8.353906","5.18","STAUNING, DA","FM-15","EKVJ ","V020","310,1,N,0031,1","22000,1,9,N","011265,1,N,1","+0200,1","+0140,1","99999,9","02,5,+00900,1,99,9",,,"02,99,1,99,9,99,9,99999,9,99,9,99,9","10169,1,99999,9",,,,,"MET051METAR EKVJ 231250Z 31006KT 9999 FEW030 20/14 Q1017;",
"06066099999","2010-07-26T06:20:00","4","55.990122","8.353906","5.18","STAUNING, DA","FM-15","EKVJ ","V020","050,1,N,0015,1","00600,1,C,N","006000,1,N,1","+0140,1","+0140,1","99999,9","04,5,+00300,1,99,9","07,5,+00600,1,99,9",,"07,99,1,99,9,99,9,99999,9,99,9,99,9","10108,1,99999,9",,,,,"MET058METAR EKVJ 260620Z 05003KT 6000 SCT010 BKN020 14/14 Q1011;",
"06066099999","2010-07-26T06:50:00","4","55.990122","8.353906","5.18","STAUNING, DA","FM-15","EKVJ ","V020","999,9,C,0000,1","00300,1,C,N","004000,1,N,1","+0140,1","+0140,1","99999,9","07,5,+00300,1,99,9",,,"07,99,1,99,9,99,9,99999,9,99,9,99,9","10108,1,99999,9","51,1","61,1",,,"MET057METAR EKVJ 260650Z 00000KT 4000 -RADZ BKN010 14/14 Q1011;",
"06066099999","2010-07-26T07:50:00","4","55.990122","8.353906","5.18","STAUNING, DA","FM-15","EKVJ ","V020","999,9,C,0000,1","00300,1,C,N","005000,1,N,1","+0150,1","+0150,1","99999,9","07,5,+00300,1,99,9",,,"07,99,1,99,9,99,9,99999,9,99,9,99,9","10108,1,99999,9",,,,,"MET051METAR EKVJ 260750Z 00000KT 5000 BKN010 15/15 Q1011;",
"06066099999","2010-07-26T08:50:00","4","55.990122","8.353906","5.18","STAUNING, DA","FM-15","EKVJ ","V020","999,9,V,0015,1","00300,1,C,N","008000,1,N,1","+0160,1","+0160,1","99999,9","07,5,+00300,1,99,9",,,"07,99,1,99,9,99,9,99999,9,99,9,99,9","10108,1,99999,9",,,,,"MET051METAR EKVJ 260850Z VRB03KT 8000 BKN010 16/16 Q1011;",
"06066099999","2010-07-26T09:50:00","4","55.990122","8.353906","5.18","STAUNING, DA","FM-15","EKVJ ","V020","999,9,V,0015,1","00600,1,C,N","011265,1,N,1","+0180,1","+0150,1","99999,9","04,5,+00360,1,99,9","07,5,+00600,1,99,9",,"07,99,1,99,9,99,9,99999,9,99,9,99,9","10108,1,99999,9",,,,,"MET058METAR EKVJ 260950Z VRB03KT 9999 SCT012 BKN020 18/15 Q1011;",
"06066099999","2010-07-26T10:50:00","4","55.990122","8.353906","5.18","STAUNING, DA","FM-15","EKVJ ","V020","360,1,N,0026,1","00900,1,C,N","011265,1,N,1","+0190,1","+0150,1","99999,9","02,5,+00600,1,99,9","07,5,+00900,1,99,9",,"07,99,1,99,9,99,9,99999,9,99,9,99,9","10108,1,99999,9",,,,,"MET066METAR EKVJ 261050Z 36005KT 310V030 9999 FEW020 BKN030 19/15 Q1011;",
"06066099999","2010-07-26T11:50:00","4","55.990122","8.353906","5.18","STAUNING, DA","FM-15","EKVJ ","V020","310,1,N,0031,1","00900,1,C,N","011265,1,N,1","+0190,1","+0140,1","99999,9","02,5,+00600,1,99,9","07,5,+00900,1,99,9",,"07,99,1,99,9,99,9,99999,9,99,9,99,9","10108,1,99999,9",,,,,"MET058METAR EKVJ 261150Z 31006KT 9999 FEW020 BKN030 19/14 Q1011;",
"06066099999","2010-07-26T12:50:00","4","55.990122","8.353906","5.18","STAUNING, DA","FM-15","EKVJ ","V020","310,1,N,0051,1","22000,1,9,N","011265,1,N,1","+0200,1","+0140,1","99999,9","02,5,+00600,1,99,9","02,5,+01200,1,99,9",,"02,99,1,99,9,99,9,99999,9,99,9,99,9","10119,1,99999,9",,,,,"MET058METAR EKVJ 261250Z 31010KT 9999 FEW020 FEW040 20/14 Q1012;",
"06066099999","2010-07-26T13:50:00","4","55.990122","8.353906","5.18","STAUNING, DA","FM-15","EKVJ ","V020","310,1,N,0051,1","22000,1,9,N","011265,1,N,1","+0210,1","+0150,1","99999,9","02,5,+00600,1,99,9",,,"02,99,1,99,9,99,9,99999,9,99,9,99,9","10119,1,99999,9",,,,,"MET051METAR EKVJ 261350Z 31010KT 9999 FEW020 21/15 Q1012;",
"06066099999","2010-07-27T06:20:00","4","55.990122","8.353906","5.18","STAUNING, DA","FM-15","EKVJ ","V020","999,9,C,0000,1","22000,1,9,N","011265,1,N,1","+0150,1","+0140,1","99999,9","02,5,+00600,1,99,9",,,"02,99,1,99,9,99,9,99999,9,99,9,99,9","10159,1,99999,9",,,,,"MET051METAR EKVJ 270620Z 00000KT 9999 FEW020 15/14 Q1016;",
"06066099999","2010-07-27T06:50:00","4","55.990122","8.353906","5.18","STAUNING, DA","FM-15","EKVJ ","V020","320,1,N,0021,1","22000,1,9,N","011265,1,N,1","+0160,1","+0140,1","99999,9","02,5,+00600,1,99,9",,,"02,99,1,99,9,99,9,99999,9,99,9,99,9","10159,1,99999,9",,,,,"MET051METAR EKVJ 270650Z 32004KT 9999 FEW020 16/14 Q1016;",
"06066099999","2010-07-27T07:50:00","4","55.990122","8.353906","5.18","STAUNING, DA","FM-15","EKVJ ","V020","300,1,N,0031,1","22000,1,9,N","011265,1,N,1","+0180,1","+0130,1","99999,9","02,5,+00600,1,99,9",,,"02,99,1,99,9,99,9,99999,9,99,9,99,9","10159,1,99999,9",,,,,"MET051METAR EKVJ 270750Z 30006KT 9999 FEW020 18/13 Q1016;",
"06066099999","2010-07-27T08:50:00","4","55.990122","8.353906","5.18","STAUNING, DA","FM-15","EKVJ ","V020","270,1,N,0031,1","22000,1,9,N","011265,1,N,1","+0190,1","+0130,1","99999,9","02,5,+00900,1,99,9",,,"02,99,1,99,9,99,9,99999,9,99,9,99,9","10159,1,99999,9",,,,,"MET059METAR EKVJ 270850Z 27006KT 230V310 9999 FEW030 19/13 Q1016;",
"06066099999","2010-07-27T09:50:00","4","55.990122","8.353906","5.18","STAUNING, DA","FM-15","EKVJ ","V020","270,1,N,0041,1","22000,1,9,N","011265,1,N,1","+0190,1","+0130,1","99999,9","02,5,+00900,1,99,9",,,"02,99,1,99,9,99,9,99999,9,99,9,99,9","10159,1,99999,9",,,,,"MET059METAR EKVJ 270950Z 27008KT 220V310 9999 FEW030 19/13 Q1016;",
"06066099999","2010-07-27T10:50:00","4","55.990122","8.353906","5.18","STAUNING, DA","FM-15","EKVJ ","V020","270,1,N,0041,1","22000,1,9,N","011265,1,N,1","+0190,1","+0130,1","99999,9","04,5,+00900,1,99,9",,,"04,99,1,99,9,99,9,99999,9,99,9,99,9","10159,1,99999,9",,,,,"MET059METAR EKVJ 271050Z 27008KT 220V310 9999 SCT030 19/13 Q1016;",
"06066099999","2010-07-27T11:50:00","4","55.990122","8.353906","5.18","STAUNING, DA","FM-15","EKVJ ","V020","270,1,N,0041,1","22000,1,9,N","011265,1,N,1","+0190,1","+0130,1","99999,9","04,5,+00900,1,99,9",,,"04,99,1,99,9,99,9,99999,9,99,9,99,9","10159,1,99999,9",,,,,"MET059METAR EKVJ 271150Z 27008KT 210V300 9999 SCT030 19/13 Q1016;",
"06066099999","2010-07-27T12:50:00","4","55.990122","8.353906","5.18","STAUNING, DA","FM-15","EKVJ ","V020","250,1,N,0041,1","22000,1,9,N","011265,1,N,1","+0200,1","+0150,1","99999,9","04,5,+00900,1,99,9",,,"04,99,1,99,9,99,9,99999,9,99,9,99,9","10159,1,99999,9",,,,,"MET059METAR EKVJ 271250Z 25008KT 210V280 9999 SCT030 20/15 Q1016;",
"06066099999","2010-07-27T13:50:00","4","55.990122","8.353906","5.18","STAUNING, DA","FM-15","EKVJ ","V020","250,1,N,0051,1","22000,1,9,N","011265,1,N,1","+0200,1","+0150,1","99999,9","02,5,+00900,1,99,9",,,"02,99,1,99,9,99,9,99999,9,99,9,99,9","10159,1,99999,9",,,,,"MET059METAR EKVJ 271350Z 25010KT 210V280 9999 FEW030 20/15 Q1016;",
"06066099999","2010-07-28T06:20:00","4","55.990122","8.353906","5.18","STAUNING, DA","FM-15","EKVJ ","V020","120,1,N,0031,1","00120,1,C,N","004000,1,N,1","+0150,1","+0150,1","99999,9","07,5,+00120,1,99,9",,,"07,99,1,99,9,99,9,99999,9,99,9,99,9","10119,1,99999,9","63,1",,,,"MET054METAR EKVJ 280620Z 12006KT 4000 RA BKN004 15/15 Q1012;",
"06066099999","2010-07-28T06:50:00","4","55.990122","8.353906","5.18","STAUNING, DA","FM-15","EKVJ ","V020","110,1,N,0031,1","00120,1,C,N","003000,1,N,1","+0150,1","+0150,1","99999,9","07,5,+00120,1,99,9",,,"07,99,1,99,9,99,9,99999,9,99,9,99,9","10119,1,99999,9","63,1",,,,"MET054METAR EKVJ 280650Z 11006KT 3000 RA BKN004 15/15 Q1012;",
"06066099999","2010-07-28T07:50:00","4","55.990122","8.353906","5.18","STAUNING, DA","FM-15","EKVJ ","V020","110,1,N,0031,1","00120,1,C,N","003500,1,N,1","+0160,1","+0160,1","99999,9","07,5,+00120,1,99,9",,,"07,99,1,99,9,99,9,99999,9,99,9,99,9","10108,1,99999,9","63,1",,,,"MET054METAR EKVJ 280750Z 11006KT 3500 RA BKN004 16/16 Q1011;",
"06066099999","2010-07-28T08:50:00","4","55.990122","8.353906","5.18","STAUNING, DA","FM-15","EKVJ ","V020","110,1,N,0031,1","00120,1,C,N","004000,1,N,1","+0160,1","+0160,1","99999,9","07,5,+00120,1,99,9",,,"07,99,1,99,9,99,9,99999,9,99,9,99,9","10108,1,99999,9","63,1",,,,"MET054METAR EKVJ 280850Z 11006KT 4000 RA BKN004 16/16 Q1011;",
"06066099999","2010-07-28T09:50:00","4","55.990122","8.353906","5.18","STAUNING, DA","FM-15","EKVJ ","V020","110,1,N,0031,1","00120,1,C,N","005000,1,N,1","+0170,1","+0170,1","99999,9","07,5,+00120,1,99,9",,,"07,99,1,99,9,99,9,99999,9,99,9,99,9","10108,1,99999,9","61,1",,,,"MET055METAR EKVJ 280950Z 11006KT 5000 -RA BKN004 17/17 Q1011;",
"06066099999","2010-07-28T10:50:00","4","55.990122","8.353906","5.18","STAUNING, DA","FM-15","EKVJ ","V020","130,1,N,0031,1","00150,1,C,N","005000,1,N,1","+0170,1","+0170,1","99999,9","07,5,+00150,1,99,9",,,"07,99,1,99,9,99,9,99999,9,99,9,99,9","10108,1,99999,9","51,1",,,,"MET055METAR EKVJ 281050Z 13006KT 5000 -DZ BKN005 17/17 Q1011;",
"06066099999","2010-07-28T11:50:00","4","55.990122","8.353906","5.18","STAUNING, DA","FM-15","EKVJ ","V020","130,1,N,0015,1","00150,1,C,N","005000,1,N,1","+0170,1","+0170,1","99999,9","07,5,+00150,1,99,9",,,"07,99,1,99,9,99,9,99999,9,99,9,99,9","10102,1,99999,9","51,1",,,,"MET055METAR EKVJ 281150Z 13003KT 5000 -DZ BKN005 17/17 Q1010;",
"06066099999","2010-07-28T12:50:00","4","55.990122","8.353906","5.18","STAUNING, DA","FM-15","EKVJ ","V020","999,9,V,0015,1","00120,1,C,N","003000,1,N,1","+0170,1","+0170,1","99999,9","07,5,+00120,1,99,9",,,"07,99,1,99,9,99,9,99999,9,99,9,99,9","10102,1,99999,9","53,1",,,,"MET054METAR EKVJ 281250Z VRB03KT 3000 DZ BKN004 17/17 Q1010;",
"06066099999","2010-07-28T13:50:00","4","55.990122","8.353906","5.18","STAUNING, DA","FM-15","EKVJ ","V020","330,1,N,0062,1","00120,1,C,N","003000,1,N,1","+0160,1","+0160,1","99999,9","07,5,+00120,1,99,9",,,"07,99,1,99,9,99,9,99999,9,99,9,99,9","10102,1,99999,9","63,1",,,,"MET054METAR EKVJ 281350Z 33012KT 3000 RA BKN004 16/16 Q1010;",
"06066099999","2010-07-29T06:20:00","4","55.990122","8.353906","5.18","STAUNING, DA","FM-15","EKVJ ","V020","320,1,N,0051,1","01200,1,C,N","011265,1,N,1","+0170,1","+0160,1","99999,9","04,5,+00300,1,99,9","07,5,+01200,1,99,9",,"07,99,1,99,9,99,9,99999,9,99,9,99,9","10071,1,99999,9",,,,,"MET058METAR EKVJ 290620Z 32010KT 9999 SCT010 BKN040 17/16 Q1007;",
"06066099999","2010-07-29T06:50:00","4","55.990122","8.353906","5.18","STAUNING, DA","FM-15","EKVJ ","V020","320,1,N,0051,1","01200,1,C,N","011265,1,N,1","+0170,1","+0160,1","99999,9","04,5,+00240,1,99,9","07,5,+01200,1,99,9",,"07,99,1,99,9,99,9,99999,9,99,9,99,9","10071,1,99999,9",,,,,"MET058METAR EKVJ 290650Z 32010KT 9999 SCT008 BKN040 17/16 Q1007;",
"06066099999","2010-07-29T07:50:00","4","55.990122","8.353906","5.18","STAUNING, DA","FM-15","EKVJ ","V020","320,1,N,0051,1","01200,1,C,N","011265,1,N,1","+0180,1","+0160,1","99999,9","04,5,+00240,1,99,9","07,5,+01200,1,99,9",,"07,99,1,99,9,99,9,99999,9,99,9,99,9","10061,1,99999,9",,,,,"MET058METAR EKVJ 290750Z 32010KT 9999 SCT008 BKN040 18/16 Q1006;",
"06066099999","2010-07-29T08:50:00","4","55.990122","8.353906","5.18","STAUNING, DA","FM-15","EKVJ ","V020","320,1,N,0051,1","01200,1,C,N","011265,1,N,1","+0180,1","+0160,1","99999,9","04,5,+00240,1,99,9","07,5,+01200,1,99,9",,"07,99,1,99,9,99,9,99999,9,99,9,99,9","10061,1,99999,9",,,,,"MET058METAR EKVJ 290850Z 32010KT 9999 SCT008 BKN040 18/16 Q1006;",
"06066099999","2010-07-29T09:50:00","4","55.990122","8.353906","5.18","STAUNING, DA","FM-15","EKVJ ","V020","310,1,N,0062,1","01200,1,C,N","011265,1,N,1","+0190,1","+0170,1","99999,9","04,5,+00300,1,99,9","07,5,+01200,1,99,9",,"07,99,1,99,9,99,9,99999,9,99,9,99,9","10061,1,99999,9",,,,,"MET058METAR EKVJ 290950Z 31012KT 9999 SCT010 BKN040 19/17 Q1006;",
"06066099999","2010-07-29T10:50:00","4","55.990122","8.353906","5.18","STAUNING, DA","FM-15","EKVJ ","V020","310,1,N,0062,1","01200,1,C,N","011265,1,N,1","+0190,1","+0170,1","99999,9","04,5,+00360,1,99,9","07,5,+01200,1,99,9",,"07,99,1,99,9,99,9,99999,9,99,9,99,9","10061,1,99999,9",,,,,"MET058METAR EKVJ 291050Z 31012KT 9999 SCT012 BKN040 19/17 Q1006;",
"06066099999","2010-07-29T11:50:00","4","55.990122","8.353906","5.18","STAUNING, DA","FM-15","EKVJ ","V020","310,1,N,0062,1","01200,1,C,N","011265,1,N,1","+0190,1","+0160,1","99999,9","04,5,+00600,1,99,9","07,5,+01200,1,99,9",,"07,99,1,99,9,99,9,99999,9,99,9,99,9","10061,1,99999,9",,,,,"MET058METAR EKVJ 291150Z 31012KT 9999 SCT020 BKN040 19/16 Q1006;",
"06066099999","2010-07-29T12:50:00","4","55.990122","8.353906","5.18","STAUNING, DA","FM-15","EKVJ ","V020","310,1,N,0072,1","01200,1,C,N","011265,1,N,1","+0190,1","+0160,1","99999,9","04,5,+00600,1,99,9","07,5,+01200,1,99,9",,"07,99,1,99,9,99,9,99999,9,99,9,99,9","10061,1,99999,9",,,,,"MET058METAR EKVJ 291250Z 31014KT 9999 SCT020 BKN040 19/16 Q1006;",
"06066099999","2010-07-29T13:50:00","4","55.990122","8.353906","5.18","STAUNING, DA","FM-15","EKVJ ","V020","310,1,N,0072,1","00390,1,C,N","011265,1,N,1","+0180,1","+0160,1","99999,9","07,5,+00390,1,99,9",,,"07,99,1,99,9,99,9,99999,9,99,9,99,9","10061,1,99999,9",,,,,"MET051METAR EKVJ 291350Z 31014KT 9999 BKN013 18/16 Q1006;",
"06066099999","2010-07-30T06:20:00","4","55.990122","8.353906","5.18","STAUNING, DA","FM-15","EKVJ ","V020","290,1,N,0082,1","00300,1,C,N","011265,1,N,1","+0150,1","+0140,1","99999,9","07,5,+00300,1,99,9",,,"07,99,1,99,9,99,9,99999,9,99,9,99,9","10041,1,99999,9","61,1",,,,"MET055METAR EKVJ 300620Z 29016KT 9999 -RA BKN010 15/14 Q1004;",
"06066099999","2010-07-30T06:50:00","4","55.990122","8.353906","5.18","STAUNING, DA","FM-15","EKVJ ","V020","290,1,N,0082,1","00300,1,C,N","005000,1,N,1","+0150,1","+0140,1","99999,9","04,5,+00180,1,99,9","07,5,+00300,1,99,9",,"07,99,1,99,9,99,9,99999,9,99,9,99,9","10041,1,99999,9","61,1",,,,"MET062METAR EKVJ 300650Z 29016KT 5000 -RA SCT006 BKN010 15/14 Q1004;",
"06066099999","2010-07-30T07:50:00","4","55.990122","8.353906","5.18","STAUNING, DA","FM-15","EKVJ ","V020","280,1,N,0093,1","00150,1,C,N","004000,1,N,1","+0150,1","+0140,1","99999,9","07,5,+00150,1,99,9",,,"07,99,1,99,9,99,9,99999,9,99,9,99,9","10051,1,99999,9","61,1",,,,"MET063METAR EKVJ 300750Z 28018KT 240V310 4000 -RA BKN005 15/14 Q1005;",
"06066099999","2010-07-30T08:50:00","4","55.990122","8.353906","5.18","STAUNING, DA","FM-15","EKVJ ","V020","280,1,N,0072,1","00300,1,C,N","008000,1,N,1","+0150,1","+0140,1","99999,9","02,5,+00150,1,99,9","07,5,+00300,1,99,9",,"07,99,1,99,9,99,9,99999,9,99,9,99,9","10051,1,99999,9",,,,"0134,1","MET069METAR EKVJ 300850Z 28014G26KT 240V310 8000 FEW005 BKN010 15/14 Q1005;",
"06066099999","2010-07-30T09:50:00","4","55.990122","8.353906","5.18","STAUNING, DA","FM-15","EKVJ ","V020","280,1,N,0082,1","00450,1,C,N","011265,1,N,1","+0150,1","+0140,1","99999,9","04,5,+00270,1,99,9","07,5,+00450,1,99,9",,"07,99,1,99,9,99,9,99999,9,99,9,99,9","10061,1,99999,9",,,,"0134,1","MET069METAR EKVJ 300950Z 28016G26KT 230V310 9999 SCT009 BKN015 15/14 Q1006;",
"06066099999","2010-07-30T10:50:00","4","55.990122","8.353906","5.18","STAUNING, DA","FM-15","EKVJ ","V020","280,1,N,0082,1","00450,1,C,N","011265,1,N,1","+0160,1","+0150,1","99999,9","04,5,+00270,1,99,9","07,5,+00450,1,99,9",,"07,99,1,99,9,99,9,99999,9,99,9,99,9","10061,1,99999,9",,,,"0134,1","MET069METAR EKVJ 301050Z 28016G26KT 230V310 9999 SCT009 BKN015 16/15 Q1006;",
"06066099999","2010-07-30T11:50:00","4","55.990122","8.353906","5.18","STAUNING, DA","FM-15","EKVJ ","V020","280,1,N,0082,1","00450,1,C,N","011265,1,N,1","+0160,1","+0150,1","99999,9","04,5,+00270,1,99,9","07,5,+00450,1,99,9",,"07,99,1,99,9,99,9,99999,9,99,9,99,9","10071,1,99999,9",,,,"0134,1","MET069METAR EKVJ 301150Z 28016G26KT 230V310 9999 SCT009 BKN015 16/15 Q1007;",
"06066099999","2010-07-30T12:50:00","4","55.990122","8.353906","5.18","STAUNING, DA","FM-15","EKVJ ","V020","280,1,N,0082,1","00450,1,C,N","011265,1,N,1","+0160,1","+0150,1","99999,9","04,5,+00270,1,99,9","07,5,+00450,1,99,9",,"07,99,1,99,9,99,9,99999,9,99,9,99,9","10071,1,99999,9","51,1",,,"0134,1","MET073METAR EKVJ 301250Z 28016G26KT 230V310 9999 -DZ SCT009 BKN015 16/15 Q1007;",
"06066099999","2010-07-30T13:50:00","4","55.990122","8.353906","5.18","STAUNING, DA","FM-15","EKVJ ","V020","280,1,N,0072,1","00450,1,C,N","011265,1,N,1","+0160,1","+0150,1","99999,9","04,5,+00270,1,99,9","07,5,+00450,1,99,9",,"07,99,1,99,9,99,9,99999,9,99,9,99,9","10081,1,99999,9","51,1","61,1",,"0123,1","MET075METAR EKVJ 301350Z 28014G24KT 230V310 9999 -DZRA SCT009 BKN015 16/15 Q1008;",
"06066099999","2010-07-31T08:20:00","4","55.990122","8.353906","5.18","STAUNING, DA","FM-15","EKVJ ","V020","999,9,9,9999,9","02400,5,9,N","011265,1,N,1","+0190,1","+0150,1","99999,9","02,5,+00900,5,99,9","07,5,+02400,5,99,9",,,"10110,1,99999,9",,,,,"MET057METAR EKVJ 310820Z 20012K 9999 FEW030 BKN080 19/15 Q1011;",
"06066099999","2010-07-31T08:50:00","4","55.990122","8.353906","5.18","STAUNING, DA","FM-15","EKVJ ","V020","999,9,9,9999,9","02400,5,9,N","011265,1,N,1","+0190,1","+0150,1","99999,9","02,5,+00900,5,99,9","07,5,+02400,5,99,9",,,"10110,1,99999,9",,,,,"MET057METAR EKVJ 310850Z 21012K 9999 FEW030 BKN080 19/15 Q1011;",
"06066099999","2010-07-31T09:50:00","4","55.990122","8.353906","5.18","STAUNING, DA","FM-15","EKVJ ","V020","999,9,9,9999,9","02400,5,9,N","011265,1,N,1","+0190,1","+0170,1","99999,9","02,5,+00900,5,99,9","07,5,+02400,5,99,9",,,"10110,1,99999,9",,,,,"MET057METAR EKVJ 310950Z 21014K 9999 FEW030 BKN080 19/17 Q1011;",
"06066099999","2010-07-31T10:50:00","4","55.990122","8.353906","5.18","STAUNING, DA","FM-15","EKVJ ","V020","999,9,9,9999,9","02400,5,9,N","011265,1,N,1","+0190,1","+0170,1","99999,9","02,5,+00900,5,99,9","07,5,+02400,5,99,9",,,"10110,1,99999,9",,,,,"MET057METAR EKVJ 311050Z 21014K 9999 FEW030 BKN080 19/17 Q1011;",
"06066099999","2010-07-31T11:50:00","4","55.990122","8.353906","5.18","STAUNING, DA","FM-15","EKVJ ","V020","999,9,9,9999,9","02400,5,9,N","011265,1,N,1","+0190,1","+0170,1","99999,9","04,5,+00900,5,99,9","07,5,+02400,5,99,9",,,"10110,1,99999,9",,,,,"MET057METAR EKVJ 311150Z 21014K 9999 SCT030 BKN080 19/17 Q1011;",
"06066099999","2010-07-31T12:50:00","4","55.990122","8.353906","5.18","STAUNING, DA","FM-15","EKVJ ","V020","999,9,9,9999,9","01500,5,9,N","999999,9,N,1","+0190,1","+0170,1","99999,9","04,5,+00600,5,99,9","07,5,+01500,5,99,9",,,"10110,1,99999,9",,,,,"MET061METAR EKVJ 311250Z 21016K 5000 -RA SCT020 BKN050 19/17 Q1011;",
"06066099999","2010-07-31T13:50:00","4","55.990122","8.353906","5.18","STAUNING, DA","FM-15","EKVJ ","V020","999,9,9,9999,9","00750,5,9,N","999999,9,N,1","+0190,1","+0170,1","99999,9","02,5,+00180,5,99,9","07,5,+00750,5,99,9",,,"10110,1,99999,9",,,,,"MET061METAR EKVJ 311350Z 21016K 5000 -RZ FEW006 BKN025 19/17 Q1011;",
"06066099999","2010-08-02T06:20:00","4","55.990122","8.353906","5.18","STAUNING, DA","FM-15","EKVJ ","V020","999,9,9,9999,9","03000,5,9,N","011265,1,N,1","+0170,1","+0160,1","99999,9","02,5,+00750,5,99,9","07,5,+03000,5,99,9",,,"10140,1,99999,9",,,,,"MET057METAR EKVJ 020620Z 00000K 9999 FEW025 BKN100 17/16 Q1014;",
"06066099999","2010-08-02T06:50:00","4","55.990122","8.353906","5.18","STAUNING, DA","FM-15","EKVJ ","V020","280,1,N,0015,1","03000,1,C,N","011265,1,N,1","+0170,1","+0160,1","99999,9","04,5,+00900,1,99,9","07,5,+03000,1,99,9",,"07,99,1,99,9,99,9,99999,9,99,9,99,9","10139,1,99999,9",,,,,"MET058METAR EKVJ 020650Z 28003KT 9999 SCT030 BKN100 17/16 Q1014;",
"06066099999","2010-08-02T07:50:00","4","55.990122","8.353906","5.18","STAUNING, DA","FM-15","EKVJ ","V020","300,1,N,0015,1","03000,1,C,N","011265,1,N,1","+0180,1","+0150,1","99999,9","04,5,+00750,1,99,9","07,5,+03000,1,99,9",,"07,99,1,99,9,99,9,99999,9,99,9,99,9","10139,1,99999,9",,,,,"MET058METAR EKVJ 020750Z 30003KT 9999 SCT025 BKN100 18/15 Q1014;",
"06066099999","2010-08-02T08:50:00","4","55.990122","8.353906","5.18","STAUNING, DA","FM-15","EKVJ ","V020","300,1,N,0015,1","03000,1,C,N","011265,1,N,1","+0190,1","+0150,1","99999,9","04,5,+00750,1,99,9","07,5,+03000,1,99,9",,"07,99,1,99,9,99,9,99999,9,99,9,99,9","10139,1,99999,9",,,,,"MET058METAR EKVJ 020850Z 30003KT 9999 SCT025 BKN100 19/15 Q1014;",
"06066099999","2010-08-02T09:50:00","4","55.990122","8.353906","5.18","STAUNING, DA","FM-15","EKVJ ","V020","300,1,N,0021,1","03000,1,C,N","011265,1,N,1","+0190,1","+0150,1","99999,9","04,5,+00750,1,99,9","07,5,+03000,1,99,9",,"07,99,1,99,9,99,9,99999,9,99,9,99,9","10139,1,99999,9",,,,,"MET058METAR EKVJ 020950Z 30004KT 9999 SCT025 BKN100 19/15 Q1014;",
"06066099999","2010-08-02T10:50:00","4","55.990122","8.353906","5.18","STAUNING, DA","FM-15","EKVJ ","V020","300,1,N,0021,1","02400,1,C,N","011265,1,N,1","+0190,1","+0150,1","99999,9","02,5,+00750,1,99,9","07,5,+02400,1,99,9",,"07,99,1,99,9,99,9,99999,9,99,9,99,9","10139,1,99999,9",,,,,"MET058METAR EKVJ 021050Z 30004KT 9999 FEW025 BKN080 19/15 Q1014;",
"06066099999","2010-08-02T11:50:00","4","55.990122","8.353906","5.18","STAUNING, DA","FM-15","EKVJ ","V020","300,1,N,0031,1","99999,9,C,N","011265,1,N,1","+0200,1","+0160,1","99999,9","02,5,+00750,1,99,9","04,5,+02400,1,99,9",,"04,99,1,99,9,99,9,99999,9,99,9,99,9","10139,1,99999,9",,,,,"MET058METAR EKVJ 021150Z 30006KT 9999 FEW025 SCT080 20/16 Q1014;","P01 024003SCOCIG"
"06066099999","2010-08-02T12:50:00","4","55.990122","8.353906","5.18","STAUNING, DA","FM-15","EKVJ ","V020","300,1,N,0031,1","22000,1,9,N","011265,1,N,1","+0200,1","+0150,1","99999,9","02,5,+00750,1,99,9",,,"02,99,1,99,9,99,9,99999,9,99,9,99,9","10139,1,99999,9",,,,,"MET051METAR EKVJ 021250Z 30006KT 9999 FEW025 20/15 Q1014;",
"06066099999","2010-08-02T13:50:00","4","55.990122","8.353906","5.18","STAUNING, DA","FM-15","EKVJ ","V020","300,1,N,0031,1","22000,1,9,N","011265,1,N,1","+0200,1","+0150,1","99999,9","02,5,+00750,1,99,9",,,"02,99,1,99,9,99,9,99999,9,99,9,99,9","10139,1,99999,9",,,,,"MET051METAR EKVJ 021350Z 30006KT 9999 FEW025 20/15 Q1014;",
"06066099999","2010-08-03T06:20:00","4","55.990122","8.353906","5.18","STAUNING, DA","FM-15","EKVJ ","V020","999,9,C,0000,1","00750,1,9,N","011265,1,N,1","+0160,1","+0140,1","99999,9","07,1,+00750,1,99,9",,,"07,99,1,99,9,99,9,99999,9,99,9,99,9","10139,1,99999,9",,,,,"MET050METAR EKVJ 030620Z 00000KT 9999 BKN25 16/14 Q1014;",
"06066099999","2010-08-03T06:50:00","4","55.990122","8.353906","5.18","STAUNING, DA","FM-15","EKVJ ","V020","320,1,N,0015,1","00750,1,9,N","011265,1,N,1","+0160,1","+0140,1","99999,9","07,1,+00750,1,99,9",,,"07,99,1,99,9,99,9,99999,9,99,9,99,9","10139,1,99999,9",,,,,"MET050METAR EKVJ 030650Z 32003KT 9999 BKN25 16/14 Q1014;",
"06066099999","2010-08-03T07:50:00","4","55.990122","8.353906","5.18","STAUNING, DA","FM-15","EKVJ ","V020","320,1,N,0026,1","00750,1,9,N","011265,1,N,1","+0170,1","+0140,1","99999,9","07,1,+00750,1,99,9",,,"07,99,1,99,9,99,9,99999,9,99,9,99,9","10139,1,99999,9",,,,,"MET050METAR EKVJ 030750Z 32005KT 9999 BKN25 17/14 Q1014;",
"06066099999","2010-08-03T08:50:00","4","55.990122","8.353906","5.18","STAUNING, DA","FM-15","EKVJ ","V020","330,1,N,0026,1","00900,1,C,N","011265,1,N,1","+0170,1","+0140,1","99999,9","07,5,+00900,5,99,9","07,1,+00900,1,99,9",,"07,99,1,99,9,99,9,99999,9,99,9,99,9","10139,1,99999,9",,,,,"MET057METAR EKVJ 030850Z 33005KT 9999 SCT25 BKN030 17/14 Q1014;",
"06066099999","2010-08-03T09:50:00","4","55.990122","8.353906","5.18","STAUNING, DA","FM-15","EKVJ ","V020","330,1,N,0026,1","00900,1,C,N","011265,1,N,1","+0180,1","+0140,1","99999,9","07,5,+00900,5,99,9","07,1,+00900,1,99,9",,"07,99,1,99,9,99,9,99999,9,99,9,99,9","10139,1,99999,9",,,,,"MET057METAR EKVJ 030950Z 33005KT 9999 SCT25 BKN030 18/14 Q1014;",
"06066099999","2010-08-03T10:50:00","4","55.990122","8.353906","5.18","STAUNING, DA","FM-15","EKVJ ","V020","330,1,N,0051,1","01050,1,C,N","011265,1,N,1","+0180,1","+0140,1","99999,9","07,5,+01050,5,99,9","07,1,+01050,1,99,9",,"07,99,1,99,9,99,9,99999,9,99,9,99,9","10139,1,99999,9",,,,,"MET057METAR EKVJ 031050Z 33010KT 9999 FEW25 BKN035 18/14 Q1014;",
"06066099999","2010-08-03T11:50:00","4","55.990122","8.353906","5.18","STAUNING, DA","FM-15","EKVJ ","V020","330,1,N,0051,1","01050,1,C,N","011265,1,N,1","+0180,1","+0130,1","99999,9","07,5,+01050,5,99,9","07,1,+01050,1,99,9",,"07,99,1,99,9,99,9,99999,9,99,9,99,9","10139,1,99999,9",,,,,"MET057METAR EKVJ 031150Z 33010KT 9999 FEW25 BKN035 18/13 Q1014;",
"06066099999","2010-08-03T12:50:00","4","55.990122","8.353906","5.18","STAUNING, DA","FM-15","EKVJ ","V020","330,1,N,0051,1","22000,1,9,N","011265,1,N,1","+0190,1","+0130,1","99999,9","04,5,+01350,5,99,9","04,1,+01350,1,99,9",,"04,99,1,99,9,99,9,99999,9,99,9,99,9","10139,1,99999,9",,,,,"MET057METAR EKVJ 031250Z 33010KT 9999 FEW30 SCT045 19/13 Q1014;",
"06066099999","2010-08-03T13:50:00","4","55.990122","8.353906","5.18","STAUNING, DA","FM-15","EKVJ ","V020","330,1,N,0051,1","01050,1,C,N","011265,1,N,1","+0180,1","+0110,1","99999,9","07,5,+01050,1,99,9",,,"07,99,1,99,9,99,9,99999,9,99,9,99,9","10139,1,99999,9",,,,,"MET051METAR EKVJ 031350Z 33010KT 9999 BKN035 18/11 Q1014;",
"06066099999","2010-08-04T06:20:00","4","55.990122","8.353906","5.18","STAUNING, DA","FM-15","EKVJ ","V020","130,1,N,0031,1","01500,1,C,N","011265,1,N,1","+0190,1","+0190,1","99999,9","04,5,+00600,1,99,9","07,5,+01500,1,99,9",,"07,99,1,99,9,99,9,99999,9,99,9,99,9","10081,1,99999,9","51,1",,,,"MET062METAR EKVJ 040620Z 13006KT 9999 -DZ SCT020 BKN050 19/19 Q1008;",
"06066099999","2010-08-04T06:50:00","4","55.990122","8.353906","5.18","STAUNING, DA","FM-15","EKVJ ","V020","140,1,N,0041,1","01500,1,C,N","011265,1,N,1","+0190,1","+0190,1","99999,9","04,5,+00600,1,99,9","07,5,+01500,1,99,9",,"07,99,1,99,9,99,9,99999,9,99,9,99,9","10081,1,99999,9","51,1",,,,"MET062METAR EKVJ 040650Z 14008KT 9999 -DZ SCT020 BKN050 19/19 Q1008;",
"06066099999","2010-08-04T07:50:00","4","55.990122","8.353906","5.18","STAUNING, DA","FM-15","EKVJ ","V020","210,1,N,0041,1","00600,1,C,N","011265,1,N,1","+0170,1","+0160,1","99999,9","07,5,+00600,1,99,9",,,"07,99,1,99,9,99,9,99999,9,99,9,99,9","10071,1,99999,9",,,,,"MET051METAR EKVJ 040750Z 21008KT 9999 BKN020 17/16 Q1007;",
"06066099999","2010-08-04T08:50:00","4","55.990122","8.353906","5.18","STAUNING, DA","FM-15","EKVJ ","V020","220,1,N,0051,1","03000,1,C,N","011265,1,N,1","+0180,1","+0160,1","99999,9","04,5,+00600,1,09,1","07,5,+03000,1,99,9",,"07,99,1,99,9,99,9,99999,9,99,9,99,9","10071,1,99999,9",,,,,"MET060METAR EKVJ 040850Z 22010KT 9999 SCT020CB BKN100 18/16 Q1007;",
"06066099999","2010-08-04T09:50:00","4","55.990122","8.353906","5.18","STAUNING, DA","FM-15","EKVJ ","V020","220,1,N,0051,1","03000,1,C,N","011265,1,N,1","+0180,1","+0150,1","99999,9","02,5,+00600,1,99,9","07,5,+03000,1,99,9",,"07,99,1,99,9,99,9,99999,9,99,9,99,9","10071,1,99999,9",,,,,"MET058METAR EKVJ 040950Z 22010KT 9999 FEW020 BKN100 18/15 Q1007;",
"06066099999","2010-08-04T11:20:00","4","55.990122","8.353906","5.18","STAUNING, DA","FM-15","EKVJ ","V020","220,1,N,0051,1","03000,1,C,N","011265,1,N,1","+0190,1","+0150,1","99999,9","02,5,+00600,1,99,9","07,5,+03000,1,99,9",,"07,99,1,99,9,99,9,99999,9,99,9,99,9","10061,1,99999,9",,,,,"MET058METAR EKVJ 041120Z 22010KT 9999 FEW020 BKN100 19/15 Q1006;",
"06066099999","2010-08-04T11:50:00","4","55.990122","8.353906","5.18","STAUNING, DA","FM-15","EKVJ ","V020","230,1,N,0051,1","03000,1,C,N","011265,1,N,1","+0200,1","+0150,1","99999,9","02,5,+00600,1,99,9","07,5,+03000,1,99,9",,"07,99,1,99,9,99,9,99999,9,99,9,99,9","10061,1,99999,9",,,,,"MET058METAR EKVJ 041150Z 23010KT 9999 FEW020 BKN100 20/15 Q1006;",
"06066099999","2010-08-04T12:50:00","4","55.990122","8.353906","5.18","STAUNING, DA","FM-15","EKVJ ","V020","230,1,N,0041,1","03000,1,C,N","011265,1,N,1","+0200,1","+0150,1","99999,9","04,5,+00600,1,99,9","07,5,+03000,1,99,9",,"07,99,1,99,9,99,9,99999,9,99,9,99,9","10061,1,99999,9",,,,,"MET058METAR EKVJ 041250Z 23008KT 9999 SCT020 BKN100 20/15 Q1006;",
"06066099999","2010-08-04T13:50:00","4","55.990122","8.353906","5.18","STAUNING, DA","FM-15","EKVJ ","V020","230,1,N,0041,1","02400,1,C,N","011265,1,N,1","+0190,1","+0150,1","99999,9","04,5,+00600,1,02,1","07,5,+02400,1,99,9",,"07,99,1,99,9,99,9,99999,9,99,9,99,9","10051,1,99999,9",,,,,"MET061METAR EKVJ 041350Z 23008KT 9999 SCT020TCU BKN080 19/15 Q1005;",
"06066099999","2010-08-05T06:20:00","4","55.990122","8.353906","5.18","STAUNING, DA","FM-15","EKVJ ","V020","160,1,N,0031,1","01500,1,C,N","011265,1,N,1","+0160,1","+0160,1","99999,9","02,5,+00150,1,99,9","07,5,+01500,1,99,9",,"07,99,1,99,9,99,9,99999,9,99,9,99,9","10061,1,99999,9",,,,,"MET058METAR EKVJ 050620Z 16006KT 9999 FEW005 BKN050 16/16 Q1006;",
"06066099999","2010-08-05T06:50:00","4","55.990122","8.353906","5.18","STAUNING, DA","FM-15","EKVJ ","V020","140,1,N,0031,1","01800,1,C,N","011265,1,N,1","+0160,1","+0160,1","99999,9","02,5,+00150,1,99,9","07,5,+01800,1,99,9",,"07,99,1,99,9,99,9,99999,9,99,9,99,9","10061,1,99999,9",,,,,"MET058METAR EKVJ 050650Z 14006KT 9999 FEW005 BKN060 16/16 Q1006;",
"06066099999","2010-08-05T07:50:00","4","55.990122","8.353906","5.18","STAUNING, DA","FM-15","EKVJ ","V020","160,1,N,0041,1","02400,1,C,N","011265,1,N,1","+0170,1","+0160,1","99999,9","02,5,+00240,1,99,9","07,5,+02400,1,99,9",,"07,99,1,99,9,99,9,99999,9,99,9,99,9","10061,1,99999,9",,,,,"MET058METAR EKVJ 050750Z 16008KT 9999 FEW008 BKN080 17/16 Q1006;",
"06066099999","2010-08-05T08:50:00","4","55.990122","8.353906","5.18","STAUNING, DA","FM-15","EKVJ ","V020","160,1,N,0041,1","00540,1,C,N","011265,1,N,1","+0180,1","+0160,1","99999,9","07,5,+00540,1,09,1",,,"07,99,1,99,9,99,9,99999,9,99,9,99,9","10061,1,99999,9",,,,,"MET053METAR EKVJ 050850Z 16008KT 9999 BKN018CB 18/16 Q1006;",
"06066099999","2010-08-05T09:50:00","4","55.990122","8.353906","5.18","STAUNING, DA","FM-15","EKVJ ","V020","200,1,N,0041,1","00600,1,C,N","011265,1,N,1","+0170,1","+0160,1","99999,9","07,5,+00600,1,09,1",,,"07,99,1,99,9,99,9,99999,9,99,9,99,9","10061,1,99999,9","61,1",,,,"MET057METAR EKVJ 050950Z 20008KT 9999 -RA BKN020CB 17/16 Q1006;",
"06066099999","2010-08-05T10:50:00","4","55.990122","8.353906","5.18","STAUNING, DA","FM-15","EKVJ ","V020","180,1,N,0062,1","00750,1,C,N","011265,1,N,1","+0180,1","+0170,1","99999,9","07,5,+00750,1,99,9",,,"07,99,1,99,9,99,9,99999,9,99,9,99,9","10061,1,99999,9",,,,,"MET051METAR EKVJ 051050Z 18012KT 9999 BKN025 18/17 Q1006;",
"06066099999","2010-08-05T11:50:00","4","55.990122","8.353906","5.18","STAUNING, DA","FM-15","EKVJ ","V020","170,1,N,0062,1","00750,1,C,N","011265,1,N,1","+0180,1","+0170,1","99999,9","07,5,+00750,1,99,9",,,"07,99,1,99,9,99,9,99999,9,99,9,99,9","10061,1,99999,9",,,,,"MET051METAR EKVJ 051150Z 17012KT 9999 BKN025 18/17 Q1006;",
"06066099999","2010-08-05T12:50:00","4","55.990122","8.353906","5.18","STAUNING, DA","FM-15","EKVJ ","V020","180,1,N,0062,1","00750,1,C,N","011265,1,N,1","+0190,1","+0170,1","99999,9","07,5,+00750,1,99,9",,,"07,99,1,99,9,99,9,99999,9,99,9,99,9","10061,1,99999,9",,,,,"MET051METAR EKVJ 051250Z 18012KT 9999 BKN025 19/17 Q1006;",
"06066099999","2010-08-05T13:50:00","4","55.990122","8.353906","5.18","STAUNING, DA","FM-15","EKVJ ","V020","180,1,N,0062,1","22000,1,9,N","011265,1,N,1","+0190,1","+0170,1","99999,9","04,5,+00750,1,99,9",,,"04,99,1,99,9,99,9,99999,9,99,9,99,9","10081,1,99999,9",,,,,"MET051METAR EKVJ 051350Z 18012KT 9999 SCT025 19/17 Q1008;",
"06066099999","2010-08-06T06:20:00","4","55.990122","8.353906","5.18","STAUNING, DA","FM-15","EKVJ ","V020","280,1,N,0031,1","22000,1,9,N","011265,1,N,1","+0170,1","+0140,1","99999,9","02,5,+00750,1,99,9",,,"02,99,1,99,9,99,9,99999,9,99,9,99,9","10159,1,99999,9",,,,,"MET051METAR EKVJ 060620Z 28006KT 9999 FEW025 17/14 Q1016;",
"06066099999","2010-08-06T06:50:00","4","55.990122","8.353906","5.18","STAUNING, DA","FM-15","EKVJ ","V020","280,1,N,0031,1","22000,1,9,N","011265,1,N,1","+0170,1","+0140,1","99999,9","02,5,+00600,1,99,9",,,"02,99,1,99,9,99,9,99999,9,99,9,99,9","10159,1,99999,9",,,,,"MET051METAR EKVJ 060650Z 28006KT 9999 FEW020 17/14 Q1016;",
"06066099999","2010-08-06T07:50:00","4","55.990122","8.353906","5.18","STAUNING, DA","FM-15","EKVJ ","V020","270,1,N,0031,1","22000,1,9,N","011265,1,N,1","+0180,1","+0140,1","99999,9","02,5,+00600,1,99,9",,,"02,99,1,99,9,99,9,99999,9,99,9,99,9","10159,1,99999,9",,,,,"MET051METAR EKVJ 060750Z 27006KT 9999 FEW020 18/14 Q1016;",
"06066099999","2010-08-06T08:50:00","4","55.990122","8.353906","5.18","STAUNING, DA","FM-15","EKVJ ","V020","260,1,N,0031,1","22000,1,9,N","011265,1,N,1","+0180,1","+0140,1","99999,9","02,5,+00750,1,99,9",,,"02,99,1,99,9,99,9,99999,9,99,9,99,9","10169,1,99999,9",,,,,"MET051METAR EKVJ 060850Z 26006KT 9999 FEW025 18/14 Q1017;",
"06066099999","2010-08-06T09:50:00","4","55.990122","8.353906","5.18","STAUNING, DA","FM-15","EKVJ ","V020","240,1,N,0031,1","22000,1,9,N","011265,1,N,1","+0190,1","+0140,1","99999,9","02,5,+00900,1,99,9",,,"02,99,1,99,9,99,9,99999,9,99,9,99,9","10169,1,99999,9",,,,,"MET051METAR EKVJ 060950Z 24006KT 9999 FEW030 19/14 Q1017;",
"06066099999","2010-08-06T10:50:00","4","55.990122","8.353906","5.18","STAUNING, DA","FM-15","EKVJ ","V020","240,1,N,0031,1","22000,1,9,N","011265,1,N,1","+0190,1","+0140,1","99999,9","02,5,+00900,1,99,9",,,"02,99,1,99,9,99,9,99999,9,99,9,99,9","10169,1,99999,9",,,,,"MET051METAR EKVJ 061050Z 24006KT 9999 FEW030 19/14 Q1017;",
"06066099999","2010-08-06T11:50:00","4","55.990122","8.353906","5.18","STAUNING, DA","FM-15","EKVJ ","V020","240,1,N,0031,1","22000,1,9,N","011265,1,N,1","+0190,1","+0140,1","99999,9","02,5,+00900,1,99,9",,,"02,99,1,99,9,99,9,99999,9,99,9,99,9","10169,1,99999,9",,,,,"MET051METAR EKVJ 061150Z 24006KT 9999 FEW030 19/14 Q1017;",
"06066099999","2010-08-06T12:50:00","4","55.990122","8.353906","5.18","STAUNING, DA","FM-15","EKVJ ","V020","240,1,N,0041,1","22000,1,9,N","011265,1,N,1","+0200,1","+0150,1","99999,9","02,5,+00900,1,99,9",,,"02,99,1,99,9,99,9,99999,9,99,9,99,9","10169,1,99999,9",,,,,"MET051METAR EKVJ 061250Z 24008KT 9999 FEW030 20/15 Q1017;",
"06066099999","2010-08-06T13:50:00","4","55.990122","8.353906","5.18","STAUNING, DA","FM-15","EKVJ ","V020","240,1,N,0051,1","22000,1,9,N","011265,1,N,1","+0200,1","+0150,1","99999,9","02,5,+00900,1,99,9",,,"02,99,1,99,9,99,9,99999,9,99,9,99,9","10180,1,99999,9",,,,,"MET051METAR EKVJ 061350Z 24010KT 9999 FEW030 20/15 Q1018;",
"06066099999","2010-08-09T06:20:00","4","55.990122","8.353906","5.18","STAUNING, DA","FM-15","EKVJ ","V020","290,1,N,0062,1","00750,1,C,N","011265,1,N,1","+0150,1","+0120,1","99999,9","02,5,+00600,1,99,9","07,5,+00750,1,99,9",,"07,99,1,99,9,99,9,99999,9,99,9,99,9","10139,1,99999,9",,,,,"MET058METAR EKVJ 090620Z 29012KT 9999 FEW020 BKN025 15/12 Q1014;",
"06066099999","2010-08-09T06:50:00","4","55.990122","8.353906","5.18","STAUNING, DA","FM-15","EKVJ ","V020","290,1,N,0051,1","00750,1,C,N","011265,1,N,1","+0150,1","+0120,1","99999,9","02,5,+00600,1,99,9","07,5,+00750,1,99,9",,"07,99,1,99,9,99,9,99999,9,99,9,99,9","10139,1,99999,9",,,,,"MET058METAR EKVJ 090650Z 29010KT 9999 FEW020 BKN025 15/12 Q1014;",
"06066099999","2010-08-09T07:50:00","4","55.990122","8.353906","5.18","STAUNING, DA","FM-15","EKVJ ","V020","290,1,N,0051,1","00750,1,C,N","011265,1,N,1","+0160,1","+0120,1","99999,9","02,5,+00600,1,99,9","07,5,+00750,1,99,9",,"07,99,1,99,9,99,9,99999,9,99,9,99,9","10139,1,99999,9",,,,,"MET058METAR EKVJ 090750Z 29010KT 9999 FEW020 BKN025 16/12 Q1014;",
"06066099999","2010-08-09T08:50:00","4","55.990122","8.353906","5.18","STAUNING, DA","FM-15","EKVJ ","V020","290,1,N,0051,1","00750,1,C,N","011265,1,N,1","+0160,1","+0120,1","99999,9","02,5,+00600,1,99,9","07,5,+00750,1,99,9",,"07,99,1,99,9,99,9,99999,9,99,9,99,9","10139,1,99999,9",,,,,"MET058METAR EKVJ 090850Z 29010KT 9999 FEW020 BKN025 16/12 Q1014;",
"06066099999","2010-08-09T09:50:00","4","55.990122","8.353906","5.18","STAUNING, DA","FM-15","EKVJ ","V020","290,1,N,0051,1","00900,1,C,N","011265,1,N,1","+0160,1","+0120,1","99999,9","04,5,+00600,1,99,9","07,5,+00900,1,99,9",,"07,99,1,99,9,99,9,99999,9,99,9,99,9","10149,1,99999,9",,,,,"MET058METAR EKVJ 090950Z 29010KT 9999 SCT020 BKN030 16/12 Q1015;",
"06066099999","2010-08-09T10:50:00","4","55.990122","8.353906","5.18","STAUNING, DA","FM-15","EKVJ ","V020","290,1,N,0051,1","00900,1,C,N","011265,1,N,1","+0160,1","+0120,1","99999,9","04,5,+00600,1,99,9","07,5,+00900,1,99,9",,"07,99,1,99,9,99,9,99999,9,99,9,99,9","10149,1,99999,9",,,,,"MET058METAR EKVJ 091050Z 29010KT 9999 SCT020 BKN030 16/12 Q1015;",
"06066099999","2010-08-09T11:50:00","4","55.990122","8.353906","5.18","STAUNING, DA","FM-15","EKVJ ","V020","290,1,N,0051,1","00900,1,C,N","011265,1,N,1","+0170,1","+0130,1","99999,9","04,5,+00600,1,99,9","07,5,+00900,1,99,9",,"07,99,1,99,9,99,9,99999,9,99,9,99,9","10149,1,99999,9",,,,,"MET058METAR EKVJ 091150Z 29010KT 9999 SCT020 BKN030 17/13 Q1015;",
"06066099999","2010-08-09T12:50:00","4","55.990122","8.353906","5.18","STAUNING, DA","FM-15","EKVJ ","V020","290,1,N,0051,1","00900,1,C,N","011265,1,N,1","+0180,1","+0130,1","99999,9","04,5,+00750,1,99,9","07,5,+00900,1,99,9",,"07,99,1,99,9,99,9,99999,9,99,9,99,9","10149,1,99999,9",,,,,"MET058METAR EKVJ 091250Z 29010KT 9999 SCT025 BKN030 18/13 Q1015;",
"06066099999","2010-08-09T13:50:00","4","55.990122","8.353906","5.18","STAUNING, DA","FM-15","EKVJ ","V020","290,1,N,0051,1","00900,1,C,N","011265,1,N,1","+0180,1","+0130,1","99999,9","04,5,+00750,1,99,9","07,5,+00900,1,99,9",,"07,99,1,99,9,99,9,99999,9,99,9,99,9","10149,1,99999,9",,,,,"MET058METAR EKVJ 091350Z 29010KT 9999 SCT025 BKN030 18/13 Q1015;",
"06066099999","2010-08-10T06:20:00","4","55.990122","8.353906","5.18","STAUNING, DA","FM-15","EKVJ ","V020","160,1,N,0041,1","99999,9,9,Y","009900,1,N,1","+0160,1","+0150,1","99999,9",,,,,"10139,1,99999,9",,,,,"MET045METAR EKVJ 100620Z 16008KT CAVOK 16/15 Q1014;",
"06066099999","2010-08-10T06:50:00","4","55.990122","8.353906","5.18","STAUNING, DA","FM-15","EKVJ ","V020","160,1,N,0041,1","99999,9,9,Y","009900,1,N,1","+0160,1","+0150,1","99999,9",,,,,"10139,1,99999,9",,,,,"MET045METAR EKVJ 100650Z 16008KT CAVOK 16/15 Q1014;",
"06066099999","2010-08-10T07:50:00","4","55.990122","8.353906","5.18","STAUNING, DA","FM-15","EKVJ ","V020","180,1,N,0051,1","99999,9,9,Y","009900,1,N,1","+0190,1","+0170,1","99999,9",,,,,"10139,1,99999,9",,,,,"MET045METAR EKVJ 100750Z 18010KT CAVOK 19/17 Q1014;",
"06066099999","2010-08-10T08:50:00","4","55.990122","8.353906","5.18","STAUNING, DA","FM-15","EKVJ ","V020","180,1,N,0051,1","99999,9,9,Y","009900,1,N,1","+0200,1","+0180,1","99999,9",,,,,"10129,1,99999,9",,,,,"MET045METAR EKVJ 100850Z 18010KT CAVOK 20/18 Q1013;",
"06066099999","2010-08-10T09:50:00","4","55.990122","8.353906","5.18","STAUNING, DA","FM-15","EKVJ ","V020","170,1,N,0062,1","22000,1,9,N","011265,1,N,1","+0210,1","+0160,1","99999,9","02,5,+00900,1,99,9",,,"02,99,1,99,9,99,9,99999,9,99,9,99,9","10129,1,99999,9",,,,,"MET051METAR EKVJ 100950Z 17012KT 9999 FEW030 21/16 Q1013;",
"06066099999","2010-08-10T10:50:00","4","55.990122","8.353906","5.18","STAUNING, DA","FM-15","EKVJ ","V020","180,1,N,0062,1","22000,1,9,N","011265,1,N,1","+0210,1","+0160,1","99999,9","02,5,+00900,1,99,9",,,"02,99,1,99,9,99,9,99999,9,99,9,99,9","10129,1,99999,9",,,,,"MET051METAR EKVJ 101050Z 18012KT 9999 FEW030 21/16 Q1013;",
"06066099999","2010-08-10T11:50:00","4","55.990122","8.353906","5.18","STAUNING, DA","FM-15","EKVJ ","V020","180,1,N,0062,1","99999,9,C,N","011265,1,N,1","+0230,1","+0150,1","99999,9","02,5,+00900,1,99,9","04,5,+07500,1,99,9",,"04,99,1,99,9,99,9,99999,9,99,9,99,9","10119,1,99999,9",,,,,"MET058METAR EKVJ 101150Z 18012KT 9999 FEW030 SCT250 23/15 Q1012;","P01 075003SCOCIG"
"06066099999","2010-08-10T13:20:00","4","55.990122","8.353906","5.18","STAUNING, DA","FM-15","EKVJ ","V020","170,1,N,0077,1","99999,9,C,N","011265,1,N,1","+0230,1","+0150,1","99999,9","02,5,+00900,1,99,9","04,5,+07500,1,99,9",,"04,99,1,99,9,99,9,99999,9,99,9,99,9","10119,1,99999,9",,,,,"MET058METAR EKVJ 101320Z 17015KT 9999 FEW030 SCT250 23/15 Q1012;","P01 075003SCOCIG"
"06066099999","2010-08-10T13:50:00","4","55.990122","8.353906","5.18","STAUNING, DA","FM-15","EKVJ ","V020","180,1,N,0082,1","06000,1,C,N","011265,1,N,1","+0230,1","+0150,1","99999,9","02,5,+00900,1,99,9","07,5,+06000,1,99,9",,"07,99,1,99,9,99,9,99999,9,99,9,99,9","10108,1,99999,9",,,,,"MET058METAR EKVJ 101350Z 18016KT 9999 FEW030 BKN200 23/15 Q1011;",
"06066099999","2010-08-11T06:20:00","4","55.990122","8.353906","5.18","STAUNING, DA","FM-15","EKVJ ","V020","170,1,N,0026,1","02100,1,C,N","011265,1,N,1","+0160,1","+0150,1","99999,9","02,5,+00600,1,99,9","07,5,+02100,1,99,9",,"07,99,1,99,9,99,9,99999,9,99,9,99,9","10091,1,99999,9",,,,,"MET058METAR EKVJ 110620Z 17005KT 9999 FEW020 BKN070 16/15 Q1009;",
"06066099999","2010-08-11T06:50:00","4","55.990122","8.353906","5.18","STAUNING, DA","FM-15","EKVJ ","V020","160,1,N,0021,1","02100,1,C,N","011265,1,N,1","+0160,1","+0150,1","99999,9","02,5,+00600,1,99,9","07,5,+02100,1,99,9",,"07,99,1,99,9,99,9,99999,9,99,9,99,9","10091,1,99999,9",,,,,"MET058METAR EKVJ 110650Z 16004KT 9999 FEW020 BKN070 16/15 Q1009;",
"06066099999","2010-08-11T07:50:00","4","55.990122","8.353906","5.18","STAUNING, DA","FM-15","EKVJ ","V020","160,1,N,0021,1","02100,1,C,N","011265,1,N,1","+0170,1","+0150,1","99999,9","02,5,+00600,1,99,9","07,5,+02100,1,99,9",,"07,99,1,99,9,99,9,99999,9,99,9,99,9","10091,1,99999,9",,,,,"MET058METAR EKVJ 110750Z 16004KT 9999 FEW020 BKN070 17/15 Q1009;",
"06066099999","2010-08-11T08:50:00","4","55.990122","8.353906","5.18","STAUNING, DA","FM-15","EKVJ ","V020","180,1,N,0026,1","02100,1,C,N","011265,1,N,1","+0180,1","+0150,1","99999,9","02,5,+00600,1,99,9","07,5,+02100,1,99,9",,"07,99,1,99,9,99,9,99999,9,99,9,99,9","10091,1,99999,9",,,,,"MET058METAR EKVJ 110850Z 18005KT 9999 FEW020 BKN070 18/15 Q1009;",
"06066099999","2010-08-11T09:50:00","4","55.990122","8.353906","5.18","STAUNING, DA","FM-15","EKVJ ","V020","180,1,N,0031,1","02100,1,C,N","011265,1,N,1","+0190,1","+0150,1","99999,9","04,5,+00750,1,99,9","07,5,+02100,1,99,9",,"07,99,1,99,9,99,9,99999,9,99,9,99,9","10091,1,99999,9",,,,,"MET058METAR EKVJ 110950Z 18006KT 9999 SCT025 BKN070 19/15 Q1009;",
"06066099999","2010-08-11T10:50:00","4","55.990122","8.353906","5.18","STAUNING, DA","FM-15","EKVJ ","V020","200,1,N,0021,1","02100,1,C,N","011265,1,N,1","+0190,1","+0140,1","99999,9","04,5,+00750,1,99,9","07,5,+02100,1,99,9",,"07,99,1,99,9,99,9,99999,9,99,9,99,9","10091,1,99999,9",,,,,"MET058METAR EKVJ 111050Z 20004KT 9999 SCT025 BKN070 19/14 Q1009;",
"06066099999","2010-08-11T11:50:00","4","55.990122","8.353906","5.18","STAUNING, DA","FM-15","EKVJ ","V020","210,1,N,0031,1","02100,1,C,N","011265,1,N,1","+0190,1","+0140,1","99999,9","02,5,+00750,1,99,9","07,5,+02100,1,99,9",,"07,99,1,99,9,99,9,99999,9,99,9,99,9","10091,1,99999,9",,,,,"MET058METAR EKVJ 111150Z 21006KT 9999 FEW025 BKN070 19/14 Q1009;",
"06066099999","2010-08-11T12:50:00","4","55.990122","8.353906","5.18","STAUNING, DA","FM-15","EKVJ ","V020","230,1,N,0041,1","02100,1,C,N","011265,1,N,1","+0190,1","+0140,1","99999,9","04,5,+00750,1,99,9","07,5,+02100,1,99,9",,"07,99,1,99,9,99,9,99999,9,99,9,99,9","10091,1,99999,9",,,,,"MET058METAR EKVJ 111250Z 23008KT 9999 SCT025 BKN070 19/14 Q1009;",
"06066099999","2010-08-12T06:20:00","4","55.990122","8.353906","5.18","STAUNING, DA","FM-15","EKVJ ","V020","140,1,N,0021,1","99999,9,9,Y","009900,1,N,1","+0130,1","+0130,1","99999,9",,,,,"10139,1,99999,9",,,,,"MET045METAR EKVJ 120620Z 14004KT CAVOK 13/13 Q1014;",
"06066099999","2010-08-12T06:50:00","4","55.990122","8.353906","5.18","STAUNING, DA","FM-15","EKVJ ","V020","130,1,N,0026,1","99999,9,9,Y","009900,1,N,1","+0150,1","+0140,1","99999,9",,,,,"10139,1,99999,9",,,,,"MET045METAR EKVJ 120650Z 13005KT CAVOK 15/14 Q1014;",
"06066099999","2010-08-12T07:50:00","4","55.990122","8.353906","5.18","STAUNING, DA","FM-15","EKVJ ","V020","140,1,N,0026,1","22000,1,9,N","011265,1,N,1","+0170,1","+0150,1","99999,9","02,5,+00600,1,99,9",,,"02,99,1,99,9,99,9,99999,9,99,9,99,9","10139,1,99999,9",,,,,"MET051METAR EKVJ 120750Z 14005KT 9999 FEW020 17/15 Q1014;",
"06066099999","2010-08-12T08:50:00","4","55.990122","8.353906","5.18","STAUNING, DA","FM-15","EKVJ ","V020","150,1,N,0026,1","22000,1,9,N","011265,1,N,1","+0180,1","+0140,1","99999,9","02,5,+00750,1,99,9",,,"02,99,1,99,9,99,9,99999,9,99,9,99,9","10149,1,99999,9",,,,,"MET051METAR EKVJ 120850Z 15005KT 9999 FEW025 18/14 Q1015;",
"06066099999","2010-08-12T09:50:00","4","55.990122","8.353906","5.18","STAUNING, DA","FM-15","EKVJ ","V020","150,1,N,0041,1","22000,1,9,N","011265,1,N,1","+0190,1","+0130,1","99999,9","02,5,+00750,1,99,9",,,"02,99,1,99,9,99,9,99999,9,99,9,99,9","10149,1,99999,9",,,,,"MET051METAR EKVJ 120950Z 15008KT 9999 FEW025 19/13 Q1015;",
"06066099999","2010-08-12T10:50:00","4","55.990122","8.353906","5.18","STAUNING, DA","FM-15","EKVJ ","V020","150,1,N,0041,1","22000,1,9,N","011265,1,N,1","+0200,1","+0130,1","99999,9","02,5,+00750,1,99,9",,,"02,99,1,99,9,99,9,99999,9,99,9,99,9","10149,1,99999,9",,,,,"MET051METAR EKVJ 121050Z 15008KT 9999 FEW025 20/13 Q1015;",
"06066099999","2010-08-12T11:50:00","4","55.990122","8.353906","5.18","STAUNING, DA","FM-15","EKVJ ","V020","150,1,N,0041,1","22000,1,9,N","011265,1,N,1","+0200,1","+0130,1","99999,9","02,5,+00750,1,99,9",,,"02,99,1,99,9,99,9,99999,9,99,9,99,9","10149,1,99999,9",,,,,"MET051METAR EKVJ 121150Z 15008KT 9999 FEW025 20/13 Q1015;",
"06066099999","2010-08-12T12:50:00","4","55.990122","8.353906","5.18","STAUNING, DA","FM-15","EKVJ ","V020","150,1,N,0041,1","02400,1,C,N","011265,1,N,1","+0200,1","+0120,1","99999,9","02,5,+00750,1,99,9","07,5,+02400,1,99,9",,"07,99,1,99,9,99,9,99999,9,99,9,99,9","10149,1,99999,9",,,,,"MET058METAR EKVJ 121250Z 15008KT 9999 FEW025 BKN080 20/12 Q1015;",
"06066099999","2010-08-12T13:50:00","4","55.990122","8.353906","5.18","STAUNING, DA","FM-15","EKVJ ","V020","250,1,N,0021,1","01500,1,C,N","011265,1,N,1","+0200,1","+0120,1","99999,9","04,5,+00750,1,99,9","07,5,+01500,1,99,9",,"07,99,1,99,9,99,9,99999,9,99,9,99,9","10149,1,99999,9",,,,,"MET058METAR EKVJ 121350Z 25004KT 9999 SCT025 BKN050 20/12 Q1015;",
"06066099999","2010-08-13T06:20:00","4","55.990122","8.353906","5.18","STAUNING, DA","FM-15","EKVJ ","V020","230,1,N,0041,1","00900,1,C,N","011265,1,N,1","+0160,1","+0160,1","99999,9","02,5,+00240,1,99,9","07,5,+00900,1,99,9",,"07,99,1,99,9,99,9,99999,9,99,9,99,9","10139,1,99999,9",,,,,"MET058METAR EKVJ 130620Z 23008KT 9999 FEW008 BKN030 16/16 Q1014;",
"06066099999","2010-08-13T06:50:00","4","55.990122","8.353906","5.18","STAUNING, DA","FM-15","EKVJ ","V020","230,1,N,0041,1","99999,9,C,N","011265,1,N,1","+0160,1","+0160,1","99999,9","02,5,+00240,1,99,9","04,5,+00900,1,99,9",,"04,99,1,99,9,99,9,99999,9,99,9,99,9","10139,1,99999,9",,,,,"MET058METAR EKVJ 130650Z 23008KT 9999 FEW008 SCT030 16/16 Q1014;","P01 009003SCOCIG"
"06066099999","2010-08-13T08:20:00","4","55.990122","8.353906","5.18","STAUNING, DA","FM-15","EKVJ ","V020","240,1,N,0051,1","22000,1,9,N","011265,1,N,1","+0180,1","+0160,1","99999,9","02,5,+00600,1,99,9",,,"02,99,1,99,9,99,9,99999,9,99,9,99,9","10149,1,99999,9",,,,,"MET051METAR EKVJ 130820Z 24010KT 9999 FEW020 18/16 Q1015;",
"06066099999","2010-08-13T08:50:00","4","55.990122","8.353906","5.18","STAUNING, DA","FM-15","EKVJ ","V020","240,1,N,0051,1","22000,1,9,N","011265,1,N,1","+0190,1","+0170,1","99999,9","02,5,+00600,1,99,9",,,"02,99,1,99,9,99,9,99999,9,99,9,99,9","10149,1,99999,9",,,,,"MET051METAR EKVJ 130850Z 24010KT 9999 FEW020 19/17 Q1015;",
"06066099999","2010-08-13T09:50:00","4","55.990122","8.353906","5.18","STAUNING, DA","FM-15","EKVJ ","V020","240,1,N,0051,1","22000,1,9,N","011265,1,N,1","+0190,1","+0160,1","99999,9","02,5,+00600,1,99,9",,,"02,99,1,99,9,99,9,99999,9,99,9,99,9","10159,1,99999,9",,,,,"MET051METAR EKVJ 130950Z 24010KT 9999 FEW020 19/16 Q1016;",
"06066099999","2010-08-13T10:50:00","4","55.990122","8.353906","5.18","STAUNING, DA","FM-15","EKVJ ","V020","240,1,N,0041,1","99999,9,C,N","011265,1,N,1","+0190,1","+0160,1","99999,9","04,5,+00600,1,99,9","04,5,+01500,1,99,9",,"04,99,1,99,9,99,9,99999,9,99,9,99,9","10159,1,99999,9",,,,,"MET058METAR EKVJ 131050Z 24008KT 9999 SCT020 SCT050 19/16 Q1016;","P01 015003SCOCIG"
"06066099999","2010-08-13T11:50:00","4","55.990122","8.353906","5.18","STAUNING, DA","FM-15","EKVJ ","V020","240,1,N,0041,1","22000,1,9,N","011265,1,N,1","+0190,1","+0160,1","99999,9","04,5,+00600,1,99,9",,,"04,99,1,99,9,99,9,99999,9,99,9,99,9","10159,1,99999,9",,,,,"MET051METAR EKVJ 131150Z 24008KT 9999 SCT020 19/16 Q1016;",
"06066099999","2010-08-13T12:50:00","4","55.990122","8.353906","5.18","STAUNING, DA","FM-15","EKVJ ","V020","260,1,N,0051,1","22000,1,9,N","011265,1,N,1","+0200,1","+0160,1","99999,9","02,5,+00900,1,99,9",,,"02,99,1,99,9,99,9,99999,9,99,9,99,9","10169,1,99999,9",,,,,"MET051METAR EKVJ 131250Z 26010KT 9999 FEW030 20/16 Q1017;",
"06066099999","2010-08-13T13:50:00","4","55.990122","8.353906","5.18","STAUNING, DA","FM-15","EKVJ ","V020","260,1,N,0051,1","22000,1,9,N","011265,1,N,1","+0200,1","+0160,1","99999,9","02,5,+00900,1,99,9",,,"02,99,1,99,9,99,9,99999,9,99,9,99,9","10169,1,99999,9",,,,,"MET051METAR EKVJ 131350Z 26010KT 9999 FEW030 20/16 Q1017;",
"06066099999","2010-08-15T09:50:00","4","55.990122","8.353906","5.18","STAUNING, DA","FM-15","EKVJ ","V020","360,1,N,0021,1","99999,9,9,Y","009900,1,N,1","+0240,1","+0160,1","99999,9",,,,,"10159,1,99999,9",,,,,"MET045METAR EKVJ 150950Z 36004KT CAVOK 24/16 Q1016;",
"06066099999","2010-08-15T11:20:00","4","55.990122","8.353906","5.18","STAUNING, DA","FM-15","EKVJ ","V020","360,1,N,0021,1","99999,9,9,Y","009900,1,N,1","+0240,1","+0160,1","99999,9",,,,,"10159,1,99999,9",,,,,"MET045METAR EKVJ 151120Z 36004KT CAVOK 24/16 Q1016;",
"06066099999","2010-08-15T11:50:00","4","55.990122","8.353906","5.18","STAUNING, DA","FM-15","EKVJ ","V020","360,1,N,0021,1","99999,9,9,Y","009900,1,N,1","+0260,1","+0160,1","99999,9",,,,,"10149,1,99999,9",,,,,"MET045METAR EKVJ 151150Z 36004KT CAVOK 26/16 Q1015;",
"06066099999","2010-08-15T12:50:00","4","55.990122","8.353906","5.18","STAUNING, DA","FM-15","EKVJ ","V020","360,1,N,0021,1","99999,9,9,Y","009900,1,N,1","+0260,1","+0160,1","99999,9",,,,,"10149,1,99999,9",,,,,"MET045METAR EKVJ 151250Z 36004KT CAVOK 26/16 Q1015;",
"06066099999","2010-08-15T13:20:00","4","55.990122","8.353906","5.18","STAUNING, DA","FM-15","EKVJ ","V020","360,1,N,0021,1","22000,1,9,N","011265,1,N,1","+0260,1","+0160,1","99999,9","04,5,+00900,1,99,9",,,"04,99,1,99,9,99,9,99999,9,99,9,99,9","10149,1,99999,9",,,,,"MET051METAR EKVJ 151320Z 36004KT 9999 SCT030 26/16 Q1015;",
"06066099999","2010-08-16T06:20:00","4","55.990122","8.353906","5.18","STAUNING, DA","FM-15","EKVJ ","V020","060,1,N,0062,1","00300,1,C,N","011265,1,N,1","+0200,1","+0190,1","99999,9","04,5,+00240,1,99,9","07,5,+00300,1,99,9",,"07,99,1,99,9,99,9,99999,9,99,9,99,9","10108,1,99999,9",,,,,"MET058METAR EKVJ 160620Z 06012KT 9999 SCT008 BKN010 20/19 Q1011;",
"06066099999","2010-08-16T06:50:00","4","55.990122","8.353906","5.18","STAUNING, DA","FM-15","EKVJ ","V020","070,1,N,0051,1","00360,1,C,N","011265,1,N,1","+0200,1","+0190,1","99999,9","04,5,+00300,1,99,9","07,5,+00360,1,99,9",,"07,99,1,99,9,99,9,99999,9,99,9,99,9","10108,1,99999,9",,,,,"MET066METAR EKVJ 160650Z 07010KT 030V110 9999 SCT010 BKN012 20/19 Q1011;",
"06066099999","2010-08-16T07:50:00","4","55.990122","8.353906","5.18","STAUNING, DA","FM-15","EKVJ ","V020","070,1,N,0051,1","00360,1,C,N","011265,1,N,1","+0200,1","+0190,1","99999,9","04,5,+00300,1,99,9","07,5,+00360,1,99,9",,"07,99,1,99,9,99,9,99999,9,99,9,99,9","10108,1,99999,9",,,,,"MET066METAR EKVJ 160750Z 07010KT 030V110 9999 SCT010 BKN012 20/19 Q1011;",
"06066099999","2010-08-16T08:50:00","4","55.990122","8.353906","5.18","STAUNING, DA","FM-15","EKVJ ","V020","070,1,N,0051,1","00300,1,C,N","005000,1,N,1","+0200,1","+0190,1","99999,9","04,5,+00210,1,99,9","07,5,+00300,1,99,9",,"07,99,1,99,9,99,9,99999,9,99,9,99,9","10108,1,99999,9","51,1",,,,"MET070METAR EKVJ 160850Z 07010KT 030V110 5000 -DZ SCT007 BKN010 20/19 Q1011;",
"06066099999","2010-08-16T09:50:00","4","55.990122","8.353906","5.18","STAUNING, DA","FM-15","EKVJ ","V020","070,1,N,0051,1","00300,1,C,N","011265,1,N,1","+0210,1","+0200,1","99999,9","04,5,+00210,1,99,9","07,5,+00300,1,99,9",,"07,99,1,99,9,99,9,99999,9,99,9,99,9","10108,1,99999,9",,,,,"MET066METAR EKVJ 160950Z 07010KT 030V110 9999 SCT007 BKN010 21/20 Q1011;",
"06066099999","2010-08-16T10:50:00","4","55.990122","8.353906","5.18","STAUNING, DA","FM-15","EKVJ ","V020","070,1,N,0051,1","00300,1,C,N","011265,1,N,1","+0210,1","+0190,1","99999,9","04,5,+00210,1,99,9","07,5,+00300,1,99,9",,"07,99,1,99,9,99,9,99999,9,99,9,99,9","10108,1,99999,9",,,,,"MET066METAR EKVJ 161050Z 07010KT 030V110 9999 SCT007 BKN010 21/19 Q1011;",
"06066099999","2010-08-16T11:50:00","4","55.990122","8.353906","5.18","STAUNING, DA","FM-15","EKVJ ","V020","070,1,N,0051,1","00300,1,C,N","011265,1,N,1","+0210,1","+0190,1","99999,9","04,5,+00210,1,99,9","07,5,+00300,1,99,9",,"07,99,1,99,9,99,9,99999,9,99,9,99,9","10108,1,99999,9",,,,,"MET066METAR EKVJ 161150Z 07010KT 030V110 9999 SCT007 BKN010 21/19 Q1011;",
"06066099999","2010-08-16T12:50:00","4","55.990122","8.353906","5.18","STAUNING, DA","FM-15","EKVJ ","V020","070,1,N,0051,1","00360,1,C,N","011265,1,N,1","+0210,1","+0190,1","99999,9","04,5,+00300,1,99,9","07,5,+00360,1,99,9",,"07,99,1,99,9,99,9,99999,9,99,9,99,9","10108,1,99999,9",,,,,"MET066METAR EKVJ 161250Z 07010KT 030V110 9999 SCT010 BKN012 21/19 Q1011;",
"06066099999","2010-08-17T06:20:00","4","55.990122","8.353906","5.18","STAUNING, DA","FM-15","EKVJ ","V020","999,9,C,0000,1","00060,1,9,N","000200,1,N,1","+0150,1","+0150,1","99999,9","09,1,+00060,1,99,9",,,"09,99,1,99,9,99,9,00025,1,99,9,99,9","10061,1,99999,9",,,,,"MET058METAR EKVJ 170620Z 00000KT 030V110 0200 VV002 15/15 Q1006;",
"06066099999","2010-08-17T06:50:00","4","55.990122","8.353906","5.18","STAUNING, DA","FM-15","EKVJ ","V020","999,9,C,0000,1","00060,1,9,N","000200,1,N,1","+0150,1","+0150,1","99999,9","09,1,+00060,1,99,9",,,"09,99,1,99,9,99,9,00025,1,99,9,99,9","10061,1,99999,9",,,,,"MET058METAR EKVJ 170650Z 00000KT 030V110 0200 VV002 15/15 Q1006;",
"06066099999","2010-08-17T07:20:00","4","55.990122","8.353906","5.18","STAUNING, DA","FM-15","EKVJ ","V020","999,9,C,0000,1","00150,1,9,N","000500,1,N,1","+0150,1","+0150,1","99999,9","09,1,+00150,1,99,9",,,"09,99,1,99,9,99,9,00025,1,99,9,99,9","10061,1,99999,9","45,1",,,,"MET053METAR EKVJ 170720Z 00000KT 0500 FG VV005 15/15 Q1006;",
"06066099999","2010-08-17T07:50:00","4","55.990122","8.353906","5.18","STAUNING, DA","FM-15","EKVJ ","V020","999,9,C,0000,1","00120,1,C,N","001100,1,N,1","+0160,1","+0150,1","99999,9","07,5,+00120,1,99,9",,,"07,99,1,99,9,99,9,99999,9,99,9,99,9","10061,1,99999,9","10,1",,,,"MET054METAR EKVJ 170750Z 00000KT 1100 BR BKN004 16/15 Q1006;",
"06066099999","2010-08-17T08:50:00","4","55.990122","8.353906","5.18","STAUNING, DA","FM-15","EKVJ ","V020","999,9,C,0000,1","00120,1,C,N","004000,1,N,1","+0160,1","+0150,1","99999,9","07,5,+00120,1,99,9","07,5,+00150,1,99,9",,"07,99,1,99,9,99,9,99999,9,99,9,99,9","10061,1,99999,9","10,1",,,,"MET061METAR EKVJ 170850Z 00000KT 4000 BR BKN004 BKN005 16/15 Q1006;",
"06066099999","2010-08-17T09:20:00","4","55.990122","8.353906","5.18","STAUNING, DA","FM-15","EKVJ ","V020","999,9,C,0000,1","00120,1,C,N","004500,1,N,1","+0160,1","+0150,1","99999,9","07,5,+00120,1,99,9","07,5,+00150,1,99,9",,"07,99,1,99,9,99,9,99999,9,99,9,99,9","10061,1,99999,9","10,1",,,,"MET061METAR EKVJ 170920Z 00000KT 4500 BR BKN004 BKN005 16/15 Q1006;",
"06066099999","2010-08-17T09:50:00","4","55.990122","8.353906","5.18","STAUNING, DA","FM-15","EKVJ ","V020","999,9,C,0000,1","00150,1,C,N","004500,1,N,1","+0160,1","+0150,1","99999,9","07,5,+00150,1,99,9","07,5,+00180,1,99,9",,"07,99,1,99,9,99,9,99999,9,99,9,99,9","10061,1,99999,9","10,1",,,,"MET061METAR EKVJ 170950Z 00000KT 4500 BR BKN005 BKN006 16/15 Q1006;",
"06066099999","2010-08-17T10:50:00","4","55.990122","8.353906","5.18","STAUNING, DA","FM-15","EKVJ ","V020","260,1,N,0015,1","00300,1,C,N","004500,1,N,1","+0160,1","+0150,1","99999,9","04,5,+00210,1,99,9","07,5,+00300,1,99,9",,"07,99,1,99,9,99,9,99999,9,99,9,99,9","10051,1,99999,9","10,1",,,,"MET061METAR EKVJ 171050Z 26003KT 4500 BR SCT007 BKN010 16/15 Q1005;",
"06066099999","2010-08-17T11:50:00","4","55.990122","8.353906","5.18","STAUNING, DA","FM-15","EKVJ ","V020","260,1,N,0015,1","00180,1,C,N","004500,1,N,1","+0160,1","+0150,1","99999,9","07,5,+00180,1,99,9","07,5,+00210,1,99,9",,"07,99,1,99,9,99,9,99999,9,99,9,99,9","10051,1,99999,9","10,1",,,,"MET061METAR EKVJ 171150Z 26003KT 4500 BR BKN006 BKN007 16/15 Q1005;",
"06066099999","2010-08-17T12:20:00","4","55.990122","8.353906","5.18","STAUNING, DA","FM-15","EKVJ ","V020","280,1,N,0041,1","00150,1,C,N","004000,1,N,1","+0170,1","+0160,1","99999,9","07,5,+00150,1,99,9","07,5,+00180,1,99,9",,"07,99,1,99,9,99,9,99999,9,99,9,99,9","10041,1,99999,9","10,1","61,1",,,"MET065METAR EKVJ 171220Z 28008KT 4000 BR -RA BKN005 BKN006 17/16 Q1004;",
"06066099999","2010-08-17T12:50:00","4","55.990122","8.353906","5.18","STAUNING, DA","FM-15","EKVJ ","V020","280,1,N,0041,1","00150,1,C,N","004000,1,N,1","+0170,1","+0160,1","99999,9","07,5,+00150,1,99,9","07,5,+00180,1,99,9",,"07,99,1,99,9,99,9,99999,9,99,9,99,9","10041,1,99999,9","10,1","61,1",,,"MET065METAR EKVJ 171250Z 28008KT 4000 BR -RA BKN005 BKN006 17/16 Q1004;",
"06066099999","2010-08-18T06:20:00","4","55.990122","8.353906","5.18","STAUNING, DA","FM-15","EKVJ ","V020","310,1,N,0026,1","00090,1,C,N","004000,1,N,1","+0180,1","+0180,1","99999,9","07,5,+00090,1,99,9","07,5,+00120,1,99,9",,"07,99,1,99,9,99,9,99999,9,99,9,99,9","09939,1,99999,9","10,1",,,,"MET061METAR EKVJ 180620Z 31005KT 4000 BR BKN003 BKN004 18/18 Q0994;",
"06066099999","2010-08-18T06:50:00","4","55.990122","8.353906","5.18","STAUNING, DA","FM-15","EKVJ ","V020","310,1,N,0031,1","00090,1,C,N","005000,1,N,1","+0180,1","+0180,1","99999,9","07,5,+00090,1,99,9","07,5,+00120,1,99,9",,"07,99,1,99,9,99,9,99999,9,99,9,99,9","09939,1,99999,9",,,,,"MET058METAR EKVJ 180650Z 31006KT 5000 BKN003 BKN004 18/18 Q0994;",
"06066099999","2010-08-18T07:20:00","4","55.990122","8.353906","5.18","STAUNING, DA","FM-15","EKVJ ","V020","310,1,N,0051,1","00090,1,C,N","005000,1,N,1","+0180,1","+0180,1","99999,9","07,5,+00090,1,99,9","07,5,+00120,1,99,9",,"07,99,1,99,9,99,9,99999,9,99,9,99,9","09939,1,99999,9","63,1",,,,"MET061METAR EKVJ 180720Z 31010KT 5000 RA BKN003 BKN004 18/18 Q0994;",
"06066099999","2010-08-18T07:50:00","4","55.990122","8.353906","5.18","STAUNING, DA","FM-15","EKVJ ","V020","310,1,N,0051,1","00090,1,C,N","005000,1,N,1","+0170,1","+0170,1","99999,9","07,5,+00090,1,99,9","07,5,+00120,1,99,9",,"07,99,1,99,9,99,9,99999,9,99,9,99,9","09949,1,99999,9","61,1",,,,"MET062METAR EKVJ 180750Z 31010KT 5000 -RA BKN003 BKN004 17/17 Q0995;",
"06066099999","2010-08-18T08:50:00","4","55.990122","8.353906","5.18","STAUNING, DA","FM-15","EKVJ ","V020","310,1,N,0051,1","00090,1,C,N","005000,1,N,1","+0170,1","+0170,1","99999,9","07,5,+00090,1,99,9","07,5,+00120,1,99,9",,"07,99,1,99,9,99,9,99999,9,99,9,99,9","09949,1,99999,9","61,1",,,,"MET062METAR EKVJ 180850Z 31010KT 5000 -RA BKN003 BKN004 17/17 Q0995;",
"06066099999","2010-08-18T09:50:00","4","55.990122","8.353906","5.18","STAUNING, DA","FM-15","EKVJ ","V020","300,1,N,0051,1","00090,1,C,N","004000,1,N,1","+0170,1","+0170,1","99999,9","07,5,+00090,1,99,9","07,5,+00120,1,99,9",,"07,99,1,99,9,99,9,99999,9,99,9,99,9","09959,1,99999,9","63,1",,,,"MET061METAR EKVJ 180950Z 30010KT 4000 RA BKN003 BKN004 17/17 Q0996;",
"06066099999","2010-08-18T10:50:00","4","55.990122","8.353906","5.18","STAUNING, DA","FM-15","EKVJ ","V020","300,1,N,0062,1","00090,1,C,N","002500,1,N,1","+0170,1","+0170,1","99999,9","07,5,+00090,1,99,9","07,5,+00120,1,99,9",,"07,99,1,99,9,99,9,99999,9,99,9,99,9","09959,1,99999,9","63,1",,,,"MET061METAR EKVJ 181050Z 30012KT 2500 RA BKN003 BKN004 17/17 Q0996;",
"06066099999","2010-08-18T11:50:00","4","55.990122","8.353906","5.18","STAUNING, DA","FM-15","EKVJ ","V020","999,9,9,9999,9","00090,5,9,N","999999,9,N,1","+0170,1","+0170,1","99999,9","07,5,+00090,5,99,9","07,5,+00120,5,99,9",,,"09960,1,99999,9",,,,,"MET066METAR EKVJ 181150Z 30012KTG24 2500 DZRA BKN003 BKN004 17/17 Q0996;",
"06066099999","2010-08-18T12:50:00","4","55.990122","8.353906","5.18","STAUNING, DA","FM-15","EKVJ ","V020","999,9,9,9999,9","00120,5,9,N","999999,9,N,1","+0170,1","+0170,1","99999,9","07,5,+00120,5,99,9",,,,"09960,1,99999,9",,,,,"MET057METAR EKVJ 181250Z 30016KTG28 2000 RA BKN004 17/17 Q0996;",
"06066099999","2010-08-18T13:50:00","4","55.990122","8.353906","5.18","STAUNING, DA","FM-15","EKVJ ","V020","999,9,9,9999,9","00120,5,9,N","999999,9,N,1","+0170,1","+0170,1","99999,9","07,5,+00120,5,99,9",,,,"09970,1,99999,9",,,,,"MET057METAR EKVJ 181350Z 30016KTG28 3000 RA BKN004 17/17 Q0997;",
"06066099999","2010-08-19T06:20:00","4","55.990122","8.353906","5.18","STAUNING, DA","FM-15","EKVJ ","V020","260,1,N,0082,5","22000,1,9,N","011265,1,N,1","+0140,1","+0130,1","99999,9","04,5,+00750,1,02,1",,,"04,99,1,99,9,99,9,99999,9,99,9,99,9","10051,1,99999,9","80,1",,,,"MET058METAR EKVJ 190620Z 26016 9999 -SHRA SCT025TCU 14/13 Q1005;",
"06066099999","2010-08-19T06:50:00","4","55.990122","8.353906","5.18","STAUNING, DA","FM-15","EKVJ ","V020","260,1,N,0082,5","22000,1,9,N","011265,1,N,1","+0140,1","+0130,1","99999,9","04,5,+00750,1,02,1",,,"04,99,1,99,9,99,9,99999,9,99,9,99,9","10051,1,99999,9","80,1",,,,"MET058METAR EKVJ 190650Z 26016 9999 -SHRA SCT025TCU 14/13 Q1005;",
"06066099999","2010-08-19T07:50:00","4","55.990122","8.353906","5.18","STAUNING, DA","FM-15","EKVJ ","V020","260,1,N,0093,5","22000,1,9,N","011265,1,N,1","+0140,1","+0130,1","99999,9","04,5,+00750,1,02,1",,,"04,99,1,99,9,99,9,99999,9,99,9,99,9","10051,1,99999,9","80,1",,,,"MET058METAR EKVJ 190750Z 26018 9999 -SHRA SCT025TCU 14/13 Q1005;",
"06066099999","2010-08-19T08:50:00","4","55.990122","8.353906","5.18","STAUNING, DA","FM-15","EKVJ ","V020","260,1,N,0093,1","22000,1,9,N","011265,1,N,1","+0160,1","+0150,1","99999,9","04,5,+00750,1,99,9",,,"04,99,1,99,9,99,9,99999,9,99,9,99,9","10061,1,99999,9",,,,,"MET051METAR EKVJ 190850Z 26018KT 9999 SCT025 16/15 Q1006;",
"06066099999","2010-08-19T09:50:00","4","55.990122","8.353906","5.18","STAUNING, DA","FM-15","EKVJ ","V020","260,1,N,0093,1","22000,1,9,N","011265,1,N,1","+0170,1","+0160,1","99999,9","04,5,+00630,1,99,9",,,"04,99,1,99,9,99,9,99999,9,99,9,99,9","10071,1,99999,9",,,,,"MET051METAR EKVJ 190950Z 26018KT 9999 SCT021 17/16 Q1007;",
"06066099999","2010-08-19T10:50:00","4","55.990122","8.353906","5.18","STAUNING, DA","FM-15","EKVJ ","V020","260,1,N,0093,1","22000,1,9,N","011265,1,N,1","+0170,1","+0160,1","99999,9","04,5,+00630,1,99,9",,,"04,99,1,99,9,99,9,99999,9,99,9,99,9","10071,1,99999,9",,,,,"MET051METAR EKVJ 191050Z 26018KT 9999 SCT021 17/16 Q1007;",
"06066099999","2010-08-19T12:50:00","4","55.990122","8.353906","5.18","STAUNING, DA","FM-15","EKVJ ","V020","260,1,N,0093,1","22000,1,9,N","011265,1,N,1","+0170,1","+0160,1","99999,9","04,5,+00630,1,99,9",,,"04,99,1,99,9,99,9,99999,9,99,9,99,9","10091,1,99999,9",,,,,"MET051METAR EKVJ 191250Z 26018KT 9999 SCT021 17/16 Q1009;",
"06066099999","2010-08-19T13:50:00","4","55.990122","8.353906","5.18","STAUNING, DA","FM-15","EKVJ ","V020","260,1,N,0093,1","22000,1,9,N","011265,1,N,1","+0170,1","+0160,1","99999,9","04,5,+00720,1,99,9",,,"04,99,1,99,9,99,9,99999,9,99,9,99,9","10102,1,99999,9",,,,,"MET051METAR EKVJ 191350Z 26018KT 9999 SCT024 17/16 Q1010;",
"06066099999","2010-08-20T06:20:00","4","55.990122","8.353906","5.18","STAUNING, DA","FM-15","EKVJ ","V020","170,1,N,0031,1","99999,9,9,Y","009900,1,N,1","+0160,1","+0150,1","99999,9",,,,,"10169,1,99999,9",,,,,"MET045METAR EKVJ 200620Z 17006KT CAVOK 16/15 Q1017;",
"06066099999","2010-08-20T06:50:00","4","55.990122","8.353906","5.18","STAUNING, DA","FM-15","EKVJ ","V020","170,1,N,0041,1","99999,9,9,Y","009900,1,N,1","+0160,1","+0150,1","99999,9",,,,,"10169,1,99999,9",,,,,"MET045METAR EKVJ 200650Z 17008KT CAVOK 16/15 Q1017;",
"06066099999","2010-08-20T07:50:00","4","55.990122","8.353906","5.18","STAUNING, DA","FM-15","EKVJ ","V020","170,1,N,0041,1","03000,1,C,N","011265,1,N,1","+0180,1","+0160,1","99999,9","02,5,+00600,1,99,9","02,5,+01200,1,99,9","07,5,+03000,1,99,9","07,99,1,99,9,99,9,99999,9,99,9,99,9","10169,1,99999,9",,,,,"MET065METAR EKVJ 200750Z 17008KT 9999 FEW020 FEW040 BKN100 18/16 Q1017;",
"06066099999","2010-08-20T08:50:00","4","55.990122","8.353906","5.18","STAUNING, DA","FM-15","EKVJ ","V020","180,1,N,0041,1","01500,1,C,N","011265,1,N,1","+0180,1","+0150,1","99999,9","02,5,+00600,1,99,9","07,5,+01500,1,99,9",,"07,99,1,99,9,99,9,99999,9,99,9,99,9","10169,1,99999,9","51,1",,,,"MET062METAR EKVJ 200850Z 18008KT 9999 -DZ FEW020 BKN050 18/15 Q1017;",
"06066099999","2010-08-20T09:50:00","4","55.990122","8.353906","5.18","STAUNING, DA","FM-15","EKVJ ","V020","180,1,N,0041,1","01200,1,C,N","011265,1,N,1","+0180,1","+0160,1","99999,9","02,5,+00600,1,99,9","07,5,+01200,1,99,9",,"07,99,1,99,9,99,9,99999,9,99,9,99,9","10169,1,99999,9",,,,,"MET058METAR EKVJ 200950Z 18008KT 9999 FEW020 BKN040 18/16 Q1017;",
"06066099999","2010-08-20T10:50:00","4","55.990122","8.353906","5.18","STAUNING, DA","FM-15","EKVJ ","V020","170,1,N,0051,1","01200,1,C,N","011265,1,N,1","+0180,1","+0160,1","99999,9","02,5,+00600,1,99,9","07,5,+01200,1,99,9",,"07,99,1,99,9,99,9,99999,9,99,9,99,9","10169,1,99999,9",,,,,"MET058METAR EKVJ 201050Z 17010KT 9999 FEW020 BKN040 18/16 Q1017;",
"06066099999","2010-08-20T11:50:00","4","55.990122","8.353906","5.18","STAUNING, DA","FM-15","EKVJ ","V020","170,1,N,0051,1","01200,1,C,N","011265,1,N,1","+0190,1","+0160,1","99999,9","02,5,+00600,1,99,9","07,5,+01200,1,99,9",,"07,99,1,99,9,99,9,99999,9,99,9,99,9","10169,1,99999,9","51,1",,,,"MET062METAR EKVJ 201150Z 17010KT 9999 -DZ FEW020 BKN040 19/16 Q1017;",
"06066099999","2010-08-20T12:50:00","4","55.990122","8.353906","5.18","STAUNING, DA","FM-15","EKVJ ","V020","200,1,N,0062,1","01200,1,C,N","006000,1,N,1","+0180,1","+0160,1","99999,9","02,5,+00600,1,99,9","07,5,+01200,1,99,9",,"07,99,1,99,9,99,9,99999,9,99,9,99,9","10169,1,99999,9","80,1",,,,"MET064METAR EKVJ 201250Z 20012KT 6000 -SHRA FEW020 BKN040 18/16 Q1017;",
"06066099999","2010-08-20T13:50:00","4","55.990122","8.353906","5.18","STAUNING, DA","FM-15","EKVJ ","V020","200,1,N,0072,1","01200,1,C,N","011265,1,N,1","+0180,1","+0160,1","99999,9","02,5,+00600,1,99,9","07,5,+01200,1,99,9",,"07,99,1,99,9,99,9,99999,9,99,9,99,9","10169,1,99999,9",,,,,"MET058METAR EKVJ 201350Z 20014KT 9999 FEW020 BKN040 18/16 Q1017;",
"06066099999","2010-08-21T08:50:00","4","55.990122","8.353906","5.18","STAUNING, DA","FM-15","EKVJ ","V020","220,1,N,0051,1","00180,1,C,N","007000,1,N,1","+0190,1","+0180,1","99999,9","07,5,+00180,1,99,9",,,"07,99,1,99,9,99,9,99999,9,99,9,99,9","10169,1,99999,9","51,1",,,,"MET055METAR EKVJ 210850Z 22010KT 7000 -DZ BKN006 19/18 Q1017;",
"06066099999","2010-08-21T09:50:00","4","55.990122","8.353906","5.18","STAUNING, DA","FM-15","EKVJ ","V020","220,1,N,0051,1","00180,1,C,N","005000,1,N,1","+0190,1","+0180,1","99999,9","07,5,+00180,1,99,9",,,"07,99,1,99,9,99,9,99999,9,99,9,99,9","10169,1,99999,9","51,1",,,,"MET055METAR EKVJ 210950Z 22010KT 5000 -DZ BKN006 19/18 Q1017;",
"06066099999","2010-08-21T10:50:00","4","55.990122","8.353906","5.18","STAUNING, DA","FM-15","EKVJ ","V020","220,1,N,0051,1","00120,1,C,N","003000,1,N,1","+0190,1","+0180,1","99999,9","07,5,+00120,1,99,9",,,"07,99,1,99,9,99,9,99999,9,99,9,99,9","10169,1,99999,9","63,1",,,,"MET054METAR EKVJ 211050Z 22010KT 3000 RA BKN004 19/18 Q1017;",
"06066099999","2010-08-22T08:50:00","4","55.990122","8.353906","5.18","STAUNING, DA","FM-15","EKVJ ","V020","220,1,N,0051,1","03000,1,C,N","011265,1,N,1","+0170,1","+0160,1","99999,9","02,5,+00450,1,99,9","07,5,+03000,1,99,9",,"07,99,1,99,9,99,9,99999,9,99,9,99,9","10119,1,99999,9",,,,,"MET058METAR EKVJ 220850Z 22010KT 9999 FEW015 BKN100 17/16 Q1012;",
"06066099999","2010-08-22T09:50:00","4","55.990122","8.353906","5.18","STAUNING, DA","FM-15","EKVJ ","V020","230,1,N,0051,1","03000,1,C,N","011265,1,N,1","+0180,1","+0160,1","99999,9","02,5,+00450,1,99,9","07,5,+03000,1,99,9",,"07,99,1,99,9,99,9,99999,9,99,9,99,9","10119,1,99999,9",,,,,"MET058METAR EKVJ 220950Z 23010KT 9999 FEW015 BKN100 18/16 Q1012;",
"06066099999","2010-08-22T10:50:00","4","55.990122","8.353906","5.18","STAUNING, DA","FM-15","EKVJ ","V020","240,1,N,0051,1","03000,1,C,N","011265,1,N,1","+0180,1","+0160,1","99999,9","02,5,+00450,1,99,9","07,5,+03000,1,99,9",,"07,99,1,99,9,99,9,99999,9,99,9,99,9","10119,1,99999,9",,,,,"MET058METAR EKVJ 221050Z 24010KT 9999 FEW015 BKN100 18/16 Q1012;",
"06066099999","2010-08-22T12:50:00","4","55.990122","8.353906","5.18","STAUNING, DA","FM-15","EKVJ ","V020","240,1,N,0051,1","99999,9,C,N","011265,1,N,1","+0200,1","+0160,1","99999,9","02,5,+00600,1,99,9","04,5,+03000,1,99,9",,"04,99,1,99,9,99,9,99999,9,99,9,99,9","10119,1,99999,9",,,,,"MET058METAR EKVJ 221250Z 24010KT 9999 FEW020 SCT100 20/16 Q1012;","P01 030003SCOCIG"
"06066099999","2010-08-23T07:50:00","4","55.990122","8.353906","5.18","STAUNING, DA","FM-15","EKVJ ","V020","120,1,N,0031,1","99999,9,C,N","011265,1,N,1","+0160,1","+0130,1","99999,9","02,5,+00900,1,99,9","04,5,+06000,1,99,9",,"04,99,1,99,9,99,9,99999,9,99,9,99,9","10051,1,99999,9",,,,,"MET058METAR EKVJ 230750Z 12006KT 9999 FEW030 SCT200 16/13 Q1005;","P01 060003SCOCIG"
"06066099999","2010-08-23T08:50:00","4","55.990122","8.353906","5.18","STAUNING, DA","FM-15","EKVJ ","V020","120,1,N,0031,1","99999,9,C,N","011265,1,N,1","+0160,1","+0130,1","99999,9","02,5,+00900,1,99,9","04,5,+06000,1,99,9",,"04,99,1,99,9,99,9,99999,9,99,9,99,9","10051,1,99999,9",,,,,"MET058METAR EKVJ 230850Z 12006KT 9999 FEW030 SCT200 16/13 Q1005;","P01 060003SCOCIG"
"06066099999","2010-08-23T09:50:00","4","55.990122","8.353906","5.18","STAUNING, DA","FM-15","EKVJ ","V020","130,1,N,0051,1","06000,1,C,N","011265,1,N,1","+0160,1","+0130,1","99999,9","02,5,+00900,1,99,9","07,5,+06000,1,99,9",,"07,99,1,99,9,99,9,99999,9,99,9,99,9","10051,1,99999,9",,,,,"MET058METAR EKVJ 230950Z 13010KT 9999 FEW030 BKN200 16/13 Q1005;",
"06066099999","2010-08-23T10:50:00","4","55.990122","8.353906","5.18","STAUNING, DA","FM-15","EKVJ ","V020","130,1,N,0051,1","06000,1,C,N","011265,1,N,1","+0160,1","+0130,1","99999,9","04,5,+00900,1,99,9","07,5,+06000,1,99,9",,"07,99,1,99,9,99,9,99999,9,99,9,99,9","10000,1,99999,9","61,1",,,,"MET062METAR EKVJ 231050Z 13010KT 9999 -RA SCT030 BKN200 16/13 Q1000;",
"06066099999","2010-08-23T11:50:00","4","55.990122","8.353906","5.18","STAUNING, DA","FM-15","EKVJ ","V020","130,1,N,0082,1","06000,1,C,N","008000,1,N,1","+0160,1","+0130,1","99999,9","04,5,+00900,1,99,9","07,5,+06000,1,99,9",,"07,99,1,99,9,99,9,99999,9,99,9,99,9","10000,1,99999,9","61,1",,,,"MET062METAR EKVJ 231150Z 13016KT 8000 -RA SCT030 BKN200 16/13 Q1000;",
"06066099999","2010-08-23T12:50:00","4","55.990122","8.353906","5.18","STAUNING, DA","FM-15","EKVJ ","V020","130,1,N,0082,1","01500,1,C,N","008000,1,N,1","+0160,1","+0130,1","99999,9","04,5,+00900,1,99,9","07,5,+01500,1,99,9",,"07,99,1,99,9,99,9,99999,9,99,9,99,9","09980,1,99999,9","61,1",,,,"MET062METAR EKVJ 231250Z 13016KT 8000 -RA SCT030 BKN050 16/13 Q0998;",
"06066099999","2010-08-23T13:50:00","4","55.990122","8.353906","5.18","STAUNING, DA","FM-15","EKVJ ","V020","130,1,N,0082,1","01500,1,C,N","008000,1,N,1","+0160,1","+0130,1","99999,9","04,5,+00900,1,99,9","07,5,+01500,1,99,9",,"07,99,1,99,9,99,9,99999,9,99,9,99,9","09949,1,99999,9","61,1",,,,"MET062METAR EKVJ 231350Z 13016KT 8000 -RA SCT030 BKN050 16/13 Q0995;",
"06066099999","2010-08-24T06:20:00","4","55.990122","8.353906","5.18","STAUNING, DA","FM-15","EKVJ ","V020","240,1,N,0093,1","00900,1,C,N","011265,1,N,1","+0140,1","+0120,1","99999,9","04,5,+00600,1,99,9","07,5,+00900,1,99,9",,"07,99,1,99,9,99,9,99999,9,99,9,99,9","09929,1,99999,9","81,1",,,,"MET063METAR EKVJ 240620Z 24018KT 9999 SHRA SCT020 BKN030 14/12 Q0993;",
"06066099999","2010-08-24T08:50:00","4","55.990122","8.353906","5.18","STAUNING, DA","FM-15","EKVJ ","V020","270,1,N,0093,1","00450,1,C,N","008000,1,N,1","+0140,1","+0130,1","99999,9","07,5,+00450,1,09,1",,,"07,99,1,99,9,99,9,99999,9,99,9,99,9","09949,1,99999,9","81,1",,,"0165,1","MET069METAR EKVJ 240850Z 27018G32KT 230V300 8000 SHRA BKN015CB 14/13 Q0995;",
"06066099999","2010-08-24T09:50:00","4","55.990122","8.353906","5.18","STAUNING, DA","FM-15","EKVJ ","V020","270,1,N,0082,1","00450,1,C,N","004000,1,N,1","+0140,1","+0130,1","99999,9","07,5,+00450,1,09,1",,,"07,99,1,99,9,99,9,99999,9,99,9,99,9","09959,1,99999,9","63,1",,,"0144,1","MET067METAR EKVJ 240950Z 27016G28KT 230V300 4000 RA BKN015CB 14/13 Q0996;",
"06066099999","2010-08-24T10:50:00","4","55.990122","8.353906","5.18","STAUNING, DA","FM-15","EKVJ ","V020","270,1,N,0082,1","00600,1,C,N","011265,1,N,1","+0150,1","+0130,1","99999,9","07,5,+00600,1,09,1",,,"07,99,1,99,9,99,9,99999,9,99,9,99,9","09970,1,99999,9","81,1",,,"0154,1","MET069METAR EKVJ 241050Z 27016G30KT 230V300 9999 SHRA BKN020CB 15/13 Q0997;",
"06066099999","2010-08-24T11:50:00","4","55.990122","8.353906","5.18","STAUNING, DA","FM-15","EKVJ ","V020","240,1,N,0103,1","00600,1,C,N","011265,1,N,1","+0150,1","+0130,1","99999,9","07,5,+00600,1,09,1",,,"07,99,1,99,9,99,9,99999,9,99,9,99,9","09980,1,99999,9",,,,"0154,1","MET056METAR EKVJ 241150Z 24020G30KT 9999 BKN020CB 15/13 Q0998;",
"06066099999","2010-08-24T12:50:00","4","55.990122","8.353906","5.18","STAUNING, DA","FM-15","EKVJ ","V020","240,1,N,0103,1","00600,1,C,N","011265,1,N,1","+0170,1","+0140,1","99999,9","07,5,+00600,1,09,1",,,"07,99,1,99,9,99,9,99999,9,99,9,99,9","09980,1,99999,9",,,,"0154,1","MET056METAR EKVJ 241250Z 24020G30KT 9999 BKN020CB 17/14 Q0998;",
"06066099999","2010-08-25T06:20:00","4","55.990122","8.353906","5.18","STAUNING, DA","FM-15","EKVJ ","V020","300,1,N,0072,1","00600,1,C,N","011265,1,N,1","+0150,1","+0120,1","99999,9","07,5,+00600,1,09,1",,,"07,99,1,99,9,99,9,99999,9,99,9,99,9","10041,1,99999,9","80,1",,,"0123,1","MET070METAR EKVJ 250620Z 30014G24KT 260V330 9999 -SHRA BKN020CB 15/12 Q1004;",
"06066099999","2010-08-25T06:50:00","4","55.990122","8.353906","5.18","STAUNING, DA","FM-15","EKVJ ","V020","300,1,N,0072,1","00600,1,C,N","011265,1,N,1","+0150,1","+0120,1","99999,9","07,5,+00600,1,09,1",,,"07,99,1,99,9,99,9,99999,9,99,9,99,9","10041,1,99999,9","80,1",,,"0123,1","MET070METAR EKVJ 250650Z 30014G24KT 260V330 9999 -SHRA BKN020CB 15/12 Q1004;",
"06066099999","2010-08-25T07:50:00","4","55.990122","8.353906","5.18","STAUNING, DA","FM-15","EKVJ ","V020","300,1,N,0072,1","00600,1,C,N","011265,1,N,1","+0140,1","+0110,1","99999,9","07,5,+00600,1,09,1",,,"07,99,1,99,9,99,9,99999,9,99,9,99,9","10051,1,99999,9","80,1",,,"0123,1","MET070METAR EKVJ 250750Z 30014G24KT 260V330 9999 -SHRA BKN020CB 14/11 Q1005;",
"06066099999","2010-08-25T08:50:00","4","55.990122","8.353906","5.18","STAUNING, DA","FM-15","EKVJ ","V020","300,1,N,0072,1","00600,1,C,N","011265,1,N,1","+0160,1","+0110,1","99999,9","07,5,+00600,1,99,9",,,"07,99,1,99,9,99,9,99999,9,99,9,99,9","10061,1,99999,9",,,,"0123,1","MET062METAR EKVJ 250850Z 30014G24KT 260V330 9999 BKN020 16/11 Q1006;",
"06066099999","2010-08-25T09:50:00","4","55.990122","8.353906","5.18","STAUNING, DA","FM-15","EKVJ ","V020","290,1,N,0072,1","00900,1,C,N","011265,1,N,1","+0160,1","+0110,1","99999,9","02,5,+00600,1,99,9","07,5,+00900,1,99,9",,"07,99,1,99,9,99,9,99999,9,99,9,99,9","10071,1,99999,9",,,,"0123,1","MET069METAR EKVJ 250950Z 29014G24KT 240V330 9999 FEW020 BKN030 16/11 Q1007;",
"06066099999","2010-08-25T10:50:00","4","55.990122","8.353906","5.18","STAUNING, DA","FM-15","EKVJ ","V020","290,1,N,0072,1","00900,1,C,N","011265,1,N,1","+0150,1","+0110,1","99999,9","04,5,+00600,1,99,9","07,5,+00900,1,99,9",,"07,99,1,99,9,99,9,99999,9,99,9,99,9","10081,1,99999,9",,,,"0123,1","MET069METAR EKVJ 251050Z 29014G24KT 240V330 9999 SCT020 BKN030 15/11 Q1008;",
"06066099999","2010-08-25T11:50:00","4","55.990122","8.353906","5.18","STAUNING, DA","FM-15","EKVJ ","V020","290,1,N,0072,1","00900,1,C,N","011265,1,N,1","+0150,1","+0110,1","99999,9","04,5,+00600,1,99,9","07,5,+00900,1,99,9",,"07,99,1,99,9,99,9,99999,9,99,9,99,9","10081,1,99999,9",,,,"0123,1","MET069METAR EKVJ 251150Z 29014G24KT 240V330 9999 SCT020 BKN030 15/11 Q1008;",
"06066099999","2010-08-25T12:50:00","4","55.990122","8.353906","5.18","STAUNING, DA","FM-15","EKVJ ","V020","290,1,N,0072,1","00900,1,C,N","011265,1,N,1","+0150,1","+0110,1","99999,9","04,5,+00600,1,99,9","07,5,+00900,1,99,9",,"07,99,1,99,9,99,9,99999,9,99,9,99,9","10091,1,99999,9",,,,"0123,1","MET069METAR EKVJ 251250Z 29014G24KT 240V330 9999 SCT020 BKN030 15/11 Q1009;",
"06066099999","2010-08-25T13:50:00","4","55.990122","8.353906","5.18","STAUNING, DA","FM-15","EKVJ ","V020","290,1,N,0072,1","00900,1,C,N","011265,1,N,1","+0150,1","+0110,1","99999,9","04,5,+00750,1,99,9","07,5,+00900,1,99,9",,"07,99,1,99,9,99,9,99999,9,99,9,99,9","10091,1,99999,9",,,,"0123,1","MET069METAR EKVJ 251350Z 29014G24KT 240V330 9999 SCT025 BKN030 15/11 Q1009;",
"06066099999","2010-08-26T06:20:00","4","55.990122","8.353906","5.18","STAUNING, DA","FM-15","EKVJ ","V020","300,1,N,0051,1","22000,1,9,N","011265,1,N,1","+0150,1","+0100,1","99999,9","02,5,+00750,1,99,9",,,"02,99,1,99,9,99,9,99999,9,99,9,99,9","10102,1,99999,9",,,,,"MET051METAR EKVJ 260620Z 30010KT 9999 FEW025 15/10 Q1010;",
"06066099999","2010-08-26T06:50:00","4","55.990122","8.353906","5.18","STAUNING, DA","FM-15","EKVJ ","V020","300,1,N,0041,1","22000,1,9,N","011265,1,N,1","+0150,1","+0100,1","99999,9","02,5,+00900,1,99,9",,,"02,99,1,99,9,99,9,99999,9,99,9,99,9","10102,1,99999,9",,,,,"MET051METAR EKVJ 260650Z 30008KT 9999 FEW030 15/10 Q1010;",
"06066099999","2010-08-26T07:50:00","4","55.990122","8.353906","5.18","STAUNING, DA","FM-15","EKVJ ","V020","300,1,N,0041,1","22000,1,9,N","011265,1,N,1","+0160,1","+0100,1","99999,9","02,5,+00900,1,99,9",,,"02,99,1,99,9,99,9,99999,9,99,9,99,9","10091,1,99999,9",,,,,"MET051METAR EKVJ 260750Z 30008KT 9999 FEW030 16/10 Q1009;",
"06066099999","2010-08-26T08:50:00","4","55.990122","8.353906","5.18","STAUNING, DA","FM-15","EKVJ ","V020","300,1,N,0041,1","22000,1,9,N","011265,1,N,1","+0160,1","+0100,1","99999,9","02,5,+00900,1,99,9",,,"02,99,1,99,9,99,9,99999,9,99,9,99,9","10102,1,99999,9",,,,,"MET059METAR EKVJ 260850Z 30008KT 260V330 9999 FEW030 16/10 Q1010;",
"06066099999","2010-08-26T09:50:00","4","55.990122","8.353906","5.18","STAUNING, DA","FM-15","EKVJ ","V020","300,1,N,0051,1","22000,1,9,N","011265,1,N,1","+0170,1","+0100,1","99999,9","02,5,+00900,1,99,9",,,"02,99,1,99,9,99,9,99999,9,99,9,99,9","10102,1,99999,9",,,,,"MET059METAR EKVJ 260950Z 30010KT 260V330 9999 FEW030 17/10 Q1010;",
"06066099999","2010-08-26T10:50:00","4","55.990122","8.353906","5.18","STAUNING, DA","FM-15","EKVJ ","V020","300,1,N,0051,1","22000,1,9,N","011265,1,N,1","+0170,1","+0100,1","99999,9","02,5,+00900,1,99,9",,,"02,99,1,99,9,99,9,99999,9,99,9,99,9","10102,1,99999,9",,,,,"MET059METAR EKVJ 261050Z 30010KT 260V330 9999 FEW030 17/10 Q1010;",
"06066099999","2010-08-26T11:50:00","4","55.990122","8.353906","5.18","STAUNING, DA","FM-15","EKVJ ","V020","300,1,N,0051,1","22000,1,9,N","011265,1,N,1","+0170,1","+0100,1","99999,9","02,5,+00900,1,99,9",,,"02,99,1,99,9,99,9,99999,9,99,9,99,9","10102,1,99999,9",,,,,"MET059METAR EKVJ 261150Z 30010KT 260V330 9999 FEW030 17/10 Q1010;",
"06066099999","2010-08-26T12:50:00","4","55.990122","8.353906","5.18","STAUNING, DA","FM-15","EKVJ ","V020","300,1,N,0051,1","22000,1,9,N","011265,1,N,1","+0170,1","+0100,1","99999,9","02,5,+00900,1,99,9",,,"02,99,1,99,9,99,9,99999,9,99,9,99,9","10102,1,99999,9",,,,,"MET059METAR EKVJ 261250Z 30010KT 240V340 9999 FEW030 17/10 Q1010;",
"06066099999","2010-08-26T13:50:00","4","55.990122","8.353906","5.18","STAUNING, DA","FM-15","EKVJ ","V020","300,1,N,0051,1","22000,1,9,N","011265,1,N,1","+0170,1","+0100,1","99999,9","02,5,+00900,1,99,9",,,"02,99,1,99,9,99,9,99999,9,99,9,99,9","10102,1,99999,9",,,,,"MET059METAR EKVJ 261350Z 30010KT 240V340 9999 FEW030 17/10 Q1010;",
"06066099999","2010-08-27T06:20:00","4","55.990122","8.353906","5.18","STAUNING, DA","FM-15","EKVJ ","V020","999,9,C,0000,1","00900,1,C,N","011265,1,N,1","+0100,1","+0080,1","99999,9","02,5,+00600,1,99,9","07,5,+00900,1,99,9",,"07,99,1,99,9,99,9,99999,9,99,9,99,9","10041,1,99999,9",,,,,"MET058METAR EKVJ 270620Z 00000KT 9999 FEW020 BKN030 10/08 Q1004;",
"06066099999","2010-08-27T06:50:00","4","55.990122","8.353906","5.18","STAUNING, DA","FM-15","EKVJ ","V020","999,9,C,0000,1","00900,1,C,N","011265,1,N,1","+0100,1","+0080,1","99999,9","02,5,+00600,1,99,9","07,5,+00900,1,99,9",,"07,99,1,99,9,99,9,99999,9,99,9,99,9","10041,1,99999,9",,,,,"MET058METAR EKVJ 270650Z 00000KT 9999 FEW020 BKN030 10/08 Q1004;",
"06066099999","2010-08-27T07:50:00","4","55.990122","8.353906","5.18","STAUNING, DA","FM-15","EKVJ ","V020","999,9,V,0015,1","99999,9,C,N","011265,1,N,1","+0140,1","+0100,1","99999,9","02,5,+00600,1,99,9","04,5,+02400,1,99,9",,"04,99,1,99,9,99,9,99999,9,99,9,99,9","10041,1,99999,9",,,,,"MET058METAR EKVJ 270750Z VRB03KT 9999 FEW020 SCT080 14/10 Q1004;","P01 024003SCOCIG"
"06066099999","2010-08-27T08:50:00","4","55.990122","8.353906","5.18","STAUNING, DA","FM-15","EKVJ ","V020","999,9,V,0015,1","99999,9,C,N","011265,1,N,1","+0150,1","+0100,1","99999,9","02,5,+00600,1,99,9","04,5,+02400,1,99,9",,"04,99,1,99,9,99,9,99999,9,99,9,99,9","10041,1,99999,9",,,,,"MET058METAR EKVJ 270850Z VRB03KT 9999 FEW020 SCT080 15/10 Q1004;","P01 024003SCOCIG"
"06066099999","2010-08-27T09:50:00","4","55.990122","8.353906","5.18","STAUNING, DA","FM-15","EKVJ ","V020","999,9,V,0015,1","99999,9,C,N","011265,1,N,1","+0150,1","+0100,1","99999,9","02,5,+00600,1,99,9","04,5,+02400,1,99,9",,"04,99,1,99,9,99,9,99999,9,99,9,99,9","10041,1,99999,9",,,,,"MET058METAR EKVJ 270950Z VRB03KT 9999 FEW020 SCT080 15/10 Q1004;","P01 024003SCOCIG"
"06066099999","2010-08-27T10:50:00","4","55.990122","8.353906","5.18","STAUNING, DA","FM-15","EKVJ ","V020","220,1,N,0041,1","99999,9,C,N","011265,1,N,1","+0160,1","+0100,1","99999,9","02,5,+00600,1,99,9","04,5,+02400,1,99,9",,"04,99,1,99,9,99,9,99999,9,99,9,99,9","10041,1,99999,9",,,,,"MET058METAR EKVJ 271050Z 22008KT 9999 FEW020 SCT080 16/10 Q1004;","P01 024003SCOCIG"
"06066099999","2010-08-27T11:50:00","4","55.990122","8.353906","5.18","STAUNING, DA","FM-15","EKVJ ","V020","230,1,N,0041,1","22000,1,9,N","011265,1,N,1","+0160,1","+0100,1","99999,9","02,5,+00600,1,99,9",,,"02,99,1,99,9,99,9,99999,9,99,9,99,9","10041,1,99999,9",,,,,"MET051METAR EKVJ 271150Z 23008KT 9999 FEW020 16/10 Q1004;",
"06066099999","2010-08-27T13:50:00","4","55.990122","8.353906","5.18","STAUNING, DA","FM-15","EKVJ ","V020","230,1,N,0041,1","22000,1,9,N","011265,1,N,1","+0160,1","+0100,1","99999,9","02,5,+00600,1,99,9",,,"02,99,1,99,9,99,9,99999,9,99,9,99,9","10041,1,99999,9",,,,,"MET051METAR EKVJ 271350Z 23008KT 9999 FEW020 16/10 Q1004;",
"06066099999","2010-08-28T06:50:00","4","55.990122","8.353906","5.18","STAUNING, DA","FM-15","EKVJ ","V020","270,1,N,0113,1","00900,1,C,N","011265,1,N,1","+0140,1","+0120,1","99999,9","04,5,+00600,1,99,9","07,5,+00900,1,99,9",,"07,99,1,99,9,99,9,99999,9,99,9,99,9","09929,1,99999,9",,,,,"MET066METAR EKVJ 280650Z 27022KT 230V300 9999 SCT020 BKN030 14/12 Q0993;",
"06066099999","2010-08-28T07:50:00","4","55.990122","8.353906","5.18","STAUNING, DA","FM-15","EKVJ ","V020","270,1,N,0113,1","00450,1,C,N","005000,1,N,1","+0140,1","+0120,1","99999,9","07,5,+00450,1,99,9",,,"07,99,1,99,9,99,9,99999,9,99,9,99,9","09949,1,99999,9","61,1",,,,"MET063METAR EKVJ 280750Z 27022KT 230V300 5000 -RA BKN015 14/12 Q0995;",
"06066099999","2010-08-28T08:50:00","4","55.990122","8.353906","5.18","STAUNING, DA","FM-15","EKVJ ","V020","270,1,N,0093,1","00450,1,C,N","008000,1,N,1","+0140,1","+0130,1","99999,9","07,5,+00450,1,99,9",,,"07,99,1,99,9,99,9,99999,9,99,9,99,9","09949,1,99999,9","81,1",,,"0165,1","MET067METAR EKVJ 280850Z 27018G32KT 230V300 8000 SHRA BKN015 14/13 Q0995;",
"06066099999","2010-08-28T13:50:00","4","55.990122","8.353906","5.18","STAUNING, DA","FM-15","EKVJ ","V020","240,1,N,0103,1","00600,1,C,N","011265,1,N,1","+0150,1","+0130,1","99999,9","07,5,+00600,1,09,1",,,"07,99,1,99,9,99,9,99999,9,99,9,99,9","09980,1,99999,9",,,,"0165,1","MET056METAR EKVJ 281350Z 24020G32KT 9999 BKN020CB 15/13 Q0998;",
"06066099999","2010-08-30T05:50:00","4","55.990122","8.353906","5.18","STAUNING, DA","FM-15","EKVJ ","V020","030,1,N,0031,1","99999,9,9,Y","009900,1,N,1","+0120,1","+0110,1","99999,9",,,,,"10119,1,99999,9",,,,,"MET045METAR EKVJ 300550Z 03006KT CAVOK 12/11 Q1012;",
"06066099999","2010-08-30T06:50:00","4","55.990122","8.353906","5.18","STAUNING, DA","FM-15","EKVJ ","V020","030,1,N,0031,1","99999,9,9,Y","009900,1,N,1","+0130,1","+0110,1","99999,9",,,,,"10129,1,99999,9",,,,,"MET053METAR EKVJ 300650Z 03006KT 350V060 CAVOK 13/11 Q1013;",
"06066099999","2010-08-30T07:50:00","4","55.990122","8.353906","5.18","STAUNING, DA","FM-15","EKVJ ","V020","030,1,N,0041,1","22000,1,9,N","011265,1,N,1","+0150,1","+0120,1","99999,9","02,5,+00600,1,99,9",,,"02,99,1,99,9,99,9,99999,9,99,9,99,9","10139,1,99999,9",,,,,"MET059METAR EKVJ 300750Z 03008KT 330V060 9999 FEW020 15/12 Q1014;",
"06066099999","2010-08-30T08:50:00","4","55.990122","8.353906","5.18","STAUNING, DA","FM-15","EKVJ ","V020","030,1,N,0041,1","22000,1,9,N","011265,1,N,1","+0160,1","+0120,1","99999,9","02,5,+00600,1,99,9",,,"02,99,1,99,9,99,9,99999,9,99,9,99,9","10149,1,99999,9",,,,,"MET059METAR EKVJ 300850Z 03008KT 330V060 9999 FEW020 16/12 Q1015;",
"06066099999","2010-08-30T09:50:00","4","55.990122","8.353906","5.18","STAUNING, DA","FM-15","EKVJ ","V020","030,1,N,0041,1","22000,1,9,N","011265,1,N,1","+0170,1","+0110,1","99999,9","02,5,+00750,1,99,9",,,"02,99,1,99,9,99,9,99999,9,99,9,99,9","10149,1,99999,9",,,,,"MET059METAR EKVJ 300950Z 03008KT 330V060 9999 FEW025 17/11 Q1015;",
"06066099999","2010-08-30T10:50:00","4","55.990122","8.353906","5.18","STAUNING, DA","FM-15","EKVJ ","V020","030,1,N,0041,1","22000,1,9,N","011265,1,N,1","+0170,1","+0110,1","99999,9","04,5,+00750,1,99,9",,,"04,99,1,99,9,99,9,99999,9,99,9,99,9","10159,1,99999,9",,,,,"MET059METAR EKVJ 301050Z 03008KT 330V090 9999 SCT025 17/11 Q1016;",
"06066099999","2010-08-30T11:50:00","4","55.990122","8.353906","5.18","STAUNING, DA","FM-15","EKVJ ","V020","030,1,N,0051,1","22000,1,9,N","011265,1,N,1","+0170,1","+0110,1","99999,9","04,5,+00750,1,99,9",,,"04,99,1,99,9,99,9,99999,9,99,9,99,9","10159,1,99999,9",,,,,"MET059METAR EKVJ 301150Z 03010KT 330V090 9999 SCT025 17/11 Q1016;",
"06066099999","2010-08-30T12:50:00","4","55.990122","8.353906","5.18","STAUNING, DA","FM-15","EKVJ ","V020","030,1,N,0051,1","22000,1,9,N","011265,1,N,1","+0180,1","+0100,1","99999,9","04,5,+00750,1,99,9",,,"04,99,1,99,9,99,9,99999,9,99,9,99,9","10159,1,99999,9",,,,,"MET059METAR EKVJ 301250Z 03010KT 320V090 9999 SCT025 18/10 Q1016;",
"06066099999","2010-08-30T13:50:00","4","55.990122","8.353906","5.18","STAUNING, DA","FM-15","EKVJ ","V020","030,1,N,0051,1","22000,1,9,N","011265,1,N,1","+0180,1","+0100,1","99999,9","04,5,+00750,1,99,9",,,"04,99,1,99,9,99,9,99999,9,99,9,99,9","10169,1,99999,9",,,,,"MET059METAR EKVJ 301350Z 03010KT 320V090 9999 SCT025 18/10 Q1017;",
"06066099999","2010-08-31T06:20:00","4","55.990122","8.353906","5.18","STAUNING, DA","FM-15","EKVJ ","V020","330,1,N,0031,1","22000,1,9,N","011265,1,N,1","+0140,1","+0110,1","99999,9","02,5,+00600,1,99,9",,,"02,99,1,99,9,99,9,99999,9,99,9,99,9","10210,1,99999,9",,,,,"MET051METAR EKVJ 310620Z 33006KT 9999 FEW020 14/11 Q1021;",
"06066099999","2010-08-31T06:50:00","4","55.990122","8.353906","5.18","STAUNING, DA","FM-15","EKVJ ","V020","330,1,N,0041,1","22000,1,9,N","011265,1,N,1","+0140,1","+0110,1","99999,9","02,5,+00600,1,99,9",,,"02,99,1,99,9,99,9,99999,9,99,9,99,9","10210,1,99999,9",,,,,"MET051METAR EKVJ 310650Z 33008KT 9999 FEW020 14/11 Q1021;",
"06066099999","2010-08-31T07:50:00","4","55.990122","8.353906","5.18","STAUNING, DA","FM-15","EKVJ ","V020","320,1,N,0051,1","22000,1,9,N","011265,1,N,1","+0160,1","+0120,1","99999,9","02,5,+00600,1,99,9",,,"02,99,1,99,9,99,9,99999,9,99,9,99,9","10210,1,99999,9",,,,,"MET051METAR EKVJ 310750Z 32010KT 9999 FEW020 16/12 Q1021;",
"06066099999","2010-08-31T09:20:00","4","55.990122","8.353906","5.18","STAUNING, DA","FM-15","EKVJ ","V020","320,1,N,0051,1","22000,1,9,N","011265,1,N,1","+0160,1","+0120,1","99999,9","02,5,+00600,1,99,9",,,"02,99,1,99,9,99,9,99999,9,99,9,99,9","10210,1,99999,9",,,,,"MET051METAR EKVJ 310920Z 32010KT 9999 FEW020 16/12 Q1021;",
"06066099999","2010-08-31T09:50:00","4","55.990122","8.353906","5.18","STAUNING, DA","FM-15","EKVJ ","V020","310,1,N,0051,1","22000,1,9,N","011265,1,N,1","+0160,1","+0120,1","99999,9","02,5,+00600,1,99,9",,,"02,99,1,99,9,99,9,99999,9,99,9,99,9","10210,1,99999,9",,,,,"MET051METAR EKVJ 310950Z 31010KT 9999 FEW020 16/12 Q1021;",
"06066099999","2010-08-31T10:50:00","4","55.990122","8.353906","5.18","STAUNING, DA","FM-15","EKVJ ","V020","310,1,N,0051,1","22000,1,9,N","011265,1,N,1","+0160,1","+0120,1","99999,9","02,5,+00600,1,99,9",,,"02,99,1,99,9,99,9,99999,9,99,9,99,9","10210,1,99999,9",,,,,"MET051METAR EKVJ 311050Z 31010KT 9999 FEW020 16/12 Q1021;",
"06066099999","2010-08-31T11:50:00","4","55.990122","8.353906","5.18","STAUNING, DA","FM-15","EKVJ ","V020","290,1,N,0051,1","01200,1,C,N","011265,1,N,1","+0160,1","+0120,1","99999,9","04,5,+00750,1,99,9","07,5,+01200,1,99,9",,"07,99,1,99,9,99,9,99999,9,99,9,99,9","10210,1,99999,9",,,,,"MET058METAR EKVJ 311150Z 29010KT 9999 SCT025 BKN040 16/12 Q1021;",
"06066099999","2010-08-31T12:50:00","4","55.990122","8.353906","5.18","STAUNING, DA","FM-15","EKVJ ","V020","290,1,N,0062,1","01200,1,C,N","011265,1,N,1","+0150,1","+0130,1","99999,9","04,5,+00750,1,99,9","07,5,+01200,1,99,9",,"07,99,1,99,9,99,9,99999,9,99,9,99,9","10210,1,99999,9",,,,,"MET058METAR EKVJ 311250Z 29012KT 9999 SCT025 BKN040 15/13 Q1021;",
"06066099999","2010-08-31T13:50:00","4","55.990122","8.353906","5.18","STAUNING, DA","FM-15","EKVJ ","V020","290,1,N,0062,1","01200,1,C,N","011265,1,N,1","+0150,1","+0130,1","99999,9","04,5,+00750,1,99,9","07,5,+01200,1,99,9",,"07,99,1,99,9,99,9,99999,9,99,9,99,9","10210,1,99999,9",,,,,"MET058METAR EKVJ 311350Z 29012KT 9999 SCT025 BKN040 15/13 Q1021;",
"06066099999","2010-09-01T06:20:00","4","55.990122","8.353906","5.18","STAUNING, DA","FM-15","EKVJ ","V020","340,1,N,0041,1","01200,1,C,N","011265,1,N,1","+0150,1","+0140,1","99999,9","02,5,+00750,1,99,9","07,5,+01200,1,99,9",,"07,99,1,99,9,99,9,99999,9,99,9,99,9","10180,1,99999,9",,,,,"MET058METAR EKVJ 010620Z 34008KT 9999 FEW025 BKN040 15/14 Q1018;",
"06066099999","2010-09-01T06:50:00","4","55.990122","8.353906","5.18","STAUNING, DA","FM-15","EKVJ ","V020","340,1,N,0041,1","01200,1,C,N","011265,1,N,1","+0150,1","+0140,1","99999,9","02,5,+00750,1,99,9","07,5,+01200,1,99,9",,"07,99,1,99,9,99,9,99999,9,99,9,99,9","10180,1,99999,9",,,,,"MET058METAR EKVJ 010650Z 34008KT 9999 FEW025 BKN040 15/14 Q1018;",
"06066099999","2010-09-01T07:50:00","4","55.990122","8.353906","5.18","STAUNING, DA","FM-15","EKVJ ","V020","320,1,N,0041,1","01200,1,C,N","011265,1,N,1","+0160,1","+0140,1","99999,9","02,5,+00750,1,99,9","07,5,+01200,1,99,9",,"07,99,1,99,9,99,9,99999,9,99,9,99,9","10180,1,99999,9",,,,,"MET058METAR EKVJ 010750Z 32008KT 9999 FEW025 BKN040 16/14 Q1018;",
"06066099999","2010-09-01T08:50:00","4","55.990122","8.353906","5.18","STAUNING, DA","FM-15","EKVJ ","V020","320,1,N,0051,1","01200,1,C,N","011265,1,N,1","+0160,1","+0130,1","99999,9","02,5,+00750,1,99,9","07,5,+01200,1,99,9",,"07,99,1,99,9,99,9,99999,9,99,9,99,9","10180,1,99999,9",,,,,"MET058METAR EKVJ 010850Z 32010KT 9999 FEW025 BKN040 16/13 Q1018;",
"06066099999","2010-09-01T09:50:00","4","55.990122","8.353906","5.18","STAUNING, DA","FM-15","EKVJ ","V020","320,1,N,0051,1","01200,1,C,N","011265,1,N,1","+0160,1","+0140,1","99999,9","02,5,+00750,1,99,9","07,5,+01200,1,99,9",,"07,99,1,99,9,99,9,99999,9,99,9,99,9","10180,1,99999,9",,,,,"MET058METAR EKVJ 010950Z 32010KT 9999 FEW025 BKN040 16/14 Q1018;",
"06066099999","2010-09-01T10:50:00","4","55.990122","8.353906","5.18","STAUNING, DA","FM-15","EKVJ ","V020","300,1,N,0051,1","01200,1,C,N","011265,1,N,1","+0160,1","+0130,1","99999,9","02,5,+00750,1,99,9","07,5,+01200,1,99,9",,"07,99,1,99,9,99,9,99999,9,99,9,99,9","10180,1,99999,9",,,,,"MET066METAR EKVJ 011050Z 30010KT 270V340 9999 FEW025 BKN040 16/13 Q1018;",
"06066099999","2010-09-01T11:50:00","4","55.990122","8.353906","5.18","STAUNING, DA","FM-15","EKVJ ","V020","300,1,N,0051,1","01200,1,C,N","011265,1,N,1","+0160,1","+0130,1","99999,9","02,5,+00750,1,99,9","07,5,+01200,1,99,9",,"07,99,1,99,9,99,9,99999,9,99,9,99,9","10180,1,99999,9",,,,,"MET066METAR EKVJ 011150Z 30010KT 270V340 9999 FEW025 BKN040 16/13 Q1018;",
"06066099999","2010-09-01T12:50:00","4","55.990122","8.353906","5.18","STAUNING, DA","FM-15","EKVJ ","V020","300,1,N,0051,1","00750,1,C,N","011265,1,N,1","+0160,1","+0130,1","99999,9","07,5,+00750,1,99,9","07,5,+00900,1,99,9",,"07,99,1,99,9,99,9,99999,9,99,9,99,9","10180,1,99999,9",,,,,"MET058METAR EKVJ 011250Z 30010KT 9999 BKN025 BKN030 16/13 Q1018;",
"06066099999","2010-09-02T06:20:00","4","55.990122","8.353906","5.18","STAUNING, DA","FM-15","EKVJ ","V020","999,9,C,0000,1","03000,1,C,N","011265,1,N,1","+0120,1","+0110,1","99999,9","02,5,+00300,1,99,9","07,5,+03000,1,99,9",,"07,99,1,99,9,99,9,99999,9,99,9,99,9","10180,1,99999,9",,,,,"MET058METAR EKVJ 020620Z 00000KT 9999 FEW010 BKN100 12/11 Q1018;",
"06066099999","2010-09-02T06:50:00","4","55.990122","8.353906","5.18","STAUNING, DA","FM-15","EKVJ ","V020","999,9,C,0000,1","03000,1,C,N","011265,1,N,1","+0120,1","+0110,1","99999,9","02,5,+00300,1,99,9","07,5,+03000,1,99,9",,"07,99,1,99,9,99,9,99999,9,99,9,99,9","10180,1,99999,9",,,,,"MET058METAR EKVJ 020650Z 00000KT 9999 FEW010 BKN100 12/11 Q1018;",
"06066099999","2010-09-02T07:50:00","4","55.990122","8.353906","5.18","STAUNING, DA","FM-15","EKVJ ","V020","060,1,N,0015,1","03000,1,C,N","011265,1,N,1","+0120,1","+0110,1","99999,9","02,5,+00300,1,99,9","07,5,+03000,1,99,9",,"07,99,1,99,9,99,9,99999,9,99,9,99,9","10190,1,99999,9",,,,,"MET058METAR EKVJ 020750Z 06003KT 9999 FEW010 BKN100 12/11 Q1019;",
"06066099999","2010-09-02T08:50:00","4","55.990122","8.353906","5.18","STAUNING, DA","FM-15","EKVJ ","V020","060,1,N,0026,1","99999,9,C,N","011265,1,N,1","+0160,1","+0130,1","99999,9","02,5,+00300,1,99,9","04,5,+00600,1,99,9",,"04,99,1,99,9,99,9,99999,9,99,9,99,9","10190,1,99999,9",,,,,"MET058METAR EKVJ 020850Z 06005KT 9999 FEW010 SCT020 16/13 Q1019;","P01 006003SCOCIG"
"06066099999","2010-09-02T09:50:00","4","55.990122","8.353906","5.18","STAUNING, DA","FM-15","EKVJ ","V020","050,1,N,0026,1","22000,1,9,N","011265,1,N,1","+0180,1","+0140,1","99999,9","04,5,+00600,1,99,9",,,"04,99,1,99,9,99,9,99999,9,99,9,99,9","10200,1,99999,9",,,,,"MET059METAR EKVJ 020950Z 05005KT 340V100 9999 SCT020 18/14 Q1020;",
"06066099999","2010-09-02T10:50:00","4","55.990122","8.353906","5.18","STAUNING, DA","FM-15","EKVJ ","V020","050,1,N,0031,1","22000,1,9,N","011265,1,N,1","+0180,1","+0120,1","99999,9","04,5,+00750,1,99,9",,,"04,99,1,99,9,99,9,99999,9,99,9,99,9","10200,1,99999,9",,,,,"MET059METAR EKVJ 021050Z 05006KT 020V100 9999 SCT025 18/12 Q1020;",
"06066099999","2010-09-02T11:50:00","4","55.990122","8.353906","5.18","STAUNING, DA","FM-15","EKVJ ","V020","050,1,N,0031,1","22000,1,9,N","011265,1,N,1","+0180,1","+0120,1","99999,9","04,5,+00750,1,99,9",,,"04,99,1,99,9,99,9,99999,9,99,9,99,9","10200,1,99999,9",,,,,"MET059METAR EKVJ 021150Z 05006KT 020V100 9999 SCT025 18/12 Q1020;",
"06066099999","2010-09-02T12:50:00","4","55.990122","8.353906","5.18","STAUNING, DA","FM-15","EKVJ ","V020","050,1,N,0031,1","22000,1,9,N","011265,1,N,1","+0190,1","+0100,1","99999,9","04,5,+00900,1,99,9",,,"04,99,1,99,9,99,9,99999,9,99,9,99,9","10200,1,99999,9",,,,,"MET059METAR EKVJ 021250Z 05006KT 020V100 9999 SCT030 19/10 Q1020;",
"06066099999","2010-09-02T13:50:00","4","55.990122","8.353906","5.18","STAUNING, DA","FM-15","EKVJ ","V020","050,1,N,0041,1","22000,1,9,N","011265,1,N,1","+0190,1","+0100,1","99999,9","04,5,+00900,1,99,9",,,"04,99,1,99,9,99,9,99999,9,99,9,99,9","10200,1,99999,9",,,,,"MET059METAR EKVJ 021350Z 05008KT 020V100 9999 SCT030 19/10 Q1020;",
"06066099999","2010-09-03T06:20:00","4","55.990122","8.353906","5.18","STAUNING, DA","FM-15","EKVJ ","V020","999,9,C,0000,1","99999,9,9,Y","009900,1,N,1","+0080,1","+0070,1","99999,9",,,,,"10210,1,99999,9",,,,,"MET045METAR EKVJ 030620Z 00000KT CAVOK 08/07 Q1021;",
"06066099999","2010-09-03T06:50:00","4","55.990122","8.353906","5.18","STAUNING, DA","FM-15","EKVJ ","V020","999,9,C,0000,1","99999,9,9,Y","009900,1,N,1","+0100,1","+0090,1","99999,9",,,,,"10210,1,99999,9",,,,,"MET045METAR EKVJ 030650Z 00000KT CAVOK 10/09 Q1021;",
"06066099999","2010-09-03T07:50:00","4","55.990122","8.353906","5.18","STAUNING, DA","FM-15","EKVJ ","V020","190,1,N,0015,1","99999,9,C,N","011265,1,N,1","+0130,1","+0100,1","99999,9","02,5,+00900,1,99,9","04,5,+02400,1,99,9",,"04,99,1,99,9,99,9,99999,9,99,9,99,9","10210,1,99999,9",,,,,"MET058METAR EKVJ 030750Z 19003KT 9999 FEW030 SCT080 13/10 Q1021;","P01 024003SCOCIG"
"06066099999","2010-09-03T08:50:00","4","55.990122","8.353906","5.18","STAUNING, DA","FM-15","EKVJ ","V020","200,1,N,0026,1","99999,9,C,N","011265,1,N,1","+0150,1","+0110,1","99999,9","02,5,+00900,1,99,9","04,5,+02400,1,99,9",,"04,99,1,99,9,99,9,99999,9,99,9,99,9","10210,1,99999,9",,,,,"MET058METAR EKVJ 030850Z 20005KT 9999 FEW030 SCT080 15/11 Q1021;","P01 024003SCOCIG"
"06066099999","2010-09-03T10:50:00","4","55.990122","8.353906","5.18","STAUNING, DA","FM-15","EKVJ ","V020","290,1,N,0031,1","22000,1,9,N","011265,1,N,1","+0170,1","+0120,1","99999,9","04,5,+00900,1,99,9",,,"04,99,1,99,9,99,9,99999,9,99,9,99,9","10210,1,99999,9",,,,,"MET051METAR EKVJ 031050Z 29006KT 9999 SCT030 17/12 Q1021;",
"06066099999","2010-09-03T11:50:00","4","55.990122","8.353906","5.18","STAUNING, DA","FM-15","EKVJ ","V020","290,1,N,0031,1","22000,1,9,N","011265,1,N,1","+0170,1","+0120,1","99999,9","04,5,+00900,1,02,1",,,"04,99,1,99,9,99,9,99999,9,99,9,99,9","10210,1,99999,9",,,,,"MET054METAR EKVJ 031150Z 29006KT 9999 SCT030TCU 17/12 Q1021;",
"06066099999","2010-09-03T12:50:00","4","55.990122","8.353906","5.18","STAUNING, DA","FM-15","EKVJ ","V020","290,1,N,0041,1","22000,1,9,N","011265,1,N,1","+0170,1","+0110,1","99999,9","04,5,+00900,1,99,9",,,"04,99,1,99,9,99,9,99999,9,99,9,99,9","10210,1,99999,9",,,,,"MET051METAR EKVJ 031250Z 29008KT 9999 SCT030 17/11 Q1021;",
"06066099999","2010-09-03T13:50:00","4","55.990122","8.353906","5.18","STAUNING, DA","FM-15","EKVJ ","V020","300,1,N,0041,1","22000,1,9,N","011265,1,N,1","+0170,1","+0110,1","99999,9","02,5,+00900,1,99,9","02,5,+03000,1,99,9",,"02,99,1,99,9,99,9,99999,9,99,9,99,9","10210,1,99999,9",,,,,"MET058METAR EKVJ 031350Z 30008KT 9999 FEW030 FEW100 17/11 Q1021;",
"06066099999","2010-09-05T08:50:00","4","55.990122","8.353906","5.18","STAUNING, DA","FM-15","EKVJ ","V020","090,1,N,0031,1","99999,9,9,Y","009900,1,N,1","+0160,1","+0080,1","99999,9",,,,,"10281,1,99999,9",,,,,"MET053METAR EKVJ 050850Z 09006KT 060V120 CAVOK 16/08 Q1028;",
"06066099999","2010-09-05T09:50:00","4","55.990122","8.353906","5.18","STAUNING, DA","FM-15","EKVJ ","V020","090,1,N,0031,1","99999,9,9,Y","009900,1,N,1","+0160,1","+0080,1","99999,9",,,,,"10281,1,99999,9",,,,,"MET053METAR EKVJ 050950Z 09006KT 060V120 CAVOK 16/08 Q1028;",
"06066099999","2010-09-06T06:20:00","4","55.990122","8.353906","5.18","STAUNING, DA","FM-15","EKVJ ","V020","090,1,N,0015,1","99999,9,9,Y","009900,1,N,1","+0080,1","+0070,1","99999,9",,,,,"10271,1,99999,9",,,,,"MET045METAR EKVJ 060620Z 09003KT CAVOK 08/07 Q1027;",
"06066099999","2010-09-06T06:50:00","4","55.990122","8.353906","5.18","STAUNING, DA","FM-15","EKVJ ","V020","100,1,N,0026,1","99999,9,9,Y","009900,1,N,1","+0080,1","+0070,1","99999,9",,,,,"10271,1,99999,9",,,,,"MET045METAR EKVJ 060650Z 10005KT CAVOK 08/07 Q1027;",
"06066099999","2010-09-06T07:50:00","4","55.990122","8.353906","5.18","STAUNING, DA","FM-15","EKVJ ","V020","100,1,N,0031,1","99999,9,9,Y","009900,1,N,1","+0150,1","+0110,1","99999,9",,,,,"10271,1,99999,9",,,,,"MET045METAR EKVJ 060750Z 10006KT CAVOK 15/11 Q1027;",
"06066099999","2010-09-06T08:50:00","4","55.990122","8.353906","5.18","STAUNING, DA","FM-15","EKVJ ","V020","100,1,N,0031,1","99999,9,9,Y","009900,1,N,1","+0170,1","+0110,1","99999,9",,,,,"10271,1,99999,9",,,,,"MET045METAR EKVJ 060850Z 10006KT CAVOK 17/11 Q1027;",
"06066099999","2010-09-06T09:50:00","4","55.990122","8.353906","5.18","STAUNING, DA","FM-15","EKVJ ","V020","120,1,N,0041,1","22000,1,9,N","011265,1,N,1","+0170,1","+0090,1","99999,9","02,5,+00900,1,99,9",,,"02,99,1,99,9,99,9,99999,9,99,9,99,9","10261,1,99999,9",,,,,"MET051METAR EKVJ 060950Z 12008KT 9999 FEW030 17/09 Q1026;",
"06066099999","2010-09-06T10:50:00","4","55.990122","8.353906","5.18","STAUNING, DA","FM-15","EKVJ ","V020","120,1,N,0041,1","22000,1,9,N","011265,1,N,1","+0170,1","+0090,1","99999,9","02,5,+00900,1,99,9",,,"02,99,1,99,9,99,9,99999,9,99,9,99,9","10261,1,99999,9",,,,,"MET051METAR EKVJ 061050Z 12008KT 9999 FEW030 17/09 Q1026;",
"06066099999","2010-09-06T11:50:00","4","55.990122","8.353906","5.18","STAUNING, DA","FM-15","EKVJ ","V020","120,1,N,0051,1","22000,1,9,N","011265,1,N,1","+0180,1","+0100,1","99999,9","02,5,+00900,1,99,9",,,"02,99,1,99,9,99,9,99999,9,99,9,99,9","10251,1,99999,9",,,,,"MET051METAR EKVJ 061150Z 12010KT 9999 FEW030 18/10 Q1025;",
"06066099999","2010-09-06T12:50:00","4","55.990122","8.353906","5.18","STAUNING, DA","FM-15","EKVJ ","V020","120,1,N,0051,1","22000,1,9,N","011265,1,N,1","+0180,1","+0100,1","99999,9","02,5,+00900,1,99,9",,,"02,99,1,99,9,99,9,99999,9,99,9,99,9","10251,1,99999,9",,,,,"MET051METAR EKVJ 061250Z 12010KT 9999 FEW030 18/10 Q1025;",
"06066099999","2010-09-06T13:50:00","4","55.990122","8.353906","5.18","STAUNING, DA","FM-15","EKVJ ","V020","120,1,N,0041,1","22000,1,9,N","011265,1,N,1","+0180,1","+0100,1","99999,9","02,5,+00900,1,99,9",,,"02,99,1,99,9,99,9,99999,9,99,9,99,9","10230,1,99999,9",,,,,"MET051METAR EKVJ 061350Z 12008KT 9999 FEW030 18/10 Q1023;",
"06066099999","2010-09-07T06:20:00","4","55.990122","8.353906","5.18","STAUNING, DA","FM-15","EKVJ ","V020","090,1,N,0062,1","99999,9,9,Y","009900,1,N,1","+0110,1","+0090,1","99999,9",,,,,"10159,1,99999,9",,,,,"MET045METAR EKVJ 070620Z 09012KT CAVOK 11/09 Q1016;",
"06066099999","2010-09-07T06:50:00","4","55.990122","8.353906","5.18","STAUNING, DA","FM-15","EKVJ ","V020","090,1,N,0062,1","99999,9,9,Y","009900,1,N,1","+0110,1","+0090,1","99999,9",,,,,"10159,1,99999,9",,,,,"MET045METAR EKVJ 070650Z 09012KT CAVOK 11/09 Q1016;",
"06066099999","2010-09-07T07:50:00","4","55.990122","8.353906","5.18","STAUNING, DA","FM-15","EKVJ ","V020","100,1,N,0072,1","22000,1,9,N","011265,1,N,1","+0110,1","+0090,1","99999,9","02,5,+00900,1,99,9",,,"02,99,1,99,9,99,9,99999,9,99,9,99,9","10169,1,99999,9",,,,,"MET051METAR EKVJ 070750Z 10014KT 9999 FEW030 11/09 Q1017;",
"06066099999","2010-09-07T08:50:00","4","55.990122","8.353906","5.18","STAUNING, DA","FM-15","EKVJ ","V020","100,1,N,0093,1","00900,1,C,N","011265,1,N,1","+0110,1","+0090,1","99999,9","07,5,+00900,1,99,9",,,"07,99,1,99,9,99,9,99999,9,99,9,99,9","10169,1,99999,9",,,,,"MET051METAR EKVJ 070850Z 10018KT 9999 BKN030 11/09 Q1017;",
"06066099999","2010-09-07T09:50:00","4","55.990122","8.353906","5.18","STAUNING, DA","FM-15","EKVJ ","V020","100,1,N,0082,1","00900,1,C,N","011265,1,N,1","+0110,1","+0090,1","99999,9","07,5,+00900,1,99,9",,,"07,99,1,99,9,99,9,99999,9,99,9,99,9","10169,1,99999,9",,,,,"MET051METAR EKVJ 070950Z 10016KT 9999 BKN030 11/09 Q1017;",
"06066099999","2010-09-07T10:50:00","4","55.990122","8.353906","5.18","STAUNING, DA","FM-15","EKVJ ","V020","100,1,N,0093,1","22000,1,9,N","011265,1,N,1","+0140,1","+0120,1","99999,9","04,5,+00900,1,99,9",,,"04,99,1,99,9,99,9,99999,9,99,9,99,9","10159,1,99999,9",,,,,"MET051METAR EKVJ 071050Z 10018KT 9999 SCT030 14/12 Q1016;",
"06066099999","2010-09-07T11:50:00","4","55.990122","8.353906","5.18","STAUNING, DA","FM-15","EKVJ ","V020","100,1,N,0093,1","22000,1,9,N","011265,1,N,1","+0140,1","+0120,1","99999,9","04,5,+00900,1,99,9",,,"04,99,1,99,9,99,9,99999,9,99,9,99,9","10149,1,99999,9",,,,,"MET051METAR EKVJ 071150Z 10018KT 9999 SCT030 14/12 Q1015;",
"06066099999","2010-09-07T12:50:00","4","55.990122","8.353906","5.18","STAUNING, DA","FM-15","EKVJ ","V020","100,1,N,0093,1","22000,1,9,N","011265,1,N,1","+0160,1","+0120,1","99999,9","04,5,+00900,1,99,9",,,"04,99,1,99,9,99,9,99999,9,99,9,99,9","10139,1,99999,9",,,,"0134,1","MET054METAR EKVJ 071250Z 10018G26KT 9999 SCT030 16/12 Q1014;",
"06066099999","2010-09-07T13:50:00","4","55.990122","8.353906","5.18","STAUNING, DA","FM-15","EKVJ ","V020","100,1,N,0093,1","22000,1,9,N","011265,1,N,1","+0160,1","+0120,1","99999,9","04,5,+00900,1,99,9",,,"04,99,1,99,9,99,9,99999,9,99,9,99,9","10139,1,99999,9",,,,"0134,1","MET054METAR EKVJ 071350Z 10018G26KT 9999 SCT030 16/12 Q1014;",
"06066099999","2010-09-08T06:20:00","4","55.990122","8.353906","5.18","STAUNING, DA","FM-15","EKVJ ","V020","110,1,N,0082,1","22000,1,9,N","011265,1,N,1","+0140,1","+0110,1","99999,9","04,5,+00900,1,99,9",,,"04,99,1,99,9,99,9,99999,9,99,9,99,9","10119,1,99999,9",,,,,"MET051METAR EKVJ 080620Z 11016KT 9999 SCT030 14/11 Q1012;",
"06066099999","2010-09-08T06:50:00","4","55.990122","8.353906","5.18","STAUNING, DA","FM-15","EKVJ ","V020","110,1,N,0082,1","22000,1,9,N","011265,1,N,1","+0140,1","+0110,1","99999,9","04,5,+00900,1,99,9",,,"04,99,1,99,9,99,9,99999,9,99,9,99,9","10119,1,99999,9",,,,,"MET051METAR EKVJ 080650Z 11016KT 9999 SCT030 14/11 Q1012;",
"06066099999","2010-09-08T07:50:00","4","55.990122","8.353906","5.18","STAUNING, DA","FM-15","EKVJ ","V020","110,1,N,0093,1","01200,1,C,N","011265,1,N,1","+0140,1","+0110,1","99999,9","04,5,+00600,1,99,9","07,5,+01200,1,99,9",,"07,99,1,99,9,99,9,99999,9,99,9,99,9","10119,1,99999,9",,,,,"MET058METAR EKVJ 080750Z 11018KT 9999 SCT020 BKN040 14/11 Q1012;",
"06066099999","2010-09-08T08:50:00","4","55.990122","8.353906","5.18","STAUNING, DA","FM-15","EKVJ ","V020","110,1,N,0103,1","01200,1,C,N","011265,1,N,1","+0140,1","+0110,1","99999,9","04,5,+00600,1,99,9","07,5,+01200,1,99,9",,"07,99,1,99,9,99,9,99999,9,99,9,99,9","10119,1,99999,9",,,,,"MET058METAR EKVJ 080850Z 11020KT 9999 SCT020 BKN040 14/11 Q1012;",
"06066099999","2010-09-08T09:50:00","4","55.990122","8.353906","5.18","STAUNING, DA","FM-15","EKVJ ","V020","110,1,N,0103,1","01200,1,C,N","011265,1,N,1","+0140,1","+0110,1","99999,9","04,5,+00600,1,99,9","07,5,+01200,1,99,9",,"07,99,1,99,9,99,9,99999,9,99,9,99,9","10119,1,99999,9",,,,,"MET058METAR EKVJ 080950Z 11020KT 9999 SCT020 BKN040 14/11 Q1012;",
"06066099999","2010-09-08T10:50:00","4","55.990122","8.353906","5.18","STAUNING, DA","FM-15","EKVJ ","V020","110,1,N,0103,1","01200,1,C,N","011265,1,N,1","+0140,1","+0110,1","99999,9","07,5,+01200,1,99,9",,,"07,99,1,99,9,99,9,99999,9,99,9,99,9","10119,1,99999,9",,,,,"MET051METAR EKVJ 081050Z 11020KT 9999 BKN040 14/11 Q1012;",
"06066099999","2010-09-08T11:50:00","4","55.990122","8.353906","5.18","STAUNING, DA","FM-15","EKVJ ","V020","110,1,N,0103,1","01200,1,C,N","011265,1,N,1","+0140,1","+0110,1","99999,9","07,5,+01200,1,99,9",,,"07,99,1,99,9,99,9,99999,9,99,9,99,9","10119,1,99999,9",,,,,"MET051METAR EKVJ 081150Z 11020KT 9999 BKN040 14/11 Q1012;",
"06066099999","2010-09-08T12:50:00","4","55.990122","8.353906","5.18","STAUNING, DA","FM-15","EKVJ ","V020","110,1,N,0123,1","03000,1,C,N","011265,1,N,1","+0140,1","+0110,1","99999,9","07,5,+03000,1,99,9",,,"07,99,1,99,9,99,9,99999,9,99,9,99,9","10108,1,99999,9",,,,,"MET051METAR EKVJ 081250Z 11024KT 9999 BKN100 14/11 Q1011;",
"06066099999","2010-09-08T13:50:00","4","55.990122","8.353906","5.18","STAUNING, DA","FM-15","EKVJ ","V020","110,1,N,0123,1","03000,1,C,N","011265,1,N,1","+0140,1","+0110,1","99999,9","07,5,+03000,1,99,9",,,"07,99,1,99,9,99,9,99999,9,99,9,99,9","10108,1,99999,9",,,,,"MET051METAR EKVJ 081350Z 11024KT 9999 BKN100 14/11 Q1011;",
"06066099999","2010-09-09T06:20:00","4","55.990122","8.353906","5.18","STAUNING, DA","FM-15","EKVJ ","V020","100,1,N,0051,1","04500,1,C,N","011265,1,N,1","+0140,1","+0130,1","99999,9","02,5,+00600,1,99,9","07,5,+04500,1,99,9",,"07,99,1,99,9,99,9,99999,9,99,9,99,9","10139,1,99999,9",,,,,"MET058METAR EKVJ 090620Z 10010KT 9999 FEW020 BKN150 14/13 Q1014;",
"06066099999","2010-09-09T06:50:00","4","55.990122","8.353906","5.18","STAUNING, DA","FM-15","EKVJ ","V020","100,1,N,0062,1","99999,9,C,N","011265,1,N,1","+0140,1","+0130,1","99999,9","02,5,+00600,1,99,9","04,5,+04500,1,99,9",,"04,99,1,99,9,99,9,99999,9,99,9,99,9","10139,1,99999,9",,,,,"MET058METAR EKVJ 090650Z 10012KT 9999 FEW020 SCT150 14/13 Q1014;","P01 045003SCOCIG"
"06066099999","2010-09-09T07:50:00","4","55.990122","8.353906","5.18","STAUNING, DA","FM-15","EKVJ ","V020","100,1,N,0062,1","00450,1,C,N","011265,1,N,1","+0140,1","+0130,1","99999,9","07,5,+00450,1,99,9",,,"07,99,1,99,9,99,9,99999,9,99,9,99,9","10139,1,99999,9",,,,,"MET051METAR EKVJ 090750Z 10012KT 9999 BKN015 14/13 Q1014;",
"06066099999","2010-09-09T08:50:00","4","55.990122","8.353906","5.18","STAUNING, DA","FM-15","EKVJ ","V020","110,1,N,0093,1","00600,1,C,N","011265,1,N,1","+0170,1","+0140,1","99999,9","07,5,+00600,1,99,9",,,"07,99,1,99,9,99,9,99999,9,99,9,99,9","10139,1,99999,9",,,,,"MET051METAR EKVJ 090850Z 11018KT 9999 BKN020 17/14 Q1014;",
"06066099999","2010-09-09T09:50:00","4","55.990122","8.353906","5.18","STAUNING, DA","FM-15","EKVJ ","V020","110,1,N,0093,1","00600,1,C,N","011265,1,N,1","+0170,1","+0140,1","99999,9","07,5,+00600,1,99,9",,,"07,99,1,99,9,99,9,99999,9,99,9,99,9","10139,1,99999,9",,,,,"MET051METAR EKVJ 090950Z 11018KT 9999 BKN020 17/14 Q1014;",
"06066099999","2010-09-09T10:50:00","4","55.990122","8.353906","5.18","STAUNING, DA","FM-15","EKVJ ","V020","110,1,N,0093,1","00600,1,C,N","011265,1,N,1","+0180,1","+0140,1","99999,9","07,5,+00600,1,99,9",,,"07,99,1,99,9,99,9,99999,9,99,9,99,9","10139,1,99999,9",,,,,"MET051METAR EKVJ 091050Z 11018KT 9999 BKN020 18/14 Q1014;",
"06066099999","2010-09-09T11:50:00","4","55.990122","8.353906","5.18","STAUNING, DA","FM-15","EKVJ ","V020","110,1,N,0093,1","00600,1,C,N","011265,1,N,1","+0180,1","+0140,1","99999,9","07,5,+00600,1,99,9",,,"07,99,1,99,9,99,9,99999,9,99,9,99,9","10139,1,99999,9",,,,,"MET051METAR EKVJ 091150Z 11018KT 9999 BKN020 18/14 Q1014;",
"06066099999","2010-09-09T12:50:00","4","55.990122","8.353906","5.18","STAUNING, DA","FM-15","EKVJ ","V020","110,1,N,0093,1","00600,1,C,N","011265,1,N,1","+0180,1","+0130,1","99999,9","07,5,+00600,1,99,9","07,5,+03000,1,99,9",,"07,99,1,99,9,99,9,99999,9,99,9,99,9","10139,1,99999,9",,,,,"MET058METAR EKVJ 091250Z 11018KT 9999 BKN020 BKN100 18/13 Q1014;",
"06066099999","2010-09-10T06:20:00","4","55.990122","8.353906","5.18","STAUNING, DA","FM-15","EKVJ ","V020","340,1,N,0015,1","00150,1,C,N","005000,1,N,1","+0120,1","+0120,1","99999,9","07,5,+00150,1,99,9",,,"07,99,1,99,9,99,9,99999,9,99,9,99,9","10159,1,99999,9","61,1",,,,"MET055METAR EKVJ 100620Z 34003KT 5000 -RA BKN005 12/12 Q1016;",
"06066099999","2010-09-10T06:50:00","4","55.990122","8.353906","5.18","STAUNING, DA","FM-15","EKVJ ","V020","340,1,N,0015,1","00150,1,C,N","005000,1,N,1","+0120,1","+0120,1","99999,9","07,5,+00150,1,99,9",,,"07,99,1,99,9,99,9,99999,9,99,9,99,9","10159,1,99999,9","61,1",,,,"MET055METAR EKVJ 100650Z 34003KT 5000 -RA BKN005 12/12 Q1016;",
"06066099999","2010-09-10T07:50:00","4","55.990122","8.353906","5.18","STAUNING, DA","FM-15","EKVJ ","V020","350,1,N,0015,1","00150,1,C,N","006000,1,N,1","+0120,1","+0120,1","99999,9","07,5,+00150,1,99,9",,,"07,99,1,99,9,99,9,99999,9,99,9,99,9","10159,1,99999,9","61,1",,,,"MET055METAR EKVJ 100750Z 35003KT 6000 -RA BKN005 12/12 Q1016;",
"06066099999","2010-09-10T08:50:00","4","55.990122","8.353906","5.18","STAUNING, DA","FM-15","EKVJ ","V020","360,1,N,0015,1","00150,1,C,N","008000,1,N,1","+0120,1","+0120,1","99999,9","07,5,+00150,1,99,9",,,"07,99,1,99,9,99,9,99999,9,99,9,99,9","10159,1,99999,9","51,1",,,,"MET055METAR EKVJ 100850Z 36003KT 8000 -DZ BKN005 12/12 Q1016;",
"06066099999","2010-09-10T09:50:00","4","55.990122","8.353906","5.18","STAUNING, DA","FM-15","EKVJ ","V020","360,1,N,0015,1","00210,1,C,N","008000,1,N,1","+0120,1","+0120,1","99999,9","07,5,+00210,1,99,9",,,"07,99,1,99,9,99,9,99999,9,99,9,99,9","10159,1,99999,9","51,1",,,,"MET055METAR EKVJ 100950Z 36003KT 8000 -DZ BKN007 12/12 Q1016;",
"06066099999","2010-09-10T10:50:00","4","55.990122","8.353906","5.18","STAUNING, DA","FM-15","EKVJ ","V020","330,1,N,0015,1","00300,1,C,N","011265,1,N,1","+0120,1","+0120,1","99999,9","02,5,+00210,1,99,9","07,5,+00300,1,99,9",,"07,99,1,99,9,99,9,99999,9,99,9,99,9","10159,1,99999,9",,,,,"MET058METAR EKVJ 101050Z 33003KT 9999 FEW007 BKN010 12/12 Q1016;",
"06066099999","2010-09-10T12:50:00","4","55.990122","8.353906","5.18","STAUNING, DA","FM-15","EKVJ ","V020","280,1,N,0026,1","02100,1,C,N","011265,1,N,1","+0160,1","+0150,1","99999,9","04,5,+00450,1,99,9","07,5,+02100,1,99,9",,"07,99,1,99,9,99,9,99999,9,99,9,99,9","10169,1,99999,9",,,,,"MET058METAR EKVJ 101250Z 28005KT 9999 SCT015 BKN070 16/15 Q1017;",
"06066099999","2010-09-10T13:50:00","4","55.990122","8.353906","5.18","STAUNING, DA","FM-15","EKVJ ","V020","280,1,N,0026,1","99999,9,C,N","011265,1,N,1","+0160,1","+0150,1","99999,9","04,5,+00450,1,99,9","04,5,+02100,1,99,9",,"04,99,1,99,9,99,9,99999,9,99,9,99,9","10169,1,99999,9",,,,,"MET058METAR EKVJ 101350Z 28005KT 9999 SCT015 SCT070 16/15 Q1017;","P01 021003SCOCIG"
"06066099999","2010-09-13T06:20:00","4","55.990122","8.353906","5.18","STAUNING, DA","FM-15","EKVJ ","V020","290,1,N,0041,1","22000,1,9,N","011265,1,N,1","+0120,1","+0100,1","99999,9","04,5,+00600,1,99,9",,,"04,99,1,99,9,99,9,99999,9,99,9,99,9","10102,1,99999,9",,,,,"MET051METAR EKVJ 130620Z 29008KT 9999 SCT020 12/10 Q1010;",
"06066099999","2010-09-13T06:50:00","4","55.990122","8.353906","5.18","STAUNING, DA","FM-15","EKVJ ","V020","290,1,N,0041,1","22000,1,9,N","011265,1,N,1","+0120,1","+0100,1","99999,9","04,5,+00600,1,99,9",,,"04,99,1,99,9,99,9,99999,9,99,9,99,9","10102,1,99999,9",,,,,"MET051METAR EKVJ 130650Z 29008KT 9999 SCT020 12/10 Q1010;",
"06066099999","2010-09-13T07:50:00","4","55.990122","8.353906","5.18","STAUNING, DA","FM-15","EKVJ ","V020","310,1,N,0041,1","22000,1,9,N","011265,1,N,1","+0120,1","+0100,1","99999,9","04,5,+00600,1,02,1",,,"04,99,1,99,9,99,9,99999,9,99,9,99,9","10200,2,99999,9",,,,,"MET054METAR EKVJ 130750Z 31008KT 9999 SCT020TCU 12/10 Q1020;",
"06066099999","2010-09-13T08:50:00","4","55.990122","8.353906","5.18","STAUNING, DA","FM-15","EKVJ ","V020","310,1,N,0041,1","22000,1,9,N","011265,1,N,1","+0140,1","+0100,1","99999,9","04,5,+00600,1,02,1",,,"04,99,1,99,9,99,9,99999,9,99,9,99,9","10200,2,99999,9",,,,,"MET054METAR EKVJ 130850Z 31008KT 9999 SCT020TCU 14/10 Q1020;",
"06066099999","2010-09-13T09:50:00","4","55.990122","8.353906","5.18","STAUNING, DA","FM-15","EKVJ ","V020","260,1,N,0041,1","22000,1,9,N","011265,1,N,1","+0140,1","+0100,1","99999,9","04,5,+00600,1,02,1",,,"04,99,1,99,9,99,9,99999,9,99,9,99,9","10200,2,99999,9",,,,,"MET054METAR EKVJ 130950Z 26008KT 9999 SCT020TCU 14/10 Q1020;",
"06066099999","2010-09-13T10:50:00","4","55.990122","8.353906","5.18","STAUNING, DA","FM-15","EKVJ ","V020","260,1,N,0041,1","22000,1,9,N","011265,1,N,1","+0140,1","+0100,1","99999,9","04,5,+00600,1,02,1",,,"04,99,1,99,9,99,9,99999,9,99,9,99,9","10200,1,99999,9",,,,,"MET054METAR EKVJ 131050Z 26008KT 9999 SCT020TCU 14/10 Q1020;",
"06066099999","2010-09-13T11:50:00","4","55.990122","8.353906","5.18","STAUNING, DA","FM-15","EKVJ ","V020","260,1,N,0041,1","22000,1,9,N","011265,1,N,1","+0140,1","+0100,1","99999,9","04,5,+00600,1,02,1",,,"04,99,1,99,9,99,9,99999,9,99,9,99,9","10200,1,99999,9",,,,,"MET054METAR EKVJ 131150Z 26008KT 9999 SCT020TCU 14/10 Q1020;",
"06066099999","2010-09-13T12:50:00","4","55.990122","8.353906","5.18","STAUNING, DA","FM-15","EKVJ ","V020","260,1,N,0041,1","22000,1,9,N","011265,1,N,1","+0140,1","+0100,1","99999,9","04,5,+00600,1,02,1",,,"04,99,1,99,9,99,9,99999,9,99,9,99,9","10200,1,99999,9",,,,,"MET054METAR EKVJ 131250Z 26008KT 9999 SCT020TCU 14/10 Q1020;",
"06066099999","2010-09-13T13:50:00","4","55.990122","8.353906","5.18","STAUNING, DA","FM-15","EKVJ ","V020","260,1,N,0041,1","22000,1,9,N","011265,1,N,1","+0140,1","+0100,1","99999,9","04,5,+00600,1,02,1",,,"04,99,1,99,9,99,9,99999,9,99,9,99,9","10200,1,99999,9",,,,,"MET054METAR EKVJ 131350Z 26008KT 9999 SCT020TCU 14/10 Q1020;",
"06066099999","2010-09-14T06:20:00","4","55.990122","8.353906","5.18","STAUNING, DA","FM-15","EKVJ ","V020","280,1,N,0051,1","00180,1,C,N","006000,1,N,1","+0160,1","+0160,1","99999,9","07,5,+00180,1,99,9",,,"07,99,1,99,9,99,9,99999,9,99,9,99,9","10061,1,99999,9",,,,,"MET051METAR EKVJ 140620Z 28010KT 6000 BKN006 16/16 Q1006;",
"06066099999","2010-09-14T06:50:00","4","55.990122","8.353906","5.18","STAUNING, DA","FM-15","EKVJ ","V020","280,1,N,0051,1","00180,1,C,N","008000,1,N,1","+0160,1","+0160,1","99999,9","07,5,+00180,1,99,9",,,"07,99,1,99,9,99,9,99999,9,99,9,99,9","10061,1,99999,9",,,,,"MET051METAR EKVJ 140650Z 28010KT 8000 BKN006 16/16 Q1006;",
"06066099999","2010-09-14T07:50:00","4","55.990122","8.353906","5.18","STAUNING, DA","FM-15","EKVJ ","V020","280,1,N,0057,1","00240,1,C,N","011265,1,N,1","+0160,1","+0150,1","99999,9","07,5,+00240,1,99,9",,,"07,99,1,99,9,99,9,99999,9,99,9,99,9","10071,1,99999,9",,,,,"MET051METAR EKVJ 140750Z 28011KT 9999 BKN008 16/15 Q1007;",
"06066099999","2010-09-14T08:50:00","4","55.990122","8.353906","5.18","STAUNING, DA","FM-15","EKVJ ","V020","280,1,N,0057,1","00300,1,C,N","011265,1,N,1","+0160,1","+0150,1","99999,9","02,5,+00240,1,99,9","07,5,+00300,1,99,9",,"07,99,1,99,9,99,9,99999,9,99,9,99,9","10071,1,99999,9",,,,,"MET058METAR EKVJ 140850Z 28011KT 9999 FEW008 BKN010 16/15 Q1007;",
"06066099999","2010-09-14T09:50:00","4","55.990122","8.353906","5.18","STAUNING, DA","FM-15","EKVJ ","V020","280,1,N,0057,1","00450,1,C,N","011265,1,N,1","+0160,1","+0150,1","99999,9","02,5,+00240,1,99,9","07,5,+00450,1,99,9",,"07,99,1,99,9,99,9,99999,9,99,9,99,9","10071,1,99999,9",,,,,"MET058METAR EKVJ 140950Z 28011KT 9999 FEW008 BKN015 16/15 Q1007;",
"06066099999","2010-09-14T10:50:00","4","55.990122","8.353906","5.18","STAUNING, DA","FM-15","EKVJ ","V020","260,1,N,0057,1","00450,1,C,N","011265,1,N,1","+0170,1","+0150,1","99999,9","02,5,+00240,1,99,9","07,5,+00450,1,99,9",,"07,99,1,99,9,99,9,99999,9,99,9,99,9","10071,1,99999,9",,,,,"MET058METAR EKVJ 141050Z 26011KT 9999 FEW008 BKN015 17/15 Q1007;",
"06066099999","2010-09-14T11:50:00","4","55.990122","8.353906","5.18","STAUNING, DA","FM-15","EKVJ ","V020","240,1,N,0062,1","00450,1,C,N","011265,1,N,1","+0170,1","+0150,1","99999,9","02,5,+00240,1,99,9","07,5,+00450,1,99,9",,"07,99,1,99,9,99,9,99999,9,99,9,99,9","10071,1,99999,9",,,,,"MET058METAR EKVJ 141150Z 24012KT 9999 FEW008 BKN015 17/15 Q1007;",
"06066099999","2010-09-14T12:50:00","4","55.990122","8.353906","5.18","STAUNING, DA","FM-15","EKVJ ","V020","210,1,N,0062,1","00240,1,C,N","006000,1,N,1","+0160,1","+0150,1","99999,9","07,5,+00240,1,99,9",,,"07,99,1,99,9,99,9,99999,9,99,9,99,9","10051,1,99999,9","61,1",,,,"MET055METAR EKVJ 141250Z 21012KT 6000 -RA BKN008 16/15 Q1005;",
"06066099999","2010-09-14T13:50:00","4","55.990122","8.353906","5.18","STAUNING, DA","FM-15","EKVJ ","V020","210,1,N,0062,1","00120,1,C,N","007000,1,N,1","+0160,1","+0150,1","99999,9","07,5,+00120,1,99,9",,,"07,99,1,99,9,99,9,99999,9,99,9,99,9","10051,1,99999,9","80,1",,,,"MET057METAR EKVJ 141350Z 21012KT 7000 -SHRA BKN004 16/15 Q1005;",
"06066099999","2010-09-15T06:20:00","4","55.990122","8.353906","5.18","STAUNING, DA","FM-15","EKVJ ","V020","270,1,N,0051,1","00600,1,C,N","011265,1,N,1","+0110,1","+0080,1","99999,9","07,5,+00600,1,09,1",,,"07,99,1,99,9,99,9,99999,9,99,9,99,9","09980,1,99999,9","80,1",,,,"MET059METAR EKVJ 150620Z 27010KT 9999 -SHRA BKN020CB 11/08 Q0998;",
"06066099999","2010-09-15T06:50:00","4","55.990122","8.353906","5.18","STAUNING, DA","FM-15","EKVJ ","V020","270,1,N,0072,1","22000,1,9,N","011265,1,N,1","+0110,1","+0080,1","99999,9","04,5,+00600,1,09,1",,,"04,99,1,99,9,99,9,99999,9,99,9,99,9","09980,1,99999,9",,,,,"MET053METAR EKVJ 150650Z 27014KT 9999 SCT020CB 11/08 Q0998;",
"06066099999","2010-09-15T07:50:00","4","55.990122","8.353906","5.18","STAUNING, DA","FM-15","EKVJ ","V020","260,1,N,0072,1","00600,1,C,N","011265,1,N,1","+0110,1","+0080,1","99999,9","07,5,+00600,1,09,1",,,"07,99,1,99,9,99,9,99999,9,99,9,99,9","09990,1,99999,9",,,,,"MET053METAR EKVJ 150750Z 26014KT 9999 BKN020CB 11/08 Q0999;",
"06066099999","2010-09-15T08:50:00","4","55.990122","8.353906","5.18","STAUNING, DA","FM-15","EKVJ ","V020","240,1,N,0082,1","06000,1,C,N","011265,1,N,1","+0140,1","+0090,1","99999,9","04,5,+00600,1,99,9","07,5,+06000,1,99,9",,"07,99,1,99,9,99,9,99999,9,99,9,99,9","09990,1,99999,9",,,,,"MET058METAR EKVJ 150850Z 24016KT 9999 SCT020 BKN200 14/09 Q0999;",
"06066099999","2010-09-15T10:50:00","4","55.990122","8.353906","5.18","STAUNING, DA","FM-15","EKVJ ","V020","240,1,N,0093,1","06000,1,C,N","011265,1,N,1","+0150,1","+0100,1","99999,9","04,5,+00600,1,09,1","07,5,+06000,1,99,9",,"07,99,1,99,9,99,9,99999,9,99,9,99,9","09980,1,99999,9",,,,,"MET060METAR EKVJ 151050Z 24018KT 9999 SCT020CB BKN200 15/10 Q0998;",
"06066099999","2010-09-15T11:50:00","4","55.990122","8.353906","5.18","STAUNING, DA","FM-15","EKVJ ","V020","240,1,N,0103,1","00600,1,C,N","011265,1,N,1","+0150,1","+0100,1","99999,9","07,5,+00600,1,09,1",,,"07,99,1,99,9,99,9,99999,9,99,9,99,9","09970,1,99999,9","63,1",,,,"MET056METAR EKVJ 151150Z 24020KT 9999 RA BKN020CB 15/10 Q0997;",
"06066099999","2010-09-15T12:50:00","4","55.990122","8.353906","5.18","STAUNING, DA","FM-15","EKVJ ","V020","220,1,N,0072,1","00600,1,C,N","006000,1,N,1","+0120,1","+0100,1","99999,9","07,5,+00600,1,09,1",,,"07,99,1,99,9,99,9,99999,9,99,9,99,9","09959,1,99999,9","63,1",,,"0123,1","MET059METAR EKVJ 151250Z 22014G24KT 6000 RA BKN020CB 12/10 Q0996;",
"06066099999","2010-09-15T13:50:00","4","55.990122","8.353906","5.18","STAUNING, DA","FM-15","EKVJ ","V020","220,1,N,0082,1","00600,1,C,N","005000,1,N,1","+0120,1","+0100,1","99999,9","07,5,+00600,1,09,1",,,"07,99,1,99,9,99,9,99999,9,99,9,99,9","09929,1,99999,9","63,1",,,"0134,1","MET059METAR EKVJ 151350Z 22016G26KT 5000 RA BKN020CB 12/10 Q0993;",
"06066099999","2010-09-16T06:20:00","4","55.990122","8.353906","5.18","STAUNING, DA","FM-15","EKVJ ","V020","270,1,N,0051,1","22000,1,9,N","011265,1,N,1","+0130,1","+0110,1","99999,9","04,5,+00600,1,99,9",,,"04,99,1,99,9,99,9,99999,9,99,9,99,9","10081,1,99999,9",,,,,"MET051METAR EKVJ 160620Z 27010KT 9999 SCT020 13/11 Q1008;",
"06066099999","2010-09-16T06:50:00","4","55.990122","8.353906","5.18","STAUNING, DA","FM-15","EKVJ ","V020","270,1,N,0072,1","00600,1,C,N","011265,1,N,1","+0130,1","+0110,1","99999,9","07,5,+00600,1,99,9",,,"07,99,1,99,9,99,9,99999,9,99,9,99,9","10071,1,99999,9",,,,,"MET051METAR EKVJ 160650Z 27014KT 9999 BKN020 13/11 Q1007;",
"06066099999","2010-09-16T07:50:00","4","55.990122","8.353906","5.18","STAUNING, DA","FM-15","EKVJ ","V020","270,1,N,0072,1","22000,1,9,N","011265,1,N,1","+0130,1","+0100,1","99999,9","04,5,+00600,1,99,9",,,"04,99,1,99,9,99,9,99999,9,99,9,99,9","10071,1,99999,9",,,,,"MET059METAR EKVJ 160750Z 27014KT 240V300 9999 SCT020 13/10 Q1007;",
"06066099999","2010-09-16T08:50:00","4","55.990122","8.353906","5.18","STAUNING, DA","FM-15","EKVJ ","V020","270,1,N,0082,1","22000,1,9,N","011265,1,N,1","+0150,1","+0120,1","99999,9","04,5,+00750,1,02,1",,,"04,99,1,99,9,99,9,99999,9,99,9,99,9","09970,2,99999,9",,,,,"MET062METAR EKVJ 160850Z 27016KT 240V300 9999 SCT025TCU 15/12 Q0997;",
"06066099999","2010-09-16T09:50:00","4","55.990122","8.353906","5.18","STAUNING, DA","FM-15","EKVJ ","V020","270,1,N,0082,1","22000,1,9,N","011265,1,N,1","+0150,1","+0120,1","99999,9","04,5,+00750,1,02,1",,,"04,99,1,99,9,99,9,99999,9,99,9,99,9","09970,2,99999,9",,,,,"MET062METAR EKVJ 160950Z 27016KT 240V310 9999 SCT025TCU 15/12 Q0997;",
"06066099999","2010-09-16T10:50:00","4","55.990122","8.353906","5.18","STAUNING, DA","FM-15","EKVJ ","V020","270,1,N,0082,1","22000,1,9,N","011265,1,N,1","+0150,1","+0120,1","99999,9","04,5,+00750,1,02,1",,,"04,99,1,99,9,99,9,99999,9,99,9,99,9","09980,2,99999,9",,,,,"MET062METAR EKVJ 161050Z 27016KT 240V320 9999 SCT025TCU 15/12 Q0998;",
"06066099999","2010-09-16T11:50:00","4","55.990122","8.353906","5.18","STAUNING, DA","FM-15","EKVJ ","V020","270,1,N,0082,1","00600,1,C,N","011265,1,N,1","+0130,1","+0110,1","99999,9","07,5,+00600,1,09,1",,,"07,99,1,99,9,99,9,99999,9,99,9,99,9","09980,1,99999,9","61,1",,,,"MET065METAR EKVJ 161150Z 27016KT 240V320 9999 -RA BKN020CB 13/11 Q0998;",
"06066099999","2010-09-16T12:50:00","4","55.990122","8.353906","5.18","STAUNING, DA","FM-15","EKVJ ","V020","270,1,N,0093,1","00750,1,C,N","011265,1,N,1","+0150,1","+0120,1","99999,9","07,5,+00750,1,09,1",,,"07,99,1,99,9,99,9,99999,9,99,9,99,9","09980,1,99999,9","80,1",,,,"MET067METAR EKVJ 161250Z 27018KT 240V320 9999 -SHRA BKN025CB 15/12 Q0998;",
"06066099999","2010-09-16T13:50:00","4","55.990122","8.353906","5.18","STAUNING, DA","FM-15","EKVJ ","V020","270,1,N,0093,1","00600,1,C,N","011265,1,N,1","+0150,1","+0120,1","99999,9","07,5,+00600,1,09,1",,,"07,99,1,99,9,99,9,99999,9,99,9,99,9","09990,1,99999,9","80,1",,,,"MET067METAR EKVJ 161350Z 27018KT 240V320 9999 -SHRA BKN020CB 15/12 Q0999;",
"06066099999","2010-09-17T06:50:00","4","55.990122","8.353906","5.18","STAUNING, DA","FM-15","EKVJ ","V020","290,1,N,0093,1","00600,1,C,N","011265,1,N,1","+0120,1","+0110,1","99999,9","07,5,+00600,1,09,1",,,"07,99,1,99,9,99,9,99999,9,99,9,99,9","09970,1,99999,9","81,1",,,,"MET058METAR EKVJ 170650Z 29018KT 9999 SHRA BKN020CB 12/11 Q0997;",
"06066099999","2010-09-17T07:50:00","4","55.990122","8.353906","5.18","STAUNING, DA","FM-15","EKVJ ","V020","290,1,N,0082,1","00600,1,C,N","011265,1,N,1","+0120,1","+0110,1","99999,9","07,5,+00600,1,09,1",,,"07,99,1,99,9,99,9,99999,9,99,9,99,9","09970,1,99999,9","80,1",,,,"MET059METAR EKVJ 170750Z 29016KT 9999 -SHRA BKN020CB 12/11 Q0997;",
"06066099999","2010-09-17T08:50:00","4","55.990122","8.353906","5.18","STAUNING, DA","FM-15","EKVJ ","V020","290,1,N,0062,1","00600,1,C,N","011265,1,N,1","+0130,1","+0110,1","99999,9","07,5,+00600,1,09,1",,,"07,99,1,99,9,99,9,99999,9,99,9,99,9","09970,1,99999,9","16,1",,,"0113,1","MET061METAR EKVJ 170850Z 29012G22KT 9999 VCSH BKN020CB 13/11 Q0997;",
"06066099999","2010-09-17T09:50:00","4","55.990122","8.353906","5.18","STAUNING, DA","FM-15","EKVJ ","V020","290,1,N,0062,1","00600,1,C,N","011265,1,N,1","+0140,1","+0120,1","99999,9","07,5,+00600,1,09,1",,,"07,99,1,99,9,99,9,99999,9,99,9,99,9","09980,1,99999,9","16,1",,,"0113,1","MET061METAR EKVJ 170950Z 29012G22KT 9999 VCSH BKN020CB 14/12 Q0998;",
"06066099999","2010-09-17T10:50:00","4","55.990122","8.353906","5.18","STAUNING, DA","FM-15","EKVJ ","V020","270,1,N,0062,1","00600,1,C,N","011265,1,N,1","+0140,1","+0120,1","99999,9","07,5,+00600,1,09,1",,,"07,99,1,99,9,99,9,99999,9,99,9,99,9","09980,1,99999,9","16,1",,,"0113,1","MET061METAR EKVJ 171050Z 27012G22KT 9999 VCSH BKN020CB 14/12 Q0998;",
"06066099999","2010-09-17T11:50:00","4","55.990122","8.353906","5.18","STAUNING, DA","FM-15","EKVJ ","V020","280,1,N,0077,1","00600,1,C,N","011265,1,N,1","+0140,1","+0120,1","99999,9","07,5,+00600,1,09,1",,,"07,99,1,99,9,99,9,99999,9,99,9,99,9","09980,1,99999,9","80,1",,,"0144,1","MET062METAR EKVJ 171150Z 28015G28KT 9999 -SHRA BKN020CB 14/12 Q0998;",
"06066099999","2010-09-17T12:50:00","4","55.990122","8.353906","5.18","STAUNING, DA","FM-15","EKVJ ","V020","280,1,N,0077,1","00600,1,C,N","011265,1,N,1","+0150,1","+0120,1","99999,9","07,5,+00600,1,09,1",,,"07,99,1,99,9,99,9,99999,9,99,9,99,9","09990,1,99999,9","16,1",,,"0144,1","MET061METAR EKVJ 171250Z 28015G28KT 9999 VCSH BKN020CB 15/12 Q0999;",
"06066099999","2010-09-17T13:50:00","4","55.990122","8.353906","5.18","STAUNING, DA","FM-15","EKVJ ","V020","280,1,N,0077,1","22000,1,9,N","011265,1,N,1","+0150,1","+0120,1","99999,9","04,5,+00600,1,09,1",,,"04,99,1,99,9,99,9,99999,9,99,9,99,9","09990,1,99999,9","16,1",,,"0144,1","MET061METAR EKVJ 171350Z 28015G28KT 9999 VCSH SCT020CB 15/12 Q0999;",
"06066099999","2010-09-18T08:20:00","4","55.990122","8.353906","5.18","STAUNING, DA","FM-15","EKVJ ","V020","280,1,N,0051,1","22000,1,9,N","011265,1,N,1","+0130,1","+0100,1","99999,9","04,5,+00600,1,99,9",,,"04,99,1,99,9,99,9,99999,9,99,9,99,9","10071,1,99999,9",,,,"0103,1","MET054METAR EKVJ 180820Z 28010G20KT 9999 SCT020 13/10 Q1007;",
"06066099999","2010-09-18T08:50:00","4","55.990122","8.353906","5.18","STAUNING, DA","FM-15","EKVJ ","V020","280,1,N,0051,1","00600,1,C,N","011265,1,N,1","+0130,1","+0100,1","99999,9","07,5,+00600,1,99,9",,,"07,99,1,99,9,99,9,99999,9,99,9,99,9","10071,1,99999,9",,,,"0113,1","MET054METAR EKVJ 180850Z 28010G22KT 9999 BKN020 13/10 Q1007;",
"06066099999","2010-09-18T09:50:00","4","55.990122","8.353906","5.18","STAUNING, DA","FM-15","EKVJ ","V020","280,1,N,0051,1","00660,1,C,N","011265,1,N,1","+0130,1","+0100,1","99999,9","07,5,+00660,1,99,9",,,"07,99,1,99,9,99,9,99999,9,99,9,99,9","10071,1,99999,9","16,1",,,"0113,1","MET059METAR EKVJ 180950Z 28010G22KT 9999 VCSH BKN022 13/10 Q1007;",
"06066099999","2010-09-18T10:50:00","4","55.990122","8.353906","5.18","STAUNING, DA","FM-15","EKVJ ","V020","280,1,N,0067,1","00660,1,C,N","011265,1,N,1","+0130,1","+0100,1","99999,9","07,5,+00660,1,99,9",,,"07,99,1,99,9,99,9,99999,9,99,9,99,9","10071,1,99999,9","16,1",,,"0134,1","MET059METAR EKVJ 181050Z 28013G26KT 9999 VCSH BKN022 13/10 Q1007;",
"06066099999","2010-09-18T11:50:00","4","55.990122","8.353906","5.18","STAUNING, DA","FM-15","EKVJ ","V020","280,1,N,0067,1","00660,1,C,N","011265,1,N,1","+0130,1","+0100,1","99999,9","07,5,+00660,1,99,9",,,"07,99,1,99,9,99,9,99999,9,99,9,99,9","10071,1,99999,9",,,,"0134,1","MET054METAR EKVJ 181150Z 28013G26KT 9999 BKN022 13/10 Q1007;",
"06066099999","2010-09-18T12:50:00","4","55.990122","8.353906","5.18","STAUNING, DA","FM-15","EKVJ ","V020","280,1,N,0067,1","00660,1,C,N","011265,1,N,1","+0130,1","+0100,1","99999,9","07,5,+00660,1,99,9",,,"07,99,1,99,9,99,9,99999,9,99,9,99,9","10081,1,99999,9",,,,"0134,1","MET054METAR EKVJ 181250Z 28013G26KT 9999 BKN022 13/10 Q1008;",
"06066099999","2010-09-19T08:20:00","4","55.990122","8.353906","5.18","STAUNING, DA","FM-15","EKVJ ","V020","280,1,N,0062,1","00810,1,C,N","011265,1,N,1","+0120,1","+0100,1","99999,9","07,5,+00810,1,99,9",,,"07,99,1,99,9,99,9,99999,9,99,9,99,9","10102,1,99999,9",,,,,"MET051METAR EKVJ 190820Z 28012KT 9999 BKN027 12/10 Q1010;",
"06066099999","2010-09-19T08:50:00","4","55.990122","8.353906","5.18","STAUNING, DA","FM-15","EKVJ ","V020","280,1,N,0062,1","00720,1,C,N","011265,1,N,1","+0120,1","+0100,1","99999,9","07,5,+00720,1,99,9",,,"07,99,1,99,9,99,9,99999,9,99,9,99,9","10102,1,99999,9",,,,,"MET051METAR EKVJ 190850Z 28012KT 9999 BKN024 12/10 Q1010;",
"06066099999","2010-09-19T09:50:00","4","55.990122","8.353906","5.18","STAUNING, DA","FM-15","EKVJ ","V020","280,1,N,0062,1","00720,1,C,N","011265,1,N,1","+0120,1","+0100,1","99999,9","02,5,+00600,1,09,1","07,5,+00720,1,99,9",,"07,99,1,99,9,99,9,99999,9,99,9,99,9","10102,1,99999,9","80,1",,,,"MET066METAR EKVJ 190950Z 28012KT 9999 -SHRA FEW020CB BKN024 12/10 Q1010;",
"06066099999","2010-09-19T10:50:00","4","55.990122","8.353906","5.18","STAUNING, DA","FM-15","EKVJ ","V020","280,1,N,0062,1","00720,1,C,N","011265,1,N,1","+0120,1","+0100,1","99999,9","07,5,+00720,1,09,1",,,"07,99,1,99,9,99,9,99999,9,99,9,99,9","10102,1,99999,9","80,1",,,,"MET059METAR EKVJ 191050Z 28012KT 9999 -SHRA BKN024CB 12/10 Q1010;",
"06066099999","2010-09-19T12:20:00","4","55.990122","8.353906","5.18","STAUNING, DA","FM-15","EKVJ ","V020","280,1,N,0036,1","00720,1,C,N","011265,1,N,1","+0130,1","+0100,1","99999,9","07,5,+00720,1,99,9",,,"07,99,1,99,9,99,9,99999,9,99,9,99,9","10102,1,99999,9",,,,,"MET051METAR EKVJ 191220Z 28007KT 9999 BKN024 13/10 Q1010;",
"06066099999","2010-09-19T12:50:00","4","55.990122","8.353906","5.18","STAUNING, DA","FM-15","EKVJ ","V020","280,1,N,0036,1","00720,1,C,N","011265,1,N,1","+0130,1","+0120,1","99999,9","07,5,+00720,1,99,9",,,"07,99,1,99,9,99,9,99999,9,99,9,99,9","10102,1,99999,9",,,,,"MET051METAR EKVJ 191250Z 28007KT 9999 BKN024 13/12 Q1010;",
"06066099999","2010-09-19T13:50:00","4","55.990122","8.353906","5.18","STAUNING, DA","FM-15","EKVJ ","V020","280,1,N,0036,1","00720,1,C,N","011265,1,N,1","+0130,1","+0110,1","99999,9","04,5,+00600,1,99,9","07,5,+00720,1,99,9",,"07,99,1,99,9,99,9,99999,9,99,9,99,9","10102,1,99999,9",,,,,"MET058METAR EKVJ 191350Z 28007KT 9999 SCT020 BKN024 13/11 Q1010;",
"06066099999","2010-09-20T06:20:00","4","55.990122","8.353906","5.18","STAUNING, DA","FM-15","EKVJ ","V020","190,1,N,0026,1","00150,1,C,N","005000,1,N,1","+0140,1","+0140,1","99999,9","07,5,+00150,1,99,9",,,"07,99,1,99,9,99,9,99999,9,99,9,99,9","10061,1,99999,9","51,1",,,,"MET055METAR EKVJ 200620Z 19005KT 5000 -DZ BKN005 14/14 Q1006;",
"06066099999","2010-09-20T06:50:00","4","55.990122","8.353906","5.18","STAUNING, DA","FM-15","EKVJ ","V020","200,1,N,0031,1","00120,1,C,N","005000,1,N,1","+0140,1","+0140,1","99999,9","07,5,+00120,1,99,9",,,"07,99,1,99,9,99,9,99999,9,99,9,99,9","10061,1,99999,9","61,1",,,,"MET055METAR EKVJ 200650Z 20006KT 5000 -RA BKN004 14/14 Q1006;",
"06066099999","2010-09-20T07:50:00","4","55.990122","8.353906","5.18","STAUNING, DA","FM-15","EKVJ ","V020","200,1,N,0031,1","00120,1,C,N","005000,1,N,1","+0140,1","+0140,1","99999,9","07,5,+00120,1,99,9",,,"07,99,1,99,9,99,9,99999,9,99,9,99,9","10061,1,99999,9","61,1",,,,"MET055METAR EKVJ 200750Z 20006KT 5000 -RA BKN004 14/14 Q1006;",
"06066099999","2010-09-20T08:50:00","4","55.990122","8.353906","5.18","STAUNING, DA","FM-15","EKVJ ","V020","200,1,N,0041,1","00120,1,C,N","005000,1,N,1","+0140,1","+0140,1","99999,9","07,5,+00120,1,99,9",,,"07,99,1,99,9,99,9,99999,9,99,9,99,9","10061,1,99999,9","61,1",,,,"MET055METAR EKVJ 200850Z 20008KT 5000 -RA BKN004 14/14 Q1006;",
"06066099999","2010-09-20T09:20:00","4","55.990122","8.353906","5.18","STAUNING, DA","FM-15","EKVJ ","V020","200,1,N,0041,1","00120,1,C,N","004000,1,N,1","+0140,1","+0140,1","99999,9","07,5,+00120,1,99,9",,,"07,99,1,99,9,99,9,99999,9,99,9,99,9","10061,1,99999,9","61,1",,,,"MET055METAR EKVJ 200920Z 20008KT 4000 -RA BKN004 14/14 Q1006;",
"06066099999","2010-09-20T09:50:00","4","55.990122","8.353906","5.18","STAUNING, DA","FM-15","EKVJ ","V020","200,1,N,0041,1","00180,1,C,N","006000,1,N,1","+0140,1","+0140,1","99999,9","07,5,+00180,1,99,9",,,"07,99,1,99,9,99,9,99999,9,99,9,99,9","10061,1,99999,9","61,1",,,,"MET055METAR EKVJ 200950Z 20008KT 6000 -RA BKN006 14/14 Q1006;",
"06066099999","2010-09-20T10:50:00","4","55.990122","8.353906","5.18","STAUNING, DA","FM-15","EKVJ ","V020","210,1,N,0051,1","00210,1,C,N","011265,1,N,1","+0140,1","+0140,1","99999,9","07,5,+00210,1,99,9",,,"07,99,1,99,9,99,9,99999,9,99,9,99,9","10061,1,99999,9","80,1",,,,"MET057METAR EKVJ 201050Z 21010KT 9999 -SHRA BKN007 14/14 Q1006;",
"06066099999","2010-09-20T11:50:00","4","55.990122","8.353906","5.18","STAUNING, DA","FM-15","EKVJ ","V020","210,1,N,0062,1","00600,1,C,N","011265,1,N,1","+0150,1","+0140,1","99999,9","04,5,+00300,1,99,9","07,5,+00600,1,99,9",,"07,99,1,99,9,99,9,99999,9,99,9,99,9","10061,1,99999,9",,,,,"MET058METAR EKVJ 201150Z 21012KT 9999 SCT010 BKN020 15/14 Q1006;",
"06066099999","2010-09-20T12:50:00","4","55.990122","8.353906","5.18","STAUNING, DA","FM-15","EKVJ ","V020","210,1,N,0062,1","01200,1,C,N","011265,1,N,1","+0150,1","+0140,1","99999,9","04,5,+00300,1,99,9","07,5,+01200,1,99,9",,"07,99,1,99,9,99,9,99999,9,99,9,99,9","10061,1,99999,9",,,,,"MET058METAR EKVJ 201250Z 21012KT 9999 SCT010 BKN040 15/14 Q1006;",
"06066099999","2010-09-20T13:50:00","4","55.990122","8.353906","5.18","STAUNING, DA","FM-15","EKVJ ","V020","210,1,N,0072,1","01200,1,C,N","011265,1,N,1","+0150,1","+0140,1","99999,9","04,5,+00300,1,99,9","07,5,+01200,1,99,9",,"07,99,1,99,9,99,9,99999,9,99,9,99,9","10061,1,99999,9",,,,,"MET058METAR EKVJ 201350Z 21014KT 9999 SCT010 BKN040 15/14 Q1006;",
"06066099999","2010-09-21T06:20:00","4","55.990122","8.353906","5.18","STAUNING, DA","FM-15","EKVJ ","V020","320,1,N,0051,1","22000,1,9,N","011265,1,N,1","+0130,1","+0100,1","99999,9","02,5,+00750,1,99,9",,,"02,99,1,99,9,99,9,99999,9,99,9,99,9","10149,1,99999,9",,,,,"MET051METAR EKVJ 210620Z 32010KT 9999 FEW025 13/10 Q1015;",
"06066099999","2010-09-21T06:50:00","4","55.990122","8.353906","5.18","STAUNING, DA","FM-15","EKVJ ","V020","320,1,N,0062,1","22000,1,9,N","011265,1,N,1","+0130,1","+0100,1","99999,9","02,5,+00750,1,99,9",,,"02,99,1,99,9,99,9,99999,9,99,9,99,9","10159,1,99999,9",,,,,"MET051METAR EKVJ 210650Z 32012KT 9999 FEW025 13/10 Q1016;",
"06066099999","2010-09-21T07:50:00","4","55.990122","8.353906","5.18","STAUNING, DA","FM-15","EKVJ ","V020","320,1,N,0062,1","22000,1,9,N","011265,1,N,1","+0140,1","+0100,1","99999,9","02,5,+00750,1,99,9",,,"02,99,1,99,9,99,9,99999,9,99,9,99,9","10169,1,99999,9",,,,,"MET051METAR EKVJ 210750Z 32012KT 9999 FEW025 14/10 Q1017;",
"06066099999","2010-09-21T08:50:00","4","55.990122","8.353906","5.18","STAUNING, DA","FM-15","EKVJ ","V020","320,1,N,0072,1","22000,1,9,N","011265,1,N,1","+0140,1","+0100,1","99999,9","02,5,+00750,1,99,9",,,"02,99,1,99,9,99,9,99999,9,99,9,99,9","10180,1,99999,9",,,,,"MET051METAR EKVJ 210850Z 32014KT 9999 FEW025 14/10 Q1018;",
"06066099999","2010-09-21T09:50:00","4","55.990122","8.353906","5.18","STAUNING, DA","FM-15","EKVJ ","V020","320,1,N,0072,1","22000,1,9,N","011265,1,N,1","+0150,1","+0110,1","99999,9","02,5,+00750,1,99,9",,,"02,99,1,99,9,99,9,99999,9,99,9,99,9","10190,1,99999,9",,,,,"MET051METAR EKVJ 210950Z 32014KT 9999 FEW025 15/11 Q1019;",
"06066099999","2010-09-21T10:50:00","4","55.990122","8.353906","5.18","STAUNING, DA","FM-15","EKVJ ","V020","320,1,N,0062,1","22000,1,9,N","011265,1,N,1","+0150,1","+0100,1","99999,9","04,5,+00750,1,99,9",,,"04,99,1,99,9,99,9,99999,9,99,9,99,9","10190,1,99999,9",,,,,"MET051METAR EKVJ 211050Z 32012KT 9999 SCT025 15/10 Q1019;",
"06066099999","2010-09-21T11:50:00","4","55.990122","8.353906","5.18","STAUNING, DA","FM-15","EKVJ ","V020","310,1,N,0062,1","22000,1,9,N","011265,1,N,1","+0150,1","+0100,1","99999,9","04,5,+00750,1,99,9",,,"04,99,1,99,9,99,9,99999,9,99,9,99,9","10200,1,99999,9",,,,,"MET051METAR EKVJ 211150Z 31012KT 9999 SCT025 15/10 Q1020;",
"06066099999","2010-09-21T12:50:00","4","55.990122","8.353906","5.18","STAUNING, DA","FM-15","EKVJ ","V020","310,1,N,0062,1","22000,1,9,N","011265,1,N,1","+0150,1","+0100,1","99999,9","02,5,+00750,1,99,9",,,"02,99,1,99,9,99,9,99999,9,99,9,99,9","10200,1,99999,9",,,,,"MET051METAR EKVJ 211250Z 31012KT 9999 FEW025 15/10 Q1020;",
"06066099999","2010-09-21T13:50:00","4","55.990122","8.353906","5.18","STAUNING, DA","FM-15","EKVJ ","V020","310,1,N,0051,1","22000,1,9,N","011265,1,N,1","+0150,1","+0100,1","99999,9","02,5,+00750,1,99,9",,,"02,99,1,99,9,99,9,99999,9,99,9,99,9","10210,1,99999,9",,,,,"MET051METAR EKVJ 211350Z 31010KT 9999 FEW025 15/10 Q1021;",
"06066099999","2010-09-22T06:20:00","4","55.990122","8.353906","5.18","STAUNING, DA","FM-15","EKVJ ","V020","140,1,N,0031,1","99999,9,9,Y","009900,1,N,1","+0090,1","+0070,1","99999,9",,,,,"10220,1,99999,9",,,,,"MET045METAR EKVJ 220620Z 14006KT CAVOK 09/07 Q1022;",
"06066099999","2010-09-22T06:50:00","4","55.990122","8.353906","5.18","STAUNING, DA","FM-15","EKVJ ","V020","140,1,N,0031,1","99999,9,9,Y","009900,1,N,1","+0090,1","+0070,1","99999,9",,,,,"10220,1,99999,9",,,,,"MET045METAR EKVJ 220650Z 14006KT CAVOK 09/07 Q1022;",
"06066099999","2010-09-22T07:50:00","4","55.990122","8.353906","5.18","STAUNING, DA","FM-15","EKVJ ","V020","150,1,N,0031,1","99999,9,9,Y","009900,1,N,1","+0120,1","+0100,1","99999,9",,,,,"10220,1,99999,9",,,,,"MET045METAR EKVJ 220750Z 15006KT CAVOK 12/10 Q1022;",
"06066099999","2010-09-22T08:50:00","4","55.990122","8.353906","5.18","STAUNING, DA","FM-15","EKVJ ","V020","150,1,N,0031,1","99999,9,9,Y","009900,1,N,1","+0120,1","+0100,1","99999,9",,,,,"10220,1,99999,9",,,,,"MET045METAR EKVJ 220850Z 15006KT CAVOK 12/10 Q1022;",
"06066099999","2010-09-22T09:50:00","4","55.990122","8.353906","5.18","STAUNING, DA","FM-15","EKVJ ","V020","170,1,N,0051,1","99999,9,9,Y","009900,1,N,1","+0140,1","+0110,1","99999,9",,,,,"10220,1,99999,9",,,,,"MET045METAR EKVJ 220950Z 17010KT CAVOK 14/11 Q1022;",
"06066099999","2010-09-22T10:50:00","4","55.990122","8.353906","5.18","STAUNING, DA","FM-15","EKVJ ","V020","170,1,N,0051,1","01200,1,C,N","011265,1,N,1","+0150,1","+0120,1","99999,9","07,5,+01200,1,99,9",,,"07,99,1,99,9,99,9,99999,9,99,9,99,9","10220,1,99999,9",,,,,"MET051METAR EKVJ 221050Z 17010KT 9999 BKN040 15/12 Q1022;",
"06066099999","2010-09-22T11:50:00","4","55.990122","8.353906","5.18","STAUNING, DA","FM-15","EKVJ ","V020","170,1,N,0051,1","01200,1,C,N","011265,1,N,1","+0150,1","+0120,1","99999,9","07,5,+01200,1,99,9",,,"07,99,1,99,9,99,9,99999,9,99,9,99,9","10210,1,99999,9",,,,,"MET051METAR EKVJ 221150Z 17010KT 9999 BKN040 15/12 Q1021;",
"06066099999","2010-09-22T13:50:00","4","55.990122","8.353906","5.18","STAUNING, DA","FM-15","EKVJ ","V020","170,1,N,0051,1","01200,1,C,N","011265,1,N,1","+0160,1","+0130,1","99999,9","07,5,+01200,1,99,9",,,"07,99,1,99,9,99,9,99999,9,99,9,99,9","10200,1,99999,9",,,,,"MET051METAR EKVJ 221350Z 17010KT 9999 BKN040 16/13 Q1020;",
"06066099999","2010-09-22T14:50:00","4","55.990122","8.353906","5.18","STAUNING, DA","FM-15","EKVJ ","V020","170,1,N,0051,1","01200,1,C,N","011265,1,N,1","+0160,1","+0130,1","99999,9","07,5,+01200,1,99,9",,,"07,99,1,99,9,99,9,99999,9,99,9,99,9","10200,1,99999,9",,,,,"MET051METAR EKVJ 221450Z 17010KT 9999 BKN040 16/13 Q1020;",
"06066099999","2010-09-23T06:20:00","4","55.990122","8.353906","5.18","STAUNING, DA","FM-15","EKVJ ","V020","120,1,N,0026,1","22000,1,9,N","004000,1,N,1","+0120,1","+0120,1","99999,9","02,5,+01800,1,99,9",,,"02,99,1,99,9,99,9,99999,9,99,9,99,9","10119,1,99999,9","10,1",,,,"MET054METAR EKVJ 230620Z 12005KT 4000 BR FEW060 12/12 Q1012;",
"06066099999","2010-09-23T06:50:00","4","55.990122","8.353906","5.18","STAUNING, DA","FM-15","EKVJ ","V020","140,1,N,0026,1","22000,1,9,N","005000,1,N,1","+0120,1","+0120,1","99999,9","02,5,+01800,1,99,9",,,"02,99,1,99,9,99,9,99999,9,99,9,99,9","10119,1,99999,9","10,1",,,,"MET054METAR EKVJ 230650Z 14005KT 5000 BR FEW060 12/12 Q1012;",
"06066099999","2010-09-23T07:50:00","4","55.990122","8.353906","5.18","STAUNING, DA","FM-15","EKVJ ","V020","150,1,N,0041,1","22000,1,9,N","005000,1,N,1","+0140,1","+0130,1","99999,9",,,,"00,99,1,99,9,99,9,99999,9,99,9,99,9","10108,1,99999,9",,,,,"MET048METAR EKVJ 230750Z 15008KT 5000 NSC 14/13 Q1011;","Q01    003SCCGA1"
"06066099999","2010-09-23T08:50:00","4","55.990122","8.353906","5.18","STAUNING, DA","FM-15","EKVJ ","V020","150,1,N,0051,1","22000,1,9,N","006000,1,N,1","+0160,1","+0140,1","99999,9",,,,"00,99,1,99,9,99,9,99999,9,99,9,99,9","10108,1,99999,9",,,,,"MET048METAR EKVJ 230850Z 15010KT 6000 NSC 16/14 Q1011;","Q01    003SCCGA1"
"06066099999","2010-09-23T09:50:00","4","55.990122","8.353906","5.18","STAUNING, DA","FM-15","EKVJ ","V020","190,1,N,0062,1","22000,1,9,N","006000,1,N,1","+0170,1","+0150,1","99999,9","04,5,+04500,1,99,9",,,"04,99,1,99,9,99,9,99999,9,99,9,99,9","10102,1,99999,9",,,,,"MET051METAR EKVJ 230950Z 19012KT 6000 SCT150 17/15 Q1010;",
"06066099999","2010-09-23T10:50:00","4","55.990122","8.353906","5.18","STAUNING, DA","FM-15","EKVJ ","V020","190,1,N,0062,1","22000,1,9,N","006000,1,N,1","+0170,1","+0150,1","99999,9","02,5,+04500,1,99,9",,,"02,99,1,99,9,99,9,99999,9,99,9,99,9","10102,1,99999,9",,,,,"MET051METAR EKVJ 231050Z 19012KT 6000 FEW150 17/15 Q1010;",
"06066099999","2010-09-23T11:50:00","4","55.990122","8.353906","5.18","STAUNING, DA","FM-15","EKVJ ","V020","190,1,N,0051,1","02100,1,C,N","008000,1,N,1","+0170,1","+0150,1","99999,9","07,5,+02100,1,99,9",,,"07,99,1,99,9,99,9,99999,9,99,9,99,9","10102,1,99999,9",,,,,"MET051METAR EKVJ 231150Z 19010KT 8000 BKN070 17/15 Q1010;",
"06066099999","2010-09-23T12:50:00","4","55.990122","8.353906","5.18","STAUNING, DA","FM-15","EKVJ ","V020","190,1,N,0051,1","02100,1,C,N","008000,1,N,1","+0160,1","+0140,1","99999,9","07,5,+02100,1,99,9",,,"07,99,1,99,9,99,9,99999,9,99,9,99,9","10091,1,99999,9",,,,,"MET051METAR EKVJ 231250Z 19010KT 8000 BKN070 16/14 Q1009;",
"06066099999","2010-09-23T13:50:00","4","55.990122","8.353906","5.18","STAUNING, DA","FM-15","EKVJ ","V020","190,1,N,0051,1","02100,1,C,N","008000,1,N,1","+0160,1","+0140,1","99999,9","07,5,+02100,1,99,9",,,"07,99,1,99,9,99,9,99999,9,99,9,99,9","10091,1,99999,9",,,,,"MET051METAR EKVJ 231350Z 19010KT 8000 BKN070 16/14 Q1009;",
"06066099999","2010-09-24T06:20:00","4","55.990122","8.353906","5.18","STAUNING, DA","FM-15","EKVJ ","V020","110,1,N,0021,1","02400,1,C,N","003000,1,N,1","+0140,1","+0140,1","99999,9","02,5,+00900,1,99,9","07,5,+02400,1,99,9",,"07,99,1,99,9,99,9,99999,9,99,9,99,9","10000,1,99999,9","10,1",,,,"MET061METAR EKVJ 240620Z 11004KT 3000 BR FEW030 BKN080 14/14 Q1000;",
"06066099999","2010-09-24T06:50:00","4","55.990122","8.353906","5.18","STAUNING, DA","FM-15","EKVJ ","V020","130,1,N,0021,1","02400,1,C,N","004000,1,N,1","+0140,1","+0140,1","99999,9","02,5,+00900,1,99,9","07,5,+02400,1,99,9",,"07,99,1,99,9,99,9,99999,9,99,9,99,9","10000,1,99999,9","10,1",,,,"MET061METAR EKVJ 240650Z 13004KT 4000 BR FEW030 BKN080 14/14 Q1000;",
"06066099999","2010-09-24T07:50:00","4","55.990122","8.353906","5.18","STAUNING, DA","FM-15","EKVJ ","V020","130,1,N,0021,1","02400,1,C,N","004000,1,N,1","+0140,1","+0140,1","99999,9","02,5,+00900,1,99,9","07,5,+02400,1,99,9",,"07,99,1,99,9,99,9,99999,9,99,9,99,9","10000,1,99999,9","10,1",,,,"MET061METAR EKVJ 240750Z 13004KT 4000 BR FEW030 BKN080 14/14 Q1000;",
"06066099999","2010-09-24T08:50:00","4","55.990122","8.353906","5.18","STAUNING, DA","FM-15","EKVJ ","V020","180,1,N,0021,1","01800,1,C,N","003000,1,N,1","+0150,1","+0150,1","99999,9","07,5,+01800,1,99,9",,,"07,99,1,99,9,99,9,99999,9,99,9,99,9","10000,1,99999,9","10,1",,,,"MET054METAR EKVJ 240850Z 18004KT 3000 BR BKN060 15/15 Q1000;",
"06066099999","2010-09-24T09:50:00","4","55.990122","8.353906","5.18","STAUNING, DA","FM-15","EKVJ ","V020","170,1,N,0021,1","02400,1,C,N","004000,1,N,1","+0160,1","+0150,1","99999,9","07,5,+02400,1,99,9",,,"07,99,1,99,9,99,9,99999,9,99,9,99,9","09990,1,99999,9","10,1",,,,"MET054METAR EKVJ 240950Z 17004KT 4000 BR BKN080 16/15 Q0999;",
"06066099999","2010-09-24T10:50:00","4","55.990122","8.353906","5.18","STAUNING, DA","FM-15","EKVJ ","V020","180,1,N,0031,1","02400,1,C,N","006000,1,N,1","+0160,1","+0150,1","99999,9","07,5,+02400,1,99,9",,,"07,99,1,99,9,99,9,99999,9,99,9,99,9","09990,1,99999,9",,,,,"MET051METAR EKVJ 241050Z 18006KT 6000 BKN080 16/15 Q0999;",
"06066099999","2010-09-24T11:50:00","4","55.990122","8.353906","5.18","STAUNING, DA","FM-15","EKVJ ","V020","190,1,N,0031,1","02400,1,C,N","006000,1,N,1","+0160,1","+0150,1","99999,9","07,5,+02400,1,99,9",,,"07,99,1,99,9,99,9,99999,9,99,9,99,9","09990,1,99999,9",,,,,"MET051METAR EKVJ 241150Z 19006KT 6000 BKN080 16/15 Q0999;",
"06066099999","2010-09-24T12:50:00","4","55.990122","8.353906","5.18","STAUNING, DA","FM-15","EKVJ ","V020","200,1,N,0041,1","02400,1,C,N","006000,1,N,1","+0170,1","+0160,1","99999,9","07,5,+02400,1,99,9",,,"07,99,1,99,9,99,9,99999,9,99,9,99,9","09990,1,99999,9",,,,,"MET051METAR EKVJ 241250Z 20008KT 6000 BKN080 17/16 Q0999;",
"06066099999","2010-09-24T13:50:00","4","55.990122","8.353906","5.18","STAUNING, DA","FM-15","EKVJ ","V020","250,1,N,0051,1","02400,1,C,N","008000,1,N,1","+0170,1","+0160,1","99999,9","04,5,+00360,1,99,9","07,5,+02400,1,99,9",,"07,99,1,99,9,99,9,99999,9,99,9,99,9","09990,1,99999,9",,,,,"MET058METAR EKVJ 241350Z 25010KT 8000 SCT012 BKN080 17/16 Q0999;",
"06066099999","2010-09-25T07:50:00","4","55.990122","8.353906","5.18","STAUNING, DA","FM-15","EKVJ ","V020","140,1,N,0041,1","22000,1,9,N","011265,1,N,1","+0120,1","+0100,1","99999,9","02,5,+01200,1,99,9",,,"02,99,1,99,9,99,9,99999,9,99,9,99,9","10000,1,99999,9",,,,,"MET051METAR EKVJ 250750Z 14008KT 9999 FEW040 12/10 Q1000;",
"06066099999","2010-09-25T09:50:00","4","55.990122","8.353906","5.18","STAUNING, DA","FM-15","EKVJ ","V020","140,1,N,0041,1","22000,1,9,N","011265,1,N,1","+0150,1","+0120,1","99999,9","02,5,+01200,1,99,9",,,"02,99,1,99,9,99,9,99999,9,99,9,99,9","10010,1,99999,9",,,,,"MET051METAR EKVJ 250950Z 14008KT 9999 FEW040 15/12 Q1001;",
"06066099999","2010-09-25T10:50:00","4","55.990122","8.353906","5.18","STAUNING, DA","FM-15","EKVJ ","V020","140,1,N,0051,1","22000,1,9,N","011265,1,N,1","+0150,1","+0100,1","99999,9","02,5,+01200,1,99,9",,,"02,99,1,99,9,99,9,99999,9,99,9,99,9","10020,1,99999,9",,,,,"MET051METAR EKVJ 251050Z 14010KT 9999 FEW040 15/10 Q1002;",
"06066099999","2010-09-25T12:50:00","4","55.990122","8.353906","5.18","STAUNING, DA","FM-15","EKVJ ","V020","140,1,N,0051,1","22000,1,9,N","011265,1,N,1","+0160,1","+0090,1","99999,9","04,5,+01200,1,99,9",,,"04,99,1,99,9,99,9,99999,9,99,9,99,9","10031,1,99999,9",,,,,"MET051METAR EKVJ 251250Z 14010KT 9999 SCT040 16/09 Q1003;",
"06066099999","2010-09-25T13:50:00","4","55.990122","8.353906","5.18","STAUNING, DA","FM-15","EKVJ ","V020","140,1,N,0051,1","22000,1,9,N","011265,1,N,1","+0160,1","+0090,1","99999,9","04,5,+01200,1,99,9",,,"04,99,1,99,9,99,9,99999,9,99,9,99,9","10031,1,99999,9",,,,,"MET051METAR EKVJ 251350Z 14010KT 9999 SCT040 16/09 Q1003;",
"06066099999","2010-09-26T08:20:00","4","55.990122","8.353906","5.18","STAUNING, DA","FM-15","EKVJ ","V020","070,1,N,0051,1","00150,1,C,N","008000,1,N,1","+0160,1","+0090,1","99999,9","07,5,+00150,1,99,9",,,"07,99,1,99,9,99,9,99999,9,99,9,99,9","10102,1,99999,9","61,1",,,,"MET055METAR EKVJ 260820Z 07010KT 8000 -RA BKN005 16/09 Q1010;",
"06066099999","2010-09-26T08:50:00","4","55.990122","8.353906","5.18","STAUNING, DA","FM-15","EKVJ ","V020","040,1,N,0062,1","00150,1,C,N","011265,1,N,1","+0160,1","+0090,1","99999,9","07,5,+00150,1,99,9",,,"07,99,1,99,9,99,9,99999,9,99,9,99,9","10102,1,99999,9","61,1",,,,"MET055METAR EKVJ 260850Z 04012KT 9999 -RA BKN005 16/09 Q1010;",
"06066099999","2010-09-26T09:50:00","4","55.990122","8.353906","5.18","STAUNING, DA","FM-15","EKVJ ","V020","040,1,N,0062,1","00150,1,C,N","011265,1,N,1","+0130,1","+0130,1","99999,9","07,5,+00150,1,99,9",,,"07,99,1,99,9,99,9,99999,9,99,9,99,9","10108,1,99999,9",,,,,"MET051METAR EKVJ 260950Z 04012KT 9999 BKN005 13/13 Q1011;",
"06066099999","2010-09-26T10:50:00","4","55.990122","8.353906","5.18","STAUNING, DA","FM-15","EKVJ ","V020","060,1,N,0062,1","00150,1,C,N","011265,1,N,1","+0130,1","+0130,1","99999,9","07,5,+00150,1,99,9",,,"07,99,1,99,9,99,9,99999,9,99,9,99,9","10108,1,99999,9",,,,,"MET059METAR EKVJ 261050Z 06012KT 020V090 9999 BKN005 13/13 Q1011;",
"06066099999","2010-09-26T11:50:00","4","55.990122","8.353906","5.18","STAUNING, DA","FM-15","EKVJ ","V020","060,1,N,0062,1","00150,1,C,N","008000,1,N,1","+0130,1","+0130,1","99999,9","07,5,+00150,1,99,9",,,"07,99,1,99,9,99,9,99999,9,99,9,99,9","10108,1,99999,9",,,,,"MET059METAR EKVJ 261150Z 06012KT 020V090 8000 BKN005 13/13 Q1011;",
"06066099999","2010-09-26T12:50:00","4","55.990122","8.353906","5.18","STAUNING, DA","FM-15","EKVJ ","V020","060,1,N,0062,1","00150,1,C,N","008000,1,N,1","+0130,1","+0130,1","99999,9","07,5,+00150,1,99,9",,,"07,99,1,99,9,99,9,99999,9,99,9,99,9","10108,1,99999,9",,,,,"MET059METAR EKVJ 261250Z 06012KT 020V090 8000 BKN005 13/13 Q1011;",
"06066099999","2010-09-27T06:20:00","4","55.990122","8.353906","5.18","STAUNING, DA","FM-15","EKVJ ","V020","060,1,N,0051,1","00300,1,C,N","011265,1,N,1","+0120,1","+0110,1","99999,9","07,5,+00300,1,99,9",,,"07,99,1,99,9,99,9,99999,9,99,9,99,9","10129,1,99999,9",,,,,"MET051METAR EKVJ 270620Z 06010KT 9999 BKN010 12/11 Q1013;",
"06066099999","2010-09-27T06:50:00","4","55.990122","8.353906","5.18","STAUNING, DA","FM-15","EKVJ ","V020","060,1,N,0051,1","00300,1,C,N","011265,1,N,1","+0120,1","+0110,1","99999,9","07,5,+00300,1,99,9",,,"07,99,1,99,9,99,9,99999,9,99,9,99,9","10129,1,99999,9",,,,,"MET051METAR EKVJ 270650Z 06010KT 9999 BKN010 12/11 Q1013;",
"06066099999","2010-09-27T07:50:00","4","55.990122","8.353906","5.18","STAUNING, DA","FM-15","EKVJ ","V020","060,1,N,0051,1","00300,1,C,N","011265,1,N,1","+0110,1","+0100,1","99999,9","07,5,+00300,1,99,9",,,"07,99,1,99,9,99,9,99999,9,99,9,99,9","10139,1,99999,9",,,,,"MET051METAR EKVJ 270750Z 06010KT 9999 BKN010 11/10 Q1014;",
"06066099999","2010-09-27T08:50:00","4","55.990122","8.353906","5.18","STAUNING, DA","FM-15","EKVJ ","V020","060,1,N,0062,1","00300,1,C,N","011265,1,N,1","+0110,1","+0100,1","99999,9","07,5,+00300,1,99,9",,,"07,99,1,99,9,99,9,99999,9,99,9,99,9","10139,1,99999,9",,,,,"MET059METAR EKVJ 270850Z 06012KT 030V090 9999 BKN010 11/10 Q1014;",
"06066099999","2010-09-27T09:50:00","4","55.990122","8.353906","5.18","STAUNING, DA","FM-15","EKVJ ","V020","060,1,N,0062,1","00300,1,C,N","011265,1,N,1","+0110,1","+0100,1","99999,9","07,5,+00300,1,99,9",,,"07,99,1,99,9,99,9,99999,9,99,9,99,9","10139,1,99999,9",,,,,"MET059METAR EKVJ 270950Z 06012KT 030V090 9999 BKN010 11/10 Q1014;",
"06066099999","2010-09-27T10:50:00","4","55.990122","8.353906","5.18","STAUNING, DA","FM-15","EKVJ ","V020","060,1,N,0062,1","00300,1,C,N","011265,1,N,1","+0120,1","+0110,1","99999,9","07,5,+00300,1,99,9",,,"07,99,1,99,9,99,9,99999,9,99,9,99,9","10139,1,99999,9",,,,,"MET059METAR EKVJ 271050Z 06012KT 030V100 9999 BKN010 12/11 Q1014;",
"06066099999","2010-09-27T11:50:00","4","55.990122","8.353906","5.18","STAUNING, DA","FM-15","EKVJ ","V020","060,1,N,0051,1","00300,1,C,N","011265,1,N,1","+0120,1","+0110,1","99999,9","07,5,+00300,1,99,9",,,"07,99,1,99,9,99,9,99999,9,99,9,99,9","10139,1,99999,9",,,,,"MET059METAR EKVJ 271150Z 06010KT 030V100 9999 BKN010 12/11 Q1014;",
"06066099999","2010-09-27T12:50:00","4","55.990122","8.353906","5.18","STAUNING, DA","FM-15","EKVJ ","V020","060,1,N,0051,1","00300,1,C,N","011265,1,N,1","+0120,1","+0110,1","99999,9","07,5,+00300,1,99,9",,,"07,99,1,99,9,99,9,99999,9,99,9,99,9","10139,1,99999,9",,,,,"MET059METAR EKVJ 271250Z 06010KT 030V100 9999 BKN010 12/11 Q1014;",
"06066099999","2010-09-27T13:50:00","4","55.990122","8.353906","5.18","STAUNING, DA","FM-15","EKVJ ","V020","060,1,N,0051,1","00300,1,C,N","011265,1,N,1","+0120,1","+0110,1","99999,9","07,5,+00300,1,99,9",,,"07,99,1,99,9,99,9,99999,9,99,9,99,9","10139,1,99999,9",,,,,"MET059METAR EKVJ 271350Z 06010KT 030V100 9999 BKN010 12/11 Q1014;",
"06066099999","2010-09-28T06:20:00","4","55.990122","8.353906","5.18","STAUNING, DA","FM-15","EKVJ ","V020","360,1,N,0021,1","99999,9,9,Y","009900,1,N,1","+0080,1","+0060,1","99999,9",,,,,"10169,1,99999,9",,,,,"MET045METAR EKVJ 280620Z 36004KT CAVOK 08/06 Q1017;",
"06066099999","2010-09-28T06:50:00","4","55.990122","8.353906","5.18","STAUNING, DA","FM-15","EKVJ ","V020","360,1,N,0021,1","99999,9,9,Y","009900,1,N,1","+0080,1","+0060,1","99999,9",,,,,"10169,1,99999,9",,,,,"MET045METAR EKVJ 280650Z 36004KT CAVOK 08/06 Q1017;",
"06066099999","2010-09-28T07:50:00","4","55.990122","8.353906","5.18","STAUNING, DA","FM-15","EKVJ ","V020","360,1,N,0021,1","99999,9,9,Y","009900,1,N,1","+0090,1","+0070,1","99999,9",,,,,"10169,1,99999,9",,,,,"MET045METAR EKVJ 280750Z 36004KT CAVOK 09/07 Q1017;",
"06066099999","2010-09-28T08:50:00","4","55.990122","8.353906","5.18","STAUNING, DA","FM-15","EKVJ ","V020","360,1,N,0021,1","22000,1,9,N","011265,1,N,1","+0090,1","+0070,1","99999,9","02,5,+00900,1,99,9",,,"02,99,1,99,9,99,9,99999,9,99,9,99,9","10169,1,99999,9",,,,,"MET051METAR EKVJ 280850Z 36004KT 9999 FEW030 09/07 Q1017;",
"06066099999","2010-09-28T09:50:00","4","55.990122","8.353906","5.18","STAUNING, DA","FM-15","EKVJ ","V020","040,1,N,0062,1","22000,1,9,N","011265,1,N,1","+0100,1","+0080,1","99999,9","02,5,+00900,1,99,9",,,"02,99,1,99,9,99,9,99999,9,99,9,99,9","10169,1,99999,9",,,,,"MET051METAR EKVJ 280950Z 04012KT 9999 FEW030 10/08 Q1017;",
"06066099999","2010-09-28T10:50:00","4","55.990122","8.353906","5.18","STAUNING, DA","FM-15","EKVJ ","V020","040,1,N,0062,1","22000,1,9,N","011265,1,N,1","+0120,1","+0100,1","99999,9","02,5,+00900,1,99,9",,,"02,99,1,99,9,99,9,99999,9,99,9,99,9","10169,1,99999,9",,,,,"MET051METAR EKVJ 281050Z 04012KT 9999 FEW030 12/10 Q1017;",
"06066099999","2010-09-28T13:50:00","4","55.990122","8.353906","5.18","STAUNING, DA","FM-15","EKVJ ","V020","040,1,N,0062,1","22000,1,9,N","011265,1,N,1","+0120,1","+0100,1","99999,9","02,5,+00900,1,99,9",,,"02,99,1,99,9,99,9,99999,9,99,9,99,9","10180,1,99999,9",,,,,"MET051METAR EKVJ 281350Z 04012KT 9999 FEW030 12/10 Q1018;",
"06066099999","2010-09-29T06:20:00","4","55.990122","8.353906","5.18","STAUNING, DA","FM-15","EKVJ ","V020","060,1,N,0015,1","99999,9,9,Y","009900,1,N,1","+0050,1","+0040,1","99999,9",,,,,"10240,1,99999,9",,,,,"MET045METAR EKVJ 290620Z 06003KT CAVOK 05/04 Q1024;",
"06066099999","2010-09-29T06:50:00","4","55.990122","8.353906","5.18","STAUNING, DA","FM-15","EKVJ ","V020","060,1,N,0015,1","99999,9,9,Y","009900,1,N,1","+0050,1","+0040,1","99999,9",,,,,"10240,1,99999,9",,,,,"MET045METAR EKVJ 290650Z 06003KT CAVOK 05/04 Q1024;",
"06066099999","2010-09-29T07:50:00","4","55.990122","8.353906","5.18","STAUNING, DA","FM-15","EKVJ ","V020","060,1,N,0026,1","99999,9,9,Y","009900,1,N,1","+0090,1","+0070,1","99999,9",,,,,"10240,1,99999,9",,,,,"MET045METAR EKVJ 290750Z 06005KT CAVOK 09/07 Q1024;",
"06066099999","2010-09-29T08:50:00","4","55.990122","8.353906","5.18","STAUNING, DA","FM-15","EKVJ ","V020","060,1,N,0031,1","99999,9,9,Y","009900,1,N,1","+0100,1","+0070,1","99999,9",,,,,"10240,1,99999,9",,,,,"MET053METAR EKVJ 290850Z 06006KT 020V100 CAVOK 10/07 Q1024;",
"06066099999","2010-09-29T09:50:00","4","55.990122","8.353906","5.18","STAUNING, DA","FM-15","EKVJ ","V020","060,1,N,0051,1","22000,1,9,N","011265,1,N,1","+0110,1","+0080,1","99999,9","02,5,+00750,1,99,9",,,"02,99,1,99,9,99,9,99999,9,99,9,99,9","10240,1,99999,9",,,,,"MET059METAR EKVJ 290950Z 06010KT 020V120 9999 FEW025 11/08 Q1024;",
"06066099999","2010-09-29T10:50:00","4","55.990122","8.353906","5.18","STAUNING, DA","FM-15","EKVJ ","V020","070,1,N,0062,1","22000,1,9,N","011265,1,N,1","+0120,1","+0080,1","99999,9","02,5,+00750,1,99,9",,,"02,99,1,99,9,99,9,99999,9,99,9,99,9","10240,1,99999,9",,,,,"MET059METAR EKVJ 291050Z 07012KT 040V120 9999 FEW025 12/08 Q1024;",
"06066099999","2010-09-29T11:50:00","4","55.990122","8.353906","5.18","STAUNING, DA","FM-15","EKVJ ","V020","090,1,N,0062,1","22000,1,9,N","011265,1,N,1","+0120,1","+0060,1","99999,9","02,5,+00750,1,99,9",,,"02,99,1,99,9,99,9,99999,9,99,9,99,9","10240,1,99999,9",,,,,"MET059METAR EKVJ 291150Z 09012KT 060V130 9999 FEW025 12/06 Q1024;",
"06066099999","2010-09-29T12:50:00","4","55.990122","8.353906","5.18","STAUNING, DA","FM-15","EKVJ ","V020","110,1,N,0051,1","22000,1,9,N","011265,1,N,1","+0130,1","+0070,1","99999,9","02,5,+00750,1,99,9",,,"02,99,1,99,9,99,9,99999,9,99,9,99,9","10240,1,99999,9",,,,,"MET059METAR EKVJ 291250Z 11010KT 080V150 9999 FEW025 13/07 Q1024;",
"06066099999","2010-09-29T13:50:00","4","55.990122","8.353906","5.18","STAUNING, DA","FM-15","EKVJ ","V020","110,1,N,0051,1","22000,1,9,N","011265,1,N,1","+0130,1","+0070,1","99999,9","02,5,+00750,1,99,9",,,"02,99,1,99,9,99,9,99999,9,99,9,99,9","10230,1,99999,9",,,,,"MET059METAR EKVJ 291350Z 11010KT 080V150 9999 FEW025 13/07 Q1023;",
"06066099999","2010-09-30T06:20:00","4","55.990122","8.353906","5.18","STAUNING, DA","FM-15","EKVJ ","V020","100,1,N,0036,1","99999,9,9,Y","009900,1,N,1","+0060,1","+0050,1","99999,9",,,,,"10230,1,99999,9",,,,,"MET045METAR EKVJ 300620Z 10007KT CAVOK 06/05 Q1023;",
"06066099999","2010-09-30T06:50:00","4","55.990122","8.353906","5.18","STAUNING, DA","FM-15","EKVJ ","V020","100,1,N,0036,1","99999,9,9,Y","009900,1,N,1","+0060,1","+0050,1","99999,9",,,,,"10230,1,99999,9",,,,,"MET045METAR EKVJ 300650Z 10007KT CAVOK 06/05 Q1023;",
"06066099999","2010-09-30T08:50:00","4","55.990122","8.353906","5.18","STAUNING, DA","FM-15","EKVJ ","V020","100,1,N,0036,1","22000,1,9,N","011265,1,N,1","+0110,1","+0080,1","99999,9","02,5,+00900,1,99,9",,,"02,99,1,99,9,99,9,99999,9,99,9,99,9","10220,1,99999,9",,,,,"MET051METAR EKVJ 300850Z 10007KT 9999 FEW030 11/08 Q1022;",
"06066099999","2010-09-30T09:50:00","4","55.990122","8.353906","5.18","STAUNING, DA","FM-15","EKVJ ","V020","120,1,N,0062,1","22000,1,9,N","011265,1,N,1","+0110,1","+0080,1","99999,9","02,5,+00900,1,99,9",,,"02,99,1,99,9,99,9,99999,9,99,9,99,9","10210,1,99999,9",,,,,"MET051METAR EKVJ 300950Z 12012KT 9999 FEW030 11/08 Q1021;",
"06066099999","2010-09-30T10:50:00","4","55.990122","8.353906","5.18","STAUNING, DA","FM-15","EKVJ ","V020","120,1,N,0062,1","22000,1,9,N","011265,1,N,1","+0110,1","+0080,1","99999,9","02,5,+00900,1,99,9",,,"02,99,1,99,9,99,9,99999,9,99,9,99,9","10210,1,99999,9",,,,,"MET051METAR EKVJ 301050Z 12012KT 9999 FEW030 11/08 Q1021;",
"06066099999","2010-09-30T11:50:00","4","55.990122","8.353906","5.18","STAUNING, DA","FM-15","EKVJ ","V020","120,1,N,0062,1","22000,1,9,N","011265,1,N,1","+0110,1","+0080,1","99999,9","02,5,+00900,1,99,9",,,"02,99,1,99,9,99,9,99999,9,99,9,99,9","10210,1,99999,9",,,,,"MET051METAR EKVJ 301150Z 12012KT 9999 FEW030 11/08 Q1021;",
"06066099999","2010-09-30T12:50:00","4","55.990122","8.353906","5.18","STAUNING, DA","FM-15","EKVJ ","V020","120,1,N,0062,1","22000,1,9,N","011265,1,N,1","+0110,1","+0080,1","99999,9","02,5,+00900,1,99,9",,,"02,99,1,99,9,99,9,99999,9,99,9,99,9","10210,1,99999,9",,,,,"MET051METAR EKVJ 301250Z 12012KT 9999 FEW030 11/08 Q1021;",
"06066099999","2010-10-01T05:50:00","4","55.990122","8.353906","5.18","STAUNING, DA","FM-15","EKVJ ","V020","110,1,N,0051,1","99999,9,9,Y","009900,1,N,1","+0060,1","+0050,1","99999,9",,,,,"10180,1,99999,9",,,,,"MET045METAR EKVJ 010550Z 11010KT CAVOK 06/05 Q1018;",
"06066099999","2010-10-01T06:50:00","4","55.990122","8.353906","5.18","STAUNING, DA","FM-15","EKVJ ","V020","110,1,N,0062,1","99999,9,9,Y","009900,1,N,1","+0060,1","+0050,1","99999,9",,,,,"10180,1,99999,9",,,,,"MET045METAR EKVJ 010650Z 11012KT CAVOK 06/05 Q1018;",
"06066099999","2010-10-01T07:50:00","4","55.990122","8.353906","5.18","STAUNING, DA","FM-15","EKVJ ","V020","110,1,N,0062,1","99999,9,9,Y","009900,1,N,1","+0090,1","+0070,1","99999,9",,,,,"10169,1,99999,9",,,,,"MET045METAR EKVJ 010750Z 11012KT CAVOK 09/07 Q1017;",
"06066099999","2010-10-01T08:50:00","4","55.990122","8.353906","5.18","STAUNING, DA","FM-15","EKVJ ","V020","110,1,N,0072,1","99999,9,9,Y","009900,1,N,1","+0110,1","+0080,1","99999,9",,,,,"10180,1,99999,9",,,,,"MET045METAR EKVJ 010850Z 11014KT CAVOK 11/08 Q1018;",
"06066099999","2010-10-01T09:50:00","4","55.990122","8.353906","5.18","STAUNING, DA","FM-15","EKVJ ","V020","110,1,N,0082,1","22000,1,9,N","011265,1,N,1","+0110,1","+0080,1","99999,9","04,5,+00900,1,99,9",,,"04,99,1,99,9,99,9,99999,9,99,9,99,9","10180,1,99999,9",,,,,"MET051METAR EKVJ 010950Z 11016KT 9999 SCT030 11/08 Q1018;",
"06066099999","2010-10-01T10:50:00","4","55.990122","8.353906","5.18","STAUNING, DA","FM-15","EKVJ ","V020","110,1,N,0082,1","22000,1,9,N","011265,1,N,1","+0120,1","+0070,1","99999,9","04,5,+00900,1,99,9",,,"04,99,1,99,9,99,9,99999,9,99,9,99,9","10180,1,99999,9",,,,,"MET051METAR EKVJ 011050Z 11016KT 9999 SCT030 12/07 Q1018;",
"06066099999","2010-10-01T11:50:00","4","55.990122","8.353906","5.18","STAUNING, DA","FM-15","EKVJ ","V020","120,1,N,0082,1","22000,1,9,N","011265,1,N,1","+0120,1","+0070,1","99999,9","04,5,+00900,1,99,9",,,"04,99,1,99,9,99,9,99999,9,99,9,99,9","10169,1,99999,9",,,,,"MET051METAR EKVJ 011150Z 12016KT 9999 SCT030 12/07 Q1017;",
"06066099999","2010-10-01T12:50:00","4","55.990122","8.353906","5.18","STAUNING, DA","FM-15","EKVJ ","V020","140,1,N,0082,1","22000,1,9,N","011265,1,N,1","+0120,1","+0070,1","99999,9","04,5,+00900,1,99,9",,,"04,99,1,99,9,99,9,99999,9,99,9,99,9","10169,1,99999,9",,,,,"MET051METAR EKVJ 011250Z 14016KT 9999 SCT030 12/07 Q1017;",
"06066099999","2010-10-01T13:50:00","4","55.990122","8.353906","5.18","STAUNING, DA","FM-15","EKVJ ","V020","140,1,N,0062,1","22000,1,9,N","011265,1,N,1","+0130,1","+0060,1","99999,9","02,5,+01050,1,99,9",,,"02,99,1,99,9,99,9,99999,9,99,9,99,9","10169,1,99999,9",,,,"0113,1","MET054METAR EKVJ 011350Z 14012G22KT 9999 FEW035 13/06 Q1017;",
"06066099999","2010-10-04T06:20:00","4","55.990122","8.353906","5.18","STAUNING, DA","FM-15","EKVJ ","V020","130,1,N,0051,1","99999,9,C,N","011265,1,N,1","+0120,1","+0110,1","99999,9","02,5,+00600,1,99,9","04,5,+03000,1,99,9",,"04,99,1,99,9,99,9,99999,9,99,9,99,9","10041,1,99999,9",,,,,"MET058METAR EKVJ 040620Z 13010KT 9999 FEW020 SCT100 12/11 Q1004;","P01 030003SCOCIG"
"06066099999","2010-10-04T06:50:00","4","55.990122","8.353906","5.18","STAUNING, DA","FM-15","EKVJ ","V020","130,1,N,0051,1","99999,9,C,N","011265,1,N,1","+0120,1","+0110,1","99999,9","02,5,+00600,1,99,9","04,5,+03000,1,99,9",,"04,99,1,99,9,99,9,99999,9,99,9,99,9","10041,1,99999,9",,,,,"MET058METAR EKVJ 040650Z 13010KT 9999 FEW020 SCT100 12/11 Q1004;","P01 030003SCOCIG"
"06066099999","2010-10-04T07:50:00","4","55.990122","8.353906","5.18","STAUNING, DA","FM-15","EKVJ ","V020","130,1,N,0072,1","99999,9,C,N","011265,1,N,1","+0120,1","+0110,1","99999,9","02,5,+00600,1,99,9","04,5,+03000,1,99,9",,"04,99,1,99,9,99,9,99999,9,99,9,99,9","10041,1,99999,9",,,,,"MET058METAR EKVJ 040750Z 13014KT 9999 FEW020 SCT100 12/11 Q1004;","P01 030003SCOCIG"
"06066099999","2010-10-04T08:50:00","4","55.990122","8.353906","5.18","STAUNING, DA","FM-15","EKVJ ","V020","130,1,N,0082,1","99999,9,C,N","011265,1,N,1","+0120,1","+0110,1","99999,9","02,5,+00600,1,99,9","04,5,+03000,1,99,9",,"04,99,1,99,9,99,9,99999,9,99,9,99,9","10041,1,99999,9",,,,,"MET058METAR EKVJ 040850Z 13016KT 9999 FEW020 SCT100 12/11 Q1004;","P01 030003SCOCIG"
"06066099999","2010-10-04T09:50:00","4","55.990122","8.353906","5.18","STAUNING, DA","FM-15","EKVJ ","V020","130,1,N,0082,1","99999,9,C,N","011265,1,N,1","+0120,1","+0100,1","99999,9","02,5,+00780,1,99,9","04,5,+03000,1,99,9",,"04,99,1,99,9,99,9,99999,9,99,9,99,9","10041,1,99999,9",,,,,"MET058METAR EKVJ 040950Z 13016KT 9999 FEW026 SCT100 12/10 Q1004;","P01 030003SCOCIG"
"06066099999","2010-10-04T10:50:00","4","55.990122","8.353906","5.18","STAUNING, DA","FM-15","EKVJ ","V020","130,1,N,0082,1","99999,9,C,N","011265,1,N,1","+0120,1","+0100,1","99999,9","02,5,+00780,1,99,9","04,5,+03000,1,99,9",,"04,99,1,99,9,99,9,99999,9,99,9,99,9","10041,1,99999,9",,,,,"MET058METAR EKVJ 041050Z 13016KT 9999 FEW026 SCT100 12/10 Q1004;","P01 030003SCOCIG"
"06066099999","2010-10-04T11:50:00","4","55.990122","8.353906","5.18","STAUNING, DA","FM-15","EKVJ ","V020","130,1,N,0082,1","99999,9,C,N","011265,1,N,1","+0130,1","+0110,1","99999,9","02,5,+00780,1,99,9","04,5,+03000,1,99,9",,"04,99,1,99,9,99,9,99999,9,99,9,99,9","10041,1,99999,9",,,,,"MET058METAR EKVJ 041150Z 13016KT 9999 FEW026 SCT100 13/11 Q1004;","P01 030003SCOCIG"
"06066099999","2010-10-04T13:50:00","4","55.990122","8.353906","5.18","STAUNING, DA","FM-15","EKVJ ","V020","130,1,N,0082,1","99999,9,C,N","011265,1,N,1","+0130,1","+0110,1","99999,9","02,5,+00780,1,99,9","04,5,+03000,1,99,9",,"04,99,1,99,9,99,9,99999,9,99,9,99,9","10041,1,99999,9",,,,,"MET058METAR EKVJ 041350Z 13016KT 9999 FEW026 SCT100 13/11 Q1004;","P01 030003SCOCIG"
"06066099999","2010-10-05T06:20:00","4","55.990122","8.353906","5.18","STAUNING, DA","FM-15","EKVJ ","V020","140,1,N,0062,1","99999,9,9,Y","009900,1,N,1","+0120,1","+0100,1","99999,9",,,,,"10061,1,99999,9",,,,,"MET045METAR EKVJ 050620Z 14012KT CAVOK 12/10 Q1006;",
"06066099999","2010-10-05T06:50:00","4","55.990122","8.353906","5.18","STAUNING, DA","FM-15","EKVJ ","V020","140,1,N,0062,1","99999,9,9,Y","009900,1,N,1","+0120,1","+0100,1","99999,9",,,,,"10061,1,99999,9",,,,,"MET045METAR EKVJ 050650Z 14012KT CAVOK 12/10 Q1006;",
"06066099999","2010-10-05T07:50:00","4","55.990122","8.353906","5.18","STAUNING, DA","FM-15","EKVJ ","V020","140,1,N,0062,1","99999,9,C,N","011265,1,N,1","+0120,1","+0100,1","99999,9","02,5,+00450,1,99,9","04,5,+03600,1,99,9",,"04,99,1,99,9,99,9,99999,9,99,9,99,9","10061,1,99999,9",,,,,"MET058METAR EKVJ 050750Z 14012KT 9999 FEW015 SCT120 12/10 Q1006;","P01 036003SCOCIG"
"06066099999","2010-10-05T08:50:00","4","55.990122","8.353906","5.18","STAUNING, DA","FM-15","EKVJ ","V020","140,1,N,0072,1","00450,1,C,N","008000,1,N,1","+0130,1","+0110,1","99999,9","07,5,+00450,1,99,9",,,"07,99,1,99,9,99,9,99999,9,99,9,99,9","10061,1,99999,9",,,,,"MET051METAR EKVJ 050850Z 14014KT 8000 BKN015 13/11 Q1006;",
"06066099999","2010-10-05T09:50:00","4","55.990122","8.353906","5.18","STAUNING, DA","FM-15","EKVJ ","V020","140,1,N,0072,1","00450,1,C,N","011265,1,N,1","+0140,1","+0120,1","99999,9","07,5,+00450,1,99,9",,,"07,99,1,99,9,99,9,99999,9,99,9,99,9","10061,1,99999,9",,,,,"MET051METAR EKVJ 050950Z 14014KT 9999 BKN015 14/12 Q1006;",
"06066099999","2010-10-05T10:50:00","4","55.990122","8.353906","5.18","STAUNING, DA","FM-15","EKVJ ","V020","140,1,N,0072,1","00450,1,C,N","011265,1,N,1","+0140,1","+0120,1","99999,9","07,5,+00450,1,99,9",,,"07,99,1,99,9,99,9,99999,9,99,9,99,9","10061,1,99999,9",,,,,"MET051METAR EKVJ 051050Z 14014KT 9999 BKN015 14/12 Q1006;",
"06066099999","2010-10-05T11:50:00","4","55.990122","8.353906","5.18","STAUNING, DA","FM-15","EKVJ ","V020","140,1,N,0082,1","00450,1,C,N","011265,1,N,1","+0140,1","+0120,1","99999,9","07,5,+00450,1,99,9",,,"07,99,1,99,9,99,9,99999,9,99,9,99,9","10051,1,99999,9",,,,,"MET051METAR EKVJ 051150Z 14016KT 9999 BKN015 14/12 Q1005;",
"06066099999","2010-10-05T12:50:00","4","55.990122","8.353906","5.18","STAUNING, DA","FM-15","EKVJ ","V020","140,1,N,0082,1","00450,1,C,N","011265,1,N,1","+0140,1","+0120,1","99999,9","07,5,+00450,1,99,9",,,"07,99,1,99,9,99,9,99999,9,99,9,99,9","10051,1,99999,9",,,,,"MET051METAR EKVJ 051250Z 14016KT 9999 BKN015 14/12 Q1005;",
"06066099999","2010-10-05T13:50:00","4","55.990122","8.353906","5.18","STAUNING, DA","FM-15","EKVJ ","V020","140,1,N,0082,1","00450,1,C,N","011265,1,N,1","+0140,1","+0120,1","99999,9","07,5,+00450,1,99,9",,,"07,99,1,99,9,99,9,99999,9,99,9,99,9","10061,1,99999,9",,,,,"MET051METAR EKVJ 051350Z 14016KT 9999 BKN015 14/12 Q1006;",
"06066099999","2010-10-06T06:20:00","4","55.990122","8.353906","5.18","STAUNING, DA","FM-15","EKVJ ","V020","140,1,N,0062,1","22000,1,9,N","004000,1,N,1","+0120,1","+0110,1","99999,9","04,5,+00240,1,99,9",,,"04,99,1,99,9,99,9,99999,9,99,9,99,9","10091,1,99999,9","10,1",,,,"MET054METAR EKVJ 060620Z 14012KT 4000 BR SCT008 12/11 Q1009;",
"06066099999","2010-10-06T06:50:00","4","55.990122","8.353906","5.18","STAUNING, DA","FM-15","EKVJ ","V020","140,1,N,0062,1","00240,1,C,N","004000,1,N,1","+0120,1","+0110,1","99999,9","07,5,+00240,1,99,9",,,"07,99,1,99,9,99,9,99999,9,99,9,99,9","10091,1,99999,9","10,1",,,,"MET054METAR EKVJ 060650Z 14012KT 4000 BR BKN008 12/11 Q1009;",
"06066099999","2010-10-06T07:50:00","4","55.990122","8.353906","5.18","STAUNING, DA","FM-15","EKVJ ","V020","140,1,N,0062,1","00240,1,C,N","004000,1,N,1","+0140,1","+0130,1","99999,9","07,5,+00240,1,99,9",,,"07,99,1,99,9,99,9,99999,9,99,9,99,9","10091,1,99999,9","10,1",,,,"MET054METAR EKVJ 060750Z 14012KT 4000 BR BKN008 14/13 Q1009;",
"06066099999","2010-10-06T08:50:00","4","55.990122","8.353906","5.18","STAUNING, DA","FM-15","EKVJ ","V020","140,1,N,0062,1","00180,1,C,N","004000,1,N,1","+0140,1","+0130,1","99999,9","07,5,+00180,1,99,9",,,"07,99,1,99,9,99,9,99999,9,99,9,99,9","10091,1,99999,9","10,1",,,,"MET054METAR EKVJ 060850Z 14012KT 4000 BR BKN006 14/13 Q1009;",
"06066099999","2010-10-06T09:50:00","4","55.990122","8.353906","5.18","STAUNING, DA","FM-15","EKVJ ","V020","140,1,N,0082,1","00180,1,C,N","005000,1,N,1","+0160,1","+0150,1","99999,9","07,5,+00180,1,99,9",,,"07,99,1,99,9,99,9,99999,9,99,9,99,9","10091,1,99999,9","10,1",,,,"MET054METAR EKVJ 060950Z 14016KT 5000 BR BKN006 16/15 Q1009;",
"06066099999","2010-10-06T10:50:00","4","55.990122","8.353906","5.18","STAUNING, DA","FM-15","EKVJ ","V020","150,1,N,0082,1","00600,1,C,N","008000,1,N,1","+0160,1","+0150,1","99999,9","04,5,+00180,1,99,9","07,5,+00600,1,99,9",,"07,99,1,99,9,99,9,99999,9,99,9,99,9","10091,1,99999,9",,,,,"MET058METAR EKVJ 061050Z 15016KT 8000 SCT006 BKN020 16/15 Q1009;",
"06066099999","2010-10-06T11:50:00","4","55.990122","8.353906","5.18","STAUNING, DA","FM-15","EKVJ ","V020","150,1,N,0082,1","00600,1,C,N","007000,1,N,1","+0160,1","+0150,1","99999,9","04,5,+00180,1,99,9","07,5,+00600,1,99,9",,"07,99,1,99,9,99,9,99999,9,99,9,99,9","10091,1,99999,9",,,,,"MET058METAR EKVJ 061150Z 15016KT 7000 SCT006 BKN020 16/15 Q1009;",
"06066099999","2010-10-06T12:50:00","4","55.990122","8.353906","5.18","STAUNING, DA","FM-15","EKVJ ","V020","160,1,N,0082,1","00600,1,C,N","008000,1,N,1","+0170,1","+0150,1","99999,9","04,5,+00180,1,99,9","07,5,+00600,1,99,9",,"07,99,1,99,9,99,9,99999,9,99,9,99,9","10091,1,99999,9",,,,,"MET058METAR EKVJ 061250Z 16016KT 8000 SCT006 BKN020 17/15 Q1009;",
"06066099999","2010-10-06T13:50:00","4","55.990122","8.353906","5.18","STAUNING, DA","FM-15","EKVJ ","V020","170,1,N,0082,1","00180,1,C,N","003000,1,N,1","+0170,1","+0150,1","99999,9","07,5,+00180,1,99,9",,,"07,99,1,99,9,99,9,99999,9,99,9,99,9","10091,1,99999,9","61,1",,,,"MET055METAR EKVJ 061350Z 17016KT 3000 -RA BKN006 17/15 Q1009;",
"06066099999","2010-10-07T06:20:00","4","55.990122","8.353906","5.18","STAUNING, DA","FM-15","EKVJ ","V020","999,9,C,0000,1","22000,1,9,N","000400,1,N,1","+0080,1","+0080,1","99999,9",,,,"00,99,1,99,9,99,9,99999,9,99,9,99,9","10220,1,99999,9","44,1",,,,"MET051METAR EKVJ 070620Z 00000KT 0400 FG SKC 08/08 Q1022;","Q01    003SCCGA1"
"06066099999","2010-10-07T06:50:00","4","55.990122","8.353906","5.18","STAUNING, DA","FM-15","EKVJ ","V020","999,9,C,0000,1","22000,1,9,N","000600,1,N,1","+0090,1","+0090,1","99999,9",,,,"00,99,1,99,9,99,9,99999,9,99,9,99,9","10220,1,99999,9","44,1",,,,"MET051METAR EKVJ 070650Z 00000KT 0600 FG SKC 09/09 Q1022;","Q01    003SCCGA1"
"06066099999","2010-10-07T07:20:00","4","55.990122","8.353906","5.18","STAUNING, DA","FM-15","EKVJ ","V020","999,9,C,0000,1","22000,1,9,N","006000,1,N,1","+0090,1","+0090,1","99999,9",,,,"00,99,1,99,9,99,9,99999,9,99,9,99,9","10220,1,99999,9",,,,,"MET048METAR EKVJ 070720Z 00000KT 6000 SKC 09/09 Q1022;","Q01    003SCCGA1"
"06066099999","2010-10-07T07:50:00","4","55.990122","8.353906","5.18","STAUNING, DA","FM-15","EKVJ ","V020","999,9,C,0000,1","99999,9,9,Y","009900,1,N,1","+0120,1","+0110,1","99999,9",,,,,"10230,1,99999,9",,,,,"MET045METAR EKVJ 070750Z 00000KT CAVOK 12/11 Q1023;",
"06066099999","2010-10-07T08:50:00","4","55.990122","8.353906","5.18","STAUNING, DA","FM-15","EKVJ ","V020","999,9,C,0000,1","99999,9,9,Y","009900,1,N,1","+0140,1","+0130,1","99999,9",,,,,"10240,1,99999,9",,,,,"MET045METAR EKVJ 070850Z 00000KT CAVOK 14/13 Q1024;",
"06066099999","2010-10-07T09:50:00","4","55.990122","8.353906","5.18","STAUNING, DA","FM-15","EKVJ ","V020","999,9,C,0000,1","99999,9,9,Y","009900,1,N,1","+0150,1","+0130,1","99999,9",,,,,"10240,1,99999,9",,,,,"MET045METAR EKVJ 070950Z 00000KT CAVOK 15/13 Q1024;",
"06066099999","2010-10-07T10:50:00","4","55.990122","8.353906","5.18","STAUNING, DA","FM-15","EKVJ ","V020","999,9,C,0000,1","99999,9,9,Y","009900,1,N,1","+0150,1","+0130,1","99999,9",,,,,"10240,1,99999,9",,,,,"MET045METAR EKVJ 071050Z 00000KT CAVOK 15/13 Q1024;",
"06066099999","2010-10-07T11:50:00","4","55.990122","8.353906","5.18","STAUNING, DA","FM-15","EKVJ ","V020","999,9,C,0000,1","22000,1,9,N","011265,1,N,1","+0170,1","+0130,1","99999,9","02,5,+00750,1,99,9",,,"02,99,1,99,9,99,9,99999,9,99,9,99,9","10251,1,99999,9",,,,,"MET051METAR EKVJ 071150Z 00000KT 9999 FEW025 17/13 Q1025;",
"06066099999","2010-10-07T12:50:00","4","55.990122","8.353906","5.18","STAUNING, DA","FM-15","EKVJ ","V020","999,9,C,0000,1","22000,1,9,N","011265,1,N,1","+0180,1","+0120,1","99999,9","02,5,+00750,1,99,9",,,"02,99,1,99,9,99,9,99999,9,99,9,99,9","10251,1,99999,9",,,,,"MET051METAR EKVJ 071250Z 00000KT 9999 FEW025 18/12 Q1025;",
"06066099999","2010-10-07T13:50:00","4","55.990122","8.353906","5.18","STAUNING, DA","FM-15","EKVJ ","V020","999,9,C,0000,1","22000,1,9,N","011265,1,N,1","+0170,1","+0110,1","99999,9","02,5,+00750,1,99,9",,,"02,99,1,99,9,99,9,99999,9,99,9,99,9","10251,1,99999,9",,,,,"MET051METAR EKVJ 071350Z 00000KT 9999 FEW025 17/11 Q1025;",
"06066099999","2010-10-08T06:50:00","4","55.990122","8.353906","5.18","STAUNING, DA","FM-15","EKVJ ","V020","080,1,N,0041,1","00150,1,C,N","004000,1,N,1","+0120,1","+0110,1","99999,9","07,5,+00150,1,99,9","07,5,+00210,1,99,9",,"07,99,1,99,9,99,9,99999,9,99,9,99,9","10261,1,99999,9","10,1",,,,"MET061METAR EKVJ 080650Z 08008KT 4000 BR BKN005 BKN007 12/11 Q1026;",
"06066099999","2010-10-08T07:50:00","4","55.990122","8.353906","5.18","STAUNING, DA","FM-15","EKVJ ","V020","080,1,N,0041,1","00210,1,C,N","004000,1,N,1","+0120,1","+0110,1","99999,9","04,5,+00150,1,99,9","07,5,+00210,1,99,9",,"07,99,1,99,9,99,9,99999,9,99,9,99,9","10261,1,99999,9","10,1",,,,"MET061METAR EKVJ 080750Z 08008KT 4000 BR SCT005 BKN007 12/11 Q1026;",
"06066099999","2010-10-08T08:50:00","4","55.990122","8.353906","5.18","STAUNING, DA","FM-15","EKVJ ","V020","080,1,N,0041,1","00210,1,C,N","004000,1,N,1","+0120,1","+0110,1","99999,9","04,5,+00150,1,99,9","07,5,+00210,1,99,9",,"07,99,1,99,9,99,9,99999,9,99,9,99,9","10261,1,99999,9","10,1",,,,"MET061METAR EKVJ 080850Z 08008KT 4000 BR SCT005 BKN007 12/11 Q1026;",
"06066099999","2010-10-08T09:50:00","4","55.990122","8.353906","5.18","STAUNING, DA","FM-15","EKVJ ","V020","100,1,N,0041,1","00480,1,C,N","005000,1,N,1","+0120,1","+0110,1","99999,9","04,5,+00300,1,99,9","07,5,+00480,1,99,9",,"07,99,1,99,9,99,9,99999,9,99,9,99,9","10271,1,99999,9","10,1",,,,"MET061METAR EKVJ 080950Z 10008KT 5000 BR SCT010 BKN016 12/11 Q1027;",
"06066099999","2010-10-08T10:50:00","4","55.990122","8.353906","5.18","STAUNING, DA","FM-15","EKVJ ","V020","100,1,N,0041,1","00480,1,C,N","005000,1,N,1","+0120,1","+0110,1","99999,9","04,5,+00300,1,99,9","07,5,+00480,1,99,9",,"07,99,1,99,9,99,9,99999,9,99,9,99,9","10271,1,99999,9","10,1",,,,"MET061METAR EKVJ 081050Z 10008KT 5000 BR SCT010 BKN016 12/11 Q1027;",
"06066099999","2010-10-08T11:50:00","4","55.990122","8.353906","5.18","STAUNING, DA","FM-15","EKVJ ","V020","100,1,N,0041,1","00480,1,C,N","005000,1,N,1","+0120,1","+0110,1","99999,9","04,5,+00300,1,99,9","07,5,+00480,1,99,9",,"07,99,1,99,9,99,9,99999,9,99,9,99,9","10271,1,99999,9","10,1",,,,"MET061METAR EKVJ 081150Z 10008KT 5000 BR SCT010 BKN016 12/11 Q1027;",
"06066099999","2010-10-08T12:50:00","4","55.990122","8.353906","5.18","STAUNING, DA","FM-15","EKVJ ","V020","100,1,N,0041,1","00480,1,C,N","005000,1,N,1","+0120,1","+0110,1","99999,9","04,5,+00300,1,99,9","07,5,+00480,1,99,9",,"07,99,1,99,9,99,9,99999,9,99,9,99,9","10271,1,99999,9","10,1",,,,"MET061METAR EKVJ 081250Z 10008KT 5000 BR SCT010 BKN016 12/11 Q1027;",
"06066099999","2010-10-08T13:50:00","4","55.990122","8.353906","5.18","STAUNING, DA","FM-15","EKVJ ","V020","100,1,N,0041,1","00480,1,C,N","005000,1,N,1","+0120,1","+0110,1","99999,9","04,5,+00300,1,99,9","07,5,+00480,1,99,9",,"07,99,1,99,9,99,9,99999,9,99,9,99,9","10271,1,99999,9","10,1",,,,"MET061METAR EKVJ 081350Z 10008KT 5000 BR SCT010 BKN016 12/11 Q1027;",
"06066099999","2010-10-11T06:20:00","4","55.990122","8.353906","5.18","STAUNING, DA","FM-15","EKVJ ","V020","050,1,N,0015,1","00300,1,C,N","011265,1,N,1","+0070,1","+0070,1","99999,9","07,5,+00300,1,99,9",,,"07,99,1,99,9,99,9,99999,9,99,9,99,9","10230,1,99999,9",,,,,"MET051METAR EKVJ 110620Z 05003KT 9999 BKN010 07/07 Q1023;",
"06066099999","2010-10-11T06:50:00","4","55.990122","8.353906","5.18","STAUNING, DA","FM-15","EKVJ ","V020","060,1,N,0015,1","00300,1,C,N","011265,1,N,1","+0070,1","+0070,1","99999,9","07,5,+00300,1,99,9",,,"07,99,1,99,9,99,9,99999,9,99,9,99,9","10230,1,99999,9",,,,,"MET051METAR EKVJ 110650Z 06003KT 9999 BKN010 07/07 Q1023;",
"06066099999","2010-10-11T07:50:00","4","55.990122","8.353906","5.18","STAUNING, DA","FM-15","EKVJ ","V020","070,1,N,0021,1","00600,1,C,N","011265,1,N,1","+0070,1","+0060,1","99999,9","04,5,+00450,1,99,9","07,5,+00600,1,99,9",,"07,99,1,99,9,99,9,99999,9,99,9,99,9","10230,1,99999,9",,,,,"MET058METAR EKVJ 110750Z 07004KT 9999 SCT015 BKN020 07/06 Q1023;",
"06066099999","2010-10-11T08:50:00","4","55.990122","8.353906","5.18","STAUNING, DA","FM-15","EKVJ ","V020","070,1,N,0031,1","00600,1,C,N","011265,1,N,1","+0080,1","+0070,1","99999,9","04,5,+00450,1,99,9","07,5,+00600,1,99,9",,"07,99,1,99,9,99,9,99999,9,99,9,99,9","10230,1,99999,9",,,,,"MET058METAR EKVJ 110850Z 07006KT 9999 SCT015 BKN020 08/07 Q1023;",
"06066099999","2010-10-11T09:50:00","4","55.990122","8.353906","5.18","STAUNING, DA","FM-15","EKVJ ","V020","120,1,N,0015,1","22000,1,9,N","011265,1,N,1","+0090,1","+0080,1","99999,9","04,5,+00450,1,99,9",,,"04,99,1,99,9,99,9,99999,9,99,9,99,9","10230,1,99999,9",,,,,"MET051METAR EKVJ 110950Z 12003KT 9999 SCT015 09/08 Q1023;",
"06066099999","2010-10-11T10:50:00","4","55.990122","8.353906","5.18","STAUNING, DA","FM-15","EKVJ ","V020","999,9,V,0015,1","22000,1,9,N","011265,1,N,1","+0110,1","+0090,1","99999,9","04,5,+00450,1,99,9",,,"04,99,1,99,9,99,9,99999,9,99,9,99,9","10230,1,99999,9",,,,,"MET051METAR EKVJ 111050Z VRB03KT 9999 SCT015 11/09 Q1023;",
"06066099999","2010-10-11T11:50:00","4","55.990122","8.353906","5.18","STAUNING, DA","FM-15","EKVJ ","V020","290,1,N,0031,1","22000,1,9,N","011265,1,N,1","+0110,1","+0090,1","99999,9","04,5,+00450,1,99,9",,,"04,99,1,99,9,99,9,99999,9,99,9,99,9","10220,1,99999,9",,,,,"MET051METAR EKVJ 111150Z 29006KT 9999 SCT015 11/09 Q1022;",
"06066099999","2010-10-11T12:50:00","4","55.990122","8.353906","5.18","STAUNING, DA","FM-15","EKVJ ","V020","300,1,N,0031,1","22000,1,9,N","011265,1,N,1","+0110,1","+0090,1","99999,9","02,5,+00450,1,99,9",,,"02,99,1,99,9,99,9,99999,9,99,9,99,9","10220,1,99999,9",,,,,"MET051METAR EKVJ 111250Z 30006KT 9999 FEW015 11/09 Q1022;",
"06066099999","2010-10-11T13:50:00","4","55.990122","8.353906","5.18","STAUNING, DA","FM-15","EKVJ ","V020","300,1,N,0041,1","22000,1,9,N","011265,1,N,1","+0120,1","+0100,1","99999,9","02,5,+00600,1,99,9",,,"02,99,1,99,9,99,9,99999,9,99,9,99,9","10210,1,99999,9",,,,,"MET051METAR EKVJ 111350Z 30008KT 9999 FEW020 12/10 Q1021;",
"06066099999","2010-10-12T06:20:00","4","55.990122","8.353906","5.18","STAUNING, DA","FM-15","EKVJ ","V020","999,9,C,0000,1","22000,1,9,N","011265,1,N,1","+0070,1","+0070,1","99999,9","04,5,+00450,1,99,9",,,"04,99,1,99,9,99,9,99999,9,99,9,99,9","10180,1,99999,9",,,,,"MET051METAR EKVJ 120620Z 00000KT 9999 SCT015 07/07 Q1018;",
"06066099999","2010-10-12T06:50:00","4","55.990122","8.353906","5.18","STAUNING, DA","FM-15","EKVJ ","V020","999,9,C,0000,1","22000,1,9,N","011265,1,N,1","+0070,1","+0070,1","99999,9","04,5,+00450,1,99,9",,,"04,99,1,99,9,99,9,99999,9,99,9,99,9","10180,1,99999,9",,,,,"MET051METAR EKVJ 120650Z 00000KT 9999 SCT015 07/07 Q1018;",
"06066099999","2010-10-12T07:50:00","4","55.990122","8.353906","5.18","STAUNING, DA","FM-15","EKVJ ","V020","999,9,C,0000,1","00450,1,C,N","011265,1,N,1","+0100,1","+0100,1","99999,9","07,5,+00450,1,99,9",,,"07,99,1,99,9,99,9,99999,9,99,9,99,9","10180,1,99999,9",,,,,"MET051METAR EKVJ 120750Z 00000KT 9999 BKN015 10/10 Q1018;",
"06066099999","2010-10-12T08:50:00","4","55.990122","8.353906","5.18","STAUNING, DA","FM-15","EKVJ ","V020","290,1,N,0021,1","22000,1,9,N","011265,1,N,1","+0130,1","+0120,1","99999,9","02,5,+00600,1,99,9",,,"02,99,1,99,9,99,9,99999,9,99,9,99,9","10180,1,99999,9",,,,,"MET051METAR EKVJ 120850Z 29004KT 9999 FEW020 13/12 Q1018;",
"06066099999","2010-10-12T09:50:00","4","55.990122","8.353906","5.18","STAUNING, DA","FM-15","EKVJ ","V020","290,1,N,0031,1","22000,1,9,N","011265,1,N,1","+0140,1","+0120,1","99999,9","02,5,+00600,1,99,9",,,"02,99,1,99,9,99,9,99999,9,99,9,99,9","10180,1,99999,9",,,,,"MET051METAR EKVJ 120950Z 29006KT 9999 FEW020 14/12 Q1018;",
"06066099999","2010-10-12T12:20:00","4","55.990122","8.353906","5.18","STAUNING, DA","FM-15","EKVJ ","V020","300,1,N,0041,1","22000,1,9,N","011265,1,N,1","+0130,1","+0100,1","99999,9","02,5,+00750,1,99,9",,,"02,99,1,99,9,99,9,99999,9,99,9,99,9","10180,1,99999,9",,,,,"MET051METAR EKVJ 121220Z 30008KT 9999 FEW025 13/10 Q1018;",
"06066099999","2010-10-12T12:50:00","4","55.990122","8.353906","5.18","STAUNING, DA","FM-15","EKVJ ","V020","300,1,N,0041,1","00750,1,C,N","011265,1,N,1","+0130,1","+0100,1","99999,9","07,5,+00750,1,99,9",,,"07,99,1,99,9,99,9,99999,9,99,9,99,9","10180,1,99999,9",,,,,"MET051METAR EKVJ 121250Z 30008KT 9999 BKN025 13/10 Q1018;",
"06066099999","2010-10-13T06:20:00","4","55.990122","8.353906","5.18","STAUNING, DA","FM-15","EKVJ ","V020","999,9,C,0000,1","22000,1,9,N","006000,1,N,1","+0040,1","+0040,1","99999,9","02,5,+00750,1,99,9",,,"02,99,1,99,9,99,9,99999,9,99,9,99,9","10200,1,99999,9",,,,,"MET051METAR EKVJ 130620Z 00000KT 6000 FEW025 04/04 Q1020;",
"06066099999","2010-10-13T06:50:00","4","55.990122","8.353906","5.18","STAUNING, DA","FM-15","EKVJ ","V020","120,1,N,0021,1","00600,1,C,N","008000,1,N,1","+0040,1","+0040,1","99999,9","07,5,+00600,1,99,9",,,"07,99,1,99,9,99,9,99999,9,99,9,99,9","10200,1,99999,9",,,,,"MET051METAR EKVJ 130650Z 12004KT 8000 BKN020 04/04 Q1020;",
"06066099999","2010-10-13T07:50:00","4","55.990122","8.353906","5.18","STAUNING, DA","FM-15","EKVJ ","V020","130,1,N,0021,1","00300,1,C,N","003000,1,N,1","+0050,1","+0050,1","99999,9","07,5,+00300,1,99,9",,,"07,99,1,99,9,99,9,99999,9,99,9,99,9","10200,1,99999,9","10,1",,,,"MET054METAR EKVJ 130750Z 13004KT 3000 BR BKN010 05/05 Q1020;",
"06066099999","2010-10-13T08:50:00","4","55.990122","8.353906","5.18","STAUNING, DA","FM-15","EKVJ ","V020","999,9,C,0000,1","00300,1,C,N","003000,1,N,1","+0060,1","+0060,1","99999,9","07,5,+00300,1,99,9",,,"07,99,1,99,9,99,9,99999,9,99,9,99,9","10200,1,99999,9","10,1",,,,"MET054METAR EKVJ 130850Z 00000KT 3000 BR BKN010 06/06 Q1020;",
"06066099999","2010-10-13T09:50:00","4","55.990122","8.353906","5.18","STAUNING, DA","FM-15","EKVJ ","V020","999,9,V,0015,1","00150,1,C,N","002500,1,N,1","+0060,1","+0060,1","99999,9","07,5,+00150,1,99,9",,,"07,99,1,99,9,99,9,99999,9,99,9,99,9","10200,1,99999,9","10,1",,,,"MET054METAR EKVJ 130950Z VRB03KT 2500 BR BKN005 06/06 Q1020;",
"06066099999","2010-10-13T10:50:00","4","55.990122","8.353906","5.18","STAUNING, DA","FM-15","EKVJ ","V020","999,9,V,0015,1","00060,1,9,N","000500,1,N,1","+0080,1","+0080,1","99999,9","09,1,+00060,1,99,9",,,"09,99,1,99,9,99,9,00025,1,99,9,99,9","10200,1,99999,9","45,1",,,,"MET053METAR EKVJ 131050Z VRB03KT 0500 FG VV002 08/08 Q1020;",
"06066099999","2010-10-13T11:50:00","4","55.990122","8.353906","5.18","STAUNING, DA","FM-15","EKVJ ","V020","999,9,C,0000,1","00060,1,9,N","000800,1,N,1","+0080,1","+0080,1","99999,9","09,1,+00060,1,99,9",,,"09,99,1,99,9,99,9,00025,1,99,9,99,9","10200,1,99999,9","45,1",,,,"MET053METAR EKVJ 131150Z 00000KT 0800 FG VV002 08/08 Q1020;",
"06066099999","2010-10-13T12:50:00","4","55.990122","8.353906","5.18","STAUNING, DA","FM-15","EKVJ ","V020","999,9,V,0015,1","00060,1,9,N","000800,1,N,1","+0080,1","+0080,1","99999,9","09,1,+00060,1,99,9",,,"09,99,1,99,9,99,9,00025,1,99,9,99,9","10200,1,99999,9","45,1",,,,"MET053METAR EKVJ 131250Z VRB03KT 0800 FG VV002 08/08 Q1020;",
"06066099999","2010-10-13T13:50:00","4","55.990122","8.353906","5.18","STAUNING, DA","FM-15","EKVJ ","V020","999,9,V,0015,1","00120,1,C,N","002000,1,N,1","+0080,1","+0080,1","99999,9","07,5,+00120,1,99,9",,,"07,99,1,99,9,99,9,99999,9,99,9,99,9","10190,1,99999,9","10,1",,,,"MET054METAR EKVJ 131350Z VRB03KT 2000 BR BKN004 08/08 Q1019;",
"06066099999","2010-10-14T06:20:00","4","55.990122","8.353906","5.18","STAUNING, DA","FM-15","EKVJ ","V020","320,1,N,0072,1","00600,1,C,N","011265,1,N,1","+0110,1","+0090,1","99999,9","07,5,+00600,1,99,9",,,"07,99,1,99,9,99,9,99999,9,99,9,99,9","10119,1,99999,9",,,,,"MET051METAR EKVJ 140620Z 32014KT 9999 BKN020 11/09 Q1012;",
"06066099999","2010-10-14T06:50:00","4","55.990122","8.353906","5.18","STAUNING, DA","FM-15","EKVJ ","V020","320,1,N,0072,1","22000,1,9,N","011265,1,N,1","+0110,1","+0090,1","99999,9","02,5,+00600,1,99,9",,,"02,99,1,99,9,99,9,99999,9,99,9,99,9","10119,1,99999,9",,,,,"MET051METAR EKVJ 140650Z 32014KT 9999 FEW020 11/09 Q1012;",
"06066099999","2010-10-14T07:50:00","4","55.990122","8.353906","5.18","STAUNING, DA","FM-15","EKVJ ","V020","320,1,N,0062,1","22000,1,9,N","011265,1,N,1","+0120,1","+0100,1","99999,9","04,5,+00600,1,99,9",,,"04,99,1,99,9,99,9,99999,9,99,9,99,9","10129,1,99999,9",,,,,"MET051METAR EKVJ 140750Z 32012KT 9999 SCT020 12/10 Q1013;",
"06066099999","2010-10-14T08:50:00","4","55.990122","8.353906","5.18","STAUNING, DA","FM-15","EKVJ ","V020","320,1,N,0062,1","00600,1,C,N","011265,1,N,1","+0120,1","+0100,1","99999,9","07,5,+00600,1,99,9",,,"07,99,1,99,9,99,9,99999,9,99,9,99,9","10129,1,99999,9",,,,,"MET051METAR EKVJ 140850Z 32012KT 9999 BKN020 12/10 Q1013;",
"06066099999","2010-10-14T09:50:00","4","55.990122","8.353906","5.18","STAUNING, DA","FM-15","EKVJ ","V020","320,1,N,0072,1","22000,1,9,N","011265,1,N,1","+0130,1","+0100,1","99999,9","04,5,+00600,1,99,9",,,"04,99,1,99,9,99,9,99999,9,99,9,99,9","10129,1,99999,9",,,,,"MET051METAR EKVJ 140950Z 32014KT 9999 SCT020 13/10 Q1013;",
"06066099999","2010-10-14T10:50:00","4","55.990122","8.353906","5.18","STAUNING, DA","FM-15","EKVJ ","V020","320,1,N,0082,1","00600,1,C,N","011265,1,N,1","+0120,1","+0090,1","99999,9","07,5,+00600,1,99,9",,,"07,99,1,99,9,99,9,99999,9,99,9,99,9","10129,1,99999,9",,,,,"MET051METAR EKVJ 141050Z 32016KT 9999 BKN020 12/09 Q1013;",
"06066099999","2010-10-14T11:50:00","4","55.990122","8.353906","5.18","STAUNING, DA","FM-15","EKVJ ","V020","320,1,N,0082,1","00600,1,C,N","011265,1,N,1","+0120,1","+0090,1","99999,9","07,5,+00600,1,99,9",,,"07,99,1,99,9,99,9,99999,9,99,9,99,9","10129,1,99999,9",,,,,"MET051METAR EKVJ 141150Z 32016KT 9999 BKN020 12/09 Q1013;",
"06066099999","2010-10-14T12:50:00","4","55.990122","8.353906","5.18","STAUNING, DA","FM-15","EKVJ ","V020","320,1,N,0082,1","00600,1,C,N","011265,1,N,1","+0120,1","+0090,1","99999,9","07,5,+00600,1,99,9",,,"07,99,1,99,9,99,9,99999,9,99,9,99,9","10129,1,99999,9",,,,,"MET051METAR EKVJ 141250Z 32016KT 9999 BKN020 12/09 Q1013;",
"06066099999","2010-10-14T13:50:00","4","55.990122","8.353906","5.18","STAUNING, DA","FM-15","EKVJ ","V020","320,1,N,0082,1","00600,1,C,N","011265,1,N,1","+0120,1","+0090,1","99999,9","07,5,+00600,1,99,9",,,"07,99,1,99,9,99,9,99999,9,99,9,99,9","10129,1,99999,9",,,,,"MET051METAR EKVJ 141350Z 32016KT 9999 BKN020 12/09 Q1013;",
"06066099999","2010-10-15T06:50:00","4","55.990122","8.353906","5.18","STAUNING, DA","FM-15","EKVJ ","V020","999,9,C,0000,1","22000,1,9,N","011265,1,N,1","+0040,1","+0030,1","99999,9","02,5,+00750,1,99,9",,,"02,99,1,99,9,99,9,99999,9,99,9,99,9","10119,1,99999,9",,,,,"MET051METAR EKVJ 150650Z 00000KT 9999 FEW025 04/03 Q1012;",
"06066099999","2010-10-15T07:50:00","4","55.990122","8.353906","5.18","STAUNING, DA","FM-15","EKVJ ","V020","999,9,C,0000,1","99999,9,C,N","011265,1,N,1","+0080,1","+0070,1","99999,9","02,5,+00750,1,99,9","04,5,+06000,1,99,9",,"04,99,1,99,9,99,9,99999,9,99,9,99,9","10119,1,99999,9",,,,,"MET058METAR EKVJ 150750Z 00000KT 9999 FEW025 SCT200 08/07 Q1012;","P01 060003SCOCIG"
"06066099999","2010-10-15T08:50:00","4","55.990122","8.353906","5.18","STAUNING, DA","FM-15","EKVJ ","V020","999,9,C,0000,1","06000,1,C,N","011265,1,N,1","+0100,1","+0080,1","99999,9","04,5,+00750,1,99,9","07,5,+06000,1,99,9",,"07,99,1,99,9,99,9,99999,9,99,9,99,9","10108,1,99999,9",,,,,"MET058METAR EKVJ 150850Z 00000KT 9999 SCT025 BKN200 10/08 Q1011;",
"06066099999","2010-10-15T09:50:00","4","55.990122","8.353906","5.18","STAUNING, DA","FM-15","EKVJ ","V020","999,9,C,0000,1","00750,1,C,N","011265,1,N,1","+0100,1","+0080,1","99999,9","07,5,+00750,1,99,9",,,"07,99,1,99,9,99,9,99999,9,99,9,99,9","10108,1,99999,9",,,,,"MET051METAR EKVJ 150950Z 00000KT 9999 BKN025 10/08 Q1011;",
"06066099999","2010-10-15T10:50:00","4","55.990122","8.353906","5.18","STAUNING, DA","FM-15","EKVJ ","V020","999,9,V,0015,1","00750,1,C,N","011265,1,N,1","+0100,1","+0090,1","99999,9","07,5,+00750,1,99,9",,,"07,99,1,99,9,99,9,99999,9,99,9,99,9","10102,1,99999,9",,,,,"MET051METAR EKVJ 151050Z VRB03KT 9999 BKN025 10/09 Q1010;",
"06066099999","2010-10-15T11:50:00","4","55.990122","8.353906","5.18","STAUNING, DA","FM-15","EKVJ ","V020","999,9,V,0015,1","03000,1,C,N","011265,1,N,1","+0100,1","+0090,1","99999,9","04,5,+00750,1,99,9","07,5,+03000,1,99,9",,"07,99,1,99,9,99,9,99999,9,99,9,99,9","10102,1,99999,9",,,,,"MET058METAR EKVJ 151150Z VRB03KT 9999 SCT025 BKN100 10/09 Q1010;",
"06066099999","2010-10-15T12:50:00","4","55.990122","8.353906","5.18","STAUNING, DA","FM-15","EKVJ ","V020","999,9,V,0015,1","03000,1,C,N","011265,1,N,1","+0100,1","+0090,1","99999,9","04,5,+00750,1,99,9","07,5,+03000,1,99,9",,"07,99,1,99,9,99,9,99999,9,99,9,99,9","10091,1,99999,9",,,,,"MET058METAR EKVJ 151250Z VRB03KT 9999 SCT025 BKN100 10/09 Q1009;",
"06066099999","2010-10-15T13:50:00","4","55.990122","8.353906","5.18","STAUNING, DA","FM-15","EKVJ ","V020","999,9,V,0015,1","01500,1,C,N","011265,1,N,1","+0100,1","+0090,1","99999,9","04,5,+00750,1,99,9","07,5,+01500,1,99,9",,"07,99,1,99,9,99,9,99999,9,99,9,99,9","10091,1,99999,9",,,,,"MET058METAR EKVJ 151350Z VRB03KT 9999 SCT025 BKN050 10/09 Q1009;",
"06066099999","2010-10-18T06:20:00","4","55.990122","8.353906","5.18","STAUNING, DA","FM-15","EKVJ ","V020","150,1,N,0062,1","00900,1,C,N","011265,1,N,1","+0110,1","+0100,1","99999,9","04,5,+00600,1,99,9","07,5,+00900,1,99,9",,"07,99,1,99,9,99,9,99999,9,99,9,99,9","10149,1,99999,9",,,,,"MET058METAR EKVJ 180620Z 15012KT 9999 SCT020 BKN030 11/10 Q1015;",
"06066099999","2010-10-18T06:50:00","4","55.990122","8.353906","5.18","STAUNING, DA","FM-15","EKVJ ","V020","150,1,N,0062,1","00900,1,C,N","011265,1,N,1","+0110,1","+0100,1","99999,9","04,5,+00600,1,99,9","07,5,+00900,1,99,9",,"07,99,1,99,9,99,9,99999,9,99,9,99,9","10149,1,99999,9",,,,,"MET058METAR EKVJ 180650Z 15012KT 9999 SCT020 BKN030 11/10 Q1015;",
"06066099999","2010-10-18T07:50:00","4","55.990122","8.353906","5.18","STAUNING, DA","FM-15","EKVJ ","V020","180,1,N,0062,1","00900,1,C,N","011265,1,N,1","+0110,1","+0100,1","99999,9","04,5,+00300,1,99,9","07,5,+00900,1,99,9",,"07,99,1,99,9,99,9,99999,9,99,9,99,9","10149,1,99999,9",,,,,"MET058METAR EKVJ 180750Z 18012KT 9999 SCT010 BKN030 11/10 Q1015;",
"06066099999","2010-10-18T08:50:00","4","55.990122","8.353906","5.18","STAUNING, DA","FM-15","EKVJ ","V020","180,1,N,0062,1","00420,1,C,N","011265,1,N,1","+0110,1","+0100,1","99999,9","04,5,+00270,1,99,9","07,5,+00420,1,99,9",,"07,99,1,99,9,99,9,99999,9,99,9,99,9","10149,1,99999,9","63,1",,,,"MET061METAR EKVJ 180850Z 18012KT 9999 RA SCT009 BKN014 11/10 Q1015;",
"06066099999","2010-10-18T09:50:00","4","55.990122","8.353906","5.18","STAUNING, DA","FM-15","EKVJ ","V020","180,1,N,0062,1","00420,1,C,N","011265,1,N,1","+0110,1","+0100,1","99999,9","04,5,+00270,1,99,9","07,5,+00420,1,99,9",,"07,99,1,99,9,99,9,99999,9,99,9,99,9","10149,1,99999,9","81,1",,,,"MET063METAR EKVJ 180950Z 18012KT 9999 SHRA SCT009 BKN014 11/10 Q1015;",
"06066099999","2010-10-18T11:20:00","4","55.990122","8.353906","5.18","STAUNING, DA","FM-15","EKVJ ","V020","210,1,N,0077,1","00420,1,C,N","011265,1,N,1","+0110,1","+0100,1","99999,9","04,5,+00270,1,99,9","07,5,+00420,1,99,9",,"07,99,1,99,9,99,9,99999,9,99,9,99,9","10119,1,99999,9","81,1",,,,"MET064METAR EKVJ 181120Z 210015KT 9999 SHRA SCT009 BKN014 11/10 Q1012;",
"06066099999","2010-10-18T11:50:00","4","55.990122","8.353906","5.18","STAUNING, DA","FM-15","EKVJ ","V020","210,1,N,0077,1","00420,1,C,N","011265,1,N,1","+0110,1","+0100,1","99999,9","04,5,+00270,1,99,9","07,5,+00420,1,99,9",,"07,99,1,99,9,99,9,99999,9,99,9,99,9","10119,1,99999,9","81,1",,,,"MET063METAR EKVJ 181150Z 21015KT 9999 SHRA SCT009 BKN014 11/10 Q1012;",
"06066099999","2010-10-18T12:50:00","4","55.990122","8.353906","5.18","STAUNING, DA","FM-15","EKVJ ","V020","210,1,N,0082,1","00300,1,C,N","006000,1,N,1","+0110,1","+0100,1","99999,9","04,5,+00120,1,99,9","07,5,+00300,1,99,9",,"07,99,1,99,9,99,9,99999,9,99,9,99,9","10108,1,99999,9","81,1",,,,"MET063METAR EKVJ 181250Z 21016KT 6000 SHRA SCT004 BKN010 11/10 Q1011;",
"06066099999","2010-10-18T13:50:00","4","55.990122","8.353906","5.18","STAUNING, DA","FM-15","EKVJ ","V020","210,1,N,0082,1","00300,1,C,N","006000,1,N,1","+0110,1","+0100,1","99999,9","04,5,+00120,1,99,9","07,5,+00300,1,99,9",,"07,99,1,99,9,99,9,99999,9,99,9,99,9","10102,1,99999,9","63,1",,,,"MET061METAR EKVJ 181350Z 21016KT 6000 RA SCT004 BKN010 11/10 Q1010;",
"06066099999","2010-10-19T06:20:00","4","55.990122","8.353906","5.18","STAUNING, DA","FM-15","EKVJ ","V020","250,1,N,0051,1","01200,1,C,N","011265,1,N,1","+0080,1","+0070,1","99999,9","04,5,+00750,1,09,1","07,5,+01200,1,99,9",,"07,99,1,99,9,99,9,99999,9,99,9,99,9","09990,1,99999,9","61,1",,,,"MET064METAR EKVJ 190620Z 25010KT 9999 -RA SCT025CB BKN040 08/07 Q0999;",
"06066099999","2010-10-19T06:50:00","4","55.990122","8.353906","5.18","STAUNING, DA","FM-15","EKVJ ","V020","250,1,N,0041,1","22000,1,9,N","011265,1,N,1","+0080,1","+0070,1","99999,9","04,5,+00750,1,09,1",,,"04,99,1,99,9,99,9,99999,9,99,9,99,9","09990,1,99999,9","80,1",,,,"MET059METAR EKVJ 190650Z 25008KT 9999 -SHRA SCT025CB 08/07 Q0999;",
"06066099999","2010-10-19T07:50:00","4","55.990122","8.353906","5.18","STAUNING, DA","FM-15","EKVJ ","V020","250,1,N,0041,1","00750,1,C,N","011265,1,N,1","+0080,1","+0070,1","99999,9","07,5,+00750,1,09,1",,,"07,99,1,99,9,99,9,99999,9,99,9,99,9","09990,1,99999,9","80,1",,,,"MET059METAR EKVJ 190750Z 25008KT 9999 -SHRA BKN025CB 08/07 Q0999;",
"06066099999","2010-10-19T08:50:00","4","55.990122","8.353906","5.18","STAUNING, DA","FM-15","EKVJ ","V020","270,1,N,0041,1","00750,1,C,N","011265,1,N,1","+0090,1","+0080,1","99999,9","07,5,+00750,1,09,1",,,"07,99,1,99,9,99,9,99999,9,99,9,99,9","09990,1,99999,9","80,1",,,,"MET059METAR EKVJ 190850Z 27008KT 9999 -SHRA BKN025CB 09/08 Q0999;",
"06066099999","2010-10-19T09:50:00","4","55.990122","8.353906","5.18","STAUNING, DA","FM-15","EKVJ ","V020","270,1,N,0041,1","22000,1,9,N","011265,1,N,1","+0100,1","+0090,1","99999,9","04,5,+00750,1,09,1",,,"04,99,1,99,9,99,9,99999,9,99,9,99,9","09980,1,99999,9",,,,,"MET053METAR EKVJ 190950Z 27008KT 9999 SCT025CB 10/09 Q0998;",
"06066099999","2010-10-19T10:50:00","4","55.990122","8.353906","5.18","STAUNING, DA","FM-15","EKVJ ","V020","270,1,N,0041,1","22000,1,9,N","011265,1,N,1","+0100,1","+0080,1","99999,9","04,5,+00750,1,09,1",,,"04,99,1,99,9,99,9,99999,9,99,9,99,9","09980,1,99999,9","80,1",,,,"MET059METAR EKVJ 191050Z 27008KT 9999 -SHRA SCT025CB 10/08 Q0998;",
"06066099999","2010-10-19T11:50:00","4","55.990122","8.353906","5.18","STAUNING, DA","FM-15","EKVJ ","V020","250,1,N,0041,1","22000,1,9,N","011265,1,N,1","+0110,1","+0090,1","99999,9","04,5,+00750,1,09,1",,,"04,99,1,99,9,99,9,99999,9,99,9,99,9","09970,1,99999,9","80,1",,,,"MET059METAR EKVJ 191150Z 25008KT 9999 -SHRA SCT025CB 11/09 Q0997;",
"06066099999","2010-10-19T12:50:00","4","55.990122","8.353906","5.18","STAUNING, DA","FM-15","EKVJ ","V020","250,1,N,0051,1","01200,1,C,N","011265,1,N,1","+0120,1","+0090,1","99999,9","04,5,+00750,1,09,1","07,5,+01200,1,99,9",,"07,99,1,99,9,99,9,99999,9,99,9,99,9","09970,1,99999,9","80,1",,,,"MET066METAR EKVJ 191250Z 25010KT 9999 -SHRA SCT025CB BKN040 12/09 Q0997;",
"06066099999","2010-10-19T13:50:00","4","55.990122","8.353906","5.18","STAUNING, DA","FM-15","EKVJ ","V020","250,1,N,0051,1","01200,1,C,N","011265,1,N,1","+0120,1","+0090,1","99999,9","04,5,+00750,1,09,1","07,5,+01200,1,99,9",,"07,99,1,99,9,99,9,99999,9,99,9,99,9","09970,1,99999,9","80,1",,,,"MET066METAR EKVJ 191350Z 25010KT 9999 -SHRA SCT025CB BKN040 12/09 Q0997;",
"06066099999","2010-10-20T06:20:00","4","55.990122","8.353906","5.18","STAUNING, DA","FM-15","EKVJ ","V020","340,1,N,0077,1","01200,1,C,N","011265,1,N,1","+0070,1","+0050,1","99999,9","04,5,+00750,1,09,1","07,5,+01200,1,99,9",,"07,99,1,99,9,99,9,99999,9,99,9,99,9","09970,1,99999,9","80,1",,,,"MET066METAR EKVJ 200620Z 34015KT 9999 -SHRA SCT025CB BKN040 07/05 Q0997;",
"06066099999","2010-10-20T06:50:00","4","55.990122","8.353906","5.18","STAUNING, DA","FM-15","EKVJ ","V020","340,1,N,0077,1","01200,1,C,N","011265,1,N,1","+0070,1","+0050,1","99999,9","04,5,+00750,1,09,1","07,5,+01200,1,99,9",,"07,99,1,99,9,99,9,99999,9,99,9,99,9","09970,1,99999,9","80,1",,,,"MET066METAR EKVJ 200650Z 34015KT 9999 -SHRA SCT025CB BKN040 07/05 Q0997;",
"06066099999","2010-10-20T07:50:00","4","55.990122","8.353906","5.18","STAUNING, DA","FM-15","EKVJ ","V020","290,1,N,0051,1","01200,1,C,N","011265,1,N,1","+0070,1","+0050,1","99999,9","04,5,+00750,1,09,1","07,5,+01200,1,99,9",,"07,99,1,99,9,99,9,99999,9,99,9,99,9","09970,1,99999,9","81,1",,,,"MET065METAR EKVJ 200750Z 29010KT 9999 SHRA SCT025CB BKN040 07/05 Q0997;",
"06066099999","2010-10-20T08:50:00","4","55.990122","8.353906","5.18","STAUNING, DA","FM-15","EKVJ ","V020","290,1,N,0051,1","01200,1,C,N","011265,1,N,1","+0070,1","+0050,1","99999,9","04,5,+00750,1,09,1","07,5,+01200,1,99,9",,"07,99,1,99,9,99,9,99999,9,99,9,99,9","09980,1,99999,9","81,1",,,,"MET065METAR EKVJ 200850Z 29010KT 9999 SHRA SCT025CB BKN040 07/05 Q0998;",
"06066099999","2010-10-20T09:50:00","4","55.990122","8.353906","5.18","STAUNING, DA","FM-15","EKVJ ","V020","999,9,V,0015,1","01200,1,C,N","011265,1,N,1","+0080,1","+0070,1","99999,9","04,5,+00750,1,09,1","07,5,+01200,1,99,9",,"07,99,1,99,9,99,9,99999,9,99,9,99,9","09980,1,99999,9",,,,,"MET060METAR EKVJ 200950Z VRB03KT 9999 SCT025CB BKN040 08/07 Q0998;",
"06066099999","2010-10-20T10:50:00","4","55.990122","8.353906","5.18","STAUNING, DA","FM-15","EKVJ ","V020","030,1,N,0041,1","01200,1,C,N","011265,1,N,1","+0080,1","+0070,1","99999,9","04,5,+00750,1,09,1","07,5,+01200,1,99,9",,"07,99,1,99,9,99,9,99999,9,99,9,99,9","09980,1,99999,9","80,1",,,,"MET066METAR EKVJ 201050Z 03008KT 9999 -SHRA SCT025CB BKN040 08/07 Q0998;",
"06066099999","2010-10-20T12:20:00","4","55.990122","8.353906","5.18","STAUNING, DA","FM-15","EKVJ ","V020","360,1,N,0041,1","01200,1,C,N","011265,1,N,1","+0070,1","+0060,1","99999,9","04,5,+00750,1,09,1","07,5,+01200,1,99,9",,"07,99,1,99,9,99,9,99999,9,99,9,99,9","10000,1,99999,9","80,1",,,,"MET066METAR EKVJ 201220Z 36008KT 9999 -SHRA SCT025CB BKN040 07/06 Q1000;",
"06066099999","2010-10-20T12:50:00","4","55.990122","8.353906","5.18","STAUNING, DA","FM-15","EKVJ ","V020","360,1,N,0041,1","03000,1,C,N","011265,1,N,1","+0070,1","+0060,1","99999,9","04,5,+00750,1,99,9","07,5,+03000,1,99,9",,"07,99,1,99,9,99,9,99999,9,99,9,99,9","10010,1,99999,9",,,,,"MET058METAR EKVJ 201250Z 36008KT 9999 SCT025 BKN100 07/06 Q1001;",
"06066099999","2010-10-20T13:50:00","4","55.990122","8.353906","5.18","STAUNING, DA","FM-15","EKVJ ","V020","360,1,N,0041,1","03000,1,C,N","011265,1,N,1","+0070,1","+0060,1","99999,9","04,5,+00750,1,99,9","07,5,+03000,1,99,9",,"07,99,1,99,9,99,9,99999,9,99,9,99,9","10020,1,99999,9",,,,,"MET058METAR EKVJ 201350Z 36008KT 9999 SCT025 BKN100 07/06 Q1002;",
"06066099999","2010-10-21T06:20:00","4","55.990122","8.353906","5.18","STAUNING, DA","FM-15","EKVJ ","V020","999,9,C,0000,1","22000,1,9,N","011265,1,N,1","+0010,1","+0010,1","99999,9","04,5,+00600,1,99,9",,,"04,99,1,99,9,99,9,99999,9,99,9,99,9","10108,1,99999,9",,,,,"MET051METAR EKVJ 210620Z 00000KT 9999 SCT020 01/01 Q1011;",
"06066099999","2010-10-21T06:50:00","4","55.990122","8.353906","5.18","STAUNING, DA","FM-15","EKVJ ","V020","999,9,V,0015,1","22000,1,9,N","011265,1,N,1","+0020,1","+0020,1","99999,9","02,5,+00600,1,99,9",,,"02,99,1,99,9,99,9,99999,9,99,9,99,9","10108,1,99999,9",,,,,"MET051METAR EKVJ 210650Z VRB03KT 9999 FEW020 02/02 Q1011;",
"06066099999","2010-10-21T07:50:00","4","55.990122","8.353906","5.18","STAUNING, DA","FM-15","EKVJ ","V020","220,1,N,0041,1","00600,1,C,N","011265,1,N,1","+0040,1","+0030,1","99999,9","07,5,+00600,1,99,9",,,"07,99,1,99,9,99,9,99999,9,99,9,99,9","10119,1,99999,9","80,1",,,,"MET057METAR EKVJ 210750Z 22008KT 9999 -SHRA BKN020 04/03 Q1012;",
"06066099999","2010-10-21T09:20:00","4","55.990122","8.353906","5.18","STAUNING, DA","FM-15","EKVJ ","V020","999,9,V,0031,1","22000,1,9,N","011265,1,N,1","+0060,1","+0050,1","99999,9","02,5,+00750,1,99,9",,,"02,99,1,99,9,99,9,99999,9,99,9,99,9","10119,1,99999,9",,,,,"MET051METAR EKVJ 210920Z VRB06KT 9999 FEW025 06/05 Q1012;",
"06066099999","2010-10-21T09:50:00","4","55.990122","8.353906","5.18","STAUNING, DA","FM-15","EKVJ ","V020","250,1,N,0041,1","01350,1,C,N","011265,1,N,1","+0070,1","+0020,1","99999,9","02,5,+00750,1,99,9","07,5,+01350,1,99,9",,"07,99,1,99,9,99,9,99999,9,99,9,99,9","10119,1,99999,9",,,,,"MET058METAR EKVJ 210950Z 25008KT 9999 FEW025 BKN045 07/02 Q1012;",
"06066099999","2010-10-21T10:50:00","4","55.990122","8.353906","5.18","STAUNING, DA","FM-15","EKVJ ","V020","250,1,N,0041,1","01350,1,C,N","011265,1,N,1","+0070,1","+0040,1","99999,9","02,5,+00750,1,09,1","07,5,+01350,1,99,9",,"07,99,1,99,9,99,9,99999,9,99,9,99,9","10108,1,99999,9","80,1",,,,"MET066METAR EKVJ 211050Z 25008KT 9999 -SHRA FEW025CB BKN045 07/04 Q1011;",
"06066099999","2010-10-21T11:50:00","4","55.990122","8.353906","5.18","STAUNING, DA","FM-15","EKVJ ","V020","250,1,N,0051,1","99999,9,C,N","011265,1,N,1","+0080,1","+0060,1","99999,9","02,5,+00750,1,99,9","04,5,+02100,1,99,9",,"04,99,1,99,9,99,9,99999,9,99,9,99,9","10102,1,99999,9",,,,,"MET058METAR EKVJ 211150Z 25010KT 9999 FEW025 SCT070 08/06 Q1010;","P01 021003SCOCIG"
"06066099999","2010-10-21T12:50:00","4","55.990122","8.353906","5.18","STAUNING, DA","FM-15","EKVJ ","V020","220,1,N,0062,1","00750,1,C,N","011265,1,N,1","+0090,1","+0050,1","99999,9","07,5,+00750,1,99,9",,,"07,99,1,99,9,99,9,99999,9,99,9,99,9","10081,1,99999,9",,,,,"MET051METAR EKVJ 211250Z 22012KT 9999 BKN025 09/05 Q1008;",
"06066099999","2010-10-21T13:50:00","4","55.990122","8.353906","5.18","STAUNING, DA","FM-15","EKVJ ","V020","220,1,N,0077,1","00750,1,C,N","007000,1,N,1","+0060,1","+0050,1","99999,9","07,5,+00750,1,09,1",,,"07,99,1,99,9,99,9,99999,9,99,9,99,9","10071,1,99999,9","81,1",,,,"MET058METAR EKVJ 211350Z 22015KT 7000 SHRA BKN025CB 06/05 Q1007;",
"06066099999","2010-10-22T06:20:00","4","55.990122","8.353906","5.18","STAUNING, DA","FM-15","EKVJ ","V020","290,1,N,0082,1","22000,1,9,N","011265,1,N,1","+0080,1","+0030,1","99999,9","02,5,+00600,1,99,9",,,"02,99,1,99,9,99,9,99999,9,99,9,99,9","10081,1,99999,9",,,,,"MET051METAR EKVJ 220620Z 29016KT 9999 FEW020 08/03 Q1008;",
"06066099999","2010-10-22T06:50:00","4","55.990122","8.353906","5.18","STAUNING, DA","FM-15","EKVJ ","V020","300,1,N,0093,1","22000,1,9,N","011265,1,N,1","+0080,1","+0030,1","99999,9","02,5,+00600,1,99,9",,,"02,99,1,99,9,99,9,99999,9,99,9,99,9","10091,1,99999,9",,,,,"MET051METAR EKVJ 220650Z 30018KT 9999 FEW020 08/03 Q1009;",
"06066099999","2010-10-22T07:50:00","4","55.990122","8.353906","5.18","STAUNING, DA","FM-15","EKVJ ","V020","310,1,N,0082,1","22000,1,9,N","011265,1,N,1","+0080,1","+0030,1","99999,9","02,5,+00900,1,99,9",,,"02,99,1,99,9,99,9,99999,9,99,9,99,9","10102,1,99999,9",,,,,"MET051METAR EKVJ 220750Z 31016KT 9999 FEW030 08/03 Q1010;",
"06066099999","2010-10-22T08:50:00","4","55.990122","8.353906","5.18","STAUNING, DA","FM-15","EKVJ ","V020","310,1,N,0072,1","22000,1,9,N","011265,1,N,1","+0080,1","+0030,1","99999,9","02,5,+00900,1,99,9",,,"02,99,1,99,9,99,9,99999,9,99,9,99,9","10108,1,99999,9",,,,,"MET051METAR EKVJ 220850Z 31014KT 9999 FEW030 08/03 Q1011;",
"06066099999","2010-10-22T09:50:00","4","55.990122","8.353906","5.18","STAUNING, DA","FM-15","EKVJ ","V020","310,1,N,0062,1","06000,1,C,N","011265,1,N,1","+0100,1","+0040,1","99999,9","02,5,+00900,1,99,9","07,5,+06000,1,99,9",,"07,99,1,99,9,99,9,99999,9,99,9,99,9","10119,1,99999,9",,,,,"MET058METAR EKVJ 220950Z 31012KT 9999 FEW030 BKN200 10/04 Q1012;",
"06066099999","2010-10-22T10:50:00","4","55.990122","8.353906","5.18","STAUNING, DA","FM-15","EKVJ ","V020","300,1,N,0051,1","06000,1,C,N","011265,1,N,1","+0100,1","+0040,1","99999,9","02,5,+00900,1,99,9","07,5,+06000,1,99,9",,"07,99,1,99,9,99,9,99999,9,99,9,99,9","10119,1,99999,9",,,,,"MET058METAR EKVJ 221050Z 30010KT 9999 FEW030 BKN200 10/04 Q1012;",
"06066099999","2010-10-22T11:50:00","4","55.990122","8.353906","5.18","STAUNING, DA","FM-15","EKVJ ","V020","300,1,N,0051,1","03000,1,C,N","011265,1,N,1","+0090,1","+0040,1","99999,9","04,5,+00900,1,99,9","07,5,+03000,1,99,9",,"07,99,1,99,9,99,9,99999,9,99,9,99,9","10119,1,99999,9",,,,,"MET058METAR EKVJ 221150Z 30010KT 9999 SCT030 BKN100 09/04 Q1012;",
"06066099999","2010-10-22T12:50:00","4","55.990122","8.353906","5.18","STAUNING, DA","FM-15","EKVJ ","V020","260,1,N,0031,1","01500,1,C,N","011265,1,N,1","+0090,1","+0040,1","99999,9","04,5,+00900,1,99,9","07,5,+01500,1,99,9",,"07,99,1,99,9,99,9,99999,9,99,9,99,9","10108,1,99999,9",,,,,"MET058METAR EKVJ 221250Z 26006KT 9999 SCT030 BKN050 09/04 Q1011;",
"06066099999","2010-10-22T13:50:00","4","55.990122","8.353906","5.18","STAUNING, DA","FM-15","EKVJ ","V020","250,1,N,0041,1","00900,1,C,N","011265,1,N,1","+0070,1","+0040,1","99999,9","07,5,+00900,1,99,9",,,"07,99,1,99,9,99,9,99999,9,99,9,99,9","10108,1,99999,9","51,1",,,,"MET055METAR EKVJ 221350Z 25008KT 9999 -DZ BKN030 07/04 Q1011;",
"06066099999","2010-10-25T06:20:00","4","55.990122","8.353906","5.18","STAUNING, DA","FM-15","EKVJ ","V020","300,1,N,0041,1","22000,1,9,N","011265,1,N,1","+0050,1","+0040,1","99999,9","02,5,+00600,1,99,9",,,"02,99,1,99,9,99,9,99999,9,99,9,99,9","10149,1,99999,9",,,,,"MET051METAR EKVJ 250620Z 30008KT 9999 FEW020 05/04 Q1015;",
"06066099999","2010-10-25T06:50:00","4","55.990122","8.353906","5.18","STAUNING, DA","FM-15","EKVJ ","V020","300,1,N,0041,1","22000,1,9,N","011265,1,N,1","+0050,1","+0040,1","99999,9","02,5,+00600,1,99,9",,,"02,99,1,99,9,99,9,99999,9,99,9,99,9","10149,1,99999,9",,,,,"MET051METAR EKVJ 250650Z 30008KT 9999 FEW020 05/04 Q1015;",
"06066099999","2010-10-25T07:50:00","4","55.990122","8.353906","5.18","STAUNING, DA","FM-15","EKVJ ","V020","360,1,N,0041,1","22000,1,9,N","011265,1,N,1","+0080,1","+0060,1","99999,9","02,5,+00600,1,99,9",,,"02,99,1,99,9,99,9,99999,9,99,9,99,9","10149,1,99999,9",,,,,"MET051METAR EKVJ 250750Z 36008KT 9999 FEW020 08/06 Q1015;",
"06066099999","2010-10-25T08:50:00","4","55.990122","8.353906","5.18","STAUNING, DA","FM-15","EKVJ ","V020","320,1,N,0051,1","22000,1,9,N","011265,1,N,1","+0080,1","+0060,1","99999,9","02,5,+00720,1,99,9",,,"02,99,1,99,9,99,9,99999,9,99,9,99,9","10159,1,99999,9",,,,,"MET051METAR EKVJ 250850Z 32010KT 9999 FEW024 08/06 Q1016;",
"06066099999","2010-10-25T09:50:00","4","55.990122","8.353906","5.18","STAUNING, DA","FM-15","EKVJ ","V020","320,1,N,0051,1","22000,1,9,N","011265,1,N,1","+0080,1","+0060,1","99999,9","02,5,+00720,1,99,9",,,"02,99,1,99,9,99,9,99999,9,99,9,99,9","10159,1,99999,9",,,,,"MET051METAR EKVJ 250950Z 32010KT 9999 FEW024 08/06 Q1016;",
"06066099999","2010-10-25T10:50:00","4","55.990122","8.353906","5.18","STAUNING, DA","FM-15","EKVJ ","V020","320,1,N,0051,1","00900,1,C,N","011265,1,N,1","+0080,1","+0060,1","99999,9","02,5,+00720,1,99,9","07,5,+00900,1,99,9",,"07,99,1,99,9,99,9,99999,9,99,9,99,9","10159,1,99999,9","81,1",,,,"MET063METAR EKVJ 251050Z 32010KT 9999 SHRA FEW024 BKN030 08/06 Q1016;",
"06066099999","2010-10-25T11:50:00","4","55.990122","8.353906","5.18","STAUNING, DA","FM-15","EKVJ ","V020","320,1,N,0041,1","00900,1,C,N","011265,1,N,1","+0080,1","+0060,1","99999,9","02,5,+00720,1,99,9","07,5,+00900,1,99,9",,"07,99,1,99,9,99,9,99999,9,99,9,99,9","10159,1,99999,9","81,1",,,,"MET063METAR EKVJ 251150Z 32008KT 9999 SHRA FEW024 BKN030 08/06 Q1016;",
"06066099999","2010-10-25T12:50:00","4","55.990122","8.353906","5.18","STAUNING, DA","FM-15","EKVJ ","V020","280,1,N,0093,1","00600,1,C,N","011265,1,N,1","+0080,1","+0060,1","99999,9","07,5,+00600,1,99,9","02,5,+00720,1,99,9",,"07,99,1,99,9,99,9,99999,9,99,9,99,9","10149,1,99999,9","81,1",,,,"MET063METAR EKVJ 251250Z 28018KT 9999 SHRA FEW024 BKN020 08/06 Q1015;",
"06066099999","2010-10-25T13:50:00","4","55.990122","8.353906","5.18","STAUNING, DA","FM-15","EKVJ ","V020","280,1,N,0072,1","00600,1,C,N","011265,1,N,1","+0080,1","+0060,1","99999,9","07,5,+00600,1,99,9","02,5,+00720,1,99,9",,"07,99,1,99,9,99,9,99999,9,99,9,99,9","10149,1,99999,9","81,1",,,,"MET063METAR EKVJ 251350Z 28014KT 9999 SHRA FEW024 BKN020 08/06 Q1015;",
"06066099999","2010-10-26T06:20:00","4","55.990122","8.353906","5.18","STAUNING, DA","FM-15","EKVJ ","V020","999,9,C,0000,1","22000,1,9,N","011265,1,N,1","+0010,1","+0010,1","99999,9","02,5,+00750,1,99,9",,,"02,99,1,99,9,99,9,99999,9,99,9,99,9","10240,1,99999,9",,,,,"MET051METAR EKVJ 260620Z 00000KT 9999 FEW025 01/01 Q1024;",
"06066099999","2010-10-26T06:50:00","4","55.990122","8.353906","5.18","STAUNING, DA","FM-15","EKVJ ","V020","999,9,C,0000,1","22000,1,9,N","011265,1,N,1","+0010,1","+0010,1","99999,9","02,5,+00750,1,99,9",,,"02,99,1,99,9,99,9,99999,9,99,9,99,9","10240,1,99999,9",,,,,"MET051METAR EKVJ 260650Z 00000KT 9999 FEW025 01/01 Q1024;",
"06066099999","2010-10-26T07:50:00","4","55.990122","8.353906","5.18","STAUNING, DA","FM-15","EKVJ ","V020","999,9,C,0000,1","22000,1,9,N","011265,1,N,1","+0010,1","+0010,1","99999,9","02,5,+00750,1,99,9",,,"02,99,1,99,9,99,9,99999,9,99,9,99,9","10240,1,99999,9",,,,,"MET051METAR EKVJ 260750Z 00000KT 9999 FEW025 01/01 Q1024;",
"06066099999","2010-10-26T08:50:00","4","55.990122","8.353906","5.18","STAUNING, DA","FM-15","EKVJ ","V020","170,1,N,0015,1","22000,1,9,N","011265,1,N,1","+0060,1","+0050,1","99999,9","02,5,+00900,1,99,9",,,"02,99,1,99,9,99,9,99999,9,99,9,99,9","10240,1,99999,9",,,,,"MET051METAR EKVJ 260850Z 17003KT 9999 FEW030 06/05 Q1024;",
"06066099999","2010-10-26T09:50:00","4","55.990122","8.353906","5.18","STAUNING, DA","FM-15","EKVJ ","V020","170,1,N,0026,1","22000,1,9,N","011265,1,N,1","+0080,1","+0070,1","99999,9","02,5,+00900,1,99,9",,,"02,99,1,99,9,99,9,99999,9,99,9,99,9","10240,1,99999,9",,,,,"MET051METAR EKVJ 260950Z 17005KT 9999 FEW030 08/07 Q1024;",
"06066099999","2010-10-26T10:50:00","4","55.990122","8.353906","5.18","STAUNING, DA","FM-15","EKVJ ","V020","190,1,N,0031,1","03000,1,C,N","011265,1,N,1","+0080,1","+0070,1","99999,9","02,5,+00900,1,99,9","07,5,+03000,1,99,9",,"07,99,1,99,9,99,9,99999,9,99,9,99,9","10240,1,99999,9",,,,,"MET058METAR EKVJ 261050Z 19006KT 9999 FEW030 BKN100 08/07 Q1024;",
"06066099999","2010-10-26T11:50:00","4","55.990122","8.353906","5.18","STAUNING, DA","FM-15","EKVJ ","V020","180,1,N,0051,1","03000,1,C,N","011265,1,N,1","+0080,1","+0070,1","99999,9","02,5,+00900,1,99,9","07,5,+03000,1,99,9",,"07,99,1,99,9,99,9,99999,9,99,9,99,9","10240,1,99999,9",,,,,"MET058METAR EKVJ 261150Z 18010KT 9999 FEW030 BKN100 08/07 Q1024;",
"06066099999","2010-10-26T12:50:00","4","55.990122","8.353906","5.18","STAUNING, DA","FM-15","EKVJ ","V020","180,1,N,0051,1","03000,1,C,N","011265,1,N,1","+0090,1","+0070,1","99999,9","02,5,+00900,1,99,9","07,5,+03000,1,99,9",,"07,99,1,99,9,99,9,99999,9,99,9,99,9","10230,1,99999,9",,,,,"MET058METAR EKVJ 261250Z 18010KT 9999 FEW030 BKN100 09/07 Q1023;",
"06066099999","2010-10-26T13:50:00","4","55.990122","8.353906","5.18","STAUNING, DA","FM-15","EKVJ ","V020","170,1,N,0041,1","03000,1,C,N","011265,1,N,1","+0090,1","+0070,1","99999,9","02,5,+00900,1,99,9","07,5,+03000,1,99,9",,"07,99,1,99,9,99,9,99999,9,99,9,99,9","10230,1,99999,9",,,,,"MET058METAR EKVJ 261350Z 17008KT 9999 FEW030 BKN100 09/07 Q1023;",
"06066099999","2010-10-27T06:20:00","4","55.990122","8.353906","5.18","STAUNING, DA","FM-15","EKVJ ","V020","180,1,N,0103,1","00150,1,C,N","004000,1,N,1","+0080,1","+0080,1","99999,9","07,5,+00150,1,99,9",,,"07,99,1,99,9,99,9,99999,9,99,9,99,9","10129,1,99999,9","61,1",,,,"MET055METAR EKVJ 270620Z 18020KT 4000 -RA BKN005 08/08 Q1013;",
"06066099999","2010-10-27T06:50:00","4","55.990122","8.353906","5.18","STAUNING, DA","FM-15","EKVJ ","V020","180,1,N,0103,1","00090,1,C,N","002000,1,N,1","+0080,1","+0080,1","99999,9","07,5,+00090,1,99,9",,,"07,99,1,99,9,99,9,99999,9,99,9,99,9","10129,1,99999,9","10,1","61,1",,,"MET058METAR EKVJ 270650Z 18020KT 2000 BR -RA BKN003 08/08 Q1013;",
"06066099999","2010-10-27T07:50:00","4","55.990122","8.353906","5.18","STAUNING, DA","FM-15","EKVJ ","V020","180,1,N,0103,1","00090,1,C,N","002500,1,N,1","+0080,1","+0080,1","99999,9","07,5,+00090,1,99,9",,,"07,99,1,99,9,99,9,99999,9,99,9,99,9","10119,1,99999,9","10,1","61,1",,,"MET058METAR EKVJ 270750Z 18020KT 2500 BR -RA BKN003 08/08 Q1012;",
"06066099999","2010-10-27T08:50:00","4","55.990122","8.353906","5.18","STAUNING, DA","FM-15","EKVJ ","V020","180,1,N,0103,1","00090,1,C,N","004000,1,N,1","+0080,1","+0080,1","99999,9","07,5,+00090,1,99,9",,,"07,99,1,99,9,99,9,99999,9,99,9,99,9","10119,1,99999,9","10,1","61,1",,,"MET058METAR EKVJ 270850Z 18020KT 4000 BR -RA BKN003 08/08 Q1012;",
"06066099999","2010-10-27T09:50:00","4","55.990122","8.353906","5.18","STAUNING, DA","FM-15","EKVJ ","V020","200,1,N,0093,1","00090,1,C,N","003500,1,N,1","+0080,1","+0080,1","99999,9","07,5,+00090,1,99,9",,,"07,99,1,99,9,99,9,99999,9,99,9,99,9","10108,1,99999,9","10,1","80,1",,,"MET060METAR EKVJ 270950Z 20018KT 3500 BR -SHRA BKN003 08/08 Q1011;",
"06066099999","2010-10-27T10:50:00","4","55.990122","8.353906","5.18","STAUNING, DA","FM-15","EKVJ ","V020","200,1,N,0093,1","00090,1,C,N","003000,1,N,1","+0080,1","+0080,1","99999,9","07,5,+00090,1,99,9",,,"07,99,1,99,9,99,9,99999,9,99,9,99,9","10108,1,99999,9","10,1","80,1",,,"MET060METAR EKVJ 271050Z 20018KT 3000 BR -SHRA BKN003 08/08 Q1011;",
"06066099999","2010-10-27T11:50:00","4","55.990122","8.353906","5.18","STAUNING, DA","FM-15","EKVJ ","V020","200,1,N,0093,1","00090,1,C,N","002000,1,N,1","+0110,1","+0110,1","99999,9","07,5,+00090,1,99,9",,,"07,99,1,99,9,99,9,99999,9,99,9,99,9","10108,1,99999,9","10,1","80,1",,,"MET060METAR EKVJ 271150Z 20018KT 2000 BR -SHRA BKN003 11/11 Q1011;",
"06066099999","2010-10-27T12:50:00","4","55.990122","8.353906","5.18","STAUNING, DA","FM-15","EKVJ ","V020","210,1,N,0082,1","00090,1,C,N","005000,1,N,1","+0110,1","+0110,1","99999,9","07,5,+00090,1,99,9",,,"07,99,1,99,9,99,9,99999,9,99,9,99,9","10108,1,99999,9","80,1",,,,"MET057METAR EKVJ 271250Z 21016KT 5000 -SHRA BKN003 11/11 Q1011;",
"06066099999","2010-10-27T13:50:00","4","55.990122","8.353906","5.18","STAUNING, DA","FM-15","EKVJ ","V020","230,1,N,0072,1","00090,1,C,N","005000,1,N,1","+0110,1","+0110,1","99999,9","07,5,+00090,1,99,9",,,"07,99,1,99,9,99,9,99999,9,99,9,99,9","10108,1,99999,9","80,1",,,,"MET057METAR EKVJ 271350Z 23014KT 5000 -SHRA BKN003 11/11 Q1011;",
"06066099999","2010-10-28T06:20:00","4","55.990122","8.353906","5.18","STAUNING, DA","FM-15","EKVJ ","V020","190,1,N,0051,1","00450,1,C,N","007000,1,N,1","+0100,1","+0100,1","99999,9","02,5,+00090,1,99,9","07,5,+00450,1,99,9",,"07,99,1,99,9,99,9,99999,9,99,9,99,9","10081,1,99999,9",,,,,"MET058METAR EKVJ 280620Z 19010KT 7000 FEW003 BKN015 10/10 Q1008;",
"06066099999","2010-10-28T06:50:00","4","55.990122","8.353906","5.18","STAUNING, DA","FM-15","EKVJ ","V020","190,1,N,0072,1","00180,1,C,N","007000,1,N,1","+0100,1","+0100,1","99999,9","07,5,+00180,1,99,9",,,"07,99,1,99,9,99,9,99999,9,99,9,99,9","10081,1,99999,9","80,1",,,,"MET057METAR EKVJ 280650Z 19014KT 7000 -SHRA BKN006 10/10 Q1008;",
"06066099999","2010-10-28T07:50:00","4","55.990122","8.353906","5.18","STAUNING, DA","FM-15","EKVJ ","V020","220,1,N,0072,1","00180,1,C,N","005000,1,N,1","+0100,1","+0100,1","99999,9","07,5,+00180,1,99,9",,,"07,99,1,99,9,99,9,99999,9,99,9,99,9","10081,1,99999,9","80,1",,,"0123,1","MET060METAR EKVJ 280750Z 22014G24KT 5000 -SHRA BKN006 10/10 Q1008;",
"06066099999","2010-10-28T08:50:00","4","55.990122","8.353906","5.18","STAUNING, DA","FM-15","EKVJ ","V020","230,1,N,0062,1","00300,1,C,N","008000,1,N,1","+0110,1","+0100,1","99999,9","07,5,+00300,1,99,9",,,"07,99,1,99,9,99,9,99999,9,99,9,99,9","10081,1,99999,9","80,1",,,"0113,1","MET060METAR EKVJ 280850Z 23012G22KT 8000 -SHRA BKN010 11/10 Q1008;",
"06066099999","2010-10-28T09:50:00","4","55.990122","8.353906","5.18","STAUNING, DA","FM-15","EKVJ ","V020","240,1,N,0082,1","00750,1,C,N","011265,1,N,1","+0110,1","+0100,1","99999,9","02,5,+00450,1,99,9","07,5,+00750,1,99,9",,"07,99,1,99,9,99,9,99999,9,99,9,99,9","10091,1,99999,9",,,,,"MET058METAR EKVJ 280950Z 24016KT 9999 FEW015 BKN025 11/10 Q1009;",
"06066099999","2010-10-28T10:50:00","4","55.990122","8.353906","5.18","STAUNING, DA","FM-15","EKVJ ","V020","240,1,N,0072,1","00750,1,C,N","011265,1,N,1","+0110,1","+0100,1","99999,9","02,5,+00450,1,99,9","07,5,+00750,1,99,9",,"07,99,1,99,9,99,9,99999,9,99,9,99,9","10091,1,99999,9","80,1",,,,"MET064METAR EKVJ 281050Z 24014KT 9999 -SHRA FEW015 BKN025 11/10 Q1009;",
"06066099999","2010-10-28T11:50:00","4","55.990122","8.353906","5.18","STAUNING, DA","FM-15","EKVJ ","V020","260,1,N,0072,1","22000,1,9,N","011265,1,N,1","+0120,1","+0100,1","99999,9","02,5,+00600,1,99,9",,,"02,99,1,99,9,99,9,99999,9,99,9,99,9","10102,1,99999,9",,,,,"MET051METAR EKVJ 281150Z 26014KT 9999 FEW020 12/10 Q1010;",
"06066099999","2010-10-28T12:50:00","4","55.990122","8.353906","5.18","STAUNING, DA","FM-15","EKVJ ","V020","260,1,N,0072,1","22000,1,9,N","011265,1,N,1","+0110,1","+0090,1","99999,9","04,5,+00600,1,99,9",,,"04,99,1,99,9,99,9,99999,9,99,9,99,9","10102,1,99999,9",,,,,"MET051METAR EKVJ 281250Z 26014KT 9999 SCT020 11/09 Q1010;",
"06066099999","2010-10-28T13:50:00","4","55.990122","8.353906","5.18","STAUNING, DA","FM-15","EKVJ ","V020","260,1,N,0072,1","22000,1,9,N","011265,1,N,1","+0110,1","+0090,1","99999,9","04,5,+00600,1,99,9",,,"04,99,1,99,9,99,9,99999,9,99,9,99,9","10108,1,99999,9",,,,,"MET051METAR EKVJ 281350Z 26014KT 9999 SCT020 11/09 Q1011;",
"06066099999","2010-10-29T06:20:00","4","55.990122","8.353906","5.18","STAUNING, DA","FM-15","EKVJ ","V020","200,1,N,0062,1","00300,1,C,N","008000,1,N,1","+0110,1","+0090,1","99999,9","07,5,+00300,1,99,9",,,"07,99,1,99,9,99,9,99999,9,99,9,99,9","10102,1,99999,9",,,,,"MET051METAR EKVJ 290620Z 20012KT 8000 BKN010 11/09 Q1010;",
"06066099999","2010-10-29T07:50:00","4","55.990122","8.353906","5.18","STAUNING, DA","FM-15","EKVJ ","V020","200,1,N,0062,1","00180,1,C,N","008000,1,N,1","+0110,1","+0090,1","99999,9","07,5,+00180,1,99,9",,,"07,99,1,99,9,99,9,99999,9,99,9,99,9","10091,1,99999,9",,,,,"MET051METAR EKVJ 290750Z 20012KT 8000 BKN006 11/09 Q1009;",
"06066099999","2010-10-29T08:50:00","4","55.990122","8.353906","5.18","STAUNING, DA","FM-15","EKVJ ","V020","200,1,N,0062,1","00180,1,C,N","008000,1,N,1","+0110,1","+0090,1","99999,9","07,5,+00180,1,99,9",,,"07,99,1,99,9,99,9,99999,9,99,9,99,9","10091,1,99999,9",,,,,"MET051METAR EKVJ 290850Z 20012KT 8000 BKN006 11/09 Q1009;",
"06066099999","2010-10-29T09:50:00","4","55.990122","8.353906","5.18","STAUNING, DA","FM-15","EKVJ ","V020","200,1,N,0062,1","00300,1,C,N","008000,1,N,1","+0110,1","+0090,1","99999,9","04,5,+00180,1,99,9","07,5,+00300,1,99,9",,"07,99,1,99,9,99,9,99999,9,99,9,99,9","10091,1,99999,9",,,,,"MET058METAR EKVJ 290950Z 20012KT 8000 SCT006 BKN010 11/09 Q1009;",
"06066099999","2010-10-29T10:50:00","4","55.990122","8.353906","5.18","STAUNING, DA","FM-15","EKVJ ","V020","200,1,N,0072,1","00300,1,C,N","011265,1,N,1","+0110,1","+0090,1","99999,9","04,5,+00180,1,99,9","07,5,+00300,1,99,9",,"07,99,1,99,9,99,9,99999,9,99,9,99,9","10091,1,99999,9",,,,,"MET058METAR EKVJ 291050Z 20014KT 9999 SCT006 BKN010 11/09 Q1009;",
"06066099999","2010-10-29T11:50:00","4","55.990122","8.353906","5.18","STAUNING, DA","FM-15","EKVJ ","V020","190,1,N,0072,1","00300,1,C,N","011265,1,N,1","+0100,1","+0090,1","99999,9","04,5,+00180,1,99,9","07,5,+00300,1,99,9",,"07,99,1,99,9,99,9,99999,9,99,9,99,9","10081,1,99999,9",,,,,"MET058METAR EKVJ 291150Z 19014KT 9999 SCT006 BKN010 10/09 Q1008;",
"06066099999","2010-10-29T12:50:00","4","55.990122","8.353906","5.18","STAUNING, DA","FM-15","EKVJ ","V020","190,1,N,0072,1","00300,1,C,N","011265,1,N,1","+0100,1","+0090,1","99999,9","04,5,+00180,1,99,9","07,5,+00300,1,99,9",,"07,99,1,99,9,99,9,99999,9,99,9,99,9","10081,1,99999,9",,,,,"MET058METAR EKVJ 291250Z 19014KT 9999 SCT006 BKN010 10/09 Q1008;",
"06066099999","2010-11-01T07:20:00","4","55.990122","8.353906","5.18","STAUNING, DA","FM-15","EKVJ ","V020","999,9,C,0000,1","02400,1,C,N","002500,1,N,1","+0070,1","+0070,1","99999,9","07,5,+02400,1,99,9",,,"07,99,1,99,9,99,9,99999,9,99,9,99,9","10119,1,99999,9","10,1",,,,"MET054METAR EKVJ 010720Z 00000KT 2500 BR BKN080 07/07 Q1012;",
"06066099999","2010-11-01T08:20:00","4","55.990122","8.353906","5.18","STAUNING, DA","FM-15","EKVJ ","V020","999,9,C,0000,1","02400,1,C,N","002500,1,N,1","+0070,1","+0070,1","99999,9","07,5,+02400,1,99,9",,,"07,99,1,99,9,99,9,99999,9,99,9,99,9","10119,1,99999,9","10,1",,,,"MET054METAR EKVJ 010820Z 00000KT 2500 BR BKN080 07/07 Q1012;",
"06066099999","2010-11-01T08:50:00","4","55.990122","8.353906","5.18","STAUNING, DA","FM-15","EKVJ ","V020","180,1,N,0015,1","02400,1,C,N","002500,1,N,1","+0080,1","+0080,1","99999,9","02,5,+00600,1,99,9","07,5,+02400,1,99,9",,"07,99,1,99,9,99,9,99999,9,99,9,99,9","10119,1,99999,9","10,1",,,,"MET061METAR EKVJ 010850Z 18003KT 2500 BR FEW020 BKN080 08/08 Q1012;",
"06066099999","2010-11-01T09:50:00","4","55.990122","8.353906","5.18","STAUNING, DA","FM-15","EKVJ ","V020","200,1,N,0015,1","02400,1,C,N","002000,1,N,1","+0080,1","+0080,1","99999,9","04,5,+00750,1,99,9","07,5,+02400,1,99,9",,"07,99,1,99,9,99,9,99999,9,99,9,99,9","10119,1,99999,9","10,1","51,1",,,"MET065METAR EKVJ 010950Z 20003KT 2000 BR -DZ SCT025 BKN080 08/08 Q1012;",
"06066099999","2010-11-01T10:50:00","4","55.990122","8.353906","5.18","STAUNING, DA","FM-15","EKVJ ","V020","200,1,N,0015,1","02400,1,C,N","002500,1,N,1","+0090,1","+0090,1","99999,9","02,5,+00750,1,99,9","07,5,+02400,1,99,9",,"07,99,1,99,9,99,9,99999,9,99,9,99,9","10119,1,99999,9","10,1",,,,"MET061METAR EKVJ 011050Z 20003KT 2500 BR FEW025 BKN080 09/09 Q1012;",
"06066099999","2010-11-01T11:50:00","4","55.990122","8.353906","5.18","STAUNING, DA","FM-15","EKVJ ","V020","999,9,C,0000,1","02400,1,C,N","003000,1,N,1","+0100,1","+0100,1","99999,9","02,5,+00300,1,99,9","07,5,+02400,1,99,9",,"07,99,1,99,9,99,9,99999,9,99,9,99,9","10119,1,99999,9","10,1",,,,"MET061METAR EKVJ 011150Z 00000KT 3000 BR FEW010 BKN080 10/10 Q1012;",
"06066099999","2010-11-01T12:50:00","4","55.990122","8.353906","5.18","STAUNING, DA","FM-15","EKVJ ","V020","999,9,V,0015,1","00300,1,C,N","003500,1,N,1","+0100,1","+0100,1","99999,9","07,5,+00300,1,99,9",,,"07,99,1,99,9,99,9,99999,9,99,9,99,9","10119,1,99999,9","10,1",,,,"MET054METAR EKVJ 011250Z VRB03KT 3500 BR BKN010 10/10 Q1012;",
"06066099999","2010-11-01T13:50:00","4","55.990122","8.353906","5.18","STAUNING, DA","FM-15","EKVJ ","V020","230,1,N,0021,1","00300,1,C,N","003000,1,N,1","+0100,1","+0100,1","99999,9","07,5,+00300,1,99,9",,,"07,99,1,99,9,99,9,99999,9,99,9,99,9","10119,1,99999,9","10,1",,,,"MET054METAR EKVJ 011350Z 23004KT 3000 BR BKN010 10/10 Q1012;",
"06066099999","2010-11-01T14:50:00","4","55.990122","8.353906","5.18","STAUNING, DA","FM-15","EKVJ ","V020","999,9,C,0000,1","00900,1,C,N","003000,1,N,1","+0100,1","+0100,1","99999,9","02,5,+00300,1,99,9","07,5,+00900,1,99,9",,"07,99,1,99,9,99,9,99999,9,99,9,99,9","10119,1,99999,9","10,1",,,,"MET061METAR EKVJ 011450Z 00000KT 3000 BR FEW010 BKN030 10/10 Q1012;",
"06066099999","2010-11-02T07:20:00","4","55.990122","8.353906","5.18","STAUNING, DA","FM-15","EKVJ ","V020","180,1,N,0093,1","00150,1,C,N","003000,1,N,1","+0090,1","+0090,1","99999,9","07,5,+00150,1,99,9",,,"07,99,1,99,9,99,9,99999,9,99,9,99,9","10071,1,99999,9","10,1","61,1",,,"MET058METAR EKVJ 020720Z 18018KT 3000 BR -RA BKN005 09/09 Q1007;",
"06066099999","2010-11-02T07:50:00","4","55.990122","8.353906","5.18","STAUNING, DA","FM-15","EKVJ ","V020","190,1,N,0103,1","00150,1,C,N","003000,1,N,1","+0090,1","+0090,1","99999,9","07,5,+00150,1,99,9",,,"07,99,1,99,9,99,9,99999,9,99,9,99,9","10071,1,99999,9","10,1",,,,"MET054METAR EKVJ 020750Z 19020KT 3000 BR BKN005 09/09 Q1007;",
"06066099999","2010-11-02T08:50:00","4","55.990122","8.353906","5.18","STAUNING, DA","FM-15","EKVJ ","V020","190,1,N,0103,1","00120,1,C,N","002500,1,N,1","+0090,1","+0090,1","99999,9","07,5,+00120,1,99,9",,,"07,99,1,99,9,99,9,99999,9,99,9,99,9","10061,1,99999,9","10,1","61,1",,,"MET058METAR EKVJ 020850Z 19020KT 2500 BR -RA BKN004 09/09 Q1006;",
"06066099999","2010-11-02T09:50:00","4","55.990122","8.353906","5.18","STAUNING, DA","FM-15","EKVJ ","V020","190,1,N,0103,1","00120,1,C,N","002000,1,N,1","+0090,1","+0090,1","99999,9","07,5,+00120,1,99,9",,,"07,99,1,99,9,99,9,99999,9,99,9,99,9","10051,1,99999,9","10,1","63,1",,,"MET057METAR EKVJ 020950Z 19020KT 2000 BR RA BKN004 09/09 Q1005;",
"06066099999","2010-11-02T10:50:00","4","55.990122","8.353906","5.18","STAUNING, DA","FM-15","EKVJ ","V020","180,1,N,0113,1","00120,1,C,N","002500,1,N,1","+0090,1","+0090,1","99999,9","07,5,+00120,1,99,9",,,"07,99,1,99,9,99,9,99999,9,99,9,99,9","10041,1,99999,9","10,1","63,1",,,"MET057METAR EKVJ 021050Z 18022KT 2500 BR RA BKN004 09/09 Q1004;",
"06066099999","2010-11-02T11:50:00","4","55.990122","8.353906","5.18","STAUNING, DA","FM-15","EKVJ ","V020","180,1,N,0113,1","00120,1,C,N","002500,1,N,1","+0090,1","+0090,1","99999,9","07,5,+00120,1,99,9",,,"07,99,1,99,9,99,9,99999,9,99,9,99,9","10031,1,99999,9","10,1","63,1",,,"MET057METAR EKVJ 021150Z 18022KT 2500 BR RA BKN004 09/09 Q1003;",
"06066099999","2010-11-02T12:50:00","4","55.990122","8.353906","5.18","STAUNING, DA","FM-15","EKVJ ","V020","200,1,N,0093,1","00120,1,C,N","003000,1,N,1","+0100,1","+0100,1","99999,9","07,5,+00120,1,99,9",,,"07,99,1,99,9,99,9,99999,9,99,9,99,9","10020,1,99999,9","10,1","51,1",,,"MET058METAR EKVJ 021250Z 20018KT 3000 BR -DZ BKN004 10/10 Q1002;",
"06066099999","2010-11-02T13:50:00","4","55.990122","8.353906","5.18","STAUNING, DA","FM-15","EKVJ ","V020","210,1,N,0082,1","00450,1,C,N","007000,1,N,1","+0110,1","+0110,1","99999,9","04,5,+00300,1,99,9","07,5,+00450,1,99,9",,"07,99,1,99,9,99,9,99999,9,99,9,99,9","10020,1,99999,9",,,,,"MET058METAR EKVJ 021350Z 21016KT 7000 SCT010 BKN015 11/11 Q1002;",
"06066099999","2010-11-02T14:50:00","4","55.990122","8.353906","5.18","STAUNING, DA","FM-15","EKVJ ","V020","210,1,N,0062,1","00750,1,C,N","008000,1,N,1","+0110,1","+0110,1","99999,9","04,5,+00300,1,99,9","07,5,+00750,1,99,9",,"07,99,1,99,9,99,9,99999,9,99,9,99,9","10020,1,99999,9",,,,,"MET058METAR EKVJ 021450Z 21012KT 8000 SCT010 BKN025 11/11 Q1002;",
"06066099999","2010-11-03T07:20:00","4","55.990122","8.353906","5.18","STAUNING, DA","FM-15","EKVJ ","V020","250,1,N,0082,1","00750,1,C,N","011265,1,N,1","+0100,1","+0090,1","99999,9","07,5,+00750,1,99,9",,,"07,99,1,99,9,99,9,99999,9,99,9,99,9","09970,1,99999,9",,,,,"MET051METAR EKVJ 030720Z 25016KT 9999 BKN025 10/09 Q0997;",
"06066099999","2010-11-03T07:50:00","4","55.990122","8.353906","5.18","STAUNING, DA","FM-15","EKVJ ","V020","250,1,N,0082,1","22000,1,9,N","011265,1,N,1","+0100,1","+0090,1","99999,9","04,5,+00750,1,99,9",,,"04,99,1,99,9,99,9,99999,9,99,9,99,9","09970,1,99999,9",,,,,"MET051METAR EKVJ 030750Z 25016KT 9999 SCT025 10/09 Q0997;",
"06066099999","2010-11-03T08:50:00","4","55.990122","8.353906","5.18","STAUNING, DA","FM-15","EKVJ ","V020","260,1,N,0082,1","22000,1,9,N","011265,1,N,1","+0100,1","+0090,1","99999,9","04,5,+00600,1,09,1",,,"04,99,1,99,9,99,9,99999,9,99,9,99,9","09980,1,99999,9","80,1",,,"0134,1","MET062METAR EKVJ 030850Z 26016G26KT 9999 -SHRA SCT020CB 10/09 Q0998;",
"06066099999","2010-11-03T09:50:00","4","55.990122","8.353906","5.18","STAUNING, DA","FM-15","EKVJ ","V020","260,1,N,0082,1","22000,1,9,N","011265,1,N,1","+0100,1","+0090,1","99999,9","04,5,+00750,1,09,1",,,"04,99,1,99,9,99,9,99999,9,99,9,99,9","09980,1,99999,9","80,1",,,"0134,1","MET062METAR EKVJ 030950Z 26016G26KT 9999 -SHRA SCT025CB 10/09 Q0998;",
"06066099999","2010-11-03T10:50:00","4","55.990122","8.353906","5.18","STAUNING, DA","FM-15","EKVJ ","V020","260,1,N,0082,1","22000,1,9,N","011265,1,N,1","+0100,1","+0090,1","99999,9","04,5,+00750,1,09,1",,,"04,99,1,99,9,99,9,99999,9,99,9,99,9","09980,1,99999,9","80,1",,,"0134,1","MET062METAR EKVJ 031050Z 26016G26KT 9999 -SHRA SCT025CB 10/09 Q0998;",
"06066099999","2010-11-03T11:50:00","4","55.990122","8.353906","5.18","STAUNING, DA","FM-15","EKVJ ","V020","260,1,N,0093,1","22000,1,9,N","011265,1,N,1","+0100,1","+0090,1","99999,9","04,5,+00750,1,09,1",,,"04,99,1,99,9,99,9,99999,9,99,9,99,9","09980,1,99999,9",,,,,"MET053METAR EKVJ 031150Z 26018KT 9999 SCT025CB 10/09 Q0998;",
"06066099999","2010-11-03T12:50:00","4","55.990122","8.353906","5.18","STAUNING, DA","FM-15","EKVJ ","V020","260,1,N,0093,1","22000,1,9,N","011265,1,N,1","+0100,1","+0090,1","99999,9","04,5,+00750,1,99,9",,,"04,99,1,99,9,99,9,99999,9,99,9,99,9","09990,1,99999,9",,,,,"MET051METAR EKVJ 031250Z 26018KT 9999 SCT025 10/09 Q0999;",
"06066099999","2010-11-03T13:50:00","4","55.990122","8.353906","5.18","STAUNING, DA","FM-15","EKVJ ","V020","260,1,N,0093,1","22000,1,9,N","011265,1,N,1","+0110,1","+0080,1","99999,9","04,5,+00750,1,99,9",,,"04,99,1,99,9,99,9,99999,9,99,9,99,9","10020,1,99999,9",,,,,"MET051METAR EKVJ 031350Z 26018KT 9999 SCT025 11/08 Q1002;",
"06066099999","2010-11-03T14:50:00","4","55.990122","8.353906","5.18","STAUNING, DA","FM-15","EKVJ ","V020","260,1,N,0093,1","22000,1,9,N","011265,1,N,1","+0110,1","+0080,1","99999,9","04,5,+00750,1,99,9",,,"04,99,1,99,9,99,9,99999,9,99,9,99,9","10031,1,99999,9",,,,,"MET051METAR EKVJ 031450Z 26018KT 9999 SCT025 11/08 Q1003;",
"06066099999","2010-11-04T07:20:00","4","55.990122","8.353906","5.18","STAUNING, DA","FM-15","EKVJ ","V020","280,1,N,0051,1","00900,1,C,N","005000,1,N,1","+0090,1","+0080,1","99999,9","04,5,+00450,1,99,9","07,5,+00900,1,99,9",,"07,99,1,99,9,99,9,99999,9,99,9,99,9","10061,1,99999,9","61,1",,,,"MET062METAR EKVJ 040720Z 28010KT 5000 -RA SCT015 BKN030 09/08 Q1006;",
"06066099999","2010-11-04T07:50:00","4","55.990122","8.353906","5.18","STAUNING, DA","FM-15","EKVJ ","V020","280,1,N,0051,1","01200,1,C,N","011265,1,N,1","+0090,1","+0080,1","99999,9","02,5,+00450,1,99,9","04,5,+01200,1,99,9","07,5,+02700,1,99,9","07,99,1,99,9,99,9,99999,9,99,9,99,9","10061,1,99999,9",,,,,"MET065METAR EKVJ 040750Z 28010KT 9999 FEW015 SCT040 BKN090 09/08 Q1006;",
"06066099999","2010-11-04T08:50:00","4","55.990122","8.353906","5.18","STAUNING, DA","FM-15","EKVJ ","V020","280,1,N,0051,1","01200,1,C,N","011265,1,N,1","+0090,1","+0080,1","99999,9","02,5,+00450,1,99,9","04,5,+01200,1,99,9","07,5,+02700,1,99,9","07,99,1,99,9,99,9,99999,9,99,9,99,9","10061,1,99999,9",,,,,"MET065METAR EKVJ 040850Z 28010KT 9999 FEW015 SCT040 BKN090 09/08 Q1006;",
"06066099999","2010-11-04T09:50:00","4","55.990122","8.353906","5.18","STAUNING, DA","FM-15","EKVJ ","V020","270,1,N,0051,1","01200,1,C,N","011265,1,N,1","+0100,1","+0090,1","99999,9","02,5,+00450,1,99,9","04,5,+01200,1,99,9","07,5,+02700,1,99,9","07,99,1,99,9,99,9,99999,9,99,9,99,9","10071,1,99999,9",,,,,"MET065METAR EKVJ 040950Z 27010KT 9999 FEW015 SCT040 BKN090 10/09 Q1007;",
"06066099999","2010-11-04T10:50:00","4","55.990122","8.353906","5.18","STAUNING, DA","FM-15","EKVJ ","V020","270,1,N,0051,1","01800,1,C,N","011265,1,N,1","+0100,1","+0080,1","99999,9","02,5,+00900,1,99,9","07,5,+01800,1,99,9",,"07,99,1,99,9,99,9,99999,9,99,9,99,9","10081,1,99999,9",,,,,"MET058METAR EKVJ 041050Z 27010KT 9999 FEW030 BKN060 10/08 Q1008;",
"06066099999","2010-11-04T11:50:00","4","55.990122","8.353906","5.18","STAUNING, DA","FM-15","EKVJ ","V020","270,1,N,0051,1","01800,1,C,N","011265,1,N,1","+0110,1","+0090,1","99999,9","02,5,+00900,1,99,9","07,5,+01800,1,99,9",,"07,99,1,99,9,99,9,99999,9,99,9,99,9","10081,1,99999,9",,,,,"MET058METAR EKVJ 041150Z 27010KT 9999 FEW030 BKN060 11/09 Q1008;",
"06066099999","2010-11-04T12:50:00","4","55.990122","8.353906","5.18","STAUNING, DA","FM-15","EKVJ ","V020","270,1,N,0051,1","22000,1,9,N","011265,1,N,1","+0110,1","+0090,1","99999,9","04,5,+00900,1,99,9",,,"04,99,1,99,9,99,9,99999,9,99,9,99,9","10081,1,99999,9",,,,,"MET051METAR EKVJ 041250Z 27010KT 9999 SCT030 11/09 Q1008;",
"06066099999","2010-11-04T13:50:00","4","55.990122","8.353906","5.18","STAUNING, DA","FM-15","EKVJ ","V020","270,1,N,0041,1","00750,1,C,N","011265,1,N,1","+0100,1","+0080,1","99999,9","07,5,+00750,1,99,9",,,"07,99,1,99,9,99,9,99999,9,99,9,99,9","10081,1,99999,9",,,,,"MET051METAR EKVJ 041350Z 27008KT 9999 BKN025 10/08 Q1008;",
"06066099999","2010-11-04T14:50:00","4","55.990122","8.353906","5.18","STAUNING, DA","FM-15","EKVJ ","V020","270,1,N,0041,1","01050,1,C,N","011265,1,N,1","+0100,1","+0080,1","99999,9","04,5,+00750,1,99,9","07,5,+01050,1,99,9",,"07,99,1,99,9,99,9,99999,9,99,9,99,9","10081,1,99999,9",,,,,"MET058METAR EKVJ 041450Z 27008KT 9999 SCT025 BKN035 10/08 Q1008;",
"06066099999","2010-11-05T07:20:00","4","55.990122","8.353906","5.18","STAUNING, DA","FM-15","EKVJ ","V020","280,1,N,0103,1","00450,1,C,N","011265,1,N,1","+0110,1","+0100,1","99999,9","07,5,+00450,1,99,9",,,"07,99,1,99,9,99,9,99999,9,99,9,99,9","10061,1,99999,9",,,,,"MET051METAR EKVJ 050720Z 28020KT 9999 BKN015 11/10 Q1006;",
"06066099999","2010-11-05T07:50:00","4","55.990122","8.353906","5.18","STAUNING, DA","FM-15","EKVJ ","V020","280,1,N,0072,1","00450,1,C,N","011265,1,N,1","+0110,1","+0100,1","99999,9","07,5,+00450,1,99,9",,,"07,99,1,99,9,99,9,99999,9,99,9,99,9","10061,1,99999,9",,,,"0123,1","MET054METAR EKVJ 050750Z 28014G24KT 9999 BKN015 11/10 Q1006;",
"06066099999","2010-11-05T08:50:00","4","55.990122","8.353906","5.18","STAUNING, DA","FM-15","EKVJ ","V020","280,1,N,0072,1","00450,1,C,N","011265,1,N,1","+0100,1","+0080,1","99999,9","07,5,+00450,1,99,9",,,"07,99,1,99,9,99,9,99999,9,99,9,99,9","10071,1,99999,9",,,,"0123,1","MET054METAR EKVJ 050850Z 28014G24KT 9999 BKN015 10/08 Q1007;",
"06066099999","2010-11-05T09:50:00","4","55.990122","8.353906","5.18","STAUNING, DA","FM-15","EKVJ ","V020","300,1,N,0072,1","00450,1,C,N","011265,1,N,1","+0090,1","+0070,1","99999,9","07,5,+00450,1,99,9",,,"07,99,1,99,9,99,9,99999,9,99,9,99,9","10091,1,99999,9",,,,"0123,1","MET062METAR EKVJ 050950Z 30014G24KT 270V330 9999 BKN015 09/07 Q1009;",
"06066099999","2010-11-05T10:50:00","4","55.990122","8.353906","5.18","STAUNING, DA","FM-15","EKVJ ","V020","300,1,N,0072,1","00600,1,C,N","011265,1,N,1","+0090,1","+0070,1","99999,9","02,5,+00450,1,99,9","07,5,+00600,1,99,9",,"07,99,1,99,9,99,9,99999,9,99,9,99,9","10102,1,99999,9",,,,"0123,1","MET069METAR EKVJ 051050Z 30014G24KT 270V330 9999 FEW015 BKN020 09/07 Q1010;",
"06066099999","2010-11-05T11:50:00","4","55.990122","8.353906","5.18","STAUNING, DA","FM-15","EKVJ ","V020","300,1,N,0077,1","22000,1,9,N","011265,1,N,1","+0100,1","+0080,1","99999,9","04,5,+00600,1,99,9",,,"04,99,1,99,9,99,9,99999,9,99,9,99,9","10108,1,99999,9",,,,,"MET059METAR EKVJ 051150Z 30015KT 270V330 9999 SCT020 10/08 Q1011;",
"06066099999","2010-11-05T12:50:00","4","55.990122","8.353906","5.18","STAUNING, DA","FM-15","EKVJ ","V020","300,1,N,0062,1","00600,1,C,N","011265,1,N,1","+0100,1","+0080,1","99999,9","07,5,+00600,1,99,9",,,"07,99,1,99,9,99,9,99999,9,99,9,99,9","10119,1,99999,9",,,,,"MET059METAR EKVJ 051250Z 30012KT 260V330 9999 BKN020 10/08 Q1012;",
"06066099999","2010-11-05T13:50:00","4","55.990122","8.353906","5.18","STAUNING, DA","FM-15","EKVJ ","V020","300,1,N,0051,1","00750,1,C,N","011265,1,N,1","+0100,1","+0080,1","99999,9","07,5,+00750,1,99,9",,,"07,99,1,99,9,99,9,99999,9,99,9,99,9","10119,1,99999,9",,,,,"MET059METAR EKVJ 051350Z 30010KT 260V330 9999 BKN025 10/08 Q1012;",
"06066099999","2010-11-05T14:50:00","4","55.990122","8.353906","5.18","STAUNING, DA","FM-15","EKVJ ","V020","280,1,N,0051,1","00750,1,C,N","011265,1,N,1","+0090,1","+0070,1","99999,9","07,5,+00750,1,99,9",,,"07,99,1,99,9,99,9,99999,9,99,9,99,9","10129,1,99999,9",,,,,"MET051METAR EKVJ 051450Z 28010KT 9999 BKN025 09/07 Q1013;",
"06066099999","2010-11-08T07:20:00","4","55.990122","8.353906","5.18","STAUNING, DA","FM-15","EKVJ ","V020","100,1,N,0041,1","22000,1,9,N","011265,1,N,1","+0000,1","-0010,1","99999,9","02,5,+00900,1,99,9",,,"02,99,1,99,9,99,9,99999,9,99,9,99,9","09959,1,99999,9",,,,,"MET052METAR EKVJ 080720Z 10008KT 9999 FEW030 00/M01 Q0996;",
"06066099999","2010-11-08T07:50:00","4","55.990122","8.353906","5.18","STAUNING, DA","FM-15","EKVJ ","V020","090,1,N,0041,1","22000,1,9,N","011265,1,N,1","+0000,1","-0010,1","99999,9","02,5,+00900,1,99,9",,,"02,99,1,99,9,99,9,99999,9,99,9,99,9","09959,1,99999,9",,,,,"MET052METAR EKVJ 080750Z 09008KT 9999 FEW030 00/M01 Q0996;",
"06066099999","2010-11-08T08:50:00","4","55.990122","8.353906","5.18","STAUNING, DA","FM-15","EKVJ ","V020","090,1,N,0051,1","22000,1,9,N","011265,1,N,1","+0020,1","+0010,1","99999,9","02,5,+00900,1,99,9",,,"02,99,1,99,9,99,9,99999,9,99,9,99,9","09949,1,99999,9",,,,,"MET051METAR EKVJ 080850Z 09010KT 9999 FEW030 02/01 Q0995;",
"06066099999","2010-11-08T09:50:00","4","55.990122","8.353906","5.18","STAUNING, DA","FM-15","EKVJ ","V020","090,1,N,0062,1","22000,1,9,N","011265,1,N,1","+0030,1","+0020,1","99999,9","02,5,+00900,1,99,9",,,"02,99,1,99,9,99,9,99999,9,99,9,99,9","09939,1,99999,9",,,,,"MET051METAR EKVJ 080950Z 09012KT 9999 FEW030 03/02 Q0994;",
"06066099999","2010-11-08T10:50:00","4","55.990122","8.353906","5.18","STAUNING, DA","FM-15","EKVJ ","V020","090,1,N,0072,1","22000,1,9,N","011265,1,N,1","+0050,1","+0040,1","99999,9","02,5,+00900,1,99,9",,,"02,99,1,99,9,99,9,99999,9,99,9,99,9","09939,1,99999,9",,,,,"MET051METAR EKVJ 081050Z 09014KT 9999 FEW030 05/04 Q0994;",
"06066099999","2010-11-08T11:50:00","4","55.990122","8.353906","5.18","STAUNING, DA","FM-15","EKVJ ","V020","090,1,N,0072,1","22000,1,9,N","011265,1,N,1","+0050,1","+0030,1","99999,9","04,5,+00900,1,99,9",,,"04,99,1,99,9,99,9,99999,9,99,9,99,9","09929,1,99999,9",,,,,"MET051METAR EKVJ 081150Z 09014KT 9999 SCT030 05/03 Q0993;",
"06066099999","2010-11-08T12:50:00","4","55.990122","8.353906","5.18","STAUNING, DA","FM-15","EKVJ ","V020","090,1,N,0072,1","00750,1,C,N","011265,1,N,1","+0050,1","+0030,1","99999,9","07,5,+00750,1,99,9",,,"07,99,1,99,9,99,9,99999,9,99,9,99,9","09919,1,99999,9",,,,,"MET051METAR EKVJ 081250Z 09014KT 9999 BKN025 05/03 Q0992;",
"06066099999","2010-11-08T13:50:00","4","55.990122","8.353906","5.18","STAUNING, DA","FM-15","EKVJ ","V020","090,1,N,0072,1","00750,1,C,N","011265,1,N,1","+0050,1","+0030,1","99999,9","07,5,+00750,1,99,9",,,"07,99,1,99,9,99,9,99999,9,99,9,99,9","09909,1,99999,9",,,,,"MET051METAR EKVJ 081350Z 09014KT 9999 BKN025 05/03 Q0991;",
"06066099999","2010-11-08T14:50:00","4","55.990122","8.353906","5.18","STAUNING, DA","FM-15","EKVJ ","V020","090,1,N,0072,1","22000,1,9,N","011265,1,N,1","+0050,1","+0020,1","99999,9","04,5,+00750,1,99,9",,,"04,99,1,99,9,99,9,99999,9,99,9,99,9","09909,1,99999,9",,,,,"MET051METAR EKVJ 081450Z 09014KT 9999 SCT025 05/02 Q0991;",
"06066099999","2010-11-09T07:20:00","4","55.990122","8.353906","5.18","STAUNING, DA","FM-15","EKVJ ","V020","050,1,N,0072,1","22000,1,9,N","011265,1,N,1","+0030,1","+0020,1","99999,9","04,5,+00300,1,99,9",,,"04,99,1,99,9,99,9,99999,9,99,9,99,9","09851,1,99999,9",,,,,"MET051METAR EKVJ 090720Z 05014KT 9999 SCT010 03/02 Q0985;",
"06066099999","2010-11-09T07:50:00","4","55.990122","8.353906","5.18","STAUNING, DA","FM-15","EKVJ ","V020","050,1,N,0072,1","22000,1,9,N","011265,1,N,1","+0030,1","+0020,1","99999,9","04,5,+00300,1,99,9",,,"04,99,1,99,9,99,9,99999,9,99,9,99,9","09851,1,99999,9",,,,,"MET051METAR EKVJ 090750Z 05014KT 9999 SCT010 03/02 Q0985;",
"06066099999","2010-11-09T09:20:00","4","55.990122","8.353906","5.18","STAUNING, DA","FM-15","EKVJ ","V020","050,1,N,0072,1","00390,1,C,N","011265,1,N,1","+0030,1","+0020,1","99999,9","04,5,+00240,1,99,9","07,5,+00390,1,99,9",,"07,99,1,99,9,99,9,99999,9,99,9,99,9","09851,1,99999,9",,,,,"MET058METAR EKVJ 090920Z 05014KT 9999 SCT008 BKN013 03/02 Q0985;",
"06066099999","2010-11-09T09:50:00","4","55.990122","8.353906","5.18","STAUNING, DA","FM-15","EKVJ ","V020","050,1,N,0072,1","00390,1,C,N","011265,1,N,1","+0030,1","+0020,1","99999,9","04,5,+00240,1,99,9","07,5,+00390,1,99,9",,"07,99,1,99,9,99,9,99999,9,99,9,99,9","09851,1,99999,9",,,,,"MET058METAR EKVJ 090950Z 05014KT 9999 SCT008 BKN013 03/02 Q0985;",
"06066099999","2010-11-09T11:20:00","4","55.990122","8.353906","5.18","STAUNING, DA","FM-15","EKVJ ","V020","050,1,N,0072,1","00390,1,C,N","011265,1,N,1","+0030,1","+0020,1","99999,9","04,5,+00240,1,99,9","07,5,+00390,1,99,9",,"07,99,1,99,9,99,9,99999,9,99,9,99,9","09851,1,99999,9",,,,,"MET058METAR EKVJ 091120Z 05014KT 9999 SCT008 BKN013 03/02 Q0985;",
"06066099999","2010-11-09T11:50:00","4","55.990122","8.353906","5.18","STAUNING, DA","FM-15","EKVJ ","V020","050,1,N,0072,1","00240,1,C,N","011265,1,N,1","+0030,1","+0020,1","99999,9","07,5,+00240,1,99,9","07,5,+00390,1,99,9",,"07,99,1,99,9,99,9,99999,9,99,9,99,9","09851,1,99999,9",,,,,"MET058METAR EKVJ 091150Z 05014KT 9999 BKN008 BKN013 03/02 Q0985;",
"06066099999","2010-11-09T12:50:00","4","55.990122","8.353906","5.18","STAUNING, DA","FM-15","EKVJ ","V020","050,1,N,0072,1","00240,1,C,N","011265,1,N,1","+0030,1","+0020,1","99999,9","07,5,+00240,1,99,9","07,5,+00390,1,99,9",,"07,99,1,99,9,99,9,99999,9,99,9,99,9","09851,1,99999,9",,,,,"MET058METAR EKVJ 091250Z 05014KT 9999 BKN008 BKN013 03/02 Q0985;",
"06066099999","2010-11-09T13:50:00","4","55.990122","8.353906","5.18","STAUNING, DA","FM-15","EKVJ ","V020","050,1,N,0072,1","00240,1,C,N","011265,1,N,1","+0030,1","+0020,1","99999,9","07,5,+00240,1,99,9","07,5,+00390,1,99,9",,"07,99,1,99,9,99,9,99999,9,99,9,99,9","09851,1,99999,9",,,,,"MET058METAR EKVJ 091350Z 05014KT 9999 BKN008 BKN013 03/02 Q0985;",
"06066099999","2010-11-09T14:50:00","4","55.990122","8.353906","5.18","STAUNING, DA","FM-15","EKVJ ","V020","050,1,N,0072,1","00240,1,C,N","011265,1,N,1","+0030,1","+0020,1","99999,9","07,5,+00240,1,99,9","07,5,+00390,1,99,9",,"07,99,1,99,9,99,9,99999,9,99,9,99,9","09851,1,99999,9",,,,,"MET058METAR EKVJ 091450Z 05014KT 9999 BKN008 BKN013 03/02 Q0985;",
"06066099999","2010-11-10T07:20:00","4","55.990122","8.353906","5.18","STAUNING, DA","FM-15","EKVJ ","V020","999,9,C,0000,1","00210,1,C,N","011265,1,N,1","+0010,1","+0000,1","99999,9","07,5,+00210,1,99,9",,,"07,99,1,99,9,99,9,99999,9,99,9,99,9","09909,1,99999,9",,,,,"MET051METAR EKVJ 100720Z 00000KT 9999 BKN007 01/00 Q0991;",
"06066099999","2010-11-10T07:50:00","4","55.990122","8.353906","5.18","STAUNING, DA","FM-15","EKVJ ","V020","999,9,V,0015,1","00210,1,C,N","011265,1,N,1","+0010,1","+0000,1","99999,9","07,5,+00210,1,99,9",,,"07,99,1,99,9,99,9,99999,9,99,9,99,9","09909,1,99999,9",,,,,"MET051METAR EKVJ 100750Z VRB03KT 9999 BKN007 01/00 Q0991;",
"06066099999","2010-11-10T08:50:00","4","55.990122","8.353906","5.18","STAUNING, DA","FM-15","EKVJ ","V020","999,9,V,0015,1","00210,1,C,N","011265,1,N,1","+0020,1","+0010,1","99999,9","07,5,+00210,1,99,9",,,"07,99,1,99,9,99,9,99999,9,99,9,99,9","09909,1,99999,9",,,,,"MET051METAR EKVJ 100850Z VRB03KT 9999 BKN007 02/01 Q0991;",
"06066099999","2010-11-10T09:50:00","4","55.990122","8.353906","5.18","STAUNING, DA","FM-15","EKVJ ","V020","999,9,V,0015,1","22000,1,9,N","011265,1,N,1","+0040,1","+0030,1","99999,9","02,5,+00420,1,99,9",,,"02,99,1,99,9,99,9,99999,9,99,9,99,9","09909,1,99999,9",,,,,"MET051METAR EKVJ 100950Z VRB03KT 9999 FEW014 04/03 Q0991;",
"06066099999","2010-11-10T10:50:00","4","55.990122","8.353906","5.18","STAUNING, DA","FM-15","EKVJ ","V020","999,9,V,0015,1","99999,9,C,N","011265,1,N,1","+0030,1","+0020,1","99999,9","02,5,+00420,1,99,9","04,5,+06000,1,99,9",,"04,99,1,99,9,99,9,99999,9,99,9,99,9","09898,1,99999,9",,,,,"MET058METAR EKVJ 101050Z VRB03KT 9999 FEW014 SCT200 03/02 Q0990;","P01 060003SCOCIG"
"06066099999","2010-11-10T11:50:00","4","55.990122","8.353906","5.18","STAUNING, DA","FM-15","EKVJ ","V020","999,9,V,0015,1","99999,9,C,N","011265,1,N,1","+0040,1","+0020,1","99999,9","02,5,+00420,1,99,9","04,5,+06000,1,99,9",,"04,99,1,99,9,99,9,99999,9,99,9,99,9","09919,1,99999,9",,,,,"MET058METAR EKVJ 101150Z VRB03KT 9999 FEW014 SCT200 04/02 Q0992;","P01 060003SCOCIG"
"06066099999","2010-11-10T12:50:00","4","55.990122","8.353906","5.18","STAUNING, DA","FM-15","EKVJ ","V020","999,9,V,0015,1","99999,9,C,N","011265,1,N,1","+0040,1","+0020,1","99999,9","02,5,+00420,1,99,9","04,5,+06000,1,99,9",,"04,99,1,99,9,99,9,99999,9,99,9,99,9","09919,1,99999,9",,,,,"MET058METAR EKVJ 101250Z VRB03KT 9999 FEW014 SCT200 04/02 Q0992;","P01 060003SCOCIG"
"06066099999","2010-11-10T13:50:00","4","55.990122","8.353906","5.18","STAUNING, DA","FM-15","EKVJ ","V020","999,9,V,0015,1","99999,9,C,N","011265,1,N,1","+0040,1","+0020,1","99999,9","02,5,+00420,1,99,9","04,5,+06000,1,99,9",,"04,99,1,99,9,99,9,99999,9,99,9,99,9","09929,1,99999,9",,,,,"MET058METAR EKVJ 101350Z VRB03KT 9999 FEW014 SCT200 04/02 Q0993;","P01 060003SCOCIG"
"06066099999","2010-11-10T14:50:00","4","55.990122","8.353906","5.18","STAUNING, DA","FM-15","EKVJ ","V020","999,9,V,0015,1","99999,9,C,N","011265,1,N,1","+0030,1","+0020,1","99999,9","04,5,+00420,1,99,9","04,5,+06000,1,99,9",,"04,99,1,99,9,99,9,99999,9,99,9,99,9","09929,1,99999,9",,,,,"MET058METAR EKVJ 101450Z VRB03KT 9999 SCT014 SCT200 03/02 Q0993;","P01 060003SCOCIG"
"06066099999","2010-11-11T07:20:00","4","55.990122","8.353906","5.18","STAUNING, DA","FM-15","EKVJ ","V020","160,1,N,0015,1","00900,1,C,N","011265,1,N,1","+0030,1","+0020,1","99999,9","07,5,+00900,1,99,9",,,"07,99,1,99,9,99,9,99999,9,99,9,99,9","09990,1,99999,9",,,,,"MET051METAR EKVJ 110720Z 16003KT 9999 BKN030 03/02 Q0999;",
"06066099999","2010-11-11T07:50:00","4","55.990122","8.353906","5.18","STAUNING, DA","FM-15","EKVJ ","V020","180,1,N,0021,1","00900,1,C,N","011265,1,N,1","+0030,1","+0020,1","99999,9","07,5,+00900,1,99,9",,,"07,99,1,99,9,99,9,99999,9,99,9,99,9","09980,1,99999,9",,,,,"MET051METAR EKVJ 110750Z 18004KT 9999 BKN030 03/02 Q0998;",
"06066099999","2010-11-11T08:50:00","4","55.990122","8.353906","5.18","STAUNING, DA","FM-15","EKVJ ","V020","170,1,N,0031,1","00900,1,C,N","011265,1,N,1","+0050,1","+0040,1","99999,9","07,5,+00900,1,99,9",,,"07,99,1,99,9,99,9,99999,9,99,9,99,9","09980,1,99999,9",,,,,"MET051METAR EKVJ 110850Z 17006KT 9999 BKN030 05/04 Q0998;",
"06066099999","2010-11-11T09:50:00","4","55.990122","8.353906","5.18","STAUNING, DA","FM-15","EKVJ ","V020","170,1,N,0041,1","00900,1,C,N","011265,1,N,1","+0050,1","+0040,1","99999,9","02,5,+00600,1,99,9","07,5,+00900,1,99,9",,"07,99,1,99,9,99,9,99999,9,99,9,99,9","09970,1,99999,9",,,,,"MET058METAR EKVJ 110950Z 17008KT 9999 FEW020 BKN030 05/04 Q0997;",
"06066099999","2010-11-11T10:50:00","4","55.990122","8.353906","5.18","STAUNING, DA","FM-15","EKVJ ","V020","160,1,N,0051,1","01500,1,C,N","011265,1,N,1","+0050,1","+0040,1","99999,9","04,5,+00900,1,99,9","07,5,+01500,1,99,9",,"07,99,1,99,9,99,9,99999,9,99,9,99,9","09949,1,99999,9",,,,,"MET058METAR EKVJ 111050Z 16010KT 9999 SCT030 BKN050 05/04 Q0995;",
"06066099999","2010-11-11T11:50:00","4","55.990122","8.353906","5.18","STAUNING, DA","FM-15","EKVJ ","V020","150,1,N,0062,1","00900,1,C,N","011265,1,N,1","+0050,1","+0040,1","99999,9","07,5,+00900,1,99,9",,,"07,99,1,99,9,99,9,99999,9,99,9,99,9","09939,1,99999,9",,,,,"MET051METAR EKVJ 111150Z 15012KT 9999 BKN030 05/04 Q0994;",
"06066099999","2010-11-11T12:50:00","4","55.990122","8.353906","5.18","STAUNING, DA","FM-15","EKVJ ","V020","150,1,N,0103,1","00900,1,C,N","011265,1,N,1","+0070,1","+0050,1","99999,9","07,5,+00900,1,99,9",,,"07,99,1,99,9,99,9,99999,9,99,9,99,9","09929,1,99999,9",,,,,"MET051METAR EKVJ 111250Z 15020KT 9999 BKN030 07/05 Q0993;",
"06066099999","2010-11-11T13:50:00","4","55.990122","8.353906","5.18","STAUNING, DA","FM-15","EKVJ ","V020","170,1,N,0072,1","00900,1,C,N","011265,1,N,1","+0070,1","+0050,1","99999,9","04,5,+00600,1,99,9","07,5,+00900,1,99,9",,"07,99,1,99,9,99,9,99999,9,99,9,99,9","09909,1,99999,9",,,,"0123,1","MET061METAR EKVJ 111350Z 17014G24KT 9999 SCT020 BKN030 07/05 Q0991;",
"06066099999","2010-11-11T14:50:00","4","55.990122","8.353906","5.18","STAUNING, DA","FM-15","EKVJ ","V020","170,1,N,0082,1","00600,1,C,N","011265,1,N,1","+0070,1","+0050,1","99999,9","07,5,+00600,1,99,9",,,"07,99,1,99,9,99,9,99999,9,99,9,99,9","09892,1,99999,9","61,1",,,"0134,1","MET058METAR EKVJ 111450Z 17016G26KT 9999 -RA BKN020 07/05 Q0989;",
"06066099999","2010-11-12T07:20:00","4","55.990122","8.353906","5.18","STAUNING, DA","FM-15","EKVJ ","V020","230,1,N,0103,1","01200,1,C,N","008000,1,N,1","+0080,1","+0070,1","99999,9","02,5,+00600,1,99,9","07,5,+01200,1,99,9",,"07,99,1,99,9,99,9,99999,9,99,9,99,9","09699,1,99999,9",,,,"0154,1","MET061METAR EKVJ 120720Z 23020G30KT 8000 FEW020 BKN040 08/07 Q0970;",
"06066099999","2010-11-12T07:50:00","4","55.990122","8.353906","5.18","STAUNING, DA","FM-15","EKVJ ","V020","230,1,N,0103,1","01200,1,C,N","008000,1,N,1","+0080,1","+0070,1","99999,9","02,5,+00600,1,99,9","07,5,+01200,1,99,9",,"07,99,1,99,9,99,9,99999,9,99,9,99,9","09699,1,99999,9",,,,"0154,1","MET061METAR EKVJ 120750Z 23020G30KT 8000 FEW020 BKN040 08/07 Q0970;",
"06066099999","2010-11-12T09:20:00","4","55.990122","8.353906","5.18","STAUNING, DA","FM-15","EKVJ ","V020","230,1,N,9999,9","01200,1,C,N","008000,1,N,1","+0080,1","+0070,1","99999,9","02,5,+00600,1,99,9","07,5,+01200,1,99,9",,"07,99,1,99,9,99,9,99999,9,99,9,99,9","09699,1,99999,9",,,,,"MET062METAR EKVJ 120920Z 230228G38KT 8000 FEW020 BKN040 08/07 Q0970;","Q01+011731WOSPD "
"06066099999","2010-11-12T09:50:00","4","55.990122","8.353906","5.18","STAUNING, DA","FM-15","EKVJ ","V020","230,1,N,9999,9","01200,1,C,N","008000,1,N,1","+0080,1","+0070,1","99999,9","02,5,+00600,1,99,9","07,5,+01200,1,99,9",,"07,99,1,99,9,99,9,99999,9,99,9,99,9","09699,1,99999,9",,,,,"MET062METAR EKVJ 120950Z 230228G38KT 8000 FEW020 BKN040 08/07 Q0970;","Q01+011731WOSPD "
"06066099999","2010-11-12T10:50:00","4","55.990122","8.353906","5.18","STAUNING, DA","FM-15","EKVJ ","V020","230,1,N,9999,9","01200,1,C,N","011265,1,N,1","+0080,1","+0070,1","99999,9","02,5,+00600,1,99,9","07,5,+01200,1,99,9",,"07,99,1,99,9,99,9,99999,9,99,9,99,9","09699,1,99999,9",,,,,"MET062METAR EKVJ 121050Z 230228G38KT 9999 FEW020 BKN040 08/07 Q0970;","Q01+011731WOSPD "
"06066099999","2010-11-12T11:50:00","4","55.990122","8.353906","5.18","STAUNING, DA","FM-15","EKVJ ","V020","260,1,N,0144,1","01200,1,C,N","011265,1,N,1","+0080,1","+0070,1","99999,9","02,5,+00600,1,99,9","07,5,+01200,1,99,9",,"07,99,1,99,9,99,9,99999,9,99,9,99,9","09699,1,99999,9","81,1",,,"0195,1","MET066METAR EKVJ 121150Z 26028G38KT 9999 SHRA FEW020 BKN040 08/07 Q0970;",
"06066099999","2010-11-12T13:50:00","4","55.990122","8.353906","5.18","STAUNING, DA","FM-15","EKVJ ","V020","260,1,N,0144,1","01200,1,C,N","011265,1,N,1","+0080,1","+0070,1","99999,9","02,5,+00600,1,99,9","07,5,+01200,1,99,9",,"07,99,1,99,9,99,9,99999,9,99,9,99,9","09729,1,99999,9",,,,"0195,1","MET061METAR EKVJ 121350Z 26028G38KT 9999 FEW020 BKN040 08/07 Q0973;",
"06066099999","2010-11-15T07:50:00","4","55.990122","8.353906","5.18","STAUNING, DA","FM-15","EKVJ ","V020","260,1,N,0051,1","22000,1,9,N","011265,1,N,1","+0060,1","+0050,1","99999,9","04,5,+00900,1,99,9",,,"04,99,1,99,9,99,9,99999,9,99,9,99,9","10051,1,99999,9",,,,,"MET051METAR EKVJ 150750Z 26010KT 9999 SCT030 06/05 Q1005;",
"06066099999","2010-11-15T08:50:00","4","55.990122","8.353906","5.18","STAUNING, DA","FM-15","EKVJ ","V020","260,1,N,0051,1","22000,1,9,N","011265,1,N,1","+0060,1","+0050,1","99999,9","04,5,+00900,1,99,9",,,"04,99,1,99,9,99,9,99999,9,99,9,99,9","10051,1,99999,9",,,,,"MET051METAR EKVJ 150850Z 26010KT 9999 SCT030 06/05 Q1005;",
"06066099999","2010-11-15T09:50:00","4","55.990122","8.353906","5.18","STAUNING, DA","FM-15","EKVJ ","V020","260,1,N,0051,1","22000,1,9,N","011265,1,N,1","+0060,1","+0050,1","99999,9","04,5,+00900,1,99,9",,,"04,99,1,99,9,99,9,99999,9,99,9,99,9","10051,1,99999,9","80,1",,,,"MET057METAR EKVJ 150950Z 26010KT 9999 -SHRA SCT030 06/05 Q1005;",
"06066099999","2010-11-15T10:50:00","4","55.990122","8.353906","5.18","STAUNING, DA","FM-15","EKVJ ","V020","310,1,N,0062,1","22000,1,9,N","011265,1,N,1","+0070,1","+0060,1","99999,9","04,5,+00900,1,99,9",,,"04,99,1,99,9,99,9,99999,9,99,9,99,9","10071,1,99999,9",,,,,"MET051METAR EKVJ 151050Z 31012KT 9999 SCT030 07/06 Q1007;",
"06066099999","2010-11-15T12:50:00","4","55.990122","8.353906","5.18","STAUNING, DA","FM-15","EKVJ ","V020","310,1,N,0062,1","22000,1,9,N","011265,1,N,1","+0070,1","+0060,1","99999,9","02,5,+00900,1,99,9",,,"02,99,1,99,9,99,9,99999,9,99,9,99,9","10081,1,99999,9",,,,,"MET051METAR EKVJ 151250Z 31012KT 9999 FEW030 07/06 Q1008;",
"06066099999","2010-11-15T13:50:00","4","55.990122","8.353906","5.18","STAUNING, DA","FM-15","EKVJ ","V020","310,1,N,0062,1","22000,1,9,N","011265,1,N,1","+0080,1","+0060,1","99999,9","02,5,+00900,1,99,9",,,"02,99,1,99,9,99,9,99999,9,99,9,99,9","10081,1,99999,9",,,,,"MET051METAR EKVJ 151350Z 31012KT 9999 FEW030 08/06 Q1008;",
"06066099999","2010-11-16T07:50:00","4","55.990122","8.353906","5.18","STAUNING, DA","FM-15","EKVJ ","V020","999,9,C,0000,1","22000,1,9,N","011265,1,N,1","-0010,1","-0010,1","99999,9","02,5,+00900,1,99,9",,,"02,99,1,99,9,99,9,99999,9,99,9,99,9","10240,1,99999,9",,,,,"MET053METAR EKVJ 160750Z 00000KT 9999 FEW030 M01/M01 Q1024;",
"06066099999","2010-11-16T08:50:00","4","55.990122","8.353906","5.18","STAUNING, DA","FM-15","EKVJ ","V020","100,1,N,0021,1","22000,1,9,N","011265,1,N,1","+0010,1","+0010,1","99999,9","02,5,+00900,1,99,9",,,"02,99,1,99,9,99,9,99999,9,99,9,99,9","10251,1,99999,9",,,,,"MET051METAR EKVJ 160850Z 10004KT 9999 FEW030 01/01 Q1025;",
"06066099999","2010-11-16T09:50:00","4","55.990122","8.353906","5.18","STAUNING, DA","FM-15","EKVJ ","V020","100,1,N,0021,1","99999,9,9,Y","009900,1,N,1","+0030,1","+0020,1","99999,9",,,,,"10251,1,99999,9",,,,,"MET045METAR EKVJ 160950Z 10004KT CAVOK 03/02 Q1025;",
"06066099999","2010-11-16T10:50:00","4","55.990122","8.353906","5.18","STAUNING, DA","FM-15","EKVJ ","V020","100,1,N,0021,1","99999,9,9,Y","009900,1,N,1","+0040,1","+0030,1","99999,9",,,,,"10251,1,99999,9",,,,,"MET045METAR EKVJ 161050Z 10004KT CAVOK 04/03 Q1025;",
"06066099999","2010-11-16T11:50:00","4","55.990122","8.353906","5.18","STAUNING, DA","FM-15","EKVJ ","V020","110,1,N,0021,1","99999,9,9,Y","009900,1,N,1","+0050,1","+0040,1","99999,9",,,,,"10251,1,99999,9",,,,,"MET045METAR EKVJ 161150Z 11004KT CAVOK 05/04 Q1025;",
"06066099999","2010-11-16T12:50:00","4","55.990122","8.353906","5.18","STAUNING, DA","FM-15","EKVJ ","V020","110,1,N,0021,1","99999,9,9,Y","009900,1,N,1","+0050,1","+0040,1","99999,9",,,,,"10251,1,99999,9",,,,,"MET045METAR EKVJ 161250Z 11004KT CAVOK 05/04 Q1025;",
"06066099999","2010-11-16T13:50:00","4","55.990122","8.353906","5.18","STAUNING, DA","FM-15","EKVJ ","V020","110,1,N,0026,1","99999,9,9,Y","009900,1,N,1","+0050,1","+0040,1","99999,9",,,,,"10251,1,99999,9",,,,,"MET045METAR EKVJ 161350Z 11005KT CAVOK 05/04 Q1025;",
"06066099999","2010-11-16T14:50:00","4","55.990122","8.353906","5.18","STAUNING, DA","FM-15","EKVJ ","V020","110,1,N,0026,1","99999,9,9,Y","009900,1,N,1","+0050,1","+0040,1","99999,9",,,,,"10251,1,99999,9",,,,,"MET045METAR EKVJ 161450Z 11005KT CAVOK 05/04 Q1025;",
"06066099999","2010-11-17T07:20:00","4","55.990122","8.353906","5.18","STAUNING, DA","FM-15","EKVJ ","V020","090,1,N,0041,1","99999,9,9,Y","009900,1,N,1","+0020,1","+0020,1","99999,9",,,,,"10230,1,99999,9",,,,,"MET045METAR EKVJ 170720Z 09008KT CAVOK 02/02 Q1023;",
"06066099999","2010-11-17T07:50:00","4","55.990122","8.353906","5.18","STAUNING, DA","FM-15","EKVJ ","V020","090,1,N,0041,1","01500,1,C,N","006000,1,N,1","+0020,1","+0020,1","99999,9","07,5,+01500,1,99,9",,,"07,99,1,99,9,99,9,99999,9,99,9,99,9","10230,1,99999,9",,,,,"MET051METAR EKVJ 170750Z 09008KT 6000 BKN050 02/02 Q1023;",
"06066099999","2010-11-17T08:50:00","4","55.990122","8.353906","5.18","STAUNING, DA","FM-15","EKVJ ","V020","090,1,N,0041,1","01500,1,C,N","011265,1,N,1","+0020,1","+0020,1","99999,9","07,5,+01500,1,99,9",,,"07,99,1,99,9,99,9,99999,9,99,9,99,9","10230,1,99999,9",,,,,"MET051METAR EKVJ 170850Z 09008KT 9999 BKN050 02/02 Q1023;",
"06066099999","2010-11-17T09:50:00","4","55.990122","8.353906","5.18","STAUNING, DA","FM-15","EKVJ ","V020","090,1,N,0041,1","01500,1,C,N","011265,1,N,1","+0020,1","+0020,1","99999,9","07,5,+01500,1,99,9",,,"07,99,1,99,9,99,9,99999,9,99,9,99,9","10230,1,99999,9",,,,,"MET051METAR EKVJ 170950Z 09008KT 9999 BKN050 02/02 Q1023;",
"06066099999","2010-11-17T10:50:00","4","55.990122","8.353906","5.18","STAUNING, DA","FM-15","EKVJ ","V020","090,1,N,0062,1","99999,9,9,Y","009900,1,N,1","+0050,1","+0040,1","99999,9",,,,,"10220,1,99999,9",,,,,"MET045METAR EKVJ 171050Z 09012KT CAVOK 05/04 Q1022;",
"06066099999","2010-11-17T11:50:00","4","55.990122","8.353906","5.18","STAUNING, DA","FM-15","EKVJ ","V020","090,1,N,0062,1","99999,9,9,Y","009900,1,N,1","+0050,1","+0040,1","99999,9",,,,,"10220,1,99999,9",,,,,"MET045METAR EKVJ 171150Z 09012KT CAVOK 05/04 Q1022;",
"06066099999","2010-11-17T13:20:00","4","55.990122","8.353906","5.18","STAUNING, DA","FM-15","EKVJ ","V020","090,1,N,0062,1","99999,9,9,Y","009900,1,N,1","+0050,1","+0040,1","99999,9",,,,,"10200,1,99999,9",,,,,"MET045METAR EKVJ 171320Z 09012KT CAVOK 05/04 Q1020;",
"06066099999","2010-11-17T13:50:00","4","55.990122","8.353906","5.18","STAUNING, DA","FM-15","EKVJ ","V020","080,1,N,0072,1","22000,1,9,N","011265,1,N,1","+0050,1","+0040,1","99999,9","02,5,+00600,1,99,9",,,"02,99,1,99,9,99,9,99999,9,99,9,99,9","10200,1,99999,9",,,,,"MET051METAR EKVJ 171350Z 08014KT 9999 FEW020 05/04 Q1020;",
"06066099999","2010-11-18T08:50:00","4","55.990122","8.353906","5.18","STAUNING, DA","FM-15","EKVJ ","V020","070,1,N,0082,1","00600,1,C,N","011265,1,N,1","+0030,1","+0020,1","99999,9","07,5,+00600,1,99,9",,,"07,99,1,99,9,99,9,99999,9,99,9,99,9","10159,1,99999,9",,,,,"MET051METAR EKVJ 180850Z 07016KT 9999 BKN020 03/02 Q1016;",
"06066099999","2010-11-18T09:50:00","4","55.990122","8.353906","5.18","STAUNING, DA","FM-15","EKVJ ","V020","070,1,N,0082,1","00600,1,C,N","011265,1,N,1","+0030,1","+0020,1","99999,9","07,5,+00600,1,99,9",,,"07,99,1,99,9,99,9,99999,9,99,9,99,9","10159,1,99999,9",,,,,"MET051METAR EKVJ 180950Z 07016KT 9999 BKN020 03/02 Q1016;",
"06066099999","2010-11-18T10:50:00","4","55.990122","8.353906","5.18","STAUNING, DA","FM-15","EKVJ ","V020","060,1,N,0072,1","00450,1,C,N","011265,1,N,1","+0040,1","+0030,1","99999,9","07,5,+00450,1,99,9",,,"07,99,1,99,9,99,9,99999,9,99,9,99,9","10159,1,99999,9","51,1",,,,"MET055METAR EKVJ 181050Z 06014KT 9999 -DZ BKN015 04/03 Q1016;",
"06066099999","2010-11-18T11:50:00","4","55.990122","8.353906","5.18","STAUNING, DA","FM-15","EKVJ ","V020","070,1,N,0072,1","00450,1,C,N","011265,1,N,1","+0040,1","+0030,1","99999,9","07,5,+00450,1,99,9",,,"07,99,1,99,9,99,9,99999,9,99,9,99,9","10149,1,99999,9",,,,,"MET051METAR EKVJ 181150Z 07014KT 9999 BKN015 04/03 Q1015;",
"06066099999","2010-11-18T12:50:00","4","55.990122","8.353906","5.18","STAUNING, DA","FM-15","EKVJ ","V020","070,1,N,0072,1","00450,1,C,N","011265,1,N,1","+0040,1","+0030,1","99999,9","07,5,+00450,1,99,9",,,"07,99,1,99,9,99,9,99999,9,99,9,99,9","10149,1,99999,9",,,,,"MET051METAR EKVJ 181250Z 07014KT 9999 BKN015 04/03 Q1015;",
"06066099999","2010-11-18T13:50:00","4","55.990122","8.353906","5.18","STAUNING, DA","FM-15","EKVJ ","V020","070,1,N,0072,1","00450,1,C,N","011265,1,N,1","+0040,1","+0030,1","99999,9","04,5,+00360,1,99,9","07,5,+00450,1,99,9",,"07,99,1,99,9,99,9,99999,9,99,9,99,9","10149,1,99999,9","51,1",,,,"MET062METAR EKVJ 181350Z 07014KT 9999 -DZ SCT012 BKN015 04/03 Q1015;",
"06066099999","2010-11-18T14:50:00","4","55.990122","8.353906","5.18","STAUNING, DA","FM-15","EKVJ ","V020","070,1,N,0062,1","00450,1,C,N","011265,1,N,1","+0040,1","+0030,1","99999,9","04,5,+00360,1,99,9","07,5,+00450,1,99,9",,"07,99,1,99,9,99,9,99999,9,99,9,99,9","10149,1,99999,9","51,1",,,,"MET062METAR EKVJ 181450Z 07012KT 9999 -DZ SCT012 BKN015 04/03 Q1015;",
"06066099999","2010-11-19T07:20:00","4","55.990122","8.353906","5.18","STAUNING, DA","FM-15","EKVJ ","V020","070,1,N,0062,1","00300,1,C,N","011265,1,N,1","+0030,1","+0020,1","99999,9","04,5,+00150,1,99,9","07,5,+00300,1,99,9",,"07,99,1,99,9,99,9,99999,9,99,9,99,9","10149,1,99999,9","61,1",,,,"MET062METAR EKVJ 190720Z 07012KT 9999 -RA SCT005 BKN010 03/02 Q1015;",
"06066099999","2010-11-19T07:50:00","4","55.990122","8.353906","5.18","STAUNING, DA","FM-15","EKVJ ","V020","070,1,N,0062,1","00300,1,C,N","011265,1,N,1","+0030,1","+0020,1","99999,9","04,5,+00150,1,99,9","07,5,+00300,1,99,9",,"07,99,1,99,9,99,9,99999,9,99,9,99,9","10149,1,99999,9","61,1",,,,"MET062METAR EKVJ 190750Z 07012KT 9999 -RA SCT005 BKN010 03/02 Q1015;",
"06066099999","2010-11-19T08:50:00","4","55.990122","8.353906","5.18","STAUNING, DA","FM-15","EKVJ ","V020","070,1,N,0062,1","00300,1,C,N","011265,1,N,1","+0030,1","+0020,1","99999,9","04,5,+00150,1,99,9","07,5,+00300,1,99,9",,"07,99,1,99,9,99,9,99999,9,99,9,99,9","10149,1,99999,9","61,1",,,,"MET062METAR EKVJ 190850Z 07012KT 9999 -RA SCT005 BKN010 03/02 Q1015;",
"06066099999","2010-11-19T09:50:00","4","55.990122","8.353906","5.18","STAUNING, DA","FM-15","EKVJ ","V020","070,1,N,0062,1","00300,1,C,N","011265,1,N,1","+0030,1","+0020,1","99999,9","04,5,+00150,1,99,9","07,5,+00300,1,99,9",,"07,99,1,99,9,99,9,99999,9,99,9,99,9","10149,1,99999,9","61,1","71,1",,,"MET064METAR EKVJ 190950Z 07012KT 9999 -RASN SCT005 BKN010 03/02 Q1015;",
"06066099999","2010-11-19T10:50:00","4","55.990122","8.353906","5.18","STAUNING, DA","FM-15","EKVJ ","V020","070,1,N,0062,1","00300,1,C,N","008000,1,N,1","+0030,1","+0020,1","99999,9","04,5,+00150,1,99,9","07,5,+00300,1,99,9",,"07,99,1,99,9,99,9,99999,9,99,9,99,9","10159,1,99999,9","61,1","71,1",,,"MET064METAR EKVJ 191050Z 07012KT 8000 -RASN SCT005 BKN010 03/02 Q1016;",
"06066099999","2010-11-19T12:20:00","4","55.990122","8.353906","5.18","STAUNING, DA","FM-15","EKVJ ","V020","070,1,N,0062,1","00300,1,C,N","008000,1,N,1","+0030,1","+0020,1","99999,9","04,5,+00150,1,99,9","07,5,+00300,1,99,9",,"07,99,1,99,9,99,9,99999,9,99,9,99,9","10159,1,99999,9","61,1","71,1",,,"MET064METAR EKVJ 191220Z 07012KT 8000 -RASN SCT005 BKN010 03/02 Q1016;",
"06066099999","2010-11-19T12:50:00","4","55.990122","8.353906","5.18","STAUNING, DA","FM-15","EKVJ ","V020","070,1,N,0062,1","00300,1,C,N","006000,1,N,1","+0030,1","+0020,1","99999,9","04,5,+00150,1,99,9","07,5,+00300,1,99,9",,"07,99,1,99,9,99,9,99999,9,99,9,99,9","10159,1,99999,9","61,1","71,1",,,"MET064METAR EKVJ 191250Z 07012KT 6000 -RASN SCT005 BKN010 03/02 Q1016;",
"06066099999","2010-11-19T13:20:00","4","55.990122","8.353906","5.18","STAUNING, DA","FM-15","EKVJ ","V020","070,1,N,0062,1","00120,1,C,N","006000,1,N,1","+0010,1","+0000,1","99999,9","07,5,+00120,1,99,9","07,5,+00180,1,99,9",,"07,99,1,99,9,99,9,99999,9,99,9,99,9","10159,1,99999,9","61,1","71,1",,,"MET064METAR EKVJ 191320Z 07012KT 6000 -RASN BKN004 BKN006 01/00 Q1016;",
"06066099999","2010-11-19T13:50:00","4","55.990122","8.353906","5.18","STAUNING, DA","FM-15","EKVJ ","V020","070,1,N,0062,1","00120,1,C,N","006000,1,N,1","+0010,1","+0000,1","99999,9","07,5,+00120,1,99,9","07,5,+00180,1,99,9",,"07,99,1,99,9,99,9,99999,9,99,9,99,9","10159,1,99999,9","61,1","71,1",,,"MET064METAR EKVJ 191350Z 07012KT 6000 -RASN BKN004 BKN006 01/00 Q1016;",
"06066099999","2010-11-19T14:50:00","4","55.990122","8.353906","5.18","STAUNING, DA","FM-15","EKVJ ","V020","070,1,N,0062,1","00120,1,C,N","006000,1,N,1","+0010,1","+0000,1","99999,9","07,5,+00120,1,99,9","07,5,+00180,1,99,9",,"07,99,1,99,9,99,9,99999,9,99,9,99,9","10159,1,99999,9","61,1","71,1",,,"MET064METAR EKVJ 191450Z 07012KT 6000 -RASN BKN004 BKN006 01/00 Q1016;",
"06066099999","2010-11-22T07:20:00","4","55.990122","8.353906","5.18","STAUNING, DA","FM-15","EKVJ ","V020","040,1,N,0031,1","00120,1,C,N","005000,1,N,1","+0030,1","+0020,1","99999,9","07,5,+00120,1,99,9",,,"07,99,1,99,9,99,9,99999,9,99,9,99,9","10139,1,99999,9",,,,,"MET051METAR EKVJ 220720Z 04006KT 5000 BKN004 03/02 Q1014;",
"06066099999","2010-11-22T07:50:00","4","55.990122","8.353906","5.18","STAUNING, DA","FM-15","EKVJ ","V020","040,1,N,0041,1","00120,1,C,N","005000,1,N,1","+0030,1","+0020,1","99999,9","07,5,+00120,1,99,9",,,"07,99,1,99,9,99,9,99999,9,99,9,99,9","10139,1,99999,9",,,,,"MET051METAR EKVJ 220750Z 04008KT 5000 BKN004 03/02 Q1014;",
"06066099999","2010-11-22T08:50:00","4","55.990122","8.353906","5.18","STAUNING, DA","FM-15","EKVJ ","V020","050,1,N,0041,1","00240,1,C,N","011265,1,N,1","+0030,1","+0020,1","99999,9","07,5,+00240,1,99,9",,,"07,99,1,99,9,99,9,99999,9,99,9,99,9","10139,1,99999,9",,,,,"MET051METAR EKVJ 220850Z 05008KT 9999 BKN008 03/02 Q1014;",
"06066099999","2010-11-22T10:50:00","4","55.990122","8.353906","5.18","STAUNING, DA","FM-15","EKVJ ","V020","050,1,N,0051,1","00240,1,C,N","011265,1,N,1","+0030,1","+0020,1","99999,9","07,5,+00240,1,99,9",,,"07,99,1,99,9,99,9,99999,9,99,9,99,9","10129,1,99999,9",,,,,"MET051METAR EKVJ 221050Z 05010KT 9999 BKN008 03/02 Q1013;",
"06066099999","2010-11-22T11:50:00","4","55.990122","8.353906","5.18","STAUNING, DA","FM-15","EKVJ ","V020","060,1,N,0051,1","00240,1,C,N","011265,1,N,1","+0030,1","+0020,1","99999,9","07,5,+00240,1,99,9",,,"07,99,1,99,9,99,9,99999,9,99,9,99,9","10119,1,99999,9",,,,,"MET059METAR EKVJ 221150Z 06010KT 020V090 9999 BKN008 03/02 Q1012;",
"06066099999","2010-11-22T12:50:00","4","55.990122","8.353906","5.18","STAUNING, DA","FM-15","EKVJ ","V020","060,1,N,0051,1","00240,1,C,N","011265,1,N,1","+0030,1","+0020,1","99999,9","07,5,+00240,1,99,9",,,"07,99,1,99,9,99,9,99999,9,99,9,99,9","10108,1,99999,9",,,,,"MET059METAR EKVJ 221250Z 06010KT 020V090 9999 BKN008 03/02 Q1011;",
"06066099999","2010-11-22T13:50:00","4","55.990122","8.353906","5.18","STAUNING, DA","FM-15","EKVJ ","V020","060,1,N,0051,1","00240,1,C,N","011265,1,N,1","+0020,1","+0010,1","99999,9","07,5,+00240,1,99,9",,,"07,99,1,99,9,99,9,99999,9,99,9,99,9","10108,1,99999,9",,,,,"MET059METAR EKVJ 221350Z 06010KT 020V100 9999 BKN008 02/01 Q1011;",
"06066099999","2010-11-22T14:50:00","4","55.990122","8.353906","5.18","STAUNING, DA","FM-15","EKVJ ","V020","060,1,N,0041,1","00240,1,C,N","011265,1,N,1","+0020,1","+0010,1","99999,9","07,5,+00240,1,99,9",,,"07,99,1,99,9,99,9,99999,9,99,9,99,9","10108,1,99999,9",,,,,"MET059METAR EKVJ 221450Z 06008KT 020V110 9999 BKN008 02/01 Q1011;",
"06066099999","2010-11-23T07:20:00","4","55.990122","8.353906","5.18","STAUNING, DA","FM-15","EKVJ ","V020","360,1,N,0062,1","00300,1,C,N","006000,1,N,1","+0020,1","+0010,1","99999,9","07,5,+00300,1,99,9",,,"07,99,1,99,9,99,9,99999,9,99,9,99,9","10020,1,99999,9","61,1","71,1",,,"MET065METAR EKVJ 230720Z 36012KT 300V030 6000 -RASN BKN010 02/01 Q1002;",
"06066099999","2010-11-23T07:50:00","4","55.990122","8.353906","5.18","STAUNING, DA","FM-15","EKVJ ","V020","360,1,N,0062,1","00300,1,C,N","006000,1,N,1","+0020,1","+0010,1","99999,9","07,5,+00300,1,99,9",,,"07,99,1,99,9,99,9,99999,9,99,9,99,9","10020,1,99999,9","61,1","71,1",,,"MET065METAR EKVJ 230750Z 36012KT 300V030 6000 -RASN BKN010 02/01 Q1002;",
"06066099999","2010-11-23T08:50:00","4","55.990122","8.353906","5.18","STAUNING, DA","FM-15","EKVJ ","V020","360,1,N,0062,1","00240,1,C,N","008000,1,N,1","+0020,1","+0010,1","99999,9","07,5,+00240,1,99,9",,,"07,99,1,99,9,99,9,99999,9,99,9,99,9","10020,1,99999,9","61,1","71,1",,,"MET065METAR EKVJ 230850Z 36012KT 300V030 8000 -RASN BKN008 02/01 Q1002;",
"06066099999","2010-11-23T09:50:00","4","55.990122","8.353906","5.18","STAUNING, DA","FM-15","EKVJ ","V020","360,1,N,0072,1","00240,1,C,N","007000,1,N,1","+0020,1","+0010,1","99999,9","07,5,+00240,1,99,9",,,"07,99,1,99,9,99,9,99999,9,99,9,99,9","10020,1,99999,9","61,1",,,,"MET063METAR EKVJ 230950Z 36014KT 300V040 7000 -RA BKN008 02/01 Q1002;",
"06066099999","2010-11-23T10:50:00","4","55.990122","8.353906","5.18","STAUNING, DA","FM-15","EKVJ ","V020","360,1,N,0072,1","00240,1,C,N","007000,1,N,1","+0020,1","+0010,1","99999,9","07,5,+00240,1,99,9",,,"07,99,1,99,9,99,9,99999,9,99,9,99,9","10020,1,99999,9",,,,,"MET059METAR EKVJ 231050Z 36014KT 300V060 7000 BKN008 02/01 Q1002;",
"06066099999","2010-11-23T11:50:00","4","55.990122","8.353906","5.18","STAUNING, DA","FM-15","EKVJ ","V020","360,1,N,0072,1","00240,1,C,N","006000,1,N,1","+0020,1","+0010,1","99999,9","07,5,+00240,1,99,9",,,"07,99,1,99,9,99,9,99999,9,99,9,99,9","10020,1,99999,9","61,1","71,1",,,"MET065METAR EKVJ 231150Z 36014KT 300V060 6000 -RASN BKN008 02/01 Q1002;",
"06066099999","2010-11-23T12:50:00","4","55.990122","8.353906","5.18","STAUNING, DA","FM-15","EKVJ ","V020","360,1,N,0072,1","00240,1,C,N","005000,1,N,1","+0010,1","+0000,1","99999,9","07,5,+00240,1,99,9",,,"07,99,1,99,9,99,9,99999,9,99,9,99,9","10020,1,99999,9","10,1","61,1","71,1",,"MET068METAR EKVJ 231250Z 36014KT 300V060 5000 BR -RASN BKN008 01/00 Q1002;",
"06066099999","2010-11-23T13:50:00","4","55.990122","8.353906","5.18","STAUNING, DA","FM-15","EKVJ ","V020","360,1,N,0072,1","00240,1,C,N","005000,1,N,1","+0010,1","+0000,1","99999,9","07,5,+00240,1,99,9",,,"07,99,1,99,9,99,9,99999,9,99,9,99,9","10020,1,99999,9","10,1","61,1","71,1",,"MET068METAR EKVJ 231350Z 36014KT 300V060 5000 BR -RASN BKN008 01/00 Q1002;",
"06066099999","2010-11-23T14:50:00","4","55.990122","8.353906","5.18","STAUNING, DA","FM-15","EKVJ ","V020","360,1,N,0072,1","00240,1,C,N","005000,1,N,1","+0010,1","+0000,1","99999,9","07,5,+00240,1,99,9",,,"07,99,1,99,9,99,9,99999,9,99,9,99,9","10020,1,99999,9","10,1",,,,"MET062METAR EKVJ 231450Z 36014KT 300V060 5000 BR BKN008 01/00 Q1002;",
"06066099999","2010-11-24T07:20:00","4","55.990122","8.353906","5.18","STAUNING, DA","FM-15","EKVJ ","V020","360,1,N,0051,1","00900,1,C,N","011265,1,N,1","+0000,1","-0010,1","99999,9","07,5,+00900,1,99,9",,,"07,99,1,99,9,99,9,99999,9,99,9,99,9","10051,1,99999,9",,,,,"MET060METAR EKVJ 240720Z 36010KT 320V050 9999 BKN030 00/M01 Q1005;",
"06066099999","2010-11-24T07:50:00","4","55.990122","8.353906","5.18","STAUNING, DA","FM-15","EKVJ ","V020","360,1,N,0051,1","00900,1,C,N","011265,1,N,1","+0000,1","-0010,1","99999,9","02,5,+00600,1,99,9","07,5,+00900,1,99,9",,"07,99,1,99,9,99,9,99999,9,99,9,99,9","10051,1,99999,9",,,,,"MET067METAR EKVJ 240750Z 36010KT 320V050 9999 FEW020 BKN030 00/M01 Q1005;",
"06066099999","2010-11-24T08:50:00","4","55.990122","8.353906","5.18","STAUNING, DA","FM-15","EKVJ ","V020","360,1,N,0041,1","00900,1,C,N","011265,1,N,1","+0000,1","-0010,1","99999,9","02,5,+00600,1,99,9","07,5,+00900,1,99,9",,"07,99,1,99,9,99,9,99999,9,99,9,99,9","10051,1,99999,9",,,,,"MET076METAR EKVJ 240850Z 36008KT 320V050 9999 FEW020 BKN030 00/M01 Q1005 27710195;",
"06066099999","2010-11-24T09:50:00","4","55.990122","8.353906","5.18","STAUNING, DA","FM-15","EKVJ ","V020","360,1,N,0041,1","00900,1,C,N","011265,1,N,1","+0000,1","-0010,1","99999,9","02,5,+00600,1,99,9","07,5,+00900,1,99,9",,"07,99,1,99,9,99,9,99999,9,99,9,99,9","10051,1,99999,9",,,,,"MET077METAR EKVJ 240950Z 36008KT 320V050 9999 FEW020 BKN030 M00/M01 Q1005 27710195;",
"06066099999","2010-11-24T10:50:00","4","55.990122","8.353906","5.18","STAUNING, DA","FM-15","EKVJ ","V020","360,1,N,0041,1","00900,1,C,N","011265,1,N,1","+0000,1","-0010,1","99999,9","02,5,+00600,1,99,9","07,5,+00900,1,99,9",,"07,99,1,99,9,99,9,99999,9,99,9,99,9","10051,1,99999,9",,,,,"MET077METAR EKVJ 241050Z 36008KT 320V050 9999 FEW020 BKN030 M00/M01 Q1005 27710195;",
"06066099999","2010-11-24T11:50:00","4","55.990122","8.353906","5.18","STAUNING, DA","FM-15","EKVJ ","V020","360,1,N,0041,1","00900,1,C,N","011265,1,N,1","+0000,1","-0010,1","99999,9","02,5,+00600,1,99,9","07,5,+00900,1,99,9",,"07,99,1,99,9,99,9,99999,9,99,9,99,9","10051,1,99999,9",,,,,"MET077METAR EKVJ 241150Z 36008KT 320V050 9999 FEW020 BKN030 M00/M01 Q1005 27710195;",
"06066099999","2010-11-24T12:50:00","4","55.990122","8.353906","5.18","STAUNING, DA","FM-15","EKVJ ","V020","360,1,N,0041,1","99999,9,C,N","011265,1,N,1","+0000,1","-0020,1","99999,9","02,5,+00600,1,99,9","04,5,+00900,1,99,9",,"04,99,1,99,9,99,9,99999,9,99,9,99,9","10051,1,99999,9",,,,,"MET076METAR EKVJ 241250Z 36008KT 320V050 9999 FEW020 SCT030 00/M02 Q1005 27710195;","P01 009003SCOCIG"
"06066099999","2010-11-24T13:50:00","4","55.990122","8.353906","5.18","STAUNING, DA","FM-15","EKVJ ","V020","360,1,N,0031,1","99999,9,C,N","011265,1,N,1","+0000,1","-0020,1","99999,9","02,5,+00600,1,99,9","04,5,+00900,1,99,9",,"04,99,1,99,9,99,9,99999,9,99,9,99,9","10051,1,99999,9",,,,,"MET076METAR EKVJ 241350Z 36006KT 320V050 9999 FEW020 SCT030 00/M02 Q1005 27710195;","P01 009003SCOCIG"
"06066099999","2010-11-24T14:50:00","4","55.990122","8.353906","5.18","STAUNING, DA","FM-15","EKVJ ","V020","999,9,C,0000,1","99999,9,C,N","011265,1,N,1","+0000,1","-0020,1","99999,9","02,5,+00600,1,99,9","04,5,+00900,1,99,9",,"04,99,1,99,9,99,9,99999,9,99,9,99,9","10051,1,99999,9",,,,,"MET068METAR EKVJ 241450Z 00000KT 9999 FEW020 SCT030 00/M02 Q1005 27710195;","P01 009003SCOCIG"
"06066099999","2010-11-25T07:20:00","4","55.990122","8.353906","5.18","STAUNING, DA","FM-15","EKVJ ","V020","020,1,N,0015,1","99999,9,9,Y","009900,1,N,1","-0030,1","-0040,1","99999,9",,,,,"10061,1,99999,9",,,,,"MET056METAR EKVJ 250720Z 02003KT CAVOK M03/M04 Q1006 09590295;",
"06066099999","2010-11-25T07:50:00","4","55.990122","8.353906","5.18","STAUNING, DA","FM-15","EKVJ ","V020","020,1,N,0015,1","99999,9,9,Y","009900,1,N,1","-0030,1","-0040,1","99999,9",,,,,"10061,1,99999,9",,,,,"MET056METAR EKVJ 250750Z 02003KT CAVOK M03/M04 Q1006 09590295;",
"06066099999","2010-11-25T08:50:00","4","55.990122","8.353906","5.18","STAUNING, DA","FM-15","EKVJ ","V020","020,1,N,0015,1","99999,9,9,Y","009900,1,N,1","-0030,1","-0040,1","99999,9",,,,,"10061,1,99999,9",,,,,"MET056METAR EKVJ 250850Z 02003KT CAVOK M03/M04 Q1006 09590295;",
"06066099999","2010-11-25T09:50:00","4","55.990122","8.353906","5.18","STAUNING, DA","FM-15","EKVJ ","V020","020,1,N,0015,1","99999,9,9,Y","009900,1,N,1","-0030,1","-0040,1","99999,9",,,,,"10061,1,99999,9",,,,,"MET056METAR EKVJ 250950Z 02003KT CAVOK M03/M04 Q1006 09590295;",
"06066099999","2010-11-25T10:50:00","4","55.990122","8.353906","5.18","STAUNING, DA","FM-15","EKVJ ","V020","030,1,N,0031,1","22000,1,9,N","011265,1,N,1","-0010,1","-0020,1","99999,9","02,5,+00300,1,99,9",,,"02,99,1,99,9,99,9,99999,9,99,9,99,9","10071,1,99999,9",,,,,"MET062METAR EKVJ 251050Z 03006KT 9999 FEW010 M01/M02 Q1007 09410195;",
"06066099999","2010-11-25T11:50:00","4","55.990122","8.353906","5.18","STAUNING, DA","FM-15","EKVJ ","V020","040,1,N,0041,1","22000,1,9,N","011265,1,N,1","-0010,1","-0020,1","99999,9","02,5,+00300,1,99,9",,,"02,99,1,99,9,99,9,99999,9,99,9,99,9","10071,1,99999,9",,,,,"MET062METAR EKVJ 251150Z 04008KT 9999 FEW010 M01/M02 Q1007 09410195;",
"06066099999","2010-11-25T12:50:00","4","55.990122","8.353906","5.18","STAUNING, DA","FM-15","EKVJ ","V020","040,1,N,0041,1","22000,1,9,N","011265,1,N,1","-0010,1","-0020,1","99999,9","02,5,+00300,1,99,9",,,"02,99,1,99,9,99,9,99999,9,99,9,99,9","10071,1,99999,9",,,,,"MET062METAR EKVJ 251250Z 04008KT 9999 FEW010 M01/M02 Q1007 09410195;",
"06066099999","2010-11-25T13:50:00","4","55.990122","8.353906","5.18","STAUNING, DA","FM-15","EKVJ ","V020","050,1,N,0041,1","22000,1,9,N","011265,1,N,1","-0010,1","-0020,1","99999,9","02,5,+00300,1,99,9",,,"02,99,1,99,9,99,9,99999,9,99,9,99,9","10071,1,99999,9",,,,,"MET062METAR EKVJ 251350Z 05008KT 9999 FEW010 M01/M02 Q1007 09410195;",
"06066099999","2010-11-25T14:50:00","4","55.990122","8.353906","5.18","STAUNING, DA","FM-15","EKVJ ","V020","020,1,N,0021,1","22000,1,9,N","011265,1,N,1","-0010,1","-0020,1","99999,9","02,5,+00300,1,99,9",,,"02,99,1,99,9,99,9,99999,9,99,9,99,9","10071,1,99999,9",,,,,"MET062METAR EKVJ 251450Z 02004KT 9999 FEW010 M01/M02 Q1007 09410195;",
"06066099999","2010-11-26T07:20:00","4","55.990122","8.353906","5.18","STAUNING, DA","FM-15","EKVJ ","V020","020,1,N,0015,1","99999,9,9,Y","009900,1,N,1","-0050,1","+9999,9","99999,9",,,,,"10081,1,99999,9",,,,,"MET056METAR EKVJ 260720Z 02003KT CAVOK M05/M04 Q1008 09710195;",
"06066099999","2010-11-26T07:50:00","4","55.990122","8.353906","5.18","STAUNING, DA","FM-15","EKVJ ","V020","020,1,N,0015,1","99999,9,9,Y","009900,1,N,1","-0050,1","+9999,9","99999,9",,,,,"10081,1,99999,9",,,,,"MET056METAR EKVJ 260750Z 02003KT CAVOK M05/M04 Q1008 09710195;",
"06066099999","2010-11-26T08:50:00","4","55.990122","8.353906","5.18","STAUNING, DA","FM-15","EKVJ ","V020","030,1,N,0015,1","99999,9,9,Y","009900,1,N,1","-0050,1","+9999,9","99999,9",,,,,"10081,1,99999,9",,,,,"MET056METAR EKVJ 260850Z 03003KT CAVOK M05/M04 Q1008 09710195;",
"06066099999","2010-11-26T09:50:00","4","55.990122","8.353906","5.18","STAUNING, DA","FM-15","EKVJ ","V020","030,1,N,0021,1","99999,9,9,Y","009900,1,N,1","-0040,1","+9999,9","99999,9",,,,,"10081,1,99999,9",,,,,"MET056METAR EKVJ 260950Z 03004KT CAVOK M04/M03 Q1008 09710195;",
"06066099999","2010-11-26T10:50:00","4","55.990122","8.353906","5.18","STAUNING, DA","FM-15","EKVJ ","V020","030,1,N,0031,1","99999,9,9,Y","009900,1,N,1","-0030,1","+9999,9","99999,9",,,,,"10081,1,99999,9",,,,,"MET056METAR EKVJ 261050Z 03006KT CAVOK M03/M02 Q1008 09710195;",
"06066099999","2010-11-26T11:50:00","4","55.990122","8.353906","5.18","STAUNING, DA","FM-15","EKVJ ","V020","060,1,N,0041,1","99999,9,9,Y","009900,1,N,1","-0030,1","+9999,9","99999,9",,,,,"10081,1,99999,9",,,,,"MET056METAR EKVJ 261150Z 06008KT CAVOK M03/M02 Q1008 09710195;",
"06066099999","2010-11-26T13:50:00","4","55.990122","8.353906","5.18","STAUNING, DA","FM-15","EKVJ ","V020","060,1,N,0051,1","22000,1,9,N","011265,1,N,1","-0030,1","+9999,9","99999,9","02,5,+00600,1,99,9",,,"02,99,1,99,9,99,9,99999,9,99,9,99,9","10081,1,99999,9",,,,,"MET070METAR EKVJ 261350Z 06010KT 360V100 9999 FEW020 M03/M02 Q1008 09710195;",
"06066099999","2010-11-26T14:50:00","4","55.990122","8.353906","5.18","STAUNING, DA","FM-15","EKVJ ","V020","030,1,N,0031,1","22000,1,9,N","011265,1,N,1","-0030,1","+9999,9","99999,9","02,5,+00600,1,99,9",,,"02,99,1,99,9,99,9,99999,9,99,9,99,9","10081,1,99999,9",,,,,"MET062METAR EKVJ 261450Z 03006KT 9999 FEW020 M03/M02 Q1008 09710195;",
"06066099999","2010-11-29T07:20:00","4","55.990122","8.353906","5.18","STAUNING, DA","FM-15","EKVJ ","V020","070,1,N,0072,1","00750,1,C,N","011265,1,N,1","-0010,1","-0020,1","99999,9","02,5,+00450,1,99,9","07,5,+00750,1,99,9",,"07,99,1,99,9,99,9,99999,9,99,9,99,9","10180,1,99999,9",,,,,"MET069METAR EKVJ 290720Z 07014KT 9999 FEW015 BKN025 M01/M02 Q1018 09490593;",
"06066099999","2010-11-29T08:50:00","4","55.990122","8.353906","5.18","STAUNING, DA","FM-15","EKVJ ","V020","060,1,N,0072,1","22000,1,9,N","011265,1,N,1","-0020,1","-0030,1","99999,9","02,5,+00600,1,99,9",,,"02,99,1,99,9,99,9,99999,9,99,9,99,9","10190,1,99999,9","36,1",,,,"MET075METAR EKVJ 290850Z 06014KT 030V100 9999 DRSN FEW020 M02/M03 Q1019 09490394;",
"06066099999","2010-11-29T09:20:00","4","55.990122","8.353906","5.18","STAUNING, DA","FM-15","EKVJ ","V020","060,1,N,0062,1","22000,1,9,N","005000,1,N,1","-0020,1","-0030,1","99999,9","02,5,+00600,1,99,9",,,"02,99,1,99,9,99,9,99999,9,99,9,99,9","10190,1,99999,9","36,1","71,1",,"0113,1","MET082METAR EKVJ 290920Z 06012G22KT 030V100 5000 -SN DRSN FEW020 M02/M03 Q1019 09490394;",
"06066099999","2010-11-29T09:50:00","4","55.990122","8.353906","5.18","STAUNING, DA","FM-15","EKVJ ","V020","060,1,N,0062,1","22000,1,9,N","003000,1,N,1","-0020,1","-0030,1","99999,9","02,5,+00600,1,99,9",,,"02,99,1,99,9,99,9,99999,9,99,9,99,9","10190,1,99999,9","36,1","71,1",,"0113,1","MET082METAR EKVJ 290950Z 06012G22KT 030V100 3000 -SN DRSN FEW020 M02/M03 Q1019 09490394;",
"06066099999","2010-11-29T10:50:00","4","55.990122","8.353906","5.18","STAUNING, DA","FM-15","EKVJ ","V020","060,1,N,0062,1","22000,1,9,N","003000,1,N,1","-0020,1","-0030,1","99999,9","02,5,+00600,1,99,9",,,"02,99,1,99,9,99,9,99999,9,99,9,99,9","10200,1,99999,9","36,1","71,1",,"0113,1","MET082METAR EKVJ 291050Z 06012G22KT 030V100 3000 -SN DRSN FEW020 M02/M03 Q1020 09490394;",
"06066099999","2010-11-29T11:50:00","4","55.990122","8.353906","5.18","STAUNING, DA","FM-15","EKVJ ","V020","080,1,N,0062,1","99999,9,C,N","011265,1,N,1","-0020,1","-0030,1","99999,9","04,5,+00600,1,99,9","04,5,+00900,1,99,9",,"04,99,1,99,9,99,9,99999,9,99,9,99,9","10200,1,99999,9","36,1","71,1",,"0113,1","MET089METAR EKVJ 291150Z 08012G22KT 040V110 9999 -SN DRSN SCT020 SCT030 M02/M03 Q1020 09490394;","P01 009003SCOCIG"
"06066099999","2010-11-29T12:50:00","4","55.990122","8.353906","5.18","STAUNING, DA","FM-15","EKVJ ","V020","080,1,N,0062,1","00900,1,C,N","011265,1,N,1","-0020,1","+9999,9","99999,9","07,5,+00900,1,99,9",,,"07,99,1,99,9,99,9,99999,9,99,9,99,9","10200,1,99999,9","36,1",,,"0113,1","MET078METAR EKVJ 291250Z 08012G22KT 040V110 9999 DRSN BKN030 M02/M00 Q1020 09490394;",
"06066099999","2010-11-29T13:50:00","4","55.990122","8.353906","5.18","STAUNING, DA","FM-15","EKVJ ","V020","080,1,N,0062,1","22000,1,9,N","011265,1,N,1","-0020,1","-0040,1","99999,9","02,5,+00900,1,99,9",,,"02,99,1,99,9,99,9,99999,9,99,9,99,9","10210,1,99999,9","36,1",,,"0113,1","MET078METAR EKVJ 291350Z 08012G22KT 040V110 9999 DRSN FEW030 M02/M04 Q1021 09490294;",
"06066099999","2010-11-29T14:50:00","4","55.990122","8.353906","5.18","STAUNING, DA","FM-15","EKVJ ","V020","080,1,N,0062,1","22000,1,9,N","011265,1,N,1","-0020,1","-0040,1","99999,9","02,5,+00900,1,99,9",,,"02,99,1,99,9,99,9,99999,9,99,9,99,9","10210,1,99999,9","36,1",,,"0113,1","MET078METAR EKVJ 291450Z 08012G22KT 030V110 9999 DRSN FEW030 M02/M04 Q1021 09490195;",
"06066099999","2010-11-30T07:20:00","4","55.990122","8.353906","5.18","STAUNING, DA","FM-15","EKVJ ","V020","050,1,N,0026,1","99999,9,9,Y","009900,1,N,1","-0060,1","-0080,1","99999,9",,,,,"10240,1,99999,9",,,,,"MET056METAR EKVJ 300720Z 05005KT CAVOK M06/M08 Q1024 09410395;",
"06066099999","2010-11-30T07:50:00","4","55.990122","8.353906","5.18","STAUNING, DA","FM-15","EKVJ ","V020","050,1,N,0026,1","99999,9,9,Y","009900,1,N,1","-0060,1","-0080,1","99999,9",,,,,"10240,1,99999,9",,,,,"MET056METAR EKVJ 300750Z 05005KT CAVOK M06/M08 Q1024 09410395;",
"06066099999","2010-11-30T08:50:00","4","55.990122","8.353906","5.18","STAUNING, DA","FM-15","EKVJ ","V020","050,1,N,0031,1","99999,9,9,Y","009900,1,N,1","-0060,1","-0080,1","99999,9",,,,,"10240,1,99999,9",,,,,"MET056METAR EKVJ 300850Z 05006KT CAVOK M06/M08 Q1024 09410395;",
"06066099999","2010-11-30T09:50:00","4","55.990122","8.353906","5.18","STAUNING, DA","FM-15","EKVJ ","V020","050,1,N,0031,1","99999,9,9,Y","009900,1,N,1","-0060,1","-0080,1","99999,9",,,,,"10240,1,99999,9",,,,,"MET056METAR EKVJ 300950Z 05006KT CAVOK M06/M08 Q1024 09410395;",
"06066099999","2010-11-30T10:50:00","4","55.990122","8.353906","5.18","STAUNING, DA","FM-15","EKVJ ","V020","050,1,N,0031,1","99999,9,9,Y","009900,1,N,1","-0050,1","-0070,1","99999,9",,,,,"10240,1,99999,9",,,,,"MET056METAR EKVJ 301050Z 05006KT CAVOK M05/M07 Q1024 09410395;",
"06066099999","2010-11-30T11:50:00","4","55.990122","8.353906","5.18","STAUNING, DA","FM-15","EKVJ ","V020","070,1,N,0041,1","99999,9,9,Y","009900,1,N,1","-0050,1","-0070,1","99999,9",,,,,"10240,1,99999,9",,,,,"MET056METAR EKVJ 301150Z 07008KT CAVOK M05/M07 Q1024 09410395;",
"06066099999","2010-11-30T13:50:00","4","55.990122","8.353906","5.18","STAUNING, DA","FM-15","EKVJ ","V020","050,1,N,0041,1","99999,9,9,Y","009900,1,N,1","-0050,1","-0070,1","99999,9",,,,,"10240,1,99999,9",,,,,"MET056METAR EKVJ 301350Z 05008KT CAVOK M05/M07 Q1024 09410395;",
"06066099999","2010-11-30T14:50:00","4","55.990122","8.353906","5.18","STAUNING, DA","FM-15","EKVJ ","V020","050,1,N,0041,1","99999,9,9,Y","009900,1,N,1","-0060,1","-0080,1","99999,9",,,,,"10240,1,99999,9",,,,,"MET047METAR EKVJ 301450Z 05008KT CAVOK M06/M08 Q1024;",
"06066099999","2010-12-01T07:20:00","4","55.990122","8.353906","5.18","STAUNING, DA","FM-15","EKVJ ","V020","060,1,N,0041,1","99999,9,9,Y","009900,1,N,1","-0060,1","-0070,1","99999,9",,,,,"10240,1,99999,9",,,,,"MET047METAR EKVJ 010720Z 06008KT CAVOK M06/M07 Q1024;",
"06066099999","2010-12-01T07:50:00","4","55.990122","8.353906","5.18","STAUNING, DA","FM-15","EKVJ ","V020","060,1,N,0041,1","99999,9,9,Y","009900,1,N,1","-0060,1","-0070,1","99999,9",,,,,"10240,1,99999,9",,,,,"MET047METAR EKVJ 010750Z 06008KT CAVOK M06/M07 Q1024;",
"06066099999","2010-12-01T08:50:00","4","55.990122","8.353906","5.18","STAUNING, DA","FM-15","EKVJ ","V020","060,1,N,0062,1","99999,9,9,Y","009900,1,N,1","-0060,1","-0070,1","99999,9",,,,,"10240,1,99999,9",,,,,"MET047METAR EKVJ 010850Z 06012KT CAVOK M06/M07 Q1024;",
"06066099999","2010-12-01T09:50:00","4","55.990122","8.353906","5.18","STAUNING, DA","FM-15","EKVJ ","V020","060,1,N,0051,1","99999,9,9,Y","009900,1,N,1","-0050,1","-0060,1","99999,9",,,,,"10240,1,99999,9",,,,,"MET047METAR EKVJ 010950Z 06010KT CAVOK M05/M06 Q1024;",
"06066099999","2010-12-01T10:50:00","4","55.990122","8.353906","5.18","STAUNING, DA","FM-15","EKVJ ","V020","070,1,N,0062,1","99999,9,9,Y","009900,1,N,1","-0050,1","-0060,1","99999,9",,,,,"10240,1,99999,9",,,,,"MET047METAR EKVJ 011050Z 07012KT CAVOK M05/M06 Q1024;",
"06066099999","2010-12-01T11:50:00","4","55.990122","8.353906","5.18","STAUNING, DA","FM-15","EKVJ ","V020","070,1,N,0051,1","22000,1,9,N","011265,1,N,1","-0040,1","-0060,1","99999,9","02,5,+00750,1,99,9",,,"02,99,1,99,9,99,9,99999,9,99,9,99,9","10230,1,99999,9",,,,,"MET053METAR EKVJ 011150Z 07010KT 9999 FEW025 M04/M06 Q1023;",
"06066099999","2010-12-01T12:50:00","4","55.990122","8.353906","5.18","STAUNING, DA","FM-15","EKVJ ","V020","070,1,N,0051,1","22000,1,9,N","011265,1,N,1","-0040,1","-0060,1","99999,9","02,5,+00750,1,99,9",,,"02,99,1,99,9,99,9,99999,9,99,9,99,9","10220,1,99999,9",,,,,"MET053METAR EKVJ 011250Z 07010KT 9999 FEW025 M04/M06 Q1022;",
"06066099999","2010-12-01T13:50:00","4","55.990122","8.353906","5.18","STAUNING, DA","FM-15","EKVJ ","V020","070,1,N,0062,1","22000,1,9,N","011265,1,N,1","-0040,1","-0060,1","99999,9","02,5,+00750,1,99,9",,,"02,99,1,99,9,99,9,99999,9,99,9,99,9","10220,1,99999,9",,,,,"MET053METAR EKVJ 011350Z 07012KT 9999 FEW025 M04/M06 Q1022;",
"06066099999","2010-12-01T14:50:00","4","55.990122","8.353906","5.18","STAUNING, DA","FM-15","EKVJ ","V020","070,1,N,0062,1","22000,1,9,N","011265,1,N,1","-0030,1","+9999,9","99999,9","02,5,+00750,1,99,9",,,"02,99,1,99,9,99,9,99999,9,99,9,99,9","10210,1,99999,9",,,,,"MET053METAR EKVJ 011450Z 07012KT 9999 FEW025 M03/M01 Q1021;",
"06066099999","2010-12-02T07:20:00","4","55.990122","8.353906","5.18","STAUNING, DA","FM-15","EKVJ ","V020","060,1,N,0051,1","22000,1,9,N","011265,1,N,1","-0030,1","+9999,9","99999,9","02,5,+00750,1,99,9",,,"02,99,1,99,9,99,9,99999,9,99,9,99,9","10169,1,99999,9",,,,,"MET062METAR EKVJ 020720Z 06010KT 9999 FEW025 M03/M02 Q1017 09430294;",
"06066099999","2010-12-02T07:50:00","4","55.990122","8.353906","5.18","STAUNING, DA","FM-15","EKVJ ","V020","060,1,N,0051,1","22000,1,9,N","011265,1,N,1","-0030,1","+9999,9","99999,9","02,5,+00750,1,99,9",,,"02,99,1,99,9,99,9,99999,9,99,9,99,9","10169,1,99999,9",,,,,"MET062METAR EKVJ 020750Z 06010KT 9999 FEW025 M03/M02 Q1017 09431093;",
"06066099999","2010-12-02T08:50:00","4","55.990122","8.353906","5.18","STAUNING, DA","FM-15","EKVJ ","V020","060,1,N,0051,1","06000,1,C,N","011265,1,N,1","-0050,1","-0060,1","99999,9","02,5,+00750,1,99,9","07,5,+06000,1,99,9",,"07,99,1,99,9,99,9,99999,9,99,9,99,9","10169,1,99999,9",,,,,"MET069METAR EKVJ 020850Z 06010KT 9999 FEW025 BKN200 M05/M06 Q1017 09431093;",
"06066099999","2010-12-02T09:50:00","4","55.990122","8.353906","5.18","STAUNING, DA","FM-15","EKVJ ","V020","060,1,N,0051,1","99999,9,9,Y","009900,1,N,1","-0040,1","-0050,1","99999,9",,,,,"10169,1,99999,9",,,,,"MET056METAR EKVJ 020950Z 06010KT CAVOK M04/M05 Q1017 09431093;",
"06066099999","2010-12-02T10:50:00","4","55.990122","8.353906","5.18","STAUNING, DA","FM-15","EKVJ ","V020","050,1,N,0041,1","99999,9,9,Y","009900,1,N,1","-0040,1","-0050,1","99999,9",,,,,"10159,1,99999,9",,,,,"MET056METAR EKVJ 021050Z 05008KT CAVOK M04/M05 Q1016 09431093;",
"06066099999","2010-12-02T11:50:00","4","55.990122","8.353906","5.18","STAUNING, DA","FM-15","EKVJ ","V020","050,1,N,0041,1","99999,9,9,Y","009900,1,N,1","-0040,1","-0050,1","99999,9",,,,,"10159,1,99999,9",,,,,"MET056METAR EKVJ 021150Z 05008KT CAVOK M04/M05 Q1016 09431093;",
"06066099999","2010-12-02T12:50:00","4","55.990122","8.353906","5.18","STAUNING, DA","FM-15","EKVJ ","V020","050,1,N,0041,1","99999,9,9,Y","009900,1,N,1","-0040,1","-0050,1","99999,9",,,,,"10149,1,99999,9",,,,,"MET056METAR EKVJ 021250Z 05008KT CAVOK M04/M05 Q1015 09430494;",
"06066099999","2010-12-02T13:50:00","4","55.990122","8.353906","5.18","STAUNING, DA","FM-15","EKVJ ","V020","040,1,N,0041,1","99999,9,9,Y","009900,1,N,1","-0030,1","-0040,1","99999,9",,,,,"10139,1,99999,9",,,,,"MET056METAR EKVJ 021350Z 04008KT CAVOK M03/M04 Q1014 09430494;",
"06066099999","2010-12-02T14:50:00","4","55.990122","8.353906","5.18","STAUNING, DA","FM-15","EKVJ ","V020","030,1,N,0041,1","99999,9,9,Y","009900,1,N,1","-0030,1","-0040,1","99999,9",,,,,"10139,1,99999,9",,,,,"MET056METAR EKVJ 021450Z 03008KT CAVOK M03/M04 Q1014 09430494;",
"06066099999","2010-12-03T07:20:00","4","55.990122","8.353906","5.18","STAUNING, DA","FM-15","EKVJ ","V020","999,9,C,0000,1","22000,1,9,N","011265,1,N,1","-0050,1","-0060,1","99999,9","04,5,+00900,1,99,9",,,"04,99,1,99,9,99,9,99999,9,99,9,99,9","10071,1,99999,9",,,,,"MET062METAR EKVJ 030720Z 00000KT 9999 SCT030 M05/M06 Q1007 27410195;",
"06066099999","2010-12-03T07:50:00","4","55.990122","8.353906","5.18","STAUNING, DA","FM-15","EKVJ ","V020","999,9,C,0000,1","22000,1,9,N","011265,1,N,1","-0050,1","-0060,1","99999,9","04,5,+00900,1,99,9",,,"04,99,1,99,9,99,9,99999,9,99,9,99,9","10071,1,99999,9",,,,,"MET062METAR EKVJ 030750Z 00000KT 9999 SCT030 M05/M06 Q1007 27410195;",
"06066099999","2010-12-03T08:50:00","4","55.990122","8.353906","5.18","STAUNING, DA","FM-15","EKVJ ","V020","999,9,C,0000,1","22000,1,9,N","011265,1,N,1","-0050,1","-0060,1","99999,9","02,5,+00900,1,99,9",,,"02,99,1,99,9,99,9,99999,9,99,9,99,9","10071,1,99999,9",,,,,"MET062METAR EKVJ 030850Z 00000KT 9999 FEW030 M05/M06 Q1007 27410195;",
"06066099999","2010-12-03T09:50:00","4","55.990122","8.353906","5.18","STAUNING, DA","FM-15","EKVJ ","V020","999,9,C,0000,1","22000,1,9,N","011265,1,N,1","-0050,1","-0060,1","99999,9","02,5,+00900,1,99,9",,,"02,99,1,99,9,99,9,99999,9,99,9,99,9","10071,1,99999,9",,,,,"MET062METAR EKVJ 030950Z 00000KT 9999 FEW030 M05/M06 Q1007 27410195;",
"06066099999","2010-12-03T10:50:00","4","55.990122","8.353906","5.18","STAUNING, DA","FM-15","EKVJ ","V020","999,9,C,0000,1","22000,1,9,N","011265,1,N,1","-0050,1","-0060,1","99999,9","02,5,+00900,1,99,9",,,"02,99,1,99,9,99,9,99999,9,99,9,99,9","10071,1,99999,9",,,,,"MET062METAR EKVJ 031050Z 00000KT 9999 FEW030 M05/M06 Q1007 27410195;",
"06066099999","2010-12-03T12:50:00","4","55.990122","8.353906","5.18","STAUNING, DA","FM-15","EKVJ ","V020","999,9,C,0000,1","99999,9,9,Y","009900,1,N,1","-0040,1","-0050,1","99999,9",,,,,"10061,1,99999,9",,,,,"MET056METAR EKVJ 031250Z 00000KT CAVOK M04/M05 Q1006 27410195;",
"06066099999","2010-12-03T13:50:00","4","55.990122","8.353906","5.18","STAUNING, DA","FM-15","EKVJ ","V020","999,9,C,0000,1","99999,9,9,Y","009900,1,N,1","-0040,1","-0050,1","99999,9",,,,,"10061,1,99999,9",,,,,"MET056METAR EKVJ 031350Z 00000KT CAVOK M04/M05 Q1006 27410195;",
"06066099999","2010-12-03T14:50:00","4","55.990122","8.353906","5.18","STAUNING, DA","FM-15","EKVJ ","V020","999,9,C,0000,1","99999,9,9,Y","009900,1,N,1","-0040,1","-0050,1","99999,9",,,,,"10061,1,99999,9",,,,,"MET056METAR EKVJ 031450Z 00000KT CAVOK M04/M05 Q1006 27410195;",
"06066099999","2010-12-06T07:20:00","4","55.990122","8.353906","5.18","STAUNING, DA","FM-15","EKVJ ","V020","250,1,N,0031,1","22000,1,9,N","011265,1,N,1","-0020,1","-0030,1","99999,9","02,5,+00900,1,99,9",,,"02,99,1,99,9,99,9,99999,9,99,9,99,9","09980,1,99999,9",,,,,"MET062METAR EKVJ 060720Z 25006KT 9999 FEW030 M02/M03 Q0998 27491095;",
"06066099999","2010-12-06T07:50:00","4","55.990122","8.353906","5.18","STAUNING, DA","FM-15","EKVJ ","V020","250,1,N,0031,1","22000,1,9,N","011265,1,N,1","-0020,1","-0030,1","99999,9","02,5,+00900,1,99,9",,,"02,99,1,99,9,99,9,99999,9,99,9,99,9","09980,1,99999,9",,,,,"MET062METAR EKVJ 060750Z 25006KT 9999 FEW030 M02/M03 Q0998 27491095;",
"06066099999","2010-12-06T10:20:00","4","55.990122","8.353906","5.18","STAUNING, DA","FM-15","EKVJ ","V020","230,1,N,0031,1","22000,1,9,N","011265,1,N,1","-0010,1","-0020,1","99999,9","02,5,+00900,1,99,9",,,"02,99,1,99,9,99,9,99999,9,99,9,99,9","09990,1,99999,9",,,,,"MET062METAR EKVJ 061020Z 23006KT 9999 FEW030 M01/M02 Q0999 27790293;",
"06066099999","2010-12-06T10:50:00","4","55.990122","8.353906","5.18","STAUNING, DA","FM-15","EKVJ ","V020","230,1,N,0031,1","22000,1,9,N","011265,1,N,1","-0010,1","-0020,1","99999,9","02,5,+00900,1,99,9",,,"02,99,1,99,9,99,9,99999,9,99,9,99,9","09990,1,99999,9",,,,,"MET062METAR EKVJ 061050Z 23006KT 9999 FEW030 M01/M02 Q0999 27790293;",
"06066099999","2010-12-06T11:50:00","4","55.990122","8.353906","5.18","STAUNING, DA","FM-15","EKVJ ","V020","230,1,N,0031,1","99999,9,9,Y","009900,1,N,1","+0010,1","+0000,1","99999,9",,,,,"09990,1,99999,9",,,,,"MET054METAR EKVJ 061150Z 23006KT CAVOK 01/00 Q0999 27790293;",
"06066099999","2010-12-06T13:50:00","4","55.990122","8.353906","5.18","STAUNING, DA","FM-15","EKVJ ","V020","230,1,N,0031,1","22000,1,9,N","011265,1,N,1","+0010,1","+0000,1","99999,9","02,5,+01080,1,99,9",,,"02,99,1,99,9,99,9,99999,9,99,9,99,9","09980,1,99999,9",,,,,"MET060METAR EKVJ 061350Z 23006KT 9999 FEW036 01/00 Q0998 27790293;",
"06066099999","2010-12-07T07:20:00","4","55.990122","8.353906","5.18","STAUNING, DA","FM-15","EKVJ ","V020","999,9,C,0000,1","22000,1,9,N","011265,1,N,1","-0010,1","-0020,1","99999,9","02,5,+00600,1,99,9",,,"02,99,1,99,9,99,9,99999,9,99,9,99,9","10041,1,99999,9",,,,,"MET062METAR EKVJ 070720Z 00000KT 9999 FEW020 M01/M02 Q1004 27790399;",
"06066099999","2010-12-07T07:50:00","4","55.990122","8.353906","5.18","STAUNING, DA","FM-15","EKVJ ","V020","999,9,C,0000,1","22000,1,9,N","011265,1,N,1","-0010,1","-0020,1","99999,9","02,5,+00600,1,99,9",,,"02,99,1,99,9,99,9,99999,9,99,9,99,9","10041,1,99999,9","12,1",,,,"MET067METAR EKVJ 070750Z 00000KT 9999 MIFG FEW020 M01/M02 Q1004 27790399;",
"06066099999","2010-12-07T08:50:00","4","55.990122","8.353906","5.18","STAUNING, DA","FM-15","EKVJ ","V020","999,9,C,0000,1","22000,1,9,N","011265,1,N,1","-0010,1","-0020,1","99999,9","02,5,+00600,1,99,9",,,"02,99,1,99,9,99,9,99999,9,99,9,99,9","10051,1,99999,9","12,1",,,,"MET067METAR EKVJ 070850Z 00000KT 9999 MIFG FEW020 M01/M02 Q1005 27790399;",
"06066099999","2010-12-07T09:50:00","4","55.990122","8.353906","5.18","STAUNING, DA","FM-15","EKVJ ","V020","999,9,C,0000,1","22000,1,9,N","011265,1,N,1","+0000,1","-0010,1","99999,9","02,5,+00600,1,99,9",,,"02,99,1,99,9,99,9,99999,9,99,9,99,9","10051,1,99999,9","12,1",,,,"MET066METAR EKVJ 070950Z 00000KT 9999 MIFG FEW020 00/M01 Q1005 27790399;",
"06066099999","2010-12-07T10:50:00","4","55.990122","8.353906","5.18","STAUNING, DA","FM-15","EKVJ ","V020","999,9,C,0000,1","22000,1,9,N","011265,1,N,1","+0020,1","+0010,1","99999,9","04,5,+00750,1,99,9",,,"04,99,1,99,9,99,9,99999,9,99,9,99,9","10051,1,99999,9",,,,,"MET060METAR EKVJ 071050Z 00000KT 9999 SCT025 02/01 Q1005 27790399;",
"06066099999","2010-12-07T11:50:00","4","55.990122","8.353906","5.18","STAUNING, DA","FM-15","EKVJ ","V020","999,9,C,0000,1","22000,1,9,N","011265,1,N,1","+0030,1","+0020,1","99999,9","02,5,+00900,1,99,9",,,"02,99,1,99,9,99,9,99999,9,99,9,99,9","10061,1,99999,9",,,,,"MET060METAR EKVJ 071150Z 00000KT 9999 FEW030 03/02 Q1006 27790399;",
"06066099999","2010-12-07T12:50:00","4","55.990122","8.353906","5.18","STAUNING, DA","FM-15","EKVJ ","V020","999,9,C,0000,1","22000,1,9,N","011265,1,N,1","+0020,1","+0010,1","99999,9","02,5,+00900,1,99,9",,,"02,99,1,99,9,99,9,99999,9,99,9,99,9","10061,1,99999,9",,,,,"MET060METAR EKVJ 071250Z 00000KT 9999 FEW030 02/01 Q1006 27790399;",
"06066099999","2010-12-07T13:50:00","4","55.990122","8.353906","5.18","STAUNING, DA","FM-15","EKVJ ","V020","999,9,C,0000,1","22000,1,9,N","011265,1,N,1","+0020,1","+0010,1","99999,9","02,5,+00900,1,99,9",,,"02,99,1,99,9,99,9,99999,9,99,9,99,9","10061,1,99999,9",,,,,"MET060METAR EKVJ 071350Z 00000KT 9999 FEW030 02/01 Q1006 27790399;",
"06066099999","2010-12-07T14:50:00","4","55.990122","8.353906","5.18","STAUNING, DA","FM-15","EKVJ ","V020","999,9,C,0000,1","22000,1,9,N","011265,1,N,1","+0000,1","-0010,1","99999,9","02,5,+00900,1,99,9",,,"02,99,1,99,9,99,9,99999,9,99,9,99,9","10061,1,99999,9",,,,,"MET061METAR EKVJ 071450Z 00000KT 9999 FEW030 00/M01 Q1006 27790399;",
"06066099999","2010-12-07T15:20:00","4","55.990122","8.353906","5.18","STAUNING, DA","FM-15","EKVJ ","V020","999,9,C,0000,1","22000,1,9,N","011265,1,N,1","+0000,1","-0010,1","99999,9","02,5,+00900,1,99,9",,,"02,99,1,99,9,99,9,99999,9,99,9,99,9","10061,1,99999,9","12,1",,,,"MET066METAR EKVJ 071520Z 00000KT 9999 MIFG FEW030 00/M01 Q1006 27790399;",
"06066099999","2010-12-07T15:50:00","4","55.990122","8.353906","5.18","STAUNING, DA","FM-15","EKVJ ","V020","999,9,C,0000,1","22000,1,9,N","011265,1,N,1","-0010,1","-0020,1","99999,9","02,5,+00900,1,99,9",,,"02,99,1,99,9,99,9,99999,9,99,9,99,9","10071,1,99999,9","12,1",,,,"MET067METAR EKVJ 071550Z 00000KT 9999 MIFG FEW030 M01/M02 Q1007 27790399;",
"06066099999","2010-12-07T16:50:00","4","55.990122","8.353906","5.18","STAUNING, DA","FM-15","EKVJ ","V020","999,9,C,0000,1","22000,1,9,N","011265,1,N,1","-0030,1","-0040,1","99999,9","02,5,+00900,1,99,9",,,"02,99,1,99,9,99,9,99999,9,99,9,99,9","10071,1,99999,9","12,1",,,,"MET067METAR EKVJ 071650Z 00000KT 9999 MIFG FEW030 M03/M04 Q1007 27790399;",
"06066099999","2010-12-07T17:50:00","4","55.990122","8.353906","5.18","STAUNING, DA","FM-15","EKVJ ","V020","999,9,C,0000,1","22000,1,9,N","011265,1,N,1","-0040,1","-0050,1","99999,9","02,5,+00900,1,99,9",,,"02,99,1,99,9,99,9,99999,9,99,9,99,9","10081,1,99999,9",,,,,"MET062METAR EKVJ 071750Z 00000KT 9999 FEW030 M04/M05 Q1008 27790399;",
"06066099999","2010-12-07T18:50:00","4","55.990122","8.353906","5.18","STAUNING, DA","FM-15","EKVJ ","V020","999,9,C,0000,1","22000,1,9,N","008000,1,N,1","-0040,1","-0050,1","99999,9","02,5,+00900,1,99,9",,,"02,99,1,99,9,99,9,99999,9,99,9,99,9","10081,1,99999,9",,,,,"MET062METAR EKVJ 071850Z 00000KT 8000 FEW030 M04/M05 Q1008 27790399;",
"06066099999","2010-12-07T19:50:00","4","55.990122","8.353906","5.18","STAUNING, DA","FM-15","EKVJ ","V020","999,9,C,0000,1","22000,1,9,N","003000,1,N,1","-0060,1","-0070,1","99999,9","02,5,+00900,1,99,9",,,"02,99,1,99,9,99,9,99999,9,99,9,99,9","10081,1,99999,9","12,1",,,,"MET067METAR EKVJ 071950Z 00000KT 3000 MIFG FEW030 M06/M07 Q1008 27790399;",
"06066099999","2010-12-07T20:20:00","4","55.990122","8.353906","5.18","STAUNING, DA","FM-15","EKVJ ","V020","999,9,C,0000,1","22000,1,9,N","002000,1,N,1","-0060,1","-0070,1","99999,9","02,5,+00900,1,99,9",,,"02,99,1,99,9,99,9,99999,9,99,9,99,9","10081,1,99999,9","12,1",,,,"MET067METAR EKVJ 072020Z 00000KT 2000 MIFG FEW030 M06/M07 Q1008 27790399;",
"06066099999","2010-12-07T20:50:00","4","55.990122","8.353906","5.18","STAUNING, DA","FM-15","EKVJ ","V020","999,9,C,0000,1","00060,1,9,N","001000,1,N,1","-0060,1","-0070,1","99999,9","09,1,+00060,1,99,9",,,"09,99,1,99,9,99,9,00025,1,99,9,99,9","10081,1,99999,9","45,1",,,,"MET064METAR EKVJ 072050Z 00000KT 1000 FG VV002 M06/M07 Q1008 27790399;",
"06066099999","2010-12-07T21:20:00","4","55.990122","8.353906","5.18","STAUNING, DA","FM-15","EKVJ ","V020","999,9,C,0000,1","00060,1,9,N","001500,1,N,1","-0050,1","-0060,1","99999,9","09,1,+00060,1,99,9",,,"09,99,1,99,9,99,9,00025,1,99,9,99,9","10081,1,99999,9","45,1",,,,"MET064METAR EKVJ 072120Z 00000KT 1500 FG VV002 M05/M06 Q1008 27790399;",
"06066099999","2010-12-08T07:20:00","4","55.990122","8.353906","5.18","STAUNING, DA","FM-15","EKVJ ","V020","200,1,N,0015,1","00060,1,9,N","001000,1,N,1","-0030,1","-0040,1","99999,9","09,1,+00060,1,99,9",,,"09,99,1,99,9,99,9,00025,1,99,9,99,9","10102,1,99999,9","45,1",,,,"MET064METAR EKVJ 080720Z 20003KT 1000 FG VV002 M03/M04 Q1010 27790399;",
"06066099999","2010-12-08T07:50:00","4","55.990122","8.353906","5.18","STAUNING, DA","FM-15","EKVJ ","V020","200,1,N,0015,1","00060,1,9,N","001000,1,N,1","-0030,1","-0040,1","99999,9","09,1,+00060,1,99,9",,,"09,99,1,99,9,99,9,00025,1,99,9,99,9","10102,1,99999,9","45,1",,,,"MET064METAR EKVJ 080750Z 20003KT 1000 FG VV002 M03/M04 Q1010 27790399;",
"06066099999","2010-12-08T08:50:00","4","55.990122","8.353906","5.18","STAUNING, DA","FM-15","EKVJ ","V020","200,1,N,0015,1","00090,1,C,N","002500,1,N,1","-0030,1","-0040,1","99999,9","07,5,+00090,1,99,9",,,"07,99,1,99,9,99,9,99999,9,99,9,99,9","10102,1,99999,9","10,1",,,,"MET065METAR EKVJ 080850Z 20003KT 2500 BR BKN003 M03/M04 Q1010 27790399;",
"06066099999","2010-12-08T09:50:00","4","55.990122","8.353906","5.18","STAUNING, DA","FM-15","EKVJ ","V020","200,1,N,0015,1","00090,1,C,N","002500,1,N,1","-0030,1","-0040,1","99999,9","07,5,+00090,1,99,9",,,"07,99,1,99,9,99,9,99999,9,99,9,99,9","10102,1,99999,9","10,1",,,,"MET065METAR EKVJ 080950Z 20003KT 2500 BR BKN003 M03/M04 Q1010 27790399;",
"06066099999","2010-12-08T10:50:00","4","55.990122","8.353906","5.18","STAUNING, DA","FM-15","EKVJ ","V020","200,1,N,0015,1","00090,1,C,N","003500,1,N,1","-0030,1","-0040,1","99999,9","07,5,+00090,1,99,9",,,"07,99,1,99,9,99,9,99999,9,99,9,99,9","10102,1,99999,9","10,1",,,,"MET065METAR EKVJ 081050Z 20003KT 3500 BR BKN003 M03/M04 Q1010 27790399;",
"06066099999","2010-12-08T11:50:00","4","55.990122","8.353906","5.18","STAUNING, DA","FM-15","EKVJ ","V020","190,1,N,0015,1","00090,1,C,N","004500,1,N,1","-0040,1","-0050,1","99999,9","07,5,+00090,1,99,9",,,"07,99,1,99,9,99,9,99999,9,99,9,99,9","10102,1,99999,9","10,1",,,,"MET065METAR EKVJ 081150Z 19003KT 4500 BR BKN003 M04/M05 Q1010 27790399;",
"06066099999","2010-12-08T12:50:00","4","55.990122","8.353906","5.18","STAUNING, DA","FM-15","EKVJ ","V020","190,1,N,0015,1","00090,1,C,N","004000,1,N,1","-0040,1","-0050,1","99999,9","07,5,+00090,1,99,9",,,"07,99,1,99,9,99,9,99999,9,99,9,99,9","10091,1,99999,9","10,1",,,,"MET065METAR EKVJ 081250Z 19003KT 4000 BR BKN003 M04/M05 Q1009 27790399;",
"06066099999","2010-12-08T13:50:00","4","55.990122","8.353906","5.18","STAUNING, DA","FM-15","EKVJ ","V020","190,1,N,0015,1","00090,1,C,N","002000,1,N,1","-0040,1","-0050,1","99999,9","07,5,+00090,1,99,9",,,"07,99,1,99,9,99,9,99999,9,99,9,99,9","10091,1,99999,9","10,1",,,,"MET065METAR EKVJ 081350Z 19003KT 2000 BR BKN003 M04/M05 Q1009 27790399;",
"06066099999","2010-12-08T14:50:00","4","55.990122","8.353906","5.18","STAUNING, DA","FM-15","EKVJ ","V020","190,1,N,0015,1","00060,1,C,N","001500,1,N,1","-0040,1","-0050,1","99999,9","07,5,+00060,1,99,9",,,"07,99,1,99,9,99,9,99999,9,99,9,99,9","10081,1,99999,9","10,1",,,,"MET065METAR EKVJ 081450Z 19003KT 1500 BR BKN002 M04/M05 Q1008 27790399;",
"06066099999","2010-12-08T15:20:00","4","55.990122","8.353906","5.18","STAUNING, DA","FM-15","EKVJ ","V020","180,1,N,0015,1","00060,1,C,N","002000,1,N,1","-0040,1","-0050,1","99999,9","07,5,+00060,1,99,9",,,"07,99,1,99,9,99,9,99999,9,99,9,99,9","10081,1,99999,9","10,1",,,,"MET065METAR EKVJ 081520Z 18003KT 2000 BR BKN002 M04/M05 Q1008 27790399;",
"06066099999","2010-12-09T07:20:00","4","55.990122","8.353906","5.18","STAUNING, DA","FM-15","EKVJ ","V020","330,1,N,0015,1","22000,1,9,N","011265,1,N,1","-0010,1","-0020,1","99999,9","02,5,+00600,1,99,9",,,"02,99,1,99,9,99,9,99999,9,99,9,99,9","10091,1,99999,9",,,,,"MET062METAR EKVJ 090720Z 33003KT 9999 FEW020 M01/M02 Q1009 27790399;",
"06066099999","2010-12-09T07:50:00","4","55.990122","8.353906","5.18","STAUNING, DA","FM-15","EKVJ ","V020","330,1,N,0015,1","22000,1,9,N","011265,1,N,1","-0010,1","-0020,1","99999,9","02,5,+00600,1,99,9",,,"02,99,1,99,9,99,9,99999,9,99,9,99,9","10091,1,99999,9",,,,,"MET062METAR EKVJ 090750Z 33003KT 9999 FEW020 M01/M02 Q1009 27790399;",
"06066099999","2010-12-09T08:50:00","4","55.990122","8.353906","5.18","STAUNING, DA","FM-15","EKVJ ","V020","330,1,N,0015,1","22000,1,9,N","011265,1,N,1","-0010,1","-0020,1","99999,9","02,5,+00750,1,99,9",,,"02,99,1,99,9,99,9,99999,9,99,9,99,9","10108,1,99999,9",,,,,"MET062METAR EKVJ 090850Z 33003KT 9999 FEW025 M01/M02 Q1011 27790399;",
"06066099999","2010-12-09T09:50:00","4","55.990122","8.353906","5.18","STAUNING, DA","FM-15","EKVJ ","V020","340,1,N,0015,1","22000,1,9,N","011265,1,N,1","-0010,1","-0020,1","99999,9","02,5,+00750,1,99,9",,,"02,99,1,99,9,99,9,99999,9,99,9,99,9","10108,1,99999,9",,,,,"MET062METAR EKVJ 090950Z 34003KT 9999 FEW025 M01/M02 Q1011 27790399;",
"06066099999","2010-12-09T10:50:00","4","55.990122","8.353906","5.18","STAUNING, DA","FM-15","EKVJ ","V020","330,1,N,0015,1","99999,9,9,Y","009900,1,N,1","+0010,1","+0000,1","99999,9",,,,,"10119,1,99999,9",,,,,"MET055METAR EKVJ 091050Z 33003KT CAVOK 01/M00 Q1012 27790399;",
"06066099999","2010-12-09T11:50:00","4","55.990122","8.353906","5.18","STAUNING, DA","FM-15","EKVJ ","V020","320,1,N,0041,1","99999,9,9,Y","009900,1,N,1","+0010,1","-0010,1","99999,9",,,,,"10119,1,99999,9",,,,,"MET055METAR EKVJ 091150Z 32008KT CAVOK 01/M01 Q1012 27790399;",
"06066099999","2010-12-09T12:50:00","4","55.990122","8.353906","5.18","STAUNING, DA","FM-15","EKVJ ","V020","320,1,N,0051,1","99999,9,9,Y","009900,1,N,1","+0030,1","+0010,1","99999,9",,,,,"10119,1,99999,9",,,,,"MET054METAR EKVJ 091250Z 32010KT CAVOK 03/01 Q1012 27790399;",
"06066099999","2010-12-09T13:50:00","4","55.990122","8.353906","5.18","STAUNING, DA","FM-15","EKVJ ","V020","320,1,N,0051,1","22000,1,9,N","011265,1,N,1","+0020,1","+0000,1","99999,9","02,5,+00900,1,99,9",,,"02,99,1,99,9,99,9,99999,9,99,9,99,9","10129,1,99999,9",,,,,"MET061METAR EKVJ 091350Z 32010KT 9999 FEW030 02/M00 Q1013 27790399;",
"06066099999","2010-12-09T14:50:00","4","55.990122","8.353906","5.18","STAUNING, DA","FM-15","EKVJ ","V020","320,1,N,0051,1","22000,1,9,N","011265,1,N,1","+0020,1","+0000,1","99999,9","02,5,+00900,1,99,9",,,"02,99,1,99,9,99,9,99999,9,99,9,99,9","10129,1,99999,9",,,,,"MET061METAR EKVJ 091450Z 32010KT 9999 FEW030 02/M00 Q1013 27790399;",
"06066099999","2010-12-10T07:20:00","4","55.990122","8.353906","5.18","STAUNING, DA","FM-15","EKVJ ","V020","999,9,C,0000,1","99999,9,9,Y","009900,1,N,1","-0050,1","-0070,1","99999,9",,,,,"10230,1,99999,9",,,,,"MET056METAR EKVJ 100720Z 00000KT CAVOK M05/M07 Q1023 27710399;",
"06066099999","2010-12-10T07:50:00","4","55.990122","8.353906","5.18","STAUNING, DA","FM-15","EKVJ ","V020","999,9,C,0000,1","99999,9,9,Y","009900,1,N,1","-0050,1","-0070,1","99999,9",,,,,"10230,1,99999,9",,,,,"MET056METAR EKVJ 100750Z 00000KT CAVOK M05/M07 Q1023 27710399;",
"06066099999","2010-12-10T08:50:00","4","55.990122","8.353906","5.18","STAUNING, DA","FM-15","EKVJ ","V020","999,9,V,0015,1","22000,1,9,N","011265,1,N,1","-0040,1","-0060,1","99999,9","02,5,+00900,1,99,9",,,"02,99,1,99,9,99,9,99999,9,99,9,99,9","10220,1,99999,9",,,,,"MET062METAR EKVJ 100850Z VRB03KT 9999 FEW030 M04/M06 Q1022 27710399;",
"06066099999","2010-12-10T09:50:00","4","55.990122","8.353906","5.18","STAUNING, DA","FM-15","EKVJ ","V020","999,9,V,0015,1","00900,1,C,N","006000,1,N,1","-0020,1","-0040,1","99999,9","07,5,+00900,1,99,9",,,"07,99,1,99,9,99,9,99999,9,99,9,99,9","10220,1,99999,9","71,1",,,,"MET066METAR EKVJ 100950Z VRB03KT 6000 -SN BKN030 M02/M04 Q1022 27710399;",
"06066099999","2010-12-10T10:50:00","4","55.990122","8.353906","5.18","STAUNING, DA","FM-15","EKVJ ","V020","999,9,V,0015,1","00900,1,C,N","011265,1,N,1","+0010,1","+0000,1","99999,9","07,5,+00900,1,99,9",,,"07,99,1,99,9,99,9,99999,9,99,9,99,9","10220,1,99999,9","61,1","71,1",,,"MET066METAR EKVJ 101050Z VRB03KT 9999 -RASN BKN030 01/00 Q1022 27691099;",
"06066099999","2010-12-10T11:50:00","4","55.990122","8.353906","5.18","STAUNING, DA","FM-15","EKVJ ","V020","270,1,N,0031,1","00240,1,C,N","011265,1,N,1","+0030,1","+0020,1","99999,9","07,5,+00240,1,99,9","07,5,+00300,1,99,9",,"07,99,1,99,9,99,9,99999,9,99,9,99,9","10220,1,99999,9","61,1","71,1",,,"MET073METAR EKVJ 101150Z 27006KT 9999 -RASN BKN008 BKN010 03/02 Q1022 27691099;",
"06066099999","2010-12-10T12:50:00","4","55.990122","8.353906","5.18","STAUNING, DA","FM-15","EKVJ ","V020","270,1,N,0031,1","00240,1,C,N","006000,1,N,1","+0030,1","+0020,1","99999,9","07,5,+00240,1,99,9","07,5,+00300,1,99,9",,"07,99,1,99,9,99,9,99999,9,99,9,99,9","10220,1,99999,9","61,1","71,1",,,"MET073METAR EKVJ 101250Z 27006KT 6000 -RASN BKN008 BKN010 03/02 Q1022 27691099;",
"06066099999","2010-12-13T07:20:00","4","55.990122","8.353906","5.18","STAUNING, DA","FM-15","EKVJ ","V020","330,1,N,0031,1","00600,1,C,N","011265,1,N,1","+0020,1","+0010,1","99999,9","02,5,+00300,1,99,9","07,5,+00600,1,99,9",,"07,99,1,99,9,99,9,99999,9,99,9,99,9","10210,1,99999,9",,,,,"MET067METAR EKVJ 130720Z 33006KT 9999 FEW010 BKN020 02/01 Q1021 27710195;",
"06066099999","2010-12-13T07:50:00","4","55.990122","8.353906","5.18","STAUNING, DA","FM-15","EKVJ ","V020","330,1,N,0021,1","00900,1,C,N","011265,1,N,1","+0020,1","+0010,1","99999,9","04,5,+00300,1,99,9","07,5,+00900,1,99,9",,"07,99,1,99,9,99,9,99999,9,99,9,99,9","10210,1,99999,9",,,,,"MET067METAR EKVJ 130750Z 33004KT 9999 SCT010 BKN030 02/01 Q1021 27710195;",
"06066099999","2010-12-13T10:50:00","4","55.990122","8.353906","5.18","STAUNING, DA","FM-15","EKVJ ","V020","060,1,N,0031,1","99999,9,C,N","011265,1,N,1","+0000,1","-0010,1","99999,9","02,5,+00300,1,99,9","04,5,+03000,1,99,9",,"04,99,1,99,9,99,9,99999,9,99,9,99,9","10220,1,99999,9",,,,,"MET068METAR EKVJ 131050Z 06006KT 9999 FEW010 SCT100 00/M01 Q1022 27710195;","P01 030003SCOCIG"
"06066099999","2010-12-13T11:50:00","4","55.990122","8.353906","5.18","STAUNING, DA","FM-15","EKVJ ","V020","060,1,N,0031,1","22000,1,9,N","011265,1,N,1","+0000,1","-0010,1","99999,9","02,5,+00300,1,99,9",,,"02,99,1,99,9,99,9,99999,9,99,9,99,9","10230,1,99999,9",,,,,"MET061METAR EKVJ 131150Z 06006KT 9999 FEW010 00/M01 Q1023 27710195;",
"06066099999","2010-12-13T12:50:00","4","55.990122","8.353906","5.18","STAUNING, DA","FM-15","EKVJ ","V020","060,1,N,0051,1","22000,1,9,N","011265,1,N,1","+0000,1","-0010,1","99999,9","04,5,+00300,1,99,9",,,"04,99,1,99,9,99,9,99999,9,99,9,99,9","10240,1,99999,9",,,,,"MET061METAR EKVJ 131250Z 06010KT 9999 SCT010 00/M01 Q1024 27710195;",
"06066099999","2010-12-13T13:50:00","4","55.990122","8.353906","5.18","STAUNING, DA","FM-15","EKVJ ","V020","070,1,N,0051,1","22000,1,9,N","011265,1,N,1","+0000,1","-0010,1","99999,9","02,5,+00300,1,99,9",,,"02,99,1,99,9,99,9,99999,9,99,9,99,9","10240,1,99999,9",,,,,"MET061METAR EKVJ 131350Z 07010KT 9999 FEW010 00/M01 Q1024 27710195;",
"06066099999","2010-12-13T14:50:00","4","55.990122","8.353906","5.18","STAUNING, DA","FM-15","EKVJ ","V020","070,1,N,0062,1","22000,1,9,N","011265,1,N,1","-0030,1","-0050,1","99999,9","04,5,+00300,1,99,9",,,"04,99,1,99,9,99,9,99999,9,99,9,99,9","10251,1,99999,9",,,,,"MET062METAR EKVJ 131450Z 07012KT 9999 SCT010 M03/M05 Q1025 27710195;",
"06066099999","2010-12-14T07:20:00","4","55.990122","8.353906","5.18","STAUNING, DA","FM-15","EKVJ ","V020","040,1,N,0021,1","22000,1,9,N","011265,1,N,1","-0040,1","-0060,1","99999,9","02,5,+00450,1,99,9",,,"02,99,1,99,9,99,9,99999,9,99,9,99,9","10318,1,99999,9",,,,,"MET062METAR EKVJ 140720Z 04004KT 9999 FEW015 M04/M06 Q1032 27710195;",
"06066099999","2010-12-14T07:50:00","4","55.990122","8.353906","5.18","STAUNING, DA","FM-15","EKVJ ","V020","040,1,N,0015,1","22000,1,9,N","011265,1,N,1","-0040,1","-0060,1","99999,9","02,5,+00450,1,99,9",,,"02,99,1,99,9,99,9,99999,9,99,9,99,9","10318,1,99999,9",,,,,"MET062METAR EKVJ 140750Z 04003KT 9999 FEW015 M04/M06 Q1032 09710195;",
"06066099999","2010-12-14T08:50:00","4","55.990122","8.353906","5.18","STAUNING, DA","FM-15","EKVJ ","V020","040,1,N,0015,1","99999,9,9,Y","009900,1,N,1","-0050,1","-0070,1","99999,9",,,,,"10318,1,99999,9",,,,,"MET056METAR EKVJ 140850Z 04003KT CAVOK M05/M07 Q1032 09710195;",
"06066099999","2010-12-14T09:50:00","4","55.990122","8.353906","5.18","STAUNING, DA","FM-15","EKVJ ","V020","040,1,N,0015,1","99999,9,9,Y","009900,1,N,1","-0040,1","-0060,1","99999,9",,,,,"10318,1,99999,9",,,,,"MET056METAR EKVJ 140950Z 04003KT CAVOK M04/M06 Q1032 09710195;",
"06066099999","2010-12-14T10:50:00","4","55.990122","8.353906","5.18","STAUNING, DA","FM-15","EKVJ ","V020","040,1,N,0026,1","99999,9,9,Y","009900,1,N,1","-0040,1","-0060,1","99999,9",,,,,"10318,1,99999,9",,,,,"MET056METAR EKVJ 141050Z 04005KT CAVOK M04/M06 Q1032 09710195;",
"06066099999","2010-12-14T11:50:00","4","55.990122","8.353906","5.18","STAUNING, DA","FM-15","EKVJ ","V020","030,1,N,0026,1","22000,1,9,N","011265,1,N,1","-0030,1","-0050,1","99999,9","02,5,+00450,1,99,9",,,"02,99,1,99,9,99,9,99999,9,99,9,99,9","10318,1,99999,9",,,,,"MET062METAR EKVJ 141150Z 03005KT 9999 FEW015 M03/M05 Q1032 09710195;",
"06066099999","2010-12-14T12:50:00","4","55.990122","8.353906","5.18","STAUNING, DA","FM-15","EKVJ ","V020","030,1,N,0026,1","22000,1,9,N","011265,1,N,1","-0030,1","-0050,1","99999,9","02,5,+00450,1,99,9",,,"02,99,1,99,9,99,9,99999,9,99,9,99,9","10318,1,99999,9",,,,,"MET062METAR EKVJ 141250Z 03005KT 9999 FEW015 M03/M05 Q1032 09710195;",
"06066099999","2010-12-14T13:50:00","4","55.990122","8.353906","5.18","STAUNING, DA","FM-15","EKVJ ","V020","030,1,N,0031,1","99999,9,9,Y","009900,1,N,1","-0020,1","-0040,1","99999,9",,,,,"10318,1,99999,9",,,,,"MET056METAR EKVJ 141350Z 03006KT CAVOK M02/M04 Q1032 09710195;",
"06066099999","2010-12-14T14:50:00","4","55.990122","8.353906","5.18","STAUNING, DA","FM-15","EKVJ ","V020","030,1,N,0015,1","99999,9,9,Y","009900,1,N,1","-0020,1","-0040,1","99999,9",,,,,"10318,1,99999,9",,,,,"MET056METAR EKVJ 141450Z 03003KT CAVOK M02/M04 Q1032 09710195;",
"06066099999","2010-12-15T07:20:00","4","55.990122","8.353906","5.18","STAUNING, DA","FM-15","EKVJ ","V020","030,1,N,0015,1","99999,9,9,Y","009900,1,N,1","-0050,1","-0060,1","99999,9",,,,,"10301,1,99999,9",,,,,"MET056METAR EKVJ 150720Z 03003KT CAVOK M05/M06 Q1030 09710195;",
"06066099999","2010-12-15T07:50:00","4","55.990122","8.353906","5.18","STAUNING, DA","FM-15","EKVJ ","V020","030,1,N,0015,1","99999,9,9,Y","009900,1,N,1","-0050,1","-0060,1","99999,9",,,,,"10301,1,99999,9",,,,,"MET056METAR EKVJ 150750Z 03003KT CAVOK M05/M06 Q1030 09710195;",
"06066099999","2010-12-15T08:50:00","4","55.990122","8.353906","5.18","STAUNING, DA","FM-15","EKVJ ","V020","030,1,N,0015,1","99999,9,9,Y","009900,1,N,1","-0030,1","-0040,1","99999,9",,,,,"10301,1,99999,9",,,,,"MET056METAR EKVJ 150850Z 03003KT CAVOK M03/M04 Q1030 09710195;",
"06066099999","2010-12-15T09:50:00","4","55.990122","8.353906","5.18","STAUNING, DA","FM-15","EKVJ ","V020","030,1,N,0015,1","22000,1,9,N","011265,1,N,1","-0030,1","-0040,1","99999,9","02,5,+00900,1,99,9",,,"02,99,1,99,9,99,9,99999,9,99,9,99,9","10301,1,99999,9",,,,,"MET062METAR EKVJ 150950Z 03003KT 9999 FEW030 M03/M04 Q1030 09710195;",
"06066099999","2010-12-15T10:50:00","4","55.990122","8.353906","5.18","STAUNING, DA","FM-15","EKVJ ","V020","030,1,N,0015,1","22000,1,9,N","011265,1,N,1","-0020,1","-0030,1","99999,9","02,5,+00600,1,99,9",,,"02,99,1,99,9,99,9,99999,9,99,9,99,9","10301,1,99999,9",,,,,"MET062METAR EKVJ 151050Z 03003KT 9999 FEW020 M02/M03 Q1030 09710195;",
"06066099999","2010-12-15T11:50:00","4","55.990122","8.353906","5.18","STAUNING, DA","FM-15","EKVJ ","V020","030,1,N,0015,1","22000,1,9,N","011265,1,N,1","-0010,1","-0020,1","99999,9","02,5,+00600,1,99,9",,,"02,99,1,99,9,99,9,99999,9,99,9,99,9","10291,1,99999,9",,,,,"MET062METAR EKVJ 151150Z 03003KT 9999 FEW020 M01/M02 Q1029 09710195;",
"06066099999","2010-12-15T12:50:00","4","55.990122","8.353906","5.18","STAUNING, DA","FM-15","EKVJ ","V020","030,1,N,0015,1","99999,9,9,Y","009900,1,N,1","-0010,1","-0020,1","99999,9",,,,,"10291,1,99999,9",,,,,"MET056METAR EKVJ 151250Z 03003KT CAVOK M01/M02 Q1029 09710195;",
"06066099999","2010-12-15T13:50:00","4","55.990122","8.353906","5.18","STAUNING, DA","FM-15","EKVJ ","V020","999,9,C,0000,1","99999,9,9,Y","009900,1,N,1","+0000,1","-0010,1","99999,9",,,,,"10281,1,99999,9",,,,,"MET055METAR EKVJ 151350Z 00000KT CAVOK 00/M01 Q1028 09710195;",
"06066099999","2010-12-15T14:50:00","4","55.990122","8.353906","5.18","STAUNING, DA","FM-15","EKVJ ","V020","999,9,C,0000,1","99999,9,9,Y","009900,1,N,1","-0020,1","-0030,1","99999,9",,,,,"10271,1,99999,9",,,,,"MET056METAR EKVJ 151450Z 00000KT CAVOK M02/M03 Q1027 09710195;",
"06066099999","2010-12-16T07:20:00","4","55.990122","8.353906","5.18","STAUNING, DA","FM-15","EKVJ ","V020","230,1,N,0123,1","00150,1,C,N","005000,1,N,1","+0040,1","+0030,1","99999,9","07,5,+00150,1,99,9",,,"07,99,1,99,9,99,9,99999,9,99,9,99,9","09980,1,99999,9","63,1",,,,"MET054METAR EKVJ 160720Z 23024KT 5000 RA BKN005 04/03 Q0998;",
"06066099999","2010-12-16T07:50:00","4","55.990122","8.353906","5.18","STAUNING, DA","FM-15","EKVJ ","V020","250,1,N,0082,1","00150,1,C,N","005000,1,N,1","+0040,1","+0030,1","99999,9","07,5,+00150,1,99,9",,,"07,99,1,99,9,99,9,99999,9,99,9,99,9","09980,1,99999,9","63,1",,,"0134,1","MET057METAR EKVJ 160750Z 25016G26KT 5000 RA BKN005 04/03 Q0998;",
"06066099999","2010-12-16T08:50:00","4","55.990122","8.353906","5.18","STAUNING, DA","FM-15","EKVJ ","V020","300,1,N,0082,1","00240,1,C,N","007000,1,N,1","+0020,1","+0010,1","99999,9","07,5,+00240,1,99,9",,,"07,99,1,99,9,99,9,99999,9,99,9,99,9","09970,1,99999,9","61,1",,,,"MET055METAR EKVJ 160850Z 30016KT 7000 -RA BKN008 02/01 Q0997;",
"06066099999","2010-12-16T09:50:00","4","55.990122","8.353906","5.18","STAUNING, DA","FM-15","EKVJ ","V020","320,1,N,0062,1","00240,1,C,N","007000,1,N,1","+0020,1","+0010,1","99999,9","07,5,+00240,1,99,9","07,5,+00300,1,99,9",,"07,99,1,99,9,99,9,99999,9,99,9,99,9","09949,1,99999,9","61,1","71,1",,,"MET064METAR EKVJ 160950Z 32012KT 7000 -RASN BKN008 BKN010 02/01 Q0995;",
"06066099999","2010-12-16T10:50:00","4","55.990122","8.353906","5.18","STAUNING, DA","FM-15","EKVJ ","V020","320,1,N,0062,1","00240,1,C,N","006000,1,N,1","+0020,1","+0010,1","99999,9","07,5,+00240,1,99,9","07,5,+00300,1,99,9",,"07,99,1,99,9,99,9,99999,9,99,9,99,9","09949,1,99999,9","61,1","71,1",,,"MET064METAR EKVJ 161050Z 32012KT 6000 -RASN BKN008 BKN010 02/01 Q0995;",
"06066099999","2010-12-16T11:50:00","4","55.990122","8.353906","5.18","STAUNING, DA","FM-15","EKVJ ","V020","320,1,N,0041,1","00600,1,C,N","011265,1,N,1","+0000,1","-0010,1","99999,9","04,5,+00300,1,99,9","07,5,+00600,1,99,9",,"07,99,1,99,9,99,9,99999,9,99,9,99,9","09949,1,99999,9",,,,,"MET059METAR EKVJ 161150Z 32008KT 9999 SCT010 BKN020 00/M01 Q0995;",
"06066099999","2010-12-16T12:20:00","4","55.990122","8.353906","5.18","STAUNING, DA","FM-15","EKVJ ","V020","320,1,N,0051,1","00090,1,C,N","001500,1,N,1","+0000,1","-0010,1","99999,9","07,5,+00090,1,99,9",,,"07,99,1,99,9,99,9,99999,9,99,9,99,9","09949,1,99999,9","10,1","71,1",,,"MET059METAR EKVJ 161220Z 32010KT 1500 BR -SN BKN003 00/M01 Q0995;",
"06066099999","2010-12-16T12:50:00","4","55.990122","8.353906","5.18","STAUNING, DA","FM-15","EKVJ ","V020","320,1,N,0031,1","00750,1,C,N","008000,1,N,1","+0000,1","-0010,1","99999,9","02,5,+00300,1,99,9","07,5,+00750,1,99,9",,"07,99,1,99,9,99,9,99999,9,99,9,99,9","09949,1,99999,9","85,5",,,,"MET065METAR EKVJ 161250Z 32006KT 8000 -SHSN FEW010 BKN025 00/M01 Q0995;",
"06066099999","2010-12-16T14:50:00","4","55.990122","8.353906","5.18","STAUNING, DA","FM-15","EKVJ ","V020","999,9,C,0000,1","03000,1,C,N","011265,1,N,1","-0010,1","-0020,1","99999,9","02,5,+00780,1,99,9","07,5,+03000,1,99,9",,"07,99,1,99,9,99,9,99999,9,99,9,99,9","09949,1,99999,9",,,,,"MET060METAR EKVJ 161450Z 00000KT 9999 FEW026 BKN100 M01/M02 Q0995;",
"06066099999","2010-12-17T07:20:00","4","55.990122","8.353906","5.18","STAUNING, DA","FM-15","EKVJ ","V020","290,1,N,0015,1","22000,1,9,N","011265,1,N,1","-0050,1","-0060,1","99999,9","02,5,+00750,1,99,9",,,"02,99,1,99,9,99,9,99999,9,99,9,99,9","09929,1,99999,9",,,,,"MET053METAR EKVJ 170720Z 29003KT 9999 FEW025 M05/M06 Q0993;",
"06066099999","2010-12-17T07:50:00","4","55.990122","8.353906","5.18","STAUNING, DA","FM-15","EKVJ ","V020","290,1,N,0015,1","22000,1,9,N","011265,1,N,1","-0050,1","-0060,1","99999,9","02,5,+00750,1,99,9",,,"02,99,1,99,9,99,9,99999,9,99,9,99,9","09929,1,99999,9",,,,,"MET062METAR EKVJ 170750Z 29003KT 9999 FEW025 M05/M06 Q0993 27790391;",
"06066099999","2010-12-17T08:50:00","4","55.990122","8.353906","5.18","STAUNING, DA","FM-15","EKVJ ","V020","290,1,N,0015,1","22000,1,9,N","011265,1,N,1","-0050,1","-0060,1","99999,9","02,5,+00750,1,99,9",,,"02,99,1,99,9,99,9,99999,9,99,9,99,9","09929,1,99999,9",,,,,"MET062METAR EKVJ 170850Z 29003KT 9999 FEW025 M05/M06 Q0993 27790391;",
"06066099999","2010-12-17T09:50:00","4","55.990122","8.353906","5.18","STAUNING, DA","FM-15","EKVJ ","V020","290,1,N,0015,1","22000,1,9,N","011265,1,N,1","-0050,1","-0060,1","99999,9","02,5,+00750,1,99,9",,,"02,99,1,99,9,99,9,99999,9,99,9,99,9","09929,1,99999,9",,,,,"MET062METAR EKVJ 170950Z 29003KT 9999 FEW025 M05/M06 Q0993 27790391;",
"06066099999","2010-12-17T10:50:00","4","55.990122","8.353906","5.18","STAUNING, DA","FM-15","EKVJ ","V020","290,1,N,0021,1","22000,1,9,N","011265,1,N,1","-0040,1","-0050,1","99999,9","02,5,+00750,1,99,9",,,"02,99,1,99,9,99,9,99999,9,99,9,99,9","09939,1,99999,9",,,,,"MET062METAR EKVJ 171050Z 29004KT 9999 FEW025 M04/M05 Q0994 27790391;",
"06066099999","2010-12-17T11:50:00","4","55.990122","8.353906","5.18","STAUNING, DA","FM-15","EKVJ ","V020","290,1,N,0031,1","22000,1,9,N","011265,1,N,1","-0030,1","-0040,1","99999,9","02,5,+00750,1,99,9",,,"02,99,1,99,9,99,9,99999,9,99,9,99,9","09939,1,99999,9",,,,,"MET062METAR EKVJ 171150Z 29006KT 9999 FEW025 M03/M04 Q0994 27790391;",
"06066099999","2010-12-17T12:50:00","4","55.990122","8.353906","5.18","STAUNING, DA","FM-15","EKVJ ","V020","290,1,N,0031,1","22000,1,9,N","011265,1,N,1","-0030,1","-0040,1","99999,9","02,5,+00750,1,99,9",,,"02,99,1,99,9,99,9,99999,9,99,9,99,9","09939,1,99999,9",,,,,"MET062METAR EKVJ 171250Z 29006KT 9999 FEW025 M03/M04 Q0994 27790391;",
"06066099999","2010-12-17T13:50:00","4","55.990122","8.353906","5.18","STAUNING, DA","FM-15","EKVJ ","V020","290,1,N,0031,1","22000,1,9,N","011265,1,N,1","-0030,1","-0040,1","99999,9","02,5,+00750,1,99,9",,,"02,99,1,99,9,99,9,99999,9,99,9,99,9","09939,1,99999,9",,,,,"MET062METAR EKVJ 171350Z 29006KT 9999 FEW025 M03/M04 Q0994 27790391;",
"06066099999","2010-12-17T14:50:00","4","55.990122","8.353906","5.18","STAUNING, DA","FM-15","EKVJ ","V020","290,1,N,0031,1","22000,1,9,N","011265,1,N,1","-0030,1","-0040,1","99999,9","02,5,+00750,1,99,9",,,"02,99,1,99,9,99,9,99999,9,99,9,99,9","09939,1,99999,9",,,,,"MET062METAR EKVJ 171450Z 29006KT 9999 FEW025 M03/M04 Q0994 27790391;",
"06066099999","2010-12-20T07:20:00","4","55.990122","8.353906","5.18","STAUNING, DA","FM-15","EKVJ ","V020","999,9,C,0000,1","99999,9,9,Y","009900,1,N,1","-0130,1","-0190,1","99999,9",,,,,"10000,1,99999,9",,,,,"MET056METAR EKVJ 200720Z 00000KT CAVOK M13/M19 Q1000 27490395;",
"06066099999","2010-12-20T07:50:00","4","55.990122","8.353906","5.18","STAUNING, DA","FM-15","EKVJ ","V020","999,9,C,0000,1","22000,1,9,N","006000,1,N,1","-0130,1","-0190,1","99999,9","04,5,+06000,1,99,9",,,"04,99,1,99,9,99,9,99999,9,99,9,99,9","10000,1,99999,9",,,,,"MET062METAR EKVJ 200750Z 00000KT 6000 SCT200 M13/M19 Q1000 27490395;",
"06066099999","2010-12-20T08:50:00","4","55.990122","8.353906","5.18","STAUNING, DA","FM-15","EKVJ ","V020","999,9,C,0000,1","06000,1,C,N","006000,1,N,1","-0130,1","-0190,1","99999,9","07,5,+06000,1,99,9",,,"07,99,1,99,9,99,9,99999,9,99,9,99,9","10000,1,99999,9",,,,,"MET062METAR EKVJ 200850Z 00000KT 6000 BKN200 M13/M19 Q1000 27490395;",
"06066099999","2010-12-20T09:50:00","4","55.990122","8.353906","5.18","STAUNING, DA","FM-15","EKVJ ","V020","999,9,C,0000,1","22000,1,9,N","007000,1,N,1","-0100,1","-0110,1","99999,9","04,5,+06000,1,99,9",,,"04,99,1,99,9,99,9,99999,9,99,9,99,9","10010,1,99999,9",,,,,"MET062METAR EKVJ 200950Z 00000KT 7000 SCT200 M10/M11 Q1001 27490395;",
"06066099999","2010-12-20T10:50:00","4","55.990122","8.353906","5.18","STAUNING, DA","FM-15","EKVJ ","V020","999,9,C,0000,1","22000,1,9,N","007000,1,N,1","-0080,1","-0090,1","99999,9","04,5,+06000,1,99,9",,,"04,99,1,99,9,99,9,99999,9,99,9,99,9","10010,1,99999,9",,,,,"MET062METAR EKVJ 201050Z 00000KT 7000 SCT200 M08/M09 Q1001 27490395;",
"06066099999","2010-12-20T11:50:00","4","55.990122","8.353906","5.18","STAUNING, DA","FM-15","EKVJ ","V020","999,9,C,0000,1","03000,1,C,N","007000,1,N,1","-0070,1","-0080,1","99999,9","07,5,+03000,1,99,9",,,"07,99,1,99,9,99,9,99999,9,99,9,99,9","10020,1,99999,9",,,,,"MET062METAR EKVJ 201150Z 00000KT 7000 BKN100 M07/M08 Q1002 27490395;",
"06066099999","2010-12-20T13:50:00","4","55.990122","8.353906","5.18","STAUNING, DA","FM-15","EKVJ ","V020","999,9,V,0015,1","99999,9,9,Y","009900,1,N,1","-0060,1","-0070,1","99999,9",,,,,"10010,1,99999,9",,,,,"MET056METAR EKVJ 201350Z VRB03KT CAVOK M06/M07 Q1001 27490395;",
"06066099999","2010-12-20T14:50:00","4","55.990122","8.353906","5.18","STAUNING, DA","FM-15","EKVJ ","V020","060,1,N,0021,1","99999,9,9,Y","009900,1,N,1","-0060,1","-0070,1","99999,9",,,,,"10010,1,99999,9",,,,,"MET056METAR EKVJ 201450Z 06004KT CAVOK M06/M07 Q1001 27490395;",
"06066099999","2010-12-21T10:20:00","4","55.990122","8.353906","5.18","STAUNING, DA","FM-15","EKVJ ","V020","999,9,V,0015,1","99999,9,9,Y","009900,1,N,1","-0090,1","-0110,1","99999,9",,,,,"10010,1,99999,9",,,,,"MET058METAR EKVJ 211020Z VRB03KT CAVOK M09/M11 Q100108 27810595;",
"06066099999","2010-12-21T12:50:00","4","55.990122","8.353906","5.18","STAUNING, DA","FM-15","EKVJ ","V020","060,1,N,0021,1","99999,9,9,Y","009900,1,N,1","-0090,1","-0110,1","99999,9",,,,,"10081,1,99999,9",,,,,"MET056METAR EKVJ 211250Z 06004KT CAVOK M09/M11 Q1008 27810595;",
"06066099999","2010-12-21T13:20:00","4","55.990122","8.353906","5.18","STAUNING, DA","FM-15","EKVJ ","V020","060,1,N,0021,1","99999,9,9,Y","009900,1,N,1","-0090,1","-0110,1","99999,9",,,,,"10081,1,99999,9",,,,,"MET056METAR EKVJ 211320Z 06004KT CAVOK M09/M11 Q1008 09810595;",
"06066099999","2010-12-21T13:50:00","4","55.990122","8.353906","5.18","STAUNING, DA","FM-15","EKVJ ","V020","060,1,N,0021,1","99999,9,9,Y","009900,1,N,1","-0090,1","-0110,1","99999,9",,,,,"10081,1,99999,9",,,,,"MET056METAR EKVJ 211350Z 06004KT CAVOK M09/M11 Q1008 09810595;",
"06066099999","2010-12-21T14:50:00","4","55.990122","8.353906","5.18","STAUNING, DA","FM-15","EKVJ ","V020","060,1,N,0021,1","99999,9,9,Y","009900,1,N,1","-0120,1","-0140,1","99999,9",,,,,"10081,1,99999,9",,,,,"MET056METAR EKVJ 211450Z 06004KT CAVOK M12/M14 Q1008 09810595;",
"06066099999","2010-12-22T07:20:00","4","55.990122","8.353906","5.18","STAUNING, DA","FM-15","EKVJ ","V020","060,1,N,0021,1","99999,9,9,Y","009900,1,N,1","-0110,1","-0120,1","99999,9",,,,,"10119,1,99999,9",,,,,"MET056METAR EKVJ 220720Z 06004KT CAVOK M11/M12 Q1012 09810595;",
"06066099999","2010-12-22T08:50:00","4","55.990122","8.353906","5.18","STAUNING, DA","FM-15","EKVJ ","V020","999,9,V,0015,1","99999,9,9,Y","009900,1,N,1","-0110,1","-0120,1","99999,9",,,,,"10139,1,99999,9",,,,,"MET056METAR EKVJ 220850Z VRB03KT CAVOK M11/M12 Q1014 09810595;",
"06066099999","2010-12-22T09:50:00","4","55.990122","8.353906","5.18","STAUNING, DA","FM-15","EKVJ ","V020","999,9,V,0015,1","99999,9,9,Y","009900,1,N,1","-0080,1","-0090,1","99999,9",,,,,"10139,1,99999,9",,,,,"MET056METAR EKVJ 220950Z VRB03KT CAVOK M08/M09 Q1014 09810595;",
"06066099999","2010-12-22T10:50:00","4","55.990122","8.353906","5.18","STAUNING, DA","FM-15","EKVJ ","V020","080,1,N,0026,1","99999,9,9,Y","009900,1,N,1","-0070,1","-0080,1","99999,9",,,,,"10139,1,99999,9",,,,,"MET056METAR EKVJ 221050Z 08005KT CAVOK M07/M08 Q1014 09810595;",
"06066099999","2010-12-22T11:50:00","4","55.990122","8.353906","5.18","STAUNING, DA","FM-15","EKVJ ","V020","080,1,N,0026,1","99999,9,9,Y","009900,1,N,1","-0060,1","-0070,1","99999,9",,,,,"10139,1,99999,9",,,,,"MET056METAR EKVJ 221150Z 08005KT CAVOK M06/M07 Q1014 09810595;",
"06066099999","2010-12-22T12:50:00","4","55.990122","8.353906","5.18","STAUNING, DA","FM-15","EKVJ ","V020","080,1,N,0021,1","99999,9,9,Y","009900,1,N,1","-0060,1","-0070,1","99999,9",,,,,"10139,1,99999,9",,,,,"MET056METAR EKVJ 221250Z 08004KT CAVOK M06/M07 Q1014 09810595;",
"06066099999","2010-12-22T13:50:00","4","55.990122","8.353906","5.18","STAUNING, DA","FM-15","EKVJ ","V020","080,1,N,0021,1","99999,9,9,Y","009900,1,N,1","-0060,1","-0070,1","99999,9",,,,,"10139,1,99999,9",,,,,"MET056METAR EKVJ 221350Z 08004KT CAVOK M06/M07 Q1014 09810595;",
"06066099999","2010-12-23T07:20:00","4","55.990122","8.353906","5.18","STAUNING, DA","FM-15","EKVJ ","V020","040,1,N,0051,1","00300,1,C,N","011265,1,N,1","-0040,1","-0050,1","99999,9","07,5,+00300,1,99,9",,,"07,99,1,99,9,99,9,99999,9,99,9,99,9","10139,1,99999,9",,,,,"MET062METAR EKVJ 230720Z 04010KT 9999 BKN010 M04/M05 Q1014 09810595;",
"06066099999","2010-12-23T07:50:00","4","55.990122","8.353906","5.18","STAUNING, DA","FM-15","EKVJ ","V020","030,1,N,0051,1","00300,1,C,N","011265,1,N,1","-0040,1","-0050,1","99999,9","07,5,+00300,1,99,9",,,"07,99,1,99,9,99,9,99999,9,99,9,99,9","10139,1,99999,9",,,,,"MET062METAR EKVJ 230750Z 03010KT 9999 BKN010 M04/M05 Q1014 09810595;",
"06066099999","2010-12-23T09:50:00","4","55.990122","8.353906","5.18","STAUNING, DA","FM-15","EKVJ ","V020","030,1,N,0051,1","00300,1,C,N","008000,1,N,1","-0050,1","-0060,1","99999,9","07,5,+00300,1,99,9",,,"07,99,1,99,9,99,9,99999,9,99,9,99,9","10159,1,99999,9",,,,,"MET062METAR EKVJ 230950Z 03010KT 8000 BKN010 M05/M06 Q1016 09810595;",
"06066099999","2010-12-28T09:20:00","4","55.990122","8.353906","5.18","STAUNING, DA","FM-15","EKVJ ","V020","080,1,N,0062,1","00300,1,C,N","008000,1,N,1","-0050,1","-0060,1","99999,9","07,5,+00300,1,99,9",,,"07,99,1,99,9,99,9,99999,9,99,9,99,9","10261,1,99999,9",,,,,"MET062METAR EKVJ 280920Z 08012KT 8000 BKN010 M05/M06 Q1026 09810395;",
"06066099999","2010-12-28T09:50:00","4","55.990122","8.353906","5.18","STAUNING, DA","FM-15","EKVJ ","V020","100,1,N,0051,1","00300,1,C,N","008000,1,N,1","-0050,1","-0060,1","99999,9","07,5,+00300,1,99,9",,,"07,99,1,99,9,99,9,99999,9,99,9,99,9","10261,1,99999,9",,,,,"MET062METAR EKVJ 280950Z 10010KT 8000 BKN010 M05/M06 Q1026 09810395;",
"06066099999","2010-12-28T10:50:00","4","55.990122","8.353906","5.18","STAUNING, DA","FM-15","EKVJ ","V020","100,1,N,0041,1","00180,1,C,N","004000,1,N,1","-0060,1","-0070,1","99999,9","07,5,+00180,1,99,9",,,"07,99,1,99,9,99,9,99999,9,99,9,99,9","10261,1,99999,9","10,1",,,,"MET065METAR EKVJ 281050Z 10008KT 4000 BR BKN006 M06/M07 Q1026 09810395;",
"06066099999","2010-12-28T11:20:00","4","55.990122","8.353906","5.18","STAUNING, DA","FM-15","EKVJ ","V020","100,1,N,0041,1","00240,1,C,N","006000,1,N,1","-0060,1","-0070,1","99999,9","07,5,+00240,1,99,9",,,"07,99,1,99,9,99,9,99999,9,99,9,99,9","10261,1,99999,9",,,,,"MET062METAR EKVJ 281120Z 10008KT 6000 BKN008 M06/M07 Q1026 09810395;",
"06066099999","2010-12-28T11:50:00","4","55.990122","8.353906","5.18","STAUNING, DA","FM-15","EKVJ ","V020","110,1,N,0051,1","00240,1,C,N","007000,1,N,1","-0060,1","-0070,1","99999,9","07,5,+00240,1,99,9",,,"07,99,1,99,9,99,9,99999,9,99,9,99,9","10271,1,99999,9",,,,,"MET062METAR EKVJ 281150Z 11010KT 7000 BKN008 M06/M07 Q1027 09810395;",
"06066099999","2010-12-28T12:50:00","4","55.990122","8.353906","5.18","STAUNING, DA","FM-15","EKVJ ","V020","110,1,N,0051,1","00240,1,C,N","007000,1,N,1","-0050,1","-0060,1","99999,9","07,5,+00240,1,99,9",,,"07,99,1,99,9,99,9,99999,9,99,9,99,9","10271,1,99999,9",,,,,"MET062METAR EKVJ 281250Z 11010KT 7000 BKN008 M05/M06 Q1027 09810395;",
"06066099999","2010-12-28T13:50:00","4","55.990122","8.353906","5.18","STAUNING, DA","FM-15","EKVJ ","V020","110,1,N,0041,1","22000,1,9,N","007000,1,N,1","-0060,1","-0070,1","99999,9","02,5,+00240,1,99,9",,,"02,99,1,99,9,99,9,99999,9,99,9,99,9","10271,1,99999,9",,,,,"MET062METAR EKVJ 281350Z 11008KT 7000 FEW008 M06/M07 Q1027 09810395;",
"06066099999","2010-12-29T09:20:00","4","55.990122","8.353906","5.18","STAUNING, DA","FM-15","EKVJ ","V020","080,1,N,0041,1","00300,1,C,N","011265,1,N,1","-0080,1","-0090,1","99999,9","02,5,+00240,1,99,9","07,5,+00300,1,99,9",,"07,99,1,99,9,99,9,99999,9,99,9,99,9","10271,1,99999,9",,,,,"MET069METAR EKVJ 290920Z 08008KT 9999 FEW008 BKN010 M08/M09 Q1027 09430295;",
"06066099999","2010-12-29T09:50:00","4","55.990122","8.353906","5.18","STAUNING, DA","FM-15","EKVJ ","V020","080,1,N,0041,1","00300,1,C,N","011265,1,N,1","-0080,1","-0090,1","99999,9","02,5,+00240,1,99,9","07,5,+00300,1,99,9",,"07,99,1,99,9,99,9,99999,9,99,9,99,9","10271,1,99999,9",,,,,"MET069METAR EKVJ 290950Z 08008KT 9999 FEW008 BKN010 M08/M09 Q1027 09430295;",
"06066099999","2010-12-29T10:50:00","4","55.990122","8.353906","5.18","STAUNING, DA","FM-15","EKVJ ","V020","080,1,N,0041,1","00300,1,C,N","011265,1,N,1","-0060,1","-0070,1","99999,9","04,5,+00240,1,99,9","07,5,+00300,1,99,9",,"07,99,1,99,9,99,9,99999,9,99,9,99,9","10271,1,99999,9",,,,,"MET069METAR EKVJ 291050Z 08008KT 9999 SCT008 BKN010 M06/M07 Q1027 09430295;",
"06066099999","2010-12-29T11:50:00","4","55.990122","8.353906","5.18","STAUNING, DA","FM-15","EKVJ ","V020","080,1,N,0041,1","00180,1,C,N","007000,1,N,1","-0060,1","-0070,1","99999,9","04,5,+00120,1,99,9","07,5,+00180,1,99,9",,"07,99,1,99,9,99,9,99999,9,99,9,99,9","10271,1,99999,9",,,,,"MET069METAR EKVJ 291150Z 08008KT 7000 SCT004 BKN006 M06/M07 Q1027 09430295;",
"06066099999","2010-12-29T13:50:00","4","55.990122","8.353906","5.18","STAUNING, DA","FM-15","EKVJ ","V020","080,1,N,0041,1","00180,1,C,N","007000,1,N,1","-0060,1","-0070,1","99999,9","04,5,+00150,1,99,9","07,5,+00180,1,99,9",,"07,99,1,99,9,99,9,99999,9,99,9,99,9","10271,1,99999,9","10,1",,,,"MET072METAR EKVJ 291350Z 08008KT 7000 BR SCT005 BKN006 M06/M07 Q1027 09430295;",
