"STATION","DATE","SOURCE","LATITUDE","LONGITUDE","ELEVATION","NAME","REPORT_TYPE","CALL_SIGN","QUALITY_CONTROL","WND","CIG","VIS","TMP","DEW","SLP","GA1","GA2","GA3","GF1","MA1","MW1","MW2","OC1","REM","EQD"
"06450599999","2010-06-15T07:25:00","4","50.8833333","4.5166666","58.0","BRUSSELLS MIL, BE","FM-15","EBWM ","V020","040,1,N,0021,1","05100,1,C,N","008000,1,N,1","+0140,1","+0110,1","99999,9","07,5,+05100,1,99,9",,,"07,99,1,99,9,99,9,99999,9,99,9,99,9","10210,1,99999,9",,,,"MET059METAR EBWM 150725Z 04004KT 8000 BKN170 14/11 Q1021 BLU BLU;",
"06450599999","2010-06-15T08:29:00","4","50.8833333","4.5166666","58.0","BRUSSELLS MIL, BE","FM-15","EBWM ","V020","030,1,N,0021,1","05100,1,C,N","008000,1,N,1","+0140,1","+0110,1","99999,9","02,5,+00420,1,99,9","07,5,+05100,1,99,9",,"07,99,1,99,9,99,9,99999,9,99,9,99,9","10210,1,99999,9",,,,"MET076METAR EBWM 150829Z 03004KT 8000 FEW014 BKN170 14/11 Q1021 BLU BLU TEMPO GRN;",
"06450599999","2010-06-15T08:31:00","4","50.8833333","4.5166666","58.0","BRUSSELLS MIL, BE","FM-16","EBWM ","V020","020,1,N,0015,1","05100,1,C,N","008000,1,N,1","+0140,1","+0110,1","99999,9","02,5,+00420,1,99,9","07,5,+05100,1,99,9",,"07,99,1,99,9,99,9,99999,9,99,9,99,9","10210,1,99999,9",,,,"MET076SPECI EBWM 150831Z 02003KT 8000 FEW014 BKN170 14/11 Q1021 BLU BLU TEMPO GRN;",
"06450599999","2010-06-15T08:34:00","4","50.8833333","4.5166666","58.0","BRUSSELLS MIL, BE","FM-16","EBWM ","V020","020,1,N,0021,1","22000,1,9,N","007000,1,N,1","+0140,1","+0110,1","99999,9","04,5,+00420,1,99,9","07,1,+02100,1,99,9",,"07,99,1,99,9,99,9,99999,9,99,9,99,9","10210,1,99999,9",,,,"MET075SPECI EBWM 150834Z 02004KT 7000 SCT014 BKN70 14/11 Q1021 GRN GRN BECMG WHT;",
"06450599999","2010-06-15T09:00:00","4","50.8833333","4.5166666","58.0","BRUSSELLS MIL, BE","FM-15","EBWM ","V020","040,1,N,0015,1","05400,1,C,N","007000,1,N,1","+0140,1","+0110,1","99999,9","04,5,+00420,1,99,9","07,5,+05400,1,99,9",,"07,99,1,99,9,99,9,99999,9,99,9,99,9","10220,1,99999,9",,,,"MET076METAR EBWM 150855Z 04003KT 7000 SCT014 BKN180 14/11 Q1022 GRN GRN BECMG WHT;",
"06450599999","2010-06-15T09:25:00","4","50.8833333","4.5166666","58.0","BRUSSELLS MIL, BE","FM-15","EBWM ","V020","030,1,N,0026,1","05700,1,C,N","005000,1,N,1","+0130,1","+0110,1","99999,9","04,5,+00390,1,99,9","07,5,+05700,1,99,9",,"07,99,1,99,9,99,9,99999,9,99,9,99,9","10220,1,99999,9","10,1",,,"MET079METAR EBWM 150925Z 03005KT 5000 BR SCT013 BKN190 13/11 Q1022 GRN GRN BECMG GRN;",
"06450599999","2010-06-15T09:49:00","4","50.8833333","4.5166666","58.0","BRUSSELLS MIL, BE","FM-16","EBWM ","V020","030,1,N,0021,1","00390,1,C,N","005000,1,N,1","+0130,1","+0100,1","99999,9","02,5,+00150,1,99,9","04,5,+00390,1,99,9","07,5,+05700,1,99,9","07,99,1,99,9,99,9,99999,9,99,9,99,9","10220,1,99999,9","10,1",,,"MET086SPECI EBWM 150949Z 03004KT 5000 BR FEW005 SCT013 BKN190 13/10 Q1022 GRN GRN TEMPO YLO;",
"06450599999","2010-06-15T10:13:00","4","50.8833333","4.5166666","58.0","BRUSSELLS MIL, BE","FM-16","EBWM ","V020","020,1,N,0021,1","00390,1,C,N","005000,1,N,1","+0120,1","+0100,1","99999,9","04,5,+00150,1,99,9","07,5,+00390,1,99,9",,"07,99,1,99,9,99,9,99999,9,99,9,99,9","10220,1,99999,9","10,1",,,"MET079SPECI EBWM 151013Z 02004KT 5000 BR SCT005 BKN013 12/10 Q1022 YLO GRN TEMPO YLO;",
"06450599999","2010-06-15T10:25:00","4","50.8833333","4.5166666","58.0","BRUSSELLS MIL, BE","FM-15","EBWM ","V020","040,1,N,0015,1","00360,1,C,N","004800,1,N,1","+0120,1","+0100,1","99999,9","04,5,+00150,1,99,9","07,5,+00360,1,99,9",,"07,99,1,99,9,99,9,99999,9,99,9,99,9","10220,1,99999,9","10,1",,,"MET079METAR EBWM 151025Z 04003KT 4800 BR SCT005 BKN012 12/10 Q1022 YLO GRN TEMPO YLO;",
"06450599999","2010-06-15T11:00:00","4","50.8833333","4.5166666","58.0","BRUSSELLS MIL, BE","FM-15","EBWM ","V020","030,1,N,0021,1","00210,1,C,N","005000,1,N,1","+0120,1","+0100,1","99999,9","04,5,+00150,1,99,9","07,5,+00210,1,99,9",,"07,99,1,99,9,99,9,99999,9,99,9,99,9","10210,1,99999,9","10,1",,,"MET079METAR EBWM 151055Z 03004KT 5000 BR SCT005 BKN007 12/10 Q1021 YLO GRN TEMPO YLO;",
"06450599999","2010-06-15T11:09:00","4","50.8833333","4.5166666","58.0","BRUSSELLS MIL, BE","FM-16","EBWM ","V020","030,1,N,0026,1","00210,1,C,N","005000,1,N,1","+0120,1","+0100,1","99999,9","02,5,+00150,1,99,9","07,5,+00210,1,99,9",,"07,99,1,99,9,99,9,99999,9,99,9,99,9","10210,1,99999,9","10,1",,,"MET079SPECI EBWM 151109Z 03005KT 5000 BR FEW005 BKN007 12/10 Q1021 GRN GRN BECMG WHT;",
"06450599999","2010-06-15T12:00:00","4","50.8833333","4.5166666","58.0","BRUSSELLS MIL, BE","FM-15","EBWM ","V020","040,1,N,0041,1","00450,1,C,N","009000,1,N,1","+0140,1","+0100,1","99999,9","02,5,+00300,1,99,9","04,5,+00450,1,99,9","07,5,+05700,1,99,9","07,99,1,99,9,99,9,99999,9,99,9,99,9","10210,1,99999,9",,,,"MET083METAR EBWM 151156Z 04008KT 9000 FEW010 SCT015 BKN190 14/10 Q1021 WHT WHT TEMPO BLU;",
"06450599999","2010-06-15T12:25:00","4","50.8833333","4.5166666","58.0","BRUSSELLS MIL, BE","FM-15","EBWM ","V020","040,1,N,0026,1","05700,1,C,N","011265,1,N,1","+0150,1","+0100,1","99999,9","02,5,+00450,1,99,9","07,5,+05700,1,99,9",,"07,99,1,99,9,99,9,99999,9,99,9,99,9","10220,1,99999,9",,,,"MET066METAR EBWM 151225Z 04005KT 9999 FEW015 BKN190 15/10 Q1022 BLU BLU;",
"06450599999","2010-06-15T13:00:00","4","50.8833333","4.5166666","58.0","BRUSSELLS MIL, BE","FM-15","EBWM ","V020","040,1,N,0036,1","00750,1,C,N","011265,1,N,1","+0160,1","+0100,1","99999,9","02,5,+00570,1,99,9","04,5,+00750,1,99,9","07,5,+05700,1,99,9","07,99,1,99,9,99,9,99999,9,99,9,99,9","10220,1,99999,9",,,,"MET073METAR EBWM 151255Z 04007KT 9999 FEW019 SCT025 BKN190 16/10 Q1022 BLU BLU;",
"06450599999","2010-06-15T13:25:00","4","50.8833333","4.5166666","58.0","BRUSSELLS MIL, BE","FM-15","EBWM ","V020","040,1,N,0031,1","99999,9,C,N","011265,1,N,1","+0160,1","+0100,1","99999,9","02,5,+00660,1,99,9","04,5,+00900,1,99,9",,"04,99,1,99,9,99,9,99999,9,99,9,99,9","10220,1,99999,9",,,,"MET066METAR EBWM 151325Z 04006KT 9999 FEW022 SCT030 16/10 Q1022 BLU BLU;","P01 009003SCOCIG"
"06450599999","2010-06-15T14:00:00","4","50.8833333","4.5166666","58.0","BRUSSELLS MIL, BE","FM-15","EBWM ","V020","040,1,N,0031,1","99999,9,C,N","011265,1,N,1","+0160,1","+0090,1","99999,9","02,5,+00750,1,99,9","04,5,+00960,1,99,9",,"04,99,1,99,9,99,9,99999,9,99,9,99,9","10220,1,99999,9",,,,"MET066METAR EBWM 151355Z 04006KT 9999 FEW025 SCT032 16/09 Q1022 BLU BLU;","P01 009603SCOCIG"
"06450599999","2010-06-15T14:25:00","4","50.8833333","4.5166666","58.0","BRUSSELLS MIL, BE","FM-15","EBWM ","V020","040,1,N,0041,1","06000,5,9,N","999999,9,N,1","+0160,1","+0090,1","99999,9","04,5,+01200,5,99,9","07,5,+06000,5,99,9",,,"10210,1,99999,9",,,,"MET061METAR EBWM 151425Z 04008KT SCT040 BKN200 16/09 Q1021 BLU BLU;",
"06450599999","2010-06-15T15:25:00","4","50.8833333","4.5166666","58.0","BRUSSELLS MIL, BE","FM-15","EBWM ","V020","040,1,N,0036,1","99999,9,C,N","011265,1,N,1","+0160,1","+0090,1","99999,9","02,5,+00900,1,99,9","04,5,+06000,1,99,9",,"04,99,1,99,9,99,9,99999,9,99,9,99,9","10210,1,99999,9",,,"0087,1","MET077METAR EBWM 151525Z 04007G17KT 9999 FEW030 SCT200 16/09 Q1021 BLU FCST CANCEL;","P01 060003SCOCIG"
"06450599999","2010-06-16T07:00:00","4","50.8833333","4.5166666","58.0","BRUSSELLS MIL, BE","FM-15","EBWM ","V020","050,1,N,0041,1","22000,1,9,N","011265,1,N,1","+0110,1","+0070,1","99999,9","04,5,+06300,1,99,9",,,"04,99,1,99,9,99,9,99999,9,99,9,99,9","10200,1,99999,9",,,,"MET059METAR EBWM 160655Z 05008KT 9999 SCT210 11/07 Q1020 BLU BLU;",
"06450599999","2010-06-16T07:27:00","4","50.8833333","4.5166666","58.0","BRUSSELLS MIL, BE","FM-15","EBWM ","V020","040,1,N,0041,1","22000,1,9,N","011265,1,N,1","+0120,1","+0070,1","99999,9","04,5,+06300,1,99,9",,,"04,99,1,99,9,99,9,99999,9,99,9,99,9","10190,1,99999,9",,,,"MET059METAR EBWM 160727Z 04008KT 9999 SCT210 12/07 Q1019 BLU BLU;",
"06450599999","2010-06-16T08:00:00","4","50.8833333","4.5166666","58.0","BRUSSELLS MIL, BE","FM-15","EBWM ","V020","050,1,N,0036,1","99999,9,C,N","011265,1,N,1","+0130,1","+0070,1","99999,9","02,5,+00990,1,99,9","04,5,+06300,1,99,9",,"04,99,1,99,9,99,9,99999,9,99,9,99,9","10190,1,99999,9",,,,"MET066METAR EBWM 160755Z 05007KT 9999 FEW033 SCT210 13/07 Q1019 BLU BLU;","P01 063003SCOCIG"
"06450599999","2010-06-16T08:25:00","4","50.8833333","4.5166666","58.0","BRUSSELLS MIL, BE","FM-15","EBWM ","V020","040,1,N,0041,1","06300,5,9,N","999999,9,N,1","+0140,1","+0070,1","99999,9","02,5,+00780,5,99,9","07,5,+06300,5,99,9",,,"10190,1,99999,9",,,,"MET061METAR EBWM 160825Z 04008KT FEW026 BKN210 14/07 Q1019 BLU BLU;",
"06450599999","2010-06-16T09:00:00","4","50.8833333","4.5166666","58.0","BRUSSELLS MIL, BE","FM-15","EBWM ","V020","040,1,N,0051,1","05400,1,C,N","011265,1,N,1","+0150,1","+0050,1","99999,9","07,5,+05400,1,99,9",,,"07,99,1,99,9,99,9,99999,9,99,9,99,9","10190,1,99999,9",,,"0129,1","MET062METAR EBWM 160855Z 04010G25KT 9999 BKN180 15/05 Q1019 BLU BLU;",
"06450599999","2010-06-16T09:25:00","4","50.8833333","4.5166666","58.0","BRUSSELLS MIL, BE","FM-15","EBWM ","V020","050,1,N,0051,1","05400,1,C,N","011265,1,N,1","+0150,1","+0050,1","99999,9","02,5,+03600,1,99,9","07,5,+05400,1,99,9",,"07,99,1,99,9,99,9,99999,9,99,9,99,9","10190,1,99999,9",,,,"MET066METAR EBWM 160925Z 05010KT 9999 FEW120 BKN180 15/05 Q1019 BLU BLU;",
"06450599999","2010-06-16T10:00:00","4","50.8833333","4.5166666","58.0","BRUSSELLS MIL, BE","FM-15","EBWM ","V020","040,1,N,0041,1","05100,5,9,N","999999,9,N,1","+0150,1","+0050,1","99999,9","07,5,+05100,5,99,9",,,,"10190,1,99999,9",,,"0098,1","MET057METAR EBWM 160955Z 04008G19KT BKN170 15/05 Q1019 BLU BLU;",
"06450599999","2010-06-16T10:25:00","4","50.8833333","4.5166666","58.0","BRUSSELLS MIL, BE","FM-15","EBWM ","V020","050,1,N,0041,1","05700,1,C,N","011265,1,N,1","+0160,1","+0050,1","99999,9","07,5,+05700,1,99,9",,,"07,99,1,99,9,99,9,99999,9,99,9,99,9","10190,1,99999,9",,,,"MET059METAR EBWM 161025Z 05008KT 9999 BKN190 16/05 Q1019 BLU BLU;",
"06450599999","2010-06-16T11:00:00","4","50.8833333","4.5166666","58.0","BRUSSELLS MIL, BE","FM-15","EBWM ","V020","050,1,N,0051,1","06000,1,C,N","011265,1,N,1","+0160,1","+0040,1","99999,9","07,5,+06000,1,99,9",,,"07,99,1,99,9,99,9,99999,9,99,9,99,9","10190,1,99999,9",,,,"MET059METAR EBWM 161055Z 05010KT 9999 BKN200 16/04 Q1019 BLU BLU;",
"06450599999","2010-06-16T11:25:00","4","50.8833333","4.5166666","58.0","BRUSSELLS MIL, BE","FM-15","EBWM ","V020","040,1,N,0051,1","05400,1,C,N","011265,1,N,1","+0170,1","+0050,1","99999,9","07,5,+05400,1,99,9",,,"07,99,1,99,9,99,9,99999,9,99,9,99,9","10190,1,99999,9",,,"0123,1","MET062METAR EBWM 161125Z 04010G24KT 9999 BKN180 17/05 Q1019 BLU BLU;",
"06450599999","2010-06-16T12:00:00","4","50.8833333","4.5166666","58.0","BRUSSELLS MIL, BE","FM-15","EBWM ","V020","040,1,N,0051,1","05400,1,C,N","011265,1,N,1","+0170,1","+0050,1","99999,9","07,5,+05400,1,99,9",,,"07,99,1,99,9,99,9,99999,9,99,9,99,9","10190,1,99999,9",,,"0103,1","MET062METAR EBWM 161155Z 04010G20KT 9999 BKN180 17/05 Q1019 BLU BLU;",
"06450599999","2010-06-16T12:25:00","4","50.8833333","4.5166666","58.0","BRUSSELLS MIL, BE","FM-15","EBWM ","V020","050,1,N,0051,1","06000,1,C,N","011265,1,N,1","+0180,1","+0040,1","99999,9","07,5,+06000,1,99,9",,,"07,99,1,99,9,99,9,99999,9,99,9,99,9","10180,1,99999,9",,,"0103,1","MET062METAR EBWM 161225Z 05010G20KT 9999 BKN200 18/04 Q1018 BLU BLU;",
"06450599999","2010-06-16T13:00:00","4","50.8833333","4.5166666","58.0","BRUSSELLS MIL, BE","FM-15","EBWM ","V020","050,1,N,0051,1","06000,1,C,N","011265,1,N,1","+0180,1","+0040,1","99999,9","07,5,+06000,1,99,9",,,"07,99,1,99,9,99,9,99999,9,99,9,99,9","10180,1,99999,9",,,"0108,1","MET062METAR EBWM 161255Z 05010G21KT 9999 BKN200 18/04 Q1018 BLU BLU;",
"06450599999","2010-06-16T13:25:00","4","50.8833333","4.5166666","58.0","BRUSSELLS MIL, BE","FM-15","EBWM ","V020","050,1,N,0051,1","06000,1,C,N","011265,1,N,1","+0190,1","+0040,1","99999,9","07,5,+06000,1,99,9",,,"07,99,1,99,9,99,9,99999,9,99,9,99,9","10180,1,99999,9",,,,"MET059METAR EBWM 161325Z 05010KT 9999 BKN200 19/04 Q1018 BLU BLU;",
"06450599999","2010-06-16T14:00:00","4","50.8833333","4.5166666","58.0","BRUSSELLS MIL, BE","FM-15","EBWM ","V020","040,1,N,0051,1","06300,1,C,N","011265,1,N,1","+0190,1","+0040,1","99999,9","07,5,+06300,1,99,9",,,"07,99,1,99,9,99,9,99999,9,99,9,99,9","10180,1,99999,9",,,"0108,1","MET062METAR EBWM 161355Z 04010G21KT 9999 BKN210 19/04 Q1018 BLU BLU;",
"06450599999","2010-06-16T14:25:00","4","50.8833333","4.5166666","58.0","BRUSSELLS MIL, BE","FM-15","EBWM ","V020","050,1,N,0051,1","05400,1,C,N","011265,1,N,1","+0190,1","+0030,1","99999,9","07,5,+05400,1,99,9",,,"07,99,1,99,9,99,9,99999,9,99,9,99,9","10180,1,99999,9",,,"0118,1","MET062METAR EBWM 161425Z 05010G23KT 9999 BKN180 19/03 Q1018 BLU BLU;",
"06450599999","2010-06-16T15:00:00","4","50.8833333","4.5166666","58.0","BRUSSELLS MIL, BE","FM-15","EBWM ","V020","040,1,N,0051,1","05400,1,C,N","011265,1,N,1","+0190,1","+0030,1","99999,9","07,5,+05400,1,99,9",,,"07,99,1,99,9,99,9,99999,9,99,9,99,9","10180,1,99999,9",,,,"MET059METAR EBWM 161456Z 04010KT 9999 BKN180 19/03 Q1018 BLU BLU;",
"06450599999","2010-06-16T15:17:00","4","50.8833333","4.5166666","58.0","BRUSSELLS MIL, BE","FM-16","EBWM ","V020","040,1,N,0051,1","06000,1,C,N","011265,1,N,1","+0190,1","+0030,1","99999,9","07,5,+06000,1,99,9",,,"07,99,1,99,9,99,9,99999,9,99,9,99,9","10180,1,99999,9",,,,"MET059SPECI EBWM 161517Z 04010KT 9999 BKN200 19/03 Q1018 BLU BLU;",
"06450599999","2010-06-17T09:00:00","4","50.8833333","4.5166666","58.0","BRUSSELLS MIL, BE","FM-15","EBWM ","V020","050,1,N,0031,1","01650,5,C,N","011265,1,N,1","+0120,1","+0090,1","99999,9","02,5,+00540,1,99,9","07,5,+01650,5,99,9",,"07,99,1,99,9,99,9,99999,9,99,9,99,9","10169,1,99999,9","80,1",,,"MET082METAR EBWM 170855Z 05006KT 9999 -SHRA FEW018 BKN055 12/09 Q1017 BLU BLU BECMG WHT;",
"06450599999","2010-06-17T09:25:00","4","50.8833333","4.5166666","58.0","BRUSSELLS MIL, BE","FM-15","EBWM ","V020","050,1,N,0036,1","01050,1,C,N","009000,1,N,1","+0120,1","+0090,1","99999,9","02,5,+00660,1,99,9","04,5,+01050,1,99,9","07,5,+01500,1,99,9","07,99,1,99,9,99,9,99999,9,99,9,99,9","10169,1,99999,9","80,1",,,"MET089METAR EBWM 170925Z 05007KT 9000 -SHRA FEW022 SCT035 BKN050 12/09 Q1017 BLU BLU BECMG WHT;",
"06450599999","2010-06-17T10:00:00","4","50.8833333","4.5166666","58.0","BRUSSELLS MIL, BE","FM-15","EBWM ","V020","050,1,N,0041,1","00960,1,C,N","008000,1,N,1","+0110,1","+0090,1","99999,9","04,5,+00690,1,99,9","07,5,+00960,1,99,9","07,5,+01110,1,99,9","07,99,1,99,9,99,9,99999,9,99,9,99,9","10169,1,99999,9","80,1",,,"MET089SPECI EBWM 170958Z 05008KT 8000 -SHRA SCT023 BKN032 BKN037 11/09 Q1017 WHT WHT TEMPO GRN;",
"06450599999","2010-06-17T10:25:00","4","50.8833333","4.5166666","58.0","BRUSSELLS MIL, BE","FM-15","EBWM ","V020","050,1,N,0041,1","00810,1,C,N","007000,1,N,1","+0110,1","+0100,1","99999,9","02,5,+00450,1,99,9","07,5,+00810,1,99,9","07,5,+00990,1,99,9","07,99,1,99,9,99,9,99999,9,99,9,99,9","10169,1,99999,9","81,1",,,"MET088METAR EBWM 171025Z 05008KT 7000 SHRA FEW015 BKN027 BKN033 11/10 Q1017 WHT WHT TEMPO GRN;",
"06450599999","2010-06-17T10:29:00","4","50.8833333","4.5166666","58.0","BRUSSELLS MIL, BE","FM-16","EBWM ","V020","040,1,N,0041,1","00840,1,C,N","006000,1,N,1","+0100,1","+0100,1","99999,9","04,5,+00390,1,99,9","07,5,+00840,1,99,9","07,5,+00990,1,99,9","07,99,1,99,9,99,9,99999,9,99,9,99,9","10169,1,99999,9","81,1",,,"MET088SPECI EBWM 171029Z 04008KT 6000 SHRA SCT013 BKN028 BKN033 10/10 Q1017 GRN GRN TEMPO YLO;",
"06450599999","2010-06-17T11:00:00","4","50.8833333","4.5166666","58.0","BRUSSELLS MIL, BE","FM-15","EBWM ","V020","040,1,N,0046,1","00300,1,C,N","006000,1,N,1","+0110,1","+0100,1","99999,9","02,5,+00180,1,99,9","04,5,+00300,1,99,9","07,5,+00900,1,99,9","07,99,1,99,9,99,9,99999,9,99,9,99,9","10169,1,99999,9",,,,"MET083METAR EBWM 171055Z 04009KT 6000 FEW006 SCT010 BKN030 11/10 Q1017 GRN GRN TEMPO YLO;",
"06450599999","2010-06-17T11:25:00","4","50.8833333","4.5166666","58.0","BRUSSELLS MIL, BE","FM-15","EBWM ","V020","050,1,N,0046,1","00690,1,C,N","011265,1,N,1","+0110,1","+0100,1","99999,9","02,5,+00180,1,99,9","04,5,+00690,1,99,9","07,5,+00960,1,99,9","07,99,1,99,9,99,9,99999,9,99,9,99,9","10169,1,99999,9",,,,"MET083METAR EBWM 171125Z 05009KT 9999 FEW006 SCT023 BKN032 11/10 Q1017 WHT WHT TEMPO GRN;",
"06450599999","2010-06-17T11:43:00","4","50.8833333","4.5166666","58.0","BRUSSELLS MIL, BE","FM-16","EBWM ","V020","040,1,N,0036,1","00360,1,C,N","011265,1,N,1","+0110,1","+0100,1","99999,9","02,5,+00210,1,99,9","04,5,+00360,1,99,9","07,5,+01080,1,99,9","07,99,1,99,9,99,9,99999,9,99,9,99,9","10169,1,99999,9",,,,"MET083SPECI EBWM 171143Z 04007KT 9999 FEW007 SCT012 BKN036 11/10 Q1017 GRN GRN TEMPO YLO;",
"06450599999","2010-06-17T12:00:00","4","50.8833333","4.5166666","58.0","BRUSSELLS MIL, BE","FM-15","EBWM ","V020","050,1,N,0036,1","00450,1,C,N","011265,1,N,1","+0120,1","+0100,1","99999,9","04,5,+00330,1,99,9","07,5,+00450,1,99,9","07,5,+00660,1,99,9","07,99,1,99,9,99,9,99999,9,99,9,99,9","10169,1,99999,9",,,,"MET083METAR EBWM 171155Z 05007KT 9999 SCT011 BKN015 BKN022 12/10 Q1017 GRN GRN TEMPO YLO;",
"06450599999","2010-06-17T12:25:00","4","50.8833333","4.5166666","58.0","BRUSSELLS MIL, BE","FM-15","EBWM ","V020","050,1,N,0036,1","00330,1,C,N","011265,1,N,1","+0120,1","+0100,1","99999,9","07,5,+00330,1,99,9","07,5,+00450,1,99,9",,"07,99,1,99,9,99,9,99999,9,99,9,99,9","10169,1,99999,9",,,,"MET076METAR EBWM 171225Z 05007KT 9999 BKN011 BKN015 12/10 Q1017 GRN GRN TEMPO YLO;",
"06450599999","2010-06-17T12:51:00","4","50.8833333","4.5166666","58.0","BRUSSELLS MIL, BE","FM-16","EBWM ","V020","050,1,N,0046,1","00330,1,C,N","011265,1,N,1","+0110,1","+0090,1","99999,9","08,5,+00330,1,99,9",,,"08,99,1,99,9,99,9,99999,9,99,9,99,9","10169,1,99999,9",,,,"MET067SPECI EBWM 171251Z 05009KT 9999 OVC011 11/09 Q1017 GRN FCST CANCEL;",
"06450599999","2010-06-18T07:00:00","4","50.8833333","4.5166666","58.0","BRUSSELLS MIL, BE","FM-15","EBWM ","V020","030,1,N,0010,1","22000,1,9,N","006000,1,N,1","+0130,1","+0100,1","99999,9","02,5,+00210,1,99,9",,,"02,99,1,99,9,99,9,99999,9,99,9,99,9","10159,1,99999,9",,,,"MET069METAR EBWM 180655Z 03002KT 6000 FEW007 13/10 Q1016 WHT WHT BECMG BLU;",
"06450599999","2010-06-18T07:25:00","4","50.8833333","4.5166666","58.0","BRUSSELLS MIL, BE","FM-15","EBWM ","V020","240,1,N,0010,1","22000,1,9,N","006000,1,N,1","+0140,1","+0100,1","99999,9","02,5,+00210,1,99,9",,,"02,99,1,99,9,99,9,99999,9,99,9,99,9","10149,1,99999,9",,,,"MET069METAR EBWM 180725Z 24002KT 6000 FEW007 14/10 Q1015 WHT WHT BECMG BLU;",
"06450599999","2010-06-18T07:42:00","4","50.8833333","4.5166666","58.0","BRUSSELLS MIL, BE","FM-16","EBWM ","V020","330,1,N,0010,1","22000,1,9,N","008000,1,N,1","+0150,1","+0100,1","99999,9","02,5,+00240,1,99,9",,,"02,99,1,99,9,99,9,99999,9,99,9,99,9","10159,1,99999,9",,,,"MET059SPECI EBWM 180742Z 33002KT 8000 FEW008 15/10 Q1016 BLU BLU;",
"06450599999","2010-06-18T08:00:00","4","50.8833333","4.5166666","58.0","BRUSSELLS MIL, BE","FM-15","EBWM ","V020","310,1,N,0010,1","22000,1,9,N","008000,1,N,1","+0150,1","+0110,1","99999,9","02,5,+00240,1,99,9",,,"02,99,1,99,9,99,9,99999,9,99,9,99,9","10149,1,99999,9",,,,"MET059METAR EBWM 180755Z 31002KT 8000 FEW008 15/11 Q1015 BLU BLU;",
"06450599999","2010-06-18T08:25:00","4","50.8833333","4.5166666","58.0","BRUSSELLS MIL, BE","FM-15","EBWM ","V020","350,1,N,0015,1","99999,9,C,N","007000,1,N,1","+0130,1","+0100,1","99999,9","02,5,+00150,1,99,9","04,5,+00240,1,99,9",,"04,99,1,99,9,99,9,99999,9,99,9,99,9","10159,1,99999,9",,,,"MET076METAR EBWM 180825Z 35003KT 7000 FEW005 SCT008 13/10 Q1016 GRN GRN BECMG WHT;","P01 002403SCOCIG"
"06450599999","2010-09-20T10:00:00","4","50.8833333","4.5166666","58.0","BRUSSELLS MIL, BE","FM-15","EBWM ","V020","210,1,N,0021,1","22000,1,9,N","011265,1,N,1","+0180,1","+0070,1","99999,9","02,5,+04200,1,99,9",,,"02,99,1,99,9,99,9,99999,9,99,9,99,9","10169,1,99999,9",,,,"MET067METAR EBWM 200956Z 21004KT 080V300 9999 FEW140 18/07 Q1017 BLU BLU;",
"06450599999","2010-09-20T10:28:00","4","50.8833333","4.5166666","58.0","BRUSSELLS MIL, BE","FM-16","EBWM ","V020","230,1,N,0026,1","07500,5,9,N","001900,1,N,1","+0180,1","+0070,1","99999,9","02,5,+04200,5,99,9","04,5,+07500,5,99,9",,,"10170,1,99999,9",,,,"MET074METAR EBWM 201028Z 23005KT 19004KT 9999 FEW140 SCT250 18/07 Q1017 BLU BLU;",
"06450599999","2010-09-20T11:00:00","4","50.8833333","4.5166666","58.0","BRUSSELLS MIL, BE","FM-15","EBWM ","V020","220,1,N,0026,1","99999,9,C,N","011265,1,N,1","+0190,1","+0080,1","99999,9","02,5,+01200,1,99,9","04,5,+07500,1,99,9",,"04,99,1,99,9,99,9,99999,9,99,9,99,9","10169,1,99999,9",,,,"MET066METAR EBWM 201059Z 22005KT 9999 FEW040 SCT250 19/08 Q1017 BLU BLU;","P01 075003SCOCIG"
"06450599999","2010-09-20T11:28:00","4","50.8833333","4.5166666","58.0","BRUSSELLS MIL, BE","FM-15","EBWM ","V020","230,1,N,0031,1","99999,9,C,N","011265,1,N,1","+0190,1","+0070,1","99999,9","02,5,+01050,1,99,9","04,5,+07500,1,99,9",,"04,99,1,99,9,99,9,99999,9,99,9,99,9","10169,1,99999,9",,,,"MET058METAR EBWM 201128Z 23006KT 9999 FEW035 SCT250 19/07 Q1017;","P01 075003SCOCIG"
"06450599999","2010-09-20T12:00:00","4","50.8833333","4.5166666","58.0","BRUSSELLS MIL, BE","FM-15","EBWM ","V020","230,1,N,0031,1","07500,1,C,N","011265,1,N,1","+0190,1","+0070,1","99999,9","02,5,+01110,1,99,9","07,5,+07500,1,99,9",,"07,99,1,99,9,99,9,99999,9,99,9,99,9","10169,1,99999,9",,,,"MET066METAR EBWM 201158Z 23006KT 9999 FEW037 BKN250 19/07 Q1017 BLU BLU;",
"06450599999","2010-09-20T13:00:00","4","50.8833333","4.5166666","58.0","BRUSSELLS MIL, BE","FM-15","EBWM ","V020","220,1,N,0026,1","07500,1,C,N","011265,1,N,1","+0200,1","+0060,1","99999,9","02,5,+04200,1,99,9","07,5,+07500,1,99,9",,"07,99,1,99,9,99,9,99999,9,99,9,99,9","10159,1,99999,9",,,,"MET066METAR EBWM 201258Z 22005KT 9999 FEW140 BKN250 20/06 Q1016 BLU BLU;",
"06450599999","2010-09-20T13:27:00","4","50.8833333","4.5166666","58.0","BRUSSELLS MIL, BE","FM-15","EBWM ","V020","230,1,N,0026,1","07500,1,C,N","011265,1,N,1","+0200,1","+0070,1","99999,9","02,5,+04200,1,99,9","07,5,+07500,1,99,9",,"07,99,1,99,9,99,9,99999,9,99,9,99,9","10159,1,99999,9",,,,"MET066METAR EBWM 201327Z 23005KT 9999 FEW140 BKN250 20/07 Q1016 BLU BLU;",
"06450599999","2010-09-20T14:00:00","4","50.8833333","4.5166666","58.0","BRUSSELLS MIL, BE","FM-16","EBWM ","V020","240,1,N,0026,1","07500,1,C,N","011265,1,N,1","+0200,1","+0070,1","99999,9","02,5,+04200,1,99,9","07,5,+07500,1,99,9",,"07,99,1,99,9,99,9,99999,9,99,9,99,9","10159,1,99999,9",,,,"MET074SPECI EBWM 201400Z 24005KT 9999 FEW140 BKN250 20/07 Q1016 BLU FCST CANCEL;",
"06450599999","2010-09-21T06:16:00","4","50.8833333","4.5166666","58.0","BRUSSELLS MIL, BE","FM-16","EBWM ","V020","999,9,C,0000,1","22000,1,9,N","003500,1,N,1","+0060,1","+0060,1","99999,9","02,5,+05700,1,99,9",,,"02,99,1,99,9,99,9,99999,9,99,9,99,9","10200,1,99999,9","10,1",,,"MET072SPECI EBWM 210616Z 00000KT 3500 BR FEW190 06/06 Q1020 YLO GRN BECMG WHT;",
"06450599999","2010-09-21T06:27:00","4","50.8833333","4.5166666","58.0","BRUSSELLS MIL, BE","FM-15","EBWM ","V020","999,9,C,0000,1","22000,1,9,N","004500,1,N,1","+0070,1","+0060,1","99999,9","02,5,+05700,1,99,9",,,"02,99,1,99,9,99,9,99999,9,99,9,99,9","10200,1,99999,9","10,1",,,"MET072METAR EBWM 210627Z 00000KT 4500 BR FEW190 07/06 Q1020 GRN WHT BECMG WHT;",
"06450599999","2010-09-21T06:37:00","4","50.8833333","4.5166666","58.0","BRUSSELLS MIL, BE","FM-16","EBWM ","V020","999,9,C,0000,1","22000,1,9,N","005000,1,N,1","+0070,1","+0070,1","99999,9","02,5,+05700,1,99,9",,,"02,99,1,99,9,99,9,99999,9,99,9,99,9","10200,1,99999,9","10,1",,,"MET072SPECI EBWM 210637Z 00000KT 5000 BR FEW190 07/07 Q1020 WHT WHT BECMG BLU;",
"06450599999","2010-09-21T07:00:00","4","50.8833333","4.5166666","58.0","BRUSSELLS MIL, BE","FM-15","EBWM ","V020","999,9,C,0000,1","22000,1,9,N","007000,1,N,1","+0080,1","+0080,1","99999,9","02,5,+05700,1,99,9",,,"02,99,1,99,9,99,9,99999,9,99,9,99,9","10200,1,99999,9",,,,"MET069METAR EBWM 210657Z 00000KT 7000 FEW190 08/08 Q1020 WHT WHT BECMG BLU;",
"06450599999","2010-09-21T07:05:00","4","50.8833333","4.5166666","58.0","BRUSSELLS MIL, BE","FM-16","EBWM ","V020","999,9,C,0000,1","22000,1,9,N","008000,1,N,1","+0090,1","+0080,1","99999,9","02,5,+05700,1,99,9",,,"02,99,1,99,9,99,9,99999,9,99,9,99,9","10200,1,99999,9",,,,"MET059SPECI EBWM 210705Z 00000KT 8000 FEW190 09/08 Q1020 BLU BLU;",
"06450599999","2010-09-21T07:26:00","4","50.8833333","4.5166666","58.0","BRUSSELLS MIL, BE","FM-16","EBWM ","V020","999,9,C,0000,1","22000,1,9,N","011265,1,N,1","+0100,1","+0090,1","99999,9","02,5,+05700,5,99,9",,,,"10210,1,99999,9",,,,"MET059METAR EBWM 210726Z 00000KT FEW190 9999 10/09 Q1021 BLU BLU;",
"06450599999","2010-09-21T08:00:00","4","50.8833333","4.5166666","58.0","BRUSSELLS MIL, BE","FM-15","EBWM ","V020","999,9,C,0000,1","22000,1,9,N","011265,1,N,1","+0110,1","+0080,1","99999,9","02,5,+05700,1,99,9",,,"02,99,1,99,9,99,9,99999,9,99,9,99,9","10210,1,99999,9",,,,"MET059METAR EBWM 210759Z 00000KT 9999 FEW190 11/08 Q1021 BLU BLU;",
"06450599999","2010-09-21T08:28:00","4","50.8833333","4.5166666","58.0","BRUSSELLS MIL, BE","FM-16","EBWM ","V020","999,9,C,0000,1","22000,1,9,N","011265,1,N,1","+9999,9","+9999,9","99999,9","02,1,+00330,1,99,9",,,"02,99,1,99,9,99,9,99999,9,99,9,99,9","10210,1,99999,9",,,,"MET057METAR EBWM 210828Z 00000KT 9999 FEW0114/09 Q1021 BLU BLU;",
"06450599999","2010-09-21T09:00:00","4","50.8833333","4.5166666","58.0","BRUSSELLS MIL, BE","FM-15","EBWM ","V020","999,9,V,0005,1","22000,1,9,N","011265,1,N,1","+0160,1","+0100,1","99999,9","02,5,+00540,1,99,9",,,"02,99,1,99,9,99,9,99999,9,99,9,99,9","10210,1,99999,9",,,,"MET059METAR EBWM 210857Z VRB01KT 9999 FEW018 16/10 Q1021 BLU BLU;",
"06450599999","2010-09-21T09:28:00","4","50.8833333","4.5166666","58.0","BRUSSELLS MIL, BE","FM-15","EBWM ","V020","999,9,C,0000,1","22000,1,9,N","011265,1,N,1","+0170,1","+0120,1","99999,9","02,5,+00540,1,99,9",,,"02,99,1,99,9,99,9,99999,9,99,9,99,9","10210,1,99999,9",,,,"MET059METAR EBWM 210928Z 00000KT 9999 FEW018 17/12 Q1021 BLU BLU;",
"06450599999","2010-09-21T10:00:00","4","50.8833333","4.5166666","58.0","BRUSSELLS MIL, BE","FM-15","EBWM ","V020","060,1,N,0005,1","22000,1,9,N","011265,1,N,1","+0180,1","+0120,1","99999,9","02,5,+00630,1,99,9",,,"02,99,1,99,9,99,9,99999,9,99,9,99,9","10210,1,99999,9",,,,"MET059METAR EBWM 210957Z 06001KT 9999 FEW021 18/12 Q1021 BLU BLU;",
"06450599999","2010-09-21T10:27:00","4","50.8833333","4.5166666","58.0","BRUSSELLS MIL, BE","FM-15","EBWM ","V020","020,1,N,0015,1","22000,1,9,N","011265,1,N,1","+0190,1","+0120,1","99999,9","02,5,+00720,1,99,9",,,"02,99,1,99,9,99,9,99999,9,99,9,99,9","10210,1,99999,9",,,,"MET059METAR EBWM 211027Z 02003KT 9999 FEW024 19/12 Q1021 BLU BLU;",
"06450599999","2010-09-21T11:00:00","4","50.8833333","4.5166666","58.0","BRUSSELLS MIL, BE","FM-15","EBWM ","V020","999,9,V,0010,1","22000,1,9,N","011265,1,N,1","+0200,1","+0120,1","99999,9","02,5,+00810,1,99,9",,,"02,99,1,99,9,99,9,99999,9,99,9,99,9","10210,1,99999,9",,,,"MET059METAR EBWM 211057Z VRB02KT 9999 FEW027 20/12 Q1021 BLU BLU;",
"06450599999","2010-09-21T11:27:00","4","50.8833333","4.5166666","58.0","BRUSSELLS MIL, BE","FM-15","EBWM ","V020","070,1,N,0015,1","22000,1,9,N","011265,1,N,1","+0200,1","+0110,1","99999,9","02,5,+01140,1,99,9",,,"02,99,1,99,9,99,9,99999,9,99,9,99,9","10210,1,99999,9",,,,"MET059METAR EBWM 211127Z 07003KT 9999 FEW038 20/11 Q1021 BLU BLU;",
"06450599999","2010-09-21T12:00:00","4","50.8833333","4.5166666","58.0","BRUSSELLS MIL, BE","FM-15","EBWM ","V020","070,1,N,0015,1","22000,1,9,N","011265,1,N,1","+0210,1","+0100,1","99999,9","02,5,+01110,1,99,9",,,"02,99,1,99,9,99,9,99999,9,99,9,99,9","10200,1,99999,9",,,,"MET059METAR EBWM 211156Z 07003KT 9999 FEW037 21/10 Q1020 BLU BLU;",
"06450599999","2010-09-21T12:27:00","4","50.8833333","4.5166666","58.0","BRUSSELLS MIL, BE","FM-15","EBWM ","V020","030,1,N,0015,1","22000,1,9,N","011265,1,N,1","+0210,1","+0100,1","99999,9",,,,"00,99,1,99,9,99,9,99999,9,99,9,99,9","10200,1,99999,9",,,,"MET064METAR EBWM 211227Z 03003KT 270V100 9999 NCD 21/10 Q1020 BLU BLU;","Q01    003SCCGA1"
"06450599999","2010-09-21T12:29:00","4","50.8833333","4.5166666","58.0","BRUSSELLS MIL, BE","FM-15","EBWM ","V020","030,1,N,0015,1","22000,1,9,N","011265,1,N,1","+0210,1","+0100,1","99999,9","02,5,+01200,1,99,9",,,"02,99,1,99,9,99,9,99999,9,99,9,99,9","10200,1,99999,9",,,,"MET059METAR EBWM 211229Z 03003KT 9999 FEW040 21/10 Q1020 BLU BLU;",
"06450599999","2010-09-21T13:00:00","4","50.8833333","4.5166666","58.0","BRUSSELLS MIL, BE","FM-15","EBWM ","V020","320,1,N,0010,1","22000,1,9,N","011265,1,N,1","+0220,1","+0090,1","99999,9","02,5,+01260,1,99,9",,,"02,99,1,99,9,99,9,99999,9,99,9,99,9","10200,1,99999,9",,,,"MET059METAR EBWM 211257Z 32002KT 9999 FEW042 22/09 Q1020 BLU BLU;",
"06450599999","2010-09-21T13:26:00","4","50.8833333","4.5166666","58.0","BRUSSELLS MIL, BE","FM-15","EBWM ","V020","999,9,V,0010,1","22000,1,9,N","011265,1,N,1","+0220,1","+0100,1","99999,9","02,5,+01260,1,99,9",,,"02,99,1,99,9,99,9,99999,9,99,9,99,9","10200,1,99999,9",,,,"MET059METAR EBWM 211326Z VRB02KT 9999 FEW042 22/10 Q1020 BLU BLU;",
"06450599999","2010-09-21T14:00:00","4","50.8833333","4.5166666","58.0","BRUSSELLS MIL, BE","FM-15","EBWM ","V020","030,1,N,0021,1","22000,1,9,N","011265,1,N,1","+0210,1","+0100,1","99999,9","02,5,+01140,1,99,9",,,"02,99,1,99,9,99,9,99999,9,99,9,99,9","10200,1,99999,9",,,,"MET059METAR EBWM 211357Z 03004KT 9999 FEW038 21/10 Q1020 BLU BLU;",
"06450599999","2010-09-21T14:29:00","4","50.8833333","4.5166666","58.0","BRUSSELLS MIL, BE","FM-15","EBWM ","V020","050,1,N,0010,1","22000,1,9,N","011265,1,N,1","+0210,1","+0090,1","99999,9","02,5,+01440,1,99,9",,,"02,99,1,99,9,99,9,99999,9,99,9,99,9","10200,1,99999,9",,,,"MET059METAR EBWM 211429Z 05002KT 9999 FEW048 21/09 Q1020 BLU BLU;",
"06450599999","2010-09-21T14:32:00","4","50.8833333","4.5166666","58.0","BRUSSELLS MIL, BE","FM-16","EBWM ","V020","050,1,N,0010,1","22000,1,9,N","011265,1,N,1","+0210,1","+0090,1","99999,9","02,5,+01440,1,99,9",,,"02,99,1,99,9,99,9,99999,9,99,9,99,9","10200,1,99999,9",,,,"MET067SPECI EBWM 211432Z 05002KT 9999 FEW048 21/09 Q1020 BLU FCST CANCEL;",
"06450599999","2010-09-22T07:00:00","4","50.8833333","4.5166666","58.0","BRUSSELLS MIL, BE","FM-15","EBWM ","V020","999,9,C,0000,1","22000,1,9,N","011265,1,N,1","+0090,1","+0090,1","99999,9","02,5,+06900,1,99,9",,,"02,99,1,99,9,99,9,99999,9,99,9,99,9","10200,1,99999,9",,,,"MET059METAR EBWM 220657Z 00000KT 9999 FEW230 09/09 Q1020 BLU BLU;",
"06450599999","2010-09-22T07:26:00","4","50.8833333","4.5166666","58.0","BRUSSELLS MIL, BE","FM-15","EBWM ","V020","999,9,C,0000,1","22000,1,9,N","011265,1,N,1","+0110,1","+0100,1","99999,9","02,5,+06900,1,99,9",,,"02,99,1,99,9,99,9,99999,9,99,9,99,9","10200,1,99999,9",,,,"MET059METAR EBWM 220726Z 00000KT 9999 FEW230 11/10 Q1020 BLU BLU;",
"06450599999","2010-09-22T08:00:00","4","50.8833333","4.5166666","58.0","BRUSSELLS MIL, BE","FM-15","EBWM ","V020","999,9,C,0000,1","22000,1,9,N","011265,1,N,1","+0120,1","+0090,1","99999,9","02,5,+06900,1,99,9",,,"02,99,1,99,9,99,9,99999,9,99,9,99,9","10200,1,99999,9",,,,"MET059METAR EBWM 220756Z 00000KT 9999 FEW230 12/09 Q1020 BLU BLU;",
"06450599999","2010-09-22T08:28:00","4","50.8833333","4.5166666","58.0","BRUSSELLS MIL, BE","FM-15","EBWM ","V020","999,9,C,0000,1","22000,1,9,N","011265,1,N,1","+0150,1","+0100,1","99999,9","02,5,+06900,1,99,9",,,"02,99,1,99,9,99,9,99999,9,99,9,99,9","10210,1,99999,9",,,,"MET059METAR EBWM 220828Z 00000KT 9999 FEW230 15/10 Q1021 BLU BLU;",
"06450599999","2010-09-22T09:00:00","4","50.8833333","4.5166666","58.0","BRUSSELLS MIL, BE","FM-15","EBWM ","V020","999,9,V,0005,1","22000,1,9,N","011265,1,N,1","+9999,9","+9999,9","99999,9","02,5,+06900,1,99,9",,,"02,99,1,99,9,99,9,99999,9,99,9,99,9","10210,1,99999,9",,,,"MET059METAR EBWM 220856Z VRB01KT 9999 FEW230 06/11 Q1021 BLU BLU;","Q01 +00603ATOT  "
"06450599999","2010-09-22T09:25:00","4","50.8833333","4.5166666","58.0","BRUSSELLS MIL, BE","FM-15","EBWM ","V020","999,9,V,0005,1","22000,1,9,N","011265,1,N,1","+0200,1","+0130,1","99999,9","02,5,+06900,1,99,9",,,"02,99,1,99,9,99,9,99999,9,99,9,99,9","10200,1,99999,9",,,,"MET059METAR EBWM 220925Z VRB01KT 9999 FEW230 20/13 Q1020 BLU BLU;",
"06450599999","2010-09-22T09:27:00","4","50.8833333","4.5166666","58.0","BRUSSELLS MIL, BE","FM-15","EBWM ","V020","360,1,N,0005,1","22000,1,9,N","011265,1,N,1","+0180,1","+0120,1","99999,9","02,5,+06900,1,99,9",,,"02,99,1,99,9,99,9,99999,9,99,9,99,9","10200,1,99999,9",,,,"MET059METAR EBWM 220927Z 36001KT 9999 FEW230 18/12 Q1020 BLU BLU;",
"06450599999","2010-09-22T10:31:00","4","50.8833333","4.5166666","58.0","BRUSSELLS MIL, BE","FM-15","EBWM ","V020","999,9,V,0010,1","22000,1,9,N","011265,1,N,1","+0210,1","+0140,1","99999,9","04,5,+06900,1,99,9",,,"04,99,1,99,9,99,9,99999,9,99,9,99,9","10200,1,99999,9",,,,"MET059METAR EBWM 221031Z VRB02KT 9999 SCT230 21/14 Q1020 BLU BLU;",
"06450599999","2010-09-22T11:00:00","4","50.8833333","4.5166666","58.0","BRUSSELLS MIL, BE","FM-15","EBWM ","V020","999,9,V,0010,1","22000,1,9,N","011265,1,N,1","+0230,1","+0130,1","99999,9","04,5,+06900,1,99,9",,,"04,99,1,99,9,99,9,99999,9,99,9,99,9","10200,1,99999,9",,,,"MET059METAR EBWM 221056Z VRB02KT 9999 SCT230 23/13 Q1020 BLU BLU;",
"06450599999","2010-09-22T12:28:00","4","50.8833333","4.5166666","58.0","BRUSSELLS MIL, BE","FM-15","EBWM ","V020","220,1,N,0021,1","99999,9,C,N","011265,1,N,1","+0240,1","+0100,1","99999,9","02,5,+01350,1,99,9","04,5,+06900,1,99,9",,"04,99,1,99,9,99,9,99999,9,99,9,99,9","10190,1,99999,9",,,,"MET066METAR EBWM 221228Z 22004KT 9999 FEW045 SCT230 24/10 Q1019 BLU BLU;","P01 069003SCOCIG"
"06450599999","2010-09-22T13:00:00","4","50.8833333","4.5166666","58.0","BRUSSELLS MIL, BE","FM-15","EBWM ","V020","210,1,N,0015,1","99999,9,C,N","011265,1,N,1","+0240,1","+0110,1","99999,9","02,5,+01350,1,99,9","04,5,+06900,1,99,9",,"04,99,1,99,9,99,9,99999,9,99,9,99,9","10180,1,99999,9",,,,"MET066METAR EBWM 221259Z 21003KT 9999 FEW045 SCT230 24/11 Q1018 BLU BLU;","P01 069003SCOCIG"
"06450599999","2010-09-22T13:27:00","4","50.8833333","4.5166666","58.0","BRUSSELLS MIL, BE","FM-15","EBWM ","V020","230,1,N,0026,1","99999,9,C,N","011265,1,N,1","+0240,1","+0110,1","99999,9","02,5,+01320,1,99,9","04,5,+06900,1,99,9",,"04,99,1,99,9,99,9,99999,9,99,9,99,9","10180,1,99999,9",,,,"MET066METAR EBWM 221327Z 23005KT 9999 FEW044 SCT230 24/11 Q1018 BLU BLU;","P01 069003SCOCIG"
"06450599999","2010-09-22T14:00:00","4","50.8833333","4.5166666","58.0","BRUSSELLS MIL, BE","FM-15","EBWM ","V020","240,1,N,0026,1","22000,1,9,N","003900,1,N,1","+0240,1","+0100,1","99999,9",,,,"00,99,1,99,9,99,9,99999,9,99,9,99,9","10180,1,99999,9","05,1",,,"MET067METAR EBWM 221357Z 24005KT 170V310 3900 HZ NSC 24/10 Q1018 BLU BLU;","Q01    003SCCGA1"
"06450599999","2010-09-22T14:26:00","4","50.8833333","4.5166666","58.0","BRUSSELLS MIL, BE","FM-15","EBWM ","V020","220,1,N,0015,1","99999,9,C,N","011265,1,N,1","+0240,1","+0110,1","99999,9","02,5,+01320,1,99,9","04,5,+06900,1,99,9",,"04,99,1,99,9,99,9,99999,9,99,9,99,9","10180,1,99999,9",,,,"MET066METAR EBWM 221426Z 22003KT 9999 FEW044 SCT230 24/11 Q1018 BLU BLU;","P01 069003SCOCIG"
"06450599999","2010-09-22T14:28:00","4","50.8833333","4.5166666","58.0","BRUSSELLS MIL, BE","FM-15","EBWM ","V020","240,1,N,0026,1","99999,9,C,N","011265,1,N,1","+0240,1","+0100,1","99999,9","02,5,+01320,1,99,9","04,5,+06900,1,99,9",,"04,99,1,99,9,99,9,99999,9,99,9,99,9","10180,1,99999,9",,,,"MET066METAR EBWM 221428Z 24005KT 9999 FEW044 SCT230 24/10 Q1018 BLU BLU;","P01 069003SCOCIG"
"06450599999","2010-09-22T15:00:00","4","50.8833333","4.5166666","58.0","BRUSSELLS MIL, BE","FM-15","EBWM ","V020","210,1,N,0015,1","99999,9,C,N","011265,1,N,1","+0240,1","+0100,1","99999,9","02,5,+01320,1,99,9","04,5,+06900,1,99,9",,"04,99,1,99,9,99,9,99999,9,99,9,99,9","10180,1,99999,9",,,,"MET066METAR EBWM 221456Z 21003KT 9999 FEW044 SCT230 24/10 Q1018 BLU BLU;","P01 069003SCOCIG"
"06450599999","2010-09-22T15:27:00","4","50.8833333","4.5166666","58.0","BRUSSELLS MIL, BE","FM-15","EBWM ","V020","220,1,N,0021,1","06900,1,C,N","011265,1,N,1","+0230,1","+0100,1","99999,9","07,5,+06900,1,99,9",,,"07,99,1,99,9,99,9,99999,9,99,9,99,9","10180,1,99999,9",,,,"MET067METAR EBWM 221527Z 22004KT 9999 BKN230 23/10 Q1018 BLU FCST CANCEL;",
"06450599999","2010-09-23T07:34:00","4","50.8833333","4.5166666","58.0","BRUSSELLS MIL, BE","FM-15","EBWM ","V020","999,9,C,0000,1","99999,9,C,N","011265,1,N,1","+0120,1","+0100,1","99999,9","02,5,+03300,1,99,9","04,5,+06000,1,99,9",,"04,99,1,99,9,99,9,99999,9,99,9,99,9","10139,1,99999,9",,,,"MET066METAR EBWM 230734Z 00000KT 9999 FEW110 SCT200 12/10 Q1014 BLU BLU;","P01 060003SCOCIG"
"06450599999","2010-09-23T08:32:00","4","50.8833333","4.5166666","58.0","BRUSSELLS MIL, BE","FM-15","EBWM ","V020","999,9,C,0000,1","03300,1,C,N","011265,1,N,1","+0170,1","+0120,1","99999,9","02,5,+01500,1,99,9","04,5,+03300,1,99,9","07,5,+06000,1,99,9","07,99,1,99,9,99,9,99999,9,99,9,99,9","10129,1,99999,9",,,,"MET073METAR EBWM 230832Z 00000KT 9999 FEW050 SCT110 BKN200 17/12 Q1013 BLU BLU;",
"06450599999","2010-09-23T09:26:00","4","50.8833333","4.5166666","58.0","BRUSSELLS MIL, BE","FM-15","EBWM ","V020","999,9,V,0010,1","03300,1,C,N","011265,1,N,1","+0180,1","+0140,1","99999,9","02,5,+01800,1,99,9","04,5,+03300,1,99,9","07,5,+06600,1,99,9","07,99,1,99,9,99,9,99999,9,99,9,99,9","10129,1,99999,9",,,,"MET073METAR EBWM 230926Z VRB02KT 9999 FEW060 SCT110 BKN220 18/14 Q1013 BLU BLU;",
"06450599999","2010-09-23T10:00:00","4","50.8833333","4.5166666","58.0","BRUSSELLS MIL, BE","FM-15","EBWM ","V020","999,9,C,0000,1","03300,1,C,N","011265,1,N,1","+0210,1","+0140,1","99999,9","02,5,+01800,1,99,9","04,5,+03300,1,99,9","07,5,+06000,1,99,9","07,99,1,99,9,99,9,99999,9,99,9,99,9","10119,1,99999,9",,,,"MET073METAR EBWM 230959Z 00000KT 9999 FEW060 SCT110 BKN200 21/14 Q1012 BLU BLU;",
"06450599999","2010-09-23T11:00:00","4","50.8833333","4.5166666","58.0","BRUSSELLS MIL, BE","FM-15","EBWM ","V020","230,1,N,0015,1","03600,1,C,N","011265,1,N,1","+0240,1","+0130,1","99999,9","02,5,+00780,1,99,9","04,5,+03600,1,99,9","07,5,+06300,1,99,9","07,99,1,99,9,99,9,99999,9,99,9,99,9","10108,1,99999,9",,,,"MET073METAR EBWM 231056Z 23003KT 9999 FEW026 SCT120 BKN210 24/13 Q1011 BLU BLU;",
"06450599999","2010-09-23T12:00:00","4","50.8833333","4.5166666","58.0","BRUSSELLS MIL, BE","FM-15","EBWM ","V020","230,1,N,0021,1","03000,1,C,N","011265,1,N,1","+0240,1","+0120,1","99999,9","02,5,+01200,1,99,9","04,5,+03000,1,99,9","07,1,+05400,1,99,9","07,99,1,99,9,99,9,99999,9,99,9,99,9","10102,1,99999,9",,,,"MET072METAR EBWM 231158Z 23004KT 9999 FEW040 SCT100 BKN18024/12 Q1010 BLU BLU;",
"06450599999","2010-09-23T13:28:00","4","50.8833333","4.5166666","58.0","BRUSSELLS MIL, BE","FM-15","EBWM ","V020","210,1,N,0021,1","06600,1,C,N","011265,1,N,1","+0230,1","+0110,1","99999,9","02,5,+01140,1,99,9","07,5,+06600,1,99,9",,"07,99,1,99,9,99,9,99999,9,99,9,99,9","10102,1,99999,9",,,,"MET066METAR EBWM 231328Z 21004KT 9999 FEW038 BKN220 23/11 Q1010 BLU BLU;",
"06450599999","2010-09-23T14:27:00","4","50.8833333","4.5166666","58.0","BRUSSELLS MIL, BE","FM-15","EBWM ","V020","210,1,N,0015,1","06300,1,C,N","011265,1,N,1","+0230,1","+0120,1","99999,9","07,5,+06300,5,99,9","07,1,+06300,1,99,9",,"07,99,1,99,9,99,9,99999,9,99,9,99,9","10091,1,99999,9",,,,"MET065METAR EBWM 231427Z 21003KT 9999 FEW48 BKN210 23/12 Q1009 BLU BLU;",
"06450599999","2010-09-23T15:00:00","4","50.8833333","4.5166666","58.0","BRUSSELLS MIL, BE","FM-15","EBWM ","V020","200,1,N,0015,1","01800,1,C,N","011265,1,N,1","+0240,1","+0120,1","99999,9","02,5,+00840,1,99,9","04,5,+01800,1,99,9","07,5,+06300,1,99,9","07,99,1,99,9,99,9,99999,9,99,9,99,9","10091,1,99999,9",,,,"MET081METAR EBWM 231458Z 20003KT 9999 FEW028 SCT060 BKN210 24/12 Q1009 BLU FCST CANCEL;",
"06450599999","2010-09-24T07:29:00","4","50.8833333","4.5166666","58.0","BRUSSELLS MIL, BE","FM-15","EBWM ","V020","999,9,C,0000,1","01080,1,C,N","007000,1,N,1","+0130,1","+0130,1","99999,9","04,5,+00240,1,99,9","07,5,+01080,1,99,9","07,5,+02400,1,99,9","07,99,1,99,9,99,9,99999,9,99,9,99,9","10020,1,99999,9","61,1",,,"MET087METAR EBWM 240729Z 00000KT 7000 -RA SCT008 BKN036 BKN080 13/13 Q1002 GRN GRN TEMPO YLO;",
"06450599999","2010-09-24T08:00:00","4","50.8833333","4.5166666","58.0","BRUSSELLS MIL, BE","FM-15","EBWM ","V020","999,9,V,0005,1","01080,1,C,N","006000,1,N,1","+0140,1","+0130,1","99999,9","02,5,+00180,1,99,9","07,5,+01080,1,99,9",,"07,99,1,99,9,99,9,99999,9,99,9,99,9","10020,1,99999,9","61,1",,,"MET080METAR EBWM 240758Z VRB01KT 6000 -RA FEW006 BKN036 14/13 Q1002 GRN GRN TEMPO YLO;",
"06450599999","2010-09-24T08:54:00","4","50.8833333","4.5166666","58.0","BRUSSELLS MIL, BE","FM-16","EBWM ","V020","999,9,C,0000,1","00480,1,C,N","006000,1,N,1","+0140,1","+0130,1","99999,9","04,5,+00180,1,99,9","07,5,+00480,1,99,9",,"07,99,1,99,9,99,9,99999,9,99,9,99,9","10010,1,99999,9","63,1",,,"MET079SPECI EBWM 240854Z 00000KT 6000 RA SCT006 BKN016 14/13 Q1001 YLO GRN TEMPO YLO;",
"06450599999","2010-09-24T09:00:00","4","50.8833333","4.5166666","58.0","BRUSSELLS MIL, BE","FM-15","EBWM ","V020","999,9,C,0000,1","00480,1,C,N","006000,1,N,1","+0140,1","+0130,1","99999,9","04,5,+00180,1,99,9","07,5,+00480,1,99,9",,"07,99,1,99,9,99,9,99999,9,99,9,99,9","10010,1,99999,9","63,1",,,"MET079METAR EBWM 240856Z 00000KT 6000 RA SCT006 BKN016 14/13 Q1001 YLO GRN TEMPO YLO;",
"06450599999","2010-09-24T09:18:00","4","50.8833333","4.5166666","58.0","BRUSSELLS MIL, BE","FM-16","EBWM ","V020","999,9,C,0000,1","00540,1,C,N","006000,1,N,1","+0140,1","+0130,1","99999,9","04,5,+00180,1,99,9","07,5,+00540,1,99,9","07,5,+00990,1,99,9","07,99,1,99,9,99,9,99999,9,99,9,99,9","10010,1,99999,9","61,1",,,"MET085SPECI EBWM 240918Z 00000KT 6000 -RA SCT006 BKN018 BKN033 14/13 Q1001 YLO FCST CANCEL;",
"06450599999","2010-11-22T07:00:00","4","50.8833333","4.5166666","58.0","BRUSSELLS MIL, BE","FM-15","EBWM ","V020","350,1,N,0031,1","22000,1,9,N","999999,9,N,1","+0010,1","+0010,1","99999,9",,,,,"10020,1,99999,9",,,,"MET054SPECI EBWM 0700Z 35006KT -RA FG VV001 01/01 Q1002 RED;",
"06450599999","2010-11-23T12:50:00","4","50.8833333","4.5166666","58.0","BRUSSELLS MIL, BE","FM-15","EBWM ","V020","280,1,N,0005,1","00360,5,9,N","004400,1,N,1","+0030,1","+0020,1","99999,9","04,5,+00240,5,99,9","07,5,+00360,5,99,9",,,"10060,1,99999,9","10,1","61,1",,"MET079SPECI EBWM 231250Z 28001KT 4400 -RA BR ST004 SCT008 BKN012 03/02 Q1006 YLO YLO;",
"06450599999","2010-11-23T13:04:00","4","50.8833333","4.5166666","58.0","BRUSSELLS MIL, BE","FM-15","EBWM ","V020","999,9,V,0010,1","00210,1,C,N","003300,1,N,1","+0030,1","+0020,1","99999,9","04,5,+00150,1,99,9","07,5,+00210,1,99,9","07,5,+00270,1,99,9","07,99,1,99,9,99,9,99999,9,99,9,99,9","10061,1,99999,9","10,1","80,1",,"MET082METAR EBWM 231304Z VRB02KT 3300 -SHRA BR SCT005 BKN007 BKN009 03/02 Q1006 YLO YLO;",
"06450599999","2010-11-23T14:01:00","4","50.8833333","4.5166666","58.0","BRUSSELLS MIL, BE","FM-15","EBWM ","V020","260,1,N,0021,1","00360,1,C,N","007000,1,N,1","+0030,1","+0020,1","99999,9","04,5,+00150,1,99,9","07,5,+00360,1,99,9",,"07,99,1,99,9,99,9,99999,9,99,9,99,9","10051,1,99999,9",,,,"MET066METAR EBWM 231401Z 26004KT 7000 SCT005 BKN012 03/02 Q1005 YLO YLO;",
"06450599999","2010-11-23T14:27:00","4","50.8833333","4.5166666","58.0","BRUSSELLS MIL, BE","FM-15","EBWM ","V020","250,1,N,0021,1","00240,1,C,N","005000,1,N,1","+0030,1","+0020,1","99999,9","04,5,+00180,1,99,9","07,5,+00240,1,99,9","07,5,+00450,1,99,9","07,99,1,99,9,99,9,99999,9,99,9,99,9","10051,1,99999,9","10,1","61,1",,"MET080METAR EBWM 231427Z 25004KT 5000 -RA BR SCT006 BKN008 BKN015 03/02 Q1005 YLO YLO;",
"06450599999","2010-11-23T15:00:00","4","50.8833333","4.5166666","58.0","BRUSSELLS MIL, BE","FM-15","EBWM ","V020","240,1,N,0021,1","99999,9,C,N","004800,1,N,1","+0030,1","+0020,1","99999,9","04,5,+00180,1,99,9","07,5,+00330,5,99,9",,"04,99,1,99,9,99,9,99999,9,99,9,99,9","10050,1,99999,9","10,1","61,1",,"MET080METAR EBWM 231500Z 24004KT 4800 -RA BR SCT006 B2N008 BKN011 03/02 Q1005 YLO YLO;","P01 003303SCOCIG"
"06450599999","2010-11-23T15:30:00","4","50.8833333","4.5166666","58.0","BRUSSELLS MIL, BE","FM-15","EBWM ","V020","260,1,N,0015,1","00210,1,C,N","003700,1,N,1","+0020,1","+0020,1","99999,9","04,5,+00150,1,99,9","07,5,+00210,1,99,9","07,5,+00270,1,99,9","07,99,1,99,9,99,9,99999,9,99,9,99,9","10051,1,99999,9","10,1","61,1",,"MET080METAR EBWM 231530Z 26003KT 3700 -RA BR SCT005 BKN007 BKN009 02/02 Q1005 YLO YLO;",
"06450599999","2010-11-24T08:00:00","4","50.8833333","4.5166666","58.0","BRUSSELLS MIL, BE","FM-15","EBWM ","V020","270,1,N,0021,1","00360,1,C,N","008000,1,N,1","+0010,1","+0010,1","99999,9","04,5,+00210,1,99,9","07,5,+00360,1,99,9","07,5,+00480,1,99,9","07,99,1,99,9,99,9,99999,9,99,9,99,9","10071,1,99999,9",,,,"MET083METAR EBWM 240800Z 27004KT 8000 SCT007 BKN012 BKN016 01/01 Q1007 GRN GRN TEMPO YLO;",
"06450599999","2010-11-24T08:27:00","4","50.8833333","4.5166666","58.0","BRUSSELLS MIL, BE","FM-15","EBWM ","V020","260,1,N,0021,1","00270,1,C,N","011265,1,N,1","+0020,1","+0010,1","99999,9","02,5,+00180,1,99,9","04,5,+00270,1,99,9","07,5,+00330,1,99,9","07,99,1,99,9,99,9,99999,9,99,9,99,9","10071,1,99999,9",,,,"MET083METAR EBWM 240827Z 26004KT 9999 FEW006 SCT009 BKN011 02/01 Q1007 GRN GRN TEMPO YLO;",
"06450599999","2010-11-24T09:00:00","4","50.8833333","4.5166666","58.0","BRUSSELLS MIL, BE","FM-15","EBWM ","V020","260,1,N,0015,1","00240,1,C,N","006000,1,N,1","+0020,1","+0010,1","99999,9","02,5,+00150,1,99,9","04,5,+00240,1,99,9","07,5,+00300,1,99,9","07,99,1,99,9,99,9,99999,9,99,9,99,9","10071,1,99999,9",,,,"MET083METAR EBWM 240859Z 26003KT 6000 FEW005 SCT008 BKN010 02/01 Q1007 GRN GRN TEMPO YLO;",
"06450599999","2010-11-24T09:30:00","4","50.8833333","4.5166666","58.0","BRUSSELLS MIL, BE","FM-15","EBWM ","V020","230,1,N,0021,1","00270,1,C,N","007000,1,N,1","+0020,1","+0010,1","99999,9","04,5,+00150,1,99,9","07,5,+00270,1,99,9","07,5,+00480,1,99,9","07,99,1,99,9,99,9,99999,9,99,9,99,9","10071,1,99999,9",,,,"MET083METAR EBWM 240930Z 23004KT 7000 SCT005 BKN009 BKN016 02/01 Q1007 YLO GRN TEMPO YLO;",
"06450599999","2010-11-24T09:40:00","4","50.8833333","4.5166666","58.0","BRUSSELLS MIL, BE","FM-16","EBWM ","V020","270,1,N,0015,1","00300,1,C,N","007000,1,N,1","+0020,1","+0010,1","99999,9","04,5,+00150,1,99,9","07,5,+00300,1,99,9","07,5,+00510,1,99,9","07,99,1,99,9,99,9,99999,9,99,9,99,9","10071,1,99999,9","85,5",,,"MET089SPECI EBWM 240940Z 27003KT 7000 -SHSN SCT005 BKN010 BKN017 02/01 Q1007 YLO GRN TEMPO YLO;",
"06450599999","2010-11-24T09:47:00","4","50.8833333","4.5166666","58.0","BRUSSELLS MIL, BE","FM-16","EBWM ","V020","270,1,N,0021,1","00330,1,C,N","008000,1,N,1","+0020,1","+0010,1","99999,9","02,5,+00210,1,99,9","04,5,+00330,1,99,9","07,5,+00690,1,99,9","07,99,1,99,9,99,9,99999,9,99,9,99,9","10071,1,99999,9",,,,"MET083SPECI EBWM 240947Z 27004KT 8000 FEW007 SCT011 BKN023 02/01 Q1007 GRN GRN TEMPO YLO;",
"06450599999","2010-11-24T10:00:00","4","50.8833333","4.5166666","58.0","BRUSSELLS MIL, BE","FM-15","EBWM ","V020","260,1,N,0021,1","00330,1,C,N","008000,1,N,1","+0020,1","+0010,1","99999,9","02,5,+00180,1,99,9","04,5,+00330,1,99,9","07,5,+00720,1,99,9","07,99,1,99,9,99,9,99999,9,99,9,99,9","10071,1,99999,9",,,,"MET083METAR EBWM 241000Z 26004KT 8000 FEW006 SCT011 BKN024 02/01 Q1007 GRN GRN TEMPO YLO;",
"06450599999","2010-11-24T10:30:00","4","50.8833333","4.5166666","58.0","BRUSSELLS MIL, BE","FM-15","EBWM ","V020","240,1,N,0026,1","00300,1,C,N","009000,1,N,1","+0020,1","+0010,1","99999,9","02,5,+00210,1,99,9","04,5,+00300,1,99,9","07,5,+00420,1,99,9","07,99,1,99,9,99,9,99999,9,99,9,99,9","10071,1,99999,9",,,,"MET083METAR EBWM 241030Z 24005KT 9000 FEW007 SCT010 BKN014 02/01 Q1007 GRN GRN TEMPO YLO;",
"06450599999","2010-11-24T11:00:00","4","50.8833333","4.5166666","58.0","BRUSSELLS MIL, BE","FM-15","EBWM ","V020","260,1,N,0021,1","00330,1,C,N","011265,1,N,1","+0020,1","+0010,1","99999,9","02,5,+00210,1,99,9","04,5,+00330,1,99,9","07,5,+00420,1,99,9","07,99,1,99,9,99,9,99999,9,99,9,99,9","10071,1,99999,9",,,,"MET083METAR EBWM 241058Z 26004KT 9999 FEW007 SCT011 BKN014 02/01 Q1007 GRN GRN TEMPO YLO;",
"06450599999","2010-11-24T11:27:00","4","50.8833333","4.5166666","58.0","BRUSSELLS MIL, BE","FM-15","EBWM ","V020","250,1,N,0021,1","00480,1,C,N","011265,1,N,1","+0020,1","+0010,1","99999,9","04,5,+00270,1,99,9","07,5,+00480,1,99,9","07,5,+00600,1,99,9","07,99,1,99,9,99,9,99999,9,99,9,99,9","10071,1,99999,9",,,,"MET083METAR EBWM 241127Z 25004KT 9999 SCT009 BKN016 BKN020 02/01 Q1007 GRN GRN TEMPO YLO;",
"06450599999","2010-11-24T12:00:00","4","50.8833333","4.5166666","58.0","BRUSSELLS MIL, BE","FM-15","EBWM ","V020","240,1,N,0031,1","00570,1,C,N","011265,1,N,1","+0020,1","+0010,1","99999,9","04,5,+00300,1,99,9","04,5,+00570,1,99,9","07,5,+00690,1,99,9","07,99,1,99,9,99,9,99999,9,99,9,99,9","10061,1,99999,9",,,,"MET083METAR EBWM 241200Z 24006KT 9999 SCT010 SCT019 BKN023 02/01 Q1006 GRN GRN TEMPO YLO;",
"06450599999","2010-11-24T12:08:00","4","50.8833333","4.5166666","58.0","BRUSSELLS MIL, BE","FM-16","EBWM ","V020","220,1,N,0036,1","00540,1,C,N","011265,1,N,1","+0020,1","+0010,1","99999,9","02,5,+00210,1,99,9","04,5,+00540,1,99,9","07,5,+00780,1,99,9","07,99,1,99,9,99,9,99999,9,99,9,99,9","10061,1,99999,9",,,,"MET083SPECI EBWM 241208Z 22007KT 9999 FEW007 SCT018 BKN026 02/01 Q1006 WHT WHT TEMPO GRN;",
"06450599999","2010-11-24T12:23:00","4","50.8833333","4.5166666","58.0","BRUSSELLS MIL, BE","FM-16","EBWM ","V020","240,1,N,0036,1","00420,1,C,N","011265,1,N,1","+0030,1","+0010,1","99999,9","02,5,+00240,1,99,9","04,5,+00420,1,99,9","07,5,+01230,1,99,9","07,99,1,99,9,99,9,99999,9,99,9,99,9","10061,1,99999,9",,,,"MET083SPECI EBWM 241223Z 24007KT 9999 FEW008 SCT014 BKN041 03/01 Q1006 GRN GRN TEMPO YLO;",
"06450599999","2010-11-24T12:27:00","4","50.8833333","4.5166666","58.0","BRUSSELLS MIL, BE","FM-15","EBWM ","V020","240,1,N,0036,1","00420,1,C,N","011265,1,N,1","+0030,1","+0020,1","99999,9","02,5,+00240,1,99,9","04,5,+00420,1,99,9","07,5,+01230,1,99,9","07,99,1,99,9,99,9,99999,9,99,9,99,9","10061,1,99999,9",,,,"MET083METAR EBWM 241227Z 24007KT 9999 FEW008 SCT014 BKN041 03/02 Q1006 GRN GRN TEMPO YLO;",
"06450599999","2010-11-24T13:00:00","4","50.8833333","4.5166666","58.0","BRUSSELLS MIL, BE","FM-15","EBWM ","V020","230,1,N,0041,1","00390,1,C,N","011265,1,N,1","+0020,1","+0010,1","99999,9","02,5,+00270,1,99,9","07,5,+00390,1,99,9","07,5,+00510,1,99,9","07,99,1,99,9,99,9,99999,9,99,9,99,9","10061,1,99999,9",,,,"MET083METAR EBWM 241300Z 23008KT 9999 FEW009 BKN013 BKN017 02/01 Q1006 GRN GRN TEMPO YLO;",
"06450599999","2010-11-24T13:27:00","4","50.8833333","4.5166666","58.0","BRUSSELLS MIL, BE","FM-15","EBWM ","V020","240,1,N,0026,1","00420,1,C,N","011265,1,N,1","+0020,1","+0010,1","99999,9","02,5,+00270,1,99,9","04,5,+00420,1,99,9","07,5,+00510,1,99,9","07,99,1,99,9,99,9,99999,9,99,9,99,9","10061,1,99999,9",,,,"MET083METAR EBWM 241327Z 24005KT 9999 FEW009 SCT014 BKN017 02/01 Q1006 GRN GRN TEMPO YLO;",
"06450599999","2010-11-24T13:30:00","4","50.8833333","4.5166666","58.0","BRUSSELLS MIL, BE","FM-16","EBWM ","V020","240,1,N,0026,1","00420,1,C,N","011265,1,N,1","+0020,1","+0010,1","99999,9","02,5,+00270,1,99,9","04,5,+00420,1,99,9","07,5,+00510,1,99,9","07,99,1,99,9,99,9,99999,9,99,9,99,9","10061,1,99999,9",,,,"MET081SPECI EBWM 241330Z 24005KT 9999 FEW009 SCT014 BKN017 02/01 Q1006 GRN FCST CANCEL;",
"06450599999","2010-11-25T08:00:00","4","50.8833333","4.5166666","58.0","BRUSSELLS MIL, BE","FM-15","EBWM ","V020","210,1,N,0015,1","00270,1,C,N","004000,1,N,1","-0010,1","-0010,1","99999,9","04,5,+00120,1,99,9","07,5,+00270,1,99,9","07,5,+00840,1,99,9","07,99,1,99,9,99,9,99999,9,99,9,99,9","10020,1,99999,9","10,1",,,"MET088METAR EBWM 250800Z 21003KT 4000 BR SCT004 BKN009 BKN028 M01/M01 Q1002 YLO GRN TEMPO YLO;",
"06450599999","2010-11-25T08:11:00","4","50.8833333","4.5166666","58.0","BRUSSELLS MIL, BE","FM-16","EBWM ","V020","190,1,N,0015,1","00270,1,C,N","004100,1,N,1","-0010,1","-0010,1","99999,9","02,5,+00120,1,99,9","04,5,+00270,1,99,9","07,5,+00810,1,99,9","07,99,1,99,9,99,9,99999,9,99,9,99,9","10020,1,99999,9","10,1",,,"MET078SPECI EBWM 250811Z 19003KT 4100 BR FEW004 SCT009 BKN027 M01/M01 Q1002 GRN GRN;",
"06450599999","2010-11-25T08:31:00","4","50.8833333","4.5166666","58.0","BRUSSELLS MIL, BE","FM-15","EBWM ","V020","160,1,N,0015,1","00240,1,C,N","003200,1,N,1","-0010,1","-0010,1","99999,9","02,5,+00090,1,99,9","04,5,+00240,1,99,9","07,5,+00840,1,99,9","07,99,1,99,9,99,9,99999,9,99,9,99,9","10020,1,99999,9","10,1",,,"MET088METAR EBWM 250831Z 16003KT 3200 BR FEW003 SCT008 BKN028 M01/M01 Q1002 GRN YLO TEMPO AMB;",
"06450599999","2010-11-25T09:00:00","4","50.8833333","4.5166666","58.0","BRUSSELLS MIL, BE","FM-15","EBWM ","V020","170,1,N,0015,1","00210,1,C,N","003100,1,N,1","-0010,1","-0010,1","99999,9","02,5,+00030,1,99,9","04,5,+00210,1,99,9","07,5,+01080,1,99,9","07,99,1,99,9,99,9,99999,9,99,9,99,9","10020,1,99999,9","10,1",,,"MET088METAR EBWM 250858Z 17003KT 3100 BR FEW001 SCT007 BKN036 M01/M01 Q1002 GRN YLO TEMPO AMB;",
"06450599999","2010-11-25T09:11:00","4","50.8833333","4.5166666","58.0","BRUSSELLS MIL, BE","FM-16","EBWM ","V020","190,1,N,0015,1","00180,1,C,N","003000,1,N,1","+0000,1","-0010,1","99999,9","02,5,+00030,1,99,9","04,5,+00180,1,99,9","07,5,+00270,1,99,9","07,99,1,99,9,99,9,99999,9,99,9,99,9","10020,1,99999,9","10,1",,,"MET088SPECI EBWM 250911Z 19003KT 3000 BR FEW001 SCT006 BKN009 M00/M01 Q1002 YLO YLO TEMPO AMB;",
"06450599999","2010-11-25T09:28:00","4","50.8833333","4.5166666","58.0","BRUSSELLS MIL, BE","FM-15","EBWM ","V020","200,1,N,0021,1","00120,1,C,N","004500,1,N,1","-0010,1","-0010,1","99999,9","02,5,+00060,1,99,9","07,5,+00120,1,99,9",,"07,99,1,99,9,99,9,99999,9,99,9,99,9","10020,1,99999,9","10,1",,,"MET089METAR EBWM 250928Z 20004KT 150V240 4500 BR FEW002 BKN004 M01/M01 Q1002 YLO YLO TEMPO AMB;",
"06450599999","2010-11-25T10:00:00","4","50.8833333","4.5166666","58.0","BRUSSELLS MIL, BE","FM-15","EBWM ","V020","210,1,N,0021,1","00570,1,C,N","006000,1,N,1","+0000,1","-0010,1","99999,9","04,5,+00090,1,99,9","07,5,+00570,1,99,9","07,5,+01080,1,99,9","07,99,1,99,9,99,9,99999,9,99,9,99,9","10020,1,99999,9",,,,"MET085METAR EBWM 250958Z 21004KT 6000 SCT003 BKN019 BKN036 M00/M01 Q1002 YLO YLO TEMPO AMB;",
"06450599999","2010-11-25T10:26:00","4","50.8833333","4.5166666","58.0","BRUSSELLS MIL, BE","FM-15","EBWM ","V020","220,1,N,0021,1","00240,1,C,N","005000,1,N,1","+0000,1","+0000,1","99999,9","04,5,+00120,1,99,9","07,5,+00240,1,99,9","07,5,+00450,1,99,9","07,99,1,99,9,99,9,99999,9,99,9,99,9","10020,1,99999,9","71,1",,,"MET089METAR EBWM 251026Z 22004KT 5000 -SN SCT004 BKN008 BKN015 M00/M00 Q1002 YLO YLO TEMPO AMB;",
"06450599999","2010-11-25T11:00:00","4","50.8833333","4.5166666","58.0","BRUSSELLS MIL, BE","FM-15","EBWM ","V020","220,1,N,0021,1","00150,1,C,N","006000,1,N,1","+0000,1","+0000,1","99999,9","02,5,+00090,1,99,9","07,5,+00150,1,99,9","07,5,+00210,1,99,9","07,99,1,99,9,99,9,99999,9,99,9,99,9","10010,1,99999,9",,,,"MET085METAR EBWM 251057Z 22004KT 6000 FEW003 BKN005 BKN007 M00/M00 Q1001 YLO YLO TEMPO AMB;",
"06450599999","2010-11-25T12:00:00","4","50.8833333","4.5166666","58.0","BRUSSELLS MIL, BE","FM-15","EBWM ","V020","260,1,N,0015,1","00240,1,C,N","011265,1,N,1","+0000,1","+0000,1","99999,9","04,5,+00150,1,99,9","07,5,+00240,1,99,9","07,5,+00360,1,99,9","07,99,1,99,9,99,9,99999,9,99,9,99,9","10010,1,99999,9","71,1",,,"MET088METAR EBWM 251159Z 26003KT 9999 -SN SCT005 BKN008 BKN012 00/M00 Q1001 YLO YLO TEMPO AMB;",
"06450599999","2010-11-25T12:30:00","4","50.8833333","4.5166666","58.0","BRUSSELLS MIL, BE","FM-15","EBWM ","V020","260,1,N,0015,1","00270,1,C,N","009000,1,N,1","+0010,1","+0000,1","99999,9","04,5,+00180,1,99,9","07,5,+00270,1,99,9","07,5,+00330,1,99,9","07,99,1,99,9,99,9,99999,9,99,9,99,9","10010,1,99999,9","71,1",,,"MET087METAR EBWM 251230Z 26003KT 9000 -SN SCT006 BKN009 BKN011 01/00 Q1001 YLO YLO TEMPO AMB;",
