"STATION","DATE","SOURCE","LATITUDE","LONGITUDE","ELEVATION","NAME","REPORT_TYPE","CALL_SIGN","QUALITY_CONTROL","WND","CIG","VIS","TMP","DEW","SLP","AA1","AA2","AJ1","AY1","AY2","GA1","GF1","GJ1","IA1","IA2","KA1","MA1","MD1","MW1","REM","EQD"
"08008099999","2010-01-12T06:00:00","4","43.1166666","-7.45","446.0","LUGO ROZAS, SP","FM-12","99999","V020","190,1,N,0062,1","00420,1,9,N","015000,1,N,1","+0083,1","+0064,1","10035,1","12,0020,9,1","24,0025,9,1",,"6,1,06,1",,,"08,99,1,08,1,07,1,00450,1,99,9,99,9","0162,9","11,9","999,+0020,9","999,N,+0035,1","99999,9,09511,1","7,1,034,1,+999,9","63,1","SYN106AAXX  12064 08008 11465 81912 10083 20064 39511 40035 57034 60022 7636/ 887// 333 20035 32002 55027 70025;",
"08008099999","2010-01-12T09:00:00","4","43.1166666","-7.45","446.0","LUGO ROZAS, SP","FM-12","99999","V020","190,1,N,0046,1","00420,1,9,N","018000,1,N,1","+0084,1","+0072,1","10035,1",,,,"6,1,03,1","2,1,03,1",,"08,99,1,06,1,07,1,00450,1,02,1,99,9",,,,,"99999,9,09511,1","5,1,000,1,+999,9","63,1","SYN072AAXX  12094 08008 41468 81909 10084 20072 39511 40035 55000 76362 8672/;",
"08008099999","2010-01-12T12:00:00","4","43.1166666","-7.45","446.0","LUGO ROZAS, SP","FM-12","99999","V020","200,1,N,0041,1","00900,1,9,N","025000,1,N,1","+0094,1","+0073,1","10035,1","06,0211,9,1",,,"6,1,06,1","2,1,06,1",,"07,99,1,07,1,08,1,00450,1,99,9,99,9",,,,,"99999,9,09513,1","0,1,002,1,+999,9","21,1","SYN078AAXX  12124 08008 11475 72008 10094 20073 39513 40035 50002 60211 72162 878//;",
"08008099999","2010-01-13T06:00:00","4","43.1166666","-7.45","446.0","LUGO ROZAS, SP","FM-12","99999","V020","200,1,N,0036,1","00900,1,9,N","020000,1,N,1","+0066,1","+0048,1","10096,1","12,0030,9,1","24,0282,9,1",,"8,1,06,1","5,1,06,1",,"06,99,1,05,1,08,1,00450,1,07,1,99,9","0060,9","11,9","999,+0040,9","999,N,+0051,1","99999,9,09565,1","8,1,008,1,+999,9","20,1","SYN112AAXX  13064 08008 11470 62007 10066 20048 39565 40096 58008 60032 72085 8587/ 333 20051 32004 50134 55010 70281;",
"08008099999","2010-01-13T09:00:00","4","43.1166666","-7.45","446.0","LUGO ROZAS, SP","FM-12","99999","V020","170,1,N,0036,1","00420,1,9,N","020000,1,N,1","+0064,1","+0054,1","10084,1",,,,"6,1,03,1","2,1,03,1",,"07,99,1,06,1,07,1,00450,1,07,1,99,9",,,,,"99999,9,09554,1","8,1,011,1,+999,9","21,1","SYN072AAXX  13094 08008 41470 71707 10064 20054 39554 40084 58011 72162 8677/;",
"08008099999","2010-01-13T12:00:00","4","43.1166666","-7.45","446.0","LUGO ROZAS, SP","FM-12","99999","V020","190,1,N,0036,1","00420,1,9,N","018000,1,N,1","+0088,1","+0076,1","10062,1","06,0030,9,1",,,"6,1,06,1","2,1,06,1",,"08,99,1,06,1,07,1,00450,1,07,1,99,9",,,,,"99999,9,09537,1","8,1,017,1,+999,9","60,1","SYN078AAXX  13124 08008 11468 81907 10088 20076 39537 40062 58017 60031 76062 8677/;",
"08008099999","2010-01-15T06:00:00","4","43.1166666","-7.45","446.0","LUGO ROZAS, SP","FM-12","99999","V020","170,1,N,0031,1","03600,1,9,N","020000,1,N,1","+0056,1","+0023,1","10207,1","12,0000,9,1","24,0015,9,1",,,,,"05,99,1,03,1,06,1,00450,1,03,1,00,1","0210,9","09,9","999,+0020,9","999,N,+0043,1","99999,9,09668,1","8,1,010,1,+999,9",,"SYN106AAXX  15064 08008 12470 51706 10056 20023 39668 40207 58010 60002 83630 333 20043 31002 50084 55035 70016;","Q01  00002PRCP12"
"08008099999","2010-01-15T09:00:00","4","43.1166666","-7.45","446.0","LUGO ROZAS, SP","FM-12","99999","V020","150,1,N,0015,1","03600,1,9,N","025000,1,N,1","+0062,1","+0003,1","10204,1",,,,,,,"07,99,1,03,1,06,1,00450,1,03,1,08,1",,,,,"99999,9,09666,1","8,1,002,1,+999,9",,"SYN066AAXX  15094 08008 42475 71503 10062 20003 39666 40204 58002 83638;",
"08008099999","2010-01-15T12:00:00","4","43.1166666","-7.45","446.0","LUGO ROZAS, SP","FM-12","99999","V020","180,1,N,0041,1","99999,9,9,N","025000,1,N,1","+0100,1","+0003,1","10190,1","06,0000,9,1",,,,,,"07,99,1,05,1,00,1,01250,1,03,1,08,1",,,,,"99999,9,09660,1","8,1,006,1,+999,9",,"SYN072AAXX  15124 08008 12675 71808 10100 20003 39660 40190 58006 60001 85038;","Q01  00002PRCP06"
"08008099999","2010-01-18T06:00:00","4","43.1166666","-7.45","446.0","LUGO ROZAS, SP","FM-12","99999","V020","999,9,C,0000,1","03600,1,9,N","020000,1,N,1","+0070,1","+0069,1","10189,1","12,0000,9,1","24,0010,9,1",,,,,"08,99,1,04,1,06,1,00150,1,03,1,99,9","0000,9","09,9","999,+0050,9","999,N,+0065,1","99999,9,09654,1","6,1,009,1,+999,9",,"SYN100AAXX  18064 08008 12270 80000 10070 20069 39654 40189 56009 60002 8463/ 333 20065 31005 55000 70009;","Q01  00002PRCP12"
"08008099999","2010-01-18T09:00:00","4","43.1166666","-7.45","446.0","LUGO ROZAS, SP","FM-12","99999","V020","999,9,C,0000,1","99999,9,9,N","025000,1,N,1","+0078,1","+0072,1","10183,1",,,,,,,"06,99,1,06,1,00,1,01250,1,07,1,00,1",,,,,"99999,9,09650,1","8,1,004,1,+999,9",,"SYN066AAXX  18094 08008 42675 60000 10078 20072 39650 40183 58004 86070;",
"08008099999","2010-01-18T12:00:00","4","43.1166666","-7.45","446.0","LUGO ROZAS, SP","FM-12","99999","V020","160,1,N,0021,1","22000,1,9,N","025000,1,N,1","+0158,1","+0068,1","10161,1","06,0000,9,1",,,,,,"03,99,1,03,1,00,1,01250,1,04,1,00,1",,,,,"99999,9,09644,1","8,1,006,1,+999,9",,"SYN072AAXX  18124 08008 12675 31604 10158 20068 39644 40161 58006 60001 83040;","Q01  00002PRCP06"
"08008099999","2010-01-19T06:00:00","4","43.1166666","-7.45","446.0","LUGO ROZAS, SP","FM-12","99999","V020","200,1,N,0036,1","00900,1,9,N","020000,1,N,1","+0114,1","+0097,1","10140,1","12,0005,9,1","24,0010,9,1",,"8,1,06,1","5,1,06,1",,"08,99,1,08,1,08,1,00450,1,99,9,99,9","0246,9","09,9","999,+0090,9","999,N,+0106,1","99999,9,09616,1","6,1,006,1,+999,9","51,1","SYN112AAXX  19064 08008 11470 82007 10114 20097 39616 40140 56006 69952 75185 888// 333 20106 31009 50204 55041 70009;",
"08008099999","2010-01-19T09:00:00","4","43.1166666","-7.45","446.0","LUGO ROZAS, SP","FM-12","99999","V020","210,1,N,0036,1","00900,1,9,N","020000,1,N,1","+0110,1","+0096,1","10148,1",,,,"8,1,03,1","5,1,03,1",,"06,99,1,05,1,08,1,00450,1,00,1,01,1",,,,,"99999,9,09623,1","1,1,007,1,+999,9","25,1","SYN072AAXX  19094 08008 41470 62107 10110 20096 39623 40148 51007 72585 85801;",
"08008099999","2010-01-19T12:00:00","4","43.1166666","-7.45","446.0","LUGO ROZAS, SP","FM-12","99999","V020","210,1,N,0041,1","00900,1,9,N","020000,1,N,1","+0124,1","+0101,1","10163,1","06,0010,9,1",,,"8,1,06,1","5,1,06,1",,"07,99,1,06,1,08,1,00450,1,06,1,00,1",,,,,"99999,9,09640,1","1,1,017,1,+999,9","25,1","SYN078AAXX  19124 08008 11470 72108 10124 20101 39640 40163 51017 60011 72585 86860;",
"08008099999","2010-01-20T06:00:00","4","43.1166666","-7.45","446.0","LUGO ROZAS, SP","FM-12","99999","V020","180,1,N,0015,1","22000,1,9,N","020000,1,N,1","+0051,1","+0039,1","10206,1","12,0041,9,1","24,0051,9,1",,"6,1,06,1",,,"02,99,1,02,1,05,1,00450,1,00,1,00,1","0192,9","09,9","999,+0020,9","999,N,+0050,1","99999,9,09667,1","2,1,009,1,+999,9","02,1","SYN112AAXX  20064 08008 11470 21803 10051 20039 39667 40206 52009 60042 7026/ 82500 333 20050 31002 50184 55032 70052;",
"08008099999","2010-01-20T09:00:00","4","43.1166666","-7.45","446.0","LUGO ROZAS, SP","FM-12","99999","V020","190,1,N,0015,1","03600,1,9,N","020000,1,N,1","+0071,1","+0039,1","10210,1",,,,,,,"07,99,1,03,1,05,1,00450,1,03,1,99,9",,,,,"99999,9,09674,1","1,1,007,1,+999,9",,"SYN066AAXX  20094 08008 42470 71903 10071 20039 39674 40210 51007 8353/;",
"08008099999","2010-01-20T12:00:00","4","43.1166666","-7.45","446.0","LUGO ROZAS, SP","FM-12","99999","V020","210,1,N,0036,1","03600,1,9,N","025000,1,N,1","+0093,1","+0067,1","10221,1","06,0000,9,1",,,"8,1,06,1","1,1,06,1",,"05,99,1,04,1,08,1,00450,1,06,1,01,1",,,,,"99999,9,09689,1","1,1,015,1,+999,9","02,1","SYN078AAXX  20124 08008 11475 52107 10093 20067 39689 40221 51015 69911 70281 84861;","Q01  00002PRCP06"
"08008099999","2010-01-21T06:00:00","4","43.1166666","-7.45","446.0","LUGO ROZAS, SP","FM-12","99999","V020","180,1,N,0031,1","03600,1,9,N","020000,1,N,1","+0079,1","+0062,1","10215,1","12,0000,9,1","24,0003,9,1",,,,,"06,99,1,04,1,06,1,00450,1,03,1,01,1","0174,9","09,9","999,+0040,9","999,N,+0064,1","99999,9,09681,1","7,1,009,1,+999,9",,"SYN106AAXX  21064 08008 12470 61806 10079 20062 39681 40215 57009 60002 84631 333 20064 31004 50114 55029 70003;","Q01  00002PRCP12"
"08008099999","2010-01-21T09:00:00","4","43.1166666","-7.45","446.0","LUGO ROZAS, SP","FM-12","99999","V020","160,1,N,0031,1","03600,1,9,N","025000,1,N,1","+0084,1","+0055,1","10219,1",,,,,,,"08,99,1,01,1,01,1,00450,1,03,1,99,9",,,,,"99999,9,09685,1","1,1,004,1,+999,9",,"SYN066AAXX  21094 08008 42475 81606 10084 20055 39685 40219 51004 8113/;",
"08008099999","2010-01-21T12:00:00","4","43.1166666","-7.45","446.0","LUGO ROZAS, SP","FM-12","99999","V020","190,1,N,0041,1","03600,1,9,N","025000,1,N,1","+0123,1","+0050,1","10209,1","06,0000,9,1",,,,,,"06,99,1,01,1,01,1,00450,1,03,1,08,1",,,,,"99999,9,09683,1","8,1,002,1,+999,9",,"SYN072AAXX  21124 08008 12475 61908 10123 20050 39683 40209 58002 60001 81138;","Q01  00002PRCP06"
"08008099999","2010-01-22T06:00:00","4","43.1166666","-7.45","446.0","LUGO ROZAS, SP","FM-12","99999","V020","180,1,N,0036,1","03600,1,9,N","020000,1,N,1","+0108,1","+0071,1","10186,1","12,0010,9,1","24,0015,9,1",,"6,1,06,1",,,"07,99,1,04,1,05,1,00450,1,07,1,99,9","0084,9","11,9","999,+0080,9","999,N,+0098,1","99999,9,09658,1","8,1,004,1,+999,9","02,1","SYN112AAXX  22064 08008 11470 71807 10108 20071 39658 40186 58004 60012 7026/ 8457/ 333 20098 32008 50264 55014 70015;",
"08008099999","2010-01-22T09:00:00","4","43.1166666","-7.45","446.0","LUGO ROZAS, SP","FM-12","99999","V020","190,1,N,0036,1","99999,9,9,N","025000,1,N,1","+0112,1","+0069,1","10187,1",,,,,,,"08,99,1,08,1,00,1,01250,1,07,1,99,9",,,,,"99999,9,09660,1","0,1,002,1,+999,9",,"SYN066AAXX  22094 08008 42675 81907 10112 20069 39660 40187 50002 8807/;",
"08008099999","2010-01-22T12:00:00","4","43.1166666","-7.45","446.0","LUGO ROZAS, SP","FM-12","99999","V020","210,1,N,0026,1","03600,1,9,N","025000,1,N,1","+0128,1","+0079,1","10184,1","06,9999,9,9",,,"6,1,06,1","2,1,06,1",,"08,99,1,04,1,07,1,00450,1,07,1,99,9",,,,,"99999,9,09660,1","0,1,000,1,+999,9","60,1","SYN078AAXX  22124 08008 11475 82105 10128 20079 39660 40184 50000 69901 76062 8477/;","Q01  00002PRCP06Q02  00002PRCP06"
"08008099999","2010-01-25T06:00:00","4","43.1166666","-7.45","446.0","LUGO ROZAS, SP","FM-12","99999","V020","140,1,N,0010,1","22000,1,9,N","025000,1,N,1","+0001,1","-0002,1","10306,1","12,0000,9,1","24,0000,9,1",,,,,"03,99,1,01,1,06,1,00250,1,03,1,00,1","0198,9",,,"999,N,-0012,1","99999,9,09751,1","5,1,005,1,+999,9",,"SYN100AAXX  25064 08008 12375 31402 10001 21002 39751 40306 55005 60002 81630 333 21012 5//// 55033 70000;","Q01  00002PRCP24Q02  00002PRCP12"
"08008099999","2010-01-25T09:00:00","4","43.1166666","-7.45","446.0","LUGO ROZAS, SP","FM-12","99999","V020","999,9,C,0000,1","03600,1,9,N","000600,1,N,1","+0006,1","+0000,1","10312,1",,,,"4,1,03,1","1,1,03,1",,"08,99,1,04,1,06,1,00250,1,03,1,99,9",,,,,"99999,9,09758,1","3,1,007,1,+999,9","44,1","SYN072AAXX  25094 08008 41306 80000 10006 20000 39758 40312 53007 74441 8463/;",
"08008099999","2010-01-25T12:00:00","4","43.1166666","-7.45","446.0","LUGO ROZAS, SP","FM-12","99999","V020","030,1,N,0041,1","22000,1,9,N","025000,1,N,1","+0083,1","+0045,1","10290,1","06,0000,9,1",,,"4,1,06,1","1,1,06,1",,"04,99,1,04,1,08,1,00450,1,00,1,00,1",,,,,"99999,9,09752,1","8,1,006,1,+999,9","02,1","SYN078AAXX  25124 08008 11475 40308 10083 20045 39752 40290 58006 60001 70241 84800;","Q01  00002PRCP06"
"08008099999","2010-01-26T06:00:00","4","43.1166666","-7.45","446.0","LUGO ROZAS, SP","FM-12","99999","V020","040,1,N,0031,1","22000,1,9,N","025000,1,N,1","+0022,1","+0006,1","10270,1","12,0020,9,2","24,0018,9,2",,,,"00,1,+99999,9,99,9","00,99,1,00,1,00,1,99999,9,00,1,00,1","0300,9","14,9","999,-0010,9","999,N,-0003,1","99999,9,09721,1","3,1,011,1,+999,9",,"SYN094AAXX  26064 08008 12975 00406 10022 20006 39721 40270 53011 60022 333 21003 34101 55050 70019;",
"08008099999","2010-01-26T09:00:00","4","43.1166666","-7.45","446.0","LUGO ROZAS, SP","FM-12","99999","V020","060,1,N,0031,1","22000,1,9,N","025000,1,N,1","+0049,1","+0019,1","10292,1",,,,,,,"01,99,1,01,1,01,1,00450,1,00,1,00,1",,,,,"99999,9,09747,1","2,1,026,1,+999,9",,"SYN066AAXX  26094 08008 42475 10606 10049 20019 39747 40292 52026 81100;",
"08008099999","2010-01-26T12:00:00","4","43.1166666","-7.45","446.0","LUGO ROZAS, SP","FM-12","99999","V020","040,1,N,0041,1","22000,1,9,N","025000,1,N,1","+0084,1","+0001,1","10284,1","06,0000,9,1",,,,,,"01,99,1,01,1,01,1,00450,1,00,1,00,1",,,,,"99999,9,09746,1","8,1,001,1,+999,9",,"SYN072AAXX  26124 08008 12475 10408 10084 20001 39746 40284 58001 60001 81100;","Q01  00002PRCP06"
"08008099999","2010-01-27T06:00:00","4","43.1166666","-7.45","446.0","LUGO ROZAS, SP","FM-12","99999","V020","040,1,N,0041,1","03600,1,9,N","025000,1,N,1","+0039,1","-0001,1","10274,1","12,0008,9,1","24,0008,9,1",,"6,1,06,1",,,"05,99,1,03,1,06,1,00450,1,07,1,00,1","0522,9","11,9","999,+0020,9","999,N,+0032,1","99999,9,09728,1","7,1,010,1,+999,9","02,1","SYN112AAXX  27064 08008 11475 50408 10039 21001 39728 40274 57010 69972 7026/ 83670 333 20032 32002 50244 55087 70007;",
"08008099999","2010-01-27T09:00:00","4","43.1166666","-7.45","446.0","LUGO ROZAS, SP","FM-12","99999","V020","040,1,N,0046,1","00900,1,9,N","020000,1,N,1","+0040,1","-0008,1","10271,1",,,,,,,"06,99,1,06,1,08,1,00450,1,00,1,00,1",,,,,"99999,9,09726,1","6,1,002,1,+999,9",,"SYN066AAXX  27094 08008 42470 60409 10040 21008 39726 40271 56002 86800;",
"08008099999","2010-01-27T12:00:00","4","43.1166666","-7.45","446.0","LUGO ROZAS, SP","FM-12","99999","V020","050,1,N,0031,1","00900,1,9,N","020000,1,N,1","+0065,1","-0007,1","10277,1","06,0000,9,1",,,,,,"06,99,1,06,1,08,1,00450,1,00,1,00,1",,,,,"99999,9,09736,1","0,1,010,1,+999,9",,"SYN072AAXX  27124 08008 12470 60506 10065 21007 39736 40277 50010 60001 86800;","Q01  00002PRCP06"
"08008099999","2010-01-29T06:00:00","4","43.1166666","-7.45","446.0","LUGO ROZAS, SP","FM-12","99999","V020","230,1,N,0010,1","00210,1,9,N","015000,1,N,1","+0052,1","+0043,1","10157,1","12,0010,9,1","24,0013,9,1",,"5,1,06,1",,,"08,99,1,08,1,07,1,00250,1,99,9,99,9","0210,9","11,9","999,+0040,9","999,N,+0050,1","99999,9,09620,1","7,1,021,1,+999,9","51,1","SYN106AAXX  29064 08008 11365 82302 10052 20043 39620 40157 57021 60012 7515/ 887// 333 20050 32004 55035 70012;",
"08008099999","2010-01-29T09:00:00","4","43.1166666","-7.45","446.0","LUGO ROZAS, SP","FM-12","99999","V020","220,1,N,0036,1","00210,1,9,N","012000,1,N,1","+0063,1","+0054,1","10143,1",,,,"5,1,03,1","2,1,03,1",,"08,99,1,08,1,07,1,00250,1,99,9,99,9",,,,,"99999,9,09609,1","7,1,011,1,+999,9","51,1","SYN072AAXX  29094 08008 41362 82207 10063 20054 39609 40143 57011 75152 887//;",
"08008099999","2010-01-29T12:00:00","4","43.1166666","-7.45","446.0","LUGO ROZAS, SP","FM-12","99999","V020","280,1,N,0031,1","00420,1,9,N","015000,1,N,1","+0081,1","+0072,1","10128,1","06,0010,9,1",,,"6,1,06,1","5,1,06,1",,"08,99,1,99,9,07,1,00450,1,07,1,99,9",,,,,"99999,9,09599,1","8,1,010,1,+999,9","50,1","SYN078AAXX  29124 08008 11465 82806 10081 20072 39599 40128 58010 60011 75065 8877/;","Q01+000082SCOTLC"
"08008099999","2010-02-01T06:00:00","4","43.1166666","-7.45","446.0","LUGO ROZAS, SP","FM-12","99999","V020","160,1,N,0015,1","22000,1,9,N","020000,1,N,1","-0006,1","-0009,1","10223,1","12,0000,9,1","24,0023,9,1",,"5,1,06,1",,,"02,99,1,02,1,06,1,00450,1,00,1,00,1","0126,9",,,"999,N,-0006,1","99999,9,09671,1","2,1,018,1,+999,9","02,1","SYN100AAXX  01064 08008 11470 21603 11006 21009 39671 40223 52018 69922 7025/ 82600 333 21006 55021 70023;","Q01  00002PRCP12"
"08008099999","2010-02-01T09:00:00","4","43.1166666","-7.45","446.0","LUGO ROZAS, SP","FM-12","99999","V020","060,1,N,0005,1","22000,1,9,N","025000,1,N,1","+0009,1","-0002,1","10241,1",,,,,,"00,1,+99999,9,99,9","00,99,1,00,1,00,1,99999,9,00,1,00,1",,,,,"99999,9,09691,1","2,1,020,1,+999,9",,"SYN060AAXX  01094 08008 42975 00601 10009 21002 39691 40241 52020;",
"08008099999","2010-02-01T12:00:00","4","43.1166666","-7.45","446.0","LUGO ROZAS, SP","FM-12","99999","V020","360,1,N,0010,1","22000,1,9,N","025000,1,N,1","+0069,1","+0032,1","10241,1","06,0000,9,1",,,,,,"03,99,1,03,1,05,1,00450,1,00,1,00,1",,,,,"99999,9,09703,1","1,1,012,1,+999,9",,"SYN072AAXX  01124 08008 12475 33602 10069 20032 39703 40241 51012 60001 83500;","Q01  00002PRCP06"
"08008099999","2010-02-02T06:00:00","4","43.1166666","-7.45","446.0","LUGO ROZAS, SP","FM-12","99999","V020","140,1,N,0015,1","22000,1,9,N","025000,1,N,1","-0036,1","-0044,1","10255,1","12,0000,9,1","24,0000,9,1",,,,"00,1,+99999,9,99,9","00,99,1,00,1,00,1,99999,9,00,1,00,1","0480,9","14,9","999,-0060,9","999,N,-0036,1","99999,9,09695,1","5,1,007,1,+999,9",,"SYN100AAXX  02064 08008 12975 01403 11036 21044 39695 40255 55007 60002 333 21036 34106 5//// 55080 70000;","Q01  00002PRCP24Q02  00002PRCP12"
"08008099999","2010-02-02T09:00:00","4","43.1166666","-7.45","446.0","LUGO ROZAS, SP","FM-12","99999","V020","260,1,N,0005,1","22000,1,9,N","025000,1,N,1","-0007,1","-0027,1","10255,1",,,,"4,1,03,1","0,1,03,1",,"01,99,1,00,1,00,1,99999,9,00,1,01,1",,,,,"99999,9,09701,1","3,1,006,1,+999,9","02,1","SYN072AAXX  02094 08008 41775 12601 11007 21027 39701 40255 53006 70240 80001;","Q01+017502SCOLCB"
"08008099999","2010-02-02T12:00:00","4","43.1166666","-7.45","446.0","LUGO ROZAS, SP","FM-12","99999","V020","200,1,N,0036,1","22000,1,9,N","025000,1,N,1","+0089,1","-0027,1","10228,1","06,0000,9,1",,,"4,1,06,1","0,1,06,1",,"01,99,1,00,1,00,1,99999,9,00,1,01,1",,,,,"99999,9,09694,1","8,1,007,1,+999,9","02,1","SYN078AAXX  02124 08008 11875 12007 10089 21027 39694 40228 58007 60001 70240 80001;","Q01+022502SCOLCBQ02  00002PRCP06"
"08008099999","2010-02-03T06:00:00","4","43.1166666","-7.45","446.0","LUGO ROZAS, SP","FM-12","99999","V020","120,1,N,0010,1","22000,1,9,N","025000,1,N,1","-0031,1","-0044,1","10211,1","12,0000,9,1","24,0000,9,1",,,,"00,1,+99999,9,99,9","00,99,1,00,1,00,1,99999,9,00,1,00,1","0570,9","14,9","999,-0060,9","999,N,-0037,1","99999,9,09655,1","5,1,002,1,+999,9",,"SYN100AAXX  03064 08008 12975 01202 11031 21044 39655 40211 55002 60002 333 21037 34106 5//// 55095 70000;","Q01  00002PRCP24Q02  00002PRCP12"
"08008099999","2010-02-03T09:00:00","4","43.1166666","-7.45","446.0","LUGO ROZAS, SP","FM-12","99999","V020","240,1,N,0005,1","22000,1,9,N","025000,1,N,1","-0003,1","-0028,1","10204,1",,,,,,,"01,99,1,00,1,00,1,99999,9,00,1,04,1",,,,,"99999,9,09654,1","6,1,001,1,+999,9",,"SYN066AAXX  03094 08008 42875 12401 11003 21028 39654 40204 56001 80004;","Q01+022502SCOLCB"
"08008099999","2010-02-03T12:00:00","4","43.1166666","-7.45","446.0","LUGO ROZAS, SP","FM-12","99999","V020","200,1,N,0041,1","22000,1,9,N","025000,1,N,1","+9999,9","-0027,1","10167,1","06,0000,9,1",,,,,,"03,99,1,00,1,00,1,99999,9,00,1,04,1",,,,,"99999,9,09639,1","8,1,015,1,+999,9",,"SYN072AAXX  03124 08008 12875 32008 10107 21027 39639 40167 58015 60001 80004;","Q01+022502SCOLCBQ02  00002PRCP06"
"08008099999","2010-02-04T06:00:00","4","43.1166666","-7.45","446.0","LUGO ROZAS, SP","FM-12","99999","V020","240,1,N,0015,1","03600,1,9,N","025000,1,N,1","+0078,1","+0021,1","10073,1","12,0000,9,1","24,0000,9,1",,,,,"07,99,1,03,1,05,1,00450,1,03,1,99,9","0456,9","14,9","999,+0030,9","999,N,+0066,1","99999,9,09545,1","7,1,016,1,+999,9",,"SYN100AAXX  04064 08008 12475 72403 10078 20021 39545 40073 57016 60002 8353/ 333 20066 34003 55076 70000;","Q01  00002PRCP24Q02  00002PRCP12"
"08008099999","2010-02-04T09:00:00","4","43.1166666","-7.45","446.0","LUGO ROZAS, SP","FM-12","99999","V020","190,1,N,0041,1","03600,1,9,N","025000,1,N,1","+0106,1","+0043,1","10057,1",,,,,,,"07,99,1,03,1,05,1,00450,1,07,1,99,9",,,,,"99999,9,09535,1","6,1,010,1,+999,9",,"SYN066AAXX  04094 08008 42475 71908 10106 20043 39535 40057 56010 8357/;",
"08008099999","2010-02-04T12:00:00","4","43.1166666","-7.45","446.0","LUGO ROZAS, SP","FM-12","99999","V020","190,1,N,0051,1","00420,1,9,N","025000,1,N,1","+0119,1","+0068,1","10037,1","06,0000,9,1",,,,,,"08,99,1,05,1,05,1,00450,1,07,1,99,9",,,,,"99999,9,09519,1","7,1,016,1,+999,9",,"SYN072AAXX  04124 08008 12475 81910 10119 20068 39519 40037 57016 60001 8557/;","Q01  00002PRCP06"
"08008099999","2010-02-05T06:00:00","4","43.1166666","-7.45","446.0","LUGO ROZAS, SP","FM-12","99999","V020","200,1,N,0031,1","03600,1,9,N","020000,1,N,1","+0047,1","+0030,1","10123,1","12,0041,9,1","24,0089,9,1",,"8,1,06,1",,,"07,99,1,04,1,05,1,00450,1,07,1,99,9","0030,9","11,9","999,+0030,9","999,N,+0044,1","99999,9,09587,1","3,1,017,1,+999,9","02,1","SYN112AAXX  05064 08008 11470 72006 10047 20030 39587 40123 53017 60042 7028/ 8457/ 333 20044 32003 50134 55005 70089;",
"08008099999","2010-02-05T09:00:00","4","43.1166666","-7.45","446.0","LUGO ROZAS, SP","FM-12","99999","V020","200,1,N,0036,1","22000,1,9,N","020000,1,N,1","+0062,1","+0034,1","10146,1",,,,,,,"04,99,1,03,1,08,1,00450,1,06,1,00,1",,,,,"99999,9,09612,1","2,1,025,1,+999,9",,"SYN066AAXX  05094 08008 42470 42007 10062 20034 39612 40146 52025 83860;",
"08008099999","2010-02-05T12:00:00","4","43.1166666","-7.45","446.0","LUGO ROZAS, SP","FM-12","99999","V020","230,1,N,0077,1","22000,1,9,N","025000,1,N,1","+0101,1","+0034,1","10153,1","06,0000,9,1",,,"8,1,06,1","1,1,06,1",,"04,99,1,03,1,08,1,00450,1,06,1,00,1",,,,,"99999,9,09625,1","0,1,013,1,+999,9","02,1","SYN078AAXX  05124 08008 11475 42315 10101 20034 39625 40153 50013 69911 70281 83860;","Q01  00002PRCP06"
"08008099999","2010-02-08T06:00:00","4","43.1166666","-7.45","446.0","LUGO ROZAS, SP","FM-12","99999","V020","210,1,N,0026,1","00420,1,9,N","015000,1,N,1","+0084,1","+0078,1","10044,1","12,0041,9,1","24,0043,9,1",,"6,1,06,1",,,"07,99,1,05,1,07,1,00450,1,07,1,99,9","0102,9",,,"999,N,+0079,1","99999,9,09520,1","6,1,008,1,+999,9","21,1","SYN100AAXX  08064 08008 11465 72105 10084 20078 39520 40044 56008 60042 7216/ 8577/ 333 20079 55017 70043;",
"08008099999","2010-02-15T06:00:00","4","43.1166666","-7.45","446.0","LUGO ROZAS, SP","FM-12","99999","V020","999,9,C,0000,1","22000,1,9,N","025000,1,N,1","-0008,1","-0056,1","10024,1","12,0000,9,1","24,0000,9,1",,,,,"01,99,1,01,1,00,1,01750,1,03,1,01,1","0510,9",,,"999,N,-0013,1","99999,9,09482,1","7,1,016,1,+999,9",,"SYN100AAXX  15064 08008 12775 10000 11008 21056 39482 40024 57016 60002 81031 333 21013 5//// 55085 70000;","Q01  00002PRCP24Q02  00002PRCP12"
"08008099999","2010-02-15T09:00:00","4","43.1166666","-7.45","446.0","LUGO ROZAS, SP","FM-12","99999","V020","050,1,N,0031,1","22000,1,9,N","025000,1,N,1","+0018,1","-0014,1","10008,1",,,,,,,"03,99,1,01,1,00,1,01750,1,03,1,01,1",,,,,"99999,9,09472,1","8,1,010,1,+999,9",,"SYN066AAXX  15094 08008 42775 30506 10018 21014 39472 40008 58010 81031;",
"08008099999","2010-02-15T12:00:00","4","43.1166666","-7.45","446.0","LUGO ROZAS, SP","FM-12","99999","V020","060,1,N,0021,1","22000,1,9,N","025000,1,N,1","+0070,1","-0047,1","09989,1","06,0000,9,1",,,,,,"04,99,1,01,1,00,1,01750,1,03,1,04,1",,,,,"99999,9,09464,1","8,1,008,1,+999,9",,"SYN072AAXX  15124 08008 12775 40604 10070 21047 39464 49989 58008 60001 81034;","Q01  00002PRCP06"
"08008099999","2010-02-17T06:00:00","4","43.1166666","-7.45","446.0","LUGO ROZAS, SP","FM-12","99999","V020","999,9,C,0000,1","00210,1,9,N","000400,1,N,1","+0052,1","+0048,1","09901,1","12,0008,9,1","24,0008,9,1",,"5,1,06,1",,,"08,99,1,08,1,07,1,00250,1,99,9,99,9","0012,9",,,"999,N,+0050,1","99999,9,09378,1","3,1,001,1,+999,9","51,1","SYN100AAXX  17064 08008 11304 80000 10052 20048 39378 49901 53001 69982 7515/ 887// 333 20050 55002 70008;",
"08008099999","2010-02-17T09:00:00","4","43.1166666","-7.45","446.0","LUGO ROZAS, SP","FM-12","99999","V020","999,9,C,0000,1","00210,1,9,N","015000,1,N,1","+0054,1","+0050,1","09921,1",,,,"5,1,03,1","4,1,03,1",,"08,99,1,06,1,07,1,00250,1,07,1,99,9",,,,,"99999,9,09397,1","3,1,019,1,+999,9","51,1","SYN072AAXX  17094 08008 41365 80000 10054 20050 39397 49921 53019 75154 8677/;",
"08008099999","2010-02-17T12:00:00","4","43.1166666","-7.45","446.0","LUGO ROZAS, SP","FM-12","99999","V020","280,1,N,0005,1","00900,1,9,N","020000,1,N,1","+0072,1","+0045,1","09936,1","06,0020,9,1",,,"5,1,06,1","4,1,06,1",,"08,99,1,07,1,08,1,00450,1,03,1,99,9",,,,,"99999,9,09415,1","2,1,018,1,+999,9","80,1","SYN078AAXX  17124 08008 11470 82801 10072 20045 39415 49936 52018 60021 78054 8783/;",
"08008099999","2010-02-18T06:00:00","4","43.1166666","-7.45","446.0","LUGO ROZAS, SP","FM-12","99999","V020","180,1,N,0031,1","22000,1,9,N","025000,1,N,1","+0036,1","+0016,1","10007,1","12,0005,9,1","24,0020,9,1",,,,,"02,99,1,01,1,00,1,01750,1,03,1,01,1","0156,9","09,9","999,+0010,9","999,N,+0033,1","99999,9,09475,1","6,1,001,1,+999,9",,"SYN106AAXX  18064 08008 12775 21806 10036 20016 39475 40007 56001 69952 81031 333 20033 31001 50134 55026 70020;",
"08008099999","2010-02-18T09:00:00","4","43.1166666","-7.45","446.0","LUGO ROZAS, SP","FM-12","99999","V020","200,1,N,0026,1","22000,1,9,N","025000,1,N,1","+0049,1","+0019,1","10015,1",,,,,,,"04,99,1,04,1,08,1,00450,1,00,1,00,1",,,,,"99999,9,09485,1","3,1,010,1,+999,9",,"SYN066AAXX  18094 08008 42475 42005 10049 20019 39485 40015 53010 84800;",
"08008099999","2010-02-18T12:00:00","4","43.1166666","-7.45","446.0","LUGO ROZAS, SP","FM-12","99999","V020","210,1,N,0021,1","00900,1,9,N","025000,1,N,1","+0089,1","+0013,1","09999,1","06,0000,9,1",,,,,,"06,99,1,05,1,08,1,00450,1,06,1,00,1",,,,,"99999,9,09477,1","8,1,008,1,+999,9",,"SYN072AAXX  18124 08008 12475 62104 10089 20013 39477 49999 58008 60001 85860;","Q01  00002PRCP06"
"08008099999","2010-02-19T06:00:00","4","43.1166666","-7.45","446.0","LUGO ROZAS, SP","FM-12","99999","V020","999,9,C,0000,1","22000,1,9,N","008000,1,N,1","-0014,1","-0017,1","10047,1","12,0000,9,1","24,0000,9,1",,,,,"01,99,1,01,1,00,1,01750,1,03,1,00,1","0234,9","14,9","999,-0040,9","999,N,-0016,1","99999,9,09503,1","2,1,014,1,+999,9","40,1","SYN112AAXX  19064 08008 11758 10000 11014 21017 39503 40047 52014 69912 740// 81030 333 21016 34104 50124 55039 70001;","Q01  00002PRCP24Q02  00002PRCP12"
"08008099999","2010-02-19T09:00:00","4","43.1166666","-7.45","446.0","LUGO ROZAS, SP","FM-12","99999","V020","260,1,N,0010,1","03600,1,9,N","020000,1,N,1","+0015,1","+0005,1","10067,1",,,,,,,"05,99,1,04,1,08,1,00450,1,06,1,00,1",,,,,"99999,9,09528,1","2,1,025,1,+999,9",,"SYN066AAXX  19094 08008 42470 52602 10015 20005 39528 40067 52025 84860;",
"08008099999","2010-02-19T12:00:00","4","43.1166666","-7.45","446.0","LUGO ROZAS, SP","FM-12","99999","V020","320,1,N,0015,1","00900,1,9,N","025000,1,N,1","+0068,1","+0009,1","10072,1","06,0000,9,1",,,"8,1,06,1","1,1,06,1",,"07,99,1,06,1,08,1,00450,1,06,1,00,1",,,,,"99999,9,09542,1","1,1,014,1,+999,9","02,1","SYN078AAXX  19124 08008 11475 73203 10068 20009 39542 40072 51014 69901 70281 86860;","Q01  00002PRCP06"
"08008099999","2010-02-22T06:00:00","4","43.1166666","-7.45","446.0","LUGO ROZAS, SP","FM-12","99999","V020","200,1,N,0067,1","00420,1,9,N","015000,1,N,1","+0084,1","+0060,1","09897,1","12,0020,9,1","24,0028,9,1",,"6,1,06,1",,,"08,99,1,08,1,07,1,00450,1,99,9,99,9","0078,9",,,"999,N,+0082,1","99999,9,09380,1","5,1,009,1,+999,9","61,1","SYN100AAXX  22064 08008 11465 82013 10084 20060 39380 49897 55009 60022 7616/ 887// 333 20082 55013 70027;",
"08008099999","2010-02-22T09:00:00","4","43.1166666","-7.45","446.0","LUGO ROZAS, SP","FM-12","99999","V020","190,1,N,0036,1","00420,1,9,N","020000,1,N,1","+0081,1","+0069,1","09908,1",,,,"6,1,03,1","2,1,03,1",,"08,99,1,06,1,07,1,00450,1,07,1,99,9",,,,,"99999,9,09390,1","3,1,010,1,+999,9","63,1","SYN072AAXX  22094 08008 41470 81907 10081 20069 39390 49908 53010 76362 8677/;",
"08008099999","2010-02-22T12:00:00","4","43.1166666","-7.45","446.0","LUGO ROZAS, SP","FM-12","99999","V020","200,1,N,0057,1","00420,1,9,N","020000,1,N,1","+0096,1","+0072,1","09912,1","06,0071,9,1",,,"6,1,06,1","2,1,06,1",,"08,99,1,06,1,07,1,00450,1,07,1,99,9",,,,,"99999,9,09397,1","1,1,007,1,+999,9","60,1","SYN078AAXX  22124 08008 11470 82011 10096 20072 39397 49912 51007 60071 76062 8677/;",
"08008099999","2010-02-23T06:00:00","4","43.1166666","-7.45","446.0","LUGO ROZAS, SP","FM-12","99999","V020","190,1,N,0041,1","00420,1,9,N","020000,1,N,1","+0074,1","+0062,1","09971,1","12,0119,9,1","24,0300,9,1",,"6,1,06,1",,,"08,99,1,06,1,07,1,00450,1,07,1,99,9","0060,9","11,9","999,+0060,9","999,N,+0065,1","99999,9,09448,1","3,1,009,1,+999,9","63,1","SYN112AAXX  23064 08008 11470 81908 10074 20062 39448 49971 53009 60122 7636/ 8677/ 333 20065 32006 50154 55010 70300;",
"08008099999","2010-02-23T09:00:00","4","43.1166666","-7.45","446.0","LUGO ROZAS, SP","FM-12","99999","V020","190,1,N,0031,1","00420,1,9,N","020000,1,N,1","+0078,1","+0059,1","09981,1",,,,"6,1,03,1","2,1,03,1",,"08,99,1,06,1,07,1,00450,1,07,1,99,9",,,,,"99999,9,09459,1","1,1,011,1,+999,9","61,1","SYN072AAXX  23094 08008 41470 81906 10078 20059 39459 49981 51011 76162 8677/;",
"08008099999","2010-02-23T12:00:00","4","43.1166666","-7.45","446.0","LUGO ROZAS, SP","FM-12","99999","V020","220,1,N,0046,1","03600,1,9,N","015000,1,N,1","+0076,1","+0061,1","09999,1","06,0071,9,1",,,"6,1,06,1","2,1,06,1",,"08,99,1,04,1,07,1,00450,1,02,1,99,9",,,,,"99999,9,09475,1","2,1,016,1,+999,9","61,1","SYN078AAXX  23124 08008 11465 82209 10076 20061 39475 49999 52016 60071 76162 8472/;",
"08008099999","2010-02-24T06:00:00","4","43.1166666","-7.45","446.0","LUGO ROZAS, SP","FM-12","99999","V020","230,1,N,0077,1","03600,1,9,N","025000,1,N,1","+0070,1","+0036,1","10048,1","12,0071,9,1","24,0300,9,1",,"8,1,06,1","6,1,06,1",,"06,99,1,03,1,07,1,00450,1,07,1,00,1","0036,9","11,9","999,+0050,9","999,N,+0059,1","99999,9,09520,1","3,1,011,1,+999,9","21,1","SYN112AAXX  24064 08008 11475 62315 10070 20036 39520 40048 53011 60072 72186 83770 333 20059 32005 50194 55006 70299;",
"08008099999","2010-02-24T09:00:00","4","43.1166666","-7.45","446.0","LUGO ROZAS, SP","FM-12","99999","V020","200,1,N,0036,1","00420,1,9,N","025000,1,N,1","+0076,1","+0047,1","10067,1",,,,"6,1,03,1","2,1,03,1",,"08,99,1,06,1,07,1,00450,1,07,1,00,1",,,,,"99999,9,09540,1","2,1,020,1,+999,9","21,1","SYN072AAXX  24094 08008 41475 82007 10076 20047 39540 40067 52020 72162 86770;",
"08008099999","2010-02-24T12:00:00","4","43.1166666","-7.45","446.0","LUGO ROZAS, SP","FM-12","99999","V020","220,1,N,0057,1","03600,1,9,N","018000,1,N,1","+0068,1","+0048,1","10085,1","06,0020,9,1",,,"6,1,06,1","2,1,06,1",,"08,99,1,04,1,07,1,00450,1,07,1,99,9",,,,,"99999,9,09555,1","1,1,015,1,+999,9","62,1","SYN078AAXX  24124 08008 11468 82211 10068 20048 39555 40085 51015 60021 76262 8477/;",
"08008099999","2010-02-25T06:00:00","4","43.1166666","-7.45","446.0","LUGO ROZAS, SP","FM-12","99999","V020","240,1,N,0051,1","00420,1,9,N","020000,1,N,1","+0110,1","+0091,1","09947,1","12,0419,9,1","24,0564,9,1",,"6,1,06,1",,,"08,99,1,06,1,07,1,00450,1,07,1,99,9","0000,9","11,9","999,+0090,9","999,N,+0091,1","99999,9,09433,1","5,1,005,1,+999,9","21,1","SYN112AAXX  25064 08008 11470 82410 10110 20091 39433 49947 55005 60422 7216/ 8677/ 333 20091 32009 50174 55000 70564;",
"08008099999","2010-02-25T09:00:00","4","43.1166666","-7.45","446.0","LUGO ROZAS, SP","FM-12","99999","V020","220,1,N,0067,1","00420,1,9,N","025000,1,N,1","+0112,1","+0067,1","09950,1",,,,,,,"07,99,1,05,1,05,1,00450,1,07,1,99,9",,,,,"99999,9,09435,1","0,1,002,1,+999,9",,"SYN066AAXX  25094 08008 42475 72213 10112 20067 39435 49950 50002 8557/;",
"08008099999","2010-02-25T12:00:00","4","43.1166666","-7.45","446.0","LUGO ROZAS, SP","FM-12","99999","V020","240,1,N,0077,1","00900,1,9,N","025000,1,N,1","+0129,1","+0043,1","09946,1","06,0020,9,1",,,"6,1,06,1","2,1,06,1",,"06,99,1,05,1,08,1,00450,1,06,1,00,1",,,,,"99999,9,09434,1","8,1,001,1,+999,9","02,1","SYN078AAXX  25124 08008 11475 62415 10129 20043 39434 49946 58001 60021 70262 85860;",
"08008099999","2010-02-26T06:00:00","4","43.1166666","-7.45","446.0","LUGO ROZAS, SP","FM-12","99999","V020","200,1,N,0031,1","22000,1,9,N","025000,1,N,1","+0046,1","+0026,1","10107,1","12,0020,9,1","24,0066,9,1",,"8,1,06,1",,,"01,99,1,01,1,06,1,00450,1,00,1,00,1","0150,9","11,9","999,+0020,9","999,N,+0034,1","99999,9,09572,1","1,1,007,1,+999,9","02,1","SYN112AAXX  26064 08008 11475 12006 10046 20026 39572 40107 51007 60022 7028/ 81600 333 20034 32002 50324 55025 70067;",
"08008099999","2010-02-26T09:00:00","4","43.1166666","-7.45","446.0","LUGO ROZAS, SP","FM-12","99999","V020","180,1,N,0026,1","22000,1,9,N","025000,1,N,1","+0063,1","+0040,1","10121,1",,,,,,,"03,99,1,02,1,05,1,00450,1,00,1,01,1",,,,,"99999,9,09588,1","3,1,016,1,+999,9",,"SYN066AAXX  26094 08008 42475 31805 10063 20040 39588 40121 53016 82501;",
"08008099999","2010-02-26T12:00:00","4","43.1166666","-7.45","446.0","LUGO ROZAS, SP","FM-12","99999","V020","220,1,N,0057,1","22000,1,9,N","025000,1,N,1","+0101,1","+0025,1","10107,1","06,0000,9,1",,,,,,"05,99,1,04,1,05,1,00450,1,00,1,04,1",,,,,"99999,9,09582,1","8,1,006,1,+999,9",,"SYN072AAXX  26124 08008 12475 52211 10101 20025 39582 40107 58006 60001 84504;","Q01  00002PRCP06"
"08008099999","2010-03-01T06:00:00","4","43.1166666","-7.45","446.0","LUGO ROZAS, SP","FM-12","99999","V020","180,1,N,0031,1","00420,1,9,N","025000,1,N,1","+0053,1","+0036,1","10094,1","12,0071,9,1","24,0084,9,1",,"6,1,06,1",,,"08,99,1,06,1,05,1,00450,1,07,1,99,9","0090,9",,,"999,N,+0051,1","99999,9,09561,1","2,1,013,1,+999,9","60,1","SYN100AAXX  01064 08008 11475 81806 10053 20036 39561 40094 52013 60072 7606/ 8657/ 333 20051 55015 70084;",
"08008099999","2010-03-01T09:00:00","4","43.1166666","-7.45","446.0","LUGO ROZAS, SP","FM-12","99999","V020","190,1,N,0036,1","00420,1,9,N","020000,1,N,1","+0060,1","+0037,1","10123,1",,,,"6,1,03,1","2,1,03,1",,"08,99,1,06,1,05,1,00450,1,07,1,99,9",,,,,"99999,9,09590,1","2,1,029,1,+999,9","60,1","SYN072AAXX  01094 08008 41470 81907 10060 20037 39590 40123 52029 76062 8657/;",
"08008099999","2010-03-01T12:00:00","4","43.1166666","-7.45","446.0","LUGO ROZAS, SP","FM-12","99999","V020","210,1,N,0041,1","03600,1,9,N","025000,1,N,1","+0094,1","+0048,1","10140,1","06,0030,9,1",,,"6,1,06,1","2,1,06,1",,"05,99,1,04,1,08,1,00450,1,06,1,00,1",,,,,"99999,9,09612,1","2,1,022,1,+999,9","02,1","SYN078AAXX  01124 08008 11475 52108 10094 20048 39612 40140 52022 60031 70262 84860;",
"08008099999","2010-03-02T06:00:00","4","43.1166666","-7.45","446.0","LUGO ROZAS, SP","FM-12","99999","V020","230,1,N,0010,1","22000,1,9,N","000600,1,N,1","-0006,1","-0009,1","10166,1","12,0000,9,1","24,0036,9,1",,,,,"02,99,1,01,1,06,1,00450,1,03,1,00,1","0318,9","14,9","999,-0030,9","999,N,-0006,1","99999,9,09617,1","6,1,014,1,+999,9","44,1","SYN112AAXX  02064 08008 11406 22302 11006 21009 39617 40166 56014 60002 744// 81630 333 21006 34103 50204 55053 70036;","Q01  00002PRCP12"
"08008099999","2010-03-02T09:00:00","4","43.1166666","-7.45","446.0","LUGO ROZAS, SP","FM-12","99999","V020","999,9,C,0000,1","22000,1,9,N","025000,1,N,1","+0046,1","+0026,1","10137,1",,,,"4,1,03,1","0,1,03,1",,"04,99,1,01,1,00,1,01750,1,04,1,04,1",,,,,"99999,9,09600,1","7,1,017,1,+999,9","02,1","SYN072AAXX  02094 08008 41775 40000 10046 20026 39600 40137 57017 70240 81044;",
"08008099999","2010-03-02T12:00:00","4","43.1166666","-7.45","446.0","LUGO ROZAS, SP","FM-12","99999","V020","999,9,C,0000,1","01500,1,9,N","025000,1,N,1","+0143,1","+0040,1","10102,1","06,0000,9,1",,,"4,1,06,1","1,1,06,1",,"08,99,1,05,1,00,1,01750,1,03,1,07,1",,,,,"99999,9,09585,1","8,1,015,1,+999,9","03,1","SYN078AAXX  02124 08008 11775 80000 10143 20040 39585 40102 58015 60001 70341 85037;","Q01  00002PRCP06"
"08008099999","2010-03-03T06:00:00","4","43.1166666","-7.45","446.0","LUGO ROZAS, SP","FM-12","99999","V020","999,9,C,0000,1","00420,1,9,N","020000,1,N,1","+0075,1","+0069,1","10048,1","12,0041,9,2","24,0038,9,2",,"6,1,06,1",,,"08,99,1,08,1,07,1,00450,1,99,9,99,9","0480,9","11,9","999,+0070,9","999,N,+0075,1","99999,9,09522,1","3,1,001,1,+999,9","61,1","SYN112AAXX  03064 08008 11470 80000 10075 20069 39522 40048 53001 60042 7616/ 887// 333 20075 32007 50234 55080 70037;",
"08008099999","2010-03-03T09:00:00","4","43.1166666","-7.45","446.0","LUGO ROZAS, SP","FM-12","99999","V020","999,9,C,0000,1","03600,1,9,N","025000,1,N,1","+0087,1","+0079,1","10057,1",,,,"6,1,03,1","2,1,03,1",,"08,99,1,02,1,07,1,00450,1,07,1,99,9",,,,,"99999,9,09533,1","2,1,011,1,+999,9","60,1","SYN072AAXX  03094 08008 41475 80000 10087 20079 39533 40057 52011 76062 8277/;",
"08008099999","2010-03-03T12:00:00","4","43.1166666","-7.45","446.0","LUGO ROZAS, SP","FM-12","99999","V020","200,1,N,0021,1","00420,1,9,N","025000,1,N,1","+0104,1","+0076,1","10071,1","06,0005,9,1",,,"6,1,06,1","2,1,06,1",,"08,99,1,06,1,07,1,00450,1,07,1,99,9",,,,,"99999,9,09549,1","2,1,016,1,+999,9","60,1","SYN078AAXX  03124 08008 11475 82004 10104 20076 39549 40071 52016 69941 76062 8677/;",
"08008099999","2010-03-04T06:00:00","4","43.1166666","-7.45","446.0","LUGO ROZAS, SP","FM-12","99999","V020","050,1,N,0010,1","00420,1,9,N","020000,1,N,1","+0071,1","+0060,1","10154,1","12,0030,9,1","24,0043,9,1",,,,,"07,99,1,05,1,06,1,00450,1,03,1,99,9","0036,9","09,9","999,+0040,9","999,N,+0065,1","99999,9,09621,1","2,1,012,1,+999,9",,"SYN106AAXX  04064 08008 12470 70502 10071 20060 39621 40154 52012 60032 8563/ 333 20065 31004 50064 55006 70044;",
"08008099999","2010-03-04T09:00:00","4","43.1166666","-7.45","446.0","LUGO ROZAS, SP","FM-12","99999","V020","010,1,N,0010,1","03600,1,9,N","020000,1,N,1","+0075,1","+0058,1","10173,1",,,,,,,"08,99,1,03,1,06,1,00450,1,07,1,99,9",,,,,"99999,9,09640,1","2,1,019,1,+999,9",,"SYN066AAXX  04094 08008 42470 80102 10075 20058 39640 40173 52019 8367/;",
"08008099999","2010-03-04T12:00:00","4","43.1166666","-7.45","446.0","LUGO ROZAS, SP","FM-12","99999","V020","030,1,N,0026,1","00420,1,9,N","025000,1,N,1","+0116,1","+0046,1","10174,1","06,0000,9,1",,,,,,"06,99,1,05,1,05,1,00450,1,03,1,00,1",,,,,"99999,9,09648,1","0,1,008,1,+999,9",,"SYN072AAXX  04124 08008 12475 60305 10116 20046 39648 40174 50008 60001 85530;","Q01  00002PRCP06"
"08008099999","2010-03-05T06:00:00","4","43.1166666","-7.45","446.0","LUGO ROZAS, SP","FM-12","99999","V020","060,1,N,0010,1","22000,1,9,N","020000,1,N,1","+0024,1","+0003,1","10178,1","12,0000,9,1","24,0000,9,1",,,,,"02,99,1,00,1,00,1,99999,9,00,1,01,1","0342,9","14,9","999,-0020,9","999,N,+0002,1","99999,9,09635,1","7,1,009,1,+999,9",,"SYN106AAXX  05064 08008 12870 20602 10024 20003 39635 40178 57009 60002 80001 333 20002 34102 50154 55057 70000;","Q01+022502SCOLCBQ02  00002PRCP24Q03  00002PRCP12"
"08008099999","2010-03-05T09:00:00","4","43.1166666","-7.45","446.0","LUGO ROZAS, SP","FM-12","99999","V020","050,1,N,0021,1","09000,1,9,N","025000,1,N,1","+0052,1","+0011,1","10177,1",,,,,,,"08,99,1,04,1,00,1,01750,1,03,1,07,1",,,,,"99999,9,09639,1","3,1,004,1,+999,9",,"SYN066AAXX  05094 08008 42775 80504 10052 20011 39639 40177 53004 84037;",
"08008099999","2010-03-05T12:00:00","4","43.1166666","-7.45","446.0","LUGO ROZAS, SP","FM-12","99999","V020","060,1,N,0026,1","09000,1,9,N","025000,1,N,1","+0110,1","-0008,1","10157,1","06,0000,9,1",,,,,,"08,99,1,04,1,00,1,01750,1,03,1,07,1",,,,,"99999,9,09630,1","8,1,009,1,+999,9",,"SYN072AAXX  05124 08008 12775 80605 10110 21008 39630 40157 58009 60001 84037;","Q01  00002PRCP06"
"08008099999","2010-03-08T06:00:00","4","43.1166666","-7.45","446.0","LUGO ROZAS, SP","FM-12","99999","V020","130,1,N,0010,1","22000,1,9,N","025000,1,N,1","-0007,1","-0066,1","10167,1","12,0000,9,1","24,0015,9,1",,,,"00,1,+99999,9,99,9","00,99,1,00,1,00,1,99999,9,00,1,00,1","0000,9",,,"999,N,-0011,1","99999,9,09618,1","3,1,001,1,+999,9",,"SYN088AAXX  08064 08008 12975 01302 11007 21066 39618 40167 53001 60002 333 21011 55000 70014;","Q01  00002PRCP12"
"08008099999","2010-03-08T09:00:00","4","43.1166666","-7.45","446.0","LUGO ROZAS, SP","FM-12","99999","V020","070,1,N,0021,1","22000,1,9,N","025000,1,N,1","+0033,1","-0072,1","10154,1",,,,,,,"01,99,1,01,1,06,1,00450,1,00,1,00,1",,,,,"99999,9,09613,1","8,1,005,1,+999,9",,"SYN066AAXX  08094 08008 42475 10704 10033 21072 39613 40154 58005 81600;",
"08008099999","2010-03-08T12:00:00","4","43.1166666","-7.45","446.0","LUGO ROZAS, SP","FM-12","99999","V020","070,1,N,0026,1","22000,1,9,N","025000,1,N,1","+0063,1","-0073,1","10135,1","06,0000,9,1",,,,,,"04,99,1,01,1,06,1,00450,1,05,1,00,1",,,,,"99999,9,09601,1","7,1,012,1,+999,9",,"SYN072AAXX  08124 08008 12475 40705 10063 21073 39601 40135 57012 60001 81650;","Q01  00002PRCP06"
"08008099999","2010-03-09T06:00:00","4","43.1166666","-7.45","446.0","LUGO ROZAS, SP","FM-12","99999","V020","030,1,N,0010,1","22000,1,9,N","025000,1,N,1","+0006,1","-0023,1","10169,1","12,0000,9,1","24,0000,9,1",,,,,"01,99,1,01,1,06,1,00450,1,00,1,00,1","0558,9","14,9","999,-0040,9","999,N,+0000,1","99999,9,09622,1","2,1,018,1,+999,9",,"SYN106AAXX  09064 08008 12475 10302 10006 21023 39622 40169 52018 60002 81600 333 20000 34104 50274 55093 70000;","Q01  00002PRCP24Q02  00002PRCP12"
"08008099999","2010-03-09T09:00:00","4","43.1166666","-7.45","446.0","LUGO ROZAS, SP","FM-12","99999","V020","050,1,N,0021,1","22000,1,9,N","025000,1,N,1","+0054,1","-0036,1","10184,1",,,,,,,"01,99,1,01,1,06,1,00450,1,00,1,00,1",,,,,"99999,9,09646,1","2,1,024,1,+999,9",,"SYN066AAXX  09094 08008 42475 10504 10054 21036 39646 40184 52024 81600;",
"08008099999","2010-03-09T12:00:00","4","43.1166666","-7.45","446.0","LUGO ROZAS, SP","FM-12","99999","V020","090,1,N,0031,1","22000,1,9,N","025000,1,N,1","+0090,1","-0056,1","10188,1","06,0000,9,1",,,,,,"01,99,1,01,1,06,1,00450,1,00,1,00,1",,,,,"99999,9,09656,1","1,1,010,1,+999,9",,"SYN072AAXX  09124 08008 12475 10906 10090 21056 39656 40188 51010 60001 81600;","Q01  00002PRCP06"
"08008099999","2010-03-10T06:00:00","4","43.1166666","-7.45","446.0","LUGO ROZAS, SP","FM-12","99999","V020","999,9,C,0000,1","22000,1,9,N","025000,1,N,1","-0033,1","-0056,1","10218,1","12,0000,9,1","24,0000,9,1",,,,"00,1,+99999,9,99,9","00,99,1,00,1,00,1,99999,9,00,1,00,1","0636,9","14,9","999,-0060,9","999,N,-0033,1","99999,9,09661,1","5,1,001,1,+999,9",,"SYN100AAXX  10064 08008 12975 00000 11033 21056 39661 40218 55001 60002 333 21033 34106 50244 55106 70000;","Q01  00002PRCP24Q02  00002PRCP12"
"08008099999","2010-03-10T09:00:00","4","43.1166666","-7.45","446.0","LUGO ROZAS, SP","FM-12","99999","V020","999,9,C,0000,1","22000,1,9,N","025000,1,N,1","+0031,1","-0043,1","10204,1",,,,,,"00,1,+99999,9,99,9","00,99,1,00,1,00,1,99999,9,00,1,00,1",,,,,"99999,9,09660,1","8,1,001,1,+999,9",,"SYN060AAXX  10094 08008 42975 00000 10031 21043 39660 40204 58001;",
"08008099999","2010-03-10T12:00:00","4","43.1166666","-7.45","446.0","LUGO ROZAS, SP","FM-12","99999","V020","040,1,N,0041,1","22000,1,9,N","025000,1,N,1","+0084,1","-0014,1","10183,1","06,0000,9,1",,,,,,"01,99,1,01,1,01,1,00450,1,00,1,00,1",,,,,"99999,9,09650,1","8,1,010,1,+999,9",,"SYN072AAXX  10124 08008 12475 10408 10084 21014 39650 40183 58010 60001 81100;","Q01  00002PRCP06"
"08008099999","2010-03-11T06:00:00","4","43.1166666","-7.45","446.0","LUGO ROZAS, SP","FM-12","99999","V020","999,9,C,0000,1","22000,1,9,N","025000,1,N,1","-0030,1","-0046,1","10196,1","12,0000,9,1","24,0000,9,1",,,,,"01,99,1,01,1,06,1,00450,1,00,1,00,1","0636,9","14,9","999,-0060,9","999,N,-0033,1","99999,9,09641,1","5,1,005,1,+999,9",,"SYN106AAXX  11064 08008 12475 10000 11030 21046 39641 40196 55005 60002 81600 333 21033 34106 50234 55106 70000;","Q01  00002PRCP24Q02  00002PRCP12"
"08008099999","2010-03-11T09:00:00","4","43.1166666","-7.45","446.0","LUGO ROZAS, SP","FM-12","99999","V020","060,1,N,0026,1","22000,1,9,N","020000,1,N,1","+0044,1","-0031,1","10186,1",,,,,,,"02,99,1,00,1,00,1,99999,9,00,1,04,1",,,,,"99999,9,09646,1","1,1,005,1,+999,9",,"SYN066AAXX  11094 08008 42870 20605 10044 21031 39646 40186 51005 80004;","Q01+022502SCOLCB"
"08008099999","2010-03-11T12:00:00","4","43.1166666","-7.45","446.0","LUGO ROZAS, SP","FM-12","99999","V020","070,1,N,0041,1","22000,1,9,N","020000,1,N,1","+0078,1","-0049,1","10176,1","06,0000,9,1",,,,,,"03,99,1,01,1,06,1,00450,1,00,1,04,1",,,,,"99999,9,09642,1","8,1,004,1,+999,9",,"SYN072AAXX  11124 08008 12470 30708 10078 21049 39642 40176 58004 60001 81604;","Q01  00002PRCP06"
"08008099999","2010-03-12T06:00:00","4","43.1166666","-7.45","446.0","LUGO ROZAS, SP","FM-12","99999","V020","999,9,C,0000,1","22000,1,9,N","020000,1,N,1","-0014,1","-0027,1","10232,1","12,0000,9,1","24,0000,9,1",,,,,"04,99,1,02,1,06,1,00450,1,03,1,01,1","0582,9","14,9","999,-0040,9","999,N,-0014,1","99999,9,09678,1","3,1,010,1,+999,9",,"SYN106AAXX  12064 08008 12470 40000 11014 21027 39678 40232 53010 60002 82631 333 21014 34104 50254 55097 70000;","Q01  00002PRCP24Q02  00002PRCP12"
"08008099999","2010-03-12T09:00:00","4","43.1166666","-7.45","446.0","LUGO ROZAS, SP","FM-12","99999","V020","040,1,N,0010,1","22000,1,9,N","020000,1,N,1","+0054,1","-0002,1","10237,1",,,,,,,"04,99,1,01,1,00,1,01750,1,01,1,04,1",,,,,"99999,9,09696,1","2,1,018,1,+999,9",,"SYN066AAXX  12094 08008 42770 40402 10054 21002 39696 40237 52018 81014;",
"08008099999","2010-03-12T12:00:00","4","43.1166666","-7.45","446.0","LUGO ROZAS, SP","FM-12","99999","V020","040,1,N,0041,1","22000,1,9,N","025000,1,N,1","+0094,1","-0019,1","10234,1","06,0000,9,1",,,,,,"05,99,1,04,1,05,1,00450,1,00,1,01,1",,,,,"99999,9,09700,1","1,1,004,1,+999,9",,"SYN072AAXX  12124 08008 12475 50408 10094 21019 39700 40234 51004 60001 84501;","Q01  00002PRCP06"
"08008099999","2010-03-15T06:00:00","4","43.1166666","-7.45","446.0","LUGO ROZAS, SP","FM-12","99999","V020","999,9,C,0000,1","22000,1,9,N","002000,1,N,1","-0030,1","-0043,1","10296,1","12,0000,9,1","24,0000,9,1",,,,"00,1,+99999,9,99,9","00,99,1,00,1,00,1,99999,9,00,1,00,1","0642,9",,,"999,N,-0030,1","99999,9,09735,1","6,1,010,1,+999,9","40,1","SYN100AAXX  15064 08008 11920 00000 11030 21043 39735 40296 56010 60002 740// 333 21030 5//// 55107 70000;","Q01  00002PRCP24Q02  00002PRCP12"
"08008099999","2010-03-15T09:00:00","4","43.1166666","-7.45","446.0","LUGO ROZAS, SP","FM-12","99999","V020","999,9,C,0000,1","22000,1,9,N","005000,1,N,1","+0029,1","+0000,1","10288,1",,,,"4,1,03,1","0,1,03,1",,"01,99,1,00,1,00,1,99999,9,00,1,01,1",,,,,"99999,9,09740,1","2,1,005,1,+999,9","28,1","SYN072AAXX  15094 08008 41850 10000 10029 20000 39740 40288 52005 72840 80001;","Q01+022502SCOLCB"
"08008099999","2010-03-15T12:00:00","4","43.1166666","-7.45","446.0","LUGO ROZAS, SP","FM-12","99999","V020","999,9,C,0000,1","22000,1,9,N","020000,1,N,1","+0119,1","+0029,1","10264,1","06,0000,9,1",,,"4,1,06,1","0,1,06,1",,"02,99,1,00,1,00,1,99999,9,00,1,04,1",,,,,"99999,9,09734,1","8,1,006,1,+999,9","02,1","SYN078AAXX  15124 08008 11870 20000 10119 20029 39734 40264 58006 60001 70240 80004;","Q01+022502SCOLCBQ02  00002PRCP06"
"08008099999","2010-03-16T06:00:00","4","43.1166666","-7.45","446.0","LUGO ROZAS, SP","FM-12","99999","V020","250,1,N,0010,1","22000,1,9,N","025000,1,N,1","-0030,1","-0040,1","10250,1","12,0000,9,1","24,0000,9,1",,,,,"01,99,1,00,1,00,1,99999,9,00,1,01,1","0618,9","14,9","999,-0060,9","999,N,-0032,1","99999,9,09692,1","5,1,003,1,+999,9",,"SYN100AAXX  16064 08008 12875 12502 11030 21040 39692 40250 55003 60002 80001 333 21032 34106 55103 70000;","Q01+022502SCOLCBQ02  00002PRCP24Q03  00002PRCP12"
"08008099999","2010-03-16T09:00:00","4","43.1166666","-7.45","446.0","LUGO ROZAS, SP","FM-12","99999","V020","999,9,C,0000,1","01500,1,9,N","025000,1,N,1","+0028,1","+0007,1","10244,1",,,,,,,"07,99,1,05,1,00,1,01750,1,05,1,04,1",,,,,"99999,9,09698,1","1,1,006,1,+999,9",,"SYN066AAXX  16094 08008 42775 70000 10028 20007 39698 40244 51006 85054;",
"08008099999","2010-03-16T12:00:00","4","43.1166666","-7.45","446.0","LUGO ROZAS, SP","FM-12","99999","V020","350,1,N,0005,1","01500,1,9,N","025000,1,N,1","+0118,1","+0043,1","10229,1","06,0000,9,1",,,,,,"07,99,1,05,1,00,1,01750,1,03,1,08,1",,,,,"99999,9,09701,1","0,1,003,1,+999,9",,"SYN072AAXX  16124 08008 12775 73501 10118 20043 39701 40229 50003 60001 85038;","Q01  00002PRCP06"
"08008099999","2010-03-18T06:00:00","4","43.1166666","-7.45","446.0","LUGO ROZAS, SP","FM-12","99999","V020","180,1,N,0031,1","00420,1,9,N","020000,1,N,1","+0126,1","+0053,1","10179,1","12,9999,9,9","24,9999,9,9",,,,,"08,99,1,08,1,07,1,00450,1,99,9,99,9","0594,9",,,"999,N,+0066,1","99999,9,09655,1","5,1,001,1,+999,9","61,1","SYN100AAXX  18064 08008 11470 81806 10126 20053 39655 40179 55001 69912 761// 887// 333 20066 55099 70001;","Q01  00002PRCP24Q02  00002PRCP12Q03  00002PRCP12Q04  00002PRCP24"
"08008099999","2010-03-18T09:00:00","4","43.1166666","-7.45","446.0","LUGO ROZAS, SP","FM-12","99999","V020","190,1,N,0031,1","03600,1,9,N","025000,1,N,1","+0124,1","+0075,1","10183,1",,,,"6,1,03,1","2,1,03,1",,"08,99,1,02,1,07,1,00450,1,07,1,99,9",,,,,"99999,9,09659,1","3,1,004,1,+999,9","21,1","SYN072AAXX  18094 08008 41475 81906 10124 20075 39659 40183 53004 72162 8277/;",
"08008099999","2010-03-18T12:00:00","4","43.1166666","-7.45","446.0","LUGO ROZAS, SP","FM-12","99999","V020","210,1,N,0067,1","99999,9,9,N","025000,1,N,1","+0165,1","+0049,1","10177,1","06,0005,9,1",,,"6,1,06,1","2,1,06,1",,"08,99,1,06,1,00,1,01250,1,07,1,99,9",,,,,"99999,9,09660,1","3,1,001,1,+999,9","02,1","SYN078AAXX  18124 08008 11675 82113 10165 20049 39660 40177 53001 69941 70262 8607/;",
"08008099999","2010-03-22T06:00:00","4","43.1166666","-7.45","446.0","LUGO ROZAS, SP","FM-12","99999","V020","160,1,N,0010,1","22000,1,9,N","020000,1,N,1","+0079,1","+0070,1","10224,1","12,0000,9,1","24,0000,9,1",,,,,"01,99,1,01,1,06,1,00450,1,04,1,01,1","0348,9",,,"999,N,+0050,1","99999,9,09689,1","1,1,003,1,+999,9",,"SYN094AAXX  22064 08008 12470 11602 10079 20070 39689 40224 51003 60002 81641 333 20050 55058 70000;","Q01  00002PRCP24Q02  00002PRCP12"
"08008099999","2010-03-22T09:00:00","4","43.1166666","-7.45","446.0","LUGO ROZAS, SP","FM-12","99999","V020","200,1,N,0010,1","00420,1,9,N","020000,1,N,1","+0090,1","+0073,1","10235,1",,,,,,,"07,99,1,07,1,05,1,00450,1,99,9,99,9",,,,,"99999,9,09702,1","1,1,013,1,+999,9",,"SYN066AAXX  22094 08008 42470 72002 10090 20073 39702 40235 51013 875//;",
"08008099999","2010-03-22T12:00:00","4","43.1166666","-7.45","446.0","LUGO ROZAS, SP","FM-12","99999","V020","240,1,N,0031,1","22000,1,9,N","025000,1,N,1","+0144,1","+0050,1","10224,1","06,0000,9,1",,,,,,"02,99,1,01,1,06,1,00450,1,00,1,01,1",,,,,"99999,9,09701,1","8,1,001,1,+999,9",,"SYN072AAXX  22124 08008 12475 22406 10144 20050 39701 40224 58001 60001 81601;","Q01  00002PRCP06"
"08008099999","2010-03-23T06:00:00","4","43.1166666","-7.45","446.0","LUGO ROZAS, SP","FM-12","99999","V020","240,1,N,0010,1","03600,1,9,N","025000,1,N,1","+0042,1","+0035,1","10175,1","12,0000,9,1","24,0000,9,1",,,,,"08,99,1,04,1,06,1,00450,1,07,1,99,9","0498,9","01,9","999,+0010,9","999,N,+0033,1","99999,9,09635,1","7,1,015,1,+999,9",,"SYN106AAXX  23064 08008 12475 82402 10042 20035 39635 40175 57015 60002 8467/ 333 20033 30001 50274 55083 70000;","Q01  00002PRCP24Q02  00002PRCP12"
"08008099999","2010-03-23T09:00:00","4","43.1166666","-7.45","446.0","LUGO ROZAS, SP","FM-12","99999","V020","300,1,N,0015,1","03600,1,9,N","025000,1,N,1","+0084,1","+0065,1","10157,1",,,,,,,"07,99,1,02,1,05,1,00450,1,03,1,08,1",,,,,"99999,9,09627,1","6,1,008,1,+999,9",,"SYN066AAXX  23094 08008 42475 73003 10084 20065 39627 40157 56008 82538;",
"08008099999","2010-03-23T12:00:00","4","43.1166666","-7.45","446.0","LUGO ROZAS, SP","FM-12","99999","V020","210,1,N,0046,1","03600,1,9,N","025000,1,N,1","+0174,1","+0040,1","10130,1","06,0000,9,1",,,,,,"07,99,1,03,1,05,1,00450,1,03,1,08,1",,,,,"99999,9,09617,1","8,1,010,1,+999,9",,"SYN072AAXX  23124 08008 12475 72109 10174 20040 39617 40130 58010 60001 83538;","Q01  00002PRCP06"
"08008099999","2010-03-24T06:00:00","4","43.1166666","-7.45","446.0","LUGO ROZAS, SP","FM-12","99999","V020","190,1,N,0026,1","99999,9,9,N","020000,1,N,1","+0114,1","+0081,1","10032,1","12,0008,9,1","24,0008,9,1",,"6,1,06,1",,,"08,99,1,06,1,00,1,01250,1,07,1,07,1","0258,9","09,9","999,+0090,9","999,N,+0104,1","99999,9,09514,1","7,1,015,1,+999,9","60,1","SYN112AAXX  24064 08008 11670 81905 10114 20081 39514 40032 57015 69982 7606/ 86077 333 20104 31009 50394 55043 70008;",
"08008099999","2010-03-24T09:00:00","4","43.1166666","-7.45","446.0","LUGO ROZAS, SP","FM-12","99999","V020","190,1,N,0026,1","99999,9,9,N","025000,1,N,1","+0109,1","+0072,1","10039,1",,,,"6,1,03,1","2,1,03,1",,"08,99,1,08,1,00,1,01250,1,07,1,99,9",,,,,"99999,9,09519,1","1,1,005,1,+999,9","21,1","SYN072AAXX  24094 08008 41675 81905 10109 20072 39519 40039 51005 72162 8807/;",
"08008099999","2010-03-24T12:00:00","4","43.1166666","-7.45","446.0","LUGO ROZAS, SP","FM-12","99999","V020","260,1,N,0057,1","00420,1,9,N","025000,1,N,1","+0112,1","+0071,1","10048,1","06,0000,2,1",,,"6,1,06,1","2,1,06,1",,"08,99,1,06,1,05,1,00450,1,07,1,99,9",,,,,"99999,9,09528,1","2,1,009,1,+999,9","02,1","SYN078AAXX  24124 08008 11475 82611 10112 20071 39528 40048 52009 69921 70262 8657/;",
"08008099999","2010-03-25T06:00:00","4","43.1166666","-7.45","446.0","LUGO ROZAS, SP","FM-12","99999","V020","190,1,N,0041,1","00420,1,9,N","018000,1,N,1","+0044,1","+0028,1","10006,1","12,0061,9,1","24,0064,9,1",,"6,1,06,1",,,"08,99,1,07,1,07,1,00450,1,07,1,99,9","0144,9","11,9","999,+0040,9","999,N,+0043,1","99999,9,09476,1","1,1,024,1,+999,9","63,1","SYN112AAXX  25064 08008 11468 81908 10044 20028 39476 40006 51024 60062 7636/ 8777/ 333 20043 32004 50464 55024 70063;",
"08008099999","2010-03-25T09:00:00","4","43.1166666","-7.45","446.0","LUGO ROZAS, SP","FM-12","99999","V020","210,1,N,0041,1","00900,1,9,N","025000,1,N,1","+0058,1","+0035,1","10024,1",,,,"6,1,03,1","2,1,03,1",,"08,99,1,08,1,08,1,00450,1,99,9,99,9",,,,,"99999,9,09495,1","2,1,019,1,+999,9","21,1","SYN072AAXX  25094 08008 41475 82108 10058 20035 39495 40024 52019 72162 888//;",
"08008099999","2010-03-25T12:00:00","4","43.1166666","-7.45","446.0","LUGO ROZAS, SP","FM-12","99999","V020","220,1,N,0067,1","00900,1,9,N","025000,1,N,1","+0095,1","+0037,1","10034,1","06,0051,9,1",,,"8,1,06,1","6,1,06,1",,"06,99,1,05,1,08,1,00450,1,06,1,01,1",,,,,"99999,9,09512,1","0,1,017,1,+999,9","25,1","SYN078AAXX  25124 08008 11475 62213 10095 20037 39512 40034 50017 60051 72586 85861;",
"08008099999","2010-03-26T06:00:00","4","43.1166666","-7.45","446.0","LUGO ROZAS, SP","FM-12","99999","V020","180,1,N,0041,1","00900,1,9,N","025000,1,N,1","+0056,1","+0033,1","10113,1","12,0150,9,1","24,0272,9,1",,"8,1,06,1",,,"08,99,1,08,1,08,1,00450,1,99,9,99,9","0180,9","11,9","999,+0030,9","999,N,+0040,1","99999,9,09579,1","2,1,010,1,+999,9","02,1","SYN112AAXX  26064 08008 11475 81808 10056 20033 39579 40113 52010 60152 7028/ 888// 333 20040 32003 50194 55030 70272;",
"08008099999","2010-03-26T09:00:00","4","43.1166666","-7.45","446.0","LUGO ROZAS, SP","FM-12","99999","V020","200,1,N,0046,1","00900,1,9,N","025000,1,N,1","+0066,1","+0043,1","10124,1",,,,"8,1,03,1","2,1,03,1",,"08,99,1,08,1,08,1,00450,1,99,9,99,9",,,,,"99999,9,09592,1","2,1,013,1,+999,9","25,1","SYN072AAXX  26094 08008 41475 82009 10066 20043 39592 40124 52013 72582 888//;",
"08008099999","2010-03-26T12:00:00","4","43.1166666","-7.45","446.0","LUGO ROZAS, SP","FM-12","99999","V020","230,1,N,0041,1","00900,1,9,N","015000,1,N,1","+0071,1","+0054,1","10137,1","06,0041,9,1",,,"8,1,06,1","2,1,06,1",,"08,99,1,08,1,08,1,00450,1,99,9,99,9",,,,,"99999,9,09605,1","1,1,013,1,+999,9","80,1","SYN078AAXX  26124 08008 11465 82308 10071 20054 39605 40137 51013 60041 78082 888//;",
"08008099999","2010-03-29T06:00:00","4","43.1166666","-7.45","446.0","LUGO ROZAS, SP","FM-12","99999","V020","180,1,N,0051,1","00420,1,9,N","025000,1,N,1","+0103,1","+0031,1","10047,1","12,0000,9,1","24,0000,9,1",,,,,"07,99,1,05,1,05,1,00450,1,07,1,99,9","0372,9",,,"999,N,+0086,1","99999,9,09525,1","7,1,028,1,+999,9",,"SYN094AAXX  29064 08008 12475 71810 10103 20031 39525 40047 57028 60002 8557/ 333 20086 55062 70000;","Q01  00002PRCP24Q02  00002PRCP12"
"08008099999","2010-03-29T09:00:00","4","43.1166666","-7.45","446.0","LUGO ROZAS, SP","FM-12","99999","V020","200,1,N,0046,1","00900,1,9,N","020000,1,N,1","+0100,1","+0067,1","10035,1",,,,"2,1,03,1","2,1,03,1",,"08,99,1,07,1,08,1,00450,1,07,1,99,9",,,,,"99999,9,09514,1","7,1,011,1,+999,9","81,1","SYN072AAXX  29094 08008 41470 82009 10100 20067 39514 40035 57011 78122 8787/;",
"08008099999","2010-03-29T12:00:00","4","43.1166666","-7.45","446.0","LUGO ROZAS, SP","FM-12","99999","V020","190,1,N,0051,1","00900,1,9,N","020000,1,N,1","+0123,1","+0084,1","10008,1","06,0020,9,1",,,"8,1,06,1","2,1,06,1",,"07,99,1,07,1,08,1,00450,1,99,9,99,9",,,,,"99999,9,09493,1","8,1,021,1,+999,9","80,1","SYN078AAXX  29124 08008 11470 71910 10123 20084 39493 40008 58021 60021 78082 878//;",
"08008099999","2010-03-30T06:00:00","4","43.1166666","-7.45","446.0","LUGO ROZAS, SP","FM-12","99999","V020","270,1,N,0041,1","00900,1,9,N","018000,1,N,1","+0066,1","+0051,1","10116,1","12,0109,9,1","24,0173,9,1",,"8,1,06,1",,,"08,99,1,08,1,08,1,00450,1,99,9,99,9","0090,9","11,9","999,+0050,9","999,N,+0058,1","99999,9,09584,1","2,1,049,1,+999,9","80,1","SYN112AAXX  30064 08008 11468 82708 10066 20051 39584 40116 52049 60112 7808/ 888// 333 20058 32005 50254 55015 70172;",
"08008099999","2010-03-30T09:00:00","4","43.1166666","-7.45","446.0","LUGO ROZAS, SP","FM-12","99999","V020","240,1,N,0041,1","00900,1,9,N","018000,1,N,1","+0071,1","+0046,1","10148,1",,,,"8,1,03,1","2,1,03,1",,"08,99,1,08,1,08,1,00450,1,99,9,99,9",,,,,"99999,9,09615,1","2,1,031,1,+999,9","80,1","SYN072AAXX  30094 08008 41468 82408 10071 20046 39615 40148 52031 78082 888//;",
"08008099999","2010-03-30T12:00:00","4","43.1166666","-7.45","446.0","LUGO ROZAS, SP","FM-12","99999","V020","250,1,N,0057,1","00900,1,9,N","020000,1,N,1","+0093,1","+0051,1","10156,1","06,0020,9,1",,,"8,1,06,1","2,1,06,1",,"07,99,1,06,1,08,1,00450,1,06,1,99,9",,,,,"99999,9,09627,1","1,1,012,1,+999,9","25,1","SYN078AAXX  30124 08008 11470 72511 10093 20051 39627 40156 51012 60021 72582 8686/;",
"08008099999","2010-03-31T06:00:00","4","43.1166666","-7.45","446.0","LUGO ROZAS, SP","FM-12","99999","V020","210,1,N,0036,1","00900,1,9,N","018000,1,N,1","+0060,1","+0035,1","10158,1","12,0020,9,1","24,0038,9,1",,,,,"08,99,1,08,1,08,1,00450,1,99,9,99,9","0156,9","09,9","999,+0040,9","999,N,+0055,1","99999,9,09623,1","7,1,015,1,+999,9","20,1","SYN112AAXX  31064 08008 11468 82107 10060 20035 39623 40158 57015 60022 720// 888// 333 20055 31004 50174 55026 70038;",
"08008099999","2010-03-31T09:00:00","4","43.1166666","-7.45","446.0","LUGO ROZAS, SP","FM-12","99999","V020","200,1,N,0057,1","00900,1,9,N","020000,1,N,1","+0069,1","+0039,1","10144,1",,,,"5,1,03,1","2,1,03,1",,"08,99,1,08,1,08,1,00450,1,99,9,99,9",,,,,"99999,9,09611,1","6,1,012,1,+999,9","50,1","SYN072AAXX  31094 08008 41470 82011 10069 20039 39611 40144 56012 75052 888//;",
"08008099999","2010-03-31T12:00:00","4","43.1166666","-7.45","446.0","LUGO ROZAS, SP","FM-12","99999","V020","240,1,N,0062,1","00900,1,9,N","020000,1,N,1","+0090,1","+0066,1","10138,1","06,0071,9,1",,,"8,1,06,1","5,1,06,1",,"07,99,1,06,1,08,1,00450,1,06,1,99,9",,,,,"99999,9,09610,1","5,1,001,1,+999,9","25,1","SYN078AAXX  31124 08008 11470 72412 10090 20066 39610 40138 55001 60071 72585 8686/;",
"08008099999","2010-04-05T06:00:00","4","43.1166666","-7.45","446.0","LUGO ROZAS, SP","FM-12","99999","V020","200,1,N,0010,1","22000,1,9,N","000300,1,N,1","-0007,1","-0010,1","10282,1","12,0000,9,1","24,0005,9,1",,,,"00,1,+99999,9,99,9","00,99,1,00,1,00,1,99999,9,00,1,00,1","0372,9",,,"999,N,-0010,1","99999,9,09727,1","7,1,011,1,+999,9","44,1","SYN094AAXX  05064 08008 11903 02002 11007 21010 39727 40282 57011 60002 744// 333 21010 55062 70005;","Q01  00002PRCP12"
"08008099999","2010-04-05T09:00:00","4","43.1166666","-7.45","446.0","LUGO ROZAS, SP","FM-12","99999","V020","999,9,C,0000,1","00030,1,9,N","000200,1,N,1","+0026,1","+0016,1","10274,1",,,,"4,1,03,1","4,1,03,1","09,1,+00030,1,99,9","09,99,1,09,1,99,9,99999,9,99,9,99,9",,,,,"99999,9,09726,1","8,1,001,1,+999,9","45,1","SYN076AAXX  05094 08008 41/02 90000 10026 20016 39726 40274 58001 74544 333 89/01;",
"08008099999","2010-04-05T12:00:00","4","43.1166666","-7.45","446.0","LUGO ROZAS, SP","FM-12","99999","V020","210,1,N,0041,1","22000,1,9,N","025000,1,N,1","+9999,9","-0002,1","10234,1","06,0000,9,1",,,"4,1,06,1","1,1,06,1",,"03,99,1,00,1,00,1,99999,9,00,1,01,1",,,,,"99999,9,09712,1","8,1,014,1,+999,9","02,1","SYN078AAXX  05124 08008 11875 32108 10156 21002 39712 40234 58014 60001 70241 80001;","Q01+022502SCOLCBQ02  00002PRCP06"
"08008099999","2010-04-06T06:00:00","4","43.1166666","-7.45","446.0","LUGO ROZAS, SP","FM-12","99999","V020","220,1,N,0010,1","22000,1,9,N","025000,1,N,1","+0030,1","+0004,1","10179,1","12,0000,9,1","24,0000,9,1",,,,,"03,99,1,00,1,00,1,99999,9,00,1,01,1","0576,9","09,9","999,-0020,9","999,N,+0008,1","99999,9,09637,1","6,1,010,1,+999,9",,"SYN106AAXX  06064 08008 12875 32202 10030 20004 39637 40179 56010 60002 80001 333 20008 31102 50424 55096 70000;","Q01+022502SCOLCBQ02  00002PRCP24Q03  00002PRCP12"
"08008099999","2010-04-06T09:00:00","4","43.1166666","-7.45","446.0","LUGO ROZAS, SP","FM-12","99999","V020","200,1,N,0036,1","22000,1,9,N","025000,1,N,1","+0136,1","+0013,1","10156,1",,,,,,,"03,99,1,01,1,00,1,01750,1,04,1,01,1",,,,,"99999,9,09634,1","8,1,003,1,+999,9",,"SYN066AAXX  06094 08008 42775 32007 10136 20013 39634 40156 58003 81041;",
"08008099999","2010-04-06T12:00:00","4","43.1166666","-7.45","446.0","LUGO ROZAS, SP","FM-12","99999","V020","220,1,N,0046,1","99999,9,9,N","025000,1,N,1","+0182,1","+0017,1","10138,1","06,0000,9,1",,,,,,"07,99,1,03,1,00,1,01250,1,05,1,04,1",,,,,"99999,9,09625,1","8,1,009,1,+999,9",,"SYN072AAXX  06124 08008 12675 72209 10182 20017 39625 40138 58009 60001 83054;","Q01  00002PRCP06"
"08008099999","2010-04-07T06:00:00","4","43.1166666","-7.45","446.0","LUGO ROZAS, SP","FM-12","99999","V020","999,9,C,0000,1","00030,1,9,N","000200,1,N,1","+0031,1","+0028,1","10250,1","12,0010,9,1","24,0010,9,1",,,,"09,1,+00030,1,99,9","09,99,1,09,1,99,9,99999,9,99,9,99,9","0408,9","09,9","999,+0020,9","999,N,+0031,1","99999,9,09704,1","2,1,016,1,+999,9","45,1","SYN112AAXX  07064 08008 11/02 90000 10031 20028 39704 40250 52016 60012 745// 333 20031 31002 50444 55068 70011 89/01;",
"08008099999","2010-04-07T09:00:00","4","43.1166666","-7.45","446.0","LUGO ROZAS, SP","FM-12","99999","V020","270,1,N,0005,1","22000,1,9,N","025000,1,N,1","+0076,1","+0059,1","10254,1",,,,"6,1,03,1","4,1,03,1",,"03,99,1,03,1,05,1,00450,1,00,1,00,1",,,,,"99999,9,09717,1","1,1,013,1,+999,9","01,1","SYN072AAXX  07094 08008 41475 32701 10076 20059 39717 40254 51013 70164 83500;",
"08008099999","2010-04-07T12:00:00","4","43.1166666","-7.45","446.0","LUGO ROZAS, SP","FM-12","99999","V020","050,1,N,0015,1","22000,1,9,N","025000,1,N,1","+0142,1","+0042,1","10243,1","06,0000,9,1",,,"6,1,06,1","4,1,06,1",,"04,99,1,04,1,05,1,00450,1,00,1,00,1",,,,,"99999,9,09718,1","0,1,001,1,+999,9","02,1","SYN078AAXX  07124 08008 11475 40503 10142 20042 39718 40243 50001 69901 70264 84500;","Q01  00002PRCP06"
"08008099999","2010-04-08T06:00:00","4","43.1166666","-7.45","446.0","LUGO ROZAS, SP","FM-12","99999","V020","999,9,C,0000,1","22000,1,9,N","020000,1,N,1","+0006,1","+0000,1","10291,1","12,0000,9,1","24,0000,9,1",,,,,"01,99,1,00,1,00,1,99999,9,00,1,01,1","0540,9","14,9","999,-0020,9","999,N,+0006,1","99999,9,09738,1","3,1,008,1,+999,9",,"SYN106AAXX  08064 08008 12870 10000 10006 20000 39738 40291 53008 60002 80001 333 20006 34102 50204 55090 79999;","Q01+022502SCOLCBQ02  00002PRCP24Q03  00002PRCP12"
"08008099999","2010-04-08T09:00:00","4","43.1166666","-7.45","446.0","LUGO ROZAS, SP","FM-12","99999","V020","050,1,N,0021,1","22000,1,9,N","020000,1,N,1","+0096,1","+0048,1","10279,1",,,,,,,"01,99,1,01,1,01,1,00450,1,00,1,00,1",,,,,"99999,9,09744,1","1,1,006,1,+999,9",,"SYN066AAXX  08094 08008 42470 10504 10096 20048 39744 40279 51006 81100;",
"08008099999","2010-04-08T12:00:00","4","43.1166666","-7.45","446.0","LUGO ROZAS, SP","FM-12","99999","V020","030,1,N,0026,1","22000,1,9,N","025000,1,N,1","+0158,1","+0068,1","10258,1","06,0000,9,1",,,,,,"01,99,1,00,1,00,1,99999,9,00,1,01,1",,,,,"99999,9,09736,1","8,1,008,1,+999,9",,"SYN072AAXX  08124 08008 12775 10305 10158 20068 39736 40258 58008 60001 80001;","Q01+017502SCOLCBQ02  00002PRCP06"
"08008099999","2010-04-09T06:00:00","4","43.1166666","-7.45","446.0","LUGO ROZAS, SP","FM-12","99999","V020","999,9,C,0000,1","00030,1,9,N","000200,1,N,1","+0044,1","+0040,1","10258,1","12,0000,9,1","24,0000,9,1",,,,"09,1,+00030,1,99,9","09,99,1,09,1,99,9,99999,9,99,9,99,9","0726,9","09,9","999,+0030,9","999,N,+0044,1","99999,9,09714,1","5,1,000,1,+999,9","45,1","SYN112AAXX  09064 08008 11/02 90000 10044 20040 39714 40258 55000 60002 745// 333 20044 31003 50214 55121 70000 89/01;","Q01  00002PRCP24Q02  00002PRCP12"
"08008099999","2010-04-09T09:00:00","4","43.1166666","-7.45","446.0","LUGO ROZAS, SP","FM-12","99999","V020","999,9,C,0000,1","00030,1,9,N","000300,1,N,1","+0055,1","+0051,1","10262,1",,,,"4,1,03,1","4,1,03,1","09,1,+00030,1,99,9","09,99,1,09,1,99,9,99999,9,99,9,99,9",,,,,"99999,9,09720,1","0,1,006,1,+999,9","45,1","SYN076AAXX  09094 08008 41/03 90000 10055 20051 39720 40262 50006 74544 333 89/01;",
"08008099999","2010-04-09T12:00:00","4","43.1166666","-7.45","446.0","LUGO ROZAS, SP","FM-12","99999","V020","360,1,N,0015,1","22000,1,9,N","025000,1,N,1","+0159,1","+0074,1","10225,1","06,0000,9,1",,,"4,1,06,1","0,1,06,1","00,1,+99999,9,99,9","00,99,1,00,1,00,1,99999,9,00,1,00,1",,,,,"99999,9,09705,1","8,1,015,1,+999,9","00,1","SYN072AAXX  09124 08008 11975 03603 10159 20074 39705 40225 58015 60001 70040;","Q01  00002PRCP06"
"08008099999","2010-04-12T06:00:00","4","43.1166666","-7.45","446.0","LUGO ROZAS, SP","FM-12","99999","V020","030,1,N,0026,1","01500,1,9,N","020000,1,N,1","+0071,1","+0033,1","10113,1","12,0000,9,1","24,0000,9,1",,,,,"06,99,1,05,1,00,1,01750,1,07,1,09,1","0666,9",,,"999,N,+0066,1","99999,9,09582,1","5,1,001,1,+999,9",,"SYN094AAXX  12064 08008 12770 60305 10071 20033 39582 40113 55001 60002 85079 333 20066 55111 70000;","Q01  00002PRCP24Q02  00002PRCP12"
"08008099999","2010-04-12T09:00:00","4","43.1166666","-7.45","446.0","LUGO ROZAS, SP","FM-12","99999","V020","060,1,N,0026,1","03600,1,9,N","020000,1,N,1","+0114,1","+0039,1","10108,1",,,,,,,"08,99,1,03,1,05,1,00450,1,03,1,07,1",,,,,"99999,9,09585,1","1,1,003,1,+999,9",,"SYN066AAXX  12094 08008 42470 80605 10114 20039 39585 40108 51003 83537;",
"08008099999","2010-04-12T12:00:00","4","43.1166666","-7.45","446.0","LUGO ROZAS, SP","FM-12","99999","V020","060,1,N,0031,1","03600,1,9,N","020000,1,N,1","+0145,1","+0033,1","10103,1","06,0000,9,1",,,,,,"05,99,1,03,1,05,1,00450,1,03,1,08,1",,,,,"99999,9,09586,1","0,1,001,1,+999,9",,"SYN072AAXX  12124 08008 12470 50606 10145 20033 39586 40103 50001 60001 83538;","Q01  00002PRCP06"
"08008099999","2010-04-13T06:00:00","4","43.1166666","-7.45","446.0","LUGO ROZAS, SP","FM-12","99999","V020","999,9,C,0000,1","22000,1,9,N","025000,1,N,1","+0012,1","-0004,1","10142,1","12,0000,9,1","24,0000,9,1",,,,"00,1,+99999,9,99,9","00,99,1,00,1,00,1,99999,9,00,1,00,1","0594,9","09,9","999,-0020,9","999,N,+0012,1","99999,9,09598,1","5,1,001,1,+999,9",,"SYN100AAXX  13064 08008 12975 00000 10012 21004 39598 40142 55001 60002 333 20012 31102 50334 55099 70000;","Q01  00002PRCP24Q02  00002PRCP12"
"08008099999","2010-04-13T09:00:00","4","43.1166666","-7.45","446.0","LUGO ROZAS, SP","FM-12","99999","V020","060,1,N,0026,1","22000,1,9,N","025000,1,N,1","+0117,1","+0016,1","10121,1",,,,,,"00,1,+99999,9,99,9","00,99,1,00,1,00,1,99999,9,00,1,00,1",,,,,"99999,9,09598,1","0,1,000,1,+999,9",,"SYN060AAXX  13094 08008 42975 00605 10117 20016 39598 40121 50000;",
"08008099999","2010-04-13T12:00:00","4","43.1166666","-7.45","446.0","LUGO ROZAS, SP","FM-12","99999","V020","060,1,N,0031,1","22000,1,9,N","025000,1,N,1","+0149,1","+0018,1","10107,1","06,0000,9,1",,,,,,"01,99,1,01,1,01,1,00450,1,00,1,00,1",,,,,"99999,9,09590,1","8,1,008,1,+999,9",,"SYN072AAXX  13124 08008 12475 10606 10149 20018 39590 40107 58008 60001 81100;","Q01  00002PRCP06"
"08008099999","2010-04-14T06:00:00","4","43.1166666","-7.45","446.0","LUGO ROZAS, SP","FM-12","99999","V020","999,9,C,0000,1","22000,1,9,N","020000,1,N,1","+0018,1","+0008,1","10125,1","12,0000,9,1","24,0000,9,1",,,,,"01,99,1,01,1,00,1,01750,1,03,1,01,1","0732,9","09,9","999,-0010,9","999,N,+0018,1","99999,9,09583,1","5,1,005,1,+999,9",,"SYN106AAXX  14064 08008 12770 10000 10018 20008 39583 40125 55005 60002 81031 333 20018 31101 50344 55122 70000;","Q01  00002PRCP24Q02  00002PRCP12"
"08008099999","2010-04-14T09:00:00","4","43.1166666","-7.45","446.0","LUGO ROZAS, SP","FM-12","99999","V020","050,1,N,0015,1","22000,1,9,N","020000,1,N,1","+0112,1","+0042,1","10104,1",,,,,,,"01,99,1,00,1,00,1,99999,9,00,1,01,1",,,,,"99999,9,09581,1","8,1,002,1,+999,9",,"SYN066AAXX  14094 08008 42870 10503 10112 20042 39581 40104 58002 80001;","Q01+022502SCOLCB"
"08008099999","2010-04-14T12:00:00","4","43.1166666","-7.45","446.0","LUGO ROZAS, SP","FM-12","99999","V020","030,1,N,0041,1","22000,1,9,N","020000,1,N,1","+0157,1","+0053,1","10083,1","06,0000,9,1",,,,,,"01,99,1,01,1,01,1,00450,1,00,1,00,1",,,,,"99999,9,09569,1","7,1,012,1,+999,9",,"SYN072AAXX  14124 08008 12470 10308 10157 20053 39569 40083 57012 60001 81100;","Q01  00002PRCP06"
"08008099999","2010-04-15T06:00:00","4","43.1166666","-7.45","446.0","LUGO ROZAS, SP","FM-12","99999","V020","010,1,N,0015,1","03600,1,9,N","006000,1,N,1","+0069,1","+0060,1","10064,1","12,0030,9,2","24,0028,9,2",,"6,1,06,1",,,"08,99,1,04,1,07,1,00450,1,07,1,99,9","0594,9","11,9","999,+0040,9","999,N,+0064,1","99999,9,09536,1","8,1,003,1,+999,9","61,1","SYN112AAXX  15064 08008 11456 80103 10069 20060 39536 40064 58003 60032 7616/ 8477/ 333 20064 32004 50284 55099 70027;",
"08008099999","2010-04-15T09:00:00","4","43.1166666","-7.45","446.0","LUGO ROZAS, SP","FM-12","99999","V020","060,1,N,0015,1","01500,1,9,N","020000,1,N,1","+0111,1","+0081,1","10059,1",,,,"6,1,03,1","2,1,03,1",,"07,99,1,07,1,00,1,01750,1,07,1,99,9",,,,,"99999,9,09539,1","1,1,003,1,+999,9","02,1","SYN072AAXX  15094 08008 41770 70603 10111 20081 39539 40059 51003 70262 8707/;",
"08008099999","2010-04-15T12:00:00","4","43.1166666","-7.45","446.0","LUGO ROZAS, SP","FM-12","99999","V020","060,1,N,0021,1","01500,1,9,N","020000,1,N,1","+0169,1","+0103,1","10055,1","06,0005,9,1",,,"6,1,06,1","2,1,06,1",,"07,99,1,06,1,00,1,01750,1,07,1,08,1",,,,,"99999,9,09545,1","1,1,006,1,+999,9","02,1","SYN078AAXX  15124 08008 11770 70604 10169 20103 39545 40055 51006 69951 70262 86078;",
"08008099999","2010-04-16T06:00:00","4","43.1166666","-7.45","446.0","LUGO ROZAS, SP","FM-12","99999","V020","130,1,N,0010,1","00900,1,9,N","008000,1,N,1","+0072,1","+0068,1","10099,1","12,0041,9,1","24,0084,9,1",,"8,1,06,1",,,"08,99,1,06,1,08,1,00450,1,07,1,99,9","0282,9","11,9","999,+0050,9","999,N,+0071,1","99999,9,09569,1","3,1,002,1,+999,9","80,1","SYN112AAXX  16064 08008 11458 81302 10072 20068 39569 40099 53002 60042 7808/ 8687/ 333 20071 32005 50154 55047 70083;",
"08008099999","2010-04-16T09:00:00","4","43.1166666","-7.45","446.0","LUGO ROZAS, SP","FM-12","99999","V020","050,1,N,0010,1","00420,1,9,N","012000,1,N,1","+0116,1","+0108,1","10104,1",,,,"6,1,03,1","2,1,03,1",,"08,99,1,05,1,07,1,00450,1,07,1,99,9",,,,,"99999,9,09583,1","1,1,014,1,+999,9","21,1","SYN072AAXX  16094 08008 41462 80502 10116 20108 39583 40104 51014 72162 8577/;",
"08008099999","2010-04-16T12:00:00","4","43.1166666","-7.45","446.0","LUGO ROZAS, SP","FM-12","99999","V020","040,1,N,0021,1","03600,1,9,N","020000,1,N,1","+0172,1","+0115,1","10094,1","06,0010,9,1",,,"6,1,06,1","2,1,06,1",,"07,99,1,04,1,08,1,00450,1,07,1,99,9",,,,,"99999,9,09583,1","0,1,000,1,+999,9","02,1","SYN078AAXX  16124 08008 11470 70404 10172 20115 39583 40094 50000 69991 70262 8487/;",
"08008099999","2010-04-19T06:00:00","4","43.1166666","-7.45","446.0","LUGO ROZAS, SP","FM-12","99999","V020","130,1,N,0021,1","00030,1,9,N","000100,1,N,1","+0076,1","+0075,1","10169,1","12,0008,9,1","24,0074,9,1",,"4,1,06,1",,"09,1,+00030,1,99,9","09,99,1,09,1,99,9,99999,9,99,9,99,9","0390,9",,,"999,N,+0074,1","99999,9,09637,1","2,1,007,1,+999,9","45,1","SYN100AAXX  19064 08008 11/01 91304 10076 20075 39637 40169 52007 69982 7454/ 333 20074 55065 70073 89/01;",
"08008099999","2010-04-19T09:00:00","4","43.1166666","-7.45","446.0","LUGO ROZAS, SP","FM-12","99999","V020","040,1,N,0010,1","00900,1,9,N","000800,1,N,1","+0116,1","+0113,1","10177,1",,,,"4,1,03,1","2,1,03,1",,"08,99,1,08,1,08,1,00450,1,99,9,99,9",,,,,"99999,9,09652,1","2,1,015,1,+999,9","42,1","SYN072AAXX  19094 08008 41408 80402 10116 20113 39652 40177 52015 74242 888//;",
"08008099999","2010-04-19T12:00:00","4","43.1166666","-7.45","446.0","LUGO ROZAS, SP","FM-12","99999","V020","310,1,N,0015,1","00420,1,9,N","025000,1,N,1","+0172,1","+0110,1","10170,1","06,0000,9,1",,,"4,1,06,1","2,1,06,1",,"07,99,1,06,1,02,1,00450,1,06,1,99,9",,,,,"99999,9,09655,1","0,1,003,1,+999,9","02,1","SYN078AAXX  19124 08008 11475 73103 10172 20110 39655 40170 50003 69901 70242 8626/;","Q01  00002PRCP06"
"08008099999","2010-04-20T06:00:00","4","43.1166666","-7.45","446.0","LUGO ROZAS, SP","FM-12","99999","V020","999,9,C,0000,1","22000,1,9,N","025000,1,N,1","+0067,1","+0061,1","10188,1","12,0000,9,1","24,0000,9,1",,,,,"05,99,1,03,1,00,1,01750,1,05,1,04,1","0300,9","09,9","999,+0040,9","999,N,+0064,1","99999,9,09653,1","8,1,003,1,+999,9",,"SYN106AAXX  20064 08008 12775 50000 10067 20061 39653 40188 58003 60002 83054 333 20064 31004 50194 55050 79999;","Q01  00002PRCP24Q02  00002PRCP12"
"08008099999","2010-04-20T09:00:00","4","43.1166666","-7.45","446.0","LUGO ROZAS, SP","FM-12","99999","V020","300,1,N,0010,1","09000,1,9,N","025000,1,N,1","+0130,1","+0098,1","10174,1",,,,,,,"07,99,1,01,1,00,1,01750,1,08,1,04,1",,,,,"99999,9,09651,1","8,1,002,1,+999,9",,"SYN066AAXX  20094 08008 42775 73002 10130 20098 39651 40174 58002 81084;",
"08008099999","2010-04-20T12:00:00","4","43.1166666","-7.45","446.0","LUGO ROZAS, SP","FM-12","99999","V020","200,1,N,0031,1","03600,1,9,N","025000,1,N,1","+0194,1","+0072,1","10160,1","06,0000,9,1",,,,,,"08,99,1,02,1,05,1,00450,1,03,1,07,1",,,,,"99999,9,09649,1","8,1,002,1,+999,9",,"SYN072AAXX  20124 08008 12475 82006 10194 20072 39649 40160 58002 60001 82537;","Q01  00002PRCP06"
"08008099999","2010-04-21T06:00:00","4","43.1166666","-7.45","446.0","LUGO ROZAS, SP","FM-12","99999","V020","999,9,C,0000,1","03600,1,9,N","015000,1,N,1","+0116,1","+0110,1","10130,1","12,9999,9,9","24,0003,9,1",,,,,"08,99,1,03,1,07,1,00450,1,07,1,99,9","0492,9","11,9","999,+0090,9","999,N,+0110,1","99999,9,09607,1","6,1,002,1,+999,9","61,1","SYN112AAXX  21064 08008 11465 80000 10116 20110 39607 40130 56002 69922 761// 8377/ 333 20110 32009 50344 55082 70002;","Q01  00002PRCP12Q02  00002PRCP12"
"08008099999","2010-04-21T09:00:00","4","43.1166666","-7.45","446.0","LUGO ROZAS, SP","FM-12","99999","V020","020,1,N,0010,1","99999,9,9,N","008000,1,N,1","+0128,1","+0122,1","10131,1",,,,"6,1,03,1","2,1,03,1",,"08,99,1,08,1,00,1,01250,1,07,1,99,9",,,,,"99999,9,09611,1","1,1,004,1,+999,9","62,1","SYN072AAXX  21094 08008 41658 80202 10128 20122 39611 40131 51004 76262 8807/;",
"08008099999","2010-04-21T12:00:00","4","43.1166666","-7.45","446.0","LUGO ROZAS, SP","FM-12","99999","V020","250,1,N,0021,1","03600,1,9,N","025000,1,N,1","+0166,1","+0131,1","10122,1","06,0051,9,1",,,"6,1,06,1","2,1,06,1",,"08,99,1,03,1,08,1,00450,1,07,1,99,9",,,,,"99999,9,09609,1","8,1,002,1,+999,9","02,1","SYN078AAXX  21124 08008 11475 82504 10166 20131 39609 40122 58002 60051 70262 8387/;",
"08008099999","2010-04-22T06:00:00","4","43.1166666","-7.45","446.0","LUGO ROZAS, SP","FM-12","99999","V020","999,9,C,0000,1","00030,1,9,N","000300,1,N,1","+0104,1","+0099,1","10105,1","12,0000,9,1","24,0071,9,1",,"4,1,06,1",,"09,1,+00030,1,99,9","09,99,1,09,1,99,9,99999,9,99,9,99,9","0030,9","11,9","999,+0100,9","999,N,+0104,1","99999,9,09581,1","6,1,003,1,+999,9","45,1","SYN112AAXX  22064 08008 11/03 90000 10104 20099 39581 40105 56003 69902 7454/ 333 20104 32010 50084 55005 70072 89/01;","Q01  00002PRCP12"
"08008099999","2010-04-22T09:00:00","4","43.1166666","-7.45","446.0","LUGO ROZAS, SP","FM-12","99999","V020","220,1,N,0021,1","00900,1,9,N","015000,1,N,1","+0154,1","+0123,1","10104,1",,,,"4,1,03,1","2,1,03,1",,"06,99,1,05,1,08,1,00450,1,06,1,00,1",,,,,"99999,9,09590,1","2,1,009,1,+999,9","28,1","SYN072AAXX  22094 08008 41465 62204 10154 20123 39590 40104 52009 72842 85860;",
"08008099999","2010-04-22T12:00:00","4","43.1166666","-7.45","446.0","LUGO ROZAS, SP","FM-12","99999","V020","280,1,N,0021,1","00420,1,9,N","025000,1,N,1","+0188,1","+0121,1","10089,1","06,0000,9,1",,,"4,1,06,1","2,1,06,1",,"06,99,1,05,1,02,1,00450,1,06,1,01,1",,,,,"99999,9,09581,1","8,1,009,1,+999,9","02,1","SYN078AAXX  22124 08008 11475 62804 10188 20121 39581 40089 58009 60001 70242 85261;","Q01  00002PRCP06"
"08008099999","2010-04-23T06:00:00","4","43.1166666","-7.45","446.0","LUGO ROZAS, SP","FM-12","99999","V020","999,9,C,0000,1","00210,1,9,N","002000,1,N,1","+0115,1","+0106,1","10128,1","12,9999,9,9","24,0028,9,1",,,,,"08,99,1,08,1,07,1,00250,1,99,9,99,9","0276,9","09,9","999,+0070,9","999,N,+0094,1","99999,9,09605,1","1,1,004,1,+999,9","50,1","SYN112AAXX  23064 08008 11320 80000 10115 20106 39605 40128 51004 69902 750// 887// 333 20094 31007 50124 55046 70027;","Q01  00002PRCP12Q02  00002PRCP12"
"08008099999","2010-04-23T09:00:00","4","43.1166666","-7.45","446.0","LUGO ROZAS, SP","FM-12","99999","V020","250,1,N,0015,1","00210,1,9,N","005000,1,N,1","+0129,1","+0115,1","10137,1",,,,"5,1,03,1","2,1,03,1",,"08,99,1,08,1,07,1,00250,1,99,9,99,9",,,,,"99999,9,09616,1","1,1,011,1,+999,9","50,1","SYN072AAXX  23094 08008 41350 82503 10129 20115 39616 40137 51011 75052 887//;",
"08008099999","2010-04-23T12:00:00","4","43.1166666","-7.45","446.0","LUGO ROZAS, SP","FM-12","99999","V020","260,1,N,0015,1","00900,1,9,N","020000,1,N,1","+0142,1","+0108,1","10142,1","06,0000,2,1",,,"5,1,06,1","2,1,06,1",,"08,99,1,08,1,08,1,00450,1,99,9,99,9",,,,,"99999,9,09623,1","0,1,007,1,+999,9","02,1","SYN078AAXX  23124 08008 11470 82603 10142 20108 39623 40142 50007 69901 70252 888//;",
"08008099999","2010-04-26T06:00:00","4","43.1166666","-7.45","446.0","LUGO ROZAS, SP","FM-12","99999","V020","120,1,N,0015,1","00030,1,9,N","000200,1,N,1","+0078,1","+0077,1","10268,1","12,0000,9,1","24,0000,9,1",,,,"09,1,+00030,1,99,9","09,99,1,09,1,99,9,99999,9,99,9,99,9","0594,9",,,"999,N,+0076,1","99999,9,09731,1","5,1,000,1,+999,9","45,1","SYN100AAXX  26064 08008 11/02 91203 10078 20077 39731 40268 55000 60002 745// 333 20076 55099 70000 89/01;","Q01  00002PRCP24Q02  00002PRCP12"
"08008099999","2010-04-26T09:00:00","4","43.1166666","-7.45","446.0","LUGO ROZAS, SP","FM-12","99999","V020","999,9,C,0000,1","00030,1,9,N","000500,1,N,1","+0105,1","+0099,1","10268,1",,,,"4,1,03,1","4,1,03,1","09,1,+00030,1,99,9","09,99,1,09,1,99,9,99999,9,99,9,99,9",,,,,"99999,9,09736,1","0,1,005,1,+999,9","43,1","SYN076AAXX  26094 08008 41/05 90000 10105 20099 39736 40268 50005 74344 333 89/01;",
"08008099999","2010-04-26T12:00:00","4","43.1166666","-7.45","446.0","LUGO ROZAS, SP","FM-12","99999","V020","340,1,N,0021,1","22000,1,9,N","025000,1,N,1","+9999,9","+0139,1","10231,1","06,0000,9,1",,,"4,1,06,1","1,1,06,1",,"04,99,1,00,1,00,1,99999,9,00,1,01,1",,,,,"99999,9,09721,1","7,1,015,1,+999,9","02,1","SYN078AAXX  26124 08008 11775 43404 10218 20139 39721 40231 57015 60001 70241 80001;","Q01+017502SCOLCBQ02  00002PRCP06"
"08008099999","2010-04-27T06:00:00","4","43.1166666","-7.45","446.0","LUGO ROZAS, SP","FM-12","99999","V020","999,9,C,0000,1","22000,1,9,N","000300,1,N,1","+0071,1","+0070,1","10242,1","12,0000,9,1","24,0000,9,1",,,,,"02,99,1,02,1,06,1,00250,1,03,1,01,1","0570,9","09,9","999,+0040,9","999,N,+0068,1","99999,9,09705,1","6,1,005,1,+999,9","44,1","SYN112AAXX  27064 08008 11303 20000 10071 20070 39705 40242 56005 60002 744// 82631 333 20068 31004 50334 55095 70000;","Q01  00002PRCP24Q02  00002PRCP12"
"08008099999","2010-04-27T09:00:00","4","43.1166666","-7.45","446.0","LUGO ROZAS, SP","FM-12","99999","V020","020,1,N,0010,1","00030,1,9,N","000300,1,N,1","+0120,1","+0111,1","10236,1",,,,"4,1,03,1","4,1,03,1","09,1,+00030,1,99,9","09,99,1,09,1,99,9,99999,9,99,9,99,9",,,,,"99999,9,09709,1","1,1,004,1,+999,9","45,1","SYN076AAXX  27094 08008 41/03 90202 10120 20111 39709 40236 51004 74544 333 89/01;",
"08008099999","2010-04-27T12:00:00","4","43.1166666","-7.45","446.0","LUGO ROZAS, SP","FM-12","99999","V020","220,1,N,0026,1","22000,1,9,N","025000,1,N,1","+9999,9","+0057,1","10209,1","06,0000,9,1",,,"4,1,06,1","1,1,06,1",,"06,99,1,04,1,00,1,01750,1,05,1,04,1",,,,,"99999,9,09705,1","8,1,004,1,+999,9","02,1","SYN078AAXX  27124 08008 11775 62205 10250 20057 39705 40209 58004 60001 70241 84054;","Q01+002503ATOT  Q02  00002PRCP06"
"08008099999","2010-04-28T06:00:00","4","43.1166666","-7.45","446.0","LUGO ROZAS, SP","FM-12","99999","V020","130,1,N,0021,1","99999,9,9,N","025000,1,N,1","+0088,1","+0076,1","10212,1","12,0000,9,1","24,0000,9,1",,,,,"05,99,1,04,1,00,1,01250,1,03,1,01,1","0486,9","01,9","999,+0050,9","999,N,+0079,1","99999,9,09680,1","6,1,004,1,+999,9",,"SYN106AAXX  28064 08008 12675 51304 10088 20076 39680 40212 56004 60002 84031 333 20079 30005 50454 55081 70000;","Q01  00002PRCP24Q02  00002PRCP12"
"08008099999","2010-04-28T09:00:00","4","43.1166666","-7.45","446.0","LUGO ROZAS, SP","FM-12","99999","V020","340,1,N,0010,1","22000,1,9,N","025000,1,N,1","+0191,1","+0121,1","10190,1",,,,,,,"04,99,1,02,1,00,1,01750,1,03,1,08,1",,,,,"99999,9,09678,1","8,1,002,1,+999,9",,"SYN066AAXX  28094 08008 42775 43402 10191 20121 39678 40190 58002 82038;",
"08008099999","2010-04-28T12:00:00","4","43.1166666","-7.45","446.0","LUGO ROZAS, SP","FM-12","99999","V020","200,1,N,0036,1","03600,1,9,N","025000,1,N,1","+0274,2","+0093,1","10162,1","06,0000,9,1",,,,,,"06,99,1,01,1,05,1,00450,1,04,1,09,1",,,,,"99999,9,09664,1","8,1,014,1,+999,9",,"SYN072AAXX  28124 08008 12475 62007 10274 20093 39664 40162 58014 60001 81549;","Q01  00002PRCP06"
"08008099999","2010-04-29T06:00:00","4","43.1166666","-7.45","446.0","LUGO ROZAS, SP","FM-12","99999","V020","260,1,N,0010,1","03600,1,9,N","000500,1,N,1","+0097,1","+0086,1","10177,1","12,0089,9,1","24,0091,9,1",,"9,1,06,1","8,1,06,1",,"06,99,1,02,1,06,1,00250,1,03,1,00,1","0588,9","11,9","999,+0080,9","999,N,+0097,1","99999,9,09648,1","3,1,011,1,+999,9","44,1","SYN112AAXX  29064 08008 11305 62602 10097 20086 39648 40177 53011 60092 74498 82630 333 20097 32008 50484 55098 70092;",
"08008099999","2010-04-29T09:00:00","4","43.1166666","-7.45","446.0","LUGO ROZAS, SP","FM-12","99999","V020","260,1,N,0021,1","03600,1,9,N","025000,1,N,1","+0147,1","+0117,1","10179,1",,,,"4,1,03,1","2,1,03,1",,"06,99,1,04,1,05,1,00450,1,03,1,01,1",,,,,"99999,9,09659,1","2,1,011,1,+999,9","03,1","SYN072AAXX  29094 08008 41475 62604 10147 20117 39659 40179 52011 70342 84531;",
"08008099999","2010-04-29T12:00:00","4","43.1166666","-7.45","446.0","LUGO ROZAS, SP","FM-12","99999","V020","310,1,N,0021,1","00900,1,9,N","025000,1,N,1","+0174,1","+0112,1","10175,1","06,0000,9,1",,,"4,1,06,1","2,1,06,1",,"06,99,1,05,1,08,1,00450,1,06,1,00,1",,,,,"99999,9,09660,1","0,1,001,1,+999,9","02,1","SYN078AAXX  29124 08008 11475 63104 10174 20112 39660 40175 50001 60001 70242 85860;","Q01  00002PRCP06"
"08008099999","2010-04-30T06:00:00","4","43.1166666","-7.45","446.0","LUGO ROZAS, SP","FM-12","99999","V020","340,1,N,0010,1","00420,1,9,N","002000,1,N,1","+0107,1","+0095,1","10170,1","12,0000,9,1","24,0000,9,1",,,,,"08,99,1,08,1,06,1,00450,1,99,9,99,9","0264,9","01,9","999,+0090,9","999,N,+0107,1","99999,9,09643,1","7,1,005,1,+999,9","10,1","SYN112AAXX  30064 08008 11420 83402 10107 20095 39643 40170 57005 60002 710// 886// 333 20107 30009 50194 55044 70000;","Q01  00002PRCP24Q02  00002PRCP12"
"08008099999","2010-04-30T09:00:00","4","43.1166666","-7.45","446.0","LUGO ROZAS, SP","FM-12","99999","V020","320,1,N,0010,1","00900,1,9,N","020000,1,N,1","+0138,1","+0100,1","10157,1",,,,,,,"08,99,1,08,1,08,1,00450,1,99,9,99,9",,,,,"99999,9,09637,1","8,1,006,1,+999,9",,"SYN066AAXX  30094 08008 42470 83202 10138 20100 39637 40157 58006 888//;",
"08008099999","2010-04-30T12:00:00","4","43.1166666","-7.45","446.0","LUGO ROZAS, SP","FM-12","99999","V020","230,1,N,0021,1","00900,1,9,N","025000,1,N,1","+0164,1","+0079,1","10150,1","06,0000,9,1",,,,,,"08,99,1,06,1,08,1,00450,1,01,1,99,9",,,,,"99999,9,09634,1","8,1,003,1,+999,9",,"SYN072AAXX  30124 08008 12475 82304 10164 20079 39634 40150 58003 60001 8681/;","Q01  00002PRCP06"
"08008099999","2010-05-03T06:00:00","4","43.1166666","-7.45","446.0","LUGO ROZAS, SP","FM-12","99999","V020","360,1,N,0015,1","00900,1,9,N","018000,1,N,1","+0066,1","+0056,1","10211,1","12,0020,9,2","24,0018,9,2",,"8,1,06,1",,,"06,99,1,05,1,08,1,00450,1,06,1,00,1","0078,9","11,9","999,+0040,9","999,N,+0064,1","99999,9,09674,1","3,1,009,1,+999,9","25,1","SYN106AAXX  03064 08008 11468 63603 10066 20056 39674 40211 53009 60022 7258/ 85860 333 20064 32004 55013 70019;",
"08008099999","2010-05-03T09:00:00","4","43.1166666","-7.45","446.0","LUGO ROZAS, SP","FM-12","99999","V020","360,1,N,0015,1","00900,1,9,N","020000,1,N,1","+0085,1","+0061,1","10224,1",,,,"8,1,03,1","2,1,03,1",,"07,99,1,06,1,08,1,00450,1,06,1,00,1",,,,,"99999,9,09690,1","2,1,016,1,+999,9","02,1","SYN072AAXX  03094 08008 41470 73603 10085 20061 39690 40224 52016 70282 86860;",
"08008099999","2010-05-03T12:00:00","4","43.1166666","-7.45","446.0","LUGO ROZAS, SP","FM-12","99999","V020","030,1,N,0041,1","00900,1,9,N","025000,1,N,1","+0115,1","+0025,1","10222,1","06,0003,9,1",,,"8,1,06,1","2,1,06,1",,"06,99,1,05,1,08,1,00450,1,06,1,00,1",,,,,"99999,9,09693,1","0,1,003,1,+999,9","02,1","SYN078AAXX  03124 08008 11475 60308 10115 20025 39693 40222 50003 69931 70282 85860;",
"08008099999","2010-05-05T06:00:00","4","43.1166666","-7.45","446.0","LUGO ROZAS, SP","FM-12","99999","V020","040,1,N,0015,1","99999,9,9,N","025000,1,N,1","+0048,1","+0039,1","10221,1","12,0000,9,1","24,0018,9,1",,,,,"07,99,1,07,1,00,1,01250,1,05,1,99,9","0264,9","09,9","999,+0010,9","999,N,+0029,1","99999,9,09680,1","6,1,006,1,+999,9",,"SYN100AAXX  05064 08008 12675 70403 10048 20039 39680 40221 56006 69912 8705/ 333 20029 31001 55044 70018;","Q01  00002PRCP12"
"08008099999","2010-05-05T12:00:00","4","43.1166666","-7.45","446.0","LUGO ROZAS, SP","FM-12","99999","V020","040,1,N,0036,1","00900,1,9,N","025000,1,N,1","+0099,1","+0041,1","10201,1","06,0000,9,1",,,,,,"05,99,1,05,1,08,1,00450,1,00,1,00,1",,,,,"99999,9,09671,1","8,1,003,1,+999,9",,"SYN072AAXX  05124 08008 12475 50407 10099 20041 39671 40201 58003 60001 85800;","Q01  00002PRCP06"
"08008099999","2010-05-06T06:00:00","4","43.1166666","-7.45","446.0","LUGO ROZAS, SP","FM-12","99999","V020","150,1,N,0010,1","22000,1,9,N","025000,1,N,1","+0002,1","-0004,1","10172,1","12,0000,9,1","24,0000,9,1",,,,,"04,99,1,00,1,00,1,99999,9,00,1,01,1","0180,9","14,9","999,-0030,9","999,N,-0004,1","99999,9,09625,1","5,1,002,1,+999,9",,"SYN106AAXX  06064 08008 12775 41502 10002 21004 39625 40172 55002 60002 80001 333 21004 34103 50134 55030 70000;","Q01+017502SCOLCBQ02  00002PRCP24Q03  00002PRCP12"
"08008099999","2010-05-06T09:00:00","4","43.1166666","-7.45","446.0","LUGO ROZAS, SP","FM-12","99999","V020","030,1,N,0021,1","99999,9,9,N","020000,1,N,1","+0104,1","+0041,1","10143,1",,,,,,,"07,99,1,07,1,00,1,01250,1,05,1,99,9",,,,,"99999,9,09617,1","7,1,008,1,+999,9",,"SYN066AAXX  06094 08008 42670 70304 10104 20041 39617 40143 57008 8705/;",
"08008099999","2010-05-06T12:00:00","4","43.1166666","-7.45","446.0","LUGO ROZAS, SP","FM-12","99999","V020","030,1,N,0031,1","00420,1,9,N","025000,1,N,1","+0135,1","+0052,1","10125,1","06,0000,9,1",,,,,,"06,99,1,05,1,05,1,00450,1,03,1,00,1",,,,,"99999,9,09605,1","7,1,012,1,+999,9",,"SYN072AAXX  06124 08008 12475 60306 10135 20052 39605 40125 57012 60001 85530;","Q01  00002PRCP06"
"08008099999","2010-05-07T06:00:00","4","43.1166666","-7.45","446.0","LUGO ROZAS, SP","FM-12","99999","V020","230,1,N,0015,1","03600,1,9,N","015000,1,N,1","+0074,1","+0057,1","10075,1","12,0010,9,1","24,0010,9,1",,"6,1,06,1",,,"08,99,1,04,1,07,1,00450,1,07,1,99,9","0528,9","11,9","999,+0040,9","999,N,+0064,1","99999,9,09547,1","7,1,013,1,+999,9","61,1","SYN112AAXX  07064 08008 11465 82303 10074 20057 39547 40075 57013 60012 7616/ 8477/ 333 20064 32004 50194 55088 70011;",
"08008099999","2010-05-07T12:00:00","4","43.1166666","-7.45","446.0","LUGO ROZAS, SP","FM-12","99999","V020","330,1,N,0010,1","00900,1,9,N","025000,1,N,1","+0132,1","+0076,1","10060,1","06,0003,9,1",,,"6,1,06,1","2,1,06,1",,"07,99,1,07,1,08,1,00450,1,99,9,99,9",,,,,"99999,9,09543,1","8,1,004,1,+999,9","02,1","SYN078AAXX  07124 08008 11475 73302 10132 20076 39543 40060 58004 69931 70262 878//;",
"08008099999","2010-05-10T06:00:00","4","43.1166666","-7.45","446.0","LUGO ROZAS, SP","FM-12","99999","V020","200,1,N,0041,1","00900,1,9,N","025000,1,N,1","+0082,1","+0060,1","10041,1","12,0010,9,1","24,0028,9,1",,"8,1,06,1",,,"08,99,1,06,1,08,1,00450,1,07,1,99,9","0276,9",,,"999,N,+0078,1","99999,9,09516,1","3,1,003,1,+999,9","80,1","SYN100AAXX  10064 08008 11475 82008 10082 20060 39516 40041 53003 60012 7808/ 8687/ 333 20078 55046 70027;",
"08008099999","2010-05-10T09:00:00","4","43.1166666","-7.45","446.0","LUGO ROZAS, SP","FM-12","99999","V020","200,1,N,0041,1","00900,1,9,N","020000,1,N,1","+0093,1","+0079,1","10046,1",,,,"8,1,03,1","2,1,03,1",,"08,99,1,08,1,08,1,00450,1,99,9,99,9",,,,,"99999,9,09523,1","3,1,007,1,+999,9","81,1","SYN072AAXX  10094 08008 41470 82008 10093 20079 39523 40046 53007 78182 888//;",
"08008099999","2010-05-10T12:00:00","4","43.1166666","-7.45","446.0","LUGO ROZAS, SP","FM-12","99999","V020","220,1,N,0036,1","00420,1,9,N","025000,1,N,1","+0106,1","+0084,1","10049,1","06,0041,9,1",,,"8,1,06,1","2,1,06,1",,"07,99,1,06,1,02,1,00450,1,06,1,99,9",,,,,"99999,9,09528,1","0,1,005,1,+999,9","25,1","SYN078AAXX  10124 08008 11475 72207 10106 20084 39528 40049 50005 60041 72582 8626/;",
"08008099999","2010-05-11T06:00:00","4","43.1166666","-7.45","446.0","LUGO ROZAS, SP","FM-12","99999","V020","310,1,N,0010,1","00420,1,9,N","000800,1,N,1","+0089,1","+0083,1","10096,1","12,0010,9,1","24,0053,9,1",,"6,1,06,1",,,"08,99,1,07,1,07,1,00450,1,07,1,99,9","0048,9","11,9","999,+0050,9","999,N,+0086,1","99999,9,09570,1","5,1,000,1,+999,9","60,1","SYN112AAXX  11064 08008 11408 83102 10089 20083 39570 40096 55000 60012 7606/ 8777/ 333 20086 32005 50084 55008 70053;",
"08008099999","2010-05-11T12:00:00","4","43.1166666","-7.45","446.0","LUGO ROZAS, SP","FM-12","99999","V020","070,1,N,0015,1","00900,1,9,N","015000,1,N,1","+0104,1","+0087,1","10101,1","06,0010,9,1",,,"6,1,06,1","4,1,06,1",,"08,99,1,07,1,08,1,00450,1,07,1,99,9",,,,,"99999,9,09577,1","0,1,002,1,+999,9","21,1","SYN078AAXX  11124 08008 11465 80703 10104 20087 39577 40101 50002 60011 72164 8787/;",
"08008099999","2010-05-12T06:00:00","4","43.1166666","-7.45","446.0","LUGO ROZAS, SP","FM-12","99999","V020","999,9,C,0000,1","99999,9,9,N","008000,1,N,1","+0067,1","+0057,1","10114,1","12,0000,9,1","24,0013,9,1",,,,,"07,99,1,06,1,00,1,01250,1,07,1,01,1","0000,9","09,9","999,+0020,9","999,N,+0063,1","99999,9,09583,1","3,1,004,1,+999,9","10,1","SYN112AAXX  12064 08008 11658 70000 10067 20057 39583 40114 53004 60002 710// 86071 333 20063 31002 50054 55000 70013;","Q01  00002PRCP12"
"08008099999","2010-05-12T09:00:00","4","43.1166666","-7.45","446.0","LUGO ROZAS, SP","FM-12","99999","V020","360,1,N,0021,1","00900,1,9,N","015000,1,N,1","+0090,1","+0070,1","10117,1",,,,,,,"08,99,1,08,1,08,1,00450,1,99,9,99,9",,,,,"99999,9,09590,1","2,1,007,1,+999,9",,"SYN066AAXX  12094 08008 42465 83604 10090 20070 39590 40117 52007 888//;",
"08008099999","2010-05-12T12:00:00","4","43.1166666","-7.45","446.0","LUGO ROZAS, SP","FM-12","99999","V020","050,1,N,0031,1","00900,1,9,N","025000,1,N,1","+0110,1","+0064,1","10122,1","06,0000,9,1",,,"8,1,06,1","2,1,06,1",,"08,99,1,08,1,08,1,00450,1,99,9,99,9",,,,,"99999,9,09598,1","0,1,008,1,+999,9","02,1","SYN078AAXX  12124 08008 11475 80506 10110 20064 39598 40122 50008 69921 70282 888//;","Q01  00002PRCP06"
"08008099999","2010-05-13T06:00:00","4","43.1166666","-7.45","446.0","LUGO ROZAS, SP","FM-12","99999","V020","140,1,N,0015,1","22000,1,9,N","025000,1,N,1","+0002,1","-0004,1","10171,1","12,0000,9,1","24,0003,9,1",,,,,"04,99,1,01,1,05,1,00450,1,03,1,09,1","0042,9","14,9","999,-0040,9","999,N,-0002,1","99999,9,09624,1","3,1,007,1,+999,9",,"SYN106AAXX  13064 08008 12475 41403 10002 21004 39624 40171 53007 60002 81539 333 21002 34104 50104 55007 70002;","Q01  00002PRCP12"
"08008099999","2010-05-13T09:00:00","4","43.1166666","-7.45","446.0","LUGO ROZAS, SP","FM-12","99999","V020","060,1,N,0026,1","22000,1,9,N","025000,1,N,1","+0108,1","+0026,1","10159,1",,,,,,,"04,99,1,04,1,08,1,00450,1,00,1,00,1",,,,,"99999,9,09632,1","1,1,008,1,+999,9",,"SYN066AAXX  13094 08008 42475 40605 10108 20026 39632 40159 51008 84800;",
"08008099999","2010-05-13T12:00:00","4","43.1166666","-7.45","446.0","LUGO ROZAS, SP","FM-12","99999","V020","020,1,N,0031,1","00900,1,9,N","025000,1,N,1","+0121,1","+0028,1","10154,1","06,0000,9,1",,,,,,"06,99,1,05,1,08,1,00450,1,06,1,00,1",,,,,"99999,9,09630,1","6,1,002,1,+999,9",,"SYN072AAXX  13124 08008 12475 60206 10121 20028 39630 40154 56002 60001 85860;","Q01  00002PRCP06"
"08008099999","2010-05-14T06:00:00","4","43.1166666","-7.45","446.0","LUGO ROZAS, SP","FM-12","99999","V020","180,1,N,0026,1","99999,9,9,N","015000,1,N,1","+0061,1","+0046,1","10163,1","12,0010,9,1","24,0010,9,1",,"6,1,06,1",,,"08,99,1,08,1,00,1,01250,1,07,1,99,9","0522,9","11,9","999,+0020,9","999,N,+0049,1","99999,9,09628,1","8,1,010,1,+999,9","61,1","SYN112AAXX  14064 08008 11665 81805 10061 20046 39628 40163 58010 69992 7616/ 8807/ 333 20049 32002 50194 55087 70009;",
"08008099999","2010-05-14T09:00:00","4","43.1166666","-7.45","446.0","LUGO ROZAS, SP","FM-12","99999","V020","210,1,N,0031,1","03600,1,9,N","020000,1,N,1","+0075,1","+0064,1","10160,1",,,,"6,1,03,1","5,1,03,1",,"08,99,1,04,1,07,1,00450,1,07,1,99,9",,,,,"99999,9,09628,1","5,1,000,1,+999,9","20,1","SYN072AAXX  14094 08008 41470 82106 10075 20064 39628 40160 55000 72065 8477/;",
"08008099999","2010-05-14T12:00:00","4","43.1166666","-7.45","446.0","LUGO ROZAS, SP","FM-12","99999","V020","320,1,N,0026,1","00900,1,9,N","018000,1,N,1","+0119,1","+0106,1","10152,1","06,0051,9,1",,,"8,1,06,1","6,1,06,1",,"08,99,1,08,1,08,1,00450,1,99,9,99,9",,,,,"99999,9,09629,1","1,1,001,1,+999,9","25,1","SYN078AAXX  14124 08008 11468 83205 10119 20106 39629 40152 51001 60051 72586 888//;",
"08008099999","2010-05-19T06:00:00","4","43.1166666","-7.45","446.0","LUGO ROZAS, SP","FM-12","99999","V020","060,1,N,0010,1","22000,1,9,N","005000,1,N,1","+0089,1","+0081,1","10289,1","12,0000,9,1","24,0000,9,1",,,,,"02,99,1,02,1,06,1,00250,1,00,1,00,1","0702,9",,,"999,N,+0087,1","99999,9,09753,1","3,1,004,1,+999,9","10,1","SYN100AAXX  19064 08008 11350 20602 10089 20081 39753 40289 53004 60002 710// 82600 333 20087 55117 70000;","Q01  00002PRCP24Q02  00002PRCP12"
"08008099999","2010-05-19T09:00:00","4","43.1166666","-7.45","446.0","LUGO ROZAS, SP","FM-12","99999","V020","030,1,N,0026,1","22000,1,9,N","020000,1,N,1","+0159,1","+0109,1","10276,1",,,,,,"00,1,+99999,9,99,9","00,99,1,00,1,00,1,99999,9,00,1,00,1",,,,,"99999,9,09753,1","0,1,000,1,+999,9",,"SYN060AAXX  19094 08008 42970 00305 10159 20109 39753 40276 50000;",
"08008099999","2010-05-19T12:00:00","4","43.1166666","-7.45","446.0","LUGO ROZAS, SP","FM-12","99999","V020","040,1,N,0031,1","22000,1,9,N","025000,1,N,1","+0221,1","+0140,1","10254,1","06,0000,9,1",,,,,,"01,99,1,00,1,00,1,99999,9,00,1,01,1",,,,,"99999,9,09744,1","8,1,009,1,+999,9",,"SYN072AAXX  19124 08008 12875 10406 10221 20140 39744 40254 58009 60001 80001;","Q01+022502SCOLCBQ02  00002PRCP06"
"08008099999","2010-05-20T06:00:00","4","43.1166666","-7.45","446.0","LUGO ROZAS, SP","FM-12","99999","V020","150,1,N,0005,1","22000,1,9,N","015000,1,N,1","+0078,1","+0074,1","10272,1","12,0000,9,1","24,0000,9,1",,,,"00,1,+99999,9,99,9","00,99,1,00,1,00,1,99999,9,00,1,00,1","0774,9","09,9","999,+0040,9","999,N,+0069,1","99999,9,09735,1","5,1,002,1,+999,9",,"SYN100AAXX  20064 08008 12965 01501 10078 20074 39735 40272 55002 60002 333 20069 31004 50184 55129 70000;","Q01  00002PRCP24Q02  00002PRCP12"
"08008099999","2010-05-20T09:00:00","4","43.1166666","-7.45","446.0","LUGO ROZAS, SP","FM-12","99999","V020","060,1,N,0026,1","22000,1,9,N","025000,1,N,1","+0208,1","+0117,1","10245,1",,,,,,"00,1,+99999,9,99,9","00,99,1,00,1,00,1,99999,9,00,1,00,1",,,,,"99999,9,09733,1","8,1,002,1,+999,9",,"SYN060AAXX  20094 08008 42975 00605 10208 20117 39733 40245 58002;",
"08008099999","2010-05-20T12:00:00","4","43.1166666","-7.45","446.0","LUGO ROZAS, SP","FM-12","99999","V020","010,1,N,0031,1","22000,1,9,N","025000,1,N,1","+0241,1","+0145,1","10224,1","06,0000,9,1",,,,,"00,1,+99999,9,99,9","00,99,1,00,1,00,1,99999,9,00,1,00,1",,,,,"99999,9,09719,1","8,1,014,1,+999,9",,"SYN066AAXX  20124 08008 12975 00106 10241 20145 39719 40224 58014 60001;","Q01  00002PRCP06"
"08008099999","2010-05-21T06:00:00","4","43.1166666","-7.45","446.0","LUGO ROZAS, SP","FM-12","99999","V020","140,1,N,0010,1","22000,1,9,N","005000,1,N,1","+0075,1","+0069,1","10235,1","12,0000,9,1","24,0000,9,1",,,,"00,1,+99999,9,99,9","00,99,1,00,1,00,1,99999,9,00,1,00,1","0786,9","09,9","999,+0030,9","999,N,+0068,1","99999,9,09699,1","3,1,003,1,+999,9","10,1","SYN106AAXX  21064 08008 11950 01402 10075 20069 39699 40235 53003 60002 710// 333 20068 31003 50294 55131 70000;","Q01  00002PRCP24Q02  00002PRCP12"
"08008099999","2010-05-21T09:00:00","4","43.1166666","-7.45","446.0","LUGO ROZAS, SP","FM-12","99999","V020","280,1,N,0010,1","22000,1,9,N","025000,1,N,1","+0188,1","+0123,1","10210,1",,,,,,"00,1,+99999,9,99,9","00,99,1,00,1,00,1,99999,9,00,1,00,1",,,,,"99999,9,09696,1","8,1,003,1,+999,9",,"SYN060AAXX  21094 08008 42975 02802 10188 20123 39696 40210 58003;",
"08008099999","2010-05-21T12:00:00","4","43.1166666","-7.45","446.0","LUGO ROZAS, SP","FM-12","99999","V020","340,1,N,0015,1","22000,1,9,N","025000,1,N,1","+0274,2","+0122,1","10178,1","06,0000,9,1",,,,,"00,1,+99999,9,99,9","00,99,1,00,1,00,1,99999,9,00,1,00,1",,,,,"99999,9,09680,1","7,1,016,1,+999,9",,"SYN066AAXX  21124 08008 12975 03403 10274 20122 39680 40178 57016 60001;","Q01  00002PRCP06"
"08008099999","2010-05-24T06:00:00","4","43.1166666","-7.45","446.0","LUGO ROZAS, SP","FM-12","99999","V020","140,1,N,0015,1","22000,1,9,N","015000,1,N,1","+0120,1","+0109,1","10138,1","12,0000,9,1","24,0000,9,1",,,,"00,1,+99999,9,99,9","00,99,1,00,1,00,1,99999,9,00,1,00,1","0798,9",,,"999,N,+0113,1","99999,9,09616,1","3,1,006,1,+999,9",,"SYN088AAXX  24064 08008 12965 01403 10120 20109 39616 40138 53006 60002 333 20113 55133 70000;","Q01  00002PRCP24Q02  00002PRCP12"
"08008099999","2010-05-24T09:00:00","4","43.1166666","-7.45","446.0","LUGO ROZAS, SP","FM-12","99999","V020","230,1,N,0031,1","00900,1,9,N","020000,1,N,1","+0179,1","+0136,1","10140,1",,,,,,,"08,99,1,08,1,08,1,00450,1,99,9,99,9",,,,,"99999,9,09628,1","2,1,012,1,+999,9",,"SYN066AAXX  24094 08008 42470 82306 10179 20136 39628 40140 52012 888//;",
"08008099999","2010-05-24T12:00:00","4","43.1166666","-7.45","446.0","LUGO ROZAS, SP","FM-12","99999","V020","210,1,N,0041,1","22000,1,9,N","022000,1,N,1","+0249,1","+0128,1","10112,1","06,0000,9,1",,,,,,"04,99,1,03,1,08,1,00450,1,05,1,00,1",,,,,"99999,9,09613,1","7,1,015,1,+999,9",,"SYN072AAXX  24124 08008 12472 42108 10249 20128 39613 40112 57015 60001 83850;","Q01  00002PRCP06"
"08008099999","2010-05-25T06:00:00","4","43.1166666","-7.45","446.0","LUGO ROZAS, SP","FM-12","99999","V020","150,1,N,0015,1","00900,1,9,N","025000,1,N,1","+0140,1","+0110,1","10108,1","12,0005,9,1","24,0005,9,1",,"8,1,06,1",,,"07,99,1,06,1,08,1,00450,1,06,1,99,9","0540,9","09,9","999,+0070,9","999,N,+0113,1","99999,9,09591,1","6,1,004,1,+999,9","02,1","SYN112AAXX  25064 08008 11475 71503 10140 20110 39591 40108 56004 69942 7028/ 8686/ 333 20113 31007 50354 55090 70004;",
"08008099999","2010-05-25T09:00:00","4","43.1166666","-7.45","446.0","LUGO ROZAS, SP","FM-12","99999","V020","170,1,N,0036,1","00900,1,9,N","025000,1,N,1","+0146,1","+0114,1","10110,1",,,,"8,1,03,1","2,1,03,1",,"07,99,1,06,1,08,1,00450,1,06,1,00,1",,,,,"99999,9,09594,1","0,1,003,1,+999,9","80,1","SYN072AAXX  25094 08008 41475 71707 10146 20114 39594 40110 50003 78082 86860;",
"08008099999","2010-05-25T12:00:00","4","43.1166666","-7.45","446.0","LUGO ROZAS, SP","FM-12","99999","V020","230,1,N,0051,1","00900,1,9,N","025000,1,N,1","+0166,1","+0102,1","10112,1","06,0008,9,1",,,"8,1,06,1","2,1,06,1",,"07,99,1,06,1,08,1,00450,1,06,1,99,9",,,,,"99999,9,09599,1","1,1,005,1,+999,9","02,1","SYN078AAXX  25124 08008 11475 72310 10166 20102 39599 40112 51005 69971 70282 8686/;",
"08008099999","2010-05-26T06:00:00","4","43.1166666","-7.45","446.0","LUGO ROZAS, SP","FM-12","99999","V020","220,1,N,0021,1","00900,1,9,N","018000,1,N,1","+0120,1","+0107,1","10131,1","12,0020,9,1","24,0064,9,1",,"8,1,06,1",,,"08,99,1,06,1,08,1,00450,1,02,1,99,9","0210,9","11,9","999,+0070,9","999,N,+0110,1","99999,9,09609,1","5,1,000,1,+999,9","80,1","SYN112AAXX  26064 08008 11468 82204 10120 20107 39609 40131 55000 60022 7808/ 8682/ 333 20110 32007 50214 55035 70064;",
"08008099999","2010-05-26T09:00:00","4","43.1166666","-7.45","446.0","LUGO ROZAS, SP","FM-12","99999","V020","230,1,N,0026,1","00900,1,9,N","020000,1,N,1","+0142,1","+0119,1","10137,1",,,,"8,1,03,1","2,1,03,1",,"07,99,1,06,1,08,1,00450,1,06,1,99,9",,,,,"99999,9,09619,1","1,1,010,1,+999,9","02,1","SYN072AAXX  26094 08008 41470 72305 10142 20119 39619 40137 51010 70282 8686/;",
"08008099999","2010-05-26T12:00:00","4","43.1166666","-7.45","446.0","LUGO ROZAS, SP","FM-12","99999","V020","200,1,N,0036,1","00900,1,9,N","025000,1,N,1","+0153,1","+0113,1","10137,1","06,0030,9,1",,,"8,1,06,1","2,1,06,1",,"07,99,1,06,1,08,1,00450,1,06,1,99,9",,,,,"99999,9,09621,1","3,1,002,1,+999,9","02,1","SYN078AAXX  26124 08008 11475 72007 10153 20113 39621 40137 53002 60031 70282 8686/;",
"08008099999","2010-05-27T06:00:00","4","43.1166666","-7.45","446.0","LUGO ROZAS, SP","FM-12","99999","V020","150,1,N,0010,1","00210,1,9,N","000400,1,N,1","+0107,1","+0102,1","10144,1","12,0000,9,1","24,0028,9,1",,,,,"07,99,1,06,1,06,1,00250,1,03,1,99,9","0072,9","09,9","999,+0060,9","999,N,+0105,1","99999,9,09619,1","5,1,004,1,+999,9","44,1","SYN112AAXX  27064 08008 11304 71502 10107 20102 39619 40144 55004 60002 744// 8663/ 333 20105 31006 50114 55012 70027;","Q01  00002PRCP12"
"08008099999","2010-05-27T09:00:00","4","43.1166666","-7.45","446.0","LUGO ROZAS, SP","FM-12","99999","V020","290,1,N,0015,1","22000,1,9,N","020000,1,N,1","+0162,1","+0096,1","10141,1",,,,"4,1,03,1","2,1,03,1",,"05,99,1,04,1,08,1,00450,1,00,1,04,1",,,,,"99999,9,09626,1","1,1,007,1,+999,9","02,1","SYN072AAXX  27094 08008 41470 52903 10162 20096 39626 40141 51007 70242 84804;",
"08008099999","2010-05-27T12:00:00","4","43.1166666","-7.45","446.0","LUGO ROZAS, SP","FM-12","99999","V020","310,1,N,0010,1","00900,1,9,N","025000,1,N,1","+0186,1","+0097,1","10135,1","06,0000,9,1",,,"4,1,06,1","2,1,06,1",,"08,99,1,08,1,08,1,00450,1,99,9,99,9",,,,,"99999,9,09624,1","8,1,002,1,+999,9","02,1","SYN078AAXX  27124 08008 11475 83102 10186 20097 39624 40135 58002 60001 70242 888//;","Q01  00002PRCP06"
"08008099999","2010-05-28T06:00:00","4","43.1166666","-7.45","446.0","LUGO ROZAS, SP","FM-12","99999","V020","150,1,N,0010,1","00030,1,9,N","000200,1,N,1","+0100,1","+0095,1","10192,1","12,0003,9,1","24,0051,9,1",,,,"09,1,+00030,1,99,9","09,99,1,09,1,99,9,99999,9,99,9,99,9","0198,9","11,9","999,+0080,9","999,N,+0097,1","99999,9,09663,1","1,1,011,1,+999,9","45,1","SYN112AAXX  28064 08008 11/02 91502 10100 20095 39663 40192 51011 69932 745// 333 20097 32008 50114 55033 70051 89/01;",
"08008099999","2010-05-28T09:00:00","4","43.1166666","-7.45","446.0","LUGO ROZAS, SP","FM-12","99999","V020","300,1,N,0015,1","22000,1,9,N","020000,1,N,1","+0150,1","+0112,1","10190,1",,,,"4,1,03,1","2,1,03,1",,"04,99,1,04,1,08,1,00450,1,00,1,00,1",,,,,"99999,9,09670,1","1,1,007,1,+999,9","02,1","SYN072AAXX  28094 08008 41470 43003 10150 20112 39670 40190 51007 70242 84800;",
"08008099999","2010-05-28T12:00:00","4","43.1166666","-7.45","446.0","LUGO ROZAS, SP","FM-12","99999","V020","270,1,N,0021,1","03600,1,9,N","022000,1,N,1","+0179,1","+0079,1","10187,1","06,0000,9,1",,,"4,1,06,1","2,1,06,1",,"07,99,1,04,1,08,1,00450,1,03,1,99,9",,,,,"99999,9,09672,1","0,1,002,1,+999,9","02,1","SYN078AAXX  28124 08008 11472 72704 10179 20079 39672 40187 50002 60001 70242 8483/;","Q01  00002PRCP06"
"08008099999","2010-05-31T06:00:00","4","43.1166666","-7.45","446.0","LUGO ROZAS, SP","FM-12","99999","V020","150,1,N,0010,1","22000,1,9,N","000500,1,N,1","+0122,1","+0116,1","10261,1","12,0000,9,1","24,0000,9,1",,,,,"04,99,1,02,1,06,1,00250,1,00,1,01,1","0354,9",,,"999,N,+0122,1","99999,9,09733,1","8,1,002,1,+999,9","44,1","SYN100AAXX  31064 08008 11305 41502 10122 20116 39733 40261 58002 60002 744// 82601 333 20122 55059 70000;","Q01  00002PRCP24Q02  00002PRCP12"
"08008099999","2010-05-31T09:00:00","4","43.1166666","-7.45","446.0","LUGO ROZAS, SP","FM-12","99999","V020","360,1,N,0010,1","22000,1,9,N","020000,1,N,1","+0180,1","+0149,1","10247,1",,,,"4,1,03,1","4,1,03,1",,"04,99,1,04,1,05,1,00450,1,00,1,00,1",,,,,"99999,9,09730,1","8,1,003,1,+999,9","02,1","SYN072AAXX  31094 08008 41470 43602 10180 20149 39730 40247 58003 70244 84500;",
"08008099999","2010-05-31T12:00:00","4","43.1166666","-7.45","446.0","LUGO ROZAS, SP","FM-12","99999","V020","050,1,N,0021,1","22000,1,9,N","025000,1,N,1","+0266,1","+0156,1","10216,1","06,0000,9,1",,,"4,1,06,1","1,1,06,1",,"03,99,1,02,1,01,1,00450,1,00,1,01,1",,,,,"99999,9,09715,1","8,1,015,1,+999,9","02,1","SYN078AAXX  31124 08008 11475 30504 10266 20156 39715 40216 58015 60001 70241 82101;","Q01  00002PRCP06"
"08008099999","2010-06-01T06:00:00","4","43.1166666","-7.45","446.0","LUGO ROZAS, SP","FM-12","99999","V020","130,1,N,0010,1","01500,1,9,N","002000,1,N,1","+0136,1","+0128,1","10204,1","12,0000,9,1","24,0000,9,1",,,,,"08,99,1,05,1,00,1,01750,1,03,1,07,1","0582,9","09,9","999,+0120,9","999,N,+0132,1","99999,9,09681,1","5,1,001,1,+999,9","10,1","SYN112AAXX  01064 08008 11720 81302 10136 20128 39681 40204 55001 60002 710// 85037 333 20132 31012 50224 55097 70000;","Q01  00002PRCP24Q02  00002PRCP12"
"08008099999","2010-06-01T09:00:00","4","43.1166666","-7.45","446.0","LUGO ROZAS, SP","FM-12","99999","V020","020,1,N,0015,1","01500,1,9,N","025000,1,N,1","+0202,1","+0156,1","10192,1",,,,,,,"07,99,1,05,1,00,1,01750,1,03,1,08,1",,,,,"99999,9,09682,1","3,1,001,1,+999,9",,"SYN066AAXX  01094 08008 42775 70203 10202 20156 39682 40192 53001 85038;",
"08008099999","2010-06-01T12:00:00","4","43.1166666","-7.45","446.0","LUGO ROZAS, SP","FM-12","99999","V020","030,1,N,0021,1","01500,1,9,N","025000,1,N,1","+0226,1","+0154,1","10188,1","06,0000,9,1",,,,,,"08,99,1,05,1,00,1,01750,1,03,1,07,1",,,,,"99999,9,09682,1","0,1,000,1,+999,9",,"SYN072AAXX  01124 08008 12775 80304 10226 20154 39682 40188 50000 60001 85037;","Q01  00002PRCP06"
"08008099999","2010-06-02T06:00:00","4","43.1166666","-7.45","446.0","LUGO ROZAS, SP","FM-12","99999","V020","010,1,N,0010,1","01500,1,9,N","020000,1,N,1","+0135,1","+0122,1","10183,1","12,0008,9,1","24,0008,9,1",,,,,"06,99,1,06,1,00,1,01750,1,07,1,00,1","0120,9","09,9","999,+0110,9","999,N,+0123,1","99999,9,09661,1","0,1,001,1,+999,9",,"SYN106AAXX  02064 08008 12770 60102 10135 20122 39661 40183 50001 69972 86070 333 20123 31011 50164 55020 70007;",
"08008099999","2010-06-02T09:00:00","4","43.1166666","-7.45","446.0","LUGO ROZAS, SP","FM-12","99999","V020","030,1,N,0021,1","00420,1,9,N","015000,1,N,1","+0166,1","+0139,1","10177,1",,,,,,,"08,99,1,08,1,05,1,00450,1,99,9,99,9",,,,,"99999,9,09661,1","5,1,000,1,+999,9",,"SYN066AAXX  02094 08008 42465 80304 10166 20139 39661 40177 55000 885//;",
"08008099999","2010-06-02T12:00:00","4","43.1166666","-7.45","446.0","LUGO ROZAS, SP","FM-12","99999","V020","050,1,N,0021,1","00420,1,9,N","018000,1,N,1","+0210,1","+0153,1","10163,1","06,0000,9,1",,,,,,"06,99,1,05,1,05,1,00450,1,03,1,01,1",,,,,"99999,9,09656,1","8,1,005,1,+999,9",,"SYN072AAXX  02124 08008 12468 60504 10210 20153 39656 40163 58005 60001 85531;","Q01  00002PRCP06"
"08008099999","2010-06-03T06:00:00","4","43.1166666","-7.45","446.0","LUGO ROZAS, SP","FM-12","99999","V020","120,1,N,0010,1","00030,1,9,N","000300,1,N,1","+0128,1","+0125,1","10144,1","12,0000,9,1","24,0000,9,1",,,,"09,1,+00030,1,99,9","09,99,1,09,1,99,9,99999,9,99,9,99,9","0396,9","01,9","999,+0120,9","999,N,+0128,1","99999,9,09623,1","3,1,005,1,+999,9","45,1","SYN112AAXX  03064 08008 11/03 91202 10128 20125 39623 40144 53005 60002 745// 333 20128 30012 50164 55066 70000 89/01;","Q01  00002PRCP24Q02  00002PRCP12"
"08008099999","2010-06-03T09:00:00","4","43.1166666","-7.45","446.0","LUGO ROZAS, SP","FM-12","99999","V020","310,1,N,0015,1","22000,1,9,N","020000,1,N,1","+0176,1","+0145,1","10137,1",,,,"4,1,03,1","1,1,03,1",,"01,99,1,01,1,06,1,00450,1,00,1,00,1",,,,,"99999,9,09625,1","1,1,002,1,+999,9","01,1","SYN072AAXX  03094 08008 41470 13103 10176 20145 39625 40137 51002 70141 81600;",
"08008099999","2010-06-03T12:00:00","4","43.1166666","-7.45","446.0","LUGO ROZAS, SP","FM-12","99999","V020","260,1,N,0021,1","22000,1,9,N","025000,1,N,1","+0267,1","+0104,1","10116,1","06,0000,9,1",,,"4,1,06,1","1,1,06,1",,"01,99,1,01,1,01,1,00450,1,03,1,00,1",,,,,"99999,9,09620,1","6,1,005,1,+999,9","02,1","SYN078AAXX  03124 08008 11475 12604 10267 20104 39620 40116 56005 60001 70241 81130;","Q01  00002PRCP06"
"08008099999","2010-06-04T06:00:00","4","43.1166666","-7.45","446.0","LUGO ROZAS, SP","FM-12","99999","V020","120,1,N,0010,1","00030,1,9,N","000200,1,N,1","+0102,1","+0100,1","10201,1","12,0000,9,1","24,0000,9,1",,,,"09,1,+00030,1,99,9","09,99,1,09,1,99,9,99999,9,99,9,99,9","0654,9","09,9","999,+0060,9","999,N,+0089,1","99999,9,09672,1","2,1,016,1,+999,9","45,1","SYN112AAXX  04064 08008 11/02 91202 10102 20100 39672 40201 52016 60002 745// 333 20089 31006 50404 55109 70000 89/01;","Q01  00002PRCP24Q02  00002PRCP12"
"08008099999","2010-06-04T09:00:00","4","43.1166666","-7.45","446.0","LUGO ROZAS, SP","FM-12","99999","V020","290,1,N,0010,1","00090,1,9,N","000800,1,N,1","+0131,1","+0117,1","10208,1",,,,"4,1,03,1","4,1,03,1","09,1,+00090,1,99,9","09,99,1,09,1,99,9,99999,9,99,9,99,9",,,,,"99999,9,09684,1","1,1,012,1,+999,9","43,1","SYN076AAXX  04094 08008 41/08 92902 10131 20117 39684 40208 51012 74344 333 89/03;",
"08008099999","2010-06-04T12:00:00","4","43.1166666","-7.45","446.0","LUGO ROZAS, SP","FM-12","99999","V020","330,1,N,0021,1","22000,1,9,N","020000,1,N,1","+0222,1","+0148,1","10185,1","06,0000,9,1",,,"4,1,06,1","1,1,06,1",,"01,99,1,01,1,01,1,00450,1,00,1,00,1",,,,,"99999,9,09679,1","8,1,005,1,+999,9","02,1","SYN078AAXX  04124 08008 11470 13304 10222 20148 39679 40185 58005 60001 70241 81100;","Q01  00002PRCP06"
"08008099999","2010-06-07T06:00:00","4","43.1166666","-7.45","446.0","LUGO ROZAS, SP","FM-12","99999","V020","290,1,N,0005,1","09000,1,9,N","000800,1,N,1","+0078,1","+0074,1","10181,1","12,0000,9,1","24,0000,9,1",,,,,"07,99,1,04,1,00,1,01750,1,01,1,08,1","0714,9",,,"999,N,+0068,1","99999,9,09648,1","7,1,008,1,+999,9","44,1","SYN100AAXX  07064 08008 11708 72901 10078 20074 39648 40181 57008 60002 744// 84018 333 20068 55119 70000;","Q01  00002PRCP24Q02  00002PRCP12"
"08008099999","2010-06-07T09:00:00","4","43.1166666","-7.45","446.0","LUGO ROZAS, SP","FM-12","99999","V020","240,1,N,0021,1","03600,1,9,N","020000,1,N,1","+0161,1","+0121,1","10161,1",,,,"4,1,03,1","2,1,03,1",,"07,99,1,01,1,01,1,00450,1,03,1,08,1",,,,,"99999,9,09645,1","8,1,003,1,+999,9","28,1","SYN072AAXX  07094 08008 41470 72404 10161 20121 39645 40161 58003 72842 81138;",
"08008099999","2010-06-07T12:00:00","4","43.1166666","-7.45","446.0","LUGO ROZAS, SP","FM-12","99999","V020","250,1,N,0046,1","22000,1,9,N","025000,1,N,1","+0209,1","+0123,1","10142,1","06,0000,9,1",,,"4,1,06,1","2,1,06,1",,"06,99,1,04,1,05,1,00450,1,00,1,01,1",,,,,"99999,9,09635,1","8,1,010,1,+999,9","02,1","SYN078AAXX  07124 08008 11475 62509 10209 20123 39635 40142 58010 60001 70242 84501;","Q01  00002PRCP06"
"08008099999","2010-06-08T06:00:00","4","43.1166666","-7.45","446.0","LUGO ROZAS, SP","FM-12","99999","V020","210,1,N,0021,1","03600,1,9,N","020000,1,N,1","+0132,1","+0109,1","10104,1","12,0000,9,1","24,0000,9,1",,"6,1,06,1",,,"08,99,1,04,1,07,1,00450,1,07,1,99,9","0312,9","09,9","999,+0120,9","999,N,+0128,1","99999,9,09586,1","6,1,004,1,+999,9","02,1","SYN112AAXX  08064 08008 11470 82104 10132 20109 39586 40104 56004 69912 7026/ 8477/ 333 20128 31012 50324 55052 70001;","Q01  00002PRCP24Q02  00002PRCP12"
"08008099999","2010-06-08T09:00:00","4","43.1166666","-7.45","446.0","LUGO ROZAS, SP","FM-12","99999","V020","220,1,N,0026,1","00900,1,9,N","022000,1,N,1","+0144,1","+0112,1","10094,1",,,,,,,"08,99,1,06,1,08,1,00450,1,07,1,99,9",,,,,"99999,9,09578,1","7,1,008,1,+999,9",,"SYN066AAXX  08094 08008 42472 82205 10144 20112 39578 40094 57008 8687/;",
"08008099999","2010-06-08T12:00:00","4","43.1166666","-7.45","446.0","LUGO ROZAS, SP","FM-12","99999","V020","230,1,N,0041,1","00900,1,9,N","018000,1,N,1","+0144,1","+0123,1","10086,1","06,9999,9,9",,,"6,1,06,1","5,1,06,1",,"08,99,1,08,1,08,1,00450,1,99,9,99,9",,,,,"99999,9,09571,1","8,1,007,1,+999,9","50,1","SYN078AAXX  08124 08008 11468 82308 10144 20123 39571 40086 58007 69911 75065 888//;","Q01  00002PRCP06Q02  00002PRCP06"
"08008099999","2010-06-09T06:00:00","4","43.1166666","-7.45","446.0","LUGO ROZAS, SP","FM-12","99999","V020","030,1,N,0015,1","00420,1,9,N","008000,1,N,1","+0124,1","+0116,1","09987,1","12,0211,9,1","24,0259,9,1",,"6,1,06,1",,,"08,99,1,08,1,07,1,00450,1,99,9,99,9","0000,9","11,9","999,+0100,9","999,N,+0122,1","99999,9,09473,1","5,1,007,1,+999,9","63,1","SYN112AAXX  09064 08008 11458 80303 10124 20116 39473 49987 55007 60212 7636/ 887// 333 20122 32010 50084 55000 70259;",
"08008099999","2010-06-09T09:00:00","4","43.1166666","-7.45","446.0","LUGO ROZAS, SP","FM-12","99999","V020","070,1,N,0010,1","00210,1,9,N","005000,1,N,1","+0132,1","+0127,1","09986,1",,,,"6,1,03,1","2,1,03,1",,"08,99,1,08,1,07,1,00250,1,99,9,99,9",,,,,"99999,9,09474,1","3,1,001,1,+999,9","61,1","SYN072AAXX  09094 08008 41350 80702 10132 20127 39474 49986 53001 76162 887//;",
"08008099999","2010-06-09T12:00:00","4","43.1166666","-7.45","446.0","LUGO ROZAS, SP","FM-12","99999","V020","050,1,N,0010,1","00210,1,9,N","008000,1,N,1","+0132,1","+0123,1","09987,1","06,0180,9,1",,,"6,1,06,1","2,1,06,1",,"08,99,1,08,1,07,1,00250,1,99,9,99,9",,,,,"99999,9,09475,1","1,1,001,1,+999,9","61,1","SYN078AAXX  09124 08008 11358 80502 10132 20123 39475 49987 51001 60181 76162 887//;",
"08008099999","2010-06-10T06:00:00","4","43.1166666","-7.45","446.0","LUGO ROZAS, SP","FM-12","99999","V020","240,1,N,0036,1","00420,1,9,N","012000,1,N,1","+0112,1","+0103,1","10004,1","12,0361,9,1","24,0777,9,1",,"6,1,06,1",,,"08,99,1,08,1,07,1,00450,1,99,9,99,9","0000,9","11,9","999,+0100,9","999,N,+0110,1","99999,9,09487,1","2,1,007,1,+999,9","61,1","SYN112AAXX  10064 08008 11462 82407 10112 20103 39487 40004 52007 60362 7616/ 887// 333 20110 32010 50014 55000 70778;",
"08008099999","2010-06-10T09:00:00","4","43.1166666","-7.45","446.0","LUGO ROZAS, SP","FM-12","99999","V020","250,1,N,0041,1","00420,1,9,N","008000,1,N,1","+0122,1","+0111,1","10017,1",,,,"6,1,03,1","2,1,03,1",,"08,99,1,08,1,07,1,00450,1,99,9,99,9",,,,,"99999,9,09501,1","2,1,014,1,+999,9","61,1","SYN072AAXX  10094 08008 41458 82508 10122 20111 39501 40017 52014 76162 887//;",
"08008099999","2010-06-10T12:00:00","4","43.1166666","-7.45","446.0","LUGO ROZAS, SP","FM-12","99999","V020","250,1,N,0046,1","00420,1,9,N","012000,1,N,1","+0130,1","+0119,1","10027,1","06,0061,9,1",,,"6,1,06,1","2,1,06,1",,"08,99,1,08,1,07,1,00450,1,99,9,99,9",,,,,"99999,9,09512,1","2,1,011,1,+999,9","61,1","SYN078AAXX  10124 08008 11462 82509 10130 20119 39512 40027 52011 60061 76162 887//;",
"08008099999","2010-06-11T06:00:00","4","43.1166666","-7.45","446.0","LUGO ROZAS, SP","FM-12","99999","V020","310,1,N,0031,1","00420,1,9,N","005000,1,N,1","+0128,1","+0120,1","10102,1","12,0150,9,1","24,0371,9,1",,"6,1,06,1",,,"08,99,1,06,1,07,1,00450,1,07,1,99,9","0000,9","11,9","999,+0120,9","999,N,+0124,1","99999,9,09583,1","3,1,019,1,+999,9","60,1","SYN112AAXX  11064 08008 11450 83106 10128 20120 39583 40102 53019 60152 7606/ 8677/ 333 20124 32012 50034 55000 70371;",
"08008099999","2010-06-11T09:00:00","4","43.1166666","-7.45","446.0","LUGO ROZAS, SP","FM-12","99999","V020","260,1,N,0026,1","00420,1,9,N","005000,1,N,1","+0134,1","+0125,1","10113,1",,,,"6,1,03,1","2,1,03,1",,"08,99,1,06,1,07,1,00450,1,07,1,99,9",,,,,"99999,9,09595,1","0,1,012,1,+999,9","60,1","SYN072AAXX  11094 08008 41450 82605 10134 20125 39595 40113 50012 76062 8677/;",
"08008099999","2010-06-11T12:00:00","4","43.1166666","-7.45","446.0","LUGO ROZAS, SP","FM-12","99999","V020","300,1,N,0026,1","00420,1,9,N","005000,1,N,1","+0146,1","+0138,1","10125,1","06,0079,9,1",,,"6,1,06,1","2,1,06,1",,"08,99,1,07,1,07,1,00450,1,07,1,99,9",,,,,"99999,9,09608,1","1,1,013,1,+999,9","61,1","SYN078AAXX  11124 08008 11450 83005 10146 20138 39608 40125 51013 60081 76162 8777/;",
"08008099999","2010-06-14T06:00:00","4","43.1166666","-7.45","446.0","LUGO ROZAS, SP","FM-12","99999","V020","040,1,N,0015,1","00210,1,9,N","005000,1,N,1","+0102,1","+0097,1","10209,1","12,9999,9,9","24,0003,9,1",,"5,1,06,1",,,"08,99,1,08,1,07,1,00250,1,99,9,99,9","0012,9",,,"999,N,+0084,1","99999,9,09680,1","5,1,003,1,+999,9","51,1","SYN100AAXX  14064 08008 11350 80403 10102 20097 39680 40209 55003 69902 7515/ 887// 333 20084 55002 70002;","Q01  00002PRCP12Q02  00002PRCP12"
"08008099999","2010-06-14T09:00:00","4","43.1166666","-7.45","446.0","LUGO ROZAS, SP","FM-12","99999","V020","030,1,N,0031,1","99999,9,9,N","015000,1,N,1","+0122,1","+0099,1","10210,1",,,,"5,1,03,1","2,1,03,1",,"08,99,1,04,1,08,1,00450,1,99,9,99,9",,,,,"99999,9,09684,1","3,1,004,1,+999,9","02,1","SYN072AAXX  14094 08008 41465 80306 10122 20099 39684 40210 53004 70252 848//;",
"08008099999","2010-06-14T12:00:00","4","43.1166666","-7.45","446.0","LUGO ROZAS, SP","FM-12","99999","V020","040,1,N,0036,1","00900,1,9,N","025000,1,N,1","+0162,1","+0087,1","10204,1","06,0000,2,1",,,"5,1,06,1","2,1,06,1",,"07,99,1,06,1,08,1,00450,1,03,1,99,9",,,,,"99999,9,09685,1","0,1,001,1,+999,9","02,1","SYN078AAXX  14124 08008 11475 70407 10162 20087 39685 40204 50001 69901 70252 8683/;",
"08008099999","2010-06-15T06:00:00","4","43.1166666","-7.45","446.0","LUGO ROZAS, SP","FM-12","99999","V020","020,1,N,0010,1","00900,1,9,N","015000,1,N,1","+0108,1","+0099,1","10207,1","12,0020,9,2","24,0015,9,2",,"8,1,06,1",,,"07,99,1,06,1,08,1,00450,1,06,1,99,9","0156,9","11,9","999,+0090,9","999,N,+0104,1","99999,9,09679,1","8,1,003,1,+999,9","02,1","SYN112AAXX  15064 08008 11465 70202 10108 20099 39679 40207 58003 60022 7028/ 8686/ 333 20104 32009 50204 55026 70016;",
"08008099999","2010-06-15T09:00:00","4","43.1166666","-7.45","446.0","LUGO ROZAS, SP","FM-12","99999","V020","030,1,N,0036,1","00900,1,9,N","018000,1,N,1","+0144,1","+0106,1","10207,1",,,,"8,1,03,1","2,1,03,1",,"06,99,1,05,1,08,1,00450,1,06,1,00,1",,,,,"99999,9,09685,1","1,1,006,1,+999,9","02,1","SYN072AAXX  15094 08008 41468 60307 10144 20106 39685 40207 51006 70282 85860;",
"08008099999","2010-06-15T12:00:00","4","43.1166666","-7.45","446.0","LUGO ROZAS, SP","FM-12","99999","V020","040,1,N,0051,1","03600,1,9,N","020000,1,N,1","+0164,1","+0107,1","10204,1","06,0000,9,1",,,"8,1,06,1","2,1,06,1",,"05,99,1,04,1,08,1,00450,1,06,1,00,1",,,,,"99999,9,09686,1","0,1,001,1,+999,9","02,1","SYN078AAXX  15124 08008 11470 50410 10164 20107 39686 40204 50001 69901 70282 84860;","Q01  00002PRCP06"
"08008099999","2010-06-16T06:00:00","4","43.1166666","-7.45","446.0","LUGO ROZAS, SP","FM-12","99999","V020","340,1,N,0021,1","00210,1,9,N","015000,1,N,1","+0112,1","+0104,1","10210,1","12,0030,9,1","24,0048,9,1",,"6,1,06,1","5,1,06,1",,"08,99,1,08,1,07,1,00250,1,99,9,99,9","0120,9","11,9","999,+0100,9","999,N,+0112,1","99999,9,09682,1","8,1,004,1,+999,9","50,1","SYN112AAXX  16064 08008 11365 83404 10112 20104 39682 40210 58004 60032 75065 887// 333 20112 32010 50094 55020 70048;",
"08008099999","2010-06-16T09:00:00","4","43.1166666","-7.45","446.0","LUGO ROZAS, SP","FM-12","99999","V020","360,1,N,0026,1","00210,1,9,N","005000,1,N,1","+0120,1","+0112,1","10216,1",,,,"5,1,03,1","2,1,03,1",,"08,99,1,08,1,07,1,00250,1,99,9,99,9",,,,,"99999,9,09690,1","3,1,008,1,+999,9","51,1","SYN072AAXX  16094 08008 41350 83605 10120 20112 39690 40216 53008 75152 887//;",
"08008099999","2010-06-16T12:00:00","4","43.1166666","-7.45","446.0","LUGO ROZAS, SP","FM-12","99999","V020","020,1,N,0026,1","00420,1,9,N","005000,1,N,1","+0128,1","+0117,1","10220,1","06,0003,9,1",,,"5,1,06,1","2,1,06,1",,"08,99,1,08,1,07,1,00450,1,99,9,99,9",,,,,"99999,9,09695,1","1,1,005,1,+999,9","50,1","SYN078AAXX  16124 08008 11450 80205 10128 20117 39695 40220 51005 69931 75052 887//;",
"08008099999","2010-06-17T06:00:00","4","43.1166666","-7.45","446.0","LUGO ROZAS, SP","FM-12","99999","V020","999,9,C,0000,1","03600,1,9,N","020000,1,N,1","+0080,1","+0076,1","10213,1","12,0000,9,1","24,0003,9,1",,,,,"07,99,1,04,1,06,1,00450,1,07,1,99,9","0210,9","09,9","999,+0020,9","999,N,+0053,1","99999,9,09679,1","6,1,004,1,+999,9",,"SYN106AAXX  17064 08008 12470 70000 10080 20076 39679 40213 56004 60002 8467/ 333 20053 31002 50104 55035 70003;","Q01  00002PRCP12"
"08008099999","2010-06-17T09:00:00","4","43.1166666","-7.45","446.0","LUGO ROZAS, SP","FM-12","99999","V020","010,1,N,0026,1","00420,1,9,N","020000,1,N,1","+0132,1","+0076,1","10206,1",,,,,,,"05,99,1,05,1,05,1,00450,1,00,1,00,1",,,,,"99999,9,09682,1","0,1,003,1,+999,9",,"SYN066AAXX  17094 08008 42470 50105 10132 20076 39682 40206 50003 85500;",
"08008099999","2010-06-17T12:00:00","4","43.1166666","-7.45","446.0","LUGO ROZAS, SP","FM-12","99999","V020","040,1,N,0046,1","22000,1,9,N","025000,1,N,1","+0171,1","+0080,1","10189,1","06,0000,9,1",,,,,,"04,99,1,04,1,05,1,00450,1,00,1,00,1",,,,,"99999,9,09673,1","8,1,009,1,+999,9",,"SYN072AAXX  17124 08008 12475 40409 10171 20080 39673 40189 58009 60001 84500;","Q01  00002PRCP06"
"08008099999","2010-06-18T06:00:00","4","43.1166666","-7.45","446.0","LUGO ROZAS, SP","FM-12","99999","V020","999,9,C,0000,1","22000,1,9,N","015000,1,N,1","+0080,1","+0074,1","10189,1","12,0000,9,1","24,0000,9,1",,,,,"04,99,1,04,1,06,1,00250,1,00,1,00,1","0516,9","09,9","999,+0040,9","999,N,+0063,1","99999,9,09656,1","3,1,001,1,+999,9",,"SYN106AAXX  18064 08008 12365 40000 10080 20074 39656 40189 53001 60002 84600 333 20063 31004 50194 55086 70000;","Q01  00002PRCP24Q02  00002PRCP12"
"08008099999","2010-06-18T09:00:00","4","43.1166666","-7.45","446.0","LUGO ROZAS, SP","FM-12","99999","V020","050,1,N,0026,1","00420,1,9,N","020000,1,N,1","+0164,1","+0118,1","10181,1",,,,,,,"05,99,1,05,1,05,1,00450,1,00,1,00,1",,,,,"99999,9,09664,1","1,1,008,1,+999,9",,"SYN066AAXX  18094 08008 42470 50505 10164 20118 39664 40181 51008 85500;",
"08008099999","2010-06-18T12:00:00","4","43.1166666","-7.45","446.0","LUGO ROZAS, SP","FM-12","99999","V020","360,1,N,0031,1","22000,1,9,N","020000,1,N,1","+0195,1","+0132,1","10174,1","06,0000,9,1",,,,,,"01,99,1,01,1,01,1,00450,1,00,1,00,1",,,,,"99999,9,09663,1","8,1,001,1,+999,9",,"SYN072AAXX  18124 08008 12470 13606 10195 20132 39663 40174 58001 60001 81100;","Q01  00002PRCP06"
"08008099999","2010-06-21T06:00:00","4","43.1166666","-7.45","446.0","LUGO ROZAS, SP","FM-12","99999","V020","130,1,N,0010,1","22000,1,9,N","018000,1,N,1","+0059,1","+0052,1","10218,1","12,0000,9,1","24,0000,9,1",,,,"00,1,+99999,9,99,9","00,99,1,00,1,00,1,99999,9,00,1,00,1","0744,9",,,"999,N,+0049,1","99999,9,09680,1","3,1,006,1,+999,9",,"SYN088AAXX  21064 08008 12968 01302 10059 20052 39680 40218 53006 60002 333 20049 55124 70000;","Q01  00002PRCP24Q02  00002PRCP12"
"08008099999","2010-06-21T09:00:00","4","43.1166666","-7.45","446.0","LUGO ROZAS, SP","FM-12","99999","V020","040,1,N,0026,1","22000,1,9,N","025000,1,N,1","+0161,1","+0083,1","10202,1",,,,,,"00,1,+99999,9,99,9","00,99,1,00,1,00,1,99999,9,00,1,00,1",,,,,"99999,9,09683,1","1,1,003,1,+999,9",,"SYN060AAXX  21094 08008 42975 00405 10161 20083 39683 40202 51003;",
"08008099999","2010-06-21T12:00:00","4","43.1166666","-7.45","446.0","LUGO ROZAS, SP","FM-12","99999","V020","030,1,N,0021,1","22000,1,9,N","025000,1,N,1","+0207,1","+0108,1","10189,1","06,0000,9,1",,,,,"00,1,+99999,9,99,9","00,99,1,00,1,00,1,99999,9,00,1,00,1",,,,,"99999,9,09679,1","8,1,004,1,+999,9",,"SYN066AAXX  21124 08008 12975 00304 10207 20108 39679 40189 58004 60001;","Q01  00002PRCP06"
"08008099999","2010-06-22T06:00:00","4","43.1166666","-7.45","446.0","LUGO ROZAS, SP","FM-12","99999","V020","260,1,N,0010,1","00030,1,9,N","000200,1,N,1","+0096,1","+0091,1","10212,1","12,0000,9,1","24,0000,9,1",,,,"09,1,+00030,1,99,9","09,99,1,09,1,99,9,99999,9,99,9,99,9","0804,9","09,9","999,+0060,9","999,N,+0087,1","99999,9,09681,1","1,1,003,1,+999,9","45,1","SYN112AAXX  22064 08008 11/02 92602 10096 20091 39681 40212 51003 60002 745// 333 20087 31006 50234 55134 70000 89/01;","Q01  00002PRCP24Q02  00002PRCP12"
"08008099999","2010-06-22T09:00:00","4","43.1166666","-7.45","446.0","LUGO ROZAS, SP","FM-12","99999","V020","050,1,N,0010,1","00210,1,9,N","000800,1,N,1","+0140,1","+0126,1","10203,1",,,,"4,1,03,1","4,1,03,1",,"07,99,1,07,1,06,1,00250,1,99,9,99,9",,,,,"99999,9,09681,1","0,1,000,1,+999,9","42,1","SYN072AAXX  22094 08008 41308 70502 10140 20126 39681 40203 50000 74244 876//;",
"08008099999","2010-06-22T12:00:00","4","43.1166666","-7.45","446.0","LUGO ROZAS, SP","FM-12","99999","V020","310,1,N,0010,1","22000,1,9,N","025000,1,N,1","+0249,1","+0158,1","10178,1","06,0000,9,1",,,"4,1,06,1","0,1,06,1",,"03,99,1,00,1,00,1,99999,9,00,1,01,1",,,,,"99999,9,09677,1","8,1,004,1,+999,9","02,1","SYN078AAXX  22124 08008 11875 33102 10249 20158 39677 40178 58004 60001 70240 80001;","Q01+022502SCOLCBQ02  00002PRCP06"
"08008099999","2010-06-23T06:00:00","4","43.1166666","-7.45","446.0","LUGO ROZAS, SP","FM-12","99999","V020","130,1,N,0010,1","22000,1,9,N","015000,1,N,1","+0104,1","+0099,1","10192,1","12,0000,9,1","24,0000,9,1",,,,"00,1,+99999,9,99,9","00,99,1,00,1,00,1,99999,9,00,1,00,1","0642,9","09,9","999,+0060,9","999,N,+0094,1","99999,9,09664,1","5,1,001,1,+999,9",,"SYN100AAXX  23064 08008 12965 01302 10104 20099 39664 40192 55001 60002 333 20094 31006 50284 55107 70000;","Q01  00002PRCP24Q02  00002PRCP12"
"08008099999","2010-06-23T09:00:00","4","43.1166666","-7.45","446.0","LUGO ROZAS, SP","FM-12","99999","V020","050,1,N,0015,1","22000,1,9,N","025000,1,N,1","+0204,1","+0147,1","10171,1",,,,,,,"01,99,1,00,1,00,1,99999,9,00,1,04,1",,,,,"99999,9,09662,1","8,1,002,1,+999,9",,"SYN066AAXX  23094 08008 42875 10503 10204 20147 39662 40171 58002 80004;","Q01+022502SCOLCB"
"08008099999","2010-06-23T12:00:00","4","43.1166666","-7.45","446.0","LUGO ROZAS, SP","FM-12","99999","V020","350,1,N,0015,1","22000,1,9,N","025000,1,N,1","+0280,2","+0166,1","10151,1","06,0000,9,1",,,,,,"03,99,1,01,1,02,1,00450,1,00,1,01,1",,,,,"99999,9,09656,1","7,1,006,1,+999,9",,"SYN072AAXX  23124 08008 12475 33503 10280 20166 39656 40151 57006 60001 81201;","Q01  00002PRCP06"
"08008099999","2010-06-24T06:00:00","4","43.1166666","-7.45","446.0","LUGO ROZAS, SP","FM-12","99999","V020","999,9,C,0000,1","22000,1,9,N","008000,1,N,1","+0115,1","+0109,1","10167,1","12,0000,9,1","24,0000,9,1",,,,,"02,99,1,01,1,00,1,01250,1,05,1,01,1","0798,9","09,9","999,+0080,9","999,N,+0109,1","99999,9,09642,1","5,1,000,1,+999,9","10,1","SYN112AAXX  24064 08008 11658 20000 10115 20109 39642 40167 55000 60002 710// 81051 333 20109 31008 50304 55133 70000;","Q01  00002PRCP24Q02  00002PRCP12"
"08008099999","2010-06-24T09:00:00","4","43.1166666","-7.45","446.0","LUGO ROZAS, SP","FM-12","99999","V020","050,1,N,0015,1","22000,1,9,N","020000,1,N,1","+0214,1","+0150,1","10148,1",,,,,,,"03,99,1,02,1,00,1,01250,1,08,1,01,1",,,,,"99999,9,09642,1","0,1,000,1,+999,9",,"SYN066AAXX  24094 08008 42670 30503 10214 20150 39642 40148 50000 82081;",
"08008099999","2010-06-24T12:00:00","4","43.1166666","-7.45","446.0","LUGO ROZAS, SP","FM-12","99999","V020","020,1,N,0021,1","22000,1,9,N","020000,1,N,1","+0266,1","+0179,1","10135,1","06,0000,9,1",,,,,,"03,99,1,00,1,00,1,99999,9,00,1,02,1",,,,,"99999,9,09639,1","8,1,003,1,+999,9",,"SYN072AAXX  24124 08008 12770 30204 10266 20179 39639 40135 58003 60001 80002;","Q01+017502SCOLCBQ02  00002PRCP06"
"08008099999","2010-06-25T06:00:00","4","43.1166666","-7.45","446.0","LUGO ROZAS, SP","FM-12","99999","V020","130,1,N,0010,1","00030,1,9,N","000300,1,N,1","+0135,1","+0132,1","10154,1","12,0000,9,1","24,0000,9,1",,,,"09,1,+00030,1,99,9","09,99,1,09,1,99,9,99999,9,99,9,99,9","0726,9","01,9","999,+0100,9","999,N,+0124,1","99999,9,09634,1","3,1,001,1,+999,9","45,1","SYN112AAXX  25064 08008 11/03 91302 10135 20132 39634 40154 53001 60002 745// 333 20124 30010 50254 55121 70000 89/01;","Q01  00002PRCP24Q02  00002PRCP12"
"08008099999","2010-06-25T09:00:00","4","43.1166666","-7.45","446.0","LUGO ROZAS, SP","FM-12","99999","V020","240,1,N,0005,1","09000,1,9,N","020000,1,N,1","+0216,1","+0168,1","10138,1",,,,"4,1,03,1","1,1,03,1",,"05,99,1,01,1,01,1,00450,1,03,1,02,1",,,,,"99999,9,09633,1","8,1,001,1,+999,9","02,1","SYN072AAXX  25094 08008 41470 52401 10216 20168 39633 40138 58001 70241 81132;",
"08008099999","2010-06-25T12:00:00","4","43.1166666","-7.45","446.0","LUGO ROZAS, SP","FM-12","99999","V020","020,1,N,0021,1","09000,1,9,N","025000,1,N,1","+0277,1","+0178,1","10122,1","06,0000,9,1",,,"4,1,06,1","2,1,06,1",,"05,99,1,01,1,01,1,00450,1,08,1,02,1",,,,,"99999,9,09628,1","8,1,005,1,+999,9","02,1","SYN078AAXX  25124 08008 11475 50204 10277 20178 39628 40122 58005 60001 70242 81182;","Q01  00002PRCP06"
"08008099999","2010-06-28T06:00:00","4","43.1166666","-7.45","446.0","LUGO ROZAS, SP","FM-12","99999","V020","360,1,N,0010,1","22000,1,9,N","005000,1,N,1","+0120,1","+0117,1","10216,1","12,0000,9,1","24,0000,9,1",,,,"00,1,+99999,9,99,9","00,99,1,00,1,00,1,99999,9,00,1,00,1","0636,9",,,"999,N,+0108,1","99999,9,09690,1","1,1,004,1,+999,9","10,1","SYN094AAXX  28064 08008 11950 03602 10120 20117 39690 40216 51004 60002 710// 333 20108 55106 70000;","Q01  00002PRCP24Q02  00002PRCP12"
"08008099999","2010-06-28T09:00:00","4","43.1166666","-7.45","446.0","LUGO ROZAS, SP","FM-12","99999","V020","020,1,N,0010,1","22000,1,9,N","020000,1,N,1","+0210,1","+0153,1","10202,1",,,,,,"00,1,+99999,9,99,9","00,99,1,00,1,00,1,99999,9,00,1,00,1",,,,,"99999,9,09693,1","1,1,003,1,+999,9",,"SYN060AAXX  28094 08008 42970 00202 10210 20153 39693 40202 51003;",
"08008099999","2010-06-28T12:00:00","4","43.1166666","-7.45","446.0","LUGO ROZAS, SP","FM-12","99999","V020","350,1,N,0031,1","22000,1,9,N","020000,1,N,1","+0248,1","+0175,1","10194,1","06,0000,9,1",,,,,,"01,99,1,01,1,05,1,00450,1,00,1,00,1",,,,,"99999,9,09692,1","8,1,001,1,+999,9",,"SYN072AAXX  28124 08008 12470 13506 10248 20175 39692 40194 58001 60001 81500;","Q01  00002PRCP06"
"08008099999","2010-06-29T06:00:00","4","43.1166666","-7.45","446.0","LUGO ROZAS, SP","FM-12","99999","V020","060,1,N,0010,1","00090,1,9,N","000800,1,N,1","+0147,1","+0139,1","10219,1","12,0000,9,1","24,0000,9,1",,,,"09,1,+00090,1,99,9","09,99,1,09,1,99,9,99999,9,99,9,99,9","0780,9","01,9","999,+0090,9","999,N,+0124,1","99999,9,09698,1","5,1,000,1,+999,9","45,1","SYN112AAXX  29064 08008 11/08 90602 10147 20139 39698 40219 55000 60002 745// 333 20124 30009 50224 55130 70000 89/03;","Q01  00002PRCP24Q02  00002PRCP12"
"08008099999","2010-06-29T09:00:00","4","43.1166666","-7.45","446.0","LUGO ROZAS, SP","FM-12","99999","V020","020,1,N,0015,1","22000,1,9,N","012000,1,N,1","+0194,1","+0157,1","10214,1",,,,"4,1,03,1","1,1,03,1",,"03,99,1,03,1,06,1,00250,1,00,1,00,1",,,,,"99999,9,09702,1","0,1,004,1,+999,9","01,1","SYN072AAXX  29094 08008 41362 30203 10194 20157 39702 40214 50004 70141 83600;",
"08008099999","2010-06-29T12:00:00","4","43.1166666","-7.45","446.0","LUGO ROZAS, SP","FM-12","99999","V020","030,1,N,0026,1","22000,1,9,N","015000,1,N,1","+0240,1","+0175,1","10206,1","06,0000,9,1",,,"4,1,06,1","1,1,06,1",,"01,99,1,00,1,00,1,99999,9,00,1,01,1",,,,,"99999,9,09702,1","4,1,000,1,+999,9","02,1","SYN078AAXX  29124 08008 11865 10305 10240 20175 39702 40206 54000 60001 70241 80001;","Q01+022502SCOLCBQ02  00002PRCP06"
"08008099999","2010-10-27T06:00:00","4","43.1166666","-7.45","446.0","LUGO ROZAS, SP","FM-12","99999","V020","999,9,C,0000,1","22000,1,9,N","000800,1,N,1","+0020,1","+0017,1","10293,1","12,0000,9,1","24,0000,9,1",,,,,"03,99,1,01,1,00,1,01750,1,03,1,01,1","0534,9",,,"999,N,+0020,1","99999,9,09743,1","6,1,001,1,+999,9","44,1","SYN100AAXX  27064 08008 11708 30000 10020 20017 39743 40293 56001 60002 744// 81031 333 20020 55089 70000;","Q01  00002PRCP24Q02  00002PRCP12"
"08008099999","2010-10-27T09:00:00","4","43.1166666","-7.45","446.0","LUGO ROZAS, SP","FM-12","99999","V020","020,1,N,0010,1","00090,1,9,N","000400,1,N,1","+0037,1","+0034,1","10292,1",,,,"4,1,03,1","4,1,03,1","09,1,+00090,1,99,9","09,99,1,09,1,99,9,99999,9,99,9,99,9",,,,,"99999,9,09745,1","3,1,002,1,+999,9","45,1","SYN076AAXX  27094 08008 41/04 90202 10037 20034 39745 40292 53002 74544 333 89/03;",
"08008099999","2010-10-27T12:00:00","4","43.1166666","-7.45","446.0","LUGO ROZAS, SP","FM-12","99999","V020","360,1,N,0010,1","99999,9,9,N","025000,1,N,1","+0136,1","+0096,1","10262,1","06,0000,9,1",,,"4,1,06,1","1,1,06,1",,"07,99,1,00,1,00,1,99999,9,00,1,08,1",,,,,"99999,9,09736,1","8,1,009,1,+999,9","02,1","SYN078AAXX  27124 08008 11875 73602 10136 20096 39736 40262 58009 60001 70241 80008;","Q01+022502SCOLCBQ02  00002PRCP06"
"08008099999","2010-10-28T06:00:00","4","43.1166666","-7.45","446.0","LUGO ROZAS, SP","FM-12","99999","V020","200,1,N,0005,1","00030,1,9,N","000200,1,N,1","+0054,1","+0050,1","10246,1","12,0000,9,1","24,0000,9,1",,,,"09,1,+00030,1,99,9","09,99,1,09,1,99,9,99999,9,99,9,99,9","0282,9","09,9","999,+0020,9","999,N,+0045,1","99999,9,09705,1","6,1,014,1,+999,9","45,1","SYN112AAXX  28064 08008 11/02 92001 10054 20050 39705 40246 56014 60002 745// 333 20045 31002 50074 55047 70000 89/01;","Q01  00002PRCP24Q02  00002PRCP12"
"08008099999","2010-10-28T12:00:00","4","43.1166666","-7.45","446.0","LUGO ROZAS, SP","FM-12","99999","V020","360,1,N,0010,1","22000,1,9,N","025000,1,N,1","+0160,1","+0110,1","10202,1","06,0000,9,1",,,"4,1,06,1","0,1,06,1","00,1,+99999,9,99,9","00,99,1,00,1,00,1,99999,9,00,1,00,1",,,,,"99999,9,09683,1","8,1,023,1,+999,9","00,1","SYN072AAXX  28124 08008 11975 03602 10160 20110 39683 40202 58023 60001 70040;","Q01  00002PRCP06"
"08008099999","2010-10-29T06:00:00","4","43.1166666","-7.45","446.0","LUGO ROZAS, SP","FM-12","99999","V020","190,1,N,0051,1","03600,1,9,N","025000,1,N,1","+0148,1","+0053,1","10044,1","12,0000,9,1","24,0000,9,1",,,,,"08,99,1,04,1,06,1,00450,1,07,1,99,9","0432,9","01,9","999,+0080,9","999,N,+0109,1","99999,9,09531,1","7,1,036,1,+999,9",,"SYN106AAXX  29064 08008 12475 81910 10148 20053 39531 40044 57036 60002 8467/ 333 20109 30008 50384 55072 70000;","Q01  00002PRCP24Q02  00002PRCP12"
"08008099999","2010-10-29T09:00:00","4","43.1166666","-7.45","446.0","LUGO ROZAS, SP","FM-12","99999","V020","190,1,N,0036,1","00420,1,9,N","015000,1,N,1","+0122,1","+0099,1","10047,1",,,,"2,1,03,1","2,1,03,1",,"08,99,1,06,1,07,1,00450,1,07,1,99,9",,,,,"99999,9,09530,1","5,1,001,1,+999,9","63,1","SYN072AAXX  29094 08008 41465 81907 10122 20099 39530 40047 55001 76322 8677/;",
"08008099999","2010-10-29T12:00:00","4","43.1166666","-7.45","446.0","LUGO ROZAS, SP","FM-12","99999","V020","200,1,N,0031,1","03600,1,9,N","015000,1,N,1","+0112,1","+0096,1","10063,1","06,0160,9,1",,,"6,1,06,1","2,1,06,1",,"08,99,1,04,1,07,1,00450,1,07,1,99,9",,,,,"99999,9,09543,1","0,1,013,1,+999,9","61,1","SYN078AAXX  29124 08008 11465 82006 10112 20096 39543 40063 50013 60161 76162 8477/;",
"08008099999","2010-11-02T06:00:00","4","43.1166666","-7.45","446.0","LUGO ROZAS, SP","FM-12","99999","V020","310,1,N,0010,1","00420,1,9,N","015000,1,N,1","+0086,1","+0078,1","10260,1","12,0000,9,1","24,0023,9,1",,"5,1,06,1",,,"08,99,1,05,1,05,1,00450,1,07,1,99,9","0000,9","11,9","999,+0050,9","999,N,+0073,1","99999,9,09725,1","3,1,003,1,+999,9","02,1","SYN112AAXX  02064 08008 11465 83102 10086 20078 39725 40260 53003 69902 7025/ 8557/ 333 20073 32005 50014 55000 70023;","Q01  00002PRCP12"
"08008099999","2010-11-02T09:00:00","4","43.1166666","-7.45","446.0","LUGO ROZAS, SP","FM-12","99999","V020","050,1,N,0005,1","00210,1,9,N","002000,1,N,1","+0096,1","+0090,1","10267,1",,,,"4,1,03,1","2,1,03,1",,"08,99,1,08,1,05,1,00250,1,99,9,99,9",,,,,"99999,9,09733,1","1,1,008,1,+999,9","10,1","SYN072AAXX  02094 08008 41320 80501 10096 20090 39733 40267 51008 71042 885//;",
"08008099999","2010-11-02T12:00:00","4","43.1166666","-7.45","446.0","LUGO ROZAS, SP","FM-12","99999","V020","230,1,N,0036,1","00420,1,9,N","020000,1,N,1","+0128,1","+0100,1","10258,1","06,0000,9,1",,,"5,1,06,1","4,1,06,1",,"08,99,1,08,1,05,1,00450,1,99,9,99,9",,,,,"99999,9,09731,1","8,1,002,1,+999,9","02,1","SYN078AAXX  02124 08008 11470 82307 10128 20100 39731 40258 58002 69901 70254 885//;","Q01  00002PRCP06"
"08008099999","2010-11-03T06:00:00","4","43.1166666","-7.45","446.0","LUGO ROZAS, SP","FM-12","99999","V020","140,1,N,0015,1","22000,1,9,N","000800,1,N,1","+0102,1","+0097,1","10266,1","12,0000,9,1","24,0000,9,1",,,,,"02,99,1,01,1,06,1,00450,1,00,1,01,1","0066,9","09,9","999,+0080,9","999,N,+0102,1","99999,9,09734,1","3,1,004,1,+999,9","41,1","SYN112AAXX  03064 08008 11408 21403 10102 20097 39734 40266 53004 60002 741// 81601 333 20102 31008 50084 55011 79999;","Q01  00002PRCP24Q02  00002PRCP12"
"08008099999","2010-11-03T09:00:00","4","43.1166666","-7.45","446.0","LUGO ROZAS, SP","FM-12","99999","V020","320,1,N,0010,1","03600,1,9,N","025000,1,N,1","+0129,1","+0108,1","10279,1",,,,"4,1,03,1","1,1,03,1",,"06,99,1,04,1,06,1,00450,1,03,1,01,1",,,,,"99999,9,09751,1","2,1,017,1,+999,9","02,1","SYN072AAXX  03094 08008 41475 63202 10129 20108 39751 40279 52017 70241 84631;",
"08008099999","2010-11-03T12:00:00","4","43.1166666","-7.45","446.0","LUGO ROZAS, SP","FM-12","99999","V020","310,1,N,0015,1","22000,1,9,N","025000,1,N,1","+0166,1","+0128,1","10274,1","06,0000,9,1",,,"4,1,06,1","1,1,06,1",,"04,99,1,02,1,06,1,00450,1,00,1,01,1",,,,,"99999,9,09753,1","0,1,002,1,+999,9","02,1","SYN078AAXX  03124 08008 11475 43103 10166 20128 39753 40274 50002 60001 70241 82601;","Q01  00002PRCP06"
"08008099999","2010-11-04T06:00:00","4","43.1166666","-7.45","446.0","LUGO ROZAS, SP","FM-12","99999","V020","140,1,N,0010,1","00030,1,9,N","000200,1,N,1","+0116,1","+0113,1","10298,1","12,0000,9,1","24,0000,9,1",,"4,1,06,1",,"09,1,+00030,1,99,9","09,99,1,09,1,99,9,99999,9,99,9,99,9","0474,9","09,9","999,+0090,9","999,N,+0110,1","99999,9,09767,1","5,1,000,1,+999,9","45,1","SYN112AAXX  04064 08008 11/02 91402 10116 20113 39767 40298 55000 69902 7454/ 333 20110 31009 50064 55079 79999 89/01;","Q01  00002PRCP24Q02  00002PRCP12"
"08008099999","2010-11-04T12:00:00","4","43.1166666","-7.45","446.0","LUGO ROZAS, SP","FM-12","99999","V020","280,1,N,0010,1","00090,1,9,N","000600,1,N,1","+0136,1","+0128,1","10311,1","06,0000,9,1",,,"4,1,06,1","4,1,06,1","09,1,+00090,1,99,9","09,99,1,09,1,99,9,99999,9,99,9,99,9",,,,,"99999,9,09783,1","8,1,001,1,+999,9","45,1","SYN082AAXX  04124 08008 11/06 92802 10136 20128 39783 40311 58001 69901 74544 333 89/03;","Q01  00002PRCP06"
"08008099999","2010-11-05T06:00:00","4","43.1166666","-7.45","446.0","LUGO ROZAS, SP","FM-12","99999","V020","150,1,N,0010,1","00030,1,9,N","000200,1,N,1","+0090,1","+0089,1","10297,1","12,0000,9,1","24,0003,9,1",,"4,1,06,1",,"09,1,+00030,1,99,9","09,99,1,09,1,99,9,99999,9,99,9,99,9","0228,9","11,9","999,+0080,9","999,N,+0088,1","99999,9,09761,1","6,1,008,1,+999,9","45,1","SYN112AAXX  05064 08008 11/02 91502 10090 20089 39761 40297 56008 69922 7454/ 333 20088 32008 50034 55038 70002 89/01;","Q01  00002PRCP12"
"08008099999","2010-11-05T09:00:00","4","43.1166666","-7.45","446.0","LUGO ROZAS, SP","FM-12","99999","V020","240,1,N,0015,1","00030,1,9,N","000300,1,N,1","+0104,1","+0099,1","10298,1",,,,"4,1,03,1","4,1,03,1","09,1,+00030,1,99,9","09,99,1,09,1,99,9,99999,9,99,9,99,9",,,,,"99999,9,09764,1","3,1,003,1,+999,9","45,1","SYN076AAXX  05094 08008 41/03 92403 10104 20099 39764 40298 53003 74544 333 89/01;",
"08008099999","2010-11-05T12:00:00","4","43.1166666","-7.45","446.0","LUGO ROZAS, SP","FM-12","99999","V020","270,1,N,0010,1","00090,1,9,N","000800,1,N,1","+0124,1","+0116,1","10289,1","06,0000,9,1",,,"4,1,06,1","4,1,06,1","09,1,+00090,1,99,9","09,99,1,09,1,99,9,99999,9,99,9,99,9",,,,,"99999,9,09760,1","8,1,004,1,+999,9","43,1","SYN082AAXX  05124 08008 11/08 92702 10124 20116 39760 40289 58004 69901 74344 333 89/03;","Q01  00002PRCP06"
"08008099999","2010-11-08T06:00:00","4","43.1166666","-7.45","446.0","LUGO ROZAS, SP","FM-12","99999","V020","220,1,N,0051,1","00210,1,9,N","015000,1,N,1","+0088,1","+0080,1","09995,1","12,0005,9,1","24,0028,9,1",,"5,1,06,1",,,"08,99,1,08,1,07,1,00250,1,99,9,99,9","0114,9",,,"999,N,+0043,1","99999,9,09474,1","7,1,050,2,+999,9","51,1","SYN100AAXX  08064 08008 11365 82210 10088 20080 39474 49995 57050 69942 7515/ 887// 333 20043 55019 70027;","Q01+000502APC3  "
"08008099999","2010-11-08T09:00:00","4","43.1166666","-7.45","446.0","LUGO ROZAS, SP","FM-12","99999","V020","260,1,N,0057,1","00210,1,9,N","002000,1,N,1","+0110,1","+0101,1","09964,1",,,,"5,1,03,1","2,1,03,1",,"08,99,1,08,1,07,1,00250,1,99,9,99,9",,,,,"99999,9,09449,1","7,1,025,1,+999,9","53,1","SYN072AAXX  08094 08008 41320 82611 10110 20101 39449 49964 57025 75352 887//;",
"08008099999","2010-11-08T12:00:00","4","43.1166666","-7.45","446.0","LUGO ROZAS, SP","FM-12","99999","V020","270,1,N,0057,1","00900,1,9,N","020000,1,N,1","+0108,1","+0091,1","09944,1","06,0020,9,1",,,"6,1,06,1","5,1,06,1",,"08,99,1,08,1,08,1,00450,1,99,9,99,9",,,,,"99999,9,09429,1","7,1,020,1,+999,9","21,1","SYN078AAXX  08124 08008 11470 82711 10108 20091 39429 49944 57020 60021 72165 888//;",
"08008099999","2010-11-09T06:00:00","4","43.1166666","-7.45","446.0","LUGO ROZAS, SP","FM-12","99999","V020","260,1,N,0041,1","00420,1,C,N","015000,1,N,1","+0070,1","+0056,1","09899,1","12,0180,9,1","24,0231,9,1",,"8,1,06,1",,"02,1,+00390,1,09,1","08,99,1,08,1,03,1,00450,1,99,9,99,9","0012,9","11,9","999,+0050,9","999,N,+0064,1","99999,9,09379,1","5,1,003,1,+999,9","95,1","SYN118AAXX  09064 08008 11465 82608 10070 20056 39379 49899 55003 60182 7958/ 883// 333 20064 32005 50084 55002 70231 82913;",
"08008099999","2010-11-09T09:00:00","4","43.1166666","-7.45","446.0","LUGO ROZAS, SP","FM-12","99999","V020","230,1,N,0057,1","00900,1,9,N","020000,1,N,1","+0072,1","+0055,1","09901,1",,,,"9,1,03,1","8,1,03,1",,"08,99,1,08,1,08,1,00450,1,99,9,99,9",,,,,"99999,9,09382,1","0,1,003,1,+999,9","25,1","SYN072AAXX  09094 08008 41470 82311 10072 20055 39382 49901 50003 72598 888//;",
"08008099999","2010-11-09T12:00:00","4","43.1166666","-7.45","446.0","LUGO ROZAS, SP","FM-12","99999","V020","290,1,N,0046,1","00900,1,9,N","020000,1,N,1","+0078,1","+0054,1","09908,1","06,0079,9,1",,,"9,1,06,1","8,1,06,1",,"08,99,1,08,1,08,1,00450,1,99,9,99,9",,,,,"99999,9,09389,1","1,1,007,1,+999,9","81,1","SYN078AAXX  09124 08008 11470 82909 10078 20054 39389 49908 51007 60081 78198 888//;",
"08008099999","2010-11-10T06:00:00","4","43.1166666","-7.45","446.0","LUGO ROZAS, SP","FM-12","99999","V020","230,1,N,0015,1","22000,1,9,N","020000,1,N,1","+0059,1","+0052,1","10059,1","12,0061,9,1","24,0211,9,1",,"8,1,06,1",,,"04,99,1,04,1,08,1,00450,1,00,1,00,1","0036,9","11,9","999,+0030,9","999,N,+0056,1","99999,9,09529,1","2,1,028,1,+999,9","25,1","SYN112AAXX  10064 08008 11470 42303 10059 20052 39529 40059 52028 60062 7258/ 84800 333 20056 32003 50064 55006 70210;",
"08008099999","2010-11-10T09:00:00","4","43.1166666","-7.45","446.0","LUGO ROZAS, SP","FM-12","99999","V020","270,1,N,0021,1","22000,1,9,N","020000,1,N,1","+0080,1","+0061,1","10093,1",,,,"8,1,03,1","1,1,03,1",,"04,99,1,04,1,08,1,00450,1,00,1,00,1",,,,,"99999,9,09565,1","2,1,036,1,+999,9","02,1","SYN072AAXX  10094 08008 41470 42704 10080 20061 39565 40093 52036 70281 84800;",
"08008099999","2010-11-10T12:00:00","4","43.1166666","-7.45","446.0","LUGO ROZAS, SP","FM-12","99999","V020","340,1,N,0021,1","22000,1,9,N","025000,1,N,1","+0129,1","+0063,1","10112,1","06,0010,9,1",,,"8,1,06,1","1,1,06,1",,"04,99,1,04,1,08,1,00450,1,00,1,00,1",,,,,"99999,9,09592,1","1,1,027,1,+999,9","02,1","SYN078AAXX  10124 08008 11475 43404 10129 20063 39592 40112 51027 69991 70281 84800;",
"08008099999","2010-11-11T06:00:00","4","43.1166666","-7.45","446.0","LUGO ROZAS, SP","FM-12","99999","V020","190,1,N,0036,1","00420,1,9,N","020000,1,N,1","+0094,1","+0068,1","10188,1","12,0005,9,1","24,0015,9,1",,"6,1,06,1",,,"08,99,1,08,1,07,1,00450,1,99,9,99,9","0336,9","09,9","999,+0040,9","999,N,+0074,1","99999,9,09658,1","3,1,002,1,+999,9","02,1","SYN112AAXX  11064 08008 11470 81907 10094 20068 39658 40188 53002 69952 7026/ 887// 333 20074 31004 50104 55056 70016;",
"08008099999","2010-11-11T09:00:00","4","43.1166666","-7.45","446.0","LUGO ROZAS, SP","FM-12","99999","V020","200,1,N,0051,1","00420,1,9,N","025000,1,N,1","+0106,1","+0078,1","10201,1",,,,,,,"08,99,1,06,1,07,1,00450,1,02,1,99,9",,,,,"99999,9,09672,1","2,1,014,1,+999,9",,"SYN066AAXX  11094 08008 42475 82010 10106 20078 39672 40201 52014 8672/;",
"08008099999","2010-11-11T12:00:00","4","43.1166666","-7.45","446.0","LUGO ROZAS, SP","FM-12","99999","V020","200,1,N,0031,1","00420,1,9,N","025000,1,N,1","+0122,1","+0090,1","10200,1","06,0000,9,1",,,,,,"08,99,1,08,1,05,1,00450,1,99,9,99,9",,,,,"99999,9,09675,1","0,1,003,1,+999,9",,"SYN072AAXX  11124 08008 12475 82006 10122 20090 39675 40200 50003 60001 885//;","Q01  00002PRCP06"
"08008099999","2010-11-12T06:00:00","4","43.1166666","-7.45","446.0","LUGO ROZAS, SP","FM-12","99999","V020","220,1,N,0041,1","00420,1,9,N","020000,1,N,1","+0129,1","+0110,1","10213,1","12,0005,9,1","24,0005,9,1",,"5,1,06,1",,,"07,99,1,07,1,05,1,00450,1,99,9,99,9","0000,9","01,9","999,+0110,9","999,N,+0119,1","99999,9,09688,1","7,1,004,1,+999,9","02,1","SYN112AAXX  12064 08008 11470 72208 10129 20110 39688 40213 57004 69962 7025/ 875// 333 20119 30011 50074 55000 70006;",
"08008099999","2010-11-12T09:00:00","4","43.1166666","-7.45","446.0","LUGO ROZAS, SP","FM-12","99999","V020","200,1,N,0036,1","00420,1,9,N","025000,1,N,1","+0133,1","+0110,1","10211,1",,,,,,,"08,99,1,08,1,05,1,00450,1,99,9,99,9",,,,,"99999,9,09687,1","5,1,001,1,+999,9",,"SYN066AAXX  12094 08008 42475 82007 10133 20110 39687 40211 55001 885//;",
"08008099999","2010-11-12T12:00:00","4","43.1166666","-7.45","446.0","LUGO ROZAS, SP","FM-12","99999","V020","210,1,N,0041,1","00420,1,9,N","025000,1,N,1","+0147,1","+0113,1","10205,1","06,0000,9,1",,,,,,"08,99,1,08,1,05,1,00450,1,99,9,99,9",,,,,"99999,9,09684,1","8,1,003,1,+999,9",,"SYN072AAXX  12124 08008 12475 82108 10147 20113 39684 40205 58003 60001 885//;","Q01  00002PRCP06"
"08008099999","2010-11-15T06:00:00","4","43.1166666","-7.45","446.0","LUGO ROZAS, SP","FM-12","99999","V020","190,1,N,0026,1","00900,1,9,N","015000,1,N,1","+0056,1","+0044,1","10175,1","12,1300,9,1","24,1509,9,1",,"8,1,06,1",,,"08,99,1,08,1,08,1,00450,1,99,9,99,9","0282,9",,,"999,N,+0040,1","99999,9,09638,1","2,1,014,1,+999,9","81,1","SYN100AAXX  15064 08008 11465 81905 10056 20044 39638 40175 52014 61302 7818/ 888// 333 20040 55047 71510;",
"08008099999","2010-11-15T09:00:00","4","43.1166666","-7.45","446.0","LUGO ROZAS, SP","FM-12","99999","V020","200,1,N,0015,1","00900,1,9,N","020000,1,N,1","+0068,1","+0057,1","10208,1",,,,"8,1,03,1","2,1,03,1",,"08,99,1,08,1,08,1,00450,1,99,9,99,9",,,,,"99999,9,09672,1","2,1,034,1,+999,9","80,1","SYN072AAXX  15094 08008 41470 82003 10068 20057 39672 40208 52034 78082 888//;",
"08008099999","2010-11-15T12:00:00","4","43.1166666","-7.45","446.0","LUGO ROZAS, SP","FM-12","99999","V020","250,1,N,0051,1","00900,1,9,N","020000,1,N,1","+0115,1","+0070,1","10214,1","06,0041,9,1",,,"8,1,06,1","2,1,06,1",,"06,99,1,06,1,08,1,00450,1,00,1,00,1",,,,,"99999,9,09686,1","1,1,014,1,+999,9","02,1","SYN078AAXX  15124 08008 11470 62510 10115 20070 39686 40214 51014 60041 70282 86800;",
"08008099999","2010-11-16T06:00:00","4","43.1166666","-7.45","446.0","LUGO ROZAS, SP","FM-12","99999","V020","190,1,N,0021,1","03600,1,9,N","000800,1,N,1","+0053,1","+0046,1","10266,1","12,0010,9,1","24,0048,9,1",,"8,1,06,1",,,"05,99,1,03,1,06,1,00450,1,03,1,00,1","0252,9","09,9","999,+0020,9","999,N,+0048,1","99999,9,09724,1","6,1,007,1,+999,9","44,1","SYN112AAXX  16064 08008 11408 51904 10053 20046 39724 40266 56007 69992 7448/ 83630 333 20048 31002 50074 55042 70047;",
"08008099999","2010-11-16T09:00:00","4","43.1166666","-7.45","446.0","LUGO ROZAS, SP","FM-12","99999","V020","190,1,N,0021,1","03600,1,9,N","025000,1,N,1","+0071,1","+0051,1","10262,1",,,,"4,1,03,1","2,1,03,1",,"06,99,1,02,1,06,1,00450,1,03,1,01,1",,,,,"99999,9,09723,1","5,1,001,1,+999,9","02,1","SYN072AAXX  16094 08008 41475 61904 10071 20051 39723 40262 55001 70242 82631;",
"08008099999","2010-11-16T12:00:00","4","43.1166666","-7.45","446.0","LUGO ROZAS, SP","FM-12","99999","V020","220,1,N,0031,1","03600,1,9,N","025000,1,N,1","+0102,1","+0058,1","10237,1","06,0000,9,1",,,"4,1,06,1","2,1,06,1",,"07,99,1,01,1,06,1,00450,1,03,1,99,9",,,,,"99999,9,09706,1","8,1,017,1,+999,9","02,1","SYN078AAXX  16124 08008 11475 72206 10102 20058 39706 40237 58017 60001 70242 8163/;","Q01  00002PRCP06"
"08008099999","2010-11-17T06:00:00","4","43.1166666","-7.45","446.0","LUGO ROZAS, SP","FM-12","99999","V020","250,1,N,0026,1","03600,1,9,N","020000,1,N,1","+0077,1","+0065,1","10120,1","12,0061,9,1","24,0061,9,1",,"6,1,06,1","6,1,06,1",,"05,99,1,04,1,08,1,00450,1,06,1,00,1","0156,9","11,9","999,+0060,9","999,N,+0077,1","99999,9,09590,1","2,1,021,1,+999,9","02,1","SYN112AAXX  17064 08008 11470 52505 10077 20065 39590 40120 52021 60062 70266 84860 333 20077 32006 50164 55026 70060;",
"08008099999","2010-11-17T09:00:00","4","43.1166666","-7.45","446.0","LUGO ROZAS, SP","FM-12","99999","V020","230,1,N,0031,1","22000,1,9,N","020000,1,N,1","+0079,1","+0064,1","10136,1",,,,"8,1,03,1","1,1,03,1",,"02,99,1,02,1,08,1,00450,1,00,1,00,1",,,,,"99999,9,09606,1","1,1,016,1,+999,9","02,1","SYN072AAXX  17094 08008 41470 22306 10079 20064 39606 40136 51016 70281 82800;",
"08008099999","2010-11-17T12:00:00","4","43.1166666","-7.45","446.0","LUGO ROZAS, SP","FM-12","99999","V020","270,1,N,0036,1","00900,1,9,N","025000,1,N,1","+0102,1","+0060,1","10136,1","06,0008,9,1",,,"8,1,06,1","1,1,06,1",,"06,99,1,06,1,08,1,00450,1,00,1,00,1",,,,,"99999,9,09610,1","0,1,004,1,+999,9","02,1","SYN078AAXX  17124 08008 11475 62707 10102 20060 39610 40136 50004 69971 70281 86800;",
"08008099999","2010-11-18T06:00:00","4","43.1166666","-7.45","446.0","LUGO ROZAS, SP","FM-12","99999","V020","220,1,N,0036,1","22000,1,9,N","020000,1,N,1","+0066,1","+0052,1","10162,1","12,0030,9,1","24,0036,9,1",,"8,1,06,1",,,"03,99,1,03,1,08,1,00450,1,00,1,00,1","0204,9","11,9","999,+0040,9","999,N,+0057,1","99999,9,09628,1","1,1,004,1,+999,9","02,1","SYN112AAXX  18064 08008 11470 32207 10066 20052 39628 40162 51004 60032 7028/ 83800 333 20057 32004 50114 55034 70036;",
"08008099999","2010-11-18T09:00:00","4","43.1166666","-7.45","446.0","LUGO ROZAS, SP","FM-12","99999","V020","220,1,N,0031,1","00420,1,9,N","020000,1,N,1","+0080,1","+0061,1","10172,1",,,,,,,"06,99,1,06,1,05,1,00450,1,00,1,00,1",,,,,"99999,9,09640,1","2,1,012,1,+999,9",,"SYN066AAXX  18094 08008 42470 62206 10080 20061 39640 40172 52012 86500;",
"08008099999","2010-11-18T12:00:00","4","43.1166666","-7.45","446.0","LUGO ROZAS, SP","FM-12","99999","V020","260,1,N,0051,1","00420,1,9,N","015000,1,N,1","+0102,1","+0064,1","10173,1","06,9999,9,9",,,"6,1,06,1","2,1,06,1",,"08,99,1,08,1,07,1,00450,1,99,9,99,9",,,,,"99999,9,09645,1","0,1,005,1,+999,9","60,1","SYN078AAXX  18124 08008 11465 82610 10102 20064 39645 40173 50005 69901 76062 887//;","Q01  00002PRCP06Q02  00002PRCP06"
"08008099999","2010-11-19T06:00:00","4","43.1166666","-7.45","446.0","LUGO ROZAS, SP","FM-12","99999","V020","200,1,N,0026,1","03600,1,9,N","025000,1,N,1","+0090,1","+0056,1","10126,1","12,0000,9,1","24,0003,9,1",,,,,"08,99,1,03,1,07,1,00450,1,07,1,99,9","0126,9","01,9","999,+0060,9","999,N,+0082,1","99999,9,09598,1","7,1,020,1,+999,9",,"SYN106AAXX  19064 08008 12475 82005 10090 20056 39598 40126 57020 60002 8377/ 333 20082 30006 50114 55021 70003;","Q01  00002PRCP12"
"08008099999","2010-11-19T09:00:00","4","43.1166666","-7.45","446.0","LUGO ROZAS, SP","FM-12","99999","V020","190,1,N,0026,1","03600,1,9,N","015000,1,N,1","+0083,1","+0068,1","10129,1",,,,"6,1,03,1","2,1,03,1",,"08,99,1,04,1,07,1,00450,1,07,1,99,9",,,,,"99999,9,09600,1","3,1,002,1,+999,9","61,1","SYN072AAXX  19094 08008 41465 81905 10083 20068 39600 40129 53002 76162 8477/;",
"08008099999","2010-11-19T12:00:00","4","43.1166666","-7.45","446.0","LUGO ROZAS, SP","FM-12","99999","V020","190,1,N,0031,1","00420,1,9,N","020000,1,N,1","+0096,1","+0074,1","10115,1","06,0030,9,1",,,"6,1,06,1","2,1,06,1",,"08,99,1,99,9,07,1,00450,1,07,1,99,9",,,,,"99999,9,09589,1","8,1,011,1,+999,9","60,1","SYN078AAXX  19124 08008 11470 81906 10096 20074 39589 40115 58011 60031 76062 8877/;","Q01+000082SCOTLC"
"08008099999","2010-11-22T06:00:00","4","43.1166666","-7.45","446.0","LUGO ROZAS, SP","FM-12","99999","V020","020,1,N,0010,1","00210,1,9,N","015000,1,N,1","+0059,1","+0055,1","10121,1","12,0008,9,1","24,0030,9,1",,,,,"08,99,1,08,1,07,1,00250,1,99,9,99,9","0072,9",,,"999,N,+0042,1","99999,9,09588,1","5,1,000,1,+999,9","80,1","SYN100AAXX  22064 08008 11365 80202 10059 20055 39588 40121 55000 69982 780// 887// 333 20042 55012 70030;",
"08008099999","2010-11-22T09:00:00","4","43.1166666","-7.45","446.0","LUGO ROZAS, SP","FM-12","99999","V020","140,1,N,0015,1","00420,1,9,N","018000,1,N,1","+0065,1","+0055,1","10126,1",,,,"8,1,03,1","2,1,03,1",,"08,99,1,06,1,07,1,00450,1,07,1,99,9",,,,,"99999,9,09594,1","1,1,006,1,+999,9","02,1","SYN072AAXX  22094 08008 41468 81403 10065 20055 39594 40126 51006 70282 8677/;",
"08008099999","2010-11-22T12:00:00","4","43.1166666","-7.45","446.0","LUGO ROZAS, SP","FM-12","99999","V020","190,1,N,0021,1","00900,1,9,N","020000,1,N,1","+0090,1","+0061,1","10121,1","06,0000,2,1",,,"8,1,06,1","2,1,06,1",,"08,99,1,08,1,08,1,00450,1,99,9,99,9",,,,,"99999,9,09593,1","8,1,001,1,+999,9","02,1","SYN078AAXX  22124 08008 11470 81904 10090 20061 39593 40121 58001 69911 70282 888//;",
"08008099999","2010-11-23T06:00:00","4","43.1166666","-7.45","446.0","LUGO ROZAS, SP","FM-12","99999","V020","130,1,N,0015,1","03600,1,9,N","025000,1,N,1","+0062,1","+0042,1","10134,1","12,0010,9,1","24,0020,9,1",,"6,1,06,1",,,"08,99,1,04,1,06,1,00450,1,03,1,99,9","0042,9","11,9","999,+0050,9","999,N,+0060,1","99999,9,09600,1","8,1,002,1,+999,9","02,1","SYN112AAXX  23064 08008 11475 81303 10062 20042 39600 40134 58002 60012 7026/ 8463/ 333 20060 32005 50044 55007 70021;",
"08008099999","2010-11-23T09:00:00","4","43.1166666","-7.45","446.0","LUGO ROZAS, SP","FM-12","99999","V020","999,9,C,0000,1","22000,1,9,N","025000,1,N,1","+0057,1","+0053,1","10145,1",,,,,,,"04,99,1,03,1,00,1,01750,1,04,1,01,1",,,,,"99999,9,09610,1","1,1,010,1,+999,9",,"SYN066AAXX  23094 08008 42775 40000 10057 20053 39610 40145 51010 83041;",
"08008099999","2010-11-23T12:00:00","4","43.1166666","-7.45","446.0","LUGO ROZAS, SP","FM-12","99999","V020","320,1,N,0015,1","22000,1,9,N","025000,1,N,1","+0104,1","+0069,1","10137,1","06,0000,9,1",,,,,,"04,99,1,04,1,08,1,00450,1,00,1,00,1",,,,,"99999,9,09611,1","0,1,001,1,+999,9",,"SYN072AAXX  23124 08008 12475 43203 10104 20069 39611 40137 50001 60001 84800;","Q01  00002PRCP06"
"08008099999","2010-11-24T06:00:00","4","43.1166666","-7.45","446.0","LUGO ROZAS, SP","FM-12","99999","V020","170,1,N,0010,1","22000,1,9,N","000800,1,N,1","-0014,1","-0020,1","10178,1","12,0000,9,1","24,0000,9,1",,,,"00,1,+99999,9,99,9","00,99,1,00,1,00,1,99999,9,00,1,00,1","0156,9","14,9","999,-0040,9","999,N,-0014,1","99999,9,09627,1","3,1,006,1,+999,9","44,1","SYN106AAXX  24064 08008 11908 01702 11014 21020 39627 40178 53006 60002 744// 333 21014 34104 5//// 55026 70000;","Q01  00002PRCP24Q02  00002PRCP12"
"08008099999","2010-11-24T09:00:00","4","43.1166666","-7.45","446.0","LUGO ROZAS, SP","FM-12","99999","V020","030,1,N,0010,1","22000,1,9,N","000800,1,N,1","-0003,1","-0014,1","10184,1",,,,"4,1,03,1","0,1,03,1",,"04,99,1,00,1,00,1,99999,9,00,1,04,1",,,,,"99999,9,09635,1","2,1,008,1,+999,9","44,1","SYN072AAXX  24094 08008 41808 40302 11003 21014 39635 40184 52008 74440 80004;","Q01+022502SCOLCB"
"08008099999","2010-11-24T12:00:00","4","43.1166666","-7.45","446.0","LUGO ROZAS, SP","FM-12","99999","V020","300,1,N,0010,1","22000,1,9,N","025000,1,N,1","+0062,1","+0042,1","10174,1","06,0000,9,1",,,"4,1,06,1","0,1,06,1",,"03,99,1,02,1,05,1,00450,1,00,1,01,1",,,,,"99999,9,09638,1","0,1,003,1,+999,9","02,1","SYN078AAXX  24124 08008 11475 33002 10062 20042 39638 40174 50003 60001 70240 82501;","Q01  00002PRCP06"
"08008099999","2010-11-25T06:00:00","4","43.1166666","-7.45","446.0","LUGO ROZAS, SP","FM-12","99999","V020","360,1,N,0021,1","22000,1,9,N","000800,1,N,1","-0016,1","-0022,1","10184,1","12,0000,9,1","24,0000,9,1",,,,,"03,99,1,03,1,05,1,00250,1,00,1,00,1","0480,9","14,9","999,-0050,9","999,N,-0021,1","99999,9,09632,1","6,1,004,1,+999,9","41,1","SYN112AAXX  25064 08008 11308 33604 11016 21022 39632 40184 56004 60002 741// 83500 333 21021 34105 5//// 55080 70000;","Q01  00002PRCP24Q02  00002PRCP12"
"08008099999","2010-11-25T09:00:00","4","43.1166666","-7.45","446.0","LUGO ROZAS, SP","FM-12","99999","V020","010,1,N,0010,1","03600,1,9,N","018000,1,N,1","+0011,1","+0005,1","10181,1",,,,"4,1,03,1","1,1,03,1",,"05,99,1,03,1,07,1,00450,1,07,1,00,1",,,,,"99999,9,09635,1","3,1,003,1,+999,9","21,1","SYN072AAXX  25094 08008 41468 50102 10011 20005 39635 40181 53003 72141 83770;",
"08008099999","2010-11-25T12:00:00","4","43.1166666","-7.45","446.0","LUGO ROZAS, SP","FM-12","99999","V020","250,1,N,0021,1","00420,1,9,N","015000,1,N,1","+0068,1","+0043,1","10171,1","06,0005,9,1",,,"6,1,06,1","4,1,06,1",,"08,99,1,06,1,07,1,00450,1,07,1,99,9",,,,,"99999,9,09637,1","0,1,002,1,+999,9","02,1","SYN078AAXX  25124 08008 11465 82504 10068 20043 39637 40171 50002 69951 70264 8677/;",
"08008099999","2010-11-26T06:00:00","4","43.1166666","-7.45","446.0","LUGO ROZAS, SP","FM-12","99999","V020","160,1,N,0010,1","00420,1,9,N","020000,1,N,1","+0003,1","+0000,1","10174,1","12,0008,9,1","24,0015,9,1",,,,,"08,99,1,06,1,05,1,00450,1,07,1,99,9","0162,9","14,9","999,-0020,9","999,N,-0005,1","99999,9,09627,1","6,1,012,1,+999,9",,"SYN106AAXX  26064 08008 12470 81602 10003 20000 39627 40174 56012 69972 8657/ 333 21005 34102 50154 55027 70014;",
"08008099999","2010-11-26T09:00:00","4","43.1166666","-7.45","446.0","LUGO ROZAS, SP","FM-12","99999","V020","999,9,C,0000,1","00210,1,9,N","002000,1,N,1","+0013,1","+0010,1","10174,1",,,,"5,1,03,1","2,1,03,1",,"08,99,1,08,1,07,1,00250,1,99,9,99,9",,,,,"99999,9,09629,1","3,1,002,1,+999,9","51,1","SYN072AAXX  26094 08008 41320 80000 10013 20010 39629 40174 53002 75152 887//;",
"08008099999","2010-11-26T12:00:00","4","43.1166666","-7.45","446.0","LUGO ROZAS, SP","FM-12","99999","V020","360,1,N,0015,1","00900,1,9,N","015000,1,N,1","+0058,1","+0044,1","10151,1","06,0000,2,1",,,"5,1,06,1","2,1,06,1",,"08,99,1,08,1,08,1,00450,1,99,9,99,9",,,,,"99999,9,09616,1","7,1,013,1,+999,9","02,1","SYN078AAXX  26124 08008 11465 83603 10058 20044 39616 40151 57013 69921 70252 888//;",
"08008099999","2010-11-29T06:00:00","4","43.1166666","-7.45","446.0","LUGO ROZAS, SP","FM-12","99999","V020","999,9,C,0000,1","22000,1,9,N","025000,1,N,1","-0046,1","-0051,1","10059,1","12,0000,9,1","24,0000,9,1",,,,"00,1,+99999,9,99,9","00,99,1,00,1,00,1,99999,9,00,1,00,1","0282,9",,,"999,N,-0048,1","99999,9,09508,1","6,1,014,1,+999,9",,"SYN094AAXX  29064 08008 12975 00000 11046 21051 39508 40059 56014 60002 333 21048 5//// 55047 70000;","Q01  00002PRCP24Q02  00002PRCP12"
"08008099999","2010-11-29T09:00:00","4","43.1166666","-7.45","446.0","LUGO ROZAS, SP","FM-12","99999","V020","999,9,C,0000,1","22000,1,9,N","025000,1,N,1","-0045,1","-0057,1","10051,1",,,,,,,"03,99,1,02,1,00,1,01750,1,05,1,04,1",,,,,"99999,9,09501,1","7,1,007,1,+999,9",,"SYN066AAXX  29094 08008 42775 30000 11045 21057 39501 40051 57007 82054;",
"08008099999","2010-11-29T12:00:00","4","43.1166666","-7.45","446.0","LUGO ROZAS, SP","FM-12","99999","V020","300,1,N,0010,1","01500,1,9,N","025000,1,N,1","+0023,1","-0003,1","10018,1","06,0000,9,1",,,,,,"07,99,1,06,1,00,1,01750,1,01,1,08,1",,,,,"99999,9,09483,1","8,1,018,1,+999,9",,"SYN072AAXX  29124 08008 12775 73002 10023 21003 39483 40018 58018 60001 86018;","Q01  00002PRCP06"
"08008099999","2010-11-30T06:00:00","4","43.1166666","-7.45","446.0","LUGO ROZAS, SP","FM-12","99999","V020","160,1,N,0021,1","03600,1,9,N","025000,1,N,1","+0038,1","+0005,1","09939,1","12,0051,9,2","24,0048,9,2",,"8,1,06,1",,"01,1,+00480,1,09,1","08,99,1,03,1,09,1,00450,1,06,1,99,9","0228,9","11,9","999,+0010,9","999,N,+0017,1","99999,9,09411,1","7,1,012,1,+999,9","17,1","SYN112AAXX  30064 08008 11475 81604 10038 20005 39411 49939 57012 60052 7178/ 8396/ 333 20017 32001 55038 70049 81916;",
"08008099999","2010-11-30T09:00:00","4","43.1166666","-7.45","446.0","LUGO ROZAS, SP","FM-12","99999","V020","150,1,N,0031,1","01500,1,9,N","020000,1,N,1","+0038,1","+0008,1","09946,1",,,,"2,1,03,1","2,1,03,1",,"08,99,1,08,1,00,1,01750,1,07,1,99,9",,,,,"99999,9,09418,1","3,1,007,1,+999,9","60,1","SYN072AAXX  30094 08008 41770 81506 10038 20008 39418 49946 53007 76022 8807/;",
"08008099999","2010-11-30T12:00:00","4","43.1166666","-7.45","446.0","LUGO ROZAS, SP","FM-12","99999","V020","160,1,N,0021,1","00420,1,9,N","025000,1,N,1","+0066,1","+0019,1","09941,1","06,0000,2,1",,,"6,1,06,1","2,1,06,1",,"08,99,1,05,1,07,1,00450,1,07,1,99,9",,,,,"99999,9,09418,1","0,1,000,1,+999,9","02,1","SYN078AAXX  30124 08008 11475 81604 10066 20019 39418 49941 50000 69901 70262 8577/;",
"08008099999","2010-12-01T06:00:00","4","43.1166666","-7.45","446.0","LUGO ROZAS, SP","FM-12","99999","V020","999,9,C,0000,1","00420,1,9,N","003000,1,N,1","+0010,1","+0001,1","10037,1","12,0041,9,1","24,0046,9,1","0001,9,1,999999,9,9","7,1,06,1",,,"08,99,1,08,1,07,1,00450,1,99,9,99,9","0036,9","22,9","999,+0000,9","999,N,+0000,1","99999,9,09498,1","2,1,021,1,+999,9","70,1","SYN118AAXX  01064 08008 11430 80000 10010 20001 39498 40037 52021 60042 7707/ 887// 333 20000 3/000 46001 50094 55006 70045;",
"08008099999","2010-12-01T09:00:00","4","43.1166666","-7.45","446.0","LUGO ROZAS, SP","FM-12","99999","V020","130,1,N,0015,1","00420,1,9,N","015000,1,N,1","+0006,1","+0003,1","10063,1",,,,"7,1,03,1","5,1,03,1",,"05,99,1,05,1,05,1,00450,1,00,1,00,1",,,,,"99999,9,09522,1","2,1,024,1,+999,9","01,1","SYN072AAXX  01094 08008 41465 51303 10006 20003 39522 40063 52024 70175 85500;",
"08008099999","2010-12-01T12:00:00","4","43.1166666","-7.45","446.0","LUGO ROZAS, SP","FM-12","99999","V020","250,1,N,0021,1","03600,1,9,N","025000,1,N,1","+0064,1","+0032,1","10061,1","06,0010,9,1",,,"7,1,06,1","5,1,06,1",,"07,99,1,02,1,06,1,00450,1,03,1,08,1",,,,,"99999,9,09532,1","0,1,010,1,+999,9","02,1","SYN078AAXX  01124 08008 11475 72504 10064 20032 39532 40061 50010 69991 70275 82638;",
"08008099999","2010-12-02T06:00:00","4","43.1166666","-7.45","446.0","LUGO ROZAS, SP","FM-12","99999","V020","230,1,N,0036,1","00420,1,9,N","012000,1,N,1","+0008,1","-0001,1","10118,1","12,0010,9,1","24,0046,9,1","9999,2,9,999999,9,9","7,1,06,1","6,1,06,1",,"08,99,1,08,1,07,1,00450,1,99,9,99,9","0192,9","25,9","999,-0040,9","999,N,-0015,1","99999,9,09575,1","3,1,005,1,+999,9","70,1","SYN118AAXX  02064 08008 11462 82307 10008 21001 39575 40118 53005 60012 77076 887// 333 21015 3/104 41998 50044 55032 70045;","Q01  09982SNDP  "
"08008099999","2010-12-02T09:00:00","4","43.1166666","-7.45","446.0","LUGO ROZAS, SP","FM-12","99999","V020","210,1,N,0021,1","22000,1,9,N","015000,1,N,1","+0008,1","+0002,1","10133,1",,,,"7,1,03,1","2,1,03,1",,"03,99,1,03,1,08,1,00450,1,00,1,00,1",,,,,"99999,9,09589,1","2,1,014,1,+999,9","22,1","SYN072AAXX  02094 08008 41465 32104 10008 20002 39589 40133 52014 72272 83800;",
"08008099999","2010-12-02T12:00:00","4","43.1166666","-7.45","446.0","LUGO ROZAS, SP","FM-12","99999","V020","220,1,N,0041,1","00900,1,9,N","020000,1,N,1","+0025,1","+0004,1","10135,1","06,0020,9,1",,,"7,1,06,1","1,1,06,1",,"07,99,1,07,1,08,1,00450,1,99,9,99,9",,,,,"99999,9,09594,1","0,1,005,1,+999,9","02,1","SYN078AAXX  02124 08008 11470 72208 10025 20004 39594 40135 50005 60021 70271 878//;",
"08008099999","2010-12-03T06:00:00","4","43.1166666","-7.45","446.0","LUGO ROZAS, SP","FM-12","99999","V020","170,1,N,0010,1","22000,1,9,N","000800,1,N,1","+0000,1","-0006,1","10209,1","12,0051,9,1","24,0097,9,1","0006,9,1,999999,9,9","7,1,06,1",,,"03,99,1,03,1,05,1,00250,1,00,1,00,1","0072,9","23,9","999,-0060,9","999,N,-0011,1","99999,9,09659,1","1,1,012,1,+999,9","44,1","SYN118AAXX  03064 08008 11308 31702 10000 21006 39659 40209 51012 60052 7447/ 83500 333 21011 3/106 47006 5//// 55012 70097;",
"08008099999","2010-12-03T09:00:00","4","43.1166666","-7.45","446.0","LUGO ROZAS, SP","FM-12","99999","V020","160,1,N,0010,1","00420,1,9,N","020000,1,N,1","+0006,1","-0003,1","10229,1",,,,"4,1,03,1","1,1,03,1",,"06,99,1,06,1,05,1,00450,1,00,1,00,1",,,,,"99999,9,09679,1","2,1,020,1,+999,9","02,1","SYN072AAXX  03094 08008 41470 61602 10006 21003 39679 40229 52020 70241 86500;",
"08008099999","2010-12-03T12:00:00","4","43.1166666","-7.45","446.0","LUGO ROZAS, SP","FM-12","99999","V020","180,1,N,0010,1","22000,1,9,N","020000,1,N,1","+0034,1","+0014,1","10232,1","06,0000,9,1",,,"7,1,06,1","4,1,06,1",,"04,99,1,04,1,05,1,00450,1,00,1,00,1",,,,,"99999,9,09688,1","0,1,009,1,+999,9","02,1","SYN078AAXX  03124 08008 11470 41802 10034 20014 39688 40232 50009 69901 70274 84500;","Q01  00002PRCP06"
"08008099999","2010-12-09T06:00:00","4","43.1166666","-7.45","446.0","LUGO ROZAS, SP","FM-12","99999","V020","040,1,N,0026,1","03600,1,9,N","020000,1,N,1","+0066,1","+0048,1","10203,1","12,0010,9,1","24,0056,9,1",,,,,"08,99,1,04,1,06,1,00450,1,07,1,99,9","0000,9",,,"999,N,+0057,1","99999,9,09667,1","2,1,010,1,+999,9",,"SYN094AAXX  09064 08008 12470 80405 10066 20048 39667 40203 52010 60012 8467/ 333 20057 55000 70056;",
"08008099999","2010-12-09T09:00:00","4","43.1166666","-7.45","446.0","LUGO ROZAS, SP","FM-12","99999","V020","050,1,N,0021,1","03600,1,9,N","025000,1,N,1","+0064,1","+0049,1","10230,1",,,,,,,"06,99,1,01,1,06,1,00450,1,04,1,05,1",,,,,"99999,9,09692,1","2,1,025,1,+999,9",,"SYN066AAXX  09094 08008 42475 60504 10064 20049 39692 40230 52025 81645;",
"08008099999","2010-12-09T12:00:00","4","43.1166666","-7.45","446.0","LUGO ROZAS, SP","FM-12","99999","V020","040,1,N,0021,1","09000,1,9,N","025000,1,N,1","+0096,1","+0058,1","10234,1","06,0000,9,1",,,,,,"07,99,1,01,1,06,1,00450,1,00,1,08,1",,,,,"99999,9,09702,1","2,1,010,1,+999,9",,"SYN072AAXX  09124 08008 12475 70404 10096 20058 39702 40234 52010 60001 81608;","Q01  00002PRCP06"
"08008099999","2010-12-10T06:00:00","4","43.1166666","-7.45","446.0","LUGO ROZAS, SP","FM-12","99999","V020","200,1,N,0010,1","22000,1,9,N","025000,1,N,1","+0044,1","+0035,1","10263,1","12,0000,9,1","24,0000,9,1",,"8,1,06,1",,,"04,99,1,01,1,06,1,00450,1,03,1,00,1","0102,9","11,9","999,+0020,9","999,N,+0040,1","99999,9,09719,1","5,1,008,1,+999,9","02,1","SYN112AAXX  10064 08008 11475 42002 10044 20035 39719 40263 55008 69912 7028/ 81630 333 20040 32002 50064 55017 70001;","Q01  00002PRCP24Q02  00002PRCP12"
"08008099999","2010-12-10T09:00:00","4","43.1166666","-7.45","446.0","LUGO ROZAS, SP","FM-12","99999","V020","999,9,C,0000,1","22000,1,9,N","025000,1,N,1","+0040,1","+0036,1","10278,1",,,,,,,"04,99,1,04,1,00,1,01250,1,03,1,00,1",,,,,"99999,9,09733,1","1,1,014,1,+999,9",,"SYN066AAXX  10094 08008 42675 40000 10040 20036 39733 40278 51014 84030;",
"08008099999","2010-12-10T12:00:00","4","43.1166666","-7.45","446.0","LUGO ROZAS, SP","FM-12","99999","V020","300,1,N,0010,1","22000,1,9,N","025000,1,N,1","+0118,1","+0071,1","10262,1","06,0000,9,1",,,,,"00,1,+99999,9,99,9","00,99,1,00,1,00,1,99999,9,00,1,00,1",,,,,"99999,9,09732,1","8,1,001,1,+999,9",,"SYN066AAXX  10124 08008 12975 03002 10118 20071 39732 40262 58001 60001;","Q01  00002PRCP06"
"08008099999","2010-12-13T06:00:00","4","43.1166666","-7.45","446.0","LUGO ROZAS, SP","FM-12","99999","V020","100,1,N,0005,1","00030,1,9,N","000200,1,N,1","+0037,1","+0034,1","10162,1","12,0000,9,1","24,0000,9,1",,,,"09,1,+00030,1,99,9","09,99,1,09,1,99,9,99999,9,99,9,99,9","0030,9",,,"999,N,+0027,1","99999,9,09622,1","6,1,001,1,+999,9","45,1","SYN100AAXX  13064 08008 11/02 91001 10037 20034 39622 40162 56001 60002 745// 333 20027 55005 70000 89/01;","Q01  00002PRCP24Q02  00002PRCP12"
"08008099999","2010-12-13T12:00:00","4","43.1166666","-7.45","446.0","LUGO ROZAS, SP","FM-12","99999","V020","040,1,N,0015,1","00210,1,9,N","005000,1,N,1","+0081,1","+0075,1","10168,1","06,0000,9,1",,,"4,1,06,1","4,1,06,1",,"08,99,1,08,1,06,1,00250,1,99,9,99,9",,,,,"99999,9,09637,1","0,1,004,1,+999,9","10,1","SYN078AAXX  13124 08008 11350 80403 10081 20075 39637 40168 50004 69901 71044 886//;","Q01  00002PRCP06"
"08008099999","2010-12-14T06:00:00","4","43.1166666","-7.45","446.0","LUGO ROZAS, SP","FM-12","99999","V020","030,1,N,0005,1","00420,1,9,N","020000,1,N,1","+0062,1","+0048,1","10228,1","12,0000,9,1","24,0000,9,1",,,,,"07,99,1,07,1,05,1,00450,1,99,9,99,9","0162,9","01,9","999,+0020,9","999,N,+0035,1","99999,9,09690,1","2,1,017,1,+999,9",,"SYN106AAXX  14064 08008 12470 70301 10062 20048 39690 40228 52017 60002 875// 333 20035 30002 50094 55027 79999;","Q01  00002PRCP24Q02  00002PRCP12"
"08008099999","2010-12-14T09:00:00","4","43.1166666","-7.45","446.0","LUGO ROZAS, SP","FM-12","99999","V020","090,1,N,0021,1","00420,1,9,N","020000,1,N,1","+0051,1","+0034,1","10251,1",,,,,,,"05,99,1,05,1,05,1,00450,1,00,1,00,1",,,,,"99999,9,09709,1","2,1,019,1,+999,9",,"SYN066AAXX  14094 08008 42470 50904 10051 20034 39709 40251 52019 85500;",
"08008099999","2010-12-14T12:00:00","4","43.1166666","-7.45","446.0","LUGO ROZAS, SP","FM-12","99999","V020","050,1,N,0021,1","22000,1,9,N","025000,1,N,1","+0096,1","+0046,1","10256,1","06,0000,9,1",,,,,"00,1,+99999,9,99,9","00,99,1,00,1,00,1,99999,9,00,1,00,1",,,,,"99999,9,09722,1","0,1,013,1,+999,9",,"SYN066AAXX  14124 08008 12975 00504 10096 20046 39722 40256 50013 60001;","Q01  00002PRCP06"
"08008099999","2010-12-15T06:00:00","4","43.1166666","-7.45","446.0","LUGO ROZAS, SP","FM-12","99999","V020","250,1,N,0010,1","22000,1,9,N","025000,1,N,1","-0014,1","-0027,1","10338,1","12,0000,9,1","24,0000,9,1",,,,"00,1,+99999,9,99,9","00,99,1,00,1,00,1,99999,9,00,1,00,1","0462,9","14,9","999,-0040,9","999,N,-0017,1","99999,9,09778,1","5,1,001,1,+999,9",,"SYN100AAXX  15064 08008 12975 02502 11014 21027 39778 40338 55001 60002 333 21017 34104 50074 55077 70000;","Q01  00002PRCP24Q02  00002PRCP12"
"08008099999","2010-12-15T09:00:00","4","43.1166666","-7.45","446.0","LUGO ROZAS, SP","FM-12","99999","V020","210,1,N,0005,1","22000,1,9,N","025000,1,N,1","+0011,1","-0008,1","10339,1",,,,,,"00,1,+99999,9,99,9","00,99,1,00,1,00,1,99999,9,00,1,00,1",,,,,"99999,9,09784,1","1,1,006,1,+999,9",,"SYN060AAXX  15094 08008 42975 02101 10011 21008 39784 40339 51006;",
"08008099999","2010-12-15T12:00:00","4","43.1166666","-7.45","446.0","LUGO ROZAS, SP","FM-12","99999","V020","050,1,N,0026,1","22000,1,9,N","025000,1,N,1","+0088,1","-0002,1","10318,1","06,0000,9,1",,,,,,"01,99,1,00,1,00,1,99999,9,00,1,08,1",,,,,"99999,9,09779,1","8,1,005,1,+999,9",,"SYN072AAXX  15124 08008 12775 10505 10088 21002 39779 40318 58005 60001 80008;","Q01+017502SCOLCBQ02  00002PRCP06"
"08008099999","2010-12-17T06:00:00","4","43.1166666","-7.45","446.0","LUGO ROZAS, SP","FM-12","99999","V020","190,1,N,0021,1","03600,1,9,N","025000,1,N,1","+0030,1","-0001,1","10154,1","12,0000,9,1","24,0000,9,1",,,,,"08,99,1,04,1,06,1,00450,1,07,1,99,9","0492,9",,,"999,N,-0040,1","99999,9,09613,1","7,1,024,1,+999,9",,"SYN094AAXX  17064 08008 12475 81904 10030 21001 39613 40154 57024 60002 8467/ 333 21040 55082 70000;","Q01  00002PRCP24Q02  00002PRCP12"
"08008099999","2010-12-17T09:00:00","4","43.1166666","-7.45","446.0","LUGO ROZAS, SP","FM-12","99999","V020","190,1,N,0021,1","00420,1,9,N","020000,1,N,1","+0034,1","+0014,1","10133,1",,,,,,,"08,99,1,05,1,06,1,00450,1,07,1,99,9",,,,,"99999,9,09594,1","7,1,019,1,+999,9",,"SYN066AAXX  17094 08008 42470 81904 10034 20014 39594 40133 57019 8567/;",
"08008099999","2010-12-17T12:00:00","4","43.1166666","-7.45","446.0","LUGO ROZAS, SP","FM-12","99999","V020","210,1,N,0026,1","00420,1,9,N","012000,1,N,1","+0051,1","+0034,1","10109,1","06,9999,9,9",,,"2,1,06,1","2,1,06,1",,"08,99,1,05,1,07,1,00450,1,07,1,99,9",,,,,"99999,9,09575,1","7,1,019,1,+999,9","50,1","SYN078AAXX  17124 08008 11462 82105 10051 20034 39575 40109 57019 69901 75022 8577/;","Q01  00002PRCP06Q02  00002PRCP06"
"08008099999","2010-12-20T06:00:00","4","43.1166666","-7.45","446.0","LUGO ROZAS, SP","FM-12","99999","V020","210,1,N,0031,1","00420,1,9,N","020000,1,N,1","+0074,1","+0059,1","10064,1","12,0005,9,1","24,0005,9,1",,"6,1,06,1",,,"07,99,1,05,1,07,1,00450,1,07,1,00,1","0054,9",,,"999,N,+0064,1","99999,9,09537,1","5,1,001,1,+999,9","21,1","SYN100AAXX  20064 08008 11470 72106 10074 20059 39537 40064 55001 69942 7216/ 85770 333 20064 55009 70004;",
"08008099999","2010-12-20T09:00:00","4","43.1166666","-7.45","446.0","LUGO ROZAS, SP","FM-12","99999","V020","190,1,N,0031,1","03600,1,9,N","025000,1,N,1","+0084,1","+0062,1","10069,1",,,,"6,1,03,1","2,1,03,1",,"06,99,1,04,1,07,1,00450,1,07,1,00,1",,,,,"99999,9,09543,1","1,1,006,1,+999,9","21,1","SYN072AAXX  20094 08008 41475 61906 10084 20062 39543 40069 51006 72162 84770;",
"08008099999","2010-12-20T12:00:00","4","43.1166666","-7.45","446.0","LUGO ROZAS, SP","FM-12","99999","V020","180,1,N,0031,1","03600,1,9,N","025000,1,N,1","+0099,1","+0075,1","10068,1","06,0000,2,1",,,"6,1,06,1","2,1,06,1",,"06,99,1,03,1,05,1,00450,1,07,1,08,1",,,,,"99999,9,09545,1","0,1,002,1,+999,9","02,1","SYN078AAXX  20124 08008 11475 61806 10099 20075 39545 40068 50002 69921 70262 83578;",
"08008099999","2010-12-21T06:00:00","4","43.1166666","-7.45","446.0","LUGO ROZAS, SP","FM-12","99999","V020","180,1,N,0005,1","03600,1,9,N","025000,1,N,1","+0060,1","+0056,1","09967,1","12,0051,9,1","24,0053,9,1",,"6,1,06,1",,,"08,99,1,02,1,07,1,00450,1,07,1,99,9","0030,9","11,9","999,+0050,9","999,N,+0058,1","99999,9,09442,1","7,1,016,1,+999,9","60,1","SYN112AAXX  21064 08008 11475 81801 10060 20056 39442 49967 57016 60052 7606/ 8277/ 333 20058 32005 50064 55005 70053;",
"08008099999","2010-12-21T09:00:00","4","43.1166666","-7.45","446.0","LUGO ROZAS, SP","FM-12","99999","V020","999,9,C,0000,1","99999,9,9,N","020000,1,N,1","+0062,1","+0058,1","09962,1",,,,"6,1,03,1","2,1,03,1",,"08,99,1,08,1,00,1,01250,1,07,1,99,9",,,,,"99999,9,09438,1","5,1,004,1,+999,9","60,1","SYN072AAXX  21094 08008 41670 80000 10062 20058 39438 49962 55004 76062 8807/;",
"08008099999","2010-12-21T12:00:00","4","43.1166666","-7.45","446.0","LUGO ROZAS, SP","FM-12","99999","V020","090,1,N,0010,1","99999,9,9,N","025000,1,N,1","+0073,1","+0067,1","09963,1","06,0020,9,1",,,"6,1,06,1","2,1,06,1",,"08,99,1,08,1,00,1,01250,1,07,1,99,9",,,,,"99999,9,09441,1","0,1,003,1,+999,9","21,1","SYN078AAXX  21124 08008 11675 80902 10073 20067 39441 49963 50003 60021 72162 8807/;",
"08008099999","2010-12-22T06:00:00","4","43.1166666","-7.45","446.0","LUGO ROZAS, SP","FM-12","99999","V020","050,1,N,0015,1","99999,9,9,N","025000,1,N,1","+0064,1","+0060,1","09914,1","12,0061,9,1","24,0084,9,1",,"6,1,06,1",,,"08,99,1,08,1,00,1,01250,1,07,1,99,9","0078,9","11,9","999,+0010,9","999,N,+0034,1","99999,9,09393,1","7,1,016,1,+999,9","21,1","SYN112AAXX  22064 08008 11675 80503 10064 20060 39393 49914 57016 60062 7216/ 8807/ 333 20034 32001 50024 55013 70084;",
"08008099999","2010-12-22T09:00:00","4","43.1166666","-7.45","446.0","LUGO ROZAS, SP","FM-12","99999","V020","020,1,N,0010,1","03600,1,9,N","015000,1,N,1","+0068,1","+0064,1","09916,1",,,,"6,1,03,1","2,1,03,1",,"08,99,1,04,1,07,1,00450,1,07,1,99,9",,,,,"99999,9,09395,1","3,1,002,1,+999,9","61,1","SYN072AAXX  22094 08008 41465 80202 10068 20064 39395 49916 53002 76162 8477/;",
"08008099999","2010-12-22T12:00:00","4","43.1166666","-7.45","446.0","LUGO ROZAS, SP","FM-12","99999","V020","050,1,N,0010,1","03600,1,9,N","008000,1,N,1","+0075,1","+0071,1","09925,1","06,0109,9,1",,,"6,1,06,1","2,1,06,1",,"08,99,1,04,1,07,1,00450,1,07,1,99,9",,,,,"99999,9,09405,1","2,1,010,1,+999,9","61,1","SYN078AAXX  22124 08008 11458 80502 10075 20071 39405 49925 52010 60111 76162 8477/;",
