"STATION","DATE","SOURCE","LATITUDE","LONGITUDE","ELEVATION","NAME","REPORT_TYPE","CALL_SIGN","QUALITY_CONTROL","WND","CIG","VIS","TMP","DEW","SLP","AA1","AA2","AJ1","AY1","AY2","GA1","GA2","GF1","GJ1","IA1","IA2","KA1","MA1","MD1","MW1","REM","EQD"
"08014099999","2010-01-01T06:00:00","4","43.5666666","-5.7","6.0","GIJON MUSEL, SP","FM-12","99999","V020","200,1,N,0031,1","01200,1,9,N","015000,1,N,1","+0082,1","+0020,1","10014,1","12,0061,9,2","24,0056,9,2",,,,,,"08,99,1,05,1,08,1,00800,1,05,1,99,9","0120,9","09,9","999,+0050,9","999,N,+0059,1","99999,9,10006,1","3,1,006,1,+999,9","60,1","SYN112AAXX  01064 08014 11565 82006 10082 20020 30006 40014 53006 60062 760// 8585/ 333 20059 31005 50384 55020 70055;",
"08014099999","2010-01-01T09:00:00","4","43.5666666","-5.7","6.0","GIJON MUSEL, SP","FM-12","99999","V020","210,1,N,0026,1","00420,1,9,N","010000,1,N,1","+0088,1","+0048,1","10044,1",,,,,,,,"08,99,1,06,1,07,1,00450,1,01,1,99,9",,,,,"99999,9,10036,1","2,1,030,1,+999,9",,"SYN076AAXX  01094 08014 42460 82105 10088 20048 30036 40044 52030 8671/ 333 92427;",
"08014099999","2010-01-01T12:00:00","4","43.5666666","-5.7","6.0","GIJON MUSEL, SP","FM-12","99999","V020","210,1,N,0031,1","03600,1,9,N","020000,1,N,1","+0102,1","+0054,1","10076,1","06,0005,9,1",,,"5,1,06,1","2,1,06,1",,,"06,99,1,04,1,04,1,00800,1,07,1,00,1",,,,,"99999,9,10068,1","2,1,032,1,+999,9","02,1","SYN088AAXX  01124 08014 11570 62106 10102 20054 30068 40076 52032 69961 70252 84470 333 92428;",
"08014099999","2010-01-01T15:00:00","4","43.5666666","-5.7","6.0","GIJON MUSEL, SP","FM-12","99999","V020","220,1,N,0021,1","03600,1,9,N","030000,1,N,1","+0120,1","+0056,1","10090,1",,,,,,,,"06,99,1,03,1,02,1,00800,1,03,1,00,1",,,,,"99999,9,10082,1","2,1,014,1,+999,9",,"SYN076AAXX  01154 08014 42580 62204 10120 20056 30082 40090 52014 83230 333 92438;",
"08014099999","2010-01-01T18:00:00","4","43.5666666","-5.7","6.0","GIJON MUSEL, SP","FM-12","99999","V020","220,1,N,0026,1","03600,1,9,N","020000,1,N,1","+0108,1","+0040,1","10114,1","12,0008,9,1",,,,,,,"05,99,1,03,1,08,1,00800,1,03,1,00,1",,,,"120,M,+0122,1","99999,9,10106,1","2,1,024,1,+999,9",,"SYN088AAXX  01184 08014 12570 52205 10108 20040 30106 40114 52024 69972 83830 333 10122 92438;",
"08014099999","2010-01-02T06:00:00","4","43.5666666","-5.7","6.0","GIJON MUSEL, SP","FM-12","99999","V020","999,9,C,0000,1","03600,1,9,N","015000,1,N,1","+0092,1","+0075,1","10154,1","12,0000,9,1","24,0008,9,1",,,,,,"07,99,1,04,1,04,1,00800,1,05,1,99,9","0228,9","09,9","999,+0080,9","999,N,+0086,1","99999,9,10146,1","2,1,007,1,+999,9","02,1","SYN112AAXX  02064 08014 11565 70000 10092 20075 30146 40154 52007 60002 702// 8445/ 333 20086 31008 50414 55038 70007;","Q01  00002PRCP12"
"08014099999","2010-01-02T09:00:00","4","43.5666666","-5.7","6.0","GIJON MUSEL, SP","FM-12","99999","V020","999,9,C,0000,1","03600,1,9,N","020000,1,N,1","+0088,1","+0066,1","10165,1",,,,,,,,"08,99,1,04,1,04,1,00800,1,01,1,99,9",,,,,"99999,9,10157,1","2,1,011,1,+999,9",,"SYN076AAXX  02094 08014 42570 80000 10088 20066 30157 40165 52011 8441/ 333 92428;",
"08014099999","2010-01-02T12:00:00","4","43.5666666","-5.7","6.0","GIJON MUSEL, SP","FM-12","99999","V020","190,1,N,0015,1","03600,1,9,N","020000,1,N,1","+0100,1","+0062,1","10176,1","06,9999,9,9",,,"2,1,06,1","2,1,06,1",,,"08,99,1,04,1,07,1,00800,1,01,1,99,9",,,,,"99999,9,10168,1","1,1,011,1,+999,9","51,1","SYN088AAXX  02124 08014 11570 81903 10100 20062 30168 40176 51011 69901 75122 8471/ 333 92428;","Q01  00002PRCP06Q02  00002PRCP06"
"08014099999","2010-01-02T15:00:00","4","43.5666666","-5.7","6.0","GIJON MUSEL, SP","FM-12","99999","V020","100,1,N,0026,1","03600,1,9,N","025000,1,N,1","+0114,1","+0071,1","10145,1",,,,"5,1,03,1","2,1,03,1",,,"08,99,1,04,1,07,1,00800,1,01,1,99,9",,,,,"99999,9,10137,1","7,1,031,1,+999,9","02,1","SYN082AAXX  02154 08014 41575 81005 10114 20071 30137 40145 57031 70252 8471/ 333 92438;",
"08014099999","2010-01-02T18:00:00","4","43.5666666","-5.7","6.0","GIJON MUSEL, SP","FM-12","99999","V020","090,1,N,0026,1","01200,1,9,N","020000,1,N,1","+0118,1","+0063,1","10135,1","12,0000,2,1",,,"5,1,06,1","5,1,06,1",,,"08,99,1,05,1,08,1,00800,1,05,1,99,9",,,,"120,M,+0118,1","99999,9,10127,1","6,1,010,1,+999,9","02,1","SYN094AAXX  02184 08014 11570 80905 10118 20063 30127 40135 56010 69922 70255 8585/ 333 10118 92438;",
"08014099999","2010-01-03T06:00:00","4","43.5666666","-5.7","6.0","GIJON MUSEL, SP","FM-12","99999","V020","340,1,N,0010,1","01200,1,9,N","010000,1,N,1","+0113,1","+0090,1","10083,1","12,0020,9,1","24,0023,9,1",,"6,1,06,1","6,1,06,1",,,"08,99,1,06,1,08,1,00800,1,07,1,99,9","0000,9","11,9","999,+0060,9","999,N,+0090,1","99999,9,10075,1","7,1,010,1,+999,9","61,1","SYN112AAXX  03064 08014 11560 83402 10113 20090 30075 40083 57010 60022 76166 8687/ 333 20090 32006 50144 55000 70023;",
"08014099999","2010-01-03T09:00:00","4","43.5666666","-5.7","6.0","GIJON MUSEL, SP","FM-12","99999","V020","350,1,N,0010,1","00750,1,9,N","010000,1,N,1","+0118,1","+0092,1","10091,1",,,,"6,1,03,1","2,1,03,1",,,"08,99,1,06,1,07,1,00800,1,07,1,99,9",,,,,"99999,9,10083,1","3,1,008,1,+999,9","61,1","SYN082AAXX  03094 08014 41560 83502 10118 20092 30083 40091 53008 76162 8677/ 333 92426;",
"08014099999","2010-01-03T12:00:00","4","43.5666666","-5.7","6.0","GIJON MUSEL, SP","FM-12","99999","V020","210,1,N,0010,1","00750,1,9,N","010000,1,N,1","+0128,1","+0109,1","10104,1","06,0010,9,1",,,"6,1,06,1","2,1,06,1",,,"08,99,1,05,1,07,1,00800,1,07,1,99,9",,,,,"99999,9,10096,1","2,1,013,1,+999,9","60,1","SYN088AAXX  03124 08014 11560 82102 10128 20109 30096 40104 52013 60011 76062 8577/ 333 92426;",
"08014099999","2010-01-03T15:00:00","4","43.5666666","-5.7","6.0","GIJON MUSEL, SP","FM-12","99999","V020","200,1,N,0010,1","03600,1,9,N","010000,1,N,1","+0132,1","+0113,1","10111,1",,,,"6,1,03,1","2,1,03,1",,,"07,99,1,04,1,07,1,00800,1,02,1,00,1",,,,,"99999,9,10103,1","2,1,007,1,+999,9","21,1","SYN082AAXX  03154 08014 41560 72002 10132 20113 30103 40111 52007 72162 84720 333 92426;",
"08014099999","2010-01-03T18:00:00","4","43.5666666","-5.7","6.0","GIJON MUSEL, SP","FM-12","99999","V020","190,1,N,0010,1","22000,1,9,N","015000,1,N,1","+0125,1","+0102,1","10123,1","12,0030,9,1",,,"6,1,06,1","1,1,06,1",,,"03,99,1,02,1,01,1,00800,1,03,1,01,1",,,,"120,M,+0132,1","99999,9,10115,1","2,1,012,1,+999,9","01,1","SYN094AAXX  03184 08014 11565 31902 10125 20102 30115 40123 52012 60032 70161 82131 333 10132 92427;",
"08014099999","2010-01-04T06:00:00","4","43.5666666","-5.7","6.0","GIJON MUSEL, SP","FM-12","99999","V020","999,9,C,0000,1","22000,1,9,N","015000,1,N,1","+0085,1","+0066,1","10095,1","12,0000,9,1","24,0033,9,1",,,,"00,1,+99999,9,99,9",,"00,99,1,00,1,00,1,99999,9,00,1,00,1","0000,9","11,9","999,+0060,9","999,N,+0075,1","99999,9,10087,1","7,1,015,1,+999,9","00,1","SYN106AAXX  04064 08014 11965 00000 10085 20066 30087 40095 57015 60002 700// 333 20075 32006 50114 55000 70034;","Q01  00002PRCP12"
"08014099999","2010-01-04T09:00:00","4","43.5666666","-5.7","6.0","GIJON MUSEL, SP","FM-12","99999","V020","999,9,C,0000,1","22000,1,9,N","015000,1,N,1","+0070,1","+0050,1","10085,1",,,,,,,,"03,99,1,01,1,01,1,00450,1,03,1,01,1",,,,,"99999,9,10077,1","7,1,010,1,+999,9",,"SYN076AAXX  04094 08014 42465 30000 10070 20050 30077 40085 57010 81131 333 92427;",
"08014099999","2010-01-04T12:00:00","4","43.5666666","-5.7","6.0","GIJON MUSEL, SP","FM-12","99999","V020","080,1,N,0026,1","00420,1,9,N","015000,1,N,1","+0128,1","+0094,1","10072,1","06,0000,9,1",,,,,,,"07,99,1,05,1,02,1,00450,1,03,1,00,1",,,,,"99999,9,10064,1","7,1,013,1,+999,9",,"SYN082AAXX  04124 08014 12465 70805 10128 20094 30064 40072 57013 60001 85230 333 92437;","Q01  00002PRCP06"
"08014099999","2010-01-04T15:00:00","4","43.5666666","-5.7","6.0","GIJON MUSEL, SP","FM-12","99999","V020","070,1,N,0041,1","00750,1,9,N","010000,1,N,1","+0115,1","+0096,1","10050,1",,,,"6,1,03,1","2,1,03,1",,,"08,99,1,06,1,07,1,00800,1,07,1,99,9",,,,,"99999,9,10042,1","7,1,022,1,+999,9","21,1","SYN082AAXX  04154 08014 41560 80708 10115 20096 30042 40050 57022 72162 8677/ 333 92446;",
"08014099999","2010-01-04T18:00:00","4","43.5666666","-5.7","6.0","GIJON MUSEL, SP","FM-12","99999","V020","070,1,N,0041,1","00750,1,9,N","020000,1,N,1","+0110,1","+0089,1","10054,1","12,0000,2,1",,,"6,1,06,1","2,1,06,1",,,"08,99,1,99,9,07,1,00800,1,99,9,02,1",,,,"120,M,+0130,1","99999,9,10046,1","3,1,004,1,+999,9","50,1","SYN094AAXX  04184 08014 11570 80708 10110 20089 30046 40054 53004 69922 75062 887/2 333 10130 92447;","Q01+000082SCOTLC"
"08014099999","2010-01-05T06:00:00","4","43.5666666","-5.7","6.0","GIJON MUSEL, SP","FM-12","99999","V020","060,1,N,0026,1","00420,1,9,N","015000,1,N,1","+0082,1","+0040,1","10070,1","12,0005,9,1","24,0005,9,1",,,,,,"08,99,1,05,1,07,1,00450,1,07,1,99,9","0180,9","11,9","999,+0060,9","999,N,+0080,1","99999,9,10062,1","2,1,009,1,+999,9","60,1","SYN112AAXX  05064 08014 11465 80605 10082 20040 30062 40070 52009 69942 760// 8577/ 333 20080 32006 50164 55030 70006;",
"08014099999","2010-01-05T09:00:00","4","43.5666666","-5.7","6.0","GIJON MUSEL, SP","FM-12","99999","V020","040,1,N,0021,1","00750,1,9,N","015000,1,N,1","+0082,1","+0024,1","10076,1",,,,"5,1,03,1","5,1,03,1",,,"08,99,1,06,1,07,1,00800,1,07,1,99,9",,,,,"99999,9,10068,1","2,1,006,1,+999,9","02,1","SYN082AAXX  05094 08014 41565 80404 10082 20024 30068 40076 52006 70255 8677/ 333 92437;",
"08014099999","2010-01-05T12:00:00","4","43.5666666","-5.7","6.0","GIJON MUSEL, SP","FM-12","99999","V020","210,1,N,0015,1","00750,1,9,N","015000,1,N,1","+0066,1","+0052,1","10081,1","06,0003,9,1",,,"6,1,06,1","2,1,06,1",,,"08,99,1,06,1,07,1,00800,1,07,1,99,9",,,,,"99999,9,10073,1","2,1,005,1,+999,9","60,1","SYN088AAXX  05124 08014 11565 82103 10066 20052 30073 40081 52005 69931 76062 8677/ 333 92437;",
"08014099999","2010-01-05T15:00:00","4","43.5666666","-5.7","6.0","GIJON MUSEL, SP","FM-12","99999","V020","030,1,N,0021,1","00750,1,9,N","015000,1,N,1","+0072,1","+0017,1","10076,1",,,,,,,,"08,99,1,06,1,07,1,00800,1,07,1,99,9",,,,,"99999,9,10068,1","8,1,005,1,+999,9",,"SYN076AAXX  05154 08014 42565 80304 10072 20017 30068 40076 58005 8677/ 333 92437;",
"08014099999","2010-01-05T18:00:00","4","43.5666666","-5.7","6.0","GIJON MUSEL, SP","FM-12","99999","V020","250,1,N,0021,1","00750,1,9,N","015000,1,N,1","+0063,1","+0026,1","10085,1","12,0003,9,1",,,"5,1,06,1","2,1,06,1",,,"08,99,1,06,1,07,1,00800,1,07,1,99,9",,,,"120,M,+0085,1","99999,9,10077,1","2,1,009,1,+999,9","02,1","SYN094AAXX  05184 08014 11565 82504 10063 20026 30077 40085 52009 69932 70252 8677/ 333 10085 92437;",
"08014099999","2010-01-06T06:00:00","4","43.5666666","-5.7","6.0","GIJON MUSEL, SP","FM-12","99999","V020","999,9,C,0000,1","00750,1,9,N","020000,1,N,1","+0052,1","+0022,1","10063,1","12,0000,9,1","24,0003,9,1",,,,,,"08,99,1,06,1,07,1,00800,1,07,1,99,9","0000,9","11,9","999,+0030,9","999,N,+0045,1","99999,9,10055,1","4,1,000,1,+999,9","02,1","SYN112AAXX  06064 08014 11570 80000 10052 20022 30055 40063 54000 60002 702// 8677/ 333 20045 32003 50294 55000 70003;","Q01  00002PRCP12"
"08014099999","2010-01-06T09:00:00","4","43.5666666","-5.7","6.0","GIJON MUSEL, SP","FM-12","99999","V020","190,1,N,0015,1","03600,1,9,N","010000,1,N,1","+0051,1","+0025,1","10065,1",,,,"8,1,03,1","8,1,03,1",,,"06,99,1,04,1,08,1,00450,1,03,1,00,1",,,,,"99999,9,10057,1","3,1,002,1,+999,9","21,1","SYN082AAXX  06094 08014 41460 61903 10051 20025 30057 40065 53002 72188 84830 333 92436;",
"08014099999","2010-01-06T12:00:00","4","43.5666666","-5.7","6.0","GIJON MUSEL, SP","FM-12","99999","V020","220,1,N,0015,1","01200,1,9,N","020000,1,N,1","+0066,1","+0032,1","10067,1","06,0020,9,1",,,"8,1,06,1","6,1,06,1",,,"08,99,1,06,1,08,1,00800,1,07,1,99,9",,,,,"99999,9,10059,1","2,1,002,1,+999,9","02,1","SYN088AAXX  06124 08014 11570 82203 10066 20032 30059 40067 52002 60021 70286 8687/ 333 92437;",
"08014099999","2010-01-06T15:00:00","4","43.5666666","-5.7","6.0","GIJON MUSEL, SP","FM-12","99999","V020","230,1,N,0010,1","00420,1,9,N","010000,1,N,1","+0056,1","+0024,1","10060,1",,,,"6,1,03,1","2,1,03,1",,,"08,99,1,06,1,07,1,00450,1,07,1,99,9",,,,,"99999,9,10052,1","8,1,007,1,+999,9","60,1","SYN082AAXX  06154 08014 41460 82302 10056 20024 30052 40060 58007 76062 8677/ 333 92436;",
"08014099999","2010-01-06T18:00:00","4","43.5666666","-5.7","6.0","GIJON MUSEL, SP","FM-12","99999","V020","250,1,N,0015,1","00750,1,9,N","006000,1,N,1","+0052,1","+0035,1","10073,1","12,0020,9,1",,,"6,1,06,1","2,1,06,1",,,"08,99,1,05,1,07,1,00800,1,07,1,99,9",,,,"120,M,+0077,1","99999,9,10065,1","2,1,013,1,+999,9","63,1","SYN094AAXX  06184 08014 11556 82503 10052 20035 30065 40073 52013 60022 76362 8577/ 333 10077 92436;",
"08014099999","2010-01-07T06:00:00","4","43.5666666","-5.7","6.0","GIJON MUSEL, SP","FM-12","99999","V020","260,1,N,0036,1","00420,1,9,N","006000,1,N,1","+0038,1","+0007,1","10071,1","12,0041,9,1","24,0076,9,1",,,,,,"08,99,1,08,1,07,1,00450,1,99,9,99,9","0090,9","11,9","999,+0020,9","999,N,+0024,1","99999,9,10063,1","3,1,005,1,+999,9","63,1","SYN112AAXX  07064 08014 11456 82607 10038 20007 30063 40071 53005 60042 763// 887// 333 20024 32002 50104 55015 70075;",
"08014099999","2010-01-07T09:00:00","4","43.5666666","-5.7","6.0","GIJON MUSEL, SP","FM-12","99999","V020","220,1,N,0026,1","22000,1,9,N","012000,1,N,1","+0030,1","+0004,1","10079,1",,,,"8,1,03,1","1,1,03,1",,,"04,99,1,03,1,08,1,00450,1,03,1,00,1",,,,,"99999,9,10071,1","2,1,008,1,+999,9","01,1","SYN082AAXX  07094 08014 41462 42205 10030 20004 30071 40079 52008 70181 83830 333 92437;",
"08014099999","2010-01-07T12:00:00","4","43.5666666","-5.7","6.0","GIJON MUSEL, SP","FM-12","99999","V020","130,1,N,0015,1","01200,1,9,N","010000,1,N,1","+0052,1","+0022,1","10095,1","06,0010,9,1",,,"6,1,06,1","1,1,06,1",,,"07,99,1,05,1,08,1,00800,1,03,1,00,1",,,,,"99999,9,10087,1","2,1,016,1,+999,9","60,1","SYN088AAXX  07124 08014 11560 71303 10052 20022 30087 40095 52016 60011 76061 85830 333 92436;",
"08014099999","2010-01-07T15:00:00","4","43.5666666","-5.7","6.0","GIJON MUSEL, SP","FM-12","99999","V020","040,1,N,0057,1","00420,1,9,N","020000,1,N,1","+0069,1","-0008,1","10092,1",,,,"8,1,03,1","2,1,03,1","03,1,+00015,1,09,1",,"08,99,1,06,1,03,1,00450,1,07,1,99,9",,,,,"99999,9,10084,1","8,1,003,1,+999,9","89,1","SYN088AAXX  07154 08014 41470 80411 10069 21008 30084 40092 58003 78982 8637/ 333 83900 92437;",
"08014099999","2010-01-07T18:00:00","4","43.5666666","-5.7","6.0","GIJON MUSEL, SP","FM-12","99999","V020","080,1,N,0026,1","00420,1,9,N","008000,1,N,1","+0042,1","+0011,1","10119,1","12,0000,2,1",,,"8,1,06,1","8,1,06,1","04,1,+00015,1,09,1",,"07,99,1,05,1,03,1,00450,1,07,1,00,1",,,,"120,M,+0073,1","99999,9,10111,1","2,1,027,1,+999,9","89,1","SYN100AAXX  07184 08014 11458 70805 10042 20011 30111 40119 52027 60002 78988 85370 333 10073 84900 92446;",
"08014099999","2010-01-08T06:00:00","4","43.5666666","-5.7","6.0","GIJON MUSEL, SP","FM-12","99999","V020","050,1,N,0041,1","03600,1,9,N","020000,1,N,1","+0052,1","-0006,1","10151,1","12,0020,9,1","24,0071,9,1",,,,,,"05,99,1,04,1,02,1,00450,1,03,1,00,1","0060,9","11,9","999,+0020,9","999,N,+0035,1","99999,9,10143,1","4,1,000,1,+999,9","02,1","SYN112AAXX  08064 08014 11470 50508 10052 21006 30143 40151 54000 60022 702// 84230 333 20035 32002 50404 55010 70072;",
"08014099999","2010-01-08T09:00:00","4","43.5666666","-5.7","6.0","GIJON MUSEL, SP","FM-12","99999","V020","040,1,N,0041,1","03600,1,9,N","030000,1,N,1","+0058,1","-0013,1","10155,1",,,,,,"03,1,+00015,1,09,1",,"05,99,1,04,1,03,1,00450,1,06,1,05,1",,,,,"99999,9,10147,1","3,1,004,1,+999,9",,"SYN082AAXX  08094 08014 42480 50408 10058 21013 30147 40155 53004 84365 333 83900 92448;",
"08014099999","2010-01-08T12:00:00","4","43.5666666","-5.7","6.0","GIJON MUSEL, SP","FM-12","99999","V020","030,1,N,0051,1","03600,1,9,N","030000,1,N,1","+0072,1","-0007,1","10166,1","06,0008,9,1",,,"8,1,06,1","2,1,06,1","03,1,+00015,1,09,1",,"05,99,1,04,1,03,1,00450,1,03,1,01,1",,,,,"99999,9,10158,1","2,1,011,1,+999,9","02,1","SYN094AAXX  08124 08014 11480 50310 10072 21007 30158 40166 52011 69981 70282 84331 333 83900 92448;",
"08014099999","2010-01-08T15:00:00","4","43.5666666","-5.7","6.0","GIJON MUSEL, SP","FM-12","99999","V020","040,1,N,0077,1","03600,1,9,N","020000,1,N,1","+0058,1","+0000,1","10167,1",,,,,,"03,1,+00015,1,09,1",,"05,99,1,04,1,03,1,00450,1,03,1,01,1",,,,,"99999,9,10159,1","2,1,001,1,+999,9",,"SYN082AAXX  08154 08014 42470 50415 10058 20000 30159 40167 52001 84331 333 83900 92447;",
"08014099999","2010-01-08T18:00:00","4","43.5666666","-5.7","6.0","GIJON MUSEL, SP","FM-12","99999","V020","040,1,N,0062,1","03600,1,9,N","015000,1,N,1","+0066,1","-0008,1","10173,1","12,0010,9,1",,,"7,1,06,1","7,1,06,1","03,1,+00015,1,09,1",,"06,99,1,04,1,03,1,00450,1,06,1,00,1",,,,"120,M,+0072,1","99999,9,10165,1","2,1,006,1,+999,9","02,1","SYN100AAXX  08184 08014 11465 60412 10066 21008 30165 40173 52006 60012 70277 84360 333 10072 83900 92447;",
"08014099999","2010-01-09T06:00:00","4","43.5666666","-5.7","6.0","GIJON MUSEL, SP","FM-12","99999","V020","230,1,N,0026,1","03600,1,9,N","015000,1,N,1","+0010,1","-0001,1","10182,1","12,0030,9,1","24,0046,9,1","0001,9,1,999999,9,9",,,,,"05,99,1,03,1,08,1,00450,1,07,1,05,1","0162,9","17,9","999,+0000,9","999,N,+0005,1","99999,9,10174,1","4,1,000,1,+999,9","22,1","SYN118AAXX  09064 08014 11465 52305 10010 21001 30174 40182 54000 60032 722// 83875 333 20005 3/000 40001 50364 55027 70045;",
"08014099999","2010-01-09T09:00:00","4","43.5666666","-5.7","6.0","GIJON MUSEL, SP","FM-12","99999","V020","190,1,N,0021,1","00420,1,9,N","020000,1,N,1","+0015,1","+0000,1","10193,1",,,,,,,,"06,99,1,05,1,02,1,00450,1,03,1,00,1",,,,,"99999,9,10185,1","2,1,011,1,+999,9",,"SYN076AAXX  09094 08014 42470 61904 10015 20000 30185 40193 52011 85230 333 92447;",
"08014099999","2010-01-09T12:00:00","4","43.5666666","-5.7","6.0","GIJON MUSEL, SP","FM-12","99999","V020","220,1,N,0031,1","00750,1,9,N","006000,1,N,1","+0025,1","+0006,1","10198,1","06,0041,9,1",,,"9,1,06,1","7,1,06,1",,,"08,99,1,08,1,07,1,00800,1,99,9,99,9",,,,,"99999,9,10190,1","2,1,005,1,+999,9","77,1","SYN088AAXX  09124 08014 11556 82206 10025 20006 30190 40198 52005 60041 77797 887// 333 92446;",
"08014099999","2010-01-09T15:00:00","4","43.5666666","-5.7","6.0","GIJON MUSEL, SP","FM-12","99999","V020","230,1,N,0026,1","03600,1,9,N","015000,1,N,1","+0056,1","+0019,1","10184,1",,,,"7,1,03,1","2,1,03,1",,,"06,99,1,04,1,02,1,00450,1,03,1,00,1",,,,,"99999,9,10176,1","8,1,014,1,+999,9","02,1","SYN082AAXX  09154 08014 41465 62305 10056 20019 30176 40184 58014 70272 84230 333 92447;",
"08014099999","2010-01-09T18:00:00","4","43.5666666","-5.7","6.0","GIJON MUSEL, SP","FM-12","99999","V020","230,1,N,0026,1","03600,1,9,N","015000,1,N,1","+0021,1","+0005,1","10186,1","12,0079,9,1",,,"9,1,06,1","7,1,06,1","03,1,+00015,1,09,1",,"06,99,1,04,1,03,1,00450,1,03,1,00,1",,,,"120,M,+0070,1","99999,9,10178,1","3,1,002,1,+999,9","02,1","SYN100AAXX  09184 08014 11465 62305 10021 20005 30178 40186 53002 60082 70297 84330 333 10070 83900 92447;",
"08014099999","2010-01-10T06:00:00","4","43.5666666","-5.7","6.0","GIJON MUSEL, SP","FM-12","99999","V020","230,1,N,0026,1","03600,1,9,N","012000,1,N,1","+0010,1","-0005,1","10172,1","12,0005,9,1","24,0086,9,1",,,,,,"06,99,1,04,1,08,1,00800,1,03,1,00,1","0180,9","11,9","999,+0000,9","999,N,+0010,1","99999,9,10164,1","7,1,011,1,+999,9","02,1","SYN112AAXX  10064 08014 11562 62305 10010 21005 30164 40172 57011 69952 702// 84830 333 20010 32000 50164 55030 70087;",
"08014099999","2010-01-10T09:00:00","4","43.5666666","-5.7","6.0","GIJON MUSEL, SP","FM-12","99999","V020","220,1,N,0036,1","22000,1,9,N","015000,1,N,1","+0002,1","-0004,1","10164,1",,,,,,,,"02,99,1,01,1,02,1,00800,1,03,1,00,1",,,,,"99999,9,10156,1","7,1,008,1,+999,9",,"SYN076AAXX  10094 08014 42565 22207 10002 21004 30156 40164 57008 81230 333 92437;",
"08014099999","2010-01-10T12:00:00","4","43.5666666","-5.7","6.0","GIJON MUSEL, SP","FM-12","99999","V020","190,1,N,0015,1","22000,1,9,N","015000,1,N,1","+0050,1","-0017,1","10147,1","06,0000,9,1",,,,,,,"02,99,1,01,1,01,1,00800,1,03,1,01,1",,,,,"99999,9,10139,1","7,1,017,1,+999,9",,"SYN082AAXX  10124 08014 12565 21903 10050 21017 30139 40147 57017 60001 81131 333 92437;","Q01  00002PRCP06"
"08014099999","2010-01-10T15:00:00","4","43.5666666","-5.7","6.0","GIJON MUSEL, SP","FM-12","99999","V020","090,1,N,0031,1","22000,1,9,N","025000,1,N,1","+0048,1","-0006,1","10113,1",,,,,,,,"05,99,1,01,1,08,1,00800,1,01,1,09,1",,,,,"99999,9,10105,1","7,1,034,1,+999,9",,"SYN076AAXX  10154 08014 42575 50906 10048 21006 30105 40113 57034 81819 333 92438;",
"08014099999","2010-01-10T18:00:00","4","43.5666666","-5.7","6.0","GIJON MUSEL, SP","FM-12","99999","V020","160,1,N,0015,1","01200,1,9,N","030000,1,N,1","+0052,1","-0024,1","10113,1","12,0000,9,1",,,,,,,"08,99,1,08,1,00,1,01250,1,02,1,99,9",,,,"120,M,+0052,1","99999,9,10105,1","4,1,000,1,+999,9",,"SYN088AAXX  10184 08014 12680 81603 10052 21024 30105 40113 54000 60002 8802/ 333 10052 92438;","Q01  00002PRCP12"
"08014099999","2010-01-11T06:00:00","4","43.5666666","-5.7","6.0","GIJON MUSEL, SP","FM-12","99999","V020","230,1,N,0041,1","03600,1,9,N","020000,1,N,1","+0022,1","-0029,1","10133,1","12,0000,9,1","24,0000,9,1",,,,,,"05,99,1,02,1,01,1,00800,1,03,1,00,1","0360,9","01,9","999,+0010,9","999,N,+0015,1","99999,9,10125,1","2,1,002,1,+999,9","02,1","SYN112AAXX  11064 08014 11570 52308 10022 21029 30125 40133 52002 60002 702// 82130 333 20015 30001 50254 55060 70000;","Q01  00002PRCP24Q02  00002PRCP12"
"08014099999","2010-01-11T09:00:00","4","43.5666666","-5.7","6.0","GIJON MUSEL, SP","FM-12","99999","V020","260,1,N,0046,1","22000,1,9,N","030000,1,N,1","+0018,1","-0031,1","10160,1",,,,,,,,"04,99,1,02,1,01,1,00150,1,03,1,05,1",,,,,"99999,9,10152,1","2,1,027,1,+999,9",,"SYN076AAXX  11094 08014 42280 42609 10018 21031 30152 40160 52027 82135 333 92438;",
"08014099999","2010-01-11T12:00:00","4","43.5666666","-5.7","6.0","GIJON MUSEL, SP","FM-12","99999","V020","220,1,N,0041,1","22000,1,9,N","020000,1,N,1","+0068,1","-0018,1","10166,1","06,0000,9,1",,,,,,,"03,99,1,02,1,00,1,01250,1,03,1,05,1",,,,,"99999,9,10158,1","2,1,006,1,+999,9",,"SYN082AAXX  11124 08014 12670 32208 10068 21018 30158 40166 52006 60001 82035 333 92437;","Q01  00002PRCP06"
"08014099999","2010-01-11T15:00:00","4","43.5666666","-5.7","6.0","GIJON MUSEL, SP","FM-12","99999","V020","220,1,N,0021,1","22000,1,9,N","030000,1,N,1","+0088,1","-0010,1","10163,1",,,,,,,,"03,99,1,01,1,00,1,01250,1,07,1,01,1",,,,,"99999,9,10155,1","8,1,003,1,+999,9",,"SYN076AAXX  11154 08014 42680 32204 10088 21010 30155 40163 58003 81071 333 92438;",
"08014099999","2010-01-11T18:00:00","4","43.5666666","-5.7","6.0","GIJON MUSEL, SP","FM-12","99999","V020","190,1,N,0015,1","22000,1,9,N","020000,1,N,1","+0062,1","-0007,1","10167,1","12,0000,9,1",,,,,,,"03,99,1,02,1,00,1,01250,1,07,1,08,1",,,,"120,M,+0095,1","99999,9,10159,1","3,1,004,1,+999,9",,"SYN088AAXX  11184 08014 12670 31903 10062 21007 30159 40167 53004 60002 82078 333 10095 92437;","Q01  00002PRCP12"
"08014099999","2010-01-12T06:00:00","4","43.5666666","-5.7","6.0","GIJON MUSEL, SP","FM-12","99999","V020","999,9,C,0000,1","00750,1,9,N","015000,1,N,1","+0070,1","+0041,1","10031,1","12,9999,9,9","24,9999,9,9",,,,,,"08,99,1,08,1,07,1,00800,1,99,9,99,9","0360,9","11,9","999,+0040,9","999,N,+0052,1","99999,9,10023,1","7,1,051,2,+999,9","60,1","SYN112AAXX  12064 08014 11565 80000 10070 20041 30023 40031 57051 69912 760/6 887// 333 20052 32004 50254 55060 70001;","Q01+000512APC3  Q02  00002PRCP24Q03  00002PRCP12Q04  00002PRCP12Q05  00002PRCP24"
"08014099999","2010-01-12T09:00:00","4","43.5666666","-5.7","6.0","GIJON MUSEL, SP","FM-12","99999","V020","210,1,N,0057,1","03600,1,9,N","020000,1,N,1","+0144,1","+0023,1","09996,1",,,,,,,,"08,99,1,04,1,07,1,00800,1,07,1,99,9",,,,,"99999,9,09988,1","6,1,035,1,+999,9",,"SYN076AAXX  12094 08014 42570 82111 10144 20023 39988 49996 56035 8477/ 333 92437;",
"08014099999","2010-01-12T12:00:00","4","43.5666666","-5.7","6.0","GIJON MUSEL, SP","FM-12","99999","V020","200,1,N,0010,1","00750,1,9,N","015000,1,N,1","+0106,1","+0073,1","10002,1","06,0020,9,1",,,"6,1,06,1","2,1,06,1",,,"08,99,1,06,1,07,1,00800,1,07,1,99,9",,,,,"99999,9,09994,1","0,1,006,1,+999,9","61,1","SYN088AAXX  12124 08014 11565 82002 10106 20073 39994 40002 50006 60021 76162 8677/ 333 92436;",
"08014099999","2010-01-12T15:00:00","4","43.5666666","-5.7","6.0","GIJON MUSEL, SP","FM-12","99999","V020","150,1,N,0021,1","00750,1,C,N","020000,1,N,1","+0122,1","+0073,1","10013,1",,,,"2,1,03,1","2,1,03,1","02,1,+00630,1,09,1",,"06,99,1,05,1,09,1,00800,1,06,1,03,1",,,,,"99999,9,10005,1","3,1,011,1,+999,9","80,1","SYN088AAXX  12154 08014 41570 61504 10122 20073 30005 40013 53011 78022 85963 333 82921 92437;",
"08014099999","2010-01-12T18:00:00","4","43.5666666","-5.7","6.0","GIJON MUSEL, SP","FM-12","99999","V020","230,1,N,0036,1","00750,1,C,N","015000,1,N,1","+0114,1","+0027,1","10054,1","12,0020,9,1",,,"8,1,06,1","2,1,06,1","03,1,+00630,1,09,1",,"06,99,1,05,1,09,1,00800,1,06,1,03,1",,,,"120,M,+0144,1","99999,9,10046,1","2,1,041,1,+999,9","80,1","SYN100AAXX  12184 08014 11565 62307 10114 20027 30046 40054 52041 60022 78082 85963 333 10144 83921 92437;",
"08014099999","2010-01-13T06:00:00","4","43.5666666","-5.7","6.0","GIJON MUSEL, SP","FM-12","99999","V020","180,1,N,0026,1","22000,1,9,N","020000,1,N,1","+0100,1","+0031,1","10077,1","12,0010,9,1","24,0041,9,1",,"8,1,06,1",,,,"04,99,1,03,1,08,1,00800,1,06,1,00,1","0126,9","11,9","999,+0060,9","999,N,+0085,1","99999,9,10069,1","6,1,005,1,+999,9","02,1","SYN112AAXX  13064 08014 11570 41805 10100 20031 30069 40077 56005 60012 7028/ 83860 333 20085 32006 50494 55021 70041;",
"08014099999","2010-01-13T09:00:00","4","43.5666666","-5.7","6.0","GIJON MUSEL, SP","FM-12","99999","V020","200,1,N,0021,1","00750,1,9,N","020000,1,N,1","+0094,1","+0034,1","10074,1",,,,"1,1,03,1","1,1,03,1",,,"06,99,1,05,1,07,1,00800,1,06,1,00,1",,,,,"99999,9,10066,1","8,1,003,1,+999,9","60,1","SYN082AAXX  13094 08014 41570 62004 10094 20034 30066 40074 58003 76011 85760 333 92437;",
"08014099999","2010-01-13T12:00:00","4","43.5666666","-5.7","6.0","GIJON MUSEL, SP","FM-12","99999","V020","210,1,N,0036,1","00750,1,9,N","015000,1,N,1","+0104,1","+0052,1","10058,1","06,0008,9,1",,,"8,1,06,1","6,1,06,1",,,"07,99,1,06,1,07,1,00800,1,07,1,00,1",,,,,"99999,9,10050,1","8,1,016,1,+999,9","25,1","SYN088AAXX  13124 08014 11565 72107 10104 20052 30050 40058 58016 69971 72586 86770 333 92437;",
"08014099999","2010-01-13T15:00:00","4","43.5666666","-5.7","6.0","GIJON MUSEL, SP","FM-12","99999","V020","240,1,N,0010,1","00750,1,9,N","020000,1,N,1","+0130,1","+0054,1","10015,1",,,,,,,,"07,99,1,07,1,04,1,00800,1,00,1,00,1",,,,,"99999,9,10007,1","7,1,043,1,+999,9",,"SYN076AAXX  13154 08014 42570 72402 10130 20054 30007 40015 57043 87400 333 92437;",
"08014099999","2010-01-13T18:00:00","4","43.5666666","-5.7","6.0","GIJON MUSEL, SP","FM-12","99999","V020","999,9,C,0000,1","00750,1,9,N","010000,1,N,1","+0112,1","+0084,1","09989,1","12,0010,9,1",,,"6,1,06,1","2,1,06,1",,,"08,99,1,08,1,07,1,00800,1,99,9,99,9",,,,"120,M,+0130,1","99999,9,09981,1","7,1,026,1,+999,9","60,1","SYN094AAXX  13184 08014 11560 80000 10112 20084 39981 49989 57026 60012 76062 887// 333 10130 92436;",
"08014099999","2010-01-14T06:00:00","4","43.5666666","-5.7","6.0","GIJON MUSEL, SP","FM-12","99999","V020","060,1,N,0031,1","00750,1,9,N","002000,1,N,1","+0102,1","+0081,1","09967,1","12,0170,9,1","24,0185,9,1",,"8,1,06,1","8,1,06,1",,,"08,99,1,07,1,02,1,00800,1,06,1,99,9","0000,9","11,9","999,+0050,9","999,N,+0080,1","99999,9,09959,1","3,1,099,2,+999,9","81,1","SYN112AAXX  14064 08014 11520 80606 10102 20081 39959 49967 53099 60172 78188 8726/ 333 20080 32005 50204 55000 70186;","Q01+000992APC3  "
"08014099999","2010-01-14T09:00:00","4","43.5666666","-5.7","6.0","GIJON MUSEL, SP","FM-12","99999","V020","140,1,N,0015,1","00750,1,9,N","004000,1,N,1","+0092,1","+0052,1","10049,1",,,,"8,1,03,1","6,1,03,1",,,"08,99,1,08,1,07,1,00800,1,99,9,99,9",,,,,"99999,9,10041,1","2,1,082,1,+999,9","61,1","SYN082AAXX  14094 08014 41540 81403 10092 20052 30041 40049 52082 76186 887// 333 92445;",
"08014099999","2010-01-14T12:00:00","4","43.5666666","-5.7","6.0","GIJON MUSEL, SP","FM-12","99999","V020","190,1,N,0015,1","00750,1,9,N","010000,1,N,1","+0096,1","+0056,1","10095,1","06,0140,9,1",,,"8,1,06,1","8,1,06,1",,,"07,99,1,06,1,02,1,00800,1,06,1,00,1",,,,,"99999,9,10087,1","2,1,046,1,+999,9","25,1","SYN088AAXX  14124 08014 11560 71903 10096 20056 30087 40095 52046 60141 72588 86260 333 92447;",
"08014099999","2010-01-14T15:00:00","4","43.5666666","-5.7","6.0","GIJON MUSEL, SP","FM-12","99999","V020","190,1,N,0026,1","03600,1,9,N","015000,1,N,1","+0110,1","+0064,1","10120,1",,,,"8,1,03,1","2,1,03,1","03,1,+00630,1,09,1",,"05,99,1,04,1,09,1,00800,1,06,1,03,1",,,,,"99999,9,10112,1","2,1,025,1,+999,9","25,1","SYN088AAXX  14154 08014 41565 51905 10110 20064 30112 40120 52025 72582 84963 333 83921 92447;",
"08014099999","2010-01-14T18:00:00","4","43.5666666","-5.7","6.0","GIJON MUSEL, SP","FM-12","99999","V020","210,1,N,0015,1","22000,1,9,N","020000,1,N,1","+0106,1","+0054,1","10152,1","12,0150,9,1",,,"8,1,06,1","1,1,06,1","01,1,+00690,1,09,1",,"04,99,1,03,1,09,1,00800,1,06,1,03,1",,,,"120,M,+0122,1","99999,9,10144,1","2,1,032,1,+999,9","02,1","SYN100AAXX  14184 08014 11570 42103 10106 20054 30144 40152 52032 60152 70281 83963 333 10122 81923 92447;",
"08014099999","2010-01-15T06:00:00","4","43.5666666","-5.7","6.0","GIJON MUSEL, SP","FM-12","99999","V020","220,1,N,0031,1","03600,1,9,N","020000,1,N,1","+0080,1","+0023,1","10194,1","12,0000,9,1","24,0145,9,1",,,,,,"05,99,1,03,1,08,1,00800,1,06,1,00,1","0180,9","09,9","999,+0070,9","999,N,+0074,1","99999,9,10186,1","8,1,005,1,+999,9",,"SYN106AAXX  15064 08014 12570 52206 10080 20023 30186 40194 58005 60002 83860 333 20074 31007 50264 55030 70146;","Q01  00002PRCP12"
"08014099999","2010-01-15T09:00:00","4","43.5666666","-5.7","6.0","GIJON MUSEL, SP","FM-12","99999","V020","230,1,N,0041,1","03600,1,9,N","015000,1,N,1","+0080,1","+0016,1","10201,1",,,,,,,,"06,99,1,04,1,05,1,00800,1,08,1,01,1",,,,,"99999,9,10193,1","3,1,007,1,+999,9",,"SYN076AAXX  15094 08014 42565 62308 10080 20016 30193 40201 53007 84581 333 92437;",
"08014099999","2010-01-15T12:00:00","4","43.5666666","-5.7","6.0","GIJON MUSEL, SP","FM-12","99999","V020","190,1,N,0015,1","03600,1,9,N","020000,1,N,1","+0124,1","+0034,1","10186,1","06,0000,9,1",,,,,,,"06,99,1,04,1,05,1,00800,1,03,1,08,1",,,,,"99999,9,10178,1","8,1,015,1,+999,9",,"SYN082AAXX  15124 08014 12570 61903 10124 20034 30178 40186 58015 60001 84538 333 92436;","Q01  00002PRCP06"
"08014099999","2010-01-15T15:00:00","4","43.5666666","-5.7","6.0","GIJON MUSEL, SP","FM-12","99999","V020","999,9,C,0000,1","99999,9,9,N","020000,1,N,1","+0122,1","+0067,1","10156,1",,,,,,,,"06,99,1,06,1,00,1,01250,1,07,1,08,1",,,,,"99999,9,10148,1","7,1,030,1,+999,9",,"SYN076AAXX  15154 08014 42670 60000 10122 20067 30148 40156 57030 86078 333 92437;",
"08014099999","2010-01-15T18:00:00","4","43.5666666","-5.7","6.0","GIJON MUSEL, SP","FM-12","99999","V020","999,9,C,0000,1","03600,1,9,N","015000,1,N,1","+0116,1","+0079,1","10153,1","12,0000,9,1",,,,,,,"06,99,1,04,1,05,1,00800,1,07,1,08,1",,,,"120,M,+0124,1","99999,9,10145,1","6,1,003,1,+999,9",,"SYN088AAXX  15184 08014 12565 60000 10116 20079 30145 40153 56003 60002 84578 333 10124 92437;","Q01  00002PRCP12"
"08014099999","2010-01-16T06:00:00","4","43.5666666","-5.7","6.0","GIJON MUSEL, SP","FM-12","99999","V020","210,1,N,0041,1","01200,1,9,N","015000,1,N,1","+0172,1","+0052,1","10103,1","12,0000,9,1","24,0000,9,1",,,,,,"06,99,1,05,1,08,1,00800,1,05,1,00,1","0222,9","01,9","999,+0080,9","999,N,+0106,1","99999,9,10095,1","5,1,005,1,+999,9","02,1","SYN112AAXX  16064 08014 11565 62108 10172 20052 30095 40103 55005 60002 702// 85850 333 20106 30008 50344 55037 79999;","Q01  00002PRCP24Q02  00002PRCP12"
"08014099999","2010-01-16T09:00:00","4","43.5666666","-5.7","6.0","GIJON MUSEL, SP","FM-12","99999","V020","220,1,N,0041,1","01200,1,9,N","030000,1,N,1","+0176,1","+0068,1","10112,1",,,,,,,,"08,99,1,06,1,08,1,00800,1,05,1,99,9",,,,,"99999,9,10104,1","2,1,009,1,+999,9",,"SYN076AAXX  16094 08014 42580 82208 10176 20068 30104 40112 52009 8685/ 333 92428;",
"08014099999","2010-01-16T12:00:00","4","43.5666666","-5.7","6.0","GIJON MUSEL, SP","FM-12","99999","V020","230,1,N,0021,1","00420,1,9,N","008000,1,N,1","+0142,1","+0124,1","10143,1","06,0020,9,1",,,"6,1,06,1","6,1,06,1",,,"08,99,1,06,1,07,1,00450,1,01,1,99,9",,,,,"99999,9,10135,1","2,1,031,1,+999,9","61,1","SYN088AAXX  16124 08014 11458 82304 10142 20124 30135 40143 52031 60021 76166 8671/ 333 92427;",
"08014099999","2010-01-16T15:00:00","4","43.5666666","-5.7","6.0","GIJON MUSEL, SP","FM-12","99999","V020","250,1,N,0021,1","01200,1,9,N","020000,1,N,1","+0162,1","+0079,1","10135,1",,,,,,,,"08,99,1,06,1,08,1,00800,1,01,1,99,9",,,,,"99999,9,10127,1","6,1,008,1,+999,9",,"SYN076AAXX  16154 08014 42570 82504 10162 20079 30127 40135 56008 8681/ 333 92438;",
"08014099999","2010-01-16T18:00:00","4","43.5666666","-5.7","6.0","GIJON MUSEL, SP","FM-12","99999","V020","230,1,N,0026,1","01200,1,9,N","020000,1,N,1","+0164,1","+0071,1","10156,1","12,0020,9,1",,,"6,1,06,1","6,1,06,1",,,"08,99,1,05,1,08,1,00800,1,01,1,99,9",,,,"120,M,+0176,1","99999,9,10148,1","2,1,021,1,+999,9","02,1","SYN094AAXX  16184 08014 11570 82305 10164 20071 30148 40156 52021 60022 70266 8581/ 333 10176 92427;",
"08014099999","2010-01-17T06:00:00","4","43.5666666","-5.7","6.0","GIJON MUSEL, SP","FM-12","99999","V020","180,1,N,0010,1","00900,1,9,N","015000,1,N,1","+0108,1","+0087,1","10223,1","12,0020,9,1","24,0048,9,1",,,,,,"08,99,1,05,1,08,1,00450,1,05,1,99,9","0000,9","11,9","999,+0090,9","999,N,+0103,1","99999,9,10215,1","3,1,002,1,+999,9","02,1","SYN112AAXX  17064 08014 11465 81802 10108 20087 30215 40223 53002 60022 702// 8585/ 333 20103 32009 50354 55000 70047;",
"08014099999","2010-01-17T09:00:00","4","43.5666666","-5.7","6.0","GIJON MUSEL, SP","FM-12","99999","V020","999,9,C,0000,1","01200,1,9,N","020000,1,N,1","+0104,1","+0083,1","10235,1",,,,,,,,"08,99,1,05,1,08,1,00800,1,01,1,99,9",,,,,"99999,9,10227,1","2,1,012,1,+999,9",,"SYN076AAXX  17094 08014 42570 80000 10104 20083 30227 40235 52012 8581/ 333 92428;",
"08014099999","2010-01-17T12:00:00","4","43.5666666","-5.7","6.0","GIJON MUSEL, SP","FM-12","99999","V020","999,9,C,0000,1","03600,1,9,N","015000,1,N,1","+0122,1","+0085,1","10244,1","06,0000,9,1",,,,,,,"08,99,1,03,1,08,1,00450,1,01,1,99,9",,,,,"99999,9,10236,1","0,1,009,1,+999,9",,"SYN082AAXX  17124 08014 12465 80000 10122 20085 30236 40244 50009 60001 8381/ 333 92427;","Q01  00002PRCP06"
"08014099999","2010-01-17T15:00:00","4","43.5666666","-5.7","6.0","GIJON MUSEL, SP","FM-12","99999","V020","080,1,N,0031,1","03600,1,9,N","015000,1,N,1","+0122,1","+0103,1","10233,1",,,,,,,,"08,99,1,03,1,04,1,00800,1,01,1,99,9",,,,,"99999,9,10225,1","7,1,011,1,+999,9",,"SYN076AAXX  17154 08014 42565 80806 10122 20103 30225 40233 57011 8341/ 333 92427;",
"08014099999","2010-01-17T18:00:00","4","43.5666666","-5.7","6.0","GIJON MUSEL, SP","FM-12","99999","V020","090,1,N,0021,1","03600,1,9,N","020000,1,N,1","+0122,1","+0094,1","10229,1","12,0000,9,1",,,,,,,"08,99,1,02,1,04,1,00800,1,07,1,99,9",,,,"120,M,+0126,1","99999,9,10221,1","6,1,004,1,+999,9",,"SYN088AAXX  17184 08014 12570 80904 10122 20094 30221 40229 56004 60002 8247/ 333 10126 92427;","Q01  00002PRCP12"
"08014099999","2010-01-18T06:00:00","4","43.5666666","-5.7","6.0","GIJON MUSEL, SP","FM-12","99999","V020","090,1,N,0021,1","03600,1,9,N","013000,1,N,1","+0090,1","+0078,1","10187,1","12,0000,9,1","24,0000,9,1",,,,,,"08,99,1,04,1,04,1,00450,1,07,1,99,9","0000,9","09,9","999,+0080,9","999,N,+0088,1","99999,9,10179,1","7,1,011,1,+999,9","02,1","SYN112AAXX  18064 08014 11463 80904 10090 20078 30179 40187 57011 60002 702// 8447/ 333 20088 31008 50104 55000 70000;","Q01  00002PRCP24Q02  00002PRCP12"
"08014099999","2010-01-18T09:00:00","4","43.5666666","-5.7","6.0","GIJON MUSEL, SP","FM-12","99999","V020","999,9,C,0000,1","22000,1,9,N","020000,1,N,1","+0092,1","+0075,1","10185,1",,,,,,,,"05,99,1,02,1,04,1,00800,1,05,1,09,1",,,,,"99999,9,10177,1","7,1,002,1,+999,9",,"SYN076AAXX  18094 08014 42570 50000 10092 20075 30177 40185 57002 82459 333 92438;",
"08014099999","2010-01-18T12:00:00","4","43.5666666","-5.7","6.0","GIJON MUSEL, SP","FM-12","99999","V020","100,1,N,0010,1","22000,1,9,N","020000,1,N,1","+0130,1","+0094,1","10171,1","06,0000,9,1",,,,,,,"02,99,1,01,1,04,1,00800,1,03,1,00,1",,,,,"99999,9,10163,1","7,1,014,1,+999,9",,"SYN082AAXX  18124 08014 12570 21002 10130 20094 30163 40171 57014 60001 81430 333 92438;","Q01  00002PRCP06"
"08014099999","2010-01-18T15:00:00","4","43.5666666","-5.7","6.0","GIJON MUSEL, SP","FM-12","99999","V020","080,1,N,0021,1","03600,1,C,N","030000,1,N,1","+0132,1","+0106,1","10153,1",,,,,,,,"06,99,1,02,1,04,1,00800,1,05,1,99,9",,,,,"99999,9,10145,1","7,1,018,1,+999,9",,"SYN076AAXX  18154 08014 42580 60804 10132 20106 30145 40153 57018 8245/ 333 92438;",
"08014099999","2010-01-18T18:00:00","4","43.5666666","-5.7","6.0","GIJON MUSEL, SP","FM-12","99999","V020","030,1,N,0010,1","22000,1,9,N","015000,1,N,1","+0122,1","+0099,1","10160,1","12,0000,9,1",,,,,,,"03,99,1,03,1,04,1,00800,1,00,1,00,1",,,,"120,M,+0136,1","99999,9,10152,1","2,1,007,1,+999,9",,"SYN088AAXX  18184 08014 12565 30302 10122 20099 30152 40160 52007 60002 83400 333 10136 92428;","Q01  00002PRCP12"
"08014099999","2010-01-19T06:00:00","4","43.5666666","-5.7","6.0","GIJON MUSEL, SP","FM-12","99999","V020","999,9,C,0000,1","22000,1,9,N","020000,1,N,1","+0124,1","+0079,1","10125,1","12,0000,9,1","24,0000,9,1",,,,,,"04,99,1,04,1,04,1,00800,1,00,1,00,1","0414,9","09,9","999,+0080,9","999,N,+0096,1","99999,9,10117,1","6,1,006,1,+999,9","02,1","SYN112AAXX  19064 08014 11570 40000 10124 20079 30117 40125 56006 60002 702// 84400 333 20096 31008 50074 55069 70000;","Q01  00002PRCP24Q02  00002PRCP12"
"08014099999","2010-01-19T09:00:00","4","43.5666666","-5.7","6.0","GIJON MUSEL, SP","FM-12","99999","V020","230,1,N,0026,1","03600,1,9,N","020000,1,N,1","+0136,1","+0074,1","10128,1",,,,,,,,"07,99,1,04,1,04,1,00800,1,05,1,99,9",,,,,"99999,9,10120,1","3,1,003,1,+999,9",,"SYN076AAXX  19094 08014 42570 72305 10136 20074 30120 40128 53003 8445/ 333 92428;",
"08014099999","2010-01-19T12:00:00","4","43.5666666","-5.7","6.0","GIJON MUSEL, SP","FM-12","99999","V020","120,1,N,0010,1","03600,1,9,N","015000,1,N,1","+0146,1","+0104,1","10141,1","06,0000,9,1",,,,,,,"06,99,1,03,1,04,1,00450,1,03,1,00,1",,,,,"99999,9,10133,1","2,1,013,1,+999,9",,"SYN082AAXX  19124 08014 12465 61202 10146 20104 30133 40141 52013 60001 83430 333 92428;","Q01  00002PRCP06"
"08014099999","2010-01-19T15:00:00","4","43.5666666","-5.7","6.0","GIJON MUSEL, SP","FM-12","99999","V020","040,1,N,0015,1","03600,1,9,N","030000,1,N,1","+0154,1","+0108,1","10140,1",,,,,,,,"06,99,1,03,1,02,1,00800,1,06,1,00,1",,,,,"99999,9,10132,1","7,1,001,1,+999,9",,"SYN076AAXX  19154 08014 42580 60403 10154 20108 30132 40140 57001 83260 333 92428;",
"08014099999","2010-01-19T18:00:00","4","43.5666666","-5.7","6.0","GIJON MUSEL, SP","FM-12","99999","V020","999,9,C,0000,1","03600,1,9,N","015000,1,N,1","+0134,1","+0111,1","10149,1","12,0000,9,1",,,,,,,"05,99,1,02,1,08,1,00800,1,03,1,00,1",,,,"120,M,+0167,1","99999,9,10141,1","2,1,009,1,+999,9",,"SYN088AAXX  19184 08014 12565 50000 10134 20111 30141 40149 52009 60002 82830 333 10167 92428;","Q01  00002PRCP12"
"08014099999","2010-01-20T06:00:00","4","43.5666666","-5.7","6.0","GIJON MUSEL, SP","FM-12","99999","V020","190,1,N,0010,1","22000,1,9,N","015000,1,N,1","+0102,1","+0064,1","10172,1","12,0020,9,1","24,0020,9,1",,,,,,"03,99,1,03,1,04,1,00800,1,00,1,00,1","0228,9","11,9","999,+0070,9","999,N,+0090,1","99999,9,10164,1","2,1,006,1,+999,9","02,1","SYN112AAXX  20064 08014 11565 31902 10102 20064 30164 40172 52006 60022 702// 83400 333 20090 32007 50164 55038 70020;",
"08014099999","2010-01-20T09:00:00","4","43.5666666","-5.7","6.0","GIJON MUSEL, SP","FM-12","99999","V020","200,1,N,0021,1","22000,1,9,N","009000,1,N,1","+0092,1","+0052,1","10182,1",,,,"4,1,03,1","0,1,03,1",,,"03,99,1,01,1,06,1,00450,1,03,1,00,1",,,,,"99999,9,10174,1","2,1,010,1,+999,9","10,1","SYN082AAXX  20094 08014 41459 32004 10092 20052 30174 40182 52010 71040 81630 333 92428;",
"08014099999","2010-01-20T12:00:00","4","43.5666666","-5.7","6.0","GIJON MUSEL, SP","FM-12","99999","V020","220,1,N,0031,1","03600,1,9,N","020000,1,N,1","+0136,1","+0055,1","10192,1","06,9999,9,9",,,"2,1,06,1","2,1,06,1",,,"08,99,1,03,1,02,1,00800,1,01,1,99,9",,,,,"99999,9,10184,1","2,1,010,1,+999,9","60,1","SYN088AAXX  20124 08014 11570 82206 10136 20055 30184 40192 52010 69901 76022 8321/ 333 92438;","Q01  00002PRCP06Q02  00002PRCP06"
"08014099999","2010-01-20T18:00:00","4","43.5666666","-5.7","6.0","GIJON MUSEL, SP","FM-12","99999","V020","200,1,N,0010,1","01200,1,9,N","020000,1,N,1","+0122,1","+0071,1","10212,1","12,0000,2,1",,,,,,,"08,99,1,05,1,08,1,00800,1,05,1,99,9",,,,"120,M,+0142,1","99999,9,10204,1","2,1,010,1,+999,9",,"SYN088AAXX  20184 08014 12570 82002 10122 20071 30204 40212 52010 69902 8585/ 333 10142 92428;",
"08014099999","2010-01-21T06:00:00","4","43.5666666","-5.7","6.0","GIJON MUSEL, SP","FM-12","99999","V020","230,1,N,0036,1","03600,1,9,N","020000,1,N,1","+0096,1","+0042,1","10204,1","12,0000,9,1","24,0000,2,1",,,,,,"06,99,1,04,1,04,1,00800,1,03,1,99,9","0216,9","09,9","999,+0080,9","999,N,+0088,1","99999,9,10196,1","7,1,005,1,+999,9","02,1","SYN112AAXX  21064 08014 11570 62307 10096 20042 30196 40204 57005 60002 702// 8443/ 333 20088 31008 50324 55036 79999;","Q01  00002PRCP12"
"08014099999","2010-01-21T09:00:00","4","43.5666666","-5.7","6.0","GIJON MUSEL, SP","FM-12","99999","V020","230,1,N,0015,1","03600,1,9,N","020000,1,N,1","+0102,1","+0037,1","10208,1",,,,,,,,"08,99,1,03,1,04,1,00800,1,05,1,99,9",,,,,"99999,9,10200,1","2,1,004,1,+999,9",,"SYN076AAXX  21094 08014 42570 82303 10102 20037 30200 40208 52004 8345/ 333 92438;",
"08014099999","2010-01-21T12:00:00","4","43.5666666","-5.7","6.0","GIJON MUSEL, SP","FM-12","99999","V020","230,1,N,0021,1","03600,1,9,N","015000,1,N,1","+0124,1","+0051,1","10198,1","06,0000,9,1",,,,,,,"07,99,1,03,1,06,1,00450,1,05,1,99,9",,,,,"99999,9,10190,1","7,1,010,1,+999,9",,"SYN082AAXX  21124 08014 12465 72304 10124 20051 30190 40198 57010 60001 8365/ 333 92428;","Q01  00002PRCP06"
"08014099999","2010-01-21T15:00:00","4","43.5666666","-5.7","6.0","GIJON MUSEL, SP","FM-12","99999","V020","110,1,N,0010,1","03600,1,C,N","020000,1,N,1","+0134,1","+0087,1","10183,1",,,,,,,,"06,99,1,02,1,04,1,00800,1,05,1,99,9",,,,,"99999,9,10175,1","7,1,015,1,+999,9",,"SYN076AAXX  21154 08014 42570 61102 10134 20087 30175 40183 57015 8245/ 333 92428;",
"08014099999","2010-01-21T18:00:00","4","43.5666666","-5.7","6.0","GIJON MUSEL, SP","FM-12","99999","V020","999,9,C,0000,1","03600,1,9,N","020000,1,N,1","+0120,1","+0083,1","10184,1","12,0000,9,1",,,,,,,"07,99,1,01,1,04,1,00800,1,05,1,09,1",,,,"120,M,+0153,1","99999,9,10176,1","2,1,001,1,+999,9",,"SYN088AAXX  21184 08014 12570 70000 10120 20083 30176 40184 52001 60002 81459 333 10153 92428;","Q01  00002PRCP12"
"08014099999","2010-01-22T06:00:00","4","43.5666666","-5.7","6.0","GIJON MUSEL, SP","FM-12","99999","V020","210,1,N,0026,1","03600,1,9,N","015000,1,N,1","+0122,1","+0073,1","10174,1","12,9999,9,9","24,0003,9,1",,,,,,"08,99,1,04,1,07,1,00800,1,01,1,99,9","0216,9","11,9","999,+0080,9","999,N,+0095,1","99999,9,10166,1","0,1,005,1,+999,9","61,1","SYN112AAXX  22064 08014 11565 82105 10122 20073 30166 40174 50005 69922 761// 8471/ 333 20095 32008 50264 55036 70002;","Q01  00002PRCP12Q02  00002PRCP12"
"08014099999","2010-01-22T09:00:00","4","43.5666666","-5.7","6.0","GIJON MUSEL, SP","FM-12","99999","V020","240,1,N,0010,1","03600,1,9,N","020000,1,N,1","+0120,1","+0088,1","10181,1",,,,"6,1,03,1","2,1,03,1",,,"08,99,1,04,1,08,1,00800,1,01,1,99,9",,,,,"99999,9,10173,1","2,1,007,1,+999,9","02,1","SYN082AAXX  22094 08014 41570 82402 10120 20088 30173 40181 52007 70262 8481/ 333 92428;",
"08014099999","2010-01-22T12:00:00","4","43.5666666","-5.7","6.0","GIJON MUSEL, SP","FM-12","99999","V020","200,1,N,0021,1","03600,1,9,N","020000,1,N,1","+0160,1","+0094,1","10173,1","06,0005,9,1",,,"6,1,06,1","2,1,06,1",,,"08,99,1,03,1,08,1,00800,1,01,1,99,9",,,,,"99999,9,10165,1","8,1,008,1,+999,9","02,1","SYN088AAXX  22124 08014 11570 82004 10160 20094 30165 40173 58008 69951 70262 8381/ 333 92428;",
"08014099999","2010-01-22T15:00:00","4","43.5666666","-5.7","6.0","GIJON MUSEL, SP","FM-12","99999","V020","360,1,N,0010,1","03600,1,9,N","015000,1,N,1","+0144,1","+0112,1","10167,1",,,,"2,1,03,1","2,1,03,1",,,"08,99,1,04,1,04,1,00450,1,01,1,99,9",,,,,"99999,9,10159,1","7,1,006,1,+999,9","60,1","SYN082AAXX  22154 08014 41465 83602 10144 20112 30159 40167 57006 76022 8441/ 333 92428;",
"08014099999","2010-01-22T18:00:00","4","43.5666666","-5.7","6.0","GIJON MUSEL, SP","FM-12","99999","V020","230,1,N,0015,1","03600,1,9,N","008000,1,N,1","+0132,1","+0118,1","10183,1","12,0008,9,1",,,"6,1,06,1","2,1,06,1",,,"08,99,1,04,1,07,1,00450,1,01,1,99,9",,,,"120,M,+0167,1","99999,9,10175,1","2,1,016,1,+999,9","61,1","SYN094AAXX  22184 08014 11458 82303 10132 20118 30175 40183 52016 69972 76162 8471/ 333 10167 92427;",
"08014099999","2010-01-23T06:00:00","4","43.5666666","-5.7","6.0","GIJON MUSEL, SP","FM-12","99999","V020","999,9,C,0000,1","00420,1,9,N","008000,1,N,1","+0110,1","+0098,1","10162,1","12,0010,9,1","24,0025,9,1",,,,,,"08,99,1,05,1,07,1,00450,1,01,1,99,9","0000,9","11,9","999,+0100,9","999,N,+0107,1","99999,9,10154,1","7,1,003,1,+999,9","50,1","SYN112AAXX  23064 08014 11458 80000 10110 20098 30154 40162 57003 60012 750// 8571/ 333 20107 32010 50054 55000 70025;",
"08014099999","2010-01-23T09:00:00","4","43.5666666","-5.7","6.0","GIJON MUSEL, SP","FM-12","99999","V020","999,9,C,0000,1","00420,1,9,N","004000,1,N,1","+0098,1","+0090,1","10163,1",,,,"4,1,03,1","2,1,03,1",,,"08,99,1,06,1,07,1,00450,1,01,1,99,9",,,,,"99999,9,10155,1","2,1,001,1,+999,9","10,1","SYN082AAXX  23094 08014 41440 80000 10098 20090 30155 40163 52001 71042 8671/ 333 92427;",
"08014099999","2010-01-23T12:00:00","4","43.5666666","-5.7","6.0","GIJON MUSEL, SP","FM-12","99999","V020","999,9,C,0000,1","01200,1,9,N","015000,1,N,1","+0128,1","+0109,1","10166,1","06,0030,9,1",,,"5,1,06,1","4,1,06,1",,,"08,99,1,05,1,08,1,00800,1,01,1,99,9",,,,,"99999,9,10158,1","2,1,003,1,+999,9","02,1","SYN088AAXX  23124 08014 11565 80000 10128 20109 30158 40166 52003 60031 70254 8581/ 333 92427;",
"08014099999","2010-01-23T15:00:00","4","43.5666666","-5.7","6.0","GIJON MUSEL, SP","FM-12","99999","V020","060,1,N,0015,1","00900,1,9,N","015000,1,N,1","+0128,1","+0102,1","10155,1",,,,,,,,"08,99,1,99,9,08,1,00450,1,07,1,99,9",,,,,"99999,9,10147,1","6,1,011,1,+999,9",,"SYN076AAXX  23154 08014 42465 80603 10128 20102 30147 40155 56011 8887/ 333 92427;","Q01+000082SCOTLC"
"08014099999","2010-01-23T18:00:00","4","43.5666666","-5.7","6.0","GIJON MUSEL, SP","FM-12","99999","V020","060,1,N,0015,1","00420,1,9,N","010000,1,N,1","+0122,1","+0103,1","10171,1","12,0000,2,1",,,"5,1,06,1","5,1,06,1",,,"08,99,1,05,1,07,1,00450,1,01,1,99,9",,,,"120,M,+0132,1","99999,9,10163,1","2,1,016,1,+999,9","51,1","SYN094AAXX  23184 08014 11460 80603 10122 20103 30163 40171 52016 69922 75155 8571/ 333 10132 92427;",
"08014099999","2010-01-24T06:00:00","4","43.5666666","-5.7","6.0","GIJON MUSEL, SP","FM-12","99999","V020","040,1,N,0021,1","00420,1,9,N","003000,1,N,1","+0106,1","+0094,1","10236,1","12,0071,9,1","24,0076,9,1",,"8,1,06,1","2,1,06,1",,,"08,99,1,08,1,07,1,00450,1,99,9,99,9","0000,9","11,9","999,+0090,9","999,N,+0104,1","99999,9,10228,1","2,1,017,1,+999,9","60,1","SYN112AAXX  24064 08014 11430 80404 10106 20094 30228 40236 52017 60072 76082 887// 333 20104 32009 50264 55000 70077;",
"08014099999","2010-01-24T09:00:00","4","43.5666666","-5.7","6.0","GIJON MUSEL, SP","FM-12","99999","V020","030,1,N,0041,1","00750,1,9,N","015000,1,N,1","+0114,1","+0071,1","10260,1",,,,"6,1,03,1","2,1,03,1",,,"06,99,1,06,1,02,1,00800,1,06,1,00,1",,,,,"99999,9,10252,1","2,1,024,1,+999,9","02,1","SYN082AAXX  24094 08014 41565 60308 10114 20071 30252 40260 52024 70262 86260 333 92447;",
"08014099999","2010-01-24T12:00:00","4","43.5666666","-5.7","6.0","GIJON MUSEL, SP","FM-12","99999","V020","040,1,N,0041,1","03600,1,9,N","030000,1,N,1","+0114,1","+0063,1","10276,1","06,0000,2,1",,,"6,1,06,1","2,1,06,1",,,"05,99,1,04,1,02,1,00800,1,06,1,01,1",,,,,"99999,9,10268,1","1,1,016,1,+999,9","02,1","SYN088AAXX  24124 08014 11580 50408 10114 20063 30268 40276 51016 69921 70262 84261 333 92448;",
"08014099999","2010-01-24T15:00:00","4","43.5666666","-5.7","6.0","GIJON MUSEL, SP","FM-12","99999","V020","040,1,N,0031,1","01200,1,9,N","030000,1,N,1","+0114,1","+0057,1","10282,1",,,,,,,,"06,99,1,06,1,08,1,00800,1,06,1,00,1",,,,,"99999,9,10274,1","3,1,006,1,+999,9",,"SYN076AAXX  24154 08014 42580 60406 10114 20057 30274 40282 53006 86860 333 92448;",
"08014099999","2010-01-24T18:00:00","4","43.5666666","-5.7","6.0","GIJON MUSEL, SP","FM-12","99999","V020","040,1,N,0021,1","22000,1,9,N","030000,1,N,1","+0104,1","+0034,1","10291,1","12,0000,2,1",,,,,,,"03,99,1,02,1,08,1,00800,1,04,1,01,1",,,,"120,M,+0116,1","99999,9,10283,1","3,1,009,1,+999,9",,"SYN088AAXX  24184 08014 12580 30404 10104 20034 30283 40291 53009 69922 82841 333 10116 92448;",
"08014099999","2010-01-25T06:00:00","4","43.5666666","-5.7","6.0","GIJON MUSEL, SP","FM-12","99999","V020","220,1,N,0021,1","03600,1,9,N","020000,1,N,1","+0068,1","+0045,1","10291,1","12,0020,9,1","24,0023,9,1",,"6,1,06,1",,,,"05,99,1,04,1,02,1,00800,1,06,1,01,1","0192,9","11,9","999,+0050,9","999,N,+0062,1","99999,9,10283,1","6,1,007,1,+999,9","21,1","SYN112AAXX  25064 08014 11570 52204 10068 20045 30283 40291 56007 60022 7216/ 84261 333 20062 32005 50274 55032 70022;",
"08014099999","2010-01-25T09:00:00","4","43.5666666","-5.7","6.0","GIJON MUSEL, SP","FM-12","99999","V020","220,1,N,0031,1","22000,1,9,N","020000,1,N,1","+0072,1","+0043,1","10294,1",,,,"6,1,03,1","1,1,03,1",,,"02,99,1,02,1,02,1,00800,1,06,1,00,1",,,,,"99999,9,10286,1","0,1,003,1,+999,9","01,1","SYN082AAXX  25094 08014 41570 22206 10072 20043 30286 40294 50003 70161 82260 333 92447;",
"08014099999","2010-01-25T12:00:00","4","43.5666666","-5.7","6.0","GIJON MUSEL, SP","FM-12","99999","V020","220,1,N,0015,1","03600,1,9,N","020000,1,N,1","+0102,1","+0054,1","10287,1","06,0003,9,1",,,"6,1,06,1","1,1,06,1",,,"05,99,1,04,1,02,1,00800,1,06,1,01,1",,,,,"99999,9,10279,1","8,1,007,1,+999,9","02,1","SYN088AAXX  25124 08014 11570 52203 10102 20054 30279 40287 58007 69931 70261 84261 333 92447;",
"08014099999","2010-01-25T15:00:00","4","43.5666666","-5.7","6.0","GIJON MUSEL, SP","FM-12","99999","V020","999,9,C,0000,1","01200,1,9,N","020000,1,N,1","+0104,1","+0050,1","10257,1",,,,,,,,"06,99,1,05,1,08,1,00800,1,06,1,00,1",,,,,"99999,9,10249,1","7,1,030,1,+999,9",,"SYN076AAXX  25154 08014 42570 60000 10104 20050 30249 40257 57030 85860 333 92447;",
"08014099999","2010-01-25T18:00:00","4","43.5666666","-5.7","6.0","GIJON MUSEL, SP","FM-12","99999","V020","240,1,N,0010,1","00750,1,9,N","015000,1,N,1","+0092,1","+0046,1","10251,1","12,0003,9,1",,,"6,1,06,1","2,1,06,1",,,"07,99,1,06,1,05,1,00800,1,07,1,00,1",,,,"120,M,+0112,1","99999,9,10243,1","6,1,006,1,+999,9","02,1","SYN094AAXX  25184 08014 11565 72402 10092 20046 30243 40251 56006 69932 70262 86570 333 10112 92447;",
"08014099999","2010-01-26T06:00:00","4","43.5666666","-5.7","6.0","GIJON MUSEL, SP","FM-12","99999","V020","110,1,N,0026,1","00750,1,9,N","020000,1,N,1","+0085,1","+0027,1","10288,1","12,0099,9,1","24,0102,9,1",,"8,1,06,1","2,1,06,1",,,"06,99,1,05,1,02,1,00800,1,06,1,00,1","0216,9","11,9","999,+0040,9","999,N,+0056,1","99999,9,10280,1","2,1,021,1,+999,9","02,1","SYN112AAXX  26064 08014 11570 61105 10085 20027 30280 40288 52021 60102 70282 85260 333 20056 32004 50214 55036 70101;",
"08014099999","2010-01-26T09:00:00","4","43.5666666","-5.7","6.0","GIJON MUSEL, SP","FM-12","99999","V020","120,1,N,0021,1","00750,1,9,N","015000,1,N,1","+0084,1","+0026,1","10311,1",,,,,,,,"07,99,1,06,1,02,1,00800,1,06,1,00,1",,,,,"99999,9,10303,1","2,1,023,1,+999,9",,"SYN076AAXX  26094 08014 42565 71204 10084 20026 30303 40311 52023 86260 333 92447;",
"08014099999","2010-01-26T12:00:00","4","43.5666666","-5.7","6.0","GIJON MUSEL, SP","FM-12","99999","V020","100,1,N,0026,1","01200,1,9,N","020000,1,N,1","+0096,1","+0036,1","10313,1","06,0000,9,1",,,,,,,"07,99,1,06,1,08,1,00800,1,06,1,00,1",,,,,"99999,9,10305,1","1,1,002,1,+999,9",,"SYN082AAXX  26124 08014 12570 71005 10096 20036 30305 40313 51002 60001 86860 333 92447;","Q01  00002PRCP06"
"08014099999","2010-01-26T18:00:00","4","43.5666666","-5.7","6.0","GIJON MUSEL, SP","FM-12","99999","V020","070,1,N,0036,1","01200,1,9,N","020000,1,N,1","+0094,1","+0034,1","10318,1","12,0000,9,1",,,,,,,"07,99,1,07,1,08,1,00800,1,07,1,00,1",,,,"120,M,+0100,1","99999,9,10310,1","3,1,006,1,+999,9",,"SYN088AAXX  26184 08014 12570 70707 10094 20034 30310 40318 53006 60002 87870 333 10100 92447;","Q01  00002PRCP12"
"08014099999","2010-01-27T06:00:00","4","43.5666666","-5.7","6.0","GIJON MUSEL, SP","FM-12","99999","V020","070,1,N,0041,1","22000,1,9,N","020000,1,N,1","+0082,1","+0007,1","10287,1","12,0000,9,1","24,0000,9,1",,,,,,"03,99,1,02,1,01,1,00800,1,03,1,00,1","0024,9","01,9","999,+0060,9","999,N,+0055,1","99999,9,10279,1","7,1,007,1,+999,9","02,1","SYN112AAXX  27064 08014 11570 30708 10082 20007 30279 40287 57007 60002 702// 82130 333 20055 30006 50364 55004 70000;","Q01  00002PRCP24Q02  00002PRCP12"
"08014099999","2010-01-27T09:00:00","4","43.5666666","-5.7","6.0","GIJON MUSEL, SP","FM-12","99999","V020","060,1,N,0026,1","01200,1,9,N","020000,1,N,1","+0078,1","+0001,1","10288,1",,,,,,,,"07,99,1,06,1,08,1,00800,1,03,1,00,1",,,,,"99999,9,10280,1","3,1,001,1,+999,9",,"SYN076AAXX  27094 08014 42570 70605 10078 20001 30280 40288 53001 86830 333 92437;",
"08014099999","2010-01-27T12:00:00","4","43.5666666","-5.7","6.0","GIJON MUSEL, SP","FM-12","99999","V020","060,1,N,0041,1","01200,1,9,N","015000,1,N,1","+0080,1","+0007,1","10292,1","06,0000,9,1",,,,,,,"06,99,1,05,1,08,1,00800,1,03,1,00,1",,,,,"99999,9,10284,1","2,1,004,1,+999,9",,"SYN082AAXX  27124 08014 12565 60608 10080 20007 30284 40292 52004 60001 85830 333 92437;","Q01  00002PRCP06"
"08014099999","2010-01-27T15:00:00","4","43.5666666","-5.7","6.0","GIJON MUSEL, SP","FM-12","99999","V020","070,1,N,0036,1","01200,1,9,N","008000,1,N,1","+0080,1","+0010,1","10286,1",,,,"2,1,03,1","2,1,03,1",,,"07,99,1,06,1,08,1,00800,1,03,1,00,1",,,,,"99999,9,10278,1","8,1,006,1,+999,9","05,1","SYN082AAXX  27154 08014 41558 70707 10080 20010 30278 40286 58006 70522 86830 333 92446;",
"08014099999","2010-01-27T18:00:00","4","43.5666666","-5.7","6.0","GIJON MUSEL, SP","FM-12","99999","V020","120,1,N,0021,1","01200,1,9,N","008000,1,N,1","+0072,1","+0017,1","10290,1","12,0000,9,1",,,"2,1,06,1","2,1,06,1",,,"07,99,1,06,1,08,1,00800,1,03,1,00,1",,,,"120,M,+0085,1","99999,9,10282,1","3,1,004,1,+999,9","05,1","SYN094AAXX  27184 08014 11558 71204 10072 20017 30282 40290 53004 60002 70522 86830 333 10085 92446;","Q01  00002PRCP12"
"08014099999","2010-01-28T06:00:00","4","43.5666666","-5.7","6.0","GIJON MUSEL, SP","FM-12","99999","V020","220,1,N,0041,1","03600,1,9,N","008000,1,N,1","+0032,1","+0004,1","10273,1","12,0000,9,1","24,0000,9,1",,,,,,"05,99,1,02,1,06,1,01250,1,01,1,00,1","0090,9","01,9","999,+0030,9","999,N,+0030,1","99999,9,10265,1","7,1,005,1,+999,9","10,1","SYN112AAXX  28064 08014 11658 52208 10032 20004 30265 40273 57005 60002 710// 82610 333 20030 30003 50354 55015 70000;","Q01  00002PRCP24Q02  00002PRCP12"
"08014099999","2010-01-28T09:00:00","4","43.5666666","-5.7","6.0","GIJON MUSEL, SP","FM-12","99999","V020","210,1,N,0031,1","01200,1,9,N","008000,1,N,1","+0035,1","-0007,1","10265,1",,,,"1,1,03,1","1,1,03,1",,,"06,99,1,05,1,08,1,00800,1,03,1,00,1",,,,,"99999,9,10257,1","7,1,008,1,+999,9","10,1","SYN082AAXX  28094 08014 41558 62106 10035 21007 30257 40265 57008 71011 85830 333 92436;",
"08014099999","2010-01-28T12:00:00","4","43.5666666","-5.7","6.0","GIJON MUSEL, SP","FM-12","99999","V020","210,1,N,0046,1","01200,1,9,N","008000,1,N,1","+0080,1","+0010,1","10251,1","06,0000,9,1",,,"1,1,06,1","1,1,06,1",,,"07,99,1,06,1,08,1,00800,1,03,1,00,1",,,,,"99999,9,10243,1","7,1,014,1,+999,9","05,1","SYN088AAXX  28124 08014 11558 72109 10080 20010 30243 40251 57014 60001 70511 86830 333 92436;","Q01  00002PRCP06"
"08014099999","2010-01-28T15:00:00","4","43.5666666","-5.7","6.0","GIJON MUSEL, SP","FM-12","99999","V020","210,1,N,0041,1","01200,1,9,N","015000,1,N,1","+0095,1","+0024,1","10216,1",,,,,,,,"08,99,1,08,1,06,1,01250,1,99,9,99,9",,,,,"99999,9,10208,1","7,1,035,1,+999,9",,"SYN076AAXX  28154 08014 42665 82108 10095 20024 30208 40216 57035 886// 333 92437;",
"08014099999","2010-01-28T18:00:00","4","43.5666666","-5.7","6.0","GIJON MUSEL, SP","FM-12","99999","V020","200,1,N,0046,1","99999,9,9,N","015000,1,N,1","+0098,1","+0048,1","10196,1","12,9999,9,9",,,"5,1,06,1","2,1,06,1",,,"08,99,1,08,1,00,1,01250,1,07,1,99,9",,,,"120,M,+0100,1","99999,9,10188,1","7,1,020,1,+999,9","50,1","SYN094AAXX  28184 08014 11665 82009 10098 20048 30188 40196 57020 60002 75052 8807/ 333 10100 92437;","Q01  00002PRCP12Q02  00002PRCP12"
"08014099999","2010-01-29T06:00:00","4","43.5666666","-5.7","6.0","GIJON MUSEL, SP","FM-12","99999","V020","220,1,N,0015,1","00750,1,9,N","015000,1,N,1","+0088,1","+0052,1","10127,1","12,0008,9,1","24,0008,9,1",,,,,,"08,99,1,06,1,07,1,00800,1,07,1,99,9","0048,9","11,9","999,+0070,9","999,N,+0088,1","99999,9,10119,1","7,1,020,1,+999,9","02,1","SYN112AAXX  29064 08014 11565 82203 10088 20052 30119 40127 57020 69982 702// 8677/ 333 20088 32007 50334 55008 70008;",
"08014099999","2010-01-29T09:00:00","4","43.5666666","-5.7","6.0","GIJON MUSEL, SP","FM-12","99999","V020","230,1,N,0041,1","00750,1,9,N","020000,1,N,1","+0094,1","+0063,1","10106,1",,,,,,,,"08,99,1,07,1,07,1,00800,1,99,9,99,9",,,,,"99999,9,10098,1","7,1,021,1,+999,9",,"SYN076AAXX  29094 08014 42570 82308 10094 20063 30098 40106 57021 877// 333 92437;",
"08014099999","2010-01-29T12:00:00","4","43.5666666","-5.7","6.0","GIJON MUSEL, SP","FM-12","99999","V020","200,1,N,0026,1","00420,1,9,N","008000,1,N,1","+0100,1","+0081,1","10094,1","06,0041,9,1",,,"8,1,06,1","2,1,06,1",,,"07,99,1,05,1,07,1,00450,1,07,1,00,1",,,,,"99999,9,10086,1","7,1,012,1,+999,9","81,1","SYN088AAXX  29124 08014 11458 72005 10100 20081 30086 40094 57012 60041 78182 85770 333 92436;",
"08014099999","2010-01-29T15:00:00","4","43.5666666","-5.7","6.0","GIJON MUSEL, SP","FM-12","99999","V020","120,1,N,0015,1","03600,1,9,N","015000,1,N,1","+0118,1","+0077,1","10078,1",,,,"6,1,03,1","2,1,03,1",,,"06,99,1,04,1,02,1,00450,1,06,1,00,1",,,,,"99999,9,10070,1","7,1,016,1,+999,9","02,1","SYN082AAXX  29154 08014 41465 61203 10118 20077 30070 40078 57016 70262 84260 333 92437;",
"08014099999","2010-01-29T18:00:00","4","43.5666666","-5.7","6.0","GIJON MUSEL, SP","FM-12","99999","V020","080,1,N,0015,1","00420,1,9,N","015000,1,N,1","+0100,1","+0074,1","10085,1","12,0089,9,1",,,"8,1,06,1","2,1,06,1",,,"08,99,1,05,1,02,1,00450,1,06,1,00,1",,,,"120,M,+0121,1","99999,9,10077,1","3,1,007,1,+999,9","25,1","SYN094AAXX  29184 08014 11465 80803 10100 20074 30077 40085 53007 60092 72582 85260 333 10121 92437;",
"08014099999","2010-01-30T06:00:00","4","43.5666666","-5.7","6.0","GIJON MUSEL, SP","FM-12","99999","V020","230,1,N,0046,1","00750,1,9,N","008000,1,N,1","+0086,1","+0069,1","10227,1","12,0030,9,1","24,0114,9,1",,"8,1,06,1","2,1,06,1",,,"07,99,1,07,1,02,1,00800,1,06,1,00,1","0066,9","11,9","999,+0060,9","999,N,+0075,1","99999,9,10219,1","6,1,009,1,+999,9","25,1","SYN112AAXX  30064 08014 11558 72309 10086 20069 30219 40227 56009 60032 72582 87260 333 20075 32006 50224 55011 70115;",
"08014099999","2010-01-30T09:00:00","4","43.5666666","-5.7","6.0","GIJON MUSEL, SP","FM-12","99999","V020","230,1,N,0036,1","00420,1,9,N","006000,1,N,1","+0088,1","+0066,1","99999,9",,,,"6,1,03,1","2,1,03,1",,,"08,99,1,08,1,07,1,00450,1,99,9,99,9",,,,,,"5,1,001,1,+999,9","50,1","SYN082AAXX  30094 08014 41456 82307 10088 20066 30084 40092 55001 75062 887// 333 92446;","Q01+100843APOSP "
"08014099999","2010-01-30T12:00:00","4","43.5666666","-5.7","6.0","GIJON MUSEL, SP","FM-12","99999","V020","210,1,N,0041,1","00420,1,9,N","003000,1,N,1","+0096,1","+0075,1","10089,1","06,0041,9,1",,,"8,1,06,1","8,1,06,1",,,"08,99,1,08,1,07,1,00450,1,99,9,99,9",,,,,"99999,9,10081,1","8,1,003,1,+999,9","80,1","SYN088AAXX  30124 08014 11430 82108 10096 20075 30081 40089 58003 60041 78088 887// 333 92445;",
"08014099999","2010-01-30T15:00:00","4","43.5666666","-5.7","6.0","GIJON MUSEL, SP","FM-12","99999","V020","210,1,N,0046,1","00420,1,9,N","004000,1,N,1","+0100,1","+0079,1","10079,1",,,,"8,1,03,1","8,1,03,1",,,"08,99,1,07,1,02,1,00450,1,07,1,99,9",,,,,"99999,9,10071,1","7,1,010,1,+999,9","80,1","SYN082AAXX  30154 08014 41440 82109 10100 20079 30071 40079 57010 78088 8727/ 333 92445;",
"08014099999","2010-01-30T18:00:00","4","43.5666666","-5.7","6.0","GIJON MUSEL, SP","FM-12","99999","V020","220,1,N,0057,1","01200,1,9,N","010000,1,N,1","+0106,1","+0077,1","10078,1","12,0201,9,1",,,"8,1,06,1","8,1,06,1",,,"07,99,1,05,1,08,1,00800,1,07,1,00,1",,,,"120,M,+0108,1","99999,9,10070,1","6,1,001,1,+999,9","02,1","SYN094AAXX  30184 08014 11560 72211 10106 20077 30070 40078 56001 60202 70288 85870 333 10108 92446;",
"08014099999","2010-01-31T06:00:00","4","43.5666666","-5.7","6.0","GIJON MUSEL, SP","FM-12","99999","V020","240,1,N,0021,1","00420,1,9,N","004000,1,N,1","+0074,1","+0055,1","10080,1","12,0279,9,1","24,0483,9,1",,"8,1,06,1","8,1,06,1",,,"08,99,1,06,1,07,1,00450,1,07,1,99,9","0006,9","11,9","999,+0060,9","999,N,+0070,1","99999,9,10072,1","6,1,004,1,+999,9","80,1","SYN112AAXX  31064 08014 11440 82404 10074 20055 30072 40080 56004 60282 78088 8677/ 333 20070 32006 50194 55001 70483;",
"08014099999","2010-01-31T09:00:00","4","43.5666666","-5.7","6.0","GIJON MUSEL, SP","FM-12","99999","V020","210,1,N,0031,1","00750,1,9,N","005000,1,N,1","+0072,1","+0058,1","10089,1",,,,"8,1,03,1","2,1,03,1",,,"08,99,1,07,1,07,1,00800,1,07,1,99,9",,,,,"99999,9,10081,1","3,1,009,1,+999,9","80,1","SYN082AAXX  31094 08014 41550 82106 10072 20058 30081 40089 53009 78082 8777/ 333 92446;",
"08014099999","2010-01-31T12:00:00","4","43.5666666","-5.7","6.0","GIJON MUSEL, SP","FM-12","99999","V020","180,1,N,0021,1","00750,1,9,N","010000,1,N,1","+0077,1","+0062,1","10092,1","06,0030,9,1",,,"8,1,06,1","2,1,06,1",,,"08,99,1,05,1,02,1,00800,1,07,1,99,9",,,,,"99999,9,10084,1","0,1,003,1,+999,9","80,1","SYN088AAXX  31124 08014 11560 81804 10077 20062 30084 40092 50003 60031 78082 8527/ 333 92447;",
"08014099999","2010-01-31T15:00:00","4","43.5666666","-5.7","6.0","GIJON MUSEL, SP","FM-12","99999","V020","220,1,N,0010,1","00750,1,9,N","015000,1,N,1","+0090,1","+0068,1","10093,1",,,,"8,1,03,1","6,1,03,1",,,"06,99,1,05,1,02,1,00800,1,06,1,00,1",,,,,"99999,9,10085,1","3,1,001,1,+999,9","02,1","SYN082AAXX  31154 08014 41565 62202 10090 20068 30085 40093 53001 70286 85260 333 92447;",
"08014099999","2010-01-31T18:00:00","4","43.5666666","-5.7","6.0","GIJON MUSEL, SP","FM-12","99999","V020","999,9,C,0000,1","22000,1,9,N","020000,1,N,1","+0076,1","+0062,1","10108,1","12,0051,9,1",,,"8,1,06,1","1,1,06,1",,,"03,99,1,02,1,02,1,00800,1,06,1,00,1",,,,"120,M,+0095,1","99999,9,10100,1","2,1,015,1,+999,9","02,1","SYN094AAXX  31184 08014 11570 30000 10076 20062 30100 40108 52015 60052 70281 82260 333 10095 92447;",
"08014099999","2010-02-01T06:00:00","4","43.5666666","-5.7","6.0","GIJON MUSEL, SP","FM-12","99999","V020","270,1,N,0015,1","00750,1,9,N","010000,1,N,1","+0064,1","+0041,1","10196,1","12,0010,9,1","24,0061,9,1",,,,,,"08,99,1,05,1,07,1,00800,1,01,1,99,9","0060,9","11,9","999,+0050,9","999,N,+0055,1","99999,9,10188,1","2,1,014,1,+999,9","81,1","SYN112AAXX  01064 08014 11560 82703 10064 20041 30188 40196 52014 60012 781// 8571/ 333 20055 32005 50234 55010 70062;",
"08014099999","2010-02-01T09:00:00","4","43.5666666","-5.7","6.0","GIJON MUSEL, SP","FM-12","99999","V020","240,1,N,0031,1","03600,1,9,N","020000,1,N,1","+0070,1","+0047,1","10223,1",,,,"8,1,03,1","8,1,03,1",,,"06,99,1,04,1,02,1,00800,1,03,1,00,1",,,,,"99999,9,10215,1","2,1,027,1,+999,9","02,1","SYN082AAXX  01094 08014 41570 62406 10070 20047 30215 40223 52027 70288 84230 333 92438;",
"08014099999","2010-02-01T12:00:00","4","43.5666666","-5.7","6.0","GIJON MUSEL, SP","FM-12","99999","V020","200,1,N,0021,1","03600,1,9,N","020000,1,N,1","+0108,1","+0051,1","10234,1","06,0000,2,1",,,"6,1,06,1","1,1,06,1",,,"06,99,1,04,1,02,1,00800,1,03,1,99,9",,,,,"99999,9,10226,1","2,1,011,1,+999,9","02,1","SYN088AAXX  01124 08014 11570 62004 10108 20051 30226 40234 52011 69911 70261 8423/ 333 92428;",
"08014099999","2010-02-01T15:00:00","4","43.5666666","-5.7","6.0","GIJON MUSEL, SP","FM-12","99999","V020","020,1,N,0021,1","03600,1,9,N","030000,1,N,1","+0104,1","+0034,1","10236,1",,,,,,,,"06,99,1,04,1,08,1,00800,1,03,1,00,1",,,,,"99999,9,10228,1","2,1,002,1,+999,9",,"SYN076AAXX  01154 08014 42580 60204 10104 20034 30228 40236 52002 84830 333 92428;",
"08014099999","2010-02-01T18:00:00","4","43.5666666","-5.7","6.0","GIJON MUSEL, SP","FM-12","99999","V020","060,1,N,0010,1","99999,9,9,N","030000,1,N,1","+0094,1","+0048,1","10243,1","12,0000,2,1",,,,,,,"06,99,1,05,1,00,1,00800,1,05,1,01,1",,,,"120,M,+0110,1","99999,9,10235,1","2,1,007,1,+999,9",,"SYN088AAXX  01184 08014 12580 60602 10094 20048 30235 40243 52007 69912 85051 333 10110 92428;",
"08014099999","2010-02-02T06:00:00","4","43.5666666","-5.7","6.0","GIJON MUSEL, SP","FM-12","99999","V020","230,1,N,0031,1","22000,1,9,N","015000,1,N,1","+0044,1","+0013,1","10220,1","12,0000,9,1","24,0000,2,1",,,,"00,1,+99999,9,99,9",,"00,99,1,00,1,00,1,99999,9,00,1,00,1","0402,9","01,9","999,+0030,9","999,N,+0040,1","99999,9,10212,1","6,1,008,1,+999,9","02,1","SYN106AAXX  02064 08014 11965 02306 10044 20013 30212 40220 56008 60002 702// 333 20040 30003 50184 55067 70001;","Q01  00002PRCP12"
"08014099999","2010-02-02T09:00:00","4","43.5666666","-5.7","6.0","GIJON MUSEL, SP","FM-12","99999","V020","230,1,N,0041,1","22000,1,9,N","015000,1,N,1","+0052,1","+0017,1","10221,1",,,,,,,,"02,99,1,01,1,06,1,00800,1,03,1,00,1",,,,,"99999,9,10213,1","2,1,001,1,+999,9",,"SYN076AAXX  02094 08014 42565 22308 10052 20017 30213 40221 52001 81630 333 92428;",
"08014099999","2010-02-02T12:00:00","4","43.5666666","-5.7","6.0","GIJON MUSEL, SP","FM-12","99999","V020","230,1,N,0026,1","22000,1,9,N","030000,1,N,1","+0110,1","+0047,1","10218,1","06,0000,9,1",,,,,"00,1,+99999,9,99,9",,"00,99,1,00,1,00,1,99999,9,00,1,00,1",,,,,"99999,9,10210,1","8,1,003,1,+999,9",,"SYN076AAXX  02124 08014 12980 02305 10110 20047 30210 40218 58003 60001 333 92428;","Q01  00002PRCP06"
"08014099999","2010-02-02T15:00:00","4","43.5666666","-5.7","6.0","GIJON MUSEL, SP","FM-12","99999","V020","050,1,N,0015,1","22000,1,9,N","030000,1,N,1","+0118,1","+0048,1","10201,1",,,,,,,,"03,99,1,03,1,00,1,01250,1,05,1,00,1",,,,,"99999,9,10193,1","7,1,017,1,+999,9",,"SYN076AAXX  02154 08014 42680 30503 10118 20048 30193 40201 57017 83050 333 92428;",
"08014099999","2010-02-02T18:00:00","4","43.5666666","-5.7","6.0","GIJON MUSEL, SP","FM-12","99999","V020","270,1,N,0010,1","22000,1,9,N","030000,1,N,1","+0094,1","+0048,1","10200,1","12,0000,9,1",,,,,,,"02,99,1,01,1,00,1,01250,1,03,1,01,1",,,,"120,M,+0135,1","99999,9,10192,1","7,1,001,1,+999,9",,"SYN088AAXX  02184 08014 12680 22702 10094 20048 30192 40200 57001 60002 81031 333 10135 92428;","Q01  00002PRCP12"
"08014099999","2010-02-03T06:00:00","4","43.5666666","-5.7","6.0","GIJON MUSEL, SP","FM-12","99999","V020","220,1,N,0046,1","22000,1,9,N","020000,1,N,1","+0044,1","+0007,1","10179,1","12,0000,9,1","24,0000,9,1",,,,"00,1,+99999,9,99,9",,"00,99,1,00,1,00,1,99999,9,00,1,00,1","0546,9","09,9","999,+0020,9","999,N,+0040,1","99999,9,10171,1","6,1,003,1,+999,9",,"SYN100AAXX  03064 08014 12970 02209 10044 20007 30171 40179 56003 60002 333 20040 31002 50304 55091 70000;","Q01  00002PRCP24Q02  00002PRCP12"
"08014099999","2010-02-03T09:00:00","4","43.5666666","-5.7","6.0","GIJON MUSEL, SP","FM-12","99999","V020","220,1,N,0041,1","22000,1,9,N","015000,1,N,1","+0070,1","+0015,1","10182,1",,,,,,"00,1,+99999,9,99,9",,"00,99,1,00,1,00,1,99999,9,00,1,00,1",,,,,"99999,9,10174,1","3,1,003,1,+999,9",,"SYN070AAXX  03094 08014 42965 02208 10070 20015 30174 40182 53003 333 92437;",
"08014099999","2010-02-03T12:00:00","4","43.5666666","-5.7","6.0","GIJON MUSEL, SP","FM-12","99999","V020","180,1,N,0010,1","22000,1,9,N","015000,1,N,1","+0129,1","+0051,1","10167,1","06,0000,9,1",,,,,,,"01,99,1,00,1,00,1,99999,9,00,1,01,1",,,,,"99999,9,10159,1","8,1,015,1,+999,9",,"SYN082AAXX  03124 08014 12965 11802 10129 20051 30159 40167 58015 60001 80001 333 92437;","Q01  00002PRCP06"
"08014099999","2010-02-03T15:00:00","4","43.5666666","-5.7","6.0","GIJON MUSEL, SP","FM-12","99999","V020","060,1,N,0015,1","22000,1,9,N","020000,1,N,1","+0120,1","+0079,1","10142,1",,,,,,,,"02,99,1,01,1,00,1,01750,1,04,1,01,1",,,,,"99999,9,10134,1","7,1,025,1,+999,9",,"SYN076AAXX  03154 08014 42770 20603 10120 20079 30134 40142 57025 81041 333 92437;",
"08014099999","2010-02-03T18:00:00","4","43.5666666","-5.7","6.0","GIJON MUSEL, SP","FM-12","99999","V020","999,9,C,0000,1","22000,1,9,N","020000,1,N,1","+0102,1","+0067,1","10136,1","12,0000,9,1",,,,,,,"02,99,1,01,1,00,1,01750,1,04,1,08,1",,,,"120,M,+0140,1","99999,9,10128,1","6,1,006,1,+999,9",,"SYN088AAXX  03184 08014 12770 20000 10102 20067 30128 40136 56006 60002 81048 333 10140 92437;","Q01  00002PRCP12"
"08014099999","2010-02-04T06:00:00","4","43.5666666","-5.7","6.0","GIJON MUSEL, SP","FM-12","99999","V020","220,1,N,0036,1","01200,1,9,N","015000,1,N,1","+0092,1","+0021,1","10060,1","12,0000,9,1","24,0000,9,1",,,,,,"06,99,1,05,1,05,1,01250,1,03,1,00,1","0522,9","01,9","999,+0050,9","999,N,+0080,1","99999,9,10052,1","7,1,024,1,+999,9",,"SYN106AAXX  04064 08014 12665 62207 10092 20021 30052 40060 57024 60002 85530 333 20080 30005 50334 55087 70000;","Q01  00002PRCP24Q02  00002PRCP12"
"08014099999","2010-02-04T09:00:00","4","43.5666666","-5.7","6.0","GIJON MUSEL, SP","FM-12","99999","V020","220,1,N,0031,1","03600,1,9,N","020000,1,N,1","+0112,1","+0017,1","10054,1",,,,,,,,"05,99,1,03,1,08,1,01250,1,03,1,01,1",,,,,"99999,9,10046,1","6,1,006,1,+999,9",,"SYN076AAXX  04094 08014 42670 52206 10112 20017 30046 40054 56006 83831 333 92437;",
"08014099999","2010-02-04T12:00:00","4","43.5666666","-5.7","6.0","GIJON MUSEL, SP","FM-12","99999","V020","040,1,N,0015,1","03600,1,9,N","015000,1,N,1","+0126,1","+0069,1","10031,1","06,0000,9,1",,,,,,,"07,99,1,02,1,05,1,00800,1,07,1,00,1",,,,,"99999,9,10023,1","7,1,023,1,+999,9",,"SYN082AAXX  04124 08014 12565 70403 10126 20069 30023 40031 57023 60001 82570 333 92437;","Q01  00002PRCP06"
"08014099999","2010-02-04T15:00:00","4","43.5666666","-5.7","6.0","GIJON MUSEL, SP","FM-12","99999","V020","190,1,N,0026,1","03600,1,9,N","030000,1,N,1","+0182,1","+0054,1","09997,1",,,,,,,,"06,99,1,04,1,08,1,00800,1,07,1,00,1",,,,,"99999,9,09990,1","6,1,033,1,+999,9",,"SYN076AAXX  04154 08014 42580 61905 10182 20054 39990 49997 56033 84870 333 92438;",
"08014099999","2010-02-04T18:00:00","4","43.5666666","-5.7","6.0","GIJON MUSEL, SP","FM-12","99999","V020","220,1,N,0046,1","00750,1,9,N","015000,1,N,1","+0140,1","+0088,1","10020,1","12,0003,9,1",,,"2,1,06,1","2,1,06,1",,,"08,99,1,07,1,02,1,00800,1,07,1,99,9",,,,"120,M,+0188,1","99999,9,10012,1","3,1,022,1,+999,9","80,1","SYN094AAXX  04184 08014 11565 82209 10140 20088 30012 40020 53022 69932 78022 8727/ 333 10188 92437;",
"08014099999","2010-02-05T06:00:00","4","43.5666666","-5.7","6.0","GIJON MUSEL, SP","FM-12","99999","V020","210,1,N,0031,1","00750,1,9,N","010000,1,N,1","+0100,1","+0046,1","10095,1","12,0010,9,1","24,0013,9,1",,"2,1,06,1","2,1,06,1",,,"08,99,1,07,1,07,1,00800,1,07,1,99,9","0108,9","09,9","999,+0040,9","999,N,+0074,1","99999,9,10087,1","3,1,013,1,+999,9","80,1","SYN112AAXX  05064 08014 11560 82106 10100 20046 30087 40095 53013 69992 78022 8777/ 333 20074 31004 50494 55018 70012;",
"08014099999","2010-02-05T09:00:00","4","43.5666666","-5.7","6.0","GIJON MUSEL, SP","FM-12","99999","V020","220,1,N,0036,1","22000,1,9,N","020000,1,N,1","+0116,1","+0024,1","10118,1",,,,"8,1,03,1","1,1,03,1",,,"02,99,1,01,1,02,1,00800,1,06,1,02,1",,,,,"99999,9,10110,1","1,1,023,1,+999,9","02,1","SYN082AAXX  05094 08014 41570 22207 10116 20024 30110 40118 51023 70281 81262 333 92437;",
"08014099999","2010-02-05T12:00:00","4","43.5666666","-5.7","6.0","GIJON MUSEL, SP","FM-12","99999","V020","240,1,N,0046,1","22000,1,9,N","040000,1,N,1","+0146,1","+0012,1","10124,1","06,0000,2,1",,,"8,1,06,1","1,1,06,1",,,"02,99,1,02,1,08,1,00800,1,06,1,00,1",,,,,"99999,9,10116,1","0,1,006,1,+999,9","02,1","SYN088AAXX  05124 08014 11582 22409 10146 20012 30116 40124 50006 69901 70281 82860 333 92448;",
"08014099999","2010-02-05T15:00:00","4","43.5666666","-5.7","6.0","GIJON MUSEL, SP","FM-12","99999","V020","230,1,N,0051,1","22000,1,9,N","040000,1,N,1","+0156,1","+0006,1","10128,1",,,,,,,,"04,99,1,03,1,08,1,00800,1,06,1,00,1",,,,,"99999,9,10120,1","3,1,004,1,+999,9",,"SYN076AAXX  05154 08014 42582 42310 10156 20006 30120 40128 53004 83860 333 92448;",
"08014099999","2010-02-05T18:00:00","4","43.5666666","-5.7","6.0","GIJON MUSEL, SP","FM-12","99999","V020","230,1,N,0057,1","03600,1,9,N","040000,1,N,1","+0142,1","+0012,1","10146,1","12,0000,2,1",,,,,,,"05,99,1,04,1,08,1,00800,1,06,1,00,1",,,,"120,M,+0166,1","99999,9,10138,1","3,1,018,1,+999,9",,"SYN088AAXX  05184 08014 12582 52311 10142 20012 30138 40146 53018 69902 84860 333 10166 92448;",
"08014099999","2010-02-06T06:00:00","4","43.5666666","-5.7","6.0","GIJON MUSEL, SP","FM-12","99999","V020","240,1,N,0036,1","22000,1,9,N","015000,1,N,1","+0134,1","+0035,1","10185,1","12,0000,9,1","24,0000,2,1",,,,,,"01,99,1,01,1,04,1,00800,1,00,1,00,1","0468,9","01,9","999,+0120,9","999,N,+0130,1","99999,9,10177,1","2,1,007,1,+999,9","02,1","SYN112AAXX  06064 08014 11565 12407 10134 20035 30177 40185 52007 60002 702// 81400 333 20130 30012 50964 55078 70000;","Q01  00002PRCP12"
"08014099999","2010-02-06T09:00:00","4","43.5666666","-5.7","6.0","GIJON MUSEL, SP","FM-12","99999","V020","220,1,N,0026,1","03600,1,9,N","030000,1,N,1","+0138,1","+0036,1","10198,1",,,,,,,,"07,99,1,03,1,04,1,00800,1,05,1,99,9",,,,,"99999,9,10190,1","2,1,013,1,+999,9",,"SYN076AAXX  06094 08014 42580 72205 10138 20036 30190 40198 52013 8345/ 333 92438;",
"08014099999","2010-02-06T12:00:00","4","43.5666666","-5.7","6.0","GIJON MUSEL, SP","FM-12","99999","V020","140,1,N,0010,1","03600,1,9,N","020000,1,N,1","+0152,1","+0070,1","10208,1","06,0000,9,1",,,,,,,"07,99,1,04,1,08,1,00800,1,05,1,99,9",,,,,"99999,9,10200,1","2,1,010,1,+999,9",,"SYN082AAXX  06124 08014 12570 71402 10152 20070 30200 40208 52010 60001 8485/ 333 92438;","Q01  00002PRCP06"
"08014099999","2010-02-06T15:00:00","4","43.5666666","-5.7","6.0","GIJON MUSEL, SP","FM-12","99999","V020","170,1,N,0015,1","03600,1,9,N","030000,1,N,1","+0140,1","+0080,1","10214,1",,,,,,,,"07,99,1,04,1,04,1,00800,1,05,1,99,9",,,,,"99999,9,10206,1","2,1,006,1,+999,9",,"SYN076AAXX  06154 08014 42580 71703 10140 20080 30206 40214 52006 8445/ 333 92438;",
"08014099999","2010-02-06T18:00:00","4","43.5666666","-5.7","6.0","GIJON MUSEL, SP","FM-12","99999","V020","999,9,C,0000,1","03600,1,9,N","020000,1,N,1","+0136,1","+0100,1","10215,1","12,0000,9,1",,,,,,,"07,99,1,04,1,08,1,00800,1,05,1,99,9",,,,"120,M,+0154,1","99999,9,10207,1","2,1,001,1,+999,9",,"SYN088AAXX  06184 08014 12570 70000 10136 20100 30207 40215 52001 60002 8485/ 333 10154 92438;","Q01  00002PRCP12"
"08014099999","2010-02-07T06:00:00","4","43.5666666","-5.7","6.0","GIJON MUSEL, SP","FM-12","99999","V020","999,9,C,0000,1","22000,1,9,N","015000,1,N,1","+0104,1","+0088,1","10172,1","12,0000,9,1","24,0000,9,1",,,,,,"03,99,1,01,1,04,1,00800,1,03,1,00,1","0126,9","01,9","999,+0080,9","999,N,+0103,1","99999,9,10164,1","7,1,013,1,+999,9","02,1","SYN112AAXX  07064 08014 11565 30000 10104 20088 30164 40172 57013 60002 702// 81430 333 20103 30008 50254 55021 70000;","Q01  00002PRCP24Q02  00002PRCP12"
"08014099999","2010-02-07T09:00:00","4","43.5666666","-5.7","6.0","GIJON MUSEL, SP","FM-12","99999","V020","999,9,C,0000,1","00420,1,9,N","013000,1,N,1","+0114,1","+0090,1","10171,1",,,,,,,,"08,99,1,06,1,04,1,00450,1,05,1,99,9",,,,,"99999,9,10163,1","7,1,001,1,+999,9",,"SYN076AAXX  07094 08014 42463 80000 10114 20090 30163 40171 57001 8645/ 333 92428;",
"08014099999","2010-02-07T12:00:00","4","43.5666666","-5.7","6.0","GIJON MUSEL, SP","FM-12","99999","V020","090,1,N,0031,1","01200,1,9,N","020000,1,N,1","+0126,1","+0081,1","10140,1","06,0000,9,1",,,,,,,"08,99,1,06,1,08,1,00800,1,05,1,99,9",,,,,"99999,9,10132,1","7,1,031,1,+999,9",,"SYN082AAXX  07124 08014 12570 80906 10126 20081 30132 40140 57031 60001 8685/ 333 92438;","Q01  00002PRCP06"
"08014099999","2010-02-07T15:00:00","4","43.5666666","-5.7","6.0","GIJON MUSEL, SP","FM-12","99999","V020","080,1,N,0041,1","03600,1,9,N","020000,1,N,1","+0128,1","+0079,1","10099,1",,,,,,,,"08,99,1,04,1,08,1,00800,1,05,1,99,9",,,,,"99999,9,10091,1","7,1,041,1,+999,9",,"SYN076AAXX  07154 08014 42570 80808 10128 20079 30091 40099 57041 8485/ 333 92438;",
"08014099999","2010-02-07T18:00:00","4","43.5666666","-5.7","6.0","GIJON MUSEL, SP","FM-12","99999","V020","100,1,N,0026,1","01200,1,9,N","020000,1,N,1","+0122,1","+0087,1","10093,1","12,0000,9,1",,,,,,,"07,99,1,05,1,08,1,00800,1,05,1,99,9",,,,"120,M,+0128,1","99999,9,10085,1","7,1,006,1,+999,9",,"SYN088AAXX  07184 08014 12570 71005 10122 20087 30085 40093 57006 60002 8585/ 333 10128 92438;","Q01  00002PRCP12"
"08014099999","2010-02-08T06:00:00","4","43.5666666","-5.7","6.0","GIJON MUSEL, SP","FM-12","99999","V020","220,1,N,0010,1","00420,1,9,N","007000,1,N,1","+0100,1","+0084,1","10028,1","12,0008,9,1","24,0008,9,1",,,,,,"08,99,1,05,1,07,1,00450,1,01,1,99,9","0000,9","11,9","999,+0080,9","999,N,+0096,1","99999,9,10020,1","7,1,014,1,+999,9","50,1","SYN112AAXX  08064 08014 11457 82202 10100 20084 30020 40028 57014 69982 750// 8571/ 333 20096 32008 50114 55000 70008;",
"08014099999","2010-02-08T09:00:00","4","43.5666666","-5.7","6.0","GIJON MUSEL, SP","FM-12","99999","V020","220,1,N,0026,1","00420,1,9,N","006000,1,N,1","+0100,1","+0084,1","10024,1",,,,"5,1,03,1","4,1,03,1",,,"08,99,1,06,1,07,1,00450,1,01,1,99,9",,,,,"99999,9,10016,1","7,1,004,1,+999,9","10,1","SYN082AAXX  08094 08014 41456 82205 10100 20084 30016 40024 57004 71054 8671/ 333 92437;",
"08014099999","2010-02-08T12:00:00","4","43.5666666","-5.7","6.0","GIJON MUSEL, SP","FM-12","99999","V020","050,1,N,0005,1","01200,1,9,N","010000,1,N,1","+0132,1","+0085,1","10022,1","06,0020,9,1",,,"5,1,06,1","4,1,06,1",,,"08,99,1,06,1,08,1,00800,1,01,1,99,9",,,,,"99999,9,10014,1","7,1,002,1,+999,9","02,1","SYN088AAXX  08124 08014 11560 80501 10132 20085 30014 40022 57002 60021 70254 8681/ 333 92438;",
"08014099999","2010-02-08T15:00:00","4","43.5666666","-5.7","6.0","GIJON MUSEL, SP","FM-12","99999","V020","360,1,N,0010,1","03600,1,9,N","020000,1,N,1","+0132,1","+0093,1","10015,1",,,,,,,,"08,99,1,03,1,02,1,00800,1,05,1,99,9",,,,,"99999,9,10007,1","7,1,007,1,+999,9",,"SYN076AAXX  08154 08014 42570 83602 10132 20093 30007 40015 57007 8325/ 333 92438;",
"08014099999","2010-02-08T18:00:00","4","43.5666666","-5.7","6.0","GIJON MUSEL, SP","FM-12","99999","V020","060,1,N,0015,1","03600,1,9,N","013000,1,N,1","+0108,1","+0084,1","10021,1","12,0079,9,1",,,"8,1,06,1","8,1,06,1",,,"08,99,1,04,1,02,1,00800,1,05,1,99,9",,,,"120,M,+0143,1","99999,9,10013,1","2,1,006,1,+999,9","02,1","SYN094AAXX  08184 08014 11563 80603 10108 20084 30013 40021 52006 60082 70288 8425/ 333 10143 92438;",
"08014099999","2010-02-09T06:00:00","4","43.5666666","-5.7","6.0","GIJON MUSEL, SP","FM-12","99999","V020","030,1,N,0010,1","00420,1,9,N","005000,1,N,1","+0086,1","+0034,1","10058,1","12,0079,9,1","24,0157,9,1",,"6,1,06,1","2,1,06,1",,,"08,99,1,06,1,07,1,00450,1,07,1,99,9","0030,9","11,9","999,+0050,9","999,N,+0082,1","99999,9,10050,1","3,1,013,1,+999,9","61,1","SYN112AAXX  09064 08014 11450 80302 10086 20034 30050 40058 53013 60082 76162 8677/ 333 20082 32005 50154 55005 70157;",
"08014099999","2010-02-09T09:00:00","4","43.5666666","-5.7","6.0","GIJON MUSEL, SP","FM-12","99999","V020","270,1,N,0026,1","00750,1,9,N","010000,1,N,1","+0076,1","+0038,1","10078,1",,,,"6,1,03,1","2,1,03,1",,,"07,99,1,06,1,02,1,00800,1,06,1,00,1",,,,,"99999,9,10070,1","2,1,020,1,+999,9","80,1","SYN082AAXX  09094 08014 41560 72705 10076 20038 30070 40078 52020 78062 86260 333 92446;",
"08014099999","2010-02-09T12:00:00","4","43.5666666","-5.7","6.0","GIJON MUSEL, SP","FM-12","99999","V020","030,1,N,0026,1","01200,1,9,N","008000,1,N,1","+0096,1","-0011,1","10087,1","06,0000,2,1",,,"8,1,06,1","2,1,06,1",,,"06,99,1,05,1,08,1,00800,1,06,1,00,1",,,,,"99999,9,10079,1","1,1,009,1,+999,9","15,1","SYN088AAXX  09124 08014 11558 60305 10096 21011 30079 40087 51009 69921 71582 85860 333 92447;",
"08014099999","2010-02-09T15:00:00","4","43.5666666","-5.7","6.0","GIJON MUSEL, SP","FM-12","99999","V020","020,1,N,0021,1","01200,1,9,N","020000,1,N,1","+0098,1","-0010,1","10093,1",,,,,,,,"07,99,1,06,1,08,1,00800,1,06,1,00,1",,,,,"99999,9,10085,1","3,1,006,1,+999,9",,"SYN076AAXX  09154 08014 42570 70204 10098 21010 30085 40093 53006 86860 333 92447;",
"08014099999","2010-02-09T18:00:00","4","43.5666666","-5.7","6.0","GIJON MUSEL, SP","FM-12","99999","V020","040,1,N,0041,1","01200,1,9,N","020000,1,N,1","+0084,1","+0038,1","10103,1","12,0000,2,1",,,,,,,"06,99,1,05,1,08,1,00800,1,06,1,00,1",,,,"120,M,+0102,1","99999,9,10095,1","2,1,010,1,+999,9",,"SYN088AAXX  09184 08014 12570 60408 10084 20038 30095 40103 52010 69922 85860 333 10102 92447;",
"08014099999","2010-02-10T06:00:00","4","43.5666666","-5.7","6.0","GIJON MUSEL, SP","FM-12","99999","V020","999,9,C,0000,1","00750,1,9,N","015000,1,N,1","+0066,1","+0021,1","10117,1","12,0000,9,1","24,0003,9,1",,,,,,"07,99,1,06,1,05,1,00800,1,07,1,00,1","0036,9","09,9","999,+0050,9","999,N,+0062,1","99999,9,10109,1","5,1,003,1,+999,9",,"SYN106AAXX  10064 08014 12565 70000 10066 20021 30109 40117 55003 60002 86570 333 20062 31005 50114 55006 70002;","Q01  00002PRCP12"
"08014099999","2010-02-10T09:00:00","4","43.5666666","-5.7","6.0","GIJON MUSEL, SP","FM-12","99999","V020","080,1,N,0041,1","00750,1,9,N","008000,1,N,1","+0068,1","+0034,1","10121,1",,,,"2,1,03,1","2,1,03,1",,,"07,99,1,05,1,02,1,00800,1,07,1,00,1",,,,,"99999,9,10113,1","3,1,004,1,+999,9","80,1","SYN082AAXX  10094 08014 41558 70808 10068 20034 30113 40121 53004 78022 85270 333 92446;",
"08014099999","2010-02-10T12:00:00","4","43.5666666","-5.7","6.0","GIJON MUSEL, SP","FM-12","99999","V020","100,1,N,0026,1","00750,1,9,N","010000,1,N,1","+0067,1","+0026,1","10128,1","06,0005,9,1",,,"8,1,06,1","2,1,06,1",,,"08,99,1,06,1,07,1,00800,1,07,1,99,9",,,,,"99999,9,10120,1","1,1,007,1,+999,9","15,1","SYN088AAXX  10124 08014 11560 81005 10067 20026 30120 40128 51007 69951 71582 8677/ 333 92447;",
"08014099999","2010-02-10T15:00:00","4","43.5666666","-5.7","6.0","GIJON MUSEL, SP","FM-12","99999","V020","090,1,N,0046,1","00750,1,9,N","010000,1,N,1","+0078,1","+0031,1","10113,1",,,,,,,,"07,99,1,06,1,02,1,00800,1,06,1,00,1",,,,,"99999,9,10105,1","6,1,015,1,+999,9",,"SYN076AAXX  10154 08014 42560 70909 10078 20031 30105 40113 56015 86260 333 92447;",
"08014099999","2010-02-10T18:00:00","4","43.5666666","-5.7","6.0","GIJON MUSEL, SP","FM-12","99999","V020","080,1,N,0046,1","00750,1,9,N","015000,1,N,1","+0076,1","+0006,1","10121,1","12,0005,9,1",,,,,,,"06,99,1,05,1,02,1,00800,1,06,1,02,1",,,,"120,M,+0084,1","99999,9,10113,1","3,1,008,1,+999,9",,"SYN088AAXX  10184 08014 12565 60809 10076 20006 30113 40121 53008 69952 85262 333 10084 92447;",
"08014099999","2010-02-11T06:00:00","4","43.5666666","-5.7","6.0","GIJON MUSEL, SP","FM-12","99999","V020","060,1,N,0031,1","03600,1,9,N","015000,1,N,1","+0061,1","-0033,1","10160,1","12,0030,9,1","24,0030,9,1",,,,,,"07,99,1,04,1,02,1,00800,1,06,1,00,1","0042,9","11,9","999,+0020,9","999,N,+0035,1","99999,9,10152,1","2,1,005,1,+999,9","50,1","SYN112AAXX  11064 08014 11565 70606 10061 21033 30152 40160 52005 60032 750// 84260 333 20035 32002 50404 55007 70031;",
"08014099999","2010-02-11T09:00:00","4","43.5666666","-5.7","6.0","GIJON MUSEL, SP","FM-12","99999","V020","080,1,N,0021,1","00750,1,9,N","015000,1,N,1","+0062,1","-0061,1","10174,1",,,,"5,1,03,1","2,1,03,1",,,"07,99,1,05,1,02,1,00800,1,06,1,00,1",,,,,"99999,9,10166,1","2,1,014,1,+999,9","02,1","SYN082AAXX  11094 08014 41565 70804 10062 21061 30166 40174 52014 70252 85260 333 92447;",
"08014099999","2010-02-11T12:00:00","4","43.5666666","-5.7","6.0","GIJON MUSEL, SP","FM-12","99999","V020","030,1,N,0026,1","03600,1,9,N","020000,1,N,1","+0070,1","-0047,1","10176,1","06,0000,2,1",,,"5,1,06,1","2,1,06,1",,,"05,99,1,03,1,02,1,00800,1,06,1,00,1",,,,,"99999,9,10168,1","2,1,002,1,+999,9","02,1","SYN088AAXX  11124 08014 11570 50305 10070 21047 30168 40176 52002 69901 70252 83260 333 92447;",
"08014099999","2010-02-11T15:00:00","4","43.5666666","-5.7","6.0","GIJON MUSEL, SP","FM-12","99999","V020","050,1,N,0046,1","03600,1,9,N","015000,1,N,1","+0070,1","-0017,1","10174,1",,,,,,,,"05,99,1,03,1,02,1,00800,1,06,1,00,1",,,,,"99999,9,10166,1","8,1,002,1,+999,9",,"SYN076AAXX  11154 08014 42565 50509 10070 21017 30166 40174 58002 83260 333 92447;",
"08014099999","2010-02-11T18:00:00","4","43.5666666","-5.7","6.0","GIJON MUSEL, SP","FM-12","99999","V020","050,1,N,0051,1","00750,1,9,N","015000,1,N,1","+0056,1","+0002,1","10189,1","12,0003,9,1",,,"6,1,06,1","2,1,06,1",,,"07,99,1,05,1,02,1,00800,1,06,1,00,1",,,,"120,M,+0079,1","99999,9,10181,1","3,1,015,1,+999,9","02,1","SYN094AAXX  11184 08014 11565 70510 10056 20002 30181 40189 53015 69932 70262 85260 333 10079 92447;",
"08014099999","2010-02-12T06:00:00","4","43.5666666","-5.7","6.0","GIJON MUSEL, SP","FM-12","99999","V020","240,1,N,0021,1","03600,1,9,N","015000,1,N,1","+0031,1","+0002,1","10182,1","12,0003,9,1","24,0005,9,1",,,,,,"06,99,1,04,1,02,1,00800,1,06,1,00,1","0234,9","09,9","999,+0020,9","999,N,+0025,1","99999,9,10174,1","4,1,000,1,+999,9","02,1","SYN112AAXX  12064 08014 11565 62404 10031 20002 30174 40182 54000 69932 702// 84260 333 20025 31002 50334 55039 70006;",
"08014099999","2010-02-12T09:00:00","4","43.5666666","-5.7","6.0","GIJON MUSEL, SP","FM-12","99999","V020","200,1,N,0015,1","00750,1,9,N","008000,1,N,1","+0038,1","+0003,1","10189,1",,,,"6,1,03,1","2,1,03,1",,,"08,99,1,05,1,07,1,00800,1,07,1,99,9",,,,,"99999,9,10181,1","2,1,007,1,+999,9","61,1","SYN082AAXX  12094 08014 41558 82003 10038 20003 30181 40189 52007 76162 8577/ 333 92436;",
"08014099999","2010-02-12T12:00:00","4","43.5666666","-5.7","6.0","GIJON MUSEL, SP","FM-12","99999","V020","110,1,N,0026,1","01200,1,9,N","015000,1,N,1","+0060,1","+0015,1","10182,1","06,0005,9,1",,,"6,1,06,1","2,1,06,1",,,"08,99,1,07,1,08,1,00800,1,03,1,99,9",,,,,"99999,9,10174,1","8,1,007,1,+999,9","60,1","SYN088AAXX  12124 08014 11565 81105 10060 20015 30174 40182 58007 69961 76062 8783/ 333 92437;",
"08014099999","2010-02-12T15:00:00","4","43.5666666","-5.7","6.0","GIJON MUSEL, SP","FM-12","99999","V020","130,1,N,0021,1","01200,1,9,N","020000,1,N,1","+0060,1","-0007,1","10171,1",,,,"6,1,03,1","2,1,03,1",,,"07,99,1,05,1,08,1,00800,1,03,1,00,1",,,,,"99999,9,10163,1","7,1,011,1,+999,9","02,1","SYN082AAXX  12154 08014 41570 71304 10060 21007 30163 40171 57011 70262 85830 333 92437;",
"08014099999","2010-02-12T18:00:00","4","43.5666666","-5.7","6.0","GIJON MUSEL, SP","FM-12","99999","V020","070,1,N,0031,1","01200,1,9,N","020000,1,N,1","+0068,1","+0005,1","10174,1","12,0005,9,1",,,"6,1,06,1","2,1,06,1",,,"08,99,1,06,1,08,1,00800,1,03,1,99,9",,,,"120,M,+0072,1","99999,9,10166,1","2,1,003,1,+999,9","02,1","SYN094AAXX  12184 08014 11570 80706 10068 20005 30166 40174 52003 69962 70262 8683/ 333 10072 90437;",
"08014099999","2010-02-13T06:00:00","4","43.5666666","-5.7","6.0","GIJON MUSEL, SP","FM-12","99999","V020","220,1,N,0015,1","00750,1,9,N","010000,1,N,1","+0038,1","+0012,1","10155,1","12,0005,9,1","24,0013,9,1",,,,,,"08,99,1,05,1,02,1,00800,1,06,1,99,9","0000,9","11,9","999,+0020,9","999,N,+0032,1","99999,9,10147,1","7,1,006,1,+999,9","60,1","SYN112AAXX  13064 08014 11560 82203 10038 20012 30147 40155 57006 69962 760// 8526/ 333 20032 32002 50284 55000 70012;",
"08014099999","2010-02-13T09:00:00","4","43.5666666","-5.7","6.0","GIJON MUSEL, SP","FM-12","99999","V020","080,1,N,0005,1","03600,1,9,N","015000,1,N,1","+0039,1","+0009,1","10162,1",,,,"6,1,03,1","2,1,03,1",,,"08,99,1,04,1,07,1,00800,1,07,1,99,9",,,,,"99999,9,10154,1","3,1,007,1,+999,9","21,1","SYN082AAXX  13094 08014 41565 80801 10039 20009 30154 40162 53007 72162 8477/ 333 92437;",
"08014099999","2010-02-13T12:00:00","4","43.5666666","-5.7","6.0","GIJON MUSEL, SP","FM-12","99999","V020","080,1,N,0046,1","00750,1,9,N","015000,1,N,1","+0060,1","+0015,1","10168,1","06,0010,9,1",,,"8,1,06,1","8,1,06,1",,,"08,99,1,05,1,07,1,00800,1,07,1,99,9",,,,,"99999,9,10160,1","2,1,006,1,+999,9","27,1","SYN088AAXX  13124 08014 11565 80809 10060 20015 30160 40168 52006 60011 72788 8577/ 333 92437;",
"08014099999","2010-02-13T15:00:00","4","43.5666666","-5.7","6.0","GIJON MUSEL, SP","FM-12","99999","V020","110,1,N,0031,1","03600,1,9,N","015000,1,N,1","+0058,1","+0006,1","10161,1",,,,,,,,"07,99,1,04,1,08,1,00800,1,06,1,00,1",,,,,"99999,9,10153,1","8,1,007,1,+999,9",,"SYN076AAXX  13154 08014 42565 71106 10058 20006 30153 40161 58007 84860 333 92437;",
"08014099999","2010-02-13T18:00:00","4","43.5666666","-5.7","6.0","GIJON MUSEL, SP","FM-12","99999","V020","220,1,N,0021,1","00750,1,9,N","020000,1,N,1","+0058,1","+0010,1","10158,1","12,0020,9,1",,,"8,1,06,1","2,1,06,1",,,"07,99,1,05,1,02,1,00800,1,06,1,00,1",,,,"120,M,+0070,1","99999,9,10150,1","7,1,003,1,+999,9","01,1","SYN094AAXX  13184 08014 11570 72204 10058 20010 30150 40158 57003 60022 70182 85260 333 10070 92437;",
"08014099999","2010-02-14T06:00:00","4","43.5666666","-5.7","6.0","GIJON MUSEL, SP","FM-12","99999","V020","220,1,N,0015,1","00750,1,9,N","015000,1,N,1","+0040,1","-0004,1","10147,1","12,0008,9,1","24,0025,9,1",,,,,,"08,99,1,05,1,07,1,00800,1,07,1,99,9","0042,9","11,9","999,+0020,9","999,N,+0025,1","99999,9,10139,1","4,1,000,1,+999,9","60,1","SYN112AAXX  14064 08014 11565 82203 10040 21004 30139 40147 54000 69982 760// 8577/ 333 20025 32002 50184 55007 70025;",
"08014099999","2010-02-14T09:00:00","4","43.5666666","-5.7","6.0","GIJON MUSEL, SP","FM-12","99999","V020","200,1,N,0010,1","00750,1,9,N","020000,1,N,1","+0044,1","+0004,1","10147,1",,,,"6,1,03,1","2,1,03,1",,,"08,99,1,06,1,07,1,00800,1,07,1,99,9",,,,,"99999,9,10139,1","4,1,000,1,+999,9","02,1","SYN082AAXX  14094 08014 41570 82002 10044 20004 30139 40147 54000 70262 8677/ 333 92437;",
"08014099999","2010-02-14T12:00:00","4","43.5666666","-5.7","6.0","GIJON MUSEL, SP","FM-12","99999","V020","180,1,N,0015,1","00750,1,9,N","015000,1,N,1","+0048,1","+0011,1","10144,1","06,0000,2,1",,,"6,1,06,1","2,1,06,1",,,"08,99,1,05,1,07,1,00800,1,07,1,99,9",,,,,"99999,9,10136,1","8,1,003,1,+999,9","02,1","SYN088AAXX  14124 08014 11565 81803 10048 20011 30136 40144 58003 69921 70262 8577/ 333 92437;",
"08014099999","2010-02-14T15:00:00","4","43.5666666","-5.7","6.0","GIJON MUSEL, SP","FM-12","99999","V020","120,1,N,0026,1","00750,1,9,N","020000,1,N,1","+0060,1","-0007,1","10119,1",,,,,,,,"08,99,1,05,1,07,1,00800,1,07,1,99,9",,,,,"99999,9,10111,1","7,1,025,1,+999,9",,"SYN076AAXX  14154 08014 42570 81205 10060 21007 30111 40119 57025 8577/ 333 92437;",
"08014099999","2010-02-14T18:00:00","4","43.5666666","-5.7","6.0","GIJON MUSEL, SP","FM-12","99999","V020","120,1,N,0021,1","01200,1,9,N","020000,1,N,1","+0055,1","-0012,1","10107,1","12,0000,2,1",,,"6,1,06,1","2,1,06,1",,,"08,99,1,06,1,08,1,00800,1,07,1,99,9",,,,"120,M,+0065,1","99999,9,10099,1","7,1,012,1,+999,9","02,1","SYN094AAXX  14184 08014 11570 81204 10055 21012 30099 40107 57012 69922 70262 8687/ 333 10065 92437;",
"08014099999","2010-02-15T06:00:00","4","43.5666666","-5.7","6.0","GIJON MUSEL, SP","FM-12","99999","V020","120,1,N,0041,1","01200,1,9,N","020000,1,N,1","+0052,1","-0019,1","10044,1","12,0000,9,1","24,0003,9,1",,,,,,"08,99,1,05,1,08,1,00800,1,07,1,99,9","0000,9","01,9","999,+0040,9","999,N,+0045,1","99999,9,10036,1","7,1,010,1,+999,9","02,1","SYN112AAXX  15064 08014 11570 81208 10052 21019 30036 40044 57010 69922 702// 8587/ 333 20045 30004 50224 55000 70002;","Q01  00002PRCP12"
"08014099999","2010-02-15T09:00:00","4","43.5666666","-5.7","6.0","GIJON MUSEL, SP","FM-12","99999","V020","120,1,N,0046,1","00750,1,9,N","015000,1,N,1","+0050,1","-0012,1","10039,1",,,,,,,,"08,99,1,05,1,07,1,00800,1,07,1,99,9",,,,,"99999,9,10031,1","7,1,005,1,+999,9",,"SYN076AAXX  15094 08014 42565 81209 10050 21012 30031 40039 57005 8577/ 333 92437;",
"08014099999","2010-02-15T12:00:00","4","43.5666666","-5.7","6.0","GIJON MUSEL, SP","FM-12","99999","V020","110,1,N,0036,1","00750,1,9,N","015000,1,N,1","+0052,1","-0004,1","10032,1","06,0000,9,1",,,,,,,"08,99,1,06,1,07,1,00800,1,01,1,99,9",,,,,"99999,9,10024,1","7,1,007,1,+999,9",,"SYN082AAXX  15124 08014 12565 81107 10052 21004 30024 40032 57007 60001 8671/ 333 92437;","Q01  00002PRCP06"
"08014099999","2010-02-15T15:00:00","4","43.5666666","-5.7","6.0","GIJON MUSEL, SP","FM-12","99999","V020","080,1,N,0051,1","00750,1,9,N","015000,1,N,1","+0059,1","-0002,1","10012,1",,,,,,,,"08,99,1,06,1,07,1,00800,1,07,1,99,9",,,,,"99999,9,10004,1","7,1,020,1,+999,9",,"SYN076AAXX  15154 08014 42565 80810 10059 21002 30004 40012 57020 8677/ 333 92437;",
"08014099999","2010-02-15T18:00:00","4","43.5666666","-5.7","6.0","GIJON MUSEL, SP","FM-12","99999","V020","120,1,N,0031,1","00750,1,9,N","015000,1,N,1","+0058,1","-0016,1","09999,1","12,0000,9,1",,,,,,,"08,99,1,05,1,07,1,00800,1,07,1,99,9",,,,"120,M,+0065,1","99999,9,09991,1","7,1,013,1,+999,9",,"SYN088AAXX  15184 08014 12565 81206 10058 21016 39991 49999 57013 60002 8577/ 333 10065 92437;","Q01  00002PRCP12"
"08014099999","2010-02-16T06:00:00","4","43.5666666","-5.7","6.0","GIJON MUSEL, SP","FM-12","99999","V020","220,1,N,0021,1","01200,1,9,N","015000,1,N,1","+0038,1","-0024,1","09937,1","12,0000,9,1","24,0000,9,1",,,,,,"06,99,1,05,1,08,1,00800,1,05,1,99,9","0006,9","01,9","999,+0000,9","999,N,+0020,1","99999,9,09929,1","7,1,009,1,+999,9","02,1","SYN112AAXX  16064 08014 11565 62204 10038 21024 39929 49937 57009 60002 702// 8585/ 333 20020 30000 50314 55001 70000;","Q01  00002PRCP24Q02  00002PRCP12"
"08014099999","2010-02-16T09:00:00","4","43.5666666","-5.7","6.0","GIJON MUSEL, SP","FM-12","99999","V020","220,1,N,0031,1","03600,1,9,N","009000,1,N,1","+0032,1","-0019,1","09932,1",,,,"2,1,03,1","2,1,03,1",,,"07,99,1,04,1,04,1,00450,1,05,1,00,1",,,,,"99999,9,09924,1","7,1,005,1,+999,9","10,1","SYN082AAXX  16094 08014 41459 72206 10032 21019 39924 49932 57005 71022 84450 333 92437;",
"08014099999","2010-02-16T12:00:00","4","43.5666666","-5.7","6.0","GIJON MUSEL, SP","FM-12","99999","V020","040,1,N,0010,1","03600,1,9,N","010000,1,N,1","+0078,1","-0004,1","09919,1","06,0000,9,1",,,,,,,"07,99,1,04,1,04,1,00450,1,05,1,99,9",,,,,"99999,9,09911,1","7,1,013,1,+999,9",,"SYN082AAXX  16124 08014 12460 70402 10078 21004 39911 49919 57013 60001 8445/ 333 92438;","Q01  00002PRCP06"
"08014099999","2010-02-16T15:00:00","4","43.5666666","-5.7","6.0","GIJON MUSEL, SP","FM-12","99999","V020","040,1,N,0010,1","03600,1,9,N","015000,1,N,1","+0088,1","+0028,1","09900,1",,,,,,,,"08,99,1,03,1,08,1,00800,1,05,1,99,9",,,,,"99999,9,09892,1","7,1,019,1,+999,9",,"SYN076AAXX  16154 08014 42565 80402 10088 20028 39892 49900 57019 8385/ 333 92438;",
"08014099999","2010-02-16T18:00:00","4","43.5666666","-5.7","6.0","GIJON MUSEL, SP","FM-12","99999","V020","280,1,N,0010,1","03600,1,9,N","015000,1,N,1","+0090,1","+0046,1","09895,1","12,0000,9,1",,,"4,1,06,1","2,1,06,1",,,"08,99,1,04,1,08,1,00800,1,05,1,99,9",,,,"120,M,+0093,1","99999,9,09887,1","6,1,005,1,+999,9","02,1","SYN094AAXX  16184 08014 11565 82802 10090 20046 39887 49895 56005 60002 70242 8485/ 333 10093 92427;","Q01  00002PRCP12"
"08014099999","2010-02-17T06:00:00","4","43.5666666","-5.7","6.0","GIJON MUSEL, SP","FM-12","99999","V020","220,1,N,0031,1","00420,1,9,N","005000,1,N,1","+0066,1","+0057,1","09888,1","12,0005,9,1","24,0005,9,1",,,,,,"08,99,1,06,1,07,1,00450,1,01,1,99,9","0000,9","11,9","999,+0050,9","999,N,+0064,1","99999,9,09880,1","5,1,000,1,+999,9","51,1","SYN112AAXX  17064 08014 11450 82206 10066 20057 39880 49888 55000 69952 751// 8671/ 333 20064 32005 50124 55000 70005;",
"08014099999","2010-02-17T09:00:00","4","43.5666666","-5.7","6.0","GIJON MUSEL, SP","FM-12","99999","V020","220,1,N,0021,1","00420,1,9,N","003000,1,N,1","+0072,1","+0068,1","09906,1",,,,"5,1,03,1","4,1,03,1",,,"08,99,1,06,1,07,1,00450,1,01,1,99,9",,,,,"99999,9,09898,1","2,1,018,1,+999,9","50,1","SYN082AAXX  17094 08014 41430 82204 10072 20068 39898 49906 52018 75054 8671/ 333 92427;",
"08014099999","2010-02-17T12:00:00","4","43.5666666","-5.7","6.0","GIJON MUSEL, SP","FM-12","99999","V020","250,1,N,0041,1","00420,1,9,N","006000,1,N,1","+0088,1","+0066,1","09925,1","06,0030,9,1",,,"5,1,06,1","2,1,06,1",,,"08,99,1,06,1,07,1,00450,1,01,1,99,9",,,,,"99999,9,09917,1","1,1,019,1,+999,9","50,1","SYN088AAXX  17124 08014 11456 82508 10088 20066 39917 49925 51019 60031 75052 8671/ 333 92427;",
"08014099999","2010-02-17T15:00:00","4","43.5666666","-5.7","6.0","GIJON MUSEL, SP","FM-12","99999","V020","250,1,N,0026,1","00750,1,9,N","015000,1,N,1","+0102,1","+0044,1","09931,1",,,,,,,,"07,99,1,05,1,02,1,00800,1,05,1,99,9",,,,,"99999,9,09923,1","0,1,006,1,+999,9",,"SYN076AAXX  17154 08014 42565 72505 10102 20044 39923 49931 50006 8525/ 333 92438;",
"08014099999","2010-02-17T18:00:00","4","43.5666666","-5.7","6.0","GIJON MUSEL, SP","FM-12","99999","V020","999,9,C,0000,1","03600,1,9,N","020000,1,N,1","+0088,1","+0057,1","09949,1","12,0020,9,1",,,"5,1,06,1","2,1,06,1",,,"06,99,1,04,1,08,1,00800,1,03,1,00,1",,,,"120,M,+0115,1","99999,9,09941,1","2,1,018,1,+999,9","02,1","SYN094AAXX  17184 08014 11570 60000 10088 20057 39941 49949 52018 60022 70252 84830 333 10115 92428;",
"08014099999","2010-02-18T06:00:00","4","43.5666666","-5.7","6.0","GIJON MUSEL, SP","FM-12","99999","V020","210,1,N,0021,1","22000,1,9,N","015000,1,N,1","+0048,1","+0008,1","09986,1","12,0000,9,1","24,0028,9,1",,,,,,"02,99,1,01,1,06,1,00800,1,04,1,00,1","0048,9","09,9","999,+0040,9","999,N,+0048,1","99999,9,09978,1","3,1,003,1,+999,9",,"SYN106AAXX  18064 08014 12565 22104 10048 20008 39978 49986 53003 60002 81640 333 20048 31004 50184 55008 70027;","Q01  00002PRCP12"
"08014099999","2010-02-18T09:00:00","4","43.5666666","-5.7","6.0","GIJON MUSEL, SP","FM-12","99999","V020","210,1,N,0036,1","22000,1,9,N","020000,1,N,1","+0075,1","-0012,1","09999,1",,,,,,,,"01,99,1,01,1,00,1,01750,1,04,1,00,1",,,,,"99999,9,09991,1","3,1,013,1,+999,9",,"SYN076AAXX  18094 08014 42770 12107 10075 21012 39991 49999 53013 81040 333 92437;",
"08014099999","2010-02-18T12:00:00","4","43.5666666","-5.7","6.0","GIJON MUSEL, SP","FM-12","99999","V020","230,1,N,0026,1","22000,1,9,N","040000,1,N,1","+0136,1","-0028,1","09991,1","06,0000,9,1",,,,,,,"03,99,1,01,1,01,1,01250,1,06,1,08,1",,,,,"99999,9,09983,1","8,1,008,1,+999,9",,"SYN082AAXX  18124 08014 12682 32305 10136 21028 39983 49991 58008 60001 81168 333 92438;","Q01  00002PRCP06"
"08014099999","2010-02-18T15:00:00","4","43.5666666","-5.7","6.0","GIJON MUSEL, SP","FM-12","99999","V020","050,1,N,0026,1","22000,1,9,N","040000,1,N,1","+0129,1","+0022,1","09982,1",,,,,,,,"03,99,1,02,1,08,1,01250,1,00,1,01,1",,,,,"99999,9,09974,1","6,1,009,1,+999,9",,"SYN076AAXX  18154 08014 42682 30505 10129 20022 39974 49982 56009 82801 333 92438;",
"08014099999","2010-02-18T18:00:00","4","43.5666666","-5.7","6.0","GIJON MUSEL, SP","FM-12","99999","V020","999,9,C,0000,1","22000,1,9,N","030000,1,N,1","+0110,1","+0038,1","09985,1","12,0000,9,1",,,,,,,"04,99,1,03,1,08,1,01250,1,03,1,01,1",,,,"120,M,+0142,1","99999,9,09977,1","1,1,003,1,+999,9",,"SYN088AAXX  18184 08014 12680 40000 10110 20038 39977 49985 51003 60002 83831 333 10142 92438;","Q01  00002PRCP12"
"08014099999","2010-02-19T06:00:00","4","43.5666666","-5.7","6.0","GIJON MUSEL, SP","FM-12","99999","V020","220,1,N,0026,1","01200,1,9,N","015000,1,N,1","+0054,1","+0029,1","10013,1","12,0089,9,1","24,0094,9,1",,"8,1,06,1","8,1,06,1",,,"06,99,1,05,1,02,1,01250,1,06,1,02,1","0576,9","11,9","999,+0040,9","999,N,+0052,1","99999,9,10005,1","3,1,009,1,+999,9","02,1","SYN112AAXX  19064 08014 11665 62205 10054 20029 30005 40013 53009 60092 70288 85262 333 20052 32004 50314 55096 70093;",
"08014099999","2010-02-19T09:00:00","4","43.5666666","-5.7","6.0","GIJON MUSEL, SP","FM-12","99999","V020","200,1,N,0015,1","00750,1,C,N","008000,1,N,1","+0052,1","+0032,1","10043,1",,,,"8,1,03,1","2,1,03,1","04,1,+00780,1,09,1",,"07,99,1,06,1,09,1,00800,1,06,1,03,1",,,,,"99999,9,10035,1","2,1,030,1,+999,9","80,1","SYN088AAXX  19094 08014 41558 72003 10052 20032 30035 40043 52030 78082 86963 333 84926 92446;",
"08014099999","2010-02-19T12:00:00","4","43.5666666","-5.7","6.0","GIJON MUSEL, SP","FM-12","99999","V020","220,1,N,0026,1","00750,1,C,N","010000,1,N,1","+0070,1","+0038,1","10057,1","06,0020,9,1",,,"9,1,06,1","8,1,06,1","03,1,+00780,1,09,1",,"06,99,1,05,1,09,1,00800,1,06,1,03,1",,,,,"99999,9,10049,1","0,1,014,1,+999,9","80,1","SYN094AAXX  19124 08014 11560 62205 10070 20038 30049 40057 50014 60021 78098 85963 333 83926 92447;",
"08014099999","2010-02-19T15:00:00","4","43.5666666","-5.7","6.0","GIJON MUSEL, SP","FM-12","99999","V020","220,1,N,0057,1","22000,1,9,N","020000,1,N,1","+0092,1","+0009,1","10052,1",,,,"8,1,03,1","1,1,03,1","03,1,+00780,1,09,1",,"04,99,1,03,1,09,1,00800,1,06,1,03,1",,,,,"99999,9,10044,1","5,1,005,1,+999,9","80,1","SYN088AAXX  19154 08014 41570 42211 10092 20009 30044 40052 55005 78081 83963 333 83926 92447;",
"08014099999","2010-02-19T18:00:00","4","43.5666666","-5.7","6.0","GIJON MUSEL, SP","FM-12","99999","V020","200,1,N,0036,1","22000,1,9,N","015000,1,N,1","+0076,1","+0029,1","10063,1","12,0041,9,1",,,"8,1,06,1","1,1,06,1","03,1,+00690,1,09,1",,"04,99,1,02,1,09,1,00800,1,06,1,03,1",,,,"120,M,+0106,1","99999,9,10055,1","1,1,011,1,+999,9","25,1","SYN100AAXX  19184 08014 11565 42007 10076 20029 30055 40063 51011 60042 72581 82963 333 10106 83923 92447;",
"08014099999","2010-02-20T06:00:00","4","43.5666666","-5.7","6.0","GIJON MUSEL, SP","FM-12","99999","V020","190,1,N,0026,1","22000,1,9,N","020000,1,N,1","+0054,1","-0004,1","10073,1","12,0010,9,1","24,0048,9,1",,,,,,"03,99,1,02,1,08,1,00800,1,06,1,00,1","0264,9","09,9","999,+0040,9","999,N,+0050,1","99999,9,10065,1","6,1,007,1,+999,9",,"SYN106AAXX  20064 08014 12570 31905 10054 21004 30065 40073 56007 60012 82860 333 20050 31004 50294 55044 70049;",
"08014099999","2010-02-20T09:00:00","4","43.5666666","-5.7","6.0","GIJON MUSEL, SP","FM-12","99999","V020","220,1,N,0021,1","22000,1,9,N","030000,1,N,1","+0090,1","-0009,1","10079,1",,,,,,"01,1,+00630,1,09,1",,"02,99,1,01,1,09,1,00800,1,06,1,03,1",,,,,"99999,9,10071,1","3,1,006,1,+999,9",,"SYN082AAXX  20094 08014 42580 22204 10090 21009 30071 40079 53006 81963 333 81921 92448;",
"08014099999","2010-02-20T12:00:00","4","43.5666666","-5.7","6.0","GIJON MUSEL, SP","FM-12","99999","V020","220,1,N,0031,1","22000,1,9,N","040000,1,N,1","+0128,1","-0011,1","10074,1","06,0000,9,1",,,,,"01,1,+00630,1,09,1",,"02,99,1,02,1,09,1,00800,1,06,1,03,1",,,,,"99999,9,10066,1","8,1,005,1,+999,9",,"SYN088AAXX  20124 08014 12582 22206 10128 21011 30066 40074 58005 60001 82963 333 81921 92448;","Q01  00002PRCP06"
"08014099999","2010-02-20T15:00:00","4","43.5666666","-5.7","6.0","GIJON MUSEL, SP","FM-12","99999","V020","030,1,N,0010,1","22000,1,9,N","040000,1,N,1","+0132,1","+0009,1","10057,1",,,,,,,,"02,99,1,02,1,02,1,00800,1,06,1,00,1",,,,,"99999,9,10049,1","7,1,017,1,+999,9",,"SYN076AAXX  20154 08014 42582 20302 10132 20009 30049 40057 57017 82260 333 92448;",
"08014099999","2010-02-20T18:00:00","4","43.5666666","-5.7","6.0","GIJON MUSEL, SP","FM-12","99999","V020","999,9,C,0000,1","22000,1,9,N","040000,1,N,1","+0114,1","+0037,1","10052,1","12,0000,9,1",,,,,,,"04,99,1,03,1,08,1,00800,1,06,1,01,1",,,,"120,M,+0142,1","99999,9,10044,1","6,1,005,1,+999,9",,"SYN088AAXX  20184 08014 12582 40000 10114 20037 30044 40052 56005 60002 83861 333 10142 92448;","Q01  00002PRCP12"
"08014099999","2010-02-21T06:00:00","4","43.5666666","-5.7","6.0","GIJON MUSEL, SP","FM-12","99999","V020","999,9,C,0000,1","00750,1,9,N","015000,1,N,1","+0100,1","+0009,1","09924,1","12,0000,9,1","24,0000,9,1",,,,,,"08,99,1,06,1,07,1,00800,1,07,1,99,9","0576,9","09,9","999,+0050,9","999,N,+0065,1","99999,9,09916,1","7,1,052,2,+999,9",,"SYN106AAXX  21064 08014 12565 80000 10100 20009 39916 49924 57052 60002 8677/ 333 20065 31005 50384 55096 70000;","Q01+000522APC3  Q02  00002PRCP24Q03  00002PRCP12"
"08014099999","2010-02-21T12:00:00","4","43.5666666","-5.7","6.0","GIJON MUSEL, SP","FM-12","99999","V020","210,1,N,0041,1","03600,1,9,N","030000,1,N,1","+0162,1","+0122,1","09891,1","06,0000,9,1",,,,,,,"05,99,1,03,1,05,1,01250,1,03,1,01,1",,,,,"99999,9,09884,1","8,1,014,1,+999,9",,"SYN082AAXX  21124 08014 12680 52108 10162 20122 39884 49891 58014 60001 83531 333 92438;","Q01  00002PRCP06"
"08014099999","2010-02-21T15:00:00","4","43.5666666","-5.7","6.0","GIJON MUSEL, SP","FM-12","99999","V020","230,1,N,0026,1","03600,1,9,N","040000,1,N,1","+0176,1","+0016,1","09882,1",,,,,,,,"06,99,1,04,1,08,1,00800,1,07,1,01,1",,,,,"99999,9,09875,1","6,1,009,1,+999,9",,"SYN076AAXX  21154 08014 42582 62305 10176 20016 39875 49882 56009 84871 333 92438;",
"08014099999","2010-02-21T18:00:00","4","43.5666666","-5.7","6.0","GIJON MUSEL, SP","FM-12","99999","V020","200,1,N,0026,1","03600,1,9,N","040000,1,N,1","+0158,1","+0019,1","09883,1","12,0000,9,1",,,,,,,"06,99,1,02,1,08,1,00800,1,04,1,02,1",,,,"120,M,+0186,1","99999,9,09876,1","3,1,001,1,+999,9",,"SYN088AAXX  21184 08014 12582 62005 10158 20019 39876 49883 53001 60002 82842 333 10186 92438;","Q01  00002PRCP12"
"08014099999","2010-02-22T06:00:00","4","43.5666666","-5.7","6.0","GIJON MUSEL, SP","FM-12","99999","V020","270,1,N,0005,1","03600,1,9,N","015000,1,N,1","+0104,1","+0037,1","09876,1","12,0000,9,1","24,0000,9,1",,,,,,"07,99,1,04,1,08,1,00800,1,05,1,99,9","0132,9","01,9","999,+0060,9","999,N,+0088,1","99999,9,09868,1","7,1,009,1,+999,9","02,1","SYN112AAXX  22064 08014 11565 72701 10104 20037 39868 49876 57009 60002 702// 8485/ 333 20088 30006 50604 55022 70000;","Q01  00002PRCP24Q02  00002PRCP12"
"08014099999","2010-02-22T09:00:00","4","43.5666666","-5.7","6.0","GIJON MUSEL, SP","FM-12","99999","V020","250,1,N,0021,1","01200,1,9,N","020000,1,N,1","+0140,1","+0029,1","09889,1",,,,,,,,"07,99,1,05,1,08,1,00800,1,03,1,99,9",,,,,"99999,9,09881,1","2,1,013,1,+999,9",,"SYN076AAXX  22094 08014 42570 72504 10140 20029 39881 49889 52013 8583/ 333 92428;",
"08014099999","2010-02-22T12:00:00","4","43.5666666","-5.7","6.0","GIJON MUSEL, SP","FM-12","99999","V020","310,1,N,0015,1","01200,1,9,N","030000,1,N,1","+0160,1","+0047,1","09888,1","06,0000,9,1",,,,,,,"07,99,1,05,1,08,1,00800,1,03,1,99,9",,,,,"99999,9,09881,1","4,1,000,1,+999,9",,"SYN082AAXX  22124 08014 12580 73103 10160 20047 39881 49888 54000 60001 8583/ 333 92438;","Q01  00002PRCP06"
"08014099999","2010-02-22T15:00:00","4","43.5666666","-5.7","6.0","GIJON MUSEL, SP","FM-12","99999","V020","050,1,N,0010,1","01200,1,9,N","030000,1,N,1","+0136,1","+0093,1","09890,1",,,,,,,,"08,99,1,05,1,08,1,00800,1,05,1,99,9",,,,,"99999,9,09882,1","2,1,001,1,+999,9",,"SYN076AAXX  22154 08014 42580 80502 10136 20093 39882 49890 52001 8585/ 333 92428;",
"08014099999","2010-02-22T18:00:00","4","43.5666666","-5.7","6.0","GIJON MUSEL, SP","FM-12","99999","V020","240,1,N,0026,1","03600,1,9,N","030000,1,N,1","+0154,1","+0050,1","09896,1","12,0000,9,1",,,"5,1,06,1","2,1,06,1",,,"05,99,1,03,1,04,1,00800,1,03,1,00,1",,,,"120,M,+0165,1","99999,9,09889,1","2,1,007,1,+999,9","02,1","SYN094AAXX  22184 08014 11580 52405 10154 20050 39889 49896 52007 69912 70252 83430 333 10165 92428;","Q01  00002PRCP12"
"08014099999","2010-02-23T06:00:00","4","43.5666666","-5.7","6.0","GIJON MUSEL, SP","FM-12","99999","V020","260,1,N,0015,1","03600,1,9,N","015000,1,N,1","+0120,1","+0030,1","09944,1","12,0000,9,1","24,0000,9,1",,,,,,"06,99,1,04,1,04,1,00800,1,05,1,99,9","0126,9","01,9","999,+0090,9","999,N,+0110,1","99999,9,09936,1","3,1,005,1,+999,9","02,1","SYN112AAXX  23064 08014 11565 62603 10120 20030 39936 49944 53005 60002 702// 8445/ 333 20110 30009 50534 55021 70001;","Q01  00002PRCP24Q02  00002PRCP12"
"08014099999","2010-02-23T09:00:00","4","43.5666666","-5.7","6.0","GIJON MUSEL, SP","FM-12","99999","V020","170,1,N,0010,1","03600,1,9,N","015000,1,N,1","+0120,1","+0040,1","09957,1",,,,,,,,"05,99,1,02,1,04,1,00800,1,05,1,00,1",,,,,"99999,9,09949,1","3,1,013,1,+999,9",,"SYN076AAXX  23094 08014 42565 51702 10120 20040 39949 49957 53013 82450 333 92428;",
"08014099999","2010-02-23T12:00:00","4","43.5666666","-5.7","6.0","GIJON MUSEL, SP","FM-12","99999","V020","999,9,C,0000,1","03600,1,9,N","020000,1,N,1","+0148,1","+0051,1","09960,1","06,0000,9,1",,,,,,,"08,99,1,03,1,08,1,00800,1,05,1,99,9",,,,,"99999,9,09952,1","2,1,003,1,+999,9",,"SYN082AAXX  23124 08014 12570 80000 10148 20051 39952 49960 52003 60001 8385/ 333 92428;","Q01  00002PRCP06"
"08014099999","2010-02-23T15:00:00","4","43.5666666","-5.7","6.0","GIJON MUSEL, SP","FM-12","99999","V020","999,9,C,0000,1","03600,1,9,N","030000,1,N,1","+0134,1","+0083,1","09969,1",,,,,,,,"07,99,1,04,1,08,1,00800,1,05,1,99,9",,,,,"99999,9,09961,1","2,1,009,1,+999,9",,"SYN076AAXX  23154 08014 42580 70000 10134 20083 39961 49969 52009 8485/ 333 92428;",
"08014099999","2010-02-23T18:00:00","4","43.5666666","-5.7","6.0","GIJON MUSEL, SP","FM-12","99999","V020","999,9,C,0000,1","01200,1,9,N","030000,1,N,1","+0140,1","+0080,1","09966,1","12,0000,9,1",,,"5,1,06,1","5,1,06,1",,,"08,99,1,05,1,08,1,00800,1,05,1,99,9",,,,"120,M,+0152,1","99999,9,09958,1","8,1,003,1,+999,9","02,1","SYN094AAXX  23184 08014 11580 80000 10140 20080 39958 49966 58003 69922 70255 8585/ 333 10152 92428;","Q01  00002PRCP12"
"08014099999","2010-02-24T06:00:00","4","43.5666666","-5.7","6.0","GIJON MUSEL, SP","FM-12","99999","V020","230,1,N,0051,1","22000,1,9,N","020000,1,N,1","+0122,1","-0006,1","10016,1","12,0008,9,1","24,0010,9,1",,,,,,"02,99,1,01,1,00,1,01250,1,03,1,01,1","0192,9","09,9","999,+0080,9","999,N,+0100,1","99999,9,10008,1","2,1,005,1,+999,9","02,1","SYN112AAXX  24064 08014 11670 22310 10122 21006 30008 40016 52005 69982 702// 81031 333 20100 31008 50384 55032 70010;",
"08014099999","2010-02-24T09:00:00","4","43.5666666","-5.7","6.0","GIJON MUSEL, SP","FM-12","99999","V020","230,1,N,0067,1","22000,1,9,N","020000,1,N,1","+0136,1","-0004,1","10028,1",,,,,,,,"02,99,1,01,1,00,1,01250,1,03,1,01,1",,,,,"99999,9,10020,1","2,1,012,1,+999,9",,"SYN076AAXX  24094 08014 42670 22313 10136 21004 30020 40028 52012 81031 333 92448;",
"08014099999","2010-02-24T12:00:00","4","43.5666666","-5.7","6.0","GIJON MUSEL, SP","FM-12","99999","V020","240,1,N,0072,1","03600,1,9,N","020000,1,N,1","+0170,1","-0016,1","10033,1","06,0000,9,1",,,,,,,"07,99,1,03,1,08,1,00800,1,01,1,00,1",,,,,"99999,9,10025,1","2,1,005,1,+999,9",,"SYN082AAXX  24124 08014 12570 72414 10170 21016 30025 40033 52005 60001 83810 333 92448;","Q01  00002PRCP06"
"08014099999","2010-02-24T15:00:00","4","43.5666666","-5.7","6.0","GIJON MUSEL, SP","FM-12","99999","V020","250,1,N,0015,1","03600,1,9,N","020000,1,N,1","+0142,1","+0031,1","10019,1",,,,,,,,"08,99,1,04,1,08,1,00800,1,07,1,99,9",,,,,"99999,9,10011,1","8,1,014,1,+999,9",,"SYN076AAXX  24154 08014 42570 82503 10142 20031 30011 40019 58014 8487/ 333 92448;",
"08014099999","2010-02-24T18:00:00","4","43.5666666","-5.7","6.0","GIJON MUSEL, SP","FM-12","99999","V020","240,1,N,0010,1","03600,1,9,N","010000,1,N,1","+0148,1","+0051,1","10019,1","12,0000,9,1",,,,,,,"08,99,1,04,1,08,1,00800,1,07,1,99,9",,,,"120,M,+0173,1","99999,9,10011,1","4,1,000,1,+999,9",,"SYN088AAXX  24184 08014 12560 82402 10148 20051 30011 40019 54000 60002 8487/ 333 10173 92447;","Q01  00002PRCP12"
"08014099999","2010-02-25T06:00:00","4","43.5666666","-5.7","6.0","GIJON MUSEL, SP","FM-12","99999","V020","260,1,N,0010,1","01200,1,9,N","020000,1,N,1","+0121,1","+0068,1","09926,1","12,0061,9,1","24,0066,9,1",,,,,,"08,99,1,05,1,08,1,00800,1,07,1,99,9","0240,9","11,9","999,+0080,9","999,N,+0095,1","99999,9,09918,1","7,1,018,1,+999,9","02,1","SYN112AAXX  25064 08014 11570 82602 10121 20068 39918 49926 57018 60062 702// 8587/ 333 20095 32008 50624 55040 70065;",
"08014099999","2010-02-25T09:00:00","4","43.5666666","-5.7","6.0","GIJON MUSEL, SP","FM-12","99999","V020","220,1,N,0015,1","03600,1,9,N","015000,1,N,1","+0122,1","+0099,1","09937,1",,,,"6,1,03,1","2,1,03,1",,,"07,99,1,04,1,08,1,00800,1,02,1,00,1",,,,,"99999,9,09929,1","3,1,011,1,+999,9","02,1","SYN082AAXX  25094 08014 41565 72203 10122 20099 39929 49937 53011 70262 84820 333 92437;",
"08014099999","2010-02-25T12:00:00","4","43.5666666","-5.7","6.0","GIJON MUSEL, SP","FM-12","99999","V020","080,1,N,0010,1","03600,1,9,N","015000,1,N,1","+0170,1","+0104,1","09924,1","06,0005,9,1",,,"6,1,06,1","2,1,06,1",,,"07,99,1,04,1,08,1,00800,1,07,1,00,1",,,,,"99999,9,09917,1","8,1,012,1,+999,9","02,1","SYN088AAXX  25124 08014 11565 70802 10170 20104 39917 49924 58012 69961 70262 84870 333 92437;",
"08014099999","2010-02-25T15:00:00","4","43.5666666","-5.7","6.0","GIJON MUSEL, SP","FM-12","99999","V020","220,1,N,0057,1","22000,1,9,N","015000,1,N,1","+0198,1","+0003,1","09912,1",,,,"6,1,03,1","1,1,03,1",,,"03,99,1,02,1,02,1,00800,1,06,1,00,1",,,,,"99999,9,09905,1","7,1,012,1,+999,9","01,1","SYN082AAXX  25154 08014 41565 32211 10198 20003 39905 49912 57012 70161 82260 333 92437;",
"08014099999","2010-02-25T18:00:00","4","43.5666666","-5.7","6.0","GIJON MUSEL, SP","FM-12","99999","V020","220,1,N,0077,1","22000,1,9,N","020000,1,N,1","+0142,1","+0039,1","09951,1","12,0010,9,1",,,"6,1,06,1","1,1,06,1",,,"03,99,1,02,1,02,1,00800,1,06,1,00,1",,,,"120,M,+0200,1","99999,9,09943,1","2,1,038,1,+999,9","21,1","SYN094AAXX  25184 08014 11570 32215 10142 20039 39943 49951 52038 60012 72161 82260 333 10200 92437;",
"08014099999","2010-02-26T06:00:00","4","43.5666666","-5.7","6.0","GIJON MUSEL, SP","FM-12","99999","V020","210,1,N,0026,1","22000,1,9,N","020000,1,N,1","+0091,1","+0000,1","10077,1","12,0000,2,1","24,0010,9,1",,,,"00,1,+99999,9,99,9",,"00,99,1,00,1,00,1,99999,9,00,1,00,1","0348,9","01,9","999,+0080,9","999,N,+0090,1","99999,9,10069,1","2,1,010,1,+999,9","00,1","SYN106AAXX  26064 08014 11970 02105 10091 20000 30069 40077 52010 60002 700// 333 20090 30008 50804 55058 70010;",
"08014099999","2010-02-26T09:00:00","4","43.5666666","-5.7","6.0","GIJON MUSEL, SP","FM-12","99999","V020","240,1,N,0021,1","22000,1,9,N","015000,1,N,1","+0116,1","-0002,1","10098,1",,,,,,,,"02,99,1,01,1,01,1,00800,1,01,1,01,1",,,,,"99999,9,10090,1","2,1,021,1,+999,9",,"SYN076AAXX  26094 08014 42565 22404 10116 21002 30090 40098 52021 81111 333 92447;",
"08014099999","2010-02-26T12:00:00","4","43.5666666","-5.7","6.0","GIJON MUSEL, SP","FM-12","99999","V020","200,1,N,0015,1","22000,1,9,N","020000,1,N,1","+0155,1","-0044,1","10096,1","06,0000,9,1",,,,,,,"03,99,1,01,1,00,1,01250,1,03,1,05,1",,,,,"99999,9,10088,1","8,1,002,1,+999,9",,"SYN082AAXX  26124 08014 12670 32003 10155 21044 30088 40096 58002 60001 81035 333 92447;","Q01  00002PRCP06"
"08014099999","2010-02-26T15:00:00","4","43.5666666","-5.7","6.0","GIJON MUSEL, SP","FM-12","99999","V020","070,1,N,0021,1","03600,1,9,N","020000,1,N,1","+0144,1","+0026,1","10087,1",,,,,,,,"06,99,1,01,1,01,1,00800,1,01,1,05,1",,,,,"99999,9,10079,1","7,1,009,1,+999,9",,"SYN076AAXX  26154 08014 42570 60704 10144 20026 30079 40087 57009 81115 333 92437;",
"08014099999","2010-02-26T18:00:00","4","43.5666666","-5.7","6.0","GIJON MUSEL, SP","FM-12","99999","V020","080,1,N,0021,1","03600,1,9,N","020000,1,N,1","+0125,1","+0054,1","10073,1","12,0000,9,1",,,,,,,"06,99,1,01,1,01,1,00800,1,01,1,05,1",,,,"120,M,+0165,1","99999,9,10065,1","7,1,014,1,+999,9",,"SYN088AAXX  26184 08014 12570 60804 10125 20054 30065 40073 57014 60002 81115 333 10165 92447;","Q01  00002PRCP12"
"08014099999","2010-02-27T06:00:00","4","43.5666666","-5.7","6.0","GIJON MUSEL, SP","FM-12","99999","V020","120,1,N,0005,1","00750,1,9,N","010000,1,N,1","+0101,1","+0061,1","09982,1","12,0003,9,1","24,0003,9,1",,,,,,"08,99,1,05,1,07,1,00800,1,07,1,99,9","0546,9","11,9","999,+0060,9","999,N,+0085,1","99999,9,09974,1","7,1,025,1,+999,9","61,1","SYN112AAXX  27064 08014 11560 81201 10101 20061 39974 49982 57025 69932 761// 8577/ 333 20085 32006 50504 55091 70003;",
"08014099999","2010-02-27T09:00:00","4","43.5666666","-5.7","6.0","GIJON MUSEL, SP","FM-12","99999","V020","999,9,C,0000,1","99999,9,9,N","015000,1,N,1","+0100,1","+0065,1","09932,1",,,,"6,1,03,1","2,1,03,1",,,"08,99,1,08,1,00,1,01250,1,07,1,99,9",,,,,"99999,9,09924,1","7,1,050,1,+999,9","60,1","SYN082AAXX  27094 08014 41665 80000 10100 20065 39924 49932 57050 76062 8807/ 333 92437;",
"08014099999","2010-02-27T12:00:00","4","43.5666666","-5.7","6.0","GIJON MUSEL, SP","FM-12","99999","V020","080,1,N,0015,1","03600,1,9,N","020000,1,N,1","+0130,1","+0091,1","09854,1","06,0000,2,1",,,"6,1,06,1","2,1,06,1",,,"05,99,1,02,1,08,1,00800,1,03,1,00,1",,,,,"99999,9,09847,1","7,1,077,1,+999,9","01,1","SYN088AAXX  27124 08014 11570 50803 10130 20091 39847 49854 57077 69921 70162 82830 333 92437;",
"08014099999","2010-02-27T15:00:00","4","43.5666666","-5.7","6.0","GIJON MUSEL, SP","FM-12","99999","V020","040,1,N,0021,1","03600,1,9,N","020000,1,N,1","+0150,1","+0083,1","09768,2",,,,,,,,"05,99,1,02,1,08,1,00800,1,03,1,00,1",,,,,"99999,9,09761,2","7,1,086,1,+999,9",,"SYN076AAXX  27154 08014 42570 50404 10150 20083 39761 49768 57086 82830 333 92437;",
"08014099999","2010-02-27T18:00:00","4","43.5666666","-5.7","6.0","GIJON MUSEL, SP","FM-12","99999","V020","190,1,N,0062,1","22000,1,9,N","030000,1,N,1","+0222,1","+0064,1","99999,9","12,0000,2,1",,,,,,,"03,99,1,02,1,01,1,00800,1,03,1,01,1",,,,"120,M,+0227,1",,"7,1,065,1,+999,9",,"SYN088AAXX  27184 08014 12580 31912 10222 20064 39696 49703 57065 69912 82131 333 10227 92438;","Q01+096963APOSP "
"08014099999","2010-02-28T06:00:00","4","43.5666666","-5.7","6.0","GIJON MUSEL, SP","FM-12","99999","V020","240,1,N,0046,1","03600,1,9,N","015000,1,N,1","+0110,1","+0010,1","10028,1","12,0000,9,1","24,0003,9,1",,,,,,"06,99,1,04,1,01,1,00800,1,03,1,00,1","0270,9","01,9","999,+0100,9","999,N,+0103,1","99999,9,10020,1","2,1,020,1,+999,9","02,1","SYN112AAXX  28064 08014 11565 62409 10110 20010 30020 40028 52020 60002 702// 84130 333 20103 30010 50784 55045 70002;","Q01  00002PRCP12"
"08014099999","2010-02-28T09:00:00","4","43.5666666","-5.7","6.0","GIJON MUSEL, SP","FM-12","99999","V020","200,1,N,0026,1","22000,1,9,N","020000,1,N,1","+0102,1","+0011,1","10052,1",,,,,,,,"03,99,1,02,1,01,1,00800,1,03,1,00,1",,,,,"99999,9,10044,1","2,1,024,1,+999,9",,"SYN076AAXX  28094 08014 42570 32005 10102 20011 30044 40052 52024 82130 333 92437;",
"08014099999","2010-02-28T12:00:00","4","43.5666666","-5.7","6.0","GIJON MUSEL, SP","FM-12","99999","V020","240,1,N,0010,1","22000,1,9,N","020000,1,N,1","+0143,1","+0037,1","10058,1","06,0000,9,1",,,,,,,"03,99,1,02,1,01,1,00800,1,03,1,00,1",,,,,"99999,9,10050,1","2,1,006,1,+999,9",,"SYN082AAXX  28124 08014 12570 32402 10143 20037 30050 40058 52006 60001 82130 333 92437;","Q01  00002PRCP06"
"08014099999","2010-02-28T15:00:00","4","43.5666666","-5.7","6.0","GIJON MUSEL, SP","FM-12","99999","V020","050,1,N,0021,1","03600,1,9,N","020000,1,N,1","+0128,1","+0050,1","10056,1",,,,,,,,"08,99,1,02,1,01,1,00800,1,01,1,99,9",,,,,"99999,9,10048,1","8,1,002,1,+999,9",,"SYN076AAXX  28154 08014 42570 80504 10128 20050 30048 40056 58002 8211/ 333 92437;",
"08014099999","2010-02-28T18:00:00","4","43.5666666","-5.7","6.0","GIJON MUSEL, SP","FM-12","99999","V020","080,1,N,0041,1","03600,1,9,N","030000,1,N,1","+0122,1","+0056,1","10050,1","12,0000,9,1",,,,,,,"05,99,1,02,1,08,1,00800,1,01,1,00,1",,,,"120,M,+0149,1","99999,9,10042,1","7,1,006,1,+999,9",,"SYN088AAXX  28184 08014 12580 50808 10122 20056 30042 40050 57006 60002 82810 333 10149 92438;","Q01  00002PRCP12"
"08014099999","2010-03-01T06:00:00","4","43.5666666","-5.7","6.0","GIJON MUSEL, SP","FM-12","99999","V020","190,1,N,0021,1","22000,1,9,N","015000,1,N,1","+0088,1","+0032,1","10066,1","12,0000,9,1","24,0000,9,1",,,,,,"01,99,1,01,1,00,1,01250,1,03,1,00,1","0288,9","01,9","999,+0060,9","999,N,+0078,1","99999,9,10058,1","2,1,012,1,+999,9","02,1","SYN112AAXX  01064 08014 11665 11904 10088 20032 30058 40066 52012 60002 702// 81030 333 20078 30006 50484 55048 70000;","Q01  00002PRCP24Q02  00002PRCP12"
"08014099999","2010-03-01T09:00:00","4","43.5666666","-5.7","6.0","GIJON MUSEL, SP","FM-12","99999","V020","230,1,N,0015,1","22000,1,9,N","030000,1,N,1","+0112,1","+0012,1","10088,1",,,,,,,,"03,99,1,03,1,00,1,01250,1,03,1,00,1",,,,,"99999,9,10080,1","2,1,022,1,+999,9",,"SYN076AAXX  01094 08014 42680 32303 10112 20012 30080 40088 52022 83030 333 92438;",
"08014099999","2010-03-01T12:00:00","4","43.5666666","-5.7","6.0","GIJON MUSEL, SP","FM-12","99999","V020","230,1,N,0041,1","22000,1,9,N","030000,1,N,1","+0166,1","-0001,1","10105,1","06,0000,9,1",,,,,,,"02,99,1,02,1,04,1,00800,1,00,1,00,1",,,,,"99999,9,10097,1","2,1,017,1,+999,9",,"SYN082AAXX  01124 08014 12580 22308 10166 21001 30097 40105 52017 60001 82400 333 92438;","Q01  00002PRCP06"
"08014099999","2010-03-01T15:00:00","4","43.5666666","-5.7","6.0","GIJON MUSEL, SP","FM-12","99999","V020","250,1,N,0072,1","22000,1,9,N","030000,1,N,1","+0164,1","-0008,1","10116,1",,,,,,,,"02,99,1,02,1,04,1,00800,1,00,1,00,1",,,,,"99999,9,10108,1","2,1,011,1,+999,9",,"SYN076AAXX  01154 08014 42580 22514 10164 21008 30108 40116 52011 82400 333 92438;",
"08014099999","2010-03-01T18:00:00","4","43.5666666","-5.7","6.0","GIJON MUSEL, SP","FM-12","99999","V020","240,1,N,0036,1","22000,1,9,N","030000,1,N,1","+0152,1","+0021,1","10135,1","12,0000,9,1",,,,,,,"01,99,1,01,1,04,1,00800,1,00,1,00,1",,,,"120,M,+0174,1","99999,9,10127,1","2,1,019,1,+999,9",,"SYN088AAXX  01184 08014 12580 12407 10152 20021 30127 40135 52019 60002 81400 333 10174 92438;","Q01  00002PRCP12"
"08014099999","2010-03-02T06:00:00","4","43.5666666","-5.7","6.0","GIJON MUSEL, SP","FM-12","99999","V020","220,1,N,0010,1","22000,1,9,N","015000,1,N,1","+0070,1","+0047,1","10159,1","12,0000,9,1","24,0000,9,1",,,,,,"02,99,1,02,1,04,1,00800,1,03,1,00,1","0588,9","01,9","999,+0040,9","999,N,+0061,1","99999,9,10151,1","7,1,004,1,+999,9","02,1","SYN112AAXX  02064 08014 11565 22202 10070 20047 30151 40159 57004 60002 702// 82430 333 20061 30004 50574 55098 70000;","Q01  00002PRCP24Q02  00002PRCP12"
"08014099999","2010-03-02T09:00:00","4","43.5666666","-5.7","6.0","GIJON MUSEL, SP","FM-12","99999","V020","100,1,N,0031,1","22000,1,9,N","030000,1,N,1","+0118,1","+0052,1","10149,1",,,,,,,,"03,99,1,01,1,04,1,00800,1,07,1,00,1",,,,,"99999,9,10141,1","7,1,010,1,+999,9",,"SYN076AAXX  02094 08014 42580 31006 10118 20052 30141 40149 57010 81470 333 92438;",
"08014099999","2010-03-02T12:00:00","4","43.5666666","-5.7","6.0","GIJON MUSEL, SP","FM-12","99999","V020","080,1,N,0041,1","03600,1,9,N","013000,1,N,1","+0130,1","+0087,1","10121,1","06,0000,9,1",,,,,,,"06,99,1,03,1,06,1,00450,1,05,1,99,9",,,,,"99999,9,10113,1","7,1,028,1,+999,9",,"SYN082AAXX  02124 08014 12463 60808 10130 20087 30113 40121 57028 60001 8365/ 333 92437;","Q01  00002PRCP06"
"08014099999","2010-03-02T15:00:00","4","43.5666666","-5.7","6.0","GIJON MUSEL, SP","FM-12","99999","V020","080,1,N,0041,1","03600,1,9,N","015000,1,N,1","+0140,1","+0084,1","10085,1",,,,,,,,"07,99,1,04,1,04,1,00450,1,05,1,99,9",,,,,"99999,9,10077,1","7,1,036,1,+999,9",,"SYN076AAXX  02154 08014 42465 70808 10140 20084 30077 40085 57036 8445/ 333 92438;",
"08014099999","2010-03-02T18:00:00","4","43.5666666","-5.7","6.0","GIJON MUSEL, SP","FM-12","99999","V020","070,1,N,0021,1","03600,1,9,N","015000,1,N,1","+0132,1","+0096,1","10064,1","12,0000,9,1",,,,,,,"08,99,1,03,1,04,1,00800,1,05,1,99,9",,,,"120,M,+0140,1","99999,9,10056,1","7,1,021,1,+999,9",,"SYN088AAXX  02184 08014 12565 80704 10132 20096 30056 40064 57021 60002 8345/ 333 10140 92438;","Q01  00002PRCP12"
"08014099999","2010-03-03T06:00:00","4","43.5666666","-5.7","6.0","GIJON MUSEL, SP","FM-12","99999","V020","230,1,N,0041,1","01200,1,9,N","015000,1,N,1","+0138,1","+0047,1","10023,1","12,0000,9,1","24,0000,9,1",,,,,,"08,99,1,05,1,08,1,00800,1,01,1,99,9","0474,9","09,9","999,+0090,9","999,N,+0107,1","99999,9,10015,1","8,1,003,1,+999,9","02,1","SYN112AAXX  03064 08014 11565 82308 10138 20047 30015 40023 58003 60002 702// 8581/ 333 20107 31009 50254 55079 70000;","Q01  00002PRCP24Q02  00002PRCP12"
"08014099999","2010-03-03T09:00:00","4","43.5666666","-5.7","6.0","GIJON MUSEL, SP","FM-12","99999","V020","240,1,N,0021,1","03600,1,9,N","020000,1,N,1","+0140,1","+0046,1","10035,1",,,,"2,1,03,1","2,1,03,1",,,"08,99,1,04,1,02,1,00800,1,01,1,99,9",,,,,"99999,9,10027,1","2,1,012,1,+999,9","50,1","SYN082AAXX  03094 08014 41570 82404 10140 20046 30027 40035 52012 75022 8421/ 333 92428;",
"08014099999","2010-03-03T12:00:00","4","43.5666666","-5.7","6.0","GIJON MUSEL, SP","FM-12","99999","V020","210,1,N,0026,1","03600,1,9,N","020000,1,N,1","+0158,1","+0065,1","10047,1","06,0000,2,1",,,"5,1,06,1","2,1,06,1",,,"08,99,1,03,1,08,1,00800,1,03,1,99,9",,,,,"99999,9,10039,1","2,1,012,1,+999,9","02,1","SYN088AAXX  03124 08014 11570 82105 10158 20065 30039 40047 52012 69901 70252 8383/ 333 92428;",
"08014099999","2010-03-03T15:00:00","4","43.5666666","-5.7","6.0","GIJON MUSEL, SP","FM-12","99999","V020","030,1,N,0005,1","03600,1,9,N","020000,1,N,1","+0152,1","+0075,1","10051,1",,,,"5,1,03,1","2,1,03,1",,,"08,99,1,03,1,08,1,00800,1,01,1,99,9",,,,,"99999,9,10043,1","2,1,004,1,+999,9","50,1","SYN082AAXX  03154 08014 41570 80301 10152 20075 30043 40051 52004 75052 8381/ 333 92428;",
"08014099999","2010-03-03T18:00:00","4","43.5666666","-5.7","6.0","GIJON MUSEL, SP","FM-12","99999","V020","220,1,N,0015,1","03600,1,9,N","020000,1,N,1","+0128,1","+0109,1","10067,1","12,0010,9,1",,,"6,1,06,1","2,1,06,1",,,"08,99,1,04,1,07,1,00800,1,01,1,99,9",,,,"120,M,+0160,1","99999,9,10059,1","3,1,016,1,+999,9","60,1","SYN094AAXX  03184 08014 11570 82203 10128 20109 30059 40067 53016 60012 76062 8471/ 333 10160 92428;",
"08014099999","2010-03-04T06:00:00","4","43.5666666","-5.7","6.0","GIJON MUSEL, SP","FM-12","99999","V020","030,1,N,0010,1","03600,1,9,N","015000,1,N,1","+0112,1","+0069,1","10141,1","12,0003,9,1","24,0013,9,1",,,,,,"06,99,1,04,1,08,1,00800,1,03,1,99,9","0000,9","11,9","999,+0100,9","999,N,+0111,1","99999,9,10133,1","2,1,013,1,+999,9","02,1","SYN112AAXX  04064 08014 11565 60302 10112 20069 30133 40141 52013 69932 702// 8483/ 333 20111 32010 50254 55000 70013;",
"08014099999","2010-03-04T09:00:00","4","43.5666666","-5.7","6.0","GIJON MUSEL, SP","FM-12","99999","V020","999,9,C,0000,1","03600,1,9,N","020000,1,N,1","+0112,1","+0065,1","10157,1",,,,,,,,"08,99,1,03,1,02,1,00800,1,05,1,99,9",,,,,"99999,9,10149,1","2,1,016,1,+999,9",,"SYN076AAXX  04094 08014 42570 80000 10112 20065 30149 40157 52016 8325/ 333 92428;",
"08014099999","2010-03-04T12:00:00","4","43.5666666","-5.7","6.0","GIJON MUSEL, SP","FM-12","99999","V020","040,1,N,0031,1","03600,1,9,N","020000,1,N,1","+0124,1","+0039,1","10173,1","06,0000,9,1",,,,,,,"08,99,1,04,1,02,1,00800,1,05,1,99,9",,,,,"99999,9,10165,1","2,1,016,1,+999,9",,"SYN082AAXX  04124 08014 12570 80406 10124 20039 30165 40173 52016 60001 8425/ 333 92438;","Q01  00002PRCP06"
"08014099999","2010-03-04T15:00:00","4","43.5666666","-5.7","6.0","GIJON MUSEL, SP","FM-12","99999","V020","040,1,N,0026,1","03600,1,9,N","030000,1,N,1","+0122,1","+0042,1","10172,1",,,,,,,,"07,99,1,04,1,02,1,00800,1,05,1,99,9",,,,,"99999,9,10164,1","7,1,001,1,+999,9",,"SYN076AAXX  04154 08014 42580 70405 10122 20042 30164 40172 57001 8425/ 333 92428;",
"08014099999","2010-03-04T18:00:00","4","43.5666666","-5.7","6.0","GIJON MUSEL, SP","FM-12","99999","V020","040,1,N,0021,1","03600,1,9,N","030000,1,N,1","+0112,1","+0051,1","10179,1","12,0000,9,1",,,,,,,"07,99,1,04,1,02,1,00800,1,05,1,99,9",,,,"120,M,+0124,1","99999,9,10171,1","3,1,007,1,+999,9",,"SYN088AAXX  04184 08014 12580 70404 10112 20051 30171 40179 53007 60002 8425/ 333 10124 92428;","Q01  00002PRCP12"
"08014099999","2010-03-05T06:00:00","4","43.5666666","-5.7","6.0","GIJON MUSEL, SP","FM-12","99999","V020","080,1,N,0046,1","01500,1,9,N","015000,1,N,1","+0100,1","+0031,1","10200,1","12,0000,9,1","24,0000,9,1",,,,,,"05,99,1,05,1,08,1,01250,1,06,1,00,1","0084,9","01,9","999,+0080,9","999,N,+0092,1","99999,9,10192,1","4,1,000,1,+999,9",,"SYN106AAXX  05064 08014 12665 50809 10100 20031 30192 40200 54000 60002 85860 333 20092 30008 50354 55014 70000;","Q01  00002PRCP24Q02  00002PRCP12"
"08014099999","2010-03-05T09:00:00","4","43.5666666","-5.7","6.0","GIJON MUSEL, SP","FM-12","99999","V020","090,1,N,0031,1","00750,1,9,N","015000,1,N,1","+0096,1","+0042,1","10207,1",,,,"2,1,03,1","2,1,03,1",,,"07,99,1,06,1,02,1,00800,1,06,1,00,1",,,,,"99999,9,10199,1","3,1,007,1,+999,9","80,1","SYN082AAXX  05094 08014 41565 70906 10096 20042 30199 40207 53007 78022 86260 333 92446;",
"08014099999","2010-03-05T12:00:00","4","43.5666666","-5.7","6.0","GIJON MUSEL, SP","FM-12","99999","V020","090,1,N,0062,1","00750,1,9,N","015000,1,N,1","+0112,1","+0044,1","10205,1","06,0000,2,1",,,"8,1,06,1","2,1,06,1",,,"06,99,1,05,1,02,1,00800,1,06,1,01,1",,,,,"99999,9,10197,1","8,1,002,1,+999,9","02,1","SYN088AAXX  05124 08014 11565 60912 10112 20044 30197 40205 58002 69901 70282 85261 333 92447;",
"08014099999","2010-03-05T15:00:00","4","43.5666666","-5.7","6.0","GIJON MUSEL, SP","FM-12","99999","V020","090,1,N,0072,1","00750,1,9,N","010000,1,N,1","+0106,1","+0043,1","10188,1",,,,,,,,"07,99,1,06,1,02,1,00800,1,06,1,01,1",,,,,"99999,9,10180,1","6,1,017,1,+999,9",,"SYN076AAXX  05154 08014 42560 70914 10106 20043 30180 40188 56017 86261 333 92446;",
"08014099999","2010-03-05T18:00:00","4","43.5666666","-5.7","6.0","GIJON MUSEL, SP","FM-12","99999","V020","080,1,N,0072,1","03600,1,9,N","010000,1,N,1","+0100,1","+0046,1","10177,1","12,0000,2,1",,,,,,,"06,99,1,02,1,08,1,00800,1,07,1,01,1",,,,"120,M,+0118,1","99999,9,10169,1","6,1,011,1,+999,9",,"SYN088AAXX  05184 08014 12560 60814 10100 20046 30169 40177 56011 69902 82871 333 10118 92446;",
"08014099999","2010-03-06T06:00:00","4","43.5666666","-5.7","6.0","GIJON MUSEL, SP","FM-12","99999","V020","090,1,N,0051,1","03600,1,9,N","015000,1,N,1","+0100,1","+0014,1","10141,1","12,0000,9,1","24,0000,2,1",,,,,,"06,99,1,02,1,05,1,00800,1,07,1,01,1","0138,9","01,9","999,+0090,9","999,N,+0095,1","99999,9,10133,1","6,1,012,1,+999,9",,"SYN106AAXX  06064 08014 12565 60910 10100 20014 30133 40141 56012 60002 82571 333 20095 30009 50514 55023 79999;","Q01  00002PRCP12"
"08014099999","2010-03-06T09:00:00","4","43.5666666","-5.7","6.0","GIJON MUSEL, SP","FM-12","99999","V020","090,1,N,0051,1","03600,1,9,N","015000,1,N,1","+0108,1","+0029,1","10141,1",,,,,,,,"05,99,1,03,1,05,1,01250,1,01,1,02,1",,,,,"99999,9,10133,1","4,1,000,1,+999,9",,"SYN076AAXX  06094 08014 42665 50910 10108 20029 30133 40141 54000 83512 333 92447;",
"08014099999","2010-03-06T12:00:00","4","43.5666666","-5.7","6.0","GIJON MUSEL, SP","FM-12","99999","V020","090,1,N,0072,1","03600,1,9,N","020000,1,N,1","+0118,1","+0052,1","10132,1","06,0000,9,1",,,,,,,"06,99,1,03,1,05,1,01250,1,07,1,01,1",,,,,"99999,9,10124,1","8,1,009,1,+999,9",,"SYN082AAXX  06124 08014 12670 60914 10118 20052 30124 40132 58009 60001 83571 333 92447;","Q01  00002PRCP06"
"08014099999","2010-03-06T15:00:00","4","43.5666666","-5.7","6.0","GIJON MUSEL, SP","FM-12","99999","V020","090,1,N,0062,1","09000,1,9,N","020000,1,N,1","+0124,1","+0056,1","10114,1",,,,,,,,"06,99,1,03,1,00,1,02250,1,03,1,08,1",,,,,"99999,9,10106,1","7,1,018,1,+999,9",,"SYN076AAXX  06154 08014 42870 60912 10124 20056 30106 40114 57018 83038 333 92447;",
"08014099999","2010-03-06T18:00:00","4","43.5666666","-5.7","6.0","GIJON MUSEL, SP","FM-12","99999","V020","090,1,N,0067,1","09000,1,9,N","020000,1,N,1","+0114,1","+0032,1","10120,1","12,0000,9,1",,,,,,,"06,99,1,03,1,00,1,01750,1,07,1,08,1",,,,"120,M,+0126,1","99999,9,10112,1","3,1,006,1,+999,9",,"SYN088AAXX  06184 08014 12770 60913 10114 20032 30112 40120 53006 60002 83078 333 10126 92457;","Q01  00002PRCP12"
"08014099999","2010-03-07T06:00:00","4","43.5666666","-5.7","6.0","GIJON MUSEL, SP","FM-12","99999","V020","090,1,N,0062,1","03600,1,9,N","020000,1,N,1","+0106,1","+0047,1","10133,1","12,0000,9,1","24,0000,9,1",,,,,,"05,99,1,04,1,05,1,01250,1,03,1,01,1","0072,9","01,9","999,+0100,9","999,N,+0104,1","99999,9,10125,1","3,1,003,1,+999,9",,"SYN106AAXX  07064 08014 12670 50912 10106 20047 30125 40133 53003 60002 84531 333 20104 30010 50504 55012 70000;","Q01  00002PRCP24Q02  00002PRCP12"
"08014099999","2010-03-07T09:00:00","4","43.5666666","-5.7","6.0","GIJON MUSEL, SP","FM-12","99999","V020","080,1,N,0062,1","01500,1,9,N","020000,1,N,1","+0102,1","+0033,1","10151,1",,,,,,,,"06,99,1,05,1,08,1,01250,1,03,1,01,1",,,,,"99999,9,10143,1","2,1,018,1,+999,9",,"SYN076AAXX  07094 08014 42670 60812 10102 20033 30143 40151 52018 85831 333 92447;",
"08014099999","2010-03-07T12:00:00","4","43.5666666","-5.7","6.0","GIJON MUSEL, SP","FM-12","99999","V020","080,1,N,0067,1","01200,1,9,N","010000,1,N,1","+0096,1","+0020,1","10156,1","06,0000,9,1",,,,,,,"07,99,1,07,1,02,1,01250,1,06,1,01,1",,,,,"99999,9,10148,1","1,1,005,1,+999,9",,"SYN082AAXX  07124 08014 12660 70813 10096 20020 30148 40156 51005 60001 87261 333 92447;","Q01  00002PRCP06"
"08014099999","2010-03-07T15:00:00","4","43.5666666","-5.7","6.0","GIJON MUSEL, SP","FM-12","99999","V020","080,1,N,0062,1","01200,1,9,N","015000,1,N,1","+0078,1","-0004,1","10157,1",,,,,,,,"07,99,1,07,1,05,1,01250,1,00,1,00,1",,,,,"99999,9,10149,1","1,1,001,1,+999,9",,"SYN076AAXX  07154 08014 42665 70812 10078 21004 30149 40157 51001 87500 333 92447;",
"08014099999","2010-03-07T18:00:00","4","43.5666666","-5.7","6.0","GIJON MUSEL, SP","FM-12","99999","V020","070,1,N,0051,1","01500,1,9,N","015000,1,N,1","+0072,1","-0007,1","10163,1","12,0000,9,1",,,,,,,"06,99,1,06,1,08,1,01250,1,06,1,00,1",,,,"120,M,+0114,1","99999,9,10155,1","3,1,006,1,+999,9",,"SYN088AAXX  07184 08014 12665 60710 10072 21007 30155 40163 53006 60002 86860 333 10114 92447;","Q01  00002PRCP12"
"08014099999","2010-03-08T06:00:00","4","43.5666666","-5.7","6.0","GIJON MUSEL, SP","FM-12","99999","V020","050,1,N,0041,1","22000,1,9,N","020000,1,N,1","+0064,1","-0056,1","10159,1","12,0000,9,1","24,0000,9,1",,,,,,"04,99,1,04,1,08,1,01250,1,06,1,00,1","0012,9","01,9","999,+0040,9","999,N,+0054,1","99999,9,10151,1","5,1,013,1,+999,9",,"SYN106AAXX  08064 08014 12670 40508 10064 21056 30151 40159 55013 60002 84860 333 20054 30004 50444 55002 70000;","Q01  00002PRCP24Q02  00002PRCP12"
"08014099999","2010-03-08T09:00:00","4","43.5666666","-5.7","6.0","GIJON MUSEL, SP","FM-12","99999","V020","050,1,N,0031,1","22000,1,9,N","020000,1,N,1","+0070,1","-0074,1","10161,1",,,,,,,,"03,99,1,03,1,08,1,01250,1,06,1,00,1",,,,,"99999,9,10153,1","0,1,002,1,+999,9",,"SYN076AAXX  08094 08014 42670 30506 10070 21074 30153 40161 50002 83860 333 92447;",
"08014099999","2010-03-08T12:00:00","4","43.5666666","-5.7","6.0","GIJON MUSEL, SP","FM-12","99999","V020","090,1,N,0021,1","01200,1,9,N","020000,1,N,1","+0068,1","-0006,1","10148,1","06,0000,9,1",,,,,,,"06,99,1,06,1,02,1,01250,1,06,1,00,1",,,,,"99999,9,10140,1","8,1,013,1,+999,9",,"SYN082AAXX  08124 08014 12670 60904 10068 21006 30140 40148 58013 60001 86260 333 92447;","Q01  00002PRCP06"
"08014099999","2010-03-08T15:00:00","4","43.5666666","-5.7","6.0","GIJON MUSEL, SP","FM-12","99999","V020","090,1,N,0036,1","22000,1,9,N","020000,1,N,1","+0078,1","+0001,1","10134,1",,,,,,,,"04,99,1,04,1,02,1,01250,1,06,1,00,1",,,,,"99999,9,10126,1","7,1,014,1,+999,9",,"SYN076AAXX  08154 08014 42670 40907 10078 20001 30126 40134 57014 84260 333 92447;",
"08014099999","2010-03-08T18:00:00","4","43.5666666","-5.7","6.0","GIJON MUSEL, SP","FM-12","99999","V020","070,1,N,0026,1","22000,1,9,N","020000,1,N,1","+0070,1","-0047,1","10138,1","12,0000,9,1",,,,,,,"02,99,1,02,1,08,1,01250,1,06,1,00,1",,,,"120,M,+0082,1","99999,9,10130,1","3,1,004,1,+999,9",,"SYN088AAXX  08184 08014 12670 20705 10070 21047 30130 40138 53004 60002 82860 333 10082 92437;","Q01  00002PRCP12"
"08014099999","2010-03-09T06:00:00","4","43.5666666","-5.7","6.0","GIJON MUSEL, SP","FM-12","99999","V020","160,1,N,0010,1","03600,1,9,N","015000,1,N,1","+0052,1","-0008,1","10168,1","12,0000,9,1","24,0000,9,1",,"8,1,06,1","2,1,06,1",,,"05,99,1,04,1,08,1,01250,1,06,1,00,1","0378,9","09,9","999,+0020,9","999,N,+0040,1","99999,9,10160,1","3,1,011,1,+999,9","02,1","SYN112AAXX  09064 08014 11665 51602 10052 21008 30160 40168 53011 69912 70282 84860 333 20040 31002 50404 55063 70001;","Q01  00002PRCP24Q02  00002PRCP12"
"08014099999","2010-03-09T09:00:00","4","43.5666666","-5.7","6.0","GIJON MUSEL, SP","FM-12","99999","V020","080,1,N,0031,1","22000,1,9,N","020000,1,N,1","+0086,1","-0021,1","10192,1",,,,,,,,"03,99,1,03,1,01,1,01250,1,00,1,00,1",,,,,"99999,9,10184,1","2,1,024,1,+999,9",,"SYN076AAXX  09094 08014 42670 30806 10086 21021 30184 40192 52024 83100 333 92447;",
"08014099999","2010-03-09T12:00:00","4","43.5666666","-5.7","6.0","GIJON MUSEL, SP","FM-12","99999","V020","080,1,N,0026,1","22000,1,9,N","030000,1,N,1","+0098,1","-0042,1","10203,1","06,0000,9,1",,,,,,,"03,99,1,03,1,01,1,01250,1,00,1,00,1",,,,,"99999,9,10195,1","1,1,011,1,+999,9",,"SYN082AAXX  09124 08014 12680 30805 10098 21042 30195 40203 51011 60001 83100 333 92448;","Q01  00002PRCP06"
"08014099999","2010-03-09T15:00:00","4","43.5666666","-5.7","6.0","GIJON MUSEL, SP","FM-12","99999","V020","060,1,N,0021,1","22000,1,9,N","030000,1,N,1","+0102,1","-0024,1","10206,1",,,,,,,,"03,99,1,03,1,01,1,00800,1,00,1,00,1",,,,,"99999,9,10198,1","1,1,003,1,+999,9",,"SYN076AAXX  09154 08014 42580 30604 10102 21024 30198 40206 51003 83100 333 92438;",
"08014099999","2010-03-09T18:00:00","4","43.5666666","-5.7","6.0","GIJON MUSEL, SP","FM-12","99999","V020","050,1,N,0015,1","22000,1,9,N","030000,1,N,1","+0086,1","-0029,1","10210,1","12,0000,9,1",,,,,,,"02,99,1,02,1,01,1,00800,1,00,1,00,1",,,,"120,M,+0110,1","99999,9,10202,1","3,1,004,1,+999,9",,"SYN088AAXX  09184 08014 12580 20503 10086 21029 30202 40210 53004 60002 82100 333 10110 92438;","Q01  00002PRCP12"
"08014099999","2010-03-10T06:00:00","4","43.5666666","-5.7","6.0","GIJON MUSEL, SP","FM-12","99999","V020","210,1,N,0021,1","03600,1,9,N","015000,1,N,1","+0043,1","-0019,1","10200,1","12,0000,9,1","24,0000,9,1",,,,,,"05,99,1,03,1,01,1,00800,1,07,1,00,1","0522,9","01,9","999,+0040,9","999,N,+0043,1","99999,9,10192,1","7,1,003,1,+999,9","02,1","SYN112AAXX  10064 08014 11565 52104 10043 21019 30192 40200 57003 69912 702// 83170 333 20043 30004 50414 55087 70001;","Q01  00002PRCP24Q02  00002PRCP12"
"08014099999","2010-03-10T09:00:00","4","43.5666666","-5.7","6.0","GIJON MUSEL, SP","FM-12","99999","V020","190,1,N,0021,1","01200,1,9,N","015000,1,N,1","+0053,1","-0023,1","10202,1",,,,,,,,"07,99,1,07,1,01,1,01250,1,00,1,00,1",,,,,"99999,9,10194,1","3,1,002,1,+999,9",,"SYN076AAXX  10094 08014 42665 71904 10053 21023 30194 40202 53002 87100 333 92437;",
"08014099999","2010-03-10T12:00:00","4","43.5666666","-5.7","6.0","GIJON MUSEL, SP","FM-12","99999","V020","040,1,N,0031,1","01200,1,9,N","015000,1,N,1","+0080,1","-0032,1","10200,1","06,0000,9,1",,,,,,,"05,99,1,05,1,01,1,01250,1,00,1,00,1",,,,,"99999,9,10192,1","8,1,002,1,+999,9",,"SYN082AAXX  10124 08014 12665 50406 10080 21032 30192 40200 58002 60001 85100 333 92437;","Q01  00002PRCP06"
"08014099999","2010-03-10T15:00:00","4","43.5666666","-5.7","6.0","GIJON MUSEL, SP","FM-12","99999","V020","040,1,N,0026,1","01200,1,9,N","015000,1,N,1","+0088,1","-0025,1","10192,1",,,,,,,,"05,99,1,05,1,01,1,01250,1,00,1,00,1",,,,,"99999,9,10184,1","7,1,008,1,+999,9",,"SYN076AAXX  10154 08014 42665 50405 10088 21025 30184 40192 57008 85100 333 92437;",
"08014099999","2010-03-10T18:00:00","4","43.5666666","-5.7","6.0","GIJON MUSEL, SP","FM-12","99999","V020","040,1,N,0026,1","22000,1,9,N","015000,1,N,1","+0080,1","-0038,1","10194,1","12,0000,9,1",,,,,,,"04,99,1,04,1,01,1,01250,1,00,1,00,1",,,,"120,M,+0094,1","99999,9,10186,1","3,1,002,1,+999,9",,"SYN088AAXX  10184 08014 12665 40405 10080 21038 30186 40194 53002 60002 84100 333 10094 92437;","Q01  00002PRCP12"
"08014099999","2010-03-11T06:00:00","4","43.5666666","-5.7","6.0","GIJON MUSEL, SP","FM-12","99999","V020","080,1,N,0041,1","00750,1,9,N","015000,1,N,1","+0072,1","-0020,1","10185,1","12,0000,9,1","24,0000,9,1",,,,,,"07,99,1,07,1,01,1,00800,1,00,1,00,1","0282,9","01,9","999,+0040,9","999,N,+0050,1","99999,9,10177,1","4,1,000,1,+999,9","02,1","SYN112AAXX  11064 08014 11565 70808 10072 21020 30177 40185 54000 60002 702// 87100 333 20050 30004 50424 55047 70000;","Q01  00002PRCP24Q02  00002PRCP12"
"08014099999","2010-03-11T09:00:00","4","43.5666666","-5.7","6.0","GIJON MUSEL, SP","FM-12","99999","V020","200,1,N,0015,1","01200,1,9,N","010000,1,N,1","+0063,1","-0031,1","10197,1",,,,,,,,"08,99,1,08,1,00,1,01250,1,02,1,99,9",,,,,"99999,9,10189,1","2,1,012,1,+999,9",,"SYN076AAXX  11094 08014 42660 82003 10063 21031 30189 40197 52012 8802/ 333 92437;",
"08014099999","2010-03-11T12:00:00","4","43.5666666","-5.7","6.0","GIJON MUSEL, SP","FM-12","99999","V020","230,1,N,0015,1","01200,1,9,N","008000,1,N,1","+0078,1","-0034,1","10194,1","06,0000,9,1",,,"2,1,06,1","2,1,06,1",,,"08,99,1,06,1,06,1,01250,1,01,1,99,9",,,,,"99999,9,10186,1","8,1,003,1,+999,9","05,1","SYN088AAXX  11124 08014 11658 82303 10078 21034 30186 40194 58003 60001 70522 8661/ 333 92436;","Q01  00002PRCP06"
"08014099999","2010-03-11T15:00:00","4","43.5666666","-5.7","6.0","GIJON MUSEL, SP","FM-12","99999","V020","220,1,N,0005,1","01200,1,9,N","008000,1,N,1","+0080,1","-0032,1","10185,1",,,,"2,1,03,1","2,1,03,1",,,"08,99,1,07,1,06,1,01250,1,01,1,99,9",,,,,"99999,9,10177,1","7,1,009,1,+999,9","05,1","SYN082AAXX  11154 08014 41658 82201 10080 21032 30177 40185 57009 70522 8761/ 333 92436;",
"08014099999","2010-03-11T18:00:00","4","43.5666666","-5.7","6.0","GIJON MUSEL, SP","FM-12","99999","V020","280,1,N,0010,1","01200,1,9,N","008000,1,N,1","+0078,1","-0012,1","10192,1","12,0000,9,1",,,"2,1,06,1","2,1,06,1",,,"08,99,1,06,1,06,1,01250,1,01,1,99,9",,,,"120,M,+0082,1","99999,9,10184,1","3,1,007,1,+999,9","05,1","SYN094AAXX  11184 08014 11658 82802 10078 21012 30184 40192 53007 60002 70522 8661/ 333 10082 92436;","Q01  00002PRCP12"
"08014099999","2010-03-12T06:00:00","4","43.5666666","-5.7","6.0","GIJON MUSEL, SP","FM-12","99999","V020","999,9,C,0000,1","01200,1,9,N","010000,1,N,1","+0060,1","+0006,1","10217,1","12,0000,9,1","24,0000,9,1",,,,,,"05,99,1,05,1,01,1,01250,1,00,1,00,1","0000,9","01,9","999,+0040,9","999,N,+0058,1","99999,9,10209,1","2,1,009,1,+999,9","02,1","SYN112AAXX  12064 08014 11660 50000 10060 20006 30209 40217 52009 60002 702// 85100 333 20058 30004 50364 55000 70000;","Q01  00002PRCP24Q02  00002PRCP12"
"08014099999","2010-03-12T09:00:00","4","43.5666666","-5.7","6.0","GIJON MUSEL, SP","FM-12","99999","V020","210,1,N,0021,1","03600,1,9,N","008000,1,N,1","+0072,1","+0021,1","10235,1",,,,"2,1,03,1","2,1,03,1",,,"06,99,1,03,1,01,1,01250,1,03,1,00,1",,,,,"99999,9,10227,1","2,1,018,1,+999,9","10,1","SYN082AAXX  12094 08014 41658 62104 10072 20021 30227 40235 52018 71022 83130 333 92436;",
"08014099999","2010-03-12T12:00:00","4","43.5666666","-5.7","6.0","GIJON MUSEL, SP","FM-12","99999","V020","050,1,N,0015,1","03600,1,9,N","008000,1,N,1","+0100,1","+0001,1","10246,1","06,0000,9,1",,,"2,1,06,1","2,1,06,1",,,"07,99,1,04,1,01,1,01250,1,03,1,00,1",,,,,"99999,9,10238,1","2,1,011,1,+999,9","05,1","SYN088AAXX  12124 08014 11658 70503 10100 20001 30238 40246 52011 60001 70522 84130 333 92436;","Q01  00002PRCP06"
"08014099999","2010-03-12T15:00:00","4","43.5666666","-5.7","6.0","GIJON MUSEL, SP","FM-12","99999","V020","020,1,N,0036,1","01200,1,9,N","010000,1,N,1","+0097,1","-0002,1","10248,1",,,,,,,,"08,99,1,05,1,06,1,01250,1,01,1,99,9",,,,,"99999,9,10240,1","3,1,002,1,+999,9",,"SYN076AAXX  12154 08014 42660 80207 10097 21002 30240 40248 53002 8561/ 333 92436;",
"08014099999","2010-03-12T18:00:00","4","43.5666666","-5.7","6.0","GIJON MUSEL, SP","FM-12","99999","V020","030,1,N,0026,1","03600,1,9,N","010000,1,N,1","+0096,1","+0022,1","10255,1","12,0000,9,1",,,,,,,"07,99,1,04,1,06,1,01250,1,01,1,01,1",,,,"120,M,+0104,1","99999,9,10247,1","2,1,007,1,+999,9",,"SYN088AAXX  12184 08014 12660 70305 10096 20022 30247 40255 52007 60002 84611 333 10104 92436;","Q01  00002PRCP12"
"08014099999","2010-03-13T06:00:00","4","43.5666666","-5.7","6.0","GIJON MUSEL, SP","FM-12","99999","V020","210,1,N,0026,1","00750,1,9,N","015000,1,N,1","+0068,1","+0015,1","10273,1","12,0000,9,1","24,0000,9,1",,,,,,"06,99,1,06,1,01,1,00800,1,00,1,00,1","0096,9","01,9","999,+0060,9","999,N,+0065,1","99999,9,10265,1","4,1,000,1,+999,9","02,1","SYN112AAXX  13064 08014 11565 62105 10068 20015 30265 40273 54000 60002 702// 86100 333 20065 30006 50394 55016 70000;","Q01  00002PRCP24Q02  00002PRCP12"
"08014099999","2010-03-13T09:00:00","4","43.5666666","-5.7","6.0","GIJON MUSEL, SP","FM-12","99999","V020","190,1,N,0010,1","01200,1,9,N","015000,1,N,1","+0075,1","+0020,1","10282,1",,,,,,,,"08,99,1,08,1,06,1,01250,1,99,9,99,9",,,,,"99999,9,10274,1","2,1,009,1,+999,9",,"SYN076AAXX  13094 08014 42665 81902 10075 20020 30274 40282 52009 886// 333 92427;",
"08014099999","2010-03-13T12:00:00","4","43.5666666","-5.7","6.0","GIJON MUSEL, SP","FM-12","99999","V020","120,1,N,0015,1","00750,1,9,N","006000,1,N,1","+0079,1","+0054,1","10281,1","06,9999,9,9",,,"9,1,06,1","8,1,06,1",,,"08,99,1,08,1,07,1,00800,1,99,9,99,9",,,,,"99999,9,10273,1","8,1,001,1,+999,9","81,1","SYN088AAXX  13124 08014 11556 81203 10079 20054 30273 40281 58001 60001 78198 887// 333 92436;","Q01  00002PRCP06Q02  00002PRCP06"
"08014099999","2010-03-13T15:00:00","4","43.5666666","-5.7","6.0","GIJON MUSEL, SP","FM-12","99999","V020","190,1,N,0015,1","00750,1,9,N","012000,1,N,1","+0072,1","+0047,1","10280,1",,,,"6,1,03,1","2,1,03,1",,,"08,99,1,05,1,07,1,00800,1,02,1,99,9",,,,,"99999,9,10272,1","7,1,001,1,+999,9","52,1","SYN082AAXX  13154 08014 41562 81903 10072 20047 30272 40280 57001 75262 8572/ 333 92437;",
"08014099999","2010-03-13T18:00:00","4","43.5666666","-5.7","6.0","GIJON MUSEL, SP","FM-12","99999","V020","140,1,N,0005,1","03600,1,9,N","015000,1,N,1","+0072,1","+0049,1","10291,1","12,0089,9,1",,,"6,1,06,1","2,1,06,1",,,"07,99,1,04,1,02,1,00450,1,02,1,00,1",,,,"120,M,+0098,1","99999,9,10283,1","2,1,011,1,+999,9","62,1","SYN094AAXX  13184 08014 11465 71401 10072 20049 30283 40291 52011 60092 76262 84220 333 10098 92437;",
"08014099999","2010-03-14T06:00:00","4","43.5666666","-5.7","6.0","GIJON MUSEL, SP","FM-12","99999","V020","250,1,N,0015,1","00750,1,9,N","006000,1,N,1","+0058,1","+0033,1","10316,1","12,0008,9,1","24,0099,9,1",,,,,,"06,99,1,06,1,01,1,00800,1,00,1,00,1","0030,9","09,9","999,+0030,9","999,N,+0050,1","99999,9,10308,1","2,1,002,1,+999,9","10,1","SYN112AAXX  14064 08014 11556 62503 10058 20033 30308 40316 52002 69982 710// 86100 333 20050 31003 50194 55005 70100;",
"08014099999","2010-03-14T09:00:00","4","43.5666666","-5.7","6.0","GIJON MUSEL, SP","FM-12","99999","V020","220,1,N,0021,1","22000,1,9,N","008000,1,N,1","+0080,1","+0033,1","10330,1",,,,"1,1,03,1","1,1,03,1",,,"04,99,1,02,1,06,1,01250,1,03,1,00,1",,,,,"99999,9,10322,1","2,1,014,1,+999,9","10,1","SYN082AAXX  14094 08014 41658 42204 10080 20033 30322 40330 52014 71011 82630 333 92436;",
"08014099999","2010-03-14T12:00:00","4","43.5666666","-5.7","6.0","GIJON MUSEL, SP","FM-12","99999","V020","040,1,N,0021,1","03600,1,9,N","010000,1,N,1","+0100,1","+0037,1","10331,1","06,0000,9,1",,,,,,,"05,99,1,03,1,06,1,01250,1,03,1,00,1",,,,,"99999,9,10323,1","2,1,001,1,+999,9",,"SYN082AAXX  14124 08014 12660 50404 10100 20037 30323 40331 52001 60001 83630 333 92436;","Q01  00002PRCP06"
"08014099999","2010-03-14T15:00:00","4","43.5666666","-5.7","6.0","GIJON MUSEL, SP","FM-12","99999","V020","080,1,N,0021,1","22000,1,9,N","015000,1,N,1","+0118,1","+0031,1","10319,1",,,,,,,,"03,99,1,02,1,01,1,01250,1,03,1,00,1",,,,,"99999,9,10311,1","8,1,012,1,+999,9",,"SYN076AAXX  14154 08014 42665 30804 10118 20031 30311 40319 58012 82130 333 92437;",
"08014099999","2010-03-14T18:00:00","4","43.5666666","-5.7","6.0","GIJON MUSEL, SP","FM-12","99999","V020","100,1,N,0026,1","22000,1,9,N","020000,1,N,1","+0110,1","+0042,1","10308,1","12,0000,9,1",,,,,,,"02,99,1,02,1,01,1,01250,1,00,1,00,1",,,,"120,M,+0123,1","99999,9,10300,1","7,1,011,1,+999,9",,"SYN088AAXX  14184 08014 12670 21005 10110 20042 30300 40308 57011 60002 82100 333 10123 92437;","Q01  00002PRCP12"
"08014099999","2010-03-15T06:00:00","4","43.5666666","-5.7","6.0","GIJON MUSEL, SP","FM-12","99999","V020","200,1,N,0010,1","22000,1,9,N","020000,1,N,1","+0056,1","-0002,1","10283,1","12,0000,9,1","24,0000,9,1",,,,,,"02,99,1,02,1,00,1,02250,1,04,1,08,1","0492,9","09,9","999,+0020,9","999,N,+0048,1","99999,9,10275,1","7,1,013,1,+999,9",,"SYN106AAXX  15064 08014 12870 22002 10056 21002 30275 40283 57013 60002 82048 333 20048 31002 50184 55082 70000;","Q01  00002PRCP24Q02  00002PRCP12"
"08014099999","2010-03-15T09:00:00","4","43.5666666","-5.7","6.0","GIJON MUSEL, SP","FM-12","99999","V020","170,1,N,0010,1","22000,1,9,N","010000,1,N,1","+0080,1","+0010,1","10283,1",,,,,,,,"01,99,1,01,1,00,1,02250,1,04,1,08,1",,,,,"99999,9,10275,1","4,1,000,1,+999,9",,"SYN076AAXX  15094 08014 42860 11702 10080 20010 30275 40283 54000 81048 333 92437;",
"08014099999","2010-03-15T12:00:00","4","43.5666666","-5.7","6.0","GIJON MUSEL, SP","FM-12","99999","V020","080,1,N,0051,1","22000,1,9,N","020000,1,N,1","+0110,1","+0038,1","10275,1","06,0000,9,1",,,,,,,"01,99,1,01,1,00,1,02250,1,04,1,00,1",,,,,"99999,9,10267,1","8,1,008,1,+999,9",,"SYN082AAXX  15124 08014 12870 10810 10110 20038 30267 40275 58008 60001 81040 333 92438;","Q01  00002PRCP06"
"08014099999","2010-03-15T15:00:00","4","43.5666666","-5.7","6.0","GIJON MUSEL, SP","FM-12","99999","V020","080,1,N,0041,1","22000,1,9,N","020000,1,N,1","+0122,1","+0047,1","10256,1",,,,,,,,"01,99,1,00,1,00,1,99999,9,00,1,08,1",,,,,"99999,9,10248,1","7,1,019,1,+999,9",,"SYN076AAXX  15154 08014 42970 10808 10122 20047 30248 40256 57019 80008 333 92447;",
"08014099999","2010-03-15T18:00:00","4","43.5666666","-5.7","6.0","GIJON MUSEL, SP","FM-12","99999","V020","080,1,N,0041,1","22000,1,9,N","020000,1,N,1","+0112,1","+0059,1","10245,1","12,0000,9,1",,,,,,,"03,99,1,01,1,00,1,02250,1,04,1,01,1",,,,"120,M,+0122,1","99999,9,10237,1","6,1,011,1,+999,9",,"SYN088AAXX  15184 08014 12870 30808 10112 20059 30237 40245 56011 60002 81041 333 10122 92447;","Q01  00002PRCP12"
"08014099999","2010-03-16T06:00:00","4","43.5666666","-5.7","6.0","GIJON MUSEL, SP","FM-12","99999","V020","999,9,C,0000,1","22000,1,9,N","020000,1,N,1","+0064,1","+0007,1","10213,1","12,0000,9,1","24,0000,9,1",,,,,,"01,99,1,01,1,00,1,02250,1,04,1,01,1","0570,9","09,9","999,+0020,9","999,N,+0042,1","99999,9,10205,1","6,1,008,1,+999,9",,"SYN106AAXX  16064 08014 12870 10000 10064 20007 30205 40213 56008 60002 81041 333 20042 31002 50234 55095 70000;","Q01  00002PRCP24Q02  00002PRCP12"
"08014099999","2010-03-16T09:00:00","4","43.5666666","-5.7","6.0","GIJON MUSEL, SP","FM-12","99999","V020","170,1,N,0015,1","22000,1,9,N","020000,1,N,1","+0104,1","-0007,1","10214,1",,,,,,,,"03,99,1,00,1,00,1,99999,9,00,1,01,1",,,,,"99999,9,10206,1","3,1,001,1,+999,9",,"SYN076AAXX  16094 08014 42970 31703 10104 21007 30206 40214 53001 80001 333 92437;",
"08014099999","2010-03-16T12:00:00","4","43.5666666","-5.7","6.0","GIJON MUSEL, SP","FM-12","99999","V020","060,1,N,0015,1","02100,1,9,N","015000,1,N,1","+0134,1","+0053,1","10219,1","06,0000,9,1",,,,,,,"06,99,1,05,1,00,1,02250,1,07,1,08,1",,,,,"99999,9,10211,1","1,1,005,1,+999,9",,"SYN082AAXX  16124 08014 12865 60603 10134 20053 30211 40219 51005 60001 85078 333 92437;","Q01  00002PRCP06"
"08014099999","2010-03-16T15:00:00","4","43.5666666","-5.7","6.0","GIJON MUSEL, SP","FM-12","99999","V020","070,1,N,0010,1","02100,1,9,N","015000,1,N,1","+0132,1","+0061,1","10216,1",,,,,,,,"06,99,1,05,1,00,1,02250,1,07,1,01,1",,,,,"99999,9,10208,1","8,1,003,1,+999,9",,"SYN076AAXX  16154 08014 42865 60702 10132 20061 30208 40216 58003 85071 333 92437;",
"08014099999","2010-03-16T18:00:00","4","43.5666666","-5.7","6.0","GIJON MUSEL, SP","FM-12","99999","V020","999,9,C,0000,1","01500,1,9,N","010000,1,N,1","+0132,1","+0054,1","10216,1","12,0000,9,1",,,,,,,"06,99,1,05,1,00,1,01750,1,07,1,02,1",,,,"120,M,+0138,1","99999,9,10208,1","4,1,000,1,+999,9",,"SYN088AAXX  16184 08014 12760 60000 10132 20054 30208 40216 54000 60002 85072 333 10138 92436;","Q01  00002PRCP12"
"08014099999","2010-03-17T06:00:00","4","43.5666666","-5.7","6.0","GIJON MUSEL, SP","FM-12","99999","V020","210,1,N,0041,1","22000,1,9,N","020000,1,N,1","+0092,1","-0033,1","10231,1","12,0000,9,1","24,0000,9,1",,,,,,"01,99,1,01,1,00,1,02250,1,04,1,00,1","0234,9","01,9","999,+0040,9","999,N,+0065,1","99999,9,10223,1","6,1,012,1,+999,9",,"SYN106AAXX  17064 08014 12870 12108 10092 21033 30223 40231 56012 60002 81040 333 20065 30004 50374 55039 70000;","Q01  00002PRCP24Q02  00002PRCP12"
"08014099999","2010-03-17T09:00:00","4","43.5666666","-5.7","6.0","GIJON MUSEL, SP","FM-12","99999","V020","210,1,N,0041,1","22000,1,9,N","015000,1,N,1","+0122,1","-0032,1","10234,1",,,,,,,,"03,99,1,00,1,00,1,99999,9,00,1,01,1",,,,,"99999,9,10226,1","1,1,003,1,+999,9",,"SYN076AAXX  17094 08014 42965 32108 10122 21032 30226 40234 51003 80001 333 92437;",
"08014099999","2010-03-17T12:00:00","4","43.5666666","-5.7","6.0","GIJON MUSEL, SP","FM-12","99999","V020","050,1,N,0010,1","22000,1,9,N","020000,1,N,1","+0140,1","+0038,1","10229,1","06,0000,9,1",,,,,,,"03,99,1,00,1,00,1,99999,9,00,1,09,1",,,,,"99999,9,10221,1","8,1,005,1,+999,9",,"SYN082AAXX  17124 08014 12970 30502 10140 20038 30221 40229 58005 60001 80009 333 92437;","Q01  00002PRCP06"
"08014099999","2010-03-17T15:00:00","4","43.5666666","-5.7","6.0","GIJON MUSEL, SP","FM-12","99999","V020","050,1,N,0021,1","22000,1,9,N","020000,1,N,1","+0142,1","+0058,1","10202,1",,,,,,,,"04,99,1,00,1,00,1,99999,9,00,1,08,1",,,,,"99999,9,10194,1","7,1,027,1,+999,9",,"SYN076AAXX  17154 08014 42970 40504 10142 20058 30194 40202 57027 80008 333 92437;",
"08014099999","2010-03-17T18:00:00","4","43.5666666","-5.7","6.0","GIJON MUSEL, SP","FM-12","99999","V020","060,1,N,0021,1","22000,1,9,N","020000,1,N,1","+0132,1","+0093,1","10196,1","12,0000,9,1",,,,,,,"06,99,1,04,1,00,1,02250,1,07,1,01,1",,,,"120,M,+0164,1","99999,9,10188,1","7,1,006,1,+999,9",,"SYN088AAXX  17184 08014 12870 60604 10132 20093 30188 40196 57006 60002 84071 333 10164 92437;","Q01  00002PRCP12"
"08014099999","2010-03-18T06:00:00","4","43.5666666","-5.7","6.0","GIJON MUSEL, SP","FM-12","99999","V020","180,1,N,0010,1","03600,1,9,N","020000,1,N,1","+0122,1","+0054,1","10170,1","12,0000,9,1","24,0000,9,1",,,,,,"08,99,1,03,1,04,1,00800,1,05,1,99,9","0534,9","01,9","999,+0100,9","999,N,+0111,1","99999,9,10162,1","3,1,003,1,+999,9","02,1","SYN112AAXX  18064 08014 11570 81802 10122 20054 30162 40170 53003 60002 702// 8345/ 333 20111 30010 50384 55089 70000;","Q01  00002PRCP24Q02  00002PRCP12"
"08014099999","2010-03-18T09:00:00","4","43.5666666","-5.7","6.0","GIJON MUSEL, SP","FM-12","99999","V020","999,9,C,0000,1","00420,1,9,N","010000,1,N,1","+0128,1","+0083,1","10172,1",,,,"6,1,03,1","2,1,03,1",,,"08,99,1,05,1,07,1,00450,1,01,1,99,9",,,,,"99999,9,10164,1","2,1,002,1,+999,9","61,1","SYN082AAXX  18094 08014 41460 80000 10128 20083 30164 40172 52002 76162 8571/ 333 92427;",
"08014099999","2010-03-18T12:00:00","4","43.5666666","-5.7","6.0","GIJON MUSEL, SP","FM-12","99999","V020","999,9,C,0000,1","03600,1,9,N","020000,1,N,1","+0154,1","+0095,1","10170,1","06,0010,9,1",,,"6,1,06,1","2,1,06,1",,,"08,99,1,03,1,08,1,00800,1,01,1,99,9",,,,,"99999,9,10162,1","7,1,002,1,+999,9","02,1","SYN088AAXX  18124 08014 11570 80000 10154 20095 30162 40170 57002 60011 70262 8381/ 333 92428;",
"08014099999","2010-03-18T15:00:00","4","43.5666666","-5.7","6.0","GIJON MUSEL, SP","FM-12","99999","V020","999,9,C,0000,1","03600,1,9,N","020000,1,N,1","+0182,1","+0085,1","10159,1",,,,,,,,"06,99,1,03,1,04,1,00800,1,05,1,99,9",,,,,"99999,9,10151,1","7,1,011,1,+999,9",,"SYN076AAXX  18154 08014 42570 60000 10182 20085 30151 40159 57011 8345/ 333 92428;",
"08014099999","2010-03-18T18:00:00","4","43.5666666","-5.7","6.0","GIJON MUSEL, SP","FM-12","99999","V020","010,1,N,0010,1","22000,1,9,N","030000,1,N,1","+0166,1","+0083,1","10167,1","12,0010,9,1",,,,,,,"03,99,1,03,1,04,1,00800,1,03,1,00,1",,,,"120,M,+0198,1","99999,9,10159,1","2,1,008,1,+999,9",,"SYN088AAXX  18184 08014 12580 30102 10166 20083 30159 40167 52008 60012 83430 333 10198 92428;",
"08014099999","2010-03-19T06:00:00","4","43.5666666","-5.7","6.0","GIJON MUSEL, SP","FM-12","99999","V020","999,9,C,0000,1","01200,1,9,N","020000,1,N,1","+0132,1","+0106,1","10119,1","12,0000,9,1","24,0013,9,1",,,,,,"08,99,1,05,1,08,1,00800,1,05,1,99,9","0198,9","09,9","999,+0090,9","999,N,+0110,1","99999,9,10111,1","7,1,019,1,+999,9","02,1","SYN112AAXX  19064 08014 11570 80000 10132 20106 30111 40119 57019 60002 702// 8585/ 333 20110 31009 50254 55033 70012;","Q01  00002PRCP12"
"08014099999","2010-03-19T09:00:00","4","43.5666666","-5.7","6.0","GIJON MUSEL, SP","FM-12","99999","V020","260,1,N,0026,1","00750,1,9,N","030000,1,N,1","+0202,1","+0092,1","10126,1",,,,,,,,"08,99,1,05,1,02,1,00800,1,07,1,99,9",,,,,"99999,9,10118,1","3,1,007,1,+999,9",,"SYN076AAXX  19094 08014 42580 82605 10202 20092 30118 40126 53007 8527/ 333 92428;",
"08014099999","2010-03-19T12:00:00","4","43.5666666","-5.7","6.0","GIJON MUSEL, SP","FM-12","99999","V020","200,1,N,0010,1","01200,1,9,N","020000,1,N,1","+0168,1","+0125,1","10123,1","06,0003,9,1",,,"8,1,06,1","8,1,06,1",,,"08,99,1,05,1,08,1,00800,1,07,1,99,9",,,,,"99999,9,10115,1","7,1,003,1,+999,9","02,1","SYN088AAXX  19124 08014 11570 82002 10168 20125 30115 40123 57003 69931 70288 8587/ 333 92428;",
"08014099999","2010-03-19T15:00:00","4","43.5666666","-5.7","6.0","GIJON MUSEL, SP","FM-12","99999","V020","070,1,N,0021,1","22000,1,9,N","030000,1,N,1","+0174,1","+0135,1","10114,1",,,,,,,,"04,99,1,02,1,04,1,00800,1,03,1,00,1",,,,,"99999,9,10106,1","7,1,009,1,+999,9",,"SYN076AAXX  19154 08014 42580 40704 10174 20135 30106 40114 57009 82430 333 92428;",
"08014099999","2010-03-19T18:00:00","4","43.5666666","-5.7","6.0","GIJON MUSEL, SP","FM-12","99999","V020","200,1,N,0046,1","03600,1,C,N","030000,1,N,1","+0222,1","+0064,1","10105,1","12,0003,9,1",,,,,,,"06,99,1,02,1,04,1,00800,1,03,1,99,9",,,,"120,M,+0232,1","99999,9,10098,1","7,1,008,1,+999,9",,"SYN088AAXX  19184 08014 12580 62009 10222 20064 30098 40105 57008 69932 8243/ 333 10232 92438;",
"08014099999","2010-03-20T06:00:00","4","43.5666666","-5.7","6.0","GIJON MUSEL, SP","FM-12","99999","V020","999,9,C,0000,1","03600,1,9,N","020000,1,N,1","+0154,1","+0095,1","10113,1","12,0000,9,1","24,0003,9,1",,,,,,"07,99,1,04,1,04,1,00800,1,05,1,99,9","0180,9","01,9","999,+0140,9","999,N,+0145,1","99999,9,10105,1","2,1,001,1,+999,9","02,1","SYN112AAXX  20064 08014 11570 70000 10154 20095 30105 40113 52001 60002 702// 8445/ 333 20145 30014 50554 55030 70003;","Q01  00002PRCP12"
"08014099999","2010-03-20T09:00:00","4","43.5666666","-5.7","6.0","GIJON MUSEL, SP","FM-12","99999","V020","230,1,N,0010,1","03600,1,9,N","020000,1,N,1","+0156,1","+0120,1","10119,1",,,,"8,1,03,1","8,1,03,1",,,"08,99,1,04,1,08,1,00800,1,07,1,00,1",,,,,"99999,9,10111,1","2,1,006,1,+999,9","02,1","SYN082AAXX  20094 08014 41570 82302 10156 20120 30111 40119 52006 70288 84870 333 92428;",
"08014099999","2010-03-20T12:00:00","4","43.5666666","-5.7","6.0","GIJON MUSEL, SP","FM-12","99999","V020","250,1,N,0031,1","03600,1,9,N","030000,1,N,1","+0202,1","+0103,1","10113,1","06,0010,9,1",,,"8,1,06,1","8,1,06,1",,,"07,99,1,04,1,02,1,00800,1,05,1,99,9",,,,,"99999,9,10106,1","7,1,005,1,+999,9","02,1","SYN088AAXX  20124 08014 11580 72506 10202 20103 30106 40113 57005 60011 70288 8425/ 333 92428;",
"08014099999","2010-03-20T15:00:00","4","43.5666666","-5.7","6.0","GIJON MUSEL, SP","FM-12","99999","V020","060,1,N,0005,1","03600,1,9,N","030000,1,N,1","+0152,1","+0131,1","10131,1",,,,"8,1,03,1","8,1,03,1",,,"07,99,1,04,1,02,1,00800,1,05,1,99,9",,,,,"99999,9,10123,1","2,1,017,1,+999,9","02,1","SYN082AAXX  20154 08014 41580 70601 10152 20131 30123 40131 52017 70288 8425/ 333 92428;",
"08014099999","2010-03-20T18:00:00","4","43.5666666","-5.7","6.0","GIJON MUSEL, SP","FM-12","99999","V020","999,9,C,0000,1","00420,1,9,N","010000,1,N,1","+0140,1","+0113,1","10149,1","12,0051,9,1",,,"8,1,06,1","8,1,06,1",,,"08,99,1,05,1,02,1,00450,1,07,1,99,9",,,,"120,M,+0235,1","99999,9,10141,1","2,1,018,1,+999,9","02,1","SYN094AAXX  20184 08014 11460 80000 10140 20113 30141 40149 52018 60052 70288 8527/ 333 10235 92428;",
"08014099999","2010-03-21T06:00:00","4","43.5666666","-5.7","6.0","GIJON MUSEL, SP","FM-12","99999","V020","999,9,C,0000,1","00420,1,9,N","012000,1,N,1","+0110,1","+0094,1","10209,1","12,0030,9,1","24,0091,9,1",,,,,,"08,99,1,05,1,07,1,00450,1,01,1,99,9","0168,9","11,9","999,+0100,9","999,N,+0106,1","99999,9,10201,1","3,1,003,1,+999,9","02,1","SYN112AAXX  21064 08014 11462 80000 10110 20094 30201 40209 53003 60032 702// 8571/ 333 20106 32010 50224 55028 70091;",
"08014099999","2010-03-21T09:00:00","4","43.5666666","-5.7","6.0","GIJON MUSEL, SP","FM-12","99999","V020","999,9,C,0000,1","00420,1,9,N","010000,1,N,1","+0118,1","+0090,1","10223,1",,,,"2,1,03,1","2,1,03,1",,,"08,99,1,05,1,07,1,00450,1,07,1,99,9",,,,,"99999,9,10215,1","2,1,014,1,+999,9","50,1","SYN082AAXX  21094 08014 41460 80000 10118 20090 30215 40223 52014 75022 8577/ 333 92427;",
"08014099999","2010-03-21T12:00:00","4","43.5666666","-5.7","6.0","GIJON MUSEL, SP","FM-12","99999","V020","080,1,N,0021,1","01200,1,9,N","015000,1,N,1","+0132,1","+0096,1","10225,1","06,0000,2,1",,,"5,1,06,1","5,1,06,1",,,"07,99,1,05,1,08,1,00800,1,05,1,99,9",,,,,"99999,9,10217,1","2,1,002,1,+999,9","02,1","SYN088AAXX  21124 08014 11565 70804 10132 20096 30217 40225 52002 69901 70255 8585/ 333 92428;",
"08014099999","2010-03-21T15:00:00","4","43.5666666","-5.7","6.0","GIJON MUSEL, SP","FM-12","99999","V020","070,1,N,0026,1","03600,1,9,N","015000,1,N,1","+0138,1","+0090,1","10208,1",,,,,,,,"07,99,1,04,1,04,1,00800,1,05,1,99,9",,,,,"99999,9,10200,1","7,1,017,1,+999,9",,"SYN076AAXX  21154 08014 42565 70705 10138 20090 30200 40208 57017 8445/ 333 92438;",
"08014099999","2010-03-21T18:00:00","4","43.5666666","-5.7","6.0","GIJON MUSEL, SP","FM-12","99999","V020","090,1,N,0036,1","03600,1,9,N","015000,1,N,1","+0130,1","+0094,1","10208,1","12,0000,2,1",,,,,,,"07,99,1,04,1,08,1,00800,1,05,1,99,9",,,,"120,M,+0145,1","99999,9,10200,1","4,1,000,1,+999,9",,"SYN088AAXX  21184 08014 12565 70907 10130 20094 30200 40208 54000 69902 8485/ 333 10145 92438;",
"08014099999","2010-03-22T06:00:00","4","43.5666666","-5.7","6.0","GIJON MUSEL, SP","FM-12","99999","V020","210,1,N,0026,1","03600,1,9,N","006000,1,N,1","+0096,1","+0084,1","10212,1","12,0000,9,1","24,0000,2,1",,"1,1,06,1","1,1,06,1",,,"05,99,1,03,1,06,1,00450,1,04,1,00,1","0042,9","09,9","999,+0080,9","999,N,+0090,1","99999,9,10204,1","3,1,012,1,+999,9","10,1","SYN112AAXX  22064 08014 11456 52105 10096 20084 30204 40212 53012 60002 71011 83640 333 20090 31008 50154 55007 70000;","Q01  00002PRCP12"
"08014099999","2010-03-22T09:00:00","4","43.5666666","-5.7","6.0","GIJON MUSEL, SP","FM-12","99999","V020","200,1,N,0026,1","00750,1,9,N","008000,1,N,1","+0118,1","+0085,1","10221,1",,,,"2,1,03,1","2,1,03,1",,,"07,99,1,07,1,05,1,00800,1,00,1,00,1",,,,,"99999,9,10213,1","1,1,009,1,+999,9","10,1","SYN082AAXX  22094 08014 41558 72005 10118 20085 30213 40221 51009 71022 87500 333 92436;",
"08014099999","2010-03-22T12:00:00","4","43.5666666","-5.7","6.0","GIJON MUSEL, SP","FM-12","99999","V020","030,1,N,0021,1","00420,1,9,N","010000,1,N,1","+0128,1","+0083,1","10229,1","06,0000,9,1",,,,,,,"07,99,1,07,1,05,1,00450,1,00,1,00,1",,,,,"99999,9,10221,1","1,1,008,1,+999,9",,"SYN082AAXX  22124 08014 12460 70304 10128 20083 30221 40229 51008 60001 87500 333 92437;","Q01  00002PRCP06"
"08014099999","2010-03-22T15:00:00","4","43.5666666","-5.7","6.0","GIJON MUSEL, SP","FM-12","99999","V020","070,1,N,0015,1","22000,1,9,N","020000,1,N,1","+0142,1","+0086,1","10220,1",,,,,,,,"02,99,1,02,1,05,1,00450,1,00,1,00,1",,,,,"99999,9,10212,1","7,1,009,1,+999,9",,"SYN076AAXX  22154 08014 42470 20703 10142 20086 30212 40220 57009 82500 333 92437;",
"08014099999","2010-03-22T18:00:00","4","43.5666666","-5.7","6.0","GIJON MUSEL, SP","FM-12","99999","V020","080,1,N,0015,1","22000,1,9,N","010000,1,N,1","+0132,1","+0089,1","10219,1","12,0000,9,1",,,,,"00,1,+99999,9,99,9",,"00,99,1,00,1,00,1,99999,9,00,1,00,1",,,,"120,M,+0148,1","99999,9,10211,1","5,1,001,1,+999,9",,"SYN082AAXX  22184 08014 12960 00803 10132 20089 30211 40219 55001 60002 333 10148 92437;","Q01  00002PRCP12"
"08014099999","2010-03-23T06:00:00","4","43.5666666","-5.7","6.0","GIJON MUSEL, SP","FM-12","99999","V020","230,1,N,0021,1","22000,1,9,N","010000,1,N,1","+0090,1","+0068,1","10157,1","12,0000,9,1","24,0000,9,1",,,,,,"04,99,1,02,1,00,1,02250,1,04,1,01,1","0162,9","09,9","999,+0060,9","999,N,+0080,1","99999,9,10149,1","7,1,021,1,+999,9",,"SYN106AAXX  23064 08014 12860 42304 10090 20068 30149 40157 57021 60002 82041 333 20080 31006 50184 55027 70000;","Q01  00002PRCP24Q02  00002PRCP12"
"08014099999","2010-03-23T09:00:00","4","43.5666666","-5.7","6.0","GIJON MUSEL, SP","FM-12","99999","V020","180,1,N,0015,1","03600,1,9,N","008000,1,N,1","+0108,1","+0075,1","10144,1",,,,"1,1,03,1","1,1,03,1",,,"07,99,1,02,1,06,1,00450,1,01,1,01,1",,,,,"99999,9,10136,1","7,1,013,1,+999,9","10,1","SYN082AAXX  23094 08014 41458 71803 10108 20075 30136 40144 57013 71011 82611 333 92436;",
"08014099999","2010-03-23T12:00:00","4","43.5666666","-5.7","6.0","GIJON MUSEL, SP","FM-12","99999","V020","310,1,N,0010,1","03600,1,9,N","008000,1,N,1","+0148,1","+0098,1","10121,1","06,0000,9,1",,,"1,1,06,1","1,1,06,1",,,"07,99,1,02,1,06,1,00450,1,07,1,01,1",,,,,"99999,9,10113,1","6,1,023,1,+999,9","05,1","SYN088AAXX  23124 08014 11458 73102 10148 20098 30113 40121 56023 60001 70511 82671 333 92436;","Q01  00002PRCP06"
"08014099999","2010-03-23T15:00:00","4","43.5666666","-5.7","6.0","GIJON MUSEL, SP","FM-12","99999","V020","999,9,C,0000,1","03600,1,9,N","010000,1,N,1","+0158,1","+0063,1","10109,1",,,,,,,,"08,99,1,03,1,08,1,00450,1,07,1,99,9",,,,,"99999,9,10101,1","6,1,012,1,+999,9",,"SYN076AAXX  23154 08014 42460 80000 10158 20063 30101 40109 56012 8387/ 333 92437;",
"08014099999","2010-03-23T18:00:00","4","43.5666666","-5.7","6.0","GIJON MUSEL, SP","FM-12","99999","V020","040,1,N,0010,1","09000,1,9,N","008000,1,N,1","+0144,1","+0088,1","10101,1","12,0000,9,1",,,"2,1,06,1","2,1,06,1",,,"05,99,1,02,1,05,1,00800,1,04,1,01,1",,,,"120,M,+0160,1","99999,9,10093,1","8,1,008,1,+999,9","05,1","SYN094AAXX  23184 08014 11558 50402 10144 20088 30093 40101 58008 60002 70522 82541 333 10160 92436;","Q01  00002PRCP12"
"08014099999","2010-03-24T06:00:00","4","43.5666666","-5.7","6.0","GIJON MUSEL, SP","FM-12","99999","V020","999,9,C,0000,1","03600,1,9,N","015000,1,N,1","+0120,1","+0101,1","10024,1","12,0000,9,1","24,0000,9,1",,,,,,"08,99,1,04,1,08,1,00800,1,07,1,99,9","0012,9","01,9","999,+0100,9","999,N,+0115,1","99999,9,10016,1","7,1,021,1,+999,9","02,1","SYN112AAXX  24064 08014 11565 80000 10120 20101 30016 40024 57021 60002 702// 8487/ 333 20115 30010 50224 55002 70000;","Q01  00002PRCP24Q02  00002PRCP12"
"08014099999","2010-03-24T09:00:00","4","43.5666666","-5.7","6.0","GIJON MUSEL, SP","FM-12","99999","V020","999,9,C,0000,1","03600,1,9,N","008000,1,N,1","+0128,1","+0102,1","10025,1",,,,"2,1,03,1","2,1,03,1",,,"08,99,1,04,1,08,1,00800,1,07,1,99,9",,,,,"99999,9,10017,1","3,1,001,1,+999,9","10,1","SYN082AAXX  24094 08014 41558 80000 10128 20102 30017 40025 53001 71022 8487/ 333 92436;",
"08014099999","2010-03-24T12:00:00","4","43.5666666","-5.7","6.0","GIJON MUSEL, SP","FM-12","99999","V020","010,1,N,0015,1","03600,1,9,N","006000,1,N,1","+0154,1","+0102,1","10021,1","06,0000,9,1",,,"2,1,06,1","2,1,06,1",,,"08,99,1,02,1,08,1,00800,1,07,1,99,9",,,,,"99999,9,10013,1","8,1,004,1,+999,9","10,1","SYN088AAXX  24124 08014 11556 80103 10154 20102 30013 40021 58004 60001 71022 8287/ 333 92436;","Q01  00002PRCP06"
"08014099999","2010-03-24T15:00:00","4","43.5666666","-5.7","6.0","GIJON MUSEL, SP","FM-12","99999","V020","050,1,N,0021,1","03600,1,9,N","012000,1,N,1","+0140,1","+0102,1","10029,1",,,,,,,,"07,99,1,04,1,08,1,00800,1,07,1,00,1",,,,,"99999,9,10021,1","3,1,008,1,+999,9",,"SYN076AAXX  24154 08014 42562 70504 10140 20102 30021 40029 53008 84870 333 92437;",
"08014099999","2010-03-24T18:00:00","4","43.5666666","-5.7","6.0","GIJON MUSEL, SP","FM-12","99999","V020","080,1,N,0021,1","01200,1,9,N","015000,1,N,1","+0138,1","+0100,1","10027,1","12,0000,9,1",,,,,,,"08,99,1,06,1,08,1,00800,1,07,1,99,9",,,,"120,M,+0157,1","99999,9,10019,1","8,1,002,1,+999,9",,"SYN088AAXX  24184 08014 12565 80804 10138 20100 30019 40027 58002 60002 8687/ 333 10157 92437;","Q01  00002PRCP12"
"08014099999","2010-03-25T06:00:00","4","43.5666666","-5.7","6.0","GIJON MUSEL, SP","FM-12","99999","V020","200,1,N,0062,1","03600,1,9,N","020000,1,N,1","+0148,1","-0001,1","09965,1","12,0000,9,1","24,0000,9,1",,,,,,"06,99,1,04,1,01,1,00800,1,07,1,00,1","0078,9","01,9","999,+0060,9","999,N,+0090,1","99999,9,09957,1","7,1,012,1,+999,9","02,1","SYN112AAXX  25064 08014 11570 62012 10148 21001 39957 49965 57012 60002 702// 84170 333 20090 30006 50194 55013 70000;","Q01  00002PRCP24Q02  00002PRCP12"
"08014099999","2010-03-25T09:00:00","4","43.5666666","-5.7","6.0","GIJON MUSEL, SP","FM-12","99999","V020","180,1,N,0026,1","22000,1,9,N","020000,1,N,1","+0120,1","+0052,1","09995,1",,,,,,,,"03,99,1,03,1,01,1,00800,1,00,1,00,1",,,,,"99999,9,09987,1","3,1,030,1,+999,9",,"SYN076AAXX  25094 08014 42570 31805 10120 20052 39987 49995 53030 83100 333 92437;",
"08014099999","2010-03-25T12:00:00","4","43.5666666","-5.7","6.0","GIJON MUSEL, SP","FM-12","99999","V020","220,1,N,0041,1","22000,1,9,N","030000,1,N,1","+0166,1","-0015,1","10012,1","06,0000,9,1",,,,,,,"03,99,1,03,1,01,1,00800,1,00,1,00,1",,,,,"99999,9,10004,1","2,1,017,1,+999,9",,"SYN082AAXX  25124 08014 12580 32208 10166 21015 30004 40012 52017 60001 83100 333 92438;","Q01  00002PRCP06"
"08014099999","2010-03-25T15:00:00","4","43.5666666","-5.7","6.0","GIJON MUSEL, SP","FM-12","99999","V020","300,1,N,0015,1","00750,1,9,N","030000,1,N,1","+0158,1","-0004,1","10016,1",,,,,,,,"07,99,1,05,1,02,1,00800,1,07,1,00,1",,,,,"99999,9,10008,1","2,1,004,1,+999,9",,"SYN076AAXX  25154 08014 42580 73003 10158 21004 30008 40016 52004 85270 333 92438;",
"08014099999","2010-03-25T18:00:00","4","43.5666666","-5.7","6.0","GIJON MUSEL, SP","FM-12","99999","V020","030,1,N,0026,1","01200,1,9,N","030000,1,N,1","+0140,1","+0061,1","10031,1","12,0000,9,1",,,,,,,"07,99,1,06,1,08,1,00800,1,07,1,00,1",,,,"120,M,+0190,1","99999,9,10023,1","2,1,015,1,+999,9",,"SYN088AAXX  25184 08014 12580 70305 10140 20061 30023 40031 52015 60002 86870 333 10190 92438;","Q01  00002PRCP12"
"08014099999","2010-03-26T06:00:00","4","43.5666666","-5.7","6.0","GIJON MUSEL, SP","FM-12","99999","V020","260,1,N,0026,1","22000,1,9,N","030000,1,N,1","+0122,1","+0003,1","10082,1","12,0000,9,1","24,0000,9,1",,,,,,"04,99,1,03,1,08,1,00800,1,03,1,00,1","0390,9","01,9","999,+0060,9","999,N,+0090,1","99999,9,10074,1","2,1,002,1,+999,9","02,1","SYN112AAXX  26064 08014 11580 42605 10122 20003 30074 40082 52002 60002 702// 83830 333 20090 30006 50744 55065 70000;","Q01  00002PRCP24Q02  00002PRCP12"
"08014099999","2010-03-26T09:00:00","4","43.5666666","-5.7","6.0","GIJON MUSEL, SP","FM-12","99999","V020","230,1,N,0026,1","22000,1,9,N","020000,1,N,1","+0140,1","-0004,1","10097,1",,,,,,,,"02,99,1,01,1,01,1,00800,1,03,1,01,1",,,,,"99999,9,10089,1","2,1,015,1,+999,9",,"SYN076AAXX  26094 08014 42570 22305 10140 21004 30089 40097 52015 81131 333 92448;",
"08014099999","2010-03-26T12:00:00","4","43.5666666","-5.7","6.0","GIJON MUSEL, SP","FM-12","99999","V020","210,1,N,0021,1","01200,1,9,N","030000,1,N,1","+0159,1","-0003,1","10109,1","06,0000,9,1",,,,,,,"07,99,1,06,1,08,1,00800,1,04,1,00,1",,,,,"99999,9,10101,1","2,1,012,1,+999,9",,"SYN082AAXX  26124 08014 12580 72104 10159 21003 30101 40109 52012 60001 86840 333 92448;","Q01  00002PRCP06"
"08014099999","2010-03-26T15:00:00","4","43.5666666","-5.7","6.0","GIJON MUSEL, SP","FM-12","99999","V020","230,1,N,0046,1","01200,1,9,N","030000,1,N,1","+0170,1","-0002,1","10112,1",,,,,,,,"06,99,1,05,1,08,1,00800,1,04,1,01,1",,,,,"99999,9,10104,1","2,1,003,1,+999,9",,"SYN076AAXX  26154 08014 42580 62309 10170 21002 30104 40112 52003 85841 333 92448;",
"08014099999","2010-03-26T18:00:00","4","43.5666666","-5.7","6.0","GIJON MUSEL, SP","FM-12","99999","V020","230,1,N,0051,1","22000,1,9,N","030000,1,N,1","+0149,1","-0012,1","10120,1","12,0000,9,1",,,,,,,"03,99,1,02,1,08,1,00800,1,07,1,00,1",,,,"120,M,+0173,1","99999,9,10112,1","2,1,008,1,+999,9",,"SYN088AAXX  26184 08014 12580 32310 10149 21012 30112 40120 52008 60002 82870 333 10173 92448;","Q01  00002PRCP12"
"08014099999","2010-03-27T06:00:00","4","43.5666666","-5.7","6.0","GIJON MUSEL, SP","FM-12","99999","V020","230,1,N,0031,1","22000,1,9,N","020000,1,N,1","+0130,1","+0020,1","10194,1","12,0000,9,1","24,0000,9,1",,,,,,"04,99,1,03,1,08,1,00800,1,03,1,00,1","0318,9","01,9","999,+0120,9","999,N,+0096,1","99999,9,10186,1","2,1,027,1,+999,9","02,1","SYN112AAXX  27064 08014 11570 42306 10130 20020 30186 40194 52027 60002 702// 83830 333 20096 30012 51084 55053 70000;","Q01  00002PRCP24Q02  00002PRCP12"
"08014099999","2010-03-27T09:00:00","4","43.5666666","-5.7","6.0","GIJON MUSEL, SP","FM-12","99999","V020","240,1,N,0036,1","01200,1,9,N","020000,1,N,1","+0138,1","+0018,1","10215,1",,,,,,,,"07,99,1,06,1,08,1,00800,1,04,1,00,1",,,,,"99999,9,10207,1","2,1,021,1,+999,9",,"SYN076AAXX  27094 08014 42570 72407 10138 20018 30207 40215 52021 86840 333 92447;",
"08014099999","2010-03-27T12:00:00","4","43.5666666","-5.7","6.0","GIJON MUSEL, SP","FM-12","99999","V020","070,1,N,0015,1","22000,1,9,N","030000,1,N,1","+0161,1","+0025,1","10223,1","06,0000,9,1",,,,,,,"03,99,1,02,1,08,1,01250,1,03,1,00,1",,,,,"99999,9,10215,1","2,1,008,1,+999,9",,"SYN082AAXX  27124 08014 12680 30703 10161 20025 30215 40223 52008 60001 82830 333 92448;","Q01  00002PRCP06"
"08014099999","2010-03-27T15:00:00","4","43.5666666","-5.7","6.0","GIJON MUSEL, SP","FM-12","99999","V020","030,1,N,0051,1","22000,1,9,N","020000,1,N,1","+0150,1","+0066,1","10226,1",,,,,,,,"02,99,1,01,1,00,1,01750,1,01,1,01,1",,,,,"99999,9,10218,1","2,1,003,1,+999,9",,"SYN076AAXX  27154 08014 42770 20310 10150 20066 30218 40226 52003 81011 333 92437;",
"08014099999","2010-03-27T18:00:00","4","43.5666666","-5.7","6.0","GIJON MUSEL, SP","FM-12","99999","V020","999,9,C,0000,1","03600,1,9,N","010000,1,N,1","+0142,1","+0082,1","10232,1","12,0000,9,1",,,,,,,"08,99,1,03,1,06,1,01250,1,01,1,99,9",,,,"120,M,+0180,1","99999,9,10224,1","2,1,006,1,+999,9",,"SYN088AAXX  27184 08014 12660 80000 10142 20082 30224 40232 52006 60002 8361/ 333 10180 92436;","Q01  00002PRCP12"
"08014099999","2010-03-28T06:00:00","4","43.5666666","-5.7","6.0","GIJON MUSEL, SP","FM-12","99999","V020","999,9,C,0000,1","22000,1,9,N","010000,1,N,1","+0116,1","+0061,1","10204,1","12,0000,9,1","24,0000,9,1",,,,,,"01,99,1,01,1,00,1,01750,1,07,1,01,1","0366,9","01,9","999,+0080,9","999,N,+0105,1","99999,9,10196,1","7,1,005,1,+999,9","02,1","SYN112AAXX  28064 08014 11760 10000 10116 20061 30196 40204 57005 60002 702// 81071 333 20105 30008 50534 55061 70000;","Q01  00002PRCP24Q02  00002PRCP12"
"08014099999","2010-03-28T09:00:00","4","43.5666666","-5.7","6.0","GIJON MUSEL, SP","FM-12","99999","V020","180,1,N,0010,1","01500,1,9,N","008000,1,N,1","+0138,1","+0062,1","10196,1",,,,"1,1,03,1","1,1,03,1",,,"08,99,1,08,1,00,1,01750,1,01,1,99,9",,,,,"99999,9,10188,1","7,1,008,1,+999,9","05,1","SYN082AAXX  28094 08014 41758 81802 10138 20062 30188 40196 57008 70511 8801/ 333 92436;",
"08014099999","2010-03-28T12:00:00","4","43.5666666","-5.7","6.0","GIJON MUSEL, SP","FM-12","99999","V020","080,1,N,0026,1","03600,1,9,N","010000,1,N,1","+0160,1","+0082,1","10175,1","06,0000,9,1",,,,,,,"06,99,1,02,1,01,1,00800,1,01,1,01,1",,,,,"99999,9,10167,1","7,1,021,1,+999,9",,"SYN082AAXX  28124 08014 12560 60805 10160 20082 30167 40175 57021 60001 82111 333 92436;","Q01  00002PRCP06"
"08014099999","2010-03-28T15:00:00","4","43.5666666","-5.7","6.0","GIJON MUSEL, SP","FM-12","99999","V020","080,1,N,0031,1","03600,1,9,N","010000,1,N,1","+0148,1","+0092,1","10142,1",,,,,,,,"08,99,1,04,1,06,1,01250,1,01,1,00,1",,,,,"99999,9,10134,1","7,1,033,1,+999,9",,"SYN076AAXX  28154 08014 42660 80806 10148 20092 30134 40142 57033 84610 333 92436;",
"08014099999","2010-03-28T18:00:00","4","43.5666666","-5.7","6.0","GIJON MUSEL, SP","FM-12","99999","V020","060,1,N,0026,1","22000,1,9,N","015000,1,N,1","+0140,1","+0086,1","10123,1","12,0000,9,1",,,,,,,"04,99,1,01,1,01,1,01250,1,07,1,01,1",,,,"120,M,+0166,1","99999,9,10115,1","7,1,019,1,+999,9",,"SYN088AAXX  28184 08014 12665 40605 10140 20086 30115 40123 57019 60002 81171 333 10166 92437;","Q01  00002PRCP12"
"08014099999","2010-03-29T06:00:00","4","43.5666666","-5.7","6.0","GIJON MUSEL, SP","FM-12","99999","V020","190,1,N,0021,1","03600,1,9,N","020000,1,N,1","+0098,1","+0069,1","10038,1","12,0000,9,1","24,0000,9,1",,,,,,"06,99,1,03,1,04,1,00800,1,05,1,99,9","0294,9","01,9","999,+0070,9","999,N,+0094,1","99999,9,10030,1","7,1,019,1,+999,9","02,1","SYN112AAXX  29064 08014 11570 61904 10098 20069 30030 40038 57019 60002 702// 8345/ 333 20094 30007 50274 55049 70000;","Q01  00002PRCP24Q02  00002PRCP12"
"08014099999","2010-03-29T09:00:00","4","43.5666666","-5.7","6.0","GIJON MUSEL, SP","FM-12","99999","V020","050,1,N,0010,1","01200,1,9,N","030000,1,N,1","+0126,1","+0103,1","10023,1",,,,,,,,"08,99,1,05,1,08,1,00800,1,05,1,99,9",,,,,"99999,9,10015,1","7,1,015,1,+999,9",,"SYN076AAXX  29094 08014 42580 80502 10126 20103 30015 40023 57015 8585/ 333 92428;",
"08014099999","2010-03-29T12:00:00","4","43.5666666","-5.7","6.0","GIJON MUSEL, SP","FM-12","99999","V020","210,1,N,0036,1","22000,1,9,N","030000,1,N,1","+0208,1","+0011,1","09991,1","06,0000,9,1",,,,,,,"04,99,1,03,1,08,1,00800,1,06,1,00,1",,,,,"99999,9,09984,1","7,1,031,1,+999,9",,"SYN082AAXX  29124 08014 12580 42107 10208 20011 39984 49991 57031 60001 83860 333 92438;","Q01  00002PRCP06"
"08014099999","2010-03-29T15:00:00","4","43.5666666","-5.7","6.0","GIJON MUSEL, SP","FM-12","99999","V020","190,1,N,0046,1","01200,1,9,N","030000,1,N,1","+0210,1","+0023,1","09953,1",,,,,,,,"07,99,1,05,1,08,1,00800,1,06,1,99,9",,,,,"99999,9,09946,1","7,1,038,1,+999,9",,"SYN076AAXX  29154 08014 42580 71909 10210 20023 39946 49953 57038 8586/ 333 92428;",
"08014099999","2010-03-29T18:00:00","4","43.5666666","-5.7","6.0","GIJON MUSEL, SP","FM-12","99999","V020","230,1,N,0077,1","00750,1,9,N","020000,1,N,1","+0124,1","+0041,1","09985,1","12,0030,9,1",,,"8,1,06,1","8,1,06,1",,,"08,99,1,05,1,02,1,00800,1,07,1,99,9",,,,"120,M,+0220,1","99999,9,09977,1","3,1,031,1,+999,9","02,1","SYN094AAXX  29184 08014 11570 82315 10124 20041 39977 49985 53031 60032 70288 8527/ 333 10220 92438;",
"08014099999","2010-03-30T06:00:00","4","43.5666666","-5.7","6.0","GIJON MUSEL, SP","FM-12","99999","V020","190,1,N,0062,1","00750,1,9,N","010000,1,N,1","+0106,1","+0077,1","10050,1","12,0061,9,1","24,0094,9,1",,,,,,"08,99,1,06,1,07,1,00800,1,01,1,99,9","0252,9","11,9","999,+0070,9","999,N,+0100,1","99999,9,10042,1","2,1,030,1,+999,9","63,1","SYN112AAXX  30064 08014 11560 81912 10106 20077 30042 40050 52030 60062 763// 8671/ 333 20100 32007 50714 55042 70095;",
"08014099999","2010-03-30T09:00:00","4","43.5666666","-5.7","6.0","GIJON MUSEL, SP","FM-12","99999","V020","230,1,N,0041,1","03600,1,9,N","030000,1,N,1","+0114,1","+0044,1","10103,1",,,,"8,1,03,1","6,1,03,1",,,"06,99,1,03,1,02,1,00800,1,03,1,00,1",,,,,"99999,9,10095,1","2,1,053,1,+999,9","02,1","SYN082AAXX  30094 08014 41580 62308 10114 20044 30095 40103 52053 70286 83230 333 92438;",
"08014099999","2010-03-30T12:00:00","4","43.5666666","-5.7","6.0","GIJON MUSEL, SP","FM-12","99999","V020","120,1,N,0026,1","01200,1,9,N","030000,1,N,1","+0116,1","+0065,1","10117,1","06,0030,9,1",,,"6,1,06,1","2,1,06,1",,,"07,99,1,05,1,08,1,00800,1,06,1,99,9",,,,,"99999,9,10109,1","2,1,014,1,+999,9","02,1","SYN088AAXX  30124 08014 11580 71205 10116 20065 30109 40117 52014 60031 70262 8586/ 333 92438;",
"08014099999","2010-03-30T15:00:00","4","43.5666666","-5.7","6.0","GIJON MUSEL, SP","FM-12","99999","V020","150,1,N,0021,1","03600,1,9,N","030000,1,N,1","+0130,1","+0052,1","10121,1",,,,,,,,"06,99,1,04,1,02,1,00800,1,03,1,00,1",,,,,"99999,9,10113,1","2,1,004,1,+999,9",,"SYN076AAXX  30154 08014 42580 61504 10130 20052 30113 40121 52004 84230 333 92438;",
"08014099999","2010-03-30T18:00:00","4","43.5666666","-5.7","6.0","GIJON MUSEL, SP","FM-12","99999","V020","190,1,N,0031,1","03600,1,9,N","030000,1,N,1","+0122,1","+0047,1","10130,1","12,0041,9,1",,,"8,1,06,1","2,1,06,1",,,"07,99,1,04,1,02,1,00800,1,05,1,99,9",,,,"120,M,+0140,1","99999,9,10122,1","2,1,009,1,+999,9","02,1","SYN094AAXX  30184 08014 11580 71906 10122 20047 30122 40130 52009 60042 70282 8425/ 333 10140 92438;",
"08014099999","2010-03-31T06:00:00","4","43.5666666","-5.7","6.0","GIJON MUSEL, SP","FM-12","99999","V020","230,1,N,0026,1","22000,1,9,N","030000,1,N,1","+0104,1","+0007,1","10123,1","12,0000,9,1","24,0036,9,1",,,,,,"04,99,1,02,1,04,1,00800,1,03,1,00,1","0372,9","09,9","999,+0080,9","999,N,+0100,1","99999,9,10115,1","8,1,009,1,+999,9","02,1","SYN112AAXX  31064 08014 11580 42305 10104 20007 30115 40123 58009 60002 702// 82430 333 20100 31008 50504 55062 70035;","Q01  00002PRCP12"
"08014099999","2010-03-31T09:00:00","4","43.5666666","-5.7","6.0","GIJON MUSEL, SP","FM-12","99999","V020","170,1,N,0015,1","22000,1,9,N","030000,1,N,1","+0130,1","+0014,1","10095,1",,,,,,,,"04,99,1,03,1,08,1,00800,1,03,1,00,1",,,,,"99999,9,10087,1","7,1,028,1,+999,9",,"SYN076AAXX  31094 08014 42580 41703 10130 20014 30087 40095 57028 83830 333 92438;",
"08014099999","2010-03-31T12:00:00","4","43.5666666","-5.7","6.0","GIJON MUSEL, SP","FM-12","99999","V020","170,1,N,0026,1","00750,1,9,N","020000,1,N,1","+0130,1","+0052,1","10093,1","06,0005,9,1",,,"8,1,06,1","8,1,06,1",,,"08,99,1,05,1,02,1,00800,1,07,1,99,9",,,,,"99999,9,10085,1","7,1,002,1,+999,9","02,1","SYN088AAXX  31124 08014 11570 81705 10130 20052 30085 40093 57002 69941 70288 8527/ 333 92438;",
"08014099999","2010-03-31T15:00:00","4","43.5666666","-5.7","6.0","GIJON MUSEL, SP","FM-12","99999","V020","130,1,N,0015,1","00420,1,9,N","012000,1,N,1","+0100,1","+0071,1","10121,1",,,,"8,1,03,1","8,1,03,1",,,"08,99,1,06,1,07,1,00450,1,07,1,99,9",,,,,"99999,9,10113,1","2,1,028,1,+999,9","61,1","SYN082AAXX  31154 08014 41462 81303 10100 20071 30113 40121 52028 76188 8677/ 333 92438;",
"08014099999","2010-03-31T18:00:00","4","43.5666666","-5.7","6.0","GIJON MUSEL, SP","FM-12","99999","V020","190,1,N,0010,1","00750,1,9,N","030000,1,N,1","+0102,1","+0048,1","10143,1","12,0041,9,1",,,"8,1,06,1","6,1,06,1",,,"07,99,1,05,1,02,1,00800,1,03,1,99,9",,,,"120,M,+0157,1","99999,9,10135,1","2,1,022,1,+999,9","02,1","SYN094AAXX  31184 08014 11580 71902 10102 20048 30135 40143 52022 60042 70286 8523/ 333 10157 92438;",
"08014099999","2010-04-01T06:00:00","4","43.5666666","-5.7","6.0","GIJON MUSEL, SP","FM-12","99999","V020","190,1,N,0021,1","03600,1,9,N","020000,1,N,1","+0068,1","+0029,1","10182,1","12,0041,9,1","24,0079,9,1",,"8,1,06,1","2,1,06,1",,,"06,99,1,04,1,08,1,01250,1,06,1,01,1","0204,9","11,9","999,+0050,9","999,N,+0066,1","99999,9,10174,1","3,1,007,1,+999,9","25,1","SYN112AAXX  01064 08014 11670 61904 10068 20029 30174 40182 53007 60042 72582 84861 333 20066 32005 50424 55034 70080;",
"08014099999","2010-04-01T09:00:00","4","43.5666666","-5.7","6.0","GIJON MUSEL, SP","FM-12","99999","V020","230,1,N,0026,1","22000,1,9,N","030000,1,N,1","+0108,1","+0016,1","10190,1",,,,,,"01,1,+00690,1,09,1",,"03,99,1,02,1,09,1,00800,1,06,1,03,1",,,,,"99999,9,10182,1","1,1,008,1,+999,9",,"SYN082AAXX  01094 08014 42580 32305 10108 20016 30182 40190 51008 82963 333 81923 92448;",
"08014099999","2010-04-01T12:00:00","4","43.5666666","-5.7","6.0","GIJON MUSEL, SP","FM-12","99999","V020","260,1,N,0015,1","22000,1,9,N","030000,1,N,1","+0122,1","+0024,1","10193,1","06,0000,2,1",,,,,,,"04,99,1,03,1,02,1,01250,1,06,1,01,1",,,,,"99999,9,10185,1","1,1,003,1,+999,9",,"SYN082AAXX  01124 08014 12680 42603 10122 20024 30185 40193 51003 60001 83261 333 92448;",
"08014099999","2010-04-01T15:00:00","4","43.5666666","-5.7","6.0","GIJON MUSEL, SP","FM-12","99999","V020","030,1,N,0031,1","03600,1,9,N","030000,1,N,1","+0126,1","+0035,1","10181,1",,,,,,,,"06,99,1,03,1,02,1,01250,1,06,1,01,1",,,,,"99999,9,10173,1","8,1,012,1,+999,9",,"SYN076AAXX  01154 08014 42680 60306 10126 20035 30173 40181 58012 83261 333 92448;",
"08014099999","2010-04-01T18:00:00","4","43.5666666","-5.7","6.0","GIJON MUSEL, SP","FM-12","99999","V020","300,1,N,0010,1","01500,1,9,N","030000,1,N,1","+0116,1","+0046,1","10181,1","12,0000,2,1",,,,,,,"07,99,1,07,1,08,1,01250,1,06,1,01,1",,,,"120,M,+0138,1","99999,9,10173,1","4,1,000,1,+999,9",,"SYN088AAXX  01184 08014 12680 73002 10116 20046 30173 40181 54000 60002 87861 333 10138 92448;",
"08014099999","2010-04-02T06:00:00","4","43.5666666","-5.7","6.0","GIJON MUSEL, SP","FM-12","99999","V020","210,1,N,0010,1","22000,1,9,N","020000,1,N,1","+0090,1","+0017,1","10128,1","12,0000,9,1","24,0000,2,1",,,,,,"03,99,1,02,1,00,1,01750,1,04,1,01,1","0414,9","09,9","999,+0060,9","999,N,+0080,1","99999,9,10120,1","6,1,013,1,+999,9",,"SYN106AAXX  02064 08014 12770 32102 10090 20017 30120 40128 56013 60002 82041 333 20080 31006 50394 55069 79999;","Q01  00002PRCP12"
"08014099999","2010-04-02T09:00:00","4","43.5666666","-5.7","6.0","GIJON MUSEL, SP","FM-12","99999","V020","140,1,N,0010,1","01200,1,9,N","020000,1,N,1","+0140,1","+0029,1","10137,1",,,,,,,,"07,99,1,06,1,05,1,01250,1,07,1,00,1",,,,,"99999,9,10129,1","3,1,009,1,+999,9",,"SYN076AAXX  02094 08014 42670 71402 10140 20029 30129 40137 53009 86570 333 92447;",
"08014099999","2010-04-02T12:00:00","4","43.5666666","-5.7","6.0","GIJON MUSEL, SP","FM-12","99999","V020","100,1,N,0015,1","01200,1,9,N","020000,1,N,1","+0130,1","+0077,1","10138,1","06,0000,9,1",,,"6,1,06,1","1,1,06,1",,,"07,99,1,06,1,07,1,01250,1,07,1,00,1",,,,,"99999,9,10130,1","1,1,001,1,+999,9","02,1","SYN088AAXX  02124 08014 11670 71003 10130 20077 30130 40138 51001 69911 70261 86770 333 92447;","Q01  00002PRCP06"
"08014099999","2010-04-02T15:00:00","4","43.5666666","-5.7","6.0","GIJON MUSEL, SP","FM-12","99999","V020","200,1,N,0010,1","01200,1,9,N","015000,1,N,1","+0138,1","+0108,1","10134,1",,,,"2,1,03,1","2,1,03,1",,,"06,99,1,05,1,02,1,01250,1,06,1,01,1",,,,,"99999,9,10126,1","8,1,004,1,+999,9","25,1","SYN082AAXX  02154 08014 41665 62002 10138 20108 30126 40134 58004 72522 85261 333 92447;",
"08014099999","2010-04-02T18:00:00","4","43.5666666","-5.7","6.0","GIJON MUSEL, SP","FM-12","99999","V020","110,1,N,0010,1","00750,1,C,N","010000,1,N,1","+0128,1","+0093,1","10130,1","12,0005,9,1",,,"8,1,06,1","2,1,06,1","04,1,+00780,1,09,1",,"06,99,1,05,1,09,1,00800,1,06,1,03,1",,,,"120,M,+0146,1","99999,9,10122,1","6,1,004,1,+999,9","25,1","SYN100AAXX  02184 08014 11560 61102 10128 20093 30122 40130 56004 69952 72582 85963 333 10146 84926 92447;",
"08014099999","2010-04-03T06:00:00","4","43.5666666","-5.7","6.0","GIJON MUSEL, SP","FM-12","99999","V020","240,1,N,0031,1","01200,1,9,N","015000,1,N,1","+0114,1","+0037,1","10099,1","12,0000,2,1","24,0008,9,1",,,,,,"08,99,1,06,1,02,1,01250,1,07,1,99,9","0144,9","09,9","999,+0080,9","999,N,+0100,1","99999,9,10091,1","6,1,007,1,+999,9",,"SYN106AAXX  03064 08014 12665 82406 10114 20037 30091 40099 56007 69922 8627/ 333 20100 31008 50304 55024 70007;",
"08014099999","2010-04-03T09:00:00","4","43.5666666","-5.7","6.0","GIJON MUSEL, SP","FM-12","99999","V020","240,1,N,0062,1","22000,1,9,N","030000,1,N,1","+0130,1","+0001,1","10104,1",,,,,,,,"02,99,1,02,1,08,1,01250,1,00,1,00,1",,,,,"99999,9,10096,1","1,1,005,1,+999,9",,"SYN076AAXX  03094 08014 42680 22412 10130 20001 30096 40104 51005 82800 333 92448;",
"08014099999","2010-04-03T12:00:00","4","43.5666666","-5.7","6.0","GIJON MUSEL, SP","FM-12","99999","V020","230,1,N,0057,1","22000,1,9,N","030000,1,N,1","+0154,1","-0004,1","10109,1","06,0000,9,1",,,,,,,"03,99,1,03,1,08,1,01250,1,06,1,00,1",,,,,"99999,9,10101,1","3,1,005,1,+999,9",,"SYN082AAXX  03124 08014 12680 32311 10154 21004 30101 40109 53005 60001 83860 333 92448;","Q01  00002PRCP06"
"08014099999","2010-04-03T15:00:00","4","43.5666666","-5.7","6.0","GIJON MUSEL, SP","FM-12","99999","V020","240,1,N,0051,1","03600,1,9,N","030000,1,N,1","+0124,1","+0039,1","10127,1",,,,,,"02,1,+00780,1,09,1",,"05,99,1,04,1,09,1,01250,1,06,1,03,1",,,,,"99999,9,10119,1","2,1,018,1,+999,9",,"SYN082AAXX  03154 08014 42680 52410 10124 20039 30119 40127 52018 84963 333 82926 92448;",
"08014099999","2010-04-03T18:00:00","4","43.5666666","-5.7","6.0","GIJON MUSEL, SP","FM-12","99999","V020","220,1,N,0041,1","00750,1,C,N","010000,1,N,1","+0110,1","+0067,1","10152,1","12,0008,9,1",,,"8,1,06,1","2,1,06,1","04,1,+00780,1,09,1",,"07,99,1,06,1,09,1,00800,1,06,1,03,1",,,,"120,M,+0160,1","99999,9,10144,1","2,1,025,1,+999,9","80,1","SYN100AAXX  03184 08014 11560 72208 10110 20067 30144 40152 52025 69972 78082 86963 333 10160 84926 92447;",
"08014099999","2010-04-04T06:00:00","4","43.5666666","-5.7","6.0","GIJON MUSEL, SP","FM-12","99999","V020","220,1,N,0031,1","00750,1,C,N","008000,1,N,1","+0078,1","+0040,1","10233,1","12,0030,9,1","24,0038,9,1",,"8,1,06,1","2,1,06,1","02,1,+00780,1,09,1",,"06,99,1,05,1,09,1,00800,1,06,1,03,1","0384,9","11,9","999,+0060,9","999,N,+0074,1","99999,9,10225,1","2,1,016,1,+999,9","80,1","SYN118AAXX  04064 08014 11558 62206 10078 20040 30225 40233 52016 60032 78082 85963 333 20074 32006 50644 55064 70037 82926;",
"08014099999","2010-04-04T09:00:00","4","43.5666666","-5.7","6.0","GIJON MUSEL, SP","FM-12","99999","V020","230,1,N,0041,1","22000,1,9,N","015000,1,N,1","+0110,1","+0038,1","10255,1",,,,"8,1,03,1","1,1,03,1","01,1,+00780,1,09,1",,"04,99,1,03,1,09,1,00800,1,06,1,03,1",,,,,"99999,9,10247,1","2,1,022,1,+999,9","02,1","SYN088AAXX  04094 08014 41565 42308 10110 20038 30247 40255 52022 70281 83963 333 81926 92447;",
"08014099999","2010-04-04T12:00:00","4","43.5666666","-5.7","6.0","GIJON MUSEL, SP","FM-12","99999","V020","999,9,C,0000,1","22000,1,9,N","020000,1,N,1","+0130,1","+0042,1","10263,1","06,0000,2,1",,,"8,1,06,1","1,1,06,1","02,1,+00780,1,09,1",,"03,99,1,03,1,09,1,00800,1,06,1,03,1",,,,,"99999,9,10255,1","1,1,008,1,+999,9","02,1","SYN094AAXX  04124 08014 11570 30000 10130 20042 30255 40263 51008 69901 70281 83963 333 82926 92447;",
"08014099999","2010-04-04T15:00:00","4","43.5666666","-5.7","6.0","GIJON MUSEL, SP","FM-12","99999","V020","050,1,N,0015,1","22000,1,9,N","040000,1,N,1","+0142,1","+0048,1","10263,1",,,,,,,,"03,99,1,02,1,02,1,00800,1,06,1,08,1",,,,,"99999,9,10255,1","4,1,000,1,+999,9",,"SYN076AAXX  04154 08014 42582 30503 10142 20048 30255 40263 54000 82268 333 92448;",
"08014099999","2010-04-04T18:00:00","4","43.5666666","-5.7","6.0","GIJON MUSEL, SP","FM-12","99999","V020","050,1,N,0010,1","22000,1,9,N","040000,1,N,1","+0126,1","+0062,1","10273,1","12,0000,2,1",,,,,,,"03,99,1,03,1,08,1,01250,1,03,1,01,1",,,,"120,M,+0146,1","99999,9,10265,1","3,1,010,1,+999,9",,"SYN088AAXX  04184 08014 12682 30502 10126 20062 30265 40273 53010 69902 83831 333 10146 92448;",
"08014099999","2010-04-05T06:00:00","4","43.5666666","-5.7","6.0","GIJON MUSEL, SP","FM-12","99999","V020","190,1,N,0010,1","22000,1,9,N","012000,1,N,1","+0073,1","+0041,1","10262,1","12,0000,9,1","24,0000,2,1",,,,"00,1,+99999,9,99,9",,"00,99,1,00,1,00,1,99999,9,00,1,00,1","0504,9","09,9","999,+0040,9","999,N,+0065,1","99999,9,10254,1","7,1,005,1,+999,9","00,1","SYN106AAXX  05064 08014 11962 01902 10073 20041 30254 40262 57005 60002 700// 333 20065 31004 50354 55084 70000;","Q01  00002PRCP12"
"08014099999","2010-04-05T09:00:00","4","43.5666666","-5.7","6.0","GIJON MUSEL, SP","FM-12","99999","V020","200,1,N,0021,1","22000,1,9,N","010000,1,N,1","+0102,1","+0054,1","10254,1",,,,,,"00,1,+99999,9,99,9",,"00,99,1,00,1,00,1,99999,9,00,1,00,1",,,,,"99999,9,10246,1","7,1,008,1,+999,9",,"SYN070AAXX  05094 08014 42960 02004 10102 20054 30246 40254 57008 333 92436;",
"08014099999","2010-04-05T12:00:00","4","43.5666666","-5.7","6.0","GIJON MUSEL, SP","FM-12","99999","V020","070,1,N,0021,1","22000,1,9,N","015000,1,N,1","+0135,1","+0068,1","10244,1","06,0000,9,1",,,,,,,"02,99,1,00,1,00,1,99999,9,00,1,05,1",,,,,"99999,9,10236,1","7,1,010,1,+999,9",,"SYN082AAXX  05124 08014 12865 20704 10135 20068 30236 40244 57010 60001 80005 333 92437;","Q01+022502SCOLCBQ02  00002PRCP06"
"08014099999","2010-04-05T15:00:00","4","43.5666666","-5.7","6.0","GIJON MUSEL, SP","FM-12","99999","V020","070,1,N,0026,1","22000,1,9,N","020000,1,N,1","+0146,1","+0079,1","10219,1",,,,,,,,"02,99,1,00,1,00,1,99999,9,00,1,05,1",,,,,"99999,9,10211,1","7,1,025,1,+999,9",,"SYN076AAXX  05154 08014 42870 20705 10146 20079 30211 40219 57025 80005 333 92437;","Q01+022502SCOLCB"
"08014099999","2010-04-05T18:00:00","4","43.5666666","-5.7","6.0","GIJON MUSEL, SP","FM-12","99999","V020","070,1,N,0021,1","22000,1,9,N","020000,1,N,1","+0144,1","+0092,1","10198,1","12,0000,9,1",,,,,"00,1,+99999,9,99,9",,"00,99,1,00,1,00,1,99999,9,00,1,00,1",,,,"120,M,+0152,1","99999,9,10190,1","7,1,021,1,+999,9",,"SYN082AAXX  05184 08014 12970 00704 10144 20092 30190 40198 57021 60002 333 10152 92437;","Q01  00002PRCP12"
"08014099999","2010-04-06T06:00:00","4","43.5666666","-5.7","6.0","GIJON MUSEL, SP","FM-12","99999","V020","170,1,N,0010,1","22000,1,9,N","015000,1,N,1","+0100,1","+0024,1","10150,1","12,0000,9,1","24,0000,9,1",,,,,,"01,99,1,00,1,00,1,99999,9,00,1,05,1","0636,9","01,9","999,+0060,9","999,N,+0090,1","99999,9,10142,1","7,1,004,1,+999,9","02,1","SYN112AAXX  06064 08014 11865 11702 10100 20024 30142 40150 57004 60002 702// 80005 333 20090 30006 50294 55106 70000;","Q01+022502SCOLCBQ02  00002PRCP24Q03  00002PRCP12"
"08014099999","2010-04-06T09:00:00","4","43.5666666","-5.7","6.0","GIJON MUSEL, SP","FM-12","99999","V020","210,1,N,0036,1","22000,1,9,N","010000,1,N,1","+0156,1","+0021,1","10140,1",,,,,,,,"02,99,1,00,1,00,1,99999,9,00,1,05,1",,,,,"99999,9,10132,1","7,1,010,1,+999,9",,"SYN076AAXX  06094 08014 42860 22107 10156 20021 30132 40140 57010 80005 333 92436;","Q01+022502SCOLCB"
"08014099999","2010-04-06T12:00:00","4","43.5666666","-5.7","6.0","GIJON MUSEL, SP","FM-12","99999","V020","060,1,N,0015,1","22000,1,9,N","015000,1,N,1","+0160,1","+0080,1","10134,1","06,0000,9,1",,,,,,,"02,99,1,00,1,00,1,99999,9,00,1,05,1",,,,,"99999,9,10126,1","7,1,006,1,+999,9",,"SYN082AAXX  06124 08014 12865 20603 10160 20080 30126 40134 57006 60001 80005 333 92437;","Q01+022502SCOLCBQ02  00002PRCP06"
"08014099999","2010-04-06T15:00:00","4","43.5666666","-5.7","6.0","GIJON MUSEL, SP","FM-12","99999","V020","090,1,N,0015,1","22000,1,9,N","020000,1,N,1","+0168,1","+0085,1","10138,1",,,,,,,,"04,99,1,02,1,00,1,01250,1,07,1,05,1",,,,,"99999,9,10130,1","3,1,004,1,+999,9",,"SYN076AAXX  06154 08014 42670 40903 10168 20085 30130 40138 53004 82075 333 92437;",
"08014099999","2010-04-06T18:00:00","4","43.5666666","-5.7","6.0","GIJON MUSEL, SP","FM-12","99999","V020","080,1,N,0015,1","03600,1,9,N","020000,1,N,1","+0148,1","+0078,1","10155,1","12,0000,9,1",,,,,,,"08,99,1,02,1,07,1,00800,1,07,1,99,9",,,,"120,M,+0195,1","99999,9,10147,1","2,1,017,1,+999,9",,"SYN088AAXX  06184 08014 12570 80803 10148 20078 30147 40155 52017 60002 8277/ 333 10195 92437;","Q01  00002PRCP12"
"08014099999","2010-04-07T06:00:00","4","43.5666666","-5.7","6.0","GIJON MUSEL, SP","FM-12","99999","V020","240,1,N,0015,1","03600,1,9,N","020000,1,N,1","+0102,1","+0076,1","10228,1","12,0041,9,2","24,0038,9,2",,,,,,"05,99,1,04,1,02,1,00450,1,06,1,00,1","0438,9","11,9","999,+0080,9","999,N,+0095,1","99999,9,10220,1","2,1,010,1,+999,9","02,1","SYN112AAXX  07064 08014 11470 52403 10102 20076 30220 40228 52010 60042 702// 84260 333 20095 32008 50404 55073 70037;",
"08014099999","2010-04-07T09:00:00","4","43.5666666","-5.7","6.0","GIJON MUSEL, SP","FM-12","99999","V020","350,1,N,0010,1","22000,1,9,N","015000,1,N,1","+0129,1","+0076,1","10244,1",,,,,,,,"04,99,1,04,1,02,1,00450,1,06,1,00,1",,,,,"99999,9,10236,1","2,1,016,1,+999,9",,"SYN076AAXX  07094 08014 42465 43502 10129 20076 30236 40244 52016 84260 333 92437;",
"08014099999","2010-04-07T12:00:00","4","43.5666666","-5.7","6.0","GIJON MUSEL, SP","FM-12","99999","V020","040,1,N,0031,1","03600,1,9,N","020000,1,N,1","+0138,1","+0082,1","10252,1","06,0000,9,1",,,,,,,"05,99,1,04,1,02,1,00800,1,06,1,00,1",,,,,"99999,9,10244,1","2,1,008,1,+999,9",,"SYN082AAXX  07124 08014 12570 50406 10138 20082 30244 40252 52008 60001 84260 333 92437;","Q01  00002PRCP06"
"08014099999","2010-04-07T15:00:00","4","43.5666666","-5.7","6.0","GIJON MUSEL, SP","FM-12","99999","V020","040,1,N,0031,1","22000,1,9,N","020000,1,N,1","+0140,1","+0075,1","10259,1",,,,,,,,"03,99,1,03,1,02,1,00800,1,06,1,00,1",,,,,"99999,9,10251,1","2,1,007,1,+999,9",,"SYN076AAXX  07154 08014 42570 30406 10140 20075 30251 40259 52007 83260 333 92437;",
"08014099999","2010-04-07T18:00:00","4","43.5666666","-5.7","6.0","GIJON MUSEL, SP","FM-12","99999","V020","040,1,N,0026,1","00750,1,9,N","030000,1,N,1","+0131,1","+0080,1","10271,1","12,0000,9,1",,,,,,,"05,99,1,05,1,02,1,00800,1,06,1,00,1",,,,"120,M,+0144,1","99999,9,10263,1","2,1,012,1,+999,9",,"SYN088AAXX  07184 08014 12580 50405 10131 20080 30263 40271 52012 60002 85260 333 10144 92438;","Q01  00002PRCP12"
"08014099999","2010-04-08T06:00:00","4","43.5666666","-5.7","6.0","GIJON MUSEL, SP","FM-12","99999","V020","999,9,C,0000,1","22000,1,9,N","012000,1,N,1","+0098,1","+0067,1","10284,1","12,0000,9,1","24,0000,9,1",,,,,,"03,99,1,03,1,01,1,00450,1,07,1,00,1","0516,9","01,9","999,+0080,9","999,N,+0095,1","99999,9,10276,1","4,1,000,1,+999,9","02,1","SYN112AAXX  08064 08014 11462 30000 10098 20067 30276 40284 54000 60002 702// 83170 333 20095 30008 50324 55086 70000;","Q01  00002PRCP24Q02  00002PRCP12"
"08014099999","2010-04-08T09:00:00","4","43.5666666","-5.7","6.0","GIJON MUSEL, SP","FM-12","99999","V020","090,1,N,0021,1","00420,1,9,N","012000,1,N,1","+0130,1","+0075,1","10290,1",,,,,,,,"05,99,1,05,1,02,1,00450,1,06,1,00,1",,,,,"99999,9,10282,1","3,1,006,1,+999,9",,"SYN076AAXX  08094 08014 42462 50904 10130 20075 30282 40290 53006 85260 333 92437;",
"08014099999","2010-04-08T12:00:00","4","43.5666666","-5.7","6.0","GIJON MUSEL, SP","FM-12","99999","V020","080,1,N,0031,1","22000,1,9,N","015000,1,N,1","+0143,1","+0076,1","10289,1","06,0000,9,1",,,,,,,"02,99,1,02,1,01,1,00800,1,03,1,00,1",,,,,"99999,9,10281,1","8,1,001,1,+999,9",,"SYN082AAXX  08124 08014 12565 20806 10143 20076 30281 40289 58001 60001 82130 333 92437;","Q01  00002PRCP06"
"08014099999","2010-04-08T15:00:00","4","43.5666666","-5.7","6.0","GIJON MUSEL, SP","FM-12","99999","V020","080,1,N,0041,1","22000,1,9,N","020000,1,N,1","+0141,1","+0074,1","10276,1",,,,,,,,"01,99,1,01,1,01,1,01250,1,00,1,00,1",,,,,"99999,9,10268,1","7,1,013,1,+999,9",,"SYN076AAXX  08154 08014 42670 10808 10141 20074 30268 40276 57013 81100 333 92437;",
"08014099999","2010-04-08T18:00:00","4","43.5666666","-5.7","6.0","GIJON MUSEL, SP","FM-12","99999","V020","080,1,N,0062,1","00750,1,9,N","020000,1,N,1","+0131,1","+0090,1","10275,1","12,0000,9,1",,,,,,,"05,99,1,05,1,01,1,00800,1,03,1,00,1",,,,"120,M,+0147,1","99999,9,10267,1","7,1,001,1,+999,9",,"SYN088AAXX  08184 08014 12570 50812 10131 20090 30267 40275 57001 60002 85130 333 10147 92437;","Q01  00002PRCP12"
"08014099999","2010-04-09T06:00:00","4","43.5666666","-5.7","6.0","GIJON MUSEL, SP","FM-12","99999","V020","999,9,C,0000,1","22000,1,9,N","015000,1,N,1","+0095,1","+0051,1","10259,1","12,0000,9,1","24,0000,9,1",,,,"00,1,+99999,9,99,9",,"00,99,1,00,1,00,1,99999,9,00,1,00,1","0534,9","01,9","999,+0060,9","999,N,+0095,1","99999,9,10251,1","7,1,005,1,+999,9","00,1","SYN106AAXX  09064 08014 11965 00000 10095 20051 30251 40259 57005 60002 700// 333 20095 30006 50374 55089 70000;","Q01  00002PRCP24Q02  00002PRCP12"
"08014099999","2010-04-09T09:00:00","4","43.5666666","-5.7","6.0","GIJON MUSEL, SP","FM-12","99999","V020","080,1,N,0036,1","22000,1,9,N","010000,1,N,1","+0134,1","+0083,1","10260,1",,,,,,,,"01,99,1,01,1,01,1,00800,1,00,1,00,1",,,,,"99999,9,10252,1","3,1,001,1,+999,9",,"SYN076AAXX  09094 08014 42560 10807 10134 20083 30252 40260 53001 81100 333 92436;",
"08014099999","2010-04-09T12:00:00","4","43.5666666","-5.7","6.0","GIJON MUSEL, SP","FM-12","99999","V020","080,1,N,0051,1","22000,1,9,N","010000,1,N,1","+0144,1","+0092,1","10254,1","06,0000,9,1",,,,,,,"01,99,1,01,1,01,1,00800,1,00,1,00,1",,,,,"99999,9,10246,1","8,1,006,1,+999,9",,"SYN082AAXX  09124 08014 12560 10810 10144 20092 30246 40254 58006 60001 81100 333 92436;","Q01  00002PRCP06"
"08014099999","2010-04-09T15:00:00","4","43.5666666","-5.7","6.0","GIJON MUSEL, SP","FM-12","99999","V020","080,1,N,0062,1","22000,1,9,N","015000,1,N,1","+0144,1","+0094,1","10242,1",,,,,,"00,1,+99999,9,99,9",,"00,99,1,00,1,00,1,99999,9,00,1,00,1",,,,,"99999,9,10234,1","7,1,012,1,+999,9",,"SYN070AAXX  09154 08014 42965 00812 10144 20094 30234 40242 57012 333 92437;",
"08014099999","2010-04-09T18:00:00","4","43.5666666","-5.7","6.0","GIJON MUSEL, SP","FM-12","99999","V020","080,1,N,0051,1","22000,1,9,N","020000,1,N,1","+0137,1","+0099,1","10239,1","12,0000,9,1",,,,,,,"01,99,1,01,1,01,1,00800,1,00,1,00,1",,,,"120,M,+0152,1","99999,9,10231,1","7,1,003,1,+999,9",,"SYN088AAXX  09184 08014 12570 10810 10137 20099 30231 40239 57003 60002 81100 333 10152 92437;","Q01  00002PRCP12"
"08014099999","2010-04-10T06:00:00","4","43.5666666","-5.7","6.0","GIJON MUSEL, SP","FM-12","99999","V020","220,1,N,0026,1","22000,1,9,N","005000,1,N,1","+0094,1","+0082,1","10224,1","12,0000,9,1","24,0000,9,1",,,,,,"03,99,1,03,1,06,1,00450,1,03,1,00,1","0588,9","09,9","999,+0070,9","999,N,+0091,1","99999,9,10216,1","3,1,001,1,+999,9","10,1","SYN112AAXX  10064 08014 11450 32205 10094 20082 30216 40224 53001 60002 710// 83630 333 20091 31007 50284 55098 70000;","Q01  00002PRCP24Q02  00002PRCP12"
"08014099999","2010-04-10T09:00:00","4","43.5666666","-5.7","6.0","GIJON MUSEL, SP","FM-12","99999","V020","100,1,N,0010,1","22000,1,9,N","006000,1,N,1","+0144,1","+0098,1","10225,1",,,,"0,1,03,1","0,1,03,1",,,"03,99,1,03,1,06,1,00450,1,00,1,00,1",,,,,"99999,9,10217,1","3,1,001,1,+999,9","10,1","SYN082AAXX  10094 08014 41456 31002 10144 20098 30217 40225 53001 71000 83600 333 92427;",
"08014099999","2010-04-10T12:00:00","4","43.5666666","-5.7","6.0","GIJON MUSEL, SP","FM-12","99999","V020","040,1,N,0026,1","22000,1,9,N","006000,1,N,1","+0146,1","+0108,1","10220,1","06,0000,9,1",,,"4,1,06,1","0,1,06,1",,,"03,99,1,03,1,06,1,00450,1,00,1,00,1",,,,,"99999,9,10212,1","7,1,005,1,+999,9","10,1","SYN088AAXX  10124 08014 11456 30405 10146 20108 30212 40220 57005 60001 71040 83600 333 92428;","Q01  00002PRCP06"
"08014099999","2010-04-10T15:00:00","4","43.5666666","-5.7","6.0","GIJON MUSEL, SP","FM-12","99999","V020","060,1,N,0026,1","22000,1,9,N","010000,1,N,1","+0158,1","+0118,1","10200,1",,,,"4,1,03,1","0,1,03,1",,,"01,99,1,01,1,06,1,00450,1,00,1,00,1",,,,,"99999,9,10192,1","7,1,020,1,+999,9","02,1","SYN082AAXX  10154 08014 41460 10605 10158 20118 30192 40200 57020 70240 81600 333 92428;",
"08014099999","2010-04-10T18:00:00","4","43.5666666","-5.7","6.0","GIJON MUSEL, SP","FM-12","99999","V020","070,1,N,0031,1","22000,1,9,N","015000,1,N,1","+0148,1","+0118,1","10194,1","12,0000,9,1",,,,,"00,1,+99999,9,99,9",,"00,99,1,00,1,00,1,99999,9,00,1,00,1",,,,"120,M,+0165,1","99999,9,10186,1","7,1,006,1,+999,9",,"SYN082AAXX  10184 08014 12965 00706 10148 20118 30186 40194 57006 60002 333 10165 92438;","Q01  00002PRCP12"
"08014099999","2010-04-11T06:00:00","4","43.5666666","-5.7","6.0","GIJON MUSEL, SP","FM-12","99999","V020","190,1,N,0015,1","00420,1,9,N","006000,1,N,1","+0110,1","+0094,1","10170,1","12,0000,9,1","24,0000,9,1",,,,,,"08,99,1,06,1,06,1,00450,1,05,1,99,9","0630,9","09,9","999,+0100,9","999,N,+0101,1","99999,9,10162,1","7,1,003,1,+999,9","10,1","SYN112AAXX  11064 08014 11456 81903 10110 20094 30162 40170 57003 60002 710// 8665/ 333 20101 31010 50154 55105 70000;","Q01  00002PRCP24Q02  00002PRCP12"
"08014099999","2010-04-11T09:00:00","4","43.5666666","-5.7","6.0","GIJON MUSEL, SP","FM-12","99999","V020","190,1,N,0010,1","00420,1,9,N","006000,1,N,1","+0128,1","+0100,1","10172,1",,,,"4,1,03,1","4,1,03,1",,,"07,99,1,05,1,06,1,00450,1,05,1,99,9",,,,,"99999,9,10164,1","2,1,002,1,+999,9","10,1","SYN082AAXX  11094 08014 41456 71902 10128 20100 30164 40172 52002 71044 8565/ 333 92427;",
"08014099999","2010-04-11T12:00:00","4","43.5666666","-5.7","6.0","GIJON MUSEL, SP","FM-12","99999","V020","070,1,N,0026,1","00420,1,9,N","010000,1,N,1","+0152,1","+0110,1","10168,1","06,0000,9,1",,,,,,,"08,99,1,05,1,04,1,00450,1,05,1,99,9",,,,,"99999,9,10160,1","7,1,004,1,+999,9",,"SYN082AAXX  11124 08014 12460 80705 10152 20110 30160 40168 57004 60001 8545/ 333 92438;","Q01  00002PRCP06"
"08014099999","2010-04-11T15:00:00","4","43.5666666","-5.7","6.0","GIJON MUSEL, SP","FM-12","99999","V020","070,1,N,0031,1","00900,1,9,N","010000,1,N,1","+0150,1","+0096,1","10154,1",,,,,,,,"08,99,1,06,1,08,1,00450,1,05,1,99,9",,,,,"99999,9,10146,1","7,1,014,1,+999,9",,"SYN076AAXX  11154 08014 42460 80706 10150 20096 30146 40154 57014 8685/ 333 92438;",
"08014099999","2010-04-11T18:00:00","4","43.5666666","-5.7","6.0","GIJON MUSEL, SP","FM-12","99999","V020","080,1,N,0026,1","00900,1,9,N","013000,1,N,1","+0134,1","+0091,1","10146,1","12,0000,9,1",,,,,,,"08,99,1,06,1,08,1,00450,1,05,1,99,9",,,,"120,M,+0156,1","99999,9,10138,1","7,1,008,1,+999,9",,"SYN088AAXX  11184 08014 12463 80805 10134 20091 30138 40146 57008 60002 8685/ 333 10156 92438;","Q01  00002PRCP12"
"08014099999","2010-04-12T06:00:00","4","43.5666666","-5.7","6.0","GIJON MUSEL, SP","FM-12","99999","V020","080,1,N,0041,1","01200,1,9,N","013000,1,N,1","+0124,1","+0079,1","10135,1","12,0000,9,1","24,0000,9,1",,,,,,"08,99,1,05,1,08,1,00800,1,05,1,99,9","0174,9","01,9","999,+0100,9","999,N,+0102,1","99999,9,10127,1","7,1,004,1,+999,9","02,1","SYN112AAXX  12064 08014 11563 80808 10124 20079 30127 40135 57004 60002 702// 8585/ 333 20102 30010 50244 55029 70000;","Q01  00002PRCP24Q02  00002PRCP12"
"08014099999","2010-04-12T09:00:00","4","43.5666666","-5.7","6.0","GIJON MUSEL, SP","FM-12","99999","V020","080,1,N,0046,1","01200,1,9,N","017000,1,N,1","+0126,1","+0062,1","10139,1",,,,,,,,"08,99,1,05,1,08,1,00800,1,05,1,99,9",,,,,"99999,9,10131,1","2,1,004,1,+999,9",,"SYN076AAXX  12094 08014 42567 80809 10126 20062 30131 40139 52004 8585/ 333 92438;",
"08014099999","2010-04-12T12:00:00","4","43.5666666","-5.7","6.0","GIJON MUSEL, SP","FM-12","99999","V020","080,1,N,0046,1","00750,1,9,N","020000,1,N,1","+0138,1","+0052,1","10150,1","06,0000,9,1",,,,,,,"06,99,1,05,1,02,1,00800,1,03,1,99,9",,,,,"99999,9,10142,1","2,1,011,1,+999,9",,"SYN082AAXX  12124 08014 12570 60809 10138 20052 30142 40150 52011 60001 8523/ 333 92438;","Q01  00002PRCP06"
"08014099999","2010-04-12T15:00:00","4","43.5666666","-5.7","6.0","GIJON MUSEL, SP","FM-12","99999","V020","090,1,N,0057,1","22000,1,9,N","030000,1,N,1","+0128,1","+0050,1","10154,1",,,,,,,,"03,99,1,03,1,02,1,00800,1,00,1,00,1",,,,,"99999,9,10146,1","2,1,004,1,+999,9",,"SYN076AAXX  12154 08014 42580 30911 10128 20050 30146 40154 52004 83200 333 92438;",
"08014099999","2010-04-12T18:00:00","4","43.5666666","-5.7","6.0","GIJON MUSEL, SP","FM-12","99999","V020","080,1,N,0046,1","22000,1,9,N","030000,1,N,1","+0124,1","+0056,1","10152,1","12,0000,9,1",,,,,,,"04,99,1,04,1,02,1,00800,1,00,1,00,1",,,,"120,M,+0139,1","99999,9,10144,1","7,1,002,1,+999,9",,"SYN088AAXX  12184 08014 12580 40809 10124 20056 30144 40152 57002 60002 84200 333 10139 92448;","Q01  00002PRCP12"
"08014099999","2010-04-13T06:00:00","4","43.5666666","-5.7","6.0","GIJON MUSEL, SP","FM-12","99999","V020","210,1,N,0021,1","22000,1,9,N","020000,1,N,1","+0086,1","+0059,1","10138,1","12,0000,9,1","24,0000,9,1",,,,,,"04,99,1,03,1,08,1,00800,1,03,1,00,1","0474,9","09,9","999,+0070,9","999,N,+0080,1","99999,9,10130,1","8,1,003,1,+999,9","02,1","SYN112AAXX  13064 08014 11570 42104 10086 20059 30130 40138 58003 69912 702// 83830 333 20080 31007 50394 55079 70001;","Q01  00002PRCP24Q02  00002PRCP12"
"08014099999","2010-04-13T09:00:00","4","43.5666666","-5.7","6.0","GIJON MUSEL, SP","FM-12","99999","V020","110,1,N,0021,1","01200,1,9,N","020000,1,N,1","+0104,1","+0071,1","10149,1",,,,"8,1,03,1","8,1,03,1",,,"07,99,1,05,1,08,1,00800,1,03,1,99,9",,,,,"99999,9,10141,1","2,1,011,1,+999,9","02,1","SYN082AAXX  13094 08014 41570 71104 10104 20071 30141 40149 52011 70288 8583/ 333 92438;",
"08014099999","2010-04-13T12:00:00","4","43.5666666","-5.7","6.0","GIJON MUSEL, SP","FM-12","99999","V020","080,1,N,0031,1","01200,1,9,N","020000,1,N,1","+0140,1","+0080,1","10147,1","06,0010,9,1",,,"8,1,06,1","8,1,06,1",,,"08,99,1,06,1,08,1,00800,1,05,1,99,9",,,,,"99999,9,10139,1","7,1,002,1,+999,9","02,1","SYN088AAXX  13124 08014 11570 80806 10140 20080 30139 40147 57002 60011 70288 8685/ 333 92438;",
"08014099999","2010-04-13T15:00:00","4","43.5666666","-5.7","6.0","GIJON MUSEL, SP","FM-12","99999","V020","090,1,N,0057,1","22000,1,9,N","030000,1,N,1","+0140,1","+0061,1","10137,1",,,,,,,,"02,99,1,02,1,04,1,00800,1,00,1,00,1",,,,,"99999,9,10129,1","7,1,010,1,+999,9",,"SYN076AAXX  13154 08014 42580 20911 10140 20061 30129 40137 57010 82400 333 92438;",
"08014099999","2010-04-13T18:00:00","4","43.5666666","-5.7","6.0","GIJON MUSEL, SP","FM-12","99999","V020","090,1,N,0057,1","22000,1,9,N","017000,1,N,1","+0132,1","+0059,1","10138,1","12,0010,9,1",,,,,,,"03,99,1,03,1,02,1,00800,1,03,1,00,1",,,,"120,M,+0146,1","99999,9,10130,1","2,1,001,1,+999,9",,"SYN088AAXX  13184 08014 12567 30911 10132 20059 30130 40138 52001 60012 83230 333 10146 92448;",
"08014099999","2010-04-14T06:00:00","4","43.5666666","-5.7","6.0","GIJON MUSEL, SP","FM-12","99999","V020","999,9,C,0000,1","22000,1,9,N","003000,1,N,1","+0090,1","+0050,1","10127,1","12,0000,9,1","24,0010,9,1",,,,,,"03,99,1,03,1,06,1,00450,1,04,1,01,1","0486,9","01,9","999,+0060,9","999,N,+0088,1","99999,9,10119,1","6,1,007,1,+999,9","05,1","SYN112AAXX  14064 08014 11430 30000 10090 20050 30119 40127 56007 60002 705// 83641 333 20088 30006 50354 55081 70009;","Q01  00002PRCP12"
"08014099999","2010-04-14T09:00:00","4","43.5666666","-5.7","6.0","GIJON MUSEL, SP","FM-12","99999","V020","080,1,N,0026,1","22000,1,9,N","005000,1,N,1","+0130,1","+0077,1","10127,1",,,,"0,1,03,1","0,1,03,1",,,"02,99,1,02,1,04,1,00450,1,00,1,00,1",,,,,"99999,9,10119,1","4,1,000,1,+999,9","05,1","SYN082AAXX  14094 08014 41450 20805 10130 20077 30119 40127 54000 70500 82400 333 92435;",
"08014099999","2010-04-14T12:00:00","4","43.5666666","-5.7","6.0","GIJON MUSEL, SP","FM-12","99999","V020","080,1,N,0041,1","22000,1,9,N","008000,1,N,1","+0144,1","+0079,1","10121,1","06,0000,9,1",,,"0,1,06,1","0,1,06,1",,,"01,99,1,01,1,01,1,00800,1,00,1,00,1",,,,,"99999,9,10113,1","8,1,006,1,+999,9","05,1","SYN088AAXX  14124 08014 11558 10808 10144 20079 30113 40121 58006 60001 70500 81100 333 92446;","Q01  00002PRCP06"
"08014099999","2010-04-14T15:00:00","4","43.5666666","-5.7","6.0","GIJON MUSEL, SP","FM-12","99999","V020","080,1,N,0046,1","22000,1,9,N","020000,1,N,1","+0150,1","+0078,1","10110,1",,,,,,,,"01,99,1,01,1,01,1,00800,1,00,1,00,1",,,,,"99999,9,10102,1","8,1,011,1,+999,9",,"SYN076AAXX  14154 08014 42570 10809 10150 20078 30102 40110 58011 81100 333 92447;",
"08014099999","2010-04-14T18:00:00","4","43.5666666","-5.7","6.0","GIJON MUSEL, SP","FM-12","99999","V020","080,1,N,0057,1","22000,1,9,N","020000,1,N,1","+0138,1","+0062,1","10103,1","12,0000,9,1",,,,,,,"01,99,1,01,1,01,1,01250,1,00,1,00,1",,,,"120,M,+0158,1","99999,9,10095,1","6,1,007,1,+999,9",,"SYN088AAXX  14184 08014 12670 10811 10138 20062 30095 40103 56007 60002 81100 333 10158 92447;","Q01  00002PRCP12"
"08014099999","2010-04-15T06:00:00","4","43.5666666","-5.7","6.0","GIJON MUSEL, SP","FM-12","99999","V020","080,1,N,0021,1","03600,1,9,N","015000,1,N,1","+0122,1","+0067,1","10073,1","12,0000,9,1","24,0000,9,1",,,,,,"05,99,1,03,1,05,1,00800,1,03,1,09,1","0684,9","01,9","999,+0100,9","999,N,+0115,1","99999,9,10065,1","5,1,005,1,+999,9",,"SYN106AAXX  15064 08014 12565 50804 10122 20067 30065 40073 55005 60002 83539 333 20115 30010 50374 55114 70000;","Q01  00002PRCP24Q02  00002PRCP12"
"08014099999","2010-04-15T09:00:00","4","43.5666666","-5.7","6.0","GIJON MUSEL, SP","FM-12","99999","V020","090,1,N,0041,1","03600,1,9,N","015000,1,N,1","+0135,1","+0086,1","10086,1",,,,,,,,"07,99,1,02,1,05,1,01250,1,07,1,00,1",,,,,"99999,9,10078,1","3,1,013,1,+999,9",,"SYN076AAXX  15094 08014 42665 70908 10135 20086 30078 40086 53013 82570 333 92447;",
"08014099999","2010-04-15T12:00:00","4","43.5666666","-5.7","6.0","GIJON MUSEL, SP","FM-12","99999","V020","080,1,N,0046,1","01200,1,9,N","020000,1,N,1","+0150,1","+0100,1","10092,1","06,0000,9,1",,,,,,,"07,99,1,05,1,05,1,01250,1,03,1,01,1",,,,,"99999,9,10084,1","1,1,006,1,+999,9",,"SYN082AAXX  15124 08014 12670 70809 10150 20100 30084 40092 51006 60001 85531 333 92447;","Q01  00002PRCP06"
"08014099999","2010-04-15T15:00:00","4","43.5666666","-5.7","6.0","GIJON MUSEL, SP","FM-12","99999","V020","080,1,N,0051,1","01200,1,9,N","020000,1,N,1","+0142,1","+0100,1","10090,1",,,,,,,,"07,99,1,06,1,05,1,01250,1,07,1,00,1",,,,,"99999,9,10082,1","6,1,002,1,+999,9",,"SYN076AAXX  15154 08014 42670 70810 10142 20100 30082 40090 56002 86570 333 92447;",
"08014099999","2010-04-15T18:00:00","4","43.5666666","-5.7","6.0","GIJON MUSEL, SP","FM-12","99999","V020","090,1,N,0046,1","22000,1,9,N","030000,1,N,1","+0138,1","+0095,1","10093,1","12,0000,9,1",,,,,,,"04,99,1,02,1,05,1,01250,1,03,1,01,1",,,,"120,M,+0152,1","99999,9,10085,1","3,1,003,1,+999,9",,"SYN088AAXX  15184 08014 12680 40909 10138 20095 30085 40093 53003 60002 82531 333 10152 92448;","Q01  00002PRCP12"
"08014099999","2010-04-16T06:00:00","4","43.5666666","-5.7","6.0","GIJON MUSEL, SP","FM-12","99999","V020","100,1,N,0036,1","01200,1,9,N","020000,1,N,1","+0136,1","+0076,1","10104,1","12,0000,9,1","24,0000,9,1",,,,,,"06,99,1,05,1,05,1,01250,1,04,1,00,1","0126,9","01,9","999,+0100,9","999,N,+0125,1","99999,9,10096,1","5,1,000,1,+999,9",,"SYN106AAXX  16064 08014 12670 61007 10136 20076 30096 40104 55000 60002 85540 333 20125 30010 50274 55021 70000;","Q01  00002PRCP24Q02  00002PRCP12"
"08014099999","2010-04-16T09:00:00","4","43.5666666","-5.7","6.0","GIJON MUSEL, SP","FM-12","99999","V020","080,1,N,0036,1","03600,1,9,N","020000,1,N,1","+0140,1","+0102,1","10122,1",,,,,,,,"07,99,1,04,1,05,1,01250,1,07,1,00,1",,,,,"99999,9,10114,1","2,1,018,1,+999,9",,"SYN076AAXX  16094 08014 42670 70807 10140 20102 30114 40122 52018 84570 333 92447;",
"08014099999","2010-04-16T15:00:00","4","43.5666666","-5.7","6.0","GIJON MUSEL, SP","FM-12","99999","V020","080,1,N,0046,1","03600,1,9,N","015000,1,N,1","+0140,1","+0088,1","10126,1",,,,,,,,"05,99,1,04,1,02,1,00800,1,06,1,02,1",,,,,"99999,9,10118,1","8,1,003,1,+999,9",,"SYN076AAXX  16154 08014 42565 50809 10140 20088 30118 40126 58003 84262 333 92447;",
"08014099999","2010-04-16T18:00:00","4","43.5666666","-5.7","6.0","GIJON MUSEL, SP","FM-12","99999","V020","090,1,N,0046,1","22000,1,9,N","010000,1,N,1","+0136,1","+0093,1","10122,1","12,0000,9,1",,,"6,1,06,1","1,1,06,1",,,"03,99,1,02,1,02,1,00800,1,06,1,03,1",,,,"120,M,+0152,1","99999,9,10114,1","6,1,004,1,+999,9","02,1","SYN094AAXX  16184 08014 11560 30909 10136 20093 30114 40122 56004 69902 70261 82263 333 10152 92446;","Q01  00002PRCP12"
"08014099999","2010-04-17T06:00:00","4","43.5666666","-5.7","6.0","GIJON MUSEL, SP","FM-12","99999","V020","170,1,N,0010,1","22000,1,9,N","010000,1,N,1","+0092,1","+0072,1","10115,1","12,0000,9,1","24,0000,9,1",,,,,,"03,99,1,03,1,06,1,00450,1,07,1,00,1","0120,9","01,9","999,+0070,9","999,N,+0087,1","99999,9,10107,1","5,1,000,1,+999,9","02,1","SYN112AAXX  17064 08014 11460 31702 10092 20072 30107 40115 55000 69902 702// 83670 333 20087 30007 50234 55020 79999;","Q01  00002PRCP24Q02  00002PRCP12"
"08014099999","2010-04-17T09:00:00","4","43.5666666","-5.7","6.0","GIJON MUSEL, SP","FM-12","99999","V020","120,1,N,0005,1","22000,1,9,N","008000,1,N,1","+0144,1","+0084,1","10114,1",,,,"4,1,03,1","0,1,03,1",,,"03,99,1,03,1,06,1,00450,1,07,1,00,1",,,,,"99999,9,10106,1","7,1,001,1,+999,9","10,1","SYN082AAXX  17094 08014 41458 31201 10144 20084 30106 40114 57001 71040 83670 333 92428;",
"08014099999","2010-04-17T12:00:00","4","43.5666666","-5.7","6.0","GIJON MUSEL, SP","FM-12","99999","V020","050,1,N,0026,1","22000,1,9,N","010000,1,N,1","+0152,1","+0108,1","10109,1","06,0000,9,1",,,,,,,"02,99,1,02,1,06,1,00450,1,00,1,00,1",,,,,"99999,9,10101,1","7,1,005,1,+999,9",,"SYN082AAXX  17124 08014 12460 20505 10152 20108 30101 40109 57005 60001 82600 333 92428;","Q01  00002PRCP06"
"08014099999","2010-04-17T15:00:00","4","43.5666666","-5.7","6.0","GIJON MUSEL, SP","FM-12","99999","V020","060,1,N,0026,1","22000,1,9,N","015000,1,N,1","+0162,1","+0112,1","10091,1",,,,,,,,"03,99,1,03,1,04,1,00450,1,03,1,00,1",,,,,"99999,9,10083,1","7,1,018,1,+999,9",,"SYN076AAXX  17154 08014 42465 30605 10162 20112 30083 40091 57018 83430 333 92438;",
"08014099999","2010-04-17T18:00:00","4","43.5666666","-5.7","6.0","GIJON MUSEL, SP","FM-12","99999","V020","040,1,N,0031,1","03600,1,9,N","015000,1,N,1","+0154,1","+0110,1","10092,1","12,9999,9,9",,,"2,1,06,1","2,1,06,1",,,"08,99,1,03,1,04,1,00800,1,05,1,99,9",,,,"120,M,+0166,1","99999,9,10084,1","3,1,001,1,+999,9","50,1","SYN094AAXX  17184 08014 11565 80406 10154 20110 30084 40092 53001 69902 75022 8345/ 333 10166 92428;","Q01  00002PRCP12Q02  00002PRCP12"
"08014099999","2010-04-18T06:00:00","4","43.5666666","-5.7","6.0","GIJON MUSEL, SP","FM-12","99999","V020","220,1,N,0031,1","03600,1,9,N","020000,1,N,1","+0134,1","+0100,1","10089,1","12,0000,2,1","24,0000,2,1",,,,,,"07,99,1,04,1,08,1,00800,1,03,1,99,9","0534,9","01,9","999,+0100,9","999,N,+0130,1","99999,9,10081,1","3,1,003,1,+999,9","02,1","SYN112AAXX  18064 08014 11570 72206 10134 20100 30081 40089 53003 69912 702// 8483/ 333 20130 30010 50284 55089 70001;",
"08014099999","2010-04-18T09:00:00","4","43.5666666","-5.7","6.0","GIJON MUSEL, SP","FM-12","99999","V020","040,1,N,0015,1","00750,1,9,N","020000,1,N,1","+0154,1","+0114,1","10102,1",,,,,,,,"07,99,1,05,1,04,1,00800,1,05,1,99,9",,,,,"99999,9,10094,1","1,1,013,1,+999,9",,"SYN076AAXX  18094 08014 42570 70403 10154 20114 30094 40102 51013 8545/ 333 92428;",
"08014099999","2010-04-18T12:00:00","4","43.5666666","-5.7","6.0","GIJON MUSEL, SP","FM-12","99999","V020","070,1,N,0021,1","00750,1,9,N","020000,1,N,1","+0174,1","+0119,1","10109,1","06,0000,9,1",,,,,,,"06,99,1,05,1,04,1,00800,1,03,1,99,9",,,,,"99999,9,10101,1","2,1,007,1,+999,9",,"SYN082AAXX  18124 08014 12570 60704 10174 20119 30101 40109 52007 60001 8543/ 333 92438;","Q01  00002PRCP06"
"08014099999","2010-04-18T15:00:00","4","43.5666666","-5.7","6.0","GIJON MUSEL, SP","FM-12","99999","V020","050,1,N,0026,1","03600,1,9,N","020000,1,N,1","+0178,1","+0118,1","10112,1",,,,,,,,"06,99,1,04,1,04,1,00800,1,03,1,99,9",,,,,"99999,9,10104,1","2,1,003,1,+999,9",,"SYN076AAXX  18154 08014 42570 60505 10178 20118 30104 40112 52003 8443/ 333 92428;",
"08014099999","2010-04-18T18:00:00","4","43.5666666","-5.7","6.0","GIJON MUSEL, SP","FM-12","99999","V020","120,1,N,0010,1","03600,1,9,N","030000,1,N,1","+0168,1","+0113,1","10125,1","12,9999,9,9",,,"2,1,06,1","2,1,06,1",,,"05,99,1,04,1,08,1,00800,1,03,1,00,1",,,,"120,M,+0180,1","99999,9,10117,1","2,1,013,1,+999,9","50,1","SYN094AAXX  18184 08014 11580 51202 10168 20113 30117 40125 52013 69902 75022 84830 333 10180 92428;","Q01  00002PRCP12Q02  00002PRCP12"
"08014099999","2010-04-19T06:00:00","4","43.5666666","-5.7","6.0","GIJON MUSEL, SP","FM-12","99999","V020","260,1,N,0010,1","22000,1,9,N","015000,1,N,1","+0130,1","+0093,1","10152,1","12,0000,2,1","24,0000,2,1",,,,,,"04,99,1,03,1,04,1,00800,1,03,1,00,1","0246,9","01,9","999,+0100,9","999,N,+0126,1","99999,9,10144,1","2,1,010,1,+999,9","02,1","SYN112AAXX  19064 08014 11565 42602 10130 20093 30144 40152 52010 69902 702// 83430 333 20126 30010 50264 55041 79999;",
"08014099999","2010-04-19T09:00:00","4","43.5666666","-5.7","6.0","GIJON MUSEL, SP","FM-12","99999","V020","010,1,N,0010,1","03600,1,9,N","013000,1,N,1","+0154,1","+0123,1","10163,1",,,,,,,,"06,99,1,03,1,04,1,00800,1,05,1,00,1",,,,,"99999,9,10155,1","2,1,011,1,+999,9",,"SYN076AAXX  19094 08014 42563 60102 10154 20123 30155 40163 52011 83450 333 92428;",
"08014099999","2010-04-19T15:00:00","4","43.5666666","-5.7","6.0","GIJON MUSEL, SP","FM-12","99999","V020","030,1,N,0026,1","03600,1,9,N","015000,1,N,1","+0156,1","+0122,1","10170,1",,,,,,,,"06,99,1,04,1,02,1,00450,1,05,1,99,9",,,,,"99999,9,10162,1","2,1,002,1,+999,9",,"SYN076AAXX  19154 08014 42465 60305 10156 20122 30162 40170 52002 8425/ 333 92427;",
"08014099999","2010-04-19T18:00:00","4","43.5666666","-5.7","6.0","GIJON MUSEL, SP","FM-12","99999","V020","090,1,N,0015,1","03600,1,9,N","013000,1,N,1","+0150,1","+0125,1","10171,1","12,0000,9,1",,,,,,,"07,99,1,04,1,08,1,00450,1,05,1,99,9",,,,"120,M,+0161,1","99999,9,10163,1","2,1,001,1,+999,9",,"SYN088AAXX  19184 08014 12463 70903 10150 20125 30163 40171 52001 60002 8485/ 333 10161 92427;","Q01  00002PRCP12"
"08014099999","2010-04-20T06:00:00","4","43.5666666","-5.7","6.0","GIJON MUSEL, SP","FM-12","99999","V020","190,1,N,0010,1","00420,1,9,N","006000,1,N,1","+0130,1","+0122,1","10179,1","12,0000,9,1","24,0000,9,1",,,,,,"08,99,1,06,1,06,1,00450,1,01,1,99,9","0492,9","09,9","999,+0120,9","999,N,+0126,1","99999,9,10171,1","4,1,000,1,+999,9","10,1","SYN112AAXX  20064 08014 11456 81902 10130 20122 30171 40179 54000 60002 710// 8661/ 333 20126 31012 50194 55082 70000;","Q01  00002PRCP24Q02  00002PRCP12"
"08014099999","2010-04-20T09:00:00","4","43.5666666","-5.7","6.0","GIJON MUSEL, SP","FM-12","99999","V020","070,1,N,0021,1","00420,1,9,N","008000,1,N,1","+0140,1","+0119,1","10183,1",,,,"4,1,03,1","4,1,03,1",,,"08,99,1,06,1,06,1,00450,1,01,1,99,9",,,,,"99999,9,10175,1","2,1,004,1,+999,9","10,1","SYN082AAXX  20094 08014 41458 80704 10140 20119 30175 40183 52004 71044 8661/ 333 92427;",
"08014099999","2010-04-20T12:00:00","4","43.5666666","-5.7","6.0","GIJON MUSEL, SP","FM-12","99999","V020","070,1,N,0026,1","00900,1,9,N","013000,1,N,1","+0114,1","+0079,1","10177,1","06,0000,9,1",,,,,,,"07,99,1,05,1,08,1,00450,1,05,1,99,9",,,,,"99999,9,10169,1","7,1,006,1,+999,9",,"SYN082AAXX  20124 08014 12463 70705 10114 20079 30169 40177 57006 60001 8585/ 333 92438;","Q01  00002PRCP06"
"08014099999","2010-04-20T15:00:00","4","43.5666666","-5.7","6.0","GIJON MUSEL, SP","FM-12","99999","V020","070,1,N,0031,1","03600,1,9,N","015000,1,N,1","+0212,1","+0174,1","10163,1",,,,,,,,"07,99,1,04,1,04,1,00450,1,05,1,01,1",,,,,"99999,9,10156,1","7,1,013,1,+999,9",,"SYN076AAXX  20154 08014 42465 70706 10212 20174 30156 40163 57013 84451 333 92438;",
"08014099999","2010-04-20T18:00:00","4","43.5666666","-5.7","6.0","GIJON MUSEL, SP","FM-12","99999","V020","070,1,N,0026,1","03600,1,9,N","015000,1,N,1","+0150,1","+0125,1","10160,1","12,0000,9,1",,,,,,,"06,99,1,03,1,04,1,00450,1,05,1,00,1",,,,"120,M,+0163,1","99999,9,10152,1","6,1,004,1,+999,9",,"SYN088AAXX  20184 08014 12465 60705 10150 20125 30152 40160 56004 60002 83450 333 10163 92438;","Q01  00002PRCP12"
"08014099999","2010-04-21T06:00:00","4","43.5666666","-5.7","6.0","GIJON MUSEL, SP","FM-12","99999","V020","100,1,N,0015,1","00120,1,9,N","000800,1,N,1","+0128,1","+0125,1","10127,1","12,0000,9,1","24,0000,9,1",,,,"09,1,+00120,1,99,9",,"09,99,1,09,1,99,9,99999,9,99,9,99,9","0270,9","09,9","999,+0120,9","999,N,+0125,1","99999,9,10119,1","8,1,009,1,+999,9","45,1","SYN112AAXX  21064 08014 11/08 91003 10128 20125 30119 40127 58009 60002 745// 333 20125 31012 50214 55045 70000 89/04;","Q01  00002PRCP24Q02  00002PRCP12"
"08014099999","2010-04-21T09:00:00","4","43.5666666","-5.7","6.0","GIJON MUSEL, SP","FM-12","99999","V020","070,1,N,0015,1","00210,1,9,N","001500,1,N,1","+0132,1","+0118,1","10122,1",,,,"4,1,03,1","4,1,03,1",,,"08,99,1,08,1,06,1,00250,1,99,9,99,9",,,,,"99999,9,10114,1","8,1,005,1,+999,9","10,1","SYN082AAXX  21094 08014 41315 80703 10132 20118 30114 40122 58005 71044 886// 333 92434;",
"08014099999","2010-04-21T12:00:00","4","43.5666666","-5.7","6.0","GIJON MUSEL, SP","FM-12","99999","V020","040,1,N,0015,1","00210,1,9,N","003000,1,N,1","+0138,1","+0124,1","10126,1","06,9999,9,9",,,"4,1,06,1","2,1,06,1",,,"08,99,1,08,1,06,1,00250,1,99,9,99,9",,,,,"99999,9,10118,1","0,1,004,1,+999,9","50,1","SYN088AAXX  21124 08014 11330 80403 10138 20124 30118 40126 50004 69901 75042 886// 333 92434;","Q01  00002PRCP06Q02  00002PRCP06"
"08014099999","2010-04-21T15:00:00","4","43.5666666","-5.7","6.0","GIJON MUSEL, SP","FM-12","99999","V020","120,1,N,0015,1","00420,1,9,N","004000,1,N,1","+0140,1","+0126,1","10116,1",,,,"6,1,03,1","2,1,03,1",,,"07,99,1,07,1,06,1,00450,1,00,1,00,1",,,,,"99999,9,10108,1","8,1,010,1,+999,9","10,1","SYN082AAXX  21154 08014 41440 71203 10140 20126 30108 40116 58010 71062 87600 333 92435;",
"08014099999","2010-04-21T18:00:00","4","43.5666666","-5.7","6.0","GIJON MUSEL, SP","FM-12","99999","V020","999,9,C,0000,1","00420,1,9,N","002000,1,N,1","+0138,1","+0124,1","10111,1","12,0000,2,1",,,"6,1,06,1","2,1,06,1",,,"08,99,1,08,1,06,1,00450,1,99,9,99,9",,,,"120,M,+0144,1","99999,9,10103,1","6,1,005,1,+999,9","10,1","SYN094AAXX  21184 08014 11420 80000 10138 20124 30103 40111 56005 69912 71062 886// 333 10144 92424;",
"08014099999","2010-04-22T06:00:00","4","43.5666666","-5.7","6.0","GIJON MUSEL, SP","FM-12","99999","V020","999,9,C,0000,1","00090,1,9,N","000500,1,N,1","+0126,1","+0118,1","10094,1","12,0051,9,2","24,0046,9,2",,"4,1,06,1","4,1,06,1","09,1,+00090,1,99,9",,"09,99,1,09,1,99,9,99999,9,99,9,99,9","0000,9","11,9","999,+0100,9","999,N,+0122,1","99999,9,10086,1","5,1,000,1,+999,9","45,1","SYN112AAXX  22064 08014 11/05 90000 10126 20118 30086 40094 55000 60052 74544 333 20122 32010 50134 55000 70046 89/03;",
"08014099999","2010-04-22T09:00:00","4","43.5666666","-5.7","6.0","GIJON MUSEL, SP","FM-12","99999","V020","040,1,N,0010,1","22000,1,9,N","001500,1,N,1","+0150,1","+0129,1","10095,1",,,,"4,1,03,1","4,1,03,1",,,"04,99,1,02,1,06,1,00250,1,03,1,01,1",,,,,"99999,9,10087,1","1,1,001,1,+999,9","10,1","SYN082AAXX  22094 08014 41315 40402 10150 20129 30087 40095 51001 71044 82631 333 92425;",
"08014099999","2010-04-22T12:00:00","4","43.5666666","-5.7","6.0","GIJON MUSEL, SP","FM-12","99999","V020","360,1,N,0021,1","22000,1,9,N","000600,1,N,1","+0144,1","+0123,1","10098,1","06,0000,9,1",,,"4,1,06,1","4,1,06,1",,,"01,99,1,01,1,00,1,02250,1,04,1,01,1",,,,,"99999,9,10090,1","1,1,003,1,+999,9","41,1","SYN088AAXX  22124 08014 11806 13604 10144 20123 30090 40098 51003 60001 74144 81041 333 92433;","Q01  00002PRCP06"
"08014099999","2010-04-22T15:00:00","4","43.5666666","-5.7","6.0","GIJON MUSEL, SP","FM-12","99999","V020","030,1,N,0021,1","00420,1,9,N","003000,1,N,1","+0138,1","+0115,1","10098,1",,,,"4,1,03,1","4,1,03,1",,,"08,99,1,08,1,06,1,00450,1,99,9,99,9",,,,,"99999,9,10090,1","4,1,000,1,+999,9","10,1","SYN082AAXX  22154 08014 41430 80304 10138 20115 30090 40098 54000 71044 886// 333 92425;",
"08014099999","2010-04-22T18:00:00","4","43.5666666","-5.7","6.0","GIJON MUSEL, SP","FM-12","99999","V020","220,1,N,0010,1","00750,1,9,N","008000,1,N,1","+0142,1","+0115,1","10106,1","12,0000,9,1",,,"4,1,06,1","2,1,06,1",,,"08,99,1,08,1,06,1,00800,1,99,9,99,9",,,,"120,M,+0158,1","99999,9,10098,1","3,1,008,1,+999,9","10,1","SYN094AAXX  22184 08014 11558 82202 10142 20115 30098 40106 53008 60002 71042 886// 333 10158 92426;","Q01  00002PRCP12"
"08014099999","2010-04-23T06:00:00","4","43.5666666","-5.7","6.0","GIJON MUSEL, SP","FM-12","99999","V020","999,9,C,0000,1","00420,1,9,N","008000,1,N,1","+0134,1","+0111,1","10124,1","12,9999,9,9","24,9999,9,9",,"2,1,06,1","2,1,06,1",,,"08,99,1,08,1,06,1,00450,1,99,9,99,9","0282,9","09,9","999,+0120,9","999,N,+0126,1","99999,9,10116,1","3,1,007,1,+999,9","50,1","SYN112AAXX  23064 08014 11458 80000 10134 20111 30116 40124 53007 69902 75022 886// 333 20126 31012 50174 55047 79999;","Q01  00002PRCP24Q02  00002PRCP12Q03  00002PRCP12Q04  00002PRCP24"
"08014099999","2010-04-23T09:00:00","4","43.5666666","-5.7","6.0","GIJON MUSEL, SP","FM-12","99999","V020","999,9,C,0000,1","00420,1,9,N","005000,1,N,1","+0138,1","+0120,1","10132,1",,,,"5,1,03,1","2,1,03,1",,,"08,99,1,08,1,06,1,00450,1,99,9,99,9",,,,,"99999,9,10124,1","1,1,008,1,+999,9","10,1","SYN082AAXX  23094 08014 41450 80000 10138 20120 30124 40132 51008 71052 886// 333 92426;",
"08014099999","2010-04-23T12:00:00","4","43.5666666","-5.7","6.0","GIJON MUSEL, SP","FM-12","99999","V020","050,1,N,0015,1","00420,1,9,N","009000,1,N,1","+0150,1","+0121,1","10143,1","06,0000,2,1",,,"5,1,06,1","2,1,06,1",,,"07,99,1,07,1,06,1,00450,1,00,1,00,1",,,,,"99999,9,10135,1","1,1,011,1,+999,9","10,1","SYN088AAXX  23124 08014 11459 70503 10150 20121 30135 40143 51011 69911 71052 87600 333 92426;",
"08014099999","2010-04-23T15:00:00","4","43.5666666","-5.7","6.0","GIJON MUSEL, SP","FM-12","99999","V020","090,1,N,0015,1","03600,1,9,N","020000,1,N,1","+0156,1","+0120,1","10143,1",,,,,,,,"06,99,1,04,1,05,1,01250,1,03,1,01,1",,,,,"99999,9,10135,1","4,1,000,1,+999,9",,"SYN076AAXX  23154 08014 42670 60903 10156 20120 30135 40143 54000 84531 333 92427;",
"08014099999","2010-04-23T18:00:00","4","43.5666666","-5.7","6.0","GIJON MUSEL, SP","FM-12","99999","V020","070,1,N,0010,1","01200,1,9,N","020000,1,N,1","+0158,1","+0118,1","10143,1","12,0000,2,1",,,,,,,"07,99,1,05,1,05,1,01250,1,03,1,01,1",,,,"120,M,+0160,1","99999,9,10135,1","4,1,000,1,+999,9",,"SYN088AAXX  23184 08014 12670 70702 10158 20118 30135 40143 54000 69912 85531 333 10160 92427;",
"08014099999","2010-04-24T06:00:00","4","43.5666666","-5.7","6.0","GIJON MUSEL, SP","FM-12","99999","V020","999,9,C,0000,1","22000,1,9,N","006000,1,N,1","+0118,1","+0100,1","10151,1","12,0000,9,1","24,0000,2,1",,,,,,"02,99,1,01,1,00,1,01250,1,07,1,01,1","0078,9","09,9","999,+0090,9","999,N,+0116,1","99999,9,10143,1","7,1,003,1,+999,9","10,1","SYN112AAXX  24064 08014 11656 20000 10118 20100 30143 40151 57003 60002 710// 81071 333 20116 31009 50144 55013 70000;","Q01  00002PRCP12"
"08014099999","2010-04-24T09:00:00","4","43.5666666","-5.7","6.0","GIJON MUSEL, SP","FM-12","99999","V020","110,1,N,0015,1","22000,1,9,N","005000,1,N,1","+0152,1","+0120,1","10163,1",,,,"0,1,03,1","0,1,03,1",,,"03,99,1,01,1,01,1,01250,1,01,1,01,1",,,,,"99999,9,10155,1","3,1,012,1,+999,9","10,1","SYN082AAXX  24094 08014 41650 31103 10152 20120 30155 40163 53012 71000 81111 333 90426;",
"08014099999","2010-04-24T12:00:00","4","43.5666666","-5.7","6.0","GIJON MUSEL, SP","FM-12","99999","V020","060,1,N,0021,1","22000,1,9,N","012000,1,N,1","+0161,1","+0125,1","10167,1","06,0000,9,1",,,,,,,"02,99,1,01,1,01,1,01250,1,01,1,01,1",,,,,"99999,9,10159,1","2,1,004,1,+999,9",,"SYN082AAXX  24124 08014 12662 20604 10161 20125 30159 40167 52004 60001 81111 333 92427;","Q01  00002PRCP06"
"08014099999","2010-04-24T15:00:00","4","43.5666666","-5.7","6.0","GIJON MUSEL, SP","FM-12","99999","V020","060,1,N,0026,1","22000,1,9,N","015000,1,N,1","+0170,1","+0127,1","10163,1",,,,,,,,"02,99,1,01,1,01,1,01250,1,08,1,01,1",,,,,"99999,9,10155,1","8,1,004,1,+999,9",,"SYN076AAXX  24154 08014 42665 20605 10170 20127 30155 40163 58004 81181 333 92427;",
"08014099999","2010-04-24T18:00:00","4","43.5666666","-5.7","6.0","GIJON MUSEL, SP","FM-12","99999","V020","040,1,N,0015,1","03600,1,9,N","012000,1,N,1","+0156,1","+0127,1","10175,1","12,0000,9,1",,,,,,,"05,99,1,03,1,08,1,00800,1,07,1,01,1",,,,"120,M,+0176,1","99999,9,10167,1","2,1,012,1,+999,9",,"SYN088AAXX  24184 08014 12562 50403 10156 20127 30167 40175 52012 60002 83871 333 10176 92427;","Q01  00002PRCP12"
"08014099999","2010-04-25T06:00:00","4","43.5666666","-5.7","6.0","GIJON MUSEL, SP","FM-12","99999","V020","999,9,C,0000,1","03600,1,9,N","010000,1,N,1","+0150,1","+0123,1","10238,1","12,0000,9,1","24,0000,9,1",,,,,,"08,99,1,04,1,06,1,00800,1,02,1,99,9","0684,9","01,9","999,+0140,9","999,N,+0145,1","99999,9,10230,1","2,1,010,1,+999,9","02,1","SYN112AAXX  25064 08014 11560 80000 10150 20123 30230 40238 52010 60002 702// 8462/ 333 20145 30014 50214 55114 70000;","Q01  00002PRCP24Q02  00002PRCP12"
"08014099999","2010-04-25T09:00:00","4","43.5666666","-5.7","6.0","GIJON MUSEL, SP","FM-12","99999","V020","350,1,N,0010,1","03600,1,9,N","010000,1,N,1","+0152,1","+0131,1","10254,1",,,,,,,,"08,99,1,04,1,06,1,00800,1,02,1,99,9",,,,,"99999,9,10246,1","2,1,016,1,+999,9",,"SYN076AAXX  25094 08014 42560 83502 10152 20131 30246 40254 52016 8462/ 333 92426;",
"08014099999","2010-04-25T12:00:00","4","43.5666666","-5.7","6.0","GIJON MUSEL, SP","FM-12","99999","V020","040,1,N,0026,1","03600,1,9,N","015000,1,N,1","+0160,1","+0110,1","10264,1","06,0000,9,1",,,,,,,"07,99,1,03,1,01,1,00800,1,02,1,00,1",,,,,"99999,9,10256,1","2,1,010,1,+999,9",,"SYN082AAXX  25124 08014 12565 70405 10160 20110 30256 40264 52010 60001 83120 333 92427;","Q01  00002PRCP06"
"08014099999","2010-04-25T15:00:00","4","43.5666666","-5.7","6.0","GIJON MUSEL, SP","FM-12","99999","V020","060,1,N,0026,1","03600,1,9,N","015000,1,N,1","+0162,1","+0114,1","10261,1",,,,,,,,"08,99,1,03,1,06,1,00800,1,02,1,99,9",,,,,"99999,9,10253,1","8,1,003,1,+999,9",,"SYN076AAXX  25154 08014 42565 80605 10162 20114 30253 40261 58003 8362/ 333 92427;",
"08014099999","2010-04-25T18:00:00","4","43.5666666","-5.7","6.0","GIJON MUSEL, SP","FM-12","99999","V020","060,1,N,0021,1","03600,1,9,N","015000,1,N,1","+0156,1","+0124,1","10261,1","12,0000,9,1",,,,,,,"08,99,1,03,1,06,1,00800,1,02,1,99,9",,,,"120,M,+0175,1","99999,9,10253,1","4,1,000,1,+999,9",,"SYN088AAXX  25184 08014 12565 80604 10156 20124 30253 40261 54000 60002 8362/ 333 10175 92427;","Q01  00002PRCP12"
"08014099999","2010-04-26T06:00:00","4","43.5666666","-5.7","6.0","GIJON MUSEL, SP","FM-12","99999","V020","090,1,N,0026,1","03600,1,9,N","008000,1,N,1","+0145,1","+0120,1","10256,1","12,0000,9,1","24,0000,9,1",,,,,,"08,99,1,03,1,06,1,00800,1,02,1,99,9","0060,9","01,9","999,+0110,9","999,N,+0136,1","99999,9,10248,1","4,1,000,1,+999,9","10,1","SYN112AAXX  26064 08014 11558 80905 10145 20120 30248 40256 54000 60002 710// 8362/ 333 20136 30011 50204 55010 70000;","Q01  00002PRCP24Q02  00002PRCP12"
"08014099999","2010-04-26T09:00:00","4","43.5666666","-5.7","6.0","GIJON MUSEL, SP","FM-12","99999","V020","080,1,N,0021,1","03600,1,9,N","008000,1,N,1","+0152,1","+0118,1","10266,1",,,,"2,1,03,1","2,1,03,1",,,"08,99,1,03,1,06,1,00800,1,01,1,99,9",,,,,"99999,9,10258,1","3,1,010,1,+999,9","10,1","SYN082AAXX  26094 08014 41558 80804 10152 20118 30258 40266 53010 71022 8361/ 333 92426;",
"08014099999","2010-04-26T12:00:00","4","43.5666666","-5.7","6.0","GIJON MUSEL, SP","FM-12","99999","V020","070,1,N,0026,1","22000,1,9,N","010000,1,N,1","+0170,1","+0123,1","10250,1","06,0000,9,1",,,,,,,"03,99,1,03,1,00,1,01250,1,01,1,00,1",,,,,"99999,9,10242,1","8,1,016,1,+999,9",,"SYN082AAXX  26124 08014 12660 30705 10170 20123 30242 40250 58016 60001 83010 333 92426;","Q01  00002PRCP06"
"08014099999","2010-04-26T15:00:00","4","43.5666666","-5.7","6.0","GIJON MUSEL, SP","FM-12","99999","V020","070,1,N,0026,1","22000,1,9,N","015000,1,N,1","+0170,1","+0125,1","10249,1",,,,,,,,"03,99,1,01,1,01,1,00800,1,01,1,01,1",,,,,"99999,9,10241,1","7,1,001,1,+999,9",,"SYN076AAXX  26154 08014 42565 30705 10170 20125 30241 40249 57001 81111 333 92437;",
"08014099999","2010-04-26T18:00:00","4","43.5666666","-5.7","6.0","GIJON MUSEL, SP","FM-12","99999","V020","080,1,N,0010,1","22000,1,9,N","015000,1,N,1","+0160,1","+0124,1","10241,1","12,0000,9,1",,,,,,,"03,99,1,01,1,01,1,00800,1,07,1,01,1",,,,"120,M,+0175,1","99999,9,10233,1","7,1,008,1,+999,9",,"SYN088AAXX  26184 08014 12565 30802 10160 20124 30233 40241 57008 60002 81171 333 10175 92437;","Q01  00002PRCP12"
"08014099999","2010-04-27T06:00:00","4","43.5666666","-5.7","6.0","GIJON MUSEL, SP","FM-12","99999","V020","210,1,N,0015,1","00300,1,9,N","000300,1,N,1","+0123,1","+0114,1","10222,1","12,0000,9,1","24,0000,9,1",,,,"09,1,+00300,1,99,9",,"09,99,1,09,1,99,9,99999,9,99,9,99,9","0408,9","01,9","999,+0120,9","999,N,+0122,1","99999,9,10214,1","7,1,004,1,+999,9","12,1","SYN112AAXX  27064 08014 11/03 92103 10123 20114 30214 40222 57004 60002 712// 333 20122 30012 50214 55068 70000 89/10;","Q01  00002PRCP24Q02  00002PRCP12"
"08014099999","2010-04-27T09:00:00","4","43.5666666","-5.7","6.0","GIJON MUSEL, SP","FM-12","99999","V020","060,1,N,0010,1","22000,1,9,N","006000,1,N,1","+0145,1","+0113,1","10222,1",,,,"1,1,03,1","1,1,03,1",,,"04,99,1,02,1,06,1,00800,1,01,1,01,1",,,,,"99999,9,10214,1","4,1,000,1,+999,9","10,1","SYN082AAXX  27094 08014 41556 40602 10145 20113 30214 40222 54000 71011 82611 333 92436;",
"08014099999","2010-04-27T12:00:00","4","43.5666666","-5.7","6.0","GIJON MUSEL, SP","FM-12","99999","V020","050,1,N,0026,1","22000,1,9,N","010000,1,N,1","+0166,1","+0126,1","10225,1","06,0000,9,1",,,,,,,"02,99,1,01,1,00,1,01250,1,01,1,01,1",,,,,"99999,9,10217,1","3,1,003,1,+999,9",,"SYN082AAXX  27124 08014 12660 20505 10166 20126 30217 40225 53003 60001 81011 333 92437;","Q01  00002PRCP06"
"08014099999","2010-04-27T15:00:00","4","43.5666666","-5.7","6.0","GIJON MUSEL, SP","FM-12","99999","V020","040,1,N,0026,1","99999,9,9,N","010000,1,N,1","+0168,1","+0131,1","10210,1",,,,,,,,"06,99,1,04,1,00,1,01250,1,08,1,01,1",,,,,"99999,9,10202,1","8,1,015,1,+999,9",,"SYN076AAXX  27154 08014 42660 60405 10168 20131 30202 40210 58015 84081 333 92437;",
"08014099999","2010-04-27T18:00:00","4","43.5666666","-5.7","6.0","GIJON MUSEL, SP","FM-12","99999","V020","040,1,N,0015,1","99999,9,9,N","012000,1,N,1","+0162,1","+0129,1","10200,1","12,0000,9,1",,,,,,,"05,99,1,03,1,00,1,01250,1,01,1,01,1",,,,"120,M,+0175,1","99999,9,10192,1","7,1,010,1,+999,9",,"SYN088AAXX  27184 08014 12662 50403 10162 20129 30192 40200 57010 60002 83011 333 10175 92437;","Q01  00002PRCP12"
"08014099999","2010-04-28T06:00:00","4","43.5666666","-5.7","6.0","GIJON MUSEL, SP","FM-12","99999","V020","230,1,N,0021,1","22000,1,9,N","010000,1,N,1","+0176,1","+0105,1","10181,1","12,0000,9,1","24,0000,9,1",,,,,,"03,99,1,02,1,00,1,01250,1,08,1,09,1","0528,9","01,9","999,+0100,9","999,N,+0140,1","99999,9,10173,1","7,1,006,1,+999,9","02,1","SYN112AAXX  28064 08014 11660 32304 10176 20105 30173 40181 57006 60002 702// 82089 333 20140 30010 50244 55088 70000;","Q01  00002PRCP24Q02  00002PRCP12"
"08014099999","2010-04-28T09:00:00","4","43.5666666","-5.7","6.0","GIJON MUSEL, SP","FM-12","99999","V020","010,1,N,0010,1","22000,1,9,N","010000,1,N,1","+0206,1","+0115,1","10182,1",,,,,,,,"03,99,1,02,1,00,1,01250,1,08,1,01,1",,,,,"99999,9,10174,1","3,1,001,1,+999,9",,"SYN076AAXX  28094 08014 42660 30102 10206 20115 30174 40182 53001 82081 333 92437;",
"08014099999","2010-04-28T12:00:00","4","43.5666666","-5.7","6.0","GIJON MUSEL, SP","FM-12","99999","V020","330,1,N,0036,1","22000,1,9,N","010000,1,N,1","+0201,1","+0123,1","10178,1","06,0000,9,1",,,,,,,"02,99,1,01,1,00,1,01750,1,01,1,05,1",,,,,"99999,9,10170,1","8,1,004,1,+999,9",,"SYN082AAXX  28124 08014 12760 23307 10201 20123 30170 40178 58004 60001 81015 333 92437;","Q01  00002PRCP06"
"08014099999","2010-04-28T15:00:00","4","43.5666666","-5.7","6.0","GIJON MUSEL, SP","FM-12","99999","V020","060,1,N,0021,1","99999,9,9,N","010000,1,N,1","+0198,1","+0133,1","10167,1",,,,,,,,"06,99,1,04,1,00,1,00800,1,08,1,02,1",,,,,"99999,9,10159,1","7,1,011,1,+999,9",,"SYN076AAXX  28154 08014 42560 60604 10198 20133 30159 40167 57011 84082 333 92437;",
"08014099999","2010-04-28T18:00:00","4","43.5666666","-5.7","6.0","GIJON MUSEL, SP","FM-12","99999","V020","290,1,N,0010,1","03600,1,9,N","010000,1,N,1","+0174,1","+0135,1","10168,1","12,0000,9,1",,,,,,,"08,99,1,02,1,01,1,00800,1,07,1,99,9",,,,"120,M,+0216,1","99999,9,10160,1","3,1,001,1,+999,9",,"SYN088AAXX  28184 08014 12560 82902 10174 20135 30160 40168 53001 60002 8217/ 333 10216 92437;","Q01  00002PRCP12"
"08014099999","2010-04-29T06:00:00","4","43.5666666","-5.7","6.0","GIJON MUSEL, SP","FM-12","99999","V020","230,1,N,0031,1","01200,1,9,N","015000,1,N,1","+0156,1","+0071,1","10144,1","12,0020,9,1","24,0020,9,1",,,,,,"08,99,1,05,1,08,1,00800,1,05,1,99,9","0522,9","11,9","999,+0110,9","999,N,+0136,1","99999,9,10136,1","0,1,001,1,+999,9","02,1","SYN112AAXX  29064 08014 11565 82306 10156 20071 30136 40144 50001 60022 702// 8585/ 333 20136 32011 50494 55087 70021;",
"08014099999","2010-04-29T09:00:00","4","43.5666666","-5.7","6.0","GIJON MUSEL, SP","FM-12","99999","V020","250,1,N,0015,1","03600,1,9,N","020000,1,N,1","+0162,1","+0126,1","10164,1",,,,,,,,"06,99,1,04,1,08,1,00800,1,03,1,00,1",,,,,"99999,9,10156,1","2,1,020,1,+999,9",,"SYN076AAXX  29094 08014 42570 62503 10162 20126 30156 40164 52020 84830 333 92438;",
"08014099999","2010-04-29T12:00:00","4","43.5666666","-5.7","6.0","GIJON MUSEL, SP","FM-12","99999","V020","070,1,N,0015,1","01200,1,9,N","020000,1,N,1","+0172,1","+0112,1","10175,1","06,0000,9,1",,,"6,1,06,1","6,1,06,1",,,"08,99,1,05,1,08,1,00800,1,01,1,99,9",,,,,"99999,9,10167,1","2,1,011,1,+999,9","02,1","SYN088AAXX  29124 08014 11570 80703 10172 20112 30167 40175 52011 69921 70266 8581/ 333 92438;","Q01  00002PRCP06"
"08014099999","2010-04-29T15:00:00","4","43.5666666","-5.7","6.0","GIJON MUSEL, SP","FM-12","99999","V020","040,1,N,0026,1","01200,1,9,N","020000,1,N,1","+0166,1","+0122,1","10175,1",,,,,,,,"07,99,1,05,1,08,1,00800,1,05,1,99,9",,,,,"99999,9,10167,1","4,1,000,1,+999,9",,"SYN076AAXX  29154 08014 42570 70405 10166 20122 30167 40175 54000 8585/ 333 92438;",
"08014099999","2010-04-29T18:00:00","4","43.5666666","-5.7","6.0","GIJON MUSEL, SP","FM-12","99999","V020","030,1,N,0010,1","01200,1,9,N","020000,1,N,1","+0164,1","+0116,1","10175,1","12,0000,9,1",,,,,,,"08,99,1,05,1,08,1,00800,1,05,1,99,9",,,,"120,M,+0176,1","99999,9,10167,1","4,1,000,1,+999,9",,"SYN088AAXX  29184 08014 12570 80302 10164 20116 30167 40175 54000 60002 8585/ 333 10176 92428;","Q01  00002PRCP12"
"08014099999","2010-04-30T06:00:00","4","43.5666666","-5.7","6.0","GIJON MUSEL, SP","FM-12","99999","V020","999,9,C,0000,1","01200,1,9,N","015000,1,N,1","+0140,1","+0126,1","10161,1","12,0003,9,1","24,0005,9,1",,,,,,"08,99,1,05,1,08,1,00800,1,01,1,99,9","0186,9","11,9","999,+0120,9","999,N,+0135,1","99999,9,10153,1","5,1,000,1,+999,9","02,1","SYN112AAXX  30064 08014 11565 80000 10140 20126 30153 40161 55000 69932 702// 8581/ 333 20135 32012 50284 55031 70005;",
"08014099999","2010-04-30T09:00:00","4","43.5666666","-5.7","6.0","GIJON MUSEL, SP","FM-12","99999","V020","070,1,N,0015,1","01200,1,9,N","015000,1,N,1","+0152,1","+0127,1","10154,1",,,,,,,,"08,99,1,05,1,08,1,00800,1,01,1,00,1",,,,,"99999,9,10146,1","7,1,007,1,+999,9",,"SYN076AAXX  30094 08014 42565 80703 10152 20127 30146 40154 57007 85810 333 92428;",
"08014099999","2010-04-30T12:00:00","4","43.5666666","-5.7","6.0","GIJON MUSEL, SP","FM-12","99999","V020","080,1,N,0026,1","01200,1,9,N","020000,1,N,1","+0156,1","+0122,1","10154,1","06,0000,9,1",,,,,,,"08,99,1,05,1,08,1,00800,1,05,1,99,9",,,,,"99999,9,10146,1","4,1,000,1,+999,9",,"SYN082AAXX  30124 08014 12570 80805 10156 20122 30146 40154 54000 60001 8585/ 333 92428;","Q01  00002PRCP06"
"08014099999","2010-04-30T15:00:00","4","43.5666666","-5.7","6.0","GIJON MUSEL, SP","FM-12","99999","V020","080,1,N,0021,1","01200,1,9,N","025000,1,N,1","+0162,1","+0109,1","10151,1",,,,,,,,"08,99,1,05,1,08,1,00800,1,07,1,99,9",,,,,"99999,9,10143,1","7,1,003,1,+999,9",,"SYN076AAXX  30154 08014 42575 80804 10162 20109 30143 40151 57003 8587/ 333 92428;",
"08014099999","2010-04-30T18:00:00","4","43.5666666","-5.7","6.0","GIJON MUSEL, SP","FM-12","99999","V020","080,1,N,0026,1","03600,1,9,N","025000,1,N,1","+0154,1","+0114,1","10148,1","12,0000,9,1",,,,,,,"08,99,1,03,1,04,1,00800,1,01,1,99,9",,,,"120,M,+0162,1","99999,9,10140,1","7,1,003,1,+999,9",,"SYN088AAXX  30184 08014 12575 80805 10154 20114 30140 40148 57003 60002 8341/ 333 10162 92428;","Q01  00002PRCP12"
"08014099999","2010-05-01T06:00:00","4","43.5666666","-5.7","6.0","GIJON MUSEL, SP","FM-12","99999","V020","110,1,N,0010,1","03600,1,9,N","015000,1,N,1","+0136,1","+0093,1","10147,1","12,0010,9,1","24,0010,9,1",,,,,,"08,99,1,04,1,08,1,00800,1,01,1,99,9","0000,9","09,9","999,+0120,9","999,N,+0131,1","99999,9,10139,1","3,1,001,1,+999,9","02,1","SYN112AAXX  01064 08014 11565 81102 10136 20093 30139 40147 53001 60012 702// 8481/ 333 20131 31012 50224 55000 70010;",
"08014099999","2010-05-01T09:00:00","4","43.5666666","-5.7","6.0","GIJON MUSEL, SP","FM-12","99999","V020","070,1,N,0015,1","03600,1,9,N","020000,1,N,1","+0158,1","+0101,1","10149,1",,,,,,,,"07,99,1,04,1,04,1,00800,1,05,1,99,9",,,,,"99999,9,10141,1","2,1,002,1,+999,9",,"SYN076AAXX  01094 08014 42570 70703 10158 20101 30141 40149 52002 8445/ 333 92428;",
"08014099999","2010-05-01T12:00:00","4","43.5666666","-5.7","6.0","GIJON MUSEL, SP","FM-12","99999","V020","070,1,N,0026,1","03600,1,9,N","020000,1,N,1","+0170,1","+0106,1","10153,1","06,0000,9,1",,,,,,,"07,99,1,04,1,04,1,00800,1,03,1,99,9",,,,,"99999,9,10145,1","2,1,004,1,+999,9",,"SYN082AAXX  01124 08014 12570 70705 10170 20106 30145 40153 52004 60001 8443/ 333 92428;","Q01  00002PRCP06"
"08014099999","2010-05-01T15:00:00","4","43.5666666","-5.7","6.0","GIJON MUSEL, SP","FM-12","99999","V020","050,1,N,0026,1","03600,1,9,N","030000,1,N,1","+0164,1","+0111,1","10156,1",,,,,,,,"06,99,1,03,1,04,1,00800,1,05,1,00,1",,,,,"99999,9,10148,1","2,1,003,1,+999,9",,"SYN076AAXX  01154 08014 42580 60505 10164 20111 30148 40156 52003 83450 333 92428;",
"08014099999","2010-05-01T18:00:00","4","43.5666666","-5.7","6.0","GIJON MUSEL, SP","FM-12","99999","V020","040,1,N,0015,1","03600,1,9,N","030000,1,N,1","+0154,1","+0108,1","10162,1","12,0000,9,1",,,,,,,"08,99,1,04,1,08,1,00800,1,07,1,99,9",,,,"120,M,+0177,1","99999,9,10154,1","2,1,006,1,+999,9",,"SYN088AAXX  01184 08014 12580 80403 10154 20108 30154 40162 52006 60002 8487/ 333 10177 92428;","Q01  00002PRCP12"
"08014099999","2010-05-02T06:00:00","4","43.5666666","-5.7","6.0","GIJON MUSEL, SP","FM-12","99999","V020","210,1,N,0015,1","03600,1,9,N","013000,1,N,1","+0126,1","+0098,1","10171,1","12,0003,9,1","24,0003,9,1",,,,,,"08,99,1,04,1,08,1,00450,1,07,1,99,9","0258,9","09,9","999,+0110,9","999,N,+0121,1","99999,9,10163,1","3,1,002,1,+999,9","02,1","SYN112AAXX  02064 08014 11463 82103 10126 20098 30163 40171 53002 69932 702// 8487/ 333 20121 31011 50284 55043 70003;",
"08014099999","2010-05-02T09:00:00","4","43.5666666","-5.7","6.0","GIJON MUSEL, SP","FM-12","99999","V020","240,1,N,0026,1","03600,1,9,N","013000,1,N,1","+0142,1","+0094,1","10175,1",,,,,,,,"08,99,1,04,1,02,1,00450,1,07,1,99,9",,,,,"99999,9,10167,1","2,1,004,1,+999,9",,"SYN076AAXX  02094 08014 42463 82405 10142 20094 30167 40175 52004 8427/ 333 92428;",
"08014099999","2010-05-02T12:00:00","4","43.5666666","-5.7","6.0","GIJON MUSEL, SP","FM-12","99999","V020","040,1,N,0026,1","03600,1,9,N","015000,1,N,1","+0142,1","+0073,1","10177,1","06,0000,9,1",,,,,,,"08,99,1,04,1,02,1,00800,1,05,1,99,9",,,,,"99999,9,10169,1","2,1,002,1,+999,9",,"SYN082AAXX  02124 08014 12565 80405 10142 20073 30169 40177 52002 60001 8425/ 333 92428;","Q01  00002PRCP06"
"08014099999","2010-05-02T15:00:00","4","43.5666666","-5.7","6.0","GIJON MUSEL, SP","FM-12","99999","V020","110,1,N,0015,1","01200,1,9,N","020000,1,N,1","+0158,1","+0057,1","10169,1",,,,,,,,"06,99,1,05,1,08,1,00800,1,03,1,99,9",,,,,"99999,9,10161,1","7,1,008,1,+999,9",,"SYN076AAXX  02154 08014 42570 61103 10158 20057 30161 40169 57008 8583/ 333 92428;",
"08014099999","2010-05-02T18:00:00","4","43.5666666","-5.7","6.0","GIJON MUSEL, SP","FM-12","99999","V020","999,9,C,0000,1","03600,1,9,N","020000,1,N,1","+0144,1","+0084,1","10165,1","12,0000,9,1",,,,,,,"05,99,1,04,1,08,1,00800,1,03,1,00,1",,,,"120,M,+0160,1","99999,9,10157,1","7,1,004,1,+999,9",,"SYN088AAXX  02184 08014 12570 50000 10144 20084 30157 40165 57004 69902 84830 333 10160 92428;","Q01  00002PRCP12"
"08014099999","2010-05-03T06:00:00","4","43.5666666","-5.7","6.0","GIJON MUSEL, SP","FM-12","99999","V020","040,1,N,0051,1","00750,1,9,N","020000,1,N,1","+0120,1","+0075,1","10184,1","12,0109,9,1","24,0109,9,1",,,,,,"07,99,1,05,1,02,1,00800,1,05,1,99,9","0264,9","11,9","999,+0090,9","999,N,+0099,1","99999,9,10176,1","1,1,006,1,+999,9","02,1","SYN112AAXX  03064 08014 11570 70410 10120 20075 30176 40184 51006 60112 702// 8525/ 333 20099 32009 50374 55044 70110;",
"08014099999","2010-05-03T09:00:00","4","43.5666666","-5.7","6.0","GIJON MUSEL, SP","FM-12","99999","V020","040,1,N,0062,1","00750,1,9,N","020000,1,N,1","+0124,1","+0065,1","10198,1",,,,,,,,"07,99,1,05,1,02,1,00800,1,05,1,99,9",,,,,"99999,9,10190,1","2,1,014,1,+999,9",,"SYN076AAXX  03094 08014 42570 70412 10124 20065 30190 40198 52014 8525/ 333 92438;",
"08014099999","2010-05-03T12:00:00","4","43.5666666","-5.7","6.0","GIJON MUSEL, SP","FM-12","99999","V020","020,1,N,0041,1","01200,1,9,N","020000,1,N,1","+0126,1","+0062,1","10206,1","06,0003,9,1",,,"8,1,06,1","8,1,06,1",,,"08,99,1,05,1,08,1,00800,1,05,1,99,9",,,,,"99999,9,10198,1","2,1,008,1,+999,9","02,1","SYN088AAXX  03124 08014 11570 80208 10126 20062 30198 40206 52008 69931 70288 8585/ 333 92438;",
"08014099999","2010-05-03T15:00:00","4","43.5666666","-5.7","6.0","GIJON MUSEL, SP","FM-12","99999","V020","270,1,N,0015,1","00750,1,9,N","015000,1,N,1","+0110,1","+0067,1","10213,1",,,,"8,1,03,1","8,1,03,1",,,"08,99,1,05,1,02,1,00800,1,07,1,99,9",,,,,"99999,9,10205,1","2,1,007,1,+999,9","02,1","SYN082AAXX  03154 08014 41565 82703 10110 20067 30205 40213 52007 70288 8527/ 333 92438;",
"08014099999","2010-05-03T18:00:00","4","43.5666666","-5.7","6.0","GIJON MUSEL, SP","FM-12","99999","V020","040,1,N,0046,1","00750,1,9,N","020000,1,N,1","+0112,1","+0055,1","10216,1","12,0020,9,1",,,"8,1,06,1","8,1,06,1",,,"08,99,1,05,1,02,1,00800,1,07,1,99,9",,,,"120,M,+0130,1","99999,9,10208,1","2,1,003,1,+999,9","02,1","SYN094AAXX  03184 08014 11570 80409 10112 20055 30208 40216 52003 60022 70288 8527/ 333 10130 92438;",
"08014099999","2010-05-04T06:00:00","4","43.5666666","-5.7","6.0","GIJON MUSEL, SP","FM-12","99999","V020","040,1,N,0087,1","00900,1,9,N","015000,1,N,1","+0101,1","+0036,1","10225,1","12,0010,9,1","24,0036,9,1",,,,,,"08,99,1,06,1,08,1,00450,1,07,1,99,9","0096,9","01,9","999,+0060,9","999,N,+0088,1","99999,9,10217,1","4,1,000,1,+999,9","02,1","SYN112AAXX  04064 08014 11465 80417 10101 20036 30217 40225 54000 60012 702// 8687/ 333 20088 30006 50594 55016 70035;",
"08014099999","2010-05-04T09:00:00","4","43.5666666","-5.7","6.0","GIJON MUSEL, SP","FM-12","99999","V020","040,1,N,0031,1","00750,1,9,N","015000,1,N,1","+0107,1","+0044,1","10233,1",,,,"9,1,03,1","6,1,03,1",,,"08,99,1,05,1,07,1,00800,1,07,1,99,9",,,,,"99999,9,10225,1","3,1,008,1,+999,9","02,1","SYN082AAXX  04094 08014 41565 80406 10107 20044 30225 40233 53008 70296 8577/ 333 92447;",
"08014099999","2010-05-04T12:00:00","4","43.5666666","-5.7","6.0","GIJON MUSEL, SP","FM-12","99999","V020","040,1,N,0051,1","03600,1,9,N","015000,1,N,1","+0116,1","+0039,1","10234,1","06,0000,9,1",,,"9,1,06,1","6,1,06,1",,,"07,99,1,04,1,07,1,00800,1,07,1,00,1",,,,,"99999,9,10226,1","2,1,001,1,+999,9","02,1","SYN088AAXX  04124 08014 11565 70410 10116 20039 30226 40234 52001 69921 70296 84770 333 92447;","Q01  00002PRCP06"
"08014099999","2010-05-04T18:00:00","4","43.5666666","-5.7","6.0","GIJON MUSEL, SP","FM-12","99999","V020","030,1,N,0046,1","22000,1,9,N","030000,1,N,1","+0120,1","+0016,1","10232,1","12,0020,9,1",,,"8,1,06,1","1,1,06,1",,,"03,99,1,03,1,08,1,00800,1,00,1,00,1",,,,"120,M,+0130,1","99999,9,10224,1","8,1,002,1,+999,9","01,1","SYN094AAXX  04184 08014 11580 30309 10120 20016 30224 40232 58002 60022 70181 83800 333 10130 92448;",
"08014099999","2010-05-05T06:00:00","4","43.5666666","-5.7","6.0","GIJON MUSEL, SP","FM-12","99999","V020","030,1,N,0026,1","01200,1,9,N","015000,1,N,1","+0114,1","+0022,1","10205,1","12,0010,9,1","24,0023,9,1",,,,,,"07,99,1,06,1,08,1,00800,1,06,1,00,1","0228,9","09,9","999,+0080,9","999,N,+0090,1","99999,9,10197,1","7,1,002,1,+999,9","02,1","SYN112AAXX  05064 08014 11565 70305 10114 20022 30197 40205 57002 69992 702// 86860 333 20090 31008 50604 55038 70024;",
"08014099999","2010-05-05T12:00:00","4","43.5666666","-5.7","6.0","GIJON MUSEL, SP","FM-12","99999","V020","030,1,N,0026,1","00750,1,9,N","020000,1,N,1","+0119,1","+0046,1","10207,1","06,0000,9,1",,,,,,,"08,99,1,05,1,07,1,00800,1,07,1,99,9",,,,,"99999,9,10199,1","4,1,000,1,+999,9",,"SYN082AAXX  05124 08014 12570 80305 10119 20046 30199 40207 54000 60001 8577/ 333 92447;","Q01  00002PRCP06"
"08014099999","2010-05-05T15:00:00","4","43.5666666","-5.7","6.0","GIJON MUSEL, SP","FM-12","99999","V020","030,1,N,0026,1","03600,1,9,N","020000,1,N,1","+0131,1","+0050,1","10194,1",,,,,,,,"05,99,1,04,1,02,1,00800,1,06,1,00,1",,,,,"99999,9,10186,1","8,1,013,1,+999,9",,"SYN076AAXX  05154 08014 42570 50305 10131 20050 30186 40194 58013 84260 333 92447;",
"08014099999","2010-05-05T18:00:00","4","43.5666666","-5.7","6.0","GIJON MUSEL, SP","FM-12","99999","V020","050,1,N,0026,1","03600,1,9,N","020000,1,N,1","+0130,1","+0047,1","10187,1","12,0000,9,1",,,,,,,"05,99,1,04,1,02,1,00800,1,06,1,00,1",,,,"120,M,+0136,1","99999,9,10179,1","7,1,007,1,+999,9",,"SYN088AAXX  05184 08014 12570 50505 10130 20047 30179 40187 57007 60002 84260 333 10136 92447;","Q01  00002PRCP12"
"08014099999","2010-05-06T06:00:00","4","43.5666666","-5.7","6.0","GIJON MUSEL, SP","FM-12","99999","V020","230,1,N,0031,1","03600,1,9,N","012000,1,N,1","+0081,1","+0038,1","10152,1","12,0000,9,1","24,0000,9,1",,,,,,"08,99,1,04,1,06,1,01250,1,07,1,99,9","0150,9","01,9","999,+0070,9","999,N,+0075,1","99999,9,10144,1","7,1,004,1,+999,9","02,1","SYN112AAXX  06064 08014 11662 82306 10081 20038 30144 40152 57004 60002 702// 8467/ 333 20075 30007 50474 55025 70000;","Q01  00002PRCP24Q02  00002PRCP12"
"08014099999","2010-05-06T09:00:00","4","43.5666666","-5.7","6.0","GIJON MUSEL, SP","FM-12","99999","V020","210,1,N,0031,1","01200,1,9,N","012000,1,N,1","+0106,1","+0034,1","10147,1",,,,,,,,"08,99,1,05,1,06,1,01250,1,07,1,99,9",,,,,"99999,9,10139,1","7,1,005,1,+999,9",,"SYN076AAXX  06094 08014 42662 82106 10106 20034 30139 40147 57005 8567/ 333 92437;",
"08014099999","2010-05-06T12:00:00","4","43.5666666","-5.7","6.0","GIJON MUSEL, SP","FM-12","99999","V020","040,1,N,0010,1","03600,1,9,N","012000,1,N,1","+0123,1","+0059,1","10138,1","06,0000,9,1",,,,,,,"08,99,1,04,1,06,1,01250,1,07,1,99,9",,,,,"99999,9,10130,1","7,1,009,1,+999,9",,"SYN082AAXX  06124 08014 12662 80402 10123 20059 30130 40138 57009 60001 8467/ 333 92437;","Q01  00002PRCP06"
"08014099999","2010-05-06T15:00:00","4","43.5666666","-5.7","6.0","GIJON MUSEL, SP","FM-12","99999","V020","050,1,N,0026,1","22000,1,9,N","012000,1,N,1","+0140,1","+0061,1","10115,1",,,,,,,,"03,99,1,01,1,01,1,00800,1,07,1,00,1",,,,,"99999,9,10107,1","7,1,023,1,+999,9",,"SYN076AAXX  06154 08014 42562 30505 10140 20061 30107 40115 57023 81170 333 92437;",
"08014099999","2010-05-06T18:00:00","4","43.5666666","-5.7","6.0","GIJON MUSEL, SP","FM-12","99999","V020","050,1,N,0015,1","22000,1,9,N","020000,1,N,1","+0145,1","+0071,1","10109,1","12,0000,9,1",,,,,,,"03,99,1,01,1,08,1,01250,1,07,1,01,1",,,,"120,M,+0145,1","99999,9,10101,1","7,1,006,1,+999,9",,"SYN088AAXX  06184 08014 12670 30503 10145 20071 30101 40109 57006 60002 81871 333 10145 92437;","Q01  00002PRCP12"
"08014099999","2010-05-07T06:00:00","4","43.5666666","-5.7","6.0","GIJON MUSEL, SP","FM-12","99999","V020","999,9,C,0000,1","01200,1,9,N","010000,1,N,1","+0106,1","+0077,1","10070,1","12,9999,9,9","24,9999,9,9",,,,,,"08,99,1,08,1,00,1,01250,1,02,1,99,9","0294,9","09,9","999,+0070,9","999,N,+0090,1","99999,9,10062,1","7,1,003,1,+999,9","50,1","SYN112AAXX  07064 08014 11660 80000 10106 20077 30062 40070 57003 69902 750// 8802/ 333 20090 31007 50354 55049 79999;","Q01  00002PRCP24Q02  00002PRCP12Q03  00002PRCP12Q04  00002PRCP24"
"08014099999","2010-05-07T12:00:00","4","43.5666666","-5.7","6.0","GIJON MUSEL, SP","FM-12","99999","V020","090,1,N,0010,1","03600,1,9,N","010000,1,N,1","+0133,1","+0097,1","10062,1","06,0000,2,1",,,"5,1,06,1","2,1,06,1",,,"08,99,1,02,1,01,1,00800,1,02,1,99,9",,,,,"99999,9,10054,1","7,1,004,1,+999,9","50,1","SYN088AAXX  07124 08014 11560 80902 10133 20097 30054 40062 57004 69911 75052 8212/ 333 92426;",
"08014099999","2010-05-07T18:00:00","4","43.5666666","-5.7","6.0","GIJON MUSEL, SP","FM-12","99999","V020","060,1,N,0031,1","03600,1,9,N","015000,1,N,1","+0138,1","+0093,1","10059,1","12,0010,9,1",,,"6,1,06,1","5,1,06,1",,,"07,99,1,03,1,01,1,00800,1,07,1,00,1",,,,"120,M,+0144,1","99999,9,10051,1","3,1,002,1,+999,9","01,1","SYN094AAXX  07184 08014 11565 70606 10138 20093 30051 40059 53002 60012 70165 83170 333 10144 92426;",
"08014099999","2010-05-08T06:00:00","4","43.5666666","-5.7","6.0","GIJON MUSEL, SP","FM-12","99999","V020","210,1,N,0026,1","03600,1,9,N","008000,1,N,1","+0098,1","+0077,1","10057,1","12,0010,9,1","24,0010,9,1",,,,,,"08,99,1,04,1,06,1,00450,1,05,1,99,9","0000,9","09,9","999,+0070,9","999,N,+0089,1","99999,9,10049,1","3,1,002,1,+999,9","10,1","SYN112AAXX  08064 08014 11458 82105 10098 20077 30049 40057 53002 60012 710// 8465/ 333 20089 31007 50254 55000 70010;",
"08014099999","2010-05-08T09:00:00","4","43.5666666","-5.7","6.0","GIJON MUSEL, SP","FM-12","99999","V020","210,1,N,0026,1","03600,1,9,N","006000,1,N,1","+0126,1","+0094,1","10058,1",,,,"4,1,03,1","4,1,03,1",,,"07,99,1,04,1,06,1,00450,1,05,1,99,9",,,,,"99999,9,10050,1","2,1,001,1,+999,9","10,1","SYN082AAXX  08094 08014 41456 72105 10126 20094 30050 40058 52001 71044 8465/ 333 92427;",
"08014099999","2010-05-08T12:00:00","4","43.5666666","-5.7","6.0","GIJON MUSEL, SP","FM-12","99999","V020","050,1,N,0026,1","00420,1,9,N","008000,1,N,1","+0150,1","+0091,1","10058,1","06,0000,9,1",,,"4,1,06,1","4,1,06,1",,,"07,99,1,05,1,06,1,00450,1,05,1,99,9",,,,,"99999,9,10050,1","4,1,000,1,+999,9","10,1","SYN088AAXX  08124 08014 11458 70505 10150 20091 30050 40058 54000 60001 71044 8565/ 333 92427;","Q01  00002PRCP06"
"08014099999","2010-05-08T15:00:00","4","43.5666666","-5.7","6.0","GIJON MUSEL, SP","FM-12","99999","V020","090,1,N,0021,1","00900,1,9,N","013000,1,N,1","+0152,1","+0089,1","10059,1",,,,,,,,"08,99,1,05,1,08,1,00450,1,07,1,99,9",,,,,"99999,9,10051,1","2,1,001,1,+999,9",,"SYN076AAXX  08154 08014 42463 80904 10152 20089 30051 40059 52001 8587/ 333 92428;",
"08014099999","2010-05-08T18:00:00","4","43.5666666","-5.7","6.0","GIJON MUSEL, SP","FM-12","99999","V020","080,1,N,0021,1","03600,1,9,N","013000,1,N,1","+0138,1","+0111,1","10050,1","12,0008,9,1",,,"2,1,06,1","2,1,06,1",,,"08,99,1,04,1,08,1,00450,1,05,1,99,9",,,,"120,M,+0160,1","99999,9,10042,1","7,1,009,1,+999,9","50,1","SYN094AAXX  08184 08014 11463 80804 10138 20111 30042 40050 57009 69972 75022 8485/ 333 10160 92427;",
"08014099999","2010-05-09T06:00:00","4","43.5666666","-5.7","6.0","GIJON MUSEL, SP","FM-12","99999","V020","190,1,N,0015,1","03600,1,9,N","010000,1,N,1","+0114,1","+0095,1","09975,1","12,0008,9,1","24,0015,9,1",,,,,,"06,99,1,04,1,04,1,00450,1,03,1,00,1","0168,9","11,9","999,+0100,9","999,N,+0105,1","99999,9,09967,1","7,1,009,1,+999,9","02,1","SYN112AAXX  09064 08014 11460 61903 10114 20095 39967 49975 57009 69972 702// 84430 333 20105 32010 50254 55028 70014;",
"08014099999","2010-05-09T09:00:00","4","43.5666666","-5.7","6.0","GIJON MUSEL, SP","FM-12","99999","V020","999,9,C,0000,1","00900,1,9,N","015000,1,N,1","+0142,1","+0108,1","09966,1",,,,,,,,"07,99,1,05,1,08,1,00450,1,05,1,99,9",,,,,"99999,9,09958,1","7,1,009,1,+999,9",,"SYN076AAXX  09094 08014 42465 70000 10142 20108 39958 49966 57009 8585/ 333 92428;",
"08014099999","2010-05-09T12:00:00","4","43.5666666","-5.7","6.0","GIJON MUSEL, SP","FM-12","99999","V020","100,1,N,0015,1","01200,1,9,N","015000,1,N,1","+0170,1","+0119,1","09986,1","06,0000,9,1",,,,,,,"08,99,1,05,1,08,1,00800,1,05,1,99,9",,,,,"99999,9,09979,1","2,1,021,1,+999,9",,"SYN082AAXX  09124 08014 12565 81003 10170 20119 39979 49986 52021 60001 8585/ 333 92428;","Q01  00002PRCP06"
"08014099999","2010-05-09T15:00:00","4","43.5666666","-5.7","6.0","GIJON MUSEL, SP","FM-12","99999","V020","040,1,N,0031,1","03600,1,9,N","025000,1,N,1","+0172,1","+0096,1","09996,1",,,,,,,,"06,99,1,04,1,02,1,00800,1,03,1,01,1",,,,,"99999,9,09989,1","2,1,010,1,+999,9",,"SYN076AAXX  09154 08014 42575 60406 10172 20096 39989 49996 52010 84231 333 92438;",
"08014099999","2010-05-09T18:00:00","4","43.5666666","-5.7","6.0","GIJON MUSEL, SP","FM-12","99999","V020","090,1,N,0026,1","22000,1,9,N","030000,1,N,1","+0168,1","+0109,1","10013,1","12,0000,9,1",,,,,,,"03,99,1,03,1,02,1,00800,1,03,1,00,1",,,,"120,M,+0178,1","99999,9,10005,1","2,1,016,1,+999,9",,"SYN088AAXX  09184 08014 12580 30905 10168 20109 30005 40013 52016 69902 83230 333 10178 92438;","Q01  00002PRCP12"
"08014099999","2010-05-10T06:00:00","4","43.5666666","-5.7","6.0","GIJON MUSEL, SP","FM-12","99999","V020","999,9,C,0000,1","01500,1,9,N","015000,1,N,1","+0126,1","+0087,1","10033,1","12,0000,9,1","24,0000,9,1",,,,,,"06,99,1,05,1,08,1,01250,1,06,1,00,1","0366,9","01,9","999,+0100,9","999,N,+0116,1","99999,9,10025,1","5,1,000,1,+999,9",,"SYN106AAXX  10064 08014 12665 60000 10126 20087 30025 40033 55000 60002 85860 333 20116 30010 50334 55061 79999;","Q01  00002PRCP24Q02  00002PRCP12"
"08014099999","2010-05-10T09:00:00","4","43.5666666","-5.7","6.0","GIJON MUSEL, SP","FM-12","99999","V020","120,1,N,0010,1","01500,1,9,N","030000,1,N,1","+0162,1","+0074,1","10037,1",,,,,,,,"07,99,1,06,1,08,1,01250,1,06,1,00,1",,,,,"99999,9,10029,1","1,1,004,1,+999,9",,"SYN076AAXX  10094 08014 42680 71202 10162 20074 30029 40037 51004 86860 333 92438;",
"08014099999","2010-05-10T12:00:00","4","43.5666666","-5.7","6.0","GIJON MUSEL, SP","FM-12","99999","V020","070,1,N,0021,1","01500,1,9,N","030000,1,N,1","+0166,1","+0111,1","10036,1","06,0000,9,1",,,,,,,"06,99,1,06,1,08,1,01250,1,04,1,00,1",,,,,"99999,9,10028,1","8,1,001,1,+999,9",,"SYN082AAXX  10124 08014 12680 60704 10166 20111 30028 40036 58001 60001 86840 333 92438;","Q01  00002PRCP06"
"08014099999","2010-05-10T15:00:00","4","43.5666666","-5.7","6.0","GIJON MUSEL, SP","FM-12","99999","V020","070,1,N,0021,1","01200,1,9,N","030000,1,N,1","+0165,1","+0112,1","10038,1",,,,"2,1,03,1","2,1,03,1",,,"07,99,1,06,1,02,1,01250,1,06,1,02,1",,,,,"99999,9,10030,1","1,1,002,1,+999,9","21,1","SYN082AAXX  10154 08014 41680 70704 10165 20112 30030 40038 51002 72122 86262 333 92438;",
"08014099999","2010-05-10T18:00:00","4","43.5666666","-5.7","6.0","GIJON MUSEL, SP","FM-12","99999","V020","090,1,N,0015,1","01200,1,9,N","020000,1,N,1","+0154,1","+0125,1","10046,1","12,0000,2,1",,,"6,1,06,1","2,1,06,1",,,"07,99,1,06,1,02,1,01250,1,06,1,00,1",,,,"120,M,+0177,1","99999,9,10038,1","3,1,008,1,+999,9","80,1","SYN094AAXX  10184 08014 11670 70903 10154 20125 30038 40046 53008 69922 78062 86260 333 10177 92437;",
"08014099999","2010-05-11T06:00:00","4","43.5666666","-5.7","6.0","GIJON MUSEL, SP","FM-12","99999","V020","240,1,N,0015,1","00780,1,9,N","008000,1,N,1","+0114,1","+0106,1","10082,1","12,0140,9,1","24,0140,9,1",,"8,1,06,1","8,1,06,1","05,1,+00780,1,09,1",,"07,99,1,07,1,09,1,00800,1,06,1,03,1","0066,9","11,9","999,+0100,9","999,N,+0110,1","99999,9,10074,1","3,1,003,1,+999,9","25,1","SYN118AAXX  11064 08014 11558 72403 10114 20106 30074 40082 53003 60142 72588 87963 333 20110 32010 50284 55011 70140 85926;",
"08014099999","2010-05-11T12:00:00","4","43.5666666","-5.7","6.0","GIJON MUSEL, SP","FM-12","99999","V020","010,1,N,0010,1","00750,1,9,N","008000,1,N,1","+0130,1","+0091,1","10094,1","06,0005,9,1",,,"8,1,06,1","2,1,06,1",,,"08,99,1,08,1,07,1,00800,1,99,9,99,9",,,,,"99999,9,10086,1","1,1,009,1,+999,9","50,1","SYN088AAXX  11124 08014 11558 80102 10130 20091 30086 40094 51009 69951 75082 887// 333 92437;",
"08014099999","2010-05-11T18:00:00","4","43.5666666","-5.7","6.0","GIJON MUSEL, SP","FM-12","99999","V020","999,9,C,0000,1","00750,1,9,N","010000,1,N,1","+0130,1","+0087,1","10099,1","12,0005,9,1",,,"5,1,06,1","2,1,06,1",,,"07,99,1,07,1,02,1,00800,1,07,1,00,1",,,,"120,M,+0132,1","99999,9,10091,1","1,1,003,1,+999,9","02,1","SYN094AAXX  11184 08014 11560 70000 10130 20087 30091 40099 51003 69952 70252 87270 333 10132 92437;",
"08014099999","2010-05-12T06:00:00","4","43.5666666","-5.7","6.0","GIJON MUSEL, SP","FM-12","99999","V020","260,1,N,0026,1","00420,1,9,N","009000,1,N,1","+0102,1","+0090,1","10101,1","12,0010,9,1","24,0013,9,1",,,,,,"08,99,1,06,1,07,1,00450,1,07,1,99,9","0000,9","11,9","999,+0090,9","999,N,+0099,1","99999,9,10093,1","3,1,003,1,+999,9","51,1","SYN112AAXX  12064 08014 11459 82605 10102 20090 30093 40101 53003 60012 751// 8677/ 333 20099 32009 50154 55000 70012;",
"08014099999","2010-05-12T09:00:00","4","43.5666666","-5.7","6.0","GIJON MUSEL, SP","FM-12","99999","V020","240,1,N,0010,1","00900,1,9,N","010000,1,N,1","+0102,1","+0086,1","10115,1",,,,"6,1,03,1","6,1,03,1",,,"08,99,1,05,1,08,1,00450,1,07,1,99,9",,,,,"99999,9,10107,1","2,1,014,1,+999,9","02,1","SYN082AAXX  12094 08014 41460 82402 10102 20086 30107 40115 52014 70266 8587/ 333 92427;",
"08014099999","2010-05-12T12:00:00","4","43.5666666","-5.7","6.0","GIJON MUSEL, SP","FM-12","99999","V020","050,1,N,0046,1","00420,1,9,N","006000,1,N,1","+0104,1","+0083,1","10128,1","06,0071,9,1",,,"6,1,06,1","4,1,06,1",,,"08,99,1,06,1,07,1,00450,1,07,1,99,9",,,,,"99999,9,10120,1","2,1,013,1,+999,9","63,1","SYN088AAXX  12124 08014 11456 80509 10104 20083 30120 40128 52013 60071 76364 8677/ 333 92437;",
"08014099999","2010-05-12T15:00:00","4","43.5666666","-5.7","6.0","GIJON MUSEL, SP","FM-12","99999","V020","120,1,N,0021,1","03600,1,9,N","015000,1,N,1","+0114,1","+0081,1","10134,1",,,,,,,,"08,99,1,04,1,08,1,00800,1,05,1,99,9",,,,,"99999,9,10126,1","2,1,006,1,+999,9",,"SYN076AAXX  12154 08014 42565 81204 10114 20081 30126 40134 52006 8485/ 333 92438;",
"08014099999","2010-05-12T18:00:00","4","43.5666666","-5.7","6.0","GIJON MUSEL, SP","FM-12","99999","V020","090,1,N,0021,1","00750,1,9,N","020000,1,N,1","+0126,1","+0077,1","10137,1","12,0099,9,1",,,"8,1,06,1","8,1,06,1",,,"06,99,1,05,1,02,1,00800,1,03,1,00,1",,,,"120,M,+0128,1","99999,9,10129,1","2,1,003,1,+999,9","02,1","SYN094AAXX  12184 08014 11570 60904 10126 20077 30129 40137 52003 60102 70288 85230 333 10128 92438;",
"08014099999","2010-05-13T06:00:00","4","43.5666666","-5.7","6.0","GIJON MUSEL, SP","FM-12","99999","V020","230,1,N,0015,1","01200,1,9,N","020000,1,N,1","+0088,1","+0057,1","10151,1","12,0000,9,1","24,0102,9,1",,,,,,"07,99,1,05,1,08,1,00800,1,05,1,99,9","0060,9","09,9","999,+0060,9","999,N,+0082,1","99999,9,10143,1","3,1,003,1,+999,9","02,1","SYN112AAXX  13064 08014 11570 72303 10088 20057 30143 40151 53003 60002 702// 8585/ 333 20082 31006 50224 55010 70101;","Q01  00002PRCP12"
"08014099999","2010-05-13T09:00:00","4","43.5666666","-5.7","6.0","GIJON MUSEL, SP","FM-12","99999","V020","210,1,N,0015,1","03600,1,9,N","013000,1,N,1","+0120,1","+0056,1","10156,1",,,,,,,,"07,99,1,04,1,08,1,00450,1,05,1,99,9",,,,,"99999,9,10148,1","2,1,005,1,+999,9",,"SYN076AAXX  13094 08014 42463 72103 10120 20056 30148 40156 52005 8485/ 333 92428;",
"08014099999","2010-05-13T12:00:00","4","43.5666666","-5.7","6.0","GIJON MUSEL, SP","FM-12","99999","V020","050,1,N,0031,1","00750,1,9,N","015000,1,N,1","+0132,1","+0056,1","10157,1","06,0000,9,1",,,,,,,"07,99,1,05,1,02,1,00800,1,05,1,99,9",,,,,"99999,9,10149,1","2,1,001,1,+999,9",,"SYN082AAXX  13124 08014 12565 70506 10132 20056 30149 40157 52001 60001 8525/ 333 92428;","Q01  00002PRCP06"
"08014099999","2010-05-13T15:00:00","4","43.5666666","-5.7","6.0","GIJON MUSEL, SP","FM-12","99999","V020","050,1,N,0021,1","01200,1,9,N","030000,1,N,1","+0132,1","+0049,1","10158,1",,,,,,,,"08,99,1,05,1,08,1,00800,1,05,1,99,9",,,,,"99999,9,10150,1","2,1,001,1,+999,9",,"SYN076AAXX  13154 08014 42580 80504 10132 20049 30150 40158 52001 8585/ 333 92428;",
"08014099999","2010-05-13T18:00:00","4","43.5666666","-5.7","6.0","GIJON MUSEL, SP","FM-12","99999","V020","030,1,N,0015,1","22000,1,9,N","030000,1,N,1","+0128,1","+0050,1","10159,1","12,0000,9,1",,,,,,,"04,99,1,03,1,02,1,00800,1,03,1,00,1",,,,"120,M,+0140,1","99999,9,10151,1","2,1,001,1,+999,9",,"SYN088AAXX  13184 08014 12580 40303 10128 20050 30151 40159 52001 60002 83230 333 10140 92428;","Q01  00002PRCP12"
"08014099999","2010-05-14T06:00:00","4","43.5666666","-5.7","6.0","GIJON MUSEL, SP","FM-12","99999","V020","200,1,N,0041,1","01200,1,9,N","015000,1,N,1","+0084,1","+0048,1","10144,1","12,9999,9,9","24,9999,9,9",,"2,1,06,1","2,1,06,1",,,"07,99,1,06,1,07,1,01250,1,07,1,01,1","0312,9","09,9","999,+0080,9","999,N,+0075,1","99999,9,10136,1","6,1,007,1,+999,9","80,1","SYN112AAXX  14064 08014 11665 72008 10084 20048 30136 40144 56007 69912 78022 86771 333 20075 31008 50444 55052 70001;","Q01  00002PRCP24Q02  00002PRCP12Q03  00002PRCP12Q04  00002PRCP24"
"08014099999","2010-05-14T09:00:00","4","43.5666666","-5.7","6.0","GIJON MUSEL, SP","FM-12","99999","V020","200,1,N,0041,1","01200,1,9,N","010000,1,N,1","+0104,1","+0065,1","10136,1",,,,"6,1,03,1","2,1,03,1",,,"08,99,1,06,1,07,1,01250,1,07,1,99,9",,,,,"99999,9,10128,1","6,1,008,1,+999,9","60,1","SYN082AAXX  14094 08014 41660 82008 10104 20065 30128 40136 56008 76062 8677/ 333 92437;",
"08014099999","2010-05-14T12:00:00","4","43.5666666","-5.7","6.0","GIJON MUSEL, SP","FM-12","99999","V020","200,1,N,0051,1","01200,1,9,N","015000,1,N,1","+0114,1","+0095,1","10133,1","06,0005,9,1",,,"8,1,06,1","2,1,06,1",,,"08,99,1,05,1,07,1,01250,1,07,1,99,9",,,,,"99999,9,10125,1","6,1,003,1,+999,9","80,1","SYN088AAXX  14124 08014 11665 82010 10114 20095 30125 40133 56003 69961 78082 8577/ 333 92437;",
"08014099999","2010-05-14T15:00:00","4","43.5666666","-5.7","6.0","GIJON MUSEL, SP","FM-12","99999","V020","280,1,N,0010,1","00750,1,C,N","020000,1,N,1","+0140,1","+0110,1","10135,1",,,,"8,1,03,1","8,1,03,1","03,1,+00780,1,09,1",,"06,99,1,05,1,03,1,00800,1,06,1,02,1",,,,,"99999,9,10127,1","3,1,002,1,+999,9","81,1","SYN088AAXX  14154 08014 41570 62802 10140 20110 30127 40135 53002 78188 85362 333 83926 92437;",
"08014099999","2010-05-14T18:00:00","4","43.5666666","-5.7","6.0","GIJON MUSEL, SP","FM-12","99999","V020","120,1,N,0015,1","00750,1,C,N","015000,1,N,1","+0120,1","+0092,1","10159,1","12,0109,9,1",,,"8,1,06,1","8,1,06,1","02,1,+00780,1,09,1",,"06,99,1,05,1,09,1,00800,1,06,1,03,1",,,,"120,M,+0142,1","99999,9,10151,1","3,1,024,1,+999,9","80,1","SYN100AAXX  14184 08014 11565 61203 10120 20092 30151 40159 53024 60112 78088 85963 333 10142 82926 92437;",
"08014099999","2010-05-15T06:00:00","4","43.5666666","-5.7","6.0","GIJON MUSEL, SP","FM-12","99999","V020","190,1,N,0026,1","01200,1,9,N","008000,1,N,1","+0104,1","+0069,1","10197,1","12,0079,9,1","24,0191,9,1",,"8,1,06,1","8,1,06,1",,,"06,99,1,05,1,02,1,01250,1,06,1,02,1","0036,9","11,9","999,+0080,9","999,N,+0096,1","99999,9,10189,1","3,1,007,1,+999,9","80,1","SYN112AAXX  15064 08014 11658 61905 10104 20069 30189 40197 53007 60082 78088 85262 333 20096 32008 50264 55006 70191;",
"08014099999","2010-05-15T09:00:00","4","43.5666666","-5.7","6.0","GIJON MUSEL, SP","FM-12","99999","V020","170,1,N,0021,1","01200,1,9,N","020000,1,N,1","+0118,1","+0071,1","10214,1",,,,"8,1,03,1","2,1,03,1",,,"07,99,1,05,1,02,1,01250,1,07,1,01,1",,,,,"99999,9,10206,1","2,1,017,1,+999,9","80,1","SYN082AAXX  15094 08014 41670 71704 10118 20071 30206 40214 52017 78082 85271 333 92437;",
"08014099999","2010-05-15T12:00:00","4","43.5666666","-5.7","6.0","GIJON MUSEL, SP","FM-12","99999","V020","040,1,N,0021,1","03600,1,9,N","020000,1,N,1","+0142,1","+0082,1","10226,1","06,0020,9,1",,,"8,1,06,1","2,1,06,1","02,1,+00780,1,09,1",,"05,99,1,04,1,03,1,00800,1,06,1,02,1",,,,,"99999,9,10218,1","1,1,012,1,+999,9","02,1","SYN094AAXX  15124 08014 11570 50404 10142 20082 30218 40226 51012 60021 70282 84362 333 82926 92437;",
"08014099999","2010-05-15T15:00:00","4","43.5666666","-5.7","6.0","GIJON MUSEL, SP","FM-12","99999","V020","030,1,N,0051,1","00750,1,C,N","030000,1,N,1","+0124,1","+0075,1","10237,1",,,,"8,1,03,1","1,1,03,1","03,1,+00780,1,09,1",,"07,99,1,06,1,03,1,00800,1,06,1,02,1",,,,,"99999,9,10229,1","2,1,011,1,+999,9","25,1","SYN088AAXX  15154 08014 41580 70310 10124 20075 30229 40237 52011 72581 86362 333 83926 92447;",
"08014099999","2010-05-15T18:00:00","4","43.5666666","-5.7","6.0","GIJON MUSEL, SP","FM-12","99999","V020","040,1,N,0021,1","00750,1,9,N","020000,1,N,1","+0136,1","+0069,1","10238,1","12,0020,9,1",,,"8,1,06,1","1,1,06,1",,,"06,99,1,05,1,02,1,00800,1,06,1,00,1",,,,"120,M,+0156,1","99999,9,10230,1","1,1,001,1,+999,9","02,1","SYN094AAXX  15184 08014 11570 60404 10136 20069 30230 40238 51001 60022 70281 85260 333 10156 92447;",
"08014099999","2010-05-16T06:00:00","4","43.5666666","-5.7","6.0","GIJON MUSEL, SP","FM-12","99999","V020","210,1,N,0031,1","01200,1,9,N","020000,1,N,1","+0106,1","+0067,1","10253,1","12,0000,9,1","24,0018,9,1",,,,,,"07,99,1,07,1,05,1,01250,1,00,1,00,1","0258,9","09,9","999,+0090,9","999,N,+0104,1","99999,9,10245,1","3,1,006,1,+999,9",,"SYN106AAXX  16064 08014 12670 72106 10106 20067 30245 40253 53006 60002 87500 333 20104 31009 50334 55043 70017;","Q01  00002PRCP12"
"08014099999","2010-05-16T09:00:00","4","43.5666666","-5.7","6.0","GIJON MUSEL, SP","FM-12","99999","V020","220,1,N,0026,1","01200,1,9,N","020000,1,N,1","+0128,1","+0064,1","10260,1",,,,,,,,"07,99,1,07,1,05,1,01250,1,00,1,00,1",,,,,"99999,9,10252,1","1,1,007,1,+999,9",,"SYN076AAXX  16094 08014 42670 72205 10128 20064 30252 40260 51007 87500 333 92437;",
"08014099999","2010-05-16T12:00:00","4","43.5666666","-5.7","6.0","GIJON MUSEL, SP","FM-12","99999","V020","030,1,N,0026,1","03600,1,9,N","020000,1,N,1","+0142,1","+0077,1","10268,1","06,0000,9,1",,,,,,,"05,99,1,04,1,08,1,01250,1,03,1,01,1",,,,,"99999,9,10260,1","1,1,008,1,+999,9",,"SYN082AAXX  16124 08014 12670 50305 10142 20077 30260 40268 51008 60001 84831 333 92437;","Q01  00002PRCP06"
"08014099999","2010-05-16T15:00:00","4","43.5666666","-5.7","6.0","GIJON MUSEL, SP","FM-12","99999","V020","040,1,N,0031,1","22000,1,9,N","030000,1,N,1","+0150,1","+0087,1","10273,1",,,,,,,,"03,99,1,02,1,08,1,01250,1,06,1,00,1",,,,,"99999,9,10265,1","1,1,005,1,+999,9",,"SYN076AAXX  16154 08014 42680 30406 10150 20087 30265 40273 51005 82860 333 92438;",
"08014099999","2010-05-16T18:00:00","4","43.5666666","-5.7","6.0","GIJON MUSEL, SP","FM-12","99999","V020","040,1,N,0021,1","22000,1,9,N","030000,1,N,1","+0148,1","+0081,1","10273,1","12,0000,9,1",,,,,,,"03,99,1,02,1,04,1,01250,1,03,1,01,1",,,,"120,M,+0154,1","99999,9,10265,1","4,1,000,1,+999,9",,"SYN088AAXX  16184 08014 12680 30404 10148 20081 30265 40273 54000 60002 82431 333 10154 92438;","Q01  00002PRCP12"
"08014099999","2010-05-17T06:00:00","4","43.5666666","-5.7","6.0","GIJON MUSEL, SP","FM-12","99999","V020","210,1,N,0021,1","22000,1,9,N","010000,1,N,1","+0108,1","+0075,1","10286,1","12,0000,9,1","24,0000,9,1",,,,,,"01,99,1,01,1,00,1,02250,1,04,1,00,1","0378,9","09,9","999,+0070,9","999,N,+0094,1","99999,9,10278,1","3,1,006,1,+999,9",,"SYN106AAXX  17064 08014 12860 12104 10108 20075 30278 40286 53006 60002 81040 333 20094 31007 50394 55063 70000;","Q01  00002PRCP24Q02  00002PRCP12"
"08014099999","2010-05-17T09:00:00","4","43.5666666","-5.7","6.0","GIJON MUSEL, SP","FM-12","99999","V020","040,1,N,0021,1","22000,1,9,N","020000,1,N,1","+0146,1","+0090,1","10291,1",,,,,,,,"01,99,1,01,1,06,1,00450,1,00,1,00,1",,,,,"99999,9,10283,1","2,1,005,1,+999,9",,"SYN076AAXX  17094 08014 42470 10404 10146 20090 30283 40291 52005 81600 333 92427;",
"08014099999","2010-05-17T12:00:00","4","43.5666666","-5.7","6.0","GIJON MUSEL, SP","FM-12","99999","V020","060,1,N,0026,1","22000,1,9,N","030000,1,N,1","+0164,1","+0103,1","10291,1","06,0000,9,1",,,,,"00,1,+99999,9,99,9",,"00,99,1,00,1,00,1,99999,9,00,1,00,1",,,,,"99999,9,10283,1","4,1,000,1,+999,9",,"SYN076AAXX  17124 08014 12980 00605 10164 20103 30283 40291 54000 60001 333 92438;","Q01  00002PRCP06"
"08014099999","2010-05-17T15:00:00","4","43.5666666","-5.7","6.0","GIJON MUSEL, SP","FM-12","99999","V020","070,1,N,0026,1","22000,1,9,N","040000,1,N,1","+0170,1","+0101,1","10287,1",,,,,,"00,1,+99999,9,99,9",,"00,99,1,00,1,00,1,99999,9,00,1,00,1",,,,,"99999,9,10279,1","8,1,004,1,+999,9",,"SYN070AAXX  17154 08014 42982 00705 10170 20101 30279 40287 58004 333 92448;",
"08014099999","2010-05-17T18:00:00","4","43.5666666","-5.7","6.0","GIJON MUSEL, SP","FM-12","99999","V020","080,1,N,0031,1","22000,1,9,N","030000,1,N,1","+0162,1","+0114,1","10283,1","12,0000,9,1",,,,,,,"01,99,1,00,1,00,1,99999,9,00,1,01,1",,,,"120,M,+0174,1","99999,9,10275,1","6,1,004,1,+999,9",,"SYN088AAXX  17184 08014 12980 10806 10162 20114 30275 40283 56004 60002 80001 333 10174 92448;","Q01  00002PRCP12"
"08014099999","2010-05-18T06:00:00","4","43.5666666","-5.7","6.0","GIJON MUSEL, SP","FM-12","99999","V020","999,9,C,0000,1","22000,1,9,N","015000,1,N,1","+0120,1","+0101,1","10286,1","12,0000,9,1","24,0000,9,1",,,,,,"04,99,1,04,1,06,1,00800,1,00,1,00,1","0786,9","09,9","999,+0080,9","999,N,+0105,1","99999,9,10278,1","4,1,000,1,+999,9",,"SYN106AAXX  18064 08014 12565 40000 10120 20101 30278 40286 54000 60002 84600 333 20105 31008 50334 55131 70000;","Q01  00002PRCP24Q02  00002PRCP12"
"08014099999","2010-05-18T09:00:00","4","43.5666666","-5.7","6.0","GIJON MUSEL, SP","FM-12","99999","V020","070,1,N,0026,1","22000,1,9,N","008000,1,N,1","+0156,1","+0120,1","10292,1",,,,"1,1,03,1","1,1,03,1",,,"02,99,1,01,1,01,1,00800,1,06,1,01,1",,,,,"99999,9,10284,1","1,1,006,1,+999,9","05,1","SYN082AAXX  18094 08014 41558 20705 10156 20120 30284 40292 51006 70511 81161 333 92437;",
"08014099999","2010-05-18T12:00:00","4","43.5666666","-5.7","6.0","GIJON MUSEL, SP","FM-12","99999","V020","070,1,N,0031,1","22000,1,9,N","010000,1,N,1","+0170,1","+0127,1","10288,1","06,0000,9,1",,,,,,,"02,99,1,00,1,00,1,99999,9,00,1,08,1",,,,,"99999,9,10280,1","8,1,004,1,+999,9",,"SYN082AAXX  18124 08014 12960 20706 10170 20127 30280 40288 58004 60001 80008 333 92447;","Q01  00002PRCP06"
"08014099999","2010-05-18T15:00:00","4","43.5666666","-5.7","6.0","GIJON MUSEL, SP","FM-12","99999","V020","070,1,N,0031,1","22000,1,9,N","015000,1,N,1","+0170,1","+0127,1","10287,1",,,,,,,,"01,99,1,01,1,04,1,01250,1,00,1,01,1",,,,,"99999,9,10279,1","8,1,001,1,+999,9",,"SYN076AAXX  18154 08014 42665 10706 10170 20127 30279 40287 58001 81401 333 92447;",
"08014099999","2010-05-18T18:00:00","4","43.5666666","-5.7","6.0","GIJON MUSEL, SP","FM-12","99999","V020","070,1,N,0026,1","22000,1,9,N","020000,1,N,1","+0160,1","+0120,1","10285,1","12,0000,9,1",,,,,,,"02,99,1,00,1,00,1,99999,9,00,1,01,1",,,,"120,M,+0176,1","99999,9,10277,1","6,1,002,1,+999,9",,"SYN088AAXX  18184 08014 12970 20705 10160 20120 30277 40285 56002 60002 80001 333 10176 92447;","Q01  00002PRCP12"
"08014099999","2010-05-19T06:00:00","4","43.5666666","-5.7","6.0","GIJON MUSEL, SP","FM-12","99999","V020","110,1,N,0021,1","22000,1,9,N","030000,1,N,1","+0136,1","+0106,1","10295,1","12,0000,9,1","24,0000,9,1",,,,"00,1,+99999,9,99,9",,"00,99,1,00,1,00,1,99999,9,00,1,00,1","0738,9","01,9","999,+0110,9","999,N,+0127,1","99999,9,10287,1","3,1,005,1,+999,9","02,1","SYN106AAXX  19064 08014 11980 01104 10136 20106 30287 40295 53005 60002 702// 333 20127 30011 50304 55123 70000;","Q01  00002PRCP24Q02  00002PRCP12"
"08014099999","2010-05-19T09:00:00","4","43.5666666","-5.7","6.0","GIJON MUSEL, SP","FM-12","99999","V020","090,1,N,0041,1","22000,1,9,N","025000,1,N,1","+0162,1","+0109,1","10299,1",,,,,,"00,1,+99999,9,99,9",,"00,99,1,00,1,00,1,99999,9,00,1,00,1",,,,,"99999,9,10291,1","2,1,004,1,+999,9",,"SYN070AAXX  19094 08014 42975 00908 10162 20109 30291 40299 52004 333 92438;",
"08014099999","2010-05-19T12:00:00","4","43.5666666","-5.7","6.0","GIJON MUSEL, SP","FM-12","99999","V020","080,1,N,0026,1","22000,1,9,N","020000,1,N,1","+0172,1","+0121,1","10297,1","06,0000,9,1",,,,,"00,1,+99999,9,99,9",,"00,99,1,00,1,00,1,99999,9,00,1,00,1",,,,,"99999,9,10289,1","7,1,002,1,+999,9",,"SYN076AAXX  19124 08014 12970 00805 10172 20121 30289 40297 57002 60001 333 92438;","Q01  00002PRCP06"
"08014099999","2010-05-19T15:00:00","4","43.5666666","-5.7","6.0","GIJON MUSEL, SP","FM-12","99999","V020","070,1,N,0031,1","22000,1,9,N","020000,1,N,1","+0172,1","+0125,1","10295,1",,,,,,"00,1,+99999,9,99,9",,"00,99,1,00,1,00,1,99999,9,00,1,00,1",,,,,"99999,9,10287,1","7,1,002,1,+999,9",,"SYN070AAXX  19154 08014 42970 00706 10172 20125 30287 40295 57002 333 92438;",
"08014099999","2010-05-19T18:00:00","4","43.5666666","-5.7","6.0","GIJON MUSEL, SP","FM-12","99999","V020","070,1,N,0026,1","22000,1,9,N","020000,1,N,1","+0172,1","+0133,1","10287,1","12,0000,9,1",,,,,,,"01,99,1,00,1,00,1,99999,9,00,1,01,1",,,,"120,M,+0176,1","99999,9,10279,1","7,1,008,1,+999,9",,"SYN088AAXX  19184 08014 12670 10705 10172 20133 30279 40287 57008 60002 80001 333 10176 92438;","Q01+012502SCOLCBQ02  00002PRCP12"
"08014099999","2010-05-20T06:00:00","4","43.5666666","-5.7","6.0","GIJON MUSEL, SP","FM-12","99999","V020","080,1,N,0021,1","22000,1,9,N","015000,1,N,1","+0144,1","+0110,1","10283,1","12,0000,9,1","24,0000,9,1",,,,"00,1,+99999,9,99,9",,"00,99,1,00,1,00,1,99999,9,00,1,00,1","0786,9","01,9","999,+0120,9","999,N,+0140,1","99999,9,10275,1","6,1,001,1,+999,9","02,1","SYN106AAXX  20064 08014 11965 00804 10144 20110 30275 40283 56001 60002 702// 333 20140 30012 50314 55131 70000;","Q01  00002PRCP24Q02  00002PRCP12"
"08014099999","2010-05-20T12:00:00","4","43.5666666","-5.7","6.0","GIJON MUSEL, SP","FM-12","99999","V020","080,1,N,0026,1","22000,1,9,N","015000,1,N,1","+0180,1","+0133,1","10276,1","06,0000,9,1",,,,,"00,1,+99999,9,99,9",,"00,99,1,00,1,00,1,99999,9,00,1,00,1",,,,,"99999,9,10268,1","7,1,006,1,+999,9",,"SYN076AAXX  20124 08014 12965 00805 10180 20133 30268 40276 57006 60001 333 92438;","Q01  00002PRCP06"
"08014099999","2010-05-20T15:00:00","4","43.5666666","-5.7","6.0","GIJON MUSEL, SP","FM-12","99999","V020","080,1,N,0026,1","22000,1,9,N","020000,1,N,1","+0178,1","+0135,1","10260,1",,,,,,"00,1,+99999,9,99,9",,"00,99,1,00,1,00,1,99999,9,00,1,00,1",,,,,"99999,9,10252,1","7,1,016,1,+999,9",,"SYN070AAXX  20154 08014 42970 00805 10178 20135 30252 40260 57016 333 92438;",
"08014099999","2010-05-20T18:00:00","4","43.5666666","-5.7","6.0","GIJON MUSEL, SP","FM-12","99999","V020","090,1,N,0051,1","22000,1,9,N","020000,1,N,1","+0176,1","+0133,1","10252,1","12,0000,9,1",,,,,,,"01,99,1,00,1,00,1,99999,9,00,1,01,1",,,,"120,M,+0190,1","99999,9,10244,1","7,1,008,1,+999,9",,"SYN088AAXX  20184 08014 12670 10910 10176 20133 30244 40252 57008 60002 80001 333 10190 92438;","Q01+012502SCOLCBQ02  00002PRCP12"
"08014099999","2010-05-21T06:00:00","4","43.5666666","-5.7","6.0","GIJON MUSEL, SP","FM-12","99999","V020","999,9,C,0000,1","22000,1,9,N","013000,1,N,1","+0172,1","+0141,1","10228,1","12,0000,9,1","24,0000,9,1",,,,"00,1,+99999,9,99,9",,"00,99,1,00,1,00,1,99999,9,00,1,00,1","0792,9","01,9","999,+0100,9","999,N,+0117,1","99999,9,10220,1","6,1,001,1,+999,9","02,1","SYN106AAXX  21064 08014 11963 00000 10172 20141 30220 40228 56001 60002 702// 333 20117 30010 50344 55132 70000;","Q01  00002PRCP24Q02  00002PRCP12"
"08014099999","2010-05-21T09:00:00","4","43.5666666","-5.7","6.0","GIJON MUSEL, SP","FM-12","99999","V020","080,1,N,0026,1","22000,1,9,N","015000,1,N,1","+0172,1","+0125,1","10224,1",,,,,,"00,1,+99999,9,99,9",,"00,99,1,00,1,00,1,99999,9,00,1,00,1",,,,,"99999,9,10216,1","7,1,004,1,+999,9",,"SYN070AAXX  21094 08014 42965 00805 10172 20125 30216 40224 57004 333 92438;",
"08014099999","2010-05-21T12:00:00","4","43.5666666","-5.7","6.0","GIJON MUSEL, SP","FM-12","99999","V020","070,1,N,0031,1","22000,1,9,N","020000,1,N,1","+0180,1","+0141,1","10216,1","06,0000,9,1",,,,,"00,1,+99999,9,99,9",,"00,99,1,00,1,00,1,99999,9,00,1,00,1",,,,,"99999,9,10208,1","7,1,008,1,+999,9",,"SYN076AAXX  21124 08014 12970 00706 10180 20141 30208 40216 57008 60001 333 92438;","Q01  00002PRCP06"
"08014099999","2010-05-21T15:00:00","4","43.5666666","-5.7","6.0","GIJON MUSEL, SP","FM-12","99999","V020","070,1,N,0031,1","22000,1,9,N","020000,1,N,1","+0182,1","+0143,1","10202,1",,,,,,"00,1,+99999,9,99,9",,"00,99,1,00,1,00,1,99999,9,00,1,00,1",,,,,"99999,9,10194,1","7,1,014,1,+999,9",,"SYN070AAXX  21154 08014 42970 00706 10182 20143 30194 40202 57014 333 92438;",
"08014099999","2010-05-21T18:00:00","4","43.5666666","-5.7","6.0","GIJON MUSEL, SP","FM-12","99999","V020","070,1,N,0041,1","22000,1,9,N","030000,1,N,1","+0176,1","+0137,1","10195,1","12,0000,9,1",,,,,"00,1,+99999,9,99,9",,"00,99,1,00,1,00,1,99999,9,00,1,00,1",,,,"120,M,+0184,1","99999,9,10187,1","7,1,007,1,+999,9",,"SYN082AAXX  21184 08014 12980 00708 10176 20137 30187 40195 57007 60002 333 10184 92438;","Q01  00002PRCP12"
"08014099999","2010-05-22T06:00:00","4","43.5666666","-5.7","6.0","GIJON MUSEL, SP","FM-12","99999","V020","999,9,C,0000,1","22000,1,9,N","015000,1,N,1","+0140,1","+0113,1","10171,1","12,0000,9,1","24,0000,9,1",,,,,,"01,99,1,00,1,00,1,99999,9,00,1,01,1","0780,9","01,9","999,+0100,9","999,N,+0130,1","99999,9,10163,1","6,1,006,1,+999,9",,"SYN106AAXX  22064 08014 12965 10000 10140 20113 30163 40171 56006 60002 80001 333 20130 30010 50334 55130 70000;","Q01  00002PRCP24Q02  00002PRCP12"
"08014099999","2010-05-22T09:00:00","4","43.5666666","-5.7","6.0","GIJON MUSEL, SP","FM-12","99999","V020","050,1,N,0021,1","22000,1,9,N","015000,1,N,1","+0174,1","+0127,1","10174,1",,,,,,,,"01,99,1,00,1,00,1,99999,9,00,1,01,1",,,,,"99999,9,10166,1","3,1,003,1,+999,9",,"SYN076AAXX  22094 08014 42965 10504 10174 20127 30166 40174 53003 80001 333 92437;",
"08014099999","2010-05-22T12:00:00","4","43.5666666","-5.7","6.0","GIJON MUSEL, SP","FM-12","99999","V020","060,1,N,0036,1","22000,1,9,N","020000,1,N,1","+0182,1","+0151,1","10163,1","06,0000,9,1",,,,,"00,1,+99999,9,99,9",,"00,99,1,00,1,00,1,99999,9,00,1,00,1",,,,,"99999,9,10155,1","8,1,011,1,+999,9",,"SYN076AAXX  22124 08014 12970 00607 10182 20151 30155 40163 58011 60001 333 92437;","Q01  00002PRCP06"
"08014099999","2010-05-22T15:00:00","4","43.5666666","-5.7","6.0","GIJON MUSEL, SP","FM-12","99999","V020","070,1,N,0031,1","22000,1,9,N","020000,1,N,1","+0190,1","+0153,1","10158,1",,,,,,"00,1,+99999,9,99,9",,"00,99,1,00,1,00,1,99999,9,00,1,00,1",,,,,"99999,9,10150,1","8,1,005,1,+999,9",,"SYN070AAXX  22154 08014 42970 00706 10190 20153 30150 40158 58005 333 92447;",
"08014099999","2010-05-22T18:00:00","4","43.5666666","-5.7","6.0","GIJON MUSEL, SP","FM-12","99999","V020","070,1,N,0031,1","22000,1,9,N","015000,1,N,1","+0180,1","+0145,1","10157,1","12,0000,9,1",,,,,,,"01,99,1,01,1,01,1,01250,1,00,1,01,1",,,,"120,M,+0194,1","99999,9,10149,1","6,1,001,1,+999,9",,"SYN088AAXX  22184 08014 12665 10706 10180 20145 30149 40157 56001 60002 81101 333 10194 92447;","Q01  00002PRCP12"
"08014099999","2010-05-23T06:00:00","4","43.5666666","-5.7","6.0","GIJON MUSEL, SP","FM-12","99999","V020","200,1,N,0010,1","22000,1,9,N","008000,1,N,1","+0126,1","+0107,1","10140,1","12,0000,9,1","24,0000,9,1",,"0,1,06,1","0,1,06,1",,,"01,99,1,00,1,00,1,99999,9,00,1,01,1","0792,9","09,9","999,+0110,9","999,N,+0122,1","99999,9,10132,1","6,1,005,1,+999,9","10,1","SYN112AAXX  23064 08014 11958 12002 10126 20107 30132 40140 56005 60002 71000 80001 333 20122 31011 50264 55132 70000;","Q01  00002PRCP24Q02  00002PRCP12"
"08014099999","2010-05-23T09:00:00","4","43.5666666","-5.7","6.0","GIJON MUSEL, SP","FM-12","99999","V020","080,1,N,0015,1","22000,1,9,N","008000,1,N,1","+0174,1","+0143,1","10143,1",,,,"0,1,03,1","0,1,03,1","00,1,+99999,9,99,9",,"00,99,1,00,1,00,1,99999,9,00,1,00,1",,,,,"99999,9,10135,1","3,1,003,1,+999,9","10,1","SYN076AAXX  23094 08014 41958 00803 10174 20143 30135 40143 53003 71000 333 92437;",
"08014099999","2010-05-23T12:00:00","4","43.5666666","-5.7","6.0","GIJON MUSEL, SP","FM-12","99999","V020","040,1,N,0031,1","22000,1,9,N","015000,1,N,1","+0185,1","+0148,1","10140,1","06,0000,9,1",,,,,"00,1,+99999,9,99,9",,"00,99,1,00,1,00,1,99999,9,00,1,00,1",,,,,"99999,9,10132,1","6,1,003,1,+999,9",,"SYN076AAXX  23124 08014 12965 00406 10185 20148 30132 40140 56003 60001 333 92437;","Q01  00002PRCP06"
"08014099999","2010-05-23T15:00:00","4","43.5666666","-5.7","6.0","GIJON MUSEL, SP","FM-12","99999","V020","060,1,N,0031,1","22000,1,9,N","020000,1,N,1","+0184,1","+0147,1","10129,1",,,,,,,,"01,99,1,01,1,02,1,01250,1,00,1,00,1",,,,,"99999,9,10121,1","8,1,011,1,+999,9",,"SYN076AAXX  23154 08014 42670 10606 10184 20147 30121 40129 58011 81200 333 92447;",
"08014099999","2010-05-23T18:00:00","4","43.5666666","-5.7","6.0","GIJON MUSEL, SP","FM-12","99999","V020","060,1,N,0036,1","22000,1,9,N","015000,1,N,1","+0184,1","+0147,1","10118,1","12,0000,9,1",,,,,,,"01,99,1,01,1,02,1,01250,1,06,1,00,1",,,,"120,M,+0197,1","99999,9,10110,1","7,1,011,1,+999,9",,"SYN088AAXX  23184 08014 12665 10607 10184 20147 30110 40118 57011 60002 81260 333 10197 92447;","Q01  00002PRCP12"
"08014099999","2010-05-24T06:00:00","4","43.5666666","-5.7","6.0","GIJON MUSEL, SP","FM-12","99999","V020","200,1,N,0021,1","22000,1,9,N","010000,1,N,1","+0158,1","+0129,1","10113,1","12,0000,9,1","24,0000,9,1",,,,,,"03,99,1,03,1,01,1,01250,1,06,1,00,1","0780,9","01,9","999,+0140,9","999,N,+0148,1","99999,9,10105,1","3,1,007,1,+999,9",,"SYN106AAXX  24064 08014 12660 32004 10158 20129 30105 40113 53007 60002 83160 333 20148 30014 50304 55130 70000;","Q01  00002PRCP24Q02  00002PRCP12"
"08014099999","2010-05-24T09:00:00","4","43.5666666","-5.7","6.0","GIJON MUSEL, SP","FM-12","99999","V020","260,1,N,0010,1","22000,1,9,N","015000,1,N,1","+0206,1","+0138,1","10124,1",,,,,,,,"02,99,1,01,1,01,1,01250,1,06,1,00,1",,,,,"99999,9,10117,1","1,1,012,1,+999,9",,"SYN076AAXX  24094 08014 42665 22602 10206 20138 30117 40124 51012 81160 333 92437;",
"08014099999","2010-05-24T12:00:00","4","43.5666666","-5.7","6.0","GIJON MUSEL, SP","FM-12","99999","V020","040,1,N,0026,1","22000,1,9,N","008000,1,N,1","+0206,1","+0140,1","10127,1","06,0000,9,1",,,"0,1,06,1","0,1,06,1",,,"02,99,1,01,1,01,1,01250,1,04,1,00,1",,,,,"99999,9,10120,1","1,1,003,1,+999,9","05,1","SYN088AAXX  24124 08014 11658 20405 10206 20140 30120 40127 51003 60001 70500 81140 333 92436;","Q01  00002PRCP06"
"08014099999","2010-05-24T15:00:00","4","43.5666666","-5.7","6.0","GIJON MUSEL, SP","FM-12","99999","V020","050,1,N,0021,1","22000,1,9,N","010000,1,N,1","+0202,1","+0143,1","10127,1",,,,,,,,"02,99,1,01,1,02,1,01250,1,06,1,01,1",,,,,"99999,9,10120,1","4,1,000,1,+999,9",,"SYN076AAXX  24154 08014 42660 20504 10202 20143 30120 40127 54000 81261 333 92437;",
"08014099999","2010-05-24T18:00:00","4","43.5666666","-5.7","6.0","GIJON MUSEL, SP","FM-12","99999","V020","060,1,N,0021,1","22000,1,9,N","008000,1,N,1","+0198,1","+0140,1","10131,1","12,0000,9,1",,,"0,1,06,1","0,1,06,1",,,"02,99,1,01,1,02,1,01250,1,04,1,01,1",,,,"120,M,+0218,1","99999,9,10123,1","3,1,003,1,+999,9","05,1","SYN094AAXX  24184 08014 11658 20604 10198 20140 30123 40131 53003 60002 70500 81241 333 10218 92436;","Q01  00002PRCP12"
"08014099999","2010-05-25T06:00:00","4","43.5666666","-5.7","6.0","GIJON MUSEL, SP","FM-12","99999","V020","110,1,N,0010,1","22000,1,9,N","008000,1,N,1","+0152,1","+0127,1","10097,1","12,0010,9,1","24,0010,9,1",,"1,1,06,1","1,1,06,1",,,"02,99,1,01,1,02,1,01250,1,04,1,00,1","0702,9","09,9","999,+0120,9","999,N,+0140,1","99999,9,10089,1","6,1,008,1,+999,9","10,1","SYN112AAXX  25064 08014 11658 21102 10152 20127 30089 40097 56008 60012 71011 81240 333 20140 31012 50464 55117 70011;",
"08014099999","2010-05-25T09:00:00","4","43.5666666","-5.7","6.0","GIJON MUSEL, SP","FM-12","99999","V020","100,1,N,0015,1","22000,1,9,N","010000,1,N,1","+0198,1","+0135,1","10097,1",,,,,,,,"02,99,1,02,1,08,1,01250,1,06,1,00,1",,,,,"99999,9,10090,1","0,1,001,1,+999,9",,"SYN076AAXX  25094 08014 42660 21003 10198 20135 30090 40097 50001 82860 333 92427;",
"08014099999","2010-05-25T12:00:00","4","43.5666666","-5.7","6.0","GIJON MUSEL, SP","FM-12","99999","V020","040,1,N,0015,1","01200,1,9,N","008000,1,N,1","+0180,1","+0137,1","10108,1","06,0000,9,1",,,"1,1,06,1","1,1,06,1",,,"07,99,1,06,1,02,1,01250,1,06,1,01,1",,,,,"99999,9,10100,1","3,1,010,1,+999,9","05,1","SYN088AAXX  25124 08014 11658 70403 10180 20137 30100 40108 53010 60001 70511 86261 333 92436;","Q01  00002PRCP06"
"08014099999","2010-05-25T15:00:00","4","43.5666666","-5.7","6.0","GIJON MUSEL, SP","FM-12","99999","V020","070,1,N,0021,1","00750,1,C,N","008000,1,N,1","+0178,1","+0151,1","10112,1",,,,"2,1,03,1","2,1,03,1","04,1,+00780,1,09,1",,"07,99,1,06,1,09,1,00800,1,06,1,03,1",,,,,"99999,9,10104,1","1,1,004,1,+999,9","16,1","SYN088AAXX  25154 08014 41558 70704 10178 20151 30104 40112 51004 71622 86963 333 84926 92436;",
"08014099999","2010-05-25T18:00:00","4","43.5666666","-5.7","6.0","GIJON MUSEL, SP","FM-12","99999","V020","030,1,N,0021,1","00750,1,C,N","010000,1,N,1","+0172,1","+0152,1","10112,1","12,0005,9,1",,,"8,1,06,1","2,1,06,1","04,1,+00780,1,09,1",,"07,99,1,06,1,03,1,00800,1,06,1,02,1",,,,"120,M,+0204,1","99999,9,10104,1","5,1,000,1,+999,9","02,1","SYN100AAXX  25184 08014 11560 70304 10172 20152 30104 40112 55000 69962 70282 86362 333 10204 84926 92437;",
"08014099999","2010-05-26T06:00:00","4","43.5666666","-5.7","6.0","GIJON MUSEL, SP","FM-12","99999","V020","280,1,N,0005,1","03600,1,9,N","010000,1,N,1","+0156,1","+0134,1","10112,1","12,0005,9,1","24,0015,9,1",,,,,,"06,99,1,04,1,08,1,00800,1,06,1,00,1","0450,9","11,9","999,+0140,9","999,N,+0155,1","99999,9,10104,1","4,1,000,1,+999,9","02,1","SYN112AAXX  26064 08014 11560 62801 10156 20134 30104 40112 54000 69962 702// 84860 333 20155 32014 50194 55075 70016;",
"08014099999","2010-05-26T09:00:00","4","43.5666666","-5.7","6.0","GIJON MUSEL, SP","FM-12","99999","V020","220,1,N,0031,1","01200,1,9,N","010000,1,N,1","+0163,1","+0121,1","10122,1",,,,"6,1,03,1","2,1,03,1",,,"08,99,1,05,1,07,1,01250,1,07,1,99,9",,,,,"99999,9,10114,1","2,1,010,1,+999,9","60,1","SYN082AAXX  26094 08014 41660 82206 10163 20121 30114 40122 52010 76062 8577/ 333 92426;",
"08014099999","2010-05-26T12:00:00","4","43.5666666","-5.7","6.0","GIJON MUSEL, SP","FM-12","99999","V020","040,1,N,0015,1","03600,1,9,N","015000,1,N,1","+0186,1","+0128,1","10126,1","06,0010,9,1",,,"6,1,06,1","2,1,06,1",,,"06,99,1,04,1,02,1,00800,1,06,1,00,1",,,,,"99999,9,10118,1","2,1,004,1,+999,9","02,1","SYN088AAXX  26124 08014 11565 60403 10186 20128 30118 40126 52004 69991 70262 84260 333 92427;",
"08014099999","2010-05-26T15:00:00","4","43.5666666","-5.7","6.0","GIJON MUSEL, SP","FM-12","99999","V020","320,1,N,0021,1","03600,1,9,N","015000,1,N,1","+0166,1","+0128,1","10129,1",,,,"2,1,03,1","2,1,03,1",,,"07,99,1,04,1,07,1,00800,1,07,1,00,1",,,,,"99999,9,10121,1","2,1,003,1,+999,9","60,1","SYN082AAXX  26154 08014 41565 73204 10166 20128 30121 40129 52003 76022 84770 333 92427;",
"08014099999","2010-05-26T18:00:00","4","43.5666666","-5.7","6.0","GIJON MUSEL, SP","FM-12","99999","V020","999,9,C,0000,1","00750,1,9,N","015000,1,N,1","+0163,1","+0132,1","10133,1","12,0010,9,1",,,"6,1,06,1","2,1,06,1",,,"08,99,1,05,1,07,1,00800,1,07,1,99,9",,,,"120,M,+0198,1","99999,9,10125,1","2,1,004,1,+999,9","02,1","SYN094AAXX  26184 08014 11565 80000 10163 20132 30125 40133 52004 69992 70262 8577/ 333 10198 92427;",
"08014099999","2010-05-27T06:00:00","4","43.5666666","-5.7","6.0","GIJON MUSEL, SP","FM-12","99999","V020","230,1,N,0010,1","01200,1,9,N","012000,1,N,1","+0155,1","+0123,1","10133,1","12,0000,9,1","24,0010,9,1",,,,,,"08,99,1,05,1,08,1,00800,1,07,1,99,9","0132,9","01,9","999,+0140,9","999,N,+0152,1","99999,9,10125,1","7,1,005,1,+999,9","02,1","SYN112AAXX  27064 08014 11562 82302 10155 20123 30125 40133 57005 60002 702// 8587/ 333 20152 30014 50254 55022 70009;","Q01  00002PRCP12"
"08014099999","2010-05-27T09:00:00","4","43.5666666","-5.7","6.0","GIJON MUSEL, SP","FM-12","99999","V020","040,1,N,0010,1","01200,1,9,N","012000,1,N,1","+0161,1","+0130,1","10140,1",,,,,,,,"08,99,1,05,1,08,1,00800,1,07,1,99,9",,,,,"99999,9,10132,1","3,1,007,1,+999,9",,"SYN076AAXX  27094 08014 42562 80402 10161 20130 30132 40140 53007 8587/ 333 92427;",
"08014099999","2010-05-27T12:00:00","4","43.5666666","-5.7","6.0","GIJON MUSEL, SP","FM-12","99999","V020","040,1,N,0031,1","03600,1,9,N","015000,1,N,1","+0168,1","+0123,1","10141,1","06,0000,9,1",,,,,,,"06,99,1,04,1,08,1,00800,1,03,1,01,1",,,,,"99999,9,10133,1","2,1,001,1,+999,9",,"SYN082AAXX  27124 08014 12565 60406 10168 20123 30133 40141 52001 60001 84831 333 92427;","Q01  00002PRCP06"
"08014099999","2010-05-27T15:00:00","4","43.5666666","-5.7","6.0","GIJON MUSEL, SP","FM-12","99999","V020","040,1,N,0026,1","01200,1,9,N","015000,1,N,1","+0168,1","+0129,1","10148,1",,,,,,,,"08,99,1,05,1,08,1,00800,1,07,1,99,9",,,,,"99999,9,10140,1","2,1,007,1,+999,9",,"SYN076AAXX  27154 08014 42565 80405 10168 20129 30140 40148 52007 8587/ 333 92437;",
"08014099999","2010-05-27T18:00:00","4","43.5666666","-5.7","6.0","GIJON MUSEL, SP","FM-12","99999","V020","030,1,N,0021,1","01200,1,9,N","020000,1,N,1","+0155,1","+0128,1","10148,1","12,0000,9,1",,,,,,,"08,99,1,05,1,08,1,00800,1,07,1,99,9",,,,"120,M,+0175,1","99999,9,10140,1","4,1,000,1,+999,9",,"SYN088AAXX  27184 08014 12570 80304 10155 20128 30140 40148 54000 60002 8587/ 333 10175 92437;","Q01  00002PRCP12"
"08014099999","2010-05-28T06:00:00","4","43.5666666","-5.7","6.0","GIJON MUSEL, SP","FM-12","99999","V020","999,9,C,0000,1","03600,1,9,N","012000,1,N,1","+0144,1","+0098,1","10183,1","12,0000,9,1","24,0000,9,1",,,,,,"06,99,1,04,1,08,1,00800,1,07,1,00,1","0012,9","01,9","999,+0140,9","999,N,+0144,1","99999,9,10175,1","2,1,009,1,+999,9","02,1","SYN112AAXX  28064 08014 11562 60000 10144 20098 30175 40183 52009 60002 702// 84870 333 20144 30014 50284 55002 70000;","Q01  00002PRCP24Q02  00002PRCP12"
"08014099999","2010-05-28T09:00:00","4","43.5666666","-5.7","6.0","GIJON MUSEL, SP","FM-12","99999","V020","999,9,C,0000,1","03600,1,9,N","015000,1,N,1","+0160,1","+0097,1","10192,1",,,,,,,,"06,99,1,04,1,02,1,00800,1,06,1,00,1",,,,,"99999,9,10184,1","2,1,009,1,+999,9",,"SYN076AAXX  28094 08014 42565 60000 10160 20097 30184 40192 52009 84260 333 92437;",
"08014099999","2010-05-28T12:00:00","4","43.5666666","-5.7","6.0","GIJON MUSEL, SP","FM-12","99999","V020","230,1,N,0026,1","22000,1,9,N","020000,1,N,1","+0168,1","+0095,1","10193,1","06,0000,9,1",,,,,,,"04,99,1,03,1,01,1,00800,1,03,1,00,1",,,,,"99999,9,10185,1","2,1,001,1,+999,9",,"SYN082AAXX  28124 08014 12570 42305 10168 20095 30185 40193 52001 60001 83130 333 92437;","Q01  00002PRCP06"
"08014099999","2010-05-28T15:00:00","4","43.5666666","-5.7","6.0","GIJON MUSEL, SP","FM-12","99999","V020","090,1,N,0021,1","22000,1,9,N","025000,1,N,1","+0180,1","+0104,1","10196,1",,,,,,"00,1,+99999,9,99,9",,"00,99,1,00,1,00,1,99999,9,00,1,00,1",,,,,"99999,9,10188,1","2,1,003,1,+999,9",,"SYN070AAXX  28154 08014 42975 00904 10180 20104 30188 40196 52003 333 92437;",
"08014099999","2010-05-28T18:00:00","4","43.5666666","-5.7","6.0","GIJON MUSEL, SP","FM-12","99999","V020","210,1,N,0010,1","01200,1,9,N","030000,1,N,1","+0169,1","+0103,1","10202,1","12,0000,9,1",,,,,,,"07,99,1,05,1,08,1,00800,1,03,1,00,1",,,,"120,M,+0185,1","99999,9,10194,1","2,1,006,1,+999,9",,"SYN088AAXX  28184 08014 12580 72102 10169 20103 30194 40202 52006 60002 85830 333 10185 92438;","Q01  00002PRCP12"
"08014099999","2010-05-29T06:00:00","4","43.5666666","-5.7","6.0","GIJON MUSEL, SP","FM-12","99999","V020","230,1,N,0031,1","01500,1,9,N","015000,1,N,1","+0150,1","+0096,1","10202,1","12,0000,9,1","24,0000,9,1",,,,,,"08,99,1,07,1,08,1,01250,1,01,1,99,9","0636,9","01,9","999,+0120,9","999,N,+0140,1","99999,9,10194,1","2,1,005,1,+999,9","02,1","SYN112AAXX  29064 08014 11665 82306 10150 20096 30194 40202 52005 60002 702// 8781/ 333 20140 30012 50434 55106 70000;","Q01  00002PRCP24Q02  00002PRCP12"
"08014099999","2010-05-29T09:00:00","4","43.5666666","-5.7","6.0","GIJON MUSEL, SP","FM-12","99999","V020","180,1,N,0021,1","03600,1,9,N","015000,1,N,1","+0190,1","+0103,1","10216,1",,,,,,,,"06,99,1,04,1,08,1,01250,1,03,1,09,1",,,,,"99999,9,10208,1","2,1,014,1,+999,9",,"SYN076AAXX  29094 08014 42665 61804 10190 20103 30208 40216 52014 84839 333 92437;",
"08014099999","2010-05-29T12:00:00","4","43.5666666","-5.7","6.0","GIJON MUSEL, SP","FM-12","99999","V020","310,1,N,0010,1","22000,1,9,N","020000,1,N,1","+0221,1","+0118,1","10216,1","06,0000,9,1",,,,,,,"02,99,1,01,1,01,1,00800,1,03,1,01,1",,,,,"99999,9,10208,1","4,1,000,1,+999,9",,"SYN082AAXX  29124 08014 12570 23102 10221 20118 30208 40216 54000 60001 81131 333 92437;","Q01  00002PRCP06"
"08014099999","2010-05-29T15:00:00","4","43.5666666","-5.7","6.0","GIJON MUSEL, SP","FM-12","99999","V020","030,1,N,0046,1","22000,1,9,N","020000,1,N,1","+0196,1","+0138,1","10227,1",,,,,,,,"03,99,1,02,1,01,1,01250,1,03,1,00,1",,,,,"99999,9,10219,1","3,1,011,1,+999,9",,"SYN076AAXX  29154 08014 42670 30309 10196 20138 30219 40227 53011 82130 333 92437;",
"08014099999","2010-05-30T06:00:00","4","43.5666666","-5.7","6.0","GIJON MUSEL, SP","FM-12","99999","V020","200,1,N,0005,1","01200,1,9,N","020000,1,N,1","+0178,1","+0135,1","10245,1","12,0000,9,1","24,0000,9,1",,,,,,"08,99,1,06,1,08,1,00800,1,05,1,99,9","0492,9","01,9","999,+0150,9","999,N,+0158,1","99999,9,10237,1","3,1,005,1,+999,9","02,1","SYN112AAXX  30064 08014 11570 82001 10178 20135 30237 40245 53005 60002 702// 8685/ 333 20158 30015 50414 55082 70000;","Q01  00002PRCP24Q02  00002PRCP12"
"08014099999","2010-05-30T09:00:00","4","43.5666666","-5.7","6.0","GIJON MUSEL, SP","FM-12","99999","V020","090,1,N,0010,1","22000,1,9,N","015000,1,N,1","+0216,1","+0147,1","10251,1",,,,,,,,"04,99,1,01,1,04,1,00800,1,03,1,01,1",,,,,"99999,9,10243,1","2,1,006,1,+999,9",,"SYN076AAXX  30094 08014 42565 40902 10216 20147 30243 40251 52006 81431 333 92428;",
"08014099999","2010-05-30T12:00:00","4","43.5666666","-5.7","6.0","GIJON MUSEL, SP","FM-12","99999","V020","040,1,N,0046,1","22000,1,9,N","020000,1,N,1","+0212,1","+0148,1","10258,1","06,0000,9,1",,,,,,,"04,99,1,03,1,08,1,00800,1,03,1,00,1",,,,,"99999,9,10250,1","2,1,007,1,+999,9",,"SYN082AAXX  30124 08014 12570 40409 10212 20148 30250 40258 52007 60001 83830 333 92428;","Q01  00002PRCP06"
"08014099999","2010-05-30T15:00:00","4","43.5666666","-5.7","6.0","GIJON MUSEL, SP","FM-12","99999","V020","050,1,N,0036,1","00750,1,9,N","020000,1,N,1","+0194,1","+0149,1","10258,1",,,,,,,,"07,99,1,05,1,02,1,00800,1,05,1,99,9",,,,,"99999,9,10250,1","4,1,000,1,+999,9",,"SYN076AAXX  30154 08014 42570 70507 10194 20149 30250 40258 54000 8525/ 333 92438;",
"08014099999","2010-05-30T18:00:00","4","43.5666666","-5.7","6.0","GIJON MUSEL, SP","FM-12","99999","V020","030,1,N,0041,1","01200,1,9,N","025000,1,N,1","+0192,1","+0159,1","10268,1","12,0000,9,1",,,,,,,"08,99,1,06,1,08,1,00800,1,05,1,99,9",,,,"120,M,+0220,1","99999,9,10260,1","2,1,010,1,+999,9",,"SYN088AAXX  30184 08014 12575 80308 10192 20159 30260 40268 52010 60002 8685/ 333 10220 92428;","Q01  00002PRCP12"
"08014099999","2010-05-31T06:00:00","4","43.5666666","-5.7","6.0","GIJON MUSEL, SP","FM-12","99999","V020","999,9,C,0000,1","03600,1,9,N","004000,1,N,1","+0168,1","+0162,1","10245,1","12,0000,9,1","24,0000,9,1",,,,,,"08,99,1,04,1,06,1,00450,1,05,1,99,9","0348,9","09,9","999,+0150,9","999,N,+0160,1","99999,9,10237,1","8,1,001,1,+999,9","10,1","SYN112AAXX  31064 08014 11440 80000 10168 20162 30237 40245 58001 60002 710// 8465/ 333 20160 31015 50314 55058 70000;","Q01  00002PRCP24Q02  00002PRCP12"
"08014099999","2010-05-31T09:00:00","4","43.5666666","-5.7","6.0","GIJON MUSEL, SP","FM-12","99999","V020","999,9,C,0000,1","00420,1,9,N","006000,1,N,1","+0178,1","+0165,1","10250,1",,,,"4,1,03,1","2,1,03,1",,,"08,99,1,05,1,06,1,00450,1,05,1,99,9",,,,,"99999,9,10242,1","2,1,005,1,+999,9","10,1","SYN082AAXX  31094 08014 41456 80000 10178 20165 30242 40250 52005 71042 8565/ 333 92427;",
"08014099999","2010-05-31T12:00:00","4","43.5666666","-5.7","6.0","GIJON MUSEL, SP","FM-12","99999","V020","020,1,N,0015,1","00420,1,9,N","005000,1,N,1","+0182,1","+0158,1","10245,1","06,0000,9,1",,,"4,1,06,1","2,1,06,1",,,"08,99,1,05,1,06,1,00450,1,05,1,99,9",,,,,"99999,9,10237,1","7,1,005,1,+999,9","10,1","SYN088AAXX  31124 08014 11450 80203 10182 20158 30237 40245 57005 60001 71042 8565/ 333 92427;","Q01  00002PRCP06"
"08014099999","2010-05-31T15:00:00","4","43.5666666","-5.7","6.0","GIJON MUSEL, SP","FM-12","99999","V020","030,1,N,0026,1","03600,1,9,N","020000,1,N,1","+0190,1","+0160,1","10237,1",,,,,,,,"07,99,1,03,1,04,1,00800,1,05,1,99,9",,,,,"99999,9,10229,1","7,1,008,1,+999,9",,"SYN076AAXX  31154 08014 42570 70305 10190 20160 30229 40237 57008 8345/ 333 92427;",
"08014099999","2010-05-31T18:00:00","4","43.5666666","-5.7","6.0","GIJON MUSEL, SP","FM-12","99999","V020","040,1,N,0015,1","00900,1,9,N","010000,1,N,1","+0176,1","+0163,1","10235,1","12,0000,9,1",,,"4,1,06,1","2,1,06,1",,,"08,99,1,06,1,08,1,00450,1,05,1,99,9",,,,"120,M,+0198,1","99999,9,10227,1","7,1,002,1,+999,9","02,1","SYN094AAXX  31184 08014 11460 80403 10176 20163 30227 40235 57002 60002 70242 8685/ 333 10198 92427;","Q01  00002PRCP12"
"08014099999","2010-06-01T06:00:00","4","43.5666666","-5.7","6.0","GIJON MUSEL, SP","FM-12","99999","V020","060,1,N,0010,1","00420,1,9,N","001500,1,N,1","+0168,1","+0158,1","10192,1","12,0000,9,1","24,0000,9,1",,,,,,"08,99,1,05,1,06,1,00450,1,05,1,99,9","0096,9","09,9","999,+0160,9","999,N,+0162,1","99999,9,10184,1","3,1,002,1,+999,9","10,1","SYN112AAXX  01064 08014 11415 80602 10168 20158 30184 40192 53002 60002 710// 8565/ 333 20162 31016 50114 55016 70000;","Q01  00002PRCP24Q02  00002PRCP12"
"08014099999","2010-06-01T09:00:00","4","43.5666666","-5.7","6.0","GIJON MUSEL, SP","FM-12","99999","V020","050,1,N,0015,1","00420,1,9,N","001000,1,N,1","+0174,1","+0157,1","10200,1",,,,"4,1,03,1","2,1,03,1",,,"08,99,1,06,1,06,1,00450,1,05,1,99,9",,,,,"99999,9,10192,1","2,1,008,1,+999,9","10,1","SYN082AAXX  01094 08014 41410 80503 10174 20157 30192 40200 52008 71042 8665/ 333 92427;",
"08014099999","2010-06-01T12:00:00","4","43.5666666","-5.7","6.0","GIJON MUSEL, SP","FM-12","99999","V020","030,1,N,0021,1","00420,1,9,N","003000,1,N,1","+0182,1","+0162,1","10199,1","06,0000,9,1",,,"4,1,06,1","2,1,06,1",,,"08,99,1,05,1,06,1,00450,1,05,1,99,9",,,,,"99999,9,10191,1","7,1,001,1,+999,9","10,1","SYN088AAXX  01124 08014 11430 80304 10182 20162 30191 40199 57001 60001 71042 8565/ 333 92427;","Q01  00002PRCP06"
"08014099999","2010-06-01T15:00:00","4","43.5666666","-5.7","6.0","GIJON MUSEL, SP","FM-12","99999","V020","150,1,N,0010,1","03600,1,9,N","010000,1,N,1","+0190,1","+0145,1","10196,1",,,,"5,1,03,1","4,1,03,1",,,"08,99,1,04,1,08,1,00800,1,05,1,99,9",,,,,"99999,9,10188,1","7,1,003,1,+999,9","02,1","SYN082AAXX  01154 08014 41560 81502 10190 20145 30188 40196 57003 70254 8485/ 333 92427;",
"08014099999","2010-06-01T18:00:00","4","43.5666666","-5.7","6.0","GIJON MUSEL, SP","FM-12","99999","V020","040,1,N,0021,1","01200,1,9,N","013000,1,N,1","+0180,1","+0149,1","10201,1","12,0000,9,1",,,,,,,"08,99,1,05,1,08,1,00800,1,05,1,99,9",,,,"120,M,+0200,1","99999,9,10193,1","2,1,005,1,+999,9",,"SYN088AAXX  01184 08014 12563 80404 10180 20149 30193 40201 52005 60002 8585/ 333 10200 92428;","Q01  00002PRCP12"
"08014099999","2010-06-02T06:00:00","4","43.5666666","-5.7","6.0","GIJON MUSEL, SP","FM-12","99999","V020","090,1,N,0010,1","01200,1,9,N","020000,1,N,1","+0170,1","+0143,1","10183,1","12,0000,9,1","24,0000,9,1",,,,,,"07,99,1,06,1,08,1,00800,1,03,1,99,9","0036,9","01,9","999,+0150,9","999,N,+0165,1","99999,9,10175,1","3,1,003,1,+999,9","02,1","SYN112AAXX  02064 08014 11570 70902 10170 20143 30175 40183 53003 60002 702// 8683/ 333 20165 30015 50144 55006 70000;","Q01  00002PRCP24Q02  00002PRCP12"
"08014099999","2010-06-02T09:00:00","4","43.5666666","-5.7","6.0","GIJON MUSEL, SP","FM-12","99999","V020","070,1,N,0021,1","01200,1,9,N","020000,1,N,1","+0176,1","+0149,1","10188,1",,,,,,,,"08,99,1,05,1,08,1,00800,1,05,1,99,9",,,,,"99999,9,10180,1","2,1,005,1,+999,9",,"SYN076AAXX  02094 08014 42570 80704 10176 20149 30180 40188 52005 8585/ 333 92438;",
"08014099999","2010-06-02T12:00:00","4","43.5666666","-5.7","6.0","GIJON MUSEL, SP","FM-12","99999","V020","080,1,N,0021,1","01200,1,9,N","020000,1,N,1","+0190,1","+0157,1","10188,1","06,0000,9,1",,,,,,,"08,99,1,06,1,08,1,00800,1,05,1,99,9",,,,,"99999,9,10180,1","4,1,000,1,+999,9",,"SYN082AAXX  02124 08014 12570 80804 10190 20157 30180 40188 54000 60001 8685/ 333 92428;","Q01  00002PRCP06"
"08014099999","2010-06-02T15:00:00","4","43.5666666","-5.7","6.0","GIJON MUSEL, SP","FM-12","99999","V020","080,1,N,0031,1","01200,1,9,N","030000,1,N,1","+0202,1","+0152,1","10178,1",,,,,,,,"06,99,1,05,1,08,1,00800,1,05,1,99,9",,,,,"99999,9,10170,1","7,1,010,1,+999,9",,"SYN076AAXX  02154 08014 42580 60806 10202 20152 30170 40178 57010 8585/ 333 92428;",
"08014099999","2010-06-02T18:00:00","4","43.5666666","-5.7","6.0","GIJON MUSEL, SP","FM-12","99999","V020","090,1,N,0036,1","03600,1,9,N","025000,1,N,1","+0182,1","+0151,1","10168,1","12,0000,9,1",,,,,,,"08,99,1,04,1,08,1,00800,1,05,1,99,9",,,,"120,M,+0202,1","99999,9,10160,1","7,1,010,1,+999,9",,"SYN088AAXX  02184 08014 12575 80907 10182 20151 30160 40168 57010 60002 8485/ 333 10202 92438;","Q01  00002PRCP12"
"08014099999","2010-06-03T06:00:00","4","43.5666666","-5.7","6.0","GIJON MUSEL, SP","FM-12","99999","V020","090,1,N,0031,1","03600,1,9,N","020000,1,N,1","+0170,1","+0135,1","10142,1","12,0000,9,1","24,0000,9,1",,,,,,"08,99,1,04,1,08,1,00800,1,05,1,99,9","0126,9","01,9","999,+0150,9","999,N,+0165,1","99999,9,10134,1","3,1,002,1,+999,9","02,1","SYN112AAXX  03064 08014 11570 80906 10170 20135 30134 40142 53002 60002 702// 8485/ 333 20165 30015 50304 55021 70000;","Q01  00002PRCP24Q02  00002PRCP12"
"08014099999","2010-06-03T09:00:00","4","43.5666666","-5.7","6.0","GIJON MUSEL, SP","FM-12","99999","V020","090,1,N,0036,1","22000,1,9,N","030000,1,N,1","+0186,1","+0130,1","10144,1",,,,,,,,"02,99,1,02,1,04,1,00800,1,00,1,00,1",,,,,"99999,9,10136,1","2,1,002,1,+999,9",,"SYN076AAXX  03094 08014 42580 20907 10186 20130 30136 40144 52002 82400 333 92438;",
"08014099999","2010-06-03T12:00:00","4","43.5666666","-5.7","6.0","GIJON MUSEL, SP","FM-12","99999","V020","070,1,N,0026,1","22000,1,9,N","030000,1,N,1","+0198,1","+0140,1","10136,1","06,0000,9,1",,,,,,,"02,99,1,01,1,00,1,00800,1,03,1,01,1",,,,,"99999,9,10128,1","7,1,008,1,+999,9",,"SYN082AAXX  03124 08014 12580 20705 10198 20140 30128 40136 57008 60001 81031 333 92438;","Q01  00002PRCP06"
"08014099999","2010-06-03T15:00:00","4","43.5666666","-5.7","6.0","GIJON MUSEL, SP","FM-12","99999","V020","070,1,N,0026,1","22000,1,9,N","030000,1,N,1","+0204,1","+0150,1","10128,1",,,,,,,,"01,99,1,00,1,00,1,99999,9,00,1,01,1",,,,,"99999,9,10121,1","8,1,007,1,+999,9",,"SYN076AAXX  03154 08014 42780 10705 10204 20150 30121 40128 58007 80001 333 92438;","Q01+017502SCOLCB"
"08014099999","2010-06-03T18:00:00","4","43.5666666","-5.7","6.0","GIJON MUSEL, SP","FM-12","99999","V020","040,1,N,0021,1","22000,1,9,N","030000,1,N,1","+0194,1","+0142,1","10134,1","12,0000,9,1",,,,,"00,1,+99999,9,99,9",,"00,99,1,00,1,00,1,99999,9,00,1,00,1",,,,"120,M,+0206,1","99999,9,10126,1","2,1,005,1,+999,9",,"SYN082AAXX  03184 08014 12980 00404 10194 20142 30126 40134 52005 60002 333 10206 92438;","Q01  00002PRCP12"
"08014099999","2010-06-04T06:00:00","4","43.5666666","-5.7","6.0","GIJON MUSEL, SP","FM-12","99999","V020","999,9,C,0000,1","01200,1,9,N","010000,1,N,1","+0168,1","+0139,1","10188,1","12,0000,9,1","24,0000,9,1",,,,,,"07,99,1,07,1,05,1,01250,1,00,1,00,1","0816,9","01,9","999,+0150,9","999,N,+0165,1","99999,9,10180,1","2,1,021,1,+999,9",,"SYN106AAXX  04064 08014 12660 70000 10168 20139 30180 40188 52021 60002 87500 333 20165 30015 50414 55136 70000;","Q01  00002PRCP24Q02  00002PRCP12"
"08014099999","2010-06-04T09:00:00","4","43.5666666","-5.7","6.0","GIJON MUSEL, SP","FM-12","99999","V020","330,1,N,0010,1","01200,1,9,N","008000,1,N,1","+0178,1","+0131,1","10199,1",,,,"2,1,03,1","2,1,03,1",,,"07,99,1,07,1,05,1,01250,1,00,1,00,1",,,,,"99999,9,10191,1","1,1,011,1,+999,9","05,1","SYN082AAXX  04094 08014 41658 73302 10178 20131 30191 40199 51011 70522 87500 333 92436;",
"08014099999","2010-06-04T12:00:00","4","43.5666666","-5.7","6.0","GIJON MUSEL, SP","FM-12","99999","V020","030,1,N,0041,1","03600,1,9,N","010000,1,N,1","+0188,1","+0139,1","10202,1","06,0000,9,1",,,,,,,"05,99,1,04,1,05,1,01250,1,08,1,00,1",,,,,"99999,9,10194,1","1,1,003,1,+999,9",,"SYN082AAXX  04124 08014 12660 50308 10188 20139 30194 40202 51003 60001 84580 333 92436;","Q01  00002PRCP06"
"08014099999","2010-06-04T15:00:00","4","43.5666666","-5.7","6.0","GIJON MUSEL, SP","FM-12","99999","V020","030,1,N,0031,1","22000,1,9,N","015000,1,N,1","+0186,1","+0132,1","10205,1",,,,,,,,"04,99,1,03,1,05,1,00800,1,04,1,01,1",,,,,"99999,9,10197,1","3,1,003,1,+999,9",,"SYN076AAXX  04154 08014 42565 40306 10186 20132 30197 40205 53003 83541 333 92437;",
"08014099999","2010-06-04T18:00:00","4","43.5666666","-5.7","6.0","GIJON MUSEL, SP","FM-12","99999","V020","020,1,N,0015,1","22000,1,9,N","015000,1,N,1","+0186,1","+0132,1","10206,1","12,0000,9,1",,,,,,,"03,99,1,02,1,05,1,00800,1,08,1,01,1",,,,"120,M,+0195,1","99999,9,10198,1","3,1,001,1,+999,9",,"SYN088AAXX  04184 08014 12565 30203 10186 20132 30198 40206 53001 60002 82581 333 10195 92427;","Q01  00002PRCP12"
"08014099999","2010-06-05T06:00:00","4","43.5666666","-5.7","6.0","GIJON MUSEL, SP","FM-12","99999","V020","030,1,N,0015,1","00420,1,9,N","004000,1,N,1","+0160,1","+0138,1","10187,1","12,0000,9,1","24,0000,9,1",,"2,1,06,1","2,1,06,1",,,"08,99,1,08,1,06,1,00450,1,99,9,99,9","0432,9","01,9","999,+0160,9","999,N,+0158,1","99999,9,10179,1","6,1,003,1,+999,9","10,1","SYN112AAXX  05064 08014 11440 80303 10160 20138 30179 40187 56003 60002 71022 886// 333 20158 30016 50354 55072 70000;","Q01  00002PRCP24Q02  00002PRCP12"
"08014099999","2010-06-05T09:00:00","4","43.5666666","-5.7","6.0","GIJON MUSEL, SP","FM-12","99999","V020","020,1,N,0010,1","00420,1,9,N","008000,1,N,1","+0167,1","+0138,1","10186,1",,,,"2,1,03,1","2,1,03,1",,,"08,99,1,08,1,06,1,00450,1,99,9,99,9",,,,,"99999,9,10178,1","8,1,001,1,+999,9","10,1","SYN082AAXX  05094 08014 41458 80202 10167 20138 30178 40186 58001 71022 886// 333 92426;",
"08014099999","2010-06-05T12:00:00","4","43.5666666","-5.7","6.0","GIJON MUSEL, SP","FM-12","99999","V020","090,1,N,0010,1","00420,1,9,N","008000,1,N,1","+0172,1","+0141,1","10187,1","06,0000,9,1",,,"2,1,06,1","2,1,06,1",,,"08,99,1,08,1,06,1,00450,1,00,1,00,1",,,,,"99999,9,10179,1","1,1,001,1,+999,9","10,1","SYN088AAXX  05124 08014 11458 80902 10172 20141 30179 40187 51001 60001 71022 88600 333 92426;","Q01  00002PRCP06"
"08014099999","2010-06-05T15:00:00","4","43.5666666","-5.7","6.0","GIJON MUSEL, SP","FM-12","99999","V020","020,1,N,0010,1","00750,1,9,N","015000,1,N,1","+0176,1","+0133,1","10184,1",,,,,,,,"08,99,1,06,1,05,1,00800,1,07,1,99,9",,,,,"99999,9,10176,1","8,1,003,1,+999,9",,"SYN076AAXX  05154 08014 42565 80202 10176 20133 30176 40184 58003 8657/ 333 92427;",
"08014099999","2010-06-05T18:00:00","4","43.5666666","-5.7","6.0","GIJON MUSEL, SP","FM-12","99999","V020","290,1,N,0015,1","00420,1,9,N","008000,1,N,1","+0172,1","+0133,1","10192,1","12,9999,9,9",,,"2,1,06,1","2,1,06,1",,,"08,99,1,07,1,07,1,00450,1,07,1,99,9",,,,"120,M,+0180,1","99999,9,10184,1","1,1,008,1,+999,9","20,1","SYN094AAXX  05184 08014 11458 82903 10172 20133 30184 40192 51008 69902 72022 8777/ 333 10180 92427;","Q01  00002PRCP12Q02  00002PRCP12"
"08014099999","2010-06-06T06:00:00","4","43.5666666","-5.7","6.0","GIJON MUSEL, SP","FM-12","99999","V020","210,1,N,0010,1","00750,1,9,N","015000,1,N,1","+0154,1","+0139,1","10205,1","12,0005,9,1","24,0005,9,1",,,,,,"08,99,1,05,1,02,1,00800,1,05,1,99,9","0000,9","09,9","999,+0140,9","999,N,+0150,1","99999,9,10197,1","2,1,005,1,+999,9","02,1","SYN112AAXX  06064 08014 11565 82102 10154 20139 30197 40205 52005 69942 702// 8525/ 333 20150 31014 50164 55000 70004;",
"08014099999","2010-06-06T09:00:00","4","43.5666666","-5.7","6.0","GIJON MUSEL, SP","FM-12","99999","V020","230,1,N,0015,1","01200,1,9,N","013000,1,N,1","+0164,1","+0135,1","10213,1",,,,,,,,"07,99,1,05,1,08,1,00800,1,07,1,99,9",,,,,"99999,9,10205,1","2,1,008,1,+999,9",,"SYN076AAXX  06094 08014 42563 72303 10164 20135 30205 40213 52008 8587/ 333 92427;",
"08014099999","2010-06-06T12:00:00","4","43.5666666","-5.7","6.0","GIJON MUSEL, SP","FM-12","99999","V020","030,1,N,0026,1","01200,1,9,N","020000,1,N,1","+0176,1","+0118,1","10217,1","06,0000,9,1",,,,,,,"06,99,1,05,1,08,1,00800,1,07,1,00,1",,,,,"99999,9,10209,1","2,1,004,1,+999,9",,"SYN082AAXX  06124 08014 12570 60305 10176 20118 30209 40217 52004 60001 85870 333 92428;","Q01  00002PRCP06"
"08014099999","2010-06-06T15:00:00","4","43.5666666","-5.7","6.0","GIJON MUSEL, SP","FM-12","99999","V020","040,1,N,0031,1","03600,1,9,N","020000,1,N,1","+0182,1","+0115,1","10211,1",,,,,,,,"07,99,1,04,1,02,1,00800,1,03,1,99,9",,,,,"99999,9,10203,1","7,1,006,1,+999,9",,"SYN076AAXX  06154 08014 42570 70406 10182 20115 30203 40211 57006 8423/ 333 92428;",
"08014099999","2010-06-06T18:00:00","4","43.5666666","-5.7","6.0","GIJON MUSEL, SP","FM-12","99999","V020","090,1,N,0015,1","22000,1,9,N","030000,1,N,1","+0184,1","+0126,1","10212,1","12,0000,9,1",,,,,,,"04,99,1,02,1,04,1,00800,1,03,1,00,1",,,,"120,M,+0187,1","99999,9,10204,1","2,1,001,1,+999,9",,"SYN088AAXX  06184 08014 12580 40903 10184 20126 30204 40212 52001 60002 82430 333 10187 92428;","Q01  00002PRCP12"
"08014099999","2010-06-07T06:00:00","4","43.5666666","-5.7","6.0","GIJON MUSEL, SP","FM-12","99999","V020","200,1,N,0021,1","22000,1,9,N","008000,1,N,1","+0138,1","+0113,1","10155,1","12,0000,9,1","24,0000,9,1",,,,,,"03,99,1,01,1,01,1,01250,1,01,1,01,1","0300,9","09,9","999,+0110,9","999,N,+0135,1","99999,9,10147,1","7,1,006,1,+999,9","10,1","SYN112AAXX  07064 08014 11658 32004 10138 20113 30147 40155 57006 60002 710// 81111 333 20135 31011 50324 55050 70000;","Q01  00002PRCP24Q02  00002PRCP12"
"08014099999","2010-06-07T09:00:00","4","43.5666666","-5.7","6.0","GIJON MUSEL, SP","FM-12","99999","V020","050,1,N,0015,1","03600,1,9,N","010000,1,N,1","+0173,1","+0124,1","10148,1",,,,,,,,"05,99,1,03,1,01,1,00800,1,01,1,01,1",,,,,"99999,9,10140,1","7,1,007,1,+999,9",,"SYN076AAXX  07094 08014 42560 50503 10173 20124 30140 40148 57007 83111 333 92436;",
"08014099999","2010-06-07T12:00:00","4","43.5666666","-5.7","6.0","GIJON MUSEL, SP","FM-12","99999","V020","060,1,N,0021,1","22000,1,9,N","010000,1,N,1","+0192,1","+0134,1","10140,1","06,0000,9,1",,,,,,,"04,99,1,02,1,01,1,01250,1,01,1,01,1",,,,,"99999,9,10132,1","7,1,008,1,+999,9",,"SYN082AAXX  07124 08014 12660 40604 10192 20134 30132 40140 57008 60001 82111 333 92436;","Q01  00002PRCP06"
"08014099999","2010-06-07T15:00:00","4","43.5666666","-5.7","6.0","GIJON MUSEL, SP","FM-12","99999","V020","070,1,N,0015,1","22000,1,9,N","020000,1,N,1","+0195,1","+0134,1","10125,1",,,,,,,,"03,99,1,02,1,00,1,01250,1,01,1,05,1",,,,,"99999,9,10117,1","7,1,015,1,+999,9",,"SYN076AAXX  07154 08014 42670 30703 10195 20134 30117 40125 57015 82015 333 92427;",
"08014099999","2010-06-07T18:00:00","4","43.5666666","-5.7","6.0","GIJON MUSEL, SP","FM-12","99999","V020","040,1,N,0021,1","01500,1,9,N","020000,1,N,1","+0192,1","+0115,1","10121,1","12,0000,9,1",,,,,,,"07,99,1,05,1,08,1,01250,1,07,1,00,1",,,,"120,M,+0207,1","99999,9,10113,1","7,1,004,1,+999,9",,"SYN088AAXX  07184 08014 12670 70404 10192 20115 30113 40121 57004 60002 85870 333 10207 92427;","Q01  00002PRCP12"
"08014099999","2010-06-08T06:00:00","4","43.5666666","-5.7","6.0","GIJON MUSEL, SP","FM-12","99999","V020","180,1,N,0005,1","00750,1,9,N","010000,1,N,1","+0171,1","+0138,1","10087,1","12,0000,9,1","24,0000,9,1",,,,,,"08,99,1,05,1,07,1,00800,1,07,1,99,9","0510,9","01,9","999,+0160,9","999,N,+0170,1","99999,9,10079,1","7,1,003,1,+999,9","02,1","SYN112AAXX  08064 08014 11560 81801 10171 20138 30079 40087 57003 60002 702// 8577/ 333 20170 30016 50464 55085 70000;","Q01  00002PRCP24Q02  00002PRCP12"
"08014099999","2010-06-08T09:00:00","4","43.5666666","-5.7","6.0","GIJON MUSEL, SP","FM-12","99999","V020","170,1,N,0010,1","01200,1,9,N","015000,1,N,1","+0183,1","+0140,1","10079,1",,,,,,,,"08,99,1,05,1,06,1,01250,1,07,1,99,9",,,,,"99999,9,10071,1","7,1,008,1,+999,9",,"SYN076AAXX  08094 08014 42665 81702 10183 20140 30071 40079 57008 8567/ 333 92437;",
"08014099999","2010-06-08T12:00:00","4","43.5666666","-5.7","6.0","GIJON MUSEL, SP","FM-12","99999","V020","040,1,N,0026,1","03600,1,9,N","020000,1,N,1","+0180,1","+0137,1","10077,1","06,9999,9,9",,,"5,1,06,1","2,1,06,1",,,"08,99,1,04,1,07,1,00800,1,07,1,99,9",,,,,"99999,9,10069,1","7,1,002,1,+999,9","50,1","SYN088AAXX  08124 08014 11570 80405 10180 20137 30069 40077 57002 69901 75052 8477/ 333 92437;","Q01  00002PRCP06Q02  00002PRCP06"
"08014099999","2010-06-08T15:00:00","4","43.5666666","-5.7","6.0","GIJON MUSEL, SP","FM-12","99999","V020","040,1,N,0015,1","03600,1,9,N","020000,1,N,1","+0175,1","+0146,1","10064,1",,,,"5,1,03,1","5,1,03,1",,,"08,99,1,04,1,07,1,00800,1,07,1,99,9",,,,,"99999,9,10056,1","7,1,013,1,+999,9","02,1","SYN082AAXX  08154 08014 41570 80403 10175 20146 30056 40064 57013 70255 8477/ 333 92437;",
"08014099999","2010-06-08T18:00:00","4","43.5666666","-5.7","6.0","GIJON MUSEL, SP","FM-12","99999","V020","280,1,N,0010,1","03600,1,9,N","015000,1,N,1","+0154,1","+0132,1","10058,1","12,0030,9,1",,,"8,1,06,1","2,1,06,1",,,"08,99,1,04,1,07,1,00800,1,07,1,99,9",,,,"120,M,+0201,1","99999,9,10050,1","7,1,006,1,+999,9","25,1","SYN094AAXX  08184 08014 11565 82802 10154 20132 30050 40058 57006 60032 72582 8477/ 333 10201 92437;",
"08014099999","2010-06-09T06:00:00","4","43.5666666","-5.7","6.0","GIJON MUSEL, SP","FM-12","99999","V020","080,1,N,0021,1","03600,1,9,N","015000,1,N,1","+0160,1","+0129,1","09990,1","12,0008,9,1","24,0056,9,1",,,,,,"08,99,1,02,1,08,1,00800,1,07,1,99,9","0000,9","11,9","999,+0140,9","999,N,+0150,1","99999,9,09982,1","7,1,012,1,+999,9","50,1","SYN112AAXX  09064 08014 11565 80804 10160 20129 39982 49990 57012 69982 750// 8287/ 333 20150 32014 50264 55000 70055;",
"08014099999","2010-06-09T09:00:00","4","43.5666666","-5.7","6.0","GIJON MUSEL, SP","FM-12","99999","V020","090,1,N,0015,1","03600,1,9,N","015000,1,N,1","+0168,1","+0146,1","09984,1",,,,"6,1,03,1","2,1,03,1",,,"08,99,1,02,1,08,1,00800,1,07,1,99,9",,,,,"99999,9,09977,1","7,1,005,1,+999,9","60,1","SYN082AAXX  09094 08014 41565 80903 10168 20146 39977 49984 57005 76062 8287/ 333 92437;",
"08014099999","2010-06-09T12:00:00","4","43.5666666","-5.7","6.0","GIJON MUSEL, SP","FM-12","99999","V020","070,1,N,0021,1","03600,1,9,N","020000,1,N,1","+0182,1","+0155,1","09974,1","06,0010,9,1",,,"6,1,06,1","5,1,06,1",,,"08,99,1,02,1,08,1,00800,1,07,1,99,9",,,,,"99999,9,09967,1","7,1,010,1,+999,9","02,1","SYN088AAXX  09124 08014 11570 80704 10182 20155 39967 49974 57010 60011 70265 8287/ 333 92437;",
"08014099999","2010-06-09T15:00:00","4","43.5666666","-5.7","6.0","GIJON MUSEL, SP","FM-12","99999","V020","040,1,N,0015,1","03600,1,9,N","015000,1,N,1","+0181,1","+0154,1","09967,1",,,,"5,1,03,1","2,1,03,1",,,"08,99,1,03,1,08,1,00800,1,07,1,99,9",,,,,"99999,9,09960,1","7,1,007,1,+999,9","50,1","SYN082AAXX  09154 08014 41565 80403 10181 20154 39960 49967 57007 75052 8387/ 333 92437;",
"08014099999","2010-06-09T18:00:00","4","43.5666666","-5.7","6.0","GIJON MUSEL, SP","FM-12","99999","V020","280,1,N,0026,1","03600,1,9,N","020000,1,N,1","+0170,1","+0143,1","09965,1","12,0010,9,1",,,"5,1,06,1","2,1,06,1",,,"08,99,1,04,1,07,1,00800,1,07,1,99,9",,,,"120,M,+0190,1","99999,9,09958,1","7,1,002,1,+999,9","02,1","SYN094AAXX  09184 08014 11570 82805 10170 20143 39958 49965 57002 60012 70252 8477/ 333 10190 92437;",
"08014099999","2010-06-10T06:00:00","4","43.5666666","-5.7","6.0","GIJON MUSEL, SP","FM-12","99999","V020","180,1,N,0021,1","03600,1,9,N","006000,1,N,1","+0156,1","+0141,1","09940,1","12,0719,9,1","24,0737,9,1",,,,,,"08,99,1,04,1,07,1,00800,1,02,1,99,9","0000,9","11,9","999,+0050,9","999,N,+0140,1","99999,9,09933,1","7,1,003,1,+999,9","63,1","SYN112AAXX  10064 08014 11556 81804 10156 20141 39933 49940 57003 60722 763// 8472/ 333 20140 32005 50164 55000 70737;",
"08014099999","2010-06-10T09:00:00","4","43.5666666","-5.7","6.0","GIJON MUSEL, SP","FM-12","99999","V020","220,1,N,0077,1","03600,1,9,N","006000,1,N,1","+0150,1","+0132,1","09954,1",,,,"8,1,03,1","2,1,03,1",,,"08,99,1,04,1,07,1,00800,1,02,1,99,9",,,,,"99999,9,09946,1","3,1,013,1,+999,9","81,1","SYN082AAXX  10094 08014 41556 82215 10150 20132 39946 49954 53013 78182 8472/ 333 90436;",
"08014099999","2010-06-10T12:00:00","4","43.5666666","-5.7","6.0","GIJON MUSEL, SP","FM-12","99999","V020","230,1,N,0031,1","03600,1,9,N","004000,1,N,1","+0152,1","+0134,1","09962,1","06,0330,9,1",,,"8,1,06,1","2,1,06,1",,,"08,99,1,04,1,07,1,00800,1,02,1,99,9",,,,,"99999,9,09954,1","2,1,008,1,+999,9","81,1","SYN088AAXX  10124 08014 11540 82306 10152 20134 39954 49962 52008 60331 78182 8472/ 333 92435;",
"08014099999","2010-06-10T15:00:00","4","43.5666666","-5.7","6.0","GIJON MUSEL, SP","FM-12","99999","V020","230,1,N,0051,1","03600,1,9,N","004000,1,N,1","+0150,1","+0132,1","09991,1",,,,"8,1,03,1","2,1,03,1",,,"08,99,1,04,1,07,1,00800,1,02,1,99,9",,,,,"99999,9,09983,1","2,1,029,1,+999,9","65,1","SYN082AAXX  10154 08014 41540 82310 10150 20132 39983 49991 52029 76582 8472/ 333 92435;",
"08014099999","2010-06-10T18:00:00","4","43.5666666","-5.7","6.0","GIJON MUSEL, SP","FM-12","99999","V020","230,1,N,0051,1","03600,1,9,N","015000,1,N,1","+0165,1","+0127,1","10003,1","12,0531,9,1",,,"8,1,06,1","6,1,06,1",,,"08,99,1,03,1,07,1,00800,1,02,1,99,9",,,,"120,M,+0168,1","99999,9,09995,1","2,1,012,1,+999,9","21,1","SYN094AAXX  10184 08014 11565 82310 10165 20127 39995 40003 52012 60532 72186 8372/ 333 10168 92437;",
"08014099999","2010-06-11T06:00:00","4","43.5666666","-5.7","6.0","GIJON MUSEL, SP","FM-12","99999","V020","170,1,N,0021,1","03600,1,9,N","015000,1,N,1","+0160,1","+0142,1","10063,1","12,0140,9,1","24,0668,9,1",,,,,,"08,99,1,03,1,07,1,00800,1,02,1,99,9","0000,9","11,9","999,+0140,9","999,N,+0145,1","99999,9,10055,1","2,1,005,1,+999,9","61,1","SYN112AAXX  11064 08014 11565 81704 10160 20142 30055 40063 52005 60142 761// 8372/ 333 20145 32014 50184 55000 70669;",
"08014099999","2010-06-11T09:00:00","4","43.5666666","-5.7","6.0","GIJON MUSEL, SP","FM-12","99999","V020","090,1,N,0015,1","00750,1,9,N","015000,1,N,1","+0170,1","+0145,1","10081,1",,,,"8,1,03,1","2,1,03,1",,,"08,99,1,05,1,07,1,00800,1,07,1,99,9",,,,,"99999,9,10073,1","2,1,018,1,+999,9","02,1","SYN082AAXX  11094 08014 41565 80903 10170 20145 30073 40081 52018 70282 8577/ 333 92437;",
"08014099999","2010-06-11T12:00:00","4","43.5666666","-5.7","6.0","GIJON MUSEL, SP","FM-12","99999","V020","050,1,N,0015,1","00750,1,9,N","008000,1,N,1","+0170,1","+0141,1","10101,1","06,0008,9,1",,,"6,1,06,1","2,1,06,1",,,"08,99,1,05,1,07,1,00800,1,07,1,99,9",,,,,"99999,9,10093,1","2,1,020,1,+999,9","60,1","SYN088AAXX  11124 08014 11558 80503 10170 20141 30093 40101 52020 69971 76062 8577/ 333 92437;",
"08014099999","2010-06-11T15:00:00","4","43.5666666","-5.7","6.0","GIJON MUSEL, SP","FM-12","99999","V020","070,1,N,0010,1","00750,1,9,N","012000,1,N,1","+0160,1","+0140,1","10105,1",,,,"6,1,03,1","2,1,03,1",,,"08,99,1,05,1,07,1,00800,1,07,1,99,9",,,,,"99999,9,10097,1","2,1,004,1,+999,9","60,1","SYN082AAXX  11154 08014 41562 80702 10160 20140 30097 40105 52004 76062 8577/ 333 92437;",
"08014099999","2010-06-11T18:00:00","4","43.5666666","-5.7","6.0","GIJON MUSEL, SP","FM-12","99999","V020","150,1,N,0015,1","00750,1,9,N","008000,1,N,1","+0150,1","+0132,1","10116,1","12,0109,9,1",,,"8,1,06,1","2,1,06,1",,,"08,99,1,05,1,07,1,00800,1,02,1,99,9",,,,"120,M,+0176,1","99999,9,10108,1","2,1,011,1,+999,9","81,1","SYN094AAXX  11184 08014 11558 81503 10150 20132 30108 40116 52011 60112 78182 8572/ 333 10176 92436;",
"08014099999","2010-06-12T06:00:00","4","43.5666666","-5.7","6.0","GIJON MUSEL, SP","FM-12","99999","V020","200,1,N,0021,1","03600,1,9,N","008000,1,N,1","+0141,1","+0127,1","10139,1","12,0130,9,1","24,0262,9,1",,,,,,"08,99,1,04,1,07,1,00800,1,02,1,99,9","0000,9","11,9","999,+0130,9","999,N,+0135,1","99999,9,10131,1","4,1,000,1,+999,9","61,1","SYN112AAXX  12064 08014 11558 82004 10141 20127 30131 40139 54000 60132 761// 8472/ 333 20135 32013 50124 55000 70261;",
"08014099999","2010-06-12T09:00:00","4","43.5666666","-5.7","6.0","GIJON MUSEL, SP","FM-12","99999","V020","200,1,N,0026,1","03600,1,9,N","008000,1,N,1","+0140,1","+0124,1","10152,1",,,,"6,1,03,1","2,1,03,1",,,"08,99,1,04,1,07,1,00800,1,02,1,99,9",,,,,"99999,9,10144,1","3,1,013,1,+999,9","61,1","SYN082AAXX  12094 08014 41558 82005 10140 20124 30144 40152 53013 76162 8472/ 333 92436;",
"08014099999","2010-06-12T12:00:00","4","43.5666666","-5.7","6.0","GIJON MUSEL, SP","FM-12","99999","V020","150,1,N,0015,1","03600,1,9,N","004000,1,N,1","+0142,1","+0131,1","10164,1","06,0079,9,1",,,"6,1,06,1","2,1,06,1",,,"08,99,1,04,1,07,1,00800,1,02,1,99,9",,,,,"99999,9,10156,1","2,1,012,1,+999,9","65,1","SYN088AAXX  12124 08014 11540 81503 10142 20131 30156 40164 52012 60081 76562 8472/ 333 92435;",
"08014099999","2010-06-12T15:00:00","4","43.5666666","-5.7","6.0","GIJON MUSEL, SP","FM-12","99999","V020","190,1,N,0026,1","03600,1,9,N","003000,1,N,1","+0146,1","+0131,1","10167,1",,,,"5,1,03,1","2,1,03,1",,,"08,99,1,02,1,07,1,00800,1,07,1,99,9",,,,,"99999,9,10159,1","2,1,003,1,+999,9","53,1","SYN082AAXX  12154 08014 41530 81905 10146 20131 30159 40167 52003 75352 8277/ 333 92435;",
"08014099999","2010-06-12T18:00:00","4","43.5666666","-5.7","6.0","GIJON MUSEL, SP","FM-12","99999","V020","999,9,C,0000,1","01200,1,9,N","002000,1,N,1","+0151,1","+0141,1","10172,1","12,0119,9,1",,,"5,1,06,1","2,1,06,1",,,"08,99,1,08,1,00,1,01250,1,02,1,99,9",,,,"120,M,+0152,1","99999,9,10164,1","2,1,005,1,+999,9","55,1","SYN094AAXX  12184 08014 11620 80000 10151 20141 30164 40172 52005 60122 75552 8802/ 333 10152 92434;",
"08014099999","2010-06-13T06:00:00","4","43.5666666","-5.7","6.0","GIJON MUSEL, SP","FM-12","99999","V020","010,1,N,0026,1","03600,1,9,N","010000,1,N,1","+0162,1","+0140,1","10191,1","12,0020,9,1","24,0147,9,1",,,,,,"08,99,1,04,1,07,1,00800,1,02,1,99,9","0000,9","11,9","999,+0140,9","999,N,+0145,1","99999,9,10183,1","2,1,002,1,+999,9","02,1","SYN112AAXX  13064 08014 11560 80105 10162 20140 30183 40191 52002 60022 702// 8472/ 333 20145 32014 50094 55000 70148;",
"08014099999","2010-06-13T09:00:00","4","43.5666666","-5.7","6.0","GIJON MUSEL, SP","FM-12","99999","V020","020,1,N,0021,1","00750,1,9,N","010000,1,N,1","+0160,1","+0138,1","10203,1",,,,,,,,"08,99,1,06,1,07,1,00800,1,07,1,99,9",,,,,"99999,9,10195,1","2,1,012,1,+999,9",,"SYN076AAXX  13094 08014 42560 80204 10160 20138 30195 40203 52012 8677/ 333 92436;",
"08014099999","2010-06-13T12:00:00","4","43.5666666","-5.7","6.0","GIJON MUSEL, SP","FM-12","99999","V020","020,1,N,0026,1","00750,1,9,N","004000,1,N,1","+0162,1","+0133,1","10207,1","06,0000,9,1",,,"2,1,06,1","2,1,06,1",,,"08,99,1,06,1,07,1,00800,1,07,1,99,9",,,,,"99999,9,10199,1","2,1,004,1,+999,9","10,1","SYN088AAXX  13124 08014 11540 80205 10162 20133 30199 40207 52004 60001 71022 8677/ 333 92435;","Q01  00002PRCP06"
"08014099999","2010-06-13T15:00:00","4","43.5666666","-5.7","6.0","GIJON MUSEL, SP","FM-12","99999","V020","030,1,N,0031,1","00750,1,9,N","010000,1,N,1","+0162,1","+0122,1","10207,1",,,,,,,,"08,99,1,06,1,07,1,00800,1,07,1,99,9",,,,,"99999,9,10199,1","4,1,000,1,+999,9",,"SYN076AAXX  13154 08014 42560 80306 10162 20122 30199 40207 54000 8677/ 333 92436;",
"08014099999","2010-06-13T18:00:00","4","43.5666666","-5.7","6.0","GIJON MUSEL, SP","FM-12","99999","V020","030,1,N,0015,1","00750,1,9,N","010000,1,N,1","+0160,1","+0114,1","10203,1","12,0000,9,1",,,,,,,"08,99,1,06,1,06,1,00800,1,07,1,99,9",,,,"120,M,+0170,1","99999,9,10195,1","8,1,004,1,+999,9",,"SYN088AAXX  13184 08014 12560 80303 10160 20114 30195 40203 58004 60002 8667/ 333 10170 92436;","Q01  00002PRCP12"
"08014099999","2010-06-14T06:00:00","4","43.5666666","-5.7","6.0","GIJON MUSEL, SP","FM-12","99999","V020","230,1,N,0010,1","00750,1,9,N","002000,1,N,1","+0132,1","+0118,1","10194,1","12,0020,9,1","24,0020,9,1",,"5,1,06,1","5,1,06,1",,,"08,99,1,06,1,07,1,00800,1,07,1,99,9","0000,9","11,9","999,+0120,9","999,N,+0130,1","99999,9,10186,1","3,1,008,1,+999,9","51,1","SYN112AAXX  14064 08014 11520 82302 10132 20118 30186 40194 53008 60022 75155 8677/ 333 20130 32012 50284 55000 70021;",
"08014099999","2010-06-14T09:00:00","4","43.5666666","-5.7","6.0","GIJON MUSEL, SP","FM-12","99999","V020","200,1,N,0015,1","00750,1,9,N","008000,1,N,1","+0152,1","+0120,1","10202,1",,,,"5,1,03,1","2,1,03,1",,,"07,99,1,06,1,02,1,00800,1,06,1,00,1",,,,,"99999,9,10194,1","1,1,008,1,+999,9","20,1","SYN082AAXX  14094 08014 41558 72003 10152 20120 30194 40202 51008 72052 86260 333 92436;",
"08014099999","2010-06-14T12:00:00","4","43.5666666","-5.7","6.0","GIJON MUSEL, SP","FM-12","99999","V020","040,1,N,0026,1","01200,1,9,N","015000,1,N,1","+0168,1","+0109,1","10200,1","06,0000,2,1",,,"5,1,06,1","2,1,06,1",,,"06,99,1,05,1,08,1,00800,1,06,1,00,1",,,,,"99999,9,10192,1","8,1,002,1,+999,9","02,1","SYN088AAXX  14124 08014 11565 60405 10168 20109 30192 40200 58002 69901 70252 85860 333 92437;",
"08014099999","2010-06-14T15:00:00","4","43.5666666","-5.7","6.0","GIJON MUSEL, SP","FM-12","99999","V020","030,1,N,0041,1","00750,1,9,N","020000,1,N,1","+0174,1","+0098,1","10198,1",,,,,,,,"06,99,1,05,1,02,1,00800,1,06,1,00,1",,,,,"99999,9,10190,1","8,1,002,1,+999,9",,"SYN076AAXX  14154 08014 42570 60308 10174 20098 30190 40198 58002 85260 333 92437;",
"08014099999","2010-06-14T18:00:00","4","43.5666666","-5.7","6.0","GIJON MUSEL, SP","FM-12","99999","V020","220,1,N,0010,1","03600,1,9,N","010000,1,N,1","+0158,1","+0129,1","10193,1","12,0020,9,1",,,"8,1,06,1","2,1,06,1",,,"05,99,1,04,1,02,1,01250,1,06,1,00,1",,,,"120,M,+0176,1","99999,9,10185,1","6,1,005,1,+999,9","02,1","SYN094AAXX  14184 08014 11660 52202 10158 20129 30185 40193 56005 60022 70282 84260 333 10176 92437;",
"08014099999","2010-06-15T06:00:00","4","43.5666666","-5.7","6.0","GIJON MUSEL, SP","FM-12","99999","V020","300,1,N,0015,1","00750,1,C,N","008000,1,N,1","+0130,1","+0119,1","10182,1","12,0051,9,1","24,0069,9,1",,"8,1,06,1","2,1,06,1","02,1,+00600,1,09,1",,"07,99,1,06,1,03,1,00800,1,06,1,00,1","0306,9","11,9","999,+0120,9","999,N,+0130,1","99999,9,10174,1","0,1,000,1,+999,9","25,1","SYN118AAXX  15064 08014 11558 73003 10130 20119 30174 40182 50000 60052 72582 86360 333 20130 32012 50354 55051 70069 82920;",
"08014099999","2010-06-15T09:00:00","4","43.5666666","-5.7","6.0","GIJON MUSEL, SP","FM-12","99999","V020","999,9,C,0000,1","22000,1,9,N","010000,1,N,1","+0166,1","+0126,1","10194,1",,,,"8,1,03,1","2,1,03,1",,,"03,99,1,02,1,02,1,01250,1,06,1,02,1",,,,,"99999,9,10186,1","1,1,012,1,+999,9","02,1","SYN082AAXX  15094 08014 41660 30000 10166 20126 30186 40194 51012 70282 82262 333 92447;",
"08014099999","2010-06-15T12:00:00","4","43.5666666","-5.7","6.0","GIJON MUSEL, SP","FM-12","99999","V020","040,1,N,0031,1","00780,1,9,N","015000,1,N,1","+0174,1","+0131,1","10196,1","06,0020,9,1",,,"8,1,06,1","1,1,06,1","05,1,+00780,1,09,1",,"06,99,1,06,1,03,1,00800,1,06,1,00,1",,,,,"99999,9,10188,1","1,1,002,1,+999,9","80,1","SYN094AAXX  15124 08014 11565 60406 10174 20131 30188 40196 51002 60021 78081 86360 333 85926 92447;",
"08014099999","2010-06-15T15:00:00","4","43.5666666","-5.7","6.0","GIJON MUSEL, SP","FM-12","99999","V020","040,1,N,0046,1","00750,1,9,N","008000,1,N,1","+0174,1","+0139,1","10194,1",,,,"8,1,03,1","2,1,03,1",,,"08,99,1,07,1,02,1,00800,1,07,1,99,9",,,,,"99999,9,10186,1","8,1,002,1,+999,9","15,1","SYN082AAXX  15154 08014 41558 80409 10174 20139 30186 40194 58002 71582 8727/ 333 92447;",
"08014099999","2010-06-15T18:00:00","4","43.5666666","-5.7","6.0","GIJON MUSEL, SP","FM-12","99999","V020","280,1,N,0010,1","00630,1,9,N","008000,1,N,1","+0136,1","+0133,1","10202,1","12,0150,9,1",,,"9,1,06,1","8,1,06,1","06,1,+00630,1,08,1","02,1,+00780,1,09,1","07,99,1,07,1,03,1,00800,1,06,1,00,1",,,,"120,M,+0180,1","99999,9,10194,1","1,1,008,1,+999,9","80,1","SYN106AAXX  15184 08014 11558 72802 10136 20133 30194 40202 51008 60152 78098 87360 333 10180 86821 82926 92446;",
"08014099999","2010-06-16T06:00:00","4","43.5666666","-5.7","6.0","GIJON MUSEL, SP","FM-12","99999","V020","030,1,N,0067,1","00750,1,9,N","008000,1,N,1","+0156,1","+0131,1","10181,1","12,0170,9,1","24,0323,9,1",,"8,1,06,1","8,1,06,1",,,"08,99,1,08,1,07,1,00800,1,99,9,99,9","0252,9","11,9","999,+0120,9","999,N,+0130,1","99999,9,10173,1","6,1,008,1,+999,9","80,1","SYN112AAXX  16064 08014 11558 80313 10156 20131 30173 40181 56008 60172 78088 887// 333 20130 32012 50244 55042 70322;",
"08014099999","2010-06-16T09:00:00","4","43.5666666","-5.7","6.0","GIJON MUSEL, SP","FM-12","99999","V020","040,1,N,0046,1","00750,1,9,N","015000,1,N,1","+0160,1","+0127,1","10194,1",,,,"6,1,03,1","2,1,03,1",,,"08,99,1,08,1,07,1,00800,1,99,9,99,9",,,,,"99999,9,10186,1","3,1,013,1,+999,9","02,1","SYN082AAXX  16094 08014 41565 80409 10160 20127 30186 40194 53013 70262 887// 333 92447;",
"08014099999","2010-06-16T12:00:00","4","43.5666666","-5.7","6.0","GIJON MUSEL, SP","FM-12","99999","V020","010,1,N,0026,1","00750,1,9,N","010000,1,N,1","+0158,1","+0106,1","10203,1","06,0000,2,1",,,"6,1,06,1","2,1,06,1",,,"07,99,1,07,1,04,1,00800,1,00,1,00,1",,,,,"99999,9,10195,1","2,1,009,1,+999,9","02,1","SYN088AAXX  16124 08014 11560 70105 10158 20106 30195 40203 52009 69911 70262 87400 333 92447;",
"08014099999","2010-06-16T15:00:00","4","43.5666666","-5.7","6.0","GIJON MUSEL, SP","FM-12","99999","V020","070,1,N,0015,1","22000,1,9,N","020000,1,N,1","+0174,1","+0093,1","10203,1",,,,,,,,"04,99,1,04,1,08,1,00800,1,06,1,00,1",,,,,"99999,9,10195,1","0,1,000,1,+999,9",,"SYN076AAXX  16154 08014 42570 40703 10174 20093 30195 40203 50000 84860 333 92447;",
"08014099999","2010-06-16T18:00:00","4","43.5666666","-5.7","6.0","GIJON MUSEL, SP","FM-12","99999","V020","040,1,N,0010,1","22000,1,9,N","020000,1,N,1","+0166,1","+0083,1","10205,1","12,0000,2,1",,,,,,,"04,99,1,04,1,08,1,00800,1,06,1,01,1",,,,"120,M,+0178,1","99999,9,10197,1","0,1,002,1,+999,9",,"SYN088AAXX  16184 08014 12570 40402 10166 20083 30197 40205 50002 60002 84861 333 10178 92447;",
"08014099999","2010-06-17T06:00:00","4","43.5666666","-5.7","6.0","GIJON MUSEL, SP","FM-12","99999","V020","200,1,N,0026,1","00420,1,9,N","020000,1,N,1","+0126,1","+0081,1","10194,1","12,0000,9,1","24,0000,2,1",,,,,,"07,99,1,05,1,04,1,00450,1,05,1,99,9","0270,9","09,9","999,+0110,9","999,N,+0120,1","99999,9,10186,1","7,1,003,1,+999,9","02,1","SYN112AAXX  17064 08014 11470 72005 10126 20081 30186 40194 57003 60002 702// 8545/ 333 20120 31011 50414 55045 70001;","Q01  00002PRCP12"
"08014099999","2010-06-17T09:00:00","4","43.5666666","-5.7","6.0","GIJON MUSEL, SP","FM-12","99999","V020","240,1,N,0021,1","01200,1,9,N","020000,1,N,1","+0158,1","+0068,1","10196,1",,,,,,,,"08,99,1,06,1,08,1,00800,1,05,1,99,9",,,,,"99999,9,10188,1","2,1,002,1,+999,9",,"SYN076AAXX  17094 08014 42570 82404 10158 20068 30188 40196 52002 8685/ 333 92438;",
"08014099999","2010-06-17T12:00:00","4","43.5666666","-5.7","6.0","GIJON MUSEL, SP","FM-12","99999","V020","040,1,N,0031,1","03600,1,9,N","030000,1,N,1","+0174,1","+0063,1","10193,1","06,0000,9,1",,,,,,,"06,99,1,04,1,08,1,00800,1,03,1,00,1",,,,,"99999,9,10185,1","7,1,003,1,+999,9",,"SYN082AAXX  17124 08014 12580 60406 10174 20063 30185 40193 57003 60001 84830 333 92438;","Q01  00002PRCP06"
"08014099999","2010-06-17T15:00:00","4","43.5666666","-5.7","6.0","GIJON MUSEL, SP","FM-12","99999","V020","050,1,N,0036,1","22000,1,9,N","030000,1,N,1","+0178,1","+0084,1","10185,1",,,,,,,,"04,99,1,03,1,02,1,00800,1,03,1,00,1",,,,,"99999,9,10177,1","7,1,008,1,+999,9",,"SYN076AAXX  17154 08014 42580 40507 10178 20084 30177 40185 57008 83230 333 92438;",
"08014099999","2010-06-17T18:00:00","4","43.5666666","-5.7","6.0","GIJON MUSEL, SP","FM-12","99999","V020","020,1,N,0026,1","22000,1,9,N","030000,1,N,1","+0174,1","+0093,1","10181,1","12,0000,9,1",,,,,,,"01,99,1,01,1,00,1,01250,1,07,1,00,1",,,,"120,M,+0181,1","99999,9,10173,1","7,1,004,1,+999,9",,"SYN088AAXX  17184 08014 12680 10205 10174 20093 30173 40181 57004 60002 81070 333 10181 92428;","Q01  00002PRCP12"
"08014099999","2010-06-18T06:00:00","4","43.5666666","-5.7","6.0","GIJON MUSEL, SP","FM-12","99999","V020","200,1,N,0026,1","00750,1,9,N","010000,1,N,1","+0130,1","+0094,1","10182,1","12,0000,9,1","24,0000,9,1",,,,,,"06,99,1,06,1,05,1,00800,1,00,1,00,1","0414,9","09,9","999,+0110,9","999,N,+0125,1","99999,9,10174,1","6,1,003,1,+999,9",,"SYN106AAXX  18064 08014 12560 62005 10130 20094 30174 40182 56003 60002 86500 333 20125 31011 50374 55069 70000;","Q01  00002PRCP24Q02  00002PRCP12"
"08014099999","2010-06-18T09:00:00","4","43.5666666","-5.7","6.0","GIJON MUSEL, SP","FM-12","99999","V020","120,1,N,0010,1","00750,1,9,N","010000,1,N,1","+0164,1","+0111,1","10189,1",,,,,,,,"06,99,1,06,1,06,1,00800,1,00,1,00,1",,,,,"99999,9,10181,1","1,1,007,1,+999,9",,"SYN076AAXX  18094 08014 42560 61202 10164 20111 30181 40189 51007 86600 333 92437;",
"08014099999","2010-06-18T12:00:00","4","43.5666666","-5.7","6.0","GIJON MUSEL, SP","FM-12","99999","V020","020,1,N,0026,1","22000,1,9,N","008000,1,N,1","+0180,1","+0109,1","10191,1","06,0000,9,1",,,"1,1,06,1","1,1,06,1",,,"03,99,1,03,1,06,1,00800,1,00,1,00,1",,,,,"99999,9,10183,1","1,1,002,1,+999,9","05,1","SYN088AAXX  18124 08014 11558 30205 10180 20109 30183 40191 51002 60001 70511 83600 333 92437;","Q01  00002PRCP06"
"08014099999","2010-06-18T15:00:00","4","43.5666666","-5.7","6.0","GIJON MUSEL, SP","FM-12","99999","V020","030,1,N,0026,1","22000,1,9,N","020000,1,N,1","+0182,1","+0117,1","10191,1",,,,,,,,"03,99,1,03,1,08,1,00800,1,00,1,00,1",,,,,"99999,9,10183,1","0,1,000,1,+999,9",,"SYN076AAXX  18154 08014 42570 30305 10182 20117 30183 40191 50000 83800 333 92437;",
"08014099999","2010-06-18T18:00:00","4","43.5666666","-5.7","6.0","GIJON MUSEL, SP","FM-12","99999","V020","020,1,N,0015,1","22000,1,9,N","015000,1,N,1","+0180,1","+0127,1","10188,1","12,0000,9,1",,,,,,,"03,99,1,03,1,08,1,00800,1,06,1,00,1",,,,"120,M,+0190,1","99999,9,10180,1","6,1,003,1,+999,9",,"SYN088AAXX  18184 08014 12565 30203 10180 20127 30180 40188 56003 60002 83860 333 10190 92437;","Q01  00002PRCP12"
"08014099999","2010-06-19T06:00:00","4","43.5666666","-5.7","6.0","GIJON MUSEL, SP","FM-12","99999","V020","190,1,N,0021,1","22000,1,9,N","008000,1,N,1","+0150,1","+0125,1","10188,1","12,0000,9,1","24,0000,9,1",,"0,1,06,1","0,1,06,1",,,"03,99,1,03,1,02,1,00800,1,06,1,00,1","0534,9","09,9","999,+0120,9","999,N,+0140,1","99999,9,10180,1","1,1,006,1,+999,9","10,1","SYN112AAXX  19064 08014 11558 31904 10150 20125 30180 40188 51006 60002 71000 83260 333 20140 31012 50444 55089 70000;","Q01  00002PRCP24Q02  00002PRCP12"
"08014099999","2010-06-19T09:00:00","4","43.5666666","-5.7","6.0","GIJON MUSEL, SP","FM-12","99999","V020","230,1,N,0026,1","00750,1,9,N","015000,1,N,1","+0180,1","+0118,1","10195,1",,,,,,,,"06,99,1,06,1,02,1,00800,1,06,1,00,1",,,,,"99999,9,10187,1","1,1,007,1,+999,9",,"SYN076AAXX  19094 08014 42565 62305 10180 20118 30187 40195 51007 86260 333 92437;",
"08014099999","2010-06-19T12:00:00","4","43.5666666","-5.7","6.0","GIJON MUSEL, SP","FM-12","99999","V020","999,9,C,0000,1","01500,1,9,N","020000,1,N,1","+0188,1","+0132,1","10196,1","06,0000,9,1",,,,,,,"07,99,1,06,1,08,1,01250,1,07,1,00,1",,,,,"99999,9,10188,1","1,1,001,1,+999,9",,"SYN082AAXX  19124 08014 12670 70000 10188 20132 30188 40196 51001 60001 86870 333 92437;","Q01  00002PRCP06"
"08014099999","2010-06-19T15:00:00","4","43.5666666","-5.7","6.0","GIJON MUSEL, SP","FM-12","99999","V020","030,1,N,0041,1","01200,1,9,N","015000,1,N,1","+0178,1","+0131,1","10198,1",,,,,,,,"07,99,1,07,1,08,1,00800,1,06,1,00,1",,,,,"99999,9,10190,1","1,1,002,1,+999,9",,"SYN076AAXX  19154 08014 42565 70308 10178 20131 30190 40198 51002 87860 333 92437;",
"08014099999","2010-06-19T18:00:00","4","43.5666666","-5.7","6.0","GIJON MUSEL, SP","FM-12","99999","V020","280,1,N,0010,1","03600,1,9,N","020000,1,N,1","+0182,1","+0129,1","10189,1","12,0000,9,1",,,,,,,"08,99,1,03,1,07,1,00800,1,07,1,99,9",,,,"120,M,+0190,1","99999,9,10181,1","6,1,009,1,+999,9",,"SYN088AAXX  19184 08014 12570 82802 10182 20129 30181 40189 56009 60002 8377/ 333 10190 92437;","Q01  00002PRCP12"
"08014099999","2010-06-20T06:00:00","4","43.5666666","-5.7","6.0","GIJON MUSEL, SP","FM-12","99999","V020","030,1,N,0021,1","22000,1,9,N","020000,1,N,1","+0166,1","+0117,1","10193,1","12,0005,9,1","24,0005,9,1",,,,"02,1,+00780,1,09,1",,"04,99,1,03,1,03,1,00800,1,06,1,00,1","0210,9","09,9","999,+0140,9","999,N,+0156,1","99999,9,10185,1","3,1,010,1,+999,9",,"SYN112AAXX  20064 08014 12570 40304 10166 20117 30185 40193 53010 69942 83360 333 20156 31014 50304 55035 70004 82926;",
"08014099999","2010-06-20T09:00:00","4","43.5666666","-5.7","6.0","GIJON MUSEL, SP","FM-12","99999","V020","070,1,N,0021,1","03600,1,9,N","020000,1,N,1","+0176,1","+0125,1","10202,1",,,,,,,,"05,99,1,04,1,02,1,00800,1,06,1,00,1",,,,,"99999,9,10194,1","3,1,009,1,+999,9",,"SYN076AAXX  20094 08014 42570 50704 10176 20125 30194 40202 53009 84260 333 92437;",
"08014099999","2010-06-20T12:00:00","4","43.5666666","-5.7","6.0","GIJON MUSEL, SP","FM-12","99999","V020","070,1,N,0026,1","22000,1,9,N","030000,1,N,1","+0196,1","+0109,1","10208,1","06,0000,9,1",,,,,,,"01,99,1,01,1,01,1,01250,1,00,1,00,1",,,,,"99999,9,10200,1","1,1,006,1,+999,9",,"SYN082AAXX  20124 08014 12680 10705 10196 20109 30200 40208 51006 60001 81100 333 92438;","Q01  00002PRCP06"
"08014099999","2010-06-20T15:00:00","4","43.5666666","-5.7","6.0","GIJON MUSEL, SP","FM-12","99999","V020","080,1,N,0031,1","22000,1,9,N","030000,1,N,1","+0192,1","+0097,1","10211,1",,,,,,,,"01,99,1,01,1,01,1,01250,1,00,1,00,1",,,,,"99999,9,10203,1","3,1,003,1,+999,9",,"SYN076AAXX  20154 08014 42680 10806 10192 20097 30203 40211 53003 81100 333 92448;",
"08014099999","2010-06-20T18:00:00","4","43.5666666","-5.7","6.0","GIJON MUSEL, SP","FM-12","99999","V020","080,1,N,0036,1","22000,1,9,N","030000,1,N,1","+0186,1","+0099,1","10218,1","12,0000,9,1",,,,,,,"01,99,1,01,1,01,1,01250,1,00,1,00,1",,,,"120,M,+0202,1","99999,9,10210,1","1,1,007,1,+999,9",,"SYN088AAXX  20184 08014 12680 10807 10186 20099 30210 40218 51007 60002 81100 333 10202 92448;","Q01  00002PRCP12"
"08014099999","2010-06-21T06:00:00","4","43.5666666","-5.7","6.0","GIJON MUSEL, SP","FM-12","99999","V020","090,1,N,0010,1","22000,1,9,N","030000,1,N,1","+0144,1","+0084,1","10215,1","12,0000,9,1","24,0000,9,1",,,,,,"01,99,1,01,1,01,1,01250,1,00,1,00,1","0732,9","09,9","999,+0100,9","999,N,+0130,1","99999,9,10207,1","5,1,000,1,+999,9",,"SYN106AAXX  21064 08014 12680 10902 10144 20084 30207 40215 55000 60002 81100 333 20130 31010 50464 55122 70000;","Q01  00002PRCP24Q02  00002PRCP12"
"08014099999","2010-06-21T12:00:00","4","43.5666666","-5.7","6.0","GIJON MUSEL, SP","FM-12","99999","V020","080,1,N,0046,1","22000,1,9,N","030000,1,N,1","+0186,1","+0109,1","10214,1","06,0000,9,1",,,,,,,"01,99,1,01,1,01,1,01250,1,00,1,00,1",,,,,"99999,9,10206,1","4,1,000,1,+999,9",,"SYN082AAXX  21124 08014 12680 10809 10186 20109 30206 40214 54000 60001 81100 333 92448;","Q01  00002PRCP06"
"08014099999","2010-06-21T15:00:00","4","43.5666666","-5.7","6.0","GIJON MUSEL, SP","FM-12","99999","V020","080,1,N,0051,1","22000,1,9,N","030000,1,N,1","+0192,1","+0113,1","10209,1",,,,,,,,"01,99,1,01,1,01,1,01250,1,00,1,00,1",,,,,"99999,9,10201,1","6,1,005,1,+999,9",,"SYN076AAXX  21154 08014 42680 10810 10192 20113 30201 40209 56005 81100 333 92448;",
"08014099999","2010-06-21T18:00:00","4","43.5666666","-5.7","6.0","GIJON MUSEL, SP","FM-12","99999","V020","080,1,N,0046,1","22000,1,9,N","030000,1,N,1","+0188,1","+0123,1","10210,1","12,0000,9,1",,,,,,,"01,99,1,01,1,04,1,01250,1,00,1,00,1",,,,"120,M,+0198,1","99999,9,10202,1","3,1,001,1,+999,9",,"SYN088AAXX  21184 08014 12680 10809 10188 20123 30202 40210 53001 60002 81400 333 10198 92448;","Q01  00002PRCP12"
"08014099999","2010-06-22T06:00:00","4","43.5666666","-5.7","6.0","GIJON MUSEL, SP","FM-12","99999","V020","120,1,N,0015,1","22000,1,9,N","030000,1,N,1","+0158,1","+0092,1","10207,1","12,0000,9,1","24,0000,9,1",,,,"00,1,+99999,9,99,9",,"00,99,1,00,1,00,1,99999,9,00,1,00,1","0840,9","01,9","999,+0120,9","999,N,+0146,1","99999,9,10199,1","3,1,003,1,+999,9","02,1","SYN106AAXX  22064 08014 11980 01203 10158 20092 30199 40207 53003 60002 702// 333 20146 30012 50434 55140 70000;","Q01  00002PRCP24Q02  00002PRCP12"
"08014099999","2010-06-22T09:00:00","4","43.5666666","-5.7","6.0","GIJON MUSEL, SP","FM-12","99999","V020","080,1,N,0046,1","22000,1,9,N","030000,1,N,1","+0184,1","+0110,1","10207,1",,,,,,,,"01,99,1,01,1,00,1,00800,1,03,1,01,1",,,,,"99999,9,10199,1","4,1,000,1,+999,9",,"SYN076AAXX  22094 08014 42580 10809 10184 20110 30199 40207 54000 81031 333 92438;",
"08014099999","2010-06-22T12:00:00","4","43.5666666","-5.7","6.0","GIJON MUSEL, SP","FM-12","99999","V020","080,1,N,0036,1","22000,1,9,N","030000,1,N,1","+0198,1","+0135,1","10202,1","06,0000,9,1",,,,,,,"03,99,1,02,1,00,1,01250,1,07,1,01,1",,,,,"99999,9,10194,1","7,1,005,1,+999,9",,"SYN082AAXX  22124 08014 12680 30807 10198 20135 30194 40202 57005 60001 82071 333 92438;","Q01  00002PRCP06"
"08014099999","2010-06-22T15:00:00","4","43.5666666","-5.7","6.0","GIJON MUSEL, SP","FM-12","99999","V020","080,1,N,0046,1","22000,1,9,N","030000,1,N,1","+0202,1","+0132,1","10195,1",,,,,,,,"04,99,1,01,1,02,1,00800,1,07,1,01,1",,,,,"99999,9,10187,1","7,1,007,1,+999,9",,"SYN076AAXX  22154 08014 42580 40809 10202 20132 30187 40195 57007 81271 333 92448;",
"08014099999","2010-06-22T18:00:00","4","43.5666666","-5.7","6.0","GIJON MUSEL, SP","FM-12","99999","V020","080,1,N,0036,1","22000,1,9,N","030000,1,N,1","+0188,1","+0123,1","10195,1","12,0000,9,1",,,,,,,"04,99,1,02,1,00,1,01250,1,07,1,01,1",,,,"120,M,+0205,1","99999,9,10187,1","4,1,000,1,+999,9",,"SYN088AAXX  22184 08014 12680 40807 10188 20123 30187 40195 54000 60002 82071 333 10205 92448;","Q01  00002PRCP12"
"08014099999","2010-06-23T06:00:00","4","43.5666666","-5.7","6.0","GIJON MUSEL, SP","FM-12","99999","V020","999,9,C,0000,1","22000,1,9,N","030000,1,N,1","+0158,1","+0114,1","10187,1","12,0000,9,1","24,0000,9,1",,,,"00,1,+99999,9,99,9",,"00,99,1,00,1,00,1,99999,9,00,1,00,1","0816,9","01,9","999,+0110,9","999,N,+0142,1","99999,9,10179,1","4,1,000,1,+999,9","02,1","SYN106AAXX  23064 08014 11980 00000 10158 20114 30179 40187 54000 60002 702// 333 20142 30011 50404 55136 70000;","Q01  00002PRCP24Q02  00002PRCP12"
"08014099999","2010-06-23T09:00:00","4","43.5666666","-5.7","6.0","GIJON MUSEL, SP","FM-12","99999","V020","080,1,N,0026,1","22000,1,9,N","020000,1,N,1","+0188,1","+0116,1","10186,1",,,,,,,,"01,99,1,01,1,00,1,01250,1,07,1,00,1",,,,,"99999,9,10178,1","7,1,001,1,+999,9",,"SYN076AAXX  23094 08014 42670 10805 10188 20116 30178 40186 57001 81070 333 92428;",
"08014099999","2010-06-23T12:00:00","4","43.5666666","-5.7","6.0","GIJON MUSEL, SP","FM-12","99999","V020","070,1,N,0036,1","22000,1,9,N","015000,1,N,1","+0198,1","+0154,1","10183,1","06,0000,9,1",,,,,,,"03,99,1,02,1,00,1,01250,1,07,1,01,1",,,,,"99999,9,10175,1","7,1,003,1,+999,9",,"SYN082AAXX  23124 08014 12665 30707 10198 20154 30175 40183 57003 60001 82071 333 92438;","Q01  00002PRCP06"
"08014099999","2010-06-23T15:00:00","4","43.5666666","-5.7","6.0","GIJON MUSEL, SP","FM-12","99999","V020","070,1,N,0031,1","99999,9,9,N","020000,1,N,1","+0204,1","+0160,1","10175,1",,,,,,,,"05,99,1,04,1,00,1,01250,1,05,1,01,1",,,,,"99999,9,10167,1","7,1,008,1,+999,9",,"SYN076AAXX  23154 08014 42670 50706 10204 20160 30167 40175 57008 84051 333 92438;",
"08014099999","2010-06-23T18:00:00","4","43.5666666","-5.7","6.0","GIJON MUSEL, SP","FM-12","99999","V020","080,1,N,0036,1","99999,9,9,N","030000,1,N,1","+0196,1","+0133,1","10166,1","12,0000,9,1",,,,,,,"06,99,1,04,1,00,1,01250,1,05,1,01,1",,,,"120,M,+0205,1","99999,9,10158,1","7,1,009,1,+999,9",,"SYN088AAXX  23184 08014 12680 60807 10196 20133 30158 40166 57009 60002 84051 333 10205 92438;","Q01  00002PRCP12"
"08014099999","2010-06-24T06:00:00","4","43.5666666","-5.7","6.0","GIJON MUSEL, SP","FM-12","99999","V020","999,9,C,0000,1","03600,1,9,N","006000,1,N,1","+0142,1","+0124,1","10166,1","12,0000,9,1","24,0000,9,1",,,,,,"06,99,1,03,1,06,1,00450,1,05,1,00,1","0774,9","09,9","999,+0120,9","999,N,+0136,1","99999,9,10158,1","5,1,000,1,+999,9","10,1","SYN112AAXX  24064 08014 11456 60000 10142 20124 30158 40166 55000 60002 710// 83650 333 20136 31012 50254 55129 70000;","Q01  00002PRCP24Q02  00002PRCP12"
"08014099999","2010-06-24T09:00:00","4","43.5666666","-5.7","6.0","GIJON MUSEL, SP","FM-12","99999","V020","060,1,N,0015,1","00210,1,9,N","000500,1,N,1","+0160,1","+0150,1","10167,1",,,,"4,1,03,1","4,1,03,1",,,"08,99,1,08,1,06,1,00250,1,99,9,99,9",,,,,"99999,9,10159,1","3,1,001,1,+999,9","44,1","SYN082AAXX  24094 08014 41305 80603 10160 20150 30159 40167 53001 74444 886// 333 92426;",
"08014099999","2010-06-24T12:00:00","4","43.5666666","-5.7","6.0","GIJON MUSEL, SP","FM-12","99999","V020","070,1,N,0031,1","22000,1,9,N","010000,1,N,1","+0200,1","+0164,1","10164,1","06,0000,9,1",,,"4,1,06,1","4,1,06,1",,,"01,99,1,01,1,06,1,00450,1,00,1,00,1",,,,,"99999,9,10156,1","7,1,003,1,+999,9","02,1","SYN088AAXX  24124 08014 11460 10706 10200 20164 30156 40164 57003 60001 70244 81600 333 92437;","Q01  00002PRCP06"
"08014099999","2010-06-24T15:00:00","4","43.5666666","-5.7","6.0","GIJON MUSEL, SP","FM-12","99999","V020","060,1,N,0026,1","22000,1,9,N","015000,1,N,1","+0202,1","+0166,1","10159,1",,,,,,,,"02,99,1,01,1,02,1,00800,1,03,1,00,1",,,,,"99999,9,10151,1","7,1,005,1,+999,9",,"SYN076AAXX  24154 08014 42565 20605 10202 20166 30151 40159 57005 81230 333 92438;",
"08014099999","2010-06-24T18:00:00","4","43.5666666","-5.7","6.0","GIJON MUSEL, SP","FM-12","99999","V020","060,1,N,0031,1","22000,1,9,N","020000,1,N,1","+0204,1","+0168,1","10152,1","12,0000,9,1",,,,,,,"04,99,1,01,1,04,1,00800,1,03,1,00,1",,,,"120,M,+0212,1","99999,9,10144,1","7,1,007,1,+999,9",,"SYN088AAXX  24184 08014 12570 40606 10204 20168 30144 40152 57007 60002 81430 333 10212 92438;","Q01  00002PRCP12"
"08014099999","2010-06-25T06:00:00","4","43.5666666","-5.7","6.0","GIJON MUSEL, SP","FM-12","99999","V020","999,9,C,0000,1","03600,1,9,N","008000,1,N,1","+0171,1","+0153,1","10143,1","12,0000,9,1","24,0000,9,1",,,,,,"05,99,1,03,1,08,1,00800,1,07,1,00,1","0696,9","09,9","999,+0150,9","999,N,+0165,1","99999,9,10135,1","7,1,004,1,+999,9","10,1","SYN112AAXX  25064 08014 11558 50000 10171 20153 30135 40143 57004 60002 710// 83870 333 20165 31015 50244 55116 70000;","Q01  00002PRCP24Q02  00002PRCP12"
"08014099999","2010-06-25T09:00:00","4","43.5666666","-5.7","6.0","GIJON MUSEL, SP","FM-12","99999","V020","050,1,N,0021,1","22000,1,9,N","004000,1,N,1","+0182,1","+0151,1","10146,1",,,,"1,1,03,1","1,1,03,1",,,"04,99,1,03,1,04,1,00800,1,03,1,00,1",,,,,"99999,9,10138,1","3,1,003,1,+999,9","10,1","SYN082AAXX  25094 08014 41540 40504 10182 20151 30138 40146 53003 71011 83430 333 92435;",
"08014099999","2010-06-25T12:00:00","4","43.5666666","-5.7","6.0","GIJON MUSEL, SP","FM-12","99999","V020","050,1,N,0010,1","00210,1,9,N","003000,1,N,1","+0183,1","+0165,1","10146,1","06,0000,9,1",,,"4,1,06,1","4,1,06,1",,,"08,99,1,08,1,06,1,00250,1,99,9,99,9",,,,,"99999,9,10138,1","4,1,000,1,+999,9","11,1","SYN088AAXX  25124 08014 11330 80502 10183 20165 30138 40146 54000 60001 71144 886// 333 92434;","Q01  00002PRCP06"
"08014099999","2010-06-25T15:00:00","4","43.5666666","-5.7","6.0","GIJON MUSEL, SP","FM-12","99999","V020","040,1,N,0026,1","03600,1,9,N","000500,1,N,1","+0197,1","+0165,1","10138,1",,,,"4,1,03,1","4,1,03,1",,,"06,99,1,04,1,06,1,00800,1,03,1,00,1",,,,,"99999,9,10130,1","8,1,008,1,+999,9","11,1","SYN082AAXX  25154 08014 41505 60405 10197 20165 30130 40138 58008 71144 84630 333 92422;",
"08014099999","2010-06-25T18:00:00","4","43.5666666","-5.7","6.0","GIJON MUSEL, SP","FM-12","99999","V020","050,1,N,0010,1","03600,1,9,N","002000,1,N,1","+0190,1","+0171,1","10132,1","12,0000,9,1",,,"2,1,06,1","2,1,06,1",,,"08,99,1,04,1,06,1,01250,1,01,1,99,9",,,,"120,M,+0201,1","99999,9,10124,1","7,1,006,1,+999,9","10,1","SYN094AAXX  25184 08014 11620 80502 10190 20171 30124 40132 57006 60002 71022 8461/ 333 10201 92435;","Q01  00002PRCP12"
"08014099999","2010-06-26T06:00:00","4","43.5666666","-5.7","6.0","GIJON MUSEL, SP","FM-12","99999","V020","260,1,N,0046,1","03600,1,9,N","002500,1,N,1","+0182,1","+0162,1","10137,1","12,0000,9,1","24,0000,9,1",,,,,,"05,99,1,03,1,04,1,00800,1,03,1,09,1","0288,9","01,9","999,+0180,9","999,N,+0180,1","99999,9,10129,1","2,1,002,1,+999,9","10,1","SYN112AAXX  26064 08014 11525 52609 10182 20162 30129 40137 52002 69902 710// 83439 333 20180 30018 50194 55048 79999;","Q01  00002PRCP24Q02  00002PRCP12"
"08014099999","2010-06-26T09:00:00","4","43.5666666","-5.7","6.0","GIJON MUSEL, SP","FM-12","99999","V020","310,1,N,0015,1","03600,1,9,N","002000,1,N,1","+0195,1","+0171,1","10146,1",,,,"2,1,03,1","2,1,03,1",,,"07,99,1,04,1,04,1,00800,1,03,1,00,1",,,,,"99999,9,10138,1","2,1,009,1,+999,9","10,1","SYN082AAXX  26094 08014 41520 73103 10195 20171 30138 40146 52009 71022 84430 333 92425;",
"08014099999","2010-06-26T12:00:00","4","43.5666666","-5.7","6.0","GIJON MUSEL, SP","FM-12","99999","V020","340,1,N,0015,1","03600,1,9,N","003000,1,N,1","+0217,1","+0171,1","10151,1","06,0000,9,1",,,"2,1,06,1","2,1,06,1",,,"06,99,1,04,1,06,1,00800,1,03,1,01,1",,,,,"99999,9,10144,1","2,1,006,1,+999,9","10,1","SYN088AAXX  26124 08014 11530 63403 10217 20171 30144 40151 52006 60001 71022 84631 333 92425;","Q01  00002PRCP06"
"08014099999","2010-06-26T15:00:00","4","43.5666666","-5.7","6.0","GIJON MUSEL, SP","FM-12","99999","V020","280,1,N,0031,1","03600,1,9,N","003000,1,N,1","+0217,1","+0164,1","10149,1",,,,"2,1,03,1","2,1,03,1",,,"08,99,1,04,1,06,1,01250,1,01,1,99,9",,,,,"99999,9,10142,1","8,1,002,1,+999,9","10,1","SYN082AAXX  26154 08014 41630 82806 10217 20164 30142 40149 58002 71022 8461/ 333 92425;",
"08014099999","2010-06-26T18:00:00","4","43.5666666","-5.7","6.0","GIJON MUSEL, SP","FM-12","99999","V020","300,1,N,0015,1","03600,1,9,N","003000,1,N,1","+0200,1","+0166,1","10153,1","12,0000,9,1",,,"2,1,06,1","2,1,06,1",,,"08,99,1,04,1,06,1,01250,1,01,1,99,9",,,,"120,M,+0225,1","99999,9,10145,1","3,1,003,1,+999,9","10,1","SYN094AAXX  26184 08014 11630 83003 10200 20166 30145 40153 53003 60002 71022 8461/ 333 10225 92425;","Q01  00002PRCP12"
"08014099999","2010-06-27T06:00:00","4","43.5666666","-5.7","6.0","GIJON MUSEL, SP","FM-12","99999","V020","240,1,N,0021,1","03600,1,9,N","002000,1,N,1","+0185,1","+0170,1","10174,1","12,0005,9,1","24,0005,9,1",,,,,,"08,99,1,04,1,06,1,00800,1,07,1,99,9","0120,9","11,9","999,+0180,9","999,N,+0185,1","99999,9,10166,1","2,1,005,1,+999,9","51,1","SYN112AAXX  27064 08014 11520 82404 10185 20170 30166 40174 52005 69942 751// 8467/ 333 20185 32018 50284 55020 70004;",
"08014099999","2010-06-27T09:00:00","4","43.5666666","-5.7","6.0","GIJON MUSEL, SP","FM-12","99999","V020","230,1,N,0015,1","03600,1,9,N","004000,1,N,1","+0192,1","+0172,1","10184,1",,,,"5,1,03,1","2,1,03,1",,,"08,99,1,04,1,06,1,00800,1,01,1,99,9",,,,,"99999,9,10176,1","2,1,010,1,+999,9","10,1","SYN082AAXX  27094 08014 41540 82303 10192 20172 30176 40184 52010 71052 8461/ 333 92435;",
"08014099999","2010-06-27T12:00:00","4","43.5666666","-5.7","6.0","GIJON MUSEL, SP","FM-12","99999","V020","020,1,N,0021,1","22000,1,9,N","004000,1,N,1","+0202,1","+0176,1","10190,1","06,0008,9,1",,,"5,1,06,1","2,1,06,1",,,"05,99,1,02,1,06,1,00800,1,04,1,09,1",,,,,"99999,9,10182,1","2,1,006,1,+999,9","10,1","SYN088AAXX  27124 08014 11540 50204 10202 20176 30182 40190 52006 69981 71052 82649 333 92435;",
"08014099999","2010-06-27T15:00:00","4","43.5666666","-5.7","6.0","GIJON MUSEL, SP","FM-12","99999","V020","060,1,N,0021,1","03600,1,9,N","010000,1,N,1","+0210,1","+0178,1","10193,1",,,,,,,,"07,99,1,04,1,06,1,00800,1,01,1,00,1",,,,,"99999,9,10185,1","2,1,003,1,+999,9",,"SYN076AAXX  27154 08014 42560 70604 10210 20178 30185 40193 52003 84610 333 92436;",
"08014099999","2010-06-27T18:00:00","4","43.5666666","-5.7","6.0","GIJON MUSEL, SP","FM-12","99999","V020","050,1,N,0021,1","03600,1,9,N","010000,1,N,1","+0206,1","+0176,1","10191,1","12,0010,9,1",,,,,,,"06,99,1,04,1,06,1,00800,1,01,1,01,1",,,,"120,M,+0220,1","99999,9,10183,1","8,1,002,1,+999,9",,"SYN088AAXX  27184 08014 12560 60504 10206 20176 30183 40191 58002 60012 84611 333 10220 92436;",
"08014099999","2010-06-28T06:00:00","4","43.5666666","-5.7","6.0","GIJON MUSEL, SP","FM-12","99999","V020","190,1,N,0021,1","03600,1,9,N","008000,1,N,1","+0174,1","+0154,1","10212,1","12,0000,9,1","24,0000,2,1",,,,,,"05,99,1,03,1,01,1,00800,1,03,1,01,1","0240,9","01,9","999,+0160,9","999,N,+0173,1","99999,9,10204,1","2,1,003,1,+999,9","10,1","SYN112AAXX  28064 08014 11558 51904 10174 20154 30204 40212 52003 60002 710// 83131 333 20173 30016 50194 55040 70000;","Q01  00002PRCP12"
"08014099999","2010-06-28T09:00:00","4","43.5666666","-5.7","6.0","GIJON MUSEL, SP","FM-12","99999","V020","090,1,N,0015,1","22000,1,9,N","010000,1,N,1","+0210,1","+0160,1","10216,1",,,,,,"00,1,+99999,9,99,9",,"00,99,1,00,1,00,1,99999,9,00,1,00,1",,,,,"99999,9,10208,1","2,1,004,1,+999,9",,"SYN070AAXX  28094 08014 42960 00903 10210 20160 30208 40216 52004 333 92436;",
"08014099999","2010-06-28T12:00:00","4","43.5666666","-5.7","6.0","GIJON MUSEL, SP","FM-12","99999","V020","050,1,N,0026,1","22000,1,9,N","015000,1,N,1","+0211,1","+0165,1","10217,1","06,0000,9,1",,,,,"00,1,+99999,9,99,9",,"00,99,1,00,1,00,1,99999,9,00,1,00,1",,,,,"99999,9,10209,1","2,1,001,1,+999,9",,"SYN076AAXX  28124 08014 12965 00505 10211 20165 30209 40217 52001 60001 333 92437;","Q01  00002PRCP06"
"08014099999","2010-06-28T15:00:00","4","43.5666666","-5.7","6.0","GIJON MUSEL, SP","FM-12","99999","V020","040,1,N,0031,1","22000,1,9,N","015000,1,N,1","+0212,1","+0172,1","10215,1",,,,,,"00,1,+99999,9,99,9",,"00,99,1,00,1,00,1,99999,9,00,1,00,1",,,,,"99999,9,10207,1","8,1,002,1,+999,9",,"SYN070AAXX  28154 08014 42965 00406 10212 20172 30207 40215 58002 333 92437;",
"08014099999","2010-06-28T18:00:00","4","43.5666666","-5.7","6.0","GIJON MUSEL, SP","FM-12","99999","V020","050,1,N,0021,1","22000,1,9,N","015000,1,N,1","+0208,1","+0168,1","10211,1","12,0000,9,1",,,,,"00,1,+99999,9,99,9",,"00,99,1,00,1,00,1,99999,9,00,1,00,1",,,,"120,M,+0220,1","99999,9,10203,1","7,1,004,1,+999,9",,"SYN082AAXX  28184 08014 12965 00504 10208 20168 30203 40211 57004 60002 333 10220 92437;","Q01  00002PRCP12"
"08014099999","2010-06-29T06:00:00","4","43.5666666","-5.7","6.0","GIJON MUSEL, SP","FM-12","99999","V020","999,9,C,0000,1","00750,1,9,N","010000,1,N,1","+0184,1","+0153,1","10214,1","12,0000,9,1","24,0000,9,1",,,,,,"08,99,1,06,1,06,1,00800,1,07,1,99,9","0738,9","01,9","999,+0160,9","999,N,+0160,1","99999,9,10206,1","4,1,000,1,+999,9","02,1","SYN112AAXX  29064 08014 11560 80000 10184 20153 30206 40214 54000 60002 702// 8667/ 333 20160 30016 50294 55123 70000;","Q01  00002PRCP24Q02  00002PRCP12"
"08014099999","2010-06-29T09:00:00","4","43.5666666","-5.7","6.0","GIJON MUSEL, SP","FM-12","99999","V020","120,1,N,0010,1","00750,1,9,N","010000,1,N,1","+0193,1","+0154,1","10228,1",,,,,,,,"08,99,1,06,1,06,1,00800,1,07,1,99,9",,,,,"99999,9,10220,1","2,1,014,1,+999,9",,"SYN076AAXX  29094 08014 42560 81202 10193 20154 30220 40228 52014 8667/ 333 92437;",
"08014099999","2010-06-29T12:00:00","4","43.5666666","-5.7","6.0","GIJON MUSEL, SP","FM-12","99999","V020","060,1,N,0021,1","22000,1,9,N","010000,1,N,1","+0214,1","+0153,1","10225,1","06,0000,9,1",,,,,"00,1,+99999,9,99,9",,"00,99,1,00,1,00,1,99999,9,00,1,00,1",,,,,"99999,9,10217,1","8,1,003,1,+999,9",,"SYN076AAXX  29124 08014 12960 00604 10214 20153 30217 40225 58003 60001 333 92437;","Q01  00002PRCP06"
"08014099999","2010-06-29T15:00:00","4","43.5666666","-5.7","6.0","GIJON MUSEL, SP","FM-12","99999","V020","090,1,N,0026,1","22000,1,9,N","015000,1,N,1","+0218,1","+0154,1","10223,1",,,,,,"00,1,+99999,9,99,9",,"00,99,1,00,1,00,1,99999,9,00,1,00,1",,,,,"99999,9,10215,1","7,1,002,1,+999,9",,"SYN070AAXX  29154 08014 42965 00905 10218 20154 30215 40223 57002 333 92427;",
"08014099999","2010-06-29T18:00:00","4","43.5666666","-5.7","6.0","GIJON MUSEL, SP","FM-12","99999","V020","050,1,N,0015,1","22000,1,9,N","015000,1,N,1","+0210,1","+0164,1","10219,1","12,0000,9,1",,,,,,,"02,99,1,01,1,01,1,00800,1,03,1,00,1",,,,"120,M,+0225,1","99999,9,10211,1","7,1,004,1,+999,9",,"SYN088AAXX  29184 08014 12565 20503 10210 20164 30211 40219 57004 60002 81130 333 10225 92427;","Q01  00002PRCP12"
"08014099999","2010-06-30T06:00:00","4","43.5666666","-5.7","6.0","GIJON MUSEL, SP","FM-12","99999","V020","090,1,N,0015,1","00420,1,9,N","008000,1,N,1","+0184,1","+0160,1","10209,1","12,0000,9,1","24,0000,9,1",,,,,,"08,99,1,08,1,06,1,00450,1,99,9,99,9","0510,9","01,9","999,+0140,9","999,N,+0175,1","99999,9,10201,1","6,1,002,1,+999,9","10,1","SYN112AAXX  30064 08014 11458 80903 10184 20160 30201 40209 56002 60002 710// 886// 333 20175 30014 50324 55085 70000;","Q01  00002PRCP24Q02  00002PRCP12"
"08014099999","2010-06-30T09:00:00","4","43.5666666","-5.7","6.0","GIJON MUSEL, SP","FM-12","99999","V020","100,1,N,0015,1","00750,1,9,N","010000,1,N,1","+0202,1","+0158,1","10207,1",,,,,,,,"07,99,1,07,1,05,1,00800,1,00,1,00,1",,,,,"99999,9,10199,1","8,1,002,1,+999,9",,"SYN076AAXX  30094 08014 42560 71003 10202 20158 30199 40207 58002 87500 333 92426;",
"08014099999","2010-06-30T12:00:00","4","43.5666666","-5.7","6.0","GIJON MUSEL, SP","FM-12","99999","V020","070,1,N,0021,1","00750,1,9,N","008000,1,N,1","+0222,1","+0167,1","10202,1","06,0000,9,1",,,"2,1,06,1","2,1,06,1",,,"06,99,1,06,1,06,1,00800,1,00,1,00,1",,,,,"99999,9,10195,1","8,1,004,1,+999,9","05,1","SYN088AAXX  30124 08014 11558 60704 10222 20167 30195 40202 58004 60001 70522 86600 333 92426;","Q01  00002PRCP06"
"08014099999","2010-06-30T15:00:00","4","43.5666666","-5.7","6.0","GIJON MUSEL, SP","FM-12","99999","V020","070,1,N,0021,1","22000,1,9,N","008000,1,N,1","+0230,1","+0172,1","10187,1",,,,"1,1,03,1","1,1,03,1",,,"01,99,1,01,1,01,1,01250,1,00,1,00,1",,,,,"99999,9,10180,1","8,1,015,1,+999,9","05,1","SYN082AAXX  30154 08014 41658 10704 10230 20172 30180 40187 58015 70511 81100 333 92436;",
"08014099999","2010-06-30T18:00:00","4","43.5666666","-5.7","6.0","GIJON MUSEL, SP","FM-12","99999","V020","040,1,N,0026,1","22000,1,9,N","008000,1,N,1","+0220,1","+0172,1","10179,1","12,0000,9,1",,,"0,1,06,1","0,1,06,1","00,1,+99999,9,99,9",,"00,99,1,00,1,00,1,99999,9,00,1,00,1",,,,"120,M,+0234,1","99999,9,10172,1","6,1,008,1,+999,9","05,1","SYN088AAXX  30184 08014 11958 00405 10220 20172 30172 40179 56008 60002 70500 333 10234 92436;","Q01  00002PRCP12"
"08014099999","2010-07-01T06:00:00","4","43.5666666","-5.7","6.0","GIJON MUSEL, SP","FM-12","99999","V020","220,1,N,0021,1","00420,1,9,N","006000,1,N,1","+0186,1","+0169,1","10159,1","12,0000,9,1","24,0000,9,1",,,,,,"08,99,1,08,1,06,1,00450,1,99,9,99,9","0450,9","01,9","999,+0160,9","999,N,+0175,1","99999,9,10151,1","1,1,003,1,+999,9","10,1","SYN112AAXX  01064 08014 11456 82204 10186 20169 30151 40159 51003 60002 710// 886// 333 20175 30016 50344 55075 70000;","Q01  00002PRCP24Q02  00002PRCP12"
"08014099999","2010-07-01T09:00:00","4","43.5666666","-5.7","6.0","GIJON MUSEL, SP","FM-12","99999","V020","030,1,N,0010,1","00420,1,9,N","006000,1,N,1","+0194,1","+0172,1","10158,1",,,,"2,1,03,1","2,1,03,1",,,"08,99,1,08,1,06,1,00450,1,99,9,99,9",,,,,"99999,9,10150,1","8,1,001,1,+999,9","10,1","SYN082AAXX  01094 08014 41456 80302 10194 20172 30150 40158 58001 71022 886// 333 92426;",
"08014099999","2010-07-01T12:00:00","4","43.5666666","-5.7","6.0","GIJON MUSEL, SP","FM-12","99999","V020","010,1,N,0026,1","00420,1,9,N","006000,1,N,1","+0200,1","+0170,1","10152,1","06,0000,9,1",,,"2,1,06,1","2,1,06,1",,,"07,99,1,07,1,06,1,00450,1,00,1,00,1",,,,,"99999,9,10144,1","8,1,006,1,+999,9","10,1","SYN088AAXX  01124 08014 11456 70105 10200 20170 30144 40152 58006 60001 71022 87600 333 92426;","Q01  00002PRCP06"
"08014099999","2010-07-01T15:00:00","4","43.5666666","-5.7","6.0","GIJON MUSEL, SP","FM-12","99999","V020","030,1,N,0021,1","22000,1,9,N","008000,1,N,1","+0212,1","+0166,1","10140,1",,,,"1,1,03,1","1,1,03,1",,,"03,99,1,00,1,00,1,99999,9,00,1,02,1",,,,,"99999,9,10133,1","8,1,011,1,+999,9","05,1","SYN082AAXX  01154 08014 41958 30304 10212 20166 30133 40140 58011 70511 80002 333 92426;",
"08014099999","2010-07-01T18:00:00","4","43.5666666","-5.7","6.0","GIJON MUSEL, SP","FM-12","99999","V020","050,1,N,0015,1","22000,1,9,N","008000,1,N,1","+0210,1","+0164,1","10133,1","12,0000,9,1",,,"1,1,06,1","1,1,06,1",,,"03,99,1,01,1,00,1,01750,1,04,1,01,1",,,,"120,M,+0220,1","99999,9,10126,1","6,1,007,1,+999,9","05,1","SYN094AAXX  01184 08014 11758 30503 10210 20164 30126 40133 56007 60002 70511 81041 333 10220 92426;","Q01  00002PRCP12"
"08014099999","2010-07-02T06:00:00","4","43.5666666","-5.7","6.0","GIJON MUSEL, SP","FM-12","99999","V020","180,1,N,0015,1","22000,1,9,N","015000,1,N,1","+0180,1","+0137,1","10126,1","12,0000,9,1","24,0000,9,1",,,,,,"04,99,1,02,1,00,1,01750,1,04,1,02,1","0456,9","01,9","999,+0150,9","999,N,+0170,1","99999,9,10118,1","5,1,000,1,+999,9",,"SYN106AAXX  02064 08014 12765 41803 10180 20137 30118 40126 55000 60002 82042 333 20170 30015 50254 55076 70000;","Q01  00002PRCP24Q02  00002PRCP12"
"08014099999","2010-07-02T09:00:00","4","43.5666666","-5.7","6.0","GIJON MUSEL, SP","FM-12","99999","V020","050,1,N,0015,1","01500,1,9,N","010000,1,N,1","+0210,1","+0168,1","10140,1",,,,,,,,"06,99,1,05,1,00,1,01750,1,07,1,02,1",,,,,"99999,9,10133,1","3,1,015,1,+999,9",,"SYN076AAXX  02094 08014 42760 60503 10210 20168 30133 40140 53015 85072 333 92426;",
"08014099999","2010-07-02T12:00:00","4","43.5666666","-5.7","6.0","GIJON MUSEL, SP","FM-12","99999","V020","100,1,N,0015,1","03600,1,9,N","010000,1,N,1","+0212,1","+0176,1","10150,1","06,0000,9,1",,,,,,,"08,99,1,02,1,05,1,01250,1,01,1,99,9",,,,,"99999,9,10143,1","1,1,010,1,+999,9",,"SYN082AAXX  02124 08014 12660 81003 10212 20176 30143 40150 51010 60001 8251/ 333 92427;","Q01  00002PRCP06"
"08014099999","2010-07-02T15:00:00","4","43.5666666","-5.7","6.0","GIJON MUSEL, SP","FM-12","99999","V020","040,1,N,0031,1","03600,1,9,N","015000,1,N,1","+0212,1","+0166,1","10159,1",,,,,,,,"08,99,1,04,1,07,1,01250,1,07,1,99,9",,,,,"99999,9,10152,1","3,1,009,1,+999,9",,"SYN076AAXX  02154 08014 42665 80406 10212 20166 30152 40159 53009 8477/ 333 92437;",
"08014099999","2010-07-02T18:00:00","4","43.5666666","-5.7","6.0","GIJON MUSEL, SP","FM-12","99999","V020","030,1,N,0026,1","01500,1,9,N","020000,1,N,1","+0200,1","+0164,1","10166,1","12,0000,9,1",,,"8,1,06,1","2,1,06,1",,,"07,99,1,07,1,08,1,01250,1,07,1,00,1",,,,"120,M,+0224,1","99999,9,10158,1","1,1,006,1,+999,9","02,1","SYN094AAXX  02184 08014 11670 70305 10200 20164 30158 40166 51006 69902 70282 87870 333 10224 92437;","Q01  00002PRCP12"
"08014099999","2010-07-03T06:00:00","4","43.5666666","-5.7","6.0","GIJON MUSEL, SP","FM-12","99999","V020","040,1,N,0026,1","01200,1,9,N","020000,1,N,1","+0186,1","+0155,1","10196,1","12,0041,9,2","24,0036,9,2",,"8,1,06,1","2,1,06,1",,,"08,99,1,07,1,07,1,01250,1,07,1,99,9","0132,9","11,9","999,+0170,9","999,N,+0175,1","99999,9,10188,1","3,1,011,1,+999,9","02,1","SYN112AAXX  03064 08014 11670 80405 10186 20155 30188 40196 53011 60042 70282 8777/ 333 20175 32017 50304 55022 70036;",
"08014099999","2010-07-03T09:00:00","4","43.5666666","-5.7","6.0","GIJON MUSEL, SP","FM-12","99999","V020","050,1,N,0026,1","01200,1,9,N","008000,1,N,1","+0190,1","+0164,1","10200,1",,,,"2,1,03,1","2,1,03,1",,,"08,99,1,05,1,07,1,01250,1,07,1,99,9",,,,,"99999,9,10192,1","1,1,004,1,+999,9","10,1","SYN082AAXX  03094 08014 41658 80505 10190 20164 30192 40200 51004 71022 8577/ 333 92436;",
"08014099999","2010-07-03T12:00:00","4","43.5666666","-5.7","6.0","GIJON MUSEL, SP","FM-12","99999","V020","040,1,N,0026,1","00120,1,9,N","001500,1,N,1","+0186,1","+0176,1","10208,1","06,0005,9,1",,,"5,1,06,1","2,1,06,1",,,"08,99,1,08,1,07,1,00150,1,99,9,99,9",,,,,"99999,9,10200,1","1,1,008,1,+999,9","51,1","SYN088AAXX  03124 08014 11215 80405 10186 20176 30200 40208 51008 69951 75152 887// 333 92434;",
"08014099999","2010-07-03T15:00:00","4","43.5666666","-5.7","6.0","GIJON MUSEL, SP","FM-12","99999","V020","060,1,N,0021,1","00420,1,9,N","008000,1,N,1","+0194,1","+0174,1","10210,1",,,,"5,1,03,1","2,1,03,1",,,"08,99,1,07,1,07,1,00450,1,07,1,99,9",,,,,"99999,9,10202,1","3,1,002,1,+999,9","50,1","SYN082AAXX  03154 08014 41458 80604 10194 20174 30202 40210 53002 75052 8777/ 333 92436;",
"08014099999","2010-07-03T18:00:00","4","43.5666666","-5.7","6.0","GIJON MUSEL, SP","FM-12","99999","V020","070,1,N,0021,1","00420,1,9,N","008000,1,N,1","+0198,1","+0172,1","10216,1","12,0005,9,1",,,"5,1,06,1","2,1,06,1",,,"08,99,1,05,1,07,1,00450,1,07,1,99,9",,,,"120,M,+0198,1","99999,9,10208,1","3,1,006,1,+999,9","10,1","SYN094AAXX  03184 08014 11458 80704 10198 20172 30208 40216 53006 69952 71052 8577/ 333 10198 92437;",
"08014099999","2010-07-04T06:00:00","4","43.5666666","-5.7","6.0","GIJON MUSEL, SP","FM-12","99999","V020","080,1,N,0010,1","01200,1,9,N","013000,1,N,1","+0190,1","+0170,1","10229,1","12,0000,9,1","24,0005,9,1",,,,,,"08,99,1,05,1,08,1,00800,1,01,1,99,9","0000,9","01,9","999,+0180,9","999,N,+0185,1","99999,9,10221,1","3,1,001,1,+999,9","02,1","SYN112AAXX  04064 08014 11563 80802 10190 20170 30221 40229 53001 60002 702// 8581/ 333 20185 30018 50144 55000 70005;","Q01  00002PRCP12"
"08014099999","2010-07-04T09:00:00","4","43.5666666","-5.7","6.0","GIJON MUSEL, SP","FM-12","99999","V020","080,1,N,0010,1","01200,1,9,N","010000,1,N,1","+0198,1","+0172,1","10237,1",,,,"4,1,03,1","2,1,03,1",,,"08,99,1,06,1,08,1,00800,1,07,1,99,9",,,,,"99999,9,10229,1","2,1,008,1,+999,9","02,1","SYN082AAXX  04094 08014 41560 80802 10198 20172 30229 40237 52008 70242 8687/ 333 92437;",
"08014099999","2010-07-04T12:00:00","4","43.5666666","-5.7","6.0","GIJON MUSEL, SP","FM-12","99999","V020","080,1,N,0021,1","01200,1,9,N","015000,1,N,1","+0218,1","+0172,1","10242,1","06,0000,9,1",,,,,,,"07,99,1,05,1,08,1,00800,1,05,1,99,9",,,,,"99999,9,10234,1","2,1,005,1,+999,9",,"SYN082AAXX  04124 08014 12565 70804 10218 20172 30234 40242 52005 60001 8585/ 333 92438;","Q01  00002PRCP06"
"08014099999","2010-07-04T15:00:00","4","43.5666666","-5.7","6.0","GIJON MUSEL, SP","FM-12","99999","V020","070,1,N,0026,1","22000,1,9,N","030000,1,N,1","+0226,1","+0175,1","10244,1",,,,,,,,"03,99,1,03,1,02,1,00800,1,03,1,00,1",,,,,"99999,9,10236,1","2,1,002,1,+999,9",,"SYN076AAXX  04154 08014 42580 30705 10226 20175 30236 40244 52002 83230 333 92438;",
"08014099999","2010-07-04T18:00:00","4","43.5666666","-5.7","6.0","GIJON MUSEL, SP","FM-12","99999","V020","070,1,N,0026,1","01200,1,9,N","030000,1,N,1","+0216,1","+0168,1","10241,1","12,0000,9,1",,,,,,,"07,99,1,05,1,08,1,00800,1,03,1,99,9",,,,"120,M,+0230,1","99999,9,10233,1","7,1,003,1,+999,9",,"SYN088AAXX  04184 08014 12580 70705 10216 20168 30233 40241 57003 60002 8583/ 333 10230 92438;","Q01  00002PRCP12"
"08014099999","2010-07-05T06:00:00","4","43.5666666","-5.7","6.0","GIJON MUSEL, SP","FM-12","99999","V020","110,1,N,0015,1","01200,1,9,N","015000,1,N,1","+0194,1","+0164,1","10249,1","12,0000,9,1","24,0000,9,1",,,,,,"08,99,1,06,1,08,1,00800,1,07,1,99,9","0198,9","01,9","999,+0160,9","999,N,+0186,1","99999,9,10241,1","3,1,005,1,+999,9","02,1","SYN112AAXX  05064 08014 11565 81103 10194 20164 30241 40249 53005 60002 702// 8687/ 333 20186 30016 50274 55033 70000;","Q01  00002PRCP24Q02  00002PRCP12"
"08014099999","2010-07-05T09:00:00","4","43.5666666","-5.7","6.0","GIJON MUSEL, SP","FM-12","99999","V020","060,1,N,0010,1","01200,1,9,N","020000,1,N,1","+0198,1","+0164,1","10258,1",,,,,,,,"08,99,1,06,1,08,1,00800,1,07,1,99,9",,,,,"99999,9,10250,1","2,1,009,1,+999,9",,"SYN076AAXX  05094 08014 42570 80602 10198 20164 30250 40258 52009 8687/ 333 92438;",
"08014099999","2010-07-05T12:00:00","4","43.5666666","-5.7","6.0","GIJON MUSEL, SP","FM-12","99999","V020","080,1,N,0021,1","01200,1,9,N","020000,1,N,1","+0218,1","+0165,1","10262,1","06,0000,9,1",,,,,,,"08,99,1,05,1,08,1,00800,1,05,1,99,9",,,,,"99999,9,10254,1","2,1,004,1,+999,9",,"SYN082AAXX  05124 08014 12570 80804 10218 20165 30254 40262 52004 60001 8585/ 333 92438;","Q01  00002PRCP06"
"08014099999","2010-07-05T15:00:00","4","43.5666666","-5.7","6.0","GIJON MUSEL, SP","FM-12","99999","V020","090,1,N,0026,1","22000,1,9,N","030000,1,N,1","+0226,1","+0157,1","10263,1",,,,,,,,"03,99,1,03,1,04,1,00800,1,00,1,00,1",,,,,"99999,9,10255,1","2,1,001,1,+999,9",,"SYN076AAXX  05154 08014 42580 30905 10226 20157 30255 40263 52001 83400 333 92428;",
"08014099999","2010-07-05T18:00:00","4","43.5666666","-5.7","6.0","GIJON MUSEL, SP","FM-12","99999","V020","070,1,N,0021,1","22000,1,9,N","030000,1,N,1","+0222,1","+0151,1","10258,1","12,0000,9,1",,,,,,,"02,99,1,01,1,04,1,00800,1,03,1,00,1",,,,"120,M,+0230,1","99999,9,10250,1","7,1,005,1,+999,9",,"SYN088AAXX  05184 08014 12580 20704 10222 20151 30250 40258 57005 60002 81430 333 10230 92438;","Q01  00002PRCP12"
"08014099999","2010-07-06T06:00:00","4","43.5666666","-5.7","6.0","GIJON MUSEL, SP","FM-12","99999","V020","070,1,N,0010,1","00900,1,9,N","009000,1,N,1","+0178,1","+0165,1","10255,1","12,9999,9,9","24,9999,9,9",,,,,,"08,99,1,06,1,08,1,00450,1,07,1,99,9","0396,9","09,9","999,+0160,9","999,N,+0174,1","99999,9,10247,1","4,1,000,1,+999,9","50,1","SYN112AAXX  06064 08014 11459 80702 10178 20165 30247 40255 54000 69902 750// 8687/ 333 20174 31016 50334 55066 79999;","Q01  00002PRCP24Q02  00002PRCP12Q03  00002PRCP12Q04  00002PRCP24"
"08014099999","2010-07-06T09:00:00","4","43.5666666","-5.7","6.0","GIJON MUSEL, SP","FM-12","99999","V020","090,1,N,0031,1","01200,1,9,N","015000,1,N,1","+0184,1","+0171,1","10255,1",,,,"5,1,03,1","4,1,03,1",,,"08,99,1,05,1,08,1,00800,1,07,1,99,9",,,,,"99999,9,10247,1","4,1,000,1,+999,9","02,1","SYN082AAXX  06094 08014 41565 80906 10184 20171 30247 40255 54000 70254 8587/ 333 92428;",
"08014099999","2010-07-06T12:00:00","4","43.5666666","-5.7","6.0","GIJON MUSEL, SP","FM-12","99999","V020","080,1,N,0026,1","01200,1,9,N","015000,1,N,1","+0212,1","+0166,1","10249,1","06,0000,2,1",,,,,,,"08,99,1,06,1,08,1,00800,1,05,1,99,9",,,,,"99999,9,10241,1","7,1,006,1,+999,9",,"SYN082AAXX  06124 08014 12565 80805 10212 20166 30241 40249 57006 60001 8685/ 333 92438;",
"08014099999","2010-07-06T15:00:00","4","43.5666666","-5.7","6.0","GIJON MUSEL, SP","FM-12","99999","V020","080,1,N,0021,1","22000,1,9,N","018000,1,N,1","+0220,1","+0161,1","10238,1",,,,,,,,"03,99,1,03,1,04,1,00800,1,03,1,00,1",,,,,"99999,9,10230,1","7,1,011,1,+999,9",,"SYN076AAXX  06154 08014 42568 30804 10220 20161 30230 40238 57011 83430 333 92438;",
"08014099999","2010-07-06T18:00:00","4","43.5666666","-5.7","6.0","GIJON MUSEL, SP","FM-12","99999","V020","080,1,N,0021,1","00750,1,9,N","020000,1,N,1","+0212,1","+0166,1","10230,1","12,0020,9,1",,,,,,,"07,99,1,05,1,04,1,00800,1,05,1,99,9",,,,"120,M,+0229,1","99999,9,10222,1","7,1,008,1,+999,9",,"SYN088AAXX  06184 08014 12570 70804 10212 20166 30222 40230 57008 60022 8545/ 333 10229 92428;",
"08014099999","2010-07-07T06:00:00","4","43.5666666","-5.7","6.0","GIJON MUSEL, SP","FM-12","99999","V020","060,1,N,0010,1","03600,1,9,N","025000,1,N,1","+0190,1","+0157,1","10194,1","12,0000,9,1","24,0018,9,1",,,,,,"06,99,1,04,1,04,1,00800,1,05,1,00,1","0216,9","01,9","999,+0170,9","999,N,+0185,1","99999,9,10186,1","5,1,003,1,+999,9","02,1","SYN112AAXX  07064 08014 11575 60602 10190 20157 30186 40194 55003 60002 702// 84450 333 20185 30017 50304 55036 70019;","Q01  00002PRCP12"
"08014099999","2010-07-07T09:00:00","4","43.5666666","-5.7","6.0","GIJON MUSEL, SP","FM-12","99999","V020","090,1,N,0026,1","03600,1,9,N","020000,1,N,1","+0208,1","+0168,1","10185,1",,,,,,,,"05,99,1,04,1,04,1,00800,1,03,1,00,1",,,,,"99999,9,10177,1","7,1,009,1,+999,9",,"SYN076AAXX  07094 08014 42570 50905 10208 20168 30177 40185 57009 84430 333 92438;",
"08014099999","2010-07-07T12:00:00","4","43.5666666","-5.7","6.0","GIJON MUSEL, SP","FM-12","99999","V020","060,1,N,0031,1","22000,1,9,N","020000,1,N,1","+0219,1","+0162,1","10182,1","06,0000,9,1",,,,,,,"04,99,1,03,1,04,1,00800,1,03,1,00,1",,,,,"99999,9,10175,1","7,1,002,1,+999,9",,"SYN082AAXX  07124 08014 12570 40606 10219 20162 30175 40182 57002 60001 83430 333 92438;","Q01  00002PRCP06"
"08014099999","2010-07-07T15:00:00","4","43.5666666","-5.7","6.0","GIJON MUSEL, SP","FM-12","99999","V020","060,1,N,0026,1","22000,1,9,N","020000,1,N,1","+0230,1","+0179,1","10169,1",,,,,,,,"04,99,1,01,1,04,1,00800,1,05,1,01,1",,,,,"99999,9,10162,1","7,1,013,1,+999,9",,"SYN076AAXX  07154 08014 42570 40605 10230 20179 30162 40169 57013 81451 333 92438;",
"08014099999","2010-07-07T18:00:00","4","43.5666666","-5.7","6.0","GIJON MUSEL, SP","FM-12","99999","V020","060,1,N,0026,1","03600,1,C,N","020000,1,N,1","+0228,1","+0188,1","10160,1","12,0000,9,1",,,,,,,"06,99,1,01,1,04,1,00800,1,05,1,99,9",,,,"120,M,+0235,1","99999,9,10153,1","7,1,009,1,+999,9",,"SYN088AAXX  07184 08014 12570 60605 10228 20188 30153 40160 57009 60002 8145/ 333 10235 92428;","Q01  00002PRCP12"
"08014099999","2010-07-08T06:00:00","4","43.5666666","-5.7","6.0","GIJON MUSEL, SP","FM-12","99999","V020","040,1,N,0021,1","00750,1,9,N","015000,1,N,1","+0198,1","+0185,1","10156,1","12,9999,9,9","24,9999,9,9",,,,,,"08,99,1,05,1,02,1,00800,1,07,1,99,9","0636,9","09,9","999,+0170,9","999,N,+0190,1","99999,9,10148,1","7,1,005,1,+999,9","60,1","SYN112AAXX  08064 08014 11565 80404 10198 20185 30148 40156 57005 69902 760// 8527/ 333 20190 31017 50294 55106 79999;","Q01  00002PRCP24Q02  00002PRCP12Q03  00002PRCP12Q04  00002PRCP24"
"08014099999","2010-07-08T09:00:00","4","43.5666666","-5.7","6.0","GIJON MUSEL, SP","FM-12","99999","V020","060,1,N,0015,1","00750,1,9,N","015000,1,N,1","+0208,1","+0193,1","10163,1",,,,,,,,"08,99,1,05,1,02,1,00800,1,07,1,99,9",,,,,"99999,9,10156,1","2,1,008,1,+999,9",,"SYN076AAXX  08094 08014 42565 80603 10208 20193 30156 40163 52008 8527/ 333 92438;",
"08014099999","2010-07-08T12:00:00","4","43.5666666","-5.7","6.0","GIJON MUSEL, SP","FM-12","99999","V020","100,1,N,0021,1","03600,1,9,N","018000,1,N,1","+0232,1","+0187,1","10165,1","06,0000,2,1",,,"6,1,06,1","2,1,06,1",,,"06,99,1,03,1,02,1,00800,1,05,1,99,9",,,,,"99999,9,10158,1","2,1,002,1,+999,9","02,1","SYN088AAXX  08124 08014 11568 61004 10232 20187 30158 40165 52002 69901 70262 8325/ 333 92438;",
"08014099999","2010-07-08T15:00:00","4","43.5666666","-5.7","6.0","GIJON MUSEL, SP","FM-12","99999","V020","090,1,N,0021,1","03600,1,9,N","020000,1,N,1","+0232,1","+0187,1","10139,1",,,,,,,,"07,99,1,04,1,02,1,00800,1,05,1,99,9",,,,,"99999,9,10132,1","7,1,026,1,+999,9",,"SYN076AAXX  08154 08014 42570 70904 10232 20187 30132 40139 57026 8425/ 333 92438;",
"08014099999","2010-07-08T18:00:00","4","43.5666666","-5.7","6.0","GIJON MUSEL, SP","FM-12","99999","V020","040,1,N,0021,1","00750,1,9,N","020000,1,N,1","+0222,1","+0188,1","10134,1","12,0000,2,1",,,,,,,"08,99,1,05,1,02,1,00800,1,05,1,99,9",,,,"120,M,+0242,1","99999,9,10127,1","5,1,005,1,+999,9",,"SYN088AAXX  08184 08014 12570 80404 10222 20188 30127 40134 55005 69902 8525/ 333 10242 92438;",
"08014099999","2010-07-09T06:00:00","4","43.5666666","-5.7","6.0","GIJON MUSEL, SP","FM-12","99999","V020","220,1,N,0015,1","00750,1,9,N","015000,1,N,1","+0186,1","+0158,1","10194,1","12,0020,9,1","24,0023,9,1",,,,,,"07,99,1,05,1,04,1,00800,1,05,1,99,9","0294,9","09,9","999,+0170,9","999,N,+0173,1","99999,9,10186,1","2,1,008,1,+999,9","02,1","SYN112AAXX  09064 08014 11565 72203 10186 20158 30186 40194 52008 60022 702// 8545/ 333 20173 31017 50224 55049 70024;",
"08014099999","2010-07-09T09:00:00","4","43.5666666","-5.7","6.0","GIJON MUSEL, SP","FM-12","99999","V020","280,1,N,0015,1","22000,1,9,N","017000,1,N,1","+0212,1","+0166,1","10198,1",,,,,,,,"04,99,1,03,1,04,1,00800,1,03,1,00,1",,,,,"99999,9,10190,1","2,1,004,1,+999,9",,"SYN076AAXX  09094 08014 42567 42803 10212 20166 30190 40198 52004 83430 333 92438;",
"08014099999","2010-07-09T12:00:00","4","43.5666666","-5.7","6.0","GIJON MUSEL, SP","FM-12","99999","V020","040,1,N,0041,1","22000,1,9,N","020000,1,N,1","+0222,1","+0167,1","10210,1","06,0000,9,1",,,,,,,"02,99,1,01,1,04,1,00800,1,03,1,00,1",,,,,"99999,9,10202,1","2,1,012,1,+999,9",,"SYN082AAXX  09124 08014 12570 20408 10222 20167 30202 40210 52012 60001 81430 333 92438;","Q01  00002PRCP06"
"08014099999","2010-07-09T15:00:00","4","43.5666666","-5.7","6.0","GIJON MUSEL, SP","FM-12","99999","V020","030,1,N,0031,1","22000,1,9,N","030000,1,N,1","+0218,1","+0159,1","10214,1",,,,,,,,"02,99,1,01,1,04,1,00800,1,03,1,00,1",,,,,"99999,9,10206,1","2,1,004,1,+999,9",,"SYN076AAXX  09154 08014 42580 20306 10218 20159 30206 40214 52004 81430 333 92438;",
"08014099999","2010-07-09T18:00:00","4","43.5666666","-5.7","6.0","GIJON MUSEL, SP","FM-12","99999","V020","020,1,N,0026,1","22000,1,9,N","030000,1,N,1","+0212,1","+0162,1","10215,1","12,0000,9,1",,,,,,,"02,99,1,01,1,04,1,00800,1,03,1,00,1",,,,"120,M,+0227,1","99999,9,10207,1","2,1,001,1,+999,9",,"SYN088AAXX  09184 08014 12580 20205 10212 20162 30207 40215 52001 60002 81430 333 10227 92428;","Q01  00002PRCP12"
"08014099999","2010-07-10T06:00:00","4","43.5666666","-5.7","6.0","GIJON MUSEL, SP","FM-12","99999","V020","999,9,C,0000,1","22000,1,9,N","013000,1,N,1","+0196,1","+0174,1","10199,1","12,0000,9,1","24,0000,9,1",,,,,,"01,99,1,01,1,04,1,00450,1,00,1,00,1","0726,9","01,9","999,+0180,9","999,N,+0188,1","99999,9,10191,1","6,1,006,1,+999,9","02,1","SYN112AAXX  10064 08014 11463 10000 10196 20174 30191 40199 56006 60002 702// 81400 333 20188 30018 50394 55121 70000;","Q01  00002PRCP24Q02  00002PRCP12"
"08014099999","2010-07-10T09:00:00","4","43.5666666","-5.7","6.0","GIJON MUSEL, SP","FM-12","99999","V020","080,1,N,0026,1","22000,1,9,N","020000,1,N,1","+0222,1","+0169,1","10194,1",,,,,,"00,1,+99999,9,99,9",,"00,99,1,00,1,00,1,99999,9,00,1,00,1",,,,,"99999,9,10187,1","7,1,004,1,+999,9",,"SYN070AAXX  10094 08014 42970 00805 10222 20169 30187 40194 57004 333 92428;",
"08014099999","2010-07-10T12:00:00","4","43.5666666","-5.7","6.0","GIJON MUSEL, SP","FM-12","99999","V020","080,1,N,0021,1","22000,1,9,N","020000,1,N,1","+0232,1","+0176,1","10192,1","06,0000,9,1",,,,,,,"01,99,1,01,1,04,1,00450,1,00,1,00,1",,,,,"99999,9,10185,1","7,1,002,1,+999,9",,"SYN082AAXX  10124 08014 12470 10804 10232 20176 30185 40192 57002 60001 81400 333 92438;","Q01  00002PRCP06"
"08014099999","2010-07-10T15:00:00","4","43.5666666","-5.7","6.0","GIJON MUSEL, SP","FM-12","99999","V020","070,1,N,0021,1","22000,1,9,N","020000,1,N,1","+0232,1","+0185,1","10182,1",,,,,,,,"01,99,1,01,1,02,1,00800,1,00,1,00,1",,,,,"99999,9,10175,1","7,1,010,1,+999,9",,"SYN076AAXX  10154 08014 42570 10704 10232 20185 30175 40182 57010 81200 333 92438;",
"08014099999","2010-07-10T18:00:00","4","43.5666666","-5.7","6.0","GIJON MUSEL, SP","FM-12","99999","V020","040,1,N,0026,1","22000,1,9,N","030000,1,N,1","+0228,1","+0177,1","10183,1","12,0000,9,1",,,,,,,"02,99,1,02,1,00,1,01250,1,03,1,01,1",,,,"120,M,+0240,1","99999,9,10176,1","2,1,001,1,+999,9",,"SYN088AAXX  10184 08014 12680 20405 10228 20177 30176 40183 52001 60002 82031 333 10240 92428;","Q01  00002PRCP12"
"08014099999","2010-07-11T06:00:00","4","43.5666666","-5.7","6.0","GIJON MUSEL, SP","FM-12","99999","V020","300,1,N,0021,1","03600,1,C,N","020000,1,N,1","+0198,1","+0144,1","10183,1","12,0000,9,1","24,0000,9,1",,,,,,"06,99,1,02,1,04,1,00800,1,05,1,99,9","0798,9","01,9","999,+0180,9","999,N,+0187,1","99999,9,10175,1","6,1,009,1,+999,9","02,1","SYN112AAXX  11064 08014 11570 63004 10198 20144 30175 40183 56009 60002 702// 8245/ 333 20187 30018 50334 55133 70000;","Q01  00002PRCP24Q02  00002PRCP12"
"08014099999","2010-07-11T09:00:00","4","43.5666666","-5.7","6.0","GIJON MUSEL, SP","FM-12","99999","V020","100,1,N,0010,1","03600,1,9,N","020000,1,N,1","+0226,1","+0157,1","10185,1",,,,,,,,"06,99,1,04,1,04,1,00800,1,05,1,00,1",,,,,"99999,9,10178,1","2,1,003,1,+999,9",,"SYN076AAXX  11094 08014 42570 61002 10226 20157 30178 40185 52003 84450 333 92428;",
"08014099999","2010-07-11T12:00:00","4","43.5666666","-5.7","6.0","GIJON MUSEL, SP","FM-12","99999","V020","090,1,N,0021,1","01200,1,9,N","030000,1,N,1","+0228,1","+0166,1","10182,1","06,0000,9,1",,,,,,,"07,99,1,05,1,08,1,00800,1,05,1,99,9",,,,,"99999,9,10175,1","7,1,003,1,+999,9",,"SYN082AAXX  11124 08014 12580 70904 10228 20166 30175 40182 57003 60001 8585/ 333 92438;","Q01  00002PRCP06"
"08014099999","2010-07-11T15:00:00","4","43.5666666","-5.7","6.0","GIJON MUSEL, SP","FM-12","99999","V020","060,1,N,0026,1","00750,1,9,N","030000,1,N,1","+0238,1","+0171,1","10167,1",,,,,,,,"07,99,1,05,1,02,1,00800,1,05,1,99,9",,,,,"99999,9,10160,1","7,1,015,1,+999,9",,"SYN076AAXX  11154 08014 42580 70605 10238 20171 30160 40167 57015 8525/ 333 92438;",
"08014099999","2010-07-11T18:00:00","4","43.5666666","-5.7","6.0","GIJON MUSEL, SP","FM-12","99999","V020","080,1,N,0015,1","01200,1,9,N","030000,1,N,1","+0226,1","+0175,1","10155,1","12,0000,9,1",,,,,,,"08,99,1,06,1,08,1,00800,1,05,1,99,9",,,,"120,M,+0245,1","99999,9,10148,1","7,1,012,1,+999,9",,"SYN088AAXX  11184 08014 12580 80803 10226 20175 30148 40155 57012 60002 8685/ 333 10245 92428;","Q01  00002PRCP12"
"08014099999","2010-07-12T06:00:00","4","43.5666666","-5.7","6.0","GIJON MUSEL, SP","FM-12","99999","V020","230,1,N,0010,1","03600,1,9,N","020000,1,N,1","+0198,1","+0168,1","10158,1","12,0000,9,1","24,0000,9,1",,,,,,"08,99,1,04,1,06,1,00800,1,07,1,99,9","0366,9","01,9","999,+0180,9","999,N,+0195,1","99999,9,10150,1","4,1,000,1,+999,9","02,1","SYN112AAXX  12064 08014 11570 82302 10198 20168 30150 40158 54000 60002 702// 8467/ 333 20195 30018 50354 55061 70000;","Q01  00002PRCP24Q02  00002PRCP12"
"08014099999","2010-07-12T09:00:00","4","43.5666666","-5.7","6.0","GIJON MUSEL, SP","FM-12","99999","V020","050,1,N,0021,1","03600,1,9,N","020000,1,N,1","+0210,1","+0174,1","10160,1",,,,,,,,"05,99,1,04,1,01,1,00800,1,03,1,00,1",,,,,"99999,9,10153,1","3,1,003,1,+999,9",,"SYN076AAXX  12094 08014 42570 50504 10210 20174 30153 40160 53003 84130 333 92427;",
"08014099999","2010-07-12T12:00:00","4","43.5666666","-5.7","6.0","GIJON MUSEL, SP","FM-12","99999","V020","020,1,N,0015,1","03600,1,9,N","015000,1,N,1","+0220,1","+0146,1","10163,1","06,0000,9,1",,,,,,,"06,99,1,04,1,08,1,00800,1,03,1,05,1",,,,,"99999,9,10156,1","2,1,003,1,+999,9",,"SYN082AAXX  12124 08014 12565 60203 10220 20146 30156 40163 52003 60001 84835 333 92427;","Q01  00002PRCP06"
"08014099999","2010-07-12T15:00:00","4","43.5666666","-5.7","6.0","GIJON MUSEL, SP","FM-12","99999","V020","050,1,N,0021,1","22000,1,9,N","020000,1,N,1","+0232,1","+0128,1","10161,1",,,,,,,,"03,99,1,01,1,01,1,00800,1,03,1,01,1",,,,,"99999,9,10154,1","8,1,002,1,+999,9",,"SYN076AAXX  12154 08014 42570 30504 10232 20128 30154 40161 58002 81131 333 92437;",
"08014099999","2010-07-12T18:00:00","4","43.5666666","-5.7","6.0","GIJON MUSEL, SP","FM-12","99999","V020","080,1,N,0015,1","22000,1,9,N","030000,1,N,1","+0234,1","+0172,1","10141,1","12,0000,9,1",,,,,,,"03,99,1,02,1,08,1,00800,1,03,1,01,1",,,,"120,M,+0237,1","99999,9,10134,1","7,1,020,1,+999,9",,"SYN088AAXX  12184 08014 12580 30803 10234 20172 30134 40141 57020 60002 82831 333 10237 92438;","Q01  00002PRCP12"
"08014099999","2010-07-13T06:00:00","4","43.5666666","-5.7","6.0","GIJON MUSEL, SP","FM-12","99999","V020","290,1,N,0015,1","00750,1,9,N","010000,1,N,1","+0190,1","+0164,1","10135,1","12,0000,9,1","24,0000,9,1",,,,,,"08,99,1,05,1,06,1,00800,1,01,1,99,9","0618,9","01,9","999,+0180,9","999,N,+0188,1","99999,9,10127,1","7,1,008,1,+999,9","02,1","SYN112AAXX  13064 08014 11560 82903 10190 20164 30127 40135 57008 60002 702// 8561/ 333 20188 30018 50384 55103 70000;","Q01  00002PRCP24Q02  00002PRCP12"
"08014099999","2010-07-13T09:00:00","4","43.5666666","-5.7","6.0","GIJON MUSEL, SP","FM-12","99999","V020","340,1,N,0015,1","00750,1,9,N","010000,1,N,1","+0200,1","+0152,1","10137,1",,,,,,,,"08,99,1,05,1,06,1,00800,1,01,1,99,9",,,,,"99999,9,10129,1","3,1,002,1,+999,9",,"SYN076AAXX  13094 08014 42560 83403 10200 20152 30129 40137 53002 8561/ 333 92436;",
"08014099999","2010-07-13T12:00:00","4","43.5666666","-5.7","6.0","GIJON MUSEL, SP","FM-12","99999","V020","040,1,N,0031,1","03600,1,9,N","010000,1,N,1","+0208,1","+0154,1","10128,1","06,0000,9,1",,,,,,,"06,99,1,04,1,05,1,00800,1,03,1,00,1",,,,,"99999,9,10121,1","8,1,008,1,+999,9",,"SYN082AAXX  13124 08014 12560 60406 10208 20154 30121 40128 58008 60001 84530 333 92436;","Q01  00002PRCP06"
"08014099999","2010-07-13T15:00:00","4","43.5666666","-5.7","6.0","GIJON MUSEL, SP","FM-12","99999","V020","020,1,N,0021,1","03600,1,9,N","015000,1,N,1","+0210,1","+0146,1","10121,1",,,,,,,,"08,99,1,04,1,06,1,00800,1,01,1,99,9",,,,,"99999,9,10114,1","7,1,007,1,+999,9",,"SYN076AAXX  13154 08014 42565 80204 10210 20146 30114 40121 57007 8461/ 333 92437;",
"08014099999","2010-07-13T18:00:00","4","43.5666666","-5.7","6.0","GIJON MUSEL, SP","FM-12","99999","V020","070,1,N,0015,1","01200,1,9,N","030000,1,N,1","+0210,1","+0144,1","10108,1","12,0000,9,1",,,,,,,"08,99,1,06,1,06,1,01250,1,01,1,99,9",,,,"120,M,+0215,1","99999,9,10101,1","7,1,013,1,+999,9",,"SYN088AAXX  13184 08014 12680 80703 10210 20144 30101 40108 57013 60002 8661/ 333 10215 92438;","Q01  00002PRCP12"
"08014099999","2010-07-14T06:00:00","4","43.5666666","-5.7","6.0","GIJON MUSEL, SP","FM-12","99999","V020","180,1,N,0010,1","22000,1,9,N","012000,1,N,1","+0183,1","+0146,1","10095,1","12,0000,9,1","24,0000,9,1",,,,,,"03,99,1,02,1,05,1,00800,1,03,1,00,1","0066,9","01,9","999,+0170,9","999,N,+0182,1","99999,9,10087,1","4,1,000,1,+999,9","02,1","SYN112AAXX  14064 08014 11562 31802 10183 20146 30087 40095 54000 60002 702// 82530 333 20182 30017 50394 55011 70000;","Q01  00002PRCP24Q02  00002PRCP12"
"08014099999","2010-07-14T09:00:00","4","43.5666666","-5.7","6.0","GIJON MUSEL, SP","FM-12","99999","V020","010,1,N,0010,1","22000,1,9,N","012000,1,N,1","+0216,1","+0127,1","10097,1",,,,,,,,"03,99,1,02,1,05,1,00800,1,03,1,00,1",,,,,"99999,9,10090,1","3,1,003,1,+999,9",,"SYN076AAXX  14094 08014 42562 30102 10216 20127 30090 40097 53003 82530 333 92437;",
"08014099999","2010-07-14T12:00:00","4","43.5666666","-5.7","6.0","GIJON MUSEL, SP","FM-12","99999","V020","200,1,N,0041,1","22000,1,9,N","020000,1,N,1","+0249,1","+0080,1","10105,1","06,0000,9,1",,,,,,,"03,99,1,02,1,05,1,00800,1,03,1,00,1",,,,,"99999,9,10098,1","2,1,008,1,+999,9",,"SYN082AAXX  14124 08014 12570 32008 10249 20080 30098 40105 52008 60001 82530 333 92437;","Q01  00002PRCP06"
"08014099999","2010-07-14T15:00:00","4","43.5666666","-5.7","6.0","GIJON MUSEL, SP","FM-12","99999","V020","270,1,N,0021,1","22000,1,9,N","020000,1,N,1","+0230,1","+0126,1","10120,1",,,,,,,,"02,99,1,01,1,05,1,00800,1,03,1,09,1",,,,,"99999,9,10113,1","2,1,015,1,+999,9",,"SYN076AAXX  14154 08014 42570 22704 10230 20126 30113 40120 52015 81539 333 92447;",
"08014099999","2010-07-14T18:00:00","4","43.5666666","-5.7","6.0","GIJON MUSEL, SP","FM-12","99999","V020","010,1,N,0015,1","22000,1,9,N","030000,1,N,1","+0217,1","+0114,1","10138,1","12,0000,9,1",,,,,,,"02,99,1,01,1,05,1,00800,1,03,1,00,1",,,,"120,M,+0254,1","99999,9,10131,1","2,1,018,1,+999,9",,"SYN088AAXX  14184 08014 12580 20103 10217 20114 30131 40138 52018 60002 81530 333 10254 92448;","Q01  00002PRCP12"
"08014099999","2010-07-15T06:00:00","4","43.5666666","-5.7","6.0","GIJON MUSEL, SP","FM-12","99999","V020","210,1,N,0015,1","22000,1,9,N","010000,1,N,1","+0160,1","+0107,1","10167,1","12,0000,9,1","24,0000,9,1",,,,"00,1,+99999,9,99,9",,"00,99,1,00,1,00,1,99999,9,00,1,00,1","0798,9","01,9","999,+0140,9","999,N,+0150,1","99999,9,10159,1","4,1,000,1,+999,9","00,1","SYN106AAXX  15064 08014 11960 02103 10160 20107 30159 40167 54000 60002 700// 333 20150 30014 50684 55133 70000;","Q01  00002PRCP24Q02  00002PRCP12"
"08014099999","2010-07-15T09:00:00","4","43.5666666","-5.7","6.0","GIJON MUSEL, SP","FM-12","99999","V020","090,1,N,0015,1","22000,1,9,N","015000,1,N,1","+0202,1","+0106,1","10161,1",,,,,,"00,1,+99999,9,99,9",,"00,99,1,00,1,00,1,99999,9,00,1,00,1",,,,,"99999,9,10153,1","8,1,006,1,+999,9",,"SYN070AAXX  15094 08014 42965 00903 10202 20106 30153 40161 58006 333 92447;",
"08014099999","2010-07-15T12:00:00","4","43.5666666","-5.7","6.0","GIJON MUSEL, SP","FM-12","99999","V020","040,1,N,0031,1","22000,1,9,N","020000,1,N,1","+0210,1","+0105,1","10160,1","06,0000,9,1",,,,,"00,1,+99999,9,99,9",,"00,99,1,00,1,00,1,99999,9,00,1,00,1",,,,,"99999,9,10152,1","7,1,001,1,+999,9",,"SYN076AAXX  15124 08014 12970 00406 10210 20105 30152 40160 57001 60001 333 92447;","Q01  00002PRCP06"
"08014099999","2010-07-15T15:00:00","4","43.5666666","-5.7","6.0","GIJON MUSEL, SP","FM-12","99999","V020","070,1,N,0026,1","22000,1,9,N","020000,1,N,1","+0225,1","+0130,1","10142,1",,,,,,"00,1,+99999,9,99,9",,"00,99,1,00,1,00,1,99999,9,00,1,00,1",,,,,"99999,9,10135,1","7,1,017,1,+999,9",,"SYN070AAXX  15154 08014 42970 00705 10225 20130 30135 40142 57017 333 92447;",
"08014099999","2010-07-15T18:00:00","4","43.5666666","-5.7","6.0","GIJON MUSEL, SP","FM-12","99999","V020","080,1,N,0026,1","22000,1,9,N","020000,1,N,1","+0216,1","+0154,1","10137,1","12,0000,9,1",,,,,"00,1,+99999,9,99,9",,"00,99,1,00,1,00,1,99999,9,00,1,00,1",,,,"120,M,+0234,1","99999,9,10130,1","7,1,005,1,+999,9",,"SYN082AAXX  15184 08014 12970 00805 10216 20154 30130 40137 57005 60002 333 10234 92447;","Q01  00002PRCP12"
"08014099999","2010-07-16T06:00:00","4","43.5666666","-5.7","6.0","GIJON MUSEL, SP","FM-12","99999","V020","040,1,N,0005,1","00750,1,9,N","015000,1,N,1","+0195,1","+0167,1","10169,1","12,0000,9,1","24,0000,9,1",,,,,,"08,99,1,05,1,06,1,00800,1,07,1,99,9","0804,9","01,9","999,+0180,9","999,N,+0185,1","99999,9,10161,1","2,1,003,1,+999,9","02,1","SYN112AAXX  16064 08014 11565 80401 10195 20167 30161 40169 52003 60002 702// 8567/ 333 20185 30018 50564 55134 70000;","Q01  00002PRCP24Q02  00002PRCP12"
"08014099999","2010-07-16T09:00:00","4","43.5666666","-5.7","6.0","GIJON MUSEL, SP","FM-12","99999","V020","320,1,N,0010,1","00420,1,9,N","005000,1,N,1","+0165,1","+0147,1","10198,1",,,,"5,1,03,1","2,1,03,1",,,"08,99,1,06,1,06,1,00450,1,07,1,99,9",,,,,"99999,9,10190,1","2,1,029,1,+999,9","51,1","SYN082AAXX  16094 08014 41450 83202 10165 20147 30190 40198 52029 75152 8667/ 333 92446;",
"08014099999","2010-07-16T12:00:00","4","43.5666666","-5.7","6.0","GIJON MUSEL, SP","FM-12","99999","V020","240,1,N,0010,1","00420,1,9,N","010000,1,N,1","+0172,1","+0152,1","10214,1","06,0020,9,1",,,"5,1,06,1","2,1,06,1",,,"08,99,1,06,1,06,1,00450,1,07,1,99,9",,,,,"99999,9,10206,1","2,1,016,1,+999,9","02,1","SYN088AAXX  16124 08014 11460 82402 10172 20152 30206 40214 52016 60021 70252 8667/ 333 92446;",
"08014099999","2010-07-16T15:00:00","4","43.5666666","-5.7","6.0","GIJON MUSEL, SP","FM-12","99999","V020","050,1,N,0026,1","00750,1,9,N","015000,1,N,1","+0200,1","+0107,1","10212,1",,,,,,,,"07,99,1,05,1,05,1,00800,1,07,1,00,1",,,,,"99999,9,10204,1","8,1,002,1,+999,9",,"SYN076AAXX  16154 08014 42565 70505 10200 20107 30204 40212 58002 85570 333 92436;",
"08014099999","2010-07-16T18:00:00","4","43.5666666","-5.7","6.0","GIJON MUSEL, SP","FM-12","99999","V020","030,1,N,0021,1","00750,1,9,N","030000,1,N,1","+0195,1","+0120,1","10219,1","12,0020,9,1",,,,,,,"08,99,1,05,1,05,1,00800,1,07,1,99,9",,,,"120,M,+0203,1","99999,9,10211,1","3,1,007,1,+999,9",,"SYN088AAXX  16184 08014 12580 80304 10195 20120 30211 40219 53007 60022 8557/ 333 10203 92438;",
"08014099999","2010-07-17T06:00:00","4","43.5666666","-5.7","6.0","GIJON MUSEL, SP","FM-12","99999","V020","230,1,N,0015,1","03600,1,9,N","010000,1,N,1","+0170,1","+0131,1","10239,1","12,0000,9,1","24,0015,9,1",,,,,,"05,99,1,03,1,08,1,00800,1,03,1,01,1","0036,9","01,9","999,+0160,9","999,N,+0165,1","99999,9,10231,1","2,1,003,1,+999,9","02,1","SYN112AAXX  17064 08014 11560 52303 10170 20131 30231 40239 52003 60002 702// 83831 333 20165 30016 50414 55006 70015;","Q01  00002PRCP12"
"08014099999","2010-07-17T09:00:00","4","43.5666666","-5.7","6.0","GIJON MUSEL, SP","FM-12","99999","V020","050,1,N,0021,1","03600,1,9,N","010000,1,N,1","+0198,1","+0142,1","10251,1",,,,,,,,"05,99,1,03,1,08,1,00800,1,03,1,01,1",,,,,"99999,9,10243,1","2,1,012,1,+999,9",,"SYN076AAXX  17094 08014 42560 50504 10198 20142 30243 40251 52012 83831 333 92436;",
"08014099999","2010-07-17T12:00:00","4","43.5666666","-5.7","6.0","GIJON MUSEL, SP","FM-12","99999","V020","080,1,N,0026,1","22000,1,9,N","015000,1,N,1","+0220,1","+0136,1","10256,1","06,0000,9,1",,,,,,,"04,99,1,02,1,08,1,00800,1,03,1,01,1",,,,,"99999,9,10248,1","2,1,005,1,+999,9",,"SYN082AAXX  17124 08014 12565 40805 10220 20136 30248 40256 52005 60001 82831 333 92437;","Q01  00002PRCP06"
"08014099999","2010-07-17T15:00:00","4","43.5666666","-5.7","6.0","GIJON MUSEL, SP","FM-12","99999","V020","070,1,N,0026,1","22000,1,9,N","025000,1,N,1","+0225,1","+0149,1","10256,1",,,,,,,,"01,99,1,01,1,08,1,00800,1,00,1,01,1",,,,,"99999,9,10248,1","4,1,000,1,+999,9",,"SYN076AAXX  17154 08014 42575 10705 10225 20149 30248 40256 54000 81801 333 92438;",
"08014099999","2010-07-17T18:00:00","4","43.5666666","-5.7","6.0","GIJON MUSEL, SP","FM-12","99999","V020","080,1,N,0031,1","22000,1,9,N","030000,1,N,1","+0217,1","+0158,1","10258,1","12,0000,9,1",,,,,,,"02,99,1,01,1,08,1,00800,1,03,1,00,1",,,,"120,M,+0232,1","99999,9,10250,1","3,1,002,1,+999,9",,"SYN088AAXX  17184 08014 12580 20806 10217 20158 30250 40258 53002 60002 81830 333 10232 92438;","Q01  00002PRCP12"
"08014099999","2010-07-18T06:00:00","4","43.5666666","-5.7","6.0","GIJON MUSEL, SP","FM-12","99999","V020","120,1,N,0021,1","22000,1,9,N","015000,1,N,1","+0183,1","+0152,1","10234,1","12,0000,9,1","24,0000,9,1",,,,,,"03,99,1,02,1,01,1,00450,1,03,1,00,1","0612,9","01,9","999,+0160,9","999,N,+0180,1","99999,9,10226,1","7,1,001,1,+999,9","02,1","SYN112AAXX  18064 08014 11465 31204 10183 20152 30226 40234 57001 60002 702// 82130 333 20180 30016 50284 55102 70000;","Q01  00002PRCP24Q02  00002PRCP12"
"08014099999","2010-07-18T09:00:00","4","43.5666666","-5.7","6.0","GIJON MUSEL, SP","FM-12","99999","V020","080,1,N,0046,1","22000,1,9,N","020000,1,N,1","+0210,1","+0151,1","10228,1",,,,,,,,"02,99,1,01,1,01,1,00800,1,03,1,00,1",,,,,"99999,9,10220,1","7,1,006,1,+999,9",,"SYN076AAXX  18094 08014 42570 20809 10210 20151 30220 40228 57006 81130 333 92437;",
"08014099999","2010-07-18T12:00:00","4","43.5666666","-5.7","6.0","GIJON MUSEL, SP","FM-12","99999","V020","070,1,N,0031,1","22000,1,9,N","020000,1,N,1","+0225,1","+0156,1","10220,1","06,0000,9,1",,,,,,,"01,99,1,01,1,01,1,00800,1,00,1,00,1",,,,,"99999,9,10212,1","7,1,008,1,+999,9",,"SYN082AAXX  18124 08014 12570 10706 10225 20156 30212 40220 57008 60001 81100 333 92437;","Q01  00002PRCP06"
"08014099999","2010-07-18T15:00:00","4","43.5666666","-5.7","6.0","GIJON MUSEL, SP","FM-12","99999","V020","080,1,N,0036,1","22000,1,9,N","020000,1,N,1","+0230,1","+0161,1","10212,1",,,,,,"00,1,+99999,9,99,9",,"00,99,1,00,1,00,1,99999,9,00,1,00,1",,,,,"99999,9,10205,1","7,1,007,1,+999,9",,"SYN070AAXX  18154 08014 42970 00807 10230 20161 30205 40212 57007 333 92437;",
"08014099999","2010-07-18T18:00:00","4","43.5666666","-5.7","6.0","GIJON MUSEL, SP","FM-12","99999","V020","070,1,N,0031,1","22000,1,9,N","015000,1,N,1","+0218,1","+0161,1","10200,1","12,0000,9,1",,,,,"00,1,+99999,9,99,9",,"00,99,1,00,1,00,1,99999,9,00,1,00,1",,,,"120,M,+0235,1","99999,9,10192,1","7,1,013,1,+999,9",,"SYN082AAXX  18184 08014 12965 00706 10218 20161 30192 40200 57013 60002 333 10235 92437;","Q01  00002PRCP12"
"08014099999","2010-07-19T06:00:00","4","43.5666666","-5.7","6.0","GIJON MUSEL, SP","FM-12","99999","V020","200,1,N,0015,1","00420,1,9,N","006000,1,N,1","+0186,1","+0176,1","10203,1","12,9999,9,9","24,9999,9,9",,,,,,"08,99,1,06,1,07,1,00450,1,01,1,99,9","0792,9","09,9","999,+0180,9","999,N,+0183,1","99999,9,10195,1","2,1,001,1,+999,9","50,1","SYN112AAXX  19064 08014 11456 82003 10186 20176 30195 40203 52001 69902 750// 8671/ 333 20183 31018 50204 55132 79999;","Q01  00002PRCP24Q02  00002PRCP12Q03  00002PRCP12Q04  00002PRCP24"
"08014099999","2010-07-19T09:00:00","4","43.5666666","-5.7","6.0","GIJON MUSEL, SP","FM-12","99999","V020","040,1,N,0010,1","00420,1,9,N","005000,1,N,1","+0198,1","+0185,1","10209,1",,,,"5,1,03,1","4,1,03,1",,,"08,99,1,05,1,07,1,00450,1,01,1,99,9",,,,,"99999,9,10201,1","2,1,006,1,+999,9","51,1","SYN082AAXX  19094 08014 41450 80402 10198 20185 30201 40209 52006 75154 8571/ 333 92427;",
"08014099999","2010-07-19T12:00:00","4","43.5666666","-5.7","6.0","GIJON MUSEL, SP","FM-12","99999","V020","040,1,N,0026,1","22000,1,9,N","009000,1,N,1","+0220,1","+0172,1","10208,1","06,0003,9,1",,,"5,1,06,1","4,1,06,1",,,"04,99,1,03,1,06,1,00450,1,03,1,00,1",,,,,"99999,9,10200,1","7,1,001,1,+999,9","10,1","SYN088AAXX  19124 08014 11459 40405 10220 20172 30200 40208 57001 69931 71054 83630 333 92427;",
"08014099999","2010-07-19T15:00:00","4","43.5666666","-5.7","6.0","GIJON MUSEL, SP","FM-12","99999","V020","040,1,N,0036,1","03600,1,9,N","013000,1,N,1","+0222,1","+0167,1","10201,1",,,,,,,,"05,99,1,02,1,04,1,00800,1,05,1,00,1",,,,,"99999,9,10194,1","7,1,006,1,+999,9",,"SYN076AAXX  19154 08014 42563 50407 10222 20167 30194 40201 57006 82450 333 92428;",
"08014099999","2010-07-19T18:00:00","4","43.5666666","-5.7","6.0","GIJON MUSEL, SP","FM-12","99999","V020","020,1,N,0021,1","01200,1,9,N","015000,1,N,1","+0214,1","+0168,1","10195,1","12,0003,9,1",,,,,,,"08,99,1,05,1,08,1,00800,1,05,1,99,9",,,,"120,M,+0225,1","99999,9,10187,1","7,1,007,1,+999,9",,"SYN088AAXX  19184 08014 12565 80204 10214 20168 30187 40195 57007 69932 8585/ 333 10225 92428;",
"08014099999","2010-07-20T06:00:00","4","43.5666666","-5.7","6.0","GIJON MUSEL, SP","FM-12","99999","V020","260,1,N,0005,1","01200,1,9,N","013000,1,N,1","+0194,1","+0172,1","10165,1","12,0000,9,1","24,0003,9,1",,,,,,"08,99,1,05,1,08,1,00800,1,05,1,99,9","0270,9","01,9","999,+0180,9","999,N,+0190,1","99999,9,10157,1","6,1,002,1,+999,9","02,1","SYN112AAXX  20064 08014 11563 82601 10194 20172 30157 40165 56002 60002 702// 8585/ 333 20190 30018 50194 55045 70003;","Q01  00002PRCP12"
"08014099999","2010-07-20T09:00:00","4","43.5666666","-5.7","6.0","GIJON MUSEL, SP","FM-12","99999","V020","030,1,N,0026,1","01200,1,9,N","015000,1,N,1","+0198,1","+0161,1","10159,1",,,,,,,,"08,99,1,06,1,08,1,00800,1,05,1,99,9",,,,,"99999,9,10151,1","7,1,006,1,+999,9",,"SYN076AAXX  20094 08014 42565 80305 10198 20161 30151 40159 57006 8685/ 333 92428;",
"08014099999","2010-07-20T12:00:00","4","43.5666666","-5.7","6.0","GIJON MUSEL, SP","FM-12","99999","V020","040,1,N,0021,1","01200,1,9,N","015000,1,N,1","+0204,1","+0154,1","10152,1","06,0000,9,1",,,,,,,"08,99,1,06,1,08,1,00800,1,05,1,99,9",,,,,"99999,9,10144,1","7,1,007,1,+999,9",,"SYN082AAXX  20124 08014 12565 80404 10204 20154 30144 40152 57007 60001 8685/ 333 92438;","Q01  00002PRCP06"
"08014099999","2010-07-20T15:00:00","4","43.5666666","-5.7","6.0","GIJON MUSEL, SP","FM-12","99999","V020","020,1,N,0026,1","03600,1,9,N","020000,1,N,1","+0208,1","+0158,1","10143,1",,,,,,,,"07,99,1,04,1,04,1,00800,1,05,1,01,1",,,,,"99999,9,10136,1","7,1,008,1,+999,9",,"SYN076AAXX  20154 08014 42570 70205 10208 20158 30136 40143 57008 84451 333 92438;",
"08014099999","2010-07-20T18:00:00","4","43.5666666","-5.7","6.0","GIJON MUSEL, SP","FM-12","99999","V020","020,1,N,0015,1","03600,1,9,N","020000,1,N,1","+0212,1","+0148,1","10132,1","12,0000,9,1",,,,,,,"08,99,1,03,1,04,1,00800,1,05,1,99,9",,,,"120,M,+0220,1","99999,9,10125,1","7,1,011,1,+999,9",,"SYN088AAXX  20184 08014 12570 80203 10212 20148 30125 40132 57011 60002 8345/ 333 10220 92428;","Q01  00002PRCP12"
"08014099999","2010-07-21T06:00:00","4","43.5666666","-5.7","6.0","GIJON MUSEL, SP","FM-12","99999","V020","250,1,N,0021,1","01200,1,9,N","015000,1,N,1","+0182,1","+0147,1","10126,1","12,0010,9,1","24,0010,9,1",,,,,,"08,99,1,05,1,08,1,00800,1,07,1,99,9","0204,9","11,9","999,+0170,9","999,N,+0176,1","99999,9,10118,1","2,1,003,1,+999,9","02,1","SYN112AAXX  21064 08014 11565 82504 10182 20147 30118 40126 52003 60012 702// 8587/ 333 20176 32017 50294 55034 70010;",
"08014099999","2010-07-21T09:00:00","4","43.5666666","-5.7","6.0","GIJON MUSEL, SP","FM-12","99999","V020","220,1,N,0021,1","01200,1,9,N","025000,1,N,1","+0188,1","+0139,1","10135,1",,,,,,,,"08,99,1,05,1,08,1,00800,1,05,1,99,9",,,,,"99999,9,10127,1","2,1,009,1,+999,9",,"SYN066AAXX  21094 08014 42575 82204 10188 20139 30127 40135 52009 8585/;",
"08014099999","2010-07-21T12:00:00","4","43.5666666","-5.7","6.0","GIJON MUSEL, SP","FM-12","99999","V020","999,9,C,0000,1","01200,1,9,N","020000,1,N,1","+0202,1","+0132,1","10137,1","06,0000,9,1",,,,,,,"08,99,1,05,1,08,1,00800,1,05,1,99,9",,,,,"99999,9,10129,1","2,1,002,1,+999,9",,"SYN082AAXX  21124 08014 12570 80000 10202 20132 30129 40137 52002 60001 8585/ 333 92428;","Q01  00002PRCP06"
"08014099999","2010-07-21T15:00:00","4","43.5666666","-5.7","6.0","GIJON MUSEL, SP","FM-12","99999","V020","040,1,N,0015,1","01200,1,9,N","030000,1,N,1","+0206,1","+0107,1","10138,1",,,,,,,,"08,99,1,06,1,08,1,00800,1,05,1,00,1",,,,,"99999,9,10130,1","2,1,001,1,+999,9",,"SYN076AAXX  21154 08014 42580 80403 10206 20107 30130 40138 52001 86850 333 92428;",
"08014099999","2010-07-21T18:00:00","4","43.5666666","-5.7","6.0","GIJON MUSEL, SP","FM-12","99999","V020","310,1,N,0010,1","03600,1,9,N","030000,1,N,1","+0200,1","+0135,1","10140,1","12,0000,9,1",,,,,,,"08,99,1,03,1,02,1,00800,1,05,1,99,9",,,,"120,M,+0206,1","99999,9,10132,1","2,1,002,1,+999,9",,"SYN088AAXX  21184 08014 12580 83102 10200 20135 30132 40140 52002 60002 8325/ 333 10206 92428;","Q01  00002PRCP12"
"08014099999","2010-07-22T06:00:00","4","43.5666666","-5.7","6.0","GIJON MUSEL, SP","FM-12","99999","V020","240,1,N,0015,1","00750,1,9,N","020000,1,N,1","+0170,1","+0139,1","10158,1","12,0010,9,1","24,0013,9,1",,,,,,"08,99,1,05,1,02,1,00800,1,05,1,99,9","0000,9","11,9","999,+0150,9","999,N,+0162,1","99999,9,10150,1","3,1,004,1,+999,9","02,1","SYN112AAXX  22064 08014 11570 82403 10170 20139 30150 40158 53004 60012 702// 8525/ 333 20162 32015 50304 55000 70012;",
"08014099999","2010-07-22T09:00:00","4","43.5666666","-5.7","6.0","GIJON MUSEL, SP","FM-12","99999","V020","260,1,N,0010,1","01200,1,9,N","020000,1,N,1","+0198,1","+0130,1","10171,1",,,,,,,,"07,99,1,05,1,08,1,00800,1,05,1,99,9",,,,,"99999,9,10163,1","2,1,013,1,+999,9",,"SYN076AAXX  22094 08014 42570 72602 10198 20130 30163 40171 52013 8585/ 333 92428;",
"08014099999","2010-07-22T12:00:00","4","43.5666666","-5.7","6.0","GIJON MUSEL, SP","FM-12","99999","V020","040,1,N,0036,1","01200,1,9,N","020000,1,N,1","+0202,1","+0114,1","10181,1","06,0000,9,1",,,,,,,"08,99,1,05,1,08,1,00800,1,05,1,99,9",,,,,"99999,9,10173,1","2,1,010,1,+999,9",,"SYN082AAXX  22124 08014 12570 80407 10202 20114 30173 40181 52010 60001 8585/ 333 92438;","Q01  00002PRCP06"
"08014099999","2010-07-22T15:00:00","4","43.5666666","-5.7","6.0","GIJON MUSEL, SP","FM-12","99999","V020","040,1,N,0036,1","22000,1,9,N","030000,1,N,1","+0210,1","+0129,1","10184,1",,,,,,,,"04,99,1,04,1,02,1,00800,1,03,1,00,1",,,,,"99999,9,10176,1","2,1,003,1,+999,9",,"SYN076AAXX  22154 08014 42580 40407 10210 20129 30176 40184 52003 84230 333 92438;",
"08014099999","2010-07-22T18:00:00","4","43.5666666","-5.7","6.0","GIJON MUSEL, SP","FM-12","99999","V020","020,1,N,0036,1","03600,1,9,N","030000,1,N,1","+0208,1","+0114,1","10195,1","12,0000,9,1",,,,,,,"06,99,1,04,1,02,1,00800,1,03,1,99,9",,,,"120,M,+0211,1","99999,9,10187,1","2,1,011,1,+999,9",,"SYN088AAXX  22184 08014 12580 60207 10208 20114 30187 40195 52011 60002 8423/ 333 10211 92438;","Q01  00002PRCP12"
"08014099999","2010-07-23T06:00:00","4","43.5666666","-5.7","6.0","GIJON MUSEL, SP","FM-12","99999","V020","220,1,N,0015,1","22000,1,9,N","010000,1,N,1","+0161,1","+0123,1","10237,1","12,0000,9,1","24,0003,9,1",,,,,,"03,99,1,02,1,08,1,00800,1,07,1,00,1","0282,9","01,9","999,+0140,9","999,N,+0155,1","99999,9,10229,1","2,1,010,1,+999,9","02,1","SYN112AAXX  23064 08014 11560 32203 10161 20123 30229 40237 52010 69922 702// 82870 333 20155 30014 50474 55047 70002;","Q01  00002PRCP12"
"08014099999","2010-07-23T09:00:00","4","43.5666666","-5.7","6.0","GIJON MUSEL, SP","FM-12","99999","V020","260,1,N,0026,1","01200,1,9,N","015000,1,N,1","+0186,1","+0119,1","10250,1",,,,,,,,"07,99,1,05,1,08,1,00800,1,07,1,00,1",,,,,"99999,9,10242,1","2,1,013,1,+999,9",,"SYN076AAXX  23094 08014 42565 72605 10186 20119 30242 40250 52013 85870 333 92437;",
"08014099999","2010-07-23T12:00:00","4","43.5666666","-5.7","6.0","GIJON MUSEL, SP","FM-12","99999","V020","040,1,N,0026,1","22000,1,9,N","020000,1,N,1","+0202,1","+0127,1","10259,1","06,0000,9,1",,,,,,,"04,99,1,03,1,01,1,00450,1,03,1,00,1",,,,,"99999,9,10251,1","2,1,009,1,+999,9",,"SYN082AAXX  23124 08014 12470 40405 10202 20127 30251 40259 52009 60001 83130 333 92437;","Q01  00002PRCP06"
"08014099999","2010-07-23T15:00:00","4","43.5666666","-5.7","6.0","GIJON MUSEL, SP","FM-12","99999","V020","040,1,N,0026,1","22000,1,9,N","025000,1,N,1","+0210,1","+0111,1","10262,1",,,,,,,,"03,99,1,02,1,01,1,00800,1,03,1,01,1",,,,,"99999,9,10254,1","2,1,003,1,+999,9",,"SYN076AAXX  23154 08014 42575 30405 10210 20111 30254 40262 52003 82131 333 92438;",
"08014099999","2010-07-23T18:00:00","4","43.5666666","-5.7","6.0","GIJON MUSEL, SP","FM-12","99999","V020","060,1,N,0021,1","22000,1,9,N","030000,1,N,1","+0215,1","+0124,1","10260,1","12,0000,9,1",,,,,,,"04,99,1,02,1,08,1,00800,1,03,1,01,1",,,,"120,M,+0220,1","99999,9,10252,1","8,1,002,1,+999,9",,"SYN088AAXX  23184 08014 12580 40604 10215 20124 30252 40260 58002 60002 82831 333 10220 92438;","Q01  00002PRCP12"
"08014099999","2010-07-24T06:00:00","4","43.5666666","-5.7","6.0","GIJON MUSEL, SP","FM-12","99999","V020","999,9,C,0000,1","22000,1,9,N","015000,1,N,1","+0158,1","+0125,1","10262,1","12,0000,9,1","24,0000,9,1",,,,,,"03,99,1,02,1,08,1,00800,1,03,1,01,1","0474,9","01,9","999,+0140,9","999,N,+0155,1","99999,9,10254,1","2,1,002,1,+999,9","02,1","SYN112AAXX  24064 08014 11565 30000 10158 20125 30254 40262 52002 60002 702// 82831 333 20155 30014 50564 55079 70000;","Q01  00002PRCP24Q02  00002PRCP12"
"08014099999","2010-07-24T09:00:00","4","43.5666666","-5.7","6.0","GIJON MUSEL, SP","FM-12","99999","V020","090,1,N,0010,1","22000,1,9,N","015000,1,N,1","+0210,1","+0127,1","10262,1",,,,,,,,"03,99,1,02,1,08,1,00800,1,03,1,00,1",,,,,"99999,9,10254,1","4,1,000,1,+999,9",,"SYN076AAXX  24094 08014 42565 30902 10210 20127 30254 40262 54000 82830 333 92437;",
"08014099999","2010-07-24T12:00:00","4","43.5666666","-5.7","6.0","GIJON MUSEL, SP","FM-12","99999","V020","070,1,N,0026,1","22000,1,9,N","015000,1,N,1","+0223,1","+0136,1","10255,1","06,0000,9,1",,,,,,,"02,99,1,01,1,00,1,01750,1,03,1,01,1",,,,,"99999,9,10247,1","8,1,007,1,+999,9",,"SYN082AAXX  24124 08014 12765 20705 10223 20136 30247 40255 58007 60001 81031 333 92437;","Q01  00002PRCP06"
"08014099999","2010-07-24T15:00:00","4","43.5666666","-5.7","6.0","GIJON MUSEL, SP","FM-12","99999","V020","070,1,N,0026,1","22000,1,9,N","030000,1,N,1","+0228,1","+0144,1","10252,1",,,,,,,,"01,99,1,01,1,00,1,01750,1,03,1,01,1",,,,,"99999,9,10244,1","7,1,003,1,+999,9",,"SYN076AAXX  24154 08014 42780 10705 10228 20144 30244 40252 57003 81031 333 92438;",
"08014099999","2010-07-24T18:00:00","4","43.5666666","-5.7","6.0","GIJON MUSEL, SP","FM-12","99999","V020","070,1,N,0026,1","22000,1,9,N","030000,1,N,1","+0219,1","+0143,1","10246,1","12,0000,9,1",,,,,,,"01,99,1,00,1,00,1,99999,9,00,1,01,1",,,,"120,M,+0235,1","99999,9,10238,1","7,1,006,1,+999,9",,"SYN088AAXX  24184 08014 12980 10705 10219 20143 30238 40246 57006 60002 80001 333 10235 92438;","Q01  00002PRCP12"
"08014099999","2010-07-25T06:00:00","4","43.5666666","-5.7","6.0","GIJON MUSEL, SP","FM-12","99999","V020","220,1,N,0026,1","22000,1,9,N","010000,1,N,1","+0166,1","+0133,1","10229,1","12,0000,9,1","24,0000,9,1",,,,,,"04,99,1,03,1,05,1,00800,1,08,1,00,1","0786,9","01,9","999,+0140,9","999,N,+0150,1","99999,9,10221,1","7,1,002,1,+999,9","02,1","SYN112AAXX  25064 08014 11560 42205 10166 20133 30221 40229 57002 60002 702// 83580 333 20150 30014 50454 55131 70000;","Q01  00002PRCP24Q02  00002PRCP12"
"08014099999","2010-07-25T09:00:00","4","43.5666666","-5.7","6.0","GIJON MUSEL, SP","FM-12","99999","V020","110,1,N,0010,1","01200,1,9,N","010000,1,N,1","+0199,1","+0147,1","10229,1",,,,,,,,"07,99,1,05,1,05,1,01250,1,03,1,00,1",,,,,"99999,9,10221,1","4,1,000,1,+999,9",,"SYN076AAXX  25094 08014 42660 71102 10199 20147 30221 40229 54000 85530 333 92426;",
"08014099999","2010-07-25T12:00:00","4","43.5666666","-5.7","6.0","GIJON MUSEL, SP","FM-12","99999","V020","030,1,N,0026,1","22000,1,9,N","015000,1,N,1","+0217,1","+0155,1","10226,1","06,0000,9,1",,,,,,,"02,99,1,02,1,05,1,00800,1,00,1,00,1",,,,,"99999,9,10218,1","8,1,003,1,+999,9",,"SYN082AAXX  25124 08014 12565 20305 10217 20155 30218 40226 58003 60001 82500 333 92426;","Q01  00002PRCP06"
"08014099999","2010-07-25T15:00:00","4","43.5666666","-5.7","6.0","GIJON MUSEL, SP","FM-12","99999","V020","050,1,N,0026,1","22000,1,9,N","030000,1,N,1","+0224,1","+0160,1","10223,1",,,,,,"00,1,+99999,9,99,9",,"00,99,1,00,1,00,1,99999,9,00,1,00,1",,,,,"99999,9,10215,1","7,1,003,1,+999,9",,"SYN070AAXX  25154 08014 42980 00505 10224 20160 30215 40223 57003 333 92428;",
"08014099999","2010-07-25T18:00:00","4","43.5666666","-5.7","6.0","GIJON MUSEL, SP","FM-12","99999","V020","030,1,N,0021,1","01200,1,9,N","030000,1,N,1","+0212,1","+0176,1","10221,1","12,0000,9,1",,,,,,,"07,99,1,05,1,08,1,00800,1,07,1,00,1",,,,"120,M,+0230,1","99999,9,10213,1","7,1,002,1,+999,9",,"SYN088AAXX  25184 08014 12580 70304 10212 20176 30213 40221 57002 60002 85870 333 10230 92428;","Q01  00002PRCP12"
"08014099999","2010-07-26T06:00:00","4","43.5666666","-5.7","6.0","GIJON MUSEL, SP","FM-12","99999","V020","110,1,N,0010,1","22000,1,9,N","015000,1,N,1","+0194,1","+0157,1","10205,1","12,0000,9,1","24,0000,9,1",,,,,,"03,99,1,02,1,01,1,00800,1,03,1,00,1","0456,9","01,9","999,+0180,9","999,N,+0194,1","99999,9,10197,1","7,1,002,1,+999,9","02,1","SYN112AAXX  26064 08014 11565 31102 10194 20157 30197 40205 57002 69912 702// 82130 333 20194 30018 50384 55076 70001;","Q01  00002PRCP24Q02  00002PRCP12"
"08014099999","2010-07-26T09:00:00","4","43.5666666","-5.7","6.0","GIJON MUSEL, SP","FM-12","99999","V020","070,1,N,0015,1","03600,1,9,N","015000,1,N,1","+0210,1","+0160,1","10213,1",,,,,,,,"05,99,1,04,1,01,1,00800,1,03,1,00,1",,,,,"99999,9,10205,1","3,1,008,1,+999,9",,"SYN076AAXX  26094 08014 42565 50703 10210 20160 30205 40213 53008 84130 333 92427;",
"08014099999","2010-07-26T12:00:00","4","43.5666666","-5.7","6.0","GIJON MUSEL, SP","FM-12","99999","V020","060,1,N,0026,1","22000,1,9,N","020000,1,N,1","+0222,1","+0151,1","10213,1","06,0000,9,1",,,,,,,"01,99,1,01,1,01,1,01250,1,00,1,00,1",,,,,"99999,9,10205,1","4,1,000,1,+999,9",,"SYN082AAXX  26124 08014 12670 10605 10222 20151 30205 40213 54000 60001 81100 333 92427;","Q01  00002PRCP06"
"08014099999","2010-07-26T15:00:00","4","43.5666666","-5.7","6.0","GIJON MUSEL, SP","FM-12","99999","V020","070,1,N,0026,1","22000,1,9,N","030000,1,N,1","+0232,1","+0160,1","10206,1",,,,,,"00,1,+99999,9,99,9",,"00,99,1,00,1,00,1,99999,9,00,1,00,1",,,,,"99999,9,10199,1","8,1,006,1,+999,9",,"SYN070AAXX  26154 08014 42980 00705 10232 20160 30199 40206 58006 333 92428;",
"08014099999","2010-07-26T18:00:00","4","43.5666666","-5.7","6.0","GIJON MUSEL, SP","FM-12","99999","V020","070,1,N,0031,1","22000,1,9,N","030000,1,N,1","+0228,1","+0161,1","10203,1","12,0000,9,1",,,,,,,"01,99,1,01,1,01,1,01250,1,00,1,00,1",,,,"120,M,+0240,1","99999,9,10196,1","7,1,003,1,+999,9",,"SYN088AAXX  26184 08014 12680 10706 10228 20161 30196 40203 57003 60002 81100 333 10240 92428;","Q01  00002PRCP12"
"08014099999","2010-07-27T06:00:00","4","43.5666666","-5.7","6.0","GIJON MUSEL, SP","FM-12","99999","V020","120,1,N,0031,1","00750,1,9,N","020000,1,N,1","+0200,1","+0152,1","10195,1","12,0000,9,1","24,0000,9,1",,,,,,"06,99,1,05,1,01,1,00800,1,03,1,00,1","0756,9","01,9","999,+0180,9","999,N,+0197,1","99999,9,10187,1","2,1,002,1,+999,9","02,1","SYN112AAXX  27064 08014 11570 61206 10200 20152 30187 40195 52002 60002 702// 85130 333 20197 30018 50474 55126 70000;","Q01  00002PRCP24Q02  00002PRCP12"
"08014099999","2010-07-27T09:00:00","4","43.5666666","-5.7","6.0","GIJON MUSEL, SP","FM-12","99999","V020","080,1,N,0036,1","22000,1,9,N","015000,1,N,1","+0220,1","+0165,1","10202,1",,,,,,,,"02,99,1,02,1,08,1,01250,1,00,1,00,1",,,,,"99999,9,10194,1","2,1,007,1,+999,9",,"SYN076AAXX  27094 08014 42665 20807 10220 20165 30194 40202 52007 82800 333 92437;",
"08014099999","2010-07-27T12:00:00","4","43.5666666","-5.7","6.0","GIJON MUSEL, SP","FM-12","99999","V020","070,1,N,0031,1","22000,1,9,N","015000,1,N,1","+0236,1","+0178,1","10196,1","06,0000,9,1",,,,,,,"01,99,1,01,1,01,1,01250,1,00,1,00,1",,,,,"99999,9,10189,1","8,1,005,1,+999,9",,"SYN082AAXX  27124 08014 12665 10706 10236 20178 30189 40196 58005 60001 81100 333 92437;","Q01  00002PRCP06"
"08014099999","2010-07-27T15:00:00","4","43.5666666","-5.7","6.0","GIJON MUSEL, SP","FM-12","99999","V020","080,1,N,0026,1","22000,1,9,N","020000,1,N,1","+0242,1","+0179,1","10194,1",,,,,,,,"02,99,1,02,1,01,1,01250,1,00,1,00,1",,,,,"99999,9,10187,1","7,1,002,1,+999,9",,"SYN076AAXX  27154 08014 42670 20805 10242 20179 30187 40194 57002 82100 333 92437;",
"08014099999","2010-07-27T18:00:00","4","43.5666666","-5.7","6.0","GIJON MUSEL, SP","FM-12","99999","V020","080,1,N,0041,1","22000,1,9,N","020000,1,N,1","+0227,1","+0180,1","10190,1","12,0000,9,1",,,,,,,"04,99,1,03,1,01,1,01250,1,03,1,00,1",,,,"120,M,+0250,1","99999,9,10183,1","7,1,004,1,+999,9",,"SYN088AAXX  27184 08014 12670 40808 10227 20180 30183 40190 57004 60002 83130 333 10250 92437;","Q01  00002PRCP12"
"08014099999","2010-07-28T06:00:00","4","43.5666666","-5.7","6.0","GIJON MUSEL, SP","FM-12","99999","V020","090,1,N,0015,1","03600,1,9,N","010000,1,N,1","+0207,1","+0183,1","10202,1","12,0000,9,1","24,0000,9,1",,,,,,"06,99,1,04,1,01,1,00450,1,03,1,00,1","0642,9","01,9","999,+0190,9","999,N,+0205,1","99999,9,10194,1","2,1,005,1,+999,9","02,1","SYN112AAXX  28064 08014 11460 60903 10207 20183 30194 40202 52005 60002 702// 84130 333 20205 30019 50374 55107 70000;","Q01  00002PRCP24Q02  00002PRCP12"
"08014099999","2010-07-28T09:00:00","4","43.5666666","-5.7","6.0","GIJON MUSEL, SP","FM-12","99999","V020","070,1,N,0015,1","00750,1,9,N","010000,1,N,1","+0218,1","+0186,1","10210,1",,,,,,,,"07,99,1,05,1,01,1,00800,1,03,1,00,1",,,,,"99999,9,10202,1","2,1,008,1,+999,9",,"SYN076AAXX  28094 08014 42560 70703 10218 20186 30202 40210 52008 85130 333 92426;",
"08014099999","2010-07-28T12:00:00","4","43.5666666","-5.7","6.0","GIJON MUSEL, SP","FM-12","99999","V020","080,1,N,0026,1","22000,1,9,N","010000,1,N,1","+0243,1","+0187,1","10207,1","06,0000,9,1",,,,,,,"02,99,1,02,1,01,1,00800,1,00,1,00,1",,,,,"99999,9,10200,1","8,1,002,1,+999,9",,"SYN082AAXX  28124 08014 12560 20805 10243 20187 30200 40207 58002 60001 82100 333 92426;","Q01  00002PRCP06"
"08014099999","2010-07-28T15:00:00","4","43.5666666","-5.7","6.0","GIJON MUSEL, SP","FM-12","99999","V020","070,1,N,0031,1","22000,1,9,N","015000,1,N,1","+0240,1","+0193,1","10204,1",,,,,,,,"03,99,1,02,1,01,1,00800,1,03,1,00,1",,,,,"99999,9,10197,1","7,1,003,1,+999,9",,"SYN076AAXX  28154 08014 42565 30706 10240 20193 30197 40204 57003 82130 333 92437;",
"08014099999","2010-07-28T18:00:00","4","43.5666666","-5.7","6.0","GIJON MUSEL, SP","FM-12","99999","V020","070,1,N,0031,1","00750,1,9,N","015000,1,N,1","+0228,1","+0188,1","10203,1","12,0000,9,1",,,,,,,"07,99,1,05,1,01,1,00800,1,03,1,01,1",,,,"120,M,+0250,1","99999,9,10196,1","7,1,001,1,+999,9",,"SYN088AAXX  28184 08014 12565 70706 10228 20188 30196 40203 57001 60002 85131 333 10250 92437;","Q01  00002PRCP12"
"08014099999","2010-07-29T06:00:00","4","43.5666666","-5.7","6.0","GIJON MUSEL, SP","FM-12","99999","V020","060,1,N,0015,1","00750,1,9,N","010000,1,N,1","+0200,1","+0170,1","10205,1","12,0000,9,1","24,0000,9,1",,,,,,"08,99,1,05,1,06,1,00800,1,07,1,99,9","0552,9","01,9","999,+0180,9","999,N,+0196,1","99999,9,10197,1","4,1,000,1,+999,9","02,1","SYN112AAXX  29064 08014 11560 80603 10200 20170 30197 40205 54000 60002 702// 8567/ 333 20196 30018 50304 55092 70000;","Q01  00002PRCP24Q02  00002PRCP12"
"08014099999","2010-07-29T09:00:00","4","43.5666666","-5.7","6.0","GIJON MUSEL, SP","FM-12","99999","V020","070,1,N,0021,1","00750,1,9,N","015000,1,N,1","+0214,1","+0161,1","10209,1",,,,,,,,"07,99,1,05,1,01,1,00800,1,03,1,00,1",,,,,"99999,9,10201,1","3,1,004,1,+999,9",,"SYN076AAXX  29094 08014 42565 70704 10214 20161 30201 40209 53004 85130 333 92427;",
"08014099999","2010-07-29T12:00:00","4","43.5666666","-5.7","6.0","GIJON MUSEL, SP","FM-12","99999","V020","060,1,N,0026,1","22000,1,9,N","030000,1,N,1","+0229,1","+0157,1","10207,1","06,0000,9,1",,,,,,,"03,99,1,02,1,01,1,00800,1,03,1,01,1",,,,,"99999,9,10200,1","8,1,001,1,+999,9",,"SYN082AAXX  29124 08014 12580 30605 10229 20157 30200 40207 58001 60001 82131 333 92428;","Q01  00002PRCP06"
"08014099999","2010-07-29T15:00:00","4","43.5666666","-5.7","6.0","GIJON MUSEL, SP","FM-12","99999","V020","100,1,N,0015,1","22000,1,9,N","030000,1,N,1","+0244,1","+0171,1","10203,1",,,,,,,,"04,99,1,03,1,01,1,00800,1,03,1,00,1",,,,,"99999,9,10196,1","7,1,004,1,+999,9",,"SYN076AAXX  29154 08014 42580 41003 10244 20171 30196 40203 57004 83130 333 92428;",
"08014099999","2010-07-29T18:00:00","4","43.5666666","-5.7","6.0","GIJON MUSEL, SP","FM-12","99999","V020","060,1,N,0021,1","03600,1,9,N","030000,1,N,1","+0220,1","+0167,1","10201,1","12,0000,9,1",,,,,,,"06,99,1,04,1,01,1,00800,1,03,1,00,1",,,,"120,M,+0248,1","99999,9,10193,1","7,1,003,1,+999,9",,"SYN088AAXX  29184 08014 12580 60604 10220 20167 30193 40201 57003 60002 84130 333 10248 92428;","Q01  00002PRCP12"
"08014099999","2010-07-30T06:00:00","4","43.5666666","-5.7","6.0","GIJON MUSEL, SP","FM-12","99999","V020","070,1,N,0021,1","00420,1,9,N","007000,1,N,1","+0192,1","+0175,1","10182,1","12,0003,9,1","24,0003,9,1",,,,,,"08,99,1,06,1,06,1,00450,1,07,1,99,9","0318,9","11,9","999,+0180,9","999,N,+0188,1","99999,9,10174,1","3,1,002,1,+999,9","51,1","SYN112AAXX  30064 08014 11457 80704 10192 20175 30174 40182 53002 69932 751// 8667/ 333 20188 32018 50364 55053 70003;",
"08014099999","2010-07-30T09:00:00","4","43.5666666","-5.7","6.0","GIJON MUSEL, SP","FM-12","99999","V020","060,1,N,0021,1","00420,1,9,N","008000,1,N,1","+0192,1","+0179,1","10181,1",,,,"5,1,03,1","4,1,03,1",,,"08,99,1,06,1,07,1,00450,1,07,1,99,9",,,,,"99999,9,10173,1","7,1,001,1,+999,9","51,1","SYN082AAXX  30094 08014 41458 80604 10192 20179 30173 40181 57001 75154 8677/ 333 92427;",
"08014099999","2010-07-30T12:00:00","4","43.5666666","-5.7","6.0","GIJON MUSEL, SP","FM-12","99999","V020","080,1,N,0026,1","03600,1,9,N","020000,1,N,1","+0222,1","+0173,1","10167,1","06,0000,2,1",,,"5,1,06,1","2,1,06,1",,,"07,99,1,04,1,08,1,00800,1,05,1,99,9",,,,,"99999,9,10160,1","7,1,013,1,+999,9","02,1","SYN088AAXX  30124 08014 11570 70805 10222 20173 30160 40167 57013 69911 70252 8485/ 333 92438;",
"08014099999","2010-07-30T15:00:00","4","43.5666666","-5.7","6.0","GIJON MUSEL, SP","FM-12","99999","V020","070,1,N,0031,1","03600,1,9,N","030000,1,N,1","+0234,1","+0164,1","10170,1",,,,,,,,"07,99,1,04,1,08,1,00800,1,05,1,99,9",,,,,"99999,9,10163,1","2,1,003,1,+999,9",,"SYN076AAXX  30154 08014 42580 70706 10234 20164 30163 40170 52003 8485/ 333 92438;",
"08014099999","2010-07-30T18:00:00","4","43.5666666","-5.7","6.0","GIJON MUSEL, SP","FM-12","99999","V020","080,1,N,0026,1","01200,1,9,N","030000,1,N,1","+0220,1","+0161,1","10169,1","12,0000,2,1",,,,,,,"08,99,1,05,1,08,1,00800,1,05,1,99,9",,,,"120,M,+0238,1","99999,9,10162,1","7,1,001,1,+999,9",,"SYN088AAXX  30184 08014 12580 80805 10220 20161 30162 40169 57001 69912 8585/ 333 10238 92438;",
"08014099999","2010-07-31T06:00:00","4","43.5666666","-5.7","6.0","GIJON MUSEL, SP","FM-12","99999","V020","070,1,N,0010,1","01200,1,9,N","020000,1,N,1","+0202,1","+0172,1","10151,1","12,0000,9,1","24,0000,2,1",,,,,,"07,99,1,05,1,08,1,00800,1,03,1,99,9","0090,9","01,9","999,+0200,9","999,N,+0200,1","99999,9,10143,1","3,1,001,1,+999,9","02,1","SYN112AAXX  31064 08014 11570 70702 10202 20172 30143 40151 53001 60002 702// 8583/ 333 20200 30020 50304 55015 70001;","Q01  00002PRCP12"
"08014099999","2010-07-31T09:00:00","4","43.5666666","-5.7","6.0","GIJON MUSEL, SP","FM-12","99999","V020","090,1,N,0015,1","01200,1,9,N","030000,1,N,1","+0222,1","+0173,1","10160,1",,,,,,,,"08,99,1,06,1,08,1,00800,1,05,1,99,9",,,,,"99999,9,10153,1","2,1,010,1,+999,9",,"SYN076AAXX  31094 08014 42580 80903 10222 20173 30153 40160 52010 8685/ 333 92428;",
"08014099999","2010-07-31T12:00:00","4","43.5666666","-5.7","6.0","GIJON MUSEL, SP","FM-12","99999","V020","080,1,N,0021,1","01200,1,9,N","030000,1,N,1","+0232,1","+0167,1","10164,1","06,0000,9,1",,,,,,,"08,99,1,06,1,08,1,00800,1,05,1,99,9",,,,,"99999,9,10157,1","2,1,004,1,+999,9",,"SYN082AAXX  31124 08014 12580 80804 10232 20167 30157 40164 52004 60001 8685/ 333 92428;","Q01  00002PRCP06"
"08014099999","2010-07-31T15:00:00","4","43.5666666","-5.7","6.0","GIJON MUSEL, SP","FM-12","99999","V020","100,1,N,0015,1","00750,1,9,N","030000,1,N,1","+0224,1","+0180,1","10167,1",,,,,,,,"08,99,1,05,1,02,1,00800,1,05,1,99,9",,,,,"99999,9,10160,1","2,1,003,1,+999,9",,"SYN076AAXX  31154 08014 42580 81003 10224 20180 30160 40167 52003 8525/ 333 92428;",
"08014099999","2010-07-31T18:00:00","4","43.5666666","-5.7","6.0","GIJON MUSEL, SP","FM-12","99999","V020","080,1,N,0015,1","01200,1,9,N","030000,1,N,1","+0220,1","+0176,1","10167,1","12,0000,9,1",,,,,,,"08,99,1,06,1,08,1,00800,1,05,1,99,9",,,,"120,M,+0232,1","99999,9,10160,1","4,1,000,1,+999,9",,"SYN088AAXX  31184 08014 12580 80803 10220 20176 30160 40167 54000 60002 8685/ 333 10232 92428;","Q01  00002PRCP12"
"08014099999","2010-08-01T06:00:00","4","43.5666666","-5.7","6.0","GIJON MUSEL, SP","FM-12","99999","V020","999,9,C,0000,1","00750,1,9,N","020000,1,N,1","+0200,1","+0170,1","10170,1","12,0000,9,1","24,0000,9,1",,,,,,"06,99,1,05,1,02,1,00800,1,03,1,00,1","0042,9","01,9","999,+0190,9","999,N,+0195,1","99999,9,10162,1","3,1,001,1,+999,9","02,1","SYN112AAXX  01064 08014 11570 60000 10200 20170 30162 40170 53001 60002 702// 85230 333 20195 30019 50304 55007 70000;","Q01  00002PRCP24Q02  00002PRCP12"
"08014099999","2010-08-01T09:00:00","4","43.5666666","-5.7","6.0","GIJON MUSEL, SP","FM-12","99999","V020","080,1,N,0010,1","01200,1,9,N","030000,1,N,1","+0228,1","+0161,1","10173,1",,,,,,,,"06,99,1,05,1,08,1,00800,1,03,1,99,9",,,,,"99999,9,10166,1","1,1,004,1,+999,9",,"SYN076AAXX  01094 08014 42580 60802 10228 20161 30166 40173 51004 8583/ 333 92428;",
"08014099999","2010-08-01T12:00:00","4","43.5666666","-5.7","6.0","GIJON MUSEL, SP","FM-12","99999","V020","020,1,N,0036,1","01200,1,9,N","030000,1,N,1","+0216,1","+0174,1","10177,1","06,0000,9,1",,,,,,,"08,99,1,06,1,08,1,00800,1,05,1,99,9",,,,,"99999,9,10170,1","2,1,004,1,+999,9",,"SYN082AAXX  01124 08014 12580 80207 10216 20174 30170 40177 52004 60001 8685/ 333 92428;","Q01  00002PRCP06"
"08014099999","2010-08-01T15:00:00","4","43.5666666","-5.7","6.0","GIJON MUSEL, SP","FM-12","99999","V020","030,1,N,0036,1","01200,1,9,N","020000,1,N,1","+0216,1","+0170,1","10179,1",,,,,,,,"08,99,1,06,1,08,1,00800,1,05,1,99,9",,,,,"99999,9,10172,1","2,1,002,1,+999,9",,"SYN076AAXX  01154 08014 42570 80307 10216 20170 30172 40179 52002 8685/ 333 92428;",
"08014099999","2010-08-01T18:00:00","4","43.5666666","-5.7","6.0","GIJON MUSEL, SP","FM-12","99999","V020","040,1,N,0026,1","01200,1,9,N","015000,1,N,1","+0208,1","+0162,1","10180,1","12,0000,9,1",,,,,,,"08,99,1,06,1,08,1,00800,1,07,1,99,9",,,,"120,M,+0230,1","99999,9,10172,1","4,1,000,1,+999,9",,"SYN088AAXX  01184 08014 12565 80405 10208 20162 30172 40180 54000 60002 8687/ 333 10230 92428;","Q01  00002PRCP12"
"08014099999","2010-08-02T06:00:00","4","43.5666666","-5.7","6.0","GIJON MUSEL, SP","FM-12","99999","V020","240,1,N,0015,1","01200,1,9,N","020000,1,N,1","+0184,1","+0153,1","10190,1","12,0000,9,1","24,0000,9,1",,,,,,"08,99,1,06,1,08,1,00800,1,05,1,99,9","0414,9","01,9","999,+0170,9","999,N,+0178,1","99999,9,10182,1","3,1,006,1,+999,9","02,1","SYN112AAXX  02064 08014 11570 82403 10184 20153 30182 40190 53006 60002 702// 8685/ 333 20178 30017 50354 55069 70000;","Q01  00002PRCP24Q02  00002PRCP12"
"08014099999","2010-08-02T09:00:00","4","43.5666666","-5.7","6.0","GIJON MUSEL, SP","FM-12","99999","V020","999,9,C,0000,1","01200,1,9,N","015000,1,N,1","+0202,1","+0158,1","10198,1",,,,,,,,"08,99,1,06,1,08,1,00800,1,05,1,99,9",,,,,"99999,9,10190,1","2,1,008,1,+999,9",,"SYN076AAXX  02094 08014 42565 80000 10202 20158 30190 40198 52008 8685/ 333 92428;",
"08014099999","2010-08-02T12:00:00","4","43.5666666","-5.7","6.0","GIJON MUSEL, SP","FM-12","99999","V020","040,1,N,0026,1","03600,1,9,N","020000,1,N,1","+0220,1","+0136,1","10207,1","06,0000,9,1",,,,,,,"06,99,1,04,1,02,1,00800,1,05,1,99,9",,,,,"99999,9,10199,1","2,1,009,1,+999,9",,"SYN082AAXX  02124 08014 12570 60405 10220 20136 30199 40207 52009 60001 8425/ 333 92428;","Q01  00002PRCP06"
"08014099999","2010-08-02T15:00:00","4","43.5666666","-5.7","6.0","GIJON MUSEL, SP","FM-12","99999","V020","020,1,N,0031,1","22000,1,9,N","030000,1,N,1","+0222,1","+0155,1","10208,1",,,,,,,,"03,99,1,03,1,02,1,00800,1,03,1,00,1",,,,,"99999,9,10200,1","2,1,001,1,+999,9",,"SYN076AAXX  02154 08014 42580 30206 10222 20155 30200 40208 52001 83230 333 92428;",
"08014099999","2010-08-03T06:00:00","4","43.5666666","-5.7","6.0","GIJON MUSEL, SP","FM-12","99999","V020","270,1,N,0015,1","00750,1,9,N","020000,1,N,1","+0185,1","+0159,1","10222,1","12,0000,9,1","24,0003,9,1",,,,,,"07,99,1,05,1,04,1,00800,1,03,1,99,9","0438,9","09,9","999,+0180,9","999,N,+0185,1","99999,9,10214,1","3,1,010,1,+999,9","02,1","SYN112AAXX  03064 08014 11570 72703 10185 20159 30214 40222 53010 69922 702// 8543/ 333 20185 31018 50414 55073 70002;","Q01  00002PRCP12"
"08014099999","2010-08-03T09:00:00","4","43.5666666","-5.7","6.0","GIJON MUSEL, SP","FM-12","99999","V020","100,1,N,0010,1","22000,1,9,N","030000,1,N,1","+0220,1","+0136,1","10223,1",,,,,,,,"04,99,1,03,1,04,1,00800,1,03,1,00,1",,,,,"99999,9,10215,1","2,1,001,1,+999,9",,"SYN076AAXX  03094 08014 42580 41002 10220 20136 30215 40223 52001 83430 333 92428;",
"08014099999","2010-08-03T12:00:00","4","43.5666666","-5.7","6.0","GIJON MUSEL, SP","FM-12","99999","V020","030,1,N,0031,1","22000,1,9,N","030000,1,N,1","+0214,1","+0157,1","10221,1","06,0000,9,1",,,,,,,"03,99,1,02,1,04,1,00800,1,03,1,01,1",,,,,"99999,9,10213,1","7,1,002,1,+999,9",,"SYN082AAXX  03124 08014 12580 30306 10214 20157 30213 40221 57002 60001 82431 333 92428;","Q01  00002PRCP06"
"08014099999","2010-08-03T15:00:00","4","43.5666666","-5.7","6.0","GIJON MUSEL, SP","FM-12","99999","V020","020,1,N,0021,1","22000,1,9,N","030000,1,N,1","+0220,1","+0156,1","10214,1",,,,,,,,"04,99,1,03,1,02,1,00800,1,03,1,00,1",,,,,"99999,9,10206,1","7,1,007,1,+999,9",,"SYN076AAXX  03154 08014 42580 40204 10220 20156 30206 40214 57007 83230 333 92428;",
"08014099999","2010-08-03T18:00:00","4","43.5666666","-5.7","6.0","GIJON MUSEL, SP","FM-12","99999","V020","050,1,N,0015,1","22000,1,9,N","030000,1,N,1","+0220,1","+0149,1","10210,1","12,0000,9,1",,,,,,,"03,99,1,02,1,04,1,00800,1,03,1,00,1",,,,"120,M,+0231,1","99999,9,10202,1","7,1,004,1,+999,9",,"SYN088AAXX  03184 08014 12580 30503 10220 20149 30202 40210 57004 60002 82430 333 10231 92428;","Q01  00002PRCP12"
"08014099999","2010-08-04T06:00:00","4","43.5666666","-5.7","6.0","GIJON MUSEL, SP","FM-12","99999","V020","240,1,N,0021,1","22000,1,9,N","012000,1,N,1","+0192,1","+0140,1","10186,1","12,0000,9,1","24,0000,9,1",,,,,,"01,99,1,01,1,05,1,01250,1,00,1,01,1","0726,9","01,9","999,+0170,9","999,N,+0182,1","99999,9,10178,1","6,1,003,1,+999,9",,"SYN106AAXX  04064 08014 12662 12404 10192 20140 30178 40186 56003 60002 81501 333 20182 30017 50364 55121 70000;","Q01  00002PRCP24Q02  00002PRCP12"
"08014099999","2010-08-04T09:00:00","4","43.5666666","-5.7","6.0","GIJON MUSEL, SP","FM-12","99999","V020","250,1,N,0021,1","01200,1,9,N","012000,1,N,1","+0206,1","+0145,1","10190,1",,,,,,,,"07,99,1,07,1,05,1,01250,1,00,1,00,1",,,,,"99999,9,10182,1","1,1,004,1,+999,9",,"SYN076AAXX  04094 08014 42662 72504 10206 20145 30182 40190 51004 87500 333 92437;",
"08014099999","2010-08-04T12:00:00","4","43.5666666","-5.7","6.0","GIJON MUSEL, SP","FM-12","99999","V020","030,1,N,0015,1","01500,1,9,N","020000,1,N,1","+0222,1","+0160,1","10185,1","06,0000,9,1",,,,,,,"06,99,1,06,1,08,1,01250,1,06,1,00,1",,,,,"99999,9,10178,1","6,1,004,1,+999,9",,"SYN082AAXX  04124 08014 12670 60303 10222 20160 30178 40185 56004 60001 86860 333 92437;","Q01  00002PRCP06"
"08014099999","2010-08-04T15:00:00","4","43.5666666","-5.7","6.0","GIJON MUSEL, SP","FM-12","99999","V020","020,1,N,0010,1","01500,1,9,N","020000,1,N,1","+0216,1","+0145,1","10186,1",,,,,,,,"06,99,1,06,1,08,1,01250,1,03,1,01,1",,,,,"99999,9,10178,1","5,1,000,1,+999,9",,"SYN076AAXX  04154 08014 42670 60202 10216 20145 30178 40186 55000 86831 333 92437;",
"08014099999","2010-08-04T18:00:00","4","43.5666666","-5.7","6.0","GIJON MUSEL, SP","FM-12","99999","V020","300,1,N,0015,1","01500,1,9,N","020000,1,N,1","+0208,1","+0154,1","10184,1","12,0000,9,1",,,,,,,"06,99,1,05,1,08,1,01250,1,06,1,01,1",,,,"120,M,+0228,1","99999,9,10176,1","8,1,002,1,+999,9",,"SYN088AAXX  04184 08014 12670 63003 10208 20154 30176 40184 58002 60002 85861 333 10228 92437;","Q01  00002PRCP12"
"08014099999","2010-08-05T06:00:00","4","43.5666666","-5.7","6.0","GIJON MUSEL, SP","FM-12","99999","V020","030,1,N,0021,1","03600,1,9,N","020000,1,N,1","+0196,1","+0140,1","10185,1","12,0041,9,2","24,0038,9,2",,"8,1,06,1","2,1,06,1",,,"05,99,1,04,1,02,1,01250,1,06,1,00,1","0114,9","09,9","999,+0170,9","999,N,+0180,1","99999,9,10177,1","3,1,006,1,+999,9","15,1","SYN112AAXX  05064 08014 11670 50304 10196 20140 30177 40185 53006 60042 71582 84260 333 20180 31017 50394 55019 70039;",
"08014099999","2010-08-05T09:00:00","4","43.5666666","-5.7","6.0","GIJON MUSEL, SP","FM-12","99999","V020","040,1,N,0026,1","22000,1,9,N","030000,1,N,1","+0204,1","+0134,1","10199,1",,,,,,,,"04,99,1,03,1,02,1,01250,1,06,1,00,1",,,,,"99999,9,10191,1","1,1,014,1,+999,9",,"SYN076AAXX  05094 08014 42680 40405 10204 20134 30191 40199 51014 83260 333 92448;",
"08014099999","2010-08-05T12:00:00","4","43.5666666","-5.7","6.0","GIJON MUSEL, SP","FM-12","99999","V020","040,1,N,0026,1","22000,1,9,N","040000,1,N,1","+0210,1","+0122,1","10199,1","06,0000,9,1",,,,,,,"03,99,1,03,1,08,1,01250,1,06,1,00,1",,,,,"99999,9,10191,1","4,1,000,1,+999,9",,"SYN082AAXX  05124 08014 12682 30405 10210 20122 30191 40199 54000 60001 83860 333 92448;","Q01  00002PRCP06"
"08014099999","2010-08-05T15:00:00","4","43.5666666","-5.7","6.0","GIJON MUSEL, SP","FM-12","99999","V020","040,1,N,0031,1","22000,1,9,N","040000,1,N,1","+0224,1","+0135,1","10197,1",,,,"4,1,03,1","4,1,03,1",,,"03,99,1,03,1,01,1,01250,1,06,1,00,1",,,,,"99999,9,10190,1","6,1,001,1,+999,9","02,1","SYN082AAXX  05154 08014 41682 30406 10224 20135 30190 40197 56001 70244 83160 333 92448;",
"08014099999","2010-08-05T18:00:00","4","43.5666666","-5.7","6.0","GIJON MUSEL, SP","FM-12","99999","V020","060,1,N,0021,1","22000,1,9,N","040000,1,N,1","+0220,1","+0128,1","10190,1","12,0000,9,1",,,,,,,"03,99,1,03,1,04,1,01250,1,03,1,01,1",,,,"120,M,+0232,1","99999,9,10182,1","6,1,008,1,+999,9",,"SYN088AAXX  05184 08014 12682 30604 10220 20128 30182 40190 56008 60002 83431 333 10232 92448;","Q01  00002PRCP12"
"08014099999","2010-08-06T06:00:00","4","43.5666666","-5.7","6.0","GIJON MUSEL, SP","FM-12","99999","V020","999,9,C,0000,1","22000,1,9,N","020000,1,N,1","+0174,1","+0135,1","10185,1","12,0000,9,1","24,0000,9,1",,,,,,"02,99,1,02,1,05,1,00800,1,00,1,00,1","0594,9","01,9","999,+0140,9","999,N,+0170,1","99999,9,10177,1","3,1,006,1,+999,9",,"SYN106AAXX  06064 08014 12570 20000 10174 20135 30177 40185 53006 60002 82500 333 20170 30014 50544 55099 70000;","Q01  00002PRCP24Q02  00002PRCP12"
"08014099999","2010-08-06T09:00:00","4","43.5666666","-5.7","6.0","GIJON MUSEL, SP","FM-12","99999","V020","080,1,N,0026,1","22000,1,9,N","020000,1,N,1","+0216,1","+0138,1","10190,1",,,,,,,,"01,99,1,01,1,05,1,01250,1,00,1,00,1",,,,,"99999,9,10182,1","1,1,005,1,+999,9",,"SYN076AAXX  06094 08014 42670 10805 10216 20138 30182 40190 51005 81500 333 92437;",
"08014099999","2010-08-06T12:00:00","4","43.5666666","-5.7","6.0","GIJON MUSEL, SP","FM-12","99999","V020","080,1,N,0041,1","22000,1,9,N","030000,1,N,1","+0228,1","+0138,1","10182,1","06,0000,9,1",,,,,"00,1,+99999,9,99,9",,"00,99,1,00,1,00,1,99999,9,00,1,00,1",,,,,"99999,9,10175,1","8,1,007,1,+999,9",,"SYN076AAXX  06124 08014 12980 00808 10228 20138 30175 40182 58007 60001 333 92448;","Q01  00002PRCP06"
"08014099999","2010-08-06T15:00:00","4","43.5666666","-5.7","6.0","GIJON MUSEL, SP","FM-12","99999","V020","070,1,N,0031,1","22000,1,9,N","030000,1,N,1","+0238,1","+0139,1","10177,1",,,,,,"00,1,+99999,9,99,9",,"00,99,1,00,1,00,1,99999,9,00,1,00,1",,,,,"99999,9,10170,1","8,1,005,1,+999,9",,"SYN070AAXX  06154 08014 42980 00706 10238 20139 30170 40177 58005 333 92448;",
"08014099999","2010-08-06T18:00:00","4","43.5666666","-5.7","6.0","GIJON MUSEL, SP","FM-12","99999","V020","080,1,N,0041,1","22000,1,9,N","040000,1,N,1","+0228,1","+0154,1","10176,1","12,0000,9,1",,,,,"00,1,+99999,9,99,9",,"00,99,1,00,1,00,1,99999,9,00,1,00,1",,,,"120,M,+0242,1","99999,9,10169,1","8,1,001,1,+999,9",,"SYN082AAXX  06184 08014 12982 00808 10228 20154 30169 40176 58001 60002 333 10242 92448;","Q01  00002PRCP12"
"08014099999","2010-08-07T06:00:00","4","43.5666666","-5.7","6.0","GIJON MUSEL, SP","FM-12","99999","V020","180,1,N,0015,1","01500,1,9,N","020000,1,N,1","+0172,1","+0145,1","10189,1","12,0000,9,1","24,0000,9,1",,,,,,"05,99,1,05,1,08,1,01250,1,00,1,00,1","0774,9","01,9","999,+0140,9","999,N,+0166,1","99999,9,10181,1","3,1,006,1,+999,9",,"SYN106AAXX  07064 08014 12670 51803 10172 20145 30181 40189 53006 60002 85800 333 20166 30014 50434 55129 70000;","Q01  00002PRCP24Q02  00002PRCP12"
"08014099999","2010-08-07T09:00:00","4","43.5666666","-5.7","6.0","GIJON MUSEL, SP","FM-12","99999","V020","090,1,N,0010,1","22000,1,9,N","020000,1,N,1","+0226,1","+0164,1","10193,1",,,,,,,,"02,99,1,02,1,08,1,01250,1,00,1,00,1",,,,,"99999,9,10186,1","1,1,005,1,+999,9",,"SYN076AAXX  07094 08014 42670 20902 10226 20164 30186 40193 51005 82800 333 92437;",
"08014099999","2010-08-07T12:00:00","4","43.5666666","-5.7","6.0","GIJON MUSEL, SP","FM-12","99999","V020","040,1,N,0031,1","22000,1,9,N","030000,1,N,1","+0226,1","+0166,1","10196,1","06,0000,9,1",,,,,,,"02,99,1,02,1,08,1,01250,1,00,1,00,1",,,,,"99999,9,10189,1","1,1,003,1,+999,9",,"SYN082AAXX  07124 08014 12680 20406 10226 20166 30189 40196 51003 60001 82800 333 92438;","Q01  00002PRCP06"
"08014099999","2010-08-07T15:00:00","4","43.5666666","-5.7","6.0","GIJON MUSEL, SP","FM-12","99999","V020","080,1,N,0026,1","22000,1,9,N","030000,1,N,1","+0246,1","+0178,1","10198,1",,,,,,,,"02,99,1,02,1,08,1,01250,1,00,1,00,1",,,,,"99999,9,10191,1","1,1,002,1,+999,9",,"SYN076AAXX  07154 08014 42680 20805 10246 20178 30191 40198 51002 82800 333 92438;",
"08014099999","2010-08-07T18:00:00","4","43.5666666","-5.7","6.0","GIJON MUSEL, SP","FM-12","99999","V020","070,1,N,0021,1","22000,1,9,N","030000,1,N,1","+0226,1","+0182,1","10202,1","12,0000,9,1",,,,,,,"03,99,1,03,1,08,1,01250,1,06,1,00,1",,,,"120,M,+0248,1","99999,9,10195,1","1,1,004,1,+999,9",,"SYN088AAXX  07184 08014 12680 30704 10226 20182 30195 40202 51004 60002 83860 333 10248 92438;","Q01  00002PRCP12"
"08014099999","2010-08-08T06:00:00","4","43.5666666","-5.7","6.0","GIJON MUSEL, SP","FM-12","99999","V020","080,1,N,0026,1","01200,1,9,N","015000,1,N,1","+0208,1","+0168,1","10198,1","12,0000,9,1","24,0000,9,1",,,,,,"07,99,1,07,1,05,1,01250,1,00,1,00,1","0702,9","01,9","999,+0200,9","999,N,+0205,1","99999,9,10190,1","6,1,005,1,+999,9",,"SYN106AAXX  08064 08014 12665 70805 10208 20168 30190 40198 56005 60002 87500 333 20205 30020 50394 55117 70000;","Q01  00002PRCP24Q02  00002PRCP12"
"08014099999","2010-08-08T09:00:00","4","43.5666666","-5.7","6.0","GIJON MUSEL, SP","FM-12","99999","V020","090,1,N,0026,1","01200,1,9,N","020000,1,N,1","+0212,1","+0172,1","10201,1",,,,,,,,"07,99,1,07,1,07,1,01250,1,00,1,00,1",,,,,"99999,9,10193,1","1,1,003,1,+999,9",,"SYN076AAXX  08094 08014 42670 70905 10212 20172 30193 40201 51003 87700 333 92437;",
"08014099999","2010-08-08T12:00:00","4","43.5666666","-5.7","6.0","GIJON MUSEL, SP","FM-12","99999","V020","080,1,N,0021,1","01500,1,9,N","020000,1,N,1","+0222,1","+0180,1","10196,1","06,0000,9,1",,,,,,,"07,99,1,07,1,08,1,01250,1,00,1,00,1",,,,,"99999,9,10189,1","8,1,004,1,+999,9",,"SYN082AAXX  08124 08014 12670 70804 10222 20180 30189 40196 58004 60001 87800 333 92437;","Q01  00002PRCP06"
"08014099999","2010-08-08T15:00:00","4","43.5666666","-5.7","6.0","GIJON MUSEL, SP","FM-12","99999","V020","070,1,N,0021,1","01500,1,9,N","020000,1,N,1","+0222,1","+0180,1","10187,1",,,,,,,,"07,99,1,07,1,08,1,01250,1,00,1,00,1",,,,,"99999,9,10180,1","8,1,009,1,+999,9",,"SYN076AAXX  08154 08014 42670 70704 10222 20180 30180 40187 58009 87800 333 92437;",
"08014099999","2010-08-08T18:00:00","4","43.5666666","-5.7","6.0","GIJON MUSEL, SP","FM-12","99999","V020","070,1,N,0021,1","01200,1,9,N","020000,1,N,1","+0216,1","+0184,1","10180,1","12,0000,9,1",,,,,,,"07,99,1,07,1,08,1,00800,1,00,1,00,1",,,,"120,M,+0226,1","99999,9,10173,1","6,1,007,1,+999,9",,"SYN088AAXX  08184 08014 12570 70704 10216 20184 30173 40180 56007 60002 87800 333 10226 92437;","Q01  00002PRCP12"
"08014099999","2010-08-09T06:00:00","4","43.5666666","-5.7","6.0","GIJON MUSEL, SP","FM-12","99999","V020","080,1,N,0010,1","00120,1,9,N","001500,1,N,1","+0188,1","+0181,1","10188,1","12,0010,9,1","24,0010,9,1",,"5,1,06,1","2,1,06,1",,,"08,99,1,08,1,07,1,00150,1,99,9,99,9","0000,9","11,9","999,+0180,9","999,N,+0186,1","99999,9,10180,1","3,1,003,1,+999,9","51,1","SYN112AAXX  09064 08014 11215 80802 10188 20181 30180 40188 53003 69992 75152 887// 333 20186 32018 50254 55000 70009;",
"08014099999","2010-08-09T09:00:00","4","43.5666666","-5.7","6.0","GIJON MUSEL, SP","FM-12","99999","V020","040,1,N,0010,1","01200,1,9,N","015000,1,N,1","+0200,1","+0181,1","10195,1",,,,"5,1,03,1","2,1,03,1",,,"08,99,1,06,1,08,1,00800,1,01,1,99,9",,,,,"99999,9,10187,1","1,1,007,1,+999,9","02,1","SYN082AAXX  09094 08014 41565 80402 10200 20181 30187 40195 51007 70252 8681/ 333 92437;",
"08014099999","2010-08-09T12:00:00","4","43.5666666","-5.7","6.0","GIJON MUSEL, SP","FM-12","99999","V020","070,1,N,0015,1","01500,1,9,N","030000,1,N,1","+0214,1","+0176,1","10199,1","06,0000,2,1",,,"5,1,06,1","2,1,06,1",,,"07,99,1,07,1,08,1,01250,1,00,1,00,1",,,,,"99999,9,10191,1","1,1,004,1,+999,9","02,1","SYN088AAXX  09124 08014 11680 70703 10214 20176 30191 40199 51004 69911 70252 87800 333 92438;",
"08014099999","2010-08-09T15:00:00","4","43.5666666","-5.7","6.0","GIJON MUSEL, SP","FM-12","99999","V020","060,1,N,0026,1","01200,1,9,N","030000,1,N,1","+0218,1","+0172,1","10192,1",,,,,,,,"06,99,1,06,1,08,1,00800,1,00,1,00,1",,,,,"99999,9,10185,1","8,1,006,1,+999,9",,"SYN076AAXX  09154 08014 42580 60605 10218 20172 30185 40192 58006 86800 333 92438;",
"08014099999","2010-08-09T18:00:00","4","43.5666666","-5.7","6.0","GIJON MUSEL, SP","FM-12","99999","V020","060,1,N,0026,1","22000,1,9,N","020000,1,N,1","+0218,1","+0176,1","10189,1","12,0000,2,1",,,,,,,"03,99,1,02,1,08,1,01250,1,03,1,00,1",,,,"120,M,+0232,1","99999,9,10182,1","8,1,003,1,+999,9",,"SYN088AAXX  09184 08014 12670 30605 10218 20176 30182 40189 58003 69912 82830 333 10232 92438;",
"08014099999","2010-08-10T06:00:00","4","43.5666666","-5.7","6.0","GIJON MUSEL, SP","FM-12","99999","V020","270,1,N,0010,1","22000,1,9,N","015000,1,N,1","+0188,1","+0160,1","10174,1","12,0000,9,1","24,0000,2,1",,,,,,"03,99,1,02,1,05,1,00800,1,03,1,01,1","0186,9","01,9","999,+0170,9","999,N,+0186,1","99999,9,10166,1","5,1,003,1,+999,9",,"SYN106AAXX  10064 08014 12565 32702 10188 20160 30166 40174 55003 60002 82531 333 20186 30017 50314 55031 70001;","Q01  00002PRCP12"
"08014099999","2010-08-10T09:00:00","4","43.5666666","-5.7","6.0","GIJON MUSEL, SP","FM-12","99999","V020","080,1,N,0015,1","22000,1,9,N","015000,1,N,1","+0218,1","+0180,1","10178,1",,,,,,,,"03,99,1,02,1,08,1,00800,1,03,1,01,1",,,,,"99999,9,10171,1","3,1,005,1,+999,9",,"SYN076AAXX  10094 08014 42565 30803 10218 20180 30171 40178 53005 82831 333 92427;",
"08014099999","2010-08-10T12:00:00","4","43.5666666","-5.7","6.0","GIJON MUSEL, SP","FM-12","99999","V020","020,1,N,0026,1","22000,1,9,N","010000,1,N,1","+0220,1","+0176,1","10182,1","06,0000,9,1",,,,,,,"03,99,1,02,1,00,1,02250,1,03,1,02,1",,,,,"99999,9,10175,1","1,1,004,1,+999,9",,"SYN082AAXX  10124 08014 12860 30205 10220 20176 30175 40182 51004 60001 82032 333 92427;","Q01  00002PRCP06"
"08014099999","2010-08-10T15:00:00","4","43.5666666","-5.7","6.0","GIJON MUSEL, SP","FM-12","99999","V020","040,1,N,0026,1","22000,1,9,N","020000,1,N,1","+0228,1","+0161,1","10184,1",,,,,,,,"03,99,1,01,1,00,1,02250,1,04,1,09,1",,,,,"99999,9,10177,1","1,1,002,1,+999,9",,"SYN076AAXX  10154 08014 42870 30405 10228 20161 30177 40184 51002 81049 333 92427;",
"08014099999","2010-08-10T18:00:00","4","43.5666666","-5.7","6.0","GIJON MUSEL, SP","FM-12","99999","V020","030,1,N,0015,1","22000,1,9,N","020000,1,N,1","+0224,1","+0164,1","10183,1","12,0000,9,1",,,,,,,"02,99,1,01,1,01,1,01250,1,04,1,01,1",,,,"120,M,+0232,1","99999,9,10176,1","8,1,001,1,+999,9",,"SYN088AAXX  10184 08014 12670 20303 10224 20164 30176 40183 58001 60002 81141 333 10232 92427;","Q01  00002PRCP12"
"08014099999","2010-08-11T06:00:00","4","43.5666666","-5.7","6.0","GIJON MUSEL, SP","FM-12","99999","V020","230,1,N,0041,1","01200,1,9,N","020000,1,N,1","+0184,1","+0147,1","10193,1","12,0000,9,1","24,0000,9,1",,,,,,"08,99,1,05,1,08,1,00800,1,07,1,99,9","0738,9","01,9","999,+0160,9","999,N,+0175,1","99999,9,10185,1","4,1,000,1,+999,9","02,1","SYN112AAXX  11064 08014 11570 82308 10184 20147 30185 40193 54000 60002 702// 8587/ 333 20175 30016 50394 55123 70000;","Q01  00002PRCP24Q02  00002PRCP12"
"08014099999","2010-08-11T09:00:00","4","43.5666666","-5.7","6.0","GIJON MUSEL, SP","FM-12","99999","V020","230,1,N,0021,1","01200,1,9,N","020000,1,N,1","+0222,1","+0141,1","10195,1",,,,,,,,"08,99,1,05,1,08,1,00800,1,05,1,99,9",,,,,"99999,9,10188,1","2,1,003,1,+999,9",,"SYN076AAXX  11094 08014 42570 82304 10222 20141 30188 40195 52003 8585/ 333 92428;",
"08014099999","2010-08-11T12:00:00","4","43.5666666","-5.7","6.0","GIJON MUSEL, SP","FM-12","99999","V020","040,1,N,0026,1","03600,1,9,N","020000,1,N,1","+0240,1","+0155,1","10193,1","06,0000,9,1",,,,,,,"07,99,1,04,1,04,1,00800,1,03,1,99,9",,,,,"99999,9,10186,1","7,1,002,1,+999,9",,"SYN082AAXX  11124 08014 12570 70405 10240 20155 30186 40193 57002 60001 8443/ 333 92428;","Q01  00002PRCP06"
"08014099999","2010-08-11T15:00:00","4","43.5666666","-5.7","6.0","GIJON MUSEL, SP","FM-12","99999","V020","050,1,N,0026,1","00750,1,9,N","020000,1,N,1","+0238,1","+0180,1","10190,1",,,,,,,,"07,99,1,06,1,04,1,00800,1,03,1,99,9",,,,,"99999,9,10183,1","7,1,003,1,+999,9",,"SYN076AAXX  11154 08014 42570 70505 10238 20180 30183 40190 57003 8643/ 333 92428;",
"08014099999","2010-08-11T18:00:00","4","43.5666666","-5.7","6.0","GIJON MUSEL, SP","FM-12","99999","V020","040,1,N,0026,1","01200,1,9,N","030000,1,N,1","+0230,1","+0185,1","10189,1","12,0000,9,1",,,,,,,"08,99,1,05,1,08,1,00800,1,05,1,99,9",,,,"120,M,+0250,1","99999,9,10182,1","7,1,001,1,+999,9",,"SYN088AAXX  11184 08014 12580 80405 10230 20185 30182 40189 57001 60002 8585/ 333 10250 92428;","Q01  00002PRCP12"
"08014099999","2010-08-12T06:00:00","4","43.5666666","-5.7","6.0","GIJON MUSEL, SP","FM-12","99999","V020","040,1,N,0021,1","01200,1,9,N","020000,1,N,1","+0200,1","+0148,1","10194,1","12,0061,9,2","24,0056,9,2",,,,,,"08,99,1,05,1,08,1,00800,1,07,1,99,9","0246,9","11,9","999,+0180,9","999,N,+0195,1","99999,9,10186,1","3,1,006,1,+999,9","02,1","SYN112AAXX  12064 08014 11570 80404 10200 20148 30186 40194 53006 60062 702// 8587/ 333 20195 32018 50404 55041 70056;",
"08014099999","2010-08-12T09:00:00","4","43.5666666","-5.7","6.0","GIJON MUSEL, SP","FM-12","99999","V020","050,1,N,0015,1","03600,1,9,N","030000,1,N,1","+0208,1","+0142,1","10207,1",,,,,,,,"06,99,1,04,1,02,1,00800,1,03,1,99,9",,,,,"99999,9,10199,1","2,1,013,1,+999,9",,"SYN076AAXX  12094 08014 42580 60503 10208 20142 30199 40207 52013 8423/ 333 92428;",
"08014099999","2010-08-12T12:00:00","4","43.5666666","-5.7","6.0","GIJON MUSEL, SP","FM-12","99999","V020","040,1,N,0021,1","00750,1,9,N","020000,1,N,1","+0212,1","+0136,1","10212,1","06,0000,9,1",,,,,,,"08,99,1,05,1,04,1,00800,1,05,1,99,9",,,,,"99999,9,10204,1","2,1,005,1,+999,9",,"SYN082AAXX  12124 08014 12570 80404 10212 20136 30204 40212 52005 60001 8545/ 333 92428;","Q01  00002PRCP06"
"08014099999","2010-08-12T15:00:00","4","43.5666666","-5.7","6.0","GIJON MUSEL, SP","FM-12","99999","V020","050,1,N,0026,1","01200,1,9,N","020000,1,N,1","+0218,1","+0147,1","10214,1",,,,,,,,"08,99,1,05,1,08,1,00800,1,05,1,99,9",,,,,"99999,9,10206,1","2,1,002,1,+999,9",,"SYN076AAXX  12154 08014 42570 80505 10218 20147 30206 40214 52002 8585/ 333 92428;",
"08014099999","2010-08-12T18:00:00","4","43.5666666","-5.7","6.0","GIJON MUSEL, SP","FM-12","99999","V020","070,1,N,0021,1","01200,1,9,N","030000,1,N,1","+0212,1","+0144,1","10214,1","12,0000,9,1",,,,,,,"07,99,1,05,1,08,1,00800,1,05,1,99,9",,,,"120,M,+0222,1","99999,9,10206,1","4,1,000,1,+999,9",,"SYN088AAXX  12184 08014 12580 70704 10212 20144 30206 40214 54000 60002 8585/ 333 10222 92438;","Q01  00002PRCP12"
"08014099999","2010-08-13T06:00:00","4","43.5666666","-5.7","6.0","GIJON MUSEL, SP","FM-12","99999","V020","240,1,N,0010,1","00750,1,9,N","020000,1,N,1","+0180,1","+0153,1","10213,1","12,0008,9,1","24,0008,9,1",,,,,,"08,99,1,05,1,02,1,00800,1,05,1,99,9","0120,9","11,9","999,+0160,9","999,N,+0176,1","99999,9,10205,1","3,1,002,1,+999,9","02,1","SYN112AAXX  13064 08014 11570 82402 10180 20153 30205 40213 53002 69972 702// 8525/ 333 20176 32016 50404 55020 70007;",
"08014099999","2010-08-13T09:00:00","4","43.5666666","-5.7","6.0","GIJON MUSEL, SP","FM-12","99999","V020","060,1,N,0015,1","00750,1,9,N","020000,1,N,1","+0202,1","+0143,1","10217,1",,,,,,,,"08,99,1,05,1,02,1,00800,1,05,1,99,9",,,,,"99999,9,10209,1","2,1,004,1,+999,9",,"SYN076AAXX  13094 08014 42570 80603 10202 20143 30209 40217 52004 8525/ 333 92438;",
"08014099999","2010-08-13T12:00:00","4","43.5666666","-5.7","6.0","GIJON MUSEL, SP","FM-12","99999","V020","070,1,N,0026,1","01200,1,9,N","020000,1,N,1","+0214,1","+0138,1","10215,1","06,0000,9,1",,,,,,,"07,99,1,05,1,08,1,00800,1,05,1,99,9",,,,,"99999,9,10207,1","7,1,002,1,+999,9",,"SYN082AAXX  13124 08014 12570 70705 10214 20138 30207 40215 57002 60001 8585/ 333 92438;","Q01  00002PRCP06"
"08014099999","2010-08-13T15:00:00","4","43.5666666","-5.7","6.0","GIJON MUSEL, SP","FM-12","99999","V020","050,1,N,0031,1","03600,1,9,N","030000,1,N,1","+0218,1","+0124,1","10216,1",,,,,,,,"06,99,1,03,1,02,1,00800,1,03,1,99,9",,,,,"99999,9,10208,1","2,1,001,1,+999,9",,"SYN076AAXX  13154 08014 42580 60506 10218 20124 30208 40216 52001 8323/ 333 92438;",
"08014099999","2010-08-13T18:00:00","4","43.5666666","-5.7","6.0","GIJON MUSEL, SP","FM-12","99999","V020","060,1,N,0021,1","00750,1,9,N","030000,1,N,1","+0208,1","+0109,1","10212,1","12,0020,9,1",,,,,,,"06,99,1,05,1,04,1,00800,1,03,1,99,9",,,,"120,M,+0223,1","99999,9,10204,1","7,1,004,1,+999,9",,"SYN088AAXX  13184 08014 12580 60604 10208 20109 30204 40212 57004 60022 8543/ 333 10223 92438;",
"08014099999","2010-08-14T06:00:00","4","43.5666666","-5.7","6.0","GIJON MUSEL, SP","FM-12","99999","V020","210,1,N,0015,1","01200,1,9,N","020000,1,N,1","+0168,1","+0127,1","10204,1","12,0000,9,1","24,0025,9,1",,,,,,"08,99,1,06,1,08,1,00800,1,05,1,99,9","0228,9","09,9","999,+0150,9","999,N,+0165,1","99999,9,10196,1","3,1,001,1,+999,9",,"SYN106AAXX  14064 08014 12570 82103 10168 20127 30196 40204 53001 60002 8685/ 333 20165 31015 50524 55038 70025;","Q01  00002PRCP12"
"08014099999","2010-08-14T09:00:00","4","43.5666666","-5.7","6.0","GIJON MUSEL, SP","FM-12","99999","V020","200,1,N,0010,1","00420,1,9,N","009000,1,N,1","+0164,1","+0142,1","10207,1",,,,"5,1,03,1","4,1,03,1",,,"08,99,1,06,1,07,1,00450,1,05,1,99,9",,,,,"99999,9,10199,1","2,1,003,1,+999,9","51,1","SYN082AAXX  14094 08014 41459 82002 10164 20142 30199 40207 52003 75154 8675/ 333 92437;",
"08014099999","2010-08-14T12:00:00","4","43.5666666","-5.7","6.0","GIJON MUSEL, SP","FM-12","99999","V020","110,1,N,0015,1","03600,1,9,N","020000,1,N,1","+0200,1","+0125,1","10201,1","06,0005,9,1",,,"5,1,06,1","2,1,06,1",,,"06,99,1,04,1,08,1,00800,1,05,1,99,9",,,,,"99999,9,10193,1","7,1,006,1,+999,9","02,1","SYN088AAXX  14124 08014 11570 61103 10200 20125 30193 40201 57006 69941 70252 8485/ 333 92438;",
"08014099999","2010-08-14T15:00:00","4","43.5666666","-5.7","6.0","GIJON MUSEL, SP","FM-12","99999","V020","040,1,N,0021,1","03600,1,9,N","030000,1,N,1","+0204,1","+0131,1","10198,1",,,,,,,,"06,99,1,04,1,02,1,00800,1,03,1,99,9",,,,,"99999,9,10190,1","7,1,003,1,+999,9",,"SYN076AAXX  14154 08014 42580 60404 10204 20131 30190 40198 57003 8423/ 333 92438;",
"08014099999","2010-08-14T18:00:00","4","43.5666666","-5.7","6.0","GIJON MUSEL, SP","FM-12","99999","V020","030,1,N,0021,1","03600,1,9,N","030000,1,N,1","+0202,1","+0114,1","10186,1","12,0005,9,1",,,,,,,"06,99,1,04,1,08,1,00800,1,03,1,99,9",,,,"120,M,+0210,1","99999,9,10178,1","7,1,012,1,+999,9",,"SYN088AAXX  14184 08014 12580 60304 10202 20114 30178 40186 57012 69942 8483/ 333 10210 92428;",
"08014099999","2010-08-15T06:00:00","4","43.5666666","-5.7","6.0","GIJON MUSEL, SP","FM-12","99999","V020","240,1,N,0031,1","00750,1,9,N","020000,1,N,1","+0168,1","+0125,1","10183,1","12,0000,9,1","24,0005,9,1",,,,,,"07,99,1,05,1,04,1,00800,1,03,1,99,9","0330,9","01,9","999,+0150,9","999,N,+0155,1","99999,9,10175,1","3,1,003,1,+999,9","02,1","SYN112AAXX  15064 08014 11570 72406 10168 20125 30175 40183 53003 60002 702// 8543/ 333 20155 30015 50444 55055 70004;","Q01  00002PRCP12"
"08014099999","2010-08-15T09:00:00","4","43.5666666","-5.7","6.0","GIJON MUSEL, SP","FM-12","99999","V020","150,1,N,0010,1","00750,1,9,N","030000,1,N,1","+0178,1","+0139,1","10200,1",,,,"8,1,03,1","8,1,03,1",,,"07,99,1,05,1,02,1,00800,1,05,1,99,9",,,,,"99999,9,10192,1","2,1,017,1,+999,9","02,1","SYN082AAXX  15094 08014 41580 71502 10178 20139 30192 40200 52017 70288 8525/ 333 92428;",
"08014099999","2010-08-15T12:00:00","4","43.5666666","-5.7","6.0","GIJON MUSEL, SP","FM-12","99999","V020","040,1,N,0026,1","22000,1,9,N","030000,1,N,1","+0202,1","+0136,1","10207,1","06,0005,9,1",,,"5,1,06,1","1,1,06,1",,,"04,99,1,04,1,02,1,00800,1,03,1,00,1",,,,,"99999,9,10199,1","2,1,007,1,+999,9","02,1","SYN088AAXX  15124 08014 11580 40405 10202 20136 30199 40207 52007 69961 70251 84230 333 92428;",
"08014099999","2010-08-15T15:00:00","4","43.5666666","-5.7","6.0","GIJON MUSEL, SP","FM-12","99999","V020","070,1,N,0021,1","22000,1,9,N","030000,1,N,1","+0222,1","+0119,1","10206,1",,,,,,,,"02,99,1,02,1,04,1,00800,1,00,1,00,1",,,,,"99999,9,10198,1","7,1,001,1,+999,9",,"SYN076AAXX  15154 08014 42580 20704 10222 20119 30198 40206 57001 82400 333 92428;",
"08014099999","2010-08-15T18:00:00","4","43.5666666","-5.7","6.0","GIJON MUSEL, SP","FM-12","99999","V020","070,1,N,0021,1","22000,1,9,N","030000,1,N,1","+0214,1","+0125,1","10206,1","12,0005,9,1",,,,,,,"03,99,1,03,1,04,1,00800,1,00,1,00,1",,,,"120,M,+0225,1","99999,9,10198,1","4,1,000,1,+999,9",,"SYN088AAXX  15184 08014 12580 30704 10214 20125 30198 40206 54000 69962 83400 333 10225 92428;",
"08014099999","2010-08-16T06:00:00","4","43.5666666","-5.7","6.0","GIJON MUSEL, SP","FM-12","99999","V020","200,1,N,0015,1","22000,1,9,N","020000,1,N,1","+0162,1","+0114,1","10213,1","12,0000,9,1","24,0000,9,1",,,,,,"02,99,1,01,1,02,1,01250,1,04,1,00,1","0510,9","01,9","999,+0130,9","999,N,+0155,1","99999,9,10205,1","5,1,002,1,+999,9",,"SYN106AAXX  16064 08014 12670 22003 10162 20114 30205 40213 55002 60002 81240 333 20155 30013 50484 55085 70000;","Q01  00002PRCP24Q02  00002PRCP12"
"08014099999","2010-08-16T09:00:00","4","43.5666666","-5.7","6.0","GIJON MUSEL, SP","FM-12","99999","V020","090,1,N,0010,1","22000,1,9,N","030000,1,N,1","+0202,1","+0132,1","10216,1",,,,,,,,"01,99,1,01,1,01,1,01250,1,06,1,00,1",,,,,"99999,9,10208,1","0,1,003,1,+999,9",,"SYN076AAXX  16094 08014 42680 10902 10202 20132 30208 40216 50003 81160 333 92428;",
"08014099999","2010-08-16T12:00:00","4","43.5666666","-5.7","6.0","GIJON MUSEL, SP","FM-12","99999","V020","080,1,N,0021,1","22000,1,9,N","040000,1,N,1","+0218,1","+0147,1","10220,1","06,0000,9,1",,,,,,,"01,99,1,01,1,01,1,01250,1,00,1,00,1",,,,,"99999,9,10212,1","1,1,004,1,+999,9",,"SYN082AAXX  16124 08014 12682 10804 10218 20147 30212 40220 51004 60001 81100 333 92428;","Q01  00002PRCP06"
"08014099999","2010-08-16T15:00:00","4","43.5666666","-5.7","6.0","GIJON MUSEL, SP","FM-12","99999","V020","080,1,N,0026,1","22000,1,9,N","040000,1,N,1","+0232,1","+0153,1","10212,1",,,,,,,,"03,99,1,03,1,01,1,01250,1,00,1,00,1",,,,,"99999,9,10205,1","8,1,007,1,+999,9",,"SYN076AAXX  16154 08014 42682 30805 10232 20153 30205 40212 58007 83100 333 92438;",
"08014099999","2010-08-16T18:00:00","4","43.5666666","-5.7","6.0","GIJON MUSEL, SP","FM-12","99999","V020","080,1,N,0031,1","22000,1,9,N","040000,1,N,1","+0220,1","+0156,1","10209,1","12,0000,9,1",,,,,,,"02,99,1,01,1,01,1,01250,1,06,1,01,1",,,,"120,M,+0238,1","99999,9,10201,1","7,1,004,1,+999,9",,"SYN088AAXX  16184 08014 12682 20806 10220 20156 30201 40209 57004 60002 81161 333 10238 92438;","Q01  00002PRCP12"
"08014099999","2010-08-17T06:00:00","4","43.5666666","-5.7","6.0","GIJON MUSEL, SP","FM-12","99999","V020","210,1,N,0031,1","22000,1,9,N","015000,1,N,1","+0158,1","+0133,1","10190,1","12,0000,9,1","24,0000,9,1",,,,,,"02,99,1,00,1,00,1,99999,9,00,1,01,1","0732,9","01,9","999,+0140,9","999,N,+0156,1","99999,9,10182,1","6,1,006,1,+999,9",,"SYN106AAXX  17064 08014 12965 22106 10158 20133 30182 40190 56006 60002 80001 333 20156 30014 50424 55122 70000;","Q01  00002PRCP24Q02  00002PRCP12"
"08014099999","2010-08-17T09:00:00","4","43.5666666","-5.7","6.0","GIJON MUSEL, SP","FM-12","99999","V020","090,1,N,0010,1","22000,1,9,N","015000,1,N,1","+0208,1","+0147,1","10197,1",,,,,,,,"01,99,1,01,1,01,1,01250,1,00,1,00,1",,,,,"99999,9,10189,1","1,1,007,1,+999,9",,"SYN076AAXX  17094 08014 42665 10902 10208 20147 30189 40197 51007 81100 333 92437;",
"08014099999","2010-08-17T12:00:00","4","43.5666666","-5.7","6.0","GIJON MUSEL, SP","FM-12","99999","V020","010,1,N,0015,1","22000,1,9,N","020000,1,N,1","+0214,1","+0153,1","10184,1","06,0000,9,1",,,,,,,"01,99,1,01,1,01,1,01250,1,06,1,00,1",,,,,"99999,9,10176,1","8,1,013,1,+999,9",,"SYN082AAXX  17124 08014 12670 10103 10214 20153 30176 40184 58013 60001 81160 333 92437;","Q01  00002PRCP06"
"08014099999","2010-08-17T15:00:00","4","43.5666666","-5.7","6.0","GIJON MUSEL, SP","FM-12","99999","V020","030,1,N,0026,1","22000,1,9,N","020000,1,N,1","+0222,1","+0162,1","10181,1",,,,,,,,"02,99,1,02,1,08,1,01250,1,06,1,00,1",,,,,"99999,9,10174,1","8,1,002,1,+999,9",,"SYN076AAXX  17154 08014 42670 20305 10222 20162 30174 40181 58002 82860 333 92438;",
"08014099999","2010-08-17T18:00:00","4","43.5666666","-5.7","6.0","GIJON MUSEL, SP","FM-12","99999","V020","030,1,N,0021,1","22000,1,9,N","030000,1,N,1","+0216,1","+0159,1","10175,1","12,0000,9,1",,,,,,,"02,99,1,02,1,08,1,01250,1,06,1,00,1",,,,"120,M,+0224,1","99999,9,10168,1","8,1,006,1,+999,9",,"SYN088AAXX  17184 08014 12680 20304 10216 20159 30168 40175 58006 60002 82860 333 10224 92438;","Q01  00002PRCP12"
"08014099999","2010-08-18T06:00:00","4","43.5666666","-5.7","6.0","GIJON MUSEL, SP","FM-12","99999","V020","200,1,N,0015,1","03600,1,9,N","009000,1,N,1","+0188,1","+0160,1","10148,1","12,0000,9,1","24,0000,9,1",,"2,1,06,1","2,1,06,1",,,"06,99,1,04,1,06,1,00450,1,03,1,00,1","0744,9","01,9","999,+0160,9","999,N,+0176,1","99999,9,10140,1","6,1,007,1,+999,9","10,1","SYN112AAXX  18064 08014 11459 62003 10188 20160 30140 40148 56007 60002 71022 84630 333 20176 30016 50404 55124 70000;","Q01  00002PRCP24Q02  00002PRCP12"
"08014099999","2010-08-18T09:00:00","4","43.5666666","-5.7","6.0","GIJON MUSEL, SP","FM-12","99999","V020","999,9,C,0000,1","03600,1,9,N","006000,1,N,1","+0202,1","+0162,1","10144,1",,,,"2,1,03,1","2,1,03,1",,,"06,99,1,04,1,06,1,00450,1,03,1,00,1",,,,,"99999,9,10136,1","8,1,004,1,+999,9","05,1","SYN082AAXX  18094 08014 41456 60000 10202 20162 30136 40144 58004 70522 84630 333 92426;",
"08014099999","2010-08-18T12:00:00","4","43.5666666","-5.7","6.0","GIJON MUSEL, SP","FM-12","99999","V020","040,1,N,0026,1","03600,1,9,N","015000,1,N,1","+0214,1","+0168,1","10139,1","06,0000,9,1",,,,,,,"06,99,1,02,1,05,1,00800,1,03,1,01,1",,,,,"99999,9,10132,1","8,1,004,1,+999,9",,"SYN082AAXX  18124 08014 12565 60405 10214 20168 30132 40139 58004 60001 82531 333 92427;","Q01  00002PRCP06"
"08014099999","2010-08-18T15:00:00","4","43.5666666","-5.7","6.0","GIJON MUSEL, SP","FM-12","99999","V020","070,1,N,0021,1","03600,1,9,N","020000,1,N,1","+0230,1","+0175,1","10129,1",,,,,,,,"06,99,1,04,1,08,1,01250,1,06,1,01,1",,,,,"99999,9,10122,1","7,1,010,1,+999,9",,"SYN076AAXX  18154 08014 42670 60704 10230 20175 30122 40129 57010 84861 333 92437;",
"08014099999","2010-08-18T18:00:00","4","43.5666666","-5.7","6.0","GIJON MUSEL, SP","FM-12","99999","V020","030,1,N,0021,1","00420,1,9,N","015000,1,N,1","+0216,1","+0178,1","10131,1","12,0000,9,1",,,,,,,"08,99,1,07,1,06,1,00450,1,02,1,99,9",,,,"120,M,+0238,1","99999,9,10124,1","3,1,002,1,+999,9",,"SYN088AAXX  18184 08014 12465 80304 10216 20178 30124 40131 53002 60002 8762/ 333 10238 92437;","Q01  00002PRCP12"
"08014099999","2010-08-19T06:00:00","4","43.5666666","-5.7","6.0","GIJON MUSEL, SP","FM-12","99999","V020","220,1,N,0010,1","01500,1,9,N","015000,1,N,1","+0194,1","+0153,1","10141,1","12,0000,9,1","24,0000,9,1",,,,,,"07,99,1,05,1,08,1,01250,1,07,1,00,1","0246,9","01,9","999,+0180,9","999,N,+0190,1","99999,9,10133,1","5,1,000,1,+999,9",,"SYN106AAXX  19064 08014 12665 72202 10194 20153 30133 40141 55000 60002 85870 333 20190 30018 50354 55041 70000;","Q01  00002PRCP24Q02  00002PRCP12"
"08014099999","2010-08-19T09:00:00","4","43.5666666","-5.7","6.0","GIJON MUSEL, SP","FM-12","99999","V020","060,1,N,0010,1","03600,1,9,N","010000,1,N,1","+0206,1","+0145,1","10146,1",,,,,,,,"07,99,1,04,1,05,1,00450,1,07,1,00,1",,,,,"99999,9,10138,1","1,1,005,1,+999,9",,"SYN076AAXX  19094 08014 42460 70602 10206 20145 30138 40146 51005 84570 333 92437;",
"08014099999","2010-08-19T12:00:00","4","43.5666666","-5.7","6.0","GIJON MUSEL, SP","FM-12","99999","V020","060,1,N,0021,1","22000,1,9,N","030000,1,N,1","+0224,1","+0150,1","10145,1","06,0000,9,1",,,,,,,"02,99,1,02,1,01,1,01250,1,06,1,00,1",,,,,"99999,9,10138,1","4,1,000,1,+999,9",,"SYN082AAXX  19124 08014 12680 20604 10224 20150 30138 40145 54000 60001 82160 333 92438;","Q01  00002PRCP06"
"08014099999","2010-08-19T15:00:00","4","43.5666666","-5.7","6.0","GIJON MUSEL, SP","FM-12","99999","V020","070,1,N,0021,1","22000,1,9,N","040000,1,N,1","+0236,1","+0156,1","10145,1",,,,,,,,"01,99,1,01,1,01,1,01250,1,00,1,01,1",,,,,"99999,9,10138,1","4,1,000,1,+999,9",,"SYN076AAXX  19154 08014 42682 10704 10236 20156 30138 40145 54000 81101 333 92438;",
"08014099999","2010-08-19T18:00:00","4","43.5666666","-5.7","6.0","GIJON MUSEL, SP","FM-12","99999","V020","060,1,N,0015,1","22000,1,9,N","040000,1,N,1","+0226,1","+0182,1","10146,1","12,0000,9,1",,,,,,,"01,99,1,01,1,01,1,01250,1,00,1,00,1",,,,"120,M,+0244,1","99999,9,10139,1","3,1,001,1,+999,9",,"SYN088AAXX  19184 08014 12682 10603 10226 20182 30139 40146 53001 60002 81100 333 10244 92438;","Q01  00002PRCP12"
"08014099999","2010-08-20T06:00:00","4","43.5666666","-5.7","6.0","GIJON MUSEL, SP","FM-12","99999","V020","190,1,N,0010,1","22000,1,9,N","008000,1,N,1","+0176,1","+0156,1","10184,1","12,0000,9,1","24,0000,9,1",,"0,1,06,1","0,1,06,1",,,"01,99,1,01,1,00,1,02250,1,04,1,00,1","0480,9","01,9","999,+0160,9","999,N,+0175,1","99999,9,10176,1","2,1,017,1,+999,9","10,1","SYN112AAXX  20064 08014 11858 11902 10176 20156 30176 40184 52017 60002 71000 81040 333 20175 30016 50344 55080 70000;","Q01  00002PRCP24Q02  00002PRCP12"
"08014099999","2010-08-20T09:00:00","4","43.5666666","-5.7","6.0","GIJON MUSEL, SP","FM-12","99999","V020","050,1,N,0015,1","22000,1,9,N","008000,1,N,1","+0220,1","+0172,1","10191,1",,,,"0,1,03,1","0,1,03,1",,,"01,99,1,01,1,00,1,02250,1,03,1,01,1",,,,,"99999,9,10184,1","1,1,008,1,+999,9","05,1","SYN082AAXX  20094 08014 41858 10503 10220 20172 30184 40191 51008 70500 81031 333 92436;",
"08014099999","2010-08-20T12:00:00","4","43.5666666","-5.7","6.0","GIJON MUSEL, SP","FM-12","99999","V020","060,1,N,0021,1","22000,1,9,N","015000,1,N,1","+0236,1","+0183,1","10203,1","06,0000,9,1",,,,,"00,1,+99999,9,99,9",,"00,99,1,00,1,00,1,99999,9,00,1,00,1",,,,,"99999,9,10196,1","1,1,012,1,+999,9",,"SYN076AAXX  20124 08014 12965 00604 10236 20183 30196 40203 51012 60001 333 92437;","Q01  00002PRCP06"
"08014099999","2010-08-20T15:00:00","4","43.5666666","-5.7","6.0","GIJON MUSEL, SP","FM-12","99999","V020","080,1,N,0021,1","22000,1,9,N","030000,1,N,1","+0242,1","+0186,1","10208,1",,,,,,,,"01,99,1,01,1,01,1,01250,1,04,1,00,1",,,,,"99999,9,10201,1","1,1,005,1,+999,9",,"SYN076AAXX  20154 08014 42680 10804 10242 20186 30201 40208 51005 81140 333 92438;",
"08014099999","2010-08-20T18:00:00","4","43.5666666","-5.7","6.0","GIJON MUSEL, SP","FM-12","99999","V020","070,1,N,0015,1","22000,1,9,N","030000,1,N,1","+0238,1","+0195,1","10213,1","12,0000,9,1",,,,,"00,1,+99999,9,99,9",,"00,99,1,00,1,00,1,99999,9,00,1,00,1",,,,"120,M,+0246,1","99999,9,10206,1","2,1,005,1,+999,9",,"SYN082AAXX  20184 08014 12980 00703 10238 20195 30206 40213 52005 60002 333 10246 92438;","Q01  00002PRCP12"
"08014099999","2010-08-21T06:00:00","4","43.5666666","-5.7","6.0","GIJON MUSEL, SP","FM-12","99999","V020","999,9,C,0000,1","22000,1,9,N","010000,1,N,1","+0192,1","+0166,1","10221,1","12,0000,9,1","24,0000,9,1",,,,,,"03,99,1,03,1,06,1,00450,1,00,1,00,1","0738,9","01,9","999,+0160,9","999,N,+0180,1","99999,9,10213,1","4,1,000,1,+999,9",,"SYN106AAXX  21064 08014 12460 30000 10192 20166 30213 40221 54000 60002 83600 333 20180 30016 50264 55123 70000;","Q01  00002PRCP24Q02  00002PRCP12"
"08014099999","2010-08-21T09:00:00","4","43.5666666","-5.7","6.0","GIJON MUSEL, SP","FM-12","99999","V020","040,1,N,0015,1","22000,1,9,N","020000,1,N,1","+0222,1","+0180,1","10225,1",,,,,,,,"01,99,1,01,1,06,1,00450,1,00,1,00,1",,,,,"99999,9,10217,1","1,1,004,1,+999,9",,"SYN076AAXX  21094 08014 42470 10403 10222 20180 30217 40225 51004 81600 333 92427;",
"08014099999","2010-08-21T12:00:00","4","43.5666666","-5.7","6.0","GIJON MUSEL, SP","FM-12","99999","V020","040,1,N,0026,1","22000,1,9,N","010000,1,N,1","+0238,1","+0201,1","10214,1","06,0000,9,1",,,,,"00,1,+99999,9,99,9",,"00,99,1,00,1,00,1,99999,9,00,1,00,1",,,,,"99999,9,10207,1","8,1,010,1,+999,9",,"SYN076AAXX  21124 08014 12960 00405 10238 20201 30207 40214 58010 60001 333 92426;","Q01  00002PRCP06"
"08014099999","2010-08-21T15:00:00","4","43.5666666","-5.7","6.0","GIJON MUSEL, SP","FM-12","99999","V020","060,1,N,0026,1","22000,1,9,N","020000,1,N,1","+0242,1","+0205,1","10206,1",,,,,,,,"02,99,1,02,1,02,1,01250,1,06,1,00,1",,,,,"99999,9,10199,1","7,1,008,1,+999,9",,"SYN076AAXX  21154 08014 42670 20605 10242 20205 30199 40206 57008 82260 333 92427;",
"08014099999","2010-08-21T18:00:00","4","43.5666666","-5.7","6.0","GIJON MUSEL, SP","FM-12","99999","V020","050,1,N,0021,1","00750,1,9,N","008000,1,N,1","+0238,1","+0203,1","10204,1","12,0000,9,1",,,"1,1,06,1","1,1,06,1",,,"07,99,1,07,1,02,1,00800,1,06,1,00,1",,,,"120,M,+0250,1","99999,9,10197,1","8,1,002,1,+999,9","10,1","SYN094AAXX  21184 08014 11558 70504 10238 20203 30197 40204 58002 60002 71011 87260 333 10250 92426;","Q01  00002PRCP12"
"08014099999","2010-08-22T06:00:00","4","43.5666666","-5.7","6.0","GIJON MUSEL, SP","FM-12","99999","V020","270,1,N,0026,1","00420,1,9,N","004000,1,N,1","+0212,1","+0189,1","10184,1","12,0000,9,1","24,0003,9,1",,"2,1,06,1","2,1,06,1",,,"08,99,1,08,1,06,1,00450,1,99,9,99,9","0618,9","09,9","999,+0210,9","999,N,+0200,1","99999,9,10176,1","6,1,005,1,+999,9","10,1","SYN112AAXX  22064 08014 11440 82705 10212 20189 30176 40184 56005 69922 71022 886// 333 20200 31021 50274 55103 70002;","Q01  00002PRCP12"
"08014099999","2010-08-22T09:00:00","4","43.5666666","-5.7","6.0","GIJON MUSEL, SP","FM-12","99999","V020","270,1,N,0015,1","00420,1,9,N","004000,1,N,1","+0222,1","+0190,1","10181,1",,,,"2,1,03,1","2,1,03,1",,,"08,99,1,08,1,06,1,00450,1,99,9,99,9",,,,,"99999,9,10174,1","8,1,002,1,+999,9","10,1","SYN082AAXX  22094 08014 41440 82703 10222 20190 30174 40181 58002 71022 886// 333 92435;",
"08014099999","2010-08-22T12:00:00","4","43.5666666","-5.7","6.0","GIJON MUSEL, SP","FM-12","99999","V020","040,1,N,0010,1","00420,1,9,N","006000,1,N,1","+0228,1","+0188,1","10173,1","06,0000,9,1",,,"2,1,06,1","2,1,06,1",,,"07,99,1,05,1,06,1,00450,1,01,1,00,1",,,,,"99999,9,10166,1","8,1,008,1,+999,9","05,1","SYN088AAXX  22124 08014 11456 70402 10228 20188 30166 40173 58008 60001 70522 85610 333 92436;","Q01  00002PRCP06"
"08014099999","2010-08-22T15:00:00","4","43.5666666","-5.7","6.0","GIJON MUSEL, SP","FM-12","99999","V020","010,1,N,0015,1","22000,1,9,N","008000,1,N,1","+0232,1","+0185,1","10150,1",,,,"2,1,03,1","2,1,03,1",,,"03,99,1,03,1,06,1,00450,1,09,1,01,1",,,,,"99999,9,10143,1","7,1,023,1,+999,9","05,1","SYN082AAXX  22154 08014 41458 30103 10232 20185 30143 40150 57023 70522 83691 333 92436;",
"08014099999","2010-08-22T18:00:00","4","43.5666666","-5.7","6.0","GIJON MUSEL, SP","FM-12","99999","V020","030,1,N,0015,1","00420,1,9,N","008000,1,N,1","+0225,1","+0189,1","10154,1","12,0000,9,1",,,"2,1,06,1","2,1,06,1",,,"08,99,1,05,1,06,1,00450,1,01,1,99,9",,,,"120,M,+0238,1","99999,9,10147,1","0,1,004,1,+999,9","10,1","SYN094AAXX  22184 08014 11458 80303 10225 20189 30147 40154 50004 60002 71022 8561/ 333 10238 92436;","Q01  00002PRCP12"
"08014099999","2010-08-23T06:00:00","4","43.5666666","-5.7","6.0","GIJON MUSEL, SP","FM-12","99999","V020","160,1,N,0010,1","22000,1,9,N","015000,1,N,1","+0206,1","+0184,1","10108,1","12,0000,9,1","24,0000,9,1",,,,,,"02,99,1,01,1,08,1,01250,1,04,1,09,1","0078,9","01,9","999,+0170,9","999,N,+0204,1","99999,9,10101,1","7,1,015,1,+999,9",,"SYN106AAXX  23064 08014 12665 21602 10206 20184 30101 40108 57015 60002 81849 333 20204 30017 50244 55013 70000;","Q01  00002PRCP24Q02  00002PRCP12"
"08014099999","2010-08-23T09:00:00","4","43.5666666","-5.7","6.0","GIJON MUSEL, SP","FM-12","99999","V020","110,1,N,0010,1","22000,1,9,N","020000,1,N,1","+0244,1","+0174,1","10106,1",,,,,,,,"03,99,1,02,1,08,1,01250,1,03,1,00,1",,,,,"99999,9,10099,1","8,1,002,1,+999,9",,"SYN076AAXX  23094 08014 42670 31102 10244 20174 30099 40106 58002 82830 333 92437;",
"08014099999","2010-08-23T12:00:00","4","43.5666666","-5.7","6.0","GIJON MUSEL, SP","FM-12","99999","V020","080,1,N,0015,1","03600,1,9,N","015000,1,N,1","+0236,1","+0193,1","10097,1","06,0000,9,1",,,,,,,"06,99,1,04,1,08,1,00800,1,06,1,00,1",,,,,"99999,9,10090,1","6,1,009,1,+999,9",,"SYN082AAXX  23124 08014 12565 60803 10236 20193 30090 40097 56009 60001 84860 333 92437;","Q01  00002PRCP06"
"08014099999","2010-08-23T15:00:00","4","43.5666666","-5.7","6.0","GIJON MUSEL, SP","FM-12","99999","V020","080,1,N,0021,1","22000,1,9,N","030000,1,N,1","+0254,1","+0188,1","10090,1",,,,,,,,"03,99,1,02,1,02,1,01250,1,06,1,00,1",,,,,"99999,9,10083,1","8,1,007,1,+999,9",,"SYN076AAXX  23154 08014 42680 30804 10254 20188 30083 40090 58007 82260 333 92438;",
"08014099999","2010-08-23T18:00:00","4","43.5666666","-5.7","6.0","GIJON MUSEL, SP","FM-12","99999","V020","230,1,N,0015,1","00750,1,9,N","015000,1,N,1","+0230,1","+0190,1","10109,1","12,0000,9,1",,,,,,,"07,99,1,06,1,02,1,00800,1,06,1,00,1",,,,"120,M,+0258,1","99999,9,10102,1","3,1,019,1,+999,9",,"SYN088AAXX  23184 08014 12565 72303 10230 20190 30102 40109 53019 60002 86260 333 10258 92437;","Q01  00002PRCP12"
"08014099999","2010-08-24T06:00:00","4","43.5666666","-5.7","6.0","GIJON MUSEL, SP","FM-12","99999","V020","230,1,N,0026,1","01200,1,9,N","020000,1,N,1","+0182,1","+0151,1","10169,1","12,0030,9,2","24,0028,9,2",,,,,,"08,99,1,05,1,08,1,00800,1,05,1,99,9","0528,9","09,9","999,+0160,9","999,N,+0175,1","99999,9,10161,1","3,1,003,1,+999,9","02,1","SYN112AAXX  24064 08014 11570 82305 10182 20151 30161 40169 53003 60032 702// 8585/ 333 20175 31016 50264 55088 70029;",
"08014099999","2010-08-24T09:00:00","4","43.5666666","-5.7","6.0","GIJON MUSEL, SP","FM-12","99999","V020","040,1,N,0026,1","01200,1,9,N","020000,1,N,1","+0192,1","+0155,1","10184,1",,,,,,,,"08,99,1,05,1,08,1,00800,1,05,1,99,9",,,,,"99999,9,10176,1","2,1,015,1,+999,9",,"SYN076AAXX  24094 08014 42570 80405 10192 20155 30176 40184 52015 8585/ 333 92428;",
"08014099999","2010-08-24T12:00:00","4","43.5666666","-5.7","6.0","GIJON MUSEL, SP","FM-12","99999","V020","040,1,N,0021,1","01200,1,9,N","020000,1,N,1","+0194,1","+0157,1","10189,1","06,0000,9,1",,,,,,,"08,99,1,05,1,08,1,00800,1,05,1,99,9",,,,,"99999,9,10181,1","2,1,005,1,+999,9",,"SYN082AAXX  24124 08014 12570 80404 10194 20157 30181 40189 52005 60001 8585/ 333 92428;","Q01  00002PRCP06"
"08014099999","2010-08-24T15:00:00","4","43.5666666","-5.7","6.0","GIJON MUSEL, SP","FM-12","99999","V020","090,1,N,0021,1","22000,1,9,N","030000,1,N,1","+0218,1","+0161,1","10178,1",,,,,,,,"02,99,1,02,1,04,1,00800,1,00,1,00,1",,,,,"99999,9,10171,1","7,1,010,1,+999,9",,"SYN076AAXX  24154 08014 42580 20904 10218 20161 30171 40178 57010 82400 333 92438;",
"08014099999","2010-08-24T18:00:00","4","43.5666666","-5.7","6.0","GIJON MUSEL, SP","FM-12","99999","V020","080,1,N,0026,1","22000,1,9,N","030000,1,N,1","+0222,1","+0167,1","10164,1","12,0000,9,1",,,,,,,"03,99,1,01,1,00,1,01250,1,03,1,01,1",,,,"120,M,+0227,1","99999,9,10157,1","7,1,014,1,+999,9",,"SYN088AAXX  24184 08014 12680 30805 10222 20167 30157 40164 57014 60002 81031 333 10227 92438;","Q01  00002PRCP12"
"08014099999","2010-08-25T06:00:00","4","43.5666666","-5.7","6.0","GIJON MUSEL, SP","FM-12","99999","V020","999,9,C,0000,1","22000,1,9,N","030000,1,N,1","+0196,1","+0166,1","10151,1","12,0000,9,1","24,0000,9,1",,,,"00,1,+99999,9,99,9",,"00,99,1,00,1,00,1,99999,9,00,1,00,1","0342,9","01,9","999,+0160,9","999,N,+0188,1","99999,9,10143,1","5,1,001,1,+999,9","02,1","SYN106AAXX  25064 08014 11980 00000 10196 20166 30143 40151 55001 60002 702// 333 20188 30016 50284 55057 70000;","Q01  00002PRCP24Q02  00002PRCP12"
"08014099999","2010-08-25T09:00:00","4","43.5666666","-5.7","6.0","GIJON MUSEL, SP","FM-12","99999","V020","200,1,N,0010,1","22000,1,9,N","030000,1,N,1","+0254,1","+0168,1","10157,1",,,,,,"00,1,+99999,9,99,9",,"00,99,1,00,1,00,1,99999,9,00,1,00,1",,,,,"99999,9,10150,1","2,1,007,1,+999,9",,"SYN070AAXX  25094 08014 42980 02002 10254 20168 30150 40157 52007 333 92428;",
"08014099999","2010-08-25T12:00:00","4","43.5666666","-5.7","6.0","GIJON MUSEL, SP","FM-12","99999","V020","040,1,N,0021,1","22000,1,9,N","030000,1,N,1","+0250,1","+0177,1","10154,1","06,0000,9,1",,,,,"00,1,+99999,9,99,9",,"00,99,1,00,1,00,1,99999,9,00,1,00,1",,,,,"99999,9,10147,1","7,1,003,1,+999,9",,"SYN076AAXX  25124 08014 12980 00404 10250 20177 30147 40154 57003 60001 333 92428;","Q01  00002PRCP06"
"08014099999","2010-08-25T15:00:00","4","43.5666666","-5.7","6.0","GIJON MUSEL, SP","FM-12","99999","V020","050,1,N,0026,1","22000,1,9,N","030000,1,N,1","+0252,1","+0189,1","10146,1",,,,,,"00,1,+99999,9,99,9",,"00,99,1,00,1,00,1,99999,9,00,1,00,1",,,,,"99999,9,10139,1","7,1,008,1,+999,9",,"SYN070AAXX  25154 08014 42980 00505 10252 20189 30139 40146 57008 333 92428;",
"08014099999","2010-08-25T18:00:00","4","43.5666666","-5.7","6.0","GIJON MUSEL, SP","FM-12","99999","V020","060,1,N,0026,1","22000,1,9,N","030000,1,N,1","+0242,1","+0199,1","10144,1","12,0000,9,1",,,,,"00,1,+99999,9,99,9",,"00,99,1,00,1,00,1,99999,9,00,1,00,1",,,,"120,M,+0268,1","99999,9,10137,1","7,1,002,1,+999,9",,"SYN082AAXX  25184 08014 12980 00605 10242 20199 30137 40144 57002 60002 333 10268 92428;","Q01  00002PRCP12"
"08014099999","2010-08-26T06:00:00","4","43.5666666","-5.7","6.0","GIJON MUSEL, SP","FM-12","99999","V020","240,1,N,0010,1","03600,1,9,N","006000,1,N,1","+0204,1","+0185,1","10116,1","12,0000,9,1","24,0000,9,1",,,,,,"07,99,1,04,1,06,1,00450,1,05,1,01,1","0732,9","01,9","999,+0180,9","999,N,+0196,1","99999,9,10109,1","6,1,006,1,+999,9","10,1","SYN112AAXX  26064 08014 11456 72402 10204 20185 30109 40116 56006 60002 710// 84651 333 20196 30018 50334 55122 70000;","Q01  00002PRCP24Q02  00002PRCP12"
"08014099999","2010-08-26T09:00:00","4","43.5666666","-5.7","6.0","GIJON MUSEL, SP","FM-12","99999","V020","360,1,N,0015,1","00420,1,9,N","004000,1,N,1","+0224,1","+0194,1","10118,1",,,,"4,1,03,1","4,1,03,1",,,"08,99,1,05,1,06,1,00450,1,05,1,99,9",,,,,"99999,9,10111,1","2,1,002,1,+999,9","10,1","SYN082AAXX  26094 08014 41440 83603 10224 20194 30111 40118 52002 71044 8565/ 333 92426;",
"08014099999","2010-08-26T12:00:00","4","43.5666666","-5.7","6.0","GIJON MUSEL, SP","FM-12","99999","V020","060,1,N,0015,1","00420,1,9,N","004000,1,N,1","+0222,1","+0190,1","10113,1","06,0000,9,1",,,"4,1,06,1","4,1,06,1",,,"08,99,1,05,1,06,1,00450,1,05,1,99,9",,,,,"99999,9,10106,1","7,1,005,1,+999,9","10,1","SYN088AAXX  26124 08014 11440 80603 10222 20190 30106 40113 57005 60001 71044 8565/ 333 92427;","Q01  00002PRCP06"
"08014099999","2010-08-26T15:00:00","4","43.5666666","-5.7","6.0","GIJON MUSEL, SP","FM-12","99999","V020","120,1,N,0005,1","00420,1,9,N","010000,1,N,1","+0234,1","+0189,1","10096,1",,,,"4,1,03,1","2,1,03,1",,,"08,99,1,05,1,06,1,00450,1,05,1,99,9",,,,,"99999,9,10089,1","7,1,017,1,+999,9","02,1","SYN082AAXX  26154 08014 41460 81201 10234 20189 30089 40096 57017 70242 8565/ 333 92427;",
"08014099999","2010-08-26T18:00:00","4","43.5666666","-5.7","6.0","GIJON MUSEL, SP","FM-12","99999","V020","040,1,N,0005,1","00900,1,9,N","010000,1,N,1","+0222,1","+0201,1","10098,1","12,0000,9,1",,,"4,1,06,1","2,1,06,1",,,"08,99,1,05,1,08,1,00450,1,05,1,99,9",,,,"120,M,+0252,1","99999,9,10091,1","2,1,002,1,+999,9","02,1","SYN094AAXX  26184 08014 11460 80401 10222 20201 30091 40098 52002 60002 70242 8585/ 333 10252 92427;","Q01  00002PRCP12"
"08014099999","2010-08-27T06:00:00","4","43.5666666","-5.7","6.0","GIJON MUSEL, SP","FM-12","99999","V020","200,1,N,0031,1","22000,1,9,N","020000,1,N,1","+0220,1","+0108,1","10124,1","12,0000,9,1","24,0003,9,1",,,,,,"05,99,1,04,1,00,1,01750,1,05,1,09,1","0180,9","01,9","999,+0150,9","999,N,+0187,1","99999,9,10117,1","2,1,015,1,+999,9","02,1","SYN112AAXX  27064 08014 11770 52006 10220 20108 30117 40124 52015 69922 702// 84059 333 20187 30015 50424 55030 70002;","Q01  00002PRCP12"
"08014099999","2010-08-27T09:00:00","4","43.5666666","-5.7","6.0","GIJON MUSEL, SP","FM-12","99999","V020","330,1,N,0005,1","03600,1,9,N","020000,1,N,1","+0250,1","+0105,1","10152,1",,,,,,,,"05,99,1,02,1,04,1,00800,1,05,1,00,1",,,,,"99999,9,10145,1","2,1,028,1,+999,9",,"SYN076AAXX  27094 08014 42570 53301 10250 20105 30145 40152 52028 82450 333 92438;",
"08014099999","2010-08-27T12:00:00","4","43.5666666","-5.7","6.0","GIJON MUSEL, SP","FM-12","99999","V020","170,1,N,0010,1","22000,1,9,N","030000,1,N,1","+0258,1","+0133,1","10168,1","06,0000,9,1",,,,,,,"04,99,1,02,1,00,1,00800,1,03,1,09,1",,,,,"99999,9,10161,1","2,1,016,1,+999,9",,"SYN082AAXX  27124 08014 12580 41702 10258 20133 30161 40168 52016 60001 82039 333 92438;","Q01  00002PRCP06"
"08014099999","2010-08-27T15:00:00","4","43.5666666","-5.7","6.0","GIJON MUSEL, SP","FM-12","99999","V020","040,1,N,0057,1","03600,1,9,N","030000,1,N,1","+0222,1","+0182,1","10184,1",,,,,,,,"05,99,1,04,1,02,1,00800,1,03,1,00,1",,,,,"99999,9,10177,1","2,1,016,1,+999,9",,"SYN076AAXX  27154 08014 42580 50411 10222 20182 30177 40184 52016 84230 333 92438;",
"08014099999","2010-08-27T18:00:00","4","43.5666666","-5.7","6.0","GIJON MUSEL, SP","FM-12","99999","V020","040,1,N,0026,1","00750,1,9,N","030000,1,N,1","+0210,1","+0184,1","10203,1","12,0000,9,1",,,"5,1,06,1","5,1,06,1",,,"08,99,1,05,1,02,1,00800,1,05,1,99,9",,,,"120,M,+0261,1","99999,9,10195,1","2,1,018,1,+999,9","02,1","SYN094AAXX  27184 08014 11580 80405 10210 20184 30195 40203 52018 69912 70255 8525/ 333 10261 92438;","Q01  00002PRCP12"
"08014099999","2010-08-28T06:00:00","4","43.5666666","-5.7","6.0","GIJON MUSEL, SP","FM-12","99999","V020","070,1,N,0021,1","01200,1,9,N","020000,1,N,1","+0200,1","+0162,1","10221,1","12,0000,9,1","24,0000,9,1",,,,,,"08,99,1,05,1,08,1,00800,1,05,1,99,9","0180,9","01,9","999,+0160,9","999,N,+0195,1","99999,9,10213,1","3,1,005,1,+999,9","02,1","SYN112AAXX  28064 08014 11570 80704 10200 20162 30213 40221 53005 60002 702// 8585/ 333 20195 30016 50604 55030 70001;","Q01  00002PRCP24Q02  00002PRCP12"
"08014099999","2010-08-28T09:00:00","4","43.5666666","-5.7","6.0","GIJON MUSEL, SP","FM-12","99999","V020","080,1,N,0021,1","01200,1,9,N","020000,1,N,1","+0210,1","+0158,1","10226,1",,,,,,,,"07,99,1,05,1,08,1,00800,1,05,1,99,9",,,,,"99999,9,10218,1","2,1,005,1,+999,9",,"SYN076AAXX  28094 08014 42570 70804 10210 20158 30218 40226 52005 8585/ 333 92438;",
"08014099999","2010-08-28T12:00:00","4","43.5666666","-5.7","6.0","GIJON MUSEL, SP","FM-12","99999","V020","080,1,N,0031,1","22000,1,9,N","030000,1,N,1","+0222,1","+0148,1","10227,1","06,0000,9,1",,,,,,,"03,99,1,02,1,04,1,00800,1,07,1,00,1",,,,,"99999,9,10219,1","2,1,001,1,+999,9",,"SYN082AAXX  28124 08014 12580 30806 10222 20148 30219 40227 52001 60001 82470 333 92438;","Q01  00002PRCP06"
"08014099999","2010-08-28T15:00:00","4","43.5666666","-5.7","6.0","GIJON MUSEL, SP","FM-12","99999","V020","080,1,N,0031,1","22000,1,9,N","030000,1,N,1","+0230,1","+0148,1","10224,1",,,,,,,,"02,99,1,02,1,04,1,00800,1,00,1,00,1",,,,,"99999,9,10217,1","7,1,002,1,+999,9",,"SYN076AAXX  28154 08014 42580 20806 10230 20148 30217 40224 57002 82400 333 92438;",
"08014099999","2010-08-28T18:00:00","4","43.5666666","-5.7","6.0","GIJON MUSEL, SP","FM-12","99999","V020","080,1,N,0031,1","22000,1,9,N","030000,1,N,1","+0218,1","+0161,1","10219,1","12,0000,9,1",,,,,,,"01,99,1,01,1,04,1,00800,1,00,1,00,1",,,,"120,M,+0233,1","99999,9,10211,1","7,1,006,1,+999,9",,"SYN088AAXX  28184 08014 12580 10806 10218 20161 30211 40219 57006 60002 81400 333 10233 92438;","Q01  00002PRCP12"
"08014099999","2010-08-29T06:00:00","4","43.5666666","-5.7","6.0","GIJON MUSEL, SP","FM-12","99999","V020","070,1,N,0010,1","22000,1,9,N","030000,1,N,1","+0182,1","+0145,1","10214,1","12,0000,9,1","24,0000,9,1",,,,,,"02,99,1,02,1,04,1,00800,1,00,1,00,1","0510,9","01,9","999,+0160,9","999,N,+0180,1","99999,9,10206,1","5,1,004,1,+999,9","02,1","SYN112AAXX  29064 08014 11580 20702 10182 20145 30206 40214 55004 60002 702// 82400 333 20180 30016 50704 55085 70000;","Q01  00002PRCP24Q02  00002PRCP12"
"08014099999","2010-08-29T09:00:00","4","43.5666666","-5.7","6.0","GIJON MUSEL, SP","FM-12","99999","V020","090,1,N,0026,1","22000,1,9,N","030000,1,N,1","+0208,1","+0140,1","10215,1",,,,,,"00,1,+99999,9,99,9",,"00,99,1,00,1,00,1,99999,9,00,1,00,1",,,,,"99999,9,10207,1","2,1,001,1,+999,9",,"SYN070AAXX  29094 08014 42980 00905 10208 20140 30207 40215 52001 333 92438;",
"08014099999","2010-08-29T12:00:00","4","43.5666666","-5.7","6.0","GIJON MUSEL, SP","FM-12","99999","V020","080,1,N,0036,1","22000,1,9,N","030000,1,N,1","+0222,1","+0141,1","10216,1","06,0000,9,1",,,,,"00,1,+99999,9,99,9",,"00,99,1,00,1,00,1,99999,9,00,1,00,1",,,,,"99999,9,10208,1","2,1,001,1,+999,9",,"SYN076AAXX  29124 08014 12980 00807 10222 20141 30208 40216 52001 60001 333 92438;","Q01  00002PRCP06"
"08014099999","2010-08-29T15:00:00","4","43.5666666","-5.7","6.0","GIJON MUSEL, SP","FM-12","99999","V020","080,1,N,0031,1","22000,1,9,N","030000,1,N,1","+0230,1","+0148,1","10209,1",,,,,,"00,1,+99999,9,99,9",,"00,99,1,00,1,00,1,99999,9,00,1,00,1",,,,,"99999,9,10202,1","7,1,006,1,+999,9",,"SYN070AAXX  29154 08014 42980 00806 10230 20148 30202 40209 57006 333 92438;",
"08014099999","2010-08-29T18:00:00","4","43.5666666","-5.7","6.0","GIJON MUSEL, SP","FM-12","99999","V020","080,1,N,0026,1","22000,1,9,N","030000,1,N,1","+0218,1","+0149,1","10208,1","12,0000,9,1",,,,,,,"01,99,1,01,1,04,1,00800,1,00,1,00,1",,,,"120,M,+0233,1","99999,9,10200,1","7,1,002,1,+999,9",,"SYN088AAXX  29184 08014 12580 10805 10218 20149 30200 40208 57002 60002 81400 333 10233 92438;","Q01  00002PRCP12"
"08014099999","2010-08-30T06:00:00","4","43.5666666","-5.7","6.0","GIJON MUSEL, SP","FM-12","99999","V020","999,9,C,0000,1","22000,1,9,N","030000,1,N,1","+0164,1","+0133,1","10207,1","12,0000,9,1","24,0000,9,1",,,,,,"02,99,1,02,1,04,1,00800,1,00,1,00,1","0726,9","01,9","999,+0150,9","999,N,+0160,1","99999,9,10199,1","6,1,001,1,+999,9","02,1","SYN112AAXX  30064 08014 11580 20000 10164 20133 30199 40207 56001 60002 702// 82400 333 20160 30015 50204 55121 70000;","Q01  00002PRCP24Q02  00002PRCP12"
"08014099999","2010-08-30T09:00:00","4","43.5666666","-5.7","6.0","GIJON MUSEL, SP","FM-12","99999","V020","090,1,N,0026,1","22000,1,9,N","030000,1,N,1","+0204,1","+0145,1","10207,1",,,,,,,,"01,99,1,01,1,04,1,00800,1,00,1,00,1",,,,,"99999,9,10199,1","4,1,000,1,+999,9",,"SYN076AAXX  30094 08014 42580 10905 10204 20145 30199 40207 54000 81400 333 92438;",
"08014099999","2010-08-30T12:00:00","4","43.5666666","-5.7","6.0","GIJON MUSEL, SP","FM-12","99999","V020","080,1,N,0036,1","22000,1,9,N","030000,1,N,1","+0224,1","+0155,1","10201,1","06,0000,9,1",,,,,"00,1,+99999,9,99,9",,"00,99,1,00,1,00,1,99999,9,00,1,00,1",,,,,"99999,9,10194,1","7,1,005,1,+999,9",,"SYN076AAXX  30124 08014 12980 00807 10224 20155 30194 40201 57005 60001 333 92438;","Q01  00002PRCP06"
"08014099999","2010-08-30T15:00:00","4","43.5666666","-5.7","6.0","GIJON MUSEL, SP","FM-12","99999","V020","080,1,N,0041,1","22000,1,9,N","030000,1,N,1","+0222,1","+0160,1","10184,1",,,,,,,,"01,99,1,01,1,04,1,00800,1,00,1,00,1",,,,,"99999,9,10177,1","7,1,017,1,+999,9",,"SYN076AAXX  30154 08014 42580 10808 10222 20160 30177 40184 57017 81400 333 92438;",
"08014099999","2010-08-30T18:00:00","4","43.5666666","-5.7","6.0","GIJON MUSEL, SP","FM-12","99999","V020","080,1,N,0041,1","22000,1,9,N","030000,1,N,1","+0212,1","+0162,1","10178,1","12,0000,9,1",,,,,"00,1,+99999,9,99,9",,"00,99,1,00,1,00,1,99999,9,00,1,00,1",,,,"120,M,+0230,1","99999,9,10170,1","7,1,007,1,+999,9","02,1","SYN088AAXX  30184 08014 11980 00808 10212 20162 30170 40178 57007 60002 702// 333 10230 92438;","Q01  00002PRCP12"
"08014099999","2010-08-31T06:00:00","4","43.5666666","-5.7","6.0","GIJON MUSEL, SP","FM-12","99999","V020","090,1,N,0021,1","22000,1,9,N","030000,1,N,1","+0178,1","+0131,1","10144,1","12,0000,9,1","24,0000,9,1",,,,,,"04,99,1,02,1,04,1,00800,1,07,1,00,1","0720,9","01,9","999,+0140,9","999,N,+0173,1","99999,9,10136,1","6,1,008,1,+999,9","02,1","SYN112AAXX  31064 08014 11580 40904 10178 20131 30136 40144 56008 60002 702// 82470 333 20173 30014 50444 55120 70000;","Q01  00002PRCP24Q02  00002PRCP12"
"08014099999","2010-08-31T09:00:00","4","43.5666666","-5.7","6.0","GIJON MUSEL, SP","FM-12","99999","V020","090,1,N,0031,1","03600,1,9,N","020000,1,N,1","+0204,1","+0138,1","10136,1",,,,,,,,"06,99,1,01,1,06,1,00800,1,07,1,01,1",,,,,"99999,9,10128,1","7,1,008,1,+999,9",,"SYN076AAXX  31094 08014 42570 60906 10204 20138 30128 40136 57008 81671 333 92438;",
"08014099999","2010-08-31T12:00:00","4","43.5666666","-5.7","6.0","GIJON MUSEL, SP","FM-12","99999","V020","080,1,N,0041,1","03600,1,9,N","020000,1,N,1","+0218,1","+0147,1","10123,1","06,0000,9,1",,,,,,,"07,99,1,03,1,04,1,00800,1,05,1,00,1",,,,,"99999,9,10116,1","7,1,012,1,+999,9",,"SYN082AAXX  31124 08014 12570 70808 10218 20147 30116 40123 57012 60001 83450 333 92438;","Q01  00002PRCP06"
"08014099999","2010-08-31T15:00:00","4","43.5666666","-5.7","6.0","GIJON MUSEL, SP","FM-12","99999","V020","080,1,N,0041,1","03600,1,9,N","020000,1,N,1","+0210,1","+0153,1","10109,1",,,,,,,,"07,99,1,04,1,04,1,00800,1,07,1,99,9",,,,,"99999,9,10102,1","7,1,014,1,+999,9",,"SYN076AAXX  31154 08014 42570 70808 10210 20153 30102 40109 57014 8447/ 333 92438;",
"08014099999","2010-08-31T18:00:00","4","43.5666666","-5.7","6.0","GIJON MUSEL, SP","FM-12","99999","V020","080,1,N,0036,1","03600,1,9,N","015000,1,N,1","+0200,1","+0150,1","10098,1","12,0000,9,1",,,,,,,"08,99,1,04,1,06,1,00800,1,07,1,99,9",,,,"120,M,+0219,1","99999,9,10091,1","7,1,011,1,+999,9",,"SYN088AAXX  31184 08014 12565 80807 10200 20150 30091 40098 57011 60002 8467/ 333 10219 92438;","Q01  00002PRCP12"
"08014099999","2010-09-01T06:00:00","4","43.5666666","-5.7","6.0","GIJON MUSEL, SP","FM-12","99999","V020","999,9,C,0000,1","01200,1,9,N","015000,1,N,1","+0185,1","+0148,1","10075,1","12,0000,9,1","24,0000,9,1",,,,,,"08,99,1,07,1,05,1,01250,1,07,1,00,1","0522,9","01,9","999,+0140,9","999,N,+0178,1","99999,9,10067,1","7,1,006,1,+999,9","02,1","SYN112AAXX  01064 08014 11665 80000 10185 20148 30067 40075 57006 60002 702// 87570 333 20178 30014 50504 55087 70000;","Q01  00002PRCP24Q02  00002PRCP12"
"08014099999","2010-09-01T09:00:00","4","43.5666666","-5.7","6.0","GIJON MUSEL, SP","FM-12","99999","V020","070,1,N,0010,1","03600,1,9,N","010000,1,N,1","+0201,1","+0159,1","10081,1",,,,,,,,"07,99,1,04,1,05,1,01250,1,01,1,00,1",,,,,"99999,9,10074,1","3,1,007,1,+999,9",,"SYN076AAXX  01094 08014 42660 70702 10201 20159 30074 40081 53007 84510 333 92436;",
"08014099999","2010-09-01T12:00:00","4","43.5666666","-5.7","6.0","GIJON MUSEL, SP","FM-12","99999","V020","350,1,N,0010,1","01500,1,9,N","010000,1,N,1","+0222,1","+0178,1","10087,1","06,0000,9,1",,,,,,,"08,99,1,08,1,00,1,01750,1,01,1,00,1",,,,,"99999,9,10080,1","2,1,006,1,+999,9",,"SYN082AAXX  01124 08014 12760 83502 10222 20178 30080 40087 52006 60001 88010 333 92436;","Q01  00002PRCP06"
"08014099999","2010-09-01T15:00:00","4","43.5666666","-5.7","6.0","GIJON MUSEL, SP","FM-12","99999","V020","020,1,N,0021,1","01500,1,9,N","010000,1,N,1","+0220,1","+0178,1","10090,1",,,,,,,,"06,99,1,06,1,00,1,01750,1,01,1,00,1",,,,,"99999,9,10083,1","2,1,003,1,+999,9",,"SYN076AAXX  01154 08014 42760 60204 10220 20178 30083 40090 52003 86010 333 92436;",
"08014099999","2010-09-01T18:00:00","4","43.5666666","-5.7","6.0","GIJON MUSEL, SP","FM-12","99999","V020","340,1,N,0010,1","01500,1,9,N","010000,1,N,1","+0218,1","+0176,1","10103,1","12,0000,9,1",,,,,,,"05,99,1,05,1,00,1,01750,1,01,1,00,1",,,,"120,M,+0227,1","99999,9,10096,1","2,1,013,1,+999,9",,"SYN088AAXX  01184 08014 12760 53402 10218 20176 30096 40103 52013 60002 85010 333 10227 92436;","Q01  00002PRCP12"
"08014099999","2010-09-02T06:00:00","4","43.5666666","-5.7","6.0","GIJON MUSEL, SP","FM-12","99999","V020","230,1,N,0010,1","00750,1,9,N","010000,1,N,1","+0192,1","+0159,1","10132,1","12,0000,9,1","24,0000,9,1",,,,,,"08,99,1,05,1,01,1,00800,1,07,1,99,9","0168,9","01,9","999,+0150,9","999,N,+0185,1","99999,9,10124,1","2,1,004,1,+999,9","02,1","SYN112AAXX  02064 08014 11560 82302 10192 20159 30124 40132 52004 60002 702// 8517/ 333 20185 30015 50274 55028 70000;","Q01  00002PRCP24Q02  00002PRCP12"
"08014099999","2010-09-02T09:00:00","4","43.5666666","-5.7","6.0","GIJON MUSEL, SP","FM-12","99999","V020","230,1,N,0015,1","00750,1,9,N","015000,1,N,1","+0210,1","+0158,1","10149,1",,,,,,,,"06,99,1,06,1,01,1,00800,1,00,1,00,1",,,,,"99999,9,10142,1","2,1,018,1,+999,9",,"SYN076AAXX  02094 08014 42565 62303 10210 20158 30142 40149 52018 86100 333 92437;",
"08014099999","2010-09-02T12:00:00","4","43.5666666","-5.7","6.0","GIJON MUSEL, SP","FM-12","99999","V020","030,1,N,0046,1","22000,1,9,N","015000,1,N,1","+0214,1","+0143,1","10153,1","06,0000,9,1",,,,,"00,1,+99999,9,99,9",,"00,99,1,00,1,00,1,99999,9,00,1,00,1",,,,,"99999,9,10146,1","2,1,004,1,+999,9",,"SYN076AAXX  02124 08014 12965 00309 10214 20143 30146 40153 52004 60001 333 92437;","Q01  00002PRCP06"
"08014099999","2010-09-02T15:00:00","4","43.5666666","-5.7","6.0","GIJON MUSEL, SP","FM-12","99999","V020","020,1,N,0026,1","22000,1,9,N","015000,1,N,1","+0214,1","+0168,1","10154,1",,,,,,"00,1,+99999,9,99,9",,"00,99,1,00,1,00,1,99999,9,00,1,00,1",,,,,"99999,9,10147,1","2,1,001,1,+999,9",,"SYN070AAXX  02154 08014 42965 00205 10214 20168 30147 40154 52001 333 92427;",
"08014099999","2010-09-02T18:00:00","4","43.5666666","-5.7","6.0","GIJON MUSEL, SP","FM-12","99999","V020","030,1,N,0021,1","22000,1,9,N","015000,1,N,1","+0212,1","+0176,1","10160,1","12,0000,9,1",,,,,,,"02,99,1,01,1,01,1,00800,1,00,1,01,1",,,,"120,M,+0225,1","99999,9,10153,1","2,1,006,1,+999,9",,"SYN088AAXX  02184 08014 12565 20304 10212 20176 30153 40160 52006 60002 81101 333 10225 92427;","Q01  00002PRCP12"
"08014099999","2010-09-04T06:00:00","4","43.5666666","-5.7","6.0","GIJON MUSEL, SP","FM-12","99999","V020","260,1,N,0015,1","03600,1,9,N","010000,1,N,1","+0188,1","+0149,1","10173,1","12,0000,9,1","24,0000,9,1",,,,,,"05,99,1,03,1,06,1,00800,1,03,1,01,1","0438,9","01,9","999,+0150,9","999,N,+0170,1","99999,9,10165,1","7,1,001,1,+999,9","02,1","SYN112AAXX  04064 08014 11560 52603 10188 20149 30165 40173 57001 60002 702// 83631 333 20170 30015 50354 55073 70000;","Q01  00002PRCP24Q02  00002PRCP12"
"08014099999","2010-09-04T09:00:00","4","43.5666666","-5.7","6.0","GIJON MUSEL, SP","FM-12","99999","V020","010,1,N,0010,1","00750,1,9,N","004000,1,N,1","+0198,1","+0150,1","10189,1",,,,"2,1,03,1","2,1,03,1",,,"08,99,1,08,1,06,1,00800,1,99,9,99,9",,,,,"99999,9,10181,1","3,1,016,1,+999,9","10,1","SYN082AAXX  04094 08014 41540 80102 10198 20150 30181 40189 53016 71022 886// 333 92425;",
"08014099999","2010-09-04T12:00:00","4","43.5666666","-5.7","6.0","GIJON MUSEL, SP","FM-12","99999","V020","070,1,N,0010,1","03600,1,9,N","006000,1,N,1","+0210,1","+0164,1","10187,1","06,0000,9,1",,,"2,1,06,1","2,1,06,1",,,"08,99,1,04,1,06,1,01250,1,01,1,99,9",,,,,"99999,9,10179,1","8,1,002,1,+999,9","10,1","SYN088AAXX  04124 08014 11656 80702 10210 20164 30179 40187 58002 60001 71022 8461/ 333 92426;","Q01  00002PRCP06"
"08014099999","2010-09-04T15:00:00","4","43.5666666","-5.7","6.0","GIJON MUSEL, SP","FM-12","99999","V020","050,1,N,0021,1","22000,1,9,N","015000,1,N,1","+0224,1","+0150,1","10174,1",,,,,,"00,1,+99999,9,99,9",,"00,99,1,00,1,00,1,99999,9,00,1,00,1",,,,,"99999,9,10167,1","7,1,012,1,+999,9",,"SYN070AAXX  04154 08014 42965 00504 10224 20150 30167 40174 57012 333 92427;",
"08014099999","2010-09-04T18:00:00","4","43.5666666","-5.7","6.0","GIJON MUSEL, SP","FM-12","99999","V020","070,1,N,0015,1","22000,1,9,N","015000,1,N,1","+0215,1","+0173,1","10162,1","12,0000,9,1",,,,,"00,1,+99999,9,99,9",,"00,99,1,00,1,00,1,99999,9,00,1,00,1",,,,"120,M,+0235,1","99999,9,10155,1","7,1,012,1,+999,9",,"SYN082AAXX  04184 08014 12965 00703 10215 20173 30155 40162 57012 60002 333 10235 92427;","Q01  00002PRCP12"
"08014099999","2010-09-05T06:00:00","4","43.5666666","-5.7","6.0","GIJON MUSEL, SP","FM-12","99999","V020","999,9,C,0000,1","00750,1,9,N","006000,1,N,1","+0172,1","+0154,1","10139,1","12,0000,9,1","24,0000,9,1",,,,,,"08,99,1,05,1,06,1,00800,1,07,1,99,9","0288,9","01,9","999,+0120,9","999,N,+0162,1","99999,9,10131,1","7,1,008,1,+999,9","10,1","SYN112AAXX  05064 08014 11556 80000 10172 20154 30131 40139 57008 60002 710// 8567/ 333 20162 30012 50254 55048 70000;","Q01  00002PRCP24Q02  00002PRCP12"
"08014099999","2010-09-05T09:00:00","4","43.5666666","-5.7","6.0","GIJON MUSEL, SP","FM-12","99999","V020","180,1,N,0010,1","03600,1,9,N","006000,1,N,1","+0202,1","+0168,1","10143,1",,,,"2,1,03,1","2,1,03,1",,,"06,99,1,03,1,06,1,00800,1,07,1,00,1",,,,,"99999,9,10135,1","3,1,004,1,+999,9","10,1","SYN082AAXX  05094 08014 41556 61802 10202 20168 30135 40143 53004 71022 83670 333 92426;",
"08014099999","2010-09-06T06:00:00","4","43.5666666","-5.7","6.0","GIJON MUSEL, SP","FM-12","99999","V020","230,1,N,0015,1","00750,1,9,N","004000,1,N,1","+0220,1","+0176,1","10092,1","12,0000,9,1","24,0000,9,1",,,,,,"08,99,1,05,1,06,1,00800,1,01,1,99,9","0432,9","01,9","999,+0140,9","999,N,+0188,1","99999,9,10085,1","7,1,006,1,+999,9","10,1","SYN112AAXX  06064 08014 11540 82303 10220 20176 30085 40092 57006 60002 710// 8561/ 333 20188 30014 50214 55072 70000;","Q01  00002PRCP24Q02  00002PRCP12"
"08014099999","2010-09-06T09:00:00","4","43.5666666","-5.7","6.0","GIJON MUSEL, SP","FM-12","99999","V020","210,1,N,0021,1","03600,1,9,N","006000,1,N,1","+0220,1","+0176,1","10079,1",,,,"2,1,03,1","2,1,03,1",,,"08,99,1,03,1,06,1,00800,1,01,1,99,9",,,,,"99999,9,10072,1","7,1,013,1,+999,9","10,1","SYN082AAXX  06094 08014 41556 82104 10220 20176 30072 40079 57013 71022 8361/ 333 92426;",
"08014099999","2010-09-06T12:00:00","4","43.5666666","-5.7","6.0","GIJON MUSEL, SP","FM-12","99999","V020","050,1,N,0026,1","03600,1,9,N","010000,1,N,1","+0217,1","+0171,1","10090,1","06,0000,9,1",,,,,,,"08,99,1,04,1,06,1,00800,1,01,1,99,9",,,,,"99999,9,10083,1","3,1,011,1,+999,9",,"SYN082AAXX  06124 08014 12560 80505 10217 20171 30083 40090 53011 60001 8461/ 333 92426;","Q01  00002PRCP06"
"08014099999","2010-09-06T15:00:00","4","43.5666666","-5.7","6.0","GIJON MUSEL, SP","FM-12","99999","V020","210,1,N,0026,1","03600,1,9,N","015000,1,N,1","+0212,1","+0141,1","10088,1",,,,,,,,"08,99,1,04,1,06,1,00800,1,01,1,99,9",,,,,"99999,9,10081,1","8,1,002,1,+999,9",,"SYN076AAXX  06154 08014 42565 82105 10212 20141 30081 40088 58002 8461/ 333 92437;",
"08014099999","2010-09-06T18:00:00","4","43.5666666","-5.7","6.0","GIJON MUSEL, SP","FM-12","99999","V020","220,1,N,0021,1","00750,1,9,N","015000,1,N,1","+0200,1","+0150,1","10089,1","12,0000,9,1",,,"6,1,06,1","2,1,06,1",,,"08,99,1,06,1,07,1,00800,1,07,1,99,9",,,,"120,M,+0224,1","99999,9,10082,1","3,1,001,1,+999,9","02,1","SYN094AAXX  06184 08014 11565 82204 10200 20150 30082 40089 53001 69902 70262 8677/ 333 10224 92437;","Q01  00002PRCP12"
"08014099999","2010-09-07T06:00:00","4","43.5666666","-5.7","6.0","GIJON MUSEL, SP","FM-12","99999","V020","220,1,N,0015,1","22000,1,9,N","015000,1,N,1","+0160,1","+0149,1","10047,1","12,0003,9,1","24,0003,9,1",,,,,,"03,99,1,02,1,08,1,00800,1,07,1,00,1","0000,9","09,9","999,+0110,9","999,N,+0160,1","99999,9,10039,1","7,1,009,1,+999,9","02,1","SYN112AAXX  07064 08014 11565 32203 10160 20149 30039 40047 57009 69932 702// 82870 333 20160 31011 50394 55000 70003;",
"08014099999","2010-09-07T12:00:00","4","43.5666666","-5.7","6.0","GIJON MUSEL, SP","FM-12","99999","V020","100,1,N,0021,1","01200,1,9,N","015000,1,N,1","+0183,1","+0165,1","10000,1","06,0020,9,1",,,"6,1,06,1","1,1,06,1",,,"06,99,1,05,1,08,1,00800,1,03,1,00,1",,,,,"99999,9,09993,1","7,1,019,1,+999,9","21,1","SYN088AAXX  07124 08014 11565 61004 10183 20165 39993 40000 57019 60021 72161 85830 333 92437;",
"08014099999","2010-09-07T15:00:00","4","43.5666666","-5.7","6.0","GIJON MUSEL, SP","FM-12","99999","V020","190,1,N,0031,1","00420,1,9,N","015000,1,N,1","+0193,1","+0163,1","10030,1",,,,"8,1,03,1","2,1,03,1",,,"06,99,1,05,1,02,1,00450,1,06,1,00,1",,,,,"99999,9,10023,1","3,1,030,1,+999,9","25,1","SYN082AAXX  07154 08014 41465 61906 10193 20163 30023 40030 53030 72582 85260 333 92437;",
"08014099999","2010-09-07T18:00:00","4","43.5666666","-5.7","6.0","GIJON MUSEL, SP","FM-12","99999","V020","190,1,N,0015,1","03600,1,9,N","020000,1,N,1","+0173,1","+0142,1","10067,1","12,0061,9,1",,,"6,1,06,1","2,1,06,1",,,"05,99,1,03,1,02,1,00800,1,06,1,00,1",,,,"120,M,+0204,1","99999,9,10059,1","2,1,036,1,+999,9","21,1","SYN094AAXX  07184 08014 11570 51903 10173 20142 30059 40067 52036 60062 72162 83260 333 10204 92437;",
"08014099999","2010-09-08T06:00:00","4","43.5666666","-5.7","6.0","GIJON MUSEL, SP","FM-12","99999","V020","200,1,N,0041,1","22000,1,9,N","020000,1,N,1","+0150,1","+0102,1","10109,1","12,0000,2,1","24,0061,9,1",,,,,,"02,99,1,01,1,08,1,01250,1,07,1,00,1","0270,9","09,9","999,+0100,9","999,N,+0145,1","99999,9,10101,1","2,1,009,1,+999,9","02,1","SYN112AAXX  08064 08014 11670 22008 10150 20102 30101 40109 52009 69912 702// 81870 333 20145 31010 50404 55045 70061;",
"08014099999","2010-09-08T09:00:00","4","43.5666666","-5.7","6.0","GIJON MUSEL, SP","FM-12","99999","V020","240,1,N,0046,1","22000,1,9,N","020000,1,N,1","+0200,1","+0099,1","10122,1",,,,,,,,"03,99,1,02,1,08,1,01250,1,03,1,01,1",,,,,"99999,9,10114,1","2,1,013,1,+999,9",,"SYN076AAXX  08094 08014 42670 32409 10200 20099 30114 40122 52013 82831 333 92437;",
"08014099999","2010-09-08T12:00:00","4","43.5666666","-5.7","6.0","GIJON MUSEL, SP","FM-12","99999","V020","230,1,N,0062,1","22000,1,9,N","030000,1,N,1","+0235,1","+0119,1","10120,1","06,0000,9,1",,,,,,,"04,99,1,03,1,08,1,00800,1,03,1,01,1",,,,,"99999,9,10113,1","8,1,001,1,+999,9",,"SYN082AAXX  08124 08014 12580 42312 10235 20119 30113 40120 58001 60001 83831 333 92438;","Q01  00002PRCP06"
"08014099999","2010-09-08T15:00:00","4","43.5666666","-5.7","6.0","GIJON MUSEL, SP","FM-12","99999","V020","320,1,N,0010,1","22000,1,9,N","030000,1,N,1","+0234,1","+0121,1","10133,1",,,,,,,,"03,99,1,02,1,01,1,00800,1,03,1,01,1",,,,,"99999,9,10126,1","3,1,013,1,+999,9",,"SYN076AAXX  08154 08014 42580 33202 10234 20121 30126 40133 53013 82131 333 92438;",
"08014099999","2010-09-08T18:00:00","4","43.5666666","-5.7","6.0","GIJON MUSEL, SP","FM-12","99999","V020","180,1,N,0015,1","03600,1,9,N","025000,1,N,1","+0213,1","+0163,1","10148,1","12,0000,9,1",,,,,,,"05,99,1,03,1,08,1,00800,1,03,1,00,1",,,,"120,M,+0240,1","99999,9,10141,1","2,1,015,1,+999,9",,"SYN088AAXX  08184 08014 12575 51803 10213 20163 30141 40148 52015 60002 83830 333 10240 92438;","Q01  00002PRCP12"
"08014099999","2010-09-09T06:00:00","4","43.5666666","-5.7","6.0","GIJON MUSEL, SP","FM-12","99999","V020","230,1,N,0031,1","22000,1,9,N","015000,1,N,1","+0166,1","+0129,1","10212,1","12,0000,9,1","24,0000,9,1",,,,,,"01,99,1,01,1,02,1,00800,1,04,1,00,1","0648,9","01,9","999,+0140,9","999,N,+0158,1","99999,9,10204,1","2,1,017,1,+999,9",,"SYN106AAXX  09064 08014 12565 12306 10166 20129 30204 40212 52017 60002 81240 333 20158 30014 50684 55108 70000;","Q01  00002PRCP24Q02  00002PRCP12"
"08014099999","2010-09-09T09:00:00","4","43.5666666","-5.7","6.0","GIJON MUSEL, SP","FM-12","99999","V020","200,1,N,0026,1","22000,1,9,N","020000,1,N,1","+0198,1","+0135,1","10227,1",,,,,,,,"01,99,1,01,1,02,1,01250,1,04,1,01,1",,,,,"99999,9,10219,1","2,1,015,1,+999,9",,"SYN076AAXX  09094 08014 42670 12005 10198 20135 30219 40227 52015 81241 333 92437;",
"08014099999","2010-09-09T12:00:00","4","43.5666666","-5.7","6.0","GIJON MUSEL, SP","FM-12","99999","V020","020,1,N,0031,1","22000,1,9,N","040000,1,N,1","+0212,1","+0139,1","10232,1","06,0000,9,1",,,,,,,"03,99,1,01,1,01,1,01250,1,04,1,01,1",,,,,"99999,9,10224,1","1,1,005,1,+999,9",,"SYN082AAXX  09124 08014 12682 30206 10212 20139 30224 40232 51005 60001 81141 333 92438;","Q01  00002PRCP06"
"08014099999","2010-09-09T15:00:00","4","43.5666666","-5.7","6.0","GIJON MUSEL, SP","FM-12","99999","V020","040,1,N,0036,1","22000,1,9,N","040000,1,N,1","+0212,1","+0162,1","10235,1",,,,,,,,"01,99,1,01,1,01,1,01250,1,04,1,00,1",,,,,"99999,9,10227,1","1,1,003,1,+999,9",,"SYN076AAXX  09154 08014 42682 10407 10212 20162 30227 40235 51003 81140 333 92438;",
"08014099999","2010-09-09T18:00:00","4","43.5666666","-5.7","6.0","GIJON MUSEL, SP","FM-12","99999","V020","010,1,N,0015,1","22000,1,9,N","030000,1,N,1","+0204,1","+0168,1","10242,1","12,0000,9,1",,,,,,,"01,99,1,01,1,01,1,01250,1,00,1,00,1",,,,"120,M,+0230,1","99999,9,10234,1","1,1,007,1,+999,9",,"SYN088AAXX  09184 08014 12680 10103 10204 20168 30234 40242 51007 60002 81100 333 10230 92438;","Q01  00002PRCP12"
"08014099999","2010-09-10T06:00:00","4","43.5666666","-5.7","6.0","GIJON MUSEL, SP","FM-12","99999","V020","230,1,N,0026,1","22000,1,9,N","020000,1,N,1","+0152,1","+0118,1","10228,1","12,0000,9,1","24,0000,9,1",,,,,,"01,99,1,00,1,00,1,99999,9,00,1,01,1","0684,9","01,9","999,+0140,9","999,N,+0150,1","99999,9,10220,1","8,1,008,1,+999,9",,"SYN106AAXX  10064 08014 12970 12305 10152 20118 30220 40228 58008 60002 80001 333 20150 30014 50434 55114 70000;","Q01  00002PRCP24Q02  00002PRCP12"
"08014099999","2010-09-10T09:00:00","4","43.5666666","-5.7","6.0","GIJON MUSEL, SP","FM-12","99999","V020","190,1,N,0010,1","22000,1,9,N","030000,1,N,1","+0196,1","+0133,1","10225,1",,,,,,,,"01,99,1,00,1,00,1,99999,9,00,1,01,1",,,,,"99999,9,10217,1","8,1,003,1,+999,9",,"SYN076AAXX  10094 08014 42980 11902 10196 20133 30217 40225 58003 80001 333 92438;",
"08014099999","2010-09-10T12:00:00","4","43.5666666","-5.7","6.0","GIJON MUSEL, SP","FM-12","99999","V020","070,1,N,0026,1","22000,1,9,N","030000,1,N,1","+0218,1","+0152,1","10212,1","06,0000,9,1",,,,,,,"02,99,1,00,1,00,1,99999,9,00,1,01,1",,,,,"99999,9,10204,1","8,1,013,1,+999,9",,"SYN082AAXX  10124 08014 12980 20705 10218 20152 30204 40212 58013 60001 80001 333 92438;","Q01  00002PRCP06"
"08014099999","2010-09-10T15:00:00","4","43.5666666","-5.7","6.0","GIJON MUSEL, SP","FM-12","99999","V020","070,1,N,0026,1","22000,1,9,N","040000,1,N,1","+0222,1","+0178,1","10194,1",,,,,,,,"03,99,1,00,1,00,1,99999,9,00,1,08,1",,,,,"99999,9,10187,1","7,1,017,1,+999,9",,"SYN076AAXX  10154 08014 42982 30705 10222 20178 30187 40194 57017 80008 333 92448;",
"08014099999","2010-09-10T18:00:00","4","43.5666666","-5.7","6.0","GIJON MUSEL, SP","FM-12","99999","V020","070,1,N,0026,1","22000,1,9,N","040000,1,N,1","+0208,1","+0178,1","10186,1","12,0000,9,1",,,,,,,"03,99,1,00,1,00,1,99999,9,00,1,08,1",,,,"120,M,+0228,1","99999,9,10178,1","6,1,009,1,+999,9",,"SYN088AAXX  10184 08014 12982 30705 10208 20178 30178 40186 56009 60002 80008 333 10228 92448;","Q01  00002PRCP12"
"08014099999","2010-09-11T06:00:00","4","43.5666666","-5.7","6.0","GIJON MUSEL, SP","FM-12","99999","V020","200,1,N,0015,1","22000,1,9,N","020000,1,N,1","+0162,1","+0140,1","10155,1","12,0000,9,1","24,0000,9,1",,,,,,"03,99,1,00,1,00,1,99999,9,00,1,08,1","0672,9","01,9","999,+0140,9","999,N,+0162,1","99999,9,10147,1","4,1,000,1,+999,9",,"SYN106AAXX  11064 08014 12970 32003 10162 20140 30147 40155 54000 60002 80008 333 20162 30014 50244 55112 70000;","Q01  00002PRCP24Q02  00002PRCP12"
"08014099999","2010-09-11T09:00:00","4","43.5666666","-5.7","6.0","GIJON MUSEL, SP","FM-12","99999","V020","220,1,N,0010,1","01200,1,9,N","015000,1,N,1","+0190,1","+0166,1","10168,1",,,,,,,,"06,99,1,05,1,05,1,01250,1,07,1,01,1",,,,,"99999,9,10160,1","3,1,013,1,+999,9",,"SYN076AAXX  11094 08014 42665 62202 10190 20166 30160 40168 53013 85571 333 92437;",
"08014099999","2010-09-11T12:00:00","4","43.5666666","-5.7","6.0","GIJON MUSEL, SP","FM-12","99999","V020","340,1,N,0010,1","09000,1,9,N","020000,1,N,1","+0230,1","+0183,1","10161,1","06,0000,9,1",,,,,,,"05,99,1,01,1,00,1,01750,1,04,1,02,1",,,,,"99999,9,10154,1","6,1,006,1,+999,9",,"SYN082AAXX  11124 08014 12770 53402 10230 20183 30154 40161 56006 60001 81042 333 92437;","Q01  00002PRCP06"
"08014099999","2010-09-11T15:00:00","4","43.5666666","-5.7","6.0","GIJON MUSEL, SP","FM-12","99999","V020","040,1,N,0036,1","22000,1,9,N","020000,1,N,1","+0220,1","+0178,1","10171,1",,,,,,,,"05,99,1,03,1,05,1,01250,1,00,1,01,1",,,,,"99999,9,10164,1","1,1,010,1,+999,9",,"SYN076AAXX  11154 08014 42670 50407 10220 20178 30164 40171 51010 83501 333 92437;",
"08014099999","2010-09-11T18:00:00","4","43.5666666","-5.7","6.0","GIJON MUSEL, SP","FM-12","99999","V020","360,1,N,0015,1","01500,1,9,N","020000,1,N,1","+0210,1","+0188,1","10183,1","12,0000,9,1",,,,,,,"06,99,1,05,1,08,1,01250,1,06,1,01,1",,,,"120,M,+0234,1","99999,9,10175,1","2,1,011,1,+999,9",,"SYN088AAXX  11184 08014 12670 63603 10210 20188 30175 40183 52011 60002 85861 333 10234 92437;","Q01  00002PRCP12"
"08014099999","2010-09-12T06:00:00","4","43.5666666","-5.7","6.0","GIJON MUSEL, SP","FM-12","99999","V020","040,1,N,0026,1","00750,1,9,N","010000,1,N,1","+0196,1","+0176,1","10229,1","12,9999,9,9","24,9999,9,9",,"2,1,06,1","2,1,06,1",,,"08,99,1,08,1,07,1,00800,1,99,9,99,9","0414,9","01,9","999,+0180,9","999,N,+0195,1","99999,9,10221,1","3,1,008,1,+999,9","50,1","SYN112AAXX  12064 08014 11560 80405 10196 20176 30221 40229 53008 69902 75022 887// 333 20195 30018 50304 55069 79999;","Q01  00002PRCP24Q02  00002PRCP12Q03  00002PRCP12Q04  00002PRCP24"
"08014099999","2010-09-12T09:00:00","4","43.5666666","-5.7","6.0","GIJON MUSEL, SP","FM-12","99999","V020","070,1,N,0026,1","00750,1,9,N","010000,1,N,1","+0197,1","+0165,1","10252,1",,,,"5,1,03,1","2,1,03,1",,,"08,99,1,05,1,07,1,00800,1,07,1,99,9",,,,,"99999,9,10244,1","2,1,023,1,+999,9","02,1","SYN082AAXX  12094 08014 41560 80705 10197 20165 30244 40252 52023 70252 8577/ 333 92437;",
"08014099999","2010-09-12T12:00:00","4","43.5666666","-5.7","6.0","GIJON MUSEL, SP","FM-12","99999","V020","070,1,N,0031,1","00750,1,9,N","012000,1,N,1","+0204,1","+0160,1","10260,1","06,0003,9,1",,,"5,1,06,1","2,1,06,1",,,"07,99,1,05,1,02,1,00800,1,07,1,00,1",,,,,"99999,9,10252,1","1,1,008,1,+999,9","15,1","SYN088AAXX  12124 08014 11562 70706 10204 20160 30252 40260 51008 69931 71552 85270 333 92437;",
"08014099999","2010-09-12T15:00:00","4","43.5666666","-5.7","6.0","GIJON MUSEL, SP","FM-12","99999","V020","070,1,N,0036,1","03600,1,9,N","020000,1,N,1","+0200,1","+0152,1","10261,1",,,,,,,,"07,99,1,03,1,07,1,01250,1,07,1,00,1",,,,,"99999,9,10253,1","3,1,001,1,+999,9",,"SYN076AAXX  12154 08014 42670 70707 10200 20152 30253 40261 53001 83770 333 92437;",
"08014099999","2010-09-12T18:00:00","4","43.5666666","-5.7","6.0","GIJON MUSEL, SP","FM-12","99999","V020","080,1,N,0041,1","03600,1,9,N","020000,1,N,1","+0200,1","+0148,1","10265,1","12,0003,9,1",,,,,,,"05,99,1,03,1,08,1,01250,1,03,1,00,1",,,,"120,M,+0206,1","99999,9,10257,1","3,1,004,1,+999,9",,"SYN088AAXX  12184 08014 12670 50808 10200 20148 30257 40265 53004 69932 83830 333 10206 92437;",
"08014099999","2010-09-13T06:00:00","4","43.5666666","-5.7","6.0","GIJON MUSEL, SP","FM-12","99999","V020","130,1,N,0026,1","22000,1,9,N","020000,1,N,1","+0176,1","+0137,1","10275,1","12,0000,9,1","24,0003,9,1",,,,,,"03,99,1,02,1,08,1,01250,1,06,1,01,1","0006,9","01,9","999,+0160,9","999,N,+0175,1","99999,9,10267,1","6,1,003,1,+999,9",,"SYN106AAXX  13064 08014 12670 31305 10176 20137 30267 40275 56003 60002 82861 333 20175 30016 50484 55001 70003;","Q01  00002PRCP12"
"08014099999","2010-09-13T09:00:00","4","43.5666666","-5.7","6.0","GIJON MUSEL, SP","FM-12","99999","V020","090,1,N,0031,1","22000,1,9,N","030000,1,N,1","+0202,1","+0139,1","10283,1",,,,,,,,"02,99,1,01,1,08,1,01250,1,06,1,01,1",,,,,"99999,9,10275,1","1,1,008,1,+999,9",,"SYN076AAXX  13094 08014 42680 20906 10202 20139 30275 40283 51008 81861 333 92438;",
"08014099999","2010-09-13T12:00:00","4","43.5666666","-5.7","6.0","GIJON MUSEL, SP","FM-12","99999","V020","080,1,N,0051,1","22000,1,9,N","030000,1,N,1","+0206,1","+0140,1","10276,1","06,0000,9,1",,,,,,,"03,99,1,00,1,00,1,99999,9,00,1,01,1",,,,,"99999,9,10268,1","8,1,007,1,+999,9",,"SYN082AAXX  13124 08014 12980 30810 10206 20140 30268 40276 58007 60001 80001 333 92448;","Q01  00002PRCP06"
"08014099999","2010-09-13T15:00:00","4","43.5666666","-5.7","6.0","GIJON MUSEL, SP","FM-12","99999","V020","080,1,N,0051,1","22000,1,9,N","030000,1,N,1","+0210,1","+0153,1","10273,1",,,,,,,,"02,99,1,00,1,00,1,99999,9,00,1,01,1",,,,,"99999,9,10265,1","8,1,003,1,+999,9",,"SYN076AAXX  13154 08014 42980 20810 10210 20153 30265 40273 58003 80001 333 92448;",
"08014099999","2010-09-13T18:00:00","4","43.5666666","-5.7","6.0","GIJON MUSEL, SP","FM-12","99999","V020","090,1,N,0041,1","22000,1,9,N","030000,1,N,1","+0200,1","+0141,1","10271,1","12,0000,9,1",,,,,,,"01,99,1,00,1,00,1,99999,9,00,1,01,1",,,,"120,M,+0216,1","99999,9,10263,1","8,1,002,1,+999,9",,"SYN088AAXX  13184 08014 12980 10908 10200 20141 30263 40271 58002 60002 80001 333 10216 92448;","Q01  00002PRCP12"
"08014099999","2010-09-14T06:00:00","4","43.5666666","-5.7","6.0","GIJON MUSEL, SP","FM-12","99999","V020","999,9,C,0000,1","22000,1,9,N","030000,1,N,1","+0146,1","+0125,1","10256,1","12,0000,9,1","24,0000,9,1",,,,,,"01,99,1,00,1,00,1,99999,9,00,1,01,1","0606,9","01,9","999,+0120,9","999,N,+0146,1","99999,9,10248,1","7,1,004,1,+999,9",,"SYN106AAXX  14064 08014 12980 10000 10146 20125 30248 40256 57004 60002 80001 333 20146 30012 50404 55101 70000;","Q01  00002PRCP24Q02  00002PRCP12"
"08014099999","2010-09-14T09:00:00","4","43.5666666","-5.7","6.0","GIJON MUSEL, SP","FM-12","99999","V020","070,1,N,0010,1","22000,1,9,N","030000,1,N,1","+0196,1","+0121,1","10255,1",,,,,,,,"01,99,1,00,1,00,1,99999,9,00,1,01,1",,,,,"99999,9,10247,1","6,1,001,1,+999,9",,"SYN076AAXX  14094 08014 42680 10702 10196 20121 30247 40255 56001 80001 333 92438;","Q01+012502SCOLCB"
"08014099999","2010-09-14T12:00:00","4","43.5666666","-5.7","6.0","GIJON MUSEL, SP","FM-12","99999","V020","070,1,N,0021,1","22000,1,9,N","040000,1,N,1","+0208,1","+0140,1","10244,1","06,0000,9,1",,,,,,,"01,99,1,00,1,00,1,99999,9,00,1,01,1",,,,,"99999,9,10236,1","8,1,011,1,+999,9",,"SYN082AAXX  14124 08014 12982 10704 10208 20140 30236 40244 58011 60001 80001 333 92448;","Q01  00002PRCP06"
"08014099999","2010-09-14T15:00:00","4","43.5666666","-5.7","6.0","GIJON MUSEL, SP","FM-12","99999","V020","070,1,N,0036,1","22000,1,9,N","040000,1,N,1","+0218,1","+0159,1","10225,1",,,,,,,,"01,99,1,00,1,00,1,99999,9,00,1,01,1",,,,,"99999,9,10217,1","7,1,019,1,+999,9",,"SYN076AAXX  14154 08014 42982 10707 10218 20159 30217 40225 57019 80001 333 92448;",
"08014099999","2010-09-14T18:00:00","4","43.5666666","-5.7","6.0","GIJON MUSEL, SP","FM-12","99999","V020","070,1,N,0015,1","22000,1,9,N","040000,1,N,1","+0202,1","+0152,1","10212,1","12,0000,9,1",,,,,,,"01,99,1,01,1,00,1,02250,1,04,1,00,1",,,,"120,M,+0224,1","99999,9,10204,1","6,1,013,1,+999,9",,"SYN088AAXX  14184 08014 12882 10703 10202 20152 30204 40212 56013 60002 81040 333 10224 92448;","Q01  00002PRCP12"
"08014099999","2010-09-15T06:00:00","4","43.5666666","-5.7","6.0","GIJON MUSEL, SP","FM-12","99999","V020","999,9,C,0000,1","22000,1,9,N","015000,1,N,1","+0164,1","+0142,1","10194,1","12,0000,9,1","24,0000,9,1",,,,,,"03,99,1,01,1,00,1,02250,1,04,1,01,1","0618,9","01,9","999,+0140,9","999,N,+0162,1","99999,9,10186,1","6,1,003,1,+999,9",,"SYN106AAXX  15064 08014 12865 30000 10164 20142 30186 40194 56003 60002 81041 333 20162 30014 50314 55103 70000;","Q01  00002PRCP24Q02  00002PRCP12"
"08014099999","2010-09-15T09:00:00","4","43.5666666","-5.7","6.0","GIJON MUSEL, SP","FM-12","99999","V020","040,1,N,0021,1","22000,1,9,N","015000,1,N,1","+0198,1","+0154,1","10190,1",,,,,,,,"04,99,1,02,1,00,1,02250,1,01,1,01,1",,,,,"99999,9,10182,1","6,1,004,1,+999,9",,"SYN076AAXX  15094 08014 42865 40404 10198 20154 30182 40190 56004 82011 333 92437;",
"08014099999","2010-09-15T12:00:00","4","43.5666666","-5.7","6.0","GIJON MUSEL, SP","FM-12","99999","V020","050,1,N,0015,1","22000,1,9,N","020000,1,N,1","+0216,1","+0174,1","10193,1","06,0000,9,1",,,,,,,"03,99,1,02,1,00,1,02250,1,03,1,01,1",,,,,"99999,9,10185,1","1,1,003,1,+999,9",,"SYN082AAXX  15124 08014 12870 30503 10216 20174 30185 40193 51003 60001 82031 333 92437;","Q01  00002PRCP06"
"08014099999","2010-09-15T15:00:00","4","43.5666666","-5.7","6.0","GIJON MUSEL, SP","FM-12","99999","V020","040,1,N,0021,1","03600,1,9,N","015000,1,N,1","+0212,1","+0176,1","10185,1",,,,,,,,"06,99,1,04,1,08,1,01250,1,09,1,01,1",,,,,"99999,9,10177,1","8,1,008,1,+999,9",,"SYN076AAXX  15154 08014 42665 60404 10212 20176 30177 40185 58008 84891 333 92437;",
"08014099999","2010-09-15T18:00:00","4","43.5666666","-5.7","6.0","GIJON MUSEL, SP","FM-12","99999","V020","040,1,N,0010,1","03600,1,9,N","008000,1,N,1","+0206,1","+0184,1","10181,1","12,0000,9,1",,,"1,1,06,1","1,1,06,1",,,"06,99,1,03,1,06,1,00450,1,02,1,01,1",,,,"120,M,+0220,1","99999,9,10173,1","5,1,004,1,+999,9","10,1","SYN094AAXX  15184 08014 11458 60402 10206 20184 30173 40181 55004 60002 71011 83621 333 10220 92426;","Q01  00002PRCP12"
"08014099999","2010-09-16T06:00:00","4","43.5666666","-5.7","6.0","GIJON MUSEL, SP","FM-12","99999","V020","080,1,N,0010,1","00420,1,9,N","015000,1,N,1","+0190,1","+0180,1","10155,1","12,0020,9,2","24,0015,9,2",,,,,,"08,99,1,06,1,07,1,00450,1,07,1,99,9","0288,9","11,9","999,+0180,9","999,N,+0190,1","99999,9,10147,1","7,1,005,1,+999,9","02,1","SYN112AAXX  16064 08014 11465 80802 10190 20180 30147 40155 57005 60022 702// 8677/ 333 20190 32018 50154 55048 70016;",
"08014099999","2010-09-16T09:00:00","4","43.5666666","-5.7","6.0","GIJON MUSEL, SP","FM-12","99999","V020","090,1,N,0005,1","00750,1,9,N","006000,1,N,1","+0194,1","+0181,1","10158,1",,,,"2,1,03,1","2,1,03,1",,,"07,99,1,05,1,07,1,00800,1,07,1,00,1",,,,,"99999,9,10150,1","3,1,003,1,+999,9","10,1","SYN082AAXX  16094 08014 41556 70901 10194 20181 30150 40158 53003 71022 85770 333 92436;",
"08014099999","2010-09-16T12:00:00","4","43.5666666","-5.7","6.0","GIJON MUSEL, SP","FM-12","99999","V020","050,1,N,0021,1","03600,1,9,N","010000,1,N,1","+0205,1","+0173,1","10150,1","06,0000,9,1",,,,,,,"07,99,1,04,1,08,1,00800,1,07,1,00,1",,,,,"99999,9,10143,1","8,1,007,1,+999,9",,"SYN082AAXX  16124 08014 12560 70504 10205 20173 30143 40150 58007 60001 84870 333 92436;","Q01  00002PRCP06"
"08014099999","2010-09-16T15:00:00","4","43.5666666","-5.7","6.0","GIJON MUSEL, SP","FM-12","99999","V020","060,1,N,0021,1","01200,1,9,N","012000,1,N,1","+0212,1","+0170,1","10148,1",,,,,,,,"08,99,1,05,1,08,1,00800,1,07,1,99,9",,,,,"99999,9,10141,1","7,1,002,1,+999,9",,"SYN076AAXX  16154 08014 42562 80604 10212 20170 30141 40148 57002 8587/ 333 92437;",
"08014099999","2010-09-16T18:00:00","4","43.5666666","-5.7","6.0","GIJON MUSEL, SP","FM-12","99999","V020","060,1,N,0021,1","00420,1,9,N","015000,1,N,1","+0200,1","+0170,1","10147,1","12,0000,9,1",,,,,,,"08,99,1,08,1,06,1,00450,1,99,9,99,9",,,,"120,M,+0220,1","99999,9,10139,1","7,1,002,1,+999,9",,"SYN088AAXX  16184 08014 12465 80604 10200 20170 30139 40147 57002 60002 886// 333 10220 92437;","Q01  00002PRCP12"
"08014099999","2010-09-17T06:00:00","4","43.5666666","-5.7","6.0","GIJON MUSEL, SP","FM-12","99999","V020","070,1,N,0021,1","00420,1,9,N","010000,1,N,1","+0176,1","+0133,1","10148,1","12,0041,9,2","24,0036,9,2",,,,,,"07,99,1,06,1,07,1,00450,1,07,1,00,1","0060,9","11,9","999,+0150,9","999,N,+0165,1","99999,9,10140,1","4,1,000,1,+999,9","60,1","SYN112AAXX  17064 08014 11460 70704 10176 20133 30140 40148 54000 60042 760// 86770 333 20165 32015 50234 55010 70035;",
"08014099999","2010-09-17T09:00:00","4","43.5666666","-5.7","6.0","GIJON MUSEL, SP","FM-12","99999","V020","999,9,C,0000,1","00420,1,9,N","010000,1,N,1","+0175,1","+0132,1","10161,1",,,,"6,1,03,1","2,1,03,1",,,"08,99,1,05,1,07,1,00450,1,07,1,99,9",,,,,"99999,9,10153,1","3,1,013,1,+999,9","02,1","SYN082AAXX  17094 08014 41460 80000 10175 20132 30153 40161 53013 70262 8577/ 333 92436;",
"08014099999","2010-09-17T12:00:00","4","43.5666666","-5.7","6.0","GIJON MUSEL, SP","FM-12","99999","V020","090,1,N,0010,1","03600,1,9,N","010000,1,N,1","+0189,1","+0131,1","10164,1","06,0000,2,1",,,"6,1,06,1","2,1,06,1",,,"08,99,1,04,1,07,1,00800,1,07,1,99,9",,,,,"99999,9,10156,1","2,1,003,1,+999,9","02,1","SYN088AAXX  17124 08014 11560 80902 10189 20131 30156 40164 52003 69901 70262 8477/ 333 92436;",
"08014099999","2010-09-17T15:00:00","4","43.5666666","-5.7","6.0","GIJON MUSEL, SP","FM-12","99999","V020","090,1,N,0015,1","00420,1,9,N","010000,1,N,1","+0186,1","+0143,1","10158,1",,,,,,,,"08,99,1,05,1,07,1,00450,1,07,1,99,9",,,,,"99999,9,10150,1","8,1,006,1,+999,9",,"SYN076AAXX  17154 08014 42460 80903 10186 20143 30150 40158 58006 8577/ 333 92436;",
"08014099999","2010-09-17T18:00:00","4","43.5666666","-5.7","6.0","GIJON MUSEL, SP","FM-12","99999","V020","070,1,N,0031,1","00750,1,9,N","006000,1,N,1","+0168,1","+0133,1","10166,1","12,0020,9,1",,,"6,1,06,1","2,1,06,1",,,"08,99,1,06,1,07,1,00800,1,07,1,99,9",,,,"120,M,+0197,1","99999,9,10158,1","2,1,008,1,+999,9","21,1","SYN094AAXX  17184 08014 11556 80706 10168 20133 30158 40166 52008 60022 72162 8677/ 333 10197 92436;",
"08014099999","2010-09-18T06:00:00","4","43.5666666","-5.7","6.0","GIJON MUSEL, SP","FM-12","99999","V020","240,1,N,0010,1","00420,1,9,N","012000,1,N,1","+0155,1","+0132,1","10171,1","12,0010,9,1","24,0036,9,1",,,,,,"07,99,1,05,1,07,1,00450,1,07,1,00,1","0000,9","11,9","999,+0140,9","999,N,+0155,1","99999,9,10163,1","4,1,000,1,+999,9","02,1","SYN112AAXX  18064 08014 11462 72402 10155 20132 30163 40171 54000 60012 702// 85770 333 20155 32014 50214 55000 70036;",
"08014099999","2010-09-18T09:00:00","4","43.5666666","-5.7","6.0","GIJON MUSEL, SP","FM-12","99999","V020","200,1,N,0015,1","03600,1,9,N","015000,1,N,1","+0169,1","+0138,1","10188,1",,,,,,,,"06,99,1,04,1,08,1,00800,1,03,1,00,1",,,,,"99999,9,10180,1","2,1,017,1,+999,9",,"SYN076AAXX  18094 08014 42565 62003 10169 20138 30180 40188 52017 84830 333 92437;",
"08014099999","2010-09-18T12:00:00","4","43.5666666","-5.7","6.0","GIJON MUSEL, SP","FM-12","99999","V020","070,1,N,0021,1","22000,1,9,N","030000,1,N,1","+0202,1","+0103,1","10190,1","06,0000,9,1",,,,,,,"02,99,1,02,1,02,1,00800,1,00,1,00,1",,,,,"99999,9,10182,1","2,1,002,1,+999,9",,"SYN082AAXX  18124 08014 12580 20704 10202 20103 30182 40190 52002 60001 82200 333 92438;","Q01  00002PRCP06"
"08014099999","2010-09-18T15:00:00","4","43.5666666","-5.7","6.0","GIJON MUSEL, SP","FM-12","99999","V020","060,1,N,0026,1","22000,1,9,N","030000,1,N,1","+0210,1","+0113,1","10181,1",,,,,,,,"01,99,1,01,1,01,1,00800,1,00,1,00,1",,,,,"99999,9,10173,1","8,1,009,1,+999,9",,"SYN076AAXX  18154 08014 42580 10605 10210 20113 30173 40181 58009 81100 333 92438;",
"08014099999","2010-09-18T18:00:00","4","43.5666666","-5.7","6.0","GIJON MUSEL, SP","FM-12","99999","V020","080,1,N,0026,1","22000,1,9,N","030000,1,N,1","+0191,1","+0141,1","10182,1","12,0000,9,1",,,,,,,"03,99,1,02,1,05,1,01250,1,07,1,01,1",,,,"120,M,+0214,1","99999,9,10174,1","3,1,001,1,+999,9",,"SYN088AAXX  18184 08014 12680 30805 10191 20141 30174 40182 53001 60002 82571 333 10214 92438;","Q01  00002PRCP12"
"08014099999","2010-09-19T06:00:00","4","43.5666666","-5.7","6.0","GIJON MUSEL, SP","FM-12","99999","V020","200,1,N,0010,1","22000,1,9,N","020000,1,N,1","+0150,1","+0108,1","10178,1","12,0000,9,1","24,0000,9,1",,,,,,"01,99,1,01,1,00,1,01250,1,07,1,00,1","0498,9","01,9","999,+0120,9","999,N,+0145,1","99999,9,10170,1","4,1,000,1,+999,9","01,1","SYN112AAXX  19064 08014 11670 12002 10150 20108 30170 40178 54000 60002 701// 81070 333 20145 30012 50384 55083 70000;","Q01  00002PRCP24Q02  00002PRCP12"
"08014099999","2010-09-19T09:00:00","4","43.5666666","-5.7","6.0","GIJON MUSEL, SP","FM-12","99999","V020","170,1,N,0010,1","22000,1,9,N","015000,1,N,1","+0171,1","+0107,1","10183,1",,,,,,,,"01,99,1,01,1,00,1,01250,1,03,1,01,1",,,,,"99999,9,10175,1","3,1,005,1,+999,9",,"SYN076AAXX  19094 08014 42665 11702 10171 20107 30175 40183 53005 81031 333 92437;",
"08014099999","2010-09-19T12:00:00","4","43.5666666","-5.7","6.0","GIJON MUSEL, SP","FM-12","99999","V020","070,1,N,0031,1","22000,1,9,N","030000,1,N,1","+0198,1","+0102,1","10176,1","06,0000,9,1",,,,,,,"01,99,1,00,1,00,1,99999,9,00,1,01,1",,,,,"99999,9,10168,1","8,1,007,1,+999,9",,"SYN082AAXX  19124 08014 12880 10706 10198 20102 30168 40176 58007 60001 80001 333 92438;","Q01+022502SCOLCBQ02  00002PRCP06"
"08014099999","2010-09-19T15:00:00","4","43.5666666","-5.7","6.0","GIJON MUSEL, SP","FM-12","99999","V020","080,1,N,0036,1","22000,1,9,N","030000,1,N,1","+0198,1","+0123,1","10160,1",,,,,,"00,1,+99999,9,99,9",,"00,99,1,00,1,00,1,99999,9,00,1,00,1",,,,,"99999,9,10152,1","7,1,016,1,+999,9",,"SYN070AAXX  19154 08014 42980 00807 10198 20123 30152 40160 57016 333 92438;",
"08014099999","2010-09-19T18:00:00","4","43.5666666","-5.7","6.0","GIJON MUSEL, SP","FM-12","99999","V020","080,1,N,0031,1","22000,1,9,N","030000,1,N,1","+0190,1","+0130,1","10158,1","12,0000,9,1",,,,,,,"01,99,1,00,1,00,1,99999,9,00,1,01,1",,,,"120,M,+0208,1","99999,9,10150,1","7,1,002,1,+999,9",,"SYN088AAXX  19184 08014 12880 10806 10190 20130 30150 40158 57002 60002 80001 333 10208 92438;","Q01+022502SCOLCBQ02  00002PRCP12"
"08014099999","2010-09-20T06:00:00","4","43.5666666","-5.7","6.0","GIJON MUSEL, SP","FM-12","99999","V020","999,9,C,0000,1","22000,1,9,N","020000,1,N,1","+0146,1","+0117,1","10138,1","12,0000,9,1","24,0000,9,1",,,,,,"01,99,1,00,1,00,1,99999,9,00,1,01,1","0588,9","01,9","999,+0110,9","999,N,+0140,1","99999,9,10130,1","7,1,005,1,+999,9","02,1","SYN112AAXX  20064 08014 11770 10000 10146 20117 30130 40138 57005 60002 702// 80001 333 20140 30011 50314 55098 70000;","Q01+017502SCOLCBQ02  00002PRCP24Q03  00002PRCP12"
"08014099999","2010-09-20T09:00:00","4","43.5666666","-5.7","6.0","GIJON MUSEL, SP","FM-12","99999","V020","999,9,C,0000,1","22000,1,9,N","020000,1,N,1","+0182,1","+0124,1","10143,1",,,,,,,,"01,99,1,01,1,00,1,01250,1,03,1,01,1",,,,,"99999,9,10135,1","2,1,005,1,+999,9",,"SYN076AAXX  20094 08014 42670 10000 10182 20124 30135 40143 52005 81031 333 92427;",
"08014099999","2010-09-20T12:00:00","4","43.5666666","-5.7","6.0","GIJON MUSEL, SP","FM-12","99999","V020","070,1,N,0021,1","22000,1,9,N","020000,1,N,1","+0197,1","+0129,1","10137,1","06,0000,9,1",,,,,,,"01,99,1,01,1,01,1,00800,1,00,1,00,1",,,,,"99999,9,10129,1","8,1,006,1,+999,9",,"SYN082AAXX  20124 08014 12570 10704 10197 20129 30129 40137 58006 60001 81100 333 92427;","Q01  00002PRCP06"
"08014099999","2010-09-20T15:00:00","4","43.5666666","-5.7","6.0","GIJON MUSEL, SP","FM-12","99999","V020","070,1,N,0021,1","22000,1,9,N","020000,1,N,1","+0208,1","+0168,1","10122,1",,,,,,,,"02,99,1,01,1,01,1,00800,1,03,1,00,1",,,,,"99999,9,10115,1","7,1,014,1,+999,9",,"SYN076AAXX  20154 08014 42570 20704 10208 20168 30115 40122 57014 81130 333 92427;",
"08014099999","2010-09-20T18:00:00","4","43.5666666","-5.7","6.0","GIJON MUSEL, SP","FM-12","99999","V020","050,1,N,0026,1","22000,1,9,N","030000,1,N,1","+0193,1","+0169,1","10124,1","12,0000,9,1",,,,,,,"03,99,1,02,1,01,1,00800,1,03,1,00,1",,,,"120,M,+0215,1","99999,9,10116,1","3,1,001,1,+999,9",,"SYN088AAXX  20184 08014 12580 30505 10193 20169 30116 40124 53001 60002 82130 333 10215 92428;","Q01  00002PRCP12"
"08014099999","2010-09-21T06:00:00","4","43.5666666","-5.7","6.0","GIJON MUSEL, SP","FM-12","99999","V020","200,1,N,0015,1","22000,1,9,N","010000,1,N,1","+0172,1","+0152,1","10145,1","12,0000,9,1","24,0000,9,1",,,,,,"03,99,1,02,1,01,1,00800,1,03,1,00,1","0558,9","01,9","999,+0140,9","999,N,+0170,1","99999,9,10137,1","2,1,008,1,+999,9","02,1","SYN112AAXX  21064 08014 11560 32003 10172 20152 30137 40145 52008 60002 702// 82130 333 20170 30014 50264 55093 70000;","Q01  00002PRCP24Q02  00002PRCP12"
"08014099999","2010-09-21T09:00:00","4","43.5666666","-5.7","6.0","GIJON MUSEL, SP","FM-12","99999","V020","220,1,N,0010,1","00750,1,9,N","010000,1,N,1","+0190,1","+0171,1","10168,1",,,,,,,,"08,99,1,06,1,07,1,00800,1,07,1,99,9",,,,,"99999,9,10160,1","2,1,023,1,+999,9",,"SYN076AAXX  21094 08014 42560 82202 10190 20171 30160 40168 52023 8677/ 333 92426;",
"08014099999","2010-09-21T12:00:00","4","43.5666666","-5.7","6.0","GIJON MUSEL, SP","FM-12","99999","V020","040,1,N,0031,1","22000,1,9,N","015000,1,N,1","+0203,1","+0157,1","10174,1","06,0000,9,1",,,,,,,"03,99,1,02,1,01,1,00800,1,03,1,00,1",,,,,"99999,9,10166,1","2,1,006,1,+999,9",,"SYN082AAXX  21124 08014 12565 30406 10203 20157 30166 40174 52006 60001 82130 333 92427;","Q01  00002PRCP06"
"08014099999","2010-09-21T15:00:00","4","43.5666666","-5.7","6.0","GIJON MUSEL, SP","FM-12","99999","V020","020,1,N,0031,1","22000,1,9,N","015000,1,N,1","+0200,1","+0166,1","10173,1",,,,,,,,"02,99,1,01,1,01,1,00800,1,03,1,00,1",,,,,"99999,9,10165,1","8,1,001,1,+999,9",,"SYN076AAXX  21154 08014 42565 20206 10200 20166 30165 40173 58001 81130 333 92427;",
"08014099999","2010-09-21T18:00:00","4","43.5666666","-5.7","6.0","GIJON MUSEL, SP","FM-12","99999","V020","040,1,N,0015,1","03600,1,9,N","015000,1,N,1","+0195,1","+0163,1","10178,1","12,0000,9,1",,,,,,,"06,99,1,04,1,01,1,00800,1,03,1,00,1",,,,"120,M,+0209,1","99999,9,10170,1","3,1,005,1,+999,9",,"SYN088AAXX  21184 08014 12565 60403 10195 20163 30170 40178 53005 60002 84130 333 10209 92427;","Q01  00002PRCP12"
"08014099999","2010-09-22T06:00:00","4","43.5666666","-5.7","6.0","GIJON MUSEL, SP","FM-12","99999","V020","180,1,N,0005,1","22000,1,9,N","006000,1,N,1","+0160,1","+0147,1","10168,1","12,0000,9,1","24,0000,9,1",,,,,,"01,99,1,01,1,00,1,01250,1,07,1,01,1","0300,9","09,9","999,+0130,9","999,N,+0160,1","99999,9,10160,1","7,1,008,1,+999,9","10,1","SYN112AAXX  22064 08014 11656 11801 10160 20147 30160 40168 57008 60002 710// 81071 333 20160 31013 50244 55050 70000;","Q01  00002PRCP24Q02  00002PRCP12"
"08014099999","2010-09-22T09:00:00","4","43.5666666","-5.7","6.0","GIJON MUSEL, SP","FM-12","99999","V020","190,1,N,0010,1","22000,1,9,N","006000,1,N,1","+0185,1","+0159,1","10171,1",,,,"0,1,03,1","0,1,03,1",,,"04,99,1,01,1,01,1,01250,1,01,1,00,1",,,,,"99999,9,10163,1","3,1,003,1,+999,9","10,1","SYN082AAXX  22094 08014 41656 41902 10185 20159 30163 40171 53003 71000 81110 333 92426;",
"08014099999","2010-09-22T12:00:00","4","43.5666666","-5.7","6.0","GIJON MUSEL, SP","FM-12","99999","V020","110,1,N,0010,1","99999,9,9,N","006000,1,N,1","+0198,1","+0168,1","10160,1","06,0000,9,1",,,"1,1,06,1","1,1,06,1",,,"08,99,1,08,1,00,1,01250,1,01,1,99,9",,,,,"99999,9,10152,1","8,1,011,1,+999,9","10,1","SYN088AAXX  22124 08014 11656 81102 10198 20168 30152 40160 58011 60001 71011 8801/ 333 92426;","Q01  00002PRCP06"
"08014099999","2010-09-22T15:00:00","4","43.5666666","-5.7","6.0","GIJON MUSEL, SP","FM-12","99999","V020","050,1,N,0015,1","99999,9,9,N","008000,1,N,1","+0201,1","+0177,1","10152,1",,,,"2,1,03,1","2,1,03,1",,,"06,99,1,06,1,00,1,01250,1,01,1,00,1",,,,,"99999,9,10144,1","7,1,008,1,+999,9","10,1","SYN082AAXX  22154 08014 41658 60503 10201 20177 30144 40152 57008 71022 86010 333 92436;",
"08014099999","2010-09-22T18:00:00","4","43.5666666","-5.7","6.0","GIJON MUSEL, SP","FM-12","99999","V020","040,1,N,0005,1","03600,1,9,N","008000,1,N,1","+0200,1","+0180,1","10160,1","12,0000,9,1",,,"2,1,06,1","2,1,06,1",,,"05,99,1,03,1,01,1,00800,1,03,1,01,1",,,,"120,M,+0209,1","99999,9,10152,1","3,1,008,1,+999,9","10,1","SYN094AAXX  22184 08014 11558 50401 10200 20180 30152 40160 53008 60002 71022 83131 333 10209 92436;","Q01  00002PRCP12"
"08014099999","2010-09-23T06:00:00","4","43.5666666","-5.7","6.0","GIJON MUSEL, SP","FM-12","99999","V020","240,1,N,0021,1","03600,1,9,N","008000,1,N,1","+0164,1","+0142,1","10153,1","12,0000,9,1","24,0000,9,1",,"2,1,06,1","2,1,06,1",,,"07,99,1,02,1,06,1,00450,1,07,1,00,1","0186,9","01,9","999,+0140,9","999,N,+0164,1","99999,9,10145,1","3,1,003,1,+999,9","10,1","SYN112AAXX  23064 08014 11458 72404 10164 20142 30145 40153 53003 60002 71022 82670 333 20164 30014 50294 55031 70000;","Q01  00002PRCP24Q02  00002PRCP12"
"08014099999","2010-09-23T09:00:00","4","43.5666666","-5.7","6.0","GIJON MUSEL, SP","FM-12","99999","V020","230,1,N,0021,1","03600,1,9,N","008000,1,N,1","+0188,1","+0159,1","10158,1",,,,"2,1,03,1","2,1,03,1",,,"07,99,1,03,1,06,1,00450,1,01,1,08,1",,,,,"99999,9,10150,1","1,1,005,1,+999,9","10,1","SYN082AAXX  23094 08014 41458 72304 10188 20159 30150 40158 51005 71022 83618 333 92426;",
"08014099999","2010-09-23T12:00:00","4","43.5666666","-5.7","6.0","GIJON MUSEL, SP","FM-12","99999","V020","020,1,N,0021,1","03600,1,9,N","008000,1,N,1","+0198,1","+0164,1","10148,1","06,0000,9,1",,,"2,1,06,1","2,1,06,1",,,"06,99,1,04,1,05,1,00800,1,07,1,00,1",,,,,"99999,9,10140,1","8,1,010,1,+999,9","10,1","SYN088AAXX  23124 08014 11558 60204 10198 20164 30140 40148 58010 60001 71022 84570 333 92436;","Q01  00002PRCP06"
"08014099999","2010-09-23T15:00:00","4","43.5666666","-5.7","6.0","GIJON MUSEL, SP","FM-12","99999","V020","040,1,N,0021,1","03600,1,9,N","015000,1,N,1","+0208,1","+0162,1","10140,1",,,,,,,,"06,99,1,04,1,08,1,01250,1,08,1,00,1",,,,,"99999,9,10133,1","6,1,007,1,+999,9",,"SYN076AAXX  23154 08014 42665 60404 10208 20162 30133 40140 56007 84880 333 92427;",
"08014099999","2010-09-23T18:00:00","4","43.5666666","-5.7","6.0","GIJON MUSEL, SP","FM-12","99999","V020","060,1,N,0010,1","22000,1,9,N","020000,1,N,1","+0204,1","+0158,1","10131,1","12,0000,9,1",,,,,,,"03,99,1,02,1,04,1,01250,1,08,1,00,1",,,,"120,M,+0214,1","99999,9,10124,1","8,1,009,1,+999,9",,"SYN088AAXX  23184 08014 12670 30602 10204 20158 30124 40131 58009 60002 82480 333 10214 92427;","Q01  00002PRCP12"
"08014099999","2010-09-24T06:00:00","4","43.5666666","-5.7","6.0","GIJON MUSEL, SP","FM-12","99999","V020","110,1,N,0010,1","00420,1,9,N","008000,1,N,1","+0164,1","+0144,1","10147,1","12,0020,9,2","24,0015,9,2",,"8,1,06,1","2,1,06,1",,,"08,99,1,08,1,07,1,00450,1,99,9,99,9","0186,9","09,9","999,+0140,9","999,N,+0162,1","99999,9,10139,1","3,1,005,1,+999,9","80,1","SYN112AAXX  24064 08014 11458 81102 10164 20144 30139 40147 53005 60022 78082 887// 333 20162 31014 50364 55031 70015;",
"08014099999","2010-09-24T09:00:00","4","43.5666666","-5.7","6.0","GIJON MUSEL, SP","FM-12","99999","V020","220,1,N,0031,1","01500,1,9,N","020000,1,N,1","+0182,1","+0137,1","10154,1",,,,"8,1,03,1","2,1,03,1",,,"06,99,1,05,1,08,1,01250,1,06,1,01,1",,,,,"99999,9,10146,1","1,1,007,1,+999,9","02,1","SYN082AAXX  24094 08014 41670 62206 10182 20137 30146 40154 51007 70282 85861 333 92438;",
"08014099999","2010-09-24T12:00:00","4","43.5666666","-5.7","6.0","GIJON MUSEL, SP","FM-12","99999","V020","220,1,N,0031,1","00750,1,9,N","015000,1,N,1","+0170,1","+0143,1","10162,1","06,0020,9,1",,,"8,1,06,1","2,1,06,1",,,"06,99,1,05,1,02,1,00800,1,06,1,02,1",,,,,"99999,9,10154,1","1,1,008,1,+999,9","25,1","SYN088AAXX  24124 08014 11565 62206 10170 20143 30154 40162 51008 60021 72582 85262 333 92437;",
"08014099999","2010-09-24T15:00:00","4","43.5666666","-5.7","6.0","GIJON MUSEL, SP","FM-12","99999","V020","360,1,N,0010,1","00750,1,9,N","010000,1,N,1","+0194,1","+0133,1","10162,1",,,,"8,1,03,1","2,1,03,1",,,"06,99,1,05,1,02,1,00800,1,06,1,01,1",,,,,"99999,9,10154,1","4,1,000,1,+999,9","25,1","SYN082AAXX  24154 08014 41560 63602 10194 20133 30154 40162 54000 72582 85261 333 92437;",
"08014099999","2010-09-24T18:00:00","4","43.5666666","-5.7","6.0","GIJON MUSEL, SP","FM-12","99999","V020","130,1,N,0010,1","00750,1,9,N","020000,1,N,1","+0166,1","+0129,1","10164,1","12,0020,9,1",,,"8,1,06,1","2,1,06,1",,,"07,99,1,06,1,02,1,00800,1,06,1,01,1",,,,"120,M,+0198,1","99999,9,10156,1","1,1,002,1,+999,9","25,1","SYN094AAXX  24184 08014 11570 71302 10166 20129 30156 40164 51002 60022 72582 86261 333 10198 92437;",
"08014099999","2010-09-25T06:00:00","4","43.5666666","-5.7","6.0","GIJON MUSEL, SP","FM-12","99999","V020","240,1,N,0021,1","00750,1,9,N","015000,1,N,1","+0140,1","+0117,1","10160,1","12,0051,9,1","24,0074,9,1",,"8,1,06,1","2,1,06,1",,,"08,99,1,06,1,02,1,00800,1,07,1,99,9","0216,9","11,9","999,+0120,9","999,N,+0135,1","99999,9,10152,1","5,1,000,1,+999,9","02,1","SYN112AAXX  25064 08014 11565 82404 10140 20117 30152 40160 55000 60052 70282 8627/ 333 20135 32012 50274 55036 70074;",
"08014099999","2010-09-25T09:00:00","4","43.5666666","-5.7","6.0","GIJON MUSEL, SP","FM-12","99999","V020","220,1,N,0026,1","00750,1,C,N","020000,1,N,1","+0168,1","+0129,1","10170,1",,,,"8,1,03,1","2,1,03,1","02,1,+00600,1,09,1",,"07,99,1,05,1,03,1,00800,1,07,1,00,1",,,,,"99999,9,10162,1","2,1,010,1,+999,9","02,1","SYN088AAXX  25094 08014 41570 72205 10168 20129 30162 40170 52010 70282 85370 333 82920 92437;",
"08014099999","2010-09-25T12:00:00","4","43.5666666","-5.7","6.0","GIJON MUSEL, SP","FM-12","99999","V020","999,9,C,0000,1","00420,1,9,N","008000,1,N,1","+0160,1","+0120,1","10181,1","06,9999,9,9",,,"8,1,06,1","2,1,06,1",,,"08,99,1,08,1,07,1,00450,1,99,9,99,9",,,,,"99999,9,10173,1","1,1,011,1,+999,9","50,1","SYN088AAXX  25124 08014 11458 80000 10160 20120 30173 40181 51011 69911 75082 887// 333 92436;","Q01  00002PRCP06Q02  00002PRCP06"
"08014099999","2010-09-25T15:00:00","4","43.5666666","-5.7","6.0","GIJON MUSEL, SP","FM-12","99999","V020","020,1,N,0015,1","01500,1,9,N","030000,1,N,1","+0180,1","+0083,1","10174,1",,,,,,,,"06,99,1,05,1,08,1,01250,1,06,1,00,1",,,,,"99999,9,10166,1","8,1,007,1,+999,9",,"SYN076AAXX  25154 08014 42680 60203 10180 20083 30166 40174 58007 85860 333 92438;",
"08014099999","2010-09-25T18:00:00","4","43.5666666","-5.7","6.0","GIJON MUSEL, SP","FM-12","99999","V020","999,9,C,0000,1","22000,1,9,N","030000,1,N,1","+0170,1","+0094,1","10173,1","12,0000,2,1",,,,,,,"03,99,1,02,1,02,1,01250,1,03,1,00,1",,,,"120,M,+0182,1","99999,9,10165,1","6,1,001,1,+999,9",,"SYN088AAXX  25184 08014 12680 30000 10170 20094 30165 40173 56001 69912 82230 333 10182 92438;",
"08014099999","2010-09-26T06:00:00","4","43.5666666","-5.7","6.0","GIJON MUSEL, SP","FM-12","99999","V020","210,1,N,0021,1","22000,1,9,N","015000,1,N,1","+0130,1","+0104,1","10163,1","12,0000,9,1","24,0000,2,1",,,,,,"04,99,1,03,1,08,1,01250,1,06,1,00,1","0090,9","09,9","999,+0120,9","999,N,+0130,1","99999,9,10155,1","6,1,005,1,+999,9",,"SYN106AAXX  26064 08014 12665 42104 10130 20104 30155 40163 56005 60002 83860 333 20130 31012 50284 55015 70001;","Q01  00002PRCP12"
"08014099999","2010-09-26T09:00:00","4","43.5666666","-5.7","6.0","GIJON MUSEL, SP","FM-12","99999","V020","210,1,N,0031,1","22000,1,9,N","030000,1,N,1","+0158,1","+0101,1","10167,1",,,,,,,,"02,99,1,02,1,08,1,01250,1,00,1,00,1",,,,,"99999,9,10159,1","3,1,004,1,+999,9",,"SYN076AAXX  26094 08014 42680 22106 10158 20101 30159 40167 53004 82800 333 92438;",
"08014099999","2010-09-26T12:00:00","4","43.5666666","-5.7","6.0","GIJON MUSEL, SP","FM-12","99999","V020","080,1,N,0021,1","22000,1,9,N","040000,1,N,1","+0184,1","+0092,1","10168,1","06,0000,9,1",,,,,,,"03,99,1,03,1,08,1,01250,1,00,1,00,1",,,,,"99999,9,10160,1","1,1,001,1,+999,9",,"SYN082AAXX  26124 08014 12682 30804 10184 20092 30160 40168 51001 60001 83800 333 92448;","Q01  00002PRCP06"
"08014099999","2010-09-26T15:00:00","4","43.5666666","-5.7","6.0","GIJON MUSEL, SP","FM-12","99999","V020","090,1,N,0026,1","22000,1,9,N","040000,1,N,1","+0186,1","+0091,1","10164,1",,,,,,,,"02,99,1,02,1,08,1,01250,1,06,1,01,1",,,,,"99999,9,10156,1","6,1,004,1,+999,9",,"SYN076AAXX  26154 08014 42682 20905 10186 20091 30156 40164 56004 82861 333 92448;",
"08014099999","2010-09-26T18:00:00","4","43.5666666","-5.7","6.0","GIJON MUSEL, SP","FM-12","99999","V020","080,1,N,0021,1","22000,1,9,N","040000,1,N,1","+0176,1","+0100,1","10162,1","12,0000,9,1",,,,,,,"04,99,1,02,1,08,1,01250,1,06,1,08,1",,,,"120,M,+0195,1","99999,9,10154,1","6,1,002,1,+999,9",,"SYN088AAXX  26184 08014 12682 40804 10176 20100 30154 40162 56002 60002 82868 333 10195 92448;","Q01  00002PRCP12"
"08014099999","2010-09-27T06:00:00","4","43.5666666","-5.7","6.0","GIJON MUSEL, SP","FM-12","99999","V020","220,1,N,0036,1","22000,1,9,N","010000,1,N,1","+0114,1","+0086,1","10148,1","12,0000,9,1","24,0000,9,1",,,,,,"02,99,1,02,1,04,1,01250,1,04,1,00,1","0558,9","09,9","999,+0100,9","999,N,+0110,1","99999,9,10140,1","5,1,002,1,+999,9",,"SYN106AAXX  27064 08014 12660 22207 10114 20086 30140 40148 55002 60002 82440 333 20110 31010 50404 55093 70000;","Q01  00002PRCP24Q02  00002PRCP12"
"08014099999","2010-09-27T09:00:00","4","43.5666666","-5.7","6.0","GIJON MUSEL, SP","FM-12","99999","V020","210,1,N,0041,1","22000,1,9,N","020000,1,N,1","+0146,1","+0092,1","10153,1",,,,,,,,"03,99,1,01,1,04,1,01250,1,04,1,01,1",,,,,"99999,9,10145,1","1,1,005,1,+999,9",,"SYN076AAXX  27094 08014 42670 32108 10146 20092 30145 40153 51005 81441 333 92437;",
"08014099999","2010-09-27T12:00:00","4","43.5666666","-5.7","6.0","GIJON MUSEL, SP","FM-12","99999","V020","060,1,N,0021,1","09000,1,9,N","030000,1,N,1","+0184,1","+0097,1","10153,1","06,0000,9,1",,,,,,,"05,99,1,01,1,04,1,01250,1,04,1,02,1",,,,,"99999,9,10145,1","4,1,000,1,+999,9",,"SYN082AAXX  27124 08014 12680 50604 10184 20097 30145 40153 54000 60001 81442 333 92438;","Q01  00002PRCP06"
"08014099999","2010-09-27T15:00:00","4","43.5666666","-5.7","6.0","GIJON MUSEL, SP","FM-12","99999","V020","080,1,N,0021,1","22000,1,9,N","030000,1,N,1","+0192,1","+0094,1","10154,1",,,,,,,,"03,99,1,01,1,00,1,02250,1,04,1,02,1",,,,,"99999,9,10146,1","1,1,001,1,+999,9",,"SYN076AAXX  27154 08014 42880 30804 10192 20094 30146 40154 51001 81042 333 92438;",
"08014099999","2010-09-27T18:00:00","4","43.5666666","-5.7","6.0","GIJON MUSEL, SP","FM-12","99999","V020","070,1,N,0015,1","22000,1,9,N","030000,1,N,1","+0178,1","+0099,1","10159,1","12,0000,9,1",,,,,,,"04,99,1,01,1,01,1,01250,1,03,1,02,1",,,,"120,M,+0194,1","99999,9,10151,1","3,1,005,1,+999,9",,"SYN088AAXX  27184 08014 12680 40703 10178 20099 30151 40159 53005 60002 81132 333 10194 92438;","Q01  00002PRCP12"
"08014099999","2010-09-28T06:00:00","4","43.5666666","-5.7","6.0","GIJON MUSEL, SP","FM-12","99999","V020","220,1,N,0015,1","22000,1,9,N","020000,1,N,1","+0126,1","+0094,1","10168,1","12,0000,9,1","24,0000,9,1",,,,,,"01,99,1,01,1,00,1,01750,1,04,1,00,1","0516,9","09,9","999,+0100,9","999,N,+0126,1","99999,9,10160,1","5,1,000,1,+999,9",,"SYN106AAXX  28064 08014 12770 12203 10126 20094 30160 40168 55000 60002 81040 333 20126 31010 50404 55086 70000;","Q01  00002PRCP24Q02  00002PRCP12"
"08014099999","2010-09-28T09:00:00","4","43.5666666","-5.7","6.0","GIJON MUSEL, SP","FM-12","99999","V020","190,1,N,0021,1","22000,1,9,N","020000,1,N,1","+0162,1","+0096,1","10180,1",,,,,,"00,1,+99999,9,99,9",,"00,99,1,00,1,00,1,99999,9,00,1,00,1",,,,,"99999,9,10172,1","2,1,012,1,+999,9",,"SYN070AAXX  28094 08014 42970 01904 10162 20096 30172 40180 52012 333 92427;",
"08014099999","2010-09-28T12:00:00","4","43.5666666","-5.7","6.0","GIJON MUSEL, SP","FM-12","99999","V020","080,1,N,0036,1","22000,1,9,N","030000,1,N,1","+0188,1","+0123,1","10181,1","06,0000,9,1",,,,,"00,1,+99999,9,99,9",,"00,99,1,00,1,00,1,99999,9,00,1,00,1",,,,,"99999,9,10173,1","0,1,001,1,+999,9",,"SYN076AAXX  28124 08014 12980 00807 10188 20123 30173 40181 50001 60001 333 92438;","Q01  00002PRCP06"
"08014099999","2010-09-28T15:00:00","4","43.5666666","-5.7","6.0","GIJON MUSEL, SP","FM-12","99999","V020","080,1,N,0031,1","22000,1,9,N","040000,1,N,1","+0196,1","+0124,1","10178,1",,,,,,,,"01,99,1,01,1,01,1,01250,1,00,1,00,1",,,,,"99999,9,10170,1","8,1,003,1,+999,9",,"SYN076AAXX  28154 08014 42682 10806 10196 20124 30170 40178 58003 81100 333 92438;",
"08014099999","2010-09-28T18:00:00","4","43.5666666","-5.7","6.0","GIJON MUSEL, SP","FM-12","99999","V020","070,1,N,0026,1","22000,1,9,N","040000,1,N,1","+0186,1","+0132,1","10179,1","12,0000,9,1",,,,,,,"01,99,1,01,1,00,1,02250,1,04,1,01,1",,,,"120,M,+0204,1","99999,9,10171,1","3,1,001,1,+999,9",,"SYN088AAXX  28184 08014 12882 10705 10186 20132 30171 40179 53001 60002 81041 333 10204 92438;","Q01  00002PRCP12"
"08014099999","2010-09-30T06:00:00","4","43.5666666","-5.7","6.0","GIJON MUSEL, SP","FM-12","99999","V020","210,1,N,0026,1","03600,1,9,N","020000,1,N,1","+0146,1","+0119,1","10208,1","12,0079,9,2","24,0076,9,2",,,,,,"06,99,1,04,1,05,1,01250,1,03,1,00,1","0384,9","09,9","999,+0110,9","999,N,+0114,1","99999,9,10200,1","6,1,003,1,+999,9",,"SYN106AAXX  30064 08014 12670 62105 10146 20119 30200 40208 56003 60082 84530 333 20114 31011 50224 55064 70076;",
"08014099999","2010-09-30T09:00:00","4","43.5666666","-5.7","6.0","GIJON MUSEL, SP","FM-12","99999","V020","220,1,N,0026,1","03600,1,9,N","020000,1,N,1","+0172,1","+0117,1","10209,1",,,,,,,,"06,99,1,02,1,02,1,01250,1,07,1,00,1",,,,,"99999,9,10201,1","0,1,001,1,+999,9",,"SYN076AAXX  30094 08014 42670 62205 10172 20117 30201 40209 50001 82270 333 92437;",
"08014099999","2010-09-30T12:00:00","4","43.5666666","-5.7","6.0","GIJON MUSEL, SP","FM-12","99999","V020","040,1,N,0031,1","09000,1,9,N","020000,1,N,1","+0184,1","+0131,1","10204,1","06,0000,9,1",,,,,,,"05,99,1,01,1,02,1,01250,1,03,1,08,1",,,,,"99999,9,10196,1","6,1,005,1,+999,9",,"SYN082AAXX  30124 08014 12670 50406 10184 20131 30196 40204 56005 60001 81238 333 92437;","Q01  00002PRCP06"
"08014099999","2010-09-30T15:00:00","4","43.5666666","-5.7","6.0","GIJON MUSEL, SP","FM-12","99999","V020","040,1,N,0031,1","22000,1,9,N","030000,1,N,1","+0190,1","+0125,1","10185,1",,,,,,,,"04,99,1,02,1,02,1,01250,1,01,1,08,1",,,,,"99999,9,10177,1","7,1,019,1,+999,9",,"SYN076AAXX  30154 08014 42680 40406 10190 20125 30177 40185 57019 82218 333 92438;",
"08014099999","2010-09-30T18:00:00","4","43.5666666","-5.7","6.0","GIJON MUSEL, SP","FM-12","99999","V020","020,1,N,0010,1","09000,1,9,N","020000,1,N,1","+0180,1","+0127,1","10184,1","12,0000,9,1",,,,,,,"05,99,1,02,1,04,1,01250,1,03,1,08,1",,,,"120,M,+0194,1","99999,9,10176,1","6,1,001,1,+999,9",,"SYN088AAXX  30184 08014 12670 50202 10180 20127 30176 40184 56001 60002 82438 333 10194 92437;","Q01  00002PRCP12"
"08014099999","2010-10-01T06:00:00","4","43.5666666","-5.7","6.0","GIJON MUSEL, SP","FM-12","99999","V020","230,1,N,0031,1","22000,1,9,N","020000,1,N,1","+0152,1","+0120,1","10129,1","12,0000,9,1","24,0000,9,1",,,,,,"05,99,1,04,1,00,1,01750,1,04,1,01,1","0366,9","09,9","999,+0140,9","999,N,+0152,1","99999,9,10121,1","6,1,011,1,+999,9",,"SYN106AAXX  01064 08014 12770 52306 10152 20120 30121 40129 56011 60002 84041 333 20152 31014 50364 55061 70000;","Q01  00002PRCP24Q02  00002PRCP12"
"08014099999","2010-10-01T09:00:00","4","43.5666666","-5.7","6.0","GIJON MUSEL, SP","FM-12","99999","V020","220,1,N,0026,1","22000,1,9,N","015000,1,N,1","+0178,1","+0120,1","10125,1",,,,,,,,"05,99,1,02,1,00,1,01750,1,03,1,08,1",,,,,"99999,9,10117,1","8,1,004,1,+999,9",,"SYN076AAXX  01094 08014 42765 52205 10178 20120 30117 40125 58004 82038 333 92437;",
"08014099999","2010-10-01T12:00:00","4","43.5666666","-5.7","6.0","GIJON MUSEL, SP","FM-12","99999","V020","090,1,N,0021,1","03600,1,9,N","020000,1,N,1","+0200,1","+0130,1","10118,1","06,0000,9,1",,,,,,,"06,99,1,02,1,05,1,01250,1,04,1,01,1",,,,,"99999,9,10110,1","8,1,007,1,+999,9",,"SYN082AAXX  01124 08014 12670 60904 10200 20130 30110 40118 58007 60001 82541 333 92437;","Q01  00002PRCP06"
"08014099999","2010-10-01T15:00:00","4","43.5666666","-5.7","6.0","GIJON MUSEL, SP","FM-12","99999","V020","040,1,N,0015,1","01500,1,9,N","020000,1,N,1","+0198,1","+0135,1","10107,1",,,,,,,,"07,99,1,06,1,00,1,01750,1,07,1,01,1",,,,,"99999,9,10100,1","7,1,010,1,+999,9",,"SYN076AAXX  01154 08014 42770 70403 10198 20135 30100 40107 57010 86071 333 92437;",
"08014099999","2010-10-01T18:00:00","4","43.5666666","-5.7","6.0","GIJON MUSEL, SP","FM-12","99999","V020","070,1,N,0010,1","01200,1,9,N","020000,1,N,1","+0194,1","+0157,1","10105,1","12,0000,9,1",,,,,,,"06,99,1,05,1,05,1,01250,1,04,1,01,1",,,,"120,M,+0210,1","99999,9,10098,1","6,1,002,1,+999,9",,"SYN088AAXX  01184 08014 12670 60702 10194 20157 30098 40105 56002 60002 85541 333 10210 92447;","Q01  00002PRCP12"
"08014099999","2010-10-02T06:00:00","4","43.5666666","-5.7","6.0","GIJON MUSEL, SP","FM-12","99999","V020","270,1,N,0021,1","03600,1,9,N","015000,1,N,1","+0162,1","+0133,1","10086,1","12,0000,9,1","24,0003,9,1",,,,,,"05,99,1,01,1,04,1,00800,1,07,1,00,1","0180,9","09,9","999,+0140,9","999,N,+0162,1","99999,9,10078,1","5,1,002,1,+999,9","02,1","SYN112AAXX  02064 08014 11565 52704 10162 20133 30078 40086 55002 69922 702// 81470 333 20162 31014 50344 55030 70002;","Q01  00002PRCP12"
"08014099999","2010-10-02T09:00:00","4","43.5666666","-5.7","6.0","GIJON MUSEL, SP","FM-12","99999","V020","200,1,N,0031,1","03600,1,9,N","015000,1,N,1","+0194,1","+0142,1","10085,1",,,,,,,,"05,99,1,03,1,04,1,00800,1,07,1,00,1",,,,,"99999,9,10078,1","4,1,000,1,+999,9",,"SYN076AAXX  02094 08014 42565 52006 10194 20142 30078 40085 54000 83470 333 92428;",
"08014099999","2010-10-02T12:00:00","4","43.5666666","-5.7","6.0","GIJON MUSEL, SP","FM-12","99999","V020","050,1,N,0021,1","22000,1,9,N","020000,1,N,1","+0218,1","+0152,1","10070,1","06,0000,9,1",,,,,,,"01,99,1,01,1,04,1,00800,1,00,1,00,1",,,,,"99999,9,10063,1","7,1,015,1,+999,9",,"SYN082AAXX  02124 08014 12570 10504 10218 20152 30063 40070 57015 60001 81400 333 92428;","Q01  00002PRCP06"
"08014099999","2010-10-02T15:00:00","4","43.5666666","-5.7","6.0","GIJON MUSEL, SP","FM-12","99999","V020","060,1,N,0015,1","22000,1,9,N","030000,1,N,1","+0214,1","+0166,1","10053,1",,,,,,"00,1,+99999,9,99,9",,"00,99,1,00,1,00,1,99999,9,00,1,00,1",,,,,"99999,9,10046,1","7,1,017,1,+999,9",,"SYN070AAXX  02154 08014 42980 00603 10214 20166 30046 40053 57017 333 92438;",
"08014099999","2010-10-02T18:00:00","4","43.5666666","-5.7","6.0","GIJON MUSEL, SP","FM-12","99999","V020","050,1,N,0010,1","22000,1,9,N","030000,1,N,1","+0198,1","+0168,1","10050,1","12,0000,9,1",,,,,,,"03,99,1,03,1,04,1,00800,1,00,1,00,1",,,,"120,M,+0222,1","99999,9,10043,1","7,1,003,1,+999,9",,"SYN088AAXX  02184 08014 12580 30502 10198 20168 30043 40050 57003 60002 83400 333 10222 92438;","Q01  00002PRCP12"
"08014099999","2010-10-03T06:00:00","4","43.5666666","-5.7","6.0","GIJON MUSEL, SP","FM-12","99999","V020","300,1,N,0021,1","01200,1,9,N","015000,1,N,1","+0176,1","+0159,1","09984,1","12,9999,9,9","24,9999,9,9",,,,,,"08,99,1,05,1,08,1,00800,1,07,1,99,9","0534,9","09,9","999,+0140,9","999,N,+0169,1","99999,9,09977,1","3,1,002,1,+999,9","50,1","SYN112AAXX  03064 08014 11565 83004 10176 20159 39977 49984 53002 69912 750// 8587/ 333 20169 31014 50404 55089 70001;","Q01  00002PRCP24Q02  00002PRCP12Q03  00002PRCP12Q04  00002PRCP24"
"08014099999","2010-10-03T09:00:00","4","43.5666666","-5.7","6.0","GIJON MUSEL, SP","FM-12","99999","V020","130,1,N,0021,1","01200,1,9,N","015000,1,N,1","+0174,1","+0157,1","09976,1",,,,"5,1,03,1","5,1,03,1",,,"08,99,1,06,1,08,1,00800,1,07,1,99,9",,,,,"99999,9,09969,1","7,1,008,1,+999,9","02,1","SYN082AAXX  03094 08014 41565 81304 10174 20157 39969 49976 57008 70255 8687/ 333 92438;",
"08014099999","2010-10-03T12:00:00","4","43.5666666","-5.7","6.0","GIJON MUSEL, SP","FM-12","99999","V020","090,1,N,0041,1","01200,1,9,N","020000,1,N,1","+0188,1","+0159,1","09937,1","06,0005,9,1",,,"5,1,06,1","2,1,06,1",,,"08,99,1,06,1,08,1,00800,1,07,1,99,9",,,,,"99999,9,09930,1","7,1,039,1,+999,9","02,1","SYN088AAXX  03124 08014 11570 80908 10188 20159 39930 49937 57039 69941 70252 8687/ 333 92438;",
"08014099999","2010-10-03T15:00:00","4","43.5666666","-5.7","6.0","GIJON MUSEL, SP","FM-12","99999","V020","180,1,N,0026,1","00750,1,9,N","030000,1,N,1","+0262,1","+0108,1","09876,1",,,,,,,,"07,99,1,05,1,02,1,00800,1,05,1,99,9",,,,,"99999,9,09869,1","7,1,061,1,+999,9",,"SYN076AAXX  03154 08014 42580 71805 10262 20108 39869 49876 57061 8525/ 333 92438;",
"08014099999","2010-10-03T18:00:00","4","43.5666666","-5.7","6.0","GIJON MUSEL, SP","FM-12","99999","V020","230,1,N,0010,1","00750,1,9,N","030000,1,N,1","+0202,1","+0136,1","09848,1","12,0041,9,1",,,"8,1,06,1","8,1,06,1",,,"08,99,1,05,1,02,1,00800,1,05,1,99,9",,,,"120,M,+0266,1","99999,9,09841,1","7,1,028,1,+999,9","02,1","SYN094AAXX  03184 08014 11580 82302 10202 20136 39841 49848 57028 60042 70288 8525/ 333 10266 92428;",
"08014099999","2010-10-04T06:00:00","4","43.5666666","-5.7","6.0","GIJON MUSEL, SP","FM-12","99999","V020","120,1,N,0021,1","00750,1,9,N","015000,1,N,1","+0164,1","+0111,1","10049,1","12,0381,9,1","24,0414,9,1",,,,,,"07,99,1,06,1,02,1,00800,1,06,1,99,9","0102,9","11,9","999,+0120,9","999,N,+0148,1","99999,9,10041,1","2,1,040,1,+999,9","02,1","SYN112AAXX  04064 08014 11565 71204 10164 20111 30041 40049 52040 60382 702// 8626/ 333 20148 32012 50764 55017 70413;",
"08014099999","2010-10-04T09:00:00","4","43.5666666","-5.7","6.0","GIJON MUSEL, SP","FM-12","99999","V020","230,1,N,0041,1","01200,1,9,N","020000,1,N,1","+0162,1","+0122,1","10059,1",,,,"6,1,03,1","6,1,03,1",,,"08,99,1,05,1,08,1,00800,1,05,1,99,9",,,,,"99999,9,10051,1","2,1,010,1,+999,9","02,1","SYN082AAXX  04094 08014 41570 82308 10162 20122 30051 40059 52010 70266 8585/ 333 92438;",
"08014099999","2010-10-04T12:00:00","4","43.5666666","-5.7","6.0","GIJON MUSEL, SP","FM-12","99999","V020","250,1,N,0051,1","00750,1,9,N","030000,1,N,1","+0174,1","+0121,1","10094,1","06,0020,9,1",,,"6,1,06,1","6,1,06,1",,,"06,99,1,05,1,02,1,00800,1,06,1,00,1",,,,,"99999,9,10086,1","2,1,035,1,+999,9","02,1","SYN088AAXX  04124 08014 11580 62510 10174 20121 30086 40094 52035 60021 70266 85260 333 92438;",
"08014099999","2010-10-04T15:00:00","4","43.5666666","-5.7","6.0","GIJON MUSEL, SP","FM-12","99999","V020","180,1,N,0021,1","22000,1,9,N","030000,1,N,1","+0200,1","+0117,1","10094,1",,,,,,,,"03,99,1,03,1,02,1,00800,1,03,1,00,1",,,,,"99999,9,10087,1","2,1,001,1,+999,9",,"SYN076AAXX  04154 08014 42580 31804 10200 20117 30087 40094 52001 83230 333 92438;",
"08014099999","2010-10-04T18:00:00","4","43.5666666","-5.7","6.0","GIJON MUSEL, SP","FM-12","99999","V020","190,1,N,0015,1","03600,1,9,N","030000,1,N,1","+0180,1","+0113,1","10103,1","12,0020,9,1",,,,,,,"06,99,1,04,1,02,1,00800,1,05,1,99,9",,,,"120,M,+0207,1","99999,9,10095,1","2,1,008,1,+999,9",,"SYN088AAXX  04184 08014 12580 61903 10180 20113 30095 40103 52008 60022 8425/ 333 10207 92438;",
"08014099999","2010-10-05T06:00:00","4","43.5666666","-5.7","6.0","GIJON MUSEL, SP","FM-12","99999","V020","210,1,N,0026,1","03600,1,9,N","015000,1,N,1","+0156,1","+0099,1","10076,1","12,0000,9,1","24,0015,9,1",,,,,,"07,99,1,04,1,08,1,00800,1,05,1,99,9","0456,9","09,9","999,+0120,9","999,N,+0148,1","99999,9,10068,1","7,1,008,1,+999,9","02,1","SYN112AAXX  05064 08014 11565 72105 10156 20099 30068 40076 57008 60002 702// 8485/ 333 20148 31012 50494 55076 70015;","Q01  00002PRCP12"
"08014099999","2010-10-05T12:00:00","4","43.5666666","-5.7","6.0","GIJON MUSEL, SP","FM-12","99999","V020","090,1,N,0010,1","03600,1,9,N","020000,1,N,1","+0220,1","+0108,1","10065,1","06,0000,9,1",,,,,,,"06,99,1,04,1,08,1,00800,1,05,1,00,1",,,,,"99999,9,10058,1","7,1,001,1,+999,9",,"SYN082AAXX  05124 08014 12570 60902 10220 20108 30058 40065 57001 60001 84850 333 92428;","Q01  00002PRCP06"
"08014099999","2010-10-05T15:00:00","4","43.5666666","-5.7","6.0","GIJON MUSEL, SP","FM-12","99999","V020","090,1,N,0010,1","01200,1,9,N","020000,1,N,1","+0192,1","+0166,1","10054,1",,,,"2,1,03,1","2,1,03,1",,,"08,99,1,05,1,08,1,00800,1,07,1,99,9",,,,,"99999,9,10047,1","7,1,011,1,+999,9","60,1","SYN082AAXX  05154 08014 41570 80902 10192 20166 30047 40054 57011 76022 8587/ 333 92428;",
"08014099999","2010-10-05T18:00:00","4","43.5666666","-5.7","6.0","GIJON MUSEL, SP","FM-12","99999","V020","070,1,N,0010,1","00750,1,9,N","015000,1,N,1","+0188,1","+0143,1","10041,1","12,0010,9,1",,,"6,1,06,1","2,1,06,1",,,"08,99,1,05,1,07,1,00800,1,07,1,99,9",,,,"120,M,+0226,1","99999,9,10034,1","7,1,013,1,+999,9","61,1","SYN094AAXX  05184 08014 11565 80702 10188 20143 30034 40041 57013 69992 76162 8577/ 333 10226 92427;",
"08014099999","2010-10-06T06:00:00","4","43.5666666","-5.7","6.0","GIJON MUSEL, SP","FM-12","99999","V020","210,1,N,0021,1","00750,1,9,N","015000,1,N,1","+0146,1","+0131,1","10085,1","12,0041,9,1","24,0053,9,1",,,,,,"08,99,1,06,1,07,1,00800,1,07,1,99,9","0198,9","11,9","999,+0120,9","999,N,+0143,1","99999,9,10077,1","2,1,007,1,+999,9","63,1","SYN112AAXX  06064 08014 11565 82104 10146 20131 30077 40085 52007 60042 763// 8677/ 333 20143 32012 50264 55033 70053;",
"08014099999","2010-10-06T09:00:00","4","43.5666666","-5.7","6.0","GIJON MUSEL, SP","FM-12","99999","V020","220,1,N,0021,1","00420,1,9,N","008000,1,N,1","+0152,1","+0137,1","10105,1",,,,"6,1,03,1","4,1,03,1",,,"08,99,1,06,1,07,1,00450,1,01,1,99,9",,,,,"99999,9,10097,1","2,1,020,1,+999,9","63,1","SYN082AAXX  06094 08014 41458 82204 10152 20137 30097 40105 52020 76364 8671/ 333 92437;",
"08014099999","2010-10-06T12:00:00","4","43.5666666","-5.7","6.0","GIJON MUSEL, SP","FM-12","99999","V020","040,1,N,0015,1","00420,1,9,N","006000,1,N,1","+0154,1","+0143,1","10117,1","06,0089,9,1",,,"6,1,06,1","2,1,06,1",,,"08,99,1,05,1,07,1,00450,1,01,1,99,9",,,,,"99999,9,10109,1","2,1,012,1,+999,9","63,1","SYN088AAXX  06124 08014 11456 80403 10154 20143 30109 40117 52012 60091 76362 8571/ 333 92427;",
"08014099999","2010-10-06T15:00:00","4","43.5666666","-5.7","6.0","GIJON MUSEL, SP","FM-12","99999","V020","999,9,C,0000,1","00420,1,9,N","006000,1,N,1","+0158,1","+0143,1","10119,1",,,,"6,1,03,1","4,1,03,1",,,"08,99,1,05,1,07,1,00450,1,01,1,99,9",,,,,"99999,9,10111,1","2,1,002,1,+999,9","63,1","SYN082AAXX  06154 08014 41456 80000 10158 20143 30111 40119 52002 76364 8571/ 333 92437;",
"08014099999","2010-10-06T18:00:00","4","43.5666666","-5.7","6.0","GIJON MUSEL, SP","FM-12","99999","V020","080,1,N,0010,1","00420,1,9,N","008000,1,N,1","+0160,1","+0145,1","10121,1","12,0061,9,1",,,"6,1,06,1","4,1,06,1",,,"08,99,1,05,1,07,1,00450,1,01,1,99,9",,,,"120,M,+0160,1","99999,9,10113,1","2,1,002,1,+999,9","61,1","SYN094AAXX  06184 08014 11458 80802 10160 20145 30113 40121 52002 60062 76164 8571/ 333 10160 92436;",
"08014099999","2010-10-07T06:00:00","4","43.5666666","-5.7","6.0","GIJON MUSEL, SP","FM-12","99999","V020","230,1,N,0021,1","01200,1,9,N","015000,1,N,1","+0152,1","+0134,1","10084,1","12,0020,9,1","24,0079,9,1",,,,,,"08,99,1,05,1,08,1,00800,1,05,1,99,9","0000,9","11,9","999,+0120,9","999,N,+0146,1","99999,9,10076,1","7,1,010,1,+999,9","02,1","SYN112AAXX  07064 08014 11565 82304 10152 20134 30076 40084 57010 60022 702// 8585/ 333 20146 32012 50054 55000 70080;",
"08014099999","2010-10-07T09:00:00","4","43.5666666","-5.7","6.0","GIJON MUSEL, SP","FM-12","99999","V020","220,1,N,0021,1","01200,1,9,N","020000,1,N,1","+0168,1","+0144,1","10082,1",,,,,,,,"07,99,1,05,1,08,1,00800,1,01,1,99,9",,,,,"99999,9,10074,1","7,1,002,1,+999,9",,"SYN076AAXX  07094 08014 42570 72204 10168 20144 30074 40082 57002 8581/ 333 92427;",
"08014099999","2010-10-07T12:00:00","4","43.5666666","-5.7","6.0","GIJON MUSEL, SP","FM-12","99999","V020","110,1,N,0015,1","03600,1,9,N","020000,1,N,1","+0184,1","+0164,1","10067,1","06,0000,9,1",,,,,,,"06,99,1,04,1,04,1,00800,1,05,1,99,9",,,,,"99999,9,10060,1","7,1,014,1,+999,9",,"SYN082AAXX  07124 08014 12570 61103 10184 20164 30060 40067 57014 60001 8445/ 333 92438;","Q01  00002PRCP06"
"08014099999","2010-10-07T15:00:00","4","43.5666666","-5.7","6.0","GIJON MUSEL, SP","FM-12","99999","V020","060,1,N,0010,1","22000,1,9,N","030000,1,N,1","+0208,1","+0166,1","10057,1",,,,,,,,"01,99,1,01,1,04,1,00800,1,00,1,00,1",,,,,"99999,9,10050,1","7,1,010,1,+999,9",,"SYN076AAXX  07154 08014 42580 10602 10208 20166 30050 40057 57010 81400 333 92438;",
"08014099999","2010-10-07T18:00:00","4","43.5666666","-5.7","6.0","GIJON MUSEL, SP","FM-12","99999","V020","010,1,N,0005,1","22000,1,9,N","030000,1,N,1","+0210,1","+0164,1","10049,1","12,0000,9,1",,,,,,,"01,99,1,01,1,04,1,00800,1,00,1,00,1",,,,"120,M,+0211,1","99999,9,10042,1","7,1,008,1,+999,9",,"SYN088AAXX  07184 08014 12580 10101 10210 20164 30042 40049 57008 60002 81400 333 10211 92438;","Q01  00002PRCP12"
"08014099999","2010-10-08T06:00:00","4","43.5666666","-5.7","6.0","GIJON MUSEL, SP","FM-12","99999","V020","180,1,N,0031,1","01500,1,9,N","030000,1,N,1","+0226,1","+0125,1","10037,1","12,0000,9,1","24,0000,9,1",,,,,,"06,99,1,05,1,08,1,01250,1,06,1,00,1","0300,9","01,9","999,+0150,9","999,N,+0175,1","99999,9,10030,1","8,1,003,1,+999,9",,"SYN106AAXX  08064 08014 12680 61806 10226 20125 30030 40037 58003 60002 85860 333 20175 30015 50324 55050 70000;","Q01  00002PRCP24Q02  00002PRCP12"
"08014099999","2010-10-08T09:00:00","4","43.5666666","-5.7","6.0","GIJON MUSEL, SP","FM-12","99999","V020","180,1,N,0015,1","22000,1,9,N","030000,1,N,1","+0230,1","+0126,1","10044,1",,,,,,,,"04,99,1,03,1,08,1,01250,1,06,1,02,1",,,,,"99999,9,10037,1","3,1,007,1,+999,9",,"SYN076AAXX  08094 08014 42680 41803 10230 20126 30037 40044 53007 83862 333 92438;",
"08014099999","2010-10-08T12:00:00","4","43.5666666","-5.7","6.0","GIJON MUSEL, SP","FM-12","99999","V020","180,1,N,0041,1","22000,1,9,N","040000,1,N,1","+0272,1","+0112,1","10032,1","06,0000,9,1",,,,,,,"04,99,1,02,1,08,1,01250,1,09,1,01,1",,,,,"99999,9,10025,1","7,1,012,1,+999,9",,"SYN082AAXX  08124 08014 12682 41808 10272 20112 30025 40032 57012 60001 82891 333 92448;","Q01  00002PRCP06"
"08014099999","2010-10-08T15:00:00","4","43.5666666","-5.7","6.0","GIJON MUSEL, SP","FM-12","99999","V020","060,1,N,0010,1","03600,1,9,N","030000,1,N,1","+0250,1","+0156,1","10014,1",,,,,,,,"06,99,1,03,1,02,1,01250,1,09,1,01,1",,,,,"99999,9,10007,1","7,1,018,1,+999,9",,"SYN076AAXX  08154 08014 42680 60602 10250 20156 30007 40014 57018 83291 333 92448;",
"08014099999","2010-10-08T18:00:00","4","43.5666666","-5.7","6.0","GIJON MUSEL, SP","FM-12","99999","V020","999,9,C,0000,1","03600,1,9,N","040000,1,N,1","+0210,1","+0168,1","10008,1","12,0000,9,1",,,,,,,"06,99,1,02,1,08,1,01250,1,07,1,01,1",,,,"120,M,+0275,1","99999,9,10001,1","6,1,006,1,+999,9",,"SYN088AAXX  08184 08014 12682 60000 10210 20168 30001 40008 56006 60002 82871 333 10275 92438;","Q01  00002PRCP12"
"08014099999","2010-10-09T06:00:00","4","43.5666666","-5.7","6.0","GIJON MUSEL, SP","FM-12","99999","V020","210,1,N,0036,1","01500,1,9,N","030000,1,N,1","+0168,1","+0148,1","10026,1","12,0000,9,1","24,0000,9,1",,,,,,"06,99,1,05,1,08,1,01250,1,06,1,00,1","0174,9","01,9","999,+0160,9","999,N,+0168,1","99999,9,10018,1","3,1,021,1,+999,9",,"SYN106AAXX  09064 08014 12680 62107 10168 20148 30018 40026 53021 60002 85860 333 20168 30016 50794 55029 70000;","Q01  00002PRCP24Q02  00002PRCP12"
"08014099999","2010-10-09T09:00:00","4","43.5666666","-5.7","6.0","GIJON MUSEL, SP","FM-12","99999","V020","999,9,C,0000,1","00420,1,9,N","012000,1,N,1","+0156,1","+0141,1","10046,1",,,,"2,1,03,1","2,1,03,1",,,"08,99,1,06,1,07,1,00450,1,07,1,99,9",,,,,"99999,9,10038,1","2,1,020,1,+999,9","60,1","SYN082AAXX  09094 08014 41462 80000 10156 20141 30038 40046 52020 76022 8677/ 333 92447;",
"08014099999","2010-10-09T12:00:00","4","43.5666666","-5.7","6.0","GIJON MUSEL, SP","FM-12","99999","V020","080,1,N,0015,1","03600,1,9,N","015000,1,N,1","+0172,1","+0152,1","10050,1","06,0020,9,1",,,"6,1,06,1","2,1,06,1",,,"06,99,1,04,1,02,1,00450,1,06,1,08,1",,,,,"99999,9,10042,1","1,1,004,1,+999,9","02,1","SYN088AAXX  09124 08014 11465 60803 10172 20152 30042 40050 51004 60021 70262 84268 333 92447;",
"08014099999","2010-10-09T15:00:00","4","43.5666666","-5.7","6.0","GIJON MUSEL, SP","FM-12","99999","V020","080,1,N,0021,1","00750,1,9,N","020000,1,N,1","+0184,1","+0143,1","10047,1",,,,,,,,"06,99,1,05,1,02,1,00800,1,06,1,08,1",,,,,"99999,9,10040,1","6,1,002,1,+999,9",,"SYN076AAXX  09154 08014 42570 60804 10184 20143 30040 40047 56002 85268 333 92447;",
"08014099999","2010-10-09T18:00:00","4","43.5666666","-5.7","6.0","GIJON MUSEL, SP","FM-12","99999","V020","090,1,N,0015,1","00750,1,9,N","020000,1,N,1","+0176,1","+0137,1","10055,1","12,0020,9,1",,,,,,,"06,99,1,05,1,02,1,00800,1,06,1,02,1",,,,"120,M,+0192,1","99999,9,10047,1","3,1,007,1,+999,9",,"SYN088AAXX  09184 08014 12570 60903 10176 20137 30047 40055 53007 60022 85262 333 10192 92447;",
"08014099999","2010-10-10T06:00:00","4","43.5666666","-5.7","6.0","GIJON MUSEL, SP","FM-12","99999","V020","230,1,N,0026,1","01200,1,9,N","020000,1,N,1","+0146,1","+0128,1","10033,1","12,0020,9,1","24,0036,9,1",,"6,1,06,1","2,1,06,1",,,"07,99,1,06,1,08,1,00800,1,06,1,00,1","0174,9","09,9","999,+0130,9","999,N,+0145,1","99999,9,10025,1","5,1,000,1,+999,9","02,1","SYN112AAXX  10064 08014 11570 72305 10146 20128 30025 40033 55000 60022 70262 86860 333 20145 31013 50254 55029 70036;",
"08014099999","2010-10-10T09:00:00","4","43.5666666","-5.7","6.0","GIJON MUSEL, SP","FM-12","99999","V020","200,1,N,0026,1","03600,1,9,N","020000,1,N,1","+0160,1","+0131,1","10036,1",,,,,,,,"06,99,1,03,1,08,1,00800,1,06,1,01,1",,,,,"99999,9,10028,1","3,1,003,1,+999,9",,"SYN076AAXX  10094 08014 42570 62005 10160 20131 30028 40036 53003 83861 333 92447;",
"08014099999","2010-10-10T12:00:00","4","43.5666666","-5.7","6.0","GIJON MUSEL, SP","FM-12","99999","V020","240,1,N,0015,1","22000,1,9,N","030000,1,N,1","+0190,1","+0130,1","10034,1","06,0000,9,1",,,,,,,"04,99,1,02,1,02,1,00800,1,03,1,08,1",,,,,"99999,9,10027,1","8,1,001,1,+999,9",,"SYN082AAXX  10124 08014 12580 42403 10190 20130 30027 40034 58001 60001 82238 333 92448;","Q01  00002PRCP06"
"08014099999","2010-10-10T15:00:00","4","43.5666666","-5.7","6.0","GIJON MUSEL, SP","FM-12","99999","V020","020,1,N,0021,1","00750,1,9,N","008000,1,N,1","+0160,1","+0154,1","10032,1",,,,"1,1,03,1","1,1,03,1",,,"06,99,1,05,1,02,1,00800,1,06,1,01,1",,,,,"99999,9,10024,1","6,1,003,1,+999,9","25,1","SYN082AAXX  10154 08014 41558 60204 10160 20154 30024 40032 56003 72511 85261 333 92446;",
"08014099999","2010-10-10T18:00:00","4","43.5666666","-5.7","6.0","GIJON MUSEL, SP","FM-12","99999","V020","220,1,N,0021,1","00750,1,9,N","015000,1,N,1","+0162,1","+0140,1","10032,1","12,0041,9,1",,,"8,1,06,1","1,1,06,1",,,"08,99,1,06,1,02,1,00800,1,07,1,99,9",,,,"120,M,+0198,1","99999,9,10024,1","4,1,000,1,+999,9","02,1","SYN094AAXX  10184 08014 11565 82204 10162 20140 30024 40032 54000 60042 70281 8627/ 333 10198 92447;",
"08014099999","2010-10-11T06:00:00","4","43.5666666","-5.7","6.0","GIJON MUSEL, SP","FM-12","99999","V020","040,1,N,0051,1","00750,1,9,N","010000,1,N,1","+0184,1","+0174,1","10014,1","12,0150,9,1","24,0198,9,1",,"8,1,06,1","8,1,06,1",,,"06,99,1,05,1,02,1,00800,1,06,1,02,1","0090,9","11,9","999,+0130,9","999,N,+0142,1","99999,9,10007,1","6,1,003,1,+999,9","25,1","SYN112AAXX  11064 08014 11560 60410 10184 20174 30007 40014 56003 60152 72588 85262 333 20142 32013 50264 55015 70198;",
"08014099999","2010-10-11T09:00:00","4","43.5666666","-5.7","6.0","GIJON MUSEL, SP","FM-12","99999","V020","070,1,N,0026,1","00750,1,9,N","012000,1,N,1","+0184,1","+0164,1","10033,1",,,,,,,,"08,99,1,05,1,02,1,00800,1,07,1,99,9",,,,,"99999,9,10026,1","1,1,019,1,+999,9",,"SYN076AAXX  11094 08014 42562 80705 10184 20164 30026 40033 51019 8527/ 333 92447;",
"08014099999","2010-10-11T12:00:00","4","43.5666666","-5.7","6.0","GIJON MUSEL, SP","FM-12","99999","V020","040,1,N,0051,1","00750,1,C,N","010000,1,N,1","+0190,1","+0180,1","10037,1","06,0000,2,1",,,"8,1,06,1","2,1,06,1","02,1,+00780,1,09,1",,"06,99,1,05,1,03,1,00800,1,03,1,02,1",,,,,"99999,9,10030,1","1,1,004,1,+999,9","15,1","SYN094AAXX  11124 08014 11560 60410 10190 20180 30030 40037 51004 69901 71582 85332 333 82926 92447;",
"08014099999","2010-10-11T15:00:00","4","43.5666666","-5.7","6.0","GIJON MUSEL, SP","FM-12","99999","V020","040,1,N,0036,1","00420,1,9,N","010000,1,N,1","+0190,1","+0170,1","10037,1",,,,,,,,"07,99,1,06,1,02,1,00450,1,07,1,02,1",,,,,"99999,9,10030,1","4,1,000,1,+999,9",,"SYN076AAXX  11154 08014 42460 70407 10190 20170 30030 40037 54000 86272 333 92447;",
"08014099999","2010-10-11T18:00:00","4","43.5666666","-5.7","6.0","GIJON MUSEL, SP","FM-12","99999","V020","040,1,N,0041,1","00420,1,9,N","010000,1,N,1","+0182,1","+0165,1","10048,1","12,0000,2,1",,,"8,1,06,1","2,1,06,1",,,"06,99,1,05,1,02,1,00450,1,07,1,02,1",,,,"120,M,+0192,1","99999,9,10041,1","3,1,011,1,+999,9","15,1","SYN094AAXX  11184 08014 11460 60408 10182 20165 30041 40048 53011 69902 71582 85272 333 10192 92447;",
"08014099999","2010-10-12T06:00:00","4","43.5666666","-5.7","6.0","GIJON MUSEL, SP","FM-12","99999","V020","040,1,N,0026,1","00420,1,9,N","010000,1,N,1","+0176,1","+0156,1","10067,1","12,0000,9,1","24,0000,2,1",,,,,,"06,99,1,05,1,06,1,00450,1,07,1,00,1","0012,9","09,9","999,+0150,9","999,N,+0170,1","99999,9,10059,1","1,1,004,1,+999,9",,"SYN106AAXX  12064 08014 12460 60405 10176 20156 30059 40067 51004 60002 85670 333 20170 31015 50244 55002 79999;","Q01  00002PRCP12"
"08014099999","2010-10-12T09:00:00","4","43.5666666","-5.7","6.0","GIJON MUSEL, SP","FM-12","99999","V020","110,1,N,0010,1","00750,1,9,N","010000,1,N,1","+0178,1","+0158,1","10080,1",,,,"8,1,03,1","2,1,03,1",,,"08,99,1,05,1,02,1,00800,1,07,1,99,9",,,,,"99999,9,10072,1","2,1,013,1,+999,9","02,1","SYN082AAXX  12094 08014 41560 81102 10178 20158 30072 40080 52013 70282 8527/ 333 92437;",
"08014099999","2010-10-12T12:00:00","4","43.5666666","-5.7","6.0","GIJON MUSEL, SP","FM-12","99999","V020","080,1,N,0021,1","00750,1,9,N","020000,1,N,1","+0184,1","+0151,1","10086,1","06,0008,9,1",,,"8,1,06,1","2,1,06,1",,,"06,99,1,05,1,02,1,00800,1,06,1,00,1",,,,,"99999,9,10078,1","1,1,006,1,+999,9","02,1","SYN088AAXX  12124 08014 11570 60804 10184 20151 30078 40086 51006 69981 70282 85260 333 92437;",
"08014099999","2010-10-12T15:00:00","4","43.5666666","-5.7","6.0","GIJON MUSEL, SP","FM-12","99999","V020","070,1,N,0021,1","00750,1,9,N","020000,1,N,1","+0190,1","+0145,1","10084,1",,,,,,,,"05,99,1,05,1,02,1,00800,1,06,1,00,1",,,,,"99999,9,10077,1","6,1,001,1,+999,9",,"SYN076AAXX  12154 08014 42570 50704 10190 20145 30077 40084 56001 85260 333 92437;",
"08014099999","2010-10-12T18:00:00","4","43.5666666","-5.7","6.0","GIJON MUSEL, SP","FM-12","99999","V020","080,1,N,0031,1","03600,1,9,N","020000,1,N,1","+0182,1","+0141,1","10096,1","12,0008,9,1",,,,,,,"05,99,1,04,1,08,1,00800,1,03,1,01,1",,,,"120,M,+0200,1","99999,9,10088,1","3,1,011,1,+999,9",,"SYN088AAXX  12184 08014 12570 50806 10182 20141 30088 40096 53011 69982 84831 333 10200 92437;",
"08014099999","2010-10-13T06:00:00","4","43.5666666","-5.7","6.0","GIJON MUSEL, SP","FM-12","99999","V020","240,1,N,0010,1","22000,1,9,N","015000,1,N,1","+0155,1","+0142,1","10116,1","12,0000,9,1","24,0000,9,1",,,,,,"02,99,1,01,1,01,1,00800,1,06,1,00,1","0096,9","09,9","999,+0120,9","999,N,+0155,1","99999,9,10108,1","2,1,001,1,+999,9","02,1","SYN112AAXX  13064 08014 11565 22402 10155 20142 30108 40116 52001 69912 702// 81160 333 20155 31012 50204 55016 70001;","Q01  00002PRCP24Q02  00002PRCP12"
"08014099999","2010-10-13T09:00:00","4","43.5666666","-5.7","6.0","GIJON MUSEL, SP","FM-12","99999","V020","180,1,N,0010,1","03600,1,9,N","010000,1,N,1","+0170,1","+0146,1","10134,1",,,,,,,,"06,99,1,04,1,02,1,00800,1,06,1,00,1",,,,,"99999,9,10126,1","2,1,018,1,+999,9",,"SYN076AAXX  13094 08014 42560 61802 10170 20146 30126 40134 52018 84260 333 92426;",
"08014099999","2010-10-13T12:00:00","4","43.5666666","-5.7","6.0","GIJON MUSEL, SP","FM-12","99999","V020","060,1,N,0026,1","22000,1,9,N","012000,1,N,1","+0188,1","+0119,1","10140,1","06,0000,9,1",,,,,,,"03,99,1,02,1,01,1,00800,1,07,1,00,1",,,,,"99999,9,10132,1","2,1,006,1,+999,9",,"SYN082AAXX  13124 08014 12562 30605 10188 20119 30132 40140 52006 60001 82170 333 92427;","Q01  00002PRCP06"
"08014099999","2010-10-13T15:00:00","4","43.5666666","-5.7","6.0","GIJON MUSEL, SP","FM-12","99999","V020","070,1,N,0021,1","22000,1,9,N","020000,1,N,1","+0193,1","+0116,1","10138,1",,,,,,,,"01,99,1,01,1,01,1,00800,1,00,1,00,1",,,,,"99999,9,10130,1","8,1,002,1,+999,9",,"SYN076AAXX  13154 08014 42570 10704 10193 20116 30130 40138 58002 81100 333 92427;",
"08014099999","2010-10-13T18:00:00","4","43.5666666","-5.7","6.0","GIJON MUSEL, SP","FM-12","99999","V020","060,1,N,0015,1","22000,1,9,N","020000,1,N,1","+0175,1","+0118,1","10148,1","12,0000,9,1",,,,,,,"01,99,1,01,1,01,1,00800,1,00,1,05,1",,,,"120,M,+0200,1","99999,9,10140,1","3,1,010,1,+999,9",,"SYN088AAXX  13184 08014 12570 10603 10175 20118 30140 40148 53010 60002 81105 333 10200 92437;","Q01  00002PRCP12"
"08014099999","2010-10-14T06:00:00","4","43.5666666","-5.7","6.0","GIJON MUSEL, SP","FM-12","99999","V020","999,9,C,0000,1","03600,1,9,N","010000,1,N,1","+0126,1","+0105,1","10158,1","12,0000,9,1","24,0000,9,1",,,,,,"05,99,1,04,1,08,1,00800,1,03,1,00,1","0384,9","09,9","999,+0080,9","999,N,+0125,1","99999,9,10150,1","2,1,001,1,+999,9","02,1","SYN112AAXX  14064 08014 11560 50000 10126 20105 30150 40158 52001 60002 702// 84830 333 20125 31008 50244 55064 70000;","Q01  00002PRCP24Q02  00002PRCP12"
"08014099999","2010-10-14T09:00:00","4","43.5666666","-5.7","6.0","GIJON MUSEL, SP","FM-12","99999","V020","210,1,N,0026,1","22000,1,9,N","006000,1,N,1","+0148,1","+0114,1","10166,1",,,,"1,1,03,1","1,1,03,1",,,"04,99,1,02,1,01,1,00800,1,01,1,00,1",,,,,"99999,9,10158,1","2,1,008,1,+999,9","10,1","SYN082AAXX  14094 08014 41556 42105 10148 20114 30158 40166 52008 71011 82110 333 92436;",
"08014099999","2010-10-14T12:00:00","4","43.5666666","-5.7","6.0","GIJON MUSEL, SP","FM-12","99999","V020","100,1,N,0021,1","22000,1,9,N","012000,1,N,1","+0178,1","+0089,1","10171,1","06,0000,9,1",,,,,,,"02,99,1,02,1,01,1,00800,1,00,1,00,1",,,,,"99999,9,10163,1","2,1,005,1,+999,9",,"SYN082AAXX  14124 08014 12562 21004 10178 20089 30163 40171 52005 60001 82100 333 92437;","Q01  00002PRCP06"
"08014099999","2010-10-14T15:00:00","4","43.5666666","-5.7","6.0","GIJON MUSEL, SP","FM-12","99999","V020","060,1,N,0021,1","22000,1,9,N","020000,1,N,1","+0182,1","+0085,1","10165,1",,,,,,,,"01,99,1,01,1,01,1,00800,1,00,1,00,1",,,,,"99999,9,10157,1","7,1,006,1,+999,9",,"SYN076AAXX  14154 08014 42570 10604 10182 20085 30157 40165 57006 81100 333 92437;",
"08014099999","2010-10-14T18:00:00","4","43.5666666","-5.7","6.0","GIJON MUSEL, SP","FM-12","99999","V020","080,1,N,0021,1","22000,1,9,N","020000,1,N,1","+0170,1","+0089,1","10166,1","12,0000,9,1",,,,,,,"04,99,1,02,1,01,1,00800,1,07,1,00,1",,,,"120,M,+0191,1","99999,9,10158,1","3,1,001,1,+999,9",,"SYN088AAXX  14184 08014 12570 40804 10170 20089 30158 40166 53001 60002 82170 333 10191 92437;","Q01  00002PRCP12"
"08014099999","2010-10-15T06:00:00","4","43.5666666","-5.7","6.0","GIJON MUSEL, SP","FM-12","99999","V020","220,1,N,0010,1","03600,1,9,N","015000,1,N,1","+0148,1","+0087,1","10158,1","12,0000,9,1","24,0000,9,1",,,,,,"06,99,1,04,1,01,1,00800,1,03,1,00,1","0528,9","01,9","999,+0120,9","999,N,+0148,1","99999,9,10150,1","4,1,000,1,+999,9","02,1","SYN112AAXX  15064 08014 11565 62202 10148 20087 30150 40158 54000 60002 702// 84130 333 20148 30012 50394 55088 70000;","Q01  00002PRCP24Q02  00002PRCP12"
"08014099999","2010-10-15T09:00:00","4","43.5666666","-5.7","6.0","GIJON MUSEL, SP","FM-12","99999","V020","120,1,N,0015,1","00750,1,9,N","006000,1,N,1","+0143,1","+0111,1","10165,1",,,,"5,1,03,1","2,1,03,1",,,"08,99,1,05,1,07,1,00800,1,02,1,99,9",,,,,"99999,9,10157,1","3,1,007,1,+999,9","51,1","SYN082AAXX  15094 08014 41556 81203 10143 20111 30157 40165 53007 75152 8572/ 333 92426;",
"08014099999","2010-10-15T12:00:00","4","43.5666666","-5.7","6.0","GIJON MUSEL, SP","FM-12","99999","V020","220,1,N,0021,1","00750,1,9,N","012000,1,N,1","+0160,1","+0107,1","10165,1","06,0005,9,1",,,"5,1,06,1","2,1,06,1",,,"07,99,1,05,1,07,1,00800,1,03,1,00,1",,,,,"99999,9,10157,1","4,1,000,1,+999,9","02,1","SYN088AAXX  15124 08014 11562 72204 10160 20107 30157 40165 54000 69951 70252 85730 333 92427;",
"08014099999","2010-10-15T15:00:00","4","43.5666666","-5.7","6.0","GIJON MUSEL, SP","FM-12","99999","V020","040,1,N,0015,1","03600,1,9,N","015000,1,N,1","+0156,1","+0112,1","10158,1",,,,"5,1,03,1","2,1,03,1",,,"08,99,1,04,1,07,1,00800,1,02,1,99,9",,,,,"99999,9,10150,1","8,1,007,1,+999,9","02,1","SYN082AAXX  15154 08014 41565 80403 10156 20112 30150 40158 58007 70252 8472/ 333 92437;",
"08014099999","2010-10-15T18:00:00","4","43.5666666","-5.7","6.0","GIJON MUSEL, SP","FM-12","99999","V020","110,1,N,0021,1","00750,1,9,N","015000,1,N,1","+0158,1","+0108,1","10165,1","12,0005,9,1",,,,,,,"08,99,1,06,1,07,1,00800,1,07,1,99,9",,,,"120,M,+0171,1","99999,9,10157,1","3,1,007,1,+999,9",,"SYN088AAXX  15184 08014 12565 81104 10158 20108 30157 40165 53007 69952 8677/ 333 10171 92437;",
"08014099999","2010-10-16T06:00:00","4","43.5666666","-5.7","6.0","GIJON MUSEL, SP","FM-12","99999","V020","260,1,N,0015,1","01200,1,9,N","010000,1,N,1","+0135,1","+0086,1","10166,1","12,0000,9,1","24,0005,9,1",,,,,,"08,99,1,05,1,08,1,00800,1,08,1,99,9","0000,9","01,9","999,+0110,9","999,N,+0134,1","99999,9,10158,1","4,1,000,1,+999,9","02,1","SYN112AAXX  16064 08014 11560 82603 10135 20086 30158 40166 54000 60002 702// 8588/ 333 20134 30011 50264 55000 70005;","Q01  00002PRCP12"
"08014099999","2010-10-16T09:00:00","4","43.5666666","-5.7","6.0","GIJON MUSEL, SP","FM-12","99999","V020","220,1,N,0026,1","01200,1,9,N","010000,1,N,1","+0136,1","+0096,1","10174,1",,,,,,,,"08,99,1,05,1,08,1,00800,1,02,1,99,9",,,,,"99999,9,10166,1","3,1,008,1,+999,9",,"SYN076AAXX  16094 08014 42560 82205 10136 20096 30166 40174 53008 8582/ 333 92436;",
"08014099999","2010-10-16T12:00:00","4","43.5666666","-5.7","6.0","GIJON MUSEL, SP","FM-12","99999","V020","280,1,N,0010,1","03600,1,9,N","012000,1,N,1","+0151,1","+0092,1","10176,1","06,0000,9,1",,,,,,,"08,99,1,04,1,08,1,00800,1,01,1,99,9",,,,,"99999,9,10168,1","2,1,002,1,+999,9",,"SYN082AAXX  16124 08014 12562 82802 10151 20092 30168 40176 52002 60001 8481/ 333 92437;","Q01  00002PRCP06"
"08014099999","2010-10-16T15:00:00","4","43.5666666","-5.7","6.0","GIJON MUSEL, SP","FM-12","99999","V020","150,1,N,0015,1","00750,1,9,N","015000,1,N,1","+0160,1","+0103,1","10168,1",,,,,,,,"08,99,1,05,1,07,1,00800,1,07,1,99,9",,,,,"99999,9,10160,1","8,1,008,1,+999,9",,"SYN076AAXX  16154 08014 42565 81503 10160 20103 30160 40168 58008 8577/ 333 92437;",
"08014099999","2010-10-16T18:00:00","4","43.5666666","-5.7","6.0","GIJON MUSEL, SP","FM-12","99999","V020","210,1,N,0026,1","00750,1,9,N","015000,1,N,1","+0139,1","+0105,1","10177,1","12,0000,9,1",,,,,,,"08,99,1,05,1,07,1,00800,1,07,1,00,1",,,,"120,M,+0169,1","99999,9,10169,1","2,1,009,1,+999,9",,"SYN088AAXX  16184 08014 12565 82105 10139 20105 30169 40177 52009 60002 85770 333 10169 92437;","Q01  00002PRCP12"
"08014099999","2010-10-17T06:00:00","4","43.5666666","-5.7","6.0","GIJON MUSEL, SP","FM-12","99999","V020","200,1,N,0010,1","00420,1,9,N","010000,1,N,1","+0122,1","+0103,1","10202,1","12,0020,9,2","24,0018,9,2",,,,,,"06,99,1,05,1,04,1,00450,1,03,1,00,1","0024,9","09,9","999,+0090,9","999,N,+0115,1","99999,9,10194,1","3,1,003,1,+999,9","02,1","SYN112AAXX  17064 08014 11460 62002 10122 20103 30194 40202 53003 60022 702// 85430 333 20115 31009 50204 55004 70019;",
"08014099999","2010-10-17T09:00:00","4","43.5666666","-5.7","6.0","GIJON MUSEL, SP","FM-12","99999","V020","220,1,N,0031,1","00750,1,9,N","015000,1,N,1","+0128,1","+0105,1","10220,1",,,,,,,,"07,99,1,05,1,02,1,00800,1,06,1,00,1",,,,,"99999,9,10212,1","2,1,018,1,+999,9",,"SYN076AAXX  17094 08014 42565 72206 10128 20105 30212 40220 52018 85260 333 92438;",
"08014099999","2010-10-17T12:00:00","4","43.5666666","-5.7","6.0","GIJON MUSEL, SP","FM-12","99999","V020","120,1,N,0021,1","00750,1,9,N","020000,1,N,1","+0148,1","+0114,1","10229,1","06,0005,9,1",,,"2,1,06,1","2,1,06,1",,,"07,99,1,05,1,02,1,00800,1,06,1,00,1",,,,,"99999,9,10221,1","2,1,009,1,+999,9","51,1","SYN088AAXX  17124 08014 11570 71204 10148 20114 30221 40229 52009 69951 75122 85260 333 92438;",
"08014099999","2010-10-17T15:00:00","4","43.5666666","-5.7","6.0","GIJON MUSEL, SP","FM-12","99999","V020","090,1,N,0036,1","22000,1,9,N","030000,1,N,1","+0162,1","+0101,1","10230,1",,,,,,,,"03,99,1,03,1,02,1,00800,1,03,1,00,1",,,,,"99999,9,10222,1","2,1,001,1,+999,9",,"SYN076AAXX  17154 08014 42580 30907 10162 20101 30222 40230 52001 83230 333 92438;",
"08014099999","2010-10-17T18:00:00","4","43.5666666","-5.7","6.0","GIJON MUSEL, SP","FM-12","99999","V020","080,1,N,0036,1","03600,1,9,N","030000,1,N,1","+0152,1","+0075,1","10241,1","12,0005,9,1",,,"5,1,06,1","5,1,06,1",,,"05,99,1,03,1,08,1,00800,1,03,1,00,1",,,,"120,M,+0168,1","99999,9,10233,1","2,1,011,1,+999,9","02,1","SYN094AAXX  17184 08014 11580 50807 10152 20075 30233 40241 52011 69962 70255 83830 333 10168 92438;",
"08014099999","2010-10-18T06:00:00","4","43.5666666","-5.7","6.0","GIJON MUSEL, SP","FM-12","99999","V020","220,1,N,0031,1","22000,1,9,N","020000,1,N,1","+0096,1","+0056,1","10252,1","12,0000,9,1","24,0005,9,1",,,,,,"03,99,1,03,1,04,1,00800,1,00,1,00,1","0168,9","01,9","999,+0080,9","999,N,+0091,1","99999,9,10244,1","2,1,002,1,+999,9","02,1","SYN112AAXX  18064 08014 11570 32206 10096 20056 30244 40252 52002 60002 702// 83400 333 20091 30008 50264 55028 70006;","Q01  00002PRCP12"
"08014099999","2010-10-18T09:00:00","4","43.5666666","-5.7","6.0","GIJON MUSEL, SP","FM-12","99999","V020","230,1,N,0036,1","22000,1,9,N","030000,1,N,1","+0112,1","+0059,1","10259,1",,,,,,,,"02,99,1,02,1,04,1,00800,1,00,1,00,1",,,,,"99999,9,10251,1","2,1,007,1,+999,9",,"SYN076AAXX  18094 08014 42580 22307 10112 20059 30251 40259 52007 82400 333 92438;",
"08014099999","2010-10-18T12:00:00","4","43.5666666","-5.7","6.0","GIJON MUSEL, SP","FM-12","99999","V020","090,1,N,0021,1","22000,1,9,N","030000,1,N,1","+0162,1","+0046,1","10257,1","06,0000,9,1",,,,,,,"03,99,1,03,1,08,1,00800,1,00,1,00,1",,,,,"99999,9,10249,1","7,1,002,1,+999,9",,"SYN082AAXX  18124 08014 12580 30904 10162 20046 30249 40257 57002 60001 83800 333 92438;","Q01  00002PRCP06"
"08014099999","2010-10-18T15:00:00","4","43.5666666","-5.7","6.0","GIJON MUSEL, SP","FM-12","99999","V020","080,1,N,0021,1","22000,1,9,N","030000,1,N,1","+0166,1","+0067,1","10245,1",,,,,,,,"01,99,1,01,1,04,1,00800,1,00,1,00,1",,,,,"99999,9,10237,1","7,1,012,1,+999,9",,"SYN076AAXX  18154 08014 42580 10804 10166 20067 30237 40245 57012 81400 333 92438;",
"08014099999","2010-10-18T18:00:00","4","43.5666666","-5.7","6.0","GIJON MUSEL, SP","FM-12","99999","V020","090,1,N,0026,1","22000,1,9,N","030000,1,N,1","+0156,1","+0066,1","10241,1","12,0000,9,1",,,,,,,"01,99,1,01,1,04,1,00800,1,00,1,00,1",,,,"120,M,+0172,1","99999,9,10233,1","7,1,004,1,+999,9",,"SYN088AAXX  18184 08014 12580 10905 10156 20066 30233 40241 57004 60002 81400 333 10172 92428;","Q01  00002PRCP12"
"08014099999","2010-10-19T06:00:00","4","43.5666666","-5.7","6.0","GIJON MUSEL, SP","FM-12","99999","V020","230,1,N,0031,1","22000,1,9,N","020000,1,N,1","+0092,1","+0046,1","10221,1","12,0000,9,1","24,0000,9,1",,,,,,"01,99,1,01,1,04,1,00800,1,00,1,00,1","0588,9","01,9","999,+0070,9","999,N,+0085,1","99999,9,10213,1","6,1,002,1,+999,9","02,1","SYN112AAXX  19064 08014 11570 12306 10092 20046 30213 40221 56002 60002 702// 81400 333 20085 30007 50384 55098 70000;","Q01  00002PRCP24Q02  00002PRCP12"
"08014099999","2010-10-19T12:00:00","4","43.5666666","-5.7","6.0","GIJON MUSEL, SP","FM-12","99999","V020","090,1,N,0031,1","22000,1,9,N","030000,1,N,1","+0152,1","+0065,1","10216,1","06,0000,9,1",,,,,"00,1,+99999,9,99,9",,"00,99,1,00,1,00,1,99999,9,00,1,00,1",,,,,"99999,9,10208,1","7,1,011,1,+999,9",,"SYN076AAXX  19124 08014 12980 00906 10152 20065 30208 40216 57011 60001 333 92438;","Q01  00002PRCP06"
"08014099999","2010-10-19T15:00:00","4","43.5666666","-5.7","6.0","GIJON MUSEL, SP","FM-12","99999","V020","090,1,N,0026,1","22000,1,9,N","030000,1,N,1","+0162,1","+0069,1","10198,1",,,,,,"00,1,+99999,9,99,9",,"00,99,1,00,1,00,1,99999,9,00,1,00,1",,,,,"99999,9,10190,1","7,1,018,1,+999,9",,"SYN070AAXX  19154 08014 42980 00905 10162 20069 30190 40198 57018 333 92428;",
"08014099999","2010-10-19T18:00:00","4","43.5666666","-5.7","6.0","GIJON MUSEL, SP","FM-12","99999","V020","080,1,N,0015,1","22000,1,9,N","030000,1,N,1","+0150,1","+0073,1","10195,1","12,0000,9,1",,,,,"00,1,+99999,9,99,9",,"00,99,1,00,1,00,1,99999,9,00,1,00,1",,,,"120,M,+0166,1","99999,9,10187,1","7,1,003,1,+999,9",,"SYN082AAXX  19184 08014 12980 00803 10150 20073 30187 40195 57003 60002 333 10166 92438;","Q01  00002PRCP12"
"08014099999","2010-10-20T06:00:00","4","43.5666666","-5.7","6.0","GIJON MUSEL, SP","FM-12","99999","V020","220,1,N,0051,1","22000,1,9,N","020000,1,N,1","+0090,1","+0054,1","10191,1","12,0000,9,1","24,0000,9,1",,,,,,"01,99,1,01,1,04,1,00800,1,00,1,00,1","0582,9","01,9","999,+0080,9","999,N,+0088,1","99999,9,10183,1","7,1,001,1,+999,9","02,1","SYN112AAXX  20064 08014 11570 12210 10090 20054 30183 40191 57001 60002 702// 81400 333 20088 30008 50344 55097 70000;","Q01  00002PRCP24Q02  00002PRCP12"
"08014099999","2010-10-20T09:00:00","4","43.5666666","-5.7","6.0","GIJON MUSEL, SP","FM-12","99999","V020","230,1,N,0026,1","03600,1,9,N","020000,1,N,1","+0122,1","+0071,1","10207,1",,,,,,,,"06,99,1,03,1,04,1,00800,1,05,1,99,9",,,,,"99999,9,10199,1","2,1,016,1,+999,9",,"SYN076AAXX  20094 08014 42570 62305 10122 20071 30199 40207 52016 8345/ 333 92438;",
"08014099999","2010-10-20T12:00:00","4","43.5666666","-5.7","6.0","GIJON MUSEL, SP","FM-12","99999","V020","120,1,N,0021,1","22000,1,9,N","030000,1,N,1","+0168,1","+0100,1","10202,1","06,0000,9,1",,,,,,,"04,99,1,02,1,04,1,00800,1,03,1,00,1",,,,,"99999,9,10194,1","7,1,005,1,+999,9",,"SYN082AAXX  20124 08014 12580 41204 10168 20100 30194 40202 57005 60001 82430 333 92428;","Q01  00002PRCP06"
"08014099999","2010-10-20T15:00:00","4","43.5666666","-5.7","6.0","GIJON MUSEL, SP","FM-12","99999","V020","090,1,N,0036,1","03600,1,9,N","030000,1,N,1","+0178,1","+0127,1","10191,1",,,,,,,,"05,99,1,03,1,04,1,00800,1,03,1,00,1",,,,,"99999,9,10183,1","6,1,011,1,+999,9",,"SYN076AAXX  20154 08014 42580 50907 10178 20127 30183 40191 56011 83430 333 92438;",
"08014099999","2010-10-20T18:00:00","4","43.5666666","-5.7","6.0","GIJON MUSEL, SP","FM-12","99999","V020","100,1,N,0031,1","03600,1,9,N","030000,1,N,1","+0162,1","+0105,1","10191,1","12,0000,9,1",,,,,,,"06,99,1,03,1,04,1,00800,1,03,1,08,1",,,,"120,M,+0182,1","99999,9,10183,1","4,1,000,1,+999,9",,"SYN088AAXX  20184 08014 12580 61006 10162 20105 30183 40191 54000 60002 83438 333 10182 92438;","Q01  00002PRCP12"
"08014099999","2010-10-21T06:00:00","4","43.5666666","-5.7","6.0","GIJON MUSEL, SP","FM-12","99999","V020","190,1,N,0015,1","22000,1,9,N","015000,1,N,1","+0106,1","+0073,1","10194,1","12,0000,9,1","24,0000,9,1",,,,,,"03,99,1,02,1,00,1,01750,1,04,1,01,1","0552,9","01,9","999,+0080,9","999,N,+0105,1","99999,9,10186,1","4,1,000,1,+999,9",,"SYN106AAXX  21064 08014 12765 31903 10106 20073 30186 40194 54000 60002 82041 333 20105 30008 50334 55092 70000;","Q01  00002PRCP24Q02  00002PRCP12"
"08014099999","2010-10-21T09:00:00","4","43.5666666","-5.7","6.0","GIJON MUSEL, SP","FM-12","99999","V020","190,1,N,0021,1","22000,1,9,N","020000,1,N,1","+0122,1","+0077,1","10204,1",,,,,,,,"03,99,1,01,1,00,1,01750,1,04,1,01,1",,,,,"99999,9,10196,1","1,1,010,1,+999,9",,"SYN076AAXX  21094 08014 42770 31904 10122 20077 30196 40204 51010 81041 333 92437;",
"08014099999","2010-10-21T12:00:00","4","43.5666666","-5.7","6.0","GIJON MUSEL, SP","FM-12","99999","V020","080,1,N,0036,1","22000,1,9,N","020000,1,N,1","+0162,1","+0082,1","10197,1","06,0000,9,1",,,,,,,"03,99,1,00,1,00,1,99999,9,00,1,01,1",,,,,"99999,9,10189,1","8,1,007,1,+999,9",,"SYN082AAXX  21124 08014 12970 30807 10162 20082 30189 40197 58007 60001 80001 333 92437;","Q01  00002PRCP06"
"08014099999","2010-10-21T15:00:00","4","43.5666666","-5.7","6.0","GIJON MUSEL, SP","FM-12","99999","V020","080,1,N,0046,1","22000,1,9,N","030000,1,N,1","+0166,1","+0098,1","10185,1",,,,,,,,"04,99,1,00,1,00,1,99999,9,00,1,01,1",,,,,"99999,9,10177,1","7,1,012,1,+999,9",,"SYN076AAXX  21154 08014 42980 40809 10166 20098 30177 40185 57012 80001 333 92448;",
"08014099999","2010-10-21T18:00:00","4","43.5666666","-5.7","6.0","GIJON MUSEL, SP","FM-12","99999","V020","080,1,N,0015,1","22000,1,9,N","020000,1,N,1","+0156,1","+0104,1","10185,1","12,0000,9,1",,,,,,,"02,99,1,00,1,00,1,99999,9,00,1,01,1",,,,"120,M,+0170,1","99999,9,10177,1","4,1,000,1,+999,9",,"SYN088AAXX  21184 08014 12970 20803 10156 20104 30177 40185 54000 60002 80001 333 10170 92437;","Q01  00002PRCP12"
"08014099999","2010-10-22T06:00:00","4","43.5666666","-5.7","6.0","GIJON MUSEL, SP","FM-12","99999","V020","230,1,N,0026,1","22000,1,9,N","010000,1,N,1","+0118,1","+0077,1","10188,1","12,0000,9,1","24,0000,9,1",,,,,,"03,99,1,01,1,00,1,01750,1,04,1,01,1","0576,9","09,9","999,+0080,9","999,N,+0105,1","99999,9,10180,1","8,1,007,1,+999,9",,"SYN106AAXX  22064 08014 12760 32305 10118 20077 30180 40188 58007 60002 81041 333 20105 31008 50274 55096 70000;","Q01  00002PRCP24Q02  00002PRCP12"
"08014099999","2010-10-22T09:00:00","4","43.5666666","-5.7","6.0","GIJON MUSEL, SP","FM-12","99999","V020","210,1,N,0026,1","22000,1,9,N","015000,1,N,1","+0136,1","+0084,1","10206,1",,,,,,,,"04,99,1,02,1,05,1,01250,1,04,1,01,1",,,,,"99999,9,10198,1","3,1,018,1,+999,9",,"SYN076AAXX  22094 08014 42665 42105 10136 20084 30198 40206 53018 82541 333 92437;",
"08014099999","2010-10-22T12:00:00","4","43.5666666","-5.7","6.0","GIJON MUSEL, SP","FM-12","99999","V020","030,1,N,0010,1","09000,1,9,N","015000,1,N,1","+0166,1","+0113,1","10198,1","06,0000,9,1",,,,,,,"05,99,1,02,1,08,1,01250,1,08,1,08,1",,,,,"99999,9,10190,1","8,1,008,1,+999,9",,"SYN082AAXX  22124 08014 12665 50302 10166 20113 30190 40198 58008 60001 82888 333 92437;","Q01  00002PRCP06"
"08014099999","2010-10-22T15:00:00","4","43.5666666","-5.7","6.0","GIJON MUSEL, SP","FM-12","99999","V020","040,1,N,0021,1","03600,1,9,N","015000,1,N,1","+0172,1","+0121,1","10192,1",,,,,,,,"06,99,1,02,1,08,1,01250,1,08,1,08,1",,,,,"99999,9,10184,1","6,1,006,1,+999,9",,"SYN076AAXX  22154 08014 42665 60404 10172 20121 30184 40192 56006 82888 333 92437;",
"08014099999","2010-10-22T18:00:00","4","43.5666666","-5.7","6.0","GIJON MUSEL, SP","FM-12","99999","V020","090,1,N,0010,1","09000,1,9,N","015000,1,N,1","+0166,1","+0122,1","10192,1","12,0000,9,1",,,,,,,"05,99,1,02,1,08,1,01250,1,08,1,08,1",,,,"999,M,+0175,1","99999,9,10184,1","4,1,000,1,+999,9",,"SYN082AAXX  22184 08014 12665 50902 10166 20122 30184 40192 54000 60002 82888 333 10175;","Q01  00002PRCP12"
"08014099999","2010-10-23T06:00:00","4","43.5666666","-5.7","6.0","GIJON MUSEL, SP","FM-12","99999","V020","230,1,N,0031,1","22000,1,9,N","015000,1,N,1","+0108,1","+0100,1","10186,1","12,0000,9,1","24,0000,9,1",,,,"00,1,+99999,9,99,9",,"00,99,1,00,1,00,1,99999,9,00,1,00,1","0300,9","09,9","999,+0080,9","999,N,+0108,1","99999,9,10178,1","3,1,006,1,+999,9",,"SYN100AAXX  23064 08014 12965 02306 10108 20100 30178 40186 53006 60002 333 20108 31008 50254 55050 70000;","Q01  00002PRCP24Q02  00002PRCP12"
"08014099999","2010-10-23T09:00:00","4","43.5666666","-5.7","6.0","GIJON MUSEL, SP","FM-12","99999","V020","220,1,N,0031,1","22000,1,9,N","012000,1,N,1","+0126,1","+0098,1","10192,1",,,,,,,,"03,99,1,00,1,00,1,99999,9,00,1,08,1",,,,,"99999,9,10184,1","1,1,006,1,+999,9",,"SYN076AAXX  23094 08014 42962 32206 10126 20098 30184 40192 51006 80008 333 92437;",
"08014099999","2010-10-23T12:00:00","4","43.5666666","-5.7","6.0","GIJON MUSEL, SP","FM-12","99999","V020","999,9,C,0000,1","22000,1,9,N","012000,1,N,1","+0178,1","+0089,1","10191,1","06,0000,9,1",,,,,,,"04,99,1,01,1,00,1,01750,1,04,1,08,1",,,,,"99999,9,10183,1","8,1,001,1,+999,9",,"SYN082AAXX  23124 08014 12762 40000 10178 20089 30183 40191 58001 60001 81048 333 92427;","Q01  00002PRCP06"
"08014099999","2010-10-23T15:00:00","4","43.5666666","-5.7","6.0","GIJON MUSEL, SP","FM-12","99999","V020","300,1,N,0010,1","22000,1,9,N","015000,1,N,1","+0180,1","+0091,1","10177,1",,,,,,,,"05,99,1,01,1,00,1,01750,1,04,1,08,1",,,,,"99999,9,10169,1","7,1,014,1,+999,9",,"SYN076AAXX  23154 08014 42765 53002 10180 20091 30169 40177 57014 81048 333 92427;",
"08014099999","2010-10-23T18:00:00","4","43.5666666","-5.7","6.0","GIJON MUSEL, SP","FM-12","99999","V020","210,1,N,0015,1","03600,1,9,N","020000,1,N,1","+0174,1","+0093,1","10171,1","12,0000,9,1",,,,,,,"06,99,1,03,1,05,1,01250,1,07,1,08,1",,,,"120,M,+0186,1","99999,9,10163,1","6,1,006,1,+999,9",,"SYN088AAXX  23184 08014 12670 62103 10174 20093 30163 40171 56006 60002 83578 333 10186 92427;","Q01  00002PRCP12"
"08014099999","2010-10-24T06:00:00","4","43.5666666","-5.7","6.0","GIJON MUSEL, SP","FM-12","99999","V020","220,1,N,0021,1","01200,1,9,N","020000,1,N,1","+0150,1","+0100,1","10141,1","12,0000,9,1","24,0000,9,1",,,,,,"06,99,1,05,1,05,1,01250,1,03,1,00,1","0456,9","09,9","999,+0120,9","999,N,+0135,1","99999,9,10133,1","8,1,011,1,+999,9",,"SYN106AAXX  24064 08014 12670 62204 10150 20100 30133 40141 58011 69902 85530 333 20135 31012 50354 55076 79999;","Q01  00002PRCP24Q02  00002PRCP12"
"08014099999","2010-10-24T09:00:00","4","43.5666666","-5.7","6.0","GIJON MUSEL, SP","FM-12","99999","V020","230,1,N,0057,1","03600,1,9,N","015000,1,N,1","+0178,1","+0107,1","10136,1",,,,,,,,"08,99,1,03,1,07,1,01250,1,07,1,99,9",,,,,"99999,9,10128,1","6,1,005,1,+999,9",,"SYN076AAXX  24094 08014 42665 82311 10178 20107 30128 40136 56005 8377/ 333 92437;",
"08014099999","2010-10-24T12:00:00","4","43.5666666","-5.7","6.0","GIJON MUSEL, SP","FM-12","99999","V020","230,1,N,0041,1","00420,1,9,N","008000,1,N,1","+0160,1","+0145,1","10150,1","06,0030,9,1",,,"8,1,06,1","2,1,06,1",,,"08,99,1,06,1,07,1,00450,1,07,1,99,9",,,,,"99999,9,10142,1","1,1,014,1,+999,9","25,1","SYN088AAXX  24124 08014 11458 82308 10160 20145 30142 40150 51014 60031 72582 8677/ 333 92436;",
"08014099999","2010-10-24T15:00:00","4","43.5666666","-5.7","6.0","GIJON MUSEL, SP","FM-12","99999","V020","030,1,N,0026,1","00420,1,9,N","020000,1,N,1","+0158,1","+0125,1","10165,1",,,,"8,1,03,1","2,1,03,1",,,"07,99,1,06,1,02,1,00450,1,07,1,00,1",,,,,"99999,9,10157,1","2,1,015,1,+999,9","02,1","SYN082AAXX  24154 08014 41470 70305 10158 20125 30157 40165 52015 70282 86270 333 92437;",
"08014099999","2010-10-24T18:00:00","4","43.5666666","-5.7","6.0","GIJON MUSEL, SP","FM-12","99999","V020","999,9,C,0000,1","00420,1,9,N","010000,1,N,1","+0142,1","+0134,1","10182,1","12,0061,9,1",,,"8,1,06,1","2,1,06,1",,,"07,99,1,06,1,02,1,00450,1,07,1,00,1",,,,"120,M,+0185,1","99999,9,10174,1","2,1,017,1,+999,9","25,1","SYN094AAXX  24184 08014 11460 70000 10142 20134 30174 40182 52017 60062 72582 86270 333 10185 92436;",
"08014099999","2010-10-25T06:00:00","4","43.5666666","-5.7","6.0","GIJON MUSEL, SP","FM-12","99999","V020","180,1,N,0010,1","00750,1,9,N","015000,1,N,1","+0120,1","+0104,1","10225,1","12,0020,9,1","24,0086,9,1",,,,,,"06,99,1,05,1,02,1,00800,1,06,1,00,1","0000,9","11,9","999,+0080,9","999,N,+0120,1","99999,9,10217,1","2,1,006,1,+999,9","02,1","SYN112AAXX  25064 08014 11565 61802 10120 20104 30217 40225 52006 60022 702// 85260 333 20120 32008 50224 55000 70086;",
"08014099999","2010-10-25T09:00:00","4","43.5666666","-5.7","6.0","GIJON MUSEL, SP","FM-12","99999","V020","170,1,N,0010,1","22000,1,9,N","010000,1,N,1","+0143,1","+0093,1","10247,1",,,,,,,,"03,99,1,02,1,02,1,00800,1,06,1,01,1",,,,,"99999,9,10239,1","2,1,022,1,+999,9",,"SYN076AAXX  25094 08014 42560 31702 10143 20093 30239 40247 52022 82261 333 92437;",
"08014099999","2010-10-25T12:00:00","4","43.5666666","-5.7","6.0","GIJON MUSEL, SP","FM-12","99999","V020","080,1,N,0057,1","22000,1,9,N","020000,1,N,1","+0151,1","+0067,1","10263,1","06,0000,9,1",,,,,,,"03,99,1,02,1,02,1,00800,1,06,1,00,1",,,,,"99999,9,10255,1","2,1,016,1,+999,9",,"SYN082AAXX  25124 08014 12570 30811 10151 20067 30255 40263 52016 60001 82260 333 92437;","Q01  00002PRCP06"
"08014099999","2010-10-25T15:00:00","4","43.5666666","-5.7","6.0","GIJON MUSEL, SP","FM-12","99999","V020","090,1,N,0046,1","22000,1,9,N","020000,1,N,1","+0154,1","+0056,1","10258,1",,,,,,,,"02,99,1,01,1,01,1,00800,1,06,1,00,1",,,,,"99999,9,10250,1","8,1,005,1,+999,9",,"SYN076AAXX  25154 08014 42570 20909 10154 20056 30250 40258 58005 81160 333 92437;",
"08014099999","2010-10-25T18:00:00","4","43.5666666","-5.7","6.0","GIJON MUSEL, SP","FM-12","99999","V020","100,1,N,0041,1","09000,1,9,N","020000,1,N,1","+0141,1","+0052,1","10264,1","12,0000,9,1",,,,,,,"05,99,1,02,1,04,1,01250,1,08,1,01,1",,,,"120,M,+0160,1","99999,9,10256,1","3,1,006,1,+999,9",,"SYN088AAXX  25184 08014 12670 51008 10141 20052 30256 40264 53006 60002 82481 333 10160 92437;","Q01  00002PRCP12"
"08014099999","2010-10-26T06:00:00","4","43.5666666","-5.7","6.0","GIJON MUSEL, SP","FM-12","99999","V020","180,1,N,0010,1","22000,1,9,N","015000,1,N,1","+0086,1","+0050,1","10266,1","12,0000,9,1","24,0000,9,1",,,,,,"02,99,1,01,1,05,1,01250,1,08,1,00,1","0498,9","09,9","999,+0020,9","999,N,+0074,1","99999,9,10258,1","7,1,002,1,+999,9","02,1","SYN112AAXX  26064 08014 11665 21802 10086 20050 30258 40266 57002 60002 702// 81580 333 20074 31002 50364 55083 70000;","Q01  00002PRCP24Q02  00002PRCP12"
"08014099999","2010-10-26T09:00:00","4","43.5666666","-5.7","6.0","GIJON MUSEL, SP","FM-12","99999","V020","220,1,N,0015,1","22000,1,9,N","015000,1,N,1","+0110,1","+0031,1","10272,1",,,,,,,,"02,99,1,01,1,05,1,01250,1,08,1,01,1",,,,,"99999,9,10264,1","3,1,006,1,+999,9",,"SYN076AAXX  26094 08014 42665 22203 10110 20031 30264 40272 53006 81581 333 92437;",
"08014099999","2010-10-26T12:00:00","4","43.5666666","-5.7","6.0","GIJON MUSEL, SP","FM-12","99999","V020","090,1,N,0015,1","22000,1,9,N","020000,1,N,1","+0144,1","+0029,1","10272,1","06,0000,9,1",,,,,,,"02,99,1,00,1,00,1,99999,9,00,1,05,1",,,,,"99999,9,10264,1","4,1,000,1,+999,9",,"SYN082AAXX  26124 08014 12670 20903 10144 20029 30264 40272 54000 60001 80005 333 92437;","Q01+012502SCOLCBQ02  00002PRCP06"
"08014099999","2010-10-26T15:00:00","4","43.5666666","-5.7","6.0","GIJON MUSEL, SP","FM-12","99999","V020","080,1,N,0021,1","22000,1,9,N","025000,1,N,1","+0163,1","+0067,1","10259,1",,,,,,,,"01,99,1,00,1,00,1,99999,9,00,1,01,1",,,,,"99999,9,10251,1","8,1,013,1,+999,9",,"SYN076AAXX  26154 08014 42875 10804 10163 20067 30251 40259 58013 80001 333 92438;","Q01+022502SCOLCB"
"08014099999","2010-10-26T18:00:00","4","43.5666666","-5.7","6.0","GIJON MUSEL, SP","FM-12","99999","V020","999,9,C,0000,1","22000,1,9,N","020000,1,N,1","+0132,1","+0072,1","10261,1","12,0000,9,1",,,,,"00,1,+99999,9,99,9",,"00,99,1,00,1,00,1,99999,9,00,1,00,1",,,,"120,M,+0167,1","99999,9,10253,1","2,1,002,1,+999,9",,"SYN082AAXX  26184 08014 12970 00000 10132 20072 30253 40261 52002 60002 333 10167 92438;","Q01  00002PRCP12"
"08014099999","2010-10-27T06:00:00","4","43.5666666","-5.7","6.0","GIJON MUSEL, SP","FM-12","99999","V020","220,1,N,0046,1","22000,1,9,N","015000,1,N,1","+0110,1","+0077,1","10256,1","12,0000,9,1","24,0000,9,1",,,,,,"02,99,1,02,1,06,1,00800,1,00,1,00,1","0552,9","01,9","999,+0060,9","999,N,+0110,1","99999,9,10248,1","4,1,000,1,+999,9","02,1","SYN112AAXX  27064 08014 11565 22209 10110 20077 30248 40256 54000 60002 702// 82600 333 20110 30006 50384 55092 70000;","Q01  00002PRCP24Q02  00002PRCP12"
"08014099999","2010-10-27T09:00:00","4","43.5666666","-5.7","6.0","GIJON MUSEL, SP","FM-12","99999","V020","230,1,N,0041,1","22000,1,9,N","010000,1,N,1","+0130,1","+0068,1","10255,1",,,,,,"00,1,+99999,9,99,9",,"00,99,1,00,1,00,1,99999,9,00,1,00,1",,,,,"99999,9,10247,1","8,1,001,1,+999,9",,"SYN070AAXX  27094 08014 42960 02308 10130 20068 30247 40255 58001 333 92426;",
"08014099999","2010-10-27T12:00:00","4","43.5666666","-5.7","6.0","GIJON MUSEL, SP","FM-12","99999","V020","090,1,N,0010,1","22000,1,9,N","015000,1,N,1","+0183,1","+0094,1","10248,1","06,0000,9,1",,,,,"00,1,+99999,9,99,9",,"00,99,1,00,1,00,1,99999,9,00,1,00,1",,,,,"99999,9,10240,1","7,1,007,1,+999,9",,"SYN076AAXX  27124 08014 12965 00902 10183 20094 30240 40248 57007 60001 333 92427;","Q01  00002PRCP06"
"08014099999","2010-10-27T15:00:00","4","43.5666666","-5.7","6.0","GIJON MUSEL, SP","FM-12","99999","V020","030,1,N,0010,1","22000,1,9,N","020000,1,N,1","+0180,1","+0059,1","10245,1",,,,,,,,"03,99,1,02,1,00,1,01750,1,01,1,05,1",,,,,"99999,9,10237,1","7,1,003,1,+999,9",,"SYN076AAXX  27154 08014 42770 30302 10180 20059 30237 40245 57003 82015 333 92437;",
"08014099999","2010-10-27T18:00:00","4","43.5666666","-5.7","6.0","GIJON MUSEL, SP","FM-12","99999","V020","999,9,C,0000,1","01500,1,9,N","020000,1,N,1","+0162,1","+0105,1","10245,1","12,0000,9,1",,,,,,,"08,99,1,08,1,00,1,01750,1,07,1,99,9",,,,"120,M,+0197,1","99999,9,10237,1","4,1,000,1,+999,9",,"SYN088AAXX  27184 08014 12770 80000 10162 20105 30237 40245 54000 60002 8807/ 333 10197 92437;","Q01  00002PRCP12"
"08014099999","2010-10-28T06:00:00","4","43.5666666","-5.7","6.0","GIJON MUSEL, SP","FM-12","99999","V020","220,1,N,0031,1","22000,1,9,N","006000,1,N,1","+0132,1","+0089,1","10217,1","12,0000,9,1","24,0000,9,1",,,,"00,1,+99999,9,99,9",,"00,99,1,00,1,00,1,99999,9,00,1,00,1","0444,9","01,9","999,+0090,9","999,N,+0130,1","99999,9,10209,1","7,1,006,1,+999,9","10,1","SYN106AAXX  28064 08014 11956 02206 10132 20089 30209 40217 57006 60002 710// 333 20130 30009 50414 55074 70000;","Q01  00002PRCP24Q02  00002PRCP12"
"08014099999","2010-10-28T09:00:00","4","43.5666666","-5.7","6.0","GIJON MUSEL, SP","FM-12","99999","V020","200,1,N,0015,1","22000,1,9,N","010000,1,N,1","+0152,1","+0089,1","10215,1",,,,,,"00,1,+99999,9,99,9",,"00,99,1,00,1,00,1,99999,9,00,1,00,1",,,,,"99999,9,10207,1","7,1,002,1,+999,9",,"SYN070AAXX  28094 08014 42960 02003 10152 20089 30207 40215 57002 333 92436;",
"08014099999","2010-10-28T12:00:00","4","43.5666666","-5.7","6.0","GIJON MUSEL, SP","FM-12","99999","V020","090,1,N,0021,1","22000,1,9,N","015000,1,N,1","+0178,1","+0109,1","10206,1","06,0000,9,1",,,,,"00,1,+99999,9,99,9",,"00,99,1,00,1,00,1,99999,9,00,1,00,1",,,,,"99999,9,10198,1","7,1,009,1,+999,9",,"SYN076AAXX  28124 08014 12965 00904 10178 20109 30198 40206 57009 60001 333 92437;","Q01  00002PRCP06"
"08014099999","2010-10-28T15:00:00","4","43.5666666","-5.7","6.0","GIJON MUSEL, SP","FM-12","99999","V020","080,1,N,0021,1","22000,1,9,N","020000,1,N,1","+0182,1","+0124,1","10168,1",,,,,,"00,1,+99999,9,99,9",,"00,99,1,00,1,00,1,99999,9,00,1,00,1",,,,,"99999,9,10160,1","7,1,038,1,+999,9",,"SYN070AAXX  28154 08014 42970 00804 10182 20124 30160 40168 57038 333 92437;",
"08014099999","2010-10-28T18:00:00","4","43.5666666","-5.7","6.0","GIJON MUSEL, SP","FM-12","99999","V020","080,1,N,0021,1","22000,1,9,N","015000,1,N,1","+0166,1","+0133,1","10148,1","12,0000,9,1",,,,,,,"02,99,1,01,1,00,1,01250,1,08,1,05,1",,,,"120,M,+0188,1","99999,9,10140,1","7,1,020,1,+999,9",,"SYN088AAXX  28184 08014 12665 20804 10166 20133 30140 40148 57020 60002 81085 333 10188 92437;","Q01  00002PRCP12"
"08014099999","2010-10-29T06:00:00","4","43.5666666","-5.7","6.0","GIJON MUSEL, SP","FM-12","99999","V020","999,9,C,0000,1","00750,1,9,N","015000,1,N,1","+0151,1","+0072,1","10047,1","12,0000,9,1","24,0000,9,1",,,,,,"08,99,1,08,1,07,1,00800,1,99,9,99,9","0534,9","01,9","999,+0100,9","999,N,+0140,1","99999,9,10039,1","7,1,010,1,+999,9","02,1","SYN112AAXX  29064 08014 11565 80000 10151 20072 30039 40047 57010 60002 702// 887// 333 20140 30010 50304 55089 70000;","Q01  00002PRCP24Q02  00002PRCP12"
"08014099999","2010-10-29T09:00:00","4","43.5666666","-5.7","6.0","GIJON MUSEL, SP","FM-12","99999","V020","210,1,N,0031,1","00750,1,9,N","015000,1,N,1","+0195,1","+0005,1","10028,1",,,,,,,,"08,99,1,05,1,07,1,00800,1,07,1,00,1",,,,,"99999,9,10021,1","7,1,018,1,+999,9",,"SYN076AAXX  29094 08014 42565 82106 10195 20005 30021 40028 57018 85770 333 92437;",
"08014099999","2010-10-29T12:00:00","4","43.5666666","-5.7","6.0","GIJON MUSEL, SP","FM-12","99999","V020","260,1,N,0015,1","00750,1,9,N","006000,1,N,1","+0147,1","+0117,1","10046,1","06,0005,9,1",,,"6,1,06,1","2,1,06,1",,,"08,99,1,05,1,07,1,00800,1,07,1,99,9",,,,,"99999,9,10038,1","3,1,017,1,+999,9","60,1","SYN088AAXX  29124 08014 11556 82603 10147 20117 30038 40046 53017 69941 76062 8577/ 333 92436;",
"08014099999","2010-10-29T15:00:00","4","43.5666666","-5.7","6.0","GIJON MUSEL, SP","FM-12","99999","V020","999,9,C,0000,1","03600,1,9,N","015000,1,N,1","+0144,1","+0123,1","10023,1",,,,"6,1,03,1","2,1,03,1",,,"08,99,1,04,1,07,1,00800,1,07,1,99,9",,,,,"99999,9,10015,1","8,1,023,1,+999,9","60,1","SYN082AAXX  29154 08014 41565 80000 10144 20123 30015 40023 58023 76062 8477/ 333 92437;",
"08014099999","2010-10-29T18:00:00","4","43.5666666","-5.7","6.0","GIJON MUSEL, SP","FM-12","99999","V020","220,1,N,0021,1","00750,1,9,N","008000,1,N,1","+0142,1","+0100,1","10050,1","12,0051,9,1",,,"6,1,06,1","2,1,06,1",,,"08,99,1,06,1,07,1,00800,1,07,1,99,9",,,,"120,M,+0195,1","99999,9,10042,1","3,1,027,1,+999,9","60,1","SYN094AAXX  29184 08014 11558 82204 10142 20100 30042 40050 53027 60052 76062 8677/ 333 10195 92436;",
"08014099999","2010-10-30T06:00:00","4","43.5666666","-5.7","6.0","GIJON MUSEL, SP","FM-12","99999","V020","999,9,C,0000,1","00750,1,9,N","015000,1,N,1","+0118,1","+0061,1","10038,1","12,0000,2,1","24,0048,9,1",,,,,,"08,99,1,05,1,07,1,00800,1,07,1,99,9","0000,9","01,9","999,+0060,9","999,N,+0105,1","99999,9,10030,1","7,1,015,1,+999,9","02,1","SYN112AAXX  30064 08014 11565 80000 10118 20061 30030 40038 57015 60002 702// 8577/ 333 20105 30006 50394 55000 70048;",
"08014099999","2010-10-30T09:00:00","4","43.5666666","-5.7","6.0","GIJON MUSEL, SP","FM-12","99999","V020","999,9,C,0000,1","00750,1,9,N","015000,1,N,1","+0120,1","+0079,1","09999,1",,,,"2,1,03,1","2,1,03,1",,,"08,99,1,06,1,07,1,00800,1,07,1,99,9",,,,,"99999,9,09991,1","7,1,039,1,+999,9","60,1","SYN082AAXX  30094 08014 41565 80000 10120 20079 39991 49999 57039 76022 8677/ 333 92437;",
"08014099999","2010-10-30T12:00:00","4","43.5666666","-5.7","6.0","GIJON MUSEL, SP","FM-12","99999","V020","210,1,N,0021,1","01200,1,9,N","020000,1,N,1","+0175,1","+0064,1","09972,1","06,0000,2,1",,,"6,1,06,1","2,1,06,1",,,"07,99,1,06,1,08,1,00800,1,07,1,00,1",,,,,"99999,9,09965,1","7,1,026,1,+999,9","02,1","SYN088AAXX  30124 08014 11570 72104 10175 20064 39965 49972 57026 69911 70262 86870 333 92438;",
"08014099999","2010-10-30T15:00:00","4","43.5666666","-5.7","6.0","GIJON MUSEL, SP","FM-12","99999","V020","260,1,N,0015,1","03600,1,9,N","030000,1,N,1","+0185,1","+0057,1","09949,1",,,,,,,,"05,99,1,03,1,08,1,00800,1,03,1,00,1",,,,,"99999,9,09942,1","7,1,023,1,+999,9",,"SYN076AAXX  30154 08014 42580 52603 10185 20057 39942 49949 57023 83830 333 92438;",
"08014099999","2010-10-30T18:00:00","4","43.5666666","-5.7","6.0","GIJON MUSEL, SP","FM-12","99999","V020","230,1,N,0010,1","00750,1,9,N","030000,1,N,1","+0160,1","+0053,1","09934,1","12,0000,2,1",,,,,,,"08,99,1,05,1,07,1,00800,1,07,1,99,9",,,,"120,M,+0190,1","99999,9,09927,1","7,1,015,1,+999,9",,"SYN088AAXX  30184 08014 12580 82302 10160 20053 39927 49934 57015 69912 8577/ 333 10190 92438;",
"08014099999","2010-10-31T06:00:00","4","43.5666666","-5.7","6.0","GIJON MUSEL, SP","FM-12","99999","V020","220,1,N,0036,1","03600,1,9,N","020000,1,N,1","+0138,1","+0049,1","09926,1","12,0005,9,1","24,0005,9,1",,,,,,"06,99,1,04,1,08,1,00800,1,06,1,00,1","0084,9","09,9","999,+0080,9","999,N,+0125,1","99999,9,09918,1","2,1,012,1,+999,9","02,1","SYN112AAXX  31064 08014 11570 62207 10138 20049 39918 49926 52012 69952 702// 84860 333 20125 31008 50444 55014 70005;",
"08014099999","2010-10-31T09:00:00","4","43.5666666","-5.7","6.0","GIJON MUSEL, SP","FM-12","99999","V020","240,1,N,0036,1","03600,1,9,N","020000,1,N,1","+0144,1","+0060,1","09957,1",,,,,,,,"05,99,1,03,1,08,1,00800,1,08,1,00,1",,,,,"99999,9,09949,1","2,1,031,1,+999,9",,"SYN076AAXX  31094 08014 42570 52407 10144 20060 39949 49957 52031 83880 333 92438;",
"08014099999","2010-10-31T12:00:00","4","43.5666666","-5.7","6.0","GIJON MUSEL, SP","FM-12","99999","V020","210,1,N,0031,1","00750,1,9,N","006000,1,N,1","+0132,1","+0106,1","09979,1","06,0010,9,1",,,"6,1,06,1","2,1,06,1",,,"08,99,1,06,1,07,1,00800,1,07,1,99,9",,,,,"99999,9,09971,1","2,1,022,1,+999,9","63,1","SYN088AAXX  31124 08014 11556 82106 10132 20106 39971 49979 52022 60011 76362 8677/ 333 92436;",
"08014099999","2010-10-31T15:00:00","4","43.5666666","-5.7","6.0","GIJON MUSEL, SP","FM-12","99999","V020","170,1,N,0021,1","00750,1,9,N","006000,1,N,1","+0141,1","+0116,1","09993,1",,,,"8,1,03,1","2,1,03,1",,,"08,99,1,06,1,07,1,00800,1,07,1,99,9",,,,,"99999,9,09985,1","2,1,014,1,+999,9","25,1","SYN082AAXX  31154 08014 41556 81704 10141 20116 39985 49993 52014 72582 8677/ 333 92436;",
"08014099999","2010-10-31T18:00:00","4","43.5666666","-5.7","6.0","GIJON MUSEL, SP","FM-12","99999","V020","110,1,N,0015,1","00750,1,9,N","020000,1,N,1","+0152,1","+0131,1","10027,1","12,0099,9,1",,,"8,1,06,1","2,1,06,1",,,"08,99,1,06,1,07,1,00800,1,07,1,99,9",,,,"120,M,+0152,1","99999,9,10019,1","2,1,034,1,+999,9","25,1","SYN094AAXX  31184 08014 11570 81103 10152 20131 30019 40027 52034 60102 72582 8677/ 333 10152 92436;",
"08014099999","2010-11-01T06:00:00","4","43.5666666","-5.7","6.0","GIJON MUSEL, SP","FM-12","99999","V020","200,1,N,0005,1","03600,1,9,N","010000,1,N,1","+0145,1","+0135,1","10157,1","12,0221,9,1","24,0424,9,1",,,,,,"06,99,1,04,1,02,1,00450,1,06,1,00,1","0000,9","11,9","999,+0110,9","999,N,+0130,1","99999,9,10149,1","2,1,015,1,+999,9","25,1","SYN112AAXX  01064 08014 11460 62001 10145 20135 30149 40157 52015 60222 725// 84260 333 20130 32011 50254 55000 70423;",
"08014099999","2010-11-01T09:00:00","4","43.5666666","-5.7","6.0","GIJON MUSEL, SP","FM-12","99999","V020","040,1,N,0051,1","00420,1,9,N","006000,1,N,1","+0150,1","+0129,1","10187,1",,,,"6,1,03,1","2,1,03,1",,,"07,99,1,05,1,02,1,00450,1,06,1,00,1",,,,,"99999,9,10179,1","2,1,030,1,+999,9","60,1","SYN082AAXX  01094 08014 41456 70410 10150 20129 30179 40187 52030 76062 85260 333 92436;",
"08014099999","2010-11-01T12:00:00","4","43.5666666","-5.7","6.0","GIJON MUSEL, SP","FM-12","99999","V020","010,1,N,0021,1","00750,1,9,N","010000,1,N,1","+0151,1","+0128,1","10201,1","06,0020,9,1",,,"6,1,06,1","2,1,06,1",,,"08,99,1,06,1,07,1,00800,1,07,1,99,9",,,,,"99999,9,10193,1","2,1,014,1,+999,9","60,1","SYN088AAXX  01124 08014 11560 80104 10151 20128 30193 40201 52014 60021 76062 8677/ 333 92437;",
"08014099999","2010-11-01T15:00:00","4","43.5666666","-5.7","6.0","GIJON MUSEL, SP","FM-12","99999","V020","040,1,N,0021,1","03600,1,9,N","020000,1,N,1","+0160,1","+0127,1","10204,1",,,,"6,1,03,1","2,1,03,1",,,"05,99,1,03,1,02,1,00450,1,06,1,01,1",,,,,"99999,9,10196,1","2,1,003,1,+999,9","01,1","SYN082AAXX  01154 08014 41470 50404 10160 20127 30196 40204 52003 70162 83261 333 92438;",
"08014099999","2010-11-01T18:00:00","4","43.5666666","-5.7","6.0","GIJON MUSEL, SP","FM-12","99999","V020","999,9,C,0000,1","03600,1,9,N","020000,1,N,1","+0152,1","+0123,1","10221,1","12,0041,9,1",,,"6,1,06,1","2,1,06,1",,,"06,99,1,04,1,02,1,00800,1,06,1,00,1",,,,"120,M,+0161,1","99999,9,10213,1","2,1,017,1,+999,9","02,1","SYN094AAXX  01184 08014 11570 60000 10152 20123 30213 40221 52017 60042 70262 84260 333 10161 92438;",
"08014099999","2010-11-02T06:00:00","4","43.5666666","-5.7","6.0","GIJON MUSEL, SP","FM-12","99999","V020","220,1,N,0041,1","03600,1,9,N","015000,1,N,1","+0116,1","+0092,1","10239,1","12,0000,9,1","24,0038,9,1",,,,,,"06,99,1,04,1,08,1,00800,1,06,1,00,1","0048,9","09,9","999,+0080,9","999,N,+0115,1","99999,9,10231,1","2,1,002,1,+999,9","02,1","SYN112AAXX  02064 08014 11565 62208 10116 20092 30231 40239 52002 60002 702// 84860 333 20115 31008 50214 55008 70037;","Q01  00002PRCP12"
"08014099999","2010-11-02T09:00:00","4","43.5666666","-5.7","6.0","GIJON MUSEL, SP","FM-12","99999","V020","230,1,N,0036,1","01200,1,9,N","020000,1,N,1","+0128,1","+0091,1","10245,1",,,,,,,,"08,99,1,06,1,08,1,00800,1,03,1,99,9",,,,,"99999,9,10237,1","2,1,006,1,+999,9",,"SYN076AAXX  02094 08014 42570 82307 10128 20091 30237 40245 52006 8683/ 333 92437;",
"08014099999","2010-11-02T12:00:00","4","43.5666666","-5.7","6.0","GIJON MUSEL, SP","FM-12","99999","V020","220,1,N,0031,1","22000,1,9,N","020000,1,N,1","+0180,1","+0088,1","10235,1","06,0000,9,1",,,,,,,"04,99,1,03,1,08,1,00800,1,03,1,00,1",,,,,"99999,9,10227,1","7,1,010,1,+999,9",,"SYN082AAXX  02124 08014 12570 42206 10180 20088 30227 40235 57010 60001 83830 333 92438;","Q01  00002PRCP06"
"08014099999","2010-11-02T15:00:00","4","43.5666666","-5.7","6.0","GIJON MUSEL, SP","FM-12","99999","V020","040,1,N,0015,1","22000,1,9,N","020000,1,N,1","+0186,1","+0126,1","10223,1",,,,,,,,"03,99,1,02,1,00,1,01250,1,03,1,01,1",,,,,"99999,9,10215,1","7,1,012,1,+999,9",,"SYN076AAXX  02154 08014 42670 30403 10186 20126 30215 40223 57012 82031 333 92438;",
"08014099999","2010-11-02T18:00:00","4","43.5666666","-5.7","6.0","GIJON MUSEL, SP","FM-12","99999","V020","999,9,C,0000,1","03600,1,9,N","020000,1,N,1","+0175,1","+0130,1","10235,1","12,0000,9,1",,,,,,,"08,99,1,03,1,08,1,00800,1,02,1,99,9",,,,"120,M,+0197,1","99999,9,10227,1","3,1,012,1,+999,9",,"SYN088AAXX  02184 08014 12570 80000 10175 20130 30227 40235 53012 60002 8382/ 333 10197 92438;","Q01  00002PRCP12"
"08014099999","2010-11-03T06:00:00","4","43.5666666","-5.7","6.0","GIJON MUSEL, SP","FM-12","99999","V020","220,1,N,0031,1","22000,1,9,N","012000,1,N,1","+0136,1","+0108,1","10240,1","12,0000,9,1","24,0000,9,1",,,,,,"02,99,1,01,1,06,1,00800,1,01,1,00,1","0366,9","01,9","999,+0100,9","999,N,+0135,1","99999,9,10232,1","2,1,002,1,+999,9","02,1","SYN112AAXX  03064 08014 11562 22206 10136 20108 30232 40240 52002 60002 702// 81610 333 20135 30010 50384 55061 70000;","Q01  00002PRCP24Q02  00002PRCP12"
"08014099999","2010-11-03T09:00:00","4","43.5666666","-5.7","6.0","GIJON MUSEL, SP","FM-12","99999","V020","220,1,N,0036,1","22000,1,9,N","012000,1,N,1","+0150,1","+0096,1","10260,1",,,,,,,,"03,99,1,01,1,01,1,00800,1,08,1,01,1",,,,,"99999,9,10252,1","2,1,020,1,+999,9",,"SYN076AAXX  03094 08014 42562 32207 10150 20096 30252 40260 52020 81181 333 92447;",
"08014099999","2010-11-03T12:00:00","4","43.5666666","-5.7","6.0","GIJON MUSEL, SP","FM-12","99999","V020","240,1,N,0010,1","22000,1,9,N","015000,1,N,1","+0194,1","+0112,1","10264,1","06,0000,9,1",,,,,,,"03,99,1,01,1,06,1,00800,1,04,1,01,1",,,,,"99999,9,10256,1","2,1,004,1,+999,9",,"SYN082AAXX  03124 08014 12565 32402 10194 20112 30256 40264 52004 60001 81641 333 92447;","Q01  00002PRCP06"
"08014099999","2010-11-03T15:00:00","4","43.5666666","-5.7","6.0","GIJON MUSEL, SP","FM-12","99999","V020","320,1,N,0010,1","00750,1,9,N","015000,1,N,1","+0195,1","+0134,1","10261,1",,,,,,,,"08,99,1,06,1,06,1,00800,1,01,1,99,9",,,,,"99999,9,10253,1","8,1,003,1,+999,9",,"SYN076AAXX  03154 08014 42565 83202 10195 20134 30253 40261 58003 8661/ 333 92447;",
"08014099999","2010-11-03T18:00:00","4","43.5666666","-5.7","6.0","GIJON MUSEL, SP","FM-12","99999","V020","999,9,C,0000,1","00750,1,9,N","015000,1,N,1","+0180,1","+0137,1","10272,1","12,0000,9,1",,,,,,,"08,99,1,06,1,06,1,00800,1,01,1,99,9",,,,"120,M,+0211,1","99999,9,10264,1","3,1,011,1,+999,9",,"SYN088AAXX  03184 08014 12565 80000 10180 20137 30264 40272 53011 60002 8661/ 333 10211 92447;","Q01  00002PRCP12"
"08014099999","2010-11-04T06:00:00","4","43.5666666","-5.7","6.0","GIJON MUSEL, SP","FM-12","99999","V020","210,1,N,0015,1","00750,1,9,N","006000,1,N,1","+0150,1","+0132,1","10289,1","12,0000,9,1","24,0000,9,1",,,,,,"07,99,1,05,1,06,1,00800,1,01,1,00,1","0288,9","01,9","999,+0120,9","999,N,+0150,1","99999,9,10281,1","4,1,000,1,+999,9","10,1","SYN112AAXX  04064 08014 11556 72103 10150 20132 30281 40289 54000 60002 710// 85610 333 20150 30012 50294 55048 70000;","Q01  00002PRCP24Q02  00002PRCP12"
"08014099999","2010-11-04T12:00:00","4","43.5666666","-5.7","6.0","GIJON MUSEL, SP","FM-12","99999","V020","100,1,N,0010,1","00750,1,9,N","006000,1,N,1","+0181,1","+0144,1","10306,1","06,0000,9,1",,,"2,1,06,1","2,1,06,1",,,"07,99,1,05,1,06,1,00800,1,01,1,00,1",,,,,"99999,9,10298,1","8,1,003,1,+999,9","10,1","SYN088AAXX  04124 08014 11556 71002 10181 20144 30298 40306 58003 60001 71022 85610 333 92446;","Q01  00002PRCP06"
"08014099999","2010-11-04T15:00:00","4","43.5666666","-5.7","6.0","GIJON MUSEL, SP","FM-12","99999","V020","040,1,N,0026,1","22000,1,9,N","010000,1,N,1","+0172,1","+0135,1","10293,1",,,,,,,,"03,99,1,02,1,06,1,00450,1,03,1,00,1",,,,,"99999,9,10285,1","7,1,013,1,+999,9",,"SYN076AAXX  04154 08014 42460 30405 10172 20135 30285 40293 57013 82630 333 92446;",
"08014099999","2010-11-04T18:00:00","4","43.5666666","-5.7","6.0","GIJON MUSEL, SP","FM-12","99999","V020","060,1,N,0015,1","22000,1,9,N","010000,1,N,1","+0165,1","+0149,1","10293,1","12,0000,9,1",,,,,,,"01,99,1,01,1,06,1,00800,1,00,1,00,1",,,,"120,M,+0185,1","99999,9,10285,1","4,1,000,1,+999,9",,"SYN088AAXX  04184 08014 12560 10603 10165 20149 30285 40293 54000 60002 81600 333 10185 92446;","Q01  00002PRCP12"
"08014099999","2010-11-05T06:00:00","4","43.5666666","-5.7","6.0","GIJON MUSEL, SP","FM-12","99999","V020","220,1,N,0015,1","00420,1,9,N","008000,1,N,1","+0154,1","+0139,1","10283,1","12,0000,9,1","24,0000,9,1",,"2,1,06,1","2,1,06,1",,,"08,99,1,08,1,06,1,00450,1,99,9,99,9","0120,9","09,9","999,+0140,9","999,N,+0154,1","99999,9,10275,1","6,1,005,1,+999,9","10,1","SYN112AAXX  05064 08014 11458 82203 10154 20139 30275 40283 56005 60002 71022 886// 333 20154 31014 50154 55020 70000;","Q01  00002PRCP24Q02  00002PRCP12"
"08014099999","2010-11-05T09:00:00","4","43.5666666","-5.7","6.0","GIJON MUSEL, SP","FM-12","99999","V020","220,1,N,0021,1","00750,1,9,N","008000,1,N,1","+0152,1","+0134,1","10287,1",,,,"2,1,03,1","2,1,03,1",,,"08,99,1,08,1,06,1,00800,1,99,9,99,9",,,,,"99999,9,10279,1","1,1,004,1,+999,9","10,1","SYN082AAXX  05094 08014 41558 82204 10152 20134 30279 40287 51004 71022 886// 333 92436;",
"08014099999","2010-11-05T12:00:00","4","43.5666666","-5.7","6.0","GIJON MUSEL, SP","FM-12","99999","V020","080,1,N,0010,1","00750,1,9,N","008000,1,N,1","+0172,1","+0141,1","10276,1","06,0000,9,1",,,"2,1,06,1","2,1,06,1",,,"06,99,1,06,1,05,1,00800,1,00,1,00,1",,,,,"99999,9,10268,1","8,1,011,1,+999,9","10,1","SYN088AAXX  05124 08014 11558 60802 10172 20141 30268 40276 58011 60001 71022 86500 333 92436;","Q01  00002PRCP06"
"08014099999","2010-11-05T15:00:00","4","43.5666666","-5.7","6.0","GIJON MUSEL, SP","FM-12","99999","V020","070,1,N,0015,1","00750,1,9,N","010000,1,N,1","+0172,1","+0145,1","10264,1",,,,,,,,"06,99,1,06,1,05,1,00800,1,00,1,00,1",,,,,"99999,9,10256,1","6,1,012,1,+999,9",,"SYN076AAXX  05154 08014 42560 60703 10172 20145 30256 40264 56012 86500 333 92436;",
"08014099999","2010-11-05T18:00:00","4","43.5666666","-5.7","6.0","GIJON MUSEL, SP","FM-12","99999","V020","110,1,N,0015,1","00750,1,9,N","008000,1,N,1","+0168,1","+0135,1","10260,1","12,0000,9,1",,,"2,1,06,1","2,1,06,1",,,"06,99,1,06,1,05,1,00800,1,00,1,00,1",,,,"120,M,+0186,1","99999,9,10252,1","8,1,004,1,+999,9","10,1","SYN094AAXX  05184 08014 11558 61103 10168 20135 30252 40260 58004 60002 71022 86500 333 10186 92436;","Q01  00002PRCP12"
"08014099999","2010-11-06T06:00:00","4","43.5666666","-5.7","6.0","GIJON MUSEL, SP","FM-12","99999","V020","999,9,C,0000,1","03600,1,9,N","010000,1,N,1","+0144,1","+0126,1","10244,1","12,0000,9,1","24,0000,9,1",,,,,,"08,99,1,04,1,06,1,00800,1,01,1,99,9","0000,9","01,9","999,+0130,9","999,N,+0138,1","99999,9,10236,1","6,1,001,1,+999,9","02,1","SYN112AAXX  06064 08014 11560 80000 10144 20126 30236 40244 56001 60002 702// 8461/ 333 20138 30013 50154 55000 70000;","Q01  00002PRCP24Q02  00002PRCP12"
"08014099999","2010-11-06T09:00:00","4","43.5666666","-5.7","6.0","GIJON MUSEL, SP","FM-12","99999","V020","230,1,N,0041,1","00750,1,9,N","008000,1,N,1","+0142,1","+0119,1","10243,1",,,,"4,1,03,1","2,1,03,1",,,"08,99,1,05,1,04,1,00800,1,01,1,99,9",,,,,"99999,9,10235,1","7,1,001,1,+999,9","10,1","SYN082AAXX  06094 08014 41558 82308 10142 20119 30235 40243 57001 71042 8541/ 333 92437;",
"08014099999","2010-11-06T12:00:00","4","43.5666666","-5.7","6.0","GIJON MUSEL, SP","FM-12","99999","V020","230,1,N,0021,1","00750,1,9,N","009000,1,N,1","+0168,1","+0125,1","10228,1","06,0000,9,1",,,"4,1,06,1","4,1,06,1",,,"08,99,1,05,1,06,1,00800,1,01,1,99,9",,,,,"99999,9,10220,1","7,1,015,1,+999,9","10,1","SYN088AAXX  06124 08014 11559 82304 10168 20125 30220 40228 57015 60001 71044 8561/ 333 92427;","Q01  00002PRCP06"
"08014099999","2010-11-06T15:00:00","4","43.5666666","-5.7","6.0","GIJON MUSEL, SP","FM-12","99999","V020","030,1,N,0015,1","00750,1,9,N","010000,1,N,1","+0164,1","+0139,1","10210,1",,,,,,,,"08,99,1,05,1,06,1,00800,1,01,1,99,9",,,,,"99999,9,10202,1","7,1,018,1,+999,9",,"SYN076AAXX  06154 08014 42560 80303 10164 20139 30202 40210 57018 8561/ 333 92437;",
"08014099999","2010-11-06T18:00:00","4","43.5666666","-5.7","6.0","GIJON MUSEL, SP","FM-12","99999","V020","220,1,N,0021,1","00750,1,9,N","010000,1,N,1","+0154,1","+0129,1","10204,1","12,0000,9,1",,,"5,1,06,1","2,1,06,1",,,"08,99,1,05,1,07,1,00800,1,01,1,99,9",,,,"120,M,+0175,1","99999,9,10196,1","7,1,006,1,+999,9","02,1","SYN094AAXX  06184 08014 11560 82204 10154 20129 30196 40204 57006 69902 70252 8571/ 333 10175 92437;","Q01  00002PRCP12"
"08014099999","2010-11-07T06:00:00","4","43.5666666","-5.7","6.0","GIJON MUSEL, SP","FM-12","99999","V020","030,1,N,0041,1","03600,1,9,N","010000,1,N,1","+0142,1","+0063,1","10165,1","12,0089,9,1","24,0091,9,1",,,,,,"08,99,1,04,1,04,1,00800,1,01,1,99,9","0000,9","11,9","999,+0100,9","999,N,+0124,1","99999,9,10157,1","7,1,003,1,+999,9","02,1","SYN112AAXX  07064 08014 11560 80308 10142 20063 30157 40165 57003 60092 702// 8441/ 333 20124 32010 50244 55000 70091;",
"08014099999","2010-11-07T09:00:00","4","43.5666666","-5.7","6.0","GIJON MUSEL, SP","FM-12","99999","V020","200,1,N,0036,1","00750,1,9,N","013000,1,N,1","+0112,1","+0091,1","10170,1",,,,"8,1,03,1","8,1,03,1",,,"08,99,1,05,1,07,1,00800,1,07,1,99,9",,,,,"99999,9,10162,1","2,1,005,1,+999,9","02,1","SYN082AAXX  07094 08014 41563 82007 10112 20091 30162 40170 52005 70288 8577/ 333 92438;",
"08014099999","2010-11-07T12:00:00","4","43.5666666","-5.7","6.0","GIJON MUSEL, SP","FM-12","99999","V020","030,1,N,0046,1","00750,1,9,N","015000,1,N,1","+0136,1","+0069,1","10156,1","06,0020,9,1",,,"8,1,06,1","8,1,06,1",,,"07,99,1,05,1,02,1,00800,1,03,1,99,9",,,,,"99999,9,10148,1","7,1,014,1,+999,9","02,1","SYN088AAXX  07124 08014 11565 70309 10136 20069 30148 40156 57014 60021 70288 8523/ 333 92438;",
"08014099999","2010-11-07T15:00:00","4","43.5666666","-5.7","6.0","GIJON MUSEL, SP","FM-12","99999","V020","230,1,N,0026,1","00750,1,9,N","020000,1,N,1","+0128,1","+0079,1","10136,1",,,,"8,1,03,1","8,1,03,1",,,"07,99,1,05,1,02,1,00800,1,03,1,99,9",,,,,"99999,9,10128,1","7,1,020,1,+999,9","02,1","SYN082AAXX  07154 08014 41570 72305 10128 20079 30128 40136 57020 70288 8523/ 333 92438;",
"08014099999","2010-11-07T18:00:00","4","43.5666666","-5.7","6.0","GIJON MUSEL, SP","FM-12","99999","V020","210,1,N,0031,1","00750,1,9,N","020000,1,N,1","+0106,1","+0077,1","10128,1","12,0051,9,1",,,"8,1,06,1","2,1,06,1",,,"07,99,1,05,1,02,1,00800,1,06,1,99,9",,,,"120,M,+0142,1","99999,9,10120,1","7,1,008,1,+999,9","81,1","SYN094AAXX  07184 08014 11570 72106 10106 20077 30120 40128 57008 60052 78182 8526/ 333 10142 92438;",
"08014099999","2010-11-08T06:00:00","4","43.5666666","-5.7","6.0","GIJON MUSEL, SP","FM-12","99999","V020","240,1,N,0077,1","00750,1,9,N","015000,1,N,1","+0148,1","+0051,1","09933,1","12,0008,9,1","24,0061,9,1",,,,,,"07,99,1,05,1,04,1,00800,1,03,1,99,9","0054,9","09,9","999,+0060,9","999,N,+0094,1","99999,9,09925,1","7,1,033,1,+999,9","02,1","SYN112AAXX  08064 08014 11565 72415 10148 20051 39925 49933 57033 69982 702// 8543/ 333 20094 31006 50464 55009 70062;",
"08014099999","2010-11-08T09:00:00","4","43.5666666","-5.7","6.0","GIJON MUSEL, SP","FM-12","99999","V020","240,1,N,0087,1","00750,1,9,N","020000,1,N,1","+0150,1","+0087,1","09901,1",,,,"2,1,03,1","2,1,03,1",,,"08,99,1,06,1,02,1,00800,1,06,1,99,9",,,,,"99999,9,09894,1","7,1,031,1,+999,9","60,1","SYN082AAXX  08094 08014 41570 82417 10150 20087 39894 49901 57031 76022 8626/ 333 92448;",
"08014099999","2010-11-08T12:00:00","4","43.5666666","-5.7","6.0","GIJON MUSEL, SP","FM-12","99999","V020","150,1,N,0031,1","00420,1,9,N","008000,1,N,1","+0128,1","+0105,1","09895,1","06,0099,9,1",,,"8,1,06,1","6,1,06,1",,,"08,99,1,06,1,02,1,00450,1,07,1,99,9",,,,,"99999,9,09887,1","7,1,007,1,+999,9","81,1","SYN088AAXX  08124 08014 11458 81506 10128 20105 39887 49895 57007 60101 78186 8627/ 333 92447;",
"08014099999","2010-11-08T15:00:00","4","43.5666666","-5.7","6.0","GIJON MUSEL, SP","FM-12","99999","V020","170,1,N,0036,1","00750,1,9,N","015000,1,N,1","+0124,1","+0071,1","09881,1",,,,"8,1,03,1","6,1,03,1",,,"08,99,1,06,1,02,1,00800,1,07,1,99,9",,,,,"99999,9,09873,1","7,1,014,1,+999,9","81,1","SYN082AAXX  08154 08014 41565 81707 10124 20071 39873 49881 57014 78186 8627/ 333 92447;",
"08014099999","2010-11-08T18:00:00","4","43.5666666","-5.7","6.0","GIJON MUSEL, SP","FM-12","99999","V020","210,1,N,0057,1","00750,1,9,N","015000,1,N,1","+0128,1","+0070,1","09875,1","12,0239,9,1",,,"8,1,06,1","6,1,06,1",,,"08,99,1,06,1,02,1,00800,1,06,1,99,9",,,,"120,M,+0157,1","99999,9,09867,1","7,1,006,1,+999,9","02,1","SYN094AAXX  08184 08014 11565 82111 10128 20070 39867 49875 57006 60242 70286 8626/ 333 10157 92447;",
"08014099999","2010-11-09T06:00:00","4","43.5666666","-5.7","6.0","GIJON MUSEL, SP","FM-12","99999","V020","220,1,N,0046,1","00750,1,9,N","010000,1,N,1","+0118,1","+0038,1","09835,1","12,0079,9,1","24,0323,9,1",,,,,,"08,99,1,05,1,09,1,00800,1,06,1,99,9","0066,9","11,9","999,+0060,9","999,N,+0103,1","99999,9,09827,1","7,1,009,1,+999,9","29,1","SYN112AAXX  09064 08014 11560 82209 10118 20038 39827 49835 57009 60082 729// 8596/ 333 20103 32006 50604 55011 70322;",
"08014099999","2010-11-09T09:00:00","4","43.5666666","-5.7","6.0","GIJON MUSEL, SP","FM-12","99999","V020","210,1,N,0046,1","00750,1,9,N","015000,1,N,1","+0106,1","+0060,1","09843,1",,,,"8,1,03,1","6,1,03,1",,,"08,99,1,06,1,09,1,00800,1,06,1,99,9",,,,,"99999,9,09835,1","2,1,008,1,+999,9","62,1","SYN082AAXX  09094 08014 41565 82109 10106 20060 39835 49843 52008 76286 8696/ 333 92458;",
"08014099999","2010-11-09T12:00:00","4","43.5666666","-5.7","6.0","GIJON MUSEL, SP","FM-12","99999","V020","240,1,N,0051,1","00750,1,9,N","015000,1,N,1","+0122,1","+0065,1","09848,1","06,0041,9,1",,,"8,1,06,1","8,1,06,1",,,"08,99,1,06,1,09,1,00800,1,06,1,99,9",,,,,"99999,9,09840,1","2,1,005,1,+999,9","81,1","SYN088AAXX  09124 08014 11565 82410 10122 20065 39840 49848 52005 60041 78188 8696/ 333 92458;",
"08014099999","2010-11-09T15:00:00","4","43.5666666","-5.7","6.0","GIJON MUSEL, SP","FM-12","99999","V020","240,1,N,0057,1","00750,1,9,N","015000,1,N,1","+0118,1","+0063,1","09850,1",,,,"8,1,03,1","2,1,03,1",,,"08,99,1,06,1,02,1,00800,1,06,1,99,9",,,,,"99999,9,09842,1","2,1,002,1,+999,9","62,1","SYN082AAXX  09154 08014 41565 82411 10118 20063 39842 49850 52002 76282 8626/ 333 92448;",
"08014099999","2010-11-09T18:00:00","4","43.5666666","-5.7","6.0","GIJON MUSEL, SP","FM-12","99999","V020","240,1,N,0051,1","00750,1,9,N","015000,1,N,1","+0104,1","+0080,1","09876,1","12,0130,9,1",,,"9,1,06,1","8,1,06,1",,,"08,99,1,06,1,09,1,00800,1,06,1,99,9",,,,"120,M,+0128,1","99999,9,09868,1","2,1,026,1,+999,9","95,1","SYN094AAXX  09184 08014 11565 82410 10104 20080 39868 49876 52026 60132 79598 8696/ 333 10128 92457;",
"08014099999","2010-11-10T06:00:00","4","43.5666666","-5.7","6.0","GIJON MUSEL, SP","FM-12","99999","V020","170,1,N,0026,1","00750,1,9,N","015000,1,N,1","+0108,1","+0079,1","10006,1","12,0201,9,1","24,0358,9,1",,,,,,"08,99,1,05,1,09,1,00800,1,06,1,99,9","0090,9","11,9","999,+0060,9","999,N,+0090,1","99999,9,09998,1","2,1,017,1,+999,9","29,1","SYN112AAXX  10064 08014 11565 81705 10108 20079 39998 40006 52017 60202 729// 8596/ 333 20090 32006 50464 55015 70358;",
"08014099999","2010-11-10T09:00:00","4","43.5666666","-5.7","6.0","GIJON MUSEL, SP","FM-12","99999","V020","200,1,N,0015,1","00750,1,9,N","013000,1,N,1","+0118,1","+0063,1","10060,1",,,,"9,1,03,1","6,1,03,1",,,"07,99,1,05,1,02,1,00800,1,06,1,99,9",,,,,"99999,9,10052,1","2,1,054,1,+999,9","02,1","SYN082AAXX  10094 08014 41563 72003 10118 20063 30052 40060 52054 70296 8526/ 333 92448;",
"08014099999","2010-11-10T12:00:00","4","43.5666666","-5.7","6.0","GIJON MUSEL, SP","FM-12","99999","V020","200,1,N,0031,1","03600,1,9,N","020000,1,N,1","+0122,1","+0087,1","10091,1","06,0061,9,1",,,"8,1,06,1","2,1,06,1",,,"07,99,1,04,1,02,1,00800,1,06,1,99,9",,,,,"99999,9,10083,1","2,1,031,1,+999,9","02,1","SYN088AAXX  10124 08014 11570 72006 10122 20087 30083 40091 52031 60061 70282 8426/ 333 92448;",
"08014099999","2010-11-10T15:00:00","4","43.5666666","-5.7","6.0","GIJON MUSEL, SP","FM-12","99999","V020","240,1,N,0041,1","03600,1,9,N","030000,1,N,1","+0136,1","+0069,1","10105,1",,,,,,,,"06,99,1,04,1,02,1,00800,1,03,1,99,9",,,,,"99999,9,10097,1","2,1,014,1,+999,9",,"SYN076AAXX  10154 08014 42580 62408 10136 20069 30097 40105 52014 8423/ 333 92448;",
"08014099999","2010-11-10T18:00:00","4","43.5666666","-5.7","6.0","GIJON MUSEL, SP","FM-12","99999","V020","200,1,N,0021,1","22000,1,9,N","030000,1,N,1","+0124,1","+0065,1","10125,1","12,0061,9,1",,,,,,,"03,99,1,02,1,04,1,00800,1,03,1,00,1",,,,"120,M,+0151,1","99999,9,10117,1","2,1,020,1,+999,9",,"SYN088AAXX  10184 08014 12580 32004 10124 20065 30117 40125 52020 60062 82430 333 10151 92438;",
"08014099999","2010-11-11T06:00:00","4","43.5666666","-5.7","6.0","GIJON MUSEL, SP","FM-12","99999","V020","200,1,N,0026,1","00750,1,9,N","015000,1,N,1","+0118,1","+0043,1","10144,1","12,0061,9,2","24,0056,9,2",,,,,,"07,99,1,05,1,04,1,00800,1,03,1,99,9","0348,9","09,9","999,+0060,9","999,N,+0095,1","99999,9,10136,1","7,1,005,1,+999,9","02,1","SYN112AAXX  11064 08014 11565 72005 10118 20043 30136 40144 57005 60062 702// 8543/ 333 20095 31006 50444 55058 70055;",
"08014099999","2010-11-11T09:00:00","4","43.5666666","-5.7","6.0","GIJON MUSEL, SP","FM-12","99999","V020","210,1,N,0021,1","03600,1,9,N","020000,1,N,1","+0146,1","+0062,1","10149,1",,,,,,,,"08,99,1,04,1,04,1,00800,1,05,1,99,9",,,,,"99999,9,10141,1","2,1,005,1,+999,9",,"SYN076AAXX  11094 08014 42570 82104 10146 20062 30141 40149 52005 8445/ 333 92438;",
"08014099999","2010-11-11T12:00:00","4","43.5666666","-5.7","6.0","GIJON MUSEL, SP","FM-12","99999","V020","250,1,N,0036,1","01200,1,9,N","020000,1,N,1","+0178,1","+0084,1","10146,1","06,0000,9,1",,,,,,,"08,99,1,05,1,08,1,00800,1,05,1,99,9",,,,,"99999,9,10138,1","7,1,003,1,+999,9",,"SYN082AAXX  11124 08014 12570 82507 10178 20084 30138 40146 57003 60001 8585/ 333 92438;","Q01  00002PRCP06"
"08014099999","2010-11-11T15:00:00","4","43.5666666","-5.7","6.0","GIJON MUSEL, SP","FM-12","99999","V020","240,1,N,0051,1","01200,1,9,N","020000,1,N,1","+0192,1","+0085,1","10141,1",,,,,,,,"08,99,1,05,1,08,1,00800,1,05,1,99,9",,,,,"99999,9,10133,1","7,1,005,1,+999,9",,"SYN076AAXX  11154 08014 42570 82410 10192 20085 30133 40141 57005 8585/ 333 92438;",
"08014099999","2010-11-11T18:00:00","4","43.5666666","-5.7","6.0","GIJON MUSEL, SP","FM-12","99999","V020","230,1,N,0046,1","03600,1,9,N","015000,1,N,1","+0188,1","+0085,1","10148,1","12,0000,9,1",,,,,,,"07,99,1,03,1,04,1,00800,1,05,1,99,9",,,,"120,M,+0193,1","99999,9,10140,1","2,1,007,1,+999,9",,"SYN088AAXX  11184 08014 12565 72309 10188 20085 30140 40148 52007 60002 8345/ 333 10193 92438;","Q01  00002PRCP12"
"08014099999","2010-11-12T06:00:00","4","43.5666666","-5.7","6.0","GIJON MUSEL, SP","FM-12","99999","V020","180,1,N,0021,1","22000,1,9,N","020000,1,N,1","+0158,1","+0078,1","10170,1","12,0000,9,1","24,0000,9,1",,,,,,"02,99,1,01,1,05,1,00800,1,04,1,00,1","0000,9","01,9","999,+0130,9","999,N,+0158,1","99999,9,10162,1","1,1,003,1,+999,9",,"SYN106AAXX  12064 08014 12570 21804 10158 20078 30162 40170 51003 60002 81540 333 20158 30013 50864 55000 70000;","Q01  00002PRCP24Q02  00002PRCP12"
"08014099999","2010-11-12T09:00:00","4","43.5666666","-5.7","6.0","GIJON MUSEL, SP","FM-12","99999","V020","230,1,N,0026,1","22000,1,9,N","030000,1,N,1","+0178,1","+0075,1","10173,1",,,,,,,,"01,99,1,01,1,00,1,01750,1,04,1,01,1",,,,,"99999,9,10165,1","3,1,003,1,+999,9",,"SYN076AAXX  12094 08014 42780 12305 10178 20075 30165 40173 53003 81041 333 92448;",
"08014099999","2010-11-12T12:00:00","4","43.5666666","-5.7","6.0","GIJON MUSEL, SP","FM-12","99999","V020","100,1,N,0026,1","22000,1,9,N","030000,1,N,1","+0190,1","+0130,1","10160,1","06,0000,9,1",,,,,,,"02,99,1,01,1,00,1,01750,1,04,1,01,1",,,,,"99999,9,10152,1","8,1,013,1,+999,9",,"SYN082AAXX  12124 08014 12780 21005 10190 20130 30152 40160 58013 60001 81041 333 92448;","Q01  00002PRCP06"
"08014099999","2010-11-12T15:00:00","4","43.5666666","-5.7","6.0","GIJON MUSEL, SP","FM-12","99999","V020","070,1,N,0010,1","22000,1,9,N","005000,1,N,1","+0188,1","+0128,1","10143,1",,,,"0,1,03,1","0,1,03,1",,,"01,99,1,00,1,00,1,99999,9,00,1,01,1",,,,,"99999,9,10135,1","8,1,017,1,+999,9","05,1","SYN082AAXX  12154 08014 41950 10702 10188 20128 30135 40143 58017 70500 80001 333 92446;",
"08014099999","2010-11-12T18:00:00","4","43.5666666","-5.7","6.0","GIJON MUSEL, SP","FM-12","99999","V020","100,1,N,0010,1","22000,1,9,N","015000,1,N,1","+0166,1","+0126,1","10137,1","12,0000,9,1",,,,,,,"01,99,1,01,1,00,1,01750,1,04,1,01,1",,,,"120,M,+0228,1","99999,9,10129,1","6,1,006,1,+999,9",,"SYN088AAXX  12184 08014 12765 11002 10166 20126 30129 40137 56006 60002 81041 333 10228 92447;","Q01  00002PRCP12"
"08014099999","2010-11-13T06:00:00","4","43.5666666","-5.7","6.0","GIJON MUSEL, SP","FM-12","99999","V020","200,1,N,0031,1","22000,1,9,N","020000,1,N,1","+0136,1","+0069,1","10079,1","12,0000,9,1","24,0000,9,1",,,,,,"01,99,1,00,1,00,1,99999,9,00,1,01,1","0540,9","01,9","999,+0130,9","999,N,+0115,1","99999,9,10071,1","6,1,012,1,+999,9",,"SYN106AAXX  13064 08014 12970 12006 10136 20069 30071 40079 56012 60002 80001 333 20115 30013 50414 55090 70000;","Q01  00002PRCP24Q02  00002PRCP12"
"08014099999","2010-11-13T09:00:00","4","43.5666666","-5.7","6.0","GIJON MUSEL, SP","FM-12","99999","V020","220,1,N,0031,1","22000,1,9,N","030000,1,N,1","+0180,1","+0074,1","10065,1",,,,,,,,"03,99,1,00,1,00,1,99999,9,00,1,04,1",,,,,"99999,9,10057,1","6,1,014,1,+999,9",,"SYN076AAXX  13094 08014 42980 32206 10180 20074 30057 40065 56014 80004 333 92448;",
"08014099999","2010-11-13T12:00:00","4","43.5666666","-5.7","6.0","GIJON MUSEL, SP","FM-12","99999","V020","130,1,N,0010,1","22000,1,9,N","030000,1,N,1","+0182,1","+0122,1","10036,1","06,0000,9,1",,,,,,,"03,99,1,01,1,00,1,01750,1,04,1,01,1",,,,,"99999,9,10029,1","7,1,028,1,+999,9",,"SYN082AAXX  13124 08014 12780 31302 10182 20122 30029 40036 57028 60001 81041 333 92448;","Q01  00002PRCP06"
"08014099999","2010-11-13T15:00:00","4","43.5666666","-5.7","6.0","GIJON MUSEL, SP","FM-12","99999","V020","200,1,N,0015,1","22000,1,9,N","040000,1,N,1","+0240,1","+0080,1","10002,1",,,,,,,,"04,99,1,01,1,08,1,00800,1,09,1,01,1",,,,,"99999,9,09995,1","7,1,034,1,+999,9",,"SYN076AAXX  13154 08014 42582 42003 10240 20080 39995 40002 57034 81891 333 92448;",
"08014099999","2010-11-13T18:00:00","4","43.5666666","-5.7","6.0","GIJON MUSEL, SP","FM-12","99999","V020","999,9,C,0000,1","09000,1,9,N","030000,1,N,1","+0202,1","+0085,1","09990,1","12,0000,9,1",,,,,,,"05,99,1,02,1,08,1,00800,1,07,1,01,1",,,,"120,M,+0240,1","99999,9,09983,1","8,1,012,1,+999,9",,"SYN088AAXX  13184 08014 12580 50000 10202 20085 39983 49990 58012 60002 82871 333 10240 92448;","Q01  00002PRCP12"
"08014099999","2010-11-14T06:00:00","4","43.5666666","-5.7","6.0","GIJON MUSEL, SP","FM-12","99999","V020","150,1,N,0026,1","00750,1,9,N","015000,1,N,1","+0124,1","+0100,1","10012,1","12,0119,9,1","24,0119,9,1",,"8,1,06,1","2,1,06,1",,,"07,99,1,06,1,02,1,00800,1,07,1,00,1","0426,9","11,9","999,+0090,9","999,N,+0120,1","99999,9,10004,1","3,1,020,1,+999,9","80,1","SYN112AAXX  14064 08014 11565 71505 10124 20100 30004 40012 53020 60122 78082 86270 333 20120 32009 50674 55071 70119;",
"08014099999","2010-11-14T09:00:00","4","43.5666666","-5.7","6.0","GIJON MUSEL, SP","FM-12","99999","V020","210,1,N,0015,1","22000,1,9,N","015000,1,N,1","+0118,1","+0075,1","10049,1",,,,"8,1,03,1","1,1,03,1",,,"04,99,1,02,1,08,1,00800,1,07,1,02,1",,,,,"99999,9,10041,1","2,1,037,1,+999,9","02,1","SYN082AAXX  14094 08014 41565 42103 10118 20075 30041 40049 52037 70281 82872 333 92447;",
"08014099999","2010-11-14T12:00:00","4","43.5666666","-5.7","6.0","GIJON MUSEL, SP","FM-12","99999","V020","200,1,N,0031,1","22000,1,9,N","040000,1,N,1","+0154,1","+0035,1","10051,1","06,0000,2,1",,,"8,1,06,1","1,1,06,1",,,"03,99,1,01,1,02,1,00800,1,06,1,01,1",,,,,"99999,9,10043,1","0,1,002,1,+999,9","01,1","SYN088AAXX  14124 08014 11582 32006 10154 20035 30043 40051 50002 69921 70181 81261 333 92448;",
"08014099999","2010-11-14T15:00:00","4","43.5666666","-5.7","6.0","GIJON MUSEL, SP","FM-12","99999","V020","330,1,N,0015,1","22000,1,9,N","040000,1,N,1","+0136,1","+0069,1","10066,1",,,,,,,,"04,99,1,03,1,02,1,00800,1,06,1,01,1",,,,,"99999,9,10058,1","3,1,015,1,+999,9",,"SYN076AAXX  14154 08014 42582 43303 10136 20069 30058 40066 53015 83261 333 92448;",
"08014099999","2010-11-14T18:00:00","4","43.5666666","-5.7","6.0","GIJON MUSEL, SP","FM-12","99999","V020","220,1,N,0015,1","03600,1,9,N","020000,1,N,1","+0106,1","+0049,1","10086,1","12,0005,9,1",,,"8,1,06,1","1,1,06,1",,,"07,99,1,04,1,02,1,00800,1,07,1,01,1",,,,"120,M,+0162,1","99999,9,10078,1","2,1,020,1,+999,9","02,1","SYN094AAXX  14184 08014 11570 72203 10106 20049 30078 40086 52020 69942 70281 84271 333 10162 92447;",
"08014099999","2010-11-15T06:00:00","4","43.5666666","-5.7","6.0","GIJON MUSEL, SP","FM-12","99999","V020","220,1,N,0046,1","22000,1,9,N","020000,1,N,1","+0114,1","+0019,1","10125,1","12,0000,9,1","24,0005,9,1",,,,,,"03,99,1,01,1,08,1,00800,1,04,1,01,1","0318,9","01,9","999,+0060,9","999,N,+0100,1","99999,9,10117,1","3,1,016,1,+999,9",,"SYN106AAXX  15064 08014 12570 32209 10114 20019 30117 40125 53016 60002 81841 333 20100 30006 50574 55053 70004;","Q01  00002PRCP12"
"08014099999","2010-11-15T09:00:00","4","43.5666666","-5.7","6.0","GIJON MUSEL, SP","FM-12","99999","V020","220,1,N,0051,1","00750,1,C,N","015000,1,N,1","+0114,1","+0042,1","10162,1",,,,"8,1,03,1","1,1,03,1","03,1,+00690,1,09,1",,"07,99,1,05,1,03,1,00800,1,06,1,00,1",,,,,"99999,9,10154,1","2,1,037,1,+999,9","80,1","SYN088AAXX  15094 08014 41565 72210 10114 20042 30154 40162 52037 78081 85360 333 83923 92447;",
"08014099999","2010-11-15T12:00:00","4","43.5666666","-5.7","6.0","GIJON MUSEL, SP","FM-12","99999","V020","240,1,N,0046,1","00420,1,C,N","010000,1,N,1","+0122,1","+0077,1","10189,1","06,0020,9,1",,,"8,1,06,1","1,1,06,1","04,1,+00600,1,09,1",,"07,99,1,06,1,09,1,00450,1,06,1,03,1",,,,,"99999,9,10181,1","1,1,027,1,+999,9","80,1","SYN094AAXX  15124 08014 11460 72409 10122 20077 30181 40189 51027 60021 78081 86963 333 84920 92446;",
"08014099999","2010-11-15T15:00:00","4","43.5666666","-5.7","6.0","GIJON MUSEL, SP","FM-12","99999","V020","210,1,N,0041,1","03600,1,9,N","015000,1,N,1","+0142,1","+0063,1","10202,1",,,,"8,1,03,1","2,1,03,1","02,1,+00600,1,09,1",,"05,99,1,04,1,09,1,00800,1,06,1,03,1",,,,,"99999,9,10194,1","1,1,013,1,+999,9","25,1","SYN088AAXX  15154 08014 41565 52108 10142 20063 30194 40202 51013 72582 84963 333 82920 92447;",
"08014099999","2010-11-15T18:00:00","4","43.5666666","-5.7","6.0","GIJON MUSEL, SP","FM-12","99999","V020","200,1,N,0031,1","00750,1,C,N","008000,1,N,1","+0110,1","+0086,1","10228,1","12,0030,9,1",,,"8,1,06,1","2,1,06,1","03,1,+00600,1,09,1",,"07,99,1,06,1,09,1,00800,1,06,1,03,1",,,,"120,M,+0144,1","99999,9,10220,1","2,1,026,1,+999,9","80,1","SYN100AAXX  15184 08014 11558 72006 10110 20086 30220 40228 52026 60032 78082 86963 333 10144 83920 92447;",
"08014099999","2010-11-16T06:00:00","4","43.5666666","-5.7","6.0","GIJON MUSEL, SP","FM-12","99999","V020","230,1,N,0026,1","22000,1,9,N","020000,1,N,1","+0088,1","+0046,1","10243,1","12,0089,9,1","24,0124,9,1",,,,,,"03,99,1,01,1,08,1,00800,1,04,1,01,1","0270,9","09,9","999,+0060,9","999,N,+0088,1","99999,9,10235,1","6,1,002,1,+999,9",,"SYN106AAXX  16064 08014 12570 32305 10088 20046 30235 40243 56002 60092 81841 333 20088 31006 50394 55045 70124;",
"08014099999","2010-11-16T09:00:00","4","43.5666666","-5.7","6.0","GIJON MUSEL, SP","FM-12","99999","V020","220,1,N,0031,1","22000,1,9,N","020000,1,N,1","+0098,1","+0048,1","10249,1",,,,,,,,"04,99,1,02,1,00,1,01750,1,04,1,01,1",,,,,"99999,9,10241,1","1,1,006,1,+999,9",,"SYN076AAXX  16094 08014 42770 42206 10098 20048 30241 40249 51006 82041 333 92447;",
"08014099999","2010-11-16T12:00:00","4","43.5666666","-5.7","6.0","GIJON MUSEL, SP","FM-12","99999","V020","190,1,N,0021,1","22000,1,9,N","030000,1,N,1","+0148,1","+0051,1","10223,1","06,0000,9,1",,,,,,,"04,99,1,02,1,00,1,01750,1,03,1,09,1",,,,,"99999,9,10215,1","8,1,026,1,+999,9",,"SYN082AAXX  16124 08014 12780 41904 10148 20051 30215 40223 58026 60001 82039 333 92448;","Q01  00002PRCP06"
"08014099999","2010-11-16T15:00:00","4","43.5666666","-5.7","6.0","GIJON MUSEL, SP","FM-12","99999","V020","090,1,N,0021,1","22000,1,9,N","015000,1,N,1","+0152,1","+0070,1","10189,1",,,,,,,,"05,99,1,02,1,00,1,01750,1,03,1,08,1",,,,,"99999,9,10181,1","6,1,034,1,+999,9",,"SYN076AAXX  16154 08014 42765 50904 10152 20070 30181 40189 56034 82038 333 92447;",
"08014099999","2010-11-16T18:00:00","4","43.5666666","-5.7","6.0","GIJON MUSEL, SP","FM-12","99999","V020","180,1,N,0010,1","09000,1,9,N","015000,1,N,1","+0130,1","+0052,1","10160,1","12,0000,9,1",,,,,,,"06,99,1,04,1,00,1,01750,1,07,1,08,1",,,,"120,M,+0164,1","99999,9,10152,1","7,1,029,1,+999,9",,"SYN088AAXX  16184 08014 12765 61802 10130 20052 30152 40160 57029 60002 84078 333 10164 92437;","Q01  00002PRCP12"
"08014099999","2010-11-17T06:00:00","4","43.5666666","-5.7","6.0","GIJON MUSEL, SP","FM-12","99999","V020","200,1,N,0036,1","00420,1,9,N","006000,1,N,1","+0112,1","+0093,1","10081,1","12,0119,9,2","24,0117,9,2",,,,,,"08,99,1,05,1,07,1,00450,1,01,1,99,9","0366,9","11,9","999,+0080,9","999,N,+0095,1","99999,9,10073,1","2,1,005,1,+999,9","51,1","SYN112AAXX  17064 08014 11456 82007 10112 20093 30073 40081 52005 60122 751// 8571/ 333 20095 32008 50264 55061 70116;",
"08014099999","2010-11-17T09:00:00","4","43.5666666","-5.7","6.0","GIJON MUSEL, SP","FM-12","99999","V020","360,1,N,0010,1","00750,1,9,N","020000,1,N,1","+0112,1","+0088,1","10109,1",,,,"5,1,03,1","2,1,03,1",,,"07,99,1,05,1,02,1,00800,1,05,1,99,9",,,,,"99999,9,10101,1","2,1,028,1,+999,9","02,1","SYN082AAXX  17094 08014 41570 73602 10112 20088 30101 40109 52028 70252 8525/ 333 92438;",
"08014099999","2010-11-17T12:00:00","4","43.5666666","-5.7","6.0","GIJON MUSEL, SP","FM-12","99999","V020","230,1,N,0021,1","00420,1,9,N","008000,1,N,1","+0118,1","+0081,1","10114,1","06,0010,9,1",,,"6,1,06,1","6,1,06,1",,,"08,99,1,05,1,02,1,00450,1,01,1,99,9",,,,,"99999,9,10106,1","2,1,005,1,+999,9","61,1","SYN088AAXX  17124 08014 11458 82304 10118 20081 30106 40114 52005 60011 76166 8521/ 333 92437;",
"08014099999","2010-11-17T15:00:00","4","43.5666666","-5.7","6.0","GIJON MUSEL, SP","FM-12","99999","V020","230,1,N,0026,1","22000,1,9,N","020000,1,N,1","+0146,1","+0054,1","10103,1",,,,,,,,"03,99,1,03,1,08,1,00800,1,03,1,00,1",,,,,"99999,9,10095,1","7,1,011,1,+999,9",,"SYN076AAXX  17154 08014 42570 32305 10146 20054 30095 40103 57011 83830 333 92438;",
"08014099999","2010-11-17T18:00:00","4","43.5666666","-5.7","6.0","GIJON MUSEL, SP","FM-12","99999","V020","190,1,N,0010,1","22000,1,9,N","015000,1,N,1","+0102,1","+0064,1","10113,1","12,0020,9,1",,,"6,1,06,1","1,1,06,1",,,"03,99,1,03,1,04,1,00800,1,03,1,00,1",,,,"120,M,+0158,1","99999,9,10105,1","2,1,010,1,+999,9","02,1","SYN094AAXX  17184 08014 11565 31902 10102 20064 30105 40113 52010 60022 70261 83430 333 10158 92438;",
"08014099999","2010-11-18T06:00:00","4","43.5666666","-5.7","6.0","GIJON MUSEL, SP","FM-12","99999","V020","220,1,N,0026,1","00750,1,9,N","015000,1,N,1","+0112,1","+0047,1","10128,1","12,0008,9,1","24,0028,9,1",,,,,,"07,99,1,05,1,04,1,00800,1,03,1,99,9","0318,9","09,9","999,+0080,9","999,N,+0097,1","99999,9,10120,1","2,1,003,1,+999,9","02,1","SYN112AAXX  18064 08014 11565 72205 10112 20047 30120 40128 52003 69972 702// 8543/ 333 20097 31008 50434 55053 70027;",
"08014099999","2010-11-18T09:00:00","4","43.5666666","-5.7","6.0","GIJON MUSEL, SP","FM-12","99999","V020","210,1,N,0031,1","22000,1,9,N","020000,1,N,1","+0114,1","+0053,1","10137,1",,,,,,,,"03,99,1,03,1,04,1,00800,1,03,1,00,1",,,,,"99999,9,10129,1","2,1,009,1,+999,9",,"SYN076AAXX  18094 08014 42570 32106 10114 20053 30129 40137 52009 83430 333 92438;",
"08014099999","2010-11-18T12:00:00","4","43.5666666","-5.7","6.0","GIJON MUSEL, SP","FM-12","99999","V020","210,1,N,0021,1","00750,1,9,N","010000,1,N,1","+0132,1","+0074,1","10148,1","06,0003,9,1",,,"5,1,06,1","2,1,06,1",,,"08,99,1,05,1,07,1,00800,1,01,1,99,9",,,,,"99999,9,10140,1","2,1,011,1,+999,9","02,1","SYN088AAXX  18124 08014 11560 82104 10132 20074 30140 40148 52011 69931 70252 8571/ 333 92438;",
"08014099999","2010-11-18T15:00:00","4","43.5666666","-5.7","6.0","GIJON MUSEL, SP","FM-12","99999","V020","240,1,N,0041,1","22000,1,9,N","030000,1,N,1","+0144,1","+0060,1","10146,1",,,,,,,,"04,99,1,03,1,04,1,00800,1,03,1,00,1",,,,,"99999,9,10138,1","7,1,002,1,+999,9",,"SYN076AAXX  18154 08014 42580 42408 10144 20060 30138 40146 57002 83430 333 92438;",
"08014099999","2010-11-18T18:00:00","4","43.5666666","-5.7","6.0","GIJON MUSEL, SP","FM-12","99999","V020","220,1,N,0021,1","03600,1,9,N","020000,1,N,1","+0128,1","+0055,1","10152,1","12,0003,9,1",,,,,,,"06,99,1,04,1,04,1,00800,1,03,1,00,1",,,,"120,M,+0151,1","99999,9,10144,1","2,1,006,1,+999,9",,"SYN088AAXX  18184 08014 12570 62204 10128 20055 30144 40152 52006 69932 84430 333 10151 92438;",
"08014099999","2010-11-19T06:00:00","4","43.5666666","-5.7","6.0","GIJON MUSEL, SP","FM-12","99999","V020","999,9,C,0000,1","99999,9,9,N","025000,1,N,1","+0100,1","+0056,1","10115,1","12,0000,9,1","24,0003,9,1",,,,,,"06,99,1,06,1,00,1,01250,1,07,1,09,1","0240,9","01,9","999,+0080,9","999,N,+0100,1","99999,9,10107,1","7,1,011,1,+999,9","02,1","SYN112AAXX  19064 08014 11675 60000 10100 20056 30107 40115 57011 60002 702// 86079 333 20100 30008 50424 55040 70003;","Q01  00002PRCP12"
"08014099999","2010-11-19T09:00:00","4","43.5666666","-5.7","6.0","GIJON MUSEL, SP","FM-12","99999","V020","210,1,N,0026,1","00750,1,9,N","020000,1,N,1","+0110,1","+0049,1","10112,1",,,,,,,,"08,99,1,05,1,06,1,00800,1,01,1,99,9",,,,,"99999,9,10104,1","7,1,003,1,+999,9",,"SYN076AAXX  19094 08014 42570 82105 10110 20049 30104 40112 57003 8561/ 333 92447;",
"08014099999","2010-11-19T12:00:00","4","43.5666666","-5.7","6.0","GIJON MUSEL, SP","FM-12","99999","V020","280,1,N,0026,1","01200,1,9,N","010000,1,N,1","+0142,1","+0073,1","10101,1","06,9999,9,9",,,"5,1,06,1","2,1,06,1",,,"08,99,1,05,1,06,1,01250,1,07,1,99,9",,,,,"99999,9,10093,1","7,1,011,1,+999,9","50,1","SYN088AAXX  19124 08014 11660 82805 10142 20073 30093 40101 57011 69901 75052 8567/ 333 92446;","Q01  00002PRCP06Q02  00002PRCP06"
"08014099999","2010-11-19T15:00:00","4","43.5666666","-5.7","6.0","GIJON MUSEL, SP","FM-12","99999","V020","050,1,N,0010,1","03600,1,9,N","015000,1,N,1","+0142,1","+0084,1","10085,1",,,,,,,,"06,99,1,04,1,07,1,00800,1,07,1,00,1",,,,,"99999,9,10077,1","7,1,016,1,+999,9",,"SYN076AAXX  19154 08014 42565 60502 10142 20084 30077 40085 57016 84770 333 92447;",
"08014099999","2010-11-19T18:00:00","4","43.5666666","-5.7","6.0","GIJON MUSEL, SP","FM-12","99999","V020","999,9,C,0000,1","22000,1,9,N","015000,1,N,1","+0125,1","+0086,1","10069,1","12,0000,2,1",,,"5,1,06,1","1,1,06,1",,,"03,99,1,02,1,08,1,00800,1,07,1,01,1",,,,"120,M,+0147,1","99999,9,10061,1","7,1,016,1,+999,9","01,1","SYN094AAXX  19184 08014 11565 30000 10125 20086 30061 40069 57016 69902 70151 82871 333 10147 92447;",
"08014099999","2010-11-20T06:00:00","4","43.5666666","-5.7","6.0","GIJON MUSEL, SP","FM-12","99999","V020","230,1,N,0046,1","00750,1,9,N","020000,1,N,1","+0123,1","+0043,1","10038,1","12,0051,9,2","24,0048,9,2",,,,,,"08,99,1,05,1,07,1,00800,1,02,1,99,9","0042,9","09,9","999,+0090,9","999,N,+0105,1","99999,9,10030,1","7,1,005,1,+999,9","02,1","SYN112AAXX  20064 08014 11570 82309 10123 20043 30030 40038 57005 60052 702// 8572/ 333 20105 31009 50364 55007 70047;",
"08014099999","2010-11-20T09:00:00","4","43.5666666","-5.7","6.0","GIJON MUSEL, SP","FM-12","99999","V020","220,1,N,0067,1","03600,1,9,N","025000,1,N,1","+0140,1","+0035,1","10031,1",,,,,,,,"05,99,1,04,1,08,1,00800,1,06,1,00,1",,,,,"99999,9,10023,1","7,1,007,1,+999,9",,"SYN076AAXX  20094 08014 42575 52213 10140 20035 30023 40031 57007 84860 333 92448;",
"08014099999","2010-11-20T12:00:00","4","43.5666666","-5.7","6.0","GIJON MUSEL, SP","FM-12","99999","V020","220,1,N,0057,1","03600,1,9,N","020000,1,N,1","+0120,1","+0083,1","10032,1","06,0041,9,1",,,"8,1,06,1","2,1,06,1",,,"06,99,1,03,1,07,1,00800,1,02,1,00,1",,,,,"99999,9,10024,1","3,1,001,1,+999,9","25,1","SYN088AAXX  20124 08014 11570 62211 10120 20083 30024 40032 53001 60041 72582 83720 333 92448;",
"08014099999","2010-11-20T15:00:00","4","43.5666666","-5.7","6.0","GIJON MUSEL, SP","FM-12","99999","V020","240,1,N,0057,1","03600,1,9,N","003000,1,N,1","+0111,1","+0097,1","10038,1",,,,"8,1,03,1","2,1,03,1",,,"08,99,1,03,1,07,1,00800,1,07,1,99,9",,,,,"99999,9,10030,1","2,1,006,1,+999,9","63,1","SYN082AAXX  20154 08014 41530 82411 10111 20097 30030 40038 52006 76382 8377/ 333 92445;",
"08014099999","2010-11-20T18:00:00","4","43.5666666","-5.7","6.0","GIJON MUSEL, SP","FM-12","99999","V020","200,1,N,0031,1","03600,1,9,N","005000,1,N,1","+0107,1","+0090,1","10043,1","12,0249,9,1",,,"8,1,06,1","2,1,06,1",,,"08,99,1,04,1,07,1,00800,1,02,1,99,9",,,,"120,M,+0140,1","99999,9,10035,1","2,1,005,1,+999,9","61,1","SYN094AAXX  20184 08014 11550 82006 10107 20090 30035 40043 52005 60252 76182 8472/ 333 10140 92446;",
"08014099999","2010-11-21T06:00:00","4","43.5666666","-5.7","6.0","GIJON MUSEL, SP","FM-12","99999","V020","230,1,N,0021,1","00750,1,9,N","015000,1,N,1","+0112,1","+0095,1","10072,1","12,0030,9,1","24,0343,9,1",,,,,,"06,99,1,05,1,02,1,00800,1,06,1,00,1","0000,9","11,9","999,+0100,9","999,N,+0100,1","99999,9,10064,1","2,1,005,1,+999,9","02,1","SYN112AAXX  21064 08014 11565 62304 10112 20095 30064 40072 52005 60032 702// 85260 333 20100 32010 50464 55000 70343;",
"08014099999","2010-11-21T09:00:00","4","43.5666666","-5.7","6.0","GIJON MUSEL, SP","FM-12","99999","V020","230,1,N,0015,1","01200,1,9,N","006000,1,N,1","+0116,1","+0090,1","10089,1",,,,"6,1,03,1","2,1,03,1",,,"08,99,1,06,1,08,1,00800,1,06,1,99,9",,,,,"99999,9,10081,1","2,1,017,1,+999,9","63,1","SYN082AAXX  21094 08014 41556 82303 10116 20090 30081 40089 52017 76362 8686/ 333 92446;",
"08014099999","2010-11-21T12:00:00","4","43.5666666","-5.7","6.0","GIJON MUSEL, SP","FM-12","99999","V020","240,1,N,0031,1","00750,1,9,N","010000,1,N,1","+0120,1","+0096,1","10090,1","06,0051,9,1",,,"8,1,06,1","8,1,06,1",,,"08,99,1,05,1,07,1,00800,1,02,1,99,9",,,,,"99999,9,10082,1","2,1,001,1,+999,9","21,1","SYN088AAXX  21124 08014 11560 82406 10120 20096 30082 40090 52001 60051 72188 8572/ 333 92447;",
"08014099999","2010-11-21T15:00:00","4","43.5666666","-5.7","6.0","GIJON MUSEL, SP","FM-12","99999","V020","020,1,N,0015,1","03600,1,9,N","020000,1,N,1","+0136,1","+0089,1","10087,1",,,,,,,,"06,99,1,04,1,02,1,00800,1,06,1,05,1",,,,,"99999,9,10079,1","8,1,003,1,+999,9",,"SYN076AAXX  21154 08014 42570 60203 10136 20089 30079 40087 58003 84265 333 92448;",
"08014099999","2010-11-21T18:00:00","4","43.5666666","-5.7","6.0","GIJON MUSEL, SP","FM-12","99999","V020","230,1,N,0015,1","03600,1,9,N","020000,1,N,1","+0112,1","+0088,1","10090,1","12,0051,9,1",,,,,,,"05,99,1,03,1,02,1,00800,1,06,1,05,1",,,,"120,M,+0140,1","99999,9,10082,1","3,1,003,1,+999,9",,"SYN088AAXX  21184 08014 12570 52303 10112 20088 30082 40090 53003 60052 83265 333 10140 92447;",
"08014099999","2010-11-22T06:00:00","4","43.5666666","-5.7","6.0","GIJON MUSEL, SP","FM-12","99999","V020","230,1,N,0010,1","03600,1,9,N","020000,1,N,1","+0088,1","+0073,1","10099,1","12,0041,9,1","24,0084,9,1",,,,,,"07,99,1,04,1,02,1,00800,1,06,1,00,1","0102,9","11,9","999,+0080,9","999,N,+0088,1","99999,9,10091,1","7,1,005,1,+999,9","02,1","SYN112AAXX  22064 08014 11570 72302 10088 20073 30091 40099 57005 60042 702// 84260 333 20088 32008 50184 55017 70083;",
"08014099999","2010-11-22T09:00:00","4","43.5666666","-5.7","6.0","GIJON MUSEL, SP","FM-12","99999","V020","220,1,N,0026,1","03600,1,9,N","012000,1,N,1","+0098,1","+0077,1","10108,1",,,,"6,1,03,1","2,1,03,1",,,"06,99,1,04,1,02,1,00800,1,06,1,00,1",,,,,"99999,9,10100,1","2,1,009,1,+999,9","02,1","SYN082AAXX  22094 08014 41562 62205 10098 20077 30100 40108 52009 70262 84260 333 92437;",
"08014099999","2010-11-22T12:00:00","4","43.5666666","-5.7","6.0","GIJON MUSEL, SP","FM-12","99999","V020","230,1,N,0026,1","00750,1,9,N","015000,1,N,1","+0110,1","+0086,1","10104,1","06,0008,9,1",,,"6,1,06,1","2,1,06,1",,,"07,99,1,05,1,02,1,00800,1,06,1,00,1",,,,,"99999,9,10096,1","8,1,004,1,+999,9","21,1","SYN088AAXX  22124 08014 11565 72305 10110 20086 30096 40104 58004 69981 72162 85260 333 92437;",
"08014099999","2010-11-22T15:00:00","4","43.5666666","-5.7","6.0","GIJON MUSEL, SP","FM-12","99999","V020","210,1,N,0026,1","00750,1,9,N","006000,1,N,1","+0108,1","+0084,1","10101,1",,,,"6,1,03,1","2,1,03,1",,,"07,99,1,05,1,07,1,00800,1,02,1,00,1",,,,,"99999,9,10093,1","7,1,003,1,+999,9","60,1","SYN082AAXX  22154 08014 41556 72105 10108 20084 30093 40101 57003 76062 85720 333 92436;",
"08014099999","2010-11-22T18:00:00","4","43.5666666","-5.7","6.0","GIJON MUSEL, SP","FM-12","99999","V020","210,1,N,0015,1","22000,1,9,N","020000,1,N,1","+0110,1","+0073,1","10109,1","12,0020,9,1",,,,,,,"04,99,1,03,1,02,1,00800,1,06,1,00,1",,,,"120,M,+0116,1","99999,9,10101,1","3,1,008,1,+999,9",,"SYN088AAXX  22184 08014 12570 42103 10110 20073 30101 40109 53008 60022 83260 333 10116 92438;",
"08014099999","2010-11-23T06:00:00","4","43.5666666","-5.7","6.0","GIJON MUSEL, SP","FM-12","99999","V020","220,1,N,0031,1","00750,1,9,N","010000,1,N,1","+0085,1","+0074,1","10121,1","12,0020,9,1","24,0043,9,1",,"6,1,06,1","2,1,06,1",,,"08,99,1,05,1,07,1,00800,1,02,1,99,9","0000,9","11,9","999,+0060,9","999,N,+0080,1","99999,9,10113,1","4,1,000,1,+999,9","60,1","SYN112AAXX  23064 08014 11560 82206 10085 20074 30113 40121 54000 60022 76062 8572/ 333 20080 32006 50214 55000 70042;",
"08014099999","2010-11-23T09:00:00","4","43.5666666","-5.7","6.0","GIJON MUSEL, SP","FM-12","99999","V020","220,1,N,0031,1","03600,1,9,N","012000,1,N,1","+0090,1","+0068,1","10136,1",,,,"6,1,03,1","2,1,03,1",,,"06,99,1,04,1,08,1,00800,1,07,1,00,1",,,,,"99999,9,10128,1","3,1,015,1,+999,9","01,1","SYN082AAXX  23094 08014 41562 62206 10090 20068 30128 40136 53015 70162 84870 333 92437;",
"08014099999","2010-11-23T12:00:00","4","43.5666666","-5.7","6.0","GIJON MUSEL, SP","FM-12","99999","V020","250,1,N,0015,1","03600,1,9,N","006000,1,N,1","+0102,1","+0083,1","10139,1","06,0008,9,1",,,"6,1,06,1","2,1,06,1",,,"08,99,1,04,1,08,1,00800,1,07,1,99,9",,,,,"99999,9,10131,1","2,1,003,1,+999,9","60,1","SYN088AAXX  23124 08014 11556 82503 10102 20083 30131 40139 52003 69971 76062 8487/ 333 92436;",
"08014099999","2010-11-23T15:00:00","4","43.5666666","-5.7","6.0","GIJON MUSEL, SP","FM-12","99999","V020","290,1,N,0005,1","03600,1,9,N","020000,1,N,1","+0118,1","+0059,1","10132,1",,,,,,,,"06,99,1,04,1,08,1,00800,1,07,1,00,1",,,,,"99999,9,10124,1","8,1,007,1,+999,9",,"SYN076AAXX  23154 08014 42570 62901 10118 20059 30124 40132 58007 84870 333 92438;",
"08014099999","2010-11-23T18:00:00","4","43.5666666","-5.7","6.0","GIJON MUSEL, SP","FM-12","99999","V020","999,9,C,0000,1","22000,1,9,N","025000,1,N,1","+0105,1","+0077,1","10139,1","12,0010,9,1",,,"6,1,06,1","1,1,06,1",,,"04,99,1,02,1,01,1,00800,1,07,1,00,1",,,,"120,M,+0128,1","99999,9,10131,1","3,1,007,1,+999,9","01,1","SYN094AAXX  23184 08014 11575 40000 10105 20077 30131 40139 53007 60012 70161 82170 333 10128 92438;",
"08014099999","2010-11-24T06:00:00","4","43.5666666","-5.7","6.0","GIJON MUSEL, SP","FM-12","99999","V020","210,1,N,0021,1","03600,1,9,N","020000,1,N,1","+0082,1","+0058,1","10147,1","12,0010,9,1","24,0010,9,1",,,,,,"05,99,1,03,1,01,1,00800,1,07,1,00,1","0036,9","09,9","999,+0050,9","999,N,+0072,1","99999,9,10139,1","4,1,000,1,+999,9","02,1","SYN112AAXX  24064 08014 11570 52104 10082 20058 30139 40147 54000 60012 702// 83170 333 20072 31005 50124 55006 70010;",
"08014099999","2010-11-24T09:00:00","4","43.5666666","-5.7","6.0","GIJON MUSEL, SP","FM-12","99999","V020","220,1,N,0026,1","22000,1,9,N","020000,1,N,1","+0085,1","+0056,1","10157,1",,,,,,,,"04,99,1,02,1,01,1,00800,1,03,1,01,1",,,,,"99999,9,10149,1","2,1,010,1,+999,9",,"SYN076AAXX  24094 08014 42570 42205 10085 20056 30149 40157 52010 82131 333 92428;",
"08014099999","2010-11-24T12:00:00","4","43.5666666","-5.7","6.0","GIJON MUSEL, SP","FM-12","99999","V020","200,1,N,0015,1","03600,1,9,N","020000,1,N,1","+0110,1","+0084,1","10161,1","06,0000,9,1",,,,,,,"07,99,1,03,1,01,1,00800,1,07,1,00,1",,,,,"99999,9,10153,1","2,1,004,1,+999,9",,"SYN082AAXX  24124 08014 12570 72003 10110 20084 30153 40161 52004 60001 83170 333 92428;","Q01  00002PRCP06"
"08014099999","2010-11-24T15:00:00","4","43.5666666","-5.7","6.0","GIJON MUSEL, SP","FM-12","99999","V020","040,1,N,0010,1","03600,1,9,N","020000,1,N,1","+0118,1","+0048,1","10151,1",,,,,,,,"06,99,1,03,1,02,1,00800,1,03,1,00,1",,,,,"99999,9,10143,1","8,1,010,1,+999,9",,"SYN076AAXX  24154 08014 42570 60402 10118 20048 30143 40151 58010 83230 333 92428;",
"08014099999","2010-11-24T18:00:00","4","43.5666666","-5.7","6.0","GIJON MUSEL, SP","FM-12","99999","V020","270,1,N,0021,1","22000,1,9,N","020000,1,N,1","+0092,1","+0066,1","10161,1","12,0000,9,1",,,,,,,"03,99,1,02,1,01,1,00800,1,03,1,00,1",,,,"120,M,+0126,1","99999,9,10153,1","3,1,010,1,+999,9",,"SYN088AAXX  24184 08014 12570 32704 10092 20066 30153 40161 53010 60002 82130 333 10126 92428;","Q01  00002PRCP12"
"08014099999","2010-11-25T06:00:00","4","43.5666666","-5.7","6.0","GIJON MUSEL, SP","FM-12","99999","V020","210,1,N,0036,1","00750,1,9,N","015000,1,N,1","+0072,1","+0049,1","10132,1","12,0005,9,1","24,0005,9,1",,"2,1,06,1","2,1,06,1",,,"06,99,1,05,1,02,1,00800,1,06,1,02,1","0144,9","11,9","999,+0050,9","999,N,+0062,1","99999,9,10124,1","6,1,007,1,+999,9","25,1","SYN112AAXX  25064 08014 11565 62107 10072 20049 30124 40132 56007 69942 72522 85262 333 20062 32005 50054 55024 70004;",
"08014099999","2010-11-25T09:00:00","4","43.5666666","-5.7","6.0","GIJON MUSEL, SP","FM-12","99999","V020","220,1,N,0031,1","00750,1,C,N","020000,1,N,1","+0086,1","+0059,1","10134,1",,,,"8,1,03,1","2,1,03,1","02,1,+00780,1,09,1",,"07,99,1,05,1,03,1,00800,1,06,1,01,1",,,,,"99999,9,10126,1","0,1,002,1,+999,9","25,1","SYN088AAXX  25094 08014 41570 72206 10086 20059 30126 40134 50002 72582 85361 333 82926 92447;",
"08014099999","2010-11-25T12:00:00","4","43.5666666","-5.7","6.0","GIJON MUSEL, SP","FM-12","99999","V020","220,1,N,0041,1","00750,1,9,N","010000,1,N,1","+0088,1","+0079,1","10139,1","06,0051,9,1",,,"8,1,06,1","8,1,06,1",,,"08,99,1,06,1,02,1,00800,1,07,1,99,9",,,,,"99999,9,10131,1","1,1,005,1,+999,9","80,1","SYN088AAXX  25124 08014 11560 82208 10088 20079 30131 40139 51005 60051 78088 8627/ 333 92446;",
"08014099999","2010-11-25T15:00:00","4","43.5666666","-5.7","6.0","GIJON MUSEL, SP","FM-12","99999","V020","030,1,N,0041,1","03600,1,9,N","015000,1,N,1","+0108,1","+0069,1","10143,1",,,,"8,1,03,1","1,1,03,1","02,1,+00600,1,09,1",,"05,99,1,04,1,09,1,00800,1,06,1,03,1",,,,,"99999,9,10135,1","3,1,004,1,+999,9","80,1","SYN088AAXX  25154 08014 41565 50308 10108 20069 30135 40143 53004 78081 84963 333 82920 92447;",
"08014099999","2010-11-25T18:00:00","4","43.5666666","-5.7","6.0","GIJON MUSEL, SP","FM-12","99999","V020","010,1,N,0026,1","03600,1,9,N","015000,1,N,1","+0102,1","+0058,1","10159,1","12,0099,9,1",,,"8,1,06,1","1,1,06,1","02,1,+00780,1,09,1",,"05,99,1,04,1,03,1,00800,1,06,1,00,1",,,,"120,M,+0115,1","99999,9,10151,1","2,1,016,1,+999,9","80,1","SYN100AAXX  25184 08014 11565 50105 10102 20058 30151 40159 52016 60102 78081 84360 333 10115 82926 92447;",
"08014099999","2010-11-26T06:00:00","4","43.5666666","-5.7","6.0","GIJON MUSEL, SP","FM-12","99999","V020","210,1,N,0041,1","03600,1,9,N","020000,1,N,1","+0054,1","+0045,1","10152,1","12,0010,9,1","24,0112,9,1",,"8,1,06,1","2,1,06,1",,,"06,99,1,04,1,02,1,00800,1,03,1,08,1","0072,9","11,9","999,+0040,9","999,N,+0054,1","99999,9,10144,1","7,1,012,1,+999,9","25,1","SYN112AAXX  26064 08014 11570 62108 10054 20045 30144 40152 57012 60012 72582 84238 333 20054 32004 50584 55012 70113;",
"08014099999","2010-11-26T09:00:00","4","43.5666666","-5.7","6.0","GIJON MUSEL, SP","FM-12","99999","V020","200,1,N,0031,1","22000,1,9,N","015000,1,N,1","+0056,1","+0047,1","10152,1",,,,,,,,"04,99,1,03,1,02,1,00800,1,03,1,01,1",,,,,"99999,9,10144,1","4,1,000,1,+999,9",,"SYN076AAXX  26094 08014 42565 42006 10056 20047 30144 40152 54000 83231 333 92447;",
"08014099999","2010-11-26T12:00:00","4","43.5666666","-5.7","6.0","GIJON MUSEL, SP","FM-12","99999","V020","200,1,N,0031,1","03600,1,9,N","020000,1,N,1","+0092,1","+0061,1","10136,1","06,0000,2,1",,,"8,1,06,1","1,1,06,1","01,1,+00780,1,09,1",,"05,99,1,04,1,09,1,00800,1,06,1,01,1",,,,,"99999,9,10128,1","8,1,016,1,+999,9","02,1","SYN094AAXX  26124 08014 11570 52006 10092 20061 30128 40136 58016 69911 70281 84961 333 81926 92447;",
"08014099999","2010-11-26T15:00:00","4","43.5666666","-5.7","6.0","GIJON MUSEL, SP","FM-12","99999","V020","220,1,N,0010,1","03600,1,9,N","020000,1,N,1","+0096,1","+0061,1","10117,1",,,,,,,,"05,99,1,04,1,02,1,00800,1,06,1,00,1",,,,,"99999,9,10109,1","8,1,019,1,+999,9",,"SYN076AAXX  26154 08014 42570 52202 10096 20061 30109 40117 58019 84260 333 92447;",
"08014099999","2010-11-26T18:00:00","4","43.5666666","-5.7","6.0","GIJON MUSEL, SP","FM-12","99999","V020","220,1,N,0015,1","22000,1,9,N","030000,1,N,1","+0074,1","+0052,1","10102,1","12,0000,2,1",,,,,,,"03,99,1,02,1,08,1,00800,1,06,1,01,1",,,,"120,M,+0106,1","99999,9,10094,1","8,1,015,1,+999,9",,"SYN088AAXX  26184 08014 12580 32203 10074 20052 30094 40102 58015 69912 82861 333 10106 92447;",
"08014099999","2010-11-27T06:00:00","4","43.5666666","-5.7","6.0","GIJON MUSEL, SP","FM-12","99999","V020","220,1,N,0036,1","00750,1,9,N","004000,1,N,1","+0058,1","+0054,1","10049,1","12,0041,9,1","24,0041,9,1",,"8,1,06,1","2,1,06,1",,,"08,99,1,06,1,02,1,00800,1,07,1,99,9","0228,9","11,9","999,+0050,9","999,N,+0055,1","99999,9,10041,1","6,1,012,1,+999,9","80,1","SYN112AAXX  27064 08014 11540 82207 10058 20054 30041 40049 56012 60042 78082 8627/ 333 20055 32005 50284 55038 70041;",
"08014099999","2010-11-27T09:00:00","4","43.5666666","-5.7","6.0","GIJON MUSEL, SP","FM-12","99999","V020","210,1,N,0041,1","00750,1,9,N","020000,1,N,1","+0064,1","+0055,1","10049,1",,,,"8,1,03,1","2,1,03,1",,,"06,99,1,05,1,02,1,00800,1,06,1,00,1",,,,,"99999,9,10041,1","4,1,000,1,+999,9","02,1","SYN082AAXX  27094 08014 41570 62108 10064 20055 30041 40049 54000 70282 85260 333 92437;",
"08014099999","2010-11-27T12:00:00","4","43.5666666","-5.7","6.0","GIJON MUSEL, SP","FM-12","99999","V020","210,1,N,0031,1","22000,1,9,N","030000,1,N,1","+0106,1","+0067,1","10038,1","06,0005,9,1",,,"8,1,06,1","1,1,06,1","01,1,+00780,1,09,1",,"04,99,1,03,1,09,1,00800,1,06,1,03,1",,,,,"99999,9,10030,1","8,1,011,1,+999,9","02,1","SYN094AAXX  27124 08014 11580 42106 10106 20067 30030 40038 58011 69941 70281 83963 333 81926 92438;",
"08014099999","2010-11-27T15:00:00","4","43.5666666","-5.7","6.0","GIJON MUSEL, SP","FM-12","99999","V020","999,9,C,0000,1","03600,1,9,N","020000,1,N,1","+0110,1","+0057,1","10024,1",,,,,,"03,1,+00780,1,09,1",,"05,99,1,04,1,09,1,00800,1,06,1,03,1",,,,,"99999,9,10016,1","6,1,014,1,+999,9",,"SYN082AAXX  27154 08014 42570 50000 10110 20057 30016 40024 56014 84963 333 83926 92437;",
"08014099999","2010-11-27T18:00:00","4","43.5666666","-5.7","6.0","GIJON MUSEL, SP","FM-12","99999","V020","290,1,N,0010,1","00420,1,9,N","003000,1,N,1","+0068,1","+0054,1","10028,1","12,0020,9,1",,,"1,1,06,1","1,1,06,1",,,"08,99,1,06,1,02,1,00450,1,07,1,99,9",,,,"120,M,+0120,1","99999,9,10020,1","3,1,004,1,+999,9","80,1","SYN094AAXX  27184 08014 11430 82902 10068 20054 30020 40028 53004 60022 78011 8627/ 333 10120 92435;",
"08014099999","2010-11-28T06:00:00","4","43.5666666","-5.7","6.0","GIJON MUSEL, SP","FM-12","99999","V020","220,1,N,0036,1","00750,1,C,N","015000,1,N,1","+0042,1","+0032,1","10039,1","12,0071,9,1","24,0086,9,1",,"8,1,06,1","2,1,06,1","02,1,+00780,1,09,1",,"06,99,1,05,1,03,1,00800,1,06,1,00,1","0372,9","11,9","999,+0030,9","999,N,+0042,1","99999,9,10031,1","3,1,002,1,+999,9","27,1","SYN118AAXX  28064 08014 11565 62207 10042 20032 30031 40039 53002 60072 72782 85360 333 20042 32003 50244 55062 70087 82926;",
"08014099999","2010-11-28T09:00:00","4","43.5666666","-5.7","6.0","GIJON MUSEL, SP","FM-12","99999","V020","210,1,N,0036,1","00750,1,C,N","010000,1,N,1","+0040,1","+0030,1","10060,1",,,,"9,1,03,1","8,1,03,1","02,1,+00600,1,09,1",,"06,99,1,05,1,03,1,00800,1,06,1,01,1",,,,,"99999,9,10052,1","3,1,021,1,+999,9","80,1","SYN088AAXX  28094 08014 41560 62107 10040 20030 30052 40060 53021 78098 85361 333 82920 92436;",
"08014099999","2010-11-28T12:00:00","4","43.5666666","-5.7","6.0","GIJON MUSEL, SP","FM-12","99999","V020","220,1,N,0041,1","00750,1,C,N","015000,1,N,1","+0058,1","+0040,1","10074,1","06,0010,9,1",,,"9,1,06,1","8,1,06,1","04,1,+00600,1,09,1",,"07,99,1,06,1,09,1,00800,1,06,1,03,1",,,,,"99999,9,10066,1","1,1,014,1,+999,9","02,1","SYN094AAXX  28124 08014 11565 72208 10058 20040 30066 40074 51014 60011 70298 86963 333 84920 92437;",
"08014099999","2010-11-28T15:00:00","4","43.5666666","-5.7","6.0","GIJON MUSEL, SP","FM-12","99999","V020","230,1,N,0021,1","22000,1,9,N","030000,1,N,1","+0090,1","+0040,1","10068,1",,,,,,"02,1,+00630,1,09,1",,"04,99,1,03,1,09,1,00800,1,06,1,03,1",,,,,"99999,9,10060,1","6,1,006,1,+999,9",,"SYN082AAXX  28154 08014 42580 42304 10090 20040 30060 40068 56006 83963 333 82921 92438;",
"08014099999","2010-11-28T18:00:00","4","43.5666666","-5.7","6.0","GIJON MUSEL, SP","FM-12","99999","V020","260,1,N,0015,1","22000,1,9,N","030000,1,N,1","+0052,1","+0032,1","10071,1","12,0010,9,1",,,,,,,"02,99,1,02,1,02,1,00800,1,06,1,01,1",,,,"120,M,+0095,1","99999,9,10063,1","1,1,003,1,+999,9",,"SYN088AAXX  28184 08014 12580 22603 10052 20032 30063 40071 51003 60012 82261 333 10095 92438;",
"08014099999","2010-11-29T06:00:00","4","43.5666666","-5.7","6.0","GIJON MUSEL, SP","FM-12","99999","V020","240,1,N,0026,1","22000,1,9,N","015000,1,N,1","+0032,1","-0012,1","10037,1","12,0000,9,1","24,0008,9,1",,,,,,"02,99,1,02,1,04,1,00800,1,00,1,00,1","0258,9","01,9","999,+0010,9","999,N,+0020,1","99999,9,10029,1","7,1,007,1,+999,9","02,1","SYN112AAXX  29064 08014 11565 22405 10032 21012 30029 40037 57007 60002 702// 82400 333 20020 30001 50294 55043 70008;","Q01  00002PRCP12"
"08014099999","2010-11-29T09:00:00","4","43.5666666","-5.7","6.0","GIJON MUSEL, SP","FM-12","99999","V020","230,1,N,0031,1","22000,1,9,N","010000,1,N,1","+0036,1","-0028,1","10034,1",,,,,,,,"01,99,1,01,1,06,1,00450,1,00,1,00,1",,,,,"99999,9,10026,1","7,1,003,1,+999,9",,"SYN076AAXX  29094 08014 42460 12306 10036 21028 30026 40034 57003 81600 333 92438;",
"08014099999","2010-11-29T12:00:00","4","43.5666666","-5.7","6.0","GIJON MUSEL, SP","FM-12","99999","V020","999,9,C,0000,1","22000,1,9,N","015000,1,N,1","+0094,1","+0034,1","10023,1","06,0000,9,1",,,,,,,"04,99,1,01,1,04,1,00800,1,07,1,08,1",,,,,"99999,9,10015,1","7,1,011,1,+999,9",,"SYN082AAXX  29124 08014 12565 40000 10094 20034 30015 40023 57011 60001 81478 333 92438;","Q01  00002PRCP06"
"08014099999","2010-11-29T15:00:00","4","43.5666666","-5.7","6.0","GIJON MUSEL, SP","FM-12","99999","V020","100,1,N,0021,1","09000,1,9,N","020000,1,N,1","+0104,1","+0041,1","09989,1",,,,,,,,"05,99,1,01,1,04,1,00800,1,05,1,08,1",,,,,"99999,9,09981,1","7,1,034,1,+999,9",,"SYN076AAXX  29154 08014 42570 51004 10104 20041 39981 49989 57034 81458 333 92438;",
"08014099999","2010-11-29T18:00:00","4","43.5666666","-5.7","6.0","GIJON MUSEL, SP","FM-12","99999","V020","150,1,N,0015,1","03600,1,C,N","020000,1,N,1","+0090,1","+0005,1","09989,1","12,0000,9,1",,,,,,,"06,99,1,02,1,04,1,00800,1,05,1,99,9",,,,"120,M,+0111,1","99999,9,09981,1","5,1,000,1,+999,9",,"SYN088AAXX  29184 08014 12570 61503 10090 20005 39981 49989 55000 60002 8245/ 333 10111 92438;","Q01  00002PRCP12"
"08014099999","2010-11-30T06:00:00","4","43.5666666","-5.7","6.0","GIJON MUSEL, SP","FM-12","99999","V020","190,1,N,0015,1","03600,1,9,N","015000,1,N,1","+0054,1","+0019,1","09942,1","12,0000,9,1","24,0000,9,1",,,,,,"06,99,1,04,1,04,1,00800,1,03,1,99,9","0486,9","01,9","999,+0030,9","999,N,+0050,1","99999,9,09934,1","7,1,005,1,+999,9","02,1","SYN112AAXX  30064 08014 11565 61903 10054 20019 39934 49942 57005 60002 702// 8443/ 333 20050 30003 50314 55081 70000;","Q01  00002PRCP24Q02  00002PRCP12"
"08014099999","2010-11-30T09:00:00","4","43.5666666","-5.7","6.0","GIJON MUSEL, SP","FM-12","99999","V020","999,9,C,0000,1","03600,1,9,N","020000,1,N,1","+0058,1","+0024,1","09943,1",,,,,,,,"07,99,1,03,1,07,1,00800,1,05,1,99,9",,,,,"99999,9,09935,1","3,1,001,1,+999,9",,"SYN076AAXX  30094 08014 42570 70000 10058 20024 39935 49943 53001 8375/ 333 92438;",
"08014099999","2010-11-30T12:00:00","4","43.5666666","-5.7","6.0","GIJON MUSEL, SP","FM-12","99999","V020","230,1,N,0021,1","00750,1,9,N","020000,1,N,1","+0092,1","+0028,1","09944,1","06,9999,9,9",,,"2,1,06,1","2,1,06,1",,,"08,99,1,05,1,06,1,00800,1,07,1,99,9",,,,,"99999,9,09936,1","2,1,001,1,+999,9","50,1","SYN088AAXX  30124 08014 11570 82304 10092 20028 39936 49944 52001 69901 75022 8567/ 333 92438;","Q01  00002PRCP06Q02  00002PRCP06"
"08014099999","2010-11-30T15:00:00","4","43.5666666","-5.7","6.0","GIJON MUSEL, SP","FM-12","99999","V020","270,1,N,0021,1","00750,1,9,N","030000,1,N,1","+0094,1","+0050,1","09937,1",,,,,,,,"08,99,1,05,1,07,1,00800,1,01,1,99,9",,,,,"99999,9,09929,1","7,1,007,1,+999,9",,"SYN076AAXX  30154 08014 42580 82704 10094 20050 39929 49937 57007 8571/ 333 92438;",
"08014099999","2010-11-30T18:00:00","4","43.5666666","-5.7","6.0","GIJON MUSEL, SP","FM-12","99999","V020","190,1,N,0015,1","01200,1,9,N","020000,1,N,1","+0084,1","+0048,1","09942,1","12,0000,2,1",,,,,,,"08,99,1,06,1,08,1,00800,1,05,1,99,9",,,,"120,M,+0098,1","99999,9,09934,1","2,1,005,1,+999,9",,"SYN088AAXX  30184 08014 12570 81903 10084 20048 39934 49942 52005 69902 8685/ 333 10098 92428;",
"08014099999","2010-12-01T06:00:00","4","43.5666666","-5.7","6.0","GIJON MUSEL, SP","FM-12","99999","V020","230,1,N,0005,1","00750,1,9,N","013000,1,N,1","+0064,1","+0055,1","10003,1","12,0071,9,1","24,0071,9,1",,,,,,"08,99,1,05,1,06,1,00800,1,07,1,99,9","0000,9","11,9","999,+0050,9","999,N,+0060,1","99999,9,09995,1","2,1,015,1,+999,9","61,1","SYN112AAXX  01064 08014 11563 82301 10064 20055 39995 40003 52015 60072 761// 8567/ 333 20060 32005 50204 55000 70070;",
"08014099999","2010-12-01T09:00:00","4","43.5666666","-5.7","6.0","GIJON MUSEL, SP","FM-12","99999","V020","360,1,N,0015,1","01200,1,9,N","015000,1,N,1","+0086,1","+0040,1","10031,1",,,,"6,1,03,1","2,1,03,1",,,"08,99,1,05,1,08,1,00800,1,01,1,99,9",,,,,"99999,9,10023,1","2,1,028,1,+999,9","02,1","SYN082AAXX  01094 08014 41565 83603 10086 20040 30023 40031 52028 70262 8581/ 333 92438;",
"08014099999","2010-12-01T12:00:00","4","43.5666666","-5.7","6.0","GIJON MUSEL, SP","FM-12","99999","V020","999,9,C,0000,1","01200,1,9,N","020000,1,N,1","+0098,1","+0054,1","10046,1","06,0000,2,1",,,"5,1,06,1","2,1,06,1",,,"08,99,1,05,1,08,1,00800,1,05,1,99,9",,,,,"99999,9,10038,1","2,1,015,1,+999,9","02,1","SYN088AAXX  01124 08014 11570 80000 10098 20054 30038 40046 52015 69921 70252 8585/ 333 92438;",
"08014099999","2010-12-01T15:00:00","4","43.5666666","-5.7","6.0","GIJON MUSEL, SP","FM-12","99999","V020","200,1,N,0021,1","01200,1,9,N","020000,1,N,1","+0078,1","+0046,1","10046,1",,,,,,,,"08,99,1,05,1,08,1,00800,1,07,1,99,9",,,,,"99999,9,10038,1","4,1,000,1,+999,9",,"SYN076AAXX  01154 08014 42570 82004 10078 20046 30038 40046 54000 8587/ 333 92438;",
"08014099999","2010-12-01T18:00:00","4","43.5666666","-5.7","6.0","GIJON MUSEL, SP","FM-12","99999","V020","210,1,N,0031,1","00750,1,9,N","015000,1,N,1","+0046,1","+0036,1","10077,1","12,0079,9,1",,,"8,1,06,1","6,1,06,1",,,"08,99,1,06,1,07,1,00800,1,07,1,99,9",,,,"120,M,+0104,1","99999,9,10069,1","2,1,031,1,+999,9","63,1","SYN094AAXX  01184 08014 11565 82106 10046 20036 30069 40077 52031 60082 76386 8677/ 333 10104 92437;",
"08014099999","2010-12-02T06:00:00","4","43.5666666","-5.7","6.0","GIJON MUSEL, SP","FM-12","99999","V020","230,1,N,0026,1","00750,1,9,N","006000,1,N,1","+0038,1","+0028,1","10091,1","12,0051,9,1","24,0109,9,1",,"8,1,06,1","2,1,06,1",,,"08,99,1,07,1,07,1,00800,1,07,1,99,9","0000,9","11,9","999,+0010,9","999,N,+0025,1","99999,9,10083,1","3,1,001,1,+999,9","50,1","SYN112AAXX  02064 08014 11556 82305 10038 20028 30083 40091 53001 60052 75082 8777/ 333 20025 32001 50194 55000 70110;",
"08014099999","2010-12-02T09:00:00","4","43.5666666","-5.7","6.0","GIJON MUSEL, SP","FM-12","99999","V020","210,1,N,0036,1","03600,1,9,N","015000,1,N,1","+0024,1","+0014,1","10100,1",,,,"8,1,03,1","7,1,03,1","03,1,+00780,1,09,1",,"05,99,1,04,1,09,1,00800,1,06,1,03,1",,,,,"99999,9,10092,1","0,1,009,1,+999,9","25,1","SYN088AAXX  02094 08014 41565 52107 10024 20014 30092 40100 50009 72587 84963 333 83926 92437;",
"08014099999","2010-12-02T12:00:00","4","43.5666666","-5.7","6.0","GIJON MUSEL, SP","FM-12","99999","V020","220,1,N,0026,1","03600,1,9,N","020000,1,N,1","+0058,1","+0023,1","10104,1","06,0089,9,1",,,"8,1,06,1","7,1,06,1","03,1,+00600,1,09,1",,"06,99,1,04,1,09,1,00800,1,06,1,03,1",,,,,"99999,9,10096,1","0,1,004,1,+999,9","80,1","SYN094AAXX  02124 08014 11570 62205 10058 20023 30096 40104 50004 60091 78087 84963 333 83920 92437;",
"08014099999","2010-12-02T15:00:00","4","43.5666666","-5.7","6.0","GIJON MUSEL, SP","FM-12","99999","V020","240,1,N,0031,1","03600,1,9,N","020000,1,N,1","+0078,1","+0001,1","10089,1",,,,,,"02,1,+00690,1,09,1",,"06,99,1,04,1,03,1,00800,1,01,1,08,1",,,,,"99999,9,10081,1","6,1,015,1,+999,9",,"SYN082AAXX  02154 08014 42570 62406 10078 20001 30081 40089 56015 84318 333 82923 92437;",
"08014099999","2010-12-02T18:00:00","4","43.5666666","-5.7","6.0","GIJON MUSEL, SP","FM-12","99999","V020","230,1,N,0041,1","00750,1,9,N","004000,1,N,1","+0038,1","+0028,1","10105,1","12,0099,9,1",,,"8,1,06,1","2,1,06,1",,,"08,99,1,06,1,02,1,00800,1,07,1,99,9",,,,"120,M,+0090,1","99999,9,10097,1","3,1,016,1,+999,9","80,1","SYN094AAXX  02184 08014 11540 82308 10038 20028 30097 40105 53016 60102 78082 8627/ 333 10090 92436;",
"08014099999","2010-12-03T06:00:00","4","43.5666666","-5.7","6.0","GIJON MUSEL, SP","FM-12","99999","V020","210,1,N,0031,1","22000,1,9,N","020000,1,N,1","+0032,1","+0022,1","10165,1","12,0130,9,1","24,0274,9,1",,,,,,"04,99,1,04,1,02,1,00800,1,00,1,00,1","0192,9","11,9","999,+0010,9","999,N,+0016,1","99999,9,10157,1","2,1,015,1,+999,9","60,1","SYN112AAXX  03064 08014 11570 42106 10032 20022 30157 40165 52015 60132 760// 84200 333 20016 32001 50244 55032 70275;",
"08014099999","2010-12-03T09:00:00","4","43.5666666","-5.7","6.0","GIJON MUSEL, SP","FM-12","99999","V020","200,1,N,0046,1","22000,1,9,N","030000,1,N,1","+0042,1","+0027,1","10189,1",,,,,,,,"04,99,1,04,1,02,1,00800,1,03,1,00,1",,,,,"99999,9,10181,1","2,1,024,1,+999,9",,"SYN076AAXX  03094 08014 42580 42009 10042 20027 30181 40189 52024 84230 333 92438;",
"08014099999","2010-12-03T12:00:00","4","43.5666666","-5.7","6.0","GIJON MUSEL, SP","FM-12","99999","V020","210,1,N,0041,1","22000,1,9,N","030000,1,N,1","+0058,1","+0044,1","10196,1","06,0003,9,1",,,"6,1,06,1","6,1,06,1",,,"04,99,1,04,1,02,1,00800,1,00,1,00,1",,,,,"99999,9,10188,1","2,1,007,1,+999,9","80,1","SYN088AAXX  03124 08014 11580 42108 10058 20044 30188 40196 52007 69931 78066 84200 333 92438;",
"08014099999","2010-12-03T15:00:00","4","43.5666666","-5.7","6.0","GIJON MUSEL, SP","FM-12","99999","V020","230,1,N,0026,1","03600,1,9,N","030000,1,N,1","+0084,1","+0048,1","10198,1",,,,,,,,"06,99,1,04,1,08,1,00800,1,05,1,00,1",,,,,"99999,9,10190,1","2,1,002,1,+999,9",,"SYN076AAXX  03154 08014 42580 62305 10084 20048 30190 40198 52002 84850 333 92438;",
"08014099999","2010-12-03T18:00:00","4","43.5666666","-5.7","6.0","GIJON MUSEL, SP","FM-12","99999","V020","220,1,N,0015,1","01200,1,9,N","020000,1,N,1","+0052,1","+0043,1","10203,1","12,0030,9,1",,,"8,1,06,1","8,1,06,1",,,"08,99,1,06,1,08,1,00800,1,05,1,99,9",,,,"120,M,+0087,1","99999,9,10195,1","2,1,005,1,+999,9","02,1","SYN094AAXX  03184 08014 11570 82203 10052 20043 30195 40203 52005 60032 70288 8685/ 333 10087 92438;",
"08014099999","2010-12-04T06:00:00","4","43.5666666","-5.7","6.0","GIJON MUSEL, SP","FM-12","99999","V020","220,1,N,0051,1","22000,1,9,N","015000,1,N,1","+0042,1","-0008,1","10166,1","12,0000,9,1","24,0033,9,1",,,,,,"03,99,1,03,1,04,1,00800,1,00,1,00,1","0198,9","09,9","999,+0020,9","999,N,+0035,1","99999,9,10158,1","7,1,012,1,+999,9","02,1","SYN112AAXX  04064 08014 11565 32210 10042 21008 30158 40166 57012 60002 702// 83400 333 20035 31002 50294 55033 70032;","Q01  00002PRCP12"
"08014099999","2010-12-04T09:00:00","4","43.5666666","-5.7","6.0","GIJON MUSEL, SP","FM-12","99999","V020","230,1,N,0046,1","03600,1,9,N","015000,1,N,1","+0046,1","-0008,1","10157,1",,,,,,,,"06,99,1,01,1,04,1,00800,1,05,1,00,1",,,,,"99999,9,10149,1","7,1,009,1,+999,9",,"SYN076AAXX  04094 08014 42565 62309 10046 21008 30149 40157 57009 81450 333 92438;",
"08014099999","2010-12-04T12:00:00","4","43.5666666","-5.7","6.0","GIJON MUSEL, SP","FM-12","99999","V020","220,1,N,0026,1","03600,1,C,N","015000,1,N,1","+0098,1","+0022,1","10145,1","06,0000,9,1",,,,,,,"06,99,1,01,1,04,1,00800,1,05,1,99,9",,,,,"99999,9,10137,1","7,1,012,1,+999,9",,"SYN082AAXX  04124 08014 12565 62205 10098 20022 30137 40145 57012 60001 8145/ 333 92438;","Q01  00002PRCP06"
"08014099999","2010-12-04T15:00:00","4","43.5666666","-5.7","6.0","GIJON MUSEL, SP","FM-12","99999","V020","110,1,N,0021,1","03600,1,9,N","020000,1,N,1","+0112,1","+0022,1","10110,1",,,,,,,,"08,99,1,03,1,08,1,00800,1,05,1,99,9",,,,,"99999,9,10102,1","7,1,035,1,+999,9",,"SYN076AAXX  04154 08014 42570 81104 10112 20022 30102 40110 57035 8385/ 333 92438;",
"08014099999","2010-12-04T18:00:00","4","43.5666666","-5.7","6.0","GIJON MUSEL, SP","FM-12","99999","V020","130,1,N,0010,1","03600,1,9,N","020000,1,N,1","+0108,1","+0024,1","10107,1","12,0000,9,1",,,,,,,"08,99,1,03,1,08,1,00800,1,07,1,99,9",,,,"120,M,+0115,1","99999,9,10099,1","7,1,003,1,+999,9",,"SYN088AAXX  04184 08014 12570 81302 10108 20024 30099 40107 57003 60002 8387/ 333 10115 92438;","Q01  00002PRCP12"
"08014099999","2010-12-05T06:00:00","4","43.5666666","-5.7","6.0","GIJON MUSEL, SP","FM-12","99999","V020","999,9,C,0000,1","03600,1,9,N","013000,1,N,1","+0082,1","+0060,1","10024,1","12,0020,9,2","24,0015,9,2",,,,,,"08,99,1,04,1,07,1,00800,1,07,1,99,9","0252,9","11,9","999,+0060,9","999,N,+0076,1","99999,9,10016,1","7,1,023,1,+999,9","50,1","SYN112AAXX  05064 08014 11563 80000 10082 20060 30016 40024 57023 60022 750// 8477/ 333 20076 32006 50364 55042 70016;",
"08014099999","2010-12-05T09:00:00","4","43.5666666","-5.7","6.0","GIJON MUSEL, SP","FM-12","99999","V020","020,1,N,0010,1","00750,1,9,N","013000,1,N,1","+0094,1","+0073,1","10011,1",,,,"5,1,03,1","2,1,03,1",,,"08,99,1,05,1,07,1,00800,1,07,1,99,9",,,,,"99999,9,10003,1","7,1,013,1,+999,9","51,1","SYN082AAXX  05094 08014 41563 80202 10094 20073 30003 40011 57013 75152 8577/ 333 92437;",
"08014099999","2010-12-05T12:00:00","4","43.5666666","-5.7","6.0","GIJON MUSEL, SP","FM-12","99999","V020","999,9,C,0000,1","00750,1,9,N","020000,1,N,1","+0122,1","+0094,1","09991,1","06,0030,9,1",,,"5,1,06,1","5,1,06,1",,,"08,99,1,05,1,07,1,00800,1,01,1,99,9",,,,,"99999,9,09983,1","7,1,020,1,+999,9","02,1","SYN088AAXX  05124 08014 11570 80000 10122 20094 39983 49991 57020 60031 70255 8571/ 333 92438;",
"08014099999","2010-12-05T15:00:00","4","43.5666666","-5.7","6.0","GIJON MUSEL, SP","FM-12","99999","V020","360,1,N,0005,1","01200,1,9,N","020000,1,N,1","+0132,1","+0118,1","09962,1",,,,"6,1,03,1","2,1,03,1",,,"08,99,1,05,1,08,1,00800,1,05,1,99,9",,,,,"99999,9,09954,1","7,1,029,1,+999,9","02,1","SYN082AAXX  05154 08014 41570 83601 10132 20118 39954 49962 57029 70262 8585/ 333 92438;",
"08014099999","2010-12-05T18:00:00","4","43.5666666","-5.7","6.0","GIJON MUSEL, SP","FM-12","99999","V020","210,1,N,0046,1","01200,1,9,N","015000,1,N,1","+0180,1","+0099,1","09953,1","12,0030,9,1",,,"6,1,06,1","6,1,06,1",,,"08,99,1,05,1,08,1,00800,1,05,1,99,9",,,,"120,M,+0180,1","99999,9,09946,1","7,1,008,1,+999,9","02,1","SYN094AAXX  05184 08014 11565 82109 10180 20099 39946 49953 57008 60032 70266 8585/ 333 10180 92438;",
"08014099999","2010-12-06T06:00:00","4","43.5666666","-5.7","6.0","GIJON MUSEL, SP","FM-12","99999","V020","280,1,N,0021,1","01200,1,9,N","020000,1,N,1","+0170,1","+0104,1","09919,1","12,0030,9,1","24,0038,9,1",,,,,,"06,99,1,05,1,08,1,00800,1,05,1,99,9","0000,9","11,9","999,+0110,9","999,N,+0140,1","99999,9,09912,1","5,1,000,1,+999,9","02,1","SYN112AAXX  06064 08014 11570 62804 10170 20104 39912 49919 55000 60032 702// 8585/ 333 20140 32011 50494 55000 70038;",
"08014099999","2010-12-06T09:00:00","4","43.5666666","-5.7","6.0","GIJON MUSEL, SP","FM-12","99999","V020","290,1,N,0015,1","03600,1,9,N","020000,1,N,1","+0150,1","+0135,1","09932,1",,,,"5,1,03,1","2,1,03,1",,,"08,99,1,04,1,02,1,00800,1,01,1,99,9",,,,,"99999,9,09925,1","2,1,013,1,+999,9","60,1","SYN082AAXX  06094 08014 41570 82903 10150 20135 39925 49932 52013 76052 8421/ 333 92438;",
"08014099999","2010-12-06T12:00:00","4","43.5666666","-5.7","6.0","GIJON MUSEL, SP","FM-12","99999","V020","190,1,N,0026,1","00750,1,9,N","010000,1,N,1","+0152,1","+0137,1","09952,1","06,0051,9,1",,,"8,1,06,1","8,1,06,1",,,"08,99,1,06,1,07,1,00800,1,01,1,99,9",,,,,"99999,9,09945,1","2,1,020,1,+999,9","63,1","SYN088AAXX  06124 08014 11560 81905 10152 20137 39945 49952 52020 60051 76388 8671/ 333 92437;",
"08014099999","2010-12-06T15:00:00","4","43.5666666","-5.7","6.0","GIJON MUSEL, SP","FM-12","99999","V020","180,1,N,0010,1","22000,1,9,N","030000,1,N,1","+0182,1","+0133,1","09944,1",,,,,,,,"04,99,1,03,1,04,1,00800,1,03,1,00,1",,,,,"99999,9,09937,1","7,1,008,1,+999,9",,"SYN076AAXX  06154 08014 42580 41802 10182 20133 39937 49944 57008 83430 333 92438;",
"08014099999","2010-12-06T18:00:00","4","43.5666666","-5.7","6.0","GIJON MUSEL, SP","FM-12","99999","V020","260,1,N,0010,1","03600,1,9,N","030000,1,N,1","+0144,1","+0114,1","09960,1","12,0051,9,1",,,,,,,"08,99,1,04,1,04,1,00800,1,05,1,99,9",,,,"120,M,+0187,1","99999,9,09952,1","2,1,015,1,+999,9",,"SYN088AAXX  06184 08014 12580 82602 10144 20114 39952 49960 52015 60052 8445/ 333 10187 92428;",
"08014099999","2010-12-07T06:00:00","4","43.5666666","-5.7","6.0","GIJON MUSEL, SP","FM-12","99999","V020","190,1,N,0021,1","03600,1,9,N","015000,1,N,1","+0122,1","+0111,1","09937,1","12,0000,9,1","24,0061,9,1",,,,,,"06,99,1,04,1,08,1,00800,1,03,1,00,1","0252,9","11,9","999,+0080,9","999,N,+0114,1","99999,9,09929,1","7,1,004,1,+999,9","02,1","SYN112AAXX  07064 08014 11565 61904 10122 20111 39929 49937 57004 69922 702// 84830 333 20114 32008 50214 55042 70060;","Q01  00002PRCP12"
"08014099999","2010-12-07T09:00:00","4","43.5666666","-5.7","6.0","GIJON MUSEL, SP","FM-12","99999","V020","190,1,N,0021,1","03600,1,9,N","020000,1,N,1","+0124,1","+0101,1","09949,1",,,,,,,,"07,99,1,04,1,04,1,00800,1,05,1,99,9",,,,,"99999,9,09941,1","2,1,012,1,+999,9",,"SYN076AAXX  07094 08014 42570 71904 10124 20101 39941 49949 52012 8445/ 333 92428;",
"08014099999","2010-12-07T12:00:00","4","43.5666666","-5.7","6.0","GIJON MUSEL, SP","FM-12","99999","V020","999,9,C,0000,1","00750,1,9,N","020000,1,N,1","+0162,1","+0098,1","09952,1","06,0000,9,1",,,,,,,"06,99,1,05,1,04,1,00800,1,05,1,99,9",,,,,"99999,9,09945,1","2,1,004,1,+999,9",,"SYN082AAXX  07124 08014 12570 60000 10162 20098 39945 49952 52004 60001 8545/ 333 92438;","Q01  00002PRCP06"
"08014099999","2010-12-07T15:00:00","4","43.5666666","-5.7","6.0","GIJON MUSEL, SP","FM-12","99999","V020","090,1,N,0010,1","03600,1,9,N","030000,1,N,1","+0148,1","+0119,1","09950,1",,,,,,,,"07,99,1,03,1,04,1,00800,1,07,1,99,9",,,,,"99999,9,09942,1","7,1,003,1,+999,9",,"SYN076AAXX  07154 08014 42580 70902 10148 20119 39942 49950 57003 8347/ 333 92438;",
"08014099999","2010-12-07T18:00:00","4","43.5666666","-5.7","6.0","GIJON MUSEL, SP","FM-12","99999","V020","999,9,C,0000,1","03600,1,9,N","020000,1,N,1","+0086,1","+0069,1","09949,1","12,0003,9,1",,,"2,1,06,1","2,1,06,1",,,"08,99,1,04,1,02,1,00800,1,07,1,99,9",,,,"120,M,+0170,1","99999,9,09941,1","7,1,001,1,+999,9","61,1","SYN094AAXX  07184 08014 11570 80000 10086 20069 39941 49949 57001 69932 76122 8427/ 333 10170 92428;",
"08014099999","2010-12-08T06:00:00","4","43.5666666","-5.7","6.0","GIJON MUSEL, SP","FM-12","99999","V020","210,1,N,0026,1","03600,1,9,N","015000,1,N,1","+0122,1","+0111,1","09945,1","12,0020,9,1","24,0020,9,1",,,,,,"06,99,1,03,1,08,1,00800,1,03,1,00,1","0210,9","11,9","999,+0090,9","999,N,+0118,1","99999,9,09937,1","2,1,021,1,+999,9","02,1","SYN112AAXX  08064 08014 11565 62105 10122 20111 39937 49945 52021 60022 702// 83830 333 20118 32009 50194 55035 70020;",
"08014099999","2010-12-08T09:00:00","4","43.5666666","-5.7","6.0","GIJON MUSEL, SP","FM-12","99999","V020","250,1,N,0021,1","03600,1,9,N","020000,1,N,1","+0124,1","+0113,1","09983,1",,,,,,,,"07,99,1,04,1,02,1,00800,1,05,1,99,9",,,,,"99999,9,09975,1","2,1,038,1,+999,9",,"SYN076AAXX  08094 08014 42570 72504 10124 20113 39975 49983 52038 8425/ 333 92438;",
"08014099999","2010-12-08T12:00:00","4","43.5666666","-5.7","6.0","GIJON MUSEL, SP","FM-12","99999","V020","150,1,N,0010,1","03600,1,9,N","015000,1,N,1","+0124,1","+0113,1","10061,1","06,0010,9,1",,,"6,1,06,1","6,1,06,1",,,"08,99,1,04,1,02,1,00800,1,01,1,99,9",,,,,"99999,9,10053,1","2,1,078,1,+999,9","02,1","SYN088AAXX  08124 08014 11565 81502 10124 20113 30053 40061 52078 60011 70266 8421/ 333 92428;",
"08014099999","2010-12-08T15:00:00","4","43.5666666","-5.7","6.0","GIJON MUSEL, SP","FM-12","99999","V020","040,1,N,0041,1","00750,1,9,N","015000,1,N,1","+0112,1","+0104,1","10102,1",,,,"6,1,03,1","2,1,03,1",,,"08,99,1,05,1,07,1,00800,1,01,1,99,9",,,,,"99999,9,10094,1","2,1,041,1,+999,9","60,1","SYN082AAXX  08154 08014 41565 80408 10112 20104 30094 40102 52041 76062 8571/ 333 92438;",
"08014099999","2010-12-08T18:00:00","4","43.5666666","-5.7","6.0","GIJON MUSEL, SP","FM-12","99999","V020","060,1,N,0026,1","00750,1,9,N","015000,1,N,1","+0106,1","+0077,1","10138,1","12,0010,9,1",,,"8,1,06,1","6,1,06,1",,,"08,99,1,05,1,07,1,00800,1,01,1,99,9",,,,"120,M,+0133,1","99999,9,10130,1","2,1,036,1,+999,9","02,1","SYN094AAXX  08184 08014 11565 80605 10106 20077 30130 40138 52036 60012 70286 8571/ 333 10133 92438;",
"08014099999","2010-12-09T06:00:00","4","43.5666666","-5.7","6.0","GIJON MUSEL, SP","FM-12","99999","V020","080,1,N,0057,1","00420,1,9,N","003000,1,N,1","+0100,1","+0083,1","10233,1","12,0030,9,1","24,0041,9,1",,"5,1,06,1","2,1,06,1",,,"08,99,1,08,1,07,1,00450,1,99,9,99,9","0024,9","11,9","999,+0080,9","999,N,+0095,1","99999,9,10225,1","2,1,013,1,+999,9","50,1","SYN112AAXX  09064 08014 11430 80811 10100 20083 30225 40233 52013 60032 75052 887// 333 20095 32008 50254 55004 70040;",
"08014099999","2010-12-09T09:00:00","4","43.5666666","-5.7","6.0","GIJON MUSEL, SP","FM-12","99999","V020","090,1,N,0057,1","00420,1,9,N","003000,1,N,1","+0104,1","+0083,1","10260,1",,,,"5,1,03,1","2,1,03,1",,,"08,99,1,07,1,07,1,00450,1,07,1,99,9",,,,,"99999,9,10252,1","2,1,027,1,+999,9","51,1","SYN082AAXX  09094 08014 41430 80911 10104 20083 30252 40260 52027 75152 8777/ 333 92446;",
"08014099999","2010-12-09T12:00:00","4","43.5666666","-5.7","6.0","GIJON MUSEL, SP","FM-12","99999","V020","080,1,N,0062,1","00420,1,9,N","008000,1,N,1","+0100,1","+0071,1","10269,1","06,0010,9,1",,,"5,1,06,1","2,1,06,1",,,"07,99,1,07,1,07,1,00450,1,00,1,00,1",,,,,"99999,9,10261,1","1,1,009,1,+999,9","15,1","SYN088AAXX  09124 08014 11458 70812 10100 20071 30261 40269 51009 60011 71552 87700 333 92446;",
"08014099999","2010-12-09T15:00:00","4","43.5666666","-5.7","6.0","GIJON MUSEL, SP","FM-12","99999","V020","090,1,N,0062,1","00750,1,9,N","010000,1,N,1","+0104,1","+0060,1","10276,1",,,,,,,,"07,99,1,06,1,04,1,00800,1,06,1,00,1",,,,,"99999,9,10268,1","1,1,007,1,+999,9",,"SYN076AAXX  09154 08014 42560 70912 10104 20060 30268 40276 51007 86460 333 92446;",
"08014099999","2010-12-09T18:00:00","4","43.5666666","-5.7","6.0","GIJON MUSEL, SP","FM-12","99999","V020","110,1,N,0041,1","00750,1,9,N","015000,1,N,1","+0102,1","+0054,1","10292,1","12,0010,9,1",,,,,,,"06,99,1,06,1,04,1,00800,1,06,1,00,1",,,,"120,M,+0108,1","99999,9,10284,1","3,1,016,1,+999,9",,"SYN088AAXX  09184 08014 12565 61108 10102 20054 30284 40292 53016 60012 86460 333 10108 92447;",
"08014099999","2010-12-10T06:00:00","4","43.5666666","-5.7","6.0","GIJON MUSEL, SP","FM-12","99999","V020","090,1,N,0036,1","00750,1,9,N","015000,1,N,1","+0090,1","+0044,1","10294,1","12,0000,9,1","24,0015,9,1",,,,,,"06,99,1,05,1,05,1,00800,1,03,1,00,1","0000,9","09,9","999,+0070,9","999,N,+0085,1","99999,9,10286,1","5,1,000,1,+999,9",,"SYN106AAXX  10064 08014 12565 60907 10090 20044 30286 40294 55000 60002 85530 333 20085 31007 50344 55000 70014;","Q01  00002PRCP12"
"08014099999","2010-12-10T09:00:00","4","43.5666666","-5.7","6.0","GIJON MUSEL, SP","FM-12","99999","V020","110,1,N,0036,1","22000,1,9,N","020000,1,N,1","+0090,1","+0050,1","10298,1",,,,,,,,"02,99,1,02,1,08,1,00800,1,06,1,00,1",,,,,"99999,9,10290,1","3,1,004,1,+999,9",,"SYN076AAXX  10094 08014 42570 21107 10090 20050 30290 40298 53004 82860 333 92447;",
"08014099999","2010-12-10T12:00:00","4","43.5666666","-5.7","6.0","GIJON MUSEL, SP","FM-12","99999","V020","080,1,N,0046,1","22000,1,9,N","020000,1,N,1","+0110,1","+0053,1","10290,1","06,0000,9,1",,,,,,,"01,99,1,01,1,00,1,01750,1,03,1,00,1",,,,,"99999,9,10282,1","8,1,008,1,+999,9",,"SYN082AAXX  10124 08014 12770 10809 10110 20053 30282 40290 58008 60001 81030 333 92447;","Q01  00002PRCP06"
"08014099999","2010-12-10T15:00:00","4","43.5666666","-5.7","6.0","GIJON MUSEL, SP","FM-12","99999","V020","080,1,N,0026,1","22000,1,9,N","020000,1,N,1","+0118,1","+0057,1","10275,1",,,,,,"00,1,+99999,9,99,9",,"00,99,1,00,1,00,1,99999,9,00,1,00,1",,,,,"99999,9,10267,1","7,1,015,1,+999,9",,"SYN070AAXX  10154 08014 42970 00805 10118 20057 30267 40275 57015 333 92447;",
"08014099999","2010-12-10T18:00:00","4","43.5666666","-5.7","6.0","GIJON MUSEL, SP","FM-12","99999","V020","090,1,N,0026,1","22000,1,9,N","020000,1,N,1","+0108,1","+0060,1","10274,1","12,0000,9,1",,,,,"00,1,+99999,9,99,9",,"00,99,1,00,1,00,1,99999,9,00,1,00,1",,,,"120,M,+0120,1","99999,9,10266,1","6,1,001,1,+999,9",,"SYN082AAXX  10184 08014 12970 00905 10108 20060 30266 40274 56001 60002 333 10120 92447;","Q01  00002PRCP12"
"08014099999","2010-12-11T06:00:00","4","43.5666666","-5.7","6.0","GIJON MUSEL, SP","FM-12","99999","V020","060,1,N,0010,1","22000,1,9,N","015000,1,N,1","+0088,1","+0042,1","10223,1","12,0000,9,1","24,0000,9,1",,,,"00,1,+99999,9,99,9",,"00,99,1,00,1,00,1,99999,9,00,1,00,1","0468,9","01,9","999,+0040,9","999,N,+0060,1","99999,9,10215,1","7,1,013,1,+999,9","00,1","SYN106AAXX  11064 08014 11965 00602 10088 20042 30215 40223 57013 60002 700// 333 20060 30004 50284 55078 70000;","Q01  00002PRCP24Q02  00002PRCP12"
"08014099999","2010-12-11T09:00:00","4","43.5666666","-5.7","6.0","GIJON MUSEL, SP","FM-12","99999","V020","050,1,N,0010,1","22000,1,9,N","020000,1,N,1","+0090,1","+0044,1","10222,1",,,,,,,,"03,99,1,02,1,00,1,01750,1,07,1,01,1",,,,,"99999,9,10214,1","7,1,001,1,+999,9",,"SYN076AAXX  11094 08014 42770 30502 10090 20044 30214 40222 57001 82071 333 92447;",
"08014099999","2010-12-11T12:00:00","4","43.5666666","-5.7","6.0","GIJON MUSEL, SP","FM-12","99999","V020","999,9,C,0000,1","99999,9,9,N","012000,1,N,1","+0118,1","+0057,1","10213,1","06,0000,9,1",,,,,,,"05,99,1,03,1,00,1,01250,1,01,1,05,1",,,,,"99999,9,10205,1","7,1,009,1,+999,9",,"SYN082AAXX  11124 08014 12662 50000 10118 20057 30205 40213 57009 60001 83015 333 92447;","Q01  00002PRCP06"
"08014099999","2010-12-11T15:00:00","4","43.5666666","-5.7","6.0","GIJON MUSEL, SP","FM-12","99999","V020","080,1,N,0036,1","22000,1,9,N","015000,1,N,1","+0132,1","+0091,1","10186,1",,,,,,,,"04,99,1,03,1,00,1,01750,1,01,1,05,1",,,,,"99999,9,10178,1","7,1,027,1,+999,9",,"SYN076AAXX  11154 08014 42765 40807 10132 20091 30178 40186 57027 83015 333 92447;",
"08014099999","2010-12-11T18:00:00","4","43.5666666","-5.7","6.0","GIJON MUSEL, SP","FM-12","99999","V020","270,1,N,0015,1","22000,1,9,N","015000,1,N,1","+0113,1","+0080,1","10182,1","12,0000,9,1",,,,,,,"02,99,1,01,1,00,1,01750,1,01,1,05,1",,,,"120,M,+0136,1","99999,9,10174,1","7,1,004,1,+999,9",,"SYN088AAXX  11184 08014 12765 22703 10113 20080 30174 40182 57004 60002 81015 333 10136 92447;","Q01  00002PRCP12"
"08014099999","2010-12-12T06:00:00","4","43.5666666","-5.7","6.0","GIJON MUSEL, SP","FM-12","99999","V020","999,9,C,0000,1","22000,1,9,N","008000,1,N,1","+0108,1","+0096,1","10161,1","12,0000,9,1","24,0000,9,1",,,,,,"03,99,1,03,1,00,1,01750,1,01,1,00,1","0162,9","09,9","999,+0080,9","999,N,+0095,1","99999,9,10153,1","7,1,007,1,+999,9","10,1","SYN112AAXX  12064 08014 11758 30000 10108 20096 30153 40161 57007 60002 710// 83010 333 20095 31008 50203 55027 70000;","Q01  00002PRCP24Q02  00002PRCP12"
"08014099999","2010-12-12T09:00:00","4","43.5666666","-5.7","6.0","GIJON MUSEL, SP","FM-12","99999","V020","999,9,C,0000,1","09000,1,9,N","010000,1,N,1","+0095,1","+0089,1","10167,1",,,,,,,,"06,99,1,04,1,00,1,01750,1,03,1,05,1",,,,,"99999,9,10159,1","3,1,006,1,+999,9",,"SYN076AAXX  12094 08014 42760 60000 10095 20089 30159 40167 53006 84035 333 92436;",
"08014099999","2010-12-12T12:00:00","4","43.5666666","-5.7","6.0","GIJON MUSEL, SP","FM-12","99999","V020","999,9,C,0000,1","09000,1,9,N","006000,1,N,1","+0132,1","+0109,1","10160,1","06,0000,9,1",,,"1,1,06,1","1,1,06,1",,,"05,99,1,03,1,00,1,01750,1,01,1,05,1",,,,,"99999,9,10152,1","8,1,007,1,+999,9","10,1","SYN088AAXX  12124 08014 11756 50000 10132 20109 30152 40160 58007 60001 71011 83015 333 92436;","Q01  00002PRCP06"
"08014099999","2010-12-12T15:00:00","4","43.5666666","-5.7","6.0","GIJON MUSEL, SP","FM-12","99999","V020","030,1,N,0010,1","03600,1,9,N","006000,1,N,1","+0130,1","+0112,1","10147,1",,,,"2,1,03,1","2,1,03,1",,,"07,99,1,04,1,06,1,00800,1,01,1,05,1",,,,,"99999,9,10139,1","7,1,013,1,+999,9","10,1","SYN082AAXX  12154 08014 41556 70302 10130 20112 30139 40147 57013 71022 84615 333 92436;",
"08014099999","2010-12-12T18:00:00","4","43.5666666","-5.7","6.0","GIJON MUSEL, SP","FM-12","99999","V020","999,9,C,0000,1","01200,1,9,N","010000,1,N,1","+0120,1","+0101,1","10155,1","12,0000,9,1",,,,,,,"07,99,1,05,1,06,1,01250,1,01,1,05,1",,,,"120,M,+0138,1","99999,9,10147,1","3,1,008,1,+999,9",,"SYN088AAXX  12184 08014 12660 70000 10120 20101 30147 40155 53008 60002 85615 333 10138 92436;","Q01  00002PRCP12"
"08014099999","2010-12-13T06:00:00","4","43.5666666","-5.7","6.0","GIJON MUSEL, SP","FM-12","99999","V020","220,1,N,0026,1","03600,1,9,N","004000,1,N,1","+0110,1","+0105,1","10142,1","12,0000,9,1","24,0000,9,1",,,,,,"06,99,1,04,1,06,1,00800,1,01,1,00,1","0108,9","09,9","999,+0080,9","999,N,+0095,1","99999,9,10134,1","4,1,000,1,+999,9","10,1","SYN112AAXX  13064 08014 11540 62205 10110 20105 30134 40142 54000 60002 710// 84610 333 20095 31008 50074 55018 70000;","Q01  00002PRCP24Q02  00002PRCP12"
"08014099999","2010-12-13T12:00:00","4","43.5666666","-5.7","6.0","GIJON MUSEL, SP","FM-12","99999","V020","999,9,C,0000,1","00750,1,9,N","003000,1,N,1","+0118,1","+0107,1","10159,1","06,0000,9,1",,,"2,1,06,1","2,1,06,1",,,"08,99,1,05,1,06,1,00800,1,07,1,99,9",,,,,"99999,9,10151,1","2,1,004,1,+999,9","10,1","SYN088AAXX  13124 08014 11530 80000 10118 20107 30151 40159 52004 60001 71022 8567/ 333 92435;","Q01  00002PRCP06"
"08014099999","2010-12-13T15:00:00","4","43.5666666","-5.7","6.0","GIJON MUSEL, SP","FM-12","99999","V020","080,1,N,0036,1","00750,1,9,N","006000,1,N,1","+0118,1","+0099,1","10162,1",,,,"5,1,03,1","2,1,03,1",,,"08,99,1,05,1,06,1,00800,1,07,1,99,9",,,,,"99999,9,10154,1","2,1,003,1,+999,9","10,1","SYN082AAXX  13154 08014 41556 80807 10118 20099 30154 40162 52003 71052 8567/ 333 92436;",
"08014099999","2010-12-13T18:00:00","4","43.5666666","-5.7","6.0","GIJON MUSEL, SP","FM-12","99999","V020","080,1,N,0036,1","00750,1,9,N","010000,1,N,1","+0113,1","+0090,1","10182,1","12,0000,9,1",,,,,,,"08,99,1,05,1,06,1,00800,1,07,1,99,9",,,,"120,M,+0126,1","99999,9,10174,1","2,1,020,1,+999,9",,"SYN088AAXX  13184 08014 12560 80807 10113 20090 30174 40182 52020 69902 8567/ 333 10126 92436;","Q01  00002PRCP12"
"08014099999","2010-12-14T06:00:00","4","43.5666666","-5.7","6.0","GIJON MUSEL, SP","FM-12","99999","V020","120,1,N,0026,1","22000,1,9,N","015000,1,N,1","+0086,1","+0048,1","10239,1","12,0000,9,1","24,0000,9,1",,,,"00,1,+99999,9,99,9",,"00,99,1,00,1,00,1,99999,9,00,1,00,1","0000,9","01,9","999,+0050,9","999,N,+0085,1","99999,9,10231,1","2,1,011,1,+999,9","02,1","SYN106AAXX  14064 08014 11965 01205 10086 20048 30231 40239 52011 60002 702// 333 20085 30005 50264 55000 79999;","Q01  00002PRCP24Q02  00002PRCP12"
"08014099999","2010-12-14T09:00:00","4","43.5666666","-5.7","6.0","GIJON MUSEL, SP","FM-12","99999","V020","130,1,N,0021,1","22000,1,9,N","012000,1,N,1","+0085,1","+0045,1","10262,1",,,,,,,,"01,99,1,01,1,00,1,01250,1,07,1,00,1",,,,,"99999,9,10254,1","2,1,023,1,+999,9",,"SYN076AAXX  14094 08014 42662 11304 10085 20045 30254 40262 52023 81070 333 92437;",
"08014099999","2010-12-14T12:00:00","4","43.5666666","-5.7","6.0","GIJON MUSEL, SP","FM-12","99999","V020","090,1,N,0026,1","22000,1,9,N","015000,1,N,1","+0111,1","+0048,1","10276,1","06,0000,9,1",,,"5,1,06,1","0,1,06,1",,,"04,99,1,03,1,01,1,00800,1,03,1,00,1",,,,,"99999,9,10268,1","2,1,014,1,+999,9","03,1","SYN088AAXX  14124 08014 11565 40905 10111 20048 30268 40276 52014 69901 70350 83130 333 92437;","Q01  00002PRCP06"
"08014099999","2010-12-14T15:00:00","4","43.5666666","-5.7","6.0","GIJON MUSEL, SP","FM-12","99999","V020","070,1,N,0031,1","22000,1,9,N","025000,1,N,1","+0110,1","+0047,1","10284,1",,,,,,,,"03,99,1,02,1,01,1,00800,1,03,1,00,1",,,,,"99999,9,10276,1","2,1,008,1,+999,9",,"SYN076AAXX  14154 08014 42575 30706 10110 20047 30276 40284 52008 82130 333 92438;",
"08014099999","2010-12-14T18:00:00","4","43.5666666","-5.7","6.0","GIJON MUSEL, SP","FM-12","99999","V020","130,1,N,0026,1","22000,1,9,N","020000,1,N,1","+0093,1","+0033,1","10309,1","12,0000,9,1",,,,,,,"03,99,1,03,1,01,1,00800,1,00,1,00,1",,,,"120,M,+0117,1","99999,9,10301,1","2,1,025,1,+999,9",,"SYN088AAXX  14184 08014 12570 31305 10093 20033 30301 40309 52025 69902 83100 333 10117 92437;","Q01  00002PRCP12"
"08014099999","2010-12-15T06:00:00","4","43.5666666","-5.7","6.0","GIJON MUSEL, SP","FM-12","99999","V020","230,1,N,0026,1","22000,1,9,N","015000,1,N,1","+0060,1","+0035,1","10342,1","12,0000,9,1","24,0003,9,1",,,,,,"03,99,1,02,1,08,1,00800,1,06,1,00,1","0468,9","11,9","999,+0040,9","999,N,+0060,1","99999,9,10334,1","2,1,004,1,+999,9","02,1","SYN112AAXX  15064 08014 11565 32305 10060 20035 30334 40342 52004 69922 702// 82860 333 20060 32004 50274 55078 70002;","Q01  00002PRCP12"
"08014099999","2010-12-15T09:00:00","4","43.5666666","-5.7","6.0","GIJON MUSEL, SP","FM-12","99999","V020","200,1,N,0015,1","03600,1,9,N","015000,1,N,1","+0070,1","+0029,1","10349,1",,,,,,,,"05,99,1,03,1,08,1,00800,1,06,1,00,1",,,,,"99999,9,10341,1","2,1,007,1,+999,9",,"SYN076AAXX  15094 08014 42565 52003 10070 20029 30341 40349 52007 83860 333 92437;",
"08014099999","2010-12-15T12:00:00","4","43.5666666","-5.7","6.0","GIJON MUSEL, SP","FM-12","99999","V020","090,1,N,0041,1","00750,1,9,N","020000,1,N,1","+0092,1","+0028,1","10345,1","06,0000,9,1",,,,,,,"08,99,1,05,1,06,1,00800,1,01,1,99,9",,,,,"99999,9,10337,1","8,1,004,1,+999,9",,"SYN082AAXX  15124 08014 12570 80908 10092 20028 30337 40345 58004 60001 8561/ 333 92437;","Q01  00002PRCP06"
"08014099999","2010-12-15T15:00:00","4","43.5666666","-5.7","6.0","GIJON MUSEL, SP","FM-12","99999","V020","090,1,N,0036,1","00750,1,9,N","020000,1,N,1","+0085,1","+0002,1","10334,1",,,,,,,,"08,99,1,05,1,06,1,00800,1,01,1,99,9",,,,,"99999,9,10326,1","7,1,011,1,+999,9",,"SYN076AAXX  15154 08014 42570 80907 10085 20002 30326 40334 57011 8561/ 333 92437;",
"08014099999","2010-12-15T18:00:00","4","43.5666666","-5.7","6.0","GIJON MUSEL, SP","FM-12","99999","V020","130,1,N,0021,1","03600,1,9,N","020000,1,N,1","+0070,1","+0029,1","10338,1","12,0000,9,1",,,,,,,"08,99,1,04,1,01,1,00800,1,06,1,99,9",,,,"120,M,+0101,1","99999,9,10330,1","3,1,004,1,+999,9",,"SYN088AAXX  15184 08014 12570 81304 10070 20029 30330 40338 53004 60002 8416/ 333 10101 92437;","Q01  00002PRCP12"
"08014099999","2010-12-16T06:00:00","4","43.5666666","-5.7","6.0","GIJON MUSEL, SP","FM-12","99999","V020","190,1,N,0015,1","03600,1,9,N","020000,1,N,1","+0050,1","+0008,1","10292,1","12,0000,9,1","24,0003,9,1",,"8,1,06,1","1,1,06,1",,,"05,99,1,04,1,02,1,00800,1,06,1,00,1","0120,9","09,9","999,+0010,9","999,N,+0045,1","99999,9,10284,1","5,1,016,1,+999,9","02,1","SYN112AAXX  16064 08014 11570 51903 10050 20008 30284 40292 55016 69922 70281 84260 333 20045 31001 50334 55020 70002;","Q01  00002PRCP12"
"08014099999","2010-12-16T09:00:00","4","43.5666666","-5.7","6.0","GIJON MUSEL, SP","FM-12","99999","V020","230,1,N,0015,1","00750,1,9,N","020000,1,N,1","+0058,1","-0007,1","10290,1",,,,"6,1,03,1","6,1,03,1",,,"06,99,1,06,1,04,1,00800,1,00,1,00,1",,,,,"99999,9,10282,1","8,1,002,1,+999,9","02,1","SYN082AAXX  16094 08014 41570 62303 10058 21007 30282 40290 58002 70266 86400 333 92437;",
"08014099999","2010-12-16T12:00:00","4","43.5666666","-5.7","6.0","GIJON MUSEL, SP","FM-12","99999","V020","020,1,N,0026,1","22000,1,9,N","030000,1,N,1","+0082,1","-0008,1","10267,1","06,0000,9,1",,,"6,1,06,1","1,1,06,1",,,"04,99,1,02,1,04,1,00800,1,03,1,00,1",,,,,"99999,9,10259,1","7,1,023,1,+999,9","02,1","SYN088AAXX  16124 08014 11580 40205 10082 21008 30259 40267 57023 69901 70261 82430 333 92438;","Q01  00002PRCP06"
"08014099999","2010-12-16T15:00:00","4","43.5666666","-5.7","6.0","GIJON MUSEL, SP","FM-12","99999","V020","999,9,C,0000,1","22000,1,9,N","030000,1,N,1","+0100,1","+0006,1","10241,1",,,,,,,,"02,99,1,01,1,02,1,00800,1,06,1,01,1",,,,,"99999,9,10233,1","6,1,026,1,+999,9",,"SYN076AAXX  16154 08014 42580 20000 10100 20006 30233 40241 56026 81261 333 92438;",
"08014099999","2010-12-16T18:00:00","4","43.5666666","-5.7","6.0","GIJON MUSEL, SP","FM-12","99999","V020","250,1,N,0021,1","22000,1,9,N","030000,1,N,1","+0066,1","+0015,1","10226,1","12,0000,9,1",,,,,,,"01,99,1,01,1,08,1,00800,1,06,1,00,1",,,,"120,M,+0105,1","99999,9,10218,1","7,1,015,1,+999,9",,"SYN088AAXX  16184 08014 12580 12504 10066 20015 30218 40226 57015 69902 81860 333 10105 92438;","Q01  00002PRCP12"
"08014099999","2010-12-17T06:00:00","4","43.5666666","-5.7","6.0","GIJON MUSEL, SP","FM-12","99999","V020","220,1,N,0041,1","00750,1,9,N","015000,1,N,1","+0084,1","+0009,1","10111,1","12,9999,9,9","24,9999,9,9",,"2,1,06,1","2,1,06,1",,,"07,99,1,06,1,07,1,00800,1,07,1,00,1","0246,9","09,9","999,+0030,9","999,N,+0040,1","99999,9,10103,1","7,1,032,1,+999,9","50,1","SYN112AAXX  17064 08014 11565 72208 10084 20009 30103 40111 57032 69902 75022 86770 333 20040 31003 50394 55041 79999;","Q01  00002PRCP24Q02  00002PRCP12Q03  00002PRCP12Q04  00002PRCP24"
"08014099999","2010-12-17T09:00:00","4","43.5666666","-5.7","6.0","GIJON MUSEL, SP","FM-12","99999","V020","230,1,N,0036,1","03600,1,9,N","015000,1,N,1","+0092,1","+0032,1","10085,1",,,,"5,1,03,1","1,1,03,1","02,1,+00780,1,09,1",,"06,99,1,04,1,03,1,00800,1,06,1,00,1",,,,,"99999,9,10077,1","6,1,026,1,+999,9","80,1","SYN088AAXX  17094 08014 41565 62307 10092 20032 30077 40085 56026 78051 84360 333 82926 92437;",
"08014099999","2010-12-17T12:00:00","4","43.5666666","-5.7","6.0","GIJON MUSEL, SP","FM-12","99999","V020","250,1,N,0015,1","00750,1,9,N","003000,1,N,1","+0078,1","+0069,1","10081,1","06,0061,9,1",,,"8,1,06,1","6,1,06,1",,,"08,99,1,08,1,07,1,00800,1,99,9,99,9",,,,,"99999,9,10073,1","8,1,004,1,+999,9","61,1","SYN088AAXX  17124 08014 11530 82503 10078 20069 30073 40081 58004 60061 76186 887// 333 92435;",
"08014099999","2010-12-17T15:00:00","4","43.5666666","-5.7","6.0","GIJON MUSEL, SP","FM-12","99999","V020","030,1,N,0031,1","00750,1,9,N","006000,1,N,1","+0082,1","+0046,1","10066,1",,,,"6,1,03,1","6,1,03,1",,,"08,99,1,06,1,07,1,00800,1,07,1,99,9",,,,,"99999,9,10058,1","6,1,015,1,+999,9","60,1","SYN082AAXX  17154 08014 41556 80306 10082 20046 30058 40066 56015 76066 8677/ 333 92436;",
"08014099999","2010-12-17T18:00:00","4","43.5666666","-5.7","6.0","GIJON MUSEL, SP","FM-12","99999","V020","250,1,N,0010,1","00750,1,9,N","004000,1,N,1","+0074,1","+0047,1","10065,1","12,0140,9,1",,,"6,1,06,1","2,1,06,1",,,"06,99,1,05,1,07,1,00800,1,07,1,00,1",,,,"120,M,+0095,1","99999,9,10057,1","6,1,001,1,+999,9","60,1","SYN094AAXX  17184 08014 11540 62502 10074 20047 30057 40065 56001 60142 76062 85770 333 10095 92436;",
"08014099999","2010-12-18T06:00:00","4","43.5666666","-5.7","6.0","GIJON MUSEL, SP","FM-12","99999","V020","230,1,N,0036,1","22000,1,9,N","020000,1,N,1","+0040,1","+0020,1","10025,1","12,0020,9,1","24,0160,9,1",,,,,,"03,99,1,01,1,08,1,00800,1,06,1,08,1","0000,9","09,9","999,+0020,9","999,N,+0038,1","99999,9,10017,1","7,1,013,1,+999,9",,"SYN106AAXX  18064 08014 12570 32307 10040 20020 30017 40025 57013 60022 81868 333 20038 31002 50194 55000 70160;",
"08014099999","2010-12-18T09:00:00","4","43.5666666","-5.7","6.0","GIJON MUSEL, SP","FM-12","99999","V020","230,1,N,0031,1","22000,1,9,N","020000,1,N,1","+0050,1","+0009,1","10020,1",,,,,,,,"03,99,1,02,1,08,1,00800,1,03,1,08,1",,,,,"99999,9,10012,1","6,1,005,1,+999,9",,"SYN076AAXX  18094 08014 42570 32306 10050 20009 30012 40020 56005 82838 333 92437;",
"08014099999","2010-12-18T12:00:00","4","43.5666666","-5.7","6.0","GIJON MUSEL, SP","FM-12","99999","V020","200,1,N,0031,1","22000,1,9,N","030000,1,N,1","+0092,1","+0021,1","10011,1","06,0000,9,1",,,,,,,"02,99,1,01,1,08,1,00800,1,06,1,01,1",,,,,"99999,9,10003,1","8,1,009,1,+999,9",,"SYN082AAXX  18124 08014 12580 22006 10092 20021 30003 40011 58009 60001 81861 333 92438;","Q01  00002PRCP06"
"08014099999","2010-12-18T15:00:00","4","43.5666666","-5.7","6.0","GIJON MUSEL, SP","FM-12","99999","V020","240,1,N,0010,1","22000,1,9,N","040000,1,N,1","+0110,1","+0028,1","09996,1",,,,,,,,"02,99,1,01,1,08,1,02250,1,06,1,08,1",,,,,"99999,9,09988,1","6,1,015,1,+999,9",,"SYN076AAXX  18154 08014 42882 22402 10110 20028 39988 49996 56015 81868 333 92438;",
"08014099999","2010-12-18T18:00:00","4","43.5666666","-5.7","6.0","GIJON MUSEL, SP","FM-12","99999","V020","250,1,N,0010,1","22000,1,9,N","030000,1,N,1","+0056,1","+0017,1","09996,1","12,0000,9,1",,,,,,,"01,99,1,01,1,00,1,01750,1,04,1,01,1",,,,"120,M,+0116,1","99999,9,09988,1","4,1,000,1,+999,9",,"SYN088AAXX  18184 08014 12780 12502 10056 20017 39988 49996 54000 60002 81041 333 10116 92438;","Q01  00002PRCP12"
"08014099999","2010-12-19T06:00:00","4","43.5666666","-5.7","6.0","GIJON MUSEL, SP","FM-12","99999","V020","210,1,N,0046,1","22000,1,9,N","020000,1,N,1","+0034,1","-0010,1","09983,1","12,0000,9,1","24,0000,9,1",,,,,,"02,99,1,01,1,00,1,01750,1,04,1,01,1","0408,9","09,9","999,+0020,9","999,N,+0032,1","99999,9,09975,1","8,1,002,1,+999,9",,"SYN106AAXX  19064 08014 12770 22109 10034 21010 39975 49983 58002 60002 81041 333 20032 31002 50334 55068 70000;","Q01  00002PRCP24Q02  00002PRCP12"
"08014099999","2010-12-19T09:00:00","4","43.5666666","-5.7","6.0","GIJON MUSEL, SP","FM-12","99999","V020","210,1,N,0051,1","22000,1,9,N","030000,1,N,1","+0056,1","-0013,1","09986,1",,,,,,,,"03,99,1,02,1,05,1,00800,1,03,1,00,1",,,,,"99999,9,09978,1","3,1,003,1,+999,9",,"SYN076AAXX  19094 08014 42580 32110 10056 21013 39978 49986 53003 82530 333 92438;",
"08014099999","2010-12-19T12:00:00","4","43.5666666","-5.7","6.0","GIJON MUSEL, SP","FM-12","99999","V020","200,1,N,0046,1","22000,1,9,N","040000,1,N,1","+0112,1","+0000,1","09997,1","06,0000,9,1",,,,,,,"03,99,1,02,1,00,1,01750,1,03,1,02,1",,,,,"99999,9,09989,1","1,1,011,1,+999,9",,"SYN082AAXX  19124 08014 12782 32009 10112 20000 39989 49997 51011 60001 82032 333 92438;","Q01  00002PRCP06"
"08014099999","2010-12-19T15:00:00","4","43.5666666","-5.7","6.0","GIJON MUSEL, SP","FM-12","99999","V020","210,1,N,0062,1","22000,1,9,N","040000,1,N,1","+0146,1","+0043,1","09999,1",,,,,,,,"03,99,1,03,1,00,1,01750,1,04,1,00,1",,,,,"99999,9,09991,1","3,1,002,1,+999,9",,"SYN076AAXX  19154 08014 42782 32112 10146 20043 39991 49999 53002 83040 333 92438;",
"08014099999","2010-12-19T18:00:00","4","43.5666666","-5.7","6.0","GIJON MUSEL, SP","FM-12","99999","V020","230,1,N,0036,1","22000,1,9,N","040000,1,N,1","+0140,1","+0046,1","10014,1","12,0000,9,1",,,,,,,"01,99,1,01,1,00,1,01750,1,04,1,00,1",,,,"120,M,+0154,1","99999,9,10006,1","3,1,015,1,+999,9",,"SYN088AAXX  19184 08014 12782 12307 10140 20046 30006 40014 53015 60002 81040 333 10154 92438;","Q01  00002PRCP12"
"08014099999","2010-12-20T06:00:00","4","43.5666666","-5.7","6.0","GIJON MUSEL, SP","FM-12","99999","V020","200,1,N,0015,1","00750,1,9,N","020000,1,N,1","+0104,1","+0045,1","10041,1","12,0000,9,1","24,0000,9,1",,,,,,"06,99,1,05,1,05,1,00800,1,03,1,00,1","0402,9","09,9","999,+0040,9","999,N,+0066,1","99999,9,10033,1","5,1,000,1,+999,9",,"SYN106AAXX  20064 08014 12570 62003 10104 20045 30033 40041 55000 60002 85530 333 20066 31004 50604 55067 70000;","Q01  00002PRCP24Q02  00002PRCP12"
"08014099999","2010-12-20T09:00:00","4","43.5666666","-5.7","6.0","GIJON MUSEL, SP","FM-12","99999","V020","210,1,N,0021,1","22000,1,9,N","030000,1,N,1","+0108,1","+0056,1","10049,1",,,,,,,,"04,99,1,02,1,08,1,00800,1,09,1,01,1",,,,,"99999,9,10041,1","1,1,008,1,+999,9",,"SYN076AAXX  20094 08014 42580 42104 10108 20056 30041 40049 51008 82891 333 92438;",
"08014099999","2010-12-20T12:00:00","4","43.5666666","-5.7","6.0","GIJON MUSEL, SP","FM-12","99999","V020","230,1,N,0015,1","22000,1,9,N","030000,1,N,1","+0152,1","+0043,1","10052,1","06,0000,9,1",,,,,,,"04,99,1,02,1,08,1,00800,1,09,1,01,1",,,,,"99999,9,10044,1","0,1,003,1,+999,9",,"SYN082AAXX  20124 08014 12580 42303 10152 20043 30044 40052 50003 60001 82891 333 92438;","Q01  00002PRCP06"
"08014099999","2010-12-20T15:00:00","4","43.5666666","-5.7","6.0","GIJON MUSEL, SP","FM-12","99999","V020","999,9,C,0000,1","03600,1,9,N","030000,1,N,1","+0148,1","+0061,1","10043,1",,,,,,,,"06,99,1,04,1,08,1,00800,1,01,1,08,1",,,,,"99999,9,10035,1","8,1,009,1,+999,9",,"SYN076AAXX  20154 08014 42580 60000 10148 20061 30035 40043 58009 84818 333 92438;",
"08014099999","2010-12-20T18:00:00","4","43.5666666","-5.7","6.0","GIJON MUSEL, SP","FM-12","99999","V020","999,9,C,0000,1","03600,1,9,N","030000,1,N,1","+0130,1","+0087,1","10042,1","12,0000,9,1",,,,,,,"07,99,1,04,1,08,1,00800,1,07,1,01,1",,,,"120,M,+0158,1","99999,9,10034,1","6,1,001,1,+999,9",,"SYN088AAXX  20184 08014 12580 70000 10130 20087 30034 40042 56001 60002 84871 333 10158 92438;","Q01  00002PRCP12"
"08014099999","2010-12-21T06:00:00","4","43.5666666","-5.7","6.0","GIJON MUSEL, SP","FM-12","99999","V020","999,9,C,0000,1","00750,1,9,N","020000,1,N,1","+0086,1","+0077,1","09963,1","12,0010,9,1","24,0013,9,1",,"6,1,06,1","2,1,06,1",,,"07,99,1,06,1,02,1,00800,1,07,1,00,1","0174,9","11,9","999,+0070,9","999,N,+0086,1","99999,9,09955,1","7,1,020,1,+999,9","02,1","SYN112AAXX  21064 08014 11570 70000 10086 20077 39955 49963 57020 60012 70262 86270 333 20086 32007 50334 55029 70012;",
"08014099999","2010-12-21T09:00:00","4","43.5666666","-5.7","6.0","GIJON MUSEL, SP","FM-12","99999","V020","999,9,C,0000,1","03600,1,9,N","020000,1,N,1","+0096,1","+0075,1","09958,1",,,,,,,,"08,99,1,04,1,07,1,00800,1,07,1,99,9",,,,,"99999,9,09950,1","6,1,005,1,+999,9",,"SYN076AAXX  21094 08014 42570 80000 10096 20075 39950 49958 56005 8477/ 333 92437;",
"08014099999","2010-12-21T12:00:00","4","43.5666666","-5.7","6.0","GIJON MUSEL, SP","FM-12","99999","V020","250,1,N,0015,1","03600,1,9,N","015000,1,N,1","+0110,1","+0067,1","09959,1","06,9999,9,9",,,"6,1,06,1","2,1,06,1",,,"08,99,1,02,1,07,1,00800,1,07,1,99,9",,,,,"99999,9,09951,1","0,1,001,1,+999,9","60,1","SYN088AAXX  21124 08014 11565 82503 10110 20067 39951 49959 50001 69921 76062 8277/ 333 92437;","Q01  00002PRCP06Q02  00002PRCP06"
"08014099999","2010-12-21T15:00:00","4","43.5666666","-5.7","6.0","GIJON MUSEL, SP","FM-12","99999","V020","200,1,N,0015,1","03600,1,9,N","005000,1,N,1","+0094,1","+0086,1","09952,1",,,,"6,1,03,1","6,1,03,1",,,"08,99,1,03,1,07,1,00800,1,02,1,99,9",,,,,"99999,9,09944,1","8,1,007,1,+999,9","61,1","SYN082AAXX  21154 08014 41550 82003 10094 20086 39944 49952 58007 76166 8372/ 333 92436;",
"08014099999","2010-12-21T18:00:00","4","43.5666666","-5.7","6.0","GIJON MUSEL, SP","FM-12","99999","V020","200,1,N,0010,1","00750,1,9,N","015000,1,N,1","+0092,1","+0075,1","09959,1","12,0079,9,1",,,"6,1,06,1","2,1,06,1",,,"06,99,1,05,1,07,1,00800,1,07,1,00,1",,,,"120,M,+0118,1","99999,9,09951,1","3,1,007,1,+999,9","02,1","SYN094AAXX  21184 08014 11565 62002 10092 20075 39951 49959 53007 60082 70262 85770 333 10118 92437;",
"08014099999","2010-12-22T06:00:00","4","43.5666666","-5.7","6.0","GIJON MUSEL, SP","FM-12","99999","V020","110,1,N,0015,1","00750,1,9,N","006000,1,N,1","+0097,1","+0089,1","09919,1","12,0051,9,1","24,0124,9,1",,,,,,"08,99,1,05,1,07,1,00800,1,02,1,99,9","0000,9","11,9","999,+0060,9","999,N,+0085,1","99999,9,09911,1","7,1,018,1,+999,9","53,1","SYN112AAXX  22064 08014 11556 81103 10097 20089 39911 49919 57018 60052 753// 8572/ 333 20085 32006 50074 55000 70124;",
"08014099999","2010-12-22T09:00:00","4","43.5666666","-5.7","6.0","GIJON MUSEL, SP","FM-12","99999","V020","999,9,C,0000,1","01500,1,9,N","006000,1,N,1","+0100,1","+0092,1","09920,1",,,,"6,1,03,1","2,1,03,1",,,"08,99,1,08,1,00,1,01750,1,02,1,99,9",,,,,"99999,9,09912,1","3,1,001,1,+999,9","63,1","SYN082AAXX  22094 08014 41756 80000 10100 20092 39912 49920 53001 76362 8802/ 333 92436;",
"08014099999","2010-12-22T12:00:00","4","43.5666666","-5.7","6.0","GIJON MUSEL, SP","FM-12","99999","V020","050,1,N,0062,1","00750,1,9,N","006000,1,N,1","+0104,1","+0088,1","09918,1","06,0221,9,1",,,"8,1,06,1","2,1,06,1",,,"08,99,1,05,1,07,1,00800,1,02,1,99,9",,,,,"99999,9,09910,1","8,1,002,1,+999,9","65,1","SYN088AAXX  22124 08014 11556 80512 10104 20088 39910 49918 58002 60221 76582 8572/ 333 92436;",
"08014099999","2010-12-22T15:00:00","4","43.5666666","-5.7","6.0","GIJON MUSEL, SP","FM-12","99999","V020","040,1,N,0077,1","00750,1,9,N","006000,1,N,1","+0100,1","+0084,1","09927,1",,,,"6,1,03,1","2,1,03,1",,,"08,99,1,05,1,07,1,00800,1,02,1,99,9",,,,,"99999,9,09919,1","3,1,009,1,+999,9","63,1","SYN082AAXX  22154 08014 41556 80415 10100 20084 39919 49927 53009 76362 8572/ 333 92446;",
"08014099999","2010-12-22T18:00:00","4","43.5666666","-5.7","6.0","GIJON MUSEL, SP","FM-12","99999","V020","040,1,N,0057,1","00750,1,9,N","006000,1,N,1","+0095,1","+0076,1","09958,1","12,0320,9,1",,,"6,1,06,1","2,1,06,1",,,"08,99,1,05,1,07,1,00800,1,02,1,99,9",,,,"120,M,+0110,1","99999,9,09950,1","2,1,031,1,+999,9","63,1","SYN094AAXX  22184 08014 11556 80411 10095 20076 39950 49958 52031 60322 76362 8572/ 333 10110 92446;",
"08014099999","2010-12-23T06:00:00","4","43.5666666","-5.7","6.0","GIJON MUSEL, SP","FM-12","99999","V020","030,1,N,0036,1","03600,1,9,N","006000,1,N,1","+0074,1","+0063,1","10025,1","12,0071,9,1","24,0404,9,1",,,,,,"08,99,1,04,1,07,1,00800,1,02,1,99,9","0000,9","11,9","999,+0060,9","999,N,+0072,1","99999,9,10017,1","2,1,009,1,+999,9","61,1","SYN112AAXX  23064 08014 11556 80307 10074 20063 30017 40025 52009 60072 761// 8472/ 333 20072 32006 50214 55000 70403;",
"08014099999","2010-12-23T09:00:00","4","43.5666666","-5.7","6.0","GIJON MUSEL, SP","FM-12","99999","V020","210,1,N,0026,1","03600,1,9,N","006000,1,N,1","+0060,1","+0046,1","10049,1",,,,"6,1,03,1","2,1,03,1",,,"08,99,1,04,1,07,1,00800,1,02,1,99,9",,,,,"99999,9,10041,1","2,1,024,1,+999,9","63,1","SYN082AAXX  23094 08014 41556 82105 10060 20046 30041 40049 52024 76362 8472/ 333 92446;",
"08014099999","2010-12-23T12:00:00","4","43.5666666","-5.7","6.0","GIJON MUSEL, SP","FM-12","99999","V020","230,1,N,0046,1","00750,1,9,N","004000,1,N,1","+0065,1","+0048,1","10068,1","06,0041,9,1",,,"8,1,06,1","2,1,06,1",,,"08,99,1,05,1,07,1,00800,1,02,1,99,9",,,,,"99999,9,10060,1","2,1,019,1,+999,9","63,1","SYN088AAXX  23124 08014 11540 82309 10065 20048 30060 40068 52019 60041 76382 8572/ 333 92445;",
"08014099999","2010-12-23T15:00:00","4","43.5666666","-5.7","6.0","GIJON MUSEL, SP","FM-12","99999","V020","170,1,N,0015,1","00750,1,9,N","012000,1,N,1","+0080,1","+0023,1","10090,1",,,,"8,1,03,1","2,1,03,1",,,"08,99,1,05,1,07,1,00800,1,01,1,99,9",,,,,"99999,9,10082,1","2,1,022,1,+999,9","02,1","SYN082AAXX  23154 08014 41562 81703 10080 20023 30082 40090 52022 70282 8571/ 333 92447;",
"08014099999","2010-12-23T18:00:00","4","43.5666666","-5.7","6.0","GIJON MUSEL, SP","FM-12","99999","V020","020,1,N,0041,1","03600,1,9,N","020000,1,N,1","+0075,1","+0036,1","10117,1","12,0079,9,1",,,"6,1,06,1","2,1,06,1",,,"06,99,1,04,1,02,1,00800,1,06,1,00,1",,,,"120,M,+0085,1","99999,9,10109,1","2,1,027,1,+999,9","02,1","SYN094AAXX  23184 08014 11570 60208 10075 20036 30109 40117 52027 60082 70262 84260 333 10085 92447;",
"08014099999","2010-12-24T06:00:00","4","43.5666666","-5.7","6.0","GIJON MUSEL, SP","FM-12","99999","V020","180,1,N,0010,1","03600,1,9,N","015000,1,N,1","+0050,1","+0025,1","10174,1","12,0020,9,1","24,0099,9,1",,,,,,"05,99,1,03,1,02,1,00800,1,06,1,00,1","0000,9","11,9","999,+0040,9","999,N,+0050,1","99999,9,10166,1","2,1,002,1,+999,9","02,1","SYN112AAXX  24064 08014 11565 51802 10050 20025 30166 40174 52002 60022 702// 83260 333 20050 32004 50304 55000 70100;",
"08014099999","2010-12-24T09:00:00","4","43.5666666","-5.7","6.0","GIJON MUSEL, SP","FM-12","99999","V020","220,1,N,0026,1","03600,1,9,N","015000,1,N,1","+0050,1","+0025,1","10183,1",,,,"6,1,03,1","2,1,03,1",,,"06,99,1,04,1,02,1,00800,1,06,1,00,1",,,,,"99999,9,10175,1","2,1,009,1,+999,9","02,1","SYN082AAXX  24094 08014 41565 62205 10050 20025 30175 40183 52009 70262 84260 333 92447;",
"08014099999","2010-12-24T12:00:00","4","43.5666666","-5.7","6.0","GIJON MUSEL, SP","FM-12","99999","V020","220,1,N,0041,1","03600,1,9,N","020000,1,N,1","+0058,1","+0033,1","10190,1","06,0000,9,1",,,"6,1,06,1","2,1,06,1",,,"06,99,1,04,1,02,1,00800,1,06,1,00,1",,,,,"99999,9,10182,1","2,1,007,1,+999,9","02,1","SYN088AAXX  24124 08014 11570 62208 10058 20033 30182 40190 52007 69921 70262 84260 333 92447;","Q01  00002PRCP06"
"08014099999","2010-12-24T15:00:00","4","43.5666666","-5.7","6.0","GIJON MUSEL, SP","FM-12","99999","V020","210,1,N,0031,1","03600,1,9,N","020000,1,N,1","+0068,1","+0029,1","10185,1",,,,,,,,"07,99,1,04,1,02,1,00800,1,06,1,00,1",,,,,"99999,9,10177,1","8,1,005,1,+999,9",,"SYN076AAXX  24154 08014 42570 72106 10068 20029 30177 40185 58005 84260 333 92447;",
"08014099999","2010-12-24T18:00:00","4","43.5666666","-5.7","6.0","GIJON MUSEL, SP","FM-12","99999","V020","260,1,N,0200,1","22000,1,9,N","020000,1,N,1","+0062,1","+0035,1","10188,1","12,0000,9,1",,,,,,,"04,99,1,03,1,02,1,00800,1,06,1,00,1",,,,"120,M,+0082,1","99999,9,10180,1","3,1,003,1,+999,9",,"SYN088AAXX  24184 08014 12570 42639 10062 20035 30180 40188 53003 69922 83260 333 10082 92447;","Q01  00002PRCP12"
"08014099999","2010-12-25T06:00:00","4","43.5666666","-5.7","6.0","GIJON MUSEL, SP","FM-12","99999","V020","210,1,N,0010,1","00750,1,9,N","008000,1,N,1","+0045,1","+0030,1","10210,1","12,0030,9,2","24,0028,9,2",,,,,,"07,99,1,05,1,02,1,00800,1,06,1,00,1","0108,9","11,9","999,+0020,9","999,N,+0044,1","99999,9,10202,1","2,1,005,1,+999,9","61,1","SYN112AAXX  25064 08014 11558 72102 10045 20030 30202 40210 52005 60032 761// 85260 333 20044 32002 50194 55018 70029;",
"08014099999","2010-12-25T09:00:00","4","43.5666666","-5.7","6.0","GIJON MUSEL, SP","FM-12","99999","V020","999,9,C,0000,1","03600,1,9,N","015000,1,N,1","+0051,1","+0030,1","10217,1",,,,"6,1,03,1","2,1,03,1",,,"06,99,1,03,1,02,1,00800,1,06,1,05,1",,,,,"99999,9,10209,1","2,1,007,1,+999,9","02,1","SYN082AAXX  25094 08014 41565 60000 10051 20030 30209 40217 52007 70262 83265 333 92437;",
"08014099999","2010-12-25T12:00:00","4","43.5666666","-5.7","6.0","GIJON MUSEL, SP","FM-12","99999","V020","100,1,N,0041,1","03600,1,9,N","020000,1,N,1","+0085,1","+0010,1","10231,1","06,0000,2,1",,,"6,1,06,1","2,1,06,1",,,"05,99,1,03,1,08,1,00800,1,07,1,05,1",,,,,"99999,9,10223,1","2,1,014,1,+999,9","02,1","SYN088AAXX  25124 08014 11570 51008 10085 20010 30223 40231 52014 69911 70262 83875 333 92437;",
"08014099999","2010-12-25T15:00:00","4","43.5666666","-5.7","6.0","GIJON MUSEL, SP","FM-12","99999","V020","090,1,N,0046,1","01200,1,9,N","020000,1,N,1","+0090,1","+0002,1","10234,1",,,,,,,,"07,99,1,05,1,08,1,00800,1,07,1,00,1",,,,,"99999,9,10226,1","2,1,003,1,+999,9",,"SYN076AAXX  25154 08014 42570 70909 10090 20002 30226 40234 52003 85870 333 92437;",
"08014099999","2010-12-25T18:00:00","4","43.5666666","-5.7","6.0","GIJON MUSEL, SP","FM-12","99999","V020","100,1,N,0026,1","03600,1,9,N","020000,1,N,1","+0071,1","-0008,1","10240,1","12,0000,2,1",,,,,,,"06,99,1,03,1,08,1,00800,1,07,1,00,1",,,,"120,M,+0092,1","99999,9,10232,1","2,1,006,1,+999,9",,"SYN088AAXX  25184 08014 12570 61005 10071 21008 30232 40240 52006 69912 83870 333 10092 92437;",
"08014099999","2010-12-26T06:00:00","4","43.5666666","-5.7","6.0","GIJON MUSEL, SP","FM-12","99999","V020","190,1,N,0015,1","22000,1,9,N","015000,1,N,1","+0025,1","-0038,1","10243,1","12,0000,9,1","24,0000,2,1",,,,"00,1,+99999,9,99,9",,"00,99,1,00,1,00,1,99999,9,00,1,00,1","0234,9","01,9","999,+0000,9","999,N,+0025,1","99999,9,10235,1","7,1,001,1,+999,9","00,1","SYN106AAXX  26064 08014 11965 01903 10025 21038 30235 40243 57001 60002 700// 333 20025 30000 50354 55039 70001;","Q01  00002PRCP12"
"08014099999","2010-12-26T09:00:00","4","43.5666666","-5.7","6.0","GIJON MUSEL, SP","FM-12","99999","V020","190,1,N,0015,1","22000,1,9,N","010000,1,N,1","+0022,1","-0047,1","10245,1",,,,,,,,"02,99,1,01,1,00,1,01250,1,01,1,05,1",,,,,"99999,9,10237,1","3,1,002,1,+999,9",,"SYN076AAXX  26094 08014 42660 21903 10022 21047 30237 40245 53002 81015 333 92436;",
"08014099999","2010-12-26T12:00:00","4","43.5666666","-5.7","6.0","GIJON MUSEL, SP","FM-12","99999","V020","210,1,N,0015,1","99999,9,9,N","015000,1,N,1","+0060,1","-0050,1","10228,1","06,0000,9,1",,,,,,,"05,99,1,05,1,00,1,01250,1,01,1,00,1",,,,,"99999,9,10220,1","8,1,017,1,+999,9",,"SYN082AAXX  26124 08014 12665 52103 10060 21050 30220 40228 58017 60001 85010 333 92437;","Q01  00002PRCP06"
"08014099999","2010-12-26T15:00:00","4","43.5666666","-5.7","6.0","GIJON MUSEL, SP","FM-12","99999","V020","090,1,N,0005,1","99999,9,9,N","020000,1,N,1","+0076,1","-0021,1","10209,1",,,,,,,,"06,99,1,04,1,00,1,01250,1,01,1,05,1",,,,,"99999,9,10201,1","7,1,019,1,+999,9",,"SYN076AAXX  26154 08014 42670 60901 10076 21021 30201 40209 57019 84015 333 92437;",
"08014099999","2010-12-26T18:00:00","4","43.5666666","-5.7","6.0","GIJON MUSEL, SP","FM-12","99999","V020","999,9,C,0000,1","22000,1,9,N","020000,1,N,1","+0046,1","-0008,1","10197,1","12,0000,9,1",,,,,,,"04,99,1,04,1,00,1,01250,1,08,1,00,1",,,,"120,M,+0082,1","99999,9,10189,1","7,1,012,1,+999,9",,"SYN088AAXX  26184 08014 12670 40000 10046 21008 30189 40197 57012 60002 84080 333 10082 92437;","Q01  00002PRCP12"
"08014099999","2010-12-27T06:00:00","4","43.5666666","-5.7","6.0","GIJON MUSEL, SP","FM-12","99999","V020","220,1,N,0041,1","03600,1,9,N","015000,1,N,1","+0060,1","-0047,1","10138,1","12,0000,9,1","24,0000,9,1",,,,,,"05,99,1,04,1,04,1,00800,1,03,1,99,9","0372,9","01,9","999,+0020,9","999,N,+0040,1","99999,9,10130,1","7,1,008,1,+999,9","02,1","SYN112AAXX  27064 08014 11565 52208 10060 21047 30130 40138 57008 60002 702// 8443/ 333 20040 30002 50324 55062 70000;","Q01  00002PRCP24Q02  00002PRCP12"
"08014099999","2010-12-27T09:00:00","4","43.5666666","-5.7","6.0","GIJON MUSEL, SP","FM-12","99999","V020","220,1,N,0031,1","01200,1,9,N","020000,1,N,1","+0074,1","-0047,1","10129,1",,,,,,,,"08,99,1,05,1,08,1,00800,1,05,1,99,9",,,,,"99999,9,10121,1","7,1,009,1,+999,9",,"SYN076AAXX  27094 08014 42570 82206 10074 21047 30121 40129 57009 8585/ 333 92438;",
"08014099999","2010-12-27T12:00:00","4","43.5666666","-5.7","6.0","GIJON MUSEL, SP","FM-12","99999","V020","200,1,N,0041,1","03600,1,9,N","030000,1,N,1","+0118,1","-0007,1","10121,1","06,0000,9,1",,,,,,,"06,99,1,04,1,04,1,00800,1,03,1,99,9",,,,,"99999,9,10113,1","7,1,008,1,+999,9",,"SYN082AAXX  27124 08014 12580 62008 10118 21007 30113 40121 57008 60001 8443/ 333 92438;","Q01  00002PRCP06"
"08014099999","2010-12-27T15:00:00","4","43.5666666","-5.7","6.0","GIJON MUSEL, SP","FM-12","99999","V020","260,1,N,0010,1","00750,1,9,N","020000,1,N,1","+0138,1","+0027,1","10125,1",,,,,,,,"07,99,1,05,1,04,1,00800,1,03,1,99,9",,,,,"99999,9,10117,1","2,1,004,1,+999,9",,"SYN076AAXX  27154 08014 42570 72602 10138 20027 30117 40125 52004 8543/ 333 92438;",
"08014099999","2010-12-27T18:00:00","4","43.5666666","-5.7","6.0","GIJON MUSEL, SP","FM-12","99999","V020","180,1,N,0015,1","01200,1,9,N","020000,1,N,1","+0136,1","+0003,1","10121,1","12,9999,9,9",,,"2,1,06,1","2,1,06,1",,,"08,99,1,05,1,08,1,00800,1,07,1,99,9",,,,"120,M,+0151,1","99999,9,10113,1","7,1,004,1,+999,9","50,1","SYN094AAXX  27184 08014 11570 81803 10136 20003 30113 40121 57004 69902 75022 8587/ 333 10151 92428;","Q01  00002PRCP12Q02  00002PRCP12"
"08014099999","2010-12-28T06:00:00","4","43.5666666","-5.7","6.0","GIJON MUSEL, SP","FM-12","99999","V020","220,1,N,0005,1","01200,1,9,N","020000,1,N,1","+0124,1","+0071,1","10149,1","12,0008,9,1","24,0008,9,1",,,,,,"07,99,1,06,1,08,1,00800,1,05,1,99,9","0108,9","09,9","999,+0070,9","999,N,+0093,1","99999,9,10141,1","3,1,005,1,+999,9","02,1","SYN112AAXX  28064 08014 11570 72201 10124 20071 30141 40149 53005 69972 702// 8685/ 333 20093 31007 50384 55018 70007;",
"08014099999","2010-12-28T09:00:00","4","43.5666666","-5.7","6.0","GIJON MUSEL, SP","FM-12","99999","V020","200,1,N,0010,1","03600,1,9,N","020000,1,N,1","+0124,1","+0069,1","10156,1",,,,,,,,"07,99,1,04,1,04,1,00800,1,03,1,99,9",,,,,"99999,9,10148,1","2,1,007,1,+999,9",,"SYN076AAXX  28094 08014 42570 72002 10124 20069 30148 40156 52007 8443/ 333 92428;",
"08014099999","2010-12-28T12:00:00","4","43.5666666","-5.7","6.0","GIJON MUSEL, SP","FM-12","99999","V020","110,1,N,0010,1","09000,1,9,N","030000,1,N,1","+0142,1","+0082,1","10150,1","06,0000,9,1",,,,,,,"05,99,1,02,1,04,1,00800,1,05,1,01,1",,,,,"99999,9,10142,1","7,1,006,1,+999,9",,"SYN082AAXX  28124 08014 12580 51102 10142 20082 30142 40150 57006 60001 82451 333 92428;","Q01  00002PRCP06"
"08014099999","2010-12-28T15:00:00","4","43.5666666","-5.7","6.0","GIJON MUSEL, SP","FM-12","99999","V020","080,1,N,0026,1","22000,1,9,N","030000,1,N,1","+0150,1","+0096,1","10127,1",,,,,,,,"04,99,1,02,1,04,1,00800,1,03,1,00,1",,,,,"99999,9,10119,1","7,1,023,1,+999,9",,"SYN076AAXX  28154 08014 42580 40805 10150 20096 30119 40127 57023 82430 333 92428;",
"08014099999","2010-12-28T18:00:00","4","43.5666666","-5.7","6.0","GIJON MUSEL, SP","FM-12","99999","V020","080,1,N,0015,1","03600,1,9,N","020000,1,N,1","+0134,1","+0095,1","10125,1","12,0000,9,1",,,,,,,"05,99,1,03,1,04,1,00800,1,05,1,00,1",,,,"120,M,+0167,1","99999,9,10117,1","7,1,002,1,+999,9",,"SYN088AAXX  28184 08014 12570 50803 10134 20095 30117 40125 57002 60002 83450 333 10167 92438;","Q01  00002PRCP12"
"08014099999","2010-12-29T06:00:00","4","43.5666666","-5.7","6.0","GIJON MUSEL, SP","FM-12","99999","V020","999,9,C,0000,1","22000,1,9,N","020000,1,N,1","+0094,1","+0082,1","10111,1","12,0000,9,1","24,0000,9,1",,,,,,"02,99,1,02,1,04,1,00800,1,00,1,00,1","0336,9","09,9","999,+0070,9","999,N,+0093,1","99999,9,10103,1","8,1,005,1,+999,9","02,1","SYN112AAXX  29064 08014 11570 20000 10094 20082 30103 40111 58005 60002 702// 82400 333 20093 31007 50204 55056 70000;","Q01  00002PRCP24Q02  00002PRCP12"
"08014099999","2010-12-29T09:00:00","4","43.5666666","-5.7","6.0","GIJON MUSEL, SP","FM-12","99999","V020","999,9,C,0000,1","03600,1,9,N","020000,1,N,1","+0108,1","+0087,1","10120,1",,,,,,,,"08,99,1,04,1,04,1,00800,1,05,1,99,9",,,,,"99999,9,10112,1","2,1,009,1,+999,9",,"SYN076AAXX  29094 08014 42570 80000 10108 20087 30112 40120 52009 8445/ 333 92428;",
"08014099999","2010-12-29T12:00:00","4","43.5666666","-5.7","6.0","GIJON MUSEL, SP","FM-12","99999","V020","999,9,C,0000,1","01200,1,9,N","030000,1,N,1","+0126,1","+0087,1","10120,1","06,0000,9,1",,,,,,,"08,99,1,05,1,08,1,00800,1,05,1,99,9",,,,,"99999,9,10112,1","4,1,000,1,+999,9",,"SYN082AAXX  29124 08014 12580 80000 10126 20087 30112 40120 54000 60001 8585/ 333 92438;","Q01  00002PRCP06"
"08014099999","2010-12-29T15:00:00","4","43.5666666","-5.7","6.0","GIJON MUSEL, SP","FM-12","99999","V020","999,9,C,0000,1","01200,1,9,N","015000,1,N,1","+0132,1","+0106,1","10110,1",,,,,,,,"08,99,1,05,1,08,1,00800,1,07,1,99,9",,,,,"99999,9,10102,1","7,1,010,1,+999,9",,"SYN076AAXX  29154 08014 42565 80000 10132 20106 30102 40110 57010 8587/ 333 92438;",
"08014099999","2010-12-29T18:00:00","4","43.5666666","-5.7","6.0","GIJON MUSEL, SP","FM-12","99999","V020","160,1,N,0010,1","00750,1,9,N","020000,1,N,1","+0152,1","+0080,1","10109,1","12,0000,9,1",,,,,,,"07,99,1,05,1,04,1,00800,1,03,1,99,9",,,,"120,M,+0170,1","99999,9,10101,1","7,1,001,1,+999,9",,"SYN088AAXX  29184 08014 12570 71602 10152 20080 30101 40109 57001 60002 8543/ 333 10170 92428;","Q01  00002PRCP12"
"08014099999","2010-12-30T06:00:00","4","43.5666666","-5.7","6.0","GIJON MUSEL, SP","FM-12","99999","V020","020,1,N,0015,1","03600,1,9,N","020000,1,N,1","+0124,1","+0075,1","10092,1","12,0000,9,1","24,0000,9,1",,,,,,"06,99,1,04,1,04,1,00800,1,05,1,99,9","0000,9","01,9","999,+0060,9","999,N,+0085,1","99999,9,10084,1","7,1,009,1,+999,9","02,1","SYN112AAXX  30064 08014 11570 60203 10124 20075 30084 40092 57009 60002 702// 8445/ 333 20085 30006 50204 55000 70000;","Q01  00002PRCP24Q02  00002PRCP12"
"08014099999","2010-12-30T09:00:00","4","43.5666666","-5.7","6.0","GIJON MUSEL, SP","FM-12","99999","V020","999,9,C,0000,1","03600,1,9,N","015000,1,N,1","+0132,1","+0065,1","10093,1",,,,,,,,"08,99,1,04,1,04,1,00800,1,05,1,99,9",,,,,"99999,9,10085,1","2,1,001,1,+999,9",,"SYN076AAXX  30094 08014 42565 80000 10132 20065 30085 40093 52001 8445/ 333 92428;",
"08014099999","2010-12-30T12:00:00","4","43.5666666","-5.7","6.0","GIJON MUSEL, SP","FM-12","99999","V020","050,1,N,0010,1","03600,1,9,N","015000,1,N,1","+0132,1","+0079,1","10088,1","06,0000,9,1",,,,,,,"08,99,1,03,1,04,1,00800,1,07,1,99,9",,,,,"99999,9,10080,1","7,1,005,1,+999,9",,"SYN082AAXX  30124 08014 12565 80502 10132 20079 30080 40088 57005 60001 8347/ 333 92428;","Q01  00002PRCP06"
"08014099999","2010-12-30T15:00:00","4","43.5666666","-5.7","6.0","GIJON MUSEL, SP","FM-12","99999","V020","030,1,N,0010,1","03600,1,9,N","015000,1,N,1","+0132,1","+0113,1","10072,1",,,,,,,,"07,99,1,03,1,04,1,00800,1,07,1,99,9",,,,,"99999,9,10064,1","7,1,016,1,+999,9",,"SYN076AAXX  30154 08014 42565 70302 10132 20113 30064 40072 57016 8347/ 333 92428;",
"08014099999","2010-12-30T18:00:00","4","43.5666666","-5.7","6.0","GIJON MUSEL, SP","FM-12","99999","V020","999,9,C,0000,1","03600,1,9,N","020000,1,N,1","+0120,1","+0104,1","10081,1","12,0000,9,1",,,,,,,"05,99,1,03,1,04,1,00800,1,05,1,00,1",,,,"120,M,+0136,1","99999,9,10073,1","2,1,009,1,+999,9",,"SYN088AAXX  30184 08014 12570 50000 10120 20104 30073 40081 52009 60002 83450 333 10136 92428;","Q01  00002PRCP12"
"08014099999","2010-12-31T06:00:00","4","43.5666666","-5.7","6.0","GIJON MUSEL, SP","FM-12","99999","V020","999,9,C,0000,1","22000,1,9,N","020000,1,N,1","+0070,1","+0056,1","10119,1","12,0000,9,1","24,0000,9,1",,,,,,"01,99,1,01,1,00,1,01750,1,04,1,00,1","0000,9","09,9","999,+0040,9","999,N,+0070,1","99999,9,10111,1","3,1,003,1,+999,9",,"SYN106AAXX  31064 08014 12770 10000 10070 20056 30111 40119 53003 60002 81040 333 20070 31004 50184 55000 70000;","Q01  00002PRCP24Q02  00002PRCP12"
"08014099999","2010-12-31T09:00:00","4","43.5666666","-5.7","6.0","GIJON MUSEL, SP","FM-12","99999","V020","240,1,N,0021,1","22000,1,9,N","030000,1,N,1","+0110,1","+0053,1","10139,1",,,,,,,,"04,99,1,02,1,05,1,00800,1,03,1,00,1",,,,,"99999,9,10131,1","2,1,020,1,+999,9",,"SYN076AAXX  31094 08014 42580 42404 10110 20053 30131 40139 52020 82530 333 92437;",
"08014099999","2010-12-31T12:00:00","4","43.5666666","-5.7","6.0","GIJON MUSEL, SP","FM-12","99999","V020","030,1,N,0010,1","22000,1,9,N","030000,1,N,1","+0136,1","+0078,1","10147,1","06,0000,9,1",,,,,,,"02,99,1,01,1,00,1,01750,1,04,1,01,1",,,,,"99999,9,10139,1","1,1,008,1,+999,9",,"SYN082AAXX  31124 08014 12780 20302 10136 20078 30139 40147 51008 60001 81041 333 92438;","Q01  00002PRCP06"
"08014099999","2010-12-31T15:00:00","4","43.5666666","-5.7","6.0","GIJON MUSEL, SP","FM-12","99999","V020","340,1,N,0010,1","22000,1,9,N","030000,1,N,1","+0144,1","+0102,1","10148,1",,,,,,,,"02,99,1,01,1,08,1,00800,1,06,1,01,1",,,,,"99999,9,10140,1","3,1,001,1,+999,9",,"SYN076AAXX  31154 08014 42580 23402 10144 20102 30140 40148 53001 81861 333 92438;",
"08014099999","2010-12-31T18:00:00","4","43.5666666","-5.7","6.0","GIJON MUSEL, SP","FM-12","99999","V020","999,9,C,0000,1","22000,1,9,N","030000,1,N,1","+0120,1","+0092,1","10160,1","12,0000,9,1",,,,,,,"01,99,1,01,1,00,1,01750,1,03,1,01,1",,,,"120,M,+0152,1","99999,9,10152,1","3,1,012,1,+999,9",,"SYN088AAXX  31184 08014 12780 10000 10120 20092 30152 40160 53012 60002 81031 333 10152 92438;","Q01  00002PRCP12"
