"STATION","DATE","SOURCE","LATITUDE","LONGITUDE","ELEVATION","NAME","REPORT_TYPE","CALL_SIGN","QUALITY_CONTROL","WND","CIG","VIS","TMP","DEW","SLP","AA1","AA2","AY1","AY2","GA1","GF1","GJ1","IA1","IA2","KA1","MA1","MD1","MW1","REM","EQD"
"08044099999","2010-01-01T06:00:00","4","42.4333333","-8.6166666","108.0","PONTEVEDRA, SP","FM-12","99999","V020","250,1,N,0021,1","00900,1,9,N","003000,1,N,1","+0089,1","+0085,1","09995,1","12,0191,9,1","24,0312,9,1",,,,"07,99,1,06,1,08,1,00450,1,00,1,01,1","0000,9","11,9","999,+0040,9","999,N,+0055,1","99999,9,09865,1","5,1,004,1,+999,9","80,1","SYN112AAXX  01064 08044 11430 72504 10089 20085 39865 49995 55004 60192 780// 86801 333 20055 32004 50014 55000 70312;",
"08044099999","2010-01-01T09:00:00","4","42.4333333","-8.6166666","108.0","PONTEVEDRA, SP","FM-12","99999","V020","020,1,N,0015,1","22000,1,9,N","020000,1,N,1","+0070,1","+0064,1","10063,1",,,"8,1,03,1","1,1,03,1",,"03,99,1,01,1,05,1,00800,1,03,1,01,1",,,,,"99999,9,09931,1","2,1,066,1,+999,9","02,1","SYN072AAXX  01094 08044 41570 30203 10070 20064 39931 40063 52066 70281 81531;",
"08044099999","2010-01-01T12:00:00","4","42.4333333","-8.6166666","108.0","PONTEVEDRA, SP","FM-12","99999","V020","300,1,N,0010,1","03600,1,9,N","015000,1,N,1","+0098,1","+0062,1","10110,1","06,0005,9,1",,"8,1,06,1","1,1,06,1",,"06,99,1,01,1,08,1,00450,1,07,1,01,1",,,,,"99999,9,09979,1","1,1,048,1,+999,9","02,1","SYN078AAXX  01124 08044 11465 63002 10098 20062 39979 40110 51048 69941 70281 81871;",
"08044099999","2010-01-01T15:00:00","4","42.4333333","-8.6166666","108.0","PONTEVEDRA, SP","FM-12","99999","V020","190,1,N,0010,1","00900,1,9,N","004000,1,N,1","+0098,1","+0086,1","10121,1",,,"6,1,03,1","2,1,03,1",,"07,99,1,06,1,08,1,00450,1,07,1,01,1",,,,,"99999,9,09990,1","2,1,011,1,+999,9","60,1","SYN072AAXX  01154 08044 41440 71902 10098 20086 39990 40121 52011 76062 86871;",
"08044099999","2010-01-01T18:00:00","4","42.4333333","-8.6166666","108.0","PONTEVEDRA, SP","FM-12","99999","V020","080,1,N,0010,1","03600,1,9,N","010000,1,N,1","+0082,1","+0073,1","10147,1","12,0041,9,1",,"8,1,06,1","6,1,06,1",,"06,99,1,04,1,08,1,00450,1,07,1,01,1",,,,"999,M,+0108,1","99999,9,10015,1","2,1,025,1,+999,9","02,1","SYN088AAXX  01184 08044 11460 60802 10082 20073 30015 40147 52025 60042 70286 84871 333 10108;",
"08044099999","2010-01-02T06:00:00","4","42.4333333","-8.6166666","108.0","PONTEVEDRA, SP","FM-12","99999","V020","110,1,N,0010,1","03600,1,9,N","010000,1,N,1","+0082,1","+0073,1","10155,1","12,0041,9,1","24,0071,9,1",,,,"08,99,1,02,1,05,1,00250,1,07,1,99,9","0108,9","11,9","999,+0050,9","999,N,+0068,1","99999,9,10023,1","8,1,003,1,+999,9","02,1","SYN112AAXX  02064 08044 11360 81102 10082 20073 30023 40155 58003 60042 702// 8257/ 333 20068 32005 50034 55018 70071;",
"08044099999","2010-01-02T09:00:00","4","42.4333333","-8.6166666","108.0","PONTEVEDRA, SP","FM-12","99999","V020","030,1,N,0010,1","03600,1,9,N","010000,1,N,1","+0086,1","+0077,1","10155,1",,,,,,"08,99,1,02,1,05,1,00250,1,07,1,01,1",,,,,"99999,9,10023,1","5,1,000,1,+999,9",,"SYN066AAXX  02094 08044 42360 80302 10086 20077 30023 40155 55000 82571;",
"08044099999","2010-01-02T12:00:00","4","42.4333333","-8.6166666","108.0","PONTEVEDRA, SP","FM-12","99999","V020","160,1,N,0026,1","03600,1,9,N","010000,1,N,1","+0112,1","+0086,1","10149,1","06,0000,9,1",,"6,1,06,1","2,1,06,1",,"08,99,1,04,1,05,1,00250,1,07,1,08,1",,,,,"99999,9,10018,1","8,1,005,1,+999,9","02,1","SYN078AAXX  02124 08044 11360 81605 10112 20086 30018 40149 58005 69911 70262 84578;","Q01  00002PRCP06"
"08044099999","2010-01-02T15:00:00","4","42.4333333","-8.6166666","108.0","PONTEVEDRA, SP","FM-12","99999","V020","160,1,N,0041,1","00420,1,9,N","010000,1,N,1","+0108,1","+0096,1","10133,1",,,"6,1,03,1","2,1,03,1",,"08,99,1,07,1,02,1,00450,1,07,1,99,9",,,,,"99999,9,10002,1","6,1,016,1,+999,9","21,1","SYN072AAXX  02154 08044 41460 81608 10108 20096 30002 40133 56016 72162 8727/;",
"08044099999","2010-01-02T18:00:00","4","42.4333333","-8.6166666","108.0","PONTEVEDRA, SP","FM-12","99999","V020","160,1,N,0036,1","00420,1,9,N","004000,1,N,1","+0115,1","+0101,1","10120,1","12,0010,9,1",,"6,1,06,1","2,1,06,1",,"08,99,1,06,1,02,1,00450,1,07,1,99,9",,,,"999,M,+0117,1","99999,9,09990,1","6,1,012,1,+999,9","60,1","SYN088AAXX  02184 08044 11440 81607 10115 20101 39990 40120 56012 60012 76062 8627/ 333 10117;",
"08044099999","2010-01-03T06:00:00","4","42.4333333","-8.6166666","108.0","PONTEVEDRA, SP","FM-12","99999","V020","160,1,N,0015,1","00600,1,9,N","002000,1,N,1","+0126,1","+0123,1","10079,1","12,0191,9,1","24,0206,9,1",,,,"08,99,1,08,1,08,1,00250,1,99,9,99,9","0000,9","11,9","999,+0100,9","999,N,+0110,1","99999,9,09950,1","5,1,000,1,+999,9","62,1","SYN112AAXX  03064 08044 11320 81603 10126 20123 39950 40079 55000 60192 762// 888// 333 20110 32010 50044 55000 70206;",
"08044099999","2010-01-03T09:00:00","4","42.4333333","-8.6166666","108.0","PONTEVEDRA, SP","FM-12","99999","V020","140,1,N,0010,1","03600,1,9,N","008000,1,N,1","+0112,1","+0107,1","10102,1",,,"6,1,03,1","2,1,03,1",,"07,99,1,01,1,08,1,00250,1,07,1,00,1",,,,,"99999,9,09972,1","2,1,022,1,+999,9","10,1","SYN072AAXX  03094 08044 41358 71402 10112 20107 39972 40102 52022 71062 81870;",
"08044099999","2010-01-03T12:00:00","4","42.4333333","-8.6166666","108.0","PONTEVEDRA, SP","FM-12","99999","V020","210,1,N,0005,1","22000,1,9,N","008000,1,N,1","+0130,1","+0124,1","10121,1","06,0030,9,1",,"6,1,06,1","2,1,06,1",,"06,99,1,04,1,08,1,00250,1,00,1,01,1",,,,,"99999,9,09992,1","1,1,020,1,+999,9","10,1","SYN078AAXX  03124 08044 11358 62101 10130 20124 39992 40121 51020 60031 71062 84801;",
"08044099999","2010-01-03T15:00:00","4","42.4333333","-8.6166666","108.0","PONTEVEDRA, SP","FM-12","99999","V020","190,1,N,0015,1","22000,1,9,N","010000,1,N,1","+0132,1","+0118,1","10115,1",,,,,,"06,99,1,03,1,02,1,00450,1,00,1,01,1",,,,,"99999,9,09986,1","5,1,006,1,+999,9",,"SYN066AAXX  03154 08044 42460 61903 10132 20118 39986 40115 55006 83201;",
"08044099999","2010-01-03T18:00:00","4","42.4333333","-8.6166666","108.0","PONTEVEDRA, SP","FM-12","99999","V020","170,1,N,0010,1","03600,1,9,N","010000,1,N,1","+0118,1","+0100,1","10123,1","12,0030,9,1",,,,,"06,99,1,02,1,02,1,00450,1,03,1,01,1",,,,"999,M,+0138,1","99999,9,09993,1","1,1,007,1,+999,9",,"SYN082AAXX  03184 08044 12460 61702 10118 20100 39993 40123 51007 60032 82231 333 10138;",
"08044099999","2010-01-04T06:00:00","4","42.4333333","-8.6166666","108.0","PONTEVEDRA, SP","FM-12","99999","V020","060,1,N,0021,1","22000,1,9,N","015000,1,N,1","+0092,1","+0058,1","10057,1","12,0000,9,1","24,0028,9,1",,,,"02,99,1,00,1,00,1,99999,9,00,1,01,1","0024,9","09,9","999,+0040,9","999,N,+0068,1","99999,9,09926,1","7,1,033,1,+999,9","02,1","SYN112AAXX  04064 08044 11965 20604 10092 20058 39926 40057 57033 60002 702// 80001 333 20068 31004 50054 55004 70028;","Q01  00002PRCP12"
"08044099999","2010-01-04T09:00:00","4","42.4333333","-8.6166666","108.0","PONTEVEDRA, SP","FM-12","99999","V020","060,1,N,0031,1","09000,1,9,N","020000,1,N,1","+0102,1","+0054,1","10037,1",,,,,,"07,99,1,01,1,00,1,02250,1,03,1,02,1",,,,,"99999,9,09907,1","6,1,019,1,+999,9",,"SYN066AAXX  04094 08044 42870 70606 10102 20054 39907 40037 56019 81032;",
"08044099999","2010-01-04T12:00:00","4","42.4333333","-8.6166666","108.0","PONTEVEDRA, SP","FM-12","99999","V020","020,1,N,0010,1","03600,1,9,N","015000,1,N,1","+0125,1","+0070,1","10028,1","06,9999,9,9",,"6,1,06,1","1,1,06,1",,"07,99,1,04,1,08,1,00800,1,07,1,02,1",,,,,"99999,9,09899,1","8,1,008,1,+999,9","21,1","SYN078AAXX  04124 08044 11565 70202 10125 20070 39899 40028 58008 69911 72161 84872;","Q01  00002PRCP06Q02  00002PRCP06"
"08044099999","2010-01-04T15:00:00","4","42.4333333","-8.6166666","108.0","PONTEVEDRA, SP","FM-12","99999","V020","030,1,N,0021,1","00750,1,9,N","006000,1,N,1","+0122,1","+0087,1","10014,1",,,"6,1,03,1","2,1,03,1",,"08,99,1,07,1,02,1,00800,1,07,1,99,9",,,,,"99999,9,09885,1","7,1,014,1,+999,9","60,1","SYN072AAXX  04154 08044 41556 80304 10122 20087 39885 40014 57014 76062 8727/;",
"08044099999","2010-01-04T18:00:00","4","42.4333333","-8.6166666","108.0","PONTEVEDRA, SP","FM-12","99999","V020","040,1,N,0015,1","00750,1,9,N","012000,1,N,1","+0114,1","+0077,1","10014,1","12,0010,9,1",,"6,1,06,1","2,1,06,1",,"08,99,1,06,1,02,1,00800,1,07,1,99,9",,,,"999,M,+0134,1","99999,9,09885,1","5,1,000,1,+999,9","02,1","SYN088AAXX  04184 08044 11562 80403 10114 20077 39885 40014 55000 60012 70262 8627/ 333 10134;",
"08044099999","2010-01-05T06:00:00","4","42.4333333","-8.6166666","108.0","PONTEVEDRA, SP","FM-12","99999","V020","030,1,N,0010,1","22000,1,9,N","015000,1,N,1","+0076,1","+0054,1","10041,1","12,0000,9,1","24,0010,9,1",,,,"04,99,1,01,1,05,1,00450,1,03,1,01,1","0000,9","09,9","999,+0040,9","999,N,+0074,1","99999,9,09910,1","1,1,002,1,+999,9","02,1","SYN112AAXX  05064 08044 11465 40302 10076 20054 39910 40041 51002 60002 702// 81531 333 20074 31004 50124 55000 70010;","Q01  00002PRCP12"
"08044099999","2010-01-05T09:00:00","4","42.4333333","-8.6166666","108.0","PONTEVEDRA, SP","FM-12","99999","V020","350,1,N,0041,1","00750,1,9,N","015000,1,N,1","+0084,1","+0062,1","10062,1",,,,,,"07,99,1,06,1,02,1,00800,1,03,1,01,1",,,,,"99999,9,09931,1","2,1,021,1,+999,9",,"SYN066AAXX  05094 08044 42565 73508 10084 20062 39931 40062 52021 86231;",
"08044099999","2010-01-05T12:00:00","4","42.4333333","-8.6166666","108.0","PONTEVEDRA, SP","FM-12","99999","V020","340,1,N,0041,1","03600,1,9,N","020000,1,N,1","+0078,1","+0025,1","10077,1","06,0000,9,1",,,,,"06,99,1,04,1,02,1,00800,1,03,1,01,1",,,,,"99999,9,09945,1","1,1,014,1,+999,9",,"SYN072AAXX  05124 08044 12570 63408 10078 20025 39945 40077 51014 60001 84231;","Q01  00002PRCP06"
"08044099999","2010-01-05T15:00:00","4","42.4333333","-8.6166666","108.0","PONTEVEDRA, SP","FM-12","99999","V020","320,1,N,0046,1","03600,1,9,N","012000,1,N,1","+0080,1","+0020,1","10076,1",,,,,,"08,99,1,01,1,05,1,00800,1,07,1,99,9",,,,,"99999,9,09945,1","5,1,000,1,+999,9",,"SYN066AAXX  05154 08044 42562 83209 10080 20020 39945 40076 55000 8157/;",
"08044099999","2010-01-05T18:00:00","4","42.4333333","-8.6166666","108.0","PONTEVEDRA, SP","FM-12","99999","V020","340,1,N,0021,1","02100,1,9,N","010000,1,N,1","+0060,1","+0021,1","10082,1","12,0000,9,1",,,,,"07,99,1,07,1,00,1,02250,1,07,1,00,1",,,,"999,M,+0089,1","99999,9,09950,1","1,1,005,1,+999,9",,"SYN082AAXX  05184 08044 12860 73404 10060 20021 39950 40082 51005 60002 87070 333 10089;","Q01  00002PRCP12"
"08044099999","2010-01-06T06:00:00","4","42.4333333","-8.6166666","108.0","PONTEVEDRA, SP","FM-12","99999","V020","100,1,N,0021,1","02100,1,9,N","012000,1,N,1","+0022,1","-0012,1","10085,1","12,0000,9,1","24,0000,9,1",,,,"07,99,1,07,1,00,1,02250,1,07,1,01,1","0036,9","01,9","999,+0000,9","999,N,+0018,1","99999,9,09951,1","8,1,003,1,+999,9","02,1","SYN112AAXX  06064 08044 11862 71004 10022 21012 39951 40085 58003 60002 702// 87071 333 20018 30100 50114 55006 70000;","Q01  00002PRCP24Q02  00002PRCP12"
"08044099999","2010-01-06T09:00:00","4","42.4333333","-8.6166666","108.0","PONTEVEDRA, SP","FM-12","99999","V020","090,1,N,0015,1","03600,1,9,N","015000,1,N,1","+0027,1","-0009,1","10082,1",,,,,,"07,99,1,01,1,05,1,01250,1,07,1,00,1",,,,,"99999,9,09948,1","5,1,003,1,+999,9",,"SYN066AAXX  06094 08044 42665 70903 10027 21009 39948 40082 55003 81570;",
"08044099999","2010-01-06T12:00:00","4","42.4333333","-8.6166666","108.0","PONTEVEDRA, SP","FM-12","99999","V020","210,1,N,0005,1","03600,1,9,N","010000,1,N,1","+0051,1","+0019,1","10082,1","06,0000,9,1",,,,,"08,99,1,04,1,02,1,01250,1,07,1,99,9",,,,,"99999,9,09949,1","0,1,001,1,+999,9",,"SYN072AAXX  06124 08044 12660 82101 10051 20019 39949 40082 50001 60001 8427/;","Q01  00002PRCP06"
"08044099999","2010-01-06T15:00:00","4","42.4333333","-8.6166666","108.0","PONTEVEDRA, SP","FM-12","99999","V020","060,1,N,0015,1","03600,1,9,N","008000,1,N,1","+0064,1","+0036,1","10067,1",,,"2,1,03,1","2,1,03,1",,"08,99,1,02,1,05,1,01250,1,02,1,99,9",,,,,"99999,9,09935,1","6,1,014,1,+999,9","60,1","SYN072AAXX  06154 08044 41658 80603 10064 20036 39935 40067 56014 76022 8252/;",
"08044099999","2010-01-06T18:00:00","4","42.4333333","-8.6166666","108.0","PONTEVEDRA, SP","FM-12","99999","V020","060,1,N,0010,1","03600,1,9,N","006000,1,N,1","+0052,1","+0043,1","10059,1","12,0005,9,1",,"6,1,06,1","2,1,06,1",,"08,99,1,01,1,05,1,01250,1,02,1,99,9",,,,"999,M,+0065,1","99999,9,09927,1","8,1,008,1,+999,9","10,1","SYN088AAXX  06184 08044 11656 80602 10052 20043 39927 40059 58008 69942 71062 8152/ 333 10065;",
"08044099999","2010-01-07T06:00:00","4","42.4333333","-8.6166666","108.0","PONTEVEDRA, SP","FM-12","99999","V020","050,1,N,0021,1","22000,1,9,N","020000,1,N,1","+0021,1","-0010,1","10058,1","12,0005,9,1","24,0010,9,1",,,"00,1,+99999,9,99,9","00,99,1,00,1,00,1,99999,9,00,1,00,1","0006,9",,,"999,N,+0014,1","99999,9,09924,1","1,1,001,1,+999,9","00,1","SYN100AAXX  07064 08044 11970 00504 10021 21010 39924 40058 51001 69952 700// 333 20014 50054 55001 70009;",
"08044099999","2010-01-07T09:00:00","4","42.4333333","-8.6166666","108.0","PONTEVEDRA, SP","FM-12","99999","V020","320,1,N,0015,1","22000,1,9,N","030000,1,N,1","+0014,1","-0008,1","10077,1",,,,,,"01,99,1,01,1,02,1,00800,1,00,1,02,1",,,,,"99999,9,09942,1","3,1,018,1,+999,9",,"SYN066AAXX  07094 08044 42580 13203 10014 21008 39942 40077 53018 81202;",
"08044099999","2010-01-07T12:00:00","4","42.4333333","-8.6166666","108.0","PONTEVEDRA, SP","FM-12","99999","V020","020,1,N,0036,1","22000,1,9,N","030000,1,N,1","+0063,1","+0004,1","10089,1","06,0000,9,1",,,,,"03,99,1,01,1,02,1,00450,1,04,1,02,1",,,,,"99999,9,09957,1","0,1,015,1,+999,9",,"SYN072AAXX  07124 08044 12480 30207 10063 20004 39957 40089 50015 60001 81242;","Q01  00002PRCP06"
"08044099999","2010-01-07T15:00:00","4","42.4333333","-8.6166666","108.0","PONTEVEDRA, SP","FM-12","99999","V020","350,1,N,0041,1","22000,1,9,N","030000,1,N,1","+0063,1","+0006,1","10090,1",,,,,,"02,99,1,01,1,02,1,00450,1,00,1,02,1",,,,,"99999,9,09958,1","3,1,001,1,+999,9",,"SYN066AAXX  07154 08044 42480 23508 10063 20006 39958 40090 53001 81202;",
"08044099999","2010-01-07T18:00:00","4","42.4333333","-8.6166666","108.0","PONTEVEDRA, SP","FM-12","99999","V020","350,1,N,0046,1","22000,1,9,N","020000,1,N,1","+0042,1","-0010,1","10117,1","12,0000,9,1",,,,,"01,99,1,01,1,05,1,00800,1,00,1,00,1",,,,"999,M,+0070,1","99999,9,09983,1","2,1,025,1,+999,9",,"SYN082AAXX  07184 08044 12570 13509 10042 21010 39983 40117 52025 60002 81500 333 10070;","Q01  00002PRCP12"
"08044099999","2010-01-08T06:00:00","4","42.4333333","-8.6166666","108.0","PONTEVEDRA, SP","FM-12","99999","V020","340,1,N,0026,1","99999,9,9,N","020000,1,N,1","+0008,1","-0003,1","10174,1","12,0000,9,1","24,0000,9,1",,,,"07,99,1,00,1,00,1,99999,9,00,1,02,1","0426,9",,,"999,N,+0000,1","99999,9,10038,1","1,1,004,1,+999,9","02,1","SYN106AAXX  08064 08044 11970 73405 10008 21003 30038 40174 51004 60002 702/2 80002 333 20000 50044 55071 70000;","Q01  00002PRCP24Q02  00002PRCP12"
"08044099999","2010-01-08T09:00:00","4","42.4333333","-8.6166666","108.0","PONTEVEDRA, SP","FM-12","99999","V020","050,1,N,0010,1","22000,1,9,N","025000,1,N,1","+0011,1","-0004,1","10184,1",,,,,,"02,99,1,00,1,00,1,99999,9,00,1,02,1",,,,,"99999,9,10048,1","1,1,010,1,+999,9",,"SYN066AAXX  08094 08044 42975 20502 10011 21004 30048 40184 51010 80002;",
"08044099999","2010-01-08T12:00:00","4","42.4333333","-8.6166666","108.0","PONTEVEDRA, SP","FM-12","99999","V020","280,1,N,0021,1","22000,1,9,N","025000,1,N,1","+0057,1","+0009,1","10190,1","06,0000,9,1",,,,,"03,99,1,01,1,08,1,00800,1,00,1,02,1",,,,,"99999,9,10056,1","1,1,008,1,+999,9",,"SYN072AAXX  08124 08044 12575 32804 10057 20009 30056 40190 51008 60001 81802;","Q01  00002PRCP06"
"08044099999","2010-01-08T15:00:00","4","42.4333333","-8.6166666","108.0","PONTEVEDRA, SP","FM-12","99999","V020","340,1,N,0036,1","22000,1,9,N","025000,1,N,1","+0069,1","-0017,1","10180,1",,,,,,"02,99,1,02,1,08,1,00800,1,00,1,00,1",,,,,"99999,9,10047,1","5,1,009,1,+999,9",,"SYN066AAXX  08154 08044 42575 23407 10069 21017 30047 40180 55009 82800;",
"08044099999","2010-01-08T18:00:00","4","42.4333333","-8.6166666","108.0","PONTEVEDRA, SP","FM-12","99999","V020","040,1,N,0010,1","22000,1,9,N","025000,1,N,1","+0045,1","-0013,1","10190,1","12,0000,9,1",,,,,"01,99,1,01,1,05,1,00800,1,00,1,00,1",,,,"999,M,+0069,1","99999,9,10055,1","2,1,008,1,+999,9",,"SYN082AAXX  08184 08044 12575 10402 10045 21013 30055 40190 52008 60002 81500 333 10069;","Q01  00002PRCP12"
"08044099999","2010-01-09T06:00:00","4","42.4333333","-8.6166666","108.0","PONTEVEDRA, SP","FM-12","99999","V020","070,1,N,0021,1","22000,1,9,N","020000,1,N,1","-0005,1","-0030,1","10213,1","12,0000,9,1","24,0000,9,1",,,,"03,99,1,00,1,00,1,99999,9,00,1,02,1","0402,9",,,"999,N,-0008,1","99999,9,10076,1","7,1,006,1,+999,9","02,1","SYN106AAXX  09064 08044 11970 30704 11005 21030 30076 40213 57006 60002 702// 80002 333 21008 50104 55067 70000;","Q01  00002PRCP24Q02  00002PRCP12"
"08044099999","2010-01-09T09:00:00","4","42.4333333","-8.6166666","108.0","PONTEVEDRA, SP","FM-12","99999","V020","050,1,N,0021,1","22000,1,9,N","025000,1,N,1","-0003,1","-0023,1","10213,1",,,,,,"04,99,1,04,1,05,1,00800,1,00,1,02,1",,,,,"99999,9,10076,1","4,1,000,1,+999,9",,"SYN066AAXX  09094 08044 42575 40504 11003 21023 30076 40213 54000 84502;",
"08044099999","2010-01-09T12:00:00","4","42.4333333","-8.6166666","108.0","PONTEVEDRA, SP","FM-12","99999","V020","300,1,N,0010,1","22000,1,9,N","025000,1,N,1","+0045,1","-0003,1","10215,1","06,0000,9,1",,,,,"01,99,1,01,1,05,1,00800,1,00,1,02,1",,,,,"99999,9,10080,1","1,1,004,1,+999,9",,"SYN072AAXX  09124 08044 12575 13002 10045 21003 30080 40215 51004 60001 81502;","Q01  00002PRCP06"
"08044099999","2010-01-09T15:00:00","4","42.4333333","-8.6166666","108.0","PONTEVEDRA, SP","FM-12","99999","V020","310,1,N,0031,1","22000,1,9,N","025000,1,N,1","+0064,1","-0003,1","10197,1",,,,,,"04,99,1,03,1,08,1,00800,1,00,1,01,1",,,,,"99999,9,10063,1","7,1,017,1,+999,9",,"SYN066AAXX  09154 08044 42575 43106 10064 21003 30063 40197 57017 83801;",
"08044099999","2010-01-09T18:00:00","4","42.4333333","-8.6166666","108.0","PONTEVEDRA, SP","FM-12","99999","V020","070,1,N,0010,1","22000,1,9,N","020000,1,N,1","+0040,1","-0004,1","10198,1","12,0000,9,1",,,,,"03,99,1,00,1,00,1,99999,9,00,1,01,1",,,,"999,M,+0064,1","99999,9,10063,1","4,1,000,1,+999,9",,"SYN082AAXX  09184 08044 12970 30702 10040 21004 30063 40198 54000 60002 80001 333 10064;","Q01  00002PRCP12"
"08044099999","2010-01-10T06:00:00","4","42.4333333","-8.6166666","108.0","PONTEVEDRA, SP","FM-12","99999","V020","090,1,N,0021,1","99999,9,9,N","020000,1,N,1","+0020,1","-0045,1","10145,1","12,0000,9,1","24,0000,9,1",,,,"06,99,1,00,1,00,1,99999,9,00,1,02,1","0438,9",,,"999,N,+0005,1","99999,9,10010,1","7,1,020,1,+999,9","02,1","SYN106AAXX  10064 08044 11970 60904 10020 21045 30010 40145 57020 60002 702// 80002 333 20005 50104 55073 70000;","Q01  00002PRCP24Q02  00002PRCP12"
"08044099999","2010-01-10T09:00:00","4","42.4333333","-8.6166666","108.0","PONTEVEDRA, SP","FM-12","99999","V020","070,1,N,0015,1","01500,1,9,N","025000,1,N,1","+0027,1","-0049,1","10129,1",,,,,,"08,99,1,08,1,00,1,01750,1,05,1,99,9",,,,,"99999,9,09994,1","7,1,016,1,+999,9",,"SYN066AAXX  10094 08044 42775 80703 10027 21049 39994 40129 57016 8805/;",
"08044099999","2010-01-10T12:00:00","4","42.4333333","-8.6166666","108.0","PONTEVEDRA, SP","FM-12","99999","V020","200,1,N,0010,1","01500,1,9,N","020000,1,N,1","+0040,1","-0012,1","10110,1","06,0000,9,1",,,,,"08,99,1,08,1,00,1,01750,1,05,1,99,9",,,,,"99999,9,09976,1","7,1,018,1,+999,9",,"SYN072AAXX  10124 08044 12770 82002 10040 21012 39976 40110 57018 60001 8805/;","Q01  00002PRCP06"
"08044099999","2010-01-10T15:00:00","4","42.4333333","-8.6166666","108.0","PONTEVEDRA, SP","FM-12","99999","V020","010,1,N,0010,1","99999,9,9,N","015000,1,N,1","+0025,1","+0004,1","10084,1",,,"7,1,03,1","5,1,03,1",,"08,99,1,08,1,00,1,00800,1,07,1,99,9",,,,,"99999,9,09950,1","7,1,026,1,+999,9","61,1","SYN072AAXX  10154 08044 41565 80102 10025 20004 39950 40084 57026 76175 8807/;",
"08044099999","2010-01-10T18:00:00","4","42.4333333","-8.6166666","108.0","PONTEVEDRA, SP","FM-12","99999","V020","050,1,N,0031,1","01500,1,9,N","015000,1,N,1","+0033,1","-0002,1","10084,1","12,0020,9,1",,,,,"08,99,1,08,1,00,1,01750,1,07,1,99,9",,,,"999,M,+0045,1","99999,9,09950,1","4,1,000,1,+999,9",,"SYN082AAXX  10184 08044 12765 80506 10033 21002 39950 40084 54000 60022 8807/ 333 10045;",
"08044099999","2010-01-11T06:00:00","4","42.4333333","-8.6166666","108.0","PONTEVEDRA, SP","FM-12","99999","V020","050,1,N,0015,1","03600,1,9,N","012000,1,N,1","+0034,1","+0021,1","10130,1","12,0010,9,1","24,0036,9,1",,,,"08,99,1,01,1,08,1,00800,1,07,1,99,9","0000,9",,,"999,N,+0027,1","99999,9,09996,1","3,1,010,1,+999,9","02,1","SYN106AAXX  11064 08044 11562 80503 10034 20021 39996 40130 53010 60012 702/6 8187/ 333 20027 50124 55000 70036;",
"08044099999","2010-01-11T09:00:00","4","42.4333333","-8.6166666","108.0","PONTEVEDRA, SP","FM-12","99999","V020","220,1,N,0010,1","01500,1,9,N","015000,1,N,1","+0029,1","+0019,1","10162,1",,,,,,"07,99,1,07,1,00,1,01750,1,04,1,99,9",,,,,"99999,9,10027,1","2,1,031,1,+999,9",,"SYN066AAXX  11094 08044 42765 72202 10029 20019 30027 40162 52031 8704/;",
"08044099999","2010-01-11T12:00:00","4","42.4333333","-8.6166666","108.0","PONTEVEDRA, SP","FM-12","99999","V020","280,1,N,0010,1","22000,1,9,N","020000,1,N,1","+0080,1","+0038,1","10167,1","06,0000,9,1",,,,,"01,99,1,01,1,05,1,00800,1,04,1,01,1",,,,,"99999,9,10034,1","2,1,007,1,+999,9",,"SYN072AAXX  11124 08044 12570 12802 10080 20038 30034 40167 52007 60001 81541;","Q01  00002PRCP06"
"08044099999","2010-01-11T15:00:00","4","42.4333333","-8.6166666","108.0","PONTEVEDRA, SP","FM-12","99999","V020","160,1,N,0015,1","00750,1,9,N","020000,1,N,1","+0091,1","+0051,1","10166,1",,,,,,"08,99,1,08,1,05,1,00800,1,99,9,99,9",,,,,"99999,9,10034,1","4,1,000,1,+999,9",,"SYN066AAXX  11154 08044 42570 81603 10091 20051 30034 40166 54000 885//;",
"08044099999","2010-01-11T18:00:00","4","42.4333333","-8.6166666","108.0","PONTEVEDRA, SP","FM-12","99999","V020","150,1,N,0021,1","00750,1,9,N","020000,1,N,1","+0083,1","+0038,1","10164,1","12,0000,9,1",,,,,"08,99,1,08,1,05,1,00800,1,99,9,99,9",,,,"999,M,+0096,1","99999,9,10032,1","8,1,002,1,+999,9",,"SYN082AAXX  11184 08044 12570 81504 10083 20038 30032 40164 58002 60002 885// 333 10096;","Q01  00002PRCP12"
"08044099999","2010-01-12T06:00:00","4","42.4333333","-8.6166666","108.0","PONTEVEDRA, SP","FM-12","99999","V020","170,1,N,0067,1","00900,1,9,N","010000,1,N,1","+0126,1","+0123,1","10010,1","12,0269,9,1","24,0272,9,1",,,,"08,99,1,08,1,08,1,00450,1,99,9,99,9","0192,9",,,"999,N,+0100,1","99999,9,09882,1","7,1,050,2,+999,9","63,1","SYN106AAXX  12064 08044 11460 81713 10126 20123 39882 40010 57050 60272 763/6 888// 333 20100 50104 55032 70271;","Q01+000502APC3  "
"08044099999","2010-01-12T09:00:00","4","42.4333333","-8.6166666","108.0","PONTEVEDRA, SP","FM-12","99999","V020","170,1,N,0031,1","01200,1,9,N","012000,1,N,1","+0114,1","+0111,1","10030,1",,,"6,1,03,1","6,1,03,1",,"08,99,1,08,1,08,1,00800,1,99,9,99,9",,,,,"99999,9,09901,1","2,1,019,1,+999,9","50,1","SYN072AAXX  12094 08044 41562 81706 10114 20111 39901 40030 52019 75066 888//;",
"08044099999","2010-01-12T12:00:00","4","42.4333333","-8.6166666","108.0","PONTEVEDRA, SP","FM-12","99999","V020","190,1,N,0026,1","01200,1,9,N","012000,1,N,1","+0127,1","+0104,1","10047,1","06,0109,9,1",,"6,1,06,1","2,1,06,1",,"06,99,1,06,1,08,1,00800,1,00,1,01,1",,,,,"99999,9,09918,1","3,1,017,1,+999,9","21,1","SYN078AAXX  12124 08044 11562 61905 10127 20104 39918 40047 53017 60111 72162 86801;",
"08044099999","2010-01-12T15:00:00","4","42.4333333","-8.6166666","108.0","PONTEVEDRA, SP","FM-12","99999","V020","150,1,N,0010,1","01200,1,9,N","012000,1,N,1","+0117,1","+0078,1","10058,1",,,,,,"07,99,1,07,1,08,1,00800,1,00,1,00,1",,,,,"99999,9,09929,1","2,1,011,1,+999,9",,"SYN066AAXX  12154 08044 42562 71502 10117 20078 39929 40058 52011 87800;",
"08044099999","2010-01-12T18:00:00","4","42.4333333","-8.6166666","108.0","PONTEVEDRA, SP","FM-12","99999","V020","180,1,N,0015,1","01200,1,9,N","012000,1,N,1","+0090,1","+0076,1","10086,1","12,0140,9,1",,"8,1,06,1","2,1,06,1",,"06,99,1,06,1,08,1,00800,1,00,1,00,1",,,,"999,M,+0130,1","99999,9,09955,1","1,1,026,1,+999,9","02,1","SYN088AAXX  12184 08044 11562 61803 10090 20076 39955 40086 51026 60142 70282 86800 333 10130;",
"08044099999","2010-01-13T06:00:00","4","42.4333333","-8.6166666","108.0","PONTEVEDRA, SP","FM-12","99999","V020","180,1,N,0021,1","00900,1,9,N","010000,1,N,1","+0111,1","+0106,1","10087,1","12,0041,9,1","24,0178,9,1",,,,"08,99,1,08,1,08,1,00450,1,99,9,99,9","0036,9",,,"999,N,+0095,1","99999,9,09957,1","7,1,017,1,+999,9","61,1","SYN106AAXX  13064 08044 11460 81804 10111 20106 39957 40087 57017 60042 761/8 888// 333 20095 50054 55006 70179;",
"08044099999","2010-01-13T09:00:00","4","42.4333333","-8.6166666","108.0","PONTEVEDRA, SP","FM-12","99999","V020","120,1,N,0010,1","00900,1,9,N","010000,1,N,1","+0097,1","+0092,1","10084,1",,,"8,1,03,1","6,1,03,1",,"08,99,1,08,1,08,1,00450,1,99,9,99,9",,,,,"99999,9,09953,1","6,1,004,1,+999,9","61,1","SYN072AAXX  13094 08044 41460 81202 10097 20092 39953 40084 56004 76186 888//;",
"08044099999","2010-01-13T12:00:00","4","42.4333333","-8.6166666","108.0","PONTEVEDRA, SP","FM-12","99999","V020","160,1,N,0021,1","00900,1,9,N","015000,1,N,1","+0122,1","+0119,1","10060,1","06,0160,9,1",,"8,1,06,1","2,1,06,1",,"08,99,1,08,1,08,1,00450,1,99,9,99,9",,,,,"99999,9,09931,1","7,1,022,1,+999,9","02,1","SYN078AAXX  13124 08044 11465 81604 10122 20119 39931 40060 57022 60161 70282 888//;",
"08044099999","2010-01-13T15:00:00","4","42.4333333","-8.6166666","108.0","PONTEVEDRA, SP","FM-12","99999","V020","170,1,N,0015,1","00900,1,9,N","012000,1,N,1","+0100,1","+0095,1","10020,1",,,"8,1,03,1","2,1,03,1",,"08,99,1,08,1,08,1,00450,1,99,9,99,9",,,,,"99999,9,09890,1","7,1,041,1,+999,9","61,1","SYN072AAXX  13154 08044 41462 81703 10100 20095 39890 40020 57041 76182 888//;",
"08044099999","2010-01-13T18:00:00","4","42.4333333","-8.6166666","108.0","PONTEVEDRA, SP","FM-12","99999","V020","170,1,N,0015,1","00900,1,9,N","012000,1,N,1","+0106,1","+0101,1","99999,9","12,0239,9,1",,"6,1,06,1","6,1,06,1",,"08,99,1,08,1,08,1,00450,1,99,9,99,9",,,,"999,M,+0122,1",,"7,1,064,1,+999,9","61,1","SYN088AAXX  13184 08044 11462 81703 10106 20101 39826 49954 57064 60242 76166 888// 333 10122;","Q01+098263APOSP "
"08044099999","2010-01-14T06:00:00","4","42.4333333","-8.6166666","108.0","PONTEVEDRA, SP","FM-12","99999","V020","280,1,N,0021,1","00900,1,9,N","012000,1,N,1","+0092,1","+0058,1","10066,1","12,0130,9,1","24,0371,9,1",,,,"08,99,1,08,1,08,1,00450,1,99,9,99,9","0000,9",,,"999,N,+0090,1","99999,9,09935,1","2,1,063,2,+999,9","02,1","SYN106AAXX  14064 08044 11462 82804 10092 20058 39935 40066 52063 60132 702/8 888// 333 20090 50034 55000 70371;","Q01+000632APC3  "
"08044099999","2010-01-14T09:00:00","4","42.4333333","-8.6166666","108.0","PONTEVEDRA, SP","FM-12","99999","V020","140,1,N,0021,1","00900,1,9,N","012000,1,N,1","+0084,1","+0075,1","10100,1",,,"6,1,03,1","2,1,03,1",,"07,99,1,07,1,08,1,00450,1,99,9,99,9",,,,,"99999,9,09969,1","2,1,034,1,+999,9","21,1","SYN072AAXX  14094 08044 41462 71404 10084 20075 39969 40100 52034 72162 878//;",
"08044099999","2010-01-14T12:00:00","4","42.4333333","-8.6166666","108.0","PONTEVEDRA, SP","FM-12","99999","V020","270,1,N,0026,1","01200,1,9,N","020000,1,N,1","+0113,1","+0083,1","10129,1","06,0010,9,1",,"6,1,06,1","2,1,06,1",,"06,99,1,06,1,08,1,00800,1,04,1,01,1",,,,,"99999,9,09999,1","2,1,030,1,+999,9","25,1","SYN078AAXX  14124 08044 11570 62705 10113 20083 39999 40129 52030 60011 72562 86841;",
"08044099999","2010-01-14T15:00:00","4","42.4333333","-8.6166666","108.0","PONTEVEDRA, SP","FM-12","99999","V020","250,1,N,0010,1","01200,1,9,N","020000,1,N,1","+0118,1","+0081,1","10144,1",,,,,,"07,99,1,07,1,08,1,00800,1,00,1,01,1",,,,,"99999,9,10014,1","3,1,015,1,+999,9",,"SYN066AAXX  14154 08044 42570 72502 10118 20081 30014 40144 53015 87801;",
"08044099999","2010-01-14T18:00:00","4","42.4333333","-8.6166666","108.0","PONTEVEDRA, SP","FM-12","99999","V020","140,1,N,0010,1","22000,1,9,N","020000,1,N,1","+0095,1","+0076,1","10170,1","12,0010,9,1",,,,,"04,99,1,04,1,08,1,00800,1,00,1,01,1",,,,"999,M,+0126,1","99999,9,10038,1","2,1,024,1,+999,9",,"SYN082AAXX  14184 08044 12570 41402 10095 20076 30038 40170 52024 60012 84801 333 10126;",
"08044099999","2010-01-15T06:00:00","4","42.4333333","-8.6166666","108.0","PONTEVEDRA, SP","FM-12","99999","V020","340,1,N,0021,1","99999,9,9,N","012000,1,N,1","+0075,1","+0061,1","10201,1","12,0000,9,1","24,0010,9,1",,,,"07,99,1,00,1,00,1,99999,9,00,1,02,1","0156,9",,,"999,N,+0069,1","99999,9,10068,1","8,1,002,1,+999,9","02,1","SYN106AAXX  15064 08044 11962 73404 10075 20061 30068 40201 58002 60002 702// 80002 333 20069 50074 55026 70010;","Q01  00002PRCP12"
"08044099999","2010-01-15T09:00:00","4","42.4333333","-8.6166666","108.0","PONTEVEDRA, SP","FM-12","99999","V020","360,1,N,0015,1","09000,1,9,N","015000,1,N,1","+0090,1","+0054,1","10197,1",,,,,,"08,99,1,04,1,00,1,01750,1,05,1,07,1",,,,,"99999,9,10065,1","6,1,003,1,+999,9",,"SYN066AAXX  15094 08044 42765 83603 10090 20054 30065 40197 56003 84057;",
"08044099999","2010-01-15T12:00:00","4","42.4333333","-8.6166666","108.0","PONTEVEDRA, SP","FM-12","99999","V020","360,1,N,0026,1","03600,1,9,N","015000,1,N,1","+0103,1","+0075,1","10197,1","06,0000,9,1",,"6,1,06,1","2,1,06,1",,"08,99,1,03,1,08,1,00800,1,05,1,07,1",,,,,"99999,9,10065,1","4,1,000,1,+999,9","02,1","SYN078AAXX  15124 08044 11565 83605 10103 20075 30065 40197 54000 69921 70262 83857;","Q01  00002PRCP06"
"08044099999","2010-01-15T15:00:00","4","42.4333333","-8.6166666","108.0","PONTEVEDRA, SP","FM-12","99999","V020","160,1,N,0046,1","01200,1,9,N","015000,1,N,1","+0118,1","+0088,1","10169,1",,,"6,1,03,1","2,1,03,1",,"08,99,1,07,1,08,1,00800,1,05,1,99,9",,,,,"99999,9,10038,1","7,1,027,1,+999,9","60,1","SYN072AAXX  15154 08044 41565 81609 10118 20088 30038 40169 57027 76062 8785/;",
"08044099999","2010-01-15T18:00:00","4","42.4333333","-8.6166666","108.0","PONTEVEDRA, SP","FM-12","99999","V020","160,1,N,0057,1","01200,1,9,N","015000,1,N,1","+0118,1","+0088,1","10165,1","12,0008,9,1",,"6,1,06,1","2,1,06,1",,"08,99,1,07,1,08,1,00800,1,07,1,99,9",,,,"999,M,+0118,1","99999,9,10034,1","6,1,004,1,+999,9","21,1","SYN088AAXX  15184 08044 11565 81611 10118 20088 30034 40165 56004 69972 72162 8787/ 333 10118;",
"08044099999","2010-01-16T06:00:00","4","42.4333333","-8.6166666","108.0","PONTEVEDRA, SP","FM-12","99999","V020","180,1,N,0031,1","00900,1,9,N","008000,1,N,1","+0143,1","+0140,1","10137,1","12,0061,9,1","24,0064,9,1",,,,"08,99,1,08,1,08,1,00450,1,99,9,99,9","0000,9",,,"999,N,+0133,1","99999,9,10008,1","3,1,003,1,+999,9","62,1","SYN106AAXX  16064 08044 11458 81806 10143 20140 30008 40137 53003 60062 762/8 888// 333 20133 50074 55000 70063;",
"08044099999","2010-01-16T09:00:00","4","42.4333333","-8.6166666","108.0","PONTEVEDRA, SP","FM-12","99999","V020","230,1,N,0021,1","00900,1,9,N","006000,1,N,1","+0124,1","+0121,1","10148,1",,,"6,1,03,1","6,1,03,1",,"08,99,1,08,1,08,1,00450,1,99,9,99,9",,,,,"99999,9,10018,1","2,1,010,1,+999,9","62,1","SYN072AAXX  16094 08044 41456 82304 10124 20121 30018 40148 52010 76266 888//;",
"08044099999","2010-01-16T12:00:00","4","42.4333333","-8.6166666","108.0","PONTEVEDRA, SP","FM-12","99999","V020","180,1,N,0021,1","00900,1,9,N","010000,1,N,1","+0134,1","+0128,1","10177,1","06,0119,9,1",,"6,1,06,1","6,1,06,1",,"08,99,1,08,1,08,1,00450,1,99,9,99,9",,,,,"99999,9,10047,1","1,1,029,1,+999,9","61,1","SYN078AAXX  16124 08044 11460 81804 10134 20128 30047 40177 51029 60121 76166 888//;",
"08044099999","2010-01-16T15:00:00","4","42.4333333","-8.6166666","108.0","PONTEVEDRA, SP","FM-12","99999","V020","190,1,N,0021,1","00900,1,9,N","012000,1,N,1","+0141,1","+0136,1","10177,1",,,,,,"08,99,1,08,1,08,1,00450,1,99,9,99,9",,,,,"99999,9,10047,1","5,1,000,1,+999,9",,"SYN066AAXX  16154 08044 42462 81904 10141 20136 30047 40177 55000 888//;",
"08044099999","2010-01-16T18:00:00","4","42.4333333","-8.6166666","108.0","PONTEVEDRA, SP","FM-12","99999","V020","160,1,N,0015,1","00900,1,9,N","012000,1,N,1","+0133,1","+0127,1","10188,1","12,0119,9,1",,,,,"08,99,1,08,1,08,1,00450,1,99,9,99,9",,,,"999,M,+0144,1","99999,9,10058,1","1,1,011,1,+999,9",,"SYN082AAXX  16184 08044 12462 81603 10133 20127 30058 40188 51011 60122 888// 333 10144;",
"08044099999","2010-01-17T06:00:00","4","42.4333333","-8.6166666","108.0","PONTEVEDRA, SP","FM-12","99999","V020","070,1,N,0015,1","00900,1,9,N","008000,1,N,1","+0110,1","+0105,1","10216,1","12,0119,9,1","24,0236,9,1",,,,"08,99,1,08,1,08,1,00450,1,99,9,99,9","0000,9",,,"999,N,+0110,1","99999,9,10084,1","1,1,003,1,+999,9","81,1","SYN106AAXX  17064 08044 11458 80703 10110 20105 30084 40216 51003 60122 781/8 888// 333 20110 50044 55000 70237;",
"08044099999","2010-01-17T09:00:00","4","42.4333333","-8.6166666","108.0","PONTEVEDRA, SP","FM-12","99999","V020","280,1,N,0010,1","00900,1,9,N","002000,1,N,1","+0109,1","+0104,1","10224,1",,,"8,1,03,1","6,1,03,1",,"08,99,1,08,1,08,1,00450,1,99,9,99,9",,,,,"99999,9,10092,1","3,1,008,1,+999,9","81,1","SYN072AAXX  17094 08044 41420 82802 10109 20104 30092 40224 53008 78186 888//;",
"08044099999","2010-01-17T12:00:00","4","42.4333333","-8.6166666","108.0","PONTEVEDRA, SP","FM-12","99999","V020","340,1,N,0010,1","03600,1,9,N","015000,1,N,1","+0121,1","+0118,1","10232,1","06,0030,9,1",,"8,1,06,1","2,1,06,1",,"08,99,1,02,1,08,1,00450,1,04,1,04,1",,,,,"99999,9,10101,1","1,1,009,1,+999,9","01,1","SYN078AAXX  17124 08044 11465 83402 10121 20118 30101 40232 51009 60031 70182 82844;",
"08044099999","2010-01-17T15:00:00","4","42.4333333","-8.6166666","108.0","PONTEVEDRA, SP","FM-12","99999","V020","150,1,N,0010,1","03600,1,9,N","020000,1,N,1","+0134,1","+0095,1","10215,1",,,,,,"08,99,1,01,1,05,1,00800,1,08,1,99,9",,,,,"99999,9,10084,1","6,1,017,1,+999,9",,"SYN066AAXX  17154 08044 42570 81502 10134 20095 30084 40215 56017 8158/;",
"08044099999","2010-01-17T18:00:00","4","42.4333333","-8.6166666","108.0","PONTEVEDRA, SP","FM-12","99999","V020","080,1,N,0026,1","03600,1,9,N","020000,1,N,1","+0130,1","+0093,1","10206,1","12,0030,9,1",,,,,"08,99,1,01,1,05,1,00800,1,08,1,99,9",,,,"999,M,+0137,1","99999,9,10075,1","6,1,009,1,+999,9",,"SYN082AAXX  17184 08044 12570 80805 10130 20093 30075 40206 56009 60032 8158/ 333 10137;",
"08044099999","2010-01-18T06:00:00","4","42.4333333","-8.6166666","108.0","PONTEVEDRA, SP","FM-12","99999","V020","040,1,N,0010,1","09000,1,9,N","012000,1,N,1","+0122,1","+0083,1","10163,1","12,0000,9,1","24,0036,9,1",,,,"07,99,1,01,1,00,1,01750,1,07,1,02,1","0000,9",,,"999,N,+0120,1","99999,9,10033,1","6,1,010,1,+999,9","02,1","SYN106AAXX  18064 08044 11762 70402 10122 20083 30033 40163 56010 69922 702/8 81072 333 20120 50034 55000 70035;","Q01  00002PRCP12"
"08044099999","2010-01-18T09:00:00","4","42.4333333","-8.6166666","108.0","PONTEVEDRA, SP","FM-12","99999","V020","100,1,N,0015,1","03600,1,9,N","015000,1,N,1","+0131,1","+0084,1","10159,1",,,,,,"06,99,1,01,1,08,1,00800,1,07,1,00,1",,,,,"99999,9,10029,1","7,1,004,1,+999,9",,"SYN066AAXX  18094 08044 42565 61003 10131 20084 30029 40159 57004 81870;",
"08044099999","2010-01-18T12:00:00","4","42.4333333","-8.6166666","108.0","PONTEVEDRA, SP","FM-12","99999","V020","190,1,N,0010,1","03600,1,9,N","015000,1,N,1","+0144,1","+0108,1","10158,1","06,9999,9,9",,"2,1,06,1","2,1,06,1",,"08,99,1,02,1,05,1,00800,1,05,1,99,9",,,,,"99999,9,10029,1","0,1,000,1,+999,9","60,1","SYN078AAXX  18124 08044 11565 81902 10144 20108 30029 40158 50000 69901 76022 8255/;","Q01  00002PRCP06Q02  00002PRCP06"
"08044099999","2010-01-18T15:00:00","4","42.4333333","-8.6166666","108.0","PONTEVEDRA, SP","FM-12","99999","V020","150,1,N,0010,1","01200,1,9,N","015000,1,N,1","+0150,1","+0118,1","10140,1",,,,,,"08,99,1,07,1,08,1,00800,1,05,1,99,9",,,,,"99999,9,10011,1","6,1,018,1,+999,9",,"SYN066AAXX  18154 08044 42565 81502 10150 20118 30011 40140 56018 8785/;",
"08044099999","2010-01-18T18:00:00","4","42.4333333","-8.6166666","108.0","PONTEVEDRA, SP","FM-12","99999","V020","150,1,N,0026,1","01200,1,9,N","012000,1,N,1","+0131,1","+0125,1","10148,1","12,0005,9,1",,"8,1,06,1","2,1,06,1",,"08,99,1,07,1,08,1,00800,1,99,9,99,9",,,,"999,M,+0150,1","99999,9,10018,1","3,1,007,1,+999,9","25,1","SYN088AAXX  18184 08044 11562 81505 10131 20125 30018 40148 53007 69952 72582 878// 333 10150;",
"08044099999","2010-01-19T06:00:00","4","42.4333333","-8.6166666","108.0","PONTEVEDRA, SP","FM-12","99999","V020","180,1,N,0021,1","00420,1,9,N","010000,1,N,1","+0123,1","+0120,1","10142,1","12,0061,9,1","24,0066,9,1",,,,"08,99,1,08,1,07,1,00450,1,99,9,99,9","0000,9",,,"999,N,+0123,1","99999,9,10012,1","4,1,000,1,+999,9","61,1","SYN106AAXX  19064 08044 11460 81804 10123 20120 30012 40142 54000 60062 761/6 887// 333 20123 50044 55000 70066;",
"08044099999","2010-01-19T09:00:00","4","42.4333333","-8.6166666","108.0","PONTEVEDRA, SP","FM-12","99999","V020","140,1,N,0026,1","00900,1,9,N","010000,1,N,1","+0121,1","+0118,1","10152,1",,,"6,1,03,1","2,1,03,1",,"08,99,1,08,1,08,1,00450,1,99,9,99,9",,,,,"99999,9,10022,1","2,1,010,1,+999,9","60,1","SYN072AAXX  19094 08044 41460 81405 10121 20118 30022 40152 52010 76062 888//;",
"08044099999","2010-01-19T12:00:00","4","42.4333333","-8.6166666","108.0","PONTEVEDRA, SP","FM-12","99999","V020","180,1,N,0021,1","01200,1,9,N","012000,1,N,1","+0128,1","+0125,1","10176,1","06,0041,9,1",,"6,1,06,1","2,1,06,1",,"06,99,1,06,1,08,1,00800,1,00,1,01,1",,,,,"99999,9,10046,1","2,1,024,1,+999,9","01,1","SYN078AAXX  19124 08044 11562 61804 10128 20125 30046 40176 52024 60041 70162 86801;",
"08044099999","2010-01-19T15:00:00","4","42.4333333","-8.6166666","108.0","PONTEVEDRA, SP","FM-12","99999","V020","200,1,N,0021,1","01200,1,9,N","012000,1,N,1","+0130,1","+0102,1","10170,1",,,"2,1,03,1","2,1,03,1",,"07,99,1,07,1,08,1,00800,1,00,1,00,1",,,,,"99999,9,10040,1","6,1,006,1,+999,9","80,1","SYN072AAXX  19154 08044 41562 72004 10130 20102 30040 40170 56006 78022 87800;",
"08044099999","2010-01-19T18:00:00","4","42.4333333","-8.6166666","108.0","PONTEVEDRA, SP","FM-12","99999","V020","170,1,N,0046,1","01200,1,9,N","012000,1,N,1","+0120,1","+0087,1","10171,1","12,0041,9,1",,,,,"07,99,1,07,1,08,1,00800,1,99,9,99,9",,,,"999,M,+0133,1","99999,9,10040,1","4,1,000,1,+999,9",,"SYN082AAXX  19184 08044 12562 71709 10120 20087 30040 40171 54000 60042 878// 333 10133;",
"08044099999","2010-01-20T06:00:00","4","42.4333333","-8.6166666","108.0","PONTEVEDRA, SP","FM-12","99999","V020","160,1,N,0015,1","22000,1,9,N","012000,1,N,1","+0077,1","+0073,1","10202,1","12,0071,9,1","24,0107,9,1",,,,"01,99,1,00,1,00,1,99999,9,00,1,01,1","0084,9",,,"999,N,+0077,1","99999,9,10069,1","2,1,009,1,+999,9","01,1","SYN106AAXX  20064 08044 11962 11603 10077 20073 30069 40202 52009 60072 701/8 80001 333 20077 50094 55014 70107;",
"08044099999","2010-01-20T09:00:00","4","42.4333333","-8.6166666","108.0","PONTEVEDRA, SP","FM-12","99999","V020","160,1,N,0015,1","01200,1,9,N","010000,1,N,1","+0083,1","+0079,1","10209,1",,,"2,1,03,1","2,1,03,1",,"08,99,1,05,1,08,1,00800,1,05,1,99,9",,,,,"99999,9,10076,1","2,1,007,1,+999,9","60,1","SYN072AAXX  20094 08044 41560 81603 10083 20079 30076 40209 52007 76022 8585/;",
"08044099999","2010-01-20T12:00:00","4","42.4333333","-8.6166666","108.0","PONTEVEDRA, SP","FM-12","99999","V020","180,1,N,0015,1","00900,1,9,N","012000,1,N,1","+0116,1","+0113,1","10218,1","06,0020,9,1",,"6,1,06,1","2,1,06,1",,"08,99,1,08,1,08,1,00450,1,99,9,99,9",,,,,"99999,9,10087,1","1,1,011,1,+999,9","21,1","SYN078AAXX  20124 08044 11462 81803 10116 20113 30087 40218 51011 60021 72162 888//;",
"08044099999","2010-01-20T15:00:00","4","42.4333333","-8.6166666","108.0","PONTEVEDRA, SP","FM-12","99999","V020","340,1,N,0010,1","01200,1,9,N","012000,1,N,1","+0120,1","+0106,1","10213,1",,,,,,"07,99,1,07,1,08,1,00800,1,99,9,99,9",,,,,"99999,9,10082,1","6,1,005,1,+999,9",,"SYN066AAXX  20154 08044 42562 73402 10120 20106 30082 40213 56005 878//;",
"08044099999","2010-01-20T18:00:00","4","42.4333333","-8.6166666","108.0","PONTEVEDRA, SP","FM-12","99999","V020","170,1,N,0021,1","01200,1,9,N","012000,1,N,1","+0106,1","+0101,1","10214,1","12,0020,9,1",,,,,"06,99,1,06,1,08,1,00800,1,00,1,00,1",,,,"999,M,+0128,1","99999,9,10082,1","0,1,000,1,+999,9",,"SYN082AAXX  20184 08044 12562 61704 10106 20101 30082 40214 50000 60022 86800 333 10128;",
"08044099999","2010-01-21T06:00:00","4","42.4333333","-8.6166666","108.0","PONTEVEDRA, SP","FM-12","99999","V020","100,1,N,0010,1","22000,1,9,N","015000,1,N,1","+0101,1","+0089,1","10215,1","12,0000,9,1","24,0018,9,1",,,,"06,99,1,02,1,05,1,00450,1,00,1,01,1","0030,9",,,"999,N,+0098,1","99999,9,10083,1","6,1,005,1,+999,9","02,1","SYN106AAXX  21064 08044 11465 61002 10101 20089 30083 40215 56005 60002 702// 82501 333 20098 50044 55005 70017;","Q01  00002PRCP12"
"08044099999","2010-01-21T09:00:00","4","42.4333333","-8.6166666","108.0","PONTEVEDRA, SP","FM-12","99999","V020","320,1,N,0015,1","03600,1,9,N","015000,1,N,1","+0100,1","+0081,1","10215,1",,,,,,"07,99,1,04,1,08,1,00800,1,07,1,02,1",,,,,"99999,9,10083,1","4,1,000,1,+999,9",,"SYN066AAXX  21094 08044 42565 73203 10100 20081 30083 40215 54000 84872;",
"08044099999","2010-01-21T12:00:00","4","42.4333333","-8.6166666","108.0","PONTEVEDRA, SP","FM-12","99999","V020","180,1,N,0021,1","03600,1,9,N","015000,1,N,1","+0127,1","+0088,1","10214,1","06,0000,9,1",,,,,"08,99,1,04,1,05,1,00800,1,07,1,02,1",,,,,"99999,9,10083,1","0,1,000,1,+999,9",,"SYN072AAXX  21124 08044 12565 81804 10127 20088 30083 40214 50000 60001 84572;","Q01  00002PRCP06"
"08044099999","2010-01-21T15:00:00","4","42.4333333","-8.6166666","108.0","PONTEVEDRA, SP","FM-12","99999","V020","160,1,N,0031,1","03600,1,9,N","012000,1,N,1","+0128,1","+0098,1","10198,1",,,"2,1,03,1","2,1,03,1",,"08,99,1,04,1,08,1,00800,1,07,1,99,9",,,,,"99999,9,10067,1","6,1,016,1,+999,9","61,1","SYN072AAXX  21154 08044 41562 81606 10128 20098 30067 40198 56016 76122 8487/;",
"08044099999","2010-01-21T18:00:00","4","42.4333333","-8.6166666","108.0","PONTEVEDRA, SP","FM-12","99999","V020","230,1,N,0010,1","00420,1,9,N","010000,1,N,1","+0112,1","+0107,1","10201,1","12,0005,9,1",,"6,1,06,1","5,1,06,1",,"08,99,1,08,1,07,1,00450,1,99,9,99,9",,,,"999,M,+0133,1","99999,9,10070,1","3,1,003,1,+999,9","61,1","SYN088AAXX  21184 08044 11460 82302 10112 20107 30070 40201 53003 69942 76165 887// 333 10133;",
"08044099999","2010-01-22T06:00:00","4","42.4333333","-8.6166666","108.0","PONTEVEDRA, SP","FM-12","99999","V020","170,1,N,0031,1","00600,1,9,N","010000,1,N,1","+0128,1","+0109,1","10183,1","12,0000,2,1","24,0005,9,1",,,,"06,99,1,06,1,08,1,00250,1,00,1,00,1","0012,9",,,"999,N,+0110,1","99999,9,10053,1","6,1,008,1,+999,9","02,1","SYN106AAXX  22064 08044 11360 61706 10128 20109 30053 40183 56008 60002 702// 86800 333 20110 50114 55002 70004;",
"08044099999","2010-01-22T09:00:00","4","42.4333333","-8.6166666","108.0","PONTEVEDRA, SP","FM-12","99999","V020","190,1,N,0015,1","00210,1,9,N","006000,1,N,1","+0128,1","+0117,1","10183,1",,,"5,1,03,1","2,1,03,1",,"08,99,1,06,1,07,1,00250,1,07,1,99,9",,,,,"99999,9,10053,1","4,1,000,1,+999,9","50,1","SYN072AAXX  22094 08044 41356 81903 10128 20117 30053 40183 54000 75052 8677/;",
"08044099999","2010-01-22T12:00:00","4","42.4333333","-8.6166666","108.0","PONTEVEDRA, SP","FM-12","99999","V020","160,1,N,0031,1","00210,1,9,N","003000,1,N,1","+0126,1","+0118,1","10179,1","06,0030,9,1",,"6,1,06,1","2,1,06,1",,"08,99,1,06,1,07,1,00250,1,07,1,99,9",,,,,"99999,9,10049,1","8,1,004,1,+999,9","61,1","SYN078AAXX  22124 08044 11330 81606 10126 20118 30049 40179 58004 60031 76162 8677/;",
"08044099999","2010-01-22T15:00:00","4","42.4333333","-8.6166666","108.0","PONTEVEDRA, SP","FM-12","99999","V020","180,1,N,0015,1","00210,1,9,N","002000,1,N,1","+0126,1","+0118,1","10168,1",,,"6,1,03,1","6,1,03,1",,"08,99,1,06,1,07,1,00250,1,07,1,99,9",,,,,"99999,9,10038,1","6,1,011,1,+999,9","63,1","SYN072AAXX  22154 08044 41320 81803 10126 20118 30038 40168 56011 76366 8677/;",
"08044099999","2010-01-22T18:00:00","4","42.4333333","-8.6166666","108.0","PONTEVEDRA, SP","FM-12","99999","V020","040,1,N,0010,1","03600,1,9,N","010000,1,N,1","+0124,1","+0115,1","10170,1","12,0170,9,1",,"6,1,06,1","2,1,06,1",,"08,99,1,04,1,07,1,00250,1,07,1,99,9",,,,"999,M,+0132,1","99999,9,10040,1","0,1,002,1,+999,9","01,1","SYN088AAXX  22184 08044 11360 80402 10124 20115 30040 40170 50002 60172 70162 8477/ 333 10132;",
"08044099999","2010-01-23T06:00:00","4","42.4333333","-8.6166666","108.0","PONTEVEDRA, SP","FM-12","99999","V020","130,1,N,0010,1","00750,1,9,N","010000,1,N,1","+0098,1","+0093,1","10149,1","12,0140,9,1","24,0312,9,1",,,,"06,99,1,06,1,05,1,00800,1,00,1,00,1","0000,9",,,"999,N,+0098,1","99999,9,10018,1","8,1,007,1,+999,9","02,1","SYN106AAXX  23064 08044 11560 61302 10098 20093 30018 40149 58007 60142 702// 86500 333 20098 50024 55000 70312;",
"08044099999","2010-01-23T09:00:00","4","42.4333333","-8.6166666","108.0","PONTEVEDRA, SP","FM-12","99999","V020","030,1,N,0010,1","03600,1,9,N","020000,1,N,1","+0108,1","+0084,1","10152,1",,,,,,"06,99,1,02,1,05,1,00800,1,05,1,00,1",,,,,"99999,9,10021,1","3,1,003,1,+999,9",,"SYN066AAXX  23094 08044 42570 60302 10108 20084 30021 40152 53003 82550;",
"08044099999","2010-01-23T12:00:00","4","42.4333333","-8.6166666","108.0","PONTEVEDRA, SP","FM-12","99999","V020","280,1,N,0015,1","09000,1,9,N","020000,1,N,1","+0140,1","+0106,1","10159,1","06,0000,9,1",,,,,"05,99,1,02,1,08,1,00450,1,05,1,04,1",,,,,"99999,9,10029,1","1,1,008,1,+999,9",,"SYN072AAXX  23124 08044 12470 52803 10140 20106 30029 40159 51008 60001 82854;","Q01  00002PRCP06"
"08044099999","2010-01-23T15:00:00","4","42.4333333","-8.6166666","108.0","PONTEVEDRA, SP","FM-12","99999","V020","310,1,N,0046,1","03600,1,9,N","015000,1,N,1","+0126,1","+0098,1","10153,1",,,,,,"08,99,1,04,1,08,1,00450,1,07,1,99,9",,,,,"99999,9,10023,1","5,1,006,1,+999,9",,"SYN066AAXX  23154 08044 42465 83109 10126 20098 30023 40153 55006 8487/;",
"08044099999","2010-01-23T18:00:00","4","42.4333333","-8.6166666","108.0","PONTEVEDRA, SP","FM-12","99999","V020","320,1,N,0021,1","03600,1,9,N","008000,1,N,1","+0108,1","+0096,1","10173,1","12,0008,9,1",,"6,1,06,1","2,1,06,1",,"08,99,1,04,1,07,1,00250,1,07,1,99,9",,,,"999,M,+0142,1","99999,9,10042,1","2,1,019,1,+999,9","60,1","SYN088AAXX  23184 08044 11358 83204 10108 20096 30042 40173 52019 69982 76062 8477/ 333 10142;",
"08044099999","2010-01-24T06:00:00","4","42.4333333","-8.6166666","108.0","PONTEVEDRA, SP","FM-12","99999","V020","360,1,N,0015,1","22000,1,9,N","015000,1,N,1","+0084,1","+0055,1","10229,1","12,0000,2,1","24,0008,9,1",,,,"01,99,1,01,1,05,1,00450,1,00,1,00,1","0000,9",,,"999,N,+0084,1","99999,9,10096,1","1,1,008,1,+999,9","02,1","SYN106AAXX  24064 08044 11465 13603 10084 20055 30096 40229 51008 60002 702// 81500 333 20084 50094 55000 70008;",
"08044099999","2010-01-24T09:00:00","4","42.4333333","-8.6166666","108.0","PONTEVEDRA, SP","FM-12","99999","V020","070,1,N,0010,1","22000,1,9,N","020000,1,N,1","+0080,1","+0048,1","10254,1",,,,,,"01,99,1,01,1,05,1,00450,1,00,1,00,1",,,,,"99999,9,10120,1","2,1,024,1,+999,9",,"SYN066AAXX  24094 08044 42470 10702 10080 20048 30120 40254 52024 81500;",
"08044099999","2010-01-24T12:00:00","4","42.4333333","-8.6166666","108.0","PONTEVEDRA, SP","FM-12","99999","V020","350,1,N,0041,1","22000,1,9,N","020000,1,N,1","+0118,1","+0043,1","10264,1","06,0000,9,1",,,,,"02,99,1,02,1,01,1,00450,1,00,1,00,1",,,,,"99999,9,10132,1","0,1,012,1,+999,9",,"SYN072AAXX  24124 08044 12470 23508 10118 20043 30132 40264 50012 60001 82100;","Q01  00002PRCP06"
"08044099999","2010-01-24T15:00:00","4","42.4333333","-8.6166666","108.0","PONTEVEDRA, SP","FM-12","99999","V020","020,1,N,0036,1","22000,1,9,N","020000,1,N,1","+0122,1","+0037,1","10259,1",,,,,,"04,99,1,03,1,08,1,00450,1,00,1,02,1",,,,,"99999,9,10127,1","6,1,005,1,+999,9",,"SYN066AAXX  24154 08044 42470 40207 10122 20037 30127 40259 56005 83802;",
"08044099999","2010-01-24T18:00:00","4","42.4333333","-8.6166666","108.0","PONTEVEDRA, SP","FM-12","99999","V020","010,1,N,0015,1","22000,1,9,N","015000,1,N,1","+0096,1","+0031,1","10268,1","12,0000,9,1",,,,,"01,99,1,01,1,05,1,00800,1,00,1,00,1",,,,"999,M,+0125,1","99999,9,10135,1","3,1,008,1,+999,9",,"SYN082AAXX  24184 08044 12565 10103 10096 20031 30135 40268 53008 60002 81500 333 10125;","Q01  00002PRCP12"
"08044099999","2010-01-25T06:00:00","4","42.4333333","-8.6166666","108.0","PONTEVEDRA, SP","FM-12","99999","V020","090,1,N,0015,1","22000,1,9,N","015000,1,N,1","+0056,1","+0015,1","10280,1","12,0000,9,1","24,0000,9,1",,,"00,1,+99999,9,99,9","00,99,1,00,1,00,1,99999,9,00,1,00,1","0408,9",,,"999,N,+0054,1","99999,9,10145,1","6,1,005,1,+999,9","02,1","SYN100AAXX  25064 08044 11965 00903 10056 20015 30145 40280 56005 60002 702// 333 20054 50184 55068 70000;","Q01  00002PRCP24Q02  00002PRCP12"
"08044099999","2010-01-25T09:00:00","4","42.4333333","-8.6166666","108.0","PONTEVEDRA, SP","FM-12","99999","V020","350,1,N,0010,1","00750,1,9,N","020000,1,N,1","+0058,1","+0021,1","10284,1",,,,,,"07,99,1,07,1,05,1,00800,1,99,9,99,9",,,,,"99999,9,10149,1","1,1,004,1,+999,9",,"SYN066AAXX  25094 08044 42570 73502 10058 20021 30149 40284 51004 875//;",
"08044099999","2010-01-25T12:00:00","4","42.4333333","-8.6166666","108.0","PONTEVEDRA, SP","FM-12","99999","V020","300,1,N,0015,1","22000,1,9,N","020000,1,N,1","+0096,1","+0025,1","10284,1","06,0000,9,1",,,,,"02,99,1,01,1,00,1,01750,1,05,1,02,1",,,,,"99999,9,10151,1","0,1,002,1,+999,9",,"SYN072AAXX  25124 08044 12770 23003 10096 20025 30151 40284 50002 60001 81052;","Q01  00002PRCP06"
"08044099999","2010-01-25T15:00:00","4","42.4333333","-8.6166666","108.0","PONTEVEDRA, SP","FM-12","99999","V020","010,1,N,0036,1","22000,1,9,N","020000,1,N,1","+0112,1","+0030,1","10256,1",,,,,,"04,99,1,03,1,02,1,00450,1,04,1,00,1",,,,,"99999,9,10124,1","6,1,027,1,+999,9",,"SYN066AAXX  25154 08044 42470 40107 10112 20030 30124 40256 56027 83240;",
"08044099999","2010-01-25T18:00:00","4","42.4333333","-8.6166666","108.0","PONTEVEDRA, SP","FM-12","99999","V020","340,1,N,0021,1","22000,1,9,N","015000,1,N,1","+0092,1","+0036,1","10250,1","12,0000,9,1",,,,,"04,99,1,03,1,04,1,00450,1,03,1,00,1",,,,"999,M,+0118,1","99999,9,10117,1","6,1,007,1,+999,9",,"SYN082AAXX  25184 08044 12465 43404 10092 20036 30117 40250 56007 60002 83430 333 10118;","Q01  00002PRCP12"
"08044099999","2010-01-26T06:00:00","4","42.4333333","-8.6166666","108.0","PONTEVEDRA, SP","FM-12","99999","V020","350,1,N,0041,1","22000,1,9,N","015000,1,N,1","+0057,1","+0014,1","10232,1","12,0000,9,1","24,0000,9,1",,,"00,1,+99999,9,99,9","00,99,1,00,1,00,1,99999,9,00,1,00,1","0258,9",,,"999,N,+0052,1","99999,9,10097,1","6,1,005,1,+999,9","02,1","SYN100AAXX  26064 08044 11965 03508 10057 20014 30097 40232 56005 60002 702// 333 20052 50134 55043 70000;","Q01  00002PRCP24Q02  00002PRCP12"
"08044099999","2010-01-26T09:00:00","4","42.4333333","-8.6166666","108.0","PONTEVEDRA, SP","FM-12","99999","V020","340,1,N,0041,1","22000,1,9,N","020000,1,N,1","+0070,1","+0005,1","10239,1",,,,,"00,1,+99999,9,99,9","00,99,1,00,1,00,1,99999,9,00,1,00,1",,,,,"99999,9,10105,1","1,1,008,1,+999,9",,"SYN060AAXX  26094 08044 42970 03408 10070 20005 30105 40239 51008;",
"08044099999","2010-01-26T12:00:00","4","42.4333333","-8.6166666","108.0","PONTEVEDRA, SP","FM-12","99999","V020","010,1,N,0036,1","22000,1,9,N","020000,1,N,1","+0118,1","+0009,1","10252,1","06,0000,9,1",,,,"00,1,+99999,9,99,9","00,99,1,00,1,00,1,99999,9,00,1,00,1",,,,,"99999,9,10120,1","0,1,015,1,+999,9",,"SYN066AAXX  26124 08044 12970 00107 10118 20009 30120 40252 50015 60001;","Q01  00002PRCP06"
"08044099999","2010-01-26T18:00:00","4","42.4333333","-8.6166666","108.0","PONTEVEDRA, SP","FM-12","99999","V020","360,1,N,0026,1","22000,1,9,N","015000,1,N,1","+0090,1","+0012,1","10258,1","12,0000,9,1",,,,"00,1,+99999,9,99,9","00,99,1,00,1,00,1,99999,9,00,1,00,1",,,,"999,M,+0125,1","99999,9,10125,1","3,1,010,1,+999,9",,"SYN076AAXX  26184 08044 12965 03605 10090 20012 30125 40258 53010 60002 333 10125;","Q01  00002PRCP12"
"08044099999","2010-01-27T06:00:00","4","42.4333333","-8.6166666","108.0","PONTEVEDRA, SP","FM-12","99999","V020","020,1,N,0031,1","22000,1,9,N","015000,1,N,1","+0064,1","+0007,1","10254,1","12,0000,9,1","24,0000,9,1",,,,"02,99,1,02,1,00,1,01750,1,05,1,00,1","0450,9",,,"999,N,+0060,1","99999,9,10119,1","3,1,003,1,+999,9","02,1","SYN106AAXX  27064 08044 11765 20206 10064 20007 30119 40254 53003 60002 702// 82050 333 20060 50264 55075 70000;","Q01  00002PRCP24Q02  00002PRCP12"
"08044099999","2010-01-27T09:00:00","4","42.4333333","-8.6166666","108.0","PONTEVEDRA, SP","FM-12","99999","V020","360,1,N,0051,1","22000,1,9,N","020000,1,N,1","+0070,1","-0009,1","10251,1",,,,,,"01,99,1,01,1,05,1,00450,1,00,1,00,1",,,,,"99999,9,10117,1","5,1,002,1,+999,9",,"SYN066AAXX  27094 08044 42470 13610 10070 21009 30117 40251 55002 81500;",
"08044099999","2010-01-27T12:00:00","4","42.4333333","-8.6166666","108.0","PONTEVEDRA, SP","FM-12","99999","V020","350,1,N,0062,1","22000,1,9,N","020000,1,N,1","+0096,1","-0011,1","10257,1","06,0000,9,1",,,,,"01,99,1,01,1,01,1,00450,1,00,1,00,1",,,,,"99999,9,10124,1","0,1,007,1,+999,9",,"SYN072AAXX  27124 08044 12470 13512 10096 21011 30124 40257 50007 60001 81100;","Q01  00002PRCP06"
"08044099999","2010-01-27T15:00:00","4","42.4333333","-8.6166666","108.0","PONTEVEDRA, SP","FM-12","99999","V020","030,1,N,0057,1","22000,1,9,N","020000,1,N,1","+0095,1","-0034,1","10244,1",,,,,,"01,99,1,01,1,01,1,00450,1,00,1,00,1",,,,,"99999,9,10111,1","8,1,013,1,+999,9",,"SYN066AAXX  27154 08044 42470 10311 10095 21034 30111 40244 58013 81100;",
"08044099999","2010-01-27T18:00:00","4","42.4333333","-8.6166666","108.0","PONTEVEDRA, SP","FM-12","99999","V020","360,1,N,0026,1","22000,1,9,N","015000,1,N,1","+0074,1","-0021,1","10239,1","12,0000,9,1",,,,"00,1,+99999,9,99,9","00,99,1,00,1,00,1,99999,9,00,1,00,1",,,,"999,M,+0100,1","99999,9,10105,1","5,1,006,1,+999,9",,"SYN076AAXX  27184 08044 12965 03605 10074 21021 30105 40239 55006 60002 333 10100;","Q01  00002PRCP12"
"08044099999","2010-01-28T06:00:00","4","42.4333333","-8.6166666","108.0","PONTEVEDRA, SP","FM-12","99999","V020","010,1,N,0015,1","22000,1,9,N","020000,1,N,1","+0020,1","-0023,1","10257,1","12,0000,9,1","24,0000,9,1",,,"00,1,+99999,9,99,9","00,99,1,00,1,00,1,99999,9,00,1,00,1","0444,9",,,"999,N,+0016,1","99999,9,10120,1","6,1,005,1,+999,9","02,1","SYN100AAXX  28064 08044 11970 00103 10020 21023 30120 40257 56005 60002 702// 333 20016 50254 55074 70000;","Q01  00002PRCP24Q02  00002PRCP12"
"08044099999","2010-01-28T09:00:00","4","42.4333333","-8.6166666","108.0","PONTEVEDRA, SP","FM-12","99999","V020","030,1,N,0031,1","22000,1,9,N","020000,1,N,1","+0026,1","-0007,1","10257,1",,,,,,"01,99,1,01,1,00,1,01750,1,04,1,00,1",,,,,"99999,9,10121,1","3,1,001,1,+999,9",,"SYN066AAXX  28094 08044 42770 10306 10026 21007 30121 40257 53001 81040;",
"08044099999","2010-01-28T12:00:00","4","42.4333333","-8.6166666","108.0","PONTEVEDRA, SP","FM-12","99999","V020","010,1,N,0031,1","22000,1,9,N","020000,1,N,1","+0101,1","-0022,1","10249,1","06,0000,9,1",,,,,"01,99,1,01,1,05,1,00800,1,00,1,00,1",,,,,"99999,9,10116,1","8,1,005,1,+999,9",,"SYN072AAXX  28124 08044 12570 10106 10101 21022 30116 40249 58005 60001 81500;","Q01  00002PRCP06"
"08044099999","2010-01-28T15:00:00","4","42.4333333","-8.6166666","108.0","PONTEVEDRA, SP","FM-12","99999","V020","350,1,N,0041,1","22000,1,9,N","020000,1,N,1","+0111,1","+0027,1","10222,1",,,,,,"02,99,1,01,1,05,1,00800,1,04,1,00,1",,,,,"99999,9,10090,1","7,1,026,1,+999,9",,"SYN066AAXX  28154 08044 42570 23508 10111 20027 30090 40222 57026 81540;",
"08044099999","2010-01-28T18:00:00","4","42.4333333","-8.6166666","108.0","PONTEVEDRA, SP","FM-12","99999","V020","020,1,N,0015,1","22000,1,9,N","020000,1,N,1","+0093,1","+0043,1","10221,1","12,0000,9,1",,,,,"02,99,1,02,1,05,1,00800,1,00,1,00,1",,,,"999,M,+0112,1","99999,9,10088,1","6,1,002,1,+999,9",,"SYN082AAXX  28184 08044 12570 20203 10093 20043 30088 40221 56002 60002 82500 333 10112;","Q01  00002PRCP12"
"08044099999","2010-01-29T06:00:00","4","42.4333333","-8.6166666","108.0","PONTEVEDRA, SP","FM-12","99999","V020","999,9,C,0000,1","00120,1,9,N","002000,1,N,1","+0072,1","+0063,1","10166,1","12,9999,9,9","24,9999,9,9",,,,"08,99,1,08,1,06,1,00150,1,99,9,99,9","0432,9",,,"999,N,+0062,1","99999,9,10033,1","7,1,017,1,+999,9","50,1","SYN106AAXX  29064 08044 11220 80000 10072 20063 30033 40166 57017 69902 750// 886// 333 20062 50144 55072 79999;","Q01  00002PRCP24Q02  00002PRCP12Q03  00002PRCP12Q04  00002PRCP24"
"08044099999","2010-01-29T09:00:00","4","42.4333333","-8.6166666","108.0","PONTEVEDRA, SP","FM-12","99999","V020","050,1,N,0010,1","00210,1,9,N","002000,1,N,1","+0075,1","+0069,1","10158,1",,,"5,1,03,1","2,1,03,1",,"07,99,1,07,1,05,1,00250,1,99,9,99,9",,,,,"99999,9,10025,1","8,1,008,1,+999,9","10,1","SYN072AAXX  29094 08044 41320 70502 10075 20069 30025 40158 58008 71052 875//;",
"08044099999","2010-01-29T12:00:00","4","42.4333333","-8.6166666","108.0","PONTEVEDRA, SP","FM-12","99999","V020","270,1,N,0010,1","00210,1,9,N","005000,1,N,1","+0100,1","+0074,1","10150,1","06,0000,2,1",,"5,1,06,1","2,1,06,1",,"08,99,1,08,1,05,1,00250,1,99,9,99,9",,,,,"99999,9,10019,1","6,1,006,1,+999,9","60,1","SYN078AAXX  29124 08044 11350 82702 10100 20074 30019 40150 56006 69911 76052 885//;",
"08044099999","2010-01-29T15:00:00","4","42.4333333","-8.6166666","108.0","PONTEVEDRA, SP","FM-12","99999","V020","340,1,N,0041,1","22000,1,9,N","017000,1,N,1","+0110,1","+0073,1","10127,1",,,"6,1,03,1","2,1,03,1",,"04,99,1,04,1,08,1,00250,1,00,1,00,1",,,,,"99999,9,09996,1","6,1,023,1,+999,9","21,1","SYN072AAXX  29154 08044 41367 43408 10110 20073 39996 40127 56023 72162 84800;",
"08044099999","2010-01-29T18:00:00","4","42.4333333","-8.6166666","108.0","PONTEVEDRA, SP","FM-12","99999","V020","330,1,N,0026,1","00420,1,9,N","017000,1,N,1","+0094,1","+0061,1","10128,1","12,0005,9,1",,"6,1,06,1","2,1,06,1",,"06,99,1,06,1,05,1,00450,1,00,1,00,1",,,,"999,M,+0118,1","99999,9,09997,1","3,1,001,1,+999,9","02,1","SYN088AAXX  29184 08044 11467 63305 10094 20061 39997 40128 53001 69952 70262 86500 333 10118;",
"08044099999","2010-01-30T06:00:00","4","42.4333333","-8.6166666","108.0","PONTEVEDRA, SP","FM-12","99999","V020","120,1,N,0005,1","00750,1,9,N","015000,1,N,1","+0068,1","+0062,1","10137,1","12,0000,9,1","24,0005,9,1",,,,"07,99,1,07,1,05,1,00800,1,99,9,99,9","0072,9",,,"999,N,+0062,1","99999,9,10004,1","5,1,002,1,+999,9","02,1","SYN106AAXX  30064 08044 11565 71201 10068 20062 30004 40137 55002 60002 702// 875// 333 20062 50064 55012 70005;","Q01  00002PRCP12"
"08044099999","2010-01-30T09:00:00","4","42.4333333","-8.6166666","108.0","PONTEVEDRA, SP","FM-12","99999","V020","110,1,N,0010,1","22000,1,9,N","015000,1,N,1","+0068,1","+0059,1","10138,1",,,,,,"03,99,1,03,1,05,1,00450,1,00,1,00,1",,,,,"99999,9,10005,1","3,1,001,1,+999,9",,"SYN066AAXX  30094 08044 42465 31102 10068 20059 30005 40138 53001 83500;",
"08044099999","2010-01-30T12:00:00","4","42.4333333","-8.6166666","108.0","PONTEVEDRA, SP","FM-12","99999","V020","020,1,N,0005,1","00600,1,9,N","012000,1,N,1","+0096,1","+0082,1","10139,1","06,9999,9,9",,"6,1,06,1","2,1,06,1",,"07,99,1,07,1,08,1,00250,1,99,9,99,9",,,,,"99999,9,10008,1","0,1,003,1,+999,9","21,1","SYN078AAXX  30124 08044 11362 70201 10096 20082 30008 40139 50003 69901 72162 878//;","Q01  00002PRCP06Q02  00002PRCP06"
"08044099999","2010-01-30T15:00:00","4","42.4333333","-8.6166666","108.0","PONTEVEDRA, SP","FM-12","99999","V020","250,1,N,0021,1","00600,1,9,N","020000,1,N,1","+0121,1","+0064,1","10123,1",,,"6,1,03,1","2,1,03,1",,"07,99,1,07,1,08,1,00250,1,99,9,99,9",,,,,"99999,9,09993,1","6,1,015,1,+999,9","02,1","SYN072AAXX  30154 08044 41370 72504 10121 20064 39993 40123 56015 70262 878//;",
"08044099999","2010-01-30T18:00:00","4","42.4333333","-8.6166666","108.0","PONTEVEDRA, SP","FM-12","99999","V020","140,1,N,0010,1","00600,1,9,N","015000,1,N,1","+0098,1","+0072,1","10125,1","12,0000,2,1",,"6,1,06,1","2,1,06,1",,"07,99,1,07,1,08,1,00250,1,99,9,99,9",,,,"999,M,+0121,1","99999,9,09994,1","3,1,001,1,+999,9","02,1","SYN088AAXX  30184 08044 11365 71402 10098 20072 39994 40125 53001 69902 70262 878// 333 10121;",
"08044099999","2010-01-31T06:00:00","4","42.4333333","-8.6166666","108.0","PONTEVEDRA, SP","FM-12","99999","V020","030,1,N,0015,1","00600,1,9,N","010000,1,N,1","+0071,1","+0067,1","10111,1","12,0020,9,2","24,0015,9,2",,,,"08,99,1,08,1,08,1,00250,1,99,9,99,9","0102,9",,,"999,N,+0069,1","99999,9,09979,1","6,1,007,1,+999,9","60,1","SYN106AAXX  31064 08044 11360 80303 10071 20067 39979 40111 56007 60022 760// 888// 333 20069 50044 55017 70016;",
"08044099999","2010-01-31T09:00:00","4","42.4333333","-8.6166666","108.0","PONTEVEDRA, SP","FM-12","99999","V020","160,1,N,0005,1","22000,1,9,N","004000,1,N,1","+0073,1","+0069,1","10117,1",,,"6,1,03,1","2,1,03,1",,"03,99,1,03,1,08,1,00250,1,00,1,00,1",,,,,"99999,9,09985,1","3,1,006,1,+999,9","21,1","SYN072AAXX  31094 08044 41340 31601 10073 20069 39985 40117 53006 72162 83800;",
"08044099999","2010-01-31T12:00:00","4","42.4333333","-8.6166666","108.0","PONTEVEDRA, SP","FM-12","99999","V020","250,1,N,0010,1","00600,1,9,N","012000,1,N,1","+0110,1","+0084,1","10120,1","06,0010,9,1",,"6,1,06,1","2,1,06,1",,"05,99,1,05,1,08,1,00250,1,00,1,00,1",,,,,"99999,9,09990,1","1,1,005,1,+999,9","02,1","SYN078AAXX  31124 08044 11362 52502 10110 20084 39990 40120 51005 69991 70262 85800;",
"08044099999","2010-01-31T15:00:00","4","42.4333333","-8.6166666","108.0","PONTEVEDRA, SP","FM-12","99999","V020","310,1,N,0021,1","00600,1,9,N","020000,1,N,1","+0102,1","+0071,1","10120,1",,,"8,1,03,1","2,1,03,1",,"05,99,1,05,1,08,1,00250,1,00,1,00,1",,,,,"99999,9,09989,1","5,1,001,1,+999,9","25,1","SYN072AAXX  31154 08044 41370 53104 10102 20071 39989 40120 55001 72582 85800;",
"08044099999","2010-01-31T18:00:00","4","42.4333333","-8.6166666","108.0","PONTEVEDRA, SP","FM-12","99999","V020","300,1,N,0021,1","22000,1,9,N","020000,1,N,1","+0100,1","+0056,1","10132,1","12,0020,9,1",,"8,1,06,1","1,1,06,1",,"03,99,1,03,1,04,1,00250,1,00,1,00,1",,,,"999,M,+0120,1","99999,9,10001,1","2,1,012,1,+999,9","02,1","SYN088AAXX  31184 08044 11370 33004 10100 20056 30001 40132 52012 60022 70281 83400 333 10120;",
"08044099999","2010-02-01T06:00:00","4","42.4333333","-8.6166666","108.0","PONTEVEDRA, SP","FM-12","99999","V020","080,1,N,0021,1","22000,1,9,N","020000,1,N,1","+0036,1","+0007,1","10203,1","12,0000,9,1","24,0015,9,1",,,"00,1,+99999,9,99,9","00,99,1,00,1,00,1,99999,9,00,1,00,1","0132,9",,,"999,N,+0033,1","99999,9,10068,1","2,1,013,1,+999,9","00,1","SYN100AAXX  01064 08044 11970 00804 10036 20007 30068 40203 52013 60002 700// 333 20033 50084 55022 70015;","Q01  00002PRCP12"
"08044099999","2010-02-01T09:00:00","4","42.4333333","-8.6166666","108.0","PONTEVEDRA, SP","FM-12","99999","V020","080,1,N,0021,1","22000,1,9,N","030000,1,N,1","+0050,1","+0011,1","10221,1",,,,,"00,1,+99999,9,99,9","00,99,1,00,1,00,1,99999,9,00,1,00,1",,,,,"99999,9,10086,1","2,1,018,1,+999,9",,"SYN060AAXX  01094 08044 42980 00804 10050 20011 30086 40221 52018;",
"08044099999","2010-02-01T12:00:00","4","42.4333333","-8.6166666","108.0","PONTEVEDRA, SP","FM-12","99999","V020","360,1,N,0031,1","22000,1,9,N","030000,1,N,1","+0104,1","-0001,1","10225,1","06,0000,9,1",,,,"00,1,+99999,9,99,9","00,99,1,00,1,00,1,99999,9,00,1,00,1",,,,,"99999,9,10093,1","1,1,007,1,+999,9",,"SYN066AAXX  01124 08044 12980 03606 10104 21001 30093 40225 51007 60001;","Q01  00002PRCP06"
"08044099999","2010-02-01T15:00:00","4","42.4333333","-8.6166666","108.0","PONTEVEDRA, SP","FM-12","99999","V020","360,1,N,0031,1","22000,1,9,N","030000,1,N,1","+0118,1","+0006,1","10214,1",,,,,,"01,99,1,00,1,00,1,99999,9,00,1,01,1",,,,,"99999,9,10082,1","6,1,011,1,+999,9",,"SYN066AAXX  01154 08044 42980 13606 10118 20006 30082 40214 56011 80001;",
"08044099999","2010-02-01T18:00:00","4","42.4333333","-8.6166666","108.0","PONTEVEDRA, SP","FM-12","99999","V020","030,1,N,0015,1","22000,1,9,N","020000,1,N,1","+0100,1","+0024,1","10219,1","12,0000,9,1",,,,,"02,99,1,00,1,00,1,99999,9,00,1,02,1",,,,"999,M,+0119,1","99999,9,10087,1","3,1,005,1,+999,9",,"SYN082AAXX  01184 08044 12970 20303 10100 20024 30087 40219 53005 60002 80002 333 10119;","Q01  00002PRCP12"
"08044099999","2010-02-02T06:00:00","4","42.4333333","-8.6166666","108.0","PONTEVEDRA, SP","FM-12","99999","V020","100,1,N,0015,1","22000,1,9,N","020000,1,N,1","+0030,1","-0006,1","10230,1","12,0000,9,1","24,0000,9,1",,,"00,1,+99999,9,99,9","00,99,1,00,1,00,1,99999,9,00,1,00,1","0444,9",,,"999,N,+0028,1","99999,9,10094,1","6,1,004,1,+999,9","00,1","SYN100AAXX  02064 08044 11970 01003 10030 21006 30094 40230 56004 60002 700// 333 20028 50204 55074 70000;","Q01  00002PRCP24Q02  00002PRCP12"
"08044099999","2010-02-02T09:00:00","4","42.4333333","-8.6166666","108.0","PONTEVEDRA, SP","FM-12","99999","V020","110,1,N,0010,1","22000,1,9,N","030000,1,N,1","+0040,1","-0016,1","10231,1",,,,,,"01,99,1,00,1,00,1,99999,9,00,1,01,1",,,,,"99999,9,10096,1","3,1,002,1,+999,9",,"SYN066AAXX  02094 08044 42980 11102 10040 21016 30096 40231 53002 80001;",
"08044099999","2010-02-02T12:00:00","4","42.4333333","-8.6166666","108.0","PONTEVEDRA, SP","FM-12","99999","V020","330,1,N,0015,1","22000,1,9,N","020000,1,N,1","+0103,1","+0014,1","10228,1","06,0000,9,1",,,,,"01,99,1,00,1,00,1,99999,9,00,1,02,1",,,,,"99999,9,10096,1","0,1,000,1,+999,9",,"SYN072AAXX  02124 08044 12970 13303 10103 20014 30096 40228 50000 60001 80002;","Q01  00002PRCP06"
"08044099999","2010-02-02T15:00:00","4","42.4333333","-8.6166666","108.0","PONTEVEDRA, SP","FM-12","99999","V020","210,1,N,0015,1","22000,1,9,N","020000,1,N,1","+0131,1","+0035,1","10204,1",,,,,,"01,99,1,00,1,00,1,99999,9,00,1,02,1",,,,,"99999,9,10073,1","6,1,023,1,+999,9",,"SYN066AAXX  02154 08044 42970 12103 10131 20035 30073 40204 56023 80002;",
"08044099999","2010-02-02T18:00:00","4","42.4333333","-8.6166666","108.0","PONTEVEDRA, SP","FM-12","99999","V020","140,1,N,0010,1","22000,1,9,N","020000,1,N,1","+0108,1","+0043,1","10203,1","12,0000,9,1",,,,,"01,99,1,00,1,00,1,99999,9,00,1,02,1",,,,"999,M,+0135,1","99999,9,10071,1","6,1,002,1,+999,9",,"SYN082AAXX  02184 08044 12970 11402 10108 20043 30071 40203 56002 60002 80002 333 10135;","Q01  00002PRCP12"
"08044099999","2010-02-03T06:00:00","4","42.4333333","-8.6166666","108.0","PONTEVEDRA, SP","FM-12","99999","V020","080,1,N,0015,1","22000,1,9,N","020000,1,N,1","+0035,1","+0004,1","10187,1","12,0000,9,1","24,0000,9,1",,,"00,1,+99999,9,99,9","00,99,1,00,1,00,1,99999,9,00,1,00,1","0444,9",,,"999,N,+0033,1","99999,9,10052,1","7,1,007,1,+999,9","02,1","SYN100AAXX  03064 08044 11970 00803 10035 20004 30052 40187 57007 60002 702// 333 20033 50164 55074 70000;","Q01  00002PRCP24Q02  00002PRCP12"
"08044099999","2010-02-03T09:00:00","4","42.4333333","-8.6166666","108.0","PONTEVEDRA, SP","FM-12","99999","V020","080,1,N,0010,1","22000,1,9,N","020000,1,N,1","+0049,1","+0010,1","10185,1",,,,,,"03,99,1,01,1,05,1,00800,1,00,1,02,1",,,,,"99999,9,10051,1","6,1,001,1,+999,9",,"SYN066AAXX  03094 08044 42570 30802 10049 20010 30051 40185 56001 81502;",
"08044099999","2010-02-03T12:00:00","4","42.4333333","-8.6166666","108.0","PONTEVEDRA, SP","FM-12","99999","V020","140,1,N,0015,1","09000,1,9,N","016000,1,N,1","+0128,1","+0043,1","10163,1","06,0000,9,1",,,,,"05,99,1,03,1,05,1,00800,1,00,1,02,1",,,,,"99999,9,10033,1","8,1,018,1,+999,9",,"SYN072AAXX  03124 08044 12566 51403 10128 20043 30033 40163 58018 60001 83502;","Q01  00002PRCP06"
"08044099999","2010-02-03T15:00:00","4","42.4333333","-8.6166666","108.0","PONTEVEDRA, SP","FM-12","99999","V020","160,1,N,0015,1","00750,1,9,N","014000,1,N,1","+0129,1","+0058,1","10140,1",,,,,,"08,99,1,08,1,05,1,00800,1,99,9,99,9",,,,,"99999,9,10010,1","7,1,023,1,+999,9",,"SYN066AAXX  03154 08044 42564 81603 10129 20058 30010 40140 57023 885//;",
"08044099999","2010-02-03T18:00:00","4","42.4333333","-8.6166666","108.0","PONTEVEDRA, SP","FM-12","99999","V020","130,1,N,0021,1","00750,1,9,N","010000,1,N,1","+0119,1","+0055,1","10130,1","12,0000,9,1",,,,,"07,99,1,05,1,05,1,00800,1,07,1,99,9",,,,"999,M,+0136,1","99999,9,10000,1","7,1,010,1,+999,9",,"SYN082AAXX  03184 08044 12560 71304 10119 20055 30000 40130 57010 60002 8557/ 333 10136;","Q01  00002PRCP12"
"08044099999","2010-02-04T06:00:00","4","42.4333333","-8.6166666","108.0","PONTEVEDRA, SP","FM-12","99999","V020","210,1,N,0015,1","03600,1,9,N","008000,1,N,1","+0111,1","+0058,1","10070,1","12,0000,9,1","24,0000,9,1",,,,"08,99,1,01,1,05,1,00800,1,07,1,01,1","0138,9","01,9","999,+0080,9","999,N,+0100,1","99999,9,09940,1","6,1,013,1,+999,9","05,1","SYN112AAXX  04064 08044 11558 82103 10111 20058 39940 40070 56013 60002 705// 81571 333 20100 30008 50134 55023 70000;","Q01  00002PRCP24Q02  00002PRCP12"
"08044099999","2010-02-04T09:00:00","4","42.4333333","-8.6166666","108.0","PONTEVEDRA, SP","FM-12","99999","V020","170,1,N,0057,1","00900,1,9,N","010000,1,N,1","+0120,1","+0088,1","10055,1",,,,,,"08,99,1,06,1,08,1,00450,1,07,1,99,9",,,,,"99999,9,09926,1","7,1,014,1,+999,9",,"SYN066AAXX  04094 08044 42460 81711 10120 20088 39926 40055 57014 8687/;",
"08044099999","2010-02-04T12:00:00","4","42.4333333","-8.6166666","108.0","PONTEVEDRA, SP","FM-12","99999","V020","170,1,N,0051,1","00900,1,9,N","005000,1,N,1","+0120,1","+0114,1","10044,1","06,0020,9,1",,"8,1,06,1","6,1,06,1",,"08,99,1,07,1,08,1,00450,1,07,1,99,9",,,,,"99999,9,09915,1","8,1,011,1,+999,9","60,1","SYN078AAXX  04124 08044 11450 81710 10120 20114 39915 40044 58011 60021 76086 8787/;",
"08044099999","2010-02-04T15:00:00","4","42.4333333","-8.6166666","108.0","PONTEVEDRA, SP","FM-12","99999","V020","180,1,N,0041,1","00900,1,9,N","004000,1,N,1","+0114,1","+0106,1","10028,1",,,"8,1,03,1","6,1,03,1",,"08,99,1,07,1,08,1,00450,1,07,1,99,9",,,,,"99999,9,09899,1","6,1,016,1,+999,9","81,1","SYN072AAXX  04154 08044 41440 81808 10114 20106 39899 40028 56016 78186 8787/;",
"08044099999","2010-02-04T18:00:00","4","42.4333333","-8.6166666","108.0","PONTEVEDRA, SP","FM-12","99999","V020","210,1,N,0021,1","00900,1,9,N","010000,1,N,1","+0110,1","+0098,1","10058,1","12,0109,9,1",,"8,1,06,1","6,1,06,1",,"08,99,1,06,1,08,1,00450,1,07,1,99,9",,,,"999,M,+0124,1","99999,9,09928,1","3,1,029,1,+999,9","02,1","SYN088AAXX  04184 08044 11460 82104 10110 20098 39928 40058 53029 60112 70286 8687/ 333 10124;",
"08044099999","2010-02-05T06:00:00","4","42.4333333","-8.6166666","108.0","PONTEVEDRA, SP","FM-12","99999","V020","230,1,N,0021,1","03600,1,9,N","010000,1,N,1","+0097,1","+0061,1","10123,1","12,0005,9,1","24,0112,9,1",,,,"07,99,1,03,1,08,1,00450,1,03,1,01,1","0000,9","11,9","999,+0060,9","999,N,+0080,1","99999,9,09992,1","3,1,018,1,+999,9","02,1","SYN112AAXX  05064 08044 11460 72304 10097 20061 39992 40123 53018 69942 702// 83831 333 20080 32006 50104 55000 70111;",
"08044099999","2010-02-05T09:00:00","4","42.4333333","-8.6166666","108.0","PONTEVEDRA, SP","FM-12","99999","V020","170,1,N,0015,1","03600,1,9,N","012000,1,N,1","+0078,1","+0067,1","10148,1",,,"8,1,03,1","2,1,03,1",,"06,99,1,03,1,08,1,00450,1,07,1,01,1",,,,,"99999,9,10016,1","2,1,024,1,+999,9","25,1","SYN072AAXX  05094 08044 41462 61703 10078 20067 30016 40148 52024 72582 83871;",
"08044099999","2010-02-05T12:00:00","4","42.4333333","-8.6166666","108.0","PONTEVEDRA, SP","FM-12","99999","V020","190,1,N,0021,1","09000,1,9,N","015000,1,N,1","+0099,1","+0085,1","10171,1","06,0020,9,1",,"8,1,06,1","2,1,06,1",,"05,99,1,02,1,02,1,00450,1,03,1,01,1",,,,,"99999,9,10039,1","2,1,023,1,+999,9","25,1","SYN078AAXX  05124 08044 11465 51904 10099 20085 30039 40171 52023 60021 72582 82231;",
"08044099999","2010-02-05T15:00:00","4","42.4333333","-8.6166666","108.0","PONTEVEDRA, SP","FM-12","99999","V020","180,1,N,0026,1","00900,1,9,N","010000,1,N,1","+0125,1","+0090,1","10175,1",,,"8,1,03,1","2,1,03,1",,"07,99,1,07,1,08,1,00450,1,00,1,00,1",,,,,"99999,9,10045,1","1,1,006,1,+999,9","02,1","SYN072AAXX  05154 08044 41460 71805 10125 20090 30045 40175 51006 70282 87800;",
"08044099999","2010-02-05T18:00:00","4","42.4333333","-8.6166666","108.0","PONTEVEDRA, SP","FM-12","99999","V020","190,1,N,0015,1","00900,1,9,N","010000,1,N,1","+0115,1","+0085,1","10193,1","12,0030,9,1",,"8,1,06,1","2,1,06,1",,"07,99,1,05,1,08,1,00450,1,03,1,01,1",,,,"999,M,+0128,1","99999,9,10062,1","3,1,017,1,+999,9","02,1","SYN088AAXX  05184 08044 11460 71903 10115 20085 30062 40193 53017 60032 70282 85831 333 10128;",
"08044099999","2010-02-06T06:00:00","4","42.4333333","-8.6166666","108.0","PONTEVEDRA, SP","FM-12","99999","V020","170,1,N,0015,1","00900,1,9,N","004000,1,N,1","+0108,1","+0099,1","10218,1","12,0041,9,1","24,0071,9,1",,,,"08,99,1,06,1,08,1,00450,1,07,1,99,9","0096,9","11,9","999,+0080,9","999,N,+0100,1","99999,9,10086,1","5,1,004,1,+999,9","60,1","SYN112AAXX  06064 08044 11440 81703 10108 20099 30086 40218 55004 60042 760// 8687/ 333 20100 32008 50064 55016 70071;",
"08044099999","2010-02-06T09:00:00","4","42.4333333","-8.6166666","108.0","PONTEVEDRA, SP","FM-12","99999","V020","170,1,N,0021,1","00900,1,9,N","008000,1,N,1","+0112,1","+0098,1","10227,1",,,"6,1,03,1","2,1,03,1",,"06,99,1,05,1,08,1,00450,1,03,1,00,1",,,,,"99999,9,10095,1","3,1,009,1,+999,9","10,1","SYN072AAXX  06094 08044 41458 61704 10112 20098 30095 40227 53009 71062 85830;",
"08044099999","2010-02-06T12:00:00","4","42.4333333","-8.6166666","108.0","PONTEVEDRA, SP","FM-12","99999","V020","170,1,N,0021,1","00900,1,9,N","008000,1,N,1","+0130,1","+0104,1","10235,1","06,0000,2,1",,"6,1,06,1","2,1,06,1",,"07,99,1,06,1,08,1,00450,1,07,1,00,1",,,,,"99999,9,10104,1","1,1,009,1,+999,9","10,1","SYN078AAXX  06124 08044 11458 71704 10130 20104 30104 40235 51009 69921 71062 86870;",
"08044099999","2010-02-06T15:00:00","4","42.4333333","-8.6166666","108.0","PONTEVEDRA, SP","FM-12","99999","V020","270,1,N,0015,1","03600,1,9,N","010000,1,N,1","+0137,1","+0101,1","10230,1",,,,,,"08,99,1,02,1,08,1,00450,1,07,1,99,9",,,,,"99999,9,10099,1","8,1,005,1,+999,9",,"SYN066AAXX  06154 08044 42460 82703 10137 20101 30099 40230 58005 8287/;",
"08044099999","2010-02-06T18:00:00","4","42.4333333","-8.6166666","108.0","PONTEVEDRA, SP","FM-12","99999","V020","160,1,N,0010,1","03600,1,9,N","006000,1,N,1","+0129,1","+0099,1","10217,1","12,0000,2,1",,"2,1,06,1","2,1,06,1",,"08,99,1,03,1,05,1,00800,1,07,1,99,9",,,,"999,M,+0140,1","99999,9,10086,1","5,1,013,1,+999,9","10,1","SYN088AAXX  06184 08044 11556 81602 10129 20099 30086 40217 55013 69922 71022 8357/ 333 10140;",
"08044099999","2010-02-07T06:00:00","4","42.4333333","-8.6166666","108.0","PONTEVEDRA, SP","FM-12","99999","V020","130,1,N,0010,1","02100,1,9,N","008000,1,N,1","+0095,1","+0076,1","10157,1","12,0000,9,1","24,0003,9,1",,,,"08,99,1,07,1,00,1,02250,1,07,1,99,9","0018,9","09,9","999,+0080,9","999,N,+0095,1","99999,9,10025,1","5,1,018,1,+999,9","10,1","SYN112AAXX  07064 08044 11858 81302 10095 20076 30025 40157 55018 60002 710// 8707/ 333 20095 31008 50084 55003 70002;","Q01  00002PRCP12"
"08044099999","2010-02-07T09:00:00","4","42.4333333","-8.6166666","108.0","PONTEVEDRA, SP","FM-12","99999","V020","130,1,N,0015,1","02100,1,9,N","010000,1,N,1","+0098,1","+0072,1","10157,1",,,,,,"08,99,1,06,1,00,1,02250,1,07,1,08,1",,,,,"99999,9,10025,1","5,1,000,1,+999,9",,"SYN066AAXX  07094 08044 42860 81303 10098 20072 30025 40157 55000 86078;",
"08044099999","2010-02-07T12:00:00","4","42.4333333","-8.6166666","108.0","PONTEVEDRA, SP","FM-12","99999","V020","210,1,N,0010,1","09000,1,9,N","010000,1,N,1","+0128,1","+0085,1","10129,1","06,0000,9,1",,,,,"07,99,1,02,1,00,1,02250,1,07,1,08,1",,,,,"99999,9,09999,1","6,1,026,1,+999,9",,"SYN072AAXX  07124 08044 12860 72102 10128 20085 39999 40129 56026 60001 82078;","Q01  00002PRCP06"
"08044099999","2010-02-07T15:00:00","4","42.4333333","-8.6166666","108.0","PONTEVEDRA, SP","FM-12","99999","V020","170,1,N,0036,1","03600,1,9,N","012000,1,N,1","+0142,1","+0082,1","10101,1",,,,,,"08,99,1,04,1,02,1,00800,1,05,1,01,1",,,,,"99999,9,09972,1","8,1,027,1,+999,9",,"SYN066AAXX  07154 08044 42562 81707 10142 20082 39972 40101 58027 84251;",
"08044099999","2010-02-07T18:00:00","4","42.4333333","-8.6166666","108.0","PONTEVEDRA, SP","FM-12","99999","V020","999,9,9,9999,9","00750,1,9,N","004000,1,N,1","+0120,1","+0092,1","10079,1","12,0010,9,1",,"6,1,06,1","2,1,06,1",,"08,99,1,05,1,05,1,00800,1,07,1,99,9",,,,"999,M,+0150,1","99999,9,09950,1","7,1,022,1,+999,9","60,1","SYN088AAXX  07184 08044 11540 8//// 10120 20092 39950 40079 57022 60012 76062 8557/ 333 10150;",
"08044099999","2010-02-08T06:00:00","4","42.4333333","-8.6166666","108.0","PONTEVEDRA, SP","FM-12","99999","V020","140,1,N,0015,1","03600,1,9,N","006000,1,N,1","+0100,1","+0092,1","10047,1","12,0061,9,1","24,0074,9,1",,,,"07,99,1,01,1,05,1,00250,1,07,1,00,1","0012,9","11,9","999,+0080,9","999,N,+0096,1","99999,9,09917,1","8,1,008,1,+999,9","10,1","SYN112AAXX  08064 08044 11356 71403 10100 20092 39917 40047 58008 60062 710// 81570 333 20096 32008 50084 55002 70073;",
"08044099999","2010-02-08T09:00:00","4","42.4333333","-8.6166666","108.0","PONTEVEDRA, SP","FM-12","99999","V020","999,9,9,9999,9","00600,1,9,N","008000,1,N,1","+0103,1","+0097,1","10048,1",,,"2,1,03,1","2,1,03,1",,"07,99,1,06,1,08,1,00250,1,03,1,00,1",,,,,"99999,9,09918,1","1,1,001,1,+999,9","15,1","SYN072AAXX  08094 08044 41358 7//// 10103 20097 39918 40048 51001 71522 86830;",
"08044099999","2010-02-08T12:00:00","4","42.4333333","-8.6166666","108.0","PONTEVEDRA, SP","FM-12","99999","V020","999,9,9,9999,9","00600,1,9,N","008000,1,N,1","+0128,1","+0103,1","10045,1","06,0000,9,1",,"2,1,06,1","2,1,06,1",,"07,99,1,06,1,08,1,00250,1,03,1,00,1",,,,,"99999,9,09916,1","6,1,002,1,+999,9","10,1","SYN078AAXX  08124 08044 11358 7//// 10128 20103 39916 40045 56002 60001 71022 86830;","Q01  00002PRCP06"
"08044099999","2010-02-08T15:00:00","4","42.4333333","-8.6166666","108.0","PONTEVEDRA, SP","FM-12","99999","V020","999,9,9,9999,9","03600,1,9,N","006000,1,N,1","+0138,1","+0096,1","10030,1",,,"2,1,03,1","2,1,03,1",,"06,99,1,03,1,08,1,00450,1,03,1,00,1",,,,,"99999,9,09902,1","8,1,014,1,+999,9","05,1","SYN072AAXX  08154 08044 41456 6//// 10138 20096 39902 40030 58014 70522 83830;",
"08044099999","2010-02-08T18:00:00","4","42.4333333","-8.6166666","108.0","PONTEVEDRA, SP","FM-12","99999","V020","999,9,9,9999,9","22000,1,9,N","008000,1,N,1","+0116,1","+0097,1","10026,1","12,0000,9,1",,"1,1,06,1","1,1,06,1",,"03,99,1,02,1,08,1,00450,1,03,1,00,1",,,,"999,M,+0144,1","99999,9,09897,1","6,1,005,1,+999,9","10,1","SYN088AAXX  08184 08044 11458 3//// 10116 20097 39897 40026 56005 60002 71011 82830 333 10144;","Q01  00002PRCP12"
"08044099999","2010-02-09T06:00:00","4","42.4333333","-8.6166666","108.0","PONTEVEDRA, SP","FM-12","99999","V020","999,9,9,9999,9","03600,1,9,N","006000,1,N,1","+0094,1","+0088,1","10047,1","12,0030,9,1","24,0033,9,1",,,,"07,99,1,04,1,05,1,00800,1,03,1,00,1","0240,9","11,9","999,+0080,9","999,N,+0092,1","99999,9,09917,1","5,1,001,1,+999,9","10,1","SYN112AAXX  09064 08044 11556 7//// 10094 20088 39917 40047 55001 60032 710// 84530 333 20092 32008 50044 55040 70032;",
"08044099999","2010-02-09T09:00:00","4","42.4333333","-8.6166666","108.0","PONTEVEDRA, SP","FM-12","99999","V020","999,9,9,9999,9","22000,1,9,N","020000,1,N,1","+0096,1","+0079,1","10067,1",,,"6,1,03,1","1,1,03,1",,"02,99,1,01,1,01,1,00250,1,03,1,01,1",,,,,"99999,9,09937,1","2,1,020,1,+999,9","01,1","SYN072AAXX  09094 08044 41370 2//// 10096 20079 39937 40067 52020 70161 81131;",
"08044099999","2010-02-09T12:00:00","4","42.4333333","-8.6166666","108.0","PONTEVEDRA, SP","FM-12","99999","V020","999,9,9,9999,9","09000,1,9,N","020000,1,N,1","+0120,1","+0077,1","10080,1","06,0020,9,1",,"6,1,06,1","1,1,06,1",,"05,99,1,02,1,02,1,00450,1,03,1,01,1",,,,,"99999,9,09950,1","1,1,013,1,+999,9","03,1","SYN078AAXX  09124 08044 11470 5//// 10120 20077 39950 40080 51013 60021 70361 82231;",
"08044099999","2010-02-09T15:00:00","4","42.4333333","-8.6166666","108.0","PONTEVEDRA, SP","FM-12","99999","V020","999,9,9,9999,9","22000,1,9,N","020000,1,N,1","+0122,1","+0042,1","10082,1",,,,,,"04,99,1,03,1,02,1,00800,1,03,1,01,1",,,,,"99999,9,09952,1","1,1,002,1,+999,9",,"SYN066AAXX  09154 08044 42570 4//// 10122 20042 39952 40082 51002 83231;",
"08044099999","2010-02-09T18:00:00","4","42.4333333","-8.6166666","108.0","PONTEVEDRA, SP","FM-12","99999","V020","999,9,9,9999,9","02100,1,9,N","015000,1,N,1","+0106,1","+0049,1","10085,1","12,0020,9,1",,,,,"06,99,1,05,1,00,1,02250,1,07,1,01,1",,,,"999,M,+0125,1","99999,9,09955,1","1,1,003,1,+999,9",,"SYN082AAXX  09184 08044 12865 6//// 10106 20049 39955 40085 51003 60022 85071 333 10125;",
"08044099999","2010-02-10T06:00:00","4","42.4333333","-8.6166666","108.0","PONTEVEDRA, SP","FM-12","99999","V020","999,9,9,9999,9","02100,1,9,N","012000,1,N,1","+0062,1","+0005,1","10088,1","12,0000,9,1","24,0015,9,1",,,,"08,99,1,06,1,00,1,02250,1,07,1,01,1","0288,9","01,9","999,+0040,9","999,N,+0060,1","99999,9,09956,1","6,1,008,1,+999,9","02,1","SYN112AAXX  10064 08044 11862 8//// 10062 20005 39956 40088 56008 60002 702// 86071 333 20060 30004 50154 55048 70015;","Q01  00002PRCP12"
"08044099999","2010-02-10T09:00:00","4","42.4333333","-8.6166666","108.0","PONTEVEDRA, SP","FM-12","99999","V020","080,1,N,0015,1","02100,1,9,N","015000,1,N,1","+0064,1","+0009,1","10082,1",,,,,,"08,99,1,08,1,00,1,02250,1,07,1,99,9",,,,,"99999,9,09950,1","5,1,006,1,+999,9",,"SYN066AAXX  10094 08044 42865 80803 10064 20009 39950 40082 55006 8807/;",
"08044099999","2010-02-10T12:00:00","4","42.4333333","-8.6166666","108.0","PONTEVEDRA, SP","FM-12","99999","V020","320,1,N,0010,1","03600,1,9,N","005000,1,N,1","+0068,1","+0050,1","10087,1","06,0020,9,1",,"6,1,06,1","2,1,06,1",,"08,99,1,04,1,05,1,00800,1,02,1,99,9",,,,,"99999,9,09955,1","1,1,005,1,+999,9","61,1","SYN078AAXX  10124 08044 11550 83202 10068 20050 39955 40087 51005 60021 76162 8452/;",
"08044099999","2010-02-10T15:00:00","4","42.4333333","-8.6166666","108.0","PONTEVEDRA, SP","FM-12","99999","V020","999,9,9,9999,9","03600,1,9,N","008000,1,N,1","+0093,1","+0062,1","10079,1",,,"6,1,03,1","2,1,03,1",,"08,99,1,03,1,05,1,00800,1,07,1,99,9",,,,,"99999,9,09948,1","8,1,007,1,+999,9","10,1","SYN072AAXX  10154 08044 41558 8//// 10093 20062 39948 40079 58007 71062 8357/;",
"08044099999","2010-02-10T18:00:00","4","42.4333333","-8.6166666","108.0","PONTEVEDRA, SP","FM-12","99999","V020","999,9,9,9999,9","02100,1,9,N","015000,1,N,1","+0082,1","+0046,1","10078,1","12,0030,9,1",,"6,1,06,1","2,1,06,1",,"07,99,1,07,1,00,1,02250,1,07,1,01,1",,,,"999,M,+0095,1","99999,9,09947,1","5,1,001,1,+999,9","02,1","SYN088AAXX  10184 08044 11865 7//// 10082 20046 39947 40078 55001 60032 70262 87071 333 10095;",
"08044099999","2010-02-11T06:00:00","4","42.4333333","-8.6166666","108.0","PONTEVEDRA, SP","FM-12","99999","V020","140,1,N,0010,1","22000,1,9,N","020000,1,N,1","+0030,1","-0038,1","10132,1","12,0000,9,1","24,0033,9,1",,,"00,1,+99999,9,99,9","00,99,1,00,1,00,1,99999,9,00,1,00,1","0000,9","09,9","999,+0000,9","999,N,+0030,1","99999,9,09997,1","0,1,009,1,+999,9","00,1","SYN106AAXX  11064 08044 11970 01402 10030 21038 39997 40132 50009 60002 700// 333 20030 31100 50104 55000 70032;","Q01  00002PRCP12"
"08044099999","2010-02-11T09:00:00","4","42.4333333","-8.6166666","108.0","PONTEVEDRA, SP","FM-12","99999","V020","020,1,N,0015,1","22000,1,9,N","030000,1,N,1","+0046,1","-0020,1","10148,1",,,,,,"01,99,1,01,1,01,1,00450,1,00,1,01,1",,,,,"99999,9,10014,1","3,1,017,1,+999,9",,"SYN066AAXX  11094 08044 42480 10203 10046 21020 30014 40148 53017 81101;",
"08044099999","2010-02-11T12:00:00","4","42.4333333","-8.6166666","108.0","PONTEVEDRA, SP","FM-12","99999","V020","030,1,N,0031,1","22000,1,9,N","020000,1,N,1","+0088,1","-0016,1","10160,1","06,0000,9,1",,,,,"03,99,1,02,1,01,1,00450,1,00,1,01,1",,,,,"99999,9,10028,1","3,1,014,1,+999,9",,"SYN072AAXX  11124 08044 12470 30306 10088 21016 30028 40160 53014 60001 82101;","Q01  00002PRCP06"
"08044099999","2010-02-11T15:00:00","4","42.4333333","-8.6166666","108.0","PONTEVEDRA, SP","FM-12","99999","V020","010,1,N,0051,1","22000,1,9,N","020000,1,N,1","+0082,1","-0033,1","10148,1",,,,,,"01,99,1,01,1,04,1,00450,1,00,1,00,1",,,,,"99999,9,10016,1","6,1,012,1,+999,9",,"SYN066AAXX  11154 08044 42470 10110 10082 21033 30016 40148 56012 81400;",
"08044099999","2010-02-11T18:00:00","4","42.4333333","-8.6166666","108.0","PONTEVEDRA, SP","FM-12","99999","V020","360,1,N,0026,1","22000,1,9,N","015000,1,N,1","+0062,1","-0043,1","10155,1","12,0000,9,1",,,,,"01,99,1,01,1,00,1,01750,1,04,1,00,1",,,,"999,M,+0094,1","99999,9,10022,1","3,1,006,1,+999,9",,"SYN082AAXX  11184 08044 12765 13605 10062 21043 30022 40155 53006 60002 81040 333 10094;","Q01  00002PRCP12"
"08044099999","2010-02-12T06:00:00","4","42.4333333","-8.6166666","108.0","PONTEVEDRA, SP","FM-12","99999","V020","050,1,N,0036,1","22000,1,9,N","015000,1,N,1","+0030,1","-0075,1","10152,1","12,0000,9,1","24,0000,9,1",,,,"02,99,1,02,1,00,1,01750,1,05,1,00,1","0492,9",,,"999,N,+0016,1","99999,9,10017,1","8,1,002,1,+999,9","02,1","SYN106AAXX  12064 08044 11765 20507 10030 21075 30017 40152 58002 60002 702// 82050 333 20016 50224 55082 70000;","Q01  00002PRCP24Q02  00002PRCP12"
"08044099999","2010-02-12T09:00:00","4","42.4333333","-8.6166666","108.0","PONTEVEDRA, SP","FM-12","99999","V020","030,1,N,0031,1","22000,1,9,N","020000,1,N,1","+0028,1","-0061,1","10155,1",,,,,,"01,99,1,00,1,00,1,99999,9,00,1,02,1",,,,,"99999,9,10020,1","0,1,003,1,+999,9",,"SYN066AAXX  12094 08044 42970 10306 10028 21061 30020 40155 50003 80002;",
"08044099999","2010-02-12T12:00:00","4","42.4333333","-8.6166666","108.0","PONTEVEDRA, SP","FM-12","99999","V020","090,1,N,0026,1","22000,1,9,N","020000,1,N,1","+0092,1","-0049,1","10142,1","06,0000,9,1",,,,,"01,99,1,01,1,05,1,00800,1,00,1,00,1",,,,,"99999,9,10010,1","8,1,010,1,+999,9",,"SYN072AAXX  12124 08044 12570 10905 10092 21049 30010 40142 58010 60001 81500;","Q01  00002PRCP06"
"08044099999","2010-02-12T15:00:00","4","42.4333333","-8.6166666","108.0","PONTEVEDRA, SP","FM-12","99999","V020","050,1,N,0021,1","22000,1,9,N","020000,1,N,1","+0106,1","-0054,1","10117,1",,,,,,"01,99,1,01,1,01,1,00450,1,00,1,00,1",,,,,"99999,9,09986,1","6,1,024,1,+999,9",,"SYN066AAXX  12154 08044 42470 10504 10106 21054 39986 40117 56024 81100;",
"08044099999","2010-02-12T18:00:00","4","42.4333333","-8.6166666","108.0","PONTEVEDRA, SP","FM-12","99999","V020","360,1,N,0026,1","22000,1,9,N","015000,1,N,1","+0082,1","-0021,1","10114,1","12,0000,9,1",,,,"00,1,+99999,9,99,9","00,99,1,00,1,00,1,99999,9,00,1,00,1",,,,"999,M,+0108,1","99999,9,09982,1","5,1,004,1,+999,9",,"SYN076AAXX  12184 08044 12965 03605 10082 21021 39982 40114 55004 60002 333 10108;","Q01  00002PRCP12"
"08044099999","2010-02-13T06:00:00","4","42.4333333","-8.6166666","108.0","PONTEVEDRA, SP","FM-12","99999","V020","040,1,N,0015,1","22000,1,9,N","015000,1,N,1","+0026,1","-0048,1","10129,1","12,0000,9,1","24,0000,9,1",,,"00,1,+99999,9,99,9","00,99,1,00,1,00,1,99999,9,00,1,00,1","0498,9",,,"999,N,+0026,1","99999,9,09994,1","5,1,003,1,+999,9","02,1","SYN100AAXX  13064 08044 11965 00403 10026 21048 39994 40129 55003 60002 702// 333 20026 50254 55083 70000;","Q01  00002PRCP24Q02  00002PRCP12"
"08044099999","2010-02-13T09:00:00","4","42.4333333","-8.6166666","108.0","PONTEVEDRA, SP","FM-12","99999","V020","040,1,N,0021,1","22000,1,9,N","020000,1,N,1","+0042,1","-0048,1","10136,1",,,,,"00,1,+99999,9,99,9","00,99,1,00,1,00,1,99999,9,00,1,00,1",,,,,"99999,9,10002,1","0,1,008,1,+999,9",,"SYN060AAXX  13094 08044 42970 00404 10042 21048 30002 40136 50008;",
"08044099999","2010-02-13T12:00:00","4","42.4333333","-8.6166666","108.0","PONTEVEDRA, SP","FM-12","99999","V020","999,9,9,9999,9","22000,1,9,N","020000,1,N,1","+0094,1","-0045,1","10132,1","06,0000,9,1",,,,,"02,99,1,02,1,01,1,00450,1,00,1,00,1",,,,,"99999,9,10000,1","8,1,002,1,+999,9",,"SYN072AAXX  13124 08044 12470 2//// 10094 21045 30000 40132 58002 60001 82100;","Q01  00002PRCP06"
"08044099999","2010-02-13T15:00:00","4","42.4333333","-8.6166666","108.0","PONTEVEDRA, SP","FM-12","99999","V020","340,1,N,0041,1","22000,1,9,N","020000,1,N,1","+0092,1","-0033,1","10117,1",,,,,,"02,99,1,02,1,01,1,00450,1,00,1,00,1",,,,,"99999,9,09985,1","6,1,015,1,+999,9",,"SYN066AAXX  13154 08044 42470 23408 10092 21033 39985 40117 56015 82100;",
"08044099999","2010-02-13T18:00:00","4","42.4333333","-8.6166666","108.0","PONTEVEDRA, SP","FM-12","99999","V020","999,9,9,9999,9","22000,1,9,N","020000,1,N,1","+0068,1","-0040,1","10120,1","12,0000,9,1",,,,"00,1,+99999,9,99,9","00,99,1,00,1,00,1,99999,9,00,1,00,1",,,,"999,M,+0102,1","99999,9,09987,1","3,1,002,1,+999,9",,"SYN076AAXX  13184 08044 12970 0//// 10068 21040 39987 40120 53002 60002 333 10102;","Q01  00002PRCP12"
"08044099999","2010-02-14T06:00:00","4","42.4333333","-8.6166666","108.0","PONTEVEDRA, SP","FM-12","99999","V020","999,9,9,9999,9","22000,1,9,N","015000,1,N,1","+0012,1","-0050,1","10122,1","12,0000,9,1","24,0000,9,1",,,"00,1,+99999,9,99,9","00,99,1,00,1,00,1,99999,9,00,1,00,1","0486,9",,,"999,N,+0012,1","99999,9,09987,1","6,1,012,1,+999,9","02,1","SYN100AAXX  14064 08044 11965 0//// 10012 21050 39987 40122 56012 60002 702// 333 20012 50244 55081 70000;","Q01  00002PRCP24Q02  00002PRCP12"
"08044099999","2010-02-14T09:00:00","4","42.4333333","-8.6166666","108.0","PONTEVEDRA, SP","FM-12","99999","V020","999,9,9,9999,9","09000,1,9,N","020000,1,N,1","+0030,1","-0059,1","10114,1",,,,,,"05,99,1,04,1,00,1,01750,1,05,1,02,1",,,,,"99999,9,09980,1","6,1,007,1,+999,9",,"SYN066AAXX  14094 08044 42770 5//// 10030 21059 39980 40114 56007 84052;",
"08044099999","2010-02-14T12:00:00","4","42.4333333","-8.6166666","108.0","PONTEVEDRA, SP","FM-12","99999","V020","999,9,9,9999,9","01500,1,9,N","020000,1,N,1","+0062,1","-0048,1","10102,1","06,0000,9,1",,,,,"07,99,1,07,1,00,1,01750,1,07,1,99,9",,,,,"99999,9,09969,1","8,1,011,1,+999,9",,"SYN072AAXX  14124 08044 12770 7//// 10062 21048 39969 40102 58011 60001 8707/;","Q01  00002PRCP06"
"08044099999","2010-02-14T15:00:00","4","42.4333333","-8.6166666","108.0","PONTEVEDRA, SP","FM-12","99999","V020","999,9,9,9999,9","01500,1,9,N","020000,1,N,1","+0082,1","-0040,1","10069,1",,,,,,"07,99,1,07,1,00,1,01750,1,05,1,99,9",,,,,"99999,9,09938,1","7,1,031,1,+999,9",,"SYN066AAXX  14154 08044 42770 7//// 10082 21040 39938 40069 57031 8705/;",
"08044099999","2010-02-14T18:00:00","4","42.4333333","-8.6166666","108.0","PONTEVEDRA, SP","FM-12","99999","V020","999,9,9,9999,9","01500,1,9,N","020000,1,N,1","+0072,1","-0020,1","10052,1","12,0000,9,1",,,,,"07,99,1,07,1,00,1,01750,1,05,1,99,9",,,,"999,M,+0086,1","99999,9,09920,1","6,1,018,1,+999,9",,"SYN082AAXX  14184 08044 12770 7//// 10072 21020 39920 40052 56018 60002 8705/ 333 10086;","Q01  00002PRCP12"
"08044099999","2010-02-15T06:00:00","4","42.4333333","-8.6166666","108.0","PONTEVEDRA, SP","FM-12","99999","V020","999,9,9,9999,9","22000,1,9,N","015000,1,N,1","+0044,1","-0043,1","09980,1","12,0000,9,1","24,0000,9,1",,,,"04,99,1,04,1,00,1,01750,1,05,1,00,1","0024,9",,,"999,N,+0044,1","99999,9,09848,1","7,1,020,1,+999,9","02,1","SYN106AAXX  15064 08044 11765 4//// 10044 21043 39848 49980 57020 60002 702// 84050 333 20044 50224 55004 70000;","Q01  00002PRCP24Q02  00002PRCP12"
"08044099999","2010-02-15T09:00:00","4","42.4333333","-8.6166666","108.0","PONTEVEDRA, SP","FM-12","99999","V020","999,9,9,9999,9","22000,1,9,N","020000,1,N,1","+0048,1","-0040,1","09974,1",,,,,,"03,99,1,01,1,00,1,01750,1,03,1,02,1",,,,,"99999,9,09842,1","6,1,006,1,+999,9",,"SYN066AAXX  15094 08044 42770 3//// 10048 21040 39842 49974 56006 81032;",
"08044099999","2010-02-15T12:00:00","4","42.4333333","-8.6166666","108.0","PONTEVEDRA, SP","FM-12","99999","V020","060,1,N,0026,1","22000,1,9,N","020000,1,N,1","+0106,1","-0046,1","09964,1","06,0000,9,1",,,,,"03,99,1,01,1,00,1,01750,1,05,1,02,1",,,,,"99999,9,09835,1","6,1,007,1,+999,9",,"SYN072AAXX  15124 08044 12770 30605 10106 21046 39835 49964 56007 60001 81052;","Q01  00002PRCP06"
"08044099999","2010-02-15T15:00:00","4","42.4333333","-8.6166666","108.0","PONTEVEDRA, SP","FM-12","99999","V020","070,1,N,0031,1","22000,1,9,N","020000,1,N,1","+0126,1","-0041,1","09933,1",,,,,,"02,99,1,01,1,00,1,01750,1,03,1,02,1",,,,,"99999,9,09805,1","7,1,030,1,+999,9",,"SYN066AAXX  15154 08044 42770 20706 10126 21041 39805 49933 57030 81032;",
"08044099999","2010-02-15T18:00:00","4","42.4333333","-8.6166666","108.0","PONTEVEDRA, SP","FM-12","99999","V020","040,1,N,0041,1","22000,1,9,N","015000,1,N,1","+0108,1","-0013,1","09925,1","12,0000,9,1",,,,,"04,99,1,02,1,00,1,01750,1,05,1,02,1",,,,"999,M,+0128,1","99999,9,09797,1","5,1,008,1,+999,9",,"SYN082AAXX  15184 08044 12765 40408 10108 21013 39797 49925 55008 60002 82052 333 10128;","Q01  00002PRCP12"
"08044099999","2010-02-16T06:00:00","4","42.4333333","-8.6166666","108.0","PONTEVEDRA, SP","FM-12","99999","V020","160,1,N,0010,1","03600,1,9,N","008000,1,N,1","+0040,1","-0002,1","09894,1","12,9999,9,9","24,9999,9,9",,,,"07,99,1,04,1,02,1,00450,1,07,1,99,9","0468,9",,,"999,N,+0040,1","99999,9,09763,1","7,1,015,1,+999,9","80,1","SYN106AAXX  16064 08044 11458 71602 10040 21002 39763 49894 57015 69902 780// 8427/ 333 20040 50274 55078 79999;","Q01  00002PRCP24Q02  00002PRCP12Q03  00002PRCP12Q04  00002PRCP24"
"08044099999","2010-02-16T09:00:00","4","42.4333333","-8.6166666","108.0","PONTEVEDRA, SP","FM-12","99999","V020","140,1,N,0010,1","03600,1,9,N","015000,1,N,1","+0048,1","+0008,1","09892,1",,,,,,"07,99,1,04,1,05,1,00800,1,07,1,99,9",,,,,"99999,9,09761,1","6,1,002,1,+999,9",,"SYN066AAXX  16094 08044 42565 71402 10048 20008 39761 49892 56002 8457/;",
"08044099999","2010-02-16T12:00:00","4","42.4333333","-8.6166666","108.0","PONTEVEDRA, SP","FM-12","99999","V020","290,1,N,0015,1","03600,1,9,N","020000,1,N,1","+0096,1","+0027,1","09889,1","06,0000,2,1",,,,,"08,99,1,04,1,05,1,00800,1,07,1,99,9",,,,,"99999,9,09761,1","4,1,000,1,+999,9",,"SYN072AAXX  16124 08044 12570 82903 10096 20027 39761 49889 54000 60001 8457/;",
"08044099999","2010-02-16T15:00:00","4","42.4333333","-8.6166666","108.0","PONTEVEDRA, SP","FM-12","99999","V020","300,1,N,0041,1","03600,1,9,N","020000,1,N,1","+0126,1","+0048,1","09874,1",,,,,,"07,99,1,04,1,05,1,00800,1,07,1,99,9",,,,,"99999,9,09747,1","8,1,014,1,+999,9",,"SYN066AAXX  16154 08044 42570 73008 10126 20048 39747 49874 58014 8457/;",
"08044099999","2010-02-16T18:00:00","4","42.4333333","-8.6166666","108.0","PONTEVEDRA, SP","FM-12","99999","V020","330,1,N,0021,1","00750,1,9,N","015000,1,N,1","+0108,1","+0036,1","09870,1","12,0000,2,1",,,,,"07,99,1,07,1,05,1,00800,1,99,9,99,9",,,,"999,M,+0126,1","99999,9,09743,1","6,1,004,1,+999,9",,"SYN082AAXX  16184 08044 12565 73304 10108 20036 39743 49870 56004 60002 875// 333 10126;",
"08044099999","2010-02-17T06:00:00","4","42.4333333","-8.6166666","108.0","PONTEVEDRA, SP","FM-12","99999","V020","010,1,N,0010,1","00750,1,9,N","008000,1,N,1","+0074,1","+0057,1","09890,1","12,9999,9,9","24,0000,2,1",,,,"08,99,1,08,1,05,1,00800,1,99,9,99,9","0006,9",,,"999,N,+0074,1","99999,9,09761,1","3,1,008,1,+999,9","60,1","SYN106AAXX  17064 08044 11558 80102 10074 20057 39761 49890 53008 69902 760// 885// 333 20074 50144 55001 79999;","Q01  00002PRCP12Q02  00002PRCP12"
"08044099999","2010-02-17T09:00:00","4","42.4333333","-8.6166666","108.0","PONTEVEDRA, SP","FM-12","99999","V020","330,1,N,0031,1","00210,1,9,N","010000,1,N,1","+0074,1","+0047,1","09917,1",,,"5,1,03,1","2,1,03,1",,"08,99,1,06,1,07,1,00250,1,07,1,99,9",,,,,"99999,9,09787,1","2,1,026,1,+999,9","02,1","SYN072AAXX  17094 08044 41360 83306 10074 20047 39787 49917 52026 70252 8677/;",
"08044099999","2010-02-17T12:00:00","4","42.4333333","-8.6166666","108.0","PONTEVEDRA, SP","FM-12","99999","V020","300,1,N,0026,1","22000,1,9,N","020000,1,N,1","+0104,1","+0037,1","09937,1","06,0000,2,1",,"5,1,06,1","1,1,06,1",,"03,99,1,03,1,02,1,00450,1,00,1,00,1",,,,,"99999,9,09808,1","1,1,021,1,+999,9","25,1","SYN078AAXX  17124 08044 11470 33005 10104 20037 39808 49937 51021 69921 72551 83200;",
"08044099999","2010-02-17T15:00:00","4","42.4333333","-8.6166666","108.0","PONTEVEDRA, SP","FM-12","99999","V020","280,1,N,0041,1","22000,1,9,N","020000,1,N,1","+0112,1","+0022,1","09946,1",,,,,,"04,99,1,03,1,02,1,00450,1,04,1,00,1",,,,,"99999,9,09818,1","3,1,010,1,+999,9",,"SYN066AAXX  17154 08044 42470 42808 10112 20022 39818 49946 53010 83240;",
"08044099999","2010-02-17T18:00:00","4","42.4333333","-8.6166666","108.0","PONTEVEDRA, SP","FM-12","99999","V020","170,1,N,0021,1","00420,1,9,N","015000,1,N,1","+0084,1","+0069,1","09972,1","12,0020,9,1",,"8,1,06,1","1,1,06,1",,"07,99,1,06,1,02,1,00450,1,06,1,99,9",,,,"999,M,+0120,1","99999,9,09842,1","2,1,024,1,+999,9","02,1","SYN088AAXX  17184 08044 11465 71704 10084 20069 39842 49972 52024 60022 70281 8626/ 333 10120;",
"08044099999","2010-02-18T06:00:00","4","42.4333333","-8.6166666","108.0","PONTEVEDRA, SP","FM-12","99999","V020","340,1,N,0021,1","00600,1,9,N","010000,1,N,1","+0047,1","+0043,1","10004,1","12,0061,9,1","24,0079,9,1",,,,"07,99,1,07,1,08,1,00250,1,99,9,99,9","0294,9",,,"999,N,+0041,1","99999,9,09872,1","8,1,002,1,+999,9","25,1","SYN106AAXX  18064 08044 11360 73404 10047 20043 39872 40004 58002 60062 725// 878// 333 20041 50054 55049 70078;",
"08044099999","2010-02-18T09:00:00","4","42.4333333","-8.6166666","108.0","PONTEVEDRA, SP","FM-12","99999","V020","040,1,N,0021,1","22000,1,9,N","020000,1,N,1","+0050,1","+0043,1","10011,1",,,"8,1,03,1","4,1,03,1",,"04,99,1,04,1,08,1,00250,1,00,1,00,1",,,,,"99999,9,09879,1","0,1,007,1,+999,9","25,1","SYN072AAXX  18094 08044 41370 40404 10050 20043 39879 40011 50007 72584 84800;",
"08044099999","2010-02-18T12:00:00","4","42.4333333","-8.6166666","108.0","PONTEVEDRA, SP","FM-12","99999","V020","290,1,N,0015,1","22000,1,9,N","020000,1,N,1","+0101,1","+0061,1","09999,1","06,0010,9,1",,"8,1,06,1","4,1,06,1",,"04,99,1,04,1,02,1,00450,1,00,1,00,1",,,,,"99999,9,09870,1","8,1,009,1,+999,9","02,1","SYN078AAXX  18124 08044 11470 42903 10101 20061 39870 49999 58009 60011 70284 84200;",
"08044099999","2010-02-18T15:00:00","4","42.4333333","-8.6166666","108.0","PONTEVEDRA, SP","FM-12","99999","V020","300,1,N,0041,1","00900,1,9,N","015000,1,N,1","+0089,1","+0043,1","09993,1",,,"8,1,03,1","2,1,03,1",,"07,99,1,07,1,08,1,00450,1,99,9,99,9",,,,,"99999,9,09863,1","6,1,007,1,+999,9","25,1","SYN072AAXX  18154 08044 41465 73008 10089 20043 39863 49993 56007 72582 878//;",
"08044099999","2010-02-18T18:00:00","4","42.4333333","-8.6166666","108.0","PONTEVEDRA, SP","FM-12","99999","V020","060,1,N,0010,1","09000,1,9,N","018000,1,N,1","+0086,1","+0040,1","09990,1","12,0010,9,1",,"8,1,06,1","2,1,06,1",,"05,99,1,04,1,08,1,00450,1,00,1,02,1",,,,"999,M,+0124,1","99999,9,09860,1","6,1,003,1,+999,9","02,1","SYN088AAXX  18184 08044 11468 50602 10086 20040 39860 49990 56003 60012 70282 84802 333 10124;",
"08044099999","2010-02-19T06:00:00","4","42.4333333","-8.6166666","108.0","PONTEVEDRA, SP","FM-12","99999","V020","999,9,9,9999,9","22000,1,9,N","015000,1,N,1","+0032,1","+0011,1","10033,1","12,0000,9,1","24,0015,9,1",,,,"04,99,1,02,1,05,1,00800,1,03,1,00,1","0288,9",,,"999,N,+0032,1","99999,9,09900,1","3,1,015,1,+999,9","02,1","SYN106AAXX  19064 08044 11565 4//// 10032 20011 39900 40033 53015 60002 702// 82530 333 20032 50084 55048 70014;","Q01  00002PRCP12"
"08044099999","2010-02-19T09:00:00","4","42.4333333","-8.6166666","108.0","PONTEVEDRA, SP","FM-12","99999","V020","999,9,9,9999,9","22000,1,9,N","020000,1,N,1","+0034,1","+0013,1","10058,1",,,,,,"02,99,1,02,1,08,1,00450,1,00,1,00,1",,,,,"99999,9,09925,1","2,1,025,1,+999,9",,"SYN066AAXX  19094 08044 42470 2//// 10034 20013 39925 40058 52025 82800;",
"08044099999","2010-02-19T12:00:00","4","42.4333333","-8.6166666","108.0","PONTEVEDRA, SP","FM-12","99999","V020","999,9,9,9999,9","03600,1,9,N","020000,1,N,1","+0110,1","+0038,1","10075,1","06,0000,9,1",,,,,"05,99,1,04,1,03,1,00450,1,04,1,00,1",,,,,"99999,9,09945,1","1,1,020,1,+999,9",,"SYN072AAXX  19124 08044 12470 5//// 10110 20038 39945 40075 51020 60001 84340;","Q01  00002PRCP06"
"08044099999","2010-02-19T15:00:00","4","42.4333333","-8.6166666","108.0","PONTEVEDRA, SP","FM-12","99999","V020","999,9,9,9999,9","03600,1,9,N","020000,1,N,1","+0094,1","+0040,1","10077,1",,,,,,"05,99,1,04,1,03,1,00450,1,04,1,00,1",,,,,"99999,9,09946,1","0,1,001,1,+999,9",,"SYN066AAXX  19154 08044 42470 5//// 10094 20040 39946 40077 50001 84340;",
"08044099999","2010-02-19T18:00:00","4","42.4333333","-8.6166666","108.0","PONTEVEDRA, SP","FM-12","99999","V020","999,9,9,9999,9","03600,1,9,N","015000,1,N,1","+0084,1","+0033,1","10091,1","12,9999,9,9",,"8,1,06,1","2,1,06,1",,"05,99,1,04,1,03,1,00450,1,04,1,00,1",,,,"999,M,+0126,1","99999,9,09960,1","3,1,014,1,+999,9","25,1","SYN088AAXX  19184 08044 11465 5//// 10084 20033 39960 40091 53014 69912 72582 84340 333 10126;","Q01  00002PRCP12Q02  00002PRCP12"
"08044099999","2010-02-20T06:00:00","4","42.4333333","-8.6166666","108.0","PONTEVEDRA, SP","FM-12","99999","V020","030,1,N,0015,1","00420,1,9,N","006000,1,N,1","+0036,1","+0032,1","10110,1","12,0061,9,2","24,0058,9,2",,,,"06,99,1,06,1,02,1,00450,1,00,1,00,1","0456,9",,,"999,N,+0036,1","99999,9,09976,1","5,1,008,1,+999,9","80,1","SYN106AAXX  20064 08044 11456 60303 10036 20032 39976 40110 55008 60062 780// 86200 333 20036 50084 55076 70058;",
"08044099999","2010-02-20T09:00:00","4","42.4333333","-8.6166666","108.0","PONTEVEDRA, SP","FM-12","99999","V020","999,9,9,9999,9","22000,1,9,N","015000,1,N,1","+0052,1","+0037,1","10111,1",,,"8,1,03,1","1,1,03,1",,"03,99,1,02,1,02,1,00450,1,04,1,00,1",,,,,"99999,9,09978,1","1,1,002,1,+999,9","25,1","SYN072AAXX  20094 08044 41465 3//// 10052 20037 39978 40111 51002 72581 82240;",
"08044099999","2010-02-20T12:00:00","4","42.4333333","-8.6166666","108.0","PONTEVEDRA, SP","FM-12","99999","V020","999,9,9,9999,9","22000,1,9,N","015000,1,N,1","+0102,1","+0060,1","10100,1","06,0000,2,1",,"8,1,06,1","1,1,06,1",,"03,99,1,02,1,02,1,00450,1,04,1,00,1",,,,,"99999,9,09969,1","8,1,009,1,+999,9","02,1","SYN078AAXX  20124 08044 11465 3//// 10102 20060 39969 40100 58009 69911 70281 82240;",
"08044099999","2010-02-20T15:00:00","4","42.4333333","-8.6166666","108.0","PONTEVEDRA, SP","FM-12","99999","V020","999,9,9,9999,9","22000,1,9,N","020000,1,N,1","+0110,1","+0049,1","10079,1",,,,,,"03,99,1,02,1,02,1,00450,1,04,1,00,1",,,,,"99999,9,09949,1","7,1,020,1,+999,9",,"SYN066AAXX  20154 08044 42470 3//// 10110 20049 39949 40079 57020 82240;",
"08044099999","2010-02-20T18:00:00","4","42.4333333","-8.6166666","108.0","PONTEVEDRA, SP","FM-12","99999","V020","999,9,9,9999,9","03600,1,9,N","015000,1,N,1","+0100,1","+0040,1","10057,1","12,0000,2,1",,,,,"05,99,1,03,1,04,1,00450,1,03,1,02,1",,,,"999,M,+0116,1","99999,9,09927,1","8,1,022,1,+999,9",,"SYN082AAXX  20184 08044 12465 5//// 10100 20040 39927 40057 58022 69912 83432 333 10116;",
"08044099999","2010-02-21T06:00:00","4","42.4333333","-8.6166666","108.0","PONTEVEDRA, SP","FM-12","99999","V020","160,1,N,0072,1","00420,1,9,N","020000,1,N,1","+0104,1","+0071,1","09897,1","12,0051,9,1","24,0053,9,1","8,1,06,1",,,"07,99,1,07,1,05,1,00450,1,99,9,99,9","0390,9",,,"999,N,+0076,1","99999,9,09769,1","7,1,021,1,+999,9","02,1","SYN106AAXX  21064 08044 11470 71614 10104 20071 39769 49897 57021 60052 7028/ 875// 333 20076 50184 55065 70053;",
"08044099999","2010-02-21T09:00:00","4","42.4333333","-8.6166666","108.0","PONTEVEDRA, SP","FM-12","99999","V020","999,9,9,9999,9","00600,1,9,N","012000,1,N,1","+0110,1","+0102,1","09899,1",,,"8,1,03,1","2,1,03,1",,"07,99,1,07,1,08,1,00250,1,99,9,99,9",,,,,"99999,9,09771,1","3,1,002,1,+999,9","02,1","SYN072AAXX  21094 08044 41362 7//// 10110 20102 39771 49899 53002 70282 878//;",
"08044099999","2010-02-21T12:00:00","4","42.4333333","-8.6166666","108.0","PONTEVEDRA, SP","FM-12","99999","V020","999,9,9,9999,9","00600,1,9,N","010000,1,N,1","+0132,1","+0100,1","09912,1","06,0051,9,1",,"8,1,06,1","2,1,06,1",,"08,99,1,07,1,08,1,00250,1,07,1,99,9",,,,,"99999,9,09785,1","2,1,014,1,+999,9","02,1","SYN078AAXX  21124 08044 11360 8//// 10132 20100 39785 49912 52014 60051 70282 8787/;",
"08044099999","2010-02-21T15:00:00","4","42.4333333","-8.6166666","108.0","PONTEVEDRA, SP","FM-12","99999","V020","999,9,9,9999,9","00600,1,9,N","008000,1,N,1","+0145,1","+0095,1","09910,1",,,"2,1,03,1","2,1,03,1",,"07,99,1,07,1,08,1,00250,1,99,9,99,9",,,,,"99999,9,09784,1","8,1,001,1,+999,9","10,1","SYN072AAXX  21154 08044 41358 7//// 10145 20095 39784 49910 58001 71022 878//;",
"08044099999","2010-02-21T18:00:00","4","42.4333333","-8.6166666","108.0","PONTEVEDRA, SP","FM-12","99999","V020","999,9,9,9999,9","00600,1,9,N","008000,1,N,1","+0133,1","+0090,1","09915,1","12,0051,9,1",,"2,1,06,1","2,1,06,1",,"07,99,1,07,1,08,1,00250,1,99,9,99,9",,,,"999,M,+0147,1","99999,9,09788,1","3,1,004,1,+999,9","10,1","SYN088AAXX  21184 08044 11358 7//// 10133 20090 39788 49915 53004 60052 71022 878// 333 10147;",
"08044099999","2010-02-22T06:00:00","4","42.4333333","-8.6166666","108.0","PONTEVEDRA, SP","FM-12","99999","V020","180,1,N,0026,1","00600,1,9,N","010000,1,N,1","+0112,1","+0098,1","09891,1","12,0089,9,1","24,0137,9,1",,,,"07,99,1,07,1,08,1,00150,1,99,9,99,9","0048,9",,,"999,N,+0102,1","99999,9,09764,1","5,1,010,1,+999,9","80,1","SYN106AAXX  22064 08044 11260 71805 10112 20098 39764 49891 55010 60092 780// 878// 333 20102 50124 55008 70138;",
"08044099999","2010-02-22T09:00:00","4","42.4333333","-8.6166666","108.0","PONTEVEDRA, SP","FM-12","99999","V020","999,9,9,9999,9","00210,1,9,N","007000,1,N,1","+0125,1","+0100,1","09897,1",,,"9,1,03,1","8,1,03,1",,"08,99,1,08,1,03,1,00250,1,99,9,99,9",,,,,"99999,9,09770,1","3,1,006,1,+999,9","95,1","SYN072AAXX  22094 08044 41357 8//// 10125 20100 39770 49897 53006 79598 883//;",
"08044099999","2010-02-22T12:00:00","4","42.4333333","-8.6166666","108.0","PONTEVEDRA, SP","FM-12","99999","V020","999,9,9,9999,9","00600,1,9,N","005000,1,N,1","+0116,1","+0105,1","09910,1","06,0061,9,1",,"9,1,06,1","8,1,06,1",,"08,99,1,08,1,08,1,00250,1,99,9,99,9",,,,,"99999,9,09783,1","1,1,013,1,+999,9","80,1","SYN078AAXX  22124 08044 11350 8//// 10116 20105 39783 49910 51013 60061 78098 888//;",
"08044099999","2010-02-22T15:00:00","4","42.4333333","-8.6166666","108.0","PONTEVEDRA, SP","FM-12","99999","V020","999,9,9,9999,9","00210,1,9,N","005000,1,N,1","+0146,1","+0104,1","09914,1",,,"8,1,03,1","2,1,03,1",,"07,99,1,07,1,02,1,00250,1,99,9,99,9",,,,,"99999,9,09788,1","3,1,005,1,+999,9","10,1","SYN072AAXX  22154 08044 41350 7//// 10146 20104 39788 49914 53005 71082 872//;",
"08044099999","2010-02-22T18:00:00","4","42.4333333","-8.6166666","108.0","PONTEVEDRA, SP","FM-12","99999","V020","190,1,N,0046,1","00210,1,9,N","005000,1,N,1","+0127,1","+0099,1","09923,1","12,0099,9,1",,"9,1,06,1","8,1,06,1",,"07,99,1,07,1,03,1,00250,1,99,9,99,9",,,,"999,M,+0146,1","99999,9,09796,1","0,1,008,1,+999,9","25,1","SYN088AAXX  22184 08044 11350 71909 10127 20099 39796 49923 50008 60102 72598 873// 333 10146;",
"08044099999","2010-02-23T06:00:00","4","42.4333333","-8.6166666","108.0","PONTEVEDRA, SP","FM-12","99999","V020","190,1,N,0031,1","00600,1,9,N","010000,1,N,1","+0113,1","+0094,1","09961,1","12,0041,9,1","24,0140,9,1","8,1,06,1",,,"07,99,1,07,1,08,1,00250,1,99,9,99,9","0108,9",,,"999,N,+0096,1","99999,9,09833,1","1,1,008,1,+999,9","29,1","SYN106AAXX  23064 08044 11360 71906 10113 20094 39833 49961 51008 60042 7298/ 878// 333 20096 50124 55018 70140;",
"08044099999","2010-02-23T09:00:00","4","42.4333333","-8.6166666","108.0","PONTEVEDRA, SP","FM-12","99999","V020","999,9,9,9999,9","00210,1,9,N","007000,1,N,1","+0120,1","+0090,1","09972,1",,,"9,1,03,1","8,1,03,1",,"08,99,1,07,1,09,1,00250,1,06,1,99,9",,,,,"99999,9,09844,1","3,1,011,1,+999,9","25,1","SYN072AAXX  23094 08044 41357 8//// 10120 20090 39844 49972 53011 72598 8796/;",
"08044099999","2010-02-23T12:00:00","4","42.4333333","-8.6166666","108.0","PONTEVEDRA, SP","FM-12","99999","V020","999,9,9,9999,9","00600,1,9,N","015000,1,N,1","+0138,1","+0090,1","09993,1","06,0010,9,1",,"9,1,06,1","8,1,06,1",,"07,99,1,05,1,08,1,00250,1,06,1,03,1",,,,,"99999,9,09865,1","2,1,021,1,+999,9","25,1","SYN078AAXX  23124 08044 11365 7//// 10138 20090 39865 49993 52021 60011 72598 85863;",
"08044099999","2010-02-23T15:00:00","4","42.4333333","-8.6166666","108.0","PONTEVEDRA, SP","FM-12","99999","V020","999,9,9,9999,9","00210,1,9,N","007000,1,N,1","+0132,1","+0087,1","09988,1",,,"2,1,03,1","2,1,03,1",,"07,99,1,07,1,09,1,00250,1,99,9,99,9",,,,,"99999,9,09860,1","8,1,005,1,+999,9","10,1","SYN072AAXX  23154 08044 41357 7//// 10132 20087 39860 49988 58005 71022 879//;",
"08044099999","2010-02-23T18:00:00","4","42.4333333","-8.6166666","108.0","PONTEVEDRA, SP","FM-12","99999","V020","999,9,9,9999,9","00600,1,9,N","003000,1,N,1","+0118,1","+0097,1","09983,1","12,0020,9,1",,"9,1,06,1","8,1,06,1",,"08,99,1,08,1,08,1,00250,1,99,9,99,9",,,,"999,M,+0144,1","99999,9,09855,1","8,1,005,1,+999,9","81,1","SYN088AAXX  23184 08044 11330 8//// 10118 20097 39855 49983 58005 60022 78198 888// 333 10144;",
"08044099999","2010-02-24T06:00:00","4","42.4333333","-8.6166666","108.0","PONTEVEDRA, SP","FM-12","99999","V020","190,1,N,0031,1","00600,1,9,N","012000,1,N,1","+0109,1","+0066,1","10060,1","12,0051,9,1","24,0066,9,1",,,,"08,99,1,08,1,08,1,00250,1,99,9,99,9","0114,9",,,"999,N,+0091,1","99999,9,09930,1","1,1,021,1,+999,9","80,1","SYN106AAXX  24064 08044 11362 81906 10109 20066 39930 40060 51021 60052 780// 888// 333 20091 50134 55019 70065;",
"08044099999","2010-02-24T09:00:00","4","42.4333333","-8.6166666","108.0","PONTEVEDRA, SP","FM-12","99999","V020","999,9,9,9999,9","00600,1,9,N","009000,1,N,1","+0108,1","+0087,1","10078,1",,,"8,1,03,1","2,1,03,1",,"08,99,1,05,1,08,1,00250,1,07,1,99,9",,,,,"99999,9,09948,1","2,1,018,1,+999,9","25,1","SYN072AAXX  24094 08044 41359 8//// 10108 20087 39948 40078 52018 72582 8587/;",
"08044099999","2010-02-24T12:00:00","4","42.4333333","-8.6166666","108.0","PONTEVEDRA, SP","FM-12","99999","V020","999,9,9,9999,9","00600,1,9,N","001500,1,N,1","+0140,1","+0132,1","10063,1","06,0079,9,1",,"8,1,06,1","6,1,06,1",,"08,99,1,07,1,08,1,00250,1,07,1,99,9",,,,,"99999,9,09935,1","8,1,013,1,+999,9","65,1","SYN078AAXX  24124 08044 11315 8//// 10140 20132 39935 40063 58013 60081 76586 8787/;",
"08044099999","2010-02-24T15:00:00","4","42.4333333","-8.6166666","108.0","PONTEVEDRA, SP","FM-12","99999","V020","999,9,9,9999,9","00600,1,9,N","003000,1,N,1","+0146,1","+0119,1","10041,1",,,"8,1,03,1","2,1,03,1",,"08,99,1,07,1,08,1,00250,1,07,1,99,9",,,,,"99999,9,09913,1","5,1,022,1,+999,9","80,1","SYN072AAXX  24154 08044 41330 8//// 10146 20119 39913 40041 55022 78082 8787/;",
"08044099999","2010-02-24T18:00:00","4","42.4333333","-8.6166666","108.0","PONTEVEDRA, SP","FM-12","99999","V020","999,9,9,9999,9","00600,1,9,N","002000,1,N,1","+0114,1","+0108,1","10052,1","12,0201,9,1",,"8,1,06,1","2,1,06,1",,"08,99,1,07,1,08,1,00250,1,07,1,99,9",,,,"999,M,+0146,1","99999,9,09923,1","0,1,010,1,+999,9","81,1","SYN088AAXX  24184 08044 11320 8//// 10114 20108 39923 40052 50010 60202 78182 8787/ 333 10146;",
"08044099999","2010-02-25T06:00:00","4","42.4333333","-8.6166666","108.0","PONTEVEDRA, SP","FM-12","99999","V020","200,1,N,0051,1","00600,1,9,N","005000,1,N,1","+0140,1","+0110,1","09956,1","12,0340,9,1","24,0533,9,1",,,,"07,99,1,07,1,08,1,00250,1,00,1,00,1","0000,9","11,9","999,+0110,9","999,N,+0113,1","99999,9,09829,1","5,1,000,1,+999,9","10,1","SYN112AAXX  25064 08044 11350 72010 10140 20110 39829 49956 55000 60342 710// 87800 333 20113 32011 50084 55000 70534;",
"08044099999","2010-02-25T09:00:00","4","42.4333333","-8.6166666","108.0","PONTEVEDRA, SP","FM-12","99999","V020","999,9,9,9999,9","00600,1,9,N","002000,1,N,1","+0124,1","+0111,1","09958,1",,,"8,1,03,1","2,1,03,1",,"08,99,1,08,1,08,1,00250,1,99,9,99,9",,,,,"99999,9,09830,1","0,1,001,1,+999,9","81,1","SYN072AAXX  25094 08044 41320 8//// 10124 20111 39830 49958 50001 78182 888//;",
"08044099999","2010-02-25T12:00:00","4","42.4333333","-8.6166666","108.0","PONTEVEDRA, SP","FM-12","99999","V020","200,1,N,0051,1","00600,1,9,N","010000,1,N,1","+0134,1","+0078,1","09962,1","06,0041,9,1",,"8,1,06,1","2,1,06,1",,"07,99,1,07,1,08,1,00250,1,00,1,00,1",,,,,"99999,9,09835,1","1,1,005,1,+999,9","02,1","SYN078AAXX  25124 08044 11360 72010 10134 20078 39835 49962 51005 60041 70282 87800;",
"08044099999","2010-02-25T15:00:00","4","42.4333333","-8.6166666","108.0","PONTEVEDRA, SP","FM-12","99999","V020","200,1,N,0046,1","00900,1,9,N","008000,1,N,1","+0130,1","+0083,1","09982,1",,,"9,1,03,1","8,1,03,1",,"07,99,1,07,1,08,1,00450,1,00,1,00,1",,,,,"99999,9,09854,1","3,1,019,1,+999,9","15,1","SYN072AAXX  25154 08044 41458 72009 10130 20083 39854 49982 53019 71598 87800;",
"08044099999","2010-02-25T18:00:00","4","42.4333333","-8.6166666","108.0","PONTEVEDRA, SP","FM-12","99999","V020","230,1,N,0026,1","00900,1,9,N","010000,1,N,1","+0110,1","+0082,1","10016,1","12,0061,9,1",,"9,1,06,1","8,1,06,1",,"07,99,1,07,1,08,1,00450,1,00,1,01,1",,,,"999,M,+0141,1","99999,9,09887,1","2,1,033,1,+999,9","02,1","SYN088AAXX  25184 08044 11460 72305 10110 20082 39887 40016 52033 60062 70298 87801 333 10141;",
"08044099999","2010-02-26T06:00:00","4","42.4333333","-8.6166666","108.0","PONTEVEDRA, SP","FM-12","99999","V020","010,1,N,0015,1","03600,1,9,N","012000,1,N,1","+0078,1","+0051,1","10096,1","12,0079,9,1","24,0137,9,1",,,,"06,99,1,04,1,08,1,00450,1,03,1,01,1","0030,9","11,9","999,+0050,9","999,N,+0075,1","99999,9,09964,1","1,1,005,1,+999,9","80,1","SYN112AAXX  26064 08044 11462 60103 10078 20051 39964 40096 51005 60082 780// 84831 333 20075 32005 50114 55005 70137;",
"08044099999","2010-02-26T09:00:00","4","42.4333333","-8.6166666","108.0","PONTEVEDRA, SP","FM-12","99999","V020","999,9,9,9999,9","03600,1,9,N","012000,1,N,1","+0091,1","+0072,1","10109,1",,,"8,1,03,1","2,1,03,1",,"05,99,1,04,1,08,1,00250,1,03,1,01,1",,,,,"99999,9,09978,1","3,1,014,1,+999,9","02,1","SYN072AAXX  26094 08044 41362 5//// 10091 20072 39978 40109 53014 70282 84831;",
"08044099999","2010-02-26T12:00:00","4","42.4333333","-8.6166666","108.0","PONTEVEDRA, SP","FM-12","99999","V020","999,9,9,9999,9","03600,1,9,N","015000,1,N,1","+0122,1","+0081,1","10109,1","06,0005,9,1",,"8,1,06,1","2,1,06,1",,"05,99,1,03,1,02,1,00450,1,03,1,01,1",,,,,"99999,9,09979,1","0,1,001,1,+999,9","02,1","SYN078AAXX  26124 08044 11465 5//// 10122 20081 39979 40109 50001 69941 70282 83231;",
"08044099999","2010-02-26T15:00:00","4","42.4333333","-8.6166666","108.0","PONTEVEDRA, SP","FM-12","99999","V020","999,9,9,9999,9","03600,1,9,N","015000,1,N,1","+0134,1","+0063,1","10094,1",,,,,,"06,99,1,03,1,02,1,00450,1,03,1,01,1",,,,,"99999,9,09965,1","7,1,014,1,+999,9",,"SYN066AAXX  26154 08044 42465 6//// 10134 20063 39965 40094 57014 83231;",
"08044099999","2010-02-26T18:00:00","4","42.4333333","-8.6166666","108.0","PONTEVEDRA, SP","FM-12","99999","V020","999,9,9,9999,9","03600,1,9,N","012000,1,N,1","+0116,1","+0067,1","10081,1","12,0005,9,1",,,,,"08,99,1,04,1,02,1,00800,1,07,1,99,9",,,,"999,M,+0136,1","99999,9,09951,1","8,1,014,1,+999,9",,"SYN082AAXX  26184 08044 12562 8//// 10116 20067 39951 40081 58014 69942 8427/ 333 10136;",
"08044099999","2010-02-27T06:00:00","4","42.4333333","-8.6166666","108.0","PONTEVEDRA, SP","FM-12","99999","V020","030,1,N,0010,1","03600,1,9,N","004000,1,N,1","+0090,1","+0078,1","09934,1","12,0061,9,1","24,0069,9,1",,,,"08,99,1,02,1,05,1,00250,1,02,1,99,9","0246,9","11,9","999,+0080,9","999,N,+0088,1","99999,9,09805,1","7,1,068,2,+999,9","61,1","SYN112AAXX  27064 08044 11340 80302 10090 20078 39805 49934 57068 60062 761// 8252/ 333 20088 32008 50134 55041 70068;","Q01+000682APC3  "
"08044099999","2010-02-27T09:00:00","4","42.4333333","-8.6166666","108.0","PONTEVEDRA, SP","FM-12","99999","V020","150,1,N,0051,1","00060,1,9,N","002000,1,N,1","+0114,1","+0106,1","09852,1",,,"6,1,03,1","2,1,03,1",,"08,99,1,07,1,07,1,00075,1,02,1,99,9",,,,,"99999,9,09725,1","7,1,080,1,+999,9","63,1","SYN072AAXX  27094 08044 41120 81510 10114 20106 39725 49852 57080 76362 8772/;",
"08044099999","2010-02-27T12:00:00","4","42.4333333","-8.6166666","108.0","PONTEVEDRA, SP","FM-12","99999","V020","170,1,N,0062,1","00900,1,9,N","012000,1,N,1","+0155,1","+0132,1","09797,1","06,0211,9,1",,"6,1,06,1","2,1,06,1",,"08,99,1,07,1,08,1,00450,1,07,1,99,9",,,,,"99999,9,09673,1","7,1,052,1,+999,9","21,1","SYN078AAXX  27124 08044 11462 81712 10155 20132 39673 49797 57052 60211 72162 8787/;",
"08044099999","2010-02-27T15:00:00","4","42.4333333","-8.6166666","108.0","PONTEVEDRA, SP","FM-12","99999","V020","180,1,N,0072,1","00900,1,9,N","003000,1,N,1","+0149,1","+0141,1","99999,9",,,"6,1,03,1","2,1,03,1",,"08,99,1,07,1,08,1,00450,1,07,1,99,9",,,,,,"7,1,073,2,+999,9","60,1","SYN072AAXX  27154 08044 41430 81814 10149 20141 39600 49723 57073 76062 8787/;","Q01+096003APOSP "
"08044099999","2010-02-27T18:00:00","4","42.4333333","-8.6166666","108.0","PONTEVEDRA, SP","FM-12","99999","V020","250,1,N,0057,1","00900,1,9,N","002000,1,N,1","+0114,1","+0106,1","09789,1","12,0330,9,1",,"6,1,06,1","2,1,06,1",,"08,99,1,07,1,08,1,00450,1,07,1,99,9",,,,"999,M,+0156,1","99999,9,09663,1","3,1,063,2,+999,9","60,1","SYN088AAXX  27184 08044 11420 82511 10114 20106 39663 49789 53063 60332 76062 8787/ 333 10156;","Q01+000632APC3  "
"08044099999","2010-02-28T06:00:00","4","42.4333333","-8.6166666","108.0","PONTEVEDRA, SP","FM-12","99999","V020","180,1,N,0015,1","00900,1,9,N","008000,1,N,1","+0069,1","+0063,1","10043,1","12,0089,9,1","24,0411,9,1",,,,"08,99,1,07,1,08,1,00450,1,07,1,01,1","0006,9","11,9","999,+0050,9","999,N,+0062,1","99999,9,09912,1","2,1,015,1,+999,9","80,1","SYN112AAXX  28064 08044 11458 81803 10069 20063 39912 40043 52015 60092 780// 87871 333 20062 32005 50054 55001 70412;",
"08044099999","2010-02-28T09:00:00","4","42.4333333","-8.6166666","108.0","PONTEVEDRA, SP","FM-12","99999","V020","110,1,N,0010,1","03600,1,9,N","012000,1,N,1","+0094,1","+0075,1","10050,1",,,"8,1,03,1","2,1,03,1",,"07,99,1,02,1,08,1,00450,1,07,1,02,1",,,,,"99999,9,09920,1","1,1,008,1,+999,9","02,1","SYN072AAXX  28094 08044 41462 71102 10094 20075 39920 40050 51008 70282 82872;",
"08044099999","2010-02-28T12:00:00","4","42.4333333","-8.6166666","108.0","PONTEVEDRA, SP","FM-12","99999","V020","170,1,N,0026,1","03600,1,9,N","003000,1,N,1","+0092,1","+0080,1","10058,1","06,0041,9,1",,"8,1,06,1","6,1,06,1",,"08,99,1,03,1,05,1,00150,1,02,1,99,9",,,,,"99999,9,09928,1","3,1,008,1,+999,9","62,1","SYN078AAXX  28124 08044 11230 81705 10092 20080 39928 40058 53008 60041 76286 8352/;",
"08044099999","2010-02-28T15:00:00","4","42.4333333","-8.6166666","108.0","PONTEVEDRA, SP","FM-12","99999","V020","080,1,N,0015,1","03600,1,9,N","020000,1,N,1","+0084,1","+0062,1","10042,1",,,"6,1,03,1","2,1,03,1",,"08,99,1,03,1,05,1,00800,1,07,1,99,9",,,,,"99999,9,09911,1","8,1,017,1,+999,9","21,1","SYN072AAXX  28154 08044 41570 80803 10084 20062 39911 40042 58017 72162 8357/;",
"08044099999","2010-02-28T18:00:00","4","42.4333333","-8.6166666","108.0","PONTEVEDRA, SP","FM-12","99999","V020","150,1,N,0051,1","03600,1,9,N","020000,1,N,1","+0093,1","+0057,1","10030,1","12,0079,9,1",,"6,1,06,1","2,1,06,1",,"08,99,1,02,1,05,1,00800,1,07,1,99,9",,,,"999,M,+0102,1","99999,9,09900,1","6,1,011,1,+999,9","02,1","SYN088AAXX  28184 08044 11570 81510 10093 20057 39900 40030 56011 60082 70262 8257/ 333 10102;",
"08044099999","2010-03-01T06:00:00","4","42.4333333","-8.6166666","108.0","PONTEVEDRA, SP","FM-12","99999","V020","170,1,N,0036,1","00420,1,9,N","015000,1,N,1","+0082,1","+0065,1","10083,1","12,0109,9,1","24,0191,9,1",,,,"06,99,1,05,1,02,1,00450,1,03,1,00,1","0000,9","11,9","999,+0060,9","999,N,+0072,1","99999,9,09952,1","2,1,012,1,+999,9","02,1","SYN112AAXX  01064 08044 11465 61707 10082 20065 39952 40083 52012 60112 702// 85230 333 20072 32006 50064 55000 70190;",
"08044099999","2010-03-01T09:00:00","4","42.4333333","-8.6166666","108.0","PONTEVEDRA, SP","FM-12","99999","V020","180,1,N,0036,1","00420,1,9,N","002000,1,N,1","+0094,1","+0063,1","10112,1",,,"8,1,03,1","2,1,03,1",,"07,99,1,06,1,02,1,00450,1,03,1,01,1",,,,,"99999,9,09981,1","2,1,029,1,+999,9","81,1","SYN072AAXX  01094 08044 41420 71807 10094 20063 39981 40112 52029 78182 86231;",
"08044099999","2010-03-01T12:00:00","4","42.4333333","-8.6166666","108.0","PONTEVEDRA, SP","FM-12","99999","V020","190,1,N,0015,1","03600,1,9,N","020000,1,N,1","+0104,1","+0088,1","10144,1","06,0079,9,1",,"8,1,06,1","2,1,06,1",,"05,99,1,03,1,08,1,00450,1,03,1,01,1",,,,,"99999,9,10013,1","2,1,032,1,+999,9","27,1","SYN078AAXX  01124 08044 11470 51903 10104 20088 30013 40144 52032 60081 72782 83831;",
"08044099999","2010-03-01T15:00:00","4","42.4333333","-8.6166666","108.0","PONTEVEDRA, SP","FM-12","99999","V020","270,1,N,0021,1","00420,1,9,N","012000,1,N,1","+0122,1","+0087,1","10147,1",,,,,,"05,99,1,05,1,02,1,00450,1,00,1,00,1",,,,,"99999,9,10017,1","1,1,004,1,+999,9",,"SYN066AAXX  01154 08044 42462 52704 10122 20087 30017 40147 51004 85200;",
"08044099999","2010-03-01T18:00:00","4","42.4333333","-8.6166666","108.0","PONTEVEDRA, SP","FM-12","99999","V020","170,1,N,0015,1","22000,1,9,N","010000,1,N,1","+0108,1","+0079,1","10155,1","12,0079,9,1",,,,,"03,99,1,01,1,02,1,00450,1,03,1,01,1",,,,"999,M,+0128,1","99999,9,10024,1","1,1,007,1,+999,9",,"SYN082AAXX  01184 08044 12460 31703 10108 20079 30024 40155 51007 60082 81231 333 10128;",
"08044099999","2010-03-02T06:00:00","4","42.4333333","-8.6166666","108.0","PONTEVEDRA, SP","FM-12","99999","V020","040,1,N,0021,1","03600,1,9,N","015000,1,N,1","+0110,1","+0038,1","10111,1","12,0000,9,1","24,0076,9,1",,,,"07,99,1,01,1,01,1,00800,1,03,1,01,1","0354,9","09,9","999,+0040,9","999,N,+0075,1","99999,9,09981,1","7,1,023,1,+999,9","02,1","SYN112AAXX  02064 08044 11565 70404 10110 20038 39981 40111 57023 60002 702// 81131 333 20075 31004 50104 55059 70076;","Q01  00002PRCP12"
"08044099999","2010-03-02T09:00:00","4","42.4333333","-8.6166666","108.0","PONTEVEDRA, SP","FM-12","99999","V020","330,1,N,0021,1","09000,1,9,N","020000,1,N,1","+0120,1","+0040,1","10094,1",,,,,,"07,99,1,02,1,00,1,02250,1,03,1,08,1",,,,,"99999,9,09964,1","6,1,017,1,+999,9",,"SYN066AAXX  02094 08044 42870 73304 10120 20040 39964 40094 56017 82038;",
"08044099999","2010-03-02T12:00:00","4","42.4333333","-8.6166666","108.0","PONTEVEDRA, SP","FM-12","99999","V020","999,9,9,9999,9","99999,9,9,N","020000,1,N,1","+0162,1","+0019,1","10078,1","06,0000,9,1",,,,,"07,99,1,00,1,00,1,99999,9,00,1,02,1",,,,,"99999,9,09950,1","8,1,014,1,+999,9",,"SYN072AAXX  02124 08044 12970 7//// 10162 20019 39950 40078 58014 60001 80002;","Q01  00002PRCP06"
"08044099999","2010-03-02T15:00:00","4","42.4333333","-8.6166666","108.0","PONTEVEDRA, SP","FM-12","99999","V020","060,1,N,0026,1","09000,1,9,N","020000,1,N,1","+0186,1","+0040,1","10042,1",,,,,,"07,99,1,01,1,00,1,02250,1,03,1,08,1",,,,,"99999,9,09916,1","7,1,034,1,+999,9",,"SYN066AAXX  02154 08044 42870 70605 10186 20040 39916 40042 57034 81038;",
"08044099999","2010-03-02T18:00:00","4","42.4333333","-8.6166666","108.0","PONTEVEDRA, SP","FM-12","99999","V020","100,1,N,0021,1","09000,1,9,N","020000,1,N,1","+0172,1","+0045,1","10030,1","12,0000,9,1",,,,,"08,99,1,03,1,00,1,02250,1,05,1,07,1",,,,"999,M,+0186,1","99999,9,09903,1","6,1,013,1,+999,9",,"SYN082AAXX  02184 08044 12870 81004 10172 20045 39903 40030 56013 60002 83057 333 10186;","Q01  00002PRCP12"
"08044099999","2010-03-03T06:00:00","4","42.4333333","-8.6166666","108.0","PONTEVEDRA, SP","FM-12","99999","V020","050,1,N,0021,1","02100,1,9,N","015000,1,N,1","+0110,1","+0086,1","10031,1","12,0010,9,1","24,0010,9,1",,,,"08,99,1,06,1,00,1,02250,1,07,1,01,1","0192,9","11,9","999,+0100,9","999,N,+0108,1","99999,9,09902,1","1,1,004,1,+999,9","02,1","SYN112AAXX  03064 08044 11865 80504 10110 20086 39902 40031 51004 60012 702// 86071 333 20108 32010 50364 55032 70010;",
"08044099999","2010-03-03T09:00:00","4","42.4333333","-8.6166666","108.0","PONTEVEDRA, SP","FM-12","99999","V020","060,1,N,0021,1","03600,1,9,N","008000,1,N,1","+0102,1","+0090,1","10048,1",,,"6,1,03,1","2,1,03,1",,"08,99,1,03,1,05,1,00800,1,02,1,99,9",,,,,"99999,9,09918,1","3,1,016,1,+999,9","61,1","SYN072AAXX  03094 08044 41558 80604 10102 20090 39918 40048 53016 76162 8352/;",
"08044099999","2010-03-03T12:00:00","4","42.4333333","-8.6166666","108.0","PONTEVEDRA, SP","FM-12","99999","V020","030,1,N,0015,1","03600,1,9,N","008000,1,N,1","+0121,1","+0108,1","10064,1","06,0030,9,1",,"6,1,06,1","2,1,06,1",,"08,99,1,01,1,07,1,00025,1,02,1,99,9",,,,,"99999,9,09935,1","2,1,017,1,+999,9","61,1","SYN078AAXX  03124 08044 11058 80303 10121 20108 39935 40064 52017 60031 76162 8172/;",
"08044099999","2010-03-03T15:00:00","4","42.4333333","-8.6166666","108.0","PONTEVEDRA, SP","FM-12","99999","V020","320,1,N,0021,1","00900,1,9,N","008000,1,N,1","+0138,1","+0104,1","10065,1",,,"8,1,03,1","6,1,03,1",,"08,99,1,06,1,08,1,00450,1,07,1,99,9",,,,,"99999,9,09937,1","1,1,002,1,+999,9","80,1","SYN072AAXX  03154 08044 41458 83204 10138 20104 39937 40065 51002 78086 8687/;",
"08044099999","2010-03-03T18:00:00","4","42.4333333","-8.6166666","108.0","PONTEVEDRA, SP","FM-12","99999","V020","330,1,N,0015,1","03600,1,9,N","012000,1,N,1","+0134,1","+0104,1","10078,1","12,0030,9,1",,"8,1,06,1","2,1,06,1",,"05,99,1,03,1,08,1,00450,1,06,1,02,1",,,,"999,M,+0146,1","99999,9,09949,1","3,1,012,1,+999,9","01,1","SYN088AAXX  03184 08044 11462 53303 10134 20104 39949 40078 53012 60032 70182 83862 333 10146;",
"08044099999","2010-03-04T06:00:00","4","42.4333333","-8.6166666","108.0","PONTEVEDRA, SP","FM-12","99999","V020","080,1,N,0021,1","22000,1,9,N","012000,1,N,1","+0084,1","+0067,1","10136,1","12,0000,9,1","24,0033,9,1",,,"00,1,+99999,9,99,9","00,99,1,00,1,00,1,99999,9,00,1,00,1","0012,9",,,"999,N,+0084,1","99999,9,10004,1","1,1,008,1,+999,9","02,1","SYN100AAXX  04064 08044 11962 00804 10084 20067 30004 40136 51008 60002 702// 333 20084 50244 55002 70034;","Q01  00002PRCP12"
"08044099999","2010-03-04T09:00:00","4","42.4333333","-8.6166666","108.0","PONTEVEDRA, SP","FM-12","99999","V020","360,1,N,0010,1","22000,1,9,N","012000,1,N,1","+0110,1","+0073,1","10152,1",,,,,,"02,99,1,01,1,01,1,00800,1,00,1,01,1",,,,,"99999,9,10021,1","2,1,017,1,+999,9",,"SYN066AAXX  04094 08044 42562 23602 10110 20073 30021 40152 52017 81101;",
"08044099999","2010-03-04T12:00:00","4","42.4333333","-8.6166666","108.0","PONTEVEDRA, SP","FM-12","99999","V020","350,1,N,0021,1","22000,1,9,N","015000,1,N,1","+0144,1","+0081,1","10152,1","06,0000,9,1",,,,,"04,99,1,03,1,01,1,00800,1,00,1,01,1",,,,,"99999,9,10023,1","1,1,002,1,+999,9",,"SYN072AAXX  04124 08044 12565 43504 10144 20081 30023 40152 51002 60001 83101;","Q01  00002PRCP06"
"08044099999","2010-03-04T15:00:00","4","42.4333333","-8.6166666","108.0","PONTEVEDRA, SP","FM-12","99999","V020","350,1,N,0026,1","22000,1,9,N","015000,1,N,1","+0162,1","+0072,1","10147,1",,,,,,"05,99,1,04,1,08,1,00800,1,00,1,01,1",,,,,"99999,9,10018,1","8,1,005,1,+999,9",,"SYN066AAXX  04154 08044 42565 53505 10162 20072 30018 40147 58005 84801;",
"08044099999","2010-03-04T18:00:00","4","42.4333333","-8.6166666","108.0","PONTEVEDRA, SP","FM-12","99999","V020","260,1,N,0026,1","22000,1,9,N","015000,1,N,1","+0140,1","+0056,1","10146,1","12,0000,9,1",,,,,"06,99,1,01,1,05,1,00800,1,00,1,04,1",,,,"999,M,+0164,1","99999,9,10016,1","5,1,002,1,+999,9",,"SYN082AAXX  04184 08044 12565 62605 10140 20056 30016 40146 55002 60002 81504 333 10164;","Q01  00002PRCP12"
"08044099999","2010-03-05T06:00:00","4","42.4333333","-8.6166666","108.0","PONTEVEDRA, SP","FM-12","99999","V020","150,1,N,0010,1","22000,1,9,N","012000,1,N,1","+0070,1","+0038,1","10134,1","12,0000,9,1","24,0000,9,1",,,,"07,99,1,01,1,05,1,00800,1,00,1,04,1","0534,9",,,"999,N,+0069,1","99999,9,10001,1","7,1,013,1,+999,9","02,1","SYN106AAXX  05064 08044 11562 71502 10070 20038 30001 40134 57013 60002 702// 81504 333 20069 50104 55089 70000;","Q01  00002PRCP24Q02  00002PRCP12"
"08044099999","2010-03-05T09:00:00","4","42.4333333","-8.6166666","108.0","PONTEVEDRA, SP","FM-12","99999","V020","050,1,N,0010,1","00750,1,9,N","015000,1,N,1","+0094,1","+0046,1","10130,1",,,,,,"08,99,1,06,1,05,1,00800,1,00,1,04,1",,,,,"99999,9,09999,1","7,1,002,1,+999,9",,"SYN066AAXX  05094 08044 42565 80502 10094 20046 39999 40130 57002 86504;",
"08044099999","2010-03-05T12:00:00","4","42.4333333","-8.6166666","108.0","PONTEVEDRA, SP","FM-12","99999","V020","090,1,N,0015,1","00750,1,9,N","020000,1,N,1","+0131,1","+0050,1","10123,1","06,0000,9,1",,,,,"08,99,1,06,1,05,1,00800,1,07,1,07,1",,,,,"99999,9,09993,1","6,1,006,1,+999,9",,"SYN072AAXX  05124 08044 12570 80903 10131 20050 39993 40123 56006 60001 86577;","Q01  00002PRCP06"
"08044099999","2010-03-05T15:00:00","4","42.4333333","-8.6166666","108.0","PONTEVEDRA, SP","FM-12","99999","V020","170,1,N,0010,1","03600,1,9,N","012000,1,N,1","+0120,1","+0056,1","10112,1",,,"2,1,03,1","2,1,03,1",,"08,99,1,04,1,05,1,00800,1,07,1,07,1",,,,,"99999,9,09982,1","8,1,011,1,+999,9","61,1","SYN072AAXX  05154 08044 41562 81702 10120 20056 39982 40112 58011 76122 84577;",
"08044099999","2010-03-05T18:00:00","4","42.4333333","-8.6166666","108.0","PONTEVEDRA, SP","FM-12","99999","V020","050,1,N,0026,1","01200,1,9,N","012000,1,N,1","+0114,1","+0029,1","10110,1","12,0005,9,1",,"6,1,06,1","2,1,06,1",,"08,99,1,08,1,08,1,00800,1,99,9,99,9",,,,"999,M,+0135,1","99999,9,09980,1","6,1,002,1,+999,9","02,1","SYN088AAXX  05184 08044 11562 80505 10114 20029 39980 40110 56002 69942 70262 888// 333 10135;",
"08044099999","2010-03-06T06:00:00","4","42.4333333","-8.6166666","108.0","PONTEVEDRA, SP","FM-12","99999","V020","360,1,N,0026,1","03600,1,9,N","012000,1,N,1","+0111,1","+0027,1","10072,1","12,0000,9,1","24,0005,9,1",,,,"07,99,1,01,1,07,1,00450,1,07,1,01,1","0000,9",,,"999,N,+0100,1","99999,9,09942,1","6,1,013,1,+999,9","02,1","SYN106AAXX  06064 08044 11462 73605 10111 20027 39942 40072 56013 60002 702/2 81771 333 20100 50074 55000 70004;","Q01  00002PRCP12"
"08044099999","2010-03-06T09:00:00","4","42.4333333","-8.6166666","108.0","PONTEVEDRA, SP","FM-12","99999","V020","080,1,N,0036,1","01200,1,9,N","020000,1,N,1","+0114,1","+0029,1","10074,1",,,,,,"08,99,1,06,1,08,1,00800,1,07,1,99,9",,,,,"99999,9,09944,1","3,1,002,1,+999,9",,"SYN066AAXX  06094 08044 42570 80807 10114 20029 39944 40074 53002 8687/;",
"08044099999","2010-03-06T12:00:00","4","42.4333333","-8.6166666","108.0","PONTEVEDRA, SP","FM-12","99999","V020","030,1,N,0021,1","03600,1,9,N","020000,1,N,1","+0142,1","+0045,1","10076,1","06,0000,9,1",,,,,"08,99,1,03,1,05,1,00800,1,07,1,99,9",,,,,"99999,9,09947,1","1,1,003,1,+999,9",,"SYN072AAXX  06124 08044 12570 80304 10142 20045 39947 40076 51003 60001 8357/;","Q01  00002PRCP06"
"08044099999","2010-03-06T15:00:00","4","42.4333333","-8.6166666","108.0","PONTEVEDRA, SP","FM-12","99999","V020","140,1,N,0026,1","01500,1,9,N","020000,1,N,1","+0163,1","+0044,1","10065,1",,,,,,"08,99,1,08,1,00,1,01750,1,07,1,99,9",,,,,"99999,9,09937,1","6,1,010,1,+999,9",,"SYN066AAXX  06154 08044 42770 81405 10163 20044 39937 40065 56010 8807/;",
"08044099999","2010-03-06T18:00:00","4","42.4333333","-8.6166666","108.0","PONTEVEDRA, SP","FM-12","99999","V020","140,1,N,0021,1","03600,1,9,N","020000,1,N,1","+0150,1","+0052,1","10073,1","12,0000,9,1",,,,,"07,99,1,03,1,05,1,00800,1,04,1,99,9",,,,"999,M,+0168,1","99999,9,09945,1","3,1,008,1,+999,9",,"SYN082AAXX  06184 08044 12570 71404 10150 20052 39945 40073 53008 60002 8354/ 333 10168;","Q01  00002PRCP12"
"08044099999","2010-03-07T06:00:00","4","42.4333333","-8.6166666","108.0","PONTEVEDRA, SP","FM-12","99999","V020","050,1,N,0015,1","00420,1,9,N","008000,1,N,1","+0095,1","+0083,1","10100,1","12,0010,9,1","24,0010,9,1",,,,"08,99,1,08,1,07,1,00450,1,99,9,99,9","0018,9",,,"999,N,+0095,1","99999,9,09969,1","6,1,002,1,+999,9","51,1","SYN106AAXX  07064 08044 11458 80503 10095 20083 39969 40100 56002 60012 751/5 887// 333 20095 50044 55003 70010;",
"08044099999","2010-03-07T09:00:00","4","42.4333333","-8.6166666","108.0","PONTEVEDRA, SP","FM-12","99999","V020","040,1,N,0015,1","00210,1,9,N","002000,1,N,1","+0096,1","+0091,1","10105,1",,,"5,1,03,1","5,1,03,1",,"08,99,1,08,1,07,1,00250,1,99,9,99,9",,,,,"99999,9,09974,1","3,1,005,1,+999,9","10,1","SYN072AAXX  07094 08044 41320 80403 10096 20091 39974 40105 53005 71055 887//;",
"08044099999","2010-03-07T12:00:00","4","42.4333333","-8.6166666","108.0","PONTEVEDRA, SP","FM-12","99999","V020","320,1,N,0015,1","00210,1,9,N","006000,1,N,1","+0115,1","+0112,1","10104,1","06,0020,9,1",,"5,1,06,1","5,1,06,1",,"08,99,1,08,1,07,1,00250,1,99,9,99,9",,,,,"99999,9,09974,1","0,1,000,1,+999,9","50,1","SYN078AAXX  07124 08044 11356 83203 10115 20112 39974 40104 50000 60021 75055 887//;",
"08044099999","2010-03-07T15:00:00","4","42.4333333","-8.6166666","108.0","PONTEVEDRA, SP","FM-12","99999","V020","170,1,N,0005,1","00420,1,9,N","008000,1,N,1","+0118,1","+0109,1","10103,1",,,"5,1,03,1","5,1,03,1",,"08,99,1,08,1,07,1,00450,1,99,9,99,9",,,,,"99999,9,09973,1","6,1,001,1,+999,9","50,1","SYN072AAXX  07154 08044 41458 81701 10118 20109 39973 40103 56001 75055 887//;",
"08044099999","2010-03-07T18:00:00","4","42.4333333","-8.6166666","108.0","PONTEVEDRA, SP","FM-12","99999","V020","330,1,N,0021,1","00420,1,9,N","012000,1,N,1","+0113,1","+0097,1","10102,1","12,0020,9,1",,"5,1,06,1","2,1,06,1",,"08,99,1,08,1,07,1,00450,1,99,9,99,9",,,,"999,M,+0123,1","99999,9,09972,1","6,1,001,1,+999,9","02,1","SYN088AAXX  07184 08044 11462 83304 10113 20097 39972 40102 56001 60022 70252 887// 333 10123;",
"08044099999","2010-03-08T06:00:00","4","42.4333333","-8.6166666","108.0","PONTEVEDRA, SP","FM-12","99999","V020","050,1,N,0026,1","22000,1,9,N","015000,1,N,1","+0022,1","-0045,1","10121,1","12,0000,9,1","24,0023,9,1",,,"00,1,+99999,9,99,9","00,99,1,00,1,00,1,99999,9,00,1,00,1","0000,9",,,"999,N,+0020,1","99999,9,09986,1","5,1,000,1,+999,9","00,1","SYN100AAXX  08064 08044 11965 00505 10022 21045 39986 40121 55000 60002 700// 333 20020 50094 55000 70023;","Q01  00002PRCP12"
"08044099999","2010-03-08T09:00:00","4","42.4333333","-8.6166666","108.0","PONTEVEDRA, SP","FM-12","99999","V020","320,1,N,0010,1","22000,1,9,N","020000,1,N,1","+0060,1","-0028,1","10119,1",,,,,,"04,99,1,00,1,00,1,99999,9,00,1,04,1",,,,,"99999,9,09986,1","0,1,000,1,+999,9",,"SYN066AAXX  08094 08044 42970 43202 10060 21028 39986 40119 50000 80004;",
"08044099999","2010-03-08T12:00:00","4","42.4333333","-8.6166666","108.0","PONTEVEDRA, SP","FM-12","99999","V020","090,1,N,0026,1","01500,1,9,N","020000,1,N,1","+0088,1","-0054,1","10111,1","06,0000,9,1",,,,,"08,99,1,08,1,00,1,01750,1,07,1,99,9",,,,,"99999,9,09979,1","8,1,007,1,+999,9",,"SYN072AAXX  08124 08044 12770 80905 10088 21054 39979 40111 58007 60001 8807/;","Q01  00002PRCP06"
"08044099999","2010-03-08T15:00:00","4","42.4333333","-8.6166666","108.0","PONTEVEDRA, SP","FM-12","99999","V020","090,1,N,0015,1","01500,1,9,N","020000,1,N,1","+0104,1","-0016,1","10075,1",,,,,,"08,99,1,08,1,00,1,01750,1,07,1,99,9",,,,,"99999,9,09945,1","7,1,034,1,+999,9",,"SYN066AAXX  08154 08044 42770 80903 10104 21016 39945 40075 57034 8807/;",
"08044099999","2010-03-08T18:00:00","4","42.4333333","-8.6166666","108.0","PONTEVEDRA, SP","FM-12","99999","V020","050,1,N,0005,1","01500,1,9,N","020000,1,N,1","+0092,1","-0027,1","10068,1","12,0000,9,1",,,,,"08,99,1,08,1,00,1,01750,1,07,1,99,9",,,,"999,M,+0105,1","99999,9,09937,1","7,1,008,1,+999,9",,"SYN082AAXX  08184 08044 12770 80501 10092 21027 39937 40068 57008 60002 8807/ 333 10105;","Q01  00002PRCP12"
"08044099999","2010-03-09T06:00:00","4","42.4333333","-8.6166666","108.0","PONTEVEDRA, SP","FM-12","99999","V020","240,1,N,0010,1","22000,1,9,N","020000,1,N,1","+0038,1","-0039,1","10135,1","12,0000,9,1","24,0000,9,1",,,"00,1,+99999,9,99,9","00,99,1,00,1,00,1,99999,9,00,1,00,1","0000,9",,,"999,N,+0030,1","99999,9,10001,1","2,1,016,1,+999,9","00,1","SYN100AAXX  09064 08044 11970 02402 10038 21039 30001 40135 52016 60002 700// 333 20030 50204 55000 70000;","Q01  00002PRCP24Q02  00002PRCP12"
"08044099999","2010-03-09T09:00:00","4","42.4333333","-8.6166666","108.0","PONTEVEDRA, SP","FM-12","99999","V020","050,1,N,0021,1","22000,1,9,N","020000,1,N,1","+0068,1","-0016,1","10159,1",,,,,"00,1,+99999,9,99,9","00,99,1,00,1,00,1,99999,9,00,1,00,1",,,,,"99999,9,10026,1","2,1,025,1,+999,9",,"SYN060AAXX  09094 08044 42970 00504 10068 21016 30026 40159 52025;",
"08044099999","2010-03-09T12:00:00","4","42.4333333","-8.6166666","108.0","PONTEVEDRA, SP","FM-12","99999","V020","040,1,N,0041,1","22000,1,9,N","020000,1,N,1","+0120,1","-0019,1","10164,1","06,0000,9,1",,,,"00,1,+99999,9,99,9","00,99,1,00,1,00,1,99999,9,00,1,00,1",,,,,"99999,9,10033,1","1,1,007,1,+999,9",,"SYN066AAXX  09124 08044 12970 00408 10120 21019 30033 40164 51007 60001;","Q01  00002PRCP06"
"08044099999","2010-03-09T15:00:00","4","42.4333333","-8.6166666","108.0","PONTEVEDRA, SP","FM-12","99999","V020","030,1,N,0031,1","22000,1,9,N","020000,1,N,1","+0139,1","-0034,1","10154,1",,,,,,"01,99,1,00,1,00,1,99999,9,00,1,01,1",,,,,"99999,9,10024,1","8,1,009,1,+999,9",,"SYN066AAXX  09154 08044 42970 10306 10139 21034 30024 40154 58009 80001;",
"08044099999","2010-03-09T18:00:00","4","42.4333333","-8.6166666","108.0","PONTEVEDRA, SP","FM-12","99999","V020","350,1,N,0026,1","22000,1,9,N","020000,1,N,1","+0116,1","-0012,1","10159,1","12,0000,9,1",,,,"00,1,+99999,9,99,9","00,99,1,00,1,00,1,99999,9,00,1,00,1",,,,"999,M,+0140,1","99999,9,10028,1","3,1,004,1,+999,9",,"SYN076AAXX  09184 08044 12970 03505 10116 21012 30028 40159 53004 60002 333 10140;","Q01  00002PRCP12"
"08044099999","2010-03-10T06:00:00","4","42.4333333","-8.6166666","108.0","PONTEVEDRA, SP","FM-12","99999","V020","130,1,N,0010,1","22000,1,9,N","015000,1,N,1","+0008,1","-0038,1","10175,1","12,0000,9,1","24,0000,9,1",,,"00,1,+99999,9,99,9","00,99,1,00,1,00,1,99999,9,00,1,00,1","0654,9",,,"999,N,+0007,1","99999,9,10039,1","5,1,002,1,+999,9",,"SYN094AAXX  10064 08044 12965 01302 10008 21038 30039 40175 55002 60002 333 20007 50214 55109 70000;","Q01  00002PRCP24Q02  00002PRCP12"
"08044099999","2010-03-10T09:00:00","4","42.4333333","-8.6166666","108.0","PONTEVEDRA, SP","FM-12","99999","V020","020,1,N,0005,1","22000,1,9,N","020000,1,N,1","+0051,1","-0022,1","10177,1",,,,,"00,1,+99999,9,99,9","00,99,1,00,1,00,1,99999,9,00,1,00,1",,,,,"99999,9,10043,1","2,1,004,1,+999,9",,"SYN060AAXX  10094 08044 42970 00201 10051 21022 30043 40177 52004;",
"08044099999","2010-03-10T12:00:00","4","42.4333333","-8.6166666","108.0","PONTEVEDRA, SP","FM-12","99999","V020","010,1,N,0036,1","22000,1,9,N","020000,1,N,1","+0125,1","-0037,1","10162,1","06,0000,9,1",,,,,"03,99,1,00,1,00,1,99999,9,00,1,04,1",,,,,"99999,9,10031,1","7,1,012,1,+999,9",,"SYN072AAXX  10124 08044 12970 30107 10125 21037 30031 40162 57012 60001 80004;","Q01  00002PRCP06"
"08044099999","2010-03-10T15:00:00","4","42.4333333","-8.6166666","108.0","PONTEVEDRA, SP","FM-12","99999","V020","010,1,N,0036,1","22000,1,9,N","020000,1,N,1","+0135,1","-0016,1","10149,1",,,,,,"03,99,1,00,1,00,1,99999,9,00,1,04,1",,,,,"99999,9,10019,1","7,1,012,1,+999,9",,"SYN066AAXX  10154 08044 42970 30107 10135 21016 30019 40149 57012 80004;",
"08044099999","2010-03-10T18:00:00","4","42.4333333","-8.6166666","108.0","PONTEVEDRA, SP","FM-12","99999","V020","010,1,N,0041,1","22000,1,9,N","015000,1,N,1","+0103,1","-0024,1","10150,1","12,0000,9,1",,,,,"03,99,1,00,1,00,1,99999,9,00,1,01,1",,,,"999,M,+0140,1","99999,9,10019,1","4,1,000,1,+999,9",,"SYN082AAXX  10184 08044 12965 30108 10103 21024 30019 40150 54000 60002 80001 333 10140;","Q01  00002PRCP12"
"08044099999","2010-03-11T06:00:00","4","42.4333333","-8.6166666","108.0","PONTEVEDRA, SP","FM-12","99999","V020","360,1,N,0026,1","22000,1,9,N","012000,1,N,1","+0044,1","-0048,1","10153,1","12,0000,9,1","24,0000,9,1",,,"00,1,+99999,9,99,9","00,99,1,00,1,00,1,99999,9,00,1,00,1","0648,9",,,"999,N,+0044,1","99999,9,10019,1","5,1,000,1,+999,9","00,1","SYN100AAXX  11064 08044 11962 03605 10044 21048 30019 40153 55000 60002 700/0 333 20044 50284 55108 70000;","Q01  00002PRCP24Q02  00002PRCP12"
"08044099999","2010-03-11T09:00:00","4","42.4333333","-8.6166666","108.0","PONTEVEDRA, SP","FM-12","99999","V020","330,1,N,0015,1","22000,1,9,N","015000,1,N,1","+0071,1","-0029,1","10156,1",,,,,"00,1,+99999,9,99,9","00,99,1,00,1,00,1,99999,9,00,1,00,1",,,,,"99999,9,10023,1","3,1,004,1,+999,9",,"SYN060AAXX  11094 08044 42965 03303 10071 21029 30023 40156 53004;",
"08044099999","2010-03-11T12:00:00","4","42.4333333","-8.6166666","108.0","PONTEVEDRA, SP","FM-12","99999","V020","080,1,N,0041,1","22000,1,9,N","020000,1,N,1","+0124,1","-0026,1","10154,1","06,0000,9,1",,,,,"01,99,1,00,1,00,1,99999,9,00,1,01,1",,,,,"99999,9,10023,1","4,1,000,1,+999,9",,"SYN072AAXX  11124 08044 12970 10808 10124 21026 30023 40154 54000 60001 80001;","Q01  00002PRCP06"
"08044099999","2010-03-11T15:00:00","4","42.4333333","-8.6166666","108.0","PONTEVEDRA, SP","FM-12","99999","V020","140,1,N,0031,1","22000,1,9,N","020000,1,N,1","+0130,1","-0037,1","10143,1",,,,,,"01,99,1,00,1,00,1,99999,9,00,1,01,1",,,,,"99999,9,10013,1","6,1,010,1,+999,9",,"SYN066AAXX  11154 08044 42970 11406 10130 21037 30013 40143 56010 80001;",
"08044099999","2010-03-11T18:00:00","4","42.4333333","-8.6166666","108.0","PONTEVEDRA, SP","FM-12","99999","V020","350,1,N,0036,1","22000,1,9,N","012000,1,N,1","+0116,1","-0009,1","10144,1","12,0000,9,1",,,,,"01,99,1,00,1,00,1,99999,9,00,1,01,1",,,,"999,M,+0137,1","99999,9,10013,1","4,1,000,1,+999,9",,"SYN082AAXX  11184 08044 12962 13507 10116 21009 30013 40144 54000 60002 80001 333 10137;","Q01  00002PRCP12"
"08044099999","2010-03-12T06:00:00","4","42.4333333","-8.6166666","108.0","PONTEVEDRA, SP","FM-12","99999","V020","030,1,N,0036,1","22000,1,9,N","012000,1,N,1","+0046,1","-0020,1","10198,1","12,0000,9,1","24,0000,9,1",,,,"01,99,1,00,1,00,1,99999,9,00,1,01,1","0642,9",,,"999,N,+0044,1","99999,9,10063,1","3,1,012,1,+999,9","02,1","SYN106AAXX  12064 08044 11962 10307 10046 21020 30063 40198 53012 60002 702// 80001 333 20044 50304 55107 70000;","Q01  00002PRCP24Q02  00002PRCP12"
"08044099999","2010-03-12T09:00:00","4","42.4333333","-8.6166666","108.0","PONTEVEDRA, SP","FM-12","99999","V020","250,1,N,0015,1","99999,9,9,N","020000,1,N,1","+0070,1","-0002,1","10220,1",,,,,,"05,99,1,00,1,00,1,99999,9,00,1,04,1",,,,,"99999,9,10086,1","2,1,023,1,+999,9",,"SYN066AAXX  12094 08044 42970 52503 10070 21002 30086 40220 52023 80004;",
"08044099999","2010-03-12T12:00:00","4","42.4333333","-8.6166666","108.0","PONTEVEDRA, SP","FM-12","99999","V020","350,1,N,0036,1","22000,1,9,N","020000,1,N,1","+0126,1","-0003,1","10217,1","06,0000,9,1",,,,,"04,99,1,01,1,05,1,00800,1,00,1,04,1",,,,,"99999,9,10086,1","0,1,000,1,+999,9",,"SYN072AAXX  12124 08044 12570 43507 10126 21003 30086 40217 50000 60001 81504;","Q01  00002PRCP06"
"08044099999","2010-03-12T15:00:00","4","42.4333333","-8.6166666","108.0","PONTEVEDRA, SP","FM-12","99999","V020","350,1,N,0082,1","22000,1,9,N","015000,1,N,1","+0133,1","-0007,1","10214,1",,,,,,"05,99,1,01,1,05,1,00800,1,00,1,04,1",,,,,"99999,9,10083,1","6,1,003,1,+999,9",,"SYN066AAXX  12154 08044 42565 53516 10133 21007 30083 40214 56003 81504;",
"08044099999","2010-03-12T18:00:00","4","42.4333333","-8.6166666","108.0","PONTEVEDRA, SP","FM-12","99999","V020","350,1,N,0041,1","22000,1,9,N","015000,1,N,1","+0110,1","+0001,1","10227,1","12,0000,9,1",,,,,"02,99,1,00,1,00,1,99999,9,00,1,02,1",,,,"999,M,+0140,1","99999,9,10095,1","3,1,012,1,+999,9",,"SYN082AAXX  12184 08044 12965 23508 10110 20001 30095 40227 53012 60002 80002 333 10140;","Q01  00002PRCP12"
"08044099999","2010-03-13T06:00:00","4","42.4333333","-8.6166666","108.0","PONTEVEDRA, SP","FM-12","99999","V020","140,1,N,0005,1","22000,1,9,N","015000,1,N,1","+0039,1","-0011,1","10275,1","12,0000,9,1","24,0000,9,1",,,"00,1,+99999,9,99,9","00,99,1,00,1,00,1,99999,9,00,1,00,1","0606,9",,,"999,N,+0039,1","99999,9,10139,1","3,1,004,1,+999,9","00,1","SYN100AAXX  13064 08044 11965 01401 10039 21011 30139 40275 53004 60002 700// 333 20039 50204 55101 70000;","Q01  00002PRCP24Q02  00002PRCP12"
"08044099999","2010-03-13T09:00:00","4","42.4333333","-8.6166666","108.0","PONTEVEDRA, SP","FM-12","99999","V020","240,1,N,0010,1","22000,1,9,N","015000,1,N,1","+0075,1","+0000,1","10286,1",,,,,,"01,99,1,01,1,05,1,00800,1,00,1,01,1",,,,,"99999,9,10152,1","2,1,013,1,+999,9",,"SYN066AAXX  13094 08044 42565 12402 10075 20000 30152 40286 52013 81501;",
"08044099999","2010-03-13T12:00:00","4","42.4333333","-8.6166666","108.0","PONTEVEDRA, SP","FM-12","99999","V020","330,1,N,0031,1","01200,1,9,N","015000,1,N,1","+0116,1","+0031,1","10288,1","06,0000,9,1",,,,,"07,99,1,07,1,08,1,00800,1,00,1,00,1",,,,,"99999,9,10155,1","1,1,003,1,+999,9",,"SYN072AAXX  13124 08044 12565 73306 10116 20031 30155 40288 51003 60001 87800;","Q01  00002PRCP06"
"08044099999","2010-03-13T15:00:00","4","42.4333333","-8.6166666","108.0","PONTEVEDRA, SP","FM-12","99999","V020","330,1,N,0041,1","22000,1,9,N","015000,1,N,1","+0118,1","+0036,1","10275,1",,,,,,"04,99,1,04,1,08,1,00800,1,00,1,00,1",,,,,"99999,9,10143,1","8,1,012,1,+999,9",,"SYN066AAXX  13154 08044 42565 43308 10118 20036 30143 40275 58012 84800;",
"08044099999","2010-03-13T18:00:00","4","42.4333333","-8.6166666","108.0","PONTEVEDRA, SP","FM-12","99999","V020","360,1,N,0036,1","22000,1,9,N","015000,1,N,1","+0108,1","+0031,1","10277,1","12,0000,9,1",,,,,"02,99,1,02,1,04,1,00450,1,00,1,00,1",,,,"999,M,+0132,1","99999,9,10144,1","3,1,001,1,+999,9",,"SYN082AAXX  13184 08044 12465 23607 10108 20031 30144 40277 53001 60002 82400 333 10132;","Q01  00002PRCP12"
"08044099999","2010-03-14T06:00:00","4","42.4333333","-8.6166666","108.0","PONTEVEDRA, SP","FM-12","99999","V020","060,1,N,0010,1","22000,1,9,N","020000,1,N,1","+0040,1","+0000,1","10296,1","12,0000,9,1","24,0000,9,1",,,"00,1,+99999,9,99,9","00,99,1,00,1,00,1,99999,9,00,1,00,1","0516,9",,,"999,N,+0034,1","99999,9,10160,1","6,1,006,1,+999,9","00,1","SYN100AAXX  14064 08044 11970 00602 10040 20000 30160 40296 56006 60002 700// 333 20034 50184 55086 70000;","Q01  00002PRCP24Q02  00002PRCP12"
"08044099999","2010-03-14T09:00:00","4","42.4333333","-8.6166666","108.0","PONTEVEDRA, SP","FM-12","99999","V020","350,1,N,0010,1","22000,1,9,N","020000,1,N,1","+0087,1","+0007,1","10296,1",,,,,"00,1,+99999,9,99,9","00,99,1,00,1,00,1,99999,9,00,1,00,1",,,,,"99999,9,10162,1","1,1,002,1,+999,9",,"SYN060AAXX  14094 08044 42970 03502 10087 20007 30162 40296 51002;",
"08044099999","2010-03-14T12:00:00","4","42.4333333","-8.6166666","108.0","PONTEVEDRA, SP","FM-12","99999","V020","280,1,N,0031,1","22000,1,9,N","020000,1,N,1","+0131,1","+0018,1","10288,1","06,0000,9,1",,,,,"01,99,1,00,1,00,1,99999,9,00,1,01,1",,,,,"99999,9,10156,1","8,1,006,1,+999,9",,"SYN072AAXX  14124 08044 12970 12806 10131 20018 30156 40288 58006 60001 80001;","Q01  00002PRCP06"
"08044099999","2010-03-14T15:00:00","4","42.4333333","-8.6166666","108.0","PONTEVEDRA, SP","FM-12","99999","V020","240,1,N,0010,1","22000,1,9,N","020000,1,N,1","+0146,1","+0031,1","10266,1",,,,,,"03,99,1,00,1,00,1,99999,9,00,1,01,1",,,,,"99999,9,10135,1","7,1,021,1,+999,9",,"SYN066AAXX  14154 08044 42970 32402 10146 20031 30135 40266 57021 80001;",
"08044099999","2010-03-14T18:00:00","4","42.4333333","-8.6166666","108.0","PONTEVEDRA, SP","FM-12","99999","V020","200,1,N,0010,1","22000,1,9,N","012000,1,N,1","+0130,1","+0054,1","10262,1","12,0000,9,1",,,,"00,1,+99999,9,99,9","00,99,1,00,1,00,1,99999,9,00,1,00,1",,,,"999,M,+0161,1","99999,9,10131,1","5,1,004,1,+999,9",,"SYN076AAXX  14184 08044 12962 02002 10130 20054 30131 40262 55004 60002 333 10161;","Q01  00002PRCP12"
"08044099999","2010-03-15T06:00:00","4","42.4333333","-8.6166666","108.0","PONTEVEDRA, SP","FM-12","99999","V020","070,1,N,0015,1","22000,1,9,N","015000,1,N,1","+0049,1","+0001,1","10260,1","12,0000,9,1","24,0000,9,1",,,"00,1,+99999,9,99,9","00,99,1,00,1,00,1,99999,9,00,1,00,1","0660,9",,,"999,N,+0039,1","99999,9,10125,1","5,1,007,1,+999,9","00,1","SYN100AAXX  15064 08044 11965 00703 10049 20001 30125 40260 55007 60002 700// 333 20039 50224 55110 70000;","Q01  00002PRCP24Q02  00002PRCP12"
"08044099999","2010-03-15T09:00:00","4","42.4333333","-8.6166666","108.0","PONTEVEDRA, SP","FM-12","99999","V020","310,1,N,0010,1","22000,1,9,N","020000,1,N,1","+0081,1","+0017,1","10261,1",,,,,,"04,99,1,00,1,00,1,99999,9,00,1,01,1",,,,,"99999,9,10127,1","3,1,002,1,+999,9",,"SYN066AAXX  15094 08044 42970 43102 10081 20017 30127 40261 53002 80001;",
"08044099999","2010-03-15T12:00:00","4","42.4333333","-8.6166666","108.0","PONTEVEDRA, SP","FM-12","99999","V020","280,1,N,0021,1","99999,9,9,N","020000,1,N,1","+0158,1","+0022,1","10255,1","06,0000,9,1",,,,,"06,99,1,00,1,00,1,99999,9,00,1,01,1",,,,,"99999,9,10125,1","8,1,002,1,+999,9",,"SYN072AAXX  15124 08044 12970 62804 10158 20022 30125 40255 58002 60001 80001;","Q01  00002PRCP06"
"08044099999","2010-03-15T15:00:00","4","42.4333333","-8.6166666","108.0","PONTEVEDRA, SP","FM-12","99999","V020","270,1,N,0021,1","99999,9,9,N","015000,1,N,1","+0155,1","+0027,1","10229,1",,,,,,"06,99,1,00,1,00,1,99999,9,00,1,01,1",,,,,"99999,9,10099,1","7,1,026,1,+999,9",,"SYN066AAXX  15154 08044 42965 62704 10155 20027 30099 40229 57026 80001;",
"08044099999","2010-03-15T18:00:00","4","42.4333333","-8.6166666","108.0","PONTEVEDRA, SP","FM-12","99999","V020","240,1,N,0010,1","99999,9,9,N","012000,1,N,1","+0131,1","+0035,1","10223,1","12,0000,9,1",,,,,"06,99,1,00,1,00,1,99999,9,00,1,01,1",,,,"999,M,+0169,1","99999,9,10092,1","6,1,007,1,+999,9",,"SYN082AAXX  15184 08044 12962 62402 10131 20035 30092 40223 56007 60002 80001 333 10169;","Q01  00002PRCP12"
"08044099999","2010-03-16T06:00:00","4","42.4333333","-8.6166666","108.0","PONTEVEDRA, SP","FM-12","99999","V020","150,1,N,0005,1","22000,1,9,N","015000,1,N,1","+0066,1","-0039,1","10210,1","12,0000,9,1","24,0000,9,1",,,,"03,99,1,01,1,00,1,01750,1,04,1,01,1","0642,9",,,"999,N,+0055,1","99999,9,10076,1","6,1,006,1,+999,9","02,1","SYN106AAXX  16064 08044 11765 31501 10066 21039 30076 40210 56006 60002 702// 81041 333 20055 50224 55107 70000;","Q01  00002PRCP24Q02  00002PRCP12"
"08044099999","2010-03-16T09:00:00","4","42.4333333","-8.6166666","108.0","PONTEVEDRA, SP","FM-12","99999","V020","030,1,N,0021,1","09000,1,9,N","020000,1,N,1","+0095,1","-0001,1","10212,1",,,,,,"08,99,1,02,1,00,1,01750,1,04,1,02,1",,,,,"99999,9,10079,1","3,1,003,1,+999,9",,"SYN066AAXX  16094 08044 42770 80304 10095 21001 30079 40212 53003 82042;",
"08044099999","2010-03-16T12:00:00","4","42.4333333","-8.6166666","108.0","PONTEVEDRA, SP","FM-12","99999","V020","190,1,N,0010,1","03600,1,9,N","015000,1,N,1","+0160,1","+0038,1","10216,1","06,0000,9,1",,,,,"07,99,1,03,1,05,1,00800,1,04,1,01,1",,,,,"99999,9,10086,1","3,1,007,1,+999,9",,"SYN072AAXX  16124 08044 12565 71902 10160 20038 30086 40216 53007 60001 83541;","Q01  00002PRCP06"
"08044099999","2010-03-16T15:00:00","4","42.4333333","-8.6166666","108.0","PONTEVEDRA, SP","FM-12","99999","V020","280,1,N,0010,1","22000,1,9,N","012000,1,N,1","+0176,1","+0035,1","10207,1",,,,,,"05,99,1,01,1,00,1,01750,1,04,1,01,1",,,,,"99999,9,10078,1","7,1,008,1,+999,9",,"SYN066AAXX  16154 08044 42762 52802 10176 20035 30078 40207 57008 81041;",
"08044099999","2010-03-16T18:00:00","4","42.4333333","-8.6166666","108.0","PONTEVEDRA, SP","FM-12","99999","V020","170,1,N,0015,1","22000,1,9,N","015000,1,N,1","+0152,1","+0030,1","10208,1","12,0000,9,1",,,,,"02,99,1,00,1,00,1,99999,9,00,1,02,1",,,,"999,M,+0181,1","99999,9,10078,1","5,1,000,1,+999,9",,"SYN082AAXX  16184 08044 12965 21703 10152 20030 30078 40208 55000 60002 80002 333 10181;","Q01  00002PRCP12"
"08044099999","2010-03-17T06:00:00","4","42.4333333","-8.6166666","108.0","PONTEVEDRA, SP","FM-12","99999","V020","150,1,N,0010,1","99999,9,9,N","012000,1,N,1","+0062,1","-0001,1","10230,1","12,0000,9,1","24,0000,9,1",,,,"06,99,1,00,1,00,1,99999,9,00,1,01,1","0198,9",,,"999,N,+0062,1","99999,9,10096,1","6,1,010,1,+999,9","02,1","SYN106AAXX  17064 08044 11962 61502 10062 21001 30096 40230 56010 60002 702// 80001 333 20062 50334 55033 70000;","Q01  00002PRCP24Q02  00002PRCP12"
"08044099999","2010-03-17T09:00:00","4","42.4333333","-8.6166666","108.0","PONTEVEDRA, SP","FM-12","99999","V020","090,1,N,0010,1","99999,9,9,N","012000,1,N,1","+0100,1","+0028,1","10231,1",,,,,,"07,99,1,00,1,00,1,99999,9,00,1,01,1",,,,,"99999,9,10098,1","3,1,002,1,+999,9",,"SYN066AAXX  17094 08044 42962 70902 10100 20028 30098 40231 53002 80001;",
"08044099999","2010-03-17T12:00:00","4","42.4333333","-8.6166666","108.0","PONTEVEDRA, SP","FM-12","99999","V020","170,1,N,0021,1","99999,9,9,N","015000,1,N,1","+0196,1","+0041,1","10214,1","06,0000,9,1",,,,,"05,99,1,00,1,00,1,99999,9,00,1,01,1",,,,,"99999,9,10086,1","8,1,012,1,+999,9",,"SYN072AAXX  17124 08044 12965 51704 10196 20041 30086 40214 58012 60001 80001;","Q01  00002PRCP06"
"08044099999","2010-03-17T15:00:00","4","42.4333333","-8.6166666","108.0","PONTEVEDRA, SP","FM-12","99999","V020","260,1,N,0036,1","99999,9,9,N","012000,1,N,1","+0172,1","+0049,1","10208,1",,,,,,"08,99,1,00,1,00,1,99999,9,00,1,07,1",,,,,"99999,9,10079,1","8,1,007,1,+999,9",,"SYN066AAXX  17154 08044 42962 82607 10172 20049 30079 40208 58007 80007;",
"08044099999","2010-03-17T18:00:00","4","42.4333333","-8.6166666","108.0","PONTEVEDRA, SP","FM-12","99999","V020","210,1,N,0010,1","01500,1,9,N","015000,1,N,1","+0150,1","+0073,1","10204,1","12,0000,9,1",,,,,"07,99,1,07,1,00,1,01750,1,07,1,99,9",,,,"999,M,+0205,1","99999,9,10074,1","6,1,005,1,+999,9",,"SYN082AAXX  17184 08044 12765 72102 10150 20073 30074 40204 56005 60002 8707/ 333 10205;","Q01  00002PRCP12"
"08044099999","2010-03-18T06:00:00","4","42.4333333","-8.6166666","108.0","PONTEVEDRA, SP","FM-12","99999","V020","170,1,N,0015,1","00210,1,9,N","006000,1,N,1","+0122,1","+0111,1","10183,1","12,0010,9,1","24,0013,9,1",,,,"08,99,1,06,1,07,1,00250,1,07,1,99,9","0252,9",,,"999,N,+0118,1","99999,9,10052,1","8,1,004,1,+999,9","61,1","SYN106AAXX  18064 08044 11356 81703 10122 20111 30052 40183 58004 60012 761// 8677/ 333 20118 50304 55042 70013;",
"08044099999","2010-03-18T09:00:00","4","42.4333333","-8.6166666","108.0","PONTEVEDRA, SP","FM-12","99999","V020","160,1,N,0021,1","00900,1,9,N","015000,1,N,1","+0126,1","+0107,1","10185,1",,,"6,1,03,1","2,1,03,1",,"08,99,1,05,1,08,1,00450,1,07,1,99,9",,,,,"99999,9,10055,1","1,1,003,1,+999,9","02,1","SYN072AAXX  18094 08044 41465 81604 10126 20107 30055 40185 51003 70262 8587/;",
"08044099999","2010-03-18T12:00:00","4","42.4333333","-8.6166666","108.0","PONTEVEDRA, SP","FM-12","99999","V020","190,1,N,0021,1","00750,1,9,N","015000,1,N,1","+0138,1","+0111,1","10191,1","06,0005,9,1",,"6,1,06,1","2,1,06,1",,"08,99,1,05,1,05,1,00800,1,07,1,99,9",,,,,"99999,9,10061,1","3,1,006,1,+999,9","02,1","SYN078AAXX  18124 08044 11565 81904 10138 20111 30061 40191 53006 69961 70262 8557/;",
"08044099999","2010-03-18T15:00:00","4","42.4333333","-8.6166666","108.0","PONTEVEDRA, SP","FM-12","99999","V020","180,1,N,0026,1","00900,1,9,N","012000,1,N,1","+0162,1","+0124,1","10181,1",,,"2,1,03,1","2,1,03,1",,"07,99,1,07,1,08,1,00450,1,99,9,99,9",,,,,"99999,9,10052,1","6,1,009,1,+999,9","50,1","SYN072AAXX  18154 08044 41462 71805 10162 20124 30052 40181 56009 75022 878//;",
"08044099999","2010-03-18T18:00:00","4","42.4333333","-8.6166666","108.0","PONTEVEDRA, SP","FM-12","99999","V020","160,1,N,0041,1","00600,1,9,N","005000,1,N,1","+0142,1","+0132,1","10188,1","12,0008,9,1",,"5,1,06,1","2,1,06,1",,"07,99,1,07,1,08,1,00250,1,99,9,99,9",,,,"999,M,+0168,1","99999,9,10058,1","1,1,006,1,+999,9","20,1","SYN088AAXX  18184 08044 11350 71608 10142 20132 30058 40188 51006 69972 72052 878// 333 10168;",
"08044099999","2010-03-19T06:00:00","4","42.4333333","-8.6166666","108.0","PONTEVEDRA, SP","FM-12","99999","V020","180,1,N,0046,1","00210,1,9,N","005000,1,N,1","+0124,1","+0116,1","10147,1","12,0201,9,1","24,0203,9,1",,,,"08,99,1,08,1,07,1,00250,1,99,9,99,9","0000,9",,,"999,N,+0124,1","99999,9,10017,1","5,1,008,1,+999,9","63,1","SYN106AAXX  19064 08044 11350 81809 10124 20116 30017 40147 55008 60202 763// 887// 333 20124 50104 55000 70204;",
"08044099999","2010-03-19T09:00:00","4","42.4333333","-8.6166666","108.0","PONTEVEDRA, SP","FM-12","99999","V020","170,1,N,0036,1","00210,1,9,N","005000,1,N,1","+0130,1","+0122,1","10152,1",,,"6,1,03,1","6,1,03,1",,"08,99,1,06,1,07,1,00250,1,07,1,99,9",,,,,"99999,9,10022,1","0,1,005,1,+999,9","61,1","SYN072AAXX  19094 08044 41350 81707 10130 20122 30022 40152 50005 76166 8677/;",
"08044099999","2010-03-19T12:00:00","4","42.4333333","-8.6166666","108.0","PONTEVEDRA, SP","FM-12","99999","V020","170,1,N,0051,1","00420,1,9,N","015000,1,N,1","+0150,1","+0120,1","10151,1","06,0089,9,1",,"6,1,06,1","2,1,06,1",,"07,99,1,05,1,05,1,00450,1,07,1,99,9",,,,,"99999,9,10022,1","0,1,000,1,+999,9","01,1","SYN078AAXX  19124 08044 11465 71710 10150 20120 30022 40151 50000 60091 70162 8557/;",
"08044099999","2010-03-19T15:00:00","4","42.4333333","-8.6166666","108.0","PONTEVEDRA, SP","FM-12","99999","V020","170,1,N,0031,1","00420,1,9,N","015000,1,N,1","+0178,1","+0129,1","10129,1",,,"6,1,03,1","2,1,03,1",,"07,99,1,05,1,05,1,00450,1,07,1,99,9",,,,,"99999,9,10002,1","7,1,020,1,+999,9","02,1","SYN072AAXX  19154 08044 41465 71706 10178 20129 30002 40129 57020 70262 8557/;",
"08044099999","2010-03-19T18:00:00","4","42.4333333","-8.6166666","108.0","PONTEVEDRA, SP","FM-12","99999","V020","170,1,N,0051,1","00210,1,9,N","003000,1,N,1","+0148,1","+0137,1","10133,1","12,0140,9,1",,"8,1,06,1","2,1,06,1",,"07,99,1,07,1,03,1,00250,1,99,9,99,9",,,,"999,M,+0180,1","99999,9,10004,1","1,1,002,1,+999,9","80,1","SYN088AAXX  19184 08044 11330 71710 10148 20137 30004 40133 51002 60142 78082 873// 333 10180;",
"08044099999","2010-03-20T06:00:00","4","42.4333333","-8.6166666","108.0","PONTEVEDRA, SP","FM-12","99999","V020","190,1,N,0015,1","00420,1,9,N","010000,1,N,1","+0148,1","+0142,1","10127,1","12,0061,9,1","24,0198,9,1",,,,"08,99,1,05,1,05,1,00450,1,07,1,99,9","0000,9",,,"999,N,+0138,1","99999,9,09998,1","5,1,003,1,+999,9","02,1","SYN106AAXX  20064 08044 11460 81903 10148 20142 39998 40127 55003 60062 702// 8557/ 333 20138 50074 55000 70198;",
"08044099999","2010-03-20T09:00:00","4","42.4333333","-8.6166666","108.0","PONTEVEDRA, SP","FM-12","99999","V020","170,1,N,0026,1","00210,1,9,N","006000,1,N,1","+0146,1","+0140,1","10135,1",,,"6,1,03,1","2,1,03,1",,"08,99,1,06,1,07,1,00250,1,07,1,99,9",,,,,"99999,9,10006,1","1,1,008,1,+999,9","60,1","SYN072AAXX  20094 08044 41356 81705 10146 20140 30006 40135 51008 76062 8677/;",
"08044099999","2010-03-20T12:00:00","4","42.4333333","-8.6166666","108.0","PONTEVEDRA, SP","FM-12","99999","V020","190,1,N,0021,1","00900,1,9,N","012000,1,N,1","+0158,1","+0143,1","10147,1","06,0010,9,1",,"6,1,06,1","2,1,06,1",,"07,99,1,07,1,08,1,00450,1,99,9,99,9",,,,,"99999,9,10019,1","1,1,013,1,+999,9","02,1","SYN078AAXX  20124 08044 11462 71904 10158 20143 30019 40147 51013 60011 70262 878//;",
"08044099999","2010-03-20T15:00:00","4","42.4333333","-8.6166666","108.0","PONTEVEDRA, SP","FM-12","99999","V020","220,1,N,0021,1","00210,1,9,N","006000,1,N,1","+0150,1","+0144,1","10145,1",,,"6,1,03,1","2,1,03,1",,"08,99,1,06,1,07,1,00250,1,07,1,99,9",,,,,"99999,9,10016,1","6,1,003,1,+999,9","21,1","SYN072AAXX  20154 08044 41356 82204 10150 20144 30016 40145 56003 72162 8677/;",
"08044099999","2010-03-20T18:00:00","4","42.4333333","-8.6166666","108.0","PONTEVEDRA, SP","FM-12","99999","V020","160,1,N,0015,1","00210,1,9,N","005000,1,N,1","+0142,1","+0134,1","10159,1","12,0020,9,1",,"6,1,06,1","2,1,06,1",,"08,99,1,06,1,07,1,00250,1,07,1,99,9",,,,"999,M,+0164,1","99999,9,10030,1","3,1,014,1,+999,9","10,1","SYN088AAXX  20184 08044 11350 81603 10142 20134 30030 40159 53014 60022 71062 8677/ 333 10164;",
"08044099999","2010-03-21T06:00:00","4","42.4333333","-8.6166666","108.0","PONTEVEDRA, SP","FM-12","99999","V020","350,1,N,0015,1","00420,1,9,N","012000,1,N,1","+0108,1","+0096,1","10200,1","12,0000,9,1","24,0023,9,1",,,,"08,99,1,05,1,05,1,00450,1,07,1,99,9","0000,9",,,"999,N,+0108,1","99999,9,10068,1","1,1,006,1,+999,9","02,1","SYN106AAXX  21064 08044 11462 83503 10108 20096 30068 40200 51006 69922 702// 8557/ 333 20108 50034 55000 70022;","Q01  00002PRCP12"
"08044099999","2010-03-21T09:00:00","4","42.4333333","-8.6166666","108.0","PONTEVEDRA, SP","FM-12","99999","V020","020,1,N,0021,1","22000,1,9,N","020000,1,N,1","+0134,1","+0108,1","10206,1",,,,,,"01,99,1,01,1,05,1,00450,1,00,1,00,1",,,,,"99999,9,10076,1","1,1,008,1,+999,9",,"SYN066AAXX  21094 08044 42470 10204 10134 20108 30076 40206 51008 81500;",
"08044099999","2010-03-21T12:00:00","4","42.4333333","-8.6166666","108.0","PONTEVEDRA, SP","FM-12","99999","V020","270,1,N,0021,1","22000,1,9,N","020000,1,N,1","+0176,1","+0119,1","10202,1","06,0000,9,1",,,,,"02,99,1,02,1,02,1,00450,1,00,1,00,1",,,,,"99999,9,10074,1","8,1,002,1,+999,9",,"SYN072AAXX  21124 08044 12470 22704 10176 20119 30074 40202 58002 60001 82200;","Q01  00002PRCP06"
"08044099999","2010-03-21T15:00:00","4","42.4333333","-8.6166666","108.0","PONTEVEDRA, SP","FM-12","99999","V020","260,1,N,0026,1","22000,1,9,N","020000,1,N,1","+0170,1","+0115,1","10194,1",,,,,,"02,99,1,02,1,02,1,00450,1,00,1,00,1",,,,,"99999,9,10065,1","8,1,009,1,+999,9",,"SYN066AAXX  21154 08044 42470 22605 10170 20115 30065 40194 58009 82200;",
"08044099999","2010-03-21T18:00:00","4","42.4333333","-8.6166666","108.0","PONTEVEDRA, SP","FM-12","99999","V020","190,1,N,0010,1","22000,1,9,N","015000,1,N,1","+0148,1","+0108,1","10200,1","12,0000,9,1",,,,,"02,99,1,01,1,02,1,00450,1,04,1,02,1",,,,"999,M,+0192,1","99999,9,10070,1","3,1,005,1,+999,9",,"SYN082AAXX  21184 08044 12465 21902 10148 20108 30070 40200 53005 60002 81242 333 10192;","Q01  00002PRCP12"
"08044099999","2010-03-22T06:00:00","4","42.4333333","-8.6166666","108.0","PONTEVEDRA, SP","FM-12","99999","V020","040,1,N,0010,1","00750,1,9,N","015000,1,N,1","+0088,1","+0071,1","10223,1","12,0000,9,1","24,0000,9,1",,,,"06,99,1,06,1,05,1,00800,1,00,1,00,1","0654,9",,,"999,N,+0088,1","99999,9,10090,1","1,1,004,1,+999,9","02,1","SYN106AAXX  22064 08044 11565 60402 10088 20071 30090 40223 51004 60002 702// 86500 333 20088 50114 55109 70000;","Q01  00002PRCP24Q02  00002PRCP12"
"08044099999","2010-03-22T09:00:00","4","42.4333333","-8.6166666","108.0","PONTEVEDRA, SP","FM-12","99999","V020","280,1,N,0010,1","00750,1,9,N","020000,1,N,1","+0108,1","+0079,1","10235,1",,,,,,"07,99,1,07,1,05,1,00800,1,99,9,99,9",,,,,"99999,9,10103,1","1,1,013,1,+999,9",,"SYN066AAXX  22094 08044 42570 72802 10108 20079 30103 40235 51013 875//;",
"08044099999","2010-03-22T12:00:00","4","42.4333333","-8.6166666","108.0","PONTEVEDRA, SP","FM-12","99999","V020","220,1,N,0010,1","22000,1,9,N","020000,1,N,1","+0152,1","+0077,1","10231,1","06,0000,9,1",,,,,"01,99,1,01,1,01,1,00450,1,00,1,00,1",,,,,"99999,9,10101,1","8,1,002,1,+999,9",,"SYN072AAXX  22124 08044 12470 12202 10152 20077 30101 40231 58002 60001 81100;","Q01  00002PRCP06"
"08044099999","2010-03-22T15:00:00","4","42.4333333","-8.6166666","108.0","PONTEVEDRA, SP","FM-12","99999","V020","260,1,N,0015,1","22000,1,9,N","020000,1,N,1","+0144,1","+0075,1","10224,1",,,,,"00,1,+99999,9,99,9","00,99,1,00,1,00,1,99999,9,00,1,00,1",,,,,"99999,9,10094,1","6,1,007,1,+999,9",,"SYN060AAXX  22154 08044 42970 02603 10144 20075 30094 40224 56007;",
"08044099999","2010-03-22T18:00:00","4","42.4333333","-8.6166666","108.0","PONTEVEDRA, SP","FM-12","99999","V020","250,1,N,0010,1","22000,1,9,N","015000,1,N,1","+0128,1","+0079,1","10218,1","12,0000,9,1",,,,,"01,99,1,00,1,00,1,99999,9,00,1,02,1",,,,"999,M,+0170,1","99999,9,10087,1","6,1,007,1,+999,9",,"SYN082AAXX  22184 08044 12965 12502 10128 20079 30087 40218 56007 60002 80002 333 10170;","Q01  00002PRCP12"
"08044099999","2010-03-23T06:00:00","4","42.4333333","-8.6166666","108.0","PONTEVEDRA, SP","FM-12","99999","V020","090,1,N,0010,1","02100,1,9,N","015000,1,N,1","+0084,1","+0069,1","10164,1","12,0000,9,1","24,0000,9,1",,,,"07,99,1,07,1,00,1,02250,1,07,1,99,9","0588,9",,,"999,N,+0076,1","99999,9,10032,1","6,1,016,1,+999,9","02,1","SYN106AAXX  23064 08044 11865 70902 10084 20069 30032 40164 56016 60002 702// 8707/ 333 20076 50124 55098 70000;","Q01  00002PRCP24Q02  00002PRCP12"
"08044099999","2010-03-23T09:00:00","4","42.4333333","-8.6166666","108.0","PONTEVEDRA, SP","FM-12","99999","V020","030,1,N,0015,1","02100,1,9,N","020000,1,N,1","+0106,1","+0085,1","10155,1",,,,,,"06,99,1,06,1,00,1,02250,1,07,1,00,1",,,,,"99999,9,10024,1","8,1,008,1,+999,9",,"SYN066AAXX  23094 08044 42870 60303 10106 20085 30024 40155 58008 86070;",
"08044099999","2010-03-23T12:00:00","4","42.4333333","-8.6166666","108.0","PONTEVEDRA, SP","FM-12","99999","V020","320,1,N,0010,1","03600,1,9,N","020000,1,N,1","+0146,1","+0096,1","10144,1","06,0000,9,1",,,,,"08,99,1,01,1,01,1,00450,1,07,1,99,9",,,,,"99999,9,10015,1","8,1,009,1,+999,9",,"SYN072AAXX  23124 08044 12470 83202 10146 20096 30015 40144 58009 60001 8117/;","Q01  00002PRCP06"
"08044099999","2010-03-23T15:00:00","4","42.4333333","-8.6166666","108.0","PONTEVEDRA, SP","FM-12","99999","V020","300,1,N,0021,1","09000,1,9,N","015000,1,N,1","+0152,1","+0106,1","10118,1",,,,,,"05,99,1,02,1,02,1,00450,1,07,1,02,1",,,,,"99999,9,09990,1","7,1,025,1,+999,9",,"SYN066AAXX  23154 08044 42465 53004 10152 20106 39990 40118 57025 82272;",
"08044099999","2010-03-23T18:00:00","4","42.4333333","-8.6166666","108.0","PONTEVEDRA, SP","FM-12","99999","V020","150,1,N,0010,1","03600,1,9,N","012000,1,N,1","+0160,1","+0116,1","10084,1","12,0000,9,1",,,,,"07,99,1,02,1,05,1,00450,1,07,1,99,9",,,,"999,M,+0172,1","99999,9,09956,1","5,1,034,1,+999,9",,"SYN082AAXX  23184 08044 12462 71502 10160 20116 39956 40084 55034 60002 8257/ 333 10172;","Q01  00002PRCP12"
"08044099999","2010-03-24T06:00:00","4","42.4333333","-8.6166666","108.0","PONTEVEDRA, SP","FM-12","99999","V020","160,1,N,0026,1","00210,1,9,N","005000,1,N,1","+0116,1","+0100,1","10034,1","12,0010,9,1","24,0015,9,1",,,,"08,99,1,05,1,07,1,00250,1,07,1,99,9","0162,9",,,"999,N,+0116,1","99999,9,09905,1","8,1,016,1,+999,9","61,1","SYN106AAXX  24064 08044 11350 81605 10116 20100 39905 40034 58016 60012 761// 8577/ 333 20116 50104 55027 70014;",
"08044099999","2010-03-24T09:00:00","4","42.4333333","-8.6166666","108.0","PONTEVEDRA, SP","FM-12","99999","V020","170,1,N,0010,1","00210,1,9,N","006000,1,N,1","+0108,1","+0100,1","10054,1",,,"6,1,03,1","2,1,03,1",,"08,99,1,06,1,07,1,00250,1,07,1,99,9",,,,,"99999,9,09924,1","1,1,019,1,+999,9","21,1","SYN072AAXX  24094 08044 41356 81702 10108 20100 39924 40054 51019 72162 8677/;",
"08044099999","2010-03-24T12:00:00","4","42.4333333","-8.6166666","108.0","PONTEVEDRA, SP","FM-12","99999","V020","260,1,N,0021,1","03600,1,9,N","020000,1,N,1","+0140,1","+0098,1","10055,1","06,0071,9,1",,"6,1,06,1","2,1,06,1",,"05,99,1,04,1,02,1,00450,1,04,1,00,1",,,,,"99999,9,09927,1","0,1,003,1,+999,9","02,1","SYN078AAXX  24124 08044 11470 52604 10140 20098 39927 40055 50003 60071 70262 84240;",
"08044099999","2010-03-24T15:00:00","4","42.4333333","-8.6166666","108.0","PONTEVEDRA, SP","FM-12","99999","V020","260,1,N,0021,1","03600,1,9,N","020000,1,N,1","+0138,1","+0078,1","10045,1",,,,,,"05,99,1,03,1,02,1,00450,1,05,1,02,1",,,,,"99999,9,09917,1","8,1,010,1,+999,9",,"SYN066AAXX  24154 08044 42470 52604 10138 20078 39917 40045 58010 83252;",
"08044099999","2010-03-24T18:00:00","4","42.4333333","-8.6166666","108.0","PONTEVEDRA, SP","FM-12","99999","V020","170,1,N,0031,1","22000,1,9,N","015000,1,N,1","+0114,1","+0081,1","10036,1","12,0071,9,1",,"8,1,06,1","1,1,06,1",,"03,99,1,02,1,08,1,00450,1,03,1,02,1",,,,"999,M,+0146,1","99999,9,09907,1","8,1,010,1,+999,9","01,1","SYN088AAXX  24184 08044 11465 31706 10114 20081 39907 40036 58010 60072 70181 82832 333 10146;",
"08044099999","2010-03-25T06:00:00","4","42.4333333","-8.6166666","108.0","PONTEVEDRA, SP","FM-12","99999","V020","180,1,N,0026,1","00600,1,9,N","012000,1,N,1","+0082,1","+0065,1","09994,1","12,0170,9,1","24,0239,9,1",,,,"07,99,1,06,1,08,1,00250,1,07,1,99,9","0258,9",,,"999,N,+0067,1","99999,9,09864,1","3,1,012,1,+999,9","25,1","SYN106AAXX  25064 08044 11362 71805 10082 20065 39864 49994 53012 60172 725// 8687/ 333 20067 50104 55043 70240;",
"08044099999","2010-03-25T09:00:00","4","42.4333333","-8.6166666","108.0","PONTEVEDRA, SP","FM-12","99999","V020","190,1,N,0031,1","00210,1,9,N","020000,1,N,1","+0101,1","+0061,1","10021,1",,,"9,1,03,1","8,1,03,1",,"07,99,1,07,1,02,1,00250,1,00,1,00,1",,,,,"99999,9,09891,1","2,1,027,1,+999,9","80,1","SYN072AAXX  25094 08044 41370 71906 10101 20061 39891 40021 52027 78098 87200;",
"08044099999","2010-03-25T12:00:00","4","42.4333333","-8.6166666","108.0","PONTEVEDRA, SP","FM-12","99999","V020","190,1,N,0036,1","00210,1,9,N","017000,1,N,1","+0129,1","+0046,1","10034,1","06,0030,9,1",,"9,1,06,1","8,1,06,1",,"08,99,1,07,1,09,1,00250,1,06,1,99,9",,,,,"99999,9,09905,1","1,1,014,1,+999,9","02,1","SYN078AAXX  25124 08044 11367 81907 10129 20046 39905 40034 51014 60031 70298 8796/;",
"08044099999","2010-03-25T15:00:00","4","42.4333333","-8.6166666","108.0","PONTEVEDRA, SP","FM-12","99999","V020","180,1,N,0031,1","00420,1,9,N","015000,1,N,1","+0109,1","+0076,1","10037,1",,,"8,1,03,1","2,1,03,1",,"07,99,1,07,1,02,1,00450,1,99,9,99,9",,,,,"99999,9,09908,1","0,1,003,1,+999,9","02,1","SYN072AAXX  25154 08044 41465 71806 10109 20076 39908 40037 50003 70282 872//;",
"08044099999","2010-03-25T18:00:00","4","42.4333333","-8.6166666","108.0","PONTEVEDRA, SP","FM-12","99999","V020","170,1,N,0036,1","00900,1,9,N","015000,1,N,1","+0094,1","+0059,1","10051,1","12,0061,9,1",,"8,1,06,1","2,1,06,1",,"07,99,1,06,1,08,1,00450,1,07,1,99,9",,,,"999,M,+0134,1","99999,9,09921,1","1,1,013,1,+999,9","02,1","SYN088AAXX  25184 08044 11465 71707 10094 20059 39921 40051 51013 60062 70282 8687/ 333 10134;",
"08044099999","2010-03-26T06:00:00","4","42.4333333","-8.6166666","108.0","PONTEVEDRA, SP","FM-12","99999","V020","190,1,N,0036,1","00600,1,9,N","020000,1,N,1","+0102,1","+0062,1","10108,1","12,0041,9,1","24,0094,9,1",,,,"07,99,1,05,1,08,1,00250,1,07,1,99,9","0162,9",,,"999,N,+0062,1","99999,9,09977,1","3,1,010,1,+999,9","02,1","SYN106AAXX  26064 08044 11370 71907 10102 20062 39977 40108 53010 60042 702// 8587/ 333 20062 50124 55027 70095;",
"08044099999","2010-03-26T09:00:00","4","42.4333333","-8.6166666","108.0","PONTEVEDRA, SP","FM-12","99999","V020","180,1,N,0041,1","00600,1,9,N","015000,1,N,1","+0102,1","+0071,1","10124,1",,,"9,1,03,1","8,1,03,1",,"08,99,1,07,1,08,1,00250,1,07,1,99,9",,,,,"99999,9,09993,1","1,1,016,1,+999,9","80,1","SYN072AAXX  26094 08044 41365 81808 10102 20071 39993 40124 51016 78098 8787/;",
"08044099999","2010-03-26T12:00:00","4","42.4333333","-8.6166666","108.0","PONTEVEDRA, SP","FM-12","99999","V020","190,1,N,0036,1","00600,1,9,N","008000,1,N,1","+0131,1","+0071,1","10141,1","06,0008,9,1",,"9,1,06,1","8,1,06,1",,"08,99,1,06,1,08,1,00250,1,07,1,99,9",,,,,"99999,9,10011,1","0,1,018,1,+999,9","05,1","SYN078AAXX  26124 08044 11358 81907 10131 20071 30011 40141 50018 69981 70598 8687/;",
"08044099999","2010-03-26T15:00:00","4","42.4333333","-8.6166666","108.0","PONTEVEDRA, SP","FM-12","99999","V020","190,1,N,0026,1","00600,1,9,N","010000,1,N,1","+0121,1","+0091,1","10152,1",,,"8,1,03,1","2,1,03,1",,"07,99,1,06,1,08,1,00250,1,07,1,99,9",,,,,"99999,9,10022,1","1,1,011,1,+999,9","25,1","SYN072AAXX  26154 08044 41360 71905 10121 20091 30022 40152 51011 72582 8687/;",
"08044099999","2010-03-26T18:00:00","4","42.4333333","-8.6166666","108.0","PONTEVEDRA, SP","FM-12","99999","V020","190,1,N,0031,1","00210,1,9,N","010000,1,N,1","+0118,1","+0079,1","10173,1","12,0020,9,1",,"8,1,06,1","2,1,06,1",,"07,99,1,07,1,02,1,00250,1,00,1,00,1",,,,"999,M,+0132,1","99999,9,10042,1","2,1,020,1,+999,9","02,1","SYN088AAXX  26184 08044 11360 71906 10118 20079 30042 40173 52020 60022 70282 87200 333 10132;",
"08044099999","2010-03-27T06:00:00","4","42.4333333","-8.6166666","108.0","PONTEVEDRA, SP","FM-12","99999","V020","190,1,N,0010,1","22000,1,9,N","015000,1,N,1","+0091,1","+0062,1","10237,1","12,0020,9,1","24,0038,9,1",,,,"02,99,1,02,1,01,1,00250,1,00,1,00,1","0204,9",,,"999,N,+0089,1","99999,9,10104,1","3,1,011,1,+999,9","02,1","SYN106AAXX  27064 08044 11365 21902 10091 20062 30104 40237 53011 60022 702// 82100 333 20089 50124 55034 70037;",
"08044099999","2010-03-27T09:00:00","4","42.4333333","-8.6166666","108.0","PONTEVEDRA, SP","FM-12","99999","V020","200,1,N,0010,1","22000,1,9,N","013000,1,N,1","+0122,1","+0090,1","10250,1",,,,,,"04,99,1,03,1,02,1,00250,1,00,1,08,1",,,,,"99999,9,10118,1","2,1,014,1,+999,9",,"SYN066AAXX  27094 08044 42363 42002 10122 20090 30118 40250 52014 83208;",
"08044099999","2010-03-27T12:00:00","4","42.4333333","-8.6166666","108.0","PONTEVEDRA, SP","FM-12","99999","V020","260,1,N,0021,1","03600,1,9,N","015000,1,N,1","+0144,1","+0084,1","10255,1","06,0000,9,1",,,,,"05,99,1,03,1,05,1,00250,1,03,1,02,1",,,,,"99999,9,10124,1","0,1,006,1,+999,9",,"SYN072AAXX  27124 08044 12365 52604 10144 20084 30124 40255 50006 60001 83532;","Q01  00002PRCP06"
"08044099999","2010-03-27T15:00:00","4","42.4333333","-8.6166666","108.0","PONTEVEDRA, SP","FM-12","99999","V020","250,1,N,0026,1","00900,1,9,N","012000,1,N,1","+0144,1","+0096,1","10254,1",,,,,,"08,99,1,05,1,08,1,00450,1,07,1,99,9",,,,,"99999,9,10123,1","8,1,001,1,+999,9",,"SYN066AAXX  27154 08044 42462 82505 10144 20096 30123 40254 58001 8587/;",
"08044099999","2010-03-27T18:00:00","4","42.4333333","-8.6166666","108.0","PONTEVEDRA, SP","FM-12","99999","V020","260,1,N,0015,1","03600,1,9,N","006000,1,N,1","+0129,1","+0094,1","10254,1","12,0000,9,1",,"2,1,06,1","2,1,06,1",,"08,99,1,04,1,05,1,00250,1,07,1,99,9",,,,"999,M,+0154,1","99999,9,10123,1","5,1,000,1,+999,9","05,1","SYN088AAXX  27184 08044 11356 82603 10129 20094 30123 40254 55000 60002 70522 8457/ 333 10154;","Q01  00002PRCP12"
"08044099999","2010-03-28T06:00:00","4","42.4333333","-8.6166666","108.0","PONTEVEDRA, SP","FM-12","99999","V020","090,1,N,0026,1","22000,1,9,N","015000,1,N,1","+0079,1","+0062,1","10209,1","12,0000,9,1","24,0000,9,1",,,,"01,99,1,00,1,00,1,99999,9,00,1,05,1","0294,9",,,"999,N,+0077,1","99999,9,10076,1","7,1,020,1,+999,9","02,1","SYN106AAXX  28064 08044 12965 10905 10079 20062 30076 40209 57020 60002 702// 80005 333 20077 50124 55049 70000;","Q01  00002PRCP24Q02  00002PRCP12"
"08044099999","2010-03-28T09:00:00","4","42.4333333","-8.6166666","108.0","PONTEVEDRA, SP","FM-12","99999","V020","230,1,N,0010,1","03600,1,9,N","015000,1,N,1","+0102,1","+0080,1","10203,1",,,,,,"07,99,1,01,1,05,1,00800,1,04,1,07,1",,,,,"99999,9,10071,1","8,1,005,1,+999,9",,"SYN066AAXX  28094 08044 42565 72302 10102 20080 30071 40203 58005 81547;",
"08044099999","2010-03-28T12:00:00","4","42.4333333","-8.6166666","108.0","PONTEVEDRA, SP","FM-12","99999","V020","170,1,N,0010,1","03600,1,9,N","014000,1,N,1","+0144,1","+0100,1","10182,1","06,0000,9,1",,,,,"07,99,1,04,1,05,1,00800,1,07,1,99,9",,,,,"99999,9,10052,1","7,1,019,1,+999,9",,"SYN072AAXX  28124 08044 12564 71702 10144 20100 30052 40182 57019 60001 8457/;","Q01  00002PRCP06"
"08044099999","2010-03-28T15:00:00","4","42.4333333","-8.6166666","108.0","PONTEVEDRA, SP","FM-12","99999","V020","240,1,N,0021,1","22000,1,9,N","014000,1,N,1","+0152,1","+0089,1","10155,1",,,,,,"04,99,1,02,1,05,1,00800,1,03,1,00,1",,,,,"99999,9,10026,1","7,1,026,1,+999,9",,"SYN066AAXX  28154 08044 42564 42404 10152 20089 30026 40155 57026 82530;",
"08044099999","2010-03-28T18:00:00","4","42.4333333","-8.6166666","108.0","PONTEVEDRA, SP","FM-12","99999","V020","180,1,N,0015,1","09000,1,9,N","014000,1,N,1","+0136,1","+0089,1","10147,1","12,0000,9,1",,,,,"06,99,1,04,1,08,1,00250,1,00,1,02,1",,,,"999,M,+0173,1","99999,9,10017,1","6,1,009,1,+999,9",,"SYN082AAXX  28184 08044 12364 61803 10136 20089 30017 40147 56009 60002 84802 333 10173;","Q01  00002PRCP12"
"08044099999","2010-03-29T06:00:00","4","42.4333333","-8.6166666","108.0","PONTEVEDRA, SP","FM-12","99999","V020","170,1,N,0051,1","00210,1,9,N","008000,1,N,1","+0109,1","+0101,1","10050,1","12,0010,9,1","24,0010,9,1","8,1,06,1","2,1,06,1",,"08,99,1,05,1,07,1,00250,1,07,1,99,9","0396,9",,,"999,N,+0107,1","99999,9,09920,1","7,1,035,1,+999,9","81,1","SYN106AAXX  29064 08044 11358 81710 10109 20101 39920 40050 57035 69992 78182 8577/ 333 20107 50144 55066 70009;",
"08044099999","2010-03-29T09:00:00","4","42.4333333","-8.6166666","108.0","PONTEVEDRA, SP","FM-12","99999","V020","170,1,N,0041,1","00600,1,9,N","009000,1,N,1","+0124,1","+0113,1","10038,1",,,"8,1,03,1","6,1,03,1",,"08,99,1,06,1,08,1,00250,1,07,1,99,9",,,,,"99999,9,09909,1","6,1,011,1,+999,9","81,1","SYN072AAXX  29094 08044 41359 81708 10124 20113 39909 40038 56011 78186 8687/;",
"08044099999","2010-03-29T12:00:00","4","42.4333333","-8.6166666","108.0","PONTEVEDRA, SP","FM-12","99999","V020","180,1,N,0046,1","00600,1,9,N","004000,1,N,1","+0134,1","+0116,1","10017,1","06,0030,9,1",,"8,1,06,1","6,1,06,1",,"08,99,1,07,1,08,1,00150,1,07,1,99,9",,,,,"99999,9,09889,1","8,1,020,1,+999,9","80,1","SYN078AAXX  29124 08044 11240 81809 10134 20116 39889 40017 58020 60031 78086 8787/;",
"08044099999","2010-03-29T15:00:00","4","42.4333333","-8.6166666","108.0","PONTEVEDRA, SP","FM-12","99999","V020","210,1,N,0021,1","00210,1,9,N","012000,1,N,1","+0101,1","+0089,1","10030,1",,,"8,1,03,1","2,1,03,1",,"07,99,1,06,1,07,1,00250,1,07,1,99,9",,,,,"99999,9,09900,1","3,1,011,1,+999,9","80,1","SYN072AAXX  29154 08044 41362 72104 10101 20089 39900 40030 53011 78082 8677/;",
"08044099999","2010-03-29T18:00:00","4","42.4333333","-8.6166666","108.0","PONTEVEDRA, SP","FM-12","99999","V020","230,1,N,0021,1","00210,1,9,N","010000,1,N,1","+0097,1","+0089,1","10035,1","12,0079,9,1",,"8,1,06,1","2,1,06,1",,"07,99,1,07,1,03,1,00250,1,99,9,99,9",,,,"999,M,+0145,1","99999,9,09905,1","1,1,005,1,+999,9","29,1","SYN088AAXX  29184 08044 11360 72304 10097 20089 39905 40035 51005 60082 72982 873// 333 10145;",
"08044099999","2010-03-30T06:00:00","4","42.4333333","-8.6166666","108.0","PONTEVEDRA, SP","FM-12","99999","V020","220,1,N,0010,1","00600,1,9,N","004000,1,N,1","+0083,1","+0071,1","10133,1","12,0041,9,1","24,0122,9,1",,,,"08,99,1,06,1,08,1,00250,1,07,1,99,9","0048,9",,,"999,N,+0083,1","99999,9,10001,1","2,1,035,1,+999,9","25,1","SYN106AAXX  30064 08044 11340 82202 10083 20071 30001 40133 52035 60042 725// 8687/ 333 20083 50084 55008 70122;",
"08044099999","2010-03-30T09:00:00","4","42.4333333","-8.6166666","108.0","PONTEVEDRA, SP","FM-12","99999","V020","290,1,N,0015,1","00600,1,9,N","004000,1,N,1","+0090,1","+0079,1","10161,1",,,"8,1,03,1","2,1,03,1",,"08,99,1,08,1,08,1,00250,1,99,9,99,9",,,,,"99999,9,10029,1","2,1,028,1,+999,9","80,1","SYN072AAXX  30094 08044 41340 82903 10090 20079 30029 40161 52028 78082 888//;",
"08044099999","2010-03-30T12:00:00","4","42.4333333","-8.6166666","108.0","PONTEVEDRA, SP","FM-12","99999","V020","280,1,N,0072,1","00600,1,9,N","012000,1,N,1","+0093,1","+0060,1","10179,1","06,0061,9,1",,"8,1,06,1","2,1,06,1",,"06,99,1,06,1,08,1,00250,1,00,1,00,1",,,,,"99999,9,10047,1","3,1,018,1,+999,9","80,1","SYN078AAXX  30124 08044 11362 62814 10093 20060 30047 40179 53018 60061 78082 86800;",
"08044099999","2010-03-30T15:00:00","4","42.4333333","-8.6166666","108.0","PONTEVEDRA, SP","FM-12","99999","V020","270,1,N,0046,1","00900,1,9,N","015000,1,N,1","+0121,1","+0046,1","10178,1",,,"8,1,03,1","2,1,03,1",,"06,99,1,06,1,08,1,00450,1,00,1,00,1",,,,,"99999,9,10047,1","4,1,000,1,+999,9","02,1","SYN072AAXX  30154 08044 41465 62709 10121 20046 30047 40178 54000 70282 86800;",
"08044099999","2010-03-30T18:00:00","4","42.4333333","-8.6166666","108.0","PONTEVEDRA, SP","FM-12","99999","V020","290,1,N,0051,1","00900,1,9,N","010000,1,N,1","+0095,1","+0071,1","10183,1","12,0071,9,1",,"8,1,06,1","2,1,06,1",,"07,99,1,07,1,08,1,00450,1,99,9,99,9",,,,"999,M,+0125,1","99999,9,10051,1","3,1,004,1,+999,9","81,1","SYN088AAXX  30184 08044 11460 72910 10095 20071 30051 40183 53004 60072 78182 878// 333 10125;",
"08044099999","2010-03-31T06:00:00","4","42.4333333","-8.6166666","108.0","PONTEVEDRA, SP","FM-12","99999","V020","170,1,N,0036,1","00420,1,9,N","010000,1,N,1","+0086,1","+0069,1","10169,1","12,0041,9,1","24,0112,9,1",,,,"07,99,1,05,1,02,1,00450,1,03,1,01,1","0342,9","11,9","999,+0060,9","999,N,+0075,1","99999,9,10037,1","6,1,015,1,+999,9","02,1","SYN112AAXX  31064 08044 11460 71707 10086 20069 30037 40169 56015 60042 702// 85231 333 20075 32006 50094 55057 70113;",
"08044099999","2010-03-31T09:00:00","4","42.4333333","-8.6166666","108.0","PONTEVEDRA, SP","FM-12","99999","V020","180,1,N,0031,1","00900,1,9,N","010000,1,N,1","+0092,1","+0087,1","10163,1",,,"6,1,03,1","2,1,03,1",,"08,99,1,05,1,08,1,00450,1,07,1,99,9",,,,,"99999,9,10031,1","7,1,006,1,+999,9","21,1","SYN072AAXX  31094 08044 41460 81806 10092 20087 30031 40163 57006 72162 8587/;",
"08044099999","2010-03-31T12:00:00","4","42.4333333","-8.6166666","108.0","PONTEVEDRA, SP","FM-12","99999","V020","230,1,N,0026,1","00600,1,9,N","008000,1,N,1","+0107,1","+0098,1","10153,1","06,0089,9,1",,"6,1,06,1","2,1,06,1",,"08,99,1,07,1,08,1,00250,1,07,1,01,1",,,,,"99999,9,10022,1","5,1,009,1,+999,9","60,1","SYN078AAXX  31124 08044 11358 82305 10107 20098 30022 40153 55009 60091 76062 87871;",
"08044099999","2010-03-31T15:00:00","4","42.4333333","-8.6166666","108.0","PONTEVEDRA, SP","FM-12","99999","V020","300,1,N,0036,1","00900,1,9,N","015000,1,N,1","+0110,1","+0057,1","10164,1",,,"6,1,03,1","2,1,03,1",,"07,99,1,06,1,08,1,00450,1,07,1,00,1",,,,,"99999,9,10033,1","1,1,011,1,+999,9","02,1","SYN072AAXX  31154 08044 41465 73007 10110 20057 30033 40164 51011 70262 86870;",
"08044099999","2010-03-31T18:00:00","4","42.4333333","-8.6166666","108.0","PONTEVEDRA, SP","FM-12","99999","V020","270,1,N,0021,1","22000,1,9,N","012000,1,N,1","+0100,1","+0065,1","10173,1","12,0089,9,1",,"6,1,06,1","2,1,06,1",,"04,99,1,03,1,02,1,00450,1,03,1,01,1",,,,"999,M,+0120,1","99999,9,10041,1","3,1,008,1,+999,9","02,1","SYN088AAXX  31184 08044 11462 42704 10100 20065 30041 40173 53008 60092 70262 83231 333 10120;",
"08044099999","2010-04-01T06:00:00","4","42.4333333","-8.6166666","108.0","PONTEVEDRA, SP","FM-12","99999","V020","110,1,N,0021,1","22000,1,9,N","010000,1,N,1","+0048,1","+0033,1","10202,1","12,0000,9,1","24,0094,9,1",,,,"03,99,1,02,1,02,1,00450,1,03,1,01,1","0084,9","09,9","999,+0040,9","999,N,+0044,1","99999,9,10067,1","1,1,001,1,+999,9","02,1","SYN112AAXX  01064 08044 11460 31104 10048 20033 30067 40202 51001 69912 702// 82231 333 20044 31004 50084 55014 70093;","Q01  00002PRCP12"
"08044099999","2010-04-01T09:00:00","4","42.4333333","-8.6166666","108.0","PONTEVEDRA, SP","FM-12","99999","V020","160,1,N,0010,1","22000,1,9,N","020000,1,N,1","+0089,1","+0051,1","10209,1",,,,,,"03,99,1,01,1,02,1,00450,1,03,1,01,1",,,,,"99999,9,10076,1","1,1,009,1,+999,9",,"SYN066AAXX  01094 08044 42470 31602 10089 20051 30076 40209 51009 81231;",
"08044099999","2010-04-01T12:00:00","4","42.4333333","-8.6166666","108.0","PONTEVEDRA, SP","FM-12","99999","V020","180,1,N,0021,1","03600,1,9,N","020000,1,N,1","+0110,1","+0067,1","10213,1","06,0003,9,1",,"8,1,06,1","1,1,06,1",,"05,99,1,03,1,02,1,00450,1,03,1,01,1",,,,,"99999,9,10081,1","1,1,005,1,+999,9","02,1","SYN078AAXX  01124 08044 11470 51804 10110 20067 30081 40213 51005 69931 70281 83231;",
"08044099999","2010-04-01T15:00:00","4","42.4333333","-8.6166666","108.0","PONTEVEDRA, SP","FM-12","99999","V020","250,1,N,0021,1","22000,1,9,N","015000,1,N,1","+0122,1","+0058,1","10208,1",,,,,,"04,99,1,04,1,02,1,00800,1,00,1,00,1",,,,,"99999,9,10077,1","8,1,004,1,+999,9",,"SYN066AAXX  01154 08044 42565 42504 10122 20058 30077 40208 58004 84200;",
"08044099999","2010-04-01T18:00:00","4","42.4333333","-8.6166666","108.0","PONTEVEDRA, SP","FM-12","99999","V020","180,1,N,0015,1","00750,1,9,N","010000,1,N,1","+0104,1","+0071,1","10208,1","12,0003,9,1",,,,,"07,99,1,05,1,02,1,00800,1,03,1,01,1",,,,"999,M,+0125,1","99999,9,10076,1","7,1,001,1,+999,9",,"SYN082AAXX  01184 08044 12560 71803 10104 20071 30076 40208 57001 69932 85231 333 10125;",
"08044099999","2010-04-02T06:00:00","4","42.4333333","-8.6166666","108.0","PONTEVEDRA, SP","FM-12","99999","V020","190,1,N,0021,1","00600,1,9,N","010000,1,N,1","+0098,1","+0077,1","10175,1","12,0020,9,1","24,0023,9,1",,,,"08,99,1,05,1,08,1,00250,1,07,1,99,9","0438,9","11,9","999,+0080,9","999,N,+0086,1","99999,9,10043,1","5,1,006,1,+999,9","60,1","SYN112AAXX  02064 08044 11360 81904 10098 20077 30043 40175 55006 60022 760// 8587/ 333 20086 32008 50124 55073 70022;",
"08044099999","2010-04-02T09:00:00","4","42.4333333","-8.6166666","108.0","PONTEVEDRA, SP","FM-12","99999","V020","190,1,N,0031,1","00210,1,9,N","008000,1,N,1","+0112,1","+0098,1","10171,1",,,"8,1,03,1","2,1,03,1",,"08,99,1,07,1,02,1,00250,1,07,1,99,9",,,,,"99999,9,10040,1","6,1,003,1,+999,9","25,1","SYN072AAXX  02094 08044 41358 81906 10112 20098 30040 40171 56003 72582 8727/;",
"08044099999","2010-04-02T12:00:00","4","42.4333333","-8.6166666","108.0","PONTEVEDRA, SP","FM-12","99999","V020","200,1,N,0021,1","00600,1,9,N","010000,1,N,1","+0124,1","+0105,1","10174,1","06,0041,9,1",,"8,1,06,1","6,1,06,1",,"08,99,1,07,1,08,1,00250,1,07,1,99,9",,,,,"99999,9,10044,1","1,1,004,1,+999,9","02,1","SYN078AAXX  02124 08044 11360 82004 10124 20105 30044 40174 51004 60041 70286 8787/;",
"08044099999","2010-04-02T15:00:00","4","42.4333333","-8.6166666","108.0","PONTEVEDRA, SP","FM-12","99999","V020","210,1,N,0026,1","03600,1,9,N","010000,1,N,1","+0136,1","+0080,1","10171,1",,,"6,1,03,1","2,1,03,1",,"05,99,1,04,1,02,1,00450,1,03,1,01,1",,,,,"99999,9,10041,1","8,1,003,1,+999,9","02,1","SYN072AAXX  02154 08044 41460 52105 10136 20080 30041 40171 58003 70262 84231;",
"08044099999","2010-04-02T18:00:00","4","42.4333333","-8.6166666","108.0","PONTEVEDRA, SP","FM-12","99999","V020","190,1,N,0021,1","03600,1,9,N","010000,1,N,1","+0121,1","+0074,1","10171,1","12,0041,9,1",,"6,1,06,1","2,1,06,1",,"08,99,1,03,1,02,1,00800,1,07,1,08,1",,,,"999,M,+0138,1","99999,9,10040,1","6,1,001,1,+999,9","02,1","SYN088AAXX  02184 08044 11560 81904 10121 20074 30040 40171 56001 60042 70262 83278 333 10138;",
"08044099999","2010-04-03T06:00:00","4","42.4333333","-8.6166666","108.0","PONTEVEDRA, SP","FM-12","99999","V020","250,1,N,0021,1","03600,1,9,N","010000,1,N,1","+0084,1","+0062,1","10144,1","12,0051,9,1","24,0094,9,1",,,,"06,99,1,04,1,02,1,00450,1,03,1,01,1","0222,9","11,9","999,+0070,9","999,N,+0083,1","99999,9,10012,1","6,1,002,1,+999,9","02,1","SYN112AAXX  03064 08044 11460 62504 10084 20062 30012 40144 56002 60052 702// 84231 333 20083 32007 50084 55037 70094;",
"08044099999","2010-04-03T09:00:00","4","42.4333333","-8.6166666","108.0","PONTEVEDRA, SP","FM-12","99999","V020","270,1,N,0041,1","22000,1,9,N","015000,1,N,1","+0106,1","+0036,1","10154,1",,,,,,"02,99,1,02,1,02,1,00450,1,03,1,00,1",,,,,"99999,9,10023,1","3,1,011,1,+999,9",,"SYN066AAXX  03094 08044 42465 22708 10106 20036 30023 40154 53011 82230;",
"08044099999","2010-04-03T12:00:00","4","42.4333333","-8.6166666","108.0","PONTEVEDRA, SP","FM-12","99999","V020","260,1,N,0026,1","00420,1,9,N","015000,1,N,1","+0120,1","+0071,1","10157,1","06,0000,9,1",,"8,1,06,1","1,1,06,1",,"07,99,1,07,1,02,1,00450,1,03,1,00,1",,,,,"99999,9,10026,1","1,1,003,1,+999,9","02,1","SYN078AAXX  03124 08044 11465 72605 10120 20071 30026 40157 51003 69921 70281 87230;","Q01  00002PRCP06"
"08044099999","2010-04-03T15:00:00","4","42.4333333","-8.6166666","108.0","PONTEVEDRA, SP","FM-12","99999","V020","070,1,N,0021,1","00420,1,9,N","015000,1,N,1","+0080,1","+0058,1","10174,1",,,"8,1,03,1","2,1,03,1",,"08,99,1,07,1,02,1,00450,1,07,1,99,9",,,,,"99999,9,10041,1","1,1,015,1,+999,9","60,1","SYN072AAXX  03154 08044 41465 80704 10080 20058 30041 40174 51015 76082 8727/;",
"08044099999","2010-04-03T18:00:00","4","42.4333333","-8.6166666","108.0","PONTEVEDRA, SP","FM-12","99999","V020","110,1,N,0021,1","00750,1,9,N","012000,1,N,1","+0080,1","+0063,1","10187,1","12,0051,9,1",,"8,1,06,1","2,1,06,1","01,1,+00750,1,09,1","07,99,1,06,1,09,1,00800,1,07,1,03,1",,,,"120,M,+0136,1","99999,9,10054,1","1,1,013,1,+999,9","25,1","SYN094AAXX  03184 08044 11562 71104 10080 20063 30054 40187 51013 60052 72582 86973 333 10136 81925;",
"08044099999","2010-04-04T06:00:00","4","42.4333333","-8.6166666","108.0","PONTEVEDRA, SP","FM-12","99999","V020","100,1,N,0015,1","22000,1,9,N","010000,1,N,1","+0038,1","+0028,1","10255,1","12,0005,9,1","24,0051,9,1",,,,"01,99,1,01,1,01,1,00800,1,00,1,00,1","0252,9","09,9","999,+0020,9","999,N,+0038,1","99999,9,10119,1","1,1,014,1,+999,9","02,1","SYN112AAXX  04064 08044 11560 11003 10038 20028 30119 40255 51014 69942 702// 81100 333 20038 31002 50074 55042 70052;",
"08044099999","2010-04-04T09:00:00","4","42.4333333","-8.6166666","108.0","PONTEVEDRA, SP","FM-12","99999","V020","110,1,N,0010,1","09000,1,9,N","012000,1,N,1","+0093,1","+0059,1","10272,1",,,,,,"05,99,1,01,1,01,1,00800,1,05,1,01,1",,,,,"99999,9,10139,1","2,1,020,1,+999,9",,"SYN066AAXX  04094 08044 42562 51102 10093 20059 30139 40272 52020 81151;",
"08044099999","2010-04-04T12:00:00","4","42.4333333","-8.6166666","108.0","PONTEVEDRA, SP","FM-12","99999","V020","320,1,N,0021,1","22000,1,9,N","015000,1,N,1","+0124,1","+0051,1","10272,1","06,0000,9,1",,,,,"04,99,1,04,1,02,1,00800,1,00,1,01,1",,,,,"99999,9,10140,1","1,1,001,1,+999,9",,"SYN072AAXX  04124 08044 12565 43204 10124 20051 30140 40272 51001 60001 84201;","Q01  00002PRCP06"
"08044099999","2010-04-04T15:00:00","4","42.4333333","-8.6166666","108.0","PONTEVEDRA, SP","FM-12","99999","V020","260,1,N,0021,1","03600,1,9,N","015000,1,N,1","+0128,1","+0055,1","10270,1",,,,,,"05,99,1,03,1,02,1,00800,1,03,1,01,1",,,,,"99999,9,10138,1","8,1,002,1,+999,9",,"SYN066AAXX  04154 08044 42565 52604 10128 20055 30138 40270 58002 83231;",
"08044099999","2010-04-04T18:00:00","4","42.4333333","-8.6166666","108.0","PONTEVEDRA, SP","FM-12","99999","V020","300,1,N,0031,1","22000,1,9,N","010000,1,N,1","+0125,1","+0054,1","10268,1","12,0000,9,1",,,,,"01,99,1,01,1,01,1,00800,1,00,1,01,1",,,,"999,M,+0145,1","99999,9,10136,1","6,1,002,1,+999,9",,"SYN082AAXX  04184 08044 12560 13006 10125 20054 30136 40268 56002 60002 81101 333 10145;","Q01  00002PRCP12"
"08044099999","2010-04-05T06:00:00","4","42.4333333","-8.6166666","108.0","PONTEVEDRA, SP","FM-12","99999","V020","120,1,N,0010,1","22000,1,9,N","020000,1,N,1","+0044,1","+0029,1","10252,1","12,0000,9,1","24,0000,9,1",,,,"01,99,1,00,1,00,1,99999,9,00,1,01,1","0504,9","09,9","999,+0020,9","999,N,+0043,1","99999,9,10117,1","7,1,011,1,+999,9","02,1","SYN112AAXX  05064 08044 11970 11202 10044 20029 30117 40252 57011 60002 702// 80001 333 20043 31002 50144 55084 70000;","Q01  00002PRCP24Q02  00002PRCP12"
"08044099999","2010-04-05T09:00:00","4","42.4333333","-8.6166666","108.0","PONTEVEDRA, SP","FM-12","99999","V020","330,1,N,0010,1","22000,1,9,N","030000,1,N,1","+0092,1","+0052,1","10248,1",,,,,,"02,99,1,00,1,00,1,99999,9,00,1,01,1",,,,,"99999,9,10115,1","6,1,002,1,+999,9",,"SYN066AAXX  05094 08044 42980 23302 10092 20052 30115 40248 56002 80001;",
"08044099999","2010-04-05T12:00:00","4","42.4333333","-8.6166666","108.0","PONTEVEDRA, SP","FM-12","99999","V020","180,1,N,0010,1","22000,1,9,N","020000,1,N,1","+0162,1","+0074,1","10237,1","06,0000,9,1",,,,,"01,99,1,00,1,00,1,99999,9,00,1,01,1",,,,,"99999,9,10107,1","8,1,008,1,+999,9",,"SYN072AAXX  05124 08044 12970 11802 10162 20074 30107 40237 58008 60001 80001;","Q01  00002PRCP06"
"08044099999","2010-04-05T15:00:00","4","42.4333333","-8.6166666","108.0","PONTEVEDRA, SP","FM-12","99999","V020","260,1,N,0021,1","22000,1,9,N","015000,1,N,1","+0173,1","+0056,1","10207,1",,,,,"00,1,+99999,9,99,9","00,99,1,00,1,00,1,99999,9,00,1,00,1",,,,,"99999,9,10078,1","7,1,029,1,+999,9",,"SYN060AAXX  05154 08044 42965 02604 10173 20056 30078 40207 57029;",
"08044099999","2010-04-05T18:00:00","4","42.4333333","-8.6166666","108.0","PONTEVEDRA, SP","FM-12","99999","V020","270,1,N,0021,1","22000,1,9,N","012000,1,N,1","+0155,1","+0062,1","10197,1","12,0000,9,1",,,,,"01,99,1,00,1,00,1,99999,9,00,1,01,1",,,,"999,M,+0178,1","99999,9,10068,1","6,1,010,1,+999,9",,"SYN082AAXX  05184 08044 12962 12704 10155 20062 30068 40197 56010 60002 80001 333 10178;","Q01  00002PRCP12"
"08044099999","2010-04-06T06:00:00","4","42.4333333","-8.6166666","108.0","PONTEVEDRA, SP","FM-12","99999","V020","130,1,N,0015,1","99999,9,9,N","030000,1,N,1","+0064,1","+0025,1","10164,1","12,0000,9,1","24,0000,9,1",,,,"05,99,1,01,1,00,1,99999,9,03,1,01,1","0726,9","01,9","999,+0040,9","999,N,+0063,1","99999,9,10031,1","7,1,009,1,+999,9","02,1","SYN112AAXX  06064 08044 11980 51303 10064 20025 30031 40164 57009 60002 702// 81031 333 20063 30004 50224 55121 70000;","Q01  00002PRCP24Q02  00002PRCP12"
"08044099999","2010-04-06T09:00:00","4","42.4333333","-8.6166666","108.0","PONTEVEDRA, SP","FM-12","99999","V020","180,1,N,0010,1","22000,1,9,N","030000,1,N,1","+0126,1","+0055,1","10162,1",,,,,,"02,99,1,01,1,00,1,99999,9,04,1,01,1",,,,,"99999,9,10032,1","1,1,001,1,+999,9",,"SYN066AAXX  06094 08044 42980 21802 10126 20055 30032 40162 51001 81041;",
"08044099999","2010-04-06T12:00:00","4","42.4333333","-8.6166666","108.0","PONTEVEDRA, SP","FM-12","99999","V020","260,1,N,0021,1","03600,1,9,N","020000,1,N,1","+0166,1","+0093,1","10161,1","06,0000,9,1",,,,,"05,99,1,01,1,01,1,00800,1,04,1,05,1",,,,,"99999,9,10033,1","0,1,001,1,+999,9",,"SYN072AAXX  06124 08044 12570 52604 10166 20093 30033 40161 50001 60001 81145;","Q01  00002PRCP06"
"08044099999","2010-04-06T15:00:00","4","42.4333333","-8.6166666","108.0","PONTEVEDRA, SP","FM-12","99999","V020","230,1,N,0015,1","03600,1,9,N","015000,1,N,1","+0140,1","+0098,1","10162,1",,,,,,"08,99,1,01,1,01,1,00800,1,07,1,99,9",,,,,"99999,9,10032,1","8,1,001,1,+999,9",,"SYN066AAXX  06154 08044 42565 82303 10140 20098 30032 40162 58001 8117/;",
"08044099999","2010-04-06T18:00:00","4","42.4333333","-8.6166666","108.0","PONTEVEDRA, SP","FM-12","99999","V020","180,1,N,0010,1","03600,1,9,N","006000,1,N,1","+0128,1","+0102,1","10162,1","12,9999,9,9",,"6,1,06,1","2,1,06,1",,"08,99,1,04,1,08,1,00250,1,07,1,99,9",,,,"999,M,+0175,1","99999,9,10032,1","5,1,000,1,+999,9","60,1","SYN088AAXX  06184 08044 11356 81802 10128 20102 30032 40162 55000 69922 76062 8487/ 333 10175;","Q01  00002PRCP12Q02  00002PRCP12"
"08044099999","2010-04-07T06:00:00","4","42.4333333","-8.6166666","108.0","PONTEVEDRA, SP","FM-12","99999","V020","080,1,N,0015,1","22000,1,9,N","020000,1,N,1","+0067,1","+0053,1","10230,1","12,0071,9,1","24,0074,9,1",,,,"01,99,1,01,1,05,1,00800,1,00,1,00,1","0342,9",,,"999,N,+0064,1","99999,9,10096,1","2,1,014,1,+999,9","02,1","SYN106AAXX  07064 08044 11570 10803 10067 20053 30096 40230 52014 60072 702// 81500 333 20064 50114 55057 70073;",
"08044099999","2010-04-07T09:00:00","4","42.4333333","-8.6166666","108.0","PONTEVEDRA, SP","FM-12","99999","V020","040,1,N,0026,1","22000,1,9,N","020000,1,N,1","+0116,1","+0069,1","10237,1",,,,,,"01,99,1,01,1,01,1,00450,1,00,1,00,1",,,,,"99999,9,10105,1","1,1,009,1,+999,9",,"SYN066AAXX  07094 08044 42470 10405 10116 20069 30105 40237 51009 81100;",
"08044099999","2010-04-07T12:00:00","4","42.4333333","-8.6166666","108.0","PONTEVEDRA, SP","FM-12","99999","V020","350,1,N,0041,1","22000,1,9,N","020000,1,N,1","+0157,1","+0062,1","10235,1","06,0000,9,1",,,,,"02,99,1,02,1,05,1,00450,1,00,1,00,1",,,,,"99999,9,10105,1","4,1,000,1,+999,9",,"SYN072AAXX  07124 08044 12470 23508 10157 20062 30105 40235 54000 60001 82500;","Q01  00002PRCP06"
"08044099999","2010-04-07T15:00:00","4","42.4333333","-8.6166666","108.0","PONTEVEDRA, SP","FM-12","99999","V020","340,1,N,0051,1","22000,1,9,N","020000,1,N,1","+0172,1","+0052,1","10227,1",,,,,,"02,99,1,02,1,05,1,00450,1,00,1,01,1",,,,,"99999,9,10098,1","8,1,007,1,+999,9",,"SYN066AAXX  07154 08044 42470 23410 10172 20052 30098 40227 58007 82501;",
"08044099999","2010-04-07T18:00:00","4","42.4333333","-8.6166666","108.0","PONTEVEDRA, SP","FM-12","99999","V020","340,1,N,0041,1","22000,1,9,N","020000,1,N,1","+0159,1","+0071,1","10227,1","12,0000,9,1",,,,,"01,99,1,00,1,00,1,99999,9,00,1,01,1",,,,"999,M,+0175,1","99999,9,10097,1","5,1,001,1,+999,9",,"SYN082AAXX  07184 08044 12970 13408 10159 20071 30097 40227 55001 60002 80001 333 10175;","Q01  00002PRCP12"
"08044099999","2010-04-08T06:00:00","4","42.4333333","-8.6166666","108.0","PONTEVEDRA, SP","FM-12","99999","V020","150,1,N,0010,1","22000,1,9,N","020000,1,N,1","+0068,1","+0045,1","10242,1","12,0000,9,1","24,0000,9,1",,,,"01,99,1,01,1,00,1,01750,1,03,1,00,1","0738,9",,,"999,N,+0068,1","99999,9,10108,1","3,1,007,1,+999,9","02,1","SYN106AAXX  08064 08044 11770 11502 10068 20045 30108 40242 53007 60002 702// 81030 333 20068 50274 55123 70000;","Q01  00002PRCP24Q02  00002PRCP12"
"08044099999","2010-04-08T09:00:00","4","42.4333333","-8.6166666","108.0","PONTEVEDRA, SP","FM-12","99999","V020","170,1,N,0010,1","22000,1,9,N","020000,1,N,1","+0126,1","+0062,1","10246,1",,,,,,"01,99,1,01,1,00,1,01750,1,03,1,00,1",,,,,"99999,9,10115,1","1,1,007,1,+999,9",,"SYN066AAXX  08094 08044 42770 11702 10126 20062 30115 40246 51007 81030;",
"08044099999","2010-04-08T12:00:00","4","42.4333333","-8.6166666","108.0","PONTEVEDRA, SP","FM-12","99999","V020","300,1,N,0026,1","22000,1,9,N","020000,1,N,1","+0192,1","+0099,1","10239,1","06,0000,9,1",,,,,"02,99,1,01,1,00,1,01750,1,03,1,02,1",,,,,"99999,9,10111,1","8,1,004,1,+999,9",,"SYN072AAXX  08124 08044 12770 23005 10192 20099 30111 40239 58004 60001 81032;","Q01  00002PRCP06"
"08044099999","2010-04-08T15:00:00","4","42.4333333","-8.6166666","108.0","PONTEVEDRA, SP","FM-12","99999","V020","250,1,N,0015,1","22000,1,9,N","020000,1,N,1","+0210,1","+0113,1","10221,1",,,,,,"01,99,1,01,1,00,1,01750,1,03,1,00,1",,,,,"99999,9,10094,1","8,1,017,1,+999,9",,"SYN066AAXX  08154 08044 42770 12503 10210 20113 30094 40221 58017 81030;",
"08044099999","2010-04-08T18:00:00","4","42.4333333","-8.6166666","108.0","PONTEVEDRA, SP","FM-12","99999","V020","220,1,N,0010,1","22000,1,9,N","015000,1,N,1","+0184,1","+0103,1","10219,1","12,0000,9,1",,,,,"01,99,1,00,1,00,1,99999,9,00,1,02,1",,,,"999,M,+0214,1","99999,9,10091,1","6,1,003,1,+999,9",,"SYN082AAXX  08184 08044 12965 12202 10184 20103 30091 40219 56003 60002 80002 333 10214;","Q01  00002PRCP12"
"08044099999","2010-04-09T06:00:00","4","42.4333333","-8.6166666","108.0","PONTEVEDRA, SP","FM-12","99999","V020","090,1,N,0026,1","22000,1,9,N","020000,1,N,1","+0125,1","+0037,1","10219,1","12,0000,9,1","24,0000,9,1",,,,"01,99,1,01,1,00,1,01750,1,03,1,00,1","0726,9",,,"999,N,+0116,1","99999,9,10088,1","3,1,003,1,+999,9","02,1","SYN106AAXX  09064 08044 11770 10905 10125 20037 30088 40219 53003 60002 702// 81030 333 20116 50264 55121 70000;","Q01  00002PRCP24Q02  00002PRCP12"
"08044099999","2010-04-09T09:00:00","4","42.4333333","-8.6166666","108.0","PONTEVEDRA, SP","FM-12","99999","V020","050,1,N,0010,1","22000,1,9,N","020000,1,N,1","+0174,1","+0066,1","10220,1",,,,,,"01,99,1,01,1,00,1,01750,1,03,1,00,1",,,,,"99999,9,10091,1","1,1,003,1,+999,9",,"SYN066AAXX  09094 08044 42770 10502 10174 20066 30091 40220 51003 81030;",
"08044099999","2010-04-09T12:00:00","4","42.4333333","-8.6166666","108.0","PONTEVEDRA, SP","FM-12","99999","V020","200,1,N,0010,1","22000,1,9,N","020000,1,N,1","+0220,1","+0078,1","10212,1","06,0000,9,1",,,,,"01,99,1,01,1,00,1,01750,1,03,1,00,1",,,,,"99999,9,10085,1","8,1,006,1,+999,9",,"SYN072AAXX  09124 08044 12770 12002 10220 20078 30085 40212 58006 60001 81030;","Q01  00002PRCP06"
"08044099999","2010-04-09T15:00:00","4","42.4333333","-8.6166666","108.0","PONTEVEDRA, SP","FM-12","99999","V020","190,1,N,0015,1","22000,1,9,N","020000,1,N,1","+0208,1","+0100,1","10202,1",,,,,"00,1,+99999,9,99,9","00,99,1,00,1,00,1,99999,9,00,1,00,1",,,,,"99999,9,10075,1","8,1,010,1,+999,9",,"SYN060AAXX  09154 08044 42970 01903 10208 20100 30075 40202 58010;",
"08044099999","2010-04-09T18:00:00","4","42.4333333","-8.6166666","108.0","PONTEVEDRA, SP","FM-12","99999","V020","250,1,N,0015,1","22000,1,9,N","020000,1,N,1","+0175,1","+0094,1","10204,1","12,0000,9,1",,,,"00,1,+99999,9,99,9","00,99,1,00,1,00,1,99999,9,00,1,00,1",,,,"999,M,+0226,1","99999,9,10075,1","4,1,000,1,+999,9",,"SYN076AAXX  09184 08044 12970 02503 10175 20094 30075 40204 54000 60002 333 10226;","Q01  00002PRCP12"
"08044099999","2010-04-10T06:00:00","4","42.4333333","-8.6166666","108.0","PONTEVEDRA, SP","FM-12","99999","V020","130,1,N,0010,1","22000,1,9,N","020000,1,N,1","+0112,1","+0061,1","10209,1","12,0000,9,1","24,0000,9,1",,,"00,1,+99999,9,99,9","00,99,1,00,1,00,1,99999,9,00,1,00,1","0744,9",,,"999,N,+0106,1","99999,9,10077,1","1,1,004,1,+999,9","02,1","SYN100AAXX  10064 08044 11970 01302 10112 20061 30077 40209 51004 60002 702// 333 20106 50274 55124 70000;","Q01  00002PRCP24Q02  00002PRCP12"
"08044099999","2010-04-10T09:00:00","4","42.4333333","-8.6166666","108.0","PONTEVEDRA, SP","FM-12","99999","V020","120,1,N,0010,1","22000,1,9,N","020000,1,N,1","+0170,1","+0094,1","10208,1",,,,,"00,1,+99999,9,99,9","00,99,1,00,1,00,1,99999,9,00,1,00,1",,,,,"99999,9,10079,1","1,1,002,1,+999,9",,"SYN060AAXX  10094 08044 42970 01202 10170 20094 30079 40208 51002;",
"08044099999","2010-04-10T12:00:00","4","42.4333333","-8.6166666","108.0","PONTEVEDRA, SP","FM-12","99999","V020","180,1,N,0021,1","22000,1,9,N","020000,1,N,1","+0240,1","+0067,1","10194,1","06,0000,9,1",,,,"00,1,+99999,9,99,9","00,99,1,00,1,00,1,99999,9,00,1,00,1",,,,,"99999,9,10068,1","8,1,011,1,+999,9",,"SYN066AAXX  10124 08044 12970 01804 10240 20067 30068 40194 58011 60001;","Q01  00002PRCP06"
"08044099999","2010-04-10T15:00:00","4","42.4333333","-8.6166666","108.0","PONTEVEDRA, SP","FM-12","99999","V020","240,1,N,0015,1","22000,1,9,N","020000,1,N,1","+0234,1","+0083,1","10174,1",,,,,"00,1,+99999,9,99,9","00,99,1,00,1,00,1,99999,9,00,1,00,1",,,,,"99999,9,10048,1","7,1,020,1,+999,9",,"SYN060AAXX  10154 08044 42970 02403 10234 20083 30048 40174 57020;",
"08044099999","2010-04-10T18:00:00","4","42.4333333","-8.6166666","108.0","PONTEVEDRA, SP","FM-12","99999","V020","240,1,N,0010,1","22000,1,9,N","015000,1,N,1","+0208,1","+0091,1","10162,1","12,0000,9,1",,,,"00,1,+99999,9,99,9","00,99,1,00,1,00,1,99999,9,00,1,00,1",,,,"999,M,+0245,1","99999,9,10035,1","6,1,013,1,+999,9",,"SYN076AAXX  10184 08044 12965 02402 10208 20091 30035 40162 56013 60002 333 10245;","Q01  00002PRCP12"
"08044099999","2010-04-11T06:00:00","4","42.4333333","-8.6166666","108.0","PONTEVEDRA, SP","FM-12","99999","V020","100,1,N,0021,1","22000,1,9,N","020000,1,N,1","+0136,1","+0034,1","10140,1","12,0000,9,1","24,0000,9,1",,,"00,1,+99999,9,99,9","00,99,1,00,1,00,1,99999,9,00,1,00,1","0744,9",,,"999,N,+0130,1","99999,9,10010,1","7,1,015,1,+999,9","02,1","SYN100AAXX  11064 08044 11970 01004 10136 20034 30010 40140 57015 60002 702// 333 20130 50374 55124 70000;","Q01  00002PRCP24Q02  00002PRCP12"
"08044099999","2010-04-11T09:00:00","4","42.4333333","-8.6166666","108.0","PONTEVEDRA, SP","FM-12","99999","V020","270,1,N,0010,1","22000,1,9,N","020000,1,N,1","+0182,1","+0090,1","10135,1",,,,,"00,1,+99999,9,99,9","00,99,1,00,1,00,1,99999,9,00,1,00,1",,,,,"99999,9,10008,1","8,1,002,1,+999,9",,"SYN060AAXX  11094 08044 42970 02702 10182 20090 30008 40135 58002;",
"08044099999","2010-04-11T12:00:00","4","42.4333333","-8.6166666","108.0","PONTEVEDRA, SP","FM-12","99999","V020","320,1,N,0046,1","22000,1,9,N","020000,1,N,1","+0236,1","+0077,1","10115,1","06,0000,9,1",,,,,"01,99,1,00,1,00,1,99999,9,00,1,01,1",,,,,"99999,9,09990,1","8,1,018,1,+999,9",,"SYN072AAXX  11124 08044 12970 13209 10236 20077 39990 40115 58018 60001 80001;","Q01  00002PRCP06"
"08044099999","2010-04-11T15:00:00","4","42.4333333","-8.6166666","108.0","PONTEVEDRA, SP","FM-12","99999","V020","310,1,N,0041,1","22000,1,9,N","020000,1,N,1","+0248,1","+0065,1","10089,1",,,,,,"01,99,1,00,1,00,1,99999,9,00,1,02,1",,,,,"99999,9,09965,1","7,1,025,1,+999,9",,"SYN066AAXX  11154 08044 42970 13108 10248 20065 39965 40089 57025 80002;",
"08044099999","2010-04-11T18:00:00","4","42.4333333","-8.6166666","108.0","PONTEVEDRA, SP","FM-12","99999","V020","340,1,N,0036,1","22000,1,9,N","015000,1,N,1","+0228,1","+0096,1","10070,1","12,0000,9,1",,,,,"01,99,1,00,1,00,1,99999,9,00,1,01,1",,,,"999,M,+0250,1","99999,9,09945,1","6,1,020,1,+999,9",,"SYN082AAXX  11184 08044 12965 13407 10228 20096 39945 40070 56020 60002 80001 333 10250;","Q01  00002PRCP12"
"08044099999","2010-04-12T06:00:00","4","42.4333333","-8.6166666","108.0","PONTEVEDRA, SP","FM-12","99999","V020","020,1,N,0010,1","22000,1,9,N","015000,1,N,1","+0096,1","+0058,1","10062,1","12,0000,9,1","24,0000,9,1",,,,"03,99,1,02,1,00,1,01750,1,03,1,02,1","0750,9",,,"999,N,+0094,1","99999,9,09932,1","6,1,003,1,+999,9","02,1","SYN106AAXX  12064 08044 11765 30202 10096 20058 39932 40062 56003 60002 702// 82032 333 20094 50424 55125 70000;","Q01  00002PRCP24Q02  00002PRCP12"
"08044099999","2010-04-12T09:00:00","4","42.4333333","-8.6166666","108.0","PONTEVEDRA, SP","FM-12","99999","V020","030,1,N,0031,1","09000,1,9,N","020000,1,N,1","+0156,1","+0058,1","10066,1",,,,,,"05,99,1,02,1,05,1,00800,1,05,1,02,1",,,,,"99999,9,09938,1","1,1,006,1,+999,9",,"SYN066AAXX  12094 08044 42570 50306 10156 20058 39938 40066 51006 82552;",
"08044099999","2010-04-12T12:00:00","4","42.4333333","-8.6166666","108.0","PONTEVEDRA, SP","FM-12","99999","V020","010,1,N,0046,1","09000,1,9,N","020000,1,N,1","+0194,1","+0055,1","10063,1","06,0000,9,1",,,,,"06,99,1,02,1,00,1,01750,1,03,1,08,1",,,,,"99999,9,09937,1","8,1,001,1,+999,9",,"SYN072AAXX  12124 08044 12770 60109 10194 20055 39937 40063 58001 60001 82038;","Q01  00002PRCP06"
"08044099999","2010-04-12T15:00:00","4","42.4333333","-8.6166666","108.0","PONTEVEDRA, SP","FM-12","99999","V020","030,1,N,0031,1","22000,1,9,N","020000,1,N,1","+0194,1","+0047,1","10060,1",,,,,,"04,99,1,00,1,00,1,99999,9,00,1,02,1",,,,,"99999,9,09934,1","8,1,003,1,+999,9",,"SYN066AAXX  12154 08044 42970 40306 10194 20047 39934 40060 58003 80002;",
"08044099999","2010-04-12T18:00:00","4","42.4333333","-8.6166666","108.0","PONTEVEDRA, SP","FM-12","99999","V020","340,1,N,0041,1","22000,1,9,N","015000,1,N,1","+0164,1","+0057,1","10060,1","12,0000,9,1",,,,,"04,99,1,02,1,00,1,01750,1,05,1,02,1",,,,"999,M,+0200,1","99999,9,09933,1","5,1,001,1,+999,9",,"SYN082AAXX  12184 08044 12765 43408 10164 20057 39933 40060 55001 60002 82052 333 10200;","Q01  00002PRCP12"
"08044099999","2010-04-13T06:00:00","4","42.4333333","-8.6166666","108.0","PONTEVEDRA, SP","FM-12","99999","V020","070,1,N,0031,1","22000,1,9,N","020000,1,N,1","+0074,1","-0015,1","10097,1","12,0000,9,1","24,0000,9,1",,,"00,1,+99999,9,99,9","00,99,1,00,1,00,1,99999,9,00,1,00,1","0384,9",,,"999,N,+0070,1","99999,9,09965,1","3,1,002,1,+999,9","02,1","SYN100AAXX  13064 08044 11970 00706 10074 21015 39965 40097 53002 60002 702// 333 20070 50354 55064 70000;","Q01  00002PRCP24Q02  00002PRCP12"
"08044099999","2010-04-13T09:00:00","4","42.4333333","-8.6166666","108.0","PONTEVEDRA, SP","FM-12","99999","V020","030,1,N,0031,1","22000,1,9,N","020000,1,N,1","+0130,1","-0010,1","10097,1",,,,,"00,1,+99999,9,99,9","00,99,1,00,1,00,1,99999,9,00,1,00,1",,,,,"99999,9,09967,1","3,1,002,1,+999,9",,"SYN060AAXX  13094 08044 42970 00306 10130 21010 39967 40097 53002;",
"08044099999","2010-04-13T12:00:00","4","42.4333333","-8.6166666","108.0","PONTEVEDRA, SP","FM-12","99999","V020","060,1,N,0026,1","22000,1,9,N","020000,1,N,1","+0184,1","+0005,1","10080,1","06,0000,9,1",,,,,"01,99,1,00,1,00,1,99999,9,00,1,02,1",,,,,"99999,9,09953,1","8,1,014,1,+999,9",,"SYN072AAXX  13124 08044 12970 10605 10184 20005 39953 40080 58014 60001 80002;","Q01  00002PRCP06"
"08044099999","2010-04-13T15:00:00","4","42.4333333","-8.6166666","108.0","PONTEVEDRA, SP","FM-12","99999","V020","050,1,N,0031,1","22000,1,9,N","020000,1,N,1","+0194,1","+0014,1","10062,1",,,,,,"01,99,1,01,1,01,1,00450,1,00,1,00,1",,,,,"99999,9,09936,1","6,1,017,1,+999,9",,"SYN066AAXX  13154 08044 42470 10506 10194 20014 39936 40062 56017 81100;",
"08044099999","2010-04-13T18:00:00","4","42.4333333","-8.6166666","108.0","PONTEVEDRA, SP","FM-12","99999","V020","350,1,N,0036,1","22000,1,9,N","015000,1,N,1","+0172,1","+0049,1","10057,1","12,0000,9,1",,,,,"02,99,1,01,1,01,1,00450,1,00,1,01,1",,,,"999,M,+0200,1","99999,9,09930,1","6,1,006,1,+999,9",,"SYN082AAXX  13184 08044 12465 23507 10172 20049 39930 40057 56006 60002 81101 333 10200;","Q01  00002PRCP12"
"08044099999","2010-04-14T06:00:00","4","42.4333333","-8.6166666","108.0","PONTEVEDRA, SP","FM-12","99999","V020","060,1,N,0026,1","22000,1,9,N","020000,1,N,1","+0096,1","+0010,1","10080,1","12,0000,9,1","24,0000,9,1",,,,"01,99,1,01,1,00,1,01750,1,05,1,00,1","0750,9",,,"999,N,+0085,1","99999,9,09949,1","6,1,005,1,+999,9","02,1","SYN106AAXX  14064 08044 11770 10605 10096 20010 39949 40080 56005 60002 702// 81050 333 20085 50414 55125 70000;","Q01  00002PRCP24Q02  00002PRCP12"
"08044099999","2010-04-14T09:00:00","4","42.4333333","-8.6166666","108.0","PONTEVEDRA, SP","FM-12","99999","V020","050,1,N,0021,1","22000,1,9,N","020000,1,N,1","+0154,1","+0039,1","10074,1",,,,,,"01,99,1,01,1,00,1,01750,1,05,1,00,1",,,,,"99999,9,09946,1","8,1,003,1,+999,9",,"SYN066AAXX  14094 08044 42770 10504 10154 20039 39946 40074 58003 81050;",
"08044099999","2010-04-14T12:00:00","4","42.4333333","-8.6166666","108.0","PONTEVEDRA, SP","FM-12","99999","V020","110,1,N,0026,1","22000,1,9,N","020000,1,N,1","+0206,1","+0046,1","10062,1","06,0000,9,1",,,,,"01,99,1,01,1,01,1,00450,1,00,1,00,1",,,,,"99999,9,09936,1","6,1,010,1,+999,9",,"SYN072AAXX  14124 08044 12470 11105 10206 20046 39936 40062 56010 60001 81100;","Q01  00002PRCP06"
"08044099999","2010-04-14T15:00:00","4","42.4333333","-8.6166666","108.0","PONTEVEDRA, SP","FM-12","99999","V020","130,1,N,0021,1","00900,1,9,N","020000,1,N,1","+0204,1","+0048,1","10045,1",,,,,,"05,99,1,05,1,08,1,00450,1,00,1,00,1",,,,,"99999,9,09920,1","6,1,016,1,+999,9",,"SYN066AAXX  14154 08044 42470 51304 10204 20048 39920 40045 56016 85800;",
"08044099999","2010-04-14T18:00:00","4","42.4333333","-8.6166666","108.0","PONTEVEDRA, SP","FM-12","99999","V020","050,1,N,0021,1","00900,1,9,N","020000,1,N,1","+0198,1","+0072,1","10035,1","12,0000,9,1",,,,,"05,99,1,05,1,08,1,00450,1,00,1,00,1",,,,"999,M,+0220,1","99999,9,09909,1","6,1,011,1,+999,9",,"SYN082AAXX  14184 08044 12470 50504 10198 20072 39909 40035 56011 60002 85800 333 10220;","Q01  00002PRCP12"
"08044099999","2010-04-15T06:00:00","4","42.4333333","-8.6166666","108.0","PONTEVEDRA, SP","FM-12","99999","V020","090,1,N,0021,1","00750,1,9,N","020000,1,N,1","+0120,1","+0085,1","10014,1","12,0020,9,2","24,0018,9,2","6,1,06,1",,,"07,99,1,05,1,05,1,00800,1,00,1,02,1","0510,9",,,"999,N,+0111,1","99999,9,09885,1","8,1,016,1,+999,9","02,1","SYN106AAXX  15064 08044 11570 70904 10120 20085 39885 40014 58016 60022 7026/ 85502 333 20111 50444 55085 70019;",
"08044099999","2010-04-15T09:00:00","4","42.4333333","-8.6166666","108.0","PONTEVEDRA, SP","FM-12","99999","V020","110,1,N,0021,1","00750,1,9,N","020000,1,N,1","+0171,1","+0090,1","10015,1",,,,,,"07,99,1,06,1,05,1,00800,1,00,1,02,1",,,,,"99999,9,09889,1","3,1,004,1,+999,9",,"SYN066AAXX  15094 08044 42570 71104 10171 20090 39889 40015 53004 86502;",
"08044099999","2010-04-15T12:00:00","4","42.4333333","-8.6166666","108.0","PONTEVEDRA, SP","FM-12","99999","V020","130,1,N,0036,1","00750,1,9,N","020000,1,N,1","+0209,1","+0107,1","10024,1","06,0000,9,1",,,,,"06,99,1,05,1,05,1,00800,1,04,1,00,1",,,,,"99999,9,09899,1","1,1,010,1,+999,9",,"SYN072AAXX  15124 08044 12570 61307 10209 20107 39899 40024 51010 60001 85540;","Q01  00002PRCP06"
"08044099999","2010-04-15T15:00:00","4","42.4333333","-8.6166666","108.0","PONTEVEDRA, SP","FM-12","99999","V020","080,1,N,0015,1","00900,1,9,N","008000,1,N,1","+0146,1","+0133,1","10044,1",,,"8,1,03,1","2,1,03,1",,"08,99,1,06,1,08,1,00450,1,07,1,99,9",,,,,"99999,9,09916,1","2,1,017,1,+999,9","80,1","SYN072AAXX  15154 08044 41458 80803 10146 20133 39916 40044 52017 78082 8687/;",
"08044099999","2010-04-15T18:00:00","4","42.4333333","-8.6166666","108.0","PONTEVEDRA, SP","FM-12","99999","V020","060,1,N,0021,1","03600,1,9,N","018000,1,N,1","+0161,1","+0128,1","10043,1","12,0079,9,1",,"8,1,06,1","2,1,06,1",,"07,99,1,04,1,05,1,00800,1,07,1,99,9",,,,"999,M,+0214,1","99999,9,09916,1","4,1,000,1,+999,9","02,1","SYN088AAXX  15184 08044 11568 70604 10161 20128 39916 40043 54000 60082 70282 8457/ 333 10214;",
"08044099999","2010-04-16T06:00:00","4","42.4333333","-8.6166666","108.0","PONTEVEDRA, SP","FM-12","99999","V020","030,1,N,0026,1","03600,1,9,N","020000,1,N,1","+0142,1","+0102,1","10057,1","12,0030,9,1","24,0114,9,1","8,1,06,1",,,"07,99,1,04,1,05,1,00800,1,07,1,02,1","0360,9",,,"999,N,+0127,1","99999,9,09929,1","4,1,000,1,+999,9","02,1","SYN106AAXX  16064 08044 11570 70305 10142 20102 39929 40057 54000 60032 7028/ 84572 333 20127 50174 55060 70115;",
"08044099999","2010-04-16T09:00:00","4","42.4333333","-8.6166666","108.0","PONTEVEDRA, SP","FM-12","99999","V020","090,1,N,0031,1","09000,1,9,N","020000,1,N,1","+0181,1","+0102,1","10067,1",,,,,,"06,99,1,04,1,05,1,00800,1,00,1,02,1",,,,,"99999,9,09940,1","1,1,011,1,+999,9",,"SYN066AAXX  16094 08044 42570 60906 10181 20102 39940 40067 51011 84502;",
"08044099999","2010-04-16T12:00:00","4","42.4333333","-8.6166666","108.0","PONTEVEDRA, SP","FM-12","99999","V020","080,1,N,0026,1","00900,1,9,N","020000,1,N,1","+0199,1","+0106,1","10067,1","06,0000,9,1",,,,,"05,99,1,05,1,08,1,00450,1,00,1,00,1",,,,,"99999,9,09941,1","1,1,001,1,+999,9",,"SYN072AAXX  16124 08044 12470 50805 10199 20106 39941 40067 51001 60001 85800;","Q01  00002PRCP06"
"08044099999","2010-04-16T15:00:00","4","42.4333333","-8.6166666","108.0","PONTEVEDRA, SP","FM-12","99999","V020","040,1,N,0031,1","03600,1,9,N","017000,1,N,1","+0181,1","+0125,1","10066,1",,,"2,1,03,1","2,1,03,1",,"06,99,1,04,1,09,1,00450,1,06,1,03,1",,,,,"99999,9,09940,1","5,1,001,1,+999,9","25,1","SYN072AAXX  16154 08044 41467 60406 10181 20125 39940 40066 55001 72522 84963;",
"08044099999","2010-04-16T18:00:00","4","42.4333333","-8.6166666","108.0","PONTEVEDRA, SP","FM-12","99999","V020","170,1,N,0021,1","03600,1,9,N","017000,1,N,1","+0185,1","+0125,1","10063,1","12,0010,9,1",,"8,1,06,1","2,1,06,1",,"07,99,1,04,1,02,1,00450,1,06,1,03,1",,,,"999,M,+0219,1","99999,9,09937,1","6,1,003,1,+999,9","80,1","SYN088AAXX  16184 08044 11467 71704 10185 20125 39937 40063 56003 60012 78082 84263 333 10219;",
"08044099999","2010-04-17T06:00:00","4","42.4333333","-8.6166666","108.0","PONTEVEDRA, SP","FM-12","99999","V020","060,1,N,0021,1","00750,1,9,N","017000,1,N,1","+0117,1","+0101,1","10103,1","12,0041,9,1","24,0046,9,1",,,,"06,99,1,05,1,05,1,00800,1,00,1,01,1","0474,9",,,"999,N,+0115,1","99999,9,09973,1","4,1,000,1,+999,9","02,1","SYN106AAXX  17064 08044 11567 60604 10117 20101 39973 40103 54000 60042 702// 85501 333 20115 50214 55079 70046;",
"08044099999","2010-04-17T09:00:00","4","42.4333333","-8.6166666","108.0","PONTEVEDRA, SP","FM-12","99999","V020","340,1,N,0010,1","00750,1,9,N","020000,1,N,1","+0151,1","+0117,1","10104,1",,,,,,"07,99,1,07,1,05,1,00800,1,99,9,99,9",,,,,"99999,9,09976,1","1,1,003,1,+999,9",,"SYN066AAXX  17094 08044 42570 73402 10151 20117 39976 40104 51003 875//;",
"08044099999","2010-04-17T12:00:00","4","42.4333333","-8.6166666","108.0","PONTEVEDRA, SP","FM-12","99999","V020","270,1,N,0015,1","00900,1,9,N","017000,1,N,1","+0186,1","+0117,1","10101,1","06,0000,9,1",,,,,"07,99,1,07,1,08,1,00450,1,99,9,99,9",,,,,"99999,9,09974,1","8,1,002,1,+999,9",,"SYN072AAXX  17124 08044 12467 72703 10186 20117 39974 40101 58002 60001 878//;","Q01  00002PRCP06"
"08044099999","2010-04-17T15:00:00","4","42.4333333","-8.6166666","108.0","PONTEVEDRA, SP","FM-12","99999","V020","150,1,N,0010,1","00900,1,9,N","009000,1,N,1","+0146,1","+0131,1","10099,1",,,"8,1,03,1","2,1,03,1",,"07,99,1,06,1,08,1,00450,1,00,1,03,1",,,,,"99999,9,09971,1","5,1,003,1,+999,9","80,1","SYN072AAXX  17154 08044 41459 71502 10146 20131 39971 40099 55003 78082 86803;",
"08044099999","2010-04-17T18:00:00","4","42.4333333","-8.6166666","108.0","PONTEVEDRA, SP","FM-12","99999","V020","350,1,N,0021,1","03600,1,9,N","012000,1,N,1","+0154,1","+0123,1","10096,1","12,0010,9,1",,"8,1,06,1","2,1,06,1",,"06,99,1,04,1,05,1,00250,1,06,1,03,1",,,,"999,M,+0195,1","99999,9,09968,1","6,1,003,1,+999,9","02,1","SYN088AAXX  17184 08044 11362 63504 10154 20123 39968 40096 56003 60012 70282 84563 333 10195;",
"08044099999","2010-04-18T06:00:00","4","42.4333333","-8.6166666","108.0","PONTEVEDRA, SP","FM-12","99999","V020","060,1,N,0021,1","00420,1,9,N","020000,1,N,1","+0106,1","+0080,1","10099,1","12,0010,9,1","24,0023,9,1",,,,"07,99,1,07,1,05,1,00450,1,00,1,00,1","0090,9",,,"999,N,+0096,1","99999,9,09969,1","1,1,001,1,+999,9","02,1","SYN106AAXX  18064 08044 11470 70604 10106 20080 39969 40099 51001 69992 702// 87500 333 20096 50114 55015 70022;",
"08044099999","2010-04-18T09:00:00","4","42.4333333","-8.6166666","108.0","PONTEVEDRA, SP","FM-12","99999","V020","340,1,N,0010,1","22000,1,9,N","020000,1,N,1","+0148,1","+0110,1","10107,1",,,,,,"04,99,1,02,1,05,1,00800,1,03,1,00,1",,,,,"99999,9,09979,1","2,1,010,1,+999,9",,"SYN066AAXX  18094 08044 42570 43402 10148 20110 39979 40107 52010 82530;",
"08044099999","2010-04-18T12:00:00","4","42.4333333","-8.6166666","108.0","PONTEVEDRA, SP","FM-12","99999","V020","330,1,N,0015,1","00900,1,9,N","020000,1,N,1","+0187,1","+0115,1","10109,1","06,0000,9,1",,"6,1,06,1","1,1,06,1",,"06,99,1,06,1,08,1,00450,1,00,1,00,1",,,,,"99999,9,09982,1","1,1,003,1,+999,9","02,1","SYN078AAXX  18124 08044 11470 63303 10187 20115 39982 40109 51003 69901 70261 86800;","Q01  00002PRCP06"
"08044099999","2010-04-18T15:00:00","4","42.4333333","-8.6166666","108.0","PONTEVEDRA, SP","FM-12","99999","V020","310,1,N,0031,1","00900,1,9,N","020000,1,N,1","+0187,1","+0110,1","10111,1",,,,,,"05,99,1,05,1,08,1,00450,1,00,1,00,1",,,,,"99999,9,09984,1","3,1,002,1,+999,9",,"SYN066AAXX  18154 08044 42470 53106 10187 20110 39984 40111 53002 85800;",
"08044099999","2010-04-18T18:00:00","4","42.4333333","-8.6166666","108.0","PONTEVEDRA, SP","FM-12","99999","V020","240,1,N,0010,1","22000,1,9,N","020000,1,N,1","+0174,1","+0117,1","10115,1","12,0000,9,1",,,,,"01,99,1,01,1,09,1,00450,1,00,1,00,1",,,,"999,M,+0197,1","99999,9,09988,1","3,1,004,1,+999,9",,"SYN082AAXX  18184 08044 12470 12402 10174 20117 39988 40115 53004 69902 81900 333 10197;","Q01  00002PRCP12"
"08044099999","2010-04-19T06:00:00","4","42.4333333","-8.6166666","108.0","PONTEVEDRA, SP","FM-12","99999","V020","070,1,N,0031,1","22000,1,9,N","020000,1,N,1","+0110,1","+0094,1","10155,1","12,0000,9,1","24,0000,9,1",,,,"01,99,1,01,1,00,1,01750,1,03,1,00,1","0510,9",,,"999,N,+0106,1","99999,9,10024,1","1,1,004,1,+999,9","02,1","SYN106AAXX  19064 08044 11770 10706 10110 20094 30024 40155 51004 60002 702// 81030 333 20106 50144 55085 79999;","Q01  00002PRCP24Q02  00002PRCP12"
"08044099999","2010-04-19T09:00:00","4","42.4333333","-8.6166666","108.0","PONTEVEDRA, SP","FM-12","99999","V020","330,1,N,0010,1","22000,1,9,N","020000,1,N,1","+0157,1","+0119,1","10169,1",,,,,,"04,99,1,03,1,08,1,00450,1,03,1,00,1",,,,,"99999,9,10040,1","2,1,016,1,+999,9",,"SYN066AAXX  19094 08044 42470 43302 10157 20119 30040 40169 52016 83830;",
"08044099999","2010-04-19T12:00:00","4","42.4333333","-8.6166666","108.0","PONTEVEDRA, SP","FM-12","99999","V020","280,1,N,0031,1","22000,1,9,N","020000,1,N,1","+0189,1","+0131,1","10173,1","06,0000,9,1",,,,,"03,99,1,03,1,02,1,00450,1,00,1,01,1",,,,,"99999,9,10046,1","0,1,006,1,+999,9",,"SYN072AAXX  19124 08044 12470 32806 10189 20131 30046 40173 50006 60001 83201;","Q01  00002PRCP06"
"08044099999","2010-04-19T15:00:00","4","42.4333333","-8.6166666","108.0","PONTEVEDRA, SP","FM-12","99999","V020","260,1,N,0021,1","09000,1,9,N","020000,1,N,1","+0186,1","+0132,1","10167,1",,,,,,"06,99,1,03,1,02,1,00450,1,00,1,08,1",,,,,"99999,9,10040,1","7,1,006,1,+999,9",,"SYN066AAXX  19154 08044 42470 62604 10186 20132 30040 40167 57006 83208;",
"08044099999","2010-04-19T18:00:00","4","42.4333333","-8.6166666","108.0","PONTEVEDRA, SP","FM-12","99999","V020","260,1,N,0015,1","22000,1,9,N","015000,1,N,1","+0172,1","+0121,1","10167,1","12,0000,9,1",,,,,"03,99,1,02,1,05,1,00450,1,00,1,01,1",,,,"999,M,+0203,1","99999,9,10039,1","6,1,001,1,+999,9",,"SYN082AAXX  19184 08044 12465 32603 10172 20121 30039 40167 56001 60002 82501 333 10203;","Q01  00002PRCP12"
"08044099999","2010-04-20T06:00:00","4","42.4333333","-8.6166666","108.0","PONTEVEDRA, SP","FM-12","99999","V020","080,1,N,0021,1","03600,1,9,N","017000,1,N,1","+0141,1","+0107,1","10162,1","12,0000,9,1","24,0000,9,1",,,,"07,99,1,02,1,05,1,00800,1,04,1,08,1","0606,9",,,"999,N,+0135,1","99999,9,10032,1","8,1,008,1,+999,9","02,1","SYN106AAXX  20064 08044 11567 70804 10141 20107 30032 40162 58008 60002 702// 82548 333 20135 50164 55101 70000;","Q01  00002PRCP24Q02  00002PRCP12"
"08044099999","2010-04-20T09:00:00","4","42.4333333","-8.6166666","108.0","PONTEVEDRA, SP","FM-12","99999","V020","160,1,N,0010,1","03600,1,9,N","017000,1,N,1","+0167,1","+0130,1","10160,1",,,,,,"07,99,1,04,1,05,1,00800,1,03,1,07,1",,,,,"99999,9,10032,1","4,1,000,1,+999,9",,"SYN066AAXX  20094 08044 42567 71602 10167 20130 30032 40160 54000 84537;",
"08044099999","2010-04-20T12:00:00","4","42.4333333","-8.6166666","108.0","PONTEVEDRA, SP","FM-12","99999","V020","180,1,N,0015,1","03600,1,9,N","020000,1,N,1","+0217,1","+0111,1","10157,1","06,0000,9,1",,,,,"08,99,1,03,1,08,1,00450,1,07,1,99,9",,,,,"99999,9,10031,1","8,1,001,1,+999,9",,"SYN072AAXX  20124 08044 12470 81803 10217 20111 30031 40157 58001 60001 8387/;","Q01  00002PRCP06"
"08044099999","2010-04-20T15:00:00","4","42.4333333","-8.6166666","108.0","PONTEVEDRA, SP","FM-12","99999","V020","270,1,N,0015,1","03600,1,9,N","018000,1,N,1","+0216,1","+0135,1","10149,1",,,,,,"08,99,1,02,1,02,1,00450,1,01,1,99,9",,,,,"99999,9,10023,1","8,1,008,1,+999,9",,"SYN066AAXX  20154 08044 42468 82703 10216 20135 30023 40149 58008 8221/;",
"08044099999","2010-04-20T18:00:00","4","42.4333333","-8.6166666","108.0","PONTEVEDRA, SP","FM-12","99999","V020","330,1,N,0005,1","03600,1,9,N","016000,1,N,1","+0205,1","+0137,1","10143,1","12,0000,9,1",,,,,"07,99,1,01,1,05,1,00800,1,07,1,08,1",,,,"999,M,+0223,1","99999,9,10017,1","6,1,006,1,+999,9",,"SYN082AAXX  20184 08044 12566 73301 10205 20137 30017 40143 56006 60002 81578 333 10223;","Q01  00002PRCP12"
"08044099999","2010-04-21T06:00:00","4","42.4333333","-8.6166666","108.0","PONTEVEDRA, SP","FM-12","99999","V020","040,1,N,0005,1","00420,1,9,N","015000,1,N,1","+0148,1","+0142,1","10117,1","12,0030,9,2","24,0028,9,2",,,,"07,99,1,06,1,05,1,00450,1,07,1,99,9","0096,9",,,"999,N,+0147,1","99999,9,09989,1","6,1,009,1,+999,9","60,1","SYN106AAXX  21064 08044 11465 70401 10148 20142 39989 40117 56009 60032 760// 8657/ 333 20147 50184 55016 70028;",
"08044099999","2010-04-21T09:00:00","4","42.4333333","-8.6166666","108.0","PONTEVEDRA, SP","FM-12","99999","V020","170,1,N,0021,1","00210,1,9,N","003500,1,N,1","+0152,1","+0147,1","10128,1",,,"6,1,03,1","2,1,03,1",,"08,99,1,05,1,05,1,00250,1,07,1,99,9",,,,,"99999,9,10000,1","3,1,011,1,+999,9","62,1","SYN072AAXX  21094 08044 41335 81704 10152 20147 30000 40128 53011 76262 8557/;",
"08044099999","2010-04-21T12:00:00","4","42.4333333","-8.6166666","108.0","PONTEVEDRA, SP","FM-12","99999","V020","280,1,N,0010,1","00210,1,9,N","005000,1,N,1","+0164,1","+0156,1","10126,1","06,0079,9,1",,"6,1,06,1","2,1,06,1",,"08,99,1,05,1,05,1,00250,1,07,1,99,9",,,,,"99999,9,09998,1","6,1,002,1,+999,9","61,1","SYN078AAXX  21124 08044 11350 82802 10164 20156 39998 40126 56002 60081 76162 8557/;",
"08044099999","2010-04-21T15:00:00","4","42.4333333","-8.6166666","108.0","PONTEVEDRA, SP","FM-12","99999","V020","340,1,N,0015,1","03600,1,9,N","020000,1,N,1","+0196,1","+0148,1","10105,1",,,"6,1,03,1","2,1,03,1",,"05,99,1,03,1,08,1,00250,1,03,1,02,1",,,,,"99999,9,09979,1","8,1,019,1,+999,9","02,1","SYN072AAXX  21154 08044 41370 53403 10196 20148 39979 40105 58019 70262 83832;",
"08044099999","2010-04-21T18:00:00","4","42.4333333","-8.6166666","108.0","PONTEVEDRA, SP","FM-12","99999","V020","190,1,N,0010,1","09000,1,9,N","018000,1,N,1","+0182,1","+0158,1","10101,1","12,0099,9,1",,"8,1,06,1","6,1,06,1",,"06,99,1,04,1,08,1,00450,1,00,1,02,1",,,,"999,M,+0201,1","99999,9,09974,1","5,1,005,1,+999,9","25,1","SYN088AAXX  21184 08044 11468 61902 10182 20158 39974 40101 55005 60102 72586 84802 333 10201;",
"08044099999","2010-04-22T06:00:00","4","42.4333333","-8.6166666","108.0","PONTEVEDRA, SP","FM-12","99999","V020","080,1,N,0021,1","03600,1,9,N","010000,1,N,1","+0136,1","+0118,1","10095,1","12,0000,2,1","24,0099,9,1",,,,"07,99,1,01,1,06,1,00075,1,07,1,01,1","0198,9","09,9","999,+0120,9","999,N,+0134,1","99999,9,09966,1","6,1,001,1,+999,9","02,1","SYN112AAXX  22064 08044 11160 70804 10136 20118 39966 40095 56001 60002 702// 81671 333 20134 31012 50124 55033 70098;",
"08044099999","2010-04-22T09:00:00","4","42.4333333","-8.6166666","108.0","PONTEVEDRA, SP","FM-12","99999","V020","320,1,N,0015,1","22000,1,9,N","010000,1,N,1","+0166,1","+0139,1","10100,1",,,,,,"04,99,1,01,1,01,1,00800,1,03,1,01,1",,,,,"99999,9,09973,1","0,1,007,1,+999,9",,"SYN066AAXX  22094 08044 42560 43203 10166 20139 39973 40100 50007 81131;",
"08044099999","2010-04-22T12:00:00","4","42.4333333","-8.6166666","108.0","PONTEVEDRA, SP","FM-12","99999","V020","270,1,N,0021,1","22000,1,9,N","010000,1,N,1","+0200,1","+0150,1","10098,1","06,0000,9,1",,,,"01,1,+00750,1,09,1","04,99,1,03,1,09,1,00800,1,00,1,03,1",,,,,"99999,9,09972,1","8,1,001,1,+999,9",,"SYN082AAXX  22124 08044 12560 42704 10200 20150 39972 40098 58001 60001 83903 333 81925;","Q01  00002PRCP06"
"08044099999","2010-04-22T15:00:00","4","42.4333333","-8.6166666","108.0","PONTEVEDRA, SP","FM-12","99999","V020","220,1,N,0010,1","00420,1,9,N","010000,1,N,1","+0184,1","+0143,1","10100,1",,,,,,"06,99,1,06,1,02,1,00450,1,00,1,00,1",,,,,"99999,9,09973,1","0,1,001,1,+999,9",,"SYN066AAXX  22154 08044 42460 62202 10184 20143 39973 40100 50001 86200;",
"08044099999","2010-04-22T18:00:00","4","42.4333333","-8.6166666","108.0","PONTEVEDRA, SP","FM-12","99999","V020","250,1,N,0015,1","22000,1,9,N","005000,1,N,1","+0164,1","+0131,1","10108,1","12,0000,9,1",,"1,1,06,1","1,1,06,1",,"03,99,1,03,1,08,1,00250,1,00,1,00,1",,,,"999,M,+0205,1","99999,9,09980,1","3,1,007,1,+999,9","10,1","SYN088AAXX  22184 08044 11350 32503 10164 20131 39980 40108 53007 60002 71011 83800 333 10205;","Q01  00002PRCP12"
"08044099999","2010-04-23T06:00:00","4","42.4333333","-8.6166666","108.0","PONTEVEDRA, SP","FM-12","99999","V020","170,1,N,0010,1","00120,1,9,N","006000,1,N,1","+0132,1","+0124,1","10123,1","12,0000,9,1","24,0000,9,1",,,,"08,99,1,08,1,06,1,00150,1,99,9,99,9","0558,9","09,9","999,+0120,9","999,N,+0131,1","99999,9,09994,1","3,1,001,1,+999,9","10,1","SYN112AAXX  23064 08044 11256 81702 10132 20124 39994 40123 53001 60002 710// 886// 333 20131 31012 50094 55093 70000;","Q01  00002PRCP24Q02  00002PRCP12"
"08044099999","2010-04-23T09:00:00","4","42.4333333","-8.6166666","108.0","PONTEVEDRA, SP","FM-12","99999","V020","250,1,N,0010,1","00210,1,9,N","006000,1,N,1","+0134,1","+0121,1","10138,1",,,"5,1,03,1","2,1,03,1",,"08,99,1,06,1,05,1,00250,1,07,1,99,9",,,,,"99999,9,10009,1","2,1,015,1,+999,9","10,1","SYN072AAXX  23094 08044 41356 82502 10134 20121 30009 40138 52015 71052 8657/;",
"08044099999","2010-04-23T12:00:00","4","42.4333333","-8.6166666","108.0","PONTEVEDRA, SP","FM-12","99999","V020","180,1,N,0010,1","03600,1,9,N","010000,1,N,1","+0152,1","+0120,1","10144,1","06,0003,9,1",,"5,1,06,1","2,1,06,1",,"07,99,1,02,1,02,1,00450,1,07,1,00,1",,,,,"99999,9,10015,1","1,1,006,1,+999,9","02,1","SYN078AAXX  23124 08044 11460 71802 10152 20120 30015 40144 51006 69931 70252 82270;",
"08044099999","2010-04-23T15:00:00","4","42.4333333","-8.6166666","108.0","PONTEVEDRA, SP","FM-12","99999","V020","220,1,N,0010,1","03600,1,9,N","015000,1,N,1","+0173,1","+0116,1","10142,1",,,,,,"07,99,1,03,1,02,1,00450,1,03,1,01,1",,,,,"99999,9,10014,1","8,1,001,1,+999,9",,"SYN066AAXX  23154 08044 42465 72202 10173 20116 30014 40142 58001 83231;",
"08044099999","2010-04-23T18:00:00","4","42.4333333","-8.6166666","108.0","PONTEVEDRA, SP","FM-12","99999","V020","240,1,N,0010,1","22000,1,9,N","012000,1,N,1","+0162,1","+0118,1","10142,1","12,0003,9,1",,,,,"03,99,1,01,1,01,1,00800,1,03,1,01,1",,,,"999,M,+0177,1","99999,9,10014,1","0,1,000,1,+999,9",,"SYN082AAXX  23184 08044 12562 32402 10162 20118 30014 40142 50000 69932 81131 333 10177;",
"08044099999","2010-04-24T06:00:00","4","42.4333333","-8.6166666","108.0","PONTEVEDRA, SP","FM-12","99999","V020","080,1,N,0026,1","22000,1,9,N","015000,1,N,1","+0098,1","+0087,1","10158,1","12,0000,9,1","24,0003,9,1",,,,"02,99,1,01,1,05,1,00450,1,03,1,01,1","0144,9","09,9","999,+0070,9","999,N,+0096,1","99999,9,10027,1","4,1,000,1,+999,9","02,1","SYN112AAXX  24064 08044 11465 20805 10098 20087 30027 40158 54000 60002 702// 81531 333 20096 31007 50084 55024 70003;","Q01  00002PRCP12"
"08044099999","2010-04-24T09:00:00","4","42.4333333","-8.6166666","108.0","PONTEVEDRA, SP","FM-12","99999","V020","170,1,N,0010,1","22000,1,9,N","015000,1,N,1","+0164,1","+0126,1","10162,1",,,,,,"03,99,1,01,1,01,1,00450,1,05,1,01,1",,,,,"99999,9,10034,1","1,1,007,1,+999,9",,"SYN066AAXX  24094 08044 42465 31702 10164 20126 30034 40162 51007 81151;",
"08044099999","2010-04-24T12:00:00","4","42.4333333","-8.6166666","108.0","PONTEVEDRA, SP","FM-12","99999","V020","170,1,N,0026,1","03600,1,9,N","015000,1,N,1","+0188,1","+0123,1","10171,1","06,0000,9,1",,,,,"07,99,1,03,1,01,1,00800,1,05,1,01,1",,,,,"99999,9,10044,1","3,1,010,1,+999,9",,"SYN072AAXX  24124 08044 12565 71705 10188 20123 30044 40171 53010 60001 83151;","Q01  00002PRCP06"
"08044099999","2010-04-24T15:00:00","4","42.4333333","-8.6166666","108.0","PONTEVEDRA, SP","FM-12","99999","V020","240,1,N,0010,1","01200,1,9,N","006000,1,N,1","+0158,1","+0148,1","10182,1",,,"6,1,03,1","2,1,03,1",,"08,99,1,06,1,08,1,00800,1,07,1,99,9",,,,,"99999,9,10053,1","3,1,009,1,+999,9","50,1","SYN072AAXX  24154 08044 41556 82402 10158 20148 30053 40182 53009 75062 8687/;",
"08044099999","2010-04-24T18:00:00","4","42.4333333","-8.6166666","108.0","PONTEVEDRA, SP","FM-12","99999","V020","110,1,N,0010,1","00750,1,9,N","006000,1,N,1","+0156,1","+0141,1","10189,1","12,0010,9,1",,"6,1,06,1","5,1,06,1",,"08,99,1,06,1,02,1,00800,1,07,1,99,9",,,,"999,M,+0196,1","99999,9,10060,1","3,1,007,1,+999,9","15,1","SYN088AAXX  24184 08044 11556 81102 10156 20141 30060 40189 53007 60012 71565 8627/ 333 10196;",
"08044099999","2010-04-25T06:00:00","4","42.4333333","-8.6166666","108.0","PONTEVEDRA, SP","FM-12","99999","V020","070,1,N,0031,1","22000,1,9,N","000800,1,N,1","+0108,1","+0103,1","10228,1","12,0010,9,1","24,0020,9,1",,,,"01,99,1,00,1,00,1,99999,9,00,1,01,1","0132,9","09,9","999,+0100,9","999,N,+0108,1","99999,9,10096,1","1,1,004,1,+999,9","40,1","SYN112AAXX  25064 08044 11908 10706 10108 20103 30096 40228 51004 69992 740// 80001 333 20108 31010 50084 55022 70021;",
"08044099999","2010-04-25T09:00:00","4","42.4333333","-8.6166666","108.0","PONTEVEDRA, SP","FM-12","99999","V020","290,1,N,0010,1","22000,1,9,N","020000,1,N,1","+0146,1","+0128,1","10238,1",,,,,,"02,99,1,00,1,00,1,99999,9,00,1,01,1",,,,,"99999,9,10108,1","1,1,012,1,+999,9",,"SYN066AAXX  25094 08044 42970 22902 10146 20128 30108 40238 51012 80001;",
"08044099999","2010-04-25T12:00:00","4","42.4333333","-8.6166666","108.0","PONTEVEDRA, SP","FM-12","99999","V020","260,1,N,0015,1","22000,1,9,N","020000,1,N,1","+0194,1","+0131,1","10234,1","06,0000,9,1",,,,,"03,99,1,01,1,01,1,00450,1,00,1,01,1",,,,,"99999,9,10106,1","8,1,002,1,+999,9",,"SYN072AAXX  25124 08044 12470 32603 10194 20131 30106 40234 58002 60001 81101;","Q01  00002PRCP06"
"08044099999","2010-04-25T15:00:00","4","42.4333333","-8.6166666","108.0","PONTEVEDRA, SP","FM-12","99999","V020","210,1,N,0015,1","22000,1,9,N","015000,1,N,1","+0213,1","+0135,1","10230,1",,,,,,"01,99,1,01,1,01,1,00450,1,00,1,01,1",,,,,"99999,9,10103,1","8,1,003,1,+999,9",,"SYN066AAXX  25154 08044 42465 12103 10213 20135 30103 40230 58003 81101;",
"08044099999","2010-04-25T18:00:00","4","42.4333333","-8.6166666","108.0","PONTEVEDRA, SP","FM-12","99999","V020","200,1,N,0010,1","22000,1,9,N","010000,1,N,1","+0198,1","+0150,1","10230,1","12,0000,9,1",,,,,"02,99,1,00,1,00,1,99999,9,00,1,01,1",,,,"999,M,+0214,1","99999,9,10102,1","5,1,001,1,+999,9",,"SYN082AAXX  25184 08044 12960 22002 10198 20150 30102 40230 55001 60002 80001 333 10214;","Q01  00002PRCP12"
"08044099999","2010-04-26T06:00:00","4","42.4333333","-8.6166666","108.0","PONTEVEDRA, SP","FM-12","99999","V020","060,1,N,0021,1","22000,1,9,N","015000,1,N,1","+0126,1","+0096,1","10240,1","12,0000,9,1","24,0000,9,1",,,,"03,99,1,00,1,00,1,99999,9,00,1,01,1","0774,9","09,9","999,+0080,9","999,N,+0120,1","99999,9,10109,1","3,1,006,1,+999,9","02,1","SYN112AAXX  26064 08044 11965 30604 10126 20096 30109 40240 53006 60002 702// 80001 333 20120 31008 50134 55129 70000;","Q01  00002PRCP24Q02  00002PRCP12"
"08044099999","2010-04-26T09:00:00","4","42.4333333","-8.6166666","108.0","PONTEVEDRA, SP","FM-12","99999","V020","230,1,N,0010,1","22000,1,9,N","020000,1,N,1","+0176,1","+0129,1","10240,1",,,,,,"02,99,1,00,1,00,1,99999,9,00,1,01,1",,,,,"99999,9,10111,1","0,1,002,1,+999,9",,"SYN066AAXX  26094 08044 42970 22302 10176 20129 30111 40240 50002 80001;",
"08044099999","2010-04-26T12:00:00","4","42.4333333","-8.6166666","108.0","PONTEVEDRA, SP","FM-12","99999","V020","200,1,N,0010,1","22000,1,9,N","015000,1,N,1","+0232,1","+0153,1","10232,1","06,0000,9,1",,,,,"01,99,1,00,1,00,1,99999,9,00,1,01,1",,,,,"99999,9,10106,1","7,1,005,1,+999,9",,"SYN072AAXX  26124 08044 12965 12002 10232 20153 30106 40232 57005 60001 80001;","Q01  00002PRCP06"
"08044099999","2010-04-26T15:00:00","4","42.4333333","-8.6166666","108.0","PONTEVEDRA, SP","FM-12","99999","V020","250,1,N,0015,1","22000,1,9,N","010000,1,N,1","+0227,1","+0145,1","10226,1",,,,,,"01,99,1,00,1,00,1,99999,9,00,1,01,1",,,,,"99999,9,10100,1","8,1,006,1,+999,9",,"SYN066AAXX  26154 08044 42960 12503 10227 20145 30100 40226 58006 80001;",
"08044099999","2010-04-26T18:00:00","4","42.4333333","-8.6166666","108.0","PONTEVEDRA, SP","FM-12","99999","V020","240,1,N,0010,1","22000,1,9,N","008000,1,N,1","+0206,1","+0115,1","10226,1","12,0000,9,1",,"0,1,06,1","0,1,06,1",,"02,99,1,00,1,00,1,99999,9,00,1,01,1",,,,"999,M,+0243,1","99999,9,10099,1","5,1,001,1,+999,9","05,1","SYN088AAXX  26184 08044 11958 22402 10206 20115 30099 40226 55001 60002 70500 80001 333 10243;","Q01  00002PRCP12"
"08044099999","2010-04-27T06:00:00","4","42.4333333","-8.6166666","108.0","PONTEVEDRA, SP","FM-12","99999","V020","140,1,N,0010,1","22000,1,9,N","020000,1,N,1","+0122,1","+0081,1","10217,1","12,0000,9,1","24,0000,9,1",,,,"05,99,1,02,1,00,1,02250,1,03,1,01,1","0768,9","01,9","999,+0090,9","999,N,+0122,1","99999,9,10086,1","8,1,004,1,+999,9","02,1","SYN112AAXX  27064 08044 11870 51402 10122 20081 30086 40217 58004 60002 702// 82031 333 20122 30009 50214 55128 70000;","Q01  00002PRCP24Q02  00002PRCP12"
"08044099999","2010-04-27T09:00:00","4","42.4333333","-8.6166666","108.0","PONTEVEDRA, SP","FM-12","99999","V020","180,1,N,0010,1","22000,1,9,N","020000,1,N,1","+0186,1","+0121,1","10216,1",,,,,,"04,99,1,01,1,00,1,02250,1,03,1,01,1",,,,,"99999,9,10088,1","1,1,002,1,+999,9",,"SYN066AAXX  27094 08044 42870 41802 10186 20121 30088 40216 51002 81031;",
"08044099999","2010-04-27T12:00:00","4","42.4333333","-8.6166666","108.0","PONTEVEDRA, SP","FM-12","99999","V020","220,1,N,0010,1","09000,1,9,N","012000,1,N,1","+0244,1","+0136,1","10212,1","06,0000,9,1",,,,,"06,99,1,01,1,00,1,02250,1,03,1,02,1",,,,,"99999,9,10086,1","8,1,002,1,+999,9",,"SYN072AAXX  27124 08044 12862 62202 10244 20136 30086 40212 58002 60001 81032;","Q01  00002PRCP06"
"08044099999","2010-04-27T15:00:00","4","42.4333333","-8.6166666","108.0","PONTEVEDRA, SP","FM-12","99999","V020","260,1,N,0010,1","09000,1,9,N","010000,1,N,1","+0242,1","+0146,1","10206,1",,,,,,"07,99,1,01,1,00,1,02250,1,03,1,02,1",,,,,"99999,9,10080,1","8,1,006,1,+999,9",,"SYN066AAXX  27154 08044 42860 72602 10242 20146 30080 40206 58006 81032;",
"08044099999","2010-04-27T18:00:00","4","42.4333333","-8.6166666","108.0","PONTEVEDRA, SP","FM-12","99999","V020","210,1,N,0010,1","99999,9,9,N","008000,1,N,1","+0224,1","+0129,1","10203,1","12,0000,9,1",,"2,1,06,1","2,1,06,1",,"05,99,1,00,1,00,1,99999,9,00,1,02,1",,,,"999,M,+0248,1","99999,9,10077,1","6,1,003,1,+999,9","05,1","SYN088AAXX  27184 08044 11958 52102 10224 20129 30077 40203 56003 60002 70522 80002 333 10248;","Q01  00002PRCP12"
"08044099999","2010-04-28T06:00:00","4","42.4333333","-8.6166666","108.0","PONTEVEDRA, SP","FM-12","99999","V020","250,1,N,0010,1","22000,1,9,N","020000,1,N,1","+0136,1","+0084,1","10190,1","12,0000,9,1","24,0000,9,1",,,,"02,99,1,01,1,00,1,02250,1,03,1,01,1","0408,9","01,9","999,+0100,9","999,N,+0136,1","99999,9,10060,1","8,1,004,1,+999,9","02,1","SYN112AAXX  28064 08044 11870 22502 10136 20084 30060 40190 58004 60002 702// 81031 333 20136 30010 50314 55068 70000;","Q01  00002PRCP24Q02  00002PRCP12"
"08044099999","2010-04-28T09:00:00","4","42.4333333","-8.6166666","108.0","PONTEVEDRA, SP","FM-12","99999","V020","270,1,N,0010,1","22000,1,9,N","020000,1,N,1","+0194,1","+0131,1","10184,1",,,,,,"02,99,1,01,1,00,1,02250,1,03,1,01,1",,,,,"99999,9,10057,1","8,1,003,1,+999,9",,"SYN066AAXX  28094 08044 42870 22702 10194 20131 30057 40184 58003 81031;",
"08044099999","2010-04-28T12:00:00","4","42.4333333","-8.6166666","108.0","PONTEVEDRA, SP","FM-12","99999","V020","260,1,N,0010,1","09000,1,9,N","010000,1,N,1","+0252,1","+0134,1","10175,1","06,0000,9,1",,,,,"06,99,1,01,1,00,1,02250,1,03,1,02,1",,,,,"99999,9,10050,1","8,1,007,1,+999,9",,"SYN072AAXX  28124 08044 12860 62602 10252 20134 30050 40175 58007 60001 81032;","Q01  00002PRCP06"
"08044099999","2010-04-28T15:00:00","4","42.4333333","-8.6166666","108.0","PONTEVEDRA, SP","FM-12","99999","V020","180,1,N,0010,1","09000,1,9,N","010000,1,N,1","+0238,1","+0108,1","10171,1",,,,,,"06,99,1,01,1,00,1,02250,1,03,1,02,1",,,,,"99999,9,10046,1","8,1,004,1,+999,9",,"SYN066AAXX  28154 08044 42860 61802 10238 20108 30046 40171 58004 81032;",
"08044099999","2010-04-28T18:00:00","4","42.4333333","-8.6166666","108.0","PONTEVEDRA, SP","FM-12","99999","V020","300,1,N,0015,1","09000,1,9,N","010000,1,N,1","+0242,1","+0125,1","10150,1","12,0000,9,1",,,,,"07,99,1,03,1,00,1,02250,1,05,1,02,1",,,,"999,M,+0258,1","99999,9,10025,1","7,1,021,1,+999,9",,"SYN082AAXX  28184 08044 12860 73003 10242 20125 30025 40150 57021 60002 83052 333 10258;","Q01  00002PRCP12"
"08044099999","2010-04-29T06:00:00","4","42.4333333","-8.6166666","108.0","PONTEVEDRA, SP","FM-12","99999","V020","130,1,N,0010,1","03600,1,9,N","012000,1,N,1","+0130,1","+0124,1","10169,1","12,0020,9,2","24,0018,9,2",,,,"05,99,1,04,1,05,1,00800,1,06,1,00,1","0468,9",,,"999,N,+0130,1","99999,9,10039,1","3,1,004,1,+999,9","02,1","SYN106AAXX  29064 08044 11562 51302 10130 20124 30039 40169 53004 60022 702/8 84560 333 20130 50274 55078 70017;",
"08044099999","2010-04-29T09:00:00","4","42.4333333","-8.6166666","108.0","PONTEVEDRA, SP","FM-12","99999","V020","270,1,N,0010,1","03600,1,9,N","010000,1,N,1","+0168,1","+0133,1","10180,1",,,,,,"07,99,1,03,1,02,1,00450,1,03,1,01,1",,,,,"99999,9,10052,1","1,1,013,1,+999,9",,"SYN066AAXX  29094 08044 42460 72702 10168 20133 30052 40180 51013 83231;",
"08044099999","2010-04-29T12:00:00","4","42.4333333","-8.6166666","108.0","PONTEVEDRA, SP","FM-12","99999","V020","250,1,N,0010,1","01200,1,9,N","012000,1,N,1","+0206,1","+0126,1","10179,1","06,0000,9,1",,,,,"06,99,1,05,1,08,1,00800,1,00,1,01,1",,,,,"99999,9,10052,1","4,1,000,1,+999,9",,"SYN072AAXX  29124 08044 12562 62502 10206 20126 30052 40179 54000 60001 85801;","Q01  00002PRCP06"
"08044099999","2010-04-29T15:00:00","4","42.4333333","-8.6166666","108.0","PONTEVEDRA, SP","FM-12","99999","V020","200,1,N,0010,1","22000,1,9,N","015000,1,N,1","+0190,1","+0116,1","10178,1",,,,,,"02,99,1,02,1,01,1,00800,1,00,1,01,1",,,,,"99999,9,10050,1","8,1,002,1,+999,9",,"SYN066AAXX  29154 08044 42565 22002 10190 20116 30050 40178 58002 82101;",
"08044099999","2010-04-29T18:00:00","4","42.4333333","-8.6166666","108.0","PONTEVEDRA, SP","FM-12","99999","V020","270,1,N,0026,1","22000,1,9,N","010000,1,N,1","+0173,1","+0113,1","10178,1","12,0000,9,1",,,,,"04,99,1,03,1,01,1,00800,1,00,1,01,1",,,,"999,M,+0211,1","99999,9,10050,1","4,1,000,1,+999,9",,"SYN082AAXX  29184 08044 12560 42705 10173 20113 30050 40178 54000 60002 83101 333 10211;","Q01  00002PRCP12"
"08044099999","2010-04-30T06:00:00","4","42.4333333","-8.6166666","108.0","PONTEVEDRA, SP","FM-12","99999","V020","100,1,N,0010,1","00750,1,9,N","012000,1,N,1","+0118,1","+0104,1","10163,1","12,0000,9,1","24,0000,9,1",,,,"07,99,1,05,1,05,1,00800,1,04,1,01,1","0588,9",,,"999,N,+0115,1","99999,9,10032,1","7,1,010,1,+999,9","02,1","SYN106AAXX  30064 08044 11562 71002 10118 20104 30032 40163 57010 60002 702// 85541 333 20115 50114 55098 70000;","Q01  00002PRCP24Q02  00002PRCP12"
"08044099999","2010-04-30T09:00:00","4","42.4333333","-8.6166666","108.0","PONTEVEDRA, SP","FM-12","99999","V020","240,1,N,0010,1","03600,1,9,N","012000,1,N,1","+0158,1","+0114,1","10161,1",,,,,,"08,99,1,01,1,05,1,00800,1,05,1,01,1",,,,,"99999,9,10032,1","4,1,000,1,+999,9",,"SYN066AAXX  30094 08044 42562 82402 10158 20114 30032 40161 54000 81551;",
"08044099999","2010-04-30T12:00:00","4","42.4333333","-8.6166666","108.0","PONTEVEDRA, SP","FM-12","99999","V020","270,1,N,0031,1","01200,1,9,N","012000,1,N,1","+0180,1","+0125,1","10158,1","06,0000,9,1",,,,,"08,99,1,05,1,08,1,00800,1,07,1,99,9",,,,,"99999,9,10030,1","8,1,002,1,+999,9",,"SYN072AAXX  30124 08044 12562 82706 10180 20125 30030 40158 58002 60001 8587/;","Q01  00002PRCP06"
"08044099999","2010-04-30T15:00:00","4","42.4333333","-8.6166666","108.0","PONTEVEDRA, SP","FM-12","99999","V020","250,1,N,0010,1","01200,1,9,N","010000,1,N,1","+0162,1","+0122,1","10156,1",,,"2,1,03,1","2,1,03,1",,"08,99,1,05,1,08,1,00800,1,07,1,99,9",,,,,"99999,9,10028,1","6,1,002,1,+999,9","61,1","SYN072AAXX  30154 08044 41560 82502 10162 20122 30028 40156 56002 76122 8587/;",
"08044099999","2010-04-30T18:00:00","4","42.4333333","-8.6166666","108.0","PONTEVEDRA, SP","FM-12","99999","V020","130,1,N,0005,1","03600,1,9,N","010000,1,N,1","+0149,1","+0134,1","10154,1","12,0010,9,1",,"6,1,06,1","2,1,06,1",,"08,99,1,04,1,08,1,00800,1,07,1,99,9",,,,"999,M,+0182,1","99999,9,10025,1","8,1,003,1,+999,9","02,1","SYN088AAXX  30184 08044 11560 81301 10149 20134 30025 40154 58003 60012 70262 8487/ 333 10182;",
"08044099999","2010-05-01T06:00:00","4","42.4333333","-8.6166666","108.0","PONTEVEDRA, SP","FM-12","99999","V020","330,1,N,0005,1","00420,1,9,N","001000,1,N,1","+0117,1","+0114,1","10155,1","12,0005,9,1","24,0018,9,1","5,1,06,1","4,1,06,1",,"08,99,1,08,1,07,1,00450,1,99,9,99,9","0000,9",,,"999,N,+0117,1","99999,9,10025,1","4,1,000,1,+999,9","51,1","SYN106AAXX  01064 08044 11410 83301 10117 20114 30025 40155 54000 69962 75154 887// 333 20117 50054 55000 70017;",
"08044099999","2010-05-01T09:00:00","4","42.4333333","-8.6166666","108.0","PONTEVEDRA, SP","FM-12","99999","V020","310,1,N,0015,1","01200,1,9,N","010000,1,N,1","+0145,1","+0132,1","10157,1",,,"5,1,03,1","2,1,03,1",,"08,99,1,08,1,08,1,00800,1,99,9,99,9",,,,,"99999,9,10028,1","3,1,003,1,+999,9","02,1","SYN072AAXX  01094 08044 41560 83103 10145 20132 30028 40157 53003 70252 888//;",
"08044099999","2010-05-01T12:00:00","4","42.4333333","-8.6166666","108.0","PONTEVEDRA, SP","FM-12","99999","V020","320,1,N,0031,1","01200,1,9,N","012000,1,N,1","+0170,1","+0117,1","10160,1","06,0000,2,1",,"6,1,06,1","2,1,06,1",,"06,99,1,06,1,08,1,00800,1,00,1,01,1",,,,,"99999,9,10032,1","1,1,004,1,+999,9","01,1","SYN078AAXX  01124 08044 11562 63206 10170 20117 30032 40160 51004 69901 70162 86801;",
"08044099999","2010-05-01T15:00:00","4","42.4333333","-8.6166666","108.0","PONTEVEDRA, SP","FM-12","99999","V020","290,1,N,0031,1","01200,1,9,N","015000,1,N,1","+0181,1","+0117,1","10157,1",,,,,,"06,99,1,06,1,08,1,00800,1,00,1,00,1",,,,,"99999,9,10029,1","6,1,003,1,+999,9",,"SYN066AAXX  01154 08044 42565 62906 10181 20117 30029 40157 56003 86800;",
"08044099999","2010-05-01T18:00:00","4","42.4333333","-8.6166666","108.0","PONTEVEDRA, SP","FM-12","99999","V020","340,1,N,0031,1","01200,1,9,N","015000,1,N,1","+0167,1","+0096,1","10157,1","12,0000,2,1",,,,,"06,99,1,06,1,08,1,00800,1,00,1,01,1",,,,"999,M,+0191,1","99999,9,10029,1","5,1,000,1,+999,9",,"SYN082AAXX  01184 08044 12565 63406 10167 20096 30029 40157 55000 69902 86801 333 10191;",
"08044099999","2010-05-02T06:00:00","4","42.4333333","-8.6166666","108.0","PONTEVEDRA, SP","FM-12","99999","V020","040,1,N,0010,1","01200,1,9,N","012000,1,N,1","+0109,1","+0085,1","10183,1","12,0000,9,1","24,0000,2,1",,,,"07,99,1,07,1,08,1,00800,1,99,9,99,9","0288,9",,,"999,N,+0102,1","99999,9,10052,1","3,1,005,1,+999,9","02,1","SYN106AAXX  02064 08044 11562 70402 10109 20085 30052 40183 53005 60002 702// 878// 333 20102 50054 55048 79999;","Q01  00002PRCP12"
"08044099999","2010-05-02T09:00:00","4","42.4333333","-8.6166666","108.0","PONTEVEDRA, SP","FM-12","99999","V020","340,1,N,0036,1","22000,1,9,N","020000,1,N,1","+0144,1","+0084,1","10184,1",,,,,,"04,99,1,04,1,08,1,00800,1,00,1,01,1",,,,,"99999,9,10054,1","1,1,002,1,+999,9",,"SYN066AAXX  02094 08044 42570 43407 10144 20084 30054 40184 51002 84801;",
"08044099999","2010-05-02T12:00:00","4","42.4333333","-8.6166666","108.0","PONTEVEDRA, SP","FM-12","99999","V020","310,1,N,0036,1","01200,1,9,N","020000,1,N,1","+0177,1","+0074,1","10179,1","06,0000,9,1",,,,,"06,99,1,06,1,08,1,00800,1,00,1,00,1",,,,,"99999,9,10051,1","8,1,003,1,+999,9",,"SYN072AAXX  02124 08044 12570 63107 10177 20074 30051 40179 58003 60001 86800;","Q01  00002PRCP06"
"08044099999","2010-05-02T15:00:00","4","42.4333333","-8.6166666","108.0","PONTEVEDRA, SP","FM-12","99999","V020","340,1,N,0057,1","22000,1,9,N","020000,1,N,1","+0179,1","+0070,1","10173,1",,,,,,"04,99,1,04,1,08,1,00800,1,00,1,00,1",,,,,"99999,9,10045,1","7,1,006,1,+999,9",,"SYN066AAXX  02154 08044 42570 43411 10179 20070 30045 40173 57006 84800;",
"08044099999","2010-05-02T18:00:00","4","42.4333333","-8.6166666","108.0","PONTEVEDRA, SP","FM-12","99999","V020","330,1,N,0057,1","22000,1,9,N","020000,1,N,1","+0151,1","+0061,1","10174,1","12,0000,9,1",,,,,"03,99,1,03,1,08,1,00800,1,00,1,00,1",,,,"999,M,+0185,1","99999,9,10045,1","5,1,000,1,+999,9",,"SYN082AAXX  02184 08044 12570 33311 10151 20061 30045 40174 55000 60002 83800 333 10185;","Q01  00002PRCP12"
"08044099999","2010-05-03T06:00:00","4","42.4333333","-8.6166666","108.0","PONTEVEDRA, SP","FM-12","99999","V020","330,1,N,0026,1","22000,1,9,N","020000,1,N,1","+0083,1","+0063,1","10202,1","12,0000,9,1","24,0000,9,1",,,,"01,99,1,01,1,05,1,00800,1,00,1,00,1","0618,9",,,"999,N,+0080,1","99999,9,10069,1","3,1,007,1,+999,9","02,1","SYN106AAXX  03064 08044 11570 13305 10083 20063 30069 40202 53007 60002 702// 81500 333 20080 50084 55103 70000;","Q01  00002PRCP24Q02  00002PRCP12"
"08044099999","2010-05-03T09:00:00","4","42.4333333","-8.6166666","108.0","PONTEVEDRA, SP","FM-12","99999","V020","020,1,N,0041,1","22000,1,9,N","025000,1,N,1","+0131,1","+0055,1","10207,1",,,,,,"03,99,1,03,1,08,1,00800,1,00,1,00,1",,,,,"99999,9,10076,1","2,1,007,1,+999,9",,"SYN066AAXX  03094 08044 42575 30208 10131 20055 30076 40207 52007 83800;",
"08044099999","2010-05-03T12:00:00","4","42.4333333","-8.6166666","108.0","PONTEVEDRA, SP","FM-12","99999","V020","350,1,N,0036,1","01200,1,9,N","025000,1,N,1","+0163,1","+0030,1","10205,1","06,0000,9,1",,,,,"06,99,1,06,1,08,1,00800,1,00,1,00,1",,,,,"99999,9,10076,1","0,1,000,1,+999,9",,"SYN072AAXX  03124 08044 12575 63507 10163 20030 30076 40205 50000 60001 86800;","Q01  00002PRCP06"
"08044099999","2010-05-03T15:00:00","4","42.4333333","-8.6166666","108.0","PONTEVEDRA, SP","FM-12","99999","V020","320,1,N,0077,1","22000,1,9,N","025000,1,N,1","+0145,1","+0045,1","10206,1",,,,,,"04,99,1,04,1,08,1,00800,1,00,1,00,1",,,,,"99999,9,10076,1","5,1,000,1,+999,9",,"SYN066AAXX  03154 08044 42575 43215 10145 20045 30076 40206 55000 84800;",
"08044099999","2010-05-03T18:00:00","4","42.4333333","-8.6166666","108.0","PONTEVEDRA, SP","FM-12","99999","V020","030,1,N,0057,1","22000,1,9,N","025000,1,N,1","+0122,1","+0039,1","10212,1","12,0000,9,1",,"8,1,06,1","1,1,06,1",,"04,99,1,04,1,08,1,00800,1,00,1,00,1",,,,"999,M,+0166,1","99999,9,10081,1","2,1,005,1,+999,9","02,1","SYN088AAXX  03184 08044 11575 40311 10122 20039 30081 40212 52005 60002 70281 84800 333 10166;","Q01  00002PRCP12"
"08044099999","2010-05-04T06:00:00","4","42.4333333","-8.6166666","108.0","PONTEVEDRA, SP","FM-12","99999","V020","350,1,N,0021,1","22000,1,9,N","020000,1,N,1","+0058,1","+0010,1","10233,1","12,0000,9,1","24,0000,9,1",,,"00,1,+99999,9,99,9","00,99,1,00,1,00,1,99999,9,00,1,00,1","0594,9",,,"999,N,+0050,1","99999,9,10098,1","7,1,004,1,+999,9","00,1","SYN100AAXX  04064 08044 11970 03504 10058 20010 30098 40233 57004 60002 700/0 333 20050 50224 55099 79999;","Q01  00002PRCP24Q02  00002PRCP12"
"08044099999","2010-05-04T09:00:00","4","42.4333333","-8.6166666","108.0","PONTEVEDRA, SP","FM-12","99999","V020","350,1,N,0057,1","01200,1,9,N","025000,1,N,1","+0115,1","+0030,1","10230,1",,,,,,"05,99,1,05,1,08,1,00800,1,00,1,00,1",,,,,"99999,9,10098,1","4,1,000,1,+999,9",,"SYN066AAXX  04094 08044 42575 53511 10115 20030 30098 40230 54000 85800;",
"08044099999","2010-05-04T12:00:00","4","42.4333333","-8.6166666","108.0","PONTEVEDRA, SP","FM-12","99999","V020","350,1,N,0077,1","01200,1,9,N","025000,1,N,1","+0142,1","+0021,1","10224,1","06,0000,9,1",,,,,"05,99,1,05,1,08,1,00800,1,00,1,00,1",,,,,"99999,9,10093,1","8,1,005,1,+999,9",,"SYN072AAXX  04124 08044 12575 53515 10142 20021 30093 40224 58005 60001 85800;","Q01  00002PRCP06"
"08044099999","2010-05-04T18:00:00","4","42.4333333","-8.6166666","108.0","PONTEVEDRA, SP","FM-12","99999","V020","030,1,N,0051,1","22000,1,9,N","020000,1,N,1","+0131,1","+0018,1","10219,1","12,0000,9,1",,,,,"03,99,1,03,1,05,1,00450,1,00,1,00,1",,,,"999,M,+0152,1","99999,9,10088,1","4,1,000,1,+999,9",,"SYN082AAXX  04184 08044 12470 30310 10131 20018 30088 40219 54000 60002 83500 333 10152;","Q01  00002PRCP12"
"08044099999","2010-05-05T06:00:00","4","42.4333333","-8.6166666","108.0","PONTEVEDRA, SP","FM-12","99999","V020","030,1,N,0010,1","22000,1,9,N","025000,1,N,1","+0060,1","+0017,1","10209,1","12,0000,9,1","24,0000,9,1",,,,"01,99,1,01,1,05,1,00800,1,00,1,00,1","0630,9",,,"999,N,+0051,1","99999,9,10075,1","6,1,008,1,+999,9",,"SYN100AAXX  05064 08044 12575 10302 10060 20017 30075 40209 56008 60002 81500 333 20051 50324 55105 70000;","Q01  00002PRCP24Q02  00002PRCP12"
"08044099999","2010-05-05T12:00:00","4","42.4333333","-8.6166666","108.0","PONTEVEDRA, SP","FM-12","99999","V020","330,1,N,0036,1","00750,1,9,N","020000,1,N,1","+0152,1","+0037,1","10185,1","06,0000,9,1",,,,,"06,99,1,06,1,05,1,00800,1,00,1,00,1",,,,,"99999,9,10055,1","7,1,013,1,+999,9",,"SYN072AAXX  05124 08044 12570 63307 10152 20037 30055 40185 57013 60001 86500;","Q01  00002PRCP06"
"08044099999","2010-05-05T15:00:00","4","42.4333333","-8.6166666","108.0","PONTEVEDRA, SP","FM-12","99999","V020","360,1,N,0031,1","22000,1,9,N","020000,1,N,1","+0160,1","+0041,1","10169,1",,,,,,"02,99,1,02,1,05,1,00800,1,00,1,00,1",,,,,"99999,9,10040,1","7,1,015,1,+999,9",,"SYN066AAXX  05154 08044 42570 23606 10160 20041 30040 40169 57015 82500;",
"08044099999","2010-05-05T18:00:00","4","42.4333333","-8.6166666","108.0","PONTEVEDRA, SP","FM-12","99999","V020","360,1,N,0057,1","22000,1,9,N","020000,1,N,1","+0136,1","+0022,1","10155,1","12,0000,9,1",,,,,"01,99,1,01,1,05,1,00800,1,00,1,00,1",,,,"999,M,+0162,1","99999,9,10025,1","7,1,015,1,+999,9",,"SYN082AAXX  05184 08044 12570 13611 10136 20022 30025 40155 57015 60002 81500 333 10162;","Q01  00002PRCP12"
"08044099999","2010-05-06T06:00:00","4","42.4333333","-8.6166666","108.0","PONTEVEDRA, SP","FM-12","99999","V020","180,1,N,0010,1","22000,1,9,N","025000,1,N,1","+0089,1","-0018,1","10135,1","12,0000,9,1","24,0000,9,1",,,,"04,99,1,04,1,00,1,01750,1,04,1,01,1","0816,9",,,"999,N,+0084,1","99999,9,10003,1","4,1,000,1,+999,9","02,1","SYN106AAXX  06064 08044 11775 41802 10089 21018 30003 40135 54000 60002 702// 84041 333 20084 50304 55136 70000;","Q01  00002PRCP24Q02  00002PRCP12"
"08044099999","2010-05-06T09:00:00","4","42.4333333","-8.6166666","108.0","PONTEVEDRA, SP","FM-12","99999","V020","290,1,N,0015,1","22000,1,9,N","025000,1,N,1","+0138,1","+0001,1","10133,1",,,,,,"04,99,1,00,1,00,1,99999,9,00,1,01,1",,,,,"99999,9,10003,1","0,1,000,1,+999,9",,"SYN066AAXX  06094 08044 42975 42903 10138 20001 30003 40133 50000 80001;",
"08044099999","2010-05-06T12:00:00","4","42.4333333","-8.6166666","108.0","PONTEVEDRA, SP","FM-12","99999","V020","350,1,N,0062,1","22000,1,9,N","025000,1,N,1","+0180,1","+0046,1","10116,1","06,0000,9,1",,,,,"01,99,1,01,1,05,1,00800,1,00,1,00,1",,,,,"99999,9,09989,1","7,1,014,1,+999,9",,"SYN072AAXX  06124 08044 12575 13512 10180 20046 39989 40116 57014 60001 81500;","Q01  00002PRCP06"
"08044099999","2010-05-06T15:00:00","4","42.4333333","-8.6166666","108.0","PONTEVEDRA, SP","FM-12","99999","V020","030,1,N,0026,1","22000,1,9,N","020000,1,N,1","+0186,1","+0061,1","10095,1",,,,,,"01,99,1,01,1,01,1,00450,1,00,1,00,1",,,,,"99999,9,09968,1","7,1,021,1,+999,9",,"SYN066AAXX  06154 08044 42470 10305 10186 20061 39968 40095 57021 81100;",
"08044099999","2010-05-06T18:00:00","4","42.4333333","-8.6166666","108.0","PONTEVEDRA, SP","FM-12","99999","V020","320,1,N,0046,1","99999,9,9,N","015000,1,N,1","+0166,1","+0061,1","10094,1","12,0000,9,1",,,,,"05,99,1,00,1,00,1,99999,9,00,1,01,1",,,,"999,M,+0192,1","99999,9,09966,1","6,1,002,1,+999,9",,"SYN082AAXX  06184 08044 12965 53209 10166 20061 39966 40094 56002 60002 80001 333 10192;","Q01  00002PRCP12"
"08044099999","2010-05-07T06:00:00","4","42.4333333","-8.6166666","108.0","PONTEVEDRA, SP","FM-12","99999","V020","060,1,N,0021,1","00210,1,9,N","008000,1,N,1","+0091,1","+0086,1","10079,1","12,0010,9,1","24,0010,9,1","6,1,06,1","2,1,06,1",,"08,99,1,08,1,07,1,00250,1,99,9,99,9","0666,9",,,"999,N,+0091,1","99999,9,09948,1","6,1,008,1,+999,9","21,1","SYN106AAXX  07064 08044 11358 80604 10091 20086 39948 40079 56008 60012 72162 887// 333 20091 50334 55111 70011;",
"08044099999","2010-05-07T12:00:00","4","42.4333333","-8.6166666","108.0","PONTEVEDRA, SP","FM-12","99999","V020","200,1,N,0010,1","00900,1,9,N","010000,1,N,1","+0141,1","+0131,1","10069,1","06,0020,9,1",,"6,1,06,1","2,1,06,1",,"07,99,1,07,1,08,1,00450,1,99,9,99,9",,,,,"99999,9,09941,1","8,1,002,1,+999,9","21,1","SYN078AAXX  07124 08044 11460 72002 10141 20131 39941 40069 58002 60021 72162 878//;",
"08044099999","2010-05-07T18:00:00","4","42.4333333","-8.6166666","108.0","PONTEVEDRA, SP","FM-12","99999","V020","210,1,N,0010,1","01200,1,9,N","010000,1,N,1","+0150,1","+0110,1","10062,1","12,0020,9,1",,,,,"07,99,1,07,1,08,1,00800,1,99,9,99,9",,,,"999,M,+0182,1","99999,9,09934,1","4,1,000,1,+999,9",,"SYN082AAXX  07184 08044 12560 72102 10150 20110 39934 40062 54000 60022 878// 333 10182;",
"08044099999","2010-05-08T06:00:00","4","42.4333333","-8.6166666","108.0","PONTEVEDRA, SP","FM-12","99999","V020","040,1,N,0010,1","00900,1,9,N","015000,1,N,1","+0107,1","+0102,1","10058,1","12,0071,9,1","24,0089,9,1",,,,"06,99,1,06,1,08,1,00450,1,00,1,00,1","0216,9",,,"999,N,+0107,1","99999,9,09928,1","6,1,005,1,+999,9","02,1","SYN106AAXX  08064 08044 11465 60402 10107 20102 39928 40058 56005 60072 702/8 86800 333 20107 50124 55036 70090;",
"08044099999","2010-05-08T12:00:00","4","42.4333333","-8.6166666","108.0","PONTEVEDRA, SP","FM-12","99999","V020","280,1,N,0010,1","01200,1,9,N","015000,1,N,1","+0149,1","+0122,1","10055,1","06,0020,9,1",,"8,1,06,1","2,1,06,1",,"08,99,1,08,1,08,1,00800,1,99,9,99,9",,,,,"99999,9,09927,1","8,1,001,1,+999,9","25,1","SYN078AAXX  08124 08044 11565 82802 10149 20122 39927 40055 58001 60021 72582 888//;",
"08044099999","2010-05-08T15:00:00","4","42.4333333","-8.6166666","108.0","PONTEVEDRA, SP","FM-12","99999","V020","130,1,N,0010,1","00900,1,9,N","010000,1,N,1","+0128,1","+0117,1","10048,1",,,"8,1,03,1","2,1,03,1",,"08,99,1,08,1,08,1,00450,1,99,9,99,9",,,,,"99999,9,09919,1","8,1,008,1,+999,9","62,1","SYN072AAXX  08154 08044 41460 81302 10128 20117 39919 40048 58008 76282 888//;",
"08044099999","2010-05-08T18:00:00","4","42.4333333","-8.6166666","108.0","PONTEVEDRA, SP","FM-12","99999","V020","060,1,N,0015,1","00900,1,9,N","008000,1,N,1","+0122,1","+0111,1","10026,1","12,0071,9,1",,"6,1,06,1","6,1,06,1",,"08,99,1,08,1,08,1,00450,1,99,9,99,9",,,,"999,M,+0154,1","99999,9,09897,1","7,1,022,1,+999,9","61,1","SYN088AAXX  08184 08044 11458 80603 10122 20111 39897 40026 57022 60072 76166 888// 333 10154;",
"08044099999","2010-05-09T06:00:00","4","42.4333333","-8.6166666","108.0","PONTEVEDRA, SP","FM-12","99999","V020","120,1,N,0010,1","00900,1,9,N","010000,1,N,1","+0108,1","+0103,1","09980,1","12,0231,9,1","24,0302,9,1",,,,"08,99,1,08,1,08,1,00450,1,99,9,99,9","0000,9",,,"999,N,+0108,1","99999,9,09851,1","2,1,024,1,+999,9","02,1","SYN106AAXX  09064 08044 11460 81202 10108 20103 39851 49980 52024 60232 702/8 888// 333 20108 50084 55000 70303;",
"08044099999","2010-05-09T09:00:00","4","42.4333333","-8.6166666","108.0","PONTEVEDRA, SP","FM-12","99999","V020","180,1,N,0021,1","00900,1,9,N","010000,1,N,1","+0111,1","+0103,1","10002,1",,,"8,1,03,1","2,1,03,1",,"08,99,1,08,1,08,1,00450,1,99,9,99,9",,,,,"99999,9,09873,1","2,1,022,1,+999,9","25,1","SYN072AAXX  09094 08044 41460 81804 10111 20103 39873 40002 52022 72582 888//;",
"08044099999","2010-05-09T12:00:00","4","42.4333333","-8.6166666","108.0","PONTEVEDRA, SP","FM-12","99999","V020","330,1,N,0015,1","01200,1,9,N","012000,1,N,1","+0125,1","+0091,1","10018,1","06,0008,9,1",,"8,1,06,1","2,1,06,1",,"08,99,1,08,1,08,1,00800,1,99,9,99,9",,,,,"99999,9,09890,1","2,1,017,1,+999,9","25,1","SYN078AAXX  09124 08044 11562 83303 10125 20091 39890 40018 52017 69981 72582 888//;",
"08044099999","2010-05-09T15:00:00","4","42.4333333","-8.6166666","108.0","PONTEVEDRA, SP","FM-12","99999","V020","180,1,N,0036,1","00900,1,9,N","012000,1,N,1","+0120,1","+0102,1","10031,1",,,"8,1,03,1","2,1,03,1",,"08,99,1,08,1,08,1,00450,1,99,9,99,9",,,,,"99999,9,09902,1","1,1,012,1,+999,9","81,1","SYN072AAXX  09154 08044 41462 81807 10120 20102 39902 40031 51012 78182 888//;",
"08044099999","2010-05-09T18:00:00","4","42.4333333","-8.6166666","108.0","PONTEVEDRA, SP","FM-12","99999","V020","200,1,N,0036,1","00900,1,9,N","008000,1,N,1","+0112,1","+0089,1","10034,1","12,0020,9,1",,"6,1,06,1","2,1,06,1",,"08,99,1,08,1,08,1,00450,1,99,9,99,9",,,,"999,M,+0133,1","99999,9,09905,1","3,1,003,1,+999,9","61,1","SYN088AAXX  09184 08044 11458 82007 10112 20089 39905 40034 53003 60022 76162 888// 333 10133;",
"08044099999","2010-05-10T06:00:00","4","42.4333333","-8.6166666","108.0","PONTEVEDRA, SP","FM-12","99999","V020","170,1,N,0010,1","00900,1,9,N","010000,1,N,1","+0110,1","+0105,1","10043,1","12,0170,9,1","24,0191,9,1",,,,"08,99,1,08,1,08,1,00450,1,99,9,99,9","0024,9",,,"999,N,+0100,1","99999,9,09914,1","2,1,005,1,+999,9","80,1","SYN106AAXX  10064 08044 11460 81702 10110 20105 39914 40043 52005 60172 780/8 888// 333 20100 50084 55004 70190;",
"08044099999","2010-05-10T09:00:00","4","42.4333333","-8.6166666","108.0","PONTEVEDRA, SP","FM-12","99999","V020","120,1,N,0010,1","00900,1,9,N","010000,1,N,1","+0119,1","+0116,1","10054,1",,,"8,1,03,1","2,1,03,1",,"07,99,1,07,1,08,1,00450,1,99,9,99,9",,,,,"99999,9,09925,1","2,1,011,1,+999,9","25,1","SYN072AAXX  10094 08044 41460 71202 10119 20116 39925 40054 52011 72582 878//;",
"08044099999","2010-05-10T12:00:00","4","42.4333333","-8.6166666","108.0","PONTEVEDRA, SP","FM-12","99999","V020","180,1,N,0015,1","00900,1,9,N","010000,1,N,1","+0141,1","+0127,1","10058,1","06,0071,9,1",,"8,1,06,1","2,1,06,1",,"07,99,1,07,1,08,1,00450,1,99,9,99,9",,,,,"99999,9,09930,1","1,1,005,1,+999,9","25,1","SYN078AAXX  10124 08044 11460 71803 10141 20127 39930 40058 51005 60071 72582 878//;",
"08044099999","2010-05-10T15:00:00","4","42.4333333","-8.6166666","108.0","PONTEVEDRA, SP","FM-12","99999","V020","130,1,N,0015,1","00900,1,9,N","020000,1,N,1","+0140,1","+0122,1","10065,1",,,"8,1,03,1","2,1,03,1",,"06,99,1,06,1,08,1,00450,1,00,1,00,1",,,,,"99999,9,09937,1","1,1,007,1,+999,9","25,1","SYN072AAXX  10154 08044 41470 61303 10140 20122 39937 40065 51007 72582 86800;",
"08044099999","2010-05-10T18:00:00","4","42.4333333","-8.6166666","108.0","PONTEVEDRA, SP","FM-12","99999","V020","040,1,N,0015,1","00900,1,9,N","015000,1,N,1","+0131,1","+0120,1","10077,1","12,0119,9,1",,"8,1,06,1","2,1,06,1",,"08,99,1,08,1,08,1,00450,1,99,9,99,9",,,,"999,M,+0154,1","99999,9,09948,1","2,1,011,1,+999,9","25,1","SYN088AAXX  10184 08044 11465 80403 10131 20120 39948 40077 52011 60122 72582 888// 333 10154;",
"08044099999","2010-05-11T06:00:00","4","42.4333333","-8.6166666","108.0","PONTEVEDRA, SP","FM-12","99999","V020","050,1,N,0015,1","01200,1,9,N","015000,1,N,1","+0097,1","+0092,1","10093,1","12,0010,9,1","24,0130,9,1",,,,"07,99,1,07,1,08,1,00800,1,99,9,99,9","0168,9",,,"999,N,+0093,1","99999,9,09962,1","6,1,003,1,+999,9","02,1","SYN106AAXX  11064 08044 11565 70503 10097 20092 39962 40093 56003 60012 702/8 878// 333 20093 50064 55028 70130;",
"08044099999","2010-05-11T12:00:00","4","42.4333333","-8.6166666","108.0","PONTEVEDRA, SP","FM-12","99999","V020","290,1,N,0057,1","03600,1,9,N","015000,1,N,1","+0155,1","+0105,1","10090,1","06,0000,9,1",,,,,"05,99,1,04,1,08,1,00800,1,04,1,01,1",,,,,"99999,9,09962,1","8,1,002,1,+999,9",,"SYN072AAXX  11124 08044 12565 52911 10155 20105 39962 40090 58002 60001 84841;","Q01  00002PRCP06"
"08044099999","2010-05-11T15:00:00","4","42.4333333","-8.6166666","108.0","PONTEVEDRA, SP","FM-12","99999","V020","340,1,N,0041,1","03600,1,9,N","015000,1,N,1","+0155,1","+0075,1","10090,1",,,,,,"07,99,1,04,1,08,1,00800,1,04,1,01,1",,,,,"99999,9,09962,1","4,1,000,1,+999,9",,"SYN066AAXX  11154 08044 42565 73408 10155 20075 39962 40090 54000 84841;",
"08044099999","2010-05-11T18:00:00","4","42.4333333","-8.6166666","108.0","PONTEVEDRA, SP","FM-12","99999","V020","340,1,N,0051,1","03600,1,9,N","015000,1,N,1","+0140,1","+0054,1","10091,1","12,0000,9,1",,,,,"07,99,1,02,1,08,1,00800,1,04,1,01,1",,,,"999,M,+0161,1","99999,9,09962,1","4,1,000,1,+999,9",,"SYN082AAXX  11184 08044 12565 73410 10140 20054 39962 40091 54000 60002 82841 333 10161;","Q01  00002PRCP12"
"08044099999","2010-05-12T06:00:00","4","42.4333333","-8.6166666","108.0","PONTEVEDRA, SP","FM-12","99999","V020","080,1,N,0021,1","22000,1,9,N","012000,1,N,1","+0075,1","+0061,1","10107,1","12,0000,9,1","24,0000,9,1",,,,"04,99,1,01,1,05,1,00800,1,05,1,00,1","0132,9",,,"999,N,+0068,1","99999,9,09975,1","3,1,002,1,+999,9","02,1","SYN106AAXX  12064 08044 11562 40804 10075 20061 39975 40107 53002 60002 702// 81550 333 20068 50104 55022 70000;","Q01  00002PRCP24Q02  00002PRCP12"
"08044099999","2010-05-12T09:00:00","4","42.4333333","-8.6166666","108.0","PONTEVEDRA, SP","FM-12","99999","V020","320,1,N,0031,1","03600,1,9,N","012000,1,N,1","+0113,1","+0080,1","10115,1",,,,,,"08,99,1,04,1,08,1,00800,1,05,1,99,9",,,,,"99999,9,09985,1","1,1,010,1,+999,9",,"SYN066AAXX  12094 08044 42562 83206 10113 20080 39985 40115 51010 8485/;",
"08044099999","2010-05-12T12:00:00","4","42.4333333","-8.6166666","108.0","PONTEVEDRA, SP","FM-12","99999","V020","340,1,N,0026,1","01200,1,9,N","015000,1,N,1","+0139,1","+0079,1","10113,1","06,0000,9,1",,,,,"08,99,1,08,1,08,1,00800,1,99,9,99,9",,,,,"99999,9,09984,1","8,1,001,1,+999,9",,"SYN072AAXX  12124 08044 12565 83405 10139 20079 39984 40113 58001 60001 888//;","Q01  00002PRCP06"
"08044099999","2010-05-12T15:00:00","4","42.4333333","-8.6166666","108.0","PONTEVEDRA, SP","FM-12","99999","V020","130,1,N,0010,1","00900,1,9,N","015000,1,N,1","+0118,1","+0107,1","10114,1",,,"8,1,03,1","2,1,03,1",,"07,99,1,07,1,08,1,00450,1,99,9,99,9",,,,,"99999,9,09984,1","0,1,000,1,+999,9","25,1","SYN072AAXX  12154 08044 41465 71302 10118 20107 39984 40114 50000 72582 878//;",
"08044099999","2010-05-12T18:00:00","4","42.4333333","-8.6166666","108.0","PONTEVEDRA, SP","FM-12","99999","V020","340,1,N,0036,1","01200,1,9,N","020000,1,N,1","+0122,1","+0077,1","10114,1","12,0079,9,1",,,,,"08,99,1,99,9,08,1,00800,1,05,1,99,9",,,,"999,M,+0139,1","99999,9,09984,1","5,1,000,1,+999,9",,"SYN082AAXX  12184 08044 12570 83407 10122 20077 39984 40114 55000 60082 8885/ 333 10139;","Q01+000082SCOTLC"
"08044099999","2010-05-13T06:00:00","4","42.4333333","-8.6166666","108.0","PONTEVEDRA, SP","FM-12","99999","V020","360,1,N,0021,1","22000,1,9,N","020000,1,N,1","+0056,1","+0038,1","10146,1","12,0000,9,1","24,0076,9,1",,,,"01,99,1,01,1,00,1,01750,1,03,1,00,1","0060,9",,,"999,N,+0056,1","99999,9,10013,1","1,1,008,1,+999,9","02,1","SYN106AAXX  13064 08044 11770 13604 10056 20038 30013 40146 51008 60002 702// 81030 333 20056 50154 55010 70075;","Q01  00002PRCP12"
"08044099999","2010-05-13T09:00:00","4","42.4333333","-8.6166666","108.0","PONTEVEDRA, SP","FM-12","99999","V020","350,1,N,0036,1","22000,1,9,N","020000,1,N,1","+0120,1","+0035,1","10152,1",,,,,,"01,99,1,01,1,00,1,01750,1,03,1,00,1",,,,,"99999,9,10021,1","0,1,008,1,+999,9",,"SYN066AAXX  13094 08044 42770 13507 10120 20035 30021 40152 50008 81030;",
"08044099999","2010-05-13T12:00:00","4","42.4333333","-8.6166666","108.0","PONTEVEDRA, SP","FM-12","99999","V020","330,1,N,0051,1","22000,1,9,N","020000,1,N,1","+0140,1","+0035,1","10154,1","06,0000,9,1",,,,,"04,99,1,04,1,02,1,00450,1,00,1,00,1",,,,,"99999,9,10024,1","3,1,003,1,+999,9",,"SYN072AAXX  13124 08044 12470 43310 10140 20035 30024 40154 53003 60001 84200;","Q01  00002PRCP06"
"08044099999","2010-05-13T15:00:00","4","42.4333333","-8.6166666","108.0","PONTEVEDRA, SP","FM-12","99999","V020","330,1,N,0036,1","22000,1,9,N","020000,1,N,1","+0142,1","+0058,1","10152,1",,,"1,1,03,1","1,1,03,1",,"04,99,1,03,1,02,1,00450,1,04,1,00,1",,,,,"99999,9,10022,1","5,1,002,1,+999,9","25,1","SYN072AAXX  13154 08044 41470 43307 10142 20058 30022 40152 55002 72511 83240;",
"08044099999","2010-05-13T18:00:00","4","42.4333333","-8.6166666","108.0","PONTEVEDRA, SP","FM-12","99999","V020","320,1,N,0062,1","22000,1,9,N","020000,1,N,1","+0138,1","+0030,1","10154,1","12,0000,2,1",,"8,1,06,1","1,1,06,1",,"02,99,1,01,1,02,1,00450,1,04,1,00,1",,,,"999,M,+0160,1","99999,9,10024,1","3,1,002,1,+999,9","01,1","SYN088AAXX  13184 08044 11470 23212 10138 20030 30024 40154 53002 69922 70181 81240 333 10160;",
"08044099999","2010-05-14T06:00:00","4","42.4333333","-8.6166666","108.0","PONTEVEDRA, SP","FM-12","99999","V020","030,1,N,0010,1","00120,1,9,N","001500,1,N,1","+0080,1","+0068,1","10168,1","12,9999,9,9","24,0003,9,1",,,,"08,99,1,08,1,06,1,00150,1,99,9,99,9","0756,9",,,"999,N,+0072,1","99999,9,10035,1","5,1,007,1,+999,9","50,1","SYN106AAXX  14064 08044 11215 80302 10080 20068 30035 40168 55007 69912 750// 886// 333 20072 50254 55126 70003;","Q01  00002PRCP12Q02  00002PRCP12"
"08044099999","2010-05-14T09:00:00","4","42.4333333","-8.6166666","108.0","PONTEVEDRA, SP","FM-12","99999","V020","260,1,N,0010,1","00210,1,9,N","002000,1,N,1","+0094,1","+0086,1","10172,1",,,"5,1,03,1","4,1,03,1",,"08,99,1,08,1,06,1,00250,1,99,9,99,9",,,,,"99999,9,10040,1","1,1,005,1,+999,9","20,1","SYN072AAXX  14094 08044 41320 82602 10094 20086 30040 40172 51005 72054 886//;",
"08044099999","2010-05-14T12:00:00","4","42.4333333","-8.6166666","108.0","PONTEVEDRA, SP","FM-12","99999","V020","230,1,N,0010,1","00210,1,9,N","015000,1,N,1","+0134,1","+0115,1","10170,1","06,0010,9,1",,"5,1,06,1","4,1,06,1",,"07,99,1,05,1,02,1,00250,1,07,1,99,9",,,,,"99999,9,10040,1","0,1,000,1,+999,9","25,1","SYN078AAXX  14124 08044 11365 72302 10134 20115 30040 40170 50000 60011 72554 8527/;",
"08044099999","2010-05-14T15:00:00","4","42.4333333","-8.6166666","108.0","PONTEVEDRA, SP","FM-12","99999","V020","290,1,N,0041,1","00420,1,9,N","020000,1,N,1","+0148,1","+0098,1","10172,1",,,,,,"06,99,1,05,1,03,1,00450,1,04,1,00,1",,,,,"99999,9,10043,1","0,1,003,1,+999,9",,"SYN066AAXX  14154 08044 42470 62908 10148 20098 30043 40172 50003 85340;",
"08044099999","2010-05-14T18:00:00","4","42.4333333","-8.6166666","108.0","PONTEVEDRA, SP","FM-12","99999","V020","330,1,N,0031,1","03600,1,9,N","015000,1,N,1","+0140,1","+0075,1","10184,1","12,0010,9,1",,"8,1,06,1","2,1,06,1",,"06,99,1,04,1,08,1,00450,1,06,1,00,1",,,,"999,M,+0164,1","99999,9,10054,1","3,1,011,1,+999,9","01,1","SYN088AAXX  14184 08044 11465 63306 10140 20075 30054 40184 53011 60012 70182 84860 333 10164;",
"08044099999","2010-05-15T06:00:00","4","42.4333333","-8.6166666","108.0","PONTEVEDRA, SP","FM-12","99999","V020","070,1,N,0010,1","00750,1,9,N","012000,1,N,1","+0088,1","+0076,1","10222,1","12,0000,9,1","24,0013,9,1",,,,"06,99,1,06,1,05,1,00800,1,00,1,00,1","0162,9",,,"999,N,+0078,1","99999,9,10089,1","1,1,004,1,+999,9","02,1","SYN106AAXX  15064 08044 11562 60702 10088 20076 30089 40222 51004 60002 702// 86500 333 20078 50104 55027 70013;","Q01  00002PRCP12"
"08044099999","2010-05-15T09:00:00","4","42.4333333","-8.6166666","108.0","PONTEVEDRA, SP","FM-12","99999","V020","170,1,N,0015,1","00750,1,9,N","015000,1,N,1","+0128,1","+0075,1","10231,1",,,,,,"07,99,1,07,1,05,1,00800,1,99,9,99,9",,,,,"99999,9,10100,1","1,1,011,1,+999,9",,"SYN066AAXX  15094 08044 42565 71703 10128 20075 30100 40231 51011 875//;",
"08044099999","2010-05-15T12:00:00","4","42.4333333","-8.6166666","108.0","PONTEVEDRA, SP","FM-12","99999","V020","350,1,N,0026,1","00900,1,9,N","015000,1,N,1","+0152,1","+0060,1","10237,1","06,0000,9,1",,,,,"06,99,1,06,1,08,1,00450,1,00,1,00,1",,,,,"99999,9,10107,1","1,1,007,1,+999,9",,"SYN072AAXX  15124 08044 12465 63505 10152 20060 30107 40237 51007 60001 86800;","Q01  00002PRCP06"
"08044099999","2010-05-15T15:00:00","4","42.4333333","-8.6166666","108.0","PONTEVEDRA, SP","FM-12","99999","V020","320,1,N,0010,1","00900,1,9,N","015000,1,N,1","+0158,1","+0083,1","10236,1",,,,,,"05,99,1,05,1,08,1,00450,1,00,1,00,1",,,,,"99999,9,10106,1","5,1,001,1,+999,9",,"SYN066AAXX  15154 08044 42465 53202 10158 20083 30106 40236 55001 85800;",
"08044099999","2010-05-15T18:00:00","4","42.4333333","-8.6166666","108.0","PONTEVEDRA, SP","FM-12","99999","V020","340,1,N,0057,1","22000,1,9,N","015000,1,N,1","+0156,1","+0055,1","10228,1","12,0000,9,1",,,,,"02,99,1,02,1,04,1,00450,1,00,1,00,1",,,,"999,M,+0172,1","99999,9,10098,1","6,1,008,1,+999,9",,"SYN082AAXX  15184 08044 12465 23411 10156 20055 30098 40228 56008 60002 82400 333 10172;","Q01  00002PRCP12"
"08044099999","2010-05-16T06:00:00","4","42.4333333","-8.6166666","108.0","PONTEVEDRA, SP","FM-12","99999","V020","060,1,N,0021,1","22000,1,9,N","020000,1,N,1","+0072,1","+0034,1","10251,1","12,0000,9,1","24,0000,9,1",,,,"01,99,1,01,1,05,1,00800,1,00,1,00,1","0312,9",,,"999,N,+0068,1","99999,9,10117,1","3,1,003,1,+999,9","02,1","SYN106AAXX  16064 08044 11570 10604 10072 20034 30117 40251 53003 60002 702// 81500 333 20068 50184 55052 70000;","Q01  00002PRCP24Q02  00002PRCP12"
"08044099999","2010-05-16T09:00:00","4","42.4333333","-8.6166666","108.0","PONTEVEDRA, SP","FM-12","99999","V020","350,1,N,0031,1","22000,1,9,N","020000,1,N,1","+0140,1","+0043,1","10255,1",,,,,,"01,99,1,01,1,05,1,00800,1,00,1,00,1",,,,,"99999,9,10124,1","1,1,007,1,+999,9",,"SYN066AAXX  16094 08044 42570 13506 10140 20043 30124 40255 51007 81500;",
"08044099999","2010-05-16T12:00:00","4","42.4333333","-8.6166666","108.0","PONTEVEDRA, SP","FM-12","99999","V020","350,1,N,0036,1","22000,1,9,N","020000,1,N,1","+0178,1","+0063,1","10249,1","06,0000,9,1",,,,,"01,99,1,01,1,05,1,00800,1,00,1,00,1",,,,,"99999,9,10120,1","8,1,004,1,+999,9",,"SYN072AAXX  16124 08044 12570 13507 10178 20063 30120 40249 58004 60001 81500;","Q01  00002PRCP06"
"08044099999","2010-05-16T15:00:00","4","42.4333333","-8.6166666","108.0","PONTEVEDRA, SP","FM-12","99999","V020","320,1,N,0057,1","22000,1,9,N","020000,1,N,1","+0198,1","+0088,1","10241,1",,,,,"00,1,+99999,9,99,9","00,99,1,00,1,00,1,99999,9,00,1,00,1",,,,,"99999,9,10113,1","8,1,007,1,+999,9",,"SYN060AAXX  16154 08044 42970 03211 10198 20088 30113 40241 58007;",
"08044099999","2010-05-16T18:00:00","4","42.4333333","-8.6166666","108.0","PONTEVEDRA, SP","FM-12","99999","V020","320,1,N,0051,1","22000,1,9,N","015000,1,N,1","+0188,1","+0085,1","10237,1","12,0000,9,1",,,,"00,1,+99999,9,99,9","00,99,1,00,1,00,1,99999,9,00,1,00,1",,,,"999,M,+0200,1","99999,9,10109,1","6,1,004,1,+999,9",,"SYN076AAXX  16184 08044 12965 03210 10188 20085 30109 40237 56004 60002 333 10200;","Q01  00002PRCP12"
"08044099999","2010-05-17T06:00:00","4","42.4333333","-8.6166666","108.0","PONTEVEDRA, SP","FM-12","99999","V020","150,1,N,0010,1","22000,1,9,N","020000,1,N,1","+0076,1","+0057,1","10255,1","12,0000,9,1","24,0000,9,1",,,"00,1,+99999,9,99,9","00,99,1,00,1,00,1,99999,9,00,1,00,1","0852,9",,,"999,N,+0074,1","99999,9,10121,1","4,1,000,1,+999,9",,"SYN094AAXX  17064 08044 12970 01502 10076 20057 30121 40255 54000 60002 333 20074 50284 55142 70000;","Q01  00002PRCP24Q02  00002PRCP12"
"08044099999","2010-05-17T09:00:00","4","42.4333333","-8.6166666","108.0","PONTEVEDRA, SP","FM-12","99999","V020","300,1,N,0010,1","22000,1,9,N","020000,1,N,1","+0158,1","+0073,1","10256,1",,,,,"00,1,+99999,9,99,9","00,99,1,00,1,00,1,99999,9,00,1,00,1",,,,,"99999,9,10126,1","0,1,005,1,+999,9",,"SYN060AAXX  17094 08044 42970 03002 10158 20073 30126 40256 50005;",
"08044099999","2010-05-17T12:00:00","4","42.4333333","-8.6166666","108.0","PONTEVEDRA, SP","FM-12","99999","V020","250,1,N,0021,1","22000,1,9,N","020000,1,N,1","+0224,1","+0118,1","10253,1","06,0000,9,1",,,,,"01,99,1,01,1,00,1,01750,1,03,1,00,1",,,,,"99999,9,10126,1","4,1,000,1,+999,9",,"SYN072AAXX  17124 08044 12770 12504 10224 20118 30126 40253 54000 60001 81030;","Q01  00002PRCP06"
"08044099999","2010-05-17T15:00:00","4","42.4333333","-8.6166666","108.0","PONTEVEDRA, SP","FM-12","99999","V020","240,1,N,0015,1","22000,1,9,N","020000,1,N,1","+0214,1","+0096,1","10250,1",,,,,,"02,99,1,01,1,02,1,00450,1,00,1,02,1",,,,,"99999,9,10123,1","6,1,003,1,+999,9",,"SYN066AAXX  17154 08044 42470 22403 10214 20096 30123 40250 56003 81202;",
"08044099999","2010-05-17T18:00:00","4","42.4333333","-8.6166666","108.0","PONTEVEDRA, SP","FM-12","99999","V020","200,1,N,0010,1","22000,1,9,N","015000,1,N,1","+0196,1","+0095,1","10245,1","12,0000,9,1",,,,,"02,99,1,00,1,00,1,99999,9,00,1,02,1",,,,"999,M,+0236,1","99999,9,10117,1","8,1,006,1,+999,9",,"SYN082AAXX  17184 08044 12965 22002 10196 20095 30117 40245 58006 60002 80002 333 10236;","Q01  00002PRCP12"
"08044099999","2010-05-18T06:00:00","4","42.4333333","-8.6166666","108.0","PONTEVEDRA, SP","FM-12","99999","V020","070,1,N,0021,1","22000,1,9,N","020000,1,N,1","+0140,1","+0073,1","10254,1","12,0000,9,1","24,0000,9,1",,,,"01,99,1,01,1,00,1,01750,1,03,1,00,1","0852,9",,,"999,N,+0136,1","99999,9,10123,1","3,1,003,1,+999,9",,"SYN100AAXX  18064 08044 12770 10704 10140 20073 30123 40254 53003 60002 81030 333 20136 50254 55142 70000;","Q01  00002PRCP24Q02  00002PRCP12"
"08044099999","2010-05-18T09:00:00","4","42.4333333","-8.6166666","108.0","PONTEVEDRA, SP","FM-12","99999","V020","270,1,N,0010,1","22000,1,9,N","020000,1,N,1","+0200,1","+0110,1","10257,1",,,,,,"01,99,1,00,1,00,1,99999,9,00,1,02,1",,,,,"99999,9,10129,1","0,1,006,1,+999,9",,"SYN066AAXX  18094 08044 42970 12702 10200 20110 30129 40257 50006 80002;",
"08044099999","2010-05-18T12:00:00","4","42.4333333","-8.6166666","108.0","PONTEVEDRA, SP","FM-12","99999","V020","210,1,N,0010,1","22000,1,9,N","020000,1,N,1","+0254,1","+0136,1","10252,1","06,0000,9,1",,,,,"01,99,1,00,1,00,1,99999,9,00,1,02,1",,,,,"99999,9,10126,1","7,1,003,1,+999,9",,"SYN072AAXX  18124 08044 12970 12102 10254 20136 30126 40252 57003 60001 80002;","Q01  00002PRCP06"
"08044099999","2010-05-18T15:00:00","4","42.4333333","-8.6166666","108.0","PONTEVEDRA, SP","FM-12","99999","V020","200,1,N,0010,1","22000,1,9,N","020000,1,N,1","+0240,1","+0135,1","10246,1",,,,,,"03,99,1,00,1,00,1,99999,9,00,1,02,1",,,,,"99999,9,10120,1","8,1,006,1,+999,9",,"SYN066AAXX  18154 08044 42970 32002 10240 20135 30120 40246 58006 80002;",
"08044099999","2010-05-18T18:00:00","4","42.4333333","-8.6166666","108.0","PONTEVEDRA, SP","FM-12","99999","V020","290,1,N,0010,1","22000,1,9,N","015000,1,N,1","+0235,1","+0142,1","10241,1","12,0000,9,1",,,,,"03,99,1,00,1,00,1,99999,9,00,1,02,1",,,,"999,M,+0262,1","99999,9,10115,1","8,1,005,1,+999,9",,"SYN082AAXX  18184 08044 12965 32902 10235 20142 30115 40241 58005 60002 80002 333 10262;","Q01  00002PRCP12"
"08044099999","2010-05-19T06:00:00","4","42.4333333","-8.6166666","108.0","PONTEVEDRA, SP","FM-12","99999","V020","190,1,N,0010,1","22000,1,9,N","020000,1,N,1","+0116,1","+0090,1","10244,1","12,0000,9,1","24,0000,9,1",,,,"01,99,1,00,1,00,1,99999,9,00,1,02,1","0852,9",,,"999,N,+0116,1","99999,9,10112,1","4,1,000,1,+999,9",,"SYN100AAXX  19064 08044 12970 11902 10116 20090 30112 40244 54000 60002 80002 333 20116 50274 55142 70000;","Q01  00002PRCP24Q02  00002PRCP12"
"08044099999","2010-05-19T09:00:00","4","42.4333333","-8.6166666","108.0","PONTEVEDRA, SP","FM-12","99999","V020","160,1,N,0010,1","22000,1,9,N","020000,1,N,1","+0190,1","+0118,1","10240,1",,,,,,"01,99,1,00,1,00,1,99999,9,00,1,02,1",,,,,"99999,9,10112,1","4,1,000,1,+999,9",,"SYN066AAXX  19094 08044 42970 11602 10190 20118 30112 40240 54000 80002;",
"08044099999","2010-05-19T12:00:00","4","42.4333333","-8.6166666","108.0","PONTEVEDRA, SP","FM-12","99999","V020","020,1,N,0026,1","22000,1,9,N","020000,1,N,1","+0288,1","+0142,1","10229,1","06,0000,9,1",,,,,"01,99,1,00,1,00,1,99999,9,00,1,02,1",,,,,"99999,9,10105,1","8,1,007,1,+999,9",,"SYN072AAXX  19124 08044 12970 10205 10288 20142 30105 40229 58007 60001 80002;","Q01  00002PRCP06"
"08044099999","2010-05-19T15:00:00","4","42.4333333","-8.6166666","108.0","PONTEVEDRA, SP","FM-12","99999","V020","280,1,N,0036,1","22000,1,9,N","020000,1,N,1","+0286,1","+0152,1","10214,1",,,,,"00,1,+99999,9,99,9","00,99,1,00,1,00,1,99999,9,00,1,00,1",,,,,"99999,9,10090,1","7,1,015,1,+999,9",,"SYN060AAXX  19154 08044 42970 02807 10286 20152 30090 40214 57015;",
"08044099999","2010-05-19T18:00:00","4","42.4333333","-8.6166666","108.0","PONTEVEDRA, SP","FM-12","99999","V020","020,1,N,0021,1","22000,1,9,N","020000,1,N,1","+0285,1","+0154,1","10205,1","12,0000,9,1",,,,"00,1,+99999,9,99,9","00,99,1,00,1,00,1,99999,9,00,1,00,1",,,,"999,M,+0300,1","99999,9,10081,1","8,1,009,1,+999,9",,"SYN076AAXX  19184 08044 12970 00204 10285 20154 30081 40205 58009 60002 333 10300;","Q01  00002PRCP12"
"08044099999","2010-05-20T06:00:00","4","42.4333333","-8.6166666","108.0","PONTEVEDRA, SP","FM-12","99999","V020","050,1,N,0015,1","22000,1,9,N","020000,1,N,1","+0195,1","+0110,1","10224,1","12,0000,9,1","24,0000,9,1",,,"00,1,+99999,9,99,9","00,99,1,00,1,00,1,99999,9,00,1,00,1","0858,9",,,"999,N,+0179,1","99999,9,10096,1","3,1,007,1,+999,9",,"SYN094AAXX  20064 08044 12970 00503 10195 20110 30096 40224 53007 60002 333 20179 50434 55143 70000;","Q01  00002PRCP24Q02  00002PRCP12"
"08044099999","2010-05-20T12:00:00","4","42.4333333","-8.6166666","108.0","PONTEVEDRA, SP","FM-12","99999","V020","090,1,N,0021,1","22000,1,9,N","020000,1,N,1","+0298,1","+0123,1","10213,1","06,0000,9,1",,,,"00,1,+99999,9,99,9","00,99,1,00,1,00,1,99999,9,00,1,00,1",,,,,"99999,9,10090,1","8,1,005,1,+999,9",,"SYN066AAXX  20124 08044 12970 00904 10298 20123 30090 40213 58005 60001;","Q01  00002PRCP06"
"08044099999","2010-05-20T15:00:00","4","42.4333333","-8.6166666","108.0","PONTEVEDRA, SP","FM-12","99999","V020","250,1,N,0015,1","22000,1,9,N","020000,1,N,1","+0293,1","+0165,1","10191,1",,,,,,"01,99,1,01,1,05,1,00450,1,00,1,00,1",,,,,"99999,9,10068,1","7,1,022,1,+999,9",,"SYN066AAXX  20154 08044 42470 12503 10293 20165 30068 40191 57022 81500;",
"08044099999","2010-05-20T18:00:00","4","42.4333333","-8.6166666","108.0","PONTEVEDRA, SP","FM-12","99999","V020","190,1,N,0010,1","22000,1,9,N","020000,1,N,1","+0247,1","+0148,1","10186,1","12,0000,9,1",,,,"00,1,+99999,9,99,9","00,99,1,00,1,00,1,99999,9,00,1,00,1",,,,"999,M,+0315,1","99999,9,10061,1","6,1,007,1,+999,9",,"SYN076AAXX  20184 08044 12970 01902 10247 20148 30061 40186 56007 60002 333 10315;","Q01  00002PRCP12"
"08044099999","2010-05-21T06:00:00","4","42.4333333","-8.6166666","108.0","PONTEVEDRA, SP","FM-12","99999","V020","070,1,N,0031,1","22000,1,9,N","020000,1,N,1","+0195,1","+0066,1","10189,1","12,0000,9,1","24,0000,9,1",,,"00,1,+99999,9,99,9","00,99,1,00,1,00,1,99999,9,00,1,00,1","0852,9",,,"999,N,+0185,1","99999,9,10061,1","4,1,000,1,+999,9","00,1","SYN100AAXX  21064 08044 11970 00706 10195 20066 30061 40189 54000 60002 700// 333 20185 50454 55142 70000;","Q01  00002PRCP24Q02  00002PRCP12"
"08044099999","2010-05-21T09:00:00","4","42.4333333","-8.6166666","108.0","PONTEVEDRA, SP","FM-12","99999","V020","060,1,N,0010,1","22000,1,9,N","020000,1,N,1","+0268,1","+0124,1","10184,1",,,,,"00,1,+99999,9,99,9","00,99,1,00,1,00,1,99999,9,00,1,00,1",,,,,"99999,9,10060,1","8,1,001,1,+999,9",,"SYN060AAXX  21094 08044 42970 00602 10268 20124 30060 40184 58001;",
"08044099999","2010-05-21T12:00:00","4","42.4333333","-8.6166666","108.0","PONTEVEDRA, SP","FM-12","99999","V020","290,1,N,0026,1","22000,1,9,N","020000,1,N,1","+0300,1","+0137,1","10174,1","06,0000,9,1",,,,"00,1,+99999,9,99,9","00,99,1,00,1,00,1,99999,9,00,1,00,1",,,,,"99999,9,10051,1","7,1,009,1,+999,9",,"SYN066AAXX  21124 08044 12970 02905 10300 20137 30051 40174 57009 60001;","Q01  00002PRCP06"
"08044099999","2010-05-21T15:00:00","4","42.4333333","-8.6166666","108.0","PONTEVEDRA, SP","FM-12","99999","V020","200,1,N,0015,1","22000,1,9,N","020000,1,N,1","+0285,1","+0147,1","10162,1",,,,,"00,1,+99999,9,99,9","00,99,1,00,1,00,1,99999,9,00,1,00,1",,,,,"99999,9,10039,1","8,1,012,1,+999,9",,"SYN060AAXX  21154 08044 42970 02003 10285 20147 30039 40162 58012;",
"08044099999","2010-05-21T18:00:00","4","42.4333333","-8.6166666","108.0","PONTEVEDRA, SP","FM-12","99999","V020","240,1,N,0010,1","22000,1,9,N","020000,1,N,1","+0262,1","+0130,1","10155,1","12,0000,9,1",,,,"00,1,+99999,9,99,9","00,99,1,00,1,00,1,99999,9,00,1,00,1",,,,"999,M,+0315,1","99999,9,10031,1","7,1,008,1,+999,9",,"SYN076AAXX  21184 08044 12970 02402 10262 20130 30031 40155 57008 60002 333 10315;","Q01  00002PRCP12"
"08044099999","2010-05-22T06:00:00","4","42.4333333","-8.6166666","108.0","PONTEVEDRA, SP","FM-12","99999","V020","080,1,N,0046,1","22000,1,9,N","020000,1,N,1","+0189,1","+0105,1","10148,1","12,0000,9,1","24,0000,9,1",,,"00,1,+99999,9,99,9","00,99,1,00,1,00,1,99999,9,00,1,00,1","0858,9",,,"999,N,+0171,1","99999,9,10021,1","6,1,003,1,+999,9","00,1","SYN100AAXX  22064 08044 11970 00809 10189 20105 30021 40148 56003 60002 700// 333 20171 50474 55143 70000;","Q01  00002PRCP24Q02  00002PRCP12"
"08044099999","2010-05-22T09:00:00","4","42.4333333","-8.6166666","108.0","PONTEVEDRA, SP","FM-12","99999","V020","300,1,N,0010,1","22000,1,9,N","020000,1,N,1","+0251,1","+0157,1","10145,1",,,,,"00,1,+99999,9,99,9","00,99,1,00,1,00,1,99999,9,00,1,00,1",,,,,"99999,9,10021,1","4,1,000,1,+999,9",,"SYN060AAXX  22094 08044 42970 03002 10251 20157 30021 40145 54000;",
"08044099999","2010-05-22T12:00:00","4","42.4333333","-8.6166666","108.0","PONTEVEDRA, SP","FM-12","99999","V020","230,1,N,0010,1","22000,1,9,N","020000,1,N,1","+0302,1","+0147,1","10139,1","06,0000,9,1",,,,"00,1,+99999,9,99,9","00,99,1,00,1,00,1,99999,9,00,1,00,1",,,,,"99999,9,10017,1","8,1,004,1,+999,9",,"SYN066AAXX  22124 08044 12970 02302 10302 20147 30017 40139 58004 60001;","Q01  00002PRCP06"
"08044099999","2010-05-22T15:00:00","4","42.4333333","-8.6166666","108.0","PONTEVEDRA, SP","FM-12","99999","V020","240,1,N,0015,1","22000,1,9,N","020000,1,N,1","+0283,1","+0126,1","10133,1",,,,,,"01,99,1,01,1,01,1,00450,1,00,1,00,1",,,,,"99999,9,10010,1","8,1,007,1,+999,9",,"SYN066AAXX  22154 08044 42470 12403 10283 20126 30010 40133 58007 81100;",
"08044099999","2010-05-22T18:00:00","4","42.4333333","-8.6166666","108.0","PONTEVEDRA, SP","FM-12","99999","V020","250,1,N,0015,1","22000,1,9,N","020000,1,N,1","+0242,1","+0125,1","10134,1","12,0000,9,1",,,,"00,1,+99999,9,99,9","00,99,1,00,1,00,1,99999,9,00,1,00,1",,,,"999,M,+0304,1","99999,9,10009,1","6,1,001,1,+999,9",,"SYN076AAXX  22184 08044 12970 02503 10242 20125 30009 40134 56001 60002 333 10304;","Q01  00002PRCP12"
"08044099999","2010-05-23T06:00:00","4","42.4333333","-8.6166666","108.0","PONTEVEDRA, SP","FM-12","99999","V020","100,1,N,0015,1","22000,1,9,N","020000,1,N,1","+0162,1","+0105,1","10127,1","12,0000,9,1","24,0000,9,1",,,,"01,99,1,00,1,00,1,99999,9,00,1,01,1","0852,9",,,"999,N,+0157,1","99999,9,09999,1","4,1,000,1,+999,9","02,1","SYN106AAXX  23064 08044 11970 11003 10162 20105 39999 40127 54000 60002 702// 80001 333 20157 50414 55142 70000;","Q01  00002PRCP24Q02  00002PRCP12"
"08044099999","2010-05-23T09:00:00","4","42.4333333","-8.6166666","108.0","PONTEVEDRA, SP","FM-12","99999","V020","200,1,N,0010,1","22000,1,9,N","020000,1,N,1","+0233,1","+0148,1","10128,1",,,,,,"02,99,1,00,1,00,1,99999,9,00,1,01,1",,,,,"99999,9,10003,1","3,1,004,1,+999,9",,"SYN066AAXX  23094 08044 42970 22002 10233 20148 30003 40128 53004 80001;",
"08044099999","2010-05-23T12:00:00","4","42.4333333","-8.6166666","108.0","PONTEVEDRA, SP","FM-12","99999","V020","250,1,N,0015,1","22000,1,9,N","018000,1,N,1","+0242,1","+0162,1","10126,1","06,0000,9,1",,,,"00,1,+99999,9,99,9","00,99,1,00,1,00,1,99999,9,00,1,00,1",,,,,"99999,9,10002,1","8,1,001,1,+999,9",,"SYN066AAXX  23124 08044 12968 02503 10242 20162 30002 40126 58001 60001;","Q01  00002PRCP06"
"08044099999","2010-05-23T15:00:00","4","42.4333333","-8.6166666","108.0","PONTEVEDRA, SP","FM-12","99999","V020","260,1,N,0015,1","22000,1,9,N","015000,1,N,1","+0233,1","+0129,1","10122,1",,,,,"00,1,+99999,9,99,9","00,99,1,00,1,00,1,99999,9,00,1,00,1",,,,,"99999,9,09997,1","8,1,005,1,+999,9",,"SYN060AAXX  23154 08044 42965 02603 10233 20129 39997 40122 58005;",
"08044099999","2010-05-23T18:00:00","4","42.4333333","-8.6166666","108.0","PONTEVEDRA, SP","FM-12","99999","V020","180,1,N,0015,1","03600,1,9,N","012000,1,N,1","+0214,1","+0146,1","10124,1","12,0000,9,1",,,,,"06,99,1,03,1,05,1,00450,1,03,1,02,1",,,,"999,M,+0251,1","99999,9,09998,1","3,1,001,1,+999,9",,"SYN082AAXX  23184 08044 12462 61803 10214 20146 39998 40124 53001 60002 83532 333 10251;","Q01  00002PRCP12"
"08044099999","2010-05-24T06:00:00","4","42.4333333","-8.6166666","108.0","PONTEVEDRA, SP","FM-12","99999","V020","170,1,N,0021,1","00420,1,9,N","010000,1,N,1","+0170,1","+0150,1","10132,1","12,0000,9,1","24,0000,9,1",,,,"07,99,1,05,1,05,1,00450,1,07,1,02,1","0780,9",,,"999,N,+0161,1","99999,9,10004,1","3,1,001,1,+999,9","02,1","SYN106AAXX  24064 08044 11460 71704 10170 20150 30004 40132 53001 60002 702// 85572 333 20161 50214 55130 70000;","Q01  00002PRCP24Q02  00002PRCP12"
"08044099999","2010-05-24T09:00:00","4","42.4333333","-8.6166666","108.0","PONTEVEDRA, SP","FM-12","99999","V020","180,1,N,0015,1","00900,1,9,N","008000,1,N,1","+0191,1","+0146,1","10136,1",,,"2,1,03,1","2,1,03,1",,"07,99,1,05,1,08,1,00450,1,07,1,02,1",,,,,"99999,9,10009,1","1,1,005,1,+999,9","05,1","SYN072AAXX  24094 08044 41458 71803 10191 20146 30009 40136 51005 70522 85872;",
"08044099999","2010-05-24T12:00:00","4","42.4333333","-8.6166666","108.0","PONTEVEDRA, SP","FM-12","99999","V020","270,1,N,0026,1","03600,1,9,N","008000,1,N,1","+0196,1","+0148,1","10135,1","06,0000,9,1",,"2,1,06,1","2,1,06,1",,"07,99,1,03,1,05,1,00450,1,07,1,99,9",,,,,"99999,9,10008,1","6,1,001,1,+999,9","05,1","SYN078AAXX  24124 08044 11458 72705 10196 20148 30008 40135 56001 60001 70522 8357/;","Q01  00002PRCP06"
"08044099999","2010-05-24T15:00:00","4","42.4333333","-8.6166666","108.0","PONTEVEDRA, SP","FM-12","99999","V020","260,1,N,0015,1","22000,1,9,N","015000,1,N,1","+0206,1","+0140,1","10126,1",,,,,,"03,99,1,03,1,03,1,00450,1,00,1,00,1",,,,,"99999,9,10000,1","8,1,008,1,+999,9",,"SYN066AAXX  24154 08044 42465 32603 10206 20140 30000 40126 58008 83300;",
"08044099999","2010-05-24T18:00:00","4","42.4333333","-8.6166666","108.0","PONTEVEDRA, SP","FM-12","99999","V020","240,1,N,0015,1","09000,1,9,N","015000,1,N,1","+0192,1","+0129,1","10119,1","12,0000,9,1",,,,,"06,99,1,01,1,02,1,00450,1,00,1,02,1",,,,"999,M,+0208,1","99999,9,09992,1","6,1,008,1,+999,9",,"SYN082AAXX  24184 08044 12465 62403 10192 20129 39992 40119 56008 60002 81202 333 10208;","Q01  00002PRCP12"
"08044099999","2010-05-25T06:00:00","4","42.4333333","-8.6166666","108.0","PONTEVEDRA, SP","FM-12","99999","V020","160,1,N,0026,1","00600,1,9,N","012000,1,N,1","+0142,1","+0137,1","10102,1","12,0109,9,1","24,0109,9,1",,,,"07,99,1,07,1,08,1,00250,1,99,9,99,9","0258,9",,,"999,N,+0138,1","99999,9,09973,1","5,1,005,1,+999,9","25,1","SYN106AAXX  25064 08044 11362 71605 10142 20137 39973 40102 55005 60112 725// 878// 333 20138 50164 55043 70109;",
"08044099999","2010-05-25T09:00:00","4","42.4333333","-8.6166666","108.0","PONTEVEDRA, SP","FM-12","99999","V020","180,1,N,0026,1","00600,1,9,N","010000,1,N,1","+0151,1","+0145,1","10107,1",,,"8,1,03,1","2,1,03,1",,"08,99,1,08,1,08,1,00250,1,99,9,99,9",,,,,"99999,9,09979,1","3,1,006,1,+999,9","25,1","SYN072AAXX  25094 08044 41360 81805 10151 20145 39979 40107 53006 72582 888//;",
"08044099999","2010-05-25T12:00:00","4","42.4333333","-8.6166666","108.0","PONTEVEDRA, SP","FM-12","99999","V020","170,1,N,0036,1","00600,1,9,N","012000,1,N,1","+0183,1","+0161,1","10116,1","06,0030,9,1",,"8,1,06,1","2,1,06,1",,"07,99,1,07,1,08,1,00250,1,99,9,99,9",,,,,"99999,9,09989,1","3,1,010,1,+999,9","02,1","SYN078AAXX  25124 08044 11362 71707 10183 20161 39989 40116 53010 60031 70282 878//;",
"08044099999","2010-05-25T15:00:00","4","42.4333333","-8.6166666","108.0","PONTEVEDRA, SP","FM-12","99999","V020","190,1,N,0021,1","00600,1,9,N","012000,1,N,1","+0180,1","+0139,1","10120,1",,,,,,"07,99,1,07,1,08,1,00250,1,99,9,99,9",,,,,"99999,9,09993,1","3,1,004,1,+999,9",,"SYN066AAXX  25154 08044 42362 71904 10180 20139 39993 40120 53004 878//;",
"08044099999","2010-05-25T18:00:00","4","42.4333333","-8.6166666","108.0","PONTEVEDRA, SP","FM-12","99999","V020","180,1,N,0015,1","00600,1,9,N","012000,1,N,1","+0167,1","+0142,1","10126,1","12,0041,9,1",,"8,1,06,1","2,1,06,1",,"07,99,1,07,1,08,1,00250,1,99,9,99,9",,,,"999,M,+0193,1","99999,9,09998,1","1,1,005,1,+999,9","02,1","SYN088AAXX  25184 08044 11362 71803 10167 20142 39998 40126 51005 60042 70282 878// 333 10193;",
"08044099999","2010-05-26T06:00:00","4","42.4333333","-8.6166666","108.0","PONTEVEDRA, SP","FM-12","99999","V020","170,1,N,0021,1","00600,1,9,N","004000,1,N,1","+0139,1","+0136,1","10133,1","12,0130,9,1","24,0173,9,1",,,,"08,99,1,08,1,08,1,00250,1,99,9,99,9","0216,9",,,"999,N,+0137,1","99999,9,10004,1","6,1,039,1,+999,9","81,1","SYN106AAXX  26064 08044 11340 81704 10139 20136 30004 40133 56039 60132 781// 888// 333 20137 50064 55036 70173;",
"08044099999","2010-05-26T09:00:00","4","42.4333333","-8.6166666","108.0","PONTEVEDRA, SP","FM-12","99999","V020","200,1,N,0010,1","00600,1,9,N","004000,1,N,1","+0141,1","+0138,1","10142,1",,,"8,1,03,1","2,1,03,1",,"08,99,1,08,1,08,1,00150,1,99,9,99,9",,,,,"99999,9,10013,1","1,1,009,1,+999,9","81,1","SYN072AAXX  26094 08044 41240 82002 10141 20138 30013 40142 51009 78182 888//;",
"08044099999","2010-05-26T12:00:00","4","42.4333333","-8.6166666","108.0","PONTEVEDRA, SP","FM-12","99999","V020","999,9,C,0000,1","00600,1,9,N","009000,1,N,1","+0159,1","+0143,1","10147,1","06,0231,9,1",,"8,1,06,1","2,1,06,1",,"08,99,1,06,1,08,1,00250,1,07,1,99,9",,,,,"99999,9,10019,1","1,1,006,1,+999,9","10,1","SYN078AAXX  26124 08044 11359 80000 10159 20143 30019 40147 51006 60231 71082 8687/;",
"08044099999","2010-05-26T15:00:00","4","42.4333333","-8.6166666","108.0","PONTEVEDRA, SP","FM-12","99999","V020","260,1,N,0015,1","00600,1,9,N","010000,1,N,1","+0170,1","+0145,1","10147,1",,,,,,"07,99,1,07,1,08,1,00250,1,99,9,99,9",,,,,"99999,9,10019,1","0,1,000,1,+999,9",,"SYN066AAXX  26154 08044 42360 72603 10170 20145 30019 40147 50000 878//;",
"08044099999","2010-05-26T18:00:00","4","42.4333333","-8.6166666","108.0","PONTEVEDRA, SP","FM-12","99999","V020","270,1,N,0015,1","03600,1,9,N","010000,1,N,1","+0177,1","+0150,1","10143,1","12,0231,9,1",,,,,"06,99,1,04,1,08,1,00450,1,03,1,00,1",,,,"999,M,+0179,1","99999,9,10016,1","8,1,003,1,+999,9",,"SYN082AAXX  26184 08044 12460 62703 10177 20150 30016 40143 58003 60232 84830 333 10179;",
"08044099999","2010-05-27T06:00:00","4","42.4333333","-8.6166666","108.0","PONTEVEDRA, SP","FM-12","99999","V020","080,1,N,0010,1","09000,1,9,N","002000,1,N,1","+0132,1","+0124,1","10137,1","12,0010,9,1","24,0239,9,1",,,,"05,99,1,01,1,06,1,00025,1,03,1,01,1","0072,9","09,9","999,+0120,9","999,N,+0130,1","99999,9,10007,1","5,1,002,1,+999,9","40,1","SYN112AAXX  27064 08044 11020 50802 10132 20124 30007 40137 55002 60012 740// 81631 333 20130 31012 50054 55012 70240;",
"08044099999","2010-05-27T09:00:00","4","42.4333333","-8.6166666","108.0","PONTEVEDRA, SP","FM-12","99999","V020","200,1,N,0010,1","09000,1,9,N","006000,1,N,1","+0176,1","+0141,1","10141,1",,,"2,1,03,1","2,1,03,1",,"05,99,1,02,1,02,1,00250,1,03,1,01,1",,,,,"99999,9,10013,1","1,1,006,1,+999,9","10,1","SYN072AAXX  27094 08044 41356 52002 10176 20141 30013 40141 51006 71022 82231;",
"08044099999","2010-05-27T12:00:00","4","42.4333333","-8.6166666","108.0","PONTEVEDRA, SP","FM-12","99999","V020","270,1,N,0021,1","03600,1,9,N","012000,1,N,1","+0178,1","+0143,1","10142,1","06,0000,9,1",,,,,"06,99,1,04,1,02,1,00450,1,03,1,01,1",,,,,"99999,9,10015,1","1,1,002,1,+999,9",,"SYN072AAXX  27124 08044 12462 62704 10178 20143 30015 40142 51002 60001 84231;","Q01  00002PRCP06"
"08044099999","2010-05-27T15:00:00","4","42.4333333","-8.6166666","108.0","PONTEVEDRA, SP","FM-12","99999","V020","210,1,N,0021,1","03600,1,9,N","010000,1,N,1","+0194,1","+0144,1","10144,1",,,,,,"07,99,1,04,1,02,1,00450,1,03,1,01,1",,,,,"99999,9,10017,1","1,1,002,1,+999,9",,"SYN066AAXX  27154 08044 42460 72104 10194 20144 30017 40144 51002 84231;",
"08044099999","2010-05-27T18:00:00","4","42.4333333","-8.6166666","108.0","PONTEVEDRA, SP","FM-12","99999","V020","300,1,N,0015,1","00420,1,9,N","010000,1,N,1","+0172,1","+0133,1","10147,1","12,0000,9,1",,,,,"07,99,1,05,1,02,1,00450,1,03,1,01,1",,,,"999,M,+0204,1","99999,9,10019,1","2,1,002,1,+999,9",,"SYN082AAXX  27184 08044 12460 73003 10172 20133 30019 40147 52002 60002 85231 333 10204;","Q01  00002PRCP12"
"08044099999","2010-05-28T06:00:00","4","42.4333333","-8.6166666","108.0","PONTEVEDRA, SP","FM-12","99999","V020","060,1,N,0005,1","22000,1,9,N","010000,1,N,1","+0106,1","+0094,1","10182,1","12,0000,9,1","24,0000,9,1",,,,"01,99,1,01,1,00,1,02250,1,03,1,00,1","0264,9","09,9","999,+0080,9","999,N,+0105,1","99999,9,10051,1","3,1,007,1,+999,9","02,1","SYN112AAXX  28064 08044 11860 10601 10106 20094 30051 40182 53007 60002 702// 81030 333 20105 31008 50104 55044 70000;","Q01  00002PRCP24Q02  00002PRCP12"
"08044099999","2010-05-28T09:00:00","4","42.4333333","-8.6166666","108.0","PONTEVEDRA, SP","FM-12","99999","V020","360,1,N,0010,1","03600,1,9,N","010000,1,N,1","+0168,1","+0111,1","10192,1",,,,,,"06,99,1,01,1,01,1,00450,1,05,1,00,1",,,,,"99999,9,10063,1","3,1,012,1,+999,9",,"SYN066AAXX  28094 08044 42460 63602 10168 20111 30063 40192 53012 81150;",
"08044099999","2010-05-28T12:00:00","4","42.4333333","-8.6166666","108.0","PONTEVEDRA, SP","FM-12","99999","V020","270,1,N,0026,1","22000,1,9,N","010000,1,N,1","+0196,1","+0121,1","10190,1","06,0000,9,1",,,,,"03,99,1,02,1,02,1,00800,1,03,1,01,1",,,,,"99999,9,10063,1","0,1,000,1,+999,9",,"SYN072AAXX  28124 08044 12560 32705 10196 20121 30063 40190 50000 60001 82231;","Q01  00002PRCP06"
"08044099999","2010-05-28T15:00:00","4","42.4333333","-8.6166666","108.0","PONTEVEDRA, SP","FM-12","99999","V020","220,1,N,0015,1","22000,1,9,N","010000,1,N,1","+0192,1","+0117,1","10194,1",,,,,,"02,99,1,01,1,02,1,00800,1,03,1,01,1",,,,,"99999,9,10066,1","3,1,003,1,+999,9",,"SYN066AAXX  28154 08044 42560 22203 10192 20117 30066 40194 53003 81231;",
"08044099999","2010-05-28T18:00:00","4","42.4333333","-8.6166666","108.0","PONTEVEDRA, SP","FM-12","99999","V020","210,1,N,0015,1","22000,1,9,N","008000,1,N,1","+0182,1","+0137,1","10204,1","12,0000,9,1",,"1,1,06,1","1,1,06,1",,"04,99,1,04,1,02,1,00800,1,03,1,00,1",,,,"999,M,+0208,1","99999,9,10076,1","2,1,010,1,+999,9","05,1","SYN088AAXX  28184 08044 11558 42103 10182 20137 30076 40204 52010 60002 70511 84230 333 10208;","Q01  00002PRCP12"
"08044099999","2010-05-29T06:00:00","4","42.4333333","-8.6166666","108.0","PONTEVEDRA, SP","FM-12","99999","V020","020,1,N,0010,1","00060,1,9,N","004000,1,N,1","+0136,1","+0122,1","10223,1","12,9999,9,9","24,0003,9,1",,,,"08,99,1,08,1,07,1,00075,1,99,9,99,9","0792,9","11,9","999,+0110,9","999,N,+0134,1","99999,9,10093,1","3,1,007,1,+999,9","50,1","SYN112AAXX  29064 08044 11140 80202 10136 20122 30093 40223 53007 69922 750// 887// 333 20134 32011 50154 55132 70002;","Q01  00002PRCP12Q02  00002PRCP12"
"08044099999","2010-05-29T09:00:00","4","42.4333333","-8.6166666","108.0","PONTEVEDRA, SP","FM-12","99999","V020","310,1,N,0015,1","00120,1,9,N","010000,1,N,1","+0146,1","+0136,1","10237,1",,,"6,1,03,1","2,1,03,1",,"08,99,1,08,1,05,1,00150,1,99,9,99,9",,,,,"99999,9,10107,1","1,1,014,1,+999,9","02,1","SYN072AAXX  29094 08044 41260 83103 10146 20136 30107 40237 51014 70262 885//;",
"08044099999","2010-05-29T12:00:00","4","42.4333333","-8.6166666","108.0","PONTEVEDRA, SP","FM-12","99999","V020","260,1,N,0015,1","00120,1,9,N","008000,1,N,1","+0172,1","+0159,1","10244,1","06,0010,9,1",,"6,1,06,1","5,1,06,1",,"08,99,1,07,1,05,1,00150,1,07,1,99,9",,,,,"99999,9,10115,1","1,1,008,1,+999,9","10,1","SYN078AAXX  29124 08044 11258 82603 10172 20159 30115 40244 51008 60011 71065 8757/;",
"08044099999","2010-05-29T15:00:00","4","42.4333333","-8.6166666","108.0","PONTEVEDRA, SP","FM-12","99999","V020","260,1,N,0021,1","03600,1,9,N","006000,1,N,1","+0193,1","+0163,1","10246,1",,,"2,1,03,1","2,1,03,1",,"08,99,1,04,1,08,1,00250,1,07,1,99,9",,,,,"99999,9,10118,1","3,1,003,1,+999,9","10,1","SYN072AAXX  29154 08044 41356 82604 10193 20163 30118 40246 53003 71022 8487/;",
"08044099999","2010-05-29T18:00:00","4","42.4333333","-8.6166666","108.0","PONTEVEDRA, SP","FM-12","99999","V020","270,1,N,0015,1","00900,1,9,N","008000,1,N,1","+0180,1","+0149,1","10253,1","12,0010,9,1",,"2,1,06,1","2,1,06,1",,"07,99,1,05,1,08,1,00450,1,03,1,01,1",,,,"999,M,+0196,1","99999,9,10124,1","1,1,006,1,+999,9","10,1","SYN088AAXX  29184 08044 11458 72703 10180 20149 30124 40253 51006 60012 71022 85831 333 10196;",
"08044099999","2010-05-30T06:00:00","4","42.4333333","-8.6166666","108.0","PONTEVEDRA, SP","FM-12","99999","V020","090,1,N,0026,1","03600,1,9,N","010000,1,N,1","+0144,1","+0130,1","10265,1","12,0000,9,1","24,0010,9,1",,,,"07,99,1,01,1,06,1,00075,1,07,1,01,1","0000,9","01,9","999,+0110,9","999,N,+0134,1","99999,9,10134,1","3,1,002,1,+999,9","02,1","SYN112AAXX  30064 08044 11160 70905 10144 20130 30134 40265 53002 60002 702// 81671 333 20134 30011 50064 55000 70010;","Q01  00002PRCP12"
"08044099999","2010-05-30T09:00:00","4","42.4333333","-8.6166666","108.0","PONTEVEDRA, SP","FM-12","99999","V020","310,1,N,0015,1","03600,1,9,N","010000,1,N,1","+0193,1","+0150,1","10265,1",,,,,,"07,99,1,02,1,05,1,00450,1,03,1,00,1",,,,,"99999,9,10137,1","1,1,003,1,+999,9",,"SYN066AAXX  30094 08044 42460 73103 10193 20150 30137 40265 51003 82530;",
"08044099999","2010-05-30T12:00:00","4","42.4333333","-8.6166666","108.0","PONTEVEDRA, SP","FM-12","99999","V020","290,1,N,0036,1","22000,1,9,N","012000,1,N,1","+0230,1","+0175,1","10262,1","06,0000,9,1",,,,,"03,99,1,03,1,05,1,00800,1,00,1,01,1",,,,,"99999,9,10135,1","8,1,002,1,+999,9",,"SYN072AAXX  30124 08044 12562 32907 10230 20175 30135 40262 58002 60001 83501;","Q01  00002PRCP06"
"08044099999","2010-05-30T15:00:00","4","42.4333333","-8.6166666","108.0","PONTEVEDRA, SP","FM-12","99999","V020","280,1,N,0021,1","22000,1,9,N","010000,1,N,1","+0226,1","+0182,1","10260,1",,,,,,"01,99,1,01,1,02,1,00800,1,00,1,01,1",,,,,"99999,9,10133,1","6,1,002,1,+999,9",,"SYN066AAXX  30154 08044 42560 12804 10226 20182 30133 40260 56002 81201;",
"08044099999","2010-05-30T18:00:00","4","42.4333333","-8.6166666","108.0","PONTEVEDRA, SP","FM-12","99999","V020","200,1,N,0010,1","22000,1,9,N","004000,1,N,1","+0210,1","+0178,1","10256,1","12,0000,9,1",,"0,1,06,1","0,1,06,1",,"02,99,1,01,1,04,1,00800,1,00,1,01,1",,,,"999,M,+0243,1","99999,9,10129,1","8,1,004,1,+999,9","10,1","SYN088AAXX  30184 08044 11540 22002 10210 20178 30129 40256 58004 60002 71000 81401 333 10243;","Q01  00002PRCP12"
"08044099999","2010-05-31T06:00:00","4","42.4333333","-8.6166666","108.0","PONTEVEDRA, SP","FM-12","99999","V020","030,1,N,0015,1","22000,1,9,N","020000,1,N,1","+0155,1","+0140,1","10239,1","12,0000,9,1","24,0000,9,1",,,,"03,99,1,01,1,00,1,02250,1,03,1,01,1","0582,9","01,9","999,+0130,9","999,N,+0154,1","99999,9,10109,1","6,1,005,1,+999,9","02,1","SYN112AAXX  31064 08044 11870 30303 10155 20140 30109 40239 56005 60002 702// 81031 333 20154 30013 50114 55097 70000;","Q01  00002PRCP24Q02  00002PRCP12"
"08044099999","2010-05-31T09:00:00","4","42.4333333","-8.6166666","108.0","PONTEVEDRA, SP","FM-12","99999","V020","180,1,N,0010,1","22000,1,9,N","020000,1,N,1","+0218,1","+0170,1","10231,1",,,,,,"01,99,1,00,1,00,1,99999,9,00,1,01,1",,,,,"99999,9,10104,1","8,1,005,1,+999,9",,"SYN066AAXX  31094 08044 42970 11802 10218 20170 30104 40231 58005 80001;",
"08044099999","2010-05-31T12:00:00","4","42.4333333","-8.6166666","108.0","PONTEVEDRA, SP","FM-12","99999","V020","230,1,N,0015,1","22000,1,9,N","015000,1,N,1","+0265,1","+0191,1","10215,1","06,0000,9,1",,,,,"01,99,1,00,1,00,1,99999,9,00,1,01,1",,,,,"99999,9,10091,1","7,1,013,1,+999,9",,"SYN072AAXX  31124 08044 12965 12303 10265 20191 30091 40215 57013 60001 80001;","Q01  00002PRCP06"
"08044099999","2010-05-31T15:00:00","4","42.4333333","-8.6166666","108.0","PONTEVEDRA, SP","FM-12","99999","V020","250,1,N,0021,1","22000,1,9,N","012000,1,N,1","+0266,1","+0202,1","10207,1",,,,,,"02,99,1,01,1,01,1,00800,1,00,1,02,1",,,,,"99999,9,10083,1","7,1,008,1,+999,9",,"SYN066AAXX  31154 08044 42562 22504 10266 20202 30083 40207 57008 81102;",
"08044099999","2010-05-31T18:00:00","4","42.4333333","-8.6166666","108.0","PONTEVEDRA, SP","FM-12","99999","V020","350,1,N,0026,1","99999,9,9,N","010000,1,N,1","+0264,1","+0172,1","10198,1","12,0000,9,1",,,,,"07,99,1,00,1,00,1,99999,9,00,1,02,1",,,,"999,M,+0280,1","99999,9,10074,1","6,1,009,1,+999,9",,"SYN082AAXX  31184 08044 12960 73505 10264 20172 30074 40198 56009 60002 80002 333 10280;","Q01  00002PRCP12"
"08044099999","2010-06-01T06:00:00","4","42.4333333","-8.6166666","108.0","PONTEVEDRA, SP","FM-12","99999","V020","070,1,N,0010,1","02100,1,9,N","015000,1,N,1","+0176,1","+0152,1","10184,1","12,0000,9,1","24,0000,9,1",,,,"07,99,1,06,1,00,1,02250,1,07,1,01,1","0708,9","01,9","999,+0150,9","999,N,+0174,1","99999,9,10056,1","6,1,001,1,+999,9","02,1","SYN112AAXX  01064 08044 11865 70702 10176 20152 30056 40184 56001 60002 702// 86071 333 20174 30015 50204 55118 70000;","Q01  00002PRCP24Q02  00002PRCP12"
"08044099999","2010-06-01T09:00:00","4","42.4333333","-8.6166666","108.0","PONTEVEDRA, SP","FM-12","99999","V020","310,1,N,0031,1","09000,1,9,N","020000,1,N,1","+0226,1","+0159,1","10183,1",,,,,,"07,99,1,01,1,00,1,02250,1,03,1,02,1",,,,,"99999,9,10057,1","1,1,001,1,+999,9",,"SYN066AAXX  01094 08044 42870 73106 10226 20159 30057 40183 51001 81032;",
"08044099999","2010-06-01T12:00:00","4","42.4333333","-8.6166666","108.0","PONTEVEDRA, SP","FM-12","99999","V020","330,1,N,0051,1","09000,1,9,N","015000,1,N,1","+0264,1","+0163,1","10178,1","06,0000,9,1",,,,,"07,99,1,03,1,00,1,02250,1,07,1,02,1",,,,,"99999,9,10054,1","6,1,003,1,+999,9",,"SYN072AAXX  01124 08044 12865 73310 10264 20163 30054 40178 56003 60001 83072;","Q01  00002PRCP06"
"08044099999","2010-06-01T15:00:00","4","42.4333333","-8.6166666","108.0","PONTEVEDRA, SP","FM-12","99999","V020","330,1,N,0057,1","09000,1,9,N","012000,1,N,1","+0240,1","+0155,1","10180,1",,,,,,"08,99,1,02,1,00,1,02250,1,07,1,07,1",,,,,"99999,9,10055,1","1,1,001,1,+999,9",,"SYN066AAXX  01154 08044 42862 83311 10240 20155 30055 40180 51001 82077;",
"08044099999","2010-06-01T18:00:00","4","42.4333333","-8.6166666","108.0","PONTEVEDRA, SP","FM-12","99999","V020","330,1,N,0021,1","02100,1,9,N","015000,1,N,1","+0228,1","+0130,1","10184,1","12,0000,9,1",,,,,"08,99,1,06,1,00,1,02250,1,01,1,07,1",,,,"999,M,+0273,1","99999,9,10058,1","1,1,003,1,+999,9",,"SYN082AAXX  01184 08044 12865 83304 10228 20130 30058 40184 51003 60002 86017 333 10273;","Q01  00002PRCP12"
"08044099999","2010-06-02T06:00:00","4","42.4333333","-8.6166666","108.0","PONTEVEDRA, SP","FM-12","99999","V020","090,1,N,0010,1","02100,1,9,N","015000,1,N,1","+0159,1","+0139,1","10155,1","12,0000,9,1","24,0000,9,1",,,,"06,99,1,06,1,00,1,02250,1,03,1,01,1","0138,9","01,9","999,+0130,9","999,N,+0154,1","99999,9,10027,1","7,1,003,1,+999,9","02,1","SYN112AAXX  02064 08044 11865 60902 10159 20139 30027 40155 57003 60002 702// 86031 333 20154 30013 50264 55023 70000;","Q01  00002PRCP24Q02  00002PRCP12"
"08044099999","2010-06-02T09:00:00","4","42.4333333","-8.6166666","108.0","PONTEVEDRA, SP","FM-12","99999","V020","310,1,N,0010,1","22000,1,9,N","020000,1,N,1","+0214,1","+0161,1","10153,1",,,,,,"03,99,1,03,1,00,1,99999,9,03,1,00,1",,,,,"99999,9,10027,1","0,1,000,1,+999,9",,"SYN066AAXX  02094 08044 42970 33102 10214 20161 30027 40153 50000 83030;",
"08044099999","2010-06-02T12:00:00","4","42.4333333","-8.6166666","108.0","PONTEVEDRA, SP","FM-12","99999","V020","330,1,N,0041,1","22000,1,9,N","020000,1,N,1","+0280,1","+0156,1","10139,1","06,0000,9,1",,,,,"01,99,1,00,1,00,1,99999,9,00,1,02,1",,,,,"99999,9,10016,1","7,1,011,1,+999,9",,"SYN072AAXX  02124 08044 12970 13308 10280 20156 30016 40139 57011 60001 80002;","Q01  00002PRCP06"
"08044099999","2010-06-02T15:00:00","4","42.4333333","-8.6166666","108.0","PONTEVEDRA, SP","FM-12","99999","V020","320,1,N,0046,1","22000,1,9,N","012000,1,N,1","+0294,1","+0151,1","10130,1",,,,,,"01,99,1,01,1,02,1,00800,1,00,1,01,1",,,,,"99999,9,10008,1","7,1,008,1,+999,9",,"SYN066AAXX  02154 08044 42562 13209 10294 20151 30008 40130 57008 81201;",
"08044099999","2010-06-02T18:00:00","4","42.4333333","-8.6166666","108.0","PONTEVEDRA, SP","FM-12","99999","V020","320,1,N,0041,1","22000,1,9,N","008000,1,N,1","+0283,1","+0156,1","10122,1","12,0000,9,1",,"0,1,06,1","0,1,06,1",,"03,99,1,03,1,00,1,99999,9,05,1,00,1",,,,"999,M,+0296,1","99999,9,09999,1","7,1,009,1,+999,9","05,1","SYN088AAXX  02184 08044 11958 33208 10283 20156 39999 40122 57009 60002 70500 83050 333 10296;","Q01  00002PRCP12"
"08044099999","2010-06-03T06:00:00","4","42.4333333","-8.6166666","108.0","PONTEVEDRA, SP","FM-12","99999","V020","080,1,N,0036,1","22000,1,9,N","020000,1,N,1","+0160,1","+0103,1","10118,1","12,0000,9,1","24,0000,9,1",,,"00,1,+99999,9,99,9","00,99,1,00,1,00,1,99999,9,00,1,00,1","0720,9","01,9","999,+0140,9","999,N,+0160,1","99999,9,09990,1","1,1,002,1,+999,9","00,1","SYN106AAXX  03064 08044 11970 00807 10160 20103 39990 40118 51002 60002 700// 333 20160 30014 50374 55120 70000;","Q01  00002PRCP24Q02  00002PRCP12"
"08044099999","2010-06-03T09:00:00","4","42.4333333","-8.6166666","108.0","PONTEVEDRA, SP","FM-12","99999","V020","300,1,N,0010,1","22000,1,9,N","020000,1,N,1","+0234,1","+0138,1","10124,1",,,,,,"01,99,1,01,1,00,1,02250,1,03,1,00,1",,,,,"99999,9,09999,1","1,1,009,1,+999,9",,"SYN066AAXX  03094 08044 42870 13002 10234 20138 39999 40124 51009 81030;",
"08044099999","2010-06-03T12:00:00","4","42.4333333","-8.6166666","108.0","PONTEVEDRA, SP","FM-12","99999","V020","270,1,N,0026,1","22000,1,9,N","020000,1,N,1","+0250,1","+0177,1","10127,1","06,0000,9,1",,,,,"01,99,1,01,1,00,1,02250,1,04,1,00,1",,,,,"99999,9,10003,1","3,1,004,1,+999,9",,"SYN072AAXX  03124 08044 12870 12705 10250 20177 30003 40127 53004 60001 81040;","Q01  00002PRCP06"
"08044099999","2010-06-03T15:00:00","4","42.4333333","-8.6166666","108.0","PONTEVEDRA, SP","FM-12","99999","V020","270,1,N,0026,1","22000,1,9,N","005000,1,N,1","+0228,1","+0170,1","10142,1",,,"0,1,03,1","0,1,03,1",,"01,99,1,01,1,06,1,00150,1,00,1,00,1",,,,,"99999,9,10017,1","3,1,014,1,+999,9","05,1","SYN072AAXX  03154 08044 41250 12705 10228 20170 30017 40142 53014 70500 81600;",
"08044099999","2010-06-03T18:00:00","4","42.4333333","-8.6166666","108.0","PONTEVEDRA, SP","FM-12","99999","V020","220,1,N,0010,1","22000,1,9,N","003000,1,N,1","+0194,1","+0161,1","10149,1","12,0000,9,1",,"0,1,06,1","0,1,06,1",,"01,99,1,01,1,00,1,01750,1,03,1,00,1",,,,"999,M,+0276,1","99999,9,10022,1","0,1,005,1,+999,9","10,1","SYN088AAXX  03184 08044 11730 12202 10194 20161 30022 40149 50005 60002 71000 81030 333 10276;","Q01  00002PRCP12"
"08044099999","2010-06-04T06:00:00","4","42.4333333","-8.6166666","108.0","PONTEVEDRA, SP","FM-12","99999","V020","350,1,N,0010,1","01500,1,9,N","005000,1,N,1","+0154,1","+0129,1","10186,1","12,0000,9,1","24,0000,9,1",,,,"08,99,1,08,1,00,1,01750,1,07,1,99,9","0870,9",,,"999,N,+0154,1","99999,9,10057,1","3,1,011,1,+999,9","10,1","SYN106AAXX  04064 08044 11750 83502 10154 20129 30057 40186 53011 60002 710// 8807/ 333 20154 50184 55145 70000;","Q01  00002PRCP24Q02  00002PRCP12"
"08044099999","2010-06-04T09:00:00","4","42.4333333","-8.6166666","108.0","PONTEVEDRA, SP","FM-12","99999","V020","270,1,N,0010,1","22000,1,9,N","015000,1,N,1","+0182,1","+0145,1","10192,1",,,,,,"02,99,1,02,1,05,1,00450,1,00,1,00,1",,,,,"99999,9,10064,1","1,1,007,1,+999,9",,"SYN066AAXX  04094 08044 42465 22702 10182 20145 30064 40192 51007 82500;",
"08044099999","2010-06-04T12:00:00","4","42.4333333","-8.6166666","108.0","PONTEVEDRA, SP","FM-12","99999","V020","300,1,N,0041,1","22000,1,9,N","020000,1,N,1","+0226,1","+0152,1","10188,1","06,0000,9,1",,,,,"01,99,1,01,1,01,1,00450,1,00,1,00,1",,,,,"99999,9,10062,1","8,1,002,1,+999,9",,"SYN072AAXX  04124 08044 12470 13008 10226 20152 30062 40188 58002 60001 81100;","Q01  00002PRCP06"
"08044099999","2010-06-04T15:00:00","4","42.4333333","-8.6166666","108.0","PONTEVEDRA, SP","FM-12","99999","V020","270,1,N,0031,1","22000,1,9,N","020000,1,N,1","+0228,1","+0175,1","10185,1",,,,,,"02,99,1,01,1,01,1,00450,1,00,1,02,1",,,,,"99999,9,10059,1","6,1,003,1,+999,9",,"SYN066AAXX  04154 08044 42470 22706 10228 20175 30059 40185 56003 81102;",
"08044099999","2010-06-04T18:00:00","4","42.4333333","-8.6166666","108.0","PONTEVEDRA, SP","FM-12","99999","V020","160,1,N,0010,1","22000,1,9,N","015000,1,N,1","+0213,1","+0158,1","10182,1","12,0000,9,1",,,,,"02,99,1,01,1,00,1,01750,1,04,1,02,1",,,,"999,M,+0245,1","99999,9,10056,1","6,1,003,1,+999,9",,"SYN082AAXX  04184 08044 12765 21602 10213 20158 30056 40182 56003 60002 81042 333 10245;","Q01  00002PRCP12"
"08044099999","2010-06-05T06:00:00","4","42.4333333","-8.6166666","108.0","PONTEVEDRA, SP","FM-12","99999","V020","320,1,N,0010,1","00420,1,9,N","010000,1,N,1","+0166,1","+0146,1","10178,1","12,0000,9,1","24,0000,9,1",,,,"08,99,1,08,1,05,1,00450,1,99,9,99,9","0678,9",,,"999,N,+0150,1","99999,9,10050,1","3,1,003,1,+999,9","02,1","SYN106AAXX  05064 08044 11460 83202 10166 20146 30050 40178 53003 60002 702// 885// 333 20150 50154 55113 70000;","Q01  00002PRCP24Q02  00002PRCP12"
"08044099999","2010-06-05T09:00:00","4","42.4333333","-8.6166666","108.0","PONTEVEDRA, SP","FM-12","99999","V020","340,1,N,0015,1","00420,1,9,N","010000,1,N,1","+0174,1","+0143,1","10182,1",,,,,,"08,99,1,08,1,05,1,00450,1,99,9,99,9",,,,,"99999,9,10054,1","3,1,004,1,+999,9",,"SYN066AAXX  05094 08044 42460 83403 10174 20143 30054 40182 53004 885//;",
"08044099999","2010-06-05T12:00:00","4","42.4333333","-8.6166666","108.0","PONTEVEDRA, SP","FM-12","99999","V020","300,1,N,0026,1","00420,1,9,N","010000,1,N,1","+0210,1","+0158,1","10183,1","06,0000,9,1",,,,,"07,99,1,07,1,05,1,00450,1,99,9,99,9",,,,,"99999,9,10056,1","1,1,002,1,+999,9",,"SYN072AAXX  05124 08044 12460 73005 10210 20158 30056 40183 51002 60001 875//;","Q01  00002PRCP06"
"08044099999","2010-06-05T15:00:00","4","42.4333333","-8.6166666","108.0","PONTEVEDRA, SP","FM-12","99999","V020","240,1,N,0010,1","00900,1,9,N","010000,1,N,1","+0212,1","+0151,1","10179,1",,,,,,"06,99,1,05,1,08,1,00450,1,05,1,00,1",,,,,"99999,9,10053,1","8,1,003,1,+999,9",,"SYN066AAXX  05154 08044 42460 62402 10212 20151 30053 40179 58003 85850;",
"08044099999","2010-06-05T18:00:00","4","42.4333333","-8.6166666","108.0","PONTEVEDRA, SP","FM-12","99999","V020","320,1,N,0051,1","22000,1,9,N","010000,1,N,1","+0205,1","+0148,1","10181,1","12,0000,9,1",,,,,"02,99,1,02,1,02,1,00450,1,00,1,00,1",,,,"999,M,+0225,1","99999,9,10054,1","1,1,001,1,+999,9",,"SYN082AAXX  05184 08044 12460 23210 10205 20148 30054 40181 51001 60002 82200 333 10225;","Q01  00002PRCP12"
"08044099999","2010-06-06T06:00:00","4","42.4333333","-8.6166666","108.0","PONTEVEDRA, SP","FM-12","99999","V020","350,1,N,0010,1","22000,1,9,N","020000,1,N,1","+0134,1","+0108,1","10206,1","12,0000,9,1","24,0000,9,1",,,,"01,99,1,00,1,00,1,99999,9,00,1,02,1","0306,9",,,"999,N,+0130,1","99999,9,10076,1","1,1,003,1,+999,9","02,1","SYN106AAXX  06064 08044 11970 13502 10134 20108 30076 40206 51003 60002 702// 80002 333 20130 50314 55051 70000;","Q01  00002PRCP24Q02  00002PRCP12"
"08044099999","2010-06-06T12:00:00","4","42.4333333","-8.6166666","108.0","PONTEVEDRA, SP","FM-12","99999","V020","330,1,N,0031,1","09000,1,9,N","020000,1,N,1","+0212,1","+0121,1","10204,1","06,0000,9,1",,,,,"06,99,1,01,1,01,1,00450,1,00,1,08,1",,,,,"99999,9,10077,1","6,1,004,1,+999,9",,"SYN072AAXX  06124 08044 12470 63306 10212 20121 30077 40204 56004 60001 81108;","Q01  00002PRCP06"
"08044099999","2010-06-06T15:00:00","4","42.4333333","-8.6166666","108.0","PONTEVEDRA, SP","FM-12","99999","V020","320,1,N,0051,1","22000,1,9,N","020000,1,N,1","+0232,1","+0145,1","10191,1",,,,,,"02,99,1,01,1,01,1,00450,1,00,1,02,1",,,,,"99999,9,10065,1","8,1,012,1,+999,9",,"SYN066AAXX  06154 08044 42470 23210 10232 20145 30065 40191 58012 81102;",
"08044099999","2010-06-06T18:00:00","4","42.4333333","-8.6166666","108.0","PONTEVEDRA, SP","FM-12","99999","V020","320,1,N,0031,1","22000,1,9,N","020000,1,N,1","+0228,1","+0124,1","10186,1","12,0000,9,1",,,,,"02,99,1,01,1,01,1,00450,1,00,1,02,1",,,,"999,M,+0240,1","99999,9,10060,1","8,1,005,1,+999,9",,"SYN082AAXX  06184 08044 12470 23206 10228 20124 30060 40186 58005 60002 81102 333 10240;","Q01  00002PRCP12"
"08044099999","2010-06-07T06:00:00","4","42.4333333","-8.6166666","108.0","PONTEVEDRA, SP","FM-12","99999","V020","060,1,N,0010,1","09000,1,9,N","020000,1,N,1","+0124,1","+0108,1","10172,1","12,0000,9,1","24,0000,9,1",,,,"05,99,1,01,1,00,1,01750,1,04,1,02,1","0660,9",,,"999,N,+0122,1","99999,9,10042,1","5,1,003,1,+999,9","02,1","SYN106AAXX  07064 08044 11770 50602 10124 20108 30042 40172 55003 60002 702// 81042 333 20122 50254 55110 70000;","Q01  00002PRCP24Q02  00002PRCP12"
"08044099999","2010-06-07T09:00:00","4","42.4333333","-8.6166666","108.0","PONTEVEDRA, SP","FM-12","99999","V020","220,1,N,0010,1","09000,1,9,N","015000,1,N,1","+0178,1","+0139,1","10173,1",,,,,,"05,99,1,02,1,08,1,00450,1,04,1,02,1",,,,,"99999,9,10045,1","1,1,003,1,+999,9",,"SYN066AAXX  07094 08044 42465 52202 10178 20139 30045 40173 51003 82842;",
"08044099999","2010-06-07T12:00:00","4","42.4333333","-8.6166666","108.0","PONTEVEDRA, SP","FM-12","99999","V020","200,1,N,0010,1","03600,1,9,N","020000,1,N,1","+0210,1","+0149,1","10167,1","06,0000,9,1",,,,,"06,99,1,03,1,02,1,00450,1,04,1,02,1",,,,,"99999,9,10041,1","8,1,004,1,+999,9",,"SYN072AAXX  07124 08044 12470 62002 10210 20149 30041 40167 58004 60001 83242;","Q01  00002PRCP06"
"08044099999","2010-06-07T15:00:00","4","42.4333333","-8.6166666","108.0","PONTEVEDRA, SP","FM-12","99999","V020","260,1,N,0026,1","00900,1,9,N","015000,1,N,1","+0192,1","+0145,1","10158,1",,,,,,"08,99,1,08,1,08,1,00450,1,99,9,99,9",,,,,"99999,9,10031,1","6,1,010,1,+999,9",,"SYN066AAXX  07154 08044 42465 82605 10192 20145 30031 40158 56010 888//;",
"08044099999","2010-06-07T18:00:00","4","42.4333333","-8.6166666","108.0","PONTEVEDRA, SP","FM-12","99999","V020","180,1,N,0021,1","00900,1,9,N","010000,1,N,1","+0186,1","+0141,1","10143,1","12,0000,9,1",,,,,"08,99,1,08,1,08,1,00450,1,99,9,99,9",,,,"999,M,+0224,1","99999,9,10016,1","8,1,015,1,+999,9",,"SYN082AAXX  07184 08044 12460 81804 10186 20141 30016 40143 58015 60002 888// 333 10224;","Q01  00002PRCP12"
"08044099999","2010-06-08T06:00:00","4","42.4333333","-8.6166666","108.0","PONTEVEDRA, SP","FM-12","99999","V020","140,1,N,0010,1","00210,1,9,N","008000,1,N,1","+0144,1","+0136,1","10112,1","12,0041,9,1","24,0041,9,1",,,,"08,99,1,05,1,07,1,00250,1,07,1,99,9","0282,9",,,"999,N,+0144,1","99999,9,09983,1","8,1,004,1,+999,9","21,1","SYN106AAXX  08064 08044 11358 81402 10144 20136 39983 40112 58004 60042 721// 8577/ 333 20144 50104 55047 70040;",
"08044099999","2010-06-08T09:00:00","4","42.4333333","-8.6166666","108.0","PONTEVEDRA, SP","FM-12","99999","V020","200,1,N,0010,1","00210,1,9,N","005000,1,N,1","+0148,1","+0143,1","10103,1",,,"6,1,03,1","2,1,03,1",,"08,99,1,05,1,07,1,00250,1,07,1,99,9",,,,,"99999,9,09975,1","8,1,008,1,+999,9","61,1","SYN072AAXX  08094 08044 41350 82002 10148 20143 39975 40103 58008 76162 8577/;",
"08044099999","2010-06-08T12:00:00","4","42.4333333","-8.6166666","108.0","PONTEVEDRA, SP","FM-12","99999","V020","170,1,N,0015,1","00210,1,9,N","005000,1,N,1","+0144,1","+0136,1","10101,1","06,0079,9,1",,"6,1,06,1","4,1,06,1",,"08,99,1,06,1,07,1,00250,1,07,1,99,9",,,,,"99999,9,09973,1","8,1,002,1,+999,9","50,1","SYN078AAXX  08124 08044 11350 81703 10144 20136 39973 40101 58002 60081 75064 8677/;",
"08044099999","2010-06-08T15:00:00","4","42.4333333","-8.6166666","108.0","PONTEVEDRA, SP","FM-12","99999","V020","170,1,N,0015,1","00210,1,9,N","003000,1,N,1","+0148,1","+0142,1","10085,1",,,"6,1,03,1","4,1,03,1",,"08,99,1,06,1,07,1,00250,1,07,1,99,9",,,,,"99999,9,09957,1","8,1,016,1,+999,9","61,1","SYN072AAXX  08154 08044 41330 81703 10148 20142 39957 40085 58016 76164 8677/;",
"08044099999","2010-06-08T18:00:00","4","42.4333333","-8.6166666","108.0","PONTEVEDRA, SP","FM-12","99999","V020","170,1,N,0021,1","00210,1,9,N","001500,1,N,1","+0142,1","+0137,1","10068,1","12,0140,9,1",,"6,1,06,1","4,1,06,1",,"08,99,1,06,1,07,1,00250,1,02,1,99,9",,,,"999,M,+0155,1","99999,9,09940,1","7,1,017,1,+999,9","61,1","SYN088AAXX  08184 08044 11315 81704 10142 20137 39940 40068 57017 60142 76164 8672/ 333 10155;",
"08044099999","2010-06-09T06:00:00","4","42.4333333","-8.6166666","108.0","PONTEVEDRA, SP","FM-12","99999","V020","340,1,N,0041,1","00120,1,9,N","001500,1,N,1","+0138,1","+0130,1","09974,1","12,0259,9,1","24,0399,9,1",,,,"08,99,1,06,1,07,1,00150,1,02,1,99,9","0000,9",,,"999,N,+0138,1","99999,9,09847,1","6,1,005,1,+999,9","61,1","SYN106AAXX  09064 08044 11215 83408 10138 20130 39847 49974 56005 60262 761// 8672/ 333 20138 50014 55000 70400;",
"08044099999","2010-06-09T09:00:00","4","42.4333333","-8.6166666","108.0","PONTEVEDRA, SP","FM-12","99999","V020","330,1,N,0051,1","03600,1,9,N","010000,1,N,1","+0140,1","+0126,1","09985,1",,,"6,1,03,1","4,1,03,1",,"07,99,1,04,1,07,1,00250,1,07,1,99,9",,,,,"99999,9,09858,1","3,1,011,1,+999,9","01,1","SYN072AAXX  09094 08044 41360 73310 10140 20126 39858 49985 53011 70164 8477/;",
"08044099999","2010-06-09T12:00:00","4","42.4333333","-8.6166666","108.0","PONTEVEDRA, SP","FM-12","99999","V020","320,1,N,0026,1","00210,1,9,N","003000,1,N,1","+0145,1","+0132,1","09995,1","06,0010,9,1",,"6,1,06,1","4,1,06,1",,"08,99,1,05,1,07,1,00250,1,02,1,99,9",,,,,"99999,9,09868,1","2,1,010,1,+999,9","51,1","SYN078AAXX  09124 08044 11330 83205 10145 20132 39868 49995 52010 60011 75164 8572/;",
"08044099999","2010-06-09T15:00:00","4","42.4333333","-8.6166666","108.0","PONTEVEDRA, SP","FM-12","99999","V020","300,1,N,0031,1","00900,1,9,N","015000,1,N,1","+0156,1","+0138,1","09996,1",,,"6,1,03,1","4,1,03,1",,"08,99,1,05,1,08,1,00450,1,07,1,99,9",,,,,"99999,9,09869,1","0,1,001,1,+999,9","02,1","SYN072AAXX  09154 08044 41465 83006 10156 20138 39869 49996 50001 70264 8587/;",
"08044099999","2010-06-09T18:00:00","4","42.4333333","-8.6166666","108.0","PONTEVEDRA, SP","FM-12","99999","V020","310,1,N,0031,1","00420,1,9,N","004000,1,N,1","+0142,1","+0131,1","09999,1","12,0099,9,1",,"6,1,06,1","4,1,06,1",,"08,99,1,05,1,07,1,00450,1,02,1,99,9",,,,"999,M,+0165,1","99999,9,09872,1","3,1,003,1,+999,9","60,1","SYN088AAXX  09184 08044 11440 83106 10142 20131 39872 49999 53003 60102 76064 8572/ 333 10165;",
"08044099999","2010-06-10T06:00:00","4","42.4333333","-8.6166666","108.0","PONTEVEDRA, SP","FM-12","99999","V020","999,9,C,0000,1","03600,1,9,N","006000,1,N,1","+0134,1","+0131,1","10014,1","12,0020,9,1","24,0114,9,1",,,,"08,99,1,03,1,07,1,00075,1,07,1,99,9","0006,9","11,9","999,+0120,9","999,N,+0130,1","99999,9,09886,1","3,1,006,1,+999,9","10,1","SYN112AAXX  10064 08044 11156 80000 10134 20131 39886 40014 53006 60022 710// 8377/ 333 20130 32012 50044 55001 70114;",
"08044099999","2010-06-10T09:00:00","4","42.4333333","-8.6166666","108.0","PONTEVEDRA, SP","FM-12","99999","V020","210,1,N,0010,1","03600,1,9,N","012000,1,N,1","+0162,1","+0149,1","10028,1",,,,,,"07,99,1,04,1,08,1,00250,1,03,1,01,1",,,,,"99999,9,09901,1","2,1,015,1,+999,9",,"SYN066AAXX  10094 08044 42362 72102 10162 20149 39901 40028 52015 84831;",
"08044099999","2010-06-10T12:00:00","4","42.4333333","-8.6166666","108.0","PONTEVEDRA, SP","FM-12","99999","V020","220,1,N,0015,1","00900,1,9,N","012000,1,N,1","+0180,1","+0149,1","10039,1","06,0000,9,1",,,,,"07,99,1,05,1,08,1,00450,1,07,1,01,1",,,,,"99999,9,09913,1","1,1,012,1,+999,9",,"SYN072AAXX  10124 08044 12462 72203 10180 20149 39913 40039 51012 60001 85871;","Q01  00002PRCP06"
"08044099999","2010-06-10T15:00:00","4","42.4333333","-8.6166666","108.0","PONTEVEDRA, SP","FM-12","99999","V020","260,1,N,0021,1","00900,1,9,N","010000,1,N,1","+0172,1","+0141,1","10051,1",,,"2,1,03,1","2,1,03,1",,"08,99,1,06,1,08,1,00450,1,07,1,99,9",,,,,"99999,9,09924,1","2,1,011,1,+999,9","60,1","SYN072AAXX  10154 08044 41460 82604 10172 20141 39924 40051 52011 76022 8687/;",
"08044099999","2010-06-10T18:00:00","4","42.4333333","-8.6166666","108.0","PONTEVEDRA, SP","FM-12","99999","V020","170,1,N,0021,1","00120,1,9,N","006000,1,N,1","+0148,1","+0142,1","10062,1","12,0030,9,1",,"6,1,06,1","2,1,06,1",,"08,99,1,07,1,07,1,00150,1,02,1,99,9",,,,"999,M,+0184,1","99999,9,09934,1","1,1,010,1,+999,9","61,1","SYN088AAXX  10184 08044 11256 81704 10148 20142 39934 40062 51010 60032 76162 8772/ 333 10184;",
"08044099999","2010-06-11T06:00:00","4","42.4333333","-8.6166666","108.0","PONTEVEDRA, SP","FM-12","99999","V020","070,1,N,0010,1","00600,1,9,N","006000,1,N,1","+0144,1","+0136,1","10111,1","12,0191,9,1","24,0221,9,1",,,,"07,99,1,05,1,08,1,00250,1,07,1,02,1","0006,9","11,9","999,+0130,9","999,N,+0136,1","99999,9,09982,1","3,1,014,1,+999,9","10,1","SYN112AAXX  11064 08044 11356 70702 10144 20136 39982 40111 53014 60192 710// 85872 333 20136 32013 50044 55001 70222;",
"08044099999","2010-06-11T09:00:00","4","42.4333333","-8.6166666","108.0","PONTEVEDRA, SP","FM-12","99999","V020","320,1,N,0021,1","00600,1,9,N","008000,1,N,1","+0158,1","+0140,1","10128,1",,,"2,1,03,1","2,1,03,1",,"08,99,1,07,1,08,1,00250,1,07,1,99,9",,,,,"99999,9,10000,1","2,1,018,1,+999,9","10,1","SYN072AAXX  11094 08044 41358 83204 10158 20140 30000 40128 52018 71022 8787/;",
"08044099999","2010-06-11T12:00:00","4","42.4333333","-8.6166666","108.0","PONTEVEDRA, SP","FM-12","99999","V020","180,1,N,0010,1","00120,1,9,N","005000,1,N,1","+0158,1","+0148,1","10138,1","06,9999,9,9",,"5,1,06,1","2,1,06,1",,"08,99,1,07,1,07,1,00150,1,07,1,99,9",,,,,"99999,9,10010,1","1,1,010,1,+999,9","50,1","SYN078AAXX  11124 08044 11250 81802 10158 20148 30010 40138 51010 69921 75052 8777/;","Q01  00002PRCP06Q02  00002PRCP06"
"08044099999","2010-06-11T15:00:00","4","42.4333333","-8.6166666","108.0","PONTEVEDRA, SP","FM-12","99999","V020","350,1,N,0010,1","00600,1,9,N","006000,1,N,1","+0162,1","+0142,1","10146,1",,,"6,1,03,1","5,1,03,1",,"08,99,1,07,1,08,1,00250,1,07,1,99,9",,,,,"99999,9,10018,1","2,1,008,1,+999,9","60,1","SYN072AAXX  11154 08044 41356 83502 10162 20142 30018 40146 52008 76065 8787/;",
"08044099999","2010-06-11T18:00:00","4","42.4333333","-8.6166666","108.0","PONTEVEDRA, SP","FM-12","99999","V020","340,1,N,0031,1","00600,1,9,N","006000,1,N,1","+0154,1","+0129,1","10153,1","12,0005,9,1",,"6,1,06,1","5,1,06,1",,"08,99,1,05,1,08,1,00250,1,07,1,99,9",,,,"999,M,+0165,1","99999,9,10024,1","1,1,006,1,+999,9","15,1","SYN088AAXX  11184 08044 11356 83406 10154 20129 30024 40153 51006 69962 71565 8587/ 333 10165;",
"08044099999","2010-06-12T06:00:00","4","42.4333333","-8.6166666","108.0","PONTEVEDRA, SP","FM-12","99999","V020","210,1,N,0010,1","02100,1,9,N","008000,1,N,1","+0134,1","+0126,1","10166,1","12,9999,9,9","24,0008,9,1",,,,"08,99,1,08,1,00,1,02250,1,02,1,99,9","0000,9","01,9","999,+0130,9","999,N,+0134,1","99999,9,10036,1","5,1,002,1,+999,9","60,1","SYN112AAXX  12064 08044 11858 82102 10134 20126 30036 40166 55002 69912 760// 8802/ 333 20134 30013 50054 55000 70007;","Q01  00002PRCP12Q02  00002PRCP12"
"08044099999","2010-06-12T09:00:00","4","42.4333333","-8.6166666","108.0","PONTEVEDRA, SP","FM-12","99999","V020","040,1,N,0010,1","03600,1,9,N","010000,1,N,1","+0154,1","+0129,1","10166,1",,,"6,1,03,1","2,1,03,1",,"07,99,1,03,1,02,1,00450,1,07,1,01,1",,,,,"99999,9,10037,1","1,1,001,1,+999,9","02,1","SYN072AAXX  12094 08044 41460 70402 10154 20129 30037 40166 51001 70262 83271;",
"08044099999","2010-06-12T12:00:00","4","42.4333333","-8.6166666","108.0","PONTEVEDRA, SP","FM-12","99999","V020","320,1,N,0046,1","03600,1,9,N","010000,1,N,1","+0195,1","+0125,1","10163,1","06,0005,9,1",,"6,1,06,1","2,1,06,1",,"05,99,1,03,1,02,1,00450,1,03,1,01,1",,,,,"99999,9,10036,1","8,1,001,1,+999,9","02,1","SYN078AAXX  12124 08044 11460 53209 10195 20125 30036 40163 58001 69951 70262 83231;",
"08044099999","2010-06-12T15:00:00","4","42.4333333","-8.6166666","108.0","PONTEVEDRA, SP","FM-12","99999","V020","350,1,N,0031,1","03600,1,9,N","010000,1,N,1","+0200,1","+0112,1","10163,1",,,,,,"07,99,1,04,1,02,1,00800,1,03,1,01,1",,,,,"99999,9,10036,1","5,1,000,1,+999,9",,"SYN066AAXX  12154 08044 42560 73506 10200 20112 30036 40163 55000 84231;",
"08044099999","2010-06-12T18:00:00","4","42.4333333","-8.6166666","108.0","PONTEVEDRA, SP","FM-12","99999","V020","350,1,N,0041,1","03600,1,9,N","010000,1,N,1","+0186,1","+0121,1","10164,1","12,0005,9,1",,,,,"05,99,1,04,1,02,1,00800,1,03,1,00,1",,,,"999,M,+0212,1","99999,9,10037,1","2,1,001,1,+999,9",,"SYN082AAXX  12184 08044 12560 53508 10186 20121 30037 40164 52001 69952 84230 333 10212;",
"08044099999","2010-06-13T06:00:00","4","42.4333333","-8.6166666","108.0","PONTEVEDRA, SP","FM-12","99999","V020","270,1,N,0015,1","00210,1,9,N","010000,1,N,1","+0148,1","+0127,1","10188,1","12,0000,9,1","24,0005,9,1",,,,"07,99,1,06,1,05,1,00250,1,03,1,01,1","0318,9","01,9","999,+0130,9","999,N,+0144,1","99999,9,10059,1","3,1,004,1,+999,9","02,1","SYN112AAXX  13064 08044 11360 72703 10148 20127 30059 40188 53004 60002 702// 86531 333 20144 30013 50204 55053 70005;","Q01  00002PRCP12"
"08044099999","2010-06-13T09:00:00","4","42.4333333","-8.6166666","108.0","PONTEVEDRA, SP","FM-12","99999","V020","350,1,N,0041,1","00420,1,9,N","012000,1,N,1","+0168,1","+0123,1","10191,1",,,,,,"07,99,1,07,1,05,1,00450,1,03,1,00,1",,,,,"99999,9,10062,1","3,1,003,1,+999,9",,"SYN066AAXX  13094 08044 42462 73508 10168 20123 30062 40191 53003 87530;",
"08044099999","2010-06-13T12:00:00","4","42.4333333","-8.6166666","108.0","PONTEVEDRA, SP","FM-12","99999","V020","350,1,N,0026,1","09000,1,9,N","012000,1,N,1","+0210,1","+0132,1","10187,1","06,0000,9,1",,,,,"05,99,1,02,1,05,1,00800,1,03,1,08,1",,,,,"99999,9,10060,1","8,1,002,1,+999,9",,"SYN072AAXX  13124 08044 12562 53505 10210 20132 30060 40187 58002 60001 82538;","Q01  00002PRCP06"
"08044099999","2010-06-13T15:00:00","4","42.4333333","-8.6166666","108.0","PONTEVEDRA, SP","FM-12","99999","V020","360,1,N,0046,1","09000,1,9,N","010000,1,N,1","+0210,1","+0134,1","10184,1",,,,,,"05,99,1,01,1,05,1,00450,1,03,1,08,1",,,,,"99999,9,10057,1","8,1,003,1,+999,9",,"SYN066AAXX  13154 08044 42460 53609 10210 20134 30057 40184 58003 81538;",
"08044099999","2010-06-13T18:00:00","4","42.4333333","-8.6166666","108.0","PONTEVEDRA, SP","FM-12","99999","V020","340,1,N,0046,1","22000,1,9,N","005000,1,N,1","+0186,1","+0126,1","10183,1","12,0000,9,1",,"1,1,06,1","1,1,06,1",,"03,99,1,02,1,05,1,00800,1,03,1,01,1",,,,"999,M,+0216,1","99999,9,10055,1","6,1,002,1,+999,9","05,1","SYN088AAXX  13184 08044 11550 33409 10186 20126 30055 40183 56002 60002 70511 82531 333 10216;","Q01  00002PRCP12"
"08044099999","2010-06-14T06:00:00","4","42.4333333","-8.6166666","108.0","PONTEVEDRA, SP","FM-12","99999","V020","010,1,N,0026,1","03600,1,9,N","020000,1,N,1","+0132,1","+0093,1","10191,1","12,0000,9,1","24,0000,9,1",,,,"05,99,1,03,1,05,1,00250,1,03,1,01,1","0348,9","01,9","999,+0100,9","999,N,+0122,1","99999,9,10061,1","5,1,005,1,+999,9","02,1","SYN112AAXX  14064 08044 11370 50105 10132 20093 30061 40191 55005 60002 702// 83531 333 20122 30010 50224 55058 70000;","Q01  00002PRCP24Q02  00002PRCP12"
"08044099999","2010-06-14T09:00:00","4","42.4333333","-8.6166666","108.0","PONTEVEDRA, SP","FM-12","99999","V020","360,1,N,0031,1","22000,1,9,N","020000,1,N,1","+0173,1","+0087,1","10190,1",,,,,,"03,99,1,02,1,05,1,00450,1,03,1,01,1",,,,,"99999,9,10061,1","0,1,000,1,+999,9",,"SYN066AAXX  14094 08044 42470 33606 10173 20087 30061 40190 50000 82531;",
"08044099999","2010-06-14T12:00:00","4","42.4333333","-8.6166666","108.0","PONTEVEDRA, SP","FM-12","99999","V020","360,1,N,0041,1","22000,1,9,N","020000,1,N,1","+0194,1","+0093,1","10189,1","06,0000,9,1",,,,,"04,99,1,03,1,02,1,00800,1,03,1,01,1",,,,,"99999,9,10061,1","0,1,000,1,+999,9",,"SYN072AAXX  14124 08044 12570 43608 10194 20093 30061 40189 50000 60001 83231;","Q01  00002PRCP06"
"08044099999","2010-06-14T15:00:00","4","42.4333333","-8.6166666","108.0","PONTEVEDRA, SP","FM-12","99999","V020","350,1,N,0051,1","03600,1,9,N","015000,1,N,1","+0188,1","+0098,1","10185,1",,,,,,"05,99,1,03,1,02,1,00800,1,03,1,00,1",,,,,"99999,9,10057,1","7,1,004,1,+999,9",,"SYN066AAXX  14154 08044 42565 53510 10188 20098 30057 40185 57004 83230;",
"08044099999","2010-06-14T18:00:00","4","42.4333333","-8.6166666","108.0","PONTEVEDRA, SP","FM-12","99999","V020","350,1,N,0062,1","22000,1,9,N","010000,1,N,1","+0188,1","+0085,1","10181,1","12,0000,9,1",,,,,"03,99,1,03,1,02,1,00800,1,00,1,00,1",,,,"999,M,+0202,1","99999,9,10053,1","6,1,004,1,+999,9",,"SYN082AAXX  14184 08044 12560 33512 10188 20085 30053 40181 56004 60002 83200 333 10202;","Q01  00002PRCP12"
"08044099999","2010-06-15T06:00:00","4","42.4333333","-8.6166666","108.0","PONTEVEDRA, SP","FM-12","99999","V020","260,1,N,0005,1","22000,1,9,N","015000,1,N,1","+0123,1","+0102,1","10201,1","12,0000,9,1","24,0000,9,1",,,,"01,99,1,01,1,05,1,00250,1,00,1,00,1","0492,9","01,9","999,+0100,9","999,N,+0118,1","99999,9,10070,1","7,1,005,1,+999,9","02,1","SYN112AAXX  15064 08044 11365 12601 10123 20102 30070 40201 57005 60002 702// 81500 333 20118 30010 50314 55082 70000;","Q01  00002PRCP24Q02  00002PRCP12"
"08044099999","2010-06-15T09:00:00","4","42.4333333","-8.6166666","108.0","PONTEVEDRA, SP","FM-12","99999","V020","020,1,N,0046,1","00750,1,9,N","012000,1,N,1","+0164,1","+0105,1","10201,1",,,,,,"06,99,1,06,1,02,1,00800,1,00,1,00,1",,,,,"99999,9,10072,1","3,1,002,1,+999,9",,"SYN066AAXX  15094 08044 42562 60209 10164 20105 30072 40201 53002 86200;",
"08044099999","2010-06-15T12:00:00","4","42.4333333","-8.6166666","108.0","PONTEVEDRA, SP","FM-12","99999","V020","350,1,N,0057,1","22000,1,9,N","010000,1,N,1","+0202,1","+0106,1","10198,1","06,0000,9,1",,,,,"03,99,1,03,1,02,1,00800,1,03,1,00,1",,,,,"99999,9,10071,1","8,1,001,1,+999,9",,"SYN072AAXX  15124 08044 12560 33511 10202 20106 30071 40198 58001 60001 83230;","Q01  00002PRCP06"
"08044099999","2010-06-15T15:00:00","4","42.4333333","-8.6166666","108.0","PONTEVEDRA, SP","FM-12","99999","V020","330,1,N,0057,1","22000,1,9,N","008000,1,N,1","+0200,1","+0115,1","10195,1",,,"0,1,03,1","0,1,03,1",,"03,99,1,03,1,02,1,00800,1,00,1,00,1",,,,,"99999,9,10068,1","6,1,003,1,+999,9","05,1","SYN072AAXX  15154 08044 41558 33311 10200 20115 30068 40195 56003 70500 83200;",
"08044099999","2010-06-15T18:00:00","4","42.4333333","-8.6166666","108.0","PONTEVEDRA, SP","FM-12","99999","V020","350,1,N,0046,1","22000,1,9,N","006000,1,N,1","+0190,1","+0113,1","10194,1","12,0000,9,1",,"0,1,06,1","0,1,06,1",,"03,99,1,03,1,02,1,00800,1,00,1,00,1",,,,"999,M,+0206,1","99999,9,10066,1","5,1,002,1,+999,9","05,1","SYN088AAXX  15184 08044 11556 33509 10190 20113 30066 40194 55002 60002 70500 83200 333 10206;","Q01  00002PRCP12"
"08044099999","2010-06-16T06:00:00","4","42.4333333","-8.6166666","108.0","PONTEVEDRA, SP","FM-12","99999","V020","340,1,N,0041,1","03600,1,9,N","010000,1,N,1","+0138,1","+0104,1","10201,1","12,0000,9,1","24,0000,9,1",,,,"06,99,1,03,1,02,1,00450,1,03,1,08,1","0450,9","01,9","999,+0100,9","999,N,+0132,1","99999,9,10071,1","8,1,009,1,+999,9","02,1","SYN112AAXX  16064 08044 11460 63408 10138 20104 30071 40201 58009 60002 702// 83238 333 20132 30010 50264 55075 70000;","Q01  00002PRCP24Q02  00002PRCP12"
"08044099999","2010-06-16T09:00:00","4","42.4333333","-8.6166666","108.0","PONTEVEDRA, SP","FM-12","99999","V020","350,1,N,0041,1","00750,1,9,N","010000,1,N,1","+0164,1","+0113,1","10203,1",,,,,,"07,99,1,06,1,02,1,00800,1,03,1,02,1",,,,,"99999,9,10074,1","1,1,003,1,+999,9",,"SYN066AAXX  16094 08044 42560 73508 10164 20113 30074 40203 51003 86232;",
"08044099999","2010-06-16T12:00:00","4","42.4333333","-8.6166666","108.0","PONTEVEDRA, SP","FM-12","99999","V020","350,1,N,0057,1","22000,1,9,N","010000,1,N,1","+0184,1","+0119,1","10203,1","06,0000,9,1",,,,,"04,99,1,03,1,02,1,00450,1,03,1,01,1",,,,,"99999,9,10075,1","0,1,001,1,+999,9",,"SYN072AAXX  16124 08044 12460 43511 10184 20119 30075 40203 50001 60001 83231;","Q01  00002PRCP06"
"08044099999","2010-06-16T15:00:00","4","42.4333333","-8.6166666","108.0","PONTEVEDRA, SP","FM-12","99999","V020","350,1,N,0051,1","03600,1,9,N","015000,1,N,1","+0200,1","+0125,1","10195,1",,,,,,"05,99,1,03,1,02,1,00450,1,04,1,02,1",,,,,"99999,9,10068,1","8,1,007,1,+999,9",,"SYN066AAXX  16154 08044 42465 53510 10200 20125 30068 40195 58007 83242;",
"08044099999","2010-06-16T18:00:00","4","42.4333333","-8.6166666","108.0","PONTEVEDRA, SP","FM-12","99999","V020","330,1,N,0057,1","22000,1,9,N","015000,1,N,1","+0182,1","+0095,1","10194,1","12,0000,9,1",,,,,"01,99,1,01,1,04,1,00450,1,00,1,00,1",,,,"999,M,+0204,1","99999,9,10066,1","8,1,002,1,+999,9",,"SYN082AAXX  16184 08044 12465 13311 10182 20095 30066 40194 58002 60002 81400 333 10204;","Q01  00002PRCP12"
"08044099999","2010-06-17T06:00:00","4","42.4333333","-8.6166666","108.0","PONTEVEDRA, SP","FM-12","99999","V020","010,1,N,0015,1","22000,1,9,N","020000,1,N,1","+0116,1","+0063,1","10198,1","12,0000,9,1","24,0000,9,1",,,,"02,99,1,02,1,05,1,00450,1,00,1,00,1","0396,9",,,"999,N,+0095,1","99999,9,10067,1","6,1,002,1,+999,9","02,1","SYN106AAXX  17064 08044 11470 20103 10116 20063 30067 40198 56002 60002 702// 82500 333 20095 50244 55066 70000;","Q01  00002PRCP24Q02  00002PRCP12"
"08044099999","2010-06-17T09:00:00","4","42.4333333","-8.6166666","108.0","PONTEVEDRA, SP","FM-12","99999","V020","030,1,N,0041,1","22000,1,9,N","020000,1,N,1","+0162,1","+0077,1","10195,1",,,,,,"01,99,1,01,1,05,1,00250,1,00,1,00,1",,,,,"99999,9,10066,1","8,1,001,1,+999,9",,"SYN066AAXX  17094 08044 42370 10308 10162 20077 30066 40195 58001 81500;",
"08044099999","2010-06-17T12:00:00","4","42.4333333","-8.6166666","108.0","PONTEVEDRA, SP","FM-12","99999","V020","010,1,N,0026,1","22000,1,9,N","020000,1,N,1","+0207,1","+0102,1","10177,1","06,0000,9,1",,,,,"01,99,1,01,1,05,1,00450,1,00,1,00,1",,,,,"99999,9,10050,1","7,1,016,1,+999,9",,"SYN072AAXX  17124 08044 12470 10105 10207 20102 30050 40177 57016 60001 81500;","Q01  00002PRCP06"
"08044099999","2010-06-17T15:00:00","4","42.4333333","-8.6166666","108.0","PONTEVEDRA, SP","FM-12","99999","V020","340,1,N,0057,1","22000,1,9,N","020000,1,N,1","+0217,1","+0102,1","10161,1",,,,,"00,1,+99999,9,99,9","00,99,1,00,1,00,1,99999,9,00,1,00,1",,,,,"99999,9,10035,1","6,1,015,1,+999,9",,"SYN060AAXX  17154 08044 42970 03411 10217 20102 30035 40161 56015;",
"08044099999","2010-06-17T18:00:00","4","42.4333333","-8.6166666","108.0","PONTEVEDRA, SP","FM-12","99999","V020","330,1,N,0057,1","22000,1,9,N","015000,1,N,1","+0200,1","+0110,1","10160,1","12,0000,9,1",,,,"00,1,+99999,9,99,9","00,99,1,00,1,00,1,99999,9,00,1,00,1",,,,"999,M,+0224,1","99999,9,10033,1","6,1,002,1,+999,9",,"SYN076AAXX  17184 08044 12965 03311 10200 20110 30033 40160 56002 60002 333 10224;","Q01  00002PRCP12"
"08044099999","2010-06-18T06:00:00","4","42.4333333","-8.6166666","108.0","PONTEVEDRA, SP","FM-12","99999","V020","180,1,N,0010,1","22000,1,9,N","020000,1,N,1","+0109,1","+0092,1","10160,1","12,0000,9,1","24,0000,9,1",,,"00,1,+99999,9,99,9","00,99,1,00,1,00,1,99999,9,00,1,00,1","0750,9",,,"999,N,+0106,1","99999,9,10029,1","5,1,000,1,+999,9","00,1","SYN100AAXX  18064 08044 11970 01802 10109 20092 30029 40160 55000 60002 700// 333 20106 50314 55125 70000;","Q01  00002PRCP24Q02  00002PRCP12"
"08044099999","2010-06-18T09:00:00","4","42.4333333","-8.6166666","108.0","PONTEVEDRA, SP","FM-12","99999","V020","300,1,N,0026,1","22000,1,9,N","020000,1,N,1","+0186,1","+0128,1","10159,1",,,,,"00,1,+99999,9,99,9","00,99,1,00,1,00,1,99999,9,00,1,00,1",,,,,"99999,9,10032,1","1,1,003,1,+999,9",,"SYN060AAXX  18094 08044 42970 03005 10186 20128 30032 40159 51003;",
"08044099999","2010-06-18T12:00:00","4","42.4333333","-8.6166666","108.0","PONTEVEDRA, SP","FM-12","99999","V020","300,1,N,0057,1","22000,1,9,N","020000,1,N,1","+0242,1","+0154,1","10156,1","06,0000,9,1",,,,,"01,99,1,01,1,02,1,00450,1,00,1,00,1",,,,,"99999,9,10031,1","8,1,001,1,+999,9",,"SYN072AAXX  18124 08044 12470 13011 10242 20154 30031 40156 58001 60001 81200;","Q01  00002PRCP06"
"08044099999","2010-06-18T15:00:00","4","42.4333333","-8.6166666","108.0","PONTEVEDRA, SP","FM-12","99999","V020","330,1,N,0057,1","22000,1,9,N","020000,1,N,1","+0256,1","+0153,1","10150,1",,,,,,"01,99,1,01,1,02,1,00450,1,00,1,00,1",,,,,"99999,9,10026,1","8,1,005,1,+999,9",,"SYN066AAXX  18154 08044 42470 13311 10256 20153 30026 40150 58005 81200;",
"08044099999","2010-06-18T18:00:00","4","42.4333333","-8.6166666","108.0","PONTEVEDRA, SP","FM-12","99999","V020","340,1,N,0046,1","22000,1,9,N","015000,1,N,1","+0230,1","+0143,1","10155,1","12,0000,9,1",,,,,"01,99,1,01,1,02,1,00450,1,00,1,00,1",,,,"999,M,+0261,1","99999,9,10030,1","1,1,004,1,+999,9",,"SYN082AAXX  18184 08044 12465 13409 10230 20143 30030 40155 51004 60002 81200 333 10261;","Q01  00002PRCP12"
"08044099999","2010-06-19T06:00:00","4","42.4333333","-8.6166666","108.0","PONTEVEDRA, SP","FM-12","99999","V020","050,1,N,0021,1","22000,1,9,N","012000,1,N,1","+0134,1","+0108,1","10193,1","12,0000,9,1","24,0000,9,1",,,,"02,99,1,02,1,06,1,00150,1,00,1,00,1","0756,9",,,"999,N,+0126,1","99999,9,10063,1","2,1,009,1,+999,9","02,1","SYN106AAXX  19064 08044 11262 20504 10134 20108 30063 40193 52009 60002 702// 82600 333 20126 50294 55126 70000;","Q01  00002PRCP24Q02  00002PRCP12"
"08044099999","2010-06-19T09:00:00","4","42.4333333","-8.6166666","108.0","PONTEVEDRA, SP","FM-12","99999","V020","340,1,N,0051,1","22000,1,9,N","020000,1,N,1","+0182,1","+0106,1","10197,1",,,,,,"02,99,1,01,1,05,1,00250,1,00,1,01,1",,,,,"99999,9,10069,1","1,1,006,1,+999,9",,"SYN066AAXX  19094 08044 42370 23410 10182 20106 30069 40197 51006 81501;",
"08044099999","2010-06-19T12:00:00","4","42.4333333","-8.6166666","108.0","PONTEVEDRA, SP","FM-12","99999","V020","320,1,N,0051,1","22000,1,9,N","020000,1,N,1","+0210,1","+0124,1","10195,1","06,0000,9,1",,,,,"04,99,1,03,1,08,1,00250,1,00,1,01,1",,,,,"99999,9,10068,1","8,1,001,1,+999,9",,"SYN072AAXX  19124 08044 12370 43210 10210 20124 30068 40195 58001 60001 83801;","Q01  00002PRCP06"
"08044099999","2010-06-19T15:00:00","4","42.4333333","-8.6166666","108.0","PONTEVEDRA, SP","FM-12","99999","V020","340,1,N,0041,1","22000,1,9,N","020000,1,N,1","+0223,1","+0120,1","10189,1",,,,,,"04,99,1,04,1,05,1,00450,1,00,1,00,1",,,,,"99999,9,10063,1","7,1,005,1,+999,9",,"SYN066AAXX  19154 08044 42470 43408 10223 20120 30063 40189 57005 84500;",
"08044099999","2010-06-19T18:00:00","4","42.4333333","-8.6166666","108.0","PONTEVEDRA, SP","FM-12","99999","V020","330,1,N,0051,1","22000,1,9,N","015000,1,N,1","+0205,1","+0114,1","10185,1","12,0000,9,1",,,,,"03,99,1,03,1,05,1,00450,1,00,1,01,1",,,,"999,M,+0228,1","99999,9,10058,1","6,1,005,1,+999,9",,"SYN082AAXX  19184 08044 12465 33310 10205 20114 30058 40185 56005 60002 83501 333 10228;","Q01  00002PRCP12"
"08044099999","2010-06-20T06:00:00","4","42.4333333","-8.6166666","108.0","PONTEVEDRA, SP","FM-12","99999","V020","350,1,N,0021,1","22000,1,9,N","015000,1,N,1","+0136,1","+0115,1","10187,1","12,0000,9,1","24,0000,9,1",,,,"02,99,1,02,1,05,1,00250,1,00,1,00,1","0636,9",,,"999,N,+0131,1","99999,9,10057,1","6,1,003,1,+999,9","02,1","SYN106AAXX  20064 08044 11365 23504 10136 20115 30057 40187 56003 60002 702// 82500 333 20131 50274 55106 70000;","Q01  00002PRCP24Q02  00002PRCP12"
"08044099999","2010-06-20T09:00:00","4","42.4333333","-8.6166666","108.0","PONTEVEDRA, SP","FM-12","99999","V020","030,1,N,0031,1","22000,1,9,N","020000,1,N,1","+0191,1","+0117,1","10185,1",,,,,,"01,99,1,01,1,05,1,00250,1,00,1,00,1",,,,,"99999,9,10057,1","4,1,000,1,+999,9",,"SYN066AAXX  20094 08044 42370 10306 10191 20117 30057 40185 54000 81500;",
"08044099999","2010-06-20T12:00:00","4","42.4333333","-8.6166666","108.0","PONTEVEDRA, SP","FM-12","99999","V020","350,1,N,0041,1","22000,1,9,N","020000,1,N,1","+0227,1","+0108,1","10179,1","06,0000,9,1",,,,,"01,99,1,01,1,05,1,00250,1,00,1,00,1",,,,,"99999,9,10053,1","8,1,004,1,+999,9",,"SYN072AAXX  20124 08044 12370 13508 10227 20108 30053 40179 58004 60001 81500;","Q01  00002PRCP06"
"08044099999","2010-06-20T15:00:00","4","42.4333333","-8.6166666","108.0","PONTEVEDRA, SP","FM-12","99999","V020","340,1,N,0051,1","22000,1,9,N","020000,1,N,1","+0247,1","+0098,1","10163,1",,,,,,"01,99,1,01,1,05,1,00250,1,00,1,00,1",,,,,"99999,9,10038,1","7,1,015,1,+999,9",,"SYN066AAXX  20154 08044 42370 13410 10247 20098 30038 40163 57015 81500;",
"08044099999","2010-06-20T18:00:00","4","42.4333333","-8.6166666","108.0","PONTEVEDRA, SP","FM-12","99999","V020","010,1,N,0026,1","22000,1,9,N","020000,1,N,1","+0240,1","+0120,1","10155,1","12,0000,9,1",,,,"00,1,+99999,9,99,9","00,99,1,00,1,00,1,99999,9,00,1,00,1",,,,"999,M,+0251,1","99999,9,10030,1","6,1,008,1,+999,9",,"SYN076AAXX  20184 08044 12970 00105 10240 20120 30030 40155 56008 60002 333 10251;","Q01  00002PRCP12"
"08044099999","2010-06-21T06:00:00","4","42.4333333","-8.6166666","108.0","PONTEVEDRA, SP","FM-12","99999","V020","030,1,N,0015,1","22000,1,9,N","020000,1,N,1","+0122,1","+0101,1","10175,1","12,0000,9,1","24,0000,9,1",,,"00,1,+99999,9,99,9","00,99,1,00,1,00,1,99999,9,00,1,00,1","0774,9",,,"999,N,+0116,1","99999,9,10044,1","3,1,008,1,+999,9","00,1","SYN100AAXX  21064 08044 11970 00303 10122 20101 30044 40175 53008 60002 700// 333 20116 50374 55129 70000;","Q01  00002PRCP24Q02  00002PRCP12"
"08044099999","2010-06-21T09:00:00","4","42.4333333","-8.6166666","108.0","PONTEVEDRA, SP","FM-12","99999","V020","260,1,N,0010,1","22000,1,9,N","020000,1,N,1","+0201,1","+0133,1","10176,1",,,,,,"01,99,1,00,1,00,1,99999,9,00,1,01,1",,,,,"99999,9,10049,1","2,1,005,1,+999,9",,"SYN066AAXX  21094 08044 42970 12602 10201 20133 30049 40176 52005 80001;",
"08044099999","2010-06-21T12:00:00","4","42.4333333","-8.6166666","108.0","PONTEVEDRA, SP","FM-12","99999","V020","270,1,N,0015,1","22000,1,9,N","020000,1,N,1","+0246,1","+0147,1","10176,1","06,0000,9,1",,,,,"01,99,1,00,1,00,1,99999,9,00,1,01,1",,,,,"99999,9,10051,1","1,1,002,1,+999,9",,"SYN072AAXX  21124 08044 12970 12703 10246 20147 30051 40176 51002 60001 80001;","Q01  00002PRCP06"
"08044099999","2010-06-21T15:00:00","4","42.4333333","-8.6166666","108.0","PONTEVEDRA, SP","FM-12","99999","V020","270,1,N,0031,1","22000,1,9,N","020000,1,N,1","+0243,1","+0135,1","10175,1",,,,,"00,1,+99999,9,99,9","00,99,1,00,1,00,1,99999,9,00,1,00,1",,,,,"99999,9,10050,1","6,1,001,1,+999,9",,"SYN060AAXX  21154 08044 42970 02706 10243 20135 30050 40175 56001;",
"08044099999","2010-06-21T18:00:00","4","42.4333333","-8.6166666","108.0","PONTEVEDRA, SP","FM-12","99999","V020","250,1,N,0010,1","22000,1,9,N","020000,1,N,1","+0220,1","+0117,1","10176,1","12,0000,9,1",,,,"00,1,+99999,9,99,9","00,99,1,00,1,00,1,99999,9,00,1,00,1",,,,"999,M,+0259,1","99999,9,10050,1","4,1,000,1,+999,9",,"SYN076AAXX  21184 08044 12970 02502 10220 20117 30050 40176 54000 60002 333 10259;","Q01  00002PRCP12"
"08044099999","2010-06-22T06:00:00","4","42.4333333","-8.6166666","108.0","PONTEVEDRA, SP","FM-12","99999","V020","080,1,N,0031,1","22000,1,9,N","020000,1,N,1","+0157,1","+0107,1","10181,1","12,0000,9,1","24,0000,9,1",,,,"01,99,1,00,1,00,1,99999,9,00,1,02,1","0774,9",,,"999,N,+0148,1","99999,9,10052,1","4,1,000,1,+999,9","02,1","SYN106AAXX  22064 08044 11970 10806 10157 20107 30052 40181 54000 60002 702// 80002 333 20148 50284 55129 70000;","Q01  00002PRCP24Q02  00002PRCP12"
"08044099999","2010-06-22T09:00:00","4","42.4333333","-8.6166666","108.0","PONTEVEDRA, SP","FM-12","99999","V020","340,1,N,0010,1","22000,1,9,N","020000,1,N,1","+0230,1","+0156,1","10180,1",,,,,,"02,99,1,00,1,00,1,99999,9,00,1,01,1",,,,,"99999,9,10054,1","1,1,002,1,+999,9",,"SYN066AAXX  22094 08044 42970 23402 10230 20156 30054 40180 51002 80001;",
"08044099999","2010-06-22T12:00:00","4","42.4333333","-8.6166666","108.0","PONTEVEDRA, SP","FM-12","99999","V020","200,1,N,0015,1","22000,1,9,N","020000,1,N,1","+0249,1","+0155,1","10182,1","06,0000,9,1",,,,,"01,99,1,00,1,00,1,99999,9,00,1,02,1",,,,,"99999,9,10057,1","1,1,003,1,+999,9",,"SYN072AAXX  22124 08044 12970 12003 10249 20155 30057 40182 51003 60001 80002;","Q01  00002PRCP06"
"08044099999","2010-06-22T15:00:00","4","42.4333333","-8.6166666","108.0","PONTEVEDRA, SP","FM-12","99999","V020","210,1,N,0015,1","22000,1,9,N","020000,1,N,1","+0237,1","+0147,1","10181,1",,,,,,"01,99,1,00,1,00,1,99999,9,00,1,02,1",,,,,"99999,9,10056,1","8,1,001,1,+999,9",,"SYN066AAXX  22154 08044 42970 12103 10237 20147 30056 40181 58001 80002;",
"08044099999","2010-06-22T18:00:00","4","42.4333333","-8.6166666","108.0","PONTEVEDRA, SP","FM-12","99999","V020","170,1,N,0010,1","22000,1,9,N","020000,1,N,1","+0228,1","+0124,1","10177,1","12,0000,9,1",,,,,"01,99,1,00,1,00,1,99999,9,00,1,01,1",,,,"999,M,+0259,1","99999,9,10051,1","7,1,005,1,+999,9",,"SYN082AAXX  22184 08044 12970 11702 10228 20124 30051 40177 57005 60002 80001 333 10259;","Q01  00002PRCP12"
"08044099999","2010-06-23T06:00:00","4","42.4333333","-8.6166666","108.0","PONTEVEDRA, SP","FM-12","99999","V020","180,1,N,0010,1","22000,1,9,N","020000,1,N,1","+0154,1","+0131,1","10166,1","12,0000,9,1","24,0000,9,1",,,"00,1,+99999,9,99,9","00,99,1,00,1,00,1,99999,9,00,1,00,1","0774,9",,,"999,N,+0151,1","99999,9,10037,1","6,1,005,1,+999,9","00,1","SYN100AAXX  23064 08044 11970 01802 10154 20131 30037 40166 56005 60002 700// 333 20151 50254 55129 70000;","Q01  00002PRCP24Q02  00002PRCP12"
"08044099999","2010-06-23T09:00:00","4","42.4333333","-8.6166666","108.0","PONTEVEDRA, SP","FM-12","99999","V020","260,1,N,0010,1","22000,1,9,N","015000,1,N,1","+0220,1","+0161,1","10162,1",,,,,,"01,99,1,00,1,00,1,99999,9,00,1,01,1",,,,,"99999,9,10036,1","8,1,001,1,+999,9",,"SYN066AAXX  23094 08044 42965 12602 10220 20161 30036 40162 58001 80001;",
"08044099999","2010-06-23T12:00:00","4","42.4333333","-8.6166666","108.0","PONTEVEDRA, SP","FM-12","99999","V020","200,1,N,0015,1","22000,1,9,N","015000,1,N,1","+0240,1","+0163,1","10158,1","06,0000,9,1",,,,,"01,99,1,00,1,00,1,99999,9,00,1,01,1",,,,,"99999,9,10033,1","8,1,003,1,+999,9",,"SYN072AAXX  23124 08044 12965 12003 10240 20163 30033 40158 58003 60001 80001;","Q01  00002PRCP06"
"08044099999","2010-06-23T15:00:00","4","42.4333333","-8.6166666","108.0","PONTEVEDRA, SP","FM-12","99999","V020","190,1,N,0015,1","22000,1,9,N","015000,1,N,1","+0219,1","+0155,1","10155,1",,,,,,"03,99,1,01,1,02,1,00450,1,00,1,02,1",,,,,"99999,9,10029,1","8,1,004,1,+999,9",,"SYN066AAXX  23154 08044 42465 31903 10219 20155 30029 40155 58004 81202;",
"08044099999","2010-06-23T18:00:00","4","42.4333333","-8.6166666","108.0","PONTEVEDRA, SP","FM-12","99999","V020","160,1,N,0015,1","09000,1,9,N","015000,1,N,1","+0218,1","+0137,1","10147,1","12,0000,9,1",,,,,"05,99,1,01,1,00,1,01750,1,03,1,02,1",,,,"999,M,+0266,1","99999,9,10021,1","6,1,008,1,+999,9",,"SYN082AAXX  23184 08044 12765 51603 10218 20137 30021 40147 56008 60002 81032 333 10266;","Q01  00002PRCP12"
"08044099999","2010-06-24T06:00:00","4","42.4333333","-8.6166666","108.0","PONTEVEDRA, SP","FM-12","99999","V020","280,1,N,0015,1","00210,1,9,N","000300,1,N,1","+0158,1","+0143,1","10136,1","12,0000,9,1","24,0000,9,1",,,,"08,99,1,08,1,06,1,00250,1,99,9,99,9","0678,9",,,"999,N,+0153,1","99999,9,10008,1","3,1,004,1,+999,9","44,1","SYN106AAXX  24064 08044 11303 82803 10158 20143 30008 40136 53004 60002 744/4 886// 333 20153 50174 55113 70000;","Q01  00002PRCP24Q02  00002PRCP12"
"08044099999","2010-06-24T09:00:00","4","42.4333333","-8.6166666","108.0","PONTEVEDRA, SP","FM-12","99999","V020","220,1,N,0010,1","00420,1,9,N","002000,1,N,1","+0176,1","+0141,1","10140,1",,,"4,1,03,1","2,1,03,1",,"08,99,1,08,1,06,1,00450,1,99,9,99,9",,,,,"99999,9,10012,1","0,1,004,1,+999,9","10,1","SYN072AAXX  24094 08044 41420 82202 10176 20141 30012 40140 50004 71042 886//;",
"08044099999","2010-06-24T12:00:00","4","42.4333333","-8.6166666","108.0","PONTEVEDRA, SP","FM-12","99999","V020","200,1,N,0015,1","22000,1,9,N","008000,1,N,1","+0218,1","+0147,1","10138,1","06,0000,9,1",,"2,1,06,1","2,1,06,1",,"06,99,1,04,1,06,1,00800,1,00,1,01,1",,,,,"99999,9,10012,1","4,1,000,1,+999,9","05,1","SYN078AAXX  24124 08044 11558 62003 10218 20147 30012 40138 54000 60001 70522 84601;","Q01  00002PRCP06"
"08044099999","2010-06-24T15:00:00","4","42.4333333","-8.6166666","108.0","PONTEVEDRA, SP","FM-12","99999","V020","240,1,N,0015,1","22000,1,9,N","008000,1,N,1","+0209,1","+0138,1","10140,1",,,"1,1,03,1","1,1,03,1",,"04,99,1,02,1,02,1,00800,1,00,1,01,1",,,,,"99999,9,10014,1","3,1,002,1,+999,9","05,1","SYN072AAXX  24154 08044 41558 42403 10209 20138 30014 40140 53002 70511 82201;",
"08044099999","2010-06-24T18:00:00","4","42.4333333","-8.6166666","108.0","PONTEVEDRA, SP","FM-12","99999","V020","170,1,N,0015,1","22000,1,9,N","008000,1,N,1","+0190,1","+0141,1","10141,1","12,0000,9,1",,"1,1,06,1","1,1,06,1",,"05,99,1,02,1,02,1,00800,1,00,1,01,1",,,,"999,M,+0228,1","99999,9,10014,1","4,1,000,1,+999,9","05,1","SYN088AAXX  24184 08044 11558 51703 10190 20141 30014 40141 54000 60002 70511 82201 333 10228;","Q01  00002PRCP12"
"08044099999","2010-06-25T06:00:00","4","42.4333333","-8.6166666","108.0","PONTEVEDRA, SP","FM-12","99999","V020","260,1,N,0015,1","03600,1,9,N","004000,1,N,1","+0161,1","+0148,1","10131,1","12,0000,9,1","24,0000,9,1",,,,"07,99,1,01,1,04,1,00800,1,06,1,04,1","0516,9",,,"999,N,+0150,1","99999,9,10003,1","8,1,008,1,+999,9","10,1","SYN106AAXX  25064 08044 11540 72603 10161 20148 30003 40131 58008 60002 710/2 81464 333 20150 50074 55086 70000;","Q01  00002PRCP24Q02  00002PRCP12"
"08044099999","2010-06-25T09:00:00","4","42.4333333","-8.6166666","108.0","PONTEVEDRA, SP","FM-12","99999","V020","210,1,N,0010,1","22000,1,9,N","004000,1,N,1","+0190,1","+0160,1","10140,1",,,"2,1,03,1","2,1,03,1",,"06,99,1,02,1,06,1,00450,1,00,1,04,1",,,,,"99999,9,10013,1","1,1,010,1,+999,9","10,1","SYN072AAXX  25094 08044 41440 62102 10190 20160 30013 40140 51010 71022 82604;",
"08044099999","2010-06-25T12:00:00","4","42.4333333","-8.6166666","108.0","PONTEVEDRA, SP","FM-12","99999","V020","200,1,N,0015,1","22000,1,9,N","006000,1,N,1","+0218,1","+0167,1","10139,1","06,0000,9,1",,"2,1,06,1","2,1,06,1",,"04,99,1,00,1,00,1,99999,9,00,1,04,1",,,,,"99999,9,10013,1","4,1,000,1,+999,9","05,1","SYN078AAXX  25124 08044 11956 42003 10218 20167 30013 40139 54000 60001 70522 80004;","Q01  00002PRCP06"
"08044099999","2010-06-25T15:00:00","4","42.4333333","-8.6166666","108.0","PONTEVEDRA, SP","FM-12","99999","V020","270,1,N,0036,1","22000,1,9,N","010000,1,N,1","+0206,1","+0166,1","10137,1",,,,,,"04,99,1,02,1,00,1,01750,1,03,1,02,1",,,,,"99999,9,10011,1","8,1,002,1,+999,9",,"SYN066AAXX  25154 08044 42760 42707 10206 20166 30011 40137 58002 82032;",
"08044099999","2010-06-25T18:00:00","4","42.4333333","-8.6166666","108.0","PONTEVEDRA, SP","FM-12","99999","V020","160,1,N,0010,1","22000,1,9,N","010000,1,N,1","+0200,1","+0160,1","10137,1","12,0000,9,1",,,,,"03,99,1,00,1,00,1,99999,9,00,1,02,1",,,,"999,M,+0220,1","99999,9,10011,1","0,1,000,1,+999,9",,"SYN082AAXX  25184 08044 12960 31602 10200 20160 30011 40137 50000 60002 80002 333 10220;","Q01  00002PRCP12"
"08044099999","2010-06-26T06:00:00","4","42.4333333","-8.6166666","108.0","PONTEVEDRA, SP","FM-12","99999","V020","999,9,C,0000,1","99999,9,9,N","010000,1,N,1","+0156,1","+0133,1","10141,1","12,0000,9,1","24,0000,9,1",,,,"06,99,1,00,1,00,1,99999,9,00,1,01,1","0426,9",,,"999,N,+0154,1","99999,9,10013,1","3,1,002,1,+999,9","02,1","SYN106AAXX  26064 08044 11960 60000 10156 20133 30013 40141 53002 60002 702/2 80001 333 20154 50094 55071 70000;","Q01  00002PRCP24Q02  00002PRCP12"
"08044099999","2010-06-26T09:00:00","4","42.4333333","-8.6166666","108.0","PONTEVEDRA, SP","FM-12","99999","V020","280,1,N,0015,1","99999,9,9,N","010000,1,N,1","+0202,1","+0170,1","10143,1",,,,,,"07,99,1,00,1,00,1,99999,9,00,1,04,1",,,,,"99999,9,10017,1","1,1,004,1,+999,9",,"SYN066AAXX  26094 08044 42960 72803 10202 20170 30017 40143 51004 80004;",
"08044099999","2010-06-26T12:00:00","4","42.4333333","-8.6166666","108.0","PONTEVEDRA, SP","FM-12","99999","V020","190,1,N,0015,1","99999,9,9,N","008000,1,N,1","+0236,1","+0178,1","10145,1","06,0000,9,1",,"2,1,06,1","2,1,06,1",,"07,99,1,00,1,00,1,99999,9,00,1,01,1",,,,,"99999,9,10020,1","1,1,003,1,+999,9","05,1","SYN078AAXX  26124 08044 11958 71903 10236 20178 30020 40145 51003 60001 70522 80001;","Q01  00002PRCP06"
"08044099999","2010-06-26T15:00:00","4","42.4333333","-8.6166666","108.0","PONTEVEDRA, SP","FM-12","99999","V020","180,1,N,0021,1","22000,1,9,N","012000,1,N,1","+0242,1","+0186,1","10139,1",,,,,,"03,99,1,02,1,03,1,00450,1,00,1,02,1",,,,,"99999,9,10015,1","6,1,005,1,+999,9",,"SYN066AAXX  26154 08044 42462 31804 10242 20186 30015 40139 56005 82302;",
"08044099999","2010-06-26T18:00:00","4","42.4333333","-8.6166666","108.0","PONTEVEDRA, SP","FM-12","99999","V020","320,1,N,0057,1","22000,1,9,N","006000,1,N,1","+0254,1","+0186,1","10134,1","12,0000,9,1",,"1,1,06,1","1,1,06,1",,"02,99,1,02,1,00,1,01750,1,05,1,00,1",,,,"999,M,+0265,1","99999,9,10010,1","8,1,005,1,+999,9","05,1","SYN088AAXX  26184 08044 11756 23211 10254 20186 30010 40134 58005 60002 70511 82050 333 10265;","Q01  00002PRCP12"
"08044099999","2010-06-27T06:00:00","4","42.4333333","-8.6166666","108.0","PONTEVEDRA, SP","FM-12","99999","V020","310,1,N,0010,1","22000,1,9,N","012000,1,N,1","+0166,1","+0148,1","10151,1","12,0000,9,1","24,0000,9,1",,,"00,1,+99999,9,99,9","00,99,1,00,1,00,1,99999,9,00,1,00,1","0600,9",,,"999,N,+0161,1","99999,9,10023,1","1,1,002,1,+999,9","02,1","SYN100AAXX  27064 08044 11962 03102 10166 20148 30023 40151 51002 60002 702// 333 20161 50164 55100 70000;","Q01  00002PRCP24Q02  00002PRCP12"
"08044099999","2010-06-27T09:00:00","4","42.4333333","-8.6166666","108.0","PONTEVEDRA, SP","FM-12","99999","V020","270,1,N,0015,1","22000,1,9,N","015000,1,N,1","+0222,1","+0162,1","10160,1",,,,,"00,1,+99999,9,99,9","00,99,1,00,1,00,1,99999,9,00,1,00,1",,,,,"99999,9,10034,1","1,1,011,1,+999,9",,"SYN060AAXX  27094 08044 42965 02703 10222 20162 30034 40160 51011;",
"08044099999","2010-06-27T12:00:00","4","42.4333333","-8.6166666","108.0","PONTEVEDRA, SP","FM-12","99999","V020","280,1,N,0041,1","22000,1,9,N","015000,1,N,1","+0273,1","+0183,1","10157,1","06,0000,9,1",,,,,"01,99,1,01,1,01,1,00800,1,00,1,00,1",,,,,"99999,9,10034,1","4,1,000,1,+999,9",,"SYN072AAXX  27124 08044 12565 12808 10273 20183 30034 40157 54000 60001 81100;","Q01  00002PRCP06"
"08044099999","2010-06-27T15:00:00","4","42.4333333","-8.6166666","108.0","PONTEVEDRA, SP","FM-12","99999","V020","180,1,N,0010,1","22000,1,9,N","015000,1,N,1","+0275,1","+0188,1","10155,1",,,,,,"02,99,1,02,1,02,1,00800,1,00,1,00,1",,,,,"99999,9,10032,1","8,1,002,1,+999,9",,"SYN066AAXX  27154 08044 42565 21802 10275 20188 30032 40155 58002 82200;",
"08044099999","2010-06-27T18:00:00","4","42.4333333","-8.6166666","108.0","PONTEVEDRA, SP","FM-12","99999","V020","310,1,N,0051,1","22000,1,9,N","015000,1,N,1","+0271,1","+0194,1","10153,1","12,0000,9,1",,,,,"02,99,1,01,1,02,1,00800,1,00,1,03,1",,,,"999,M,+0285,1","99999,9,10030,1","7,1,002,1,+999,9",,"SYN082AAXX  27184 08044 12565 23110 10271 20194 30030 40153 57002 60002 81203 333 10285;","Q01  00002PRCP12"
"08044099999","2010-06-28T06:00:00","4","42.4333333","-8.6166666","108.0","PONTEVEDRA, SP","FM-12","99999","V020","290,1,N,0010,1","22000,1,9,N","020000,1,N,1","+0162,1","+0146,1","10179,1","12,0000,9,1","24,0000,9,1",,,"00,1,+99999,9,99,9","00,99,1,00,1,00,1,99999,9,00,1,00,1","0738,9",,,"999,N,+0158,1","99999,9,10050,1","3,1,004,1,+999,9",,"SYN094AAXX  28064 08044 12970 02902 10162 20146 30050 40179 53004 60002 333 20158 50174 55123 70000;","Q01  00002PRCP24Q02  00002PRCP12"
"08044099999","2010-06-28T09:00:00","4","42.4333333","-8.6166666","108.0","PONTEVEDRA, SP","FM-12","99999","V020","270,1,N,0021,1","22000,1,9,N","020000,1,N,1","+0244,1","+0171,1","10180,1",,,,,"00,1,+99999,9,99,9","00,99,1,00,1,00,1,99999,9,00,1,00,1",,,,,"99999,9,10055,1","2,1,005,1,+999,9",,"SYN060AAXX  28094 08044 42970 02704 10244 20171 30055 40180 52005;",
"08044099999","2010-06-28T12:00:00","4","42.4333333","-8.6166666","108.0","PONTEVEDRA, SP","FM-12","99999","V020","260,1,N,0021,1","22000,1,9,N","020000,1,N,1","+0272,1","+0182,1","10183,1","06,0000,9,1",,,,,"01,99,1,01,1,02,1,00800,1,00,1,00,1",,,,,"99999,9,10059,1","1,1,004,1,+999,9",,"SYN072AAXX  28124 08044 12570 12604 10272 20182 30059 40183 51004 60001 81200;","Q01  00002PRCP06"
"08044099999","2010-06-28T15:00:00","4","42.4333333","-8.6166666","108.0","PONTEVEDRA, SP","FM-12","99999","V020","170,1,N,0010,1","22000,1,9,N","015000,1,N,1","+0258,1","+0174,1","10178,1",,,,,,"02,99,1,01,1,02,1,00800,1,00,1,01,1",,,,,"99999,9,10054,1","7,1,005,1,+999,9",,"SYN066AAXX  28154 08044 42565 21702 10258 20174 30054 40178 57005 81201;",
"08044099999","2010-06-28T18:00:00","4","42.4333333","-8.6166666","108.0","PONTEVEDRA, SP","FM-12","99999","V020","190,1,N,0010,1","22000,1,9,N","015000,1,N,1","+0242,1","+0159,1","10177,1","12,0000,9,1",,,,,"07,99,1,01,1,02,1,00800,1,00,1,04,1",,,,"999,M,+0277,1","99999,9,10052,1","7,1,002,1,+999,9",,"SYN082AAXX  28184 08044 12565 71902 10242 20159 30052 40177 57002 60002 81204 333 10277;","Q01  00002PRCP12"
"08044099999","2010-06-29T06:00:00","4","42.4333333","-8.6166666","108.0","PONTEVEDRA, SP","FM-12","99999","V020","050,1,N,0026,1","22000,1,9,N","020000,1,N,1","+0151,1","+0131,1","10195,1","12,0000,9,1","24,0000,9,1",,,"00,1,+99999,9,99,9","00,99,1,00,1,00,1,99999,9,00,1,00,1","0726,9",,,"999,N,+0147,1","99999,9,10066,1","3,1,003,1,+999,9","00,1","SYN100AAXX  29064 08044 11970 00505 10151 20131 30066 40195 53003 60002 700/0 333 20147 50204 55121 70000;","Q01  00002PRCP24Q02  00002PRCP12"
"08044099999","2010-06-29T12:00:00","4","42.4333333","-8.6166666","108.0","PONTEVEDRA, SP","FM-12","99999","V020","300,1,N,0036,1","22000,1,9,N","015000,1,N,1","+0283,1","+0172,1","10190,1","06,0000,9,1",,,,,"04,99,1,00,1,00,1,99999,9,00,1,01,1",,,,,"99999,9,10067,1","4,1,000,1,+999,9",,"SYN072AAXX  29124 08044 12965 43007 10283 20172 30067 40190 54000 60001 80001;","Q01  00002PRCP06"
"08044099999","2010-06-29T15:00:00","4","42.4333333","-8.6166666","108.0","PONTEVEDRA, SP","FM-12","99999","V020","210,1,N,0015,1","22000,1,9,N","015000,1,N,1","+0298,1","+0198,1","10185,1",,,,,,"03,99,1,00,1,00,1,99999,9,00,1,02,1",,,,,"99999,9,10062,1","8,1,005,1,+999,9",,"SYN066AAXX  29154 08044 42965 32103 10298 20198 30062 40185 58005 80002;",
"08044099999","2010-06-29T18:00:00","4","42.4333333","-8.6166666","108.0","PONTEVEDRA, SP","FM-12","99999","V020","210,1,N,0015,1","22000,1,9,N","012000,1,N,1","+0262,1","+0188,1","10180,1","12,0000,9,1",,,,,"01,99,1,00,1,00,1,99999,9,00,1,02,1",,,,"999,M,+0304,1","99999,9,10056,1","8,1,006,1,+999,9",,"SYN082AAXX  29184 08044 12962 12103 10262 20188 30056 40180 58006 60002 80002 333 10304;","Q01  00002PRCP12"
"08044099999","2010-06-30T06:00:00","4","42.4333333","-8.6166666","108.0","PONTEVEDRA, SP","FM-12","99999","V020","020,1,N,0021,1","22000,1,9,N","020000,1,N,1","+0150,1","+0116,1","10189,1","12,0000,9,1","24,0000,9,1",,,"00,1,+99999,9,99,9","00,99,1,00,1,00,1,99999,9,00,1,00,1","0738,9",,,"999,N,+0147,1","99999,9,10060,1","6,1,003,1,+999,9",,"SYN094AAXX  30064 08044 12970 00204 10150 20116 30060 40189 56003 60002 333 20147 50264 55123 70000;","Q01  00002PRCP24Q02  00002PRCP12"
"08044099999","2010-06-30T09:00:00","4","42.4333333","-8.6166666","108.0","PONTEVEDRA, SP","FM-12","99999","V020","250,1,N,0010,1","22000,1,9,N","020000,1,N,1","+0239,1","+0157,1","10185,1",,,,,"00,1,+99999,9,99,9","00,99,1,00,1,00,1,99999,9,00,1,00,1",,,,,"99999,9,10060,1","4,1,000,1,+999,9",,"SYN060AAXX  30094 08044 42970 02502 10239 20157 30060 40185 54000;",
"08044099999","2010-06-30T15:00:00","4","42.4333333","-8.6166666","108.0","PONTEVEDRA, SP","FM-12","99999","V020","240,1,N,0015,1","22000,1,9,N","015000,1,N,1","+0271,1","+0173,1","10174,1",,,,,"00,1,+99999,9,99,9","00,99,1,00,1,00,1,99999,9,00,1,00,1",,,,,"99999,9,10050,1","7,1,010,1,+999,9",,"SYN060AAXX  30154 08044 42965 02403 10271 20173 30050 40174 57010;",
"08044099999","2010-06-30T18:00:00","4","42.4333333","-8.6166666","108.0","PONTEVEDRA, SP","FM-12","99999","V020","220,1,N,0005,1","22000,1,9,N","015000,1,N,1","+0258,1","+0169,1","10166,1","12,0000,9,1",,,,"00,1,+99999,9,99,9","00,99,1,00,1,00,1,99999,9,00,1,00,1",,,,"999,M,+0292,1","99999,9,10042,1","8,1,008,1,+999,9",,"SYN076AAXX  30184 08044 12965 02201 10258 20169 30042 40166 58008 60002 333 10292;","Q01  00002PRCP12"
"08044099999","2010-07-01T06:00:00","4","42.4333333","-8.6166666","108.0","PONTEVEDRA, SP","FM-12","99999","V020","350,1,N,0015,1","22000,1,9,N","003000,1,N,1","+0149,1","+0134,1","10171,1","12,0000,9,1","24,0000,9,1",,,,"06,99,1,02,1,06,1,00250,1,00,1,01,1","0756,9",,,"999,N,+0149,1","99999,9,10042,1","6,1,002,1,+999,9","10,1","SYN106AAXX  01064 08044 11330 63503 10149 20134 30042 40171 56002 60002 710/2 82601 333 20149 50244 55126 70000;","Q01  00002PRCP24Q02  00002PRCP12"
"08044099999","2010-07-01T09:00:00","4","42.4333333","-8.6166666","108.0","PONTEVEDRA, SP","FM-12","99999","V020","170,1,N,0010,1","22000,1,9,N","006000,1,N,1","+0211,1","+0169,1","10170,1",,,"2,1,03,1","2,1,03,1",,"06,99,1,02,1,06,1,00250,1,00,1,01,1",,,,,"99999,9,10044,1","1,1,002,1,+999,9","05,1","SYN072AAXX  01094 08044 41356 61702 10211 20169 30044 40170 51002 70522 82601;",
"08044099999","2010-07-01T12:00:00","4","42.4333333","-8.6166666","108.0","PONTEVEDRA, SP","FM-12","99999","V020","210,1,N,0015,1","99999,9,9,N","015000,1,N,1","+0240,1","+0173,1","10163,1","06,0000,9,1",,,,,"06,99,1,00,1,00,1,99999,9,00,1,04,1",,,,,"99999,9,10038,1","8,1,006,1,+999,9",,"SYN072AAXX  01124 08044 12965 62103 10240 20173 30038 40163 58006 60001 80004;","Q01  00002PRCP06"
"08044099999","2010-07-01T15:00:00","4","42.4333333","-8.6166666","108.0","PONTEVEDRA, SP","FM-12","99999","V020","170,1,N,0021,1","22000,1,9,N","020000,1,N,1","+0220,1","+0161,1","10154,1",,,,,,"03,99,1,01,1,00,1,01750,1,03,1,02,1",,,,,"99999,9,10028,1","6,1,010,1,+999,9",,"SYN066AAXX  01154 08044 42770 31704 10220 20161 30028 40154 56010 81032;",
"08044099999","2010-07-01T18:00:00","4","42.4333333","-8.6166666","108.0","PONTEVEDRA, SP","FM-12","99999","V020","210,1,N,0010,1","22000,1,9,N","015000,1,N,1","+0200,1","+0160,1","10156,1","12,0000,9,1",,,,,"02,99,1,01,1,02,1,00450,1,00,1,02,1",,,,"999,M,+0244,1","99999,9,10029,1","0,1,001,1,+999,9",,"SYN082AAXX  01184 08044 12465 22102 10200 20160 30029 40156 50001 60002 81202 333 10244;","Q01  00002PRCP12"
"08044099999","2010-07-02T06:00:00","4","42.4333333","-8.6166666","108.0","PONTEVEDRA, SP","FM-12","99999","V020","130,1,N,0005,1","00420,1,9,N","006000,1,N,1","+0170,1","+0146,1","10148,1","12,0000,9,1","24,0000,9,1",,,,"08,99,1,08,1,07,1,00450,1,99,9,99,9","0708,9",,,"999,N,+0167,1","99999,9,10020,1","6,1,005,1,+999,9","10,1","SYN106AAXX  02064 08044 11456 81301 10170 20146 30020 40148 56005 60002 710/2 887// 333 20167 50104 55118 70000;","Q01  00002PRCP24Q02  00002PRCP12"
"08044099999","2010-07-02T09:00:00","4","42.4333333","-8.6166666","108.0","PONTEVEDRA, SP","FM-12","99999","V020","280,1,N,0015,1","00420,1,9,N","004000,1,N,1","+0173,1","+0165,1","10154,1",,,"5,1,03,1","2,1,03,1",,"08,99,1,08,1,07,1,00450,1,99,9,99,9",,,,,"99999,9,10026,1","3,1,006,1,+999,9","60,1","SYN072AAXX  02094 08044 41440 82803 10173 20165 30026 40154 53006 76052 887//;",
"08044099999","2010-07-02T12:00:00","4","42.4333333","-8.6166666","108.0","PONTEVEDRA, SP","FM-12","99999","V020","270,1,N,0015,1","00420,1,9,N","010000,1,N,1","+0197,1","+0189,1","10154,1","06,0010,9,1",,"6,1,06,1","2,1,06,1",,"08,99,1,08,1,07,1,00450,1,99,9,99,9",,,,,"99999,9,10027,1","1,1,001,1,+999,9","21,1","SYN078AAXX  02124 08044 11460 82703 10197 20189 30027 40154 51001 60011 72162 887//;",
"08044099999","2010-07-02T15:00:00","4","42.4333333","-8.6166666","108.0","PONTEVEDRA, SP","FM-12","99999","V020","200,1,N,0010,1","00420,1,9,N","006000,1,N,1","+0191,1","+0181,1","10154,1",,,"2,1,03,1","2,1,03,1",,"08,99,1,08,1,07,1,00450,1,99,9,99,9",,,,,"99999,9,10027,1","4,1,000,1,+999,9","50,1","SYN072AAXX  02154 08044 41456 82002 10191 20181 30027 40154 54000 75022 887//;",
"08044099999","2010-07-02T18:00:00","4","42.4333333","-8.6166666","108.0","PONTEVEDRA, SP","FM-12","99999","V020","330,1,N,0031,1","00420,1,9,N","006000,1,N,1","+0180,1","+0175,1","10151,1","12,0030,9,1",,"6,1,06,1","2,1,06,1",,"08,99,1,08,1,07,1,00450,1,99,9,99,9",,,,"999,M,+0200,1","99999,9,10024,1","8,1,003,1,+999,9","50,1","SYN088AAXX  02184 08044 11456 83306 10180 20175 30024 40151 58003 60032 75062 887// 333 10200;",
"08044099999","2010-07-03T06:00:00","4","42.4333333","-8.6166666","108.0","PONTEVEDRA, SP","FM-12","99999","V020","340,1,N,0026,1","00750,1,9,N","020000,1,N,1","+0164,1","+0139,1","10171,1","12,0000,2,1","24,0030,9,1",,,,"05,99,1,05,1,05,1,00800,1,00,1,01,1","0000,9",,,"999,N,+0160,1","99999,9,10043,1","1,1,004,1,+999,9","02,1","SYN106AAXX  03064 08044 11570 53405 10164 20139 30043 40171 51004 60002 702// 85501 333 20160 50084 55000 70031;",
"08044099999","2010-07-03T09:00:00","4","42.4333333","-8.6166666","108.0","PONTEVEDRA, SP","FM-12","99999","V020","050,1,N,0036,1","00750,1,9,N","020000,1,N,1","+0197,1","+0149,1","10176,1",,,,,,"06,99,1,06,1,05,1,00800,1,00,1,01,1",,,,,"99999,9,10049,1","1,1,006,1,+999,9",,"SYN066AAXX  03094 08044 42570 60507 10197 20149 30049 40176 51006 86501;",
"08044099999","2010-07-03T12:00:00","4","42.4333333","-8.6166666","108.0","PONTEVEDRA, SP","FM-12","99999","V020","340,1,N,0046,1","22000,1,9,N","020000,1,N,1","+0239,1","+0164,1","10174,1","06,0000,9,1",,,,,"02,99,1,02,1,05,1,00800,1,00,1,00,1",,,,,"99999,9,10049,1","4,1,000,1,+999,9",,"SYN072AAXX  03124 08044 12570 23409 10239 20164 30049 40174 54000 60001 82500;","Q01  00002PRCP06"
"08044099999","2010-07-03T15:00:00","4","42.4333333","-8.6166666","108.0","PONTEVEDRA, SP","FM-12","99999","V020","330,1,N,0051,1","22000,1,9,N","020000,1,N,1","+0259,1","+0175,1","10169,1",,,,,,"02,99,1,00,1,00,1,99999,9,00,1,01,1",,,,,"99999,9,10045,1","6,1,004,1,+999,9",,"SYN066AAXX  03154 08044 42970 23310 10259 20175 30045 40169 56004 80001;",
"08044099999","2010-07-03T18:00:00","4","42.4333333","-8.6166666","108.0","PONTEVEDRA, SP","FM-12","99999","V020","350,1,N,0046,1","99999,9,9,N","015000,1,N,1","+0250,1","+0172,1","10173,1","12,0000,9,1",,,,,"06,99,1,00,1,00,1,99999,9,00,1,04,1",,,,"999,M,+0266,1","99999,9,10048,1","3,1,003,1,+999,9",,"SYN082AAXX  03184 08044 12965 63509 10250 20172 30048 40173 53003 60002 80004 333 10266;","Q01  00002PRCP12"
"08044099999","2010-07-04T06:00:00","4","42.4333333","-8.6166666","108.0","PONTEVEDRA, SP","FM-12","99999","V020","320,1,N,0010,1","22000,1,9,N","020000,1,N,1","+0171,1","+0151,1","10196,1","12,0000,9,1","24,0000,9,1",,,,"01,99,1,01,1,05,1,00800,1,00,1,01,1","0714,9",,,"999,N,+0161,1","99999,9,10068,1","3,1,002,1,+999,9",,"SYN100AAXX  04064 08044 12570 13202 10171 20151 30068 40196 53002 60002 81501 333 20161 50174 55119 70000;","Q01  00002PRCP24Q02  00002PRCP12"
"08044099999","2010-07-04T09:00:00","4","42.4333333","-8.6166666","108.0","PONTEVEDRA, SP","FM-12","99999","V020","210,1,N,0031,1","22000,1,9,N","025000,1,N,1","+0243,1","+0178,1","10201,1",,,,,"00,1,+99999,9,99,9","00,99,1,00,1,00,1,99999,9,00,1,00,1",,,,,"99999,9,10076,1","2,1,008,1,+999,9",,"SYN060AAXX  04094 08044 42975 02106 10243 20178 30076 40201 52008;",
"08044099999","2010-07-04T12:00:00","4","42.4333333","-8.6166666","108.0","PONTEVEDRA, SP","FM-12","99999","V020","300,1,N,0046,1","22000,1,9,N","025000,1,N,1","+0288,1","+9999,9","10198,1","06,0000,9,1",,,,"00,1,+99999,9,99,9","00,99,1,00,1,00,1,99999,9,00,1,00,1",,,,,"99999,9,10074,1","6,1,002,1,+999,9",,"SYN066AAXX  04124 08044 12975 03009 10288 21123 30074 40198 56002 60001;","Q01-001233ATOD  Q02  00002PRCP06Q03 -01233ATOD  "
"08044099999","2010-07-04T15:00:00","4","42.4333333","-8.6166666","108.0","PONTEVEDRA, SP","FM-12","99999","V020","330,1,N,0046,1","22000,1,9,N","025000,1,N,1","+0308,1","+0195,1","10192,1",,,,,"00,1,+99999,9,99,9","00,99,1,00,1,00,1,99999,9,00,1,00,1",,,,,"99999,9,10070,1","7,1,004,1,+999,9",,"SYN060AAXX  04154 08044 42975 03309 10308 20195 30070 40192 57004;",
"08044099999","2010-07-04T18:00:00","4","42.4333333","-8.6166666","108.0","PONTEVEDRA, SP","FM-12","99999","V020","010,1,N,0046,1","22000,1,9,N","020000,1,N,1","+0289,1","+0209,1","10187,1","12,0000,9,1",,,,"00,1,+99999,9,99,9","00,99,1,00,1,00,1,99999,9,00,1,00,1",,,,"999,M,+0311,1","99999,9,10064,1","6,1,006,1,+999,9",,"SYN076AAXX  04184 08044 12970 00109 10289 20209 30064 40187 56006 60002 333 10311;","Q01  00002PRCP12"
"08044099999","2010-07-05T06:00:00","4","42.4333333","-8.6166666","108.0","PONTEVEDRA, SP","FM-12","99999","V020","350,1,N,0021,1","22000,1,9,N","020000,1,N,1","+0187,1","+0127,1","10204,1","12,0000,9,1","24,0000,9,1",,,"00,1,+99999,9,99,9","00,99,1,00,1,00,1,99999,9,00,1,00,1","0774,9",,,"999,N,+0165,1","99999,9,10076,1","1,1,002,1,+999,9","00,1","SYN100AAXX  05064 08044 11970 03504 10187 20127 30076 40204 51002 60002 700/0 333 20165 50204 55129 70000;","Q01  00002PRCP24Q02  00002PRCP12"
"08044099999","2010-07-05T09:00:00","4","42.4333333","-8.6166666","108.0","PONTEVEDRA, SP","FM-12","99999","V020","320,1,N,0051,1","22000,1,9,N","020000,1,N,1","+0241,1","+0164,1","10207,1",,,,,"00,1,+99999,9,99,9","00,99,1,00,1,00,1,99999,9,00,1,00,1",,,,,"99999,9,10082,1","3,1,006,1,+999,9",,"SYN060AAXX  05094 08044 42970 03210 10241 20164 30082 40207 53006;",
"08044099999","2010-07-05T12:00:00","4","42.4333333","-8.6166666","108.0","PONTEVEDRA, SP","FM-12","99999","V020","350,1,N,0041,1","22000,1,9,N","025000,1,N,1","+0289,1","+0171,1","10206,1","06,0000,9,1",,,,"00,1,+99999,9,99,9","00,99,1,00,1,00,1,99999,9,00,1,00,1",,,,,"99999,9,10083,1","0,1,001,1,+999,9",,"SYN066AAXX  05124 08044 12975 03508 10289 20171 30083 40206 50001 60001;","Q01  00002PRCP06"
"08044099999","2010-07-05T15:00:00","4","42.4333333","-8.6166666","108.0","PONTEVEDRA, SP","FM-12","99999","V020","020,1,N,0031,1","22000,1,9,N","025000,1,N,1","+0304,1","+0153,1","10200,1",,,,,"00,1,+99999,9,99,9","00,99,1,00,1,00,1,99999,9,00,1,00,1",,,,,"99999,9,10077,1","7,1,006,1,+999,9",,"SYN060AAXX  05154 08044 42975 00206 10304 20153 30077 40200 57006;",
"08044099999","2010-07-05T18:00:00","4","42.4333333","-8.6166666","108.0","PONTEVEDRA, SP","FM-12","99999","V020","340,1,N,0031,1","22000,1,9,N","020000,1,N,1","+0282,1","+0158,1","10199,1","12,0000,9,1",,,,"00,1,+99999,9,99,9","00,99,1,00,1,00,1,99999,9,00,1,00,1",,,,"999,M,+0310,1","99999,9,10075,1","6,1,002,1,+999,9",,"SYN076AAXX  05184 08044 12970 03406 10282 20158 30075 40199 56002 60002 333 10310;","Q01  00002PRCP12"
"08044099999","2010-07-06T06:00:00","4","42.4333333","-8.6166666","108.0","PONTEVEDRA, SP","FM-12","99999","V020","010,1,N,0026,1","22000,1,9,N","025000,1,N,1","+0180,1","+0131,1","10201,1","12,0000,9,1","24,0000,9,1",,,"00,1,+99999,9,99,9","00,99,1,00,1,00,1,99999,9,00,1,00,1","0756,9",,,"999,N,+0177,1","99999,9,10073,1","6,1,007,1,+999,9",,"SYN094AAXX  06064 08044 12975 00105 10180 20131 30073 40201 56007 60002 333 20177 50354 55126 70000;","Q01  00002PRCP24Q02  00002PRCP12"
"08044099999","2010-07-06T09:00:00","4","42.4333333","-8.6166666","108.0","PONTEVEDRA, SP","FM-12","99999","V020","040,1,N,0015,1","22000,1,9,N","025000,1,N,1","+0268,1","+0161,1","10192,1",,,,,"00,1,+99999,9,99,9","00,99,1,00,1,00,1,99999,9,00,1,00,1",,,,,"99999,9,10068,1","8,1,005,1,+999,9",,"SYN060AAXX  06094 08044 42975 00403 10268 20161 30068 40192 58005;",
"08044099999","2010-07-06T12:00:00","4","42.4333333","-8.6166666","108.0","PONTEVEDRA, SP","FM-12","99999","V020","300,1,N,0051,1","22000,1,9,N","025000,1,N,1","+0302,1","+0189,1","10182,1","06,0000,9,1",,,,"00,1,+99999,9,99,9","00,99,1,00,1,00,1,99999,9,00,1,00,1",,,,,"99999,9,10059,1","7,1,009,1,+999,9",,"SYN066AAXX  06124 08044 12975 03010 10302 20189 30059 40182 57009 60001;","Q01  00002PRCP06"
"08044099999","2010-07-06T15:00:00","4","42.4333333","-8.6166666","108.0","PONTEVEDRA, SP","FM-12","99999","V020","310,1,N,0051,1","22000,1,9,N","020000,1,N,1","+0326,1","+0205,1","10165,1",,,,,,"01,99,1,00,1,00,1,99999,9,00,1,01,1",,,,,"99999,9,10044,1","7,1,015,1,+999,9",,"SYN066AAXX  06154 08044 42970 13110 10326 20205 30044 40165 57015 80001;",
"08044099999","2010-07-06T18:00:00","4","42.4333333","-8.6166666","108.0","PONTEVEDRA, SP","FM-12","99999","V020","330,1,N,0031,1","22000,1,9,N","015000,1,N,1","+0309,1","+0205,1","10157,1","12,0000,9,1",,,,"00,1,+99999,9,99,9","00,99,1,00,1,00,1,99999,9,00,1,00,1",,,,"999,M,+0332,1","99999,9,10035,1","6,1,009,1,+999,9",,"SYN076AAXX  06184 08044 12965 03306 10309 20205 30035 40157 56009 60002 333 10332;","Q01  00002PRCP12"
"08044099999","2010-07-07T06:00:00","4","42.4333333","-8.6166666","108.0","PONTEVEDRA, SP","FM-12","99999","V020","060,1,N,0010,1","22000,1,9,N","025000,1,N,1","+0183,1","+0163,1","10151,1","12,0000,9,1","24,0000,9,1",,,,"02,99,1,00,1,00,1,99999,9,00,1,01,1","0762,9",,,"999,N,+0180,1","99999,9,10024,1","4,1,000,1,+999,9","02,1","SYN106AAXX  07064 08044 11975 20602 10183 20163 30024 40151 54000 60002 702// 80001 333 20180 50324 55127 70000;","Q01  00002PRCP24Q02  00002PRCP12"
"08044099999","2010-07-07T09:00:00","4","42.4333333","-8.6166666","108.0","PONTEVEDRA, SP","FM-12","99999","V020","200,1,N,0015,1","09000,1,9,N","020000,1,N,1","+0261,1","+0200,1","10148,1",,,,,,"06,99,1,03,1,00,1,01750,1,04,1,02,1",,,,,"99999,9,10024,1","4,1,000,1,+999,9",,"SYN066AAXX  07094 08044 42770 62003 10261 20200 30024 40148 54000 83042;",
"08044099999","2010-07-07T12:00:00","4","42.4333333","-8.6166666","108.0","PONTEVEDRA, SP","FM-12","99999","V020","170,1,N,0015,1","99999,9,9,N","020000,1,N,1","+0288,1","+0203,1","10147,1","06,0000,9,1",,,,,"05,99,1,00,1,00,1,99999,9,00,1,02,1",,,,,"99999,9,10024,1","0,1,000,1,+999,9",,"SYN072AAXX  07124 08044 12970 51703 10288 20203 30024 40147 50000 60001 80002;","Q01  00002PRCP06"
"08044099999","2010-07-07T15:00:00","4","42.4333333","-8.6166666","108.0","PONTEVEDRA, SP","FM-12","99999","V020","170,1,N,0010,1","22000,1,9,N","020000,1,N,1","+0294,1","+9999,9","10142,1",,,,,,"01,99,1,00,1,00,1,99999,9,00,1,01,1",,,,,"99999,9,10019,1","6,1,005,1,+999,9",,"SYN066AAXX  07154 08044 42970 11702 10294 21141 30019 40142 56005 80001;","Q01-001413ATOD  Q02 -01413ATOD  "
"08044099999","2010-07-07T18:00:00","4","42.4333333","-8.6166666","108.0","PONTEVEDRA, SP","FM-12","99999","V020","190,1,N,0015,1","99999,9,9,N","020000,1,N,1","+0280,1","+0195,1","10134,1","12,0000,9,1",,,,,"06,99,1,00,1,00,1,99999,9,00,1,02,1",,,,"999,M,+0301,1","99999,9,10011,1","7,1,008,1,+999,9",,"SYN082AAXX  07184 08044 12970 61903 10280 20195 30011 40134 57008 60002 80002 333 10301;","Q01  00002PRCP12"
"08044099999","2010-07-08T06:00:00","4","42.4333333","-8.6166666","108.0","PONTEVEDRA, SP","FM-12","99999","V020","999,9,9,9999,9","00600,1,9,N","020000,1,N,1","+0200,1","+0193,1","10136,1","12,0099,9,1","24,0099,9,1","8,1,06,1","2,1,06,1","06,1,+00600,1,09,1","08,99,1,06,1,03,1,00800,1,00,1,03,1","0612,9",,,"999,N,+0198,1","99999,9,10010,1","3,1,008,1,+999,9","97,1","SYN112AAXX  08064 08044 11570 8//// 10200 20193 30010 40136 53008 60102 79782 86303 333 20198 50414 55102 70100 86920;",
"08044099999","2010-07-08T09:00:00","4","42.4333333","-8.6166666","108.0","PONTEVEDRA, SP","FM-12","99999","V020","999,9,9,9999,9","99999,9,9,N","020000,1,N,1","+0248,1","+0183,1","10129,1",,,"9,1,03,1","2,1,03,1",,"06,99,1,00,1,00,1,99999,9,00,1,03,1",,,,,"99999,9,10005,1","8,1,005,1,+999,9","01,1","SYN072AAXX  08094 08044 41970 6//// 10248 20183 30005 40129 58005 70192 80003;",
"08044099999","2010-07-08T12:00:00","4","42.4333333","-8.6166666","108.0","PONTEVEDRA, SP","FM-12","99999","V020","220,1,N,0015,1","22000,1,9,N","012000,1,N,1","+0249,1","+0174,1","10137,1","06,0000,2,1",,"8,1,06,1","1,1,06,1",,"03,99,1,00,1,00,1,99999,9,00,1,02,1",,,,,"99999,9,10013,1","3,1,008,1,+999,9","02,1","SYN078AAXX  08124 08044 11962 32203 10249 20174 30013 40137 53008 69901 70281 80002;",
"08044099999","2010-07-08T15:00:00","4","42.4333333","-8.6166666","108.0","PONTEVEDRA, SP","FM-12","99999","V020","260,1,N,0015,1","03600,1,9,N","010000,1,N,1","+0234,1","+0191,1","10146,1",,,,,"03,1,+00300,1,09,1","05,99,1,04,1,03,1,00450,1,04,1,00,1",,,,,"99999,9,10021,1","0,1,008,1,+999,9",,"SYN076AAXX  08154 08044 42460 52603 10234 20191 30021 40146 50008 84340 333 83910;",
"08044099999","2010-07-08T18:00:00","4","42.4333333","-8.6166666","108.0","PONTEVEDRA, SP","FM-12","99999","V020","160,1,N,0021,1","00270,1,9,N","008000,1,N,1","+0218,1","+0178,1","10146,1","12,0000,2,1",,"1,1,06,1","1,1,06,1","05,1,+00270,1,09,1","08,99,1,06,1,09,1,00250,1,07,1,99,9",,,,"120,M,+0282,1","99999,9,10020,1","8,1,001,1,+999,9","95,1","SYN094AAXX  08184 08044 11358 81604 10218 20178 30020 40146 58001 69902 79511 8697/ 333 10282 85909;",
"08044099999","2010-07-09T06:00:00","4","42.4333333","-8.6166666","108.0","PONTEVEDRA, SP","FM-12","99999","V020","310,1,N,0005,1","00210,1,9,N","002000,1,N,1","+0174,1","+0168,1","10194,1","12,0020,9,2","24,0018,9,2",,,,"08,99,1,08,1,07,1,00250,1,99,9,99,9","0318,9",,,"999,N,+0165,1","99999,9,10066,1","3,1,008,1,+999,9","50,1","SYN106AAXX  09064 08044 11320 83101 10174 20168 30066 40194 53008 60022 750/5 887// 333 20165 50194 55053 70017;",
"08044099999","2010-07-09T09:00:00","4","42.4333333","-8.6166666","108.0","PONTEVEDRA, SP","FM-12","99999","V020","190,1,N,0005,1","00420,1,9,N","008000,1,N,1","+0196,1","+0183,1","10205,1",,,"2,1,03,1","2,1,03,1",,"06,99,1,06,1,05,1,00450,1,00,1,00,1",,,,,"99999,9,10078,1","1,1,012,1,+999,9","10,1","SYN072AAXX  09094 08044 41458 61901 10196 20183 30078 40205 51012 71022 86500;",
"08044099999","2010-07-09T12:00:00","4","42.4333333","-8.6166666","108.0","PONTEVEDRA, SP","FM-12","99999","V020","270,1,N,0015,1","22000,1,9,N","012000,1,N,1","+0246,1","+0185,1","10206,1","06,0000,2,1",,"5,1,06,1","1,1,06,1",,"01,99,1,01,1,05,1,00800,1,00,1,00,1",,,,,"99999,9,10081,1","1,1,003,1,+999,9","01,1","SYN078AAXX  09124 08044 11562 12703 10246 20185 30081 40206 51003 69901 70151 81500;",
"08044099999","2010-07-09T15:00:00","4","42.4333333","-8.6166666","108.0","PONTEVEDRA, SP","FM-12","99999","V020","260,1,N,0021,1","22000,1,9,N","015000,1,N,1","+0226,1","+0171,1","10206,1",,,,,"00,1,+99999,9,99,9","00,99,1,00,1,00,1,99999,9,00,1,00,1",,,,,"99999,9,10080,1","8,1,001,1,+999,9",,"SYN060AAXX  09154 08044 42965 02604 10226 20171 30080 40206 58001;",
"08044099999","2010-07-09T18:00:00","4","42.4333333","-8.6166666","108.0","PONTEVEDRA, SP","FM-12","99999","V020","250,1,N,0015,1","22000,1,9,N","015000,1,N,1","+0222,1","+0169,1","10206,1","12,0000,2,1",,,,"00,1,+99999,9,99,9","00,99,1,00,1,00,1,99999,9,00,1,00,1",,,,"999,M,+0248,1","99999,9,10080,1","4,1,000,1,+999,9",,"SYN076AAXX  09184 08044 12965 02503 10222 20169 30080 40206 54000 69902 333 10248;",
"08044099999","2010-07-10T06:00:00","4","42.4333333","-8.6166666","108.0","PONTEVEDRA, SP","FM-12","99999","V020","999,9,C,0000,1","22000,1,9,N","015000,1,N,1","+0150,1","+0144,1","10209,1","12,0000,9,1","24,0000,2,1",,,"00,1,+99999,9,99,9","00,99,1,00,1,00,1,99999,9,00,1,00,1","0612,9",,,"999,N,+0150,1","99999,9,10079,1","4,1,000,1,+999,9","02,1","SYN100AAXX  10064 08044 11965 00000 10150 20144 30079 40209 54000 60002 702// 333 20150 50114 55102 79999;","Q01  00002PRCP12"
"08044099999","2010-07-10T09:00:00","4","42.4333333","-8.6166666","108.0","PONTEVEDRA, SP","FM-12","99999","V020","270,1,N,0021,1","22000,1,9,N","020000,1,N,1","+0218,1","+0165,1","10206,1",,,,,,"01,99,1,01,1,00,1,01750,1,05,1,00,1",,,,,"99999,9,10080,1","0,1,001,1,+999,9",,"SYN066AAXX  10094 08044 42770 12704 10218 20165 30080 40206 50001 81050;",
"08044099999","2010-07-10T12:00:00","4","42.4333333","-8.6166666","108.0","PONTEVEDRA, SP","FM-12","99999","V020","240,1,N,0015,1","22000,1,9,N","020000,1,N,1","+0240,1","+0147,1","10206,1","06,0000,9,1",,,,,"01,99,1,00,1,00,1,99999,9,00,1,02,1",,,,,"99999,9,10080,1","0,1,000,1,+999,9",,"SYN072AAXX  10124 08044 12970 12403 10240 20147 30080 40206 50000 60001 80002;","Q01  00002PRCP06"
"08044099999","2010-07-10T15:00:00","4","42.4333333","-8.6166666","108.0","PONTEVEDRA, SP","FM-12","99999","V020","230,1,N,0015,1","22000,1,9,N","020000,1,N,1","+0226,1","+0164,1","10207,1",,,,,,"02,99,1,01,1,01,1,00450,1,00,1,02,1",,,,,"99999,9,10081,1","3,1,001,1,+999,9",,"SYN066AAXX  10154 08044 42470 22303 10226 20164 30081 40207 53001 81102;",
"08044099999","2010-07-10T18:00:00","4","42.4333333","-8.6166666","108.0","PONTEVEDRA, SP","FM-12","99999","V020","250,1,N,0021,1","22000,1,9,N","020000,1,N,1","+0216,1","+0168,1","10200,1","12,0000,9,1",,,,,"01,99,1,00,1,00,1,99999,9,00,1,02,1",,,,"999,M,+0252,1","99999,9,10074,1","8,1,007,1,+999,9",,"SYN082AAXX  10184 08044 12970 12504 10216 20168 30074 40200 58007 60002 80002 333 10252;","Q01  00002PRCP12"
"08044099999","2010-07-11T06:00:00","4","42.4333333","-8.6166666","108.0","PONTEVEDRA, SP","FM-12","99999","V020","080,1,N,0010,1","22000,1,9,N","005000,1,N,1","+0148,1","+0133,1","10199,1","12,0000,9,1","24,0000,9,1",,,,"02,99,1,01,1,05,1,00250,1,00,1,02,1","0774,9",,,"999,N,+0144,1","99999,9,10069,1","6,1,002,1,+999,9","10,1","SYN106AAXX  11064 08044 11350 20802 10148 20133 30069 40199 56002 60002 710// 81502 333 20144 50144 55129 70000;","Q01  00002PRCP24Q02  00002PRCP12"
"08044099999","2010-07-11T09:00:00","4","42.4333333","-8.6166666","108.0","PONTEVEDRA, SP","FM-12","99999","V020","180,1,N,0015,1","22000,1,9,N","020000,1,N,1","+0218,1","+0174,1","10193,1",,,,,,"02,99,1,01,1,01,1,00450,1,00,1,02,1",,,,,"99999,9,10067,1","8,1,002,1,+999,9",,"SYN066AAXX  11094 08044 42470 21803 10218 20174 30067 40193 58002 81102;",
"08044099999","2010-07-11T12:00:00","4","42.4333333","-8.6166666","108.0","PONTEVEDRA, SP","FM-12","99999","V020","270,1,N,0031,1","22000,1,9,N","020000,1,N,1","+0224,1","+0175,1","10188,1","06,0000,9,1",,,,,"05,99,1,01,1,02,1,00450,1,00,1,06,1",,,,,"99999,9,10062,1","8,1,005,1,+999,9",,"SYN072AAXX  11124 08044 12470 52706 10224 20175 30062 40188 58005 60001 81206;","Q01  00002PRCP06"
"08044099999","2010-07-11T15:00:00","4","42.4333333","-8.6166666","108.0","PONTEVEDRA, SP","FM-12","99999","V020","250,1,N,0015,1","22000,1,9,N","015000,1,N,1","+0228,1","+0181,1","10183,1",,,,,,"06,99,1,02,1,08,1,00450,1,00,1,06,1",,,,,"99999,9,10057,1","8,1,005,1,+999,9",,"SYN066AAXX  11154 08044 42465 62503 10228 20181 30057 40183 58005 82806;",
"08044099999","2010-07-11T18:00:00","4","42.4333333","-8.6166666","108.0","PONTEVEDRA, SP","FM-12","99999","V020","240,1,N,0010,1","00600,1,9,N","010000,1,N,1","+0202,1","+0172,1","10182,1","12,0000,9,1",,,,,"08,99,1,08,1,08,1,00250,1,99,9,99,9",,,,"999,M,+0245,1","99999,9,10055,1","5,1,002,1,+999,9",,"SYN082AAXX  11184 08044 12360 82402 10202 20172 30055 40182 55002 60002 888// 333 10245;","Q01  00002PRCP12"
"08044099999","2010-07-12T06:00:00","4","42.4333333","-8.6166666","108.0","PONTEVEDRA, SP","FM-12","99999","V020","160,1,N,0010,1","03600,1,9,N","010000,1,N,1","+0158,1","+0143,1","10186,1","12,0000,9,1","24,0000,9,1",,,,"05,99,1,03,1,08,1,00250,1,05,1,02,1","0588,9",,,"999,N,+0150,1","99999,9,10057,1","3,1,002,1,+999,9","02,1","SYN106AAXX  12064 08044 11360 51602 10158 20143 30057 40186 53002 60002 702// 83852 333 20150 50124 55098 70000;","Q01  00002PRCP24Q02  00002PRCP12"
"08044099999","2010-07-12T09:00:00","4","42.4333333","-8.6166666","108.0","PONTEVEDRA, SP","FM-12","99999","V020","170,1,N,0021,1","00900,1,9,N","020000,1,N,1","+0190,1","+0153,1","10190,1",,,,,,"07,99,1,07,1,08,1,00450,1,99,9,99,9",,,,,"99999,9,10063,1","0,1,006,1,+999,9",,"SYN066AAXX  12094 08044 42470 71704 10190 20153 30063 40190 50006 878//;",
"08044099999","2010-07-12T12:00:00","4","42.4333333","-8.6166666","108.0","PONTEVEDRA, SP","FM-12","99999","V020","300,1,N,0010,1","03600,1,9,N","020000,1,N,1","+0200,1","+0150,1","10195,1","06,0000,9,1",,,,,"08,99,1,03,1,08,1,00450,1,07,1,99,9",,,,,"99999,9,10068,1","1,1,005,1,+999,9",,"SYN072AAXX  12124 08044 12470 83002 10200 20150 30068 40195 51005 60001 8387/;","Q01  00002PRCP06"
"08044099999","2010-07-12T15:00:00","4","42.4333333","-8.6166666","108.0","PONTEVEDRA, SP","FM-12","99999","V020","260,1,N,0015,1","00900,1,9,N","020000,1,N,1","+0206,1","+0166,1","10187,1",,,,,,"08,99,1,05,1,08,1,00450,1,07,1,99,9",,,,,"99999,9,10060,1","8,1,008,1,+999,9",,"SYN066AAXX  12154 08044 42470 82603 10206 20166 30060 40187 58008 8587/;",
"08044099999","2010-07-12T18:00:00","4","42.4333333","-8.6166666","108.0","PONTEVEDRA, SP","FM-12","99999","V020","210,1,N,0015,1","00120,1,9,N","003000,1,N,1","+0194,1","+0175,1","10183,1","12,9999,9,9",,"5,1,06,1","4,1,06,1",,"08,99,1,06,1,06,1,00150,1,07,1,99,9",,,,"999,M,+0216,1","99999,9,10056,1","8,1,004,1,+999,9","50,1","SYN088AAXX  12184 08044 11230 82103 10194 20175 30056 40183 58004 69902 75054 8667/ 333 10216;","Q01  00002PRCP12Q02  00002PRCP12"
"08044099999","2010-07-13T06:00:00","4","42.4333333","-8.6166666","108.0","PONTEVEDRA, SP","FM-12","99999","V020","140,1,N,0010,1","00210,1,9,N","006000,1,N,1","+0168,1","+0162,1","10158,1","12,0051,9,1","24,0053,9,1",,,,"06,99,1,05,1,05,1,00250,1,03,1,00,1","0066,9",,,"999,N,+0165,1","99999,9,10030,1","6,1,003,1,+999,9","11,1","SYN106AAXX  13064 08044 11356 61402 10168 20162 30030 40158 56003 60052 711// 85530 333 20165 50074 55011 70054;",
"08044099999","2010-07-13T09:00:00","4","42.4333333","-8.6166666","108.0","PONTEVEDRA, SP","FM-12","99999","V020","270,1,N,0010,1","00900,1,9,N","012000,1,N,1","+0186,1","+0169,1","10159,1",,,,,,"06,99,1,06,1,08,1,00450,1,00,1,00,1",,,,,"99999,9,10032,1","1,1,002,1,+999,9",,"SYN066AAXX  13094 08044 42462 62702 10186 20169 30032 40159 51002 86800;",
"08044099999","2010-07-13T12:00:00","4","42.4333333","-8.6166666","108.0","PONTEVEDRA, SP","FM-12","99999","V020","280,1,N,0015,1","00900,1,9,N","020000,1,N,1","+0188,1","+0147,1","10156,1","06,0000,9,1",,,,,"07,99,1,07,1,08,1,00450,1,99,9,99,9",,,,,"99999,9,10029,1","8,1,003,1,+999,9",,"SYN072AAXX  13124 08044 12470 72803 10188 20147 30029 40156 58003 60001 878//;","Q01  00002PRCP06"
"08044099999","2010-07-13T15:00:00","4","42.4333333","-8.6166666","108.0","PONTEVEDRA, SP","FM-12","99999","V020","270,1,N,0021,1","22000,1,9,N","020000,1,N,1","+0210,1","+0146,1","10147,1",,,,,,"03,99,1,02,1,08,1,00450,1,05,1,00,1",,,,,"99999,9,10021,1","8,1,008,1,+999,9",,"SYN066AAXX  13154 08044 42470 32704 10210 20146 30021 40147 58008 82850;",
"08044099999","2010-07-13T18:00:00","4","42.4333333","-8.6166666","108.0","PONTEVEDRA, SP","FM-12","99999","V020","270,1,N,0021,1","03600,1,9,N","015000,1,N,1","+0194,1","+0146,1","10138,1","12,0000,9,1",,,,,"05,99,1,04,1,08,1,00450,1,04,1,02,1",,,,"999,M,+0215,1","99999,9,10011,1","5,1,010,1,+999,9",,"SYN082AAXX  13184 08044 12465 52704 10194 20146 30011 40138 55010 60002 84842 333 10215;","Q01  00002PRCP12"
"08044099999","2010-07-14T06:00:00","4","42.4333333","-8.6166666","108.0","PONTEVEDRA, SP","FM-12","99999","V020","150,1,N,0021,1","03600,1,9,N","012000,1,N,1","+0154,1","+0149,1","10132,1","12,0041,9,2","24,0036,9,2",,,,"05,99,1,03,1,02,1,00450,1,05,1,00,1","0228,9",,,"999,N,+0154,1","99999,9,10004,1","3,1,003,1,+999,9","02,1","SYN106AAXX  14064 08044 11462 51504 10154 20149 30004 40132 53003 60042 702// 83250 333 20154 50104 55038 70036;",
"08044099999","2010-07-14T09:00:00","4","42.4333333","-8.6166666","108.0","PONTEVEDRA, SP","FM-12","99999","V020","240,1,N,0021,1","00420,1,9,N","015000,1,N,1","+0180,1","+0165,1","10147,1",,,"8,1,03,1","2,1,03,1",,"06,99,1,05,1,02,1,00450,1,05,1,00,1",,,,,"99999,9,10020,1","1,1,016,1,+999,9","02,1","SYN072AAXX  14094 08044 41465 62404 10180 20165 30020 40147 51016 70282 85250;",
"08044099999","2010-07-14T12:00:00","4","42.4333333","-8.6166666","108.0","PONTEVEDRA, SP","FM-12","99999","V020","150,1,N,0015,1","03600,1,9,N","015000,1,N,1","+0194,1","+0146,1","10164,1","06,0005,9,1",,"8,1,06,1","2,1,06,1",,"06,99,1,04,1,02,1,00450,1,05,1,02,1",,,,,"99999,9,10037,1","1,1,017,1,+999,9","02,1","SYN078AAXX  14124 08044 11465 61503 10194 20146 30037 40164 51017 69941 70282 84252;",
"08044099999","2010-07-14T15:00:00","4","42.4333333","-8.6166666","108.0","PONTEVEDRA, SP","FM-12","99999","V020","240,1,N,0015,1","03600,1,9,N","020000,1,N,1","+0200,1","+0141,1","10169,1",,,,,,"05,99,1,04,1,02,1,00450,1,04,1,02,1",,,,,"99999,9,10042,1","3,1,005,1,+999,9",,"SYN066AAXX  14154 08044 42470 52403 10200 20141 30042 40169 53005 84242;",
"08044099999","2010-07-14T18:00:00","4","42.4333333","-8.6166666","108.0","PONTEVEDRA, SP","FM-12","99999","V020","280,1,N,0026,1","03600,1,9,N","015000,1,N,1","+0184,1","+0147,1","10173,1","12,0005,9,1",,,,,"05,99,1,04,1,02,1,00450,1,04,1,00,1",,,,"999,M,+0210,1","99999,9,10045,1","1,1,003,1,+999,9",,"SYN082AAXX  14184 08044 12465 52805 10184 20147 30045 40173 51003 69942 84240 333 10210;",
"08044099999","2010-07-15T06:00:00","4","42.4333333","-8.6166666","108.0","PONTEVEDRA, SP","FM-12","99999","V020","060,1,N,0021,1","22000,1,9,N","015000,1,N,1","+0122,1","+0109,1","10187,1","12,0000,9,1","24,0005,9,1",,,,"02,99,1,02,1,08,1,00250,1,00,1,00,1","0168,9",,,"999,N,+0120,1","99999,9,10056,1","4,1,000,1,+999,9","02,1","SYN106AAXX  15064 08044 11365 20604 10122 20109 30056 40187 54000 60002 702// 82800 333 20120 50104 55028 70004;","Q01  00002PRCP12"
"08044099999","2010-07-15T09:00:00","4","42.4333333","-8.6166666","108.0","PONTEVEDRA, SP","FM-12","99999","V020","180,1,N,0010,1","00210,1,9,N","015000,1,N,1","+0172,1","+0139,1","10185,1",,,,,,"05,99,1,05,1,05,1,00250,1,00,1,00,1",,,,,"99999,9,10057,1","1,1,001,1,+999,9",,"SYN066AAXX  15094 08044 42365 51802 10172 20139 30057 40185 51001 85500;",
"08044099999","2010-07-15T12:00:00","4","42.4333333","-8.6166666","108.0","PONTEVEDRA, SP","FM-12","99999","V020","250,1,N,0021,1","22000,1,9,N","020000,1,N,1","+0208,1","+0142,1","10182,1","06,0000,9,1",,,,,"02,99,1,02,1,05,1,00250,1,00,1,00,1",,,,,"99999,9,10055,1","6,1,002,1,+999,9",,"SYN072AAXX  15124 08044 12370 22504 10208 20142 30055 40182 56002 60001 82500;","Q01  00002PRCP06"
"08044099999","2010-07-15T15:00:00","4","42.4333333","-8.6166666","108.0","PONTEVEDRA, SP","FM-12","99999","V020","230,1,N,0021,1","22000,1,9,N","020000,1,N,1","+0200,1","+0141,1","10181,1",,,,,,"02,99,1,02,1,05,1,00250,1,04,1,00,1",,,,,"99999,9,10054,1","8,1,001,1,+999,9",,"SYN066AAXX  15154 08044 42370 22304 10200 20141 30054 40181 58001 82540;",
"08044099999","2010-07-15T18:00:00","4","42.4333333","-8.6166666","108.0","PONTEVEDRA, SP","FM-12","99999","V020","260,1,N,0015,1","00420,1,9,N","017000,1,N,1","+0196,1","+0150,1","10179,1","12,0000,9,1",,,,,"07,99,1,07,1,05,1,00450,1,99,9,99,9",,,,"999,M,+0218,1","99999,9,10052,1","8,1,002,1,+999,9",,"SYN082AAXX  15184 08044 12467 72603 10196 20150 30052 40179 58002 60002 875// 333 10218;","Q01  00002PRCP12"
"08044099999","2010-07-16T06:00:00","4","42.4333333","-8.6166666","108.0","PONTEVEDRA, SP","FM-12","99999","V020","270,1,N,0015,1","00210,1,9,N","005000,1,N,1","+0177,1","+0174,1","10184,1","12,0119,9,1","24,0119,9,1",,,,"08,99,1,06,1,05,1,00250,1,07,1,99,9","0522,9",,,"999,N,+0167,1","99999,9,10056,1","3,1,004,1,+999,9","58,1","SYN106AAXX  16064 08044 11350 82703 10177 20174 30056 40184 53004 60122 758// 8657/ 333 20167 50134 55087 70120;",
"08044099999","2010-07-16T09:00:00","4","42.4333333","-8.6166666","108.0","PONTEVEDRA, SP","FM-12","99999","V020","320,1,N,0036,1","00600,1,9,N","006000,1,N,1","+0164,1","+0156,1","10205,1",,,"6,1,03,1","5,1,03,1",,"07,99,1,07,1,08,1,00250,1,99,9,99,9",,,,,"99999,9,10076,1","2,1,020,1,+999,9","21,1","SYN072AAXX  16094 08044 41356 73207 10164 20156 30076 40205 52020 72165 878//;",
"08044099999","2010-07-16T12:00:00","4","42.4333333","-8.6166666","108.0","PONTEVEDRA, SP","FM-12","99999","V020","280,1,N,0026,1","22000,1,9,N","020000,1,N,1","+0212,1","+0153,1","10206,1","06,0003,9,1",,"6,1,06,1","2,1,06,1",,"04,99,1,04,1,01,1,00250,1,00,1,00,1",,,,,"99999,9,10079,1","0,1,003,1,+999,9","02,1","SYN078AAXX  16124 08044 11370 42805 10212 20153 30079 40206 50003 69931 70262 84100;",
"08044099999","2010-07-16T15:00:00","4","42.4333333","-8.6166666","108.0","PONTEVEDRA, SP","FM-12","99999","V020","270,1,N,0021,1","22000,1,9,N","020000,1,N,1","+0214,1","+0148,1","10206,1",,,,,,"02,99,1,02,1,05,1,00250,1,00,1,00,1",,,,,"99999,9,10079,1","4,1,000,1,+999,9",,"SYN066AAXX  16154 08044 42370 22704 10214 20148 30079 40206 54000 82500;",
"08044099999","2010-07-16T18:00:00","4","42.4333333","-8.6166666","108.0","PONTEVEDRA, SP","FM-12","99999","V020","200,1,N,0010,1","22000,1,9,N","018000,1,N,1","+0205,1","+0144,1","10206,1","12,0003,9,1",,,,,"03,99,1,01,1,05,1,00450,1,00,1,02,1",,,,"999,M,+0225,1","99999,9,10079,1","4,1,000,1,+999,9",,"SYN082AAXX  16184 08044 12468 32002 10205 20144 30079 40206 54000 69932 81502 333 10225;",
"08044099999","2010-07-17T06:00:00","4","42.4333333","-8.6166666","108.0","PONTEVEDRA, SP","FM-12","99999","V020","150,1,N,0010,1","22000,1,9,N","020000,1,N,1","+0120,1","+0106,1","10228,1","12,0000,9,1","24,0003,9,1",,,,"02,99,1,00,1,00,1,99999,9,00,1,02,1","0498,9",,,"999,N,+0117,1","99999,9,10097,1","3,1,004,1,+999,9","02,1","SYN106AAXX  17064 08044 11970 21502 10120 20106 30097 40228 53004 60002 702// 80002 333 20117 50144 55083 70003;","Q01  00002PRCP12"
"08044099999","2010-07-17T12:00:00","4","42.4333333","-8.6166666","108.0","PONTEVEDRA, SP","FM-12","99999","V020","320,1,N,0041,1","22000,1,9,N","020000,1,N,1","+0252,1","+0140,1","10222,1","06,0000,9,1",,,,,"01,99,1,00,1,00,1,99999,9,00,1,01,1",,,,,"99999,9,10097,1","6,1,005,1,+999,9",,"SYN072AAXX  17124 08044 12970 13208 10252 20140 30097 40222 56005 60001 80001;","Q01  00002PRCP06"
"08044099999","2010-07-17T15:00:00","4","42.4333333","-8.6166666","108.0","PONTEVEDRA, SP","FM-12","99999","V020","350,1,N,0036,1","22000,1,9,N","020000,1,N,1","+0269,1","+0146,1","10211,1",,,,,"00,1,+99999,9,99,9","00,99,1,00,1,00,1,99999,9,00,1,00,1",,,,,"99999,9,10087,1","8,1,010,1,+999,9",,"SYN060AAXX  17154 08044 42970 03507 10269 20146 30087 40211 58010;",
"08044099999","2010-07-17T18:00:00","4","42.4333333","-8.6166666","108.0","PONTEVEDRA, SP","FM-12","99999","V020","350,1,N,0041,1","22000,1,9,N","020000,1,N,1","+0257,1","+0139,1","10204,1","12,0000,9,1",,,,"00,1,+99999,9,99,9","00,99,1,00,1,00,1,99999,9,00,1,00,1",,,,"999,M,+0272,1","99999,9,10079,1","7,1,008,1,+999,9",,"SYN076AAXX  17184 08044 12970 03508 10257 20139 30079 40204 57008 60002 333 10272;","Q01  00002PRCP12"
"08044099999","2010-07-18T06:00:00","4","42.4333333","-8.6166666","108.0","PONTEVEDRA, SP","FM-12","99999","V020","160,1,N,0010,1","22000,1,9,N","020000,1,N,1","+0138,1","+0122,1","10197,1","12,0000,9,1","24,0000,9,1",,,"00,1,+99999,9,99,9","00,99,1,00,1,00,1,99999,9,00,1,00,1","0798,9",,,"999,N,+0136,1","99999,9,10067,1","6,1,003,1,+999,9","02,1","SYN100AAXX  18064 08044 11970 01602 10138 20122 30067 40197 56003 60002 702// 333 20136 50334 55133 70000;","Q01  00002PRCP24Q02  00002PRCP12"
"08044099999","2010-07-18T12:00:00","4","42.4333333","-8.6166666","108.0","PONTEVEDRA, SP","FM-12","99999","V020","210,1,N,0010,1","22000,1,9,N","020000,1,N,1","+0285,1","+0192,1","10186,1","06,0000,9,1",,,,"00,1,+99999,9,99,9","00,99,1,00,1,00,1,99999,9,00,1,00,1",,,,,"99999,9,10063,1","6,1,003,1,+999,9",,"SYN066AAXX  18124 08044 12970 02102 10285 20192 30063 40186 56003 60001;","Q01  00002PRCP06"
"08044099999","2010-07-18T15:00:00","4","42.4333333","-8.6166666","108.0","PONTEVEDRA, SP","FM-12","99999","V020","200,1,N,0010,1","22000,1,9,N","020000,1,N,1","+0264,1","+0163,1","10185,1",,,,,"00,1,+99999,9,99,9","00,99,1,00,1,00,1,99999,9,00,1,00,1",,,,,"99999,9,10061,1","8,1,002,1,+999,9",,"SYN060AAXX  18154 08044 42970 02002 10264 20163 30061 40185 58002;",
"08044099999","2010-07-18T18:00:00","4","42.4333333","-8.6166666","108.0","PONTEVEDRA, SP","FM-12","99999","V020","260,1,N,0010,1","22000,1,9,N","020000,1,N,1","+0246,1","+0161,1","10182,1","12,0000,9,1",,,,"00,1,+99999,9,99,9","00,99,1,00,1,00,1,99999,9,00,1,00,1",,,,"999,M,+0296,1","99999,9,10057,1","6,1,004,1,+999,9",,"SYN076AAXX  18184 08044 12970 02602 10246 20161 30057 40182 56004 60002 333 10296;","Q01  00002PRCP12"
"08044099999","2010-07-19T06:00:00","4","42.4333333","-8.6166666","108.0","PONTEVEDRA, SP","FM-12","99999","V020","190,1,N,0010,1","22000,1,9,N","006000,1,N,1","+0160,1","+0150,1","10193,1","12,0000,9,1","24,0000,9,1",,,,"01,99,1,01,1,06,1,00150,1,00,1,00,1","0798,9",,,"999,N,+0158,1","99999,9,10064,1","3,1,001,1,+999,9","10,1","SYN106AAXX  19064 08044 11256 11902 10160 20150 30064 40193 53001 60002 710// 81600 333 20158 50234 55133 70000;","Q01  00002PRCP24Q02  00002PRCP12"
"08044099999","2010-07-19T09:00:00","4","42.4333333","-8.6166666","108.0","PONTEVEDRA, SP","FM-12","99999","V020","300,1,N,0041,1","22000,1,9,N","015000,1,N,1","+0209,1","+0167,1","10197,1",,,,,,"02,99,1,01,1,06,1,00150,1,00,1,02,1",,,,,"99999,9,10070,1","0,1,006,1,+999,9",,"SYN066AAXX  19094 08044 42265 23008 10209 20167 30070 40197 50006 81602;",
"08044099999","2010-07-19T12:00:00","4","42.4333333","-8.6166666","108.0","PONTEVEDRA, SP","FM-12","99999","V020","290,1,N,0046,1","22000,1,9,N","020000,1,N,1","+0253,1","+0180,1","10191,1","06,0000,9,1",,,,,"01,99,1,00,1,00,1,99999,9,00,1,02,1",,,,,"99999,9,10066,1","8,1,004,1,+999,9",,"SYN072AAXX  19124 08044 12970 12909 10253 20180 30066 40191 58004 60001 80002;","Q01  00002PRCP06"
"08044099999","2010-07-19T15:00:00","4","42.4333333","-8.6166666","108.0","PONTEVEDRA, SP","FM-12","99999","V020","300,1,N,0041,1","22000,1,9,N","020000,1,N,1","+0282,1","+0180,1","10182,1",,,,,,"01,99,1,00,1,00,1,99999,9,00,1,02,1",,,,,"99999,9,10059,1","8,1,007,1,+999,9",,"SYN066AAXX  19154 08044 42970 13008 10282 20180 30059 40182 58007 80002;",
"08044099999","2010-07-19T18:00:00","4","42.4333333","-8.6166666","108.0","PONTEVEDRA, SP","FM-12","99999","V020","320,1,N,0051,1","22000,1,9,N","015000,1,N,1","+0244,1","+0169,1","10181,1","12,0000,9,1",,,,,"02,99,1,00,1,00,1,99999,9,00,1,02,1",,,,"999,M,+0283,1","99999,9,10056,1","6,1,003,1,+999,9",,"SYN082AAXX  19184 08044 12965 23210 10244 20169 30056 40181 56003 60002 80002 333 10283;","Q01  00002PRCP12"
"08044099999","2010-07-20T06:00:00","4","42.4333333","-8.6166666","108.0","PONTEVEDRA, SP","FM-12","99999","V020","320,1,N,0010,1","00210,1,9,N","004000,1,N,1","+0155,1","+0144,1","10184,1","12,0000,9,1","24,0000,9,1",,,,"07,99,1,07,1,06,1,00250,1,99,9,99,9","0798,9",,,"999,N,+0149,1","99999,9,10055,1","4,1,000,1,+999,9","10,1","SYN106AAXX  20064 08044 11340 73202 10155 20144 30055 40184 54000 60002 710// 876// 333 20149 50244 55133 70000;","Q01  00002PRCP24Q02  00002PRCP12"
"08044099999","2010-07-20T09:00:00","4","42.4333333","-8.6166666","108.0","PONTEVEDRA, SP","FM-12","99999","V020","360,1,N,0015,1","22000,1,9,N","017000,1,N,1","+0197,1","+0151,1","10179,1",,,,,,"02,99,1,02,1,05,1,00250,1,00,1,00,1",,,,,"99999,9,10052,1","8,1,003,1,+999,9",,"SYN066AAXX  20094 08044 42367 23603 10197 20151 30052 40179 58003 82500;",
"08044099999","2010-07-20T12:00:00","4","42.4333333","-8.6166666","108.0","PONTEVEDRA, SP","FM-12","99999","V020","260,1,N,0015,1","00420,1,9,N","018000,1,N,1","+0226,1","+0169,1","10171,1","06,0000,9,1",,,,,"07,99,1,07,1,05,1,00450,1,99,9,99,9",,,,,"99999,9,10045,1","6,1,007,1,+999,9",,"SYN072AAXX  20124 08044 12468 72603 10226 20169 30045 40171 56007 60001 875//;","Q01  00002PRCP06"
"08044099999","2010-07-20T15:00:00","4","42.4333333","-8.6166666","108.0","PONTEVEDRA, SP","FM-12","99999","V020","280,1,N,0031,1","03600,1,9,N","020000,1,N,1","+0233,1","+0173,1","10155,1",,,,,,"06,99,1,04,1,05,1,00450,1,07,1,00,1",,,,,"99999,9,10030,1","8,1,015,1,+999,9",,"SYN066AAXX  20154 08044 42470 62806 10233 20173 30030 40155 58015 84570;",
"08044099999","2010-07-20T18:00:00","4","42.4333333","-8.6166666","108.0","PONTEVEDRA, SP","FM-12","99999","V020","040,1,N,0010,1","00210,1,9,N","015000,1,N,1","+0201,1","+0173,1","10152,1","12,0000,9,1",,,,,"08,99,1,07,1,05,1,00250,1,07,1,99,9",,,,"999,M,+0240,1","99999,9,10026,1","8,1,004,1,+999,9",,"SYN082AAXX  20184 08044 12365 80402 10201 20173 30026 40152 58004 60002 8757/ 333 10240;","Q01  00002PRCP12"
"08044099999","2010-07-21T06:00:00","4","42.4333333","-8.6166666","108.0","PONTEVEDRA, SP","FM-12","99999","V020","030,1,N,0010,1","22000,1,9,N","020000,1,N,1","+0144,1","+0128,1","10142,1","12,0000,9,1","24,0000,9,1",,,,"03,99,1,03,1,05,1,00450,1,00,1,00,1","0276,9",,,"999,N,+0141,1","99999,9,10013,1","5,1,001,1,+999,9","02,1","SYN106AAXX  21064 08044 11470 30302 10144 20128 30013 40142 55001 69902 702// 83500 333 20141 50134 55046 79999;","Q01  00002PRCP24Q02  00002PRCP12"
"08044099999","2010-07-21T09:00:00","4","42.4333333","-8.6166666","108.0","PONTEVEDRA, SP","FM-12","99999","V020","310,1,N,0031,1","22000,1,9,N","020000,1,N,1","+0190,1","+0138,1","10145,1",,,,,,"04,99,1,04,1,08,1,00250,1,00,1,00,1",,,,,"99999,9,10018,1","1,1,005,1,+999,9",,"SYN066AAXX  21094 08044 42370 43106 10190 20138 30018 40145 51005 84800;",
"08044099999","2010-07-21T12:00:00","4","42.4333333","-8.6166666","108.0","PONTEVEDRA, SP","FM-12","99999","V020","310,1,N,0026,1","00600,1,9,N","020000,1,N,1","+0217,1","+0123,1","10145,1","06,0000,9,1",,,,,"05,99,1,05,1,08,1,00250,1,00,1,00,1",,,,,"99999,9,10019,1","3,1,001,1,+999,9",,"SYN072AAXX  21124 08044 12370 53105 10217 20123 30019 40145 53001 60001 85800;","Q01  00002PRCP06"
"08044099999","2010-07-21T15:00:00","4","42.4333333","-8.6166666","108.0","PONTEVEDRA, SP","FM-12","99999","V020","290,1,N,0051,1","09000,1,9,N","020000,1,N,1","+0228,1","+0141,1","10141,1",,,,,,"06,99,1,04,1,05,1,00450,1,00,1,02,1",,,,,"99999,9,10016,1","6,1,003,1,+999,9",,"SYN066AAXX  21154 08044 42470 62910 10228 20141 30016 40141 56003 84502;",
"08044099999","2010-07-21T18:00:00","4","42.4333333","-8.6166666","108.0","PONTEVEDRA, SP","FM-12","99999","V020","320,1,N,0041,1","22000,1,9,N","020000,1,N,1","+0214,1","+0125,1","10142,1","12,0000,9,1",,,,,"03,99,1,02,1,05,1,00450,1,00,1,08,1",,,,"999,M,+0236,1","99999,9,10016,1","4,1,000,1,+999,9",,"SYN082AAXX  21184 08044 12470 33208 10214 20125 30016 40142 54000 60002 82508 333 10236;","Q01  00002PRCP12"
"08044099999","2010-07-22T06:00:00","4","42.4333333","-8.6166666","108.0","PONTEVEDRA, SP","FM-12","99999","V020","350,1,N,0015,1","22000,1,9,N","015000,1,N,1","+0131,1","+0110,1","10168,1","12,0000,9,1","24,0000,9,1",,,,"01,99,1,01,1,05,1,00450,1,00,1,00,1","0432,9","09,9","999,+0090,9","999,N,+0125,1","99999,9,10038,1","2,1,009,1,+999,9","02,1","SYN112AAXX  22064 08044 11465 13503 10131 20110 30038 40168 52009 60002 702// 81500 333 20125 31009 50254 55072 70000;","Q01  00002PRCP24Q02  00002PRCP12"
"08044099999","2010-07-22T09:00:00","4","42.4333333","-8.6166666","108.0","PONTEVEDRA, SP","FM-12","99999","V020","010,1,N,0031,1","22000,1,9,N","015000,1,N,1","+0192,1","+0120,1","10174,1",,,,,,"01,99,1,01,1,02,1,00800,1,00,1,00,1",,,,,"99999,9,10047,1","1,1,009,1,+999,9",,"SYN066AAXX  22094 08044 42565 10106 10192 20120 30047 40174 51009 81200;",
"08044099999","2010-07-22T12:00:00","4","42.4333333","-8.6166666","108.0","PONTEVEDRA, SP","FM-12","99999","V020","310,1,N,0051,1","03600,1,9,N","020000,1,N,1","+0207,1","+0119,1","10178,1","06,0000,9,1",,,,,"06,99,1,03,1,02,1,00800,1,03,1,00,1",,,,,"99999,9,10051,1","0,1,004,1,+999,9",,"SYN072AAXX  22124 08044 12570 63110 10207 20119 30051 40178 50004 60001 83230;","Q01  00002PRCP06"
"08044099999","2010-07-22T18:00:00","4","42.4333333","-8.6166666","108.0","PONTEVEDRA, SP","FM-12","99999","V020","340,1,N,0051,1","22000,1,9,N","010000,1,N,1","+0218,1","+0115,1","10179,1","12,0000,9,1",,,,,"01,99,1,01,1,01,1,00800,1,00,1,00,1",,,,"999,M,+0240,1","99999,9,10053,1","3,1,004,1,+999,9",,"SYN082AAXX  22184 08044 12560 13410 10218 20115 30053 40179 53004 60002 81100 333 10240;","Q01  00002PRCP12"
"08044099999","2010-07-23T06:00:00","4","42.4333333","-8.6166666","108.0","PONTEVEDRA, SP","FM-12","99999","V020","220,1,N,0010,1","22000,1,9,N","020000,1,N,1","+0141,1","+0099,1","10219,1","12,0000,9,1","24,0000,9,1",,,,"01,99,1,00,1,00,1,99999,9,00,1,01,1","0648,9","01,9","999,+0110,9","999,N,+0138,1","99999,9,10089,1","3,1,001,1,+999,9","02,1","SYN112AAXX  23064 08044 11970 12202 10141 20099 30089 40219 53001 60002 702// 80001 333 20138 30011 50344 55108 70000;","Q01  00002PRCP24Q02  00002PRCP12"
"08044099999","2010-07-23T09:00:00","4","42.4333333","-8.6166666","108.0","PONTEVEDRA, SP","FM-12","99999","V020","010,1,N,0031,1","22000,1,9,N","030000,1,N,1","+0199,1","+0103,1","10227,1",,,,,,"01,99,1,01,1,05,1,00450,1,00,1,00,1",,,,,"99999,9,10099,1","2,1,010,1,+999,9",,"SYN066AAXX  23094 08044 42480 10106 10199 20103 30099 40227 52010 81500;",
"08044099999","2010-07-23T12:00:00","4","42.4333333","-8.6166666","108.0","PONTEVEDRA, SP","FM-12","99999","V020","350,1,N,0057,1","22000,1,9,N","020000,1,N,1","+0235,1","+0122,1","10224,1","06,0000,9,1",,,,,"01,99,1,01,1,01,1,00450,1,00,1,01,1",,,,,"99999,9,10098,1","8,1,001,1,+999,9",,"SYN072AAXX  23124 08044 12470 13511 10235 20122 30098 40224 58001 60001 81101;","Q01  00002PRCP06"
"08044099999","2010-07-23T15:00:00","4","42.4333333","-8.6166666","108.0","PONTEVEDRA, SP","FM-12","99999","V020","340,1,N,0046,1","22000,1,9,N","015000,1,N,1","+0258,1","+0126,1","10219,1",,,,,,"01,99,1,00,1,00,1,99999,9,00,1,01,1",,,,,"99999,9,10094,1","7,1,004,1,+999,9",,"SYN066AAXX  23154 08044 42965 13409 10258 20126 30094 40219 57004 80001;",
"08044099999","2010-07-23T18:00:00","4","42.4333333","-8.6166666","108.0","PONTEVEDRA, SP","FM-12","99999","V020","340,1,N,0046,1","22000,1,9,N","012000,1,N,1","+0250,1","+0135,1","10219,1","12,0000,9,1",,,,,"01,99,1,00,1,00,1,99999,9,00,1,01,1",,,,"999,M,+0262,1","99999,9,10094,1","5,1,000,1,+999,9",,"SYN082AAXX  23184 08044 12962 13409 10250 20135 30094 40219 55000 60002 80001 333 10262;","Q01  00002PRCP12"
"08044099999","2010-07-24T06:00:00","4","42.4333333","-8.6166666","108.0","PONTEVEDRA, SP","FM-12","99999","V020","030,1,N,0010,1","22000,1,9,N","030000,1,N,1","+0146,1","+0116,1","10227,1","12,0000,9,1","24,0000,9,1",,,,"01,99,1,00,1,00,1,99999,9,00,1,01,1","0804,9","01,9","999,+0110,9","999,N,+0135,1","99999,9,10097,1","0,1,003,1,+999,9","02,1","SYN112AAXX  24064 08044 11980 10302 10146 20116 30097 40227 50003 60002 702// 80001 333 20135 30011 50394 55134 70000;","Q01  00002PRCP24Q02  00002PRCP12"
"08044099999","2010-07-24T09:00:00","4","42.4333333","-8.6166666","108.0","PONTEVEDRA, SP","FM-12","99999","V020","310,1,N,0010,1","22000,1,9,N","020000,1,N,1","+0205,1","+0142,1","10224,1",,,,,,"01,99,1,00,1,00,1,99999,9,00,1,01,1",,,,,"99999,9,10097,1","0,1,000,1,+999,9",,"SYN066AAXX  24094 08044 42970 13102 10205 20142 30097 40224 50000 80001;",
"08044099999","2010-07-24T12:00:00","4","42.4333333","-8.6166666","108.0","PONTEVEDRA, SP","FM-12","99999","V020","300,1,N,0041,1","22000,1,9,N","020000,1,N,1","+0275,1","+0168,1","10218,1","06,0000,9,1",,,,,"01,99,1,00,1,00,1,99999,9,00,1,01,1",,,,,"99999,9,10094,1","7,1,003,1,+999,9",,"SYN072AAXX  24124 08044 12970 13008 10275 20168 30094 40218 57003 60001 80001;","Q01  00002PRCP06"
"08044099999","2010-07-24T15:00:00","4","42.4333333","-8.6166666","108.0","PONTEVEDRA, SP","FM-12","99999","V020","320,1,N,0067,1","22000,1,9,N","015000,1,N,1","+0298,1","+0166,1","10207,1",,,,,,"01,99,1,00,1,00,1,99999,9,00,1,01,1",,,,,"99999,9,10084,1","6,1,010,1,+999,9",,"SYN066AAXX  24154 08044 42965 13213 10298 20166 30084 40207 56010 80001;",
"08044099999","2010-07-24T18:00:00","4","42.4333333","-8.6166666","108.0","PONTEVEDRA, SP","FM-12","99999","V020","340,1,N,0041,1","22000,1,9,N","010000,1,N,1","+0280,1","+0169,1","10204,1","12,0000,9,1",,,,,"01,99,1,00,1,00,1,99999,9,00,1,01,1",,,,"999,M,+0306,1","99999,9,10080,1","6,1,004,1,+999,9",,"SYN082AAXX  24184 08044 12960 13408 10280 20169 30080 40204 56004 60002 80001 333 10306;","Q01  00002PRCP12"
"08044099999","2010-07-25T06:00:00","4","42.4333333","-8.6166666","108.0","PONTEVEDRA, SP","FM-12","99999","V020","180,1,N,0010,1","22000,1,9,N","030000,1,N,1","+0160,1","+0090,1","10199,1","12,0000,9,1","24,0000,9,1",,,"00,1,+99999,9,99,9","00,99,1,00,1,00,1,99999,9,00,1,00,1","0816,9","01,9","999,+0130,9","999,N,+0159,1","99999,9,10070,1","6,1,004,1,+999,9","00,1","SYN106AAXX  25064 08044 11980 01802 10160 20090 30070 40199 56004 60002 700// 333 20159 30013 50454 55136 70000;","Q01  00002PRCP24Q02  00002PRCP12"
"08044099999","2010-07-25T09:00:00","4","42.4333333","-8.6166666","108.0","PONTEVEDRA, SP","FM-12","99999","V020","320,1,N,0031,1","22000,1,9,N","030000,1,N,1","+0236,1","+0135,1","10194,1",,,,,"00,1,+99999,9,99,9","00,99,1,00,1,00,1,99999,9,00,1,00,1",,,,,"99999,9,10068,1","8,1,002,1,+999,9",,"SYN060AAXX  25094 08044 42980 03206 10236 20135 30068 40194 58002;",
"08044099999","2010-07-25T12:00:00","4","42.4333333","-8.6166666","108.0","PONTEVEDRA, SP","FM-12","99999","V020","340,1,N,0046,1","22000,1,9,N","030000,1,N,1","+0306,1","+0142,1","10183,1","06,0000,9,1",,,,"00,1,+99999,9,99,9","00,99,1,00,1,00,1,99999,9,00,1,00,1",,,,,"99999,9,10060,1","6,1,008,1,+999,9",,"SYN066AAXX  25124 08044 12980 03409 10306 20142 30060 40183 56008 60001;","Q01  00002PRCP06"
"08044099999","2010-07-25T15:00:00","4","42.4333333","-8.6166666","108.0","PONTEVEDRA, SP","FM-12","99999","V020","350,1,N,0046,1","22000,1,9,N","020000,1,N,1","+0322,1","+0165,1","10170,1",,,,,"00,1,+99999,9,99,9","00,99,1,00,1,00,1,99999,9,00,1,00,1",,,,,"99999,9,10048,1","7,1,012,1,+999,9",,"SYN060AAXX  25154 08044 42970 03509 10322 20165 30048 40170 57012;",
"08044099999","2010-07-25T18:00:00","4","42.4333333","-8.6166666","108.0","PONTEVEDRA, SP","FM-12","99999","V020","340,1,N,0051,1","22000,1,9,N","015000,1,N,1","+0296,1","+0157,1","10167,1","12,0000,9,1",,,,"00,1,+99999,9,99,9","00,99,1,00,1,00,1,99999,9,00,1,00,1",,,,"999,M,+0328,1","99999,9,10044,1","7,1,004,1,+999,9",,"SYN076AAXX  25184 08044 12965 03410 10296 20157 30044 40167 57004 60002 333 10328;","Q01  00002PRCP12"
"08044099999","2010-07-26T06:00:00","4","42.4333333","-8.6166666","108.0","PONTEVEDRA, SP","FM-12","99999","V020","140,1,N,0010,1","22000,1,9,N","030000,1,N,1","+0182,1","+0131,1","10165,1","12,0000,9,1","24,0000,9,1",,,"00,1,+99999,9,99,9","00,99,1,00,1,00,1,99999,9,00,1,00,1","0816,9","01,9","999,+0150,9","999,N,+0182,1","99999,9,10037,1","3,1,005,1,+999,9","00,1","SYN106AAXX  26064 08044 11980 01402 10182 20131 30037 40165 53005 60002 700// 333 20182 30015 50564 55136 70000;","Q01  00002PRCP24Q02  00002PRCP12"
"08044099999","2010-07-26T09:00:00","4","42.4333333","-8.6166666","108.0","PONTEVEDRA, SP","FM-12","99999","V020","180,1,N,0015,1","22000,1,9,N","030000,1,N,1","+0252,1","+0152,1","10162,1",,,,,"00,1,+99999,9,99,9","00,99,1,00,1,00,1,99999,9,00,1,00,1",,,,,"99999,9,10037,1","0,1,000,1,+999,9",,"SYN060AAXX  26094 08044 42980 01803 10252 20152 30037 40162 50000;",
"08044099999","2010-07-26T12:00:00","4","42.4333333","-8.6166666","108.0","PONTEVEDRA, SP","FM-12","99999","V020","350,1,N,0031,1","22000,1,9,N","020000,1,N,1","+0331,1","+0156,1","10156,1","06,0000,9,1",,,,"00,1,+99999,9,99,9","00,99,1,00,1,00,1,99999,9,00,1,00,1",,,,,"99999,9,10035,1","7,1,002,1,+999,9",,"SYN066AAXX  26124 08044 12970 03506 10331 20156 30035 40156 57002 60001;","Q01  00002PRCP06"
"08044099999","2010-07-26T15:00:00","4","42.4333333","-8.6166666","108.0","PONTEVEDRA, SP","FM-12","99999","V020","350,1,N,0036,1","22000,1,9,N","020000,1,N,1","+0346,1","+0178,1","10140,1",,,,,"00,1,+99999,9,99,9","00,99,1,00,1,00,1,99999,9,00,1,00,1",,,,,"99999,9,10020,1","7,1,015,1,+999,9",,"SYN060AAXX  26154 08044 42970 03507 10346 20178 30020 40140 57015;",
"08044099999","2010-07-26T18:00:00","4","42.4333333","-8.6166666","108.0","PONTEVEDRA, SP","FM-12","99999","V020","350,1,N,0036,1","22000,1,9,N","015000,1,N,1","+0326,1","+0160,1","10135,1","12,0000,9,1",,,,"00,1,+99999,9,99,9","00,99,1,00,1,00,1,99999,9,00,1,00,1",,,,"999,M,+0352,1","99999,9,10014,1","7,1,006,1,+999,9",,"SYN076AAXX  26184 08044 12965 03507 10326 20160 30014 40135 57006 60002 333 10352;","Q01  00002PRCP12"
"08044099999","2010-07-27T06:00:00","4","42.4333333","-8.6166666","108.0","PONTEVEDRA, SP","FM-12","99999","V020","999,9,C,0000,1","22000,1,9,N","020000,1,N,1","+0194,1","+0153,1","10141,1","12,0000,9,1","24,0000,9,1",,,"00,1,+99999,9,99,9","00,99,1,00,1,00,1,99999,9,00,1,00,1","0816,9","01,9","999,+0160,9","999,N,+0188,1","99999,9,10014,1","3,1,001,1,+999,9","00,1","SYN106AAXX  27064 08044 11970 00000 10194 20153 30014 40141 53001 60002 700// 333 20188 30016 50554 55136 70000;","Q01  00002PRCP24Q02  00002PRCP12"
"08044099999","2010-07-27T09:00:00","4","42.4333333","-8.6166666","108.0","PONTEVEDRA, SP","FM-12","99999","V020","200,1,N,0005,1","22000,1,9,N","020000,1,N,1","+0258,1","+0180,1","10140,1",,,,,"00,1,+99999,9,99,9","00,99,1,00,1,00,1,99999,9,00,1,00,1",,,,,"99999,9,10016,1","1,1,002,1,+999,9",,"SYN060AAXX  27094 08044 42970 02001 10258 20180 30016 40140 51002;",
"08044099999","2010-07-27T12:00:00","4","42.4333333","-8.6166666","108.0","PONTEVEDRA, SP","FM-12","99999","V020","290,1,N,0031,1","22000,1,9,N","015000,1,N,1","+0333,1","+0190,1","10138,1","06,0000,9,1",,,,"00,1,+99999,9,99,9","00,99,1,00,1,00,1,99999,9,00,1,00,1",,,,,"99999,9,10017,1","0,1,001,1,+999,9",,"SYN066AAXX  27124 08044 12965 02906 10333 20190 30017 40138 50001 60001;","Q01  00002PRCP06"
"08044099999","2010-07-27T15:00:00","4","42.4333333","-8.6166666","108.0","PONTEVEDRA, SP","FM-12","99999","V020","210,1,N,0010,1","22000,1,9,N","012000,1,N,1","+0348,1","+0200,1","10134,1",,,,,"00,1,+99999,9,99,9","00,99,1,00,1,00,1,99999,9,00,1,00,1",,,,,"99999,9,10014,1","7,1,003,1,+999,9",,"SYN060AAXX  27154 08044 42962 02102 10348 20200 30014 40134 57003;",
"08044099999","2010-07-27T18:00:00","4","42.4333333","-8.6166666","108.0","PONTEVEDRA, SP","FM-12","99999","V020","160,1,N,0015,1","22000,1,9,N","008000,1,N,1","+0294,1","+0182,1","10134,1","12,0000,9,1",,"0,1,06,1","0,1,06,1","00,1,+99999,9,99,9","00,99,1,00,1,00,1,99999,9,00,1,00,1",,,,"999,M,+0356,1","99999,9,10012,1","8,1,002,1,+999,9","05,1","SYN082AAXX  27184 08044 11958 01603 10294 20182 30012 40134 58002 60002 70500 333 10356;","Q01  00002PRCP12"
"08044099999","2010-07-28T06:00:00","4","42.4333333","-8.6166666","108.0","PONTEVEDRA, SP","FM-12","99999","V020","999,9,C,0000,1","22000,1,9,N","020000,1,N,1","+0195,1","+0156,1","10154,1","12,0000,9,1","24,0000,9,1",,,"00,1,+99999,9,99,9","00,99,1,00,1,00,1,99999,9,00,1,00,1","0810,9","01,9","999,+0170,9","999,N,+0195,1","99999,9,10027,1","1,1,006,1,+999,9","00,1","SYN106AAXX  28064 08044 11970 00000 10195 20156 30027 40154 51006 60002 700// 333 20195 30017 50424 55135 70000;","Q01  00002PRCP24Q02  00002PRCP12"
"08044099999","2010-07-28T09:00:00","4","42.4333333","-8.6166666","108.0","PONTEVEDRA, SP","FM-12","99999","V020","340,1,N,0005,1","22000,1,9,N","015000,1,N,1","+0264,1","+0183,1","10158,1",,,,,"00,1,+99999,9,99,9","00,99,1,00,1,00,1,99999,9,00,1,00,1",,,,,"99999,9,10034,1","2,1,007,1,+999,9",,"SYN060AAXX  28094 08044 42965 03401 10264 20183 30034 40158 52007;",
"08044099999","2010-07-28T12:00:00","4","42.4333333","-8.6166666","108.0","PONTEVEDRA, SP","FM-12","99999","V020","280,1,N,0026,1","22000,1,9,N","010000,1,N,1","+0338,1","+0206,1","10155,1","06,0000,9,1",,,,"00,1,+99999,9,99,9","00,99,1,00,1,00,1,99999,9,00,1,00,1",,,,,"99999,9,10034,1","0,1,000,1,+999,9",,"SYN066AAXX  28124 08044 12960 02805 10338 20206 30034 40155 50000 60001;","Q01  00002PRCP06"
"08044099999","2010-07-28T15:00:00","4","42.4333333","-8.6166666","108.0","PONTEVEDRA, SP","FM-12","99999","V020","190,1,N,0010,1","22000,1,9,N","008000,1,N,1","+0310,1","+0177,1","10156,1",,,"0,1,03,1","0,1,03,1",,"01,99,1,00,1,00,1,99999,9,00,1,01,1",,,,,"99999,9,10034,1","0,1,000,1,+999,9","05,1","SYN072AAXX  28154 08044 41958 11902 10310 20177 30034 40156 50000 70500 80001;",
"08044099999","2010-07-28T18:00:00","4","42.4333333","-8.6166666","108.0","PONTEVEDRA, SP","FM-12","99999","V020","190,1,N,0010,1","22000,1,9,N","006000,1,N,1","+0276,1","+0172,1","10156,1","12,0000,9,1",,"0,1,06,1","0,1,06,1",,"01,99,1,01,1,00,1,99999,9,03,1,02,1",,,,"999,M,+0346,1","99999,9,10033,1","6,1,001,1,+999,9","05,1","SYN088AAXX  28184 08044 11956 11902 10276 20172 30033 40156 56001 60002 70500 81032 333 10346;","Q01  00002PRCP12"
"08044099999","2010-07-29T06:00:00","4","42.4333333","-8.6166666","108.0","PONTEVEDRA, SP","FM-12","99999","V020","140,1,N,0010,1","22000,1,9,N","015000,1,N,1","+0176,1","+0152,1","10166,1","12,0000,9,1","24,0000,9,1",,,,"02,99,1,01,1,05,1,00250,1,08,1,01,1","0780,9","09,9","999,+0140,9","999,N,+0175,1","99999,9,10038,1","3,1,002,1,+999,9","02,1","SYN112AAXX  29064 08044 11365 21402 10176 20152 30038 40166 53002 60002 702// 81581 333 20175 31014 50324 55130 70000;","Q01  00002PRCP24Q02  00002PRCP12"
"08044099999","2010-07-29T09:00:00","4","42.4333333","-8.6166666","108.0","PONTEVEDRA, SP","FM-12","99999","V020","320,1,N,0026,1","22000,1,9,N","020000,1,N,1","+0244,1","+0169,1","10161,1",,,,,,"01,99,1,00,1,00,1,99999,9,00,1,01,1",,,,,"99999,9,10036,1","6,1,002,1,+999,9",,"SYN066AAXX  29094 08044 42970 13205 10244 20169 30036 40161 56002 80001;",
"08044099999","2010-07-29T12:00:00","4","42.4333333","-8.6166666","108.0","PONTEVEDRA, SP","FM-12","99999","V020","350,1,N,0046,1","22000,1,9,N","020000,1,N,1","+0303,1","+0170,1","10157,1","06,0000,9,1",,,,,"01,99,1,00,1,00,1,99999,9,00,1,01,1",,,,,"99999,9,10035,1","8,1,001,1,+999,9",,"SYN072AAXX  29124 08044 12970 13509 10303 20170 30035 40157 58001 60001 80001;","Q01  00002PRCP06"
"08044099999","2010-07-29T15:00:00","4","42.4333333","-8.6166666","108.0","PONTEVEDRA, SP","FM-12","99999","V020","340,1,N,0051,1","22000,1,9,N","015000,1,N,1","+0323,1","+0166,1","10148,1",,,,,"00,1,+99999,9,99,9","00,99,1,00,1,00,1,99999,9,00,1,00,1",,,,,"99999,9,10027,1","6,1,008,1,+999,9",,"SYN060AAXX  29154 08044 42965 03410 10323 20166 30027 40148 56008;",
"08044099999","2010-07-29T18:00:00","4","42.4333333","-8.6166666","108.0","PONTEVEDRA, SP","FM-12","99999","V020","350,1,N,0046,1","22000,1,9,N","010000,1,N,1","+0302,1","+0173,1","10141,1","12,0000,9,1",,,,"00,1,+99999,9,99,9","00,99,1,00,1,00,1,99999,9,00,1,00,1",,,,"999,M,+0326,1","99999,9,10019,1","8,1,008,1,+999,9",,"SYN076AAXX  29184 08044 12960 03509 10302 20173 30019 40141 58008 60002 333 10326;","Q01  00002PRCP12"
"08044099999","2010-07-30T06:00:00","4","42.4333333","-8.6166666","108.0","PONTEVEDRA, SP","FM-12","99999","V020","180,1,N,0010,1","22000,1,9,N","020000,1,N,1","+0166,1","+0150,1","10142,1","12,0000,9,1","24,0000,9,1",,,"00,1,+99999,9,99,9","00,99,1,00,1,00,1,99999,9,00,1,00,1","0798,9","09,9","999,+0140,9","999,N,+0166,1","99999,9,10014,1","6,1,001,1,+999,9","00,1","SYN106AAXX  30064 08044 11970 01802 10166 20150 30014 40142 56001 60002 700// 333 20166 31014 50454 55133 70000;","Q01  00002PRCP24Q02  00002PRCP12"
"08044099999","2010-07-30T09:00:00","4","42.4333333","-8.6166666","108.0","PONTEVEDRA, SP","FM-12","99999","V020","010,1,N,0010,1","22000,1,9,N","020000,1,N,1","+0242,1","+0172,1","10138,1",,,,,"00,1,+99999,9,99,9","00,99,1,00,1,00,1,99999,9,00,1,00,1",,,,,"99999,9,10013,1","8,1,001,1,+999,9",,"SYN060AAXX  30094 08044 42970 00102 10242 20172 30013 40138 58001;",
"08044099999","2010-07-30T12:00:00","4","42.4333333","-8.6166666","108.0","PONTEVEDRA, SP","FM-12","99999","V020","320,1,N,0031,1","22000,1,9,N","020000,1,N,1","+0304,1","+0188,1","10132,1","06,0000,9,1",,,,"00,1,+99999,9,99,9","00,99,1,00,1,00,1,99999,9,00,1,00,1",,,,,"99999,9,10010,1","6,1,003,1,+999,9",,"SYN066AAXX  30124 08044 12970 03206 10304 20188 30010 40132 56003 60001;","Q01  00002PRCP06"
"08044099999","2010-07-30T15:00:00","4","42.4333333","-8.6166666","108.0","PONTEVEDRA, SP","FM-12","99999","V020","310,1,N,0041,1","22000,1,9,N","010000,1,N,1","+0330,1","+0191,1","10124,1",,,,,,"01,99,1,00,1,00,1,99999,9,00,1,01,1",,,,,"99999,9,10003,1","7,1,007,1,+999,9",,"SYN066AAXX  30154 08044 42960 13108 10330 20191 30003 40124 57007 80001;",
"08044099999","2010-07-30T18:00:00","4","42.4333333","-8.6166666","108.0","PONTEVEDRA, SP","FM-12","99999","V020","340,1,N,0036,1","22000,1,9,N","008000,1,N,1","+0313,1","+0199,1","10115,1","12,0000,9,1",,"0,1,06,1","0,1,06,1",,"01,99,1,00,1,00,1,99999,9,00,1,01,1",,,,"999,M,+0334,1","99999,9,09994,1","6,1,009,1,+999,9","05,1","SYN088AAXX  30184 08044 11958 13407 10313 20199 39994 40115 56009 60002 70500 80001 333 10334;","Q01  00002PRCP12"
"08044099999","2010-07-31T06:00:00","4","42.4333333","-8.6166666","108.0","PONTEVEDRA, SP","FM-12","99999","V020","999,9,C,0000,1","22000,1,9,N","020000,1,N,1","+0166,1","+0153,1","10128,1","12,0000,9,1","24,0000,9,1",,,,"01,99,1,01,1,06,1,00075,1,00,1,00,1","0810,9","09,9","999,+0140,9","999,N,+0166,1","99999,9,10000,1","3,1,002,1,+999,9","02,1","SYN112AAXX  31064 08044 11170 10000 10166 20153 30000 40128 53002 60002 702// 81600 333 20166 31014 50364 55135 70000;","Q01  00002PRCP24Q02  00002PRCP12"
"08044099999","2010-07-31T09:00:00","4","42.4333333","-8.6166666","108.0","PONTEVEDRA, SP","FM-12","99999","V020","310,1,N,0031,1","22000,1,9,N","020000,1,N,1","+0230,1","+0177,1","10127,1",,,,,,"01,99,1,01,1,00,1,02250,1,03,1,00,1",,,,,"99999,9,10002,1","1,1,002,1,+999,9",,"SYN066AAXX  31094 08044 42870 13106 10230 20177 30002 40127 51002 81030;",
"08044099999","2010-07-31T12:00:00","4","42.4333333","-8.6166666","108.0","PONTEVEDRA, SP","FM-12","99999","V020","300,1,N,0057,1","22000,1,9,N","020000,1,N,1","+0286,1","+0192,1","10124,1","06,0000,9,1",,,,,"01,99,1,00,1,00,1,99999,9,00,1,02,1",,,,,"99999,9,10002,1","0,1,000,1,+999,9",,"SYN072AAXX  31124 08044 12970 13011 10286 20192 30002 40124 50000 60001 80002;","Q01  00002PRCP06"
"08044099999","2010-07-31T15:00:00","4","42.4333333","-8.6166666","108.0","PONTEVEDRA, SP","FM-12","99999","V020","320,1,N,0062,1","22000,1,9,N","020000,1,N,1","+0304,1","+0191,1","10123,1",,,,,"00,1,+99999,9,99,9","00,99,1,00,1,00,1,99999,9,00,1,00,1",,,,,"99999,9,10001,1","5,1,001,1,+999,9",,"SYN060AAXX  31154 08044 42970 03212 10304 20191 30001 40123 55001;",
"08044099999","2010-07-31T18:00:00","4","42.4333333","-8.6166666","108.0","PONTEVEDRA, SP","FM-12","99999","V020","330,1,N,0036,1","22000,1,9,N","015000,1,N,1","+0278,1","+0185,1","10126,1","12,0000,9,1",,,,"00,1,+99999,9,99,9","00,99,1,00,1,00,1,99999,9,00,1,00,1",,,,"999,M,+0314,1","99999,9,10003,1","3,1,002,1,+999,9",,"SYN076AAXX  31184 08044 12965 03307 10278 20185 30003 40126 53002 60002 333 10314;","Q01  00002PRCP12"
"08044099999","2010-08-01T06:00:00","4","42.4333333","-8.6166666","108.0","PONTEVEDRA, SP","FM-12","99999","V020","010,1,N,0031,1","22000,1,9,N","020000,1,N,1","+0190,1","+0134,1","10152,1","12,0000,9,1","24,0000,9,1",,,,"02,99,1,01,1,02,1,00450,1,00,1,02,1","0810,9",,,"999,N,+0186,1","99999,9,10025,1","3,1,007,1,+999,9","02,1","SYN106AAXX  01064 08044 11470 20106 10190 20134 30025 40152 53007 60002 702// 81202 333 20186 50374 55135 70000;","Q01  00002PRCP24Q02  00002PRCP12"
"08044099999","2010-08-01T09:00:00","4","42.4333333","-8.6166666","108.0","PONTEVEDRA, SP","FM-12","99999","V020","350,1,N,0046,1","22000,1,9,N","020000,1,N,1","+0220,1","+0154,1","10158,1",,,,,,"03,99,1,01,1,02,1,00450,1,05,1,02,1",,,,,"99999,9,10032,1","1,1,007,1,+999,9",,"SYN066AAXX  01094 08044 42470 33509 10220 20154 30032 40158 51007 81252;",
"08044099999","2010-08-01T12:00:00","4","42.4333333","-8.6166666","108.0","PONTEVEDRA, SP","FM-12","99999","V020","340,1,N,0062,1","22000,1,9,N","020000,1,N,1","+0240,1","+0158,1","10163,1","06,0000,9,1",,,,,"04,99,1,02,1,02,1,00450,1,04,1,02,1",,,,,"99999,9,10038,1","1,1,006,1,+999,9",,"SYN072AAXX  01124 08044 12470 43412 10240 20158 30038 40163 51006 60001 82242;","Q01  00002PRCP06"
"08044099999","2010-08-01T15:00:00","4","42.4333333","-8.6166666","108.0","PONTEVEDRA, SP","FM-12","99999","V020","350,1,N,0057,1","22000,1,9,N","020000,1,N,1","+0252,1","+0158,1","10160,1",,,,,,"02,99,1,01,1,02,1,00450,1,00,1,02,1",,,,,"99999,9,10036,1","6,1,002,1,+999,9",,"SYN066AAXX  01154 08044 42470 23511 10252 20158 30036 40160 56002 81202;",
"08044099999","2010-08-01T18:00:00","4","42.4333333","-8.6166666","108.0","PONTEVEDRA, SP","FM-12","99999","V020","330,1,N,0057,1","22000,1,9,N","015000,1,N,1","+0232,1","+0155,1","10163,1","12,0000,9,1",,,,,"02,99,1,01,1,04,1,00450,1,04,1,00,1",,,,"999,M,+0260,1","99999,9,10038,1","3,1,002,1,+999,9",,"SYN082AAXX  01184 08044 12465 23311 10232 20155 30038 40163 53002 60002 81440 333 10260;","Q01  00002PRCP12"
"08044099999","2010-08-02T06:00:00","4","42.4333333","-8.6166666","108.0","PONTEVEDRA, SP","FM-12","99999","V020","350,1,N,0010,1","22000,1,9,N","020000,1,N,1","+0160,1","+0124,1","10185,1","12,0000,9,1","24,0000,9,1",,,,"01,99,1,01,1,00,1,01750,1,05,1,00,1","0780,9",,,"999,N,+0155,1","99999,9,10056,1","1,1,005,1,+999,9","02,1","SYN106AAXX  02064 08044 11770 13502 10160 20124 30056 40185 51005 60002 702// 81050 333 20155 50294 55130 70000;","Q01  00002PRCP24Q02  00002PRCP12"
"08044099999","2010-08-02T09:00:00","4","42.4333333","-8.6166666","108.0","PONTEVEDRA, SP","FM-12","99999","V020","340,1,N,0046,1","22000,1,9,N","020000,1,N,1","+0210,1","+0127,1","10189,1",,,,,,"01,99,1,01,1,01,1,00450,1,00,1,00,1",,,,,"99999,9,10062,1","0,1,006,1,+999,9",,"SYN066AAXX  02094 08044 42470 13409 10210 20127 30062 40189 50006 81100;",
"08044099999","2010-08-02T12:00:00","4","42.4333333","-8.6166666","108.0","PONTEVEDRA, SP","FM-12","99999","V020","010,1,N,0026,1","22000,1,9,N","020000,1,N,1","+0244,1","+0139,1","10187,1","06,0000,9,1",,,,,"03,99,1,03,1,02,1,00450,1,00,1,00,1",,,,,"99999,9,10062,1","4,1,000,1,+999,9",,"SYN072AAXX  02124 08044 12470 30105 10244 20139 30062 40187 54000 60001 83200;","Q01  00002PRCP06"
"08044099999","2010-08-02T15:00:00","4","42.4333333","-8.6166666","108.0","PONTEVEDRA, SP","FM-12","99999","V020","350,1,N,0051,1","22000,1,9,N","020000,1,N,1","+0260,1","+0151,1","10179,1",,,,,,"03,99,1,03,1,02,1,00450,1,00,1,00,1",,,,,"99999,9,10055,1","6,1,007,1,+999,9",,"SYN066AAXX  02154 08044 42470 33510 10260 20151 30055 40179 56007 83200;",
"08044099999","2010-08-02T18:00:00","4","42.4333333","-8.6166666","108.0","PONTEVEDRA, SP","FM-12","99999","V020","340,1,N,0051,1","22000,1,9,N","015000,1,N,1","+0248,1","+0151,1","10178,1","12,0000,9,1",,,,,"02,99,1,01,1,01,1,00450,1,03,1,00,1",,,,"999,M,+0270,1","99999,9,10053,1","8,1,002,1,+999,9",,"SYN082AAXX  02184 08044 12465 23410 10248 20151 30053 40178 58002 60002 81130 333 10270;","Q01  00002PRCP12"
"08044099999","2010-08-03T06:00:00","4","42.4333333","-8.6166666","108.0","PONTEVEDRA, SP","FM-12","99999","V020","340,1,N,0041,1","22000,1,9,N","020000,1,N,1","+0178,1","+0129,1","10192,1","12,0000,9,1","24,0000,9,1",,,,"01,99,1,01,1,00,1,01750,1,04,1,00,1","0804,9",,,"999,N,+0178,1","99999,9,10064,1","1,1,009,1,+999,9",,"SYN100AAXX  03064 08044 12770 13408 10178 20129 30064 40192 51009 60002 81040 333 20178 50394 55134 70000;","Q01  00002PRCP24Q02  00002PRCP12"
"08044099999","2010-08-03T09:00:00","4","42.4333333","-8.6166666","108.0","PONTEVEDRA, SP","FM-12","99999","V020","360,1,N,0046,1","22000,1,9,N","020000,1,N,1","+0230,1","+0129,1","10194,1",,,,,,"01,99,1,00,1,00,1,99999,9,00,1,01,1",,,,,"99999,9,10068,1","0,1,004,1,+999,9",,"SYN066AAXX  03094 08044 42970 13609 10230 20129 30068 40194 50004 80001;",
"08044099999","2010-08-03T12:00:00","4","42.4333333","-8.6166666","108.0","PONTEVEDRA, SP","FM-12","99999","V020","350,1,N,0036,1","22000,1,9,N","020000,1,N,1","+0296,1","+0146,1","10183,1","06,0000,9,1",,,,"00,1,+99999,9,99,9","00,99,1,00,1,00,1,99999,9,00,1,00,1",,,,,"99999,9,10060,1","8,1,008,1,+999,9",,"SYN066AAXX  03124 08044 12970 03507 10296 20146 30060 40183 58008 60001;","Q01  00002PRCP06"
"08044099999","2010-08-03T15:00:00","4","42.4333333","-8.6166666","108.0","PONTEVEDRA, SP","FM-12","99999","V020","340,1,N,0046,1","22000,1,9,N","020000,1,N,1","+0298,1","+0159,1","10176,1",,,,,"00,1,+99999,9,99,9","00,99,1,00,1,00,1,99999,9,00,1,00,1",,,,,"99999,9,10053,1","6,1,007,1,+999,9",,"SYN060AAXX  03154 08044 42970 03409 10298 20159 30053 40176 56007;",
"08044099999","2010-08-03T18:00:00","4","42.4333333","-8.6166666","108.0","PONTEVEDRA, SP","FM-12","99999","V020","350,1,N,0021,1","22000,1,9,N","015000,1,N,1","+0272,1","+0174,1","10172,1","12,0000,9,1",,,,"00,1,+99999,9,99,9","00,99,1,00,1,00,1,99999,9,00,1,00,1",,,,"999,M,+0304,1","99999,9,10048,1","6,1,005,1,+999,9",,"SYN076AAXX  03184 08044 12965 03504 10272 20174 30048 40172 56005 60002 333 10304;","Q01  00002PRCP12"
"08044099999","2010-08-04T06:00:00","4","42.4333333","-8.6166666","108.0","PONTEVEDRA, SP","FM-12","99999","V020","130,1,N,0010,1","22000,1,9,N","020000,1,N,1","+0156,1","+0131,1","10180,1","12,0000,9,1","24,0000,9,1",,,,"01,99,1,01,1,00,1,01750,1,05,1,00,1","0804,9",,,"999,N,+0152,1","99999,9,10051,1","3,1,004,1,+999,9","02,1","SYN106AAXX  04064 08044 11770 11302 10156 20131 30051 40180 53004 60002 702// 81050 333 20152 50464 55134 70000;","Q01  00002PRCP24Q02  00002PRCP12"
"08044099999","2010-08-04T09:00:00","4","42.4333333","-8.6166666","108.0","PONTEVEDRA, SP","FM-12","99999","V020","310,1,N,0036,1","22000,1,9,N","020000,1,N,1","+0212,1","+0151,1","10180,1",,,,,,"02,99,1,01,1,00,1,01750,1,05,1,02,1",,,,,"99999,9,10054,1","0,1,003,1,+999,9",,"SYN066AAXX  04094 08044 42770 23107 10212 20151 30054 40180 50003 81052;",
"08044099999","2010-08-04T12:00:00","4","42.4333333","-8.6166666","108.0","PONTEVEDRA, SP","FM-12","99999","V020","310,1,N,0057,1","22000,1,9,N","020000,1,N,1","+0262,1","+0162,1","10176,1","06,0000,9,1",,,,,"02,99,1,01,1,00,1,01750,1,05,1,02,1",,,,,"99999,9,10052,1","5,1,002,1,+999,9",,"SYN072AAXX  04124 08044 12770 23111 10262 20162 30052 40176 55002 60001 81052;","Q01  00002PRCP06"
"08044099999","2010-08-04T18:00:00","4","42.4333333","-8.6166666","108.0","PONTEVEDRA, SP","FM-12","99999","V020","330,1,N,0046,1","22000,1,9,N","015000,1,N,1","+0242,1","+0146,1","10166,1","12,0000,9,1",,,,,"04,99,1,02,1,00,1,01750,1,05,1,02,1",,,,"999,M,+0288,1","99999,9,10041,1","6,1,004,1,+999,9",,"SYN082AAXX  04184 08044 12765 43309 10242 20146 30041 40166 56004 60002 82052 333 10288;","Q01  00002PRCP12"
"08044099999","2010-08-05T06:00:00","4","42.4333333","-8.6166666","108.0","PONTEVEDRA, SP","FM-12","99999","V020","320,1,N,0021,1","22000,1,9,N","020000,1,N,1","+0166,1","+0137,1","10176,1","12,0000,9,1","24,0000,9,1",,,,"02,99,1,01,1,05,1,00450,1,00,1,01,1","0798,9",,,"999,N,+0161,1","99999,9,10048,1","6,1,001,1,+999,9","02,1","SYN106AAXX  05064 08044 11470 23204 10166 20137 30048 40176 56001 60002 702// 81501 333 20161 50354 55133 70000;","Q01  00002PRCP24Q02  00002PRCP12"
"08044099999","2010-08-05T09:00:00","4","42.4333333","-8.6166666","108.0","PONTEVEDRA, SP","FM-12","99999","V020","010,1,N,0036,1","22000,1,9,N","020000,1,N,1","+0222,1","+0138,1","10173,1",,,,,,"01,99,1,01,1,05,1,00450,1,00,1,00,1",,,,,"99999,9,10047,1","8,1,001,1,+999,9",,"SYN066AAXX  05094 08044 42470 10107 10222 20138 30047 40173 58001 81500;",
"08044099999","2010-08-05T12:00:00","4","42.4333333","-8.6166666","108.0","PONTEVEDRA, SP","FM-12","99999","V020","020,1,N,0046,1","22000,1,9,N","020000,1,N,1","+0268,1","+0109,1","10168,1","06,0000,9,1",,,,"00,1,+99999,9,99,9","00,99,1,00,1,00,1,99999,9,00,1,00,1",,,,,"99999,9,10044,1","8,1,003,1,+999,9",,"SYN066AAXX  05124 08044 12970 00209 10268 20109 30044 40168 58003 60001;","Q01  00002PRCP06"
"08044099999","2010-08-05T15:00:00","4","42.4333333","-8.6166666","108.0","PONTEVEDRA, SP","FM-12","99999","V020","330,1,N,0051,1","22000,1,9,N","020000,1,N,1","+0280,1","+0115,1","10156,1",,,,,"00,1,+99999,9,99,9","00,99,1,00,1,00,1,99999,9,00,1,00,1",,,,,"99999,9,10033,1","8,1,011,1,+999,9",,"SYN060AAXX  05154 08044 42970 03310 10280 20115 30033 40156 58011;",
"08044099999","2010-08-05T18:00:00","4","42.4333333","-8.6166666","108.0","PONTEVEDRA, SP","FM-12","99999","V020","340,1,N,0051,1","22000,1,9,N","020000,1,N,1","+0260,1","+0138,1","10149,1","12,0000,9,1",,,,"00,1,+99999,9,99,9","00,99,1,00,1,00,1,99999,9,00,1,00,1",,,,"999,M,+0284,1","99999,9,10025,1","7,1,008,1,+999,9",,"SYN076AAXX  05184 08044 12970 03410 10260 20138 30025 40149 57008 60002 333 10284;","Q01  00002PRCP12"
"08044099999","2010-08-06T06:00:00","4","42.4333333","-8.6166666","108.0","PONTEVEDRA, SP","FM-12","99999","V020","170,1,N,0015,1","22000,1,9,N","020000,1,N,1","+0147,1","+0115,1","10152,1","12,0000,9,1","24,0000,9,1",,,"00,1,+99999,9,99,9","00,99,1,00,1,00,1,99999,9,00,1,00,1","0816,9",,,"999,N,+0146,1","99999,9,10023,1","3,1,002,1,+999,9","00,1","SYN100AAXX  06064 08044 11970 01703 10147 20115 30023 40152 53002 60002 700// 333 20146 50514 55136 70000;","Q01  00002PRCP24Q02  00002PRCP12"
"08044099999","2010-08-06T09:00:00","4","42.4333333","-8.6166666","108.0","PONTEVEDRA, SP","FM-12","99999","V020","300,1,N,0015,1","22000,1,9,N","020000,1,N,1","+0222,1","+0143,1","10150,1",,,,,"00,1,+99999,9,99,9","00,99,1,00,1,00,1,99999,9,00,1,00,1",,,,,"99999,9,10024,1","1,1,001,1,+999,9",,"SYN060AAXX  06094 08044 42970 03003 10222 20143 30024 40150 51001;",
"08044099999","2010-08-06T12:00:00","4","42.4333333","-8.6166666","108.0","PONTEVEDRA, SP","FM-12","99999","V020","300,1,N,0051,1","22000,1,9,N","020000,1,N,1","+0294,1","+0155,1","10144,1","06,0000,9,1",,,,"00,1,+99999,9,99,9","00,99,1,00,1,00,1,99999,9,00,1,00,1",,,,,"99999,9,10021,1","8,1,003,1,+999,9",,"SYN066AAXX  06124 08044 12970 03010 10294 20155 30021 40144 58003 60001;","Q01  00002PRCP06"
"08044099999","2010-08-06T15:00:00","4","42.4333333","-8.6166666","108.0","PONTEVEDRA, SP","FM-12","99999","V020","320,1,N,0046,1","22000,1,9,N","020000,1,N,1","+0325,1","+0111,1","10130,1",,,,,"00,1,+99999,9,99,9","00,99,1,00,1,00,1,99999,9,00,1,00,1",,,,,"99999,9,10009,1","6,1,012,1,+999,9",,"SYN060AAXX  06154 08044 42970 03209 10325 20111 30009 40130 56012;",
"08044099999","2010-08-06T18:00:00","4","42.4333333","-8.6166666","108.0","PONTEVEDRA, SP","FM-12","99999","V020","340,1,N,0031,1","22000,1,9,N","020000,1,N,1","+0305,1","+0142,1","10128,1","12,0000,9,1",,,,"00,1,+99999,9,99,9","00,99,1,00,1,00,1,99999,9,00,1,00,1",,,,"999,M,+0326,1","99999,9,10006,1","8,1,003,1,+999,9",,"SYN076AAXX  06184 08044 12970 03406 10305 20142 30006 40128 58003 60002 333 10326;","Q01  00002PRCP12"
"08044099999","2010-08-07T06:00:00","4","42.4333333","-8.6166666","108.0","PONTEVEDRA, SP","FM-12","99999","V020","150,1,N,0010,1","22000,1,9,N","020000,1,N,1","+0159,1","+0121,1","10154,1","12,0000,9,1","24,0000,9,1",,,"00,1,+99999,9,99,9","00,99,1,00,1,00,1,99999,9,00,1,00,1","0816,9",,,"999,N,+0157,1","99999,9,10025,1","3,1,005,1,+999,9","00,1","SYN100AAXX  07064 08044 11970 01502 10159 20121 30025 40154 53005 60002 700// 333 20157 50524 55136 70000;","Q01  00002PRCP24Q02  00002PRCP12"
"08044099999","2010-08-07T09:00:00","4","42.4333333","-8.6166666","108.0","PONTEVEDRA, SP","FM-12","99999","V020","300,1,N,0026,1","22000,1,9,N","020000,1,N,1","+0224,1","+0153,1","10155,1",,,,,"00,1,+99999,9,99,9","00,99,1,00,1,00,1,99999,9,00,1,00,1",,,,,"99999,9,10029,1","1,1,004,1,+999,9",,"SYN060AAXX  07094 08044 42970 03005 10224 20153 30029 40155 51004;",
"08044099999","2010-08-07T12:00:00","4","42.4333333","-8.6166666","108.0","PONTEVEDRA, SP","FM-12","99999","V020","290,1,N,0051,1","22000,1,9,N","020000,1,N,1","+0301,1","+0179,1","10149,1","06,0000,9,1",,,,"00,1,+99999,9,99,9","00,99,1,00,1,00,1,99999,9,00,1,00,1",,,,,"99999,9,10027,1","6,1,002,1,+999,9",,"SYN066AAXX  07124 08044 12970 02910 10301 20179 30027 40149 56002 60001;","Q01  00002PRCP06"
"08044099999","2010-08-07T15:00:00","4","42.4333333","-8.6166666","108.0","PONTEVEDRA, SP","FM-12","99999","V020","310,1,N,0057,1","22000,1,9,N","020000,1,N,1","+0331,1","+0181,1","10144,1",,,,,"00,1,+99999,9,99,9","00,99,1,00,1,00,1,99999,9,00,1,00,1",,,,,"99999,9,10023,1","6,1,004,1,+999,9",,"SYN060AAXX  07154 08044 42970 03111 10331 20181 30023 40144 56004;",
"08044099999","2010-08-07T18:00:00","4","42.4333333","-8.6166666","108.0","PONTEVEDRA, SP","FM-12","99999","V020","340,1,N,0041,1","22000,1,9,N","020000,1,N,1","+0303,1","+0181,1","10144,1","12,0000,9,1",,,,"00,1,+99999,9,99,9","00,99,1,00,1,00,1,99999,9,00,1,00,1",,,,"999,M,+0334,1","99999,9,10022,1","6,1,001,1,+999,9",,"SYN076AAXX  07184 08044 12970 03408 10303 20181 30022 40144 56001 60002 333 10334;","Q01  00002PRCP12"
"08044099999","2010-08-08T06:00:00","4","42.4333333","-8.6166666","108.0","PONTEVEDRA, SP","FM-12","99999","V020","170,1,N,0005,1","22000,1,9,N","020000,1,N,1","+0161,1","+0139,1","10155,1","12,0000,9,1","24,0000,9,1",,,,"02,99,1,00,1,00,1,99999,9,00,1,08,1","0816,9",,,"999,N,+0159,1","99999,9,10027,1","6,1,001,1,+999,9","02,1","SYN106AAXX  08064 08044 11970 21701 10161 20139 30027 40155 56001 60002 702// 80008 333 20159 50454 55136 70000;","Q01  00002PRCP24Q02  00002PRCP12"
"08044099999","2010-08-08T09:00:00","4","42.4333333","-8.6166666","108.0","PONTEVEDRA, SP","FM-12","99999","V020","280,1,N,0010,1","22000,1,9,N","020000,1,N,1","+0226,1","+0166,1","10156,1",,,,,,"01,99,1,00,1,00,1,99999,9,00,1,01,1",,,,,"99999,9,10031,1","1,1,004,1,+999,9",,"SYN066AAXX  08094 08044 42970 12802 10226 20166 30031 40156 51004 80001;",
"08044099999","2010-08-08T12:00:00","4","42.4333333","-8.6166666","108.0","PONTEVEDRA, SP","FM-12","99999","V020","280,1,N,0031,1","22000,1,9,N","020000,1,N,1","+0292,1","+0183,1","10150,1","06,0000,9,1",,,,,"01,99,1,00,1,00,1,99999,9,00,1,01,1",,,,,"99999,9,10027,1","8,1,004,1,+999,9",,"SYN072AAXX  08124 08044 12970 12806 10292 20183 30027 40150 58004 60001 80001;","Q01  00002PRCP06"
"08044099999","2010-08-08T15:00:00","4","42.4333333","-8.6166666","108.0","PONTEVEDRA, SP","FM-12","99999","V020","190,1,N,0015,1","22000,1,9,N","020000,1,N,1","+0283,1","+0184,1","10145,1",,,,,,"01,99,1,00,1,00,1,99999,9,00,1,01,1",,,,,"99999,9,10022,1","6,1,005,1,+999,9",,"SYN066AAXX  08154 08044 42970 11903 10283 20184 30022 40145 56005 80001;",
"08044099999","2010-08-08T18:00:00","4","42.4333333","-8.6166666","108.0","PONTEVEDRA, SP","FM-12","99999","V020","190,1,N,0005,1","22000,1,9,N","020000,1,N,1","+0248,1","+0178,1","10146,1","12,0000,9,1",,,,,"02,99,1,00,1,00,1,99999,9,00,1,02,1",,,,"999,M,+0320,1","99999,9,10022,1","4,1,000,1,+999,9",,"SYN082AAXX  08184 08044 12970 21901 10248 20178 30022 40146 54000 60002 80002 333 10320;","Q01  00002PRCP12"
"08044099999","2010-08-09T06:00:00","4","42.4333333","-8.6166666","108.0","PONTEVEDRA, SP","FM-12","99999","V020","040,1,N,0005,1","22000,1,9,N","014000,1,N,1","+0170,1","+0157,1","10167,1","12,0000,9,1","24,0000,9,1",,,,"02,99,1,01,1,05,1,00250,1,03,1,00,1","0792,9",,,"999,N,+0169,1","99999,9,10039,1","4,1,000,1,+999,9","02,1","SYN106AAXX  09064 08044 11364 20401 10170 20157 30039 40167 54000 60002 702// 81530 333 20169 50254 55132 70000;","Q01  00002PRCP24Q02  00002PRCP12"
"08044099999","2010-08-09T09:00:00","4","42.4333333","-8.6166666","108.0","PONTEVEDRA, SP","FM-12","99999","V020","260,1,N,0010,1","22000,1,9,N","012000,1,N,1","+0222,1","+0176,1","10168,1",,,,,"00,1,+99999,9,99,9","00,99,1,00,1,00,1,99999,9,00,1,00,1",,,,,"99999,9,10042,1","1,1,003,1,+999,9",,"SYN060AAXX  09094 08044 42962 02602 10222 20176 30042 40168 51003;",
"08044099999","2010-08-09T12:00:00","4","42.4333333","-8.6166666","108.0","PONTEVEDRA, SP","FM-12","99999","V020","300,1,N,0036,1","22000,1,9,N","012000,1,N,1","+0289,1","+0181,1","10163,1","06,0000,9,1",,,,"00,1,+99999,9,99,9","00,99,1,00,1,00,1,99999,9,00,1,00,1",,,,,"99999,9,10040,1","8,1,002,1,+999,9",,"SYN066AAXX  09124 08044 12962 03007 10289 20181 30040 40163 58002 60001;","Q01  00002PRCP06"
"08044099999","2010-08-09T15:00:00","4","42.4333333","-8.6166666","108.0","PONTEVEDRA, SP","FM-12","99999","V020","250,1,N,0015,1","22000,1,9,N","015000,1,N,1","+0313,1","+0157,1","10158,1",,,,,"00,1,+99999,9,99,9","00,99,1,00,1,00,1,99999,9,00,1,00,1",,,,,"99999,9,10036,1","8,1,004,1,+999,9",,"SYN060AAXX  09154 08044 42965 02503 10313 20157 30036 40158 58004;",
"08044099999","2010-08-09T18:00:00","4","42.4333333","-8.6166666","108.0","PONTEVEDRA, SP","FM-12","99999","V020","170,1,N,0010,1","22000,1,9,N","015000,1,N,1","+0273,1","+0180,1","10153,1","12,0000,9,1",,,,"00,1,+99999,9,99,9","00,99,1,00,1,00,1,99999,9,00,1,00,1",,,,"999,M,+0319,1","99999,9,10030,1","8,1,006,1,+999,9",,"SYN076AAXX  09184 08044 12965 01702 10273 20180 30030 40153 58006 60002 333 10319;","Q01  00002PRCP12"
"08044099999","2010-08-10T06:00:00","4","42.4333333","-8.6166666","108.0","PONTEVEDRA, SP","FM-12","99999","V020","310,1,N,0015,1","22000,1,9,N","015000,1,N,1","+0190,1","+0145,1","10163,1","12,0000,9,1","24,0000,9,1",,,,"02,99,1,02,1,00,1,01250,1,08,1,00,1","0690,9",,,"999,N,+0186,1","99999,9,10036,1","3,1,003,1,+999,9",,"SYN100AAXX  10064 08044 12665 23103 10190 20145 30036 40163 53003 60002 82080 333 20186 50244 55115 70000;","Q01  00002PRCP24Q02  00002PRCP12"
"08044099999","2010-08-10T09:00:00","4","42.4333333","-8.6166666","108.0","PONTEVEDRA, SP","FM-12","99999","V020","050,1,N,0005,1","22000,1,9,N","015000,1,N,1","+0252,1","+0158,1","10168,1",,,,,,"02,99,1,00,1,00,1,99999,9,00,1,01,1",,,,,"99999,9,10043,1","1,1,007,1,+999,9",,"SYN066AAXX  10094 08044 42965 20501 10252 20158 30043 40168 51007 80001;",
"08044099999","2010-08-10T12:00:00","4","42.4333333","-8.6166666","108.0","PONTEVEDRA, SP","FM-12","99999","V020","190,1,N,0010,1","22000,1,9,N","015000,1,N,1","+0293,1","+0168,1","10172,1","06,0000,9,1",,,,,"02,99,1,01,1,00,1,01250,1,08,1,01,1",,,,,"99999,9,10049,1","1,1,006,1,+999,9",,"SYN072AAXX  10124 08044 12665 21902 10293 20168 30049 40172 51006 60001 81081;","Q01  00002PRCP06"
"08044099999","2010-08-10T15:00:00","4","42.4333333","-8.6166666","108.0","PONTEVEDRA, SP","FM-12","99999","V020","160,1,N,0010,1","22000,1,9,N","015000,1,N,1","+0288,1","+0122,1","10172,1",,,,,,"04,99,1,00,1,00,1,99999,9,00,1,01,1",,,,,"99999,9,10049,1","0,1,000,1,+999,9",,"SYN066AAXX  10154 08044 42965 41602 10288 20122 30049 40172 50000 80001;",
"08044099999","2010-08-10T18:00:00","4","42.4333333","-8.6166666","108.0","PONTEVEDRA, SP","FM-12","99999","V020","190,1,N,0010,1","22000,1,9,N","015000,1,N,1","+0260,1","+0145,1","10173,1","12,0000,9,1",,,,,"01,99,1,00,1,00,1,99999,9,00,1,01,1",,,,"999,M,+0296,1","99999,9,10049,1","4,1,000,1,+999,9",,"SYN082AAXX  10184 08044 12965 11902 10260 20145 30049 40173 54000 60002 80001 333 10296;","Q01  00002PRCP12"
"08044099999","2010-08-11T06:00:00","4","42.4333333","-8.6166666","108.0","PONTEVEDRA, SP","FM-12","99999","V020","070,1,N,0026,1","22000,1,9,N","020000,1,N,1","+0150,1","+0063,1","10199,1","12,0000,9,1","24,0000,9,1",,,,"02,99,1,00,1,00,1,99999,9,00,1,04,1","0774,9",,,"999,N,+0141,1","99999,9,10069,1","4,1,000,1,+999,9",,"SYN100AAXX  11064 08044 12970 20705 10150 20063 30069 40199 54000 60002 80004 333 20141 50234 55129 70000;","Q01  00002PRCP24Q02  00002PRCP12"
"08044099999","2010-08-11T09:00:00","4","42.4333333","-8.6166666","108.0","PONTEVEDRA, SP","FM-12","99999","V020","230,1,N,0010,1","22000,1,9,N","020000,1,N,1","+0221,1","+0093,1","10199,1",,,,,,"01,99,1,00,1,00,1,99999,9,00,1,01,1",,,,,"99999,9,10072,1","0,1,003,1,+999,9",,"SYN066AAXX  11094 08044 42970 12302 10221 20093 30072 40199 50003 80001;",
"08044099999","2010-08-11T12:00:00","4","42.4333333","-8.6166666","108.0","PONTEVEDRA, SP","FM-12","99999","V020","190,1,N,0015,1","22000,1,9,N","020000,1,N,1","+0269,1","+0153,1","10196,1","06,0000,9,1",,,,,"01,99,1,00,1,00,1,99999,9,00,1,01,1",,,,,"99999,9,10072,1","4,1,000,1,+999,9",,"SYN072AAXX  11124 08044 12970 11903 10269 20153 30072 40196 54000 60001 80001;","Q01  00002PRCP06"
"08044099999","2010-08-11T15:00:00","4","42.4333333","-8.6166666","108.0","PONTEVEDRA, SP","FM-12","99999","V020","190,1,N,0021,1","22000,1,9,N","020000,1,N,1","+0247,1","+0174,1","10189,1",,,,,,"01,99,1,01,1,01,1,00800,1,00,1,01,1",,,,,"99999,9,10064,1","6,1,008,1,+999,9",,"SYN066AAXX  11154 08044 42570 11904 10247 20174 30064 40189 56008 81101;",
"08044099999","2010-08-11T18:00:00","4","42.4333333","-8.6166666","108.0","PONTEVEDRA, SP","FM-12","99999","V020","280,1,N,0015,1","22000,1,9,N","020000,1,N,1","+0200,1","+0160,1","10191,1","12,0000,9,1",,,,,"02,99,1,01,1,08,1,00800,1,00,1,01,1",,,,"999,M,+0271,1","99999,9,10064,1","4,1,000,1,+999,9",,"SYN082AAXX  11184 08044 12570 22803 10200 20160 30064 40191 54000 60002 81801 333 10271;","Q01  00002PRCP12"
"08044099999","2010-08-12T06:00:00","4","42.4333333","-8.6166666","108.0","PONTEVEDRA, SP","FM-12","99999","V020","040,1,N,0010,1","22000,1,9,N","015000,1,N,1","+0185,1","+0177,1","10193,1","12,0000,9,1","24,0000,9,1",,,,"03,99,1,03,1,05,1,00450,1,00,1,00,1","0774,9",,,"999,N,+0184,1","99999,9,10065,1","5,1,003,1,+999,9","02,1","SYN106AAXX  12064 08044 11465 30402 10185 20177 30065 40193 55003 60002 702// 83500 333 20184 50204 55129 70000;","Q01  00002PRCP24Q02  00002PRCP12"
"08044099999","2010-08-12T09:00:00","4","42.4333333","-8.6166666","108.0","PONTEVEDRA, SP","FM-12","99999","V020","310,1,N,0041,1","22000,1,9,N","020000,1,N,1","+0230,1","+0172,1","10194,1",,,,,,"03,99,1,03,1,02,1,00450,1,00,1,00,1",,,,,"99999,9,10068,1","0,1,003,1,+999,9",,"SYN066AAXX  12094 08044 42470 33108 10230 20172 30068 40194 50003 83200;",
"08044099999","2010-08-12T12:00:00","4","42.4333333","-8.6166666","108.0","PONTEVEDRA, SP","FM-12","99999","V020","320,1,N,0041,1","22000,1,9,N","020000,1,N,1","+0260,1","+0163,1","10188,1","06,0000,9,1",,,,,"04,99,1,03,1,02,1,00450,1,04,1,00,1",,,,,"99999,9,10064,1","8,1,004,1,+999,9",,"SYN072AAXX  12124 08044 12470 43208 10260 20163 30064 40188 58004 60001 83240;","Q01  00002PRCP06"
"08044099999","2010-08-12T15:00:00","4","42.4333333","-8.6166666","108.0","PONTEVEDRA, SP","FM-12","99999","V020","350,1,N,0051,1","22000,1,9,N","020000,1,N,1","+0268,1","+0139,1","10182,1",,,,,,"02,99,1,01,1,02,1,00450,1,04,1,00,1",,,,,"99999,9,10058,1","6,1,006,1,+999,9",,"SYN066AAXX  12154 08044 42470 23510 10268 20139 30058 40182 56006 81240;",
"08044099999","2010-08-12T18:00:00","4","42.4333333","-8.6166666","108.0","PONTEVEDRA, SP","FM-12","99999","V020","340,1,N,0046,1","22000,1,9,N","015000,1,N,1","+0242,1","+0140,1","10183,1","12,0000,9,1",,,,,"02,99,1,01,1,01,1,00450,1,00,1,02,1",,,,"999,M,+0276,1","99999,9,10058,1","5,1,000,1,+999,9",,"SYN082AAXX  12184 08044 12465 23409 10242 20140 30058 40183 55000 60002 81102 333 10276;","Q01  00002PRCP12"
"08044099999","2010-08-13T06:00:00","4","42.4333333","-8.6166666","108.0","PONTEVEDRA, SP","FM-12","99999","V020","360,1,N,0036,1","22000,1,9,N","020000,1,N,1","+0170,1","+0123,1","10196,1","12,0000,9,1","24,0000,9,1",,,,"02,99,1,02,1,05,1,00450,1,00,1,00,1","0756,9",,,"999,N,+0166,1","99999,9,10067,1","3,1,007,1,+999,9","02,1","SYN106AAXX  13064 08044 11470 23607 10170 20123 30067 40196 53007 60002 702// 82500 333 20166 50404 55126 70000;","Q01  00002PRCP24Q02  00002PRCP12"
"08044099999","2010-08-13T09:00:00","4","42.4333333","-8.6166666","108.0","PONTEVEDRA, SP","FM-12","99999","V020","360,1,N,0031,1","22000,1,9,N","020000,1,N,1","+0206,1","+0126,1","10197,1",,,,,,"01,99,1,01,1,02,1,00450,1,00,1,00,1",,,,,"99999,9,10070,1","1,1,003,1,+999,9",,"SYN066AAXX  13094 08044 42470 13606 10206 20126 30070 40197 51003 81200;",
"08044099999","2010-08-13T12:00:00","4","42.4333333","-8.6166666","108.0","PONTEVEDRA, SP","FM-12","99999","V020","010,1,N,0036,1","22000,1,9,N","020000,1,N,1","+0240,1","+0113,1","10187,1","06,0000,9,1",,,,,"02,99,1,02,1,08,1,00450,1,00,1,00,1",,,,,"99999,9,10061,1","8,1,009,1,+999,9",,"SYN072AAXX  13124 08044 12470 20107 10240 20113 30061 40187 58009 60001 82800;","Q01  00002PRCP06"
"08044099999","2010-08-13T15:00:00","4","42.4333333","-8.6166666","108.0","PONTEVEDRA, SP","FM-12","99999","V020","340,1,N,0072,1","22000,1,9,N","020000,1,N,1","+0244,1","+0110,1","10175,1",,,,,,"01,99,1,01,1,01,1,00450,1,00,1,00,1",,,,,"99999,9,10050,1","8,1,011,1,+999,9",,"SYN066AAXX  13154 08044 42470 13414 10244 20110 30050 40175 58011 81100;",
"08044099999","2010-08-13T18:00:00","4","42.4333333","-8.6166666","108.0","PONTEVEDRA, SP","FM-12","99999","V020","340,1,N,0051,1","22000,1,9,N","020000,1,N,1","+0226,1","+0110,1","10174,1","12,0000,9,1",,,,,"01,99,1,01,1,01,1,00450,1,00,1,00,1",,,,"999,M,+0255,1","99999,9,10048,1","8,1,002,1,+999,9",,"SYN082AAXX  13184 08044 12470 13410 10226 20110 30048 40174 58002 60002 81100 333 10255;","Q01  00002PRCP12"
"08044099999","2010-08-14T06:00:00","4","42.4333333","-8.6166666","108.0","PONTEVEDRA, SP","FM-12","99999","V020","340,1,N,0031,1","22000,1,9,N","020000,1,N,1","+0160,1","+0087,1","10182,1","12,0000,9,1","24,0000,9,1",,,"00,1,+99999,9,99,9","00,99,1,00,1,00,1,99999,9,00,1,00,1","0780,9",,,"999,N,+0160,1","99999,9,10053,1","3,1,009,1,+999,9","02,1","SYN100AAXX  14064 08044 11970 03406 10160 20087 30053 40182 53009 60002 702// 333 20160 50494 55130 70000;","Q01  00002PRCP24Q02  00002PRCP12"
"08044099999","2010-08-14T09:00:00","4","42.4333333","-8.6166666","108.0","PONTEVEDRA, SP","FM-12","99999","V020","010,1,N,0041,1","22000,1,9,N","020000,1,N,1","+0208,1","+0091,1","10177,1",,,,,,"01,99,1,01,1,01,1,00450,1,00,1,00,1",,,,,"99999,9,10050,1","8,1,003,1,+999,9",,"SYN066AAXX  14094 08044 42470 10108 10208 20091 30050 40177 58003 81100;",
"08044099999","2010-08-14T12:00:00","4","42.4333333","-8.6166666","108.0","PONTEVEDRA, SP","FM-12","99999","V020","360,1,N,0046,1","22000,1,9,N","020000,1,N,1","+0256,1","+0102,1","10170,1","06,0000,9,1",,,,,"01,99,1,01,1,01,1,00450,1,00,1,00,1",,,,,"99999,9,10045,1","8,1,005,1,+999,9",,"SYN072AAXX  14124 08044 12470 13609 10256 20102 30045 40170 58005 60001 81100;","Q01  00002PRCP06"
"08044099999","2010-08-14T15:00:00","4","42.4333333","-8.6166666","108.0","PONTEVEDRA, SP","FM-12","99999","V020","340,1,N,0057,1","22000,1,9,N","020000,1,N,1","+0258,1","+0112,1","10160,1",,,,,"00,1,+99999,9,99,9","00,99,1,00,1,00,1,99999,9,00,1,00,1",,,,,"99999,9,10036,1","8,1,009,1,+999,9",,"SYN060AAXX  14154 08044 42970 03411 10258 20112 30036 40160 58009;",
"08044099999","2010-08-14T18:00:00","4","42.4333333","-8.6166666","108.0","PONTEVEDRA, SP","FM-12","99999","V020","340,1,N,0051,1","22000,1,9,N","020000,1,N,1","+0237,1","+0111,1","10156,1","12,0000,9,1",,,,"00,1,+99999,9,99,9","00,99,1,00,1,00,1,99999,9,00,1,00,1",,,,"999,M,+0266,1","99999,9,10031,1","6,1,005,1,+999,9",,"SYN076AAXX  14184 08044 12970 03410 10237 20111 30031 40156 56005 60002 333 10266;","Q01  00002PRCP12"
"08044099999","2010-08-15T06:00:00","4","42.4333333","-8.6166666","108.0","PONTEVEDRA, SP","FM-12","99999","V020","330,1,N,0026,1","22000,1,9,N","030000,1,N,1","+0156,1","+0097,1","10168,1","12,0000,9,1","24,0000,9,1",,,"00,1,+99999,9,99,9","00,99,1,00,1,00,1,99999,9,00,1,00,1","0762,9","01,9","999,+0140,9","999,N,+0156,1","99999,9,10039,1","5,1,001,1,+999,9","00,1","SYN106AAXX  15064 08044 11980 03305 10156 20097 30039 40168 55001 60002 700// 333 20156 30014 50514 55127 70000;","Q01  00002PRCP24Q02  00002PRCP12"
"08044099999","2010-08-15T09:00:00","4","42.4333333","-8.6166666","108.0","PONTEVEDRA, SP","FM-12","99999","V020","350,1,N,0031,1","22000,1,9,N","030000,1,N,1","+0212,1","+0107,1","10166,1",,,,,"00,1,+99999,9,99,9","00,99,1,00,1,00,1,99999,9,00,1,00,1",,,,,"99999,9,10040,1","1,1,001,1,+999,9",,"SYN060AAXX  15094 08044 42980 03506 10212 20107 30040 40166 51001;",
"08044099999","2010-08-15T12:00:00","4","42.4333333","-8.6166666","108.0","PONTEVEDRA, SP","FM-12","99999","V020","360,1,N,0057,1","22000,1,9,N","030000,1,N,1","+0258,1","+0116,1","10168,1","06,0000,9,1",,,,"00,1,+99999,9,99,9","00,99,1,00,1,00,1,99999,9,00,1,00,1",,,,,"99999,9,10043,1","0,1,003,1,+999,9",,"SYN066AAXX  15124 08044 12980 03611 10258 20116 30043 40168 50003 60001;","Q01  00002PRCP06"
"08044099999","2010-08-15T15:00:00","4","42.4333333","-8.6166666","108.0","PONTEVEDRA, SP","FM-12","99999","V020","340,1,N,0046,1","22000,1,9,N","020000,1,N,1","+0270,1","+0111,1","10164,1",,,,,"00,1,+99999,9,99,9","00,99,1,00,1,00,1,99999,9,00,1,00,1",,,,,"99999,9,10040,1","6,1,003,1,+999,9",,"SYN060AAXX  15154 08044 42970 03409 10270 20111 30040 40164 56003;",
"08044099999","2010-08-15T18:00:00","4","42.4333333","-8.6166666","108.0","PONTEVEDRA, SP","FM-12","99999","V020","340,1,N,0051,1","22000,1,9,N","015000,1,N,1","+0250,1","+0105,1","10160,1","12,0000,9,1",,,,"00,1,+99999,9,99,9","00,99,1,00,1,00,1,99999,9,00,1,00,1",,,,"999,M,+0275,1","99999,9,10035,1","6,1,005,1,+999,9",,"SYN076AAXX  15184 08044 12965 03410 10250 20105 30035 40160 56005 60002 333 10275;","Q01  00002PRCP12"
"08044099999","2010-08-16T06:00:00","4","42.4333333","-8.6166666","108.0","PONTEVEDRA, SP","FM-12","99999","V020","180,1,N,0010,1","22000,1,9,N","030000,1,N,1","+0142,1","+0108,1","10170,1","12,0000,9,1","24,0000,9,1",,,"00,1,+99999,9,99,9","00,99,1,00,1,00,1,99999,9,00,1,00,1","0792,9","01,9","999,+0120,9","999,N,+0142,1","99999,9,10040,1","3,1,003,1,+999,9","00,1","SYN106AAXX  16064 08044 11980 01802 10142 20108 30040 40170 53003 60002 700// 333 20142 30012 50504 55132 70000;","Q01  00002PRCP24Q02  00002PRCP12"
"08044099999","2010-08-16T09:00:00","4","42.4333333","-8.6166666","108.0","PONTEVEDRA, SP","FM-12","99999","V020","300,1,N,0010,1","22000,1,9,N","020000,1,N,1","+0208,1","+0130,1","10172,1",,,,,"00,1,+99999,9,99,9","00,99,1,00,1,00,1,99999,9,00,1,00,1",,,,,"99999,9,10045,1","1,1,005,1,+999,9",,"SYN060AAXX  16094 08044 42970 03002 10208 20130 30045 40172 51005;",
"08044099999","2010-08-16T12:00:00","4","42.4333333","-8.6166666","108.0","PONTEVEDRA, SP","FM-12","99999","V020","290,1,N,0046,1","22000,1,9,N","020000,1,N,1","+0274,1","+0141,1","10170,1","06,0000,9,1",,,,,"01,99,1,00,1,00,1,99999,9,00,1,01,1",,,,,"99999,9,10046,1","0,1,001,1,+999,9",,"SYN072AAXX  16124 08044 12970 12909 10274 20141 30046 40170 50001 60001 80001;","Q01  00002PRCP06"
"08044099999","2010-08-16T15:00:00","4","42.4333333","-8.6166666","108.0","PONTEVEDRA, SP","FM-12","99999","V020","340,1,N,0036,1","22000,1,9,N","015000,1,N,1","+0308,1","+0131,1","10163,1",,,,,,"01,99,1,01,1,00,1,02250,1,03,1,00,1",,,,,"99999,9,10041,1","6,1,005,1,+999,9",,"SYN066AAXX  16154 08044 42865 13407 10308 20131 30041 40163 56005 81030;",
"08044099999","2010-08-16T18:00:00","4","42.4333333","-8.6166666","108.0","PONTEVEDRA, SP","FM-12","99999","V020","350,1,N,0036,1","22000,1,9,N","010000,1,N,1","+0290,1","+0124,1","10162,1","12,0000,9,1",,,,"00,1,+99999,9,99,9","00,99,1,00,1,00,1,99999,9,00,1,00,1",,,,"999,M,+0314,1","99999,9,10039,1","6,1,002,1,+999,9",,"SYN076AAXX  16184 08044 12960 03507 10290 20124 30039 40162 56002 60002 333 10314;","Q01  00002PRCP12"
"08044099999","2010-08-17T06:00:00","4","42.4333333","-8.6166666","108.0","PONTEVEDRA, SP","FM-12","99999","V020","020,1,N,0015,1","22000,1,9,N","020000,1,N,1","+0130,1","+0081,1","10184,1","12,0000,9,1","24,0000,9,1",,,,"01,99,1,01,1,00,1,02250,1,03,1,01,1","0780,9","01,9","999,+0110,9","999,N,+0129,1","99999,9,10054,1","6,1,001,1,+999,9","02,1","SYN112AAXX  17064 08044 11870 10203 10130 20081 30054 40184 56001 60002 702// 81031 333 20129 30011 50454 55130 70000;","Q01  00002PRCP24Q02  00002PRCP12"
"08044099999","2010-08-17T09:00:00","4","42.4333333","-8.6166666","108.0","PONTEVEDRA, SP","FM-12","99999","V020","300,1,N,0021,1","22000,1,9,N","020000,1,N,1","+0196,1","+0126,1","10183,1",,,,,,"01,99,1,00,1,00,1,99999,9,00,1,01,1",,,,,"99999,9,10056,1","1,1,002,1,+999,9",,"SYN066AAXX  17094 08044 42970 13004 10196 20126 30056 40183 51002 80001;",
"08044099999","2010-08-17T12:00:00","4","42.4333333","-8.6166666","108.0","PONTEVEDRA, SP","FM-12","99999","V020","280,1,N,0031,1","22000,1,9,N","020000,1,N,1","+0270,1","+0141,1","10176,1","06,0000,9,1",,,,"00,1,+99999,9,99,9","00,99,1,00,1,00,1,99999,9,00,1,00,1",,,,,"99999,9,10052,1","8,1,004,1,+999,9",,"SYN066AAXX  17124 08044 12970 02806 10270 20141 30052 40176 58004 60001;","Q01  00002PRCP06"
"08044099999","2010-08-17T15:00:00","4","42.4333333","-8.6166666","108.0","PONTEVEDRA, SP","FM-12","99999","V020","250,1,N,0015,1","22000,1,9,N","010000,1,N,1","+0266,1","+0162,1","10174,1",,,,,,"01,99,1,00,1,00,1,99999,9,00,1,01,1",,,,,"99999,9,10050,1","7,1,002,1,+999,9",,"SYN066AAXX  17154 08044 42960 12503 10266 20162 30050 40174 57002 80001;",
"08044099999","2010-08-17T18:00:00","4","42.4333333","-8.6166666","108.0","PONTEVEDRA, SP","FM-12","99999","V020","190,1,N,0015,1","22000,1,9,N","006000,1,N,1","+0239,1","+0162,1","10170,1","12,0000,9,1",,"0,1,06,1","0,1,06,1",,"01,99,1,00,1,00,1,99999,9,00,1,01,1",,,,"999,M,+0288,1","99999,9,10045,1","6,1,005,1,+999,9","05,1","SYN088AAXX  17184 08044 11956 11903 10239 20162 30045 40170 56005 60002 70500 80001 333 10288;","Q01  00002PRCP12"
"08044099999","2010-08-18T06:00:00","4","42.4333333","-8.6166666","108.0","PONTEVEDRA, SP","FM-12","99999","V020","180,1,N,0010,1","02100,1,9,N","010000,1,N,1","+0174,1","+0161,1","10170,1","12,0000,9,1","24,0000,9,1",,,,"08,99,1,08,1,00,1,02250,1,07,1,99,9","0774,9","01,9","999,+0160,9","999,N,+0173,1","99999,9,10042,1","6,1,002,1,+999,9","02,1","SYN112AAXX  18064 08044 11860 81802 10174 20161 30042 40170 56002 60002 702// 8807/ 333 20173 30016 50234 55129 70000;","Q01  00002PRCP24Q02  00002PRCP12"
"08044099999","2010-08-18T09:00:00","4","42.4333333","-8.6166666","108.0","PONTEVEDRA, SP","FM-12","99999","V020","160,1,N,0010,1","00900,1,9,N","006000,1,N,1","+0194,1","+0175,1","10169,1",,,"2,1,03,1","2,1,03,1",,"08,99,1,05,1,08,1,00450,1,07,1,99,9",,,,,"99999,9,10042,1","4,1,000,1,+999,9","10,1","SYN072AAXX  18094 08044 41456 81602 10194 20175 30042 40169 54000 71022 8587/;",
"08044099999","2010-08-18T12:00:00","4","42.4333333","-8.6166666","108.0","PONTEVEDRA, SP","FM-12","99999","V020","280,1,N,0015,1","00600,1,9,N","010000,1,N,1","+0224,1","+0184,1","10165,1","06,0000,9,1",,"5,1,06,1","2,1,06,1",,"07,99,1,06,1,08,1,00250,1,03,1,01,1",,,,,"99999,9,10039,1","8,1,003,1,+999,9","02,1","SYN078AAXX  18124 08044 11360 72803 10224 20184 30039 40165 58003 69901 70252 86831;","Q01  00002PRCP06"
"08044099999","2010-08-18T15:00:00","4","42.4333333","-8.6166666","108.0","PONTEVEDRA, SP","FM-12","99999","V020","220,1,N,0015,1","00900,1,9,N","010000,1,N,1","+0221,1","+0181,1","10159,1",,,,,,"06,99,1,05,1,08,1,00450,1,03,1,00,1",,,,,"99999,9,10033,1","8,1,006,1,+999,9",,"SYN066AAXX  18154 08044 42460 62203 10221 20181 30033 40159 58006 85830;",
"08044099999","2010-08-18T18:00:00","4","42.4333333","-8.6166666","108.0","PONTEVEDRA, SP","FM-12","99999","V020","270,1,N,0015,1","22000,1,9,N","006000,1,N,1","+0208,1","+0166,1","10149,1","12,0000,9,1",,"1,1,06,1","1,1,06,1",,"01,99,1,01,1,05,1,00250,1,03,1,01,1",,,,"999,M,+0234,1","99999,9,10023,1","7,1,010,1,+999,9","05,1","SYN088AAXX  18184 08044 11356 12703 10208 20166 30023 40149 57010 69902 70511 81531 333 10234;","Q01  00002PRCP12"
"08044099999","2010-08-19T06:00:00","4","42.4333333","-8.6166666","108.0","PONTEVEDRA, SP","FM-12","99999","V020","090,1,N,0021,1","22000,1,9,N","012000,1,N,1","+0141,1","+0128,1","10147,1","12,0000,9,1","24,0000,9,1",,,,"01,99,1,01,1,06,1,00075,1,00,1,00,1","0264,9",,,"999,N,+0138,1","99999,9,10018,1","6,1,002,1,+999,9","02,1","SYN106AAXX  19064 08044 11162 10904 10141 20128 30018 40147 56002 60002 702// 81600 333 20138 50084 55044 79999;","Q01  00002PRCP24Q02  00002PRCP12"
"08044099999","2010-08-19T09:00:00","4","42.4333333","-8.6166666","108.0","PONTEVEDRA, SP","FM-12","99999","V020","230,1,N,0010,1","22000,1,9,N","015000,1,N,1","+0198,1","+0159,1","10145,1",,,,,,"01,99,1,01,1,05,1,00250,1,03,1,01,1",,,,,"99999,9,10018,1","0,1,000,1,+999,9",,"SYN066AAXX  19094 08044 42365 12302 10198 20159 30018 40145 50000 81531;",
"08044099999","2010-08-19T12:00:00","4","42.4333333","-8.6166666","108.0","PONTEVEDRA, SP","FM-12","99999","V020","270,1,N,0021,1","22000,1,9,N","015000,1,N,1","+0234,1","+0164,1","10149,1","06,0000,9,1",,,,,"01,99,1,01,1,05,1,00250,1,03,1,01,1",,,,,"99999,9,10024,1","0,1,006,1,+999,9",,"SYN072AAXX  19124 08044 12365 12704 10234 20164 30024 40149 50006 60001 81531;","Q01  00002PRCP06"
"08044099999","2010-08-19T15:00:00","4","42.4333333","-8.6166666","108.0","PONTEVEDRA, SP","FM-12","99999","V020","250,1,N,0015,1","22000,1,9,N","020000,1,N,1","+0220,1","+0158,1","10148,1",,,,,,"01,99,1,00,1,00,1,99999,9,00,1,02,1",,,,,"99999,9,10022,1","6,1,002,1,+999,9",,"SYN066AAXX  19154 08044 42970 12503 10220 20158 30022 40148 56002 80002;",
"08044099999","2010-08-19T18:00:00","4","42.4333333","-8.6166666","108.0","PONTEVEDRA, SP","FM-12","99999","V020","150,1,N,0015,1","22000,1,9,N","006000,1,N,1","+0202,1","+0152,1","10149,1","12,0000,9,1",,"0,1,06,1","0,1,06,1",,"03,99,1,00,1,00,1,99999,9,00,1,02,1",,,,"999,M,+0243,1","99999,9,10023,1","3,1,001,1,+999,9","05,1","SYN088AAXX  19184 08044 11956 31503 10202 20152 30023 40149 53001 60002 70500 80002 333 10243;","Q01  00002PRCP12"
"08044099999","2010-08-20T06:00:00","4","42.4333333","-8.6166666","108.0","PONTEVEDRA, SP","FM-12","99999","V020","070,1,N,0015,1","22000,1,9,N","001500,1,N,1","+0144,1","+0133,1","10191,1","12,0000,9,1","24,0000,9,1",,,,"03,99,1,02,1,00,1,01750,1,03,1,01,1","0768,9",,,"999,N,+0140,1","99999,9,10061,1","2,1,011,1,+999,9","40,1","SYN106AAXX  20064 08044 11715 30703 10144 20133 30061 40191 52011 60002 740// 82031 333 20140 50144 55128 70000;","Q01  00002PRCP24Q02  00002PRCP12"
"08044099999","2010-08-20T09:00:00","4","42.4333333","-8.6166666","108.0","PONTEVEDRA, SP","FM-12","99999","V020","200,1,N,0010,1","22000,1,9,N","020000,1,N,1","+0217,1","+0164,1","10195,1",,,,,,"01,99,1,01,1,05,1,00250,1,03,1,01,1",,,,,"99999,9,10069,1","2,1,008,1,+999,9",,"SYN066AAXX  20094 08044 42370 12002 10217 20164 30069 40195 52008 81531;",
"08044099999","2010-08-20T12:00:00","4","42.4333333","-8.6166666","108.0","PONTEVEDRA, SP","FM-12","99999","V020","220,1,N,0015,1","22000,1,9,N","020000,1,N,1","+0244,1","+0176,1","10204,1","06,0000,9,1",,,,,"01,99,1,01,1,05,1,00250,1,00,1,00,1",,,,,"99999,9,10079,1","1,1,010,1,+999,9",,"SYN072AAXX  20124 08044 12370 12203 10244 20176 30079 40204 51010 60001 81500;","Q01  00002PRCP06"
"08044099999","2010-08-20T15:00:00","4","42.4333333","-8.6166666","108.0","PONTEVEDRA, SP","FM-12","99999","V020","260,1,N,0021,1","22000,1,9,N","020000,1,N,1","+0238,1","+0184,1","10206,1",,,,,"00,1,+99999,9,99,9","00,99,1,00,1,00,1,99999,9,00,1,00,1",,,,,"99999,9,10081,1","0,1,002,1,+999,9",,"SYN060AAXX  20154 08044 42970 02604 10238 20184 30081 40206 50002;",
"08044099999","2010-08-20T18:00:00","4","42.4333333","-8.6166666","108.0","PONTEVEDRA, SP","FM-12","99999","V020","190,1,N,0010,1","22000,1,9,N","020000,1,N,1","+0214,1","+0176,1","10211,1","12,0000,9,1",,,,"00,1,+99999,9,99,9","00,99,1,00,1,00,1,99999,9,00,1,00,1",,,,"999,M,+0255,1","99999,9,10084,1","3,1,003,1,+999,9",,"SYN076AAXX  20184 08044 12970 01902 10214 20176 30084 40211 53003 60002 333 10255;","Q01  00002PRCP12"
"08044099999","2010-08-21T06:00:00","4","42.4333333","-8.6166666","108.0","PONTEVEDRA, SP","FM-12","99999","V020","999,9,C,0000,1","22000,1,9,N","020000,1,N,1","+0151,1","+0141,1","10219,1","12,0000,9,1","24,0000,9,1",,,,"01,99,1,01,1,00,1,01750,1,03,1,00,1","0804,9",,,"999,N,+0151,1","99999,9,10089,1","5,1,000,1,+999,9","02,1","SYN106AAXX  21064 08044 11770 10000 10151 20141 30089 40219 55000 60002 702/0 81030 333 20151 50104 55134 70000;","Q01  00002PRCP24Q02  00002PRCP12"
"08044099999","2010-08-21T09:00:00","4","42.4333333","-8.6166666","108.0","PONTEVEDRA, SP","FM-12","99999","V020","200,1,N,0010,1","22000,1,9,N","020000,1,N,1","+0229,1","+0162,1","10217,1",,,,,,"01,99,1,01,1,00,1,01750,1,03,1,00,1",,,,,"99999,9,10091,1","1,1,002,1,+999,9",,"SYN066AAXX  21094 08044 42770 12002 10229 20162 30091 40217 51002 81030;",
"08044099999","2010-08-21T12:00:00","4","42.4333333","-8.6166666","108.0","PONTEVEDRA, SP","FM-12","99999","V020","190,1,N,0015,1","22000,1,9,N","020000,1,N,1","+0270,1","+0178,1","10215,1","06,0000,9,1",,,,"00,1,+99999,9,99,9","00,99,1,00,1,00,1,99999,9,00,1,00,1",,,,,"99999,9,10091,1","0,1,000,1,+999,9",,"SYN066AAXX  21124 08044 12970 01903 10270 20178 30091 40215 50000 60001;","Q01  00002PRCP06"
"08044099999","2010-08-21T15:00:00","4","42.4333333","-8.6166666","108.0","PONTEVEDRA, SP","FM-12","99999","V020","220,1,N,0015,1","22000,1,9,N","020000,1,N,1","+0252,1","+0179,1","10210,1",,,,,,"01,99,1,01,1,02,1,00800,1,00,1,00,1",,,,,"99999,9,10085,1","8,1,006,1,+999,9",,"SYN066AAXX  21154 08044 42570 12203 10252 20179 30085 40210 58006 81200;",
"08044099999","2010-08-21T18:00:00","4","42.4333333","-8.6166666","108.0","PONTEVEDRA, SP","FM-12","99999","V020","270,1,N,0010,1","00210,1,9,N","000800,1,N,1","+0194,1","+0172,1","10212,1","12,0000,9,1",,"4,1,06,1","1,1,06,1",,"08,99,1,08,1,06,1,00250,1,99,9,99,9",,,,"999,M,+0282,1","99999,9,10085,1","4,1,000,1,+999,9","46,1","SYN088AAXX  21184 08044 11308 82702 10194 20172 30085 40212 54000 60002 74641 886// 333 10282;","Q01  00002PRCP12"
"08044099999","2010-08-22T06:00:00","4","42.4333333","-8.6166666","108.0","PONTEVEDRA, SP","FM-12","99999","V020","340,1,N,0015,1","00120,1,9,N","000200,1,N,1","+0162,1","+0157,1","10199,1","12,0000,9,1","24,0000,9,1",,,,"08,99,1,08,1,07,1,00150,1,99,9,99,9","0690,9",,,"999,N,+0162,1","99999,9,10070,1","6,1,002,1,+999,9","44,1","SYN106AAXX  22064 08044 11202 83403 10162 20157 30070 40199 56002 60002 744/4 887// 333 20162 50144 55115 70000;","Q01  00002PRCP24Q02  00002PRCP12"
"08044099999","2010-08-22T09:00:00","4","42.4333333","-8.6166666","108.0","PONTEVEDRA, SP","FM-12","99999","V020","190,1,N,0010,1","00210,1,9,N","002000,1,N,1","+0173,1","+0168,1","10202,1",,,"4,1,03,1","2,1,03,1",,"08,99,1,08,1,07,1,00250,1,99,9,99,9",,,,,"99999,9,10074,1","1,1,004,1,+999,9","10,1","SYN072AAXX  22094 08044 41320 81902 10173 20168 30074 40202 51004 71042 887//;",
"08044099999","2010-08-22T12:00:00","4","42.4333333","-8.6166666","108.0","PONTEVEDRA, SP","FM-12","99999","V020","170,1,N,0010,1","00900,1,9,N","008000,1,N,1","+0208,1","+0178,1","10199,1","06,0000,9,1",,"2,1,06,1","2,1,06,1",,"08,99,1,08,1,08,1,00450,1,99,9,99,9",,,,,"99999,9,10072,1","8,1,002,1,+999,9","10,1","SYN078AAXX  22124 08044 11458 81702 10208 20178 30072 40199 58002 60001 71022 888//;","Q01  00002PRCP06"
"08044099999","2010-08-22T15:00:00","4","42.4333333","-8.6166666","108.0","PONTEVEDRA, SP","FM-12","99999","V020","260,1,N,0021,1","01200,1,9,N","020000,1,N,1","+0222,1","+0173,1","10191,1",,,,,,"08,99,1,07,1,08,1,00800,1,04,1,99,9",,,,,"99999,9,10065,1","8,1,007,1,+999,9",,"SYN066AAXX  22154 08044 42570 82604 10222 20173 30065 40191 58007 8784/;",
"08044099999","2010-08-22T18:00:00","4","42.4333333","-8.6166666","108.0","PONTEVEDRA, SP","FM-12","99999","V020","200,1,N,0010,1","00900,1,9,N","015000,1,N,1","+0207,1","+0171,1","10187,1","12,0000,9,1",,,,,"08,99,1,08,1,08,1,00450,1,99,9,99,9",,,,"999,M,+0222,1","99999,9,10060,1","6,1,005,1,+999,9",,"SYN082AAXX  22184 08044 12465 82002 10207 20171 30060 40187 56005 60002 888// 333 10222;","Q01  00002PRCP12"
"08044099999","2010-08-23T06:00:00","4","42.4333333","-8.6166666","108.0","PONTEVEDRA, SP","FM-12","99999","V020","170,1,N,0036,1","00900,1,9,N","015000,1,N,1","+0188,1","+0176,1","10136,1","12,0000,9,1","24,0000,9,1",,,,"08,99,1,08,1,08,1,00450,1,99,9,99,9","0012,9",,,"999,N,+0186,1","99999,9,10009,1","7,1,016,1,+999,9","02,1","SYN106AAXX  23064 08044 11465 81707 10188 20176 30009 40136 57016 60002 702/2 888// 333 20186 50044 55002 70000;","Q01  00002PRCP24Q02  00002PRCP12"
"08044099999","2010-08-23T09:00:00","4","42.4333333","-8.6166666","108.0","PONTEVEDRA, SP","FM-12","99999","V020","240,1,N,0010,1","00900,1,9,N","002000,1,N,1","+0188,1","+0176,1","10131,1",,,"6,1,03,1","2,1,03,1",,"08,99,1,08,1,08,1,00450,1,99,9,99,9",,,,,"99999,9,10004,1","6,1,005,1,+999,9","61,1","SYN072AAXX  23094 08044 41420 82402 10188 20176 30004 40131 56005 76162 888//;",
"08044099999","2010-08-23T12:00:00","4","42.4333333","-8.6166666","108.0","PONTEVEDRA, SP","FM-12","99999","V020","200,1,N,0015,1","00900,1,9,N","008000,1,N,1","+0200,1","+0197,1","10124,1","06,0010,9,1",,"6,1,06,1","5,1,06,1",,"08,99,1,08,1,08,1,00450,1,99,9,99,9",,,,,"99999,9,09998,1","8,1,006,1,+999,9","51,1","SYN078AAXX  23124 08044 11458 82003 10200 20197 39998 40124 58006 60011 75165 888//;",
"08044099999","2010-08-23T15:00:00","4","42.4333333","-8.6166666","108.0","PONTEVEDRA, SP","FM-12","99999","V020","320,1,N,0010,1","00900,1,9,N","006000,1,N,1","+0207,1","+0204,1","10126,1",,,"6,1,03,1","5,1,03,1",,"08,99,1,08,1,08,1,00450,1,99,9,99,9",,,,,"99999,9,10000,1","3,1,002,1,+999,9","21,1","SYN072AAXX  23154 08044 41456 83202 10207 20204 30000 40126 53002 72165 888//;",
"08044099999","2010-08-23T18:00:00","4","42.4333333","-8.6166666","108.0","PONTEVEDRA, SP","FM-12","99999","V020","210,1,N,0005,1","00600,1,9,N","002000,1,N,1","+0187,1","+0184,1","10136,1","12,0030,9,1",,"5,1,06,1","2,1,06,1",,"08,99,1,08,1,08,1,00250,1,99,9,99,9",,,,"999,M,+0208,1","99999,9,10009,1","3,1,009,1,+999,9","53,1","SYN088AAXX  23184 08044 11320 82101 10187 20184 30009 40136 53009 60032 75352 888// 333 10208;",
"08044099999","2010-08-24T06:00:00","4","42.4333333","-8.6166666","108.0","PONTEVEDRA, SP","FM-12","99999","V020","110,1,N,0005,1","22000,1,9,N","015000,1,N,1","+0138,1","+0135,1","10181,1","12,0010,9,1","24,0043,9,1",,,,"02,99,1,01,1,06,1,00150,1,00,1,01,1","0000,9",,,"999,N,+0138,1","99999,9,10051,1","3,1,008,1,+999,9","02,1","SYN106AAXX  24064 08044 11265 21101 10138 20135 30051 40181 53008 69992 702/5 81601 333 20138 50054 55000 70042;",
"08044099999","2010-08-24T09:00:00","4","42.4333333","-8.6166666","108.0","PONTEVEDRA, SP","FM-12","99999","V020","250,1,N,0021,1","22000,1,9,N","020000,1,N,1","+0196,1","+0155,1","10186,1",,,,,,"02,99,1,01,1,05,1,00800,1,00,1,01,1",,,,,"99999,9,10059,1","2,1,008,1,+999,9",,"SYN066AAXX  24094 08044 42570 22504 10196 20155 30059 40186 52008 81501;",
"08044099999","2010-08-24T12:00:00","4","42.4333333","-8.6166666","108.0","PONTEVEDRA, SP","FM-12","99999","V020","280,1,N,0031,1","22000,1,9,N","025000,1,N,1","+0240,1","+0132,1","10184,1","06,0000,9,1",,,,,"01,99,1,01,1,05,1,00800,1,00,1,01,1",,,,,"99999,9,10059,1","4,1,000,1,+999,9",,"SYN072AAXX  24124 08044 12575 12806 10240 20132 30059 40184 54000 60001 81501;","Q01  00002PRCP06"
"08044099999","2010-08-24T15:00:00","4","42.4333333","-8.6166666","108.0","PONTEVEDRA, SP","FM-12","99999","V020","290,1,N,0015,1","22000,1,9,N","025000,1,N,1","+0217,1","+0102,1","10184,1",,,,,,"01,99,1,00,1,00,1,99999,9,00,1,01,1",,,,,"99999,9,10058,1","8,1,001,1,+999,9",,"SYN066AAXX  24154 08044 42975 12903 10217 20102 30058 40184 58001 80001;",
"08044099999","2010-08-24T18:00:00","4","42.4333333","-8.6166666","108.0","PONTEVEDRA, SP","FM-12","99999","V020","170,1,N,0021,1","22000,1,9,N","025000,1,N,1","+0197,1","+0109,1","10185,1","12,0000,9,1",,,,,"03,99,1,03,1,05,1,00800,1,00,1,00,1",,,,"999,M,+0243,1","99999,9,10058,1","4,1,000,1,+999,9",,"SYN082AAXX  24184 08044 12575 31704 10197 20109 30058 40185 54000 60002 83500 333 10243;","Q01  00002PRCP12"
"08044099999","2010-08-25T06:00:00","4","42.4333333","-8.6166666","108.0","PONTEVEDRA, SP","FM-12","99999","V020","050,1,N,0015,1","00210,1,9,N","001000,1,N,1","+0174,1","+0166,1","10179,1","12,9999,9,9","24,9999,9,9",,,,"08,99,1,08,1,07,1,00250,1,99,9,99,9","0618,9",,,"999,N,+0174,1","99999,9,10051,1","5,1,005,1,+999,9","51,1","SYN106AAXX  25064 08044 11310 80503 10174 20166 30051 40179 55005 69902 751// 887// 333 20174 50134 55103 79999;","Q01  00002PRCP24Q02  00002PRCP12Q03  00002PRCP12Q04  00002PRCP24"
"08044099999","2010-08-25T09:00:00","4","42.4333333","-8.6166666","108.0","PONTEVEDRA, SP","FM-12","99999","V020","300,1,N,0010,1","00900,1,9,N","008000,1,N,1","+0191,1","+0186,1","10180,1",,,"5,1,03,1","2,1,03,1",,"08,99,1,08,1,08,1,00450,1,99,9,99,9",,,,,"99999,9,10053,1","3,1,002,1,+999,9","10,1","SYN072AAXX  25094 08044 41458 83002 10191 20186 30053 40180 53002 71052 888//;",
"08044099999","2010-08-25T12:00:00","4","42.4333333","-8.6166666","108.0","PONTEVEDRA, SP","FM-12","99999","V020","270,1,N,0026,1","00900,1,9,N","012000,1,N,1","+0240,1","+0197,1","10178,1","06,0000,2,1",,"5,1,06,1","2,1,06,1",,"06,99,1,06,1,08,1,00450,1,00,1,00,1",,,,,"99999,9,10053,1","0,1,000,1,+999,9","01,1","SYN078AAXX  25124 08044 11462 62705 10240 20197 30053 40178 50000 69921 70152 86800;",
"08044099999","2010-08-25T15:00:00","4","42.4333333","-8.6166666","108.0","PONTEVEDRA, SP","FM-12","99999","V020","090,1,N,0015,1","22000,1,9,N","025000,1,N,1","+0234,1","+0187,1","10172,1",,,,,,"01,99,1,01,1,08,1,00800,1,00,1,00,1",,,,,"99999,9,10047,1","8,1,006,1,+999,9",,"SYN066AAXX  25154 08044 42575 10903 10234 20187 30047 40172 58006 81800;",
"08044099999","2010-08-25T18:00:00","4","42.4333333","-8.6166666","108.0","PONTEVEDRA, SP","FM-12","99999","V020","250,1,N,0010,1","22000,1,9,N","020000,1,N,1","+0228,1","+0186,1","10165,1","12,0000,2,1",,,,,"01,99,1,00,1,00,1,99999,9,00,1,04,1",,,,"999,M,+0251,1","99999,9,10040,1","7,1,007,1,+999,9",,"SYN082AAXX  25184 08044 12970 12502 10228 20186 30040 40165 57007 69922 80004 333 10251;",
"08044099999","2010-08-26T06:00:00","4","42.4333333","-8.6166666","108.0","PONTEVEDRA, SP","FM-12","99999","V020","180,1,N,0010,1","00420,1,9,N","008000,1,N,1","+0187,1","+0180,1","10144,1","12,9999,9,9","24,0003,9,1",,,,"08,99,1,08,1,05,1,00450,1,99,9,99,9","0180,9",,,"999,N,+0185,1","99999,9,10017,1","8,1,003,1,+999,9","50,1","SYN106AAXX  26064 08044 11458 81802 10187 20180 30017 40144 58003 69902 750/2 885// 333 20185 50184 55030 70002;","Q01  00002PRCP12Q02  00002PRCP12"
"08044099999","2010-08-26T09:00:00","4","42.4333333","-8.6166666","108.0","PONTEVEDRA, SP","FM-12","99999","V020","170,1,N,0021,1","00900,1,9,N","012000,1,N,1","+0200,1","+0185,1","10145,1",,,"5,1,03,1","2,1,03,1",,"08,99,1,08,1,08,1,00450,1,99,9,99,9",,,,,"99999,9,10019,1","2,1,002,1,+999,9","02,1","SYN072AAXX  26094 08044 41462 81704 10200 20185 30019 40145 52002 70252 888//;",
"08044099999","2010-08-26T12:00:00","4","42.4333333","-8.6166666","108.0","PONTEVEDRA, SP","FM-12","99999","V020","180,1,N,0021,1","01200,1,9,N","012000,1,N,1","+0228,1","+0183,1","10144,1","06,0000,2,1",,"5,1,06,1","2,1,06,1",,"08,99,1,08,1,08,1,00800,1,99,9,99,9",,,,,"99999,9,10019,1","0,1,000,1,+999,9","02,1","SYN078AAXX  26124 08044 11562 81804 10228 20183 30019 40144 50000 69901 70252 888//;",
"08044099999","2010-08-26T15:00:00","4","42.4333333","-8.6166666","108.0","PONTEVEDRA, SP","FM-12","99999","V020","050,1,N,0010,1","01200,1,9,N","015000,1,N,1","+0231,1","+0182,1","10143,1",,,,,,"08,99,1,06,1,08,1,00800,1,07,1,99,9",,,,,"99999,9,10018,1","8,1,001,1,+999,9",,"SYN066AAXX  26154 08044 42565 80502 10231 20182 30018 40143 58001 8687/;",
"08044099999","2010-08-26T18:00:00","4","42.4333333","-8.6166666","108.0","PONTEVEDRA, SP","FM-12","99999","V020","180,1,N,0036,1","00900,1,9,N","012000,1,N,1","+0202,1","+0197,1","10137,1","12,0003,9,1",,"2,1,06,1","2,1,06,1",,"08,99,1,08,1,08,1,00450,1,99,9,99,9",,,,"999,M,+0243,1","99999,9,10011,1","6,1,007,1,+999,9","63,1","SYN088AAXX  26184 08044 11462 81807 10202 20197 30011 40137 56007 69932 76322 888// 333 10243;",
"08044099999","2010-08-27T06:00:00","4","42.4333333","-8.6166666","108.0","PONTEVEDRA, SP","FM-12","99999","V020","130,1,N,0005,1","00900,1,9,N","008000,1,N,1","+0177,1","+0172,1","10171,1","12,0003,9,1","24,0005,9,1",,,,"07,99,1,07,1,08,1,00450,1,99,9,99,9","0000,9",,,"999,N,+0177,1","99999,9,10043,1","3,1,006,1,+999,9","10,1","SYN106AAXX  27064 08044 11458 71301 10177 20172 30043 40171 53006 69932 710/8 878// 333 20177 50124 55000 70006;",
"08044099999","2010-08-27T09:00:00","4","42.4333333","-8.6166666","108.0","PONTEVEDRA, SP","FM-12","99999","V020","110,1,N,0010,1","01200,1,9,N","012000,1,N,1","+0208,1","+0162,1","10186,1",,,,,,"06,99,1,06,1,08,1,00800,1,00,1,00,1",,,,,"99999,9,10059,1","2,1,016,1,+999,9",,"SYN066AAXX  27094 08044 42562 61102 10208 20162 30059 40186 52016 86800;",
"08044099999","2010-08-27T12:00:00","4","42.4333333","-8.6166666","108.0","PONTEVEDRA, SP","FM-12","99999","V020","290,1,N,0026,1","22000,1,9,N","020000,1,N,1","+0239,1","+0137,1","10195,1","06,0000,9,1",,,,,"04,99,1,04,1,08,1,00800,1,00,1,00,1",,,,,"99999,9,10069,1","2,1,010,1,+999,9",,"SYN072AAXX  27124 08044 12570 42905 10239 20137 30069 40195 52010 60001 84800;","Q01  00002PRCP06"
"08044099999","2010-08-27T15:00:00","4","42.4333333","-8.6166666","108.0","PONTEVEDRA, SP","FM-12","99999","V020","290,1,N,0015,1","22000,1,9,N","020000,1,N,1","+0232,1","+0150,1","10195,1",,,,,,"03,99,1,03,1,05,1,00800,1,00,1,00,1",,,,,"99999,9,10069,1","4,1,000,1,+999,9",,"SYN066AAXX  27154 08044 42570 32903 10232 20150 30069 40195 54000 83500;",
"08044099999","2010-08-27T18:00:00","4","42.4333333","-8.6166666","108.0","PONTEVEDRA, SP","FM-12","99999","V020","140,1,N,0010,1","22000,1,9,N","020000,1,N,1","+0220,1","+0154,1","10193,1","12,0000,9,1",,,,,"02,99,1,02,1,05,1,00800,1,00,1,00,1",,,,"999,M,+0247,1","99999,9,10067,1","6,1,002,1,+999,9",,"SYN082AAXX  27184 08044 12570 21402 10220 20154 30067 40193 56002 60002 82500 333 10247;","Q01  00002PRCP12"
"08044099999","2010-08-28T06:00:00","4","42.4333333","-8.6166666","108.0","PONTEVEDRA, SP","FM-12","99999","V020","120,1,N,0010,1","22000,1,9,N","025000,1,N,1","+0146,1","+0140,1","10196,1","12,0000,9,1","24,0000,9,1",,,,"01,99,1,00,1,00,1,99999,9,00,1,01,1","0366,9",,,"999,N,+0144,1","99999,9,10066,1","5,1,006,1,+999,9","02,1","SYN106AAXX  28064 08044 11975 11202 10146 20140 30066 40196 55006 60002 702/0 80001 333 20144 50064 55061 70000;","Q01  00002PRCP24Q02  00002PRCP12"
"08044099999","2010-08-28T09:00:00","4","42.4333333","-8.6166666","108.0","PONTEVEDRA, SP","FM-12","99999","V020","280,1,N,0010,1","22000,1,9,N","025000,1,N,1","+0217,1","+0155,1","10192,1",,,,,"00,1,+99999,9,99,9","00,99,1,00,1,00,1,99999,9,00,1,00,1",,,,,"99999,9,10066,1","0,1,000,1,+999,9",,"SYN060AAXX  28094 08044 42975 02802 10217 20155 30066 40192 50000;",
"08044099999","2010-08-28T12:00:00","4","42.4333333","-8.6166666","108.0","PONTEVEDRA, SP","FM-12","99999","V020","330,1,N,0021,1","22000,1,9,N","025000,1,N,1","+0275,1","+0168,1","10189,1","06,0000,9,1",,,,"00,1,+99999,9,99,9","00,99,1,00,1,00,1,99999,9,00,1,00,1",,,,,"99999,9,10065,1","8,1,001,1,+999,9",,"SYN066AAXX  28124 08044 12975 03304 10275 20168 30065 40189 58001 60001;","Q01  00002PRCP06"
"08044099999","2010-08-28T15:00:00","4","42.4333333","-8.6166666","108.0","PONTEVEDRA, SP","FM-12","99999","V020","300,1,N,0046,1","22000,1,9,N","020000,1,N,1","+0296,1","+0153,1","10171,1",,,,,,"01,99,1,00,1,00,1,99999,9,00,1,09,1",,,,,"99999,9,10048,1","7,1,017,1,+999,9",,"SYN066AAXX  28154 08044 42970 13009 10296 20153 30048 40171 57017 80009;",
"08044099999","2010-08-28T18:00:00","4","42.4333333","-8.6166666","108.0","PONTEVEDRA, SP","FM-12","99999","V020","340,1,N,0031,1","22000,1,9,N","020000,1,N,1","+0287,1","+0149,1","10171,1","12,0000,9,1",,,,,"01,99,1,01,1,00,1,01750,1,04,1,00,1",,,,"999,M,+0306,1","99999,9,10048,1","4,1,000,1,+999,9",,"SYN082AAXX  28184 08044 12770 13406 10287 20149 30048 40171 54000 60002 81040 333 10306;","Q01  00002PRCP12"
"08044099999","2010-08-29T06:00:00","4","42.4333333","-8.6166666","108.0","PONTEVEDRA, SP","FM-12","99999","V020","120,1,N,0005,1","22000,1,9,N","025000,1,N,1","+0158,1","+0122,1","10169,1","12,0000,9,1","24,0000,9,1",,,"00,1,+99999,9,99,9","00,99,1,00,1,00,1,99999,9,00,1,00,1","0768,9",,,"999,N,+0158,1","99999,9,10040,1","6,1,002,1,+999,9",,"SYN094AAXX  29064 08044 12975 01201 10158 20122 30040 40169 56002 60002 333 20158 50214 55128 70000;","Q01  00002PRCP24Q02  00002PRCP12"
"08044099999","2010-08-29T09:00:00","4","42.4333333","-8.6166666","108.0","PONTEVEDRA, SP","FM-12","99999","V020","250,1,N,0010,1","22000,1,9,N","025000,1,N,1","+0226,1","+0137,1","10168,1",,,,,"00,1,+99999,9,99,9","00,99,1,00,1,00,1,99999,9,00,1,00,1",,,,,"99999,9,10042,1","1,1,002,1,+999,9",,"SYN060AAXX  29094 08044 42975 02502 10226 20137 30042 40168 51002;",
"08044099999","2010-08-29T12:00:00","4","42.4333333","-8.6166666","108.0","PONTEVEDRA, SP","FM-12","99999","V020","290,1,N,0015,1","22000,1,9,N","025000,1,N,1","+0305,1","+0146,1","10169,1","06,0000,9,1",,,,"00,1,+99999,9,99,9","00,99,1,00,1,00,1,99999,9,00,1,00,1",,,,,"99999,9,10047,1","0,1,005,1,+999,9",,"SYN066AAXX  29124 08044 12975 02903 10305 20146 30047 40169 50005 60001;","Q01  00002PRCP06"
"08044099999","2010-08-29T15:00:00","4","42.4333333","-8.6166666","108.0","PONTEVEDRA, SP","FM-12","99999","V020","160,1,N,0010,1","22000,1,9,N","025000,1,N,1","+0287,1","+0149,1","10163,1",,,,,"00,1,+99999,9,99,9","00,99,1,00,1,00,1,99999,9,00,1,00,1",,,,,"99999,9,10040,1","8,1,007,1,+999,9",,"SYN060AAXX  29154 08044 42975 01602 10287 20149 30040 40163 58007;",
"08044099999","2010-08-29T18:00:00","4","42.4333333","-8.6166666","108.0","PONTEVEDRA, SP","FM-12","99999","V020","150,1,N,0010,1","22000,1,9,N","025000,1,N,1","+0253,1","+0141,1","10165,1","12,0000,9,1",,,,"00,1,+99999,9,99,9","00,99,1,00,1,00,1,99999,9,00,1,00,1",,,,"999,M,+0315,1","99999,9,10040,1","4,1,000,1,+999,9",,"SYN076AAXX  29184 08044 12975 01502 10253 20141 30040 40165 54000 60002 333 10315;","Q01  00002PRCP12"
"08044099999","2010-08-30T06:00:00","4","42.4333333","-8.6166666","108.0","PONTEVEDRA, SP","FM-12","99999","V020","060,1,N,0010,1","22000,1,9,N","025000,1,N,1","+0174,1","+0077,1","10161,1","12,0000,9,1","24,0000,9,1",,,"00,1,+99999,9,99,9","00,99,1,00,1,00,1,99999,9,00,1,00,1","0756,9",,,"999,N,+0170,1","99999,9,10033,1","6,1,005,1,+999,9",,"SYN094AAXX  30064 08044 12975 00602 10174 20077 30033 40161 56005 60002 333 20170 50334 55126 70000;","Q01  00002PRCP24Q02  00002PRCP12"
"08044099999","2010-08-30T09:00:00","4","42.4333333","-8.6166666","108.0","PONTEVEDRA, SP","FM-12","99999","V020","310,1,N,0005,1","22000,1,9,N","025000,1,N,1","+0240,1","+0110,1","10158,1",,,,,"00,1,+99999,9,99,9","00,99,1,00,1,00,1,99999,9,00,1,00,1",,,,,"99999,9,10033,1","4,1,000,1,+999,9",,"SYN060AAXX  30094 08044 42975 03101 10240 20110 30033 40158 54000;",
"08044099999","2010-08-30T12:00:00","4","42.4333333","-8.6166666","108.0","PONTEVEDRA, SP","FM-12","99999","V020","290,1,N,0015,1","22000,1,9,N","025000,1,N,1","+0328,1","+0102,1","10142,1","06,0000,9,1",,,,"00,1,+99999,9,99,9","00,99,1,00,1,00,1,99999,9,00,1,00,1",,,,,"99999,9,10021,1","8,1,012,1,+999,9",,"SYN066AAXX  30124 08044 12975 02903 10328 20102 30021 40142 58012 60001;","Q01  00002PRCP06"
"08044099999","2010-08-30T15:00:00","4","42.4333333","-8.6166666","108.0","PONTEVEDRA, SP","FM-12","99999","V020","240,1,N,0010,1","22000,1,9,N","025000,1,N,1","+0321,1","+0123,1","10128,1",,,,,"00,1,+99999,9,99,9","00,99,1,00,1,00,1,99999,9,00,1,00,1",,,,,"99999,9,10007,1","7,1,014,1,+999,9",,"SYN060AAXX  30154 08044 42975 02402 10321 20123 30007 40128 57014;",
"08044099999","2010-08-30T18:00:00","4","42.4333333","-8.6166666","108.0","PONTEVEDRA, SP","FM-12","99999","V020","130,1,N,0010,1","22000,1,9,N","020000,1,N,1","+0273,1","+0113,1","10119,1","12,0000,9,1",,,,,"01,99,1,00,1,00,1,99999,9,00,1,09,1",,,,"999,M,+0347,1","99999,9,09996,1","7,1,011,1,+999,9",,"SYN082AAXX  30184 08044 12970 11302 10273 20113 39996 40119 57011 60002 80009 333 10347;","Q01  00002PRCP12"
"08044099999","2010-08-31T06:00:00","4","42.4333333","-8.6166666","108.0","PONTEVEDRA, SP","FM-12","99999","V020","140,1,N,0010,1","09000,1,9,N","020000,1,N,1","+0216,1","+0122,1","10088,1","12,0000,9,1","24,0000,9,1",,,,"07,99,1,03,1,00,1,01750,1,08,1,02,1","0714,9",,,"999,N,+0213,1","99999,9,09963,1","6,1,008,1,+999,9","03,1","SYN106AAXX  31064 08044 11770 71402 10216 20122 39963 40088 56008 60002 703/2 83082 333 20213 50404 55119 70000;","Q01  00002PRCP24Q02  00002PRCP12"
"08044099999","2010-08-31T09:00:00","4","42.4333333","-8.6166666","108.0","PONTEVEDRA, SP","FM-12","99999","V020","200,1,N,0010,1","99999,9,9,N","020000,1,N,1","+0243,1","+0119,1","10094,1",,,,,,"08,99,1,00,1,00,1,99999,9,00,1,07,1",,,,,"99999,9,09970,1","0,1,007,1,+999,9",,"SYN066AAXX  31094 08044 42970 82002 10243 20119 39970 40094 50007 80007;",
"08044099999","2010-08-31T12:00:00","4","42.4333333","-8.6166666","108.0","PONTEVEDRA, SP","FM-12","99999","V020","240,1,N,0005,1","99999,9,9,N","020000,1,N,1","+0308,1","+0156,1","10077,1","06,0000,9,1",,,,,"07,99,1,00,1,00,1,99999,9,00,1,09,1",,,,,"99999,9,09956,1","7,1,014,1,+999,9",,"SYN072AAXX  31124 08044 12970 72401 10308 20156 39956 40077 57014 60001 80009;","Q01  00002PRCP06"
"08044099999","2010-08-31T15:00:00","4","42.4333333","-8.6166666","108.0","PONTEVEDRA, SP","FM-12","99999","V020","170,1,N,0015,1","99999,9,9,N","020000,1,N,1","+0307,1","+0152,1","10058,1",,,,,,"05,99,1,00,1,00,1,99999,9,00,1,02,1",,,,,"99999,9,09937,1","6,1,019,1,+999,9",,"SYN066AAXX  31154 08044 42970 51703 10307 20152 39937 40058 56019 80002;",
"08044099999","2010-08-31T18:00:00","4","42.4333333","-8.6166666","108.0","PONTEVEDRA, SP","FM-12","99999","V020","150,1,N,0015,1","99999,9,9,N","020000,1,N,1","+0259,1","+0134,1","10065,1","12,0000,9,1",,,,,"07,99,1,00,1,00,1,99999,9,00,1,02,1",,,,"999,M,+0349,1","99999,9,09942,1","2,1,005,1,+999,9",,"SYN082AAXX  31184 08044 12970 71503 10259 20134 39942 40065 52005 60002 80002 333 10349;","Q01  00002PRCP12"
"08044099999","2010-09-01T06:00:00","4","42.4333333","-8.6166666","108.0","PONTEVEDRA, SP","FM-12","99999","V020","999,9,C,0000,1","03600,1,9,N","012000,1,N,1","+0173,1","+0163,1","10082,1","12,0000,9,1","24,0000,9,1",,,,"06,99,1,01,1,08,1,00800,1,04,1,02,1","0198,9",,,"999,N,+0173,1","99999,9,09955,1","3,1,009,1,+999,9","02,1","SYN106AAXX  01064 08044 11562 60000 10173 20163 39955 40082 53009 60002 702/2 81842 333 20173 50504 55033 70000;","Q01  00002PRCP24Q02  00002PRCP12"
"08044099999","2010-09-01T09:00:00","4","42.4333333","-8.6166666","108.0","PONTEVEDRA, SP","FM-12","99999","V020","110,1,N,0010,1","01200,1,9,N","012000,1,N,1","+0200,1","+0170,1","10096,1",,,,,,"08,99,1,08,1,08,1,00800,1,99,9,99,9",,,,,"99999,9,09970,1","1,1,015,1,+999,9",,"SYN066AAXX  01094 08044 42562 81102 10200 20170 39970 40096 51015 888//;",
"08044099999","2010-09-01T12:00:00","4","42.4333333","-8.6166666","108.0","PONTEVEDRA, SP","FM-12","99999","V020","150,1,N,0010,1","22000,1,9,N","012000,1,N,1","+0246,1","+0168,1","10094,1","06,0000,9,1",,,,,"03,99,1,01,1,05,1,00800,1,04,1,00,1",,,,,"99999,9,09970,1","0,1,000,1,+999,9",,"SYN072AAXX  01124 08044 12562 31502 10246 20168 39970 40094 50000 60001 81540;","Q01  00002PRCP06"
"08044099999","2010-09-01T15:00:00","4","42.4333333","-8.6166666","108.0","PONTEVEDRA, SP","FM-12","99999","V020","260,1,N,0010,1","22000,1,9,N","012000,1,N,1","+0236,1","+0166,1","10094,1",,,,,,"01,99,1,00,1,00,1,99999,9,00,1,03,1",,,,,"99999,9,09970,1","4,1,000,1,+999,9",,"SYN066AAXX  01154 08044 42962 12602 10236 20166 39970 40094 54000 80003;",
"08044099999","2010-09-01T18:00:00","4","42.4333333","-8.6166666","108.0","PONTEVEDRA, SP","FM-12","99999","V020","220,1,N,0010,1","03600,1,9,N","012000,1,N,1","+0220,1","+0165,1","10102,1","12,0000,9,1",,,,,"06,99,1,02,1,05,1,00800,1,04,1,02,1",,,,"999,M,+0252,1","99999,9,09977,1","1,1,007,1,+999,9",,"SYN082AAXX  01184 08044 12562 62202 10220 20165 39977 40102 51007 60002 82542 333 10252;","Q01  00002PRCP12"
"08044099999","2010-09-02T06:00:00","4","42.4333333","-8.6166666","108.0","PONTEVEDRA, SP","FM-12","99999","V020","080,1,N,0015,1","00120,1,9,N","002000,1,N,1","+0167,1","+0161,1","10138,1","12,0000,9,1","24,0000,9,1",,,,"08,99,1,08,1,06,1,00150,1,99,9,99,9","0432,9",,,"999,N,+0165,1","99999,9,10010,1","3,1,007,1,+999,9","10,1","SYN106AAXX  02064 08044 11220 80803 10167 20161 30010 40138 53007 60002 710// 886// 333 20165 50244 55072 70000;","Q01  00002PRCP24Q02  00002PRCP12"
"08044099999","2010-09-02T09:00:00","4","42.4333333","-8.6166666","108.0","PONTEVEDRA, SP","FM-12","99999","V020","310,1,N,0010,1","00120,1,9,N","002500,1,N,1","+0184,1","+0166,1","10154,1",,,"2,1,03,1","2,1,03,1",,"08,99,1,08,1,06,1,00150,1,99,9,99,9",,,,,"99999,9,10027,1","1,1,017,1,+999,9","10,1","SYN072AAXX  02094 08044 41225 83102 10184 20166 30027 40154 51017 71022 886//;",
"08044099999","2010-09-02T12:00:00","4","42.4333333","-8.6166666","108.0","PONTEVEDRA, SP","FM-12","99999","V020","280,1,N,0021,1","22000,1,9,N","010000,1,N,1","+0226,1","+0171,1","10155,1","06,0000,9,1",,,,,"02,99,1,01,1,06,1,00150,1,04,1,01,1",,,,,"99999,9,10030,1","0,1,003,1,+999,9",,"SYN072AAXX  02124 08044 12260 22804 10226 20171 30030 40155 50003 60001 81641;","Q01  00002PRCP06"
"08044099999","2010-09-02T15:00:00","4","42.4333333","-8.6166666","108.0","PONTEVEDRA, SP","FM-12","99999","V020","280,1,N,0031,1","22000,1,9,N","012000,1,N,1","+0227,1","+0169,1","10154,1",,,,,,"03,99,1,01,1,00,1,01750,1,04,1,02,1",,,,,"99999,9,10029,1","8,1,001,1,+999,9",,"SYN066AAXX  02154 08044 42762 32806 10227 20169 30029 40154 58001 81042;",
"08044099999","2010-09-02T18:00:00","4","42.4333333","-8.6166666","108.0","PONTEVEDRA, SP","FM-12","99999","V020","230,1,N,0010,1","22000,1,9,N","012000,1,N,1","+0211,1","+0161,1","10159,1","12,0000,9,1",,,,,"01,99,1,00,1,00,1,99999,9,00,1,02,1",,,,"999,M,+0241,1","99999,9,10033,1","3,1,004,1,+999,9",,"SYN082AAXX  02184 08044 12962 12302 10211 20161 30033 40159 53004 60002 80002 333 10241;","Q01  00002PRCP12"
"08044099999","2010-09-03T06:00:00","4","42.4333333","-8.6166666","108.0","PONTEVEDRA, SP","FM-12","99999","V020","080,1,N,0021,1","22000,1,9,N","003000,1,N,1","+0141,1","+0131,1","10177,1","12,0000,9,1","24,0000,9,1",,,,"01,99,1,00,1,00,1,99999,9,00,1,01,1","0426,9",,,"999,N,+0139,1","99999,9,10047,1","6,1,001,1,+999,9","40,1","SYN106AAXX  03064 08044 11930 10804 10141 20131 30047 40177 56001 60002 740// 80001 333 20139 50104 55071 70000;","Q01  00002PRCP24Q02  00002PRCP12"
"08044099999","2010-09-03T09:00:00","4","42.4333333","-8.6166666","108.0","PONTEVEDRA, SP","FM-12","99999","V020","350,1,N,0015,1","22000,1,9,N","015000,1,N,1","+0183,1","+0144,1","10177,1",,,,,,"01,99,1,00,1,00,1,99999,9,00,1,01,1",,,,,"99999,9,10049,1","3,1,002,1,+999,9",,"SYN066AAXX  03094 08044 42965 13503 10183 20144 30049 40177 53002 80001;",
"08044099999","2010-09-03T12:00:00","4","42.4333333","-8.6166666","108.0","PONTEVEDRA, SP","FM-12","99999","V020","210,1,N,0015,1","22000,1,9,N","018000,1,N,1","+0248,1","+0170,1","10174,1","06,0000,9,1",,,,"00,1,+99999,9,99,9","00,99,1,00,1,00,1,99999,9,00,1,00,1",,,,,"99999,9,10049,1","4,1,000,1,+999,9",,"SYN066AAXX  03124 08044 12968 02103 10248 20170 30049 40174 54000 60001;","Q01  00002PRCP06"
"08044099999","2010-09-03T15:00:00","4","42.4333333","-8.6166666","108.0","PONTEVEDRA, SP","FM-12","99999","V020","270,1,N,0021,1","22000,1,9,N","020000,1,N,1","+0245,1","+0180,1","10170,1",,,,,,"02,99,1,01,1,05,1,00250,1,00,1,02,1",,,,,"99999,9,10045,1","8,1,004,1,+999,9",,"SYN066AAXX  03154 08044 42370 22704 10245 20180 30045 40170 58004 81502;",
"08044099999","2010-09-03T18:00:00","4","42.4333333","-8.6166666","108.0","PONTEVEDRA, SP","FM-12","99999","V020","260,1,N,0021,1","22000,1,9,N","015000,1,N,1","+0211,1","+0177,1","10171,1","12,0000,9,1",,,,,"03,99,1,00,1,00,1,99999,9,00,1,02,1",,,,"999,M,+0265,1","99999,9,10045,1","5,1,000,1,+999,9",,"SYN082AAXX  03184 08044 12965 32604 10211 20177 30045 40171 55000 60002 80002 333 10265;","Q01  00002PRCP12"
"08044099999","2010-09-04T06:00:00","4","42.4333333","-8.6166666","108.0","PONTEVEDRA, SP","FM-12","99999","V020","070,1,N,0015,1","22000,1,9,N","008000,1,N,1","+0164,1","+0154,1","10169,1","12,0000,9,1","24,0000,9,1",,,"00,1,+99999,9,99,9","00,99,1,00,1,00,1,99999,9,00,1,00,1","0720,9",,,"999,N,+0162,1","99999,9,10041,1","3,1,007,1,+999,9","10,1","SYN100AAXX  04064 08044 11958 00703 10164 20154 30041 40169 53007 60002 710// 333 20162 50144 55120 70000;","Q01  00002PRCP24Q02  00002PRCP12"
"08044099999","2010-09-04T09:00:00","4","42.4333333","-8.6166666","108.0","PONTEVEDRA, SP","FM-12","99999","V020","300,1,N,0015,1","22000,1,9,N","020000,1,N,1","+0204,1","+0154,1","10173,1",,,,,"00,1,+99999,9,99,9","00,99,1,00,1,00,1,99999,9,00,1,00,1",,,,,"99999,9,10046,1","0,1,005,1,+999,9",,"SYN060AAXX  04094 08044 42970 03003 10204 20154 30046 40173 50005;",
"08044099999","2010-09-04T12:00:00","4","42.4333333","-8.6166666","108.0","PONTEVEDRA, SP","FM-12","99999","V020","260,1,N,0015,1","22000,1,9,N","020000,1,N,1","+0264,1","+0185,1","10162,1","06,0000,9,1",,,,,"01,99,1,00,1,00,1,99999,9,00,1,01,1",,,,,"99999,9,10038,1","8,1,008,1,+999,9",,"SYN072AAXX  04124 08044 12970 12603 10264 20185 30038 40162 58008 60001 80001;","Q01  00002PRCP06"
"08044099999","2010-09-04T15:00:00","4","42.4333333","-8.6166666","108.0","PONTEVEDRA, SP","FM-12","99999","V020","200,1,N,0015,1","22000,1,9,N","020000,1,N,1","+0260,1","+0182,1","10157,1",,,,,,"02,99,1,00,1,00,1,99999,9,00,1,02,1",,,,,"99999,9,10033,1","8,1,005,1,+999,9",,"SYN066AAXX  04154 08044 42970 22003 10260 20182 30033 40157 58005 80002;",
"08044099999","2010-09-04T18:00:00","4","42.4333333","-8.6166666","108.0","PONTEVEDRA, SP","FM-12","99999","V020","150,1,N,0010,1","22000,1,9,N","015000,1,N,1","+0228,1","+0170,1","10154,1","12,0000,9,1",,,,,"02,99,1,00,1,00,1,99999,9,00,1,02,1",,,,"999,M,+0278,1","99999,9,10029,1","5,1,004,1,+999,9",,"SYN082AAXX  04184 08044 12965 21502 10228 20170 30029 40154 55004 60002 80002 333 10278;","Q01  00002PRCP12"
"08044099999","2010-09-05T06:00:00","4","42.4333333","-8.6166666","108.0","PONTEVEDRA, SP","FM-12","99999","V020","150,1,N,0015,1","00120,1,9,N","003000,1,N,1","+0150,1","+0147,1","10152,1","12,0000,9,1","24,0000,9,1",,,,"08,99,1,08,1,06,1,00150,1,99,9,99,9","0720,9",,,"999,N,+0148,1","99999,9,10023,1","5,1,000,1,+999,9","10,1","SYN106AAXX  05064 08044 11230 81503 10150 20147 30023 40152 55000 60002 710// 886// 333 20148 50144 55120 70000;","Q01  00002PRCP24Q02  00002PRCP12"
"08044099999","2010-09-05T09:00:00","4","42.4333333","-8.6166666","108.0","PONTEVEDRA, SP","FM-12","99999","V020","270,1,N,0010,1","00120,1,9,N","002000,1,N,1","+0170,1","+0164,1","10164,1",,,"4,1,03,1","2,1,03,1",,"08,99,1,08,1,06,1,00150,1,99,9,99,9",,,,,"99999,9,10036,1","1,1,013,1,+999,9","10,1","SYN072AAXX  05094 08044 41220 82702 10170 20164 30036 40164 51013 71042 886//;",
"08044099999","2010-09-05T12:00:00","4","42.4333333","-8.6166666","108.0","PONTEVEDRA, SP","FM-12","99999","V020","240,1,N,0015,1","22000,1,9,N","015000,1,N,1","+0248,1","+0168,1","10157,1","06,0000,9,1",,"4,1,06,1","1,1,06,1",,"04,99,1,03,1,08,1,00450,1,03,1,00,1",,,,,"99999,9,10032,1","8,1,004,1,+999,9","02,1","SYN078AAXX  05124 08044 11465 42403 10248 20168 30032 40157 58004 60001 70241 83830;","Q01  00002PRCP06"
"08044099999","2010-09-05T15:00:00","4","42.4333333","-8.6166666","108.0","PONTEVEDRA, SP","FM-12","99999","V020","260,1,N,0021,1","22000,1,9,N","020000,1,N,1","+0238,1","+0168,1","10150,1",,,,,,"03,99,1,02,1,08,1,00450,1,00,1,02,1",,,,,"99999,9,10025,1","5,1,007,1,+999,9",,"SYN066AAXX  05154 08044 42470 32604 10238 20168 30025 40150 55007 82802;",
"08044099999","2010-09-05T18:00:00","4","42.4333333","-8.6166666","108.0","PONTEVEDRA, SP","FM-12","99999","V020","250,1,N,0010,1","22000,1,9,N","015000,1,N,1","+0216,1","+0178,1","10150,1","12,0000,9,1",,,,,"02,99,1,01,1,01,1,00450,1,00,1,02,1",,,,"999,M,+0250,1","99999,9,10024,1","8,1,001,1,+999,9",,"SYN082AAXX  05184 08044 12465 22502 10216 20178 30024 40150 58001 60002 81102 333 10250;","Q01  00002PRCP12"
"08044099999","2010-09-06T06:00:00","4","42.4333333","-8.6166666","108.0","PONTEVEDRA, SP","FM-12","99999","V020","160,1,N,0021,1","00420,1,9,N","010000,1,N,1","+0178,1","+0154,1","10127,1","12,0000,9,1","24,0000,9,1",,,,"07,99,1,06,1,05,1,00450,1,07,1,99,9","0558,9",,,"999,N,+0168,1","99999,9,10000,1","8,1,006,1,+999,9","02,1","SYN106AAXX  06064 08044 11460 71604 10178 20154 30000 40127 58006 60002 702// 8657/ 333 20168 50124 55093 70000;","Q01  00002PRCP24Q02  00002PRCP12"
"08044099999","2010-09-06T09:00:00","4","42.4333333","-8.6166666","108.0","PONTEVEDRA, SP","FM-12","99999","V020","170,1,N,0036,1","00420,1,9,N","010000,1,N,1","+0196,1","+0163,1","10120,1",,,,,,"08,99,1,06,1,05,1,00450,1,07,1,99,9",,,,,"99999,9,09994,1","8,1,006,1,+999,9",,"SYN066AAXX  06094 08044 42460 81707 10196 20163 39994 40120 58006 8657/;",
"08044099999","2010-09-06T12:00:00","4","42.4333333","-8.6166666","108.0","PONTEVEDRA, SP","FM-12","99999","V020","150,1,N,0015,1","00210,1,9,N","005000,1,N,1","+0185,1","+0177,1","10123,1","06,0071,9,1",,"6,1,06,1","2,1,06,1",,"08,99,1,05,1,05,1,00250,1,07,1,99,9",,,,,"99999,9,09996,1","0,1,002,1,+999,9","21,1","SYN078AAXX  06124 08044 11350 81503 10185 20177 39996 40123 50002 60071 72162 8557/;",
"08044099999","2010-09-06T15:00:00","4","42.4333333","-8.6166666","108.0","PONTEVEDRA, SP","FM-12","99999","V020","280,1,N,0026,1","00210,1,9,N","010000,1,N,1","+0204,1","+0172,1","10116,1",,,,,,"08,99,1,05,1,07,1,00250,1,07,1,99,9",,,,,"99999,9,09990,1","8,1,006,1,+999,9",,"SYN066AAXX  06154 08044 42360 82805 10204 20172 39990 40116 58006 8577/;",
"08044099999","2010-09-06T18:00:00","4","42.4333333","-8.6166666","108.0","PONTEVEDRA, SP","FM-12","99999","V020","270,1,N,0015,1","00900,1,9,N","010000,1,N,1","+0196,1","+0170,1","10110,1","12,0071,9,1",,,,,"07,99,1,05,1,08,1,00450,1,05,1,99,9",,,,"999,M,+0206,1","99999,9,09984,1","6,1,006,1,+999,9",,"SYN082AAXX  06184 08044 12460 72703 10196 20170 39984 40110 56006 60072 8585/ 333 10206;",
"08044099999","2010-09-07T06:00:00","4","42.4333333","-8.6166666","108.0","PONTEVEDRA, SP","FM-12","99999","V020","180,1,N,0026,1","03600,1,9,N","015000,1,N,1","+0155,1","+0142,1","10060,1","12,0000,9,1","24,0074,9,1",,,,"06,99,1,04,1,08,1,00450,1,05,1,00,1","0018,9",,,"999,N,+0150,1","99999,9,09933,1","8,1,016,1,+999,9","02,1","SYN106AAXX  07064 08044 11465 61805 10155 20142 39933 40060 58016 69922 702// 84850 333 20150 50084 55003 70074;","Q01  00002PRCP12"
"08044099999","2010-09-07T12:00:00","4","42.4333333","-8.6166666","108.0","PONTEVEDRA, SP","FM-12","99999","V020","180,1,N,0021,1","03600,1,9,N","020000,1,N,1","+0178,1","+0156,1","10061,1","06,0150,9,1",,"6,1,06,1","4,1,06,1",,"06,99,1,04,1,02,1,00450,1,04,1,00,1",,,,,"99999,9,09935,1","3,1,019,1,+999,9","01,1","SYN078AAXX  07124 08044 11470 61804 10178 20156 39935 40061 53019 60151 70164 84240;",
"08044099999","2010-09-07T15:00:00","4","42.4333333","-8.6166666","108.0","PONTEVEDRA, SP","FM-12","99999","V020","290,1,N,0057,1","22000,1,9,N","020000,1,N,1","+0196,1","+0121,1","10076,1",,,"8,1,03,1","1,1,03,1",,"03,99,1,02,1,02,1,00450,1,04,1,00,1",,,,,"99999,9,09950,1","1,1,015,1,+999,9","02,1","SYN072AAXX  07154 08044 41470 32911 10196 20121 39950 40076 51015 70281 82240;",
"08044099999","2010-09-07T18:00:00","4","42.4333333","-8.6166666","108.0","PONTEVEDRA, SP","FM-12","99999","V020","280,1,N,0041,1","22000,1,9,N","015000,1,N,1","+0180,1","+0118,1","10098,1","12,0150,9,1",,,,,"03,99,1,01,1,02,1,00450,1,00,1,02,1",,,,"999,M,+0204,1","99999,9,09971,1","2,1,021,1,+999,9",,"SYN082AAXX  07184 08044 12465 32808 10180 20118 39971 40098 52021 60152 81202 333 10204;",
"08044099999","2010-09-08T06:00:00","4","42.4333333","-8.6166666","108.0","PONTEVEDRA, SP","FM-12","99999","V020","010,1,N,0010,1","22000,1,9,N","006000,1,N,1","+0138,1","+0127,1","10141,1","12,0000,9,1","24,0150,9,1",,,,"04,99,1,04,1,05,1,00450,1,00,1,00,1","0336,9",,,"999,N,+0136,1","99999,9,10012,1","3,1,012,1,+999,9","10,1","SYN106AAXX  08064 08044 11456 40102 10138 20127 30012 40141 53012 60002 710// 84500 333 20136 50104 55056 70150;","Q01  00002PRCP12"
"08044099999","2010-09-08T09:00:00","4","42.4333333","-8.6166666","108.0","PONTEVEDRA, SP","FM-12","99999","V020","250,1,N,0010,1","03600,1,9,N","010000,1,N,1","+0168,1","+0146,1","10152,1",,,"8,1,03,1","1,1,03,1",,"06,99,1,04,1,08,1,00450,1,05,1,00,1",,,,,"99999,9,10024,1","1,1,012,1,+999,9","25,1","SYN072AAXX  08094 08044 41460 62502 10168 20146 30024 40152 51012 72581 84850;",
"08044099999","2010-09-08T12:00:00","4","42.4333333","-8.6166666","108.0","PONTEVEDRA, SP","FM-12","99999","V020","170,1,N,0021,1","00900,1,9,N","015000,1,N,1","+0190,1","+0166,1","10162,1","06,0003,9,1",,"8,1,06,1","1,1,06,1",,"07,99,1,07,1,08,1,00450,1,99,9,99,9",,,,,"99999,9,10035,1","1,1,011,1,+999,9","25,1","SYN078AAXX  08124 08044 11465 71704 10190 20166 30035 40162 51011 69931 72581 878//;",
"08044099999","2010-09-08T15:00:00","4","42.4333333","-8.6166666","108.0","PONTEVEDRA, SP","FM-12","99999","V020","200,1,N,0010,1","00210,1,C,N","006000,1,N,1","+0180,1","+0170,1","10166,1",,,"8,1,03,1","2,1,03,1","03,1,+00300,1,09,1","07,99,1,07,1,03,1,00250,1,99,9,99,9",,,,,"99999,9,10038,1","3,1,003,1,+999,9","25,1","SYN082AAXX  08154 08044 41356 72002 10180 20170 30038 40166 53003 72582 873// 333 83910;",
"08044099999","2010-09-08T18:00:00","4","42.4333333","-8.6166666","108.0","PONTEVEDRA, SP","FM-12","99999","V020","190,1,N,0015,1","00300,1,9,N","008000,1,N,1","+0184,1","+0176,1","10173,1","12,0079,9,1",,"8,1,06,1","2,1,06,1","05,1,+00300,1,09,1","07,99,1,06,1,03,1,00250,1,04,1,99,9",,,,"120,M,+0206,1","99999,9,10046,1","1,1,008,1,+999,9","25,1","SYN094AAXX  08184 08044 11358 71903 10184 20176 30046 40173 51008 60082 72582 8634/ 333 10206 85910;",
"08044099999","2010-09-09T06:00:00","4","42.4333333","-8.6166666","108.0","PONTEVEDRA, SP","FM-12","99999","V020","080,1,N,0031,1","22000,1,9,N","002000,1,N,1","+0136,1","+0123,1","10217,1","12,0000,2,1","24,0079,9,1",,,,"01,99,1,01,1,06,1,00150,1,00,1,00,1","0084,9",,,"999,N,+0135,1","99999,9,10087,1","3,1,006,1,+999,9","40,1","SYN106AAXX  09064 08044 11220 10806 10136 20123 30087 40217 53006 60002 740// 81600 333 20135 50064 55014 70078;",
"08044099999","2010-09-09T09:00:00","4","42.4333333","-8.6166666","108.0","PONTEVEDRA, SP","FM-12","99999","V020","310,1,N,0010,1","22000,1,9,N","015000,1,N,1","+0173,1","+0146,1","10229,1",,,,,,"01,99,1,01,1,05,1,00250,1,00,1,00,1",,,,,"99999,9,10100,1","1,1,013,1,+999,9",,"SYN066AAXX  09094 08044 42365 13102 10173 20146 30100 40229 51013 81500;",
"08044099999","2010-09-09T12:00:00","4","42.4333333","-8.6166666","108.0","PONTEVEDRA, SP","FM-12","99999","V020","220,1,N,0015,1","22000,1,9,N","020000,1,N,1","+0226,1","+0147,1","10231,1","06,0000,9,1",,,,,"03,99,1,03,1,01,1,00250,1,00,1,00,1",,,,,"99999,9,10105,1","0,1,005,1,+999,9",,"SYN072AAXX  09124 08044 12370 32203 10226 20147 30105 40231 50005 60001 83100;","Q01  00002PRCP06"
"08044099999","2010-09-09T15:00:00","4","42.4333333","-8.6166666","108.0","PONTEVEDRA, SP","FM-12","99999","V020","270,1,N,0026,1","22000,1,9,N","018000,1,N,1","+0216,1","+0159,1","10230,1",,,,,,"02,99,1,02,1,05,1,00250,1,00,1,00,1",,,,,"99999,9,10103,1","8,1,002,1,+999,9",,"SYN066AAXX  09154 08044 42368 22705 10216 20159 30103 40230 58002 82500;",
"08044099999","2010-09-09T18:00:00","4","42.4333333","-8.6166666","108.0","PONTEVEDRA, SP","FM-12","99999","V020","260,1,N,0010,1","22000,1,9,N","015000,1,N,1","+0200,1","+0152,1","10230,1","12,0000,9,1",,,,,"01,99,1,00,1,00,1,99999,9,00,1,01,1",,,,"999,M,+0231,1","99999,9,10102,1","6,1,001,1,+999,9",,"SYN082AAXX  09184 08044 12965 12602 10200 20152 30102 40230 56001 60002 80001 333 10231;","Q01  00002PRCP12"
"08044099999","2010-09-10T06:00:00","4","42.4333333","-8.6166666","108.0","PONTEVEDRA, SP","FM-12","99999","V020","100,1,N,0010,1","22000,1,9,N","020000,1,N,1","+0137,1","+0121,1","10212,1","12,0000,9,1","24,0000,9,1",,,,"03,99,1,00,1,00,1,99999,9,00,1,02,1","0708,9",,,"999,N,+0136,1","99999,9,10082,1","8,1,009,1,+999,9","02,1","SYN106AAXX  10064 08044 11970 31002 10137 20121 30082 40212 58009 60002 702// 80002 333 20136 50124 55118 70000;","Q01  00002PRCP24Q02  00002PRCP12"
"08044099999","2010-09-10T09:00:00","4","42.4333333","-8.6166666","108.0","PONTEVEDRA, SP","FM-12","99999","V020","220,1,N,0010,1","22000,1,9,N","020000,1,N,1","+0184,1","+0143,1","10212,1",,,,,,"02,99,1,00,1,00,1,99999,9,00,1,02,1",,,,,"99999,9,10084,1","1,1,002,1,+999,9",,"SYN066AAXX  10094 08044 42970 22202 10184 20143 30084 40212 51002 80002;",
"08044099999","2010-09-10T12:00:00","4","42.4333333","-8.6166666","108.0","PONTEVEDRA, SP","FM-12","99999","V020","260,1,N,0015,1","22000,1,9,N","020000,1,N,1","+0246,1","+0150,1","10206,1","06,0000,9,1",,,,,"03,99,1,00,1,00,1,99999,9,00,1,02,1",,,,,"99999,9,10081,1","8,1,003,1,+999,9",,"SYN072AAXX  10124 08044 12970 32603 10246 20150 30081 40206 58003 60001 80002;","Q01  00002PRCP06"
"08044099999","2010-09-10T15:00:00","4","42.4333333","-8.6166666","108.0","PONTEVEDRA, SP","FM-12","99999","V020","220,1,N,0010,1","22000,1,9,N","020000,1,N,1","+0251,1","+0154,1","10190,1",,,,,,"03,99,1,00,1,00,1,99999,9,00,1,02,1",,,,,"99999,9,10065,1","7,1,016,1,+999,9",,"SYN066AAXX  10154 08044 42970 32202 10251 20154 30065 40190 57016 80002;",
"08044099999","2010-09-10T18:00:00","4","42.4333333","-8.6166666","108.0","PONTEVEDRA, SP","FM-12","99999","V020","160,1,N,0010,1","22000,1,9,N","015000,1,N,1","+0218,1","+0147,1","10180,1","12,0000,9,1",,,,,"03,99,1,00,1,00,1,99999,9,00,1,02,1",,,,"999,M,+0262,1","99999,9,10054,1","6,1,011,1,+999,9",,"SYN082AAXX  10184 08044 12965 31602 10218 20147 30054 40180 56011 60002 80002 333 10262;","Q01  00002PRCP12"
"08044099999","2010-09-11T06:00:00","4","42.4333333","-8.6166666","108.0","PONTEVEDRA, SP","FM-12","99999","V020","100,1,N,0015,1","22000,1,9,N","020000,1,N,1","+0156,1","+0122,1","10155,1","12,0000,9,1","24,0000,9,1",,,,"03,99,1,00,1,00,1,99999,9,00,1,02,1","0696,9",,,"999,N,+0151,1","99999,9,10026,1","6,1,008,1,+999,9","02,1","SYN106AAXX  11064 08044 11970 31003 10156 20122 30026 40155 56008 60002 702// 80002 333 20151 50204 55116 70000;","Q01  00002PRCP24Q02  00002PRCP12"
"08044099999","2010-09-11T09:00:00","4","42.4333333","-8.6166666","108.0","PONTEVEDRA, SP","FM-12","99999","V020","330,1,N,0010,1","22000,1,9,N","020000,1,N,1","+0182,1","+0135,1","10154,1",,,,,,"01,99,1,00,1,00,1,99999,9,00,1,02,1",,,,,"99999,9,10027,1","3,1,001,1,+999,9",,"SYN066AAXX  11094 08044 42970 13302 10182 20135 30027 40154 53001 80002;",
"08044099999","2010-09-11T12:00:00","4","42.4333333","-8.6166666","108.0","PONTEVEDRA, SP","FM-12","99999","V020","290,1,N,0031,1","22000,1,9,N","017000,1,N,1","+0252,1","+0161,1","10150,1","06,0000,9,1",,,,,"03,99,1,02,1,00,1,01750,1,08,1,02,1",,,,,"99999,9,10026,1","8,1,001,1,+999,9",,"SYN072AAXX  11124 08044 12767 32906 10252 20161 30026 40150 58001 60001 82082;","Q01  00002PRCP06"
"08044099999","2010-09-11T15:00:00","4","42.4333333","-8.6166666","108.0","PONTEVEDRA, SP","FM-12","99999","V020","180,1,N,0010,1","22000,1,9,N","018000,1,N,1","+0255,1","+0177,1","10146,1",,,,,,"02,99,1,01,1,00,1,01750,1,08,1,02,1",,,,,"99999,9,10022,1","8,1,004,1,+999,9",,"SYN066AAXX  11154 08044 42768 21802 10255 20177 30022 40146 58004 81082;",
"08044099999","2010-09-11T18:00:00","4","42.4333333","-8.6166666","108.0","PONTEVEDRA, SP","FM-12","99999","V020","330,1,N,0041,1","22000,1,9,N","015000,1,N,1","+0240,1","+0160,1","10149,1","12,0000,9,1",,,,,"01,99,1,00,1,00,1,99999,9,00,1,02,1",,,,"999,M,+0275,1","99999,9,10024,1","3,1,002,1,+999,9",,"SYN082AAXX  11184 08044 12965 13308 10240 20160 30024 40149 53002 60002 80002 333 10275;","Q01  00002PRCP12"
"08044099999","2010-09-12T06:00:00","4","42.4333333","-8.6166666","108.0","PONTEVEDRA, SP","FM-12","99999","V020","010,1,N,0041,1","22000,1,9,N","020000,1,N,1","+0186,1","+0130,1","10181,1","12,0000,9,1","24,0000,9,1",,,,"02,99,1,01,1,05,1,00800,1,00,1,01,1","0708,9",,,"999,N,+0181,1","99999,9,10053,1","5,1,001,1,+999,9","02,1","SYN106AAXX  12064 08044 11570 20108 10186 20130 30053 40181 55001 60002 702// 81501 333 20181 50294 55118 70000;","Q01  00002PRCP24Q02  00002PRCP12"
"08044099999","2010-09-12T09:00:00","4","42.4333333","-8.6166666","108.0","PONTEVEDRA, SP","FM-12","99999","V020","020,1,N,0046,1","22000,1,9,N","020000,1,N,1","+0215,1","+0137,1","10200,1",,,,,,"02,99,1,01,1,05,1,00250,1,00,1,01,1",,,,,"99999,9,10073,1","2,1,020,1,+999,9",,"SYN066AAXX  12094 08044 42370 20209 10215 20137 30073 40200 52020 81501;",
"08044099999","2010-09-12T12:00:00","4","42.4333333","-8.6166666","108.0","PONTEVEDRA, SP","FM-12","99999","V020","360,1,N,0026,1","22000,1,9,N","020000,1,N,1","+0261,1","+0152,1","10192,1","06,0000,9,1",,,,,"01,99,1,01,1,05,1,00250,1,00,1,00,1",,,,,"99999,9,10067,1","8,1,006,1,+999,9",,"SYN072AAXX  12124 08044 12370 13605 10261 20152 30067 40192 58006 60001 81500;","Q01  00002PRCP06"
"08044099999","2010-09-12T15:00:00","4","42.4333333","-8.6166666","108.0","PONTEVEDRA, SP","FM-12","99999","V020","010,1,N,0041,1","22000,1,9,N","020000,1,N,1","+0267,1","+0148,1","10185,1",,,,,"00,1,+99999,9,99,9","00,99,1,00,1,00,1,99999,9,00,1,00,1",,,,,"99999,9,10061,1","6,1,006,1,+999,9",,"SYN060AAXX  12154 08044 42970 00108 10267 20148 30061 40185 56006;",
"08044099999","2010-09-12T18:00:00","4","42.4333333","-8.6166666","108.0","PONTEVEDRA, SP","FM-12","99999","V020","360,1,N,0041,1","22000,1,9,N","020000,1,N,1","+0233,1","+0138,1","10191,1","12,0000,9,1",,,,"00,1,+99999,9,99,9","00,99,1,00,1,00,1,99999,9,00,1,00,1",,,,"999,M,+0275,1","99999,9,10065,1","3,1,004,1,+999,9",,"SYN076AAXX  12184 08044 12970 03608 10233 20138 30065 40191 53004 60002 333 10275;","Q01  00002PRCP12"
"08044099999","2010-09-13T06:00:00","4","42.4333333","-8.6166666","108.0","PONTEVEDRA, SP","FM-12","99999","V020","120,1,N,0015,1","22000,1,9,N","020000,1,N,1","+0169,1","+0132,1","10208,1","12,0000,9,1","24,0000,9,1",,,"00,1,+99999,9,99,9","00,99,1,00,1,00,1,99999,9,00,1,00,1","0720,9",,,"999,N,+0161,1","99999,9,10079,1","5,1,000,1,+999,9","00,1","SYN100AAXX  13064 08044 11970 01203 10169 20132 30079 40208 55000 60002 700// 333 20161 50384 55120 70000;","Q01  00002PRCP24Q02  00002PRCP12"
"08044099999","2010-09-13T09:00:00","4","42.4333333","-8.6166666","108.0","PONTEVEDRA, SP","FM-12","99999","V020","170,1,N,0015,1","22000,1,9,N","020000,1,N,1","+0210,1","+0146,1","10215,1",,,,,,"01,99,1,00,1,00,1,99999,9,00,1,01,1",,,,,"99999,9,10088,1","2,1,009,1,+999,9",,"SYN066AAXX  13094 08044 42970 11703 10210 20146 30088 40215 52009 80001;",
"08044099999","2010-09-13T12:00:00","4","42.4333333","-8.6166666","108.0","PONTEVEDRA, SP","FM-12","99999","V020","180,1,N,0010,1","22000,1,9,N","020000,1,N,1","+0294,1","+0166,1","10211,1","06,0000,9,1",,,,,"02,99,1,00,1,00,1,99999,9,00,1,02,1",,,,,"99999,9,10088,1","0,1,000,1,+999,9",,"SYN072AAXX  13124 08044 12970 21802 10294 20166 30088 40211 50000 60001 80002;","Q01  00002PRCP06"
"08044099999","2010-09-13T15:00:00","4","42.4333333","-8.6166666","108.0","PONTEVEDRA, SP","FM-12","99999","V020","210,1,N,0010,1","22000,1,9,N","020000,1,N,1","+0281,1","+0154,1","10211,1",,,,,,"02,99,1,00,1,00,1,99999,9,00,1,02,1",,,,,"99999,9,10087,1","8,1,001,1,+999,9",,"SYN066AAXX  13154 08044 42970 22102 10281 20154 30087 40211 58001 80002;",
"08044099999","2010-09-13T18:00:00","4","42.4333333","-8.6166666","108.0","PONTEVEDRA, SP","FM-12","99999","V020","210,1,N,0010,1","22000,1,9,N","020000,1,N,1","+0230,1","+0151,1","10214,1","12,0000,9,1",,,,,"01,99,1,00,1,00,1,99999,9,00,1,02,1",,,,"999,M,+0315,1","99999,9,10088,1","3,1,001,1,+999,9",,"SYN082AAXX  13184 08044 12970 12102 10230 20151 30088 40214 53001 60002 80002 333 10315;","Q01  00002PRCP12"
"08044099999","2010-09-14T06:00:00","4","42.4333333","-8.6166666","108.0","PONTEVEDRA, SP","FM-12","99999","V020","110,1,N,0005,1","22000,1,9,N","020000,1,N,1","+0190,1","+0134,1","10220,1","12,0000,9,1","24,0000,9,1",,,"00,1,+99999,9,99,9","00,99,1,00,1,00,1,99999,9,00,1,00,1","0720,9",,,"999,N,+0188,1","99999,9,10092,1","3,1,001,1,+999,9","00,1","SYN100AAXX  14064 08044 11970 01101 10190 20134 30092 40220 53001 60002 700// 333 20188 50294 55120 70000;","Q01  00002PRCP24Q02  00002PRCP12"
"08044099999","2010-09-14T09:00:00","4","42.4333333","-8.6166666","108.0","PONTEVEDRA, SP","FM-12","99999","V020","020,1,N,0010,1","22000,1,9,N","020000,1,N,1","+0238,1","+0158,1","10225,1",,,,,"00,1,+99999,9,99,9","00,99,1,00,1,00,1,99999,9,00,1,00,1",,,,,"99999,9,10099,1","1,1,007,1,+999,9",,"SYN060AAXX  14094 08044 42970 00202 10238 20158 30099 40225 51007;",
"08044099999","2010-09-14T12:00:00","4","42.4333333","-8.6166666","108.0","PONTEVEDRA, SP","FM-12","99999","V020","260,1,N,0015,1","22000,1,9,N","020000,1,N,1","+0294,1","+0159,1","10220,1","06,0000,9,1",,,,"00,1,+99999,9,99,9","00,99,1,00,1,00,1,99999,9,00,1,00,1",,,,,"99999,9,10097,1","8,1,002,1,+999,9",,"SYN066AAXX  14124 08044 12970 02603 10294 20159 30097 40220 58002 60001;","Q01  00002PRCP06"
"08044099999","2010-09-14T15:00:00","4","42.4333333","-8.6166666","108.0","PONTEVEDRA, SP","FM-12","99999","V020","190,1,N,0010,1","22000,1,9,N","020000,1,N,1","+0274,1","+0157,1","10207,1",,,,,,"02,99,1,00,1,00,1,99999,9,00,1,02,1",,,,,"99999,9,10083,1","8,1,014,1,+999,9",,"SYN066AAXX  14154 08044 42970 21902 10274 20157 30083 40207 58014 80002;",
"08044099999","2010-09-14T18:00:00","4","42.4333333","-8.6166666","108.0","PONTEVEDRA, SP","FM-12","99999","V020","160,1,N,0015,1","22000,1,9,N","015000,1,N,1","+0246,1","+0132,1","10203,1","12,0000,9,1",,,,,"02,99,1,00,1,00,1,99999,9,00,1,02,1",,,,"999,M,+0303,1","99999,9,10078,1","6,1,005,1,+999,9",,"SYN082AAXX  14184 08044 12965 21603 10246 20132 30078 40203 56005 60002 80002 333 10303;","Q01  00002PRCP12"
"08044099999","2010-09-15T06:00:00","4","42.4333333","-8.6166666","108.0","PONTEVEDRA, SP","FM-12","99999","V020","050,1,N,0015,1","22000,1,9,N","020000,1,N,1","+0189,1","+0146,1","10186,1","12,0000,9,1","24,0000,9,1",,,,"03,99,1,00,1,00,1,99999,9,00,1,02,1","0672,9",,,"999,N,+0185,1","99999,9,10058,1","6,1,004,1,+999,9","02,1","SYN106AAXX  15064 08044 11970 30503 10189 20146 30058 40186 56004 60002 702// 80002 333 20185 50324 55112 70000;","Q01  00002PRCP24Q02  00002PRCP12"
"08044099999","2010-09-15T09:00:00","4","42.4333333","-8.6166666","108.0","PONTEVEDRA, SP","FM-12","99999","V020","280,1,N,0010,1","22000,1,9,N","017000,1,N,1","+0225,1","+0163,1","10179,1",,,,,,"05,99,1,04,1,00,1,01750,1,07,1,06,1",,,,,"99999,9,10053,1","6,1,005,1,+999,9",,"SYN066AAXX  15094 08044 42767 52802 10225 20163 30053 40179 56005 84076;",
"08044099999","2010-09-15T12:00:00","4","42.4333333","-8.6166666","108.0","PONTEVEDRA, SP","FM-12","99999","V020","270,1,N,0021,1","22000,1,9,N","015000,1,N,1","+0238,1","+0150,1","10199,1","06,0000,9,1",,,,,"06,99,1,01,1,00,1,01750,1,08,1,06,1",,,,,"99999,9,10073,1","0,1,020,1,+999,9",,"SYN072AAXX  15124 08044 12765 62704 10238 20150 30073 40199 50020 60001 81086;","Q01  00002PRCP06"
"08044099999","2010-09-15T15:00:00","4","42.4333333","-8.6166666","108.0","PONTEVEDRA, SP","FM-12","99999","V020","270,1,N,0015,1","03600,1,9,N","015000,1,N,1","+0215,1","+0179,1","10193,1",,,"2,1,03,1","2,1,03,1",,"08,99,1,02,1,05,1,00800,1,07,1,99,9",,,,,"99999,9,10067,1","8,1,006,1,+999,9","60,1","SYN072AAXX  15154 08044 41565 82703 10215 20179 30067 40193 58006 76022 8257/;",
"08044099999","2010-09-15T18:00:00","4","42.4333333","-8.6166666","108.0","PONTEVEDRA, SP","FM-12","99999","V020","020,1,N,0021,1","03600,1,9,N","012000,1,N,1","+0205,1","+0177,1","10180,1","12,0000,2,1",,"6,1,06,1","2,1,06,1",,"08,99,1,03,1,05,1,00800,1,07,1,99,9",,,,"999,M,+0246,1","99999,9,10053,1","8,1,014,1,+999,9","60,1","SYN088AAXX  15184 08044 11562 80204 10205 20177 30053 40180 58014 69902 76062 8357/ 333 10246;",
"08044099999","2010-09-16T06:00:00","4","42.4333333","-8.6166666","108.0","PONTEVEDRA, SP","FM-12","99999","V020","070,1,N,0021,1","03600,1,9,N","002000,1,N,1","+0162,1","+0156,1","10146,1","12,0000,2,1","24,0000,2,1",,,,"06,99,1,04,1,08,1,00450,1,03,1,01,1","0078,9","09,9","999,+0160,9","999,N,+0162,1","99999,9,10018,1","5,1,003,1,+999,9","10,1","SYN112AAXX  16064 08044 11420 60704 10162 20156 30018 40146 55003 69902 710// 84831 333 20162 31016 50104 55013 79999;",
"08044099999","2010-09-16T09:00:00","4","42.4333333","-8.6166666","108.0","PONTEVEDRA, SP","FM-12","99999","V020","180,1,N,0010,1","00120,1,9,N","003000,1,N,1","+0190,1","+0170,1","10148,1",,,"2,1,03,1","2,1,03,1",,"07,99,1,06,1,06,1,00150,1,03,1,01,1",,,,,"99999,9,10021,1","2,1,003,1,+999,9","10,1","SYN072AAXX  16094 08044 41230 71802 10190 20170 30021 40148 52003 71022 86631;",
"08044099999","2010-09-16T12:00:00","4","42.4333333","-8.6166666","108.0","PONTEVEDRA, SP","FM-12","99999","V020","250,1,N,0015,1","03600,1,9,N","005000,1,N,1","+0223,1","+0166,1","10150,1","06,0000,9,1",,"2,1,06,1","2,1,06,1",,"05,99,1,03,1,05,1,00250,1,03,1,01,1",,,,,"99999,9,10024,1","0,1,003,1,+999,9","05,1","SYN078AAXX  16124 08044 11350 52503 10223 20166 30024 40150 50003 60001 70522 83531;","Q01  00002PRCP06"
"08044099999","2010-09-16T15:00:00","4","42.4333333","-8.6166666","108.0","PONTEVEDRA, SP","FM-12","99999","V020","270,1,N,0026,1","22000,1,9,N","006000,1,N,1","+0214,1","+0166,1","10142,1",,,"2,1,03,1","2,1,03,1",,"04,99,1,01,1,05,1,00250,1,03,1,01,1",,,,,"99999,9,10016,1","7,1,008,1,+999,9","05,1","SYN072AAXX  16154 08044 41356 42705 10214 20166 30016 40142 57008 70522 81531;",
"08044099999","2010-09-16T18:00:00","4","42.4333333","-8.6166666","108.0","PONTEVEDRA, SP","FM-12","99999","V020","220,1,N,0010,1","00210,1,9,N","006000,1,N,1","+0202,1","+0162,1","10138,1","12,0000,9,1",,"2,1,06,1","2,1,06,1",,"07,99,1,05,1,05,1,00250,1,07,1,01,1",,,,"999,M,+0227,1","99999,9,10012,1","6,1,004,1,+999,9","05,1","SYN088AAXX  16184 08044 11356 72202 10202 20162 30012 40138 56004 60002 70522 85571 333 10227;","Q01  00002PRCP12"
"08044099999","2010-09-17T06:00:00","4","42.4333333","-8.6166666","108.0","PONTEVEDRA, SP","FM-12","99999","V020","340,1,N,0021,1","09000,1,9,N","015000,1,N,1","+0168,1","+0141,1","10126,1","12,0079,9,2","24,0076,9,2",,,,"05,99,1,02,1,05,1,00250,1,03,1,01,1","0198,9","09,9","999,+0150,9","999,N,+0164,1","99999,9,09998,1","5,1,002,1,+999,9","02,1","SYN112AAXX  17064 08044 11365 53404 10168 20141 39998 40126 55002 60082 702// 82531 333 20164 31015 50104 55033 70076;",
"08044099999","2010-09-17T09:00:00","4","42.4333333","-8.6166666","108.0","PONTEVEDRA, SP","FM-12","99999","V020","020,1,N,0036,1","22000,1,9,N","020000,1,N,1","+0185,1","+0127,1","10130,1",,,,,,"02,99,1,01,1,05,1,00450,1,03,1,01,1",,,,,"99999,9,10003,1","1,1,005,1,+999,9",,"SYN066AAXX  17094 08044 42470 20207 10185 20127 30003 40130 51005 81531;",
"08044099999","2010-09-17T12:00:00","4","42.4333333","-8.6166666","108.0","PONTEVEDRA, SP","FM-12","99999","V020","010,1,N,0031,1","03600,1,9,N","020000,1,N,1","+0208,1","+0122,1","10130,1","06,0000,9,1",,,,,"07,99,1,03,1,05,1,00800,1,03,1,01,1",,,,,"99999,9,10004,1","0,1,001,1,+999,9",,"SYN072AAXX  17124 08044 12570 70106 10208 20122 30004 40130 50001 60001 83531;","Q01  00002PRCP06"
"08044099999","2010-09-17T15:00:00","4","42.4333333","-8.6166666","108.0","PONTEVEDRA, SP","FM-12","99999","V020","010,1,N,0031,1","03600,1,9,N","015000,1,N,1","+0222,1","+0125,1","10123,1",,,,,,"06,99,1,01,1,05,1,00800,1,03,1,01,1",,,,,"99999,9,09998,1","7,1,006,1,+999,9",,"SYN066AAXX  17154 08044 42565 60106 10222 20125 39998 40123 57006 81531;",
"08044099999","2010-09-17T18:00:00","4","42.4333333","-8.6166666","108.0","PONTEVEDRA, SP","FM-12","99999","V020","360,1,N,0026,1","22000,1,9,N","015000,1,N,1","+0206,1","+0126,1","10122,1","12,0000,9,1",,,,,"01,99,1,01,1,01,1,00800,1,00,1,01,1",,,,"999,M,+0228,1","99999,9,09996,1","5,1,002,1,+999,9",,"SYN082AAXX  17184 08044 12565 13605 10206 20126 39996 40122 55002 60002 81101 333 10228;","Q01  00002PRCP12"
"08044099999","2010-09-18T06:00:00","4","42.4333333","-8.6166666","108.0","PONTEVEDRA, SP","FM-12","99999","V020","280,1,N,0005,1","22000,1,9,N","020000,1,N,1","+0125,1","+0104,1","10149,1","12,0000,9,1","24,0000,9,1",,,,"03,99,1,02,1,00,1,01750,1,03,1,01,1","0456,9","01,9","999,+0100,9","999,N,+0125,1","99999,9,10019,1","3,1,006,1,+999,9","02,1","SYN112AAXX  18064 08044 11770 32801 10125 20104 30019 40149 53006 60002 702// 82031 333 20125 30010 50264 55076 70000;","Q01  00002PRCP24Q02  00002PRCP12"
"08044099999","2010-09-18T09:00:00","4","42.4333333","-8.6166666","108.0","PONTEVEDRA, SP","FM-12","99999","V020","030,1,N,0021,1","22000,1,9,N","030000,1,N,1","+0176,1","+0114,1","10161,1",,,,,,"02,99,1,01,1,01,1,00800,1,03,1,00,1",,,,,"99999,9,10033,1","2,1,014,1,+999,9",,"SYN066AAXX  18094 08044 42580 20304 10176 20114 30033 40161 52014 81130;",
"08044099999","2010-09-18T12:00:00","4","42.4333333","-8.6166666","108.0","PONTEVEDRA, SP","FM-12","99999","V020","350,1,N,0026,1","22000,1,9,N","020000,1,N,1","+0236,1","+0126,1","10157,1","06,0000,9,1",,,,,"02,99,1,02,1,01,1,00800,1,00,1,00,1",,,,,"99999,9,10032,1","8,1,001,1,+999,9",,"SYN072AAXX  18124 08044 12570 23505 10236 20126 30032 40157 58001 60001 82100;","Q01  00002PRCP06"
"08044099999","2010-09-18T15:00:00","4","42.4333333","-8.6166666","108.0","PONTEVEDRA, SP","FM-12","99999","V020","280,1,N,0026,1","22000,1,9,N","015000,1,N,1","+0238,1","+0128,1","10156,1",,,,,,"02,99,1,02,1,01,1,00800,1,00,1,00,1",,,,,"99999,9,10031,1","7,1,001,1,+999,9",,"SYN066AAXX  18154 08044 42565 22805 10238 20128 30031 40156 57001 82100;",
"08044099999","2010-09-18T18:00:00","4","42.4333333","-8.6166666","108.0","PONTEVEDRA, SP","FM-12","99999","V020","320,1,N,0031,1","22000,1,9,N","012000,1,N,1","+0232,1","+0103,1","10151,1","12,0000,9,1",,,,"00,1,+99999,9,99,9","00,99,1,00,1,00,1,99999,9,00,1,00,1",,,,"999,M,+0242,1","99999,9,10026,1","5,1,005,1,+999,9",,"SYN076AAXX  18184 08044 12962 03206 10232 20103 30026 40151 55005 60002 333 10242;","Q01  00002PRCP12"
"08044099999","2010-09-19T06:00:00","4","42.4333333","-8.6166666","108.0","PONTEVEDRA, SP","FM-12","99999","V020","080,1,N,0015,1","22000,1,9,N","020000,1,N,1","+0134,1","+0104,1","10161,1","12,0000,9,1","24,0000,9,1",,,,"01,99,1,00,1,00,1,99999,9,00,1,01,1","0672,9","01,9","999,+0110,9","999,N,+0134,1","99999,9,10031,1","5,1,001,1,+999,9","02,1","SYN112AAXX  19064 08044 11970 10803 10134 20104 30031 40161 55001 60002 702// 80001 333 20134 30011 50254 55112 70000;","Q01  00002PRCP24Q02  00002PRCP12"
"08044099999","2010-09-19T09:00:00","4","42.4333333","-8.6166666","108.0","PONTEVEDRA, SP","FM-12","99999","V020","280,1,N,0010,1","22000,1,9,N","020000,1,N,1","+0173,1","+0120,1","10160,1",,,,,,"01,99,1,00,1,00,1,99999,9,00,1,01,1",,,,,"99999,9,10032,1","1,1,001,1,+999,9",,"SYN066AAXX  19094 08044 42970 12802 10173 20120 30032 40160 51001 80001;",
"08044099999","2010-09-19T12:00:00","4","42.4333333","-8.6166666","108.0","PONTEVEDRA, SP","FM-12","99999","V020","280,1,N,0026,1","22000,1,9,N","020000,1,N,1","+0250,1","+0116,1","10154,1","06,0000,9,1",,,,,"01,99,1,01,1,01,1,00800,1,00,1,01,1",,,,,"99999,9,10029,1","8,1,003,1,+999,9",,"SYN072AAXX  19124 08044 12570 12805 10250 20116 30029 40154 58003 60001 81101;","Q01  00002PRCP06"
"08044099999","2010-09-19T15:00:00","4","42.4333333","-8.6166666","108.0","PONTEVEDRA, SP","FM-12","99999","V020","270,1,N,0026,1","22000,1,9,N","015000,1,N,1","+0236,1","+0106,1","10143,1",,,,,,"01,99,1,00,1,00,1,99999,9,00,1,01,1",,,,,"99999,9,10018,1","7,1,011,1,+999,9",,"SYN066AAXX  19154 08044 42965 12705 10236 20106 30018 40143 57011 80001;",
"08044099999","2010-09-19T18:00:00","4","42.4333333","-8.6166666","108.0","PONTEVEDRA, SP","FM-12","99999","V020","190,1,N,0005,1","22000,1,9,N","010000,1,N,1","+0210,1","+0134,1","10140,1","12,0000,9,1",,,,,"01,99,1,00,1,00,1,99999,9,00,1,01,1",,,,"999,M,+0264,1","99999,9,10014,1","6,1,004,1,+999,9",,"SYN082AAXX  19184 08044 12960 11901 10210 20134 30014 40140 56004 60002 80001 333 10264;","Q01  00002PRCP12"
"08044099999","2010-09-20T06:00:00","4","42.4333333","-8.6166666","108.0","PONTEVEDRA, SP","FM-12","99999","V020","070,1,N,0021,1","22000,1,9,N","015000,1,N,1","+0156,1","+0120,1","10125,1","12,0000,9,1","24,0000,9,1",,,,"01,99,1,00,1,00,1,99999,9,00,1,01,1","0702,9","01,9","999,+0130,9","999,N,+0152,1","99999,9,09997,1","6,1,001,1,+999,9","02,1","SYN112AAXX  20064 08044 11965 10704 10156 20120 39997 40125 56001 60002 702// 80001 333 20152 30013 50244 55117 70000;","Q01  00002PRCP24Q02  00002PRCP12"
"08044099999","2010-09-20T09:00:00","4","42.4333333","-8.6166666","108.0","PONTEVEDRA, SP","FM-12","99999","V020","270,1,N,0010,1","22000,1,9,N","015000,1,N,1","+0196,1","+0142,1","10123,1",,,,,,"01,99,1,00,1,00,1,99999,9,00,1,01,1",,,,,"99999,9,09997,1","4,1,000,1,+999,9",,"SYN066AAXX  20094 08044 42965 12702 10196 20142 39997 40123 54000 80001;",
"08044099999","2010-09-20T12:00:00","4","42.4333333","-8.6166666","108.0","PONTEVEDRA, SP","FM-12","99999","V020","240,1,N,0010,1","22000,1,9,N","012000,1,N,1","+0241,1","+0133,1","10123,1","06,0000,9,1",,,,"00,1,+99999,9,99,9","00,99,1,00,1,00,1,99999,9,00,1,00,1",,,,,"99999,9,09998,1","1,1,001,1,+999,9",,"SYN066AAXX  20124 08044 12962 02402 10241 20133 39998 40123 51001 60001;","Q01  00002PRCP06"
"08044099999","2010-09-20T15:00:00","4","42.4333333","-8.6166666","108.0","PONTEVEDRA, SP","FM-12","99999","V020","230,1,N,0015,1","22000,1,9,N","010000,1,N,1","+0210,1","+0137,1","10123,1",,,,,,"01,99,1,01,1,01,1,00800,1,00,1,00,1",,,,,"99999,9,09997,1","5,1,001,1,+999,9",,"SYN066AAXX  20154 08044 42560 12303 10210 20137 39997 40123 55001 81100;",
"08044099999","2010-09-20T18:00:00","4","42.4333333","-8.6166666","108.0","PONTEVEDRA, SP","FM-12","99999","V020","190,1,N,0010,1","22000,1,9,N","006000,1,N,1","+0191,1","+0133,1","10125,1","12,0000,9,1",,"0,1,06,1","0,1,06,1","00,1,+99999,9,99,9","00,99,1,00,1,00,1,99999,9,00,1,00,1",,,,"999,M,+0253,1","99999,9,09998,1","2,1,001,1,+999,9","05,1","SYN082AAXX  20184 08044 11956 01902 10191 20133 39998 40125 52001 60002 70500 333 10253;","Q01  00002PRCP12"
"08044099999","2010-09-21T06:00:00","4","42.4333333","-8.6166666","108.0","PONTEVEDRA, SP","FM-12","99999","V020","080,1,N,0026,1","00420,1,9,N","006000,1,N,1","+0138,1","+0120,1","10164,1","12,0000,9,1","24,0000,9,1",,,,"07,99,1,07,1,02,1,00450,1,00,1,00,1","0696,9","01,9","999,+0120,9","999,N,+0136,1","99999,9,10034,1","3,1,006,1,+999,9","10,1","SYN112AAXX  21064 08044 11456 70805 10138 20120 30034 40164 53006 60002 710// 87200 333 20136 30012 50224 55116 70000;","Q01  00002PRCP24Q02  00002PRCP12"
"08044099999","2010-09-21T09:00:00","4","42.4333333","-8.6166666","108.0","PONTEVEDRA, SP","FM-12","99999","V020","260,1,N,0005,1","03600,1,9,N","010000,1,N,1","+0167,1","+0134,1","10179,1",,,,,,"06,99,1,01,1,05,1,00800,1,03,1,00,1",,,,,"99999,9,10051,1","2,1,017,1,+999,9",,"SYN066AAXX  21094 08044 42560 62601 10167 20134 30051 40179 52017 81530;",
"08044099999","2010-09-21T12:00:00","4","42.4333333","-8.6166666","108.0","PONTEVEDRA, SP","FM-12","99999","V020","270,1,N,0026,1","22000,1,9,N","010000,1,N,1","+0214,1","+0131,1","10175,1","06,0000,9,1",,,,,"01,99,1,01,1,01,1,00800,1,00,1,00,1",,,,,"99999,9,10049,1","8,1,002,1,+999,9",,"SYN072AAXX  21124 08044 12560 12705 10214 20131 30049 40175 58002 60001 81100;","Q01  00002PRCP06"
"08044099999","2010-09-21T15:00:00","4","42.4333333","-8.6166666","108.0","PONTEVEDRA, SP","FM-12","99999","V020","270,1,N,0021,1","22000,1,9,N","008000,1,N,1","+0201,1","+0142,1","10175,1",,,"0,1,03,1","0,1,03,1","00,1,+99999,9,99,9","00,99,1,00,1,00,1,99999,9,00,1,00,1",,,,,"99999,9,10048,1","6,1,001,1,+999,9","05,1","SYN066AAXX  21154 08044 41958 02704 10201 20142 30048 40175 56001 70500;",
"08044099999","2010-09-21T18:00:00","4","42.4333333","-8.6166666","108.0","PONTEVEDRA, SP","FM-12","99999","V020","220,1,N,0010,1","22000,1,9,N","006000,1,N,1","+0180,1","+0135,1","10176,1","12,0000,9,1",,"0,1,06,1","0,1,06,1",,"01,99,1,00,1,00,1,99999,9,00,1,01,1",,,,"999,M,+0224,1","99999,9,10048,1","4,1,000,1,+999,9","05,1","SYN088AAXX  21184 08044 11956 12202 10180 20135 30048 40176 54000 60002 70500 80001 333 10224;","Q01  00002PRCP12"
"08044099999","2010-09-22T06:00:00","4","42.4333333","-8.6166666","108.0","PONTEVEDRA, SP","FM-12","99999","V020","070,1,N,0010,1","22000,1,9,N","015000,1,N,1","+0138,1","+0108,1","10171,1","12,0000,9,1","24,0000,9,1",,,,"02,99,1,00,1,00,1,99999,9,00,1,01,1","0588,9","01,9","999,+0120,9","999,N,+0135,1","99999,9,10041,1","6,1,002,1,+999,9","02,1","SYN112AAXX  22064 08044 11965 20702 10138 20108 30041 40171 56002 60002 702// 80001 333 20135 30012 50184 55098 70000;","Q01  00002PRCP24Q02  00002PRCP12"
"08044099999","2010-09-22T09:00:00","4","42.4333333","-8.6166666","108.0","PONTEVEDRA, SP","FM-12","99999","V020","320,1,N,0010,1","99999,9,9,N","012000,1,N,1","+0168,1","+0129,1","10169,1",,,,,,"08,99,1,00,1,00,1,99999,9,00,1,07,1",,,,,"99999,9,10041,1","4,1,000,1,+999,9",,"SYN066AAXX  22094 08044 42962 83202 10168 20129 30041 40169 54000 80007;",
"08044099999","2010-09-22T12:00:00","4","42.4333333","-8.6166666","108.0","PONTEVEDRA, SP","FM-12","99999","V020","160,1,N,0010,1","09000,1,9,N","008000,1,N,1","+0204,1","+0143,1","10168,1","06,0000,9,1",,"2,1,06,1","2,1,06,1",,"08,99,1,03,1,00,1,02250,1,05,1,07,1",,,,,"99999,9,10041,1","0,1,000,1,+999,9","05,1","SYN078AAXX  22124 08044 11858 81602 10204 20143 30041 40168 50000 60001 70522 83057;","Q01  00002PRCP06"
"08044099999","2010-09-22T15:00:00","4","42.4333333","-8.6166666","108.0","PONTEVEDRA, SP","FM-12","99999","V020","260,1,N,0021,1","09000,1,9,N","008000,1,N,1","+0216,1","+0132,1","10165,1",,,"2,1,03,1","2,1,03,1",,"05,99,1,01,1,02,1,00800,1,07,1,02,1",,,,,"99999,9,10039,1","6,1,002,1,+999,9","05,1","SYN072AAXX  22154 08044 41558 52604 10216 20132 30039 40165 56002 70522 81272;",
"08044099999","2010-09-22T18:00:00","4","42.4333333","-8.6166666","108.0","PONTEVEDRA, SP","FM-12","99999","V020","260,1,N,0010,1","22000,1,9,N","005000,1,N,1","+0190,1","+0136,1","10165,1","12,0000,9,1",,"1,1,06,1","1,1,06,1",,"02,99,1,00,1,00,1,99999,9,00,1,01,1",,,,"999,M,+0216,1","99999,9,10038,1","6,1,001,1,+999,9","05,1","SYN088AAXX  22184 08044 11950 22602 10190 20136 30038 40165 56001 60002 70511 80001 333 10216;","Q01  00002PRCP12"
"08044099999","2010-09-23T06:00:00","4","42.4333333","-8.6166666","108.0","PONTEVEDRA, SP","FM-12","99999","V020","320,1,N,0005,1","03600,1,9,N","010000,1,N,1","+0152,1","+0136,1","10165,1","12,0000,9,1","24,0000,9,1",,,,"07,99,1,01,1,06,1,00075,1,07,1,01,1","0288,9","01,9","999,+0130,9","999,N,+0145,1","99999,9,10036,1","6,1,010,1,+999,9","02,1","SYN112AAXX  23064 08044 11160 73201 10152 20136 30036 40165 56010 60002 702// 81671 333 20145 30013 50134 55048 70000;","Q01  00002PRCP24Q02  00002PRCP12"
"08044099999","2010-09-23T09:00:00","4","42.4333333","-8.6166666","108.0","PONTEVEDRA, SP","FM-12","99999","V020","260,1,N,0005,1","09000,1,9,N","010000,1,N,1","+0168,1","+0144,1","10168,1",,,,,,"07,99,1,04,1,00,1,02250,1,07,1,08,1",,,,,"99999,9,10040,1","1,1,004,1,+999,9",,"SYN066AAXX  23094 08044 42860 72601 10168 20144 30040 40168 51004 84078;",
"08044099999","2010-09-23T12:00:00","4","42.4333333","-8.6166666","108.0","PONTEVEDRA, SP","FM-12","99999","V020","060,1,N,0010,1","03600,1,9,N","005000,1,N,1","+0204,1","+0145,1","10167,1","06,9999,9,9",,"2,1,06,1","2,1,06,1",,"08,99,1,04,1,08,1,00250,1,07,1,99,9",,,,,"99999,9,10040,1","0,1,000,1,+999,9","50,1","SYN078AAXX  23124 08044 11350 80602 10204 20145 30040 40167 50000 69901 75022 8487/;","Q01  00002PRCP06Q02  00002PRCP06"
"08044099999","2010-09-23T15:00:00","4","42.4333333","-8.6166666","108.0","PONTEVEDRA, SP","FM-12","99999","V020","270,1,N,0010,1","00900,1,9,N","015000,1,N,1","+0198,1","+0154,1","10162,1",,,"5,1,03,1","2,1,03,1",,"07,99,1,07,1,08,1,00450,1,99,9,99,9",,,,,"99999,9,10035,1","6,1,005,1,+999,9","02,1","SYN072AAXX  23154 08044 41465 72702 10198 20154 30035 40162 56005 70252 878//;",
"08044099999","2010-09-23T18:00:00","4","42.4333333","-8.6166666","108.0","PONTEVEDRA, SP","FM-12","99999","V020","090,1,N,0010,1","00210,1,9,N","006000,1,N,1","+0186,1","+0169,1","10159,1","12,0005,9,1",,"8,1,06,1","2,1,06,1",,"07,99,1,05,1,02,1,00250,1,07,1,99,9",,,,"999,M,+0214,1","99999,9,10032,1","8,1,003,1,+999,9","25,1","SYN088AAXX  23184 08044 11356 70902 10186 20169 30032 40159 58003 69962 72582 8527/ 333 10214;",
"08044099999","2010-09-24T06:00:00","4","42.4333333","-8.6166666","108.0","PONTEVEDRA, SP","FM-12","99999","V020","350,1,N,0010,1","00600,1,9,N","006000,1,N,1","+0168,1","+0162,1","10165,1","12,0010,9,1","24,0018,9,1",,,,"07,99,1,07,1,08,1,00250,1,99,9,99,9","0000,9",,,"999,N,+0166,1","99999,9,10037,1","0,1,003,1,+999,9","80,1","SYN106AAXX  24064 08044 11356 73502 10168 20162 30037 40165 50003 60012 780// 878// 333 20166 50024 55000 70018;",
"08044099999","2010-09-24T09:00:00","4","42.4333333","-8.6166666","108.0","PONTEVEDRA, SP","FM-12","99999","V020","310,1,N,0021,1","03600,1,9,N","020000,1,N,1","+0176,1","+0149,1","10176,1",,,"8,1,03,1","2,1,03,1",,"05,99,1,04,1,08,1,00450,1,04,1,00,1",,,,,"99999,9,10048,1","1,1,011,1,+999,9","01,1","SYN072AAXX  24094 08044 41470 53104 10176 20149 30048 40176 51011 70182 84840;",
"08044099999","2010-09-24T12:00:00","4","42.4333333","-8.6166666","108.0","PONTEVEDRA, SP","FM-12","99999","V020","320,1,N,0036,1","00900,1,9,N","020000,1,N,1","+0190,1","+0130,1","10177,1","06,0000,2,1",,"8,1,06,1","2,1,06,1",,"08,99,1,08,1,08,1,00450,1,99,9,99,9",,,,,"99999,9,10050,1","1,1,002,1,+999,9","02,1","SYN078AAXX  24124 08044 11470 83207 10190 20130 30050 40177 51002 69921 70282 888//;",
"08044099999","2010-09-24T15:00:00","4","42.4333333","-8.6166666","108.0","PONTEVEDRA, SP","FM-12","99999","V020","250,1,N,0021,1","03600,1,9,N","020000,1,N,1","+0202,1","+0136,1","10172,1",,,,,,"05,99,1,04,1,02,1,00450,1,04,1,00,1",,,,,"99999,9,10045,1","8,1,005,1,+999,9",,"SYN066AAXX  24154 08044 42470 52504 10202 20136 30045 40172 58005 84240;",
"08044099999","2010-09-24T18:00:00","4","42.4333333","-8.6166666","108.0","PONTEVEDRA, SP","FM-12","99999","V020","330,1,N,0036,1","22000,1,9,N","015000,1,N,1","+0185,1","+0093,1","10173,1","12,0000,2,1",,,,,"02,99,1,02,1,04,1,00450,1,00,1,00,1",,,,"999,M,+0206,1","99999,9,10045,1","4,1,000,1,+999,9",,"SYN082AAXX  24184 08044 12465 23307 10185 20093 30045 40173 54000 69922 82400 333 10206;",
"08044099999","2010-09-25T06:00:00","4","42.4333333","-8.6166666","108.0","PONTEVEDRA, SP","FM-12","99999","V020","100,1,N,0010,1","22000,1,9,N","015000,1,N,1","+0100,1","+0086,1","10179,1","12,0000,9,1","24,0003,9,1",,,,"02,99,1,02,1,08,1,00450,1,00,1,00,1","0378,9",,,"999,N,+0100,1","99999,9,10047,1","5,1,002,1,+999,9","02,1","SYN106AAXX  25064 08044 11465 21002 10100 20086 30047 40179 55002 60002 702// 82800 333 20100 50174 55063 70002;","Q01  00002PRCP12"
"08044099999","2010-09-25T09:00:00","4","42.4333333","-8.6166666","108.0","PONTEVEDRA, SP","FM-12","99999","V020","240,1,N,0010,1","22000,1,9,N","020000,1,N,1","+0154,1","+0114,1","10182,1",,,,,,"02,99,1,01,1,08,1,00450,1,03,1,00,1",,,,,"99999,9,10053,1","1,1,006,1,+999,9",,"SYN066AAXX  25094 08044 42470 22402 10154 20114 30053 40182 51006 81830;",
"08044099999","2010-09-25T12:00:00","4","42.4333333","-8.6166666","108.0","PONTEVEDRA, SP","FM-12","99999","V020","350,1,N,0036,1","22000,1,9,N","020000,1,N,1","+0208,1","+0100,1","10173,1","06,0000,9,1",,,,,"02,99,1,02,1,02,1,00450,1,00,1,00,1",,,,,"99999,9,10046,1","8,1,007,1,+999,9",,"SYN072AAXX  25124 08044 12470 23507 10208 20100 30046 40173 58007 60001 82200;","Q01  00002PRCP06"
"08044099999","2010-09-25T15:00:00","4","42.4333333","-8.6166666","108.0","PONTEVEDRA, SP","FM-12","99999","V020","340,1,N,0041,1","03600,1,9,N","020000,1,N,1","+0194,1","+0107,1","10157,1",,,,,,"05,99,1,04,1,08,1,00450,1,04,1,00,1",,,,,"99999,9,10030,1","6,1,016,1,+999,9",,"SYN066AAXX  25154 08044 42470 53408 10194 20107 30030 40157 56016 84840;",
"08044099999","2010-09-25T18:00:00","4","42.4333333","-8.6166666","108.0","PONTEVEDRA, SP","FM-12","99999","V020","350,1,N,0036,1","22000,1,9,N","015000,1,N,1","+0182,1","+0095,1","10155,1","12,0000,9,1",,,,,"03,99,1,02,1,04,1,00450,1,05,1,00,1",,,,"999,M,+0210,1","99999,9,10027,1","6,1,003,1,+999,9",,"SYN082AAXX  25184 08044 12465 33507 10182 20095 30027 40155 56003 60002 82450 333 10210;","Q01  00002PRCP12"
"08044099999","2010-09-26T06:00:00","4","42.4333333","-8.6166666","108.0","PONTEVEDRA, SP","FM-12","99999","V020","050,1,N,0021,1","22000,1,9,N","015000,1,N,1","+0124,1","+0051,1","10138,1","12,0000,9,1","24,0000,9,1",,,,"01,99,1,00,1,00,1,99999,9,00,1,02,1","0510,9",,,"999,N,+0118,1","99999,9,10008,1","5,1,004,1,+999,9","02,1","SYN106AAXX  26064 08044 11965 10504 10124 20051 30008 40138 55004 60002 702// 80002 333 20118 50284 55085 70000;","Q01  00002PRCP24Q02  00002PRCP12"
"08044099999","2010-09-26T09:00:00","4","42.4333333","-8.6166666","108.0","PONTEVEDRA, SP","FM-12","99999","V020","260,1,N,0010,1","22000,1,9,N","020000,1,N,1","+0152,1","+0080,1","10147,1",,,,,,"01,99,1,00,1,00,1,99999,9,00,1,02,1",,,,,"99999,9,10018,1","1,1,010,1,+999,9",,"SYN066AAXX  26094 08044 42970 12602 10152 20080 30018 40147 51010 80002;",
"08044099999","2010-09-26T12:00:00","4","42.4333333","-8.6166666","108.0","PONTEVEDRA, SP","FM-12","99999","V020","290,1,N,0031,1","22000,1,9,N","020000,1,N,1","+0204,1","+0093,1","10142,1","06,0000,9,1",,,,,"01,99,1,00,1,00,1,99999,9,00,1,02,1",,,,,"99999,9,10015,1","8,1,003,1,+999,9",,"SYN072AAXX  26124 08044 12970 12906 10204 20093 30015 40142 58003 60001 80002;","Q01  00002PRCP06"
"08044099999","2010-09-26T15:00:00","4","42.4333333","-8.6166666","108.0","PONTEVEDRA, SP","FM-12","99999","V020","290,1,N,0031,1","22000,1,9,N","020000,1,N,1","+0220,1","+0085,1","10131,1",,,,,,"02,99,1,00,1,00,1,99999,9,00,1,02,1",,,,,"99999,9,10005,1","6,1,010,1,+999,9",,"SYN066AAXX  26154 08044 42970 22906 10220 20085 30005 40131 56010 80002;",
"08044099999","2010-09-26T18:00:00","4","42.4333333","-8.6166666","108.0","PONTEVEDRA, SP","FM-12","99999","V020","340,1,N,0021,1","22000,1,9,N","015000,1,N,1","+0204,1","+0087,1","10131,1","12,0000,9,1",,,,,"03,99,1,01,1,00,1,01750,1,04,1,02,1",,,,"999,M,+0224,1","99999,9,10005,1","4,1,000,1,+999,9",,"SYN082AAXX  26184 08044 12765 33404 10204 20087 30005 40131 54000 60002 81042 333 10224;","Q01  00002PRCP12"
"08044099999","2010-09-27T06:00:00","4","42.4333333","-8.6166666","108.0","PONTEVEDRA, SP","FM-12","99999","V020","060,1,N,0031,1","22000,1,9,N","020000,1,N,1","+0105,1","+0065,1","10137,1","12,0000,9,1","24,0000,9,1",,,,"02,99,1,01,1,00,1,01750,1,03,1,02,1","0648,9",,,"999,N,+0098,1","99999,9,10006,1","3,1,004,1,+999,9","02,1","SYN106AAXX  27064 08044 11770 20606 10105 20065 30006 40137 53004 60002 702// 81032 333 20098 50244 55108 70000;","Q01  00002PRCP24Q02  00002PRCP12"
"08044099999","2010-09-27T09:00:00","4","42.4333333","-8.6166666","108.0","PONTEVEDRA, SP","FM-12","99999","V020","040,1,N,0021,1","09000,1,9,N","020000,1,N,1","+0142,1","+0084,1","10142,1",,,,,,"05,99,1,01,1,00,1,01750,1,03,1,02,1",,,,,"99999,9,10013,1","1,1,007,1,+999,9",,"SYN066AAXX  27094 08044 42770 50404 10142 20084 30013 40142 51007 81032;",
"08044099999","2010-09-27T12:00:00","4","42.4333333","-8.6166666","108.0","PONTEVEDRA, SP","FM-12","99999","V020","280,1,N,0026,1","01500,1,9,N","020000,1,N,1","+0200,1","+0110,1","10144,1","06,0000,9,1",,,,,"05,99,1,05,1,00,1,01750,1,05,1,00,1",,,,,"99999,9,10017,1","0,1,004,1,+999,9",,"SYN072AAXX  27124 08044 12770 52805 10200 20110 30017 40144 50004 60001 85050;","Q01  00002PRCP06"
"08044099999","2010-09-27T15:00:00","4","42.4333333","-8.6166666","108.0","PONTEVEDRA, SP","FM-12","99999","V020","280,1,N,0026,1","01500,1,9,N","020000,1,N,1","+0188,1","+0093,1","10144,1",,,,,,"05,99,1,05,1,00,1,01750,1,04,1,00,1",,,,,"99999,9,10017,1","0,1,000,1,+999,9",,"SYN066AAXX  27154 08044 42770 52805 10188 20093 30017 40144 50000 85040;",
"08044099999","2010-09-27T18:00:00","4","42.4333333","-8.6166666","108.0","PONTEVEDRA, SP","FM-12","99999","V020","150,1,N,0005,1","22000,1,9,N","015000,1,N,1","+0164,1","+0111,1","10147,1","12,0000,9,1",,,,,"01,99,1,01,1,00,1,01750,1,03,1,00,1",,,,"999,M,+0214,1","99999,9,10019,1","3,1,002,1,+999,9",,"SYN082AAXX  27184 08044 12765 11501 10164 20111 30019 40147 53002 60002 81030 333 10214;","Q01  00002PRCP12"
"08044099999","2010-09-28T06:00:00","4","42.4333333","-8.6166666","108.0","PONTEVEDRA, SP","FM-12","99999","V020","160,1,N,0010,1","22000,1,9,N","015000,1,N,1","+0104,1","+0080,1","10170,1","12,0000,9,1","24,0000,9,1",,,"00,1,+99999,9,99,9","00,99,1,00,1,00,1,99999,9,00,1,00,1","0588,9",,,"999,N,+0104,1","99999,9,10039,1","3,1,010,1,+999,9","02,1","SYN100AAXX  28064 08044 11965 01602 10104 20080 30039 40170 53010 60002 702// 333 20104 50194 55098 70000;","Q01  00002PRCP24Q02  00002PRCP12"
"08044099999","2010-09-28T09:00:00","4","42.4333333","-8.6166666","108.0","PONTEVEDRA, SP","FM-12","99999","V020","280,1,N,0010,1","22000,1,9,N","020000,1,N,1","+0154,1","+0097,1","10182,1",,,,,"00,1,+99999,9,99,9","00,99,1,00,1,00,1,99999,9,00,1,00,1",,,,,"99999,9,10053,1","2,1,014,1,+999,9",,"SYN060AAXX  28094 08044 42970 02802 10154 20097 30053 40182 52014;",
"08044099999","2010-09-28T12:00:00","4","42.4333333","-8.6166666","108.0","PONTEVEDRA, SP","FM-12","99999","V020","270,1,N,0015,1","22000,1,9,N","020000,1,N,1","+0210,1","+0105,1","10183,1","06,0000,9,1",,,,,"01,99,1,00,1,00,1,99999,9,00,1,01,1",,,,,"99999,9,10056,1","0,1,003,1,+999,9",,"SYN072AAXX  28124 08044 12970 12703 10210 20105 30056 40183 50003 60001 80001;","Q01  00002PRCP06"
"08044099999","2010-09-28T15:00:00","4","42.4333333","-8.6166666","108.0","PONTEVEDRA, SP","FM-12","99999","V020","270,1,N,0021,1","22000,1,9,N","020000,1,N,1","+0194,1","+0124,1","10183,1",,,,,,"01,99,1,00,1,00,1,99999,9,00,1,02,1",,,,,"99999,9,10056,1","5,1,000,1,+999,9",,"SYN066AAXX  28154 08044 42970 12704 10194 20124 30056 40183 55000 80002;",
"08044099999","2010-09-28T18:00:00","4","42.4333333","-8.6166666","108.0","PONTEVEDRA, SP","FM-12","99999","V020","240,1,N,0010,1","22000,1,9,N","010000,1,N,1","+0172,1","+0131,1","10186,1","12,0000,9,1",,,,,"01,99,1,00,1,00,1,99999,9,00,1,02,1",,,,"999,M,+0220,1","99999,9,10058,1","3,1,002,1,+999,9",,"SYN082AAXX  28184 08044 12960 12402 10172 20131 30058 40186 53002 60002 80002 333 10220;","Q01  00002PRCP12"
"08044099999","2010-09-29T06:00:00","4","42.4333333","-8.6166666","108.0","PONTEVEDRA, SP","FM-12","99999","V020","150,1,N,0010,1","00420,1,9,N","010000,1,N,1","+0124,1","+0091,1","10199,1","12,0000,9,1","24,0000,9,1",,,,"08,99,1,05,1,05,1,00450,1,07,1,99,9","0666,9",,,"999,N,+0110,1","99999,9,10068,1","1,1,004,1,+999,9","02,1","SYN106AAXX  29064 08044 11460 81502 10124 20091 30068 40199 51004 60002 702// 8557/ 333 20110 50154 55111 70000;","Q01  00002PRCP24Q02  00002PRCP12"
"08044099999","2010-09-29T09:00:00","4","42.4333333","-8.6166666","108.0","PONTEVEDRA, SP","FM-12","99999","V020","270,1,N,0010,1","22000,1,9,N","012000,1,N,1","+0158,1","+0122,1","10199,1",,,,,,"03,99,1,01,1,05,1,00450,1,05,1,02,1",,,,,"99999,9,10070,1","1,1,002,1,+999,9",,"SYN066AAXX  29094 08044 42462 32702 10158 20122 30070 40199 51002 81552;",
"08044099999","2010-09-29T12:00:00","4","42.4333333","-8.6166666","108.0","PONTEVEDRA, SP","FM-12","99999","V020","180,1,N,0015,1","01500,1,9,N","015000,1,N,1","+0196,1","+0128,1","10198,1","06,0000,9,1",,,,,"08,99,1,08,1,00,1,01750,1,07,1,99,9",,,,,"99999,9,10071,1","0,1,001,1,+999,9",,"SYN072AAXX  29124 08044 12765 81803 10196 20128 30071 40198 50001 60001 8807/;","Q01  00002PRCP06"
"08044099999","2010-09-29T15:00:00","4","42.4333333","-8.6166666","108.0","PONTEVEDRA, SP","FM-12","99999","V020","280,1,N,0015,1","00210,1,9,N","010000,1,N,1","+0180,1","+0141,1","10199,1",,,,,,"08,99,1,05,1,05,1,00250,1,07,1,99,9",,,,,"99999,9,10071,1","0,1,000,1,+999,9",,"SYN066AAXX  29154 08044 42360 82803 10180 20141 30071 40199 50000 8557/;",
"08044099999","2010-09-29T18:00:00","4","42.4333333","-8.6166666","108.0","PONTEVEDRA, SP","FM-12","99999","V020","010,1,N,0015,1","00420,1,9,N","010000,1,N,1","+0152,1","+0136,1","10205,1","12,0005,9,1",,"5,1,06,1","2,1,06,1",,"08,99,1,06,1,05,1,00450,1,07,1,99,9",,,,"999,M,+0200,1","99999,9,10076,1","1,1,005,1,+999,9","21,1","SYN088AAXX  29184 08044 11460 80103 10152 20136 30076 40205 51005 69942 72152 8657/ 333 10200;",
"08044099999","2010-09-30T06:00:00","4","42.4333333","-8.6166666","108.0","PONTEVEDRA, SP","FM-12","99999","V020","150,1,N,0010,1","22000,1,9,N","015000,1,N,1","+0100,1","+0092,1","10214,1","12,0000,2,1","24,0005,9,1",,,,"04,99,1,01,1,00,1,99999,9,03,1,01,1","0126,9","09,9","999,+0080,9","999,N,+0100,1","99999,9,10082,1","0,1,001,1,+999,9","02,1","SYN112AAXX  30064 08044 11965 41502 10100 20092 30082 40214 50001 60002 702// 81031 333 20100 31008 50094 55021 70004;",
"08044099999","2010-09-30T09:00:00","4","42.4333333","-8.6166666","108.0","PONTEVEDRA, SP","FM-12","99999","V020","340,1,N,0015,1","09000,1,9,N","020000,1,N,1","+0140,1","+0112,1","10214,1",,,,,,"05,99,1,01,1,01,1,00800,1,03,1,08,1",,,,,"99999,9,10084,1","1,1,002,1,+999,9",,"SYN066AAXX  30094 08044 42570 53403 10140 20112 30084 40214 51002 81138;",
"08044099999","2010-09-30T12:00:00","4","42.4333333","-8.6166666","108.0","PONTEVEDRA, SP","FM-12","99999","V020","300,1,N,0041,1","22000,1,9,N","020000,1,N,1","+0194,1","+0114,1","10209,1","06,0000,9,1",,,,,"03,99,1,01,1,01,1,00800,1,00,1,01,1",,,,,"99999,9,10081,1","8,1,003,1,+999,9",,"SYN072AAXX  30124 08044 12570 33008 10194 20114 30081 40209 58003 60001 81101;","Q01  00002PRCP06"
"08044099999","2010-09-30T15:00:00","4","42.4333333","-8.6166666","108.0","PONTEVEDRA, SP","FM-12","99999","V020","280,1,N,0036,1","22000,1,9,N","015000,1,N,1","+0197,1","+0104,1","10194,1",,,,,,"03,99,1,01,1,01,1,00800,1,00,1,01,1",,,,,"99999,9,10067,1","8,1,014,1,+999,9",,"SYN066AAXX  30154 08044 42565 32807 10197 20104 30067 40194 58014 81101;",
"08044099999","2010-09-30T18:00:00","4","42.4333333","-8.6166666","108.0","PONTEVEDRA, SP","FM-12","99999","V020","250,1,N,0010,1","22000,1,9,N","010000,1,N,1","+0174,1","+0108,1","10191,1","12,0000,9,1",,,,,"03,99,1,01,1,01,1,00800,1,00,1,01,1",,,,"999,M,+0200,1","99999,9,10063,1","5,1,004,1,+999,9",,"SYN082AAXX  30184 08044 12560 32502 10174 20108 30063 40191 55004 60002 81101 333 10200;","Q01  00002PRCP12"
"08044099999","2010-10-01T06:00:00","4","42.4333333","-8.6166666","108.0","PONTEVEDRA, SP","FM-12","99999","V020","050,1,N,0010,1","00750,1,9,N","010000,1,N,1","+0126,1","+0103,1","10163,1","12,0000,9,1","24,0000,9,1",,,,"07,99,1,05,1,05,1,00800,1,03,1,00,1","0528,9","01,9","999,+0100,9","999,N,+0114,1","99999,9,10033,1","6,1,013,1,+999,9","02,1","SYN112AAXX  01064 08044 11560 70502 10126 20103 30033 40163 56013 60002 702// 85530 333 20114 30010 50154 55088 70000;","Q01  00002PRCP24Q02  00002PRCP12"
"08044099999","2010-10-01T09:00:00","4","42.4333333","-8.6166666","108.0","PONTEVEDRA, SP","FM-12","99999","V020","220,1,N,0010,1","03600,1,9,N","010000,1,N,1","+0160,1","+0124,1","10160,1",,,,,,"07,99,1,03,1,05,1,00450,1,07,1,02,1",,,,,"99999,9,10031,1","5,1,002,1,+999,9",,"SYN066AAXX  01094 08044 42460 72202 10160 20124 30031 40160 55002 83572;",
"08044099999","2010-10-01T12:00:00","4","42.4333333","-8.6166666","108.0","PONTEVEDRA, SP","FM-12","99999","V020","180,1,N,0021,1","01200,1,9,N","010000,1,N,1","+0190,1","+0134,1","10155,1","06,0000,9,1",,,,,"07,99,1,05,1,08,1,00800,1,07,1,01,1",,,,,"99999,9,10028,1","8,1,003,1,+999,9",,"SYN072AAXX  01124 08044 12560 71804 10190 20134 30028 40155 58003 60001 85871;","Q01  00002PRCP06"
"08044099999","2010-10-01T15:00:00","4","42.4333333","-8.6166666","108.0","PONTEVEDRA, SP","FM-12","99999","V020","270,1,N,0021,1","03600,1,9,N","010000,1,N,1","+0203,1","+0140,1","10142,1",,,,,,"07,99,1,03,1,08,1,00800,1,07,1,01,1",,,,,"99999,9,10016,1","6,1,012,1,+999,9",,"SYN066AAXX  01154 08044 42560 72704 10203 20140 30016 40142 56012 83871;",
"08044099999","2010-10-01T18:00:00","4","42.4333333","-8.6166666","108.0","PONTEVEDRA, SP","FM-12","99999","V020","180,1,N,0015,1","03600,1,9,N","010000,1,N,1","+0190,1","+0143,1","10138,1","12,0000,9,1",,,,,"07,99,1,04,1,08,1,00800,1,07,1,01,1",,,,"999,M,+0214,1","99999,9,10011,1","8,1,005,1,+999,9",,"SYN082AAXX  01184 08044 12560 71803 10190 20143 30011 40138 58005 60002 84871 333 10214;","Q01  00002PRCP12"
"08044099999","2010-10-02T06:00:00","4","42.4333333","-8.6166666","108.0","PONTEVEDRA, SP","FM-12","99999","V020","160,1,N,0036,1","03600,1,9,N","010000,1,N,1","+0167,1","+0138,1","10109,1","12,0000,9,1","24,0000,9,1",,,,"07,99,1,04,1,05,1,00450,1,03,1,01,1","0054,9","01,9","999,+0150,9","999,N,+0164,1","99999,9,09981,1","6,1,009,1,+999,9","02,1","SYN112AAXX  02064 08044 11460 71607 10167 20138 39981 40109 56009 60002 702// 84531 333 20164 30015 50154 55009 70000;","Q01  00002PRCP24Q02  00002PRCP12"
"08044099999","2010-10-02T09:00:00","4","42.4333333","-8.6166666","108.0","PONTEVEDRA, SP","FM-12","99999","V020","170,1,N,0041,1","00420,1,9,N","010000,1,N,1","+0186,1","+0137,1","10106,1",,,,,,"07,99,1,07,1,02,1,00450,1,03,1,00,1",,,,,"99999,9,09979,1","5,1,002,1,+999,9",,"SYN066AAXX  02094 08044 42460 71708 10186 20137 39979 40106 55002 87230;",
"08044099999","2010-10-02T12:00:00","4","42.4333333","-8.6166666","108.0","PONTEVEDRA, SP","FM-12","99999","V020","180,1,N,0036,1","00750,1,9,N","012000,1,N,1","+0230,1","+0135,1","10102,1","06,0000,9,1",,,,,"05,99,1,05,1,02,1,00800,1,03,1,00,1",,,,,"99999,9,09977,1","8,1,002,1,+999,9",,"SYN072AAXX  02124 08044 12562 51807 10230 20135 39977 40102 58002 60001 85230;","Q01  00002PRCP06"
"08044099999","2010-10-02T15:00:00","4","42.4333333","-8.6166666","108.0","PONTEVEDRA, SP","FM-12","99999","V020","170,1,N,0051,1","01200,1,9,N","012000,1,N,1","+0206,1","+0126,1","10087,1",,,,,,"08,99,1,07,1,08,1,00800,1,07,1,99,9",,,,,"99999,9,09961,1","7,1,016,1,+999,9",,"SYN066AAXX  02154 08044 42562 81710 10206 20126 39961 40087 57016 8787/;",
"08044099999","2010-10-02T18:00:00","4","42.4333333","-8.6166666","108.0","PONTEVEDRA, SP","FM-12","99999","V020","220,1,N,0015,1","00900,1,9,N","010000,1,N,1","+0166,1","+0153,1","10081,1","12,0005,9,1",,"6,1,06,1","2,1,06,1",,"07,99,1,07,1,08,1,00450,1,07,1,01,1",,,,"999,M,+0234,1","99999,9,09954,1","8,1,007,1,+999,9","60,1","SYN088AAXX  02184 08044 11460 72203 10166 20153 39954 40081 58007 69962 76062 87871 333 10234;",
"08044099999","2010-10-03T06:00:00","4","42.4333333","-8.6166666","108.0","PONTEVEDRA, SP","FM-12","99999","V020","170,1,N,0015,1","00900,1,9,N","006000,1,N,1","+0163,1","+0158,1","09987,1","12,0429,9,1","24,0437,9,1",,,,"08,99,1,08,1,08,1,00450,1,99,9,99,9","0312,9","11,9","999,+0150,9","999,N,+0163,1","99999,9,09861,1","8,1,010,1,+999,9","60,1","SYN112AAXX  03064 08044 11456 81703 10163 20158 39861 49987 58010 60432 760// 888// 333 20163 32015 50164 55052 70438;",
"08044099999","2010-10-03T09:00:00","4","42.4333333","-8.6166666","108.0","PONTEVEDRA, SP","FM-12","99999","V020","170,1,N,0046,1","00900,1,9,N","005000,1,N,1","+0172,1","+0169,1","09950,1",,,"6,1,03,1","2,1,03,1",,"08,99,1,08,1,08,1,00450,1,99,9,99,9",,,,,"99999,9,09825,1","7,1,036,1,+999,9","63,1","SYN072AAXX  03094 08044 41450 81709 10172 20169 39825 49950 57036 76362 888//;",
"08044099999","2010-10-03T12:00:00","4","42.4333333","-8.6166666","108.0","PONTEVEDRA, SP","FM-12","99999","V020","180,1,N,0057,1","00900,1,9,N","002000,1,N,1","+0174,1","+0168,1","09907,1","06,0140,9,1",,"6,1,06,1","2,1,06,1",,"08,99,1,08,1,08,1,00450,1,99,9,99,9",,,,,"99999,9,09782,1","7,1,043,1,+999,9","62,1","SYN078AAXX  03124 08044 11420 81811 10174 20168 39782 49907 57043 60141 76262 888//;",
"08044099999","2010-10-03T15:00:00","4","42.4333333","-8.6166666","108.0","PONTEVEDRA, SP","FM-12","99999","V020","190,1,N,0041,1","00900,1,9,N","002000,1,N,1","+0162,1","+0156,1","09879,1",,,"6,1,03,1","2,1,03,1",,"08,99,1,08,1,08,1,00450,1,99,9,99,9",,,,,"99999,9,09754,1","5,1,028,1,+999,9","62,1","SYN072AAXX  03154 08044 41420 81908 10162 20156 39754 49879 55028 76262 888//;",
"08044099999","2010-10-03T18:00:00","4","42.4333333","-8.6166666","108.0","PONTEVEDRA, SP","FM-12","99999","V020","270,1,N,0087,1","00900,1,9,N","008000,1,N,1","+0160,1","+0142,1","99999,9","12,0201,9,1",,"6,1,06,1","2,1,06,1",,"07,99,1,07,1,08,1,00450,1,07,1,01,1",,,,"999,M,+0180,1",,"2,1,062,1,+999,9","21,1","SYN088AAXX  03184 08044 11458 72717 10160 20142 39816 49942 52062 60202 72162 87871 333 10180;","Q01+098163APOSP "
"08044099999","2010-10-04T06:00:00","4","42.4333333","-8.6166666","108.0","PONTEVEDRA, SP","FM-12","99999","V020","060,1,N,0010,1","22000,1,9,N","010000,1,N,1","+0120,1","+0114,1","10098,1","12,0041,9,1","24,0239,9,1",,,,"02,99,1,01,1,02,1,00800,1,03,1,01,1","0000,9","11,9","999,+0100,9","999,N,+0120,1","99999,9,09968,1","2,1,020,1,+999,9","02,1","SYN112AAXX  04064 08044 11560 20602 10120 20114 39968 40098 52020 60042 702// 81231 333 20120 32010 50044 55000 70239;",
"08044099999","2010-10-04T09:00:00","4","42.4333333","-8.6166666","108.0","PONTEVEDRA, SP","FM-12","99999","V020","999,9,C,0000,1","22000,1,9,N","010000,1,N,1","+0146,1","+0135,1","10119,1",,,,,,"02,99,1,01,1,08,1,00800,1,03,1,00,1",,,,,"99999,9,09990,1","2,1,022,1,+999,9",,"SYN066AAXX  04094 08044 42560 20000 10146 20135 39990 40119 52022 81830;",
"08044099999","2010-10-04T12:00:00","4","42.4333333","-8.6166666","108.0","PONTEVEDRA, SP","FM-12","99999","V020","270,1,N,0021,1","22000,1,9,N","010000,1,N,1","+0179,1","+0138,1","10123,1","06,0000,9,1",,,,,"03,99,1,03,1,02,1,00450,1,03,1,00,1",,,,,"99999,9,09996,1","1,1,006,1,+999,9",,"SYN072AAXX  04124 08044 12460 32704 10179 20138 39996 40123 51006 60001 83230;","Q01  00002PRCP06"
"08044099999","2010-10-04T15:00:00","4","42.4333333","-8.6166666","108.0","PONTEVEDRA, SP","FM-12","99999","V020","270,1,N,0021,1","22000,1,9,N","010000,1,N,1","+0176,1","+0129,1","10125,1",,,,,,"02,99,1,02,1,02,1,00800,1,00,1,00,1",,,,,"99999,9,09998,1","1,1,002,1,+999,9",,"SYN066AAXX  04154 08044 42560 22704 10176 20129 39998 40125 51002 82200;",
"08044099999","2010-10-04T18:00:00","4","42.4333333","-8.6166666","108.0","PONTEVEDRA, SP","FM-12","99999","V020","070,1,N,0005,1","22000,1,9,N","008000,1,N,1","+0157,1","+0123,1","10133,1","12,0000,9,1",,"0,1,06,1","0,1,06,1",,"02,99,1,01,1,01,1,00800,1,03,1,01,1",,,,"999,M,+0190,1","99999,9,10005,1","3,1,007,1,+999,9","10,1","SYN088AAXX  04184 08044 11558 20701 10157 20123 30005 40133 53007 60002 71000 81131 333 10190;","Q01  00002PRCP12"
"08044099999","2010-10-05T06:00:00","4","42.4333333","-8.6166666","108.0","PONTEVEDRA, SP","FM-12","99999","V020","160,1,N,0041,1","00210,1,9,N","006000,1,N,1","+0150,1","+0125,1","10111,1","12,0000,9,1","24,0000,9,1",,,,"07,99,1,06,1,05,1,00250,1,03,1,01,1","0540,9","01,9","999,+0110,9","999,N,+0132,1","99999,9,09983,1","8,1,009,1,+999,9","10,1","SYN112AAXX  05064 08044 11356 71608 10150 20125 39983 40111 58009 60002 710// 86531 333 20132 30011 50094 55090 70000;","Q01  00002PRCP24Q02  00002PRCP12"
"08044099999","2010-10-05T09:00:00","4","42.4333333","-8.6166666","108.0","PONTEVEDRA, SP","FM-12","99999","V020","170,1,N,0041,1","00210,1,9,N","010000,1,N,1","+0158,1","+0136,1","10107,1",,,,,,"08,99,1,07,1,05,1,00250,1,07,1,99,9",,,,,"99999,9,09979,1","7,1,004,1,+999,9",,"SYN066AAXX  05094 08044 42360 81708 10158 20136 39979 40107 57004 8757/;",
"08044099999","2010-10-05T12:00:00","4","42.4333333","-8.6166666","108.0","PONTEVEDRA, SP","FM-12","99999","V020","170,1,N,0046,1","00210,1,9,N","010000,1,N,1","+0178,1","+0145,1","10094,1","06,0000,9,1",,"5,1,06,1","2,1,06,1",,"08,99,1,06,1,05,1,00250,1,07,1,99,9",,,,,"99999,9,09967,1","7,1,012,1,+999,9","02,1","SYN078AAXX  05124 08044 11360 81709 10178 20145 39967 40094 57012 69901 70252 8657/;","Q01  00002PRCP06"
"08044099999","2010-10-05T15:00:00","4","42.4333333","-8.6166666","108.0","PONTEVEDRA, SP","FM-12","99999","V020","170,1,N,0051,1","00900,1,9,N","006000,1,N,1","+0162,1","+0152,1","10070,1",,,"6,1,03,1","2,1,03,1",,"08,99,1,07,1,08,1,00450,1,07,1,99,9",,,,,"99999,9,09943,1","7,1,024,1,+999,9","60,1","SYN072AAXX  05154 08044 41456 81710 10162 20152 39943 40070 57024 76062 8787/;",
"08044099999","2010-10-05T18:00:00","4","42.4333333","-8.6166666","108.0","PONTEVEDRA, SP","FM-12","99999","V020","170,1,N,0041,1","00900,1,9,N","002000,1,N,1","+0160,1","+0154,1","10061,1","12,0020,9,1",,"6,1,06,1","2,1,06,1",,"08,99,1,08,1,08,1,00450,1,99,9,99,9",,,,"999,M,+0180,1","99999,9,09934,1","6,1,009,1,+999,9","62,1","SYN088AAXX  05184 08044 11420 81708 10160 20154 39934 40061 56009 60022 76262 888// 333 10180;",
"08044099999","2010-10-06T06:00:00","4","42.4333333","-8.6166666","108.0","PONTEVEDRA, SP","FM-12","99999","V020","999,9,C,0000,1","00210,1,9,N","006000,1,N,1","+0138,1","+0135,1","10086,1","12,0330,9,1","24,0351,9,1",,,,"08,99,1,06,1,05,1,00250,1,07,1,99,9","0012,9","11,9","999,+0130,9","999,N,+0136,1","99999,9,09957,1","3,1,008,1,+999,9","60,1","SYN112AAXX  06064 08044 11356 80000 10138 20135 39957 40086 53008 60332 760// 8657/ 333 20136 32013 50054 55002 70350;",
"08044099999","2010-10-06T09:00:00","4","42.4333333","-8.6166666","108.0","PONTEVEDRA, SP","FM-12","99999","V020","010,1,N,0005,1","00210,1,9,N","010000,1,N,1","+0144,1","+0136,1","10106,1",,,"6,1,03,1","2,1,03,1",,"07,99,1,06,1,05,1,00250,1,07,1,01,1",,,,,"99999,9,09977,1","1,1,020,1,+999,9","02,1","SYN072AAXX  06094 08044 41360 70101 10144 20136 39977 40106 51020 70262 86571;",
"08044099999","2010-10-06T12:00:00","4","42.4333333","-8.6166666","108.0","PONTEVEDRA, SP","FM-12","99999","V020","010,1,N,0021,1","09000,1,9,N","020000,1,N,1","+0170,1","+0135,1","10111,1","06,0000,2,1",,"6,1,06,1","2,1,06,1",,"05,99,1,02,1,02,1,00450,1,05,1,02,1",,,,,"99999,9,09984,1","0,1,007,1,+999,9","02,1","SYN078AAXX  06124 08044 11470 50104 10170 20135 39984 40111 50007 69921 70262 82252;",
"08044099999","2010-10-06T15:00:00","4","42.4333333","-8.6166666","108.0","PONTEVEDRA, SP","FM-12","99999","V020","010,1,N,0015,1","03600,1,9,N","020000,1,N,1","+0190,1","+0127,1","10103,1",,,,,,"06,99,1,04,1,08,1,00450,1,05,1,02,1",,,,,"99999,9,09976,1","6,1,008,1,+999,9",,"SYN066AAXX  06154 08044 42470 60103 10190 20127 39976 40103 56008 84852;",
"08044099999","2010-10-06T18:00:00","4","42.4333333","-8.6166666","108.0","PONTEVEDRA, SP","FM-12","99999","V020","070,1,N,0010,1","03600,1,9,N","012000,1,N,1","+0174,1","+0135,1","10104,1","12,0000,2,1",,,,,"06,99,1,04,1,05,1,00450,1,05,1,00,1",,,,"999,M,+0195,1","99999,9,09977,1","0,1,001,1,+999,9",,"SYN082AAXX  06184 08044 12462 60702 10174 20135 39977 40104 50001 69922 84550 333 10195;",
"08044099999","2010-10-07T06:00:00","4","42.4333333","-8.6166666","108.0","PONTEVEDRA, SP","FM-12","99999","V020","200,1,N,0005,1","00120,1,9,N","012000,1,N,1","+0151,1","+0138,1","10083,1","12,0000,9,1","24,0003,9,1",,,,"07,99,1,06,1,06,1,00150,1,07,1,99,9","0168,9",,,"999,N,+0146,1","99999,9,09955,1","8,1,008,1,+999,9","02,1","SYN106AAXX  07064 08044 11262 72001 10151 20138 39955 40083 58008 60002 702// 8667/ 333 20146 50094 55028 70002;","Q01  00002PRCP12"
"08044099999","2010-10-07T09:00:00","4","42.4333333","-8.6166666","108.0","PONTEVEDRA, SP","FM-12","99999","V020","330,1,N,0010,1","00120,1,9,N","005000,1,N,1","+0154,1","+0148,1","10082,1",,,"6,1,03,1","2,1,03,1",,"08,99,1,06,1,07,1,00150,1,07,1,99,9",,,,,"99999,9,09954,1","6,1,001,1,+999,9","21,1","SYN072AAXX  07094 08044 41250 83302 10154 20148 39954 40082 56001 72162 8677/;",
"08044099999","2010-10-07T12:00:00","4","42.4333333","-8.6166666","108.0","PONTEVEDRA, SP","FM-12","99999","V020","180,1,N,0031,1","00600,1,9,N","008000,1,N,1","+0176,1","+0166,1","10081,1","06,0010,9,1",,"8,1,06,1","2,1,06,1",,"08,99,1,06,1,08,1,00250,1,07,1,99,9",,,,,"99999,9,09954,1","4,1,000,1,+999,9","10,1","SYN078AAXX  07124 08044 11358 81806 10176 20166 39954 40081 54000 60011 71082 8687/;",
"08044099999","2010-10-07T15:00:00","4","42.4333333","-8.6166666","108.0","PONTEVEDRA, SP","FM-12","99999","V020","170,1,N,0021,1","00600,1,9,N","009000,1,N,1","+0195,1","+0167,1","10069,1",,,"2,1,03,1","2,1,03,1",,"07,99,1,06,1,08,1,00250,1,07,1,99,9",,,,,"99999,9,09943,1","6,1,011,1,+999,9","10,1","SYN072AAXX  07154 08044 41359 71704 10195 20167 39943 40069 56011 71022 8687/;",
"08044099999","2010-10-07T18:00:00","4","42.4333333","-8.6166666","108.0","PONTEVEDRA, SP","FM-12","99999","V020","190,1,N,0010,1","00210,1,9,N","010000,1,N,1","+0185,1","+0172,1","10058,1","12,0020,9,1",,"6,1,06,1","2,1,06,1",,"08,99,1,06,1,05,1,00250,1,07,1,99,9",,,,"999,M,+0200,1","99999,9,09932,1","6,1,011,1,+999,9","60,1","SYN088AAXX  07184 08044 11360 81902 10185 20172 39932 40058 56011 60022 76062 8657/ 333 10200;",
"08044099999","2010-10-08T06:00:00","4","42.4333333","-8.6166666","108.0","PONTEVEDRA, SP","FM-12","99999","V020","160,1,N,0046,1","00600,1,9,N","012000,1,N,1","+0191,1","+0146,1","10019,1","12,0020,9,1","24,0043,9,1",,,,"07,99,1,07,1,08,1,00250,1,99,9,99,9","0072,9",,,"999,N,+0172,1","99999,9,09894,1","6,1,005,1,+999,9","02,1","SYN106AAXX  08064 08044 11362 71609 10191 20146 39894 40019 56005 60022 702// 878// 333 20172 50104 55012 70044;",
"08044099999","2010-10-08T09:00:00","4","42.4333333","-8.6166666","108.0","PONTEVEDRA, SP","FM-12","99999","V020","160,1,N,0021,1","00210,1,9,N","007000,1,N,1","+0180,1","+0165,1","10009,1",,,"6,1,03,1","2,1,03,1",,"08,99,1,06,1,05,1,00250,1,07,1,99,9",,,,,"99999,9,09883,1","8,1,011,1,+999,9","60,1","SYN072AAXX  08094 08044 41357 81604 10180 20165 39883 40009 58011 76062 8657/;",
"08044099999","2010-10-08T12:00:00","4","42.4333333","-8.6166666","108.0","PONTEVEDRA, SP","FM-12","99999","V020","150,1,N,0072,1","00600,1,9,N","003000,1,N,1","+0183,1","+0163,1","10008,1","06,0099,9,1",,"8,1,06,1","6,1,06,1",,"08,99,1,07,1,08,1,00250,1,07,1,99,9",,,,,"99999,9,09883,1","0,1,000,1,+999,9","81,1","SYN078AAXX  08124 08044 11330 81514 10183 20163 39883 40008 50000 60101 78186 8787/;",
"08044099999","2010-10-08T15:00:00","4","42.4333333","-8.6166666","108.0","PONTEVEDRA, SP","FM-12","99999","V020","170,1,N,0031,1","00600,1,9,N","008000,1,N,1","+0172,1","+0167,1","10001,1",,,"8,1,03,1","6,1,03,1",,"08,99,1,06,1,08,1,00250,1,07,1,99,9",,,,,"99999,9,09875,1","6,1,008,1,+999,9","80,1","SYN072AAXX  08154 08044 41358 81706 10172 20167 39875 40001 56008 78086 8687/;",
"08044099999","2010-10-08T18:00:00","4","42.4333333","-8.6166666","108.0","PONTEVEDRA, SP","FM-12","99999","V020","150,1,N,0046,1","00600,1,9,N","015000,1,N,1","+0162,1","+0149,1","10010,1","12,0391,9,1",,"8,1,06,1","6,1,06,1",,"07,99,1,06,1,08,1,00250,1,07,1,99,9",,,,"999,M,+0195,1","99999,9,09884,1","3,1,009,1,+999,9","25,1","SYN088AAXX  08184 08044 11365 71509 10162 20149 39884 40010 53009 60392 72586 8687/ 333 10195;",
"08044099999","2010-10-09T06:00:00","4","42.4333333","-8.6166666","108.0","PONTEVEDRA, SP","FM-12","99999","V020","050,1,N,0021,1","00210,1,9,N","015000,1,N,1","+0127,1","+0121,1","10042,1","12,0279,9,1","24,0673,9,1",,,,"08,99,1,06,1,05,1,00250,1,07,1,99,9","0012,9",,,"999,N,+0125,1","99999,9,09913,1","0,1,013,1,+999,9","21,1","SYN106AAXX  09064 08044 11365 80504 10127 20121 39913 40042 50013 60282 721// 8657/ 333 20125 50054 55002 70672;",
"08044099999","2010-10-09T09:00:00","4","42.4333333","-8.6166666","108.0","PONTEVEDRA, SP","FM-12","99999","V020","120,1,N,0010,1","22000,1,9,N","020000,1,N,1","+0151,1","+0133,1","10046,1",,,,,,"03,99,1,03,1,05,1,00250,1,00,1,00,1",,,,,"99999,9,09919,1","3,1,006,1,+999,9",,"SYN066AAXX  09094 08044 42370 31202 10151 20133 39919 40046 53006 83500;",
"08044099999","2010-10-09T12:00:00","4","42.4333333","-8.6166666","108.0","PONTEVEDRA, SP","FM-12","99999","V020","170,1,N,0026,1","22000,1,9,N","020000,1,N,1","+0186,1","+0132,1","10045,1","06,0000,2,1",,,,,"04,99,1,03,1,01,1,00250,1,00,1,02,1",,,,,"99999,9,09919,1","0,1,000,1,+999,9",,"SYN072AAXX  09124 08044 12370 41705 10186 20132 39919 40045 50000 60001 83102;",
"08044099999","2010-10-09T15:00:00","4","42.4333333","-8.6166666","108.0","PONTEVEDRA, SP","FM-12","99999","V020","180,1,N,0031,1","22000,1,9,N","020000,1,N,1","+0190,1","+0120,1","10039,1",,,,,,"04,99,1,03,1,02,1,00450,1,00,1,02,1",,,,,"99999,9,09913,1","6,1,006,1,+999,9",,"SYN066AAXX  09154 08044 42470 41806 10190 20120 39913 40039 56006 83202;",
"08044099999","2010-10-09T18:00:00","4","42.4333333","-8.6166666","108.0","PONTEVEDRA, SP","FM-12","99999","V020","160,1,N,0021,1","22000,1,9,N","020000,1,N,1","+0158,1","+0116,1","10043,1","12,0000,2,1",,,,,"04,99,1,02,1,05,1,00450,1,04,1,02,1",,,,"999,M,+0194,1","99999,9,09916,1","3,1,003,1,+999,9",,"SYN082AAXX  09184 08044 12470 41604 10158 20116 39916 40043 53003 60002 82542 333 10194;",
"08044099999","2010-10-10T06:00:00","4","42.4333333","-8.6166666","108.0","PONTEVEDRA, SP","FM-12","99999","V020","070,1,N,0015,1","22000,1,9,N","020000,1,N,1","+0119,1","+0093,1","10042,1","12,0000,9,1","24,0000,2,1",,,,"03,99,1,02,1,05,1,00450,1,00,1,01,1","0504,9",,,"999,N,+0107,1","99999,9,09913,1","6,1,002,1,+999,9","02,1","SYN106AAXX  10064 08044 11470 30703 10119 20093 39913 40042 56002 60002 702// 82501 333 20107 50134 55084 70000;","Q01  00002PRCP12"
"08044099999","2010-10-10T09:00:00","4","42.4333333","-8.6166666","108.0","PONTEVEDRA, SP","FM-12","99999","V020","300,1,N,0010,1","03600,1,9,N","020000,1,N,1","+0143,1","+0123,1","10042,1",,,,,,"05,99,1,04,1,05,1,00450,1,04,1,01,1",,,,,"99999,9,09914,1","3,1,001,1,+999,9",,"SYN066AAXX  10094 08044 42470 53002 10143 20123 39914 40042 53001 84541;",
"08044099999","2010-10-10T12:00:00","4","42.4333333","-8.6166666","108.0","PONTEVEDRA, SP","FM-12","99999","V020","140,1,N,0010,1","00420,1,9,N","020000,1,N,1","+0174,1","+0127,1","10038,1","06,0000,9,1",,,,,"05,99,1,05,1,02,1,00450,1,00,1,00,1",,,,,"99999,9,09912,1","8,1,002,1,+999,9",,"SYN072AAXX  10124 08044 12470 51402 10174 20127 39912 40038 58002 60001 85200;","Q01  00002PRCP06"
"08044099999","2010-10-10T15:00:00","4","42.4333333","-8.6166666","108.0","PONTEVEDRA, SP","FM-12","99999","V020","260,1,N,0015,1","22000,1,9,N","020000,1,N,1","+0186,1","+0139,1","10031,1",,,,,,"04,99,1,03,1,08,1,00450,1,00,1,02,1",,,,,"99999,9,09905,1","6,1,007,1,+999,9",,"SYN066AAXX  10154 08044 42470 42603 10186 20139 39905 40031 56007 83802;",
"08044099999","2010-10-10T18:00:00","4","42.4333333","-8.6166666","108.0","PONTEVEDRA, SP","FM-12","99999","V020","270,1,N,0015,1","09000,1,9,N","020000,1,N,1","+0167,1","+0136,1","10033,1","12,0000,9,1",,,,,"05,99,1,04,1,08,1,00450,1,00,1,02,1",,,,"999,M,+0191,1","99999,9,09906,1","3,1,001,1,+999,9",,"SYN082AAXX  10184 08044 12470 52703 10167 20136 39906 40033 53001 60002 84802 333 10191;","Q01  00002PRCP12"
"08044099999","2010-10-11T06:00:00","4","42.4333333","-8.6166666","108.0","PONTEVEDRA, SP","FM-12","99999","V020","090,1,N,0015,1","00750,1,9,N","020000,1,N,1","+0125,1","+0107,1","10037,1","12,0000,9,1","24,0000,9,1",,,,"07,99,1,07,1,05,1,00800,1,99,9,99,9","0264,9",,,"999,N,+0116,1","99999,9,09908,1","5,1,003,1,+999,9","02,1","SYN106AAXX  11064 08044 11570 70903 10125 20107 39908 40037 55003 60002 702// 875// 333 20116 50104 55044 70000;","Q01  00002PRCP24Q02  00002PRCP12"
"08044099999","2010-10-11T09:00:00","4","42.4333333","-8.6166666","108.0","PONTEVEDRA, SP","FM-12","99999","V020","150,1,N,0005,1","00210,1,9,N","012000,1,N,1","+0139,1","+0126,1","10039,1",,,,,,"08,99,1,08,1,05,1,00250,1,99,9,99,9",,,,,"99999,9,09911,1","1,1,003,1,+999,9",,"SYN066AAXX  11094 08044 42362 81501 10139 20126 39911 40039 51003 885//;",
"08044099999","2010-10-11T12:00:00","4","42.4333333","-8.6166666","108.0","PONTEVEDRA, SP","FM-12","99999","V020","270,1,N,0010,1","00600,1,9,N","015000,1,N,1","+0188,1","+0157,1","10035,1","06,0000,9,1",,,,,"06,99,1,06,1,08,1,00250,1,00,1,00,1",,,,,"99999,9,09909,1","6,1,002,1,+999,9",,"SYN072AAXX  11124 08044 12365 62702 10188 20157 39909 40035 56002 60001 86800;","Q01  00002PRCP06"
"08044099999","2010-10-11T15:00:00","4","42.4333333","-8.6166666","108.0","PONTEVEDRA, SP","FM-12","99999","V020","360,1,N,0041,1","22000,1,9,N","020000,1,N,1","+0228,1","+0141,1","10023,1",,,,,,"03,99,1,03,1,05,1,00450,1,00,1,00,1",,,,,"99999,9,09899,1","6,1,010,1,+999,9",,"SYN066AAXX  11154 08044 42470 33608 10228 20141 39899 40023 56010 83500;",
"08044099999","2010-10-11T18:00:00","4","42.4333333","-8.6166666","108.0","PONTEVEDRA, SP","FM-12","99999","V020","350,1,N,0026,1","22000,1,9,N","020000,1,N,1","+0201,1","+0131,1","10027,1","12,0000,9,1",,,,,"01,99,1,01,1,05,1,00450,1,00,1,00,1",,,,"999,M,+0228,1","99999,9,09902,1","3,1,003,1,+999,9",,"SYN082AAXX  11184 08044 12470 13505 10201 20131 39902 40027 53003 60002 81500 333 10228;","Q01  00002PRCP12"
"08044099999","2010-10-12T06:00:00","4","42.4333333","-8.6166666","108.0","PONTEVEDRA, SP","FM-12","99999","V020","140,1,N,0010,1","22000,1,9,N","020000,1,N,1","+0143,1","+0120,1","10050,1","12,0000,9,1","24,0000,9,1",,,"00,1,+99999,9,99,9","00,99,1,00,1,00,1,99999,9,00,1,00,1","0378,9",,,"999,N,+0141,1","99999,9,09922,1","1,1,004,1,+999,9","00,1","SYN100AAXX  12064 08044 11970 01402 10143 20120 39922 40050 51004 60002 700// 333 20141 50174 55063 70000;","Q01  00002PRCP24Q02  00002PRCP12"
"08044099999","2010-10-12T09:00:00","4","42.4333333","-8.6166666","108.0","PONTEVEDRA, SP","FM-12","99999","V020","330,1,N,0010,1","22000,1,9,N","020000,1,N,1","+0164,1","+0131,1","10059,1",,,,,"00,1,+99999,9,99,9","00,99,1,00,1,00,1,99999,9,00,1,00,1",,,,,"99999,9,09932,1","2,1,010,1,+999,9",,"SYN060AAXX  12094 08044 42970 03302 10164 20131 39932 40059 52010;",
"08044099999","2010-10-12T12:00:00","4","42.4333333","-8.6166666","108.0","PONTEVEDRA, SP","FM-12","99999","V020","260,1,N,0015,1","22000,1,9,N","020000,1,N,1","+0215,1","+0146,1","10057,1","06,0000,9,1",,,,,"01,99,1,01,1,05,1,00250,1,00,1,00,1",,,,,"99999,9,09932,1","0,1,000,1,+999,9",,"SYN072AAXX  12124 08044 12370 12603 10215 20146 39932 40057 50000 60001 81500;","Q01  00002PRCP06"
"08044099999","2010-10-12T15:00:00","4","42.4333333","-8.6166666","108.0","PONTEVEDRA, SP","FM-12","99999","V020","220,1,N,0010,1","22000,1,9,N","020000,1,N,1","+0207,1","+0150,1","10054,1",,,,,,"02,99,1,02,1,02,1,00450,1,00,1,00,1",,,,,"99999,9,09929,1","6,1,003,1,+999,9",,"SYN066AAXX  12154 08044 42470 22202 10207 20150 39929 40054 56003 82200;",
"08044099999","2010-10-12T18:00:00","4","42.4333333","-8.6166666","108.0","PONTEVEDRA, SP","FM-12","99999","V020","160,1,N,0010,1","22000,1,9,N","020000,1,N,1","+0179,1","+0142,1","10061,1","12,0000,9,1",,,,,"01,99,1,01,1,05,1,00250,1,00,1,00,1",,,,"999,M,+0225,1","99999,9,09935,1","3,1,006,1,+999,9",,"SYN082AAXX  12184 08044 12370 11602 10179 20142 39935 40061 53006 60002 81500 333 10225;","Q01  00002PRCP12"
"08044099999","2010-10-13T06:00:00","4","42.4333333","-8.6166666","108.0","PONTEVEDRA, SP","FM-12","99999","V020","070,1,N,0015,1","22000,1,9,N","020000,1,N,1","+0131,1","+0115,1","10094,1","12,0000,9,1","24,0000,9,1",,,"00,1,+99999,9,99,9","00,99,1,00,1,00,1,99999,9,00,1,00,1","0534,9",,,"999,N,+0127,1","99999,9,09965,1","3,1,007,1,+999,9","00,1","SYN100AAXX  13064 08044 11970 00703 10131 20115 39965 40094 53007 60002 700// 333 20127 50114 55089 70000;","Q01  00002PRCP24Q02  00002PRCP12"
"08044099999","2010-10-13T09:00:00","4","42.4333333","-8.6166666","108.0","PONTEVEDRA, SP","FM-12","99999","V020","310,1,N,0010,1","22000,1,9,N","020000,1,N,1","+0156,1","+0127,1","10112,1",,,,,"00,1,+99999,9,99,9","00,99,1,00,1,00,1,99999,9,00,1,00,1",,,,,"99999,9,09984,1","2,1,019,1,+999,9",,"SYN060AAXX  13094 08044 42970 03102 10156 20127 39984 40112 52019;",
"08044099999","2010-10-13T12:00:00","4","42.4333333","-8.6166666","108.0","PONTEVEDRA, SP","FM-12","99999","V020","310,1,N,0026,1","22000,1,9,N","020000,1,N,1","+0216,1","+0140,1","10112,1","06,0000,9,1",,,,,"01,99,1,01,1,01,1,00250,1,00,1,00,1",,,,,"99999,9,09987,1","1,1,003,1,+999,9",,"SYN072AAXX  13124 08044 12370 13105 10216 20140 39987 40112 51003 60001 81100;","Q01  00002PRCP06"
"08044099999","2010-10-13T15:00:00","4","42.4333333","-8.6166666","108.0","PONTEVEDRA, SP","FM-12","99999","V020","310,1,N,0036,1","22000,1,9,N","020000,1,N,1","+0223,1","+0142,1","10110,1",,,,,,"02,99,1,02,1,05,1,00450,1,00,1,00,1",,,,,"99999,9,09985,1","8,1,002,1,+999,9",,"SYN066AAXX  13154 08044 42470 23107 10223 20142 39985 40110 58002 82500;",
"08044099999","2010-10-13T18:00:00","4","42.4333333","-8.6166666","108.0","PONTEVEDRA, SP","FM-12","99999","V020","150,1,N,0010,1","22000,1,9,N","020000,1,N,1","+0191,1","+0144,1","10119,1","12,0000,9,1",,,,"00,1,+99999,9,99,9","00,99,1,00,1,00,1,99999,9,00,1,00,1",,,,"999,M,+0226,1","99999,9,09992,1","3,1,007,1,+999,9",,"SYN076AAXX  13184 08044 12970 01502 10191 20144 39992 40119 53007 60002 333 10226;","Q01  00002PRCP12"
"08044099999","2010-10-14T06:00:00","4","42.4333333","-8.6166666","108.0","PONTEVEDRA, SP","FM-12","99999","V020","140,1,N,0005,1","22000,1,9,N","012000,1,N,1","+0106,1","+0097,1","10132,1","12,0000,9,1","24,0000,9,1",,,"00,1,+99999,9,99,9","00,99,1,00,1,00,1,99999,9,00,1,00,1","0534,9",,,"999,N,+0106,1","99999,9,10001,1","5,1,000,1,+999,9","00,1","SYN100AAXX  14064 08044 11962 01401 10106 20097 30001 40132 55000 60002 700// 333 20106 50104 55089 70000;","Q01  00002PRCP24Q02  00002PRCP12"
"08044099999","2010-10-14T09:00:00","4","42.4333333","-8.6166666","108.0","PONTEVEDRA, SP","FM-12","99999","V020","300,1,N,0010,1","22000,1,9,N","015000,1,N,1","+0137,1","+0110,1","10141,1",,,,,"00,1,+99999,9,99,9","00,99,1,00,1,00,1,99999,9,00,1,00,1",,,,,"99999,9,10012,1","3,1,011,1,+999,9",,"SYN060AAXX  14094 08044 42965 03002 10137 20110 30012 40141 53011;",
"08044099999","2010-10-14T12:00:00","4","42.4333333","-8.6166666","108.0","PONTEVEDRA, SP","FM-12","99999","V020","250,1,N,0010,1","22000,1,9,N","015000,1,N,1","+0200,1","+0135,1","10139,1","06,0000,9,1",,,,,"01,99,1,01,1,05,1,00800,1,00,1,00,1",,,,,"99999,9,10012,1","0,1,000,1,+999,9",,"SYN072AAXX  14124 08044 12565 12502 10200 20135 30012 40139 50000 60001 81500;","Q01  00002PRCP06"
"08044099999","2010-10-14T15:00:00","4","42.4333333","-8.6166666","108.0","PONTEVEDRA, SP","FM-12","99999","V020","290,1,N,0026,1","22000,1,9,N","012000,1,N,1","+0207,1","+0129,1","10132,1",,,,,,"03,99,1,03,1,08,1,00800,1,00,1,00,1",,,,,"99999,9,10006,1","6,1,006,1,+999,9",,"SYN066AAXX  14154 08044 42562 32905 10207 20129 30006 40132 56006 83800;",
"08044099999","2010-10-14T18:00:00","4","42.4333333","-8.6166666","108.0","PONTEVEDRA, SP","FM-12","99999","V020","030,1,N,0010,1","22000,1,9,N","015000,1,N,1","+0185,1","+0120,1","10133,1","12,0000,9,1",,,,,"01,99,1,00,1,00,1,99999,9,00,1,01,1",,,,"999,M,+0208,1","99999,9,10006,1","4,1,000,1,+999,9",,"SYN082AAXX  14184 08044 12965 10302 10185 20120 30006 40133 54000 60002 80001 333 10208;","Q01  00002PRCP12"
"08044099999","2010-10-15T06:00:00","4","42.4333333","-8.6166666","108.0","PONTEVEDRA, SP","FM-12","99999","V020","070,1,N,0021,1","22000,1,9,N","015000,1,N,1","+0106,1","+0067,1","10139,1","12,0000,9,1","24,0000,9,1",,,"00,1,+99999,9,99,9","00,99,1,00,1,00,1,99999,9,00,1,00,1","0510,9",,,"999,N,+0105,1","99999,9,10008,1","5,1,000,1,+999,9","00,1","SYN100AAXX  15064 08044 11965 00704 10106 20067 30008 40139 55000 60002 700// 333 20105 50134 55085 70000;","Q01  00002PRCP24Q02  00002PRCP12"
"08044099999","2010-10-15T09:00:00","4","42.4333333","-8.6166666","108.0","PONTEVEDRA, SP","FM-12","99999","V020","040,1,N,0021,1","22000,1,9,N","015000,1,N,1","+0146,1","+0083,1","10144,1",,,,,"00,1,+99999,9,99,9","00,99,1,00,1,00,1,99999,9,00,1,00,1",,,,,"99999,9,10015,1","3,1,007,1,+999,9",,"SYN060AAXX  15094 08044 42965 00404 10146 20083 30015 40144 53007;",
"08044099999","2010-10-15T12:00:00","4","42.4333333","-8.6166666","108.0","PONTEVEDRA, SP","FM-12","99999","V020","230,1,N,0010,1","22000,1,9,N","015000,1,N,1","+0197,1","+0109,1","10141,1","06,0000,9,1",,,,,"01,99,1,01,1,05,1,00800,1,00,1,00,1",,,,,"99999,9,10014,1","8,1,001,1,+999,9",,"SYN072AAXX  15124 08044 12565 12302 10197 20109 30014 40141 58001 60001 81500;","Q01  00002PRCP06"
"08044099999","2010-10-15T15:00:00","4","42.4333333","-8.6166666","108.0","PONTEVEDRA, SP","FM-12","99999","V020","300,1,N,0015,1","22000,1,9,N","015000,1,N,1","+0191,1","+0112,1","10127,1",,,,,,"03,99,1,03,1,05,1,00800,1,00,1,00,1",,,,,"99999,9,10000,1","7,1,014,1,+999,9",,"SYN066AAXX  15154 08044 42565 33003 10191 20112 30000 40127 57014 83500;",
"08044099999","2010-10-15T18:00:00","4","42.4333333","-8.6166666","108.0","PONTEVEDRA, SP","FM-12","99999","V020","070,1,N,0010,1","22000,1,9,N","020000,1,N,1","+0175,1","+0097,1","10127,1","12,0000,9,1",,,,"00,1,+99999,9,99,9","00,99,1,00,1,00,1,99999,9,00,1,00,1",,,,"999,M,+0202,1","99999,9,09999,1","6,1,001,1,+999,9",,"SYN076AAXX  15184 08044 12970 00702 10175 20097 39999 40127 56001 60002 333 10202;","Q01  00002PRCP12"
"08044099999","2010-10-16T06:00:00","4","42.4333333","-8.6166666","108.0","PONTEVEDRA, SP","FM-12","99999","V020","160,1,N,0010,1","22000,1,9,N","012000,1,N,1","+0090,1","+0079,1","10138,1","12,0000,9,1","24,0000,9,1",,,"00,1,+99999,9,99,9","00,99,1,00,1,00,1,99999,9,00,1,00,1","0534,9",,,"999,N,+0090,1","99999,9,10006,1","5,1,000,1,+999,9",,"SYN094AAXX  16064 08044 12962 01602 10090 20079 30006 40138 55000 60002 333 20090 50154 55089 70000;","Q01  00002PRCP24Q02  00002PRCP12"
"08044099999","2010-10-16T09:00:00","4","42.4333333","-8.6166666","108.0","PONTEVEDRA, SP","FM-12","99999","V020","020,1,N,0010,1","22000,1,9,N","015000,1,N,1","+0152,1","+0089,1","10145,1",,,,,"00,1,+99999,9,99,9","00,99,1,00,1,00,1,99999,9,00,1,00,1",,,,,"99999,9,10016,1","2,1,010,1,+999,9",,"SYN060AAXX  16094 08044 42965 00202 10152 20089 30016 40145 52010;",
"08044099999","2010-10-16T12:00:00","4","42.4333333","-8.6166666","108.0","PONTEVEDRA, SP","FM-12","99999","V020","330,1,N,0036,1","22000,1,9,N","020000,1,N,1","+0183,1","+0080,1","10144,1","06,0000,9,1",,,,,"02,99,1,02,1,08,1,00800,1,00,1,00,1",,,,,"99999,9,10016,1","4,1,000,1,+999,9",,"SYN072AAXX  16124 08044 12570 23307 10183 20080 30016 40144 54000 60001 82800;","Q01  00002PRCP06"
"08044099999","2010-10-16T15:00:00","4","42.4333333","-8.6166666","108.0","PONTEVEDRA, SP","FM-12","99999","V020","080,1,N,0021,1","22000,1,9,N","020000,1,N,1","+0195,1","+0079,1","10138,1",,,,,,"01,99,1,01,1,05,1,00800,1,00,1,00,1",,,,,"99999,9,10011,1","6,1,005,1,+999,9",,"SYN066AAXX  16154 08044 42570 10804 10195 20079 30011 40138 56005 81500;",
"08044099999","2010-10-16T18:00:00","4","42.4333333","-8.6166666","108.0","PONTEVEDRA, SP","FM-12","99999","V020","330,1,N,0026,1","22000,1,9,N","020000,1,N,1","+0166,1","+0088,1","10143,1","12,0000,9,1",,,,"00,1,+99999,9,99,9","00,99,1,00,1,00,1,99999,9,00,1,00,1",,,,"999,M,+0195,1","99999,9,10015,1","3,1,004,1,+999,9",,"SYN076AAXX  16184 08044 12970 03305 10166 20088 30015 40143 53004 60002 333 10195;","Q01  00002PRCP12"
"08044099999","2010-10-17T06:00:00","4","42.4333333","-8.6166666","108.0","PONTEVEDRA, SP","FM-12","99999","V020","060,1,N,0015,1","22000,1,9,N","015000,1,N,1","+0115,1","+0064,1","10177,1","12,0000,9,1","24,0000,9,1",,,"00,1,+99999,9,99,9","00,99,1,00,1,00,1,99999,9,00,1,00,1","0534,9",,,"999,N,+0111,1","99999,9,10046,1","3,1,007,1,+999,9",,"SYN094AAXX  17064 08044 12965 00603 10115 20064 30046 40177 53007 60002 333 20111 50214 55089 70000;","Q01  00002PRCP24Q02  00002PRCP12"
"08044099999","2010-10-17T09:00:00","4","42.4333333","-8.6166666","108.0","PONTEVEDRA, SP","FM-12","99999","V020","020,1,N,0015,1","22000,1,9,N","020000,1,N,1","+0160,1","+0082,1","10198,1",,,,,"00,1,+99999,9,99,9","00,99,1,00,1,00,1,99999,9,00,1,00,1",,,,,"99999,9,10069,1","2,1,023,1,+999,9",,"SYN060AAXX  17094 08044 42970 00203 10160 20082 30069 40198 52023;",
"08044099999","2010-10-17T12:00:00","4","42.4333333","-8.6166666","108.0","PONTEVEDRA, SP","FM-12","99999","V020","050,1,N,0021,1","22000,1,9,N","020000,1,N,1","+0199,1","+0066,1","10199,1","06,0000,9,1",,,,,"01,99,1,01,1,05,1,00800,1,00,1,00,1",,,,,"99999,9,10071,1","1,1,002,1,+999,9",,"SYN072AAXX  17124 08044 12570 10504 10199 20066 30071 40199 51002 60001 81500;","Q01  00002PRCP06"
"08044099999","2010-10-17T15:00:00","4","42.4333333","-8.6166666","108.0","PONTEVEDRA, SP","FM-12","99999","V020","050,1,N,0031,1","22000,1,9,N","020000,1,N,1","+0193,1","+0057,1","10195,1",,,,,"00,1,+99999,9,99,9","00,99,1,00,1,00,1,99999,9,00,1,00,1",,,,,"99999,9,10067,1","6,1,004,1,+999,9",,"SYN060AAXX  17154 08044 42970 00506 10193 20057 30067 40195 56004;",
"08044099999","2010-10-17T18:00:00","4","42.4333333","-8.6166666","108.0","PONTEVEDRA, SP","FM-12","99999","V020","020,1,N,0031,1","22000,1,9,N","020000,1,N,1","+0169,1","+0078,1","10196,1","12,0000,9,1",,,,"00,1,+99999,9,99,9","00,99,1,00,1,00,1,99999,9,00,1,00,1",,,,"999,M,+0208,1","99999,9,10067,1","4,1,000,1,+999,9",,"SYN076AAXX  17184 08044 12970 00206 10169 20078 30067 40196 54000 60002 333 10208;","Q01  00002PRCP12"
"08044099999","2010-10-18T06:00:00","4","42.4333333","-8.6166666","108.0","PONTEVEDRA, SP","FM-12","99999","V020","180,1,N,0015,1","22000,1,9,N","015000,1,N,1","+0079,1","+0052,1","10217,1","12,0000,9,1","24,0000,9,1",,,"00,1,+99999,9,99,9","00,99,1,00,1,00,1,99999,9,00,1,00,1","0528,9",,,"999,N,+0079,1","99999,9,10084,1","3,1,005,1,+999,9",,"SYN094AAXX  18064 08044 12965 01803 10079 20052 30084 40217 53005 60002 333 20079 50284 55088 70000;","Q01  00002PRCP24Q02  00002PRCP12"
"08044099999","2010-10-18T09:00:00","4","42.4333333","-8.6166666","108.0","PONTEVEDRA, SP","FM-12","99999","V020","270,1,N,0010,1","22000,1,9,N","020000,1,N,1","+0122,1","+0067,1","10231,1",,,,,"00,1,+99999,9,99,9","00,99,1,00,1,00,1,99999,9,00,1,00,1",,,,,"99999,9,10100,1","2,1,016,1,+999,9",,"SYN060AAXX  18094 08044 42970 02702 10122 20067 30100 40231 52016;",
"08044099999","2010-10-18T12:00:00","4","42.4333333","-8.6166666","108.0","PONTEVEDRA, SP","FM-12","99999","V020","320,1,N,0031,1","22000,1,9,N","020000,1,N,1","+0178,1","+0078,1","10224,1","06,0000,9,1",,,,"00,1,+99999,9,99,9","00,99,1,00,1,00,1,99999,9,00,1,00,1",,,,,"99999,9,10095,1","8,1,005,1,+999,9",,"SYN066AAXX  18124 08044 12970 03206 10178 20078 30095 40224 58005 60001;","Q01  00002PRCP06"
"08044099999","2010-10-18T15:00:00","4","42.4333333","-8.6166666","108.0","PONTEVEDRA, SP","FM-12","99999","V020","280,1,N,0031,1","22000,1,9,N","020000,1,N,1","+0184,1","+0084,1","10204,1",,,,,"00,1,+99999,9,99,9","00,99,1,00,1,00,1,99999,9,00,1,00,1",,,,,"99999,9,10076,1","6,1,019,1,+999,9",,"SYN060AAXX  18154 08044 42970 02806 10184 20084 30076 40204 56019;",
"08044099999","2010-10-18T18:00:00","4","42.4333333","-8.6166666","108.0","PONTEVEDRA, SP","FM-12","99999","V020","060,1,N,0026,1","22000,1,9,N","020000,1,N,1","+0158,1","+0063,1","10205,1","12,0000,9,1",,,,"00,1,+99999,9,99,9","00,99,1,00,1,00,1,99999,9,00,1,00,1",,,,"999,M,+0190,1","99999,9,10076,1","4,1,000,1,+999,9",,"SYN076AAXX  18184 08044 12970 00605 10158 20063 30076 40205 54000 60002 333 10190;","Q01  00002PRCP12"
"08044099999","2010-10-19T06:00:00","4","42.4333333","-8.6166666","108.0","PONTEVEDRA, SP","FM-12","99999","V020","220,1,N,0010,1","22000,1,9,N","015000,1,N,1","+0083,1","+0045,1","10202,1","12,0000,9,1","24,0000,9,1",,,"00,1,+99999,9,99,9","00,99,1,00,1,00,1,99999,9,00,1,00,1","0528,9",,,"999,N,+0071,1","99999,9,10069,1","6,1,006,1,+999,9",,"SYN094AAXX  19064 08044 12965 02202 10083 20045 30069 40202 56006 60002 333 20071 50204 55088 70000;","Q01  00002PRCP24Q02  00002PRCP12"
"08044099999","2010-10-19T12:00:00","4","42.4333333","-8.6166666","108.0","PONTEVEDRA, SP","FM-12","99999","V020","260,1,N,0015,1","22000,1,9,N","020000,1,N,1","+0177,1","+0074,1","10192,1","06,0000,9,1",,,,"00,1,+99999,9,99,9","00,99,1,00,1,00,1,99999,9,00,1,00,1",,,,,"99999,9,10064,1","8,1,007,1,+999,9",,"SYN066AAXX  19124 08044 12970 02603 10177 20074 30064 40192 58007 60001;","Q01  00002PRCP06"
"08044099999","2010-10-19T15:00:00","4","42.4333333","-8.6166666","108.0","PONTEVEDRA, SP","FM-12","99999","V020","040,1,N,0010,1","22000,1,9,N","020000,1,N,1","+0176,1","+0085,1","10178,1",,,,,"00,1,+99999,9,99,9","00,99,1,00,1,00,1,99999,9,00,1,00,1",,,,,"99999,9,10050,1","7,1,014,1,+999,9",,"SYN060AAXX  19154 08044 42970 00402 10176 20085 30050 40178 57014;",
"08044099999","2010-10-19T18:00:00","4","42.4333333","-8.6166666","108.0","PONTEVEDRA, SP","FM-12","99999","V020","140,1,N,0015,1","22000,1,9,N","020000,1,N,1","+0142,1","+0079,1","10176,1","12,0000,9,1",,,,"00,1,+99999,9,99,9","00,99,1,00,1,00,1,99999,9,00,1,00,1",,,,"999,M,+0185,1","99999,9,10046,1","6,1,004,1,+999,9",,"SYN076AAXX  19184 08044 12970 01403 10142 20079 30046 40176 56004 60002 333 10185;","Q01  00002PRCP12"
"08044099999","2010-10-20T06:00:00","4","42.4333333","-8.6166666","108.0","PONTEVEDRA, SP","FM-12","99999","V020","130,1,N,0010,1","22000,1,9,N","015000,1,N,1","+0070,1","+0052,1","10172,1","12,0000,9,1","24,0000,9,1",,,"00,1,+99999,9,99,9","00,99,1,00,1,00,1,99999,9,00,1,00,1","0522,9",,,"999,N,+0070,1","99999,9,10039,1","6,1,002,1,+999,9",,"SYN094AAXX  20064 08044 12965 01302 10070 20052 30039 40172 56002 60002 333 20070 50194 55087 70000;","Q01  00002PRCP24Q02  00002PRCP12"
"08044099999","2010-10-20T09:00:00","4","42.4333333","-8.6166666","108.0","PONTEVEDRA, SP","FM-12","99999","V020","070,1,N,0010,1","22000,1,9,N","015000,1,N,1","+0117,1","+0072,1","10173,1",,,,,,"03,99,1,00,1,00,1,99999,9,00,1,01,1",,,,,"99999,9,10042,1","3,1,003,1,+999,9",,"SYN066AAXX  20094 08044 42965 30702 10117 20072 30042 40173 53003 80001;",
"08044099999","2010-10-20T12:00:00","4","42.4333333","-8.6166666","108.0","PONTEVEDRA, SP","FM-12","99999","V020","280,1,N,0010,1","22000,1,9,N","015000,1,N,1","+0184,1","+0087,1","10170,1","06,0000,9,1",,,,,"03,99,1,00,1,00,1,99999,9,00,1,01,1",,,,,"99999,9,10042,1","0,1,000,1,+999,9",,"SYN072AAXX  20124 08044 12965 32802 10184 20087 30042 40170 50000 60001 80001;","Q01  00002PRCP06"
"08044099999","2010-10-20T15:00:00","4","42.4333333","-8.6166666","108.0","PONTEVEDRA, SP","FM-12","99999","V020","280,1,N,0021,1","22000,1,9,N","015000,1,N,1","+0188,1","+0096,1","10160,1",,,,,,"04,99,1,00,1,00,1,99999,9,00,1,01,1",,,,,"99999,9,10033,1","6,1,009,1,+999,9",,"SYN066AAXX  20154 08044 42965 42804 10188 20096 30033 40160 56009 80001;",
"08044099999","2010-10-20T18:00:00","4","42.4333333","-8.6166666","108.0","PONTEVEDRA, SP","FM-12","99999","V020","130,1,N,0015,1","22000,1,9,N","015000,1,N,1","+0150,1","+0087,1","10162,1","12,0000,9,1",,,,,"03,99,1,00,1,00,1,99999,9,00,1,01,1",,,,"999,M,+0199,1","99999,9,10033,1","4,1,000,1,+999,9",,"SYN082AAXX  20184 08044 12965 31303 10150 20087 30033 40162 54000 60002 80001 333 10199;","Q01  00002PRCP12"
"08044099999","2010-10-21T06:00:00","4","42.4333333","-8.6166666","108.0","PONTEVEDRA, SP","FM-12","99999","V020","100,1,N,0015,1","22000,1,9,N","015000,1,N,1","+0097,1","+0064,1","10178,1","12,0000,9,1","24,0000,9,1",,,,"03,99,1,00,1,00,1,99999,9,00,1,01,1","0522,9",,,"999,N,+0097,1","99999,9,10046,1","4,1,000,1,+999,9","02,1","SYN106AAXX  21064 08044 11965 31003 10097 20064 30046 40178 54000 60002 702/0 80001 333 20097 50134 55087 70000;","Q01  00002PRCP24Q02  00002PRCP12"
"08044099999","2010-10-21T09:00:00","4","42.4333333","-8.6166666","108.0","PONTEVEDRA, SP","FM-12","99999","V020","070,1,N,0010,1","22000,1,9,N","020000,1,N,1","+0129,1","+0078,1","10186,1",,,,,,"03,99,1,00,1,00,1,99999,9,00,1,01,1",,,,,"99999,9,10056,1","1,1,010,1,+999,9",,"SYN066AAXX  21094 08044 42970 30702 10129 20078 30056 40186 51010 80001;",
"08044099999","2010-10-21T12:00:00","4","42.4333333","-8.6166666","108.0","PONTEVEDRA, SP","FM-12","99999","V020","140,1,N,0010,1","22000,1,9,N","015000,1,N,1","+0203,1","+0101,1","10184,1","06,0000,9,1",,,,,"03,99,1,00,1,00,1,99999,9,00,1,01,1",,,,,"99999,9,10057,1","1,1,001,1,+999,9",,"SYN072AAXX  21124 08044 12965 31402 10203 20101 30057 40184 51001 60001 80001;","Q01  00002PRCP06"
"08044099999","2010-10-21T15:00:00","4","42.4333333","-8.6166666","108.0","PONTEVEDRA, SP","FM-12","99999","V020","280,1,N,0010,1","22000,1,9,N","012000,1,N,1","+0175,1","+0094,1","10185,1",,,,,,"02,99,1,00,1,00,1,99999,9,00,1,01,1",,,,,"99999,9,10057,1","4,1,000,1,+999,9",,"SYN066AAXX  21154 08044 42962 22802 10175 20094 30057 40185 54000 80001;",
"08044099999","2010-10-21T18:00:00","4","42.4333333","-8.6166666","108.0","PONTEVEDRA, SP","FM-12","99999","V020","130,1,N,0010,1","22000,1,9,N","012000,1,N,1","+0152,1","+0116,1","10186,1","12,0000,9,1",,,,,"03,99,1,00,1,00,1,99999,9,00,1,01,1",,,,"999,M,+0210,1","99999,9,10057,1","5,1,000,1,+999,9",,"SYN082AAXX  21184 08044 12962 31302 10152 20116 30057 40186 55000 60002 80001 333 10210;","Q01  00002PRCP12"
"08044099999","2010-10-22T06:00:00","4","42.4333333","-8.6166666","108.0","PONTEVEDRA, SP","FM-12","99999","V020","140,1,N,0015,1","22000,1,9,N","012000,1,N,1","+0097,1","+0047,1","10195,1","12,0000,9,1","24,0000,9,1",,,,"04,99,1,00,1,00,1,99999,9,00,1,01,1","0522,9",,,"999,N,+0090,1","99999,9,10063,1","6,1,004,1,+999,9","02,1","SYN106AAXX  22064 08044 11962 41403 10097 20047 30063 40195 56004 60002 702/0 80001 333 20090 50174 55087 70000;","Q01  00002PRCP24Q02  00002PRCP12"
"08044099999","2010-10-22T09:00:00","4","42.4333333","-8.6166666","108.0","PONTEVEDRA, SP","FM-12","99999","V020","080,1,N,0005,1","22000,1,9,N","012000,1,N,1","+0130,1","+0077,1","10199,1",,,,,,"07,99,1,04,1,05,1,00800,1,00,1,01,1",,,,,"99999,9,10068,1","2,1,005,1,+999,9",,"SYN066AAXX  22094 08044 42562 70801 10130 20077 30068 40199 52005 84501;",
"08044099999","2010-10-22T12:00:00","4","42.4333333","-8.6166666","108.0","PONTEVEDRA, SP","FM-12","99999","V020","220,1,N,0010,1","00750,1,9,N","012000,1,N,1","+0178,1","+0114,1","10199,1","06,0000,9,1",,,,,"07,99,1,06,1,05,1,00800,1,00,1,01,1",,,,,"99999,9,10071,1","1,1,003,1,+999,9",,"SYN072AAXX  22124 08044 12562 72202 10178 20114 30071 40199 51003 60001 86501;","Q01  00002PRCP06"
"08044099999","2010-10-22T15:00:00","4","42.4333333","-8.6166666","108.0","PONTEVEDRA, SP","FM-12","99999","V020","210,1,N,0010,1","01200,1,9,N","012000,1,N,1","+0186,1","+0120,1","10190,1",,,,,,"08,99,1,08,1,08,1,00800,1,99,9,99,9",,,,,"99999,9,10062,1","7,1,009,1,+999,9",,"SYN066AAXX  22154 08044 42562 82102 10186 20120 30062 40190 57009 888//;",
"08044099999","2010-10-22T18:00:00","4","42.4333333","-8.6166666","108.0","PONTEVEDRA, SP","FM-12","99999","V020","310,1,N,0015,1","00750,1,9,N","012000,1,N,1","+0155,1","+0123,1","10191,1","12,0000,9,1",,,,,"07,99,1,06,1,05,1,00800,1,00,1,01,1",,,,"999,M,+0190,1","99999,9,10062,1","4,1,000,1,+999,9",,"SYN082AAXX  22184 08044 12562 73103 10155 20123 30062 40191 54000 60002 86501 333 10190;","Q01  00002PRCP12"
"08044099999","2010-10-23T06:00:00","4","42.4333333","-8.6166666","108.0","PONTEVEDRA, SP","FM-12","99999","V020","070,1,N,0021,1","22000,1,9,N","012000,1,N,1","+0106,1","+0091,1","10198,1","12,0000,9,1","24,0000,9,1",,,"00,1,+99999,9,99,9","00,99,1,00,1,00,1,99999,9,00,1,00,1","0084,9",,,"999,N,+0103,1","99999,9,10067,1","2,1,002,1,+999,9","00,1","SYN100AAXX  23064 08044 11962 00704 10106 20091 30067 40198 52002 60002 700// 333 20103 50154 55014 70000;","Q01  00002PRCP24Q02  00002PRCP12"
"08044099999","2010-10-23T09:00:00","4","42.4333333","-8.6166666","108.0","PONTEVEDRA, SP","FM-12","99999","V020","070,1,N,0021,1","99999,9,9,N","015000,1,N,1","+0131,1","+0092,1","10206,1",,,,,,"05,99,1,00,1,00,1,99999,9,00,1,01,1",,,,,"99999,9,10076,1","3,1,009,1,+999,9",,"SYN066AAXX  23094 08044 42965 50704 10131 20092 30076 40206 53009 80001;",
"08044099999","2010-10-23T12:00:00","4","42.4333333","-8.6166666","108.0","PONTEVEDRA, SP","FM-12","99999","V020","290,1,N,0036,1","22000,1,9,N","015000,1,N,1","+0170,1","+0105,1","10206,1","06,0000,9,1",,,,,"05,99,1,02,1,08,1,00800,1,00,1,01,1",,,,,"99999,9,10078,1","1,1,002,1,+999,9",,"SYN072AAXX  23124 08044 12565 52907 10170 20105 30078 40206 51002 60001 82801;","Q01  00002PRCP06"
"08044099999","2010-10-23T15:00:00","4","42.4333333","-8.6166666","108.0","PONTEVEDRA, SP","FM-12","99999","V020","290,1,N,0036,1","03600,1,9,N","015000,1,N,1","+0170,1","+0105,1","10199,1",,,,,,"07,99,1,04,1,05,1,00450,1,05,1,02,1",,,,,"99999,9,10071,1","6,1,007,1,+999,9",,"SYN066AAXX  23154 08044 42465 72907 10170 20105 30071 40199 56007 84552;",
"08044099999","2010-10-23T18:00:00","4","42.4333333","-8.6166666","108.0","PONTEVEDRA, SP","FM-12","99999","V020","270,1,N,0010,1","00750,1,9,N","015000,1,N,1","+0158,1","+0119,1","10197,1","12,0000,9,1",,,,,"08,99,1,08,1,05,1,00800,1,99,9,99,9",,,,"999,M,+0175,1","99999,9,10068,1","6,1,003,1,+999,9",,"SYN082AAXX  23184 08044 12565 82702 10158 20119 30068 40197 56003 60002 885// 333 10175;","Q01  00002PRCP12"
"08044099999","2010-10-24T06:00:00","4","42.4333333","-8.6166666","108.0","PONTEVEDRA, SP","FM-12","99999","V020","360,1,N,0005,1","01200,1,9,N","012000,1,N,1","+0136,1","+0132,1","10197,1","12,0000,9,1","24,0000,9,1",,,,"07,99,1,07,1,08,1,00800,1,99,9,99,9","0384,9",,,"999,N,+0135,1","99999,9,10067,1","4,1,000,1,+999,9","02,1","SYN106AAXX  24064 08044 11562 73601 10136 20132 30067 40197 54000 60002 702// 878// 333 20135 50124 55064 70000;","Q01  00002PRCP24Q02  00002PRCP12"
"08044099999","2010-10-24T09:00:00","4","42.4333333","-8.6166666","108.0","PONTEVEDRA, SP","FM-12","99999","V020","180,1,N,0015,1","00900,1,9,N","012000,1,N,1","+0152,1","+0147,1","10198,1",,,,,,"08,99,1,08,1,08,1,00450,1,99,9,99,9",,,,,"99999,9,10069,1","3,1,002,1,+999,9",,"SYN066AAXX  24094 08044 42462 81803 10152 20147 30069 40198 53002 888//;",
"08044099999","2010-10-24T12:00:00","4","42.4333333","-8.6166666","108.0","PONTEVEDRA, SP","FM-12","99999","V020","180,1,N,0015,1","00600,1,9,N","003000,1,N,1","+0155,1","+0151,1","10198,1","06,0010,9,1",,"6,1,06,1","5,1,06,1",,"08,99,1,08,1,08,1,00250,1,99,9,99,9",,,,,"99999,9,10069,1","0,1,000,1,+999,9","62,1","SYN078AAXX  24124 08044 11330 81803 10155 20151 30069 40198 50000 60011 76265 888//;",
"08044099999","2010-10-24T15:00:00","4","42.4333333","-8.6166666","108.0","PONTEVEDRA, SP","FM-12","99999","V020","210,1,N,0015,1","00600,1,9,N","005000,1,N,1","+0166,1","+0164,1","10182,1",,,"6,1,03,1","6,1,03,1",,"08,99,1,08,1,08,1,00250,1,99,9,99,9",,,,,"99999,9,10054,1","7,1,015,1,+999,9","61,1","SYN072AAXX  24154 08044 41350 82103 10166 20164 30054 40182 57015 76166 888//;",
"08044099999","2010-10-24T18:00:00","4","42.4333333","-8.6166666","108.0","PONTEVEDRA, SP","FM-12","99999","V020","300,1,N,0021,1","00900,1,9,N","012000,1,N,1","+0164,1","+0161,1","10184,1","12,0071,9,1",,"6,1,06,1","6,1,06,1",,"05,99,1,05,1,08,1,00450,1,00,1,00,1",,,,"999,M,+0173,1","99999,9,10056,1","3,1,002,1,+999,9","02,1","SYN088AAXX  24184 08044 11462 53004 10164 20161 30056 40184 53002 60072 70266 85800 333 10173;",
"08044099999","2010-10-25T06:00:00","4","42.4333333","-8.6166666","108.0","PONTEVEDRA, SP","FM-12","99999","V020","050,1,N,0021,1","22000,1,9,N","015000,1,N,1","+0125,1","+0099,1","10202,1","12,0000,9,1","24,0066,9,1",,,,"04,99,1,00,1,00,1,99999,9,00,1,02,1","0000,9",,,"999,N,+0125,1","99999,9,10069,1","3,1,004,1,+999,9","02,1","SYN106AAXX  25064 08044 11965 40504 10125 20099 30069 40202 53004 60002 702// 80002 333 20125 50054 55000 70065;","Q01  00002PRCP12"
"08044099999","2010-10-25T09:00:00","4","42.4333333","-8.6166666","108.0","PONTEVEDRA, SP","FM-12","99999","V020","030,1,N,0021,1","22000,1,9,N","020000,1,N,1","+0132,1","+0085,1","10214,1",,,,,,"04,99,1,04,1,00,1,01750,1,05,1,02,1",,,,,"99999,9,10083,1","1,1,014,1,+999,9",,"SYN066AAXX  25094 08044 42770 40304 10132 20085 30083 40214 51014 84052;",
"08044099999","2010-10-25T12:00:00","4","42.4333333","-8.6166666","108.0","PONTEVEDRA, SP","FM-12","99999","V020","020,1,N,0015,1","22000,1,9,N","020000,1,N,1","+0180,1","+0104,1","10218,1","06,0000,9,1",,,,,"03,99,1,00,1,00,1,99999,9,00,1,01,1",,,,,"99999,9,10089,1","1,1,006,1,+999,9",,"SYN072AAXX  25124 08044 12970 30203 10180 20104 30089 40218 51006 60001 80001;","Q01  00002PRCP06"
"08044099999","2010-10-25T15:00:00","4","42.4333333","-8.6166666","108.0","PONTEVEDRA, SP","FM-12","99999","V020","010,1,N,0021,1","22000,1,9,N","020000,1,N,1","+0190,1","+0098,1","10213,1",,,,,,"02,99,1,01,1,00,1,01750,1,04,1,02,1",,,,,"99999,9,10085,1","6,1,004,1,+999,9",,"SYN066AAXX  25154 08044 42770 20104 10190 20098 30085 40213 56004 81042;",
"08044099999","2010-10-25T18:00:00","4","42.4333333","-8.6166666","108.0","PONTEVEDRA, SP","FM-12","99999","V020","340,1,N,0015,1","22000,1,9,N","020000,1,N,1","+0158,1","+0081,1","10227,1","12,0000,9,1",,,,,"02,99,1,02,1,00,1,01750,1,04,1,02,1",,,,"999,M,+0191,1","99999,9,10097,1","3,1,012,1,+999,9",,"SYN082AAXX  25184 08044 12770 23403 10158 20081 30097 40227 53012 60002 82042 333 10191;","Q01  00002PRCP12"
"08044099999","2010-10-26T06:00:00","4","42.4333333","-8.6166666","108.0","PONTEVEDRA, SP","FM-12","99999","V020","110,1,N,0026,1","22000,1,9,N","015000,1,N,1","+0097,1","+0062,1","10250,1","12,0000,9,1","24,0000,9,1",,,,"02,99,1,00,1,00,1,99999,9,00,1,01,1","0450,9",,,"999,N,+0097,1","99999,9,10117,1","4,1,000,1,+999,9","02,1","SYN106AAXX  26064 08044 11965 21105 10097 20062 30117 40250 54000 60002 702// 80001 333 20097 50104 55075 70000;","Q01  00002PRCP24Q02  00002PRCP12"
"08044099999","2010-10-26T09:00:00","4","42.4333333","-8.6166666","108.0","PONTEVEDRA, SP","FM-12","99999","V020","050,1,N,0021,1","22000,1,9,N","020000,1,N,1","+0131,1","+0060,1","10262,1",,,,,,"03,99,1,00,1,00,1,99999,9,00,1,01,1",,,,,"99999,9,10131,1","2,1,014,1,+999,9",,"SYN066AAXX  26094 08044 42970 30504 10131 20060 30131 40262 52014 80001;",
"08044099999","2010-10-26T12:00:00","4","42.4333333","-8.6166666","108.0","PONTEVEDRA, SP","FM-12","99999","V020","180,1,N,0010,1","22000,1,9,N","020000,1,N,1","+0183,1","+0052,1","10262,1","06,0000,9,1",,,,,"03,99,1,00,1,00,1,99999,9,00,1,01,1",,,,,"99999,9,10133,1","1,1,002,1,+999,9",,"SYN072AAXX  26124 08044 12970 31802 10183 20052 30133 40262 51002 60001 80001;","Q01  00002PRCP06"
"08044099999","2010-10-26T15:00:00","4","42.4333333","-8.6166666","108.0","PONTEVEDRA, SP","FM-12","99999","V020","280,1,N,0015,1","22000,1,9,N","020000,1,N,1","+0169,1","+0086,1","10261,1",,,,,,"04,99,1,00,1,00,1,99999,9,00,1,01,1",,,,,"99999,9,10131,1","8,1,002,1,+999,9",,"SYN066AAXX  26154 08044 42970 42803 10169 20086 30131 40261 58002 80001;",
"08044099999","2010-10-26T18:00:00","4","42.4333333","-8.6166666","108.0","PONTEVEDRA, SP","FM-12","99999","V020","270,1,N,0005,1","09000,1,9,N","015000,1,N,1","+0142,1","+0086,1","10262,1","12,0000,9,1",,,,,"08,99,1,04,1,00,1,01750,1,04,1,04,1",,,,"999,M,+0190,1","99999,9,10131,1","4,1,000,1,+999,9",,"SYN082AAXX  26184 08044 12765 82701 10142 20086 30131 40262 54000 60002 84044 333 10190;","Q01  00002PRCP12"
"08044099999","2010-10-27T06:00:00","4","42.4333333","-8.6166666","108.0","PONTEVEDRA, SP","FM-12","99999","V020","080,1,N,0021,1","22000,1,9,N","015000,1,N,1","+0090,1","+0044,1","10264,1","12,0000,9,1","24,0000,9,1",,,"00,1,+99999,9,99,9","00,99,1,00,1,00,1,99999,9,00,1,00,1","0504,9",,,"999,N,+0085,1","99999,9,10131,1","6,1,002,1,+999,9","02,1","SYN100AAXX  27064 08044 11965 00804 10090 20044 30131 40264 56002 60002 702// 333 20085 50304 55084 70000;","Q01  00002PRCP24Q02  00002PRCP12"
"08044099999","2010-10-27T09:00:00","4","42.4333333","-8.6166666","108.0","PONTEVEDRA, SP","FM-12","99999","V020","040,1,N,0021,1","22000,1,9,N","020000,1,N,1","+0122,1","+0060,1","10263,1",,,,,,"03,99,1,00,1,00,1,99999,9,00,1,01,1",,,,,"99999,9,10131,1","4,1,000,1,+999,9",,"SYN066AAXX  27094 08044 42970 30404 10122 20060 30131 40263 54000 80001;",
"08044099999","2010-10-27T12:00:00","4","42.4333333","-8.6166666","108.0","PONTEVEDRA, SP","FM-12","99999","V020","250,1,N,0010,1","99999,9,9,N","015000,1,N,1","+0177,1","+0086,1","10256,1","06,0000,9,1",,,,,"06,99,1,00,1,00,1,99999,9,00,1,04,1",,,,,"99999,9,10127,1","8,1,004,1,+999,9",,"SYN072AAXX  27124 08044 12965 62502 10177 20086 30127 40256 58004 60001 80004;","Q01  00002PRCP06"
"08044099999","2010-10-27T15:00:00","4","42.4333333","-8.6166666","108.0","PONTEVEDRA, SP","FM-12","99999","V020","250,1,N,0010,1","01500,1,9,N","015000,1,N,1","+0168,1","+0121,1","10253,1",,,,,,"07,99,1,07,1,00,1,01750,1,07,1,99,9",,,,,"99999,9,10124,1","5,1,003,1,+999,9",,"SYN066AAXX  27154 08044 42765 72502 10168 20121 30124 40253 55003 8707/;",
"08044099999","2010-10-27T18:00:00","4","42.4333333","-8.6166666","108.0","PONTEVEDRA, SP","FM-12","99999","V020","100,1,N,0010,1","01500,1,9,N","010000,1,N,1","+0150,1","+0127,1","10251,1","12,0000,9,1",,,,,"07,99,1,07,1,00,1,01750,1,07,1,99,9",,,,"999,M,+0178,1","99999,9,10121,1","6,1,003,1,+999,9",,"SYN082AAXX  27184 08044 12760 71002 10150 20127 30121 40251 56003 60002 8707/ 333 10178;","Q01  00002PRCP12"
"08044099999","2010-10-28T06:00:00","4","42.4333333","-8.6166666","108.0","PONTEVEDRA, SP","FM-12","99999","V020","060,1,N,0021,1","22000,1,9,N","015000,1,N,1","+0104,1","+0080,1","10224,1","12,0000,9,1","24,0000,9,1",,,"00,1,+99999,9,99,9","00,99,1,00,1,00,1,99999,9,00,1,00,1","0264,9",,,"999,N,+0100,1","99999,9,10092,1","6,1,006,1,+999,9","00,1","SYN100AAXX  28064 08044 11965 00604 10104 20080 30092 40224 56006 60002 700// 333 20100 50194 55044 70000;","Q01  00002PRCP24Q02  00002PRCP12"
"08044099999","2010-10-28T09:00:00","4","42.4333333","-8.6166666","108.0","PONTEVEDRA, SP","FM-12","99999","V020","100,1,N,0021,1","22000,1,9,N","020000,1,N,1","+0137,1","+0087,1","10218,1",,,,,"00,1,+99999,9,99,9","00,99,1,00,1,00,1,99999,9,00,1,00,1",,,,,"99999,9,10088,1","8,1,004,1,+999,9",,"SYN060AAXX  28094 08044 42970 01004 10137 20087 30088 40218 58004;",
"08044099999","2010-10-28T12:00:00","4","42.4333333","-8.6166666","108.0","PONTEVEDRA, SP","FM-12","99999","V020","170,1,N,0010,1","22000,1,9,N","020000,1,N,1","+0188,1","+0119,1","10200,1","06,0000,9,1",,,,,"02,99,1,00,1,00,1,99999,9,00,1,09,1",,,,,"99999,9,10072,1","8,1,016,1,+999,9",,"SYN072AAXX  28124 08044 12970 21702 10188 20119 30072 40200 58016 60001 80009;","Q01  00002PRCP06"
"08044099999","2010-10-28T15:00:00","4","42.4333333","-8.6166666","108.0","PONTEVEDRA, SP","FM-12","99999","V020","270,1,N,0015,1","22000,1,9,N","015000,1,N,1","+0174,1","+0135,1","10180,1",,,,,,"03,99,1,01,1,00,1,01750,1,03,1,02,1",,,,,"99999,9,10052,1","6,1,020,1,+999,9",,"SYN066AAXX  28154 08044 42765 32703 10174 20135 30052 40180 56020 81032;",
"08044099999","2010-10-28T18:00:00","4","42.4333333","-8.6166666","108.0","PONTEVEDRA, SP","FM-12","99999","V020","240,1,N,0010,1","09000,1,9,N","010000,1,N,1","+0150,1","+0125,1","10162,1","12,0000,9,1",,,,,"05,99,1,03,1,00,1,01750,1,04,1,02,1",,,,"999,M,+0198,1","99999,9,10033,1","5,1,019,1,+999,9",,"SYN082AAXX  28184 08044 12760 52402 10150 20125 30033 40162 55019 60002 83042 333 10198;","Q01  00002PRCP12"
"08044099999","2010-10-29T06:00:00","4","42.4333333","-8.6166666","108.0","PONTEVEDRA, SP","FM-12","99999","V020","160,1,N,0057,1","00600,1,9,N","008000,1,N,1","+0148,1","+0142,1","10046,1","12,0010,9,1","24,0013,9,1",,,,"07,99,1,07,1,08,1,00250,1,99,9,99,9","0492,9",,,"999,N,+0130,1","99999,9,09918,1","7,1,030,1,+999,9","80,1","SYN106AAXX  29064 08044 11358 71611 10148 20142 39918 40046 57030 60012 780// 878// 333 20130 50234 55082 70013;",
"08044099999","2010-10-29T09:00:00","4","42.4333333","-8.6166666","108.0","PONTEVEDRA, SP","FM-12","99999","V020","180,1,N,0026,1","00120,1,9,N","003000,1,N,1","+0148,1","+0142,1","10045,1",,,"6,1,03,1","6,1,03,1",,"08,99,1,06,1,07,1,00150,1,02,1,99,9",,,,,"99999,9,09917,1","5,1,001,1,+999,9","63,1","SYN072AAXX  29094 08044 41230 81805 10148 20142 39917 40045 55001 76366 8672/;",
"08044099999","2010-10-29T12:00:00","4","42.4333333","-8.6166666","108.0","PONTEVEDRA, SP","FM-12","99999","V020","180,1,N,0026,1","00120,1,9,N","003000,1,N,1","+0132,1","+0124,1","10056,1","06,0249,9,1",,"6,1,06,1","6,1,06,1",,"08,99,1,06,1,07,1,00150,1,02,1,99,9",,,,,"99999,9,09928,1","3,1,011,1,+999,9","63,1","SYN078AAXX  29124 08044 11230 81805 10132 20124 39928 40056 53011 60251 76366 8672/;",
"08044099999","2010-10-29T15:00:00","4","42.4333333","-8.6166666","108.0","PONTEVEDRA, SP","FM-12","99999","V020","280,1,N,0026,1","03600,1,9,N","020000,1,N,1","+0148,1","+0127,1","10061,1",,,"6,1,03,1","2,1,03,1",,"06,99,1,04,1,02,1,00450,1,04,1,02,1",,,,,"99999,9,09933,1","3,1,005,1,+999,9","02,1","SYN072AAXX  29154 08044 41470 62805 10148 20127 39933 40061 53005 70262 84242;",
"08044099999","2010-10-29T18:00:00","4","42.4333333","-8.6166666","108.0","PONTEVEDRA, SP","FM-12","99999","V020","270,1,N,0021,1","03600,1,9,N","008000,1,N,1","+0120,1","+0109,1","10091,1","12,0409,9,1",,"8,1,06,1","2,1,06,1","03,1,+00300,1,09,1","05,99,1,04,1,03,1,00450,1,04,1,00,1",,,,"120,M,+0152,1","99999,9,09961,1","1,1,028,1,+999,9","80,1","SYN094AAXX  29184 08044 11458 52704 10120 20109 39961 40091 51028 60412 78082 84340 333 10152 83910;",
"08044099999","2010-10-30T06:00:00","4","42.4333333","-8.6166666","108.0","PONTEVEDRA, SP","FM-12","99999","V020","160,1,N,0051,1","00120,1,9,N","005000,1,N,1","+0106,1","+0098,1","10039,1","12,0089,9,1","24,0503,9,1",,,,"08,99,1,08,1,07,1,00150,1,99,9,99,9","0030,9",,,"999,N,+0098,1","99999,9,09909,1","7,1,027,1,+999,9","62,1","SYN106AAXX  30064 08044 11250 81610 10106 20098 39909 40039 57027 60092 762// 887// 333 20098 50054 55005 70504;",
"08044099999","2010-10-30T09:00:00","4","42.4333333","-8.6166666","108.0","PONTEVEDRA, SP","FM-12","99999","V020","170,1,N,0036,1","00210,1,C,N","008000,1,N,1","+0124,1","+0116,1","10003,1",,,"6,1,03,1","4,1,03,1","04,1,+00300,1,09,1","06,99,1,05,1,03,1,00250,1,04,1,02,1",,,,,"99999,9,09875,1","5,1,034,1,+999,9","21,1","SYN082AAXX  30094 08044 41358 61707 10124 20116 39875 40003 55034 72164 85342 333 84910;",
"08044099999","2010-10-30T12:00:00","4","42.4333333","-8.6166666","108.0","PONTEVEDRA, SP","FM-12","99999","V020","140,1,N,0015,1","00210,1,C,N","002000,1,N,1","+0154,1","+0122,1","09994,1","06,0079,9,1",,"8,1,06,1","6,1,06,1","04,1,+00300,1,09,1","07,99,1,05,1,03,1,00250,1,07,1,99,9",,,,,"99999,9,09867,1","8,1,008,1,+999,9","80,1","SYN088AAXX  30124 08044 11320 71403 10154 20122 39867 49994 58008 60081 78086 8537/ 333 84910;",
"08044099999","2010-10-30T15:00:00","4","42.4333333","-8.6166666","108.0","PONTEVEDRA, SP","FM-12","99999","V020","160,1,N,0010,1","00210,1,C,N","005000,1,N,1","+0132,1","+0124,1","09972,1",,,"8,1,03,1","2,1,03,1","04,1,+00300,1,09,1","07,99,1,05,1,03,1,00250,1,07,1,99,9",,,,,"99999,9,09845,1","8,1,022,1,+999,9","25,1","SYN082AAXX  30154 08044 41350 71602 10132 20124 39845 49972 58022 72582 8537/ 333 84910;",
"08044099999","2010-10-30T18:00:00","4","42.4333333","-8.6166666","108.0","PONTEVEDRA, SP","FM-12","99999","V020","170,1,N,0021,1","00210,1,C,N","005000,1,N,1","+0130,1","+0124,1","09955,1","12,0269,9,1",,"8,1,06,1","2,1,06,1","04,1,+00300,1,09,1","06,99,1,05,1,03,1,00250,1,07,1,99,9",,,,"120,M,+0160,1","99999,9,09828,1","8,1,017,1,+999,9","25,1","SYN094AAXX  30184 08044 11350 61704 10130 20124 39828 49955 58017 60272 72582 8537/ 333 10160 84910;",
"08044099999","2010-10-31T06:00:00","4","42.4333333","-8.6166666","108.0","PONTEVEDRA, SP","FM-12","99999","V020","110,1,N,0021,1","00420,1,9,N","005000,1,N,1","+0108,1","+0100,1","09974,1","12,0231,9,1","24,0503,9,1",,,,"06,99,1,05,1,02,1,00450,1,04,1,00,1","0036,9",,,"999,N,+0095,1","99999,9,09845,1","2,1,030,1,+999,9","25,1","SYN106AAXX  31064 08044 11450 61104 10108 20100 39845 49974 52030 60232 725// 85240 333 20095 50024 55006 70502;",
"08044099999","2010-10-31T09:00:00","4","42.4333333","-8.6166666","108.0","PONTEVEDRA, SP","FM-12","99999","V020","110,1,N,0010,1","00420,1,C,N","010000,1,N,1","+0110,1","+0095,1","10014,1",,,"8,1,03,1","2,1,03,1","04,1,+00300,1,09,1","06,99,1,05,1,03,1,00450,1,04,1,00,1",,,,,"99999,9,09885,1","2,1,040,1,+999,9","25,1","SYN082AAXX  31094 08044 41460 61102 10110 20095 39885 40014 52040 72582 85340 333 84910;",
"08044099999","2010-10-31T12:00:00","4","42.4333333","-8.6166666","108.0","PONTEVEDRA, SP","FM-12","99999","V020","310,1,N,0072,1","03600,1,9,N","010000,1,N,1","+0142,1","+0108,1","10044,1","06,0079,9,1",,"8,1,06,1","2,1,06,1","03,1,+00300,1,09,1","05,99,1,04,1,03,1,00450,1,04,1,00,1",,,,,"99999,9,09916,1","2,1,031,1,+999,9","25,1","SYN088AAXX  31124 08044 11460 53114 10142 20108 39916 40044 52031 60081 72582 84340 333 83910;",
"08044099999","2010-10-31T15:00:00","4","42.4333333","-8.6166666","108.0","PONTEVEDRA, SP","FM-12","99999","V020","290,1,N,0067,1","00210,1,9,N","008000,1,N,1","+0135,1","+0110,1","10080,1",,,"8,1,03,1","2,1,03,1",,"07,99,1,07,1,02,1,00250,1,99,9,99,9",,,,,"99999,9,09951,1","2,1,035,1,+999,9","80,1","SYN072AAXX  31154 08044 41358 72913 10135 20110 39951 40080 52035 78082 872//;",
"08044099999","2010-10-31T18:00:00","4","42.4333333","-8.6166666","108.0","PONTEVEDRA, SP","FM-12","99999","V020","300,1,N,0057,1","00420,1,9,N","010000,1,N,1","+0126,1","+0091,1","10112,1","12,0089,9,1",,"8,1,06,1","2,1,06,1",,"06,99,1,05,1,02,1,00450,1,04,1,00,1",,,,"999,M,+0144,1","99999,9,09982,1","2,1,031,1,+999,9","25,1","SYN088AAXX  31184 08044 11460 63011 10126 20091 39982 40112 52031 60092 72582 85240 333 10144;",
"08044099999","2010-11-01T06:00:00","4","42.4333333","-8.6166666","108.0","PONTEVEDRA, SP","FM-12","99999","V020","999,9,C,0000,1","00420,1,9,N","012000,1,N,1","+0112,1","+0096,1","10200,1","12,0005,9,1","24,0099,9,1",,,,"06,99,1,05,1,02,1,00450,1,05,1,00,1","0066,9",,,"999,N,+0105,1","99999,9,10069,1","3,1,020,1,+999,9","02,1","SYN106AAXX  01064 08044 11462 60000 10112 20096 30069 40200 53020 69952 702// 85250 333 20105 50104 55011 70099;",
"08044099999","2010-11-01T09:00:00","4","42.4333333","-8.6166666","108.0","PONTEVEDRA, SP","FM-12","99999","V020","200,1,N,0010,1","03600,1,9,N","020000,1,N,1","+0128,1","+0110,1","10221,1",,,,,,"05,99,1,03,1,05,1,00450,1,05,1,02,1",,,,,"99999,9,10090,1","1,1,021,1,+999,9",,"SYN066AAXX  01094 08044 42470 52002 10128 20110 30090 40221 51021 83552;",
"08044099999","2010-11-01T12:00:00","4","42.4333333","-8.6166666","108.0","PONTEVEDRA, SP","FM-12","99999","V020","340,1,N,0026,1","00900,1,9,N","020000,1,N,1","+0150,1","+0108,1","10225,1","06,0000,9,1",,,,,"07,99,1,07,1,08,1,00450,1,99,9,99,9",,,,,"99999,9,10095,1","0,1,005,1,+999,9",,"SYN072AAXX  01124 08044 12470 73405 10150 20108 30095 40225 50005 60001 878//;","Q01  00002PRCP06"
"08044099999","2010-11-01T15:00:00","4","42.4333333","-8.6166666","108.0","PONTEVEDRA, SP","FM-12","99999","V020","340,1,N,0021,1","00900,1,9,N","020000,1,N,1","+0154,1","+0110,1","10227,1",,,,,,"06,99,1,06,1,08,1,00450,1,00,1,00,1",,,,,"99999,9,10097,1","3,1,002,1,+999,9",,"SYN066AAXX  01154 08044 42470 63404 10154 20110 30097 40227 53002 86800;",
"08044099999","2010-11-01T18:00:00","4","42.4333333","-8.6166666","108.0","PONTEVEDRA, SP","FM-12","99999","V020","090,1,N,0015,1","22000,1,9,N","015000,1,N,1","+0136,1","+0104,1","10237,1","12,0000,9,1",,,,,"03,99,1,01,1,05,1,00800,1,05,1,02,1",,,,"999,M,+0156,1","99999,9,10106,1","1,1,009,1,+999,9",,"SYN082AAXX  01184 08044 12565 30903 10136 20104 30106 40237 51009 60002 81552 333 10156;","Q01  00002PRCP12"
"08044099999","2010-11-02T06:00:00","4","42.4333333","-8.6166666","108.0","PONTEVEDRA, SP","FM-12","99999","V020","090,1,N,0026,1","00900,1,9,N","015000,1,N,1","+0106,1","+0077,1","10248,1","12,0000,9,1","24,0000,9,1",,,,"07,99,1,07,1,08,1,00450,1,99,9,99,9","0048,9",,,"999,N,+0084,1","99999,9,10116,1","3,1,002,1,+999,9","02,1","SYN106AAXX  02064 08044 11465 70905 10106 20077 30116 40248 53002 60002 702// 878// 333 20084 50114 55008 70000;","Q01  00002PRCP24Q02  00002PRCP12"
"08044099999","2010-11-02T09:00:00","4","42.4333333","-8.6166666","108.0","PONTEVEDRA, SP","FM-12","99999","V020","999,9,C,0000,1","00420,1,9,N","015000,1,N,1","+0108,1","+0092,1","10255,1",,,,,,"08,99,1,08,1,05,1,00450,1,99,9,99,9",,,,,"99999,9,10123,1","1,1,007,1,+999,9",,"SYN066AAXX  02094 08044 42465 80000 10108 20092 30123 40255 51007 885//;",
"08044099999","2010-11-02T12:00:00","4","42.4333333","-8.6166666","108.0","PONTEVEDRA, SP","FM-12","99999","V020","290,1,N,0010,1","01500,1,9,N","015000,1,N,1","+0156,1","+0112,1","10253,1","06,0000,9,1",,,,,"07,99,1,07,1,00,1,01750,1,07,1,99,9",,,,,"99999,9,10123,1","0,1,000,1,+999,9",,"SYN072AAXX  02124 08044 12765 72902 10156 20112 30123 40253 50000 60001 8707/;","Q01  00002PRCP06"
"08044099999","2010-11-02T15:00:00","4","42.4333333","-8.6166666","108.0","PONTEVEDRA, SP","FM-12","99999","V020","280,1,N,0015,1","00420,1,9,N","015000,1,N,1","+0164,1","+0126,1","10242,1",,,,,,"07,99,1,07,1,05,1,00450,1,99,9,99,9",,,,,"99999,9,10113,1","6,1,010,1,+999,9",,"SYN066AAXX  02154 08044 42465 72803 10164 20126 30113 40242 56010 875//;",
"08044099999","2010-11-02T18:00:00","4","42.4333333","-8.6166666","108.0","PONTEVEDRA, SP","FM-12","99999","V020","999,9,C,0000,1","00420,1,9,N","010000,1,N,1","+0150,1","+0125,1","10248,1","12,0000,9,1",,,,,"08,99,1,08,1,05,1,00450,1,99,9,99,9",,,,"999,M,+0170,1","99999,9,10118,1","3,1,005,1,+999,9",,"SYN082AAXX  02184 08044 12460 80000 10150 20125 30118 40248 53005 60002 885// 333 10170;","Q01  00002PRCP12"
"08044099999","2010-11-03T06:00:00","4","42.4333333","-8.6166666","108.0","PONTEVEDRA, SP","FM-12","99999","V020","090,1,N,0021,1","22000,1,9,N","012000,1,N,1","+0136,1","+0122,1","10251,1","12,0000,9,1","24,0000,9,1",,,,"02,99,1,02,1,05,1,00450,1,00,1,00,1","0000,9",,,"999,N,+0125,1","99999,9,10120,1","1,1,004,1,+999,9","02,1","SYN106AAXX  03064 08044 11462 20904 10136 20122 30120 40251 51004 60002 702// 82500 333 20125 50074 55000 70000;","Q01  00002PRCP24Q02  00002PRCP12"
"08044099999","2010-11-03T09:00:00","4","42.4333333","-8.6166666","108.0","PONTEVEDRA, SP","FM-12","99999","V020","090,1,N,0026,1","22000,1,9,N","003000,1,N,1","+0148,1","+0127,1","10260,1",,,"4,1,03,1","0,1,03,1",,"02,99,1,01,1,05,1,00450,1,00,1,02,1",,,,,"99999,9,10130,1","3,1,010,1,+999,9","11,1","SYN072AAXX  03094 08044 41430 20905 10148 20127 30130 40260 53010 71140 81502;",
"08044099999","2010-11-03T12:00:00","4","42.4333333","-8.6166666","108.0","PONTEVEDRA, SP","FM-12","99999","V020","290,1,N,0031,1","22000,1,9,N","020000,1,N,1","+0186,1","+0145,1","10261,1","06,0000,9,1",,,,,"01,99,1,01,1,01,1,00450,1,00,1,00,1",,,,,"99999,9,10132,1","0,1,002,1,+999,9",,"SYN072AAXX  03124 08044 12470 12906 10186 20145 30132 40261 50002 60001 81100;","Q01  00002PRCP06"
"08044099999","2010-11-03T15:00:00","4","42.4333333","-8.6166666","108.0","PONTEVEDRA, SP","FM-12","99999","V020","300,1,N,0036,1","22000,1,9,N","020000,1,N,1","+0196,1","+0153,1","10252,1",,,,,,"01,99,1,01,1,00,1,01750,1,03,1,00,1",,,,,"99999,9,10124,1","6,1,008,1,+999,9",,"SYN066AAXX  03154 08044 42770 13007 10196 20153 30124 40252 56008 81030;",
"08044099999","2010-11-03T18:00:00","4","42.4333333","-8.6166666","108.0","PONTEVEDRA, SP","FM-12","99999","V020","160,1,N,0010,1","22000,1,9,N","015000,1,N,1","+0170,1","+0153,1","10258,1","12,0000,9,1",,,,,"01,99,1,01,1,01,1,00450,1,00,1,00,1",,,,"999,M,+0200,1","99999,9,10129,1","3,1,005,1,+999,9",,"SYN082AAXX  03184 08044 12465 11602 10170 20153 30129 40258 53005 60002 81100 333 10200;","Q01  00002PRCP12"
"08044099999","2010-11-04T06:00:00","4","42.4333333","-8.6166666","108.0","PONTEVEDRA, SP","FM-12","99999","V020","040,1,N,0026,1","22000,1,9,N","006000,1,N,1","+0122,1","+0114,1","10272,1","12,0000,9,1","24,0000,9,1",,,"00,1,+99999,9,99,9","00,99,1,00,1,00,1,99999,9,00,1,00,1","0498,9",,,"999,N,+0122,1","99999,9,10140,1","3,1,002,1,+999,9","10,1","SYN100AAXX  04064 08044 11956 00405 10122 20114 30140 40272 53002 60002 710// 333 20122 50104 55083 70000;","Q01  00002PRCP24Q02  00002PRCP12"
"08044099999","2010-11-04T12:00:00","4","42.4333333","-8.6166666","108.0","PONTEVEDRA, SP","FM-12","99999","V020","270,1,N,0010,1","22000,1,9,N","020000,1,N,1","+0198,1","+0144,1","10285,1","06,0000,9,1",,,,"00,1,+99999,9,99,9","00,99,1,00,1,00,1,99999,9,00,1,00,1",,,,,"99999,9,10157,1","0,1,001,1,+999,9",,"SYN066AAXX  04124 08044 12970 02702 10198 20144 30157 40285 50001 60001;","Q01  00002PRCP06"
"08044099999","2010-11-04T15:00:00","4","42.4333333","-8.6166666","108.0","PONTEVEDRA, SP","FM-12","99999","V020","180,1,N,0010,1","22000,1,9,N","020000,1,N,1","+0206,1","+0162,1","10273,1",,,,,"00,1,+99999,9,99,9","00,99,1,00,1,00,1,99999,9,00,1,00,1",,,,,"99999,9,10145,1","6,1,012,1,+999,9",,"SYN060AAXX  04154 08044 42970 01802 10206 20162 30145 40273 56012;",
"08044099999","2010-11-04T18:00:00","4","42.4333333","-8.6166666","108.0","PONTEVEDRA, SP","FM-12","99999","V020","360,1,N,0010,1","22000,1,9,N","015000,1,N,1","+0170,1","+0153,1","10277,1","12,0000,9,1",,,,"00,1,+99999,9,99,9","00,99,1,00,1,00,1,99999,9,00,1,00,1",,,,"999,M,+0208,1","99999,9,10148,1","3,1,003,1,+999,9",,"SYN076AAXX  04184 08044 12965 03602 10170 20153 30148 40277 53003 60002 333 10208;","Q01  00002PRCP12"
"08044099999","2010-11-05T06:00:00","4","42.4333333","-8.6166666","108.0","PONTEVEDRA, SP","FM-12","99999","V020","070,1,N,0026,1","22000,1,9,N","015000,1,N,1","+0135,1","+0092,1","10265,1","12,0000,9,1","24,0000,9,1",,,"00,1,+99999,9,99,9","00,99,1,00,1,00,1,99999,9,00,1,00,1","0498,9",,,"999,N,+0125,1","99999,9,10134,1","5,1,005,1,+999,9","02,1","SYN100AAXX  05064 08044 11965 00705 10135 20092 30134 40265 55005 60002 702// 333 20125 50134 55083 70000;","Q01  00002PRCP24Q02  00002PRCP12"
"08044099999","2010-11-05T09:00:00","4","42.4333333","-8.6166666","108.0","PONTEVEDRA, SP","FM-12","99999","V020","150,1,N,0010,1","22000,1,9,N","020000,1,N,1","+0158,1","+0110,1","10267,1",,,,,,"01,99,1,00,1,00,1,99999,9,00,1,02,1",,,,,"99999,9,10137,1","3,1,003,1,+999,9",,"SYN066AAXX  05094 08044 42970 11502 10158 20110 30137 40267 53003 80002;",
"08044099999","2010-11-05T12:00:00","4","42.4333333","-8.6166666","108.0","PONTEVEDRA, SP","FM-12","99999","V020","220,1,N,0010,1","22000,1,9,N","020000,1,N,1","+0200,1","+0152,1","10262,1","06,0000,9,1",,,,,"02,99,1,00,1,00,1,99999,9,00,1,02,1",,,,,"99999,9,10134,1","8,1,003,1,+999,9",,"SYN072AAXX  05124 08044 12970 22202 10200 20152 30134 40262 58003 60001 80002;","Q01  00002PRCP06"
"08044099999","2010-11-05T15:00:00","4","42.4333333","-8.6166666","108.0","PONTEVEDRA, SP","FM-12","99999","V020","250,1,N,0010,1","22000,1,9,N","020000,1,N,1","+0208,1","+0147,1","10251,1",,,,,,"04,99,1,00,1,00,1,99999,9,00,1,02,1",,,,,"99999,9,10123,1","6,1,011,1,+999,9",,"SYN066AAXX  05154 08044 42970 42502 10208 20147 30123 40251 56011 80002;",
"08044099999","2010-11-05T18:00:00","4","42.4333333","-8.6166666","108.0","PONTEVEDRA, SP","FM-12","99999","V020","130,1,N,0015,1","22000,1,9,N","015000,1,N,1","+0164,1","+0128,1","10250,1","12,0000,9,1",,,,,"03,99,1,02,1,00,1,01750,1,05,1,02,1",,,,"999,M,+0215,1","99999,9,10120,1","6,1,003,1,+999,9",,"SYN082AAXX  05184 08044 12765 31303 10164 20128 30120 40250 56003 60002 82052 333 10215;","Q01  00002PRCP12"
"08044099999","2010-11-06T06:00:00","4","42.4333333","-8.6166666","108.0","PONTEVEDRA, SP","FM-12","99999","V020","080,1,N,0026,1","22000,1,9,N","015000,1,N,1","+0120,1","+0099,1","10246,1","12,0000,9,1","24,0000,9,1",,,,"01,99,1,00,1,00,1,99999,9,00,1,01,1","0486,9",,,"999,N,+0119,1","99999,9,10114,1","6,1,003,1,+999,9","02,1","SYN106AAXX  06064 08044 11965 10805 10120 20099 30114 40246 56003 60002 702// 80001 333 20119 50134 55081 70000;","Q01  00002PRCP24Q02  00002PRCP12"
"08044099999","2010-11-06T09:00:00","4","42.4333333","-8.6166666","108.0","PONTEVEDRA, SP","FM-12","99999","V020","070,1,N,0010,1","22000,1,9,N","020000,1,N,1","+0135,1","+0103,1","10246,1",,,,,,"03,99,1,01,1,00,1,01750,1,03,1,01,1",,,,,"99999,9,10115,1","3,1,001,1,+999,9",,"SYN066AAXX  06094 08044 42770 30702 10135 20103 30115 40246 53001 81031;",
"08044099999","2010-11-06T12:00:00","4","42.4333333","-8.6166666","108.0","PONTEVEDRA, SP","FM-12","99999","V020","200,1,N,0010,1","00120,1,9,N","006000,1,N,1","+0162,1","+0135,1","10240,1","06,0000,9,1",,"1,1,06,1","1,1,06,1",,"06,99,1,05,1,06,1,00150,1,00,1,01,1",,,,,"99999,9,10111,1","8,1,004,1,+999,9","10,1","SYN078AAXX  06124 08044 11256 62002 10162 20135 30111 40240 58004 60001 71011 85601;","Q01  00002PRCP06"
"08044099999","2010-11-06T15:00:00","4","42.4333333","-8.6166666","108.0","PONTEVEDRA, SP","FM-12","99999","V020","170,1,N,0005,1","00210,1,9,N","006000,1,N,1","+0147,1","+0131,1","10227,1",,,"2,1,03,1","2,1,03,1",,"08,99,1,08,1,05,1,00250,1,99,9,99,9",,,,,"99999,9,10097,1","7,1,014,1,+999,9","10,1","SYN072AAXX  06154 08044 41356 81701 10147 20131 30097 40227 57014 71022 885//;",
"08044099999","2010-11-06T18:00:00","4","42.4333333","-8.6166666","108.0","PONTEVEDRA, SP","FM-12","99999","V020","160,1,N,0010,1","00120,1,9,N","009000,1,N,1","+0141,1","+0130,1","10224,1","12,0000,9,1",,"2,1,06,1","2,1,06,1",,"08,99,1,08,1,06,1,00150,1,99,9,99,9",,,,"999,M,+0164,1","99999,9,10094,1","6,1,003,1,+999,9","10,1","SYN088AAXX  06184 08044 11259 81602 10141 20130 30094 40224 56003 60002 71022 886// 333 10164;","Q01  00002PRCP12"
"08044099999","2010-11-07T06:00:00","4","42.4333333","-8.6166666","108.0","PONTEVEDRA, SP","FM-12","99999","V020","350,1,N,0021,1","00120,1,9,N","005000,1,N,1","+0121,1","+0112,1","10187,1","12,0008,9,1","24,0008,9,1",,,,"08,99,1,06,1,06,1,00150,1,07,1,99,9","0240,9",,,"999,N,+0118,1","99999,9,10056,1","6,1,006,1,+999,9","50,1","SYN106AAXX  07064 08044 11250 83504 10121 20112 30056 40187 56006 69982 750// 8667/ 333 20118 50064 55040 70008;",
"08044099999","2010-11-07T09:00:00","4","42.4333333","-8.6166666","108.0","PONTEVEDRA, SP","FM-12","99999","V020","320,1,N,0021,1","00420,1,9,N","015000,1,N,1","+0115,1","+0085,1","10188,1",,,,,,"07,99,1,05,1,05,1,00450,1,07,1,99,9",,,,,"99999,9,10057,1","1,1,001,1,+999,9",,"SYN066AAXX  07094 08044 42465 73204 10115 20085 30057 40188 51001 8557/;",
"08044099999","2010-11-07T12:00:00","4","42.4333333","-8.6166666","108.0","PONTEVEDRA, SP","FM-12","99999","V020","330,1,N,0046,1","03600,1,9,N","020000,1,N,1","+0140,1","+0075,1","10181,1","06,0000,2,1",,,,,"06,99,1,04,1,08,1,00250,1,03,1,00,1",,,,,"99999,9,10051,1","8,1,006,1,+999,9",,"SYN072AAXX  07124 08044 12370 63309 10140 20075 30051 40181 58006 60001 84830;",
"08044099999","2010-11-07T15:00:00","4","42.4333333","-8.6166666","108.0","PONTEVEDRA, SP","FM-12","99999","V020","320,1,N,0051,1","00900,1,9,N","020000,1,N,1","+0139,1","+0077,1","10162,1",,,"8,1,03,1","2,1,03,1",,"07,99,1,07,1,08,1,00450,1,00,1,00,1",,,,,"99999,9,10032,1","7,1,019,1,+999,9","80,1","SYN072AAXX  07154 08044 41470 73210 10139 20077 30032 40162 57019 78082 87800;",
"08044099999","2010-11-07T18:00:00","4","42.4333333","-8.6166666","108.0","PONTEVEDRA, SP","FM-12","99999","V020","330,1,N,0031,1","22000,1,9,N","020000,1,N,1","+0115,1","+0066,1","10160,1","12,0000,2,1",,"8,1,06,1","2,1,06,1",,"04,99,1,04,1,08,1,00450,1,00,1,00,1",,,,"999,M,+0144,1","99999,9,10029,1","8,1,003,1,+999,9","02,1","SYN088AAXX  07184 08044 11470 43306 10115 20066 30029 40160 58003 69922 70282 84800 333 10144;",
"08044099999","2010-11-08T06:00:00","4","42.4333333","-8.6166666","108.0","PONTEVEDRA, SP","FM-12","99999","V020","230,1,N,0021,1","00120,1,9,N","006000,1,N,1","+0126,1","+0123,1","10035,1","12,0030,9,1","24,0033,9,1","6,1,06,1",,,"08,99,1,07,1,07,1,00150,1,07,1,99,9","0192,9",,,"999,N,+0076,1","99999,9,09907,1","7,1,041,1,+999,9","60,1","SYN106AAXX  08064 08044 11256 82304 10126 20123 39907 40035 57041 60032 7606/ 8777/ 333 20076 50104 55032 70032;",
"08044099999","2010-11-08T09:00:00","4","42.4333333","-8.6166666","108.0","PONTEVEDRA, SP","FM-12","99999","V020","250,1,N,0031,1","00210,1,9,N","005000,1,N,1","+0132,1","+0129,1","10004,1",,,"6,1,03,1","2,1,03,1",,"08,99,1,06,1,07,1,00250,1,07,1,99,9",,,,,"99999,9,09876,1","7,1,031,1,+999,9","62,1","SYN072AAXX  08094 08044 41350 82506 10132 20129 39876 40004 57031 76262 8677/;",
"08044099999","2010-11-08T12:00:00","4","42.4333333","-8.6166666","108.0","PONTEVEDRA, SP","FM-12","99999","V020","270,1,N,0057,1","00600,1,9,N","010000,1,N,1","+0138,1","+0102,1","09982,1","06,0071,9,1",,"8,1,06,1","6,1,06,1",,"08,99,1,06,1,08,1,00250,1,07,1,99,9",,,,,"99999,9,09855,1","6,1,021,1,+999,9","25,1","SYN078AAXX  08124 08044 11360 82711 10138 20102 39855 49982 56021 60071 72586 8687/;",
"08044099999","2010-11-08T15:00:00","4","42.4333333","-8.6166666","108.0","PONTEVEDRA, SP","FM-12","99999","V020","280,1,N,0077,1","00600,1,9,N","004000,1,N,1","+0121,1","+0097,1","09967,1",,,"8,1,03,1","6,1,03,1",,"08,99,1,06,1,08,1,00250,1,07,1,99,9",,,,,"99999,9,09839,1","7,1,016,1,+999,9","80,1","SYN072AAXX  08154 08044 41340 82815 10121 20097 39839 49967 57016 78086 8687/;",
"08044099999","2010-11-08T18:00:00","4","42.4333333","-8.6166666","108.0","PONTEVEDRA, SP","FM-12","99999","V020","270,1,N,0051,1","00600,1,9,N","010000,1,N,1","+0124,1","+0098,1","09960,1","12,0089,9,1",,"8,1,06,1","2,1,06,1",,"08,99,1,06,1,08,1,00250,1,07,1,99,9",,,,"999,M,+0141,1","99999,9,09832,1","6,1,007,1,+999,9","02,1","SYN088AAXX  08184 08044 11360 82710 10124 20098 39832 49960 56007 60092 70282 8687/ 333 10141;",
"08044099999","2010-11-09T06:00:00","4","42.4333333","-8.6166666","108.0","PONTEVEDRA, SP","FM-12","99999","V020","270,1,N,0051,1","00600,1,9,N","010000,1,N,1","+0114,1","+0063,1","09920,1","12,0061,9,1","24,0142,9,1",,,,"05,99,1,05,1,08,1,00250,1,00,1,00,1","0000,9",,,"999,N,+0105,1","99999,9,09792,1","6,1,002,1,+999,9","80,1","SYN106AAXX  09064 08044 11360 52710 10114 20063 39792 49920 56002 60062 780// 85800 333 20105 50084 55000 70141;",
"08044099999","2010-11-09T09:00:00","4","42.4333333","-8.6166666","108.0","PONTEVEDRA, SP","FM-12","99999","V020","280,1,N,0036,1","00600,1,9,N","015000,1,N,1","+0100,1","+0060,1","09936,1",,,"8,1,03,1","2,1,03,1",,"06,99,1,06,1,08,1,00250,1,00,1,00,1",,,,,"99999,9,09807,1","3,1,015,1,+999,9","25,1","SYN072AAXX  09094 08044 41365 62807 10100 20060 39807 49936 53015 72582 86800;",
"08044099999","2010-11-09T12:00:00","4","42.4333333","-8.6166666","108.0","PONTEVEDRA, SP","FM-12","99999","V020","260,1,N,0026,1","00600,1,9,N","004000,1,N,1","+0108,1","+0094,1","09937,1","06,0119,9,1",,"8,1,06,1","2,1,06,1",,"07,99,1,07,1,08,1,00250,1,99,9,99,9",,,,,"99999,9,09809,1","0,1,002,1,+999,9","25,1","SYN078AAXX  09124 08044 11340 72605 10108 20094 39809 49937 50002 60121 72582 878//;",
"08044099999","2010-11-09T15:00:00","4","42.4333333","-8.6166666","108.0","PONTEVEDRA, SP","FM-12","99999","V020","280,1,N,0082,1","00210,1,9,N","010000,1,N,1","+0130,1","+0087,1","09936,1",,,"8,1,03,1","2,1,03,1",,"07,99,1,06,1,09,1,00250,1,06,1,00,1",,,,,"99999,9,09809,1","5,1,000,1,+999,9","25,1","SYN072AAXX  09154 08044 41360 72816 10130 20087 39809 49936 55000 72582 86960;",
"08044099999","2010-11-09T18:00:00","4","42.4333333","-8.6166666","108.0","PONTEVEDRA, SP","FM-12","99999","V020","310,1,N,0051,1","00600,1,9,N","006000,1,N,1","+0111,1","+0094,1","09958,1","12,0160,9,1",,"8,1,06,1","2,1,06,1",,"07,99,1,06,1,08,1,00250,1,06,1,99,9",,,,"999,M,+0134,1","99999,9,09830,1","3,1,021,1,+999,9","81,1","SYN088AAXX  09184 08044 11356 73110 10111 20094 39830 49958 53021 60162 78182 8686/ 333 10134;",
"08044099999","2010-11-10T06:00:00","4","42.4333333","-8.6166666","108.0","PONTEVEDRA, SP","FM-12","99999","V020","999,9,C,0000,1","22000,1,9,N","015000,1,N,1","+0079,1","+0070,1","10063,1","12,0020,9,1","24,0178,9,1",,,,"01,99,1,01,1,08,1,00250,1,00,1,00,1","0102,9",,,"999,N,+0077,1","99999,9,09932,1","2,1,023,1,+999,9","02,1","SYN106AAXX  10064 08044 11365 10000 10079 20070 39932 40063 52023 60022 702// 81800 333 20077 50084 55017 70179;",
"08044099999","2010-11-10T09:00:00","4","42.4333333","-8.6166666","108.0","PONTEVEDRA, SP","FM-12","99999","V020","050,1,N,0010,1","22000,1,9,N","017000,1,N,1","+0090,1","+0073,1","10098,1",,,,,,"01,99,1,01,1,05,1,00450,1,00,1,00,1",,,,,"99999,9,09967,1","2,1,035,1,+999,9",,"SYN066AAXX  10094 08044 42467 10502 10090 20073 39967 40098 52035 81500;",
"08044099999","2010-11-10T12:00:00","4","42.4333333","-8.6166666","108.0","PONTEVEDRA, SP","FM-12","99999","V020","200,1,N,0010,1","22000,1,9,N","017000,1,N,1","+0137,1","+0099,1","10118,1","06,0000,9,1",,,,,"03,99,1,03,1,08,1,00450,1,00,1,00,1",,,,,"99999,9,09989,1","1,1,022,1,+999,9",,"SYN072AAXX  10124 08044 12467 32002 10137 20099 39989 40118 51022 60001 83800;","Q01  00002PRCP06"
"08044099999","2010-11-10T15:00:00","4","42.4333333","-8.6166666","108.0","PONTEVEDRA, SP","FM-12","99999","V020","280,1,N,0026,1","00900,1,9,N","015000,1,N,1","+0133,1","+0097,1","10132,1",,,"1,1,03,1","1,1,03,1",,"05,99,1,05,1,08,1,00450,1,00,1,00,1",,,,,"99999,9,10002,1","3,1,013,1,+999,9","80,1","SYN072AAXX  10154 08044 41465 52805 10133 20097 30002 40132 53013 78011 85800;",
"08044099999","2010-11-10T18:00:00","4","42.4333333","-8.6166666","108.0","PONTEVEDRA, SP","FM-12","99999","V020","120,1,N,0010,1","22000,1,9,N","015000,1,N,1","+0113,1","+0085,1","10155,1","12,0003,9,1",,"8,1,06,1","1,1,06,1",,"03,99,1,03,1,08,1,00450,1,00,1,00,1",,,,"999,M,+0143,1","99999,9,10024,1","2,1,022,1,+999,9","02,1","SYN088AAXX  10184 08044 11465 31202 10113 20085 30024 40155 52022 69932 70281 83800 333 10143;",
"08044099999","2010-11-11T06:00:00","4","42.4333333","-8.6166666","108.0","PONTEVEDRA, SP","FM-12","99999","V020","040,1,N,0010,1","03600,1,9,N","008000,1,N,1","+0108,1","+0100,1","10191,1","12,0000,9,1","24,0005,9,1",,,,"07,99,1,04,1,08,1,00450,1,03,1,01,1","0264,9","11,9","999,+0070,9","999,N,+0094,1","99999,9,10060,1","1,1,007,1,+999,9","10,1","SYN112AAXX  11064 08044 11458 70402 10108 20100 30060 40191 51007 69912 710// 84831 333 20094 32007 50054 55044 70004;","Q01  00002PRCP12"
"08044099999","2010-11-11T09:00:00","4","42.4333333","-8.6166666","108.0","PONTEVEDRA, SP","FM-12","99999","V020","170,1,N,0026,1","00210,1,9,N","008000,1,N,1","+0130,1","+0111,1","10206,1",,,"2,1,03,1","2,1,03,1",,"08,99,1,06,1,02,1,00250,1,07,1,99,9",,,,,"99999,9,10075,1","2,1,015,1,+999,9","10,1","SYN072AAXX  11094 08044 41358 81705 10130 20111 30075 40206 52015 71022 8627/;",
"08044099999","2010-11-11T12:00:00","4","42.4333333","-8.6166666","108.0","PONTEVEDRA, SP","FM-12","99999","V020","180,1,N,0031,1","00120,1,9,N","002000,1,N,1","+0130,1","+0122,1","10212,1","06,0005,9,1",,"5,1,06,1","2,1,06,1",,"08,99,1,07,1,07,1,00150,1,07,1,99,9",,,,,"99999,9,10081,1","1,1,006,1,+999,9","50,1","SYN078AAXX  11124 08044 11220 81806 10130 20122 30081 40212 51006 69941 75052 8777/;",
"08044099999","2010-11-11T15:00:00","4","42.4333333","-8.6166666","108.0","PONTEVEDRA, SP","FM-12","99999","V020","170,1,N,0026,1","00600,1,9,N","006000,1,N,1","+0136,1","+0125,1","10210,1",,,"5,1,03,1","2,1,03,1",,"08,99,1,07,1,08,1,00250,1,07,1,99,9",,,,,"99999,9,10080,1","6,1,001,1,+999,9","15,1","SYN072AAXX  11154 08044 41356 81705 10136 20125 30080 40210 56001 71552 8787/;",
"08044099999","2010-11-11T18:00:00","4","42.4333333","-8.6166666","108.0","PONTEVEDRA, SP","FM-12","99999","V020","170,1,N,0031,1","00120,1,9,N","003000,1,N,1","+0136,1","+0133,1","10217,1","12,0010,9,1",,"5,1,06,1","2,1,06,1",,"08,99,1,07,1,07,1,00150,1,07,1,99,9",,,,"999,M,+0137,1","99999,9,10087,1","1,1,007,1,+999,9","50,1","SYN088AAXX  11184 08044 11230 81706 10136 20133 30087 40217 51007 60012 75052 8777/ 333 10137;",
"08044099999","2010-11-12T06:00:00","4","42.4333333","-8.6166666","108.0","PONTEVEDRA, SP","FM-12","99999","V020","180,1,N,0031,1","00600,1,9,N","006000,1,N,1","+0138,1","+0135,1","10223,1","12,0020,9,1","24,0033,9,1",,,,"08,99,1,06,1,08,1,00250,1,07,1,99,9","0000,9","11,9","999,+0100,9","999,N,+0136,1","99999,9,10093,1","8,1,003,1,+999,9","10,1","SYN112AAXX  12064 08044 11356 81806 10138 20135 30093 40223 58003 60022 710// 8687/ 333 20136 32010 50024 55000 70034;",
"08044099999","2010-11-12T09:00:00","4","42.4333333","-8.6166666","108.0","PONTEVEDRA, SP","FM-12","99999","V020","170,1,N,0031,1","00060,1,9,N","004000,1,N,1","+0137,1","+0134,1","10223,1",,,"5,1,03,1","2,1,03,1",,"08,99,1,07,1,07,1,00075,1,07,1,99,9",,,,,"99999,9,10093,1","5,1,000,1,+999,9","50,1","SYN072AAXX  12094 08044 41140 81706 10137 20134 30093 40223 55000 75052 8777/;",
"08044099999","2010-11-12T12:00:00","4","42.4333333","-8.6166666","108.0","PONTEVEDRA, SP","FM-12","99999","V020","180,1,N,0021,1","00600,1,9,N","005000,1,N,1","+0152,1","+0136,1","10217,1","06,0005,9,1",,"5,1,06,1","2,1,06,1",,"08,99,1,07,1,08,1,00250,1,07,1,99,9",,,,,"99999,9,10087,1","8,1,006,1,+999,9","16,1","SYN078AAXX  12124 08044 11350 81804 10152 20136 30087 40217 58006 69951 71652 8787/;",
"08044099999","2010-11-12T15:00:00","4","42.4333333","-8.6166666","108.0","PONTEVEDRA, SP","FM-12","99999","V020","170,1,N,0026,1","00600,1,9,N","012000,1,N,1","+0151,1","+0140,1","10196,1",,,"5,1,03,1","2,1,03,1",,"07,99,1,06,1,08,1,00250,1,07,1,01,1",,,,,"99999,9,10067,1","7,1,020,1,+999,9","02,1","SYN072AAXX  12154 08044 41362 71705 10151 20140 30067 40196 57020 70252 86871;",
"08044099999","2010-11-12T18:00:00","4","42.4333333","-8.6166666","108.0","PONTEVEDRA, SP","FM-12","99999","V020","170,1,N,0031,1","03600,1,9,N","010000,1,N,1","+0140,1","+0126,1","10188,1","12,0005,9,1",,"5,1,06,1","2,1,06,1",,"06,99,1,03,1,05,1,00250,1,03,1,01,1",,,,"999,M,+0156,1","99999,9,10058,1","7,1,009,1,+999,9","02,1","SYN088AAXX  12184 08044 11360 61706 10140 20126 30058 40188 57009 69962 70252 83531 333 10156;",
"08044099999","2010-11-13T06:00:00","4","42.4333333","-8.6166666","108.0","PONTEVEDRA, SP","FM-12","99999","V020","180,1,N,0041,1","00600,1,9,N","004000,1,N,1","+0140,1","+0137,1","10115,1","12,0010,9,1","24,0015,9,1",,,,"08,99,1,07,1,08,1,00250,1,07,1,99,9","0024,9","11,9","999,+0120,9","999,N,+0136,1","99999,9,09986,1","8,1,016,1,+999,9","50,1","SYN112AAXX  13064 08044 11340 81808 10140 20137 39986 40115 58016 69992 750// 8787/ 333 20136 32012 50034 55004 70015;",
"08044099999","2010-11-13T09:00:00","4","42.4333333","-8.6166666","108.0","PONTEVEDRA, SP","FM-12","99999","V020","180,1,N,0046,1","00600,1,9,N","002000,1,N,1","+0145,1","+0140,1","10101,1",,,"5,1,03,1","2,1,03,1",,"08,99,1,07,1,08,1,00250,1,07,1,99,9",,,,,"99999,9,09973,1","6,1,013,1,+999,9","52,1","SYN072AAXX  13094 08044 41320 81809 10145 20140 39973 40101 56013 75252 8787/;",
"08044099999","2010-11-13T12:00:00","4","42.4333333","-8.6166666","108.0","PONTEVEDRA, SP","FM-12","99999","V020","170,1,N,0041,1","00600,1,9,N","003000,1,N,1","+0148,1","+0145,1","10080,1","06,0020,9,1",,"6,1,06,1","5,1,06,1",,"08,99,1,07,1,08,1,00250,1,07,1,99,9",,,,,"99999,9,09952,1","7,1,021,1,+999,9","60,1","SYN078AAXX  13124 08044 11330 81708 10148 20145 39952 40080 57021 60021 76065 8787/;",
"08044099999","2010-11-13T15:00:00","4","42.4333333","-8.6166666","108.0","PONTEVEDRA, SP","FM-12","99999","V020","170,1,N,0046,1","00210,1,9,N","010000,1,N,1","+0154,1","+0139,1","10043,1",,,"6,1,03,1","5,1,03,1",,"08,99,1,07,1,02,1,00250,1,07,1,99,9",,,,,"99999,9,09916,1","7,1,036,1,+999,9","02,1","SYN072AAXX  13154 08044 41360 81709 10154 20139 39916 40043 57036 70265 8727/;",
"08044099999","2010-11-13T18:00:00","4","42.4333333","-8.6166666","108.0","PONTEVEDRA, SP","FM-12","99999","V020","170,1,N,0051,1","00210,1,9,N","003000,1,N,1","+0154,1","+0138,1","10017,1","12,0041,9,1",,"6,1,06,1","5,1,06,1",,"08,99,1,07,1,02,1,00250,1,07,1,99,9",,,,"999,M,+0155,1","99999,9,09890,1","7,1,026,1,+999,9","60,1","SYN088AAXX  13184 08044 11330 81710 10154 20138 39890 40017 57026 60042 76065 8727/ 333 10155;",
"08044099999","2010-11-14T06:00:00","4","42.4333333","-8.6166666","108.0","PONTEVEDRA, SP","FM-12","99999","V020","240,1,N,0010,1","22000,1,9,N","008000,1,N,1","+0098,1","+0086,1","10047,1","12,0231,9,1","24,0269,9,1",,,,"02,99,1,01,1,01,1,00800,1,03,1,01,1","0000,9","11,9","999,+0080,9","999,N,+0098,1","99999,9,09917,1","2,1,016,1,+999,9","10,1","SYN112AAXX  14064 08044 11558 22402 10098 20086 39917 40047 52016 60232 710// 81131 333 20098 32008 50034 55000 70269;",
"08044099999","2010-11-14T09:00:00","4","42.4333333","-8.6166666","108.0","PONTEVEDRA, SP","FM-12","99999","V020","130,1,N,0026,1","22000,1,9,N","015000,1,N,1","+0095,1","+0087,1","10067,1",,,,,,"02,99,1,01,1,02,1,00800,1,03,1,00,1",,,,,"99999,9,09937,1","1,1,020,1,+999,9",,"SYN066AAXX  14094 08044 42565 21305 10095 20087 39937 40067 51020 81230;",
"08044099999","2010-11-14T12:00:00","4","42.4333333","-8.6166666","108.0","PONTEVEDRA, SP","FM-12","99999","V020","280,1,N,0051,1","00900,1,9,N","012000,1,N,1","+0104,1","+0075,1","10080,1","06,0020,9,1",,"8,1,06,1","1,1,06,1",,"07,99,1,06,1,08,1,00450,1,07,1,00,1",,,,,"99999,9,09950,1","3,1,013,1,+999,9","03,1","SYN078AAXX  14124 08044 11462 72810 10104 20075 39950 40080 53013 60021 70381 86870;",
"08044099999","2010-11-14T15:00:00","4","42.4333333","-8.6166666","108.0","PONTEVEDRA, SP","FM-12","99999","V020","170,1,N,0010,1","03600,1,9,N","012000,1,N,1","+0100,1","+0078,1","10090,1",,,"8,1,03,1","2,1,03,1",,"05,99,1,03,1,08,1,00450,1,03,1,00,1",,,,,"99999,9,09959,1","1,1,009,1,+999,9","02,1","SYN072AAXX  14154 08044 41462 51702 10100 20078 39959 40090 51009 70282 83830;",
"08044099999","2010-11-14T18:00:00","4","42.4333333","-8.6166666","108.0","PONTEVEDRA, SP","FM-12","99999","V020","160,1,N,0015,1","03600,1,9,N","010000,1,N,1","+0080,1","+0068,1","10114,1","12,0020,9,1",,"8,1,06,1","2,1,06,1",,"05,99,1,04,1,08,1,00450,1,03,1,00,1",,,,"999,M,+0130,1","99999,9,09982,1","1,1,023,1,+999,9","02,1","SYN088AAXX  14184 08044 11460 51603 10080 20068 39982 40114 51023 60022 70282 84830 333 10130;",
"08044099999","2010-11-15T06:00:00","4","42.4333333","-8.6166666","108.0","PONTEVEDRA, SP","FM-12","99999","V020","040,1,N,0026,1","03600,1,9,N","010000,1,N,1","+0072,1","+0063,1","10174,1","12,0041,9,1","24,0064,9,1",,,,"05,99,1,03,1,08,1,00450,1,03,1,01,1","0138,9","11,9","999,+0050,9","999,N,+0065,1","99999,9,10041,1","3,1,012,1,+999,9","02,1","SYN112AAXX  15064 08044 11460 50405 10072 20063 30041 40174 53012 60042 702// 83831 333 20065 32005 50044 55023 70064;",
"08044099999","2010-11-15T09:00:00","4","42.4333333","-8.6166666","108.0","PONTEVEDRA, SP","FM-12","99999","V020","100,1,N,0026,1","22000,1,9,N","020000,1,N,1","+0078,1","+0069,1","10206,1",,,"8,1,03,1","1,1,03,1",,"03,99,1,02,1,02,1,00450,1,03,1,00,1",,,,,"99999,9,10073,1","2,1,032,1,+999,9","25,1","SYN072AAXX  15094 08044 41470 31005 10078 20069 30073 40206 52032 72581 82230;",
"08044099999","2010-11-15T12:00:00","4","42.4333333","-8.6166666","108.0","PONTEVEDRA, SP","FM-12","99999","V020","999,9,C,0000,1","22000,1,9,N","020000,1,N,1","+0118,1","+0099,1","10220,1","06,0005,9,1",,"8,1,06,1","1,1,06,1",,"03,99,1,02,1,02,1,00800,1,03,1,01,1",,,,,"99999,9,10089,1","1,1,016,1,+999,9","02,1","SYN078AAXX  15124 08044 11570 30000 10118 20099 30089 40220 51016 69951 70281 82231;",
"08044099999","2010-11-15T15:00:00","4","42.4333333","-8.6166666","108.0","PONTEVEDRA, SP","FM-12","99999","V020","270,1,N,0015,1","22000,1,9,N","012000,1,N,1","+0130,1","+0087,1","10223,1",,,,,,"04,99,1,03,1,02,1,00800,1,03,1,01,1",,,,,"99999,9,10092,1","3,1,003,1,+999,9",,"SYN066AAXX  15154 08044 42562 42703 10130 20087 30092 40223 53003 83231;",
"08044099999","2010-11-15T18:00:00","4","42.4333333","-8.6166666","108.0","PONTEVEDRA, SP","FM-12","99999","V020","270,1,N,0015,1","22000,1,9,N","010000,1,N,1","+0108,1","+0087,1","10247,1","12,0005,9,1",,,,,"02,99,1,01,1,02,1,00800,1,03,1,01,1",,,,"999,M,+0131,1","99999,9,10115,1","2,1,023,1,+999,9",,"SYN082AAXX  15184 08044 12560 22703 10108 20087 30115 40247 52023 69952 81231 333 10131;",
"08044099999","2010-11-16T06:00:00","4","42.4333333","-8.6166666","108.0","PONTEVEDRA, SP","FM-12","99999","V020","110,1,N,0021,1","22000,1,9,N","010000,1,N,1","+0062,1","+0053,1","10258,1","12,0000,9,1","24,0005,9,1",,,,"04,99,1,04,1,00,1,02250,1,05,1,00,1","0270,9","09,9","999,+0040,9","999,N,+0058,1","99999,9,10123,1","7,1,007,1,+999,9","02,1","SYN112AAXX  16064 08044 11860 41104 10062 20053 30123 40258 57007 60002 702// 84050 333 20058 31004 50044 55045 70005;","Q01  00002PRCP12"
"08044099999","2010-11-16T09:00:00","4","42.4333333","-8.6166666","108.0","PONTEVEDRA, SP","FM-12","99999","V020","360,1,N,0010,1","02100,1,9,N","015000,1,N,1","+0072,1","+0063,1","10255,1",,,,,,"07,99,1,07,1,00,1,02250,1,05,1,01,1",,,,,"99999,9,10121,1","6,1,002,1,+999,9",,"SYN066AAXX  16094 08044 42865 73602 10072 20063 30121 40255 56002 87051;",
"08044099999","2010-11-16T12:00:00","4","42.4333333","-8.6166666","108.0","PONTEVEDRA, SP","FM-12","99999","V020","350,1,N,0010,1","03600,1,9,N","010000,1,N,1","+0114,1","+0090,1","10234,1","06,0000,9,1",,,,,"08,99,1,01,1,05,1,00800,1,07,1,99,9",,,,,"99999,9,10102,1","8,1,019,1,+999,9",,"SYN072AAXX  16124 08044 12560 83502 10114 20090 30102 40234 58019 60001 8157/;","Q01  00002PRCP06"
"08044099999","2010-11-16T15:00:00","4","42.4333333","-8.6166666","108.0","PONTEVEDRA, SP","FM-12","99999","V020","170,1,N,0036,1","00750,1,9,N","010000,1,N,1","+0120,1","+0092,1","10199,1",,,,,,"08,99,1,05,1,02,1,00800,1,07,1,99,9",,,,,"99999,9,10068,1","7,1,034,1,+999,9",,"SYN066AAXX  16154 08044 42560 81707 10120 20092 30068 40199 57034 8527/;",
"08044099999","2010-11-16T18:00:00","4","42.4333333","-8.6166666","108.0","PONTEVEDRA, SP","FM-12","99999","V020","170,1,N,0031,1","03600,1,9,N","008000,1,N,1","+0118,1","+0086,1","10164,1","12,0000,9,1",,"2,1,06,1","2,1,06,1",,"07,99,1,03,1,05,1,00800,1,07,1,01,1",,,,"999,M,+0120,1","99999,9,10033,1","7,1,035,1,+999,9","10,1","SYN088AAXX  16184 08044 11558 71706 10118 20086 30033 40164 57035 60002 71022 83571 333 10120;","Q01  00002PRCP12"
"08044099999","2010-11-17T06:00:00","4","42.4333333","-8.6166666","108.0","PONTEVEDRA, SP","FM-12","99999","V020","350,1,N,0005,1","22000,1,9,N","010000,1,N,1","+0090,1","+0082,1","10120,1","12,0089,9,1","24,0094,9,1",,,,"02,99,1,01,1,00,1,02250,1,03,1,01,1","0000,9","11,9","999,+0070,9","999,N,+0090,1","99999,9,09989,1","2,1,014,1,+999,9","02,1","SYN112AAXX  17064 08044 11860 23501 10090 20082 39989 40120 52014 60092 702// 81031 333 20090 32007 50054 55000 70093;",
"08044099999","2010-11-17T09:00:00","4","42.4333333","-8.6166666","108.0","PONTEVEDRA, SP","FM-12","99999","V020","050,1,N,0010,1","22000,1,9,N","010000,1,N,1","+0092,1","+0080,1","10140,1",,,,,,"01,99,1,01,1,02,1,00800,1,00,1,00,1",,,,,"99999,9,10008,1","2,1,019,1,+999,9",,"SYN066AAXX  17094 08044 42560 10502 10092 20080 30008 40140 52019 81200;",
"08044099999","2010-11-17T12:00:00","4","42.4333333","-8.6166666","108.0","PONTEVEDRA, SP","FM-12","99999","V020","270,1,N,0036,1","22000,1,9,N","010000,1,N,1","+0120,1","+0065,1","10145,1","06,0000,9,1",,,,,"04,99,1,03,1,02,1,00800,1,03,1,00,1",,,,,"99999,9,10015,1","1,1,007,1,+999,9",,"SYN072AAXX  17124 08044 12560 42707 10120 20065 30015 40145 51007 60001 83230;","Q01  00002PRCP06"
"08044099999","2010-11-17T15:00:00","4","42.4333333","-8.6166666","108.0","PONTEVEDRA, SP","FM-12","99999","V020","250,1,N,0015,1","03600,1,9,N","010000,1,N,1","+0120,1","+0092,1","10143,1",,,"8,1,03,1","1,1,03,1",,"05,99,1,04,1,02,1,00800,1,03,1,00,1",,,,,"99999,9,10013,1","8,1,002,1,+999,9","25,1","SYN072AAXX  17154 08044 41560 52503 10120 20092 30013 40143 58002 72581 84230;",
"08044099999","2010-11-17T18:00:00","4","42.4333333","-8.6166666","108.0","PONTEVEDRA, SP","FM-12","99999","V020","150,1,N,0010,1","00750,1,9,N","006000,1,N,1","+0104,1","+0080,1","10151,1","12,0003,9,1",,"8,1,06,1","2,1,06,1",,"07,99,1,06,1,02,1,00800,1,03,1,00,1",,,,"999,M,+0134,1","99999,9,10020,1","3,1,007,1,+999,9","80,1","SYN088AAXX  17184 08044 11556 71502 10104 20080 30020 40151 53007 69932 78082 86230 333 10134;",
"08044099999","2010-11-18T06:00:00","4","42.4333333","-8.6166666","108.0","PONTEVEDRA, SP","FM-12","99999","V020","080,1,N,0010,1","03600,1,9,N","008000,1,N,1","+0074,1","+0070,1","10164,1","12,0005,9,1","24,0008,9,1",,,,"05,99,1,03,1,08,1,00800,1,03,1,00,1","0216,9","11,9","999,+0050,9","999,N,+0072,1","99999,9,10031,1","1,1,001,1,+999,9","10,1","SYN112AAXX  18064 08044 11558 50802 10074 20070 30031 40164 51001 69952 710// 83830 333 20072 32005 50054 55036 70008;",
"08044099999","2010-11-18T09:00:00","4","42.4333333","-8.6166666","108.0","PONTEVEDRA, SP","FM-12","99999","V020","040,1,N,0015,1","03600,1,9,N","010000,1,N,1","+0090,1","+0079,1","10175,1",,,"8,1,03,1","2,1,03,1",,"05,99,1,03,1,08,1,00800,1,03,1,00,1",,,,,"99999,9,10043,1","3,1,012,1,+999,9","02,1","SYN072AAXX  18094 08044 41560 50403 10090 20079 30043 40175 53012 70282 83830;",
"08044099999","2010-11-18T12:00:00","4","42.4333333","-8.6166666","108.0","PONTEVEDRA, SP","FM-12","99999","V020","170,1,N,0015,1","00900,1,9,N","010000,1,N,1","+0118,1","+0107,1","10181,1","06,0000,9,1",,"8,1,06,1","2,1,06,1",,"06,99,1,05,1,08,1,00450,1,05,1,00,1",,,,,"99999,9,10050,1","0,1,007,1,+999,9","02,1","SYN078AAXX  18124 08044 11460 61703 10118 20107 30050 40181 50007 69911 70282 85850;","Q01  00002PRCP06"
"08044099999","2010-11-18T15:00:00","4","42.4333333","-8.6166666","108.0","PONTEVEDRA, SP","FM-12","99999","V020","180,1,N,0010,1","00600,1,9,N","010000,1,N,1","+0120,1","+0104,1","10174,1",,,"8,1,03,1","2,1,03,1",,"07,99,1,07,1,08,1,00250,1,99,9,99,9",,,,,"99999,9,10043,1","6,1,007,1,+999,9","25,1","SYN072AAXX  18154 08044 41360 71802 10120 20104 30043 40174 56007 72582 878//;",
"08044099999","2010-11-18T18:00:00","4","42.4333333","-8.6166666","108.0","PONTEVEDRA, SP","FM-12","99999","V020","070,1,N,0010,1","00600,1,9,N","010000,1,N,1","+0112,1","+0096,1","10177,1","12,0003,9,1",,"8,1,06,1","2,1,06,1",,"06,99,1,05,1,08,1,00250,1,05,1,99,9",,,,"999,M,+0126,1","99999,9,10046,1","3,1,003,1,+999,9","02,1","SYN088AAXX  18184 08044 11360 60702 10112 20096 30046 40177 53003 69932 70282 8585/ 333 10126;",
"08044099999","2010-11-19T06:00:00","4","42.4333333","-8.6166666","108.0","PONTEVEDRA, SP","FM-12","99999","V020","160,1,N,0026,1","00600,1,9,N","006000,1,N,1","+0098,1","+0093,1","10125,1","12,0041,9,1","24,0048,9,1",,,,"07,99,1,07,1,08,1,00250,1,99,9,99,9","0018,9",,,"999,N,+0098,1","99999,9,09994,1","7,1,015,1,+999,9","80,1","SYN106AAXX  19064 08044 11356 71605 10098 20093 39994 40125 57015 60042 780// 878// 333 20098 50044 55003 70047;",
"08044099999","2010-11-19T09:00:00","4","42.4333333","-8.6166666","108.0","PONTEVEDRA, SP","FM-12","99999","V020","170,1,N,0041,1","00120,1,9,N","004000,1,N,1","+0100,1","+0094,1","10125,1",,,"6,1,03,1","4,1,03,1",,"08,99,1,06,1,07,1,00150,1,02,1,99,9",,,,,"99999,9,09994,1","5,1,000,1,+999,9","61,1","SYN072AAXX  19094 08044 41240 81708 10100 20094 39994 40125 55000 76164 8672/;",
"08044099999","2010-11-19T12:00:00","4","42.4333333","-8.6166666","108.0","PONTEVEDRA, SP","FM-12","99999","V020","160,1,N,0036,1","00120,1,9,N","005000,1,N,1","+0122,1","+0114,1","10114,1","06,0150,9,1",,"6,1,06,1","4,1,06,1",,"08,99,1,06,1,07,1,00150,1,02,1,99,9",,,,,"99999,9,09984,1","8,1,010,1,+999,9","21,1","SYN078AAXX  19124 08044 11250 81607 10122 20114 39984 40114 58010 60151 72164 8672/;",
"08044099999","2010-11-19T15:00:00","4","42.4333333","-8.6166666","108.0","PONTEVEDRA, SP","FM-12","99999","V020","170,1,N,0021,1","00210,1,9,N","008000,1,N,1","+0126,1","+0120,1","10093,1",,,"8,1,03,1","2,1,03,1",,"07,99,1,07,1,02,1,00250,1,99,9,99,9",,,,,"99999,9,09964,1","7,1,020,1,+999,9","80,1","SYN072AAXX  19154 08044 41358 71704 10126 20120 39964 40093 57020 78082 872//;",
"08044099999","2010-11-19T18:00:00","4","42.4333333","-8.6166666","108.0","PONTEVEDRA, SP","FM-12","99999","V020","170,1,N,0046,1","00210,1,9,N","006000,1,N,1","+0124,1","+0118,1","10069,1","12,0191,9,1",,"8,1,06,1","2,1,06,1",,"07,99,1,07,1,02,1,00250,1,99,9,99,9",,,,"999,M,+0130,1","99999,9,09940,1","6,1,024,1,+999,9","80,1","SYN088AAXX  19184 08044 11356 71709 10124 20118 39940 40069 56024 60192 78082 872// 333 10130;",
"08044099999","2010-11-20T06:00:00","4","42.4333333","-8.6166666","108.0","PONTEVEDRA, SP","FM-12","99999","V020","080,1,N,0015,1","00210,1,9,N","005000,1,N,1","+0098,1","+0087,1","10102,1","12,0130,9,1","24,0312,9,1",,,,"07,99,1,07,1,02,1,00250,1,99,9,99,9","0000,9",,,"999,N,+0085,1","99999,9,09971,1","1,1,009,1,+999,9","80,1","SYN106AAXX  20064 08044 11350 70803 10098 20087 39971 40102 51009 60132 780// 872// 333 20085 50024 55000 70312;",
"08044099999","2010-11-20T09:00:00","4","42.4333333","-8.6166666","108.0","PONTEVEDRA, SP","FM-12","99999","V020","270,1,N,0026,1","00210,1,C,N","008000,1,N,1","+0108,1","+0092,1","10122,1",,,"8,1,03,1","2,1,03,1","04,1,+00390,1,09,1","06,99,1,05,1,03,1,00250,1,07,1,00,1",,,,,"99999,9,09991,1","1,1,020,1,+999,9","80,1","SYN082AAXX  20094 08044 41358 62705 10108 20092 39991 40122 51020 78082 85370 333 84913;",
"08044099999","2010-11-20T12:00:00","4","42.4333333","-8.6166666","108.0","PONTEVEDRA, SP","FM-12","99999","V020","290,1,N,0046,1","22000,1,9,N","015000,1,N,1","+0126,1","+0081,1","10126,1","06,0061,9,1",,"8,1,06,1","1,1,06,1","03,1,+00390,1,09,1","04,99,1,03,1,03,1,00450,1,04,1,00,1",,,,,"99999,9,09996,1","0,1,005,1,+999,9","01,1","SYN088AAXX  20124 08044 11465 42909 10126 20081 39996 40126 50005 60061 70181 83340 333 83913;",
"08044099999","2010-11-20T15:00:00","4","42.4333333","-8.6166666","108.0","PONTEVEDRA, SP","FM-12","99999","V020","270,1,N,0041,1","22000,1,9,N","015000,1,N,1","+0122,1","+0081,1","10121,1",,,,,,"03,99,1,02,1,02,1,00450,1,04,1,00,1",,,,,"99999,9,09991,1","5,1,005,1,+999,9",,"SYN066AAXX  20154 08044 42465 32708 10122 20081 39991 40121 55005 82240;",
"08044099999","2010-11-20T18:00:00","4","42.4333333","-8.6166666","108.0","PONTEVEDRA, SP","FM-12","99999","V020","280,1,N,0067,1","00420,1,C,N","008000,1,N,1","+0110,1","+0089,1","10127,1","12,0061,9,1",,"8,1,06,1","1,1,06,1","04,1,+00390,1,09,1","06,99,1,05,1,03,1,00450,1,07,1,99,9",,,,"120,M,+0130,1","99999,9,09996,1","3,1,005,1,+999,9","81,1","SYN094AAXX  20184 08044 11458 62813 10110 20089 39996 40127 53005 60062 78181 8537/ 333 10130 84913;",
"08044099999","2010-11-21T06:00:00","4","42.4333333","-8.6166666","108.0","PONTEVEDRA, SP","FM-12","99999","V020","350,1,N,0005,1","00420,1,9,N","010000,1,N,1","+0096,1","+0090,1","10118,1","12,0160,9,1","24,0224,9,1",,,,"07,99,1,06,1,02,1,00450,1,07,1,99,9","0090,9",,,"999,N,+0095,1","99999,9,09987,1","3,1,003,1,+999,9","25,1","SYN106AAXX  21064 08044 11460 73501 10096 20090 39987 40118 53003 60162 725// 8627/ 333 20095 50084 55015 70224;",
"08044099999","2010-11-21T09:00:00","4","42.4333333","-8.6166666","108.0","PONTEVEDRA, SP","FM-12","99999","V020","190,1,N,0010,1","00210,1,9,N","003000,1,N,1","+0098,1","+0093,1","10127,1",,,"5,1,03,1","4,1,03,1",,"08,99,1,06,1,07,1,00250,1,07,1,99,9",,,,,"99999,9,09996,1","1,1,009,1,+999,9","51,1","SYN072AAXX  21094 08044 41330 81902 10098 20093 39996 40127 51009 75154 8677/;",
"08044099999","2010-11-21T12:00:00","4","42.4333333","-8.6166666","108.0","PONTEVEDRA, SP","FM-12","99999","V020","220,1,N,0010,1","00210,1,9,N","005000,1,N,1","+0112,1","+0107,1","10122,1","06,0041,9,1",,"6,1,06,1","4,1,06,1",,"08,99,1,06,1,07,1,00250,1,07,1,99,9",,,,,"99999,9,09992,1","6,1,004,1,+999,9","61,1","SYN078AAXX  21124 08044 11350 82202 10112 20107 39992 40122 56004 60041 76164 8677/;",
"08044099999","2010-11-21T15:00:00","4","42.4333333","-8.6166666","108.0","PONTEVEDRA, SP","FM-12","99999","V020","140,1,N,0015,1","03600,1,9,N","015000,1,N,1","+0110,1","+0102,1","10113,1",,,"8,1,03,1","2,1,03,1","03,1,+00390,1,09,1","05,99,1,04,1,03,1,00450,1,04,1,00,1",,,,,"99999,9,09983,1","6,1,009,1,+999,9","25,1","SYN082AAXX  21154 08044 41465 51403 10110 20102 39983 40113 56009 72582 84340 333 83913;",
"08044099999","2010-11-21T18:00:00","4","42.4333333","-8.6166666","108.0","PONTEVEDRA, SP","FM-12","99999","V020","210,1,N,0010,1","03600,1,9,N","010000,1,N,1","+0100,1","+0086,1","10113,1","12,0061,9,1",,"8,1,06,1","2,1,06,1","02,1,+00390,1,09,1","05,99,1,04,1,09,1,00450,1,04,1,00,1",,,,"120,M,+0120,1","99999,9,09982,1","5,1,001,1,+999,9","02,1","SYN094AAXX  21184 08044 11460 52102 10100 20086 39982 40113 55001 60062 70282 84940 333 10120 82913;",
"08044099999","2010-11-22T06:00:00","4","42.4333333","-8.6166666","108.0","PONTEVEDRA, SP","FM-12","99999","V020","180,1,N,0010,1","22000,1,9,N","006000,1,N,1","+0078,1","+0072,1","10117,1","12,9999,9,9","24,0061,9,1",,,,"04,99,1,03,1,02,1,00450,1,04,1,00,1","0048,9",,,"999,N,+0070,1","99999,9,09985,1","5,1,001,1,+999,9","80,1","SYN106AAXX  22064 08044 11456 41802 10078 20072 39985 40117 55001 69902 780// 83240 333 20070 50024 55008 70062;","Q01  00002PRCP12Q02  00002PRCP12"
"08044099999","2010-11-22T09:00:00","4","42.4333333","-8.6166666","108.0","PONTEVEDRA, SP","FM-12","99999","V020","050,1,N,0010,1","00420,1,9,N","015000,1,N,1","+0075,1","+0069,1","10125,1",,,,,,"06,99,1,05,1,05,1,00450,1,05,1,00,1",,,,,"99999,9,09993,1","1,1,008,1,+999,9",,"SYN066AAXX  22094 08044 42465 60502 10075 20069 39993 40125 51008 85550;",
"08044099999","2010-11-22T12:00:00","4","42.4333333","-8.6166666","108.0","PONTEVEDRA, SP","FM-12","99999","V020","180,1,N,0010,1","00420,1,C,N","005000,1,N,1","+0118,1","+0094,1","10121,1","06,0000,2,1",,"2,1,06,1","2,1,06,1","03,1,+00480,1,09,1","07,99,1,05,1,03,1,00450,1,07,1,99,9",,,,,"99999,9,09991,1","8,1,002,1,+999,9","16,1","SYN088AAXX  22124 08044 11450 71802 10118 20094 39991 40121 58002 60001 71622 8537/ 333 83916;",
"08044099999","2010-11-22T15:00:00","4","42.4333333","-8.6166666","108.0","PONTEVEDRA, SP","FM-12","99999","V020","150,1,N,0015,1","00900,1,9,N","006000,1,N,1","+0092,1","+0084,1","10119,1",,,"8,1,03,1","2,1,03,1",,"07,99,1,07,1,08,1,00450,1,99,9,99,9",,,,,"99999,9,09988,1","8,1,003,1,+999,9","80,1","SYN072AAXX  22154 08044 41456 71503 10092 20084 39988 40119 58003 78082 878//;",
"08044099999","2010-11-22T18:00:00","4","42.4333333","-8.6166666","108.0","PONTEVEDRA, SP","FM-12","99999","V020","070,1,N,0015,1","03600,1,9,N","010000,1,N,1","+0078,1","+0074,1","10123,1","12,0071,9,1",,"8,1,06,1","2,1,06,1",,"05,99,1,04,1,04,1,00450,1,06,1,00,1",,,,"999,M,+0120,1","99999,9,09991,1","3,1,003,1,+999,9","01,1","SYN088AAXX  22184 08044 11460 50703 10078 20074 39991 40123 53003 60072 70182 84460 333 10120;",
"08044099999","2010-11-23T06:00:00","4","42.4333333","-8.6166666","108.0","PONTEVEDRA, SP","FM-12","99999","V020","070,1,N,0031,1","01500,1,9,N","012000,1,N,1","+0068,1","+0053,1","10126,1","12,0000,9,1","24,0071,9,1",,,,"05,99,1,05,1,00,1,01750,1,07,1,00,1","0138,9",,,"999,N,+0060,1","99999,9,09993,1","8,1,004,1,+999,9","02,1","SYN106AAXX  23064 08044 11762 50706 10068 20053 39993 40126 58004 60002 702// 85070 333 20060 50034 55023 70072;","Q01  00002PRCP12"
"08044099999","2010-11-23T09:00:00","4","42.4333333","-8.6166666","108.0","PONTEVEDRA, SP","FM-12","99999","V020","010,1,N,0010,1","03600,1,9,N","015000,1,N,1","+0074,1","+0060,1","10129,1",,,,,,"06,99,1,04,1,05,1,00450,1,07,1,02,1",,,,,"99999,9,09997,1","3,1,004,1,+999,9",,"SYN066AAXX  23094 08044 42465 60102 10074 20060 39997 40129 53004 84572;",
"08044099999","2010-11-23T12:00:00","4","42.4333333","-8.6166666","108.0","PONTEVEDRA, SP","FM-12","99999","V020","350,1,N,0015,1","22000,1,9,N","020000,1,N,1","+0122,1","+0073,1","10124,1","06,0000,9,1",,,,,"02,99,1,01,1,02,1,00450,1,04,1,00,1",,,,,"99999,9,09994,1","8,1,003,1,+999,9",,"SYN072AAXX  23124 08044 12470 23503 10122 20073 39994 40124 58003 60001 81240;","Q01  00002PRCP06"
"08044099999","2010-11-23T15:00:00","4","42.4333333","-8.6166666","108.0","PONTEVEDRA, SP","FM-12","99999","V020","300,1,N,0026,1","03600,1,9,N","020000,1,N,1","+0136,1","+0089,1","10117,1",,,,,,"06,99,1,04,1,08,1,00450,1,05,1,02,1",,,,,"99999,9,09988,1","5,1,006,1,+999,9",,"SYN066AAXX  23154 08044 42470 63005 10136 20089 39988 40117 55006 84852;",
"08044099999","2010-11-23T18:00:00","4","42.4333333","-8.6166666","108.0","PONTEVEDRA, SP","FM-12","99999","V020","080,1,N,0015,1","22000,1,9,N","015000,1,N,1","+0114,1","+0081,1","10118,1","12,0000,9,1",,"5,1,06,1","1,1,06,1",,"03,99,1,02,1,05,1,00450,1,03,1,00,1",,,,"999,M,+0138,1","99999,9,09988,1","0,1,000,1,+999,9","01,1","SYN088AAXX  23184 08044 11465 30803 10114 20081 39988 40118 50000 69902 70151 82530 333 10138;","Q01  00002PRCP12"
"08044099999","2010-11-24T06:00:00","4","42.4333333","-8.6166666","108.0","PONTEVEDRA, SP","FM-12","99999","V020","160,1,N,0010,1","22000,1,9,N","015000,1,N,1","+0042,1","+0032,1","10138,1","12,0000,9,1","24,0000,9,1",,,,"02,99,1,00,1,00,1,99999,9,00,1,02,1","0258,9",,,"999,N,+0042,1","99999,9,10004,1","1,1,006,1,+999,9","02,1","SYN106AAXX  24064 08044 11965 21602 10042 20032 30004 40138 51006 60002 702// 80002 333 20042 50094 55043 79999;","Q01  00002PRCP24Q02  00002PRCP12"
"08044099999","2010-11-24T09:00:00","4","42.4333333","-8.6166666","108.0","PONTEVEDRA, SP","FM-12","99999","V020","170,1,N,0015,1","22000,1,9,N","020000,1,N,1","+0050,1","+0033,1","10146,1",,,,,,"03,99,1,01,1,00,1,01750,1,03,1,02,1",,,,,"99999,9,10012,1","3,1,008,1,+999,9",,"SYN066AAXX  24094 08044 42770 31703 10050 20033 30012 40146 53008 81032;",
"08044099999","2010-11-24T12:00:00","4","42.4333333","-8.6166666","108.0","PONTEVEDRA, SP","FM-12","99999","V020","270,1,N,0010,1","22000,1,9,N","020000,1,N,1","+0120,1","+0050,1","10146,1","06,0000,9,1",,,,,"03,99,1,01,1,00,1,01750,1,03,1,02,1",,,,,"99999,9,10016,1","0,1,004,1,+999,9",,"SYN072AAXX  24124 08044 12770 32702 10120 20050 30016 40146 50004 60001 81032;","Q01  00002PRCP06"
"08044099999","2010-11-24T15:00:00","4","42.4333333","-8.6166666","108.0","PONTEVEDRA, SP","FM-12","99999","V020","350,1,N,0015,1","22000,1,9,N","020000,1,N,1","+0130,1","+0042,1","10141,1",,,,,,"01,99,1,01,1,00,1,01750,1,03,1,00,1",,,,,"99999,9,10011,1","6,1,005,1,+999,9",,"SYN066AAXX  24154 08044 42770 13503 10130 20042 30011 40141 56005 81030;",
"08044099999","2010-11-24T18:00:00","4","42.4333333","-8.6166666","108.0","PONTEVEDRA, SP","FM-12","99999","V020","360,1,N,0015,1","22000,1,9,N","015000,1,N,1","+0096,1","+0054,1","10151,1","12,0000,9,1",,,,,"01,99,1,01,1,00,1,01750,1,03,1,00,1",,,,"999,M,+0134,1","99999,9,10019,1","1,1,008,1,+999,9",,"SYN082AAXX  24184 08044 12765 13603 10096 20054 30019 40151 51008 60002 81030 333 10134;","Q01  00002PRCP12"
"08044099999","2010-11-25T06:00:00","4","42.4333333","-8.6166666","108.0","PONTEVEDRA, SP","FM-12","99999","V020","090,1,N,0015,1","22000,1,9,N","020000,1,N,1","+0048,1","+0020,1","10161,1","12,0000,9,1","24,0000,9,1",,,"00,1,+99999,9,99,9","00,99,1,00,1,00,1,99999,9,00,1,00,1","0444,9",,,"999,N,+0040,1","99999,9,10027,1","5,1,002,1,+999,9","02,1","SYN100AAXX  25064 08044 11970 00903 10048 20020 30027 40161 55002 60002 702// 333 20040 50124 55074 70000;","Q01  00002PRCP24Q02  00002PRCP12"
"08044099999","2010-11-25T09:00:00","4","42.4333333","-8.6166666","108.0","PONTEVEDRA, SP","FM-12","99999","V020","130,1,N,0010,1","22000,1,9,N","020000,1,N,1","+0039,1","+0027,1","10166,1",,,,,,"01,99,1,01,1,05,1,00800,1,00,1,00,1",,,,,"99999,9,10031,1","3,1,004,1,+999,9",,"SYN066AAXX  25094 08044 42570 11302 10039 20027 30031 40166 53004 81500;",
"08044099999","2010-11-25T15:00:00","4","42.4333333","-8.6166666","108.0","PONTEVEDRA, SP","FM-12","99999","V020","350,1,N,0021,1","22000,1,9,N","015000,1,N,1","+0110,1","+0049,1","10155,1",,,,,,"04,99,1,03,1,05,1,00250,1,00,1,01,1",,,,,"99999,9,10024,1","5,1,008,1,+999,9",,"SYN066AAXX  25154 08044 42365 43504 10110 20049 30024 40155 55008 83501;",
"08044099999","2010-11-25T18:00:00","4","42.4333333","-8.6166666","108.0","PONTEVEDRA, SP","FM-12","99999","V020","360,1,N,0021,1","22000,1,9,N","015000,1,N,1","+0087,1","+0027,1","10156,1","12,0000,9,1",,,,,"01,99,1,01,1,05,1,00450,1,00,1,00,1",,,,"999,M,+0115,1","99999,9,10024,1","5,1,000,1,+999,9",,"SYN082AAXX  25184 08044 12465 13604 10087 20027 30024 40156 55000 60002 81500 333 10115;","Q01  00002PRCP12"
"08044099999","2010-11-26T06:00:00","4","42.4333333","-8.6166666","108.0","PONTEVEDRA, SP","FM-12","99999","V020","140,1,N,0010,1","22000,1,9,N","020000,1,N,1","+0033,1","+0012,1","10154,1","12,0000,9,1","24,0000,9,1",,,"00,1,+99999,9,99,9","00,99,1,00,1,00,1,99999,9,00,1,00,1","0264,9",,,"999,N,+0032,1","99999,9,10019,1","6,1,010,1,+999,9","00,1","SYN100AAXX  26064 08044 11970 01402 10033 20012 30019 40154 56010 60002 700// 333 20032 50104 55044 70000;","Q01  00002PRCP24Q02  00002PRCP12"
"08044099999","2010-11-26T09:00:00","4","42.4333333","-8.6166666","108.0","PONTEVEDRA, SP","FM-12","99999","V020","050,1,N,0015,1","22000,1,9,N","020000,1,N,1","+0051,1","+0005,1","10151,1",,,,,,"01,99,1,00,1,00,1,99999,9,00,1,01,1",,,,,"99999,9,10017,1","6,1,002,1,+999,9",,"SYN066AAXX  26094 08044 42970 10503 10051 20005 30017 40151 56002 80001;",
"08044099999","2010-11-26T12:00:00","4","42.4333333","-8.6166666","108.0","PONTEVEDRA, SP","FM-12","99999","V020","360,1,N,0026,1","22000,1,9,N","020000,1,N,1","+0100,1","+0019,1","10131,1","06,0000,9,1",,,,,"03,99,1,01,1,05,1,00250,1,00,1,01,1",,,,,"99999,9,10000,1","8,1,017,1,+999,9",,"SYN072AAXX  26124 08044 12370 33605 10100 20019 30000 40131 58017 60001 81501;","Q01  00002PRCP06"
"08044099999","2010-11-26T15:00:00","4","42.4333333","-8.6166666","108.0","PONTEVEDRA, SP","FM-12","99999","V020","340,1,N,0036,1","22000,1,9,N","020000,1,N,1","+0102,1","+0023,1","10105,1",,,,,,"04,99,1,01,1,05,1,00250,1,00,1,08,1",,,,,"99999,9,09974,1","7,1,026,1,+999,9",,"SYN066AAXX  26154 08044 42370 43407 10102 20023 39974 40105 57026 81508;",
"08044099999","2010-11-26T18:00:00","4","42.4333333","-8.6166666","108.0","PONTEVEDRA, SP","FM-12","99999","V020","360,1,N,0015,1","22000,1,9,N","020000,1,N,1","+0078,1","+0016,1","10103,1","12,0000,9,1",,,,,"02,99,1,00,1,00,1,99999,9,00,1,08,1",,,,"999,M,+0105,1","99999,9,09971,1","6,1,003,1,+999,9",,"SYN082AAXX  26184 08044 12970 23603 10078 20016 39971 40103 56003 60002 80008 333 10105;","Q01  00002PRCP12"
"08044099999","2010-11-27T06:00:00","4","42.4333333","-8.6166666","108.0","PONTEVEDRA, SP","FM-12","99999","V020","090,1,N,0015,1","22000,1,9,N","020000,1,N,1","+0040,1","+0014,1","10067,1","12,0000,9,1","24,0000,9,1",,,,"01,99,1,00,1,00,1,99999,9,00,1,02,1","0408,9",,,"999,N,+0029,1","99999,9,09934,1","6,1,011,1,+999,9",,"SYN100AAXX  27064 08044 12870 10903 10040 20014 39934 40067 56011 60002 80002 333 20029 50144 55068 70000;","Q01+022502SCOLCBQ02  00002PRCP24Q03  00002PRCP12"
"08044099999","2010-11-27T09:00:00","4","42.4333333","-8.6166666","108.0","PONTEVEDRA, SP","FM-12","99999","V020","050,1,N,0005,1","22000,1,9,N","020000,1,N,1","+0037,1","+0019,1","10066,1",,,,,,"03,99,1,02,1,05,1,00450,1,00,1,01,1",,,,,"99999,9,09933,1","6,1,001,1,+999,9",,"SYN066AAXX  27094 08044 42470 30501 10037 20019 39933 40066 56001 82501;",
"08044099999","2010-11-27T12:00:00","4","42.4333333","-8.6166666","108.0","PONTEVEDRA, SP","FM-12","99999","V020","320,1,N,0031,1","00900,1,9,N","020000,1,N,1","+0092,1","+0048,1","10053,1","06,0000,9,1",,,,,"05,99,1,05,1,08,1,00450,1,00,1,00,1",,,,,"99999,9,09922,1","8,1,011,1,+999,9",,"SYN072AAXX  27124 08044 12470 53206 10092 20048 39922 40053 58011 60001 85800;","Q01  00002PRCP06"
"08044099999","2010-11-27T15:00:00","4","42.4333333","-8.6166666","108.0","PONTEVEDRA, SP","FM-12","99999","V020","290,1,N,0036,1","09000,1,9,N","020000,1,N,1","+0103,1","+0024,1","10038,1",,,,,,"05,99,1,04,1,08,1,00450,1,00,1,02,1",,,,,"99999,9,09908,1","7,1,014,1,+999,9",,"SYN066AAXX  27154 08044 42470 52907 10103 20024 39908 40038 57014 84802;",
"08044099999","2010-11-27T18:00:00","4","42.4333333","-8.6166666","108.0","PONTEVEDRA, SP","FM-12","99999","V020","110,1,N,0010,1","22000,1,9,N","020000,1,N,1","+0069,1","+0044,1","10040,1","12,0000,9,1",,,,,"03,99,1,03,1,05,1,00450,1,00,1,00,1",,,,"999,M,+0105,1","99999,9,09909,1","3,1,001,1,+999,9",,"SYN082AAXX  27184 08044 12470 31102 10069 20044 39909 40040 53001 60002 83500 333 10105;","Q01  00002PRCP12"
"08044099999","2010-11-28T06:00:00","4","42.4333333","-8.6166666","108.0","PONTEVEDRA, SP","FM-12","99999","V020","100,1,N,0021,1","22000,1,9,N","020000,1,N,1","+0008,1","-0001,1","10065,1","12,0000,9,1","24,0000,9,1",,,,"01,99,1,00,1,00,1,99999,9,00,1,02,1","0354,9",,,"999,N,+0006,1","99999,9,09930,1","1,1,005,1,+999,9","02,1","SYN106AAXX  28064 08044 11970 11004 10008 21001 39930 40065 51005 69902 702// 80002 333 20006 50084 55059 79999;","Q01  00002PRCP24Q02  00002PRCP12"
"08044099999","2010-11-28T09:00:00","4","42.4333333","-8.6166666","108.0","PONTEVEDRA, SP","FM-12","99999","V020","140,1,N,0015,1","22000,1,9,N","020000,1,N,1","+0012,1","+0000,1","10082,1",,,,,,"01,99,1,01,1,05,1,00450,1,00,1,00,1",,,,,"99999,9,09947,1","1,1,017,1,+999,9",,"SYN066AAXX  28094 08044 42470 11403 10012 20000 39947 40082 51017 81500;",
"08044099999","2010-11-28T12:00:00","4","42.4333333","-8.6166666","108.0","PONTEVEDRA, SP","FM-12","99999","V020","080,1,N,0010,1","22000,1,9,N","020000,1,N,1","+0068,1","+0013,1","10084,1","06,0000,9,1",,,,,"01,99,1,01,1,05,1,00250,1,00,1,00,1",,,,,"99999,9,09952,1","1,1,005,1,+999,9",,"SYN072AAXX  28124 08044 12370 10802 10068 20013 39952 40084 51005 60001 81500;","Q01  00002PRCP06"
"08044099999","2010-11-28T15:00:00","4","42.4333333","-8.6166666","108.0","PONTEVEDRA, SP","FM-12","99999","V020","320,1,N,0021,1","22000,1,9,N","020000,1,N,1","+0079,1","+0011,1","10079,1",,,,,,"02,99,1,02,1,08,1,00250,1,00,1,00,1",,,,,"99999,9,09947,1","7,1,005,1,+999,9",,"SYN066AAXX  28154 08044 42370 23204 10079 20011 39947 40079 57005 82800;",
"08044099999","2010-11-28T18:00:00","4","42.4333333","-8.6166666","108.0","PONTEVEDRA, SP","FM-12","99999","V020","050,1,N,0015,1","22000,1,9,N","020000,1,N,1","+0047,1","+0014,1","10081,1","12,0000,9,1",,,,,"01,99,1,01,1,05,1,00250,1,00,1,00,1",,,,"999,M,+0081,1","99999,9,09948,1","3,1,001,1,+999,9",,"SYN082AAXX  28184 08044 12370 10503 10047 20014 39948 40081 53001 60002 81500 333 10081;","Q01  00002PRCP12"
"08044099999","2010-11-29T06:00:00","4","42.4333333","-8.6166666","108.0","PONTEVEDRA, SP","FM-12","99999","V020","080,1,N,0026,1","22000,1,9,N","020000,1,N,1","+0012,1","-0014,1","10029,1","12,0000,9,1","24,0000,9,1",,,,"01,99,1,00,1,00,1,99999,9,00,1,01,1","0426,9",,,"999,N,+0002,1","99999,9,09895,1","6,1,020,1,+999,9","02,1","SYN106AAXX  29064 08044 11970 10805 10012 21014 39895 40029 56020 60002 702// 80001 333 20002 50074 55071 70000;","Q01  00002PRCP24Q02  00002PRCP12"
"08044099999","2010-11-29T09:00:00","4","42.4333333","-8.6166666","108.0","PONTEVEDRA, SP","FM-12","99999","V020","090,1,N,0026,1","09000,1,9,N","020000,1,N,1","+0028,1","-0017,1","10018,1",,,,,,"06,99,1,01,1,08,1,00450,1,00,1,02,1",,,,,"99999,9,09885,1","7,1,010,1,+999,9",,"SYN066AAXX  29094 08044 42470 60905 10028 21017 39885 40018 57010 81802;",
"08044099999","2010-11-29T12:00:00","4","42.4333333","-8.6166666","108.0","PONTEVEDRA, SP","FM-12","99999","V020","100,1,N,0010,1","00750,1,9,N","017000,1,N,1","+0058,1","+0013,1","09995,1","06,0000,9,1",,,,,"07,99,1,07,1,05,1,00800,1,07,1,02,1",,,,,"99999,9,09864,1","7,1,021,1,+999,9",,"SYN072AAXX  29124 08044 12567 71002 10058 20013 39864 49995 57021 60001 87572;","Q01  00002PRCP06"
"08044099999","2010-11-29T15:00:00","4","42.4333333","-8.6166666","108.0","PONTEVEDRA, SP","FM-12","99999","V020","120,1,N,0010,1","01500,1,9,N","017000,1,N,1","+0073,1","+0020,1","09971,1",,,,,,"08,99,1,08,1,00,1,01750,1,07,1,99,9",,,,,"99999,9,09841,1","7,1,023,1,+999,9",,"SYN066AAXX  29154 08044 42767 81202 10073 20020 39841 49971 57023 8807/;",
"08044099999","2010-11-29T18:00:00","4","42.4333333","-8.6166666","108.0","PONTEVEDRA, SP","FM-12","99999","V020","080,1,N,0021,1","01500,1,9,N","015000,1,N,1","+0047,1","+0019,1","09969,1","12,0020,9,1",,"6,1,06,1","2,1,06,1",,"08,99,1,08,1,00,1,01750,1,07,1,99,9",,,,"999,M,+0078,1","99999,9,09837,1","8,1,004,1,+999,9","61,1","SYN088AAXX  29184 08044 11765 80804 10047 20019 39837 49969 58004 60022 76162 8807/ 333 10078;",
"08044099999","2010-11-30T06:00:00","4","42.4333333","-8.6166666","108.0","PONTEVEDRA, SP","FM-12","99999","V020","150,1,N,0031,1","00600,1,9,N","015000,1,N,1","+0062,1","+0039,1","09924,1","12,0071,9,1","24,0091,9,1",,,,"08,99,1,05,1,08,1,00250,1,07,1,99,9","0000,9",,,"999,N,+0035,1","99999,9,09794,1","8,1,008,1,+999,9","60,1","SYN106AAXX  30064 08044 11365 81506 10062 20039 39794 49924 58008 60072 760// 8587/ 333 20035 50074 55000 70092;",
"08044099999","2010-11-30T09:00:00","4","42.4333333","-8.6166666","108.0","PONTEVEDRA, SP","FM-12","99999","V020","110,1,N,0026,1","00600,1,9,N","017000,1,N,1","+0050,1","+0037,1","09927,1",,,"8,1,03,1","2,1,03,1",,"08,99,1,06,1,08,1,00250,1,07,1,99,9",,,,,"99999,9,09796,1","0,1,002,1,+999,9","25,1","SYN072AAXX  30094 08044 41367 81105 10050 20037 39796 49927 50002 72582 8687/;",
"08044099999","2010-11-30T12:00:00","4","42.4333333","-8.6166666","108.0","PONTEVEDRA, SP","FM-12","99999","V020","160,1,N,0031,1","00600,1,9,N","017000,1,N,1","+0065,1","+0061,1","09926,1","06,0079,9,1",,"8,1,06,1","2,1,06,1",,"08,99,1,06,1,08,1,00250,1,07,1,99,9",,,,,"99999,9,09796,1","4,1,000,1,+999,9","25,1","SYN078AAXX  30124 08044 11367 81606 10065 20061 39796 49926 54000 60081 72582 8687/;",
"08044099999","2010-11-30T15:00:00","4","42.4333333","-8.6166666","108.0","PONTEVEDRA, SP","FM-12","99999","V020","160,1,N,0021,1","00210,1,9,N","015000,1,N,1","+0082,1","+0070,1","09926,1",,,"8,1,03,1","2,1,03,1",,"07,99,1,06,1,09,1,00250,1,00,1,03,1",,,,,"99999,9,09797,1","1,1,001,1,+999,9","17,1","SYN072AAXX  30154 08044 41365 71604 10082 20070 39797 49926 51001 71782 86903;",
"08044099999","2010-11-30T18:00:00","4","42.4333333","-8.6166666","108.0","PONTEVEDRA, SP","FM-12","99999","V020","130,1,N,0015,1","00600,1,9,N","015000,1,N,1","+0055,1","+0046,1","09942,1","12,0140,9,1",,"9,1,06,1","8,1,06,1",,"07,99,1,07,1,08,1,00250,1,99,9,99,9",,,,"999,M,+0085,1","99999,9,09811,1","3,1,014,1,+999,9","02,1","SYN088AAXX  30184 08044 11365 71303 10055 20046 39811 49942 53014 60142 70298 878// 333 10085;",
"08044099999","2010-12-01T06:00:00","4","42.4333333","-8.6166666","108.0","PONTEVEDRA, SP","FM-12","99999","V020","040,1,N,0010,1","00600,1,9,N","015000,1,N,1","+0052,1","+0043,1","10020,1","12,0051,9,1","24,0188,9,1",,,,"07,99,1,07,1,08,1,00250,1,99,9,99,9","0030,9",,,"999,N,+0050,1","99999,9,09888,1","2,1,021,1,+999,9","02,1","SYN106AAXX  01064 08044 11365 70402 10052 20043 39888 40020 52021 60052 702// 878// 333 20050 50034 55005 70189;",
"08044099999","2010-12-01T09:00:00","4","42.4333333","-8.6166666","108.0","PONTEVEDRA, SP","FM-12","99999","V020","050,1,N,0031,1","22000,1,9,N","020000,1,N,1","+0058,1","+0021,1","10051,1",,,,,,"02,99,1,01,1,05,1,00250,1,00,1,02,1",,,,,"99999,9,09919,1","2,1,031,1,+999,9",,"SYN066AAXX  01094 08044 42370 20506 10058 20021 39919 40051 52031 81502;",
"08044099999","2010-12-01T12:00:00","4","42.4333333","-8.6166666","108.0","PONTEVEDRA, SP","FM-12","99999","V020","290,1,N,0026,1","22000,1,9,N","017000,1,N,1","+0082,1","+0037,1","10066,1","06,0000,9,1",,,,,"05,99,1,02,1,05,1,00450,1,00,1,08,1",,,,,"99999,9,09935,1","1,1,016,1,+999,9",,"SYN072AAXX  01124 08044 12467 52905 10082 20037 39935 40066 51016 60001 82508;","Q01  00002PRCP06"
"08044099999","2010-12-01T15:00:00","4","42.4333333","-8.6166666","108.0","PONTEVEDRA, SP","FM-12","99999","V020","220,1,N,0010,1","09000,1,9,N","020000,1,N,1","+0087,1","+0039,1","10072,1",,,,,,"06,99,1,03,1,05,1,00450,1,00,1,08,1",,,,,"99999,9,09941,1","1,1,006,1,+999,9",,"SYN066AAXX  01154 08044 42470 62202 10087 20039 39941 40072 51006 83508;",
"08044099999","2010-12-01T18:00:00","4","42.4333333","-8.6166666","108.0","PONTEVEDRA, SP","FM-12","99999","V020","080,1,N,0026,1","00900,1,9,N","020000,1,N,1","+0050,1","+0020,1","10091,1","12,0003,9,1",,"9,1,06,1","8,1,06,1",,"06,99,1,05,1,08,1,00450,1,00,1,03,1",,,,"999,M,+0096,1","99999,9,09958,1","1,1,017,1,+999,9","02,1","SYN088AAXX  01184 08044 11470 60805 10050 20020 39958 40091 51017 69932 70298 85803 333 10096;",
"08044099999","2010-12-02T06:00:00","4","42.4333333","-8.6166666","108.0","PONTEVEDRA, SP","FM-12","99999","V020","070,1,N,0026,1","22000,1,9,N","012000,1,N,1","+0012,1","+0006,1","10122,1","12,0051,9,1","24,0053,9,1",,,,"01,99,1,01,1,00,1,02250,1,03,1,01,1","0180,9","11,9","999,-0010,9","999,N,+0010,1","99999,9,09987,1","3,1,003,1,+999,9","02,1","SYN112AAXX  02064 08044 11862 10705 10012 20006 39987 40122 53003 60052 702// 81031 333 20010 32101 50064 55030 70053;",
"08044099999","2010-12-02T09:00:00","4","42.4333333","-8.6166666","108.0","PONTEVEDRA, SP","FM-12","99999","V020","040,1,N,0021,1","03600,1,9,N","015000,1,N,1","+0011,1","+0002,1","10138,1",,,,,,"07,99,1,02,1,08,1,00800,1,07,1,02,1",,,,,"99999,9,10002,1","2,1,015,1,+999,9",,"SYN066AAXX  02094 08044 42565 70404 10011 20002 30002 40138 52015 82872;",
"08044099999","2010-12-02T12:00:00","4","42.4333333","-8.6166666","108.0","PONTEVEDRA, SP","FM-12","99999","V020","310,1,N,0015,1","00900,1,9,N","012000,1,N,1","+0044,1","+0040,1","10141,1","06,0005,9,1",,"6,1,06,1","2,1,06,1",,"07,99,1,06,1,08,1,00450,1,07,1,01,1",,,,,"99999,9,10007,1","0,1,005,1,+999,9","02,1","SYN078AAXX  02124 08044 11462 73103 10044 20040 30007 40141 50005 69961 70262 86871;",
"08044099999","2010-12-02T15:00:00","4","42.4333333","-8.6166666","108.0","PONTEVEDRA, SP","FM-12","99999","V020","320,1,N,0010,1","01200,1,9,N","004000,1,N,1","+0044,1","+0040,1","10105,1",,,"6,1,03,1","2,1,03,1",,"08,99,1,07,1,08,1,00800,1,07,1,99,9",,,,,"99999,9,09972,1","7,1,035,1,+999,9","60,1","SYN072AAXX  02154 08044 41540 83202 10044 20040 39972 40105 57035 76062 8787/;",
"08044099999","2010-12-02T18:00:00","4","42.4333333","-8.6166666","108.0","PONTEVEDRA, SP","FM-12","99999","V020","180,1,N,0010,1","00900,1,9,N","015000,1,N,1","+0034,1","+0027,1","10119,1","12,0071,9,1",,"6,1,06,1","2,1,06,1",,"06,99,1,05,1,08,1,00450,1,07,1,00,1",,,,"999,M,+0048,1","99999,9,09985,1","3,1,013,1,+999,9","02,1","SYN088AAXX  02184 08044 11465 61802 10034 20027 39985 40119 53013 60072 70262 85870 333 10048;",
"08044099999","2010-12-03T06:00:00","4","42.4333333","-8.6166666","108.0","PONTEVEDRA, SP","FM-12","99999","V020","070,1,N,0015,1","22000,1,9,N","012000,1,N,1","+0000,1","-0006,1","10202,1","12,0000,9,1","24,0069,9,1",,,,"01,99,1,00,1,00,1,99999,9,00,1,01,1","0018,9","14,9","999,-0020,9","999,N,-0004,1","99999,9,10065,1","1,1,012,1,+999,9","02,1","SYN112AAXX  03064 08044 11962 10703 10000 21006 30065 40202 51012 60002 702// 80001 333 21004 34102 50014 55003 70068;","Q01  00002PRCP12"
"08044099999","2010-12-03T09:00:00","4","42.4333333","-8.6166666","108.0","PONTEVEDRA, SP","FM-12","99999","V020","100,1,N,0015,1","22000,1,9,N","020000,1,N,1","+0006,1","-0005,1","10226,1",,,,,,"02,99,1,01,1,05,1,00800,1,03,1,01,1",,,,,"99999,9,10089,1","1,1,024,1,+999,9",,"SYN066AAXX  03094 08044 42570 21003 10006 21005 30089 40226 51024 81531;",
"08044099999","2010-12-03T12:00:00","4","42.4333333","-8.6166666","108.0","PONTEVEDRA, SP","FM-12","99999","V020","350,1,N,0010,1","22000,1,9,N","015000,1,N,1","+0056,1","+0021,1","10227,1","06,0000,9,1",,,,,"03,99,1,01,1,01,1,00800,1,07,1,01,1",,,,,"99999,9,10092,1","1,1,003,1,+999,9",,"SYN072AAXX  03124 08044 12565 33502 10056 20021 30092 40227 51003 60001 81171;","Q01  00002PRCP06"
"08044099999","2010-12-03T15:00:00","4","42.4333333","-8.6166666","108.0","PONTEVEDRA, SP","FM-12","99999","V020","160,1,N,0010,1","03600,1,9,N","012000,1,N,1","+0076,1","+0049,1","10222,1",,,,,,"07,99,1,03,1,08,1,00800,1,05,1,99,9",,,,,"99999,9,10089,1","6,1,003,1,+999,9",,"SYN066AAXX  03154 08044 42562 71602 10076 20049 30089 40222 56003 8385/;",
"08044099999","2010-12-03T18:00:00","4","42.4333333","-8.6166666","108.0","PONTEVEDRA, SP","FM-12","99999","V020","060,1,N,0021,1","03600,1,9,N","008000,1,N,1","+0060,1","+0042,1","10221,1","12,0000,9,1",,"2,1,06,1","2,1,06,1",,"07,99,1,03,1,08,1,00800,1,03,1,00,1",,,,"999,M,+0084,1","99999,9,10087,1","6,1,002,1,+999,9","10,1","SYN088AAXX  03184 08044 11558 70604 10060 20042 30087 40221 56002 60002 71022 83830 333 10084;","Q01  00002PRCP12"
"08044099999","2010-12-04T06:00:00","4","42.4333333","-8.6166666","108.0","PONTEVEDRA, SP","FM-12","99999","V020","250,1,N,0010,1","22000,1,9,N","015000,1,N,1","+0023,1","+0004,1","10168,1","12,0000,9,1","24,0000,9,1",,,,"02,99,1,01,1,00,1,02250,1,03,1,01,1","0264,9","09,9","999,+0000,9","999,N,+0020,1","99999,9,10033,1","7,1,027,1,+999,9","02,1","SYN112AAXX  04064 08044 11865 22502 10023 20004 30033 40168 57027 60002 702// 81031 333 20020 31100 50034 55044 70000;","Q01  00002PRCP24Q02  00002PRCP12"
"08044099999","2010-12-04T09:00:00","4","42.4333333","-8.6166666","108.0","PONTEVEDRA, SP","FM-12","99999","V020","040,1,N,0010,1","99999,9,9,N","030000,1,N,1","+0034,1","-0004,1","10156,1",,,,,,"06,99,1,03,1,00,1,99999,9,01,1,01,1",,,,,"99999,9,10021,1","5,1,012,1,+999,9",,"SYN066AAXX  04094 08044 42980 60402 10034 21004 30021 40156 55012 83011;",
"08044099999","2010-12-04T12:00:00","4","42.4333333","-8.6166666","108.0","PONTEVEDRA, SP","FM-12","99999","V020","160,1,N,0015,1","99999,9,9,N","012000,1,N,1","+0056,1","+0015,1","10144,1","06,0000,9,1",,,,,"08,99,1,08,1,00,1,99999,9,01,1,99,9",,,,,"99999,9,10011,1","8,1,010,1,+999,9",,"SYN072AAXX  04124 08044 12962 81603 10056 20015 30011 40144 58010 60001 8801/;","Q01  00002PRCP06"
"08044099999","2010-12-04T15:00:00","4","42.4333333","-8.6166666","108.0","PONTEVEDRA, SP","FM-12","99999","V020","150,1,N,0031,1","02100,1,9,N","010000,1,N,1","+0068,1","+0000,1","10108,1",,,,,,"08,99,1,08,1,00,1,02250,1,07,1,99,9",,,,,"99999,9,09976,1","7,1,035,1,+999,9",,"SYN066AAXX  04154 08044 42860 81506 10068 20000 39976 40108 57035 8807/;",
"08044099999","2010-12-04T18:00:00","4","42.4333333","-8.6166666","108.0","PONTEVEDRA, SP","FM-12","99999","V020","150,1,N,0021,1","02100,1,9,N","008000,1,N,1","+0076,1","-0011,1","10094,1","12,0000,9,1",,"2,1,06,1","2,1,06,1",,"08,99,1,08,1,00,1,02250,1,07,1,99,9",,,,"999,M,+0084,1","99999,9,09962,1","8,1,014,1,+999,9","05,1","SYN088AAXX  04184 08044 11858 81504 10076 21011 39962 40094 58014 60002 70522 8807/ 333 10084;","Q01  00002PRCP12"
"08044099999","2010-12-05T06:00:00","4","42.4333333","-8.6166666","108.0","PONTEVEDRA, SP","FM-12","99999","V020","140,1,N,0026,1","00900,1,9,N","006000,1,N,1","+0114,1","+0098,1","09997,1","12,0079,9,2","24,0076,9,2",,,,"08,99,1,05,1,08,1,00450,1,07,1,99,9","0000,9","11,9","999,+0040,9","999,N,+0067,1","99999,9,09868,1","7,1,028,1,+999,9","60,1","SYN112AAXX  05064 08044 11456 81405 10114 20098 39868 49997 57028 60082 760// 8587/ 333 20067 32004 50104 55000 70077;",
"08044099999","2010-12-05T09:00:00","4","42.4333333","-8.6166666","108.0","PONTEVEDRA, SP","FM-12","99999","V020","150,1,N,0067,1","00420,1,9,N","015000,1,N,1","+0132,1","+0102,1","09989,1",,,"6,1,03,1","2,1,03,1",,"08,99,1,07,1,02,1,00450,1,03,1,01,1",,,,,"99999,9,09861,1","8,1,007,1,+999,9","02,1","SYN072AAXX  05094 08044 41465 81513 10132 20102 39861 49989 58007 70262 87231;",
"08044099999","2010-12-05T12:00:00","4","42.4333333","-8.6166666","108.0","PONTEVEDRA, SP","FM-12","99999","V020","150,1,N,0072,1","00420,1,9,N","015000,1,N,1","+0132,1","+0118,1","09985,1","06,0109,9,1",,"8,1,06,1","6,1,06,1",,"08,99,1,07,1,02,1,00450,1,07,1,99,9",,,,,"99999,9,09857,1","8,1,004,1,+999,9","21,1","SYN078AAXX  05124 08044 11465 81514 10132 20118 39857 49985 58004 60111 72186 8727/;",
"08044099999","2010-12-05T15:00:00","4","42.4333333","-8.6166666","108.0","PONTEVEDRA, SP","FM-12","99999","V020","150,1,N,0072,1","00900,1,9,N","002000,1,N,1","+0144,1","+0133,1","09957,1",,,"8,1,03,1","6,1,03,1",,"08,99,1,07,1,08,1,00450,1,07,1,99,9",,,,,"99999,9,09830,1","7,1,027,1,+999,9","81,1","SYN072AAXX  05154 08044 41420 81514 10144 20133 39830 49957 57027 78186 8787/;",
"08044099999","2010-12-05T18:00:00","4","42.4333333","-8.6166666","108.0","PONTEVEDRA, SP","FM-12","99999","V020","160,1,N,0051,1","00900,1,9,N","006000,1,N,1","+0148,1","+0145,1","09949,1","12,0310,9,1",,"8,1,06,1","6,1,06,1",,"08,99,1,07,1,08,1,00450,1,07,1,99,9",,,,"999,M,+0148,1","99999,9,09823,1","8,1,007,1,+999,9","10,1","SYN088AAXX  05184 08044 11456 81610 10148 20145 39823 49949 58007 60312 71086 8787/ 333 10148;",
"08044099999","2010-12-06T06:00:00","4","42.4333333","-8.6166666","108.0","PONTEVEDRA, SP","FM-12","99999","V020","190,1,N,0015,1","00600,1,9,N","001000,1,N,1","+0152,1","+0149,1","09935,1","12,0191,9,1","24,0495,9,1",,,,"08,99,1,08,1,08,1,00250,1,99,9,99,9","0000,9","11,9","999,+0120,9","999,N,+0146,1","99999,9,09809,1","6,1,006,1,+999,9","62,1","SYN112AAXX  06064 08044 11310 81903 10152 20149 39809 49935 56006 60192 762// 888// 333 20146 32012 50044 55000 70495;",
"08044099999","2010-12-06T09:00:00","4","42.4333333","-8.6166666","108.0","PONTEVEDRA, SP","FM-12","99999","V020","300,1,N,0010,1","00600,1,9,N","005000,1,N,1","+0138,1","+0135,1","09962,1",,,"6,1,03,1","4,1,03,1",,"07,99,1,07,1,08,1,00250,1,00,1,00,1",,,,,"99999,9,09835,1","3,1,026,1,+999,9","60,1","SYN072AAXX  06094 08044 41350 73002 10138 20135 39835 49962 53026 76064 87800;",
"08044099999","2010-12-06T12:00:00","4","42.4333333","-8.6166666","108.0","PONTEVEDRA, SP","FM-12","99999","V020","190,1,N,0021,1","00600,1,9,N","010000,1,N,1","+0148,1","+0130,1","09981,1","06,0041,9,1",,"8,1,06,1","6,1,06,1",,"07,99,1,07,1,08,1,00250,1,00,1,00,1",,,,,"99999,9,09854,1","1,1,019,1,+999,9","02,1","SYN078AAXX  06124 08044 11360 71904 10148 20130 39854 49981 51019 60041 70286 87800;",
"08044099999","2010-12-06T15:00:00","4","42.4333333","-8.6166666","108.0","PONTEVEDRA, SP","FM-12","99999","V020","170,1,N,0026,1","03600,1,9,N","010000,1,N,1","+0144,1","+0126,1","09980,1",,,"6,1,03,1","2,1,03,1",,"06,99,1,04,1,08,1,00250,1,03,1,01,1",,,,,"99999,9,09853,1","5,1,001,1,+999,9","02,1","SYN072AAXX  06154 08044 41360 61705 10144 20126 39853 49980 55001 70262 84831;",
"08044099999","2010-12-06T18:00:00","4","42.4333333","-8.6166666","108.0","PONTEVEDRA, SP","FM-12","99999","V020","150,1,N,0021,1","03600,1,9,N","006000,1,N,1","+0132,1","+0121,1","09964,1","12,0051,9,1",,"6,1,06,1","2,1,06,1",,"07,99,1,04,1,08,1,00450,1,03,1,01,1",,,,"999,M,+0156,1","99999,9,09837,1","8,1,016,1,+999,9","10,1","SYN088AAXX  06184 08044 11456 71504 10132 20121 39837 49964 58016 60052 71062 84831 333 10156;",
"08044099999","2010-12-07T06:00:00","4","42.4333333","-8.6166666","108.0","PONTEVEDRA, SP","FM-12","99999","V020","160,1,N,0021,1","22000,1,9,N","006000,1,N,1","+0119,1","+0113,1","09955,1","12,0071,9,1","24,0119,9,1",,,,"04,99,1,03,1,08,1,00450,1,03,1,00,1","0072,9","11,9","999,+0100,9","999,N,+0119,1","99999,9,09827,1","0,1,006,1,+999,9","10,1","SYN112AAXX  07064 08044 11456 41604 10119 20113 39827 49955 50006 60072 710// 83830 333 20119 32010 50044 55012 70119;",
"08044099999","2010-12-07T09:00:00","4","42.4333333","-8.6166666","108.0","PONTEVEDRA, SP","FM-12","99999","V020","140,1,N,0015,1","22000,1,9,N","010000,1,N,1","+0120,1","+0109,1","09954,1",,,,,,"03,99,1,02,1,02,1,00250,1,03,1,01,1",,,,,"99999,9,09826,1","5,1,001,1,+999,9",,"SYN066AAXX  07094 08044 42360 31403 10120 20109 39826 49954 55001 82231;",
"08044099999","2010-12-07T12:00:00","4","42.4333333","-8.6166666","108.0","PONTEVEDRA, SP","FM-12","99999","V020","220,1,N,0010,1","22000,1,9,N","012000,1,N,1","+0154,1","+0122,1","09951,1","06,0000,9,1",,,,,"03,99,1,01,1,02,1,00450,1,03,1,01,1",,,,,"99999,9,09825,1","8,1,001,1,+999,9",,"SYN072AAXX  07124 08044 12462 32202 10154 20122 39825 49951 58001 60001 81231;","Q01  00002PRCP06"
"08044099999","2010-12-07T15:00:00","4","42.4333333","-8.6166666","108.0","PONTEVEDRA, SP","FM-12","99999","V020","150,1,N,0031,1","00900,1,9,N","006000,1,N,1","+0140,1","+0122,1","09938,1",,,"6,1,03,1","2,1,03,1",,"08,99,1,07,1,08,1,00450,1,07,1,99,9",,,,,"99999,9,09811,1","7,1,014,1,+999,9","62,1","SYN072AAXX  07154 08044 41456 81506 10140 20122 39811 49938 57014 76262 8787/;",
"08044099999","2010-12-08T06:00:00","4","42.4333333","-8.6166666","108.0","PONTEVEDRA, SP","FM-12","99999","V020","190,1,N,0021,1","00600,1,9,N","002000,1,N,1","+0126,1","+0115,1","09976,1","12,0239,9,1","24,0353,9,1",,,,"08,99,1,07,1,08,1,00250,1,07,1,99,9","0156,9","11,9","999,+0120,9","999,N,+0122,1","99999,9,09848,1","2,1,026,1,+999,9","80,1","SYN112AAXX  08064 08044 11320 81904 10126 20115 39848 49976 52026 60242 780// 8787/ 333 20122 32012 50034 55026 70354;",
"08044099999","2010-12-08T09:00:00","4","42.4333333","-8.6166666","108.0","PONTEVEDRA, SP","FM-12","99999","V020","350,1,N,0021,1","00750,1,9,N","020000,1,N,1","+0104,1","+0088,1","10039,1",,,"8,1,03,1","2,1,03,1",,"07,99,1,06,1,02,1,00800,1,03,1,00,1",,,,,"99999,9,09909,1","2,1,061,1,+999,9","02,1","SYN072AAXX  08094 08044 41570 73504 10104 20088 39909 40039 52061 70282 86230;",
"08044099999","2010-12-08T12:00:00","4","42.4333333","-8.6166666","108.0","PONTEVEDRA, SP","FM-12","99999","V020","020,1,N,0021,1","03600,1,9,N","020000,1,N,1","+0124,1","+0092,1","10062,1","06,0005,9,1",,"8,1,06,1","2,1,06,1",,"05,99,1,04,1,08,1,00450,1,04,1,00,1",,,,,"99999,9,09933,1","1,1,024,1,+999,9","02,1","SYN078AAXX  08124 08044 11470 50204 10124 20092 39933 40062 51024 69941 70282 84840;",
"08044099999","2010-12-08T15:00:00","4","42.4333333","-8.6166666","108.0","PONTEVEDRA, SP","FM-12","99999","V020","030,1,N,0021,1","03600,1,9,N","020000,1,N,1","+0126,1","+0091,1","10069,1",,,,,,"06,99,1,04,1,08,1,00450,1,04,1,02,1",,,,,"99999,9,09940,1","3,1,007,1,+999,9",,"SYN066AAXX  08154 08044 42470 60304 10126 20091 39940 40069 53007 84842;",
"08044099999","2010-12-08T18:00:00","4","42.4333333","-8.6166666","108.0","PONTEVEDRA, SP","FM-12","99999","V020","360,1,N,0021,1","00900,1,9,N","015000,1,N,1","+0116,1","+0085,1","10097,1","12,0005,9,1",,,,,"05,99,1,05,1,08,1,00450,1,00,1,00,1",,,,"999,M,+0132,1","99999,9,09967,1","2,1,027,1,+999,9",,"SYN082AAXX  08184 08044 12465 53604 10116 20085 39967 40097 52027 69942 85800 333 10132;",
"08044099999","2010-12-09T06:00:00","4","42.4333333","-8.6166666","108.0","PONTEVEDRA, SP","FM-12","99999","V020","060,1,N,0021,1","22000,1,9,N","015000,1,N,1","+0096,1","+0060,1","10165,1","12,0000,9,1","24,0005,9,1",,,,"02,99,1,00,1,00,1,99999,9,00,1,01,1","0084,9",,,"999,N,+0096,1","99999,9,10033,1","3,1,007,1,+999,9","02,1","SYN106AAXX  09064 08044 11965 20604 10096 20060 30033 40165 53007 60002 702// 80001 333 20096 50044 55014 70004;","Q01  00002PRCP12"
"08044099999","2010-12-09T09:00:00","4","42.4333333","-8.6166666","108.0","PONTEVEDRA, SP","FM-12","99999","V020","080,1,N,0015,1","99999,9,9,N","020000,1,N,1","+0109,1","+0066,1","10177,1",,,,,,"06,99,1,00,1,00,1,99999,9,00,1,04,1",,,,,"99999,9,10046,1","2,1,013,1,+999,9",,"SYN066AAXX  09094 08044 42970 60803 10109 20066 30046 40177 52013 80004;",
"08044099999","2010-12-09T12:00:00","4","42.4333333","-8.6166666","108.0","PONTEVEDRA, SP","FM-12","99999","V020","040,1,N,0021,1","22000,1,9,N","020000,1,N,1","+0148,1","+0081,1","10182,1","06,0000,9,1",,,,,"05,99,1,04,1,00,1,01750,1,05,1,04,1",,,,,"99999,9,10052,1","0,1,006,1,+999,9",,"SYN072AAXX  09124 08044 12770 50404 10148 20081 30052 40182 50006 60001 84054;","Q01  00002PRCP06"
"08044099999","2010-12-09T15:00:00","4","42.4333333","-8.6166666","108.0","PONTEVEDRA, SP","FM-12","99999","V020","080,1,N,0021,1","03600,1,9,N","020000,1,N,1","+0154,1","+0079,1","10181,1",,,,,,"06,99,1,02,1,05,1,00800,1,04,1,01,1",,,,,"99999,9,10052,1","4,1,000,1,+999,9",,"SYN066AAXX  09154 08044 42570 60804 10154 20079 30052 40181 54000 82541;",
"08044099999","2010-12-09T18:00:00","4","42.4333333","-8.6166666","108.0","PONTEVEDRA, SP","FM-12","99999","V020","100,1,N,0010,1","09000,1,9,N","020000,1,N,1","+0134,1","+0078,1","10184,1","12,0000,9,1",,,,,"05,99,1,02,1,05,1,00800,1,04,1,01,1",,,,"999,M,+0155,1","99999,9,10054,1","3,1,002,1,+999,9",,"SYN082AAXX  09184 08044 12570 51002 10134 20078 30054 40184 53002 60002 82541 333 10155;","Q01  00002PRCP12"
"08044099999","2010-12-10T06:00:00","4","42.4333333","-8.6166666","108.0","PONTEVEDRA, SP","FM-12","99999","V020","100,1,N,0015,1","22000,1,9,N","020000,1,N,1","+0140,1","+0078,1","10209,1","12,0005,9,1","24,0005,9,1",,,,"02,99,1,00,1,00,1,99999,9,00,1,01,1","0000,9",,,"999,N,+0130,1","99999,9,10079,1","4,1,000,1,+999,9","01,1","SYN106AAXX  10064 08044 11970 21003 10140 20078 30079 40209 54000 69952 701/8 80001 333 20130 50124 55000 70005;",
"08044099999","2010-12-10T09:00:00","4","42.4333333","-8.6166666","108.0","PONTEVEDRA, SP","FM-12","99999","V020","100,1,N,0036,1","22000,1,9,N","020000,1,N,1","+0161,1","+0071,1","10210,1",,,,,,"02,99,1,01,1,05,1,00800,1,00,1,01,1",,,,,"99999,9,10081,1","3,1,002,1,+999,9",,"SYN066AAXX  10094 08044 42570 21007 10161 20071 30081 40210 53002 81501;",
"08044099999","2010-12-10T12:00:00","4","42.4333333","-8.6166666","108.0","PONTEVEDRA, SP","FM-12","99999","V020","030,1,N,0005,1","22000,1,9,N","025000,1,N,1","+0205,1","+0100,1","10210,1","06,0000,9,1",,,,"00,1,+99999,9,99,9","00,99,1,00,1,00,1,99999,9,00,1,00,1",,,,,"99999,9,10083,1","0,1,002,1,+999,9",,"SYN066AAXX  10124 08044 12975 00301 10205 20100 30083 40210 50002 60001;","Q01  00002PRCP06"
"08044099999","2010-12-10T15:00:00","4","42.4333333","-8.6166666","108.0","PONTEVEDRA, SP","FM-12","99999","V020","040,1,N,0021,1","03600,1,9,N","020000,1,N,1","+0211,1","+0084,1","10202,1",,,,,,"06,99,1,03,1,05,1,00800,1,04,1,01,1",,,,,"99999,9,10075,1","6,1,008,1,+999,9",,"SYN066AAXX  10154 08044 42570 60404 10211 20084 30075 40202 56008 83541;",
"08044099999","2010-12-10T18:00:00","4","42.4333333","-8.6166666","108.0","PONTEVEDRA, SP","FM-12","99999","V020","070,1,N,0031,1","22000,1,9,N","020000,1,N,1","+0202,1","+0065,1","10206,1","12,0000,9,1",,,,,"03,99,1,01,1,00,1,01750,1,04,1,01,1",,,,"999,M,+0217,1","99999,9,10078,1","3,1,003,1,+999,9",,"SYN082AAXX  10184 08044 12770 30706 10202 20065 30078 40206 53003 60002 81041 333 10217;","Q01  00002PRCP12"
"08044099999","2010-12-11T06:00:00","4","42.4333333","-8.6166666","108.0","PONTEVEDRA, SP","FM-12","99999","V020","070,1,N,0010,1","22000,1,9,N","020000,1,N,1","+0170,1","+0079,1","10189,1","12,0000,9,1","24,0000,9,1",,,,"03,99,1,00,1,00,1,99999,9,00,1,01,1","0174,9",,,"999,N,+0170,1","99999,9,10060,1","3,1,002,1,+999,9","02,1","SYN106AAXX  11064 08044 11970 30702 10170 20079 30060 40189 53002 60002 702// 80001 333 20170 50234 55029 70000;","Q01  00002PRCP24Q02  00002PRCP12"
"08044099999","2010-12-11T09:00:00","4","42.4333333","-8.6166666","108.0","PONTEVEDRA, SP","FM-12","99999","V020","080,1,N,0026,1","09000,1,9,N","020000,1,N,1","+0159,1","+0071,1","10194,1",,,,,,"07,99,1,04,1,00,1,01750,1,04,1,04,1",,,,,"99999,9,10065,1","1,1,005,1,+999,9",,"SYN066AAXX  11094 08044 42770 70805 10159 20071 30065 40194 51005 84044;",
"08044099999","2010-12-11T12:00:00","4","42.4333333","-8.6166666","108.0","PONTEVEDRA, SP","FM-12","99999","V020","310,1,N,0010,1","22000,1,9,N","020000,1,N,1","+0175,1","+0092,1","10193,1","06,0000,9,1",,,,,"07,99,1,02,1,00,1,01750,1,04,1,01,1",,,,,"99999,9,10065,1","4,1,000,1,+999,9",,"SYN072AAXX  11124 08044 12770 73102 10175 20092 30065 40193 54000 60001 82041;","Q01  00002PRCP06"
"08044099999","2010-12-11T15:00:00","4","42.4333333","-8.6166666","108.0","PONTEVEDRA, SP","FM-12","99999","V020","170,1,N,0010,1","01500,1,9,N","015000,1,N,1","+0176,1","+0112,1","10189,1",,,,,,"08,99,1,06,1,00,1,01750,1,07,1,02,1",,,,,"99999,9,10061,1","8,1,004,1,+999,9",,"SYN066AAXX  11154 08044 42765 81702 10176 20112 30061 40189 58004 86072;",
"08044099999","2010-12-11T18:00:00","4","42.4333333","-8.6166666","108.0","PONTEVEDRA, SP","FM-12","99999","V020","090,1,N,0031,1","22000,1,9,N","015000,1,N,1","+0145,1","+0097,1","10191,1","12,0000,9,1",,,,,"04,99,1,00,1,00,1,99999,9,00,1,01,1",,,,"999,M,+0211,1","99999,9,10061,1","0,1,000,1,+999,9",,"SYN082AAXX  11184 08044 12965 40906 10145 20097 30061 40191 50000 60002 80001 333 10211;","Q01  00002PRCP12"
"08044099999","2010-12-12T06:00:00","4","42.4333333","-8.6166666","108.0","PONTEVEDRA, SP","FM-12","99999","V020","999,9,C,0000,1","22000,1,9,N","015000,1,N,1","+0111,1","+0095,1","10167,1","12,0000,9,1","24,0000,9,1",,,,"03,99,1,00,1,00,1,99999,9,00,1,01,1","0018,9",,,"999,N,+0111,1","99999,9,10036,1","6,1,004,1,+999,9","02,1","SYN106AAXX  12064 08044 11965 30000 10111 20095 30036 40167 56004 60002 702// 80001 333 20111 50404 55003 70000;","Q01  00002PRCP24Q02  00002PRCP12"
"08044099999","2010-12-12T09:00:00","4","42.4333333","-8.6166666","108.0","PONTEVEDRA, SP","FM-12","99999","V020","310,1,N,0010,1","03600,1,9,N","020000,1,N,1","+0113,1","+0094,1","10167,1",,,,,,"06,99,1,01,1,05,1,00800,1,04,1,02,1",,,,,"99999,9,10036,1","4,1,000,1,+999,9",,"SYN066AAXX  12094 08044 42570 63102 10113 20094 30036 40167 54000 81542;",
"08044099999","2010-12-12T12:00:00","4","42.4333333","-8.6166666","108.0","PONTEVEDRA, SP","FM-12","99999","V020","180,1,N,0021,1","01500,1,9,N","015000,1,N,1","+0158,1","+0114,1","10163,1","06,0000,9,1",,,,,"07,99,1,07,1,00,1,01750,1,05,1,02,1",,,,,"99999,9,10034,1","8,1,002,1,+999,9",,"SYN072AAXX  12124 08044 12765 71804 10158 20114 30034 40163 58002 60001 87052;","Q01  00002PRCP06"
"08044099999","2010-12-12T15:00:00","4","42.4333333","-8.6166666","108.0","PONTEVEDRA, SP","FM-12","99999","V020","160,1,N,0010,1","03600,1,9,N","015000,1,N,1","+0160,1","+0114,1","10150,1",,,,,,"07,99,1,01,1,05,1,00800,1,07,1,01,1",,,,,"99999,9,10022,1","7,1,012,1,+999,9",,"SYN066AAXX  12154 08044 42565 71602 10160 20114 30022 40150 57012 81571;",
"08044099999","2010-12-12T18:00:00","4","42.4333333","-8.6166666","108.0","PONTEVEDRA, SP","FM-12","99999","V020","100,1,N,0021,1","99999,9,9,N","015000,1,N,1","+0137,1","+0109,1","10152,1","12,0000,9,1",,,,,"05,99,1,02,1,00,1,00800,1,04,1,01,1",,,,"999,M,+0165,1","99999,9,10022,1","4,1,000,1,+999,9",,"SYN082AAXX  12184 08044 12565 51004 10137 20109 30022 40152 54000 60002 82041 333 10165;","Q01  00002PRCP12"
"08044099999","2010-12-13T06:00:00","4","42.4333333","-8.6166666","108.0","PONTEVEDRA, SP","FM-12","99999","V020","080,1,N,0026,1","22000,1,9,N","015000,1,N,1","+0084,1","+0067,1","10142,1","12,0000,9,1","24,0000,9,1",,,"00,1,+99999,9,99,9","00,99,1,00,1,00,1,99999,9,00,1,00,1","0036,9",,,"999,N,+0083,1","99999,9,10010,1","6,1,001,1,+999,9","00,1","SYN100AAXX  13064 08044 11965 00805 10084 20067 30010 40142 56001 60002 700// 333 20083 50154 55006 70000;","Q01  00002PRCP24Q02  00002PRCP12"
"08044099999","2010-12-13T12:00:00","4","42.4333333","-8.6166666","108.0","PONTEVEDRA, SP","FM-12","99999","V020","260,1,N,0010,1","22000,1,9,N","025000,1,N,1","+0132,1","+0093,1","10144,1","06,0000,9,1",,,,"00,1,+99999,9,99,9","00,99,1,00,1,00,1,99999,9,00,1,00,1",,,,,"99999,9,10014,1","0,1,000,1,+999,9",,"SYN066AAXX  13124 08044 12975 02602 10132 20093 30014 40144 50000 60001;","Q01  00002PRCP06"
"08044099999","2010-12-13T15:00:00","4","42.4333333","-8.6166666","108.0","PONTEVEDRA, SP","FM-12","99999","V020","999,9,C,0000,1","22000,1,9,N","020000,1,N,1","+0147,1","+0101,1","10136,1",,,,,,"02,99,1,00,1,00,1,99999,9,00,1,01,1",,,,,"99999,9,10007,1","6,1,007,1,+999,9",,"SYN066AAXX  13154 08044 42970 20000 10147 20101 30007 40136 56007 80001;",
"08044099999","2010-12-13T18:00:00","4","42.4333333","-8.6166666","108.0","PONTEVEDRA, SP","FM-12","99999","V020","120,1,N,0010,1","22000,1,9,N","020000,1,N,1","+0117,1","+0106,1","10150,1","12,0000,9,1",,,,,"03,99,1,00,1,00,1,99999,9,00,1,01,1",,,,"999,M,+0151,1","99999,9,10020,1","2,1,013,1,+999,9",,"SYN082AAXX  13184 08044 12970 31202 10117 20106 30020 40150 52013 60002 80001 333 10151;","Q01  00002PRCP12"
"08044099999","2010-12-14T06:00:00","4","42.4333333","-8.6166666","108.0","PONTEVEDRA, SP","FM-12","99999","V020","140,1,N,0010,1","22000,1,9,N","015000,1,N,1","+0051,1","+0026,1","10199,1","12,0000,9,1","24,0000,9,1",,,"00,1,+99999,9,99,9","00,99,1,00,1,00,1,99999,9,00,1,00,1","0438,9",,,"999,N,+0051,1","99999,9,10065,1","2,1,012,1,+999,9","00,1","SYN100AAXX  14064 08044 11965 01402 10051 20026 30065 40199 52012 60002 700// 333 20051 50054 55073 70000;","Q01  00002PRCP24Q02  00002PRCP12"
"08044099999","2010-12-14T09:00:00","4","42.4333333","-8.6166666","108.0","PONTEVEDRA, SP","FM-12","99999","V020","050,1,N,0010,1","22000,1,9,N","020000,1,N,1","+0049,1","+0042,1","10219,1",,,,,"00,1,+99999,9,99,9","00,99,1,00,1,00,1,99999,9,00,1,00,1",,,,,"99999,9,10084,1","2,1,019,1,+999,9",,"SYN060AAXX  14094 08044 42970 00502 10049 20042 30084 40219 52019;",
"08044099999","2010-12-14T12:00:00","4","42.4333333","-8.6166666","108.0","PONTEVEDRA, SP","FM-12","99999","V020","280,1,N,0010,1","22000,1,9,N","020000,1,N,1","+0103,1","+0063,1","10224,1","06,0000,9,1",,,,"00,1,+99999,9,99,9","00,99,1,00,1,00,1,99999,9,00,1,00,1",,,,,"99999,9,10092,1","2,1,008,1,+999,9",,"SYN066AAXX  14124 08044 12970 02802 10103 20063 30092 40224 52008 60001;","Q01  00002PRCP06"
"08044099999","2010-12-14T15:00:00","4","42.4333333","-8.6166666","108.0","PONTEVEDRA, SP","FM-12","99999","V020","270,1,N,0010,1","22000,1,9,N","015000,1,N,1","+0124,1","+0073,1","10223,1",,,,,"00,1,+99999,9,99,9","00,99,1,00,1,00,1,99999,9,00,1,00,1",,,,,"99999,9,10092,1","4,1,000,1,+999,9",,"SYN060AAXX  14154 08044 42965 02702 10124 20073 30092 40223 54000;",
"08044099999","2010-12-14T18:00:00","4","42.4333333","-8.6166666","108.0","PONTEVEDRA, SP","FM-12","99999","V020","130,1,N,0010,1","22000,1,9,N","015000,1,N,1","+0100,1","+0074,1","10240,1","12,0000,9,1",,,,,"02,99,1,00,1,00,1,99999,9,00,1,01,1",,,,"999,M,+0125,1","99999,9,10107,1","3,1,015,1,+999,9",,"SYN082AAXX  14184 08044 12965 21302 10100 20074 30107 40240 53015 60002 80001 333 10125;","Q01  00002PRCP12"
"08044099999","2010-12-15T06:00:00","4","42.4333333","-8.6166666","108.0","PONTEVEDRA, SP","FM-12","99999","V020","060,1,N,0031,1","22000,1,9,N","015000,1,N,1","+0058,1","-0023,1","10282,1","12,0000,9,1","24,0000,9,1",,,"00,1,+99999,9,99,9","00,99,1,00,1,00,1,99999,9,00,1,00,1","0414,9",,,"999,N,+0046,1","99999,9,10147,1","3,1,010,1,+999,9","00,1","SYN100AAXX  15064 08044 11965 00606 10058 21023 30147 40282 53010 60002 700// 333 20046 50104 55069 70000;","Q01  00002PRCP24Q02  00002PRCP12"
"08044099999","2010-12-15T09:00:00","4","42.4333333","-8.6166666","108.0","PONTEVEDRA, SP","FM-12","99999","V020","050,1,N,0021,1","22000,1,9,N","025000,1,N,1","+0057,1","-0014,1","10294,1",,,,,,"02,99,1,00,1,00,1,99999,9,00,1,01,1",,,,,"99999,9,10159,1","3,1,012,1,+999,9",,"SYN066AAXX  15094 08044 42975 20504 10057 21014 30159 40294 53012 80001;",
"08044099999","2010-12-15T12:00:00","4","42.4333333","-8.6166666","108.0","PONTEVEDRA, SP","FM-12","99999","V020","040,1,N,0031,1","99999,9,9,N","025000,1,N,1","+0106,1","-0011,1","10292,1","06,0000,9,1",,,,,"06,99,1,00,1,00,1,99999,9,00,1,01,1",,,,,"99999,9,10159,1","0,1,000,1,+999,9",,"SYN072AAXX  15124 08044 12975 60406 10106 21011 30159 40292 50000 60001 80001;","Q01  00002PRCP06"
"08044099999","2010-12-15T15:00:00","4","42.4333333","-8.6166666","108.0","PONTEVEDRA, SP","FM-12","99999","V020","340,1,N,0021,1","22000,1,9,N","025000,1,N,1","+0113,1","-0015,1","10278,1",,,,,,"02,99,1,00,1,00,1,99999,9,00,1,01,1",,,,,"99999,9,10145,1","6,1,014,1,+999,9",,"SYN066AAXX  15154 08044 42975 23404 10113 21015 30145 40278 56014 80001;",
"08044099999","2010-12-15T18:00:00","4","42.4333333","-8.6166666","108.0","PONTEVEDRA, SP","FM-12","99999","V020","340,1,N,0026,1","22000,1,9,N","020000,1,N,1","+0079,1","-0011,1","10281,1","12,0000,9,1",,,,,"01,99,1,00,1,00,1,99999,9,00,1,01,1",,,,"999,M,+0116,1","99999,9,10147,1","3,1,002,1,+999,9",,"SYN082AAXX  15184 08044 12970 13405 10079 21011 30147 40281 53002 60002 80001 333 10116;","Q01  00002PRCP12"
"08044099999","2010-12-16T06:00:00","4","42.4333333","-8.6166666","108.0","PONTEVEDRA, SP","FM-12","99999","V020","110,1,N,0015,1","22000,1,9,N","020000,1,N,1","+0022,1","-0039,1","10267,1","12,0000,9,1","24,0000,9,1",,,"00,1,+99999,9,99,9","00,99,1,00,1,00,1,99999,9,00,1,00,1","0408,9",,,"999,N,+0021,1","99999,9,10130,1","8,1,014,1,+999,9","00,1","SYN100AAXX  16064 08044 11970 01103 10022 21039 30130 40267 58014 60002 700// 333 20021 50214 55068 70000;","Q01  00002PRCP24Q02  00002PRCP12"
"08044099999","2010-12-16T09:00:00","4","42.4333333","-8.6166666","108.0","PONTEVEDRA, SP","FM-12","99999","V020","080,1,N,0021,1","22000,1,9,N","025000,1,N,1","+0025,1","-0036,1","10269,1",,,,,"00,1,+99999,9,99,9","00,99,1,00,1,00,1,99999,9,00,1,00,1",,,,,"99999,9,10132,1","1,1,002,1,+999,9",,"SYN060AAXX  16094 08044 42975 00804 10025 21036 30132 40269 51002;",
"08044099999","2010-12-16T12:00:00","4","42.4333333","-8.6166666","108.0","PONTEVEDRA, SP","FM-12","99999","V020","260,1,N,0010,1","22000,1,9,N","025000,1,N,1","+0074,1","-0023,1","10264,1","06,0000,9,1",,,,"00,1,+99999,9,99,9","00,99,1,00,1,00,1,99999,9,00,1,00,1",,,,,"99999,9,10130,1","8,1,002,1,+999,9",,"SYN066AAXX  16124 08044 12975 02602 10074 21023 30130 40264 58002 60001;","Q01  00002PRCP06"
"08044099999","2010-12-16T15:00:00","4","42.4333333","-8.6166666","108.0","PONTEVEDRA, SP","FM-12","99999","V020","010,1,N,0005,1","22000,1,9,N","020000,1,N,1","+0077,1","-0010,1","10235,1",,,,,"00,1,+99999,9,99,9","00,99,1,00,1,00,1,99999,9,00,1,00,1",,,,,"99999,9,10101,1","7,1,029,1,+999,9",,"SYN060AAXX  16154 08044 42970 00101 10077 21010 30101 40235 57029;",
"08044099999","2010-12-16T18:00:00","4","42.4333333","-8.6166666","108.0","PONTEVEDRA, SP","FM-12","99999","V020","050,1,N,0015,1","22000,1,9,N","020000,1,N,1","+0065,1","-0007,1","10227,1","12,0000,9,1",,,,"00,1,+99999,9,99,9","00,99,1,00,1,00,1,99999,9,00,1,00,1",,,,"999,M,+0080,1","99999,9,10093,1","7,1,008,1,+999,9",,"SYN076AAXX  16184 08044 12970 00503 10065 21007 30093 40227 57008 60002 333 10080;","Q01  00002PRCP12"
"08044099999","2010-12-17T06:00:00","4","42.4333333","-8.6166666","108.0","PONTEVEDRA, SP","FM-12","99999","V020","180,1,N,0005,1","22000,1,9,N","015000,1,N,1","+0014,1","-0008,1","10160,1","12,0000,9,1","24,0000,9,1",,,,"03,99,1,02,1,05,1,00800,1,00,1,01,1","0438,9",,,"999,N,+0008,1","99999,9,10024,1","7,1,027,1,+999,9","02,1","SYN106AAXX  17064 08044 11565 31801 10014 21008 30024 40160 57027 60002 702/0 82501 333 20008 50174 55073 70000;","Q01  00002PRCP24Q02  00002PRCP12"
"08044099999","2010-12-17T09:00:00","4","42.4333333","-8.6166666","108.0","PONTEVEDRA, SP","FM-12","99999","V020","090,1,N,0015,1","00750,1,9,N","015000,1,N,1","+0028,1","+0007,1","10138,1",,,,,,"07,99,1,07,1,05,1,00800,1,99,9,99,9",,,,,"99999,9,10003,1","7,1,021,1,+999,9",,"SYN066AAXX  17094 08044 42565 70903 10028 20007 30003 40138 57021 875//;",
"08044099999","2010-12-17T12:00:00","4","42.4333333","-8.6166666","108.0","PONTEVEDRA, SP","FM-12","99999","V020","340,1,N,0021,1","00750,1,9,N","015000,1,N,1","+0069,1","+0032,1","10114,1","06,0000,9,1",,,,,"07,99,1,07,1,05,1,00800,1,00,1,00,1",,,,,"99999,9,09982,1","7,1,021,1,+999,9",,"SYN072AAXX  17124 08044 12565 73404 10069 20032 39982 40114 57021 60001 87500;","Q01  00002PRCP06"
"08044099999","2010-12-17T15:00:00","4","42.4333333","-8.6166666","108.0","PONTEVEDRA, SP","FM-12","99999","V020","040,1,N,0010,1","00120,1,9,N","003000,1,N,1","+0079,1","+0062,1","10087,1",,,"2,1,03,1","2,1,03,1",,"08,99,1,08,1,06,1,00150,1,99,9,99,9",,,,,"99999,9,09955,1","6,1,027,1,+999,9","50,1","SYN072AAXX  17154 08044 41230 80402 10079 20062 39955 40087 56027 75022 886//;",
"08044099999","2010-12-17T18:00:00","4","42.4333333","-8.6166666","108.0","PONTEVEDRA, SP","FM-12","99999","V020","060,1,N,0010,1","00750,1,9,N","007000,1,N,1","+0072,1","+0063,1","10077,1","12,0003,9,1",,"5,1,06,1","2,1,06,1",,"07,99,1,07,1,05,1,00800,1,99,9,99,9",,,,"999,M,+0084,1","99999,9,09945,1","7,1,010,1,+999,9","10,1","SYN088AAXX  17184 08044 11557 70602 10072 20063 39945 40077 57010 69932 71052 875// 333 10084;",
"08044099999","2010-12-18T06:00:00","4","42.4333333","-8.6166666","108.0","PONTEVEDRA, SP","FM-12","99999","V020","090,1,N,0026,1","22000,1,9,N","020000,1,N,1","+0026,1","-0014,1","10033,1","12,0000,9,1","24,0003,9,1",,,,"02,99,1,02,1,05,1,00800,1,00,1,00,1","0018,9",,,"999,N,+0020,1","99999,9,09899,1","7,1,014,1,+999,9","02,1","SYN106AAXX  18064 08044 11570 20905 10026 21014 39899 40033 57014 60002 702// 82500 333 20020 50074 55003 70003;","Q01  00002PRCP12"
"08044099999","2010-12-18T09:00:00","4","42.4333333","-8.6166666","108.0","PONTEVEDRA, SP","FM-12","99999","V020","080,1,N,0036,1","22000,1,9,N","020000,1,N,1","+0026,1","-0016,1","10033,1",,,,,,"03,99,1,03,1,05,1,00800,1,00,1,00,1",,,,,"99999,9,09899,1","4,1,000,1,+999,9",,"SYN066AAXX  18094 08044 42570 30807 10026 21016 39899 40033 54000 83500;",
"08044099999","2010-12-18T12:00:00","4","42.4333333","-8.6166666","108.0","PONTEVEDRA, SP","FM-12","99999","V020","010,1,N,0026,1","22000,1,9,N","020000,1,N,1","+0089,1","+0009,1","10011,1","06,0000,9,1",,,,,"02,99,1,01,1,05,1,00250,1,00,1,01,1",,,,,"99999,9,09881,1","8,1,018,1,+999,9",,"SYN072AAXX  18124 08044 12370 20105 10089 20009 39881 40011 58018 60001 81501;","Q01  00002PRCP06"
"08044099999","2010-12-18T15:00:00","4","42.4333333","-8.6166666","108.0","PONTEVEDRA, SP","FM-12","99999","V020","020,1,N,0015,1","22000,1,9,N","020000,1,N,1","+0100,1","-0008,1","09990,1",,,,,,"02,99,1,01,1,05,1,00450,1,00,1,01,1",,,,,"99999,9,09861,1","7,1,020,1,+999,9",,"SYN066AAXX  18154 08044 42470 20203 10100 21008 39861 49990 57020 81501;",
"08044099999","2010-12-18T18:00:00","4","42.4333333","-8.6166666","108.0","PONTEVEDRA, SP","FM-12","99999","V020","060,1,N,0015,1","22000,1,9,N","020000,1,N,1","+0067,1","+0016,1","09996,1","12,0000,9,1",,,,,"01,99,1,00,1,00,1,99999,9,00,1,01,1",,,,"999,M,+0100,1","99999,9,09865,1","3,1,004,1,+999,9",,"SYN082AAXX  18184 08044 12970 10603 10067 20016 39865 49996 53004 60002 80001 333 10100;","Q01  00002PRCP12"
"08044099999","2010-12-19T06:00:00","4","42.4333333","-8.6166666","108.0","PONTEVEDRA, SP","FM-12","99999","V020","090,1,N,0026,1","00750,1,9,N","015000,1,N,1","+0020,1","-0007,1","10015,1","12,0000,9,1","24,0000,9,1",,,,"08,99,1,08,1,05,1,00800,1,99,9,99,9","0438,9",,,"999,N,+0008,1","99999,9,09881,1","3,1,008,1,+999,9","02,1","SYN106AAXX  19064 08044 11565 80905 10020 21007 39881 40015 53008 60002 702// 885// 333 20008 50104 55073 70000;","Q01  00002PRCP24Q02  00002PRCP12"
"08044099999","2010-12-19T09:00:00","4","42.4333333","-8.6166666","108.0","PONTEVEDRA, SP","FM-12","99999","V020","090,1,N,0005,1","01200,1,9,N","015000,1,N,1","+0033,1","+0010,1","10026,1",,,"2,1,03,1","2,1,03,1",,"08,99,1,08,1,08,1,00800,1,99,9,99,9",,,,,"99999,9,09893,1","2,1,012,1,+999,9","50,1","SYN072AAXX  19094 08044 41565 80901 10033 20010 39893 40026 52012 75022 888//;",
"08044099999","2010-12-19T12:00:00","4","42.4333333","-8.6166666","108.0","PONTEVEDRA, SP","FM-12","99999","V020","340,1,N,0010,1","00900,1,9,N","012000,1,N,1","+0052,1","+0032,1","10043,1","06,0000,2,1",,"5,1,06,1","2,1,06,1",,"08,99,1,08,1,08,1,00450,1,99,9,99,9",,,,,"99999,9,09911,1","1,1,018,1,+999,9","02,1","SYN078AAXX  19124 08044 11462 83402 10052 20032 39911 40043 51018 69901 70252 888//;",
"08044099999","2010-12-19T15:00:00","4","42.4333333","-8.6166666","108.0","PONTEVEDRA, SP","FM-12","99999","V020","030,1,N,0010,1","00900,1,9,N","008000,1,N,1","+0076,1","+0061,1","10042,1",,,"5,1,03,1","2,1,03,1",,"08,99,1,08,1,08,1,00450,1,99,9,99,9",,,,,"99999,9,09911,1","4,1,000,1,+999,9","50,1","SYN072AAXX  19154 08044 41458 80302 10076 20061 39911 40042 54000 75052 888//;",
"08044099999","2010-12-19T18:00:00","4","42.4333333","-8.6166666","108.0","PONTEVEDRA, SP","FM-12","99999","V020","350,1,N,0015,1","00900,1,9,N","010000,1,N,1","+0077,1","+0071,1","10054,1","12,0008,9,1",,"5,1,06,1","2,1,06,1",,"08,99,1,08,1,08,1,00450,1,99,9,99,9",,,,"999,M,+0081,1","99999,9,09923,1","1,1,012,1,+999,9","02,1","SYN088AAXX  19184 08044 11460 83503 10077 20071 39923 40054 51012 69982 70252 888// 333 10081;",
"08044099999","2010-12-20T06:00:00","4","42.4333333","-8.6166666","108.0","PONTEVEDRA, SP","FM-12","99999","V020","170,1,N,0031,1","00900,1,9,N","005000,1,N,1","+0099,1","+0094,1","10061,1","12,0079,9,1","24,0091,9,1",,,,"08,99,1,08,1,08,1,00450,1,99,9,99,9","0000,9",,,"999,N,+0089,1","99999,9,09931,1","6,1,003,1,+999,9","62,1","SYN106AAXX  20064 08044 11450 81706 10099 20094 39931 40061 56003 60082 762/6 888// 333 20089 50044 55000 70091;",
"08044099999","2010-12-20T09:00:00","4","42.4333333","-8.6166666","108.0","PONTEVEDRA, SP","FM-12","99999","V020","160,1,N,0021,1","00900,1,9,N","012000,1,N,1","+0098,1","+0093,1","10061,1",,,"6,1,03,1","2,1,03,1",,"08,99,1,08,1,08,1,00450,1,99,9,99,9",,,,,"99999,9,09931,1","4,1,000,1,+999,9","50,1","SYN072AAXX  20094 08044 41462 81604 10098 20093 39931 40061 54000 75062 888//;",
"08044099999","2010-12-20T12:00:00","4","42.4333333","-8.6166666","108.0","PONTEVEDRA, SP","FM-12","99999","V020","160,1,N,0031,1","00900,1,9,N","012000,1,N,1","+0110,1","+0102,1","10067,1","06,0005,9,1",,"5,1,06,1","2,1,06,1",,"08,99,1,08,1,08,1,00450,1,99,9,99,9",,,,,"99999,9,09937,1","0,1,006,1,+999,9","02,1","SYN078AAXX  20124 08044 11462 81606 10110 20102 39937 40067 50006 69961 70252 888//;",
"08044099999","2010-12-20T15:00:00","4","42.4333333","-8.6166666","108.0","PONTEVEDRA, SP","FM-12","99999","V020","170,1,N,0021,1","00900,1,9,N","008000,1,N,1","+0112,1","+0107,1","10053,1",,,"6,1,03,1","5,1,03,1",,"08,99,1,08,1,08,1,00450,1,99,9,99,9",,,,,"99999,9,09924,1","7,1,013,1,+999,9","50,1","SYN072AAXX  20154 08044 41458 81704 10112 20107 39924 40053 57013 75065 888//;",
"08044099999","2010-12-20T18:00:00","4","42.4333333","-8.6166666","108.0","PONTEVEDRA, SP","FM-12","99999","V020","090,1,N,0015,1","00900,1,9,N","012000,1,N,1","+0107,1","+0102,1","10034,1","12,0020,9,1",,"2,1,06,1","2,1,06,1",,"08,99,1,06,1,08,1,00450,1,07,1,99,9",,,,"999,M,+0116,1","99999,9,09905,1","7,1,019,1,+999,9","20,1","SYN088AAXX  20184 08044 11462 80903 10107 20102 39905 40034 57019 60022 72022 8687/ 333 10116;",
"08044099999","2010-12-21T06:00:00","4","42.4333333","-8.6166666","108.0","PONTEVEDRA, SP","FM-12","99999","V020","040,1,N,0010,1","03600,1,9,N","012000,1,N,1","+0088,1","+0069,1","09939,1","12,0041,9,1","24,0056,9,1",,,,"08,99,1,04,1,08,1,00800,1,07,1,99,9","0000,9",,,"999,N,+0083,1","99999,9,09810,1","7,1,020,1,+999,9","50,1","SYN106AAXX  21064 08044 11562 80402 10088 20069 39810 49939 57020 60042 750/6 8487/ 333 20083 50024 55000 70056;",
"08044099999","2010-12-21T09:00:00","4","42.4333333","-8.6166666","108.0","PONTEVEDRA, SP","FM-12","99999","V020","080,1,N,0021,1","03600,1,9,N","015000,1,N,1","+0084,1","+0080,1","09939,1",,,"6,1,03,1","5,1,03,1",,"07,99,1,04,1,08,1,00800,1,07,1,99,9",,,,,"99999,9,09810,1","4,1,000,1,+999,9","50,1","SYN072AAXX  21094 08044 41565 70804 10084 20080 39810 49939 54000 75065 8487/;",
"08044099999","2010-12-21T12:00:00","4","42.4333333","-8.6166666","108.0","PONTEVEDRA, SP","FM-12","99999","V020","020,1,N,0015,1","00750,1,9,N","020000,1,N,1","+0120,1","+0097,1","09932,1","06,0020,9,1",,"8,1,06,1","2,1,06,1",,"06,99,1,05,1,05,1,00800,1,07,1,01,1",,,,,"99999,9,09804,1","8,1,006,1,+999,9","01,1","SYN078AAXX  21124 08044 11570 60203 10120 20097 39804 49932 58006 60021 70182 85571;",
"08044099999","2010-12-21T15:00:00","4","42.4333333","-8.6166666","108.0","PONTEVEDRA, SP","FM-12","99999","V020","050,1,N,0021,1","00900,1,9,N","012000,1,N,1","+0109,1","+0095,1","09927,1",,,"5,1,03,1","2,1,03,1",,"08,99,1,06,1,08,1,00450,1,07,1,99,9",,,,,"99999,9,09799,1","6,1,005,1,+999,9","50,1","SYN072AAXX  21154 08044 41462 80504 10109 20095 39799 49927 56005 75052 8687/;",
"08044099999","2010-12-21T18:00:00","4","42.4333333","-8.6166666","108.0","PONTEVEDRA, SP","FM-12","99999","V020","320,1,N,0010,1","00750,1,9,N","012000,1,N,1","+0107,1","+0099,1","09929,1","12,0020,9,1",,,,,"08,99,1,08,1,05,1,00800,1,99,9,99,9",,,,"999,M,+0125,1","99999,9,09801,1","3,1,002,1,+999,9",,"SYN082AAXX  21184 08044 12562 83202 10107 20099 39801 49929 53002 60022 885// 333 10125;",
"08044099999","2010-12-22T06:00:00","4","42.4333333","-8.6166666","108.0","PONTEVEDRA, SP","FM-12","99999","V020","240,1,N,0010,1","00900,1,9,N","008000,1,N,1","+0092,1","+0087,1","09892,1","12,0079,9,1","24,0109,9,1",,,,"08,99,1,08,1,08,1,00450,1,99,9,99,9","0036,9",,,"999,N,+0090,1","99999,9,09764,1","6,1,008,1,+999,9","63,1","SYN106AAXX  22064 08044 11458 82402 10092 20087 39764 49892 56008 60082 763/6 888// 333 20090 50044 55006 70109;",
"08044099999","2010-12-22T09:00:00","4","42.4333333","-8.6166666","108.0","PONTEVEDRA, SP","FM-12","99999","V020","040,1,N,0015,1","00900,1,9,N","008000,1,N,1","+0107,1","+0099,1","09896,1",,,"6,1,03,1","2,1,03,1",,"08,99,1,08,1,08,1,00450,1,99,9,99,9",,,,,"99999,9,09768,1","3,1,004,1,+999,9","63,1","SYN072AAXX  22094 08044 41458 80403 10107 20099 39768 49896 53004 76362 888//;",
"08044099999","2010-12-22T12:00:00","4","42.4333333","-8.6166666","108.0","PONTEVEDRA, SP","FM-12","99999","V020","340,1,N,0010,1","03600,1,9,N","010000,1,N,1","+0100,1","+0095,1","09901,1","06,0140,9,1",,"6,1,06,1","2,1,06,1",,"08,99,1,04,1,08,1,00450,1,07,1,99,9",,,,,"99999,9,09773,1","0,1,005,1,+999,9","21,1","SYN078AAXX  22124 08044 11460 83402 10100 20095 39773 49901 50005 60141 72162 8487/;",
"08044099999","2010-12-22T15:00:00","4","42.4333333","-8.6166666","108.0","PONTEVEDRA, SP","FM-12","99999","V020","340,1,N,0021,1","00420,1,9,N","006000,1,N,1","+0096,1","+0088,1","09907,1",,,"6,1,03,1","2,1,03,1",,"08,99,1,06,1,05,1,00450,1,07,1,99,9",,,,,"99999,9,09779,1","3,1,006,1,+999,9","61,1","SYN072AAXX  22154 08044 41456 83404 10096 20088 39779 49907 53006 76162 8657/;",
"08044099999","2010-12-22T18:00:00","4","42.4333333","-8.6166666","108.0","PONTEVEDRA, SP","FM-12","99999","V020","330,1,N,0036,1","00420,1,9,N","005000,1,N,1","+0090,1","+0064,1","09938,1","12,0180,9,1",,"6,1,06,1","2,1,06,1",,"08,99,1,06,1,05,1,00450,1,07,1,99,9",,,,"999,M,+0108,1","99999,9,09809,1","2,1,030,1,+999,9","60,1","SYN088AAXX  22184 08044 11450 83307 10090 20064 39809 49938 52030 60182 76062 8657/ 333 10108;",
"08044099999","2010-12-23T06:00:00","4","42.4333333","-8.6166666","108.0","PONTEVEDRA, SP","FM-12","99999","V020","340,1,N,0041,1","01500,1,9,N","015000,1,N,1","+0052,1","+0031,1","10052,1","12,0020,9,1","24,0191,9,1",,,,"07,99,1,07,1,00,1,01750,1,03,1,00,1","0000,9",,,"999,N,+0050,1","99999,9,09920,1","3,1,007,1,+999,9","02,1","SYN106AAXX  23064 08044 11765 73408 10052 20031 39920 40052 53007 60022 702/6 87030 333 20050 50074 55000 70191;",
"08044099999","2010-12-23T09:00:00","4","42.4333333","-8.6166666","108.0","PONTEVEDRA, SP","FM-12","99999","V020","360,1,N,0005,1","22000,1,9,N","020000,1,N,1","+0040,1","+0020,1","10089,1",,,,,,"03,99,1,02,1,08,1,00450,1,03,1,00,1",,,,,"99999,9,09955,1","2,1,035,1,+999,9",,"SYN066AAXX  23094 08044 42470 33601 10040 20020 39955 40089 52035 82830;",
"08044099999","2010-12-23T15:00:00","4","42.4333333","-8.6166666","108.0","PONTEVEDRA, SP","FM-12","99999","V020","310,1,N,0026,1","03600,1,9,N","020000,1,N,1","+0078,1","+0025,1","10116,1",,,,,,"05,99,1,04,1,08,1,00450,1,04,1,00,1",,,,,"99999,9,09984,1","1,1,006,1,+999,9",,"SYN066AAXX  23154 08044 42470 53105 10078 20025 39984 40116 51006 84840;",
"08044099999","2010-12-23T18:00:00","4","42.4333333","-8.6166666","108.0","PONTEVEDRA, SP","FM-12","99999","V020","050,1,N,0015,1","22000,1,9,N","015000,1,N,1","+0048,1","+0033,1","10153,1","12,0010,9,1",,"8,1,06,1","1,1,06,1",,"03,99,1,03,1,05,1,00450,1,00,1,00,1",,,,"999,M,+0082,1","99999,9,10019,1","1,1,035,1,+999,9","01,1","SYN088AAXX  23184 08044 11465 30503 10048 20033 30019 40153 51035 69992 70181 83500 333 10082;",
"08044099999","2010-12-24T06:00:00","4","42.4333333","-8.6166666","108.0","PONTEVEDRA, SP","FM-12","99999","V020","050,1,N,0010,1","22000,1,9,N","015000,1,N,1","+0006,1","-0003,1","10193,1","12,0000,9,1","24,0010,9,1",,,,"01,99,1,01,1,00,1,01750,1,03,1,00,1","0228,9",,,"999,N,+0005,1","99999,9,10056,1","1,1,003,1,+999,9","02,1","SYN106AAXX  24064 08044 11765 10502 10006 21003 30056 40193 51003 60002 702// 81030 333 20005 50094 55038 70009;","Q01  00002PRCP12"
"08044099999","2010-12-24T09:00:00","4","42.4333333","-8.6166666","108.0","PONTEVEDRA, SP","FM-12","99999","V020","080,1,N,0015,1","22000,1,9,N","020000,1,N,1","+0012,1","-0004,1","10198,1",,,,,,"03,99,1,01,1,08,1,00450,1,03,1,02,1",,,,,"99999,9,10062,1","1,1,006,1,+999,9",,"SYN066AAXX  24094 08044 42470 30803 10012 21004 30062 40198 51006 81832;",
"08044099999","2010-12-24T12:00:00","4","42.4333333","-8.6166666","108.0","PONTEVEDRA, SP","FM-12","99999","V020","240,1,N,0010,1","22000,1,9,N","020000,1,N,1","+0062,1","+0023,1","10197,1","06,0000,9,1",,,,,"02,99,1,01,1,01,1,00450,1,00,1,02,1",,,,,"99999,9,10063,1","0,1,001,1,+999,9",,"SYN072AAXX  24124 08044 12470 22402 10062 20023 30063 40197 50001 60001 81102;","Q01  00002PRCP06"
"08044099999","2010-12-24T15:00:00","4","42.4333333","-8.6166666","108.0","PONTEVEDRA, SP","FM-12","99999","V020","290,1,N,0015,1","22000,1,9,N","020000,1,N,1","+0078,1","+0023,1","10177,1",,,,,,"03,99,1,02,1,08,1,00450,1,03,1,02,1",,,,,"99999,9,10044,1","7,1,019,1,+999,9",,"SYN066AAXX  24154 08044 42470 32903 10078 20023 30044 40177 57019 82832;",
"08044099999","2010-12-24T18:00:00","4","42.4333333","-8.6166666","108.0","PONTEVEDRA, SP","FM-12","99999","V020","070,1,N,0015,1","22000,1,9,N","010000,1,N,1","+0062,1","+0028,1","10175,1","12,0000,9,1",,,,,"03,99,1,03,1,05,1,00450,1,00,1,00,1",,,,"999,M,+0080,1","99999,9,10041,1","6,1,003,1,+999,9",,"SYN082AAXX  24184 08044 12460 30703 10062 20028 30041 40175 56003 60002 83500 333 10080;","Q01  00002PRCP12"
"08044099999","2010-12-25T06:00:00","4","42.4333333","-8.6166666","108.0","PONTEVEDRA, SP","FM-12","99999","V020","070,1,N,0026,1","03600,1,9,N","015000,1,N,1","+0048,1","-0018,1","10168,1","12,0000,9,1","24,0000,9,1",,,,"05,99,1,01,1,05,1,00450,1,05,1,00,1","0408,9",,,"999,N,+0032,1","99999,9,10034,1","6,1,003,1,+999,9","02,1","SYN106AAXX  25064 08044 11465 50705 10048 21018 30034 40168 56003 60002 702// 81550 333 20032 50104 55068 70000;","Q01  00002PRCP24Q02  00002PRCP12"
"08044099999","2010-12-25T09:00:00","4","42.4333333","-8.6166666","108.0","PONTEVEDRA, SP","FM-12","99999","V020","150,1,N,0010,1","22000,1,9,N","020000,1,N,1","+0042,1","-0026,1","10177,1",,,,,,"02,99,1,01,1,05,1,00450,1,03,1,00,1",,,,,"99999,9,10042,1","3,1,008,1,+999,9",,"SYN066AAXX  25094 08044 42470 21502 10042 21026 30042 40177 53008 81530;",
"08044099999","2010-12-25T12:00:00","4","42.4333333","-8.6166666","108.0","PONTEVEDRA, SP","FM-12","99999","V020","070,1,N,0021,1","22000,1,9,N","020000,1,N,1","+0096,1","-0020,1","10186,1","06,0000,9,1",,,,,"01,99,1,01,1,00,1,01750,1,03,1,00,1",,,,,"99999,9,10054,1","1,1,012,1,+999,9",,"SYN072AAXX  25124 08044 12770 10704 10096 21020 30054 40186 51012 60001 81030;","Q01  00002PRCP06"
"08044099999","2010-12-25T15:00:00","4","42.4333333","-8.6166666","108.0","PONTEVEDRA, SP","FM-12","99999","V020","100,1,N,0021,1","22000,1,9,N","020000,1,N,1","+0110,1","-0028,1","10184,1",,,,,"00,1,+99999,9,99,9","00,99,1,00,1,00,1,99999,9,00,1,00,1",,,,,"99999,9,10052,1","6,1,002,1,+999,9",,"SYN060AAXX  25154 08044 42970 01004 10110 21028 30052 40184 56002;",
"08044099999","2010-12-25T18:00:00","4","42.4333333","-8.6166666","108.0","PONTEVEDRA, SP","FM-12","99999","V020","090,1,N,0026,1","22000,1,9,N","020000,1,N,1","+0080,1","-0018,1","10190,1","12,0000,9,1",,,,"00,1,+99999,9,99,9","00,99,1,00,1,00,1,99999,9,00,1,00,1",,,,"999,M,+0112,1","99999,9,10057,1","0,1,005,1,+999,9",,"SYN076AAXX  25184 08044 12970 00905 10080 21018 30057 40190 50005 60002 333 10112;","Q01  00002PRCP12"
"08044099999","2010-12-26T06:00:00","4","42.4333333","-8.6166666","108.0","PONTEVEDRA, SP","FM-12","99999","V020","080,1,N,0021,1","22000,1,9,N","015000,1,N,1","+0026,1","-0048,1","10225,1","12,0000,9,1","24,0000,9,1",,,"00,1,+99999,9,99,9","00,99,1,00,1,00,1,99999,9,00,1,00,1","0414,9",,,"999,N,+0020,1","99999,9,10089,1","3,1,004,1,+999,9","02,1","SYN100AAXX  26064 08044 11965 00804 10026 21048 30089 40225 53004 60002 702// 333 20020 50234 55069 70000;","Q01  00002PRCP24Q02  00002PRCP12"
"08044099999","2010-12-26T09:00:00","4","42.4333333","-8.6166666","108.0","PONTEVEDRA, SP","FM-12","99999","V020","120,1,N,0010,1","22000,1,9,N","020000,1,N,1","+0012,1","-0030,1","10230,1",,,,,,"03,99,1,00,1,00,1,99999,9,00,1,02,1",,,,,"99999,9,10093,1","0,1,004,1,+999,9",,"SYN066AAXX  26094 08044 42970 31202 10012 21030 30093 40230 50004 80002;",
"08044099999","2010-12-26T12:00:00","4","42.4333333","-8.6166666","108.0","PONTEVEDRA, SP","FM-12","99999","V020","300,1,N,0015,1","09000,1,9,N","020000,1,N,1","+0055,1","-0019,1","10225,1","06,0000,9,1",,,,,"05,99,1,01,1,00,1,01750,1,03,1,02,1",,,,,"99999,9,10090,1","8,1,003,1,+999,9",,"SYN072AAXX  26124 08044 12770 53003 10055 21019 30090 40225 58003 60001 81032;","Q01  00002PRCP06"
"08044099999","2010-12-26T15:00:00","4","42.4333333","-8.6166666","108.0","PONTEVEDRA, SP","FM-12","99999","V020","170,1,N,0015,1","09000,1,9,N","020000,1,N,1","+0076,1","+0006,1","10210,1",,,,,,"06,99,1,04,1,00,1,01750,1,05,1,02,1",,,,,"99999,9,10077,1","6,1,013,1,+999,9",,"SYN066AAXX  26154 08044 42770 61703 10076 20006 30077 40210 56013 84052;",
"08044099999","2010-12-26T18:00:00","4","42.4333333","-8.6166666","108.0","PONTEVEDRA, SP","FM-12","99999","V020","140,1,N,0015,1","22000,1,9,N","010000,1,N,1","+0048,1","+0000,1","10201,1","12,0000,9,1",,,,,"04,99,1,02,1,00,1,01750,1,03,1,02,1",,,,"999,M,+0080,1","99999,9,10066,1","5,1,011,1,+999,9",,"SYN082AAXX  26184 08044 12760 41403 10048 20000 30066 40201 55011 60002 82032 333 10080;","Q01  00002PRCP12"
"08044099999","2010-12-27T06:00:00","4","42.4333333","-8.6166666","108.0","PONTEVEDRA, SP","FM-12","99999","V020","130,1,N,0015,1","09000,1,9,N","015000,1,N,1","+0060,1","-0050,1","10155,1","12,0000,9,1","24,0000,9,1",,,,"06,99,1,03,1,00,1,01750,1,05,1,02,1","0270,9",,,"999,N,+0024,1","99999,9,10021,1","8,1,012,1,+999,9","02,1","SYN106AAXX  27064 08044 11765 61303 10060 21050 30021 40155 58012 60002 702// 83052 333 20024 50124 55045 70000;","Q01  00002PRCP24Q02  00002PRCP12"
"08044099999","2010-12-27T09:00:00","4","42.4333333","-8.6166666","108.0","PONTEVEDRA, SP","FM-12","99999","V020","200,1,N,0010,1","03600,1,9,N","020000,1,N,1","+0068,1","-0026,1","10158,1",,,,,,"06,99,1,02,1,05,1,00800,1,05,1,02,1",,,,,"99999,9,10025,1","1,1,004,1,+999,9",,"SYN066AAXX  27094 08044 42570 62002 10068 21026 30025 40158 51004 82552;",
"08044099999","2010-12-27T12:00:00","4","42.4333333","-8.6166666","108.0","PONTEVEDRA, SP","FM-12","99999","V020","140,1,N,0026,1","00210,1,9,N","005000,1,N,1","+0100,1","+0071,1","10160,1","06,9999,9,9",,"1,1,06,1","1,1,06,1",,"08,99,1,05,1,07,1,00250,1,07,1,99,9",,,,,"99999,9,10029,1","0,1,004,1,+999,9","60,1","SYN078AAXX  27124 08044 11350 81405 10100 20071 30029 40160 50004 69921 76011 8577/;","Q01  00002PRCP06Q02  00002PRCP06"
"08044099999","2010-12-27T15:00:00","4","42.4333333","-8.6166666","108.0","PONTEVEDRA, SP","FM-12","99999","V020","080,1,N,0021,1","00210,1,9,N","003000,1,N,1","+0100,1","+0084,1","10134,1",,,"6,1,03,1","2,1,03,1",,"08,99,1,06,1,07,1,00250,1,07,1,99,9",,,,,"99999,9,10003,1","8,1,026,1,+999,9","61,1","SYN072AAXX  27154 08044 41330 80804 10100 20084 30003 40134 58026 76162 8677/;",
"08044099999","2010-12-27T18:00:00","4","42.4333333","-8.6166666","108.0","PONTEVEDRA, SP","FM-12","99999","V020","160,1,N,0036,1","00210,1,9,N","004000,1,N,1","+0106,1","+0098,1","10144,1","12,0051,9,1",,"6,1,06,1","4,1,06,1",,"08,99,1,08,1,07,1,00250,1,99,9,99,9",,,,"999,M,+0108,1","99999,9,10013,1","3,1,010,1,+999,9","50,1","SYN088AAXX  27184 08044 11340 81607 10106 20098 30013 40144 53010 60052 75064 887// 333 10108;",
"08044099999","2010-12-28T06:00:00","4","42.4333333","-8.6166666","108.0","PONTEVEDRA, SP","FM-12","99999","V020","170,1,N,0015,1","00420,1,9,N","010000,1,N,1","+0118,1","+0107,1","10150,1","12,0079,9,1","24,0137,9,1",,,,"08,99,1,06,1,05,1,00450,1,07,1,99,9","0000,9",,,"999,N,+0102,1","99999,9,10020,1","8,1,003,1,+999,9","02,1","SYN106AAXX  28064 08044 11460 81703 10118 20107 30020 40150 58003 60082 702// 8657/ 333 20102 50094 55000 70136;",
"08044099999","2010-12-28T09:00:00","4","42.4333333","-8.6166666","108.0","PONTEVEDRA, SP","FM-12","99999","V020","300,1,N,0015,1","00420,1,9,N","006000,1,N,1","+0118,1","+0110,1","10149,1",,,"2,1,03,1","2,1,03,1",,"08,99,1,06,1,05,1,00450,1,07,1,99,9",,,,,"99999,9,10019,1","5,1,001,1,+999,9","10,1","SYN072AAXX  28094 08044 41456 83003 10118 20110 30019 40149 55001 71022 8657/;",
"08044099999","2010-12-28T12:00:00","4","42.4333333","-8.6166666","108.0","PONTEVEDRA, SP","FM-12","99999","V020","130,1,N,0021,1","00750,1,9,N","010000,1,N,1","+0132,1","+0113,1","10138,1","06,0000,9,1",,"4,1,06,1","2,1,06,1",,"08,99,1,08,1,05,1,00800,1,99,9,99,9",,,,,"99999,9,10008,1","8,1,011,1,+999,9","02,1","SYN078AAXX  28124 08044 11560 81304 10132 20113 30008 40138 58011 60001 70242 885//;","Q01  00002PRCP06"
"08044099999","2010-12-28T15:00:00","4","42.4333333","-8.6166666","108.0","PONTEVEDRA, SP","FM-12","99999","V020","050,1,N,0021,1","00210,1,9,N","003000,1,N,1","+0114,1","+0106,1","10128,1",,,"6,1,03,1","4,1,03,1",,"08,99,1,08,1,07,1,00250,1,99,9,99,9",,,,,"99999,9,09998,1","8,1,010,1,+999,9","61,1","SYN072AAXX  28154 08044 41330 80504 10114 20106 39998 40128 58010 76164 887//;",
"08044099999","2010-12-28T18:00:00","4","42.4333333","-8.6166666","108.0","PONTEVEDRA, SP","FM-12","99999","V020","100,1,N,0021,1","00420,1,9,N","012000,1,N,1","+0108,1","+0096,1","10123,1","12,0130,9,1",,"6,1,06,1","4,1,06,1",,"06,99,1,05,1,05,1,00450,1,07,1,99,9",,,,"999,M,+0135,1","99999,9,09992,1","6,1,006,1,+999,9","01,1","SYN088AAXX  28184 08044 11462 61004 10108 20096 39992 40123 56006 60132 70164 8557/ 333 10135;",
"08044099999","2010-12-29T06:00:00","4","42.4333333","-8.6166666","108.0","PONTEVEDRA, SP","FM-12","99999","V020","130,1,N,0026,1","03600,1,9,N","015000,1,N,1","+0144,1","+0077,1","10089,1","12,0000,9,1","24,0132,9,1",,,,"06,99,1,03,1,05,1,00450,1,07,1,99,9","0000,9",,,"999,N,+0105,1","99999,9,09960,1","5,1,010,1,+999,9","02,1","SYN106AAXX  29064 08044 11465 61305 10144 20077 39960 40089 55010 60002 702// 8357/ 333 20105 50104 55000 70132;","Q01  00002PRCP12"
"08044099999","2010-12-29T09:00:00","4","42.4333333","-8.6166666","108.0","PONTEVEDRA, SP","FM-12","99999","V020","140,1,N,0036,1","00420,1,9,N","010000,1,N,1","+0138,1","+0082,1","10097,1",,,"6,1,03,1","2,1,03,1",,"08,99,1,06,1,05,1,00450,1,07,1,99,9",,,,,"99999,9,09968,1","0,1,008,1,+999,9","02,1","SYN072AAXX  29094 08044 41460 81407 10138 20082 39968 40097 50008 70262 8657/;",
"08044099999","2010-12-29T12:00:00","4","42.4333333","-8.6166666","108.0","PONTEVEDRA, SP","FM-12","99999","V020","180,1,N,0036,1","00900,1,9,N","015000,1,N,1","+0150,1","+0096,1","10099,1","06,0005,9,1",,"6,1,06,1","2,1,06,1",,"07,99,1,07,1,08,1,00450,1,99,9,99,9",,,,,"99999,9,09971,1","0,1,003,1,+999,9","02,1","SYN078AAXX  29124 08044 11465 71807 10150 20096 39971 40099 50003 69941 70262 878//;",
"08044099999","2010-12-29T15:00:00","4","42.4333333","-8.6166666","108.0","PONTEVEDRA, SP","FM-12","99999","V020","170,1,N,0010,1","03600,1,9,N","020000,1,N,1","+0140,1","+0092,1","10097,1",,,"8,1,03,1","2,1,03,1",,"06,99,1,04,1,08,1,00450,1,04,1,02,1",,,,,"99999,9,09968,1","5,1,003,1,+999,9","01,1","SYN072AAXX  29154 08044 41470 61702 10140 20092 39968 40097 55003 70182 84842;",
"08044099999","2010-12-29T18:00:00","4","42.4333333","-8.6166666","108.0","PONTEVEDRA, SP","FM-12","99999","V020","050,1,N,0021,1","22000,1,9,N","015000,1,N,1","+0128,1","+0093,1","10096,1","12,0010,9,1",,"8,1,06,1","1,1,06,1",,"02,99,1,01,1,05,1,00450,1,03,1,00,1",,,,"999,M,+0154,1","99999,9,09967,1","8,1,001,1,+999,9","01,1","SYN088AAXX  29184 08044 11465 20504 10128 20093 39967 40096 58001 60012 70181 81530 333 10154;",
"08044099999","2010-12-30T06:00:00","4","42.4333333","-8.6166666","108.0","PONTEVEDRA, SP","FM-12","99999","V020","050,1,N,0021,1","00750,1,9,N","020000,1,N,1","+0144,1","+0070,1","10061,1","12,0000,9,1","24,0013,9,1",,,,"07,99,1,07,1,05,1,00800,1,99,9,99,9","0108,9",,,"999,N,+0121,1","99999,9,09933,1","7,1,012,1,+999,9","02,1","SYN106AAXX  30064 08044 11570 70504 10144 20070 39933 40061 57012 69922 702// 875// 333 20121 50204 55018 70012;","Q01  00002PRCP12"
"08044099999","2010-12-30T09:00:00","4","42.4333333","-8.6166666","108.0","PONTEVEDRA, SP","FM-12","99999","V020","090,1,N,0021,1","00750,1,9,N","015000,1,N,1","+0140,1","+0071,1","10064,1",,,"6,1,03,1","2,1,03,1",,"08,99,1,06,1,05,1,00800,1,07,1,99,9",,,,,"99999,9,09936,1","3,1,003,1,+999,9","02,1","SYN072AAXX  30094 08044 41565 80904 10140 20071 39936 40064 53003 70262 8657/;",
"08044099999","2010-12-30T12:00:00","4","42.4333333","-8.6166666","108.0","PONTEVEDRA, SP","FM-12","99999","V020","120,1,N,0026,1","00420,1,9,N","015000,1,N,1","+0148,1","+0076,1","10068,1","06,0000,9,1",,"6,1,06,1","2,1,06,1",,"08,99,1,06,1,05,1,00450,1,07,1,99,9",,,,,"99999,9,09940,1","0,1,004,1,+999,9","02,1","SYN078AAXX  30124 08044 11465 81205 10148 20076 39940 40068 50004 69901 70262 8657/;","Q01  00002PRCP06"
"08044099999","2010-12-30T15:00:00","4","42.4333333","-8.6166666","108.0","PONTEVEDRA, SP","FM-12","99999","V020","110,1,N,0021,1","00420,1,9,N","020000,1,N,1","+0148,1","+0076,1","10063,1",,,,,,"08,99,1,07,1,05,1,00450,1,07,1,99,9",,,,,"99999,9,09935,1","6,1,005,1,+999,9",,"SYN066AAXX  30154 08044 42470 81104 10148 20076 39935 40063 56005 8757/;",
"08044099999","2010-12-30T18:00:00","4","42.4333333","-8.6166666","108.0","PONTEVEDRA, SP","FM-12","99999","V020","100,1,N,0031,1","00420,1,9,N","020000,1,N,1","+0133,1","+0071,1","10067,1","12,0000,9,1",,,,,"08,99,1,06,1,05,1,00450,1,07,1,99,9",,,,"999,M,+0160,1","99999,9,09938,1","3,1,003,1,+999,9",,"SYN082AAXX  30184 08044 12470 81006 10133 20071 39938 40067 53003 69902 8657/ 333 10160;","Q01  00002PRCP12"
"08044099999","2010-12-31T06:00:00","4","42.4333333","-8.6166666","108.0","PONTEVEDRA, SP","FM-12","99999","V020","070,1,N,0015,1","00750,1,9,N","015000,1,N,1","+0121,1","+0082,1","10108,1","12,0005,9,1","24,0005,9,1",,,,"07,99,1,07,1,05,1,00800,1,99,9,99,9","0036,9",,,"999,N,+0113,1","99999,9,09978,1","2,1,014,1,+999,9","02,1","SYN106AAXX  31064 08044 11565 70703 10121 20082 39978 40108 52014 69942 702// 875// 333 20113 50224 55006 70004;",
"08044099999","2010-12-31T09:00:00","4","42.4333333","-8.6166666","108.0","PONTEVEDRA, SP","FM-12","99999","V020","100,1,N,0036,1","03600,1,9,N","020000,1,N,1","+0122,1","+0079,1","10130,1",,,,,,"06,99,1,04,1,05,1,00450,1,03,1,01,1",,,,,"99999,9,10000,1","2,1,022,1,+999,9",,"SYN066AAXX  31094 08044 42470 61007 10122 20079 30000 40130 52022 84531;",
"08044099999","2010-12-31T12:00:00","4","42.4333333","-8.6166666","108.0","PONTEVEDRA, SP","FM-12","99999","V020","050,1,N,0005,1","22000,1,9,N","020000,1,N,1","+0163,1","+0088,1","10135,1","06,0000,9,1",,,,,"03,99,1,01,1,05,1,00450,1,03,1,02,1",,,,,"99999,9,10007,1","0,1,007,1,+999,9",,"SYN072AAXX  31124 08044 12470 30501 10163 20088 30007 40135 50007 60001 81532;","Q01  00002PRCP06"
"08044099999","2010-12-31T15:00:00","4","42.4333333","-8.6166666","108.0","PONTEVEDRA, SP","FM-12","99999","V020","070,1,N,0031,1","22000,1,9,N","020000,1,N,1","+0159,1","+0077,1","10135,1",,,,,,"02,99,1,02,1,05,1,00450,1,00,1,00,1",,,,,"99999,9,10007,1","5,1,000,1,+999,9",,"SYN066AAXX  31154 08044 42470 20706 10159 20077 30007 40135 55000 82500;",
"08044099999","2010-12-31T18:00:00","4","42.4333333","-8.6166666","108.0","PONTEVEDRA, SP","FM-12","99999","V020","140,1,N,0010,1","22000,1,9,N","020000,1,N,1","+0124,1","+0079,1","10153,1","12,0000,9,1",,,,,"02,99,1,02,1,05,1,00450,1,00,1,00,1",,,,"999,M,+0167,1","99999,9,10023,1","2,1,016,1,+999,9",,"SYN082AAXX  31184 08044 12470 21402 10124 20079 30023 40153 52016 60002 82500 333 10167;","Q01  00002PRCP12"
