"STATION","DATE","SOURCE","LATITUDE","LONGITUDE","ELEVATION","NAME","REPORT_TYPE","CALL_SIGN","QUALITY_CONTROL","WND","CIG","VIS","TMP","DEW","SLP","AA1","AA2","AY1","AY2","GA1","GF1","GJ1","IA1","IA2","KA1","MA1","MD1","MW1","OD1","REM","EQD"
"08048099999","2010-01-04T06:00:00","4","42.3333333","-7.8666666","147.0","ORENSE, SP","FM-12","99999","V020","130,1,N,0015,1","00060,1,9,N","000800,1,N,1","+0060,1","+0056,1","10070,1","12,0000,9,1","24,0015,9,1",,,"09,1,+99999,9,99,9","09,99,1,09,1,99,9,99999,9,99,9,99,9","0144,9",,,"999,N,+0060,1","99999,9,09891,1","7,1,030,1,+999,9","47,1",,"SYN094AAXX  04064 08048 11/08 91303 10060 20056 39891 40070 57030 60002 747// 333 20060 55024 70014;","Q01  00002PRCP12"
"08048099999","2010-01-04T09:00:00","4","42.3333333","-7.8666666","147.0","ORENSE, SP","FM-12","99999","V020","150,1,N,0015,1","00210,1,9,N","002000,1,N,1","+0056,1","+0052,1","10061,1",,,"4,1,03,1","2,1,03,1",,"08,99,1,08,1,06,1,00250,1,99,9,99,9",,,,,"99999,9,09882,1","6,1,009,1,+999,9","10,1",,"SYN072AAXX  04094 08048 41320 81503 10056 20052 39882 40061 56009 71042 886//;",
"08048099999","2010-01-04T12:00:00","4","42.3333333","-7.8666666","147.0","ORENSE, SP","FM-12","99999","V020","180,1,N,0010,1","00420,1,9,N","010000,1,N,1","+0077,1","+0062,1","10046,1","06,0000,9,1",,"4,1,06,1","2,1,06,1",,"08,99,1,07,1,05,1,00450,1,07,1,99,9",,,,,"99999,9,09869,1","8,1,013,1,+999,9","02,1",,"SYN078AAXX  04124 08048 11460 81802 10077 20062 39869 40046 58013 60001 70242 8757/;","Q01  00002PRCP06"
"08048099999","2010-01-05T06:00:00","4","42.3333333","-7.8666666","147.0","ORENSE, SP","FM-12","99999","V020","160,1,N,0010,1","00210,1,9,N","003000,1,N,1","+0044,1","+0040,1","10045,1","12,0000,9,1","24,0003,9,1",,,,"07,99,1,07,1,06,1,00250,1,99,9,99,9","0000,9","09,9","999,-0010,9","999,N,+0030,1","99999,9,09866,1","0,1,003,1,+999,9","10,1",,"SYN112AAXX  05064 08048 11330 71602 10044 20040 39866 40045 50003 69912 710// 876// 333 20030 31101 50044 55000 70002;","Q01  00002PRCP12"
"08048099999","2010-01-05T09:00:00","4","42.3333333","-7.8666666","147.0","ORENSE, SP","FM-12","99999","V020","270,1,N,0010,1","00420,1,9,N","010000,1,N,1","+0052,1","+0048,1","10062,1",,,"2,1,03,1","2,1,03,1",,"08,99,1,08,1,07,1,00450,1,99,9,99,9",,,,,"99999,9,09883,1","3,1,017,1,+999,9","28,1",,"SYN072AAXX  05094 08048 41460 82702 10052 20048 39883 40062 53017 72822 887//;",
"08048099999","2010-01-05T12:00:00","4","42.3333333","-7.8666666","147.0","ORENSE, SP","FM-12","99999","V020","360,1,N,0021,1","00420,1,9,N","010000,1,N,1","+0081,1","+0028,1","10069,1","06,0000,9,1",,"4,1,06,1","2,1,06,1",,"08,99,1,08,1,05,1,00450,1,99,9,99,9",,,,,"99999,9,09892,1","1,1,009,1,+999,9","02,1",,"SYN078AAXX  05124 08048 11460 83604 10081 20028 39892 40069 51009 60001 70242 885//;","Q01  00002PRCP06"
"08048099999","2010-01-07T06:00:00","4","42.3333333","-7.8666666","147.0","ORENSE, SP","FM-12","99999","V020","999,9,C,0000,1","22000,1,9,N","010000,1,N,1","+0003,1","-0003,1","10060,1","12,0010,9,1","24,0015,9,1",,,,"01,99,1,01,1,06,1,00250,1,00,1,00,1","0078,9",,,"999,N,+0003,1","99999,9,09878,1","1,1,003,1,+999,9",,,"SYN094AAXX  07064 08048 12360 10000 10003 21003 39878 40060 51003 60012 81600 333 20003 55013 70014;",
"08048099999","2010-01-07T09:00:00","4","42.3333333","-7.8666666","147.0","ORENSE, SP","FM-12","99999","V020","150,1,N,0010,1","22000,1,9,N","010000,1,N,1","-0004,1","-0010,1","10079,1",,,,,,"01,99,1,01,1,06,1,00250,1,00,1,00,1",,,,,"99999,9,09896,1","2,1,018,1,+999,9",,,"SYN066AAXX  07094 08048 42360 11502 11004 21010 39896 40079 52018 81600;",
"08048099999","2010-01-07T12:00:00","4","42.3333333","-7.8666666","147.0","ORENSE, SP","FM-12","99999","V020","160,1,N,0010,1","22000,1,9,N","010000,1,N,1","+0060,1","+0021,1","10084,1","06,0000,9,1",,,,,"04,99,1,03,1,08,1,00450,1,04,1,00,1",,,,,"99999,9,09905,1","1,1,009,1,+999,9",,,"SYN072AAXX  07124 08048 12460 41602 10060 20021 39905 40084 51009 60001 83840;","Q01  00002PRCP06"
"08048099999","2010-01-08T06:00:00","4","42.3333333","-7.8666666","147.0","ORENSE, SP","FM-12","99999","V020","120,1,N,0010,1","22000,1,9,N","010000,1,N,1","-0016,1","-0026,1","10163,1","12,0000,9,1","24,0000,9,1",,,,"01,99,1,01,1,05,1,00450,1,00,1,00,1","0282,9","14,9","999,-0060,9","999,N,-0016,1","99999,9,09977,1","1,1,001,1,+999,9",,,"SYN106AAXX  08064 08048 12460 11202 11016 21026 39977 40163 51001 60002 81500 333 21016 34106 50094 55047 70000;","Q01  00002PRCP24Q02  00002PRCP12"
"08048099999","2010-01-08T09:00:00","4","42.3333333","-7.8666666","147.0","ORENSE, SP","FM-12","99999","V020","120,1,N,0010,1","22000,1,9,N","010000,1,N,1","-0015,1","-0025,1","10175,1",,,"0,1,03,1","0,1,03,1",,"01,99,1,01,1,05,1,00450,1,00,1,00,1",,,,,"99999,9,09989,1","1,1,012,1,+999,9","26,1",,"SYN072AAXX  08094 08048 41460 11202 11015 21025 39989 40175 51012 72600 81500;",
"08048099999","2010-01-08T12:00:00","4","42.3333333","-7.8666666","147.0","ORENSE, SP","FM-12","99999","V020","040,1,N,0010,1","00420,1,9,N","010000,1,N,1","+0048,1","-0006,1","10180,1","06,0000,2,1",,"7,1,06,1","1,1,06,1",,"05,99,1,05,1,05,1,00450,1,00,1,00,1",,,,,"99999,9,09998,1","0,1,009,1,+999,9","03,1",,"SYN078AAXX  08124 08048 11460 50402 10048 21006 39998 40180 50009 69901 70371 85500;",
"08048099999","2010-01-11T06:00:00","4","42.3333333","-7.8666666","147.0","ORENSE, SP","FM-12","99999","V020","260,1,N,0010,1","00420,1,9,N","010000,1,N,1","+0020,1","+0004,1","10141,1","12,0000,9,1","24,0000,9,1",,,,"07,99,1,07,1,05,1,00450,1,99,9,99,9","0000,9",,,"999,N,+0020,1","99999,9,09958,1","1,1,011,1,+999,9",,,"SYN094AAXX  11064 08048 12460 72602 10020 20004 39958 40141 51011 60002 875// 333 20020 55000 79999;","Q01  00002PRCP24Q02  00002PRCP12"
"08048099999","2010-01-11T09:00:00","4","42.3333333","-7.8666666","147.0","ORENSE, SP","FM-12","99999","V020","170,1,N,0010,1","03600,1,9,N","010000,1,N,1","+0008,1","-0003,1","10172,1",,,,,,"07,99,1,01,1,05,1,00450,1,07,1,02,1",,,,,"99999,9,09988,1","3,1,030,1,+999,9",,,"SYN066AAXX  11094 08048 42460 71702 10008 21003 39988 40172 53030 81572;",
"08048099999","2010-01-11T12:00:00","4","42.3333333","-7.8666666","147.0","ORENSE, SP","FM-12","99999","V020","030,1,N,0010,1","00750,1,9,N","010000,1,N,1","+0046,1","+0009,1","10178,1","06,0000,9,1",,,,,"07,99,1,07,1,05,1,00800,1,99,9,99,9",,,,,"99999,9,09996,1","0,1,008,1,+999,9",,,"SYN072AAXX  11124 08048 12560 70302 10046 20009 39996 40178 50008 60001 875//;","Q01  00002PRCP06"
"08048099999","2010-01-12T06:00:00","4","42.3333333","-7.8666666","147.0","ORENSE, SP","FM-12","99999","V020","160,1,N,0046,1","00420,1,9,N","010000,1,N,1","+0086,1","+0067,1","10051,1","12,0099,9,1","24,0104,9,1","6,1,06,1","2,1,06,1",,"08,99,1,08,1,07,1,00450,1,99,9,99,9","0216,9","11,9","999,-0050,9","999,N,+0056,1","99999,9,09874,1","7,1,045,1,+999,9","63,1",,"SYN112AAXX  12064 08048 11460 81609 10086 20067 39874 40051 57045 60102 76362 887// 333 20056 32105 50154 55036 70103;",
"08048099999","2010-01-12T09:00:00","4","42.3333333","-7.8666666","147.0","ORENSE, SP","FM-12","99999","V020","180,1,N,0010,1","00210,1,9,N","004000,1,N,1","+0093,1","+0087,1","10048,1",,,"6,1,03,1","6,1,03,1",,"08,99,1,08,1,07,1,00250,1,99,9,99,9",,,,,"99999,9,09872,1","5,1,002,1,+999,9","63,1",,"SYN072AAXX  12094 08048 41340 81802 10093 20087 39872 40048 55002 76366 887//;",
"08048099999","2010-01-12T12:00:00","4","42.3333333","-7.8666666","147.0","ORENSE, SP","FM-12","99999","V020","200,1,N,0015,1","00420,1,9,N","006000,1,N,1","+0104,1","+0092,1","10051,1","06,0231,9,1",,"6,1,06,1","6,1,06,1",,"07,99,1,07,1,07,1,00450,1,99,9,99,9",,,,,"99999,9,09876,1","1,1,004,1,+999,9","60,1",,"SYN078AAXX  12124 08048 11456 72003 10104 20092 39876 40051 51004 60231 76066 877//;",
"08048099999","2010-01-13T06:00:00","4","42.3333333","-7.8666666","147.0","ORENSE, SP","FM-12","99999","V020","220,1,N,0005,1","00420,1,9,N","010000,1,N,1","+0077,1","+0071,1","10095,1","12,0079,9,1","24,0340,9,1","6,1,06,1","2,1,06,1",,"08,99,1,08,1,07,1,00450,1,99,9,99,9","0060,9","11,9","999,+0030,9","999,N,+0064,1","99999,9,09917,1","8,1,017,1,+999,9","21,1",,"SYN112AAXX  13064 08048 11460 82201 10077 20071 39917 40095 58017 60082 72162 887// 333 20064 32003 50084 55010 70340;",
"08048099999","2010-01-13T09:00:00","4","42.3333333","-7.8666666","147.0","ORENSE, SP","FM-12","99999","V020","240,1,N,0010,1","00420,1,9,N","007000,1,N,1","+0082,1","+0078,1","10088,1",,,"6,1,03,1","2,1,03,1",,"08,99,1,08,1,07,1,00450,1,99,9,99,9",,,,,"99999,9,09911,1","6,1,006,1,+999,9","63,1",,"SYN072AAXX  13094 08048 41457 82402 10082 20078 39911 40088 56006 76362 887//;",
"08048099999","2010-01-13T12:00:00","4","42.3333333","-7.8666666","147.0","ORENSE, SP","FM-12","99999","V020","140,1,N,0005,1","00420,1,9,N","007000,1,N,1","+0094,1","+0089,1","10066,1","06,0089,9,1",,"6,1,06,1","2,1,06,1",,"08,99,1,08,1,07,1,00450,1,99,9,99,9",,,,,"99999,9,09890,1","8,1,021,1,+999,9","61,1",,"SYN078AAXX  13124 08048 11457 81401 10094 20089 39890 40066 58021 60091 76162 887//;",
"08048099999","2010-01-14T06:00:00","4","42.3333333","-7.8666666","147.0","ORENSE, SP","FM-12","99999","V020","290,1,N,0026,1","00900,1,9,N","010000,1,N,1","+0090,1","+0059,1","10058,1","12,0051,9,1","24,0249,9,1","8,1,06,1","2,1,06,1",,"07,99,1,07,1,08,1,00450,1,99,9,99,9","0000,9","09,9","999,+0070,9","999,N,+0089,1","99999,9,09881,1","2,1,080,2,+999,9","80,1",,"SYN112AAXX  14064 08048 11460 72905 10090 20059 39881 40058 52080 60052 78082 878// 333 20089 31007 50094 55000 70249;","Q01+000802APC3  "
"08048099999","2010-01-14T09:00:00","4","42.3333333","-7.8666666","147.0","ORENSE, SP","FM-12","99999","V020","070,1,N,0015,1","03600,1,9,N","010000,1,N,1","+0084,1","+0048,1","10099,1",,,"8,1,03,1","1,1,03,1",,"05,99,1,04,1,05,1,00450,1,04,1,00,1",,,,,"99999,9,09921,1","2,1,040,1,+999,9","03,1",,"SYN072AAXX  14094 08048 41460 50703 10084 20048 39921 40099 52040 70381 84540;",
"08048099999","2010-01-14T12:00:00","4","42.3333333","-7.8666666","147.0","ORENSE, SP","FM-12","99999","V020","280,1,N,0026,1","00900,1,9,N","010000,1,N,1","+0115,1","+0066,1","10127,1","06,0000,2,1",,"8,1,06,1","1,1,06,1",,"06,99,1,06,1,08,1,00450,1,00,1,00,1",,,,,"99999,9,09951,1","2,1,030,1,+999,9","02,1",,"SYN078AAXX  14124 08048 11460 62805 10115 20066 39951 40127 52030 69901 70281 86800;",
"08048099999","2010-01-15T06:00:00","4","42.3333333","-7.8666666","147.0","ORENSE, SP","FM-12","99999","V020","200,1,N,0010,1","00015,1,9,N","000100,1,N,1","+0035,1","+0032,1","10212,1","12,0000,9,1","24,0000,2,1",,,"09,1,+99999,9,99,9","09,99,1,09,1,99,9,99999,9,99,9,99,9","0096,9","09,9","999,-0020,9","999,N,+0027,1","99999,9,10029,1","6,1,003,1,+999,9","45,1",,"SYN106AAXX  15064 08048 11/01 92002 10035 20032 30029 40212 56003 60002 745// 333 20027 31102 50094 55016 79999;","Q01  00002PRCP12"
"08048099999","2010-01-15T09:00:00","4","42.3333333","-7.8666666","147.0","ORENSE, SP","FM-12","99999","V020","250,1,N,0010,1","00015,1,9,N","000100,1,N,1","+0041,1","+0038,1","10212,1",,,"4,1,03,1","4,1,03,1","09,1,+99999,9,99,9","09,99,1,09,1,99,9,99999,9,99,9,99,9",,,,,"99999,9,10030,1","0,1,001,1,+999,9","45,1",,"SYN066AAXX  15094 08048 41/01 92502 10041 20038 30030 40212 50001 74544;",
"08048099999","2010-01-15T12:00:00","4","42.3333333","-7.8666666","147.0","ORENSE, SP","FM-12","99999","V020","160,1,N,0046,1","03600,1,9,N","010000,1,N,1","+0108,1","+0047,1","10202,1","06,0000,9,1",,"4,1,06,1","2,1,06,1",,"08,99,1,01,1,01,1,00450,1,07,1,99,9",,,,,"99999,9,10024,1","8,1,006,1,+999,9","02,1",,"SYN078AAXX  15124 08048 11460 81609 10108 20047 30024 40202 58006 60001 70242 8117/;","Q01  00002PRCP06"
"08048099999","2010-01-18T06:00:00","4","42.3333333","-7.8666666","147.0","ORENSE, SP","FM-12","99999","V020","260,1,N,0005,1","00420,1,9,N","010000,1,N,1","+0099,1","+0088,1","10172,1","12,0000,9,1","24,0015,9,1",,,,"06,99,1,06,1,05,1,00450,1,00,1,00,1","0000,9",,,"999,N,+0098,1","99999,9,09994,1","6,1,008,1,+999,9",,,"SYN094AAXX  18064 08048 12460 62601 10099 20088 39994 40172 56008 60002 86500 333 20098 55000 70014;","Q01  00002PRCP12"
"08048099999","2010-01-18T09:00:00","4","42.3333333","-7.8666666","147.0","ORENSE, SP","FM-12","99999","V020","160,1,N,0010,1","00420,1,9,N","010000,1,N,1","+0102,1","+0091,1","10168,1",,,,,,"07,99,1,05,1,05,1,00450,1,07,1,99,9",,,,,"99999,9,09990,1","8,1,004,1,+999,9",,,"SYN066AAXX  18094 08048 42460 71602 10102 20091 39990 40168 58004 8557/;",
"08048099999","2010-01-18T12:00:00","4","42.3333333","-7.8666666","147.0","ORENSE, SP","FM-12","99999","V020","150,1,N,0026,1","03600,1,9,N","010000,1,N,1","+0146,1","+0100,1","10162,1","06,0000,9,1",,,,,"07,99,1,03,1,05,1,00450,1,07,1,99,9",,,,,"99999,9,09987,1","8,1,003,1,+999,9",,,"SYN072AAXX  18124 08048 12460 71505 10146 20100 39987 40162 58003 60001 8357/;","Q01  00002PRCP06"
"08048099999","2010-01-19T06:00:00","4","42.3333333","-7.8666666","147.0","ORENSE, SP","FM-12","99999","V020","220,1,N,0015,1","00900,1,9,N","010000,1,N,1","+0129,1","+0121,1","10141,1","12,0020,9,1","24,0023,9,1","8,1,06,1","2,1,06,1",,"07,99,1,07,1,08,1,00450,1,99,9,99,9","0000,9","09,9","999,+0070,9","999,N,+0126,1","99999,9,09966,1","6,1,002,1,+999,9","80,1",,"SYN112AAXX  19064 08048 11460 72203 10129 20121 39966 40141 56002 60022 78082 878// 333 20126 31007 50174 55000 70024;",
"08048099999","2010-01-19T09:00:00","4","42.3333333","-7.8666666","147.0","ORENSE, SP","FM-12","99999","V020","130,1,N,0010,1","22000,1,9,N","010000,1,N,1","+0118,1","+0110,1","10155,1",,,"8,1,03,1","1,1,03,1",,"03,99,1,02,1,08,1,00450,1,00,1,01,1",,,,,"99999,9,09979,1","3,1,013,1,+999,9","01,1",,"SYN072AAXX  19094 08048 41460 31302 10118 20110 39979 40155 53013 70181 82801;",
"08048099999","2010-01-19T12:00:00","4","42.3333333","-7.8666666","147.0","ORENSE, SP","FM-12","99999","V020","210,1,N,0031,1","03600,1,9,N","010000,1,N,1","+0136,1","+0106,1","10169,1","06,0005,9,1",,"8,1,06,1","1,1,06,1",,"05,99,1,04,1,08,1,00450,1,06,1,00,1",,,,,"99999,9,09994,1","1,1,015,1,+999,9","25,1",,"SYN078AAXX  19124 08048 11460 52106 10136 20106 39994 40169 51015 69951 72581 84860;",
"08048099999","2010-01-20T06:00:00","4","42.3333333","-7.8666666","147.0","ORENSE, SP","FM-12","99999","V020","150,1,N,0010,1","00900,1,9,N","010000,1,N,1","+0078,1","+0072,1","10200,1","12,0061,9,1","24,0061,9,1","6,1,06,1","2,1,06,1",,"07,99,1,07,1,08,1,00450,1,99,9,99,9","0162,9","09,9","999,+0020,9","999,N,+0072,1","99999,9,10020,1","2,1,013,1,+999,9","02,1",,"SYN112AAXX  20064 08048 11460 71502 10078 20072 30020 40200 52013 60062 70262 878// 333 20072 31002 50144 55027 70060;",
"08048099999","2010-01-20T09:00:00","4","42.3333333","-7.8666666","147.0","ORENSE, SP","FM-12","99999","V020","999,9,C,0000,1","03600,1,9,N","010000,1,N,1","+0064,1","+0057,1","10215,1",,,,,,"05,99,1,03,1,05,1,00450,1,04,1,02,1",,,,,"99999,9,10034,1","1,1,014,1,+999,9",,,"SYN066AAXX  20094 08048 42460 50000 10064 20057 30034 40215 51014 83542;",
"08048099999","2010-01-20T12:00:00","4","42.3333333","-7.8666666","147.0","ORENSE, SP","FM-12","99999","V020","360,1,N,0021,1","00420,1,9,N","010000,1,N,1","+0102,1","+0081,1","10218,1","06,9999,9,9",,"6,1,06,1","1,1,06,1",,"08,99,1,08,1,07,1,00450,1,99,9,99,9",,,,,"99999,9,10040,1","1,1,006,1,+999,9","21,1",,"SYN078AAXX  20124 08048 11460 83604 10102 20081 30040 40218 51006 69921 72161 887//;","Q01  00002PRCP06Q02  00002PRCP06"
"08048099999","2010-01-21T06:00:00","4","42.3333333","-7.8666666","147.0","ORENSE, SP","FM-12","99999","V020","210,1,N,0010,1","00060,1,9,N","000800,1,N,1","+0083,1","+0082,1","10214,1","12,0005,9,1","24,0046,9,1","6,1,06,1","2,1,06,1","09,1,+99999,9,99,9","09,99,1,09,1,99,9,99999,9,99,9,99,9","0000,9","09,9","999,+0000,9","999,N,+0083,1","99999,9,10034,1","5,1,008,1,+999,9","45,1",,"SYN106AAXX  21064 08048 11/08 92102 10083 20082 30034 40214 55008 69942 74562 333 20083 31000 50034 55000 70045;",
"08048099999","2010-01-21T09:00:00","4","42.3333333","-7.8666666","147.0","ORENSE, SP","FM-12","99999","V020","220,1,N,0010,1","00060,1,9,N","000800,1,N,1","+0082,1","+0078,1","10219,1",,,"4,1,03,1","2,1,03,1","09,1,+99999,9,99,9","09,99,1,09,1,99,9,99999,9,99,9,99,9",,,,,"99999,9,10039,1","1,1,005,1,+999,9","47,1",,"SYN066AAXX  21094 08048 41/08 92202 10082 20078 30039 40219 51005 74742;",
"08048099999","2010-01-21T12:00:00","4","42.3333333","-7.8666666","147.0","ORENSE, SP","FM-12","99999","V020","160,1,N,0021,1","03600,1,9,N","010000,1,N,1","+0138,1","+0078,1","10213,1","06,0000,9,1",,"4,1,06,1","2,1,06,1",,"07,99,1,01,1,01,1,00450,1,07,1,99,9",,,,,"99999,9,10037,1","8,1,002,1,+999,9","02,1",,"SYN078AAXX  21124 08048 11460 71604 10138 20078 30037 40213 58002 60001 70242 8117/;","Q01  00002PRCP06"
"08048099999","2010-01-22T06:00:00","4","42.3333333","-7.8666666","147.0","ORENSE, SP","FM-12","99999","V020","250,1,N,0021,1","00420,1,9,N","010000,1,N,1","+0120,1","+0092,1","10185,1","12,0000,9,1","24,0000,9,1",,,,"07,99,1,05,1,05,1,00450,1,07,1,99,9","0036,9","01,9","999,+0080,9","999,N,+0110,1","99999,9,10008,1","6,1,008,1,+999,9",,,"SYN106AAXX  22064 08048 12460 72504 10120 20092 30008 40185 56008 69902 8557/ 333 20110 30008 50144 55006 79999;","Q01  00002PRCP24Q02  00002PRCP12"
"08048099999","2010-01-22T09:00:00","4","42.3333333","-7.8666666","147.0","ORENSE, SP","FM-12","99999","V020","080,1,N,0010,1","00420,1,9,N","010000,1,N,1","+0110,1","+0096,1","10186,1",,,"8,1,03,1","2,1,03,1",,"08,99,1,05,1,07,1,00450,1,07,1,99,9",,,,,"99999,9,10009,1","3,1,001,1,+999,9","02,1",,"SYN072AAXX  22094 08048 41460 80802 10110 20096 30009 40186 53001 70282 8577/;",
"08048099999","2010-01-22T12:00:00","4","42.3333333","-7.8666666","147.0","ORENSE, SP","FM-12","99999","V020","160,1,N,0031,1","00420,1,9,N","010000,1,N,1","+0135,1","+0097,1","10183,1","06,9999,9,9",,"8,1,06,1","2,1,06,1",,"08,99,1,05,1,07,1,00450,1,07,1,99,9",,,,,"99999,9,10007,1","8,1,002,1,+999,9","60,1",,"SYN078AAXX  22124 08048 11460 81606 10135 20097 30007 40183 58002 69911 76082 8577/;","Q01  00002PRCP06Q02  00002PRCP06"
"08048099999","2010-01-25T09:00:00","4","42.3333333","-7.8666666","147.0","ORENSE, SP","FM-12","99999","V020","170,1,N,0010,1","00750,1,9,N","010000,1,N,1","-0002,1","-0008,1","10294,1",,,,,,"08,99,1,08,1,05,1,00800,1,99,9,99,9",,,,,"99999,9,10107,1","1,1,008,1,+999,9",,,"SYN066AAXX  25094 08048 42560 81702 11002 21008 30107 40294 51008 885//;",
"08048099999","2010-01-25T12:00:00","4","42.3333333","-7.8666666","147.0","ORENSE, SP","FM-12","99999","V020","210,1,N,0010,1","22000,1,9,N","010000,1,N,1","+0068,1","+0025,1","10284,1","06,0000,9,1",,,,,"01,99,1,01,1,01,1,00450,1,00,1,00,1",,,,,"99999,9,10102,1","8,1,005,1,+999,9",,,"SYN072AAXX  25124 08048 12460 12102 10068 20025 30102 40284 58005 60001 81100;","Q01  00002PRCP06"
"08048099999","2010-01-26T06:00:00","4","42.3333333","-7.8666666","147.0","ORENSE, SP","FM-12","99999","V020","120,1,N,0010,1","22000,1,9,N","010000,1,N,1","+0028,1","+0015,1","10238,1","12,0000,9,1","24,0000,9,1",,,,"01,99,1,01,1,01,1,00450,1,00,1,00,1","0372,9","09,9","999,-0060,9","999,N,+0024,1","99999,9,10054,1","3,1,006,1,+999,9",,,"SYN106AAXX  26064 08048 12460 11202 10028 20015 30054 40238 53006 69912 81100 333 20024 31106 50124 55062 70001;","Q01  00002PRCP24Q02  00002PRCP12"
"08048099999","2010-01-26T09:00:00","4","42.3333333","-7.8666666","147.0","ORENSE, SP","FM-12","99999","V020","060,1,N,0021,1","22000,1,9,N","010000,1,N,1","+0043,1","+0010,1","10252,1",,,,,,"01,99,1,01,1,01,1,00450,1,00,1,00,1",,,,,"99999,9,10069,1","1,1,015,1,+999,9",,,"SYN066AAXX  26094 08048 42460 10604 10043 20010 30069 40252 51015 81100;",
"08048099999","2010-01-26T12:00:00","4","42.3333333","-7.8666666","147.0","ORENSE, SP","FM-12","99999","V020","020,1,N,0026,1","22000,1,9,N","010000,1,N,1","+0116,1","+0010,1","10248,1","06,0000,9,1",,,,"00,1,+99999,9,99,9","00,99,1,00,1,00,1,99999,9,00,1,00,1",,,,,"99999,9,10070,1","0,1,001,1,+999,9",,,"SYN066AAXX  26124 08048 12960 00205 10116 20010 30070 40248 50001 60001;","Q01  00002PRCP06"
"08048099999","2010-01-27T06:00:00","4","42.3333333","-7.8666666","147.0","ORENSE, SP","FM-12","99999","V020","070,1,N,0010,1","22000,1,9,N","010000,1,N,1","+0036,1","+0007,1","10250,1","12,0000,9,1","24,0000,9,1",,,"00,1,+99999,9,99,9","00,99,1,00,1,00,1,99999,9,00,1,00,1","0492,9","09,9","999,-0040,9","999,N,+0020,1","99999,9,10066,1","6,1,010,1,+999,9",,,"SYN100AAXX  27064 08048 12960 00702 10036 20007 30066 40250 56010 60002 333 20020 31104 50244 55082 70000;","Q01  00002PRCP24Q02  00002PRCP12"
"08048099999","2010-01-27T09:00:00","4","42.3333333","-7.8666666","147.0","ORENSE, SP","FM-12","99999","V020","260,1,N,0010,1","22000,1,9,N","010000,1,N,1","+0011,1","-0004,1","10252,1",,,,,"00,1,+99999,9,99,9","00,99,1,00,1,00,1,99999,9,00,1,00,1",,,,,"99999,9,10067,1","3,1,001,1,+999,9",,,"SYN060AAXX  27094 08048 42960 02602 10011 21004 30067 40252 53001;",
"08048099999","2010-01-27T12:00:00","4","42.3333333","-7.8666666","147.0","ORENSE, SP","FM-12","99999","V020","070,1,N,0041,1","22000,1,9,N","010000,1,N,1","+0100,1","-0036,1","10249,1","06,0000,9,1",,,,,"01,99,1,01,1,01,1,00450,1,00,1,00,1",,,,,"99999,9,10069,1","0,1,002,1,+999,9",,,"SYN072AAXX  27124 08048 12460 10708 10100 21036 30069 40249 50002 60001 81100;","Q01  00002PRCP06"
"08048099999","2010-01-28T06:00:00","4","42.3333333","-7.8666666","147.0","ORENSE, SP","FM-12","99999","V020","200,1,N,0005,1","22000,1,9,N","010000,1,N,1","-0022,1","-0035,1","10266,1","12,0000,9,1","24,0000,9,1",,,"00,1,+99999,9,99,9","00,99,1,00,1,00,1,99999,9,00,1,00,1","0486,9","14,9","999,-0070,9","999,N,-0024,1","99999,9,10078,1","6,1,007,1,+999,9",,,"SYN100AAXX  28064 08048 12960 02001 11022 21035 30078 40266 56007 60002 333 21024 34107 5//// 55081 70000;","Q01  00002PRCP24Q02  00002PRCP12"
"08048099999","2010-01-28T09:00:00","4","42.3333333","-7.8666666","147.0","ORENSE, SP","FM-12","99999","V020","999,9,C,0000,1","22000,1,9,N","010000,1,N,1","-0022,1","-0032,1","10272,1",,,,,"00,1,+99999,9,99,9","00,99,1,00,1,00,1,99999,9,00,1,00,1",,,,,"99999,9,10084,1","1,1,006,1,+999,9",,,"SYN060AAXX  28094 08048 42960 00000 11022 21032 30084 40272 51006;",
"08048099999","2010-01-28T12:00:00","4","42.3333333","-7.8666666","147.0","ORENSE, SP","FM-12","99999","V020","230,1,N,0015,1","22000,1,9,N","010000,1,N,1","+0065,1","-0002,1","10255,1","06,0000,9,1",,,,"00,1,+99999,9,99,9","00,99,1,00,1,00,1,99999,9,00,1,00,1",,,,,"99999,9,10073,1","8,1,011,1,+999,9",,,"SYN066AAXX  28124 08048 12960 02303 10065 21002 30073 40255 58011 60001;","Q01  00002PRCP06"
"08048099999","2010-01-29T06:00:00","4","42.3333333","-7.8666666","147.0","ORENSE, SP","FM-12","99999","V020","260,1,N,0010,1","03600,1,9,N","010000,1,N,1","+0052,1","+0045,1","10158,1","12,0000,9,1","24,0000,9,1",,,,"08,99,1,01,1,06,1,00250,1,07,1,99,9","0492,9","01,9","999,-0080,9","999,N,+0048,1","99999,9,09977,1","7,1,020,1,+999,9",,,"SYN106AAXX  29064 08048 12360 82602 10052 20045 39977 40158 57020 60002 8167/ 333 20048 30108 50404 55082 70000;","Q01  00002PRCP24Q02  00002PRCP12"
"08048099999","2010-01-29T09:00:00","4","42.3333333","-7.8666666","147.0","ORENSE, SP","FM-12","99999","V020","270,1,N,0010,1","00210,1,9,N","005000,1,N,1","+0058,1","+0054,1","10150,1",,,"5,1,03,1","2,1,03,1",,"08,99,1,08,1,07,1,00250,1,99,9,99,9",,,,,"99999,9,09970,1","8,1,007,1,+999,9","20,1",,"SYN072AAXX  29094 08048 41350 82702 10058 20054 39970 40150 58007 72052 887//;",
"08048099999","2010-01-29T12:00:00","4","42.3333333","-7.8666666","147.0","ORENSE, SP","FM-12","99999","V020","300,1,N,0015,1","00900,1,9,N","010000,1,N,1","+0093,1","+0074,1","10137,1","06,0003,9,1",,"5,1,06,1","2,1,06,1",,"07,99,1,05,1,08,1,00450,1,07,1,99,9",,,,,"99999,9,09959,1","8,1,011,1,+999,9","20,1",,"SYN078AAXX  29124 08048 11460 73003 10093 20074 39959 40137 58011 69931 72052 8587/;",
"08048099999","2010-02-01T06:00:00","4","42.3333333","-7.8666666","147.0","ORENSE, SP","FM-12","99999","V020","999,9,C,0000,1","22000,1,9,N","010000,1,N,1","+0001,1","-0005,1","10203,1","12,0000,9,1","24,0000,9,1",,,,"01,99,1,01,1,06,1,00250,1,00,1,00,1","0174,9",,,"999,N,+0000,1","99999,9,10018,1","2,1,018,1,+999,9",,,"SYN094AAXX  01064 08048 12360 10000 10001 21005 30018 40203 52018 60002 81600 333 20000 55029 70001;","Q01  00002PRCP24Q02  00002PRCP12"
"08048099999","2010-02-01T09:00:00","4","42.3333333","-7.8666666","147.0","ORENSE, SP","FM-12","99999","V020","190,1,N,0021,1","00120,1,9,N","001200,1,N,1","+0010,1","+0007,1","10228,1",,,"1,1,03,1","1,1,03,1",,"08,99,1,08,1,06,1,00150,1,99,9,99,9",,,,,"99999,9,10043,1","2,1,025,1,+999,9","10,1",,"SYN072AAXX  01094 08048 41212 81904 10010 20007 30043 40228 52025 71011 886//;",
"08048099999","2010-02-01T12:00:00","4","42.3333333","-7.8666666","147.0","ORENSE, SP","FM-12","99999","V020","270,1,N,0015,1","22000,1,9,N","010000,1,N,1","+0062,1","+0028,1","10228,1","06,0000,9,1",,"4,1,06,1","1,1,06,1","00,1,+99999,9,99,9","00,99,1,00,1,00,1,99999,9,00,1,00,1",,,,,"99999,9,10047,1","1,1,004,1,+999,9","01,1",,"SYN072AAXX  01124 08048 11960 02703 10062 20028 30047 40228 51004 60001 70141;","Q01  00002PRCP06"
"08048099999","2010-02-02T06:00:00","4","42.3333333","-7.8666666","147.0","ORENSE, SP","FM-12","99999","V020","280,1,N,0010,1","00210,1,9,N","010000,1,N,1","-0019,1","-0025,1","10241,1","12,0000,9,1","24,0000,9,1",,,,"06,99,1,06,1,06,1,00250,1,00,1,00,1","0366,9","14,9","999,-0070,9","999,N,-0020,1","99999,9,10054,1","6,1,002,1,+999,9",,,"SYN106AAXX  02064 08048 12360 62802 11019 21025 30054 40241 56002 60002 86600 333 21020 34107 50114 55061 70000;","Q01  00002PRCP24Q02  00002PRCP12"
"08048099999","2010-02-02T09:00:00","4","42.3333333","-7.8666666","147.0","ORENSE, SP","FM-12","99999","V020","240,1,N,0010,1","00060,1,9,N","000800,1,N,1","-0004,1","-0007,1","10244,1",,,"4,1,03,1","2,1,03,1","09,1,+99999,9,99,9","09,99,1,09,1,99,9,99999,9,99,9,99,9",,,,,"99999,9,10058,1","1,1,004,1,+999,9","45,1",,"SYN066AAXX  02094 08048 41/08 92402 11004 21007 30058 40244 51004 74542;",
"08048099999","2010-02-02T12:00:00","4","42.3333333","-7.8666666","147.0","ORENSE, SP","FM-12","99999","V020","190,1,N,0015,1","22000,1,9,N","010000,1,N,1","+0047,1","+0010,1","10233,1","06,0000,9,1",,"4,1,06,1","1,1,06,1","00,1,+99999,9,99,9","00,99,1,00,1,00,1,99999,9,00,1,00,1",,,,,"99999,9,10050,1","8,1,008,1,+999,9","01,1",,"SYN072AAXX  02124 08048 11960 01903 10047 20010 30050 40233 58008 60001 70141;","Q01  00002PRCP06"
"08048099999","2010-02-03T06:00:00","4","42.3333333","-7.8666666","147.0","ORENSE, SP","FM-12","99999","V020","150,1,N,0005,1","22000,1,9,N","010000,1,N,1","-0020,1","-0027,1","10202,1","12,0000,9,1","24,0000,9,1",,,,"03,99,1,03,1,06,1,00250,1,00,1,00,1","0378,9","14,9","999,-0080,9","999,N,-0023,1","99999,9,10015,1","8,1,002,1,+999,9",,,"SYN106AAXX  03064 08048 12360 31501 11020 21027 30015 40202 58002 60002 83600 333 21023 34108 5//// 55063 70000;","Q01  00002PRCP24Q02  00002PRCP12"
"08048099999","2010-02-03T09:00:00","4","42.3333333","-7.8666666","147.0","ORENSE, SP","FM-12","99999","V020","220,1,N,0010,1","00060,1,9,N","000700,1,N,1","-0007,1","-0010,1","10201,1",,,"4,1,03,1","1,1,03,1","09,1,+99999,9,99,9","09,99,1,09,1,99,9,99999,9,99,9,99,9",,,,,"99999,9,10015,1","5,1,000,1,+999,9","47,1",,"SYN066AAXX  03094 08048 41/07 92202 11007 21010 30015 40201 55000 74741;",
"08048099999","2010-02-03T12:00:00","4","42.3333333","-7.8666666","147.0","ORENSE, SP","FM-12","99999","V020","300,1,N,0015,1","22000,1,9,N","010000,1,N,1","+0056,1","+0021,1","10173,1","06,0000,9,1",,"4,1,06,1","1,1,06,1",,"03,99,1,01,1,00,1,02250,1,04,1,02,1",,,,,"99999,9,09992,1","8,1,023,1,+999,9","01,1",,"SYN078AAXX  03124 08048 11860 33003 10056 20021 39992 40173 58023 60001 70141 81042;","Q01  00002PRCP06"
"08048099999","2010-02-04T06:00:00","4","42.3333333","-7.8666666","147.0","ORENSE, SP","FM-12","99999","V020","170,1,N,0026,1","03600,1,9,N","010000,1,N,1","+0109,1","+0048,1","10076,1","12,0000,9,1","24,0000,9,1",,,,"07,99,1,02,1,05,1,00800,1,07,1,99,9","0216,9",,,"999,N,+0109,1","99999,9,09900,1","6,1,013,1,+999,9",,,"SYN100AAXX  04064 08048 12560 71705 10109 20048 39900 40076 56013 60002 8257/ 333 20109 50404 55036 70000;","Q01  00002PRCP24Q02  00002PRCP12"
"08048099999","2010-02-04T09:00:00","4","42.3333333","-7.8666666","147.0","ORENSE, SP","FM-12","99999","V020","150,1,N,0051,1","00420,1,9,N","010000,1,N,1","+0112,1","+0061,1","10067,1",,,,,,"07,99,1,06,1,05,1,00450,1,07,1,99,9",,,,,"99999,9,09892,1","8,1,008,1,+999,9",,,"SYN066AAXX  04094 08048 42460 71510 10112 20061 39892 40067 58008 8657/;",
"08048099999","2010-02-04T12:00:00","4","42.3333333","-7.8666666","147.0","ORENSE, SP","FM-12","99999","V020","150,1,N,0051,1","00420,1,9,N","010000,1,N,1","+0130,1","+0079,1","10054,1","06,9999,9,9",,"6,1,06,1","2,1,06,1",,"08,99,1,08,1,07,1,00450,1,99,9,99,9",,,,,"99999,9,09880,1","8,1,012,1,+999,9","20,1",,"SYN078AAXX  04124 08048 11460 81510 10130 20079 39880 40054 58012 69901 72062 887//;","Q01  00002PRCP06Q02  00002PRCP06"
"08048099999","2010-02-05T06:00:00","4","42.3333333","-7.8666666","147.0","ORENSE, SP","FM-12","99999","V020","130,1,N,0015,1","00420,1,9,N","010000,1,N,1","+0076,1","+0051,1","10133,1","12,0041,9,1","24,0102,9,1","6,1,06,1","2,1,06,1",,"07,99,1,07,1,07,1,00450,1,99,9,99,9","0018,9","09,9","999,+0040,9","999,N,+0074,1","99999,9,09954,1","1,1,015,1,+999,9","25,1",,"SYN112AAXX  05064 08048 11460 71303 10076 20051 39954 40133 51015 60042 72562 877// 333 20074 31004 50194 55003 70102;",
"08048099999","2010-02-05T09:00:00","4","42.3333333","-7.8666666","147.0","ORENSE, SP","FM-12","99999","V020","170,1,N,0021,1","00900,1,9,N","009000,1,N,1","+0082,1","+0055,1","10155,1",,,"8,1,03,1","1,1,03,1",,"07,99,1,07,1,08,1,00450,1,99,9,99,9",,,,,"99999,9,09976,1","1,1,022,1,+999,9","80,1",,"SYN072AAXX  05094 08048 41459 71704 10082 20055 39976 40155 51022 78081 878//;",
"08048099999","2010-02-05T12:00:00","4","42.3333333","-7.8666666","147.0","ORENSE, SP","FM-12","99999","V020","220,1,N,0051,1","00900,1,9,N","010000,1,N,1","+0122,1","+0069,1","10165,1","06,0020,9,1",,"8,1,06,1","1,1,06,1",,"06,99,1,05,1,08,1,00450,1,06,1,00,1",,,,,"99999,9,09989,1","1,1,013,1,+999,9","02,1",,"SYN078AAXX  05124 08048 11460 62210 10122 20069 39989 40165 51013 60021 70281 85860;",
"08048099999","2010-02-08T06:00:00","4","42.3333333","-7.8666666","147.0","ORENSE, SP","FM-12","99999","V020","280,1,N,0005,1","00210,1,9,N","009000,1,N,1","+0097,1","+0096,1","10044,1","12,0030,9,1","24,0033,9,1","6,1,06,1","2,1,06,1",,"08,99,1,08,1,06,1,00250,1,99,9,99,9","0060,9",,,"999,N,+0096,1","99999,9,09868,1","6,1,006,1,+999,9","10,1",,"SYN100AAXX  08064 08048 11359 82801 10097 20096 39868 40044 56006 60032 71062 886// 333 20096 55010 70032;",
"08048099999","2010-02-08T09:00:00","4","42.3333333","-7.8666666","147.0","ORENSE, SP","FM-12","99999","V020","070,1,N,0005,1","00120,1,9,N","002000,1,N,1","+0095,1","+0089,1","10050,1",,,"2,1,03,1","2,1,03,1",,"07,99,1,07,1,06,1,00150,1,99,9,99,9",,,,,"99999,9,09874,1","1,1,006,1,+999,9","10,1",,"SYN072AAXX  08094 08048 41220 70701 10095 20089 39874 40050 51006 71022 876//;",
"08048099999","2010-02-08T12:00:00","4","42.3333333","-7.8666666","147.0","ORENSE, SP","FM-12","99999","V020","250,1,N,0010,1","22000,1,9,N","010000,1,N,1","+0137,1","+0079,1","10036,1","06,0000,9,1",,,,,"04,99,1,03,1,02,1,00450,1,04,1,01,1",,,,,"99999,9,09863,1","8,1,011,1,+999,9",,,"SYN072AAXX  08124 08048 12460 42502 10137 20079 39863 40036 58011 60001 83241;","Q01  00002PRCP06"
"08048099999","2010-02-09T06:00:00","4","42.3333333","-7.8666666","147.0","ORENSE, SP","FM-12","99999","V020","999,9,C,0000,1","00210,1,9,N","006000,1,N,1","+0087,1","+0086,1","10046,1","12,0030,9,1","24,0043,9,1","8,1,06,1","2,1,06,1",,"08,99,1,08,1,07,1,00250,1,99,9,99,9","0108,9","09,9","999,+0040,9","999,N,+0086,1","99999,9,09870,1","5,1,000,1,+999,9","80,1",,"SYN112AAXX  09064 08048 11356 80000 10087 20086 39870 40046 55000 60032 78082 887// 333 20086 31004 50084 55018 70044;",
"08048099999","2010-02-09T09:00:00","4","42.3333333","-7.8666666","147.0","ORENSE, SP","FM-12","99999","V020","260,1,N,0005,1","00900,1,9,N","010000,1,N,1","+0091,1","+0086,1","10072,1",,,"8,1,03,1","2,1,03,1",,"05,99,1,05,1,08,1,00450,1,00,1,00,1",,,,,"99999,9,09895,1","2,1,025,1,+999,9","01,1",,"SYN072AAXX  09094 08048 41460 52601 10091 20086 39895 40072 52025 70182 85800;",
"08048099999","2010-02-09T12:00:00","4","42.3333333","-7.8666666","147.0","ORENSE, SP","FM-12","99999","V020","070,1,N,0015,1","00900,1,9,N","010000,1,N,1","+0106,1","+0056,1","10084,1","06,0020,9,1",,"8,1,06,1","1,1,06,1",,"07,99,1,07,1,08,1,00450,1,00,1,00,1",,,,,"99999,9,09908,1","1,1,013,1,+999,9","01,1",,"SYN078AAXX  09124 08048 11460 70703 10106 20056 39908 40084 51013 60021 70181 87800;",
"08048099999","2010-02-10T06:00:00","4","42.3333333","-7.8666666","147.0","ORENSE, SP","FM-12","99999","V020","160,1,N,0010,1","03600,1,9,N","010000,1,N,1","+0021,1","+0008,1","10105,1","12,0000,9,1","24,0015,9,1",,,,"08,99,1,02,1,05,1,00450,1,07,1,99,9","0186,9","09,9","999,-0030,9","999,N,+0007,1","99999,9,09923,1","5,1,008,1,+999,9",,,"SYN106AAXX  10064 08048 12460 81602 10021 20008 39923 40105 55008 60002 8257/ 333 20007 31103 50124 55031 70015;","Q01  00002PRCP12"
"08048099999","2010-02-10T09:00:00","4","42.3333333","-7.8666666","147.0","ORENSE, SP","FM-12","99999","V020","170,1,N,0010,1","02100,1,9,N","010000,1,N,1","+0030,1","+0015,1","10101,1",,,,,,"08,99,1,08,1,00,1,02250,1,07,1,99,9",,,,,"99999,9,09920,1","5,1,003,1,+999,9",,,"SYN066AAXX  10094 08048 42860 81702 10030 20015 39920 40101 55003 8807/;",
"08048099999","2010-02-10T12:00:00","4","42.3333333","-7.8666666","147.0","ORENSE, SP","FM-12","99999","V020","030,1,N,0010,1","03600,1,9,N","010000,1,N,1","+0066,1","+0011,1","10099,1","06,0000,9,1",,,,,"08,99,1,01,1,05,1,00800,1,07,1,99,9",,,,,"99999,9,09920,1","5,1,000,1,+999,9",,,"SYN072AAXX  10124 08048 12560 80302 10066 20011 39920 40099 55000 60001 8157/;","Q01  00002PRCP06"
"08048099999","2010-02-11T06:00:00","4","42.3333333","-7.8666666","147.0","ORENSE, SP","FM-12","99999","V020","110,1,N,0010,1","22000,1,9,N","010000,1,N,1","+0000,1","-0003,1","10145,1","12,0000,9,1","24,0013,9,1",,,,"01,99,1,01,1,06,1,00150,1,00,1,00,1","0000,9","09,9","999,-0020,9","999,N,-0003,1","99999,9,09961,1","1,1,015,1,+999,9",,,"SYN106AAXX  11064 08048 12260 11102 10000 21003 39961 40145 51015 60002 81600 333 21003 31102 50054 55000 70012;","Q01  00002PRCP12"
"08048099999","2010-02-11T09:00:00","4","42.3333333","-7.8666666","147.0","ORENSE, SP","FM-12","99999","V020","140,1,N,0010,1","22000,1,9,N","010000,1,N,1","+0000,1","-0006,1","10158,1",,,,,,"01,99,1,00,1,00,1,99999,9,00,1,01,1",,,,,"99999,9,09974,1","3,1,013,1,+999,9",,,"SYN066AAXX  11094 08048 42960 11402 10000 21006 39974 40158 53013 80001;",
"08048099999","2010-02-11T12:00:00","4","42.3333333","-7.8666666","147.0","ORENSE, SP","FM-12","99999","V020","060,1,N,0036,1","22000,1,9,N","010000,1,N,1","+0082,1","-0024,1","10154,1","06,0000,9,1",,,,,"02,99,1,02,1,01,1,00450,1,00,1,00,1",,,,,"99999,9,09975,1","0,1,001,1,+999,9",,,"SYN072AAXX  11124 08048 12460 20607 10082 21024 39975 40154 50001 60001 82100;","Q01  00002PRCP06"
"08048099999","2010-02-12T06:00:00","4","42.3333333","-7.8666666","147.0","ORENSE, SP","FM-12","99999","V020","250,1,N,0010,1","22000,1,9,N","010000,1,N,1","-0030,1","-0043,1","10164,1","12,0000,9,1","24,0000,9,1",,,"00,1,+99999,9,99,9","00,99,1,00,1,00,1,99999,9,00,1,00,1","0510,9","14,9","999,-0080,9","999,N,-0033,1","99999,9,09977,1","6,1,002,1,+999,9",,,"SYN100AAXX  12064 08048 12960 02502 11030 21043 39977 40164 56002 60002 333 21033 34108 5//// 55085 70000;","Q01  00002PRCP24Q02  00002PRCP12"
"08048099999","2010-02-12T09:00:00","4","42.3333333","-7.8666666","147.0","ORENSE, SP","FM-12","99999","V020","210,1,N,0010,1","22000,1,9,N","010000,1,N,1","-0028,1","-0041,1","10169,1",,,,,,"01,99,1,00,1,00,1,99999,9,00,1,02,1",,,,,"99999,9,09982,1","0,1,005,1,+999,9",,,"SYN066AAXX  12094 08048 42960 12102 11028 21041 39982 40169 50005 80002;",
"08048099999","2010-02-12T12:00:00","4","42.3333333","-7.8666666","147.0","ORENSE, SP","FM-12","99999","V020","010,1,N,0021,1","22000,1,9,N","010000,1,N,1","+0070,1","-0057,1","10149,1","06,0000,9,1",,,,,"01,99,1,00,1,00,1,99999,9,00,1,02,1",,,,,"99999,9,09969,1","7,1,013,1,+999,9",,,"SYN072AAXX  12124 08048 12960 10104 10070 21057 39969 40149 57013 60001 80002;","Q01  00002PRCP06"
"08048099999","2010-02-15T06:00:00","4","42.3333333","-7.8666666","147.0","ORENSE, SP","FM-12","99999","V020","130,1,N,0010,1","22000,1,9,N","010000,1,N,1","+0001,1","-0013,1","09998,1","12,0000,9,1","24,0000,9,1",,,,"03,99,1,00,1,00,1,99999,9,00,1,01,1","0114,9",,,"999,N,+0000,1","99999,9,09817,1","7,1,022,1,+999,9",,,"SYN094AAXX  15064 08048 12960 31302 10001 21013 39817 49998 57022 60002 80001 333 20000 55019 70000;","Q01  00002PRCP24Q02  00002PRCP12"
"08048099999","2010-02-15T09:00:00","4","42.3333333","-7.8666666","147.0","ORENSE, SP","FM-12","99999","V020","140,1,N,0010,1","09000,1,9,N","010000,1,N,1","-0004,1","-0018,1","09990,1",,,,,,"05,99,1,01,1,00,1,02250,1,04,1,02,1",,,,,"99999,9,09808,1","6,1,009,1,+999,9",,,"SYN066AAXX  15094 08048 42860 51402 11004 21018 39808 49990 56009 81042;",
"08048099999","2010-02-15T12:00:00","4","42.3333333","-7.8666666","147.0","ORENSE, SP","FM-12","99999","V020","200,1,N,0015,1","09000,1,9,N","010000,1,N,1","+0077,1","-0018,1","09969,1","06,0000,9,1",,,,,"06,99,1,02,1,00,1,02250,1,07,1,08,1",,,,,"99999,9,09793,1","7,1,015,1,+999,9",,,"SYN072AAXX  15124 08048 12860 62003 10077 21018 39793 49969 57015 60001 82078;","Q01  00002PRCP06"
"08048099999","2010-02-17T06:00:00","4","42.3333333","-7.8666666","147.0","ORENSE, SP","FM-12","99999","V020","050,1,N,0010,1","00420,1,9,N","010000,1,N,1","+0076,1","+0049,1","09887,1","12,9999,9,9","24,9999,9,9","2,1,06,1","2,1,06,1",,"08,99,1,08,1,07,1,00450,1,99,9,99,9","0000,9",,,"999,N,+0074,1","99999,9,09713,1","3,1,005,1,+999,9","20,1",,"SYN100AAXX  17064 08048 11460 80502 10076 20049 39713 49887 53005 69902 72022 887// 333 20074 55000 79999;","Q01  00002PRCP24Q02  00002PRCP12Q03  00002PRCP12Q04  00002PRCP24"
"08048099999","2010-02-17T09:00:00","4","42.3333333","-7.8666666","147.0","ORENSE, SP","FM-12","99999","V020","250,1,N,0005,1","00120,1,9,N","003000,1,N,1","+0068,1","+0064,1","09910,1",,,"6,1,03,1","5,1,03,1",,"08,99,1,08,1,07,1,00150,1,99,9,99,9",,,,,"99999,9,09735,1","2,1,022,1,+999,9","51,1",,"SYN072AAXX  17094 08048 41230 82501 10068 20064 39735 49910 52022 75165 887//;",
"08048099999","2010-02-17T12:00:00","4","42.3333333","-7.8666666","147.0","ORENSE, SP","FM-12","99999","V020","220,1,N,0005,1","00210,1,9,N","009000,1,N,1","+0080,1","+0069,1","09936,1","06,0010,9,1",,"6,1,06,1","5,1,06,1",,"08,99,1,06,1,07,1,00250,1,07,1,99,9",,,,,"99999,9,09761,1","2,1,026,1,+999,9","51,1",,"SYN078AAXX  17124 08048 11359 82201 10080 20069 39761 49936 52026 60011 75165 8677/;",
"08048099999","2010-02-18T06:00:00","4","42.3333333","-7.8666666","147.0","ORENSE, SP","FM-12","99999","V020","290,1,N,0010,1","00420,1,9,N","010000,1,N,1","+0020,1","+0014,1","10010,1","12,0005,9,1","24,0018,9,1",,,,"05,99,1,05,1,05,1,00450,1,00,1,00,1","0108,9","09,9","999,-0020,9","999,N,+0018,1","99999,9,09830,1","5,1,001,1,+999,9",,,"SYN106AAXX  18064 08048 12460 52902 10020 20014 39830 40010 55001 69942 85500 333 20018 31102 50104 55018 70017;",
"08048099999","2010-02-18T09:00:00","4","42.3333333","-7.8666666","147.0","ORENSE, SP","FM-12","99999","V020","340,1,N,0015,1","00210,1,9,N","010000,1,N,1","+0044,1","+0040,1","10016,1",,,,,,"06,99,1,06,1,06,1,00250,1,00,1,00,1",,,,,"99999,9,09837,1","3,1,007,1,+999,9",,,"SYN066AAXX  18094 08048 42360 63403 10044 20040 39837 40016 53007 86600;",
"08048099999","2010-02-18T12:00:00","4","42.3333333","-7.8666666","147.0","ORENSE, SP","FM-12","99999","V020","340,1,N,0021,1","22000,1,9,N","010000,1,N,1","+0106,1","+0036,1","09995,1","06,0000,9,1",,,,,"05,99,1,02,1,01,1,00450,1,00,1,08,1",,,,,"99999,9,09820,1","8,1,017,1,+999,9",,,"SYN072AAXX  18124 08048 12460 53404 10106 20036 39820 49995 58017 60001 82108;","Q01  00002PRCP06"
"08048099999","2010-02-19T06:00:00","4","42.3333333","-7.8666666","147.0","ORENSE, SP","FM-12","99999","V020","260,1,N,0005,1","22000,1,9,N","010000,1,N,1","+0004,1","-0005,1","10036,1","12,0000,9,1","24,0000,9,1",,,,"01,99,1,01,1,06,1,00250,1,00,1,00,1","0336,9","14,9","999,-0050,9","999,N,+0002,1","99999,9,09854,1","3,1,022,1,+999,9",,,"SYN106AAXX  19064 08048 12360 12601 10004 21005 39854 40036 53022 60002 81600 333 20002 34105 50154 55056 70000;","Q01  00002PRCP24Q02  00002PRCP12"
"08048099999","2010-02-19T09:00:00","4","42.3333333","-7.8666666","147.0","ORENSE, SP","FM-12","99999","V020","200,1,N,0010,1","00210,1,9,N","010000,1,N,1","+0018,1","+0008,1","10064,1",,,,,,"06,99,1,05,1,06,1,00250,1,04,1,00,1",,,,,"99999,9,09883,1","2,1,029,1,+999,9",,,"SYN066AAXX  19094 08048 42360 62002 10018 20008 39883 40064 52029 85640;",
"08048099999","2010-02-19T12:00:00","4","42.3333333","-7.8666666","147.0","ORENSE, SP","FM-12","99999","V020","200,1,N,0015,1","22000,1,9,N","010000,1,N,1","+0101,1","+0032,1","10070,1","06,0000,9,1",,,,,"03,99,1,03,1,02,1,00450,1,06,1,00,1",,,,,"99999,9,09894,1","1,1,011,1,+999,9",,,"SYN072AAXX  19124 08048 12460 32003 10101 20032 39894 40070 51011 60001 83260;","Q01  00002PRCP06"
"08048099999","2010-02-22T06:00:00","4","42.3333333","-7.8666666","147.0","ORENSE, SP","FM-12","99999","V020","240,1,N,0021,1","00420,1,9,N","010000,1,N,1","+0094,1","+0082,1","09907,1","12,0061,9,1","24,0084,9,1","6,1,06,1","2,1,06,1",,"08,99,1,08,1,07,1,00450,1,99,9,99,9","0222,9",,,"999,N,+0094,1","99999,9,09733,1","6,1,013,1,+999,9","60,1",,"SYN100AAXX  22064 08048 11460 82404 10094 20082 39733 49907 56013 60062 76062 887// 333 20094 55037 70083;",
"08048099999","2010-02-22T09:00:00","4","42.3333333","-7.8666666","147.0","ORENSE, SP","FM-12","99999","V020","150,1,N,0021,1","00900,1,9,N","010000,1,N,1","+0113,1","+0092,1","09910,1",,,"6,1,03,1","2,1,03,1",,"07,99,1,06,1,08,1,00450,1,06,1,01,1",,,,,"99999,9,09738,1","1,1,005,1,+999,9","21,1",,"SYN072AAXX  22094 08048 41460 71504 10113 20092 39738 49910 51005 72162 86861;",
"08048099999","2010-02-22T12:00:00","4","42.3333333","-7.8666666","147.0","ORENSE, SP","FM-12","99999","V020","220,1,N,0026,1","00420,1,9,N","010000,1,N,1","+0124,1","+0089,1","09926,1","06,0020,9,1",,"6,1,06,1","2,1,06,1",,"08,99,1,06,1,07,1,00450,1,07,1,99,9",,,,,"99999,9,09754,1","1,1,016,1,+999,9","60,1",,"SYN078AAXX  22124 08048 11460 82205 10124 20089 39754 49926 51016 60021 76062 8677/;",
"08048099999","2010-02-23T06:00:00","4","42.3333333","-7.8666666","147.0","ORENSE, SP","FM-12","99999","V020","160,1,N,0026,1","00420,1,9,N","010000,1,N,1","+0094,1","+0077,1","09976,1","12,0119,9,1","24,0160,9,1","6,1,06,1","2,1,06,1",,"08,99,1,08,1,07,1,00450,1,99,9,99,9","0114,9","11,9","999,+0080,9","999,N,+0090,1","99999,9,09801,1","1,1,010,1,+999,9","25,1",,"SYN112AAXX  23064 08048 11460 81605 10094 20077 39801 49976 51010 60122 72562 887// 333 20090 32008 50214 55019 70161;",
"08048099999","2010-02-23T09:00:00","4","42.3333333","-7.8666666","147.0","ORENSE, SP","FM-12","99999","V020","150,1,N,0026,1","00420,1,9,N","010000,1,N,1","+0114,1","+0073,1","09983,1",,,"8,1,03,1","2,1,03,1",,"07,99,1,07,1,07,1,00450,1,99,9,99,9",,,,,"99999,9,09809,1","1,1,008,1,+999,9","80,1",,"SYN072AAXX  23094 08048 41460 71505 10114 20073 39809 49983 51008 78082 877//;",
"08048099999","2010-02-23T12:00:00","4","42.3333333","-7.8666666","147.0","ORENSE, SP","FM-12","99999","V020","230,1,N,0041,1","03600,1,9,N","010000,1,N,1","+0126,1","+0073,1","10002,1","06,0020,9,1",,"8,1,06,1","2,1,06,1",,"06,99,1,04,1,08,1,00450,1,06,1,03,1",,,,,"99999,9,09829,1","2,1,020,1,+999,9","25,1",,"SYN078AAXX  23124 08048 11460 62308 10126 20073 39829 40002 52020 60021 72582 84863;",
"08048099999","2010-02-24T06:00:00","4","42.3333333","-7.8666666","147.0","ORENSE, SP","FM-12","99999","V020","210,1,N,0031,1","22000,1,9,N","010000,1,N,1","+0090,1","+0057,1","10070,1","12,0061,9,1","24,0112,9,1","8,1,06,1","1,1,06,1",,"03,99,1,03,1,08,1,00450,1,00,1,00,1","0090,9","11,9","999,+0060,9","999,N,+0086,1","99999,9,09893,1","3,1,014,1,+999,9","25,1",,"SYN112AAXX  24064 08048 11460 32106 10090 20057 39893 40070 53014 60062 72581 83800 333 20086 32006 50194 55015 70112;",
"08048099999","2010-02-24T09:00:00","4","42.3333333","-7.8666666","147.0","ORENSE, SP","FM-12","99999","V020","240,1,N,0031,1","03600,1,9,N","010000,1,N,1","+0111,1","+0052,1","10084,1",,,"8,1,03,1","1,1,03,1",,"07,99,1,02,1,08,1,00450,1,07,1,02,1",,,,,"99999,9,09908,1","3,1,015,1,+999,9","02,1",,"SYN072AAXX  24094 08048 41460 72406 10111 20052 39908 40084 53015 70281 82872;",
"08048099999","2010-02-24T12:00:00","4","42.3333333","-7.8666666","147.0","ORENSE, SP","FM-12","99999","V020","130,1,N,0015,1","00210,1,9,N","007000,1,N,1","+0094,1","+0077,1","10082,1","06,0030,9,1",,"8,1,06,1","1,1,06,1",,"08,99,1,08,1,07,1,00250,1,99,9,99,9",,,,,"99999,9,09905,1","8,1,003,1,+999,9","63,1",,"SYN078AAXX  24124 08048 11357 81303 10094 20077 39905 40082 58003 60031 76381 887//;",
"08048099999","2010-02-25T06:00:00","4","42.3333333","-7.8666666","147.0","ORENSE, SP","FM-12","99999","V020","260,1,N,0036,1","00420,1,9,N","010000,1,N,1","+0140,1","+0113,1","09960,1","12,0180,9,1","24,0467,9,1","6,1,06,1","2,1,06,1",,"08,99,1,05,1,07,1,00450,1,07,1,99,9","0000,9","11,9","999,+0050,9","999,N,+0108,1","99999,9,09788,1","5,1,010,1,+999,9","21,1",,"SYN112AAXX  25064 08048 11460 82607 10140 20113 39788 49960 55010 60182 72162 8577/ 333 20108 32005 50164 55000 70467;",
"08048099999","2010-02-25T09:00:00","4","42.3333333","-7.8666666","147.0","ORENSE, SP","FM-12","99999","V020","190,1,N,0036,1","03600,1,9,N","010000,1,N,1","+0130,1","+0100,1","09968,1",,,"8,1,03,1","2,1,03,1",,"07,99,1,03,1,08,1,00450,1,07,1,02,1",,,,,"99999,9,09796,1","1,1,008,1,+999,9","80,1",,"SYN072AAXX  25094 08048 41460 71907 10130 20100 39796 49968 51008 78082 83872;",
"08048099999","2010-02-25T12:00:00","4","42.3333333","-7.8666666","147.0","ORENSE, SP","FM-12","99999","V020","260,1,N,0093,1","22000,1,9,N","010000,1,N,1","+0157,1","+0062,1","09971,1","06,0010,9,1",,"8,1,06,1","1,1,06,1",,"02,99,1,02,1,02,1,00450,1,00,1,00,1",,,,,"99999,9,09800,1","3,1,004,1,+999,9","02,1","4,99,0216,9,999","SYN094AAXX  25124 08048 11460 22618 10157 20062 39800 49971 53004 60011 70281 82200 333 91142 91327;",
"08048099999","2010-02-26T06:00:00","4","42.3333333","-7.8666666","147.0","ORENSE, SP","FM-12","99999","V020","180,1,N,0010,1","00900,1,9,N","010000,1,N,1","+0064,1","+0055,1","10108,1","12,0041,9,1","24,0109,9,1","8,1,06,1","1,1,06,1",,"06,99,1,06,1,08,1,00450,1,00,1,00,1","0228,9","09,9","999,+0040,9","999,N,+0063,1","99999,9,09929,1","3,1,008,1,+999,9","02,1",,"SYN112AAXX  26064 08048 11460 61802 10064 20055 39929 40108 53008 60042 70281 86800 333 20063 31004 50224 55038 70110;",
"08048099999","2010-02-26T09:00:00","4","42.3333333","-7.8666666","147.0","ORENSE, SP","FM-12","99999","V020","310,1,N,0015,1","22000,1,9,N","010000,1,N,1","+0070,1","+0059,1","10120,1",,,,,,"03,99,1,02,1,05,1,00450,1,00,1,02,1",,,,,"99999,9,09941,1","3,1,012,1,+999,9",,,"SYN066AAXX  26094 08048 42460 33103 10070 20059 39941 40120 53012 82502;",
"08048099999","2010-02-26T12:00:00","4","42.3333333","-7.8666666","147.0","ORENSE, SP","FM-12","99999","V020","230,1,N,0031,1","03600,1,9,N","010000,1,N,1","+0133,1","+0050,1","10106,1","06,0000,9,1",,,,,"06,99,1,04,1,02,1,00450,1,04,1,08,1",,,,,"99999,9,09931,1","8,1,010,1,+999,9",,,"SYN072AAXX  26124 08048 12460 62306 10133 20050 39931 40106 58010 60001 84248;","Q01  00002PRCP06"
"08048099999","2010-03-01T06:00:00","4","42.3333333","-7.8666666","147.0","ORENSE, SP","FM-12","99999","V020","160,1,N,0015,1","00900,1,9,N","010000,1,N,1","+0066,1","+0051,1","10099,1","12,0079,9,1","24,0135,9,1","6,1,06,1","2,1,06,1",,"06,99,1,06,1,08,1,00450,1,00,1,00,1","0108,9",,,"999,N,+0058,1","99999,9,09920,1","1,1,013,1,+999,9","25,1",,"SYN100AAXX  01064 08048 11460 61603 10066 20051 39920 40099 51013 60082 72562 86800 333 20058 55018 70135;",
"08048099999","2010-03-01T09:00:00","4","42.3333333","-7.8666666","147.0","ORENSE, SP","FM-12","99999","V020","290,1,N,0010,1","00420,1,9,N","010000,1,N,1","+0083,1","+0072,1","10123,1",,,"8,1,03,1","2,1,03,1",,"07,99,1,07,1,07,1,00450,1,99,9,99,9",,,,,"99999,9,09945,1","1,1,025,1,+999,9","80,1",,"SYN072AAXX  01094 08048 41460 72902 10083 20072 39945 40123 51025 78082 877//;",
"08048099999","2010-03-01T12:00:00","4","42.3333333","-7.8666666","147.0","ORENSE, SP","FM-12","99999","V020","230,1,N,0046,1","00900,1,9,N","010000,1,N,1","+0134,1","+0063,1","10143,1","06,0010,9,1",,"8,1,06,1","1,1,06,1",,"06,99,1,06,1,08,1,00450,1,00,1,00,1",,,,,"99999,9,09968,1","2,1,023,1,+999,9","25,1",,"SYN078AAXX  01124 08048 11460 62309 10134 20063 39968 40143 52023 60011 72581 86800;",
"08048099999","2010-03-02T06:00:00","4","42.3333333","-7.8666666","147.0","ORENSE, SP","FM-12","99999","V020","170,1,N,0010,1","00060,1,9,N","000600,1,N,1","+0036,1","+0033,1","10138,1","12,0000,9,1","24,0015,9,1",,,"09,1,+99999,9,99,9","09,99,1,09,1,99,9,99999,9,99,9,99,9","0348,9","09,9","999,-0020,9","999,N,+0032,1","99999,9,09957,1","7,1,014,1,+999,9","45,1",,"SYN106AAXX  02064 08048 11/06 91702 10036 20033 39957 40138 57014 60002 745// 333 20032 31102 50174 55058 70016;","Q01  00002PRCP12"
"08048099999","2010-03-02T09:00:00","4","42.3333333","-7.8666666","147.0","ORENSE, SP","FM-12","99999","V020","150,1,N,0015,1","03600,1,9,N","004000,1,N,1","+0038,1","+0035,1","10128,1",,,"4,1,03,1","2,1,03,1",,"08,99,1,03,1,06,1,00250,1,07,1,99,9",,,,,"99999,9,09947,1","5,1,010,1,+999,9","10,1",,"SYN072AAXX  02094 08048 41340 81503 10038 20035 39947 40128 55010 71042 8367/;",
"08048099999","2010-03-02T12:00:00","4","42.3333333","-7.8666666","147.0","ORENSE, SP","FM-12","99999","V020","160,1,N,0010,1","02100,1,9,N","010000,1,N,1","+0086,1","+0055,1","10096,1","06,0000,9,1",,"4,1,06,1","2,1,06,1",,"07,99,1,05,1,00,1,02250,1,07,1,08,1",,,,,"99999,9,09919,1","8,1,028,1,+999,9","02,1",,"SYN078AAXX  02124 08048 11860 71602 10086 20055 39919 40096 58028 60001 70242 85078;","Q01  00002PRCP06"
"08048099999","2010-03-03T06:00:00","4","42.3333333","-7.8666666","147.0","ORENSE, SP","FM-12","99999","V020","100,1,N,0010,1","03600,1,9,N","010000,1,N,1","+0095,1","+0089,1","10040,1","12,0010,9,1","24,0010,9,1","6,1,06,1","2,1,06,1",,"08,99,1,04,1,07,1,00450,1,07,1,99,9","0126,9","09,9","999,+0030,9","999,N,+0095,1","99999,9,09864,1","1,1,003,1,+999,9","61,1",,"SYN112AAXX  03064 08048 11460 81002 10095 20089 39864 40040 51003 60012 76162 8477/ 333 20095 31003 50164 55021 70011;",
"08048099999","2010-03-03T09:00:00","4","42.3333333","-7.8666666","147.0","ORENSE, SP","FM-12","99999","V020","170,1,N,0005,1","00420,1,9,N","009000,1,N,1","+0098,1","+0093,1","10055,1",,,"6,1,03,1","2,1,03,1",,"08,99,1,08,1,07,1,00450,1,99,9,99,9",,,,,"99999,9,09879,1","3,1,015,1,+999,9","61,1",,"SYN072AAXX  03094 08048 41459 81701 10098 20093 39879 40055 53015 76162 887//;",
"08048099999","2010-03-03T12:00:00","4","42.3333333","-7.8666666","147.0","ORENSE, SP","FM-12","99999","V020","360,1,N,0015,1","03600,1,9,N","010000,1,N,1","+0123,1","+0105,1","10066,1","06,0020,9,1",,"6,1,06,1","2,1,06,1",,"08,99,1,03,1,07,1,00450,1,02,1,99,9",,,,,"99999,9,09892,1","1,1,013,1,+999,9","61,1",,"SYN078AAXX  03124 08048 11460 83603 10123 20105 39892 40066 51013 60021 76162 8372/;",
"08048099999","2010-03-04T06:00:00","4","42.3333333","-7.8666666","147.0","ORENSE, SP","FM-12","99999","V020","290,1,N,0010,1","00420,1,9,N","010000,1,N,1","+0091,1","+0085,1","10136,1","12,0000,9,1","24,0023,9,1",,,,"07,99,1,07,1,06,1,00450,1,99,9,99,9","0006,9","09,9","999,+0050,9","999,N,+0090,1","99999,9,09958,1","1,1,008,1,+999,9",,,"SYN106AAXX  04064 08048 12460 72902 10091 20085 39958 40136 51008 60002 876// 333 20090 31005 50074 55001 70024;","Q01  00002PRCP12"
"08048099999","2010-03-04T09:00:00","4","42.3333333","-7.8666666","147.0","ORENSE, SP","FM-12","99999","V020","280,1,N,0005,1","03600,1,9,N","010000,1,N,1","+0098,1","+0086,1","10153,1",,,,,,"06,99,1,03,1,08,1,00450,1,07,1,00,1",,,,,"99999,9,09975,1","3,1,017,1,+999,9",,,"SYN066AAXX  04094 08048 42460 62801 10098 20086 39975 40153 53017 83870;",
"08048099999","2010-03-04T12:00:00","4","42.3333333","-7.8666666","147.0","ORENSE, SP","FM-12","99999","V020","060,1,N,0021,1","00900,1,9,N","010000,1,N,1","+0142,1","+0073,1","10154,1","06,0000,9,1",,,,,"07,99,1,07,1,08,1,00450,1,00,1,00,1",,,,,"99999,9,09979,1","1,1,004,1,+999,9",,,"SYN072AAXX  04124 08048 12460 70604 10142 20073 39979 40154 51004 60001 87800;","Q01  00002PRCP06"
"08048099999","2010-03-05T06:00:00","4","42.3333333","-7.8666666","147.0","ORENSE, SP","FM-12","99999","V020","200,1,N,0010,1","03600,1,9,N","010000,1,N,1","+0054,1","+0037,1","10146,1","12,0000,9,1","24,0000,9,1",,,,"07,99,1,01,1,05,1,00450,1,07,1,99,9","0438,9","09,9","999,+0030,9","999,N,+0053,1","99999,9,09966,1","8,1,007,1,+999,9",,,"SYN106AAXX  05064 08048 12460 72002 10054 20037 39966 40146 58007 60002 8157/ 333 20053 31003 50214 55073 70000;","Q01  00002PRCP24Q02  00002PRCP12"
"08048099999","2010-03-05T09:00:00","4","42.3333333","-7.8666666","147.0","ORENSE, SP","FM-12","99999","V020","200,1,N,0015,1","00750,1,9,N","010000,1,N,1","+0064,1","+0042,1","10152,1",,,,,,"08,99,1,06,1,05,1,00800,1,07,1,99,9",,,,,"99999,9,09972,1","3,1,006,1,+999,9",,,"SYN066AAXX  05094 08048 42560 82003 10064 20042 39972 40152 53006 8657/;",
"08048099999","2010-03-05T12:00:00","4","42.3333333","-7.8666666","147.0","ORENSE, SP","FM-12","99999","V020","210,1,N,0015,1","03600,1,9,N","010000,1,N,1","+0096,1","+0058,1","10144,1","06,0000,9,1",,,,,"08,99,1,03,1,05,1,00800,1,07,1,99,9",,,,,"99999,9,09966,1","8,1,006,1,+999,9",,,"SYN072AAXX  05124 08048 12560 82103 10096 20058 39966 40144 58006 60001 8357/;","Q01  00002PRCP06"
"08048099999","2010-03-08T06:00:00","4","42.3333333","-7.8666666","147.0","ORENSE, SP","FM-12","99999","V020","200,1,N,0005,1","00420,1,9,N","010000,1,N,1","+0029,1","-0013,1","10137,1","12,0000,9,1","24,0048,9,1",,,,"08,99,1,08,1,06,1,00450,1,99,9,99,9","0000,9",,,"999,N,+0026,1","99999,9,09955,1","5,1,001,1,+999,9",,,"SYN094AAXX  08064 08048 12460 82001 10029 21013 39955 40137 55001 60002 886// 333 20026 55000 70048;","Q01  00002PRCP12"
"08048099999","2010-03-08T09:00:00","4","42.3333333","-7.8666666","147.0","ORENSE, SP","FM-12","99999","V020","010,1,N,0021,1","22000,1,9,N","010000,1,N,1","+0046,1","-0027,1","10135,1",,,,,,"02,99,1,01,1,05,1,00450,1,00,1,02,1",,,,,"99999,9,09954,1","8,1,001,1,+999,9",,,"SYN066AAXX  08094 08048 42460 20104 10046 21027 39954 40135 58001 81502;",
"08048099999","2010-03-08T12:00:00","4","42.3333333","-7.8666666","147.0","ORENSE, SP","FM-12","99999","V020","030,1,N,0015,1","03600,1,9,N","010000,1,N,1","+0093,1","-0026,1","10116,1","06,0000,9,1",,,,,"07,99,1,01,1,01,1,00450,1,01,1,08,1",,,,,"99999,9,09938,1","8,1,016,1,+999,9",,,"SYN072AAXX  08124 08048 12460 70303 10093 21026 39938 40116 58016 60001 81118;","Q01  00002PRCP06"
"08048099999","2010-03-09T06:00:00","4","42.3333333","-7.8666666","147.0","ORENSE, SP","FM-12","99999","V020","150,1,N,0005,1","22000,1,9,N","010000,1,N,1","-0003,1","-0037,1","10148,1","12,0000,9,1","24,0000,9,1",,,"00,1,+99999,9,99,9","00,99,1,00,1,00,1,99999,9,00,1,00,1","0186,9","14,9","999,-0060,9","999,N,-0004,1","99999,9,09964,1","3,1,020,1,+999,9",,,"SYN100AAXX  09064 08048 12960 01501 11003 21037 39964 40148 53020 60002 333 21004 34106 50234 55031 70000;","Q01  00002PRCP24Q02  00002PRCP12"
"08048099999","2010-03-09T09:00:00","4","42.3333333","-7.8666666","147.0","ORENSE, SP","FM-12","99999","V020","240,1,N,0010,1","22000,1,9,N","010000,1,N,1","+0014,1","-0018,1","10172,1",,,,,"00,1,+99999,9,99,9","00,99,1,00,1,00,1,99999,9,00,1,00,1",,,,,"99999,9,09988,1","1,1,024,1,+999,9",,,"SYN060AAXX  09094 08048 42960 02402 10014 21018 39988 40172 51024;",
"08048099999","2010-03-09T12:00:00","4","42.3333333","-7.8666666","147.0","ORENSE, SP","FM-12","99999","V020","030,1,N,0021,1","22000,1,9,N","010000,1,N,1","+0108,1","-0019,1","10167,1","06,0000,9,1",,,,"00,1,+99999,9,99,9","00,99,1,00,1,00,1,99999,9,00,1,00,1",,,,,"99999,9,09989,1","0,1,001,1,+999,9",,,"SYN066AAXX  09124 08048 12960 00304 10108 21019 39989 40167 50001 60001;","Q01  00002PRCP06"
"08048099999","2010-03-10T06:00:00","4","42.3333333","-7.8666666","147.0","ORENSE, SP","FM-12","99999","V020","200,1,N,0010,1","22000,1,9,N","010000,1,N,1","-0019,1","-0032,1","10191,1","12,0000,9,1","24,0000,9,1",,,"00,1,+99999,9,99,9","00,99,1,00,1,00,1,99999,9,00,1,00,1","0600,9","14,9","999,-0080,9","999,N,-0020,1","99999,9,10005,1","6,1,002,1,+999,9",,,"SYN100AAXX  10064 08048 12960 02002 11019 21032 30005 40191 56002 60002 333 21020 34108 50284 55100 70000;","Q01  00002PRCP24Q02  00002PRCP12"
"08048099999","2010-03-10T09:00:00","4","42.3333333","-7.8666666","147.0","ORENSE, SP","FM-12","99999","V020","230,1,N,0015,1","22000,1,9,N","010000,1,N,1","+0012,1","-0010,1","10193,1",,,,,"00,1,+99999,9,99,9","00,99,1,00,1,00,1,99999,9,00,1,00,1",,,,,"99999,9,10009,1","0,1,004,1,+999,9",,,"SYN060AAXX  10094 08048 42960 02303 10012 21010 30009 40193 50004;",
"08048099999","2010-03-10T12:00:00","4","42.3333333","-7.8666666","147.0","ORENSE, SP","FM-12","99999","V020","340,1,N,0021,1","22000,1,9,N","010000,1,N,1","+0091,1","-0034,1","10170,1","06,0000,9,1",,,,,"01,99,1,00,1,00,1,99999,9,00,1,02,1",,,,,"99999,9,09991,1","8,1,018,1,+999,9",,,"SYN072AAXX  10124 08048 12960 13404 10091 21034 39991 40170 58018 60001 80002;","Q01  00002PRCP06"
"08048099999","2010-03-11T06:00:00","4","42.3333333","-7.8666666","147.0","ORENSE, SP","FM-12","99999","V020","220,1,N,0005,1","22000,1,9,N","010000,1,N,1","-0015,1","-0034,1","10170,1","12,0000,9,1","24,0000,9,1",,,"00,1,+99999,9,99,9","00,99,1,00,1,00,1,99999,9,00,1,00,1","0606,9","14,9","999,-0070,9","999,N,-0017,1","99999,9,09984,1","3,1,002,1,+999,9",,,"SYN100AAXX  11064 08048 12960 02201 11015 21034 39984 40170 53002 60002 333 21017 34107 50274 55101 70000;","Q01  00002PRCP24Q02  00002PRCP12"
"08048099999","2010-03-11T09:00:00","4","42.3333333","-7.8666666","147.0","ORENSE, SP","FM-12","99999","V020","180,1,N,0010,1","22000,1,9,N","010000,1,N,1","+0014,1","-0018,1","10175,1",,,,,,"01,99,1,00,1,00,1,99999,9,00,1,02,1",,,,,"99999,9,09991,1","1,1,007,1,+999,9",,,"SYN066AAXX  11094 08048 42960 11802 10014 21018 39991 40175 51007 80002;",
"08048099999","2010-03-11T12:00:00","4","42.3333333","-7.8666666","147.0","ORENSE, SP","FM-12","99999","V020","360,1,N,0021,1","22000,1,9,N","010000,1,N,1","+0105,1","-0028,1","10160,1","06,0000,9,1",,,,,"02,99,1,01,1,01,1,00450,1,00,1,02,1",,,,,"99999,9,09982,1","8,1,009,1,+999,9",,,"SYN072AAXX  11124 08048 12460 23604 10105 21028 39982 40160 58009 60001 81102;","Q01  00002PRCP06"
"08048099999","2010-03-12T06:00:00","4","42.3333333","-7.8666666","147.0","ORENSE, SP","FM-12","99999","V020","200,1,N,0005,1","22000,1,9,N","010000,1,N,1","-0014,1","-0024,1","10209,1","12,0000,9,1","24,0000,9,1",,,,"01,99,1,00,1,00,1,99999,9,00,1,02,1","0600,9","14,9","999,-0070,9","999,N,-0015,1","99999,9,10023,1","3,1,013,1,+999,9",,,"SYN106AAXX  12064 08048 12960 12001 11014 21024 30023 40209 53013 60002 80002 333 21015 34107 50264 55100 70000;","Q01  00002PRCP24Q02  00002PRCP12"
"08048099999","2010-03-12T09:00:00","4","42.3333333","-7.8666666","147.0","ORENSE, SP","FM-12","99999","V020","210,1,N,0010,1","99999,9,9,N","010000,1,N,1","+0021,1","-0002,1","10226,1",,,,,,"05,99,1,00,1,00,1,99999,9,00,1,02,1",,,,,"99999,9,10042,1","1,1,019,1,+999,9",,,"SYN066AAXX  12094 08048 42960 52102 10021 21002 30042 40226 51019 80002;",
"08048099999","2010-03-12T12:00:00","4","42.3333333","-7.8666666","147.0","ORENSE, SP","FM-12","99999","V020","020,1,N,0015,1","22000,1,9,N","010000,1,N,1","+0104,1","-0004,1","10218,1","06,0000,9,1",,,,,"04,99,1,01,1,01,1,00450,1,00,1,02,1",,,,,"99999,9,10039,1","8,1,003,1,+999,9",,,"SYN072AAXX  12124 08048 12460 40203 10104 21004 30039 40218 58003 60001 81102;","Q01  00002PRCP06"
"08048099999","2010-03-15T06:00:00","4","42.3333333","-7.8666666","147.0","ORENSE, SP","FM-12","99999","V020","180,1,N,0005,1","22000,1,9,N","010000,1,N,1","-0006,1","-0012,1","10276,1","12,0000,9,1","24,0000,9,1",,,"00,1,+99999,9,99,9","00,99,1,00,1,00,1,99999,9,00,1,00,1","0618,9",,,"999,N,-0007,1","99999,9,10089,1","6,1,003,1,+999,9",,,"SYN088AAXX  15064 08048 12960 01801 11006 21012 30089 40276 56003 60002 333 21007 55103 70000;","Q01  00002PRCP24Q02  00002PRCP12"
"08048099999","2010-03-15T09:00:00","4","42.3333333","-7.8666666","147.0","ORENSE, SP","FM-12","99999","V020","160,1,N,0010,1","22000,1,9,N","010000,1,N,1","+0030,1","+0012,1","10279,1",,,,,,"02,99,1,00,1,00,1,99999,9,00,1,02,1",,,,,"99999,9,10095,1","0,1,006,1,+999,9",,,"SYN066AAXX  15094 08048 42960 21602 10030 20012 30095 40279 50006 80002;",
"08048099999","2010-03-15T12:00:00","4","42.3333333","-7.8666666","147.0","ORENSE, SP","FM-12","99999","V020","210,1,N,0021,1","22000,1,9,N","010000,1,N,1","+9999,9","+0018,1","10255,1","06,0000,9,1",,,,,"04,99,1,00,1,00,1,99999,9,00,1,02,1",,,,,"99999,9,10079,1","8,1,016,1,+999,9",,,"SYN072AAXX  15124 08048 12960 42104 10157 20018 30079 40255 58016 60001 80002;","Q01+001573ATOT  Q02  00002PRCP06"
"08048099999","2010-03-16T06:00:00","4","42.3333333","-7.8666666","147.0","ORENSE, SP","FM-12","99999","V020","140,1,N,0005,1","22000,1,9,N","010000,1,N,1","+0004,1","-0007,1","10227,1","12,0000,9,1","24,0000,9,1",,,,"03,99,1,02,1,00,1,02250,1,04,1,01,1","0618,9","14,9","999,-0060,9","999,N,+0003,1","99999,9,10042,1","5,1,000,1,+999,9",,,"SYN106AAXX  16064 08048 12860 31401 10004 21007 30042 40227 55000 60002 82041 333 20003 34106 50404 55103 70000;","Q01  00002PRCP24Q02  00002PRCP12"
"08048099999","2010-03-16T09:00:00","4","42.3333333","-7.8666666","147.0","ORENSE, SP","FM-12","99999","V020","220,1,N,0010,1","09000,1,9,N","010000,1,N,1","+0032,1","+0006,1","10234,1",,,,,,"06,99,1,04,1,00,1,02250,1,07,1,02,1",,,,,"99999,9,10050,1","1,1,008,1,+999,9",,,"SYN066AAXX  16094 08048 42860 62202 10032 20006 30050 40234 51008 84072;",
"08048099999","2010-03-16T12:00:00","4","42.3333333","-7.8666666","147.0","ORENSE, SP","FM-12","99999","V020","330,1,N,0015,1","09000,1,9,N","010000,1,N,1","+0127,1","+0036,1","10219,1","06,0000,9,1",,,,,"07,99,1,03,1,00,1,02250,1,07,1,08,1",,,,,"99999,9,10042,1","8,1,008,1,+999,9",,,"SYN072AAXX  16124 08048 12860 73303 10127 20036 30042 40219 58008 60001 83078;","Q01  00002PRCP06"
"08048099999","2010-03-17T06:00:00","4","42.3333333","-7.8666666","147.0","ORENSE, SP","FM-12","99999","V020","280,1,N,0005,1","22000,1,9,N","010000,1,N,1","+0012,1","-0003,1","10242,1","12,0000,9,1","24,0000,9,1",,,,"03,99,1,00,1,00,1,99999,9,00,1,02,1","0342,9","14,9","999,-0040,9","999,N,+0010,1","99999,9,10057,1","8,1,004,1,+999,9",,,"SYN106AAXX  17064 08048 12960 32801 10012 21003 30057 40242 58004 60002 80002 333 20010 34104 50264 55057 70000;","Q01  00002PRCP24Q02  00002PRCP12"
"08048099999","2010-03-17T09:00:00","4","42.3333333","-7.8666666","147.0","ORENSE, SP","FM-12","99999","V020","220,1,N,0010,1","99999,9,9,N","010000,1,N,1","+0051,1","+0018,1","10245,1",,,,,,"06,99,1,00,1,00,1,99999,9,00,1,08,1",,,,,"99999,9,10063,1","0,1,006,1,+999,9",,,"SYN066AAXX  17094 08048 42960 62202 10051 20018 30063 40245 50006 80008;",
"08048099999","2010-03-17T12:00:00","4","42.3333333","-7.8666666","147.0","ORENSE, SP","FM-12","99999","V020","150,1,N,0046,1","99999,9,9,N","010000,1,N,1","+9999,9","-0003,1","10210,1","06,0000,9,1",,,,,"05,99,1,00,1,00,1,99999,9,00,1,08,1",,,,,"99999,9,10037,1","8,1,026,1,+999,9",,,"SYN072AAXX  17124 08048 12960 51509 10203 21003 30037 40210 58026 60001 80008;","Q01+002033ATOT  Q02  00002PRCP06"
"08048099999","2010-03-18T06:00:00","4","42.3333333","-7.8666666","147.0","ORENSE, SP","FM-12","99999","V020","310,1,N,0015,1","00420,1,9,N","010000,1,N,1","+0100,1","+0088,1","10184,1","12,0020,9,1","24,0020,9,1","6,1,06,1","2,1,06,1",,"08,99,1,08,1,07,1,00450,1,99,9,99,9","0528,9","11,9","999,-0030,9","999,N,+0098,1","99999,9,10006,1","3,1,003,1,+999,9","61,1",,"SYN112AAXX  18064 08048 11460 83103 10100 20088 30006 40184 53003 60022 76162 887// 333 20098 32103 50504 55088 70020;",
"08048099999","2010-03-18T09:00:00","4","42.3333333","-7.8666666","147.0","ORENSE, SP","FM-12","99999","V020","190,1,N,0010,1","03600,1,9,N","010000,1,N,1","+0109,1","+0101,1","10187,1",,,"6,1,03,1","6,1,03,1",,"07,99,1,03,1,08,1,00450,1,07,1,99,9",,,,,"99999,9,10010,1","1,1,004,1,+999,9","21,1",,"SYN072AAXX  18094 08048 41460 71902 10109 20101 30010 40187 51004 72166 8387/;",
"08048099999","2010-03-18T12:00:00","4","42.3333333","-7.8666666","147.0","ORENSE, SP","FM-12","99999","V020","270,1,N,0021,1","03600,1,9,N","010000,1,N,1","+0178,1","+0094,1","10182,1","06,0010,9,1",,"6,1,06,1","2,1,06,1",,"07,99,1,02,1,07,1,00450,1,07,1,99,9",,,,,"99999,9,10009,1","5,1,001,1,+999,9","03,1",,"SYN078AAXX  18124 08048 11460 72704 10178 20094 30009 40182 55001 60011 70362 8277/;",
"08048099999","2010-03-22T06:00:00","4","42.3333333","-7.8666666","147.0","ORENSE, SP","FM-12","99999","V020","999,9,C,0000,1","00420,1,9,N","010000,1,N,1","+0102,1","+0094,1","10212,1","12,0000,9,1","24,0003,9,1",,,,"08,99,1,08,1,06,1,00450,1,99,9,99,9","0384,9",,,"999,N,+0088,1","99999,9,10034,1","3,1,004,1,+999,9",,,"SYN100AAXX  22064 08048 12460 80000 10102 20094 30034 40212 53004 60002 886// 333 20088 50184 55064 70003;","Q01  00002PRCP12"
"08048099999","2010-03-22T09:00:00","4","42.3333333","-7.8666666","147.0","ORENSE, SP","FM-12","99999","V020","170,1,N,0010,1","00420,1,9,N","010000,1,N,1","+0119,1","+0098,1","10224,1",,,,,,"07,99,1,07,1,06,1,00450,1,99,9,99,9",,,,,"99999,9,10047,1","1,1,013,1,+999,9",,,"SYN066AAXX  22094 08048 42460 71702 10119 20098 30047 40224 51013 876//;",
"08048099999","2010-03-22T12:00:00","4","42.3333333","-7.8666666","147.0","ORENSE, SP","FM-12","99999","V020","310,1,N,0015,1","22000,1,9,N","010000,1,N,1","+0168,1","+0080,1","10217,1","06,0000,9,1",,,,,"01,99,1,01,1,01,1,00450,1,00,1,00,1",,,,,"99999,9,10043,1","8,1,004,1,+999,9",,,"SYN072AAXX  22124 08048 12460 13103 10168 20080 30043 40217 58004 60001 81100;","Q01  00002PRCP06"
"08048099999","2010-03-23T06:00:00","4","42.3333333","-7.8666666","147.0","ORENSE, SP","FM-12","99999","V020","190,1,N,0010,1","00750,1,9,N","010000,1,N,1","+0078,1","+0064,1","10160,1","12,0000,9,1","24,0000,9,1",,,,"08,99,1,08,1,05,1,00800,1,99,9,99,9","0492,9","09,9","999,+0030,9","999,N,+0072,1","99999,9,09981,1","8,1,010,1,+999,9",,,"SYN106AAXX  23064 08048 12560 81902 10078 20064 39981 40160 58010 60002 885// 333 20072 31003 50274 55082 70000;","Q01  00002PRCP24Q02  00002PRCP12"
"08048099999","2010-03-23T09:00:00","4","42.3333333","-7.8666666","147.0","ORENSE, SP","FM-12","99999","V020","180,1,N,0015,1","22000,1,9,N","010000,1,N,1","+0100,1","+0079,1","10152,1",,,,,,"05,99,1,01,1,01,1,00450,1,07,1,09,1",,,,,"99999,9,09975,1","6,1,006,1,+999,9",,,"SYN066AAXX  23094 08048 42460 51803 10100 20079 39975 40152 56006 81179;",
"08048099999","2010-03-23T12:00:00","4","42.3333333","-7.8666666","147.0","ORENSE, SP","FM-12","99999","V020","330,1,N,0021,1","03600,1,9,N","010000,1,N,1","+0172,1","+0096,1","10132,1","06,0000,9,1",,,,,"07,99,1,02,1,02,1,00450,1,07,1,08,1",,,,,"99999,9,09959,1","8,1,016,1,+999,9",,,"SYN072AAXX  23124 08048 12460 73304 10172 20096 39959 40132 58016 60001 82278;","Q01  00002PRCP06"
"08048099999","2010-03-24T06:00:00","4","42.3333333","-7.8666666","147.0","ORENSE, SP","FM-12","99999","V020","180,1,N,0036,1","03600,1,9,N","010000,1,N,1","+0131,1","+0090,1","10034,1","12,0061,9,1","24,0064,9,1","6,1,06,1","2,1,06,1",,"08,99,1,04,1,07,1,00450,1,07,1,99,9","0108,9","11,9","999,+0060,9","999,N,+0119,1","99999,9,09861,1","8,1,011,1,+999,9","61,1",,"SYN112AAXX  24064 08048 11460 81807 10131 20090 39861 40034 58011 60062 76162 8477/ 333 20119 32006 50184 55018 70064;",
"08048099999","2010-03-24T09:00:00","4","42.3333333","-7.8666666","147.0","ORENSE, SP","FM-12","99999","V020","100,1,N,0010,1","03600,1,9,N","010000,1,N,1","+0113,1","+0102,1","10045,1",,,"6,1,03,1","6,1,03,1",,"08,99,1,04,1,07,1,00450,1,02,1,99,9",,,,,"99999,9,09870,1","3,1,009,1,+999,9","61,1",,"SYN072AAXX  24094 08048 41460 81002 10113 20102 39870 40045 53009 76166 8472/;",
"08048099999","2010-03-24T12:00:00","4","42.3333333","-7.8666666","147.0","ORENSE, SP","FM-12","99999","V020","260,1,N,0031,1","00900,1,9,N","010000,1,N,1","+0139,1","+0105,1","10047,1","06,0010,9,1",,"6,1,06,1","2,1,06,1",,"06,99,1,06,1,08,1,00450,1,00,1,00,1",,,,,"99999,9,09874,1","0,1,004,1,+999,9","02,1",,"SYN078AAXX  24124 08048 11460 62606 10139 20105 39874 40047 50004 60011 70262 86800;",
"08048099999","2010-03-25T06:00:00","4","42.3333333","-7.8666666","147.0","ORENSE, SP","FM-12","99999","V020","060,1,N,0010,1","00900,1,9,N","010000,1,N,1","+0062,1","+0045,1","10004,1","12,0119,9,1","24,0127,9,1","6,1,06,1","2,1,06,1",,"06,99,1,06,1,08,1,00450,1,00,1,00,1","0228,9","11,9","999,+0040,9","999,N,+0060,1","99999,9,09827,1","0,1,006,1,+999,9","80,1",,"SYN112AAXX  25064 08048 11460 60602 10062 20045 39827 40004 50006 60122 78062 86800 333 20060 32004 50284 55038 70128;",
"08048099999","2010-03-25T09:00:00","4","42.3333333","-7.8666666","147.0","ORENSE, SP","FM-12","99999","V020","240,1,N,0046,1","00420,1,C,N","010000,1,N,1","+0090,1","+0056,1","10034,1",,,"8,1,03,1","2,1,03,1","03,1,+00450,1,08,1","06,99,1,06,1,03,1,00450,1,00,1,00,1",,,,,"99999,9,09858,1","3,1,031,1,+999,9","81,1",,"SYN088AAXX  25094 08048 41460 62409 10090 20056 39858 40034 53031 78182 86300 333 83894 83994;",
"08048099999","2010-03-25T12:00:00","4","42.3333333","-7.8666666","147.0","ORENSE, SP","FM-12","99999","V020","260,1,N,0046,1","00900,1,9,N","010000,1,N,1","+0132,1","+0049,1","10038,1","06,0020,9,1",,"8,1,06,1","2,1,06,1",,"07,99,1,07,1,08,1,00450,1,99,9,99,9",,,,,"99999,9,09864,1","0,1,006,1,+999,9","25,1",,"SYN078AAXX  25124 08048 11460 72609 10132 20049 39864 40038 50006 60021 72582 878//;",
"08048099999","2010-03-26T06:00:00","4","42.3333333","-7.8666666","147.0","ORENSE, SP","FM-12","99999","V020","220,1,N,0010,1","03600,1,9,N","010000,1,N,1","+0078,1","+0051,1","10122,1","12,0051,9,1","24,0119,9,1","9,1,06,1","8,1,06,1","02,1,+00450,1,08,1","06,99,1,04,1,03,1,00450,1,06,1,03,1","0150,9","11,9","999,+0020,9","999,N,+0063,1","99999,9,09944,1","1,1,008,1,+999,9","25,1",,"SYN124AAXX  26064 08048 11460 62202 10078 20051 39944 40122 51008 60052 72598 84363 333 20063 32002 50204 55025 70119 82894 82994;",
"08048099999","2010-03-26T09:00:00","4","42.3333333","-7.8666666","147.0","ORENSE, SP","FM-12","99999","V020","230,1,N,0021,1","00420,1,9,N","010000,1,N,1","+0087,1","+0063,1","10140,1",,,"8,1,03,1","2,1,03,1",,"07,99,1,07,1,07,1,00450,1,99,9,99,9",,,,,"99999,9,09962,1","2,1,018,1,+999,9","80,1",,"SYN072AAXX  26094 08048 41460 72304 10087 20063 39962 40140 52018 78082 877//;",
"08048099999","2010-03-26T12:00:00","4","42.3333333","-7.8666666","147.0","ORENSE, SP","FM-12","99999","V020","280,1,N,0062,1","00210,1,9,N","006000,1,N,1","+0114,1","+0077,1","10154,1","06,0041,9,1",,"8,1,06,1","2,1,06,1",,"08,99,1,08,1,07,1,00250,1,99,9,99,9",,,,,"99999,9,09977,1","3,1,015,1,+999,9","81,1",,"SYN078AAXX  26124 08048 11356 82812 10114 20077 39977 40154 53015 60041 78182 887//;",
"08048099999","2010-03-29T06:00:00","4","42.3333333","-7.8666666","147.0","ORENSE, SP","FM-12","99999","V020","140,1,N,0041,1","00420,1,9,N","010000,1,N,1","+0116,1","+0071,1","10059,1","12,9999,9,9","24,9999,9,9","6,1,06,1","2,1,06,1",,"07,99,1,06,1,07,1,00450,1,07,1,99,9","0234,9",,,"999,N,+0100,1","99999,9,09884,1","7,1,033,1,+999,9","21,1",,"SYN106AAXX  29064 08048 11460 71408 10116 20071 39884 40059 57033 69902 72162 8677/ 333 20100 50244 55039 79999;","Q01  00002PRCP24Q02  00002PRCP12Q03  00002PRCP12Q04  00002PRCP24"
"08048099999","2010-03-29T09:00:00","4","42.3333333","-7.8666666","147.0","ORENSE, SP","FM-12","99999","V020","160,1,N,0036,1","00420,1,9,N","010000,1,N,1","+0123,1","+0080,1","10044,1",,,"6,1,03,1","2,1,03,1",,"07,99,1,07,1,07,1,00450,1,99,9,99,9",,,,,"99999,9,09870,1","6,1,014,1,+999,9","60,1",,"SYN072AAXX  29094 08048 41460 71607 10123 20080 39870 40044 56014 76062 877//;",
"08048099999","2010-03-29T12:00:00","4","42.3333333","-7.8666666","147.0","ORENSE, SP","FM-12","99999","V020","240,1,N,0051,1","00420,1,9,N","010000,1,N,1","+0160,1","+0114,1","10022,1","06,0010,9,1",,"6,1,06,1","2,1,06,1",,"07,99,1,07,1,07,1,00450,1,99,9,99,9",,,,,"99999,9,09851,1","8,1,019,1,+999,9","60,1",,"SYN078AAXX  29124 08048 11460 72410 10160 20114 39851 40022 58019 60011 76062 877//;",
"08048099999","2010-03-30T06:00:00","4","42.3333333","-7.8666666","147.0","ORENSE, SP","FM-12","99999","V020","090,1,N,0010,1","00420,1,9,N","010000,1,N,1","+0092,1","+0061,1","10122,1","12,0089,9,1","24,0155,9,1","8,1,06,1","2,1,06,1",,"06,99,1,05,1,05,1,00450,1,04,1,00,1","0120,9","11,9","999,+0040,9","999,N,+0085,1","99999,9,09944,1","2,1,041,1,+999,9","01,1",,"SYN112AAXX  30064 08048 11460 60902 10092 20061 39944 40122 52041 60092 70182 85540 333 20085 32004 50204 55020 70154;",
"08048099999","2010-03-30T09:00:00","4","42.3333333","-7.8666666","147.0","ORENSE, SP","FM-12","99999","V020","280,1,N,0026,1","00420,1,9,N","010000,1,N,1","+0101,1","+0072,1","10148,1",,,"8,1,03,1","2,1,03,1",,"07,99,1,07,1,07,1,00450,1,99,9,99,9",,,,,"99999,9,09971,1","1,1,027,1,+999,9","80,1",,"SYN072AAXX  30094 08048 41460 72805 10101 20072 39971 40148 51027 78082 877//;",
"08048099999","2010-03-30T12:00:00","4","42.3333333","-7.8666666","147.0","ORENSE, SP","FM-12","99999","V020","260,1,N,0036,1","00900,1,9,N","010000,1,N,1","+0141,1","+0079,1","10156,1","06,0010,9,1",,"8,1,06,1","1,1,06,1",,"06,99,1,06,1,08,1,00450,1,00,1,00,1",,,,,"99999,9,09981,1","0,1,010,1,+999,9","02,1",,"SYN078AAXX  30124 08048 11460 62607 10141 20079 39981 40156 50010 60011 70281 86800;",
"08048099999","2010-03-31T06:00:00","4","42.3333333","-7.8666666","147.0","ORENSE, SP","FM-12","99999","V020","150,1,N,0026,1","09000,1,9,N","010000,1,N,1","+0076,1","+0051,1","10168,1","12,0008,9,1","24,0023,9,1","6,1,06,1","2,1,06,1",,"05,99,1,02,1,05,1,00450,1,04,1,08,1","0150,9","11,9","999,+0040,9","999,N,+0069,1","99999,9,09989,1","8,1,009,1,+999,9","20,1",,"SYN112AAXX  31064 08048 11460 51505 10076 20051 39989 40168 58009 69982 72062 82548 333 20069 32004 50174 55025 70023;",
"08048099999","2010-03-31T09:00:00","4","42.3333333","-7.8666666","147.0","ORENSE, SP","FM-12","99999","V020","200,1,N,0021,1","00420,1,9,N","010000,1,N,1","+0095,1","+0066,1","10160,1",,,"1,1,03,1","1,1,03,1",,"08,99,1,08,1,07,1,00450,1,99,9,99,9",,,,,"99999,9,09982,1","6,1,007,1,+999,9","60,1",,"SYN072AAXX  31094 08048 41460 82004 10095 20066 39982 40160 56007 76011 887//;",
"08048099999","2010-03-31T12:00:00","4","42.3333333","-7.8666666","147.0","ORENSE, SP","FM-12","99999","V020","240,1,N,0057,1","00420,1,9,N","010000,1,N,1","+0110,1","+0077,1","10150,1","06,0005,9,1",,"6,1,06,1","1,1,06,1",,"08,99,1,08,1,07,1,00450,1,99,9,99,9",,,,,"99999,9,09973,1","6,1,009,1,+999,9","60,1",,"SYN078AAXX  31124 08048 11460 82411 10110 20077 39973 40150 56009 69951 76061 887//;",
"08048099999","2010-04-05T06:00:00","4","42.3333333","-7.8666666","147.0","ORENSE, SP","FM-12","99999","V020","200,1,N,0005,1","00120,1,9,N","002000,1,N,1","+0030,1","+0023,1","10263,1","12,0000,9,1","24,0000,9,1",,,,"08,99,1,08,1,06,1,00150,1,99,9,99,9","0366,9",,,"999,N,+0018,1","99999,9,10079,1","6,1,008,1,+999,9","10,1",,"SYN100AAXX  05064 08048 11220 82001 10030 20023 30079 40263 56008 60002 710// 886// 333 20018 55061 70000;","Q01  00002PRCP24Q02  00002PRCP12"
"08048099999","2010-04-05T09:00:00","4","42.3333333","-7.8666666","147.0","ORENSE, SP","FM-12","99999","V020","210,1,N,0015,1","00120,1,9,N","003000,1,N,1","+0043,1","+0039,1","10262,1",,,"2,1,03,1","2,1,03,1",,"08,99,1,08,1,06,1,00150,1,99,9,99,9",,,,,"99999,9,10079,1","0,1,000,1,+999,9","10,1",,"SYN072AAXX  05094 08048 41230 82103 10043 20039 30079 40262 50000 71022 886//;",
"08048099999","2010-04-05T12:00:00","4","42.3333333","-7.8666666","147.0","ORENSE, SP","FM-12","99999","V020","320,1,N,0021,1","22000,1,9,N","010000,1,N,1","+0148,1","+0064,1","10227,1","06,0000,9,1",,,,,"01,99,1,00,1,00,1,99999,9,00,1,01,1",,,,,"99999,9,10051,1","8,1,028,1,+999,9",,,"SYN072AAXX  05124 08048 12960 13204 10148 20064 30051 40227 58028 60001 80001;","Q01  00002PRCP06"
"08048099999","2010-04-06T06:00:00","4","42.3333333","-7.8666666","147.0","ORENSE, SP","FM-12","99999","V020","270,1,N,0010,1","22000,1,9,N","010000,1,N,1","+0030,1","+0023,1","10174,1","12,0000,9,1","24,0000,9,1",,,,"03,99,1,02,1,00,1,02250,1,04,1,01,1","0546,9","09,9","999,-0020,9","999,N,+0028,1","99999,9,09991,1","6,1,006,1,+999,9",,,"SYN106AAXX  06064 08048 12860 32702 10030 20023 39991 40174 56006 60002 82041 333 20028 31102 50314 55091 70000;","Q01  00002PRCP24Q02  00002PRCP12"
"08048099999","2010-04-06T09:00:00","4","42.3333333","-7.8666666","147.0","ORENSE, SP","FM-12","99999","V020","160,1,N,0010,1","22000,1,9,N","010000,1,N,1","+0085,1","+0054,1","10166,1",,,,,,"03,99,1,02,1,00,1,02250,1,04,1,02,1",,,,,"99999,9,09987,1","8,1,004,1,+999,9",,,"SYN066AAXX  06094 08048 42860 31602 10085 20054 39987 40166 58004 82042;",
"08048099999","2010-04-06T12:00:00","4","42.3333333","-7.8666666","147.0","ORENSE, SP","FM-12","99999","V020","290,1,N,0051,1","09000,1,9,N","010000,1,N,1","+9999,9","+0069,1","10138,1","06,0000,9,1",,,,,"05,99,1,03,1,00,1,02250,1,04,1,02,1",,,,,"99999,9,09967,1","7,1,020,1,+999,9",,,"SYN072AAXX  06124 08048 12860 52910 10210 20069 39967 40138 57020 60001 83042;","Q01+002103ATOT  Q02  00002PRCP06"
"08048099999","2010-04-07T06:00:00","4","42.3333333","-7.8666666","147.0","ORENSE, SP","FM-12","99999","V020","310,1,N,0015,1","00060,1,9,N","000800,1,N,1","+0061,1","+0058,1","10227,1","12,0020,9,2","24,0018,9,2",,,"09,1,+99999,9,99,9","09,99,1,09,1,99,9,99999,9,99,9,99,9","0306,9","09,9","999,-0020,9","999,N,+0060,1","99999,9,10046,1","3,1,017,1,+999,9","45,1",,"SYN106AAXX  07064 08048 11/08 93103 10061 20058 30046 40227 53017 60022 745// 333 20060 31102 50274 55051 70018;",
"08048099999","2010-04-07T09:00:00","4","42.3333333","-7.8666666","147.0","ORENSE, SP","FM-12","99999","V020","230,1,N,0010,1","22000,1,9,N","010000,1,N,1","+0071,1","+0067,1","10242,1",,,"4,1,03,1","4,1,03,1",,"03,99,1,03,1,01,1,00450,1,00,1,00,1",,,,,"99999,9,10061,1","1,1,015,1,+999,9","01,1",,"SYN072AAXX  07094 08048 41460 32302 10071 20067 30061 40242 51015 70144 83100;",
"08048099999","2010-04-07T12:00:00","4","42.3333333","-7.8666666","147.0","ORENSE, SP","FM-12","99999","V020","020,1,N,0031,1","22000,1,9,N","010000,1,N,1","+0164,1","+0054,1","10221,1","06,0000,9,1",,"4,1,06,1","1,1,06,1",,"01,99,1,01,1,01,1,00450,1,00,1,00,1",,,,,"99999,9,10046,1","8,1,015,1,+999,9","02,1",,"SYN078AAXX  07124 08048 11460 10206 10164 20054 30046 40221 58015 60001 70241 81100;","Q01  00002PRCP06"
"08048099999","2010-04-08T06:00:00","4","42.3333333","-7.8666666","147.0","ORENSE, SP","FM-12","99999","V020","999,9,C,0000,1","22000,1,9,N","010000,1,N,1","+0031,1","+0024,1","10262,1","12,0000,9,1","24,0000,9,1",,,,"01,99,1,00,1,00,1,99999,9,00,1,01,1","0594,9","09,9","999,-0020,9","999,N,+0028,1","99999,9,10078,1","3,1,010,1,+999,9",,,"SYN106AAXX  08064 08048 12960 10000 10031 20024 30078 40262 53010 60002 80001 333 20028 31102 50304 55099 70000;","Q01  00002PRCP24Q02  00002PRCP12"
"08048099999","2010-04-08T09:00:00","4","42.3333333","-7.8666666","147.0","ORENSE, SP","FM-12","99999","V020","200,1,N,0010,1","22000,1,9,N","010000,1,N,1","+0094,1","+0059,1","10264,1",,,,,,"01,99,1,00,1,00,1,99999,9,00,1,01,1",,,,,"99999,9,10084,1","0,1,006,1,+999,9",,,"SYN066AAXX  08094 08048 42960 12002 10094 20059 30084 40264 50006 80001;",
"08048099999","2010-04-08T12:00:00","4","42.3333333","-7.8666666","147.0","ORENSE, SP","FM-12","99999","V020","360,1,N,0015,1","22000,1,9,N","010000,1,N,1","+0181,1","+0072,1","10240,1","06,0000,9,1",,,,,"03,99,1,00,1,00,1,99999,9,00,1,02,1",,,,,"99999,9,10066,1","8,1,018,1,+999,9",,,"SYN072AAXX  08124 08048 12960 33603 10181 20072 30066 40240 58018 60001 80002;","Q01  00002PRCP06"
"08048099999","2010-04-09T06:00:00","4","42.3333333","-7.8666666","147.0","ORENSE, SP","FM-12","99999","V020","120,1,N,0010,1","22000,1,9,N","010000,1,N,1","+0056,1","+0052,1","10234,1","12,0000,9,1","24,0000,9,1",,,"00,1,+99999,9,99,9","00,99,1,00,1,00,1,99999,9,00,1,00,1","0684,9","09,9","999,-0020,9","999,N,+0054,1","99999,9,10052,1","3,1,004,1,+999,9",,,"SYN100AAXX  09064 08048 12960 01202 10056 20052 30052 40234 53004 60002 333 20054 31102 50324 55114 70000;","Q01  00002PRCP24Q02  00002PRCP12"
"08048099999","2010-04-09T09:00:00","4","42.3333333","-7.8666666","147.0","ORENSE, SP","FM-12","99999","V020","250,1,N,0015,1","22000,1,9,N","010000,1,N,1","+0114,1","+0079,1","10235,1",,,,,"00,1,+99999,9,99,9","00,99,1,00,1,00,1,99999,9,00,1,00,1",,,,,"99999,9,10057,1","0,1,005,1,+999,9",,,"SYN060AAXX  09094 08048 42960 02503 10114 20079 30057 40235 50005;",
"08048099999","2010-04-09T12:00:00","4","42.3333333","-7.8666666","147.0","ORENSE, SP","FM-12","99999","V020","030,1,N,0015,1","22000,1,9,N","010000,1,N,1","+0210,1","+0076,1","10205,1","06,0000,9,1",,,,"00,1,+99999,9,99,9","00,99,1,00,1,00,1,99999,9,00,1,00,1",,,,,"99999,9,10033,1","8,1,024,1,+999,9",,,"SYN066AAXX  09124 08048 12960 00303 10210 20076 30033 40205 58024 60001;","Q01  00002PRCP06"
"08048099999","2010-04-12T06:00:00","4","42.3333333","-7.8666666","147.0","ORENSE, SP","FM-12","99999","V020","160,1,N,0010,1","03600,1,9,N","010000,1,N,1","+0081,1","+0061,1","10084,1","12,0000,9,1","24,0000,9,1",,,,"06,99,1,02,1,05,1,00800,1,07,1,01,1","0702,9",,,"999,N,+0076,1","99999,9,09906,1","6,1,004,1,+999,9",,,"SYN100AAXX  12064 08048 12560 61602 10081 20061 39906 40084 56004 60002 82571 333 20076 50394 55117 70000;","Q01  00002PRCP24Q02  00002PRCP12"
"08048099999","2010-04-12T09:00:00","4","42.3333333","-7.8666666","147.0","ORENSE, SP","FM-12","99999","V020","150,1,N,0010,1","09000,1,9,N","010000,1,N,1","+0117,1","+0074,1","10084,1",,,"2,1,03,1","2,1,03,1",,"05,99,1,02,1,05,1,00800,1,07,1,02,1",,,,,"99999,9,09909,1","0,1,003,1,+999,9","20,1",,"SYN072AAXX  12094 08048 41560 51502 10117 20074 39909 40084 50003 72022 82572;",
"08048099999","2010-04-12T12:00:00","4","42.3333333","-7.8666666","147.0","ORENSE, SP","FM-12","99999","V020","010,1,N,0015,1","09000,1,9,N","010000,1,N,1","+0192,1","+0060,1","10069,1","06,0000,2,1",,"5,1,06,1","2,1,06,1",,"05,99,1,01,1,02,1,00450,1,04,1,06,1",,,,,"99999,9,09898,1","8,1,011,1,+999,9","02,1",,"SYN078AAXX  12124 08048 11460 50103 10192 20060 39898 40069 58011 69901 70252 81246;",
"08048099999","2010-04-13T06:00:00","4","42.3333333","-7.8666666","147.0","ORENSE, SP","FM-12","99999","V020","150,1,N,0010,1","22000,1,9,N","010000,1,N,1","+0022,1","+0009,1","10114,1","12,0000,9,1","24,0000,2,1",,,"00,1,+99999,9,99,9","00,99,1,00,1,00,1,99999,9,00,1,00,1","0486,9","09,9","999,-0030,9","999,N,+0022,1","99999,9,09932,1","1,1,002,1,+999,9",,,"SYN100AAXX  13064 08048 12960 01502 10022 20009 39932 40114 51002 60002 333 20022 31103 50404 55081 79999;","Q01  00002PRCP12"
"08048099999","2010-04-13T09:00:00","4","42.3333333","-7.8666666","147.0","ORENSE, SP","FM-12","99999","V020","230,1,N,0010,1","22000,1,9,N","010000,1,N,1","+0089,1","+0029,1","10111,1",,,,,,"01,99,1,00,1,00,1,99999,9,00,1,02,1",,,,,"99999,9,09933,1","0,1,001,1,+999,9",,,"SYN066AAXX  13094 08048 42960 12302 10089 20029 39933 40111 50001 80002;",
"08048099999","2010-04-13T12:00:00","4","42.3333333","-7.8666666","147.0","ORENSE, SP","FM-12","99999","V020","050,1,N,0026,1","22000,1,9,N","010000,1,N,1","+0172,1","+0020,1","10083,1","06,0000,9,1",,,,,"02,99,1,00,1,00,1,99999,9,00,1,02,1",,,,,"99999,9,09911,1","8,1,022,1,+999,9",,,"SYN072AAXX  13124 08048 12960 20505 10172 20020 39911 40083 58022 60001 80002;","Q01  00002PRCP06"
"08048099999","2010-04-14T06:00:00","4","42.3333333","-7.8666666","147.0","ORENSE, SP","FM-12","99999","V020","150,1,N,0010,1","22000,1,9,N","010000,1,N,1","+0046,1","+0031,1","10092,1","12,0000,9,1","24,0000,9,1",,,,"02,99,1,01,1,00,1,02250,1,04,1,08,1","0498,9","09,9","999,-0030,9","999,N,+0045,1","99999,9,09912,1","6,1,004,1,+999,9",,,"SYN106AAXX  14064 08048 12860 21502 10046 20031 39912 40092 56004 60002 81048 333 20045 31103 50404 55083 70000;","Q01  00002PRCP24Q02  00002PRCP12"
"08048099999","2010-04-14T09:00:00","4","42.3333333","-7.8666666","147.0","ORENSE, SP","FM-12","99999","V020","320,1,N,0015,1","22000,1,9,N","010000,1,N,1","+0115,1","+0047,1","10088,1",,,,,,"01,99,1,01,1,00,1,02250,1,04,1,00,1",,,,,"99999,9,09912,1","0,1,000,1,+999,9",,,"SYN066AAXX  14094 08048 42860 13203 10115 20047 39912 40088 50000 81040;",
"08048099999","2010-04-14T12:00:00","4","42.3333333","-7.8666666","147.0","ORENSE, SP","FM-12","99999","V020","340,1,N,0026,1","22000,1,9,N","010000,1,N,1","+0190,1","+0047,1","10059,1","06,0000,9,1",,,,,"02,99,1,02,1,05,1,00450,1,04,1,00,1",,,,,"99999,9,09888,1","8,1,024,1,+999,9",,,"SYN072AAXX  14124 08048 12460 23405 10190 20047 39888 40059 58024 60001 82540;","Q01  00002PRCP06"
"08048099999","2010-04-15T06:00:00","4","42.3333333","-7.8666666","147.0","ORENSE, SP","FM-12","99999","V020","170,1,N,0015,1","03600,1,9,N","010000,1,N,1","+0100,1","+0094,1","10030,1","12,0051,9,2","24,0046,9,2","6,1,06,1","2,1,06,1",,"07,99,1,02,1,05,1,00450,1,07,1,02,1","0552,9","09,9","999,-0010,9","999,N,+0100,1","99999,9,09855,1","6,1,009,1,+999,9","02,1",,"SYN112AAXX  15064 08048 11460 71703 10100 20094 39855 40030 56009 60052 70262 82572 333 20100 31101 50384 55092 70046;",
"08048099999","2010-04-15T09:00:00","4","42.3333333","-7.8666666","147.0","ORENSE, SP","FM-12","99999","V020","290,1,N,0015,1","03600,1,9,N","010000,1,N,1","+0125,1","+0106,1","10037,1",,,"2,1,03,1","2,1,03,1",,"07,99,1,03,1,08,1,00450,1,07,1,02,1",,,,,"99999,9,09863,1","1,1,008,1,+999,9","25,1",,"SYN072AAXX  15094 08048 41460 72903 10125 20106 39863 40037 51008 72522 83872;",
"08048099999","2010-04-15T12:00:00","4","42.3333333","-7.8666666","147.0","ORENSE, SP","FM-12","99999","V020","160,1,N,0057,1","00900,1,9,N","010000,1,N,1","+0192,1","+0102,1","10037,1","06,0000,2,1",,"8,1,06,1","2,1,06,1",,"06,99,1,05,1,08,1,00450,1,04,1,02,1",,,,,"99999,9,09867,1","0,1,004,1,+999,9","01,1",,"SYN078AAXX  15124 08048 11460 61611 10192 20102 39867 40037 50004 69901 70182 85842;",
"08048099999","2010-04-16T06:00:00","4","42.3333333","-7.8666666","147.0","ORENSE, SP","FM-12","99999","V020","240,1,N,0015,1","03600,1,9,N","010000,1,N,1","+0113,1","+0105,1","10067,1","12,0000,9,1","24,0010,9,1","6,1,06,1","2,1,06,1",,"07,99,1,02,1,05,1,00450,1,07,1,02,1","0186,9","09,9","999,+0070,9","999,N,+0105,1","99999,9,09892,1","1,1,001,1,+999,9","02,1",,"SYN112AAXX  16064 08048 11460 72403 10113 20105 39892 40067 51001 69902 70262 82572 333 20105 31007 50184 55031 70010;","Q01  00002PRCP12"
"08048099999","2010-04-16T09:00:00","4","42.3333333","-7.8666666","147.0","ORENSE, SP","FM-12","99999","V020","210,1,N,0015,1","03600,1,9,N","010000,1,N,1","+0149,1","+0119,1","10078,1",,,,,,"06,99,1,02,1,05,1,00450,1,07,1,02,1",,,,,"99999,9,09905,1","1,1,013,1,+999,9",,,"SYN066AAXX  16094 08048 42460 62103 10149 20119 39905 40078 51013 82572;",
"08048099999","2010-04-16T12:00:00","4","42.3333333","-7.8666666","147.0","ORENSE, SP","FM-12","99999","V020","210,1,N,0015,1","03600,1,9,N","010000,1,N,1","+0172,1","+0115,1","10080,1","06,9999,9,9",,"8,1,06,1","2,1,06,1",,"06,99,1,04,1,08,1,00450,1,04,1,02,1",,,,,"99999,9,09908,1","0,1,003,1,+999,9","25,1",,"SYN078AAXX  16124 08048 11460 62103 10172 20115 39908 40080 50003 69911 72582 84842;","Q01  00002PRCP06Q02  00002PRCP06"
"08048099999","2010-04-19T06:00:00","4","42.3333333","-7.8666666","147.0","ORENSE, SP","FM-12","99999","V020","270,1,N,0010,1","00060,1,9,N","000700,1,N,1","+0105,1","+0100,1","10156,1","12,0000,9,1","24,0023,9,1",,,"09,1,+99999,9,99,9","09,99,1,09,1,99,9,99999,9,99,9,99,9","0234,9",,,"999,N,+0104,1","99999,9,09979,1","1,1,007,1,+999,9","45,1",,"SYN094AAXX  19064 08048 11/07 92702 10105 20100 39979 40156 51007 60002 745// 333 20104 55039 70023;","Q01  00002PRCP12"
"08048099999","2010-04-19T09:00:00","4","42.3333333","-7.8666666","147.0","ORENSE, SP","FM-12","99999","V020","020,1,N,0010,1","00120,1,9,N","002500,1,N,1","+0118,1","+0110,1","10169,1",,,"4,1,03,1","4,1,03,1",,"08,99,1,08,1,06,1,00150,1,99,9,99,9",,,,,"99999,9,09993,1","1,1,014,1,+999,9","28,1",,"SYN072AAXX  19094 08048 41225 80202 10118 20110 39993 40169 51014 72844 886//;",
"08048099999","2010-04-19T12:00:00","4","42.3333333","-7.8666666","147.0","ORENSE, SP","FM-12","99999","V020","070,1,N,0021,1","03600,1,9,N","010000,1,N,1","+0204,1","+0124,1","10160,1","06,0000,9,1",,"4,1,06,1","2,1,06,1",,"05,99,1,04,1,08,1,00450,1,04,1,01,1",,,,,"99999,9,09989,1","8,1,004,1,+999,9","02,1",,"SYN078AAXX  19124 08048 11460 50704 10204 20124 39989 40160 58004 60001 70242 84841;","Q01  00002PRCP06"
"08048099999","2010-04-20T06:00:00","4","42.3333333","-7.8666666","147.0","ORENSE, SP","FM-12","99999","V020","190,1,N,0010,1","03600,1,9,N","010000,1,N,1","+0100,1","+0092,1","10166,1","12,0000,9,1","24,0000,9,1",,,,"06,99,1,02,1,05,1,00800,1,07,1,08,1","0456,9","09,9","999,+0060,9","999,N,+0100,1","99999,9,09988,1","6,1,001,1,+999,9",,,"SYN106AAXX  20064 08048 12560 61902 10100 20092 39988 40166 56001 60002 82578 333 20100 31006 50254 55076 70000;","Q01  00002PRCP24Q02  00002PRCP12"
"08048099999","2010-04-20T09:00:00","4","42.3333333","-7.8666666","147.0","ORENSE, SP","FM-12","99999","V020","180,1,N,0010,1","03600,1,9,N","010000,1,N,1","+0140,1","+0117,1","10165,1",,,,,,"07,99,1,02,1,05,1,00800,1,07,1,08,1",,,,,"99999,9,09990,1","0,1,002,1,+999,9",,,"SYN066AAXX  20094 08048 42560 71802 10140 20117 39990 40165 50002 82578;",
"08048099999","2010-04-20T12:00:00","4","42.3333333","-7.8666666","147.0","ORENSE, SP","FM-12","99999","V020","290,1,N,0015,1","03600,1,9,N","010000,1,N,1","+0212,1","+0136,1","10148,1","06,0000,9,1",,,,,"08,99,1,03,1,05,1,00450,1,07,1,08,1",,,,,"99999,9,09978,1","8,1,012,1,+999,9",,,"SYN072AAXX  20124 08048 12460 82903 10212 20136 39978 40148 58012 60001 83578;","Q01  00002PRCP06"
"08048099999","2010-04-21T06:00:00","4","42.3333333","-7.8666666","147.0","ORENSE, SP","FM-12","99999","V020","260,1,N,0015,1","00420,1,9,N","010000,1,N,1","+0137,1","+0132,1","10115,1","12,0020,9,1","24,0020,9,1","6,1,06,1","2,1,06,1",,"08,99,1,08,1,07,1,00450,1,99,9,99,9","0174,9","11,9","999,+0070,9","999,N,+0136,1","99999,9,09941,1","8,1,011,1,+999,9","21,1",,"SYN112AAXX  21064 08048 11460 82603 10137 20132 39941 40115 58011 60022 72162 887// 333 20136 32007 50314 55029 70020;",
"08048099999","2010-04-21T09:00:00","4","42.3333333","-7.8666666","147.0","ORENSE, SP","FM-12","99999","V020","230,1,N,0005,1","03600,1,9,N","010000,1,N,1","+0148,1","+0138,1","10122,1",,,"6,1,03,1","2,1,03,1",,"08,99,1,03,1,07,1,00450,1,02,1,99,9",,,,,"99999,9,09948,1","0,1,007,1,+999,9","60,1",,"SYN072AAXX  21094 08048 41460 82301 10148 20138 39948 40122 50007 76062 8372/;",
"08048099999","2010-04-21T12:00:00","4","42.3333333","-7.8666666","147.0","ORENSE, SP","FM-12","99999","V020","270,1,N,0015,1","00420,1,9,N","010000,1,N,1","+0169,1","+0158,1","10116,1","06,0020,9,1",,"6,1,06,1","2,1,06,1",,"07,99,1,07,1,07,1,00450,1,99,9,99,9",,,,,"99999,9,09944,1","8,1,004,1,+999,9","21,1",,"SYN078AAXX  21124 08048 11460 72703 10169 20158 39944 40116 58004 60021 72162 877//;",
"08048099999","2010-04-22T06:00:00","4","42.3333333","-7.8666666","147.0","ORENSE, SP","FM-12","99999","V020","160,1,N,0010,1","00120,1,9,N","003000,1,N,1","+0134,1","+0129,1","10097,1","12,0020,9,1","24,0038,9,1",,,,"08,99,1,08,1,06,1,00150,1,99,9,99,9","0096,9","09,9","999,+0100,9","999,N,+0128,1","99999,9,09923,1","3,1,002,1,+999,9","10,1",,"SYN112AAXX  22064 08048 11230 81602 10134 20129 39923 40097 53002 60022 710// 886// 333 20128 31010 50094 55016 70037;",
"08048099999","2010-04-22T09:00:00","4","42.3333333","-7.8666666","147.0","ORENSE, SP","FM-12","99999","V020","270,1,N,0005,1","00420,1,9,N","010000,1,N,1","+0155,1","+0133,1","10102,1",,,,,,"07,99,1,05,1,06,1,00450,1,07,1,99,9",,,,,"99999,9,09929,1","1,1,006,1,+999,9",,,"SYN066AAXX  22094 08048 42460 72701 10155 20133 39929 40102 51006 8567/;",
"08048099999","2010-04-22T12:00:00","4","42.3333333","-7.8666666","147.0","ORENSE, SP","FM-12","99999","V020","330,1,N,0026,1","03600,1,9,N","010000,1,N,1","+0203,1","+0133,1","10088,1","06,0000,9,1",,,,"01,1,+00450,1,09,1","05,99,1,03,1,09,1,00450,1,04,1,03,1",,,,,"99999,9,09918,1","8,1,011,1,+999,9",,,"SYN088AAXX  22124 08048 12460 53305 10203 20133 39918 40088 58011 60001 83943 333 81994 82894;","Q01  00002PRCP06"
"08048099999","2010-04-23T06:00:00","4","42.3333333","-7.8666666","147.0","ORENSE, SP","FM-12","99999","V020","160,1,N,0010,1","00420,1,9,N","010000,1,N,1","+0137,1","+0124,1","10118,1","12,0000,9,1","24,0000,9,1",,,,"08,99,1,08,1,06,1,00450,1,99,9,99,9","0294,9","09,9","999,+0090,9","999,N,+0133,1","99999,9,09944,1","3,1,004,1,+999,9",,,"SYN106AAXX  23064 08048 12460 81602 10137 20124 39944 40118 53004 60002 886// 333 20133 31009 50174 55049 70001;","Q01  00002PRCP24Q02  00002PRCP12"
"08048099999","2010-04-23T09:00:00","4","42.3333333","-7.8666666","147.0","ORENSE, SP","FM-12","99999","V020","160,1,N,0010,1","00420,1,9,N","010000,1,N,1","+0149,1","+0122,1","10131,1",,,,,,"08,99,1,08,1,05,1,00450,1,99,9,99,9",,,,,"99999,9,09957,1","2,1,013,1,+999,9",,,"SYN066AAXX  23094 08048 42460 81602 10149 20122 39957 40131 52013 885//;",
"08048099999","2010-04-23T12:00:00","4","42.3333333","-7.8666666","147.0","ORENSE, SP","FM-12","99999","V020","310,1,N,0015,1","00900,1,9,N","010000,1,N,1","+0170,1","+0125,1","10133,1","06,0000,9,1",,,,,"08,99,1,08,1,08,1,00450,1,99,9,99,9",,,,,"99999,9,09960,1","1,1,003,1,+999,9",,,"SYN072AAXX  23124 08048 12460 83103 10170 20125 39960 40133 51003 60001 888//;","Q01  00002PRCP06"
"08048099999","2010-04-26T06:00:00","4","42.3333333","-7.8666666","147.0","ORENSE, SP","FM-12","99999","V020","270,1,N,0005,1","22000,1,9,N","010000,1,N,1","+0088,1","+0082,1","10245,1","12,0000,9,1","24,0000,9,1",,,,"03,99,1,01,1,06,1,00250,1,00,1,01,1","0660,9",,,"999,N,+0086,1","99999,9,10065,1","4,1,000,1,+999,9",,,"SYN094AAXX  26064 08048 12360 32701 10088 20082 30065 40245 54000 60002 81601 333 20086 55110 70000;","Q01  00002PRCP24Q02  00002PRCP12"
"08048099999","2010-04-26T09:00:00","4","42.3333333","-7.8666666","147.0","ORENSE, SP","FM-12","99999","V020","280,1,N,0010,1","22000,1,9,N","010000,1,N,1","+0147,1","+0113,1","10249,1",,,,,,"02,99,1,00,1,00,1,99999,9,00,1,01,1",,,,,"99999,9,10073,1","0,1,008,1,+999,9",,,"SYN066AAXX  26094 08048 42960 22802 10147 20113 30073 40249 50008 80001;",
"08048099999","2010-04-27T06:00:00","4","42.3333333","-7.8666666","147.0","ORENSE, SP","FM-12","99999","V020","290,1,N,0005,1","22000,1,9,N","010000,1,N,1","+0098,1","+0092,1","10224,1","12,0000,9,1","24,0000,9,1",,,,"05,99,1,02,1,00,1,02250,1,04,1,08,1","0738,9","09,9","999,+0060,9","999,N,+0097,1","99999,9,10045,1","5,1,000,1,+999,9",,,"SYN106AAXX  27064 08048 12860 52901 10098 20092 30045 40224 55000 60002 82048 333 20097 31006 50384 55123 70000;","Q01  00002PRCP24Q02  00002PRCP12"
"08048099999","2010-04-27T09:00:00","4","42.3333333","-7.8666666","147.0","ORENSE, SP","FM-12","99999","V020","240,1,N,0010,1","22000,1,9,N","010000,1,N,1","+0157,1","+0125,1","10221,1",,,,,,"05,99,1,01,1,00,1,02250,1,04,1,08,1",,,,,"99999,9,10046,1","0,1,001,1,+999,9",,,"SYN066AAXX  27094 08048 42860 52402 10157 20125 30046 40221 50001 81048;",
"08048099999","2010-04-27T12:00:00","4","42.3333333","-7.8666666","147.0","ORENSE, SP","FM-12","99999","V020","210,1,N,0010,1","09000,1,9,N","010000,1,N,1","+0252,1","+0155,1","10201,1","06,0000,9,1",,,,,"07,99,1,03,1,00,1,02250,1,07,1,08,1",,,,,"99999,9,10032,1","8,1,014,1,+999,9",,,"SYN072AAXX  27124 08048 12860 72102 10252 20155 30032 40201 58014 60001 83078;","Q01  00002PRCP06"
"08048099999","2010-04-28T06:00:00","4","42.3333333","-7.8666666","147.0","ORENSE, SP","FM-12","99999","V020","999,9,C,0000,1","22000,1,9,N","010000,1,N,1","+0110,1","+0102,1","10192,1","12,0000,9,1","24,0000,9,1",,,,"02,99,1,01,1,00,1,02250,1,04,1,01,1","0372,9","09,9","999,+0070,9","999,N,+0110,1","99999,9,10015,1","6,1,005,1,+999,9",,,"SYN106AAXX  28064 08048 12860 20000 10110 20102 30015 40192 56005 60002 81041 333 20110 31007 50354 55062 70000;","Q01  00002PRCP24Q02  00002PRCP12"
"08048099999","2010-04-28T09:00:00","4","42.3333333","-7.8666666","147.0","ORENSE, SP","FM-12","99999","V020","230,1,N,0010,1","22000,1,9,N","010000,1,N,1","+0173,1","+0130,1","10184,1",,,,,,"03,99,1,00,1,00,1,99999,9,00,1,01,1",,,,,"99999,9,10011,1","8,1,004,1,+999,9",,,"SYN066AAXX  28094 08048 42960 32302 10173 20130 30011 40184 58004 80001;",
"08048099999","2010-04-29T06:00:00","4","42.3333333","-7.8666666","147.0","ORENSE, SP","FM-12","99999","V020","240,1,N,0005,1","22000,1,9,N","010000,1,N,1","+0112,1","+0104,1","10163,1","12,0030,9,1","24,0030,9,1",,,,"02,99,1,02,1,00,1,02250,1,08,1,00,1","0396,9","09,9","999,+0070,9","999,N,+0111,1","99999,9,09986,1","0,1,000,1,+999,9",,,"SYN106AAXX  29064 08048 12860 22401 10112 20104 39986 40163 50000 60032 82080 333 20111 31007 50394 55066 70030;",
"08048099999","2010-04-29T09:00:00","4","42.3333333","-7.8666666","147.0","ORENSE, SP","FM-12","99999","V020","250,1,N,0010,1","09000,1,9,N","010000,1,N,1","+0160,1","+0124,1","10175,1",,,,,,"06,99,1,01,1,01,1,00450,1,00,1,08,1",,,,,"99999,9,10001,1","1,1,015,1,+999,9",,,"SYN066AAXX  29094 08048 42460 62502 10160 20124 30001 40175 51015 81108;",
"08048099999","2010-04-29T12:00:00","4","42.3333333","-7.8666666","147.0","ORENSE, SP","FM-12","99999","V020","180,1,N,0015,1","03600,1,9,N","010000,1,N,1","+0202,1","+0141,1","10168,1","06,0000,9,1",,,,,"06,99,1,04,1,02,1,00450,1,06,1,02,1",,,,,"99999,9,09997,1","8,1,004,1,+999,9",,,"SYN072AAXX  29124 08048 12460 61803 10202 20141 39997 40168 58004 60001 84262;","Q01  00002PRCP06"
"08048099999","2010-04-30T06:00:00","4","42.3333333","-7.8666666","147.0","ORENSE, SP","FM-12","99999","V020","290,1,N,0010,1","00420,1,9,N","010000,1,N,1","+0096,1","+0088,1","10157,1","12,0000,9,1","24,0000,9,1",,,,"07,99,1,07,1,06,1,00450,1,99,9,99,9","0522,9","09,9","999,+0050,9","999,N,+0093,1","99999,9,09979,1","8,1,003,1,+999,9",,,"SYN106AAXX  30064 08048 12460 72902 10096 20088 39979 40157 58003 60002 876// 333 20093 31005 50274 55087 70000;","Q01  00002PRCP24Q02  00002PRCP12"
"08048099999","2010-04-30T09:00:00","4","42.3333333","-7.8666666","147.0","ORENSE, SP","FM-12","99999","V020","220,1,N,0015,1","03600,1,9,N","010000,1,N,1","+0140,1","+0110,1","10153,1",,,,,,"07,99,1,03,1,01,1,00450,1,04,1,08,1",,,,,"99999,9,09978,1","6,1,001,1,+999,9",,,"SYN066AAXX  30094 08048 42460 72203 10140 20110 39978 40153 56001 83148;",
"08048099999","2010-04-30T12:00:00","4","42.3333333","-7.8666666","147.0","ORENSE, SP","FM-12","99999","V020","230,1,N,0015,1","03600,1,9,N","010000,1,N,1","+0180,1","+0111,1","10141,1","06,0000,9,1",,,,,"07,99,1,03,1,01,1,00450,1,01,1,08,1",,,,,"99999,9,09969,1","8,1,009,1,+999,9",,,"SYN072AAXX  30124 08048 12460 72303 10180 20111 39969 40141 58009 60001 83118;","Q01  00002PRCP06"
"08048099999","2010-05-03T06:00:00","4","42.3333333","-7.8666666","147.0","ORENSE, SP","FM-12","99999","V020","320,1,N,0015,1","00420,1,9,N","010000,1,N,1","+0094,1","+0059,1","10190,1","12,0000,9,1","24,0000,9,1",,,,"07,99,1,07,1,05,1,00450,1,04,1,00,1","0426,9",,,"999,N,+0082,1","99999,9,10011,1","3,1,008,1,+999,9",,,"SYN100AAXX  03064 08048 12460 73203 10094 20059 30011 40190 53008 60002 87540 333 20082 50334 55071 70000;","Q01  00002PRCP24Q02  00002PRCP12"
"08048099999","2010-05-03T09:00:00","4","42.3333333","-7.8666666","147.0","ORENSE, SP","FM-12","99999","V020","040,1,N,0026,1","22000,1,9,N","010000,1,N,1","+0138,1","+0052,1","10194,1",,,,,,"04,99,1,04,1,05,1,00450,1,00,1,00,1",,,,,"99999,9,10018,1","1,1,007,1,+999,9",,,"SYN066AAXX  03094 08048 42460 40405 10138 20052 30018 40194 51007 84500;",
"08048099999","2010-05-03T12:00:00","4","42.3333333","-7.8666666","147.0","ORENSE, SP","FM-12","99999","V020","040,1,N,0031,1","22000,1,9,N","010000,1,N,1","+0159,1","+0037,1","10196,1","06,9999,9,9",,"1,1,06,1","1,1,06,1",,"03,99,1,03,1,08,1,00450,1,00,1,00,1",,,,,"99999,9,10021,1","0,1,003,1,+999,9","25,1",,"SYN078AAXX  03124 08048 11460 30406 10159 20037 30021 40196 50003 69901 72511 83800;","Q01  00002PRCP06Q02  00002PRCP06"
"08048099999","2010-05-04T06:00:00","4","42.3333333","-7.8666666","147.0","ORENSE, SP","FM-12","99999","V020","150,1,N,0010,1","00420,1,9,N","010000,1,N,1","+0062,1","+0040,1","10218,1","12,0000,9,1","24,0000,2,1","8,1,06,1","1,1,06,1",,"06,99,1,06,1,05,1,00450,1,00,1,00,1","0498,9","09,9","999,+0020,9","999,N,+0055,1","99999,9,10037,1","6,1,005,1,+999,9","02,1",,"SYN112AAXX  04064 08048 11460 61502 10062 20040 30037 40218 56005 69902 70281 86500 333 20055 31002 50344 55083 79999;","Q01  00002PRCP12"
"08048099999","2010-05-04T09:00:00","4","42.3333333","-7.8666666","147.0","ORENSE, SP","FM-12","99999","V020","060,1,N,0026,1","00900,1,9,N","010000,1,N,1","+0104,1","+0030,1","10221,1",,,,,,"07,99,1,07,1,08,1,00450,1,00,1,00,1",,,,,"99999,9,10042,1","1,1,005,1,+999,9",,,"SYN066AAXX  04094 08048 42460 70605 10104 20030 30042 40221 51005 87800;",
"08048099999","2010-05-04T12:00:00","4","42.3333333","-7.8666666","147.0","ORENSE, SP","FM-12","99999","V020","030,1,N,0026,1","00420,1,9,N","010000,1,N,1","+0143,1","+0022,1","10209,1","06,0000,9,1",,,,,"06,99,1,06,1,05,1,00450,1,00,1,00,1",,,,,"99999,9,10033,1","8,1,009,1,+999,9",,,"SYN072AAXX  04124 08048 12460 60305 10143 20022 30033 40209 58009 60001 86500;","Q01  00002PRCP06"
"08048099999","2010-05-05T06:00:00","4","42.3333333","-7.8666666","147.0","ORENSE, SP","FM-12","99999","V020","320,1,N,0005,1","22000,1,9,N","010000,1,N,1","+0027,1","+0017,1","10207,1","12,0000,9,1","24,0000,9,1",,,,"01,99,1,01,1,01,1,00450,1,00,1,00,1","0324,9","09,9","999,-0010,9","999,N,+0026,1","99999,9,10024,1","6,1,005,1,+999,9",,,"SYN106AAXX  05064 08048 12460 13201 10027 20017 30024 40207 56005 60002 81100 333 20026 31101 50344 55054 70000;","Q01  00002PRCP24Q02  00002PRCP12"
"08048099999","2010-05-05T12:00:00","4","42.3333333","-7.8666666","147.0","ORENSE, SP","FM-12","99999","V020","020,1,N,0026,1","00420,1,9,N","010000,1,N,1","+0148,1","+0033,1","10171,1","06,0000,9,1",,,,,"05,99,1,05,1,05,1,00450,1,00,1,00,1",,,,,"99999,9,09996,1","8,1,017,1,+999,9",,,"SYN072AAXX  05124 08048 12460 50205 10148 20033 39996 40171 58017 60001 85500;","Q01  00002PRCP06"
"08048099999","2010-05-06T06:00:00","4","42.3333333","-7.8666666","147.0","ORENSE, SP","FM-12","99999","V020","210,1,N,0015,1","22000,1,9,N","010000,1,N,1","+0040,1","+0025,1","10148,1","12,0000,9,1","24,0000,9,1",,,,"04,99,1,00,1,00,1,99999,9,00,1,02,1","0510,9","09,9","999,+0010,9","999,N,+0037,1","99999,9,09967,1","6,1,002,1,+999,9",,,"SYN106AAXX  06064 08048 12960 42103 10040 20025 39967 40148 56002 60002 80002 333 20037 31001 50314 55085 70000;","Q01  00002PRCP24Q02  00002PRCP12"
"08048099999","2010-05-06T09:00:00","4","42.3333333","-7.8666666","147.0","ORENSE, SP","FM-12","99999","V020","020,1,N,0015,1","22000,1,9,N","010000,1,N,1","+0112,1","+0030,1","10137,1",,,,,,"03,99,1,00,1,00,1,99999,9,00,1,02,1",,,,,"99999,9,09960,1","8,1,007,1,+999,9",,,"SYN066AAXX  06094 08048 42960 30203 10112 20030 39960 40137 58007 80002;",
"08048099999","2010-05-06T12:00:00","4","42.3333333","-7.8666666","147.0","ORENSE, SP","FM-12","99999","V020","070,1,N,0015,1","22000,1,9,N","010000,1,N,1","+0166,1","+0036,1","10111,1","06,0000,9,1",,,,,"01,99,1,01,1,01,1,00450,1,00,1,02,1",,,,,"99999,9,09938,1","7,1,022,1,+999,9",,,"SYN072AAXX  06124 08048 12460 10703 10166 20036 39938 40111 57022 60001 81102;","Q01  00002PRCP06"
"08048099999","2010-05-07T06:00:00","4","42.3333333","-7.8666666","147.0","ORENSE, SP","FM-12","99999","V020","200,1,N,0010,1","03600,1,9,N","010000,1,N,1","+0097,1","+0083,1","10074,1","12,9999,9,9","24,0003,9,1","6,1,06,1","2,1,06,1",,"08,99,1,01,1,07,1,00450,1,07,1,99,9","0714,9","09,9","999,+0020,9","999,N,+0096,1","99999,9,09898,1","8,1,007,1,+999,9","61,1",,"SYN112AAXX  07064 08048 11460 82002 10097 20083 39898 40074 58007 69922 76162 8177/ 333 20096 31002 50364 55119 70002;","Q01  00002PRCP12Q02  00002PRCP12"
"08048099999","2010-05-07T12:00:00","4","42.3333333","-7.8666666","147.0","ORENSE, SP","FM-12","99999","V020","250,1,N,0026,1","03600,1,9,N","010000,1,N,1","+0164,1","+0113,1","10060,1","06,0008,9,1",,"6,1,06,1","2,1,06,1",,"05,99,1,04,1,02,1,00450,1,06,1,02,1",,,,,"99999,9,09888,1","8,1,007,1,+999,9","01,1",,"SYN078AAXX  07124 08048 11460 52505 10164 20113 39888 40060 58007 69981 70162 84262;",
"08048099999","2010-05-10T06:00:00","4","42.3333333","-7.8666666","147.0","ORENSE, SP","FM-12","99999","V020","160,1,N,0015,1","00420,1,9,N","010000,1,N,1","+0108,1","+0082,1","10049,1","12,0005,9,1","24,0008,9,1","2,1,06,1","2,1,06,1",,"07,99,1,06,1,07,1,00450,1,02,1,99,9","0252,9",,,"999,N,+0106,1","99999,9,09874,1","5,1,001,1,+999,9","61,1",,"SYN100AAXX  10064 08048 11460 71603 10108 20082 39874 40049 55001 69942 76122 8672/ 333 20106 55042 70007;",
"08048099999","2010-05-10T09:00:00","4","42.3333333","-7.8666666","147.0","ORENSE, SP","FM-12","99999","V020","150,1,N,0021,1","00210,1,9,N","008000,1,N,1","+0106,1","+0098,1","10057,1",,,"6,1,03,1","6,1,03,1",,"08,99,1,07,1,07,1,00250,1,02,1,99,9",,,,,"99999,9,09882,1","1,1,008,1,+999,9","63,1",,"SYN072AAXX  10094 08048 41358 81504 10106 20098 39882 40057 51008 76366 8772/;",
"08048099999","2010-05-10T12:00:00","4","42.3333333","-7.8666666","147.0","ORENSE, SP","FM-12","99999","V020","260,1,N,0026,1","00420,1,9,N","010000,1,N,1","+0128,1","+0102,1","10064,1","06,0051,9,1",,"6,1,06,1","2,1,06,1",,"08,99,1,07,1,07,1,00450,1,02,1,99,9",,,,,"99999,9,09890,1","3,1,008,1,+999,9","50,1",,"SYN078AAXX  10124 08048 11460 82605 10128 20102 39890 40064 53008 60051 75062 8772/;",
"08048099999","2010-05-10T15:00:00","4","42.3333333","-7.8666666","147.0","ORENSE, SP","FM-12","99999","V020","250,1,N,0041,1","00900,1,9,N","010000,1,N,1","+0146,1","+0088,1","10062,1",,,"5,1,03,1","2,1,03,1",,"07,99,1,06,1,08,1,00450,1,07,1,99,9",,,,,"99999,9,09889,1","6,1,001,1,+999,9","50,1",,"SYN072AAXX  10154 08048 41460 72508 10146 20088 39889 40062 56001 75052 8687/;",
"08048099999","2010-05-10T18:00:00","4","42.3333333","-7.8666666","147.0","ORENSE, SP","FM-12","99999","V020","270,1,N,0010,1","00900,1,9,N","010000,1,N,1","+0128,1","+0114,1","10074,1","12,0079,9,1",,"5,1,06,1","2,1,06,1",,"07,99,1,06,1,08,1,00450,1,07,1,99,9",,,,"999,M,+0164,1","99999,9,09900,1","3,1,011,1,+999,9","25,1",,"SYN088AAXX  10184 08048 11460 72702 10128 20114 39900 40074 53011 60082 72552 8687/ 333 10164;",
"08048099999","2010-05-11T06:00:00","4","42.3333333","-7.8666666","147.0","ORENSE, SP","FM-12","99999","V020","999,9,C,0000,1","00210,1,9,N","005000,1,N,1","+0102,1","+0097,1","10090,1","12,0003,9,1","24,0084,9,1","6,1,06,1","2,1,06,1",,"08,99,1,08,1,06,1,00250,1,99,9,99,9","0018,9","09,9","999,+0100,9","999,N,+0095,1","99999,9,09914,1","6,1,003,1,+999,9","10,1",,"SYN112AAXX  11064 08048 11350 80000 10102 20097 39914 40090 56003 69932 71062 886// 333 20095 31010 50104 55003 70083;",
"08048099999","2010-05-11T12:00:00","4","42.3333333","-7.8666666","147.0","ORENSE, SP","FM-12","99999","V020","210,1,N,0015,1","03600,1,9,N","010000,1,N,1","+0142,1","+0106,1","10088,1","06,0008,9,1",,"6,1,06,1","2,1,06,1",,"07,99,1,04,1,02,1,00450,1,06,1,00,1",,,,,"99999,9,09914,1","4,1,000,1,+999,9","21,1",,"SYN078AAXX  11124 08048 11460 72103 10142 20106 39914 40088 54000 69981 72162 84260;",
"08048099999","2010-05-11T18:00:00","4","42.3333333","-7.8666666","147.0","ORENSE, SP","FM-12","99999","V020","150,1,N,0010,1","00900,1,9,N","007000,1,N,1","+0120,1","+0112,1","10089,1","12,0711,9,1",,"6,1,06,1","5,1,06,1",,"08,99,1,06,1,08,1,00450,1,02,1,99,9",,,,"999,M,+0175,1","99999,9,09914,1","1,1,002,1,+999,9","62,1",,"SYN088AAXX  11184 08048 11457 81502 10120 20112 39914 40089 51002 60712 76265 8682/ 333 10175;",
"08048099999","2010-05-12T06:00:00","4","42.3333333","-7.8666666","147.0","ORENSE, SP","FM-12","99999","V020","999,9,C,0000,1","00420,1,9,N","010000,1,N,1","+0092,1","+0084,1","10106,1","12,0005,9,1","24,0076,9,1","6,1,06,1","2,1,06,1",,"07,99,1,05,1,06,1,00450,1,02,1,99,9","0096,9","09,9","999,+0080,9","999,N,+0089,1","99999,9,09929,1","4,1,000,1,+999,9","02,1",,"SYN112AAXX  12064 08048 11460 70000 10092 20084 39929 40106 54000 69952 70262 8562/ 333 20089 31008 50094 55016 70076;",
"08048099999","2010-05-12T09:00:00","4","42.3333333","-7.8666666","147.0","ORENSE, SP","FM-12","99999","V020","200,1,N,0015,1","03600,1,9,N","010000,1,N,1","+0122,1","+0077,1","10108,1",,,,,,"05,99,1,04,1,02,1,00450,1,04,1,00,1",,,,,"99999,9,09933,1","3,1,004,1,+999,9",,,"SYN066AAXX  12094 08048 42460 52003 10122 20077 39933 40108 53004 84240;",
"08048099999","2010-05-12T12:00:00","4","42.3333333","-7.8666666","147.0","ORENSE, SP","FM-12","99999","V020","320,1,N,0031,1","00900,1,9,N","010000,1,N,1","+0134,1","+0087,1","10111,1","06,9999,9,9",,"1,1,06,1","1,1,06,1",,"07,99,1,06,1,08,1,00450,1,06,1,00,1",,,,,"99999,9,09936,1","1,1,003,1,+999,9","50,1",,"SYN078AAXX  12124 08048 11460 73206 10134 20087 39936 40111 51003 69901 75011 86860;","Q01  00002PRCP06Q02  00002PRCP06"
"08048099999","2010-05-12T15:00:00","4","42.3333333","-7.8666666","147.0","ORENSE, SP","FM-12","99999","V020","320,1,N,0031,1","00900,1,9,N","010000,1,N,1","+0170,1","+0089,1","10102,1",,,,,,"07,99,1,06,1,08,1,00450,1,02,1,00,1",,,,,"99999,9,09930,1","8,1,006,1,+999,9",,,"SYN066AAXX  12154 08048 42460 73206 10170 20089 39930 40102 58006 86820;",
"08048099999","2010-05-12T18:00:00","4","42.3333333","-7.8666666","147.0","ORENSE, SP","FM-12","99999","V020","040,1,N,0021,1","00900,1,9,N","010000,1,N,1","+0149,1","+0065,1","10107,1","12,0000,2,1",,"5,1,06,1","2,1,06,1",,"07,99,1,06,1,08,1,00450,1,07,1,00,1",,,,"999,M,+0175,1","99999,9,09933,1","1,1,003,1,+999,9","01,1",,"SYN088AAXX  12184 08048 11460 70404 10149 20065 39933 40107 51003 69922 70152 86870 333 10175;",
"08048099999","2010-05-13T06:00:00","4","42.3333333","-7.8666666","147.0","ORENSE, SP","FM-12","99999","V020","290,1,N,0015,1","03600,1,9,N","010000,1,N,1","+0062,1","+0044,1","10141,1","12,0000,9,1","24,0003,9,1",,,,"05,99,1,01,1,05,1,00800,1,08,1,00,1","0252,9","09,9","999,+0030,9","999,N,+0060,1","99999,9,09961,1","3,1,008,1,+999,9",,,"SYN106AAXX  13064 08048 12560 52903 10062 20044 39961 40141 53008 60002 81580 333 20060 31003 50234 55042 70002;","Q01  00002PRCP12"
"08048099999","2010-05-13T09:00:00","4","42.3333333","-7.8666666","147.0","ORENSE, SP","FM-12","99999","V020","310,1,N,0015,1","22000,1,9,N","010000,1,N,1","+0108,1","+0047,1","10148,1",,,,,,"02,99,1,01,1,01,1,00450,1,04,1,00,1",,,,,"99999,9,09971,1","1,1,010,1,+999,9",,,"SYN066AAXX  13094 08048 42460 23103 10108 20047 39971 40148 51010 81140;",
"08048099999","2010-05-13T12:00:00","4","42.3333333","-7.8666666","147.0","ORENSE, SP","FM-12","99999","V020","020,1,N,0021,1","22000,1,9,N","010000,1,N,1","+0156,1","+0027,1","10142,1","06,0000,9,1",,,,,"04,99,1,04,1,01,1,00450,1,00,1,00,1",,,,,"99999,9,09968,1","5,1,003,1,+999,9",,,"SYN072AAXX  13124 08048 12460 40204 10156 20027 39968 40142 55003 60001 84100;","Q01  00002PRCP06"
"08048099999","2010-05-13T15:00:00","4","42.3333333","-7.8666666","147.0","ORENSE, SP","FM-12","99999","V020","020,1,N,0021,1","00900,1,9,N","010000,1,N,1","+0161,1","+0018,1","10138,1",,,,,,"05,99,1,05,1,08,1,00450,1,00,1,00,1",,,,,"99999,9,09964,1","8,1,004,1,+999,9",,,"SYN066AAXX  13154 08048 42460 50204 10161 20018 39964 40138 58004 85800;",
"08048099999","2010-05-13T18:00:00","4","42.3333333","-7.8666666","147.0","ORENSE, SP","FM-12","99999","V020","020,1,N,0021,1","22000,1,9,N","010000,1,N,1","+0142,1","+0048,1","10144,1","12,0008,9,1",,"8,1,06,1","1,1,06,1",,"04,99,1,03,1,01,1,00450,1,04,1,00,1",,,,"999,M,+0182,1","99999,9,09969,1","3,1,005,1,+999,9","01,1",,"SYN088AAXX  13184 08048 11460 40204 10142 20048 39969 40144 53005 69972 70181 83140 333 10182;",
"08048099999","2010-05-14T06:00:00","4","42.3333333","-7.8666666","147.0","ORENSE, SP","FM-12","99999","V020","260,1,N,0010,1","00750,1,9,N","010000,1,N,1","+0078,1","+0063,1","10161,1","12,9999,9,9","24,0008,9,1",,,,"08,99,1,08,1,05,1,00800,1,99,9,99,9","0480,9","09,9","999,+0040,9","999,N,+0070,1","99999,9,09982,1","8,1,010,1,+999,9","20,1",,"SYN112AAXX  14064 08048 11560 82602 10078 20063 39982 40161 58010 69902 720// 885// 333 20070 31004 50284 55080 70007;","Q01  00002PRCP12Q02  00002PRCP12"
"08048099999","2010-05-14T09:00:00","4","42.3333333","-7.8666666","147.0","ORENSE, SP","FM-12","99999","V020","230,1,N,0005,1","03600,1,9,N","002000,1,N,1","+0086,1","+0077,1","10167,1",,,"6,1,03,1","5,1,03,1",,"08,99,1,04,1,07,1,00150,1,02,1,99,9",,,,,"99999,9,09988,1","1,1,006,1,+999,9","51,1",,"SYN072AAXX  14094 08048 41220 82301 10086 20077 39988 40167 51006 75165 8472/;",
"08048099999","2010-05-14T12:00:00","4","42.3333333","-7.8666666","147.0","ORENSE, SP","FM-12","99999","V020","260,1,N,0010,1","00210,1,9,N","009000,1,N,1","+0119,1","+0101,1","10161,1","06,0008,9,1",,"6,1,06,1","2,1,06,1",,"08,99,1,08,1,07,1,00250,1,99,9,99,9",,,,,"99999,9,09985,1","8,1,003,1,+999,9","50,1",,"SYN078AAXX  14124 08048 11359 82602 10119 20101 39985 40161 58003 69981 75062 887//;",
"08048099999","2010-05-14T15:00:00","4","42.3333333","-7.8666666","147.0","ORENSE, SP","FM-12","99999","V020","290,1,N,0026,1","00420,1,9,N","010000,1,N,1","+0152,1","+0123,1","10155,1",,,"6,1,03,1","5,1,03,1",,"06,99,1,06,1,07,1,00450,1,00,1,00,1",,,,,"99999,9,09981,1","7,1,004,1,+999,9","20,1",,"SYN072AAXX  14154 08048 41460 62905 10152 20123 39981 40155 57004 72065 86700;",
"08048099999","2010-05-14T18:00:00","4","42.3333333","-7.8666666","147.0","ORENSE, SP","FM-12","99999","V020","330,1,N,0036,1","00420,1,9,N","010000,1,N,1","+0144,1","+0081,1","10166,1","12,0010,9,1",,"6,1,06,1","2,1,06,1",,"07,99,1,07,1,05,1,00450,1,00,1,00,1",,,,"999,M,+0171,1","99999,9,09991,1","3,1,010,1,+999,9","02,1",,"SYN088AAXX  14184 08048 11460 73307 10144 20081 39991 40166 53010 60012 70262 87500 333 10171;",
"08048099999","2010-05-17T06:00:00","4","42.3333333","-7.8666666","147.0","ORENSE, SP","FM-12","99999","V020","250,1,N,0005,1","22000,1,9,N","010000,1,N,1","+0058,1","+0049,1","10269,1","12,0000,9,1","24,0000,9,1",,,"00,1,+99999,9,99,9","00,99,1,00,1,00,1,99999,9,00,1,00,1","0792,9",,,"999,N,+0053,1","99999,9,10087,1","3,1,006,1,+999,9","00,1",,"SYN094AAXX  17064 08048 11960 02501 10058 20049 30087 40269 53006 60002 700// 333 20053 55132 70000;","Q01  00002PRCP24Q02  00002PRCP12"
"08048099999","2010-05-17T09:00:00","4","42.3333333","-7.8666666","147.0","ORENSE, SP","FM-12","99999","V020","220,1,N,0010,1","22000,1,9,N","010000,1,N,1","+0138,1","+0086,1","10262,1",,,,,"00,1,+99999,9,99,9","00,99,1,00,1,00,1,99999,9,00,1,00,1",,,,,"99999,9,10085,1","8,1,002,1,+999,9",,,"SYN060AAXX  17094 08048 42960 02202 10138 20086 30085 40262 58002;",
"08048099999","2010-05-17T12:00:00","4","42.3333333","-7.8666666","147.0","ORENSE, SP","FM-12","99999","V020","300,1,N,0021,1","22000,1,9,N","010000,1,N,1","+0229,1","+0116,1","10243,1","06,0000,9,1",,,,"00,1,+99999,9,99,9","00,99,1,00,1,00,1,99999,9,00,1,00,1",,,,,"99999,9,10072,1","7,1,013,1,+999,9",,,"SYN066AAXX  17124 08048 12960 03004 10229 20116 30072 40243 57013 60001;","Q01  00002PRCP06"
"08048099999","2010-05-17T15:00:00","4","42.3333333","-7.8666666","147.0","ORENSE, SP","FM-12","99999","V020","310,1,N,0010,1","22000,1,9,N","010000,1,N,1","+0281,1","+0079,1","10226,1",,,,,,"02,99,1,01,1,01,1,00450,1,00,1,05,1",,,,,"99999,9,10058,1","7,1,008,1,+999,9",,,"SYN066AAXX  17154 08048 42460 23102 10281 20079 30058 40226 57008 81105;",
"08048099999","2010-05-17T18:00:00","4","42.3333333","-7.8666666","147.0","ORENSE, SP","FM-12","99999","V020","200,1,N,0010,1","22000,1,9,N","010000,1,N,1","+0280,1","+0083,1","10217,1","12,0000,9,1",,,,,"02,99,1,01,1,01,1,00450,1,00,1,05,1",,,,"999,M,+0292,1","99999,9,10049,1","7,1,009,1,+999,9",,,"SYN082AAXX  17184 08048 12460 22002 10280 20083 30049 40217 57009 60002 81105 333 10292;","Q01  00002PRCP12"
"08048099999","2010-05-18T06:00:00","4","42.3333333","-7.8666666","147.0","ORENSE, SP","FM-12","99999","V020","999,9,9,9999,9","22000,1,9,N","010000,1,N,1","+0088,1","+0076,1","10270,1","12,0000,9,1","24,0000,9,1",,,"00,1,+99999,9,99,9","00,99,1,00,1,00,1,99999,9,00,1,00,1","0786,9","09,9","999,+0030,9","999,N,+0085,1","99999,9,10090,1","2,1,009,1,+999,9",,,"SYN100AAXX  18064 08048 12960 0//// 10088 20076 30090 40270 52009 60002 333 20085 31003 50444 55131 70000;","Q01  00002PRCP24Q02  00002PRCP12"
"08048099999","2010-05-18T09:00:00","4","42.3333333","-7.8666666","147.0","ORENSE, SP","FM-12","99999","V020","230,1,N,0010,1","22000,1,9,N","010000,1,N,1","+0162,1","+0109,1","10273,1",,,,,,"01,99,1,00,1,00,1,99999,9,00,1,01,1",,,,,"99999,9,10097,1","0,1,007,1,+999,9",,,"SYN066AAXX  18094 08048 42960 12302 10162 20109 30097 40273 50007 80001;",
"08048099999","2010-05-18T12:00:00","4","42.3333333","-7.8666666","147.0","ORENSE, SP","FM-12","99999","V020","150,1,N,0010,1","22000,1,9,N","010000,1,N,1","+0260,1","+0094,1","10245,1","06,0000,9,1",,,,,"03,99,1,01,1,01,1,00450,1,00,1,01,1",,,,,"99999,9,10075,1","7,1,022,1,+999,9",,,"SYN072AAXX  18124 08048 12460 31502 10260 20094 30075 40245 57022 60001 81101;","Q01  00002PRCP06"
"08048099999","2010-05-18T15:00:00","4","42.3333333","-7.8666666","147.0","ORENSE, SP","FM-12","99999","V020","060,1,N,0010,1","22000,1,9,N","010000,1,N,1","+0300,1","+0110,1","10225,1",,,,,,"03,99,1,01,1,01,1,00450,1,00,1,01,1",,,,,"99999,9,10058,1","7,1,017,1,+999,9",,,"SYN066AAXX  18154 08048 42460 30602 10300 20110 30058 40225 57017 81101;",
"08048099999","2010-05-18T18:00:00","4","42.3333333","-7.8666666","147.0","ORENSE, SP","FM-12","99999","V020","010,1,N,0010,1","22000,1,9,N","010000,1,N,1","+0300,1","+0105,1","10217,1","12,0000,9,1",,,,,"05,99,1,01,1,01,1,00450,1,00,1,06,1",,,,"999,M,+0310,1","99999,9,10050,1","7,1,008,1,+999,9",,,"SYN082AAXX  18184 08048 12460 50102 10300 20105 30050 40217 57008 60002 81106 333 10310;","Q01  00002PRCP12"
"08048099999","2010-05-19T06:00:00","4","42.3333333","-7.8666666","147.0","ORENSE, SP","FM-12","99999","V020","170,1,N,0010,1","22000,1,9,N","010000,1,N,1","+0098,1","+0086,1","10259,1","12,0000,9,1","24,0000,9,1",,,,"01,99,1,00,1,00,1,99999,9,00,1,01,1","0768,9","09,9","999,+0060,9","999,N,+0095,1","99999,9,10080,1","3,1,008,1,+999,9","00,1",,"SYN112AAXX  19064 08048 11960 11702 10098 20086 30080 40259 53008 60002 700// 80001 333 20095 31006 50494 55128 70000;","Q01  00002PRCP24Q02  00002PRCP12"
"08048099999","2010-05-19T09:00:00","4","42.3333333","-7.8666666","147.0","ORENSE, SP","FM-12","99999","V020","350,1,N,0015,1","22000,1,9,N","010000,1,N,1","+0174,1","+0117,1","10253,1",,,,,,"01,99,1,00,1,00,1,99999,9,00,1,01,1",,,,,"99999,9,10078,1","8,1,002,1,+999,9",,,"SYN066AAXX  19094 08048 42960 13503 10174 20117 30078 40253 58002 80001;",
"08048099999","2010-05-19T12:00:00","4","42.3333333","-7.8666666","147.0","ORENSE, SP","FM-12","99999","V020","360,1,N,0021,1","22000,1,9,N","010000,1,N,1","+0258,1","+0108,1","10227,1","06,0000,9,1",,,,,"01,99,1,00,1,00,1,99999,9,00,1,01,1",,,,,"99999,9,10058,1","7,1,020,1,+999,9",,,"SYN072AAXX  19124 08048 12960 13604 10258 20108 30058 40227 57020 60001 80001;","Q01  00002PRCP06"
"08048099999","2010-05-19T15:00:00","4","42.3333333","-7.8666666","147.0","ORENSE, SP","FM-12","99999","V020","020,1,N,0021,1","22000,1,9,N","010000,1,N,1","+0302,1","+0126,1","10205,1",,,,,"00,1,+99999,9,99,9","00,99,1,00,1,00,1,99999,9,00,1,00,1",,,,,"99999,9,10039,1","7,1,019,1,+999,9",,,"SYN060AAXX  19154 08048 42960 00204 10302 20126 30039 40205 57019;",
"08048099999","2010-05-19T18:00:00","4","42.3333333","-7.8666666","147.0","ORENSE, SP","FM-12","99999","V020","030,1,N,0021,1","22000,1,9,N","010000,1,N,1","+0300,1","+0141,1","10199,1","12,0000,9,1",,,,"00,1,+99999,9,99,9","00,99,1,00,1,00,1,99999,9,00,1,00,1",,,,"999,M,+0315,1","99999,9,10033,1","7,1,006,1,+999,9",,,"SYN076AAXX  19184 08048 12960 00304 10300 20141 30033 40199 57006 60002 333 10315;","Q01  00002PRCP12"
"08048099999","2010-05-20T06:00:00","4","42.3333333","-7.8666666","147.0","ORENSE, SP","FM-12","99999","V020","150,1,N,0010,1","22000,1,9,N","010000,1,N,1","+0118,1","+0107,1","10243,1","12,0000,9,1","24,0000,9,1",,,"00,1,+99999,9,99,9","00,99,1,00,1,00,1,99999,9,00,1,00,1","0798,9","09,9","999,+0070,9","999,N,+0115,1","99999,9,10065,1","3,1,003,1,+999,9","00,1",,"SYN106AAXX  20064 08048 11960 01502 10118 20107 30065 40243 53003 60002 700// 333 20115 31007 50464 55133 70000;","Q01  00002PRCP24Q02  00002PRCP12"
"08048099999","2010-05-20T09:00:00","4","42.3333333","-7.8666666","147.0","ORENSE, SP","FM-12","99999","V020","320,1,N,0021,1","22000,1,9,N","010000,1,N,1","+0200,1","+0117,1","10237,1",,,,,"00,1,+99999,9,99,9","00,99,1,00,1,00,1,99999,9,00,1,00,1",,,,,"99999,9,10064,1","8,1,001,1,+999,9",,,"SYN060AAXX  20094 08048 42960 03204 10200 20117 30064 40237 58001;",
"08048099999","2010-05-20T12:00:00","4","42.3333333","-7.8666666","147.0","ORENSE, SP","FM-12","99999","V020","080,1,N,0010,1","22000,1,9,N","010000,1,N,1","+0274,1","+0122,1","10212,1","06,0000,9,1",,,,"00,1,+99999,9,99,9","00,99,1,00,1,00,1,99999,9,00,1,00,1",,,,,"99999,9,10044,1","7,1,020,1,+999,9",,,"SYN066AAXX  20124 08048 12960 00802 10274 20122 30044 40212 57020 60001;","Q01  00002PRCP06"
"08048099999","2010-05-20T15:00:00","4","42.3333333","-7.8666666","147.0","ORENSE, SP","FM-12","99999","V020","300,1,N,0021,1","22000,1,9,N","010000,1,N,1","+0309,1","+0128,1","10185,1",,,,,,"01,99,1,01,1,01,1,00450,1,00,1,00,1",,,,,"99999,9,10019,1","7,1,025,1,+999,9",,,"SYN066AAXX  20154 08048 42460 13004 10309 20128 30019 40185 57025 81100;",
"08048099999","2010-05-20T18:00:00","4","42.3333333","-7.8666666","147.0","ORENSE, SP","FM-12","99999","V020","190,1,N,0015,1","22000,1,9,N","010000,1,N,1","+0308,1","+0131,1","10168,1","12,0000,9,1",,,,,"01,99,1,01,1,01,1,00450,1,00,1,00,1",,,,"999,M,+0319,1","99999,9,10003,1","7,1,016,1,+999,9",,,"SYN082AAXX  20184 08048 12460 11903 10308 20131 30003 40168 57016 60002 81100 333 10319;","Q01  00002PRCP12"
"08048099999","2010-05-21T06:00:00","4","42.3333333","-7.8666666","147.0","ORENSE, SP","FM-12","99999","V020","280,1,N,0010,1","22000,1,9,N","010000,1,N,1","+0102,1","+0088,1","10207,1","12,0000,9,1","24,0000,9,1",,,"00,1,+99999,9,99,9","00,99,1,00,1,00,1,99999,9,00,1,00,1","0804,9","09,9","999,+0060,9","999,N,+0099,1","99999,9,10029,1","3,1,006,1,+999,9","00,1",,"SYN106AAXX  21064 08048 11960 02802 10102 20088 30029 40207 53006 60002 700// 333 20099 31006 50514 55134 70000;","Q01  00002PRCP24Q02  00002PRCP12"
"08048099999","2010-05-21T09:00:00","4","42.3333333","-7.8666666","147.0","ORENSE, SP","FM-12","99999","V020","220,1,N,0010,1","22000,1,9,N","010000,1,N,1","+0191,1","+0124,1","10199,1",,,,,"00,1,+99999,9,99,9","00,99,1,00,1,00,1,99999,9,00,1,00,1",,,,,"99999,9,10026,1","8,1,003,1,+999,9",,,"SYN060AAXX  21094 08048 42960 02202 10191 20124 30026 40199 58003;",
"08048099999","2010-05-21T12:00:00","4","42.3333333","-7.8666666","147.0","ORENSE, SP","FM-12","99999","V020","350,1,N,0021,1","22000,1,9,N","010000,1,N,1","+0285,1","+0111,1","10173,1","06,0000,9,1",,,,"00,1,+99999,9,99,9","00,99,1,00,1,00,1,99999,9,00,1,00,1",,,,,"99999,9,10006,1","7,1,020,1,+999,9",,,"SYN066AAXX  21124 08048 12960 03504 10285 20111 30006 40173 57020 60001;","Q01  00002PRCP06"
"08048099999","2010-05-21T15:00:00","4","42.3333333","-7.8666666","147.0","ORENSE, SP","FM-12","99999","V020","320,1,N,0026,1","22000,1,9,N","010000,1,N,1","+0326,1","+0123,1","10144,1",,,,,"00,1,+99999,9,99,9","00,99,1,00,1,00,1,99999,9,00,1,00,1",,,,,"99999,9,09980,1","7,1,026,1,+999,9",,,"SYN060AAXX  21154 08048 42960 03205 10326 20123 39980 40144 57026;",
"08048099999","2010-05-21T18:00:00","4","42.3333333","-7.8666666","147.0","ORENSE, SP","FM-12","99999","V020","310,1,N,0015,1","22000,1,9,N","010000,1,N,1","+0327,1","+0143,1","10132,1","12,0000,9,1",,,,"00,1,+99999,9,99,9","00,99,1,00,1,00,1,99999,9,00,1,00,1",,,,"999,M,+0332,1","99999,9,09968,1","7,1,012,1,+999,9",,,"SYN076AAXX  21184 08048 12960 03103 10327 20143 39968 40132 57012 60002 333 10332;","Q01  00002PRCP12"
"08048099999","2010-05-24T06:00:00","4","42.3333333","-7.8666666","147.0","ORENSE, SP","FM-12","99999","V020","150,1,N,0010,1","00420,1,9,N","010000,1,N,1","+0156,1","+0134,1","10129,1","12,0000,9,1","24,0000,9,1",,,,"07,99,1,07,1,06,1,00450,1,99,9,99,9","0654,9",,,"999,N,+0149,1","99999,9,09956,1","3,1,009,1,+999,9",,,"SYN094AAXX  24064 08048 12460 71502 10156 20134 39956 40129 53009 60002 876// 333 20149 55109 70000;","Q01  00002PRCP24Q02  00002PRCP12"
"08048099999","2010-05-24T09:00:00","4","42.3333333","-7.8666666","147.0","ORENSE, SP","FM-12","99999","V020","250,1,N,0010,1","00420,1,9,N","010000,1,N,1","+0196,1","+0150,1","10129,1",,,,,,"07,99,1,07,1,05,1,00450,1,99,9,99,9",,,,,"99999,9,09958,1","1,1,002,1,+999,9",,,"SYN066AAXX  24094 08048 42460 72502 10196 20150 39958 40129 51002 875//;",
"08048099999","2010-05-24T12:00:00","4","42.3333333","-7.8666666","147.0","ORENSE, SP","FM-12","99999","V020","170,1,N,0051,1","03600,1,9,N","010000,1,N,1","+0248,1","+0134,1","10112,1","06,0000,9,1",,,,,"06,99,1,03,1,02,1,00450,1,04,1,01,1",,,,,"99999,9,09944,1","8,1,014,1,+999,9",,,"SYN072AAXX  24124 08048 12460 61710 10248 20134 39944 40112 58014 60001 83241;","Q01  00002PRCP06"
"08048099999","2010-05-24T15:00:00","4","42.3333333","-7.8666666","147.0","ORENSE, SP","FM-12","99999","V020","110,1,N,0010,1","00420,1,9,N","010000,1,N,1","+0240,1","+0165,1","10104,1",,,"2,1,03,1","2,1,03,1",,"05,99,1,05,1,02,1,00450,1,00,1,00,1",,,,,"99999,9,09936,1","8,1,008,1,+999,9","25,1",,"SYN072AAXX  24154 08048 41460 51102 10240 20165 39936 40104 58008 72522 85200;",
"08048099999","2010-05-24T18:00:00","4","42.3333333","-7.8666666","147.0","ORENSE, SP","FM-12","99999","V020","020,1,N,0010,1","03600,1,9,N","010000,1,N,1","+0214,1","+0164,1","10099,1","12,0010,9,1",,"9,1,06,1","2,1,06,1",,"05,99,1,03,1,02,1,00450,1,06,1,01,1",,,,"999,M,+0266,1","99999,9,09930,1","8,1,006,1,+999,9","25,1",,"SYN088AAXX  24184 08048 11460 50202 10214 20164 39930 40099 58006 69992 72592 83261 333 10266;",
"08048099999","2010-05-25T06:00:00","4","42.3333333","-7.8666666","147.0","ORENSE, SP","FM-12","99999","V020","220,1,N,0015,1","00420,1,9,N","009000,1,N,1","+0154,1","+0122,1","10105,1","12,0000,2,1","24,0010,9,1","5,1,06,1","2,1,06,1",,"08,99,1,08,1,07,1,00450,1,99,9,99,9","0150,9","09,9","999,+0120,9","999,N,+0147,1","99999,9,09932,1","5,1,006,1,+999,9","61,1",,"SYN112AAXX  25064 08048 11459 82203 10154 20122 39932 40105 55006 69912 76152 887// 333 20147 31012 50314 55025 70010;",
"08048099999","2010-05-25T09:00:00","4","42.3333333","-7.8666666","147.0","ORENSE, SP","FM-12","99999","V020","140,1,N,0036,1","00900,1,9,N","010000,1,N,1","+0168,1","+0125,1","10109,1",,,"6,1,03,1","2,1,03,1",,"05,99,1,05,1,08,1,00450,1,04,1,00,1",,,,,"99999,9,09937,1","3,1,005,1,+999,9","25,1",,"SYN072AAXX  25094 08048 41460 51407 10168 20125 39937 40109 53005 72562 85840;",
"08048099999","2010-05-25T12:00:00","4","42.3333333","-7.8666666","147.0","ORENSE, SP","FM-12","99999","V020","220,1,N,0036,1","00900,1,9,N","010000,1,N,1","+0200,1","+0115,1","10110,1","06,0041,9,1",,"8,1,06,1","6,1,06,1",,"05,99,1,05,1,08,1,00450,1,04,1,00,1",,,,,"99999,9,09939,1","1,1,002,1,+999,9","02,1",,"SYN078AAXX  25124 08048 11460 52207 10200 20115 39939 40110 51002 60041 70286 85840;",
"08048099999","2010-05-25T15:00:00","4","42.3333333","-7.8666666","147.0","ORENSE, SP","FM-12","99999","V020","180,1,N,0036,1","00900,1,9,N","010000,1,N,1","+0198,1","+0133,1","10116,1",,,"2,1,03,1","2,1,03,1",,"06,99,1,05,1,08,1,00450,1,04,1,02,1",,,,,"99999,9,09945,1","0,1,006,1,+999,9","25,1",,"SYN072AAXX  25154 08048 41460 61807 10198 20133 39945 40116 50006 72522 85842;",
"08048099999","2010-05-25T18:00:00","4","42.3333333","-7.8666666","147.0","ORENSE, SP","FM-12","99999","V020","280,1,N,0031,1","00900,1,9,N","010000,1,N,1","+0178,1","+0141,1","10123,1","12,0041,9,1",,"8,1,06,1","2,1,06,1",,"07,99,1,05,1,08,1,00450,1,07,1,00,1",,,,"999,M,+0214,1","99999,9,09951,1","1,1,006,1,+999,9","80,1",,"SYN088AAXX  25184 08048 11460 72806 10178 20141 39951 40123 51006 60042 78082 85870 333 10214;",
"08048099999","2010-05-26T06:00:00","4","42.3333333","-7.8666666","147.0","ORENSE, SP","FM-12","99999","V020","230,1,N,0010,1","03600,1,9,N","010000,1,N,1","+0130,1","+0116,1","10131,1","12,0000,2,1","24,0043,9,1",,,,"06,99,1,04,1,05,1,00450,1,04,1,00,1","0090,9","01,9","999,+0110,9","999,N,+0128,1","99999,9,09956,1","5,1,002,1,+999,9",,,"SYN106AAXX  26064 08048 12460 62302 10130 20116 39956 40131 55002 69902 84540 333 20128 30011 50204 55015 70043;",
"08048099999","2010-05-26T09:00:00","4","42.3333333","-7.8666666","147.0","ORENSE, SP","FM-12","99999","V020","110,1,N,0010,1","00900,1,9,N","010000,1,N,1","+0170,1","+0111,1","10131,1",,,,,,"07,99,1,07,1,08,1,00450,1,99,9,99,9",,,,,"99999,9,09958,1","0,1,002,1,+999,9",,,"SYN066AAXX  26094 08048 42460 71102 10170 20111 39958 40131 50002 878//;",
"08048099999","2010-05-26T12:00:00","4","42.3333333","-7.8666666","147.0","ORENSE, SP","FM-12","99999","V020","350,1,N,0010,1","00420,1,9,N","010000,1,N,1","+0158,1","+0127,1","10140,1","06,9999,9,9",,"5,1,06,1","2,1,06,1",,"08,99,1,06,1,07,1,00450,1,07,1,99,9",,,,,"99999,9,09967,1","3,1,009,1,+999,9","50,1",,"SYN078AAXX  26124 08048 11460 83502 10158 20127 39967 40140 53009 69911 75052 8677/;","Q01  00002PRCP06Q02  00002PRCP06"
"08048099999","2010-05-26T15:00:00","4","42.3333333","-7.8666666","147.0","ORENSE, SP","FM-12","99999","V020","180,1,N,0021,1","00420,1,9,N","010000,1,N,1","+0164,1","+0133,1","10140,1",,,"5,1,03,1","2,1,03,1",,"08,99,1,07,1,07,1,00450,1,07,1,99,9",,,,,"99999,9,09967,1","4,1,000,1,+999,9","20,1",,"SYN072AAXX  26154 08048 41460 81804 10164 20133 39967 40140 54000 72052 8777/;",
"08048099999","2010-05-26T18:00:00","4","42.3333333","-7.8666666","147.0","ORENSE, SP","FM-12","99999","V020","180,1,N,0010,1","03600,1,9,N","010000,1,N,1","+0177,1","+0132,1","10133,1","12,0000,2,1",,"5,1,06,1","2,1,06,1",,"07,99,1,04,1,08,1,00450,1,07,1,01,1",,,,"999,M,+0181,1","99999,9,09961,1","8,1,006,1,+999,9","01,1",,"SYN088AAXX  26184 08048 11460 71802 10177 20132 39961 40133 58006 69922 70152 84871 333 10181;",
"08048099999","2010-05-27T06:00:00","4","42.3333333","-7.8666666","147.0","ORENSE, SP","FM-12","99999","V020","270,1,N,0005,1","00210,1,9,N","004000,1,N,1","+0142,1","+0131,1","10133,1","12,0000,9,1","24,0003,9,1","2,1,06,1","2,1,06,1",,"07,99,1,07,1,06,1,00250,1,99,9,99,9","0012,9","09,9","999,+0110,9","999,N,+0136,1","99999,9,09959,1","5,1,001,1,+999,9","10,1",,"SYN112AAXX  27064 08048 11340 72701 10142 20131 39959 40133 55001 69912 71022 876// 333 20136 31011 50124 55002 70003;","Q01  00002PRCP12"
"08048099999","2010-05-27T09:00:00","4","42.3333333","-7.8666666","147.0","ORENSE, SP","FM-12","99999","V020","160,1,N,0010,1","09000,1,9,N","010000,1,N,1","+0171,1","+0118,1","10137,1",,,,,,"05,99,1,02,1,02,1,00450,1,00,1,02,1",,,,,"99999,9,09964,1","1,1,005,1,+999,9",,,"SYN066AAXX  27094 08048 42460 51602 10171 20118 39964 40137 51005 82202;",
"08048099999","2010-05-27T12:00:00","4","42.3333333","-7.8666666","147.0","ORENSE, SP","FM-12","99999","V020","280,1,N,0026,1","00420,1,9,N","010000,1,N,1","+0209,1","+0115,1","10127,1","06,0000,9,1",,,,,"07,99,1,06,1,04,1,00450,1,04,1,02,1",,,,,"99999,9,09957,1","8,1,007,1,+999,9",,,"SYN072AAXX  27124 08048 12460 72805 10209 20115 39957 40127 58007 60001 86442;","Q01  00002PRCP06"
"08048099999","2010-05-27T15:00:00","4","42.3333333","-7.8666666","147.0","ORENSE, SP","FM-12","99999","V020","300,1,N,0026,1","00900,1,9,N","010000,1,N,1","+0199,1","+0111,1","10132,1",,,,,,"08,99,1,08,1,08,1,00450,1,99,9,99,9",,,,,"99999,9,09961,1","1,1,004,1,+999,9",,,"SYN066AAXX  27154 08048 42460 83005 10199 20111 39961 40132 51004 888//;",
"08048099999","2010-05-27T18:00:00","4","42.3333333","-7.8666666","147.0","ORENSE, SP","FM-12","99999","V020","310,1,N,0031,1","00900,1,9,N","010000,1,N,1","+0188,1","+0119,1","10133,1","12,0000,9,1",,,,,"07,99,1,06,1,08,1,00450,1,06,1,01,1",,,,"999,M,+0231,1","99999,9,09961,1","4,1,000,1,+999,9",,,"SYN082AAXX  27184 08048 12460 73106 10188 20119 39961 40133 54000 60002 86861 333 10231;","Q01  00002PRCP12"
"08048099999","2010-05-28T06:00:00","4","42.3333333","-7.8666666","147.0","ORENSE, SP","FM-12","99999","V020","250,1,N,0010,1","00210,1,9,N","004000,1,N,1","+0102,1","+0096,1","10179,1","12,0000,9,1","24,0000,9,1",,,,"08,99,1,08,1,06,1,00250,1,99,9,99,9","0228,9","09,9","999,+0060,9","999,N,+0096,1","99999,9,10001,1","3,1,015,1,+999,9","10,1",,"SYN112AAXX  28064 08048 11340 82502 10102 20096 30001 40179 53015 60002 710// 886// 333 20096 31006 50254 55038 70000;","Q01  00002PRCP24Q02  00002PRCP12"
"08048099999","2010-05-28T09:00:00","4","42.3333333","-7.8666666","147.0","ORENSE, SP","FM-12","99999","V020","260,1,N,0010,1","22000,1,9,N","010000,1,N,1","+0137,1","+0114,1","10187,1",,,,,,"02,99,1,02,1,06,1,00450,1,00,1,00,1",,,,,"99999,9,10011,1","2,1,010,1,+999,9",,,"SYN066AAXX  28094 08048 42460 22602 10137 20114 30011 40187 52010 82600;",
"08048099999","2010-05-28T12:00:00","4","42.3333333","-7.8666666","147.0","ORENSE, SP","FM-12","99999","V020","360,1,N,0015,1","00420,1,9,N","010000,1,N,1","+0219,1","+0104,1","10180,1","06,0000,9,1",,,,,"05,99,1,05,1,04,1,00450,1,00,1,00,1",,,,,"99999,9,10009,1","8,1,002,1,+999,9",,,"SYN072AAXX  28124 08048 12460 53603 10219 20104 30009 40180 58002 60001 85400;","Q01  00002PRCP06"
"08048099999","2010-05-28T15:00:00","4","42.3333333","-7.8666666","147.0","ORENSE, SP","FM-12","99999","V020","330,1,N,0026,1","00420,1,9,N","010000,1,N,1","+0218,1","+0093,1","10178,1",,,,,,"07,99,1,06,1,04,1,00450,1,04,1,02,1",,,,,"99999,9,10007,1","6,1,002,1,+999,9",,,"SYN066AAXX  28154 08048 42460 73305 10218 20093 30007 40178 56002 86442;",
"08048099999","2010-05-28T18:00:00","4","42.3333333","-7.8666666","147.0","ORENSE, SP","FM-12","99999","V020","320,1,N,0031,1","00900,1,9,N","010000,1,N,1","+0220,1","+0108,1","10183,1","12,0000,9,1",,,,,"05,99,1,05,1,08,1,00450,1,04,1,00,1",,,,"999,M,+0231,1","99999,9,10012,1","3,1,005,1,+999,9",,,"SYN082AAXX  28184 08048 12460 53206 10220 20108 30012 40183 53005 60002 85840 333 10231;","Q01  00002PRCP12"
"08048099999","2010-05-31T06:00:00","4","42.3333333","-7.8666666","147.0","ORENSE, SP","FM-12","99999","V020","160,1,N,0005,1","00420,1,9,N","010000,1,N,1","+0161,1","+0143,1","10242,1","12,0000,9,1","24,0000,9,1",,,,"08,99,1,08,1,06,1,00450,1,99,9,99,9","0600,9",,,"999,N,+0148,1","99999,9,10067,1","5,1,002,1,+999,9","02,1",,"SYN106AAXX  31064 08048 11460 81601 10161 20143 30067 40242 55002 60002 702// 886// 333 20148 50324 55100 70000;","Q01  00002PRCP24Q02  00002PRCP12"
"08048099999","2010-05-31T09:00:00","4","42.3333333","-7.8666666","147.0","ORENSE, SP","FM-12","99999","V020","300,1,N,0015,1","00210,1,9,N","007000,1,N,1","+0189,1","+0159,1","10236,1",,,"2,1,03,1","2,1,03,1",,"08,99,1,08,1,06,1,00250,1,99,9,99,9",,,,,"99999,9,10063,1","6,1,004,1,+999,9","10,1",,"SYN072AAXX  31094 08048 41357 83003 10189 20159 30063 40236 56004 71022 886//;",
"08048099999","2010-05-31T12:00:00","4","42.3333333","-7.8666666","147.0","ORENSE, SP","FM-12","99999","V020","300,1,N,0015,1","22000,1,9,N","010000,1,N,1","+0267,1","+0172,1","10207,1","06,0000,9,1",,,,,"02,99,1,02,1,06,1,00450,1,00,1,00,1",,,,,"99999,9,10039,1","7,1,024,1,+999,9",,,"SYN072AAXX  31124 08048 12460 23003 10267 20172 30039 40207 57024 60001 82600;","Q01  00002PRCP06"
"08048099999","2010-05-31T15:00:00","4","42.3333333","-7.8666666","147.0","ORENSE, SP","FM-12","99999","V020","280,1,N,0021,1","22000,1,9,N","010000,1,N,1","+0328,1","+0186,1","10182,1",,,,,,"04,99,1,02,1,04,1,00450,1,00,1,02,1",,,,,"99999,9,10018,1","7,1,021,1,+999,9",,,"SYN066AAXX  31154 08048 42460 42804 10328 20186 30018 40182 57021 82402;",
"08048099999","2010-05-31T18:00:00","4","42.3333333","-7.8666666","147.0","ORENSE, SP","FM-12","99999","V020","020,1,N,0021,1","03600,1,9,N","010000,1,N,1","+0302,1","+0176,1","10176,1","12,0000,9,1",,,,,"08,99,1,03,1,04,1,00450,1,01,1,99,9",,,,"999,M,+0329,1","99999,9,10010,1","7,1,008,1,+999,9",,,"SYN082AAXX  31184 08048 12460 80204 10302 20176 30010 40176 57008 60002 8341/ 333 10329;","Q01  00002PRCP12"
"08048099999","2010-06-01T06:00:00","4","42.3333333","-7.8666666","147.0","ORENSE, SP","FM-12","99999","V020","180,1,N,0010,1","03600,1,9,N","010000,1,N,1","+0158,1","+0142,1","10184,1","12,0000,9,1","24,0000,9,1",,,,"07,99,1,01,1,01,1,00450,1,07,1,01,1","0420,9","01,9","999,+0120,9","999,N,+0153,1","99999,9,10010,1","4,1,000,1,+999,9","02,1",,"SYN112AAXX  01064 08048 11460 71802 10158 20142 30010 40184 54000 60002 702// 81171 333 20153 30012 50454 55070 70000;","Q01  00002PRCP24Q02  00002PRCP12"
"08048099999","2010-06-01T09:00:00","4","42.3333333","-7.8666666","147.0","ORENSE, SP","FM-12","99999","V020","300,1,N,0015,1","03600,1,9,N","010000,1,N,1","+0214,1","+0164,1","10179,1",,,,,,"07,99,1,01,1,01,1,00450,1,06,1,06,1",,,,,"99999,9,10008,1","8,1,004,1,+999,9",,,"SYN066AAXX  01094 08048 42460 73003 10214 20164 30008 40179 58004 81166;",
"08048099999","2010-06-01T12:00:00","4","42.3333333","-7.8666666","147.0","ORENSE, SP","FM-12","99999","V020","020,1,N,0021,1","09000,1,9,N","010000,1,N,1","+0284,1","+0153,1","10168,1","06,0000,9,1",,,,,"06,99,1,03,1,00,1,01750,1,08,1,02,1",,,,,"99999,9,10001,1","6,1,007,1,+999,9",,,"SYN072AAXX  01124 08048 12760 60204 10284 20153 30001 40168 56007 60001 83082;","Q01  00002PRCP06"
"08048099999","2010-06-01T15:00:00","4","42.3333333","-7.8666666","147.0","ORENSE, SP","FM-12","99999","V020","060,1,N,0021,1","03600,1,9,N","010000,1,N,1","+0275,1","+0158,1","10161,1",,,,,,"07,99,1,01,1,01,1,00450,1,02,1,01,1",,,,,"99999,9,09994,1","6,1,007,1,+999,9",,,"SYN066AAXX  01154 08048 42460 70604 10275 20158 39994 40161 56007 81121;",
"08048099999","2010-06-01T18:00:00","4","42.3333333","-7.8666666","147.0","ORENSE, SP","FM-12","99999","V020","040,1,N,0015,1","01200,1,9,N","010000,1,N,1","+0252,1","+0146,1","10168,1","12,0000,9,1",,,,,"08,99,1,08,1,00,1,01250,1,02,1,99,9",,,,"999,M,+0293,1","99999,9,10000,1","3,1,006,1,+999,9",,,"SYN082AAXX  01184 08048 12660 80403 10252 20146 30000 40168 53006 60002 8802/ 333 10293;","Q01  00002PRCP12"
"08048099999","2010-06-02T06:00:00","4","42.3333333","-7.8666666","147.0","ORENSE, SP","FM-12","99999","V020","160,1,N,0010,1","22000,1,9,N","010000,1,N,1","+0160,1","+0142,1","10158,1","12,0000,9,1","24,0000,9,1",,,,"04,99,1,04,1,00,1,01250,1,07,1,00,1","0342,9","01,9","999,+0150,9","999,N,+0152,1","99999,9,09984,1","3,1,004,1,+999,9","02,1",,"SYN112AAXX  02064 08048 11660 41602 10160 20142 39984 40158 53004 60002 702// 84070 333 20152 30015 50394 55057 70000;","Q01  00002PRCP24Q02  00002PRCP12"
"08048099999","2010-06-02T09:00:00","4","42.3333333","-7.8666666","147.0","ORENSE, SP","FM-12","99999","V020","070,1,N,0010,1","99999,9,9,N","010000,1,N,1","+0215,1","+0153,1","10150,1",,,,,,"07,99,1,06,1,00,1,01250,1,07,1,01,1",,,,,"99999,9,09980,1","8,1,004,1,+999,9",,,"SYN066AAXX  02094 08048 42660 70702 10215 20153 39980 40150 58004 86071;",
"08048099999","2010-06-02T12:00:00","4","42.3333333","-7.8666666","147.0","ORENSE, SP","FM-12","99999","V020","040,1,N,0021,1","22000,1,9,N","010000,1,N,1","+0284,1","+0146,1","10131,1","06,0000,9,1",,,,,"02,99,1,01,1,01,1,00450,1,07,1,01,1",,,,,"99999,9,09965,1","7,1,015,1,+999,9",,,"SYN072AAXX  02124 08048 12460 20404 10284 20146 39965 40131 57015 60001 81171;","Q01  00002PRCP06"
"08048099999","2010-06-02T15:00:00","4","42.3333333","-7.8666666","147.0","ORENSE, SP","FM-12","99999","V020","020,1,N,0021,1","22000,1,9,N","010000,1,N,1","+0318,1","+0140,1","10114,1",,,,,,"02,99,1,01,1,02,1,00450,1,04,1,01,1",,,,,"99999,9,09950,1","7,1,009,1,+999,9",,,"SYN066AAXX  02154 08048 42460 20204 10318 20140 39950 40114 57009 81241;",
"08048099999","2010-06-02T18:00:00","4","42.3333333","-7.8666666","147.0","ORENSE, SP","FM-12","99999","V020","060,1,N,0015,1","03600,1,9,N","010000,1,N,1","+0300,1","+0153,1","10110,1","12,0000,9,1",,,,,"06,99,1,01,1,02,1,00450,1,07,1,00,1",,,,"999,M,+0322,1","99999,9,09945,1","7,1,005,1,+999,9",,,"SYN082AAXX  02184 08048 12460 60603 10300 20153 39945 40110 57005 60002 81270 333 10322;","Q01  00002PRCP12"
"08048099999","2010-06-03T06:00:00","4","42.3333333","-7.8666666","147.0","ORENSE, SP","FM-12","99999","V020","160,1,N,0015,1","22000,1,9,N","007000,1,N,1","+0134,1","+0120,1","10128,1","12,0000,9,1","24,0000,9,1",,,,"04,99,1,04,1,06,1,00250,1,00,1,00,1","0618,9","09,9","999,+0100,9","999,N,+0129,1","99999,9,09953,1","3,1,003,1,+999,9","10,1",,"SYN112AAXX  03064 08048 11357 41603 10134 20120 39953 40128 53003 60002 710// 84600 333 20129 31010 50504 55103 70000;","Q01  00002PRCP24Q02  00002PRCP12"
"08048099999","2010-06-03T09:00:00","4","42.3333333","-7.8666666","147.0","ORENSE, SP","FM-12","99999","V020","290,1,N,0010,1","22000,1,9,N","010000,1,N,1","+0204,1","+0147,1","10124,1",,,,,"00,1,+99999,9,99,9","00,99,1,00,1,00,1,99999,9,00,1,00,1",,,,,"99999,9,09954,1","1,1,001,1,+999,9",,,"SYN060AAXX  03094 08048 42960 02902 10204 20147 39954 40124 51001;",
"08048099999","2010-06-03T12:00:00","4","42.3333333","-7.8666666","147.0","ORENSE, SP","FM-12","99999","V020","310,1,N,0021,1","22000,1,9,N","010000,1,N,1","+0297,1","+0126,1","10112,1","06,0000,9,1",,,,,"01,99,1,01,1,01,1,00450,1,04,1,00,1",,,,,"99999,9,09947,1","7,1,007,1,+999,9",,,"SYN072AAXX  03124 08048 12460 13104 10297 20126 39947 40112 57007 60001 81140;","Q01  00002PRCP06"
"08048099999","2010-06-03T15:00:00","4","42.3333333","-7.8666666","147.0","ORENSE, SP","FM-12","99999","V020","290,1,N,0041,1","22000,1,9,N","010000,1,N,1","+0320,1","+0112,1","10110,1",,,,,,"01,99,1,01,1,01,1,00450,1,00,1,00,1",,,,,"99999,9,09946,1","6,1,001,1,+999,9",,,"SYN066AAXX  03154 08048 42460 12908 10320 20112 39946 40110 56001 81100;",
"08048099999","2010-06-03T18:00:00","4","42.3333333","-7.8666666","147.0","ORENSE, SP","FM-12","99999","V020","280,1,N,0031,1","22000,1,9,N","010000,1,N,1","+0297,1","+0082,1","10121,1","12,0000,9,1",,,,,"01,99,1,00,1,00,1,99999,9,00,1,01,1",,,,"999,M,+0327,1","99999,9,09955,1","3,1,009,1,+999,9",,,"SYN082AAXX  03184 08048 12960 12806 10297 20082 39955 40121 53009 60002 80001 333 10327;","Q01  00002PRCP12"
"08048099999","2010-06-04T06:00:00","4","42.3333333","-7.8666666","147.0","ORENSE, SP","FM-12","99999","V020","280,1,N,0005,1","22000,1,9,N","010000,1,N,1","+0123,1","+0105,1","10181,1","12,0000,9,1","24,0000,9,1",,,,"01,99,1,01,1,00,1,01250,1,08,1,00,1","0828,9","01,9","999,+0080,9","999,N,+0118,1","99999,9,10005,1","2,1,016,1,+999,9","02,1",,"SYN112AAXX  04064 08048 11660 12801 10123 20105 30005 40181 52016 60002 702// 81080 333 20118 30008 50594 55138 70000;","Q01  00002PRCP24Q02  00002PRCP12"
"08048099999","2010-06-04T09:00:00","4","42.3333333","-7.8666666","147.0","ORENSE, SP","FM-12","99999","V020","070,1,N,0010,1","22000,1,9,N","010000,1,N,1","+0194,1","+0127,1","10181,1",,,,,,"01,99,1,01,1,00,1,01250,1,04,1,00,1",,,,,"99999,9,10009,1","1,1,004,1,+999,9",,,"SYN066AAXX  04094 08048 42660 10702 10194 20127 30009 40181 51004 81040;",
"08048099999","2010-06-04T12:00:00","4","42.3333333","-7.8666666","147.0","ORENSE, SP","FM-12","99999","V020","290,1,N,0015,1","22000,1,9,N","010000,1,N,1","+0264,1","+0135,1","10166,1","06,0000,9,1",,,,,"02,99,1,00,1,00,1,99999,9,00,1,05,1",,,,,"99999,9,09998,1","8,1,011,1,+999,9",,,"SYN072AAXX  04124 08048 12960 22903 10264 20135 39998 40166 58011 60001 80005;","Q01  00002PRCP06"
"08048099999","2010-06-04T15:00:00","4","42.3333333","-7.8666666","147.0","ORENSE, SP","FM-12","99999","V020","280,1,N,0031,1","22000,1,9,N","010000,1,N,1","+0306,1","+0134,1","10151,1",,,,,,"03,99,1,01,1,01,1,00450,1,00,1,05,1",,,,,"99999,9,09986,1","6,1,012,1,+999,9",,,"SYN066AAXX  04154 08048 42460 32806 10306 20134 39986 40151 56012 81105;",
"08048099999","2010-06-04T18:00:00","4","42.3333333","-7.8666666","147.0","ORENSE, SP","FM-12","99999","V020","320,1,N,0031,1","22000,1,9,N","010000,1,N,1","+0292,1","+0138,1","10150,1","12,0000,9,1",,,,,"04,99,1,01,1,01,1,00450,1,00,1,06,1",,,,"999,M,+0315,1","99999,9,09984,1","6,1,002,1,+999,9",,,"SYN082AAXX  04184 08048 12460 43206 10292 20138 39984 40150 56002 60002 81106 333 10315;","Q01  00002PRCP12"
"08048099999","2010-06-07T06:00:00","4","42.3333333","-7.8666666","147.0","ORENSE, SP","FM-12","99999","V020","150,1,N,0005,1","99999,9,9,N","010000,1,N,1","+0109,1","+0095,1","10168,1","12,0000,9,1","24,0000,9,1",,,,"05,99,1,00,1,00,1,99999,9,00,1,02,1","0540,9",,,"999,N,+0105,1","99999,9,09991,1","8,1,002,1,+999,9",,,"SYN094AAXX  07064 08048 12960 51501 10109 20095 39991 40168 58002 60002 80002 333 20105 55090 70000;","Q01  00002PRCP24Q02  00002PRCP12"
"08048099999","2010-06-07T09:00:00","4","42.3333333","-7.8666666","147.0","ORENSE, SP","FM-12","99999","V020","060,1,N,0015,1","09000,1,9,N","010000,1,N,1","+0184,1","+0122,1","10159,1",,,,,,"06,99,1,01,1,01,1,00450,1,00,1,02,1",,,,,"99999,9,09987,1","8,1,004,1,+999,9",,,"SYN066AAXX  07094 08048 42460 60603 10184 20122 39987 40159 58004 81102;",
"08048099999","2010-06-07T12:00:00","4","42.3333333","-7.8666666","147.0","ORENSE, SP","FM-12","99999","V020","310,1,N,0031,1","09000,1,9,N","010000,1,N,1","+0221,1","+0121,1","10147,1","06,0000,9,1",,,,,"06,99,1,03,1,01,1,00450,1,00,1,08,1",,,,,"99999,9,09977,1","8,1,010,1,+999,9",,,"SYN072AAXX  07124 08048 12460 63106 10221 20121 39977 40147 58010 60001 83108;","Q01  00002PRCP06"
"08048099999","2010-06-07T15:00:00","4","42.3333333","-7.8666666","147.0","ORENSE, SP","FM-12","99999","V020","310,1,N,0051,1","03600,1,9,N","010000,1,N,1","+0247,1","+0130,1","10131,1",,,,,,"06,99,1,04,1,08,1,00450,1,04,1,08,1",,,,,"99999,9,09963,1","6,1,014,1,+999,9",,,"SYN066AAXX  07154 08048 42460 63110 10247 20130 39963 40131 56014 84848;",
"08048099999","2010-06-07T18:00:00","4","42.3333333","-7.8666666","147.0","ORENSE, SP","FM-12","99999","V020","270,1,N,0046,1","00420,1,9,N","010000,1,N,1","+0201,1","+0128,1","10131,1","12,9999,9,9",,"2,1,06,1","2,1,06,1",,"08,99,1,08,1,07,1,00450,1,99,9,99,9",,,,"999,M,+0256,1","99999,9,09960,1","6,1,003,1,+999,9","50,1",,"SYN088AAXX  07184 08048 11460 82709 10201 20128 39960 40131 56003 69902 75022 887// 333 10256;","Q01  00002PRCP12Q02  00002PRCP12"
"08048099999","2010-06-08T06:00:00","4","42.3333333","-7.8666666","147.0","ORENSE, SP","FM-12","99999","V020","220,1,N,0021,1","00420,1,9,N","010000,1,N,1","+0153,1","+0133,1","10104,1","12,0003,9,1","24,0003,9,1","6,1,06,1","2,1,06,1",,"08,99,1,07,1,07,1,00450,1,07,1,99,9","0426,9","09,9","999,+0130,9","999,N,+0152,1","99999,9,09931,1","6,1,003,1,+999,9","50,1",,"SYN112AAXX  08064 08048 11460 82204 10153 20133 39931 40104 56003 69932 75062 8777/ 333 20152 31013 50344 55071 70003;",
"08048099999","2010-06-08T09:00:00","4","42.3333333","-7.8666666","147.0","ORENSE, SP","FM-12","99999","V020","190,1,N,0021,1","00420,1,9,N","010000,1,N,1","+0158,1","+0129,1","10098,1",,,"5,1,03,1","2,1,03,1",,"08,99,1,05,1,07,1,00450,1,07,1,99,9",,,,,"99999,9,09925,1","6,1,006,1,+999,9","60,1",,"SYN072AAXX  08094 08048 41460 81904 10158 20129 39925 40098 56006 76052 8577/;",
"08048099999","2010-06-08T12:00:00","4","42.3333333","-7.8666666","147.0","ORENSE, SP","FM-12","99999","V020","190,1,N,0021,1","03600,1,9,N","010000,1,N,1","+0159,1","+0139,1","10091,1","06,0030,9,1",,"6,1,06,1","5,1,06,1",,"08,99,1,03,1,07,1,00450,1,07,1,99,9",,,,,"99999,9,09919,1","8,1,006,1,+999,9","61,1",,"SYN078AAXX  08124 08048 11460 81904 10159 20139 39919 40091 58006 60031 76165 8377/;",
"08048099999","2010-06-08T15:00:00","4","42.3333333","-7.8666666","147.0","ORENSE, SP","FM-12","99999","V020","250,1,N,0021,1","03600,1,9,N","010000,1,N,1","+0155,1","+0121,1","10080,1",,,"5,1,03,1","2,1,03,1",,"08,99,1,02,1,07,1,00450,1,07,1,99,9",,,,,"99999,9,09907,1","6,1,012,1,+999,9","60,1",,"SYN072AAXX  08154 08048 41460 82504 10155 20121 39907 40080 56012 76052 8277/;",
"08048099999","2010-06-08T18:00:00","4","42.3333333","-7.8666666","147.0","ORENSE, SP","FM-12","99999","V020","200,1,N,0015,1","00420,1,9,N","010000,1,N,1","+0160,1","+0126,1","10063,1","12,0041,9,1",,"6,1,06,1","5,1,06,1",,"08,99,1,06,1,07,1,00450,1,07,1,99,9",,,,"999,M,+0172,1","99999,9,09891,1","8,1,016,1,+999,9","02,1",,"SYN088AAXX  08184 08048 11460 82003 10160 20126 39891 40063 58016 60042 70265 8677/ 333 10172;",
"08048099999","2010-06-09T06:00:00","4","42.3333333","-7.8666666","147.0","ORENSE, SP","FM-12","99999","V020","110,1,N,0005,1","00420,1,9,N","010000,1,N,1","+0147,1","+0142,1","09971,1","12,0089,9,1","24,0124,9,1","6,1,06,1","2,1,06,1",,"07,99,1,07,1,07,1,00450,1,99,9,99,9","0000,9","11,9","999,+0140,9","999,N,+0140,1","99999,9,09800,1","6,1,019,1,+999,9","60,1",,"SYN112AAXX  09064 08048 11460 71101 10147 20142 39800 49971 56019 60092 76062 877// 333 20140 32014 50094 55000 70125;",
"08048099999","2010-06-09T09:00:00","4","42.3333333","-7.8666666","147.0","ORENSE, SP","FM-12","99999","V020","190,1,N,0021,1","00420,1,9,N","010000,1,N,1","+0172,1","+0141,1","09969,1",,,"6,1,03,1","2,1,03,1",,"08,99,1,08,1,07,1,00450,1,99,9,99,9",,,,,"99999,9,09799,1","6,1,001,1,+999,9","60,1",,"SYN072AAXX  09094 08048 41460 81904 10172 20141 39799 49969 56001 76062 887//;",
"08048099999","2010-06-09T12:00:00","4","42.3333333","-7.8666666","147.0","ORENSE, SP","FM-12","99999","V020","050,1,N,0005,1","00420,1,9,N","008000,1,N,1","+0158,1","+0148,1","09968,1","06,0030,9,1",,"6,1,06,1","2,1,06,1",,"08,99,1,08,1,07,1,00450,1,99,9,99,9",,,,,"99999,9,09798,1","5,1,001,1,+999,9","63,1",,"SYN078AAXX  09124 08048 11458 80501 10158 20148 39798 49968 55001 60031 76362 887//;",
"08048099999","2010-06-09T15:00:00","4","42.3333333","-7.8666666","147.0","ORENSE, SP","FM-12","99999","V020","300,1,N,0026,1","00420,1,9,N","010000,1,N,1","+0160,1","+0133,1","09977,1",,,"6,1,03,1","6,1,03,1",,"08,99,1,08,1,07,1,00450,1,99,9,99,9",,,,,"99999,9,09806,1","3,1,008,1,+999,9","51,1",,"SYN072AAXX  09154 08048 41460 83005 10160 20133 39806 49977 53008 75166 887//;",
"08048099999","2010-06-09T18:00:00","4","42.3333333","-7.8666666","147.0","ORENSE, SP","FM-12","99999","V020","280,1,N,0015,1","00420,1,9,N","010000,1,N,1","+0152,1","+0131,1","09986,1","12,0079,9,1",,"6,1,06,1","5,1,06,1",,"08,99,1,05,1,07,1,00450,1,07,1,99,9",,,,"999,M,+0185,1","99999,9,09815,1","1,1,009,1,+999,9","60,1",,"SYN088AAXX  09184 08048 11460 82803 10152 20131 39815 49986 51009 60082 76065 8577/ 333 10185;",
"08048099999","2010-06-10T06:00:00","4","42.3333333","-7.8666666","147.0","ORENSE, SP","FM-12","99999","V020","140,1,N,0010,1","00420,1,9,N","010000,1,N,1","+0132,1","+0124,1","10011,1","12,0071,9,1","24,0152,9,1","6,1,06,1","2,1,06,1",,"08,99,1,06,1,07,1,00450,1,07,1,99,9","0000,9","11,9","999,+0130,9","999,N,+0128,1","99999,9,09838,1","3,1,006,1,+999,9","60,1",,"SYN112AAXX  10064 08048 11460 81402 10132 20124 39838 40011 53006 60072 76062 8677/ 333 20128 32013 50084 55000 70153;",
"08048099999","2010-06-10T09:00:00","4","42.3333333","-7.8666666","147.0","ORENSE, SP","FM-12","99999","V020","260,1,N,0010,1","00420,1,9,N","010000,1,N,1","+0156,1","+0134,1","10023,1",,,"6,1,03,1","2,1,03,1",,"08,99,1,06,1,07,1,00450,1,07,1,99,9",,,,,"99999,9,09851,1","3,1,013,1,+999,9","02,1",,"SYN072AAXX  10094 08048 41460 82602 10156 20134 39851 40023 53013 70262 8677/;",
"08048099999","2010-06-10T12:00:00","4","42.3333333","-7.8666666","147.0","ORENSE, SP","FM-12","99999","V020","270,1,N,0026,1","00900,1,9,N","010000,1,N,1","+0179,1","+0128,1","10033,1","06,0000,2,1",,"6,1,06,1","2,1,06,1",,"07,99,1,07,1,08,1,00450,1,99,9,99,9",,,,,"99999,9,09863,1","3,1,012,1,+999,9","50,1",,"SYN078AAXX  10124 08048 11460 72705 10179 20128 39863 40033 53012 69911 75062 878//;",
"08048099999","2010-06-10T15:00:00","4","42.3333333","-7.8666666","147.0","ORENSE, SP","FM-12","99999","V020","330,1,N,0026,1","03600,1,9,N","010000,1,N,1","+0182,1","+0124,1","10039,1",,,,,,"08,99,1,03,1,08,1,00450,1,07,1,99,9",,,,,"99999,9,09869,1","2,1,006,1,+999,9",,,"SYN066AAXX  10154 08048 42460 83305 10182 20124 39869 40039 52006 8387/;",
"08048099999","2010-06-10T18:00:00","4","42.3333333","-7.8666666","147.0","ORENSE, SP","FM-12","99999","V020","150,1,N,0026,1","03600,1,9,N","010000,1,N,1","+0153,1","+0137,1","10058,1","12,0020,9,1",,"6,1,06,1","2,1,06,1",,"08,99,1,02,1,07,1,00450,1,02,1,99,9",,,,"999,M,+0189,1","99999,9,09886,1","1,1,017,1,+999,9","63,1",,"SYN088AAXX  10184 08048 11460 81505 10153 20137 39886 40058 51017 60022 76362 8272/ 333 10189;",
"08048099999","2010-06-11T06:00:00","4","42.3333333","-7.8666666","147.0","ORENSE, SP","FM-12","99999","V020","110,1,N,0005,1","00420,1,9,N","010000,1,N,1","+0140,1","+0137,1","10102,1","12,0089,9,1","24,0109,9,1","6,1,06,1","2,1,06,1",,"08,99,1,07,1,07,1,00450,1,07,1,99,9","0006,9","11,9","999,+0130,9","999,N,+0131,1","99999,9,09928,1","3,1,011,1,+999,9","20,1",,"SYN112AAXX  11064 08048 11460 81101 10140 20137 39928 40102 53011 60092 72062 8777/ 333 20131 32013 50114 55001 70109;",
"08048099999","2010-06-11T09:00:00","4","42.3333333","-7.8666666","147.0","ORENSE, SP","FM-12","99999","V020","320,1,N,0026,1","00420,1,9,N","010000,1,N,1","+0160,1","+0135,1","10118,1",,,"5,1,03,1","2,1,03,1",,"08,99,1,07,1,07,1,00450,1,07,1,99,9",,,,,"99999,9,09945,1","2,1,017,1,+999,9","50,1",,"SYN072AAXX  11094 08048 41460 83205 10160 20135 39945 40118 52017 75052 8777/;",
"08048099999","2010-06-11T12:00:00","4","42.3333333","-7.8666666","147.0","ORENSE, SP","FM-12","99999","V020","320,1,N,0010,1","00420,1,9,N","010000,1,N,1","+0168,1","+0139,1","10128,1","06,0000,2,1",,"5,1,06,1","2,1,06,1",,"08,99,1,05,1,07,1,00450,1,07,1,99,9",,,,,"99999,9,09955,1","1,1,010,1,+999,9","50,1",,"SYN078AAXX  11124 08048 11460 83202 10168 20139 39955 40128 51010 69901 75052 8577/;",
"08048099999","2010-06-11T15:00:00","4","42.3333333","-7.8666666","147.0","ORENSE, SP","FM-12","99999","V020","280,1,N,0021,1","00420,1,9,N","010000,1,N,1","+0170,1","+0146,1","10131,1",,,"6,1,03,1","2,1,03,1",,"08,99,1,07,1,07,1,00450,1,07,1,99,9",,,,,"99999,9,09959,1","3,1,004,1,+999,9","20,1",,"SYN072AAXX  11154 08048 41460 82804 10170 20146 39959 40131 53004 72062 8777/;",
"08048099999","2010-06-11T18:00:00","4","42.3333333","-7.8666666","147.0","ORENSE, SP","FM-12","99999","V020","320,1,N,0026,1","00420,1,9,N","010000,1,N,1","+0166,1","+0126,1","10140,1","12,0010,9,1",,"6,1,06,1","2,1,06,1",,"08,99,1,08,1,07,1,00450,1,99,9,99,9",,,,"999,M,+0179,1","99999,9,09967,1","3,1,008,1,+999,9","50,1",,"SYN088AAXX  11184 08048 11460 83205 10166 20126 39967 40140 53008 69992 75062 887// 333 10179;",
"08048099999","2010-06-14T06:00:00","4","42.3333333","-7.8666666","147.0","ORENSE, SP","FM-12","99999","V020","090,1,N,0010,1","00420,1,9,N","010000,1,N,1","+0126,1","+0089,1","10184,1","12,0000,9,1","24,0000,9,1",,,,"06,99,1,06,1,04,1,00450,1,00,1,01,1","0348,9",,,"999,N,+0119,1","99999,9,10008,1","7,1,003,1,+999,9","03,1",,"SYN100AAXX  14064 08048 11460 60902 10126 20089 30008 40184 57003 60002 703// 86401 333 20119 55058 70000;","Q01  00002PRCP24Q02  00002PRCP12"
"08048099999","2010-06-14T09:00:00","4","42.3333333","-7.8666666","147.0","ORENSE, SP","FM-12","99999","V020","050,1,N,0021,1","00420,1,9,N","010000,1,N,1","+0172,1","+0101,1","10182,1",,,,,,"06,99,1,06,1,04,1,00450,1,00,1,01,1",,,,,"99999,9,10008,1","0,1,000,1,+999,9",,,"SYN066AAXX  14094 08048 42460 60504 10172 20101 30008 40182 50000 86401;",
"08048099999","2010-06-14T12:00:00","4","42.3333333","-7.8666666","147.0","ORENSE, SP","FM-12","99999","V020","040,1,N,0026,1","00420,1,9,N","010000,1,N,1","+0203,1","+0086,1","10176,1","06,0000,9,1",,,,,"06,99,1,05,1,04,1,00450,1,00,1,01,1",,,,,"99999,9,10004,1","8,1,004,1,+999,9",,,"SYN072AAXX  14124 08048 12460 60405 10203 20086 30004 40176 58004 60001 85401;","Q01  00002PRCP06"
"08048099999","2010-06-14T15:00:00","4","42.3333333","-7.8666666","147.0","ORENSE, SP","FM-12","99999","V020","010,1,N,0026,1","22000,1,9,N","010000,1,N,1","+0213,1","+0072,1","10163,1",,,,,,"03,99,1,03,1,02,1,00450,1,00,1,00,1",,,,,"99999,9,09992,1","7,1,012,1,+999,9",,,"SYN066AAXX  14154 08048 42460 30105 10213 20072 39992 40163 57012 83200;",
"08048099999","2010-06-14T18:00:00","4","42.3333333","-7.8666666","147.0","ORENSE, SP","FM-12","99999","V020","030,1,N,0026,1","22000,1,9,N","010000,1,N,1","+0203,1","+0070,1","10165,1","12,0000,9,1",,,,,"01,99,1,01,1,01,1,00450,1,00,1,00,1",,,,"999,M,+0227,1","99999,9,09993,1","3,1,001,1,+999,9",,,"SYN082AAXX  14184 08048 12460 10305 10203 20070 39993 40165 53001 60002 81100 333 10227;","Q01  00002PRCP12"
"08048099999","2010-06-15T06:00:00","4","42.3333333","-7.8666666","147.0","ORENSE, SP","FM-12","99999","V020","320,1,N,0015,1","00420,1,9,N","010000,1,N,1","+0130,1","+0094,1","10191,1","12,0000,9,1","24,0000,9,1",,,,"06,99,1,06,1,05,1,00450,1,00,1,00,1","0612,9","01,9","999,+0070,9","999,N,+0107,1","99999,9,10015,1","6,1,007,1,+999,9","02,1",,"SYN112AAXX  15064 08048 11460 63203 10130 20094 30015 40191 56007 60002 702// 86500 333 20107 30007 50424 55102 70000;","Q01  00002PRCP24Q02  00002PRCP12"
"08048099999","2010-06-15T09:00:00","4","42.3333333","-7.8666666","147.0","ORENSE, SP","FM-12","99999","V020","040,1,N,0015,1","22000,1,9,N","010000,1,N,1","+0180,1","+0104,1","10190,1",,,,,,"04,99,1,04,1,02,1,00450,1,00,1,00,1",,,,,"99999,9,10017,1","3,1,002,1,+999,9",,,"SYN066AAXX  15094 08048 42460 40403 10180 20104 30017 40190 53002 84200;",
"08048099999","2010-06-15T12:00:00","4","42.3333333","-7.8666666","147.0","ORENSE, SP","FM-12","99999","V020","070,1,N,0031,1","00420,1,9,N","010000,1,N,1","+0213,1","+0092,1","10183,1","06,0000,9,1",,,,,"06,99,1,06,1,02,1,00450,1,00,1,00,1",,,,,"99999,9,10012,1","8,1,005,1,+999,9",,,"SYN072AAXX  15124 08048 12460 60706 10213 20092 30012 40183 58005 60001 86200;","Q01  00002PRCP06"
"08048099999","2010-06-15T15:00:00","4","42.3333333","-7.8666666","147.0","ORENSE, SP","FM-12","99999","V020","020,1,N,0031,1","00420,1,9,N","010000,1,N,1","+0226,1","+0087,1","10173,1",,,,,,"05,99,1,05,1,02,1,00450,1,00,1,00,1",,,,,"99999,9,10003,1","7,1,009,1,+999,9",,,"SYN066AAXX  15154 08048 42460 50206 10226 20087 30003 40173 57009 85200;",
"08048099999","2010-06-15T18:00:00","4","42.3333333","-7.8666666","147.0","ORENSE, SP","FM-12","99999","V020","060,1,N,0026,1","00420,1,9,N","010000,1,N,1","+0189,1","+0102,1","10184,1","12,0000,9,1",,,,,"07,99,1,07,1,05,1,00450,1,00,1,00,1",,,,"999,M,+0234,1","99999,9,10011,1","3,1,008,1,+999,9",,,"SYN082AAXX  15184 08048 12460 70605 10189 20102 30011 40184 53008 60002 87500 333 10234;","Q01  00002PRCP12"
"08048099999","2010-06-16T06:00:00","4","42.3333333","-7.8666666","147.0","ORENSE, SP","FM-12","99999","V020","040,1,N,0015,1","00420,1,9,N","010000,1,N,1","+0154,1","+0104,1","10189,1","12,0000,9,1","24,0000,9,1",,,,"08,99,1,08,1,05,1,00450,1,99,9,99,9","0438,9","01,9","999,+0120,9","999,N,+0151,1","99999,9,10014,1","7,1,005,1,+999,9","02,1",,"SYN112AAXX  16064 08048 11460 80403 10154 20104 30014 40189 57005 60002 702// 885// 333 20151 30012 50414 55073 70000;","Q01  00002PRCP24Q02  00002PRCP12"
"08048099999","2010-06-16T09:00:00","4","42.3333333","-7.8666666","147.0","ORENSE, SP","FM-12","99999","V020","090,1,N,0021,1","00420,1,9,N","010000,1,N,1","+0160,1","+0107,1","10195,1",,,,,,"08,99,1,08,1,05,1,00450,1,99,9,99,9",,,,,"99999,9,10021,1","3,1,007,1,+999,9",,,"SYN066AAXX  16094 08048 42460 80904 10160 20107 30021 40195 53007 885//;",
"08048099999","2010-06-16T12:00:00","4","42.3333333","-7.8666666","147.0","ORENSE, SP","FM-12","99999","V020","030,1,N,0026,1","00420,1,9,N","010000,1,N,1","+0187,1","+0118,1","10195,1","06,0000,9,1",,,,,"07,99,1,07,1,05,1,00450,1,00,1,00,1",,,,,"99999,9,10022,1","1,1,001,1,+999,9",,,"SYN072AAXX  16124 08048 12460 70305 10187 20118 30022 40195 51001 60001 87500;","Q01  00002PRCP06"
"08048099999","2010-06-16T15:00:00","4","42.3333333","-7.8666666","147.0","ORENSE, SP","FM-12","99999","V020","050,1,N,0021,1","00420,1,9,N","010000,1,N,1","+0197,1","+0112,1","10188,1",,,,,,"06,99,1,06,1,05,1,00450,1,00,1,00,1",,,,,"99999,9,10016,1","8,1,006,1,+999,9",,,"SYN066AAXX  16154 08048 42460 60504 10197 20112 30016 40188 58006 86500;",
"08048099999","2010-06-16T18:00:00","4","42.3333333","-7.8666666","147.0","ORENSE, SP","FM-12","99999","V020","040,1,N,0021,1","22000,1,9,N","010000,1,N,1","+0205,1","+0088,1","10182,1","12,0000,9,1",,,,,"03,99,1,01,1,01,1,00450,1,00,1,02,1",,,,"999,M,+0216,1","99999,9,10010,1","6,1,006,1,+999,9",,,"SYN082AAXX  16184 08048 12460 30404 10205 20088 30010 40182 56006 60002 81102 333 10216;","Q01  00002PRCP12"
"08048099999","2010-06-17T06:00:00","4","42.3333333","-7.8666666","147.0","ORENSE, SP","FM-12","99999","V020","250,1,N,0005,1","22000,1,9,N","010000,1,N,1","+0076,1","+0067,1","10196,1","12,0000,9,1","24,0000,9,1",,,,"02,99,1,02,1,05,1,00450,1,00,1,00,1","0252,9","09,9","999,+0030,9","999,N,+0070,1","99999,9,10016,1","5,1,004,1,+999,9","02,1",,"SYN112AAXX  17064 08048 11460 22501 10076 20067 30016 40196 55004 60002 702// 82500 333 20070 31003 50304 55042 70000;","Q01  00002PRCP24Q02  00002PRCP12"
"08048099999","2010-06-17T09:00:00","4","42.3333333","-7.8666666","147.0","ORENSE, SP","FM-12","99999","V020","040,1,N,0021,1","22000,1,9,N","010000,1,N,1","+0160,1","+0072,1","10188,1",,,,,,"03,99,1,03,1,02,1,00450,1,00,1,00,1",,,,,"99999,9,10014,1","8,1,002,1,+999,9",,,"SYN066AAXX  17094 08048 42460 30404 10160 20072 30014 40188 58002 83200;",
"08048099999","2010-06-17T12:00:00","4","42.3333333","-7.8666666","147.0","ORENSE, SP","FM-12","99999","V020","030,1,N,0026,1","22000,1,9,N","010000,1,N,1","+0204,1","+0090,1","10167,1","06,0000,9,1",,,,,"01,99,1,01,1,01,1,00800,1,00,1,00,1",,,,,"99999,9,09996,1","7,1,018,1,+999,9",,,"SYN072AAXX  17124 08048 12560 10305 10204 20090 39996 40167 57018 60001 81100;","Q01  00002PRCP06"
"08048099999","2010-06-17T15:00:00","4","42.3333333","-7.8666666","147.0","ORENSE, SP","FM-12","99999","V020","330,1,N,0021,1","22000,1,9,N","010000,1,N,1","+0235,1","+0084,1","10144,1",,,,,"00,1,+99999,9,99,9","00,99,1,00,1,00,1,99999,9,00,1,00,1",,,,,"99999,9,09975,1","7,1,010,1,+999,9",,,"SYN060AAXX  17154 08048 42960 03304 10235 20084 39975 40144 57010;",
"08048099999","2010-06-17T18:00:00","4","42.3333333","-7.8666666","147.0","ORENSE, SP","FM-12","99999","V020","060,1,N,0031,1","22000,1,9,N","010000,1,N,1","+0228,1","+0085,1","10141,1","12,0000,9,1",,,,,"01,99,1,01,1,01,1,00800,1,00,1,00,1",,,,"999,M,+0243,1","99999,9,09971,1","6,1,004,1,+999,9",,,"SYN082AAXX  17184 08048 12560 10606 10228 20085 39971 40141 56004 60002 81100 333 10243;","Q01  00002PRCP12"
"08048099999","2010-06-18T06:00:00","4","42.3333333","-7.8666666","147.0","ORENSE, SP","FM-12","99999","V020","220,1,N,0010,1","22000,1,9,N","010000,1,N,1","+0085,1","+0074,1","10171,1","12,0000,9,1","24,0000,9,1",,,,"02,99,1,01,1,01,1,00450,1,08,1,00,1","0840,9","09,9","999,+0050,9","999,N,+0079,1","99999,9,09992,1","3,1,005,1,+999,9","02,1",,"SYN112AAXX  18064 08048 11460 22202 10085 20074 39992 40171 53005 60002 702// 81180 333 20079 31005 50394 55140 70000;","Q01  00002PRCP24Q02  00002PRCP12"
"08048099999","2010-06-18T09:00:00","4","42.3333333","-7.8666666","147.0","ORENSE, SP","FM-12","99999","V020","140,1,N,0010,1","22000,1,9,N","010000,1,N,1","+0162,1","+0107,1","10164,1",,,,,,"01,99,1,01,1,01,1,00450,1,00,1,00,1",,,,,"99999,9,09990,1","8,1,002,1,+999,9",,,"SYN066AAXX  18094 08048 42460 11402 10162 20107 39990 40164 58002 81100;",
"08048099999","2010-06-18T12:00:00","4","42.3333333","-7.8666666","147.0","ORENSE, SP","FM-12","99999","V020","060,1,N,0026,1","22000,1,9,N","010000,1,N,1","+0252,1","+0128,1","10145,1","06,0000,9,1",,,,,"02,99,1,02,1,02,1,00450,1,00,1,00,1",,,,,"99999,9,09977,1","7,1,013,1,+999,9",,,"SYN072AAXX  18124 08048 12460 20605 10252 20128 39977 40145 57013 60001 82200;","Q01  00002PRCP06"
"08048099999","2010-06-18T15:00:00","4","42.3333333","-7.8666666","147.0","ORENSE, SP","FM-12","99999","V020","080,1,N,0036,1","22000,1,9,N","010000,1,N,1","+0279,1","+0131,1","10128,1",,,,,,"03,99,1,03,1,02,1,00450,1,00,1,00,1",,,,,"99999,9,09962,1","7,1,015,1,+999,9",,,"SYN066AAXX  18154 08048 42460 30807 10279 20131 39962 40128 57015 83200;",
"08048099999","2010-06-18T18:00:00","4","42.3333333","-7.8666666","147.0","ORENSE, SP","FM-12","99999","V020","020,1,N,0026,1","22000,1,9,N","010000,1,N,1","+0258,1","+0123,1","10136,1","12,0000,9,1",,,,,"02,99,1,02,1,02,1,00450,1,00,1,00,1",,,,"999,M,+0284,1","99999,9,09968,1","2,1,006,1,+999,9",,,"SYN082AAXX  18184 08048 12460 20205 10258 20123 39968 40136 52006 60002 82200 333 10284;","Q01  00002PRCP12"
"08048099999","2010-06-21T06:00:00","4","42.3333333","-7.8666666","147.0","ORENSE, SP","FM-12","99999","V020","999,9,C,0000,1","22000,1,9,N","010000,1,N,1","+0099,1","+0087,1","10186,1","12,0000,9,1","24,0000,9,1",,,"00,1,+99999,9,99,9","00,99,1,00,1,00,1,99999,9,00,1,00,1","0846,9",,,"999,N,+0094,1","99999,9,10008,1","3,1,006,1,+999,9",,,"SYN088AAXX  21064 08048 12960 00000 10099 20087 30008 40186 53006 60002 333 20094 55141 70000;","Q01  00002PRCP24Q02  00002PRCP12"
"08048099999","2010-06-21T09:00:00","4","42.3333333","-7.8666666","147.0","ORENSE, SP","FM-12","99999","V020","330,1,N,0021,1","22000,1,9,N","010000,1,N,1","+0185,1","+0096,1","10183,1",,,,,"00,1,+99999,9,99,9","00,99,1,00,1,00,1,99999,9,00,1,00,1",,,,,"99999,9,10010,1","0,1,002,1,+999,9",,,"SYN060AAXX  21094 08048 42960 03304 10185 20096 30010 40183 50002;",
"08048099999","2010-06-21T12:00:00","4","42.3333333","-7.8666666","147.0","ORENSE, SP","FM-12","99999","V020","320,1,N,0021,1","22000,1,9,N","010000,1,N,1","+0251,1","+0102,1","10171,1","06,0000,9,1",,,,"00,1,+99999,9,99,9","00,99,1,00,1,00,1,99999,9,00,1,00,1",,,,,"99999,9,10002,1","8,1,008,1,+999,9",,,"SYN066AAXX  21124 08048 12960 03204 10251 20102 30002 40171 58008 60001;","Q01  00002PRCP06"
"08048099999","2010-06-21T15:00:00","4","42.3333333","-7.8666666","147.0","ORENSE, SP","FM-12","99999","V020","040,1,N,0015,1","22000,1,9,N","010000,1,N,1","+0294,1","+0105,1","10153,1",,,,,,"01,99,1,01,1,01,1,00450,1,00,1,00,1",,,,,"99999,9,09987,1","6,1,015,1,+999,9",,,"SYN066AAXX  21154 08048 42460 10403 10294 20105 39987 40153 56015 81100;",
"08048099999","2010-06-21T18:00:00","4","42.3333333","-7.8666666","147.0","ORENSE, SP","FM-12","99999","V020","060,1,N,0026,1","22000,1,9,N","010000,1,N,1","+0303,1","+0131,1","10146,1","12,0000,9,1",,,,"00,1,+99999,9,99,9","00,99,1,00,1,00,1,99999,9,00,1,00,1",,,,"999,M,+0311,1","99999,9,09981,1","6,1,006,1,+999,9",,,"SYN076AAXX  21184 08048 12960 00605 10303 20131 39981 40146 56006 60002 333 10311;","Q01  00002PRCP12"
"08048099999","2010-06-22T06:00:00","4","42.3333333","-7.8666666","147.0","ORENSE, SP","FM-12","99999","V020","999,9,C,0000,1","22000,1,9,N","010000,1,N,1","+0122,1","+0106,1","10191,1","12,0000,9,1","24,0000,9,1",,,"00,1,+99999,9,99,9","00,99,1,00,1,00,1,99999,9,00,1,00,1","0846,9","09,9","999,+0070,9","999,N,+0115,1","99999,9,10014,1","3,1,007,1,+999,9",,,"SYN100AAXX  22064 08048 12960 00000 10122 20106 30014 40191 53007 60002 333 20115 31007 50494 55141 70000;","Q01  00002PRCP24Q02  00002PRCP12"
"08048099999","2010-06-22T09:00:00","4","42.3333333","-7.8666666","147.0","ORENSE, SP","FM-12","99999","V020","310,1,N,0021,1","22000,1,9,N","010000,1,N,1","+0192,1","+0134,1","10183,1",,,,,,"02,99,1,00,1,00,1,99999,9,00,1,01,1",,,,,"99999,9,10011,1","8,1,003,1,+999,9",,,"SYN066AAXX  22094 08048 42960 23104 10192 20134 30011 40183 58003 80001;",
"08048099999","2010-06-22T12:00:00","4","42.3333333","-7.8666666","147.0","ORENSE, SP","FM-12","99999","V020","020,1,N,0015,1","22000,1,9,N","010000,1,N,1","+0285,1","+0147,1","10166,1","06,0000,9,1",,,,,"02,99,1,01,1,01,1,00450,1,00,1,01,1",,,,,"99999,9,09999,1","8,1,012,1,+999,9",,,"SYN072AAXX  22124 08048 12460 20203 10285 20147 39999 40166 58012 60001 81101;","Q01  00002PRCP06"
"08048099999","2010-06-22T15:00:00","4","42.3333333","-7.8666666","147.0","ORENSE, SP","FM-12","99999","V020","310,1,N,0026,1","22000,1,9,N","010000,1,N,1","+0329,1","+0130,1","10152,1",,,,,,"02,99,1,01,1,01,1,00450,1,00,1,01,1",,,,,"99999,9,09988,1","6,1,011,1,+999,9",,,"SYN066AAXX  22154 08048 42460 23105 10329 20130 39988 40152 56011 81101;",
"08048099999","2010-06-22T18:00:00","4","42.3333333","-7.8666666","147.0","ORENSE, SP","FM-12","99999","V020","320,1,N,0015,1","22000,1,9,N","010000,1,N,1","+0335,1","+0130,1","10140,1","12,0000,9,1",,,,,"01,99,1,01,1,01,1,00450,1,00,1,01,1",,,,"999,M,+0340,1","99999,9,09976,1","6,1,012,1,+999,9",,,"SYN082AAXX  22184 08048 12460 13203 10335 20130 39976 40140 56012 60002 81101 333 10340;","Q01  00002PRCP12"
"08048099999","2010-06-23T06:00:00","4","42.3333333","-7.8666666","147.0","ORENSE, SP","FM-12","99999","V020","999,9,C,0000,1","22000,1,9,N","010000,1,N,1","+0144,1","+0130,1","10167,1","12,0000,9,1","24,0000,9,1",,,"00,1,+99999,9,99,9","00,99,1,00,1,00,1,99999,9,00,1,00,1","0840,9","09,9","999,+0100,9","999,N,+0137,1","99999,9,09992,1","0,1,002,1,+999,9",,,"SYN100AAXX  23064 08048 12960 00000 10144 20130 39992 40167 50002 60002 333 20137 31010 50534 55140 70000;","Q01  00002PRCP24Q02  00002PRCP12"
"08048099999","2010-06-23T09:00:00","4","42.3333333","-7.8666666","147.0","ORENSE, SP","FM-12","99999","V020","190,1,N,0010,1","22000,1,9,N","010000,1,N,1","+0214,1","+0148,1","10156,1",,,,,"00,1,+99999,9,99,9","00,99,1,00,1,00,1,99999,9,00,1,00,1",,,,,"99999,9,09986,1","8,1,006,1,+999,9",,,"SYN060AAXX  23094 08048 42960 01902 10214 20148 39986 40156 58006;",
"08048099999","2010-06-23T12:00:00","4","42.3333333","-7.8666666","147.0","ORENSE, SP","FM-12","99999","V020","290,1,N,0021,1","22000,1,9,N","010000,1,N,1","+0313,1","+0161,1","10136,1","06,0000,9,1",,,,,"01,99,1,01,1,01,1,00450,1,00,1,00,1",,,,,"99999,9,09972,1","7,1,014,1,+999,9",,,"SYN072AAXX  23124 08048 12460 12904 10313 20161 39972 40136 57014 60001 81100;","Q01  00002PRCP06"
"08048099999","2010-06-23T15:00:00","4","42.3333333","-7.8666666","147.0","ORENSE, SP","FM-12","99999","V020","030,1,N,0015,1","22000,1,9,N","010000,1,N,1","+0350,1","+0126,1","10117,1",,,,,,"02,99,1,01,1,02,1,00450,1,00,1,01,1",,,,,"99999,9,09955,1","7,1,017,1,+999,9",,,"SYN066AAXX  23154 08048 42460 20303 10350 20126 39955 40117 57017 81201;",
"08048099999","2010-06-23T18:00:00","4","42.3333333","-7.8666666","147.0","ORENSE, SP","FM-12","99999","V020","360,1,N,0021,1","22000,1,9,N","010000,1,N,1","+0354,1","+0135,1","10107,1","12,0000,9,1",,,,,"03,99,1,01,1,01,1,00450,1,00,1,02,1",,,,"999,M,+0358,1","99999,9,09945,1","6,1,010,1,+999,9",,,"SYN082AAXX  23184 08048 12460 33604 10354 20135 39945 40107 56010 60002 81102 333 10358;","Q01  00002PRCP12"
"08048099999","2010-06-24T06:00:00","4","42.3333333","-7.8666666","147.0","ORENSE, SP","FM-12","99999","V020","250,1,N,0010,1","22000,1,9,N","010000,1,N,1","+0167,1","+0149,1","10136,1","12,0000,9,1","24,0000,9,1",,,,"02,99,1,01,1,05,1,00450,1,08,1,02,1","0756,9","09,9","999,+0120,9","999,N,+0164,1","99999,9,09963,1","3,1,004,1,+999,9",,,"SYN106AAXX  24064 08048 12460 22502 10167 20149 39963 40136 53004 60002 81582 333 20164 31012 50594 55126 70000;","Q01  00002PRCP24Q02  00002PRCP12"
"08048099999","2010-06-24T09:00:00","4","42.3333333","-7.8666666","147.0","ORENSE, SP","FM-12","99999","V020","220,1,N,0010,1","03600,1,9,N","010000,1,N,1","+0232,1","+0165,1","10131,1",,,,,,"05,99,1,03,1,01,1,00800,1,08,1,02,1",,,,,"99999,9,09962,1","8,1,001,1,+999,9",,,"SYN066AAXX  24094 08048 42560 52202 10232 20165 39962 40131 58001 83182;",
"08048099999","2010-06-24T12:00:00","4","42.3333333","-7.8666666","147.0","ORENSE, SP","FM-12","99999","V020","030,1,N,0015,1","22000,1,9,N","010000,1,N,1","+0320,1","+0155,1","10113,1","06,0000,9,1",,,,,"02,99,1,01,1,01,1,00800,1,04,1,02,1",,,,,"99999,9,09949,1","8,1,013,1,+999,9",,,"SYN072AAXX  24124 08048 12560 20303 10320 20155 39949 40113 58013 60001 81142;","Q01  00002PRCP06"
"08048099999","2010-06-24T15:00:00","4","42.3333333","-7.8666666","147.0","ORENSE, SP","FM-12","99999","V020","350,1,N,0021,1","22000,1,9,N","010000,1,N,1","+0355,1","+0147,1","10099,1",,,,,,"04,99,1,03,1,02,1,00450,1,04,1,02,1",,,,,"99999,9,09937,1","8,1,012,1,+999,9",,,"SYN066AAXX  24154 08048 42460 43504 10355 20147 39937 40099 58012 83242;",
"08048099999","2010-06-24T18:00:00","4","42.3333333","-7.8666666","147.0","ORENSE, SP","FM-12","99999","V020","340,1,N,0021,1","03600,1,C,N","010000,1,N,1","+0325,1","+0155,1","10101,1","12,0000,9,1",,"1,1,06,1","1,1,06,1","01,1,+00450,1,08,1","06,99,1,04,1,09,1,00450,1,06,1,03,1",,,,"120,M,+0366,1","99999,9,09938,1","3,1,001,1,+999,9","17,1",,"SYN100AAXX  24184 08048 11460 63404 10325 20155 39938 40101 53001 60002 71711 84963 333 10366 81894 84994;","Q01  00002PRCP12"
"08048099999","2010-06-25T06:00:00","4","42.3333333","-7.8666666","147.0","ORENSE, SP","FM-12","99999","V020","160,1,N,0005,1","03600,1,9,N","010000,1,N,1","+0182,1","+0155,1","10125,1","12,0000,9,1","24,0000,9,1",,,,"05,99,1,04,1,02,1,00450,1,08,1,02,1","0702,9","01,9","999,+0140,9","999,N,+0180,1","99999,9,09953,1","0,1,002,1,+999,9",,,"SYN106AAXX  25064 08048 12460 51601 10182 20155 39953 40125 50002 60002 84282 333 20180 30014 50574 55117 70000;","Q01  00002PRCP24Q02  00002PRCP12"
"08048099999","2010-06-25T09:00:00","4","42.3333333","-7.8666666","147.0","ORENSE, SP","FM-12","99999","V020","180,1,N,0010,1","09000,1,9,N","010000,1,N,1","+0218,1","+0174,1","10129,1",,,,,,"06,99,1,02,1,08,1,00450,1,06,1,03,1",,,,,"99999,9,09960,1","1,1,007,1,+999,9",,,"SYN066AAXX  25094 08048 42460 61802 10218 20174 39960 40129 51007 82863;",
"08048099999","2010-06-25T12:00:00","4","42.3333333","-7.8666666","147.0","ORENSE, SP","FM-12","99999","V020","200,1,N,0026,1","09000,1,9,N","010000,1,N,1","+0290,1","+0155,1","10119,1","06,0000,9,1",,,,"01,1,+00450,1,09,1","06,99,1,01,1,09,1,00450,1,00,1,03,1",,,,,"99999,9,09954,1","8,1,006,1,+999,9",,,"SYN082AAXX  25124 08048 12460 62005 10290 20155 39954 40119 58006 60001 81903 333 81994;","Q01  00002PRCP06"
"08048099999","2010-06-25T15:00:00","4","42.3333333","-7.8666666","147.0","ORENSE, SP","FM-12","99999","V020","250,1,N,0051,1","00420,1,C,N","010000,1,N,1","+0312,1","+0175,1","10103,1",,,,,"01,1,+00450,1,08,1","07,99,1,05,1,09,1,00450,1,06,1,03,1",,,,,"99999,9,09939,1","7,1,015,1,+999,9",,,"SYN082AAXX  25154 08048 42460 72510 10312 20175 39939 40103 57015 85963 333 81894 84994;",
"08048099999","2010-06-25T18:00:00","4","42.3333333","-7.8666666","147.0","ORENSE, SP","FM-12","99999","V020","060,1,N,0021,1","00420,1,C,N","010000,1,N,1","+0236,1","+0176,1","10129,1","12,9999,9,9",,"9,1,06,1","2,1,06,1","02,1,+00450,1,08,1","07,99,1,06,1,09,1,00450,1,06,1,03,1",,,,"120,M,+0329,1","99999,9,09961,1","3,1,022,1,+999,9","95,1",,"SYN100AAXX  25184 08048 11460 70604 10236 20176 39961 40129 53022 69902 79592 86963 333 10329 82894 84994;","Q01  00002PRCP12Q02  00002PRCP12"
"08048099999","2010-06-28T06:00:00","4","42.3333333","-7.8666666","147.0","ORENSE, SP","FM-12","99999","V020","210,1,N,0010,1","22000,1,9,N","008000,1,N,1","+0157,1","+0144,1","10188,1","12,0000,9,1","24,0000,9,1",,,,"04,99,1,04,1,06,1,00250,1,00,1,00,1","0492,9",,,"999,N,+0153,1","99999,9,10014,1","3,1,008,1,+999,9","10,1",,"SYN100AAXX  28064 08048 11358 42102 10157 20144 30014 40188 53008 60002 710// 84600 333 20153 55082 70000;","Q01  00002PRCP24Q02  00002PRCP12"
"08048099999","2010-06-28T09:00:00","4","42.3333333","-7.8666666","147.0","ORENSE, SP","FM-12","99999","V020","060,1,N,0010,1","22000,1,9,N","010000,1,N,1","+0222,1","+0171,1","10187,1",,,,,,"01,99,1,01,1,06,1,00450,1,00,1,00,1",,,,,"99999,9,10017,1","4,1,000,1,+999,9",,,"SYN066AAXX  28094 08048 42460 10602 10222 20171 30017 40187 54000 81600;",
"08048099999","2010-06-28T12:00:00","4","42.3333333","-7.8666666","147.0","ORENSE, SP","FM-12","99999","V020","300,1,N,0015,1","22000,1,9,N","010000,1,N,1","+0296,1","+0181,1","10176,1","06,0000,9,1",,,,,"02,99,1,01,1,02,1,00450,1,00,1,01,1",,,,,"99999,9,10010,1","7,1,007,1,+999,9",,,"SYN072AAXX  28124 08048 12460 23003 10296 20181 30010 40176 57007 60001 81201;","Q01  00002PRCP06"
"08048099999","2010-06-28T15:00:00","4","42.3333333","-7.8666666","147.0","ORENSE, SP","FM-12","99999","V020","360,1,N,0021,1","22000,1,9,N","010000,1,N,1","+0334,1","+0140,1","10162,1",,,,,,"04,99,1,03,1,02,1,00450,1,00,1,01,1",,,,,"99999,9,09998,1","7,1,012,1,+999,9",,,"SYN066AAXX  28154 08048 42460 43604 10334 20140 39998 40162 57012 83201;",
"08048099999","2010-06-28T18:00:00","4","42.3333333","-7.8666666","147.0","ORENSE, SP","FM-12","99999","V020","070,1,N,0026,1","22000,1,9,N","010000,1,N,1","+0313,1","+0153,1","10156,1","12,0000,9,1",,,,,"04,99,1,02,1,02,1,00450,1,00,1,02,1",,,,"999,M,+0336,1","99999,9,09991,1","7,1,007,1,+999,9",,,"SYN082AAXX  28184 08048 12460 40705 10313 20153 39991 40156 57007 60002 82202 333 10336;","Q01  00002PRCP12"
"08048099999","2010-06-29T06:00:00","4","42.3333333","-7.8666666","147.0","ORENSE, SP","FM-12","99999","V020","170,1,N,0005,1","22000,1,9,N","010000,1,N,1","+0151,1","+0138,1","10198,1","12,0000,9,1","24,0000,9,1",,,,"03,99,1,03,1,06,1,00250,1,00,1,00,1","0750,9","01,9","999,+0130,9","999,N,+0147,1","99999,9,10023,1","3,1,004,1,+999,9","02,1",,"SYN112AAXX  29064 08048 11360 31701 10151 20138 30023 40198 53004 60002 702// 83600 333 20147 30013 50484 55125 70000;","Q01  00002PRCP24Q02  00002PRCP12"
"08048099999","2010-06-29T09:00:00","4","42.3333333","-7.8666666","147.0","ORENSE, SP","FM-12","99999","V020","360,1,N,0015,1","22000,1,9,N","010000,1,N,1","+0212,1","+0162,1","10198,1",,,,,,"01,99,1,00,1,00,1,99999,9,00,1,01,1",,,,,"99999,9,10027,1","1,1,004,1,+999,9",,,"SYN066AAXX  29094 08048 42960 13603 10212 20162 30027 40198 51004 80001;",
"08048099999","2010-06-29T12:00:00","4","42.3333333","-7.8666666","147.0","ORENSE, SP","FM-12","99999","V020","360,1,N,0015,1","22000,1,9,N","010000,1,N,1","+0290,1","+0169,1","10184,1","06,0000,9,1",,,,,"04,99,1,01,1,01,1,00450,1,00,1,04,1",,,,,"99999,9,10018,1","8,1,009,1,+999,9",,,"SYN072AAXX  29124 08048 12460 43603 10290 20169 30018 40184 58009 60001 81104;","Q01  00002PRCP06"
"08048099999","2010-06-29T15:00:00","4","42.3333333","-7.8666666","147.0","ORENSE, SP","FM-12","99999","V020","300,1,N,0031,1","22000,1,9,N","010000,1,N,1","+0332,1","+0157,1","10170,1",,,,,,"05,99,1,01,1,02,1,00450,1,00,1,04,1",,,,,"99999,9,10006,1","7,1,012,1,+999,9",,,"SYN066AAXX  29154 08048 42460 53006 10332 20157 30006 40170 57012 81204;",
"08048099999","2010-06-29T18:00:00","4","42.3333333","-7.8666666","147.0","ORENSE, SP","FM-12","99999","V020","050,1,N,0021,1","22000,1,9,N","010000,1,N,1","+0325,1","+0179,1","10164,1","12,0000,9,1",,,,,"03,99,1,01,1,01,1,00450,1,00,1,02,1",,,,"999,M,+0346,1","99999,9,10000,1","6,1,006,1,+999,9",,,"SYN082AAXX  29184 08048 12460 30504 10325 20179 30000 40164 56006 60002 81102 333 10346;","Q01  00002PRCP12"
"08048099999","2010-06-30T06:00:00","4","42.3333333","-7.8666666","147.0","ORENSE, SP","FM-12","99999","V020","210,1,N,0010,1","00210,1,9,N","010000,1,N,1","+0152,1","+0137,1","10193,1","12,0000,9,1","24,0000,9,1",,,,"06,99,1,06,1,06,1,00250,1,00,1,00,1","0828,9","01,9","999,+0110,9","999,N,+0148,1","99999,9,10018,1","4,1,000,1,+999,9","02,1",,"SYN112AAXX  30064 08048 11360 62102 10152 20137 30018 40193 54000 60002 702// 86600 333 20148 30011 50514 55138 70000;","Q01  00002PRCP24Q02  00002PRCP12"
"08048099999","2010-06-30T09:00:00","4","42.3333333","-7.8666666","147.0","ORENSE, SP","FM-12","99999","V020","330,1,N,0015,1","22000,1,9,N","010000,1,N,1","+0224,1","+0171,1","10185,1",,,,,"00,1,+99999,9,99,9","00,99,1,00,1,00,1,99999,9,00,1,00,1",,,,,"99999,9,10015,1","8,1,003,1,+999,9",,,"SYN060AAXX  30094 08048 42960 03303 10224 20171 30015 40185 58003;",
"08048099999","2010-06-30T12:00:00","4","42.3333333","-7.8666666","147.0","ORENSE, SP","FM-12","99999","V020","330,1,N,0026,1","22000,1,9,N","010000,1,N,1","+0305,1","+0182,1","10167,1","06,0000,9,1",,,,,"01,99,1,01,1,01,1,00450,1,00,1,00,1",,,,,"99999,9,10002,1","7,1,013,1,+999,9",,,"SYN072AAXX  30124 08048 12460 13305 10305 20182 30002 40167 57013 60001 81100;","Q01  00002PRCP06"
"08048099999","2010-06-30T15:00:00","4","42.3333333","-7.8666666","147.0","ORENSE, SP","FM-12","99999","V020","320,1,N,0036,1","22000,1,9,N","010000,1,N,1","+0350,1","+0143,1","10144,1",,,,,,"01,99,1,01,1,02,1,00450,1,00,1,00,1",,,,,"99999,9,09981,1","7,1,021,1,+999,9",,,"SYN066AAXX  30154 08048 42460 13207 10350 20143 39981 40144 57021 81200;",
"08048099999","2010-06-30T18:00:00","4","42.3333333","-7.8666666","147.0","ORENSE, SP","FM-12","99999","V020","330,1,N,0031,1","22000,1,9,N","010000,1,N,1","+0346,1","+0140,1","10138,1","12,0000,9,1",,,,,"01,99,1,01,1,00,1,02250,1,04,1,00,1",,,,"999,M,+0356,1","99999,9,09975,1","7,1,006,1,+999,9",,,"SYN082AAXX  30184 08048 12860 13306 10346 20140 39975 40138 57006 60002 81040 333 10356;","Q01  00002PRCP12"
"08048099999","2010-07-01T06:00:00","4","42.3333333","-7.8666666","147.0","ORENSE, SP","FM-12","99999","V020","290,1,N,0010,1","22000,1,9,N","010000,1,N,1","+0160,1","+0145,1","10157,1","12,0000,9,1","24,0000,9,1",,,,"02,99,1,00,1,00,1,99999,9,00,1,01,1","0798,9","01,9","999,+0120,9","999,N,+0160,1","99999,9,09983,1","1,1,001,1,+999,9","02,1",,"SYN112AAXX  01064 08048 11960 22902 10160 20145 39983 40157 51001 60002 702// 80001 333 20160 30012 50584 55133 70000;","Q01  00002PRCP24Q02  00002PRCP12"
"08048099999","2010-07-01T09:00:00","4","42.3333333","-7.8666666","147.0","ORENSE, SP","FM-12","99999","V020","310,1,N,0015,1","22000,1,9,N","010000,1,N,1","+0229,1","+0169,1","10152,1",,,,,,"04,99,1,00,1,00,1,99999,9,00,1,04,1",,,,,"99999,9,09983,1","0,1,000,1,+999,9",,,"SYN066AAXX  01094 08048 42960 43103 10229 20169 39983 40152 50000 80004;",
"08048099999","2010-07-01T12:00:00","4","42.3333333","-7.8666666","147.0","ORENSE, SP","FM-12","99999","V020","280,1,N,0031,1","99999,9,9,N","010000,1,N,1","+0312,1","+0152,1","10128,1","06,0000,9,1",,,,,"05,99,1,00,1,00,1,99999,9,00,1,02,1",,,,,"99999,9,09964,1","8,1,019,1,+999,9",,,"SYN072AAXX  01124 08048 12960 52806 10312 20152 39964 40128 58019 60001 80002;","Q01  00002PRCP06"
"08048099999","2010-07-01T15:00:00","4","42.3333333","-7.8666666","147.0","ORENSE, SP","FM-12","99999","V020","330,1,N,0015,1","99999,9,9,N","010000,1,N,1","+0331,1","+0165,1","10110,1",,,,,,"05,99,1,00,1,00,1,99999,9,00,1,04,1",,,,,"99999,9,09947,1","7,1,017,1,+999,9",,,"SYN066AAXX  01154 08048 42960 53303 10331 20165 39947 40110 57017 80004;",
"08048099999","2010-07-01T18:00:00","4","42.3333333","-7.8666666","147.0","ORENSE, SP","FM-12","99999","V020","330,1,N,0036,1","99999,9,9,N","010000,1,N,1","+0301,1","+0125,1","10115,1","12,0000,9,1",,,,,"06,99,1,00,1,00,1,99999,9,00,1,04,1",,,,"999,M,+0345,1","99999,9,09950,1","3,1,003,1,+999,9",,,"SYN082AAXX  01184 08048 12960 63307 10301 20125 39950 40115 53003 60002 80004 333 10345;","Q01  00002PRCP12"
"08048099999","2010-07-02T06:00:00","4","42.3333333","-7.8666666","147.0","ORENSE, SP","FM-12","99999","V020","220,1,N,0010,1","02100,1,9,N","010000,1,N,1","+0161,1","+0134,1","10139,1","12,0000,9,1","24,0000,9,1",,,,"08,99,1,08,1,00,1,02250,1,07,1,99,9","0792,9","01,9","999,+0120,9","999,N,+0157,1","99999,9,09966,1","6,1,001,1,+999,9","02,1",,"SYN112AAXX  02064 08048 11860 82202 10161 20134 39966 40139 56001 60002 702// 8807/ 333 20157 30012 50574 55132 70000;","Q01  00002PRCP24Q02  00002PRCP12"
"08048099999","2010-07-02T09:00:00","4","42.3333333","-7.8666666","147.0","ORENSE, SP","FM-12","99999","V020","240,1,N,0010,1","02100,1,9,N","010000,1,N,1","+0190,1","+0145,1","10146,1",,,,,,"07,99,1,07,1,00,1,02250,1,07,1,00,1",,,,,"99999,9,09974,1","1,1,008,1,+999,9",,,"SYN066AAXX  02094 08048 42860 72402 10190 20145 39974 40146 51008 87070;",
"08048099999","2010-07-02T12:00:00","4","42.3333333","-7.8666666","147.0","ORENSE, SP","FM-12","99999","V020","330,1,N,0021,1","03600,1,9,N","010000,1,N,1","+0228,1","+0159,1","10142,1","06,9999,9,9",,"5,1,06,1","2,1,06,1",,"07,99,1,04,1,07,1,00450,1,07,1,00,1",,,,,"99999,9,09973,1","8,1,001,1,+999,9","50,1",,"SYN078AAXX  02124 08048 11460 73304 10228 20159 39973 40142 58001 69901 75052 84770;","Q01  00002PRCP06Q02  00002PRCP06"
"08048099999","2010-07-02T15:00:00","4","42.3333333","-7.8666666","147.0","ORENSE, SP","FM-12","99999","V020","330,1,N,0026,1","03600,1,9,N","010000,1,N,1","+0281,1","+0179,1","10127,1",,,,,,"06,99,1,03,1,02,1,00450,1,07,1,00,1",,,,,"99999,9,09961,1","7,1,012,1,+999,9",,,"SYN066AAXX  02154 08048 42460 63305 10281 20179 39961 40127 57012 83270;",
"08048099999","2010-07-02T18:00:00","4","42.3333333","-7.8666666","147.0","ORENSE, SP","FM-12","99999","V020","320,1,N,0026,1","00420,1,9,N","010000,1,N,1","+0229,1","+0182,1","10133,1","12,0000,2,1",,"5,1,06,1","2,1,06,1",,"08,99,1,06,1,07,1,00450,1,02,1,99,9",,,,"999,M,+0282,1","99999,9,09964,1","3,1,003,1,+999,9","50,1",,"SYN088AAXX  02184 08048 11460 83205 10229 20182 39964 40133 53003 69922 75052 8672/ 333 10282;",
"08048099999","2010-07-05T06:00:00","4","42.3333333","-7.8666666","147.0","ORENSE, SP","FM-12","99999","V020","030,1,N,0015,1","00420,1,9,N","010000,1,N,1","+0194,1","+0153,1","10221,1","12,0000,9,1","24,0000,9,1",,,,"07,99,1,07,1,06,1,00450,1,99,9,99,9","0606,9",,,"999,N,+0190,1","99999,9,10048,1","3,1,007,1,+999,9",,,"SYN094AAXX  05064 08048 12460 70303 10194 20153 30048 40221 53007 60002 876// 333 20190 55101 70000;","Q01  00002PRCP24Q02  00002PRCP12"
"08048099999","2010-07-05T09:00:00","4","42.3333333","-7.8666666","147.0","ORENSE, SP","FM-12","99999","V020","190,1,N,0015,1","22000,1,9,N","010000,1,N,1","+0217,1","+0169,1","10222,1",,,,,,"02,99,1,02,1,06,1,00450,1,00,1,00,1",,,,,"99999,9,10051,1","1,1,003,1,+999,9",,,"SYN066AAXX  05094 08048 42460 21903 10217 20169 30051 40222 51003 82600;",
"08048099999","2010-07-05T12:00:00","4","42.3333333","-7.8666666","147.0","ORENSE, SP","FM-12","99999","V020","060,1,N,0021,1","22000,1,9,N","010000,1,N,1","+0290,1","+0178,1","10212,1","06,0000,9,1",,,,"00,1,+99999,9,99,9","00,99,1,00,1,00,1,99999,9,00,1,00,1",,,,,"99999,9,10045,1","8,1,006,1,+999,9",,,"SYN066AAXX  05124 08048 12960 00604 10290 20178 30045 40212 58006 60001;","Q01  00002PRCP06"
"08048099999","2010-07-05T15:00:00","4","42.3333333","-7.8666666","147.0","ORENSE, SP","FM-12","99999","V020","010,1,N,0026,1","22000,1,9,N","010000,1,N,1","+0316,1","+0175,1","10194,1",,,,,"00,1,+99999,9,99,9","00,99,1,00,1,00,1,99999,9,00,1,00,1",,,,,"99999,9,10029,1","7,1,016,1,+999,9",,,"SYN060AAXX  05154 08048 42960 00105 10316 20175 30029 40194 57016;",
"08048099999","2010-07-05T18:00:00","4","42.3333333","-7.8666666","147.0","ORENSE, SP","FM-12","99999","V020","020,1,N,0021,1","22000,1,9,N","010000,1,N,1","+0313,1","+0193,1","10185,1","12,0000,9,1",,,,"00,1,+99999,9,99,9","00,99,1,00,1,00,1,99999,9,00,1,00,1",,,,"999,M,+0331,1","99999,9,10020,1","6,1,009,1,+999,9",,,"SYN076AAXX  05184 08048 12960 00204 10313 20193 30020 40185 56009 60002 333 10331;","Q01  00002PRCP12"
"08048099999","2010-07-06T06:00:00","4","42.3333333","-7.8666666","147.0","ORENSE, SP","FM-12","99999","V020","030,1,N,0015,1","00420,1,9,N","010000,1,N,1","+0178,1","+0135,1","10217,1","12,0000,9,1","24,0000,9,1",,,,"06,99,1,06,1,06,1,00450,1,00,1,00,1","0684,9","01,9","999,+0140,9","999,N,+0169,1","99999,9,10043,1","5,1,002,1,+999,9",,,"SYN106AAXX  06064 08048 12460 60303 10178 20135 30043 40217 55002 60002 86600 333 20169 30014 50494 55114 70000;","Q01  00002PRCP24Q02  00002PRCP12"
"08048099999","2010-07-06T09:00:00","4","42.3333333","-7.8666666","147.0","ORENSE, SP","FM-12","99999","V020","230,1,N,0010,1","22000,1,9,N","010000,1,N,1","+0212,1","+0151,1","10211,1",,,,,"00,1,+99999,9,99,9","00,99,1,00,1,00,1,99999,9,00,1,00,1",,,,,"99999,9,10040,1","8,1,003,1,+999,9",,,"SYN060AAXX  06094 08048 42960 02302 10212 20151 30040 40211 58003;",
"08048099999","2010-07-06T12:00:00","4","42.3333333","-7.8666666","147.0","ORENSE, SP","FM-12","99999","V020","020,1,N,0015,1","22000,1,9,N","010000,1,N,1","+0293,1","+0172,1","10182,1","06,0000,9,1",,,,"00,1,+99999,9,99,9","00,99,1,00,1,00,1,99999,9,00,1,00,1",,,,,"99999,9,10016,1","7,1,024,1,+999,9",,,"SYN066AAXX  06124 08048 12960 00203 10293 20172 30016 40182 57024 60001;","Q01  00002PRCP06"
"08048099999","2010-07-06T15:00:00","4","42.3333333","-7.8666666","147.0","ORENSE, SP","FM-12","99999","V020","020,1,N,0021,1","22000,1,9,N","010000,1,N,1","+0342,1","+0194,1","10159,1",,,,,,"01,99,1,01,1,01,1,00450,1,00,1,00,1",,,,,"99999,9,09996,1","7,1,020,1,+999,9",,,"SYN066AAXX  06154 08048 42460 10204 10342 20194 39996 40159 57020 81100;",
"08048099999","2010-07-06T18:00:00","4","42.3333333","-7.8666666","147.0","ORENSE, SP","FM-12","99999","V020","040,1,N,0026,1","22000,1,9,N","010000,1,N,1","+0317,1","+0197,1","10150,1","12,0000,9,1",,,,"00,1,+99999,9,99,9","00,99,1,00,1,00,1,99999,9,00,1,00,1",,,,"999,M,+0349,1","99999,9,09986,1","6,1,010,1,+999,9",,,"SYN076AAXX  06184 08048 12960 00405 10317 20197 39986 40150 56010 60002 333 10349;","Q01  00002PRCP12"
"08048099999","2010-07-07T06:00:00","4","42.3333333","-7.8666666","147.0","ORENSE, SP","FM-12","99999","V020","150,1,N,0015,1","22000,1,9,N","010000,1,N,1","+0176,1","+0158,1","10165,1","12,0000,9,1","24,0000,9,1",,,,"02,99,1,00,1,00,1,99999,9,00,1,02,1","0798,9","01,9","999,+0150,9","999,N,+0174,1","99999,9,09992,1","6,1,003,1,+999,9",,,"SYN106AAXX  07064 08048 12960 21503 10176 20158 39992 40165 56003 60002 80002 333 20174 30015 50514 55133 70000;","Q01  00002PRCP24Q02  00002PRCP12"
"08048099999","2010-07-07T09:00:00","4","42.3333333","-7.8666666","147.0","ORENSE, SP","FM-12","99999","V020","250,1,N,0010,1","99999,9,9,N","010000,1,N,1","+0223,1","+0172,1","10156,1",,,,,,"06,99,1,00,1,00,1,99999,9,00,1,02,1",,,,,"99999,9,09986,1","8,1,006,1,+999,9",,,"SYN066AAXX  07094 08048 42960 62502 10223 20172 39986 40156 58006 80002;",
"08048099999","2010-07-07T12:00:00","4","42.3333333","-7.8666666","147.0","ORENSE, SP","FM-12","99999","V020","330,1,N,0026,1","99999,9,9,N","010000,1,N,1","+0315,1","+0192,1","10136,1","06,0000,9,1",,,,,"05,99,1,00,1,00,1,99999,9,00,1,02,1",,,,,"99999,9,09972,1","8,1,014,1,+999,9",,,"SYN072AAXX  07124 08048 12960 53305 10315 20192 39972 40136 58014 60001 80002;","Q01  00002PRCP06"
"08048099999","2010-07-07T15:00:00","4","42.3333333","-7.8666666","147.0","ORENSE, SP","FM-12","99999","V020","330,1,N,0015,1","22000,1,9,N","010000,1,N,1","+0376,1","+0208,1","10115,1",,,,,,"04,99,1,01,1,00,1,02250,1,04,1,08,1",,,,,"99999,9,09955,1","7,1,017,1,+999,9",,,"SYN066AAXX  07154 08048 42860 43303 10376 20208 39955 40115 57017 81048;",
"08048099999","2010-07-07T18:00:00","4","42.3333333","-7.8666666","147.0","ORENSE, SP","FM-12","99999","V020","320,1,N,0021,1","09000,1,9,N","010000,1,N,1","+0375,1","+0199,1","10109,1","12,0000,9,1",,,,,"05,99,1,02,1,00,1,02250,1,04,1,02,1",,,,"999,M,+0390,1","99999,9,09949,1","6,1,006,1,+999,9",,,"SYN082AAXX  07184 08048 12860 53204 10375 20199 39949 40109 56006 60002 82042 333 10390;","Q01  00002PRCP12"
"08048099999","2010-07-08T06:00:00","4","42.3333333","-7.8666666","147.0","ORENSE, SP","FM-12","99999","V020","220,1,N,0010,1","02100,1,9,N","010000,1,N,1","+0212,1","+0195,1","10126,1","12,0020,9,2","24,0018,9,2","9,1,06,1","1,1,06,1",,"07,99,1,05,1,00,1,02250,1,07,1,08,1","0588,9","09,9","999,+0150,9","999,N,+0206,1","99999,9,09956,1","5,1,003,1,+999,9","02,1",,"SYN112AAXX  08064 08048 11860 72202 10212 20195 39956 40126 55003 60022 70291 85078 333 20206 31015 50574 55098 70017;",
"08048099999","2010-07-08T09:00:00","4","42.3333333","-7.8666666","147.0","ORENSE, SP","FM-12","99999","V020","010,1,N,0015,1","99999,9,9,N","010000,1,N,1","+0250,1","+0211,1","10135,1",,,,,,"05,99,1,00,1,00,1,99999,9,00,1,08,1",,,,,"99999,9,09968,1","1,1,012,1,+999,9",,,"SYN066AAXX  08094 08048 42960 50103 10250 20211 39968 40135 51012 80008;",
"08048099999","2010-07-08T12:00:00","4","42.3333333","-7.8666666","147.0","ORENSE, SP","FM-12","99999","V020","010,1,N,0021,1","22000,1,9,N","010000,1,N,1","+0322,1","+0205,1","10114,1","06,0000,9,1",,,,,"01,99,1,01,1,02,1,00450,1,00,1,02,1",,,,,"99999,9,09951,1","8,1,017,1,+999,9",,,"SYN072AAXX  08124 08048 12460 10104 10322 20205 39951 40114 58017 60001 81202;","Q01  00002PRCP06"
"08048099999","2010-07-08T15:00:00","4","42.3333333","-7.8666666","147.0","ORENSE, SP","FM-12","99999","V020","280,1,N,0041,1","00420,1,C,N","010000,1,N,1","+0326,1","+0215,1","10109,1",,,"8,1,03,1","1,1,03,1","01,1,+00450,1,08,1","06,99,1,05,1,09,1,00450,1,06,1,03,1",,,,,"99999,9,09946,1","6,1,005,1,+999,9","95,1",,"SYN088AAXX  08154 08048 41460 62808 10326 20215 39946 40109 56005 79581 85963 333 81894 84994;",
"08048099999","2010-07-08T18:00:00","4","42.3333333","-7.8666666","147.0","ORENSE, SP","FM-12","99999","V020","260,1,N,0005,1","00420,1,C,N","010000,1,N,1","+9999,9","+0203,1","10144,1","12,0061,9,1",,"9,1,06,1","1,1,06,1","02,1,+00450,1,08,1","07,99,1,05,1,09,1,00450,1,07,1,03,1",,,,"120,M,+0353,1","99999,9,09974,1","3,1,028,1,+999,9","17,1",,"SYN100AAXX  08184 08048 11460 72601 10213 20203 39974 40144 53028 60062 71791 85973 333 10353 82894 83994;","Q01+002133ATOT  "
"08048099999","2010-07-09T06:00:00","4","42.3333333","-7.8666666","147.0","ORENSE, SP","FM-12","99999","V020","290,1,N,0010,1","00420,1,9,N","010000,1,N,1","+0199,1","+0194,1","10183,1","12,0020,9,1","24,0079,9,1",,,,"07,99,1,07,1,06,1,00450,1,99,9,99,9","0378,9","09,9","999,+0170,9","999,N,+0191,1","99999,9,10012,1","3,1,010,1,+999,9",,,"SYN106AAXX  09064 08048 12460 72902 10199 20194 30012 40183 53010 60022 876// 333 20191 31017 50264 55063 70080;",
"08048099999","2010-07-09T09:00:00","4","42.3333333","-7.8666666","147.0","ORENSE, SP","FM-12","99999","V020","310,1,N,0015,1","00900,1,9,N","010000,1,N,1","+0227,1","+0185,1","10192,1",,,,,,"06,99,1,06,1,08,1,00450,1,00,1,00,1",,,,,"99999,9,10022,1","1,1,010,1,+999,9",,,"SYN066AAXX  09094 08048 42460 63103 10227 20185 30022 40192 51010 86800;",
"08048099999","2010-07-09T12:00:00","4","42.3333333","-7.8666666","147.0","ORENSE, SP","FM-12","99999","V020","300,1,N,0026,1","22000,1,9,N","010000,1,N,1","+0274,1","+0192,1","10190,1","06,0000,9,1",,,,,"03,99,1,03,1,01,1,00450,1,00,1,00,1",,,,,"99999,9,10023,1","1,1,001,1,+999,9",,,"SYN072AAXX  09124 08048 12460 33005 10274 20192 30023 40190 51001 60001 83100;","Q01  00002PRCP06"
"08048099999","2010-07-09T15:00:00","4","42.3333333","-7.8666666","147.0","ORENSE, SP","FM-12","99999","V020","350,1,N,0021,1","22000,1,9,N","010000,1,N,1","+0310,1","+0206,1","10180,1",,,,,,"04,99,1,04,1,01,1,00450,1,00,1,00,1",,,,,"99999,9,10015,1","8,1,008,1,+999,9",,,"SYN066AAXX  09154 08048 42460 43504 10310 20206 30015 40180 58008 84100;",
"08048099999","2010-07-09T18:00:00","4","42.3333333","-7.8666666","147.0","ORENSE, SP","FM-12","99999","V020","320,1,N,0041,1","22000,1,9,N","010000,1,N,1","+0304,1","+0164,1","10178,1","12,0000,9,1",,,,,"02,99,1,02,1,01,1,00450,1,00,1,00,1",,,,"999,M,+0320,1","99999,9,10012,1","6,1,003,1,+999,9",,,"SYN082AAXX  09184 08048 12460 23208 10304 20164 30012 40178 56003 60002 82100 333 10320;","Q01  00002PRCP12"
"08048099999","2010-07-12T06:00:00","4","42.3333333","-7.8666666","147.0","ORENSE, SP","FM-12","99999","V020","160,1,N,0015,1","22000,1,9,N","010000,1,N,1","+0160,1","+0138,1","10177,1","12,0000,9,1","24,0000,9,1",,,,"04,99,1,01,1,06,1,00450,1,00,1,02,1","0354,9",,,"999,N,+0155,1","99999,9,10003,1","3,1,002,1,+999,9",,,"SYN094AAXX  12064 08048 12460 41603 10160 20138 30003 40177 53002 60002 81602 333 20155 55059 70000;","Q01  00002PRCP24Q02  00002PRCP12"
"08048099999","2010-07-12T09:00:00","4","42.3333333","-7.8666666","147.0","ORENSE, SP","FM-12","99999","V020","200,1,N,0010,1","22000,1,9,N","010000,1,N,1","+0206,1","+0133,1","10179,1",,,,,,"04,99,1,02,1,01,1,00450,1,00,1,01,1",,,,,"99999,9,10008,1","1,1,005,1,+999,9",,,"SYN066AAXX  12094 08048 42460 42002 10206 20133 30008 40179 51005 82101;",
"08048099999","2010-07-12T12:00:00","4","42.3333333","-7.8666666","147.0","ORENSE, SP","FM-12","99999","V020","300,1,N,0015,1","00420,1,9,N","010000,1,N,1","+0250,1","+0139,1","10171,1","06,0000,9,1",,,,,"06,99,1,05,1,05,1,00450,1,04,1,01,1",,,,,"99999,9,10002,1","8,1,006,1,+999,9",,,"SYN072AAXX  12124 08048 12460 63003 10250 20139 30002 40171 58006 60001 85541;","Q01  00002PRCP06"
"08048099999","2010-07-12T15:00:00","4","42.3333333","-7.8666666","147.0","ORENSE, SP","FM-12","99999","V020","270,1,N,0036,1","00420,1,9,N","010000,1,N,1","+0260,1","+0157,1","10161,1",,,,,,"06,99,1,05,1,05,1,00450,1,04,1,01,1",,,,,"99999,9,09993,1","6,1,009,1,+999,9",,,"SYN066AAXX  12154 08048 42460 62707 10260 20157 39993 40161 56009 85541;",
"08048099999","2010-07-12T18:00:00","4","42.3333333","-7.8666666","147.0","ORENSE, SP","FM-12","99999","V020","300,1,N,0031,1","00900,1,9,N","010000,1,N,1","+0250,1","+0159,1","10159,1","12,0000,9,1",,,,,"06,99,1,05,1,08,1,00450,1,04,1,01,1",,,,"999,M,+0277,1","99999,9,09991,1","6,1,002,1,+999,9",,,"SYN082AAXX  12184 08048 12460 63006 10250 20159 39991 40159 56002 60002 85841 333 10277;","Q01  00002PRCP12"
"08048099999","2010-07-13T06:00:00","4","42.3333333","-7.8666666","147.0","ORENSE, SP","FM-12","99999","V020","999,9,C,0000,1","00420,1,9,N","010000,1,N,1","+0183,1","+0175,1","10144,1","12,0005,9,1","24,0005,9,1","6,1,06,1","2,1,06,1",,"07,99,1,07,1,05,1,00450,1,00,1,00,1","0432,9","09,9","999,+0130,9","999,N,+0175,1","99999,9,09972,1","6,1,004,1,+999,9","02,1",,"SYN112AAXX  13064 08048 11460 70000 10183 20175 39972 40144 56004 69942 70262 87500 333 20175 31013 50394 55072 70004;",
"08048099999","2010-07-13T09:00:00","4","42.3333333","-7.8666666","147.0","ORENSE, SP","FM-12","99999","V020","240,1,N,0026,1","00900,1,9,N","010000,1,N,1","+0216,1","+0161,1","10140,1",,,,,,"06,99,1,06,1,08,1,00450,1,00,1,00,1",,,,,"99999,9,09970,1","8,1,002,1,+999,9",,,"SYN066AAXX  13094 08048 42460 62405 10216 20161 39970 40140 58002 86800;",
"08048099999","2010-07-13T12:00:00","4","42.3333333","-7.8666666","147.0","ORENSE, SP","FM-12","99999","V020","270,1,N,0031,1","22000,1,9,N","010000,1,N,1","+0261,1","+0155,1","10123,1","06,0000,9,1",,,,,"03,99,1,03,1,01,1,00450,1,00,1,00,1",,,,,"99999,9,09956,1","8,1,014,1,+999,9",,,"SYN072AAXX  13124 08048 12460 32706 10261 20155 39956 40123 58014 60001 83100;","Q01  00002PRCP06"
"08048099999","2010-07-13T15:00:00","4","42.3333333","-7.8666666","147.0","ORENSE, SP","FM-12","99999","V020","300,1,N,0046,1","22000,1,9,N","010000,1,N,1","+0266,1","+0137,1","10121,1",,,,,,"02,99,1,02,1,01,1,00450,1,00,1,00,1",,,,,"99999,9,09954,1","6,1,002,1,+999,9",,,"SYN066AAXX  13154 08048 42460 23009 10266 20137 39954 40121 56002 82100;",
"08048099999","2010-07-13T18:00:00","4","42.3333333","-7.8666666","147.0","ORENSE, SP","FM-12","99999","V020","300,1,N,0031,1","22000,1,9,N","010000,1,N,1","+0255,1","+0152,1","10110,1","12,0000,9,1",,,,,"02,99,1,02,1,01,1,00450,1,04,1,00,1",,,,"999,M,+0285,1","99999,9,09943,1","6,1,011,1,+999,9",,,"SYN082AAXX  13184 08048 12460 23006 10255 20152 39943 40110 56011 60002 82140 333 10285;","Q01  00002PRCP12"
"08048099999","2010-07-14T06:00:00","4","42.3333333","-7.8666666","147.0","ORENSE, SP","FM-12","99999","V020","220,1,N,0021,1","00420,1,9,N","010000,1,N,1","+0168,1","+0143,1","10123,1","12,9999,9,9","24,9999,9,9","2,1,06,1","2,1,06,1",,"07,99,1,07,1,07,1,00450,1,99,9,99,9","0636,9","09,9","999,+0150,9","999,N,+0165,1","99999,9,09951,1","3,1,005,1,+999,9","50,1",,"SYN112AAXX  14064 08048 11460 72204 10168 20143 39951 40123 53005 69902 75022 877// 333 20165 31015 50464 55106 79999;","Q01  00002PRCP24Q02  00002PRCP12Q03  00002PRCP12Q04  00002PRCP24"
"08048099999","2010-07-14T09:00:00","4","42.3333333","-7.8666666","147.0","ORENSE, SP","FM-12","99999","V020","240,1,N,0036,1","00420,1,9,N","010000,1,N,1","+0187,1","+0127,1","10134,1",,,"2,1,03,1","2,1,03,1",,"07,99,1,07,1,07,1,00450,1,99,9,99,9",,,,,"99999,9,09962,1","3,1,011,1,+999,9","50,1",,"SYN072AAXX  14094 08048 41460 72407 10187 20127 39962 40134 53011 75022 877//;",
"08048099999","2010-07-14T12:00:00","4","42.3333333","-7.8666666","147.0","ORENSE, SP","FM-12","99999","V020","270,1,N,0036,1","09000,1,9,N","010000,1,N,1","+0233,1","+0100,1","10143,1","06,0000,2,1",,"5,1,06,1","2,1,06,1",,"06,99,1,04,1,08,1,00450,1,00,1,08,1",,,,,"99999,9,09974,1","1,1,012,1,+999,9","01,1",,"SYN078AAXX  14124 08048 11460 62707 10233 20100 39974 40143 51012 69901 70152 84808;",
"08048099999","2010-07-14T15:00:00","4","42.3333333","-7.8666666","147.0","ORENSE, SP","FM-12","99999","V020","320,1,N,0046,1","00420,1,9,N","010000,1,N,1","+0230,1","+0108,1","10147,1",,,,,,"05,99,1,05,1,01,1,00450,1,00,1,01,1",,,,,"99999,9,09977,1","1,1,003,1,+999,9",,,"SYN066AAXX  14154 08048 42460 53209 10230 20108 39977 40147 51003 85101;",
"08048099999","2010-07-14T18:00:00","4","42.3333333","-7.8666666","147.0","ORENSE, SP","FM-12","99999","V020","290,1,N,0036,1","22000,1,9,N","010000,1,N,1","+0231,1","+0105,1","10152,1","12,0000,2,1",,,,,"03,99,1,03,1,01,1,00450,1,04,1,01,1",,,,"999,M,+0254,1","99999,9,09982,1","1,1,005,1,+999,9",,,"SYN082AAXX  14184 08048 12460 32907 10231 20105 39982 40152 51005 69902 83141 333 10254;",
"08048099999","2010-07-15T06:00:00","4","42.3333333","-7.8666666","147.0","ORENSE, SP","FM-12","99999","V020","280,1,N,0010,1","22000,1,9,N","010000,1,N,1","+0098,1","+0086,1","10185,1","12,0000,9,1","24,0000,2,1",,,,"01,99,1,01,1,06,1,00450,1,00,1,00,1","0306,9","09,9","999,+0060,9","999,N,+0095,1","99999,9,10007,1","3,1,005,1,+999,9",,,"SYN106AAXX  15064 08048 12460 12802 10098 20086 30007 40185 53005 60002 81600 333 20095 31006 50444 55051 79999;","Q01  00002PRCP12"
"08048099999","2010-07-15T09:00:00","4","42.3333333","-7.8666666","147.0","ORENSE, SP","FM-12","99999","V020","010,1,N,0015,1","22000,1,9,N","010000,1,N,1","+0170,1","+0111,1","10178,1",,,,,,"01,99,1,01,1,01,1,00450,1,00,1,00,1",,,,,"99999,9,10004,1","8,1,003,1,+999,9",,,"SYN066AAXX  15094 08048 42460 10103 10170 20111 30004 40178 58003 81100;",
"08048099999","2010-07-15T12:00:00","4","42.3333333","-7.8666666","147.0","ORENSE, SP","FM-12","99999","V020","340,1,N,0026,1","22000,1,9,N","010000,1,N,1","+0246,1","+0115,1","10163,1","06,0000,9,1",,,,"00,1,+99999,9,99,9","00,99,1,00,1,00,1,99999,9,00,1,00,1",,,,,"99999,9,09994,1","8,1,010,1,+999,9",,,"SYN066AAXX  15124 08048 12960 03405 10246 20115 39994 40163 58010 60001;","Q01  00002PRCP06"
"08048099999","2010-07-15T15:00:00","4","42.3333333","-7.8666666","147.0","ORENSE, SP","FM-12","99999","V020","250,1,N,0036,1","22000,1,9,N","010000,1,N,1","+0280,1","+0098,1","10148,1",,,,,"00,1,+99999,9,99,9","00,99,1,00,1,00,1,99999,9,00,1,00,1",,,,,"99999,9,09981,1","6,1,013,1,+999,9",,,"SYN060AAXX  15154 08048 42960 02507 10280 20098 39981 40148 56013;",
"08048099999","2010-07-15T18:00:00","4","42.3333333","-7.8666666","147.0","ORENSE, SP","FM-12","99999","V020","290,1,N,0041,1","22000,1,9,N","010000,1,N,1","+0253,1","+0132,1","10152,1","12,0000,9,1",,,,"00,1,+99999,9,99,9","00,99,1,00,1,00,1,99999,9,00,1,00,1",,,,"999,M,+0289,1","99999,9,09984,1","3,1,003,1,+999,9",,,"SYN076AAXX  15184 08048 12960 02908 10253 20132 39984 40152 53003 60002 333 10289;","Q01  00002PRCP12"
"08048099999","2010-07-16T06:00:00","4","42.3333333","-7.8666666","147.0","ORENSE, SP","FM-12","99999","V020","999,9,C,0000,1","00420,1,9,N","010000,1,N,1","+0186,1","+0147,1","10172,1","12,0000,9,1","24,0000,9,1",,,,"07,99,1,07,1,06,1,00450,1,99,9,99,9","0804,9","01,9","999,+0070,9","999,N,+0179,1","99999,9,10000,1","3,1,002,1,+999,9",,,"SYN106AAXX  16064 08048 12460 70000 10186 20147 30000 40172 53002 60002 876// 333 20179 30007 50504 55134 70000;","Q01  00002PRCP24Q02  00002PRCP12"
"08048099999","2010-07-16T09:00:00","4","42.3333333","-7.8666666","147.0","ORENSE, SP","FM-12","99999","V020","340,1,N,0010,1","00420,1,9,N","010000,1,N,1","+0205,1","+0163,1","10181,1",,,,,,"08,99,1,08,1,07,1,00450,1,99,9,99,9",,,,,"99999,9,10010,1","1,1,010,1,+999,9",,,"SYN066AAXX  16094 08048 42460 83402 10205 20163 30010 40181 51010 887//;",
"08048099999","2010-07-16T12:00:00","4","42.3333333","-7.8666666","147.0","ORENSE, SP","FM-12","99999","V020","310,1,N,0021,1","00420,1,9,N","010000,1,N,1","+0229,1","+0157,1","10190,1","06,0000,9,1",,"5,1,06,1","2,1,06,1",,"05,99,1,05,1,02,1,00450,1,00,1,00,1",,,,,"99999,9,10020,1","1,1,010,1,+999,9","01,1",,"SYN078AAXX  16124 08048 11460 53104 10229 20157 30020 40190 51010 69901 70152 85200;","Q01  00002PRCP06"
"08048099999","2010-07-16T15:00:00","4","42.3333333","-7.8666666","147.0","ORENSE, SP","FM-12","99999","V020","270,1,N,0026,1","22000,1,9,N","010000,1,N,1","+0283,1","+0126,1","10181,1",,,,,,"03,99,1,03,1,01,1,00450,1,00,1,00,1",,,,,"99999,9,10014,1","6,1,006,1,+999,9",,,"SYN066AAXX  16154 08048 42460 32705 10283 20126 30014 40181 56006 83100;",
"08048099999","2010-07-16T18:00:00","4","42.3333333","-7.8666666","147.0","ORENSE, SP","FM-12","99999","V020","320,1,N,0036,1","22000,1,9,N","010000,1,N,1","+0266,1","+0130,1","10182,1","12,0000,9,1",,,,,"02,99,1,01,1,01,1,00450,1,00,1,02,1",,,,"999,M,+0294,1","99999,9,10014,1","5,1,000,1,+999,9",,,"SYN082AAXX  16184 08048 12460 23207 10266 20130 30014 40182 55000 69902 81102 333 10294;","Q01  00002PRCP12"
"08048099999","2010-07-19T06:00:00","4","42.3333333","-7.8666666","147.0","ORENSE, SP","FM-12","99999","V020","230,1,N,0010,1","22000,1,9,N","010000,1,N,1","+0167,1","+0151,1","10191,1","12,0000,9,1","24,0000,9,1",,,,"01,99,1,00,1,00,1,99999,9,00,1,01,1","0804,9",,,"999,N,+0162,1","99999,9,10017,1","3,1,006,1,+999,9","02,1",,"SYN106AAXX  19064 08048 11960 12302 10167 20151 30017 40191 53006 60002 702// 80001 333 20162 50584 55134 70000;","Q01  00002PRCP24Q02  00002PRCP12"
"08048099999","2010-07-19T09:00:00","4","42.3333333","-7.8666666","147.0","ORENSE, SP","FM-12","99999","V020","030,1,N,0015,1","22000,1,9,N","010000,1,N,1","+0224,1","+0164,1","10190,1",,,,,,"01,99,1,00,1,00,1,99999,9,00,1,01,1",,,,,"99999,9,10020,1","1,1,003,1,+999,9",,,"SYN066AAXX  19094 08048 42960 10303 10224 20164 30020 40190 51003 80001;",
"08048099999","2010-07-19T12:00:00","4","42.3333333","-7.8666666","147.0","ORENSE, SP","FM-12","99999","V020","020,1,N,0015,1","22000,1,9,N","010000,1,N,1","+0278,1","+0173,1","10182,1","06,0000,9,1",,,,,"02,99,1,00,1,00,1,99999,9,00,1,01,1",,,,,"99999,9,10015,1","7,1,005,1,+999,9",,,"SYN072AAXX  19124 08048 12960 20203 10278 20173 30015 40182 57005 60001 80001;","Q01  00002PRCP06"
"08048099999","2010-07-19T15:00:00","4","42.3333333","-7.8666666","147.0","ORENSE, SP","FM-12","99999","V020","360,1,N,0015,1","22000,1,9,N","010000,1,N,1","+0342,1","+0191,1","10152,1",,,,,,"03,99,1,01,1,01,1,00450,1,00,1,01,1",,,,,"99999,9,09989,1","7,1,026,1,+999,9",,,"SYN066AAXX  19154 08048 42460 33603 10342 20191 39989 40152 57026 81101;",
"08048099999","2010-07-19T18:00:00","4","42.3333333","-7.8666666","147.0","ORENSE, SP","FM-12","99999","V020","330,1,N,0021,1","22000,1,9,N","010000,1,N,1","+0326,1","+0180,1","10146,1","12,0000,9,1",,,,,"02,99,1,00,1,00,1,99999,9,00,1,01,1",,,,"999,M,+0345,1","99999,9,09982,1","6,1,007,1,+999,9",,,"SYN082AAXX  19184 08048 12960 23304 10326 20180 39982 40146 56007 60002 80001 333 10345;","Q01  00002PRCP12"
"08048099999","2010-07-20T06:00:00","4","42.3333333","-7.8666666","147.0","ORENSE, SP","FM-12","99999","V020","250,1,N,0005,1","00420,1,9,N","010000,1,N,1","+0174,1","+0143,1","10170,1","12,0000,9,1","24,0000,9,1",,,,"07,99,1,07,1,06,1,00450,1,00,1,00,1","0810,9","01,9","999,+0130,9","999,N,+0164,1","99999,9,09997,1","6,1,002,1,+999,9","02,1",,"SYN112AAXX  20064 08048 11460 72501 10174 20143 39997 40170 56002 60002 702// 87600 333 20164 30013 50484 55135 70000;","Q01  00002PRCP24Q02  00002PRCP12"
"08048099999","2010-07-20T09:00:00","4","42.3333333","-7.8666666","147.0","ORENSE, SP","FM-12","99999","V020","320,1,N,0015,1","00420,1,9,N","010000,1,N,1","+0204,1","+0136,1","10162,1",,,,,,"06,99,1,06,1,02,1,00450,1,00,1,00,1",,,,,"99999,9,09991,1","8,1,006,1,+999,9",,,"SYN066AAXX  20094 08048 42460 63203 10204 20136 39991 40162 58006 86200;",
"08048099999","2010-07-20T12:00:00","4","42.3333333","-7.8666666","147.0","ORENSE, SP","FM-12","99999","V020","170,1,N,0021,1","22000,1,9,N","010000,1,N,1","+0267,1","+0138,1","10140,1","06,0000,9,1",,,,,"01,99,1,00,1,00,1,99999,9,00,1,01,1",,,,,"99999,9,09973,1","7,1,018,1,+999,9",,,"SYN072AAXX  20124 08048 12960 11704 10267 20138 39973 40140 57018 60001 80001;","Q01  00002PRCP06"
"08048099999","2010-07-20T15:00:00","4","42.3333333","-7.8666666","147.0","ORENSE, SP","FM-12","99999","V020","280,1,N,0041,1","03600,1,9,N","010000,1,N,1","+0290,1","+0152,1","10128,1",,,,,,"07,99,1,03,1,02,1,00450,1,08,1,01,1",,,,,"99999,9,09962,1","6,1,011,1,+999,9",,,"SYN066AAXX  20154 08048 42460 72808 10290 20152 39962 40128 56011 83281;",
"08048099999","2010-07-20T18:00:00","4","42.3333333","-7.8666666","147.0","ORENSE, SP","FM-12","99999","V020","280,1,N,0026,1","03600,1,9,N","010000,1,N,1","+0260,1","+0165,1","10122,1","12,0000,9,1",,,,,"07,99,1,04,1,05,1,00450,1,07,1,99,9",,,,"999,M,+0307,1","99999,9,09955,1","6,1,007,1,+999,9",,,"SYN082AAXX  20184 08048 12460 72805 10260 20165 39955 40122 56007 60002 8457/ 333 10307;","Q01  00002PRCP12"
"08048099999","2010-07-21T06:00:00","4","42.3333333","-7.8666666","147.0","ORENSE, SP","FM-12","99999","V020","350,1,N,0015,1","00420,1,9,N","010000,1,N,1","+0174,1","+0127,1","10128,1","12,0000,9,1","24,0000,9,1",,,,"07,99,1,07,1,05,1,00450,1,99,9,99,9","0408,9","01,9","999,+0120,9","999,N,+0164,1","99999,9,09956,1","3,1,001,1,+999,9","02,1",,"SYN112AAXX  21064 08048 11460 73503 10174 20127 39956 40128 53001 60002 702// 875// 333 20164 30012 50424 55068 70000;","Q01  00002PRCP24Q02  00002PRCP12"
"08048099999","2010-07-21T09:00:00","4","42.3333333","-7.8666666","147.0","ORENSE, SP","FM-12","99999","V020","320,1,N,0026,1","00900,1,9,N","010000,1,N,1","+0204,1","+0121,1","10133,1",,,,,,"05,99,1,05,1,08,1,00450,1,00,1,00,1",,,,,"99999,9,09962,1","1,1,006,1,+999,9",,,"SYN066AAXX  21094 08048 42460 53205 10204 20121 39962 40133 51006 85800;",
"08048099999","2010-07-21T12:00:00","4","42.3333333","-7.8666666","147.0","ORENSE, SP","FM-12","99999","V020","090,1,N,0015,1","22000,1,9,N","010000,1,N,1","+0252,1","+0103,1","10125,1","06,0000,9,1",,,,,"03,99,1,03,1,02,1,00450,1,00,1,00,1",,,,,"99999,9,09957,1","8,1,005,1,+999,9",,,"SYN072AAXX  21124 08048 12460 30903 10252 20103 39957 40125 58005 60001 83200;","Q01  00002PRCP06"
"08048099999","2010-07-21T15:00:00","4","42.3333333","-7.8666666","147.0","ORENSE, SP","FM-12","99999","V020","320,1,N,0036,1","09000,1,9,N","010000,1,N,1","+0260,1","+0098,1","10117,1",,,,,,"07,99,1,01,1,01,1,00450,1,00,1,06,1",,,,,"99999,9,09950,1","7,1,007,1,+999,9",,,"SYN066AAXX  21154 08048 42460 73207 10260 20098 39950 40117 57007 81106;",
"08048099999","2010-07-21T18:00:00","4","42.3333333","-7.8666666","147.0","ORENSE, SP","FM-12","99999","V020","330,1,N,0041,1","09000,1,9,N","010000,1,N,1","+0248,1","+0099,1","10117,1","12,0000,9,1",,,,,"07,99,1,01,1,01,1,00450,1,00,1,06,1",,,,"999,M,+0274,1","99999,9,09949,1","6,1,001,1,+999,9",,,"SYN082AAXX  21184 08048 12460 73308 10248 20099 39949 40117 56001 60002 81106 333 10274;","Q01  00002PRCP12"
"08048099999","2010-07-22T06:00:00","4","42.3333333","-7.8666666","147.0","ORENSE, SP","FM-12","99999","V020","260,1,N,0010,1","22000,1,9,N","010000,1,N,1","+0121,1","+0103,1","10162,1","12,0000,9,1","24,0000,9,1",,,,"01,99,1,01,1,06,1,00450,1,00,1,00,1","0516,9","01,9","999,+0070,9","999,N,+0116,1","99999,9,09986,1","3,1,010,1,+999,9","02,1",,"SYN112AAXX  22064 08048 11460 12602 10121 20103 39986 40162 53010 60002 702// 81600 333 20116 30007 50474 55086 70000;","Q01  00002PRCP24Q02  00002PRCP12"
"08048099999","2010-07-22T09:00:00","4","42.3333333","-7.8666666","147.0","ORENSE, SP","FM-12","99999","V020","030,1,N,0015,1","22000,1,9,N","010000,1,N,1","+0191,1","+0114,1","10165,1",,,,,,"02,99,1,02,1,02,1,00450,1,00,1,00,1",,,,,"99999,9,09993,1","1,1,007,1,+999,9",,,"SYN066AAXX  22094 08048 42460 20303 10191 20114 39993 40165 51007 82200;",
"08048099999","2010-07-22T12:00:00","4","42.3333333","-7.8666666","147.0","ORENSE, SP","FM-12","99999","V020","070,1,N,0021,1","22000,1,9,N","010000,1,N,1","+0245,1","+0096,1","10160,1","06,0000,9,1",,,,,"03,99,1,03,1,02,1,00450,1,00,1,00,1",,,,,"99999,9,09991,1","8,1,002,1,+999,9",,,"SYN072AAXX  22124 08048 12460 30704 10245 20096 39991 40160 58002 60001 83200;","Q01  00002PRCP06"
"08048099999","2010-07-22T15:00:00","4","42.3333333","-7.8666666","147.0","ORENSE, SP","FM-12","99999","V020","030,1,N,0021,1","22000,1,9,N","010000,1,N,1","+0268,1","+0087,1","10155,1",,,,,,"03,99,1,03,1,02,1,00450,1,00,1,00,1",,,,,"99999,9,09987,1","6,1,004,1,+999,9",,,"SYN066AAXX  22154 08048 42460 30304 10268 20087 39987 40155 56004 83200;",
"08048099999","2010-07-22T18:00:00","4","42.3333333","-7.8666666","147.0","ORENSE, SP","FM-12","99999","V020","010,1,N,0031,1","22000,1,9,N","010000,1,N,1","+0248,1","+0110,1","10161,1","12,0000,9,1",,,,,"02,99,1,02,1,02,1,00450,1,00,1,00,1",,,,"999,M,+0276,1","99999,9,09992,1","2,1,005,1,+999,9",,,"SYN082AAXX  22184 08048 12460 20106 10248 20110 39992 40161 52005 60002 82200 333 10276;","Q01  00002PRCP12"
"08048099999","2010-07-23T06:00:00","4","42.3333333","-7.8666666","147.0","ORENSE, SP","FM-12","99999","V020","200,1,N,0010,1","22000,1,9,N","010000,1,N,1","+0112,1","+0099,1","10226,1","12,0000,9,1","24,0000,9,1",,,,"01,99,1,01,1,06,1,00450,1,00,1,00,1","0774,9","01,9","999,+0070,9","999,N,+0107,1","99999,9,10048,1","2,1,011,1,+999,9","02,1",,"SYN112AAXX  23064 08048 11460 12002 10112 20099 30048 40226 52011 60002 702// 81600 333 20107 30007 50494 55129 70000;","Q01  00002PRCP24Q02  00002PRCP12"
"08048099999","2010-07-23T09:00:00","4","42.3333333","-7.8666666","147.0","ORENSE, SP","FM-12","99999","V020","010,1,N,0021,1","22000,1,9,N","010000,1,N,1","+0188,1","+0109,1","10229,1",,,,,,"01,99,1,01,1,01,1,00450,1,00,1,00,1",,,,,"99999,9,10056,1","1,1,008,1,+999,9",,,"SYN066AAXX  23094 08048 42460 10104 10188 20109 30056 40229 51008 81100;",
"08048099999","2010-07-23T12:00:00","4","42.3333333","-7.8666666","147.0","ORENSE, SP","FM-12","99999","V020","010,1,N,0026,1","22000,1,9,N","010000,1,N,1","+0247,1","+0098,1","10220,1","06,0000,9,1",,,,"00,1,+99999,9,99,9","00,99,1,00,1,00,1,99999,9,00,1,00,1",,,,,"99999,9,10050,1","8,1,006,1,+999,9",,,"SYN066AAXX  23124 08048 12960 00105 10247 20098 30050 40220 58006 60001;","Q01  00002PRCP06"
"08048099999","2010-07-23T15:00:00","4","42.3333333","-7.8666666","147.0","ORENSE, SP","FM-12","99999","V020","010,1,N,0026,1","22000,1,9,N","010000,1,N,1","+0280,1","+0120,1","10208,1",,,,,,"01,99,1,00,1,00,1,99999,9,00,1,01,1",,,,,"99999,9,10040,1","7,1,010,1,+999,9",,,"SYN066AAXX  23154 08048 42960 10105 10280 20120 30040 40208 57010 80001;",
"08048099999","2010-07-23T18:00:00","4","42.3333333","-7.8666666","147.0","ORENSE, SP","FM-12","99999","V020","020,1,N,0021,1","22000,1,9,N","010000,1,N,1","+0278,1","+0133,1","10203,1","12,0000,9,1",,,,,"01,99,1,00,1,00,1,99999,9,00,1,01,1",,,,"999,M,+0293,1","99999,9,10035,1","7,1,005,1,+999,9",,,"SYN082AAXX  23184 08048 12960 10204 10278 20133 30035 40203 57005 60002 80001 333 10293;","Q01  00002PRCP12"
"08048099999","2010-07-26T06:00:00","4","42.3333333","-7.8666666","147.0","ORENSE, SP","FM-12","99999","V020","180,1,N,0005,1","22000,1,9,N","010000,1,N,1","+0151,1","+0138,1","10177,1","12,0000,9,1","24,0000,9,1",,,"00,1,+99999,9,99,9","00,99,1,00,1,00,1,99999,9,00,1,00,1","0798,9","01,9","999,+0110,9","999,N,+0145,1","99999,9,10003,1","2,1,003,1,+999,9","02,1",,"SYN100AAXX  26064 08048 11960 01801 10151 20138 30003 40177 52003 60002 702// 333 20145 30011 55133 70000;","Q01  00002PRCP24Q02  00002PRCP12"
"08048099999","2010-07-26T09:00:00","4","42.3333333","-7.8666666","147.0","ORENSE, SP","FM-12","99999","V020","020,1,N,0015,1","22000,1,9,N","010000,1,N,1","+0226,1","+0142,1","10174,1",,,,,"00,1,+99999,9,99,9","00,99,1,00,1,00,1,99999,9,00,1,00,1",,,,,"99999,9,10004,1","0,1,001,1,+999,9",,,"SYN060AAXX  26094 08048 42960 00203 10226 20142 30004 40174 50001;",
"08048099999","2010-07-26T12:00:00","4","42.3333333","-7.8666666","147.0","ORENSE, SP","FM-12","99999","V020","340,1,N,0026,1","22000,1,9,N","010000,1,N,1","+0303,1","+0152,1","10159,1","06,0000,9,1",,,,"00,1,+99999,9,99,9","00,99,1,00,1,00,1,99999,9,00,1,00,1",,,,,"99999,9,09994,1","7,1,010,1,+999,9",,,"SYN066AAXX  26124 08048 12960 03405 10303 20152 39994 40159 57010 60001;","Q01  00002PRCP06"
"08048099999","2010-07-26T15:00:00","4","42.3333333","-7.8666666","147.0","ORENSE, SP","FM-12","99999","V020","330,1,N,0021,1","22000,1,9,N","010000,1,N,1","+0350,1","+0163,1","10134,1",,,,,"00,1,+99999,9,99,9","00,99,1,00,1,00,1,99999,9,00,1,00,1",,,,,"99999,9,09972,1","7,1,022,1,+999,9",,,"SYN060AAXX  26154 08048 42960 03304 10350 20163 39972 40134 57022;",
"08048099999","2010-07-26T18:00:00","4","42.3333333","-7.8666666","147.0","ORENSE, SP","FM-12","99999","V020","020,1,N,0026,1","22000,1,9,N","010000,1,N,1","+0344,1","+0172,1","10124,1","12,0000,9,1",,,,"00,1,+99999,9,99,9","00,99,1,00,1,00,1,99999,9,00,1,00,1",,,,"999,M,+0360,1","99999,9,09961,1","6,1,011,1,+999,9",,,"SYN076AAXX  26184 08048 12960 00205 10344 20172 39961 40124 56011 60002 333 10360;","Q01  00002PRCP12"
"08048099999","2010-07-27T06:00:00","4","42.3333333","-7.8666666","147.0","ORENSE, SP","FM-12","99999","V020","150,1,N,0010,1","22000,1,9,N","010000,1,N,1","+0164,1","+0148,1","10162,1","12,0000,9,1","24,0000,9,1",,,"00,1,+99999,9,99,9","00,99,1,00,1,00,1,99999,9,00,1,00,1","0792,9","01,9","999,+0120,9","999,N,+0157,1","99999,9,09989,1","3,1,004,1,+999,9","02,1",,"SYN106AAXX  27064 08048 11960 01502 10164 20148 39989 40162 53004 60002 702// 333 20157 30012 50584 55132 70000;","Q01  00002PRCP24Q02  00002PRCP12"
"08048099999","2010-07-27T09:00:00","4","42.3333333","-7.8666666","147.0","ORENSE, SP","FM-12","99999","V020","240,1,N,0010,1","22000,1,9,N","010000,1,N,1","+0240,1","+0160,1","10157,1",,,,,"00,1,+99999,9,99,9","00,99,1,00,1,00,1,99999,9,00,1,00,1",,,,,"99999,9,09988,1","8,1,001,1,+999,9",,,"SYN060AAXX  27094 08048 42960 02402 10240 20160 39988 40157 58001;",
"08048099999","2010-07-27T12:00:00","4","42.3333333","-7.8666666","147.0","ORENSE, SP","FM-12","99999","V020","360,1,N,0021,1","22000,1,9,N","010000,1,N,1","+0328,1","+0174,1","10140,1","06,0000,9,1",,,,"00,1,+99999,9,99,9","00,99,1,00,1,00,1,99999,9,00,1,00,1",,,,,"99999,9,09976,1","7,1,012,1,+999,9",,,"SYN066AAXX  27124 08048 12960 03604 10328 20174 39976 40140 57012 60001;","Q01  00002PRCP06"
"08048099999","2010-07-27T15:00:00","4","42.3333333","-7.8666666","147.0","ORENSE, SP","FM-12","99999","V020","320,1,N,0021,1","22000,1,9,N","010000,1,N,1","+0376,1","+0154,1","10123,1",,,,,"00,1,+99999,9,99,9","00,99,1,00,1,00,1,99999,9,00,1,00,1",,,,,"99999,9,09962,1","7,1,014,1,+999,9",,,"SYN060AAXX  27154 08048 42960 03204 10376 20154 39962 40123 57014;",
"08048099999","2010-07-27T18:00:00","4","42.3333333","-7.8666666","147.0","ORENSE, SP","FM-12","99999","V020","050,1,N,0026,1","22000,1,9,N","010000,1,N,1","+0369,1","+0165,1","10118,1","12,0000,9,1",,,,"00,1,+99999,9,99,9","00,99,1,00,1,00,1,99999,9,00,1,00,1",,,,"999,M,+0385,1","99999,9,09957,1","6,1,005,1,+999,9",,,"SYN076AAXX  27184 08048 12960 00505 10369 20165 39957 40118 56005 60002 333 10385;","Q01  00002PRCP12"
"08048099999","2010-07-28T06:00:00","4","42.3333333","-7.8666666","147.0","ORENSE, SP","FM-12","99999","V020","190,1,N,0005,1","22000,1,9,N","010000,1,N,1","+0177,1","+0162,1","10173,1","12,0000,9,1","24,0000,9,1",,,,"01,99,1,01,1,06,1,00450,1,00,1,00,1","0792,9","01,9","999,+0140,9","999,N,+0172,1","99999,9,10000,1","1,1,010,1,+999,9","02,1",,"SYN112AAXX  28064 08048 11460 11901 10177 20162 30000 40173 51010 60002 702// 81600 333 20172 30014 50654 55132 70000;","Q01  00002PRCP24Q02  00002PRCP12"
"08048099999","2010-07-28T09:00:00","4","42.3333333","-7.8666666","147.0","ORENSE, SP","FM-12","99999","V020","280,1,N,0010,1","22000,1,9,N","010000,1,N,1","+0235,1","+0173,1","10172,1",,,,,"00,1,+99999,9,99,9","00,99,1,00,1,00,1,99999,9,00,1,00,1",,,,,"99999,9,10003,1","1,1,003,1,+999,9",,,"SYN060AAXX  28094 08048 42960 02802 10235 20173 30003 40172 51003;",
"08048099999","2010-07-28T12:00:00","4","42.3333333","-7.8666666","147.0","ORENSE, SP","FM-12","99999","V020","330,1,N,0021,1","22000,1,9,N","010000,1,N,1","+0342,1","+0151,1","10152,1","06,0000,9,1",,,,"00,1,+99999,9,99,9","00,99,1,00,1,00,1,99999,9,00,1,00,1",,,,,"99999,9,09989,1","8,1,014,1,+999,9",,,"SYN066AAXX  28124 08048 12960 03304 10342 20151 39989 40152 58014 60001;","Q01  00002PRCP06"
"08048099999","2010-07-28T15:00:00","4","42.3333333","-7.8666666","147.0","ORENSE, SP","FM-12","99999","V020","050,1,N,0015,1","22000,1,9,N","010000,1,N,1","+0392,1","+0168,1","10129,1",,,,,,"01,99,1,01,1,02,1,00450,1,00,1,00,1",,,,,"99999,9,09969,1","7,1,020,1,+999,9",,,"SYN066AAXX  28154 08048 42460 10503 10392 20168 39969 40129 57020 81200;",
"08048099999","2010-07-28T18:00:00","4","42.3333333","-7.8666666","147.0","ORENSE, SP","FM-12","99999","V020","050,1,N,0026,1","22000,1,9,N","010000,1,N,1","+0358,1","+0193,1","10133,1","12,0000,9,1",,,,,"02,99,1,01,1,02,1,00450,1,07,1,00,1",,,,"999,M,+0401,1","99999,9,09971,1","3,1,002,1,+999,9",,,"SYN082AAXX  28184 08048 12460 20505 10358 20193 39971 40133 53002 60002 81270 333 10401;","Q01  00002PRCP12"
"08048099999","2010-07-29T06:00:00","4","42.3333333","-7.8666666","147.0","ORENSE, SP","FM-12","99999","V020","360,1,N,0010,1","00420,1,9,N","010000,1,N,1","+0208,1","+0162,1","10170,1","12,0000,9,1","24,0000,9,1",,,,"08,99,1,08,1,06,1,00450,1,99,9,99,9","0744,9","01,9","999,+0150,9","999,N,+0202,1","99999,9,09999,1","3,1,003,1,+999,9","02,1",,"SYN112AAXX  29064 08048 11460 83602 10208 20162 39999 40170 53003 60002 702// 886// 333 20202 30015 50674 55124 70000;","Q01  00002PRCP24Q02  00002PRCP12"
"08048099999","2010-07-29T09:00:00","4","42.3333333","-7.8666666","147.0","ORENSE, SP","FM-12","99999","V020","020,1,N,0021,1","00420,1,9,N","010000,1,N,1","+0226,1","+0162,1","10172,1",,,,,,"06,99,1,06,1,05,1,00450,1,00,1,00,1",,,,,"99999,9,10002,1","1,1,003,1,+999,9",,,"SYN066AAXX  29094 08048 42460 60204 10226 20162 30002 40172 51003 86500;",
"08048099999","2010-07-29T12:00:00","4","42.3333333","-7.8666666","147.0","ORENSE, SP","FM-12","99999","V020","050,1,N,0021,1","22000,1,9,N","010000,1,N,1","+0296,1","+0171,1","10155,1","06,0000,9,1",,,,,"01,99,1,01,1,01,1,00450,1,00,1,00,1",,,,,"99999,9,09989,1","8,1,013,1,+999,9",,,"SYN072AAXX  29124 08048 12460 10504 10296 20171 39989 40155 58013 60001 81100;","Q01  00002PRCP06"
"08048099999","2010-07-29T15:00:00","4","42.3333333","-7.8666666","147.0","ORENSE, SP","FM-12","99999","V020","040,1,N,0026,1","22000,1,9,N","010000,1,N,1","+0342,1","+0174,1","10132,1",,,,,,"01,99,1,01,1,01,1,00450,1,00,1,00,1",,,,,"99999,9,09969,1","7,1,020,1,+999,9",,,"SYN066AAXX  29154 08048 42460 10405 10342 20174 39969 40132 57020 81100;",
"08048099999","2010-07-29T18:00:00","4","42.3333333","-7.8666666","147.0","ORENSE, SP","FM-12","99999","V020","060,1,N,0026,1","22000,1,9,N","010000,1,N,1","+0324,1","+0175,1","10126,1","12,0000,9,1",,,,"00,1,+99999,9,99,9","00,99,1,00,1,00,1,99999,9,00,1,00,1",,,,"999,M,+0349,1","99999,9,09962,1","6,1,007,1,+999,9",,,"SYN076AAXX  29184 08048 12960 00605 10324 20175 39962 40126 56007 60002 333 10349;","Q01  00002PRCP12"
"08048099999","2010-07-30T06:00:00","4","42.3333333","-7.8666666","147.0","ORENSE, SP","FM-12","99999","V020","150,1,N,0010,1","22000,1,9,N","010000,1,N,1","+0162,1","+0149,1","10153,1","12,0000,9,1","24,0000,9,1",,,,"02,99,1,02,1,06,1,00450,1,00,1,00,1","0630,9","01,9","999,+0130,9","999,N,+0156,1","99999,9,09980,1","6,1,001,1,+999,9","02,1",,"SYN112AAXX  30064 08048 11460 21502 10162 20149 39980 40153 56001 60002 702// 82600 333 20156 30013 50544 55105 70000;","Q01  00002PRCP24Q02  00002PRCP12"
"08048099999","2010-07-30T09:00:00","4","42.3333333","-7.8666666","147.0","ORENSE, SP","FM-12","99999","V020","010,1,N,0015,1","22000,1,9,N","010000,1,N,1","+0225,1","+0158,1","10151,1",,,,,"00,1,+99999,9,99,9","00,99,1,00,1,00,1,99999,9,00,1,00,1",,,,,"99999,9,09981,1","0,1,001,1,+999,9",,,"SYN060AAXX  30094 08048 42960 00103 10225 20158 39981 40151 50001;",
"08048099999","2010-07-30T12:00:00","4","42.3333333","-7.8666666","147.0","ORENSE, SP","FM-12","99999","V020","310,1,N,0021,1","22000,1,9,N","010000,1,N,1","+0300,1","+0164,1","10127,1","06,0000,9,1",,,,"00,1,+99999,9,99,9","00,99,1,00,1,00,1,99999,9,00,1,00,1",,,,,"99999,9,09962,1","7,1,019,1,+999,9",,,"SYN066AAXX  30124 08048 12960 03104 10300 20164 39962 40127 57019 60001;","Q01  00002PRCP06"
"08048099999","2010-07-30T15:00:00","4","42.3333333","-7.8666666","147.0","ORENSE, SP","FM-12","99999","V020","070,1,N,0021,1","22000,1,9,N","010000,1,N,1","+0359,1","+0171,1","10105,1",,,,,"00,1,+99999,9,99,9","00,99,1,00,1,00,1,99999,9,00,1,00,1",,,,,"99999,9,09944,1","7,1,018,1,+999,9",,,"SYN060AAXX  30154 08048 42960 00704 10359 20171 39944 40105 57018;",
"08048099999","2010-07-30T18:00:00","4","42.3333333","-7.8666666","147.0","ORENSE, SP","FM-12","99999","V020","050,1,N,0026,1","22000,1,9,N","010000,1,N,1","+0340,1","+0189,1","10101,1","12,0000,9,1",,,,"00,1,+99999,9,99,9","00,99,1,00,1,00,1,99999,9,00,1,00,1",,,,"999,M,+0371,1","99999,9,09939,1","5,1,005,1,+999,9",,,"SYN076AAXX  30184 08048 12960 00505 10340 20189 39939 40101 55005 60002 333 10371;","Q01  00002PRCP12"
"08048099999","2010-08-02T06:00:00","4","42.3333333","-7.8666666","147.0","ORENSE, SP","FM-12","99999","V020","350,1,N,0021,1","00420,1,9,N","010000,1,N,1","+0188,1","+0134,1","10174,1","12,0000,9,1","24,0000,9,1",,,,"07,99,1,07,1,06,1,00450,1,00,1,00,1","0504,9",,,"999,N,+0185,1","99999,9,10002,1","3,1,005,1,+999,9",,,"SYN094AAXX  02064 08048 12460 73504 10188 20134 30002 40174 53005 60002 87600 333 20185 55084 70000;","Q01  00002PRCP24Q02  00002PRCP12"
"08048099999","2010-08-02T09:00:00","4","42.3333333","-7.8666666","147.0","ORENSE, SP","FM-12","99999","V020","010,1,N,0015,1","00420,1,9,N","010000,1,N,1","+0216,1","+0130,1","10180,1",,,,,,"06,99,1,06,1,05,1,00450,1,00,1,00,1",,,,,"99999,9,10009,1","1,1,007,1,+999,9",,,"SYN066AAXX  02094 08048 42460 60103 10216 20130 30009 40180 51007 86500;",
"08048099999","2010-08-02T12:00:00","4","42.3333333","-7.8666666","147.0","ORENSE, SP","FM-12","99999","V020","030,1,N,0021,1","22000,1,9,N","010000,1,N,1","+0267,1","+0124,1","10173,1","06,0000,9,1",,,,,"02,99,1,02,1,01,1,00450,1,00,1,00,1",,,,,"99999,9,10005,1","8,1,004,1,+999,9",,,"SYN072AAXX  02124 08048 12460 20304 10267 20124 30005 40173 58004 60001 82100;","Q01  00002PRCP06"
"08048099999","2010-08-02T15:00:00","4","42.3333333","-7.8666666","147.0","ORENSE, SP","FM-12","99999","V020","010,1,N,0031,1","22000,1,9,N","010000,1,N,1","+0280,1","+0128,1","10165,1",,,,,,"01,99,1,01,1,01,1,00450,1,00,1,00,1",,,,,"99999,9,09998,1","6,1,007,1,+999,9",,,"SYN066AAXX  02154 08048 42460 10106 10280 20128 39998 40165 56007 81100;",
"08048099999","2010-08-02T18:00:00","4","42.3333333","-7.8666666","147.0","ORENSE, SP","FM-12","99999","V020","010,1,N,0021,1","22000,1,9,N","010000,1,N,1","+0275,1","+0138,1","10164,1","12,0000,9,1",,,,,"01,99,1,00,1,00,1,99999,9,00,1,01,1",,,,"999,M,+0291,1","99999,9,09997,1","6,1,001,1,+999,9",,,"SYN082AAXX  02184 08048 12960 10104 10275 20138 39997 40164 56001 60002 80001 333 10291;","Q01  00002PRCP12"
"08048099999","2010-08-03T06:00:00","4","42.3333333","-7.8666666","147.0","ORENSE, SP","FM-12","99999","V020","180,1,N,0010,1","22000,1,9,N","010000,1,N,1","+0135,1","+0116,1","10210,1","12,0000,9,1","24,0000,9,1",,,,"01,99,1,00,1,00,1,99999,9,00,1,01,1","0666,9","09,9","999,+0100,9","999,N,+0131,1","99999,9,10034,1","3,1,010,1,+999,9",,,"SYN106AAXX  03064 08048 12960 11802 10135 20116 30034 40210 53010 60002 80001 333 20131 31010 50534 55111 70000;","Q01  00002PRCP24Q02  00002PRCP12"
"08048099999","2010-08-03T09:00:00","4","42.3333333","-7.8666666","147.0","ORENSE, SP","FM-12","99999","V020","030,1,N,0015,1","22000,1,9,N","010000,1,N,1","+0213,1","+0137,1","10203,1",,,,,"00,1,+99999,9,99,9","00,99,1,00,1,00,1,99999,9,00,1,00,1",,,,,"99999,9,10032,1","8,1,002,1,+999,9",,,"SYN060AAXX  03094 08048 42960 00303 10213 20137 30032 40203 58002;",
"08048099999","2010-08-03T12:00:00","4","42.3333333","-7.8666666","147.0","ORENSE, SP","FM-12","99999","V020","010,1,N,0021,1","22000,1,9,N","010000,1,N,1","+0280,1","+0135,1","10180,1","06,0000,9,1",,,,"00,1,+99999,9,99,9","00,99,1,00,1,00,1,99999,9,00,1,00,1",,,,,"99999,9,10013,1","8,1,019,1,+999,9",,,"SYN066AAXX  03124 08048 12960 00104 10280 20135 30013 40180 58019 60001;","Q01  00002PRCP06"
"08048099999","2010-08-03T15:00:00","4","42.3333333","-7.8666666","147.0","ORENSE, SP","FM-12","99999","V020","360,1,N,0026,1","22000,1,9,N","010000,1,N,1","+0323,1","+0144,1","10160,1",,,,,"00,1,+99999,9,99,9","00,99,1,00,1,00,1,99999,9,00,1,00,1",,,,,"99999,9,09996,1","6,1,017,1,+999,9",,,"SYN060AAXX  03154 08048 42960 03605 10323 20144 39996 40160 56017;",
"08048099999","2010-08-03T18:00:00","4","42.3333333","-7.8666666","147.0","ORENSE, SP","FM-12","99999","V020","050,1,N,0021,1","22000,1,9,N","010000,1,N,1","+0308,1","+0140,1","10159,1","12,0000,9,1",,,,"00,1,+99999,9,99,9","00,99,1,00,1,00,1,99999,9,00,1,00,1",,,,"999,M,+0330,1","99999,9,09994,1","5,1,002,1,+999,9",,,"SYN076AAXX  03184 08048 12960 00504 10308 20140 39994 40159 55002 60002 333 10330;","Q01  00002PRCP12"
"08048099999","2010-08-04T06:00:00","4","42.3333333","-7.8666666","147.0","ORENSE, SP","FM-12","99999","V020","210,1,N,0005,1","22000,1,9,N","010000,1,N,1","+0144,1","+0126,1","10185,1","12,0000,9,1","24,0000,9,1",,,,"02,99,1,02,1,06,1,00450,1,00,1,00,1","0780,9","09,9","999,+0110,9","999,N,+0144,1","99999,9,10010,1","3,1,003,1,+999,9",,,"SYN106AAXX  04064 08048 12460 22101 10144 20126 30010 40185 53003 60002 82600 333 20144 31011 50564 55130 70000;","Q01  00002PRCP24Q02  00002PRCP12"
"08048099999","2010-08-04T09:00:00","4","42.3333333","-7.8666666","147.0","ORENSE, SP","FM-12","99999","V020","330,1,N,0021,1","22000,1,9,N","010000,1,N,1","+0195,1","+0139,1","10187,1",,,,,,"02,99,1,01,1,01,1,00450,1,00,1,01,1",,,,,"99999,9,10015,1","0,1,005,1,+999,9",,,"SYN066AAXX  04094 08048 42460 23304 10195 20139 30015 40187 50005 81101;",
"08048099999","2010-08-04T12:00:00","4","42.3333333","-7.8666666","147.0","ORENSE, SP","FM-12","99999","V020","270,1,N,0026,1","22000,1,9,N","010000,1,N,1","+0277,1","+0154,1","10165,1","06,0000,9,1",,,,,"01,99,1,00,1,00,1,99999,9,00,1,02,1",,,,,"99999,9,09998,1","8,1,017,1,+999,9",,,"SYN072AAXX  04124 08048 12960 12705 10277 20154 39998 40165 58017 60001 80002;","Q01  00002PRCP06"
"08048099999","2010-08-04T15:00:00","4","42.3333333","-7.8666666","147.0","ORENSE, SP","FM-12","99999","V020","150,1,N,0015,1","22000,1,9,N","010000,1,N,1","+0338,1","+0148,1","10139,1",,,,,,"04,99,1,01,1,01,1,00450,1,00,1,02,1",,,,,"99999,9,09976,1","6,1,022,1,+999,9",,,"SYN066AAXX  04154 08048 42460 41503 10338 20148 39976 40139 56022 81102;",
"08048099999","2010-08-04T18:00:00","4","42.3333333","-7.8666666","147.0","ORENSE, SP","FM-12","99999","V020","040,1,N,0026,1","22000,1,9,N","010000,1,N,1","+0302,1","+0169,1","10137,1","12,0000,9,1",,,,,"03,99,1,01,1,01,1,00450,1,00,1,02,1",,,,"999,M,+0344,1","99999,9,09972,1","6,1,004,1,+999,9",,,"SYN082AAXX  04184 08048 12460 30405 10302 20169 39972 40137 56004 60002 81102 333 10344;","Q01  00002PRCP12"
"08048099999","2010-08-05T06:00:00","4","42.3333333","-7.8666666","147.0","ORENSE, SP","FM-12","99999","V020","280,1,N,0010,1","22000,1,9,N","010000,1,N,1","+0156,1","+0138,1","10170,1","12,0000,9,1","24,0000,9,1",,,,"02,99,1,01,1,01,1,00450,1,00,1,01,1","0714,9","01,9","999,+0110,9","999,N,+0156,1","99999,9,09996,1","5,1,000,1,+999,9",,,"SYN106AAXX  05064 08048 12460 22802 10156 20138 39996 40170 55000 60002 81101 333 20156 30011 50544 55119 70000;","Q01  00002PRCP24Q02  00002PRCP12"
"08048099999","2010-08-05T09:00:00","4","42.3333333","-7.8666666","147.0","ORENSE, SP","FM-12","99999","V020","360,1,N,0021,1","22000,1,9,N","010000,1,N,1","+0219,1","+0143,1","10167,1",,,,,,"02,99,1,01,1,01,1,00450,1,00,1,01,1",,,,,"99999,9,09997,1","0,1,001,1,+999,9",,,"SYN066AAXX  05094 08048 42460 23604 10219 20143 39997 40167 50001 81101;",
"08048099999","2010-08-05T12:00:00","4","42.3333333","-7.8666666","147.0","ORENSE, SP","FM-12","99999","V020","010,1,N,0015,1","22000,1,9,N","010000,1,N,1","+0280,1","+0135,1","10153,1","06,0000,9,1",,,,"00,1,+99999,9,99,9","00,99,1,00,1,00,1,99999,9,00,1,00,1",,,,,"99999,9,09986,1","8,1,011,1,+999,9",,,"SYN066AAXX  05124 08048 12960 00103 10280 20135 39986 40153 58011 60001;","Q01  00002PRCP06"
"08048099999","2010-08-05T15:00:00","4","42.3333333","-7.8666666","147.0","ORENSE, SP","FM-12","99999","V020","040,1,N,0031,1","22000,1,9,N","010000,1,N,1","+0309,1","+0118,1","10141,1",,,,,"00,1,+99999,9,99,9","00,99,1,00,1,00,1,99999,9,00,1,00,1",,,,,"99999,9,09976,1","7,1,010,1,+999,9",,,"SYN060AAXX  05154 08048 42960 00406 10309 20118 39976 40141 57010;",
"08048099999","2010-08-05T18:00:00","4","42.3333333","-7.8666666","147.0","ORENSE, SP","FM-12","99999","V020","010,1,N,0026,1","22000,1,9,N","010000,1,N,1","+0284,1","+0123,1","10132,1","12,0000,9,1",,,,"00,1,+99999,9,99,9","00,99,1,00,1,00,1,99999,9,00,1,00,1",,,,"999,M,+0313,1","99999,9,09966,1","7,1,010,1,+999,9",,,"SYN076AAXX  05184 08048 12960 00105 10284 20123 39966 40132 57010 60002 333 10313;","Q01  00002PRCP12"
"08048099999","2010-08-06T06:00:00","4","42.3333333","-7.8666666","147.0","ORENSE, SP","FM-12","99999","V020","240,1,N,0010,1","22000,1,9,N","010000,1,N,1","+0126,1","+0110,1","10165,1","12,0000,9,1","24,0000,9,1",,,"00,1,+99999,9,99,9","00,99,1,00,1,00,1,99999,9,00,1,00,1","0768,9","01,9","999,+0100,9","999,N,+0125,1","99999,9,09989,1","3,1,004,1,+999,9",,,"SYN100AAXX  06064 08048 12960 02402 10126 20110 39989 40165 53004 60002 333 20125 30010 50554 55128 70000;","Q01  00002PRCP24Q02  00002PRCP12"
"08048099999","2010-08-06T09:00:00","4","42.3333333","-7.8666666","147.0","ORENSE, SP","FM-12","99999","V020","130,1,N,0015,1","22000,1,9,N","010000,1,N,1","+0200,1","+0130,1","10160,1",,,,,"00,1,+99999,9,99,9","00,99,1,00,1,00,1,99999,9,00,1,00,1",,,,,"99999,9,09989,1","0,1,000,1,+999,9",,,"SYN060AAXX  06094 08048 42960 01303 10200 20130 39989 40160 50000;",
"08048099999","2010-08-06T12:00:00","4","42.3333333","-7.8666666","147.0","ORENSE, SP","FM-12","99999","V020","020,1,N,0015,1","22000,1,9,N","010000,1,N,1","+0290,1","+0132,1","10140,1","06,0000,9,1",,,,"00,1,+99999,9,99,9","00,99,1,00,1,00,1,99999,9,00,1,00,1",,,,,"99999,9,09974,1","7,1,015,1,+999,9",,,"SYN066AAXX  06124 08048 12960 00203 10290 20132 39974 40140 57015 60001;","Q01  00002PRCP06"
"08048099999","2010-08-06T15:00:00","4","42.3333333","-7.8666666","147.0","ORENSE, SP","FM-12","99999","V020","160,1,N,0015,1","22000,1,9,N","010000,1,N,1","+0341,1","+0141,1","10119,1",,,,,"00,1,+99999,9,99,9","00,99,1,00,1,00,1,99999,9,00,1,00,1",,,,,"99999,9,09956,1","6,1,018,1,+999,9",,,"SYN060AAXX  06154 08048 42960 01603 10341 20141 39956 40119 56018;",
"08048099999","2010-08-06T18:00:00","4","42.3333333","-7.8666666","147.0","ORENSE, SP","FM-12","99999","V020","050,1,N,0026,1","22000,1,9,N","010000,1,N,1","+0334,1","+0145,1","10114,1","12,0000,9,1",,,,"00,1,+99999,9,99,9","00,99,1,00,1,00,1,99999,9,00,1,00,1",,,,"999,M,+0351,1","99999,9,09951,1","6,1,005,1,+999,9",,,"SYN076AAXX  06184 08048 12960 00505 10334 20145 39951 40114 56005 60002 333 10351;","Q01  00002PRCP12"
"08048099999","2010-08-09T06:00:00","4","42.3333333","-7.8666666","147.0","ORENSE, SP","FM-12","99999","V020","170,1,N,0010,1","22000,1,9,N","010000,1,N,1","+0183,1","+0161,1","10167,1","12,0000,9,1","24,0000,9,1",,,,"04,99,1,03,1,06,1,00450,1,03,1,01,1","0618,9",,,"999,N,+0183,1","99999,9,09995,1","4,1,000,1,+999,9","02,1",,"SYN100AAXX  09064 08048 11460 41702 10183 20161 39995 40167 54000 60002 702// 83631 333 20183 55103 70000;","Q01  00002PRCP24Q02  00002PRCP12"
"08048099999","2010-08-09T09:00:00","4","42.3333333","-7.8666666","147.0","ORENSE, SP","FM-12","99999","V020","020,1,N,0015,1","22000,1,9,N","010000,1,N,1","+0230,1","+0172,1","10170,1",,,,,,"02,99,1,02,1,06,1,00450,1,00,1,00,1",,,,,"99999,9,10001,1","1,1,006,1,+999,9",,,"SYN066AAXX  09094 08048 42460 20203 10230 20172 30001 40170 51006 82600;",
"08048099999","2010-08-09T12:00:00","4","42.3333333","-7.8666666","147.0","ORENSE, SP","FM-12","99999","V020","140,1,N,0015,1","22000,1,9,N","010000,1,N,1","+0298,1","+0159,1","10158,1","06,0000,9,1",,,,"00,1,+99999,9,99,9","00,99,1,00,1,00,1,99999,9,00,1,00,1",,,,,"99999,9,09992,1","8,1,009,1,+999,9",,,"SYN066AAXX  09124 08048 12960 01403 10298 20159 39992 40158 58009 60001;","Q01  00002PRCP06"
"08048099999","2010-08-09T15:00:00","4","42.3333333","-7.8666666","147.0","ORENSE, SP","FM-12","99999","V020","330,1,N,0031,1","22000,1,9,N","010000,1,N,1","+0345,1","+0139,1","10137,1",,,,,"00,1,+99999,9,99,9","00,99,1,00,1,00,1,99999,9,00,1,00,1",,,,,"99999,9,09974,1","7,1,018,1,+999,9",,,"SYN060AAXX  09154 08048 42960 03306 10345 20139 39974 40137 57018;",
"08048099999","2010-08-09T18:00:00","4","42.3333333","-7.8666666","147.0","ORENSE, SP","FM-12","99999","V020","040,1,N,0015,1","22000,1,9,N","010000,1,N,1","+0346,1","+0169,1","10127,1","12,0000,9,1",,,,"00,1,+99999,9,99,9","00,99,1,00,1,00,1,99999,9,00,1,00,1",,,,"999,M,+0364,1","99999,9,09965,1","7,1,009,1,+999,9",,,"SYN076AAXX  09184 08048 12960 00403 10346 20169 39965 40127 57009 60002 333 10364;","Q01  00002PRCP12"
"08048099999","2010-08-10T06:00:00","4","42.3333333","-7.8666666","147.0","ORENSE, SP","FM-12","99999","V020","220,1,N,0005,1","03600,1,9,N","010000,1,N,1","+0170,1","+0146,1","10168,1","12,0000,9,1","24,0000,9,1",,,,"06,99,1,03,1,06,1,00450,1,03,1,00,1","0678,9","01,9","999,+0140,9","999,N,+0168,1","99999,9,09995,1","3,1,007,1,+999,9","02,1",,"SYN112AAXX  10064 08048 11460 62201 10170 20146 39995 40168 53007 60002 702// 83630 333 20168 30014 50624 55113 70000;","Q01  00002PRCP24Q02  00002PRCP12"
"08048099999","2010-08-10T09:00:00","4","42.3333333","-7.8666666","147.0","ORENSE, SP","FM-12","99999","V020","220,1,N,0015,1","22000,1,9,N","010000,1,N,1","+0220,1","+0158,1","10174,1",,,,,"00,1,+99999,9,99,9","00,99,1,00,1,00,1,99999,9,00,1,00,1",,,,,"99999,9,10004,1","1,1,009,1,+999,9",,,"SYN060AAXX  10094 08048 42960 02203 10220 20158 30004 40174 51009;",
"08048099999","2010-08-10T12:00:00","4","42.3333333","-7.8666666","147.0","ORENSE, SP","FM-12","99999","V020","030,1,N,0015,1","22000,1,9,N","010000,1,N,1","+0322,1","+0143,1","10158,1","06,0000,9,1",,,,,"03,99,1,00,1,00,1,99999,9,00,1,02,1",,,,,"99999,9,09994,1","8,1,010,1,+999,9",,,"SYN072AAXX  10124 08048 12960 30303 10322 20143 39994 40158 58010 60001 80002;","Q01  00002PRCP06"
"08048099999","2010-08-10T15:00:00","4","42.3333333","-7.8666666","147.0","ORENSE, SP","FM-12","99999","V020","320,1,N,0021,1","22000,1,9,N","010000,1,N,1","+0368,1","+0094,1","10142,1",,,,,,"04,99,1,03,1,00,1,01750,1,01,1,01,1",,,,,"99999,9,09980,1","7,1,014,1,+999,9",,,"SYN066AAXX  10154 08048 42760 43204 10368 20094 39980 40142 57014 83011;",
"08048099999","2010-08-10T18:00:00","4","42.3333333","-7.8666666","147.0","ORENSE, SP","FM-12","99999","V020","330,1,N,0031,1","22000,1,9,N","010000,1,N,1","+0336,1","+0083,1","10145,1","12,0000,9,1",,,,,"03,99,1,02,1,00,1,01750,1,01,1,01,1",,,,"999,M,+0375,1","99999,9,09981,1","3,1,001,1,+999,9",,,"SYN082AAXX  10184 08048 12760 33306 10336 20083 39981 40145 53001 60002 82011 333 10375;","Q01  00002PRCP12"
"08048099999","2010-08-11T06:00:00","4","42.3333333","-7.8666666","147.0","ORENSE, SP","FM-12","99999","V020","200,1,N,0010,1","22000,1,9,N","010000,1,N,1","+0114,1","+0084,1","10207,1","12,0000,9,1","24,0000,9,1",,,,"03,99,1,01,1,06,1,00450,1,04,1,00,1","0744,9","01,9","999,+0060,9","999,N,+0112,1","99999,9,10029,1","3,1,009,1,+999,9","02,1",,"SYN112AAXX  11064 08048 11460 32002 10114 20084 30029 40207 53009 60002 702// 81640 333 20112 30006 50744 55124 70000;","Q01  00002PRCP24Q02  00002PRCP12"
"08048099999","2010-08-11T09:00:00","4","42.3333333","-7.8666666","147.0","ORENSE, SP","FM-12","99999","V020","250,1,N,0010,1","22000,1,9,N","010000,1,N,1","+0186,1","+0107,1","10203,1",,,,,"00,1,+99999,9,99,9","00,99,1,00,1,00,1,99999,9,00,1,00,1",,,,,"99999,9,10030,1","1,1,001,1,+999,9",,,"SYN060AAXX  11094 08048 42960 02502 10186 20107 30030 40203 51001;",
"08048099999","2010-08-11T12:00:00","4","42.3333333","-7.8666666","147.0","ORENSE, SP","FM-12","99999","V020","080,1,N,0015,1","22000,1,9,N","010000,1,N,1","+0308,1","+0091,1","10180,1","06,0000,9,1",,,,,"03,99,1,02,1,00,1,02250,1,03,1,01,1",,,,,"99999,9,10014,1","7,1,016,1,+999,9",,,"SYN072AAXX  11124 08048 12860 30803 10308 20091 30014 40180 57016 60001 82031;","Q01  00002PRCP06"
"08048099999","2010-08-11T15:00:00","4","42.3333333","-7.8666666","147.0","ORENSE, SP","FM-12","99999","V020","300,1,N,0026,1","22000,1,9,N","010000,1,N,1","+0346,1","+0084,1","10157,1",,,,,,"03,99,1,02,1,00,1,02250,1,04,1,01,1",,,,,"99999,9,09994,1","7,1,020,1,+999,9",,,"SYN066AAXX  11154 08048 42860 33005 10346 20084 39994 40157 57020 82041;",
"08048099999","2010-08-11T18:00:00","4","42.3333333","-7.8666666","147.0","ORENSE, SP","FM-12","99999","V020","330,1,N,0036,1","22000,1,9,N","010000,1,N,1","+0326,1","+0160,1","10156,1","12,0000,9,1",,,,,"02,99,1,01,1,01,1,00450,1,04,1,01,1",,,,"999,M,+0360,1","99999,9,09992,1","5,1,002,1,+999,9",,,"SYN082AAXX  11184 08048 12460 23307 10326 20160 39992 40156 55002 60002 81141 333 10360;","Q01  00002PRCP12"
"08048099999","2010-08-12T06:00:00","4","42.3333333","-7.8666666","147.0","ORENSE, SP","FM-12","99999","V020","260,1,N,0005,1","22000,1,9,N","010000,1,N,1","+0196,1","+0174,1","10181,1","12,0000,9,1","24,0000,9,1",,,,"02,99,1,02,1,05,1,00450,1,00,1,00,1","0756,9","01,9","999,+0160,9","999,N,+0194,1","99999,9,10009,1","5,1,002,1,+999,9","02,1",,"SYN112AAXX  12064 08048 11460 22601 10196 20174 30009 40181 55002 60002 702// 82500 333 20194 30016 50664 55126 70000;","Q01  00002PRCP24Q02  00002PRCP12"
"08048099999","2010-08-12T09:00:00","4","42.3333333","-7.8666666","147.0","ORENSE, SP","FM-12","99999","V020","050,1,N,0021,1","00420,1,9,N","010000,1,N,1","+0255,1","+0161,1","10181,1",,,,,,"05,99,1,05,1,05,1,00450,1,00,1,00,1",,,,,"99999,9,10013,1","1,1,004,1,+999,9",,,"SYN066AAXX  12094 08048 42460 50504 10255 20161 30013 40181 51004 85500;",
"08048099999","2010-08-12T12:00:00","4","42.3333333","-7.8666666","147.0","ORENSE, SP","FM-12","99999","V020","040,1,N,0026,1","00750,1,9,N","010000,1,N,1","+0292,1","+0142,1","10172,1","06,0000,9,1",,,,,"05,99,1,05,1,02,1,00800,1,00,1,00,1",,,,,"99999,9,10006,1","8,1,007,1,+999,9",,,"SYN072AAXX  12124 08048 12560 50405 10292 20142 30006 40172 58007 60001 85200;","Q01  00002PRCP06"
"08048099999","2010-08-12T15:00:00","4","42.3333333","-7.8666666","147.0","ORENSE, SP","FM-12","99999","V020","340,1,N,0031,1","22000,1,9,N","010000,1,N,1","+0294,1","+0144,1","10162,1",,,,,,"04,99,1,03,1,02,1,00800,1,00,1,01,1",,,,,"99999,9,09996,1","7,1,010,1,+999,9",,,"SYN066AAXX  12154 08048 42560 43406 10294 20144 39996 40162 57010 83201;",
"08048099999","2010-08-12T18:00:00","4","42.3333333","-7.8666666","147.0","ORENSE, SP","FM-12","99999","V020","040,1,N,0026,1","22000,1,9,N","010000,1,N,1","+0256,1","+0144,1","10169,1","12,0000,9,1",,,,,"04,99,1,00,1,00,1,99999,9,00,1,02,1",,,,"999,M,+0300,1","99999,9,10001,1","3,1,005,1,+999,9",,,"SYN082AAXX  12184 08048 12960 40405 10256 20144 30001 40169 53005 60002 80002 333 10300;","Q01  00002PRCP12"
"08048099999","2010-08-13T06:00:00","4","42.3333333","-7.8666666","147.0","ORENSE, SP","FM-12","99999","V020","200,1,N,0010,1","22000,1,9,N","010000,1,N,1","+0128,1","+0109,1","10198,1","12,0000,9,1","24,0000,9,1",,,,"01,99,1,01,1,06,1,00450,1,00,1,00,1","0732,9","01,9","999,+0090,9","999,N,+0127,1","99999,9,10022,1","2,1,006,1,+999,9","02,1",,"SYN112AAXX  13064 08048 11460 12002 10128 20109 30022 40198 52006 60002 702// 81600 333 20127 30009 50514 55122 70000;","Q01  00002PRCP24Q02  00002PRCP12"
"08048099999","2010-08-13T09:00:00","4","42.3333333","-7.8666666","147.0","ORENSE, SP","FM-12","99999","V020","230,1,N,0010,1","22000,1,9,N","010000,1,N,1","+0197,1","+0127,1","10193,1",,,,,,"03,99,1,01,1,01,1,00450,1,07,1,00,1",,,,,"99999,9,10021,1","8,1,001,1,+999,9",,,"SYN066AAXX  13094 08048 42460 32302 10197 20127 30021 40193 58001 81170;",
"08048099999","2010-08-13T12:00:00","4","42.3333333","-7.8666666","147.0","ORENSE, SP","FM-12","99999","V020","040,1,N,0031,1","22000,1,9,N","010000,1,N,1","+0262,1","+0108,1","10174,1","06,0000,9,1",,,,,"03,99,1,03,1,02,1,00450,1,00,1,00,1",,,,,"99999,9,10006,1","7,1,015,1,+999,9",,,"SYN072AAXX  13124 08048 12460 30406 10262 20108 30006 40174 57015 60001 83200;","Q01  00002PRCP06"
"08048099999","2010-08-13T15:00:00","4","42.3333333","-7.8666666","147.0","ORENSE, SP","FM-12","99999","V020","020,1,N,0026,1","22000,1,9,N","010000,1,N,1","+0272,1","+0124,1","10160,1",,,,,,"01,99,1,01,1,01,1,00450,1,00,1,00,1",,,,,"99999,9,09993,1","6,1,013,1,+999,9",,,"SYN066AAXX  13154 08048 42460 10205 10272 20124 39993 40160 56013 81100;",
"08048099999","2010-08-13T18:00:00","4","42.3333333","-7.8666666","147.0","ORENSE, SP","FM-12","99999","V020","020,1,N,0026,1","22000,1,9,N","010000,1,N,1","+0244,1","+0117,1","10157,1","12,0000,9,1",,,,,"01,99,1,01,1,01,1,00450,1,00,1,00,1",,,,"999,M,+0283,1","99999,9,09988,1","6,1,005,1,+999,9",,,"SYN082AAXX  13184 08048 12460 10205 10244 20117 39988 40157 56005 60002 81100 333 10283;","Q01  00002PRCP12"
"08048099999","2010-08-16T06:00:00","4","42.3333333","-7.8666666","147.0","ORENSE, SP","FM-12","99999","V020","190,1,N,0010,1","22000,1,9,N","010000,1,N,1","+0110,1","+0094,1","10190,1","12,0000,9,1","24,0000,9,1",,,,"02,99,1,01,1,00,1,02250,1,04,1,01,1","0750,9",,,"999,N,+0109,1","99999,9,10013,1","3,1,004,1,+999,9",,,"SYN094AAXX  16064 08048 12860 21902 10110 20094 30013 40190 53004 60002 81041 333 20109 55125 70000;","Q01  00002PRCP24Q02  00002PRCP12"
"08048099999","2010-08-16T09:00:00","4","42.3333333","-7.8666666","147.0","ORENSE, SP","FM-12","99999","V020","230,1,N,0010,1","22000,1,9,N","010000,1,N,1","+0182,1","+0117,1","10188,1",,,,,"00,1,+99999,9,99,9","00,99,1,00,1,00,1,99999,9,00,1,00,1",,,,,"99999,9,10015,1","0,1,002,1,+999,9",,,"SYN060AAXX  16094 08048 42960 02302 10182 20117 30015 40188 50002;",
"08048099999","2010-08-16T12:00:00","4","42.3333333","-7.8666666","147.0","ORENSE, SP","FM-12","99999","V020","340,1,N,0015,1","22000,1,9,N","010000,1,N,1","+0270,1","+0130,1","10171,1","06,0000,9,1",,,,"00,1,+99999,9,99,9","00,99,1,00,1,00,1,99999,9,00,1,00,1",,,,,"99999,9,10003,1","8,1,012,1,+999,9",,,"SYN066AAXX  16124 08048 12960 03403 10270 20130 30003 40171 58012 60001;","Q01  00002PRCP06"
"08048099999","2010-08-16T15:00:00","4","42.3333333","-7.8666666","147.0","ORENSE, SP","FM-12","99999","V020","010,1,N,0026,1","22000,1,9,N","010000,1,N,1","+0319,1","+0106,1","10153,1",,,,,,"01,99,1,01,1,01,1,00450,1,00,1,00,1",,,,,"99999,9,09988,1","8,1,015,1,+999,9",,,"SYN066AAXX  16154 08048 42460 10105 10319 20106 39988 40153 58015 81100;",
"08048099999","2010-08-16T18:00:00","4","42.3333333","-7.8666666","147.0","ORENSE, SP","FM-12","99999","V020","020,1,N,0021,1","22000,1,9,N","010000,1,N,1","+0315,1","+0118,1","10152,1","12,0000,9,1",,,,"00,1,+99999,9,99,9","00,99,1,00,1,00,1,99999,9,00,1,00,1",,,,"999,M,+0332,1","99999,9,09987,1","6,1,001,1,+999,9",,,"SYN076AAXX  16184 08048 12960 00204 10315 20118 39987 40152 56001 60002 333 10332;","Q01  00002PRCP12"
"08048099999","2010-08-17T06:00:00","4","42.3333333","-7.8666666","147.0","ORENSE, SP","FM-12","99999","V020","190,1,N,0010,1","03600,1,9,N","010000,1,N,1","+0133,1","+0120,1","10192,1","12,0000,9,1","24,0000,9,1",,,,"05,99,1,03,1,06,1,00250,1,04,1,01,1","0744,9","01,9","999,+0080,9","999,N,+0133,1","99999,9,10016,1","3,1,005,1,+999,9",,,"SYN106AAXX  17064 08048 12360 51902 10133 20120 30016 40192 53005 60002 83641 333 20133 30008 50544 55124 70000;","Q01  00002PRCP24Q02  00002PRCP12"
"08048099999","2010-08-17T09:00:00","4","42.3333333","-7.8666666","147.0","ORENSE, SP","FM-12","99999","V020","010,1,N,0015,1","22000,1,9,N","010000,1,N,1","+0185,1","+0140,1","10193,1",,,,,,"01,99,1,01,1,06,1,00250,1,00,1,00,1",,,,,"99999,9,10020,1","1,1,004,1,+999,9",,,"SYN066AAXX  17094 08048 42360 10103 10185 20140 30020 40193 51004 81600;",
"08048099999","2010-08-17T12:00:00","4","42.3333333","-7.8666666","147.0","ORENSE, SP","FM-12","99999","V020","330,1,N,0015,1","22000,1,9,N","010000,1,N,1","+0286,1","+0133,1","10168,1","06,0000,9,1",,,,,"01,99,1,01,1,06,1,00450,1,00,1,00,1",,,,,"99999,9,10001,1","8,1,019,1,+999,9",,,"SYN072AAXX  17124 08048 12460 13303 10286 20133 30001 40168 58019 60001 81600;","Q01  00002PRCP06"
"08048099999","2010-08-17T15:00:00","4","42.3333333","-7.8666666","147.0","ORENSE, SP","FM-12","99999","V020","270,1,N,0026,1","22000,1,9,N","010000,1,N,1","+0349,1","+0119,1","10139,1",,,,,,"02,99,1,00,1,00,1,99999,9,00,1,02,1",,,,,"99999,9,09976,1","7,1,025,1,+999,9",,,"SYN066AAXX  17154 08048 42960 22705 10349 20119 39976 40139 57025 80002;",
"08048099999","2010-08-17T18:00:00","4","42.3333333","-7.8666666","147.0","ORENSE, SP","FM-12","99999","V020","320,1,N,0041,1","22000,1,9,N","010000,1,N,1","+0313,1","+0089,1","10142,1","12,0000,9,1",,,,,"01,99,1,01,1,00,1,02250,1,04,1,01,1",,,,"999,M,+0358,1","99999,9,09977,1","3,1,001,1,+999,9",,,"SYN082AAXX  17184 08048 12860 13208 10313 20089 39977 40142 53001 60002 81041 333 10358;","Q01  00002PRCP12"
"08048099999","2010-08-18T06:00:00","4","42.3333333","-7.8666666","147.0","ORENSE, SP","FM-12","99999","V020","270,1,N,0005,1","03600,1,9,N","010000,1,N,1","+0162,1","+0137,1","10162,1","12,0000,9,1","24,0000,9,1",,,,"07,99,1,02,1,05,1,00800,1,07,1,02,1","0726,9","01,9","999,+0110,9","999,N,+0160,1","99999,9,09988,1","5,1,002,1,+999,9",,,"SYN106AAXX  18064 08048 12560 72701 10162 20137 39988 40162 55002 60002 82572 333 20160 30011 50594 55121 70000;","Q01  00002PRCP24Q02  00002PRCP12"
"08048099999","2010-08-18T09:00:00","4","42.3333333","-7.8666666","147.0","ORENSE, SP","FM-12","99999","V020","220,1,N,0010,1","03600,1,9,N","010000,1,N,1","+0208,1","+0158,1","10160,1",,,,,,"07,99,1,04,1,05,1,00800,1,07,1,99,9",,,,,"99999,9,09989,1","0,1,001,1,+999,9",,,"SYN066AAXX  18094 08048 42560 72202 10208 20158 39989 40160 50001 8457/;",
"08048099999","2010-08-18T12:00:00","4","42.3333333","-7.8666666","147.0","ORENSE, SP","FM-12","99999","V020","240,1,N,0015,1","03600,1,9,N","010000,1,N,1","+0274,1","+0173,1","10136,1","06,0000,9,1",,,,,"05,99,1,04,1,02,1,00450,1,04,1,01,1",,,,,"99999,9,09970,1","8,1,019,1,+999,9",,,"SYN072AAXX  18124 08048 12460 52403 10274 20173 39970 40136 58019 60001 84241;","Q01  00002PRCP06"
"08048099999","2010-08-18T15:00:00","4","42.3333333","-7.8666666","147.0","ORENSE, SP","FM-12","99999","V020","300,1,N,0041,1","22000,1,9,N","010000,1,N,1","+0287,1","+0166,1","10127,1",,,,,,"03,99,1,02,1,02,1,00450,1,04,1,02,1",,,,,"99999,9,09961,1","6,1,009,1,+999,9",,,"SYN066AAXX  18154 08048 42460 33008 10287 20166 39961 40127 56009 82242;",
"08048099999","2010-08-18T18:00:00","4","42.3333333","-7.8666666","147.0","ORENSE, SP","FM-12","99999","V020","280,1,N,0031,1","22000,1,9,N","010000,1,N,1","+0282,1","+0148,1","10117,1","12,0000,9,1",,,,,"02,99,1,01,1,01,1,00450,1,00,1,02,1",,,,"999,M,+0306,1","99999,9,09951,1","7,1,010,1,+999,9",,,"SYN082AAXX  18184 08048 12460 22806 10282 20148 39951 40117 57010 60002 81102 333 10306;","Q01  00002PRCP12"
"08048099999","2010-08-19T06:00:00","4","42.3333333","-7.8666666","147.0","ORENSE, SP","FM-12","99999","V020","280,1,N,0010,1","00420,1,9,N","010000,1,N,1","+0138,1","+0125,1","10141,1","12,0000,9,1","24,0000,9,1",,,,"07,99,1,07,1,06,1,00450,1,00,1,00,1","0474,9","01,9","999,+0100,9","999,N,+0133,1","99999,9,09966,1","5,1,001,1,+999,9",,,"SYN106AAXX  19064 08048 12460 72802 10138 20125 39966 40141 55001 60002 87600 333 20133 30010 50414 55079 70000;","Q01  00002PRCP24Q02  00002PRCP12"
"08048099999","2010-08-19T09:00:00","4","42.3333333","-7.8666666","147.0","ORENSE, SP","FM-12","99999","V020","280,1,N,0010,1","00210,1,9,N","010000,1,N,1","+0181,1","+0148,1","10144,1",,,,,,"07,99,1,07,1,06,1,00250,1,04,1,00,1",,,,,"99999,9,09972,1","1,1,006,1,+999,9",,,"SYN066AAXX  19094 08048 42360 72802 10181 20148 39972 40144 51006 87640;",
"08048099999","2010-08-19T12:00:00","4","42.3333333","-7.8666666","147.0","ORENSE, SP","FM-12","99999","V020","080,1,N,0021,1","22000,1,9,N","010000,1,N,1","+0280,1","+0131,1","10129,1","06,0000,9,1",,,,,"01,99,1,00,1,00,1,99999,9,00,1,02,1",,,,,"99999,9,09963,1","8,1,009,1,+999,9",,,"SYN072AAXX  19124 08048 12960 10804 10280 20131 39963 40129 58009 60001 80002;","Q01  00002PRCP06"
"08048099999","2010-08-19T15:00:00","4","42.3333333","-7.8666666","147.0","ORENSE, SP","FM-12","99999","V020","310,1,N,0021,1","22000,1,9,N","010000,1,N,1","+0332,1","+0105,1","10112,1",,,,,,"01,99,1,01,1,01,1,00450,1,00,1,00,1",,,,,"99999,9,09949,1","7,1,014,1,+999,9",,,"SYN066AAXX  19154 08048 42460 13104 10332 20105 39949 40112 57014 81100;",
"08048099999","2010-08-19T18:00:00","4","42.3333333","-7.8666666","147.0","ORENSE, SP","FM-12","99999","V020","330,1,N,0031,1","22000,1,9,N","010000,1,N,1","+0317,1","+0168,1","10109,1","12,0000,9,1",,,,,"02,99,1,01,1,01,1,00450,1,00,1,02,1",,,,"999,M,+0349,1","99999,9,09945,1","5,1,004,1,+999,9",,,"SYN082AAXX  19184 08048 12460 23306 10317 20168 39945 40109 55004 60002 81102 333 10349;","Q01  00002PRCP12"
"08048099999","2010-08-20T06:00:00","4","42.3333333","-7.8666666","147.0","ORENSE, SP","FM-12","99999","V020","230,1,N,0010,1","22000,1,9,N","010000,1,N,1","+0148,1","+0130,1","10189,1","12,0000,9,1","24,0000,9,1",,,,"02,99,1,01,1,00,1,02250,1,08,1,01,1","0600,9","01,9","999,+0120,9","999,N,+0147,1","99999,9,10014,1","3,1,018,1,+999,9",,,"SYN106AAXX  20064 08048 12860 22302 10148 20130 30014 40189 53018 60002 81081 333 20147 30012 50564 55100 70000;","Q01  00002PRCP24Q02  00002PRCP12"
"08048099999","2010-08-20T09:00:00","4","42.3333333","-7.8666666","147.0","ORENSE, SP","FM-12","99999","V020","050,1,N,0010,1","22000,1,9,N","010000,1,N,1","+0202,1","+0154,1","10193,1",,,,,,"02,99,1,02,1,00,1,02250,1,03,1,00,1",,,,,"99999,9,10021,1","1,1,007,1,+999,9",,,"SYN066AAXX  20094 08048 42860 20502 10202 20154 30021 40193 51007 82030;",
"08048099999","2010-08-20T12:00:00","4","42.3333333","-7.8666666","147.0","ORENSE, SP","FM-12","99999","V020","060,1,N,0021,1","22000,1,9,N","010000,1,N,1","+0304,1","+0141,1","10185,1","06,0000,9,1",,,,"00,1,+99999,9,99,9","00,99,1,00,1,00,1,99999,9,00,1,00,1",,,,,"99999,9,10019,1","8,1,002,1,+999,9",,,"SYN066AAXX  20124 08048 12960 00604 10304 20141 30019 40185 58002 60001;","Q01  00002PRCP06"
"08048099999","2010-08-20T15:00:00","4","42.3333333","-7.8666666","147.0","ORENSE, SP","FM-12","99999","V020","330,1,N,0026,1","22000,1,9,N","010000,1,N,1","+0344,1","+0153,1","10172,1",,,,,"00,1,+99999,9,99,9","00,99,1,00,1,00,1,99999,9,00,1,00,1",,,,,"99999,9,10009,1","8,1,010,1,+999,9",,,"SYN060AAXX  20154 08048 42960 03305 10344 20153 30009 40172 58010;",
"08048099999","2010-08-20T18:00:00","4","42.3333333","-7.8666666","147.0","ORENSE, SP","FM-12","99999","V020","280,1,N,0031,1","22000,1,9,N","010000,1,N,1","+0344,1","+0158,1","10170,1","12,0000,9,1",,,,"00,1,+99999,9,99,9","00,99,1,00,1,00,1,99999,9,00,1,00,1",,,,"999,M,+0354,1","99999,9,10007,1","6,1,002,1,+999,9",,,"SYN076AAXX  20184 08048 12960 02806 10344 20158 30007 40170 56002 60002 333 10354;","Q01  00002PRCP12"
"08048099999","2010-08-23T06:00:00","4","42.3333333","-7.8666666","147.0","ORENSE, SP","FM-12","99999","V020","240,1,N,0010,1","00420,1,9,N","010000,1,N,1","+0200,1","+0158,1","10132,1","12,0000,9,1","24,0000,9,1",,,,"08,99,1,08,1,05,1,00450,1,99,9,99,9","0552,9",,,"999,N,+0193,1","99999,9,09961,1","7,1,012,1,+999,9","02,1",,"SYN100AAXX  23064 08048 11460 82402 10200 20158 39961 40132 57012 60002 702// 885// 333 20193 55092 70000;","Q01  00002PRCP24Q02  00002PRCP12"
"08048099999","2010-08-23T09:00:00","4","42.3333333","-7.8666666","147.0","ORENSE, SP","FM-12","99999","V020","210,1,N,0041,1","00900,1,9,N","010000,1,N,1","+0241,1","+0159,1","10119,1",,,,,,"05,99,1,05,1,08,1,00450,1,00,1,02,1",,,,,"99999,9,09951,1","6,1,010,1,+999,9",,,"SYN066AAXX  23094 08048 42460 52108 10241 20159 39951 40119 56010 85802;",
"08048099999","2010-08-23T12:00:00","4","42.3333333","-7.8666666","147.0","ORENSE, SP","FM-12","99999","V020","230,1,N,0036,1","00420,1,9,N","010000,1,N,1","+0265,1","+0167,1","10112,1","06,9999,9,9",,"6,1,06,1","2,1,06,1",,"07,99,1,07,1,05,1,00450,1,99,9,99,9",,,,,"99999,9,09945,1","6,1,006,1,+999,9","21,1",,"SYN078AAXX  23124 08048 11460 72307 10265 20167 39945 40112 56006 69901 72162 875//;","Q01  00002PRCP06Q02  00002PRCP06"
"08048099999","2010-08-23T15:00:00","4","42.3333333","-7.8666666","147.0","ORENSE, SP","FM-12","99999","V020","250,1,N,0036,1","00420,1,9,N","010000,1,N,1","+0264,1","+0177,1","10113,1",,,"5,1,03,1","2,1,03,1",,"07,99,1,07,1,05,1,00450,1,99,9,99,9",,,,,"99999,9,09946,1","3,1,001,1,+999,9","50,1",,"SYN072AAXX  23154 08048 41460 72507 10264 20177 39946 40113 53001 75052 875//;",
"08048099999","2010-08-23T18:00:00","4","42.3333333","-7.8666666","147.0","ORENSE, SP","FM-12","99999","V020","240,1,N,0026,1","00900,1,9,N","010000,1,N,1","+0246,1","+0188,1","10121,1","12,0000,2,1",,"5,1,06,1","2,1,06,1",,"07,99,1,07,1,08,1,00450,1,99,9,99,9",,,,"999,M,+0303,1","99999,9,09953,1","1,1,007,1,+999,9","02,1",,"SYN088AAXX  23184 08048 11460 72405 10246 20188 39953 40121 51007 69902 70252 878// 333 10303;",
"08048099999","2010-08-24T06:00:00","4","42.3333333","-7.8666666","147.0","ORENSE, SP","FM-12","99999","V020","310,1,N,0010,1","00420,1,9,N","010000,1,N,1","+0178,1","+0161,1","10167,1","12,0005,9,1","24,0005,9,1",,,,"08,99,1,08,1,07,1,00450,1,99,9,99,9","0240,9","09,9","999,+0170,9","999,N,+0174,1","99999,9,09994,1","1,1,009,1,+999,9","50,1",,"SYN112AAXX  24064 08048 11460 83102 10178 20161 39994 40167 51009 69942 750// 887// 333 20174 31017 50394 55040 70004;",
"08048099999","2010-08-24T09:00:00","4","42.3333333","-7.8666666","147.0","ORENSE, SP","FM-12","99999","V020","150,1,N,0015,1","22000,1,9,N","010000,1,N,1","+0208,1","+0154,1","10176,1",,,,,,"04,99,1,04,1,02,1,00450,1,00,1,00,1",,,,,"99999,9,10005,1","1,1,011,1,+999,9",,,"SYN066AAXX  24094 08048 42460 41503 10208 20154 30005 40176 51011 84200;",
"08048099999","2010-08-24T12:00:00","4","42.3333333","-7.8666666","147.0","ORENSE, SP","FM-12","99999","V020","270,1,N,0021,1","22000,1,9,N","010000,1,N,1","+0255,1","+0134,1","10171,1","06,0000,2,1",,,,,"01,99,1,01,1,01,1,00450,1,00,1,00,1",,,,,"99999,9,10003,1","8,1,002,1,+999,9",,,"SYN072AAXX  24124 08048 12460 12704 10255 20134 30003 40171 58002 60001 81100;",
"08048099999","2010-08-24T15:00:00","4","42.3333333","-7.8666666","147.0","ORENSE, SP","FM-12","99999","V020","310,1,N,0031,1","22000,1,9,N","010000,1,N,1","+0306,1","+0142,1","10154,1",,,,,,"01,99,1,01,1,01,1,00450,1,00,1,01,1",,,,,"99999,9,09989,1","7,1,014,1,+999,9",,,"SYN066AAXX  24154 08048 42460 13106 10306 20142 39989 40154 57014 81101;",
"08048099999","2010-08-24T18:00:00","4","42.3333333","-7.8666666","147.0","ORENSE, SP","FM-12","99999","V020","280,1,N,0041,1","22000,1,9,N","010000,1,N,1","+0298,1","+0135,1","10152,1","12,0000,2,1",,,,,"01,99,1,01,1,00,1,02250,1,04,1,00,1",,,,"999,M,+0320,1","99999,9,09986,1","6,1,003,1,+999,9",,,"SYN082AAXX  24184 08048 12860 12808 10298 20135 39986 40152 56003 60002 81040 333 10320;",
"08048099999","2010-08-25T06:00:00","4","42.3333333","-7.8666666","147.0","ORENSE, SP","FM-12","99999","V020","290,1,N,0005,1","22000,1,9,N","010000,1,N,1","+0155,1","+0135,1","10173,1","12,0000,9,1","24,0000,2,1",,,"00,1,+99999,9,99,9","00,99,1,00,1,00,1,99999,9,00,1,00,1","0618,9","01,9","999,+0120,9","999,N,+0154,1","99999,9,09999,1","6,1,006,1,+999,9","00,1",,"SYN106AAXX  25064 08048 11960 02901 10155 20135 39999 40173 56006 60002 700// 333 20154 30012 50504 55103 70000;","Q01  00002PRCP12"
"08048099999","2010-08-25T09:00:00","4","42.3333333","-7.8666666","147.0","ORENSE, SP","FM-12","99999","V020","010,1,N,0010,1","22000,1,9,N","010000,1,N,1","+0214,1","+0150,1","10176,1",,,,,"00,1,+99999,9,99,9","00,99,1,00,1,00,1,99999,9,00,1,00,1",,,,,"99999,9,10005,1","1,1,006,1,+999,9",,,"SYN060AAXX  25094 08048 42960 00102 10214 20150 30005 40176 51006;",
"08048099999","2010-08-25T12:00:00","4","42.3333333","-7.8666666","147.0","ORENSE, SP","FM-12","99999","V020","350,1,N,0015,1","22000,1,9,N","010000,1,N,1","+0298,1","+0173,1","10158,1","06,0000,9,1",,,,,"01,99,1,01,1,01,1,00450,1,00,1,00,1",,,,,"99999,9,09992,1","8,1,013,1,+999,9",,,"SYN072AAXX  25124 08048 12460 13503 10298 20173 39992 40158 58013 60001 81100;","Q01  00002PRCP06"
"08048099999","2010-08-25T15:00:00","4","42.3333333","-7.8666666","147.0","ORENSE, SP","FM-12","99999","V020","320,1,N,0041,1","22000,1,9,N","010000,1,N,1","+0346,1","+0164,1","10130,1",,,,,,"01,99,1,01,1,01,1,00450,1,00,1,00,1",,,,,"99999,9,09967,1","7,1,025,1,+999,9",,,"SYN066AAXX  25154 08048 42460 13208 10346 20164 39967 40130 57025 81100;",
"08048099999","2010-08-25T18:00:00","4","42.3333333","-7.8666666","147.0","ORENSE, SP","FM-12","99999","V020","260,1,N,0031,1","22000,1,9,N","010000,1,N,1","+0335,1","+0192,1","10130,1","12,0000,9,1",,,,,"01,99,1,01,1,01,1,00450,1,00,1,00,1",,,,"999,M,+0359,1","99999,9,09967,1","5,1,000,1,+999,9",,,"SYN082AAXX  25184 08048 12460 12606 10335 20192 39967 40130 55000 60002 81100 333 10359;","Q01  00002PRCP12"
"08048099999","2010-08-26T06:00:00","4","42.3333333","-7.8666666","147.0","ORENSE, SP","FM-12","99999","V020","160,1,N,0010,1","09000,1,9,N","010000,1,N,1","+0178,1","+0165,1","10135,1","12,0000,9,1","24,0000,9,1",,,,"07,99,1,04,1,00,1,02250,1,07,1,02,1","0720,9","01,9","999,+0120,9","999,N,+0177,1","99999,9,09963,1","3,1,004,1,+999,9","02,1",,"SYN112AAXX  26064 08048 11860 71602 10178 20165 39963 40135 53004 60002 702// 84072 333 20177 30012 50514 55120 70000;","Q01  00002PRCP24Q02  00002PRCP12"
"08048099999","2010-08-26T09:00:00","4","42.3333333","-7.8666666","147.0","ORENSE, SP","FM-12","99999","V020","310,1,N,0015,1","03600,1,9,N","010000,1,N,1","+0220,1","+0176,1","10138,1",,,,,,"05,99,1,01,1,01,1,00450,1,07,1,00,1",,,,,"99999,9,09969,1","1,1,006,1,+999,9",,,"SYN066AAXX  26094 08048 42460 53103 10220 20176 39969 40138 51006 81170;",
"08048099999","2010-08-26T12:00:00","4","42.3333333","-7.8666666","147.0","ORENSE, SP","FM-12","99999","V020","350,1,N,0015,1","02100,1,9,N","010000,1,N,1","+0285,1","+0180,1","10127,1","06,0000,9,1",,,,,"07,99,1,07,1,00,1,02250,1,07,1,99,9",,,,,"99999,9,09961,1","8,1,008,1,+999,9",,,"SYN072AAXX  26124 08048 12860 73503 10285 20180 39961 40127 58008 60001 8707/;","Q01  00002PRCP06"
"08048099999","2010-08-26T15:00:00","4","42.3333333","-7.8666666","147.0","ORENSE, SP","FM-12","99999","V020","260,1,N,0057,1","03600,1,9,N","010000,1,N,1","+0317,1","+0152,1","10118,1",,,,,,"07,99,1,01,1,05,1,00450,1,04,1,04,1",,,,,"99999,9,09954,1","6,1,007,1,+999,9",,,"SYN066AAXX  26154 08048 42460 72611 10317 20152 39954 40118 56007 81544;",
"08048099999","2010-08-26T18:00:00","4","42.3333333","-7.8666666","147.0","ORENSE, SP","FM-12","99999","V020","280,1,N,0036,1","00750,1,9,N","010000,1,N,1","+0265,1","+0167,1","10123,1","12,0000,9,1",,,,,"07,99,1,06,1,05,1,00800,1,02,1,99,9",,,,"999,M,+0333,1","99999,9,09956,1","0,1,002,1,+999,9",,,"SYN082AAXX  26184 08048 12560 72807 10265 20167 39956 40123 50002 60002 8652/ 333 10333;","Q01  00002PRCP12"
"08048099999","2010-08-27T06:00:00","4","42.3333333","-7.8666666","147.0","ORENSE, SP","FM-12","99999","V020","270,1,N,0010,1","22000,1,9,N","010000,1,N,1","+0178,1","+0154,1","10165,1","12,0010,9,1","24,0010,9,1",,,,"06,99,1,04,1,08,1,00450,1,00,1,04,1","0372,9","09,9","999,+0140,9","999,N,+0174,1","99999,9,09992,1","3,1,008,1,+999,9","02,1",,"SYN112AAXX  27064 08048 11460 62702 10178 20154 39992 40165 53008 60012 702// 84804 333 20174 31014 50434 55062 70010;",
"08048099999","2010-08-27T09:00:00","4","42.3333333","-7.8666666","147.0","ORENSE, SP","FM-12","99999","V020","240,1,N,0021,1","00420,1,9,N","010000,1,N,1","+0213,1","+0152,1","10177,1",,,,,,"06,99,1,06,1,02,1,00450,1,00,1,01,1",,,,,"99999,9,10006,1","1,1,014,1,+999,9",,,"SYN066AAXX  27094 08048 42460 62404 10213 20152 30006 40177 51014 86201;",
"08048099999","2010-08-27T12:00:00","4","42.3333333","-7.8666666","147.0","ORENSE, SP","FM-12","99999","V020","330,1,N,0026,1","22000,1,9,N","010000,1,N,1","+0263,1","+0131,1","10177,1","06,0000,9,1",,,,,"01,99,1,01,1,01,1,00450,1,00,1,00,1",,,,,"99999,9,10009,1","1,1,003,1,+999,9",,,"SYN072AAXX  27124 08048 12460 13305 10263 20131 30009 40177 51003 60001 81100;","Q01  00002PRCP06"
"08048099999","2010-08-27T15:00:00","4","42.3333333","-7.8666666","147.0","ORENSE, SP","FM-12","99999","V020","120,1,N,0021,1","22000,1,9,N","010000,1,N,1","+0290,1","+0124,1","10173,1",,,,,,"01,99,1,01,1,01,1,00450,1,00,1,00,1",,,,,"99999,9,10006,1","6,1,003,1,+999,9",,,"SYN066AAXX  27154 08048 42460 11204 10290 20124 30006 40173 56003 81100;",
"08048099999","2010-08-27T18:00:00","4","42.3333333","-7.8666666","147.0","ORENSE, SP","FM-12","99999","V020","320,1,N,0036,1","22000,1,9,N","010000,1,N,1","+0275,1","+0138,1","10171,1","12,0000,9,1",,,,,"02,99,1,02,1,02,1,00450,1,00,1,00,1",,,,"999,M,+0306,1","99999,9,10004,1","5,1,002,1,+999,9",,,"SYN082AAXX  27184 08048 12460 23207 10275 20138 30004 40171 55002 60002 82200 333 10306;","Q01  00002PRCP12"
"08048099999","2010-08-30T06:00:00","4","42.3333333","-7.8666666","147.0","ORENSE, SP","FM-12","99999","V020","180,1,N,0005,1","22000,1,9,N","010000,1,N,1","+0134,1","+0120,1","10179,1","12,0000,9,1","24,0000,9,1",,,"00,1,+99999,9,99,9","00,99,1,00,1,00,1,99999,9,00,1,00,1","0708,9",,,"999,N,+0133,1","99999,9,10003,1","6,1,002,1,+999,9",,,"SYN088AAXX  30064 08048 12960 01801 10134 20120 30003 40179 56002 60002 333 20133 55118 70000;","Q01  00002PRCP24Q02  00002PRCP12"
"08048099999","2010-08-30T09:00:00","4","42.3333333","-7.8666666","147.0","ORENSE, SP","FM-12","99999","V020","170,1,N,0010,1","22000,1,9,N","010000,1,N,1","+0193,1","+0135,1","10175,1",,,,,"00,1,+99999,9,99,9","00,99,1,00,1,00,1,99999,9,00,1,00,1",,,,,"99999,9,10003,1","0,1,000,1,+999,9",,,"SYN060AAXX  30094 08048 42960 01702 10193 20135 30003 40175 50000;",
"08048099999","2010-08-30T12:00:00","4","42.3333333","-7.8666666","147.0","ORENSE, SP","FM-12","99999","V020","310,1,N,0026,1","22000,1,9,N","010000,1,N,1","+0302,1","+0135,1","10144,1","06,0000,9,1",,,,"00,1,+99999,9,99,9","00,99,1,00,1,00,1,99999,9,00,1,00,1",,,,,"99999,9,09979,1","8,1,024,1,+999,9",,,"SYN066AAXX  30124 08048 12960 03105 10302 20135 39979 40144 58024 60001;","Q01  00002PRCP06"
"08048099999","2010-08-30T15:00:00","4","42.3333333","-7.8666666","147.0","ORENSE, SP","FM-12","99999","V020","340,1,N,0021,1","22000,1,9,N","010000,1,N,1","+0370,2","+0111,1","10113,1",,,,,"00,1,+99999,9,99,9","00,99,1,00,1,00,1,99999,9,00,1,00,1",,,,,"99999,9,09952,1","7,1,027,1,+999,9",,,"SYN060AAXX  30154 08048 42960 03404 10370 20111 39952 40113 57027;",
"08048099999","2010-08-30T18:00:00","4","42.3333333","-7.8666666","147.0","ORENSE, SP","FM-12","99999","V020","050,1,N,0015,1","22000,1,9,N","010000,1,N,1","+0356,1","+0131,1","10103,1","12,0000,9,1",,,,,"01,99,1,01,1,00,1,02250,1,04,1,00,1",,,,"999,M,+0381,1","99999,9,09941,1","6,1,011,1,+999,9",,,"SYN082AAXX  30184 08048 12860 10503 10356 20131 39941 40103 56011 60002 81040 333 10381;","Q01  00002PRCP12"
"08048099999","2010-08-31T06:00:00","4","42.3333333","-7.8666666","147.0","ORENSE, SP","FM-12","99999","V020","250,1,N,0010,1","03600,1,9,N","010000,1,N,1","+0164,1","+0139,1","10112,1","12,0000,9,1","24,0000,9,1",,,,"06,99,1,02,1,06,1,00450,1,07,1,01,1","0690,9","01,9","999,+0100,9","999,N,+0162,1","99999,9,09939,1","6,1,005,1,+999,9",,,"SYN106AAXX  31064 08048 12460 62502 10164 20139 39939 40112 56005 60002 82671 333 20162 30010 50654 55115 70000;","Q01  00002PRCP24Q02  00002PRCP12"
"08048099999","2010-08-31T09:00:00","4","42.3333333","-7.8666666","147.0","ORENSE, SP","FM-12","99999","V020","200,1,N,0010,1","03600,1,9,N","010000,1,N,1","+0201,1","+0149,1","10110,1",,,,,,"08,99,1,01,1,06,1,00450,1,07,1,99,9",,,,,"99999,9,09940,1","0,1,001,1,+999,9",,,"SYN066AAXX  31094 08048 42460 82002 10201 20149 39940 40110 50001 8167/;",
"08048099999","2010-08-31T12:00:00","4","42.3333333","-7.8666666","147.0","ORENSE, SP","FM-12","99999","V020","360,1,N,0021,1","09000,1,9,N","010000,1,N,1","+0298,1","+0123,1","10088,1","06,0000,9,1",,,,,"06,99,1,01,1,00,1,02250,1,04,1,08,1",,,,,"99999,9,09923,1","8,1,017,1,+999,9",,,"SYN072AAXX  31124 08048 12860 63604 10298 20123 39923 40088 58017 60001 81048;","Q01  00002PRCP06"
"08048099999","2010-08-31T15:00:00","4","42.3333333","-7.8666666","147.0","ORENSE, SP","FM-12","99999","V020","150,1,N,0021,1","22000,1,9,N","010000,1,N,1","+0364,1","+0091,1","10053,1",,,,,,"04,99,1,02,1,00,1,02250,1,04,1,08,1",,,,,"99999,9,09892,1","7,1,031,1,+999,9",,,"SYN066AAXX  31154 08048 42860 41504 10364 20091 39892 40053 57031 82048;",
"08048099999","2010-08-31T18:00:00","4","42.3333333","-7.8666666","147.0","ORENSE, SP","FM-12","99999","V020","280,1,N,0021,1","09000,1,9,N","010000,1,N,1","+0335,1","+0114,1","10057,1","12,0000,9,1",,,,,"06,99,1,04,1,00,1,02250,1,07,1,08,1",,,,"999,M,+0369,1","99999,9,09895,1","3,1,003,1,+999,9",,,"SYN082AAXX  31184 08048 12860 62804 10335 20114 39895 40057 53003 60002 84078 333 10369;","Q01  00002PRCP12"
"08048099999","2010-09-01T06:00:00","4","42.3333333","-7.8666666","147.0","ORENSE, SP","FM-12","99999","V020","300,1,N,0005,1","09000,1,9,N","010000,1,N,1","+0166,1","+0150,1","10077,1","12,0010,9,1","24,0010,9,1","8,1,06,1","1,1,06,1",,"05,99,1,02,1,02,1,00450,1,08,1,01,1","0330,9","09,9","999,+0140,9","999,N,+0164,1","99999,9,09905,1","3,1,003,1,+999,9","02,1",,"SYN112AAXX  01064 08048 11460 53001 10166 20150 39905 40077 53003 60012 70281 82281 333 20164 31014 50674 55055 70011;",
"08048099999","2010-09-01T09:00:00","4","42.3333333","-7.8666666","147.0","ORENSE, SP","FM-12","99999","V020","240,1,N,0010,1","22000,1,9,N","010000,1,N,1","+0200,1","+0154,1","10086,1",,,,,,"04,99,1,01,1,02,1,00450,1,08,1,02,1",,,,,"99999,9,09916,1","1,1,011,1,+999,9",,,"SYN066AAXX  01094 08048 42460 42402 10200 20154 39916 40086 51011 81282;",
"08048099999","2010-09-01T12:00:00","4","42.3333333","-7.8666666","147.0","ORENSE, SP","FM-12","99999","V020","010,1,N,0026,1","00900,1,9,N","010000,1,N,1","+0250,1","+0148,1","10083,1","06,0000,9,1",,,,,"06,99,1,05,1,08,1,00450,1,06,1,00,1",,,,,"99999,9,09916,1","0,1,000,1,+999,9",,,"SYN072AAXX  01124 08048 12460 60105 10250 20148 39916 40083 50000 60001 85860;","Q01  00002PRCP06"
"08048099999","2010-09-01T15:00:00","4","42.3333333","-7.8666666","147.0","ORENSE, SP","FM-12","99999","V020","200,1,N,0021,1","03600,1,9,N","010000,1,N,1","+0235,1","+0170,1","10084,1",,,"8,1,03,1","2,1,03,1",,"07,99,1,03,1,02,1,00450,1,07,1,03,1",,,,,"99999,9,09916,1","4,1,000,1,+999,9","25,1",,"SYN072AAXX  01154 08048 41460 72004 10235 20170 39916 40084 54000 72582 83273;",
"08048099999","2010-09-01T18:00:00","4","42.3333333","-7.8666666","147.0","ORENSE, SP","FM-12","99999","V020","360,1,N,0005,1","22000,1,9,N","010000,1,N,1","+0258,1","+0169,1","10086,1","12,0000,2,1",,"8,1,06,1","1,1,06,1",,"01,99,1,01,1,05,1,00450,1,04,1,01,1",,,,"999,M,+0260,1","99999,9,09919,1","3,1,003,1,+999,9","01,1",,"SYN088AAXX  01184 08048 11460 13601 10258 20169 39919 40086 53003 69902 70181 81541 333 10260;",
"08048099999","2010-09-02T06:00:00","4","42.3333333","-7.8666666","147.0","ORENSE, SP","FM-12","99999","V020","280,1,N,0010,1","00210,1,9,N","006000,1,N,1","+0148,1","+0138,1","10132,1","12,0000,9,1","24,0000,2,1",,,,"08,99,1,08,1,06,1,00250,1,99,9,99,9","0198,9","09,9","999,+0120,9","999,N,+0146,1","99999,9,09958,1","3,1,010,1,+999,9","10,1",,"SYN112AAXX  02064 08048 11356 82802 10148 20138 39958 40132 53010 69902 710// 886// 333 20146 31012 50224 55033 79999;","Q01  00002PRCP12"
"08048099999","2010-09-02T09:00:00","4","42.3333333","-7.8666666","147.0","ORENSE, SP","FM-12","99999","V020","160,1,N,0010,1","00210,1,9,N","005000,1,N,1","+0178,1","+0158,1","10148,1",,,"2,1,03,1","2,1,03,1",,"08,99,1,08,1,06,1,00250,1,99,9,99,9",,,,,"99999,9,09976,1","1,1,018,1,+999,9","10,1",,"SYN072AAXX  02094 08048 41350 81602 10178 20158 39976 40148 51018 71022 886//;",
"08048099999","2010-09-02T12:00:00","4","42.3333333","-7.8666666","147.0","ORENSE, SP","FM-12","99999","V020","150,1,N,0015,1","22000,1,9,N","010000,1,N,1","+0243,1","+0171,1","10145,1","06,0000,9,1",,,,,"01,99,1,01,1,01,1,00450,1,00,1,01,1",,,,,"99999,9,09977,1","0,1,001,1,+999,9",,,"SYN072AAXX  02124 08048 12460 11503 10243 20171 39977 40145 50001 60001 81101;","Q01  00002PRCP06"
"08048099999","2010-09-02T15:00:00","4","42.3333333","-7.8666666","147.0","ORENSE, SP","FM-12","99999","V020","260,1,N,0021,1","22000,1,9,N","010000,1,N,1","+0317,1","+0160,1","10124,1",,,,,,"03,99,1,01,1,01,1,00450,1,04,1,01,1",,,,,"99999,9,09960,1","8,1,017,1,+999,9",,,"SYN066AAXX  02154 08048 42460 32604 10317 20160 39960 40124 58017 81141;",
"08048099999","2010-09-02T18:00:00","4","42.3333333","-7.8666666","147.0","ORENSE, SP","FM-12","99999","V020","330,1,N,0031,1","22000,1,9,N","010000,1,N,1","+0300,1","+0133,1","10126,1","12,0000,9,1",,,,,"03,99,1,00,1,00,1,99999,9,00,1,01,1",,,,"999,M,+0324,1","99999,9,09961,1","3,1,001,1,+999,9",,,"SYN082AAXX  02184 08048 12960 33306 10300 20133 39961 40126 53001 60002 80001 333 10324;","Q01  00002PRCP12"
"08048099999","2010-09-03T06:00:00","4","42.3333333","-7.8666666","147.0","ORENSE, SP","FM-12","99999","V020","230,1,N,0005,1","00210,1,9,N","007000,1,N,1","+0144,1","+0130,1","10169,1","12,0000,9,1","24,0000,9,1",,,,"08,99,1,08,1,06,1,00250,1,99,9,99,9","0450,9","01,9","999,+0100,9","999,N,+0138,1","99999,9,09994,1","1,1,003,1,+999,9","10,1",,"SYN112AAXX  03064 08048 11357 82301 10144 20130 39994 40169 51003 60002 710// 886// 333 20138 30010 50384 55075 70000;","Q01  00002PRCP24Q02  00002PRCP12"
"08048099999","2010-09-03T09:00:00","4","42.3333333","-7.8666666","147.0","ORENSE, SP","FM-12","99999","V020","330,1,N,0021,1","00210,1,9,N","010000,1,N,1","+0186,1","+0153,1","10174,1",,,,,,"06,99,1,06,1,06,1,00250,1,00,1,01,1",,,,,"99999,9,10002,1","1,1,008,1,+999,9",,,"SYN066AAXX  03094 08048 42360 63304 10186 20153 30002 40174 51008 86601;",
"08048099999","2010-09-03T12:00:00","4","42.3333333","-7.8666666","147.0","ORENSE, SP","FM-12","99999","V020","260,1,N,0015,1","22000,1,9,N","010000,1,N,1","+0273,1","+0160,1","10157,1","06,0000,9,1",,,,,"01,99,1,00,1,00,1,99999,9,00,1,01,1",,,,,"99999,9,09990,1","8,1,012,1,+999,9",,,"SYN072AAXX  03124 08048 12960 12603 10273 20160 39990 40157 58012 60001 80001;","Q01  00002PRCP06"
"08048099999","2010-09-03T15:00:00","4","42.3333333","-7.8666666","147.0","ORENSE, SP","FM-12","99999","V020","310,1,N,0021,1","22000,1,9,N","010000,1,N,1","+0341,1","+0146,1","10133,1",,,,,"00,1,+99999,9,99,9","00,99,1,00,1,00,1,99999,9,00,1,00,1",,,,,"99999,9,09970,1","7,1,020,1,+999,9",,,"SYN060AAXX  03154 08048 42960 03104 10341 20146 39970 40133 57020;",
"08048099999","2010-09-03T18:00:00","4","42.3333333","-7.8666666","147.0","ORENSE, SP","FM-12","99999","V020","310,1,N,0026,1","22000,1,9,N","010000,1,N,1","+0321,1","+0138,1","10132,1","12,0000,9,1",,,,,"03,99,1,00,1,00,1,99999,9,00,1,02,1",,,,"999,M,+0353,1","99999,9,09968,1","6,1,002,1,+999,9",,,"SYN082AAXX  03184 08048 12960 33105 10321 20138 39968 40132 56002 60002 80002 333 10353;","Q01  00002PRCP12"
"08048099999","2010-09-06T06:00:00","4","42.3333333","-7.8666666","147.0","ORENSE, SP","FM-12","99999","V020","090,1,N,0010,1","09000,1,9,N","010000,1,N,1","+0152,1","+0141,1","10124,1","12,0000,9,1","24,0000,9,1",,,,"05,99,1,01,1,05,1,00450,1,04,1,04,1","0684,9",,,"999,N,+0150,1","99999,9,09951,1","8,1,005,1,+999,9","02,1",,"SYN100AAXX  06064 08048 11460 50902 10152 20141 39951 40124 58005 60002 702// 81544 333 20150 55114 70000;","Q01  00002PRCP24Q02  00002PRCP12"
"08048099999","2010-09-06T09:00:00","4","42.3333333","-7.8666666","147.0","ORENSE, SP","FM-12","99999","V020","180,1,N,0021,1","03600,1,9,N","010000,1,N,1","+0200,1","+0139,1","10120,1",,,,,,"08,99,1,02,1,05,1,00450,1,07,1,99,9",,,,,"99999,9,09949,1","8,1,002,1,+999,9",,,"SYN066AAXX  06094 08048 42460 81804 10200 20139 39949 40120 58002 8257/;",
"08048099999","2010-09-06T12:00:00","4","42.3333333","-7.8666666","147.0","ORENSE, SP","FM-12","99999","V020","320,1,N,0021,1","00420,1,9,N","010000,1,N,1","+0218,1","+0159,1","10106,1","06,9999,9,9",,"6,1,06,1","2,1,06,1",,"08,99,1,08,1,05,1,00450,1,99,9,99,9",,,,,"99999,9,09937,1","6,1,012,1,+999,9","21,1",,"SYN078AAXX  06124 08048 11460 83204 10218 20159 39937 40106 56012 69901 72162 885//;","Q01  00002PRCP06Q02  00002PRCP06"
"08048099999","2010-09-06T15:00:00","4","42.3333333","-7.8666666","147.0","ORENSE, SP","FM-12","99999","V020","270,1,N,0015,1","00420,1,9,N","010000,1,N,1","+0196,1","+0177,1","10103,1",,,"6,1,03,1","5,1,03,1",,"08,99,1,08,1,07,1,00450,1,99,9,99,9",,,,,"99999,9,09933,1","8,1,004,1,+999,9","50,1",,"SYN072AAXX  06154 08048 41460 82703 10196 20177 39933 40103 58004 75065 887//;",
"08048099999","2010-09-06T18:00:00","4","42.3333333","-7.8666666","147.0","ORENSE, SP","FM-12","99999","V020","170,1,N,0021,1","00900,1,9,N","010000,1,N,1","+0200,1","+0162,1","10099,1","12,0005,9,1",,"6,1,06,1","5,1,06,1",,"07,99,1,05,1,08,1,00450,1,03,1,99,9",,,,"999,M,+0244,1","99999,9,09929,1","6,1,004,1,+999,9","01,1",,"SYN088AAXX  06184 08048 11460 71704 10200 20162 39929 40099 56004 69952 70165 8583/ 333 10244;",
"08048099999","2010-09-07T06:00:00","4","42.3333333","-7.8666666","147.0","ORENSE, SP","FM-12","99999","V020","210,1,N,0015,1","00420,1,9,N","010000,1,N,1","+0147,1","+0120,1","10070,1","12,0000,9,1","24,0005,9,1",,,,"05,99,1,05,1,05,1,00450,1,00,1,00,1","0000,9","01,9","999,+0120,9","999,N,+0144,1","99999,9,09897,1","7,1,012,1,+999,9","02,1",,"SYN112AAXX  07064 08048 11460 52103 10147 20120 39897 40070 57012 60002 702// 85500 333 20144 30012 50184 55000 70005;","Q01  00002PRCP12"
"08048099999","2010-09-07T12:00:00","4","42.3333333","-7.8666666","147.0","ORENSE, SP","FM-12","99999","V020","270,1,N,0051,1","00420,1,9,N","010000,1,N,1","+0207,1","+0157,1","10041,1","06,0020,9,1",,"6,1,06,1","5,1,06,1",,"07,99,1,05,1,07,1,00450,1,02,1,99,9",,,,,"99999,9,09872,1","8,1,002,1,+999,9","62,1",,"SYN078AAXX  07124 08048 11460 72710 10207 20157 39872 40041 58002 60021 76265 8572/;",
"08048099999","2010-09-07T15:00:00","4","42.3333333","-7.8666666","147.0","ORENSE, SP","FM-12","99999","V020","320,1,N,0041,1","00420,1,9,N","010000,1,N,1","+0225,1","+0113,1","10062,1",,,"6,1,03,1","2,1,03,1",,"06,99,1,06,1,05,1,00450,1,00,1,00,1",,,,,"99999,9,09894,1","1,1,022,1,+999,9","03,1",,"SYN072AAXX  07154 08048 41460 63208 10225 20113 39894 40062 51022 70362 86500;",
"08048099999","2010-09-07T18:00:00","4","42.3333333","-7.8666666","147.0","ORENSE, SP","FM-12","99999","V020","330,1,N,0031,1","22000,1,9,N","010000,1,N,1","+0207,1","+0099,1","10080,1","12,0020,9,1",,"6,1,06,1","2,1,06,1",,"04,99,1,04,1,02,1,00450,1,00,1,02,1",,,,"999,M,+0239,1","99999,9,09910,1","2,1,016,1,+999,9","02,1",,"SYN088AAXX  07184 08048 11460 43306 10207 20099 39910 40080 52016 60022 70262 84202 333 10239;",
"08048099999","2010-09-08T06:00:00","4","42.3333333","-7.8666666","147.0","ORENSE, SP","FM-12","99999","V020","280,1,N,0005,1","22000,1,9,N","010000,1,N,1","+0120,1","+0112,1","10139,1","12,0000,9,1","24,0020,9,1",,,,"03,99,1,03,1,05,1,00450,1,00,1,00,1","0258,9","09,9","999,+0080,9","999,N,+0118,1","99999,9,09963,1","3,1,013,1,+999,9","02,1",,"SYN112AAXX  08064 08048 11460 32801 10120 20112 39963 40139 53013 69922 702// 83500 333 20118 31008 50284 55043 70020;","Q01  00002PRCP12"
"08048099999","2010-09-08T09:00:00","4","42.3333333","-7.8666666","147.0","ORENSE, SP","FM-12","99999","V020","320,1,N,0010,1","03600,1,9,N","010000,1,N,1","+0168,1","+0133,1","10148,1",,,,,,"07,99,1,04,1,08,1,00450,1,03,1,99,9",,,,,"99999,9,09975,1","1,1,012,1,+999,9",,,"SYN066AAXX  08094 08048 42460 73202 10168 20133 39975 40148 51012 8483/;",
"08048099999","2010-09-08T12:00:00","4","42.3333333","-7.8666666","147.0","ORENSE, SP","FM-12","99999","V020","250,1,N,0036,1","00900,1,9,N","010000,1,N,1","+0220,1","+0125,1","10148,1","06,0000,9,1",,,,,"07,99,1,07,1,08,1,00450,1,99,9,99,9",,,,,"99999,9,09978,1","1,1,003,1,+999,9",,,"SYN072AAXX  08124 08048 12460 72507 10220 20125 39978 40148 51003 60001 878//;","Q01  00002PRCP06"
"08048099999","2010-09-08T15:00:00","4","42.3333333","-7.8666666","147.0","ORENSE, SP","FM-12","99999","V020","260,1,N,0026,1","00420,1,9,N","010000,1,N,1","+0201,1","+0138,1","10158,1",,,"5,1,03,1","2,1,03,1",,"07,99,1,07,1,07,1,00450,1,99,9,99,9",,,,,"99999,9,09987,1","1,1,009,1,+999,9","50,1",,"SYN072AAXX  08154 08048 41460 72605 10201 20138 39987 40158 51009 75052 877//;",
"08048099999","2010-09-08T18:00:00","4","42.3333333","-7.8666666","147.0","ORENSE, SP","FM-12","99999","V020","160,1,N,0015,1","00210,1,9,N","010000,1,N,1","+0178,1","+0158,1","10172,1","12,0000,2,1",,"5,1,06,1","2,1,06,1",,"08,99,1,08,1,07,1,00250,1,99,9,99,9",,,,"999,M,+0236,1","99999,9,09999,1","1,1,012,1,+999,9","20,1",,"SYN088AAXX  08184 08048 11360 81603 10178 20158 39999 40172 51012 69922 72052 887// 333 10236;",
"08048099999","2010-09-09T06:00:00","4","42.3333333","-7.8666666","147.0","ORENSE, SP","FM-12","99999","V020","170,1,N,0015,1","00210,1,9,N","003000,1,N,1","+0133,1","+0130,1","10215,1","12,0010,9,1","24,0013,9,1",,,,"08,99,1,08,1,07,1,00250,1,99,9,99,9","0132,9","09,9","999,+0090,9","999,N,+0129,1","99999,9,10039,1","2,1,005,1,+999,9","51,1",,"SYN112AAXX  09064 08048 11330 81703 10133 20130 30039 40215 52005 60012 751// 887// 333 20129 31009 50164 55022 70013;",
"08048099999","2010-09-09T09:00:00","4","42.3333333","-7.8666666","147.0","ORENSE, SP","FM-12","99999","V020","320,1,N,0010,1","00210,1,9,N","008000,1,N,1","+0148,1","+0137,1","10231,1",,,"5,1,03,1","2,1,03,1",,"08,99,1,08,1,07,1,00250,1,99,9,99,9",,,,,"99999,9,10055,1","2,1,016,1,+999,9","10,1",,"SYN072AAXX  09094 08048 41358 83202 10148 20137 30055 40231 52016 71052 887//;",
"08048099999","2010-09-09T12:00:00","4","42.3333333","-7.8666666","147.0","ORENSE, SP","FM-12","99999","V020","210,1,N,0015,1","22000,1,9,N","010000,1,N,1","+0187,1","+0144,1","10231,1","06,0000,2,1",,"5,1,06,1","1,1,06,1",,"03,99,1,03,1,06,1,00250,1,00,1,00,1",,,,,"99999,9,10058,1","1,1,003,1,+999,9","01,1",,"SYN078AAXX  09124 08048 11360 32103 10187 20144 30058 40231 51003 69911 70151 83600;",
"08048099999","2010-09-09T15:00:00","4","42.3333333","-7.8666666","147.0","ORENSE, SP","FM-12","99999","V020","290,1,N,0021,1","22000,1,9,N","010000,1,N,1","+0262,1","+0104,1","10214,1",,,,,,"01,99,1,01,1,06,1,00450,1,00,1,00,1",,,,,"99999,9,10045,1","7,1,010,1,+999,9",,,"SYN066AAXX  09154 08048 42460 12904 10262 20104 30045 40214 57010 81600;",
"08048099999","2010-09-09T18:00:00","4","42.3333333","-7.8666666","147.0","ORENSE, SP","FM-12","99999","V020","290,1,N,0015,1","22000,1,9,N","010000,1,N,1","+0268,1","+0109,1","10205,1","12,0000,2,1",,,,,"02,99,1,00,1,00,1,99999,9,00,1,02,1",,,,"999,M,+0281,1","99999,9,10037,1","6,1,008,1,+999,9",,,"SYN082AAXX  09184 08048 12960 22903 10268 20109 30037 40205 56008 69912 80002 333 10281;",
"08048099999","2010-09-10T06:00:00","4","42.3333333","-7.8666666","147.0","ORENSE, SP","FM-12","99999","V020","280,1,N,0010,1","00210,1,9,N","010000,1,N,1","+0105,1","+0093,1","10224,1","12,0000,9,1","24,0000,2,1",,,,"06,99,1,06,1,06,1,00250,1,00,1,01,1","0408,9","09,9","999,+0070,9","999,N,+0101,1","99999,9,10046,1","6,1,008,1,+999,9","02,1",,"SYN112AAXX  10064 08048 11360 62802 10105 20093 30046 40224 56008 60002 702// 86601 333 20101 31007 50274 55068 70001;","Q01  00002PRCP12"
"08048099999","2010-09-10T09:00:00","4","42.3333333","-7.8666666","147.0","ORENSE, SP","FM-12","99999","V020","130,1,N,0010,1","22000,1,9,N","010000,1,N,1","+0156,1","+0122,1","10223,1",,,,,,"02,99,1,00,1,00,1,99999,9,00,1,02,1",,,,,"99999,9,10048,1","0,1,002,1,+999,9",,,"SYN066AAXX  10094 08048 42960 21302 10156 20122 30048 40223 50002 80002;",
"08048099999","2010-09-10T12:00:00","4","42.3333333","-7.8666666","147.0","ORENSE, SP","FM-12","99999","V020","350,1,N,0015,1","22000,1,9,N","010000,1,N,1","+0262,1","+0126,1","10194,1","06,0000,9,1",,,,,"03,99,1,00,1,00,1,99999,9,00,1,04,1",,,,,"99999,9,10026,1","7,1,022,1,+999,9",,,"SYN072AAXX  10124 08048 12960 33503 10262 20126 30026 40194 57022 60001 80004;","Q01  00002PRCP06"
"08048099999","2010-09-10T15:00:00","4","42.3333333","-7.8666666","147.0","ORENSE, SP","FM-12","99999","V020","310,1,N,0021,1","99999,9,9,N","010000,1,N,1","+0320,1","+0101,1","10165,1",,,,,,"06,99,1,00,1,00,1,99999,9,00,1,04,1",,,,,"99999,9,10000,1","7,1,026,1,+999,9",,,"SYN066AAXX  10154 08048 42960 63104 10320 20101 30000 40165 57026 80004;",
"08048099999","2010-09-10T18:00:00","4","42.3333333","-7.8666666","147.0","ORENSE, SP","FM-12","99999","V020","270,1,N,0015,1","99999,9,9,N","010000,1,N,1","+0305,1","+0124,1","10153,1","12,0000,9,1",,,,,"06,99,1,00,1,00,1,99999,9,00,1,04,1",,,,"999,M,+0324,1","99999,9,09988,1","7,1,012,1,+999,9",,,"SYN082AAXX  10184 08048 12960 62703 10305 20124 39988 40153 57012 60002 80004 333 10324;","Q01  00002PRCP12"
"08048099999","2010-09-13T06:00:00","4","42.3333333","-7.8666666","147.0","ORENSE, SP","FM-12","99999","V020","200,1,N,0010,1","22000,1,9,N","010000,1,N,1","+0123,1","+0110,1","10238,1","12,0000,9,1","24,0000,9,1",,,"00,1,+99999,9,99,9","00,99,1,00,1,00,1,99999,9,00,1,00,1","0654,9",,,"999,N,+0120,1","99999,9,10061,1","3,1,001,1,+999,9",,,"SYN088AAXX  13064 08048 12960 02002 10123 20110 30061 40238 53001 60002 333 20120 55109 70000;","Q01  00002PRCP24Q02  00002PRCP12"
"08048099999","2010-09-13T09:00:00","4","42.3333333","-7.8666666","147.0","ORENSE, SP","FM-12","99999","V020","160,1,N,0015,1","22000,1,9,N","010000,1,N,1","+0191,1","+0137,1","10240,1",,,,,"00,1,+99999,9,99,9","00,99,1,00,1,00,1,99999,9,00,1,00,1",,,,,"99999,9,10067,1","1,1,006,1,+999,9",,,"SYN060AAXX  13094 08048 42960 01603 10191 20137 30067 40240 51006;",
"08048099999","2010-09-13T12:00:00","4","42.3333333","-7.8666666","147.0","ORENSE, SP","FM-12","99999","V020","010,1,N,0015,1","22000,1,9,N","010000,1,N,1","+0271,1","+0155,1","10220,1","06,0000,9,1",,,,,"02,99,1,00,1,00,1,99999,9,00,1,01,1",,,,,"99999,9,10052,1","8,1,015,1,+999,9",,,"SYN072AAXX  13124 08048 12960 20103 10271 20155 30052 40220 58015 60001 80001;","Q01  00002PRCP06"
"08048099999","2010-09-13T15:00:00","4","42.3333333","-7.8666666","147.0","ORENSE, SP","FM-12","99999","V020","330,1,N,0021,1","22000,1,9,N","010000,1,N,1","+0340,1","+0135,1","10195,1",,,,,,"02,99,1,00,1,00,1,99999,9,00,1,01,1",,,,,"99999,9,10031,1","7,1,021,1,+999,9",,,"SYN066AAXX  13154 08048 42960 23304 10340 20135 30031 40195 57021 80001;",
"08048099999","2010-09-13T18:00:00","4","42.3333333","-7.8666666","147.0","ORENSE, SP","FM-12","99999","V020","040,1,N,0015,1","22000,1,9,N","010000,1,N,1","+0334,1","+0154,1","10190,1","12,0000,9,1",,,,,"01,99,1,00,1,00,1,99999,9,00,1,01,1",,,,"999,M,+0353,1","99999,9,10026,1","6,1,005,1,+999,9",,,"SYN082AAXX  13184 08048 12960 10403 10334 20154 30026 40190 56005 60002 80001 333 10353;","Q01  00002PRCP12"
"08048099999","2010-09-14T06:00:00","4","42.3333333","-7.8666666","147.0","ORENSE, SP","FM-12","99999","V020","999,9,C,0000,1","22000,1,9,N","010000,1,N,1","+0134,1","+0120,1","10239,1","12,0000,9,1","24,0000,9,1",,,"00,1,+99999,9,99,9","00,99,1,00,1,00,1,99999,9,00,1,00,1","0654,9","09,9","999,+0090,9","999,N,+0132,1","99999,9,10062,1","3,1,001,1,+999,9",,,"SYN100AAXX  14064 08048 12960 00000 10134 20120 30062 40239 53001 60002 333 20132 31009 50484 55109 70000;","Q01  00002PRCP24Q02  00002PRCP12"
"08048099999","2010-09-14T09:00:00","4","42.3333333","-7.8666666","147.0","ORENSE, SP","FM-12","99999","V020","320,1,N,0010,1","22000,1,9,N","010000,1,N,1","+0195,1","+0137,1","10240,1",,,,,"00,1,+99999,9,99,9","00,99,1,00,1,00,1,99999,9,00,1,00,1",,,,,"99999,9,10067,1","0,1,005,1,+999,9",,,"SYN060AAXX  14094 08048 42960 03202 10195 20137 30067 40240 50005;",
"08048099999","2010-09-14T12:00:00","4","42.3333333","-7.8666666","147.0","ORENSE, SP","FM-12","99999","V020","340,1,N,0021,1","22000,1,9,N","010000,1,N,1","+0305,1","+0105,1","10215,1","06,0000,9,1",,,,"00,1,+99999,9,99,9","00,99,1,00,1,00,1,99999,9,00,1,00,1",,,,,"99999,9,10048,1","8,1,019,1,+999,9",,,"SYN066AAXX  14124 08048 12960 03404 10305 20105 30048 40215 58019 60001;","Q01  00002PRCP06"
"08048099999","2010-09-14T15:00:00","4","42.3333333","-7.8666666","147.0","ORENSE, SP","FM-12","99999","V020","340,1,N,0015,1","22000,1,9,N","010000,1,N,1","+0363,1","+0137,1","10184,1",,,,,,"01,99,1,00,1,00,1,99999,9,00,1,02,1",,,,,"99999,9,10021,1","7,1,027,1,+999,9",,,"SYN066AAXX  14154 08048 42960 13403 10363 20137 30021 40184 57027 80002;",
"08048099999","2010-09-14T18:00:00","4","42.3333333","-7.8666666","147.0","ORENSE, SP","FM-12","99999","V020","320,1,N,0010,1","99999,9,9,N","010000,1,N,1","+0349,1","+0142,1","10177,1","12,0000,9,1",,,,,"05,99,1,00,1,00,1,99999,9,00,1,02,1",,,,"999,M,+0373,1","99999,9,10014,1","6,1,007,1,+999,9",,,"SYN082AAXX  14184 08048 12960 53202 10349 20142 30014 40177 56007 60002 80002 333 10373;","Q01  00002PRCP12"
"08048099999","2010-09-15T06:00:00","4","42.3333333","-7.8666666","147.0","ORENSE, SP","FM-12","99999","V020","999,9,C,0000,1","02100,1,9,N","010000,1,N,1","+0186,1","+0157,1","10185,1","12,0000,9,1","24,0000,9,1",,,,"08,99,1,06,1,00,1,02250,1,07,1,08,1","0636,9","01,9","999,+0090,9","999,N,+0185,1","99999,9,10013,1","6,1,008,1,+999,9",,,"SYN106AAXX  15064 08048 12860 80000 10186 20157 30013 40185 56008 60002 86078 333 20185 30009 50564 55106 70000;","Q01  00002PRCP24Q02  00002PRCP12"
"08048099999","2010-09-15T09:00:00","4","42.3333333","-7.8666666","147.0","ORENSE, SP","FM-12","99999","V020","300,1,N,0010,1","22000,1,9,N","010000,1,N,1","+0224,1","+0160,1","10179,1",,,,,,"03,99,1,01,1,00,1,02250,1,04,1,08,1",,,,,"99999,9,10009,1","6,1,004,1,+999,9",,,"SYN066AAXX  15094 08048 42860 33002 10224 20160 30009 40179 56004 81048;",
"08048099999","2010-09-15T12:00:00","4","42.3333333","-7.8666666","147.0","ORENSE, SP","FM-12","99999","V020","030,1,N,0010,1","03600,1,9,N","010000,1,N,1","+0286,1","+0178,1","10171,1","06,0000,9,1",,,,,"07,99,1,01,1,01,1,00450,1,07,1,99,9",,,,,"99999,9,10005,1","8,1,004,1,+999,9",,,"SYN072AAXX  15124 08048 12460 70302 10286 20178 30005 40171 58004 60001 8117/;","Q01  00002PRCP06"
"08048099999","2010-09-15T15:00:00","4","42.3333333","-7.8666666","147.0","ORENSE, SP","FM-12","99999","V020","230,1,N,0015,1","03600,1,9,N","010000,1,N,1","+0289,1","+0139,1","10168,1",,,,,,"07,99,1,02,1,01,1,00450,1,07,1,08,1",,,,,"99999,9,10002,1","8,1,003,1,+999,9",,,"SYN066AAXX  15154 08048 42460 72303 10289 20139 30002 40168 58003 82178;",
"08048099999","2010-09-15T18:00:00","4","42.3333333","-7.8666666","147.0","ORENSE, SP","FM-12","99999","V020","110,1,N,0010,1","03600,1,9,N","010000,1,N,1","+0252,1","+0149,1","10171,1","12,9999,9,9",,"2,1,06,1","2,1,06,1",,"08,99,1,03,1,07,1,00450,1,07,1,99,9",,,,"999,M,+0308,1","99999,9,10003,1","3,1,001,1,+999,9","60,1",,"SYN088AAXX  15184 08048 11460 81102 10252 20149 30003 40171 53001 69902 76022 8377/ 333 10308;","Q01  00002PRCP12Q02  00002PRCP12"
"08048099999","2010-09-16T06:00:00","4","42.3333333","-7.8666666","147.0","ORENSE, SP","FM-12","99999","V020","260,1,N,0010,1","03600,1,9,N","010000,1,N,1","+0165,1","+0147,1","10142,1","12,0000,2,1","24,0000,2,1",,,,"06,99,1,04,1,05,1,00800,1,03,1,00,1","0120,9","01,9","999,+0140,9","999,N,+0163,1","99999,9,09969,1","5,1,004,1,+999,9",,,"SYN106AAXX  16064 08048 12560 62602 10165 20147 39969 40142 55004 69912 84530 333 20163 30014 50394 55020 70001;",
"08048099999","2010-09-16T09:00:00","4","42.3333333","-7.8666666","147.0","ORENSE, SP","FM-12","99999","V020","240,1,N,0010,1","03600,1,9,N","010000,1,N,1","+0190,1","+0153,1","10143,1",,,,,,"06,99,1,02,1,05,1,00800,1,08,1,00,1",,,,,"99999,9,09972,1","3,1,003,1,+999,9",,,"SYN066AAXX  16094 08048 42560 62402 10190 20153 39972 40143 53003 82580;",
"08048099999","2010-09-16T12:00:00","4","42.3333333","-7.8666666","147.0","ORENSE, SP","FM-12","99999","V020","030,1,N,0015,1","22000,1,9,N","010000,1,N,1","+0274,1","+0157,1","10123,1","06,0000,9,1",,,,,"03,99,1,01,1,02,1,00450,1,04,1,02,1",,,,,"99999,9,09957,1","8,1,015,1,+999,9",,,"SYN072AAXX  16124 08048 12460 30303 10274 20157 39957 40123 58015 60001 81242;","Q01  00002PRCP06"
"08048099999","2010-09-16T15:00:00","4","42.3333333","-7.8666666","147.0","ORENSE, SP","FM-12","99999","V020","330,1,N,0031,1","00450,1,C,N","010000,1,N,1","+0289,1","+0161,1","10103,1",,,,,"05,1,+00450,1,08,1","06,99,1,05,1,09,1,00450,1,04,1,03,1",,,,,"99999,9,09938,1","6,1,019,1,+999,9",,,"SYN082AAXX  16154 08048 42460 63306 10289 20161 39938 40103 56019 85943 333 85894 81994;",
"08048099999","2010-09-16T18:00:00","4","42.3333333","-7.8666666","147.0","ORENSE, SP","FM-12","99999","V020","020,1,N,0010,1","00450,1,9,N","008000,1,N,1","+0228,1","+0194,1","10114,1","12,0010,9,1",,"9,1,06,1","8,1,06,1","07,1,+00450,1,09,1","08,99,1,07,1,09,1,00450,1,06,1,99,9",,,,"120,M,+0305,1","99999,9,09946,1","3,1,008,1,+999,9","97,1",,"SYN094AAXX  16184 08048 11458 80202 10228 20194 39946 40114 53008 60012 79798 8796/ 333 10305 87994;",
"08048099999","2010-09-17T06:00:00","4","42.3333333","-7.8666666","147.0","ORENSE, SP","FM-12","99999","V020","010,1,N,0010,1","00420,1,9,N","010000,1,N,1","+0184,1","+0153,1","10118,1","12,0231,9,1","24,0241,9,1",,,,"08,99,1,08,1,05,1,00450,1,99,9,99,9","0276,9","09,9","999,+0120,9","999,N,+0182,1","99999,9,09947,1","5,1,005,1,+999,9",,,"SYN106AAXX  17064 08048 12460 80102 10184 20153 39947 40118 55005 60232 885// 333 20182 31012 50274 55046 70241;",
"08048099999","2010-09-17T09:00:00","4","42.3333333","-7.8666666","147.0","ORENSE, SP","FM-12","99999","V020","030,1,N,0015,1","00420,1,9,N","010000,1,N,1","+0178,1","+0139,1","10129,1",,,,,,"08,99,1,08,1,05,1,00450,1,99,9,99,9",,,,,"99999,9,09957,1","1,1,010,1,+999,9",,,"SYN066AAXX  17094 08048 42460 80303 10178 20139 39957 40129 51010 885//;",
"08048099999","2010-09-17T12:00:00","4","42.3333333","-7.8666666","147.0","ORENSE, SP","FM-12","99999","V020","040,1,N,0010,1","00420,1,9,N","010000,1,N,1","+0194,1","+0138,1","10127,1","06,0000,9,1",,,,,"08,99,1,08,1,05,1,00450,1,99,9,99,9",,,,,"99999,9,09956,1","8,1,001,1,+999,9",,,"SYN072AAXX  17124 08048 12460 80402 10194 20138 39956 40127 58001 60001 885//;","Q01  00002PRCP06"
"08048099999","2010-09-17T15:00:00","4","42.3333333","-7.8666666","147.0","ORENSE, SP","FM-12","99999","V020","310,1,N,0010,1","00420,1,9,N","010000,1,N,1","+0216,1","+0145,1","10116,1",,,,,,"07,99,1,07,1,05,1,00450,1,99,9,99,9",,,,,"99999,9,09946,1","7,1,010,1,+999,9",,,"SYN066AAXX  17154 08048 42460 73102 10216 20145 39946 40116 57010 875//;",
"08048099999","2010-09-17T18:00:00","4","42.3333333","-7.8666666","147.0","ORENSE, SP","FM-12","99999","V020","040,1,N,0015,1","22000,1,9,N","010000,1,N,1","+0212,1","+0136,1","10118,1","12,0000,9,1",,,,,"04,99,1,03,1,05,1,00450,1,03,1,02,1",,,,"999,M,+0238,1","99999,9,09948,1","3,1,002,1,+999,9",,,"SYN082AAXX  17184 08048 12460 40403 10212 20136 39948 40118 53002 60002 83532 333 10238;","Q01  00002PRCP12"
"08048099999","2010-09-20T06:00:00","4","42.3333333","-7.8666666","147.0","ORENSE, SP","FM-12","99999","V020","260,1,N,0010,1","22000,1,9,N","010000,1,N,1","+0124,1","+0113,1","10135,1","12,0000,9,1","24,0000,9,1",,,,"01,99,1,01,1,01,1,00450,1,00,1,00,1","0582,9",,,"999,N,+0120,1","99999,9,09959,1","6,1,001,1,+999,9","02,1",,"SYN100AAXX  20064 08048 11460 12602 10124 20113 39959 40135 56001 60002 702// 81100 333 20120 55097 70000;","Q01  00002PRCP24Q02  00002PRCP12"
"08048099999","2010-09-20T09:00:00","4","42.3333333","-7.8666666","147.0","ORENSE, SP","FM-12","99999","V020","180,1,N,0015,1","22000,1,9,N","010000,1,N,1","+0167,1","+0127,1","10130,1",,,,,,"03,99,1,01,1,01,1,00450,1,04,1,00,1",,,,,"99999,9,09957,1","8,1,002,1,+999,9",,,"SYN066AAXX  20094 08048 42460 31803 10167 20127 39957 40130 58002 81140;",
"08048099999","2010-09-20T12:00:00","4","42.3333333","-7.8666666","147.0","ORENSE, SP","FM-12","99999","V020","340,1,N,0026,1","22000,1,9,N","010000,1,N,1","+0264,1","+0128,1","10109,1","06,0000,9,1",,,,,"04,99,1,03,1,02,1,00450,1,04,1,00,1",,,,,"99999,9,09942,1","7,1,015,1,+999,9",,,"SYN072AAXX  20124 08048 12460 43405 10264 20128 39942 40109 57015 60001 83240;","Q01  00002PRCP06"
"08048099999","2010-09-20T15:00:00","4","42.3333333","-7.8666666","147.0","ORENSE, SP","FM-12","99999","V020","270,1,N,0026,1","00420,1,9,N","010000,1,N,1","+0300,1","+0129,1","10096,1",,,,,,"06,99,1,05,1,02,1,00450,1,04,1,02,1",,,,,"99999,9,09931,1","7,1,011,1,+999,9",,,"SYN066AAXX  20154 08048 42460 62705 10300 20129 39931 40096 57011 85242;",
"08048099999","2010-09-20T18:00:00","4","42.3333333","-7.8666666","147.0","ORENSE, SP","FM-12","99999","V020","220,1,N,0010,1","22000,1,9,N","010000,1,N,1","+0274,1","+0144,1","10101,1","12,0000,9,1",,,,,"04,99,1,01,1,01,1,00450,1,04,1,04,1",,,,"999,M,+0317,1","99999,9,09935,1","3,1,004,1,+999,9",,,"SYN082AAXX  20184 08048 12460 42202 10274 20144 39935 40101 53004 60002 81144 333 10317;","Q01  00002PRCP12"
"08048099999","2010-09-21T06:00:00","4","42.3333333","-7.8666666","147.0","ORENSE, SP","FM-12","99999","V020","290,1,N,0005,1","22000,1,9,N","010000,1,N,1","+0119,1","+0105,1","10161,1","12,0000,9,1","24,0000,9,1",,,,"02,99,1,02,1,06,1,00450,1,00,1,00,1","0456,9","09,9","999,+0090,9","999,N,+0115,1","99999,9,09985,1","3,1,010,1,+999,9","02,1",,"SYN112AAXX  21064 08048 11460 22901 10119 20105 39985 40161 53010 60002 702// 82600 333 20115 31009 50404 55076 70000;","Q01  00002PRCP24Q02  00002PRCP12"
"08048099999","2010-09-21T09:00:00","4","42.3333333","-7.8666666","147.0","ORENSE, SP","FM-12","99999","V020","020,1,N,0015,1","22000,1,9,N","010000,1,N,1","+0154,1","+0122,1","10170,1",,,,,,"01,99,1,01,1,06,1,00450,1,00,1,00,1",,,,,"99999,9,09996,1","1,1,011,1,+999,9",,,"SYN066AAXX  21094 08048 42460 10203 10154 20122 39996 40170 51011 81600;",
"08048099999","2010-09-21T12:00:00","4","42.3333333","-7.8666666","147.0","ORENSE, SP","FM-12","99999","V020","050,1,N,0015,1","22000,1,9,N","010000,1,N,1","+0236,1","+0138,1","10159,1","06,0000,9,1",,,,,"04,99,1,01,1,01,1,00450,1,04,1,02,1",,,,,"99999,9,09990,1","8,1,006,1,+999,9",,,"SYN072AAXX  21124 08048 12460 40503 10236 20138 39990 40159 58006 60001 81142;","Q01  00002PRCP06"
"08048099999","2010-09-21T18:00:00","4","42.3333333","-7.8666666","147.0","ORENSE, SP","FM-12","99999","V020","280,1,N,0026,1","22000,1,9,N","010000,1,N,1","+0275,1","+0102,1","10144,1","12,0000,9,1",,,,,"02,99,1,01,1,01,1,00450,1,00,1,05,1",,,,"999,M,+0301,1","99999,9,09977,1","5,1,000,1,+999,9",,,"SYN082AAXX  21184 08048 12460 22805 10275 20102 39977 40144 55000 60002 81105 333 10301;","Q01  00002PRCP12"
"08048099999","2010-09-22T06:00:00","4","42.3333333","-7.8666666","147.0","ORENSE, SP","FM-12","99999","V020","260,1,N,0005,1","22000,1,9,N","010000,1,N,1","+0129,1","+0116,1","10171,1","12,0000,9,1","24,0000,9,1",,,,"03,99,1,03,1,06,1,00250,1,00,1,01,1","0630,9","09,9","999,+0080,9","999,N,+0126,1","99999,9,09995,1","4,1,000,1,+999,9","02,1",,"SYN112AAXX  22064 08048 11360 32601 10129 20116 39995 40171 54000 60002 702// 83601 333 20126 31008 50414 55105 70000;","Q01  00002PRCP24Q02  00002PRCP12"
"08048099999","2010-09-22T09:00:00","4","42.3333333","-7.8666666","147.0","ORENSE, SP","FM-12","99999","V020","200,1,N,0010,1","02100,1,9,N","010000,1,N,1","+0160,1","+0126,1","10174,1",,,,,,"08,99,1,08,1,00,1,02250,1,01,1,99,9",,,,,"99999,9,10000,1","1,1,005,1,+999,9",,,"SYN066AAXX  22094 08048 42860 82002 10160 20126 30000 40174 51005 8801/;",
"08048099999","2010-09-22T12:00:00","4","42.3333333","-7.8666666","147.0","ORENSE, SP","FM-12","99999","V020","020,1,N,0010,1","03600,1,9,N","010000,1,N,1","+0220,1","+0136,1","10156,1","06,0000,9,1",,,,,"08,99,1,02,1,05,1,00450,1,01,1,99,9",,,,,"99999,9,09986,1","8,1,014,1,+999,9",,,"SYN072AAXX  22124 08048 12460 80202 10220 20136 39986 40156 58014 60001 8251/;","Q01  00002PRCP06"
"08048099999","2010-09-22T15:00:00","4","42.3333333","-7.8666666","147.0","ORENSE, SP","FM-12","99999","V020","010,1,N,0015,1","03600,1,9,N","010000,1,N,1","+0270,1","+0154,1","10142,1",,,,,,"06,99,1,03,1,05,1,00450,1,07,1,00,1",,,,,"99999,9,09975,1","7,1,011,1,+999,9",,,"SYN066AAXX  22154 08048 42460 60103 10270 20154 39975 40142 57011 83570;",
"08048099999","2010-09-22T18:00:00","4","42.3333333","-7.8666666","147.0","ORENSE, SP","FM-12","99999","V020","290,1,N,0010,1","22000,1,9,N","010000,1,N,1","+0269,1","+0136,1","10137,1","12,0000,9,1",,,,,"04,99,1,02,1,02,1,00450,1,07,1,01,1",,,,"999,M,+0281,1","99999,9,09970,1","6,1,005,1,+999,9",,,"SYN082AAXX  22184 08048 12460 42902 10269 20136 39970 40137 56005 60002 82271 333 10281;","Q01  00002PRCP12"
"08048099999","2010-09-23T06:00:00","4","42.3333333","-7.8666666","147.0","ORENSE, SP","FM-12","99999","V020","270,1,N,0005,1","00420,1,9,N","010000,1,N,1","+0159,1","+0130,1","10161,1","12,0000,9,1","24,0000,9,1",,,,"08,99,1,05,1,06,1,00450,1,07,1,99,9","0180,9","01,9","999,+0100,9","999,N,+0154,1","99999,9,09987,1","8,1,006,1,+999,9","02,1",,"SYN112AAXX  23064 08048 11460 82701 10159 20130 39987 40161 58006 60002 702// 8567/ 333 20154 30010 50274 55030 70000;","Q01  00002PRCP24Q02  00002PRCP12"
"08048099999","2010-09-23T09:00:00","4","42.3333333","-7.8666666","147.0","ORENSE, SP","FM-12","99999","V020","350,1,N,0015,1","03600,1,9,N","010000,1,N,1","+0187,1","+0138,1","10162,1",,,,,,"06,99,1,01,1,01,1,00450,1,07,1,00,1",,,,,"99999,9,09990,1","0,1,003,1,+999,9",,,"SYN066AAXX  23094 08048 42460 63503 10187 20138 39990 40162 50003 81170;",
"08048099999","2010-09-23T12:00:00","4","42.3333333","-7.8666666","147.0","ORENSE, SP","FM-12","99999","V020","340,1,N,0015,1","03600,1,9,N","010000,1,N,1","+0233,1","+0135,1","10153,1","06,0000,9,1",,,,,"07,99,1,03,1,01,1,00450,1,07,1,02,1",,,,,"99999,9,09984,1","8,1,006,1,+999,9",,,"SYN072AAXX  23124 08048 12460 73403 10233 20135 39984 40153 58006 60001 83172;","Q01  00002PRCP06"
"08048099999","2010-09-23T15:00:00","4","42.3333333","-7.8666666","147.0","ORENSE, SP","FM-12","99999","V020","260,1,N,0031,1","03600,1,9,N","010000,1,N,1","+0232,1","+0137,1","10144,1",,,,,,"08,99,1,04,1,05,1,00450,1,02,1,99,9",,,,,"99999,9,09975,1","6,1,009,1,+999,9",,,"SYN066AAXX  23154 08048 42460 82606 10232 20137 39975 40144 56009 8452/;",
"08048099999","2010-09-23T18:00:00","4","42.3333333","-7.8666666","147.0","ORENSE, SP","FM-12","99999","V020","260,1,N,0021,1","00900,1,9,N","010000,1,N,1","+0213,1","+0145,1","10147,1","12,0000,9,1",,,,,"06,99,1,05,1,08,1,00450,1,07,1,00,1",,,,"999,M,+0264,1","99999,9,09977,1","1,1,002,1,+999,9",,,"SYN082AAXX  23184 08048 12460 62604 10213 20145 39977 40147 51002 60002 85870 333 10264;","Q01  00002PRCP12"
"08048099999","2010-09-24T06:00:00","4","42.3333333","-7.8666666","147.0","ORENSE, SP","FM-12","99999","V020","220,1,N,0005,1","00210,1,9,N","010000,1,N,1","+0136,1","+0128,1","10158,1","12,0000,9,1","24,0000,9,1",,,,"08,99,1,08,1,06,1,00250,1,99,9,99,9","0192,9","01,9","999,+0100,9","999,N,+0132,1","99999,9,09983,1","8,1,002,1,+999,9","02,1",,"SYN112AAXX  24064 08048 11360 82201 10136 20128 39983 40158 58002 60002 702// 886// 333 20132 30010 50284 55032 70000;","Q01  00002PRCP24Q02  00002PRCP12"
"08048099999","2010-09-24T09:00:00","4","42.3333333","-7.8666666","147.0","ORENSE, SP","FM-12","99999","V020","180,1,N,0010,1","00420,1,9,N","010000,1,N,1","+0161,1","+0155,1","10162,1",,,"5,1,03,1","2,1,03,1",,"07,99,1,07,1,07,1,00450,1,99,9,99,9",,,,,"99999,9,09989,1","3,1,006,1,+999,9","01,1",,"SYN072AAXX  24094 08048 41460 71802 10161 20155 39989 40162 53006 70152 877//;",
"08048099999","2010-09-24T12:00:00","4","42.3333333","-7.8666666","147.0","ORENSE, SP","FM-12","99999","V020","320,1,N,0021,1","00420,1,9,N","010000,1,N,1","+0216,1","+0122,1","10160,1","06,0008,9,1",,"5,1,06,1","2,1,06,1",,"05,99,1,05,1,02,1,00450,1,00,1,00,1",,,,,"99999,9,09990,1","0,1,001,1,+999,9","01,1",,"SYN078AAXX  24124 08048 11460 53204 10216 20122 39990 40160 50001 69971 70152 85200;",
"08048099999","2010-09-24T15:00:00","4","42.3333333","-7.8666666","147.0","ORENSE, SP","FM-12","99999","V020","330,1,N,0031,1","00900,1,9,N","010000,1,N,1","+0224,1","+0105,1","10152,1",,,,,,"06,99,1,06,1,08,1,00450,1,00,1,00,1",,,,,"99999,9,09982,1","7,1,008,1,+999,9",,,"SYN066AAXX  24154 08048 42460 63306 10224 20105 39982 40152 57008 86800;",
"08048099999","2010-09-24T18:00:00","4","42.3333333","-7.8666666","147.0","ORENSE, SP","FM-12","99999","V020","340,1,N,0021,1","00420,1,9,N","010000,1,N,1","+0202,1","+0100,1","10153,1","12,0008,9,1",,,,,"06,99,1,05,1,05,1,00450,1,04,1,00,1",,,,"999,M,+0238,1","99999,9,09982,1","5,1,000,1,+999,9",,,"SYN082AAXX  24184 08048 12460 63404 10202 20100 39982 40153 55000 69972 85540 333 10238;",
"08048099999","2010-09-27T06:00:00","4","42.3333333","-7.8666666","147.0","ORENSE, SP","FM-12","99999","V020","280,1,N,0010,1","09000,1,9,N","010000,1,N,1","+0072,1","+0058,1","10145,1","12,0000,9,1","24,0000,9,1",,,,"06,99,1,03,1,00,1,02250,1,07,1,08,1","0600,9",,,"999,N,+0068,1","99999,9,09966,1","3,1,002,1,+999,9",,,"SYN094AAXX  27064 08048 12860 62802 10072 20058 39966 40145 53002 60002 83078 333 20068 55100 70000;","Q01  00002PRCP24Q02  00002PRCP12"
"08048099999","2010-09-27T09:00:00","4","42.3333333","-7.8666666","147.0","ORENSE, SP","FM-12","99999","V020","210,1,N,0010,1","22000,1,9,N","010000,1,N,1","+0118,1","+0081,1","10148,1",,,,,,"04,99,1,01,1,00,1,02250,1,04,1,08,1",,,,,"99999,9,09972,1","0,1,006,1,+999,9",,,"SYN066AAXX  27094 08048 42860 42102 10118 20081 39972 40148 50006 81048;",
"08048099999","2010-09-27T12:00:00","4","42.3333333","-7.8666666","147.0","ORENSE, SP","FM-12","99999","V020","340,1,N,0015,1","22000,1,9,N","010000,1,N,1","+0209,1","+0110,1","10137,1","06,0000,9,1",,,,,"03,99,1,01,1,05,1,00450,1,04,1,02,1",,,,,"99999,9,09966,1","8,1,006,1,+999,9",,,"SYN072AAXX  27124 08048 12460 33403 10209 20110 39966 40137 58006 60001 81542;","Q01  00002PRCP06"
"08048099999","2010-09-27T15:00:00","4","42.3333333","-7.8666666","147.0","ORENSE, SP","FM-12","99999","V020","350,1,N,0015,1","03600,1,9,N","010000,1,N,1","+0258,1","+0079,1","10121,1",,,,,,"06,99,1,02,1,05,1,00800,1,07,1,02,1",,,,,"99999,9,09953,1","7,1,013,1,+999,9",,,"SYN066AAXX  27154 08048 42560 63503 10258 20079 39953 40121 57013 82572;",
"08048099999","2010-09-27T18:00:00","4","42.3333333","-7.8666666","147.0","ORENSE, SP","FM-12","99999","V020","310,1,N,0021,1","22000,1,9,N","010000,1,N,1","+0242,1","+0125,1","10121,1","12,0000,9,1",,,,,"01,99,1,01,1,00,1,02250,1,04,1,00,1",,,,"999,M,+0269,1","99999,9,09953,1","5,1,000,1,+999,9",,,"SYN082AAXX  27184 08048 12860 13104 10242 20125 39953 40121 55000 60002 81040 333 10269;","Q01  00002PRCP12"
"08048099999","2010-09-28T06:00:00","4","42.3333333","-7.8666666","147.0","ORENSE, SP","FM-12","99999","V020","140,1,N,0010,1","22000,1,9,N","010000,1,N,1","+0078,1","+0069,1","10172,1","12,0000,9,1","24,0000,9,1",,,"00,1,+99999,9,99,9","00,99,1,00,1,00,1,99999,9,00,1,00,1","0576,9","09,9","999,+0040,9","999,N,+0076,1","99999,9,09993,1","3,1,009,1,+999,9",,,"SYN100AAXX  28064 08048 12960 01402 10078 20069 39993 40172 53009 60002 333 20076 31004 50314 55096 70000;","Q01  00002PRCP24Q02  00002PRCP12"
"08048099999","2010-09-28T09:00:00","4","42.3333333","-7.8666666","147.0","ORENSE, SP","FM-12","99999","V020","270,1,N,0010,1","22000,1,9,N","010000,1,N,1","+0124,1","+0089,1","10186,1",,,,,"00,1,+99999,9,99,9","00,99,1,00,1,00,1,99999,9,00,1,00,1",,,,,"99999,9,10009,1","2,1,016,1,+999,9",,,"SYN060AAXX  28094 08048 42960 02702 10124 20089 30009 40186 52016;",
"08048099999","2010-09-28T12:00:00","4","42.3333333","-7.8666666","147.0","ORENSE, SP","FM-12","99999","V020","030,1,N,0015,1","22000,1,9,N","010000,1,N,1","+0224,1","+0126,1","10172,1","06,0000,9,1",,,,,"01,99,1,00,1,00,1,99999,9,00,1,01,1",,,,,"99999,9,10002,1","8,1,007,1,+999,9",,,"SYN072AAXX  28124 08048 12960 10303 10224 20126 30002 40172 58007 60001 80001;","Q01  00002PRCP06"
"08048099999","2010-09-28T15:00:00","4","42.3333333","-7.8666666","147.0","ORENSE, SP","FM-12","99999","V020","310,1,N,0026,1","22000,1,9,N","010000,1,N,1","+0274,1","+0122,1","10156,1",,,,,,"01,99,1,01,1,01,1,00450,1,00,1,01,1",,,,,"99999,9,09989,1","8,1,013,1,+999,9",,,"SYN066AAXX  28154 08048 42460 13105 10274 20122 39989 40156 58013 81101;",
"08048099999","2010-09-28T18:00:00","4","42.3333333","-7.8666666","147.0","ORENSE, SP","FM-12","99999","V020","280,1,N,0015,1","22000,1,9,N","010000,1,N,1","+0250,1","+0108,1","10161,1","12,0000,9,1",,,,,"01,99,1,00,1,00,1,99999,9,00,1,01,1",,,,"999,M,+0282,1","99999,9,09992,1","3,1,003,1,+999,9",,,"SYN082AAXX  28184 08048 12960 12803 10250 20108 39992 40161 53003 60002 80001 333 10282;","Q01  00002PRCP12"
"08048099999","2010-09-29T06:00:00","4","42.3333333","-7.8666666","147.0","ORENSE, SP","FM-12","99999","V020","290,1,N,0010,1","22000,1,9,N","010000,1,N,1","+0082,1","+0067,1","10201,1","12,0000,9,1","24,0000,9,1",,,,"01,99,1,00,1,00,1,99999,9,00,1,01,1","0618,9","09,9","999,+0040,9","999,N,+0080,1","99999,9,10021,1","3,1,005,1,+999,9",,,"SYN106AAXX  29064 08048 12960 12902 10082 20067 30021 40201 53005 60002 80001 333 20080 31004 50354 55103 70000;","Q01  00002PRCP24Q02  00002PRCP12"
"08048099999","2010-09-29T09:00:00","4","42.3333333","-7.8666666","147.0","ORENSE, SP","FM-12","99999","V020","310,1,N,0015,1","00420,1,9,N","010000,1,N,1","+0122,1","+0090,1","10206,1",,,,,,"06,99,1,06,1,06,1,00450,1,00,1,00,1",,,,,"99999,9,10029,1","1,1,008,1,+999,9",,,"SYN066AAXX  29094 08048 42460 63103 10122 20090 30029 40206 51008 86600;",
"08048099999","2010-09-29T12:00:00","4","42.3333333","-7.8666666","147.0","ORENSE, SP","FM-12","99999","V020","090,1,N,0015,1","22000,1,9,N","010000,1,N,1","+0221,1","+0137,1","10188,1","06,0000,9,1",,,,,"03,99,1,01,1,01,1,00450,1,04,1,01,1",,,,,"99999,9,10017,1","8,1,012,1,+999,9",,,"SYN072AAXX  29124 08048 12460 30903 10221 20137 30017 40188 58012 60001 81141;","Q01  00002PRCP06"
"08048099999","2010-09-29T15:00:00","4","42.3333333","-7.8666666","147.0","ORENSE, SP","FM-12","99999","V020","320,1,N,0036,1","00900,1,9,N","010000,1,N,1","+0237,1","+0144,1","10175,1",,,,,,"06,99,1,06,1,08,1,00450,1,00,1,00,1",,,,,"99999,9,10006,1","6,1,011,1,+999,9",,,"SYN066AAXX  29154 08048 42460 63207 10237 20144 30006 40175 56011 86800;",
"08048099999","2010-09-29T18:00:00","4","42.3333333","-7.8666666","147.0","ORENSE, SP","FM-12","99999","V020","320,1,N,0026,1","00420,1,9,N","010000,1,N,1","+0200,1","+0154,1","10186,1","12,9999,9,9",,"1,1,06,1","1,1,06,1",,"08,99,1,08,1,07,1,00450,1,99,9,99,9",,,,"999,M,+0256,1","99999,9,10014,1","3,1,008,1,+999,9","60,1",,"SYN088AAXX  29184 08048 11460 83205 10200 20154 30014 40186 53008 69902 76011 887// 333 10256;","Q01  00002PRCP12Q02  00002PRCP12"
"08048099999","2010-09-30T06:00:00","4","42.3333333","-7.8666666","147.0","ORENSE, SP","FM-12","99999","V020","130,1,N,0010,1","09000,1,9,N","010000,1,N,1","+0126,1","+0110,1","10208,1","12,0030,9,1","24,0033,9,1",,,,"05,99,1,02,1,06,1,00450,1,04,1,08,1","0252,9","09,9","999,+0040,9","999,N,+0124,1","99999,9,10031,1","3,1,006,1,+999,9",,,"SYN106AAXX  30064 08048 12460 51302 10126 20110 30031 40208 53006 60032 82648 333 20124 31004 50224 55042 70032;",
"08048099999","2010-09-30T09:00:00","4","42.3333333","-7.8666666","147.0","ORENSE, SP","FM-12","99999","V020","270,1,N,0010,1","03600,1,9,N","010000,1,N,1","+0139,1","+0114,1","10210,1",,,,,,"06,99,1,04,1,05,1,00450,1,04,1,08,1",,,,,"99999,9,10034,1","1,1,003,1,+999,9",,,"SYN066AAXX  30094 08048 42460 62702 10139 20114 30034 40210 51003 84548;",
"08048099999","2010-09-30T12:00:00","4","42.3333333","-7.8666666","147.0","ORENSE, SP","FM-12","99999","V020","280,1,N,0026,1","22000,1,9,N","010000,1,N,1","+0196,1","+0124,1","10199,1","06,0000,9,1",,,,,"05,99,1,01,1,01,1,00450,1,00,1,08,1",,,,,"99999,9,10027,1","8,1,007,1,+999,9",,,"SYN072AAXX  30124 08048 12460 52805 10196 20124 30027 40199 58007 60001 81108;","Q01  00002PRCP06"
"08048099999","2010-09-30T15:00:00","4","42.3333333","-7.8666666","147.0","ORENSE, SP","FM-12","99999","V020","050,1,N,0015,1","22000,1,9,N","010000,1,N,1","+0226,1","+0125,1","10175,1",,,,,,"03,99,1,02,1,01,1,00450,1,00,1,08,1",,,,,"99999,9,10005,1","6,1,022,1,+999,9",,,"SYN066AAXX  30154 08048 42460 30503 10226 20125 30005 40175 56022 82108;",
"08048099999","2010-09-30T18:00:00","4","42.3333333","-7.8666666","147.0","ORENSE, SP","FM-12","99999","V020","320,1,N,0026,1","22000,1,9,N","010000,1,N,1","+0210,1","+0108,1","10167,1","12,0000,9,1",,,,,"02,99,1,01,1,00,1,02250,1,04,1,02,1",,,,"999,M,+0244,1","99999,9,09996,1","5,1,009,1,+999,9",,,"SYN082AAXX  30184 08048 12860 23205 10210 20108 39996 40167 55009 60002 81042 333 10244;","Q01  00002PRCP12"
"08048099999","2010-10-01T06:00:00","4","42.3333333","-7.8666666","147.0","ORENSE, SP","FM-12","99999","V020","999,9,C,0000,1","09000,1,9,N","010000,1,N,1","+0094,1","+0082,1","10166,1","12,0000,9,1","24,0000,9,1",,,,"07,99,1,02,1,00,1,02250,1,04,1,08,1","0498,9","09,9","999,+0060,9","999,N,+0090,1","99999,9,09988,1","6,1,007,1,+999,9",,,"SYN106AAXX  01064 08048 12860 70000 10094 20082 39988 40166 56007 60002 82048 333 20090 31006 50264 55083 70000;","Q01  00002PRCP24Q02  00002PRCP12"
"08048099999","2010-10-01T09:00:00","4","42.3333333","-7.8666666","147.0","ORENSE, SP","FM-12","99999","V020","110,1,N,0010,1","09000,1,9,N","010000,1,N,1","+0128,1","+0096,1","10163,1",,,,,,"05,99,1,01,1,01,1,00450,1,04,1,08,1",,,,,"99999,9,09987,1","5,1,001,1,+999,9",,,"SYN066AAXX  01094 08048 42460 51102 10128 20096 39987 40163 55001 81148;",
"08048099999","2010-10-01T12:00:00","4","42.3333333","-7.8666666","147.0","ORENSE, SP","FM-12","99999","V020","250,1,N,0026,1","03600,1,9,N","010000,1,N,1","+0213,1","+0124,1","10144,1","06,0000,9,1",,,,,"06,99,1,03,1,05,1,00450,1,07,1,02,1",,,,,"99999,9,09974,1","8,1,013,1,+999,9",,,"SYN072AAXX  01124 08048 12460 62505 10213 20124 39974 40144 58013 60001 83572;","Q01  00002PRCP06"
"08048099999","2010-10-01T15:00:00","4","42.3333333","-7.8666666","147.0","ORENSE, SP","FM-12","99999","V020","260,1,N,0041,1","03600,1,9,N","010000,1,N,1","+0228,1","+0118,1","10126,1",,,,,,"06,99,1,02,1,05,1,00450,1,07,1,02,1",,,,,"99999,9,09957,1","7,1,017,1,+999,9",,,"SYN066AAXX  01154 08048 42460 62608 10228 20118 39957 40126 57017 82572;",
"08048099999","2010-10-01T18:00:00","4","42.3333333","-7.8666666","147.0","ORENSE, SP","FM-12","99999","V020","270,1,N,0026,1","03600,1,9,N","010000,1,N,1","+0202,1","+0132,1","10128,1","12,0000,9,1",,,,,"07,99,1,01,1,01,1,00450,1,07,1,99,9",,,,"999,M,+0240,1","99999,9,09957,1","4,1,000,1,+999,9",,,"SYN082AAXX  01184 08048 12460 72705 10202 20132 39957 40128 54000 60002 8117/ 333 10240;","Q01  00002PRCP12"
"08048099999","2010-10-04T06:00:00","4","42.3333333","-7.8666666","147.0","ORENSE, SP","FM-12","99999","V020","330,1,N,0010,1","00420,1,9,N","010000,1,N,1","+0124,1","+0115,1","10096,1","12,0020,9,1","24,0343,9,1",,,,"07,99,1,07,1,07,1,00450,1,04,1,99,9","0054,9",,,"999,N,+0119,1","99999,9,09921,1","2,1,029,1,+999,9","02,1",,"SYN100AAXX  04064 08048 11460 73302 10124 20115 39921 40096 52029 60022 702// 8774/ 333 20119 55009 70344;",
"08048099999","2010-10-04T09:00:00","4","42.3333333","-7.8666666","147.0","ORENSE, SP","FM-12","99999","V020","210,1,N,0010,1","22000,1,9,N","010000,1,N,1","+0154,1","+0120,1","10117,1",,,,,,"02,99,1,02,1,05,1,00450,1,00,1,00,1",,,,,"99999,9,09944,1","2,1,023,1,+999,9",,,"SYN066AAXX  04094 08048 42460 22102 10154 20120 39944 40117 52023 82500;",
"08048099999","2010-10-04T12:00:00","4","42.3333333","-7.8666666","147.0","ORENSE, SP","FM-12","99999","V020","270,1,N,0021,1","00900,1,9,N","010000,1,N,1","+0178,1","+0118,1","10122,1","06,0000,9,1",,"5,1,06,1","1,1,06,1",,"07,99,1,07,1,08,1,00450,1,00,1,00,1",,,,,"99999,9,09950,1","2,1,006,1,+999,9","03,1",,"SYN078AAXX  04124 08048 11460 72704 10178 20118 39950 40122 52006 69901 70351 87800;","Q01  00002PRCP06"
"08048099999","2010-10-04T15:00:00","4","42.3333333","-7.8666666","147.0","ORENSE, SP","FM-12","99999","V020","210,1,N,0031,1","00420,1,9,N","010000,1,N,1","+0212,1","+0123,1","10111,1",,,,,,"05,99,1,05,1,02,1,00450,1,00,1,00,1",,,,,"99999,9,09941,1","8,1,009,1,+999,9",,,"SYN066AAXX  04154 08048 42460 52106 10212 20123 39941 40111 58009 85200;",
"08048099999","2010-10-04T18:00:00","4","42.3333333","-7.8666666","147.0","ORENSE, SP","FM-12","99999","V020","250,1,N,0010,1","22000,1,9,N","010000,1,N,1","+0182,1","+0108,1","10124,1","12,0000,9,1",,"5,1,06,1","1,1,06,1",,"01,99,1,01,1,01,1,00450,1,00,1,01,1",,,,"999,M,+0222,1","99999,9,09952,1","1,1,011,1,+999,9","01,1",,"SYN088AAXX  04184 08048 11460 12502 10182 20108 39952 40124 51011 69902 70151 81101 333 10222;","Q01  00002PRCP12"
"08048099999","2010-10-05T06:00:00","4","42.3333333","-7.8666666","147.0","ORENSE, SP","FM-12","99999","V020","230,1,N,0005,1","00420,1,9,N","010000,1,N,1","+0104,1","+0099,1","10122,1","12,0000,9,1","24,0000,9,1",,,,"08,99,1,08,1,05,1,00450,1,99,9,99,9","0276,9","01,9","999,+0080,9","999,N,+0097,1","99999,9,09945,1","6,1,012,1,+999,9","02,1",,"SYN112AAXX  05064 08048 11460 82301 10104 20099 39945 40122 56012 60002 702// 885// 333 20097 30008 50194 55046 70000;","Q01  00002PRCP24Q02  00002PRCP12"
"08048099999","2010-10-05T09:00:00","4","42.3333333","-7.8666666","147.0","ORENSE, SP","FM-12","99999","V020","160,1,N,0031,1","00420,1,9,N","010000,1,N,1","+0167,1","+0118,1","10108,1",,,,,,"07,99,1,06,1,05,1,00450,1,04,1,01,1",,,,,"99999,9,09936,1","8,1,009,1,+999,9",,,"SYN066AAXX  05094 08048 42460 71606 10167 20118 39936 40108 58009 86541;",
"08048099999","2010-10-05T12:00:00","4","42.3333333","-7.8666666","147.0","ORENSE, SP","FM-12","99999","V020","150,1,N,0031,1","00420,1,9,N","010000,1,N,1","+0192,1","+0132,1","10096,1","06,0000,9,1",,,,,"07,99,1,07,1,07,1,00450,1,04,1,99,9",,,,,"99999,9,09925,1","8,1,011,1,+999,9",,,"SYN072AAXX  05124 08048 12460 71506 10192 20132 39925 40096 58011 60001 8774/;","Q01  00002PRCP06"
"08048099999","2010-10-05T15:00:00","4","42.3333333","-7.8666666","147.0","ORENSE, SP","FM-12","99999","V020","220,1,N,0041,1","00420,1,9,N","010000,1,N,1","+0201,1","+0138,1","10077,1",,,,,,"08,99,1,06,1,07,1,00450,1,02,1,99,9",,,,,"99999,9,09907,1","7,1,018,1,+999,9",,,"SYN066AAXX  05154 08048 42460 82208 10201 20138 39907 40077 57018 8672/;",
"08048099999","2010-10-05T18:00:00","4","42.3333333","-7.8666666","147.0","ORENSE, SP","FM-12","99999","V020","180,1,N,0031,1","00420,1,9,N","010000,1,N,1","+0194,1","+0140,1","10068,1","12,9999,9,9",,"5,1,06,1","2,1,06,1",,"08,99,1,07,1,07,1,00450,1,02,1,99,9",,,,"999,M,+0211,1","99999,9,09898,1","6,1,009,1,+999,9","60,1",,"SYN088AAXX  05184 08048 11460 81806 10194 20140 39898 40068 56009 69902 76052 8772/ 333 10211;","Q01  00002PRCP12Q02  00002PRCP12"
"08048099999","2010-10-06T06:00:00","4","42.3333333","-7.8666666","147.0","ORENSE, SP","FM-12","99999","V020","150,1,N,0010,1","03600,1,9,N","010000,1,N,1","+0147,1","+0144,1","10082,1","12,0109,9,1","24,0112,9,1",,,,"08,99,1,02,1,07,1,00450,1,02,1,99,9","0006,9","11,9","999,+0100,9","999,N,+0143,1","99999,9,09909,1","1,1,008,1,+999,9","61,1",,"SYN112AAXX  06064 08048 11460 81502 10147 20144 39909 40082 51008 60112 761// 8272/ 333 20143 32010 50274 55001 70112;",
"08048099999","2010-10-06T09:00:00","4","42.3333333","-7.8666666","147.0","ORENSE, SP","FM-12","99999","V020","170,1,N,0010,1","03600,1,9,N","010000,1,N,1","+0148,1","+0143,1","10102,1",,,"6,1,03,1","5,1,03,1",,"08,99,1,04,1,07,1,00450,1,02,1,99,9",,,,,"99999,9,09929,1","1,1,020,1,+999,9","51,1",,"SYN072AAXX  06094 08048 41460 81702 10148 20143 39929 40102 51020 75165 8472/;",
"08048099999","2010-10-06T12:00:00","4","42.3333333","-7.8666666","147.0","ORENSE, SP","FM-12","99999","V020","330,1,N,0005,1","00420,1,9,N","010000,1,N,1","+0160,1","+0147,1","10111,1","06,0051,9,1",,"6,1,06,1","5,1,06,1",,"08,99,1,08,1,07,1,00450,1,99,9,99,9",,,,,"99999,9,09938,1","1,1,009,1,+999,9","20,1",,"SYN078AAXX  06124 08048 11460 83301 10160 20147 39938 40111 51009 60051 72065 887//;",
"08048099999","2010-10-06T15:00:00","4","42.3333333","-7.8666666","147.0","ORENSE, SP","FM-12","99999","V020","360,1,N,0010,1","03600,1,9,N","010000,1,N,1","+0181,1","+0140,1","10102,1",,,,,,"08,99,1,04,1,07,1,00450,1,02,1,99,9",,,,,"99999,9,09931,1","6,1,007,1,+999,9",,,"SYN066AAXX  06154 08048 42460 83602 10181 20140 39931 40102 56007 8472/;",
"08048099999","2010-10-06T18:00:00","4","42.3333333","-7.8666666","147.0","ORENSE, SP","FM-12","99999","V020","030,1,N,0010,1","00420,1,9,N","010000,1,N,1","+0174,1","+0147,1","10101,1","12,0051,9,1",,,,,"08,99,1,07,1,07,1,00450,1,02,1,99,9",,,,"999,M,+0186,1","99999,9,09929,1","6,1,002,1,+999,9",,,"SYN082AAXX  06184 08048 12460 80302 10174 20147 39929 40101 56002 60052 8772/ 333 10186;",
"08048099999","2010-10-07T06:00:00","4","42.3333333","-7.8666666","147.0","ORENSE, SP","FM-12","99999","V020","290,1,N,0010,1","00210,1,9,N","008000,1,N,1","+0147,1","+0144,1","10084,1","12,0020,9,1","24,0066,9,1",,,,"07,99,1,07,1,07,1,00250,1,99,9,99,9","0000,9","09,9","999,+0130,9","999,N,+0143,1","99999,9,09911,1","6,1,007,1,+999,9","10,1",,"SYN112AAXX  07064 08048 11358 72902 10147 20144 39911 40084 56007 60022 710// 877// 333 20143 31013 50074 55000 70067;",
"08048099999","2010-10-07T09:00:00","4","42.3333333","-7.8666666","147.0","ORENSE, SP","FM-12","99999","V020","170,1,N,0010,1","00210,1,9,N","010000,1,N,1","+0157,1","+0154,1","10084,1",,,"6,1,03,1","2,1,03,1",,"07,99,1,06,1,07,1,00250,1,04,1,00,1",,,,,"99999,9,09912,1","2,1,001,1,+999,9","01,1",,"SYN072AAXX  07094 08048 41360 71702 10157 20154 39912 40084 52001 70162 86740;",
"08048099999","2010-10-07T12:00:00","4","42.3333333","-7.8666666","147.0","ORENSE, SP","FM-12","99999","V020","160,1,N,0051,1","00420,1,9,N","010000,1,N,1","+0223,1","+0142,1","10073,1","06,0008,9,1",,"6,1,06,1","2,1,06,1",,"07,99,1,07,1,07,1,00450,1,04,1,00,1",,,,,"99999,9,09905,1","6,1,007,1,+999,9","03,1",,"SYN078AAXX  07124 08048 11460 71610 10223 20142 39905 40073 56007 69971 70362 87740;",
"08048099999","2010-10-07T15:00:00","4","42.3333333","-7.8666666","147.0","ORENSE, SP","FM-12","99999","V020","190,1,N,0031,1","00420,1,9,N","010000,1,N,1","+0244,1","+0153,1","10055,1",,,,,,"07,99,1,07,1,05,1,00450,1,00,1,00,1",,,,,"99999,9,09888,1","6,1,017,1,+999,9",,,"SYN066AAXX  07154 08048 42460 71906 10244 20153 39888 40055 56017 87500;",
"08048099999","2010-10-07T18:00:00","4","42.3333333","-7.8666666","147.0","ORENSE, SP","FM-12","99999","V020","110,1,N,0005,1","00420,1,9,N","010000,1,N,1","+0192,1","+0179,1","10058,1","12,0030,9,1",,"8,1,06,1","2,1,06,1",,"07,99,1,07,1,05,1,00450,1,99,9,99,9",,,,"999,M,+0261,1","99999,9,09888,1","0,1,000,1,+999,9","02,1",,"SYN088AAXX  07184 08048 11460 71101 10192 20179 39888 40058 50000 60032 70282 875// 333 10261;",
"08048099999","2010-10-08T06:00:00","4","42.3333333","-7.8666666","147.0","ORENSE, SP","FM-12","99999","V020","170,1,N,0036,1","03600,1,9,N","010000,1,N,1","+0186,1","+0153,1","10030,1","12,0030,9,1","24,0066,9,1",,,,"05,99,1,04,1,07,1,00450,1,04,1,00,1","0162,9","09,9","999,+0140,9","999,N,+0167,1","99999,9,09860,1","6,1,012,1,+999,9","02,1",,"SYN112AAXX  08064 08048 11460 51707 10186 20153 39860 40030 56012 60032 702// 84740 333 20167 31014 50194 55027 70065;",
"08048099999","2010-10-08T09:00:00","4","42.3333333","-7.8666666","147.0","ORENSE, SP","FM-12","99999","V020","160,1,N,0051,1","00420,1,9,N","010000,1,N,1","+0194,1","+0149,1","10025,1",,,"5,1,03,1","2,1,03,1",,"07,99,1,07,1,07,1,00450,1,99,9,99,9",,,,,"99999,9,09856,1","8,1,004,1,+999,9","50,1",,"SYN072AAXX  08094 08048 41460 71610 10194 20149 39856 40025 58004 75052 877//;",
"08048099999","2010-10-08T12:00:00","4","42.3333333","-7.8666666","147.0","ORENSE, SP","FM-12","99999","V020","160,1,N,0046,1","00420,1,9,N","010000,1,N,1","+0202,1","+0160,1","10020,1","06,0000,2,1",,"6,1,06,1","5,1,06,1",,"08,99,1,06,1,07,1,00450,1,02,1,99,9",,,,,"99999,9,09851,1","8,1,005,1,+999,9","60,1",,"SYN078AAXX  08124 08048 11460 81609 10202 20160 39851 40020 58005 69901 76065 8672/;",
"08048099999","2010-10-08T15:00:00","4","42.3333333","-7.8666666","147.0","ORENSE, SP","FM-12","99999","V020","170,1,N,0031,1","00420,1,9,N","010000,1,N,1","+0196,1","+0164,1","10002,1",,,"6,1,03,1","5,1,03,1",,"08,99,1,06,1,07,1,00450,1,02,1,99,9",,,,,"99999,9,09833,1","6,1,018,1,+999,9","50,1",,"SYN072AAXX  08154 08048 41460 81706 10196 20164 39833 40002 56018 75065 8672/;",
"08048099999","2010-10-08T18:00:00","4","42.3333333","-7.8666666","147.0","ORENSE, SP","FM-12","99999","V020","280,1,N,0015,1","00420,1,9,N","008000,1,N,1","+0180,1","+0167,1","10022,1","12,0030,9,1",,"6,1,06,1","5,1,06,1",,"08,99,1,06,1,07,1,00450,1,02,1,99,9",,,,"999,M,+0214,1","99999,9,09852,1","3,1,019,1,+999,9","63,1",,"SYN088AAXX  08184 08048 11458 82803 10180 20167 39852 40022 53019 60032 76365 8672/ 333 10214;",
"08048099999","2010-10-11T06:00:00","4","42.3333333","-7.8666666","147.0","ORENSE, SP","FM-12","99999","V020","190,1,N,0010,1","00420,1,9,N","010000,1,N,1","+0116,1","+0105,1","10035,1","12,0000,9,1","24,0000,9,1",,,,"07,99,1,07,1,07,1,00450,1,99,9,99,9","0378,9",,,"999,N,+0112,1","99999,9,09861,1","6,1,005,1,+999,9","02,1",,"SYN100AAXX  11064 08048 11460 71902 10116 20105 39861 40035 56005 60002 702// 877// 333 20112 55063 70000;","Q01  00002PRCP24Q02  00002PRCP12"
"08048099999","2010-10-11T09:00:00","4","42.3333333","-7.8666666","147.0","ORENSE, SP","FM-12","99999","V020","270,1,N,0010,1","00420,1,9,N","010000,1,N,1","+0128,1","+0117,1","10038,1",,,,,,"08,99,1,08,1,07,1,00450,1,99,9,99,9",,,,,"99999,9,09864,1","0,1,003,1,+999,9",,,"SYN066AAXX  11094 08048 42460 82702 10128 20117 39864 40038 50003 887//;",
"08048099999","2010-10-11T12:00:00","4","42.3333333","-7.8666666","147.0","ORENSE, SP","FM-12","99999","V020","210,1,N,0015,1","03600,1,9,N","010000,1,N,1","+0188,1","+0143,1","10029,1","06,0000,9,1",,"5,1,06,1","1,1,06,1",,"05,99,1,04,1,05,1,00450,1,04,1,00,1",,,,,"99999,9,09859,1","8,1,005,1,+999,9","01,1",,"SYN078AAXX  11124 08048 11460 52103 10188 20143 39859 40029 58005 69901 70151 84540;","Q01  00002PRCP06"
"08048099999","2010-10-11T15:00:00","4","42.3333333","-7.8666666","147.0","ORENSE, SP","FM-12","99999","V020","070,1,N,0015,1","03600,1,9,N","010000,1,N,1","+0233,1","+0154,1","10010,1",,,,,,"06,99,1,04,1,08,1,00450,1,04,1,00,1",,,,,"99999,9,09843,1","7,1,016,1,+999,9",,,"SYN066AAXX  11154 08048 42460 60703 10233 20154 39843 40010 57016 84840;",
"08048099999","2010-10-11T18:00:00","4","42.3333333","-7.8666666","147.0","ORENSE, SP","FM-12","99999","V020","030,1,N,0015,1","22000,1,9,N","010000,1,N,1","+0205,1","+0148,1","10018,1","12,0000,9,1",,,,,"03,99,1,02,1,08,1,00450,1,04,1,00,1",,,,"999,M,+0248,1","99999,9,09849,1","1,1,006,1,+999,9",,,"SYN082AAXX  11184 08048 12460 30303 10205 20148 39849 40018 51006 69902 82840 333 10248;","Q01  00002PRCP12"
"08048099999","2010-10-12T06:00:00","4","42.3333333","-7.8666666","147.0","ORENSE, SP","FM-12","99999","V020","260,1,N,0005,1","00420,1,9,N","010000,1,N,1","+0112,1","+0107,1","10059,1","12,0000,9,1","24,0000,9,1",,,,"07,99,1,07,1,06,1,00450,1,99,9,99,9","0276,9","09,9","999,+0080,9","999,N,+0105,1","99999,9,09884,1","1,1,003,1,+999,9",,,"SYN106AAXX  12064 08048 12460 72601 10112 20107 39884 40059 51003 60002 876// 333 20105 31008 50184 55046 79999;","Q01  00002PRCP24Q02  00002PRCP12"
"08048099999","2010-10-12T09:00:00","4","42.3333333","-7.8666666","147.0","ORENSE, SP","FM-12","99999","V020","170,1,N,0005,1","00420,1,9,N","010000,1,N,1","+0136,1","+0125,1","10070,1",,,,,,"08,99,1,08,1,06,1,00450,1,99,9,99,9",,,,,"99999,9,09896,1","1,1,012,1,+999,9",,,"SYN066AAXX  12094 08048 42460 81701 10136 20125 39896 40070 51012 886//;",
"08048099999","2010-10-12T12:00:00","4","42.3333333","-7.8666666","147.0","ORENSE, SP","FM-12","99999","V020","230,1,N,0015,1","22000,1,9,N","010000,1,N,1","+0194,1","+0136,1","10066,1","06,0000,9,1",,,,,"01,99,1,01,1,06,1,00450,1,00,1,00,1",,,,,"99999,9,09896,1","0,1,000,1,+999,9",,,"SYN072AAXX  12124 08048 12460 12303 10194 20136 39896 40066 50000 60001 81600;","Q01  00002PRCP06"
"08048099999","2010-10-12T15:00:00","4","42.3333333","-7.8666666","147.0","ORENSE, SP","FM-12","99999","V020","290,1,N,0015,1","22000,1,9,N","010000,1,N,1","+0247,1","+0148,1","10048,1",,,,,,"02,99,1,02,1,02,1,00450,1,06,1,00,1",,,,,"99999,9,09881,1","6,1,015,1,+999,9",,,"SYN066AAXX  12154 08048 42460 22903 10247 20148 39881 40048 56015 82260;",
"08048099999","2010-10-12T18:00:00","4","42.3333333","-7.8666666","147.0","ORENSE, SP","FM-12","99999","V020","320,1,N,0015,1","22000,1,9,N","010000,1,N,1","+0226,1","+0157,1","10051,1","12,0000,9,1",,,,,"04,99,1,04,1,05,1,00450,1,00,1,00,1",,,,"999,M,+0252,1","99999,9,09883,1","3,1,002,1,+999,9",,,"SYN082AAXX  12184 08048 12460 43203 10226 20157 39883 40051 53002 60002 84500 333 10252;","Q01  00002PRCP12"
"08048099999","2010-10-13T06:00:00","4","42.3333333","-7.8666666","147.0","ORENSE, SP","FM-12","99999","V020","170,1,N,0010,1","22000,1,9,N","010000,1,N,1","+0110,1","+0104,1","10108,1","12,0000,9,1","24,0000,9,1",,,"00,1,+99999,9,99,9","00,99,1,00,1,00,1,99999,9,00,1,00,1","0402,9","09,9","999,+0070,9","999,N,+0107,1","99999,9,09932,1","3,1,008,1,+999,9",,,"SYN100AAXX  13064 08048 12960 01702 10110 20104 39932 40108 53008 60002 333 20107 31007 50204 55067 70000;","Q01  00002PRCP24Q02  00002PRCP12"
"08048099999","2010-10-13T09:00:00","4","42.3333333","-7.8666666","147.0","ORENSE, SP","FM-12","99999","V020","220,1,N,0010,1","22000,1,9,N","010000,1,N,1","+0142,1","+0124,1","10122,1",,,,,,"03,99,1,01,1,06,1,00450,1,04,1,09,1",,,,,"99999,9,09948,1","2,1,016,1,+999,9",,,"SYN066AAXX  13094 08048 42460 32202 10142 20124 39948 40122 52016 81649;",
"08048099999","2010-10-13T12:00:00","4","42.3333333","-7.8666666","147.0","ORENSE, SP","FM-12","99999","V020","070,1,N,0026,1","22000,1,9,N","010000,1,N,1","+0216,1","+0135,1","10115,1","06,0000,9,1",,,,,"01,99,1,01,1,01,1,00450,1,04,1,00,1",,,,,"99999,9,09945,1","8,1,003,1,+999,9",,,"SYN072AAXX  13124 08048 12460 10705 10216 20135 39945 40115 58003 60001 81140;","Q01  00002PRCP06"
"08048099999","2010-10-13T15:00:00","4","42.3333333","-7.8666666","147.0","ORENSE, SP","FM-12","99999","V020","060,1,N,0021,1","22000,1,9,N","010000,1,N,1","+0238,1","+0139,1","10105,1",,,,,,"01,99,1,01,1,01,1,00450,1,00,1,00,1",,,,,"99999,9,09937,1","6,1,008,1,+999,9",,,"SYN066AAXX  13154 08048 42460 10604 10238 20139 39937 40105 56008 81100;",
"08048099999","2010-10-13T18:00:00","4","42.3333333","-7.8666666","147.0","ORENSE, SP","FM-12","99999","V020","300,1,N,0010,1","22000,1,9,N","010000,1,N,1","+0216,1","+0145,1","10111,1","12,0000,9,1",,,,,"01,99,1,01,1,05,1,00450,1,00,1,00,1",,,,"999,M,+0244,1","99999,9,09942,1","3,1,005,1,+999,9",,,"SYN082AAXX  13184 08048 12460 13002 10216 20145 39942 40111 53005 60002 81500 333 10244;","Q01  00002PRCP12"
"08048099999","2010-10-14T06:00:00","4","42.3333333","-7.8666666","147.0","ORENSE, SP","FM-12","99999","V020","170,1,N,0010,1","00210,1,9,N","008000,1,N,1","+0118,1","+0109,1","10140,1","12,0000,9,1","24,0000,9,1",,,,"08,99,1,08,1,06,1,00250,1,99,9,99,9","0540,9","09,9","999,+0070,9","999,N,+0097,1","99999,9,09964,1","3,1,002,1,+999,9","10,1",,"SYN112AAXX  14064 08048 11358 81702 10118 20109 39964 40140 53002 60002 710// 886// 333 20097 31007 50204 55090 70000;","Q01  00002PRCP24Q02  00002PRCP12"
"08048099999","2010-10-14T09:00:00","4","42.3333333","-7.8666666","147.0","ORENSE, SP","FM-12","99999","V020","210,1,N,0010,1","00210,1,9,N","008000,1,N,1","+0132,1","+0118,1","10151,1",,,"2,1,03,1","2,1,03,1",,"08,99,1,08,1,06,1,00250,1,99,9,99,9",,,,,"99999,9,09976,1","2,1,012,1,+999,9","10,1",,"SYN072AAXX  14094 08048 41358 82102 10132 20118 39976 40151 52012 71022 886//;",
"08048099999","2010-10-14T12:00:00","4","42.3333333","-7.8666666","147.0","ORENSE, SP","FM-12","99999","V020","160,1,N,0015,1","00420,1,9,N","010000,1,N,1","+0154,1","+0125,1","10152,1","06,0000,9,1",,,,,"08,99,1,08,1,06,1,00450,1,99,9,99,9",,,,,"99999,9,09978,1","1,1,002,1,+999,9",,,"SYN072AAXX  14124 08048 12460 81603 10154 20125 39978 40152 51002 60001 886//;","Q01  00002PRCP06"
"08048099999","2010-10-14T15:00:00","4","42.3333333","-7.8666666","147.0","ORENSE, SP","FM-12","99999","V020","230,1,N,0015,1","22000,1,9,N","010000,1,N,1","+0195,1","+0139,1","10134,1",,,,,,"01,99,1,01,1,01,1,00450,1,00,1,00,1",,,,,"99999,9,09963,1","6,1,015,1,+999,9",,,"SYN066AAXX  14154 08048 42460 12303 10195 20139 39963 40134 56015 81100;",
"08048099999","2010-10-14T18:00:00","4","42.3333333","-7.8666666","147.0","ORENSE, SP","FM-12","99999","V020","140,1,N,0010,1","22000,1,9,N","010000,1,N,1","+0176,1","+0145,1","10132,1","12,0000,9,1",,,,,"01,99,1,01,1,05,1,00450,1,04,1,00,1",,,,"999,M,+0209,1","99999,9,09960,1","6,1,003,1,+999,9",,,"SYN082AAXX  14184 08048 12460 11402 10176 20145 39960 40132 56003 60002 81540 333 10209;","Q01  00002PRCP12"
"08048099999","2010-10-15T06:00:00","4","42.3333333","-7.8666666","147.0","ORENSE, SP","FM-12","99999","V020","220,1,N,0005,1","00210,1,9,N","009000,1,N,1","+0091,1","+0083,1","10146,1","12,0000,9,1","24,0000,9,1",,,,"08,99,1,08,1,06,1,00250,1,99,9,99,9","0222,9","09,9","999,+0040,9","999,N,+0068,1","99999,9,09968,1","4,1,000,1,+999,9","10,1",,"SYN112AAXX  15064 08048 11359 82201 10091 20083 39968 40146 54000 60002 710// 886// 333 20068 31004 50114 55037 70000;","Q01  00002PRCP24Q02  00002PRCP12"
"08048099999","2010-10-15T09:00:00","4","42.3333333","-7.8666666","147.0","ORENSE, SP","FM-12","99999","V020","260,1,N,0005,1","00420,1,9,N","010000,1,N,1","+0111,1","+0094,1","10154,1",,,,,,"07,99,1,07,1,06,1,00450,1,00,1,00,1",,,,,"99999,9,09977,1","3,1,009,1,+999,9",,,"SYN066AAXX  15094 08048 42460 72601 10111 20094 39977 40154 53009 87600;",
"08048099999","2010-10-15T12:00:00","4","42.3333333","-7.8666666","147.0","ORENSE, SP","FM-12","99999","V020","030,1,N,0021,1","22000,1,9,N","010000,1,N,1","+0168,1","+0104,1","10142,1","06,0000,9,1",,,,,"01,99,1,01,1,01,1,00450,1,00,1,00,1",,,,,"99999,9,09969,1","8,1,008,1,+999,9",,,"SYN072AAXX  15124 08048 12460 10304 10168 20104 39969 40142 58008 60001 81100;","Q01  00002PRCP06"
"08048099999","2010-10-15T15:00:00","4","42.3333333","-7.8666666","147.0","ORENSE, SP","FM-12","99999","V020","030,1,N,0015,1","22000,1,9,N","010000,1,N,1","+0210,1","+0119,1","10118,1",,,,,,"01,99,1,01,1,01,1,00450,1,04,1,00,1",,,,,"99999,9,09948,1","6,1,021,1,+999,9",,,"SYN066AAXX  15154 08048 42460 10303 10210 20119 39948 40118 56021 81140;",
"08048099999","2010-10-15T18:00:00","4","42.3333333","-7.8666666","147.0","ORENSE, SP","FM-12","99999","V020","040,1,N,0015,1","22000,1,9,N","010000,1,N,1","+0186,1","+0117,1","10122,1","12,0000,9,1",,,,,"01,99,1,01,1,01,1,00450,1,00,1,00,1",,,,"999,M,+0218,1","99999,9,09950,1","3,1,002,1,+999,9",,,"SYN082AAXX  15184 08048 12460 10403 10186 20117 39950 40122 53002 60002 81100 333 10218;","Q01  00002PRCP12"
"08048099999","2010-10-18T06:00:00","4","42.3333333","-7.8666666","147.0","ORENSE, SP","FM-12","99999","V020","310,1,N,0005,1","22000,1,9,N","010000,1,N,1","+0041,1","+0034,1","10238,1","12,0000,9,1","24,0000,9,1",,,"00,1,+99999,9,99,9","00,99,1,00,1,00,1,99999,9,00,1,00,1","0564,9",,,"999,N,+0038,1","99999,9,10055,1","2,1,007,1,+999,9",,,"SYN088AAXX  18064 08048 12960 03101 10041 20034 30055 40238 52007 60002 333 20038 55094 70000;","Q01  00002PRCP24Q02  00002PRCP12"
"08048099999","2010-10-18T09:00:00","4","42.3333333","-7.8666666","147.0","ORENSE, SP","FM-12","99999","V020","200,1,N,0010,1","22000,1,9,N","010000,1,N,1","+0078,1","+0061,1","10247,1",,,,,"00,1,+99999,9,99,9","00,99,1,00,1,00,1,99999,9,00,1,00,1",,,,,"99999,9,10066,1","1,1,011,1,+999,9",,,"SYN060AAXX  18094 08048 42960 02002 10078 20061 30066 40247 51011;",
"08048099999","2010-10-18T12:00:00","4","42.3333333","-7.8666666","147.0","ORENSE, SP","FM-12","99999","V020","020,1,N,0015,1","22000,1,9,N","010000,1,N,1","+0163,1","+0075,1","10232,1","06,0000,9,1",,,,"00,1,+99999,9,99,9","00,99,1,00,1,00,1,99999,9,00,1,00,1",,,,,"99999,9,10057,1","8,1,009,1,+999,9",,,"SYN066AAXX  18124 08048 12960 00203 10163 20075 30057 40232 58009 60001;","Q01  00002PRCP06"
"08048099999","2010-10-18T15:00:00","4","42.3333333","-7.8666666","147.0","ORENSE, SP","FM-12","99999","V020","360,1,N,0021,1","22000,1,9,N","010000,1,N,1","+0193,1","+0077,1","10205,1",,,,,"00,1,+99999,9,99,9","00,99,1,00,1,00,1,99999,9,00,1,00,1",,,,,"99999,9,10032,1","7,1,025,1,+999,9",,,"SYN060AAXX  18154 08048 42960 03604 10193 20077 30032 40205 57025;",
"08048099999","2010-10-18T18:00:00","4","42.3333333","-7.8666666","147.0","ORENSE, SP","FM-12","99999","V020","280,1,N,0010,1","22000,1,9,N","010000,1,N,1","+0169,1","+0098,1","10204,1","12,0000,9,1",,,,"00,1,+99999,9,99,9","00,99,1,00,1,00,1,99999,9,00,1,00,1",,,,"999,M,+0203,1","99999,9,10030,1","6,1,002,1,+999,9",,,"SYN076AAXX  18184 08048 12960 02802 10169 20098 30030 40204 56002 60002 333 10203;","Q01  00002PRCP12"
"08048099999","2010-10-19T06:00:00","4","42.3333333","-7.8666666","147.0","ORENSE, SP","FM-12","99999","V020","999,9,C,0000,1","22000,1,9,N","010000,1,N,1","+0028,1","+0021,1","10221,1","12,0000,9,1","24,0000,9,1",,,,"02,99,1,02,1,06,1,00250,1,00,1,00,1","0564,9","09,9","999,-0010,9","999,N,+0025,1","99999,9,10037,1","6,1,002,1,+999,9","02,1",,"SYN112AAXX  19064 08048 11360 20000 10028 20021 30037 40221 56002 60002 702// 82600 333 20025 31101 50184 55094 70000;","Q01  00002PRCP24Q02  00002PRCP12"
"08048099999","2010-10-19T12:00:00","4","42.3333333","-7.8666666","147.0","ORENSE, SP","FM-12","99999","V020","330,1,N,0031,1","22000,1,9,N","010000,1,N,1","+0157,1","+0072,1","10195,1","06,0000,9,1",,,,"00,1,+99999,9,99,9","00,99,1,00,1,00,1,99999,9,00,1,00,1",,,,,"99999,9,10020,1","8,1,022,1,+999,9",,,"SYN066AAXX  19124 08048 12960 03306 10157 20072 30020 40195 58022 60001;","Q01  00002PRCP06"
"08048099999","2010-10-19T15:00:00","4","42.3333333","-7.8666666","147.0","ORENSE, SP","FM-12","99999","V020","330,1,N,0015,1","22000,1,9,N","010000,1,N,1","+0216,1","+0095,1","10165,1",,,,,"00,1,+99999,9,99,9","00,99,1,00,1,00,1,99999,9,00,1,00,1",,,,,"99999,9,09994,1","7,1,026,1,+999,9",,,"SYN060AAXX  19154 08048 42960 03303 10216 20095 39994 40165 57026;",
"08048099999","2010-10-19T18:00:00","4","42.3333333","-7.8666666","147.0","ORENSE, SP","FM-12","99999","V020","080,1,N,0010,1","22000,1,9,N","010000,1,N,1","+0180,1","+0101,1","10166,1","12,0000,9,1",,,,"00,1,+99999,9,99,9","00,99,1,00,1,00,1,99999,9,00,1,00,1",,,,"999,M,+0221,1","99999,9,09993,1","5,1,001,1,+999,9",,,"SYN076AAXX  19184 08048 12960 00802 10180 20101 39993 40166 55001 60002 333 10221;","Q01  00002PRCP12"
"08048099999","2010-10-20T06:00:00","4","42.3333333","-7.8666666","147.0","ORENSE, SP","FM-12","99999","V020","999,9,C,0000,1","00210,1,9,N","008000,1,N,1","+0036,1","+0026,1","10187,1","12,0000,9,1","24,0000,9,1",,,,"08,99,1,08,1,06,1,00250,1,99,9,99,9","0498,9","09,9","999,-0010,9","999,N,+0030,1","99999,9,10005,1","3,1,002,1,+999,9","10,1",,"SYN112AAXX  20064 08048 11358 80000 10036 20026 30005 40187 53002 60002 710// 886// 333 20030 31101 50174 55083 70000;","Q01  00002PRCP24Q02  00002PRCP12"
"08048099999","2010-10-20T09:00:00","4","42.3333333","-7.8666666","147.0","ORENSE, SP","FM-12","99999","V020","170,1,N,0015,1","00210,1,9,N","004000,1,N,1","+0067,1","+0063,1","10193,1",,,"2,1,03,1","2,1,03,1",,"08,99,1,08,1,06,1,00250,1,99,9,99,9",,,,,"99999,9,10013,1","1,1,008,1,+999,9","10,1",,"SYN072AAXX  20094 08048 41340 81703 10067 20063 30013 40193 51008 71022 886//;",
"08048099999","2010-10-20T12:00:00","4","42.3333333","-7.8666666","147.0","ORENSE, SP","FM-12","99999","V020","230,1,N,0015,1","22000,1,9,N","010000,1,N,1","+0138,1","+0086,1","10181,1","06,0000,9,1",,,,,"03,99,1,00,1,00,1,99999,9,00,1,01,1",,,,,"99999,9,10005,1","8,1,008,1,+999,9",,,"SYN072AAXX  20124 08048 12960 32303 10138 20086 30005 40181 58008 60001 80001;","Q01  00002PRCP06"
"08048099999","2010-10-20T15:00:00","4","42.3333333","-7.8666666","147.0","ORENSE, SP","FM-12","99999","V020","010,1,N,0021,1","22000,1,9,N","010000,1,N,1","+0217,1","+0099,1","10151,1",,,,,,"03,99,1,00,1,00,1,99999,9,00,1,01,1",,,,,"99999,9,09981,1","6,1,024,1,+999,9",,,"SYN066AAXX  20154 08048 42960 30104 10217 20099 39981 40151 56024 80001;",
"08048099999","2010-10-20T18:00:00","4","42.3333333","-7.8666666","147.0","ORENSE, SP","FM-12","99999","V020","100,1,N,0010,1","22000,1,9,N","010000,1,N,1","+0185,1","+0127,1","10156,1","12,0000,9,1",,,,,"03,99,1,00,1,00,1,99999,9,00,1,01,1",,,,"999,M,+0227,1","99999,9,09984,1","3,1,003,1,+999,9",,,"SYN082AAXX  20184 08048 12960 31002 10185 20127 39984 40156 53003 60002 80001 333 10227;","Q01  00002PRCP12"
"08048099999","2010-10-21T06:00:00","4","42.3333333","-7.8666666","147.0","ORENSE, SP","FM-12","99999","V020","260,1,N,0010,1","00210,1,9,N","008000,1,N,1","+0054,1","+0050,1","10194,1","12,0000,9,1","24,0000,9,1",,,,"08,99,1,08,1,06,1,00250,1,99,9,99,9","0408,9","09,9","999,+0010,9","999,N,+0042,1","99999,9,10013,1","3,1,003,1,+999,9","10,1",,"SYN112AAXX  21064 08048 11358 82602 10054 20050 30013 40194 53003 60002 710// 886// 333 20042 31001 50154 55068 70000;","Q01  00002PRCP24Q02  00002PRCP12"
"08048099999","2010-10-21T09:00:00","4","42.3333333","-7.8666666","147.0","ORENSE, SP","FM-12","99999","V020","180,1,N,0010,1","22000,1,9,N","008000,1,N,1","+0080,1","+0076,1","10204,1",,,"2,1,03,1","2,1,03,1",,"04,99,1,04,1,06,1,00250,1,00,1,01,1",,,,,"99999,9,10024,1","1,1,011,1,+999,9","10,1",,"SYN072AAXX  21094 08048 41358 41802 10080 20076 30024 40204 51011 71022 84601;",
"08048099999","2010-10-21T12:00:00","4","42.3333333","-7.8666666","147.0","ORENSE, SP","FM-12","99999","V020","330,1,N,0021,1","99999,9,9,N","010000,1,N,1","+0175,1","+0111,1","10185,1","06,0000,9,1",,,,,"05,99,1,00,1,00,1,99999,9,00,1,04,1",,,,,"99999,9,10012,1","8,1,012,1,+999,9",,,"SYN072AAXX  21124 08048 12960 53304 10175 20111 30012 40185 58012 60001 80004;","Q01  00002PRCP06"
"08048099999","2010-10-21T15:00:00","4","42.3333333","-7.8666666","147.0","ORENSE, SP","FM-12","99999","V020","310,1,N,0026,1","22000,1,9,N","010000,1,N,1","+0243,1","+0106,1","10163,1",,,,,,"02,99,1,00,1,00,1,99999,9,00,1,01,1",,,,,"99999,9,09994,1","6,1,018,1,+999,9",,,"SYN066AAXX  21154 08048 42960 23105 10243 20106 39994 40163 56018 80001;",
"08048099999","2010-10-21T18:00:00","4","42.3333333","-7.8666666","147.0","ORENSE, SP","FM-12","99999","V020","110,1,N,0010,1","22000,1,9,N","010000,1,N,1","+0190,1","+0113,1","10170,1","12,0000,9,1",,,,,"02,99,1,00,1,00,1,99999,9,00,1,01,1",,,,"999,M,+0246,1","99999,9,09998,1","3,1,004,1,+999,9",,,"SYN082AAXX  21184 08048 12960 21102 10190 20113 39998 40170 53004 60002 80001 333 10246;","Q01  00002PRCP12"
"08048099999","2010-10-22T06:00:00","4","42.3333333","-7.8666666","147.0","ORENSE, SP","FM-12","99999","V020","999,9,C,0000,1","22000,1,9,N","009000,1,N,1","+0048,1","+0041,1","10200,1","12,0000,9,1","24,0000,9,1",,,,"03,99,1,03,1,06,1,00250,1,00,1,00,1","0492,9","09,9","999,+0010,9","999,N,+0045,1","99999,9,10018,1","5,1,002,1,+999,9","10,1",,"SYN112AAXX  22064 08048 11359 30000 10048 20041 30018 40200 55002 60002 710// 83600 333 20045 31001 50214 55082 70000;","Q01  00002PRCP24Q02  00002PRCP12"
"08048099999","2010-10-22T09:00:00","4","42.3333333","-7.8666666","147.0","ORENSE, SP","FM-12","99999","V020","190,1,N,0010,1","00210,1,9,N","004000,1,N,1","+0071,1","+0067,1","10210,1",,,"4,1,03,1","2,1,03,1",,"08,99,1,08,1,06,1,00250,1,99,9,99,9",,,,,"99999,9,10030,1","3,1,012,1,+999,9","28,1",,"SYN072AAXX  22094 08048 41340 81902 10071 20067 30030 40210 53012 72842 886//;",
"08048099999","2010-10-22T12:00:00","4","42.3333333","-7.8666666","147.0","ORENSE, SP","FM-12","99999","V020","250,1,N,0010,1","22000,1,9,N","010000,1,N,1","+0112,1","+0079,1","10206,1","06,0000,9,1",,"4,1,06,1","2,1,06,1",,"07,99,1,04,1,06,1,00450,1,00,1,04,1",,,,,"99999,9,10028,1","8,1,002,1,+999,9","01,1",,"SYN078AAXX  22124 08048 11460 72502 10112 20079 30028 40206 58002 60001 70142 84604;","Q01  00002PRCP06"
"08048099999","2010-10-22T15:00:00","4","42.3333333","-7.8666666","147.0","ORENSE, SP","FM-12","99999","V020","250,1,N,0010,1","00420,1,9,N","010000,1,N,1","+0175,1","+0094,1","10182,1",,,,,,"07,99,1,07,1,01,1,00450,1,07,1,99,9",,,,,"99999,9,10009,1","6,1,019,1,+999,9",,,"SYN066AAXX  22154 08048 42460 72502 10175 20094 30009 40182 56019 8717/;",
"08048099999","2010-10-22T18:00:00","4","42.3333333","-7.8666666","147.0","ORENSE, SP","FM-12","99999","V020","350,1,N,0010,1","03600,1,9,N","010000,1,N,1","+0158,1","+0114,1","10183,1","12,0000,9,1",,,,,"07,99,1,02,1,01,1,00450,1,07,1,99,9",,,,"999,M,+0183,1","99999,9,10009,1","4,1,000,1,+999,9",,,"SYN082AAXX  22184 08048 12460 73502 10158 20114 30009 40183 54000 60002 8217/ 333 10183;","Q01  00002PRCP12"
"08048099999","2010-10-25T06:00:00","4","42.3333333","-7.8666666","147.0","ORENSE, SP","FM-12","99999","V020","300,1,N,0010,1","22000,1,9,N","010000,1,N,1","+0122,1","+0104,1","10199,1","12,0000,9,1","24,0000,9,1",,,,"04,99,1,01,1,05,1,00450,1,04,1,01,1","0012,9",,,"999,N,+0121,1","99999,9,10022,1","3,1,008,1,+999,9",,,"SYN094AAXX  25064 08048 12460 43002 10122 20104 30022 40199 53008 60002 81541 333 20121 55002 70001;","Q01  00002PRCP24Q02  00002PRCP12"
"08048099999","2010-10-25T09:00:00","4","42.3333333","-7.8666666","147.0","ORENSE, SP","FM-12","99999","V020","010,1,N,0015,1","09000,1,9,N","010000,1,N,1","+0125,1","+0091,1","10220,1",,,,,,"05,99,1,02,1,05,1,00450,1,04,1,02,1",,,,,"99999,9,10043,1","2,1,021,1,+999,9",,,"SYN066AAXX  25094 08048 42460 50103 10125 20091 30043 40220 52021 82542;",
"08048099999","2010-10-25T12:00:00","4","42.3333333","-7.8666666","147.0","ORENSE, SP","FM-12","99999","V020","020,1,N,0010,1","22000,1,9,N","010000,1,N,1","+0173,1","+0111,1","10219,1","06,0000,9,1",,,,,"01,99,1,01,1,01,1,00450,1,00,1,01,1",,,,,"99999,9,10045,1","1,1,002,1,+999,9",,,"SYN072AAXX  25124 08048 12460 10202 10173 20111 30045 40219 51002 60001 81101;","Q01  00002PRCP06"
"08048099999","2010-10-25T15:00:00","4","42.3333333","-7.8666666","147.0","ORENSE, SP","FM-12","99999","V020","040,1,N,0021,1","22000,1,9,N","010000,1,N,1","+0209,1","+0104,1","10211,1",,,,,,"02,99,1,01,1,01,1,00450,1,04,1,01,1",,,,,"99999,9,10039,1","6,1,006,1,+999,9",,,"SYN066AAXX  25154 08048 42460 20404 10209 20104 30039 40211 56006 81141;",
"08048099999","2010-10-25T18:00:00","4","42.3333333","-7.8666666","147.0","ORENSE, SP","FM-12","99999","V020","330,1,N,0010,1","22000,1,9,N","010000,1,N,1","+0169,1","+0091,1","10222,1","12,0000,9,1",,,,,"02,99,1,01,1,01,1,00450,1,04,1,01,1",,,,"999,M,+0214,1","99999,9,10048,1","3,1,009,1,+999,9",,,"SYN082AAXX  25184 08048 12460 23302 10169 20091 30048 40222 53009 60002 81141 333 10214;","Q01  00002PRCP12"
"08048099999","2010-10-26T06:00:00","4","42.3333333","-7.8666666","147.0","ORENSE, SP","FM-12","99999","V020","170,1,N,0005,1","00420,1,9,N","010000,1,N,1","+0048,1","+0044,1","10267,1","12,0000,9,1","24,0000,9,1",,,,"05,99,1,05,1,06,1,00450,1,00,1,00,1","0438,9","09,9","999,+0010,9","999,N,+0047,1","99999,9,10084,1","1,1,007,1,+999,9",,,"SYN106AAXX  26064 08048 12460 51701 10048 20044 30084 40267 51007 60002 85600 333 20047 31001 50174 55073 70000;","Q01  00002PRCP24Q02  00002PRCP12"
"08048099999","2010-10-26T09:00:00","4","42.3333333","-7.8666666","147.0","ORENSE, SP","FM-12","99999","V020","160,1,N,0010,1","00210,1,9,N","010000,1,N,1","+0071,1","+0065,1","10281,1",,,,,,"05,99,1,05,1,06,1,00250,1,00,1,01,1",,,,,"99999,9,10099,1","3,1,015,1,+999,9",,,"SYN066AAXX  26094 08048 42360 51602 10071 20065 30099 40281 53015 85601;",
"08048099999","2010-10-26T12:00:00","4","42.3333333","-7.8666666","147.0","ORENSE, SP","FM-12","99999","V020","300,1,N,0015,1","22000,1,9,N","010000,1,N,1","+0161,1","+0045,1","10268,1","06,0000,9,1",,,,,"03,99,1,00,1,00,1,99999,9,00,1,02,1",,,,,"99999,9,10092,1","8,1,007,1,+999,9",,,"SYN072AAXX  26124 08048 12960 33003 10161 20045 30092 40268 58007 60001 80002;","Q01  00002PRCP06"
"08048099999","2010-10-26T18:00:00","4","42.3333333","-7.8666666","147.0","ORENSE, SP","FM-12","99999","V020","270,1,N,0005,1","22000,1,9,N","010000,1,N,1","+0168,1","+0113,1","10253,1","12,0000,9,1",,,,,"03,99,1,01,1,00,1,02250,1,03,1,02,1",,,,"999,M,+0216,1","99999,9,10078,1","5,1,000,1,+999,9",,,"SYN082AAXX  26184 08048 12860 32701 10168 20113 30078 40253 55000 60002 81032 333 10216;","Q01  00002PRCP12"
"08048099999","2010-10-27T06:00:00","4","42.3333333","-7.8666666","147.0","ORENSE, SP","FM-12","99999","V020","250,1,N,0005,1","00120,1,9,N","004000,1,N,1","+0055,1","+0048,1","10273,1","12,0000,9,1","24,0000,9,1",,,,"07,99,1,07,1,06,1,00150,1,99,9,99,9","0480,9","09,9","999,+0020,9","999,N,+0050,1","99999,9,10090,1","5,1,000,1,+999,9","10,1",,"SYN112AAXX  27064 08048 11240 72501 10055 20048 30090 40273 55000 60002 710// 876// 333 20050 31002 50194 55080 70000;","Q01  00002PRCP24Q02  00002PRCP12"
"08048099999","2010-10-27T09:00:00","4","42.3333333","-7.8666666","147.0","ORENSE, SP","FM-12","99999","V020","190,1,N,0015,1","00060,1,9,N","000800,1,N,1","+0068,1","+0064,1","10276,1",,,"4,1,03,1","2,1,03,1","09,1,+99999,9,99,9","09,99,1,09,1,99,9,99999,9,99,9,99,9",,,,,"99999,9,10094,1","1,1,004,1,+999,9","45,1",,"SYN066AAXX  27094 08048 41/08 91903 10068 20064 30094 40276 51004 74542;",
"08048099999","2010-10-27T12:00:00","4","42.3333333","-7.8666666","147.0","ORENSE, SP","FM-12","99999","V020","230,1,N,0010,1","09000,1,9,N","010000,1,N,1","+0134,1","+0074,1","10259,1","06,0000,9,1",,"4,1,06,1","1,1,06,1",,"06,99,1,03,1,00,1,02250,1,08,1,02,1",,,,,"99999,9,10082,1","8,1,012,1,+999,9","03,1",,"SYN078AAXX  27124 08048 11860 62302 10134 20074 30082 40259 58012 60001 70341 83082;","Q01  00002PRCP06"
"08048099999","2010-10-27T15:00:00","4","42.3333333","-7.8666666","147.0","ORENSE, SP","FM-12","99999","V020","350,1,N,0005,1","09000,1,9,N","010000,1,N,1","+0189,1","+0107,1","10237,1",,,,,,"07,99,1,03,1,00,1,02250,1,07,1,08,1",,,,,"99999,9,10064,1","6,1,018,1,+999,9",,,"SYN066AAXX  27154 08048 42860 73501 10189 20107 30064 40237 56018 83078;",
"08048099999","2010-10-27T18:00:00","4","42.3333333","-7.8666666","147.0","ORENSE, SP","FM-12","99999","V020","999,9,C,0000,1","03600,1,9,N","010000,1,N,1","+0159,1","+0121,1","10240,1","12,0000,9,1",,,,,"08,99,1,01,1,01,1,00450,1,07,1,99,9",,,,"999,M,+0201,1","99999,9,10065,1","3,1,001,1,+999,9",,,"SYN082AAXX  27184 08048 12460 80000 10159 20121 30065 40240 53001 60002 8117/ 333 10201;","Q01  00002PRCP12"
"08048099999","2010-10-28T06:00:00","4","42.3333333","-7.8666666","147.0","ORENSE, SP","FM-12","99999","V020","170,1,N,0010,1","00120,1,9,N","003000,1,N,1","+0092,1","+0086,1","10229,1","12,0000,9,1","24,0000,9,1",,,,"08,99,1,08,1,06,1,00150,1,99,9,99,9","0210,9","09,9","999,+0050,9","999,N,+0085,1","99999,9,10050,1","6,1,010,1,+999,9","10,1",,"SYN112AAXX  28064 08048 11230 81702 10092 20086 30050 40229 56010 60002 710// 886// 333 20085 31005 50124 55035 70000;","Q01  00002PRCP24Q02  00002PRCP12"
"08048099999","2010-10-28T09:00:00","4","42.3333333","-7.8666666","147.0","ORENSE, SP","FM-12","99999","V020","200,1,N,0010,1","00060,1,9,N","000600,1,N,1","+0096,1","+0091,1","10231,1",,,"4,1,03,1","2,1,03,1","09,1,+99999,9,99,9","09,99,1,09,1,99,9,99999,9,99,9,99,9",,,,,"99999,9,10052,1","1,1,002,1,+999,9","45,1",,"SYN066AAXX  28094 08048 41/06 92002 10096 20091 30052 40231 51002 74542;",
"08048099999","2010-10-28T12:00:00","4","42.3333333","-7.8666666","147.0","ORENSE, SP","FM-12","99999","V020","200,1,N,0010,1","22000,1,9,N","010000,1,N,1","+0138,1","+0104,1","10204,1","06,0000,9,1",,"4,1,06,1","1,1,06,1",,"01,99,1,00,1,00,1,99999,9,00,1,02,1",,,,,"99999,9,10028,1","8,1,024,1,+999,9","01,1",,"SYN078AAXX  28124 08048 11960 12002 10138 20104 30028 40204 58024 60001 70141 80002;","Q01  00002PRCP06"
"08048099999","2010-10-28T15:00:00","4","42.3333333","-7.8666666","147.0","ORENSE, SP","FM-12","99999","V020","190,1,N,0010,1","09000,1,9,N","010000,1,N,1","+0219,1","+0138,1","10161,1",,,,,,"05,99,1,01,1,00,1,02250,1,04,1,02,1",,,,,"99999,9,09991,1","6,1,037,1,+999,9",,,"SYN066AAXX  28154 08048 42860 51902 10219 20138 39991 40161 56037 81042;",
"08048099999","2010-10-28T18:00:00","4","42.3333333","-7.8666666","147.0","ORENSE, SP","FM-12","99999","V020","300,1,N,0015,1","09000,1,9,N","010000,1,N,1","+0174,1","+0123,1","10148,1","12,0000,9,1",,,,,"06,99,1,03,1,00,1,02250,1,04,1,08,1",,,,"999,M,+0229,1","99999,9,09975,1","8,1,016,1,+999,9",,,"SYN082AAXX  28184 08048 12860 63003 10174 20123 39975 40148 58016 60002 83048 333 10229;","Q01  00002PRCP12"
"08048099999","2010-10-29T06:00:00","4","42.3333333","-7.8666666","147.0","ORENSE, SP","FM-12","99999","V020","160,1,N,0041,1","00420,1,9,N","010000,1,N,1","+0159,1","+0084,1","10060,1","12,0000,9,1","24,0000,9,1",,,,"08,99,1,08,1,07,1,00450,1,99,9,99,9","0270,9","01,9","999,+0080,9","999,N,+0109,1","99999,9,09888,1","6,1,029,1,+999,9",,,"SYN106AAXX  29064 08048 12460 81608 10159 20084 39888 40060 56029 60002 887// 333 20109 30008 50204 55045 70000;","Q01  00002PRCP24Q02  00002PRCP12"
"08048099999","2010-10-29T09:00:00","4","42.3333333","-7.8666666","147.0","ORENSE, SP","FM-12","99999","V020","240,1,N,0026,1","00210,1,9,N","004000,1,N,1","+0133,1","+0117,1","10054,1",,,"6,1,03,1","2,1,03,1",,"08,99,1,08,1,07,1,00250,1,99,9,99,9",,,,,"99999,9,09880,1","6,1,008,1,+999,9","63,1",,"SYN072AAXX  29094 08048 41340 82405 10133 20117 39880 40054 56008 76362 887//;",
"08048099999","2010-10-29T12:00:00","4","42.3333333","-7.8666666","147.0","ORENSE, SP","FM-12","99999","V020","140,1,N,0031,1","00420,1,9,N","010000,1,N,1","+0122,1","+0103,1","10068,1","06,0269,9,1",,"6,1,06,1","2,1,06,1",,"08,99,1,05,1,07,1,00450,1,02,1,99,9",,,,,"99999,9,09893,1","0,1,013,1,+999,9","61,1",,"SYN078AAXX  29124 08048 11460 81406 10122 20103 39893 40068 50013 60271 76162 8572/;",
"08048099999","2010-10-29T15:00:00","4","42.3333333","-7.8666666","147.0","ORENSE, SP","FM-12","99999","V020","210,1,N,0010,1","00420,1,9,N","010000,1,N,1","+0129,1","+0120,1","10056,1",,,"6,1,03,1","2,1,03,1",,"07,99,1,05,1,07,1,00450,1,07,1,99,9",,,,,"99999,9,09882,1","5,1,011,1,+999,9","21,1",,"SYN072AAXX  29154 08048 41460 72102 10129 20120 39882 40056 55011 72162 8577/;",
"08048099999","2010-10-29T18:00:00","4","42.3333333","-7.8666666","147.0","ORENSE, SP","FM-12","99999","V020","130,1,N,0010,1","00900,1,9,N","010000,1,N,1","+0128,1","+0114,1","10082,1","12,0330,9,1",,"8,1,06,1","6,1,06,1",,"05,99,1,05,1,08,1,00450,1,00,1,00,1",,,,"999,M,+0159,1","99999,9,09908,1","3,1,026,1,+999,9","80,1",,"SYN088AAXX  29184 08048 11460 51302 10128 20114 39908 40082 53026 60332 78086 85800 333 10159;",
"08048099999","2010-11-01T06:00:00","4","42.3333333","-7.8666666","147.0","ORENSE, SP","FM-12","99999","V020","090,1,N,0015,1","22000,1,9,N","010000,1,N,1","+0115,1","+0098,1","10183,1","12,0010,9,1","24,0061,9,1",,,,"04,99,1,04,1,06,1,00450,1,00,1,00,1","0066,9",,,"999,N,+0112,1","99999,9,10006,1","3,1,025,1,+999,9","02,1",,"SYN100AAXX  01064 08048 11460 40903 10115 20098 30006 40183 53025 60012 702// 84600 333 20112 55011 70060;",
"08048099999","2010-11-01T09:00:00","4","42.3333333","-7.8666666","147.0","ORENSE, SP","FM-12","99999","V020","999,9,C,0000,1","00420,1,9,N","010000,1,N,1","+0130,1","+0107,1","10206,1",,,,,,"07,99,1,07,1,07,1,00450,1,00,1,00,1",,,,,"99999,9,10030,1","2,1,024,1,+999,9",,,"SYN066AAXX  01094 08048 42460 70000 10130 20107 30030 40206 52024 87700;",
"08048099999","2010-11-01T12:00:00","4","42.3333333","-7.8666666","147.0","ORENSE, SP","FM-12","99999","V020","270,1,N,0015,1","00420,1,9,N","010000,1,N,1","+0150,1","+0127,1","10211,1","06,0000,9,1",,,,,"08,99,1,08,1,07,1,00450,1,99,9,99,9",,,,,"99999,9,10036,1","1,1,006,1,+999,9",,,"SYN072AAXX  01124 08048 12460 82703 10150 20127 30036 40211 51006 60001 887//;","Q01  00002PRCP06"
"08048099999","2010-11-01T15:00:00","4","42.3333333","-7.8666666","147.0","ORENSE, SP","FM-12","99999","V020","320,1,N,0021,1","00420,1,9,N","010000,1,N,1","+0156,1","+0116,1","10212,1",,,"5,1,03,1","2,1,03,1",,"08,99,1,08,1,07,1,00450,1,99,9,99,9",,,,,"99999,9,10037,1","3,1,001,1,+999,9","60,1",,"SYN072AAXX  01154 08048 41460 83204 10156 20116 30037 40212 53001 76052 887//;",
"08048099999","2010-11-01T18:00:00","4","42.3333333","-7.8666666","147.0","ORENSE, SP","FM-12","99999","V020","260,1,N,0005,1","00420,1,9,N","010000,1,N,1","+0138,1","+0120,1","10226,1","12,0003,9,1",,"6,1,06,1","5,1,06,1",,"07,99,1,05,1,07,1,00450,1,04,1,02,1",,,,"999,M,+0159,1","99999,9,10050,1","1,1,013,1,+999,9","01,1",,"SYN088AAXX  01184 08048 11460 72601 10138 20120 30050 40226 51013 69932 70165 85742 333 10159;",
"08048099999","2010-11-02T06:00:00","4","42.3333333","-7.8666666","147.0","ORENSE, SP","FM-12","99999","V020","260,1,N,0005,1","00210,1,9,N","008000,1,N,1","+0074,1","+0073,1","10255,1","12,0000,9,1","24,0003,9,1",,,,"08,99,1,08,1,06,1,00250,1,99,9,99,9","0006,9","09,9","999,+0040,9","999,N,+0072,1","99999,9,10074,1","3,1,003,1,+999,9","10,1",,"SYN112AAXX  02064 08048 11358 82601 10074 20073 30074 40255 53003 60002 710// 886// 333 20072 31004 50074 55001 70003;","Q01  00002PRCP12"
"08048099999","2010-11-02T09:00:00","4","42.3333333","-7.8666666","147.0","ORENSE, SP","FM-12","99999","V020","140,1,N,0010,1","00210,1,9,N","008000,1,N,1","+0086,1","+0082,1","10263,1",,,"4,1,03,1","2,1,03,1",,"08,99,1,08,1,06,1,00250,1,99,9,99,9",,,,,"99999,9,10083,1","1,1,009,1,+999,9","10,1",,"SYN072AAXX  02094 08048 41358 81402 10086 20082 30083 40263 51009 71042 886//;",
"08048099999","2010-11-02T12:00:00","4","42.3333333","-7.8666666","147.0","ORENSE, SP","FM-12","99999","V020","050,1,N,0010,1","00420,1,9,N","010000,1,N,1","+0128,1","+0094,1","10258,1","06,0000,9,1",,"4,1,06,1","2,1,06,1",,"07,99,1,07,1,06,1,00450,1,00,1,00,1",,,,,"99999,9,10080,1","8,1,003,1,+999,9","01,1",,"SYN078AAXX  02124 08048 11460 70502 10128 20094 30080 40258 58003 69901 70142 87600;","Q01  00002PRCP06"
"08048099999","2010-11-02T15:00:00","4","42.3333333","-7.8666666","147.0","ORENSE, SP","FM-12","99999","V020","150,1,N,0010,1","00420,1,9,N","010000,1,N,1","+0162,1","+0118,1","10237,1",,,,,,"06,99,1,06,1,05,1,00450,1,04,1,01,1",,,,,"99999,9,10062,1","7,1,018,1,+999,9",,,"SYN066AAXX  02154 08048 42460 61502 10162 20118 30062 40237 57018 86541;",
"08048099999","2010-11-02T18:00:00","4","42.3333333","-7.8666666","147.0","ORENSE, SP","FM-12","99999","V020","160,1,N,0005,1","00420,1,9,N","010000,1,N,1","+0150,1","+0123,1","10246,1","12,0000,9,1",,,,,"08,99,1,08,1,05,1,00450,1,99,9,99,9",,,,"999,M,+0168,1","99999,9,10070,1","3,1,008,1,+999,9",,,"SYN082AAXX  02184 08048 12460 81601 10150 20123 30070 40246 53008 69902 885// 333 10168;","Q01  00002PRCP12"
"08048099999","2010-11-03T06:00:00","4","42.3333333","-7.8666666","147.0","ORENSE, SP","FM-12","99999","V020","220,1,N,0005,1","00210,1,9,N","008000,1,N,1","+0124,1","+0121,1","10255,1","12,0000,9,1","24,0000,9,1",,,,"08,99,1,08,1,06,1,00250,1,99,9,99,9","0132,9","01,9","999,+0100,9","999,N,+0120,1","99999,9,10077,1","2,1,003,1,+999,9","10,1",,"SYN112AAXX  03064 08048 11358 82201 10124 20121 30077 40255 52003 60002 710// 886// 333 20120 30010 50074 55022 79999;","Q01  00002PRCP24Q02  00002PRCP12"
"08048099999","2010-11-03T09:00:00","4","42.3333333","-7.8666666","147.0","ORENSE, SP","FM-12","99999","V020","320,1,N,0015,1","00210,1,9,N","010000,1,N,1","+0131,1","+0113,1","10269,1",,,,,,"08,99,1,08,1,06,1,00250,1,99,9,99,9",,,,,"99999,9,10092,1","3,1,015,1,+999,9",,,"SYN066AAXX  03094 08048 42360 83203 10131 20113 30092 40269 53015 886//;",
"08048099999","2010-11-03T12:00:00","4","42.3333333","-7.8666666","147.0","ORENSE, SP","FM-12","99999","V020","260,1,N,0010,1","00420,1,9,N","010000,1,N,1","+0142,1","+0115,1","10271,1","06,0000,9,1",,,,,"07,99,1,07,1,05,1,00450,1,99,9,99,9",,,,,"99999,9,10094,1","1,1,002,1,+999,9",,,"SYN072AAXX  03124 08048 12460 72602 10142 20115 30094 40271 51002 60001 875//;","Q01  00002PRCP06"
"08048099999","2010-11-03T15:00:00","4","42.3333333","-7.8666666","147.0","ORENSE, SP","FM-12","99999","V020","280,1,N,0015,1","22000,1,9,N","010000,1,N,1","+0202,1","+0141,1","10253,1",,,,,,"02,99,1,00,1,00,1,99999,9,00,1,01,1",,,,,"99999,9,10080,1","7,1,014,1,+999,9",,,"SYN066AAXX  03154 08048 42960 22803 10202 20141 30080 40253 57014 80001;",
"08048099999","2010-11-03T18:00:00","4","42.3333333","-7.8666666","147.0","ORENSE, SP","FM-12","99999","V020","999,9,C,0000,1","22000,1,9,N","010000,1,N,1","+0170,1","+0143,1","10259,1","12,0000,9,1",,,,,"01,99,1,00,1,00,1,99999,9,00,1,01,1",,,,"999,M,+0209,1","99999,9,10084,1","3,1,004,1,+999,9",,,"SYN082AAXX  03184 08048 12960 10000 10170 20143 30084 40259 53004 60002 80001 333 10209;","Q01  00002PRCP12"
"08048099999","2010-11-04T06:00:00","4","42.3333333","-7.8666666","147.0","ORENSE, SP","FM-12","99999","V020","190,1,N,0015,1","00210,1,9,N","004000,1,N,1","+0102,1","+0097,1","10287,1","12,0000,9,1","24,0000,9,1",,,,"08,99,1,08,1,06,1,00250,1,99,9,99,9","0282,9","09,9","999,+0060,9","999,N,+0098,1","99999,9,10107,1","3,1,003,1,+999,9","10,1",,"SYN112AAXX  04064 08048 11340 81903 10102 20097 30107 40287 53003 69912 710// 886// 333 20098 31006 50104 55047 70001;","Q01  00002PRCP24Q02  00002PRCP12"
"08048099999","2010-11-04T12:00:00","4","42.3333333","-7.8666666","147.0","ORENSE, SP","FM-12","99999","V020","160,1,N,0010,1","00420,1,9,N","010000,1,N,1","+0133,1","+0117,1","10298,1","06,0000,9,1",,,,,"06,99,1,06,1,06,1,00450,1,00,1,00,1",,,,,"99999,9,10120,1","8,1,005,1,+999,9",,,"SYN072AAXX  04124 08048 12460 61602 10133 20117 30120 40298 58005 60001 86600;","Q01  00002PRCP06"
"08048099999","2010-11-04T15:00:00","4","42.3333333","-7.8666666","147.0","ORENSE, SP","FM-12","99999","V020","230,1,N,0010,1","22000,1,9,N","010000,1,N,1","+0218,1","+0152,1","10269,1",,,,,"00,1,+99999,9,99,9","00,99,1,00,1,00,1,99999,9,00,1,00,1",,,,,"99999,9,10097,1","7,1,023,1,+999,9",,,"SYN060AAXX  04154 08048 42960 02302 10218 20152 30097 40269 57023;",
"08048099999","2010-11-04T18:00:00","4","42.3333333","-7.8666666","147.0","ORENSE, SP","FM-12","99999","V020","270,1,N,0010,1","22000,1,9,N","010000,1,N,1","+0179,1","+0152,1","10273,1","12,0000,9,1",,,,"00,1,+99999,9,99,9","00,99,1,00,1,00,1,99999,9,00,1,00,1",,,,"999,M,+0227,1","99999,9,10099,1","1,1,002,1,+999,9",,,"SYN076AAXX  04184 08048 12960 02702 10179 20152 30099 40273 51002 60002 333 10227;","Q01  00002PRCP12"
"08048099999","2010-11-05T06:00:00","4","42.3333333","-7.8666666","147.0","ORENSE, SP","FM-12","99999","V020","170,1,N,0010,1","00210,1,9,N","003000,1,N,1","+0103,1","+0101,1","10280,1","12,0000,9,1","24,0000,9,1",,,,"08,99,1,08,1,06,1,00250,1,99,9,99,9","0300,9","09,9","999,+0060,9","999,N,+0101,1","99999,9,10101,1","6,1,005,1,+999,9","10,1",,"SYN112AAXX  05064 08048 11330 81702 10103 20101 30101 40280 56005 69902 710// 886// 333 20101 31006 50094 55050 79999;","Q01  00002PRCP24Q02  00002PRCP12"
"08048099999","2010-11-05T09:00:00","4","42.3333333","-7.8666666","147.0","ORENSE, SP","FM-12","99999","V020","210,1,N,0015,1","00210,1,9,N","002000,1,N,1","+0102,1","+0100,1","10286,1",,,"4,1,03,1","2,1,03,1",,"08,99,1,08,1,06,1,00250,1,99,9,99,9",,,,,"99999,9,10106,1","3,1,005,1,+999,9","10,1",,"SYN072AAXX  05094 08048 41320 82103 10102 20100 30106 40286 53005 71042 886//;",
"08048099999","2010-11-05T12:00:00","4","42.3333333","-7.8666666","147.0","ORENSE, SP","FM-12","99999","V020","210,1,N,0015,1","22000,1,9,N","010000,1,N,1","+0140,1","+0113,1","10273,1","06,0000,9,1",,"4,1,06,1","2,1,06,1",,"06,99,1,04,1,06,1,00450,1,00,1,04,1",,,,,"99999,9,10096,1","8,1,010,1,+999,9","01,1",,"SYN078AAXX  05124 08048 11460 62103 10140 20113 30096 40273 58010 60001 70142 84604;","Q01  00002PRCP06"
"08048099999","2010-11-05T15:00:00","4","42.3333333","-7.8666666","147.0","ORENSE, SP","FM-12","99999","V020","290,1,N,0015,1","99999,9,9,N","010000,1,N,1","+0214,1","+0150,1","10242,1",,,,,,"07,99,1,00,1,00,1,99999,9,00,1,04,1",,,,,"99999,9,10070,1","6,1,026,1,+999,9",,,"SYN066AAXX  05154 08048 42960 72903 10214 20150 30070 40242 56026 80004;",
"08048099999","2010-11-05T18:00:00","4","42.3333333","-7.8666666","147.0","ORENSE, SP","FM-12","99999","V020","999,9,C,0000,1","22000,1,9,N","010000,1,N,1","+0178,1","+0156,1","10245,1","12,0000,9,1",,,,,"04,99,1,00,1,00,1,99999,9,00,1,01,1",,,,"999,M,+0218,1","99999,9,10071,1","3,1,001,1,+999,9",,,"SYN082AAXX  05184 08048 12960 40000 10178 20156 30071 40245 53001 60002 80001 333 10218;","Q01  00002PRCP12"
"08048099999","2010-11-08T06:00:00","4","42.3333333","-7.8666666","147.0","ORENSE, SP","FM-12","99999","V020","210,1,N,0026,1","00420,1,9,N","010000,1,N,1","+0113,1","+0094,1","10022,1","12,9999,9,9","24,9999,9,9",,,,"07,99,1,07,1,07,1,00450,1,99,9,99,9","0168,9",,,"999,N,+0061,1","99999,9,09848,1","7,1,053,2,+999,9","50,1",,"SYN100AAXX  08064 08048 11460 72105 10113 20094 39848 40022 57053 69902 750// 877// 333 20061 55028 79999;","Q01+000532APC3  Q02  00002PRCP24Q03  00002PRCP12Q04  00002PRCP12Q05  00002PRCP24"
"08048099999","2010-11-08T09:00:00","4","42.3333333","-7.8666666","147.0","ORENSE, SP","FM-12","99999","V020","240,1,N,0026,1","00420,1,9,N","010000,1,N,1","+0133,1","+0108,1","09988,1",,,"5,1,03,1","2,1,03,1",,"08,99,1,08,1,07,1,00450,1,99,9,99,9",,,,,"99999,9,09816,1","7,1,032,1,+999,9","50,1",,"SYN072AAXX  08094 08048 41460 82405 10133 20108 39816 49988 57032 75052 887//;",
"08048099999","2010-11-08T12:00:00","4","42.3333333","-7.8666666","147.0","ORENSE, SP","FM-12","99999","V020","300,1,N,0062,1","00420,1,9,N","010000,1,N,1","+0152,1","+0123,1","09962,1","06,0008,9,1",,"6,1,06,1","5,1,06,1",,"07,99,1,07,1,07,1,00450,1,04,1,01,1",,,,,"99999,9,09791,1","6,1,025,1,+999,9","20,1",,"SYN078AAXX  08124 08048 11460 73012 10152 20123 39791 49962 56025 69981 72065 87741;",
"08048099999","2010-11-08T15:00:00","4","42.3333333","-7.8666666","147.0","ORENSE, SP","FM-12","99999","V020","290,1,N,0041,1","00420,1,9,N","010000,1,N,1","+0141,1","+0101,1","09943,1",,,"5,1,03,1","2,1,03,1",,"06,99,1,05,1,07,1,00450,1,04,1,01,1",,,,,"99999,9,09772,1","6,1,019,1,+999,9","50,1",,"SYN072AAXX  08154 08048 41460 62908 10141 20101 39772 49943 56019 75052 85741;",
"08048099999","2010-11-08T18:00:00","4","42.3333333","-7.8666666","147.0","ORENSE, SP","FM-12","99999","V020","280,1,N,0021,1","00420,1,9,N","010000,1,N,1","+0127,1","+0084,1","09947,1","12,0008,9,1",,"5,1,06,1","2,1,06,1",,"07,99,1,07,1,07,1,00450,1,99,9,99,9",,,,"999,M,+0164,1","99999,9,09775,1","0,1,003,1,+999,9","20,1",,"SYN088AAXX  08184 08048 11460 72804 10127 20084 39775 49947 50003 69982 72052 877// 333 10164;",
"08048099999","2010-11-09T06:00:00","4","42.3333333","-7.8666666","147.0","ORENSE, SP","FM-12","99999","V020","200,1,N,0010,1","00900,1,9,N","010000,1,N,1","+0094,1","+0073,1","09916,1","12,0130,9,1","24,0137,9,1","8,1,06,1","2,1,06,1",,"06,99,1,06,1,08,1,00450,1,00,1,00,1","0060,9","09,9","999,+0070,9","999,N,+0092,1","99999,9,09742,1","5,1,003,1,+999,9","02,1",,"SYN112AAXX  09064 08048 11460 62002 10094 20073 39742 49916 55003 60132 70282 86800 333 20092 31007 50174 55010 70136;",
"08048099999","2010-11-09T09:00:00","4","42.3333333","-7.8666666","147.0","ORENSE, SP","FM-12","99999","V020","260,1,N,0026,1","00450,1,C,N","010000,1,N,1","+0092,1","+0063,1","09928,1",,,"8,1,03,1","2,1,03,1","06,1,+00450,1,06,1","07,99,1,06,1,09,1,00450,1,06,1,03,1",,,,,"99999,9,09754,1","3,1,012,1,+999,9","80,1",,"SYN088AAXX  09094 08048 41460 72605 10092 20063 39754 49928 53012 78082 86963 333 86694 81994;",
"08048099999","2010-11-09T12:00:00","4","42.3333333","-7.8666666","147.0","ORENSE, SP","FM-12","99999","V020","250,1,N,0036,1","00420,1,9,N","010000,1,N,1","+0113,1","+0083,1","09934,1","06,0041,9,1",,"8,1,06,1","2,1,06,1",,"07,99,1,07,1,07,1,00450,1,99,9,99,9",,,,,"99999,9,09761,1","1,1,007,1,+999,9","25,1",,"SYN078AAXX  09124 08048 11460 72507 10113 20083 39761 49934 51007 60041 72582 877//;",
"08048099999","2010-11-09T15:00:00","4","42.3333333","-7.8666666","147.0","ORENSE, SP","FM-12","99999","V020","320,1,N,0015,1","00420,1,9,N","010000,1,N,1","+0114,1","+0090,1","09927,1",,,"8,1,03,1","2,1,03,1",,"07,99,1,07,1,07,1,00450,1,99,9,99,9",,,,,"99999,9,09754,1","8,1,007,1,+999,9","80,1",,"SYN072AAXX  09154 08048 41460 73203 10114 20090 39754 49927 58007 78082 877//;",
"08048099999","2010-11-09T18:00:00","4","42.3333333","-7.8666666","147.0","ORENSE, SP","FM-12","99999","V020","170,1,N,0015,1","00900,1,9,N","010000,1,N,1","+0106,1","+0085,1","09944,1","12,0089,9,1",,"8,1,06,1","2,1,06,1",,"06,99,1,06,1,08,1,00450,1,00,1,00,1",,,,"999,M,+0129,1","99999,9,09771,1","3,1,017,1,+999,9","80,1",,"SYN088AAXX  09184 08048 11460 61703 10106 20085 39771 49944 53017 60092 78082 86800 333 10129;",
"08048099999","2010-11-10T06:00:00","4","42.3333333","-7.8666666","147.0","ORENSE, SP","FM-12","99999","V020","290,1,N,0005,1","22000,1,9,N","010000,1,N,1","+0067,1","+0063,1","10059,1","12,0008,9,1","24,0094,9,1","8,1,06,1","1,1,06,1",,"02,99,1,02,1,05,1,00450,1,00,1,00,1","0060,9","09,9","999,+0030,9","999,N,+0065,1","99999,9,09881,1","2,1,028,1,+999,9","01,1",,"SYN112AAXX  10064 08048 11460 22901 10067 20063 39881 40059 52028 69982 70181 82500 333 20065 31003 50064 55010 70095;",
"08048099999","2010-11-10T09:00:00","4","42.3333333","-7.8666666","147.0","ORENSE, SP","FM-12","99999","V020","260,1,N,0010,1","22000,1,9,N","010000,1,N,1","+0072,1","+0068,1","10097,1",,,"8,1,03,1","1,1,03,1",,"01,99,1,01,1,01,1,00450,1,00,1,00,1",,,,,"99999,9,09919,1","2,1,038,1,+999,9","02,1",,"SYN072AAXX  10094 08048 41460 12602 10072 20068 39919 40097 52038 70281 81100;",
"08048099999","2010-11-10T12:00:00","4","42.3333333","-7.8666666","147.0","ORENSE, SP","FM-12","99999","V020","280,1,N,0021,1","22000,1,9,N","010000,1,N,1","+0150,1","+0083,1","10111,1","06,0000,9,1",,"8,1,06,1","1,1,06,1",,"03,99,1,03,1,02,1,00450,1,00,1,00,1",,,,,"99999,9,09937,1","1,1,018,1,+999,9","03,1",,"SYN078AAXX  10124 08048 11460 32804 10150 20083 39937 40111 51018 69911 70381 83200;","Q01  00002PRCP06"
"08048099999","2010-11-10T15:00:00","4","42.3333333","-7.8666666","147.0","ORENSE, SP","FM-12","99999","V020","330,1,N,0031,1","00900,1,9,N","010000,1,N,1","+0141,1","+0067,1","10123,1",,,,,,"06,99,1,05,1,08,1,00450,1,04,1,00,1",,,,,"99999,9,09948,1","3,1,011,1,+999,9",,,"SYN066AAXX  10154 08048 42460 63306 10141 20067 39948 40123 53011 85840;",
"08048099999","2010-11-10T18:00:00","4","42.3333333","-7.8666666","147.0","ORENSE, SP","FM-12","99999","V020","160,1,N,0010,1","22000,1,9,N","010000,1,N,1","+0110,1","+0084,1","10149,1","12,0000,9,1",,,,,"02,99,1,02,1,08,1,00450,1,04,1,00,1",,,,"999,M,+0158,1","99999,9,09972,1","2,1,024,1,+999,9",,,"SYN082AAXX  10184 08048 12460 21602 10110 20084 39972 40149 52024 69912 82840 333 10158;","Q01  00002PRCP12"
"08048099999","2010-11-11T06:00:00","4","42.3333333","-7.8666666","147.0","ORENSE, SP","FM-12","99999","V020","300,1,N,0005,1","00420,1,9,N","010000,1,N,1","+0080,1","+0074,1","10194,1","12,9999,9,9","24,9999,9,9","2,1,06,1","2,1,06,1",,"08,99,1,08,1,07,1,00450,1,99,9,99,9","0270,9","09,9","999,+0020,9","999,N,+0061,1","99999,9,10015,1","1,1,004,1,+999,9","50,1",,"SYN112AAXX  11064 08048 11460 83001 10080 20074 30015 40194 51004 69902 75022 887// 333 20061 31002 50114 55045 70001;","Q01  00002PRCP24Q02  00002PRCP12Q03  00002PRCP12Q04  00002PRCP24"
"08048099999","2010-11-11T09:00:00","4","42.3333333","-7.8666666","147.0","ORENSE, SP","FM-12","99999","V020","200,1,N,0010,1","00420,1,9,N","010000,1,N,1","+0116,1","+0093,1","10208,1",,,"5,1,03,1","2,1,03,1",,"08,99,1,08,1,07,1,00450,1,99,9,99,9",,,,,"99999,9,10031,1","3,1,016,1,+999,9","02,1",,"SYN072AAXX  11094 08048 41460 82002 10116 20093 30031 40208 53016 70252 887//;",
"08048099999","2010-11-11T12:00:00","4","42.3333333","-7.8666666","147.0","ORENSE, SP","FM-12","99999","V020","200,1,N,0021,1","00420,1,9,N","010000,1,N,1","+0151,1","+0103,1","10213,1","06,0000,2,1",,"5,1,06,1","2,1,06,1",,"07,99,1,05,1,07,1,00450,1,07,1,99,9",,,,,"99999,9,10038,1","1,1,007,1,+999,9","01,1",,"SYN078AAXX  11124 08048 11460 72004 10151 20103 30038 40213 51007 69901 70152 8577/;",
"08048099999","2010-11-11T15:00:00","4","42.3333333","-7.8666666","147.0","ORENSE, SP","FM-12","99999","V020","260,1,N,0036,1","00420,1,9,N","010000,1,N,1","+0150,1","+0112,1","10210,1",,,,,,"08,99,1,07,1,07,1,00450,1,07,1,99,9",,,,,"99999,9,10035,1","5,1,003,1,+999,9",,,"SYN066AAXX  11154 08048 42460 82607 10150 20112 30035 40210 55003 8777/;",
"08048099999","2010-11-11T18:00:00","4","42.3333333","-7.8666666","147.0","ORENSE, SP","FM-12","99999","V020","170,1,N,0010,1","00420,1,9,N","010000,1,N,1","+0144,1","+0114,1","10219,1","12,0000,2,1",,,,,"08,99,1,08,1,05,1,00450,1,99,9,99,9",,,,"999,M,+0165,1","99999,9,10043,1","1,1,008,1,+999,9",,,"SYN082AAXX  11184 08048 12460 81702 10144 20114 30043 40219 51008 69902 885// 333 10165;",
"08048099999","2010-11-12T06:00:00","4","42.3333333","-7.8666666","147.0","ORENSE, SP","FM-12","99999","V020","190,1,N,0015,1","00420,1,9,N","010000,1,N,1","+0142,1","+0126,1","10220,1","12,0000,9,1","24,0000,2,1",,,,"08,99,1,08,1,05,1,00450,1,99,9,99,9","0006,9","01,9","999,+0130,9","999,N,+0138,1","99999,9,10044,1","8,1,003,1,+999,9",,,"SYN106AAXX  12064 08048 12460 81903 10142 20126 30044 40220 58003 60002 885// 333 20138 30013 50144 55001 79999;","Q01  00002PRCP12"
"08048099999","2010-11-12T09:00:00","4","42.3333333","-7.8666666","147.0","ORENSE, SP","FM-12","99999","V020","200,1,N,0010,1","00420,1,9,N","010000,1,N,1","+0146,1","+0128,1","10220,1",,,,,,"07,99,1,07,1,05,1,00450,1,99,9,99,9",,,,,"99999,9,10044,1","5,1,000,1,+999,9",,,"SYN066AAXX  12094 08048 42460 72002 10146 20128 30044 40220 55000 875//;",
"08048099999","2010-11-12T12:00:00","4","42.3333333","-7.8666666","147.0","ORENSE, SP","FM-12","99999","V020","280,1,N,0026,1","00420,1,9,N","010000,1,N,1","+0170,1","+0131,1","10212,1","06,0000,9,1",,,,,"08,99,1,08,1,05,1,00450,1,99,9,99,9",,,,,"99999,9,10038,1","8,1,006,1,+999,9",,,"SYN072AAXX  12124 08048 12460 82805 10170 20131 30038 40212 58006 60001 885//;","Q01  00002PRCP06"
"08048099999","2010-11-12T15:00:00","4","42.3333333","-7.8666666","147.0","ORENSE, SP","FM-12","99999","V020","270,1,N,0026,1","00420,1,9,N","010000,1,N,1","+0168,1","+0137,1","10190,1",,,,,,"07,99,1,07,1,05,1,00450,1,99,9,99,9",,,,,"99999,9,10016,1","7,1,022,1,+999,9",,,"SYN066AAXX  12154 08048 42460 72705 10168 20137 30016 40190 57022 875//;",
"08048099999","2010-11-12T18:00:00","4","42.3333333","-7.8666666","147.0","ORENSE, SP","FM-12","99999","V020","090,1,N,0010,1","00420,1,9,N","010000,1,N,1","+0155,1","+0126,1","10184,1","12,0000,9,1",,,,,"08,99,1,08,1,05,1,00450,1,99,9,99,9",,,,"999,M,+0175,1","99999,9,10010,1","6,1,006,1,+999,9",,,"SYN082AAXX  12184 08048 12460 80902 10155 20126 30010 40184 56006 60002 885// 333 10175;","Q01  00002PRCP12"
"08048099999","2010-11-15T06:00:00","4","42.3333333","-7.8666666","147.0","ORENSE, SP","FM-12","99999","V020","260,1,N,0010,1","00420,1,9,N","010000,1,N,1","+0056,1","+0052,1","10175,1","12,0061,9,1","24,0091,9,1",,,,"05,99,1,05,1,07,1,00450,1,00,1,00,1","0132,9",,,"999,N,+0041,1","99999,9,09994,1","1,1,003,1,+999,9","03,1",,"SYN100AAXX  15064 08048 11460 52602 10056 20052 39994 40175 51003 60062 703// 85700 333 20041 55022 70091;",
"08048099999","2010-11-15T09:00:00","4","42.3333333","-7.8666666","147.0","ORENSE, SP","FM-12","99999","V020","210,1,N,0010,1","03600,1,9,N","009000,1,N,1","+0062,1","+0059,1","10208,1",,,"6,1,03,1","2,1,03,1",,"08,99,1,03,1,07,1,00450,1,02,1,99,9",,,,,"99999,9,10027,1","2,1,033,1,+999,9","62,1",,"SYN072AAXX  15094 08048 41459 82102 10062 20059 30027 40208 52033 76262 8372/;",
"08048099999","2010-11-15T12:00:00","4","42.3333333","-7.8666666","147.0","ORENSE, SP","FM-12","99999","V020","140,1,N,0005,1","00420,1,9,N","010000,1,N,1","+0115,1","+0092,1","10215,1","06,0008,9,1",,"6,1,06,1","2,1,06,1",,"06,99,1,06,1,05,1,00450,1,00,1,00,1",,,,,"99999,9,10037,1","1,1,010,1,+999,9","21,1",,"SYN078AAXX  15124 08048 11460 61401 10115 20092 30037 40215 51010 69971 72162 86500;",
"08048099999","2010-11-15T15:00:00","4","42.3333333","-7.8666666","147.0","ORENSE, SP","FM-12","99999","V020","280,1,N,0021,1","00420,1,9,N","010000,1,N,1","+0112,1","+0095,1","10220,1",,,"6,1,03,1","2,1,03,1",,"07,99,1,07,1,05,1,00450,1,04,1,00,1",,,,,"99999,9,10042,1","3,1,005,1,+999,9","21,1",,"SYN072AAXX  15154 08048 41460 72804 10112 20095 30042 40220 53005 72162 87540;",
"08048099999","2010-11-15T18:00:00","4","42.3333333","-7.8666666","147.0","ORENSE, SP","FM-12","99999","V020","999,9,C,0000,1","00420,1,9,N","010000,1,N,1","+0094,1","+0083,1","10242,1","12,0010,9,1",,"6,1,06,1","2,1,06,1",,"07,99,1,07,1,05,1,00450,1,99,9,99,9",,,,"999,M,+0150,1","99999,9,10063,1","2,1,021,1,+999,9","02,1",,"SYN088AAXX  15184 08048 11460 70000 10094 20083 30063 40242 52021 60012 70262 875// 333 10150;",
"08048099999","2010-11-16T06:00:00","4","42.3333333","-7.8666666","147.0","ORENSE, SP","FM-12","99999","V020","190,1,N,0010,1","00210,1,9,N","005000,1,N,1","+0047,1","+0044,1","10265,1","12,0005,9,1","24,0015,9,1",,,,"08,99,1,08,1,06,1,00250,1,99,9,99,9","0198,9","09,9","999,+0010,9","999,N,+0044,1","99999,9,10082,1","5,1,004,1,+999,9","10,1",,"SYN112AAXX  16064 08048 11350 81902 10047 20044 30082 40265 55004 69942 710// 886// 333 20044 31001 50054 55033 70014;",
"08048099999","2010-11-16T09:00:00","4","42.3333333","-7.8666666","147.0","ORENSE, SP","FM-12","99999","V020","160,1,N,0010,1","00210,1,9,N","004000,1,N,1","+0047,1","+0044,1","10266,1",,,"2,1,03,1","2,1,03,1",,"08,99,1,08,1,06,1,00250,1,99,9,99,9",,,,,"99999,9,10083,1","3,1,001,1,+999,9","10,1",,"SYN072AAXX  16094 08048 41340 81602 10047 20044 30083 40266 53001 71022 886//;",
"08048099999","2010-11-16T12:00:00","4","42.3333333","-7.8666666","147.0","ORENSE, SP","FM-12","99999","V020","180,1,N,0015,1","03600,1,9,N","010000,1,N,1","+0094,1","+0068,1","10237,1","06,0000,9,1",,,,,"07,99,1,03,1,06,1,00450,1,07,1,00,1",,,,,"99999,9,10058,1","7,1,025,1,+999,9",,,"SYN072AAXX  16124 08048 12460 71803 10094 20068 30058 40237 57025 60001 83670;","Q01  00002PRCP06"
"08048099999","2010-11-16T15:00:00","4","42.3333333","-7.8666666","147.0","ORENSE, SP","FM-12","99999","V020","270,1,N,0010,1","00420,1,9,N","010000,1,N,1","+0115,1","+0085,1","10200,1",,,,,,"08,99,1,07,1,05,1,00450,1,02,1,99,9",,,,,"99999,9,10023,1","7,1,035,1,+999,9",,,"SYN066AAXX  16154 08048 42460 82702 10115 20085 30023 40200 57035 8752/;",
"08048099999","2010-11-16T18:00:00","4","42.3333333","-7.8666666","147.0","ORENSE, SP","FM-12","99999","V020","150,1,N,0031,1","00420,1,9,N","010000,1,N,1","+0117,1","+0066,1","10176,1","12,0000,9,1",,,,,"08,99,1,07,1,05,1,00450,1,07,1,99,9",,,,"999,M,+0124,1","99999,9,09999,1","7,1,024,1,+999,9",,,"SYN082AAXX  16184 08048 12460 81506 10117 20066 39999 40176 57024 60002 8757/ 333 10124;","Q01  00002PRCP12"
"08048099999","2010-11-17T06:00:00","4","42.3333333","-7.8666666","147.0","ORENSE, SP","FM-12","99999","V020","200,1,N,0010,1","22000,1,9,N","010000,1,N,1","+0098,1","+0090,1","10118,1","12,0051,9,2","24,0046,9,2",,,,"03,99,1,03,1,06,1,00450,1,00,1,00,1","0072,9","09,9","999,+0080,9","999,N,+0096,1","99999,9,09941,1","3,1,018,1,+999,9","02,1",,"SYN112AAXX  17064 08048 11460 32002 10098 20090 39941 40118 53018 60052 702// 83600 333 20096 31008 50104 55012 70046;",
"08048099999","2010-11-17T09:00:00","4","42.3333333","-7.8666666","147.0","ORENSE, SP","FM-12","99999","V020","320,1,N,0005,1","22000,1,9,N","010000,1,N,1","+0081,1","+0075,1","10140,1",,,,,,"02,99,1,02,1,05,1,00450,1,00,1,00,1",,,,,"99999,9,09962,1","1,1,021,1,+999,9",,,"SYN066AAXX  17094 08048 42460 23201 10081 20075 39962 40140 51021 82500;",
"08048099999","2010-11-17T12:00:00","4","42.3333333","-7.8666666","147.0","ORENSE, SP","FM-12","99999","V020","280,1,N,0036,1","00420,1,9,N","010000,1,N,1","+0152,1","+0077,1","10136,1","06,0000,9,1",,,,,"06,99,1,06,1,02,1,00450,1,00,1,00,1",,,,,"99999,9,09962,1","4,1,000,1,+999,9",,,"SYN072AAXX  17124 08048 12460 62807 10152 20077 39962 40136 54000 60001 86200;","Q01  00002PRCP06"
"08048099999","2010-11-17T15:00:00","4","42.3333333","-7.8666666","147.0","ORENSE, SP","FM-12","99999","V020","300,1,N,0015,1","00420,1,9,N","010000,1,N,1","+0133,1","+0077,1","10136,1",,,"8,1,03,1","2,1,03,1",,"06,99,1,05,1,02,1,00450,1,04,1,00,1",,,,,"99999,9,09961,1","5,1,001,1,+999,9","25,1",,"SYN072AAXX  17154 08048 41460 63003 10133 20077 39961 40136 55001 72582 85240;",
"08048099999","2010-11-17T18:00:00","4","42.3333333","-7.8666666","147.0","ORENSE, SP","FM-12","99999","V020","110,1,N,0010,1","00420,1,9,N","010000,1,N,1","+0102,1","+0073,1","10145,1","12,0000,2,1",,"8,1,06,1","2,1,06,1",,"06,99,1,05,1,05,1,00450,1,04,1,00,1",,,,"999,M,+0161,1","99999,9,09968,1","3,1,007,1,+999,9","03,1",,"SYN088AAXX  17184 08048 11460 61102 10102 20073 39968 40145 53007 69922 70382 85540 333 10161;",
"08048099999","2010-11-18T06:00:00","4","42.3333333","-7.8666666","147.0","ORENSE, SP","FM-12","99999","V020","160,1,N,0010,1","00210,1,9,N","009000,1,N,1","+0066,1","+0062,1","10163,1","12,0000,9,1","24,0003,9,1",,,,"06,99,1,06,1,06,1,00250,1,00,1,00,1","0360,9","09,9","999,+0020,9","999,N,+0060,1","99999,9,09983,1","1,1,004,1,+999,9","10,1",,"SYN112AAXX  18064 08048 11359 61602 10066 20062 39983 40163 51004 60002 710// 86600 333 20060 31002 50134 55060 70002;","Q01  00002PRCP12"
"08048099999","2010-11-18T09:00:00","4","42.3333333","-7.8666666","147.0","ORENSE, SP","FM-12","99999","V020","280,1,N,0010,1","03600,1,9,N","010000,1,N,1","+0074,1","+0065,1","10174,1",,,"6,1,03,1","2,1,03,1",,"06,99,1,03,1,05,1,00450,1,04,1,01,1",,,,,"99999,9,09994,1","3,1,011,1,+999,9","01,1",,"SYN072AAXX  18094 08048 41460 62802 10074 20065 39994 40174 53011 70162 83541;",
"08048099999","2010-11-18T12:00:00","4","42.3333333","-7.8666666","147.0","ORENSE, SP","FM-12","99999","V020","020,1,N,0010,1","00420,1,9,N","010000,1,N,1","+0112,1","+0093,1","10173,1","06,9999,9,9",,"6,1,06,1","5,1,06,1",,"07,99,1,07,1,07,1,00450,1,00,1,01,1",,,,,"99999,9,09996,1","1,1,002,1,+999,9","50,1",,"SYN078AAXX  18124 08048 11460 70202 10112 20093 39996 40173 51002 69921 75065 87701;","Q01  00002PRCP06Q02  00002PRCP06"
"08048099999","2010-11-18T15:00:00","4","42.3333333","-7.8666666","147.0","ORENSE, SP","FM-12","99999","V020","210,1,N,0031,1","00420,1,9,N","010000,1,N,1","+0138,1","+0090,1","10163,1",,,"5,1,03,1","2,1,03,1",,"08,99,1,08,1,05,1,00450,1,99,9,99,9",,,,,"99999,9,09988,1","7,1,008,1,+999,9","02,1",,"SYN072AAXX  18154 08048 41460 82106 10138 20090 39988 40163 57008 70252 885//;",
"08048099999","2010-11-18T18:00:00","4","42.3333333","-7.8666666","147.0","ORENSE, SP","FM-12","99999","V020","150,1,N,0015,1","00420,1,9,N","010000,1,N,1","+0119,1","+0087,1","10170,1","12,0003,9,1",,"5,1,06,1","2,1,06,1",,"07,99,1,07,1,05,1,00450,1,99,9,99,9",,,,"999,M,+0144,1","99999,9,09993,1","2,1,005,1,+999,9","02,1",,"SYN088AAXX  18184 08048 11460 71503 10119 20087 39993 40170 52005 69932 70252 875// 333 10144;",
"08048099999","2010-11-19T06:00:00","4","42.3333333","-7.8666666","147.0","ORENSE, SP","FM-12","99999","V020","310,1,N,0005,1","00420,1,9,N","010000,1,N,1","+0084,1","+0083,1","10128,1","12,0003,9,1","24,0005,9,1",,,,"08,99,1,08,1,05,1,00450,1,99,9,99,9","0084,9","09,9","999,+0040,9","999,N,+0077,1","99999,9,09950,1","6,1,020,1,+999,9","60,1",,"SYN112AAXX  19064 08048 11460 83101 10084 20083 39950 40128 56020 69932 760// 885// 333 20077 31004 50064 55014 70006;",
"08048099999","2010-11-19T09:00:00","4","42.3333333","-7.8666666","147.0","ORENSE, SP","FM-12","99999","V020","130,1,N,0010,1","00420,1,9,N","010000,1,N,1","+0094,1","+0089,1","10130,1",,,"6,1,03,1","6,1,03,1",,"08,99,1,08,1,05,1,00450,1,99,9,99,9",,,,,"99999,9,09953,1","3,1,003,1,+999,9","63,1",,"SYN072AAXX  19094 08048 41460 81302 10094 20089 39953 40130 53003 76366 885//;",
"08048099999","2010-11-19T12:00:00","4","42.3333333","-7.8666666","147.0","ORENSE, SP","FM-12","99999","V020","260,1,N,0010,1","00420,1,9,N","010000,1,N,1","+0116,1","+0102,1","10119,1","06,0041,9,1",,"6,1,06,1","5,1,06,1",,"08,99,1,08,1,07,1,00450,1,99,9,99,9",,,,,"99999,9,09943,1","8,1,010,1,+999,9","20,1",,"SYN078AAXX  19124 08048 11460 82602 10116 20102 39943 40119 58010 60041 72065 887//;",
"08048099999","2010-11-19T15:00:00","4","42.3333333","-7.8666666","147.0","ORENSE, SP","FM-12","99999","V020","150,1,N,0026,1","00420,1,9,N","010000,1,N,1","+0128,1","+0105,1","10098,1",,,"6,1,03,1","5,1,03,1",,"07,99,1,07,1,05,1,00450,1,99,9,99,9",,,,,"99999,9,09923,1","6,1,020,1,+999,9","21,1",,"SYN072AAXX  19154 08048 41460 71505 10128 20105 39923 40098 56020 72165 875//;",
"08048099999","2010-11-19T18:00:00","4","42.3333333","-7.8666666","147.0","ORENSE, SP","FM-12","99999","V020","150,1,N,0031,1","00420,1,9,N","010000,1,N,1","+0125,1","+0104,1","10080,1","12,0061,9,1",,"6,1,06,1","5,1,06,1",,"07,99,1,07,1,07,1,00450,1,99,9,99,9",,,,"999,M,+0145,1","99999,9,09905,1","6,1,018,1,+999,9","50,1",,"SYN088AAXX  19184 08048 11460 71506 10125 20104 39905 40080 56018 60062 75065 877// 333 10145;",
"08048099999","2010-11-22T06:00:00","4","42.3333333","-7.8666666","147.0","ORENSE, SP","FM-12","99999","V020","230,1,N,0005,1","00210,1,9,N","007000,1,N,1","+0080,1","+0079,1","10114,1","12,0020,9,1","24,0033,9,1",,,,"07,99,1,07,1,06,1,00250,1,99,9,99,9","0024,9",,,"999,N,+0079,1","99999,9,09936,1","4,1,000,1,+999,9","10,1",,"SYN100AAXX  22064 08048 11357 72301 10080 20079 39936 40114 54000 60022 710// 876// 333 20079 55004 70034;",
"08048099999","2010-11-22T09:00:00","4","42.3333333","-7.8666666","147.0","ORENSE, SP","FM-12","99999","V020","240,1,N,0015,1","00210,1,9,N","006000,1,N,1","+0084,1","+0080,1","10122,1",,,"2,1,03,1","2,1,03,1",,"07,99,1,07,1,06,1,00250,1,99,9,99,9",,,,,"99999,9,09944,1","1,1,008,1,+999,9","10,1",,"SYN072AAXX  22094 08048 41356 72403 10084 20080 39944 40122 51008 71022 876//;",
"08048099999","2010-11-22T12:00:00","4","42.3333333","-7.8666666","147.0","ORENSE, SP","FM-12","99999","V020","300,1,N,0005,1","00900,1,9,N","010000,1,N,1","+0112,1","+0088,1","10120,1","06,9999,9,9",,"6,1,06,1","2,1,06,1",,"07,99,1,06,1,08,1,00450,1,06,1,00,1",,,,,"99999,9,09944,1","0,1,000,1,+999,9","21,1",,"SYN078AAXX  22124 08048 11460 73001 10112 20088 39944 40120 50000 69921 72162 86860;","Q01  00002PRCP06Q02  00002PRCP06"
"08048099999","2010-11-22T15:00:00","4","42.3333333","-7.8666666","147.0","ORENSE, SP","FM-12","99999","V020","220,1,N,0015,1","00900,1,9,N","010000,1,N,1","+0107,1","+0083,1","10113,1",,,"8,1,03,1","2,1,03,1",,"07,99,1,07,1,08,1,00450,1,99,9,99,9",,,,,"99999,9,09937,1","5,1,007,1,+999,9","80,1",,"SYN072AAXX  22154 08048 41460 72203 10107 20083 39937 40113 55007 78082 878//;",
"08048099999","2010-11-22T18:00:00","4","42.3333333","-7.8666666","147.0","ORENSE, SP","FM-12","99999","V020","140,1,N,0010,1","00900,1,9,N","010000,1,N,1","+0090,1","+0079,1","10121,1","12,0020,9,1",,"8,1,06,1","2,1,06,1",,"06,99,1,06,1,08,1,00450,1,06,1,02,1",,,,"999,M,+0146,1","99999,9,09943,1","1,1,006,1,+999,9","80,1",,"SYN088AAXX  22184 08048 11460 61402 10090 20079 39943 40121 51006 60022 78082 86862 333 10146;",
"08048099999","2010-11-23T06:00:00","4","42.3333333","-7.8666666","147.0","ORENSE, SP","FM-12","99999","V020","210,1,N,0015,1","00210,1,9,N","003000,1,N,1","+0042,1","+0039,1","10137,1","12,0000,2,1","24,0018,9,1",,,,"08,99,1,08,1,06,1,00250,1,99,9,99,9","0114,9","09,9","999,+0020,9","999,N,+0039,1","99999,9,09956,1","1,1,003,1,+999,9","10,1",,"SYN112AAXX  23064 08048 11330 82103 10042 20039 39956 40137 51003 69902 710// 886// 333 20039 31002 50044 55019 70019;",
"08048099999","2010-11-23T09:00:00","4","42.3333333","-7.8666666","147.0","ORENSE, SP","FM-12","99999","V020","180,1,N,0010,1","00120,1,9,N","002000,1,N,1","+0046,1","+0043,1","10143,1",,,"2,1,03,1","2,1,03,1",,"08,99,1,08,1,06,1,00150,1,99,9,99,9",,,,,"99999,9,09962,1","3,1,006,1,+999,9","10,1",,"SYN072AAXX  23094 08048 41220 81802 10046 20043 39962 40143 53006 71022 886//;",
"08048099999","2010-11-23T12:00:00","4","42.3333333","-7.8666666","147.0","ORENSE, SP","FM-12","99999","V020","270,1,N,0010,1","00210,1,9,N","004000,1,N,1","+0063,1","+0056,1","10141,1","06,0000,9,1",,"2,1,06,1","2,1,06,1",,"08,99,1,08,1,06,1,00250,1,99,9,99,9",,,,,"99999,9,09961,1","8,1,001,1,+999,9","10,1",,"SYN078AAXX  23124 08048 11340 82702 10063 20056 39961 40141 58001 60001 71022 886//;","Q01  00002PRCP06"
"08048099999","2010-11-23T15:00:00","4","42.3333333","-7.8666666","147.0","ORENSE, SP","FM-12","99999","V020","200,1,N,0010,1","03600,1,9,N","010000,1,N,1","+0100,1","+0074,1","10123,1",,,,,,"06,99,1,01,1,06,1,00450,1,03,1,01,1",,,,,"99999,9,09946,1","7,1,015,1,+999,9",,,"SYN066AAXX  23154 08048 42460 62002 10100 20074 39946 40123 57015 81631;",
"08048099999","2010-11-23T18:00:00","4","42.3333333","-7.8666666","147.0","ORENSE, SP","FM-12","99999","V020","130,1,N,0010,1","00420,1,9,N","010000,1,N,1","+0094,1","+0082,1","10123,1","12,0000,9,1",,,,,"07,99,1,06,1,05,1,00450,1,07,1,99,9",,,,"999,M,+0108,1","99999,9,09946,1","5,1,000,1,+999,9",,,"SYN082AAXX  23184 08048 12460 71302 10094 20082 39946 40123 55000 60002 8657/ 333 10108;","Q01  00002PRCP12"
"08048099999","2010-11-24T06:00:00","4","42.3333333","-7.8666666","147.0","ORENSE, SP","FM-12","99999","V020","160,1,N,0015,1","00210,1,9,N","004000,1,N,1","+0054,1","+0047,1","10146,1","12,0000,9,1","24,0000,9,1",,,,"07,99,1,07,1,06,1,00250,1,99,9,99,9","0048,9","09,9","999,+0010,9","999,N,+0053,1","99999,9,09966,1","3,1,004,1,+999,9","10,1",,"SYN112AAXX  24064 08048 11340 71603 10054 20047 39966 40146 53004 60002 710// 876// 333 20053 31001 50034 55008 70000;","Q01  00002PRCP24Q02  00002PRCP12"
"08048099999","2010-11-24T09:00:00","4","42.3333333","-7.8666666","147.0","ORENSE, SP","FM-12","99999","V020","260,1,N,0010,1","00210,1,9,N","005000,1,N,1","+0054,1","+0042,1","10155,1",,,"2,1,03,1","2,1,03,1",,"08,99,1,08,1,06,1,00250,1,99,9,99,9",,,,,"99999,9,09974,1","1,1,008,1,+999,9","10,1",,"SYN072AAXX  24094 08048 41350 82602 10054 20042 39974 40155 51008 71022 886//;",
"08048099999","2010-11-24T12:00:00","4","42.3333333","-7.8666666","147.0","ORENSE, SP","FM-12","99999","V020","150,1,N,0015,1","00420,1,9,N","010000,1,N,1","+0075,1","+0048,1","10160,1","06,0000,9,1",,,,,"07,99,1,07,1,06,1,00450,1,99,9,99,9",,,,,"99999,9,09981,1","0,1,007,1,+999,9",,,"SYN072AAXX  24124 08048 12460 71503 10075 20048 39981 40160 50007 60001 876//;","Q01  00002PRCP06"
"08048099999","2010-11-24T15:00:00","4","42.3333333","-7.8666666","147.0","ORENSE, SP","FM-12","99999","V020","010,1,N,0010,1","22000,1,9,N","010000,1,N,1","+0113,1","+0064,1","10147,1",,,,,,"01,99,1,01,1,01,1,00450,1,00,1,00,1",,,,,"99999,9,09970,1","8,1,011,1,+999,9",,,"SYN066AAXX  24154 08048 42460 10102 10113 20064 39970 40147 58011 81100;",
"08048099999","2010-11-24T18:00:00","4","42.3333333","-7.8666666","147.0","ORENSE, SP","FM-12","99999","V020","120,1,N,0010,1","22000,1,9,N","010000,1,N,1","+0072,1","+0057,1","10157,1","12,0000,9,1",,,,,"01,99,1,00,1,00,1,99999,9,00,1,01,1",,,,"999,M,+0119,1","99999,9,09978,1","3,1,008,1,+999,9",,,"SYN082AAXX  24184 08048 12960 11202 10072 20057 39978 40157 53008 60002 80001 333 10119;","Q01  00002PRCP12"
"08048099999","2010-11-25T06:00:00","4","42.3333333","-7.8666666","147.0","ORENSE, SP","FM-12","99999","V020","030,1,N,0010,1","00210,1,9,N","004000,1,N,1","+0041,1","+0026,1","10168,1","12,0000,9,1","24,0000,9,1",,,,"08,99,1,08,1,06,1,00250,1,99,9,99,9","0246,9","09,9","999,-0020,9","999,N,+0025,1","99999,9,09986,1","5,1,001,1,+999,9","10,1",,"SYN112AAXX  25064 08048 11340 80302 10041 20026 39986 40168 55001 60002 710// 886// 333 20025 31102 50054 55041 70000;","Q01  00002PRCP24Q02  00002PRCP12"
"08048099999","2010-11-25T09:00:00","4","42.3333333","-7.8666666","147.0","ORENSE, SP","FM-12","99999","V020","360,1,N,0005,1","00210,1,9,N","006000,1,N,1","+0044,1","+0021,1","10173,1",,,"2,1,03,1","2,1,03,1",,"08,99,1,08,1,06,1,00250,1,99,9,99,9",,,,,"99999,9,09991,1","3,1,005,1,+999,9","10,1",,"SYN072AAXX  25094 08048 41356 83601 10044 20021 39991 40173 53005 71022 886//;",
"08048099999","2010-11-25T12:00:00","4","42.3333333","-7.8666666","147.0","ORENSE, SP","FM-12","99999","V020","360,1,N,0010,1","00210,1,9,N","006000,1,N,1","+0055,1","+0037,1","10174,1","06,0000,9,1",,"2,1,06,1","2,1,06,1",,"08,99,1,08,1,06,1,00250,1,99,9,99,9",,,,,"99999,9,09993,1","0,1,002,1,+999,9","10,1",,"SYN078AAXX  25124 08048 11356 83602 10055 20037 39993 40174 50002 60001 71022 886//;","Q01  00002PRCP06"
"08048099999","2010-11-25T15:00:00","4","42.3333333","-7.8666666","147.0","ORENSE, SP","FM-12","99999","V020","280,1,N,0015,1","00600,1,9,N","010000,1,N,1","+0076,1","+0049,1","10158,1",,,"5,1,03,1","2,1,03,1",,"07,99,1,07,1,08,1,00250,1,99,9,99,9",,,,,"99999,9,09979,1","6,1,014,1,+999,9","50,1",,"SYN072AAXX  25154 08048 41360 72803 10076 20049 39979 40158 56014 75052 878//;",
"08048099999","2010-11-25T18:00:00","4","42.3333333","-7.8666666","147.0","ORENSE, SP","FM-12","99999","V020","180,1,N,0010,1","22000,1,9,N","010000,1,N,1","+0050,1","+0041,1","10160,1","12,0000,2,1",,"5,1,06,1","1,1,06,1",,"03,99,1,03,1,06,1,00250,1,00,1,02,1",,,,"999,M,+0089,1","99999,9,09979,1","5,1,000,1,+999,9","02,1",,"SYN088AAXX  25184 08048 11360 31802 10050 20041 39979 40160 55000 69902 70251 83602 333 10089;",
"08048099999","2010-11-26T06:00:00","4","42.3333333","-7.8666666","147.0","ORENSE, SP","FM-12","99999","V020","160,1,N,0010,1","00030,1,9,N","000400,1,N,1","+0006,1","+0006,1","10158,1","12,0000,9,1","24,0000,2,1",,,"09,1,+99999,9,99,9","09,99,1,09,1,99,9,99999,9,99,9,99,9","0054,9","09,9","999,-0020,9","999,N,-0002,1","99999,9,09974,1","6,1,012,1,+999,9","45,1",,"SYN106AAXX  26064 08048 11/04 91602 10006 20006 39974 40158 56012 60002 745// 333 21002 31102 50044 55009 79999;","Q01  00002PRCP12"
"08048099999","2010-11-26T09:00:00","4","42.3333333","-7.8666666","147.0","ORENSE, SP","FM-12","99999","V020","160,1,N,0015,1","00120,1,9,N","001200,1,N,1","+0002,1","-0001,1","10158,1",,,"4,1,03,1","4,1,03,1",,"07,99,1,07,1,06,1,00150,1,99,9,99,9",,,,,"99999,9,09974,1","5,1,000,1,+999,9","28,1",,"SYN072AAXX  26094 08048 41212 71603 10002 21001 39974 40158 55000 72844 876//;",
"08048099999","2010-11-26T12:00:00","4","42.3333333","-7.8666666","147.0","ORENSE, SP","FM-12","99999","V020","190,1,N,0015,1","22000,1,9,N","010000,1,N,1","+0058,1","+0026,1","10135,1","06,0000,9,1",,"4,1,06,1","1,1,06,1",,"01,99,1,00,1,00,1,99999,9,00,1,02,1",,,,,"99999,9,09955,1","8,1,019,1,+999,9","01,1",,"SYN078AAXX  26124 08048 11960 11903 10058 20026 39955 40135 58019 60001 70141 80002;","Q01  00002PRCP06"
"08048099999","2010-11-26T15:00:00","4","42.3333333","-7.8666666","147.0","ORENSE, SP","FM-12","99999","V020","040,1,N,0015,1","22000,1,9,N","010000,1,N,1","+0112,1","+0035,1","10102,1",,,,,,"03,99,1,01,1,01,1,00450,1,00,1,08,1",,,,,"99999,9,09926,1","6,1,029,1,+999,9",,,"SYN066AAXX  26154 08048 42460 30403 10112 20035 39926 40102 56029 81108;",
"08048099999","2010-11-26T18:00:00","4","42.3333333","-7.8666666","147.0","ORENSE, SP","FM-12","99999","V020","350,1,N,0010,1","22000,1,9,N","010000,1,N,1","+0076,1","+0031,1","10099,1","12,0000,9,1",,,,,"02,99,1,00,1,00,1,99999,9,00,1,02,1",,,,"999,M,+0115,1","99999,9,09921,1","6,1,005,1,+999,9",,,"SYN082AAXX  26184 08048 12960 23502 10076 20031 39921 40099 56005 60002 80002 333 10115;","Q01  00002PRCP12"
"08048099999","2010-11-29T06:00:00","4","42.3333333","-7.8666666","147.0","ORENSE, SP","FM-12","99999","V020","170,1,N,0010,1","00210,1,9,N","002000,1,N,1","-0010,1","-0010,1","10046,1","12,0000,9,1","24,0000,9,1",,,,"08,99,1,08,1,06,1,00250,1,99,9,99,9","0270,9",,,"999,N,-0023,1","99999,9,09863,1","6,1,022,1,+999,9","10,1",,"SYN100AAXX  29064 08048 11320 81702 11010 21010 39863 40046 56022 60002 710// 886// 333 21023 55045 70000;","Q01  00002PRCP24Q02  00002PRCP12"
"08048099999","2010-11-29T09:00:00","4","42.3333333","-7.8666666","147.0","ORENSE, SP","FM-12","99999","V020","999,9,C,0000,1","00210,1,9,N","010000,1,N,1","-0002,1","-0008,1","10033,1",,,,,,"08,99,1,08,1,06,1,00250,1,99,9,99,9",,,,,"99999,9,09851,1","7,1,012,1,+999,9",,,"SYN066AAXX  29094 08048 42360 80000 11002 21008 39851 40033 57012 886//;",
"08048099999","2010-11-29T12:00:00","4","42.3333333","-7.8666666","147.0","ORENSE, SP","FM-12","99999","V020","170,1,N,0010,1","00420,1,9,N","010000,1,N,1","+0028,1","+0002,1","10011,1","06,0000,9,1",,,,,"08,99,1,08,1,06,1,00450,1,99,9,99,9",,,,,"99999,9,09831,1","8,1,020,1,+999,9",,,"SYN072AAXX  29124 08048 12460 81702 10028 20002 39831 40011 58020 60001 886//;","Q01  00002PRCP06"
"08048099999","2010-11-29T15:00:00","4","42.3333333","-7.8666666","147.0","ORENSE, SP","FM-12","99999","V020","320,1,N,0010,1","03600,1,9,N","010000,1,N,1","+0060,1","+0015,1","09977,1",,,,,,"08,99,1,03,1,07,1,00450,1,02,1,99,9",,,,,"99999,9,09800,1","7,1,031,1,+999,9",,,"SYN066AAXX  29154 08048 42460 83202 10060 20015 39800 49977 57031 8372/;",
"08048099999","2010-11-29T18:00:00","4","42.3333333","-7.8666666","147.0","ORENSE, SP","FM-12","99999","V020","020,1,N,0015,1","02100,1,9,N","010000,1,N,1","+0046,1","+0029,1","09981,1","12,0010,9,1",,"6,1,06,1","2,1,06,1",,"08,99,1,08,1,00,1,02250,1,02,1,99,9",,,,"999,M,+0064,1","99999,9,09803,1","1,1,003,1,+999,9","63,1",,"SYN088AAXX  29184 08048 11860 80203 10046 20029 39803 49981 51003 60012 76362 8802/ 333 10064;",
"08048099999","2010-11-30T06:00:00","4","42.3333333","-7.8666666","147.0","ORENSE, SP","FM-12","99999","V020","170,1,N,0031,1","02100,1,9,N","010000,1,N,1","+0065,1","+0024,1","09929,1","12,0020,9,1","24,0036,9,1",,,,"08,99,1,08,1,00,1,02250,1,02,1,99,9","0006,9","09,9","999,+0020,9","999,N,+0024,1","99999,9,09753,1","6,1,012,1,+999,9","02,1",,"SYN112AAXX  30064 08048 11860 81706 10065 20024 39753 49929 56012 60022 702// 8802/ 333 20024 31002 50154 55001 70036;",
"08048099999","2010-11-30T09:00:00","4","42.3333333","-7.8666666","147.0","ORENSE, SP","FM-12","99999","V020","170,1,N,0046,1","00420,1,9,N","010000,1,N,1","+0062,1","+0017,1","09937,1",,,"6,1,03,1","5,1,03,1",,"08,99,1,06,1,07,1,00450,1,02,1,99,9",,,,,"99999,9,09761,1","3,1,008,1,+999,9","50,1",,"SYN072AAXX  30094 08048 41460 81709 10062 20017 39761 49937 53008 75065 8672/;",
"08048099999","2010-11-30T12:00:00","4","42.3333333","-7.8666666","147.0","ORENSE, SP","FM-12","99999","V020","170,1,N,0031,1","00420,1,9,N","010000,1,N,1","+0081,1","+0030,1","09936,1","06,0003,9,1",,"6,1,06,1","5,1,06,1",,"07,99,1,07,1,07,1,00450,1,99,9,99,9",,,,,"99999,9,09761,1","4,1,000,1,+999,9","50,1",,"SYN078AAXX  30124 08048 11460 71706 10081 20030 39761 49936 54000 69931 75065 877//;",
"08048099999","2010-11-30T15:00:00","4","42.3333333","-7.8666666","147.0","ORENSE, SP","FM-12","99999","V020","160,1,N,0041,1","00420,1,9,N","010000,1,N,1","+0091,1","+0039,1","09931,1",,,"6,1,03,1","5,1,03,1",,"06,99,1,06,1,05,1,00450,1,00,1,00,1",,,,,"99999,9,09757,1","6,1,004,1,+999,9","60,1",,"SYN072AAXX  30154 08048 41460 61608 10091 20039 39757 49931 56004 76065 86500;",
"08048099999","2010-11-30T18:00:00","4","42.3333333","-7.8666666","147.0","ORENSE, SP","FM-12","99999","V020","230,1,N,0015,1","00420,1,9,N","010000,1,N,1","+0069,1","+0032,1","09944,1","12,0005,9,1",,"6,1,06,1","5,1,06,1",,"06,99,1,05,1,05,1,00450,1,00,1,02,1",,,,"999,M,+0109,1","99999,9,09768,1","3,1,011,1,+999,9","02,1",,"SYN088AAXX  30184 08048 11460 62303 10069 20032 39768 49944 53011 69942 70265 85502 333 10109;",
"08048099999","2010-12-01T06:00:00","4","42.3333333","-7.8666666","147.0","ORENSE, SP","FM-12","99999","V020","190,1,N,0010,1","00420,1,9,N","010000,1,N,1","+0048,1","+0044,1","10015,1","12,0010,9,1","24,0013,9,1",,,,"07,99,1,07,1,07,1,00450,1,99,9,99,9","0138,9","09,9","999,+0000,9","999,N,+0037,1","99999,9,09837,1","2,1,017,1,+999,9","20,1",,"SYN112AAXX  01064 08048 11460 71902 10048 20044 39837 40015 52017 69992 720/5 877// 333 20037 31000 50134 55023 70013;",
"08048099999","2010-12-01T09:00:00","4","42.3333333","-7.8666666","147.0","ORENSE, SP","FM-12","99999","V020","999,9,C,0000,1","00420,1,9,N","010000,1,N,1","+0056,1","+0047,1","10046,1",,,"5,1,03,1","2,1,03,1",,"07,99,1,06,1,07,1,00450,1,04,1,01,1",,,,,"99999,9,09868,1","2,1,031,1,+999,9","01,1",,"SYN072AAXX  01094 08048 41460 70000 10056 20047 39868 40046 52031 70152 86741;",
"08048099999","2010-12-01T12:00:00","4","42.3333333","-7.8666666","147.0","ORENSE, SP","FM-12","99999","V020","070,1,N,0015,1","00420,1,9,N","010000,1,N,1","+0101,1","+0036,1","10059,1","06,0005,9,1",,"5,1,06,1","2,1,06,1",,"05,99,1,05,1,02,1,00450,1,00,1,01,1",,,,,"99999,9,09883,1","1,1,015,1,+999,9","02,1",,"SYN078AAXX  01124 08048 11460 50703 10101 20036 39883 40059 51015 69941 70252 85201;",
"08048099999","2010-12-01T15:00:00","4","42.3333333","-7.8666666","147.0","ORENSE, SP","FM-12","99999","V020","260,1,N,0026,1","22000,1,9,N","010000,1,N,1","+0114,1","+0027,1","10061,1",,,,,,"07,99,1,03,1,02,1,00450,1,00,1,04,1",,,,,"99999,9,09886,1","0,1,003,1,+999,9",,,"SYN066AAXX  01154 08048 42460 72605 10114 20027 39886 40061 50003 83204;",
"08048099999","2010-12-01T18:00:00","4","42.3333333","-7.8666666","147.0","ORENSE, SP","FM-12","99999","V020","270,1,N,0021,1","00420,1,C,N","010000,1,N,1","+0060,1","+0026,1","10088,1","12,0010,9,1",,"8,1,06,1","2,1,06,1","01,1,+00450,1,06,1","07,99,1,07,1,09,1,00450,1,99,9,99,9",,,,"120,M,+0118,1","99999,9,09909,1","3,1,023,1,+999,9","95,1",,"SYN100AAXX  01184 08048 11460 72704 10060 20026 39909 40088 53023 60012 79582 879// 333 10118 81694 86994;",
"08048099999","2010-12-02T06:00:00","4","42.3333333","-7.8666666","147.0","ORENSE, SP","FM-12","99999","V020","200,1,N,0010,1","00210,1,9,N","010000,1,N,1","+0014,1","+0011,1","10123,1","12,0005,9,1","24,0015,9,1",,,,"08,99,1,08,1,06,1,00250,1,99,9,99,9","0312,9","09,9","999,-0020,9","999,N,+0006,1","99999,9,09940,1","3,1,006,1,+999,9","02,1",,"SYN112AAXX  02064 08048 11360 82002 10014 20011 39940 40123 53006 69962 702// 886// 333 20006 31102 50094 55052 70016;",
"08048099999","2010-12-02T09:00:00","4","42.3333333","-7.8666666","147.0","ORENSE, SP","FM-12","99999","V020","220,1,N,0010,1","00420,1,9,N","008000,1,N,1","+0016,1","+0010,1","10141,1",,,"2,1,03,1","2,1,03,1",,"08,99,1,08,1,06,1,00450,1,99,9,99,9",,,,,"99999,9,09958,1","3,1,018,1,+999,9","10,1",,"SYN072AAXX  02094 08048 41458 82202 10016 20010 39958 40141 53018 71022 886//;",
"08048099999","2010-12-02T12:00:00","4","42.3333333","-7.8666666","147.0","ORENSE, SP","FM-12","99999","V020","030,1,N,0015,1","00210,1,9,N","010000,1,N,1","+0045,1","+0028,1","10137,1","06,9999,9,9",,"5,1,06,1","2,1,06,1",,"07,99,1,07,1,07,1,00250,1,99,9,99,9",,,,,"99999,9,09956,1","8,1,002,1,+999,9","50,1",,"SYN078AAXX  02124 08048 11360 70303 10045 20028 39956 40137 58002 69901 75052 877//;","Q01  00002PRCP06Q02  00002PRCP06"
"08048099999","2010-12-02T15:00:00","4","42.3333333","-7.8666666","147.0","ORENSE, SP","FM-12","99999","V020","280,1,N,0015,1","00420,1,9,N","010000,1,N,1","+0042,1","+0032,1","10112,1",,,"6,1,03,1","5,1,03,1",,"08,99,1,08,1,05,1,00450,1,99,9,99,9",,,,,"99999,9,09931,1","7,1,025,1,+999,9","63,1",,"SYN072AAXX  02154 08048 41460 82803 10042 20032 39931 40112 57025 76365 885//;",
"08048099999","2010-12-02T18:00:00","4","42.3333333","-7.8666666","147.0","ORENSE, SP","FM-12","99999","V020","320,1,N,0021,1","00420,1,9,N","010000,1,N,1","+0036,1","+0026,1","10113,1","12,0041,9,1",,"6,1,06,1","5,1,06,1",,"07,99,1,07,1,05,1,00450,1,99,9,99,9",,,,"999,M,+0062,1","99999,9,09932,1","3,1,001,1,+999,9","21,1",,"SYN088AAXX  02184 08048 11460 73204 10036 20026 39932 40113 53001 60042 72165 875// 333 10062;",
"08048099999","2010-12-03T06:00:00","4","42.3333333","-7.8666666","147.0","ORENSE, SP","FM-12","99999","V020","180,1,N,0015,1","00210,1,9,N","004000,1,N,1","-0002,1","-0002,1","10206,1","12,0000,2,1","24,0048,9,1",,,,"08,99,1,08,1,06,1,00250,1,99,9,99,9","0012,9","09,9","999,-0020,9","999,N,-0004,1","99999,9,10021,1","1,1,015,1,+999,9","10,1",,"SYN112AAXX  03064 08048 11340 81803 11002 21002 30021 40206 51015 69922 710// 886// 333 21004 31102 50034 55002 70047;",
"08048099999","2010-12-03T09:00:00","4","42.3333333","-7.8666666","147.0","ORENSE, SP","FM-12","99999","V020","210,1,N,0015,1","00210,1,9,N","002000,1,N,1","-0006,1","-0006,1","10230,1",,,"4,1,03,1","2,1,03,1",,"08,99,1,08,1,06,1,00250,1,99,9,99,9",,,,,"99999,9,10044,1","2,1,023,1,+999,9","28,1",,"SYN072AAXX  03094 08048 41320 82103 11006 21006 30044 40230 52023 72842 886//;",
"08048099999","2010-12-03T12:00:00","4","42.3333333","-7.8666666","147.0","ORENSE, SP","FM-12","99999","V020","240,1,N,0010,1","00210,1,9,N","003000,1,N,1","+0012,1","+0009,1","10236,1","06,0000,9,1",,"4,1,06,1","2,1,06,1",,"08,99,1,08,1,06,1,00250,1,99,9,99,9",,,,,"99999,9,10051,1","0,1,007,1,+999,9","10,1",,"SYN078AAXX  03124 08048 11330 82402 10012 20009 30051 40236 50007 60001 71042 886//;","Q01  00002PRCP06"
"08048099999","2010-12-03T15:00:00","4","42.3333333","-7.8666666","147.0","ORENSE, SP","FM-12","99999","V020","230,1,N,0015,1","22000,1,9,N","009000,1,N,1","+0050,1","+0030,1","10221,1",,,"2,1,03,1","2,1,03,1",,"04,99,1,04,1,06,1,00250,1,04,1,00,1",,,,,"99999,9,10039,1","7,1,012,1,+999,9","10,1",,"SYN072AAXX  03154 08048 41359 42303 10050 20030 30039 40221 57012 71022 84640;",
"08048099999","2010-12-03T18:00:00","4","42.3333333","-7.8666666","147.0","ORENSE, SP","FM-12","99999","V020","160,1,N,0010,1","00210,1,9,N","008000,1,N,1","+0036,1","+0029,1","10225,1","12,0000,9,1",,"2,1,06,1","2,1,06,1",,"08,99,1,08,1,06,1,00250,1,99,9,99,9",,,,"999,M,+0056,1","99999,9,10042,1","3,1,003,1,+999,9","10,1",,"SYN088AAXX  03184 08048 11358 81602 10036 20029 30042 40225 53003 60002 71022 886// 333 10056;","Q01  00002PRCP12"
"08048099999","2010-12-06T06:00:00","4","42.3333333","-7.8666666","147.0","ORENSE, SP","FM-12","99999","V020","999,9,C,0000,1","00420,1,9,N","010000,1,N,1","+0122,1","+0119,1","09938,1","12,0170,9,1","24,0267,9,1","6,1,06,1","2,1,06,1",,"08,99,1,08,1,07,1,00450,1,99,9,99,9","0018,9",,,"999,N,+0115,1","99999,9,09766,1","8,1,009,1,+999,9","80,1",,"SYN100AAXX  06064 08048 11460 80000 10122 20119 39766 49938 58009 60172 78062 887// 333 20115 55003 70266;",
"08048099999","2010-12-06T09:00:00","4","42.3333333","-7.8666666","147.0","ORENSE, SP","FM-12","99999","V020","230,1,N,0041,1","22000,1,9,N","010000,1,N,1","+0155,1","+0135,1","09956,1",,,"8,1,03,1","1,1,03,1",,"04,99,1,04,1,02,1,00450,1,00,1,00,1",,,,,"99999,9,09786,1","3,1,020,1,+999,9","80,1",,"SYN072AAXX  06094 08048 41460 42308 10155 20135 39786 49956 53020 78081 84200;",
"08048099999","2010-12-06T12:00:00","4","42.3333333","-7.8666666","147.0","ORENSE, SP","FM-12","99999","V020","210,1,N,0026,1","00900,1,9,N","010000,1,N,1","+0155,1","+0117,1","09991,1","06,0020,9,1",,"8,1,06,1","1,1,06,1",,"07,99,1,07,1,08,1,00450,1,99,9,99,9",,,,,"99999,9,09820,1","1,1,034,1,+999,9","80,1",,"SYN078AAXX  06124 08048 11460 72105 10155 20117 39820 49991 51034 60021 78081 878//;",
"08048099999","2010-12-06T15:00:00","4","42.3333333","-7.8666666","147.0","ORENSE, SP","FM-12","99999","V020","260,1,N,0026,1","09000,1,9,N","010000,1,N,1","+0164,1","+0113,1","09982,1",,,"8,1,03,1","2,1,03,1",,"06,99,1,02,1,08,1,00450,1,07,1,06,1",,,,,"99999,9,09812,1","6,1,008,1,+999,9","03,1",,"SYN072AAXX  06154 08048 41460 62605 10164 20113 39812 49982 56008 70382 82876;",
"08048099999","2010-12-06T18:00:00","4","42.3333333","-7.8666666","147.0","ORENSE, SP","FM-12","99999","V020","310,1,N,0005,1","00420,1,9,N","010000,1,N,1","+0139,1","+0114,1","09971,1","12,0020,9,1",,"8,1,06,1","2,1,06,1",,"08,99,1,08,1,07,1,00450,1,99,9,99,9",,,,"999,M,+0180,1","99999,9,09799,1","8,1,013,1,+999,9","60,1",,"SYN088AAXX  06184 08048 11460 83101 10139 20114 39799 49971 58013 60022 76082 887// 333 10180;",
"08048099999","2010-12-07T06:00:00","4","42.3333333","-7.8666666","147.0","ORENSE, SP","FM-12","99999","V020","160,1,N,0015,1","00420,1,9,N","010000,1,N,1","+0114,1","+0095,1","09965,1","12,0051,9,1","24,0069,9,1","8,1,06,1","2,1,06,1",,"06,99,1,06,1,05,1,00450,1,00,1,00,1","0216,9","09,9","999,+0070,9","999,N,+0099,1","99999,9,09792,1","1,1,005,1,+999,9","02,1",,"SYN112AAXX  07064 08048 11460 61603 10114 20095 39792 49965 51005 60052 70282 86500 333 20099 31007 50104 55036 70069;",
"08048099999","2010-12-07T09:00:00","4","42.3333333","-7.8666666","147.0","ORENSE, SP","FM-12","99999","V020","290,1,N,0010,1","00420,1,9,N","010000,1,N,1","+0095,1","+0089,1","09965,1",,,,,,"07,99,1,05,1,05,1,00450,1,04,1,02,1",,,,,"99999,9,09791,1","5,1,001,1,+999,9",,,"SYN066AAXX  07094 08048 42460 72902 10095 20089 39791 49965 55001 85542;",
"08048099999","2010-12-07T12:00:00","4","42.3333333","-7.8666666","147.0","ORENSE, SP","FM-12","99999","V020","190,1,N,0026,1","00420,1,9,N","010000,1,N,1","+0156,1","+0108,1","09958,1","06,0000,9,1",,,,,"07,99,1,06,1,05,1,00450,1,04,1,02,1",,,,,"99999,9,09787,1","8,1,004,1,+999,9",,,"SYN072AAXX  07124 08048 12460 71905 10156 20108 39787 49958 58004 60001 86542;","Q01  00002PRCP06"
"08048099999","2010-12-07T15:00:00","4","42.3333333","-7.8666666","147.0","ORENSE, SP","FM-12","99999","V020","210,1,N,0005,1","00420,1,9,N","010000,1,N,1","+0136,1","+0123,1","09945,1",,,"6,1,03,1","2,1,03,1",,"08,99,1,08,1,07,1,00450,1,99,9,99,9",,,,,"99999,9,09774,1","6,1,013,1,+999,9","61,1",,"SYN072AAXX  07154 08048 41460 82101 10136 20123 39774 49945 56013 76162 887//;",
"08048099999","2010-12-07T18:00:00","4","42.3333333","-7.8666666","147.0","ORENSE, SP","FM-12","99999","V020","270,1,N,0010,1","00420,1,9,N","010000,1,N,1","+0130,1","+0116,1","09932,1","12,0030,9,1",,"6,1,06,1","2,1,06,1",,"07,99,1,07,1,07,1,00450,1,99,9,99,9",,,,"999,M,+0163,1","99999,9,09760,1","6,1,014,1,+999,9","60,1",,"SYN088AAXX  07184 08048 11460 72702 10130 20116 39760 49932 56014 60032 76062 877// 333 10163;",
"08048099999","2010-12-08T06:00:00","4","42.3333333","-7.8666666","147.0","ORENSE, SP","FM-12","99999","V020","250,1,N,0015,1","00420,1,9,N","010000,1,N,1","+0122,1","+0109,1","09981,1","12,0071,9,1","24,0107,9,1","8,1,06,1","2,1,06,1",,"08,99,1,08,1,07,1,00450,1,99,9,99,9","0012,9","09,9","999,+0090,9","999,N,+0120,1","99999,9,09808,1","2,1,029,1,+999,9","80,1",,"SYN112AAXX  08064 08048 11460 82503 10122 20109 39808 49981 52029 60072 78082 887// 333 20120 31009 50064 55002 70106;",
"08048099999","2010-12-08T09:00:00","4","42.3333333","-7.8666666","147.0","ORENSE, SP","FM-12","99999","V020","330,1,N,0010,1","22000,1,9,N","010000,1,N,1","+0130,1","+0105,1","10035,1",,,"8,1,03,1","1,1,03,1",,"04,99,1,03,1,02,1,00450,1,04,1,00,1",,,,,"99999,9,09862,1","2,1,054,1,+999,9","01,1",,"SYN072AAXX  08094 08048 41460 43302 10130 20105 39862 40035 52054 70181 83240;",
"08048099999","2010-12-08T12:00:00","4","42.3333333","-7.8666666","147.0","ORENSE, SP","FM-12","99999","V020","020,1,N,0015,1","00900,1,9,N","010000,1,N,1","+0128,1","+0105,1","10064,1","06,0005,9,1",,"8,1,06,1","1,1,06,1",,"06,99,1,06,1,08,1,00450,1,00,1,00,1",,,,,"99999,9,09890,1","1,1,028,1,+999,9","25,1",,"SYN078AAXX  08124 08048 11460 60203 10128 20105 39890 40064 51028 69951 72581 86800;",
"08048099999","2010-12-08T15:00:00","4","42.3333333","-7.8666666","147.0","ORENSE, SP","FM-12","99999","V020","030,1,N,0010,1","00900,1,9,N","010000,1,N,1","+0133,1","+0105,1","10071,1",,,,,,"07,99,1,06,1,08,1,00450,1,07,1,99,9",,,,,"99999,9,09897,1","1,1,007,1,+999,9",,,"SYN066AAXX  08154 08048 42460 70302 10133 20105 39897 40071 51007 8687/;",
"08048099999","2010-12-08T18:00:00","4","42.3333333","-7.8666666","147.0","ORENSE, SP","FM-12","99999","V020","360,1,N,0010,1","00420,1,9,N","010000,1,N,1","+0114,1","+0103,1","10101,1","12,0020,9,1",,"6,1,06,1","2,1,06,1",,"08,99,1,08,1,07,1,00450,1,99,9,99,9",,,,"999,M,+0149,1","99999,9,09925,1","3,1,028,1,+999,9","61,1",,"SYN088AAXX  08184 08048 11460 83602 10114 20103 39925 40101 53028 60022 76162 887// 333 10149;",
"08048099999","2010-12-09T06:00:00","4","42.3333333","-7.8666666","147.0","ORENSE, SP","FM-12","99999","V020","090,1,N,0010,1","22000,1,9,N","010000,1,N,1","+0072,1","+0063,1","10176,1","12,0005,9,1","24,0025,9,1",,,,"03,99,1,03,1,06,1,00450,1,00,1,00,1","0036,9","09,9","999,+0020,9","999,N,+0070,1","99999,9,09996,1","2,1,016,1,+999,9",,,"SYN106AAXX  09064 08048 12460 30902 10072 20063 39996 40176 52016 69942 83600 333 20070 31002 50104 55006 70025;",
"08048099999","2010-12-09T09:00:00","4","42.3333333","-7.8666666","147.0","ORENSE, SP","FM-12","99999","V020","110,1,N,0005,1","03600,1,9,N","010000,1,N,1","+0066,1","+0062,1","10194,1",,,,,,"07,99,1,02,1,01,1,00450,1,07,1,06,1",,,,,"99999,9,10014,1","1,1,018,1,+999,9",,,"SYN066AAXX  09094 08048 42460 71101 10066 20062 30014 40194 51018 82176;",
"08048099999","2010-12-09T12:00:00","4","42.3333333","-7.8666666","147.0","ORENSE, SP","FM-12","99999","V020","200,1,N,0010,1","03600,1,9,N","010000,1,N,1","+0104,1","+0080,1","10205,1","06,0000,9,1",,,,,"08,99,1,01,1,01,1,00450,1,07,1,07,1",,,,,"99999,9,10027,1","1,1,013,1,+999,9",,,"SYN072AAXX  09124 08048 12460 82002 10104 20080 30027 40205 51013 60001 81177;","Q01  00002PRCP06"
"08048099999","2010-12-09T15:00:00","4","42.3333333","-7.8666666","147.0","ORENSE, SP","FM-12","99999","V020","190,1,N,0010,1","03600,1,9,N","010000,1,N,1","+0112,1","+0093,1","10205,1",,,"2,1,03,1","2,1,03,1",,"07,99,1,01,1,07,1,00450,1,07,1,99,9",,,,,"99999,9,10027,1","0,1,000,1,+999,9","20,1",,"SYN072AAXX  09154 08048 41460 71902 10112 20093 30027 40205 50000 72022 8177/;",
"08048099999","2010-12-09T18:00:00","4","42.3333333","-7.8666666","147.0","ORENSE, SP","FM-12","99999","V020","150,1,N,0005,1","22000,1,9,N","010000,1,N,1","+0099,1","+0088,1","10211,1","12,0000,2,1",,"5,1,06,1","1,1,06,1",,"04,99,1,01,1,05,1,00450,1,04,1,02,1",,,,"999,M,+0118,1","99999,9,10032,1","3,1,005,1,+999,9","01,1",,"SYN088AAXX  09184 08048 11460 41501 10099 20088 30032 40211 53005 69912 70151 81542 333 10118;",
"08048099999","2010-12-10T06:00:00","4","42.3333333","-7.8666666","147.0","ORENSE, SP","FM-12","99999","V020","120,1,N,0010,1","00420,1,9,N","010000,1,N,1","+0063,1","+0060,1","10245,1","12,0010,9,1","24,0013,9,1","6,1,06,1","1,1,06,1",,"05,99,1,05,1,05,1,00450,1,00,1,00,1","0000,9","09,9","999,+0040,9","999,N,+0059,1","99999,9,10063,1","3,1,004,1,+999,9","02,1",,"SYN112AAXX  10064 08048 11460 51202 10063 20060 30063 40245 53004 60012 70261 85500 333 20059 31004 50044 55000 70012;",
"08048099999","2010-12-10T09:00:00","4","42.3333333","-7.8666666","147.0","ORENSE, SP","FM-12","99999","V020","210,1,N,0010,1","22000,1,9,N","010000,1,N,1","+0067,1","+0064,1","10250,1",,,"8,1,03,1","1,1,03,1",,"01,99,1,01,1,05,1,00450,1,00,1,00,1",,,,,"99999,9,10069,1","0,1,006,1,+999,9","01,1",,"SYN072AAXX  10094 08048 41460 12102 10067 20064 30069 40250 50006 70181 81500;",
"08048099999","2010-12-10T12:00:00","4","42.3333333","-7.8666666","147.0","ORENSE, SP","FM-12","99999","V020","210,1,N,0010,1","22000,1,9,N","010000,1,N,1","+0126,1","+0091,1","10245,1","06,0000,9,1",,"8,1,06,1","1,1,06,1","00,1,+99999,9,99,9","00,99,1,00,1,00,1,99999,9,00,1,00,1",,,,,"99999,9,10068,1","8,1,001,1,+999,9","00,1",,"SYN072AAXX  10124 08048 11960 02102 10126 20091 30068 40245 58001 69911 70081;","Q01  00002PRCP06"
"08048099999","2010-12-10T15:00:00","4","42.3333333","-7.8666666","147.0","ORENSE, SP","FM-12","99999","V020","150,1,N,0010,1","22000,1,9,N","010000,1,N,1","+0166,1","+0111,1","10225,1",,,,,,"04,99,1,04,1,00,1,02250,1,04,1,00,1",,,,,"99999,9,10050,1","6,1,018,1,+999,9",,,"SYN066AAXX  10154 08048 42860 41502 10166 20111 30050 40225 56018 84040;",
"08048099999","2010-12-10T18:00:00","4","42.3333333","-7.8666666","147.0","ORENSE, SP","FM-12","99999","V020","210,1,N,0010,1","09000,1,9,N","010000,1,N,1","+0118,1","+0099,1","10236,1","12,0000,9,1",,,,,"06,99,1,03,1,00,1,02250,1,02,1,08,1",,,,"999,M,+0171,1","99999,9,10058,1","3,1,008,1,+999,9",,,"SYN082AAXX  10184 08048 12860 62102 10118 20099 30058 40236 53008 69912 83028 333 10171;","Q01  00002PRCP12"
"08048099999","2010-12-13T06:00:00","4","42.3333333","-7.8666666","147.0","ORENSE, SP","FM-12","99999","V020","170,1,N,0005,1","00210,1,9,N","002000,1,N,1","+0062,1","+0062,1","10148,1","12,0000,9,1","24,0000,9,1",,,,"08,99,1,08,1,06,1,00250,1,99,9,99,9","0000,9",,,"999,N,+0060,1","99999,9,09968,1","8,1,001,1,+999,9","10,1",,"SYN100AAXX  13064 08048 11320 81701 10062 20062 39968 40148 58001 60002 710// 886// 333 20060 55000 70000;","Q01  00002PRCP24Q02  00002PRCP12"
"08048099999","2010-12-13T12:00:00","4","42.3333333","-7.8666666","147.0","ORENSE, SP","FM-12","99999","V020","180,1,N,0010,1","00210,1,9,N","003000,1,N,1","+0070,1","+0069,1","10160,1","06,0000,9,1",,"2,1,06,1","2,1,06,1",,"08,99,1,08,1,06,1,00250,1,99,9,99,9",,,,,"99999,9,09980,1","0,1,000,1,+999,9","10,1",,"SYN078AAXX  13124 08048 11330 81802 10070 20069 39980 40160 50000 60001 71022 886//;","Q01  00002PRCP06"
"08048099999","2010-12-13T15:00:00","4","42.3333333","-7.8666666","147.0","ORENSE, SP","FM-12","99999","V020","080,1,N,0015,1","00210,1,9,N","007000,1,N,1","+0081,1","+0070,1","10154,1",,,"2,1,03,1","2,1,03,1",,"08,99,1,08,1,06,1,00250,1,99,9,99,9",,,,,"99999,9,09975,1","6,1,005,1,+999,9","10,1",,"SYN072AAXX  13154 08048 41357 80803 10081 20070 39975 40154 56005 71022 886//;",
"08048099999","2010-12-13T18:00:00","4","42.3333333","-7.8666666","147.0","ORENSE, SP","FM-12","99999","V020","260,1,N,0005,1","00210,1,9,N","009000,1,N,1","+0078,1","+0074,1","10164,1","12,0000,9,1",,"2,1,06,1","2,1,06,1",,"07,99,1,07,1,06,1,00250,1,00,1,00,1",,,,"999,M,+0085,1","99999,9,09985,1","2,1,010,1,+999,9","10,1",,"SYN088AAXX  13184 08048 11359 72601 10078 20074 39985 40164 52010 60002 71022 87600 333 10085;","Q01  00002PRCP12"
"08048099999","2010-12-14T06:00:00","4","42.3333333","-7.8666666","147.0","ORENSE, SP","FM-12","99999","V020","140,1,N,0010,1","00420,1,9,N","010000,1,N,1","+0070,1","+0056,1","10210,1","12,0000,9,1","24,0000,9,1",,,,"08,99,1,08,1,06,1,00450,1,99,9,99,9","0000,9","01,9","999,+0030,9","999,N,+0067,1","99999,9,10030,1","3,1,011,1,+999,9","02,1",,"SYN112AAXX  14064 08048 11460 81402 10070 20056 30030 40210 53011 60002 702// 886// 333 20067 30003 50034 55000 70000;","Q01  00002PRCP24Q02  00002PRCP12"
"08048099999","2010-12-14T09:00:00","4","42.3333333","-7.8666666","147.0","ORENSE, SP","FM-12","99999","V020","120,1,N,0015,1","00420,1,9,N","010000,1,N,1","+0068,1","+0045,1","10230,1",,,,,,"07,99,1,07,1,06,1,00450,1,00,1,00,1",,,,,"99999,9,10049,1","1,1,019,1,+999,9",,,"SYN066AAXX  14094 08048 42460 71203 10068 20045 30049 40230 51019 87600;",
"08048099999","2010-12-14T12:00:00","4","42.3333333","-7.8666666","147.0","ORENSE, SP","FM-12","99999","V020","220,1,N,0010,1","00420,1,9,N","010000,1,N,1","+0080,1","+0058,1","10243,1","06,0000,9,1",,,,,"07,99,1,07,1,05,1,00450,1,00,1,00,1",,,,,"99999,9,10063,1","1,1,014,1,+999,9",,,"SYN072AAXX  14124 08048 12460 72202 10080 20058 30063 40243 51014 60001 87500;","Q01  00002PRCP06"
"08048099999","2010-12-14T15:00:00","4","42.3333333","-7.8666666","147.0","ORENSE, SP","FM-12","99999","V020","180,1,N,0015,1","22000,1,9,N","010000,1,N,1","+0094,1","+0059,1","10246,1",,,,,,"04,99,1,04,1,06,1,00250,1,00,1,00,1",,,,,"99999,9,10066,1","3,1,003,1,+999,9",,,"SYN066AAXX  14154 08048 42360 41803 10094 20059 30066 40246 53003 84600;",
"08048099999","2010-12-14T18:00:00","4","42.3333333","-7.8666666","147.0","ORENSE, SP","FM-12","99999","V020","999,9,C,0000,1","22000,1,9,N","010000,1,N,1","+0061,1","+0052,1","10258,1","12,0000,9,1",,,,,"04,99,1,04,1,05,1,00450,1,00,1,01,1",,,,"999,M,+0104,1","99999,9,10076,1","3,1,010,1,+999,9",,,"SYN082AAXX  14184 08048 12460 40000 10061 20052 30076 40258 53010 60002 84501 333 10104;","Q01  00002PRCP12"
"08048099999","2010-12-15T06:00:00","4","42.3333333","-7.8666666","147.0","ORENSE, SP","FM-12","99999","V020","200,1,N,0010,1","22000,1,9,N","010000,1,N,1","+0016,1","+0007,1","10306,1","12,0000,9,1","24,0000,9,1",,,,"04,99,1,04,1,06,1,00450,1,00,1,00,1","0150,9","09,9","999,-0030,9","999,N,+0013,1","99999,9,10120,1","2,1,009,1,+999,9","03,1",,"SYN112AAXX  15064 08048 11460 42002 10016 20007 30120 40306 52009 60002 703// 84600 333 20013 31103 50064 55025 70000;","Q01  00002PRCP24Q02  00002PRCP12"
"08048099999","2010-12-15T09:00:00","4","42.3333333","-7.8666666","147.0","ORENSE, SP","FM-12","99999","V020","160,1,N,0005,1","22000,1,9,N","010000,1,N,1","+0013,1","+0004,1","10319,1",,,,,,"02,99,1,00,1,00,1,99999,9,00,1,04,1",,,,,"99999,9,10133,1","1,1,013,1,+999,9",,,"SYN066AAXX  15094 08048 42960 21601 10013 20004 30133 40319 51013 80004;",
"08048099999","2010-12-15T12:00:00","4","42.3333333","-7.8666666","147.0","ORENSE, SP","FM-12","99999","V020","250,1,N,0015,1","22000,1,9,N","010000,1,N,1","+0076,1","+0017,1","10305,1","06,0000,9,1",,,,,"02,99,1,00,1,00,1,99999,9,00,1,04,1",,,,,"99999,9,10123,1","8,1,010,1,+999,9",,,"SYN072AAXX  15124 08048 12960 22503 10076 20017 30123 40305 58010 60001 80004;","Q01  00002PRCP06"
"08048099999","2010-12-15T15:00:00","4","42.3333333","-7.8666666","147.0","ORENSE, SP","FM-12","99999","V020","010,1,N,0015,1","22000,1,9,N","010000,1,N,1","+0127,1","+0020,1","10276,1",,,,,,"01,99,1,00,1,00,1,99999,9,00,1,02,1",,,,,"99999,9,10098,1","7,1,025,1,+999,9",,,"SYN066AAXX  15154 08048 42960 10103 10127 20020 30098 40276 57025 80002;",
"08048099999","2010-12-15T18:00:00","4","42.3333333","-7.8666666","147.0","ORENSE, SP","FM-12","99999","V020","030,1,N,0015,1","22000,1,9,N","010000,1,N,1","+0080,1","-0010,1","10282,1","12,0000,9,1",,,,"00,1,+99999,9,99,9","00,99,1,00,1,00,1,99999,9,00,1,00,1",,,,"999,M,+0129,1","99999,9,10101,1","3,1,003,1,+999,9",,,"SYN076AAXX  15184 08048 12960 00303 10080 21010 30101 40282 53003 60002 333 10129;","Q01  00002PRCP12"
"08048099999","2010-12-16T06:00:00","4","42.3333333","-7.8666666","147.0","ORENSE, SP","FM-12","99999","V020","999,9,C,0000,1","22000,1,9,N","010000,1,N,1","-0028,1","-0035,1","10282,1","12,0000,9,1","24,0000,9,1",,,"00,1,+99999,9,99,9","00,99,1,00,1,00,1,99999,9,00,1,00,1","0486,9","14,9","999,-0080,9","999,N,-0032,1","99999,9,10093,1","8,1,009,1,+999,9","00,1",,"SYN106AAXX  16064 08048 11960 00000 11028 21035 30093 40282 58009 60002 700// 333 21032 34108 5//// 55081 70000;","Q01  00002PRCP24Q02  00002PRCP12"
"08048099999","2010-12-16T09:00:00","4","42.3333333","-7.8666666","147.0","ORENSE, SP","FM-12","99999","V020","200,1,N,0010,1","22000,1,9,N","010000,1,N,1","-0024,1","-0031,1","10287,1",,,,,"00,1,+99999,9,99,9","00,99,1,00,1,00,1,99999,9,00,1,00,1",,,,,"99999,9,10099,1","1,1,006,1,+999,9",,,"SYN060AAXX  16094 08048 42960 02002 11024 21031 30099 40287 51006;",
"08048099999","2010-12-16T12:00:00","4","42.3333333","-7.8666666","147.0","ORENSE, SP","FM-12","99999","V020","320,1,N,0021,1","22000,1,9,N","010000,1,N,1","+0056,1","-0015,1","10266,1","06,0000,9,1",,,,"00,1,+99999,9,99,9","00,99,1,00,1,00,1,99999,9,00,1,00,1",,,,,"99999,9,10083,1","8,1,016,1,+999,9",,,"SYN066AAXX  16124 08048 12960 03204 10056 21015 30083 40266 58016 60001;","Q01  00002PRCP06"
"08048099999","2010-12-16T15:00:00","4","42.3333333","-7.8666666","147.0","ORENSE, SP","FM-12","99999","V020","030,1,N,0015,1","22000,1,9,N","010000,1,N,1","+0095,1","-0009,1","10237,1",,,,,"00,1,+99999,9,99,9","00,99,1,00,1,00,1,99999,9,00,1,00,1",,,,,"99999,9,10057,1","6,1,026,1,+999,9",,,"SYN060AAXX  16154 08048 42960 00303 10095 21009 30057 40237 56026;",
"08048099999","2010-12-16T18:00:00","4","42.3333333","-7.8666666","147.0","ORENSE, SP","FM-12","99999","V020","260,1,N,0010,1","22000,1,9,N","010000,1,N,1","+0044,1","+0007,1","10231,1","12,0000,9,1",,,,"00,1,+99999,9,99,9","00,99,1,00,1,00,1,99999,9,00,1,00,1",,,,"999,M,+0101,1","99999,9,10048,1","7,1,009,1,+999,9",,,"SYN076AAXX  16184 08048 12960 02602 10044 20007 30048 40231 57009 60002 333 10101;","Q01  00002PRCP12"
"08048099999","2010-12-17T06:00:00","4","42.3333333","-7.8666666","147.0","ORENSE, SP","FM-12","99999","V020","230,1,N,0005,1","00210,1,9,N","009000,1,N,1","-0027,1","-0030,1","10176,1","12,0000,9,1","24,0000,9,1",,,,"07,99,1,07,1,06,1,00250,1,99,9,99,9","0492,9","14,9","999,-0090,9","999,N,-0039,1","99999,9,09989,1","7,1,023,1,+999,9","10,1",,"SYN112AAXX  17064 08048 11359 72301 11027 21030 39989 40176 57023 60002 710// 876// 333 21039 34109 5//// 55082 70000;","Q01  00002PRCP24Q02  00002PRCP12"
"08048099999","2010-12-17T09:00:00","4","42.3333333","-7.8666666","147.0","ORENSE, SP","FM-12","99999","V020","110,1,N,0010,1","00210,1,9,N","010000,1,N,1","-0016,1","-0022,1","10152,1",,,,,,"08,99,1,08,1,06,1,00250,1,99,9,99,9",,,,,"99999,9,09967,1","7,1,022,1,+999,9",,,"SYN066AAXX  17094 08048 42360 81102 11016 21022 39967 40152 57022 886//;",
"08048099999","2010-12-17T12:00:00","4","42.3333333","-7.8666666","147.0","ORENSE, SP","FM-12","99999","V020","300,1,N,0010,1","00210,1,9,N","010000,1,N,1","+0017,1","-0009,1","10125,1","06,0000,9,1",,,,,"07,99,1,07,1,05,1,00250,1,99,9,99,9",,,,,"99999,9,09942,1","7,1,025,1,+999,9",,,"SYN072AAXX  17124 08048 12360 73002 10017 21009 39942 40125 57025 60001 875//;","Q01  00002PRCP06"
"08048099999","2010-12-17T15:00:00","4","42.3333333","-7.8666666","147.0","ORENSE, SP","FM-12","99999","V020","270,1,N,0010,1","00420,1,9,N","010000,1,N,1","+0044,1","+0007,1","10086,1",,,"5,1,03,1","2,1,03,1",,"08,99,1,08,1,07,1,00450,1,99,9,99,9",,,,,"99999,9,09906,1","7,1,036,1,+999,9","50,1",,"SYN072AAXX  17154 08048 41460 82702 10044 20007 39906 40086 57036 75052 887//;",
"08048099999","2010-12-17T18:00:00","4","42.3333333","-7.8666666","147.0","ORENSE, SP","FM-12","99999","V020","999,9,C,0000,1","00210,1,9,N","010000,1,N,1","+0038,1","+0012,1","10080,1","12,0000,2,1",,"5,1,06,1","2,1,06,1",,"07,99,1,07,1,07,1,00250,1,99,9,99,9",,,,"999,M,+0049,1","99999,9,09900,1","8,1,006,1,+999,9","50,1",,"SYN088AAXX  17184 08048 11360 70000 10038 20012 39900 40080 58006 69902 75052 877// 333 10049;",
"08048099999","2010-12-20T06:00:00","4","42.3333333","-7.8666666","147.0","ORENSE, SP","FM-12","99999","V020","100,1,N,0010,1","00420,1,9,N","010000,1,N,1","+0067,1","+0066,1","10075,1","12,0008,9,1","24,0008,9,1","6,1,06,1","2,1,06,1",,"08,99,1,08,1,07,1,00450,1,99,9,99,9","0006,9",,,"999,N,+0042,1","99999,9,09897,1","5,1,003,1,+999,9","60,1",,"SYN100AAXX  20064 08048 11460 81002 10067 20066 39897 40075 55003 69982 76062 887// 333 20042 55001 70008;",
"08048099999","2010-12-20T09:00:00","4","42.3333333","-7.8666666","147.0","ORENSE, SP","FM-12","99999","V020","999,9,C,0000,1","00210,1,9,N","010000,1,N,1","+0073,1","+0072,1","10076,1",,,"6,1,03,1","6,1,03,1",,"08,99,1,08,1,07,1,00250,1,99,9,99,9",,,,,"99999,9,09898,1","3,1,001,1,+999,9","61,1",,"SYN072AAXX  20094 08048 41360 80000 10073 20072 39898 40076 53001 76166 887//;",
"08048099999","2010-12-20T12:00:00","4","42.3333333","-7.8666666","147.0","ORENSE, SP","FM-12","99999","V020","310,1,N,0010,1","00210,1,9,N","009000,1,N,1","+0097,1","+0092,1","10074,1","06,0030,9,1",,"6,1,06,1","6,1,06,1",,"08,99,1,08,1,07,1,00250,1,99,9,99,9",,,,,"99999,9,09898,1","0,1,000,1,+999,9","61,1",,"SYN078AAXX  20124 08048 11359 83102 10097 20092 39898 40074 50000 60031 76166 887//;",
"08048099999","2010-12-20T15:00:00","4","42.3333333","-7.8666666","147.0","ORENSE, SP","FM-12","99999","V020","260,1,N,0010,1","00120,1,9,N","008000,1,N,1","+0107,1","+0101,1","10058,1",,,"6,1,03,1","6,1,03,1",,"08,99,1,07,1,07,1,00150,1,02,1,99,9",,,,,"99999,9,09883,1","8,1,015,1,+999,9","21,1",,"SYN072AAXX  20154 08048 41258 82602 10107 20101 39883 40058 58015 72166 8772/;",
"08048099999","2010-12-20T18:00:00","4","42.3333333","-7.8666666","147.0","ORENSE, SP","FM-12","99999","V020","160,1,N,0010,1","03600,1,9,N","009000,1,N,1","+0093,1","+0088,1","10045,1","12,0041,9,1",,"6,1,06,1","2,1,06,1",,"08,99,1,03,1,07,1,00250,1,07,1,99,9",,,,"999,M,+0111,1","99999,9,09869,1","7,1,014,1,+999,9","10,1",,"SYN088AAXX  20184 08048 11359 81602 10093 20088 39869 40045 57014 60042 71062 8377/ 333 10111;",
"08048099999","2010-12-21T06:00:00","4","42.3333333","-7.8666666","147.0","ORENSE, SP","FM-12","99999","V020","160,1,N,0005,1","00210,1,9,N","008000,1,N,1","+0078,1","+0077,1","09949,1","12,0140,9,1","24,0183,9,1","6,1,06,1","6,1,06,1",,"08,99,1,08,1,07,1,00250,1,99,9,99,9","0000,9","11,9","999,+0070,9","999,N,+0076,1","99999,9,09774,1","7,1,020,1,+999,9","61,1",,"SYN112AAXX  21064 08048 11358 81601 10078 20077 39774 49949 57020 60142 76166 887// 333 20076 32007 50014 55000 70184;",
"08048099999","2010-12-21T09:00:00","4","42.3333333","-7.8666666","147.0","ORENSE, SP","FM-12","99999","V020","999,9,C,0000,1","00120,1,9,N","005000,1,N,1","+0079,1","+0078,1","09947,1",,,"6,1,03,1","6,1,03,1",,"08,99,1,08,1,07,1,00150,1,99,9,99,9",,,,,"99999,9,09772,1","6,1,002,1,+999,9","61,1",,"SYN072AAXX  21094 08048 41250 80000 10079 20078 39772 49947 56002 76166 887//;",
"08048099999","2010-12-21T12:00:00","4","42.3333333","-7.8666666","147.0","ORENSE, SP","FM-12","99999","V020","300,1,N,0010,1","00210,1,9,N","009000,1,N,1","+0088,1","+0082,1","09948,1","06,0140,9,1",,"6,1,06,1","6,1,06,1",,"08,99,1,06,1,07,1,00250,1,07,1,99,9",,,,,"99999,9,09773,1","0,1,001,1,+999,9","61,1",,"SYN078AAXX  21124 08048 11359 83002 10088 20082 39773 49948 50001 60141 76166 8677/;",
"08048099999","2010-12-21T15:00:00","4","42.3333333","-7.8666666","147.0","ORENSE, SP","FM-12","99999","V020","010,1,N,0015,1","00210,1,9,N","007000,1,N,1","+0096,1","+0085,1","09936,1",,,"6,1,03,1","5,1,03,1",,"08,99,1,08,1,07,1,00250,1,99,9,99,9",,,,,"99999,9,09762,1","6,1,011,1,+999,9","51,1",,"SYN072AAXX  21154 08048 41357 80103 10096 20085 39762 49936 56011 75165 887//;",
"08048099999","2010-12-21T18:00:00","4","42.3333333","-7.8666666","147.0","ORENSE, SP","FM-12","99999","V020","150,1,N,0010,1","00420,1,9,N","010000,1,N,1","+0091,1","+0085,1","09938,1","12,0150,9,1",,"6,1,06,1","5,1,06,1",,"08,99,1,08,1,05,1,00450,1,99,9,99,9",,,,"999,M,+0102,1","99999,9,09764,1","1,1,002,1,+999,9","02,1",,"SYN088AAXX  21184 08048 11460 81502 10091 20085 39764 49938 51002 60152 70265 885// 333 10102;",
"08048099999","2010-12-22T06:00:00","4","42.3333333","-7.8666666","147.0","ORENSE, SP","FM-12","99999","V020","140,1,N,0010,1","00210,1,9,N","007000,1,N,1","+0082,1","+0078,1","09892,1","12,0089,9,1","24,0244,9,1","6,1,06,1","6,1,06,1",,"08,99,1,08,1,07,1,00250,1,99,9,99,9","0000,9","11,9","999,+0060,9","999,N,+0079,1","99999,9,09718,1","6,1,012,1,+999,9","61,1",,"SYN112AAXX  22064 08048 11357 81402 10082 20078 39718 49892 56012 60092 76166 887// 333 20079 32006 50024 55000 70243;",
"08048099999","2010-12-22T09:00:00","4","42.3333333","-7.8666666","147.0","ORENSE, SP","FM-12","99999","V020","170,1,N,0010,1","00210,1,9,N","008000,1,N,1","+0082,1","+0081,1","09898,1",,,"6,1,03,1","6,1,03,1",,"08,99,1,08,1,07,1,00250,1,99,9,99,9",,,,,"99999,9,09724,1","1,1,006,1,+999,9","61,1",,"SYN072AAXX  22094 08048 41358 81702 10082 20081 39724 49898 51006 76166 887//;",
"08048099999","2010-12-22T12:00:00","4","42.3333333","-7.8666666","147.0","ORENSE, SP","FM-12","99999","V020","320,1,N,0015,1","00210,1,9,N","010000,1,N,1","+0100,1","+0091,1","09903,1","06,0041,9,1",,"6,1,06,1","5,1,06,1",,"08,99,1,08,1,07,1,00250,1,99,9,99,9",,,,,"99999,9,09730,1","0,1,006,1,+999,9","50,1",,"SYN078AAXX  22124 08048 11360 83203 10100 20091 39730 49903 50006 60041 75065 887//;",
"08048099999","2010-12-22T15:00:00","4","42.3333333","-7.8666666","147.0","ORENSE, SP","FM-12","99999","V020","330,1,N,0021,1","00210,1,9,N","007000,1,N,1","+0101,1","+0087,1","09905,1",,,"6,1,03,1","5,1,03,1",,"08,99,1,08,1,07,1,00250,1,99,9,99,9",,,,,"99999,9,09732,1","3,1,002,1,+999,9","63,1",,"SYN072AAXX  22154 08048 41357 83304 10101 20087 39732 49905 53002 76365 887//;",
"08048099999","2010-12-22T18:00:00","4","42.3333333","-7.8666666","147.0","ORENSE, SP","FM-12","99999","V020","310,1,N,0010,1","00420,1,9,N","010000,1,N,1","+0092,1","+0075,1","09931,1","12,0071,9,1",,"6,1,06,1","5,1,06,1",,"08,99,1,05,1,07,1,00450,1,07,1,99,9",,,,"999,M,+0109,1","99999,9,09757,1","3,1,025,1,+999,9","51,1",,"SYN088AAXX  22184 08048 11460 83102 10092 20075 39757 49931 53025 60072 75165 8577/ 333 10109;",
"08048099999","2010-12-23T06:00:00","4","42.3333333","-7.8666666","147.0","ORENSE, SP","FM-12","99999","V020","180,1,N,0005,1","03600,1,9,N","010000,1,N,1","+0058,1","+0026,1","10045,1","12,0020,9,1","24,0094,9,1","8,1,06,1","2,1,06,1",,"08,99,1,04,1,05,1,00450,1,07,1,99,9","0000,9","09,9","999,+0040,9","999,N,+0056,1","99999,9,09867,1","1,1,024,1,+999,9","02,1",,"SYN112AAXX  23064 08048 11460 81801 10058 20026 39867 40045 51024 60022 70282 8457/ 333 20056 31004 50074 55000 70095;",
"08048099999","2010-12-23T09:00:00","4","42.3333333","-7.8666666","147.0","ORENSE, SP","FM-12","99999","V020","300,1,N,0015,1","00420,1,9,N","010000,1,N,1","+0058,1","+0031,1","10077,1",,,"5,1,03,1","2,1,03,1",,"07,99,1,06,1,05,1,00450,1,03,1,00,1",,,,,"99999,9,09898,1","2,1,031,1,+999,9","01,1",,"SYN072AAXX  23094 08048 41460 73003 10058 20031 39898 40077 52031 70152 86530;",
"08048099999","2010-12-23T12:00:00","4","42.3333333","-7.8666666","147.0","ORENSE, SP","FM-12","99999","V020","330,1,N,0031,1","00420,1,9,N","010000,1,N,1","+0074,1","+0035,1","10096,1","06,0000,9,1",,"5,1,06,1","2,1,06,1",,"06,99,1,05,1,05,1,00450,1,04,1,00,1",,,,,"99999,9,09918,1","1,1,020,1,+999,9","02,1",,"SYN078AAXX  23124 08048 11460 63306 10074 20035 39918 40096 51020 69901 70252 85540;","Q01  00002PRCP06"
"08048099999","2010-12-23T15:00:00","4","42.3333333","-7.8666666","147.0","ORENSE, SP","FM-12","99999","V020","310,1,N,0036,1","03600,1,9,N","010000,1,N,1","+0075,1","+0024,1","10112,1",,,,,,"05,99,1,03,1,08,1,00450,1,04,1,00,1",,,,,"99999,9,09933,1","3,1,015,1,+999,9",,,"SYN066AAXX  23154 08048 42460 53107 10075 20024 39933 40112 53015 83840;",
"08048099999","2010-12-23T18:00:00","4","42.3333333","-7.8666666","147.0","ORENSE, SP","FM-12","99999","V020","300,1,N,0010,1","00420,1,9,N","010000,1,N,1","+0061,1","+0024,1","10147,1","12,0000,9,1",,,,,"06,99,1,05,1,05,1,00450,1,04,1,00,1",,,,"999,M,+0094,1","99999,9,09967,1","2,1,034,1,+999,9",,,"SYN082AAXX  23184 08048 12460 63002 10061 20024 39967 40147 52034 69902 85540 333 10094;","Q01  00002PRCP12"
"08048099999","2010-12-24T06:00:00","4","42.3333333","-7.8666666","147.0","ORENSE, SP","FM-12","99999","V020","250,1,N,0010,1","00030,1,9,N","000400,1,N,1","+0005,1","+0002,1","10193,1","12,0000,9,1","24,0000,9,1",,,"09,1,+99999,9,99,9","09,99,1,09,1,99,9,99999,9,99,9,99,9","0120,9","09,9","999,-0030,9","999,N,+0000,1","99999,9,10008,1","5,1,000,1,+999,9","45,1",,"SYN106AAXX  24064 08048 11/04 92502 10005 20002 30008 40193 55000 60002 745// 333 20000 31103 50084 55020 79999;","Q01  00002PRCP24Q02  00002PRCP12"
"08048099999","2010-12-24T09:00:00","4","42.3333333","-7.8666666","147.0","ORENSE, SP","FM-12","99999","V020","230,1,N,0010,1","00060,1,9,N","000800,1,N,1","+0002,1","-0001,1","10204,1",,,"4,1,03,1","4,1,03,1","09,1,+99999,9,99,9","09,99,1,09,1,99,9,99999,9,99,9,99,9",,,,,"99999,9,10019,1","1,1,011,1,+999,9","43,1",,"SYN066AAXX  24094 08048 41/08 92302 10002 21001 30019 40204 51011 74344;",
"08048099999","2010-12-24T12:00:00","4","42.3333333","-7.8666666","147.0","ORENSE, SP","FM-12","99999","V020","200,1,N,0010,1","00120,1,9,N","002000,1,N,1","+0017,1","+0008,1","10204,1","06,0000,9,1",,"4,1,06,1","4,1,06,1",,"08,99,1,08,1,06,1,00150,1,99,9,99,9",,,,,"99999,9,10020,1","0,1,001,1,+999,9","28,1",,"SYN078AAXX  24124 08048 11220 82002 10017 20008 30020 40204 50001 60001 72844 886//;","Q01  00002PRCP06"
"08048099999","2010-12-24T15:00:00","4","42.3333333","-7.8666666","147.0","ORENSE, SP","FM-12","99999","V020","180,1,N,0010,1","22000,1,9,N","010000,1,N,1","+0060,1","+0023,1","10181,1",,,,,,"03,99,1,00,1,00,1,99999,9,00,1,02,1",,,,,"99999,9,10000,1","7,1,020,1,+999,9",,,"SYN066AAXX  24154 08048 42960 31802 10060 20023 30000 40181 57020 80002;",
"08048099999","2010-12-24T18:00:00","4","42.3333333","-7.8666666","147.0","ORENSE, SP","FM-12","99999","V020","999,9,C,0000,1","22000,1,9,N","010000,1,N,1","+0032,1","+0019,1","10180,1","12,0000,9,1",,,,,"03,99,1,00,1,00,1,99999,9,00,1,02,1",,,,"999,M,+0070,1","99999,9,09997,1","6,1,003,1,+999,9",,,"SYN082AAXX  24184 08048 12960 30000 10032 20019 39997 40180 56003 60002 80002 333 10070;","Q01  00002PRCP12"
"08048099999","2010-12-27T06:00:00","4","42.3333333","-7.8666666","147.0","ORENSE, SP","FM-12","99999","V020","320,1,N,0015,1","00420,1,9,N","010000,1,N,1","+0003,1","-0011,1","10168,1","12,0000,9,1","24,0000,9,1",,,,"08,99,1,08,1,05,1,00450,1,99,9,99,9","0408,9",,,"999,N,-0009,1","99999,9,09984,1","8,1,016,1,+999,9","02,1",,"SYN100AAXX  27064 08048 11460 83203 10003 21011 39984 40168 58016 60002 702// 885// 333 21009 55068 70000;","Q01  00002PRCP24Q02  00002PRCP12"
"08048099999","2010-12-27T09:00:00","4","42.3333333","-7.8666666","147.0","ORENSE, SP","FM-12","99999","V020","300,1,N,0010,1","00420,1,9,N","010000,1,N,1","+0022,1","-0005,1","10169,1",,,,,,"08,99,1,05,1,05,1,00450,1,07,1,99,9",,,,,"99999,9,09986,1","3,1,002,1,+999,9",,,"SYN066AAXX  27094 08048 42460 83002 10022 21005 39986 40169 53002 8557/;",
"08048099999","2010-12-27T12:00:00","4","42.3333333","-7.8666666","147.0","ORENSE, SP","FM-12","99999","V020","180,1,N,0026,1","00420,1,9,N","010000,1,N,1","+0094,1","-0010,1","10167,1","06,0000,9,1",,,,,"08,99,1,07,1,05,1,00450,1,02,1,99,9",,,,,"99999,9,09989,1","1,1,003,1,+999,9",,,"SYN072AAXX  27124 08048 12460 81805 10094 21010 39989 40167 51003 60001 8752/;","Q01  00002PRCP06"
"08048099999","2010-12-27T15:00:00","4","42.3333333","-7.8666666","147.0","ORENSE, SP","FM-12","99999","V020","220,1,N,0015,1","00420,1,9,N","010000,1,N,1","+0100,1","+0046,1","10159,1",,,"6,1,03,1","2,1,03,1",,"08,99,1,08,1,05,1,00450,1,99,9,99,9",,,,,"99999,9,09981,1","6,1,008,1,+999,9","60,1",,"SYN072AAXX  27154 08048 41460 82203 10100 20046 39981 40159 56008 76062 885//;",
"08048099999","2010-12-27T18:00:00","4","42.3333333","-7.8666666","147.0","ORENSE, SP","FM-12","99999","V020","210,1,N,0026,1","00420,1,9,N","010000,1,N,1","+0082,1","+0020,1","10160,1","12,0005,9,1",,"6,1,06,1","2,1,06,1",,"08,99,1,08,1,05,1,00450,1,99,9,99,9",,,,"999,M,+0112,1","99999,9,09981,1","5,1,000,1,+999,9","02,1",,"SYN088AAXX  27184 08048 11460 82105 10082 20020 39981 40160 55000 69952 70262 885// 333 10112;",
"08048099999","2010-12-28T06:00:00","4","42.3333333","-7.8666666","147.0","ORENSE, SP","FM-12","99999","V020","060,1,N,0010,1","00420,1,9,N","010000,1,N,1","+0074,1","+0070,1","10162,1","12,0010,9,1","24,0018,9,1",,,,"08,99,1,08,1,07,1,00450,1,99,9,99,9","0000,9","09,9","999,+0060,9","999,N,+0071,1","99999,9,09983,1","6,1,007,1,+999,9","50,1",,"SYN112AAXX  28064 08048 11460 80602 10074 20070 39983 40162 56007 60012 750/5 887// 333 20071 31006 50184 55000 70018;",
"08048099999","2010-12-28T09:00:00","4","42.3333333","-7.8666666","147.0","ORENSE, SP","FM-12","99999","V020","010,1,N,0010,1","00420,1,9,N","010000,1,N,1","+0085,1","+0076,1","10164,1",,,,,,"07,99,1,07,1,07,1,00450,1,99,9,99,9",,,,,"99999,9,09985,1","3,1,002,1,+999,9",,,"SYN066AAXX  28094 08048 42460 70102 10085 20076 39985 40164 53002 877//;",
"08048099999","2010-12-28T12:00:00","4","42.3333333","-7.8666666","147.0","ORENSE, SP","FM-12","99999","V020","190,1,N,0026,1","00420,1,9,N","010000,1,N,1","+0130,1","+0072,1","10154,1","06,0000,2,1",,,,,"07,99,1,07,1,07,1,00450,1,99,9,99,9",,,,,"99999,9,09978,1","8,1,007,1,+999,9",,,"SYN072AAXX  28124 08048 12460 71905 10130 20072 39978 40154 58007 60001 877//;",
"08048099999","2010-12-28T15:00:00","4","42.3333333","-7.8666666","147.0","ORENSE, SP","FM-12","99999","V020","210,1,N,0031,1","00420,1,9,N","010000,1,N,1","+0116,1","+0081,1","10143,1",,,"8,1,03,1","2,1,03,1",,"08,99,1,08,1,05,1,00450,1,99,9,99,9",,,,,"99999,9,09967,1","5,1,011,1,+999,9","81,1",,"SYN072AAXX  28154 08048 41460 82106 10116 20081 39967 40143 55011 78182 885//;",
"08048099999","2010-12-28T18:00:00","4","42.3333333","-7.8666666","147.0","ORENSE, SP","FM-12","99999","V020","270,1,N,0015,1","00420,1,9,N","010000,1,N,1","+0114,1","+0081,1","10134,1","12,0020,9,1",,"8,1,06,1","2,1,06,1",,"08,99,1,08,1,05,1,00450,1,99,9,99,9",,,,"999,M,+0134,1","99999,9,09958,1","6,1,009,1,+999,9","02,1",,"SYN088AAXX  28184 08048 11460 82703 10114 20081 39958 40134 56009 60022 70282 885// 333 10134;",
"08048099999","2010-12-29T06:00:00","4","42.3333333","-7.8666666","147.0","ORENSE, SP","FM-12","99999","V020","290,1,N,0021,1","00420,1,9,N","010000,1,N,1","+0112,1","+0071,1","10111,1","12,0000,9,1","24,0020,9,1",,,,"08,99,1,08,1,06,1,00450,1,99,9,99,9","0000,9","01,9","999,+0080,9","999,N,+0107,1","99999,9,09935,1","7,1,009,1,+999,9","02,1",,"SYN112AAXX  29064 08048 11460 82904 10112 20071 39935 40111 57009 60002 702// 886// 333 20107 30008 50194 55000 70020;","Q01  00002PRCP12"
"08048099999","2010-12-29T09:00:00","4","42.3333333","-7.8666666","147.0","ORENSE, SP","FM-12","99999","V020","160,1,N,0051,1","00420,1,9,N","010000,1,N,1","+0130,1","+0064,1","10117,1",,,"5,1,03,1","2,1,03,1",,"08,99,1,08,1,07,1,00450,1,99,9,99,9",,,,,"99999,9,09942,1","0,1,007,1,+999,9","50,1",,"SYN072AAXX  29094 08048 41460 81610 10130 20064 39942 40117 50007 75052 887//;",
"08048099999","2010-12-29T12:00:00","4","42.3333333","-7.8666666","147.0","ORENSE, SP","FM-12","99999","V020","180,1,N,0062,1","00420,1,9,N","010000,1,N,1","+0146,1","+0079,1","10116,1","06,0000,2,1",,"5,1,06,1","2,1,06,1",,"08,99,1,08,1,07,1,00450,1,99,9,99,9",,,,,"99999,9,09942,1","0,1,000,1,+999,9","50,1",,"SYN078AAXX  29124 08048 11460 81812 10146 20079 39942 40116 50000 69901 75052 887//;",
"08048099999","2010-12-29T15:00:00","4","42.3333333","-7.8666666","147.0","ORENSE, SP","FM-12","99999","V020","160,1,N,0051,1","00420,1,9,N","010000,1,N,1","+0138,1","+0080,1","10106,1",,,"6,1,03,1","5,1,03,1",,"08,99,1,08,1,07,1,00450,1,99,9,99,9",,,,,"99999,9,09932,1","7,1,010,1,+999,9","02,1",,"SYN072AAXX  29154 08048 41460 81610 10138 20080 39932 40106 57010 70265 887//;",
"08048099999","2010-12-29T18:00:00","4","42.3333333","-7.8666666","147.0","ORENSE, SP","FM-12","99999","V020","160,1,N,0026,1","00420,1,9,N","010000,1,N,1","+0131,1","+0082,1","10110,1","12,0000,2,1",,"6,1,06,1","5,1,06,1",,"06,99,1,06,1,07,1,00450,1,00,1,00,1",,,,"999,M,+0152,1","99999,9,09935,1","3,1,003,1,+999,9","02,1",,"SYN088AAXX  29184 08048 11460 61605 10131 20082 39935 40110 53003 69922 70265 86700 333 10152;",
"08048099999","2010-12-30T06:00:00","4","42.3333333","-7.8666666","147.0","ORENSE, SP","FM-12","99999","V020","120,1,N,0010,1","00420,1,9,N","010000,1,N,1","+0084,1","+0075,1","10080,1","12,9999,9,9","24,0003,9,1",,,,"08,99,1,08,1,07,1,00450,1,99,9,99,9","0018,9","09,9","999,+0050,9","999,N,+0080,1","99999,9,09903,1","7,1,012,1,+999,9","50,1",,"SYN112AAXX  30064 08048 11460 81202 10084 20075 39903 40080 57012 69902 750// 887// 333 20080 31005 50224 55003 70002;","Q01  00002PRCP12Q02  00002PRCP12"
"08048099999","2010-12-30T09:00:00","4","42.3333333","-7.8666666","147.0","ORENSE, SP","FM-12","99999","V020","240,1,N,0010,1","00420,1,9,N","010000,1,N,1","+0088,1","+0082,1","10084,1",,,"5,1,03,1","2,1,03,1",,"08,99,1,08,1,07,1,00450,1,99,9,99,9",,,,,"99999,9,09907,1","1,1,004,1,+999,9","51,1",,"SYN072AAXX  30094 08048 41460 82402 10088 20082 39907 40084 51004 75152 887//;",
"08048099999","2010-12-30T12:00:00","4","42.3333333","-7.8666666","147.0","ORENSE, SP","FM-12","99999","V020","160,1,N,0041,1","00900,1,9,N","010000,1,N,1","+0136,1","+0067,1","10081,1","06,0000,2,1",,"5,1,06,1","2,1,06,1",,"07,99,1,07,1,08,1,00450,1,99,9,99,9",,,,,"99999,9,09907,1","0,1,000,1,+999,9","02,1",,"SYN078AAXX  30124 08048 11460 71608 10136 20067 39907 40081 50000 69911 70252 878//;",
"08048099999","2010-12-30T15:00:00","4","42.3333333","-7.8666666","147.0","ORENSE, SP","FM-12","99999","V020","180,1,N,0026,1","00900,1,9,N","010000,1,N,1","+0143,1","+0071,1","10071,1",,,,,,"07,99,1,06,1,08,1,00450,1,04,1,01,1",,,,,"99999,9,09898,1","6,1,009,1,+999,9",,,"SYN066AAXX  30154 08048 42460 71805 10143 20071 39898 40071 56009 86841;",
"08048099999","2010-12-30T18:00:00","4","42.3333333","-7.8666666","147.0","ORENSE, SP","FM-12","99999","V020","180,1,N,0026,1","00420,1,9,N","010000,1,N,1","+0136,1","+0074,1","10079,1","12,0000,2,1",,,,,"06,99,1,06,1,05,1,00450,1,00,1,00,1",,,,"999,M,+0148,1","99999,9,09905,1","3,1,007,1,+999,9",,,"SYN082AAXX  30184 08048 12460 61805 10136 20074 39905 40079 53007 60002 86500 333 10148;",
"08048099999","2010-12-31T06:00:00","4","42.3333333","-7.8666666","147.0","ORENSE, SP","FM-12","99999","V020","180,1,N,0005,1","00420,1,9,N","010000,1,N,1","+0094,1","+0089,1","10115,1","12,0010,9,1","24,0015,9,1",,,,"08,99,1,08,1,07,1,00450,1,99,9,99,9","0006,9","09,9","999,+0070,9","999,N,+0091,1","99999,9,09938,1","2,1,009,1,+999,9","50,1",,"SYN112AAXX  31064 08048 11460 81801 10094 20089 39938 40115 52009 60012 750// 887// 333 20091 31007 50174 55001 70014;",
"08048099999","2010-12-31T09:00:00","4","42.3333333","-7.8666666","147.0","ORENSE, SP","FM-12","99999","V020","140,1,N,0010,1","00420,1,9,N","010000,1,N,1","+0093,1","+0088,1","10140,1",,,"5,1,03,1","2,1,03,1",,"07,99,1,07,1,07,1,00450,1,99,9,99,9",,,,,"99999,9,09962,1","2,1,024,1,+999,9","50,1",,"SYN072AAXX  31094 08048 41460 71402 10093 20088 39962 40140 52024 75052 877//;",
"08048099999","2010-12-31T12:00:00","4","42.3333333","-7.8666666","147.0","ORENSE, SP","FM-12","99999","V020","210,1,N,0010,1","00420,1,9,N","010000,1,N,1","+0123,1","+0100,1","10144,1","06,0000,2,1",,"5,1,06,1","2,1,06,1",,"07,99,1,07,1,05,1,00450,1,00,1,00,1",,,,,"99999,9,09968,1","1,1,006,1,+999,9","01,1",,"SYN078AAXX  31124 08048 11460 72102 10123 20100 39968 40144 51006 69921 70152 87500;",
"08048099999","2010-12-31T15:00:00","4","42.3333333","-7.8666666","147.0","ORENSE, SP","FM-12","99999","V020","200,1,N,0026,1","00420,1,9,N","010000,1,N,1","+0172,1","+0091,1","10139,1",,,,,,"05,99,1,05,1,05,1,00450,1,00,1,00,1",,,,,"99999,9,09966,1","5,1,002,1,+999,9",,,"SYN066AAXX  31154 08048 42460 52005 10172 20091 39966 40139 55002 85500;",
"08048099999","2010-12-31T18:00:00","4","42.3333333","-7.8666666","147.0","ORENSE, SP","FM-12","99999","V020","999,9,C,0000,1","22000,1,9,N","010000,1,N,1","+0132,1","+0089,1","10152,1","12,0000,2,1",,,,,"01,99,1,01,1,01,1,00450,1,04,1,00,1",,,,"999,M,+0176,1","99999,9,09977,1","2,1,011,1,+999,9",,,"SYN082AAXX  31184 08048 12460 10000 10132 20089 39977 40152 52011 69922 81140 333 10176;",
