"STATION","DATE","SOURCE","LATITUDE","LONGITUDE","ELEVATION","NAME","REPORT_TYPE","CALL_SIGN","QUALITY_CONTROL","WND","CIG","VIS","TMP","DEW","SLP","AA1","AA2","AJ1","AY1","AY2","GA1","GF1","GJ1","IA1","IA2","KA1","MA1","MD1","MW1","REM","EQD"
"08053099999","2010-01-01T12:00:00","4","42.5666666","-6.6","550.0","PONFERRADA, SP","FM-12","99999","V020","300,1,N,0010,1","00120,1,9,N","012000,1,N,1","+0030,1","+0015,1","10113,1","06,0061,9,1",,,"7,1,06,1","2,1,06,1",,"06,99,1,06,1,07,1,00150,1,00,1,00,1",,,,,"99999,9,09454,1","1,1,043,1,+999,9","01,1","SYN088AAXX  01124 08053 11262 63002 10030 20015 39454 40113 51043 60061 70172 86700 333 5///3;",
"08053099999","2010-01-02T06:00:00","4","42.5666666","-6.6","550.0","PONFERRADA, SP","FM-12","99999","V020","999,9,C,0000,1","00210,1,9,N","008000,1,N,1","+0036,1","+0032,1","10181,1","12,9999,9,9","24,0064,9,1",,,,,"08,99,1,08,1,07,1,00250,1,99,9,99,9","0228,9","09,9","999,+0020,9","999,N,+0036,1","99999,9,09519,1","5,1,003,1,+999,9","50,1","SYN106AAXX  02064 08053 11358 80000 10036 20032 39519 40181 55003 69902 750/5 887// 333 20036 31002 55038 70064;","Q01  00002PRCP12Q02  00002PRCP12"
"08053099999","2010-01-02T09:00:00","4","42.5666666","-6.6","550.0","PONFERRADA, SP","FM-12","99999","V020","220,1,N,0005,1","00120,1,9,N","005000,1,N,1","+0034,1","+0030,1","10197,1",,,,"5,1,03,1","2,1,03,1",,"08,99,1,08,1,07,1,00150,1,99,9,99,9",,,,,"99999,9,09533,1","3,1,014,1,+999,9","50,1","SYN072AAXX  02094 08053 41250 82201 10034 20030 39533 40197 53014 75052 887//;",
"08053099999","2010-01-02T12:00:00","4","42.5666666","-6.6","550.0","PONFERRADA, SP","FM-12","99999","V020","110,1,N,0010,1","00120,1,9,N","006000,1,N,1","+0048,1","+0039,1","10200,1","06,0005,9,1",,,"5,1,06,1","2,1,06,1",,"08,99,1,06,1,07,1,00150,1,02,1,99,9",,,,,"99999,9,09539,1","0,1,006,1,+999,9","10,1","SYN088AAXX  02124 08053 11256 81102 10048 20039 39539 40200 50006 69941 71052 8672/ 333 50063;",
"08053099999","2010-01-03T06:00:00","4","42.5666666","-6.6","550.0","PONFERRADA, SP","FM-12","99999","V020","360,1,N,0005,1","00120,1,9,N","003000,1,N,1","+0054,1","+0050,1","10131,1","12,0099,9,1","24,0107,9,1",,,,,"08,99,1,08,1,07,1,00150,1,99,9,99,9","0006,9","11,9","999,+0030,9","999,N,+0054,1","99999,9,09476,1","7,1,016,1,+999,9","63,1","SYN106AAXX  03064 08053 11230 83601 10054 20050 39476 40131 57016 60102 763/6 887// 333 20054 32003 55001 70106;",
"08053099999","2010-01-03T09:00:00","4","42.5666666","-6.6","550.0","PONFERRADA, SP","FM-12","99999","V020","210,1,N,0010,1","00120,1,9,N","004000,1,N,1","+0060,1","+0056,1","10139,1",,,,"6,1,03,1","2,1,03,1",,"08,99,1,08,1,07,1,00150,1,99,9,99,9",,,,,"99999,9,09485,1","3,1,009,1,+999,9","63,1","SYN072AAXX  03094 08053 41240 82102 10060 20056 39485 40139 53009 76362 887//;",
"08053099999","2010-01-03T12:00:00","4","42.5666666","-6.6","550.0","PONFERRADA, SP","FM-12","99999","V020","999,9,C,0000,1","00210,1,9,N","004000,1,N,1","+0072,1","+0068,1","10139,1","06,0020,9,1",,,"6,1,06,1","2,1,06,1",,"08,99,1,08,1,07,1,00250,1,99,9,99,9",,,,,"99999,9,09488,1","0,1,003,1,+999,9","60,1","SYN088AAXX  03124 08053 11340 80000 10072 20068 39488 40139 50003 60021 76062 887// 333 50023;",
"08053099999","2010-01-04T06:00:00","4","42.5666666","-6.6","550.0","PONFERRADA, SP","FM-12","99999","V020","999,9,C,0000,1","00120,1,9,N","002000,1,N,1","+0042,1","+0038,1","10111,1","12,0000,9,1","24,0020,9,1",,,,,"08,99,1,08,1,07,1,00150,1,99,9,99,9","0054,9","09,9","999,+0020,9","999,N,+0040,1","99999,9,09455,1","7,1,020,1,+999,9","10,1","SYN106AAXX  04064 08053 11220 80000 10042 20038 39455 40111 57020 60002 710// 887// 333 20040 31002 55009 70020;","Q01  00002PRCP12"
"08053099999","2010-01-04T09:00:00","4","42.5666666","-6.6","550.0","PONFERRADA, SP","FM-12","99999","V020","210,1,N,0010,1","00120,1,9,N","000600,1,N,1","+0034,1","+0030,1","10102,1",,,,"4,1,03,1","2,1,03,1",,"08,99,1,08,1,07,1,00150,1,99,9,99,9",,,,,"99999,9,09444,1","7,1,011,1,+999,9","46,1","SYN072AAXX  04094 08053 41206 82102 10034 20030 39444 40102 57011 74642 887//;",
"08053099999","2010-01-04T12:00:00","4","42.5666666","-6.6","550.0","PONFERRADA, SP","FM-12","99999","V020","080,1,N,0051,1","00210,1,9,N","025000,1,N,1","+0084,1","+0040,1","10063,1","06,0000,9,1",,,"4,1,06,1","2,1,06,1",,"07,99,1,05,1,07,1,00250,1,04,1,01,1",,,,,"99999,9,09419,1","7,1,025,1,+999,9","01,1","SYN088AAXX  04124 08053 11375 70810 10084 20040 39419 40063 57025 60001 70142 85741 333 50023;","Q01  00002PRCP06"
"08053099999","2010-01-05T06:00:00","4","42.5666666","-6.6","550.0","PONFERRADA, SP","FM-12","99999","V020","999,9,C,0000,1","22000,1,9,N","012000,1,N,1","+0006,1","+0000,1","10060,1","12,0000,9,1","24,0000,9,1",,,,"00,1,+99999,9,99,9","00,99,1,00,1,00,1,99999,9,00,1,00,1","0000,9","14,9","999,-0010,9","999,N,+0006,1","99999,9,09398,1","0,1,003,1,+999,9","00,1","SYN100AAXX  05064 08053 11962 00000 10006 20000 39398 40060 50003 60002 700// 333 20006 34101 55000 70001;","Q01  00002PRCP24Q02  00002PRCP12"
"08053099999","2010-01-05T09:00:00","4","42.5666666","-6.6","550.0","PONFERRADA, SP","FM-12","99999","V020","140,1,N,0010,1","00090,1,9,N","000100,1,N,1","+0012,1","+0012,1","10070,1",,,,"4,1,03,1","4,1,03,1","09,1,+00090,1,99,9","09,99,1,09,1,99,9,99999,9,99,9,99,9",,,,,"99999,9,09409,1","3,1,011,1,+999,9","45,1","SYN076AAXX  05094 08053 41/01 91402 10012 20012 39409 40070 53011 74544 333 89/03;",
"08053099999","2010-01-05T12:00:00","4","42.5666666","-6.6","550.0","PONFERRADA, SP","FM-12","99999","V020","140,1,N,0005,1","00120,1,9,N","003000,1,N,1","+0034,1","+0030,1","10069,1","06,0000,9,1",,,"4,1,06,1","4,1,06,1",,"08,99,1,08,1,07,1,00150,1,99,9,99,9",,,,,"99999,9,09414,1","0,1,005,1,+999,9","10,1","SYN088AAXX  05124 08053 11230 81401 10034 20030 39414 40069 50005 60001 71044 887// 333 50133;","Q01  00002PRCP06"
"08053099999","2010-01-06T06:00:00","4","42.5666666","-6.6","550.0","PONFERRADA, SP","FM-12","99999","V020","100,1,N,0015,1","03600,1,9,N","012000,1,N,1","+0008,1","-0021,1","10086,1","12,0000,9,1","24,0000,9,1",,,,,"07,99,1,03,1,05,1,00250,1,04,1,99,9","0000,9","14,9","999,-0020,9","999,N,+0000,1","99999,9,09423,1","5,1,002,1,+999,9","02,1","SYN106AAXX  06064 08053 11362 71003 10008 21021 39423 40086 55002 60002 702// 8354/ 333 20000 34102 55000 70000;","Q01  00002PRCP24Q02  00002PRCP12"
"08053099999","2010-01-06T09:00:00","4","42.5666666","-6.6","550.0","PONFERRADA, SP","FM-12","99999","V020","999,9,C,0000,1","03600,1,9,N","020000,1,N,1","+0010,1","-0012,1","10090,1",,,,,,,"07,99,1,03,1,07,1,00250,1,07,1,99,9",,,,,"99999,9,09427,1","2,1,004,1,+999,9",,"SYN066AAXX  06094 08053 42370 70000 10010 21012 39427 40090 52004 8377/;",
"08053099999","2010-01-06T12:00:00","4","42.5666666","-6.6","550.0","PONFERRADA, SP","FM-12","99999","V020","250,1,N,0010,1","03600,1,9,N","025000,1,N,1","+0034,1","-0013,1","10089,1","06,0000,9,1",,,,,,"06,99,1,03,1,07,1,00250,1,04,1,00,1",,,,,"99999,9,09432,1","0,1,005,1,+999,9",,"SYN082AAXX  06124 08053 12375 62502 10034 21013 39432 40089 50005 60001 83740 333 50053;","Q01  00002PRCP06"
"08053099999","2010-01-07T06:00:00","4","42.5666666","-6.6","550.0","PONFERRADA, SP","FM-12","99999","V020","110,1,N,0005,1","00210,1,9,N","012000,1,N,1","-0012,1","-0018,1","10065,1","12,0000,9,1","24,0000,9,1",,,,,"05,99,1,05,1,05,1,00250,1,00,1,00,1","0162,9","14,9","999,-0030,9","999,N,-0012,1","99999,9,09399,1","3,1,004,1,+999,9","02,1","SYN106AAXX  07064 08053 11362 51101 11012 21018 39399 40065 53004 60002 702// 85500 333 21012 34103 55027 70000;","Q01  00002PRCP24Q02  00002PRCP12"
"08053099999","2010-01-07T09:00:00","4","42.5666666","-6.6","550.0","PONFERRADA, SP","FM-12","99999","V020","090,1,N,0010,1","22000,1,9,N","022000,1,N,1","-0004,1","-0021,1","10081,1",,,,,,,"01,99,1,01,1,01,1,00450,1,00,1,00,1",,,,,"99999,9,09415,1","2,1,016,1,+999,9",,"SYN066AAXX  07094 08053 42472 10902 11004 21021 39415 40081 52016 81100;",
"08053099999","2010-01-07T12:00:00","4","42.5666666","-6.6","550.0","PONFERRADA, SP","FM-12","99999","V020","220,1,N,0015,1","22000,1,9,N","030000,1,N,1","+0044,1","-0041,1","10074,1","06,0000,9,1",,,,,,"01,99,1,01,1,01,1,00450,1,00,1,00,1",,,,,"99999,9,09420,1","0,1,005,1,+999,9",,"SYN082AAXX  07124 08053 12480 12203 10044 21041 39420 40074 50005 60001 81100 333 5///3;","Q01  00002PRCP06"
"08053099999","2010-01-08T06:00:00","4","42.5666666","-6.6","550.0","PONFERRADA, SP","FM-12","99999","V020","999,9,C,0000,1","22000,1,9,N","010000,1,N,1","-0028,1","-0041,1","10154,1","12,9999,9,9","24,9999,9,9","9999,2,9,999999,9,9",,,,"04,99,1,02,1,05,1,00250,1,04,1,00,1","0474,9","25,9","999,-0050,9","999,N,-0028,1","99999,9,09478,1","1,1,003,1,+999,9","22,1","SYN112AAXX  08064 08053 11360 40000 11028 21041 39478 40154 51003 69902 722// 82540 333 21028 3/105 41998 55079 79999;","Q01  00002PRCP24Q02  00002PRCP12Q03  00002PRCP12Q04  00002PRCP24Q05  09982SNDP  "
"08053099999","2010-01-08T09:00:00","4","42.5666666","-6.6","550.0","PONFERRADA, SP","FM-12","99999","V020","999,9,C,0000,1","22000,1,9,N","020000,1,N,1","-0022,1","-0036,1","10169,1",,,,,,,"03,99,1,02,1,05,1,00250,1,04,1,00,1",,,,,"99999,9,09493,1","1,1,015,1,+999,9",,"SYN066AAXX  08094 08053 42370 30000 11022 21036 39493 40169 51015 82540;",
"08053099999","2010-01-08T12:00:00","4","42.5666666","-6.6","550.0","PONFERRADA, SP","FM-12","99999","V020","320,1,N,0041,1","22000,1,9,N","025000,1,N,1","+0034,1","-0074,1","10163,1","06,0000,2,1",,,,,,"04,99,1,02,1,02,1,00250,1,06,1,00,1",,,,,"99999,9,09500,1","0,1,007,1,+999,9",,"SYN082AAXX  08124 08053 12375 43208 10034 21074 39500 40163 50007 60001 82260 333 5///3;",
"08053099999","2010-01-09T06:00:00","4","42.5666666","-6.6","550.0","PONFERRADA, SP","FM-12","99999","V020","080,1,N,0005,1","22000,1,9,N","010000,1,N,1","-0022,1","-0042,1","10201,1","12,0000,9,1","24,0000,2,1",,,,,"04,99,1,02,1,05,1,00250,1,04,1,00,1","0372,9","14,9","999,-0050,9","999,N,-0036,1","99999,9,09523,1","8,1,007,1,+999,9","02,1","SYN106AAXX  09064 08053 11360 40801 11022 21042 39523 40201 58007 60002 702// 82540 333 21036 34105 55062 70000;","Q01  00002PRCP12"
"08053099999","2010-01-09T09:00:00","4","42.5666666","-6.6","550.0","PONFERRADA, SP","FM-12","99999","V020","310,1,N,0005,1","22000,1,9,N","015000,1,N,1","-0020,1","-0028,1","10206,1",,,,,,,"04,99,1,02,1,05,1,00250,1,04,1,00,1",,,,,"99999,9,09528,1","1,1,005,1,+999,9",,"SYN066AAXX  09094 08053 42365 43101 11020 21028 39528 40206 51005 82540;",
"08053099999","2010-01-09T12:00:00","4","42.5666666","-6.6","550.0","PONFERRADA, SP","FM-12","99999","V020","280,1,N,0026,1","22000,1,9,N","020000,1,N,1","+0028,1","-0051,1","10203,1","06,0000,9,1",,,,,,"04,99,1,02,1,02,1,00250,1,06,1,00,1",,,,,"99999,9,09537,1","1,1,009,1,+999,9",,"SYN082AAXX  09124 08053 12370 42805 10028 21051 39537 40203 51009 60001 82260 333 5///3;","Q01  00002PRCP06"
"08053099999","2010-01-10T06:00:00","4","42.5666666","-6.6","550.0","PONFERRADA, SP","FM-12","99999","V020","150,1,N,0010,1","22000,1,9,N","010000,1,N,1","-0056,1","-0070,1","10197,1","12,0000,9,1","24,0000,9,1",,,,,"02,99,1,01,1,05,1,00250,1,04,1,00,1","0342,9","14,9","999,-0080,9","999,N,-0060,1","99999,9,09511,1","7,1,011,1,+999,9","02,1","SYN106AAXX  10064 08053 11360 21502 11056 21070 39511 40197 57011 60002 702// 81540 333 21060 34108 55057 70000;","Q01  00002PRCP24Q02  00002PRCP12"
"08053099999","2010-01-10T09:00:00","4","42.5666666","-6.6","550.0","PONFERRADA, SP","FM-12","99999","V020","280,1,N,0010,1","00210,1,9,N","020000,1,N,1","-0050,1","-0057,1","10191,1",,,,,,,"07,99,1,05,1,07,1,00250,1,07,1,00,1",,,,,"99999,9,09507,1","8,1,004,1,+999,9",,"SYN066AAXX  10094 08053 42370 72802 11050 21057 39507 40191 58004 85770;",
"08053099999","2010-01-10T12:00:00","4","42.5666666","-6.6","550.0","PONFERRADA, SP","FM-12","99999","V020","280,1,N,0015,1","00210,1,9,N","012000,1,N,1","-0030,1","-0053,1","10176,1","06,0000,9,1",,,,,,"08,99,1,08,1,07,1,00250,1,99,9,99,9",,,,,"99999,9,09498,1","7,1,009,1,+999,9",,"SYN082AAXX  10124 08053 12362 82803 11030 21053 39498 40176 57009 60001 887// 333 5///3;","Q01  00002PRCP06"
"08053099999","2010-01-11T06:00:00","4","42.5666666","-6.6","550.0","PONFERRADA, SP","FM-12","99999","V020","999,9,C,0000,1","22000,1,9,N","010000,1,N,1","-0032,1","-0042,1","10172,1","12,0000,9,1","24,0003,9,1","9999,2,9,999999,9,9",,,,"04,99,1,02,1,05,1,00250,1,04,1,00,1","0024,9","17,9","999,-0050,9","999,N,-0032,1","99999,9,09494,1","2,1,009,1,+999,9","02,1","SYN112AAXX  11064 08053 11360 40000 11032 21042 39494 40172 52009 69922 702// 82540 333 21032 3/105 40998 55004 70002;","Q01  00002PRCP12Q02  09982SNDP  "
"08053099999","2010-01-11T09:00:00","4","42.5666666","-6.6","550.0","PONFERRADA, SP","FM-12","99999","V020","140,1,N,0005,1","22000,1,9,N","015000,1,N,1","-0034,1","-0038,1","10198,1",,,,,,,"02,99,1,01,1,05,1,00250,1,04,1,00,1",,,,,"99999,9,09517,1","1,1,023,1,+999,9",,"SYN066AAXX  11094 08053 42365 21401 11034 21038 39517 40198 51023 81540;",
"08053099999","2010-01-11T12:00:00","4","42.5666666","-6.6","550.0","PONFERRADA, SP","FM-12","99999","V020","280,1,N,0021,1","00210,1,9,N","018000,1,N,1","+0000,1","-0011,1","10205,1","06,0000,9,1",,,,,,"08,99,1,08,1,07,1,00250,1,99,9,99,9",,,,,"99999,9,09532,1","1,1,015,1,+999,9",,"SYN082AAXX  11124 08053 12368 82804 10000 21011 39532 40205 51015 60001 887// 333 5///3;","Q01  00002PRCP06"
"08053099999","2010-01-12T06:00:00","4","42.5666666","-6.6","550.0","PONFERRADA, SP","FM-12","99999","V020","230,1,N,0010,1","00210,1,9,N","008000,1,N,1","+0006,1","+0000,1","10120,1","12,0041,9,1","24,0043,9,1",,,,,"07,99,1,07,1,07,1,00250,1,99,9,99,9","0354,9","11,9","999,-0030,9","999,N,-0006,1","99999,9,09454,1","7,1,035,1,+999,9","63,1","SYN106AAXX  12064 08053 11358 72302 10006 20000 39454 40120 57035 60042 763/6 877// 333 21006 32103 55059 70043;",
"08053099999","2010-01-12T09:00:00","4","42.5666666","-6.6","550.0","PONFERRADA, SP","FM-12","99999","V020","260,1,N,0026,1","00120,1,9,N","002000,1,N,1","+0012,1","+0006,1","10069,1",,,,"6,1,03,1","6,1,03,1",,"08,99,1,08,1,07,1,00150,1,99,9,99,9",,,,,"99999,9,09408,1","7,1,046,1,+999,9","63,1","SYN072AAXX  12094 08053 41220 82605 10012 20006 39408 40069 57046 76366 887//;",
"08053099999","2010-01-12T12:00:00","4","42.5666666","-6.6","550.0","PONFERRADA, SP","FM-12","99999","V020","210,1,N,0010,1","00120,1,9,N","003000,1,N,1","+0034,1","+0024,1","10072,1","06,0160,9,1",,,"6,1,06,1","6,1,06,1",,"08,99,1,08,1,07,1,00150,1,99,9,99,9",,,,,"99999,9,09416,1","0,1,008,1,+999,9","21,1","SYN088AAXX  12124 08053 11230 82102 10034 20024 39416 40072 50008 60161 72166 887// 333 5///3;",
"08053099999","2010-01-13T06:00:00","4","42.5666666","-6.6","550.0","PONFERRADA, SP","FM-12","99999","V020","999,9,C,0000,1","00210,1,9,N","005000,1,N,1","+0040,1","+0036,1","10120,1","12,0010,9,1","24,0191,9,1",,,,,"08,99,1,08,1,07,1,00250,1,99,9,99,9","0018,9","11,9","999,+0020,9","999,N,+0036,1","99999,9,09463,1","8,1,004,1,+999,9","60,1","SYN106AAXX  13064 08053 11350 80000 10040 20036 39463 40120 58004 60012 760/6 887// 333 20036 32002 55003 70190;",
"08053099999","2010-01-13T09:00:00","4","42.5666666","-6.6","550.0","PONFERRADA, SP","FM-12","99999","V020","260,1,N,0015,1","00210,1,9,N","003000,1,N,1","+0044,1","+0040,1","10115,1",,,,"6,1,03,1","6,1,03,1",,"08,99,1,08,1,07,1,00250,1,99,9,99,9",,,,,"99999,9,09459,1","8,1,004,1,+999,9","63,1","SYN072AAXX  13094 08053 41330 82603 10044 20040 39459 40115 58004 76366 887//;",
"08053099999","2010-01-13T12:00:00","4","42.5666666","-6.6","550.0","PONFERRADA, SP","FM-12","99999","V020","999,9,C,0000,1","00210,1,9,N","006000,1,N,1","+0058,1","+0044,1","10094,1","06,0079,9,1",,,"6,1,06,1","6,1,06,1",,"08,99,1,08,1,07,1,00250,1,99,9,99,9",,,,,"99999,9,09443,1","8,1,016,1,+999,9","21,1","SYN088AAXX  13124 08053 11356 80000 10058 20044 39443 40094 58016 60081 72166 887// 333 50283;",
"08053099999","2010-01-14T06:00:00","4","42.5666666","-6.6","550.0","PONFERRADA, SP","FM-12","99999","V020","290,1,N,0082,1","03600,1,9,N","010000,1,N,1","+0064,1","+0027,1","09998,1","12,0201,9,1","24,0356,9,1",,,,,"07,99,1,03,1,07,1,00250,1,04,1,00,1","0000,9","11,9","999,+0030,9","999,N,+0044,1","99999,9,09354,1","2,1,084,2,+999,9","21,1","SYN106AAXX  14064 08053 11360 72916 10064 20027 39354 49998 52084 60202 721// 83740 333 20044 32003 55000 70356;","Q01+000842APC3  "
"08053099999","2010-01-14T09:00:00","4","42.5666666","-6.6","550.0","PONFERRADA, SP","FM-12","99999","V020","280,1,N,0036,1","00210,1,9,N","010000,1,N,1","+0058,1","+0035,1","10080,1",,,,"6,1,03,1","2,1,03,1",,"08,99,1,08,1,07,1,00250,1,99,9,99,9",,,,,"99999,9,09429,1","2,1,075,1,+999,9","21,1","SYN072AAXX  14094 08053 41360 82807 10058 20035 39429 40080 52075 72162 887//;",
"08053099999","2010-01-14T12:00:00","4","42.5666666","-6.6","550.0","PONFERRADA, SP","FM-12","99999","V020","300,1,N,0057,1","03600,1,9,N","012000,1,N,1","+0082,1","+0027,1","10109,1","06,0000,2,1",,,"6,1,06,1","2,1,06,1",,"06,99,1,03,1,05,1,00250,1,06,1,00,1",,,,,"99999,9,09462,1","1,1,033,1,+999,9","01,1","SYN088AAXX  14124 08053 11362 63011 10082 20027 39462 40109 51033 69901 70162 83560 333 50393;",
"08053099999","2010-01-15T06:00:00","4","42.5666666","-6.6","550.0","PONFERRADA, SP","FM-12","99999","V020","290,1,N,0010,1","03600,1,9,N","010000,1,N,1","+0010,1","+0004,1","10243,1","12,0000,9,1","24,0000,2,1",,,,,"07,99,1,04,1,07,1,00250,1,04,1,99,9","0150,9","09,9","999,-0010,9","999,N,+0008,1","99999,9,09570,1","3,1,002,1,+999,9","02,1","SYN106AAXX  15064 08053 11360 72902 10010 20004 39570 40243 53002 60002 702// 8474/ 333 20008 31101 55025 79999;","Q01  00002PRCP12"
"08053099999","2010-01-15T09:00:00","4","42.5666666","-6.6","550.0","PONFERRADA, SP","FM-12","99999","V020","999,9,C,0000,1","03600,1,9,N","012000,1,N,1","+0010,1","+0004,1","10255,1",,,,,,,"07,99,1,02,1,05,1,00250,1,04,1,01,1",,,,,"99999,9,09582,1","3,1,012,1,+999,9",,"SYN066AAXX  15094 08053 42362 70000 10010 20004 39582 40255 53012 82541;",
"08053099999","2010-01-15T12:00:00","4","42.5666666","-6.6","550.0","PONFERRADA, SP","FM-12","99999","V020","150,1,N,0005,1","03600,1,9,N","025000,1,N,1","+0046,1","+0016,1","10243,1","06,0000,9,1",,,,,,"07,99,1,02,1,06,1,00250,1,02,1,02,1",,,,,"99999,9,09579,1","8,1,003,1,+999,9",,"SYN082AAXX  15124 08053 12375 71501 10046 20016 39579 40243 58003 60001 82622 333 50143;","Q01  00002PRCP06"
"08053099999","2010-01-16T06:00:00","4","42.5666666","-6.6","550.0","PONFERRADA, SP","FM-12","99999","V020","160,1,N,0021,1","00210,1,9,N","010000,1,N,1","+0048,1","+0035,1","10178,1","12,0005,9,1","24,0005,9,1",,,,,"08,99,1,08,1,07,1,00250,1,99,9,99,9","0174,9","09,9","999,+0020,9","999,N,+0044,1","99999,9,09519,1","7,1,019,1,+999,9","02,1","SYN106AAXX  16064 08053 11360 81604 10048 20035 39519 40178 57019 69962 702/6 887// 333 20044 31002 55029 70006;",
"08053099999","2010-01-16T09:00:00","4","42.5666666","-6.6","550.0","PONFERRADA, SP","FM-12","99999","V020","280,1,N,0010,1","00060,1,9,N","003000,1,N,1","+0050,1","+0046,1","10186,1",,,,"6,1,03,1","2,1,03,1",,"08,99,1,08,1,07,1,00075,1,99,9,99,9",,,,,"99999,9,09527,1","0,1,008,1,+999,9","63,1","SYN072AAXX  16094 08053 41130 82802 10050 20046 39527 40186 50008 76362 887//;",
"08053099999","2010-01-16T12:00:00","4","42.5666666","-6.6","550.0","PONFERRADA, SP","FM-12","99999","V020","210,1,N,0010,1","00060,1,9,N","004000,1,N,1","+0064,1","+0060,1","10202,1","06,0061,9,1",,,"6,1,06,1","6,1,06,1",,"08,99,1,08,1,07,1,00075,1,99,9,99,9",,,,,"99999,9,09545,1","3,1,018,1,+999,9","63,1","SYN088AAXX  16124 08053 11140 82102 10064 20060 39545 40202 53018 60061 76366 887// 333 50093;",
"08053099999","2010-01-17T06:00:00","4","42.5666666","-6.6","550.0","PONFERRADA, SP","FM-12","99999","V020","999,9,C,0000,1","00210,1,9,N","006000,1,N,1","+0070,1","+0066,1","10238,1","12,0010,9,1","24,0081,9,1",,,,,"08,99,1,08,1,07,1,00250,1,99,9,99,9","0000,9","11,9","999,+0050,9","999,N,+0068,1","99999,9,09580,1","1,1,008,1,+999,9","60,1","SYN106AAXX  17064 08053 11356 80000 10070 20066 39580 40238 51008 60012 760/6 887// 333 20068 32005 55000 70082;",
"08053099999","2010-01-17T09:00:00","4","42.5666666","-6.6","550.0","PONFERRADA, SP","FM-12","99999","V020","999,9,C,0000,1","00120,1,9,N","003000,1,N,1","+0068,1","+0064,1","10249,1",,,,"6,1,03,1","6,1,03,1",,"08,99,1,08,1,07,1,00150,1,99,9,99,9",,,,,"99999,9,09590,1","2,1,010,1,+999,9","61,1","SYN072AAXX  17094 08053 41230 80000 10068 20064 39590 40249 52010 76166 887//;",
"08053099999","2010-01-17T12:00:00","4","42.5666666","-6.6","550.0","PONFERRADA, SP","FM-12","99999","V020","280,1,N,0010,1","00120,1,9,N","004000,1,N,1","+0084,1","+0076,1","10255,1","06,0020,9,1",,,"6,1,06,1","6,1,06,1",,"08,99,1,08,1,07,1,00150,1,99,9,99,9",,,,,"99999,9,09600,1","0,1,010,1,+999,9","21,1","SYN088AAXX  17124 08053 11240 82802 10084 20076 39600 40255 50010 60021 72166 887// 333 50043;",
"08053099999","2010-01-18T06:00:00","4","42.5666666","-6.6","550.0","PONFERRADA, SP","FM-12","99999","V020","100,1,N,0010,1","00210,1,9,N","006000,1,N,1","+0062,1","+0058,1","10205,1","12,0000,9,1","24,0028,9,1",,,,,"08,99,1,08,1,07,1,00250,1,99,9,99,9","0000,9","09,9","999,+0040,9","999,N,+0062,1","99999,9,09548,1","6,1,009,1,+999,9","10,1","SYN106AAXX  18064 08053 11356 81002 10062 20058 39548 40205 56009 60002 710// 887// 333 20062 31004 55000 70027;","Q01  00002PRCP12"
"08053099999","2010-01-18T09:00:00","4","42.5666666","-6.6","550.0","PONFERRADA, SP","FM-12","99999","V020","999,9,C,0000,1","03600,1,9,N","015000,1,N,1","+0060,1","+0051,1","10206,1",,,,,,,"05,99,1,02,1,07,1,00250,1,04,1,00,1",,,,,"99999,9,09548,1","5,1,000,1,+999,9",,"SYN066AAXX  18094 08053 42365 50000 10060 20051 39548 40206 55000 82740;",
"08053099999","2010-01-18T12:00:00","4","42.5666666","-6.6","550.0","PONFERRADA, SP","FM-12","99999","V020","270,1,N,0015,1","00210,1,9,N","018000,1,N,1","+0096,1","+0072,1","10191,1","06,0000,9,1",,,,,,"08,99,1,08,1,07,1,00250,1,99,9,99,9",,,,,"99999,9,09542,1","8,1,006,1,+999,9",,"SYN082AAXX  18124 08053 12368 82703 10096 20072 39542 40191 58006 60001 887// 333 50033;","Q01  00002PRCP06"
"08053099999","2010-01-19T06:00:00","4","42.5666666","-6.6","550.0","PONFERRADA, SP","FM-12","99999","V020","150,1,N,0010,1","03600,1,9,N","008000,1,N,1","+0076,1","+0067,1","10169,1","12,0000,9,1","24,0003,9,1",,,,,"06,99,1,03,1,07,1,00250,1,04,1,00,1","0072,9","09,9","999,+0050,9","999,N,+0074,1","99999,9,09517,1","7,1,007,1,+999,9","10,1","SYN106AAXX  19064 08053 11358 61502 10076 20067 39517 40169 57007 69922 710// 83740 333 20074 31005 55012 70002;","Q01  00002PRCP12"
"08053099999","2010-01-19T09:00:00","4","42.5666666","-6.6","550.0","PONFERRADA, SP","FM-12","99999","V020","290,1,N,0010,1","00120,1,9,N","002000,1,N,1","+0074,1","+0070,1","10175,1",,,,"6,1,03,1","2,1,03,1",,"08,99,1,08,1,07,1,00150,1,99,9,99,9",,,,,"99999,9,09522,1","3,1,005,1,+999,9","63,1","SYN072AAXX  19094 08053 41220 82902 10074 20070 39522 40175 53005 76362 887//;",
"08053099999","2010-01-19T12:00:00","4","42.5666666","-6.6","550.0","PONFERRADA, SP","FM-12","99999","V020","300,1,N,0010,1","03600,1,9,N","012000,1,N,1","+0110,1","+0091,1","10173,1","06,0010,9,1",,,"6,1,06,1","2,1,06,1",,"07,99,1,03,1,07,1,00250,1,06,1,00,1",,,,,"99999,9,09529,1","0,1,007,1,+999,9","01,1","SYN088AAXX  19124 08053 11362 73002 10110 20091 39529 40173 50007 60011 70162 83760 333 50083;",
"08053099999","2010-01-20T06:00:00","4","42.5666666","-6.6","550.0","PONFERRADA, SP","FM-12","99999","V020","290,1,N,0005,1","03600,1,9,N","008000,1,N,1","+0050,1","+0046,1","10203,1","12,0020,9,1","24,0033,9,1",,,,,"06,99,1,03,1,05,1,00250,1,04,1,00,1","0156,9","11,9","999,+0030,9","999,N,+0050,1","99999,9,09543,1","2,1,008,1,+999,9","21,1","SYN106AAXX  20064 08053 11358 62901 10050 20046 39543 40203 52008 60022 721// 83540 333 20050 32003 55026 70032;",
"08053099999","2010-01-20T09:00:00","4","42.5666666","-6.6","550.0","PONFERRADA, SP","FM-12","99999","V020","340,1,N,0010,1","03600,1,9,N","012000,1,N,1","+0050,1","+0032,1","10227,1",,,,,,,"05,99,1,02,1,05,1,00250,1,04,1,00,1",,,,,"99999,9,09565,1","1,1,022,1,+999,9",,"SYN066AAXX  20094 08053 42362 53402 10050 20032 39565 40227 51022 82540;",
"08053099999","2010-01-20T12:00:00","4","42.5666666","-6.6","550.0","PONFERRADA, SP","FM-12","99999","V020","290,1,N,0031,1","00210,1,9,N","010000,1,N,1","+0090,1","+0040,1","10224,1","06,0000,2,1",,,"6,1,06,1","2,1,06,1",,"07,99,1,07,1,07,1,00250,1,99,9,99,9",,,,,"99999,9,09571,1","0,1,006,1,+999,9","60,1","SYN088AAXX  20124 08053 11360 72906 10090 20040 39571 40224 50006 69901 76062 877// 333 50073;",
"08053099999","2010-01-21T06:00:00","4","42.5666666","-6.6","550.0","PONFERRADA, SP","FM-12","99999","V020","300,1,N,0010,1","00210,1,9,N","006000,1,N,1","+0056,1","+0042,1","10231,1","12,0000,9,1","24,0005,9,1",,,,,"08,99,1,08,1,07,1,00250,1,99,9,99,9","0144,9","09,9","999,+0030,9","999,N,+0046,1","99999,9,09570,1","7,1,008,1,+999,9","10,1","SYN106AAXX  21064 08053 11356 83002 10056 20042 39570 40231 57008 60002 710// 887// 333 20046 31003 55024 70004;","Q01  00002PRCP12"
"08053099999","2010-01-21T09:00:00","4","42.5666666","-6.6","550.0","PONFERRADA, SP","FM-12","99999","V020","999,9,C,0000,1","00210,1,9,N","010000,1,N,1","+0052,1","+0043,1","10247,1",,,,,,,"08,99,1,05,1,07,1,00250,1,02,1,99,9",,,,,"99999,9,09584,1","3,1,014,1,+999,9",,"SYN066AAXX  21094 08053 42360 80000 10052 20043 39584 40247 53014 8572/;",
"08053099999","2010-01-21T12:00:00","4","42.5666666","-6.6","550.0","PONFERRADA, SP","FM-12","99999","V020","280,1,N,0021,1","09000,1,9,N","012000,1,N,1","+0094,1","+0059,1","10235,1","06,0000,9,1",,,,,,"05,99,1,02,1,04,1,00450,1,04,1,02,1",,,,,"99999,9,09583,1","8,1,001,1,+999,9",,"SYN082AAXX  21124 08053 12462 52804 10094 20059 39583 40235 58001 60001 82442 333 50103;","Q01  00002PRCP06"
"08053099999","2010-01-22T06:00:00","4","42.5666666","-6.6","550.0","PONFERRADA, SP","FM-12","99999","V020","340,1,N,0010,1","00210,1,9,N","004000,1,N,1","+0064,1","+0060,1","10220,1","12,0000,9,1","24,0008,9,1",,,,,"07,99,1,07,1,07,1,00250,1,99,9,99,9","0174,9","09,9","999,+0040,9","999,N,+0064,1","99999,9,09562,1","6,1,006,1,+999,9","10,1","SYN106AAXX  22064 08053 11340 73402 10064 20060 39562 40220 56006 69922 710// 877// 333 20064 31004 55029 70008;","Q01  00002PRCP12"
"08053099999","2010-01-22T09:00:00","4","42.5666666","-6.6","550.0","PONFERRADA, SP","FM-12","99999","V020","999,9,C,0000,1","00210,1,9,N","005000,1,N,1","+0068,1","+0064,1","10220,1",,,,"6,1,03,1","2,1,03,1",,"08,99,1,07,1,07,1,00250,1,07,1,99,9",,,,,"99999,9,09563,1","1,1,001,1,+999,9","21,1","SYN072AAXX  22094 08053 41350 80000 10068 20064 39563 40220 51001 72162 8777/;",
"08053099999","2010-01-22T12:00:00","4","42.5666666","-6.6","550.0","PONFERRADA, SP","FM-12","99999","V020","270,1,N,0005,1","00750,1,9,N","006000,1,N,1","+0082,1","+0070,1","10211,1","06,0000,2,1",,,"6,1,06,1","2,1,06,1",,"08,99,1,06,1,07,1,00800,1,07,1,99,9",,,,,"99999,9,09558,1","8,1,005,1,+999,9","10,1","SYN088AAXX  22124 08053 12556 82701 10082 20070 39558 40211 58005 69901 71062 8677/ 333 50043;",
"08053099999","2010-01-23T06:00:00","4","42.5666666","-6.6","550.0","PONFERRADA, SP","FM-12","99999","V020","999,9,C,0000,1","00030,1,9,N","000800,1,N,1","+0066,1","+0062,1","10171,1","12,0000,9,1","24,0018,9,1",,,,"09,1,+00030,1,99,9","09,99,1,09,1,99,9,99999,9,99,9,99,9","0000,9","09,9","999,+0040,9","999,N,+0064,1","99999,9,09517,1","7,1,007,1,+999,9","45,1","SYN106AAXX  23064 08053 11/08 90000 10066 20062 39517 40171 57007 60002 745// 333 20064 31004 55000 70018 89/01;","Q01  00002PRCP12"
"08053099999","2010-01-23T09:00:00","4","42.5666666","-6.6","550.0","PONFERRADA, SP","FM-12","99999","V020","260,1,N,0010,1","00030,1,9,N","000200,1,N,1","+0058,1","+0054,1","10179,1",,,,"4,1,03,1","2,1,03,1","09,1,+00030,1,99,9","09,99,1,09,1,99,9,99999,9,99,9,99,9",,,,,"99999,9,09522,1","3,1,005,1,+999,9","45,1","SYN076AAXX  23094 08053 41/02 92602 10058 20054 39522 40179 53005 74542 333 89/01;",
"08053099999","2010-01-23T12:00:00","4","42.5666666","-6.6","550.0","PONFERRADA, SP","FM-12","99999","V020","270,1,N,0010,1","00120,1,9,N","002000,1,N,1","+0076,1","+0067,1","10180,1","06,0000,9,1",,,"4,1,06,1","2,1,06,1",,"08,99,1,08,1,07,1,00150,1,99,9,99,9",,,,,"99999,9,09527,1","0,1,005,1,+999,9","10,1","SYN088AAXX  23124 08053 11220 82702 10076 20067 39527 40180 50005 60001 71042 887// 333 50013;","Q01  00002PRCP06"
"08053099999","2010-01-24T06:00:00","4","42.5666666","-6.6","550.0","PONFERRADA, SP","FM-12","99999","V020","999,9,C,0000,1","03600,1,9,N","008000,1,N,1","+0068,1","+0064,1","10225,1","12,0000,9,1","24,0000,9,1",,,,,"06,99,1,03,1,05,1,00250,1,04,1,00,1","0000,9","09,9","999,+0040,9","999,N,+0064,1","99999,9,09568,1","2,1,013,1,+999,9","10,1","SYN106AAXX  24064 08053 11358 60000 10068 20064 39568 40225 52013 60002 710// 83540 333 20064 31004 55000 70000;","Q01  00002PRCP24Q02  00002PRCP12"
"08053099999","2010-01-24T09:00:00","4","42.5666666","-6.6","550.0","PONFERRADA, SP","FM-12","99999","V020","999,9,C,0000,1","22000,1,9,N","020000,1,N,1","+0058,1","+0044,1","10251,1",,,,,,,"01,99,1,01,1,05,1,00250,1,00,1,00,1",,,,,"99999,9,09589,1","2,1,021,1,+999,9",,"SYN066AAXX  24094 08053 42370 10000 10058 20044 39589 40251 52021 81500;",
"08053099999","2010-01-24T12:00:00","4","42.5666666","-6.6","550.0","PONFERRADA, SP","FM-12","99999","V020","220,1,N,0015,1","22000,1,9,N","030000,1,N,1","+0110,1","+0040,1","10256,1","06,0000,9,1",,,,,,"04,99,1,02,1,02,1,00250,1,06,1,00,1",,,,,"99999,9,09606,1","1,1,017,1,+999,9",,"SYN082AAXX  24124 08053 12380 42203 10110 20040 39606 40256 51017 60001 82260 333 50013;","Q01  00002PRCP06"
"08053099999","2010-01-25T06:00:00","4","42.5666666","-6.6","550.0","PONFERRADA, SP","FM-12","99999","V020","060,1,N,0005,1","03600,1,9,N","008000,1,N,1","-0018,1","-0024,1","10310,1","12,0000,9,1","24,0000,9,1",,,,,"05,99,1,03,1,05,1,00250,1,04,1,00,1","0390,9","14,9","999,-0040,9","999,N,-0018,1","99999,9,09626,1","4,1,000,1,+999,9","10,1","SYN106AAXX  25064 08053 11358 50601 11018 21024 39626 40310 54000 60002 710// 83540 333 21018 34104 55065 70000;","Q01  00002PRCP24Q02  00002PRCP12"
"08053099999","2010-01-25T09:00:00","4","42.5666666","-6.6","550.0","PONFERRADA, SP","FM-12","99999","V020","999,9,C,0000,1","22000,1,9,N","020000,1,N,1","+0008,1","-0003,1","10309,1",,,,,,,"03,99,1,01,1,05,1,00450,1,04,1,00,1",,,,,"99999,9,09631,1","1,1,005,1,+999,9",,"SYN066AAXX  25094 08053 42470 30000 10008 21003 39631 40309 51005 81540;",
"08053099999","2010-01-25T12:00:00","4","42.5666666","-6.6","550.0","PONFERRADA, SP","FM-12","99999","V020","240,1,N,0005,1","22000,1,9,N","030000,1,N,1","+0030,1","-0001,1","10299,1","06,0000,9,1",,,,,,"01,99,1,01,1,02,1,00800,1,00,1,00,1",,,,,"99999,9,09627,1","8,1,004,1,+999,9",,"SYN082AAXX  25124 08053 12580 12401 10030 21001 39627 40299 58004 60001 81200 333 5///3;","Q01  00002PRCP06"
"08053099999","2010-01-26T06:00:00","4","42.5666666","-6.6","550.0","PONFERRADA, SP","FM-12","99999","V020","999,9,C,0000,1","22000,1,9,N","012000,1,N,1","-0018,1","-0024,1","10268,1","12,0000,9,1","24,0000,9,1",,,,"00,1,+99999,9,99,9","00,99,1,00,1,00,1,99999,9,00,1,00,1","0492,9","14,9","999,-0040,9","999,N,-0018,1","99999,9,09587,1","3,1,006,1,+999,9","00,1","SYN100AAXX  26064 08053 11962 00000 11018 21024 39587 40268 53006 60002 700// 333 21018 34104 55082 70000;","Q01  00002PRCP24Q02  00002PRCP12"
"08053099999","2010-01-26T09:00:00","4","42.5666666","-6.6","550.0","PONFERRADA, SP","FM-12","99999","V020","300,1,N,0015,1","22000,1,9,N","025000,1,N,1","-0002,1","-0013,1","10286,1",,,,,,"00,1,+99999,9,99,9","00,99,1,00,1,00,1,99999,9,00,1,00,1",,,,,"99999,9,09607,1","1,1,020,1,+999,9",,"SYN060AAXX  26094 08053 42975 03003 11002 21013 39607 40286 51020;",
"08053099999","2010-01-26T12:00:00","4","42.5666666","-6.6","550.0","PONFERRADA, SP","FM-12","99999","V020","280,1,N,0021,1","22000,1,9,N","030000,1,N,1","+0074,1","+0004,1","10263,1","06,0000,9,1",,,,,"00,1,+99999,9,99,9","00,99,1,00,1,00,1,99999,9,00,1,00,1",,,,,"99999,9,09604,1","8,1,003,1,+999,9",,"SYN076AAXX  26124 08053 12980 02804 10074 20004 39604 40263 58003 60001 333 5///3;","Q01  00002PRCP06"
"08053099999","2010-01-27T06:00:00","4","42.5666666","-6.6","550.0","PONFERRADA, SP","FM-12","99999","V020","340,1,N,0010,1","22000,1,9,N","015000,1,N,1","-0018,1","-0037,1","10273,1","12,0000,9,1","24,0000,9,1",,,,"00,1,+99999,9,99,9","00,99,1,00,1,00,1,99999,9,00,1,00,1","0534,9","14,9","999,-0040,9","999,N,-0018,1","99999,9,09591,1","7,1,009,1,+999,9","00,1","SYN100AAXX  27064 08053 11965 03402 11018 21037 39591 40273 57009 60002 700// 333 21018 34104 55089 70000;","Q01  00002PRCP24Q02  00002PRCP12"
"08053099999","2010-01-27T09:00:00","4","42.5666666","-6.6","550.0","PONFERRADA, SP","FM-12","99999","V020","120,1,N,0005,1","22000,1,9,N","018000,1,N,1","+0004,1","-0025,1","10265,1",,,,,,"00,1,+99999,9,99,9","00,99,1,00,1,00,1,99999,9,00,1,00,1",,,,,"99999,9,09589,1","6,1,002,1,+999,9",,"SYN060AAXX  27094 08053 42968 01201 10004 21025 39589 40265 56002;",
"08053099999","2010-01-27T12:00:00","4","42.5666666","-6.6","550.0","PONFERRADA, SP","FM-12","99999","V020","090,1,N,0062,1","22000,1,9,N","020000,1,N,1","+0070,1","-0074,1","10251,1","06,0000,9,1",,,,,"00,1,+99999,9,99,9","00,99,1,00,1,00,1,99999,9,00,1,00,1",,,,,"99999,9,09591,1","0,1,002,1,+999,9",,"SYN076AAXX  27124 08053 12970 00912 10070 21074 39591 40251 50002 60001 333 5///3;","Q01  00002PRCP06"
"08053099999","2010-01-28T06:00:00","4","42.5666666","-6.6","550.0","PONFERRADA, SP","FM-12","99999","V020","999,9,C,0000,1","22000,1,9,N","015000,1,N,1","-0034,1","-0054,1","10291,1","12,0000,9,1","24,0000,9,1",,,,"00,1,+99999,9,99,9","00,99,1,00,1,00,1,99999,9,00,1,00,1","0540,9","14,9","999,-0050,9","999,N,-0034,1","99999,9,09604,1","8,1,006,1,+999,9","00,1","SYN100AAXX  28064 08053 11965 00000 11034 21054 39604 40291 58006 60002 700// 333 21034 34105 55090 70000;","Q01  00002PRCP24Q02  00002PRCP12"
"08053099999","2010-01-28T09:00:00","4","42.5666666","-6.6","550.0","PONFERRADA, SP","FM-12","99999","V020","120,1,N,0010,1","22000,1,9,N","020000,1,N,1","-0024,1","-0057,1","10288,1",,,,,,"00,1,+99999,9,99,9","00,99,1,00,1,00,1,99999,9,00,1,00,1",,,,,"99999,9,09604,1","5,1,000,1,+999,9",,"SYN060AAXX  28094 08053 42970 01202 11024 21057 39604 40288 55000;",
"08053099999","2010-01-28T12:00:00","4","42.5666666","-6.6","550.0","PONFERRADA, SP","FM-12","99999","V020","250,1,N,0021,1","22000,1,9,N","025000,1,N,1","+0030,1","-0040,1","10264,1","06,0000,9,1",,,,,,"01,99,1,00,1,00,1,99999,9,00,1,01,1",,,,,"99999,9,09594,1","8,1,010,1,+999,9",,"SYN082AAXX  28124 08053 12975 12504 10030 21040 39594 40264 58010 60001 80001 333 5///3;","Q01  00002PRCP06"
"08053099999","2010-01-29T06:00:00","4","42.5666666","-6.6","550.0","PONFERRADA, SP","FM-12","99999","V020","360,1,N,0010,1","03600,1,9,N","010000,1,N,1","+0030,1","+0004,1","10161,1","12,0000,9,1","24,0000,9,1",,,,,"05,99,1,02,1,05,1,00250,1,04,1,00,1","0516,9","01,9","999,+0000,9","999,N,+0020,1","99999,9,09498,1","8,1,015,1,+999,9","02,1","SYN106AAXX  29064 08053 11360 53602 10030 20004 39498 40161 58015 60002 702// 82540 333 20020 30000 55086 70000;","Q01  00002PRCP24Q02  00002PRCP12"
"08053099999","2010-01-29T09:00:00","4","42.5666666","-6.6","550.0","PONFERRADA, SP","FM-12","99999","V020","170,1,N,0005,1","03600,1,9,N","015000,1,N,1","+0038,1","+0014,1","10144,1",,,,,,,"06,99,1,03,1,05,1,00250,1,04,1,00,1",,,,,"99999,9,09484,1","6,1,014,1,+999,9",,"SYN066AAXX  29094 08053 42365 61701 10038 20014 39484 40144 56014 83540;",
"08053099999","2010-01-29T12:00:00","4","42.5666666","-6.6","550.0","PONFERRADA, SP","FM-12","99999","V020","250,1,N,0031,1","03600,1,9,N","015000,1,N,1","+0072,1","+0045,1","10121,1","06,9999,9,9",,,"6,1,06,1","2,1,06,1",,"06,99,1,02,1,07,1,00250,1,06,1,00,1",,,,,"99999,9,09471,1","7,1,013,1,+999,9","21,1","SYN088AAXX  29124 08053 11365 62506 10072 20045 39471 40121 57013 69911 72162 82760 333 50423;","Q01  00002PRCP06Q02  00002PRCP06"
"08053099999","2010-01-30T06:00:00","4","42.5666666","-6.6","550.0","PONFERRADA, SP","FM-12","99999","V020","280,1,N,0021,1","03600,1,9,N","012000,1,N,1","+0046,1","+0016,1","10119,1","12,0000,9,1","24,0000,2,1",,,,,"05,99,1,03,1,07,1,00450,1,06,1,00,1","0180,9","01,9","999,+0020,9","999,N,+0044,1","99999,9,09463,1","3,1,002,1,+999,9","02,1","SYN106AAXX  30064 08053 11462 52804 10046 20016 39463 40119 53002 60002 702// 83760 333 20044 30002 55030 70001;","Q01  00002PRCP12"
"08053099999","2010-01-30T09:00:00","4","42.5666666","-6.6","550.0","PONFERRADA, SP","FM-12","99999","V020","250,1,N,0026,1","22000,1,9,N","010000,1,N,1","+0048,1","+0023,1","10122,1",,,,,,,"03,99,1,02,1,07,1,00450,1,06,1,00,1",,,,,"99999,9,09466,1","3,1,003,1,+999,9",,"SYN066AAXX  30094 08053 42460 32505 10048 20023 39466 40122 53003 82760;",
"08053099999","2010-01-30T12:00:00","4","42.5666666","-6.6","550.0","PONFERRADA, SP","FM-12","99999","V020","270,1,N,0036,1","00420,1,9,N","015000,1,N,1","+0086,1","+0026,1","10114,1","06,0000,9,1",,,,,,"06,99,1,06,1,07,1,00450,1,00,1,00,1",,,,,"99999,9,09467,1","0,1,001,1,+999,9",,"SYN082AAXX  30124 08053 12465 62707 10086 20026 39467 40114 50001 60001 86700 333 50083;","Q01  00002PRCP06"
"08053099999","2010-01-31T06:00:00","4","42.5666666","-6.6","550.0","PONFERRADA, SP","FM-12","99999","V020","280,1,N,0031,1","00210,1,9,N","010000,1,N,1","+0056,1","+0033,1","10094,1","12,9999,9,9","24,9999,9,9",,,,,"08,99,1,08,1,07,1,00250,1,99,9,99,9","0180,9","09,9","999,+0040,9","999,N,+0056,1","99999,9,09442,1","6,1,004,1,+999,9","50,1","SYN106AAXX  31064 08053 11360 82806 10056 20033 39442 40094 56004 60002 750/5 887// 333 20056 31004 55030 79999;","Q01  00002PRCP24Q02  00002PRCP12Q03  00002PRCP12Q04  00002PRCP24"
"08053099999","2010-01-31T09:00:00","4","42.5666666","-6.6","550.0","PONFERRADA, SP","FM-12","99999","V020","270,1,N,0026,1","00210,1,9,N","012000,1,N,1","+0060,1","+0037,1","10100,1",,,,"6,1,03,1","2,1,03,1",,"07,99,1,07,1,07,1,00250,1,99,9,99,9",,,,,"99999,9,09449,1","1,1,007,1,+999,9","21,1","SYN072AAXX  31094 08053 41362 72705 10060 20037 39449 40100 51007 72162 877//;",
"08053099999","2010-01-31T12:00:00","4","42.5666666","-6.6","550.0","PONFERRADA, SP","FM-12","99999","V020","260,1,N,0031,1","00210,1,9,N","018000,1,N,1","+0082,1","+0042,1","10098,1","06,0005,9,1",,,"6,1,06,1","2,1,06,1",,"07,99,1,07,1,07,1,00250,1,99,9,99,9",,,,,"99999,9,09452,1","1,1,003,1,+999,9","02,1","SYN088AAXX  31124 08053 11368 72606 10082 20042 39452 40098 51003 69941 70262 877// 333 50063;",
"08053099999","2010-02-01T06:00:00","4","42.5666666","-6.6","550.0","PONFERRADA, SP","FM-12","99999","V020","110,1,N,0015,1","22000,1,9,N","010000,1,N,1","-0010,1","-0016,1","10216,1","12,0000,9,1","24,0005,9,1",,,,,"03,99,1,01,1,05,1,00250,1,04,1,00,1","0096,9","14,9","999,-0030,9","999,N,-0010,1","99999,9,09540,1","2,1,020,1,+999,9","02,1","SYN106AAXX  01064 08053 11360 31103 11010 21016 39540 40216 52020 60002 702// 81540 333 21010 34103 55016 70006;","Q01  00002PRCP12"
"08053099999","2010-02-01T09:00:00","4","42.5666666","-6.6","550.0","PONFERRADA, SP","FM-12","99999","V020","310,1,N,0010,1","22000,1,9,N","020000,1,N,1","+0006,1","-0005,1","10247,1",,,,,,"00,1,+99999,9,99,9","00,99,1,00,1,00,1,99999,9,00,1,00,1",,,,,"99999,9,09573,1","2,1,033,1,+999,9",,"SYN060AAXX  01094 08053 42970 03102 10006 21005 39573 40247 52033;",
"08053099999","2010-02-01T12:00:00","4","42.5666666","-6.6","550.0","PONFERRADA, SP","FM-12","99999","V020","250,1,N,0021,1","22000,1,9,N","030000,1,N,1","+0050,1","-0008,1","10241,1","06,0000,9,1",,,,,"00,1,+99999,9,99,9","00,99,1,00,1,00,1,99999,9,00,1,00,1",,,,,"99999,9,09578,1","1,1,005,1,+999,9",,"SYN076AAXX  01124 08053 12980 02504 10050 21008 39578 40241 51005 60001 333 5///3;","Q01  00002PRCP06"
"08053099999","2010-02-02T06:00:00","4","42.5666666","-6.6","550.0","PONFERRADA, SP","FM-12","99999","V020","110,1,N,0010,1","22000,1,9,N","015000,1,N,1","-0028,1","-0035,1","10274,1","12,0000,9,1","24,0000,9,1",,,,"00,1,+99999,9,99,9","00,99,1,00,1,00,1,99999,9,00,1,00,1","0552,9","14,9","999,-0050,9","999,N,-0028,1","99999,9,09590,1","5,1,000,1,+999,9","00,1","SYN100AAXX  02064 08053 11965 01102 11028 21035 39590 40274 55000 60002 700// 333 21028 34105 55092 70000;","Q01  00002PRCP24Q02  00002PRCP12"
"08053099999","2010-02-02T09:00:00","4","42.5666666","-6.6","550.0","PONFERRADA, SP","FM-12","99999","V020","999,9,C,0000,1","22000,1,9,N","025000,1,N,1","+0004,1","-0018,1","10271,1",,,,,,"00,1,+99999,9,99,9","00,99,1,00,1,00,1,99999,9,00,1,00,1",,,,,"99999,9,09595,1","1,1,005,1,+999,9",,"SYN060AAXX  02094 08053 42975 00000 10004 21018 39595 40271 51005;",
"08053099999","2010-02-02T12:00:00","4","42.5666666","-6.6","550.0","PONFERRADA, SP","FM-12","99999","V020","280,1,N,0015,1","22000,1,9,N","030000,1,N,1","+0050,1","-0014,1","10253,1","06,0000,9,1",,,,,"00,1,+99999,9,99,9","00,99,1,00,1,00,1,99999,9,00,1,00,1",,,,,"99999,9,09589,1","8,1,006,1,+999,9",,"SYN076AAXX  02124 08053 12980 02803 10050 21014 39589 40253 58006 60001 333 5///3;","Q01  00002PRCP06"
"08053099999","2010-02-03T06:00:00","4","42.5666666","-6.6","550.0","PONFERRADA, SP","FM-12","99999","V020","160,1,N,0010,1","22000,1,9,N","012000,1,N,1","-0032,1","-0036,1","10236,1","12,0000,9,1","24,0000,9,1",,,,"00,1,+99999,9,99,9","00,99,1,00,1,00,1,99999,9,00,1,00,1","0558,9","14,9","999,-0050,9","999,N,-0034,1","99999,9,09553,1","5,1,000,1,+999,9","00,1","SYN100AAXX  03064 08053 11962 01602 11032 21036 39553 40236 55000 60002 700// 333 21034 34105 55093 70000;","Q01  00002PRCP24Q02  00002PRCP12"
"08053099999","2010-02-03T09:00:00","4","42.5666666","-6.6","550.0","PONFERRADA, SP","FM-12","99999","V020","220,1,N,0010,1","22000,1,9,N","015000,1,N,1","-0018,1","-0026,1","10234,1",,,,,,,"04,99,1,02,1,00,1,01250,1,04,1,01,1",,,,,"99999,9,09555,1","3,1,002,1,+999,9",,"SYN066AAXX  03094 08053 42665 42202 11018 21026 39555 40234 53002 82041;",
"08053099999","2010-02-03T12:00:00","4","42.5666666","-6.6","550.0","PONFERRADA, SP","FM-12","99999","V020","270,1,N,0015,1","22000,1,9,N","020000,1,N,1","+0036,1","-0012,1","10200,1","06,0000,9,1",,,,,,"04,99,1,01,1,05,1,00800,1,04,1,01,1",,,,,"99999,9,09536,1","8,1,019,1,+999,9",,"SYN082AAXX  03124 08053 12570 42703 10036 21012 39536 40200 58019 60001 81541 333 5///3;","Q01  00002PRCP06"
"08053099999","2010-02-04T06:00:00","4","42.5666666","-6.6","550.0","PONFERRADA, SP","FM-12","99999","V020","999,9,C,0000,1","00210,1,9,N","005000,1,N,1","+0054,1","+0021,1","10102,1","12,0000,9,1","24,0000,9,1",,,,,"08,99,1,08,1,07,1,00250,1,99,9,99,9","0522,9","01,9","999,+0030,9","999,N,+0050,1","99999,9,09449,1","6,1,012,1,+999,9","05,1","SYN106AAXX  04064 08053 11350 80000 10054 20021 39449 40102 56012 60002 705// 887// 333 20050 30003 55087 70000;","Q01  00002PRCP24Q02  00002PRCP12"
"08053099999","2010-02-04T09:00:00","4","42.5666666","-6.6","550.0","PONFERRADA, SP","FM-12","99999","V020","999,9,C,0000,1","00210,1,9,N","008000,1,N,1","+0054,1","+0026,1","10102,1",,,,"2,1,03,1","2,1,03,1",,"08,99,1,08,1,07,1,00250,1,99,9,99,9",,,,,"99999,9,09449,1","5,1,000,1,+999,9","10,1","SYN072AAXX  04094 08053 41358 80000 10054 20026 39449 40102 55000 71022 887//;",
"08053099999","2010-02-04T12:00:00","4","42.5666666","-6.6","550.0","PONFERRADA, SP","FM-12","99999","V020","160,1,N,0015,1","00210,1,9,N","008000,1,N,1","+0076,1","+0031,1","10082,1","06,9999,9,9",,,"6,1,06,1","2,1,06,1",,"08,99,1,06,1,07,1,00250,1,02,1,99,9",,,,,"99999,9,09435,1","8,1,014,1,+999,9","21,1","SYN088AAXX  04124 08053 11358 81603 10076 20031 39435 40082 58014 69911 72162 8672/ 333 50253;","Q01  00002PRCP06Q02  00002PRCP06"
"08053099999","2010-02-05T06:00:00","4","42.5666666","-6.6","550.0","PONFERRADA, SP","FM-12","99999","V020","300,1,N,0021,1","03600,1,9,N","006000,1,N,1","+0044,1","+0029,1","10135,1","12,0071,9,1","24,0102,9,1",,,,,"06,99,1,03,1,07,1,00250,1,04,1,00,1","0018,9","11,9","999,+0020,9","999,N,+0044,1","99999,9,09478,1","3,1,007,1,+999,9","21,1","SYN106AAXX  05064 08053 11356 63004 10044 20029 39478 40135 53007 60072 721// 83740 333 20044 32002 55003 70101;",
"08053099999","2010-02-05T09:00:00","4","42.5666666","-6.6","550.0","PONFERRADA, SP","FM-12","99999","V020","250,1,N,0031,1","03600,1,9,N","010000,1,N,1","+0060,1","+0021,1","10163,1",,,,"6,1,03,1","2,1,03,1",,"07,99,1,03,1,07,1,00250,1,07,1,99,9",,,,,"99999,9,09507,1","1,1,029,1,+999,9","02,1","SYN072AAXX  05094 08053 41360 72506 10060 20021 39507 40163 51029 70262 8377/;",
"08053099999","2010-02-05T12:00:00","4","42.5666666","-6.6","550.0","PONFERRADA, SP","FM-12","99999","V020","260,1,N,0026,1","03600,1,9,N","010000,1,N,1","+0064,1","+0036,1","10185,1","06,0003,9,1",,,"6,1,06,1","5,1,06,1",,"07,99,1,04,1,07,1,00250,1,07,1,99,9",,,,,"99999,9,09529,1","2,1,022,1,+999,9","50,1","SYN088AAXX  05124 08053 11360 72605 10064 20036 39529 40185 52022 69931 75065 8477/ 333 50113;",
"08053099999","2010-02-06T06:00:00","4","42.5666666","-6.6","550.0","PONFERRADA, SP","FM-12","99999","V020","270,1,N,0021,1","00210,1,9,N","006000,1,N,1","+0084,1","+0072,1","10219,1","12,0000,9,1","24,0008,9,1",,,,,"08,99,1,08,1,07,1,00250,1,99,9,99,9","0078,9","09,9","999,+0050,9","999,N,+0072,1","99999,9,09566,1","3,1,001,1,+999,9","10,1","SYN106AAXX  06064 08053 11356 82704 10084 20072 39566 40219 53001 69922 710// 887// 333 20072 31005 55013 70008;","Q01  00002PRCP12"
"08053099999","2010-02-06T09:00:00","4","42.5666666","-6.6","550.0","PONFERRADA, SP","FM-12","99999","V020","270,1,N,0031,1","00210,1,9,N","012000,1,N,1","+0086,1","+0061,1","10235,1",,,,,,,"07,99,1,07,1,07,1,00250,1,99,9,99,9",,,,,"99999,9,09581,1","1,1,015,1,+999,9",,"SYN066AAXX  06094 08053 42362 72706 10086 20061 39581 40235 51015 877//;",
"08053099999","2010-02-06T12:00:00","4","42.5666666","-6.6","550.0","PONFERRADA, SP","FM-12","99999","V020","260,1,N,0041,1","00210,1,9,N","018000,1,N,1","+0112,1","+0057,1","10235,1","06,0000,9,1",,,,,,"08,99,1,07,1,07,1,00250,1,02,1,99,9",,,,,"99999,9,09587,1","0,1,006,1,+999,9",,"SYN082AAXX  06124 08053 12368 82608 10112 20057 39587 40235 50006 60001 8772/ 333 50063;","Q01  00002PRCP06"
"08053099999","2010-02-07T06:00:00","4","42.5666666","-6.6","550.0","PONFERRADA, SP","FM-12","99999","V020","090,1,N,0005,1","22000,1,9,N","005000,1,N,1","+0042,1","+0033,1","10194,1","12,0000,9,1","24,0000,9,1",,,,,"03,99,1,03,1,07,1,00250,1,00,1,00,1","0090,9","09,9","999,+0020,9","999,N,+0042,1","99999,9,09532,1","8,1,013,1,+999,9","10,1","SYN106AAXX  07064 08053 11350 30901 10042 20033 39532 40194 58013 60002 710// 83700 333 20042 31002 55015 70000;","Q01  00002PRCP24Q02  00002PRCP12"
"08053099999","2010-02-07T09:00:00","4","42.5666666","-6.6","550.0","PONFERRADA, SP","FM-12","99999","V020","280,1,N,0010,1","00210,1,9,N","012000,1,N,1","+0050,1","+0041,1","10190,1",,,,,,,"08,99,1,05,1,07,1,00250,1,02,1,99,9",,,,,"99999,9,09531,1","7,1,001,1,+999,9",,"SYN066AAXX  07094 08053 42362 82802 10050 20041 39531 40190 57001 8572/;",
"08053099999","2010-02-07T12:00:00","4","42.5666666","-6.6","550.0","PONFERRADA, SP","FM-12","99999","V020","280,1,N,0010,1","00210,1,9,N","018000,1,N,1","+0070,1","+0043,1","10161,1","06,0000,9,1",,,,,,"08,99,1,06,1,07,1,00250,1,02,1,99,9",,,,,"99999,9,09508,1","8,1,023,1,+999,9",,"SYN082AAXX  07124 08053 12368 82802 10070 20043 39508 40161 58023 60001 8672/ 333 50103;","Q01  00002PRCP06"
"08053099999","2010-02-08T06:00:00","4","42.5666666","-6.6","550.0","PONFERRADA, SP","FM-12","99999","V020","999,9,C,0000,1","03600,1,9,N","008000,1,N,1","+0068,1","+0064,1","10051,1","12,0020,9,2","24,0015,9,2",,,,,"07,99,1,03,1,07,1,00250,1,07,1,99,9","0030,9","11,9","999,+0050,9","999,N,+0066,1","99999,9,09405,1","7,1,020,1,+999,9","10,1","SYN106AAXX  08064 08053 11358 70000 10068 20064 39405 40051 57020 60022 710// 8377/ 333 20066 32005 55005 70016;",
"08053099999","2010-02-08T09:00:00","4","42.5666666","-6.6","550.0","PONFERRADA, SP","FM-12","99999","V020","270,1,N,0010,1","00210,1,9,N","002000,1,N,1","+0066,1","+0062,1","10049,1",,,,"6,1,03,1","2,1,03,1",,"08,99,1,08,1,07,1,00250,1,99,9,99,9",,,,,"99999,9,09403,1","6,1,002,1,+999,9","21,1","SYN072AAXX  08094 08053 41320 82702 10066 20062 39403 40049 56002 72162 887//;",
"08053099999","2010-02-08T12:00:00","4","42.5666666","-6.6","550.0","PONFERRADA, SP","FM-12","99999","V020","270,1,N,0031,1","03600,1,9,N","010000,1,N,1","+0090,1","+0064,1","10039,1","06,0020,9,1",,,"6,1,06,1","2,1,06,1",,"07,99,1,04,1,07,1,00250,1,07,1,99,9",,,,,"99999,9,09399,1","8,1,004,1,+999,9","02,1","SYN088AAXX  08124 08053 11360 72706 10090 20064 39399 40039 58004 60021 70262 8477/ 333 50083;",
"08053099999","2010-02-09T06:00:00","4","42.5666666","-6.6","550.0","PONFERRADA, SP","FM-12","99999","V020","300,1,N,0010,1","03600,1,9,N","008000,1,N,1","+0050,1","+0046,1","10041,1","12,0000,9,1","24,0023,9,1",,,,,"06,99,1,03,1,05,1,00250,1,04,1,00,1","0072,9","09,9","999,+0020,9","999,N,+0038,1","99999,9,09391,1","3,1,002,1,+999,9","10,1","SYN106AAXX  09064 08053 11358 63002 10050 20046 39391 40041 53002 60002 710// 83540 333 20038 31002 55012 70022;","Q01  00002PRCP12"
"08053099999","2010-02-09T09:00:00","4","42.5666666","-6.6","550.0","PONFERRADA, SP","FM-12","99999","V020","340,1,N,0010,1","03600,1,9,N","008000,1,N,1","+0060,1","+0037,1","10065,1",,,,"2,1,03,1","2,1,03,1",,"07,99,1,04,1,07,1,00250,1,04,1,00,1",,,,,"99999,9,09416,1","2,1,025,1,+999,9","10,1","SYN072AAXX  09094 08053 41358 73402 10060 20037 39416 40065 52025 71022 84740;",
"08053099999","2010-02-09T12:00:00","4","42.5666666","-6.6","550.0","PONFERRADA, SP","FM-12","99999","V020","360,1,N,0021,1","22000,1,9,N","020000,1,N,1","+0090,1","+0010,1","10069,1","06,0000,9,1",,,,,,"03,99,1,02,1,05,1,00250,1,06,1,00,1",,,,,"99999,9,09426,1","1,1,010,1,+999,9",,"SYN082AAXX  09124 08053 12370 33604 10090 20010 39426 40069 51010 60001 82560 333 50023;","Q01  00002PRCP06"
"08053099999","2010-02-10T06:00:00","4","42.5666666","-6.6","550.0","PONFERRADA, SP","FM-12","99999","V020","999,9,C,0000,1","22000,1,9,N","012000,1,N,1","-0024,1","-0029,1","10136,1","12,0000,9,1","24,0000,9,1",,,,,"03,99,1,01,1,05,1,00250,1,04,1,00,1","0306,9","14,9","999,-0050,9","999,N,-0026,1","99999,9,09462,1","5,1,000,1,+999,9","02,1","SYN106AAXX  10064 08053 11362 30000 11024 21029 39462 40136 55000 60002 702// 81540 333 21026 34105 55051 70000;","Q01  00002PRCP24Q02  00002PRCP12"
"08053099999","2010-02-10T09:00:00","4","42.5666666","-6.6","550.0","PONFERRADA, SP","FM-12","99999","V020","999,9,C,0000,1","03600,1,9,N","018000,1,N,1","-0014,1","-0033,1","10133,1",,,,,,,"07,99,1,03,1,07,1,00250,1,07,1,99,9",,,,,"99999,9,09462,1","4,1,000,1,+999,9",,"SYN066AAXX  10094 08053 42368 70000 11014 21033 39462 40133 54000 8377/;",
"08053099999","2010-02-10T12:00:00","4","42.5666666","-6.6","550.0","PONFERRADA, SP","FM-12","99999","V020","220,1,N,0015,1","03600,1,9,N","020000,1,N,1","+0030,1","-0025,1","10119,1","06,0000,9,1",,,,,,"07,99,1,03,1,07,1,00250,1,04,1,00,1",,,,,"99999,9,09459,1","8,1,003,1,+999,9",,"SYN082AAXX  10124 08053 12370 72203 10030 21025 39459 40119 58003 60001 83740 333 5///3;","Q01  00002PRCP06"
"08053099999","2010-02-11T06:00:00","4","42.5666666","-6.6","550.0","PONFERRADA, SP","FM-12","99999","V020","120,1,N,0015,1","22000,1,9,N","006000,1,N,1","-0022,1","-0041,1","10157,1","12,0000,9,1","24,0000,9,1",,,,"00,1,+99999,9,99,9","00,99,1,00,1,00,1,99999,9,00,1,00,1","0090,9","14,9","999,-0050,9","999,N,-0026,1","99999,9,09482,1","3,1,005,1,+999,9","10,1","SYN100AAXX  11064 08053 11956 01203 11022 21041 39482 40157 53005 60002 710// 333 21026 34105 55015 70000;","Q01  00002PRCP24Q02  00002PRCP12"
"08053099999","2010-02-11T09:00:00","4","42.5666666","-6.6","550.0","PONFERRADA, SP","FM-12","99999","V020","140,1,N,0015,1","22000,1,9,N","025000,1,N,1","+0012,1","-0042,1","10159,1",,,,,,,"01,99,1,01,1,01,1,00800,1,00,1,00,1",,,,,"99999,9,09492,1","0,1,010,1,+999,9",,"SYN066AAXX  11094 08053 42575 11403 10012 21042 39492 40159 50010 81100;",
"08053099999","2010-02-11T12:00:00","4","42.5666666","-6.6","550.0","PONFERRADA, SP","FM-12","99999","V020","300,1,N,0026,1","00420,1,9,N","030000,1,N,1","+0048,1","-0058,1","10159,1","06,0000,9,1",,,,,,"05,99,1,05,1,05,1,00450,1,00,1,00,1",,,,,"99999,9,09500,1","0,1,008,1,+999,9",,"SYN082AAXX  11124 08053 12480 53005 10048 21058 39500 40159 50008 60001 85500 333 5///3;","Q01  00002PRCP06"
"08053099999","2010-02-12T06:00:00","4","42.5666666","-6.6","550.0","PONFERRADA, SP","FM-12","99999","V020","999,9,C,0000,1","22000,1,9,N","015000,1,N,1","-0054,1","-0068,1","10199,1","12,0000,9,1","24,0000,9,1",,,,"00,1,+99999,9,99,9","00,99,1,00,1,00,1,99999,9,00,1,00,1","0528,9","16,9","999,-0070,9","999,N,-0054,1","99999,9,09513,1","5,1,001,1,+999,9","00,1","SYN100AAXX  12064 08053 11965 00000 11054 21068 39513 40199 55001 60002 700// 333 21054 35107 55088 70000;","Q01  00002PRCP24Q02  00002PRCP12"
"08053099999","2010-02-12T09:00:00","4","42.5666666","-6.6","550.0","PONFERRADA, SP","FM-12","99999","V020","280,1,N,0010,1","22000,1,9,N","025000,1,N,1","-0034,1","-0062,1","10192,1",,,,,,"00,1,+99999,9,99,9","00,99,1,00,1,00,1,99999,9,00,1,00,1",,,,,"99999,9,09512,1","5,1,001,1,+999,9",,"SYN060AAXX  12094 08053 42975 02802 11034 21062 39512 40192 55001;",
"08053099999","2010-02-12T12:00:00","4","42.5666666","-6.6","550.0","PONFERRADA, SP","FM-12","99999","V020","270,1,N,0021,1","22000,1,9,N","028000,1,N,1","+0044,1","-0034,1","10153,1","06,0000,9,1",,,,,,"01,99,1,01,1,01,1,00800,1,00,1,00,1",,,,,"99999,9,09494,1","8,1,018,1,+999,9",,"SYN082AAXX  12124 08053 12578 12704 10044 21034 39494 40153 58018 60001 81100 333 5///3;","Q01  00002PRCP06"
"08053099999","2010-02-13T06:00:00","4","42.5666666","-6.6","550.0","PONFERRADA, SP","FM-12","99999","V020","130,1,N,0010,1","22000,1,9,N","018000,1,N,1","-0054,1","-0077,1","10158,1","12,0000,9,1","24,0000,9,1",,,,"00,1,+99999,9,99,9","00,99,1,00,1,00,1,99999,9,00,1,00,1","0582,9","16,9","999,-0070,9","999,N,-0054,1","99999,9,09475,1","6,1,003,1,+999,9","00,1","SYN100AAXX  13064 08053 11968 01302 11054 21077 39475 40158 56003 60002 700// 333 21054 35107 55097 70000;","Q01  00002PRCP24Q02  00002PRCP12"
"08053099999","2010-02-13T09:00:00","4","42.5666666","-6.6","550.0","PONFERRADA, SP","FM-12","99999","V020","110,1,N,0005,1","22000,1,9,N","025000,1,N,1","-0024,1","-0064,1","10157,1",,,,,,"00,1,+99999,9,99,9","00,99,1,00,1,00,1,99999,9,00,1,00,1",,,,,"99999,9,09481,1","3,1,006,1,+999,9",,"SYN060AAXX  13094 08053 42975 01101 11024 21064 39481 40157 53006;",
"08053099999","2010-02-13T12:00:00","4","42.5666666","-6.6","550.0","PONFERRADA, SP","FM-12","99999","V020","280,1,N,0021,1","22000,1,9,N","028000,1,N,1","+0038,1","-0051,1","10131,1","06,0000,9,1",,,,,,"01,99,1,01,1,01,1,00800,1,00,1,00,1",,,,,"99999,9,09472,1","8,1,009,1,+999,9",,"SYN082AAXX  13124 08053 12578 12804 10038 21051 39472 40131 58009 60001 81100 333 5///3;","Q01  00002PRCP06"
"08053099999","2010-02-14T06:00:00","4","42.5666666","-6.6","550.0","PONFERRADA, SP","FM-12","99999","V020","999,9,C,0000,1","22000,1,9,N","020000,1,N,1","-0054,1","-0068,1","10157,1","12,0000,9,1","24,0000,9,1",,,,"00,1,+99999,9,99,9","00,99,1,00,1,00,1,99999,9,00,1,00,1","0540,9","16,9","999,-0070,9","999,N,-0054,1","99999,9,09474,1","5,1,010,1,+999,9","00,1","SYN100AAXX  14064 08053 11970 00000 11054 21068 39474 40157 55010 60002 700// 333 21054 35107 55090 70000;","Q01  00002PRCP24Q02  00002PRCP12"
"08053099999","2010-02-14T09:00:00","4","42.5666666","-6.6","550.0","PONFERRADA, SP","FM-12","99999","V020","210,1,N,0005,1","22000,1,9,N","030000,1,N,1","-0024,1","-0057,1","10149,1",,,,,,,"03,99,1,00,1,00,1,99999,9,00,1,01,1",,,,,"99999,9,09474,1","0,1,000,1,+999,9",,"SYN066AAXX  14094 08053 42980 32101 11024 21057 39474 40149 50000 80001;",
"08053099999","2010-02-14T12:00:00","4","42.5666666","-6.6","550.0","PONFERRADA, SP","FM-12","99999","V020","290,1,N,0021,1","99999,9,9,N","028000,1,N,1","+0026,1","-0037,1","10124,1","06,0000,9,1",,,,,,"06,99,1,00,1,00,1,99999,9,00,1,06,1",,,,,"99999,9,09462,1","8,1,012,1,+999,9",,"SYN082AAXX  14124 08053 12978 62904 10026 21037 39462 40124 58012 60001 80006 333 5///3;","Q01  00002PRCP06"
"08053099999","2010-02-15T06:00:00","4","42.5666666","-6.6","550.0","PONFERRADA, SP","FM-12","99999","V020","070,1,N,0046,1","99999,9,9,N","015000,1,N,1","+0004,1","-0044,1","10023,1","12,0000,9,1","24,0000,9,1",,,,,"06,99,1,00,1,00,1,99999,9,00,1,02,1","0426,9","14,9","999,-0020,9","999,N,+0004,1","99999,9,09363,1","7,1,017,1,+999,9","02,1","SYN106AAXX  15064 08053 11965 60709 10004 21044 39363 40023 57017 60002 702// 80002 333 20004 34102 55071 70000;","Q01  00002PRCP24Q02  00002PRCP12"
"08053099999","2010-02-15T09:00:00","4","42.5666666","-6.6","550.0","PONFERRADA, SP","FM-12","99999","V020","090,1,N,0072,1","09000,1,9,N","018000,1,N,1","+0012,1","-0048,1","10011,1",,,,,,,"05,99,1,01,1,01,1,00450,1,04,1,02,1",,,,,"99999,9,09354,1","6,1,009,1,+999,9",,"SYN066AAXX  15094 08053 42468 50914 10012 21048 39354 40011 56009 81142;",
"08053099999","2010-02-15T12:00:00","4","42.5666666","-6.6","550.0","PONFERRADA, SP","FM-12","99999","V020","130,1,N,0067,1","09000,1,9,N","022000,1,N,1","+0070,1","-0038,1","09985,1","06,0000,9,1",,,,,,"05,99,1,01,1,01,1,00800,1,00,1,02,1",,,,,"99999,9,09342,1","7,1,012,1,+999,9",,"SYN082AAXX  15124 08053 12572 51313 10070 21038 39342 49985 57012 60001 81102 333 5///3;","Q01  00002PRCP06"
"08053099999","2010-02-16T06:00:00","4","42.5666666","-6.6","550.0","PONFERRADA, SP","FM-12","99999","V020","080,1,N,0041,1","03600,1,9,N","012000,1,N,1","+0038,1","-0004,1","09928,1","12,0000,9,1","24,0000,9,1",,,,,"07,99,1,02,1,05,1,00450,1,04,1,02,1","0408,9","01,9","999,+0010,9","999,N,+0034,1","99999,9,09282,1","6,1,015,1,+999,9","02,1","SYN106AAXX  16064 08053 11462 70808 10038 21004 39282 49928 56015 60002 702// 82542 333 20034 30001 55068 70000;","Q01  00002PRCP24Q02  00002PRCP12"
"08053099999","2010-02-16T09:00:00","4","42.5666666","-6.6","550.0","PONFERRADA, SP","FM-12","99999","V020","080,1,N,0051,1","00420,1,9,N","020000,1,N,1","+0046,1","+0011,1","09919,1",,,,,,,"08,99,1,06,1,07,1,00450,1,07,1,99,9",,,,,"99999,9,09276,1","6,1,006,1,+999,9",,"SYN066AAXX  16094 08053 42470 80810 10046 20011 39276 49919 56006 8677/;",
"08053099999","2010-02-16T12:00:00","4","42.5666666","-6.6","550.0","PONFERRADA, SP","FM-12","99999","V020","070,1,N,0051,1","03600,1,9,N","025000,1,N,1","+0076,1","+0031,1","09901,1","06,0000,9,1",,,,,,"07,99,1,04,1,07,1,00450,1,07,1,99,9",,,,,"99999,9,09266,1","8,1,010,1,+999,9",,"SYN082AAXX  16124 08053 12475 70710 10076 20031 39266 49901 58010 60001 8477/ 333 50963;","Q01  00002PRCP06"
"08053099999","2010-02-17T06:00:00","4","42.5666666","-6.6","550.0","PONFERRADA, SP","FM-12","99999","V020","999,9,C,0000,1","00210,1,9,N","006000,1,N,1","+0054,1","+0045,1","09890,1","12,0005,9,1","24,0005,9,1",,,,,"08,99,1,99,9,07,1,00250,1,03,1,99,9","0030,9","09,9","999,+0030,9","999,N,+0052,1","99999,9,09251,1","3,1,001,1,+999,9","10,1","SYN106AAXX  17064 08053 11356 80000 10054 20045 39251 49890 53001 69962 710/6 8873/ 333 20052 31003 55005 70006;","Q01+000082SCOTLC"
"08053099999","2010-02-17T09:00:00","4","42.5666666","-6.6","550.0","PONFERRADA, SP","FM-12","99999","V020","270,1,N,0010,1","00210,1,9,N","004000,1,N,1","+0058,1","+0049,1","09908,1",,,,"5,1,03,1","2,1,03,1",,"08,99,1,08,1,07,1,00250,1,99,9,99,9",,,,,"99999,9,09269,1","3,1,018,1,+999,9","50,1","SYN072AAXX  17094 08053 41340 82702 10058 20049 39269 49908 53018 75052 887//;",
"08053099999","2010-02-17T12:00:00","4","42.5666666","-6.6","550.0","PONFERRADA, SP","FM-12","99999","V020","280,1,N,0010,1","00210,1,9,N","008000,1,N,1","+0068,1","+0054,1","09925,1","06,0000,2,1",,,"6,1,06,1","5,1,06,1",,"08,99,1,06,1,07,1,00250,1,02,1,99,9",,,,,"99999,9,09287,1","2,1,018,1,+999,9","21,1","SYN088AAXX  17124 08053 11358 82802 10068 20054 39287 49925 52018 69901 72165 8672/ 333 50083;",
"08053099999","2010-02-18T06:00:00","4","42.5666666","-6.6","550.0","PONFERRADA, SP","FM-12","99999","V020","110,1,N,0010,1","00210,1,9,N","006000,1,N,1","+0028,1","+0024,1","10016,1","12,0003,9,1","24,0013,9,1",,,,,"08,99,1,08,1,07,1,00250,1,99,9,99,9","0042,9","09,9","999,+0010,9","999,N,+0026,1","99999,9,09363,1","0,1,002,1,+999,9","10,1","SYN106AAXX  18064 08053 11356 81102 10028 20024 39363 40016 50002 69932 710// 887// 333 20026 31001 55007 70013;",
"08053099999","2010-02-18T09:00:00","4","42.5666666","-6.6","550.0","PONFERRADA, SP","FM-12","99999","V020","270,1,N,0010,1","22000,1,9,N","010000,1,N,1","+0042,1","+0022,1","10026,1",,,,,,,"01,99,1,01,1,04,1,00250,1,00,1,00,1",,,,,"99999,9,09375,1","0,1,012,1,+999,9",,"SYN066AAXX  18094 08053 42360 12702 10042 20022 39375 40026 50012 81400;",
"08053099999","2010-02-18T12:00:00","4","42.5666666","-6.6","550.0","PONFERRADA, SP","FM-12","99999","V020","210,1,N,0015,1","03600,1,9,N","020000,1,N,1","+0094,1","+0025,1","09998,1","06,0000,9,1",,,,,,"07,99,1,04,1,08,1,00450,1,01,1,01,1",,,,,"99999,9,09360,1","8,1,015,1,+999,9",,"SYN082AAXX  18124 08053 12470 72103 10094 20025 39360 49998 58015 60001 84811 333 50133;","Q01  00002PRCP06"
"08053099999","2010-02-19T06:00:00","4","42.5666666","-6.6","550.0","PONFERRADA, SP","FM-12","99999","V020","310,1,N,0010,1","22000,1,9,N","012000,1,N,1","+0014,1","+0004,1","10028,1","12,0000,9,1","24,0000,9,1",,,,,"03,99,1,03,1,05,1,00450,1,00,1,00,1","0486,9","14,9","999,-0010,9","999,N,+0012,1","99999,9,09370,1","3,1,015,1,+999,9","02,1","SYN106AAXX  19064 08053 11462 33102 10014 20004 39370 40028 53015 60002 702// 83500 333 20012 34101 55081 70000;","Q01  00002PRCP24Q02  00002PRCP12"
"08053099999","2010-02-19T09:00:00","4","42.5666666","-6.6","550.0","PONFERRADA, SP","FM-12","99999","V020","290,1,N,0010,1","22000,1,9,N","015000,1,N,1","+0034,1","-0002,1","10054,1",,,,,,,"02,99,1,02,1,04,1,00450,1,00,1,00,1",,,,,"99999,9,09399,1","2,1,029,1,+999,9",,"SYN066AAXX  19094 08053 42465 22902 10034 21002 39399 40054 52029 82400;",
"08053099999","2010-02-19T12:00:00","4","42.5666666","-6.6","550.0","PONFERRADA, SP","FM-12","99999","V020","280,1,N,0051,1","03600,1,9,N","018000,1,N,1","+0086,1","+0015,1","10055,1","06,0000,9,1",,,,,,"05,99,1,04,1,05,1,00450,1,04,1,00,1",,,,,"99999,9,09412,1","2,1,013,1,+999,9",,"SYN082AAXX  19124 08053 12468 52810 10086 20015 39412 40055 52013 60001 84540 333 50043;","Q01  00002PRCP06"
"08053099999","2010-02-20T06:00:00","4","42.5666666","-6.6","550.0","PONFERRADA, SP","FM-12","99999","V020","270,1,N,0015,1","03600,1,9,N","012000,1,N,1","+0020,1","+0010,1","10256,1","12,0000,9,1","24,0000,9,1",,,,,"05,99,1,02,1,05,1,00250,1,04,1,00,1","0336,9","14,9","999,+0000,9","999,N,+0020,1","99999,9,09585,1","6,1,002,1,+999,9","02,1","SYN106AAXX  20064 08053 11362 52703 10020 20010 39585 40256 56002 60002 702// 82540 333 20020 34000 55056 70000;","Q01  00002PRCP24Q02  00002PRCP12"
"08053099999","2010-02-20T09:00:00","4","42.5666666","-6.6","550.0","PONFERRADA, SP","FM-12","99999","V020","260,1,N,0010,1","03600,1,9,N","012000,1,N,1","+0034,1","+0014,1","99999,9",,,,,,,"07,99,1,04,1,07,1,00250,1,05,1,00,1",,,,,,"1,1,007,1,+999,9",,"SYN066AAXX  20094 08053 42362 72602 10034 20014 39459 40118 51007 84750;","Q01+094593APOSP "
"08053099999","2010-02-20T12:00:00","4","42.5666666","-6.6","550.0","PONFERRADA, SP","FM-12","99999","V020","250,1,N,0026,1","03600,1,9,N","018000,1,N,1","+0078,1","+0005,1","10107,2","06,0000,9,1",,,,,,"05,99,1,02,1,02,1,00450,1,06,1,00,1",,,,,"99999,9,09459,2","0,1,000,1,+999,9",,"SYN082AAXX  20124 08053 12468 52505 10078 20005 39459 40107 50000 60001 82260 333 50063;","Q01  00002PRCP06"
"08053099999","2010-02-21T06:00:00","4","42.5666666","-6.6","550.0","PONFERRADA, SP","FM-12","99999","V020","090,1,N,0051,1","03600,1,9,N","006000,1,N,1","+0040,1","+0015,1","09972,1","12,0020,9,1","24,0023,9,1",,,,,"07,99,1,04,1,07,1,00250,1,07,1,99,9","0192,9","11,9","999,+0010,9","999,N,+0026,1","99999,9,09324,1","7,1,023,1,+999,9","21,1","SYN106AAXX  21064 08053 11356 70910 10040 20015 39324 49972 57023 60022 721// 8477/ 333 20026 32001 55032 70022;",
"08053099999","2010-02-21T09:00:00","4","42.5666666","-6.6","550.0","PONFERRADA, SP","FM-12","99999","V020","160,1,N,0015,1","03600,1,9,N","008000,1,N,1","+0054,1","+0021,1","09953,1",,,,"5,1,03,1","2,1,03,1",,"07,99,1,04,1,07,1,00250,1,07,1,99,9",,,,,"99999,9,09310,1","6,1,014,1,+999,9","20,1","SYN072AAXX  21094 08053 41358 71603 10054 20021 39310 49953 56014 72052 8477/;",
"08053099999","2010-02-21T12:00:00","4","42.5666666","-6.6","550.0","PONFERRADA, SP","FM-12","99999","V020","260,1,N,0015,1","03600,1,9,N","012000,1,N,1","+0068,1","+0041,1","09953,1","06,0000,2,1",,,"6,1,06,1","5,1,06,1",,"07,99,1,04,1,05,1,00250,1,04,1,00,1",,,,,"99999,9,09313,1","0,1,003,1,+999,9","02,1","SYN088AAXX  21124 08053 11362 72603 10068 20041 39313 49953 50003 69921 70265 84540 333 50153;",
"08053099999","2010-02-22T06:00:00","4","42.5666666","-6.6","550.0","PONFERRADA, SP","FM-12","99999","V020","320,1,N,0015,1","00210,1,9,N","008000,1,N,1","+0074,1","+0057,1","09915,1","12,9999,9,9","24,0003,9,1",,,,,"08,99,1,08,1,07,1,00250,1,99,9,99,9","0132,9","09,9","999,+0050,9","999,N,+0070,1","99999,9,09279,1","6,1,020,1,+999,9","60,1","SYN106AAXX  22064 08053 11358 83203 10074 20057 39279 49915 56020 69902 760/6 887// 333 20070 31005 55022 70002;","Q01  00002PRCP12Q02  00002PRCP12"
"08053099999","2010-02-22T09:00:00","4","42.5666666","-6.6","550.0","PONFERRADA, SP","FM-12","99999","V020","999,9,C,0000,1","03600,1,9,N","010000,1,N,1","+0076,1","+0067,1","09929,1",,,,"6,1,03,1","2,1,03,1",,"07,99,1,04,1,05,1,00250,1,04,1,00,1",,,,,"99999,9,09293,1","1,1,014,1,+999,9","21,1","SYN072AAXX  22094 08053 41360 70000 10076 20067 39293 49929 51014 72162 84540;",
"08053099999","2010-02-22T12:00:00","4","42.5666666","-6.6","550.0","PONFERRADA, SP","FM-12","99999","V020","240,1,N,0046,1","03600,1,9,N","010000,1,N,1","+0108,1","+0058,1","09936,1","06,0051,9,1",,,"6,1,06,1","2,1,06,1",,"08,99,1,03,1,07,1,00250,1,07,1,99,9",,,,,"99999,9,09306,1","3,1,013,1,+999,9","62,1","SYN088AAXX  22124 08053 11360 82409 10108 20058 39306 49936 53013 60051 76262 8377/ 333 50103;",
"08053099999","2010-02-23T06:00:00","4","42.5666666","-6.6","550.0","PONFERRADA, SP","FM-12","99999","V020","280,1,N,0021,1","00210,1,9,N","006000,1,N,1","+0070,1","+0066,1","09992,1","12,0109,9,1","24,0170,9,1",,,,,"08,99,1,08,1,07,1,00250,1,99,9,99,9","0126,9","11,9","999,+0040,9","999,N,+0064,1","99999,9,09350,1","3,1,010,1,+999,9","65,1","SYN106AAXX  23064 08053 11356 82804 10070 20066 39350 49992 53010 60112 765// 887// 333 20064 32004 55021 70170;",
"08053099999","2010-02-23T09:00:00","4","42.5666666","-6.6","550.0","PONFERRADA, SP","FM-12","99999","V020","290,1,N,0015,1","00210,1,9,N","005000,1,N,1","+0072,1","+0055,1","10006,1",,,,"6,1,03,1","2,1,03,1",,"08,99,1,08,1,07,1,00250,1,99,9,99,9",,,,,"99999,9,09364,1","3,1,014,1,+999,9","63,1","SYN072AAXX  23094 08053 41350 82903 10072 20055 39364 40006 53014 76362 887//;",
"08053099999","2010-02-23T12:00:00","4","42.5666666","-6.6","550.0","PONFERRADA, SP","FM-12","99999","V020","270,1,N,0021,1","00210,1,9,N","004000,1,N,1","+0066,1","+0048,1","10027,1","06,0071,9,1",,,"6,1,06,1","2,1,06,1",,"08,99,1,08,1,07,1,00250,1,99,9,99,9",,,,,"99999,9,09382,1","3,1,018,1,+999,9","65,1","SYN088AAXX  23124 08053 11340 82704 10066 20048 39382 40027 53018 60071 76562 887// 333 50083;",
"08053099999","2010-02-24T06:00:00","4","42.5666666","-6.6","550.0","PONFERRADA, SP","FM-12","99999","V020","260,1,N,0036,1","00210,1,9,N","006000,1,N,1","+0068,1","+0036,1","10071,1","12,0051,9,1","24,0196,9,1",,,,,"08,99,1,08,1,07,1,00250,1,99,9,99,9","0042,9","11,9","999,+0050,9","999,N,+0066,1","99999,9,09423,1","3,1,013,1,+999,9","60,1","SYN106AAXX  24064 08053 11356 82607 10068 20036 39423 40071 53013 60052 760/6 887// 333 20066 32005 55007 70195;",
"08053099999","2010-02-24T09:00:00","4","42.5666666","-6.6","550.0","PONFERRADA, SP","FM-12","99999","V020","260,1,N,0015,1","00210,1,9,N","006000,1,N,1","+0076,1","+0040,1","10091,1",,,,"6,1,03,1","2,1,03,1",,"08,99,1,06,1,07,1,00250,1,02,1,99,9",,,,,"99999,9,09444,1","2,1,021,1,+999,9","60,1","SYN072AAXX  24094 08053 41356 82603 10076 20040 39444 40091 52021 76062 8672/;",
"08053099999","2010-02-24T12:00:00","4","42.5666666","-6.6","550.0","PONFERRADA, SP","FM-12","99999","V020","280,1,N,0021,1","00210,1,9,N","006000,1,N,1","+0082,1","+0060,1","10101,1","06,0005,9,1",,,"6,1,06,1","2,1,06,1",,"08,99,1,07,1,07,1,00250,1,02,1,99,9",,,,,"99999,9,09455,1","0,1,011,1,+999,9","60,1","SYN088AAXX  24124 08053 11356 82804 10082 20060 39455 40101 50011 69961 76062 8772/ 333 50123;",
"08053099999","2010-02-25T06:00:00","4","42.5666666","-6.6","550.0","PONFERRADA, SP","FM-12","99999","V020","260,1,N,0051,1","00210,1,9,N","004000,1,N,1","+0116,1","+0088,1","09965,1","12,0211,9,1","24,0417,9,1",,,,,"08,99,1,08,1,07,1,00250,1,99,9,99,9","0006,9","11,9","999,+0060,9","999,N,+0076,1","99999,9,09335,1","7,1,027,1,+999,9","63,1","SYN106AAXX  25064 08053 11340 82610 10116 20088 39335 49965 57027 60212 763/6 887// 333 20076 32006 55001 70416;",
"08053099999","2010-02-25T09:00:00","4","42.5666666","-6.6","550.0","PONFERRADA, SP","FM-12","99999","V020","270,1,N,0021,1","00210,1,9,N","004000,1,N,1","+0110,1","+0082,1","09975,1",,,,"6,1,03,1","2,1,03,1",,"08,99,1,07,1,07,1,00250,1,02,1,99,9",,,,,"99999,9,09343,1","3,1,008,1,+999,9","60,1","SYN072AAXX  25094 08053 41340 82704 10110 20082 39343 49975 53008 76062 8772/;",
"08053099999","2010-02-25T12:00:00","4","42.5666666","-6.6","550.0","PONFERRADA, SP","FM-12","99999","V020","240,1,N,0062,1","00120,1,9,N","008000,1,N,1","+0116,1","+0081,1","09976,1","06,0061,9,1",,,"6,1,06,1","2,1,06,1",,"07,99,1,06,1,07,1,00150,1,02,1,99,9",,,,,"99999,9,09345,1","3,1,002,1,+999,9","60,1","SYN088AAXX  25124 08053 11258 72412 10116 20081 39345 49976 53002 60061 76062 8672/ 333 50113;",
"08053099999","2010-02-26T06:00:00","4","42.5666666","-6.6","550.0","PONFERRADA, SP","FM-12","99999","V020","330,1,N,0010,1","00210,1,9,N","008000,1,N,1","+0050,1","+0037,1","10119,1","12,0061,9,1","24,0122,9,1",,,,,"07,99,1,07,1,07,1,00250,1,99,9,99,9","0156,9","11,9","999,+0020,9","999,N,+0042,1","99999,9,09464,1","3,1,013,1,+999,9","60,1","SYN106AAXX  26064 08053 11358 73302 10050 20037 39464 40119 53013 60062 760/6 877// 333 20042 32002 55026 70121;",
"08053099999","2010-02-26T09:00:00","4","42.5666666","-6.6","550.0","PONFERRADA, SP","FM-12","99999","V020","999,9,C,0000,1","22000,1,9,N","018000,1,N,1","+0068,1","+0041,1","10128,1",,,,"6,1,03,1","1,1,03,1",,"02,99,1,01,1,04,1,00250,1,00,1,01,1",,,,,"99999,9,09477,1","1,1,013,1,+999,9","01,1","SYN072AAXX  26094 08053 41368 20000 10068 20041 39477 40128 51013 70161 81401;",
"08053099999","2010-02-27T06:00:00","4","42.5666666","-6.6","550.0","PONFERRADA, SP","FM-12","99999","V020","130,1,N,0021,1","00210,1,9,N","007000,1,N,1","+0060,1","+0051,1","09984,1","12,0010,9,1","24,0013,9,1",,,,,"07,99,1,07,1,07,1,00250,1,99,9,99,9","0420,9","11,9","999,+0020,9","999,N,+0042,1","99999,9,09340,1","7,1,047,1,+999,9","60,1","SYN106AAXX  27064 08053 11357 71304 10060 20051 39340 49984 57047 60012 760// 877// 333 20042 32002 55070 70013;",
"08053099999","2010-02-27T09:00:00","4","42.5666666","-6.6","550.0","PONFERRADA, SP","FM-12","99999","V020","090,1,N,0057,1","00210,1,9,N","006000,1,N,1","+0076,1","+0072,1","09910,1",,,,"6,1,03,1","2,1,03,1",,"08,99,1,08,1,07,1,00250,1,99,9,99,9",,,,,"99999,9,09275,1","7,1,065,1,+999,9","63,1","SYN072AAXX  27094 08053 41356 80911 10076 20072 39275 49910 57065 76362 887//;",
"08053099999","2010-02-27T12:00:00","4","42.5666666","-6.6","550.0","PONFERRADA, SP","FM-12","99999","V020","150,1,N,0015,1","00210,1,9,N","006000,1,N,1","+0072,1","+0068,1","09878,1","06,0099,9,1",,,"6,1,06,1","2,1,06,1",,"08,99,1,08,1,07,1,00250,1,99,9,99,9",,,,,"99999,9,09244,1","7,1,031,1,+999,9","63,1","SYN088AAXX  27124 08053 11356 81503 10072 20068 39244 49878 57031 60101 76362 887// 333 50233;",
"08053099999","2010-02-28T06:00:00","4","42.5666666","-6.6","550.0","PONFERRADA, SP","FM-12","99999","V020","260,1,N,0010,1","03600,1,9,N","010000,1,N,1","+0050,1","+0022,1","10056,1","12,0010,9,1","24,0142,9,1",,,,,"07,99,1,04,1,05,1,00250,1,04,1,99,9","0108,9","09,9","999,+0030,9","999,N,+0050,1","99999,9,09405,1","2,1,020,1,+999,9","02,1","SYN106AAXX  28064 08053 11360 72602 10050 20022 39405 40056 52020 60012 702// 8454/ 333 20050 31003 55018 70142;",
"08053099999","2010-02-28T09:00:00","4","42.5666666","-6.6","550.0","PONFERRADA, SP","FM-12","99999","V020","250,1,N,0010,1","03600,1,9,N","015000,1,N,1","+0080,1","+0035,1","10073,1",,,,"5,1,03,1","2,1,03,1",,"05,99,1,03,1,04,1,00250,1,06,1,00,1",,,,,"99999,9,09428,1","1,1,023,1,+999,9","01,1","SYN072AAXX  28094 08053 41365 52502 10080 20035 39428 40073 51023 70152 83460;",
"08053099999","2010-02-28T12:00:00","4","42.5666666","-6.6","550.0","PONFERRADA, SP","FM-12","99999","V020","300,1,N,0021,1","09000,1,9,N","025000,1,N,1","+0106,1","+0024,1","10070,1","06,0000,9,1",,,"5,1,06,1","2,1,06,1",,"05,99,1,02,1,04,1,00250,1,06,1,01,1",,,,,"99999,9,09430,1","0,1,002,1,+999,9","02,1","SYN088AAXX  28124 08053 11375 53004 10106 20024 39430 40070 50002 69921 70252 82461 333 50133;","Q01  00002PRCP06"
"08053099999","2010-03-01T06:00:00","4","42.5666666","-6.6","550.0","PONFERRADA, SP","FM-12","99999","V020","360,1,N,0010,1","03600,1,9,N","010000,1,N,1","+0056,1","+0033,1","10110,1","12,0030,9,2","24,0028,9,2",,,,,"06,99,1,03,1,05,1,00250,1,04,1,00,1",,"11,9","999,+0030,9","999,N,+0046,1","99999,9,09457,1","2,1,024,1,+999,9","21,1","SYN106AAXX  01064 08053 11360 63602 10056 20033 39457 40110 52024 60032 721// 83540 333 20046 32003 55/// 70028;",
"08053099999","2010-03-01T09:00:00","4","42.5666666","-6.6","550.0","PONFERRADA, SP","FM-12","99999","V020","280,1,N,0026,1","03600,1,9,N","020000,1,N,1","+0060,1","+0037,1","10137,1",,,,,,,"06,99,1,03,1,05,1,00250,1,04,1,00,1",,,,,"99999,9,09483,1","2,1,026,1,+999,9",,"SYN066AAXX  01094 08053 42370 62805 10060 20037 39483 40137 52026 83540;",
"08053099999","2010-03-01T12:00:00","4","42.5666666","-6.6","550.0","PONFERRADA, SP","FM-12","99999","V020","270,1,N,0041,1","00210,1,9,N","022000,1,N,1","+0094,1","+0056,1","10151,1","06,0010,9,1",,,"6,1,06,1","1,1,06,1",,"05,99,1,05,1,07,1,00250,1,00,1,00,1",,,,,"99999,9,09504,1","2,1,021,1,+999,9","21,1","SYN088AAXX  01124 08053 11372 52708 10094 20056 39504 40151 52021 60011 72161 85700 333 50153;",
"08053099999","2010-03-02T06:00:00","4","42.5666666","-6.6","550.0","PONFERRADA, SP","FM-12","99999","V020","080,1,N,0005,1","22000,1,9,N","012000,1,N,1","+0000,1","-0006,1","10191,1","12,0000,9,1","24,0013,9,1",,,,,"04,99,1,02,1,05,1,00250,1,04,1,00,1","0366,9","14,9","999,-0020,9","999,N,-0002,1","99999,9,09519,1","6,1,008,1,+999,9","02,1","SYN106AAXX  02064 08053 11362 40801 10000 21006 39519 40191 56008 60002 702// 82540 333 21002 34102 55061 70012;","Q01  00002PRCP12"
"08053099999","2010-03-02T09:00:00","4","42.5666666","-6.6","550.0","PONFERRADA, SP","FM-12","99999","V020","080,1,N,0067,1","22000,1,9,N","022000,1,N,1","+0080,1","+0035,1","10151,1",,,,,,,"03,99,1,01,1,05,1,00250,1,04,1,01,1",,,,,"99999,9,09501,1","6,1,018,1,+999,9",,"SYN066AAXX  02094 08053 42372 30813 10080 20035 39501 40151 56018 81541;",
"08053099999","2010-03-02T12:00:00","4","42.5666666","-6.6","550.0","PONFERRADA, SP","FM-12","99999","V020","120,1,N,0093,1","03600,1,9,N","025000,1,N,1","+0120,1","+0059,1","10130,1","06,0000,9,1",,,,,,"06,99,1,03,1,05,1,00250,1,04,1,01,1",,,,,"99999,9,09490,1","8,1,011,1,+999,9",,"SYN082AAXX  02124 08053 12375 61218 10120 20059 39490 40130 58011 60001 83541 333 50103;","Q01  00002PRCP06"
"08053099999","2010-03-03T06:00:00","4","42.5666666","-6.6","550.0","PONFERRADA, SP","FM-12","99999","V020","080,1,N,0051,1","03600,1,9,N","010000,1,N,1","+0090,1","+0042,1","10045,1","12,0000,9,1","24,0000,9,1",,,,,"05,99,1,02,1,05,1,00250,1,04,1,00,1","0360,9","01,9","999,+0070,9","999,N,+0090,1","99999,9,09404,1","5,1,002,1,+999,9","02,1","SYN106AAXX  03064 08053 11360 50810 10090 20042 39404 40045 55002 60002 702// 82540 333 20090 30007 55060 70000;","Q01  00002PRCP24Q02  00002PRCP12"
"08053099999","2010-03-03T09:00:00","4","42.5666666","-6.6","550.0","PONFERRADA, SP","FM-12","99999","V020","080,1,N,0041,1","00210,1,9,N","008000,1,N,1","+0080,1","+0058,1","10062,1",,,,"6,1,03,1","5,1,03,1",,"08,99,1,08,1,07,1,00250,1,99,9,99,9",,,,,"99999,9,09418,1","2,1,014,1,+999,9","61,1","SYN072AAXX  03094 08053 41358 80808 10080 20058 39418 40062 52014 76165 887//;",
"08053099999","2010-03-03T12:00:00","4","42.5666666","-6.6","550.0","PONFERRADA, SP","FM-12","99999","V020","240,1,N,0015,1","00210,1,9,N","010000,1,N,1","+0086,1","+0078,1","10075,1","06,0005,9,1",,,"6,1,06,1","5,1,06,1",,"08,99,1,08,1,07,1,00250,1,99,9,99,9",,,,,"99999,9,09432,1","2,1,014,1,+999,9","21,1","SYN088AAXX  03124 08053 11360 82403 10086 20078 39432 40075 52014 69961 72165 887// 333 50363;",
"08053099999","2010-03-04T06:00:00","4","42.5666666","-6.6","550.0","PONFERRADA, SP","FM-12","99999","V020","999,9,C,0000,1","09000,1,9,N","012000,1,N,1","+0058,1","+0054,1","10141,1","12,0000,9,1","24,0023,9,1",,,,,"05,99,1,02,1,05,1,00250,1,04,1,01,1","0000,9","01,9","999,+0040,9","999,N,+0058,1","99999,9,09487,1","2,1,008,1,+999,9","02,1","SYN106AAXX  04064 08053 11362 50000 10058 20054 39487 40141 52008 60002 702// 82541 333 20058 30004 55000 70022;","Q01  00002PRCP12"
"08053099999","2010-03-04T09:00:00","4","42.5666666","-6.6","550.0","PONFERRADA, SP","FM-12","99999","V020","290,1,N,0015,1","00210,1,9,N","002000,1,N,1","+0066,1","+0062,1","10162,1",,,,"2,1,03,1","2,1,03,1",,"08,99,1,08,1,07,1,00250,1,99,9,99,9",,,,,"99999,9,09508,1","2,1,021,1,+999,9","10,1","SYN072AAXX  04094 08053 41320 82903 10066 20062 39508 40162 52021 71022 887//;",
"08053099999","2010-03-04T12:00:00","4","42.5666666","-6.6","550.0","PONFERRADA, SP","FM-12","99999","V020","270,1,N,0015,1","00420,1,9,N","028000,1,N,1","+0120,1","+0063,1","10152,1","06,0000,9,1",,,,,,"05,99,1,05,1,02,1,00450,1,00,1,00,1",,,,,"99999,9,09511,1","0,1,003,1,+999,9",,"SYN082AAXX  04124 08053 12478 52703 10120 20063 39511 40152 50003 60001 85200 333 50053;","Q01  00002PRCP06"
"08053099999","2010-03-05T06:00:00","4","42.5666666","-6.6","550.0","PONFERRADA, SP","FM-12","99999","V020","350,1,N,0005,1","00210,1,9,N","006000,1,N,1","+0030,1","+0020,1","10179,1","12,0000,9,1","24,0000,9,1",,,,,"08,99,1,08,1,07,1,00250,1,99,9,99,9","0486,9","01,9","999,+0000,9","999,N,+0024,1","99999,9,09515,1","7,1,004,1,+999,9","10,1","SYN106AAXX  05064 08053 11356 83501 10030 20020 39515 40179 57004 60002 710// 887// 333 20024 30000 55081 70000;","Q01  00002PRCP24Q02  00002PRCP12"
"08053099999","2010-03-05T09:00:00","4","42.5666666","-6.6","550.0","PONFERRADA, SP","FM-12","99999","V020","090,1,N,0036,1","03600,1,9,N","015000,1,N,1","+0076,1","+0031,1","10176,1",,,,,,,"07,99,1,03,1,07,1,00250,1,07,1,99,9",,,,,"99999,9,09523,1","3,1,008,1,+999,9",,"SYN066AAXX  05094 08053 42365 70907 10076 20031 39523 40176 53008 8377/;",
"08053099999","2010-03-05T12:00:00","4","42.5666666","-6.6","550.0","PONFERRADA, SP","FM-12","99999","V020","130,1,N,0057,1","01500,1,9,N","018000,1,N,1","+0090,1","+0014,1","10174,1","06,0000,9,1",,,,,,"08,99,1,08,1,00,1,01750,1,07,1,99,9",,,,,"99999,9,09524,1","3,1,001,1,+999,9",,"SYN082AAXX  05124 08053 12768 81311 10090 20014 39524 40174 53001 60001 8807/ 333 50203;","Q01  00002PRCP06"
"08053099999","2010-03-06T06:00:00","4","42.5666666","-6.6","550.0","PONFERRADA, SP","FM-12","99999","V020","090,1,N,0057,1","03600,1,9,N","008000,1,N,1","+0048,1","+0018,1","10142,1","12,0000,9,1","24,0000,9,1",,,,,"06,99,1,03,1,05,1,00250,1,04,1,00,1","0138,9","09,9","999,+0020,9","999,N,+0042,1","99999,9,09485,1","6,1,008,1,+999,9","10,1","SYN106AAXX  06064 08053 11358 60911 10048 20018 39485 40142 56008 60002 710// 83540 333 20042 31002 55023 70000;","Q01  00002PRCP24Q02  00002PRCP12"
"08053099999","2010-03-06T09:00:00","4","42.5666666","-6.6","550.0","PONFERRADA, SP","FM-12","99999","V020","080,1,N,0062,1","03600,1,9,N","015000,1,N,1","+0062,1","+0030,1","10140,1",,,,,,,"08,99,1,03,1,07,1,00250,1,07,1,99,9",,,,,"99999,9,09486,1","3,1,001,1,+999,9",,"SYN066AAXX  06094 08053 42365 80812 10062 20030 39486 40140 53001 8377/;",
"08053099999","2010-03-06T12:00:00","4","42.5666666","-6.6","550.0","PONFERRADA, SP","FM-12","99999","V020","100,1,N,0067,1","03600,1,9,N","018000,1,N,1","+0096,1","+0018,1","10131,1","06,0000,9,1",,,,,,"08,99,1,03,1,07,1,00250,1,07,1,99,9",,,,,"99999,9,09485,1","6,1,001,1,+999,9",,"SYN082AAXX  06124 08053 12368 81013 10096 20018 39485 40131 56001 60001 8377/ 333 50263;","Q01  00002PRCP06"
"08053099999","2010-03-07T06:00:00","4","42.5666666","-6.6","550.0","PONFERRADA, SP","FM-12","99999","V020","210,1,N,0005,1","00210,1,9,N","008000,1,N,1","+0054,1","+0042,1","10135,1","12,0008,9,1","24,0008,9,1",,,,,"08,99,1,08,1,07,1,00250,1,99,9,99,9","0066,9","09,9","999,+0030,9","999,N,+0054,1","99999,9,09480,1","5,1,000,1,+999,9","60,1","SYN106AAXX  07064 08053 11358 82101 10054 20042 39480 40135 55000 69982 760// 887// 333 20054 31003 55011 70008;",
"08053099999","2010-03-07T09:00:00","4","42.5666666","-6.6","550.0","PONFERRADA, SP","FM-12","99999","V020","140,1,N,0005,1","00210,1,9,N","006000,1,N,1","+0050,1","+0041,1","10141,1",,,,"6,1,03,1","2,1,03,1",,"08,99,1,08,1,07,1,00250,1,99,9,99,9",,,,,"99999,9,09485,1","1,1,005,1,+999,9","63,1","SYN072AAXX  07094 08053 41356 81401 10050 20041 39485 40141 51005 76362 887//;",
"08053099999","2010-03-07T12:00:00","4","42.5666666","-6.6","550.0","PONFERRADA, SP","FM-12","99999","V020","100,1,N,0015,1","00210,1,9,N","006000,1,N,1","+0064,1","+0041,1","10137,1","06,0061,9,1",,,"6,1,06,1","2,1,06,1",,"08,99,1,08,1,07,1,00250,1,99,9,99,9",,,,,"99999,9,09484,1","8,1,001,1,+999,9","63,1","SYN088AAXX  07124 08053 11356 81003 10064 20041 39484 40137 58001 60061 76362 887// 333 50223;",
"08053099999","2010-03-08T06:00:00","4","42.5666666","-6.6","550.0","PONFERRADA, SP","FM-12","99999","V020","110,1,N,0010,1","22000,1,9,N","012000,1,N,1","-0004,1","-0056,1","10157,1","12,0005,9,1","24,0066,9,1",,,,"00,1,+99999,9,99,9","00,99,1,00,1,00,1,99999,9,00,1,00,1","0000,9","14,9","999,-0020,9","999,N,-0004,1","99999,9,09486,1","5,1,000,1,+999,9","00,1","SYN100AAXX  08064 08053 11962 01102 11004 21056 39486 40157 55000 69942 700// 333 21004 34102 55000 70066;",
"08053099999","2010-03-08T09:00:00","4","42.5666666","-6.6","550.0","PONFERRADA, SP","FM-12","99999","V020","120,1,N,0021,1","22000,1,9,N","022000,1,N,1","+0028,1","-0058,1","10155,1",,,,,,"00,1,+99999,9,99,9","00,99,1,00,1,00,1,99999,9,00,1,00,1",,,,,"99999,9,09492,1","0,1,006,1,+999,9",,"SYN060AAXX  08094 08053 42972 01204 10028 21058 39492 40155 50006;",
"08053099999","2010-03-08T12:00:00","4","42.5666666","-6.6","550.0","PONFERRADA, SP","FM-12","99999","V020","300,1,N,0015,1","09000,1,9,N","028000,1,N,1","+0062,1","-0037,1","10127,1","06,0000,9,1",,,,,,"05,99,1,02,1,01,1,00800,1,04,1,01,1",,,,,"99999,9,09473,1","8,1,019,1,+999,9",,"SYN082AAXX  08124 08053 12578 53003 10062 21037 39473 40127 58019 60001 82141 333 5///3;","Q01  00002PRCP06"
"08053099999","2010-03-09T06:00:00","4","42.5666666","-6.6","550.0","PONFERRADA, SP","FM-12","99999","V020","120,1,N,0010,1","22000,1,9,N","012000,1,N,1","-0036,1","-0049,1","10157,1","12,0000,9,1","24,0000,9,1",,,,"00,1,+99999,9,99,9","00,99,1,00,1,00,1,99999,9,00,1,00,1","0564,9","14,9","999,-0060,9","999,N,-0038,1","99999,9,09479,1","3,1,013,1,+999,9","00,1","SYN100AAXX  09064 08053 11962 01202 11036 21049 39479 40157 53013 60002 700// 333 21038 34106 55094 70000;","Q01  00002PRCP24Q02  00002PRCP12"
"08053099999","2010-03-09T09:00:00","4","42.5666666","-6.6","550.0","PONFERRADA, SP","FM-12","99999","V020","250,1,N,0010,1","22000,1,9,N","020000,1,N,1","+0010,1","-0024,1","10180,1",,,,,,"00,1,+99999,9,99,9","00,99,1,00,1,00,1,99999,9,00,1,00,1",,,,,"99999,9,09511,1","2,1,032,1,+999,9",,"SYN060AAXX  09094 08053 42970 02502 10010 21024 39511 40180 52032;",
"08053099999","2010-03-09T12:00:00","4","42.5666666","-6.6","550.0","PONFERRADA, SP","FM-12","99999","V020","220,1,N,0010,1","22000,1,9,N","020000,1,N,1","+0072,1","-0022,1","10171,1","06,0000,9,1",,,,,"00,1,+99999,9,99,9","00,99,1,00,1,00,1,99999,9,00,1,00,1",,,,,"99999,9,09517,1","0,1,006,1,+999,9",,"SYN076AAXX  09124 08053 12970 02202 10072 21022 39517 40171 50006 60001 333 5///3;","Q01  00002PRCP06"
"08053099999","2010-03-10T06:00:00","4","42.5666666","-6.6","550.0","PONFERRADA, SP","FM-12","99999","V020","999,9,C,0000,1","22000,1,9,N","018000,1,N,1","-0044,1","-0058,1","10211,1","12,0000,9,1","24,0000,9,1",,,,"00,1,+99999,9,99,9","00,99,1,00,1,00,1,99999,9,00,1,00,1","0660,9","14,9","999,-0060,9","999,N,-0044,1","99999,9,09527,1","5,1,004,1,+999,9","00,1","SYN100AAXX  10064 08053 11968 00000 11044 21058 39527 40211 55004 60002 700// 333 21044 34106 55110 70000;","Q01  00002PRCP24Q02  00002PRCP12"
"08053099999","2010-03-10T09:00:00","4","42.5666666","-6.6","550.0","PONFERRADA, SP","FM-12","99999","V020","250,1,N,0015,1","22000,1,9,N","025000,1,N,1","-0014,1","-0039,1","10211,1",,,,,,"00,1,+99999,9,99,9","00,99,1,00,1,00,1,99999,9,00,1,00,1",,,,,"99999,9,09534,1","0,1,007,1,+999,9",,"SYN060AAXX  10094 08053 42975 02503 11014 21039 39534 40211 50007;",
"08053099999","2010-03-10T12:00:00","4","42.5666666","-6.6","550.0","PONFERRADA, SP","FM-12","99999","V020","270,1,N,0015,1","22000,1,9,N","028000,1,N,1","+0064,1","-0035,1","10169,1","06,0000,9,1",,,,,"00,1,+99999,9,99,9","00,99,1,00,1,00,1,99999,9,00,1,00,1",,,,,"99999,9,09513,1","7,1,021,1,+999,9",,"SYN076AAXX  10124 08053 12978 02703 10064 21035 39513 40169 57021 60001 333 5///3;","Q01  00002PRCP06"
"08053099999","2010-03-11T06:00:00","4","42.5666666","-6.6","550.0","PONFERRADA, SP","FM-12","99999","V020","170,1,N,0005,1","22000,1,9,N","020000,1,N,1","-0026,1","-0052,1","10192,1","12,0000,9,1","24,0000,9,1",,,,"00,1,+99999,9,99,9","00,99,1,00,1,00,1,99999,9,00,1,00,1","0660,9","14,9","999,-0050,9","999,N,-0034,1","99999,9,09514,1","5,1,000,1,+999,9","00,1","SYN100AAXX  11064 08053 11970 01701 11026 21052 39514 40192 55000 60002 700// 333 21034 34105 55110 70000;","Q01  00002PRCP24Q02  00002PRCP12"
"08053099999","2010-03-11T09:00:00","4","42.5666666","-6.6","550.0","PONFERRADA, SP","FM-12","99999","V020","290,1,N,0010,1","22000,1,9,N","022000,1,N,1","+0000,1","-0035,1","10199,1",,,,,,,"02,99,1,00,1,00,1,99999,9,00,1,02,1",,,,,"99999,9,09526,1","1,1,012,1,+999,9",,"SYN066AAXX  11094 08053 42972 22902 10000 21035 39526 40199 51012 80002;",
"08053099999","2010-03-12T06:00:00","4","42.5666666","-6.6","550.0","PONFERRADA, SP","FM-12","99999","V020","999,9,C,0000,1","22000,1,9,N","020000,1,N,1","-0028,1","-0035,1","10228,1","12,0000,9,1","24,0000,9,1",,,,,"01,99,1,00,1,00,1,99999,9,00,1,01,1","0618,9","14,9","999,-0050,9","999,N,-0028,1","99999,9,09547,1","3,1,011,1,+999,9","02,1","SYN106AAXX  12064 08053 11970 10000 11028 21035 39547 40228 53011 60002 702// 80001 333 21028 34105 55103 70000;","Q01  00002PRCP24Q02  00002PRCP12"
"08053099999","2010-03-12T09:00:00","4","42.5666666","-6.6","550.0","PONFERRADA, SP","FM-12","99999","V020","310,1,N,0010,1","22000,1,9,N","022000,1,N,1","+0016,1","-0023,1","10239,1",,,,,,,"02,99,1,00,1,00,1,99999,9,00,1,01,1",,,,,"99999,9,09568,1","2,1,021,1,+999,9",,"SYN066AAXX  12094 08053 42872 23102 10016 21023 39568 40239 52021 80001;","Q01+022502SCOLCB"
"08053099999","2010-03-12T12:00:00","4","42.5666666","-6.6","550.0","PONFERRADA, SP","FM-12","99999","V020","290,1,N,0021,1","22000,1,9,N","022000,1,N,1","+0082,1","+0016,1","10221,1","06,0000,9,1",,,,,,"02,99,1,00,1,00,1,99999,9,00,1,01,1",,,,,"99999,9,09566,1","8,1,002,1,+999,9",,"SYN082AAXX  12124 08053 12972 22904 10082 20016 39566 40221 58002 60001 80001 333 5///3;","Q01  00002PRCP06"
"08053099999","2010-03-13T06:00:00","4","42.5666666","-6.6","550.0","PONFERRADA, SP","FM-12","99999","V020","999,9,9,9999,9","22000,1,9,N","012000,1,N,1","-0022,1","-0041,1","10298,1","12,0000,9,1","24,0000,9,1",,,,"00,1,+99999,9,99,9","00,99,1,00,1,00,1,99999,9,00,1,00,1","0654,9","14,9","999,-0040,9","999,N,-0022,1","99999,9,09614,1","3,1,007,1,+999,9","00,1","SYN100AAXX  13064 08053 11962 0//// 11022 21041 39614 40298 53007 60002 700// 333 21022 34104 55109 70000;","Q01  00002PRCP24Q02  00002PRCP12"
"08053099999","2010-03-13T09:00:00","4","42.5666666","-6.6","550.0","PONFERRADA, SP","FM-12","99999","V020","290,1,N,0015,1","03600,1,9,N","018000,1,N,1","+0028,1","-0015,1","10300,1",,,,,,,"05,99,1,02,1,05,1,00250,1,04,1,00,1",,,,,"99999,9,09628,1","1,1,014,1,+999,9",,"SYN066AAXX  13094 08053 42368 52903 10028 21015 39628 40300 51014 82540;",
"08053099999","2010-03-13T12:00:00","4","42.5666666","-6.6","550.0","PONFERRADA, SP","FM-12","99999","V020","270,1,N,0021,1","03600,1,9,N","020000,1,N,1","+0074,1","+0017,1","10283,1","06,0000,9,1",,,,,,"05,99,1,02,1,04,1,00250,1,06,1,00,1",,,,,"99999,9,09623,1","8,1,005,1,+999,9",,"SYN082AAXX  13124 08053 12370 52704 10074 20017 39623 40283 58005 60001 82460 333 5///3;","Q01  00002PRCP06"
"08053099999","2010-03-14T06:00:00","4","42.5666666","-6.6","550.0","PONFERRADA, SP","FM-12","99999","V020","110,1,N,0010,1","22000,1,9,N","018000,1,N,1","-0026,1","-0026,1","10330,1","12,0000,9,1","24,0005,9,1",,,,,"01,99,1,00,1,00,1,99999,9,00,1,02,1","0378,9","14,9","999,-0050,9","999,N,-0026,1","99999,9,09643,1","3,1,006,1,+999,9","02,1","SYN106AAXX  14064 08053 11968 11102 11026 21026 39643 40330 53006 60002 702// 80002 333 21026 34105 55063 70006;","Q01  00002PRCP12"
"08053099999","2010-03-14T09:00:00","4","42.5666666","-6.6","550.0","PONFERRADA, SP","FM-12","99999","V020","280,1,N,0015,1","22000,1,9,N","018000,1,N,1","+0012,1","-0004,1","10336,1",,,,,,"00,1,+99999,9,99,9","00,99,1,00,1,00,1,99999,9,00,1,00,1",,,,,"99999,9,09658,1","2,1,015,1,+999,9",,"SYN060AAXX  14094 08053 42968 02803 10012 21004 39658 40336 52015;",
"08053099999","2010-03-14T12:00:00","4","42.5666666","-6.6","550.0","PONFERRADA, SP","FM-12","99999","V020","250,1,N,0015,1","22000,1,9,N","025000,1,N,1","+0076,1","+0008,1","10308,1","06,0000,9,1",,,,,"00,1,+99999,9,99,9","00,99,1,00,1,00,1,99999,9,00,1,00,1",,,,,"99999,9,09646,1","8,1,012,1,+999,9",,"SYN076AAXX  14124 08053 12975 02503 10076 20008 39646 40308 58012 60001 333 5///3;","Q01  00002PRCP06"
"08053099999","2010-03-15T06:00:00","4","42.5666666","-6.6","550.0","PONFERRADA, SP","FM-12","99999","V020","100,1,N,0010,1","22000,1,9,N","020000,1,N,1","-0014,1","-0020,1","10305,1","12,0000,9,1","24,0000,9,1",,,,"00,1,+99999,9,99,9","00,99,1,00,1,00,1,99999,9,00,1,00,1","0672,9","14,9","999,-0030,9","999,N,-0014,1","99999,9,09622,1","5,1,008,1,+999,9","00,1","SYN100AAXX  15064 08053 11970 01002 11014 21020 39622 40305 55008 60002 700// 333 21014 34103 55112 70000;","Q01  00002PRCP24Q02  00002PRCP12"
"08053099999","2010-03-15T09:00:00","4","42.5666666","-6.6","550.0","PONFERRADA, SP","FM-12","99999","V020","220,1,N,0010,1","22000,1,9,N","025000,1,N,1","+0030,1","-0008,1","10300,1",,,,,,"00,1,+99999,9,99,9","00,99,1,00,1,00,1,99999,9,00,1,00,1",,,,,"99999,9,09628,1","3,1,006,1,+999,9",,"SYN060AAXX  15094 08053 42975 02202 10030 21008 39628 40300 53006;",
"08053099999","2010-03-15T12:00:00","4","42.5666666","-6.6","550.0","PONFERRADA, SP","FM-12","99999","V020","260,1,N,0021,1","22000,1,9,N","025000,1,N,1","+0110,1","+0018,1","10266,1","06,0000,9,1",,,,,,"01,99,1,00,1,00,1,99999,9,00,1,01,1",,,,,"99999,9,09615,1","8,1,013,1,+999,9",,"SYN082AAXX  15124 08053 12975 12604 10110 20018 39615 40266 58013 60001 80001 333 5///3;","Q01  00002PRCP06"
"08053099999","2010-03-16T06:00:00","4","42.5666666","-6.6","550.0","PONFERRADA, SP","FM-12","99999","V020","999,9,C,0000,1","22000,1,9,N","018000,1,N,1","-0012,1","-0031,1","10269,1","12,0000,9,1","24,0000,9,1",,,,"00,1,+99999,9,99,9","00,99,1,00,1,00,1,99999,9,00,1,00,1","0666,9","14,9","999,-0030,9","999,N,-0012,1","99999,9,09589,1","3,1,003,1,+999,9","00,1","SYN100AAXX  16064 08053 11968 00000 11012 21031 39589 40269 53003 60002 700// 333 21012 34103 55111 70000;","Q01  00002PRCP24Q02  00002PRCP12"
"08053099999","2010-03-16T09:00:00","4","42.5666666","-6.6","550.0","PONFERRADA, SP","FM-12","99999","V020","280,1,N,0015,1","09000,1,9,N","018000,1,N,1","+0034,1","-0015,1","10265,1",,,,,,,"07,99,1,04,1,00,1,01750,1,04,1,02,1",,,,,"99999,9,09596,1","2,1,007,1,+999,9",,"SYN066AAXX  16094 08053 42768 72803 10034 21015 39596 40265 52007 84042;",
"08053099999","2010-03-16T12:00:00","4","42.5666666","-6.6","550.0","PONFERRADA, SP","FM-12","99999","V020","270,1,N,0010,1","09000,1,9,N","022000,1,N,1","+0104,1","+0010,1","10242,1","06,0000,9,1",,,,,,"07,99,1,04,1,00,1,01750,1,07,1,02,1",,,,,"99999,9,09591,1","8,1,005,1,+999,9",,"SYN082AAXX  16124 08053 12772 72702 10104 20010 39591 40242 58005 60001 84072 333 5///3;","Q01  00002PRCP06"
"08053099999","2010-03-17T06:00:00","4","42.5666666","-6.6","550.0","PONFERRADA, SP","FM-12","99999","V020","240,1,N,0010,1","22000,1,9,N","018000,1,N,1","-0004,1","-0015,1","10286,1","12,0000,9,1","24,0000,9,1",,,,"00,1,+99999,9,99,9","00,99,1,00,1,00,1,99999,9,00,1,00,1","0342,9","14,9","999,-0020,9","999,N,-0004,1","99999,9,09607,1","3,1,004,1,+999,9","00,1","SYN100AAXX  17064 08053 11968 02402 11004 21015 39607 40286 53004 60002 700// 333 21004 34102 55057 70000;","Q01  00002PRCP24Q02  00002PRCP12"
"08053099999","2010-03-17T09:00:00","4","42.5666666","-6.6","550.0","PONFERRADA, SP","FM-12","99999","V020","260,1,N,0010,1","22000,1,9,N","022000,1,N,1","+0032,1","-0017,1","10283,1",,,,,,,"02,99,1,00,1,00,1,99999,9,00,1,01,1",,,,,"99999,9,09613,1","1,1,006,1,+999,9",,"SYN066AAXX  17094 08053 42872 22602 10032 21017 39613 40283 51006 80001;","Q01+022502SCOLCB"
"08053099999","2010-03-17T12:00:00","4","42.5666666","-6.6","550.0","PONFERRADA, SP","FM-12","99999","V020","280,1,N,0015,1","22000,1,9,N","025000,1,N,1","+0120,1","+0013,1","10248,1","06,0000,9,1",,,,,,"02,99,1,00,1,00,1,99999,9,00,1,02,1",,,,,"99999,9,09600,1","8,1,013,1,+999,9",,"SYN082AAXX  17124 08053 12875 22803 10120 20013 39600 40248 58013 60001 80002 333 5///3;","Q01+022502SCOLCBQ02  00002PRCP06"
"08053099999","2010-03-18T06:00:00","4","42.5666666","-6.6","550.0","PONFERRADA, SP","FM-12","99999","V020","040,1,N,0010,1","00210,1,9,N","008000,1,N,1","+0102,1","+0046,1","10205,1","12,9999,9,9","24,9999,9,9",,,,,"07,99,1,05,1,07,1,00250,1,02,1,99,9","0600,9","09,9","999,+0070,9","999,N,+0094,1","99999,9,09556,1","3,1,001,1,+999,9","60,1","SYN106AAXX  18064 08053 11358 70402 10102 20046 39556 40205 53001 69902 760/6 8572/ 333 20094 31007 55100 79999;","Q01  00002PRCP24Q02  00002PRCP12Q03  00002PRCP12Q04  00002PRCP24"
"08053099999","2010-03-18T09:00:00","4","42.5666666","-6.6","550.0","PONFERRADA, SP","FM-12","99999","V020","270,1,N,0021,1","00210,1,9,N","008000,1,N,1","+0106,1","+0087,1","10215,1",,,,"6,1,03,1","2,1,03,1",,"08,99,1,06,1,07,1,00250,1,07,1,99,9",,,,,"99999,9,09567,1","2,1,011,1,+999,9","63,1","SYN072AAXX  18094 08053 41358 82704 10106 20087 39567 40215 52011 76362 8677/;",
"08053099999","2010-03-18T12:00:00","4","42.5666666","-6.6","550.0","PONFERRADA, SP","FM-12","99999","V020","060,1,N,0031,1","03600,1,9,N","020000,1,N,1","+0148,1","+0092,1","10202,1","06,0020,9,1",,,"6,1,06,1","2,1,06,1",,"07,99,1,03,1,07,1,00450,1,07,1,99,9",,,,,"99999,9,09564,1","8,1,003,1,+999,9","01,1","SYN088AAXX  18124 08053 11470 70606 10148 20092 39564 40202 58003 60021 70162 8377/ 333 51193;",
"08053099999","2010-03-19T06:00:00","4","42.5666666","-6.6","550.0","PONFERRADA, SP","FM-12","99999","V020","040,1,N,0010,1","00210,1,9,N","008000,1,N,1","+0106,1","+0098,1","10168,1","12,9999,9,9","24,0025,9,1",,,,,"08,99,1,06,1,07,1,00250,1,02,1,99,9","0150,9","09,9","999,+0080,9","999,N,+0106,1","99999,9,09523,1","7,1,018,1,+999,9","21,1","SYN106AAXX  19064 08053 11358 80402 10106 20098 39523 40168 57018 69902 721/6 8672/ 333 20106 31008 55025 70026;","Q01  00002PRCP12Q02  00002PRCP12"
"08053099999","2010-03-19T09:00:00","4","42.5666666","-6.6","550.0","PONFERRADA, SP","FM-12","99999","V020","100,1,N,0010,1","00210,1,9,N","006000,1,N,1","+0112,1","+0109,1","10185,1",,,,"6,1,03,1","2,1,03,1",,"08,99,1,06,1,07,1,00250,1,02,1,99,9",,,,,"99999,9,09541,1","3,1,018,1,+999,9","60,1","SYN072AAXX  19094 08053 41356 81002 10112 20109 39541 40185 53018 76062 8672/;",
"08053099999","2010-03-19T12:00:00","4","42.5666666","-6.6","550.0","PONFERRADA, SP","FM-12","99999","V020","010,1,N,0010,1","00120,1,9,N","025000,1,N,1","+0138,1","+0108,1","10176,1","06,0041,9,1",,,"6,1,06,1","2,1,06,1",,"08,99,1,06,1,07,1,00150,1,02,1,99,9",,,,,"99999,9,09538,1","8,1,003,1,+999,9","02,1","SYN088AAXX  19124 08053 11275 80102 10138 20108 39538 40176 58003 60041 70262 8672/ 333 50343;",
"08053099999","2010-03-20T06:00:00","4","42.5666666","-6.6","550.0","PONFERRADA, SP","FM-12","99999","V020","230,1,N,0015,1","00210,1,9,N","008000,1,N,1","+0110,1","+0107,1","10144,1","12,0061,9,1","24,0102,9,1",,,,,"08,99,1,08,1,07,1,00250,1,99,9,99,9","0126,9","11,9","999,+0090,9","999,N,+0110,1","99999,9,09502,1","7,1,004,1,+999,9","63,1","SYN106AAXX  20064 08053 11358 82303 10110 20107 39502 40144 57004 60062 763// 887// 333 20110 32009 55021 70102;",
"08053099999","2010-03-20T09:00:00","4","42.5666666","-6.6","550.0","PONFERRADA, SP","FM-12","99999","V020","330,1,N,0005,1","00210,1,9,N","008000,1,N,1","+0122,1","+0119,1","10146,1",,,,"6,1,03,1","2,1,03,1",,"08,99,1,08,1,07,1,00250,1,99,9,99,9",,,,,"99999,9,09507,1","1,1,005,1,+999,9","63,1","SYN072AAXX  20094 08053 41358 83301 10122 20119 39507 40146 51005 76362 887//;",
"08053099999","2010-03-20T12:00:00","4","42.5666666","-6.6","550.0","PONFERRADA, SP","FM-12","99999","V020","200,1,N,0005,1","03600,1,9,N","020000,1,N,1","+0170,1","+0117,1","10132,1","06,0071,9,1",,,"6,1,06,1","2,1,06,1",,"07,99,1,03,1,05,1,00250,1,04,1,00,1",,,,,"99999,9,09504,1","8,1,003,1,+999,9","21,1","SYN088AAXX  20124 08053 11370 72001 10170 20117 39504 40132 58003 60071 72162 83540 333 50143;",
"08053099999","2010-03-21T06:00:00","4","42.5666666","-6.6","550.0","PONFERRADA, SP","FM-12","99999","V020","999,9,C,0000,1","03600,1,9,N","006000,1,N,1","+0096,1","+0091,1","10202,1","12,0020,9,1","24,0124,9,1",,,,,"07,99,1,03,1,07,1,00250,1,04,1,99,9","0084,9","11,9","999,+0080,9","999,N,+0096,1","99999,9,09553,1","3,1,003,1,+999,9","10,1","SYN106AAXX  21064 08053 11356 70000 10096 20091 39553 40202 53003 60022 710// 8374/ 333 20096 32008 55014 70124;",
"08053099999","2010-03-21T09:00:00","4","42.5666666","-6.6","550.0","PONFERRADA, SP","FM-12","99999","V020","999,9,C,0000,1","00210,1,9,N","005000,1,N,1","+0104,1","+0096,1","10214,1",,,,"2,1,03,1","2,1,03,1",,"08,99,1,08,1,07,1,00250,1,99,9,99,9",,,,,"99999,9,09566,1","3,1,013,1,+999,9","10,1","SYN072AAXX  21094 08053 41350 80000 10104 20096 39566 40214 53013 71022 887//;",
"08053099999","2010-03-21T12:00:00","4","42.5666666","-6.6","550.0","PONFERRADA, SP","FM-12","99999","V020","140,1,N,0015,1","03600,1,9,N","018000,1,N,1","+0144,1","+0098,1","10201,1","06,0000,9,1",,,,,,"05,99,1,02,1,04,1,00250,1,06,1,00,1",,,,,"99999,9,09563,1","8,1,003,1,+999,9",,"SYN082AAXX  21124 08053 12368 51403 10144 20098 39563 40201 58003 60001 82460 333 50103;","Q01  00002PRCP06"
"08053099999","2010-03-22T06:00:00","4","42.5666666","-6.6","550.0","PONFERRADA, SP","FM-12","99999","V020","110,1,N,0005,1","03600,1,9,N","008000,1,N,1","+0066,1","+0057,1","10226,1","12,0000,9,1","24,0000,9,1",,,,,"05,99,1,02,1,05,1,00250,1,04,1,00,1","0348,9","01,9","999,+0040,9","999,N,+0062,1","99999,9,09568,1","3,1,004,1,+999,9","10,1","SYN106AAXX  22064 08053 11358 51101 10066 20057 39568 40226 53004 60002 710// 82540 333 20062 30004 55058 70000;","Q01  00002PRCP24Q02  00002PRCP12"
"08053099999","2010-03-22T09:00:00","4","42.5666666","-6.6","550.0","PONFERRADA, SP","FM-12","99999","V020","999,9,C,0000,1","00120,1,9,N","003000,1,N,1","+0090,1","+0073,1","10235,1",,,,"2,1,03,1","2,1,03,1",,"08,99,1,08,1,07,1,00150,1,99,9,99,9",,,,,"99999,9,09582,1","1,1,014,1,+999,9","10,1","SYN072AAXX  22094 08053 41230 80000 10090 20073 39582 40235 51014 71022 887//;",
"08053099999","2010-03-22T12:00:00","4","42.5666666","-6.6","550.0","PONFERRADA, SP","FM-12","99999","V020","270,1,N,0015,1","22000,1,9,N","020000,1,N,1","+0142,1","+0088,1","10220,1","06,0000,9,1",,,,,,"03,99,1,01,1,01,1,00250,1,06,1,01,1",,,,,"99999,9,09580,1","8,1,002,1,+999,9",,"SYN082AAXX  22124 08053 12370 32703 10142 20088 39580 40220 58002 60001 81161 333 50263;","Q01  00002PRCP06"
"08053099999","2010-03-23T06:00:00","4","42.5666666","-6.6","550.0","PONFERRADA, SP","FM-12","99999","V020","999,9,C,0000,1","03600,1,9,N","018000,1,N,1","+0050,1","+0032,1","10192,1","12,0000,9,1","24,0000,9,1",,,,,"08,99,1,03,1,07,1,00450,1,02,1,99,9","0570,9","01,9","999,+0020,9","999,N,+0042,1","99999,9,09532,1","6,1,011,1,+999,9","02,1","SYN106AAXX  23064 08053 11468 80000 10050 20032 39532 40192 56011 60002 702// 8372/ 333 20042 30002 55095 70000;","Q01  00002PRCP24Q02  00002PRCP12"
"08053099999","2010-03-23T09:00:00","4","42.5666666","-6.6","550.0","PONFERRADA, SP","FM-12","99999","V020","270,1,N,0015,1","03600,1,9,N","030000,1,N,1","+0072,1","+0040,1","10173,1",,,,,,,"07,99,1,04,1,07,1,00450,1,02,1,99,9",,,,,"99999,9,09520,1","6,1,012,1,+999,9",,"SYN066AAXX  23094 08053 42480 72703 10072 20040 39520 40173 56012 8472/;",
"08053099999","2010-03-23T12:00:00","4","42.5666666","-6.6","550.0","PONFERRADA, SP","FM-12","99999","V020","320,1,N,0010,1","00420,1,9,N","028000,1,N,1","+0130,1","+0079,1","10143,1","06,0000,9,1",,,,,,"08,99,1,05,1,07,1,00450,1,02,1,99,9",,,,,"99999,9,09505,1","8,1,015,1,+999,9",,"SYN082AAXX  23124 08053 12478 83202 10130 20079 39505 40143 58015 60001 8572/ 333 50403;","Q01  00002PRCP06"
"08053099999","2010-03-24T06:00:00","4","42.5666666","-6.6","550.0","PONFERRADA, SP","FM-12","99999","V020","360,1,N,0015,1","00210,1,9,N","010000,1,N,1","+0104,1","+0092,1","10049,1","12,0020,9,2","24,0018,9,2",,,,,"08,99,1,06,1,07,1,00250,1,02,1,99,9","0168,9","11,9","999,+0080,9","999,N,+0100,1","99999,9,09411,1","7,1,010,1,+999,9","60,1","SYN106AAXX  24064 08053 11360 83603 10104 20092 39411 40049 57010 60022 760/6 8672/ 333 20100 32008 55028 70017;",
"08053099999","2010-03-24T09:00:00","4","42.5666666","-6.6","550.0","PONFERRADA, SP","FM-12","99999","V020","080,1,N,0015,1","00210,1,9,N","010000,1,N,1","+0108,1","+0100,1","10053,1",,,,"6,1,03,1","2,1,03,1",,"08,99,1,05,1,07,1,00250,1,02,1,99,9",,,,,"99999,9,09416,1","2,1,005,1,+999,9","60,1","SYN072AAXX  24094 08053 41360 80803 10108 20100 39416 40053 52005 76062 8572/;",
"08053099999","2010-03-24T12:00:00","4","42.5666666","-6.6","550.0","PONFERRADA, SP","FM-12","99999","V020","040,1,N,0021,1","03600,1,9,N","015000,1,N,1","+0126,1","+0100,1","10043,1","06,0020,9,1",,,"6,1,06,1","2,1,06,1",,"07,99,1,04,1,07,1,00250,1,02,1,01,1",,,,,"99999,9,09411,1","8,1,005,1,+999,9","01,1","SYN088AAXX  24124 08053 11365 70404 10126 20100 39411 40043 58005 60021 70162 84721 333 50123;",
"08053099999","2010-03-25T06:00:00","4","42.5666666","-6.6","550.0","PONFERRADA, SP","FM-12","99999","V020","250,1,N,0036,1","00210,1,9,N","005000,1,N,1","+0060,1","+0037,1","10022,1","12,0020,9,1","24,0038,9,1",,,,,"08,99,1,08,1,07,1,00250,1,99,9,99,9","0060,9","11,9","999,+0040,9","999,N,+0060,1","99999,9,09376,1","3,1,008,1,+999,9","65,1","SYN106AAXX  25064 08053 11350 82507 10060 20037 39376 40022 53008 60022 765// 887// 333 20060 32004 55010 70038;",
"08053099999","2010-03-25T09:00:00","4","42.5666666","-6.6","550.0","PONFERRADA, SP","FM-12","99999","V020","080,1,N,0015,1","03600,1,9,N","010000,1,N,1","+0070,1","+0034,1","10036,1",,,,"6,1,03,1","2,1,03,1",,"06,99,1,03,1,05,1,00250,1,04,1,00,1",,,,,"99999,9,09391,1","3,1,015,1,+999,9","01,1","SYN072AAXX  25094 08053 41360 60803 10070 20034 39391 40036 53015 70162 83540;",
"08053099999","2010-03-25T12:00:00","4","42.5666666","-6.6","550.0","PONFERRADA, SP","FM-12","99999","V020","240,1,N,0062,1","00210,1,9,N","010000,1,N,1","+0090,1","+0052,1","10054,1","06,0005,9,1",,,"6,1,06,1","2,1,06,1",,"08,99,1,08,1,07,1,00250,1,99,9,99,9",,,,,"99999,9,09412,1","2,1,021,1,+999,9","63,1","SYN088AAXX  25124 08053 11360 82412 10090 20052 39412 40054 52021 69961 76362 887// 333 50113;",
"08053099999","2010-03-26T06:00:00","4","42.5666666","-6.6","550.0","PONFERRADA, SP","FM-12","99999","V020","310,1,N,0021,1","03600,1,9,N","006000,1,N,1","+0050,1","+0032,1","10136,1","12,0020,9,1","24,0038,9,1",,,,,"07,99,1,03,1,07,1,00250,1,04,1,99,9","0090,9","11,9","999,+0020,9","999,N,+0042,1","99999,9,09480,1","2,1,013,1,+999,9","10,1","SYN106AAXX  26064 08053 11356 73104 10050 20032 39480 40136 52013 60022 710// 8374/ 333 20042 32002 55015 70038;",
"08053099999","2010-03-26T09:00:00","4","42.5666666","-6.6","550.0","PONFERRADA, SP","FM-12","99999","V020","360,1,N,0010,1","00210,1,9,N","006000,1,N,1","+0058,1","+0040,1","10158,1",,,,"6,1,03,1","2,1,03,1",,"08,99,1,08,1,07,1,00250,1,99,9,99,9",,,,,"99999,9,09502,1","2,1,022,1,+999,9","21,1","SYN072AAXX  26094 08053 41356 83602 10058 20040 39502 40158 52022 72162 887//;",
"08053099999","2010-03-26T12:00:00","4","42.5666666","-6.6","550.0","PONFERRADA, SP","FM-12","99999","V020","280,1,N,0036,1","03600,1,9,N","015000,1,N,1","+0084,1","+0059,1","10157,1","06,0010,9,1",,,"6,1,06,1","2,1,06,1",,"05,99,1,03,1,05,1,00250,1,06,1,00,1",,,,,"99999,9,09508,1","0,1,006,1,+999,9","01,1","SYN088AAXX  26124 08053 11365 52807 10084 20059 39508 40157 50006 60011 70162 83560 333 50123;",
"08053099999","2010-03-27T06:00:00","4","42.5666666","-6.6","550.0","PONFERRADA, SP","FM-12","99999","V020","250,1,N,0036,1","00210,1,9,N","012000,1,N,1","+0068,1","+0046,1","10238,1","12,0003,9,1","24,0053,9,1",,,,,"06,99,1,06,1,07,1,00250,1,00,1,00,1","0048,9","09,9","999,+0040,9","999,N,+0060,1","99999,9,09580,1","2,1,010,1,+999,9","02,1","SYN106AAXX  27064 08053 11362 62507 10068 20046 39580 40238 52010 69932 702/6 86700 333 20060 31004 55008 70053;",
"08053099999","2010-03-27T09:00:00","4","42.5666666","-6.6","550.0","PONFERRADA, SP","FM-12","99999","V020","270,1,N,0041,1","03600,1,9,N","018000,1,N,1","+0082,1","+0051,1","10260,1",,,,,,,"05,99,1,03,1,07,1,00250,1,04,1,01,1",,,,,"99999,9,09603,1","2,1,023,1,+999,9",,"SYN066AAXX  27094 08053 42368 52708 10082 20051 39603 40260 52023 83741;",
"08053099999","2010-03-27T12:00:00","4","42.5666666","-6.6","550.0","PONFERRADA, SP","FM-12","99999","V020","270,1,N,0036,1","03600,1,9,N","018000,1,N,1","+0124,1","+0067,1","10252,1","06,0000,9,1",,,,,,"06,99,1,04,1,04,1,00450,1,04,1,01,1",,,,,"99999,9,09605,1","0,1,002,1,+999,9",,"SYN082AAXX  27124 08053 12468 62707 10124 20067 39605 40252 50002 60001 84441 333 50023;","Q01  00002PRCP06"
"08053099999","2010-03-28T06:00:00","4","42.5666666","-6.6","550.0","PONFERRADA, SP","FM-12","99999","V020","999,9,C,0000,1","22000,1,9,N","012000,1,N,1","+0038,1","+0034,1","10238,1","12,0000,9,1","24,0000,9,1",,,,"00,1,+99999,9,99,9","00,99,1,00,1,00,1,99999,9,00,1,00,1","0288,9","01,9","999,+0020,9","999,N,+0038,1","99999,9,09573,1","6,1,012,1,+999,9","00,1","SYN100AAXX  28064 08053 11962 00000 10038 20034 39573 40238 56012 60002 700// 333 20038 30002 55048 70000;","Q01  00002PRCP24Q02  00002PRCP12"
"08053099999","2010-03-28T09:00:00","4","42.5666666","-6.6","550.0","PONFERRADA, SP","FM-12","99999","V020","270,1,N,0015,1","99999,9,9,N","018000,1,N,1","+0068,1","+0050,1","10224,1",,,,,,,"06,99,1,00,1,00,1,99999,9,00,1,01,1",,,,,"99999,9,09567,1","8,1,006,1,+999,9",,"SYN066AAXX  28094 08053 42968 62703 10068 20050 39567 40224 58006 80001;",
"08053099999","2010-03-28T12:00:00","4","42.5666666","-6.6","550.0","PONFERRADA, SP","FM-12","99999","V020","290,1,N,0021,1","03600,1,9,N","020000,1,N,1","+0108,1","+0067,1","10191,1","06,0000,9,1",,,,,,"08,99,1,04,1,07,1,00450,1,07,1,99,9",,,,,"99999,9,09545,1","8,1,022,1,+999,9",,"SYN082AAXX  28124 08053 12470 82904 10108 20067 39545 40191 58022 60001 8477/ 333 50213;","Q01  00002PRCP06"
"08053099999","2010-03-29T06:00:00","4","42.5666666","-6.6","550.0","PONFERRADA, SP","FM-12","99999","V020","140,1,N,0015,1","00210,1,9,N","006000,1,N,1","+0074,1","+0047,1","10077,1","12,9999,9,9","24,9999,9,9",,,,,"06,99,1,05,1,07,1,00250,1,07,1,00,1","0450,9","09,9","999,+0040,9","999,N,+0064,1","99999,9,09430,1","7,1,020,1,+999,9","60,1","SYN106AAXX  29064 08053 11356 61403 10074 20047 39430 40077 57020 69902 760/6 85770 333 20064 31004 55075 79999;","Q01  00002PRCP24Q02  00002PRCP12Q03  00002PRCP12Q04  00002PRCP24"
"08053099999","2010-03-29T09:00:00","4","42.5666666","-6.6","550.0","PONFERRADA, SP","FM-12","99999","V020","130,1,N,0021,1","00210,1,9,N","006000,1,N,1","+0084,1","+0064,1","10064,1",,,,"6,1,03,1","2,1,03,1",,"08,99,1,06,1,07,1,00250,1,02,1,99,9",,,,,"99999,9,09421,1","6,1,009,1,+999,9","60,1","SYN072AAXX  29094 08053 41356 81304 10084 20064 39421 40064 56009 76062 8672/;",
"08053099999","2010-03-29T12:00:00","4","42.5666666","-6.6","550.0","PONFERRADA, SP","FM-12","99999","V020","110,1,N,0021,1","00210,1,9,N","012000,1,N,1","+0110,1","+0086,1","10040,1","06,0020,9,1",,,"6,1,06,1","2,1,06,1",,"08,99,1,08,1,07,1,00250,1,99,9,99,9",,,,,"99999,9,09404,1","8,1,017,1,+999,9","21,1","SYN088AAXX  29124 08053 11362 81104 10110 20086 39404 40040 58017 60021 72162 887// 333 50143;",
"08053099999","2010-03-30T06:00:00","4","42.5666666","-6.6","550.0","PONFERRADA, SP","FM-12","99999","V020","280,1,N,0046,1","00210,1,9,N","005000,1,N,1","+0068,1","+0059,1","10097,1","12,0051,9,1","24,0150,9,1",,,,,"08,99,1,08,1,07,1,00250,1,99,9,99,9","0024,9","11,9","999,+0040,9","999,N,+0058,1","99999,9,09448,1","2,1,028,1,+999,9","63,1","SYN106AAXX  30064 08053 11350 82809 10068 20059 39448 40097 52028 60052 763// 887// 333 20058 32004 55004 70150;",
"08053099999","2010-03-30T09:00:00","4","42.5666666","-6.6","550.0","PONFERRADA, SP","FM-12","99999","V020","270,1,N,0051,1","03600,1,9,N","010000,1,N,1","+0080,1","+0044,1","10138,1",,,,"6,1,03,1","2,1,03,1",,"05,99,1,02,1,05,1,00250,1,04,1,00,1",,,,,"99999,9,09489,1","1,1,041,1,+999,9","01,1","SYN072AAXX  30094 08053 41360 52710 10080 20044 39489 40138 51041 70162 82540;",
"08053099999","2010-03-30T12:00:00","4","42.5666666","-6.6","550.0","PONFERRADA, SP","FM-12","99999","V020","270,1,N,0051,1","00210,1,9,N","012000,1,N,1","+0110,1","+0051,1","10140,1","06,0000,2,1",,,"6,1,06,1","2,1,06,1",,"07,99,1,05,1,07,1,00250,1,04,1,99,9",,,,,"99999,9,09497,1","1,1,008,1,+999,9","03,1","SYN088AAXX  30124 08053 11362 72710 10110 20051 39497 40140 51008 69921 70362 8574/ 333 50203;",
"08053099999","2010-03-31T06:00:00","4","42.5666666","-6.6","550.0","PONFERRADA, SP","FM-12","99999","V020","270,1,N,0031,1","03600,1,9,N","006000,1,N,1","+0050,1","+0037,1","10177,1","12,0010,9,1","24,0043,9,1",,,,,"08,99,1,04,1,07,1,00250,1,07,1,99,9","0288,9","11,9","999,+0030,9","999,N,+0048,1","99999,9,09518,1","6,1,007,1,+999,9","10,1","SYN106AAXX  31064 08053 11356 82706 10050 20037 39518 40177 56007 60012 710// 8477/ 333 20048 32003 55048 70042;",
"08053099999","2010-03-31T09:00:00","4","42.5666666","-6.6","550.0","PONFERRADA, SP","FM-12","99999","V020","280,1,N,0031,1","03600,1,9,N","012000,1,N,1","+0072,1","+0036,1","10162,1",,,,,,,"07,99,1,03,1,05,1,00250,1,04,1,00,1",,,,,"99999,9,09509,1","7,1,009,1,+999,9",,"SYN066AAXX  31094 08053 42362 72806 10072 20036 39509 40162 57009 83540;",
"08053099999","2010-03-31T12:00:00","4","42.5666666","-6.6","550.0","PONFERRADA, SP","FM-12","99999","V020","270,1,N,0041,1","00210,1,9,N","010000,1,N,1","+0096,1","+0054,1","10139,1","06,0000,9,1",,,,,,"08,99,1,08,1,07,1,00250,1,99,9,99,9",,,,,"99999,9,09493,1","8,1,016,1,+999,9",,"SYN082AAXX  31124 08053 12360 82708 10096 20054 39493 40139 58016 60001 887// 333 50153;","Q01  00002PRCP06"
"08053099999","2010-04-01T06:00:00","4","42.5666666","-6.6","550.0","PONFERRADA, SP","FM-12","99999","V020","999,9,C,0000,1","03600,1,9,N","020000,1,N,1","+0024,1","+0018,1","10211,1","12,0000,9,1","24,0048,9,1",,,,,"05,99,1,02,1,07,1,00450,1,07,1,00,1","0072,9","09,9","999,+0000,9","999,N,+0024,1","99999,9,09544,1","3,1,005,1,+999,9","02,1","SYN106AAXX  01064 08053 11470 50000 10024 20018 39544 40211 53005 69912 702// 82770 333 20024 31000 55012 70048;","Q01  00002PRCP12"
"08053099999","2010-04-01T09:00:00","4","42.5666666","-6.6","550.0","PONFERRADA, SP","FM-12","99999","V020","230,1,N,0015,1","00420,1,9,N","020000,1,N,1","+0054,1","+0021,1","10218,1",,,,,,,"06,99,1,05,1,07,1,00450,1,07,1,01,1",,,,,"99999,9,09557,1","1,1,013,1,+999,9",,"SYN066AAXX  01094 08053 42470 62303 10054 20021 39557 40218 51013 85771;",
"08053099999","2010-04-01T12:00:00","4","42.5666666","-6.6","550.0","PONFERRADA, SP","FM-12","99999","V020","260,1,N,0021,1","03600,1,9,N","030000,1,N,1","+0084,1","+0024,1","10208,1","06,0000,9,1",,,,,,"06,99,1,04,1,07,1,00450,1,07,1,01,1",,,,,"99999,9,09555,1","8,1,002,1,+999,9",,"SYN082AAXX  01124 08053 12480 62604 10084 20024 39555 40208 58002 60001 84771 333 50103;","Q01  00002PRCP06"
"08053099999","2010-04-02T06:00:00","4","42.5666666","-6.6","550.0","PONFERRADA, SP","FM-12","99999","V020","999,9,C,0000,1","00210,1,9,N","008000,1,N,1","+0060,1","+0032,1","10184,1","12,0000,9,1","24,0000,9,1",,,,,"08,99,1,07,1,07,1,00250,1,07,1,99,9","0162,9","01,9","999,+0030,9","999,N,+0054,1","99999,9,09527,1","5,1,009,1,+999,9","15,1","SYN106AAXX  02064 08053 11358 80000 10060 20032 39527 40184 55009 60002 715// 8777/ 333 20054 30003 55027 70000;","Q01  00002PRCP24Q02  00002PRCP12"
"08053099999","2010-04-02T09:00:00","4","42.5666666","-6.6","550.0","PONFERRADA, SP","FM-12","99999","V020","300,1,N,0026,1","00210,1,9,N","010000,1,N,1","+0086,1","+0046,1","10179,1",,,,"6,1,03,1","2,1,03,1",,"07,99,1,05,1,07,1,00250,1,07,1,99,9",,,,,"99999,9,09528,1","3,1,001,1,+999,9","01,1","SYN072AAXX  02094 08053 41360 73005 10086 20046 39528 40179 53001 70162 8577/;",
"08053099999","2010-04-02T12:00:00","4","42.5666666","-6.6","550.0","PONFERRADA, SP","FM-12","99999","V020","270,1,N,0036,1","00210,1,9,N","008000,1,N,1","+0110,1","+0055,1","10167,1","06,9999,9,9",,,"6,1,06,1","2,1,06,1",,"08,99,1,06,1,07,1,00250,1,02,1,99,9",,,,,"99999,9,09523,1","8,1,005,1,+999,9","60,1","SYN088AAXX  02124 08053 11358 82707 10110 20055 39523 40167 58005 69901 76062 8672/ 333 50153;","Q01  00002PRCP06Q02  00002PRCP06"
"08053099999","2010-04-03T06:00:00","4","42.5666666","-6.6","550.0","PONFERRADA, SP","FM-12","99999","V020","260,1,N,0026,1","00210,1,9,N","005000,1,N,1","+0064,1","+0046,1","10131,1","12,0008,9,1","24,0028,9,1",,,,,"08,99,1,08,1,07,1,00250,1,99,9,99,9","0138,9","11,9","999,+0040,9","999,N,+0064,1","99999,9,09479,1","6,1,005,1,+999,9","10,1","SYN106AAXX  03064 08053 11350 82605 10064 20046 39479 40131 56005 69982 710// 887// 333 20064 32004 55023 70028;",
"08053099999","2010-04-03T09:00:00","4","42.5666666","-6.6","550.0","PONFERRADA, SP","FM-12","99999","V020","280,1,N,0051,1","03600,1,9,N","002000,1,N,1","+0078,1","+0037,1","10141,1",,,,"6,1,03,1","2,1,03,1",,"06,99,1,03,1,05,1,00250,1,04,1,99,9",,,,,"99999,9,09491,1","1,1,012,1,+999,9","10,1","SYN072AAXX  03094 08053 41320 62810 10078 20037 39491 40141 51012 71062 8354/;",
"08053099999","2010-04-03T12:00:00","4","42.5666666","-6.6","550.0","PONFERRADA, SP","FM-12","99999","V020","280,1,N,0057,1","03600,1,9,N","018000,1,N,1","+0104,1","+0054,1","10140,1","06,0005,9,1",,,"6,1,06,1","2,1,06,1",,"05,99,1,02,1,04,1,00450,1,06,1,00,1",,,,,"99999,9,09496,1","0,1,005,1,+999,9","02,1","SYN088AAXX  03124 08053 11468 52811 10104 20054 39496 40140 50005 69961 70262 82460 333 50123;",
"08053099999","2010-04-04T06:00:00","4","42.5666666","-6.6","550.0","PONFERRADA, SP","FM-12","99999","V020","280,1,N,0005,1","03600,1,9,N","012000,1,N,1","+0030,1","+0020,1","10268,1","12,0000,9,1","24,0015,9,1",,,,,"05,99,1,02,1,05,1,00250,1,04,1,00,1","0204,9","09,9","999,+0010,9","999,N,+0030,1","99999,9,09599,1","2,1,023,1,+999,9","02,1","SYN106AAXX  04064 08053 11362 52801 10030 20020 39599 40268 52023 69922 702// 82540 333 20030 31001 55034 70014;","Q01  00002PRCP12"
"08053099999","2010-04-04T09:00:00","4","42.5666666","-6.6","550.0","PONFERRADA, SP","FM-12","99999","V020","250,1,N,0026,1","22000,1,9,N","020000,1,N,1","+0080,1","+0018,1","10271,1",,,,,,,"04,99,1,02,1,04,1,00250,1,06,1,00,1",,,,,"99999,9,09613,1","2,1,014,1,+999,9",,"SYN066AAXX  04094 08053 42370 42505 10080 20018 39613 40271 52014 82460;",
"08053099999","2010-04-04T12:00:00","4","42.5666666","-6.6","550.0","PONFERRADA, SP","FM-12","99999","V020","280,1,N,0036,1","22000,1,9,N","028000,1,N,1","+0102,1","+0030,1","10268,1","06,0000,9,1",,,,,,"04,99,1,02,1,04,1,00250,1,06,1,00,1",,,,,"99999,9,09615,1","1,1,002,1,+999,9",,"SYN082AAXX  04124 08053 12378 42807 10102 20030 39615 40268 51002 60001 82460 333 50063;","Q01  00002PRCP06"
"08053099999","2010-04-05T06:00:00","4","42.5666666","-6.6","550.0","PONFERRADA, SP","FM-12","99999","V020","999,9,C,0000,1","22000,1,9,N","015000,1,N,1","+0010,1","+0004,1","10298,1","12,0000,9,1","24,0000,9,1",,,,"00,1,+99999,9,99,9","00,99,1,00,1,00,1,99999,9,00,1,00,1",,"14,9","999,-0010,9","999,N,+0010,1","99999,9,09622,1","5,1,002,1,+999,9","00,1","SYN100AAXX  05064 08053 11965 00000 10010 20004 39622 40298 55002 60002 700// 333 20010 34101 55/// 70000;","Q01  00002PRCP24Q02  00002PRCP12"
"08053099999","2010-04-05T09:00:00","4","42.5666666","-6.6","550.0","PONFERRADA, SP","FM-12","99999","V020","999,9,9,9999,9","22000,1,9,N","025000,1,N,1","+0052,1","+0017,1","10290,1",,,,,,,"02,99,1,00,1,00,1,99999,9,00,1,01,1",,,,,"99999,9,09624,1","0,1,002,1,+999,9",,"SYN066AAXX  05094 08053 42875 2//// 10052 20017 39624 40290 50002 80001;","Q01+022502SCOLCB"
"08053099999","2010-04-05T12:00:00","4","42.5666666","-6.6","550.0","PONFERRADA, SP","FM-12","99999","V020","050,1,N,0015,1","22000,1,9,N","030000,1,N,1","+0134,1","+0056,1","10241,1","06,0000,9,1",,,,,,"01,99,1,00,1,00,1,99999,9,00,1,01,1",,,,,"99999,9,09597,1","7,1,027,1,+999,9",,"SYN082AAXX  05124 08053 12880 10503 10134 20056 39597 40241 57027 60001 80001 333 50273;","Q01+022502SCOLCBQ02  00002PRCP06"
"08053099999","2010-04-06T06:00:00","4","42.5666666","-6.6","550.0","PONFERRADA, SP","FM-12","99999","V020","999,9,C,0000,1","22000,1,9,N","022000,1,N,1","+0022,1","+0006,1","10208,1","12,0000,9,1","24,0000,9,1",,,,,"01,99,1,00,1,00,1,99999,9,00,1,01,1","0732,9","14,9","999,+0000,9","999,N,+0016,1","99999,9,09540,1","5,1,004,1,+999,9","02,1","SYN106AAXX  06064 08053 11972 10000 10022 20006 39540 40208 55004 60002 702// 80001 333 20016 34100 55122 70000;","Q01  00002PRCP24Q02  00002PRCP12"
"08053099999","2010-04-06T09:00:00","4","42.5666666","-6.6","550.0","PONFERRADA, SP","FM-12","99999","V020","270,1,N,0010,1","22000,1,9,N","025000,1,N,1","+0088,1","+0034,1","10185,1",,,,,,,"01,99,1,00,1,00,1,99999,9,00,1,01,1",,,,,"99999,9,09534,1","8,1,006,1,+999,9",,"SYN066AAXX  06094 08053 42975 12702 10088 20034 39534 40185 58006 80001;",
"08053099999","2010-04-06T12:00:00","4","42.5666666","-6.6","550.0","PONFERRADA, SP","FM-12","99999","V020","280,1,N,0026,1","09000,1,9,N","028000,1,N,1","+0172,1","+0067,1","10142,1","06,0000,9,1",,,,,,"05,99,1,01,1,01,1,00450,1,04,1,01,1",,,,,"99999,9,09513,1","8,1,021,1,+999,9",,"SYN082AAXX  06124 08053 12478 52805 10172 20067 39513 40142 58021 60001 81141 333 50543;","Q01  00002PRCP06"
"08053099999","2010-04-07T06:00:00","4","42.5666666","-6.6","550.0","PONFERRADA, SP","FM-12","99999","V020","999,9,C,0000,1","22000,1,9,N","022000,1,N,1","+0040,1","+0036,1","10237,1","12,0000,9,1","24,0003,9,1",,,,"00,1,+99999,9,99,9","00,99,1,00,1,00,1,99999,9,00,1,00,1","0420,9","01,9","999,+0020,9","999,N,+0040,1","99999,9,09572,1","3,1,020,1,+999,9","00,1","SYN100AAXX  07064 08053 11972 00000 10040 20036 39572 40237 53020 69922 700// 333 20040 30002 55070 70002;","Q01  00002PRCP12"
"08053099999","2010-04-07T09:00:00","4","42.5666666","-6.6","550.0","PONFERRADA, SP","FM-12","99999","V020","270,1,N,0015,1","22000,1,9,N","028000,1,N,1","+0098,1","+0040,1","10238,1",,,,,,"00,1,+99999,9,99,9","00,99,1,00,1,00,1,99999,9,00,1,00,1",,,,,"99999,9,09586,1","0,1,014,1,+999,9",,"SYN060AAXX  07094 08053 42978 02703 10098 20040 39586 40238 50014;",
"08053099999","2010-04-07T12:00:00","4","42.5666666","-6.6","550.0","PONFERRADA, SP","FM-12","99999","V020","130,1,N,0021,1","22000,1,9,N","035000,1,N,1","+0142,1","+0050,1","10221,1","06,0000,9,1",,,,,"00,1,+99999,9,99,9","00,99,1,00,1,00,1,99999,9,00,1,00,1",,,,,"99999,9,09580,1","8,1,006,1,+999,9",,"SYN076AAXX  07124 08053 12981 01304 10142 20050 39580 40221 58006 60001 333 50343;","Q01  00002PRCP06"
"08053099999","2010-04-08T06:00:00","4","42.5666666","-6.6","550.0","PONFERRADA, SP","FM-12","99999","V020","999,9,C,0000,1","22000,1,9,N","015000,1,N,1","+0020,1","+0010,1","10291,1","12,0000,9,1","24,0000,9,1",,,,"00,1,+99999,9,99,9","00,99,1,00,1,00,1,99999,9,00,1,00,1","0738,9","01,9","999,+0000,9","999,N,+0020,1","99999,9,09618,1","3,1,008,1,+999,9","00,1","SYN100AAXX  08064 08053 11965 00000 10020 20010 39618 40291 53008 60002 700// 333 20020 30000 55123 70000;","Q01  00002PRCP24Q02  00002PRCP12"
"08053099999","2010-04-08T09:00:00","4","42.5666666","-6.6","550.0","PONFERRADA, SP","FM-12","99999","V020","240,1,N,0015,1","22000,1,9,N","025000,1,N,1","+0078,1","+0033,1","10280,1",,,,,,"00,1,+99999,9,99,9","00,99,1,00,1,00,1,99999,9,00,1,00,1",,,,,"99999,9,09621,1","1,1,003,1,+999,9",,"SYN060AAXX  08094 08053 42975 02403 10078 20033 39621 40280 51003;",
"08053099999","2010-04-08T12:00:00","4","42.5666666","-6.6","550.0","PONFERRADA, SP","FM-12","99999","V020","210,1,N,0021,1","22000,1,9,N","030000,1,N,1","+0152,1","+0049,1","10252,1","06,0000,9,1",,,,,"00,1,+99999,9,99,9","00,99,1,00,1,00,1,99999,9,00,1,00,1",,,,,"99999,9,09611,1","8,1,010,1,+999,9",,"SYN076AAXX  08124 08053 12980 02104 10152 20049 39611 40252 58010 60001 333 50343;","Q01  00002PRCP06"
"08053099999","2010-04-09T06:00:00","4","42.5666666","-6.6","550.0","PONFERRADA, SP","FM-12","99999","V020","999,9,C,0000,1","22000,1,9,N","015000,1,N,1","+0040,1","+0020,1","10200,1","12,0000,9,1","24,0000,9,1",,,,"00,1,+99999,9,99,9","00,99,1,00,1,00,1,99999,9,00,1,00,1","0738,9","01,9","999,+0020,9","999,N,+0040,1","99999,9,09537,1","2,1,008,1,+999,9","00,1","SYN100AAXX  09064 08053 11965 00000 10040 20020 39537 40200 52008 60002 700// 333 20040 30002 55123 70000;","Q01  00002PRCP24Q02  00002PRCP12"
"08053099999","2010-04-09T09:00:00","4","42.5666666","-6.6","550.0","PONFERRADA, SP","FM-12","99999","V020","280,1,N,0010,1","22000,1,9,N","022000,1,N,1","+0096,1","+0048,1","99999,9",,,,,,"00,1,+99999,9,99,9","00,99,1,00,1,00,1,99999,9,00,1,00,1",,,,,,"0,1,004,1,+999,9",,"SYN060AAXX  09094 08053 42972 02802 10096 20048 39607 40261 50004;","Q01+096073APOSP "
"08053099999","2010-04-09T12:00:00","4","42.5666666","-6.6","550.0","PONFERRADA, SP","FM-12","99999","V020","240,1,N,0015,1","22000,1,9,N","028000,1,N,1","+0170,1","+0076,1","10218,1","06,0000,9,1",,,,,"00,1,+99999,9,99,9","00,99,1,00,1,00,1,99999,9,00,1,00,1",,,,,"99999,9,09584,1","8,1,023,1,+999,9",,"SYN076AAXX  09124 08053 12978 02403 10170 20076 39584 40218 58023 60001 333 50363;","Q01  00002PRCP06"
"08053099999","2010-04-10T06:00:00","4","42.5666666","-6.6","550.0","PONFERRADA, SP","FM-12","99999","V020","060,1,N,0005,1","22000,1,9,N","028000,1,N,1","+0072,1","+0050,1","10251,1","12,0000,9,1","24,0000,9,1",,,,"00,1,+99999,9,99,9","00,99,1,00,1,00,1,99999,9,00,1,00,1","0744,9","01,9","999,+0050,9","999,N,+0070,1","99999,9,09593,1","3,1,006,1,+999,9","00,1","SYN100AAXX  10064 08053 11978 00601 10072 20050 39593 40251 53006 60002 700// 333 20070 30005 55124 70000;","Q01  00002PRCP24Q02  00002PRCP12"
"08053099999","2010-04-10T09:00:00","4","42.5666666","-6.6","550.0","PONFERRADA, SP","FM-12","99999","V020","280,1,N,0015,1","22000,1,9,N","025000,1,N,1","+0128,1","+0073,1","10239,1",,,,,,"00,1,+99999,9,99,9","00,99,1,00,1,00,1,99999,9,00,1,00,1",,,,,"99999,9,09594,1","0,1,001,1,+999,9",,"SYN060AAXX  10094 08053 42975 02803 10128 20073 39594 40239 50001;",
"08053099999","2010-04-10T12:00:00","4","42.5666666","-6.6","550.0","PONFERRADA, SP","FM-12","99999","V020","250,1,N,0015,1","22000,1,9,N","030000,1,N,1","+0188,1","+0082,1","10202,1","06,0000,9,1",,,,,"00,1,+99999,9,99,9","00,99,1,00,1,00,1,99999,9,00,1,00,1",,,,,"99999,9,09572,1","8,1,022,1,+999,9",,"SYN076AAXX  10124 08053 12980 02503 10188 20082 39572 40202 58022 60001 333 50643;","Q01  00002PRCP06"
"08053099999","2010-04-11T06:00:00","4","42.5666666","-6.6","550.0","PONFERRADA, SP","FM-12","99999","V020","330,1,N,0010,1","22000,1,9,N","025000,1,N,1","+0056,1","+0038,1","10179,1","12,0000,9,1","24,0000,9,1",,,,"00,1,+99999,9,99,9","00,99,1,00,1,00,1,99999,9,00,1,00,1","0744,9","01,9","999,+0030,9","999,N,+0050,1","99999,9,09522,1","6,1,010,1,+999,9","00,1","SYN100AAXX  11064 08053 11975 03302 10056 20038 39522 40179 56010 60002 700// 333 20050 30003 55124 70000;","Q01  00002PRCP24Q02  00002PRCP12"
"08053099999","2010-04-11T09:00:00","4","42.5666666","-6.6","550.0","PONFERRADA, SP","FM-12","99999","V020","250,1,N,0015,1","22000,1,9,N","025000,1,N,1","+0120,1","+0059,1","10155,1",,,,,,"00,1,+99999,9,99,9","00,99,1,00,1,00,1,99999,9,00,1,00,1",,,,,"99999,9,09514,1","8,1,008,1,+999,9",,"SYN060AAXX  11094 08053 42975 02503 10120 20059 39514 40155 58008;",
"08053099999","2010-04-11T12:00:00","4","42.5666666","-6.6","550.0","PONFERRADA, SP","FM-12","99999","V020","270,1,N,0021,1","22000,1,9,N","028000,1,N,1","+0190,1","+0098,1","10112,1","06,0000,9,1",,,,,"00,1,+99999,9,99,9","00,99,1,00,1,00,1,99999,9,00,1,00,1",,,,,"99999,9,09489,1","8,1,025,1,+999,9",,"SYN076AAXX  11124 08053 12978 02704 10190 20098 39489 40112 58025 60001 333 50523;","Q01  00002PRCP06"
"08053099999","2010-04-12T06:00:00","4","42.5666666","-6.6","550.0","PONFERRADA, SP","FM-12","99999","V020","130,1,N,0010,1","22000,1,9,N","022000,1,N,1","+0074,1","+0044,1","10090,1","12,0000,9,1","24,0000,9,1",,,,,"04,99,1,03,1,00,1,01750,1,04,1,01,1","0744,9","01,9","999,+0050,9","999,N,+0072,1","99999,9,09442,1","6,1,001,1,+999,9","02,1","SYN106AAXX  12064 08053 11772 41302 10074 20044 39442 40090 56001 60002 702// 83041 333 20072 30005 55124 70000;","Q01  00002PRCP24Q02  00002PRCP12"
"08053099999","2010-04-12T09:00:00","4","42.5666666","-6.6","550.0","PONFERRADA, SP","FM-12","99999","V020","280,1,N,0010,1","22000,1,9,N","025000,1,N,1","+0124,1","+0062,1","10081,1",,,,,,,"05,99,1,02,1,00,1,01750,1,04,1,01,1",,,,,"99999,9,09445,1","0,1,003,1,+999,9",,"SYN066AAXX  12094 08053 42775 52802 10124 20062 39445 40081 50003 82041;",
"08053099999","2010-04-12T12:00:00","4","42.5666666","-6.6","550.0","PONFERRADA, SP","FM-12","99999","V020","100,1,N,0036,1","09000,1,9,N","025000,1,N,1","+0176,1","+0082,1","10063,1","06,0000,9,1",,,,,,"06,99,1,03,1,00,1,01750,1,04,1,02,1",,,,,"99999,9,09440,1","6,1,005,1,+999,9",,"SYN082AAXX  12124 08053 12775 61007 10176 20082 39440 40063 56005 60001 83042 333 50503;","Q01  00002PRCP06"
"08053099999","2010-04-13T06:00:00","4","42.5666666","-6.6","550.0","PONFERRADA, SP","FM-12","99999","V020","070,1,N,0046,1","22000,1,9,N","015000,1,N,1","+0042,1","-0024,1","10134,1","12,0000,9,1","24,0000,9,1",,,,"00,1,+99999,9,99,9","00,99,1,00,1,00,1,99999,9,00,1,00,1","0714,9","01,9","999,+0020,9","999,N,+0036,1","99999,9,09476,1","3,1,003,1,+999,9","00,1","SYN100AAXX  13064 08053 11965 00709 10042 21024 39476 40134 53003 60002 700// 333 20036 30002 55119 70000;","Q01  00002PRCP24Q02  00002PRCP12"
"08053099999","2010-04-13T09:00:00","4","42.5666666","-6.6","550.0","PONFERRADA, SP","FM-12","99999","V020","100,1,N,0051,1","22000,1,9,N","022000,1,N,1","+0102,1","+0018,1","10122,1",,,,,,"00,1,+99999,9,99,9","00,99,1,00,1,00,1,99999,9,00,1,00,1",,,,,"99999,9,09478,1","0,1,002,1,+999,9",,"SYN060AAXX  13094 08053 42972 01010 10102 20018 39478 40122 50002;",
"08053099999","2010-04-13T12:00:00","4","42.5666666","-6.6","550.0","PONFERRADA, SP","FM-12","99999","V020","120,1,N,0031,1","22000,1,9,N","025000,1,N,1","+0134,1","+0040,1","10104,1","06,0000,9,1",,,,,,"01,99,1,00,1,00,1,99999,9,00,1,01,1",,,,,"99999,9,09469,1","8,1,009,1,+999,9",,"SYN082AAXX  13124 08053 12875 11206 10134 20040 39469 40104 58009 60001 80001 333 50433;","Q01+022502SCOLCBQ02  00002PRCP06"
"08053099999","2010-04-14T06:00:00","4","42.5666666","-6.6","550.0","PONFERRADA, SP","FM-12","99999","V020","100,1,N,0041,1","00210,1,9,N","008000,1,N,1","+0084,1","+0006,1","10107,1","12,0000,9,1","24,0000,9,1",,,,,"08,99,1,08,1,07,1,00250,1,99,9,99,9","0744,9","01,9","999,+0050,9","999,N,+0072,1","99999,9,09460,1","8,1,007,1,+999,9","05,1","SYN106AAXX  14064 08053 11358 81008 10084 20006 39460 40107 58007 60002 705// 887// 333 20072 30005 55124 70000;","Q01  00002PRCP24Q02  00002PRCP12"
"08053099999","2010-04-14T09:00:00","4","42.5666666","-6.6","550.0","PONFERRADA, SP","FM-12","99999","V020","110,1,N,0046,1","22000,1,9,N","010000,1,N,1","+0106,1","+0045,1","10101,1",,,,,,,"04,99,1,02,1,05,1,00250,1,04,1,00,1",,,,,"99999,9,09460,1","4,1,000,1,+999,9",,"SYN066AAXX  14094 08053 42360 41109 10106 20045 39460 40101 54000 82540;",
"08053099999","2010-04-14T12:00:00","4","42.5666666","-6.6","550.0","PONFERRADA, SP","FM-12","99999","V020","110,1,N,0062,1","22000,1,9,N","022000,1,N,1","+0154,1","+0072,1","10076,1","06,0000,9,1",,,,,,"02,99,1,01,1,01,1,00450,1,04,1,00,1",,,,,"99999,9,09447,1","8,1,013,1,+999,9",,"SYN082AAXX  14124 08053 12472 21112 10154 20072 39447 40076 58013 60001 81140 333 50663;","Q01  00002PRCP06"
"08053099999","2010-04-15T06:00:00","4","42.5666666","-6.6","550.0","PONFERRADA, SP","FM-12","99999","V020","080,1,N,0046,1","00210,1,9,N","010000,1,N,1","+0086,1","+0069,1","10068,1","12,0041,9,1","24,0043,9,1",,,,,"07,99,1,05,1,07,1,00250,1,02,1,99,9","0606,9","09,9","999,+0060,9","999,N,+0084,1","99999,9,09425,1","5,1,002,1,+999,9","02,1","SYN106AAXX  15064 08053 11360 70809 10086 20069 39425 40068 55002 60042 702/6 8572/ 333 20084 31006 55101 70042;",
"08053099999","2010-04-15T09:00:00","4","42.5666666","-6.6","550.0","PONFERRADA, SP","FM-12","99999","V020","100,1,N,0057,1","00210,1,9,N","018000,1,N,1","+0112,1","+0081,1","10071,1",,,,,,,"07,99,1,06,1,07,1,00250,1,02,1,99,9",,,,,"99999,9,09434,1","3,1,009,1,+999,9",,"SYN066AAXX  15094 08053 42368 71011 10112 20081 39434 40071 53009 8672/;",
"08053099999","2010-04-15T12:00:00","4","42.5666666","-6.6","550.0","PONFERRADA, SP","FM-12","99999","V020","090,1,N,0067,1","00210,1,9,N","022000,1,N,1","+0140,1","+0098,1","10068,1","06,0000,9,1",,,,,,"06,99,1,05,1,07,1,00250,1,04,1,00,1",,,,,"99999,9,09437,1","0,1,003,1,+999,9",,"SYN082AAXX  15124 08053 12372 60913 10140 20098 39437 40068 50003 60001 85740 333 50523;","Q01  00002PRCP06"
"08053099999","2010-04-16T06:00:00","4","42.5666666","-6.6","550.0","PONFERRADA, SP","FM-12","99999","V020","090,1,N,0021,1","00210,1,9,N","012000,1,N,1","+0114,1","+0086,1","10097,1","12,0000,9,1","24,0000,9,1",,,,,"08,99,1,07,1,07,1,00250,1,02,1,99,9","0228,9","01,9","999,+0090,9","999,N,+0112,1","99999,9,09458,1","3,1,007,1,+999,9","02,1","SYN106AAXX  16064 08053 11362 80904 10114 20086 39458 40097 53007 60002 702// 8772/ 333 20112 30009 55038 70000;","Q01  00002PRCP24Q02  00002PRCP12"
"08053099999","2010-04-16T09:00:00","4","42.5666666","-6.6","550.0","PONFERRADA, SP","FM-12","99999","V020","090,1,N,0015,1","00210,1,9,N","020000,1,N,1","+0132,1","+0091,1","10103,1",,,,"6,1,03,1","2,1,03,1",,"08,99,1,05,1,07,1,00250,1,07,1,99,9",,,,,"99999,9,09468,1","1,1,010,1,+999,9","02,1","SYN072AAXX  16094 08053 41370 80903 10132 20091 39468 40103 51010 70262 8577/;",
"08053099999","2010-04-16T12:00:00","4","42.5666666","-6.6","550.0","PONFERRADA, SP","FM-12","99999","V020","080,1,N,0041,1","03600,1,9,N","020000,1,N,1","+0142,1","+0104,1","10104,1","06,9999,9,9",,,"6,1,06,1","2,1,06,1",,"06,99,1,04,1,07,1,00250,1,04,1,01,1",,,,,"99999,9,09471,1","0,1,003,1,+999,9","21,1","SYN088AAXX  16124 08053 11370 60808 10142 20104 39471 40104 50003 69921 72162 84741 333 50223;","Q01  00002PRCP06Q02  00002PRCP06"
"08053099999","2010-04-17T06:00:00","4","42.5666666","-6.6","550.0","PONFERRADA, SP","FM-12","99999","V020","090,1,N,0026,1","03600,1,9,N","006000,1,N,1","+0110,1","+0079,1","10119,1","12,0000,9,1","24,0005,9,1",,,,,"08,99,1,03,1,07,1,00250,1,07,1,99,9","0084,9","09,9","999,+0080,9","999,N,+0104,1","99999,9,09478,1","1,1,003,1,+999,9","10,1","SYN106AAXX  17064 08053 11356 80905 10110 20079 39478 40119 51003 60002 710// 8377/ 333 20104 31008 55014 70004;","Q01  00002PRCP12"
"08053099999","2010-04-17T09:00:00","4","42.5666666","-6.6","550.0","PONFERRADA, SP","FM-12","99999","V020","270,1,N,0015,1","03600,1,9,N","008000,1,N,1","+0126,1","+0091,1","10117,1",,,,"2,1,03,1","2,1,03,1",,"07,99,1,04,1,07,1,00250,1,07,1,99,9",,,,,"99999,9,09480,1","1,1,002,1,+999,9","05,1","SYN072AAXX  17094 08053 41358 72703 10126 20091 39480 40117 51002 70522 8477/;",
"08053099999","2010-04-17T12:00:00","4","42.5666666","-6.6","550.0","PONFERRADA, SP","FM-12","99999","V020","090,1,N,0015,1","09000,1,9,N","015000,1,N,1","+0174,1","+0093,1","10092,1","06,0000,9,1",,,,,,"05,99,1,02,1,02,1,00250,1,06,1,01,1",,,,,"99999,9,09467,1","8,1,013,1,+999,9",,"SYN082AAXX  17124 08053 12365 50903 10174 20093 39467 40092 58013 60001 82261 333 50283;","Q01  00002PRCP06"
"08053099999","2010-04-18T06:00:00","4","42.5666666","-6.6","550.0","PONFERRADA, SP","FM-12","99999","V020","300,1,N,0010,1","03600,1,9,N","010000,1,N,1","+0090,1","+0082,1","10110,1","12,0000,9,1","24,0005,9,1",,,,,"06,99,1,03,1,05,1,00250,1,04,1,00,1","0282,9","09,9","999,+0070,9","999,N,+0090,1","99999,9,09465,1","4,1,000,1,+999,9","02,1","SYN106AAXX  18064 08053 11360 63002 10090 20082 39465 40110 54000 69922 702// 83540 333 20090 31007 55047 70004;","Q01  00002PRCP12"
"08053099999","2010-04-18T09:00:00","4","42.5666666","-6.6","550.0","PONFERRADA, SP","FM-12","99999","V020","270,1,N,0015,1","03600,1,9,N","012000,1,N,1","+0120,1","+0106,1","10117,1",,,,,,,"06,99,1,03,1,05,1,00250,1,04,1,00,1",,,,,"99999,9,09479,1","2,1,014,1,+999,9",,"SYN066AAXX  18094 08053 42362 62703 10120 20106 39479 40117 52014 83540;",
"08053099999","2010-04-18T12:00:00","4","42.5666666","-6.6","550.0","PONFERRADA, SP","FM-12","99999","V020","040,1,N,0015,1","03600,1,9,N","018000,1,N,1","+0168,1","+0097,1","10105,1","06,0000,9,1",,,,,,"06,99,1,03,1,02,1,00250,1,06,1,00,1",,,,,"99999,9,09478,1","8,1,001,1,+999,9",,"SYN082AAXX  18124 08053 12368 60403 10168 20097 39478 40105 58001 60001 83260 333 50183;","Q01  00002PRCP06"
"08053099999","2010-04-19T06:00:00","4","42.5666666","-6.6","550.0","PONFERRADA, SP","FM-12","99999","V020","140,1,N,0015,1","00120,1,9,N","002000,1,N,1","+0082,1","+0074,1","10174,1","12,0005,9,1","24,0008,9,1",,,,,"08,99,1,08,1,07,1,00150,1,99,9,99,9","0306,9","09,9","999,+0050,9","999,N,+0074,1","99999,9,09523,1","3,1,004,1,+999,9","10,1","SYN106AAXX  19064 08053 11220 81403 10082 20074 39523 40174 53004 69962 710// 887// 333 20074 31005 55051 70008;",
"08053099999","2010-04-19T09:00:00","4","42.5666666","-6.6","550.0","PONFERRADA, SP","FM-12","99999","V020","090,1,N,0010,1","00210,1,9,N","003000,1,N,1","+0106,1","+0098,1","10184,1",,,,"2,1,03,1","2,1,03,1",,"07,99,1,07,1,07,1,00250,1,99,9,99,9",,,,,"99999,9,09538,1","1,1,015,1,+999,9","10,1","SYN072AAXX  19094 08053 41330 70902 10106 20098 39538 40184 51015 71022 877//;",
"08053099999","2010-04-19T12:00:00","4","42.5666666","-6.6","550.0","PONFERRADA, SP","FM-12","99999","V020","290,1,N,0021,1","03600,1,9,N","022000,1,N,1","+0174,1","+0110,1","10160,1","06,0000,9,1",,,,,,"05,99,1,03,1,02,1,00250,1,06,1,01,1",,,,,"99999,9,09531,1","8,1,007,1,+999,9",,"SYN082AAXX  19124 08053 12372 52904 10174 20110 39531 40160 58007 60001 83261 333 50343;","Q01  00002PRCP06"
"08053099999","2010-04-20T06:00:00","4","42.5666666","-6.6","550.0","PONFERRADA, SP","FM-12","99999","V020","190,1,N,0010,1","03600,1,9,N","025000,1,N,1","+0084,1","+0076,1","10193,1","12,0000,9,1","24,0000,9,1",,,,,"06,99,1,04,1,05,1,00450,1,04,1,01,1","0570,9","01,9","999,+0060,9","999,N,+0082,1","99999,9,09542,1","3,1,004,1,+999,9","02,1","SYN106AAXX  20064 08053 11475 61902 10084 20076 39542 40193 53004 60002 702// 84541 333 20082 30006 55095 70000;","Q01  00002PRCP24Q02  00002PRCP12"
"08053099999","2010-04-20T09:00:00","4","42.5666666","-6.6","550.0","PONFERRADA, SP","FM-12","99999","V020","250,1,N,0015,1","03600,1,9,N","025000,1,N,1","+0128,1","+0089,1","10181,1",,,,,,,"07,99,1,01,1,01,1,00450,1,04,1,01,1",,,,,"99999,9,09540,1","8,1,002,1,+999,9",,"SYN066AAXX  20094 08053 42475 72503 10128 20089 39540 40181 58002 81141;",
"08053099999","2010-04-20T12:00:00","4","42.5666666","-6.6","550.0","PONFERRADA, SP","FM-12","99999","V020","260,1,N,0015,1","00420,1,9,N","028000,1,N,1","+0184,1","+0122,1","10158,1","06,0000,9,1",,,,,,"08,99,1,05,1,07,1,00450,1,02,1,99,9",,,,,"99999,9,09531,1","8,1,009,1,+999,9",,"SYN082AAXX  20124 08053 12478 82603 10184 20122 39531 40158 58009 60001 8572/ 333 50363;","Q01  00002PRCP06"
"08053099999","2010-04-21T06:00:00","4","42.5666666","-6.6","550.0","PONFERRADA, SP","FM-12","99999","V020","010,1,N,0005,1","00210,1,9,N","018000,1,N,1","+0120,1","+0101,1","10132,1","12,0000,9,1","24,0000,9,1",,,,,"08,99,1,07,1,07,1,00250,1,02,1,99,9","0372,9","01,9","999,+0100,9","999,N,+0120,1","99999,9,09493,1","6,1,008,1,+999,9","02,1","SYN106AAXX  21064 08053 11368 80101 10120 20101 39493 40132 56008 60002 702// 8772/ 333 20120 30010 55062 70000;","Q01  00002PRCP24Q02  00002PRCP12"
"08053099999","2010-04-21T09:00:00","4","42.5666666","-6.6","550.0","PONFERRADA, SP","FM-12","99999","V020","280,1,N,0015,1","00210,1,9,N","012000,1,N,1","+0122,1","+0111,1","10138,1",,,,"6,1,03,1","2,1,03,1",,"08,99,1,06,1,07,1,00250,1,02,1,99,9",,,,,"99999,9,09499,1","3,1,006,1,+999,9","60,1","SYN072AAXX  21094 08053 41362 82803 10122 20111 39499 40138 53006 76062 8672/;",
"08053099999","2010-04-21T12:00:00","4","42.5666666","-6.6","550.0","PONFERRADA, SP","FM-12","99999","V020","100,1,N,0010,1","00210,1,9,N","004000,1,N,1","+0140,1","+0119,1","10132,1","06,0005,9,1",,,"6,1,06,1","2,1,06,1",,"08,99,1,06,1,07,1,00250,1,02,1,99,9",,,,,"99999,9,09497,1","8,1,002,1,+999,9","60,1","SYN088AAXX  21124 08053 11340 81002 10140 20119 39497 40132 58002 69961 76062 8672/ 333 50413;",
"08053099999","2010-04-22T06:00:00","4","42.5666666","-6.6","550.0","PONFERRADA, SP","FM-12","99999","V020","130,1,N,0010,1","03600,1,9,N","008000,1,N,1","+0086,1","+0082,1","10114,1","12,0000,9,1","24,0117,9,1",,,,,"08,99,1,04,1,07,1,00250,1,07,1,99,9","0030,9","09,9","999,+0060,9","999,N,+0082,1","99999,9,09468,1","7,1,004,1,+999,9","10,1","SYN106AAXX  22064 08053 11358 81302 10086 20082 39468 40114 57004 60002 710// 8477/ 333 20082 31006 55005 70118;","Q01  00002PRCP12"
"08053099999","2010-04-22T09:00:00","4","42.5666666","-6.6","550.0","PONFERRADA, SP","FM-12","99999","V020","310,1,N,0010,1","00210,1,9,N","003000,1,N,1","+0108,1","+0097,1","10114,1",,,,"2,1,03,1","2,1,03,1",,"08,99,1,08,1,07,1,00250,1,99,9,99,9",,,,,"99999,9,09473,1","1,1,005,1,+999,9","10,1","SYN072AAXX  22094 08053 41330 83102 10108 20097 39473 40114 51005 71022 887//;",
"08053099999","2010-04-22T12:00:00","4","42.5666666","-6.6","550.0","PONFERRADA, SP","FM-12","99999","V020","080,1,N,0015,1","09000,1,9,N","010000,1,N,1","+0148,1","+0104,1","10101,1","06,0000,9,1",,,,,,"05,99,1,02,1,02,1,00250,1,04,1,01,1",,,,,"99999,9,09470,1","8,1,003,1,+999,9",,"SYN082AAXX  22124 08053 12360 50803 10148 20104 39470 40101 58003 60001 82241 333 50143;","Q01  00002PRCP06"
"08053099999","2010-04-23T06:00:00","4","42.5666666","-6.6","550.0","PONFERRADA, SP","FM-12","99999","V020","150,1,N,0010,1","00210,1,9,N","005000,1,N,1","+0084,1","+0076,1","10134,1","12,0000,9,1","24,0010,9,1",,,,,"08,99,1,08,1,07,1,00250,1,99,9,99,9","0270,9","09,9","999,+0060,9","999,N,+0080,1","99999,9,09486,1","3,1,007,1,+999,9","10,1","SYN106AAXX  23064 08053 11350 81502 10084 20076 39486 40134 53007 60002 710// 887// 333 20080 31006 55045 70010;","Q01  00002PRCP12"
"08053099999","2010-04-23T09:00:00","4","42.5666666","-6.6","550.0","PONFERRADA, SP","FM-12","99999","V020","240,1,N,0010,1","00210,1,9,N","005000,1,N,1","+0102,1","+0090,1","10144,1",,,,"2,1,03,1","2,1,03,1",,"08,99,1,08,1,07,1,00250,1,99,9,99,9",,,,,"99999,9,09500,1","2,1,014,1,+999,9","10,1","SYN072AAXX  23094 08053 41350 82402 10102 20090 39500 40144 52014 71022 887//;",
"08053099999","2010-04-23T12:00:00","4","42.5666666","-6.6","550.0","PONFERRADA, SP","FM-12","99999","V020","280,1,N,0015,1","09000,1,9,N","020000,1,N,1","+0170,1","+0108,1","10126,1","06,0000,9,1",,,,,,"05,99,1,02,1,02,1,00250,1,06,1,01,1",,,,,"99999,9,09498,1","8,1,002,1,+999,9",,"SYN082AAXX  23124 08053 12370 52803 10170 20108 39498 40126 58002 60001 82261 333 50313;","Q01  00002PRCP06"
"08053099999","2010-04-24T06:00:00","4","42.5666666","-6.6","550.0","PONFERRADA, SP","FM-12","99999","V020","080,1,N,0005,1","22000,1,9,N","008000,1,N,1","+0074,1","+0070,1","10180,1","12,0000,9,1","24,0000,9,1",,,,,"02,99,1,01,1,07,1,00450,1,04,1,00,1","0450,9","01,9","999,+0050,9","999,N,+0072,1","99999,9,09527,1","3,1,007,1,+999,9","10,1","SYN106AAXX  24064 08053 11458 20801 10074 20070 39527 40180 53007 60002 710// 81740 333 20072 30005 55075 70000;","Q01  00002PRCP24Q02  00002PRCP12"
"08053099999","2010-04-24T09:00:00","4","42.5666666","-6.6","550.0","PONFERRADA, SP","FM-12","99999","V020","260,1,N,0021,1","22000,1,9,N","012000,1,N,1","+0136,1","+0098,1","10175,1",,,,,,,"02,99,1,01,1,01,1,00450,1,04,1,00,1",,,,,"99999,9,09536,1","1,1,009,1,+999,9",,"SYN066AAXX  24094 08053 42462 22604 10136 20098 39536 40175 51009 81140;",
"08053099999","2010-04-24T12:00:00","4","42.5666666","-6.6","550.0","PONFERRADA, SP","FM-12","99999","V020","280,1,N,0026,1","22000,1,9,N","030000,1,N,1","+0198,1","+0097,1","10157,1","06,0000,9,1",,,,,,"03,99,1,01,1,02,1,00450,1,04,1,01,1",,,,,"99999,9,09533,1","8,1,003,1,+999,9",,"SYN082AAXX  24124 08053 12480 32805 10198 20097 39533 40157 58003 60001 81241 333 50373;","Q01  00002PRCP06"
"08053099999","2010-04-25T06:00:00","4","42.5666666","-6.6","550.0","PONFERRADA, SP","FM-12","99999","V020","270,1,N,0005,1","00420,1,9,N","028000,1,N,1","+0140,1","+0122,1","10232,1","12,0000,9,1","24,0000,9,1",,,,,"07,99,1,07,1,07,1,00450,1,02,1,99,9","0654,9","01,9","999,+0110,9","999,N,+0138,1","99999,9,09591,1","3,1,012,1,+999,9","02,1","SYN106AAXX  25064 08053 11478 72701 10140 20122 39591 40232 53012 60002 702// 8772/ 333 20138 30011 55109 70000;","Q01  00002PRCP24Q02  00002PRCP12"
"08053099999","2010-04-25T09:00:00","4","42.5666666","-6.6","550.0","PONFERRADA, SP","FM-12","99999","V020","280,1,N,0021,1","03600,1,9,N","028000,1,N,1","+0168,1","+0125,1","10235,1",,,,,,,"05,99,1,04,1,04,1,00450,1,04,1,00,1",,,,,"99999,9,09600,1","1,1,009,1,+999,9",,"SYN066AAXX  25094 08053 42478 52804 10168 20125 39600 40235 51009 84440;",
"08053099999","2010-04-25T12:00:00","4","42.5666666","-6.6","550.0","PONFERRADA, SP","FM-12","99999","V020","280,1,N,0026,1","22000,1,9,N","030000,1,N,1","+0210,1","+0134,1","10217,1","06,0000,9,1",,,,,,"03,99,1,01,1,02,1,00450,1,04,1,01,1",,,,,"99999,9,09592,1","8,1,008,1,+999,9",,"SYN082AAXX  25124 08053 12480 32805 10210 20134 39592 40217 58008 60001 81241 333 50543;","Q01  00002PRCP06"
"08053099999","2010-04-26T06:00:00","4","42.5666666","-6.6","550.0","PONFERRADA, SP","FM-12","99999","V020","180,1,N,0010,1","22000,1,9,N","015000,1,N,1","+0102,1","+0097,1","10269,1","12,0000,9,1","24,0000,9,1",,,,,"03,99,1,00,1,00,1,99999,9,00,1,01,1","0726,9","01,9","999,+0080,9","999,N,+0100,1","99999,9,09617,1","2,1,006,1,+999,9","02,1","SYN106AAXX  26064 08053 11965 31802 10102 20097 39617 40269 52006 60002 702// 80001 333 20100 30008 55121 70000;","Q01  00002PRCP24Q02  00002PRCP12"
"08053099999","2010-04-26T09:00:00","4","42.5666666","-6.6","550.0","PONFERRADA, SP","FM-12","99999","V020","180,1,N,0010,1","99999,9,9,N","018000,1,N,1","+0156,1","+0112,1","10266,1",,,,,,,"05,99,1,00,1,00,1,99999,9,00,1,01,1",,,,,"99999,9,09626,1","1,1,009,1,+999,9",,"SYN066AAXX  26094 08053 42968 51802 10156 20112 39626 40266 51009 80001;",
"08053099999","2010-04-26T12:00:00","4","42.5666666","-6.6","550.0","PONFERRADA, SP","FM-12","99999","V020","280,1,N,0021,1","99999,9,9,N","022000,1,N,1","+0230,1","+0135,1","10222,1","06,0000,9,1",,,,,,"05,99,1,00,1,00,1,99999,9,00,1,01,1",,,,,"99999,9,09601,1","8,1,025,1,+999,9",,"SYN082AAXX  26124 08053 12972 52804 10230 20135 39601 40222 58025 60001 80001 333 50543;","Q01  00002PRCP06"
"08053099999","2010-04-27T06:00:00","4","42.5666666","-6.6","550.0","PONFERRADA, SP","FM-12","99999","V020","999,9,C,0000,1","09000,1,9,N","015000,1,N,1","+0096,1","+0075,1","10255,1","12,0000,9,1","24,0000,9,1",,,,,"05,99,1,01,1,04,1,00250,1,04,1,01,1","0744,9","01,9","999,+0080,9","999,N,+0096,1","99999,9,09602,1","3,1,002,1,+999,9","02,1","SYN106AAXX  27064 08053 11365 50000 10096 20075 39602 40255 53002 60002 702// 81441 333 20096 30008 55124 70000;","Q01  00002PRCP24Q02  00002PRCP12"
"08053099999","2010-04-27T09:00:00","4","42.5666666","-6.6","550.0","PONFERRADA, SP","FM-12","99999","V020","280,1,N,0015,1","03600,1,9,N","025000,1,N,1","+0156,1","+0099,1","10241,1",,,,,,,"06,99,1,02,1,05,1,00250,1,04,1,01,1",,,,,"99999,9,09603,1","0,1,001,1,+999,9",,"SYN066AAXX  27094 08053 42375 62803 10156 20099 39603 40241 50001 82541;",
"08053099999","2010-04-27T12:00:00","4","42.5666666","-6.6","550.0","PONFERRADA, SP","FM-12","99999","V020","100,1,N,0010,1","03600,1,9,N","028000,1,N,1","+0246,1","+0122,1","10213,1","06,0000,9,1",,,,,,"06,99,1,02,1,05,1,00250,1,04,1,01,1",,,,,"99999,9,09595,1","8,1,008,1,+999,9",,"SYN082AAXX  27124 08053 12378 61002 10246 20122 39595 40213 58008 60001 82541 333 50393;","Q01  00002PRCP06"
"08053099999","2010-04-28T06:00:00","4","42.5666666","-6.6","550.0","PONFERRADA, SP","FM-12","99999","V020","110,1,N,0010,1","03600,1,9,N","015000,1,N,1","+0102,1","+0078,1","10226,1","12,0000,9,1","24,0000,9,1",,,,,"06,99,1,02,1,05,1,00250,1,04,1,01,1","0654,9","01,9","999,+0080,9","999,N,+0102,1","99999,9,09576,1","5,1,000,1,+999,9","02,1","SYN106AAXX  28064 08053 11365 61102 10102 20078 39576 40226 55000 60002 702// 82541 333 20102 30008 55109 70000;","Q01  00002PRCP24Q02  00002PRCP12"
"08053099999","2010-04-28T09:00:00","4","42.5666666","-6.6","550.0","PONFERRADA, SP","FM-12","99999","V020","250,1,N,0015,1","22000,1,9,N","020000,1,N,1","+0164,1","+0105,1","10208,1",,,,,,,"03,99,1,01,1,05,1,00250,1,04,1,01,1",,,,,"99999,9,09573,1","8,1,003,1,+999,9",,"SYN066AAXX  28094 08053 42370 32503 10164 20105 39573 40208 58003 81541;",
"08053099999","2010-04-28T12:00:00","4","42.5666666","-6.6","550.0","PONFERRADA, SP","FM-12","99999","V020","270,1,N,0010,1","22000,1,9,N","025000,1,N,1","+0236,1","+0132,1","10174,1","06,0000,9,1",,,,,,"03,99,1,01,1,01,1,00450,1,00,1,01,1",,,,,"99999,9,09557,1","8,1,016,1,+999,9",,"SYN082AAXX  28124 08053 12475 32702 10236 20132 39557 40174 58016 60001 81101 333 50573;","Q01  00002PRCP06"
"08053099999","2010-04-29T06:00:00","4","42.5666666","-6.6","550.0","PONFERRADA, SP","FM-12","99999","V020","999,9,C,0000,1","00210,1,C,N","012000,1,N,1","+0134,1","+0123,1","10162,1","12,0005,9,1","24,0005,9,1",,,,"02,1,+00240,1,09,1","06,99,1,05,1,09,1,00250,1,04,1,01,1","0642,9","09,9","999,+0110,9","999,N,+0134,1","99999,9,09524,1","5,1,002,1,+999,9","02,1","SYN112AAXX  29064 08053 11362 60000 10134 20123 39524 40162 55002 69942 702/6 85941 333 20134 31011 55107 70004 82908;",
"08053099999","2010-04-29T09:00:00","4","42.5666666","-6.6","550.0","PONFERRADA, SP","FM-12","99999","V020","300,1,N,0010,1","03600,1,9,N","012000,1,N,1","+0160,1","+0129,1","10164,1",,,,,,,"06,99,1,02,1,04,1,00450,1,04,1,02,1",,,,,"99999,9,09532,1","2,1,008,1,+999,9",,"SYN066AAXX  29094 08053 42462 63002 10160 20129 39532 40164 52008 82442;",
"08053099999","2010-04-29T12:00:00","4","42.5666666","-6.6","550.0","PONFERRADA, SP","FM-12","99999","V020","300,1,N,0031,1","03600,1,9,N","028000,1,N,1","+0202,1","+0134,1","10147,1","06,0000,9,1",,,,,,"06,99,1,03,1,02,1,00450,1,04,1,02,1",,,,,"99999,9,09525,1","8,1,007,1,+999,9",,"SYN082AAXX  29124 08053 12478 63006 10202 20134 39525 40147 58007 60001 83242 333 50613;","Q01  00002PRCP06"
"08053099999","2010-04-30T06:00:00","4","42.5666666","-6.6","550.0","PONFERRADA, SP","FM-12","99999","V020","160,1,N,0010,1","00210,1,9,N","010000,1,N,1","+0110,1","+0082,1","10166,1","12,0000,9,1","24,0000,9,1",,,,,"08,99,1,05,1,07,1,00250,1,07,1,99,9","0606,9","01,9","999,+0080,9","999,N,+0104,1","99999,9,09522,1","3,1,002,1,+999,9","02,1","SYN106AAXX  30064 08053 11360 81602 10110 20082 39522 40166 53002 60002 702// 8577/ 333 20104 30008 55101 70000;","Q01  00002PRCP24Q02  00002PRCP12"
"08053099999","2010-04-30T09:00:00","4","42.5666666","-6.6","550.0","PONFERRADA, SP","FM-12","99999","V020","280,1,N,0021,1","03600,1,9,N","010000,1,N,1","+0138,1","+0100,1","10147,1",,,,,,,"06,99,1,03,1,06,1,00250,1,06,1,01,1",,,,,"99999,9,09511,1","8,1,011,1,+999,9",,"SYN066AAXX  30094 08053 42360 62804 10138 20100 39511 40147 58011 83661;",
"08053099999","2010-04-30T12:00:00","4","42.5666666","-6.6","550.0","PONFERRADA, SP","FM-12","99999","V020","300,1,N,0015,1","03600,1,9,N","018000,1,N,1","+0176,1","+0102,1","10129,1","06,0000,9,1",,,,,,"07,99,1,02,1,04,1,00450,1,06,1,02,1",,,,,"99999,9,09502,1","8,1,009,1,+999,9",,"SYN082AAXX  30124 08053 12468 73003 10176 20102 39502 40129 58009 60001 82462 333 50523;","Q01  00002PRCP06"
"08053099999","2010-05-01T06:00:00","4","42.5666666","-6.6","550.0","PONFERRADA, SP","FM-12","99999","V020","999,9,C,0000,1","03600,1,9,N","012000,1,N,1","+0094,1","+0078,1","10152,1","12,0000,9,1","24,0000,9,1",,,,,"06,99,1,03,1,05,1,00450,1,06,1,01,1","0264,9","01,9","999,+0080,9","999,N,+0080,1","99999,9,09505,1","3,1,005,1,+999,9","02,1","SYN106AAXX  01064 08053 11462 60000 10094 20078 39505 40152 53005 60002 702// 83561 333 20080 30008 55044 70000;","Q01  00002PRCP24Q02  00002PRCP12"
"08053099999","2010-05-01T09:00:00","4","42.5666666","-6.6","550.0","PONFERRADA, SP","FM-12","99999","V020","300,1,N,0015,1","22000,1,9,N","018000,1,N,1","+0142,1","+0088,1","10142,1",,,,,,,"02,99,1,01,1,01,1,00450,1,04,1,00,1",,,,,"99999,9,09507,1","0,1,002,1,+999,9",,"SYN066AAXX  01094 08053 42468 23003 10142 20088 39507 40142 50002 81140;",
"08053099999","2010-05-01T12:00:00","4","42.5666666","-6.6","550.0","PONFERRADA, SP","FM-12","99999","V020","280,1,N,0026,1","00420,1,9,N","035000,1,N,1","+0188,1","+0093,1","10128,1","06,0000,9,1",,,,,,"05,99,1,05,1,02,1,00450,1,00,1,00,1",,,,,"99999,9,09503,1","8,1,004,1,+999,9",,"SYN082AAXX  01124 08053 12481 52805 10188 20093 39503 40128 58004 60001 85200 333 50353;","Q01  00002PRCP06"
"08053099999","2010-05-02T06:00:00","4","42.5666666","-6.6","550.0","PONFERRADA, SP","FM-12","99999","V020","280,1,N,0015,1","00420,1,9,N","015000,1,N,1","+0104,1","+0071,1","10170,1","12,0000,9,1","24,0000,9,1",,,,,"07,99,1,07,1,07,1,00450,1,99,9,99,9","0696,9","01,9","999,+0080,9","999,N,+0104,1","99999,9,09524,1","3,1,003,1,+999,9","02,1","SYN106AAXX  02064 08053 11465 72803 10104 20071 39524 40170 53003 60002 702// 877// 333 20104 30008 55116 70000;","Q01  00002PRCP24Q02  00002PRCP12"
"08053099999","2010-05-02T09:00:00","4","42.5666666","-6.6","550.0","PONFERRADA, SP","FM-12","99999","V020","290,1,N,0031,1","00420,1,9,N","018000,1,N,1","+0126,1","+0069,1","10170,1",,,,,,,"06,99,1,06,1,07,1,00450,1,00,1,00,1",,,,,"99999,9,09529,1","0,1,005,1,+999,9",,"SYN066AAXX  02094 08053 42468 62906 10126 20069 39529 40170 50005 86700;",
"08053099999","2010-05-02T12:00:00","4","42.5666666","-6.6","550.0","PONFERRADA, SP","FM-12","99999","V020","240,1,N,0036,1","22000,1,9,N","025000,1,N,1","+0164,1","+0060,1","10149,1","06,0000,9,1",,,,,,"04,99,1,04,1,04,1,00450,1,00,1,00,1",,,,,"99999,9,09517,1","8,1,012,1,+999,9",,"SYN082AAXX  02124 08053 12475 42407 10164 20060 39517 40149 58012 60001 84400 333 50603;","Q01  00002PRCP06"
"08053099999","2010-05-03T06:00:00","4","42.5666666","-6.6","550.0","PONFERRADA, SP","FM-12","99999","V020","270,1,N,0010,1","00210,1,9,N","025000,1,N,1","+0080,1","+0035,1","10186,1","12,0000,9,1","24,0000,9,1",,,,,"06,99,1,06,1,05,1,00250,1,00,1,00,1","0558,9","01,9","999,+0050,9","999,N,+0072,1","99999,9,09533,1","3,1,005,1,+999,9","02,1","SYN106AAXX  03064 08053 11375 62702 10080 20035 39533 40186 53005 60002 702// 86500 333 20072 30005 55093 70000;","Q01  00002PRCP24Q02  00002PRCP12"
"08053099999","2010-05-03T09:00:00","4","42.5666666","-6.6","550.0","PONFERRADA, SP","FM-12","99999","V020","340,1,N,0026,1","00420,1,9,N","028000,1,N,1","+0100,1","+0021,1","10190,1",,,,,,,"06,99,1,06,1,05,1,00450,1,00,1,00,1",,,,,"99999,9,09541,1","1,1,008,1,+999,9",,"SYN066AAXX  03094 08053 42478 63405 10100 20021 39541 40190 51008 86500;",
"08053099999","2010-05-03T12:00:00","4","42.5666666","-6.6","550.0","PONFERRADA, SP","FM-12","99999","V020","360,1,N,0031,1","00420,1,9,N","030000,1,N,1","+0128,1","+0002,1","10191,1","06,0000,9,1",,,,,,"06,99,1,06,1,05,1,00450,1,00,1,00,1",,,,,"99999,9,09548,1","0,1,007,1,+999,9",,"SYN082AAXX  03124 08053 12480 63606 10128 20002 39548 40191 50007 60001 86500 333 50563;","Q01  00002PRCP06"
"08053099999","2010-05-04T06:00:00","4","42.5666666","-6.6","550.0","PONFERRADA, SP","FM-12","99999","V020","050,1,N,0010,1","22000,1,9,N","018000,1,N,1","+0044,1","+0004,1","10210,1","12,0000,9,1","24,0000,9,1",,,,,"02,99,1,02,1,05,1,00450,1,00,1,00,1","0468,9","01,9","999,+0010,9","999,N,+0034,1","99999,9,09547,1","5,1,006,1,+999,9","02,1","SYN106AAXX  04064 08053 11468 20502 10044 20004 39547 40210 55006 60002 702// 82500 333 20034 30001 55078 70000;","Q01  00002PRCP24Q02  00002PRCP12"
"08053099999","2010-05-04T09:00:00","4","42.5666666","-6.6","550.0","PONFERRADA, SP","FM-12","99999","V020","330,1,N,0031,1","00420,1,9,N","022000,1,N,1","+0088,1","+0012,1","10204,1",,,,,,,"05,99,1,05,1,02,1,00450,1,00,1,00,1",,,,,"99999,9,09552,1","1,1,005,1,+999,9",,"SYN066AAXX  04094 08053 42472 53306 10088 20012 39552 40204 51005 85200;",
"08053099999","2010-05-04T12:00:00","4","42.5666666","-6.6","550.0","PONFERRADA, SP","FM-12","99999","V020","350,1,N,0031,1","03600,1,9,N","025000,1,N,1","+0112,1","+0003,1","10204,1","06,0000,9,1",,,,,,"05,99,1,04,1,02,1,00450,1,04,1,00,1",,,,,"99999,9,09557,1","3,1,005,1,+999,9",,"SYN082AAXX  04124 08053 12475 53506 10112 20003 39557 40204 53005 60001 84240 333 50503;","Q01  00002PRCP06"
"08053099999","2010-05-05T06:00:00","4","42.5666666","-6.6","550.0","PONFERRADA, SP","FM-12","99999","V020","310,1,N,0010,1","22000,1,9,N","022000,1,N,1","+0024,1","-0014,1","10217,1","12,0000,9,1","24,0000,9,1",,,,,"02,99,1,01,1,01,1,00450,1,04,1,00,1","0546,9","14,9","999,-0010,9","999,N,+0010,1","99999,9,09549,1","5,1,001,1,+999,9","02,1","SYN106AAXX  05064 08053 11472 23102 10024 21014 39549 40217 55001 60002 702// 81140 333 20010 34101 55091 70000;","Q01  00002PRCP24Q02  00002PRCP12"
"08053099999","2010-05-05T09:00:00","4","42.5666666","-6.6","550.0","PONFERRADA, SP","FM-12","99999","V020","230,1,N,0021,1","22000,1,9,N","025000,1,N,1","+0094,1","+0003,1","10184,1",,,,,,,"01,99,1,01,1,01,1,00800,1,00,1,00,1",,,,,"99999,9,09534,1","8,1,015,1,+999,9",,"SYN066AAXX  05094 08053 42575 12304 10094 20003 39534 40184 58015 81100;",
"08053099999","2010-05-05T12:00:00","4","42.5666666","-6.6","550.0","PONFERRADA, SP","FM-12","99999","V020","020,1,N,0031,1","22000,1,9,N","030000,1,N,1","+0144,1","+0006,1","10155,1","06,0000,9,1",,,,,,"01,99,1,01,1,01,1,00800,1,00,1,00,1",,,,,"99999,9,09518,1","7,1,016,1,+999,9",,"SYN082AAXX  05124 08053 12580 10206 10144 20006 39518 40155 57016 60001 81100 333 50413;","Q01  00002PRCP06"
"08053099999","2010-05-06T06:00:00","4","42.5666666","-6.6","550.0","PONFERRADA, SP","FM-12","99999","V020","280,1,N,0010,1","22000,1,9,N","025000,1,N,1","+0020,1","+0004,1","10164,1","12,0000,9,1","24,0000,9,1",,,,,"02,99,1,00,1,00,1,99999,9,00,1,01,1","0798,9","01,9","999,-0010,9","999,N,+0014,1","99999,9,09499,1","3,1,004,1,+999,9","02,1","SYN106AAXX  06064 08053 11975 22802 10020 20004 39499 40164 53004 60002 702// 80001 333 20014 30101 55133 70000;","Q01  00002PRCP24Q02  00002PRCP12"
"08053099999","2010-05-06T09:00:00","4","42.5666666","-6.6","550.0","PONFERRADA, SP","FM-12","99999","V020","260,1,N,0015,1","22000,1,9,N","025000,1,N,1","+0084,1","+0013,1","10140,1",,,,,,,"01,99,1,00,1,00,1,99999,9,00,1,01,1",,,,,"99999,9,09491,1","8,1,008,1,+999,9",,"SYN066AAXX  06094 08053 42975 12603 10084 20013 39491 40140 58008 80001;",
"08053099999","2010-05-06T12:00:00","4","42.5666666","-6.6","550.0","PONFERRADA, SP","FM-12","99999","V020","160,1,N,0021,1","22000,1,9,N","028000,1,N,1","+0142,1","+0025,1","10102,1","06,0000,9,1",,,,,,"01,99,1,01,1,01,1,00800,1,00,1,00,1",,,,,"99999,9,09468,1","7,1,023,1,+999,9",,"SYN082AAXX  06124 08053 12578 11604 10142 20025 39468 40102 57023 60001 81100 333 50473;","Q01  00002PRCP06"
"08053099999","2010-05-07T06:00:00","4","42.5666666","-6.6","550.0","PONFERRADA, SP","FM-12","99999","V020","290,1,N,0015,1","00420,1,9,N","008000,1,N,1","+0082,1","+0060,1","10077,1","12,0000,9,1","24,0000,9,1",,,,,"08,99,1,06,1,07,1,00450,1,02,1,99,9","0786,9","01,9","999,+0050,9","999,N,+0074,1","99999,9,09432,1","5,1,005,1,+999,9","10,1","SYN106AAXX  07064 08053 11458 82903 10082 20060 39432 40077 55005 60002 710// 8672/ 333 20074 30005 55131 70000;","Q01  00002PRCP24Q02  00002PRCP12"
"08053099999","2010-05-07T12:00:00","4","42.5666666","-6.6","550.0","PONFERRADA, SP","FM-12","99999","V020","280,1,N,0021,1","00210,1,9,N","010000,1,N,1","+0122,1","+0065,1","10058,1","06,0030,9,1",,,"6,1,06,1","2,1,06,1",,"08,99,1,06,1,07,1,00250,1,02,1,99,9",,,,,"99999,9,09423,1","6,1,010,1,+999,9","02,1","SYN088AAXX  07124 08053 11360 82804 10122 20065 39423 40058 56010 60031 70262 8672/ 333 50483;",
"08053099999","2010-05-08T06:00:00","4","42.5666666","-6.6","550.0","PONFERRADA, SP","FM-12","99999","V020","050,1,N,0010,1","03600,1,9,N","010000,1,N,1","+0084,1","+0076,1","10065,1","12,0010,9,1","24,0056,9,1",,,,,"08,99,1,04,1,07,1,00250,1,07,1,99,9","0150,9","11,9","999,+0020,9","999,N,+0084,1","99999,9,09422,1","6,1,003,1,+999,9","21,1","SYN106AAXX  08064 08053 11360 80502 10084 20076 39422 40065 56003 60012 721// 8477/ 333 20084 32002 55025 70056;",
"08053099999","2010-05-08T09:00:00","4","42.5666666","-6.6","550.0","PONFERRADA, SP","FM-12","99999","V020","310,1,N,0015,1","03600,1,9,N","015000,1,N,1","+0120,1","+0071,1","10057,1",,,,,,,"06,99,1,03,1,04,1,00250,1,06,1,00,1",,,,,"99999,9,09422,1","4,1,000,1,+999,9",,"SYN066AAXX  08094 08053 42365 63103 10120 20071 39422 40057 54000 83460;",
"08053099999","2010-05-08T12:00:00","4","42.5666666","-6.6","550.0","PONFERRADA, SP","FM-12","99999","V020","250,1,N,0015,1","03600,1,9,N","018000,1,N,1","+0136,1","+0072,1","10054,1","06,0000,2,1",,,,,,"07,99,1,03,1,04,1,00250,1,06,1,00,1",,,,,"99999,9,09423,1","1,1,001,1,+999,9",,"SYN082AAXX  08124 08053 12368 72503 10136 20072 39423 40054 51001 60001 83460 333 50133;",
"08053099999","2010-05-09T06:00:00","4","42.5666666","-6.6","550.0","PONFERRADA, SP","FM-12","99999","V020","230,1,N,0010,1","03600,1,9,N","006000,1,N,1","+0094,1","+0089,1","09990,1","12,0041,9,1","24,0109,9,1",,,,,"08,99,1,03,1,07,1,00250,1,07,1,99,9","0198,9","11,9","999,+0070,9","999,N,+0092,1","99999,9,09354,1","6,1,013,1,+999,9","60,1","SYN106AAXX  09064 08053 11356 82302 10094 20089 39354 49990 56013 60042 760// 8377/ 333 20092 32007 55033 70108;",
"08053099999","2010-05-09T09:00:00","4","42.5666666","-6.6","550.0","PONFERRADA, SP","FM-12","99999","V020","300,1,N,0015,1","03600,1,9,N","006000,1,N,1","+0114,1","+0095,1","09993,1",,,,"6,1,03,1","2,1,03,1",,"08,99,1,04,1,07,1,00250,1,07,1,99,9",,,,,"99999,9,09361,1","3,1,007,1,+999,9","10,1","SYN072AAXX  09094 08053 41356 83003 10114 20095 39361 49993 53007 71062 8477/;",
"08053099999","2010-05-09T12:00:00","4","42.5666666","-6.6","550.0","PONFERRADA, SP","FM-12","99999","V020","280,1,N,0031,1","09000,1,9,N","015000,1,N,1","+0132,1","+0076,1","10011,1","06,0005,9,1",,,"6,1,06,1","2,1,06,1",,"05,99,1,02,1,02,1,00250,1,06,1,01,1",,,,,"99999,9,09382,1","2,1,021,1,+999,9","01,1","SYN088AAXX  09124 08053 11365 52806 10132 20076 39382 40011 52021 69961 70162 82261 333 50283;",
"08053099999","2010-05-10T06:00:00","4","42.5666666","-6.6","550.0","PONFERRADA, SP","FM-12","99999","V020","140,1,N,0021,1","03600,1,9,N","012000,1,N,1","+0080,1","+0049,1","10063,1","12,0000,9,1","24,0005,9,1",,,,,"08,99,1,04,1,07,1,00250,1,07,1,99,9","0222,9","09,9","999,+0060,9","999,N,+0080,1","99999,9,09419,1","3,1,003,1,+999,9","02,1","SYN106AAXX  10064 08053 11362 81404 10080 20049 39419 40063 53003 60002 702// 8477/ 333 20080 31006 55037 70006;","Q01  00002PRCP12"
"08053099999","2010-05-10T09:00:00","4","42.5666666","-6.6","550.0","PONFERRADA, SP","FM-12","99999","V020","090,1,N,0031,1","00210,1,9,N","008000,1,N,1","+0082,1","+0057,1","10069,1",,,,"6,1,03,1","2,1,03,1",,"08,99,1,08,1,07,1,00250,1,99,9,99,9",,,,,"99999,9,09425,1","1,1,006,1,+999,9","21,1","SYN072AAXX  10094 08053 41358 80906 10082 20057 39425 40069 51006 72162 887//;",
"08053099999","2010-05-10T12:00:00","4","42.5666666","-6.6","550.0","PONFERRADA, SP","FM-12","99999","V020","080,1,N,0015,1","00210,1,9,N","008000,1,N,1","+0104,1","+0062,1","10067,1","06,0000,2,1",,,"6,1,06,1","2,1,06,1",,"08,99,1,08,1,07,1,00250,1,99,9,99,9",,,,,"99999,9,09428,1","1,1,003,1,+999,9","05,1","SYN088AAXX  10124 08053 11358 80803 10104 20062 39428 40067 51003 69901 70562 887// 333 50383;",
"08053099999","2010-05-11T06:00:00","4","42.5666666","-6.6","550.0","PONFERRADA, SP","FM-12","99999","V020","160,1,N,0010,1","03600,1,9,N","012000,1,N,1","+0080,1","+0076,1","10087,1","12,0000,9,1","24,0003,9,1",,,,,"06,99,1,03,1,05,1,00250,1,04,1,00,1","0006,9","09,9","999,+0060,9","999,N,+0076,1","99999,9,09441,1","5,1,000,1,+999,9","02,1","SYN106AAXX  11064 08053 11362 61602 10080 20076 39441 40087 55000 60002 702// 83540 333 20076 31006 55001 70002;","Q01  00002PRCP12"
"08053099999","2010-05-11T12:00:00","4","42.5666666","-6.6","550.0","PONFERRADA, SP","FM-12","99999","V020","270,1,N,0031,1","03600,1,9,N","015000,1,N,1","+0142,1","+0070,1","10071,1","06,0000,9,1",,,,,,"06,99,1,03,1,04,1,00250,1,06,1,01,1",,,,,"99999,9,09440,1","8,1,007,1,+999,9",,"SYN082AAXX  11124 08053 12365 62706 10142 20070 39440 40071 58007 60001 83461 333 50113;","Q01  00002PRCP06"
"08053099999","2010-05-12T06:00:00","4","42.5666666","-6.6","550.0","PONFERRADA, SP","FM-12","99999","V020","250,1,N,0015,1","00210,1,9,N","005000,1,N,1","+0070,1","+0066,1","10104,1","12,0041,9,1","24,0145,9,1",,,,,"08,99,1,08,1,07,1,00250,1,99,9,99,9","0126,9","11,9","999,+0070,9","999,N,+0070,1","99999,9,09455,1","3,1,007,1,+999,9","63,1","SYN106AAXX  12064 08053 11350 82503 10070 20066 39455 40104 53007 60042 763// 887// 333 20070 32007 55021 70146;",
"08053099999","2010-05-12T09:00:00","4","42.5666666","-6.6","550.0","PONFERRADA, SP","FM-12","99999","V020","130,1,N,0015,1","00210,1,9,N","005000,1,N,1","+0074,1","+0070,1","10113,1",,,,"6,1,03,1","2,1,03,1",,"08,99,1,08,1,07,1,00250,1,99,9,99,9",,,,,"99999,9,09464,1","1,1,009,1,+999,9","21,1","SYN072AAXX  12094 08053 41350 81303 10074 20070 39464 40113 51009 72162 887//;",
"08053099999","2010-05-12T12:00:00","4","42.5666666","-6.6","550.0","PONFERRADA, SP","FM-12","99999","V020","090,1,N,0015,1","00210,1,9,N","010000,1,N,1","+0110,1","+0060,1","10103,1","06,0041,9,1",,,"6,1,06,1","2,1,06,1",,"08,99,1,08,1,07,1,00250,1,99,9,99,9",,,,,"99999,9,09463,1","8,1,001,1,+999,9","02,1","SYN088AAXX  12124 08053 11360 80903 10110 20060 39463 40103 58001 60041 70262 887// 333 50153;",
"08053099999","2010-05-13T06:00:00","4","42.5666666","-6.6","550.0","PONFERRADA, SP","FM-12","99999","V020","270,1,N,0010,1","03600,1,9,N","010000,1,N,1","+0054,1","+0036,1","10140,1","12,0010,9,1","24,0061,9,1",,,,,"08,99,1,04,1,07,1,00250,1,07,1,99,9","0018,9","09,9","999,+0030,9","999,N,+0054,1","99999,9,09485,1","3,1,004,1,+999,9","02,1","SYN106AAXX  13064 08053 11360 82702 10054 20036 39485 40140 53004 60012 702// 8477/ 333 20054 31003 55003 70060;",
"08053099999","2010-05-13T09:00:00","4","42.5666666","-6.6","550.0","PONFERRADA, SP","FM-12","99999","V020","210,1,N,0015,1","03600,1,9,N","015000,1,N,1","+0076,1","+0031,1","10151,1",,,,,,,"06,99,1,04,1,07,1,00250,1,04,1,00,1",,,,,"99999,9,09500,1","1,1,015,1,+999,9",,"SYN066AAXX  13094 08053 42365 62103 10076 20031 39500 40151 51015 84740;",
"08053099999","2010-05-13T12:00:00","4","42.5666666","-6.6","550.0","PONFERRADA, SP","FM-12","99999","V020","210,1,N,0021,1","03600,1,9,N","018000,1,N,1","+0122,1","+0029,1","10132,1","06,0000,9,1",,,,,,"06,99,1,03,1,04,1,00250,1,06,1,01,1",,,,,"99999,9,09492,1","7,1,008,1,+999,9",,"SYN082AAXX  13124 08053 12368 62104 10122 20029 39492 40132 57008 60001 83461 333 50153;","Q01  00002PRCP06"
"08053099999","2010-05-14T06:00:00","4","42.5666666","-6.6","550.0","PONFERRADA, SP","FM-12","99999","V020","300,1,N,0010,1","00210,1,9,N","010000,1,N,1","+0054,1","+0036,1","10166,1","12,0000,9,1","24,0005,9,1",,,,,"08,99,1,05,1,07,1,00250,1,07,1,99,9","0390,9","09,9","999,+0030,9","999,N,+0046,1","99999,9,09509,1","6,1,007,1,+999,9","02,1","SYN106AAXX  14064 08053 11360 83002 10054 20036 39509 40166 56007 60002 702// 8577/ 333 20046 31003 55065 70006;","Q01  00002PRCP12"
"08053099999","2010-05-14T09:00:00","4","42.5666666","-6.6","550.0","PONFERRADA, SP","FM-12","99999","V020","260,1,N,0021,1","00210,1,9,N","008000,1,N,1","+0072,1","+0050,1","10165,1",,,,"6,1,03,1","2,1,03,1",,"08,99,1,08,1,07,1,00250,1,99,9,99,9",,,,,"99999,9,09512,1","1,1,003,1,+999,9","21,1","SYN072AAXX  14094 08053 41358 82604 10072 20050 39512 40165 51003 72162 887//;",
"08053099999","2010-05-14T12:00:00","4","42.5666666","-6.6","550.0","PONFERRADA, SP","FM-12","99999","V020","280,1,N,0010,1","00210,1,9,N","006000,1,N,1","+0086,1","+0074,1","10158,1","06,0008,9,1",,,"6,1,06,1","2,1,06,1",,"08,99,1,08,1,07,1,00250,1,99,9,99,9",,,,,"99999,9,09509,1","8,1,003,1,+999,9","21,1","SYN088AAXX  14124 08053 11356 82802 10086 20074 39509 40158 58003 69981 72162 887// 333 50283;",
"08053099999","2010-05-15T06:00:00","4","42.5666666","-6.6","550.0","PONFERRADA, SP","FM-12","99999","V020","260,1,N,0026,1","03600,1,9,N","010000,1,N,1","+0066,1","+0029,1","10211,1","12,0000,9,1","24,0023,9,1",,,,,"06,99,1,03,1,05,1,00250,1,04,1,00,1","0072,9","09,9","999,+0040,9","999,N,+0064,1","99999,9,09554,1","3,1,008,1,+999,9","02,1","SYN106AAXX  15064 08053 11360 62605 10066 20029 39554 40211 53008 60002 702// 83540 333 20064 31004 55012 70024;","Q01  00002PRCP12"
"08053099999","2010-05-15T09:00:00","4","42.5666666","-6.6","550.0","PONFERRADA, SP","FM-12","99999","V020","270,1,N,0036,1","03600,1,9,N","012000,1,N,1","+0096,1","+0044,1","10216,1",,,,,,,"07,99,1,03,1,07,1,00250,1,07,1,99,9",,,,,"99999,9,09565,1","1,1,011,1,+999,9",,"SYN066AAXX  15094 08053 42362 72707 10096 20044 39565 40216 51011 8377/;",
"08053099999","2010-05-16T06:00:00","4","42.5666666","-6.6","550.0","PONFERRADA, SP","FM-12","99999","V020","999,9,C,0000,1","22000,1,9,N","015000,1,N,1","+0028,1","+0018,1","10272,1","12,0000,9,1","24,0000,9,1",,,,"00,1,+99999,9,99,9","00,99,1,00,1,00,1,99999,9,00,1,00,1","0462,9","01,9","999,+0000,9","999,N,+0020,1","99999,9,09602,1","3,1,009,1,+999,9","00,1","SYN100AAXX  16064 08053 11965 00000 10028 20018 39602 40272 53009 60002 700// 333 20020 30000 55077 70000;","Q01  00002PRCP24Q02  00002PRCP12"
"08053099999","2010-05-16T09:00:00","4","42.5666666","-6.6","550.0","PONFERRADA, SP","FM-12","99999","V020","240,1,N,0015,1","22000,1,9,N","015000,1,N,1","+0090,1","+0036,1","10262,1",,,,,,"00,1,+99999,9,99,9","00,99,1,00,1,00,1,99999,9,00,1,00,1",,,,,"99999,9,09607,1","1,1,005,1,+999,9",,"SYN060AAXX  16094 08053 42965 02403 10090 20036 39607 40262 51005;",
"08053099999","2010-05-16T12:00:00","4","42.5666666","-6.6","550.0","PONFERRADA, SP","FM-12","99999","V020","280,1,N,0026,1","22000,1,9,N","025000,1,N,1","+0150,1","+0044,1","10245,1","06,0000,9,1",,,,,"00,1,+99999,9,99,9","00,99,1,00,1,00,1,99999,9,00,1,00,1",,,,,"99999,9,09604,1","8,1,003,1,+999,9",,"SYN076AAXX  16124 08053 12975 02805 10150 20044 39604 40245 58003 60001 333 50303;","Q01  00002PRCP06"
"08053099999","2010-05-17T06:00:00","4","42.5666666","-6.6","550.0","PONFERRADA, SP","FM-12","99999","V020","999,9,9,9999,9","22000,1,9,N","012000,1,N,1","+0064,1","+0041,1","10288,1","12,0000,9,1","24,0000,9,1",,,,"00,1,+99999,9,99,9","00,99,1,00,1,00,1,99999,9,00,1,00,1","0816,9","01,9","999,+0040,9","999,N,+0062,1","99999,9,09625,1","3,1,007,1,+999,9","00,1","SYN100AAXX  17064 08053 11962 0//// 10064 20041 39625 40288 53007 60002 700// 333 20062 30004 55136 70000;","Q01  00002PRCP24Q02  00002PRCP12"
"08053099999","2010-05-17T09:00:00","4","42.5666666","-6.6","550.0","PONFERRADA, SP","FM-12","99999","V020","290,1,N,0015,1","22000,1,9,N","022000,1,N,1","+0130,1","+0070,1","10278,1",,,,,,"00,1,+99999,9,99,9","00,99,1,00,1,00,1,99999,9,00,1,00,1",,,,,"99999,9,09631,1","1,1,006,1,+999,9",,"SYN060AAXX  17094 08053 42972 02903 10130 20070 39631 40278 51006;",
"08053099999","2010-05-17T12:00:00","4","42.5666666","-6.6","550.0","PONFERRADA, SP","FM-12","99999","V020","140,1,N,0005,1","22000,1,9,N","028000,1,N,1","+0206,1","+0072,1","10245,1","06,0000,9,1",,,,,,"01,99,1,01,1,01,1,00800,1,00,1,00,1",,,,,"99999,9,09616,1","8,1,015,1,+999,9",,"SYN082AAXX  17124 08053 12578 11401 10206 20072 39616 40245 58015 60001 81100 333 50443;","Q01  00002PRCP06"
"08053099999","2010-05-18T06:00:00","4","42.5666666","-6.6","550.0","PONFERRADA, SP","FM-12","99999","V020","360,1,N,0005,1","22000,1,9,N","025000,1,N,1","+0106,1","+0085,1","10290,1","12,0000,9,1","24,0000,9,1",,,,"00,1,+99999,9,99,9","00,99,1,00,1,00,1,99999,9,00,1,00,1","0810,9","01,9","999,+0070,9","999,N,+0094,1","99999,9,09637,1","3,1,003,1,+999,9","00,1","SYN100AAXX  18064 08053 11975 03601 10106 20085 39637 40290 53003 60002 700// 333 20094 30007 55135 70000;","Q01  00002PRCP24Q02  00002PRCP12"
"08053099999","2010-05-18T09:00:00","4","42.5666666","-6.6","550.0","PONFERRADA, SP","FM-12","99999","V020","300,1,N,0015,1","22000,1,9,N","025000,1,N,1","+0162,1","+0103,1","10278,1",,,,,,"00,1,+99999,9,99,9","00,99,1,00,1,00,1,99999,9,00,1,00,1",,,,,"99999,9,09639,1","0,1,002,1,+999,9",,"SYN060AAXX  18094 08053 42975 03003 10162 20103 39639 40278 50002;",
"08053099999","2010-05-18T12:00:00","4","42.5666666","-6.6","550.0","PONFERRADA, SP","FM-12","99999","V020","250,1,N,0021,1","22000,1,9,N","028000,1,N,1","+0240,1","+0092,1","10242,1","06,0000,9,1",,,,,,"03,99,1,01,1,01,1,00800,1,00,1,01,1",,,,,"99999,9,09621,1","8,1,018,1,+999,9",,"SYN082AAXX  18124 08053 12578 32504 10240 20092 39621 40242 58018 60001 81101 333 50743;","Q01  00002PRCP06"
"08053099999","2010-05-19T06:00:00","4","42.5666666","-6.6","550.0","PONFERRADA, SP","FM-12","99999","V020","999,9,C,0000,1","22000,1,9,N","025000,1,N,1","+0110,1","+0082,1","10281,1","12,0000,9,1","24,0000,9,1",,,,"00,1,+99999,9,99,9","00,99,1,00,1,00,1,99999,9,00,1,00,1","0798,9","01,9","999,+0070,9","999,N,+0094,1","99999,9,09630,1","3,1,009,1,+999,9","00,1","SYN100AAXX  19064 08053 11975 00000 10110 20082 39630 40281 53009 60002 700// 333 20094 30007 55133 70000;","Q01  00002PRCP24Q02  00002PRCP12"
"08053099999","2010-05-19T09:00:00","4","42.5666666","-6.6","550.0","PONFERRADA, SP","FM-12","99999","V020","240,1,N,0010,1","22000,1,9,N","025000,1,N,1","+0170,1","+0094,1","10264,1",,,,,,"00,1,+99999,9,99,9","00,99,1,00,1,00,1,99999,9,00,1,00,1",,,,,"99999,9,09627,1","8,1,003,1,+999,9",,"SYN060AAXX  19094 08053 42975 02402 10170 20094 39627 40264 58003;",
"08053099999","2010-05-19T12:00:00","4","42.5666666","-6.6","550.0","PONFERRADA, SP","FM-12","99999","V020","280,1,N,0021,1","22000,1,9,N","030000,1,N,1","+0244,1","+0103,1","10229,1","06,0000,9,1",,,,,"00,1,+99999,9,99,9","00,99,1,00,1,00,1,99999,9,00,1,00,1",,,,,"99999,9,09610,1","8,1,017,1,+999,9",,"SYN076AAXX  19124 08053 12980 02804 10244 20103 39610 40229 58017 60001 333 50793;","Q01  00002PRCP06"
"08053099999","2010-05-20T06:00:00","4","42.5666666","-6.6","550.0","PONFERRADA, SP","FM-12","99999","V020","999,9,C,0000,1","22000,1,9,N","025000,1,N,1","+0126,1","+0096,1","10270,1","12,0000,9,1","24,0000,9,1",,,,"00,1,+99999,9,99,9","00,99,1,00,1,00,1,99999,9,00,1,00,1","0822,9","01,9","999,+0090,9","999,N,+0110,1","99999,9,09623,1","3,1,003,1,+999,9","00,1","SYN100AAXX  20064 08053 11975 00000 10126 20096 39623 40270 53003 60002 700// 333 20110 30009 55137 70000;","Q01  00002PRCP24Q02  00002PRCP12"
"08053099999","2010-05-20T09:00:00","4","42.5666666","-6.6","550.0","PONFERRADA, SP","FM-12","99999","V020","090,1,N,0010,1","22000,1,9,N","030000,1,N,1","+0208,1","+0081,1","10248,1",,,,,,"00,1,+99999,9,99,9","00,99,1,00,1,00,1,99999,9,00,1,00,1",,,,,"99999,9,09620,1","8,1,003,1,+999,9",,"SYN060AAXX  20094 08053 42980 00902 10208 20081 39620 40248 58003;",
"08053099999","2010-05-20T12:00:00","4","42.5666666","-6.6","550.0","PONFERRADA, SP","FM-12","99999","V020","120,1,N,0031,1","22000,1,9,N","030000,1,N,1","+0254,1","+0071,1","10224,1","06,0000,9,1",,,,,"00,1,+99999,9,99,9","00,99,1,00,1,00,1,99999,9,00,1,00,1",,,,,"99999,9,09606,1","8,1,014,1,+999,9",,"SYN076AAXX  20124 08053 12980 01206 10254 20071 39606 40224 58014 60001 333 50583;","Q01  00002PRCP06"
"08053099999","2010-05-21T06:00:00","4","42.5666666","-6.6","550.0","PONFERRADA, SP","FM-12","99999","V020","999,9,C,0000,1","22000,1,9,N","015000,1,N,1","+0116,1","+0081,1","10240,1","12,0000,9,1","24,0000,9,1",,,,"00,1,+99999,9,99,9","00,99,1,00,1,00,1,99999,9,00,1,00,1","0810,9","01,9","999,+0090,9","999,N,+0106,1","99999,9,09593,1","3,1,007,1,+999,9","00,1","SYN100AAXX  21064 08053 11965 00000 10116 20081 39593 40240 53007 60002 700// 333 20106 30009 55135 70000;","Q01  00002PRCP24Q02  00002PRCP12"
"08053099999","2010-05-21T09:00:00","4","42.5666666","-6.6","550.0","PONFERRADA, SP","FM-12","99999","V020","270,1,N,0015,1","22000,1,9,N","025000,1,N,1","+0186,1","+0083,1","10217,1",,,,,,"00,1,+99999,9,99,9","00,99,1,00,1,00,1,99999,9,00,1,00,1",,,,,"99999,9,09586,1","8,1,007,1,+999,9",,"SYN060AAXX  21094 08053 42975 02703 10186 20083 39586 40217 58007;",
"08053099999","2010-05-21T12:00:00","4","42.5666666","-6.6","550.0","PONFERRADA, SP","FM-12","99999","V020","060,1,N,0015,1","22000,1,9,N","030000,1,N,1","+0262,1","+0104,1","10180,1","06,0000,9,1",,,,,"00,1,+99999,9,99,9","00,99,1,00,1,00,1,99999,9,00,1,00,1",,,,,"99999,9,09567,1","8,1,019,1,+999,9","00,1","SYN082AAXX  21124 08053 11980 00603 10262 20104 39567 40180 58019 60001 700// 333 51053;","Q01  00002PRCP06"
"08053099999","2010-05-22T06:00:00","4","42.5666666","-6.6","550.0","PONFERRADA, SP","FM-12","99999","V020","999,9,C,0000,1","22000,1,9,N","030000,1,N,1","+0116,1","+0085,1","10196,1","12,0000,9,1","24,0000,9,1",,,,"00,1,+99999,9,99,9","00,99,1,00,1,00,1,99999,9,00,1,00,1","0822,9","01,9","999,+0080,9","999,N,+0104,1","99999,9,09552,1","3,1,003,1,+999,9","00,1","SYN100AAXX  22064 08053 11980 00000 10116 20085 39552 40196 53003 60002 700// 333 20104 30008 55137 70000;","Q01  00002PRCP24Q02  00002PRCP12"
"08053099999","2010-05-22T09:00:00","4","42.5666666","-6.6","550.0","PONFERRADA, SP","FM-12","99999","V020","240,1,N,0010,1","22000,1,9,N","030000,1,N,1","+0190,1","+0089,1","10171,1",,,,,,"00,1,+99999,9,99,9","00,99,1,00,1,00,1,99999,9,00,1,00,1",,,,,"99999,9,09544,1","8,1,008,1,+999,9",,"SYN060AAXX  22094 08053 42980 02402 10190 20089 39544 40171 58008;",
"08053099999","2010-05-22T12:00:00","4","42.5666666","-6.6","550.0","PONFERRADA, SP","FM-12","99999","V020","260,1,N,0015,1","22000,1,9,N","035000,1,N,1","+0264,1","+0113,1","10135,1","06,0000,9,1",,,,,"00,1,+99999,9,99,9","00,99,1,00,1,00,1,99999,9,00,1,00,1",,,,,"99999,9,09525,1","7,1,019,1,+999,9",,"SYN076AAXX  22124 08053 12981 02603 10264 20113 39525 40135 57019 60001 333 50583;","Q01  00002PRCP06"
"08053099999","2010-05-23T06:00:00","4","42.5666666","-6.6","550.0","PONFERRADA, SP","FM-12","99999","V020","999,9,C,0000,1","22000,1,9,N","020000,1,N,1","+0146,1","+0110,1","10149,1","12,0000,9,1","24,0000,9,1",,,,,"02,99,1,00,1,00,1,99999,9,00,1,01,1","0828,9","01,9","999,+0100,9","999,N,+0130,1","99999,9,09514,1","3,1,001,1,+999,9","02,1","SYN106AAXX  23064 08053 11970 20000 10146 20110 39514 40149 53001 60002 702// 80001 333 20130 30010 55138 70000;","Q01  00002PRCP24Q02  00002PRCP12"
"08053099999","2010-05-23T09:00:00","4","42.5666666","-6.6","550.0","PONFERRADA, SP","FM-12","99999","V020","260,1,N,0010,1","22000,1,9,N","022000,1,N,1","+0206,1","+0123,1","10130,1",,,,,,"00,1,+99999,9,99,9","00,99,1,00,1,00,1,99999,9,00,1,00,1",,,,,"99999,9,09509,1","8,1,005,1,+999,9",,"SYN060AAXX  23094 08053 42972 02602 10206 20123 39509 40130 58005;",
"08053099999","2010-05-23T12:00:00","4","42.5666666","-6.6","550.0","PONFERRADA, SP","FM-12","99999","V020","240,1,N,0021,1","22000,1,9,N","025000,1,N,1","+0276,1","+0132,1","10099,1","06,0000,9,1",,,,,,"01,99,1,01,1,02,1,00800,1,00,1,00,1",,,,,"99999,9,09494,1","7,1,015,1,+999,9",,"SYN082AAXX  23124 08053 12575 12404 10276 20132 39494 40099 57015 60001 81200 333 50763;","Q01  00002PRCP06"
"08053099999","2010-05-24T06:00:00","4","42.5666666","-6.6","550.0","PONFERRADA, SP","FM-12","99999","V020","999,9,C,0000,1","22000,1,9,N","018000,1,N,1","+0160,1","+0137,1","10130,1","12,0000,9,1","24,0000,9,1",,,,,"01,99,1,01,1,00,1,01250,1,04,1,00,1","0762,9","01,9","999,+0120,9","999,N,+0150,1","99999,9,09500,1","3,1,007,1,+999,9","02,1","SYN106AAXX  24064 08053 11668 10000 10160 20137 39500 40130 53007 60002 702// 81040 333 20150 30012 55127 70000;","Q01  00002PRCP24Q02  00002PRCP12"
"08053099999","2010-05-24T09:00:00","4","42.5666666","-6.6","550.0","PONFERRADA, SP","FM-12","99999","V020","250,1,N,0021,1","22000,1,9,N","018000,1,N,1","+0210,1","+0144,1","10123,1",,,,,,,"01,99,1,01,1,01,1,00800,1,00,1,00,1",,,,,"99999,9,09504,1","1,1,004,1,+999,9",,"SYN066AAXX  24094 08053 42568 12504 10210 20144 39504 40123 51004 81100;",
"08053099999","2010-05-24T12:00:00","4","42.5666666","-6.6","550.0","PONFERRADA, SP","FM-12","99999","V020","210,1,N,0046,1","00420,1,9,N","020000,1,N,1","+0262,1","+0115,1","10106,1","06,0000,9,1",,,,,,"05,99,1,05,1,02,1,00450,1,00,1,00,1",,,,,"99999,9,09498,1","8,1,006,1,+999,9",,"SYN082AAXX  24124 08053 12470 52109 10262 20115 39498 40106 58006 60001 85200 333 50723;","Q01  00002PRCP06"
"08053099999","2010-05-25T06:00:00","4","42.5666666","-6.6","550.0","PONFERRADA, SP","FM-12","99999","V020","280,1,N,0010,1","03600,1,9,N","012000,1,N,1","+0150,1","+0106,1","10115,1","12,9999,9,9","24,9999,9,9",,,,,"06,99,1,03,1,05,1,00250,1,04,1,00,1","0588,9","09,9","999,+0130,9","999,N,+0150,1","99999,9,09483,1","3,1,001,1,+999,9","25,1","SYN106AAXX  25064 08053 11362 62802 10150 20106 39483 40115 53001 69902 725// 83540 333 20150 31013 55098 79999;","Q01  00002PRCP24Q02  00002PRCP12Q03  00002PRCP12Q04  00002PRCP24"
"08053099999","2010-05-25T09:00:00","4","42.5666666","-6.6","550.0","PONFERRADA, SP","FM-12","99999","V020","240,1,N,0021,1","03600,1,9,N","012000,1,N,1","+0172,1","+0094,1","10113,1",,,,"8,1,03,1","2,1,03,1",,"08,99,1,04,1,07,1,00250,1,07,1,99,9",,,,,"99999,9,09486,1","0,1,003,1,+999,9","03,1","SYN072AAXX  25094 08053 41362 82404 10172 20094 39486 40113 50003 70382 8477/;",
"08053099999","2010-05-25T12:00:00","4","42.5666666","-6.6","550.0","PONFERRADA, SP","FM-12","99999","V020","290,1,N,0010,1","03600,1,9,N","015000,1,N,1","+0180,1","+0120,1","10112,1","06,0000,2,1",,,"8,1,06,1","6,1,06,1",,"07,99,1,03,1,07,1,00250,1,07,1,99,9",,,,,"99999,9,09487,1","0,1,001,1,+999,9","60,1","SYN088AAXX  25124 08053 11365 72902 10180 20120 39487 40112 50001 69901 76086 8377/ 333 50523;",
"08053099999","2010-05-26T06:00:00","4","42.5666666","-6.6","550.0","PONFERRADA, SP","FM-12","99999","V020","110,1,N,0015,1","03600,1,9,N","008000,1,N,1","+0126,1","+0118,1","10135,1","12,0005,9,1","24,0051,9,1",,,,,"08,99,1,04,1,07,1,00250,1,07,1,99,9","0234,9","09,9","999,+0110,9","999,N,+0126,1","99999,9,09497,1","5,1,000,1,+999,9","10,1","SYN106AAXX  26064 08053 11358 81103 10126 20118 39497 40135 55000 69962 710// 8477/ 333 20126 31011 55039 70050;",
"08053099999","2010-05-26T09:00:00","4","42.5666666","-6.6","550.0","PONFERRADA, SP","FM-12","99999","V020","290,1,N,0010,1","03600,1,9,N","012000,1,N,1","+0148,1","+0104,1","10134,1",,,,"5,1,03,1","2,1,03,1",,"07,99,1,04,1,07,1,00250,1,04,1,99,9",,,,,"99999,9,09501,1","0,1,004,1,+999,9","02,1","SYN072AAXX  26094 08053 41362 72902 10148 20104 39501 40134 50004 70252 8474/;",
"08053099999","2010-05-26T12:00:00","4","42.5666666","-6.6","550.0","PONFERRADA, SP","FM-12","99999","V020","270,1,N,0015,1","03600,1,9,N","015000,1,N,1","+0148,1","+0108,1","10141,1","06,0005,9,1",,,"6,1,06,1","5,1,06,1",,"08,99,1,04,1,07,1,00250,1,07,1,99,9",,,,,"99999,9,09507,1","1,1,006,1,+999,9","21,1","SYN088AAXX  26124 08053 11365 82703 10148 20108 39507 40141 51006 69951 72165 8477/ 333 50433;",
"08053099999","2010-05-27T06:00:00","4","42.5666666","-6.6","550.0","PONFERRADA, SP","FM-12","99999","V020","999,9,C,0000,1","22000,1,9,N","012000,1,N,1","+0112,1","+0101,1","10138,1","12,0000,9,1","24,0005,9,1",,,,,"04,99,1,02,1,04,1,00450,1,04,1,01,1","0012,9","09,9","999,+0090,9","999,N,+0110,1","99999,9,09497,1","5,1,001,1,+999,9","02,1","SYN106AAXX  27064 08053 11462 40000 10112 20101 39497 40138 55001 60002 702// 82441 333 20110 31009 55002 70005;","Q01  00002PRCP12"
"08053099999","2010-05-27T09:00:00","4","42.5666666","-6.6","550.0","PONFERRADA, SP","FM-12","99999","V020","030,1,N,0015,1","22000,1,9,N","015000,1,N,1","+0166,1","+0111,1","10131,1",,,,,,,"05,99,1,03,1,02,1,00450,1,00,1,01,1",,,,,"99999,9,09502,1","0,1,005,1,+999,9",,"SYN066AAXX  27094 08053 42465 50303 10166 20111 39502 40131 50005 83201;",
"08053099999","2010-05-27T12:00:00","4","42.5666666","-6.6","550.0","PONFERRADA, SP","FM-12","99999","V020","270,1,N,0021,1","00420,1,9,N","020000,1,N,1","+0192,1","+0105,1","10120,1","06,0000,9,1",,,,,,"07,99,1,07,1,02,1,00450,1,99,9,99,9",,,,,"99999,9,09497,1","8,1,005,1,+999,9",,"SYN082AAXX  27124 08053 12470 72704 10192 20105 39497 40120 58005 60001 872// 333 50163;","Q01  00002PRCP06"
"08053099999","2010-05-28T06:00:00","4","42.5666666","-6.6","550.0","PONFERRADA, SP","FM-12","99999","V020","999,9,C,0000,1","03600,1,9,N","012000,1,N,1","+0106,1","+0087,1","10185,1","12,0000,9,1","24,0000,9,1",,,,,"06,99,1,03,1,05,1,00450,1,04,1,01,1","0318,9","01,9","999,+0070,9","999,N,+0094,1","99999,9,09539,1","3,1,012,1,+999,9","02,1","SYN106AAXX  28064 08053 11462 60000 10106 20087 39539 40185 53012 60002 702// 83541 333 20094 30007 55053 70000;","Q01  00002PRCP24Q02  00002PRCP12"
"08053099999","2010-05-28T09:00:00","4","42.5666666","-6.6","550.0","PONFERRADA, SP","FM-12","99999","V020","290,1,N,0021,1","22000,1,9,N","015000,1,N,1","+0150,1","+0085,1","10181,1",,,,,,,"04,99,1,04,1,02,1,00450,1,00,1,00,1",,,,,"99999,9,09545,1","1,1,006,1,+999,9",,"SYN066AAXX  28094 08053 42465 42904 10150 20085 39545 40181 51006 84200;",
"08053099999","2010-05-28T12:00:00","4","42.5666666","-6.6","550.0","PONFERRADA, SP","FM-12","99999","V020","280,1,N,0026,1","22000,1,9,N","022000,1,N,1","+0194,1","+0075,1","10166,1","06,0000,9,1",,,,,,"02,99,1,01,1,01,1,00450,1,00,1,01,1",,,,,"99999,9,09540,1","8,1,005,1,+999,9",,"SYN082AAXX  28124 08053 12472 22805 10194 20075 39540 40166 58005 60001 81101 333 50393;","Q01  00002PRCP06"
"08053099999","2010-05-29T06:00:00","4","42.5666666","-6.6","550.0","PONFERRADA, SP","FM-12","99999","V020","210,1,N,0010,1","03600,1,9,N","012000,1,N,1","+0128,1","+0089,1","10231,1","12,0000,9,1","24,0000,9,1",,,,,"08,99,1,04,1,05,1,00250,1,07,1,99,9","0696,9","01,9","999,+0110,9","999,N,+0126,1","99999,9,09587,1","3,1,013,1,+999,9","02,1","SYN106AAXX  29064 08053 11362 82102 10128 20089 39587 40231 53013 60002 702// 8457/ 333 20126 30011 55116 70000;","Q01  00002PRCP24Q02  00002PRCP12"
"08053099999","2010-05-29T09:00:00","4","42.5666666","-6.6","550.0","PONFERRADA, SP","FM-12","99999","V020","260,1,N,0015,1","03600,1,9,N","018000,1,N,1","+0176,1","+0114,1","10233,1",,,,,,,"06,99,1,03,1,05,1,00250,1,04,1,00,1",,,,,"99999,9,09600,1","2,1,013,1,+999,9",,"SYN066AAXX  29094 08053 42368 62603 10176 20114 39600 40233 52013 83540;",
"08053099999","2010-05-29T12:00:00","4","42.5666666","-6.6","550.0","PONFERRADA, SP","FM-12","99999","V020","320,1,N,0021,1","03600,1,9,N","025000,1,N,1","+0192,1","+0113,1","10230,1","06,0000,9,1",,,,,,"06,99,1,03,1,04,1,00250,1,06,1,00,1",,,,,"99999,9,09600,1","5,1,000,1,+999,9",,"SYN082AAXX  29124 08053 12375 63204 10192 20113 39600 40230 55000 60001 83460 333 50573;","Q01  00002PRCP06"
"08053099999","2010-05-30T06:00:00","4","42.5666666","-6.6","550.0","PONFERRADA, SP","FM-12","99999","V020","130,1,N,0005,1","22000,1,9,N","010000,1,N,1","+0122,1","+0111,1","10280,1","12,0000,9,1","24,0000,9,1",,,,,"02,99,1,01,1,05,1,00450,1,04,1,00,1","0486,9","01,9","999,+0090,9","999,N,+0112,1","99999,9,09632,1","3,1,007,1,+999,9","02,1","SYN106AAXX  30064 08053 11460 21301 10122 20111 39632 40280 53007 60002 702// 81540 333 20112 30009 55081 70000;","Q01  00002PRCP24Q02  00002PRCP12"
"08053099999","2010-05-30T09:00:00","4","42.5666666","-6.6","550.0","PONFERRADA, SP","FM-12","99999","V020","250,1,N,0015,1","22000,1,9,N","015000,1,N,1","+0180,1","+0127,1","10264,1",,,,,,,"04,99,1,02,1,05,1,00450,1,04,1,01,1",,,,,"99999,9,09630,1","8,1,002,1,+999,9",,"SYN066AAXX  30094 08053 42465 42503 10180 20127 39630 40264 58002 82541;",
"08053099999","2010-05-30T12:00:00","4","42.5666666","-6.6","550.0","PONFERRADA, SP","FM-12","99999","V020","180,1,N,0015,1","22000,1,9,N","030000,1,N,1","+0234,1","+0141,1","10242,1","06,0000,9,1",,,,,,"01,99,1,01,1,02,1,00450,1,00,1,00,1",,,,,"99999,9,09621,1","8,1,009,1,+999,9",,"SYN082AAXX  30124 08053 12480 11803 10234 20141 39621 40242 58009 60001 81200 333 50563;","Q01  00002PRCP06"
"08053099999","2010-05-31T06:00:00","4","42.5666666","-6.6","550.0","PONFERRADA, SP","FM-12","99999","V020","999,9,C,0000,1","22000,1,9,N","018000,1,N,1","+0144,1","+0130,1","10259,1","12,0000,9,1","24,0000,9,1",,,,,"01,99,1,00,1,00,1,99999,9,00,1,01,1","0612,9","01,9","999,+0120,9","999,N,+0140,1","99999,9,09618,1","3,1,001,1,+999,9","02,1","SYN106AAXX  31064 08053 11868 10000 10144 20130 39618 40259 53001 60002 702// 80001 333 20140 30012 55102 70000;","Q01+022502SCOLCBQ02  00002PRCP24Q03  00002PRCP12"
"08053099999","2010-05-31T09:00:00","4","42.5666666","-6.6","550.0","PONFERRADA, SP","FM-12","99999","V020","160,1,N,0010,1","22000,1,9,N","025000,1,N,1","+0200,1","+0150,1","10234,1",,,,,,,"02,99,1,00,1,00,1,99999,9,00,1,01,1",,,,,"99999,9,09606,1","8,1,012,1,+999,9",,"SYN066AAXX  31094 08053 42875 21602 10200 20150 39606 40234 58012 80001;","Q01+022502SCOLCB"
"08053099999","2010-05-31T12:00:00","4","42.5666666","-6.6","550.0","PONFERRADA, SP","FM-12","99999","V020","120,1,N,0010,1","22000,1,9,N","030000,1,N,1","+0264,1","+0151,1","10204,1","06,0000,9,1",,,,,,"01,99,1,01,1,01,1,00800,1,00,1,00,1",,,,,"99999,9,09591,1","8,1,015,1,+999,9",,"SYN082AAXX  31124 08053 12580 11202 10264 20151 39591 40204 58015 60001 81100 333 50503;","Q01  00002PRCP06"
"08053099999","2010-06-01T06:00:00","4","42.5666666","-6.6","550.0","PONFERRADA, SP","FM-12","99999","V020","999,9,C,0000,1","09000,1,9,N","022000,1,N,1","+0154,1","+0139,1","10195,1","12,0000,9,1","24,0000,9,1",,,,,"06,99,1,02,1,00,1,01750,1,04,1,02,1","0726,9","01,9","999,+0110,9","999,N,+0138,1","99999,9,09560,1","3,1,001,1,+999,9","02,1","SYN106AAXX  01064 08053 11772 60000 10154 20139 39560 40195 53001 60002 702// 82042 333 20138 30011 55121 70000;","Q01  00002PRCP24Q02  00002PRCP12"
"08053099999","2010-06-01T09:00:00","4","42.5666666","-6.6","550.0","PONFERRADA, SP","FM-12","99999","V020","290,1,N,0010,1","22000,1,9,N","025000,1,N,1","+0194,1","+0146,1","10184,1",,,,,,,"05,99,1,03,1,00,1,01750,1,04,1,01,1",,,,,"99999,9,09558,1","6,1,002,1,+999,9",,"SYN066AAXX  01094 08053 42775 52902 10194 20146 39558 40184 56002 83041;",
"08053099999","2010-06-01T12:00:00","4","42.5666666","-6.6","550.0","PONFERRADA, SP","FM-12","99999","V020","290,1,N,0015,1","03600,1,9,N","030000,1,N,1","+0256,1","+0153,1","10161,1","06,0000,9,1",,,,,,"06,99,1,01,1,01,1,00800,1,04,1,02,1",,,,,"99999,9,09549,1","8,1,009,1,+999,9",,"SYN082AAXX  01124 08053 12580 62903 10256 20153 39549 40161 58009 60001 81142 333 51003;","Q01  00002PRCP06"
"08053099999","2010-06-02T06:00:00","4","42.5666666","-6.6","550.0","PONFERRADA, SP","FM-12","99999","V020","999,9,C,0000,1","22000,1,9,N","020000,1,N,1","+0150,1","+0129,1","10175,1","12,0000,9,1","24,0000,9,1",,,,,"02,99,1,01,1,00,1,01750,1,04,1,01,1","0354,9","01,9","999,+0120,9","999,N,+0144,1","99999,9,09540,1","3,1,007,1,+999,9","02,1","SYN106AAXX  02064 08053 11770 20000 10150 20129 39540 40175 53007 60002 702// 81041 333 20144 30012 55059 70000;","Q01  00002PRCP24Q02  00002PRCP12"
"08053099999","2010-06-02T09:00:00","4","42.5666666","-6.6","550.0","PONFERRADA, SP","FM-12","99999","V020","270,1,N,0015,1","22000,1,9,N","028000,1,N,1","+0204,1","+0136,1","10153,1",,,,,,,"03,99,1,02,1,00,1,01750,1,04,1,01,1",,,,,"99999,9,09531,1","8,1,009,1,+999,9",,"SYN066AAXX  02094 08053 42778 32703 10204 20136 39531 40153 58009 82041;",
"08053099999","2010-06-02T12:00:00","4","42.5666666","-6.6","550.0","PONFERRADA, SP","FM-12","99999","V020","280,1,N,0015,1","22000,1,9,N","030000,1,N,1","+0256,1","+0138,1","10129,1","06,0000,9,1",,,,,,"02,99,1,01,1,01,1,00800,1,04,1,01,1",,,,,"99999,9,09519,1","6,1,012,1,+999,9",,"SYN082AAXX  02124 08053 12580 22803 10256 20138 39519 40129 56012 60001 81141 333 50583;","Q01  00002PRCP06"
"08053099999","2010-06-03T06:00:00","4","42.5666666","-6.6","550.0","PONFERRADA, SP","FM-12","99999","V020","280,1,N,0010,1","22000,1,9,N","018000,1,N,1","+0146,1","+0117,1","10143,1","12,0000,9,1","24,0000,9,1",,,,,"01,99,1,01,1,05,1,00800,1,00,1,00,1","0660,9","01,9","999,+0090,9","999,N,+0132,1","99999,9,09509,1","3,1,005,1,+999,9","02,1","SYN106AAXX  03064 08053 11568 12802 10146 20117 39509 40143 53005 60002 702// 81500 333 20132 30009 55110 70000;","Q01  00002PRCP24Q02  00002PRCP12"
"08053099999","2010-06-03T09:00:00","4","42.5666666","-6.6","550.0","PONFERRADA, SP","FM-12","99999","V020","250,1,N,0015,1","22000,1,9,N","028000,1,N,1","+0210,1","+0124,1","10128,1",,,,,,"00,1,+99999,9,99,9","00,99,1,00,1,00,1,99999,9,00,1,00,1",,,,,"99999,9,09508,1","8,1,001,1,+999,9",,"SYN060AAXX  03094 08053 42978 02503 10210 20124 39508 40128 58001;",
"08053099999","2010-06-03T12:00:00","4","42.5666666","-6.6","550.0","PONFERRADA, SP","FM-12","99999","V020","270,1,N,0021,1","22000,1,9,N","030000,1,N,1","+0266,1","+0147,1","10105,1","06,0000,9,1",,,,,,"01,99,1,01,1,01,1,00800,1,00,1,00,1",,,,,"99999,9,09498,1","8,1,010,1,+999,9",,"SYN082AAXX  03124 08053 12580 12704 10266 20147 39498 40105 58010 60001 81100 333 50543;","Q01  00002PRCP06"
"08053099999","2010-06-04T06:00:00","4","42.5666666","-6.6","550.0","PONFERRADA, SP","FM-12","99999","V020","999,9,C,0000,1","22000,1,9,N","020000,1,N,1","+0142,1","+0104,1","10189,1","12,0000,9,1","24,0000,9,1",,,,,"01,99,1,00,1,00,1,99999,9,00,1,09,1","0840,9","01,9","999,+0110,9","999,N,+0126,1","99999,9,09551,1","3,1,013,1,+999,9","02,1","SYN106AAXX  04064 08053 11870 10000 10142 20104 39551 40189 53013 60002 702// 80009 333 20126 30011 55140 70000;","Q01+022502SCOLCBQ02  00002PRCP24Q03  00002PRCP12"
"08053099999","2010-06-04T09:00:00","4","42.5666666","-6.6","550.0","PONFERRADA, SP","FM-12","99999","V020","240,1,N,0010,1","22000,1,9,N","025000,1,N,1","+0202,1","+0127,1","10177,1",,,,,,,"01,99,1,01,1,00,1,01250,1,04,1,00,1",,,,,"99999,9,09553,1","0,1,002,1,+999,9",,"SYN066AAXX  04094 08053 42675 12402 10202 20127 39553 40177 50002 81040;",
"08053099999","2010-06-04T12:00:00","4","42.5666666","-6.6","550.0","PONFERRADA, SP","FM-12","99999","V020","270,1,N,0021,1","22000,1,9,N","030000,1,N,1","+0266,1","+0147,1","10154,1","06,0000,9,1",,,,,,"01,99,1,01,1,01,1,00800,1,04,1,01,1",,,,,"99999,9,09544,1","8,1,009,1,+999,9",,"SYN082AAXX  04124 08053 12580 12704 10266 20147 39544 40154 58009 60001 81141 333 50853;","Q01  00002PRCP06"
"08053099999","2010-06-05T06:00:00","4","42.5666666","-6.6","550.0","PONFERRADA, SP","FM-12","99999","V020","310,1,N,0010,1","99999,9,9,N","018000,1,N,1","+0152,1","+0137,1","10173,1","12,0000,9,1","24,0000,9,1",,,,,"06,99,1,00,1,00,1,99999,9,00,1,06,1","0840,9","01,9","999,+0120,9","999,N,+0148,1","99999,9,09539,1","5,1,000,1,+999,9","02,1","SYN106AAXX  05064 08053 11968 63102 10152 20137 39539 40173 55000 60002 702// 80006 333 20148 30012 55140 70000;","Q01  00002PRCP24Q02  00002PRCP12"
"08053099999","2010-06-05T09:00:00","4","42.5666666","-6.6","550.0","PONFERRADA, SP","FM-12","99999","V020","280,1,N,0015,1","09000,1,9,N","020000,1,N,1","+0196,1","+0150,1","10159,1",,,,,,,"05,99,1,02,1,00,1,01750,1,04,1,02,1",,,,,"99999,9,09535,1","8,1,004,1,+999,9",,"SYN066AAXX  05094 08053 42770 52803 10196 20150 39535 40159 58004 82042;",
"08053099999","2010-06-05T12:00:00","4","42.5666666","-6.6","550.0","PONFERRADA, SP","FM-12","99999","V020","250,1,N,0036,1","03600,1,9,N","022000,1,N,1","+0258,1","+0169,1","10135,1","06,0000,9,1",,,,,,"06,99,1,02,1,02,1,00450,1,04,1,02,1",,,,,"99999,9,09526,1","8,1,009,1,+999,9",,"SYN082AAXX  05124 08053 12472 62507 10258 20169 39526 40135 58009 60001 82242 333 50913;","Q01  00002PRCP06"
"08053099999","2010-06-06T06:00:00","4","42.5666666","-6.6","550.0","PONFERRADA, SP","FM-12","99999","V020","280,1,N,0010,1","22000,1,9,N","025000,1,N,1","+0146,1","+0117,1","10194,1","12,0000,9,1","24,0000,9,1",,,,,"05,99,1,03,1,00,1,01750,1,04,1,01,1","0666,9","01,9","999,+0110,9","999,N,+0138,1","99999,9,09557,1","3,1,010,1,+999,9","02,1","SYN106AAXX  06064 08053 11775 52802 10146 20117 39557 40194 53010 60002 702// 83041 333 20138 30011 55111 70000;","Q01  00002PRCP24Q02  00002PRCP12"
"08053099999","2010-06-06T09:00:00","4","42.5666666","-6.6","550.0","PONFERRADA, SP","FM-12","99999","V020","340,1,N,0010,1","22000,1,9,N","030000,1,N,1","+0186,1","+0112,1","10188,1",,,,,,,"03,99,1,02,1,01,1,00800,1,00,1,01,1",,,,,"99999,9,09559,1","0,1,002,1,+999,9",,"SYN066AAXX  06094 08053 42580 33402 10186 20112 39559 40188 50002 82101;",
"08053099999","2010-06-07T06:00:00","4","42.5666666","-6.6","550.0","PONFERRADA, SP","FM-12","99999","V020","999,9,C,0000,1","22000,1,9,N","025000,1,N,1","+0118,1","+0102,1","10181,1","12,0000,9,1","24,0000,9,1",,,,,"04,99,1,00,1,00,1,99999,9,00,1,01,1","0708,9","01,9","999,+0090,9","999,N,+0110,1","99999,9,09538,1","3,1,003,1,+999,9","02,1","SYN106AAXX  07064 08053 11975 40000 10118 20102 39538 40181 53003 60002 702// 80001 333 20110 30009 55118 70000;","Q01  00002PRCP24Q02  00002PRCP12"
"08053099999","2010-06-07T09:00:00","4","42.5666666","-6.6","550.0","PONFERRADA, SP","FM-12","99999","V020","270,1,N,0005,1","99999,9,9,N","022000,1,N,1","+0170,1","+0121,1","10152,1",,,,,,,"05,99,1,00,1,00,1,99999,9,00,1,02,1",,,,,"99999,9,09523,1","8,1,015,1,+999,9",,"SYN066AAXX  07094 08053 42972 52701 10170 20121 39523 40152 58015 80002;",
"08053099999","2010-06-07T12:00:00","4","42.5666666","-6.6","550.0","PONFERRADA, SP","FM-12","99999","V020","260,1,N,0031,1","22000,1,9,N","030000,1,N,1","+0234,1","+0124,1","10124,1","06,0000,9,1",,,,,,"05,99,1,02,1,01,1,00800,1,00,1,01,1",,,,,"99999,9,09509,1","8,1,014,1,+999,9",,"SYN082AAXX  07124 08053 12580 52606 10234 20124 39509 40124 58014 60001 82101 333 50643;","Q01  00002PRCP06"
"08053099999","2010-06-08T06:00:00","4","42.5666666","-6.6","550.0","PONFERRADA, SP","FM-12","99999","V020","280,1,N,0015,1","03600,1,9,N","008000,1,N,1","+0144,1","+0133,1","10098,1","12,0000,9,1","24,0000,9,1",,,,,"07,99,1,03,1,07,1,00250,1,07,1,99,9","0648,9","01,9","999,+0120,9","999,N,+0142,1","99999,9,09467,1","6,1,009,1,+999,9","10,1","SYN106AAXX  08064 08053 11358 72803 10144 20133 39467 40098 56009 60002 710// 8377/ 333 20142 30012 55108 70000;","Q01  00002PRCP24Q02  00002PRCP12"
"08053099999","2010-06-08T09:00:00","4","42.5666666","-6.6","550.0","PONFERRADA, SP","FM-12","99999","V020","240,1,N,0021,1","03600,1,9,N","012000,1,N,1","+0158,1","+0118,1","10092,1",,,,,,,"08,99,1,04,1,07,1,00250,1,07,1,99,9",,,,,"99999,9,09464,1","8,1,003,1,+999,9",,"SYN066AAXX  08094 08053 42362 82404 10158 20118 39464 40092 58003 8477/;",
"08053099999","2010-06-08T12:00:00","4","42.5666666","-6.6","550.0","PONFERRADA, SP","FM-12","99999","V020","270,1,N,0031,1","00210,1,9,N","008000,1,N,1","+0140,1","+0126,1","10094,1","06,0010,9,1",,,"6,1,06,1","2,1,06,1",,"08,99,1,08,1,07,1,00250,1,99,9,99,9",,,,,"99999,9,09462,1","6,1,002,1,+999,9","61,1","SYN088AAXX  08124 08053 11358 82706 10140 20126 39462 40094 56002 60011 76162 887// 333 50593;",
"08053099999","2010-06-09T06:00:00","4","42.5666666","-6.6","550.0","PONFERRADA, SP","FM-12","99999","V020","300,1,N,0010,1","00120,1,9,N","004000,1,N,1","+0122,1","+0119,1","09997,1","12,0051,9,1","24,0099,9,1",,,,,"08,99,1,08,1,07,1,00150,1,99,9,99,9","0000,9","01,9","999,+0100,9","999,N,+0120,1","99999,9,09367,1","6,1,008,1,+999,9","62,1","SYN106AAXX  09064 08053 11240 83002 10122 20119 39367 49997 56008 60052 762// 887// 333 20120 30010 55000 70098;",
"08053099999","2010-06-09T09:00:00","4","42.5666666","-6.6","550.0","PONFERRADA, SP","FM-12","99999","V020","250,1,N,0015,1","00120,1,9,N","003000,1,N,1","+0136,1","+0130,1","09984,1",,,,"6,1,03,1","2,1,03,1",,"08,99,1,08,1,07,1,00150,1,99,9,99,9",,,,,"99999,9,09358,1","5,1,009,1,+999,9","61,1","SYN072AAXX  09094 08053 41230 82503 10136 20130 39358 49984 55009 76162 887//;",
"08053099999","2010-06-09T12:00:00","4","42.5666666","-6.6","550.0","PONFERRADA, SP","FM-12","99999","V020","080,1,N,0026,1","00210,1,9,N","005000,1,N,1","+0138,1","+0124,1","09979,1","06,0020,9,1",,,"6,1,06,1","2,1,06,1",,"08,99,1,08,1,07,1,00250,1,99,9,99,9",,,,,"99999,9,09354,1","8,1,004,1,+999,9","63,1","SYN088AAXX  09124 08053 11350 80805 10138 20124 39354 49979 58004 60021 76362 887// 333 50123;",
"08053099999","2010-06-10T06:00:00","4","42.5666666","-6.6","550.0","PONFERRADA, SP","FM-12","99999","V020","260,1,N,0031,1","00210,1,9,N","004000,1,N,1","+0108,1","+0089,1","09999,1","12,0079,9,1","24,0208,9,1",,,,,"08,99,1,08,1,07,1,00250,1,99,9,99,9","0030,9","11,9","999,+0090,9","999,N,+0106,1","99999,9,09365,1","3,1,012,1,+999,9","63,1","SYN106AAXX  10064 08053 11340 82606 10108 20089 39365 49999 53012 60082 763/6 887// 333 20106 32009 55005 70208;",
"08053099999","2010-06-10T09:00:00","4","42.5666666","-6.6","550.0","PONFERRADA, SP","FM-12","99999","V020","250,1,N,0036,1","00210,1,9,N","018000,1,N,1","+0122,1","+0090,1","10013,1",,,,"6,1,03,1","6,1,03,1",,"08,99,1,05,1,07,1,00250,1,02,1,99,9",,,,,"99999,9,09382,1","1,1,017,1,+999,9","02,1","SYN072AAXX  10094 08053 41368 82507 10122 20090 39382 40013 51017 70266 8572/;",
"08053099999","2010-06-10T12:00:00","4","42.5666666","-6.6","550.0","PONFERRADA, SP","FM-12","99999","V020","260,1,N,0041,1","00210,1,9,N","020000,1,N,1","+0138,1","+0104,1","10022,1","06,0008,9,1",,,"6,1,06,1","2,1,06,1",,"08,99,1,05,1,07,1,00250,1,02,1,99,9",,,,,"99999,9,09394,1","1,1,012,1,+999,9","02,1","SYN088AAXX  10124 08053 11370 82608 10138 20104 39394 40022 51012 69981 70262 8572/ 333 50133;",
"08053099999","2010-06-11T06:00:00","4","42.5666666","-6.6","550.0","PONFERRADA, SP","FM-12","99999","V020","280,1,N,0021,1","00210,1,9,N","005000,1,N,1","+0126,1","+0115,1","10085,1","12,0010,9,1","24,0097,9,1",,,,,"08,99,1,05,1,07,1,00250,1,02,1,99,9","0000,9","11,9","999,+0100,9","999,N,+0118,1","99999,9,09450,1","3,1,010,1,+999,9","60,1","SYN106AAXX  11064 08053 11350 82804 10126 20115 39450 40085 53010 60012 760/6 8572/ 333 20118 32010 55000 70096;",
"08053099999","2010-06-11T09:00:00","4","42.5666666","-6.6","550.0","PONFERRADA, SP","FM-12","99999","V020","270,1,N,0051,1","00210,1,9,N","008000,1,N,1","+0144,1","+0112,1","10101,1",,,,"6,1,03,1","2,1,03,1",,"07,99,1,05,1,07,1,00250,1,02,1,99,9",,,,,"99999,9,09469,1","1,1,019,1,+999,9","21,1","SYN072AAXX  11094 08053 41358 72710 10144 20112 39469 40101 51019 72162 8572/;",
"08053099999","2010-06-11T12:00:00","4","42.5666666","-6.6","550.0","PONFERRADA, SP","FM-12","99999","V020","260,1,N,0031,1","00210,1,9,N","008000,1,N,1","+0148,1","+0123,1","10114,1","06,0005,9,1",,,"6,1,06,1","2,1,06,1",,"08,99,1,06,1,07,1,00250,1,07,1,99,9",,,,,"99999,9,09482,1","1,1,013,1,+999,9","21,1","SYN088AAXX  11124 08053 11358 82606 10148 20123 39482 40114 51013 69941 72162 8677/ 333 50033;",
"08053099999","2010-06-12T06:00:00","4","42.5666666","-6.6","550.0","PONFERRADA, SP","FM-12","99999","V020","999,9,C,0000,1","03600,1,9,N","010000,1,N,1","+0120,1","+0097,1","10150,1","12,0000,9,1","24,0020,9,1",,,,,"07,99,1,04,1,05,1,00250,1,04,1,99,9","0000,9","09,9","999,+0100,9","999,N,+0116,1","99999,9,09510,1","4,1,000,1,+999,9","02,1","SYN106AAXX  12064 08053 11360 70000 10120 20097 39510 40150 54000 60002 702// 8454/ 333 20116 31010 55000 70020;","Q01  00002PRCP12"
"08053099999","2010-06-12T09:00:00","4","42.5666666","-6.6","550.0","PONFERRADA, SP","FM-12","99999","V020","250,1,N,0021,1","00210,1,9,N","010000,1,N,1","+0142,1","+0096,1","10154,1",,,,,,,"08,99,1,08,1,07,1,00250,1,99,9,99,9",,,,,"99999,9,09518,1","3,1,008,1,+999,9",,"SYN066AAXX  12094 08053 42360 82504 10142 20096 39518 40154 53008 887//;",
"08053099999","2010-06-12T12:00:00","4","42.5666666","-6.6","550.0","PONFERRADA, SP","FM-12","99999","V020","999,9,C,0000,1","00210,1,9,N","012000,1,N,1","+0152,1","+0096,1","10161,1","06,0000,9,1",,,,,,"08,99,1,08,1,07,1,00250,1,99,9,99,9",,,,,"99999,9,09527,1","1,1,009,1,+999,9",,"SYN082AAXX  12124 08053 12362 80000 10152 20096 39527 40161 51009 60001 887// 333 50073;","Q01  00002PRCP06"
"08053099999","2010-06-13T06:00:00","4","42.5666666","-6.6","550.0","PONFERRADA, SP","FM-12","99999","V020","999,9,C,0000,1","09000,1,9,N","012000,1,N,1","+0094,1","+0089,1","10202,1","12,0000,9,1","24,0000,9,1",,,,,"05,99,1,01,1,05,1,00250,1,04,1,01,1","0054,9","01,9","999,+0060,9","999,N,+0084,1","99999,9,09552,1","3,1,008,1,+999,9","02,1","SYN106AAXX  13064 08053 11362 50000 10094 20089 39552 40202 53008 60002 702// 81541 333 20084 30006 55009 70000;","Q01  00002PRCP24Q02  00002PRCP12"
"08053099999","2010-06-13T09:00:00","4","42.5666666","-6.6","550.0","PONFERRADA, SP","FM-12","99999","V020","999,9,C,0000,1","03600,1,9,N","012000,1,N,1","+0152,1","+0120,1","10190,1",,,,,,,"06,99,1,02,1,05,1,00250,1,04,1,01,1",,,,,"99999,9,09554,1","1,1,002,1,+999,9",,"SYN066AAXX  13094 08053 42362 60000 10152 20120 39554 40190 51002 82541;",
"08053099999","2010-06-13T12:00:00","4","42.5666666","-6.6","550.0","PONFERRADA, SP","FM-12","99999","V020","999,9,C,0000,1","22000,1,9,N","018000,1,N,1","+0214,1","+0125,1","10165,1","06,0000,9,1",,,,,,"04,99,1,02,1,04,1,00450,1,06,1,01,1",,,,,"99999,9,09544,1","7,1,010,1,+999,9",,"SYN082AAXX  13124 08053 12468 40000 10214 20125 39544 40165 57010 60001 82461 333 50243;","Q01  00002PRCP06"
"08053099999","2010-06-14T06:00:00","4","42.5666666","-6.6","550.0","PONFERRADA, SP","FM-12","99999","V020","240,1,N,0021,1","03600,1,9,N","012000,1,N,1","+0120,1","+0094,1","10181,1","12,0000,9,1","24,0000,9,1",,,,,"07,99,1,03,1,05,1,00250,1,04,1,00,1","0834,9","01,9","999,+0100,9","999,N,+0118,1","99999,9,09539,1","8,1,004,1,+999,9","02,1","SYN106AAXX  14064 08053 11362 72404 10120 20094 39539 40181 58004 60002 702// 83540 333 20118 30010 55139 70000;","Q01  00002PRCP24Q02  00002PRCP12"
"08053099999","2010-06-14T09:00:00","4","42.5666666","-6.6","550.0","PONFERRADA, SP","FM-12","99999","V020","280,1,N,0026,1","22000,1,9,N","020000,1,N,1","+0158,1","+0095,1","10173,1",,,,,,,"03,99,1,02,1,04,1,00250,1,06,1,00,1",,,,,"99999,9,09539,1","0,1,000,1,+999,9",,"SYN066AAXX  14094 08053 42370 32805 10158 20095 39539 40173 50000 82460;",
"08053099999","2010-06-15T06:00:00","4","42.5666666","-6.6","550.0","PONFERRADA, SP","FM-12","99999","V020","999,9,C,0000,1","22000,1,9,N","022000,1,N,1","+0114,1","+0083,1","10188,1","12,0000,9,1","24,0000,9,1",,,,,"03,99,1,03,1,05,1,00450,1,00,1,00,1","0774,9","01,9","999,+0080,9","999,N,+0106,1","99999,9,09544,1","6,1,002,1,+999,9","02,1","SYN106AAXX  15064 08053 11472 30000 10114 20083 39544 40188 56002 60002 702// 83500 333 20106 30008 55129 70000;","Q01  00002PRCP24Q02  00002PRCP12"
"08053099999","2010-06-15T09:00:00","4","42.5666666","-6.6","550.0","PONFERRADA, SP","FM-12","99999","V020","999,9,C,0000,1","00420,1,9,N","020000,1,N,1","+0142,1","+0079,1","10186,1",,,,,,,"06,99,1,06,1,05,1,00450,1,00,1,00,1",,,,,"99999,9,09548,1","3,1,004,1,+999,9",,"SYN066AAXX  15094 08053 42470 60000 10142 20079 39548 40186 53004 86500;",
"08053099999","2010-06-15T12:00:00","4","42.5666666","-6.6","550.0","PONFERRADA, SP","FM-12","99999","V020","340,1,N,0021,1","00420,1,9,N","025000,1,N,1","+0164,1","+0089,1","10181,1","06,0000,9,1",,,,,,"06,99,1,06,1,05,1,00450,1,00,1,00,1",,,,,"99999,9,09548,1","4,1,000,1,+999,9",,"SYN082AAXX  15124 08053 12475 63404 10164 20089 39548 40181 54000 60001 86500 333 50933;","Q01  00002PRCP06"
"08053099999","2010-06-16T06:00:00","4","42.5666666","-6.6","550.0","PONFERRADA, SP","FM-12","99999","V020","260,1,N,0021,1","00420,1,9,N","030000,1,N,1","+0134,1","+0104,1","10177,1","12,0005,9,1","24,0005,9,1",,,,,"07,99,1,07,1,07,1,00450,1,99,9,99,9","0282,9","01,9","999,+0100,9","999,N,+0124,1","99999,9,09538,1","5,1,006,1,+999,9","02,1","SYN106AAXX  16064 08053 11480 72604 10134 20104 39538 40177 55006 69952 702// 877// 333 20124 30010 55047 70005;",
"08053099999","2010-06-16T09:00:00","4","42.5666666","-6.6","550.0","PONFERRADA, SP","FM-12","99999","V020","260,1,N,0021,1","00420,1,9,N","028000,1,N,1","+0150,1","+0106,1","10185,1",,,,,,,"08,99,1,08,1,07,1,00450,1,99,9,99,9",,,,,"99999,9,09549,1","2,1,011,1,+999,9",,"SYN066AAXX  16094 08053 42478 82604 10150 20106 39549 40185 52011 887//;",
"08053099999","2010-06-16T12:00:00","4","42.5666666","-6.6","550.0","PONFERRADA, SP","FM-12","99999","V020","010,1,N,0015,1","00420,1,9,N","030000,1,N,1","+0192,1","+0110,1","10177,1","06,0000,9,1",,,,,,"07,99,1,05,1,07,1,00450,1,02,1,99,9",,,,,"99999,9,09550,1","0,1,001,1,+999,9",,"SYN082AAXX  16124 08053 12480 70103 10192 20110 39550 40177 50001 60001 8572/ 333 50393;","Q01  00002PRCP06"
"08053099999","2010-06-17T06:00:00","4","42.5666666","-6.6","550.0","PONFERRADA, SP","FM-12","99999","V020","999,9,C,0000,1","22000,1,9,N","018000,1,N,1","+0064,1","+0046,1","10214,1","12,0000,9,1","24,0000,9,1",,,,"00,1,+99999,9,99,9","00,99,1,00,1,00,1,99999,9,00,1,00,1","0456,9","01,9","999,+0030,9","999,N,+0050,1","99999,9,09556,1","2,1,003,1,+999,9","00,1","SYN100AAXX  17064 08053 11968 00000 10064 20046 39556 40214 52003 60002 700// 333 20050 30003 55076 70000;","Q01  00002PRCP24Q02  00002PRCP12"
"08053099999","2010-06-17T09:00:00","4","42.5666666","-6.6","550.0","PONFERRADA, SP","FM-12","99999","V020","999,9,C,0000,1","22000,1,9,N","025000,1,N,1","+0116,1","+0057,1","10196,1",,,,,,"00,1,+99999,9,99,9","00,99,1,00,1,00,1,99999,9,00,1,00,1",,,,,"99999,9,09551,1","8,1,005,1,+999,9",,"SYN060AAXX  17094 08053 42975 00000 10116 20057 39551 40196 58005;",
"08053099999","2010-06-17T12:00:00","4","42.5666666","-6.6","550.0","PONFERRADA, SP","FM-12","99999","V020","999,9,C,0000,1","22000,1,9,N","030000,1,N,1","+0182,1","+0058,1","10163,1","06,0000,9,1",,,,,"00,1,+99999,9,99,9","00,99,1,00,1,00,1,99999,9,00,1,00,1",,,,,"99999,9,09534,1","7,1,017,1,+999,9",,"SYN076AAXX  17124 08053 12980 00000 10182 20058 39534 40163 57017 60001 333 50503;","Q01  00002PRCP06"
"08053099999","2010-06-18T06:00:00","4","42.5666666","-6.6","550.0","PONFERRADA, SP","FM-12","99999","V020","999,9,C,0000,1","22000,1,9,N","012000,1,N,1","+0110,1","+0091,1","10181,1","12,0000,9,1","24,0000,9,1",,,,"00,1,+99999,9,99,9","00,99,1,00,1,00,1,99999,9,00,1,00,1","0852,9","01,9","999,+0070,9","999,N,+0090,1","99999,9,09536,1","3,1,007,1,+999,9","00,1","SYN100AAXX  18064 08053 11962 00000 10110 20091 39536 40181 53007 60002 700// 333 20090 30007 55142 70000;","Q01  00002PRCP24Q02  00002PRCP12"
"08053099999","2010-06-18T09:00:00","4","42.5666666","-6.6","550.0","PONFERRADA, SP","FM-12","99999","V020","999,9,C,0000,1","22000,1,9,N","018000,1,N,1","+0164,1","+0109,1","10168,1",,,,,,,"01,99,1,01,1,08,1,00800,1,00,1,00,1",,,,,"99999,9,09536,1","0,1,000,1,+999,9",,"SYN066AAXX  18094 08053 42568 10000 10164 20109 39536 40168 50000 81800;",
"08053099999","2010-06-18T12:00:00","4","42.5666666","-6.6","550.0","PONFERRADA, SP","FM-12","99999","V020","999,9,C,0000,1","22000,1,9,N","020000,1,N,1","+0232,1","+0122,1","10143,1","06,0000,9,1",,,,,,"02,99,1,02,1,02,1,00800,1,00,1,00,1",,,,,"99999,9,09527,1","7,1,009,1,+999,9",,"SYN082AAXX  18124 08053 12570 20000 10232 20122 39527 40143 57009 60001 82200 333 50343;","Q01  00002PRCP06"
"08053099999","2010-06-19T09:00:00","4","42.5666666","-6.6","550.0","PONFERRADA, SP","FM-12","99999","V020","999,9,C,0000,1","22000,1,9,N","022000,1,N,1","+0154,1","+0097,1","10186,1",,,,,,,"03,99,1,01,1,01,1,00800,1,00,1,01,1",,,,,"99999,9,09551,1","1,1,003,1,+999,9",,"SYN066AAXX  19094 08053 42572 30000 10154 20097 39551 40186 51003 81101;",
"08053099999","2010-06-19T12:00:00","4","42.5666666","-6.6","550.0","PONFERRADA, SP","FM-12","99999","V020","250,1,N,0010,1","22000,1,9,N","030000,1,N,1","+0202,1","+0114,1","10166,1","06,0000,9,1",,,,,,"02,99,1,01,1,01,1,00800,1,00,1,01,1",,,,,"99999,9,09542,1","8,1,009,1,+999,9",,"SYN082AAXX  19124 08053 12580 22502 10202 20114 39542 40166 58009 60001 81101 333 50773;","Q01  00002PRCP06"
"08053099999","2010-06-20T06:00:00","4","42.5666666","-6.6","550.0","PONFERRADA, SP","FM-12","99999","V020","999,9,C,0000,1","22000,1,9,N","028000,1,N,1","+0128,1","+0102,1","10181,1","12,0000,9,1","24,0000,9,1",,,,,"01,99,1,01,1,01,1,00800,1,00,1,00,1","0840,9","01,9","999,+0090,9","999,N,+0112,1","99999,9,09540,1","3,1,002,1,+999,9","02,1","SYN106AAXX  20064 08053 11578 10000 10128 20102 39540 40181 53002 60002 702// 81100 333 20112 30009 55140 70000;","Q01  00002PRCP24Q02  00002PRCP12"
"08053099999","2010-06-21T06:00:00","4","42.5666666","-6.6","550.0","PONFERRADA, SP","FM-12","99999","V020","999,9,C,0000,1","22000,1,9,N","030000,1,N,1","+0104,1","+0067,1","10212,1","12,0000,9,1","24,0000,9,1",,,,"00,1,+99999,9,99,9","00,99,1,00,1,00,1,99999,9,00,1,00,1","0852,9","01,9","999,+0060,9","999,N,+0084,1","99999,9,09564,1","3,1,012,1,+999,9","00,1","SYN100AAXX  21064 08053 11980 00000 10104 20067 39564 40212 53012 60002 700// 333 20084 30006 55142 70000;","Q01  00002PRCP24Q02  00002PRCP12"
"08053099999","2010-06-21T09:00:00","4","42.5666666","-6.6","550.0","PONFERRADA, SP","FM-12","99999","V020","999,9,C,0000,1","22000,1,9,N","030000,1,N,1","+0158,1","+0085,1","10196,1",,,,,,"00,1,+99999,9,99,9","00,99,1,00,1,00,1,99999,9,00,1,00,1",,,,,"99999,9,09561,1","8,1,003,1,+999,9",,"SYN060AAXX  21094 08053 42980 00000 10158 20085 39561 40196 58003;",
"08053099999","2010-06-21T12:00:00","4","42.5666666","-6.6","550.0","PONFERRADA, SP","FM-12","99999","V020","999,9,C,0000,1","22000,1,9,N","030000,1,N,1","+0220,1","+0102,1","10171,1","06,0000,9,1",,,,,"00,1,+99999,9,99,9","00,99,1,00,1,00,1,99999,9,00,1,00,1",,,,,"99999,9,09550,1","8,1,011,1,+999,9",,"SYN076AAXX  21124 08053 12980 00000 10220 20102 39550 40171 58011 60001 333 50903;","Q01  00002PRCP06"
"08053099999","2010-06-22T06:00:00","4","42.5666666","-6.6","550.0","PONFERRADA, SP","FM-12","99999","V020","999,9,C,0000,1","22000,1,9,N","025000,1,N,1","+0138,1","+0111,1","10208,1","12,0000,9,1","24,0000,9,1",,,,"00,1,+99999,9,99,9","00,99,1,00,1,00,1,99999,9,00,1,00,1","0852,9","01,9","999,+0100,9","999,N,+0122,1","99999,9,09568,1","3,1,007,1,+999,9","00,1","SYN100AAXX  22064 08053 11975 00000 10138 20111 39568 40208 53007 60002 700// 333 20122 30010 55142 70000;","Q01  00002PRCP24Q02  00002PRCP12"
"08053099999","2010-06-22T09:00:00","4","42.5666666","-6.6","550.0","PONFERRADA, SP","FM-12","99999","V020","999,9,C,0000,1","22000,1,9,N","025000,1,N,1","+0196,1","+0135,1","10193,1",,,,,,,"01,99,1,00,1,00,1,99999,9,00,1,01,1",,,,,"99999,9,09567,1","8,1,001,1,+999,9",,"SYN066AAXX  22094 08053 42975 10000 10196 20135 39567 40193 58001 80001;",
"08053099999","2010-06-22T12:00:00","4","42.5666666","-6.6","550.0","PONFERRADA, SP","FM-12","99999","V020","290,1,N,0005,1","22000,1,9,N","030000,1,N,1","+0266,1","+0150,1","10165,1","06,0000,9,1",,,,,,"02,99,1,01,1,01,1,00800,1,00,1,01,1",,,,,"99999,9,09555,1","8,1,012,1,+999,9",,"SYN082AAXX  22124 08053 12580 22901 10266 20150 39555 40165 58012 60001 81101 333 50703;","Q01  00002PRCP06"
"08053099999","2010-06-23T06:00:00","4","42.5666666","-6.6","550.0","PONFERRADA, SP","FM-12","99999","V020","999,9,C,0000,1","22000,1,9,N","028000,1,N,1","+0160,1","+0126,1","10189,1","12,0000,9,1","24,0000,9,1",,,,"00,1,+99999,9,99,9","00,99,1,00,1,00,1,99999,9,00,1,00,1","0852,9","01,9","999,+0120,9","999,N,+0140,1","99999,9,09555,1","3,1,005,1,+999,9","00,1","SYN100AAXX  23064 08053 11978 00000 10160 20126 39555 40189 53005 60002 700// 333 20140 30012 55142 70000;","Q01  00002PRCP24Q02  00002PRCP12"
"08053099999","2010-06-23T09:00:00","4","42.5666666","-6.6","550.0","PONFERRADA, SP","FM-12","99999","V020","999,9,C,0000,1","22000,1,9,N","030000,1,N,1","+0214,1","+0136,1","10171,1",,,,,,,"01,99,1,01,1,01,1,00800,1,00,1,00,1",,,,,"99999,9,09550,1","8,1,005,1,+999,9",,"SYN066AAXX  23094 08053 42580 10000 10214 20136 39550 40171 58005 81100;",
"08053099999","2010-06-23T12:00:00","4","42.5666666","-6.6","550.0","PONFERRADA, SP","FM-12","99999","V020","260,1,N,0010,1","22000,1,9,N","030000,1,N,1","+0284,1","+0160,1","10141,1","06,0000,9,1",,,,,,"01,99,1,01,1,01,1,00800,1,00,1,01,1",,,,,"99999,9,09536,1","8,1,014,1,+999,9",,"SYN082AAXX  23124 08053 12580 12602 10284 20160 39536 40141 58014 60001 81101 333 50713;","Q01  00002PRCP06"
"08053099999","2010-06-24T06:00:00","4","42.5666666","-6.6","550.0","PONFERRADA, SP","FM-12","99999","V020","999,9,C,0000,1","22000,1,9,N","028000,1,N,1","+0168,1","+0121,1","10162,1","12,0000,9,1","24,0000,9,1",,,,,"01,99,1,00,1,00,1,99999,9,00,1,01,1","0840,9","01,9","999,+0130,9","999,N,+0154,1","99999,9,09532,1","3,1,007,1,+999,9","02,1","SYN106AAXX  24064 08053 11978 10000 10168 20121 39532 40162 53007 60002 702// 80001 333 20154 30013 55140 70000;","Q01  00002PRCP24Q02  00002PRCP12"
"08053099999","2010-06-24T09:00:00","4","42.5666666","-6.6","550.0","PONFERRADA, SP","FM-12","99999","V020","280,1,N,0015,1","22000,1,9,N","030000,1,N,1","+0230,1","+0140,1","10145,1",,,,,,,"01,99,1,01,1,01,1,00800,1,04,1,01,1",,,,,"99999,9,09529,1","8,1,003,1,+999,9",,"SYN066AAXX  24094 08053 42580 12803 10230 20140 39529 40145 58003 81141;",
"08053099999","2010-06-24T12:00:00","4","42.5666666","-6.6","550.0","PONFERRADA, SP","FM-12","99999","V020","260,1,N,0021,1","22000,1,9,N","030000,1,N,1","+0304,1","+0168,1","10115,1","06,0000,9,1",,,,,,"03,99,1,02,1,02,1,00800,1,04,1,01,1",,,,,"99999,9,09516,1","7,1,013,1,+999,9",,"SYN082AAXX  24124 08053 12580 32604 10304 20168 39516 40115 57013 60001 82241 333 50633;","Q01  00002PRCP06"
"08053099999","2010-06-25T06:00:00","4","42.5666666","-6.6","550.0","PONFERRADA, SP","FM-12","99999","V020","270,1,N,0021,1","03600,1,9,N","022000,1,N,1","+0170,1","+0143,1","10147,1","12,0000,9,1","24,0000,9,1",,,,,"06,99,1,01,1,04,1,00450,1,06,1,02,1","0768,9","01,9","999,+0140,9","999,N,+0162,1","99999,9,09518,1","3,1,005,1,+999,9","02,1","SYN106AAXX  25064 08053 11472 62704 10170 20143 39518 40147 53005 60002 702// 81462 333 20162 30014 55128 70000;","Q01  00002PRCP24Q02  00002PRCP12"
"08053099999","2010-06-25T09:00:00","4","42.5666666","-6.6","550.0","PONFERRADA, SP","FM-12","99999","V020","190,1,N,0005,1","09000,1,9,N","025000,1,N,1","+0236,1","+0151,1","10136,1",,,,,,,"05,99,1,02,1,01,1,00800,1,04,1,02,1",,,,,"99999,9,09522,1","0,1,004,1,+999,9",,"SYN066AAXX  25094 08053 42575 51901 10236 20151 39522 40136 50004 82142;",
"08053099999","2010-06-25T12:00:00","4","42.5666666","-6.6","550.0","PONFERRADA, SP","FM-12","99999","V020","270,1,N,0015,1","22000,1,9,N","028000,1,N,1","+0288,1","+0164,1","10114,1","06,0000,9,1",,,,,,"04,99,1,02,1,01,1,00800,1,04,1,01,1",,,,,"99999,9,09512,1","8,1,010,1,+999,9",,"SYN082AAXX  25124 08053 12578 42703 10288 20164 39512 40114 58010 60001 82141 333 51113;","Q01  00002PRCP06"
"08053099999","2010-06-28T06:00:00","4","42.5666666","-6.6","550.0","PONFERRADA, SP","FM-12","99999","V020","999,9,C,0000,1","22000,1,9,N","018000,1,N,1","+0152,1","+0134,1","10211,1","12,0000,9,1","24,0000,9,1",,,,,"01,99,1,00,1,00,1,99999,9,00,1,01,1","0612,9","01,9","999,+0120,9","999,N,+0138,1","99999,9,09574,1","3,1,011,1,+999,9","02,1","SYN106AAXX  28064 08053 11968 10000 10152 20134 39574 40211 53011 60002 702// 80001 333 20138 30012 55102 70000;","Q01  00002PRCP24Q02  00002PRCP12"
"08053099999","2010-06-28T09:00:00","4","42.5666666","-6.6","550.0","PONFERRADA, SP","FM-12","99999","V020","999,9,C,0000,1","22000,1,9,N","025000,1,N,1","+0212,1","+0146,1","10199,1",,,,,,"00,1,+99999,9,99,9","00,99,1,00,1,00,1,99999,9,00,1,00,1",,,,,"99999,9,09576,1","0,1,002,1,+999,9",,"SYN060AAXX  28094 08053 42975 00000 10212 20146 39576 40199 50002;",
"08053099999","2010-06-28T12:00:00","4","42.5666666","-6.6","550.0","PONFERRADA, SP","FM-12","99999","V020","280,1,N,0021,1","22000,1,9,N","025000,1,N,1","+0262,1","+0164,1","10179,1","06,0000,9,1",,,,,,"01,99,1,01,1,02,1,00450,1,00,1,00,1",,,,,"99999,9,09568,1","8,1,008,1,+999,9",,"SYN082AAXX  28124 08053 12475 12804 10262 20164 39568 40179 58008 60001 81200 333 50483;","Q01  00002PRCP06"
"08053099999","2010-06-29T06:00:00","4","42.5666666","-6.6","550.0","PONFERRADA, SP","FM-12","99999","V020","999,9,C,0000,1","22000,1,9,N","012000,1,N,1","+0164,1","+0148,1","10213,1","12,0000,9,1","24,0000,9,1",,,,,"01,99,1,00,1,00,1,99999,9,00,1,01,1","0840,9","01,9","999,+0130,9","999,N,+0156,1","99999,9,09579,1","3,1,005,1,+999,9","02,1","SYN106AAXX  29064 08053 11962 10000 10164 20148 39579 40213 53005 60002 702// 80001 333 20156 30013 55140 70000;","Q01  00002PRCP24Q02  00002PRCP12"
"08053099999","2010-06-29T09:00:00","4","42.5666666","-6.6","550.0","PONFERRADA, SP","FM-12","99999","V020","999,9,C,0000,1","22000,1,9,N","015000,1,N,1","+0216,1","+0166,1","10202,1",,,,,,,"01,99,1,00,1,00,1,99999,9,00,1,01,1",,,,,"99999,9,09580,1","0,1,001,1,+999,9",,"SYN066AAXX  29094 08053 42965 10000 10216 20166 39580 40202 50001 80001;",
"08053099999","2010-06-29T12:00:00","4","42.5666666","-6.6","550.0","PONFERRADA, SP","FM-12","99999","V020","999,9,C,0000,1","22000,1,9,N","025000,1,N,1","+0280,1","+0178,1","10181,1","06,0000,9,1",,,,,,"01,99,1,01,1,02,1,00450,1,00,1,00,1",,,,,"99999,9,09573,1","7,1,007,1,+999,9",,"SYN082AAXX  29124 08053 12475 10000 10280 20178 39573 40181 57007 60001 81200 333 50703;","Q01  00002PRCP06"
"08053099999","2010-06-30T06:00:00","4","42.5666666","-6.6","550.0","PONFERRADA, SP","FM-12","99999","V020","999,9,C,0000,1","22000,1,9,N","015000,1,N,1","+0174,1","+0154,1","10205,1","12,0000,9,1","24,0000,9,1",,,,"00,1,+99999,9,99,9","00,99,1,00,1,00,1,99999,9,00,1,00,1","0834,9","01,9","999,+0140,9","999,N,+0164,1","99999,9,09574,1","3,1,003,1,+999,9","00,1","SYN100AAXX  30064 08053 11965 00000 10174 20154 39574 40205 53003 60002 700// 333 20164 30014 55139 70000;","Q01  00002PRCP24Q02  00002PRCP12"
"08053099999","2010-06-30T09:00:00","4","42.5666666","-6.6","550.0","PONFERRADA, SP","FM-12","99999","V020","999,9,C,0000,1","22000,1,9,N","018000,1,N,1","+0230,1","+0165,1","10188,1",,,,,,"00,1,+99999,9,99,9","00,99,1,00,1,00,1,99999,9,00,1,00,1",,,,,"99999,9,09570,1","8,1,004,1,+999,9",,"SYN060AAXX  30094 08053 42968 00000 10230 20165 39570 40188 58004;",
"08053099999","2010-07-01T06:00:00","4","42.5666666","-6.6","550.0","PONFERRADA, SP","FM-12","99999","V020","999,9,C,0000,1","22000,1,9,N","018000,1,N,1","+0158,1","+0129,1","10177,1","12,0000,9,1","24,0000,9,1",,,,"00,1,+99999,9,99,9","00,99,1,00,1,00,1,99999,9,00,1,00,1","0846,9","01,9","999,+0130,9","999,N,+0152,1","99999,9,09544,1","0,1,003,1,+999,9","00,1","SYN100AAXX  01064 08053 11968 00000 10158 20129 39544 40177 50003 60002 700// 333 20152 30013 55141 70000;","Q01  00002PRCP24Q02  00002PRCP12"
"08053099999","2010-07-01T09:00:00","4","42.5666666","-6.6","550.0","PONFERRADA, SP","FM-12","99999","V020","999,9,C,0000,1","22000,1,9,N","020000,1,N,1","+0220,1","+0158,1","10155,1",,,,,,,"02,99,1,00,1,00,1,99999,9,00,1,01,1",,,,,"99999,9,09537,1","8,1,007,1,+999,9",,"SYN066AAXX  01094 08053 42970 20000 10220 20158 39537 40155 58007 80001;",
"08053099999","2010-07-01T12:00:00","4","42.5666666","-6.6","550.0","PONFERRADA, SP","FM-12","99999","V020","999,9,C,0000,1","09000,1,9,N","025000,1,N,1","+0292,1","+0167,1","10120,1","06,0000,9,1",,,,,,"06,99,1,02,1,01,1,00800,1,00,1,02,1",,,,,"99999,9,09518,1","8,1,019,1,+999,9",,"SYN082AAXX  01124 08053 12575 60000 10292 20167 39518 40120 58019 60001 82102 333 50823;","Q01  00002PRCP06"
"08053099999","2010-07-02T06:00:00","4","42.5666666","-6.6","550.0","PONFERRADA, SP","FM-12","99999","V020","310,1,N,0010,1","03600,1,9,N","015000,1,N,1","+0156,1","+0138,1","10147,1","12,0000,9,1","24,0000,9,1",,,,,"06,99,1,01,1,04,1,00450,1,04,1,02,1","0816,9","01,9","999,+0130,9","999,N,+0154,1","99999,9,09515,1","3,1,005,1,+999,9","02,1","SYN106AAXX  02064 08053 11465 63102 10156 20138 39515 40147 53005 60002 702// 81442 333 20154 30013 55136 70000;","Q01  00002PRCP24Q02  00002PRCP12"
"08053099999","2010-07-02T09:00:00","4","42.5666666","-6.6","550.0","PONFERRADA, SP","FM-12","99999","V020","210,1,N,0010,1","09000,1,9,N","018000,1,N,1","+0196,1","+0146,1","10147,1",,,,,,,"07,99,1,03,1,00,1,01750,1,07,1,02,1",,,,,"99999,9,09524,1","1,1,009,1,+999,9",,"SYN066AAXX  02094 08053 42768 72102 10196 20146 39524 40147 51009 83072;",
"08053099999","2010-07-02T12:00:00","4","42.5666666","-6.6","550.0","PONFERRADA, SP","FM-12","99999","V020","280,1,N,0021,1","09000,1,9,N","028000,1,N,1","+0248,1","+0143,1","10130,1","06,0000,9,1",,,,,,"08,99,1,04,1,00,1,01750,1,07,1,02,1",,,,,"99999,9,09518,1","8,1,006,1,+999,9",,"SYN082AAXX  02124 08053 12778 82804 10248 20143 39518 40130 58006 60001 84072 333 50773;","Q01  00002PRCP06"
"08053099999","2010-07-05T06:00:00","4","42.5666666","-6.6","550.0","PONFERRADA, SP","FM-12","99999","V020","999,9,C,0000,1","22000,1,9,N","025000,1,N,1","+0178,1","+0147,1","10229,1","12,0000,9,1","24,0000,9,1",,,,"00,1,+99999,9,99,9","00,99,1,00,1,00,1,99999,9,00,1,00,1","0834,9","01,9","999,+0140,9","999,N,+0170,1","99999,9,09597,1","3,1,007,1,+999,9","00,1","SYN100AAXX  05064 08053 11975 00000 10178 20147 39597 40229 53007 60002 700// 333 20170 30014 55139 70000;","Q01  00002PRCP24Q02  00002PRCP12"
"08053099999","2010-07-05T09:00:00","4","42.5666666","-6.6","550.0","PONFERRADA, SP","FM-12","99999","V020","250,1,N,0015,1","22000,1,9,N","025000,1,N,1","+0224,1","+0160,1","10221,1",,,,,,"00,1,+99999,9,99,9","00,99,1,00,1,00,1,99999,9,00,1,00,1",,,,,"99999,9,09599,1","0,1,002,1,+999,9",,"SYN060AAXX  05094 08053 42975 02503 10224 20160 39599 40221 50002;",
"08053099999","2010-07-05T12:00:00","4","42.5666666","-6.6","550.0","PONFERRADA, SP","FM-12","99999","V020","210,1,N,0015,1","22000,1,9,N","028000,1,N,1","+0300,1","+0181,1","10195,1","06,0000,9,1",,,,,,"01,99,1,01,1,01,1,00800,1,00,1,00,1",,,,,"99999,9,09591,1","8,1,008,1,+999,9",,"SYN082AAXX  05124 08053 12578 12103 10300 20181 39591 40195 58008 60001 81100 333 50733;","Q01  00002PRCP06"
"08053099999","2010-07-06T06:00:00","4","42.5666666","-6.6","550.0","PONFERRADA, SP","FM-12","99999","V020","999,9,C,0000,1","22000,1,9,N","028000,1,N,1","+0186,1","+0160,1","10223,1","12,0000,9,1","24,0000,9,1",,,,"00,1,+99999,9,99,9","00,99,1,00,1,00,1,99999,9,00,1,00,1","0840,9","01,9","999,+0150,9","999,N,+0176,1","99999,9,09593,1","3,1,002,1,+999,9","00,1","SYN100AAXX  06064 08053 11978 00000 10186 20160 39593 40223 53002 60002 700// 333 20176 30015 55140 70000;","Q01  00002PRCP24Q02  00002PRCP12"
"08053099999","2010-07-06T09:00:00","4","42.5666666","-6.6","550.0","PONFERRADA, SP","FM-12","99999","V020","280,1,N,0005,1","22000,1,9,N","028000,1,N,1","+0238,1","+0163,1","10207,1",,,,,,"00,1,+99999,9,99,9","00,99,1,00,1,00,1,99999,9,00,1,00,1",,,,,"99999,9,09589,1","8,1,004,1,+999,9",,"SYN060AAXX  06094 08053 42978 02801 10238 20163 39589 40207 58004;",
"08053099999","2010-07-06T12:00:00","4","42.5666666","-6.6","550.0","PONFERRADA, SP","FM-12","99999","V020","210,1,N,0015,1","22000,1,9,N","030000,1,N,1","+0304,1","+0185,1","10174,1","06,0000,9,1",,,,,"00,1,+99999,9,99,9","00,99,1,00,1,00,1,99999,9,00,1,00,1",,,,,"99999,9,09572,1","8,1,017,1,+999,9",,"SYN076AAXX  06124 08053 12980 02103 10304 20185 39572 40174 58017 60001 333 50663;","Q01  00002PRCP06"
"08053099999","2010-07-07T06:00:00","4","42.5666666","-6.6","550.0","PONFERRADA, SP","FM-12","99999","V020","999,9,C,0000,1","22000,1,9,N","020000,1,N,1","+0200,1","+0185,1","10178,1","12,0000,9,1","24,0000,9,1",,,,,"02,99,1,00,1,00,1,99999,9,00,1,01,1","0846,9","01,9","999,+0070,9","999,N,+0190,1","99999,9,09555,1","3,1,002,1,+999,9","02,1","SYN106AAXX  07064 08053 11870 20000 10200 20185 39555 40178 53002 60002 702// 80001 333 20190 30007 55141 70000;","Q01+022502SCOLCBQ02  00002PRCP24Q03  00002PRCP12"
"08053099999","2010-07-07T09:00:00","4","42.5666666","-6.6","550.0","PONFERRADA, SP","FM-12","99999","V020","250,1,N,0021,1","22000,1,9,N","028000,1,N,1","+0248,1","+0180,1","10167,1",,,,,,,"02,99,1,01,1,00,1,01250,1,04,1,01,1",,,,,"99999,9,09554,1","8,1,001,1,+999,9",,"SYN066AAXX  07094 08053 42678 22504 10248 20180 39554 40167 58001 81041;",
"08053099999","2010-07-07T12:00:00","4","42.5666666","-6.6","550.0","PONFERRADA, SP","FM-12","99999","V020","280,1,N,0026,1","22000,1,9,N","030000,1,N,1","+0316,1","+0202,1","10138,1","06,0000,9,1",,,,,,"02,99,1,01,1,00,1,01250,1,04,1,01,1",,,,,"99999,9,09541,1","8,1,013,1,+999,9",,"SYN082AAXX  07124 08053 12680 22805 10316 20202 39541 40138 58013 60001 81041 333 50513;","Q01  00002PRCP06"
"08053099999","2010-07-08T06:00:00","4","42.5666666","-6.6","550.0","PONFERRADA, SP","FM-12","99999","V020","110,1,N,0010,1","09000,1,9,N","008000,1,N,1","+0200,1","+0190,1","10147,1","12,0020,9,2","24,0015,9,2",,"9,1,06,1","8,1,06,1","03,1,+00180,1,09,1","06,99,1,03,1,09,1,00250,1,00,1,03,1","0744,9","11,9","999,+0170,9","999,N,+0200,1","99999,9,09526,1","5,1,005,1,+999,9","15,1","SYN112AAXX  08064 08053 11358 61102 10200 20190 39526 40147 55005 60022 71598 83903 333 20200 32017 55124 70016 83906;",
"08053099999","2010-07-08T09:00:00","4","42.5666666","-6.6","550.0","PONFERRADA, SP","FM-12","99999","V020","160,1,N,0010,1","09000,1,9,N","010000,1,N,1","+0256,1","+0193,1","10138,1",,,,,,,"05,99,1,03,1,00,1,01750,1,04,1,02,1",,,,,"99999,9,09529,1","2,1,003,1,+999,9",,"SYN066AAXX  08094 08053 42760 51602 10256 20193 39529 40138 52003 83042;",
"08053099999","2010-07-08T12:00:00","4","42.5666666","-6.6","550.0","PONFERRADA, SP","FM-12","99999","V020","150,1,N,0031,1","22000,1,9,N","012000,1,N,1","+0348,1","+0184,1","10103,1","06,0000,9,1",,,,,,"02,99,1,01,1,01,1,00800,1,00,1,01,1",,,,,"99999,9,09513,1","8,1,016,1,+999,9",,"SYN082AAXX  08124 08053 12562 21506 10348 20184 39513 40103 58016 60001 81101 333 51163;","Q01  00002PRCP06"
"08053099999","2010-07-09T06:00:00","4","42.5666666","-6.6","550.0","PONFERRADA, SP","FM-12","99999","V020","999,9,C,0000,1","22000,1,9,N","012000,1,N,1","+0176,1","+0170,1","10184,1","12,0030,9,1","24,0030,9,1",,,,,"03,99,1,02,1,05,1,00250,1,04,1,00,1","0582,9","01,9","999,+0150,9","999,N,+0174,1","99999,9,09555,1","3,1,015,1,+999,9","02,1","SYN106AAXX  09064 08053 11362 30000 10176 20170 39555 40184 53015 60032 702// 82540 333 20174 30015 55097 70030;",
"08053099999","2010-07-09T09:00:00","4","42.5666666","-6.6","550.0","PONFERRADA, SP","FM-12","99999","V020","270,1,N,0010,1","22000,1,9,N","018000,1,N,1","+0216,1","+0184,1","10189,1",,,,,,,"04,99,1,02,1,02,1,00250,1,06,1,00,1",,,,,"99999,9,09568,1","2,1,013,1,+999,9",,"SYN066AAXX  09094 08053 42368 42702 10216 20184 39568 40189 52013 82260;",
"08053099999","2010-07-09T12:00:00","4","42.5666666","-6.6","550.0","PONFERRADA, SP","FM-12","99999","V020","220,1,N,0021,1","22000,1,9,N","025000,1,N,1","+0268,1","+0189,1","10175,1","06,0000,9,1",,,,,,"01,99,1,01,1,01,1,00800,1,00,1,00,1",,,,,"99999,9,09566,1","8,1,002,1,+999,9",,"SYN082AAXX  09124 08053 12575 12204 10268 20189 39566 40175 58002 60001 81100 333 50873;","Q01  00002PRCP06"
"08053099999","2010-07-12T06:00:00","4","42.5666666","-6.6","550.0","PONFERRADA, SP","FM-12","99999","V020","280,1,N,0015,1","03600,1,9,N","015000,1,N,1","+0160,1","+0144,1","10171,1","12,0000,9,1","24,0000,9,1",,,,,"06,99,1,01,1,05,1,00250,1,04,1,01,1","0690,9","01,9","999,+0140,9","999,N,+0160,1","99999,9,09539,1","2,1,005,1,+999,9","02,1","SYN106AAXX  12064 08053 11365 62803 10160 20144 39539 40171 52005 60002 702// 81541 333 20160 30014 55115 70000;","Q01  00002PRCP24Q02  00002PRCP12"
"08053099999","2010-07-12T09:00:00","4","42.5666666","-6.6","550.0","PONFERRADA, SP","FM-12","99999","V020","290,1,N,0031,1","22000,1,9,N","020000,1,N,1","+0200,1","+0099,1","10171,1",,,,,,,"04,99,1,01,1,05,1,00250,1,04,1,01,1",,,,,"99999,9,09546,1","0,1,007,1,+999,9",,"SYN066AAXX  12094 08053 42370 42906 10200 20099 39546 40171 50007 81541;",
"08053099999","2010-07-12T12:00:00","4","42.5666666","-6.6","550.0","PONFERRADA, SP","FM-12","99999","V020","220,1,N,0015,1","22000,1,9,N","025000,1,N,1","+0254,1","+0116,1","10154,1","06,0000,9,1",,,,,,"04,99,1,01,1,05,1,00250,1,04,1,01,1",,,,,"99999,9,09541,1","8,1,005,1,+999,9",,"SYN082AAXX  12124 08053 12375 42203 10254 20116 39541 40154 58005 60001 81541 333 50753;","Q01  00002PRCP06"
"08053099999","2010-07-13T06:00:00","4","42.5666666","-6.6","550.0","PONFERRADA, SP","FM-12","99999","V020","999,9,C,0000,1","22000,1,9,N","012000,1,N,1","+0156,1","+0143,1","10154,1","12,0000,9,1","24,0000,9,1",,,,,"04,99,1,02,1,05,1,00250,1,04,1,00,1","0696,9","01,9","999,+0130,9","999,N,+0154,1","99999,9,09522,1","6,1,001,1,+999,9","02,1","SYN106AAXX  13064 08053 11362 40000 10156 20143 39522 40154 56001 60002 702// 82540 333 20154 30013 55116 70000;","Q01  00002PRCP24Q02  00002PRCP12"
"08053099999","2010-07-13T09:00:00","4","42.5666666","-6.6","550.0","PONFERRADA, SP","FM-12","99999","V020","280,1,N,0015,1","03600,1,9,N","015000,1,N,1","+0200,1","+0146,1","10141,1",,,,,,,"05,99,1,02,1,05,1,00250,1,06,1,00,1",,,,,"99999,9,09519,1","8,1,003,1,+999,9",,"SYN066AAXX  13094 08053 42365 52803 10200 20146 39519 40141 58003 82560;",
"08053099999","2010-07-13T12:00:00","4","42.5666666","-6.6","550.0","PONFERRADA, SP","FM-12","99999","V020","999,9,C,0000,1","22000,1,9,N","025000,1,N,1","+0245,1","+0151,1","10115,1","06,0000,9,1",,,,,,"01,99,1,01,1,01,1,00800,1,00,1,00,1",,,,,"99999,9,09504,1","7,1,015,1,+999,9",,"SYN082AAXX  13124 08053 12575 10000 10245 20151 39504 40115 57015 60001 81100 333 50703;","Q01  00002PRCP06"
"08053099999","2010-07-14T06:00:00","4","42.5666666","-6.6","550.0","PONFERRADA, SP","FM-12","99999","V020","260,1,N,0026,1","03600,1,9,N","012000,1,N,1","+0160,1","+0129,1","10120,1","12,0000,9,1","24,0000,9,1",,,,,"06,99,1,03,1,05,1,00250,1,04,1,00,1","0804,9","01,9","999,+0140,9","999,N,+0158,1","99999,9,09491,1","3,1,007,1,+999,9","02,1","SYN106AAXX  14064 08053 11362 62605 10160 20129 39491 40120 53007 60002 702// 83540 333 20158 30014 55134 70000;","Q01  00002PRCP24Q02  00002PRCP12"
"08053099999","2010-07-14T09:00:00","4","42.5666666","-6.6","550.0","PONFERRADA, SP","FM-12","99999","V020","240,1,N,0041,1","03600,1,9,N","020000,1,N,1","+0190,1","+0120,1","10122,1",,,,,,,"06,99,1,03,1,04,1,00250,1,06,1,00,1",,,,,"99999,9,09499,1","1,1,008,1,+999,9",,"SYN066AAXX  14094 08053 42370 62408 10190 20120 39499 40122 51008 83460;",
"08053099999","2010-07-15T06:00:00","4","42.5666666","-6.6","550.0","PONFERRADA, SP","FM-12","99999","V020","999,9,C,0000,1","22000,1,9,N","015000,1,N,1","+0104,1","+0080,1","10194,1","12,0000,9,1","24,0000,9,1",,,,"00,1,+99999,9,99,9","00,99,1,00,1,00,1,99999,9,00,1,00,1","0576,9","01,9","999,+0080,9","999,N,+0100,1","99999,9,09547,1","3,1,003,1,+999,9","00,1","SYN100AAXX  15064 08053 11965 00000 10104 20080 39547 40194 53003 60002 700// 333 20100 30008 55096 70000;","Q01  00002PRCP24Q02  00002PRCP12"
"08053099999","2010-07-15T09:00:00","4","42.5666666","-6.6","550.0","PONFERRADA, SP","FM-12","99999","V020","290,1,N,0005,1","22000,1,9,N","020000,1,N,1","+0162,1","+0094,1","10179,1",,,,,,"00,1,+99999,9,99,9","00,99,1,00,1,00,1,99999,9,00,1,00,1",,,,,"99999,9,09546,1","8,1,001,1,+999,9",,"SYN060AAXX  15094 08053 42970 02901 10162 20094 39546 40179 58001;",
"08053099999","2010-07-15T12:00:00","4","42.5666666","-6.6","550.0","PONFERRADA, SP","FM-12","99999","V020","250,1,N,0026,1","22000,1,9,N","025000,1,N,1","+0216,1","+0110,1","10158,1","06,0000,9,1",,,,,"00,1,+99999,9,99,9","00,99,1,00,1,00,1,99999,9,00,1,00,1",,,,,"99999,9,09537,1","6,1,009,1,+999,9",,"SYN076AAXX  15124 08053 12975 02505 10216 20110 39537 40158 56009 60001 333 50843;","Q01  00002PRCP06"
"08053099999","2010-07-16T06:00:00","4","42.5666666","-6.6","550.0","PONFERRADA, SP","FM-12","99999","V020","999,9,C,0000,1","03600,1,9,N","010000,1,N,1","+0166,1","+0128,1","10183,1","12,0000,9,1","24,0000,9,1",,,,,"07,99,1,03,1,05,1,00250,1,04,1,00,1","0828,9","01,9","999,+0140,9","999,N,+0156,1","99999,9,09551,1","3,1,001,1,+999,9","02,1","SYN106AAXX  16064 08053 11360 70000 10166 20128 39551 40183 53001 60002 702// 83540 333 20156 30014 55138 70000;","Q01  00002PRCP24Q02  00002PRCP12"
"08053099999","2010-07-16T09:00:00","4","42.5666666","-6.6","550.0","PONFERRADA, SP","FM-12","99999","V020","999,9,C,0000,1","03600,1,9,N","015000,1,N,1","+0196,1","+0135,1","10184,1",,,,,,,"07,99,1,03,1,05,1,00250,1,04,1,00,1",,,,,"99999,9,09558,1","1,1,007,1,+999,9",,"SYN066AAXX  16094 08053 42365 70000 10196 20135 39558 40184 51007 83540;",
"08053099999","2010-07-16T12:00:00","4","42.5666666","-6.6","550.0","PONFERRADA, SP","FM-12","99999","V020","200,1,N,0031,1","03600,1,9,N","022000,1,N,1","+0230,1","+0158,1","10178,1","06,0000,9,1",,,,,,"05,99,1,02,1,04,1,00250,1,06,1,00,1",,,,,"99999,9,09560,1","0,1,002,1,+999,9",,"SYN082AAXX  16124 08053 12372 52006 10230 20158 39560 40178 50002 60001 82460 333 50653;","Q01  00002PRCP06"
"08053099999","2010-07-19T06:00:00","4","42.5666666","-6.6","550.0","PONFERRADA, SP","FM-12","99999","V020","999,9,C,0000,1","22000,1,9,N","015000,1,N,1","+0170,1","+0143,1","10204,1","12,0000,9,1","24,0000,9,1",,,,"00,1,+99999,9,99,9","00,99,1,00,1,00,1,99999,9,00,1,00,1","0828,9","01,9","999,+0140,9","999,N,+0164,1","99999,9,09572,1","3,1,007,1,+999,9","00,1","SYN100AAXX  19064 08053 11965 00000 10170 20143 39572 40204 53007 60002 700// 333 20164 30014 55138 70000;","Q01  00002PRCP24Q02  00002PRCP12"
"08053099999","2010-07-19T09:00:00","4","42.5666666","-6.6","550.0","PONFERRADA, SP","FM-12","99999","V020","280,1,N,0021,1","22000,1,9,N","025000,1,N,1","+0226,1","+0166,1","10189,1",,,,,,"00,1,+99999,9,99,9","00,99,1,00,1,00,1,99999,9,00,1,00,1",,,,,"99999,9,09570,1","8,1,002,1,+999,9",,"SYN060AAXX  19094 08053 42975 02804 10226 20166 39570 40189 58002;",
"08053099999","2010-07-19T12:00:00","4","42.5666666","-6.6","550.0","PONFERRADA, SP","FM-12","99999","V020","300,1,N,0021,1","22000,1,9,N","028000,1,N,1","+0292,1","+0177,1","10160,1","06,0000,9,1",,,,,,"01,99,1,01,1,01,1,00800,1,00,1,01,1",,,,,"99999,9,09556,1","7,1,014,1,+999,9",,"SYN082AAXX  19124 08053 12578 13004 10292 20177 39556 40160 57014 60001 81101 333 50773;","Q01  00002PRCP06"
"08053099999","2010-07-20T06:00:00","4","42.5666666","-6.6","550.0","PONFERRADA, SP","FM-12","99999","V020","999,9,C,0000,1","22000,1,9,N","012000,1,N,1","+0152,1","+0127,1","10176,1","12,0000,9,1","24,0000,9,1",,,,,"04,99,1,02,1,05,1,00250,1,04,1,01,1","0828,9","01,9","999,+0110,9","999,N,+0150,1","99999,9,09541,1","6,1,004,1,+999,9","02,1","SYN106AAXX  20064 08053 11362 40000 10152 20127 39541 40176 56004 60002 702// 82541 333 20150 30011 55138 70000;","Q01  00002PRCP24Q02  00002PRCP12"
"08053099999","2010-07-20T09:00:00","4","42.5666666","-6.6","550.0","PONFERRADA, SP","FM-12","99999","V020","100,1,N,0010,1","22000,1,9,N","015000,1,N,1","+0204,1","+0147,1","10154,1",,,,,,,"04,99,1,02,1,04,1,00250,1,06,1,00,1",,,,,"99999,9,09532,1","8,1,009,1,+999,9",,"SYN066AAXX  20094 08053 42365 41002 10204 20147 39532 40154 58009 82460;",
"08053099999","2010-07-20T12:00:00","4","42.5666666","-6.6","550.0","PONFERRADA, SP","FM-12","99999","V020","180,1,N,0015,1","22000,1,9,N","025000,1,N,1","+0252,1","+0146,1","10123,1","06,0000,9,1",,,,,"00,1,+99999,9,99,9","00,99,1,00,1,00,1,99999,9,00,1,00,1",,,,,"99999,9,09513,1","8,1,019,1,+999,9",,"SYN076AAXX  20124 08053 12975 01803 10252 20146 39513 40123 58019 60001 333 50923;","Q01  00002PRCP06"
"08053099999","2010-07-21T06:00:00","4","42.5666666","-6.6","550.0","PONFERRADA, SP","FM-12","99999","V020","280,1,N,0026,1","03600,1,9,N","010000,1,N,1","+0160,1","+0122,1","10125,1","12,0000,9,1","24,0000,9,1",,,,,"06,99,1,03,1,05,1,00250,1,04,1,00,1","0642,9","01,9","999,+0140,9","999,N,+0160,1","99999,9,09495,1","3,1,003,1,+999,9","02,1","SYN106AAXX  21064 08053 11360 62805 10160 20122 39495 40125 53003 60002 702// 83540 333 20160 30014 55107 70000;","Q01  00002PRCP24Q02  00002PRCP12"
"08053099999","2010-07-21T09:00:00","4","42.5666666","-6.6","550.0","PONFERRADA, SP","FM-12","99999","V020","290,1,N,0010,1","22000,1,9,N","018000,1,N,1","+0192,1","+0134,1","10121,1",,,,,,,"04,99,1,02,1,04,1,00250,1,06,1,01,1",,,,,"99999,9,09498,1","1,1,003,1,+999,9",,"SYN066AAXX  21094 08053 42368 42902 10192 20134 39498 40121 51003 82461;",
"08053099999","2010-07-21T12:00:00","4","42.5666666","-6.6","550.0","PONFERRADA, SP","FM-12","99999","V020","290,1,N,0021,1","22000,1,9,N","025000,1,N,1","+0230,1","+0143,1","10106,1","06,0000,9,1",,,,,,"01,99,1,01,1,01,1,00800,1,00,1,00,1",,,,,"99999,9,09492,1","7,1,006,1,+999,9",,"SYN082AAXX  21124 08053 12575 12904 10230 20143 39492 40106 57006 60001 81100 333 51033;","Q01  00002PRCP06"
"08053099999","2010-07-22T06:00:00","4","42.5666666","-6.6","550.0","PONFERRADA, SP","FM-12","99999","V020","999,9,C,0000,1","22000,1,9,N","015000,1,N,1","+0118,1","+0099,1","10168,1","12,0000,9,1","24,0000,9,1",,,,,"01,99,1,01,1,05,1,00450,1,00,1,00,1","0612,9","01,9","999,+0090,9","999,N,+0114,1","99999,9,09526,1","3,1,011,1,+999,9","02,1","SYN106AAXX  22064 08053 11465 10000 10118 20099 39526 40168 53011 60002 702// 81500 333 20114 30009 55102 70000;","Q01  00002PRCP24Q02  00002PRCP12"
"08053099999","2010-07-22T09:00:00","4","42.5666666","-6.6","550.0","PONFERRADA, SP","FM-12","99999","V020","999,9,C,0000,1","22000,1,9,N","020000,1,N,1","+0172,1","+0094,1","10164,1",,,,,,,"01,99,1,01,1,02,1,00450,1,00,1,00,1",,,,,"99999,9,09534,1","1,1,008,1,+999,9",,"SYN066AAXX  22094 08053 42470 10000 10172 20094 39534 40164 51008 81200;",
"08053099999","2010-07-22T12:00:00","4","42.5666666","-6.6","550.0","PONFERRADA, SP","FM-12","99999","V020","999,9,9,9999,9","22000,1,9,N","028000,1,N,1","+0216,1","+0113,1","10151,1","06,0000,9,1",,,,,,"01,99,1,01,1,02,1,00450,1,00,1,00,1",,,,,"99999,9,09531,1","8,1,003,1,+999,9",,"SYN082AAXX  22124 08053 12478 1//// 10216 20113 39531 40151 58003 60001 81200 333 50733;","Q01  00002PRCP06"
"08053099999","2010-07-23T06:00:00","4","42.5666666","-6.6","550.0","PONFERRADA, SP","FM-12","99999","V020","999,9,C,0000,1","22000,1,9,N","018000,1,N,1","+0114,1","+0090,1","10245,1","12,0000,9,1","24,0000,9,1",,,,"00,1,+99999,9,99,9","00,99,1,00,1,00,1,99999,9,00,1,00,1","0822,9","01,9","999,+0080,9","999,N,+0106,1","99999,9,09597,1","2,1,013,1,+999,9","00,1","SYN100AAXX  23064 08053 11968 00000 10114 20090 39597 40245 52013 60002 700// 333 20106 30008 55137 70000;","Q01  00002PRCP24Q02  00002PRCP12"
"08053099999","2010-07-23T09:00:00","4","42.5666666","-6.6","550.0","PONFERRADA, SP","FM-12","99999","V020","999,9,C,0000,1","22000,1,9,N","025000,1,N,1","+0164,1","+0105,1","10241,1",,,,,,"00,1,+99999,9,99,9","00,99,1,00,1,00,1,99999,9,00,1,00,1",,,,,"99999,9,09604,1","1,1,007,1,+999,9",,"SYN060AAXX  23094 08053 42975 00000 10164 20105 39604 40241 51007;",
"08053099999","2010-07-23T12:00:00","4","42.5666666","-6.6","550.0","PONFERRADA, SP","FM-12","99999","V020","120,1,N,0005,1","22000,1,9,N","030000,1,N,1","+0214,1","+0120,1","10222,1","06,0000,9,1",,,,,"00,1,+99999,9,99,9","00,99,1,00,1,00,1,99999,9,00,1,00,1",,,,,"99999,9,09597,1","8,1,007,1,+999,9",,"SYN076AAXX  23124 08053 12980 01201 10214 20120 39597 40222 58007 60001 333 50723;","Q01  00002PRCP06"
"08053099999","2010-07-26T06:00:00","4","42.5666666","-6.6","550.0","PONFERRADA, SP","FM-12","99999","V020","999,9,C,0000,1","22000,1,9,N","020000,1,N,1","+0152,1","+0120,1","10196,1","12,0000,9,1","24,0000,9,1",,,,"00,1,+99999,9,99,9","00,99,1,00,1,00,1,99999,9,00,1,00,1","0822,9","01,9","999,+0120,9","999,N,+0148,1","99999,9,09560,1","3,1,004,1,+999,9","00,1","SYN100AAXX  26064 08053 11970 00000 10152 20120 39560 40196 53004 60002 700// 333 20148 30012 55137 70000;","Q01  00002PRCP24Q02  00002PRCP12"
"08053099999","2010-07-26T09:00:00","4","42.5666666","-6.6","550.0","PONFERRADA, SP","FM-12","99999","V020","270,1,N,0010,1","22000,1,9,N","025000,1,N,1","+0206,1","+0147,1","10181,1",,,,,,"00,1,+99999,9,99,9","00,99,1,00,1,00,1,99999,9,00,1,00,1",,,,,"99999,9,09558,1","8,1,002,1,+999,9",,"SYN060AAXX  26094 08053 42975 02702 10206 20147 39558 40181 58002;",
"08053099999","2010-07-26T12:00:00","4","42.5666666","-6.6","550.0","PONFERRADA, SP","FM-12","99999","V020","340,1,N,0015,1","22000,1,9,N","030000,1,N,1","+0286,1","+0172,1","10153,1","06,0000,9,1",,,,,"00,1,+99999,9,99,9","00,99,1,00,1,00,1,99999,9,00,1,00,1",,,,,"99999,9,09548,1","8,1,010,1,+999,9",,"SYN076AAXX  26124 08053 12980 03403 10286 20172 39548 40153 58010 60001 333 50663;","Q01  00002PRCP06"
"08053099999","2010-07-27T06:00:00","4","42.5666666","-6.6","550.0","PONFERRADA, SP","FM-12","99999","V020","999,9,C,0000,1","22000,1,9,N","018000,1,N,1","+0174,1","+0129,1","10179,1","12,0000,9,1","24,0000,9,1",,,,"00,1,+99999,9,99,9","00,99,1,00,1,00,1,99999,9,00,1,00,1","0822,9","01,9","999,+0150,9","999,N,+0170,1","99999,9,09549,1","3,1,007,1,+999,9","00,1","SYN100AAXX  27064 08053 11968 00000 10174 20129 39549 40179 53007 60002 700// 333 20170 30015 55137 70000;","Q01  00002PRCP24Q02  00002PRCP12"
"08053099999","2010-07-27T09:00:00","4","42.5666666","-6.6","550.0","PONFERRADA, SP","FM-12","99999","V020","320,1,N,0005,1","22000,1,9,N","022000,1,N,1","+0244,1","+0145,1","10168,1",,,,,,"00,1,+99999,9,99,9","00,99,1,00,1,00,1,99999,9,00,1,00,1",,,,,"99999,9,09553,1","0,1,004,1,+999,9",,"SYN060AAXX  27094 08053 42972 03201 10244 20145 39553 40168 50004;",
"08053099999","2010-07-27T12:00:00","4","42.5666666","-6.6","550.0","PONFERRADA, SP","FM-12","99999","V020","280,1,N,0021,1","22000,1,9,N","028000,1,N,1","+0298,1","+0166,1","10145,1","06,0000,9,1",,,,,"00,1,+99999,9,99,9","00,99,1,00,1,00,1,99999,9,00,1,00,1",,,,,"99999,9,09543,1","8,1,010,1,+999,9",,"SYN076AAXX  27124 08053 12978 02804 10298 20166 39543 40145 58010 60001 333 51033;","Q01  00002PRCP06"
"08053099999","2010-07-28T06:00:00","4","42.5666666","-6.6","550.0","PONFERRADA, SP","FM-12","99999","V020","999,9,C,0000,1","22000,1,9,N","018000,1,N,1","+0176,1","+0131,1","10199,1","12,0000,9,1","24,0000,9,1",,,,"00,1,+99999,9,99,9","00,99,1,00,1,00,1,99999,9,00,1,00,1","0816,9","01,9","999,+0150,9","999,N,+0170,1","99999,9,09568,1","3,1,008,1,+999,9",,"SYN094AAXX  28064 08053 12968 00000 10176 20131 39568 40199 53008 60002 333 20170 30015 55136 70000;","Q01  00002PRCP24Q02  00002PRCP12"
"08053099999","2010-07-28T09:00:00","4","42.5666666","-6.6","550.0","PONFERRADA, SP","FM-12","99999","V020","260,1,N,0010,1","22000,1,9,N","022000,1,N,1","+0240,1","+0132,1","10190,1",,,,,,"00,1,+99999,9,99,9","00,99,1,00,1,00,1,99999,9,00,1,00,1",,,,,"99999,9,09573,1","1,1,005,1,+999,9",,"SYN060AAXX  28094 08053 42972 02602 10240 20132 39573 40190 51005;",
"08053099999","2010-07-28T12:00:00","4","42.5666666","-6.6","550.0","PONFERRADA, SP","FM-12","99999","V020","240,1,N,0015,1","22000,1,9,N","028000,1,N,1","+0306,1","+0187,1","10157,1","06,0000,9,1",,,,,"00,1,+99999,9,99,9","00,99,1,00,1,00,1,99999,9,00,1,00,1",,,,,"99999,9,09556,1","7,1,017,1,+999,9",,"SYN076AAXX  28124 08053 12978 02403 10306 20187 39556 40157 57017 60001 333 50533;","Q01  00002PRCP06"
"08053099999","2010-07-29T06:00:00","4","42.5666666","-6.6","550.0","PONFERRADA, SP","FM-12","99999","V020","999,9,C,0000,1","22000,1,9,N","012000,1,N,1","+0180,1","+0163,1","10180,1","12,0000,9,1","24,0000,9,1",,,,,"02,99,1,01,1,05,1,00800,1,04,1,01,1","0780,9","01,9","999,+0150,9","999,N,+0176,1","99999,9,09552,1","3,1,008,1,+999,9","02,1","SYN106AAXX  29064 08053 11562 20000 10180 20163 39552 40180 53008 60002 702// 81541 333 20176 30015 55130 70000;","Q01  00002PRCP24Q02  00002PRCP12"
"08053099999","2010-07-29T09:00:00","4","42.5666666","-6.6","550.0","PONFERRADA, SP","FM-12","99999","V020","999,9,C,0000,1","22000,1,9,N","015000,1,N,1","+0226,1","+0175,1","10169,1",,,,,,,"01,99,1,00,1,00,1,99999,9,00,1,01,1",,,,,"99999,9,09551,1","8,1,001,1,+999,9",,"SYN066AAXX  29094 08053 42965 10000 10226 20175 39551 40169 58001 80001;",
"08053099999","2010-07-29T12:00:00","4","42.5666666","-6.6","550.0","PONFERRADA, SP","FM-12","99999","V020","310,1,N,0021,1","22000,1,9,N","025000,1,N,1","+0294,1","+0151,1","10143,1","06,0000,9,1",,,,,,"01,99,1,01,1,01,1,00800,1,00,1,01,1",,,,,"99999,9,09540,1","7,1,011,1,+999,9",,"SYN082AAXX  29124 08053 12575 13104 10294 20151 39540 40143 57011 60001 81101 333 51143;","Q01  00002PRCP06"
"08053099999","2010-07-30T06:00:00","4","42.5666666","-6.6","550.0","PONFERRADA, SP","FM-12","99999","V020","999,9,C,0000,1","22000,1,9,N","015000,1,N,1","+0166,1","+0139,1","10163,1","12,0000,9,1","24,0000,9,1",,,,"00,1,+99999,9,99,9","00,99,1,00,1,00,1,99999,9,00,1,00,1","0762,9","01,9","999,+0140,9","999,N,+0162,1","99999,9,09532,1","3,1,003,1,+999,9","00,1","SYN100AAXX  30064 08053 11965 00000 10166 20139 39532 40163 53003 60002 700// 333 20162 30014 55127 70000;","Q01  00002PRCP24Q02  00002PRCP12"
"08053099999","2010-07-30T09:00:00","4","42.5666666","-6.6","550.0","PONFERRADA, SP","FM-12","99999","V020","290,1,N,0021,1","22000,1,9,N","022000,1,N,1","+0226,1","+0150,1","10154,1",,,,,,"00,1,+99999,9,99,9","00,99,1,00,1,00,1,99999,9,00,1,00,1",,,,,"99999,9,09537,1","0,1,005,1,+999,9",,"SYN060AAXX  30094 08053 42972 02904 10226 20150 39537 40154 50005;",
"08053099999","2010-07-30T12:00:00","4","42.5666666","-6.6","550.0","PONFERRADA, SP","FM-12","99999","V020","300,1,N,0021,1","22000,1,9,N","028000,1,N,1","+0286,1","+0172,1","10124,1","06,0000,9,1",,,,,"00,1,+99999,9,99,9","00,99,1,00,1,00,1,99999,9,00,1,00,1",,,,,"99999,9,09521,1","7,1,016,1,+999,9",,"SYN076AAXX  30124 08053 12978 03004 10286 20172 39521 40124 57016 60001 333 51083;","Q01  00002PRCP06"
"08053099999","2010-08-02T06:00:00","4","42.5666666","-6.6","550.0","PONFERRADA, SP","FM-12","99999","V020","999,9,C,0000,1","03600,1,9,N","010000,1,N,1","+0140,1","+0126,1","10191,1","12,0000,9,1","24,0000,9,1",,,,,"06,99,1,03,1,05,1,00250,1,04,1,00,1","0564,9","01,9","999,+0110,9","999,N,+0138,1","99999,9,09553,1","3,1,007,1,+999,9","02,1","SYN106AAXX  02064 08053 11360 60000 10140 20126 39553 40191 53007 60002 702// 83540 333 20138 30011 55094 70000;","Q01  00002PRCP24Q02  00002PRCP12"
"08053099999","2010-08-02T09:00:00","4","42.5666666","-6.6","550.0","PONFERRADA, SP","FM-12","99999","V020","999,9,C,0000,1","22000,1,9,N","015000,1,N,1","+0184,1","+0137,1","10183,1",,,,,,,"04,99,1,02,1,04,1,00250,1,06,1,00,1",,,,,"99999,9,09555,1","1,1,002,1,+999,9",,"SYN066AAXX  02094 08053 42365 40000 10184 20137 39555 40183 51002 82460;",
"08053099999","2010-08-02T12:00:00","4","42.5666666","-6.6","550.0","PONFERRADA, SP","FM-12","99999","V020","340,1,N,0015,1","22000,1,9,N","025000,1,N,1","+0228,1","+0149,1","10168,1","06,0000,9,1",,,,,,"01,99,1,01,1,02,1,00800,1,00,1,00,1",,,,,"99999,9,09550,1","8,1,005,1,+999,9",,"SYN082AAXX  02124 08053 12575 13403 10228 20149 39550 40168 58005 60001 81200 333 50833;","Q01  00002PRCP06"
"08053099999","2010-08-03T06:00:00","4","42.5666666","-6.6","550.0","PONFERRADA, SP","FM-12","99999","V020","999,9,C,0000,1","22000,1,9,N","012000,1,N,1","+0128,1","+0117,1","10225,1","12,0000,9,1","24,0000,9,1",,,,"00,1,+99999,9,99,9","00,99,1,00,1,00,1,99999,9,00,1,00,1","0744,9","01,9","999,+0100,9","999,N,+0124,1","99999,9,09582,1","3,1,011,1,+999,9","00,1","SYN100AAXX  03064 08053 11962 00000 10128 20117 39582 40225 53011 60002 700// 333 20124 30010 55124 70000;","Q01  00002PRCP24Q02  00002PRCP12"
"08053099999","2010-08-03T09:00:00","4","42.5666666","-6.6","550.0","PONFERRADA, SP","FM-12","99999","V020","999,9,C,0000,1","22000,1,9,N","020000,1,N,1","+0190,1","+0132,1","10210,1",,,,,,,"01,99,1,00,1,00,1,99999,9,00,1,01,1",,,,,"99999,9,09581,1","8,1,001,1,+999,9",,"SYN066AAXX  03094 08053 42870 10000 10190 20132 39581 40210 58001 80001;","Q01+022502SCOLCB"
"08053099999","2010-08-03T12:00:00","4","42.5666666","-6.6","550.0","PONFERRADA, SP","FM-12","99999","V020","999,9,C,0000,1","22000,1,9,N","025000,1,N,1","+0248,1","+0130,1","10178,1","06,0000,9,1",,,,,,"01,99,1,00,1,00,1,99999,9,00,1,01,1",,,,,"99999,9,09563,1","8,1,018,1,+999,9",,"SYN082AAXX  03124 08053 12875 10000 10248 20130 39563 40178 58018 60001 80001 333 50613;","Q01+022502SCOLCBQ02  00002PRCP06"
"08053099999","2010-08-04T06:00:00","4","42.5666666","-6.6","550.0","PONFERRADA, SP","FM-12","99999","V020","999,9,C,0000,1","22000,1,9,N","018000,1,N,1","+0152,1","+0131,1","10189,1","12,0000,9,1","24,0000,9,1",,,,"00,1,+99999,9,99,9","00,99,1,00,1,00,1,99999,9,00,1,00,1","0810,9","01,9","999,+0120,9","999,N,+0150,1","99999,9,09554,1","5,1,000,1,+999,9","00,1","SYN100AAXX  04064 08053 11968 00000 10152 20131 39554 40189 55000 60002 700// 333 20150 30012 55135 70000;","Q01  00002PRCP24Q02  00002PRCP12"
"08053099999","2010-08-04T09:00:00","4","42.5666666","-6.6","550.0","PONFERRADA, SP","FM-12","99999","V020","280,1,N,0015,1","22000,1,9,N","025000,1,N,1","+0200,1","+0144,1","10180,1",,,,,,,"02,99,1,00,1,00,1,99999,9,00,1,01,1",,,,,"99999,9,09556,1","0,1,002,1,+999,9",,"SYN066AAXX  04094 08053 42875 22803 10200 20144 39556 40180 50002 80001;","Q01+022502SCOLCB"
"08053099999","2010-08-04T12:00:00","4","42.5666666","-6.6","550.0","PONFERRADA, SP","FM-12","99999","V020","260,1,N,0026,1","22000,1,9,N","030000,1,N,1","+0278,1","+0155,1","10144,1","06,0000,9,1",,,,,,"01,99,1,00,1,00,1,99999,9,00,1,02,1",,,,,"99999,9,09538,1","7,1,018,1,+999,9",,"SYN082AAXX  04124 08053 12980 12605 10278 20155 39538 40144 57018 60001 80002 333 50603;","Q01  00002PRCP06"
"08053099999","2010-08-05T06:00:00","4","42.5666666","-6.6","550.0","PONFERRADA, SP","FM-12","99999","V020","999,9,C,0000,1","22000,1,9,N","025000,1,N,1","+0130,1","+0104,1","10191,1","12,0000,9,1","24,0000,9,1",,,,,"01,99,1,00,1,00,1,99999,9,00,1,01,1","0786,9","01,9","999,+0100,9","999,N,+0118,1","99999,9,09550,1","3,1,007,1,+999,9","02,1","SYN106AAXX  05064 08053 11975 10000 10130 20104 39550 40191 53007 60002 702// 80001 333 20118 30010 55131 70000;","Q01  00002PRCP24Q02  00002PRCP12"
"08053099999","2010-08-05T09:00:00","4","42.5666666","-6.6","550.0","PONFERRADA, SP","FM-12","99999","V020","999,9,C,0000,1","22000,1,9,N","030000,1,N,1","+0178,1","+0118,1","10178,1",,,,,,"00,1,+99999,9,99,9","00,99,1,00,1,00,1,99999,9,00,1,00,1",,,,,"99999,9,09549,1","8,1,001,1,+999,9",,"SYN060AAXX  05094 08053 42980 00000 10178 20118 39549 40178 58001;",
"08053099999","2010-08-05T12:00:00","4","42.5666666","-6.6","550.0","PONFERRADA, SP","FM-12","99999","V020","260,1,N,0021,1","22000,1,9,N","035000,1,N,1","+0246,1","+0115,1","10147,1","06,0000,9,1",,,,,"00,1,+99999,9,99,9","00,99,1,00,1,00,1,99999,9,00,1,00,1",,,,,"99999,9,09533,1","8,1,016,1,+999,9",,"SYN076AAXX  05124 08053 12981 02604 10246 20115 39533 40147 58016 60001 333 50843;","Q01  00002PRCP06"
"08053099999","2010-08-06T06:00:00","4","42.5666666","-6.6","550.0","PONFERRADA, SP","FM-12","99999","V020","999,9,C,0000,1","22000,1,9,N","028000,1,N,1","+0136,1","+0115,1","10184,1","12,0000,9,1","24,0000,9,1",,,,"00,1,+99999,9,99,9","00,99,1,00,1,00,1,99999,9,00,1,00,1","0804,9","01,9","999,+0110,9","999,N,+0130,1","99999,9,09545,1","2,1,010,1,+999,9","00,1","SYN100AAXX  06064 08053 11978 00000 10136 20115 39545 40184 52010 60002 700// 333 20130 30011 55134 70000;","Q01  00002PRCP24Q02  00002PRCP12"
"08053099999","2010-08-06T09:00:00","4","42.5666666","-6.6","550.0","PONFERRADA, SP","FM-12","99999","V020","999,9,C,0000,1","22000,1,9,N","030000,1,N,1","+0190,1","+0120,1","10173,1",,,,,,"00,1,+99999,9,99,9","00,99,1,00,1,00,1,99999,9,00,1,00,1",,,,,"99999,9,09546,1","0,1,001,1,+999,9",,"SYN060AAXX  06094 08053 42980 00000 10190 20120 39546 40173 50001;",
"08053099999","2010-08-06T12:00:00","4","42.5666666","-6.6","550.0","PONFERRADA, SP","FM-12","99999","V020","260,1,N,0026,1","22000,1,9,N","035000,1,N,1","+0280,1","+0107,1","10137,1","06,0000,9,1",,,,,"00,1,+99999,9,99,9","00,99,1,00,1,00,1,99999,9,00,1,00,1",,,,,"99999,9,09530,1","7,1,016,1,+999,9",,"SYN076AAXX  06124 08053 12981 02605 10280 20107 39530 40137 57016 60001 333 50883;","Q01  00002PRCP06"
"08053099999","2010-08-09T06:00:00","4","42.5666666","-6.6","550.0","PONFERRADA, SP","FM-12","99999","V020","130,1,N,0010,1","03600,1,9,N","020000,1,N,1","+0192,1","+0159,1","10171,1","12,0000,9,1","24,0000,9,1",,,,,"07,99,1,03,1,07,1,00800,1,04,1,99,9","0750,9","01,9","999,+0160,9","999,N,+0188,1","99999,9,09546,1","3,1,004,1,+999,9","16,1","SYN106AAXX  09064 08053 11570 71302 10192 20159 39546 40171 53004 60002 716// 8374/ 333 20188 30016 55125 70000;","Q01  00002PRCP24Q02  00002PRCP12"
"08053099999","2010-08-09T09:00:00","4","42.5666666","-6.6","550.0","PONFERRADA, SP","FM-12","99999","V020","270,1,N,0015,1","22000,1,9,N","012000,1,N,1","+0224,1","+0167,1","10169,1",,,,"8,1,03,1","1,1,03,1","00,1,+99999,9,99,9","00,99,1,00,1,00,1,99999,9,00,1,00,1",,,,,"99999,9,09551,1","1,1,005,1,+999,9","00,1","SYN066AAXX  09094 08053 41962 02703 10224 20167 39551 40169 51005 70081;",
"08053099999","2010-08-09T12:00:00","4","42.5666666","-6.6","550.0","PONFERRADA, SP","FM-12","99999","V020","280,1,N,0021,1","22000,1,9,N","010000,1,N,1","+0306,1","+0155,1","10140,1","06,0000,9,1",,,"8,1,06,1","1,1,06,1","00,1,+99999,9,99,9","00,99,1,00,1,00,1,99999,9,00,1,00,1",,,,,"99999,9,09539,1","8,1,012,1,+999,9","00,1","SYN082AAXX  09124 08053 11960 02804 10306 20155 39539 40140 58012 69901 70081 333 50643;","Q01  00002PRCP06"
"08053099999","2010-08-10T06:00:00","4","42.5666666","-6.6","550.0","PONFERRADA, SP","FM-12","99999","V020","999,9,C,0000,1","22000,1,9,N","018000,1,N,1","+0160,1","+0118,1","10189,1","12,0000,9,1","24,0000,9,1",,,,,"01,99,1,01,1,01,1,00800,1,00,1,00,1","0708,9","01,9","999,+0130,9","999,N,+0156,1","99999,9,09555,1","3,1,008,1,+999,9","02,1","SYN106AAXX  10064 08053 11568 10000 10160 20118 39555 40189 53008 60002 702// 81100 333 20156 30013 55118 79999;","Q01  00002PRCP24Q02  00002PRCP12"
"08053099999","2010-08-10T09:00:00","4","42.5666666","-6.6","550.0","PONFERRADA, SP","FM-12","99999","V020","280,1,N,0010,1","22000,1,9,N","020000,1,N,1","+0212,1","+0129,1","10181,1",,,,,,"00,1,+99999,9,99,9","00,99,1,00,1,00,1,99999,9,00,1,00,1",,,,,"99999,9,09559,1","1,1,004,1,+999,9",,"SYN060AAXX  10094 08053 42970 02802 10212 20129 39559 40181 51004;",
"08053099999","2010-08-10T12:00:00","4","42.5666666","-6.6","550.0","PONFERRADA, SP","FM-12","99999","V020","250,1,N,0021,1","99999,9,9,N","020000,1,N,1","+0302,1","+0117,1","10153,1","06,0000,9,1",,,,,,"06,99,1,00,1,00,1,99999,9,00,1,02,1",,,,,"99999,9,09550,1","8,1,009,1,+999,9",,"SYN082AAXX  10124 08053 12970 62504 10302 20117 39550 40153 58009 60001 80002 333 50893;","Q01  00002PRCP06"
"08053099999","2010-08-11T06:00:00","4","42.5666666","-6.6","550.0","PONFERRADA, SP","FM-12","99999","V020","999,9,C,0000,1","22000,1,9,N","030000,1,N,1","+0128,1","+0085,1","10221,1","12,0000,9,1","24,0000,9,1",,,,,"03,99,1,00,1,00,1,99999,9,00,1,04,1","0720,9","01,9","999,+0100,9","999,N,+0122,1","99999,9,09578,1","2,1,008,1,+999,9","02,1","SYN106AAXX  11064 08053 11980 30000 10128 20085 39578 40221 52008 60002 702// 80004 333 20122 30010 55120 70000;","Q01  00002PRCP24Q02  00002PRCP12"
"08053099999","2010-08-11T09:00:00","4","42.5666666","-6.6","550.0","PONFERRADA, SP","FM-12","99999","V020","999,9,C,0000,1","22000,1,9,N","030000,1,N,1","+0188,1","+0096,1","10209,1",,,,,,,"02,99,1,01,1,00,1,01750,1,04,1,02,1",,,,,"99999,9,09579,1","0,1,001,1,+999,9",,"SYN066AAXX  11094 08053 42780 20000 10188 20096 39579 40209 50001 81042;",
"08053099999","2010-08-11T12:00:00","4","42.5666666","-6.6","550.0","PONFERRADA, SP","FM-12","99999","V020","270,1,N,0021,1","09000,1,9,N","028000,1,N,1","+0274,1","+0110,1","10172,1","06,0000,9,1",,,,,,"05,99,1,01,1,01,1,00800,1,04,1,02,1",,,,,"99999,9,09562,1","8,1,017,1,+999,9",,"SYN082AAXX  11124 08053 12578 52704 10274 20110 39562 40172 58017 60001 81142 333 50773;","Q01  00002PRCP06"
"08053099999","2010-08-12T06:00:00","4","42.5666666","-6.6","550.0","PONFERRADA, SP","FM-12","99999","V020","999,9,C,0000,1","22000,1,9,N","025000,1,N,1","+0190,1","+0164,1","10180,1","12,0000,9,1","24,0000,9,1",,,,,"04,99,1,04,1,05,1,00450,1,00,1,00,1","0762,9","01,9","999,+0160,9","999,N,+0188,1","99999,9,09554,1","3,1,001,1,+999,9","02,1","SYN106AAXX  12064 08053 11475 40000 10190 20164 39554 40180 53001 60002 702// 84500 333 20188 30016 55127 70000;","Q01  00002PRCP24Q02  00002PRCP12"
"08053099999","2010-08-12T09:00:00","4","42.5666666","-6.6","550.0","PONFERRADA, SP","FM-12","99999","V020","260,1,N,0015,1","22000,1,9,N","028000,1,N,1","+0220,1","+0158,1","10177,1",,,,,,,"02,99,1,01,1,04,1,00450,1,04,1,00,1",,,,,"99999,9,09557,1","0,1,003,1,+999,9",,"SYN066AAXX  12094 08053 42478 22603 10220 20158 39557 40177 50003 81440;",
"08053099999","2010-08-12T12:00:00","4","42.5666666","-6.6","550.0","PONFERRADA, SP","FM-12","99999","V020","290,1,N,0021,1","22000,1,9,N","030000,1,N,1","+0262,1","+0156,1","10158,1","06,0000,9,1",,,,,,"04,99,1,04,1,02,1,00450,1,00,1,00,1",,,,,"99999,9,09548,1","8,1,009,1,+999,9",,"SYN082AAXX  12124 08053 12480 42904 10262 20156 39548 40158 58009 60001 84200 333 50723;","Q01  00002PRCP06"
"08053099999","2010-08-13T06:00:00","4","42.5666666","-6.6","550.0","PONFERRADA, SP","FM-12","99999","V020","999,9,C,0000,1","22000,1,9,N","022000,1,N,1","+0122,1","+0108,1","10212,1","12,0000,9,1","24,0000,9,1",,,,,"01,99,1,01,1,00,1,99999,9,04,1,00,1","0744,9","01,9","999,+0100,9","999,N,+0122,1","99999,9,09568,1","3,1,007,1,+999,9","02,1","SYN106AAXX  13064 08053 11972 10000 10122 20108 39568 40212 53007 60002 702// 81040 333 20122 30010 55124 70000;","Q01  00002PRCP24Q02  00002PRCP12"
"08053099999","2010-08-13T09:00:00","4","42.5666666","-6.6","550.0","PONFERRADA, SP","FM-12","99999","V020","270,1,N,0010,1","22000,1,9,N","025000,1,N,1","+0174,1","+0112,1","10201,1",,,,,,,"01,99,1,01,1,01,1,00800,1,04,1,00,1",,,,,"99999,9,09569,1","0,1,001,1,+999,9",,"SYN066AAXX  13094 08053 42575 12702 10174 20112 39569 40201 50001 81140;",
"08053099999","2010-08-13T12:00:00","4","42.5666666","-6.6","550.0","PONFERRADA, SP","FM-12","99999","V020","300,1,N,0021,1","22000,1,9,N","030000,1,N,1","+0238,1","+0094,1","10167,1","06,0000,9,1",,,,,,"01,99,1,01,1,01,1,00800,1,00,1,00,1",,,,,"99999,9,09550,1","8,1,019,1,+999,9",,"SYN082AAXX  13124 08053 12580 13004 10238 20094 39550 40167 58019 60001 81100 333 50813;","Q01  00002PRCP06"
"08053099999","2010-08-16T06:00:00","4","42.5666666","-6.6","550.0","PONFERRADA, SP","FM-12","99999","V020","999,9,C,0000,1","22000,1,9,N","022000,1,N,1","+0132,1","+0095,1","10215,1","12,0000,9,1","24,0000,9,1",,,,,"02,99,1,01,1,01,1,00800,1,04,1,00,1","0792,9","01,9","999,+0110,9","999,N,+0130,1","99999,9,09573,1","3,1,012,1,+999,9","02,1","SYN106AAXX  16064 08053 11572 20000 10132 20095 39573 40215 53012 60002 702// 81140 333 20130 30011 55132 70000;","Q01  00002PRCP24Q02  00002PRCP12"
"08053099999","2010-08-16T09:00:00","4","42.5666666","-6.6","550.0","PONFERRADA, SP","FM-12","99999","V020","270,1,N,0010,1","22000,1,9,N","028000,1,N,1","+0190,1","+0098,1","10200,1",,,,,,,"01,99,1,01,1,01,1,00800,1,00,1,00,1",,,,,"99999,9,09571,1","8,1,002,1,+999,9",,"SYN066AAXX  16094 08053 42578 12702 10190 20098 39571 40200 58002 81100;",
"08053099999","2010-08-16T12:00:00","4","42.5666666","-6.6","550.0","PONFERRADA, SP","FM-12","99999","V020","090,1,N,0005,1","22000,1,9,N","030000,1,N,1","+0250,1","+0097,1","10173,1","06,0000,9,1",,,,,,"01,99,1,01,1,01,1,00800,1,00,1,00,1",,,,,"99999,9,09558,1","8,1,013,1,+999,9",,"SYN082AAXX  16124 08053 12580 10901 10250 20097 39558 40173 58013 60001 81100 333 50733;","Q01  00002PRCP06"
"08053099999","2010-08-17T06:00:00","4","42.5666666","-6.6","550.0","PONFERRADA, SP","FM-12","99999","V020","999,9,C,0000,1","22000,1,9,N","020000,1,N,1","+0124,1","+0089,1","10214,1","12,0000,9,1","24,0000,9,1",,,,,"01,99,1,01,1,00,1,01750,1,04,1,00,1","0786,9","01,9","999,+0100,9","999,N,+0124,1","99999,9,09570,1","3,1,003,1,+999,9","02,1","SYN106AAXX  17064 08053 11770 10000 10124 20089 39570 40214 53003 60002 702// 81040 333 20124 30010 55131 70000;","Q01  00002PRCP24Q02  00002PRCP12"
"08053099999","2010-08-17T09:00:00","4","42.5666666","-6.6","550.0","PONFERRADA, SP","FM-12","99999","V020","999,9,C,0000,1","22000,1,9,N","020000,1,N,1","+0182,1","+0106,1","10202,1",,,,,,"00,1,+99999,9,99,9","00,99,1,00,1,00,1,99999,9,00,1,00,1",,,,,"99999,9,09572,1","0,1,002,1,+999,9",,"SYN060AAXX  17094 08053 42970 00000 10182 20106 39572 40202 50002;",
"08053099999","2010-08-17T12:00:00","4","42.5666666","-6.6","550.0","PONFERRADA, SP","FM-12","99999","V020","220,1,N,0015,1","22000,1,9,N","022000,1,N,1","+0264,1","+0105,1","10163,1","06,0000,9,1",,,,,"00,1,+99999,9,99,9","00,99,1,00,1,00,1,99999,9,00,1,00,1",,,,,"99999,9,09552,1","8,1,020,1,+999,9",,"SYN076AAXX  17124 08053 12972 02203 10264 20105 39552 40163 58020 60001 333 50653;","Q01  00002PRCP06"
"08053099999","2010-08-18T06:00:00","4","42.5666666","-6.6","550.0","PONFERRADA, SP","FM-12","99999","V020","999,9,C,0000,1","22000,1,9,N","020000,1,N,1","+0144,1","+0119,1","10184,1","12,0000,9,1","24,0000,9,1",,,,,"02,99,1,01,1,00,1,01750,1,04,1,01,1","0780,9","01,9","999,+0120,9","999,N,+0144,1","99999,9,09547,1","5,1,000,1,+999,9","02,1","SYN106AAXX  18064 08053 11770 20000 10144 20119 39547 40184 55000 60002 702// 81041 333 20144 30012 55130 70000;","Q01  00002PRCP24Q02  00002PRCP12"
"08053099999","2010-08-18T09:00:00","4","42.5666666","-6.6","550.0","PONFERRADA, SP","FM-12","99999","V020","210,1,N,0010,1","03600,1,9,N","022000,1,N,1","+0204,1","+0136,1","10153,1",,,,,,,"06,99,1,01,1,01,1,00800,1,04,1,01,1",,,,,"99999,9,09531,1","8,1,003,1,+999,9",,"SYN066AAXX  18094 08053 42572 62102 10204 20136 39531 40153 58003 81141;",
"08053099999","2010-08-18T12:00:00","4","42.5666666","-6.6","550.0","PONFERRADA, SP","FM-12","99999","V020","260,1,N,0026,1","03600,1,9,N","028000,1,N,1","+0264,1","+0154,1","10121,1","06,0000,9,1",,,,,,"05,99,1,03,1,01,1,00450,1,04,1,01,1",,,,,"99999,9,09513,1","8,1,018,1,+999,9",,"SYN082AAXX  18124 08053 12478 52605 10264 20154 39513 40121 58018 60001 83141 333 50663;","Q01  00002PRCP06"
"08053099999","2010-08-19T06:00:00","4","42.5666666","-6.6","550.0","PONFERRADA, SP","FM-12","99999","V020","999,9,C,0000,1","22000,1,9,N","020000,1,N,1","+0134,1","+0120,1","10154,1","12,0000,9,1","24,0000,9,1",,,,,"02,99,1,02,1,00,1,01750,1,04,1,00,1","0666,9","01,9","999,+0110,9","999,N,+0132,1","99999,9,09517,1","3,1,002,1,+999,9","02,1","SYN106AAXX  19064 08053 11770 20000 10134 20120 39517 40154 53002 60002 702// 82040 333 20132 30011 55111 70000;","Q01  00002PRCP24Q02  00002PRCP12"
"08053099999","2010-08-19T09:00:00","4","42.5666666","-6.6","550.0","PONFERRADA, SP","FM-12","99999","V020","290,1,N,0010,1","22000,1,9,N","020000,1,N,1","+0172,1","+0137,1","10154,1",,,,,,,"01,99,1,01,1,01,1,00800,1,04,1,00,1",,,,,"99999,9,09525,1","0,1,008,1,+999,9",,"SYN066AAXX  19094 08053 42570 12902 10172 20137 39525 40154 50008 81140;",
"08053099999","2010-08-19T12:00:00","4","42.5666666","-6.6","550.0","PONFERRADA, SP","FM-12","99999","V020","999,9,C,0000,1","22000,1,9,N","025000,1,N,1","+0246,1","+0129,1","10124,1","06,0000,9,1",,,,,"00,1,+99999,9,99,9","00,99,1,00,1,00,1,99999,9,00,1,00,1",,,,,"99999,9,09512,1","8,1,013,1,+999,9",,"SYN076AAXX  19124 08053 12975 00000 10246 20129 39512 40124 58013 60001 333 50593;","Q01  00002PRCP06"
"08053099999","2010-08-20T06:00:00","4","42.5666666","-6.6","550.0","PONFERRADA, SP","FM-12","99999","V020","999,9,C,0000,1","22000,1,9,N","028000,1,N,1","+0142,1","+0117,1","10204,1","12,0000,9,1","24,0000,9,1",,,,,"01,99,1,00,1,00,1,99999,9,00,1,01,1","0630,9","01,9","999,+0110,9","999,N,+0140,1","99999,9,09565,1","2,1,017,1,+999,9","02,1","SYN106AAXX  20064 08053 11978 10000 10142 20117 39565 40204 52017 60002 702// 80001 333 20140 30011 55105 70000;","Q01  00002PRCP24Q02  00002PRCP12"
"08053099999","2010-08-20T09:00:00","4","42.5666666","-6.6","550.0","PONFERRADA, SP","FM-12","99999","V020","999,9,C,0000,1","22000,1,9,N","028000,1,N,1","+0202,1","+0127,1","10200,1",,,,,,,"01,99,1,01,1,00,1,01750,1,04,1,01,1",,,,,"99999,9,09574,1","0,1,009,1,+999,9",,"SYN066AAXX  20094 08053 42778 10000 10202 20127 39574 40200 50009 81041;",
"08053099999","2010-08-20T12:00:00","4","42.5666666","-6.6","550.0","PONFERRADA, SP","FM-12","99999","V020","270,1,N,0021,1","22000,1,9,N","028000,1,N,1","+0272,1","+0135,1","10182,1","06,0000,9,1",,,,,,"01,99,1,01,1,01,1,00800,1,04,1,00,1",,,,,"99999,9,09572,1","8,1,002,1,+999,9",,"SYN082AAXX  20124 08053 12578 12704 10272 20135 39572 40182 58002 60001 81140 333 50593;","Q01  00002PRCP06"
"08053099999","2010-08-23T06:00:00","4","42.5666666","-6.6","550.0","PONFERRADA, SP","FM-12","99999","V020","090,1,N,0005,1","22000,1,9,N","025000,1,N,1","+0152,1","+0127,1","10148,1","12,0000,9,1","24,0000,9,1",,,,,"04,99,1,01,1,01,1,00800,1,04,1,00,1","0624,9","01,9","999,+0120,9","999,N,+0150,1","99999,9,09515,1","6,1,003,1,+999,9","02,1","SYN106AAXX  23064 08053 11575 40901 10152 20127 39515 40148 56003 60002 702// 81140 333 20150 30012 55104 70000;","Q01  00002PRCP24Q02  00002PRCP12"
"08053099999","2010-08-23T09:00:00","4","42.5666666","-6.6","550.0","PONFERRADA, SP","FM-12","99999","V020","250,1,N,0021,1","03600,1,9,N","028000,1,N,1","+0208,1","+0133,1","10132,1",,,,,,,"05,99,1,01,1,01,1,00800,1,04,1,00,1",,,,,"99999,9,09512,1","8,1,003,1,+999,9",,"SYN066AAXX  23094 08053 42578 52504 10208 20133 39512 40132 58003 81140;",
"08053099999","2010-08-23T12:00:00","4","42.5666666","-6.6","550.0","PONFERRADA, SP","FM-12","99999","V020","260,1,N,0026,1","03600,1,9,N","030000,1,N,1","+0260,1","+0135,1","10103,1","06,0000,9,1",,,,,,"06,99,1,04,1,05,1,00450,1,04,1,00,1",,,,,"99999,9,09495,1","8,1,017,1,+999,9",,"SYN082AAXX  23124 08053 12480 62605 10260 20135 39495 40103 58017 60001 84540 333 50713;","Q01  00002PRCP06"
"08053099999","2010-08-24T06:00:00","4","42.5666666","-6.6","550.0","PONFERRADA, SP","FM-12","99999","V020","999,9,C,0000,1","22000,1,9,N","030000,1,N,1","+0172,1","+0155,1","10165,1","12,0000,9,1","24,0000,9,1",,,,,"03,99,1,03,1,05,1,00450,1,00,1,00,1","0480,9","01,9","999,+0150,9","999,N,+0172,1","99999,9,09536,1","3,1,006,1,+999,9","02,1","SYN106AAXX  24064 08053 11480 30000 10172 20155 39536 40165 53006 60002 702// 83500 333 20172 30015 55080 70000;","Q01  00002PRCP24Q02  00002PRCP12"
"08053099999","2010-08-24T09:00:00","4","42.5666666","-6.6","550.0","PONFERRADA, SP","FM-12","99999","V020","220,1,N,0010,1","22000,1,9,N","030000,1,N,1","+0204,1","+0152,1","10171,1",,,,,,,"04,99,1,04,1,05,1,00450,1,00,1,00,1",,,,,"99999,9,09548,1","1,1,012,1,+999,9",,"SYN066AAXX  24094 08053 42480 42202 10204 20152 39548 40171 51012 84500;",
"08053099999","2010-08-24T12:00:00","4","42.5666666","-6.6","550.0","PONFERRADA, SP","FM-12","99999","V020","270,1,N,0026,1","22000,1,9,N","030000,1,N,1","+0248,1","+0121,1","10162,1","06,0000,9,1",,,,,,"01,99,1,01,1,01,1,00800,1,00,1,00,1",,,,,"99999,9,09548,1","0,1,000,1,+999,9",,"SYN082AAXX  24124 08053 12580 12705 10248 20121 39548 40162 50000 60001 81100 333 50583;","Q01  00002PRCP06"
"08053099999","2010-08-25T06:00:00","4","42.5666666","-6.6","550.0","PONFERRADA, SP","FM-12","99999","V020","999,9,C,0000,1","22000,1,9,N","028000,1,N,1","+0150,1","+0129,1","10192,1","12,0000,9,1","24,0000,9,1",,,,"00,1,+99999,9,99,9","00,99,1,00,1,00,1,99999,9,00,1,00,1","0762,9","01,9","999,+0120,9","999,N,+0150,1","99999,9,09556,1","3,1,001,1,+999,9","00,1","SYN100AAXX  25064 08053 11978 00000 10150 20129 39556 40192 53001 60002 700// 333 20150 30012 55127 70000;","Q01  00002PRCP24Q02  00002PRCP12"
"08053099999","2010-08-25T09:00:00","4","42.5666666","-6.6","550.0","PONFERRADA, SP","FM-12","99999","V020","999,9,C,0000,1","22000,1,9,N","025000,1,N,1","+0214,1","+0133,1","10184,1",,,,,,"00,1,+99999,9,99,9","00,99,1,00,1,00,1,99999,9,00,1,00,1",,,,,"99999,9,09562,1","1,1,006,1,+999,9",,"SYN060AAXX  25094 08053 42975 00000 10214 20133 39562 40184 51006;",
"08053099999","2010-08-25T12:00:00","4","42.5666666","-6.6","550.0","PONFERRADA, SP","FM-12","99999","V020","010,1,N,0021,1","22000,1,9,N","028000,1,N,1","+0290,1","+0136,1","10154,1","06,0000,9,1",,,,,"00,1,+99999,9,99,9","00,99,1,00,1,00,1,99999,9,00,1,00,1",,,,,"99999,9,09549,1","8,1,013,1,+999,9",,"SYN076AAXX  25124 08053 12978 00104 10290 20136 39549 40154 58013 60001 333 50703;","Q01  00002PRCP06"
"08053099999","2010-08-26T06:00:00","4","42.5666666","-6.6","550.0","PONFERRADA, SP","FM-12","99999","V020","999,9,C,0000,1","09000,1,9,N","020000,1,N,1","+0174,1","+0147,1","10143,1","12,0000,9,1","24,0000,9,1",,,,,"05,99,1,02,1,05,1,00250,1,04,1,01,1","0762,9","01,9","999,+0150,9","999,N,+0172,1","99999,9,09516,1","6,1,004,1,+999,9","02,1","SYN106AAXX  26064 08053 11370 50000 10174 20147 39516 40143 56004 60002 702// 82541 333 20172 30015 55127 70000;","Q01  00002PRCP24Q02  00002PRCP12"
"08053099999","2010-08-26T09:00:00","4","42.5666666","-6.6","550.0","PONFERRADA, SP","FM-12","99999","V020","999,9,C,0000,1","09000,1,9,N","025000,1,N,1","+0214,1","+0155,1","10139,1",,,,,,,"05,99,1,02,1,05,1,00250,1,04,1,01,1",,,,,"99999,9,09520,1","3,1,004,1,+999,9",,"SYN066AAXX  26094 08053 42375 50000 10214 20155 39520 40139 53004 82541;",
"08053099999","2010-08-26T12:00:00","4","42.5666666","-6.6","550.0","PONFERRADA, SP","FM-12","99999","V020","240,1,N,0031,1","09000,1,9,N","028000,1,N,1","+0282,1","+0129,1","10122,1","06,0000,9,1",,,,,,"05,99,1,02,1,05,1,00250,1,04,1,01,1",,,,,"99999,9,09517,1","8,1,003,1,+999,9",,"SYN082AAXX  26124 08053 12378 52406 10282 20129 39517 40122 58003 60001 82541 333 50653;","Q01  00002PRCP06"
"08053099999","2010-08-27T06:00:00","4","42.5666666","-6.6","550.0","PONFERRADA, SP","FM-12","99999","V020","280,1,N,0015,1","09000,1,9,N","015000,1,N,1","+0170,1","+0123,1","10163,1","12,0000,9,1","24,0000,9,1",,,,,"05,99,1,01,1,05,1,00250,1,04,1,01,1","0408,9","01,9","999,+0150,9","999,N,+0170,1","99999,9,09533,1","3,1,007,1,+999,9","02,1","SYN106AAXX  27064 08053 11365 52803 10170 20123 39533 40163 53007 60002 702// 81541 333 20170 30015 55068 70000;","Q01  00002PRCP24Q02  00002PRCP12"
"08053099999","2010-08-27T09:00:00","4","42.5666666","-6.6","550.0","PONFERRADA, SP","FM-12","99999","V020","280,1,N,0021,1","22000,1,9,N","020000,1,N,1","+0206,1","+0131,1","10175,1",,,,,,,"04,99,1,01,1,05,1,00250,1,04,1,01,1",,,,,"99999,9,09552,1","1,1,019,1,+999,9",,"SYN066AAXX  27094 08053 42370 42804 10206 20131 39552 40175 51019 81541;",
"08053099999","2010-08-27T12:00:00","4","42.5666666","-6.6","550.0","PONFERRADA, SP","FM-12","99999","V020","290,1,N,0031,1","22000,1,9,N","025000,1,N,1","+0242,1","+0101,1","10168,1","06,0000,9,1",,,,,"00,1,+99999,9,99,9","00,99,1,00,1,00,1,99999,9,00,1,00,1",,,,,"99999,9,09552,1","0,1,000,1,+999,9",,"SYN076AAXX  27124 08053 12975 02906 10242 20101 39552 40168 50000 60001 333 50683;","Q01  00002PRCP06"
"08053099999","2010-08-30T06:00:00","4","42.5666666","-6.6","550.0","PONFERRADA, SP","FM-12","99999","V020","999,9,C,0000,1","22000,1,9,N","012000,1,N,1","+0126,1","+0087,1","10204,1","12,0000,9,1","24,0000,9,1",,,,"00,1,+99999,9,99,9","00,99,1,00,1,00,1,99999,9,00,1,00,1","0756,9","01,9","999,+0100,9","999,N,+0126,1","99999,9,09561,1","5,1,000,1,+999,9","00,1","SYN100AAXX  30064 08053 11962 00000 10126 20087 39561 40204 55000 60002 700// 333 20126 30010 55126 70000;","Q01  00002PRCP24Q02  00002PRCP12"
"08053099999","2010-08-30T09:00:00","4","42.5666666","-6.6","550.0","PONFERRADA, SP","FM-12","99999","V020","330,1,N,0010,1","22000,1,9,N","022000,1,N,1","+0186,1","+0074,1","10193,1",,,,,,"00,1,+99999,9,99,9","00,99,1,00,1,00,1,99999,9,00,1,00,1",,,,,"99999,9,09563,1","0,1,002,1,+999,9",,"SYN060AAXX  30094 08053 42972 03302 10186 20074 39563 40193 50002;",
"08053099999","2010-08-30T12:00:00","4","42.5666666","-6.6","550.0","PONFERRADA, SP","FM-12","99999","V020","280,1,N,0010,1","22000,1,9,N","028000,1,N,1","+0264,1","+0097,1","10160,1","06,0000,9,1",,,,,"00,1,+99999,9,99,9","00,99,1,00,1,00,1,99999,9,00,1,00,1",,,,,"99999,9,09549,1","8,1,014,1,+999,9",,"SYN076AAXX  30124 08053 12978 02802 10264 20097 39549 40160 58014 60001 333 50713;","Q01  00002PRCP06"
"08053099999","2010-08-31T06:00:00","4","42.5666666","-6.6","550.0","PONFERRADA, SP","FM-12","99999","V020","999,9,C,0000,1","22000,1,9,N","012000,1,N,1","+0154,1","+0102,1","10149,1","12,0000,9,1","24,0000,9,1",,,,,"03,99,1,01,1,06,1,00250,1,04,1,00,1","0732,9","01,9","999,+0130,9","999,N,+0152,1","99999,9,09516,1","4,1,000,1,+999,9","02,1","SYN106AAXX  31064 08053 11362 30000 10154 20102 39516 40149 54000 60002 702// 81640 333 20152 30013 55122 70000;","Q01  00002PRCP24Q02  00002PRCP12"
"08053099999","2010-08-31T09:00:00","4","42.5666666","-6.6","550.0","PONFERRADA, SP","FM-12","99999","V020","240,1,N,0010,1","09000,1,9,N","015000,1,N,1","+0198,1","+0113,1","10140,1",,,,,,,"05,99,1,02,1,06,1,00250,1,04,1,01,1",,,,,"99999,9,09517,1","3,1,001,1,+999,9",,"SYN066AAXX  31094 08053 42365 52402 10198 20113 39517 40140 53001 82641;",
"08053099999","2010-08-31T12:00:00","4","42.5666666","-6.6","550.0","PONFERRADA, SP","FM-12","99999","V020","230,1,N,0015,1","00750,1,9,N","018000,1,N,1","+0252,1","+0117,1","10109,1","06,0000,9,1",,,,,,"08,99,1,08,1,06,1,00800,1,99,9,99,9",,,,,"99999,9,09499,1","7,1,018,1,+999,9",,"SYN082AAXX  31124 08053 12568 82303 10252 20117 39499 40109 57018 60001 886// 333 50573;","Q01  00002PRCP06"
"08053099999","2010-09-01T06:00:00","4","42.5666666","-6.6","550.0","PONFERRADA, SP","FM-12","99999","V020","320,1,N,0005,1","03600,1,9,N","008000,1,N,1","+0160,1","+0147,1","10096,1","12,0109,9,2","24,0107,9,2",,,,,"08,99,1,04,1,07,1,00250,1,07,1,99,9","0408,9","11,9","999,+0140,9","999,N,+0160,1","99999,9,09469,1","1,1,003,1,+999,9","10,1","SYN106AAXX  01064 08053 11358 83201 10160 20147 39469 40096 51003 60112 710/9 8477/ 333 20160 32014 55068 70106;",
"08053099999","2010-09-01T09:00:00","4","42.5666666","-6.6","550.0","PONFERRADA, SP","FM-12","99999","V020","110,1,N,0005,1","03600,1,9,N","008000,1,N,1","+0196,1","+0150,1","10095,1",,,,"2,1,03,1","2,1,03,1",,"06,99,1,03,1,07,1,00250,1,04,1,00,1",,,,,"99999,9,09475,1","1,1,006,1,+999,9","05,1","SYN072AAXX  01094 08053 41358 61101 10196 20150 39475 40095 51006 70522 83740;",
"08053099999","2010-09-01T12:00:00","4","42.5666666","-6.6","550.0","PONFERRADA, SP","FM-12","99999","V020","240,1,N,0021,1","03600,1,9,N","012000,1,N,1","+0236,1","+0151,1","10085,1","06,0000,9,1",,,,,,"07,99,1,03,1,07,1,00250,1,07,1,99,9",,,,,"99999,9,09474,1","7,1,001,1,+999,9",,"SYN082AAXX  01124 08053 12362 72404 10236 20151 39474 40085 57001 60001 8377/ 333 50623;","Q01  00002PRCP06"
"08053099999","2010-09-02T06:00:00","4","42.5666666","-6.6","550.0","PONFERRADA, SP","FM-12","99999","V020","120,1,N,0005,1","00120,1,9,N","002000,1,N,1","+0148,1","+0145,1","10144,1","12,0000,9,1","24,0030,9,1",,,,,"08,99,1,08,1,07,1,00150,1,99,9,99,9","0180,9","09,9","999,+0120,9","999,N,+0146,1","99999,9,09511,1","3,1,007,1,+999,9","10,1","SYN106AAXX  02064 08053 11220 81201 10148 20145 39511 40144 53007 60002 710// 887// 333 20146 31012 55030 70030;","Q01  00002PRCP12"
"08053099999","2010-09-02T09:00:00","4","42.5666666","-6.6","550.0","PONFERRADA, SP","FM-12","99999","V020","290,1,N,0015,1","00210,1,9,N","003000,1,N,1","+0160,1","+0150,1","10157,1",,,,"2,1,03,1","2,1,03,1",,"08,99,1,08,1,07,1,00250,1,99,9,99,9",,,,,"99999,9,09526,1","1,1,015,1,+999,9","10,1","SYN072AAXX  02094 08053 41330 82903 10160 20150 39526 40157 51015 71022 887//;",
"08053099999","2010-09-02T12:00:00","4","42.5666666","-6.6","550.0","PONFERRADA, SP","FM-12","99999","V020","270,1,N,0021,1","22000,1,9,N","012000,1,N,1","+0210,1","+0168,1","10141,1","06,0000,9,1",,,,,"00,1,+99999,9,99,9","00,99,1,00,1,00,1,99999,9,00,1,00,1",,,,,"99999,9,09522,1","8,1,004,1,+999,9",,"SYN076AAXX  02124 08053 12962 02704 10210 20168 39522 40141 58004 60001 333 50043;","Q01  00002PRCP06"
"08053099999","2010-09-03T06:00:00","4","42.5666666","-6.6","550.0","PONFERRADA, SP","FM-12","99999","V020","999,9,C,0000,1","22000,1,9,N","012000,1,N,1","+0118,1","+0110,1","10193,1","12,0000,9,1","24,0000,9,1",,,,"00,1,+99999,9,99,9","00,99,1,00,1,00,1,99999,9,00,1,00,1","0432,9","01,9","999,+0090,9","999,N,+0118,1","99999,9,09550,1","2,1,002,1,+999,9","00,1","SYN100AAXX  03064 08053 11962 00000 10118 20110 39550 40193 52002 60002 700// 333 20118 30009 55072 70000;","Q01  00002PRCP24Q02  00002PRCP12"
"08053099999","2010-09-03T09:00:00","4","42.5666666","-6.6","550.0","PONFERRADA, SP","FM-12","99999","V020","300,1,N,0010,1","22000,1,9,N","015000,1,N,1","+0174,1","+0121,1","10187,1",,,,,,"00,1,+99999,9,99,9","00,99,1,00,1,00,1,99999,9,00,1,00,1",,,,,"99999,9,09556,1","1,1,006,1,+999,9",,"SYN060AAXX  03094 08053 42965 03002 10174 20121 39556 40187 51006;",
"08053099999","2010-09-03T12:00:00","4","42.5666666","-6.6","550.0","PONFERRADA, SP","FM-12","99999","V020","270,1,N,0021,1","22000,1,9,N","018000,1,N,1","+0248,1","+0130,1","10161,1","06,0000,9,1",,,,,,"01,99,1,00,1,00,1,99999,9,00,1,01,1",,,,,"99999,9,09547,1","8,1,009,1,+999,9",,"SYN082AAXX  03124 08053 12968 12704 10248 20130 39547 40161 58009 60001 80001 333 50423;","Q01  00002PRCP06"
"08053099999","2010-09-06T06:00:00","4","42.5666666","-6.6","550.0","PONFERRADA, SP","FM-12","99999","V020","999,9,C,0000,1","03600,1,9,N","010000,1,N,1","+0154,1","+0148,1","10125,1","12,0000,9,1","24,0000,9,1",,,,,"07,99,1,03,1,07,1,00250,1,07,1,99,9","0702,9","01,9","999,+0130,9","999,N,+0154,1","99999,9,09495,1","8,1,004,1,+999,9","02,1","SYN106AAXX  06064 08053 11360 70000 10154 20148 39495 40125 58004 60002 702// 8377/ 333 20154 30013 55117 70000;","Q01  00002PRCP24Q02  00002PRCP12"
"08053099999","2010-09-06T09:00:00","4","42.5666666","-6.6","550.0","PONFERRADA, SP","FM-12","99999","V020","999,9,C,0000,1","03600,1,9,N","012000,1,N,1","+0190,1","+0153,1","10115,1",,,,,,,"06,99,1,04,1,06,1,00250,1,04,1,01,1",,,,,"99999,9,09493,1","8,1,002,1,+999,9",,"SYN066AAXX  06094 08053 42362 60000 10190 20153 39493 40115 58002 84641;",
"08053099999","2010-09-06T12:00:00","4","42.5666666","-6.6","550.0","PONFERRADA, SP","FM-12","99999","V020","280,1,N,0031,1","03600,1,9,N","020000,1,N,1","+0244,1","+0114,1","10092,1","06,0000,9,1",,,,,,"06,99,1,03,1,05,1,00250,1,04,1,01,1",,,,,"99999,9,09481,1","8,1,012,1,+999,9",,"SYN082AAXX  06124 08053 12370 62806 10244 20114 39481 40092 58012 60001 83541 333 50613;","Q01  00002PRCP06"
"08053099999","2010-09-07T06:00:00","4","42.5666666","-6.6","550.0","PONFERRADA, SP","FM-12","99999","V020","999,9,C,0000,1","03600,1,9,N","012000,1,N,1","+0138,1","+0108,1","10072,1","12,0020,9,1","24,0053,9,1",,,,,"06,99,1,03,1,05,1,00250,1,04,1,00,1","0270,9","09,9","999,+0110,9","999,N,+0136,1","99999,9,09441,1","8,1,007,1,+999,9","02,1","SYN106AAXX  07064 08053 11362 60000 10138 20108 39441 40072 58007 60022 702// 83540 333 20136 31011 55045 70053;",
"08053099999","2010-09-07T12:00:00","4","42.5666666","-6.6","550.0","PONFERRADA, SP","FM-12","99999","V020","999,9,C,0000,1","03600,1,9,N","008000,1,N,1","+0144,1","+0130,1","10043,1","06,0030,9,1",,,"6,1,06,1","2,1,06,1",,"07,99,1,04,1,07,1,00250,1,07,1,99,9",,,,,"99999,9,09415,1","7,1,012,1,+999,9","21,1","SYN088AAXX  07124 08053 11358 70000 10144 20130 39415 40043 57012 60031 72162 8477/ 333 50393;",
"08053099999","2010-09-08T06:00:00","4","42.5666666","-6.6","550.0","PONFERRADA, SP","FM-12","99999","V020","999,9,C,0000,1","03600,1,9,N","008000,1,N,1","+0122,1","+0103,1","10145,1","12,0041,9,1","24,0043,9,1",,,,,"05,99,1,03,1,05,1,00250,1,04,1,00,1","0336,9","09,9","999,+0100,9","999,N,+0120,1","99999,9,09505,1","2,1,011,1,+999,9","10,1","SYN106AAXX  08064 08053 11358 50000 10122 20103 39505 40145 52011 60042 710// 83540 333 20120 31010 55056 70044;",
"08053099999","2010-09-08T09:00:00","4","42.5666666","-6.6","550.0","PONFERRADA, SP","FM-12","99999","V020","340,1,N,0010,1","03600,1,9,N","012000,1,N,1","+0142,1","+0114,1","10158,1",,,,,,,"06,99,1,03,1,05,1,00250,1,04,1,00,1",,,,,"99999,9,09522,1","2,1,017,1,+999,9",,"SYN066AAXX  08094 08053 42362 63402 10142 20114 39522 40158 52017 83540;",
"08053099999","2010-09-08T12:00:00","4","42.5666666","-6.6","550.0","PONFERRADA, SP","FM-12","99999","V020","280,1,N,0031,1","03600,1,9,N","018000,1,N,1","+0180,1","+0109,1","10154,1","06,0000,9,1",,,,,,"06,99,1,03,1,04,1,00250,1,06,1,00,1",,,,,"99999,9,09526,1","0,1,004,1,+999,9",,"SYN082AAXX  08124 08053 12368 62806 10180 20109 39526 40154 50004 60001 83460 333 50213;","Q01  00002PRCP06"
"08053099999","2010-09-09T06:00:00","4","42.5666666","-6.6","550.0","PONFERRADA, SP","FM-12","99999","V020","150,1,N,0015,1","22000,1,9,N","012000,1,N,1","+0110,1","+0102,1","10234,1","12,0000,9,1","24,0000,9,1",,,,"00,1,+99999,9,99,9","00,99,1,00,1,00,1,99999,9,00,1,00,1","0138,9","01,9","999,+0090,9","999,N,+0110,1","99999,9,09586,1","2,1,011,1,+999,9","00,1","SYN100AAXX  09064 08053 11962 01503 10110 20102 39586 40234 52011 60002 700// 333 20110 30009 55023 70000;","Q01  00002PRCP24Q02  00002PRCP12"
"08053099999","2010-09-09T09:00:00","4","42.5666666","-6.6","550.0","PONFERRADA, SP","FM-12","99999","V020","999,9,C,0000,1","22000,1,9,N","018000,1,N,1","+0158,1","+0122,1","10233,1",,,,,,,"01,99,1,01,1,02,1,00450,1,00,1,00,1",,,,,"99999,9,09596,1","2,1,010,1,+999,9",,"SYN066AAXX  09094 08053 42468 10000 10158 20122 39596 40233 52010 81200;",
"08053099999","2010-09-09T12:00:00","4","42.5666666","-6.6","550.0","PONFERRADA, SP","FM-12","99999","V020","250,1,N,0015,1","22000,1,9,N","022000,1,N,1","+0210,1","+0099,1","10225,1","06,0000,9,1",,,,,,"01,99,1,01,1,01,1,00800,1,00,1,00,1",,,,,"99999,9,09599,1","0,1,003,1,+999,9",,"SYN082AAXX  09124 08053 12572 12503 10210 20099 39599 40225 50003 60001 81100 333 50243;","Q01  00002PRCP06"
"08053099999","2010-09-10T06:00:00","4","42.5666666","-6.6","550.0","PONFERRADA, SP","FM-12","99999","V020","999,9,C,0000,1","22000,1,9,N","012000,1,N,1","+0112,1","+0096,1","10253,1","12,0000,9,1","24,0000,9,1",,,,,"01,99,1,00,1,00,1,99999,9,00,1,01,1","0726,9","01,9","999,+0090,9","999,N,+0108,1","99999,9,09604,1","5,1,001,1,+999,9","02,1","SYN106AAXX  10064 08053 11562 10000 10112 20096 39604 40253 55001 60002 702// 80001 333 20108 30009 55121 70000;","Q01+008002SCOLCBQ02  00002PRCP24Q03  00002PRCP12"
"08053099999","2010-09-10T09:00:00","4","42.5666666","-6.6","550.0","PONFERRADA, SP","FM-12","99999","V020","210,1,N,0010,1","22000,1,9,N","018000,1,N,1","+0150,1","+0114,1","10245,1",,,,,,,"01,99,1,00,1,00,1,99999,9,00,1,01,1",,,,,"99999,9,09605,1","0,1,001,1,+999,9",,"SYN066AAXX  10094 08053 42868 12102 10150 20114 39605 40245 50001 80001;","Q01+022502SCOLCB"
"08053099999","2010-09-10T12:00:00","4","42.5666666","-6.6","550.0","PONFERRADA, SP","FM-12","99999","V020","240,1,N,0021,1","22000,1,9,N","020000,1,N,1","+0226,1","+0128,1","10207,1","06,0000,9,1",,,,,,"02,99,1,01,1,00,1,01250,1,04,1,01,1",,,,,"99999,9,09586,1","8,1,019,1,+999,9",,"SYN082AAXX  10124 08053 12670 22404 10226 20128 39586 40207 58019 60001 81041 333 50443;","Q01  00002PRCP06"
"08053099999","2010-09-13T06:00:00","4","42.5666666","-6.6","550.0","PONFERRADA, SP","FM-12","99999","V020","120,1,N,0010,1","22000,1,9,N","012000,1,N,1","+0122,1","+0114,1","10263,1","12,0000,9,1","24,0000,9,1",,,,"00,1,+99999,9,99,9","00,99,1,00,1,00,1,99999,9,00,1,00,1","0684,9","01,9","999,+0100,9","999,N,+0122,1","99999,9,09616,1","3,1,003,1,+999,9","00,1","SYN100AAXX  13064 08053 11962 01202 10122 20114 39616 40263 53003 60002 700// 333 20122 30010 55114 70000;","Q01  00002PRCP24Q02  00002PRCP12"
"08053099999","2010-09-13T09:00:00","4","42.5666666","-6.6","550.0","PONFERRADA, SP","FM-12","99999","V020","220,1,N,0005,1","22000,1,9,N","022000,1,N,1","+0180,1","+0127,1","10258,1",,,,,,"00,1,+99999,9,99,9","00,99,1,00,1,00,1,99999,9,00,1,00,1",,,,,"99999,9,09624,1","1,1,008,1,+999,9",,"SYN060AAXX  13094 08053 42972 02201 10180 20127 39624 40258 51008;",
"08053099999","2010-09-13T12:00:00","4","42.5666666","-6.6","550.0","PONFERRADA, SP","FM-12","99999","V020","300,1,N,0015,1","22000,1,9,N","028000,1,N,1","+0252,1","+0117,1","10231,1","06,0000,9,1",,,,,,"01,99,1,00,1,00,1,99999,9,00,1,01,1",,,,,"99999,9,09613,1","8,1,011,1,+999,9",,"SYN082AAXX  13124 08053 12878 13003 10252 20117 39613 40231 58011 60001 80001 333 50583;","Q01+022502SCOLCBQ02  00002PRCP06"
"08053099999","2010-09-14T06:00:00","4","42.5666666","-6.6","550.0","PONFERRADA, SP","FM-12","99999","V020","999,9,C,0000,1","22000,1,9,N","025000,1,N,1","+0124,1","+0085,1","10279,1","12,0000,9,1","24,0000,9,1",,,,"00,1,+99999,9,99,9","00,99,1,00,1,00,1,99999,9,00,1,00,1","0720,9","01,9","999,+0100,9","999,N,+0124,1","99999,9,09631,1","3,1,005,1,+999,9","00,1","SYN100AAXX  14064 08053 11975 00000 10124 20085 39631 40279 53005 60002 700// 333 20124 30010 55120 70000;","Q01  00002PRCP24Q02  00002PRCP12"
"08053099999","2010-09-14T09:00:00","4","42.5666666","-6.6","550.0","PONFERRADA, SP","FM-12","99999","V020","999,9,C,0000,1","22000,1,9,N","030000,1,N,1","+0182,1","+0087,1","10269,1",,,,,,"00,1,+99999,9,99,9","00,99,1,00,1,00,1,99999,9,00,1,00,1",,,,,"99999,9,09634,1","1,1,003,1,+999,9",,"SYN060AAXX  14094 08053 42980 00000 10182 20087 39634 40269 51003;",
"08053099999","2010-09-14T12:00:00","4","42.5666666","-6.6","550.0","PONFERRADA, SP","FM-12","99999","V020","280,1,N,0010,1","22000,1,9,N","030000,1,N,1","+0264,1","+0101,1","10226,1","06,0000,9,1",,,,,"00,1,+99999,9,99,9","00,99,1,00,1,00,1,99999,9,00,1,00,1",,,,,"99999,9,09611,1","8,1,023,1,+999,9",,"SYN076AAXX  14124 08053 12980 02802 10264 20101 39611 40226 58023 60001 333 50723;","Q01  00002PRCP06"
"08053099999","2010-09-15T06:00:00","4","42.5666666","-6.6","550.0","PONFERRADA, SP","FM-12","99999","V020","999,9,C,0000,1","03600,1,9,N","018000,1,N,1","+0170,1","+0131,1","10210,1","12,0000,9,1","24,0000,9,1",,,,,"06,99,1,02,1,05,1,00450,1,04,1,02,1","0702,9","01,9","999,+0140,9","999,N,+0168,1","99999,9,09577,1","5,1,006,1,+999,9","02,1","SYN106AAXX  15064 08053 11468 60000 10170 20131 39577 40210 55006 60002 702// 82542 333 20168 30014 55117 70000;","Q01  00002PRCP24Q02  00002PRCP12"
"08053099999","2010-09-15T09:00:00","4","42.5666666","-6.6","550.0","PONFERRADA, SP","FM-12","99999","V020","280,1,N,0015,1","22000,1,9,N","020000,1,N,1","+0198,1","+0133,1","10201,1",,,,,,,"04,99,1,01,1,01,1,00800,1,04,1,01,1",,,,,"99999,9,09575,1","6,1,002,1,+999,9",,"SYN066AAXX  15094 08053 42570 42803 10198 20133 39575 40201 56002 81141;",
"08053099999","2010-09-15T12:00:00","4","42.5666666","-6.6","550.0","PONFERRADA, SP","FM-12","99999","V020","260,1,N,0015,1","09000,1,9,N","025000,1,N,1","+0260,1","+0157,1","10173,1","06,0000,9,1",,,,,,"07,99,1,03,1,00,1,01750,1,04,1,02,1",,,,,"99999,9,09561,1","8,1,014,1,+999,9",,"SYN082AAXX  15124 08053 12775 72603 10260 20157 39561 40173 58014 60001 83042 333 50523;","Q01  00002PRCP06"
"08053099999","2010-09-16T06:00:00","4","42.5666666","-6.6","550.0","PONFERRADA, SP","FM-12","99999","V020","999,9,C,0000,1","00420,1,9,N","012000,1,N,1","+0174,1","+0154,1","10144,1","12,0000,9,1","24,0000,9,1",,,,,"08,99,1,06,1,07,1,00450,1,07,1,99,9","0294,9","01,9","999,+0150,9","999,N,+0174,1","99999,9,09517,1","5,1,005,1,+999,9","02,1","SYN106AAXX  16064 08053 11462 80000 10174 20154 39517 40144 55005 69902 702// 8677/ 333 20174 30015 55049 79999;","Q01  00002PRCP24Q02  00002PRCP12"
"08053099999","2010-09-16T09:00:00","4","42.5666666","-6.6","550.0","PONFERRADA, SP","FM-12","99999","V020","240,1,N,0010,1","03600,1,9,N","015000,1,N,1","+0198,1","+0159,1","10143,1",,,,,,,"06,99,1,03,1,07,1,00450,1,04,1,01,1",,,,,"99999,9,09521,1","0,1,004,1,+999,9",,"SYN066AAXX  16094 08053 42465 62402 10198 20159 39521 40143 50004 83741;",
"08053099999","2010-09-16T12:00:00","4","42.5666666","-6.6","550.0","PONFERRADA, SP","FM-12","99999","V020","240,1,N,0021,1","03600,1,9,N","015000,1,N,1","+0240,1","+0160,1","10118,1","06,0000,9,1",,,,,,"07,99,1,04,1,02,1,00450,1,04,1,01,1",,,,,"99999,9,09506,1","8,1,015,1,+999,9",,"SYN082AAXX  16124 08053 12465 72404 10240 20160 39506 40118 58015 60001 84241 333 50383;","Q01  00002PRCP06"
"08053099999","2010-09-17T06:00:00","4","42.5666666","-6.6","550.0","PONFERRADA, SP","FM-12","99999","V020","270,1,N,0010,1","00120,1,9,N","006000,1,N,1","+0160,1","+0157,1","10120,1","12,0000,9,1","24,0028,9,1",,,,,"08,99,1,08,1,07,1,00150,1,99,9,99,9","0090,9","09,9","999,+0130,9","999,N,+0158,1","99999,9,09491,1","5,1,003,1,+999,9","10,1","SYN106AAXX  17064 08053 11256 82702 10160 20157 39491 40120 55003 60002 710// 887// 333 20158 31013 55015 70028;","Q01  00002PRCP12"
"08053099999","2010-09-17T09:00:00","4","42.5666666","-6.6","550.0","PONFERRADA, SP","FM-12","99999","V020","999,9,C,0000,1","00210,1,9,N","005000,1,N,1","+0166,1","+0153,1","10130,1",,,,"6,1,03,1","2,1,03,1",,"08,99,1,08,1,07,1,00250,1,99,9,99,9",,,,,"99999,9,09502,1","1,1,011,1,+999,9","21,1","SYN072AAXX  17094 08053 41350 80000 10166 20153 39502 40130 51011 72162 887//;",
"08053099999","2010-09-17T12:00:00","4","42.5666666","-6.6","550.0","PONFERRADA, SP","FM-12","99999","V020","250,1,N,0015,1","00210,1,9,N","018000,1,N,1","+0190,1","+0160,1","10119,1","06,0005,9,1",,,"6,1,06,1","2,1,06,1",,"08,99,1,06,1,07,1,00250,1,02,1,99,9",,,,,"99999,9,09497,1","8,1,005,1,+999,9","02,1","SYN088AAXX  17124 08053 11368 82503 10190 20160 39497 40119 58005 69951 70262 8672/ 333 50203;",
"08053099999","2010-09-20T06:00:00","4","42.5666666","-6.6","550.0","PONFERRADA, SP","FM-12","99999","V020","999,9,C,0000,1","22000,1,9,N","012000,1,N,1","+0098,1","+0090,1","10170,1","12,0000,9,1","24,0000,9,1",,,,,"03,99,1,01,1,05,1,00250,1,04,1,00,1","0702,9","01,9","999,+0080,9","999,N,+0098,1","99999,9,09523,1","3,1,004,1,+999,9","02,1","SYN106AAXX  20064 08053 11362 30000 10098 20090 39523 40170 53004 60002 702// 81540 333 20098 30008 55117 70000;","Q01  00002PRCP24Q02  00002PRCP12"
"08053099999","2010-09-20T09:00:00","4","42.5666666","-6.6","550.0","PONFERRADA, SP","FM-12","99999","V020","290,1,N,0015,1","22000,1,9,N","020000,1,N,1","+0150,1","+0110,1","10157,1",,,,,,,"04,99,1,01,1,01,1,00450,1,06,1,00,1",,,,,"99999,9,09523,1","0,1,000,1,+999,9",,"SYN066AAXX  20094 08053 42470 42903 10150 20110 39523 40157 50000 81160;",
"08053099999","2010-09-20T12:00:00","4","42.5666666","-6.6","550.0","PONFERRADA, SP","FM-12","99999","V020","280,1,N,0015,1","22000,1,9,N","025000,1,N,1","+0226,1","+0139,1","10122,1","06,0000,9,1",,,,,,"04,99,1,02,1,02,1,00450,1,06,1,00,1",,,,,"99999,9,09506,1","8,1,017,1,+999,9",,"SYN082AAXX  20124 08053 12475 42803 10226 20139 39506 40122 58017 60001 82260 333 50403;","Q01  00002PRCP06"
"08053099999","2010-09-21T06:00:00","4","42.5666666","-6.6","550.0","PONFERRADA, SP","FM-12","99999","V020","999,9,C,0000,1","22000,1,9,N","012000,1,N,1","+0126,1","+0118,1","10172,1","12,0000,9,1","24,0000,9,1",,,,"00,1,+99999,9,99,9","00,99,1,00,1,00,1,99999,9,00,1,00,1","0504,9","01,9","999,+0100,9","999,N,+0126,1","99999,9,09532,1","3,1,009,1,+999,9","00,1","SYN100AAXX  21064 08053 11962 00000 10126 20118 39532 40172 53009 60002 700// 333 20126 30010 55084 70000;","Q01  00002PRCP24Q02  00002PRCP12"
"08053099999","2010-09-21T09:00:00","4","42.5666666","-6.6","550.0","PONFERRADA, SP","FM-12","99999","V020","999,9,C,0000,1","22000,1,9,N","015000,1,N,1","+0160,1","+0133,1","10178,1",,,,,,,"01,99,1,01,1,00,1,01250,1,04,1,00,1",,,,,"99999,9,09545,1","1,1,013,1,+999,9",,"SYN066AAXX  21094 08053 42665 10000 10160 20133 39545 40178 51013 81040;",
"08053099999","2010-09-21T12:00:00","4","42.5666666","-6.6","550.0","PONFERRADA, SP","FM-12","99999","V020","260,1,N,0021,1","22000,1,9,N","020000,1,N,1","+0232,1","+0163,1","10156,1","06,0000,9,1",,,,,,"02,99,1,01,1,01,1,00800,1,06,1,00,1",,,,,"99999,9,09540,1","8,1,005,1,+999,9",,"SYN082AAXX  21124 08053 12570 22604 10232 20163 39540 40156 58005 60001 81160 333 50373;","Q01  00002PRCP06"
"08053099999","2010-09-22T06:00:00","4","42.5666666","-6.6","550.0","PONFERRADA, SP","FM-12","99999","V020","999,9,C,0000,1","22000,1,9,N","008000,1,N,1","+0120,1","+0112,1","10192,1","12,0000,9,1","24,0000,9,1",,,,,"04,99,1,01,1,05,1,00250,1,04,1,01,1","0522,9","01,9","999,+0100,9","999,N,+0120,1","99999,9,09549,1","5,1,000,1,+999,9","10,1","SYN106AAXX  22064 08053 11358 40000 10120 20112 39549 40192 55000 60002 710// 81541 333 20120 30010 55087 70000;","Q01  00002PRCP24Q02  00002PRCP12"
"08053099999","2010-09-22T09:00:00","4","42.5666666","-6.6","550.0","PONFERRADA, SP","FM-12","99999","V020","999,9,C,0000,1","99999,9,9,N","010000,1,N,1","+0158,1","+0129,1","10185,1",,,,,,,"08,99,1,08,1,00,1,00800,1,01,1,99,9",,,,,"99999,9,09551,1","0,1,002,1,+999,9",,"SYN066AAXX  22094 08053 42560 80000 10158 20129 39551 40185 50002 8801/;",
"08053099999","2010-09-22T12:00:00","4","42.5666666","-6.6","550.0","PONFERRADA, SP","FM-12","99999","V020","270,1,N,0015,1","03600,1,9,N","012000,1,N,1","+0206,1","+0131,1","10169,1","06,0000,9,1",,,,,,"08,99,1,03,1,04,1,00450,1,01,1,99,9",,,,,"99999,9,09546,1","8,1,005,1,+999,9",,"SYN082AAXX  22124 08053 12462 82703 10206 20131 39546 40169 58005 60001 8341/ 333 50213;","Q01  00002PRCP06"
"08053099999","2010-09-23T06:00:00","4","42.5666666","-6.6","550.0","PONFERRADA, SP","FM-12","99999","V020","999,9,C,0000,1","00420,1,9,N","010000,1,N,1","+0128,1","+0114,1","10169,1","12,0000,9,1","24,0000,9,1",,,,,"08,99,1,08,1,07,1,00450,1,99,9,99,9","0348,9","01,9","999,+0100,9","999,N,+0126,1","99999,9,09529,1","6,1,005,1,+999,9","02,1","SYN106AAXX  23064 08053 11460 80000 10128 20114 39529 40169 56005 60002 702// 887// 333 20126 30010 55058 70000;","Q01  00002PRCP24Q02  00002PRCP12"
"08053099999","2010-09-23T09:00:00","4","42.5666666","-6.6","550.0","PONFERRADA, SP","FM-12","99999","V020","999,9,C,0000,1","00420,1,9,N","008000,1,N,1","+0148,1","+0119,1","10173,1",,,,"2,1,03,1","2,1,03,1",,"08,99,1,06,1,07,1,00450,1,02,1,99,9",,,,,"99999,9,09538,1","3,1,009,1,+999,9","10,1","SYN072AAXX  23094 08053 41458 80000 10148 20119 39538 40173 53009 71022 8672/;",
"08053099999","2010-09-23T12:00:00","4","42.5666666","-6.6","550.0","PONFERRADA, SP","FM-12","99999","V020","999,9,C,0000,1","03600,1,9,N","012000,1,N,1","+0194,1","+0146,1","10153,1","06,0000,9,1",,,,,,"07,99,1,03,1,04,1,00450,1,04,1,01,1",,,,,"99999,9,09529,1","8,1,009,1,+999,9",,"SYN082AAXX  23124 08053 12462 70000 10194 20146 39529 40153 58009 60001 83441 333 50493;","Q01  00002PRCP06"
"08053099999","2010-09-24T06:00:00","4","42.5666666","-6.6","550.0","PONFERRADA, SP","FM-12","99999","V020","270,1,N,0021,1","00420,1,9,N","012000,1,N,1","+0156,1","+0131,1","10152,1","12,0000,9,1","24,0000,9,1",,,,,"07,99,1,06,1,07,1,00450,1,02,1,99,9","0210,9","01,9","999,+0120,9","999,N,+0148,1","99999,9,09520,1","0,1,001,1,+999,9","02,1","SYN106AAXX  24064 08053 11462 72704 10156 20131 39520 40152 50001 60002 702// 8672/ 333 20148 30012 55035 79999;","Q01  00002PRCP24Q02  00002PRCP12"
"08053099999","2010-09-24T09:00:00","4","42.5666666","-6.6","550.0","PONFERRADA, SP","FM-12","99999","V020","270,1,N,0036,1","00420,1,9,N","015000,1,N,1","+0166,1","+0135,1","10154,1",,,,,,,"07,99,1,05,1,07,1,00450,1,02,1,99,9",,,,,"99999,9,09524,1","3,1,004,1,+999,9",,"SYN066AAXX  24094 08053 42465 72707 10166 20135 39524 40154 53004 8572/;",
"08053099999","2010-09-24T12:00:00","4","42.5666666","-6.6","550.0","PONFERRADA, SP","FM-12","99999","V020","300,1,N,0062,1","00420,1,9,N","025000,1,N,1","+0190,1","+0127,1","10152,1","06,0000,9,1",,,,,,"06,99,1,05,1,02,1,00450,1,04,1,00,1",,,,,"99999,9,09527,1","0,1,003,1,+999,9",,"SYN082AAXX  24124 08053 12475 63012 10190 20127 39527 40152 50003 60001 85240 333 50263;","Q01  00002PRCP06"
"08053099999","2010-09-25T06:00:00","4","42.5666666","-6.6","550.0","PONFERRADA, SP","FM-12","99999","V020","090,1,N,0010,1","22000,1,9,N","015000,1,N,1","+0090,1","+0073,1","10175,1","12,0000,9,1","24,0000,9,1",,,,,"04,99,1,01,1,05,1,00250,1,04,1,00,1","0348,9","01,9","999,+0070,9","999,N,+0090,1","99999,9,09526,1","6,1,004,1,+999,9","02,1","SYN106AAXX  25064 08053 11365 40902 10090 20073 39526 40175 56004 60002 702// 81540 333 20090 30007 55058 70000;","Q01  00002PRCP24Q02  00002PRCP12"
"08053099999","2010-09-25T09:00:00","4","42.5666666","-6.6","550.0","PONFERRADA, SP","FM-12","99999","V020","999,9,C,0000,1","22000,1,9,N","020000,1,N,1","+0130,1","+0087,1","10172,1",,,,,,,"01,99,1,01,1,05,1,00450,1,00,1,00,1",,,,,"99999,9,09532,1","1,1,006,1,+999,9",,"SYN066AAXX  25094 08053 42470 10000 10130 20087 39532 40172 51006 81500;",
"08053099999","2010-09-25T12:00:00","4","42.5666666","-6.6","550.0","PONFERRADA, SP","FM-12","99999","V020","330,1,N,0005,1","03600,1,9,N","022000,1,N,1","+0174,1","+0112,1","10159,1","06,0000,9,1",,,,,,"06,99,1,02,1,02,1,00250,1,06,1,00,1",,,,,"99999,9,09530,1","8,1,002,1,+999,9",,"SYN082AAXX  25124 08053 12372 63301 10174 20112 39530 40159 58002 60001 82260 333 50423;","Q01  00002PRCP06"
"08053099999","2010-09-26T06:00:00","4","42.5666666","-6.6","550.0","PONFERRADA, SP","FM-12","99999","V020","999,9,C,0000,1","22000,1,9,N","015000,1,N,1","+0056,1","+0042,1","10177,1","12,0000,9,1","24,0000,9,1",,,,,"01,99,1,01,1,05,1,00250,1,00,1,00,1","0582,9","01,9","999,+0040,9","999,N,+0056,1","99999,9,09520,1","3,1,001,1,+999,9","02,1","SYN106AAXX  26064 08053 11365 10000 10056 20042 39520 40177 53001 60002 702// 81500 333 20056 30004 55097 70000;","Q01  00002PRCP24Q02  00002PRCP12"
"08053099999","2010-09-26T09:00:00","4","42.5666666","-6.6","550.0","PONFERRADA, SP","FM-12","99999","V020","999,9,C,0000,1","22000,1,9,N","022000,1,N,1","+0096,1","+0063,1","10174,1",,,,,,"00,1,+99999,9,99,9","00,99,1,00,1,00,1,99999,9,00,1,00,1",,,,,"99999,9,09526,1","1,1,006,1,+999,9",,"SYN060AAXX  26094 08053 42972 00000 10096 20063 39526 40174 51006;",
"08053099999","2010-09-26T12:00:00","4","42.5666666","-6.6","550.0","PONFERRADA, SP","FM-12","99999","V020","300,1,N,0010,1","22000,1,9,N","025000,1,N,1","+0162,1","+0089,1","10141,1","06,0000,9,1",,,,,"00,1,+99999,9,99,9","00,99,1,00,1,00,1,99999,9,00,1,00,1",,,,,"99999,9,09510,1","8,1,016,1,+999,9",,"SYN076AAXX  26124 08053 12975 03002 10162 20089 39510 40141 58016 60001 333 50133;","Q01  00002PRCP06"
"08053099999","2010-09-27T06:00:00","4","42.5666666","-6.6","550.0","PONFERRADA, SP","FM-12","99999","V020","999,9,C,0000,1","22000,1,9,N","012000,1,N,1","+0066,1","+0057,1","10168,1","12,0000,9,1","24,0000,9,1",,,,,"03,99,1,01,1,05,1,00250,1,04,1,01,1","0678,9","01,9","999,+0050,9","999,N,+0066,1","99999,9,09514,1","3,1,007,1,+999,9","02,1","SYN106AAXX  27064 08053 11362 30000 10066 20057 39514 40168 53007 60002 702// 81541 333 20066 30005 55113 70000;","Q01  00002PRCP24Q02  00002PRCP12"
"08053099999","2010-09-27T09:00:00","4","42.5666666","-6.6","550.0","PONFERRADA, SP","FM-12","99999","V020","999,9,C,0000,1","22000,1,9,N","018000,1,N,1","+0102,1","+0073,1","10166,1",,,,,,,"04,99,1,01,1,05,1,00250,1,04,1,01,1",,,,,"99999,9,09520,1","1,1,006,1,+999,9",,"SYN066AAXX  27094 08053 42368 40000 10102 20073 39520 40166 51006 81541;",
"08053099999","2010-09-27T12:00:00","4","42.5666666","-6.6","550.0","PONFERRADA, SP","FM-12","99999","V020","320,1,N,0010,1","22000,1,9,N","025000,1,N,1","+0180,1","+0111,1","10137,1","06,0000,9,1",,,,,,"06,99,1,01,1,01,1,00800,1,00,1,06,1",,,,,"99999,9,09510,1","8,1,010,1,+999,9",,"SYN082AAXX  27124 08053 12575 63202 10180 20111 39510 40137 58010 60001 81106 333 50583;","Q01  00002PRCP06"
"08053099999","2010-09-28T06:00:00","4","42.5666666","-6.6","550.0","PONFERRADA, SP","FM-12","99999","V020","999,9,C,0000,1","22000,1,9,N","025000,1,N,1","+0068,1","+0059,1","10199,1","12,0000,9,1","24,0000,9,1",,,,"00,1,+99999,9,99,9","00,99,1,00,1,00,1,99999,9,00,1,00,1","0612,9","01,9","999,+0050,9","999,N,+0068,1","99999,9,09543,1","3,1,010,1,+999,9","00,1","SYN100AAXX  28064 08053 11975 00000 10068 20059 39543 40199 53010 60002 700// 333 20068 30005 55102 70000;","Q01  00002PRCP24Q02  00002PRCP12"
"08053099999","2010-09-28T09:00:00","4","42.5666666","-6.6","550.0","PONFERRADA, SP","FM-12","99999","V020","999,9,C,0000,1","22000,1,9,N","025000,1,N,1","+0122,1","+0083,1","10197,1",,,,,,"00,1,+99999,9,99,9","00,99,1,00,1,00,1,99999,9,00,1,00,1",,,,,"99999,9,09554,1","1,1,011,1,+999,9",,"SYN060AAXX  28094 08053 42975 00000 10122 20083 39554 40197 51011;",
"08053099999","2010-09-28T12:00:00","4","42.5666666","-6.6","550.0","PONFERRADA, SP","FM-12","99999","V020","999,9,C,0000,1","22000,1,9,N","028000,1,N,1","+0202,1","+0114,1","10170,1","06,0000,9,1",,,,,,"01,99,1,01,1,01,1,00800,1,00,1,01,1",,,,,"99999,9,09546,1","8,1,008,1,+999,9",,"SYN082AAXX  28124 08053 12578 10000 10202 20114 39546 40170 58008 60001 81101 333 50303;","Q01  00002PRCP06"
"08053099999","2010-09-29T06:00:00","4","42.5666666","-6.6","550.0","PONFERRADA, SP","FM-12","99999","V020","999,9,C,0000,1","22000,1,9,N","022000,1,N,1","+0084,1","+0076,1","10215,1","12,0000,9,1","24,0000,9,1",,,,"00,1,+99999,9,99,9","00,99,1,00,1,00,1,99999,9,00,1,00,1","0678,9","01,9","999,+0060,9","999,N,+0084,1","99999,9,09562,1","3,1,006,1,+999,9","00,1","SYN100AAXX  29064 08053 11972 00000 10084 20076 39562 40215 53006 60002 700// 333 20084 30006 55113 70000;","Q01  00002PRCP24Q02  00002PRCP12"
"08053099999","2010-09-29T09:00:00","4","42.5666666","-6.6","550.0","PONFERRADA, SP","FM-12","99999","V020","999,9,C,0000,1","22000,1,9,N","028000,1,N,1","+0130,1","+0087,1","10211,1",,,,,,"00,1,+99999,9,99,9","00,99,1,00,1,00,1,99999,9,00,1,00,1",,,,,"99999,9,09569,1","1,1,007,1,+999,9",,"SYN060AAXX  29094 08053 42978 00000 10130 20087 39569 40211 51007;",
"08053099999","2010-09-29T12:00:00","4","42.5666666","-6.6","550.0","PONFERRADA, SP","FM-12","99999","V020","999,9,C,0000,1","22000,1,9,N","028000,1,N,1","+0214,1","+0103,1","10177,1","06,0000,9,1",,,,,,"01,99,1,01,1,01,1,00800,1,00,1,01,1",,,,,"99999,9,09555,1","8,1,014,1,+999,9",,"SYN082AAXX  29124 08053 12578 10000 10214 20103 39555 40177 58014 60001 81101 333 50343;","Q01  00002PRCP06"
"08053099999","2010-09-30T06:00:00","4","42.5666666","-6.6","550.0","PONFERRADA, SP","FM-12","99999","V020","999,9,C,0000,1","00420,1,9,N","008000,1,N,1","+0132,1","+0102,1","10204,1","12,0000,9,1","24,0000,9,1",,,,,"08,99,1,06,1,07,1,00450,1,02,1,99,9","0654,9","01,9","999,+0110,9","999,N,+0132,1","99999,9,09563,1","3,1,005,1,+999,9","14,1","SYN106AAXX  30064 08053 11458 80000 10132 20102 39563 40204 53005 60002 714// 8672/ 333 20132 30011 55109 70000;","Q01  00002PRCP24Q02  00002PRCP12"
"08053099999","2010-09-30T09:00:00","4","42.5666666","-6.6","550.0","PONFERRADA, SP","FM-12","99999","V020","999,9,C,0000,1","00420,1,9,N","010000,1,N,1","+0144,1","+0106,1","10207,1",,,,,,,"07,99,1,05,1,07,1,00450,1,02,1,99,9",,,,,"99999,9,09568,1","0,1,005,1,+999,9",,"SYN066AAXX  30094 08053 42460 70000 10144 20106 39568 40207 50005 8572/;",
"08053099999","2010-09-30T12:00:00","4","42.5666666","-6.6","550.0","PONFERRADA, SP","FM-12","99999","V020","250,1,N,0021,1","09000,1,9,N","028000,1,N,1","+0184,1","+0112,1","10188,1","06,0000,9,1",,,,,,"05,99,1,02,1,02,1,00450,1,04,1,01,1",,,,,"99999,9,09559,1","8,1,009,1,+999,9",,"SYN082AAXX  30124 08053 12478 52504 10184 20112 39559 40188 58009 60001 82241 333 50433;","Q01  00002PRCP06"
"08053099999","2010-10-01T06:00:00","4","42.5666666","-6.6","550.0","PONFERRADA, SP","FM-12","99999","V020","999,9,C,0000,1","03600,1,9,N","008000,1,N,1","+0094,1","+0073,1","10175,1","12,0000,9,1","24,0000,9,1",,,,,"06,99,1,03,1,05,1,00250,1,04,1,00,1","0534,9","01,9","999,+0070,9","999,N,+0090,1","99999,9,09527,1","8,1,005,1,+999,9","10,1","SYN106AAXX  01064 08053 11358 60000 10094 20073 39527 40175 58005 60002 710// 83540 333 20090 30007 55089 70000;","Q01  00002PRCP24Q02  00002PRCP12"
"08053099999","2010-10-01T09:00:00","4","42.5666666","-6.6","550.0","PONFERRADA, SP","FM-12","99999","V020","999,9,C,0000,1","03600,1,9,N","015000,1,N,1","+0118,1","+0079,1","10173,1",,,,,,,"07,99,1,02,1,05,1,00250,1,04,1,01,1",,,,,"99999,9,09530,1","0,1,003,1,+999,9",,"SYN066AAXX  01094 08053 42365 70000 10118 20079 39530 40173 50003 82541;",
"08053099999","2010-10-01T12:00:00","4","42.5666666","-6.6","550.0","PONFERRADA, SP","FM-12","99999","V020","240,1,N,0015,1","03600,1,9,N","020000,1,N,1","+0166,1","+0091,1","10150,1","06,0000,9,1",,,,,,"07,99,1,03,1,05,1,00250,1,04,1,01,1",,,,,"99999,9,09519,1","8,1,011,1,+999,9",,"SYN082AAXX  01124 08053 12370 72403 10166 20091 39519 40150 58011 60001 83541 333 50293;","Q01  00002PRCP06"
"08053099999","2010-10-02T06:00:00","4","42.5666666","-6.6","550.0","PONFERRADA, SP","FM-12","99999","V020","999,9,C,0000,1","22000,1,9,N","010000,1,N,1","+0108,1","+0100,1","10125,1","12,0000,9,1","24,0000,9,1",,,,,"01,99,1,01,1,00,1,01750,1,04,1,00,1","0270,9","01,9","999,+0090,9","999,N,+0108,1","99999,9,09484,1","5,1,005,1,+999,9","02,1","SYN106AAXX  02064 08053 11760 10000 10108 20100 39484 40125 55005 60002 702// 81040 333 20108 30009 55045 70000;","Q01  00002PRCP24Q02  00002PRCP12"
"08053099999","2010-10-02T09:00:00","4","42.5666666","-6.6","550.0","PONFERRADA, SP","FM-12","99999","V020","999,9,C,0000,1","22000,1,9,N","015000,1,N,1","+0154,1","+0110,1","10122,1",,,,,,,"01,99,1,01,1,00,1,01750,1,04,1,00,1",,,,,"99999,9,09491,1","1,1,007,1,+999,9",,"SYN066AAXX  02094 08053 42765 10000 10154 20110 39491 40122 51007 81040;",
"08053099999","2010-10-02T12:00:00","4","42.5666666","-6.6","550.0","PONFERRADA, SP","FM-12","99999","V020","240,1,N,0010,1","22000,1,9,N","028000,1,N,1","+0202,1","+0109,1","10097,1","06,0000,9,1",,,,,,"01,99,1,01,1,01,1,00800,1,04,1,00,1",,,,,"99999,9,09477,1","8,1,014,1,+999,9",,"SYN082AAXX  02124 08053 12578 12402 10202 20109 39477 40097 58014 60001 81140 333 50253;","Q01  00002PRCP06"
"08053099999","2010-10-03T06:00:00","4","42.5666666","-6.6","550.0","PONFERRADA, SP","FM-12","99999","V020","080,1,N,0026,1","00210,1,9,N","005000,1,N,1","+0144,1","+0126,1","10009,1","12,0201,9,2","24,0196,9,2",,,,,"07,99,1,06,1,07,1,00250,1,02,1,99,9","0618,9","11,9","999,+0110,9","999,N,+0134,1","99999,9,09383,1","7,1,015,1,+999,9","63,1","SYN106AAXX  03064 08053 11350 70805 10144 20126 39383 40009 57015 60202 763/6 8672/ 333 20134 32011 55103 70196;",
"08053099999","2010-10-03T09:00:00","4","42.5666666","-6.6","550.0","PONFERRADA, SP","FM-12","99999","V020","080,1,N,0015,1","00210,1,9,N","005000,1,N,1","+0156,1","+0127,1","09993,1",,,,"6,1,03,1","2,1,03,1",,"08,99,1,06,1,07,1,00250,1,02,1,99,9",,,,,"99999,9,09371,1","7,1,012,1,+999,9","63,1","SYN072AAXX  03094 08053 41350 80803 10156 20127 39371 49993 57012 76362 8672/;",
"08053099999","2010-10-03T12:00:00","4","42.5666666","-6.6","550.0","PONFERRADA, SP","FM-12","99999","V020","360,1,N,0021,1","00210,1,9,N","004000,1,N,1","+0164,1","+0137,1","09962,1","06,0089,9,1",,,"6,1,06,1","2,1,06,1",,"08,99,1,06,1,07,1,00250,1,02,1,99,9",,,,,"99999,9,09344,1","7,1,027,1,+999,9","63,1","SYN088AAXX  03124 08053 11340 83604 10164 20137 39344 49962 57027 60091 76362 8672/ 333 50453;",
"08053099999","2010-10-04T06:00:00","4","42.5666666","-6.6","550.0","PONFERRADA, SP","FM-12","99999","V020","270,1,N,0041,1","00210,1,9,N","010000,1,N,1","+0116,1","+0100,1","10081,1","12,0071,9,1","24,0277,9,1",,,,,"06,99,1,06,1,07,1,00250,1,00,1,00,1","0018,9","11,9","999,+0090,9","999,N,+0114,1","99999,9,09444,1","2,1,030,1,+999,9","02,1","SYN106AAXX  04064 08053 11360 62708 10116 20100 39444 40081 52030 60072 702/6 86700 333 20114 32009 55003 70278;",
"08053099999","2010-10-04T09:00:00","4","42.5666666","-6.6","550.0","PONFERRADA, SP","FM-12","99999","V020","270,1,N,0041,1","22000,1,9,N","015000,1,N,1","+0132,1","+0091,1","10110,1",,,,,,,"03,99,1,02,1,07,1,00250,1,04,1,00,1",,,,,"99999,9,09475,1","2,1,031,1,+999,9",,"SYN066AAXX  04094 08053 42365 32708 10132 20091 39475 40110 52031 82740;",
"08053099999","2010-10-04T12:00:00","4","42.5666666","-6.6","550.0","PONFERRADA, SP","FM-12","99999","V020","260,1,N,0036,1","00420,1,9,N","025000,1,N,1","+0160,1","+0097,1","10114,1","06,0000,9,1",,,,,,"05,99,1,05,1,07,1,00450,1,00,1,00,1",,,,,"99999,9,09484,1","1,1,009,1,+999,9",,"SYN082AAXX  04124 08053 12475 52607 10160 20097 39484 40114 51009 60001 85700 333 50133;","Q01  00002PRCP06"
"08053099999","2010-10-05T06:00:00","4","42.5666666","-6.6","550.0","PONFERRADA, SP","FM-12","99999","V020","999,9,C,0000,1","03600,1,9,N","010000,1,N,1","+0090,1","+0085,1","10141,1","12,0000,9,1","24,0000,9,1",,,,,"06,99,1,03,1,05,1,00250,1,04,1,00,1","0456,9","01,9","999,+0060,9","999,N,+0088,1","99999,9,09494,1","6,1,005,1,+999,9","02,1","SYN106AAXX  05064 08053 11360 60000 10090 20085 39494 40141 56005 60002 702// 83540 333 20088 30006 55076 70000;","Q01  00002PRCP24Q02  00002PRCP12"
"08053099999","2010-10-05T09:00:00","4","42.5666666","-6.6","550.0","PONFERRADA, SP","FM-12","99999","V020","999,9,C,0000,1","03600,1,9,N","015000,1,N,1","+0120,1","+0097,1","10131,1",,,,,,,"06,99,1,03,1,05,1,00250,1,04,1,01,1",,,,,"99999,9,09492,1","8,1,002,1,+999,9",,"SYN066AAXX  05094 08053 42365 60000 10120 20097 39492 40131 58002 83541;",
"08053099999","2010-10-05T12:00:00","4","42.5666666","-6.6","550.0","PONFERRADA, SP","FM-12","99999","V020","999,9,C,0000,1","03600,1,9,N","020000,1,N,1","+0172,1","+0115,1","10103,1","06,0000,9,1",,,,,,"06,99,1,03,1,05,1,00250,1,04,1,01,1",,,,,"99999,9,09477,1","8,1,015,1,+999,9",,"SYN082AAXX  05124 08053 12370 60000 10172 20115 39477 40103 58015 60001 83541 333 50483;","Q01  00002PRCP06"
"08053099999","2010-10-06T06:00:00","4","42.5666666","-6.6","550.0","PONFERRADA, SP","FM-12","99999","V020","999,9,C,0000,1","00210,1,9,N","005000,1,N,1","+0134,1","+0131,1","10081,1","12,0109,9,1","24,0114,9,1",,,,,"08,99,1,08,1,07,1,00250,1,99,9,99,9","0306,9","11,9","999,+0110,9","999,N,+0132,1","99999,9,09449,1","3,1,007,1,+999,9","63,1","SYN106AAXX  06064 08053 11350 80000 10134 20131 39449 40081 53007 60112 763// 887// 333 20132 32011 55051 70114;",
"08053099999","2010-10-06T09:00:00","4","42.5666666","-6.6","550.0","PONFERRADA, SP","FM-12","99999","V020","999,9,C,0000,1","00210,1,9,N","003000,1,N,1","+0134,1","+0131,1","10104,1",,,,"6,1,03,1","6,1,03,1",,"08,99,1,08,1,07,1,00250,1,99,9,99,9",,,,,"99999,9,09470,1","2,1,021,1,+999,9","63,1","SYN072AAXX  06094 08053 41330 80000 10134 20131 39470 40104 52021 76366 887//;",
"08053099999","2010-10-06T12:00:00","4","42.5666666","-6.6","550.0","PONFERRADA, SP","FM-12","99999","V020","999,9,C,0000,1","00210,1,9,N","005000,1,N,1","+0148,1","+0133,1","10109,1","06,0061,9,1",,,"6,1,06,1","2,1,06,1",,"08,99,1,08,1,07,1,00250,1,99,9,99,9",,,,,"99999,9,09478,1","1,1,008,1,+999,9","60,1","SYN088AAXX  06124 08053 11350 80000 10148 20133 39478 40109 51008 60061 76062 887// 333 50204;",
"08053099999","2010-10-07T06:00:00","4","42.5666666","-6.6","550.0","PONFERRADA, SP","FM-12","99999","V020","999,9,C,0000,1","03600,1,9,N","005000,1,N,1","+0124,1","+0121,1","10105,1","12,0000,9,1","24,0104,9,1",,,,,"05,99,1,02,1,07,1,00150,1,04,1,00,1","0000,9","11,9","999,+0100,9","999,N,+0124,1","99999,9,09469,1","8,1,001,1,+999,9","10,1","SYN106AAXX  07064 08053 11250 50000 10124 20121 39469 40105 58001 60002 710// 82740 333 20124 32010 55000 70103;","Q01  00002PRCP12"
"08053099999","2010-10-07T09:00:00","4","42.5666666","-6.6","550.0","PONFERRADA, SP","FM-12","99999","V020","260,1,N,0005,1","00060,1,9,N","000600,1,N,1","+0126,1","+0126,1","10112,1",,,,"4,1,03,1","4,1,03,1","09,1,+00060,1,99,9","09,99,1,09,1,99,9,99999,9,99,9,99,9",,,,,"99999,9,09476,1","3,1,007,1,+999,9","45,1","SYN076AAXX  07094 08053 41/06 92601 10126 20126 39476 40112 53007 74544 333 89/02;",
"08053099999","2010-10-07T12:00:00","4","42.5666666","-6.6","550.0","PONFERRADA, SP","FM-12","99999","V020","230,1,N,0021,1","03600,1,9,N","025000,1,N,1","+0216,1","+0132,1","10079,1","06,0000,9,1",,,"4,1,06,1","2,1,06,1",,"05,99,1,03,1,04,1,00250,1,04,1,01,1",,,,,"99999,9,09464,1","8,1,012,1,+999,9","01,1","SYN088AAXX  07124 08053 11375 52304 10216 20132 39464 40079 58012 60001 70142 83441 333 50023;","Q01  00002PRCP06"
"08053099999","2010-10-08T06:00:00","4","42.5666666","-6.6","550.0","PONFERRADA, SP","FM-12","99999","V020","130,1,N,0021,1","00210,1,9,N","012000,1,N,1","+0194,1","+0124,1","10052,1","12,0000,9,1","24,0000,9,1",,,,,"07,99,1,07,1,07,1,00250,1,99,9,99,9","0276,9","09,9","999,+0150,9","999,N,+0180,1","99999,9,09434,1","5,1,004,1,+999,9","02,1","SYN106AAXX  08064 08053 11362 71304 10194 20124 39434 40052 55004 60002 702// 877// 333 20180 31015 55046 70000;","Q01  00002PRCP24Q02  00002PRCP12"
"08053099999","2010-10-08T09:00:00","4","42.5666666","-6.6","550.0","PONFERRADA, SP","FM-12","99999","V020","130,1,N,0051,1","00210,1,9,N","015000,1,N,1","+0194,1","+0133,1","10052,1",,,,"2,1,03,1","2,1,03,1",,"07,99,1,06,1,07,1,00250,1,07,1,99,9",,,,,"99999,9,09434,1","5,1,000,1,+999,9","15,1","SYN072AAXX  08094 08053 41365 71310 10194 20133 39434 40052 55000 71522 8677/;",
"08053099999","2010-10-09T06:00:00","4","42.5666666","-6.6","550.0","PONFERRADA, SP","FM-12","99999","V020","280,1,N,0021,1","00210,1,9,N","003000,1,N,1","+0118,1","+0115,1","10051,1","12,0010,9,1","24,0119,9,1",,,,,"08,99,1,08,1,07,1,00250,1,99,9,99,9","0042,9","11,9","999,+0100,9","999,N,+0118,1","99999,9,09417,1","3,1,015,1,+999,9","65,1","SYN106AAXX  09064 08053 11330 82804 10118 20115 39417 40051 53015 60012 765// 887// 333 20118 32010 55007 70120;",
"08053099999","2010-10-09T09:00:00","4","42.5666666","-6.6","550.0","PONFERRADA, SP","FM-12","99999","V020","999,9,C,0000,1","03600,1,9,N","006000,1,N,1","+0130,1","+0127,1","10054,1",,,,"6,1,03,1","2,1,03,1",,"07,99,1,03,1,07,1,00250,1,07,1,99,9",,,,,"99999,9,09422,1","1,1,005,1,+999,9","10,1","SYN072AAXX  09094 08053 41356 70000 10130 20127 39422 40054 51005 71062 8377/;",
"08053099999","2010-10-09T12:00:00","4","42.5666666","-6.6","550.0","PONFERRADA, SP","FM-12","99999","V020","999,9,C,0000,1","03600,1,9,N","012000,1,N,1","+0158,1","+0116,1","10052,1","06,0030,9,1",,,"6,1,06,1","2,1,06,1",,"06,99,1,03,1,02,1,00250,1,06,1,00,1",,,,,"99999,9,09426,1","0,1,004,1,+999,9","01,1","SYN088AAXX  09124 08053 11362 60000 10158 20116 39426 40052 50004 60031 70162 83260 333 50043;",
"08053099999","2010-10-10T06:00:00","4","42.5666666","-6.6","550.0","PONFERRADA, SP","FM-12","99999","V020","999,9,C,0000,1","03600,1,9,N","008000,1,N,1","+0090,1","+0082,1","10056,1","12,0041,9,1","24,0043,9,1",,,,,"05,99,1,03,1,05,1,00250,1,04,1,00,1","0204,9","09,9","999,+0070,9","999,N,+0088,1","99999,9,09415,1","0,1,002,1,+999,9","10,1","SYN106AAXX  10064 08053 11358 50000 10090 20082 39415 40056 50002 60042 710// 83540 333 20088 31007 55034 70042;",
"08053099999","2010-10-10T09:00:00","4","42.5666666","-6.6","550.0","PONFERRADA, SP","FM-12","99999","V020","999,9,C,0000,1","00210,1,9,N","003000,1,N,1","+0102,1","+0097,1","10057,1",,,,"2,1,03,1","2,1,03,1",,"08,99,1,08,1,07,1,00250,1,99,9,99,9",,,,,"99999,9,09419,1","1,1,004,1,+999,9","10,1","SYN072AAXX  10094 08053 41330 80000 10102 20097 39419 40057 51004 71022 887//;",
"08053099999","2010-10-10T12:00:00","4","42.5666666","-6.6","550.0","PONFERRADA, SP","FM-12","99999","V020","999,9,C,0000,1","22000,1,9,N","022000,1,N,1","+0156,1","+0106,1","10038,1","06,0000,9,1",,,,,,"03,99,1,03,1,02,1,00450,1,00,1,00,1",,,,,"99999,9,09412,1","8,1,007,1,+999,9",,"SYN082AAXX  10124 08053 12472 30000 10156 20106 39412 40038 58007 60001 83200 333 50123;","Q01  00002PRCP06"
"08053099999","2010-10-11T06:00:00","4","42.5666666","-6.6","550.0","PONFERRADA, SP","FM-12","99999","V020","999,9,C,0000,1","00210,1,9,N","012000,1,N,1","+0118,1","+0102,1","10025,1","12,0000,9,1","24,0000,9,1",,,,,"08,99,1,07,1,07,1,00250,1,02,1,99,9","0210,9","01,9","999,+0090,9","999,N,+0116,1","99999,9,09392,1","6,1,007,1,+999,9","02,1","SYN106AAXX  11064 08053 11362 80000 10118 20102 39392 40025 56007 69902 702/6 8772/ 333 20116 30009 55035 79999;","Q01  00002PRCP24Q02  00002PRCP12"
"08053099999","2010-10-11T09:00:00","4","42.5666666","-6.6","550.0","PONFERRADA, SP","FM-12","99999","V020","999,9,C,0000,1","09000,1,9,N","025000,1,N,1","+0138,1","+0104,1","10026,1",,,,,,,"05,99,1,02,1,07,1,00450,1,04,1,01,1",,,,,"99999,9,09397,1","3,1,005,1,+999,9",,"SYN066AAXX  11094 08053 42475 50000 10138 20104 39397 40026 53005 82741;",
"08053099999","2010-10-11T12:00:00","4","42.5666666","-6.6","550.0","PONFERRADA, SP","FM-12","99999","V020","999,9,C,0000,1","22000,1,9,N","028000,1,N,1","+0180,1","+0129,1","10016,1","06,0000,9,1",,,,,,"05,99,1,04,1,07,1,00450,1,00,1,01,1",,,,,"99999,9,09397,1","0,1,000,1,+999,9",,"SYN082AAXX  11124 08053 12478 50000 10180 20129 39397 40016 50000 60001 84701 333 50143;","Q01  00002PRCP06"
"08053099999","2010-10-12T06:00:00","4","42.5666666","-6.6","550.0","PONFERRADA, SP","FM-12","99999","V020","999,9,C,0000,1","01500,1,9,N","015000,1,N,1","+0114,1","+0114,1","10068,1","12,0000,9,1","24,0000,9,1",,,,,"05,99,1,05,1,00,1,01750,1,07,1,00,1","0216,9","01,9","999,+0090,9","999,N,+0114,1","99999,9,09432,1","3,1,009,1,+999,9","02,1","SYN106AAXX  12064 08053 11765 50000 10114 20114 39432 40068 53009 60002 702// 85070 333 20114 30009 55036 70000;","Q01  00002PRCP24Q02  00002PRCP12"
"08053099999","2010-10-12T09:00:00","4","42.5666666","-6.6","550.0","PONFERRADA, SP","FM-12","99999","V020","999,9,C,0000,1","00420,1,9,N","020000,1,N,1","+0122,1","+0111,1","10078,1",,,,,,,"07,99,1,05,1,07,1,00450,1,07,1,99,9",,,,,"99999,9,09443,1","0,1,011,1,+999,9",,"SYN066AAXX  12094 08053 42470 70000 10122 20111 39443 40078 50011 8577/;",
"08053099999","2010-10-12T12:00:00","4","42.5666666","-6.6","550.0","PONFERRADA, SP","FM-12","99999","V020","280,1,N,0015,1","00420,1,9,N","025000,1,N,1","+0172,1","+0133,1","10061,1","06,0000,9,1",,,,,,"07,99,1,05,1,07,1,00450,1,07,1,99,9",,,,,"99999,9,09438,1","8,1,005,1,+999,9",,"SYN082AAXX  12124 08053 12475 72803 10172 20133 39438 40061 58005 60001 8577/ 333 50153;","Q01  00002PRCP06"
"08053099999","2010-10-13T06:00:00","4","42.5666666","-6.6","550.0","PONFERRADA, SP","FM-12","99999","V020","999,9,C,0000,1","22000,1,9,N","018000,1,N,1","+0188,1","+0188,1","10102,1","12,0000,9,1","24,0000,9,1",,,,,"01,99,1,01,1,00,1,01750,1,04,1,00,1","0288,9","01,9","999,+0160,9","999,N,+0188,1","99999,9,09481,1","3,1,012,1,+999,9","02,1","SYN106AAXX  13064 08053 11768 10000 10188 20188 39481 40102 53012 60002 702// 81040 333 20188 30016 55048 70000;","Q01  00002PRCP24Q02  00002PRCP12"
"08053099999","2010-10-13T09:00:00","4","42.5666666","-6.6","550.0","PONFERRADA, SP","FM-12","99999","V020","280,1,N,0010,1","22000,1,9,N","022000,1,N,1","+0122,1","+0103,1","10133,1",,,,,,,"01,99,1,01,1,01,1,00450,1,04,1,00,1",,,,,"99999,9,09494,1","1,1,013,1,+999,9",,"SYN066AAXX  13094 08053 42472 12802 10122 20103 39494 40133 51013 81140;",
"08053099999","2010-10-13T12:00:00","4","42.5666666","-6.6","550.0","PONFERRADA, SP","FM-12","99999","V020","240,1,N,0010,1","22000,1,9,N","025000,1,N,1","+0186,1","+0124,1","10112,1","06,0000,9,1",,,,,,"01,99,1,01,1,01,1,00800,1,00,1,00,1",,,,,"99999,9,09488,1","8,1,006,1,+999,9",,"SYN082AAXX  13124 08053 12575 12402 10186 20124 39488 40112 58006 60001 81100 333 50163;","Q01  00002PRCP06"
"08053099999","2010-10-14T06:00:00","4","42.5666666","-6.6","550.0","PONFERRADA, SP","FM-12","99999","V020","999,9,C,0000,1","22000,1,9,N","010000,1,N,1","+0076,1","+0076,1","10163,1","12,0000,9,1","24,0000,9,1",,,,"00,1,+99999,9,99,9","00,99,1,00,1,00,1,99999,9,00,1,00,1","0618,9","01,9","999,+0050,9","999,N,+0076,1","99999,9,09512,1","3,1,003,1,+999,9","00,1","SYN100AAXX  14064 08053 11960 00000 10076 20076 39512 40163 53003 60002 700// 333 20076 30005 55103 70000;","Q01  00002PRCP24Q02  00002PRCP12"
"08053099999","2010-10-14T09:00:00","4","42.5666666","-6.6","550.0","PONFERRADA, SP","FM-12","99999","V020","290,1,N,0015,1","22000,1,9,N","000800,1,N,1","+0094,1","+0086,1","10170,1",,,,"4,1,03,1","0,1,03,1","00,1,+99999,9,99,9","00,99,1,00,1,00,1,99999,9,00,1,00,1",,,,,"99999,9,09522,1","1,1,010,1,+999,9","44,1","SYN066AAXX  14094 08053 41908 02903 10094 20086 39522 40170 51010 74440;",
"08053099999","2010-10-14T12:00:00","4","42.5666666","-6.6","550.0","PONFERRADA, SP","FM-12","99999","V020","240,1,N,0010,1","22000,1,9,N","015000,1,N,1","+0162,1","+0103,1","10142,1","06,0000,9,1",,,"4,1,06,1","0,1,06,1",,"01,99,1,01,1,01,1,00800,1,00,1,00,1",,,,,"99999,9,09511,1","8,1,011,1,+999,9","03,1","SYN088AAXX  14124 08053 11565 12402 10162 20103 39511 40142 58011 60001 70340 81100 333 50233;","Q01  00002PRCP06"
"08053099999","2010-10-15T06:00:00","4","42.5666666","-6.6","550.0","PONFERRADA, SP","FM-12","99999","V020","999,9,C,0000,1","22000,1,9,N","004000,1,N,1","+0058,1","+0054,1","10166,1","12,0000,9,1","24,0000,9,1",,,,"00,1,+99999,9,99,9","00,99,1,00,1,00,1,99999,9,00,1,00,1","0564,9","01,9","999,+0040,9","999,N,+0056,1","99999,9,09510,1","3,1,004,1,+999,9","10,1","SYN100AAXX  15064 08053 11940 00000 10058 20054 39510 40166 53004 60002 710// 333 20056 30004 55094 70000;","Q01  00002PRCP24Q02  00002PRCP12"
"08053099999","2010-10-15T09:00:00","4","42.5666666","-6.6","550.0","PONFERRADA, SP","FM-12","99999","V020","999,9,C,0000,1","00120,1,9,N","005000,1,N,1","+0082,1","+0078,1","10174,1",,,,"4,1,03,1","1,1,03,1",,"05,99,1,05,1,06,1,00150,1,00,1,00,1",,,,,"99999,9,09523,1","2,1,013,1,+999,9","10,1","SYN072AAXX  15094 08053 41250 50000 10082 20078 39523 40174 52013 71041 85600;",
"08053099999","2010-10-15T12:00:00","4","42.5666666","-6.6","550.0","PONFERRADA, SP","FM-12","99999","V020","320,1,N,0010,1","22000,1,9,N","015000,1,N,1","+0154,1","+0082,1","10144,1","06,0000,9,1",,,"4,1,06,1","1,1,06,1",,"02,99,1,02,1,02,1,00450,1,00,1,00,1",,,,,"99999,9,09511,1","8,1,012,1,+999,9","01,1","SYN088AAXX  15124 08053 11465 23202 10154 20082 39511 40144 58012 60001 70141 82200 333 50203;","Q01  00002PRCP06"
"08053099999","2010-10-16T06:00:00","4","42.5666666","-6.6","550.0","PONFERRADA, SP","FM-12","99999","V020","999,9,C,0000,1","22000,1,9,N","008000,1,N,1","+0048,1","+0044,1","10174,1","12,0000,9,1","24,0000,9,1",,,,,"03,99,1,02,1,05,1,00250,1,04,1,00,1","0522,9","01,9","999,+0030,9","999,N,+0048,1","99999,9,09515,1","3,1,004,1,+999,9","10,1","SYN106AAXX  16064 08053 11358 30000 10048 20044 39515 40174 53004 60002 710// 82540 333 20048 30003 55087 70000;","Q01  00002PRCP24Q02  00002PRCP12"
"08053099999","2010-10-16T09:00:00","4","42.5666666","-6.6","550.0","PONFERRADA, SP","FM-12","99999","V020","999,9,C,0000,1","00210,1,9,N","002000,1,N,1","+0058,1","+0054,1","10185,1",,,,"4,1,03,1","2,1,03,1",,"08,99,1,08,1,06,1,00250,1,99,9,99,9",,,,,"99999,9,09528,1","1,1,013,1,+999,9","10,1","SYN072AAXX  16094 08053 41320 80000 10058 20054 39528 40185 51013 71042 886//;",
"08053099999","2010-10-16T12:00:00","4","42.5666666","-6.6","550.0","PONFERRADA, SP","FM-12","99999","V020","280,1,N,0026,1","22000,1,9,N","020000,1,N,1","+0136,1","+0080,1","10158,1","06,0000,9,1",,,"4,1,06,1","2,1,06,1",,"01,99,1,01,1,04,1,00800,1,00,1,00,1",,,,,"99999,9,09520,1","8,1,008,1,+999,9","01,1","SYN088AAXX  16124 08053 11570 12805 10136 20080 39520 40158 58008 60001 70142 81400 333 50213;","Q01  00002PRCP06"
"08053099999","2010-10-17T06:00:00","4","42.5666666","-6.6","550.0","PONFERRADA, SP","FM-12","99999","V020","999,9,C,0000,1","22000,1,9,N","015000,1,N,1","+0050,1","+0046,1","10209,1","12,0000,9,1","24,0000,9,1",,,,"00,1,+99999,9,99,9","00,99,1,00,1,00,1,99999,9,00,1,00,1","0540,9","01,9","999,+0030,9","999,N,+0050,1","99999,9,09548,1","2,1,011,1,+999,9","00,1","SYN100AAXX  17064 08053 11965 00000 10050 20046 39548 40209 52011 60002 700// 333 20050 30003 55090 70000;","Q01  00002PRCP24Q02  00002PRCP12"
"08053099999","2010-10-17T09:00:00","4","42.5666666","-6.6","550.0","PONFERRADA, SP","FM-12","99999","V020","999,9,C,0000,1","22000,1,9,N","025000,1,N,1","+0094,1","+0059,1","10221,1",,,,,,"00,1,+99999,9,99,9","00,99,1,00,1,00,1,99999,9,00,1,00,1",,,,,"99999,9,09570,1","2,1,022,1,+999,9",,"SYN060AAXX  17094 08053 42975 00000 10094 20059 39570 40221 52022;",
"08053099999","2010-10-17T12:00:00","4","42.5666666","-6.6","550.0","PONFERRADA, SP","FM-12","99999","V020","280,1,N,0010,1","22000,1,9,N","030000,1,N,1","+0150,1","+0071,1","10204,1","06,0000,9,1",,,,,"00,1,+99999,9,99,9","00,99,1,00,1,00,1,99999,9,00,1,00,1",,,,,"99999,9,09566,1","8,1,004,1,+999,9",,"SYN076AAXX  17124 08053 12980 02802 10150 20071 39566 40204 58004 60001 333 50263;","Q01  00002PRCP06"
"08053099999","2010-10-18T06:00:00","4","42.5666666","-6.6","550.0","PONFERRADA, SP","FM-12","99999","V020","170,1,N,0005,1","22000,1,9,N","015000,1,N,1","+0028,1","+0024,1","10266,1","12,0000,9,1","24,0000,9,1",,,,"00,1,+99999,9,99,9","00,99,1,00,1,00,1,99999,9,00,1,00,1","0618,9","01,9","999,+0010,9","999,N,+0028,1","99999,9,09596,1","2,1,007,1,+999,9","00,1","SYN100AAXX  18064 08053 11965 01701 10028 20024 39596 40266 52007 60002 700// 333 20028 30001 55103 70000;","Q01  00002PRCP24Q02  00002PRCP12"
"08053099999","2010-10-18T09:00:00","4","42.5666666","-6.6","550.0","PONFERRADA, SP","FM-12","99999","V020","310,1,N,0010,1","22000,1,9,N","022000,1,N,1","+0064,1","+0032,1","10268,1",,,,,,"00,1,+99999,9,99,9","00,99,1,00,1,00,1,99999,9,00,1,00,1",,,,,"99999,9,09607,1","1,1,011,1,+999,9",,"SYN060AAXX  18094 08053 42972 03102 10064 20032 39607 40268 51011;",
"08053099999","2010-10-18T12:00:00","4","42.5666666","-6.6","550.0","PONFERRADA, SP","FM-12","99999","V020","280,1,N,0021,1","22000,1,9,N","025000,1,N,1","+0128,1","+0052,1","10238,1","06,0000,9,1",,,,,"00,1,+99999,9,99,9","00,99,1,00,1,00,1,99999,9,00,1,00,1",,,,,"99999,9,09593,1","8,1,014,1,+999,9",,"SYN076AAXX  18124 08053 12975 02804 10128 20052 39593 40238 58014 60001 333 50233;","Q01  00002PRCP06"
"08053099999","2010-10-19T06:00:00","4","42.5666666","-6.6","550.0","PONFERRADA, SP","FM-12","99999","V020","999,9,C,0000,1","22000,1,9,N","015000,1,N,1","+0030,1","+0026,1","10246,1","12,0000,9,1","24,0000,9,1",,,,"00,1,+99999,9,99,9","00,99,1,00,1,00,1,99999,9,00,1,00,1","0606,9","01,9","999,+0000,9","999,N,+0024,1","99999,9,09578,1","5,1,000,1,+999,9","00,1","SYN100AAXX  19064 08053 11965 00000 10030 20026 39578 40246 55000 60002 700// 333 20024 30000 55101 70000;","Q01  00002PRCP24Q02  00002PRCP12"
"08053099999","2010-10-19T12:00:00","4","42.5666666","-6.6","550.0","PONFERRADA, SP","FM-12","99999","V020","190,1,N,0015,1","22000,1,9,N","025000,1,N,1","+0120,1","+0056,1","10210,1","06,0000,9,1",,,,,"00,1,+99999,9,99,9","00,99,1,00,1,00,1,99999,9,00,1,00,1",,,,,"99999,9,09565,1","7,1,021,1,+999,9",,"SYN076AAXX  19124 08053 12975 01903 10120 20056 39565 40210 57021 60001 333 50153;","Q01  00002PRCP06"
"08053099999","2010-10-20T06:00:00","4","42.5666666","-6.6","550.0","PONFERRADA, SP","FM-12","99999","V020","999,9,C,0000,1","22000,1,9,N","015000,1,N,1","+0026,1","+0026,1","10214,1","12,0000,9,1","24,0000,9,1",,,,"00,1,+99999,9,99,9","00,99,1,00,1,00,1,99999,9,00,1,00,1","0600,9","01,9","999,+0010,9","999,N,+0026,1","99999,9,09547,1","3,1,001,1,+999,9","00,1","SYN100AAXX  20064 08053 11965 00000 10026 20026 39547 40214 53001 60002 700// 333 20026 30001 55100 70000;","Q01  00002PRCP24Q02  00002PRCP12"
"08053099999","2010-10-20T09:00:00","4","42.5666666","-6.6","550.0","PONFERRADA, SP","FM-12","99999","V020","300,1,N,0010,1","22000,1,9,N","022000,1,N,1","+0054,1","+0031,1","10217,1",,,,,,,"02,99,1,00,1,00,1,99999,9,00,1,01,1",,,,,"99999,9,09557,1","1,1,010,1,+999,9",,"SYN066AAXX  20094 08053 42872 23002 10054 20031 39557 40217 51010 80001;","Q01+022502SCOLCB"
"08053099999","2010-10-20T12:00:00","4","42.5666666","-6.6","550.0","PONFERRADA, SP","FM-12","99999","V020","280,1,N,0021,1","22000,1,9,N","025000,1,N,1","+0126,1","+0060,1","10194,1","06,0000,9,1",,,,,,"02,99,1,00,1,00,1,99999,9,00,1,01,1",,,,,"99999,9,09551,1","8,1,006,1,+999,9",,"SYN082AAXX  20124 08053 12875 22804 10126 20060 39551 40194 58006 60001 80001 333 50143;","Q01+022502SCOLCBQ02  00002PRCP06"
"08053099999","2010-10-21T06:00:00","4","42.5666666","-6.6","550.0","PONFERRADA, SP","FM-12","99999","V020","999,9,C,0000,1","22000,1,9,N","018000,1,N,1","+0038,1","+0038,1","10231,1","12,0000,9,1","24,0000,9,1",,,,"00,1,+99999,9,99,9","00,99,1,00,1,00,1,99999,9,00,1,00,1","0606,9","01,9","999,+0020,9","999,N,+0036,1","99999,9,09566,1","3,1,006,1,+999,9","00,1","SYN100AAXX  21064 08053 11968 00000 10038 20038 39566 40231 53006 60002 700// 333 20036 30002 55101 70000;","Q01  00002PRCP24Q02  00002PRCP12"
"08053099999","2010-10-21T09:00:00","4","42.5666666","-6.6","550.0","PONFERRADA, SP","FM-12","99999","V020","340,1,N,0015,1","22000,1,9,N","018000,1,N,1","+0066,1","+0048,1","10238,1",,,,,,,"01,99,1,00,1,00,1,99999,9,00,1,01,1",,,,,"99999,9,09579,1","1,1,013,1,+999,9",,"SYN066AAXX  21094 08053 42968 13403 10066 20048 39579 40238 51013 80001;",
"08053099999","2010-10-21T12:00:00","4","42.5666666","-6.6","550.0","PONFERRADA, SP","FM-12","99999","V020","290,1,N,0015,1","22000,1,9,N","025000,1,N,1","+0150,1","+0085,1","10204,1","06,0000,9,1",,,,,,"02,99,1,00,1,00,1,99999,9,00,1,01,1",,,,,"99999,9,09566,1","8,1,013,1,+999,9",,"SYN082AAXX  21124 08053 12975 22903 10150 20085 39566 40204 58013 60001 80001 333 50133;","Q01  00002PRCP06"
"08053099999","2010-10-22T06:00:00","4","42.5666666","-6.6","550.0","PONFERRADA, SP","FM-12","99999","V020","330,1,N,0010,1","22000,1,9,N","012000,1,N,1","+0048,1","+0044,1","10228,1","12,0000,9,1","24,0000,9,1",,,,,"01,99,1,00,1,00,1,99999,9,00,1,01,1","0600,9","01,9","999,+0030,9","999,N,+0046,1","99999,9,09566,1","5,1,001,1,+999,9","02,1","SYN106AAXX  22064 08053 11962 13302 10048 20044 39566 40228 55001 60002 702// 80001 333 20046 30003 55100 70000;","Q01  00002PRCP24Q02  00002PRCP12"
"08053099999","2010-10-22T09:00:00","4","42.5666666","-6.6","550.0","PONFERRADA, SP","FM-12","99999","V020","280,1,N,0010,1","03600,1,9,N","012000,1,N,1","+0068,1","+0050,1","10234,1",,,,,,,"07,99,1,02,1,06,1,00800,1,04,1,02,1",,,,,"99999,9,09576,1","1,1,010,1,+999,9",,"SYN066AAXX  22094 08053 42562 72802 10068 20050 39576 40234 51010 82642;",
"08053099999","2010-10-22T12:00:00","4","42.5666666","-6.6","550.0","PONFERRADA, SP","FM-12","99999","V020","280,1,N,0010,1","03600,1,9,N","018000,1,N,1","+0124,1","+0077,1","10210,1","06,0000,9,1",,,,,,"07,99,1,03,1,06,1,00800,1,03,1,02,1",,,,,"99999,9,09566,1","8,1,010,1,+999,9",,"SYN082AAXX  22124 08053 12568 72802 10124 20077 39566 40210 58010 60001 83632 333 50283;","Q01  00002PRCP06"
"08053099999","2010-10-23T06:00:00","4","42.5666666","-6.6","550.0","PONFERRADA, SP","FM-12","99999","V020","999,9,C,0000,1","22000,1,9,N","010000,1,N,1","+0052,1","+0052,1","10218,1","12,0000,9,1","24,0000,9,1",,,,,"02,99,1,00,1,00,1,99999,9,00,1,01,1","0258,9","01,9","999,+0030,9","999,N,+0052,1","99999,9,09557,1","3,1,005,1,+999,9","02,1","SYN106AAXX  23064 08053 11860 20000 10052 20052 39557 40218 53005 60002 702// 80001 333 20052 30003 55043 70000;","Q01+022502SCOLCBQ02  00002PRCP24Q03  00002PRCP12"
"08053099999","2010-10-23T09:00:00","4","42.5666666","-6.6","550.0","PONFERRADA, SP","FM-12","99999","V020","280,1,N,0010,1","03600,1,9,N","004000,1,N,1","+0070,1","+0066,1","10226,1",,,,"1,1,03,1","1,1,03,1",,"06,99,1,03,1,06,1,00250,1,04,1,00,1",,,,,"99999,9,09569,1","1,1,012,1,+999,9","10,1","SYN072AAXX  23094 08053 41340 62802 10070 20066 39569 40226 51012 71011 83640;",
"08053099999","2010-10-23T12:00:00","4","42.5666666","-6.6","550.0","PONFERRADA, SP","FM-12","99999","V020","290,1,N,0010,1","03600,1,9,N","008000,1,N,1","+0142,1","+0088,1","10198,1","06,0000,9,1",,,"1,1,06,1","1,1,06,1",,"06,99,1,02,1,06,1,00250,1,04,1,01,1",,,,,"99999,9,09559,1","8,1,010,1,+999,9","05,1","SYN088AAXX  23124 08053 11358 62902 10142 20088 39559 40198 58010 60001 70511 82641 333 50223;","Q01  00002PRCP06"
"08053099999","2010-10-24T06:00:00","4","42.5666666","-6.6","550.0","PONFERRADA, SP","FM-12","99999","V020","999,9,C,0000,1","03600,1,9,N","008000,1,N,1","+0114,1","+0111,1","10191,1","12,0000,9,1","24,0000,9,1",,,,,"05,99,1,02,1,06,1,00250,1,04,1,00,1","0498,9","01,9","999,+0090,9","999,N,+0110,1","99999,9,09547,1","0,1,001,1,+999,9","10,1","SYN106AAXX  24064 08053 11358 50000 10114 20111 39547 40191 50001 60002 710// 82640 333 20110 30009 55083 70000;","Q01  00002PRCP24Q02  00002PRCP12"
"08053099999","2010-10-24T09:00:00","4","42.5666666","-6.6","550.0","PONFERRADA, SP","FM-12","99999","V020","300,1,N,0015,1","02100,1,9,N","008000,1,N,1","+0122,1","+0114,1","10188,1",,,,"2,1,03,1","2,1,03,1",,"08,99,1,08,1,07,1,02250,1,99,9,99,9",,,,,"99999,9,09546,1","5,1,001,1,+999,9","10,1","SYN072AAXX  24094 08053 41858 83003 10122 20114 39546 40188 55001 71022 887//;",
"08053099999","2010-10-24T12:00:00","4","42.5666666","-6.6","550.0","PONFERRADA, SP","FM-12","99999","V020","290,1,N,0041,1","00210,1,9,N","006000,1,N,1","+0138,1","+0124,1","10178,1","06,9999,9,9",,,"5,1,06,1","2,1,06,1",,"08,99,1,08,1,07,1,00250,1,99,9,99,9",,,,,"99999,9,09540,1","8,1,006,1,+999,9","50,1","SYN088AAXX  24124 08053 11356 82908 10138 20124 39540 40178 58006 69901 75052 887// 333 50163;","Q01  00002PRCP06Q02  00002PRCP06"
"08053099999","2010-10-25T06:00:00","4","42.5666666","-6.6","550.0","PONFERRADA, SP","FM-12","99999","V020","999,9,C,0000,1","22000,1,9,N","010000,1,N,1","+0090,1","+0085,1","10215,1","12,0000,9,1","24,0000,2,1",,,,,"04,99,1,02,1,05,1,00250,1,04,1,00,1","0012,9","01,9","999,+0070,9","999,N,+0090,1","99999,9,09564,1","1,1,007,1,+999,9","02,1","SYN106AAXX  25064 08053 11360 40000 10090 20085 39564 40215 51007 60002 702// 82540 333 20090 30007 55002 79999;","Q01  00002PRCP12"
"08053099999","2010-10-25T09:00:00","4","42.5666666","-6.6","550.0","PONFERRADA, SP","FM-12","99999","V020","230,1,N,0015,1","22000,1,9,N","020000,1,N,1","+0114,1","+0077,1","10234,1",,,,,,,"04,99,1,01,1,05,1,00250,1,04,1,01,1",,,,,"99999,9,09587,1","2,1,023,1,+999,9",,"SYN066AAXX  25094 08053 42370 42303 10114 20077 39587 40234 52023 81541;",
"08053099999","2010-10-25T12:00:00","4","42.5666666","-6.6","550.0","PONFERRADA, SP","FM-12","99999","V020","060,1,N,0021,1","22000,1,9,N","028000,1,N,1","+0170,1","+0082,1","10222,1","06,0000,9,1",,,,,,"01,99,1,01,1,01,1,00800,1,00,1,01,1",,,,,"99999,9,09587,1","0,1,000,1,+999,9",,"SYN082AAXX  25124 08053 12578 10604 10170 20082 39587 40222 50000 60001 81101 333 50183;","Q01  00002PRCP06"
"08053099999","2010-10-26T06:00:00","4","42.5666666","-6.6","550.0","PONFERRADA, SP","FM-12","99999","V020","999,9,C,0000,1","22000,1,9,N","012000,1,N,1","+0024,1","+0018,1","10310,1","12,0000,9,1","24,0000,9,1",,,,"00,1,+99999,9,99,9","00,99,1,00,1,00,1,99999,9,00,1,00,1","0546,9","01,9","999,+0000,9","999,N,+0024,1","99999,9,09636,1","3,1,007,1,+999,9","00,1","SYN100AAXX  26064 08053 11962 00000 10024 20018 39636 40310 53007 60002 700// 333 20024 30000 55091 70000;","Q01  00002PRCP24Q02  00002PRCP12"
"08053099999","2010-10-26T09:00:00","4","42.5666666","-6.6","550.0","PONFERRADA, SP","FM-12","99999","V020","270,1,N,0010,1","22000,1,9,N","018000,1,N,1","+0058,1","+0024,1","10305,1",,,,,,,"03,99,1,01,1,00,1,01750,1,04,1,01,1",,,,,"99999,9,09640,1","1,1,004,1,+999,9",,"SYN066AAXX  26094 08053 42768 32702 10058 20024 39640 40305 51004 81041;",
"08053099999","2010-10-26T12:00:00","4","42.5666666","-6.6","550.0","PONFERRADA, SP","FM-12","99999","V020","310,1,N,0010,1","99999,9,9,N","025000,1,N,1","+0128,1","+0052,1","10282,1","06,0000,9,1",,,,,,"05,99,1,00,1,00,1,99999,9,00,1,04,1",,,,,"99999,9,09634,1","8,1,006,1,+999,9",,"SYN082AAXX  26124 08053 12975 53102 10128 20052 39634 40282 58006 60001 80004 333 50293;","Q01  00002PRCP06"
"08053099999","2010-10-27T06:00:00","4","42.5666666","-6.6","550.0","PONFERRADA, SP","FM-12","99999","V020","350,1,N,0010,1","22000,1,9,N","015000,1,N,1","+0032,1","+0028,1","10303,1","12,0000,9,1","24,0000,9,1",,,,"00,1,+99999,9,99,9","00,99,1,00,1,00,1,99999,9,00,1,00,1","0588,9","01,9","999,+0010,9","999,N,+0030,1","99999,9,09632,1","5,1,000,1,+999,9","00,1","SYN100AAXX  27064 08053 11965 03502 10032 20028 39632 40303 55000 60002 700// 333 20030 30001 55098 70000;","Q01  00002PRCP24Q02  00002PRCP12"
"08053099999","2010-10-27T09:00:00","4","42.5666666","-6.6","550.0","PONFERRADA, SP","FM-12","99999","V020","290,1,N,0010,1","22000,1,9,N","020000,1,N,1","+0062,1","+0034,1","10298,1",,,,,,,"03,99,1,00,1,00,1,99999,9,00,1,01,1",,,,,"99999,9,09634,1","0,1,002,1,+999,9",,"SYN066AAXX  27094 08053 42970 32902 10062 20034 39634 40298 50002 80001;",
"08053099999","2010-10-27T12:00:00","4","42.5666666","-6.6","550.0","PONFERRADA, SP","FM-12","99999","V020","280,1,N,0021,1","99999,9,9,N","025000,1,N,1","+0128,1","+0057,1","10270,1","06,0000,9,1",,,,,,"05,99,1,00,1,00,1,99999,9,00,1,01,1",,,,,"99999,9,09623,1","8,1,011,1,+999,9",,"SYN082AAXX  27124 08053 12975 52804 10128 20057 39623 40270 58011 60001 80001 333 50123;","Q01  00002PRCP06"
"08053099999","2010-10-28T06:00:00","4","42.5666666","-6.6","550.0","PONFERRADA, SP","FM-12","99999","V020","999,9,C,0000,1","22000,1,9,N","012000,1,N,1","+0056,1","+0052,1","10263,1","12,0000,9,1","24,0000,9,1",,,,"00,1,+99999,9,99,9","00,99,1,00,1,00,1,99999,9,00,1,00,1","0504,9","01,9","999,+0040,9","999,N,+0054,1","99999,9,09600,1","4,1,000,1,+999,9","00,1","SYN100AAXX  28064 08053 11962 00000 10056 20052 39600 40263 54000 60002 700// 333 20054 30004 55084 70000;","Q01  00002PRCP24Q02  00002PRCP12"
"08053099999","2010-10-28T09:00:00","4","42.5666666","-6.6","550.0","PONFERRADA, SP","FM-12","99999","V020","360,1,N,0005,1","22000,1,9,N","018000,1,N,1","+0086,1","+0055,1","10255,1",,,,,,"00,1,+99999,9,99,9","00,99,1,00,1,00,1,99999,9,00,1,00,1",,,,,"99999,9,09600,1","5,1,000,1,+999,9",,"SYN060AAXX  28094 08053 42968 03601 10086 20055 39600 40255 55000;",
"08053099999","2010-10-28T12:00:00","4","42.5666666","-6.6","550.0","PONFERRADA, SP","FM-12","99999","V020","300,1,N,0021,1","22000,1,9,N","022000,1,N,1","+0148,1","+0074,1","10218,1","06,0000,9,1",,,,,"00,1,+99999,9,99,9","00,99,1,00,1,00,1,99999,9,00,1,00,1",,,,,"99999,9,09579,1","8,1,021,1,+999,9",,"SYN076AAXX  28124 08053 12972 03004 10148 20074 39579 40218 58021 60001 333 50173;","Q01  00002PRCP06"
"08053099999","2010-10-29T06:00:00","4","42.5666666","-6.6","550.0","PONFERRADA, SP","FM-12","99999","V020","140,1,N,0021,1","03600,1,9,N","006000,1,N,1","+0078,1","+0069,1","10086,1","12,0000,9,1","24,0000,9,1",,,,,"05,99,1,02,1,05,1,00250,1,04,1,00,1","0540,9","01,9","999,+0060,9","999,N,+0078,1","99999,9,09440,1","7,1,016,1,+999,9","10,1","SYN106AAXX  29064 08053 11356 51404 10078 20069 39440 40086 57016 60002 710// 82540 333 20078 30006 55090 70000;","Q01  00002PRCP24Q02  00002PRCP12"
"08053099999","2010-10-29T09:00:00","4","42.5666666","-6.6","550.0","PONFERRADA, SP","FM-12","99999","V020","050,1,N,0015,1","03600,1,9,N","006000,1,N,1","+0132,1","+0076,1","10066,1",,,,"6,1,03,1","2,1,03,1",,"08,99,1,03,1,07,1,00250,1,07,1,99,9",,,,,"99999,9,09433,1","8,1,007,1,+999,9","62,1","SYN072AAXX  29094 08053 41356 80503 10132 20076 39433 40066 58007 76262 8377/;",
"08053099999","2010-10-29T12:00:00","4","42.5666666","-6.6","550.0","PONFERRADA, SP","FM-12","99999","V020","240,1,N,0010,1","00120,1,9,N","003000,1,N,1","+0108,1","+0108,1","10071,1","06,0099,9,1",,,"6,1,06,1","2,1,06,1",,"08,99,1,08,1,07,1,00150,1,99,9,99,9",,,,,"99999,9,09433,1","5,1,000,1,+999,9","63,1","SYN088AAXX  29124 08053 11230 82402 10108 20108 39433 40071 55000 60101 76362 887// 333 50173;",
"08053099999","2010-10-30T06:00:00","4","42.5666666","-6.6","550.0","PONFERRADA, SP","FM-12","99999","V020","180,1,N,0021,1","00210,1,9,N","004000,1,N,1","+0080,1","+0063,1","10073,1","12,0003,9,1","24,0211,9,1",,"6,1,06,1","2,1,06,1",,"08,99,1,08,1,07,1,00250,1,99,9,99,9","0000,9","11,9","999,+0050,9","999,N,+0066,1","99999,9,09428,1","7,1,021,1,+999,9","61,1","SYN106AAXX  30064 08053 11340 81804 10080 20063 39428 40073 57021 69932 76162 887// 333 20066 32005 55000 70212;",
"08053099999","2010-10-30T09:00:00","4","42.5666666","-6.6","550.0","PONFERRADA, SP","FM-12","99999","V020","100,1,N,0036,1","00210,1,9,N","006000,1,N,1","+0086,1","+0069,1","10041,1",,,,"6,1,03,1","2,1,03,1",,"08,99,1,06,1,07,1,00250,1,02,1,99,9",,,,,"99999,9,09400,1","7,1,028,1,+999,9","61,1","SYN072AAXX  30094 08053 41356 81007 10086 20069 39400 40041 57028 76162 8672/;",
"08053099999","2010-10-30T12:00:00","4","42.5666666","-6.6","550.0","PONFERRADA, SP","FM-12","99999","V020","290,1,N,0015,1","00210,1,9,N","006000,1,N,1","+0090,1","+0082,1","10023,1","06,0089,9,1",,,"6,1,06,1","6,1,06,1",,"08,99,1,06,1,07,1,00250,1,02,1,99,9",,,,,"99999,9,09384,1","7,1,016,1,+999,9","61,1","SYN088AAXX  30124 08053 11356 82903 10090 20082 39384 40023 57016 60091 76166 8672/ 333 50083;",
"08053099999","2010-10-31T06:00:00","4","42.5666666","-6.6","550.0","PONFERRADA, SP","FM-12","99999","V020","330,1,N,0010,1","00210,1,9,N","006000,1,N,1","+0078,1","+0066,1","09967,1","12,0099,9,1","24,0203,9,1",,,,,"07,99,1,05,1,07,1,00250,1,02,1,99,9","0072,9","11,9","999,+0060,9","999,N,+0078,1","99999,9,09329,1","3,1,020,1,+999,9","60,1","SYN106AAXX  31064 08053 11356 73302 10078 20066 39329 49967 53020 60102 760/6 8572/ 333 20078 32006 55012 70202;",
"08053099999","2010-10-31T09:00:00","4","42.5666666","-6.6","550.0","PONFERRADA, SP","FM-12","99999","V020","280,1,N,0026,1","00210,1,9,N","008000,1,N,1","+0088,1","+0071,1","10002,1",,,,"6,1,03,1","2,1,03,1",,"07,99,1,06,1,07,1,00250,1,02,1,99,9",,,,,"99999,9,09364,1","2,1,035,1,+999,9","21,1","SYN072AAXX  31094 08053 41358 72805 10088 20071 39364 40002 52035 72162 8672/;",
"08053099999","2010-10-31T12:00:00","4","42.5666666","-6.6","550.0","PONFERRADA, SP","FM-12","99999","V020","280,1,N,0036,1","00210,1,9,N","006000,1,N,1","+0102,1","+0081,1","10018,1","06,0020,9,1",,,"6,1,06,1","2,1,06,1",,"08,99,1,06,1,07,1,00250,1,02,1,99,9",,,,,"99999,9,09382,1","1,1,018,1,+999,9","61,1","SYN088AAXX  31124 08053 11356 82807 10102 20081 39382 40018 51018 60021 76162 8672/ 333 50053;",
"08053099999","2010-11-01T06:00:00","4","42.5666666","-6.6","550.0","PONFERRADA, SP","FM-12","99999","V020","260,1,N,0026,1","00210,1,9,N","012000,1,N,1","+0112,1","+0081,1","10169,1","12,0005,9,1","24,0102,9,1",,,,,"07,99,1,07,1,07,1,00250,1,99,9,99,9","0024,9","11,9","999,+0070,9","999,N,+0096,1","99999,9,09525,1","3,1,024,1,+999,9","02,1","SYN106AAXX  01064 08053 11362 72605 10112 20081 39525 40169 53024 69952 702// 877// 333 20096 32007 55004 70101;",
"08053099999","2010-11-01T09:00:00","4","42.5666666","-6.6","550.0","PONFERRADA, SP","FM-12","99999","V020","270,1,N,0026,1","00210,1,9,N","015000,1,N,1","+0120,1","+0081,1","10196,1",,,,,,,"07,99,1,07,1,07,1,00250,1,99,9,99,9",,,,,"99999,9,09552,1","2,1,027,1,+999,9",,"SYN066AAXX  01094 08053 42365 72705 10120 20081 39552 40196 52027 877//;",
"08053099999","2010-11-01T12:00:00","4","42.5666666","-6.6","550.0","PONFERRADA, SP","FM-12","99999","V020","270,1,N,0031,1","00210,1,9,N","028000,1,N,1","+0146,1","+0092,1","10199,1","06,0000,9,1",,,,,,"07,99,1,06,1,07,1,00250,1,04,1,99,9",,,,,"99999,9,09561,1","1,1,009,1,+999,9",,"SYN082AAXX  01124 08053 12378 72706 10146 20092 39561 40199 51009 60001 8674/ 333 50193;","Q01  00002PRCP06"
"08053099999","2010-11-02T06:00:00","4","42.5666666","-6.6","550.0","PONFERRADA, SP","FM-12","99999","V020","999,9,C,0000,1","03600,1,9,N","005000,1,N,1","+0066,1","+0062,1","10264,1","12,0000,9,1","24,0000,9,1",,,,,"06,99,1,04,1,06,1,00250,1,04,1,00,1","0132,9","01,9","999,+0030,9","999,N,+0054,1","99999,9,09604,1","3,1,005,1,+999,9","10,1","SYN106AAXX  02064 08053 11350 60000 10066 20062 39604 40264 53005 60002 710// 84640 333 20054 30003 55022 70000;","Q01  00002PRCP24Q02  00002PRCP12"
"08053099999","2010-11-02T09:00:00","4","42.5666666","-6.6","550.0","PONFERRADA, SP","FM-12","99999","V020","999,9,C,0000,1","00120,1,9,N","002000,1,N,1","+0074,1","+0060,1","10276,1",,,,"2,1,03,1","2,1,03,1",,"08,99,1,08,1,07,1,00150,1,99,9,99,9",,,,,"99999,9,09617,1","0,1,013,1,+999,9","10,1","SYN072AAXX  02094 08053 41220 80000 10074 20060 39617 40276 50013 71022 887//;",
"08053099999","2010-11-02T12:00:00","4","42.5666666","-6.6","550.0","PONFERRADA, SP","FM-12","99999","V020","200,1,N,0015,1","00210,1,9,N","005000,1,N,1","+0092,1","+0066,1","10271,1","06,0000,9,1",,,"2,1,06,1","2,1,06,1",,"08,99,1,08,1,07,1,00250,1,99,9,99,9",,,,,"99999,9,09616,1","8,1,001,1,+999,9","10,1","SYN088AAXX  02124 08053 11350 82003 10092 20066 39616 40271 58001 60001 71022 887// 333 50123;","Q01  00002PRCP06"
"08053099999","2010-11-03T06:00:00","4","42.5666666","-6.6","550.0","PONFERRADA, SP","FM-12","99999","V020","270,1,N,0005,1","03600,1,9,N","006000,1,N,1","+0096,1","+0088,1","10273,1","12,0000,9,1","24,0000,9,1",,,,,"06,99,1,03,1,06,1,00250,1,04,1,00,1","0270,9","01,9","999,+0070,9","999,N,+0094,1","99999,9,09619,1","2,1,005,1,+999,9","10,1","SYN106AAXX  03064 08053 11356 62701 10096 20088 39619 40273 52005 60002 710// 83640 333 20094 30007 55045 70000;","Q01  00002PRCP24Q02  00002PRCP12"
"08053099999","2010-11-03T09:00:00","4","42.5666666","-6.6","550.0","PONFERRADA, SP","FM-12","99999","V020","300,1,N,0010,1","00120,1,9,N","003000,1,N,1","+0102,1","+0090,1","10289,1",,,,"2,1,03,1","2,1,03,1",,"08,99,1,08,1,07,1,00150,1,99,9,99,9",,,,,"99999,9,09636,1","2,1,017,1,+999,9","10,1","SYN072AAXX  03094 08053 41230 83002 10102 20090 39636 40289 52017 71022 887//;",
"08053099999","2010-11-03T12:00:00","4","42.5666666","-6.6","550.0","PONFERRADA, SP","FM-12","99999","V020","310,1,N,0026,1","22000,1,9,N","008000,1,N,1","+0136,1","+0095,1","10282,1","06,0000,9,1",,,"2,1,06,1","2,1,06,1",,"04,99,1,02,1,04,1,00250,1,06,1,00,1",,,,,"99999,9,09637,1","0,1,001,1,+999,9","05,1","SYN088AAXX  03124 08053 11358 43105 10136 20095 39637 40282 50001 60001 70522 82460 333 50063;","Q01  00002PRCP06"
"08053099999","2010-11-04T06:00:00","4","42.5666666","-6.6","550.0","PONFERRADA, SP","FM-12","99999","V020","999,9,C,0000,1","00060,1,9,N","000200,1,N,1","+0074,1","+0074,1","10323,1","12,0000,9,1","24,0000,9,1",,,,"09,1,+00060,1,99,9","09,99,1,09,1,99,9,99999,9,99,9,99,9","0342,9","09,9","999,+0050,9","999,N,+0066,1","99999,9,09661,1","3,1,001,1,+999,9","47,1","SYN106AAXX  04064 08053 11/02 90000 10074 20074 39661 40323 53001 60002 747/4 333 20066 31005 55057 70000 89/02;","Q01  00002PRCP24Q02  00002PRCP12"
"08053099999","2010-11-04T12:00:00","4","42.5666666","-6.6","550.0","PONFERRADA, SP","FM-12","99999","V020","290,1,N,0015,1","22000,1,9,N","000800,1,N,1","+0108,1","+0092,1","10325,1","06,0000,9,1",,,"4,1,06,1","4,1,06,1",,"04,99,1,04,1,06,1,00150,1,00,1,00,1",,,,,"99999,9,09671,1","8,1,008,1,+999,9","42,1","SYN088AAXX  04124 08053 11208 42903 10108 20092 39671 40325 58008 60001 74244 84600 333 50103;","Q01  00002PRCP06"
"08053099999","2010-11-05T06:00:00","4","42.5666666","-6.6","550.0","PONFERRADA, SP","FM-12","99999","V020","999,9,C,0000,1","00060,1,9,N","000300,1,N,1","+0064,1","+0064,1","10314,1","12,0000,9,1","24,0000,9,1",,,,"09,1,+00060,1,99,9","09,99,1,09,1,99,9,99999,9,99,9,99,9","0318,9","09,9","999,+0040,9","999,N,+0064,1","99999,9,09650,1","6,1,002,1,+999,9","47,1","SYN106AAXX  05064 08053 11/03 90000 10064 20064 39650 40314 56002 60002 747/4 333 20064 31004 55053 70000 89/02;","Q01  00002PRCP24Q02  00002PRCP12"
"08053099999","2010-11-05T09:00:00","4","42.5666666","-6.6","550.0","PONFERRADA, SP","FM-12","99999","V020","999,9,C,0000,1","00060,1,9,N","000200,1,N,1","+0066,1","+0066,1","10324,1",,,,"4,1,03,1","4,1,03,1","09,1,+00060,1,99,9","09,99,1,09,1,99,9,99999,9,99,9,99,9",,,,,"99999,9,09660,1","3,1,010,1,+999,9","45,1","SYN076AAXX  05094 08053 41/02 90000 10066 20066 39660 40324 53010 74544 333 89/02;",
"08053099999","2010-11-05T12:00:00","4","42.5666666","-6.6","550.0","PONFERRADA, SP","FM-12","99999","V020","300,1,N,0015,1","00060,1,9,N","000800,1,N,1","+0096,1","+0088,1","10300,1","06,0000,9,1",,,"4,1,06,1","4,1,06,1","09,1,+00060,1,99,9","09,99,1,09,1,99,9,99999,9,99,9,99,9",,,,,"99999,9,09645,1","8,1,015,1,+999,9","43,1","SYN088AAXX  05124 08053 11/08 93003 10096 20088 39645 40300 58015 60001 74344 333 50083 89/02;","Q01  00002PRCP06"
"08053099999","2010-11-06T06:00:00","4","42.5666666","-6.6","550.0","PONFERRADA, SP","FM-12","99999","V020","999,9,C,0000,1","00030,1,9,N","000500,1,N,1","+0072,1","+0072,1","10278,1","12,0000,9,1","24,0000,9,1",,,,"09,1,+00030,1,99,9","09,99,1,09,1,99,9,99999,9,99,9,99,9","0264,9","09,9","999,+0050,9","999,N,+0066,1","99999,9,09618,1","6,1,003,1,+999,9","45,1","SYN106AAXX  06064 08053 11/05 90000 10072 20072 39618 40278 56003 60002 745// 333 20066 31005 55044 70000 89/01;","Q01  00002PRCP24Q02  00002PRCP12"
"08053099999","2010-11-06T09:00:00","4","42.5666666","-6.6","550.0","PONFERRADA, SP","FM-12","99999","V020","170,1,N,0010,1","00015,1,9,N","000200,1,N,1","+0074,1","+0074,1","10277,1",,,,"4,1,03,1","4,1,03,1","09,1,+00015,1,99,9","09,99,1,09,1,99,9,99999,9,99,9,99,9",,,,,"99999,9,09618,1","4,1,000,1,+999,9","45,1","SYN076AAXX  06094 08053 41/02 91702 10074 20074 39618 40277 54000 74544 333 89/00;",
"08053099999","2010-11-06T12:00:00","4","42.5666666","-6.6","550.0","PONFERRADA, SP","FM-12","99999","V020","280,1,N,0021,1","00120,1,9,N","002000,1,N,1","+0094,1","+0089,1","10256,1","06,0000,9,1",,,"4,1,06,1","2,1,06,1",,"08,99,1,08,1,06,1,00150,1,99,9,99,9",,,,,"99999,9,09603,1","8,1,015,1,+999,9","10,1","SYN088AAXX  06124 08053 11220 82804 10094 20089 39603 40256 58015 60001 71042 886// 333 50093;","Q01  00002PRCP06"
"08053099999","2010-11-07T06:00:00","4","42.5666666","-6.6","550.0","PONFERRADA, SP","FM-12","99999","V020","030,1,N,0005,1","03600,1,9,N","010000,1,N,1","+0102,1","+0086,1","10162,1","12,0000,9,1","24,0000,9,1",,,,,"05,99,1,02,1,05,1,00250,1,04,1,00,1","0222,9","01,9","999,+0080,9","999,N,+0100,1","99999,9,09517,1","7,1,013,1,+999,9","02,1","SYN106AAXX  07064 08053 11360 50301 10102 20086 39517 40162 57013 60002 702// 82540 333 20100 30008 55037 70000;","Q01  00002PRCP24Q02  00002PRCP12"
"08053099999","2010-11-07T09:00:00","4","42.5666666","-6.6","550.0","PONFERRADA, SP","FM-12","99999","V020","300,1,N,0015,1","03600,1,9,N","008000,1,N,1","+0102,1","+0086,1","10172,1",,,,"2,1,03,1","2,1,03,1",,"08,99,1,04,1,07,1,00250,1,07,1,99,9",,,,,"99999,9,09526,1","3,1,009,1,+999,9","10,1","SYN072AAXX  07094 08053 41358 83003 10102 20086 39526 40172 53009 71022 8477/;",
"08053099999","2010-11-07T12:00:00","4","42.5666666","-6.6","550.0","PONFERRADA, SP","FM-12","99999","V020","300,1,N,0036,1","03600,1,9,N","020000,1,N,1","+0126,1","+0041,1","10151,1","06,0000,9,1",,,"2,1,06,1","2,1,06,1",,"06,99,1,04,1,07,1,00250,1,06,1,00,1",,,,,"99999,9,09511,1","8,1,015,1,+999,9","14,1","SYN088AAXX  07124 08053 11370 63007 10126 20041 39511 40151 58015 60001 71422 84760 333 50093;","Q01  00002PRCP06"
"08053099999","2010-11-08T06:00:00","4","42.5666666","-6.6","550.0","PONFERRADA, SP","FM-12","99999","V020","280,1,N,0041,1","03600,1,9,N","008000,1,N,1","+0080,1","+0076,1","10020,1","12,0000,9,1","24,0000,9,1",,,,,"06,99,1,03,1,05,1,00250,1,04,1,00,1","0258,9","01,9","999,+0050,9","999,N,+0066,1","99999,9,09379,1","7,1,030,1,+999,9","10,1","SYN106AAXX  08064 08053 11358 62808 10080 20076 39379 40020 57030 60002 710// 83540 333 20066 30005 55043 70000;","Q01  00002PRCP24Q02  00002PRCP12"
"08053099999","2010-11-08T09:00:00","4","42.5666666","-6.6","550.0","PONFERRADA, SP","FM-12","99999","V020","280,1,N,0031,1","00210,1,9,N","003000,1,N,1","+0096,1","+0088,1","09967,1",,,,"6,1,03,1","5,1,03,1",,"08,99,1,08,1,07,1,00250,1,99,9,99,9",,,,,"99999,9,09333,1","6,1,046,1,+999,9","60,1","SYN072AAXX  08094 08053 41330 82806 10096 20088 39333 49967 56046 76065 887//;",
"08053099999","2010-11-08T12:00:00","4","42.5666666","-6.6","550.0","PONFERRADA, SP","FM-12","99999","V020","290,1,N,0062,1","03600,1,9,N","005000,1,N,1","+0120,1","+0097,1","09924,1","06,0020,9,1",,,"6,1,06,1","5,1,06,1",,"07,99,1,03,1,07,1,00250,1,06,1,00,1",,,,,"99999,9,09298,1","7,1,035,1,+999,9","21,1","SYN078AAXX  08124 08053 11350 72912 10120 20097 39298 49924 57035 60021 72165 83760;",
"08053099999","2010-11-09T06:00:00","4","42.5666666","-6.6","550.0","PONFERRADA, SP","FM-12","99999","V020","310,1,N,0026,1","00210,1,9,N","005000,1,N,1","+0072,1","+0036,1","09902,1","12,0030,9,1","24,0071,9,1",,,,,"08,99,1,08,1,07,1,00250,1,99,9,99,9","0006,9","11,9","999,+0050,9","999,N,+0066,1","99999,9,09266,1","2,1,007,1,+999,9","60,1","SYN106AAXX  09064 08053 11350 83105 10072 20036 39266 49902 52007 60032 760/6 887// 333 20066 32005 55001 70070;",
"08053099999","2010-11-09T09:00:00","4","42.5666666","-6.6","550.0","PONFERRADA, SP","FM-12","99999","V020","290,1,N,0026,1","00210,1,9,N","003000,1,N,1","+0074,1","+0044,1","09909,1",,,,"6,1,03,1","2,1,03,1",,"08,99,1,07,1,07,1,00250,1,02,1,99,9",,,,,"99999,9,09273,1","3,1,007,1,+999,9","61,1","SYN072AAXX  09094 08053 41330 82905 10074 20044 39273 49909 53007 76162 8772/;",
"08053099999","2010-11-09T12:00:00","4","42.5666666","-6.6","550.0","PONFERRADA, SP","FM-12","99999","V020","290,1,N,0026,1","00210,1,9,N","004000,1,N,1","+0072,1","+0055,1","09911,1","06,0041,9,1",,,"6,1,06,1","2,1,06,1",,"08,99,1,06,1,07,1,00250,1,02,1,99,9",,,,,"99999,9,09275,1","0,1,002,1,+999,9","61,1","SYN088AAXX  09124 08053 11340 82905 10072 20055 39275 49911 50002 60041 76162 8672/ 333 50103;",
"08053099999","2010-11-10T06:00:00","4","42.5666666","-6.6","550.0","PONFERRADA, SP","FM-12","99999","V020","280,1,N,0036,1","00210,1,9,N","008000,1,N,1","+0070,1","+0034,1","10046,1","12,0041,9,1","24,0127,9,1",,,,,"05,99,1,05,1,07,1,00250,1,00,1,00,1","0000,9","11,9","999,+0040,9","999,N,+0064,1","99999,9,09400,1","3,1,030,1,+999,9","10,1","SYN106AAXX  10064 08053 11358 52807 10070 20034 39400 40046 53030 60042 710// 85700 333 20064 32004 55000 70126;",
"08053099999","2010-11-10T09:00:00","4","42.5666666","-6.6","550.0","PONFERRADA, SP","FM-12","99999","V020","280,1,N,0036,1","03600,1,9,N","010000,1,N,1","+0080,1","+0035,1","10082,1",,,,,,,"05,99,1,04,1,07,1,00250,1,04,1,00,1",,,,,"99999,9,09436,1","2,1,036,1,+999,9",,"SYN066AAXX  10094 08053 42360 52807 10080 20035 39436 40082 52036 84740;",
"08053099999","2010-11-10T12:00:00","4","42.5666666","-6.6","550.0","PONFERRADA, SP","FM-12","99999","V020","020,1,N,0010,1","03600,1,9,N","012000,1,N,1","+0094,1","+0050,1","10113,1","06,9999,9,9",,,"6,1,06,1","2,1,06,1",,"06,99,1,04,1,07,1,00250,1,07,1,00,1",,,,,"99999,9,09468,1","1,1,032,1,+999,9","21,1","SYN088AAXX  10124 08053 11362 60202 10094 20050 39468 40113 51032 69911 72162 84770 333 50143;","Q01  00002PRCP06Q02  00002PRCP06"
"08053099999","2010-11-11T06:00:00","4","42.5666666","-6.6","550.0","PONFERRADA, SP","FM-12","99999","V020","350,1,N,0010,1","03600,1,9,N","008000,1,N,1","+0080,1","+0058,1","10196,1","12,0000,9,1","24,0000,2,1",,,,,"06,99,1,03,1,05,1,00250,1,04,1,00,1","0204,9","09,9","999,+0040,9","999,N,+0058,1","99999,9,09543,1","3,1,007,1,+999,9","10,1","SYN106AAXX  11064 08053 11358 63502 10080 20058 39543 40196 53007 60002 710// 83540 333 20058 31004 55034 70000;","Q01  00002PRCP12"
"08053099999","2010-11-11T09:00:00","4","42.5666666","-6.6","550.0","PONFERRADA, SP","FM-12","99999","V020","340,1,N,0010,1","03600,1,9,N","010000,1,N,1","+0098,1","+0065,1","10210,1",,,,,,,"08,99,1,03,1,07,1,00250,1,07,1,99,9",,,,,"99999,9,09560,1","1,1,017,1,+999,9",,"SYN066AAXX  11094 08053 42360 83402 10098 20065 39560 40210 51017 8377/;",
"08053099999","2010-11-11T12:00:00","4","42.5666666","-6.6","550.0","PONFERRADA, SP","FM-12","99999","V020","290,1,N,0041,1","03600,1,9,N","012000,1,N,1","+0122,1","+0069,1","10210,1","06,0000,9,1",,,,,,"08,99,1,03,1,07,1,00250,1,07,1,99,9",,,,,"99999,9,09566,1","1,1,006,1,+999,9",,"SYN082AAXX  11124 08053 12362 82908 10122 20069 39566 40210 51006 60001 8377/ 333 50073;","Q01  00002PRCP06"
"08053099999","2010-11-12T06:00:00","4","42.5666666","-6.6","550.0","PONFERRADA, SP","FM-12","99999","V020","030,1,N,0010,1","03600,1,9,N","008000,1,N,1","+0120,1","+0101,1","10222,1","12,0000,9,1","24,0000,9,1",,,,,"06,99,1,03,1,05,1,00250,1,04,1,00,1","0000,9","01,9","999,+0090,9","999,N,+0110,1","99999,9,09577,1","8,1,006,1,+999,9","10,1","SYN106AAXX  12064 08053 11358 60302 10120 20101 39577 40222 58006 60002 710// 83540 333 20110 30009 55000 70000;","Q01  00002PRCP24Q02  00002PRCP12"
"08053099999","2010-11-12T09:00:00","4","42.5666666","-6.6","550.0","PONFERRADA, SP","FM-12","99999","V020","999,9,C,0000,1","03600,1,9,N","012000,1,N,1","+0134,1","+0104,1","10224,1",,,,,,,"07,99,1,03,1,07,1,00250,1,05,1,99,9",,,,,"99999,9,09582,1","1,1,005,1,+999,9",,"SYN066AAXX  12094 08053 42362 70000 10134 20104 39582 40224 51005 8375/;",
"08053099999","2010-11-12T12:00:00","4","42.5666666","-6.6","550.0","PONFERRADA, SP","FM-12","99999","V020","300,1,N,0031,1","03600,1,9,N","015000,1,N,1","+0168,1","+0097,1","10209,1","06,0000,9,1",,,,,,"05,99,1,03,1,05,1,00250,1,04,1,00,1",,,,,"99999,9,09575,1","8,1,007,1,+999,9",,"SYN082AAXX  12124 08053 12365 53006 10168 20097 39575 40209 58007 60001 83540 333 50053;","Q01  00002PRCP06"
"08053099999","2010-11-13T06:00:00","4","42.5666666","-6.6","550.0","PONFERRADA, SP","FM-12","99999","V020","150,1,N,0010,1","00210,1,9,N","006000,1,N,1","+0112,1","+0075,1","10132,1","12,0000,9,1","24,0000,9,1",,,,,"06,99,1,06,1,07,1,00250,1,00,1,00,1","0246,9","01,9","999,+0070,9","999,N,+0096,1","99999,9,09491,1","6,1,014,1,+999,9","10,1","SYN106AAXX  13064 08053 11356 61502 10112 20075 39491 40132 56014 60002 710// 86700 333 20096 30007 55041 70000;","Q01  00002PRCP24Q02  00002PRCP12"
"08053099999","2010-11-13T09:00:00","4","42.5666666","-6.6","550.0","PONFERRADA, SP","FM-12","99999","V020","180,1,N,0015,1","00420,1,9,N","028000,1,N,1","+0122,1","+0083,1","10121,1",,,,,,,"07,99,1,07,1,07,1,00450,1,99,9,99,9",,,,,"99999,9,09483,1","5,1,008,1,+999,9",,"SYN066AAXX  13094 08053 42478 71803 10122 20083 39483 40121 55008 877//;",
"08053099999","2010-11-13T12:00:00","4","42.5666666","-6.6","550.0","PONFERRADA, SP","FM-12","99999","V020","310,1,N,0031,1","00420,1,9,N","025000,1,N,1","+0166,1","+0086,1","10085,1","06,0000,9,1",,,,,,"06,99,1,05,1,07,1,00450,1,00,1,01,1",,,,,"99999,9,09458,1","8,1,025,1,+999,9",,"SYN082AAXX  13124 08053 12475 63106 10166 20086 39458 40085 58025 60001 85701 333 50123;","Q01  00002PRCP06"
"08053099999","2010-11-14T06:00:00","4","42.5666666","-6.6","550.0","PONFERRADA, SP","FM-12","99999","V020","320,1,N,0031,1","00210,1,9,N","004000,1,N,1","+0092,1","+0066,1","10043,1","12,0180,9,1","24,0183,9,1",,,,,"08,99,1,08,1,07,1,00250,1,99,9,99,9","0120,9","11,9","999,+0070,9","999,N,+0092,1","99999,9,09403,1","3,1,016,1,+999,9","63,1","SYN106AAXX  14064 08053 11340 83206 10092 20066 39403 40043 53016 60182 763/6 887// 333 20092 32007 55020 70183;",
"08053099999","2010-11-14T09:00:00","4","42.5666666","-6.6","550.0","PONFERRADA, SP","FM-12","99999","V020","280,1,N,0015,1","00210,1,9,N","008000,1,N,1","+0084,1","+0064,1","10071,1",,,,"6,1,03,1","2,1,03,1",,"06,99,1,06,1,07,1,00250,1,00,1,00,1",,,,,"99999,9,09427,1","2,1,024,1,+999,9","21,1","SYN072AAXX  14094 08053 41358 62803 10084 20064 39427 40071 52024 72162 86700;",
"08053099999","2010-11-14T12:00:00","4","42.5666666","-6.6","550.0","PONFERRADA, SP","FM-12","99999","V020","260,1,N,0026,1","22000,1,9,N","025000,1,N,1","+0114,1","+0034,1","10070,1","06,0010,9,1",,,"6,1,06,1","2,1,06,1",,"04,99,1,04,1,07,1,00450,1,00,1,00,1",,,,,"99999,9,09432,1","0,1,005,1,+999,9","01,1","SYN088AAXX  14124 08053 11475 42605 10114 20034 39432 40070 50005 60011 70162 84700 333 50283;",
"08053099999","2010-11-15T06:00:00","4","42.5666666","-6.6","550.0","PONFERRADA, SP","FM-12","99999","V020","030,1,N,0010,1","00210,1,9,N","012000,1,N,1","+0046,1","+0037,1","10182,1","12,0030,9,1","24,0066,9,1",,,,,"06,99,1,06,1,07,1,00250,1,00,1,00,1","0264,9","11,9","999,+0020,9","999,N,+0036,1","99999,9,09522,1","3,1,015,1,+999,9","21,1","SYN106AAXX  15064 08053 11362 60302 10046 20037 39522 40182 53015 60032 721/6 86700 333 20036 32002 55044 70066;",
"08053099999","2010-11-15T09:00:00","4","42.5666666","-6.6","550.0","PONFERRADA, SP","FM-12","99999","V020","999,9,C,0000,1","00210,1,9,N","005000,1,N,1","+0050,1","+0037,1","10213,1",,,,"6,1,03,1","2,1,03,1",,"08,99,1,06,1,07,1,00250,1,02,1,99,9",,,,,"99999,9,09552,1","3,1,030,1,+999,9","21,1","SYN072AAXX  15094 08053 41350 80000 10050 20037 39552 40213 53030 72162 8672/;",
"08053099999","2010-11-15T12:00:00","4","42.5666666","-6.6","550.0","PONFERRADA, SP","FM-12","99999","V020","250,1,N,0021,1","00210,1,9,N","012000,1,N,1","+0090,1","+0056,1","10222,1","06,0030,9,1",,,"6,1,06,1","6,1,06,1",,"06,99,1,06,1,07,1,00250,1,00,1,00,1",,,,,"99999,9,09570,1","0,1,018,1,+999,9","15,1","SYN088AAXX  15124 08053 11362 62504 10090 20056 39570 40222 50018 60031 71566 86700 333 50103;",
"08053099999","2010-11-16T06:00:00","4","42.5666666","-6.6","550.0","PONFERRADA, SP","FM-12","99999","V020","300,1,N,0005,1","03600,1,9,N","008000,1,N,1","+0054,1","+0050,1","10273,1","12,0000,9,1","24,0033,9,1",,,,,"06,99,1,03,1,05,1,00250,1,04,1,00,1","0174,9","09,9","999,+0030,9","999,N,+0048,1","99999,9,09609,1","5,1,003,1,+999,9","10,1","SYN106AAXX  16064 08053 11358 63001 10054 20050 39609 40273 55003 60002 710// 83540 333 20048 31003 55029 70034;","Q01  00002PRCP12"
"08053099999","2010-11-16T09:00:00","4","42.5666666","-6.6","550.0","PONFERRADA, SP","FM-12","99999","V020","190,1,N,0010,1","00210,1,9,N","004000,1,N,1","+0054,1","+0045,1","10276,1",,,,"2,1,03,1","2,1,03,1",,"08,99,1,08,1,07,1,00250,1,99,9,99,9",,,,,"99999,9,09612,1","1,1,003,1,+999,9","10,1","SYN072AAXX  16094 08053 41340 81902 10054 20045 39612 40276 51003 71022 887//;",
"08053099999","2010-11-16T12:00:00","4","42.5666666","-6.6","550.0","PONFERRADA, SP","FM-12","99999","V020","290,1,N,0021,1","22000,1,9,N","012000,1,N,1","+0078,1","+0051,1","10257,1","06,0000,9,1",,,,,,"04,99,1,02,1,02,1,00250,1,06,1,01,1",,,,,"99999,9,09600,1","8,1,012,1,+999,9",,"SYN082AAXX  16124 08053 12362 42904 10078 20051 39600 40257 58012 60001 82261 333 50053;","Q01  00002PRCP06"
"08053099999","2010-11-17T06:00:00","4","42.5666666","-6.6","550.0","PONFERRADA, SP","FM-12","99999","V020","140,1,N,0015,1","00210,1,9,N","004000,1,N,1","+0064,1","+0060,1","10111,1","12,0079,9,2","24,0076,9,2",,,,,"08,99,1,08,1,07,1,00250,1,99,9,99,9","0132,9","11,9","999,+0040,9","999,N,+0062,1","99999,9,09460,1","6,1,008,1,+999,9","61,1","SYN106AAXX  17064 08053 11340 81403 10064 20060 39460 40111 56008 60082 761// 887// 333 20062 32004 55022 70076;",
"08053099999","2010-11-17T09:00:00","4","42.5666666","-6.6","550.0","PONFERRADA, SP","FM-12","99999","V020","280,1,N,0026,1","03600,1,9,N","006000,1,N,1","+0074,1","+0062,1","10132,1",,,,"6,1,03,1","2,1,03,1",,"06,99,1,03,1,05,1,00250,1,04,1,00,1",,,,,"99999,9,09482,1","2,1,022,1,+999,9","10,1","SYN072AAXX  17094 08053 41356 62805 10074 20062 39482 40132 52022 71062 83540;",
"08053099999","2010-11-17T12:00:00","4","42.5666666","-6.6","550.0","PONFERRADA, SP","FM-12","99999","V020","340,1,N,0015,1","03600,1,9,N","012000,1,N,1","+0090,1","+0046,1","10134,1","06,0010,9,1",,,"6,1,06,1","2,1,06,1",,"06,99,1,02,1,04,1,00250,1,06,1,00,1",,,,,"99999,9,09487,1","0,1,005,1,+999,9","02,1","SYN088AAXX  17124 08053 11362 63403 10090 20046 39487 40134 50005 60011 70262 82460 333 50103;",
"08053099999","2010-11-18T06:00:00","4","42.5666666","-6.6","550.0","PONFERRADA, SP","FM-12","99999","V020","270,1,N,0021,1","00210,1,9,N","004000,1,N,1","+0068,1","+0050,1","10167,1","12,0005,9,1","24,0033,9,1",,,,,"07,99,1,07,1,07,1,00250,1,99,9,99,9","0156,9","11,9","999,+0040,9","999,N,+0062,1","99999,9,09513,1","3,1,005,1,+999,9","60,1","SYN106AAXX  18064 08053 11340 72704 10068 20050 39513 40167 53005 69952 760/6 877// 333 20062 32004 55026 70032;",
"08053099999","2010-11-18T09:00:00","4","42.5666666","-6.6","550.0","PONFERRADA, SP","FM-12","99999","V020","300,1,N,0026,1","00210,1,9,N","006000,1,N,1","+0082,1","+0051,1","10173,1",,,,"6,1,03,1","2,1,03,1",,"08,99,1,08,1,07,1,00250,1,99,9,99,9",,,,,"99999,9,09522,1","3,1,009,1,+999,9","15,1","SYN072AAXX  18094 08053 41356 83005 10082 20051 39522 40173 53009 71562 887//;",
"08053099999","2010-11-18T12:00:00","4","42.5666666","-6.6","550.0","PONFERRADA, SP","FM-12","99999","V020","290,1,N,0036,1","00210,1,9,N","005000,1,N,1","+0094,1","+0059,1","10176,1","06,0003,9,1",,,"6,1,06,1","2,1,06,1",,"07,99,1,07,1,07,1,00250,1,99,9,99,9",,,,,"99999,9,09528,1","0,1,006,1,+999,9","60,1","SYN088AAXX  18124 08053 11350 72907 10094 20059 39528 40176 50006 69931 76062 877// 333 50093;",
"08053099999","2010-11-19T06:00:00","4","42.5666666","-6.6","550.0","PONFERRADA, SP","FM-12","99999","V020","999,9,C,0000,1","00210,1,9,N","004000,1,N,1","+0062,1","+0058,1","10149,1","12,0000,9,1","24,0005,9,1",,,,,"07,99,1,07,1,07,1,00250,1,99,9,99,9","0162,9","09,9","999,+0040,9","999,N,+0062,1","99999,9,09495,1","8,1,017,1,+999,9","10,1","SYN106AAXX  19064 08053 11340 70000 10062 20058 39495 40149 58017 60002 710// 877// 333 20062 31004 55027 70006;","Q01  00002PRCP12"
"08053099999","2010-11-19T09:00:00","4","42.5666666","-6.6","550.0","PONFERRADA, SP","FM-12","99999","V020","999,9,C,0000,1","00120,1,9,N","003000,1,N,1","+0062,1","+0058,1","10149,1",,,,"4,1,03,1","2,1,03,1",,"08,99,1,06,1,07,1,00150,1,02,1,99,9",,,,,"99999,9,09495,1","0,1,000,1,+999,9","28,1","SYN072AAXX  19094 08053 41230 80000 10062 20058 39495 40149 50000 72842 8672/;",
"08053099999","2010-11-19T12:00:00","4","42.5666666","-6.6","550.0","PONFERRADA, SP","FM-12","99999","V020","140,1,N,0010,1","00120,1,9,N","004000,1,N,1","+0124,1","+0116,1","10128,1","06,0020,9,1",,,"6,1,06,1","4,1,06,1",,"08,99,1,06,1,07,1,00150,1,02,1,99,9",,,,,"99999,9,09490,1","8,1,005,1,+999,9","61,1","SYN088AAXX  19124 08053 11240 81402 10124 20116 39490 40128 58005 60021 76164 8672/ 333 50023;",
"08053099999","2010-11-20T06:00:00","4","42.5666666","-6.6","550.0","PONFERRADA, SP","FM-12","99999","V020","280,1,N,0031,1","03600,1,9,N","005000,1,N,1","+0072,1","+0055,1","10093,1","12,0201,9,1","24,0229,9,1",,,,,"07,99,1,03,1,07,1,00250,1,07,1,99,9","0000,9","11,9","999,+0040,9","999,N,+0058,1","99999,9,09445,1","3,1,007,1,+999,9","62,1","SYN106AAXX  20064 08053 11350 72806 10072 20055 39445 40093 53007 60202 762// 8377/ 333 20058 32004 55000 70228;",
"08053099999","2010-11-20T09:00:00","4","42.5666666","-6.6","550.0","PONFERRADA, SP","FM-12","99999","V020","280,1,N,0031,1","03600,1,9,N","006000,1,N,1","+0084,1","+0053,1","10100,1",,,,"6,1,03,1","2,1,03,1",,"07,99,1,03,1,07,1,00250,1,07,1,99,9",,,,,"99999,9,09454,1","1,1,009,1,+999,9","62,1","SYN072AAXX  20094 08053 41356 72806 10084 20053 39454 40100 51009 76262 8377/;",
"08053099999","2010-11-21T06:00:00","4","42.5666666","-6.6","550.0","PONFERRADA, SP","FM-12","99999","V020","290,1,N,0031,1","22000,1,9,N","008000,1,N,1","+0074,1","+0044,1","10087,1","12,0099,9,1","24,0130,9,1",,,,,"04,99,1,02,1,05,1,00250,1,04,1,00,1","0084,9","11,9","999,+0050,9","999,N,+0072,1","99999,9,09440,1","4,1,000,1,+999,9","10,1","SYN106AAXX  21064 08053 11358 42906 10074 20044 39440 40087 54000 60102 710// 82540 333 20072 32005 55014 70130;",
"08053099999","2010-11-21T09:00:00","4","42.5666666","-6.6","550.0","PONFERRADA, SP","FM-12","99999","V020","260,1,N,0031,1","22000,1,9,N","010000,1,N,1","+0080,1","+0049,1","10104,1",,,,,,,"04,99,1,02,1,05,1,00250,1,04,1,00,1",,,,,"99999,9,09457,1","2,1,017,1,+999,9",,"SYN066AAXX  21094 08053 42360 42606 10080 20049 39457 40104 52017 82540;",
"08053099999","2010-11-21T12:00:00","4","42.5666666","-6.6","550.0","PONFERRADA, SP","FM-12","99999","V020","270,1,N,0036,1","22000,1,9,N","018000,1,N,1","+0104,1","+0054,1","10096,1","06,0000,9,1",,,,,,"04,99,1,02,1,04,1,00450,1,06,1,00,1",,,,,"99999,9,09455,1","8,1,002,1,+999,9",,"SYN082AAXX  21124 08053 12468 42707 10104 20054 39455 40096 58002 60001 82460 333 50125;","Q01  00002PRCP06"
"08053099999","2010-11-22T06:00:00","4","42.5666666","-6.6","550.0","PONFERRADA, SP","FM-12","99999","V020","999,9,C,0000,1","22000,1,9,N","008000,1,N,1","+0030,1","+0027,1","10123,1","12,0030,9,1","24,0041,9,1",,,,,"04,99,1,02,1,05,1,00250,1,04,1,00,1","0132,9","09,9","999,+0000,9","999,N,+0024,1","99999,9,09463,1","3,1,001,1,+999,9","10,1","SYN106AAXX  22064 08053 11358 40000 10030 20027 39463 40123 53001 60032 710// 82540 333 20024 31000 55022 70040;",
"08053099999","2010-11-22T09:00:00","4","42.5666666","-6.6","550.0","PONFERRADA, SP","FM-12","99999","V020","270,1,N,0005,1","00120,1,9,N","002000,1,N,1","+0040,1","+0036,1","10136,1",,,,"2,1,03,1","2,1,03,1",,"08,99,1,08,1,07,1,00150,1,99,9,99,9",,,,,"99999,9,09478,1","1,1,015,1,+999,9","10,1","SYN072AAXX  22094 08053 41220 82701 10040 20036 39478 40136 51015 71022 887//;",
"08053099999","2010-11-22T12:00:00","4","42.5666666","-6.6","550.0","PONFERRADA, SP","FM-12","99999","V020","270,1,N,0010,1","00120,1,9,N","003000,1,N,1","+0066,1","+0048,1","10136,1","06,0000,9,1",,,"2,1,06,1","2,1,06,1",,"08,99,1,08,1,07,1,00150,1,99,9,99,9",,,,,"99999,9,09484,1","1,1,006,1,+999,9","10,1","SYN088AAXX  22124 08053 11230 82702 10066 20048 39484 40136 51006 60001 71022 887// 333 50103;","Q01  00002PRCP06"
"08053099999","2010-11-23T06:00:00","4","42.5666666","-6.6","550.0","PONFERRADA, SP","FM-12","99999","V020","130,1,N,0010,1","00210,1,9,N","012000,1,N,1","+0034,1","+0030,1","10143,1","12,0000,9,1","24,0000,9,1",,,,,"07,99,1,07,1,07,1,00250,1,99,9,99,9","0084,9","01,9","999,+0010,9","999,N,+0032,1","99999,9,09483,1","6,1,001,1,+999,9","02,1","SYN106AAXX  23064 08053 11362 71302 10034 20030 39483 40143 56001 60002 702// 877// 333 20032 30001 55014 70000;","Q01  00002PRCP24Q02  00002PRCP12"
"08053099999","2010-11-23T09:00:00","4","42.5666666","-6.6","550.0","PONFERRADA, SP","FM-12","99999","V020","999,9,C,0000,1","03600,1,9,N","012000,1,N,1","+0044,1","+0035,1","10154,1",,,,,,,"08,99,1,03,1,07,1,00250,1,07,1,99,9",,,,,"99999,9,09495,1","1,1,012,1,+999,9",,"SYN066AAXX  23094 08053 42362 80000 10044 20035 39495 40154 51012 8377/;",
"08053099999","2010-11-23T12:00:00","4","42.5666666","-6.6","550.0","PONFERRADA, SP","FM-12","99999","V020","280,1,N,0010,1","00210,1,9,N","018000,1,N,1","+0080,1","+0044,1","10142,1","06,0000,9,1",,,,,,"07,99,1,05,1,07,1,00250,1,06,1,99,9",,,,,"99999,9,09492,1","8,1,003,1,+999,9",,"SYN082AAXX  23124 08053 12368 72802 10080 20044 39492 40142 58003 60001 8576/ 333 50063;","Q01  00002PRCP06"
"08053099999","2010-11-24T06:00:00","4","42.5666666","-6.6","550.0","PONFERRADA, SP","FM-12","99999","V020","999,9,C,0000,1","00120,1,9,N","003000,1,N,1","+0002,1","+0002,1","10174,1","12,0000,9,1","24,0000,9,1",,,,,"08,99,1,08,1,06,1,00150,1,99,9,99,9","0192,9","14,9","999,-0030,9","999,N,-0006,1","99999,9,09504,1","3,1,006,1,+999,9","10,1","SYN106AAXX  24064 08053 11230 80000 10002 20002 39504 40174 53006 60002 710// 886// 333 21006 34103 55032 70000;","Q01  00002PRCP24Q02  00002PRCP12"
"08053099999","2010-11-24T09:00:00","4","42.5666666","-6.6","550.0","PONFERRADA, SP","FM-12","99999","V020","030,1,N,0005,1","00120,1,9,N","000800,1,N,1","+0016,1","+0010,1","10183,1",,,,"4,1,03,1","2,1,03,1","09,1,+00120,1,99,9","09,99,1,09,1,99,9,99999,9,99,9,99,9",,,,,"99999,9,09516,1","1,1,012,1,+999,9","47,1","SYN076AAXX  24094 08053 41/08 90301 10016 20010 39516 40183 51012 74742 333 89/04;",
"08053099999","2010-11-24T12:00:00","4","42.5666666","-6.6","550.0","PONFERRADA, SP","FM-12","99999","V020","160,1,N,0010,1","00120,1,9,N","001500,1,N,1","+0028,1","+0018,1","10182,1","06,0000,9,1",,,"4,1,06,1","2,1,06,1",,"08,99,1,08,1,06,1,00150,1,99,9,99,9",,,,,"99999,9,09518,1","0,1,002,1,+999,9","10,1","SYN088AAXX  24124 08053 11215 81602 10028 20018 39518 40182 50002 60001 71042 886// 333 50103;","Q01  00002PRCP06"
"08053099999","2010-11-25T06:00:00","4","42.5666666","-6.6","550.0","PONFERRADA, SP","FM-12","99999","V020","290,1,N,0010,1","00030,1,9,N","000800,1,N,1","+0016,1","+0010,1","10180,1","12,0000,9,1","24,0000,9,1",,,,"09,1,+00030,1,99,9","09,99,1,09,1,99,9,99999,9,99,9,99,9","0240,9","09,9","999,-0020,9","999,N,+0004,1","99999,9,09513,1","5,1,000,1,+999,9","45,1","SYN106AAXX  25064 08053 11/08 92902 10016 20010 39513 40180 55000 60002 745// 333 20004 31102 55040 70000 89/01;","Q01  00002PRCP24Q02  00002PRCP12"
"08053099999","2010-11-25T09:00:00","4","42.5666666","-6.6","550.0","PONFERRADA, SP","FM-12","99999","V020","300,1,N,0021,1","00120,1,9,N","001500,1,N,1","+0024,1","+0014,1","10178,1",,,,"4,1,03,1","2,1,03,1",,"08,99,1,08,1,07,1,00150,1,99,9,99,9",,,,,"99999,9,09513,1","4,1,000,1,+999,9","10,1","SYN072AAXX  25094 08053 41215 83004 10024 20014 39513 40178 54000 71042 887//;",
"08053099999","2010-11-25T12:00:00","4","42.5666666","-6.6","550.0","PONFERRADA, SP","FM-12","99999","V020","210,1,N,0010,1","00210,1,9,N","005000,1,N,1","+0042,1","+0022,1","10173,1","06,0000,9,1",,,"4,1,06,1","2,1,06,1",,"07,99,1,07,1,07,1,00250,1,99,9,99,9",,,,,"99999,9,09513,1","0,1,000,1,+999,9","10,1","SYN088AAXX  25124 08053 11350 72102 10042 20022 39513 40173 50000 60001 71042 877// 333 50013;","Q01  00002PRCP06"
"08053099999","2010-11-26T06:00:00","4","42.5666666","-6.6","550.0","PONFERRADA, SP","FM-12","99999","V020","040,1,N,0005,1","22000,1,9,N","010000,1,N,1","-0030,1","-0040,1","10181,1","12,0000,9,1","24,0000,9,1",,,,"00,1,+99999,9,99,9","00,99,1,00,1,00,1,99999,9,00,1,00,1","0156,9","14,9","999,-0050,9","999,N,-0030,1","99999,9,09502,1","8,1,009,1,+999,9","00,1","SYN100AAXX  26064 08053 11960 00401 11030 21040 39502 40181 58009 60002 700// 333 21030 34105 55026 70000;","Q01  00002PRCP24Q02  00002PRCP12"
"08053099999","2010-11-26T09:00:00","4","42.5666666","-6.6","550.0","PONFERRADA, SP","FM-12","99999","V020","160,1,N,0005,1","22000,1,9,N","020000,1,N,1","+0000,1","-0022,1","10175,1",,,,,,,"01,99,1,01,1,05,1,00450,1,00,1,01,1",,,,,"99999,9,09504,1","1,1,002,1,+999,9",,"SYN066AAXX  26094 08053 42470 11601 10000 21022 39504 40175 51002 81501;",
"08053099999","2010-11-26T12:00:00","4","42.5666666","-6.6","550.0","PONFERRADA, SP","FM-12","99999","V020","340,1,N,0015,1","22000,1,9,N","022000,1,N,1","+0036,1","-0017,1","10149,1","06,0000,9,1",,,,,,"01,99,1,01,1,05,1,00450,1,00,1,01,1",,,,,"99999,9,09488,1","8,1,016,1,+999,9",,"SYN082AAXX  26124 08053 12472 13403 10036 21017 39488 40149 58016 60001 81501 333 5///3;","Q01  00002PRCP06"
"08053099999","2010-11-27T06:00:00","4","42.5666666","-6.6","550.0","PONFERRADA, SP","FM-12","99999","V020","350,1,N,0010,1","22000,1,9,N","012000,1,N,1","-0028,1","-0035,1","10093,1","12,0000,9,1","24,0000,9,1",,,,"00,1,+99999,9,99,9","00,99,1,00,1,00,1,99999,9,00,1,00,1","0510,9","16,9","999,-0050,9","999,N,-0032,1","99999,9,09421,1","7,1,013,1,+999,9","00,1","SYN100AAXX  27064 08053 11962 03502 11028 21035 39421 40093 57013 60002 700// 333 21032 35105 55085 70000;","Q01  00002PRCP24Q02  00002PRCP12"
"08053099999","2010-11-27T09:00:00","4","42.5666666","-6.6","550.0","PONFERRADA, SP","FM-12","99999","V020","320,1,N,0010,1","00150,1,9,N","000800,1,N,1","-0036,1","-0036,1","10096,1",,,,"4,1,03,1","1,1,03,1","09,1,+00150,1,99,9","09,99,1,09,1,99,9,99999,9,99,9,99,9",,,,,"99999,9,09422,1","3,1,001,1,+999,9","47,1","SYN076AAXX  27094 08053 41/08 93202 11036 21036 39422 40096 53001 74741 333 89/05;",
"08053099999","2010-11-27T12:00:00","4","42.5666666","-6.6","550.0","PONFERRADA, SP","FM-12","99999","V020","270,1,N,0010,1","22000,1,9,N","006000,1,N,1","+0016,1","-0016,1","10065,1","06,0000,9,1",,,"4,1,06,1","1,1,06,1",,"01,99,1,01,1,01,1,00150,1,04,1,01,1",,,,,"99999,9,09405,1","8,1,017,1,+999,9","10,1","SYN088AAXX  27124 08053 11256 12702 10016 21016 39405 40065 58017 60001 71041 81141 333 5///3;","Q01  00002PRCP06"
"08053099999","2010-11-28T06:00:00","4","42.5666666","-6.6","550.0","PONFERRADA, SP","FM-12","99999","V020","999,9,C,0000,1","22000,1,9,N","010000,1,N,1","-0010,1","-0021,1","10065,1","12,0000,9,1","24,0000,9,1",,,,"00,1,+99999,9,99,9","00,99,1,00,1,00,1,99999,9,00,1,00,1","0360,9","14,9","999,-0030,9","999,N,-0010,1","99999,9,09399,1","3,1,005,1,+999,9","00,1","SYN100AAXX  28064 08053 11960 00000 11010 21021 39399 40065 53005 60002 700// 333 21010 34103 55060 70000;","Q01  00002PRCP24Q02  00002PRCP12"
"08053099999","2010-11-28T12:00:00","4","42.5666666","-6.6","550.0","PONFERRADA, SP","FM-12","99999","V020","290,1,N,0031,1","22000,1,9,N","028000,1,N,1","+0052,1","-0031,1","10082,1","06,0000,9,1",,,,,,"04,99,1,04,1,05,1,00450,1,00,1,00,1",,,,,"99999,9,09429,1","0,1,008,1,+999,9",,"SYN082AAXX  28124 08053 12478 42906 10052 21031 39429 40082 50008 60001 84500 333 5///3;","Q01  00002PRCP06"
"08053099999","2010-11-29T06:00:00","4","42.5666666","-6.6","550.0","PONFERRADA, SP","FM-12","99999","V020","999,9,C,0000,1","22000,1,9,N","012000,1,N,1","-0050,1","-0050,1","10078,1","12,0000,9,1","24,0000,9,1",,,,"00,1,+99999,9,99,9","00,99,1,00,1,00,1,99999,9,00,1,00,1","0390,9","16,9","999,-0070,9","999,N,-0050,1","99999,9,09401,1","7,1,015,1,+999,9","00,1","SYN100AAXX  29064 08053 11962 00000 11050 21050 39401 40078 57015 60002 700// 333 21050 35107 55065 70000;","Q01  00002PRCP24Q02  00002PRCP12"
"08053099999","2010-11-29T09:00:00","4","42.5666666","-6.6","550.0","PONFERRADA, SP","FM-12","99999","V020","150,1,N,0010,1","09000,1,9,N","015000,1,N,1","-0034,1","-0041,1","10067,1",,,,,,,"06,99,1,03,1,00,1,01250,1,04,1,02,1",,,,,"99999,9,09395,1","6,1,006,1,+999,9",,"SYN066AAXX  29094 08053 42665 61502 11034 21041 39395 40067 56006 83042;",
"08053099999","2010-11-29T12:00:00","4","42.5666666","-6.6","550.0","PONFERRADA, SP","FM-12","99999","V020","200,1,N,0005,1","00210,1,9,N","008000,1,N,1","-0010,1","-0021,1","10043,1","06,0000,9,1",,,"1,1,06,1","1,1,06,1",,"08,99,1,08,1,07,1,00250,1,99,9,99,9",,,,,"99999,9,09379,1","8,1,016,1,+999,9","10,1","SYN088AAXX  29124 08053 11358 82001 11010 21021 39379 40043 58016 60001 71011 887// 333 51113;","Q01  00002PRCP06"
"08053099999","2010-11-30T06:00:00","4","42.5666666","-6.6","550.0","PONFERRADA, SP","FM-12","99999","V020","080,1,N,0015,1","00210,1,9,N","008000,1,N,1","+0030,1","-0001,1","09961,1","12,0000,9,1","24,0000,9,1",,,,,"08,99,1,08,1,07,1,00250,1,99,9,99,9","0084,9","14,9","999,-0020,9","999,N,+0014,1","99999,9,09311,1","7,1,011,1,+999,9","10,1","SYN106AAXX  30064 08053 11358 80803 10030 21001 39311 49961 57011 60002 710// 887// 333 20014 34102 55014 70000;","Q01  00002PRCP24Q02  00002PRCP12"
"08053099999","2010-11-30T09:00:00","4","42.5666666","-6.6","550.0","PONFERRADA, SP","FM-12","99999","V020","090,1,N,0057,1","00210,1,9,N","008000,1,N,1","+0026,1","+0005,1","09963,1",,,,"6,1,03,1","2,1,03,1",,"07,99,1,05,1,07,1,00250,1,07,1,99,9",,,,,"99999,9,09312,1","3,1,001,1,+999,9","21,1","SYN072AAXX  30094 08053 41358 70911 10026 20005 39312 49963 53001 72162 8577/;",
"08053099999","2010-11-30T12:00:00","4","42.5666666","-6.6","550.0","PONFERRADA, SP","FM-12","99999","V020","280,1,N,0015,1","00210,1,9,N","008000,1,N,1","+0034,1","+0019,1","09959,1","06,0005,9,1",,,"6,1,06,1","2,1,06,1",,"08,99,1,06,1,07,1,00250,1,02,1,99,9",,,,,"99999,9,09311,1","8,1,001,1,+999,9","15,1","SYN088AAXX  30124 08053 11358 82803 10034 20019 39311 49959 58001 69951 71562 8672/ 333 5///3;",
"08053099999","2010-12-01T06:00:00","4","42.5666666","-6.6","550.0","PONFERRADA, SP","FM-12","99999","V020","170,1,N,0010,1","00120,1,9,N","004000,1,N,1","+0016,1","+0010,1","10023,1","12,0000,9,1","24,0005,9,1",,,,,"06,99,1,06,1,07,1,00150,1,00,1,00,1","0060,9","09,9","999,-0020,9","999,N,+0004,1","99999,9,09366,1","2,1,016,1,+999,9","10,1","SYN106AAXX  01064 08053 11240 61702 10016 20010 39366 40023 52016 60002 710// 86700 333 20004 31102 55010 70005;","Q01  00002PRCP12"
"08053099999","2010-12-01T09:00:00","4","42.5666666","-6.6","550.0","PONFERRADA, SP","FM-12","99999","V020","190,1,N,0005,1","03600,1,9,N","008000,1,N,1","+0022,1","+0012,1","10047,1",,,,"6,1,03,1","2,1,03,1",,"06,99,1,04,1,07,1,00250,1,07,1,01,1",,,,,"99999,9,09390,1","2,1,024,1,+999,9","15,1","SYN072AAXX  01094 08053 41358 61901 10022 20012 39390 40047 52024 71562 84771;",
"08053099999","2010-12-01T12:00:00","4","42.5666666","-6.6","550.0","PONFERRADA, SP","FM-12","99999","V020","280,1,N,0026,1","00210,1,9,N","012000,1,N,1","+0066,1","+0019,1","10053,1","06,0005,9,1",,,"6,1,06,1","2,1,06,1",,"06,99,1,05,1,07,1,00250,1,00,1,01,1",,,,,"99999,9,09406,1","1,1,016,1,+999,9","02,1","SYN088AAXX  01124 08053 11362 62805 10066 20019 39406 40053 51016 69961 70262 85701 333 50193;",
"08053099999","2010-12-02T06:00:00","4","42.5666666","-6.6","550.0","PONFERRADA, SP","FM-12","99999","V020","290,1,N,0010,1","03600,1,9,N","003000,1,N,1","+0010,1","+0000,1","10111,1","12,0005,9,1","24,0020,9,1",,,,,"07,99,1,03,1,07,1,00250,1,05,1,99,9","0186,9","14,9","999,-0020,9","999,N,-0004,1","99999,9,09447,1","5,1,000,1,+999,9","50,1","SYN106AAXX  02064 08053 11330 72902 10010 20000 39447 40111 55000 69942 750// 8375/ 333 21004 34102 55031 70020;",
"08053099999","2010-12-02T09:00:00","4","42.5666666","-6.6","550.0","PONFERRADA, SP","FM-12","99999","V020","280,1,N,0010,1","00120,1,9,N","002000,1,N,1","+0006,1","+0000,1","10130,1",,,,"7,1,03,1","5,1,03,1",,"08,99,1,08,1,07,1,00150,1,99,9,99,9",,,,,"99999,9,09464,1","3,1,017,1,+999,9","71,1","SYN072AAXX  02094 08053 41220 82802 10006 20000 39464 40130 53017 77175 887//;",
"08053099999","2010-12-02T12:00:00","4","42.5666666","-6.6","550.0","PONFERRADA, SP","FM-12","99999","V020","270,1,N,0031,1","03600,1,9,N","015000,1,N,1","+0040,1","-0008,1","10129,1","06,0005,9,1",,,"7,1,06,1","5,1,06,1",,"06,99,1,03,1,04,1,00250,1,06,1,00,1",,,,,"99999,9,09471,1","0,1,007,1,+999,9","01,1","SYN088AAXX  02124 08053 11365 62706 10040 21008 39471 40129 50007 69951 70175 83460 333 5///3;",
"08053099999","2010-12-03T06:00:00","4","42.5666666","-6.6","550.0","PONFERRADA, SP","FM-12","99999","V020","280,1,N,0010,1","03600,1,9,N","008000,1,N,1","+0000,1","-0024,1","10194,1","12,0020,9,1","24,0051,9,1","0001,9,1,999999,9,9",,,,"05,99,1,02,1,05,1,00250,1,04,1,00,1","0072,9","22,9","999,-0030,9","999,N,-0010,1","99999,9,09522,1","1,1,012,1,+999,9","10,1","SYN112AAXX  03064 08053 11358 52802 10000 21024 39522 40194 51012 60022 710// 82540 333 21010 3/103 46001 55012 70050;",
"08053099999","2010-12-03T09:00:00","4","42.5666666","-6.6","550.0","PONFERRADA, SP","FM-12","99999","V020","140,1,N,0005,1","22000,1,9,N","015000,1,N,1","+0008,1","-0021,1","10225,1",,,,,,,"03,99,1,02,1,05,1,00250,1,04,1,00,1",,,,,"99999,9,09553,1","2,1,031,1,+999,9",,"SYN066AAXX  03094 08053 42365 31401 10008 21021 39553 40225 52031 82540;",
"08053099999","2010-12-03T12:00:00","4","42.5666666","-6.6","550.0","PONFERRADA, SP","FM-12","99999","V020","290,1,N,0021,1","22000,1,9,N","020000,1,N,1","+0034,1","+0003,1","10226,1","06,0000,9,1",,,,,,"03,99,1,03,1,05,1,00450,1,00,1,00,1",,,,,"99999,9,09560,1","1,1,007,1,+999,9",,"SYN082AAXX  03124 08053 12470 32904 10034 20003 39560 40226 51007 60001 83500 333 5///3;","Q01  00002PRCP06"
"08053099999","2010-12-04T06:00:00","4","42.5666666","-6.6","550.0","PONFERRADA, SP","FM-12","99999","V020","350,1,N,0005,1","00030,1,9,N","000800,1,N,1","-0032,1","-0036,1","10229,1","12,0000,9,1","24,0000,9,1",,,,"09,1,+00030,1,99,9","09,99,1,09,1,99,9,99999,9,99,9,99,9","0330,9","16,9","999,-0060,9","999,N,-0036,1","99999,9,09547,1","2,1,009,1,+999,9","45,1","SYN106AAXX  04064 08053 11/08 93501 11032 21036 39547 40229 52009 60002 745// 333 21036 35106 55055 70000 89/01;","Q01  00002PRCP24Q02  00002PRCP12"
"08053099999","2010-12-04T09:00:00","4","42.5666666","-6.6","550.0","PONFERRADA, SP","FM-12","99999","V020","320,1,N,0010,1","00030,1,9,N","000800,1,N,1","-0038,1","-0043,1","10220,1",,,,"4,1,03,1","4,1,03,1","09,1,+00030,1,99,9","09,99,1,09,1,99,9,99999,9,99,9,99,9",,,,,"99999,9,09537,1","5,1,010,1,+999,9","45,1","SYN076AAXX  04094 08053 41/08 93202 11038 21043 39537 40220 55010 74544 333 89/01;",
"08053099999","2010-12-05T06:00:00","4","42.5666666","-6.6","550.0","PONFERRADA, SP","FM-12","99999","V020","280,1,N,0021,1","03600,1,9,N","008000,1,N,1","+0016,1","+0006,1","10099,1","12,0030,9,1","24,0033,9,1",,,,,"06,99,1,03,1,05,1,00250,1,04,1,00,1","0030,9","11,9","999,-0020,9","999,N,+0006,1","99999,9,09437,1","7,1,013,1,+999,9","10,1","SYN106AAXX  05064 08053 11358 62804 10016 20006 39437 40099 57013 60032 710// 83540 333 20006 32102 55005 70032;",
"08053099999","2010-12-05T09:00:00","4","42.5666666","-6.6","550.0","PONFERRADA, SP","FM-12","99999","V020","230,1,N,0021,1","00210,1,9,N","005000,1,N,1","+0018,1","+0012,1","10094,1",,,,"6,1,03,1","2,1,03,1",,"08,99,1,08,1,07,1,00250,1,99,9,99,9",,,,,"99999,9,09433,1","5,1,004,1,+999,9","63,1","SYN072AAXX  05094 08053 41350 82304 10018 20012 39433 40094 55004 76362 887//;",
"08053099999","2010-12-05T12:00:00","4","42.5666666","-6.6","550.0","PONFERRADA, SP","FM-12","99999","V020","220,1,N,0010,1","00120,1,9,N","001500,1,N,1","+0032,1","+0028,1","10082,1","06,0130,9,1",,,"6,1,06,1","2,1,06,1",,"08,99,1,08,1,07,1,00150,1,99,9,99,9",,,,,"99999,9,09425,1","8,1,008,1,+999,9","63,1","SYN088AAXX  05124 08053 11215 82202 10032 20028 39425 40082 58008 60131 76362 887// 333 5///3;",
"08053099999","2010-12-06T06:00:00","4","42.5666666","-6.6","550.0","PONFERRADA, SP","FM-12","99999","V020","120,1,N,0015,1","00120,1,9,N","004000,1,N,1","+0054,1","+0054,1","09983,1","12,0130,9,1","24,0353,9,1",,,,,"07,99,1,07,1,07,1,00150,1,99,9,99,9","0000,9","11,9","999,+0030,9","999,N,+0048,1","99999,9,09338,1","7,1,007,1,+999,9","21,1","SYN106AAXX  06064 08053 11240 71203 10054 20054 39338 49983 57007 60132 721/6 877// 333 20048 32003 55000 70353;",
"08053099999","2010-12-06T09:00:00","4","42.5666666","-6.6","550.0","PONFERRADA, SP","FM-12","99999","V020","320,1,N,0021,1","00060,1,9,N","000800,1,N,1","+0056,1","+0056,1","10000,1",,,,"6,1,03,1","2,1,03,1",,"08,99,1,08,1,07,1,00075,1,99,9,99,9",,,,,"99999,9,09354,1","3,1,016,1,+999,9","63,1","SYN072AAXX  06094 08053 41108 83204 10056 20056 39354 40000 53016 76362 887//;",
"08053099999","2010-12-06T12:00:00","4","42.5666666","-6.6","550.0","PONFERRADA, SP","FM-12","99999","V020","310,1,N,0021,1","00120,1,9,N","003000,1,N,1","+0082,1","+0074,1","10002,1","06,0079,9,1",,,"6,1,06,1","2,1,06,1",,"07,99,1,07,1,07,1,00150,1,99,9,99,9",,,,,"99999,9,09362,1","2,1,008,1,+999,9","21,1","SYN088AAXX  06124 08053 11230 73104 10082 20074 39362 40002 52008 60081 72162 877// 333 50033;",
"08053099999","2010-12-07T06:00:00","4","42.5666666","-6.6","550.0","PONFERRADA, SP","FM-12","99999","V020","999,9,C,0000,1","03600,1,9,N","010000,1,N,1","+0110,1","+0073,1","09976,1","12,0041,9,1","24,0122,9,1",,,,,"06,99,1,03,1,07,1,00250,1,04,1,01,1","0090,9","01,9","999,+0070,9","999,N,+0088,1","99999,9,09344,1","3,1,005,1,+999,9","02,1","SYN106AAXX  07064 08053 11360 60000 10110 20073 39344 49976 53005 60042 702/6 83741 333 20088 30007 55015 70121;",
"08053099999","2010-12-07T09:00:00","4","42.5666666","-6.6","550.0","PONFERRADA, SP","FM-12","99999","V020","200,1,N,0005,1","03600,1,9,N","015000,1,N,1","+0086,1","+0066,1","09985,1",,,,,,,"06,99,1,03,1,07,1,00250,1,07,1,00,1",,,,,"99999,9,09347,1","0,1,003,1,+999,9",,"SYN066AAXX  07094 08053 42365 62001 10086 20066 39347 49985 50003 83770;",
"08053099999","2010-12-07T12:00:00","4","42.5666666","-6.6","550.0","PONFERRADA, SP","FM-12","99999","V020","140,1,N,0010,1","00210,1,9,N","008000,1,N,1","+0104,1","+0080,1","09983,1","06,0003,9,1",,,"6,1,06,1","2,1,06,1",,"08,99,1,05,1,07,1,00250,1,07,1,99,9",,,,,"99999,9,09349,1","0,1,002,1,+999,9","21,1","SYN088AAXX  07124 08053 11358 81402 10104 20080 39349 49983 50002 69931 72162 8577/ 333 50083;",
"08053099999","2010-12-08T06:00:00","4","42.5666666","-6.6","550.0","PONFERRADA, SP","FM-12","99999","V020","240,1,N,0041,1","00210,1,9,N","010000,1,N,1","+0126,1","+0066,1","09982,1","12,0008,9,1","24,0036,9,1",,,,,"05,99,1,05,1,07,1,00250,1,00,1,00,1","0012,9","11,9","999,+0060,9","999,N,+0080,1","99999,9,09353,1","2,1,031,1,+999,9","02,1","SYN106AAXX  08064 08053 11360 52408 10126 20066 39353 49982 52031 69982 702/6 85700 333 20080 32006 55002 70036;",
"08053099999","2010-12-08T09:00:00","4","42.5666666","-6.6","550.0","PONFERRADA, SP","FM-12","99999","V020","260,1,N,0036,1","00210,1,9,N","012000,1,N,1","+0124,1","+0067,1","10032,1",,,,,,,"06,99,1,05,1,07,1,00250,1,00,1,01,1",,,,,"99999,9,09399,1","2,1,046,1,+999,9",,"SYN066AAXX  08094 08053 42362 62607 10124 20067 39399 40032 52046 85701;",
"08053099999","2010-12-08T12:00:00","4","42.5666666","-6.6","550.0","PONFERRADA, SP","FM-12","99999","V020","010,1,N,0021,1","00210,1,9,N","015000,1,N,1","+0122,1","+0075,1","10066,1","06,0000,9,1",,,"6,1,06,1","2,1,06,1",,"06,99,1,06,1,07,1,00250,1,00,1,00,1",,,,,"99999,9,09431,1","2,1,032,1,+999,9","02,1","SYN088AAXX  08124 08053 11365 60104 10122 20075 39431 40066 52032 69901 70262 86700 333 50123;","Q01  00002PRCP06"
"08053099999","2010-12-09T06:00:00","4","42.5666666","-6.6","550.0","PONFERRADA, SP","FM-12","99999","V020","100,1,N,0046,1","22000,1,9,N","010000,1,N,1","+0086,1","+0055,1","10191,1","12,0020,9,1","24,0038,9,1",,,,,"04,99,1,02,1,05,1,00250,1,04,1,00,1","0030,9","09,9","999,+0050,9","999,N,+0070,1","99999,9,09540,1","2,1,013,1,+999,9","02,1","SYN106AAXX  09064 08053 11360 41009 10086 20055 39540 40191 52013 60022 702// 82540 333 20070 31005 55005 70038;",
"08053099999","2010-12-09T09:00:00","4","42.5666666","-6.6","550.0","PONFERRADA, SP","FM-12","99999","V020","110,1,N,0036,1","03600,1,9,N","015000,1,N,1","+0096,1","+0044,1","10219,1",,,,,,,"06,99,1,02,1,05,1,00250,1,04,1,00,1",,,,,"99999,9,09568,1","2,1,028,1,+999,9",,"SYN066AAXX  09094 08053 42365 61107 10096 20044 39568 40219 52028 82540;",
"08053099999","2010-12-09T12:00:00","4","42.5666666","-6.6","550.0","PONFERRADA, SP","FM-12","99999","V020","080,1,N,0062,1","03600,1,9,N","025000,1,N,1","+0108,1","+0038,1","10225,1","06,0000,9,1",,,,,,"08,99,1,02,1,05,1,00250,1,07,1,99,9",,,,,"99999,9,09576,1","1,1,008,1,+999,9",,"SYN082AAXX  09124 08053 12375 80812 10108 20038 39576 40225 51008 60001 8257/ 333 50113;","Q01  00002PRCP06"
"08053099999","2010-12-10T06:00:00","4","42.5666666","-6.6","550.0","PONFERRADA, SP","FM-12","99999","V020","999,9,C,0000,1","22000,1,9,N","015000,1,N,1","+0050,1","+0025,1","10285,1","12,0000,9,1","24,0000,9,1",,,,"00,1,+99999,9,99,9","00,99,1,00,1,00,1,99999,9,00,1,00,1","0000,9","01,9","999,+0030,9","999,N,+0050,1","99999,9,09619,1","4,1,000,1,+999,9","00,1","SYN100AAXX  10064 08053 11965 00000 10050 20025 39619 40285 54000 60002 700// 333 20050 30003 55000 70000;","Q01  00002PRCP24Q02  00002PRCP12"
"08053099999","2010-12-10T09:00:00","4","42.5666666","-6.6","550.0","PONFERRADA, SP","FM-12","99999","V020","250,1,N,0021,1","22000,1,9,N","025000,1,N,1","+0064,1","+0036,1","10299,1",,,,,,,"04,99,1,02,1,05,1,00250,1,04,1,00,1",,,,,"99999,9,09636,1","1,1,017,1,+999,9",,"SYN066AAXX  10094 08053 42375 42504 10064 20036 39636 40299 51017 82540;",
"08053099999","2010-12-10T12:00:00","4","42.5666666","-6.6","550.0","PONFERRADA, SP","FM-12","99999","V020","240,1,N,0015,1","22000,1,9,N","030000,1,N,1","+0122,1","+0009,1","10285,1","06,0000,9,1",,,,,"00,1,+99999,9,99,9","00,99,1,00,1,00,1,99999,9,00,1,00,1",,,,,"99999,9,09635,1","8,1,001,1,+999,9",,"SYN076AAXX  10124 08053 12980 02403 10122 20009 39635 40285 58001 60001 333 50303;","Q01  00002PRCP06"
"08053099999","2010-12-11T06:00:00","4","42.5666666","-6.6","550.0","PONFERRADA, SP","FM-12","99999","V020","280,1,N,0026,1","22000,1,9,N","015000,1,N,1","+0054,1","+0045,1","10257,1","12,0000,9,1","24,0000,9,1",,,,"00,1,+99999,9,99,9","00,99,1,00,1,00,1,99999,9,00,1,00,1","0444,9","01,9","999,+0030,9","999,N,+0054,1","99999,9,09594,1","8,1,011,1,+999,9","00,1","SYN100AAXX  11064 08053 11965 02805 10054 20045 39594 40257 58011 60002 700// 333 20054 30003 55074 70000;","Q01  00002PRCP24Q02  00002PRCP12"
"08053099999","2010-12-11T09:00:00","4","42.5666666","-6.6","550.0","PONFERRADA, SP","FM-12","99999","V020","320,1,N,0010,1","99999,9,9,N","018000,1,N,1","+0054,1","+0050,1","10259,1",,,,,,,"06,99,1,00,1,00,1,99999,9,00,1,01,1",,,,,"99999,9,09596,1","3,1,002,1,+999,9",,"SYN066AAXX  11094 08053 42868 63202 10054 20050 39596 40259 53002 80001;","Q01+022502SCOLCB"
"08053099999","2010-12-12T06:00:00","4","42.5666666","-6.6","550.0","PONFERRADA, SP","FM-12","99999","V020","999,9,C,0000,1","09000,1,9,N","006000,1,N,1","+0048,1","+0044,1","10191,1","12,0000,9,1","24,0000,9,1",,,,,"07,99,1,04,1,00,1,01750,1,07,1,02,1","0192,9","01,9","999,+0030,9","999,N,+0048,1","99999,9,09531,1","7,1,012,1,+999,9","10,1","SYN106AAXX  12064 08053 11756 70000 10048 20044 39531 40191 57012 60002 710// 84072 333 20048 30003 55032 70000;","Q01  00002PRCP24Q02  00002PRCP12"
"08053099999","2010-12-12T09:00:00","4","42.5666666","-6.6","550.0","PONFERRADA, SP","FM-12","99999","V020","320,1,N,0010,1","22000,1,9,N","010000,1,N,1","+0060,1","+0046,1","10192,1",,,,,,,"07,99,1,04,1,00,1,01250,1,07,1,01,1",,,,,"99999,9,09535,1","0,1,004,1,+999,9",,"SYN066AAXX  12094 08053 42660 73202 10060 20046 39535 40192 50004 84071;",
"08053099999","2010-12-12T12:00:00","4","42.5666666","-6.6","550.0","PONFERRADA, SP","FM-12","99999","V020","290,1,N,0015,1","03600,1,9,N","012000,1,N,1","+0104,1","+0054,1","10173,1","06,0000,9,1",,,,,,"07,99,1,01,1,01,1,00800,1,04,1,01,1",,,,,"99999,9,09527,1","8,1,008,1,+999,9",,"SYN082AAXX  12124 08053 12562 72903 10104 20054 39527 40173 58008 60001 81141 333 50243;","Q01  00002PRCP06"
"08053099999","2010-12-13T06:00:00","4","42.5666666","-6.6","550.0","PONFERRADA, SP","FM-12","99999","V020","999,9,C,0000,1","00060,1,9,N","000200,1,N,1","+0030,1","+0030,1","10167,1","12,0000,9,1","24,0000,9,1",,,,"09,1,+00060,1,99,9","09,99,1,09,1,99,9,99999,9,99,9,99,9","0240,9","09,9","999,+0010,9","999,N,+0030,1","99999,9,09504,1","5,1,000,1,+999,9","47,1","SYN106AAXX  13064 08053 11/02 90000 10030 20030 39504 40167 55000 60002 747/4 333 20030 31001 55040 70000 89/02;","Q01  00002PRCP24Q02  00002PRCP12"
"08053099999","2010-12-13T12:00:00","4","42.5666666","-6.6","550.0","PONFERRADA, SP","FM-12","99999","V020","999,9,C,0000,1","22000,1,9,N","000800,1,N,1","+0054,1","+0045,1","10171,1","06,0000,9,1",,,"4,1,06,1","4,1,06,1","00,1,+99999,9,99,9","00,99,1,00,1,00,1,99999,9,00,1,00,1",,,,,"99999,9,09514,1","8,1,002,1,+999,9","42,1","SYN082AAXX  13124 08053 11908 00000 10054 20045 39514 40171 58002 60001 74244 333 50073;","Q01  00002PRCP06"
"08053099999","2010-12-14T06:00:00","4","42.5666666","-6.6","550.0","PONFERRADA, SP","FM-12","99999","V020","160,1,N,0005,1","00030,1,9,N","000800,1,N,1","+0018,1","+0012,1","10239,1","12,0000,9,1","24,0000,9,1",,,,"09,1,+00030,1,99,9","09,99,1,09,1,99,9,99999,9,99,9,99,9","0252,9","09,9","999,+0000,9","999,N,+0014,1","99999,9,09569,1","2,1,016,1,+999,9","45,1","SYN106AAXX  14064 08053 11/08 91601 10018 20012 39569 40239 52016 60002 745// 333 20014 31000 55042 70000 89/01;","Q01  00002PRCP24Q02  00002PRCP12"
"08053099999","2010-12-14T09:00:00","4","42.5666666","-6.6","550.0","PONFERRADA, SP","FM-12","99999","V020","130,1,N,0010,1","00030,1,9,N","000800,1,N,1","+0020,1","+0014,1","10265,1",,,,"4,1,03,1","4,1,03,1","09,1,+00030,1,99,9","09,99,1,09,1,99,9,99999,9,99,9,99,9",,,,,"99999,9,09593,1","2,1,024,1,+999,9","45,1","SYN076AAXX  14094 08053 41/08 91302 10020 20014 39593 40265 52024 74544 333 89/01;",
"08053099999","2010-12-14T12:00:00","4","42.5666666","-6.6","550.0","PONFERRADA, SP","FM-12","99999","V020","100,1,N,0015,1","00030,1,9,N","000800,1,N,1","+0030,1","+0026,1","10277,1","06,0000,9,1",,,"4,1,06,1","4,1,06,1","09,1,+00030,1,99,9","09,99,1,09,1,99,9,99999,9,99,9,99,9",,,,,"99999,9,09607,1","1,1,014,1,+999,9","45,1","SYN088AAXX  14124 08053 11/08 91003 10030 20026 39607 40277 51014 60001 74544 333 50023 89/01;","Q01  00002PRCP06"
"08053099999","2010-12-15T06:00:00","4","42.5666666","-6.6","550.0","PONFERRADA, SP","FM-12","99999","V020","330,1,N,0015,1","00120,1,9,N","002000,1,N,1","-0002,1","-0013,1","10333,1","12,0000,9,1","24,0000,9,1",,,,,"07,99,1,07,1,07,1,00150,1,99,9,99,9","0000,9","14,9","999,-0020,9","999,N,-0002,1","99999,9,09651,1","3,1,005,1,+999,9","10,1","SYN106AAXX  15064 08053 11220 73303 11002 21013 39651 40333 53005 60002 710// 877// 333 21002 34102 55000 70000;","Q01  00002PRCP24Q02  00002PRCP12"
"08053099999","2010-12-15T09:00:00","4","42.5666666","-6.6","550.0","PONFERRADA, SP","FM-12","99999","V020","340,1,N,0005,1","00120,1,9,N","002000,1,N,1","-0002,1","-0013,1","10343,1",,,,"2,1,03,1","2,1,03,1",,"08,99,1,08,1,07,1,00150,1,99,9,99,9",,,,,"99999,9,09661,1","2,1,010,1,+999,9","10,1","SYN072AAXX  15094 08053 41220 83401 11002 21013 39661 40343 52010 71022 887//;",
"08053099999","2010-12-15T12:00:00","4","42.5666666","-6.6","550.0","PONFERRADA, SP","FM-12","99999","V020","260,1,N,0021,1","00120,1,9,N","002000,1,N,1","+0012,1","-0022,1","10331,1","06,0000,9,1",,,"2,1,06,1","2,1,06,1",,"07,99,1,07,1,07,1,00150,1,99,9,99,9",,,,,"99999,9,09653,1","8,1,008,1,+999,9","05,1","SYN088AAXX  15124 08053 11220 72604 10012 21022 39653 40331 58008 60001 70522 877// 333 50013;","Q01  00002PRCP06"
"08053099999","2010-12-16T06:00:00","4","42.5666666","-6.6","550.0","PONFERRADA, SP","FM-12","99999","V020","120,1,N,0005,1","22000,1,9,N","010000,1,N,1","-0044,1","-0051,1","10305,1","12,0000,9,1","24,0000,9,1",,,,"00,1,+99999,9,99,9","00,99,1,00,1,00,1,99999,9,00,1,00,1","0264,9","12,9","999,-0060,9","999,N,-0044,1","99999,9,09615,1","8,1,011,1,+999,9","00,1","SYN100AAXX  16064 08053 11960 01201 11044 21051 39615 40305 58011 60002 700// 333 21044 33106 55044 70000;","Q01  00002PRCP24Q02  00002PRCP12"
"08053099999","2010-12-16T09:00:00","4","42.5666666","-6.6","550.0","PONFERRADA, SP","FM-12","99999","V020","150,1,N,0005,1","22000,1,9,N","012000,1,N,1","-0020,1","-0039,1","10305,1",,,,,,"00,1,+99999,9,99,9","00,99,1,00,1,00,1,99999,9,00,1,00,1",,,,,"99999,9,09621,1","3,1,006,1,+999,9",,"SYN060AAXX  16094 08053 42962 01501 11020 21039 39621 40305 53006;",
"08053099999","2010-12-16T12:00:00","4","42.5666666","-6.6","550.0","PONFERRADA, SP","FM-12","99999","V020","290,1,N,0010,1","22000,1,9,N","025000,1,N,1","+0014,1","-0046,1","10276,1","06,0000,9,1",,,,,"00,1,+99999,9,99,9","00,99,1,00,1,00,1,99999,9,00,1,00,1",,,,,"99999,9,09602,1","8,1,019,1,+999,9",,"SYN076AAXX  16124 08053 12975 02902 10014 21046 39602 40276 58019 60001 333 5///3;","Q01  00002PRCP06"
"08053099999","2010-12-17T06:00:00","4","42.5666666","-6.6","550.0","PONFERRADA, SP","FM-12","99999","V020","320,1,N,0010,1","00210,1,9,N","012000,1,N,1","-0036,1","-0049,1","10181,1","12,0000,9,1","24,0000,9,1",,,,,"06,99,1,06,1,07,1,00250,1,00,1,00,1","0486,9","16,9","999,-0070,9","999,N,-0052,1","99999,9,09501,1","8,1,020,1,+999,9","02,1","SYN106AAXX  17064 08053 11362 63202 11036 21049 39501 40181 58020 60002 702// 86700 333 21052 35107 55081 70000;","Q01  00002PRCP24Q02  00002PRCP12"
"08053099999","2010-12-17T09:00:00","4","42.5666666","-6.6","550.0","PONFERRADA, SP","FM-12","99999","V020","340,1,N,0010,1","00210,1,9,N","010000,1,N,1","-0018,1","-0037,1","10153,1",,,,"7,1,03,1","7,1,03,1",,"07,99,1,07,1,07,1,00250,1,99,9,99,9",,,,,"99999,9,09479,1","6,1,022,1,+999,9","22,1","SYN072AAXX  17094 08053 41360 73402 11018 21037 39479 40153 56022 72277 877//;",
"08053099999","2010-12-17T12:00:00","4","42.5666666","-6.6","550.0","PONFERRADA, SP","FM-12","99999","V020","010,1,N,0010,1","00210,1,9,N","015000,1,N,1","+0016,1","-0011,1","10113,1","06,0000,2,1",,,"7,1,06,1","2,1,06,1",,"08,99,1,07,1,07,1,00250,1,02,1,99,9",,,,,"99999,9,09450,1","8,1,029,1,+999,9","03,1","SYN088AAXX  17124 08053 11365 80102 10016 21011 39450 40113 58029 69901 70372 8772/ 333 5///3;",
"08053099999","2010-12-18T06:00:00","4","42.5666666","-6.6","550.0","PONFERRADA, SP","FM-12","99999","V020","130,1,N,0015,1","00030,1,9,N","000800,1,N,1","+0004,1","-0002,1","10052,1","12,0000,9,1","24,0000,2,1",,,,"09,1,+00030,1,99,9","09,99,1,09,1,99,9,99999,9,99,9,99,9","0066,9","14,9","999,-0030,9","999,N,-0010,1","99999,9,09390,1","8,1,007,1,+999,9","45,1","SYN106AAXX  18064 08053 11/08 91303 10004 21002 39390 40052 58007 60002 745// 333 21010 34103 55011 79999 89/01;","Q01  00002PRCP12"
"08053099999","2010-12-18T09:00:00","4","42.5666666","-6.6","550.0","PONFERRADA, SP","FM-12","99999","V020","260,1,N,0010,1","00030,1,9,N","000800,1,N,1","+0004,1","-0002,1","10055,1",,,,"4,1,03,1","4,1,03,1","09,1,+00030,1,99,9","09,99,1,09,1,99,9,99999,9,99,9,99,9",,,,,"99999,9,09393,1","3,1,003,1,+999,9","45,1","SYN076AAXX  18094 08053 41/08 92602 10004 21002 39393 40055 53003 74544 333 89/01;",
"08053099999","2010-12-18T12:00:00","4","42.5666666","-6.6","550.0","PONFERRADA, SP","FM-12","99999","V020","300,1,N,0021,1","00420,1,9,N","008000,1,N,1","+0018,1","-0009,1","10045,1","06,0000,9,1",,,"4,1,06,1","2,1,06,1",,"07,99,1,07,1,07,1,00450,1,99,9,99,9",,,,,"99999,9,09387,1","8,1,006,1,+999,9","10,1","SYN088AAXX  18124 08053 11458 73004 10018 21009 39387 40045 58006 60001 71042 877// 333 5///3;","Q01  00002PRCP06"
"08053099999","2010-12-19T06:00:00","4","42.5666666","-6.6","550.0","PONFERRADA, SP","FM-12","99999","V020","999,9,C,0000,1","03600,1,9,N","010000,1,N,1","-0050,1","-0057,1","10052,1","12,0000,9,1","24,0000,9,1",,,,,"06,99,1,02,1,05,1,00250,1,04,1,00,1","0210,9","16,9","999,-0070,9","999,N,-0052,1","99999,9,09377,1","3,1,007,1,+999,9","02,1","SYN106AAXX  19064 08053 11360 60000 11050 21057 39377 40052 53007 60002 702// 82540 333 21052 35107 55035 70000;","Q01  00002PRCP24Q02  00002PRCP12"
"08053099999","2010-12-19T09:00:00","4","42.5666666","-6.6","550.0","PONFERRADA, SP","FM-12","99999","V020","140,1,N,0010,1","00030,1,9,N","000800,1,N,1","-0040,1","-0045,1","10074,1",,,,"4,1,03,1","2,1,03,1","09,1,+00030,1,99,9","09,99,1,09,1,99,9,99999,9,99,9,99,9",,,,,"99999,9,09400,1","2,1,023,1,+999,9","45,1","SYN076AAXX  19094 08053 41/08 91402 11040 21045 39400 40074 52023 74542 333 89/01;",
"08053099999","2010-12-19T12:00:00","4","42.5666666","-6.6","550.0","PONFERRADA, SP","FM-12","99999","V020","140,1,N,0010,1","03600,1,9,N","002000,1,N,1","-0014,1","-0021,1","10081,1","06,0000,9,1",,,"4,1,06,1","2,1,06,1",,"06,99,1,02,1,07,1,00150,1,06,1,00,1",,,,,"99999,9,09413,1","0,1,013,1,+999,9","10,1","SYN088AAXX  19124 08053 11220 61402 11014 21021 39413 40081 50013 60001 71042 82760 333 5///3;","Q01  00002PRCP06"
"08053099999","2010-12-20T06:00:00","4","42.5666666","-6.6","550.0","PONFERRADA, SP","FM-12","99999","V020","280,1,N,0015,1","03600,1,9,N","005000,1,N,1","+0018,1","+0012,1","10094,1","12,0000,9,1","24,0000,9,1",,,,,"06,99,1,02,1,07,1,00250,1,04,1,00,1","0036,9","14,9","999,-0020,9","999,N,+0008,1","99999,9,09433,1","5,1,000,1,+999,9","10,1","SYN106AAXX  20064 08053 11350 62803 10018 20012 39433 40094 55000 60002 710// 82740 333 20008 34102 55006 70000;","Q01  00002PRCP24Q02  00002PRCP12"
"08053099999","2010-12-20T09:00:00","4","42.5666666","-6.6","550.0","PONFERRADA, SP","FM-12","99999","V020","999,9,C,0000,1","00210,1,9,N","005000,1,N,1","+0022,1","+0012,1","10099,1",,,,"5,1,03,1","2,1,03,1",,"08,99,1,08,1,07,1,00250,1,99,9,99,9",,,,,"99999,9,09439,1","3,1,006,1,+999,9","51,1","SYN072AAXX  20094 08053 41350 80000 10022 20012 39439 40099 53006 75152 887//;",
"08053099999","2010-12-20T12:00:00","4","42.5666666","-6.6","550.0","PONFERRADA, SP","FM-12","99999","V020","250,1,N,0005,1","00210,1,9,N","002000,1,N,1","+0046,1","+0026,1","10091,1","06,0000,2,1",,,"5,1,06,1","2,1,06,1",,"08,99,1,08,1,07,1,00250,1,99,9,99,9",,,,,"99999,9,09437,1","8,1,002,1,+999,9","50,1","SYN088AAXX  20124 08053 11320 82501 10046 20026 39437 40091 58002 60001 75052 887// 333 5///3;",
"08053099999","2010-12-21T06:00:00","4","42.5666666","-6.6","550.0","PONFERRADA, SP","FM-12","99999","V020","100,1,N,0051,1","03600,1,9,N","008000,1,N,1","+0048,1","+0030,1","09975,1","12,0051,9,1","24,0058,9,1",,,,,"08,99,1,04,1,07,1,00250,1,07,1,99,9","0000,9","09,9","999,+0030,9","999,N,+0048,1","99999,9,09329,1","6,1,011,1,+999,9","21,1","SYN106AAXX  21064 08053 11358 81010 10048 20030 39329 49975 56011 60052 721// 8477/ 333 20048 31003 55000 70058;",
"08053099999","2010-12-21T09:00:00","4","42.5666666","-6.6","550.0","PONFERRADA, SP","FM-12","99999","V020","260,1,N,0015,1","00210,1,9,N","003000,1,N,1","+0044,1","+0035,1","09976,1",,,,"6,1,03,1","2,1,03,1",,"08,99,1,08,1,07,1,00250,1,99,9,99,9",,,,,"99999,9,09329,1","5,1,000,1,+999,9","60,1","SYN072AAXX  21094 08053 41330 82603 10044 20035 39329 49976 55000 76062 887//;",
"08053099999","2010-12-21T12:00:00","4","42.5666666","-6.6","550.0","PONFERRADA, SP","FM-12","99999","V020","999,9,C,0000,1","00210,1,9,N","002000,1,N,1","+0048,1","+0039,1","09976,1","06,0041,9,1",,,"6,1,06,1","2,1,06,1",,"08,99,1,08,1,07,1,00250,1,99,9,99,9",,,,,"99999,9,09330,1","1,1,001,1,+999,9","63,1","SYN088AAXX  21124 08053 11320 80000 10048 20039 39330 49976 51001 60041 76362 887// 333 50523;",
"08053099999","2010-12-22T06:00:00","4","42.5666666","-6.6","550.0","PONFERRADA, SP","FM-12","99999","V020","999,9,C,0000,1","03600,1,9,N","005000,1,N,1","+0050,1","+0041,1","09915,1","12,0030,9,1","24,0097,9,1",,,,,"06,99,1,03,1,07,1,00250,1,07,1,99,9","0000,9","11,9","999,+0030,9","999,N,+0050,1","99999,9,09273,1","7,1,020,1,+999,9","10,1","SYN106AAXX  22064 08053 11350 60000 10050 20041 39273 49915 57020 60032 710// 8377/ 333 20050 32003 55000 70097;",
"08053099999","2010-12-22T09:00:00","4","42.5666666","-6.6","550.0","PONFERRADA, SP","FM-12","99999","V020","210,1,N,0010,1","00120,1,9,N","002000,1,N,1","+0054,1","+0045,1","09917,1",,,,"6,1,03,1","2,1,03,1",,"08,99,1,08,1,07,1,00150,1,99,9,99,9",,,,,"99999,9,09276,1","0,1,003,1,+999,9","63,1","SYN072AAXX  22094 08053 41220 82102 10054 20045 39276 49917 50003 76362 887//;",
"08053099999","2010-12-22T12:00:00","4","42.5666666","-6.6","550.0","PONFERRADA, SP","FM-12","99999","V020","280,1,N,0015,1","00060,1,9,N","001000,1,N,1","+0064,1","+0060,1","09921,1","06,0041,9,1",,,"6,1,06,1","2,1,06,1",,"08,99,1,08,1,07,1,00075,1,99,9,99,9",,,,,"99999,9,09282,1","0,1,006,1,+999,9","61,1","SYN088AAXX  22124 08053 11110 82803 10064 20060 39282 49921 50006 60041 76162 887// 333 50053;",
"08053099999","2010-12-23T06:00:00","4","42.5666666","-6.6","550.0","PONFERRADA, SP","FM-12","99999","V020","240,1,N,0026,1","00210,1,9,N","008000,1,N,1","+0044,1","+0004,1","10022,1","12,0000,9,1","24,0038,9,1",,,,,"07,99,1,07,1,07,1,00250,1,99,9,99,9","0000,9","09,9","999,+0020,9","999,N,+0044,1","99999,9,09372,1","2,1,027,1,+999,9","10,1","SYN106AAXX  23064 08053 11358 72405 10044 20004 39372 40022 52027 69902 710// 877// 333 20044 31002 55000 70038;","Q01  00002PRCP12"
"08053099999","2010-12-23T09:00:00","4","42.5666666","-6.6","550.0","PONFERRADA, SP","FM-12","99999","V020","250,1,N,0015,1","00210,1,9,N","006000,1,N,1","+0036,1","+0000,1","10063,1",,,,"6,1,03,1","2,1,03,1",,"08,99,1,08,1,07,1,00250,1,99,9,99,9",,,,,"99999,9,09408,1","2,1,036,1,+999,9","60,1","SYN072AAXX  23094 08053 41356 82503 10036 20000 39408 40063 52036 76062 887//;",
"08053099999","2010-12-23T12:00:00","4","42.5666666","-6.6","550.0","PONFERRADA, SP","FM-12","99999","V020","290,1,N,0041,1","00210,1,9,N","010000,1,N,1","+0048,1","+0002,1","10081,1","06,0000,2,1",,,"6,1,06,1","2,1,06,1",,"08,99,1,07,1,07,1,00250,1,02,1,99,9",,,,,"99999,9,09428,1","1,1,020,1,+999,9","02,1","SYN088AAXX  23124 08053 11360 82908 10048 20002 39428 40081 51020 69901 70262 8772/ 333 50083;",
"08053099999","2010-12-24T06:00:00","4","42.5666666","-6.6","550.0","PONFERRADA, SP","FM-12","99999","V020","300,1,N,0015,1","03600,1,9,N","012000,1,N,1","+0018,1","-0021,1","10190,1","12,0000,9,1","24,0000,2,1",,,,,"06,99,1,04,1,07,1,00250,1,04,1,00,1","0054,9","14,9","999,-0030,9","999,N,-0012,1","99999,9,09522,1","1,1,003,1,+999,9","02,1","SYN106AAXX  24064 08053 11362 63003 10018 21021 39522 40190 51003 60002 702// 84740 333 21012 34103 55009 79999;","Q01  00002PRCP12"
"08053099999","2010-12-24T09:00:00","4","42.5666666","-6.6","550.0","PONFERRADA, SP","FM-12","99999","V020","999,9,C,0000,1","22000,1,9,N","015000,1,N,1","+0004,1","-0007,1","10206,1",,,,,,,"03,99,1,02,1,07,1,00250,1,04,1,01,1",,,,,"99999,9,09534,1","1,1,012,1,+999,9",,"SYN066AAXX  24094 08053 42365 30000 10004 21007 39534 40206 51012 82741;",
"08053099999","2010-12-24T12:00:00","4","42.5666666","-6.6","550.0","PONFERRADA, SP","FM-12","99999","V020","280,1,N,0021,1","03600,1,9,N","025000,1,N,1","+0056,1","-0018,1","10192,1","06,0000,9,1",,,,,,"06,99,1,02,1,07,1,00450,1,04,1,01,1",,,,,"99999,9,09533,1","8,1,001,1,+999,9",,"SYN082AAXX  24124 08053 12475 62804 10056 21018 39533 40192 58001 60001 82741 333 5///3;","Q01  00002PRCP06"
"08053099999","2010-12-25T06:00:00","4","42.5666666","-6.6","550.0","PONFERRADA, SP","FM-12","99999","V020","999,9,C,0000,1","22000,1,9,N","010000,1,N,1","-0022,1","-0035,1","10220,1","12,0000,9,1","24,0000,9,1",,,,,"02,99,1,01,1,00,1,01750,1,04,1,01,1","0300,9","14,9","999,-0050,9","999,N,-0026,1","99999,9,09541,1","3,1,004,1,+999,9","02,1","SYN106AAXX  25064 08053 11760 20000 11022 21035 39541 40220 53004 60002 702// 81041 333 21026 34105 55050 70000;","Q01  00002PRCP24Q02  00002PRCP12"
"08053099999","2010-12-25T09:00:00","4","42.5666666","-6.6","550.0","PONFERRADA, SP","FM-12","99999","V020","999,9,C,0000,1","22000,1,9,N","012000,1,N,1","-0012,1","-0018,1","10230,1",,,,,,,"02,99,1,01,1,00,1,01750,1,04,1,01,1",,,,,"99999,9,09553,1","2,1,012,1,+999,9",,"SYN066AAXX  25094 08053 42762 20000 11012 21018 39553 40230 52012 81041;",
"08053099999","2010-12-25T12:00:00","4","42.5666666","-6.6","550.0","PONFERRADA, SP","FM-12","99999","V020","240,1,N,0010,1","22000,1,9,N","022000,1,N,1","+0024,1","-0027,1","10228,1","06,0000,9,1",,,,,,"01,99,1,01,1,00,1,01750,1,04,1,01,1",,,,,"99999,9,09559,1","0,1,006,1,+999,9",,"SYN082AAXX  25124 08053 12772 12402 10024 21027 39559 40228 50006 60001 81041 333 5///3;","Q01  00002PRCP06"
"08053099999","2010-12-26T06:00:00","4","42.5666666","-6.6","550.0","PONFERRADA, SP","FM-12","99999","V020","150,1,N,0010,1","22000,1,9,N","015000,1,N,1","-0046,1","-0053,1","10279,1","12,0000,9,1","24,0000,9,1",,,,"00,1,+99999,9,99,9","00,99,1,00,1,00,1,99999,9,00,1,00,1","0300,9","16,9","999,-0070,9","999,N,-0050,1","99999,9,09590,1","5,1,000,1,+999,9","00,1","SYN100AAXX  26064 08053 11965 01502 11046 21053 39590 40279 55000 60002 700// 333 21050 35107 55050 70000;","Q01  00002PRCP24Q02  00002PRCP12"
"08053099999","2010-12-26T09:00:00","4","42.5666666","-6.6","550.0","PONFERRADA, SP","FM-12","99999","V020","999,9,C,0000,1","99999,9,9,N","025000,1,N,1","-0034,1","-0047,1","10288,1",,,,,,,"06,99,1,00,1,00,1,99999,9,00,1,02,1",,,,,"99999,9,09601,1","2,1,011,1,+999,9",,"SYN066AAXX  26094 08053 42975 60000 11034 21047 39601 40288 52011 80002;",
"08053099999","2010-12-26T12:00:00","4","42.5666666","-6.6","550.0","PONFERRADA, SP","FM-12","99999","V020","260,1,N,0010,1","99999,9,9,N","028000,1,N,1","+0014,1","-0040,1","10265,1","06,0000,9,1",,,,,,"06,99,1,00,1,00,1,99999,9,00,1,01,1",,,,,"99999,9,09591,1","8,1,010,1,+999,9",,"SYN082AAXX  26124 08053 12978 62602 10014 21040 39591 40265 58010 60001 80001 333 5///3;","Q01  00002PRCP06"
"08053099999","2010-12-27T06:00:00","4","42.5666666","-6.6","550.0","PONFERRADA, SP","FM-12","99999","V020","999,9,C,0000,1","09000,1,9,N","012000,1,N,1","-0026,1","-0045,1","10219,1","12,0000,9,1","24,0000,9,1",,,,,"06,99,1,03,1,00,1,01750,1,04,1,02,1","0480,9","14,9","999,-0050,9","999,N,-0030,1","99999,9,09539,1","6,1,008,1,+999,9","02,1","SYN106AAXX  27064 08053 11762 60000 11026 21045 39539 40219 56008 60002 702// 83042 333 21030 34105 55080 70000;","Q01  00002PRCP24Q02  00002PRCP12"
"08053099999","2010-12-27T09:00:00","4","42.5666666","-6.6","550.0","PONFERRADA, SP","FM-12","99999","V020","320,1,N,0021,1","03600,1,9,N","025000,1,N,1","-0012,1","-0037,1","10212,1",,,,,,,"07,99,1,01,1,07,1,00450,1,04,1,02,1",,,,,"99999,9,09536,1","5,1,003,1,+999,9",,"SYN066AAXX  27094 08053 42475 73204 11012 21037 39536 40212 55003 81742;",
"08053099999","2010-12-27T12:00:00","4","42.5666666","-6.6","550.0","PONFERRADA, SP","FM-12","99999","V020","230,1,N,0005,1","09000,1,9,N","022000,1,N,1","+0028,1","-0035,1","10204,1","06,0000,9,1",,,,,,"05,99,1,01,1,07,1,00450,1,04,1,01,1",,,,,"99999,9,09538,1","0,1,002,1,+999,9",,"SYN082AAXX  27124 08053 12472 52301 10028 21035 39538 40204 50002 60001 81741 333 5///3;","Q01  00002PRCP06"
"08053099999","2010-12-28T06:00:00","4","42.5666666","-6.6","550.0","PONFERRADA, SP","FM-12","99999","V020","999,9,C,0000,1","00210,1,9,N","005000,1,N,1","+0024,1","+0018,1","10214,1","12,0020,9,1","24,0025,9,1",,,,,"08,99,1,08,1,07,1,00250,1,99,9,99,9","0054,9","09,9","999,+0000,9","999,N,+0022,1","99999,9,09547,1","6,1,005,1,+999,9","21,1","SYN106AAXX  28064 08053 11350 80000 10024 20018 39547 40214 56005 60022 721// 887// 333 20022 31000 55009 70025;",
"08053099999","2010-12-28T09:00:00","4","42.5666666","-6.6","550.0","PONFERRADA, SP","FM-12","99999","V020","300,1,N,0005,1","00210,1,9,N","002000,1,N,1","+0030,1","+0026,1","10210,1",,,,"2,1,03,1","2,1,03,1",,"08,99,1,08,1,07,1,00250,1,99,9,99,9",,,,,"99999,9,09544,1","6,1,003,1,+999,9","10,1","SYN072AAXX  28094 08053 41320 83001 10030 20026 39544 40210 56003 71022 887//;",
"08053099999","2010-12-28T12:00:00","4","42.5666666","-6.6","550.0","PONFERRADA, SP","FM-12","99999","V020","280,1,N,0010,1","03600,1,9,N","005000,1,N,1","+0058,1","+0030,1","10202,1","06,0000,2,1",,,"2,1,06,1","2,1,06,1",,"06,99,1,04,1,07,1,00250,1,04,1,00,1",,,,,"99999,9,09543,1","8,1,001,1,+999,9","10,1","SYN088AAXX  28124 08053 11350 62802 10058 20030 39543 40202 58001 60001 71022 84740 333 5///3;",
"08053099999","2010-12-29T06:00:00","4","42.5666666","-6.6","550.0","PONFERRADA, SP","FM-12","99999","V020","999,9,C,0000,1","03600,1,9,N","006000,1,N,1","+0022,1","+0022,1","10171,1","12,0000,9,1","24,0000,2,1",,,,,"05,99,1,02,1,07,1,00250,1,04,1,00,1","0084,9","09,9","999,+0000,9","999,N,+0022,1","99999,9,09506,1","7,1,009,1,+999,9","10,1","SYN106AAXX  29064 08053 11356 50000 10022 20022 39506 40171 57009 60002 710// 82740 333 20022 31000 55014 70000;","Q01  00002PRCP12"
"08053099999","2010-12-29T09:00:00","4","42.5666666","-6.6","550.0","PONFERRADA, SP","FM-12","99999","V020","210,1,N,0015,1","00210,1,9,N","008000,1,N,1","+0040,1","+0036,1","10166,1",,,,"2,1,03,1","2,1,03,1",,"08,99,1,08,1,07,1,00250,1,99,9,99,9",,,,,"99999,9,09506,1","0,1,000,1,+999,9","10,1","SYN072AAXX  29094 08053 41358 82103 10040 20036 39506 40166 50000 71022 887//;",
"08053099999","2010-12-29T12:00:00","4","42.5666666","-6.6","550.0","PONFERRADA, SP","FM-12","99999","V020","310,1,N,0015,1","03600,1,9,N","010000,1,N,1","+0060,1","+0046,1","10162,1","06,0000,9,1",,,,,,"08,99,1,04,1,07,1,00250,1,07,1,99,9",,,,,"99999,9,09507,1","0,1,001,1,+999,9",,"SYN082AAXX  29124 08053 12360 83103 10060 20046 39507 40162 50001 60001 8477/ 333 50633;","Q01  00002PRCP06"
"08053099999","2010-12-30T06:00:00","4","42.5666666","-6.6","550.0","PONFERRADA, SP","FM-12","99999","V020","120,1,N,0067,1","00210,1,9,N","012000,1,N,1","+0102,1","+0035,1","10106,1","12,0000,9,1","24,0003,9,1",,,,,"08,99,1,08,1,07,1,00250,1,99,9,99,9","0024,9","01,9","999,+0030,9","999,N,+0050,1","99999,9,09463,1","5,1,012,1,+999,9","02,1","SYN106AAXX  30064 08053 11362 81213 10102 20035 39463 40106 55012 69902 702// 887// 333 20050 30003 55004 70002;","Q01  00002PRCP12"
"08053099999","2010-12-30T09:00:00","4","42.5666666","-6.6","550.0","PONFERRADA, SP","FM-12","99999","V020","100,1,N,0051,1","00210,1,9,N","010000,1,N,1","+0100,1","+0028,1","10116,1",,,,,,,"08,99,1,06,1,07,1,00250,1,07,1,99,9",,,,,"99999,9,09472,1","3,1,009,1,+999,9",,"SYN066AAXX  30094 08053 42360 81010 10100 20028 39472 40116 53009 8677/;",
"08053099999","2010-12-30T12:00:00","4","42.5666666","-6.6","550.0","PONFERRADA, SP","FM-12","99999","V020","090,1,N,0057,1","00210,1,9,N","012000,1,N,1","+0106,1","+0036,1","10108,1","06,0000,9,1",,,,,,"07,99,1,05,1,07,1,00250,1,07,1,99,9",,,,,"99999,9,09466,1","8,1,006,1,+999,9",,"SYN082AAXX  30124 08053 12362 70911 10106 20036 39466 40108 58006 60001 8577/ 333 50213;","Q01  00002PRCP06"
"08053099999","2010-12-31T06:00:00","4","42.5666666","-6.6","550.0","PONFERRADA, SP","FM-12","99999","V020","320,1,N,0010,1","00210,1,9,N","006000,1,N,1","+0066,1","+0057,1","10147,1","12,0000,9,1","24,0000,9,1",,,,,"07,99,1,05,1,07,1,00250,1,07,1,99,9","0090,9","01,9","999,+0040,9","999,N,+0066,1","99999,9,09494,1","2,1,007,1,+999,9","10,1","SYN106AAXX  31064 08053 11356 73202 10066 20057 39494 40147 52007 60002 710// 8577/ 333 20066 30004 55015 70000;","Q01  00002PRCP24Q02  00002PRCP12"
"08053099999","2010-12-31T09:00:00","4","42.5666666","-6.6","550.0","PONFERRADA, SP","FM-12","99999","V020","060,1,N,0005,1","03600,1,9,N","010000,1,N,1","+0070,1","+0061,1","10166,1",,,,"6,1,03,1","2,1,03,1",,"06,99,1,03,1,07,1,00250,1,07,1,01,1",,,,,"99999,9,09513,1","2,1,019,1,+999,9","02,1","SYN072AAXX  31094 08053 41360 60601 10070 20061 39513 40166 52019 70262 83771;",
"08053099999","2010-12-31T12:00:00","4","42.5666666","-6.6","550.0","PONFERRADA, SP","FM-12","99999","V020","270,1,N,0010,1","03600,1,9,N","015000,1,N,1","+0092,1","+0066,1","10167,1","06,0000,9,1",,,"6,1,06,1","2,1,06,1",,"06,99,1,04,1,07,1,00250,1,07,1,01,1",,,,,"99999,9,09519,1","0,1,006,1,+999,9","02,1","SYN088AAXX  31124 08053 11365 62702 10092 20066 39519 40167 50006 69901 70262 84771 333 50123;","Q01  00002PRCP06"
