"STATION","DATE","SOURCE","LATITUDE","LONGITUDE","ELEVATION","NAME","REPORT_TYPE","CALL_SIGN","QUALITY_CONTROL","WND","CIG","VIS","TMP","DEW","SLP","AA1","AA2","AJ1","AY1","AY2","GA1","GF1","GJ1","IA1","IA2","KA1","MA1","MD1","ME1","MW1","REM","EQD"
"08213099999","2010-01-01T06:00:00","4","40.95","-4.1333333","1005.0","SEGOVIA, SP","FM-12","99999","V020","230,1,N,0067,1","22000,1,9,N","012000,1,N,1","+0018,1","-0014,1","99999,9","12,0020,9,1","24,0058,9,1","9999,2,9,999999,9,9",,,,"05,99,1,02,1,05,1,00800,1,03,1,09,1","0030,9","21,9","999,-0030,9","999,N,-0002,1","99999,9,08918,1","1,1,005,1,+999,9","3,1390,9",,"SYN106AAXX  01064 08213 12562 52313 10018 21014 38918 48390 51005 60022 82539 333 21002 3/103 45998 55005 70058;","Q01  09982SNDP  "
"08213099999","2010-01-01T09:00:00","4","40.95","-4.1333333","1005.0","SEGOVIA, SP","FM-12","99999","V020","220,1,N,0046,1","03600,1,9,N","015000,1,N,1","+0030,1","-0027,1","99999,9",,,,,,,"06,99,1,03,1,05,1,00800,1,07,1,08,1",,,,,"99999,9,08921,1","1,1,003,1,+999,9","3,1395,9",,"SYN066AAXX  01094 08213 42565 62209 10030 21027 38921 48395 51003 83578;",
"08213099999","2010-01-01T12:00:00","4","40.95","-4.1333333","1005.0","SEGOVIA, SP","FM-12","99999","V020","280,1,N,0123,1","00750,1,9,N","010000,1,N,1","+0048,1","+0009,1","99999,9","06,9999,9,9",,,"2,1,06,1","2,1,06,1",,"08,99,1,05,1,05,1,00800,1,07,1,08,1",,,,,"99999,9,08936,1","3,1,015,1,+999,9","3,1411,9","60,1","SYN088AAXX  01124 08213 11560 82824 10048 20009 38936 48411 53015 69901 76022 85578 333 5////;","Q01  00002PRCP06Q02  00002PRCP06"
"08213099999","2010-01-01T15:00:00","4","40.95","-4.1333333","1005.0","SEGOVIA, SP","FM-12","99999","V020","280,1,N,0098,1","03600,1,9,N","010000,1,N,1","+0052,1","+0022,1","99999,9",,,,"6,1,03,1","2,1,03,1",,"07,99,1,04,1,05,1,00800,1,07,1,08,1",,,,,"99999,9,08948,1","2,1,012,1,+999,9","3,1423,9","02,1","SYN072AAXX  01154 08213 41560 72819 10052 20022 38948 48423 52012 70262 84578;",
"08213099999","2010-01-01T18:00:00","4","40.95","-4.1333333","1005.0","SEGOVIA, SP","FM-12","99999","V020","260,1,N,0021,1","00750,1,9,N","010000,1,N,1","+0036,1","+0024,1","99999,9","12,0020,9,1",,,"6,1,06,1","2,1,06,1",,"08,99,1,05,1,05,1,00800,1,07,1,08,1",,,,"999,M,+0053,1","99999,9,08982,1","2,1,034,1,+999,9","3,1451,9","21,1","SYN088AAXX  01184 08213 11560 82604 10036 20024 38982 48451 52034 60022 72162 85578 333 10053;",
"08213099999","2010-01-02T06:00:00","4","40.95","-4.1333333","1005.0","SEGOVIA, SP","FM-12","99999","V020","190,1,N,0031,1","03600,1,9,N","012000,1,N,1","+0027,1","+0004,1","99999,9","12,0000,2,1","24,0018,9,1",,,,,"07,99,1,02,1,05,1,00800,1,03,1,08,1","0024,9","09,9","999,+0000,9","999,N,+0010,1","99999,9,09021,1","1,1,002,1,+999,9","3,1484,9",,"SYN100AAXX  02064 08213 12562 71906 10027 20004 39021 48484 51002 69912 82538 333 20010 31000 55004 70018;",
"08213099999","2010-01-02T09:00:00","4","40.95","-4.1333333","1005.0","SEGOVIA, SP","FM-12","99999","V020","170,1,N,0031,1","03600,1,9,N","012000,1,N,1","+0039,1","+0009,1","99999,9",,,,,,,"07,99,1,01,1,04,1,00800,1,04,1,09,1",,,,,"99999,9,09033,1","1,1,012,1,+999,9","3,1497,9",,"SYN066AAXX  02094 08213 42562 71706 10039 20009 39033 48497 51012 81449;",
"08213099999","2010-01-02T12:00:00","4","40.95","-4.1333333","1005.0","SEGOVIA, SP","FM-12","99999","V020","220,1,N,0015,1","03600,1,9,N","015000,1,N,1","+0067,1","+0010,1","99999,9","06,0000,9,1",,,,,,"08,99,1,03,1,05,1,00800,1,07,1,08,1",,,,,"99999,9,09043,1","1,1,010,1,+999,9","3,1511,9",,"SYN082AAXX  02124 08213 12565 82203 10067 20010 39043 48511 51010 60001 83578 333 50030;","Q01  00002PRCP06"
"08213099999","2010-01-02T15:00:00","4","40.95","-4.1333333","1005.0","SEGOVIA, SP","FM-12","99999","V020","300,1,N,0005,1","03600,1,9,N","015000,1,N,1","+0074,1","+0021,1","99999,9",,,,,,,"06,99,1,01,1,04,1,00800,1,07,1,08,1",,,,,"99999,9,09031,1","6,1,012,1,+999,9","3,1501,9",,"SYN066AAXX  02154 08213 42565 63001 10074 20021 39031 48501 56012 81478;",
"08213099999","2010-01-02T18:00:00","4","40.95","-4.1333333","1005.0","SEGOVIA, SP","FM-12","99999","V020","300,1,N,0031,1","22000,1,9,N","015000,1,N,1","+0048,1","+0016,1","99999,9","12,0000,9,1",,,,,,"04,99,1,01,1,04,1,00800,1,04,1,08,1",,,,"999,M,+0077,1","99999,9,09026,1","8,1,005,1,+999,9","3,1492,9",,"SYN082AAXX  02184 08213 12565 43006 10048 20016 39026 48492 58005 60002 81448 333 10077;","Q01  00002PRCP12"
"08213099999","2010-01-03T06:00:00","4","40.95","-4.1333333","1005.0","SEGOVIA, SP","FM-12","99999","V020","100,1,N,0031,1","09000,1,9,N","015000,1,N,1","+0044,1","+0011,1","99999,9","12,0000,9,1","24,0000,9,1",,,,,"05,99,1,02,1,04,1,00800,1,04,1,08,1","0156,9","09,9","999,-0030,9","999,N,+0017,1","99999,9,09004,1","6,1,010,1,+999,9","3,1472,9",,"SYN100AAXX  03064 08213 12565 51006 10044 20011 39004 48472 56010 60002 82448 333 20017 31103 55026 70000;","Q01  00002PRCP24Q02  00002PRCP12"
"08213099999","2010-01-03T09:00:00","4","40.95","-4.1333333","1005.0","SEGOVIA, SP","FM-12","99999","V020","090,1,N,0010,1","03600,1,9,N","015000,1,N,1","+0069,1","+0018,1","99999,9",,,,,,,"06,99,1,03,1,05,1,00800,1,07,1,08,1",,,,,"99999,9,08996,1","8,1,008,1,+999,9","3,1469,9",,"SYN066AAXX  03094 08213 42565 60902 10069 20018 38996 48469 58008 83578;",
"08213099999","2010-01-03T12:00:00","4","40.95","-4.1333333","1005.0","SEGOVIA, SP","FM-12","99999","V020","110,1,N,0021,1","00750,1,9,N","006000,1,N,1","+0071,1","+0059,1","99999,9","06,0020,9,1",,,"6,1,06,1","2,1,06,1",,"08,99,1,06,1,07,1,00800,1,07,1,08,1",,,,,"99999,9,08998,1","0,1,002,1,+999,9","3,1471,9","61,1","SYN088AAXX  03124 08213 11556 81104 10071 20059 38998 48471 50002 60021 76162 86778 333 50030;",
"08213099999","2010-01-03T15:00:00","4","40.95","-4.1333333","1005.0","SEGOVIA, SP","FM-12","99999","V020","180,1,N,0051,1","00750,1,9,N","015000,1,N,1","+0095,1","+0041,1","99999,9",,,,"6,1,03,1","2,1,03,1",,"08,99,1,05,1,05,1,00800,1,07,1,08,1",,,,,"99999,9,08987,1","8,1,011,1,+999,9","3,1465,9","02,1","SYN072AAXX  03154 08213 41565 81810 10095 20041 38987 48465 58011 70262 85578;",
"08213099999","2010-01-03T18:00:00","4","40.95","-4.1333333","1005.0","SEGOVIA, SP","FM-12","99999","V020","270,1,N,0010,1","03600,1,9,N","010000,1,N,1","+0090,1","+0054,1","99999,9","12,0041,9,1",,,"6,1,06,1","2,1,06,1",,"07,99,1,04,1,05,1,00800,1,07,1,08,1",,,,"999,M,+0100,1","99999,9,08992,1","1,1,005,1,+999,9","3,1469,9","02,1","SYN088AAXX  03184 08213 11560 72702 10090 20054 38992 48469 51005 60042 70262 84578 333 10100;",
"08213099999","2010-01-04T06:00:00","4","40.95","-4.1333333","1005.0","SEGOVIA, SP","FM-12","99999","V020","070,1,N,0021,1","00750,1,9,N","012000,1,N,1","+0066,1","+0054,1","99999,9","12,0008,9,1","24,0048,9,1",,"6,1,06,1","2,1,06,1",,"08,99,1,05,1,05,1,00800,1,02,1,99,9","0018,9","11,9","999,+0050,9","999,N,+0066,1","99999,9,08951,1","7,1,008,1,+999,9","3,1428,9","02,1","SYN106AAXX  04064 08213 11562 80704 10066 20054 38951 48428 57008 69972 70262 8552/ 333 20066 32005 55003 70048;",
"08213099999","2010-01-04T09:00:00","4","40.95","-4.1333333","1005.0","SEGOVIA, SP","FM-12","99999","V020","010,1,N,0021,1","00750,1,9,N","018000,1,N,1","+0066,1","+0049,1","99999,9",,,,,,,"08,99,1,05,1,05,1,00800,1,02,1,99,9",,,,,"99999,9,08928,1","7,1,023,1,+999,9","3,1407,9",,"SYN066AAXX  04094 08213 42568 80104 10066 20049 38928 48407 57023 8552/;",
"08213099999","2010-01-04T12:00:00","4","40.95","-4.1333333","1005.0","SEGOVIA, SP","FM-12","99999","V020","290,1,N,0031,1","00750,1,9,N","012000,1,N,1","+0090,1","+0052,1","99999,9","06,9999,9,9",,,"6,1,06,1","2,1,06,1",,"08,99,1,05,1,05,1,00800,1,02,1,99,9",,,,,"99999,9,08917,1","7,1,011,1,+999,9","3,1400,9","60,1","SYN088AAXX  04124 08213 11562 82906 10090 20052 38917 48400 57011 69901 76062 8552/ 333 50060;","Q01  00002PRCP06Q02  00002PRCP06"
"08213099999","2010-01-04T15:00:00","4","40.95","-4.1333333","1005.0","SEGOVIA, SP","FM-12","99999","V020","120,1,N,0046,1","00750,1,9,N","012000,1,N,1","+0082,1","+0035,1","99999,9",,,,"6,1,03,1","2,1,03,1",,"08,99,1,05,1,05,1,00800,1,02,1,99,9",,,,,"99999,9,08889,1","7,1,028,1,+999,9","3,1373,9","60,1","SYN072AAXX  04154 08213 41562 81209 10082 20035 38889 48373 57028 76062 8552/;",
"08213099999","2010-01-04T18:00:00","4","40.95","-4.1333333","1005.0","SEGOVIA, SP","FM-12","99999","V020","060,1,N,0010,1","00750,1,9,N","012000,1,N,1","+0066,1","+0044,1","99999,9","12,0030,9,1",,,"6,1,06,1","2,1,06,1",,"08,99,1,05,1,05,1,00800,1,02,1,99,9",,,,"999,M,+0096,1","99999,9,08882,1","6,1,007,1,+999,9","3,1365,9","02,1","SYN088AAXX  04184 08213 11562 80602 10066 20044 38882 48365 56007 60032 70262 8552/ 333 10096;",
"08213099999","2010-01-05T06:00:00","4","40.95","-4.1333333","1005.0","SEGOVIA, SP","FM-12","99999","V020","350,1,N,0010,1","00750,1,9,N","000400,1,N,1","+0046,1","+0037,1","99999,9","12,0020,9,1","24,0051,9,1",,"6,1,06,1","4,1,06,1",,"08,99,1,05,1,05,1,00800,1,02,1,99,9","0000,9","11,9","999,+0040,9","999,N,+0046,1","99999,9,08871,1","4,1,000,1,+999,9","3,1352,9","61,1","SYN106AAXX  05064 08213 11504 83502 10046 20037 38871 48352 54000 60022 76164 8552/ 333 20046 32004 55000 70050;",
"08213099999","2010-01-05T09:00:00","4","40.95","-4.1333333","1005.0","SEGOVIA, SP","FM-12","99999","V020","320,1,N,0026,1","00750,1,9,N","000100,1,N,1","+0042,1","+0033,1","99999,9",,,,"6,1,03,1","4,1,03,1",,"08,99,1,05,1,05,1,00800,1,02,1,99,9",,,,,"99999,9,08878,1","3,1,007,1,+999,9","3,1358,9","46,1","SYN072AAXX  05094 08213 41501 83205 10042 20033 38878 48358 53007 74664 8552/;",
"08213099999","2010-01-05T12:00:00","4","40.95","-4.1333333","1005.0","SEGOVIA, SP","FM-12","99999","V020","250,1,N,0021,1","00750,1,9,N","000100,1,N,1","+0042,1","+0033,1","99999,9","06,0008,9,1",,,"6,1,06,1","4,1,06,1",,"08,99,1,05,1,05,1,00800,1,02,1,99,9",,,,,"99999,9,08889,1","1,1,011,1,+999,9","3,1368,9","44,1","SYN088AAXX  05124 08213 11501 82504 10042 20033 38889 48368 51011 69971 74464 8552/ 333 50060;",
"08213099999","2010-01-05T15:00:00","4","40.95","-4.1333333","1005.0","SEGOVIA, SP","FM-12","99999","V020","310,1,N,0021,1","00750,1,9,N","075000,1,N,1","+0046,1","+0033,1","99999,9",,,,"4,1,03,1","2,1,03,1",,"08,99,1,05,1,05,1,00800,1,02,1,99,9",,,,,"99999,9,08891,1","3,1,002,1,+999,9","3,1370,9","02,1","SYN072AAXX  05154 08213 41589 83104 10046 20033 38891 48370 53002 70242 8552/;",
"08213099999","2010-01-05T18:00:00","4","40.95","-4.1333333","1005.0","SEGOVIA, SP","FM-12","99999","V020","320,1,N,0026,1","00750,1,9,N","010000,1,N,1","+0040,1","+0015,1","99999,9","12,0008,9,1",,,,,,"08,99,1,05,1,05,1,00800,1,02,1,99,9",,,,"999,M,+0056,1","99999,9,08898,1","2,1,007,1,+999,9","3,1376,9",,"SYN082AAXX  05184 08213 12560 83205 10040 20015 38898 48376 52007 69972 8552/ 333 10056;",
"08213099999","2010-01-06T06:00:00","4","40.95","-4.1333333","1005.0","SEGOVIA, SP","FM-12","99999","V020","280,1,N,0046,1","03600,1,9,N","012000,1,N,1","+0010,1","-0011,1","99999,9","12,0008,9,1","24,0015,9,1",,"6,1,06,1","2,1,06,1",,"06,99,1,04,1,05,1,00800,1,07,1,00,1","0000,9","09,9","999,+0000,9","999,N,+0005,1","99999,9,08906,1","2,1,007,1,+999,9","3,1379,9","02,1","SYN106AAXX  06064 08213 11562 62809 10010 21011 38906 48379 52007 69982 70262 84570 333 20005 31000 55000 70015;",
"08213099999","2010-01-06T09:00:00","4","40.95","-4.1333333","1005.0","SEGOVIA, SP","FM-12","99999","V020","260,1,N,0031,1","00750,1,9,N","008000,1,N,1","+0001,1","-0024,1","99999,9",,,,"2,1,03,1","2,1,03,1",,"07,99,1,07,1,07,1,00800,1,99,9,99,9",,,,,"99999,9,08913,1","2,1,007,1,+999,9","3,1384,9","10,1","SYN072AAXX  06094 08213 41558 72606 10001 21024 38913 48384 52007 71022 877//;",
"08213099999","2010-01-06T12:00:00","4","40.95","-4.1333333","1005.0","SEGOVIA, SP","FM-12","99999","V020","230,1,N,0021,1","01200,1,9,N","010000,1,N,1","+0018,1","-0016,1","99999,9","06,0000,9,1",,,,,,"06,99,1,05,1,08,1,00800,1,03,1,00,1",,,,,"99999,9,08912,1","8,1,001,1,+999,9","3,1385,9",,"SYN082AAXX  06124 08213 12560 62304 10018 21016 38912 48385 58001 60001 85830 333 50000;","Q01  00002PRCP06"
"08213099999","2010-01-06T15:00:00","4","40.95","-4.1333333","1005.0","SEGOVIA, SP","FM-12","99999","V020","280,1,N,0015,1","22000,1,9,N","015000,1,N,1","+0040,1","-0033,1","99999,9",,,,,,,"03,99,1,03,1,05,1,00800,1,00,1,00,1",,,,,"99999,9,08903,1","7,1,009,1,+999,9","3,1380,9",,"SYN066AAXX  06154 08213 42565 32803 10040 21033 38903 48380 57009 83500;",
"08213099999","2010-01-06T18:00:00","4","40.95","-4.1333333","1005.0","SEGOVIA, SP","FM-12","99999","V020","030,1,N,0015,1","03600,1,9,N","015000,1,N,1","+0015,1","-0023,1","99999,9","12,0000,9,1",,,,,,"06,99,1,03,1,05,1,00800,1,05,1,00,1",,,,"999,M,+0044,1","99999,9,08895,1","7,1,008,1,+999,9","3,1369,9",,"SYN082AAXX  06184 08213 12565 60303 10015 21023 38895 48369 57008 60002 83550 333 10044;","Q01  00002PRCP12"
"08213099999","2010-01-07T06:00:00","4","40.95","-4.1333333","1005.0","SEGOVIA, SP","FM-12","99999","V020","040,1,N,0041,1","00420,1,9,N","008000,1,N,1","-0004,1","-0010,1","99999,9","12,0010,9,1","24,0010,9,1","9999,2,9,999999,9,9","7,1,06,1","2,1,06,1",,"08,99,1,06,1,06,1,00450,1,02,1,08,1","0246,9","30,9","999,-0010,9","999,N,-0004,1","99999,9,08852,1","7,1,011,1,+999,9","3,1328,9","70,1","SYN112AAXX  07064 08213 11458 80408 11004 21010 38852 48328 57011 60012 77072 86628 333 21004 3/101 42998 55041 70010;","Q01  09982SNDP  "
"08213099999","2010-01-07T09:00:00","4","40.95","-4.1333333","1005.0","SEGOVIA, SP","FM-12","99999","V020","040,1,N,0041,1","00420,1,9,N","001500,1,N,1","-0005,1","-0016,1","99999,9",,,,"7,1,03,1","7,1,03,1",,"08,99,1,06,1,06,1,00450,1,02,1,99,9",,,,,"99999,9,08854,1","3,1,002,1,+999,9","3,1330,9","71,1","SYN072AAXX  07094 08213 41415 80408 11005 21016 38854 48330 53002 77177 8662/;",
"08213099999","2010-01-07T12:00:00","4","40.95","-4.1333333","1005.0","SEGOVIA, SP","FM-12","99999","V020","040,1,N,0067,1","00420,1,9,N","001500,1,N,1","-0008,1","-0016,1","99999,9","06,0005,9,1",,,"7,1,06,1","7,1,06,1",,"08,99,1,06,1,06,1,00450,1,02,1,99,9",,,,,"99999,9,08853,1","8,1,001,1,+999,9","3,1329,9","71,1","SYN088AAXX  07124 08213 11415 80413 11008 21016 38853 48329 58001 69941 77177 8662/ 333 5////;",
"08213099999","2010-01-07T15:00:00","4","40.95","-4.1333333","1005.0","SEGOVIA, SP","FM-12","99999","V020","010,1,N,0026,1","00420,1,9,N","001500,1,N,1","-0010,1","-0016,1","99999,9",,,,"7,1,03,1","7,1,03,1",,"08,99,1,06,1,06,1,00450,1,02,1,99,9",,,,,"99999,9,08852,1","6,1,001,1,+999,9","3,1328,9","71,1","SYN072AAXX  07154 08213 41415 80105 11010 21016 38852 48328 56001 77177 8662/;",
"08213099999","2010-01-07T18:00:00","4","40.95","-4.1333333","1005.0","SEGOVIA, SP","FM-12","99999","V020","010,1,N,0046,1","00750,1,9,N","002000,1,N,1","-0015,1","-0031,1","99999,9","12,0020,9,1",,,"7,1,06,1","7,1,06,1",,"08,99,1,06,1,06,1,00800,1,02,1,99,9",,,,"999,M,-0003,1","99999,9,08866,1","2,1,014,1,+999,9","3,1340,9","70,1","SYN088AAXX  07184 08213 11520 80109 11015 21031 38866 48340 52014 60022 77077 8662/ 333 11003;",
"08213099999","2010-01-08T06:00:00","4","40.95","-4.1333333","1005.0","SEGOVIA, SP","FM-12","99999","V020","350,1,N,0051,1","00750,1,9,N","008000,1,N,1","-0042,1","-0060,1","99999,9","12,0005,9,1","24,0033,9,1","0003,9,1,999999,9,9","7,1,06,1","2,1,06,1",,"08,99,1,06,1,06,1,00800,1,02,1,08,1","0000,9","27,9","999,-0090,9","999,N,-0042,1","99999,9,08914,1","3,1,011,1,+999,9","3,1378,9","70,1","SYN112AAXX  08064 08213 11558 83510 11042 21060 38914 48378 53011 69942 77072 86628 333 21042 3/109 43003 55000 70034;",
"08213099999","2010-01-08T09:00:00","4","40.95","-4.1333333","1005.0","SEGOVIA, SP","FM-12","99999","V020","320,1,N,0067,1","00750,1,9,N","004000,1,N,1","-0044,1","-0059,1","99999,9",,,,"7,1,03,1","2,1,03,1",,"08,99,1,06,1,06,1,00800,1,02,1,99,9",,,,,"99999,9,08930,1","3,1,016,1,+999,9","3,1392,9","70,1","SYN072AAXX  08094 08213 41540 83213 11044 21059 38930 48392 53016 77072 8662/;",
"08213099999","2010-01-08T12:00:00","4","40.95","-4.1333333","1005.0","SEGOVIA, SP","FM-12","99999","V020","330,1,N,0036,1","00750,1,9,N","005000,1,N,1","-0032,1","-0061,1","99999,9","06,0000,2,1",,,"7,1,06,1","7,1,06,1",,"08,99,1,06,1,06,1,00800,1,02,1,99,9",,,,,"99999,9,08940,1","1,1,010,1,+999,9","3,1403,9","70,1","SYN088AAXX  08124 08213 11550 83307 11032 21061 38940 48403 51010 69911 77077 8662/ 333 5////;",
"08213099999","2010-01-08T15:00:00","4","40.95","-4.1333333","1005.0","SEGOVIA, SP","FM-12","99999","V020","330,1,N,0041,1","00750,1,9,N","005000,1,N,1","-0028,1","-0050,1","99999,9",,,,"7,1,03,1","2,1,03,1",,"08,99,1,06,1,07,1,00800,1,02,1,00,1",,,,,"99999,9,08943,1","3,1,003,1,+999,9","3,1406,9","70,1","SYN072AAXX  08154 08213 41550 83308 11028 21050 38943 48406 53003 77072 86720;",
"08213099999","2010-01-08T18:00:00","4","40.95","-4.1333333","1005.0","SEGOVIA, SP","FM-12","99999","V020","320,1,N,0031,1","03600,1,9,N","010000,1,N,1","-0033,1","-0056,1","99999,9","12,0005,9,1",,,"7,1,06,1","2,1,06,1",,"06,99,1,04,1,08,1,00800,1,02,1,00,1",,,,"999,M,-0022,1","99999,9,08954,1","1,1,011,1,+999,9","3,1415,9","01,1","SYN088AAXX  08184 08213 11560 63206 11033 21056 38954 48415 51011 69942 70172 84820 333 11022;",
"08213099999","2010-01-09T06:00:00","4","40.95","-4.1333333","1005.0","SEGOVIA, SP","FM-12","99999","V020","999,9,C,0000,1","00750,1,9,N","012000,1,N,1","-0052,1","-0076,1","99999,9","12,0000,9,1","24,0005,9,1","0003,9,1,999999,9,9",,,,"07,99,1,07,1,05,1,00800,1,99,9,99,9","0078,9","27,9","999,-0080,9","999,N,-0062,1","99999,9,08979,1","4,1,000,1,+999,9","3,1433,9",,"SYN106AAXX  09064 08213 12562 70000 11052 21076 38979 48433 54000 69922 875// 333 21062 3/108 43003 55013 70006;","Q01  00002PRCP12"
"08213099999","2010-01-09T09:00:00","4","40.95","-4.1333333","1005.0","SEGOVIA, SP","FM-12","99999","V020","260,1,N,0015,1","03600,1,9,N","003000,1,N,1","-0064,1","-0119,1","99999,9",,,,"2,1,03,1","2,1,03,1",,"06,99,1,04,1,06,1,00800,1,05,1,00,1",,,,,"99999,9,08985,1","1,1,006,1,+999,9","3,1436,9","10,1","SYN072AAXX  09094 08213 41530 62603 11064 21119 38985 48436 51006 71022 84650;",
"08213099999","2010-01-09T12:00:00","4","40.95","-4.1333333","1005.0","SEGOVIA, SP","FM-12","99999","V020","300,1,N,0026,1","03600,1,9,N","012000,1,N,1","-0033,1","-0043,1","99999,9","06,0000,9,1",,,"7,1,06,1","2,1,06,1",,"06,99,1,04,1,05,1,00800,1,05,1,00,1",,,,,"99999,9,08992,1","0,1,007,1,+999,9","3,1448,9","02,1","SYN088AAXX  09124 08213 11562 63005 11033 21043 38992 48448 50007 69901 70272 84550 333 5///0;","Q01  00002PRCP06"
"08213099999","2010-01-09T15:00:00","4","40.95","-4.1333333","1005.0","SEGOVIA, SP","FM-12","99999","V020","340,1,N,0010,1","22000,1,9,N","018000,1,N,1","-0022,1","-0033,1","99999,9",,,,,,,"04,99,1,02,1,05,1,00800,1,05,1,00,1",,,,,"99999,9,08986,1","7,1,006,1,+999,9","3,1445,9",,"SYN066AAXX  09154 08213 42568 43402 11022 21033 38986 48445 57006 82550;",
"08213099999","2010-01-09T18:00:00","4","40.95","-4.1333333","1005.0","SEGOVIA, SP","FM-12","99999","V020","240,1,N,0010,1","22000,1,9,N","015000,1,N,1","-0036,1","-0050,1","99999,9","12,0000,9,1",,,,,,"02,99,1,01,1,05,1,00800,1,04,1,00,1",,,,"999,M,-0016,1","99999,9,08989,1","3,1,003,1,+999,9","3,1445,9",,"SYN082AAXX  09184 08213 12565 22402 11036 21050 38989 48445 53003 69902 81540 333 11016;","Q01  00002PRCP12"
"08213099999","2010-01-10T06:00:00","4","40.95","-4.1333333","1005.0","SEGOVIA, SP","FM-12","99999","V020","120,1,N,0026,1","22000,1,9,N","012000,1,N,1","-0081,1","-0099,1","99999,9","12,0000,9,1","24,0000,9,1","0002,9,1,999999,9,9",,,"00,1,+99999,9,99,9","00,99,1,00,1,00,1,99999,9,00,1,00,1","0240,9","27,9","999,-0140,9","999,N,-0088,1","99999,9,08993,1","6,1,003,1,+999,9","3,1441,9",,"SYN100AAXX  10064 08213 12962 01205 11081 21099 38993 48441 56003 60002 333 21088 3/114 43002 55040 79999;","Q01  00002PRCP24Q02  00002PRCP12"
"08213099999","2010-01-10T09:00:00","4","40.95","-4.1333333","1005.0","SEGOVIA, SP","FM-12","99999","V020","120,1,N,0010,1","22000,1,9,N","020000,1,N,1","-0046,1","-0072,1","99999,9",,,,,,,"02,99,1,01,1,00,1,01750,1,03,1,01,1",,,,,"99999,9,08984,1","7,1,009,1,+999,9","3,1439,9",,"SYN066AAXX  10094 08213 42770 21202 11046 21072 38984 48439 57009 81031;",
"08213099999","2010-01-10T12:00:00","4","40.95","-4.1333333","1005.0","SEGOVIA, SP","FM-12","99999","V020","060,1,N,0021,1","01500,1,9,N","018000,1,N,1","-0005,1","-0019,1","99999,9","06,0000,9,1",,,,,,"07,99,1,06,1,00,1,01750,1,02,1,01,1",,,,,"99999,9,08975,1","7,1,009,1,+999,9","3,1438,9",,"SYN082AAXX  10124 08213 12768 70604 11005 21019 38975 48438 57009 60001 86021 333 5///0;","Q01  00002PRCP06"
"08213099999","2010-01-10T15:00:00","4","40.95","-4.1333333","1005.0","SEGOVIA, SP","FM-12","99999","V020","040,1,N,0015,1","01500,1,9,N","018000,1,N,1","-0007,1","-0018,1","99999,9",,,,,,,"08,99,1,08,1,00,1,01750,1,02,1,99,9",,,,,"99999,9,08951,1","7,1,024,1,+999,9","3,1416,9",,"SYN066AAXX  10154 08213 42768 80403 11007 21018 38951 48416 57024 8802/;",
"08213099999","2010-01-10T18:00:00","4","40.95","-4.1333333","1005.0","SEGOVIA, SP","FM-12","99999","V020","040,1,N,0010,1","01200,1,9,N","008000,1,N,1","-0020,1","-0026,1","99999,9","12,9999,9,9",,,"2,1,06,1","2,1,06,1",,"08,99,1,08,1,00,1,01250,1,07,1,99,9",,,,"999,M,-0003,1","99999,9,08942,1","7,1,009,1,+999,9","3,1406,9","71,1","SYN088AAXX  10184 08213 11658 80402 11020 21026 38942 48406 57009 60002 77122 8807/ 333 11003;","Q01  00002PRCP12Q02  00002PRCP12"
"08213099999","2010-01-11T06:00:00","4","40.95","-4.1333333","1005.0","SEGOVIA, SP","FM-12","99999","V020","300,1,N,0026,1","22000,1,9,N","020000,1,N,1","-0008,1","-0022,1","99999,9","12,0020,9,2","24,0015,9,2","0005,9,1,999999,9,9",,,,"04,99,1,02,1,05,1,00800,1,03,1,00,1","0096,9","27,9","999,-0040,9","999,N,-0037,1","99999,9,08960,1","2,1,004,1,+999,9","3,1424,9",,"SYN106AAXX  11064 08213 12570 43005 11008 21022 38960 48424 52004 60022 82530 333 21037 3/104 43005 55016 70016;",
"08213099999","2010-01-11T09:00:00","4","40.95","-4.1333333","1005.0","SEGOVIA, SP","FM-12","99999","V020","120,1,N,0010,1","09000,1,9,N","012000,1,N,1","-0024,1","-0038,1","99999,9",,,,,,,"05,99,1,02,1,05,1,00800,1,04,1,08,1",,,,,"99999,9,08984,1","2,1,024,1,+999,9","3,1442,9",,"SYN066AAXX  11094 08213 42562 51202 11024 21038 38984 48442 52024 82548;",
"08213099999","2010-01-11T12:00:00","4","40.95","-4.1333333","1005.0","SEGOVIA, SP","FM-12","99999","V020","250,1,N,0026,1","03600,1,9,N","015000,1,N,1","+0008,1","-0040,1","99999,9","06,0000,9,1",,,,,,"06,99,1,04,1,07,1,00800,1,02,1,08,1",,,,,"99999,9,09005,1","1,1,021,1,+999,9","3,1466,9",,"SYN082AAXX  11124 08213 12565 62505 10008 21040 39005 48466 51021 60001 84728 333 5////;","Q01  00002PRCP06"
"08213099999","2010-01-11T15:00:00","4","40.95","-4.1333333","1005.0","SEGOVIA, SP","FM-12","99999","V020","140,1,N,0021,1","22000,1,9,N","015000,1,N,1","+0022,1","-0016,1","99999,9",,,,,,,"02,99,1,01,1,05,1,00800,1,03,1,00,1",,,,,"99999,9,09006,1","1,1,001,1,+999,9","3,1470,9",,"SYN066AAXX  11154 08213 42565 21404 10022 21016 39006 48470 51001 81530;",
"08213099999","2010-01-11T18:00:00","4","40.95","-4.1333333","1005.0","SEGOVIA, SP","FM-12","99999","V020","999,9,C,0000,1","22000,1,9,N","015000,1,N,1","+0000,1","-0021,1","99999,9","12,0000,9,1",,,,,,"02,99,1,01,1,00,1,01750,1,04,1,01,1",,,,"999,M,+0030,1","99999,9,09024,1","1,1,018,1,+999,9","3,1482,9",,"SYN082AAXX  11184 08213 12765 20000 10000 21021 39024 48482 51018 60002 81041 333 10030;","Q01  00002PRCP12"
"08213099999","2010-01-12T06:00:00","4","40.95","-4.1333333","1005.0","SEGOVIA, SP","FM-12","99999","V020","080,1,N,0015,1","00750,1,9,N","012000,1,N,1","+0046,1","+0002,1","99999,9","12,0000,9,1","24,0000,9,1","0001,9,1,999999,9,9",,,,"08,99,1,05,1,06,1,00800,1,07,1,08,1","0132,9","21,9","999,-0060,9","999,N,-0020,1","99999,9,08987,1","7,1,030,1,+999,9","3,1457,9",,"SYN106AAXX  12064 08213 12562 80803 10046 20002 38987 48457 57030 60002 85678 333 21020 3/106 45001 55022 70000;","Q01  00002PRCP24Q02  00002PRCP12"
"08213099999","2010-01-12T09:00:00","4","40.95","-4.1333333","1005.0","SEGOVIA, SP","FM-12","99999","V020","200,1,N,0051,1","00750,1,9,N","010000,1,N,1","+0063,1","+0024,1","99999,9",,,,"6,1,03,1","2,1,03,1",,"08,99,1,06,1,06,1,00800,1,07,1,08,1",,,,,"99999,9,08966,1","7,1,021,1,+999,9","3,1441,9","61,1","SYN072AAXX  12094 08213 41560 82010 10063 20024 38966 48441 57021 76162 86678;",
"08213099999","2010-01-12T12:00:00","4","40.95","-4.1333333","1005.0","SEGOVIA, SP","FM-12","99999","V020","180,1,N,0067,1","00750,1,9,N","006000,1,N,1","+0074,1","+0044,1","99999,9","06,0020,9,1",,,"6,1,06,1","2,1,06,1",,"08,99,1,06,1,06,1,00800,1,07,1,08,1",,,,,"99999,9,08931,1","7,1,035,1,+999,9","3,1411,9","63,1","SYN088AAXX  12124 08213 11556 81813 10074 20044 38931 48411 57035 60021 76362 86678 333 5////;",
"08213099999","2010-01-12T15:00:00","4","40.95","-4.1333333","1005.0","SEGOVIA, SP","FM-12","99999","V020","250,1,N,0062,1","00750,1,9,N","008000,1,N,1","+0054,1","+0044,1","99999,9",,,,"6,1,03,1","2,1,03,1",,"08,99,1,06,1,07,1,00800,1,07,1,08,1",,,,,"99999,9,08922,1","5,1,009,1,+999,9","3,1400,9","63,1","SYN072AAXX  12154 08213 41558 82512 10054 20044 38922 48400 55009 76362 86778;",
"08213099999","2010-01-12T18:00:00","4","40.95","-4.1333333","1005.0","SEGOVIA, SP","FM-12","99999","V020","270,1,N,0067,1","00750,1,9,N","012000,1,N,1","+0055,1","+0037,1","99999,9","12,0030,9,1",,,"6,1,06,1","2,1,06,1",,"07,99,1,05,1,05,1,00800,1,07,1,08,1",,,,"999,M,+0095,1","99999,9,08941,1","3,1,019,1,+999,9","3,1417,9","01,1","SYN088AAXX  12184 08213 11562 72713 10055 20037 38941 48417 53019 60032 70162 85578 333 10095;",
"08213099999","2010-01-13T06:00:00","4","40.95","-4.1333333","1005.0","SEGOVIA, SP","FM-12","99999","V020","200,1,N,0031,1","00750,1,9,N","018000,1,N,1","+0038,1","-0008,1","99999,9","12,0000,9,1","24,0033,9,1",,,,,"07,99,1,07,1,05,1,00800,1,99,9,99,9","0000,9","09,9","999,+0000,9","999,N,+0025,1","99999,9,08986,1","5,1,000,1,+999,9","3,1454,9",,"SYN100AAXX  13064 08213 12568 72006 10038 21008 38986 48454 55000 60002 875// 333 20025 31000 55000 70034;","Q01  00002PRCP12"
"08213099999","2010-01-13T09:00:00","4","40.95","-4.1333333","1005.0","SEGOVIA, SP","FM-12","99999","V020","200,1,N,0036,1","00750,1,9,N","002000,1,N,1","+0034,1","+0013,1","99999,9",,,,"6,1,03,1","2,1,03,1",,"08,99,1,08,1,07,1,00800,1,99,9,99,9",,,,,"99999,9,08988,1","2,1,002,1,+999,9","3,1456,9","61,1","SYN072AAXX  13094 08213 41520 82007 10034 20013 38988 48456 52002 76162 887//;",
"08213099999","2010-01-13T12:00:00","4","40.95","-4.1333333","1005.0","SEGOVIA, SP","FM-12","99999","V020","170,1,N,0031,1","00750,1,9,N","018000,1,N,1","+0077,1","+0026,1","99999,9","06,0005,9,1",,,"6,1,06,1","6,1,06,1",,"08,99,1,06,1,05,1,00800,1,07,1,99,9",,,,,"99999,9,08973,1","8,1,015,1,+999,9","3,1449,9","60,1","SYN088AAXX  13124 08213 11568 81706 10077 20026 38973 48449 58015 69951 76066 8657/ 333 5///0;",
"08213099999","2010-01-13T15:00:00","4","40.95","-4.1333333","1005.0","SEGOVIA, SP","FM-12","99999","V020","200,1,N,0041,1","00750,1,9,N","020000,1,N,1","+0086,1","+0024,1","99999,9",,,,"2,1,03,1","2,1,03,1",,"08,99,1,06,1,05,1,00800,1,07,1,99,9",,,,,"99999,9,08936,1","7,1,037,1,+999,9","3,1417,9","60,1","SYN072AAXX  13154 08213 41570 82008 10086 20024 38936 48417 57037 76022 8657/;",
"08213099999","2010-01-13T18:00:00","4","40.95","-4.1333333","1005.0","SEGOVIA, SP","FM-12","99999","V020","190,1,N,0062,1","00750,1,9,N","010000,1,N,1","+0063,1","+0035,1","99999,9","12,0020,9,1",,,"6,1,06,1","6,1,06,1",,"08,99,1,06,1,05,1,00800,1,07,1,99,9",,,,"999,M,+0094,1","99999,9,08916,1","8,1,020,1,+999,9","3,1395,9","61,1","SYN088AAXX  13184 08213 11560 81912 10063 20035 38916 48395 58020 60022 76166 8657/ 333 10094;",
"08213099999","2010-01-14T06:00:00","4","40.95","-4.1333333","1005.0","SEGOVIA, SP","FM-12","99999","V020","260,1,N,0154,1","00750,1,9,N","015000,1,N,1","+0068,1","+0031,1","99999,9","12,0005,9,1","24,0028,9,1",,,,,"06,99,1,06,1,05,1,00800,1,00,1,00,1","0000,9","09,9","999,+0040,9","999,N,+0056,1","99999,9,08863,1","2,1,015,1,+999,9","3,1347,9",,"SYN100AAXX  14064 08213 12565 62630 10068 20031 38863 48347 52015 69942 86500 333 20056 31004 55000 70029;",
"08213099999","2010-01-14T09:00:00","4","40.95","-4.1333333","1005.0","SEGOVIA, SP","FM-12","99999","V020","270,1,N,0154,1","00750,1,9,N","012000,1,N,1","+0050,1","+0011,1","99999,9",,,,,,,"08,99,1,08,1,05,1,00800,1,99,9,99,9",,,,,"99999,9,08916,1","2,1,053,1,+999,9","3,1393,9",,"SYN066AAXX  14094 08213 42562 82730 10050 20011 38916 48393 52053 885//;",
"08213099999","2010-01-14T12:00:00","4","40.95","-4.1333333","1005.0","SEGOVIA, SP","FM-12","99999","V020","280,1,N,0113,1","00750,1,9,N","020000,1,N,1","+0052,1","+0006,1","99999,9","06,0000,9,1",,,,,,"07,99,1,07,1,05,1,00800,1,99,9,99,9",,,,,"99999,9,08938,1","1,1,022,1,+999,9","3,1414,9",,"SYN082AAXX  14124 08213 12570 72822 10052 20006 38938 48414 51022 60001 875// 333 5///0;","Q01  00002PRCP06"
"08213099999","2010-01-14T15:00:00","4","40.95","-4.1333333","1005.0","SEGOVIA, SP","FM-12","99999","V020","280,1,N,0139,1","00750,1,9,N","020000,1,N,1","+0059,1","+0003,1","99999,9",,,,,,,"07,99,1,07,1,05,1,00800,1,99,9,99,9",,,,,"99999,9,08962,1","2,1,024,1,+999,9","3,1436,9",,"SYN066AAXX  14154 08213 42570 72827 10059 20003 38962 48436 52024 875//;",
"08213099999","2010-01-14T18:00:00","4","40.95","-4.1333333","1005.0","SEGOVIA, SP","FM-12","99999","V020","280,1,N,0118,1","22000,1,9,N","020000,1,N,1","+0052,1","+0004,1","99999,9","12,0000,9,1",,,,,,"05,99,1,04,1,05,1,00800,1,00,1,01,1",,,,"999,M,+0086,1","99999,9,08994,1","2,1,032,1,+999,9","3,1464,9",,"SYN082AAXX  14184 08213 12570 52823 10052 20004 38994 48464 52032 60002 84501 333 10086;","Q01  00002PRCP12"
"08213099999","2010-01-15T06:00:00","4","40.95","-4.1333333","1005.0","SEGOVIA, SP","FM-12","99999","V020","240,1,N,0021,1","00750,1,9,N","012000,1,N,1","+0030,1","+0015,1","99999,9","12,0000,9,1","24,0000,9,1",,,,,"08,99,1,05,1,05,1,00800,1,02,1,99,9","0096,9","09,9","999,+0020,9","999,N,+0026,1","99999,9,09067,1","1,1,005,1,+999,9","3,1525,9",,"SYN100AAXX  15064 08213 12562 82404 10030 20015 39067 48525 51005 60002 8552/ 333 20026 31002 55016 70000;","Q01  00002PRCP24Q02  00002PRCP12"
"08213099999","2010-01-15T09:00:00","4","40.95","-4.1333333","1005.0","SEGOVIA, SP","FM-12","99999","V020","220,1,N,0010,1","00750,1,9,N","018000,1,N,1","+0032,1","+0013,1","99999,9",,,,,,,"08,99,1,05,1,05,1,00800,1,02,1,99,9",,,,,"99999,9,09079,1","1,1,012,1,+999,9","3,1536,9",,"SYN066AAXX  15094 08213 42568 82202 10032 20013 39079 48536 51012 8552/;",
"08213099999","2010-01-15T12:00:00","4","40.95","-4.1333333","1005.0","SEGOVIA, SP","FM-12","99999","V020","140,1,N,0010,1","01500,1,9,N","020000,1,N,1","+0082,1","-0033,1","99999,9","06,0000,9,1",,,,,,"07,99,1,05,1,00,1,01750,1,05,1,06,1",,,,,"99999,9,09077,1","8,1,002,1,+999,9","3,1544,9",,"SYN082AAXX  15124 08213 12770 71402 10082 21033 39077 48544 58002 60001 85056 333 50030;","Q01  00002PRCP06"
"08213099999","2010-01-15T15:00:00","4","40.95","-4.1333333","1005.0","SEGOVIA, SP","FM-12","99999","V020","300,1,N,0010,1","01500,1,9,N","020000,1,N,1","+0094,1","-0049,1","99999,9",,,,,,,"07,99,1,05,1,00,1,01750,1,08,1,06,1",,,,,"99999,9,09068,1","7,1,009,1,+999,9","3,1538,9",,"SYN066AAXX  15154 08213 42770 73002 10094 21049 39068 48538 57009 85086;",
"08213099999","2010-01-15T18:00:00","4","40.95","-4.1333333","1005.0","SEGOVIA, SP","FM-12","99999","V020","010,1,N,0010,1","00750,1,9,N","020000,1,N,1","+0076,1","-0021,1","99999,9","12,0000,9,1",,,,,,"07,99,1,05,1,05,1,00800,1,02,1,00,1",,,,"999,M,+0104,1","99999,9,09074,1","3,1,006,1,+999,9","3,1540,9",,"SYN082AAXX  15184 08213 12570 70102 10076 21021 39074 48540 53006 60002 85520 333 10104;","Q01  00002PRCP12"
"08213099999","2010-01-16T06:00:00","4","40.95","-4.1333333","1005.0","SEGOVIA, SP","FM-12","99999","V020","090,1,N,0015,1","00750,1,9,N","012000,1,N,1","+0090,1","+0048,1","99999,9","12,0000,9,1","24,0000,9,1",,,,,"08,99,1,05,1,05,1,00800,1,02,1,99,9","0144,9","09,9","999,+0070,9","999,N,+0054,1","99999,9,09060,1","8,1,008,1,+999,9","3,1531,9",,"SYN100AAXX  16064 08213 12562 80903 10090 20048 39060 48531 58008 60002 8552/ 333 20054 31007 55024 70000;","Q01  00002PRCP24Q02  00002PRCP12"
"08213099999","2010-01-16T09:00:00","4","40.95","-4.1333333","1005.0","SEGOVIA, SP","FM-12","99999","V020","160,1,N,0031,1","00750,1,9,N","018000,1,N,1","+0094,1","+0052,1","99999,9",,,,,,,"08,99,1,05,1,05,1,00800,1,02,1,99,9",,,,,"99999,9,09055,1","5,1,005,1,+999,9","3,1527,9",,"SYN066AAXX  16094 08213 42568 81606 10094 20052 39055 48527 55005 8552/;",
"08213099999","2010-01-16T12:00:00","4","40.95","-4.1333333","1005.0","SEGOVIA, SP","FM-12","99999","V020","230,1,N,0041,1","00750,1,9,N","020000,1,N,1","+0140,1","+0051,1","99999,9","06,0000,9,1",,,,,,"08,99,1,05,1,05,1,00800,1,02,1,99,9",,,,,"99999,9,09058,1","0,1,003,1,+999,9","3,1538,9",,"SYN082AAXX  16124 08213 12570 82308 10140 20051 39058 48538 50003 60001 8552/ 333 50120;","Q01  00002PRCP06"
"08213099999","2010-01-16T15:00:00","4","40.95","-4.1333333","1005.0","SEGOVIA, SP","FM-12","99999","V020","230,1,N,0051,1","00750,1,9,N","006000,1,N,1","+0118,1","+0075,1","99999,9",,,,"6,1,03,1","2,1,03,1",,"08,99,1,05,1,05,1,00800,1,02,1,99,9",,,,,"99999,9,09049,1","7,1,009,1,+999,9","3,1526,9","10,1","SYN072AAXX  16154 08213 41556 82310 10118 20075 39049 48526 57009 71062 8552/;",
"08213099999","2010-01-16T18:00:00","4","40.95","-4.1333333","1005.0","SEGOVIA, SP","FM-12","99999","V020","210,1,N,0026,1","00750,1,9,N","006000,1,N,1","+0100,1","+0089,1","99999,9","12,0030,9,1",,,"6,1,06,1","2,1,06,1",,"08,99,1,05,1,05,1,00800,1,02,1,99,9",,,,"999,M,+0142,1","99999,9,09061,1","3,1,012,1,+999,9","3,1534,9","61,1","SYN088AAXX  16184 08213 11556 82105 10100 20089 39061 48534 53012 60032 76162 8552/ 333 10142;",
"08213099999","2010-01-17T06:00:00","4","40.95","-4.1333333","1005.0","SEGOVIA, SP","FM-12","99999","V020","070,1,N,0021,1","00750,1,9,N","012000,1,N,1","+0062,1","+0053,1","99999,9","12,0109,9,1","24,0140,9,1",,"6,1,06,1","2,1,06,1",,"08,99,1,05,1,05,1,00800,1,02,1,99,9","0000,9","11,9","999,+0060,9","999,N,+0062,1","99999,9,09062,1","8,1,005,1,+999,9","3,1527,9","51,1","SYN106AAXX  17064 08213 11562 80704 10062 20053 39062 48527 58005 60112 75162 8552/ 333 20062 32006 55000 70140;",
"08213099999","2010-01-17T09:00:00","4","40.95","-4.1333333","1005.0","SEGOVIA, SP","FM-12","99999","V020","070,1,N,0015,1","00750,1,9,N","001000,1,N,1","+0066,1","+0057,1","99999,9",,,,"6,1,03,1","2,1,03,1",,"08,99,1,05,1,05,1,00800,1,02,1,99,9",,,,,"99999,9,09075,1","3,1,013,1,+999,9","3,1540,9","51,1","SYN072AAXX  17094 08213 41510 80703 10066 20057 39075 48540 53013 75162 8552/;",
"08213099999","2010-01-17T12:00:00","4","40.95","-4.1333333","1005.0","SEGOVIA, SP","FM-12","99999","V020","190,1,N,0010,1","00750,1,9,N","016000,1,N,1","+0086,1","+0071,1","99999,9","06,0010,9,1",,,"6,1,06,1","2,1,06,1",,"08,99,1,05,1,05,1,00800,1,02,1,99,9",,,,,"99999,9,09083,1","0,1,008,1,+999,9","3,1551,9","02,1","SYN078AAXX  17124 08213 11566 81902 10086 20071 39083 48551 50008 60011 70262 8552/;",
"08213099999","2010-01-17T15:00:00","4","40.95","-4.1333333","1005.0","SEGOVIA, SP","FM-12","99999","V020","260,1,N,0021,1","00750,1,9,N","004000,1,N,1","+0092,1","+0076,1","99999,9",,,,"5,1,03,1","2,1,03,1",,"08,99,1,05,1,05,1,00800,1,02,1,99,9",,,,,"99999,9,09078,1","7,1,005,1,+999,9","3,1548,9","50,1","SYN072AAXX  17154 08213 41540 82604 10092 20076 39078 48548 57005 75052 8552/;",
"08213099999","2010-01-17T18:00:00","4","40.95","-4.1333333","1005.0","SEGOVIA, SP","FM-12","99999","V020","320,1,N,0010,1","00750,1,9,N","012000,1,N,1","+0094,1","+0073,1","99999,9","12,0010,9,1",,,"5,1,06,1","2,1,06,1",,"08,99,1,05,1,05,1,00800,1,02,1,99,9",,,,"999,M,+0096,1","99999,9,09078,1","4,1,000,1,+999,9","3,1548,9","02,1","SYN088AAXX  17184 08213 11562 83202 10094 20073 39078 48548 54000 60012 70252 8552/ 333 10096;",
"08213099999","2010-01-18T06:00:00","4","40.95","-4.1333333","1005.0","SEGOVIA, SP","FM-12","99999","V020","240,1,N,0010,1","22000,1,9,N","020000,1,N,1","+0049,1","+0021,1","99999,9","12,0000,9,1","24,0015,9,1",,,,,"02,99,1,02,1,00,1,01750,1,05,1,00,1","0000,9","09,9","999,+0010,9","999,N,+0036,1","99999,9,09040,1","7,1,010,1,+999,9","3,1505,9",,"SYN100AAXX  18064 08213 12770 22402 10049 20021 39040 48505 57010 60002 82050 333 20036 31001 55000 70014;","Q01  00002PRCP12"
"08213099999","2010-01-18T09:00:00","4","40.95","-4.1333333","1005.0","SEGOVIA, SP","FM-12","99999","V020","140,1,N,0015,1","22000,1,9,N","018000,1,N,1","+0060,1","+0033,1","99999,9",,,,,,,"02,99,1,02,1,00,1,01750,1,03,1,00,1",,,,,"99999,9,09037,1","8,1,003,1,+999,9","3,1504,9",,"SYN066AAXX  18094 08213 42768 21403 10060 20033 39037 48504 58003 82030;",
"08213099999","2010-01-18T12:00:00","4","40.95","-4.1333333","1005.0","SEGOVIA, SP","FM-12","99999","V020","240,1,N,0067,1","22000,1,9,N","018000,1,N,1","+0129,1","+0038,1","99999,9","06,0000,9,1",,,,,,"03,99,1,01,1,05,1,00800,1,03,1,01,1",,,,,"99999,9,09035,1","8,1,002,1,+999,9","3,1515,9",,"SYN082AAXX  18124 08213 12568 32413 10129 20038 39035 48515 58002 60001 81531 333 50020;","Q01  00002PRCP06"
"08213099999","2010-01-18T15:00:00","4","40.95","-4.1333333","1005.0","SEGOVIA, SP","FM-12","99999","V020","250,1,N,0026,1","03600,1,9,N","015000,1,N,1","+0123,1","+0055,1","99999,9",,,,,,,"07,99,1,01,1,05,1,00800,1,07,1,99,9",,,,,"99999,9,09032,1","7,1,003,1,+999,9","3,1511,9",,"SYN066AAXX  18154 08213 42565 72505 10123 20055 39032 48511 57003 8157/;",
"08213099999","2010-01-18T18:00:00","4","40.95","-4.1333333","1005.0","SEGOVIA, SP","FM-12","99999","V020","200,1,N,0010,1","01500,1,9,N","015000,1,N,1","+0105,1","+0063,1","99999,9","12,0000,9,1",,,,,,"07,99,1,07,1,00,1,01750,1,07,1,99,9",,,,"999,M,+0139,1","99999,9,09037,1","3,1,005,1,+999,9","3,1513,9",,"SYN082AAXX  18184 08213 12765 72002 10105 20063 39037 48513 53005 60002 8707/ 333 10139;","Q01  00002PRCP12"
"08213099999","2010-01-19T06:00:00","4","40.95","-4.1333333","1005.0","SEGOVIA, SP","FM-12","99999","V020","090,1,N,0015,1","03600,1,9,N","015000,1,N,1","+0071,1","+0042,1","99999,9","12,0000,9,1","24,0000,9,1",,,,,"07,99,1,02,1,05,1,00800,1,07,1,99,9","0234,9","09,9","999,+0040,9","999,N,+0068,1","99999,9,09037,1","4,1,000,1,+999,9","3,1506,9",,"SYN100AAXX  19064 08213 12565 70903 10071 20042 39037 48506 54000 60002 8257/ 333 20068 31004 55039 70000;","Q01  00002PRCP24Q02  00002PRCP12"
"08213099999","2010-01-19T09:00:00","4","40.95","-4.1333333","1005.0","SEGOVIA, SP","FM-12","99999","V020","180,1,N,0021,1","03600,1,9,N","018000,1,N,1","+0083,1","+0045,1","99999,9",,,,,,,"08,99,1,01,1,06,1,00800,1,07,1,99,9",,,,,"99999,9,09036,1","8,1,001,1,+999,9","3,1508,9",,"SYN066AAXX  19094 08213 42568 81804 10083 20045 39036 48508 58001 8167/;",
"08213099999","2010-01-19T12:00:00","4","40.95","-4.1333333","1005.0","SEGOVIA, SP","FM-12","99999","V020","240,1,N,0036,1","03600,1,9,N","018000,1,N,1","+0128,1","+0064,1","99999,9","06,0000,9,1",,,,,,"06,99,1,03,1,05,1,00800,1,03,1,01,1",,,,,"99999,9,09030,1","8,1,006,1,+999,9","3,1510,9",,"SYN082AAXX  19124 08213 12568 62407 10128 20064 39030 48510 58006 60001 83531 333 50050;","Q01  00002PRCP06"
"08213099999","2010-01-19T15:00:00","4","40.95","-4.1333333","1005.0","SEGOVIA, SP","FM-12","99999","V020","270,1,N,0093,1","03600,1,9,N","020000,1,N,1","+0119,1","+0044,1","99999,9",,,,,,,"05,99,1,03,1,05,1,00800,1,03,1,01,1",,,,,"99999,9,09028,1","8,1,002,1,+999,9","3,1507,9",,"SYN066AAXX  19154 08213 42570 52718 10119 20044 39028 48507 58002 83531;",
"08213099999","2010-01-19T18:00:00","4","40.95","-4.1333333","1005.0","SEGOVIA, SP","FM-12","99999","V020","240,1,N,0031,1","03600,1,9,N","020000,1,N,1","+0086,1","+0052,1","99999,9","12,0000,9,1",,,,,,"07,99,1,03,1,05,1,00800,1,07,1,99,9",,,,"999,M,+0140,1","99999,9,09035,1","2,1,007,1,+999,9","3,1507,9",,"SYN082AAXX  19184 08213 12570 72406 10086 20052 39035 48507 52007 60002 8357/ 333 10140;","Q01  00002PRCP12"
"08213099999","2010-01-20T06:00:00","4","40.95","-4.1333333","1005.0","SEGOVIA, SP","FM-12","99999","V020","150,1,N,0031,1","00750,1,9,N","016000,1,N,1","+0066,1","+0015,1","99999,9","12,0000,9,1","24,0000,9,1",,,,,"08,99,1,05,1,05,1,00800,1,02,1,99,9","0216,9","09,9","999,+0040,9","999,N,+0054,1","99999,9,09045,1","8,1,005,1,+999,9","3,1512,9",,"SYN100AAXX  20064 08213 12566 81506 10066 20015 39045 48512 58005 60002 8552/ 333 20054 31004 55036 70000;","Q01  00002PRCP24Q02  00002PRCP12"
"08213099999","2010-01-20T09:00:00","4","40.95","-4.1333333","1005.0","SEGOVIA, SP","FM-12","99999","V020","280,1,N,0072,1","00750,1,9,N","010000,1,N,1","+0064,1","+0037,1","99999,9",,,,"6,1,03,1","2,1,03,1",,"08,99,1,05,1,05,1,00800,1,02,1,99,9",,,,,"99999,9,09053,1","1,1,008,1,+999,9","3,1519,9","60,1","SYN072AAXX  20094 08213 41560 82814 10064 20037 39053 48519 51008 76062 8552/;",
"08213099999","2010-01-20T12:00:00","4","40.95","-4.1333333","1005.0","SEGOVIA, SP","FM-12","99999","V020","270,1,N,0062,1","00750,1,9,N","016000,1,N,1","+0080,1","+0020,1","99999,9","06,0005,9,1",,,"6,1,06,1","2,1,06,1",,"07,99,1,05,1,02,1,00800,1,00,1,06,1",,,,,"99999,9,09061,1","0,1,008,1,+999,9","3,1529,9","01,1","SYN088AAXX  20124 08213 11566 72712 10080 20020 39061 48529 50008 69951 70162 85206 333 50100;",
"08213099999","2010-01-20T15:00:00","4","40.95","-4.1333333","1005.0","SEGOVIA, SP","FM-12","99999","V020","280,1,N,0067,1","22000,1,9,N","020000,1,N,1","+0086,1","+0006,1","99999,9",,,,,,,"06,99,1,03,1,02,1,00800,1,00,1,04,1",,,,,"99999,9,09060,1","6,1,001,1,+999,9","3,1529,9",,"SYN066AAXX  20154 08213 42570 62813 10086 20006 39060 48529 56001 83204;",
"08213099999","2010-01-20T18:00:00","4","40.95","-4.1333333","1005.0","SEGOVIA, SP","FM-12","99999","V020","290,1,N,0026,1","00750,1,9,N","018000,1,N,1","+0064,1","+0011,1","99999,9","12,0005,9,1",,,,,,"07,99,1,05,1,05,1,00800,1,02,1,00,1",,,,"999,M,+0088,1","99999,9,09070,1","3,1,010,1,+999,9","3,1534,9",,"SYN082AAXX  20184 08213 12568 72905 10064 20011 39070 48534 53010 69952 85520 333 10088;",
"08213099999","2010-01-21T06:00:00","4","40.95","-4.1333333","1005.0","SEGOVIA, SP","FM-12","99999","V020","140,1,N,0010,1","00750,1,9,N","010000,1,N,1","+0048,1","+0020,1","99999,9","12,0000,9,1","24,0005,9,1",,,,,"08,99,1,05,1,05,1,00800,1,02,1,99,9","0342,9","09,9","999,+0010,9","999,N,+0032,1","99999,9,09072,1","7,1,006,1,+999,9","3,1533,9",,"SYN100AAXX  21064 08213 12560 81402 10048 20020 39072 48533 57006 60002 8552/ 333 20032 31001 55057 70005;","Q01  00002PRCP12"
"08213099999","2010-01-21T09:00:00","4","40.95","-4.1333333","1005.0","SEGOVIA, SP","FM-12","99999","V020","140,1,N,0026,1","03600,1,9,N","016000,1,N,1","+0056,1","+0008,1","99999,9",,,,,,,"07,99,1,04,1,05,1,00800,1,02,1,00,1",,,,,"99999,9,09077,1","3,1,005,1,+999,9","3,1539,9",,"SYN066AAXX  21094 08213 42566 71405 10056 20008 39077 48539 53005 84520;",
"08213099999","2010-01-21T12:00:00","4","40.95","-4.1333333","1005.0","SEGOVIA, SP","FM-12","99999","V020","280,1,N,0015,1","03600,1,9,N","020000,1,N,1","+0080,1","-0002,1","99999,9","06,0000,9,1",,,,,,"07,99,1,02,1,04,1,00800,1,06,1,06,1",,,,,"99999,9,09082,1","0,1,005,1,+999,9","3,1548,9",,"SYN082AAXX  21124 08213 12570 72803 10080 21002 39082 48548 50005 60001 82466 333 50110;","Q01  00002PRCP06"
"08213099999","2010-01-21T15:00:00","4","40.95","-4.1333333","1005.0","SEGOVIA, SP","FM-12","99999","V020","300,1,N,0031,1","03600,1,9,N","020000,1,N,1","+0098,1","-0007,1","99999,9",,,,,,,"07,99,1,02,1,04,1,00800,1,06,1,09,1",,,,,"99999,9,09065,1","7,1,017,1,+999,9","3,1536,9",,"SYN066AAXX  21154 08213 42570 73006 10098 21007 39065 48536 57017 82469;",
"08213099999","2010-01-21T18:00:00","4","40.95","-4.1333333","1005.0","SEGOVIA, SP","FM-12","99999","V020","350,1,N,0010,1","01500,1,9,N","020000,1,N,1","+0070,1","+0002,1","99999,9","12,0000,9,1",,,,,,"07,99,1,07,1,00,1,01750,1,05,1,00,1",,,,"999,M,+0098,1","99999,9,09066,1","3,1,001,1,+999,9","3,1532,9",,"SYN082AAXX  21184 08213 12770 73502 10070 20002 39066 48532 53001 60002 87050 333 10098;","Q01  00002PRCP12"
"08213099999","2010-01-22T06:00:00","4","40.95","-4.1333333","1005.0","SEGOVIA, SP","FM-12","99999","V020","200,1,N,0015,1","03600,1,9,N","010000,1,N,1","+0041,1","+0015,1","99999,9","12,0000,9,1","24,0000,9,1",,,,,"06,99,1,04,1,05,1,00800,1,07,1,08,1","0258,9","09,9","999,+0020,9","999,N,+0038,1","99999,9,09063,1","6,1,007,1,+999,9","3,1524,9",,"SYN100AAXX  22064 08213 12560 62003 10041 20015 39063 48524 56007 60002 84578 333 20038 31002 55043 70000;","Q01  00002PRCP24Q02  00002PRCP12"
"08213099999","2010-01-22T09:00:00","4","40.95","-4.1333333","1005.0","SEGOVIA, SP","FM-12","99999","V020","160,1,N,0021,1","03600,1,9,N","015000,1,N,1","+0068,1","+0021,1","99999,9",,,,,,,"07,99,1,04,1,05,1,00800,1,03,1,08,1",,,,,"99999,9,09057,1","7,1,006,1,+999,9","3,1524,9",,"SYN066AAXX  22094 08213 42565 71604 10068 20021 39057 48524 57006 84538;",
"08213099999","2010-01-22T12:00:00","4","40.95","-4.1333333","1005.0","SEGOVIA, SP","FM-12","99999","V020","080,1,N,0010,1","03600,1,9,N","012000,1,N,1","+0086,1","+0032,1","99999,9","06,9999,9,9",,,"2,1,06,1","2,1,06,1",,"08,99,1,03,1,04,1,00800,1,03,1,08,1",,,,,"99999,9,09051,1","8,1,006,1,+999,9","3,1522,9","60,1","SYN088AAXX  22124 08213 11562 80802 10086 20032 39051 48522 58006 69901 76022 83438 333 50160;","Q01  00002PRCP06Q02  00002PRCP06"
"08213099999","2010-01-22T15:00:00","4","40.95","-4.1333333","1005.0","SEGOVIA, SP","FM-12","99999","V020","360,1,N,0021,1","03600,1,9,N","012000,1,N,1","+0102,1","+0046,1","99999,9",,,,,,,"06,99,1,03,1,04,1,00800,1,03,1,08,1",,,,,"99999,9,09037,1","6,1,014,1,+999,9","3,1512,9",,"SYN066AAXX  22154 08213 42562 63604 10102 20046 39037 48512 56014 83438;",
"08213099999","2010-01-22T18:00:00","4","40.95","-4.1333333","1005.0","SEGOVIA, SP","FM-12","99999","V020","090,1,N,0026,1","03600,1,9,N","012000,1,N,1","+0087,1","+0051,1","99999,9","12,0000,2,1",,,"6,1,06,1","2,1,06,1",,"06,99,1,03,1,04,1,00800,1,03,1,08,1",,,,"999,M,+0110,1","99999,9,09034,1","8,1,003,1,+999,9","3,1507,9","02,1","SYN088AAXX  22184 08213 11562 60905 10087 20051 39034 48507 58003 69902 70262 83438 333 10110;",
"08213099999","2010-01-23T06:00:00","4","40.95","-4.1333333","1005.0","SEGOVIA, SP","FM-12","99999","V020","040,1,N,0026,1","00750,1,9,N","010000,1,N,1","+0072,1","+0042,1","99999,9","12,0005,9,1","24,0005,9,1",,"6,1,06,1","2,1,06,1",,"08,99,1,05,1,06,1,00800,1,07,1,08,1","0042,9","11,9","999,+0050,9","999,N,+0054,1","99999,9,08991,1","6,1,003,1,+999,9","3,1465,9","02,1","SYN106AAXX  23064 08213 11560 80405 10072 20042 38991 48465 56003 69952 70262 85678 333 20054 32005 55007 70005;",
"08213099999","2010-01-23T09:00:00","4","40.95","-4.1333333","1005.0","SEGOVIA, SP","FM-12","99999","V020","180,1,N,0062,1","03600,1,9,N","015000,1,N,1","+0088,1","+0026,1","99999,9",,,,,,,"07,99,1,04,1,05,1,00800,1,07,1,01,1",,,,,"99999,9,08997,1","3,1,006,1,+999,9","3,1473,9",,"SYN066AAXX  23094 08213 42565 71812 10088 20026 38997 48473 53006 84571;",
"08213099999","2010-01-23T12:00:00","4","40.95","-4.1333333","1005.0","SEGOVIA, SP","FM-12","99999","V020","070,1,N,0031,1","03600,1,9,N","015000,1,N,1","+0105,1","+0024,1","99999,9","06,0000,9,1",,,"6,1,06,1","2,1,06,1",,"06,99,1,04,1,05,1,00800,1,07,1,00,1",,,,,"99999,9,09001,1","0,1,004,1,+999,9","3,1479,9","02,1","SYN088AAXX  23124 08213 11565 60706 10105 20024 39001 48479 50004 69901 70262 84570 333 50050;","Q01  00002PRCP06"
"08213099999","2010-01-23T15:00:00","4","40.95","-4.1333333","1005.0","SEGOVIA, SP","FM-12","99999","V020","050,1,N,0036,1","03600,1,9,N","012000,1,N,1","+0108,1","+0047,1","99999,9",,,,,,,"06,99,1,02,1,08,1,00800,1,07,1,08,1",,,,,"99999,9,08993,1","6,1,008,1,+999,9","3,1473,9",,"SYN066AAXX  23154 08213 42562 60507 10108 20047 38993 48473 56008 82878;",
"08213099999","2010-01-23T18:00:00","4","40.95","-4.1333333","1005.0","SEGOVIA, SP","FM-12","99999","V020","130,1,N,0036,1","03600,1,9,N","012000,1,N,1","+0076,1","+0006,1","99999,9","12,0000,9,1",,,,,,"06,99,1,02,1,04,1,00800,1,07,1,08,1",,,,"999,M,+0116,1","99999,9,09005,1","3,1,012,1,+999,9","3,1478,9",,"SYN082AAXX  23184 08213 12562 61307 10076 20006 39005 48478 53012 69902 82478 333 10116;","Q01  00002PRCP12"
"08213099999","2010-01-24T06:00:00","4","40.95","-4.1333333","1005.0","SEGOVIA, SP","FM-12","99999","V020","150,1,N,0015,1","00750,1,9,N","008000,1,N,1","+0052,1","+0043,1","99999,9","12,0041,9,1","24,0041,9,1",,"6,1,06,1","2,1,06,1",,"08,99,1,05,1,07,1,00800,1,07,1,08,1","0228,9","11,9","999,+0060,9","999,N,+0048,1","99999,9,09025,1","2,1,004,1,+999,9","3,1492,9","60,1","SYN106AAXX  24064 08213 11558 81503 10052 20043 39025 48492 52004 60042 76062 85778 333 20048 32006 55038 70040;",
"08213099999","2010-01-24T09:00:00","4","40.95","-4.1333333","1005.0","SEGOVIA, SP","FM-12","99999","V020","090,1,N,0015,1","00750,1,9,N","004000,1,N,1","+0050,1","+0046,1","99999,9",,,,"6,1,03,1","5,1,03,1",,"08,99,1,06,1,06,1,00800,1,07,1,08,1",,,,,"99999,9,09047,1","2,1,022,1,+999,9","3,1512,9","61,1","SYN072AAXX  24094 08213 41540 80903 10050 20046 39047 48512 52022 76165 86678;",
"08213099999","2010-01-24T12:00:00","4","40.95","-4.1333333","1005.0","SEGOVIA, SP","FM-12","99999","V020","030,1,N,0041,1","00750,1,9,N","008000,1,N,1","+0067,1","+0035,1","99999,9","06,0020,9,1",,,"6,1,06,1","2,1,06,1",,"08,99,1,06,1,07,1,00800,1,07,1,08,1",,,,,"99999,9,09062,1","1,1,015,1,+999,9","3,1528,9","10,1","SYN088AAXX  24124 08213 11558 80308 10067 20035 39062 48528 51015 60021 71062 86778 333 50050;",
"08213099999","2010-01-24T15:00:00","4","40.95","-4.1333333","1005.0","SEGOVIA, SP","FM-12","99999","V020","030,1,N,0041,1","03600,1,9,N","015000,1,N,1","+0072,1","+0034,1","99999,9",,,,"6,1,03,1","2,1,03,1",,"06,99,1,04,1,07,1,00800,1,07,1,01,1",,,,,"99999,9,09060,1","6,1,002,1,+999,9","3,1527,9","01,1","SYN072AAXX  24154 08213 41565 60308 10072 20034 39060 48527 56002 70162 84771;",
"08213099999","2010-01-24T18:00:00","4","40.95","-4.1333333","1005.0","SEGOVIA, SP","FM-12","99999","V020","060,1,N,0051,1","03600,1,9,N","008000,1,N,1","+0052,1","+0034,1","99999,9","12,0020,9,1",,,"6,1,06,1","2,1,06,1",,"07,99,1,04,1,07,1,00800,1,07,1,08,1",,,,"999,M,+0077,1","99999,9,09069,1","2,1,009,1,+999,9","3,1531,9","21,1","SYN088AAXX  24184 08213 11558 70610 10052 20034 39069 48531 52009 60022 72162 84778 333 10077;",
"08213099999","2010-01-25T06:00:00","4","40.95","-4.1333333","1005.0","SEGOVIA, SP","FM-12","99999","V020","020,1,N,0026,1","00750,1,9,N","012000,1,N,1","+0008,1","-0008,1","99999,9","12,0000,2,1","24,0018,9,1",,,,,"08,99,1,05,1,05,1,00800,1,02,1,99,9","0048,9","09,9","999,-0010,9","999,N,+0006,1","99999,9,09079,1","8,1,005,1,+999,9","3,1531,9",,"SYN100AAXX  25064 08213 12562 80205 10008 21008 39079 48531 58005 60002 8552/ 333 20006 31101 55008 70017;",
"08213099999","2010-01-25T09:00:00","4","40.95","-4.1333333","1005.0","SEGOVIA, SP","FM-12","99999","V020","050,1,N,0031,1","00750,1,9,N","012000,1,N,1","+0004,1","-0012,1","99999,9",,,,,,,"07,99,1,05,1,05,1,00800,1,02,1,00,1",,,,,"99999,9,09077,1","7,1,002,1,+999,9","3,1529,9",,"SYN066AAXX  25094 08213 42562 70506 10004 21012 39077 48529 57002 85520;",
"08213099999","2010-01-25T12:00:00","4","40.95","-4.1333333","1005.0","SEGOVIA, SP","FM-12","99999","V020","020,1,N,0026,1","00750,1,9,N","018000,1,N,1","+0024,1","-0019,1","99999,9","06,0000,9,1",,,,,,"05,99,1,05,1,02,1,00800,1,00,1,00,1",,,,,"99999,9,09076,1","7,1,001,1,+999,9","3,1532,9",,"SYN082AAXX  25124 08213 12568 50205 10024 21019 39076 48532 57001 60001 85200 333 50040;","Q01  00002PRCP06"
"08213099999","2010-01-25T15:00:00","4","40.95","-4.1333333","1005.0","SEGOVIA, SP","FM-12","99999","V020","040,1,N,0041,1","00750,1,9,N","018000,1,N,1","+0030,1","-0044,1","99999,9",,,,,,,"08,99,1,05,1,05,1,00800,1,02,1,99,9",,,,,"99999,9,09049,1","7,1,027,1,+999,9","3,1509,9",,"SYN066AAXX  25154 08213 42568 80408 10030 21044 39049 48509 57027 8552/;",
"08213099999","2010-01-25T18:00:00","4","40.95","-4.1333333","1005.0","SEGOVIA, SP","FM-12","99999","V020","040,1,N,0021,1","00750,1,9,N","016000,1,N,1","+0020,1","-0043,1","99999,9","12,0000,9,1",,,,,,"08,99,1,05,1,05,1,00800,1,02,1,99,9",,,,"999,M,+0044,1","99999,9,09046,1","6,1,003,1,+999,9","3,1504,9",,"SYN082AAXX  25184 08213 12566 80404 10020 21043 39046 48504 56003 60002 8552/ 333 10044;","Q01  00002PRCP12"
"08213099999","2010-01-26T06:00:00","4","40.95","-4.1333333","1005.0","SEGOVIA, SP","FM-12","99999","V020","300,1,N,0031,1","22000,1,9,N","012000,1,N,1","+0026,1","-0029,1","99999,9","12,0000,9,1","24,0000,9,1",,,,,"04,99,1,04,1,02,1,00800,1,00,1,00,1","0108,9","09,9","999,-0020,9","999,N,-0014,1","99999,9,09034,1","4,1,000,1,+999,9","3,1495,9",,"SYN100AAXX  26064 08213 12562 43006 10026 21029 39034 48495 54000 60002 84200 333 21014 31102 55018 70000;","Q01  00002PRCP24Q02  00002PRCP12"
"08213099999","2010-01-26T09:00:00","4","40.95","-4.1333333","1005.0","SEGOVIA, SP","FM-12","99999","V020","060,1,N,0041,1","22000,1,9,N","020000,1,N,1","+0022,1","-0035,1","99999,9",,,,,,,"03,99,1,01,1,04,1,00800,1,00,1,01,1",,,,,"99999,9,09051,1","1,1,017,1,+999,9","3,1509,9",,"SYN066AAXX  26094 08213 42570 30608 10022 21035 39051 48509 51017 81401;",
"08213099999","2010-01-26T12:00:00","4","40.95","-4.1333333","1005.0","SEGOVIA, SP","FM-12","99999","V020","030,1,N,0067,1","22000,1,9,N","020000,1,N,1","+0062,1","-0014,1","99999,9","06,0000,9,1",,,,,,"02,99,1,01,1,01,1,00800,1,00,1,04,1",,,,,"99999,9,09060,1","1,1,009,1,+999,9","3,1525,9",,"SYN082AAXX  26124 08213 12570 20313 10062 21014 39060 48525 51009 60001 81104 333 5///0;","Q01  00002PRCP06"
"08213099999","2010-01-26T18:00:00","4","40.95","-4.1333333","1005.0","SEGOVIA, SP","FM-12","99999","V020","240,1,N,0015,1","22000,1,9,N","016000,1,N,1","+0026,1","-0035,1","99999,9","12,0000,9,1",,,,,,"01,99,1,01,1,04,1,00800,1,00,1,00,1",,,,"999,M,+0074,1","99999,9,09063,1","3,1,014,1,+999,9","3,1521,9",,"SYN082AAXX  26184 08213 12566 12403 10026 21035 39063 48521 53014 60002 81400 333 10074;","Q01  00002PRCP12"
"08213099999","2010-01-27T06:00:00","4","40.95","-4.1333333","1005.0","SEGOVIA, SP","FM-12","99999","V020","030,1,N,0036,1","22000,1,9,N","010000,1,N,1","-0020,1","-0058,1","99999,9","12,0000,9,1","24,0000,9,1",,,,,"03,99,1,03,1,07,1,00800,1,00,1,00,1","0516,9","01,9","999,-0040,9","999,N,-0020,1","99999,9,09042,1","8,1,009,1,+999,9","3,1494,9",,"SYN100AAXX  27064 08213 12560 30307 11020 21058 39042 48494 58009 60002 83700 333 21020 30104 55086 70000;","Q01  00002PRCP24Q02  00002PRCP12"
"08213099999","2010-01-27T09:00:00","4","40.95","-4.1333333","1005.0","SEGOVIA, SP","FM-12","99999","V020","040,1,N,0077,1","22000,1,9,N","008000,1,N,1","-0018,1","-0063,1","99999,9",,,,"0,1,03,1","0,1,03,1",,"03,99,1,03,1,08,1,00800,1,00,1,00,1",,,,,"99999,9,09031,1","8,1,011,1,+999,9","3,1484,9","40,1","SYN072AAXX  27094 08213 41558 30415 11018 21063 39031 48484 58011 74000 83800;",
"08213099999","2010-01-27T12:00:00","4","40.95","-4.1333333","1005.0","SEGOVIA, SP","FM-12","99999","V020","060,1,N,0082,1","22000,1,9,N","010000,1,N,1","-0001,1","-0063,1","99999,9","06,0000,9,1",,,,,,"03,99,1,03,1,08,1,00450,1,00,1,00,1",,,,,"99999,9,09033,1","0,1,002,1,+999,9","3,1489,9",,"SYN082AAXX  27124 08213 12460 30616 11001 21063 39033 48489 50002 60001 83800 333 5////;","Q01  00002PRCP06"
"08213099999","2010-01-27T15:00:00","4","40.95","-4.1333333","1005.0","SEGOVIA, SP","FM-12","99999","V020","070,1,N,0021,1","22000,1,9,N","012000,1,N,1","+0012,1","-0078,1","99999,9",,,,,,,"04,99,1,04,1,08,1,00800,1,00,1,00,1",,,,,"99999,9,09026,1","5,1,007,1,+999,9","3,1485,9",,"SYN066AAXX  27154 08213 42562 40704 10012 21078 39026 48485 55007 84800;",
"08213099999","2010-01-27T18:00:00","4","40.95","-4.1333333","1005.0","SEGOVIA, SP","FM-12","99999","V020","100,1,N,0072,1","00750,1,9,N","010000,1,N,1","+0016,1","-0060,1","99999,9","12,0000,9,1",,,,,,"05,99,1,05,1,05,1,00800,1,00,1,00,1",,,,"999,M,+0027,1","99999,9,09039,1","1,1,013,1,+999,9","3,1497,9",,"SYN082AAXX  27184 08213 12560 51014 10016 21060 39039 48497 51013 60002 85500 333 10027;","Q01  00002PRCP12"
"08213099999","2010-01-28T06:00:00","4","40.95","-4.1333333","1005.0","SEGOVIA, SP","FM-12","99999","V020","090,1,N,0015,1","22000,1,9,N","010000,1,N,1","-0040,1","-0064,1","99999,9","12,0000,9,1","24,0000,9,1",,,,,"04,99,1,02,1,00,1,01750,1,07,1,08,1","0366,9","14,9","999,-0080,9","999,N,-0047,1","99999,9,09051,1","7,1,007,1,+999,9","3,1498,9",,"SYN100AAXX  28064 08213 12760 40903 11040 21064 39051 48498 57007 60002 82078 333 21047 34108 55061 70000;","Q01  00002PRCP24Q02  00002PRCP12"
"08213099999","2010-01-28T09:00:00","4","40.95","-4.1333333","1005.0","SEGOVIA, SP","FM-12","99999","V020","300,1,N,0010,1","22000,1,9,N","010000,1,N,1","-0022,1","-0052,1","99999,9",,,,,,,"02,99,1,01,1,00,1,01750,1,04,1,01,1",,,,,"99999,9,09060,1","3,1,009,1,+999,9","3,1509,9",,"SYN066AAXX  28094 08213 42760 23002 11022 21052 39060 48509 53009 81041;",
"08213099999","2010-01-28T12:00:00","4","40.95","-4.1333333","1005.0","SEGOVIA, SP","FM-12","99999","V020","330,1,N,0031,1","22000,1,9,N","015000,1,N,1","+0037,1","-0096,1","99999,9","06,0000,9,1",,,,,,"01,99,1,01,1,01,1,00800,1,00,1,00,1",,,,,"99999,9,09051,1","8,1,009,1,+999,9","3,1512,9",,"SYN082AAXX  28124 08213 12565 13306 10037 21096 39051 48512 58009 60001 81100 333 5////;","Q01  00002PRCP06"
"08213099999","2010-01-28T15:00:00","4","40.95","-4.1333333","1005.0","SEGOVIA, SP","FM-12","99999","V020","350,1,N,0015,1","03600,1,9,N","015000,1,N,1","+0042,1","-0072,1","99999,9",,,,,,,"05,99,1,03,1,04,1,00800,1,04,1,01,1",,,,,"99999,9,09033,1","7,1,018,1,+999,9","3,1497,9",,"SYN066AAXX  28154 08213 42565 53503 10042 21072 39033 48497 57018 83441;",
"08213099999","2010-01-28T18:00:00","4","40.95","-4.1333333","1005.0","SEGOVIA, SP","FM-12","99999","V020","350,1,N,0010,1","03600,1,9,N","010000,1,N,1","+0032,1","-0065,1","99999,9","12,0000,9,1",,,,,,"07,99,1,04,1,04,1,00800,1,07,1,08,1",,,,"999,M,+0043,1","99999,9,09027,1","8,1,006,1,+999,9","3,1490,9",,"SYN082AAXX  28184 08213 12560 73502 10032 21065 39027 48490 58006 60002 84478 333 10043;","Q01  00002PRCP12"
"08213099999","2010-01-29T06:00:00","4","40.95","-4.1333333","1005.0","SEGOVIA, SP","FM-12","99999","V020","220,1,N,0015,1","22000,1,9,N","015000,1,N,1","+0021,1","-0075,1","99999,9","12,0000,9,1","24,0000,9,1",,,,,"04,99,1,04,1,05,1,00800,1,00,1,00,1","0408,9","09,9","999,-0080,9","999,N,-0009,1","99999,9,08971,1","7,1,008,1,+999,9","3,1438,9",,"SYN100AAXX  29064 08213 12565 42203 10021 21075 38971 48438 57008 60002 84500 333 21009 31108 55068 70000;","Q01  00002PRCP24Q02  00002PRCP12"
"08213099999","2010-01-29T09:00:00","4","40.95","-4.1333333","1005.0","SEGOVIA, SP","FM-12","99999","V020","250,1,N,0021,1","00750,1,9,N","018000,1,N,1","+0013,1","-0056,1","99999,9",,,,,,,"07,99,1,06,1,05,1,00800,1,03,1,99,9",,,,,"99999,9,08968,1","6,1,003,1,+999,9","3,1434,9",,"SYN066AAXX  29094 08213 42568 72504 10013 21056 38968 48434 56003 8653/;",
"08213099999","2010-01-29T12:00:00","4","40.95","-4.1333333","1005.0","SEGOVIA, SP","FM-12","99999","V020","250,1,N,0031,1","22000,1,9,N","020000,1,N,1","+0049,1","-0039,1","99999,9","06,0000,9,1",,,,,,"03,99,1,01,1,05,1,00800,1,04,1,01,1",,,,,"99999,9,08952,1","7,1,016,1,+999,9","3,1425,9",,"SYN082AAXX  29124 08213 12570 32506 10049 21039 38952 48425 57016 60001 81541 333 5///0;","Q01  00002PRCP06"
"08213099999","2010-01-29T15:00:00","4","40.95","-4.1333333","1005.0","SEGOVIA, SP","FM-12","99999","V020","290,1,N,0046,1","22000,1,9,N","018000,1,N,1","+0066,1","-0011,1","99999,9",,,,,,,"04,99,1,02,1,05,1,00800,1,06,1,00,1",,,,,"99999,9,08926,1","7,1,026,1,+999,9","3,1405,9",,"SYN066AAXX  29154 08213 42568 42909 10066 21011 38926 48405 57026 82560;",
"08213099999","2010-01-29T18:00:00","4","40.95","-4.1333333","1005.0","SEGOVIA, SP","FM-12","99999","V020","280,1,N,0051,1","00750,1,9,N","018000,1,N,1","+0048,1","+0025,1","99999,9","12,9999,9,9",,,"6,1,06,1","2,1,06,1",,"07,99,1,06,1,05,1,00800,1,06,1,99,9",,,,"999,M,+0075,1","99999,9,08925,1","5,1,001,1,+999,9","3,1401,9","60,1","SYN088AAXX  29184 08213 11568 72810 10048 20025 38925 48401 55001 69902 76062 8656/ 333 10075;","Q01  00002PRCP12Q02  00002PRCP12"
"08213099999","2010-01-30T06:00:00","4","40.95","-4.1333333","1005.0","SEGOVIA, SP","FM-12","99999","V020","260,1,N,0041,1","22000,1,9,N","015000,1,N,1","+0010,1","-0006,1","99999,9","12,0000,2,1","24,0000,2,1",,,,,"04,99,1,04,1,05,1,00800,1,00,1,00,1","0366,9","09,9","999,-0040,9","999,N,+0000,1","99999,9,08941,1","4,1,000,1,+999,9","3,1410,9",,"SYN100AAXX  30064 08213 12565 42608 10010 21006 38941 48410 54000 60002 84500 333 20000 31104 55061 79999;",
"08213099999","2010-01-30T09:00:00","4","40.95","-4.1333333","1005.0","SEGOVIA, SP","FM-12","99999","V020","280,1,N,0031,1","00750,1,9,N","001200,1,N,1","+0003,1","-0005,1","99999,9",,,,"2,1,03,1","2,1,03,1",,"08,99,1,08,1,06,1,00800,1,99,9,99,9",,,,,"99999,9,08955,1","1,1,014,1,+999,9","3,1421,9","10,1","SYN072AAXX  30094 08213 41512 82806 10003 21005 38955 48421 51014 71022 886//;",
"08213099999","2010-01-30T12:00:00","4","40.95","-4.1333333","1005.0","SEGOVIA, SP","FM-12","99999","V020","250,1,N,0036,1","00750,1,9,N","015000,1,N,1","+0040,1","+0000,1","99999,9","06,0000,9,1",,,,,,"07,99,1,07,1,05,1,00800,1,99,9,99,9",,,,,"99999,9,08952,1","8,1,003,1,+999,9","3,1424,9",,"SYN082AAXX  30124 08213 12565 72507 10040 20000 38952 48424 58003 60001 875// 333 50280;","Q01  00002PRCP06"
"08213099999","2010-01-30T15:00:00","4","40.95","-4.1333333","1005.0","SEGOVIA, SP","FM-12","99999","V020","270,1,N,0113,1","00750,1,9,N","015000,1,N,1","+0064,1","-0010,1","99999,9",,,,,,,"07,99,1,07,1,05,1,00800,1,99,9,99,9",,,,,"99999,9,08941,1","7,1,011,1,+999,9","3,1418,9",,"SYN066AAXX  30154 08213 42565 72722 10064 21010 38941 48418 57011 875//;",
"08213099999","2010-01-30T18:00:00","4","40.95","-4.1333333","1005.0","SEGOVIA, SP","FM-12","99999","V020","270,1,N,0067,1","00750,1,9,N","018000,1,N,1","+0045,1","-0005,1","99999,9","12,0000,9,1",,,,,,"07,99,1,07,1,05,1,00800,1,99,9,99,9",,,,"999,M,+0070,1","99999,9,08944,1","3,1,003,1,+999,9","3,1418,9",,"SYN082AAXX  30184 08213 12568 72713 10045 21005 38944 48418 53003 60002 875// 333 10070;","Q01  00002PRCP12"
"08213099999","2010-01-31T06:00:00","4","40.95","-4.1333333","1005.0","SEGOVIA, SP","FM-12","99999","V020","280,1,N,0041,1","00750,1,9,N","015000,1,N,1","+0016,1","+0001,1","99999,9","12,0000,9,1","24,0000,9,1",,,,,"08,99,1,05,1,05,1,00800,1,02,1,99,9","0294,9","09,9","999,+0000,9","999,N,+0016,1","99999,9,08938,1","7,1,005,1,+999,9","3,1408,9",,"SYN100AAXX  31064 08213 12565 82808 10016 20001 38938 48408 57005 60002 8552/ 333 20016 31000 55049 70000;","Q01  00002PRCP24Q02  00002PRCP12"
"08213099999","2010-01-31T09:00:00","4","40.95","-4.1333333","1005.0","SEGOVIA, SP","FM-12","99999","V020","270,1,N,0062,1","00750,1,9,N","016000,1,N,1","+0018,1","-0003,1","99999,9",,,,,,,"08,99,1,05,1,05,1,00800,1,02,1,99,9",,,,,"99999,9,08938,1","5,1,000,1,+999,9","3,1408,9",,"SYN066AAXX  31094 08213 42566 82712 10018 21003 38938 48408 55000 8552/;",
"08213099999","2010-01-31T12:00:00","4","40.95","-4.1333333","1005.0","SEGOVIA, SP","FM-12","99999","V020","280,1,N,0051,1","00750,1,9,N","016000,1,N,1","+0026,1","-0005,1","99999,9","06,0000,9,1",,,,,,"08,99,1,05,1,05,1,00800,1,02,1,99,9",,,,,"99999,9,08945,1","1,1,007,1,+999,9","3,1416,9",,"SYN082AAXX  31124 08213 12566 82810 10026 21005 38945 48416 51007 60001 8552/ 333 50100;","Q01  00002PRCP06"
"08213099999","2010-01-31T15:00:00","4","40.95","-4.1333333","1005.0","SEGOVIA, SP","FM-12","99999","V020","270,1,N,0082,1","00750,1,9,N","016000,1,N,1","+0054,1","+0006,1","99999,9",,,,,,,"08,99,1,05,1,05,1,00800,1,02,1,99,9",,,,,"99999,9,08939,1","8,1,006,1,+999,9","3,1415,9",,"SYN066AAXX  31154 08213 42566 82716 10054 20006 38939 48415 58006 8552/;",
"08213099999","2010-01-31T18:00:00","4","40.95","-4.1333333","1005.0","SEGOVIA, SP","FM-12","99999","V020","280,1,N,0062,1","01200,1,9,N","016000,1,N,1","+0054,1","+0000,1","99999,9","12,0000,9,1",,,,,,"07,99,1,07,1,08,1,00800,1,00,1,00,1",,,,"999,M,+0066,1","99999,9,08948,1","3,1,009,1,+999,9","3,1423,9",,"SYN082AAXX  31184 08213 12566 72812 10054 20000 38948 48423 53009 60002 87800 333 10066;","Q01  00002PRCP12"
"08213099999","2010-02-01T06:00:00","4","40.95","-4.1333333","1005.0","SEGOVIA, SP","FM-12","99999","V020","240,1,N,0015,1","22000,1,9,N","010000,1,N,1","-0005,1","-0019,1","99999,9","12,0000,9,1","24,0000,9,1",,,,,"02,99,1,01,1,01,1,00800,1,04,1,00,1","0078,9","14,9","999,-0050,9","999,N,-0005,1","99999,9,09009,1","2,1,020,1,+999,9","3,1468,9",,"SYN100AAXX  01064 08213 12560 22403 11005 21019 39009 48468 52020 60002 81140 333 21005 34105 55013 70000;","Q01  00002PRCP24Q02  00002PRCP12"
"08213099999","2010-02-01T09:00:00","4","40.95","-4.1333333","1005.0","SEGOVIA, SP","FM-12","99999","V020","280,1,N,0021,1","22000,1,9,N","010000,1,N,1","+0007,1","-0020,1","99999,9",,,,,,,"01,99,1,01,1,01,1,00800,1,00,1,00,1",,,,,"99999,9,09035,1","3,1,026,1,+999,9","3,1493,9",,"SYN066AAXX  01094 08213 42560 12804 10007 21020 39035 48493 53026 81100;",
"08213099999","2010-02-01T12:00:00","4","40.95","-4.1333333","1005.0","SEGOVIA, SP","FM-12","99999","V020","050,1,N,0051,1","22000,1,9,N","015000,1,N,1","+0056,1","-0069,1","99999,9","06,0000,9,1",,,,,,"01,99,1,01,1,04,1,00800,1,00,1,00,1",,,,,"99999,9,09047,1","1,1,012,1,+999,9","3,1512,9",,"SYN082AAXX  01124 08213 12565 10510 10056 21069 39047 48512 51012 60001 81400 333 5////;","Q01  00002PRCP06"
"08213099999","2010-02-01T15:00:00","4","40.95","-4.1333333","1005.0","SEGOVIA, SP","FM-12","99999","V020","060,1,N,0031,1","22000,1,9,N","020000,1,N,1","+0064,1","-0079,1","99999,9",,,,,,,"02,99,1,01,1,04,1,00800,1,00,1,08,1",,,,,"99999,9,09047,1","4,1,000,1,+999,9","3,1513,9",,"SYN066AAXX  01154 08213 42570 20606 10064 21079 39047 48513 54000 81408;",
"08213099999","2010-02-01T18:00:00","4","40.95","-4.1333333","1005.0","SEGOVIA, SP","FM-12","99999","V020","060,1,N,0041,1","22000,1,9,N","020000,1,N,1","+0037,1","-0060,1","99999,9","12,0000,9,1",,,,,,"01,99,1,00,1,00,1,99999,9,00,1,01,1",,,,"999,M,+0072,1","99999,9,09059,1","2,1,012,1,+999,9","3,1519,9",,"SYN082AAXX  01184 08213 12970 10608 10037 21060 39059 48519 52012 60002 80001 333 10072;","Q01  00002PRCP12"
"08213099999","2010-02-02T06:00:00","4","40.95","-4.1333333","1005.0","SEGOVIA, SP","FM-12","99999","V020","080,1,N,0010,1","22000,1,9,N","010000,1,N,1","-0010,1","-0061,1","99999,9","12,0000,9,1","24,0000,9,1",,,,,"02,99,1,00,1,00,1,99999,9,00,1,08,1","0504,9","14,9","999,-0080,9","999,N,-0017,1","99999,9,09063,1","8,1,005,1,+999,9","3,1514,9",,"SYN100AAXX  02064 08213 12960 20802 11010 21061 39063 48514 58005 60002 80008 333 21017 34108 55084 70000;","Q01  00002PRCP24Q02  00002PRCP12"
"08213099999","2010-02-02T09:00:00","4","40.95","-4.1333333","1005.0","SEGOVIA, SP","FM-12","99999","V020","070,1,N,0021,1","22000,1,9,N","010000,1,N,1","+0027,1","-0064,1","99999,9",,,,,,,"01,99,1,01,1,01,1,00800,1,00,1,01,1",,,,,"99999,9,09067,1","3,1,004,1,+999,9","3,1524,9",,"SYN066AAXX  02094 08213 42560 10704 10027 21064 39067 48524 53004 81101;",
"08213099999","2010-02-02T12:00:00","4","40.95","-4.1333333","1005.0","SEGOVIA, SP","FM-12","99999","V020","030,1,N,0036,1","22000,1,9,N","020000,1,N,1","+0080,1","-0035,1","99999,9","06,0000,9,1",,,,,"00,1,+99999,9,99,9","00,99,1,00,1,00,1,99999,9,00,1,00,1",,,,,"99999,9,09065,1","8,1,002,1,+999,9","3,1532,9",,"SYN076AAXX  02124 08213 12970 00307 10080 21035 39065 48532 58002 60001 333 5////;","Q01  00002PRCP06"
"08213099999","2010-02-02T15:00:00","4","40.95","-4.1333333","1005.0","SEGOVIA, SP","FM-12","99999","V020","270,1,N,0021,1","22000,1,9,N","020000,1,N,1","+0104,1","-0036,1","99999,9",,,,,,"00,1,+99999,9,99,9","00,99,1,00,1,00,1,99999,9,00,1,00,1",,,,,"99999,9,09049,1","8,1,016,1,+999,9","3,1522,9",,"SYN060AAXX  02154 08213 42970 02704 10104 21036 39049 48522 58016;",
"08213099999","2010-02-02T18:00:00","4","40.95","-4.1333333","1005.0","SEGOVIA, SP","FM-12","99999","V020","050,1,N,0021,1","22000,1,9,N","020000,1,N,1","+0070,1","-0022,1","99999,9","12,0000,9,1",,,,,"00,1,+99999,9,99,9","00,99,1,00,1,00,1,99999,9,00,1,00,1",,,,"999,M,+0106,1","99999,9,09052,1","1,1,003,1,+999,9","3,1519,9",,"SYN076AAXX  02184 08213 12970 00504 10070 21022 39052 48519 51003 60002 333 10106;","Q01  00002PRCP12"
"08213099999","2010-02-03T06:00:00","4","40.95","-4.1333333","1005.0","SEGOVIA, SP","FM-12","99999","V020","070,1,N,0015,1","22000,1,9,N","020000,1,N,1","+0007,1","-0073,1","99999,9","12,0000,9,1","24,0000,9,1",,,,"00,1,+99999,9,99,9","00,99,1,00,1,00,1,99999,9,00,1,00,1","0570,9","09,9","999,-0080,9","999,N,-0003,1","99999,9,09034,1","6,1,005,1,+999,9","3,1491,9",,"SYN094AAXX  03064 08213 12970 00703 10007 21073 39034 48491 56005 60002 333 21003 31108 55095 70000;","Q01  00002PRCP24Q02  00002PRCP12"
"08213099999","2010-02-03T09:00:00","4","40.95","-4.1333333","1005.0","SEGOVIA, SP","FM-12","99999","V020","080,1,N,0015,1","22000,1,9,N","018000,1,N,1","+0036,1","-0066,1","99999,9",,,,,,,"02,99,1,00,1,00,1,99999,9,00,1,01,1",,,,,"99999,9,09034,1","4,1,000,1,+999,9","3,1496,9",,"SYN066AAXX  03094 08213 42968 20803 10036 21066 39034 48496 54000 80001;",
"08213099999","2010-02-03T12:00:00","4","40.95","-4.1333333","1005.0","SEGOVIA, SP","FM-12","99999","V020","280,1,N,0021,1","22000,1,9,N","020000,1,N,1","+0120,1","-0030,1","99999,9","06,0000,9,1",,,,,,"02,99,1,00,1,00,1,99999,9,00,1,02,1",,,,,"99999,9,09015,1","7,1,019,1,+999,9","3,1494,9",,"SYN082AAXX  03124 08213 12970 22804 10120 21030 39015 48494 57019 60001 80002 333 5///0;","Q01  00002PRCP06"
"08213099999","2010-02-03T15:00:00","4","40.95","-4.1333333","1005.0","SEGOVIA, SP","FM-12","99999","V020","010,1,N,0021,1","22000,1,9,N","020000,1,N,1","+0145,1","-0038,1","99999,9",,,,,,,"03,99,1,02,1,00,1,01750,1,05,1,02,1",,,,,"99999,9,08994,1","7,1,021,1,+999,9","3,1479,9",,"SYN066AAXX  03154 08213 42770 30104 10145 21038 38994 48479 57021 82052;",
"08213099999","2010-02-03T18:00:00","4","40.95","-4.1333333","1005.0","SEGOVIA, SP","FM-12","99999","V020","100,1,N,0036,1","09000,1,9,N","020000,1,N,1","+0115,1","-0089,1","99999,9","12,0000,9,1",,,,,,"08,99,1,03,1,00,1,01750,1,05,1,06,1",,,,"999,M,+0150,1","99999,9,08987,1","7,1,007,1,+999,9","3,1467,9",,"SYN082AAXX  03184 08213 12770 81007 10115 21089 38987 48467 57007 60002 83056 333 10150;","Q01  00002PRCP12"
"08213099999","2010-02-04T06:00:00","4","40.95","-4.1333333","1005.0","SEGOVIA, SP","FM-12","99999","V020","100,1,N,0021,1","00750,1,9,N","005000,1,N,1","+0048,1","+0035,1","99999,9","12,0061,9,2","24,0056,9,2",,"6,1,06,1","2,1,06,1",,"08,99,1,08,1,07,1,00800,1,99,9,99,9","0438,9","11,9","999,-0010,9","999,N,+0035,1","99999,9,08959,1","7,1,005,1,+999,9","3,1432,9","63,1","SYN106AAXX  04064 08213 11550 81004 10048 20035 38959 48432 57005 60062 76362 887// 333 20035 32101 55073 70057;",
"08213099999","2010-02-04T09:00:00","4","40.95","-4.1333333","1005.0","SEGOVIA, SP","FM-12","99999","V020","110,1,N,0010,1","09000,1,9,N","020000,1,N,1","+0084,1","+0069,1","99999,9",,,,"6,1,03,1","6,1,03,1",,"08,99,1,04,1,00,1,01750,1,06,1,06,1",,,,,"99999,9,08957,1","7,1,002,1,+999,9","3,1436,9","02,1","SYN072AAXX  04094 08213 41770 81102 10084 20069 38957 48436 57002 70266 84066;",
"08213099999","2010-02-04T12:00:00","4","40.95","-4.1333333","1005.0","SEGOVIA, SP","FM-12","99999","V020","240,1,N,0015,1","01200,1,9,N","003000,1,N,1","+0092,1","+0076,1","99999,9","06,0061,9,1",,,"6,1,06,1","6,1,06,1",,"08,99,1,08,1,00,1,01250,1,07,1,99,9",,,,,"99999,9,08961,1","1,1,004,1,+999,9","3,1441,9","61,1","SYN088AAXX  04124 08213 11630 82403 10092 20076 38961 48441 51004 60061 76166 8807/ 333 50350;",
"08213099999","2010-02-04T15:00:00","4","40.95","-4.1333333","1005.0","SEGOVIA, SP","FM-12","99999","V020","250,1,N,0041,1","00750,1,9,N","018000,1,N,1","+0125,1","+0076,1","99999,9",,,,"6,1,03,1","6,1,03,1",,"08,99,1,06,1,05,1,00800,1,03,1,01,1",,,,,"99999,9,08953,1","7,1,008,1,+999,9","3,1439,9","02,1","SYN072AAXX  04154 08213 41568 82508 10125 20076 38953 48439 57008 70266 86531;",
"08213099999","2010-02-04T18:00:00","4","40.95","-4.1333333","1005.0","SEGOVIA, SP","FM-12","99999","V020","210,1,N,0093,1","09000,1,9,N","018000,1,N,1","+0104,1","+0030,1","99999,9","12,0061,9,1",,,"6,1,06,1","2,1,06,1",,"07,99,1,03,1,05,1,00800,1,00,1,05,1",,,,"999,M,+0133,1","99999,9,08957,1","3,1,004,1,+999,9","3,1439,9","02,1","SYN088AAXX  04184 08213 11568 72118 10104 20030 38957 48439 53004 60062 70262 83505 333 10133;",
"08213099999","2010-02-05T06:00:00","4","40.95","-4.1333333","1005.0","SEGOVIA, SP","FM-12","99999","V020","230,1,N,0036,1","01200,1,9,N","012000,1,N,1","+0036,1","+0012,1","99999,9","12,0079,9,1","24,0140,9,1",,"6,1,06,1","6,1,06,1",,"07,99,1,07,1,08,1,00800,1,00,1,00,1","0126,9","11,9","999,+0020,9","999,N,+0036,1","99999,9,08997,1","2,1,007,1,+999,9","3,1464,9","02,1","SYN106AAXX  05064 08213 11562 72307 10036 20012 38997 48464 52007 60082 70266 87800 333 20036 32002 55021 70139;",
"08213099999","2010-02-05T09:00:00","4","40.95","-4.1333333","1005.0","SEGOVIA, SP","FM-12","99999","V020","280,1,N,0051,1","00750,1,9,N","010000,1,N,1","+0038,1","+0018,1","99999,9",,,,"6,1,03,1","2,1,03,1",,"08,99,1,05,1,05,1,00800,1,02,1,99,9",,,,,"99999,9,09021,1","2,1,024,1,+999,9","3,1486,9","60,1","SYN072AAXX  05094 08213 41560 82810 10038 20018 39021 48486 52024 76062 8552/;",
"08213099999","2010-02-05T12:00:00","4","40.95","-4.1333333","1005.0","SEGOVIA, SP","FM-12","99999","V020","260,1,N,0087,1","00750,1,9,N","016000,1,N,1","+0066,1","+0009,1","99999,9","06,0000,2,1",,,"6,1,06,1","2,1,06,1",,"07,99,1,07,1,05,1,00800,1,02,1,00,1",,,,,"99999,9,09034,1","1,1,013,1,+999,9","3,1502,9","60,1","SYN078AAXX  05124 08213 11566 72617 10066 20009 39034 48502 51013 69921 76062 87520;",
"08213099999","2010-02-05T15:00:00","4","40.95","-4.1333333","1005.0","SEGOVIA, SP","FM-12","99999","V020","270,1,N,0087,1","01200,1,9,N","016000,1,N,1","+0066,1","+0034,1","99999,9",,,,"6,1,03,1","2,1,03,1",,"07,99,1,07,1,08,1,00800,1,00,1,00,1",,,,,"99999,9,09037,1","0,1,003,1,+999,9","3,1505,9","02,1","SYN072AAXX  05154 08213 41566 72717 10066 20034 39037 48505 50003 70262 87800;",
"08213099999","2010-02-05T18:00:00","4","40.95","-4.1333333","1005.0","SEGOVIA, SP","FM-12","99999","V020","250,1,N,0051,1","22000,1,9,N","016000,1,N,1","+0060,1","+0017,1","99999,9","12,0005,9,1",,,"6,1,06,1","2,1,06,1",,"04,99,1,04,1,02,1,00800,1,00,1,00,1",,,,"999,M,+0084,1","99999,9,09050,1","1,1,013,1,+999,9","3,1516,9","02,1","SYN088AAXX  05184 08213 11566 42510 10060 20017 39050 48516 51013 69962 70262 84200 333 10084;",
"08213099999","2010-02-06T06:00:00","4","40.95","-4.1333333","1005.0","SEGOVIA, SP","FM-12","99999","V020","240,1,N,0036,1","00750,1,9,N","012000,1,N,1","+0048,1","+0025,1","99999,9","12,0000,9,1","24,0005,9,1",,,,,"06,99,1,06,1,02,1,00800,1,00,1,00,1","0162,9","11,9","999,+0020,9","999,N,+0045,1","99999,9,09066,1","7,1,007,1,+999,9","3,1528,9",,"SYN100AAXX  06064 08213 12562 62407 10048 20025 39066 48528 57007 60002 86200 333 20045 32002 55027 70006;","Q01  00002PRCP12"
"08213099999","2010-02-06T09:00:00","4","40.95","-4.1333333","1005.0","SEGOVIA, SP","FM-12","99999","V020","240,1,N,0026,1","01200,1,9,N","016000,1,N,1","+0052,1","+0024,1","99999,9",,,,,,,"07,99,1,07,1,08,1,00800,1,00,1,00,1",,,,,"99999,9,09075,1","3,1,009,1,+999,9","3,1537,9",,"SYN066AAXX  06094 08213 42566 72405 10052 20024 39075 48537 53009 87800;",
"08213099999","2010-02-06T12:00:00","4","40.95","-4.1333333","1005.0","SEGOVIA, SP","FM-12","99999","V020","280,1,N,0093,1","00750,1,9,N","016000,1,N,1","+0076,1","+0031,1","99999,9","06,0000,9,1",,,,,,"08,99,1,05,1,05,1,00800,1,02,1,99,9",,,,,"99999,9,09090,1","1,1,015,1,+999,9","3,1555,9",,"SYN082AAXX  06124 08213 12566 82818 10076 20031 39090 48555 51015 60001 8552/ 333 50120;","Q01  00002PRCP06"
"08213099999","2010-02-06T15:00:00","4","40.95","-4.1333333","1005.0","SEGOVIA, SP","FM-12","99999","V020","280,1,N,0041,1","00750,1,9,N","016000,1,N,1","+0076,1","+0031,1","99999,9",,,,,,,"08,99,1,05,1,05,1,00800,1,02,1,99,9",,,,,"99999,9,09076,1","8,1,014,1,+999,9","3,1542,9",,"SYN066AAXX  06154 08213 42566 82808 10076 20031 39076 48542 58014 8552/;",
"08213099999","2010-02-06T18:00:00","4","40.95","-4.1333333","1005.0","SEGOVIA, SP","FM-12","99999","V020","250,1,N,0026,1","01200,1,9,N","016000,1,N,1","+0076,1","+0040,1","99999,9","12,0000,9,1",,,,,,"07,99,1,07,1,08,1,00800,1,00,1,00,1",,,,"999,M,+0082,1","99999,9,09069,1","7,1,007,1,+999,9","3,1536,9",,"SYN082AAXX  06184 08213 12566 72505 10076 20040 39069 48536 57007 60002 87800 333 10082;","Q01  00002PRCP12"
"08213099999","2010-02-07T06:00:00","4","40.95","-4.1333333","1005.0","SEGOVIA, SP","FM-12","99999","V020","190,1,N,0015,1","22000,1,9,N","012000,1,N,1","+0026,1","-0005,1","99999,9","12,0000,9,1","24,0000,9,1",,,,,"04,99,1,01,1,02,1,00800,1,05,1,00,1","0018,9","09,9","999,-0020,9","999,N,+0026,1","99999,9,09028,1","7,1,013,1,+999,9","3,1490,9",,"SYN100AAXX  07064 08213 12562 41903 10026 21005 39028 48490 57013 60002 81250 333 20026 31102 55003 70000;","Q01  00002PRCP24Q02  00002PRCP12"
"08213099999","2010-02-07T09:00:00","4","40.95","-4.1333333","1005.0","SEGOVIA, SP","FM-12","99999","V020","160,1,N,0021,1","01500,1,9,N","020000,1,N,1","+0034,1","+0010,1","99999,9",,,,,,,"07,99,1,07,1,00,1,01750,1,05,1,00,1",,,,,"99999,9,09020,1","7,1,008,1,+999,9","3,1484,9",,"SYN066AAXX  07094 08213 42770 71604 10034 20010 39020 48484 57008 87050;",
"08213099999","2010-02-07T12:00:00","4","40.95","-4.1333333","1005.0","SEGOVIA, SP","FM-12","99999","V020","050,1,N,0010,1","00750,1,9,N","020000,1,N,1","+0084,1","+0031,1","99999,9","06,0000,9,1",,,,,,"07,99,1,07,1,00,1,00800,1,05,1,00,1",,,,,"99999,9,09008,1","8,1,012,1,+999,9","3,1482,9",,"SYN082AAXX  07124 08213 12570 70502 10084 20031 39008 48482 58012 60001 87050 333 50040;","Q01  00002PRCP06"
"08213099999","2010-02-07T15:00:00","4","40.95","-4.1333333","1005.0","SEGOVIA, SP","FM-12","99999","V020","290,1,N,0015,1","03600,1,9,N","018000,1,N,1","+0100,1","+0040,1","99999,9",,,,,,,"08,99,1,03,1,05,1,00800,1,02,1,99,9",,,,,"99999,9,08973,1","7,1,035,1,+999,9","3,1453,9",,"SYN066AAXX  07154 08213 42568 82903 10100 20040 38973 48453 57035 8352/;",
"08213099999","2010-02-07T18:00:00","4","40.95","-4.1333333","1005.0","SEGOVIA, SP","FM-12","99999","V020","280,1,N,0021,1","00750,1,9,N","018000,1,N,1","+0106,1","+0043,1","99999,9","12,0000,9,1",,,,,,"08,99,1,05,1,05,1,00800,1,02,1,99,9",,,,"999,M,+0108,1","99999,9,08965,1","7,1,008,1,+999,9","3,1447,9",,"SYN082AAXX  07184 08213 12568 82804 10106 20043 38965 48447 57008 60002 8552/ 333 10108;","Q01  00002PRCP12"
"08213099999","2010-02-08T06:00:00","4","40.95","-4.1333333","1005.0","SEGOVIA, SP","FM-12","99999","V020","140,1,N,0031,1","00750,1,9,N","005000,1,N,1","+0055,1","+0045,1","99999,9","12,0020,9,2","24,0015,9,2",,"6,1,06,1","5,1,06,1",,"08,99,1,08,1,06,1,00800,1,99,9,99,9","0048,9","09,9","999,+0010,9","999,N,+0049,1","99999,9,08903,1","7,1,015,1,+999,9","3,1383,9","50,1","SYN106AAXX  08064 08213 11550 81406 10055 20045 38903 48383 57015 60022 75065 886// 333 20049 31001 55008 70016;",
"08213099999","2010-02-08T09:00:00","4","40.95","-4.1333333","1005.0","SEGOVIA, SP","FM-12","99999","V020","230,1,N,0041,1","00750,1,9,N","002000,1,N,1","+0065,1","+0053,1","99999,9",,,,"6,1,03,1","5,1,03,1",,"08,99,1,08,1,06,1,00800,1,99,9,99,9",,,,,"99999,9,08882,1","7,1,021,1,+999,9","3,1365,9","61,1","SYN072AAXX  08094 08213 41520 82308 10065 20053 38882 48365 57021 76165 886//;",
"08213099999","2010-02-08T12:00:00","4","40.95","-4.1333333","1005.0","SEGOVIA, SP","FM-12","99999","V020","260,1,N,0067,1","00750,1,9,N","002000,1,N,1","+0067,1","+0057,1","99999,9","06,0051,9,1",,,"6,1,06,1","6,1,06,1",,"08,99,1,08,1,07,1,00800,1,99,9,99,9",,,,,"99999,9,08888,1","3,1,006,1,+999,9","3,1371,9","63,1","SYN088AAXX  08124 08213 11520 82613 10067 20057 38888 48371 53006 60051 76366 887// 333 50000;",
"08213099999","2010-02-08T15:00:00","4","40.95","-4.1333333","1005.0","SEGOVIA, SP","FM-12","99999","V020","320,1,N,0041,1","00750,1,9,N","003000,1,N,1","+0061,1","+0055,1","99999,9",,,,"6,1,03,1","6,1,03,1",,"08,99,1,08,1,07,1,00800,1,99,9,99,9",,,,,"99999,9,08876,1","7,1,012,1,+999,9","3,1359,9","21,1","SYN072AAXX  08154 08213 41530 83208 10061 20055 38876 48359 57012 72166 887//;",
"08213099999","2010-02-08T18:00:00","4","40.95","-4.1333333","1005.0","SEGOVIA, SP","FM-12","99999","V020","290,1,N,0010,1","00750,1,9,N","015000,1,N,1","+0058,1","+0049,1","99999,9","12,0071,9,1",,,"6,1,06,1","6,1,06,1",,"08,99,1,08,1,05,1,00800,1,99,9,99,9",,,,"999,M,+0070,1","99999,9,08870,1","7,1,006,1,+999,9","3,1353,9","21,1","SYN088AAXX  08184 08213 11565 82902 10058 20049 38870 48353 57006 60072 72166 885// 333 10070;",
"08213099999","2010-02-09T06:00:00","4","40.95","-4.1333333","1005.0","SEGOVIA, SP","FM-12","99999","V020","290,1,N,0041,1","00750,1,9,N","005000,1,N,1","+0029,1","+0017,1","99999,9","12,0005,9,1","24,0071,9,1",,"6,1,06,1","2,1,06,1",,"08,99,1,08,1,07,1,00800,1,99,9,99,9","0030,9","11,9","999,+0020,9","999,N,+0025,1","99999,9,08875,1","4,1,000,1,+999,9","3,1353,9","21,1","SYN106AAXX  09064 08213 11550 82908 10029 20017 38875 48353 54000 69962 72162 887// 333 20025 32002 55005 70072;",
"08213099999","2010-02-09T09:00:00","4","40.95","-4.1333333","1005.0","SEGOVIA, SP","FM-12","99999","V020","320,1,N,0036,1","00015,1,9,N","000800,1,N,1","+0026,1","+0016,1","99999,9",,,,"6,1,03,1","2,1,03,1","09,1,+00015,1,99,9","09,99,1,09,1,99,9,99999,9,99,9,99,9",,,,,"99999,9,08892,1","2,1,017,1,+999,9","3,1368,9","45,1","SYN076AAXX  09094 08213 41/08 93207 10026 20016 38892 48368 52017 74562 333 89/00;",
"08213099999","2010-02-09T12:00:00","4","40.95","-4.1333333","1005.0","SEGOVIA, SP","FM-12","99999","V020","360,1,N,0031,1","00750,1,9,N","007000,1,N,1","+0032,1","+0008,1","99999,9","06,0000,2,1",,,"4,1,06,1","2,1,06,1",,"08,99,1,08,1,06,1,00800,1,99,9,99,9",,,,,"99999,9,08900,1","2,1,008,1,+999,9","3,1376,9","10,1","SYN088AAXX  09124 08213 11557 83606 10032 20008 38900 48376 52008 60001 71042 886// 333 50080;",
"08213099999","2010-02-09T15:00:00","4","40.95","-4.1333333","1005.0","SEGOVIA, SP","FM-12","99999","V020","050,1,N,0026,1","00750,1,9,N","013000,1,N,1","+0043,1","+0001,1","99999,9",,,,"4,1,03,1","2,1,03,1",,"07,99,1,06,1,05,1,00800,1,07,1,99,9",,,,,"99999,9,08900,1","4,1,000,1,+999,9","3,1378,9","02,1","SYN072AAXX  09154 08213 41563 70505 10043 20001 38900 48378 54000 70242 8657/;",
"08213099999","2010-02-09T18:00:00","4","40.95","-4.1333333","1005.0","SEGOVIA, SP","FM-12","99999","V020","010,1,N,0041,1","22000,1,9,N","018000,1,N,1","+0035,1","-0011,1","99999,9","12,0000,2,1",,,"6,1,06,1","2,1,06,1",,"03,99,1,02,1,05,1,00800,1,03,1,00,1",,,,"999,M,+0045,1","99999,9,08909,1","3,1,009,1,+999,9","3,1385,9","21,1","SYN088AAXX  09184 08213 11568 30108 10035 21011 38909 48385 53009 69902 72162 82530 333 10045;",
"08213099999","2010-02-10T06:00:00","4","40.95","-4.1333333","1005.0","SEGOVIA, SP","FM-12","99999","V020","070,1,N,0015,1","22000,1,9,N","016000,1,N,1","-0030,1","-0055,1","99999,9","12,0000,2,1","24,0000,2,1",,,,,"04,99,1,04,1,08,1,00800,1,00,1,00,1","0072,9","14,9","999,-0080,9","999,N,-0030,1","99999,9,08944,1","4,1,000,1,+999,9","3,1406,9",,"SYN100AAXX  10064 08213 12566 40703 11030 21055 38944 48406 54000 60002 84800 333 21030 34108 55012 79999;",
"08213099999","2010-02-10T09:00:00","4","40.95","-4.1333333","1005.0","SEGOVIA, SP","FM-12","99999","V020","070,1,N,0026,1","22000,1,9,N","020000,1,N,1","-0002,1","-0050,1","99999,9",,,,,,,"04,99,1,00,1,00,1,99999,9,00,1,08,1",,,,,"99999,9,08944,1","0,1,000,1,+999,9","3,1411,9",,"SYN066AAXX  10094 08213 42970 40705 11002 21050 38944 48411 50000 80008;",
"08213099999","2010-02-10T12:00:00","4","40.95","-4.1333333","1005.0","SEGOVIA, SP","FM-12","99999","V020","030,1,N,0031,1","03600,1,9,N","018000,1,N,1","+0016,1","-0049,1","99999,9","06,0000,9,1",,,,,,"07,99,1,01,1,04,1,00800,1,02,1,00,1",,,,,"99999,9,08944,1","5,1,000,1,+999,9","3,1413,9",,"SYN082AAXX  10124 08213 12568 70306 10016 21049 38944 48413 55000 60001 81420 333 50080;","Q01  00002PRCP06"
"08213099999","2010-02-10T15:00:00","4","40.95","-4.1333333","1005.0","SEGOVIA, SP","FM-12","99999","V020","020,1,N,0026,1","03600,1,9,N","018000,1,N,1","+0028,1","-0046,1","99999,9",,,,,,,"07,99,1,01,1,04,1,00800,1,06,1,04,1",,,,,"99999,9,08929,1","8,1,015,1,+999,9","3,1402,9",,"SYN066AAXX  10154 08213 42568 70205 10028 21046 38929 48402 58015 81464;",
"08213099999","2010-02-10T18:00:00","4","40.95","-4.1333333","1005.0","SEGOVIA, SP","FM-12","99999","V020","030,1,N,0041,1","03600,1,9,N","016000,1,N,1","+0016,1","-0049,1","99999,9","12,0000,9,1",,,,,,"07,99,1,01,1,04,1,00800,1,06,1,04,1",,,,"999,M,+0040,1","99999,9,08926,1","7,1,003,1,+999,9","3,1397,9",,"SYN082AAXX  10184 08213 12566 70308 10016 21049 38926 48397 57003 60002 81464 333 10040;","Q01  00002PRCP12"
"08213099999","2010-02-11T06:00:00","4","40.95","-4.1333333","1005.0","SEGOVIA, SP","FM-12","99999","V020","250,1,N,0015,1","01500,1,9,N","008000,1,N,1","-0054,1","-0074,1","99999,9","12,0000,9,1","24,0000,9,1",,"2,1,06,1","2,1,06,1",,"08,99,1,06,1,00,1,01750,1,07,1,08,1","0252,9","14,9","999,-0090,9","999,N,-0062,1","99999,9,08971,1","3,1,002,1,+999,9","3,1426,9","10,1","SYN106AAXX  11064 08213 11758 82503 11054 21074 38971 48426 53002 60002 71022 86078 333 21062 34109 55042 70000;","Q01  00002PRCP24Q02  00002PRCP12"
"08213099999","2010-02-11T09:00:00","4","40.95","-4.1333333","1005.0","SEGOVIA, SP","FM-12","99999","V020","360,1,N,0031,1","03600,1,9,N","008000,1,N,1","-0029,1","-0060,1","99999,9",,,,"7,1,03,1","2,1,03,1",,"07,99,1,03,1,04,1,00800,1,07,1,08,1",,,,,"99999,9,08955,1","1,1,011,1,+999,9","3,1416,9","10,1","SYN072AAXX  11094 08213 41558 73606 11029 21060 38955 48416 51011 71072 83478;",
"08213099999","2010-02-11T12:00:00","4","40.95","-4.1333333","1005.0","SEGOVIA, SP","FM-12","99999","V020","360,1,N,0026,1","03600,1,9,N","015000,1,N,1","-0008,1","-0078,1","99999,9","06,0000,9,1",,,"7,1,06,1","2,1,06,1",,"05,99,1,03,1,08,1,00800,1,07,1,08,1",,,,,"99999,9,08961,1","1,1,006,1,+999,9","3,1425,9","01,1","SYN088AAXX  11124 08213 11565 53605 11008 21078 38961 48425 51006 69901 70172 83878 333 5////;","Q01  00002PRCP06"
"08213099999","2010-02-11T15:00:00","4","40.95","-4.1333333","1005.0","SEGOVIA, SP","FM-12","99999","V020","360,1,N,0046,1","03600,1,9,N","015000,1,N,1","-0004,1","-0095,1","99999,9",,,,"7,1,03,1","2,1,03,1",,"07,99,1,04,1,08,1,00800,1,07,1,08,1",,,,,"99999,9,08957,1","6,1,004,1,+999,9","3,1422,9","78,1","SYN072AAXX  11154 08213 41565 73609 11004 21095 38957 48422 56004 77872 84878;",
"08213099999","2010-02-11T18:00:00","4","40.95","-4.1333333","1005.0","SEGOVIA, SP","FM-12","99999","V020","330,1,N,0026,1","22000,1,9,N","012000,1,N,1","-0008,1","-0078,1","99999,9","12,0000,2,1",,,"7,1,06,1","1,1,06,1",,"04,99,1,03,1,04,1,00800,1,04,1,08,1",,,,"999,M,+0012,1","99999,9,08962,1","3,1,005,1,+999,9","3,1425,9","01,1","SYN088AAXX  11184 08213 11562 43305 11008 21078 38962 48425 53005 69902 70171 83448 333 10012;",
"08213099999","2010-02-12T06:00:00","4","40.95","-4.1333333","1005.0","SEGOVIA, SP","FM-12","99999","V020","240,1,N,0026,1","22000,1,9,N","012000,1,N,1","-0066,1","-0096,1","99999,9","12,0000,9,1","24,0000,2,1",,,,,"04,99,1,03,1,04,1,00800,1,02,1,00,1","0354,9","14,9","999,-0100,9","999,N,-0066,1","99999,9,08987,1","4,1,000,1,+999,9","3,1438,9",,"SYN100AAXX  12064 08213 12562 42405 11066 21096 38987 48438 54000 60002 83420 333 21066 34110 55059 79999;","Q01  00002PRCP12"
"08213099999","2010-02-12T09:00:00","4","40.95","-4.1333333","1005.0","SEGOVIA, SP","FM-12","99999","V020","040,1,N,0015,1","22000,1,9,N","020000,1,N,1","-0042,1","-0076,1","99999,9",,,,,,,"04,99,1,04,1,02,1,00800,1,00,1,00,1",,,,,"99999,9,08977,1","6,1,010,1,+999,9","3,1433,9",,"SYN066AAXX  12094 08213 42570 40403 11042 21076 38977 48433 56010 84200;",
"08213099999","2010-02-12T12:00:00","4","40.95","-4.1333333","1005.0","SEGOVIA, SP","FM-12","99999","V020","050,1,N,0072,1","22000,1,9,N","020000,1,N,1","+0010,1","-0080,1","99999,9","06,0000,9,1",,,,,,"02,99,1,01,1,02,1,00800,1,04,1,00,1",,,,,"99999,9,08971,1","8,1,006,1,+999,9","3,1436,9",,"SYN082AAXX  12124 08213 12570 20514 10010 21080 38971 48436 58006 60001 81240 333 5///0;","Q01  00002PRCP06"
"08213099999","2010-02-12T15:00:00","4","40.95","-4.1333333","1005.0","SEGOVIA, SP","FM-12","99999","V020","030,1,N,0062,1","22000,1,9,N","020000,1,N,1","+0014,1","-0057,1","99999,9",,,,,,,"06,99,1,03,1,02,1,00800,1,00,1,04,1",,,,,"99999,9,08953,1","7,1,018,1,+999,9","3,1421,9",,"SYN066AAXX  12154 08213 42570 60312 10014 21057 38953 48421 57018 83204;",
"08213099999","2010-02-12T18:00:00","4","40.95","-4.1333333","1005.0","SEGOVIA, SP","FM-12","99999","V020","040,1,N,0021,1","03600,1,9,N","018000,1,N,1","-0002,1","-0064,1","99999,9","12,0000,9,1",,,,,,"08,99,1,04,1,05,1,00800,1,02,1,99,9",,,,"999,M,+0022,1","99999,9,08957,1","3,1,004,1,+999,9","3,1422,9",,"SYN082AAXX  12184 08213 12568 80404 11002 21064 38957 48422 53004 60002 8452/ 333 10022;","Q01  00002PRCP12"
"08213099999","2010-02-13T06:00:00","4","40.95","-4.1333333","1005.0","SEGOVIA, SP","FM-12","99999","V020","230,1,N,0010,1","00750,1,9,N","010000,1,N,1","-0046,1","-0067,1","99999,9","12,0000,9,1","24,0000,9,1",,,,,"07,99,1,05,1,05,1,00800,1,07,1,08,1","0504,9","14,9","999,-0090,9","999,N,-0046,1","99999,9,08930,1","6,1,009,1,+999,9","3,1392,9",,"SYN100AAXX  13064 08213 12560 72302 11046 21067 38930 48392 56009 60002 85578 333 21046 34109 55084 70000;","Q01  00002PRCP24Q02  00002PRCP12"
"08213099999","2010-02-13T09:00:00","4","40.95","-4.1333333","1005.0","SEGOVIA, SP","FM-12","99999","V020","320,1,N,0015,1","00750,1,9,N","008000,1,N,1","-0038,1","-0058,1","99999,9",,,,"2,1,03,1","2,1,03,1",,"08,99,1,06,1,06,1,00800,1,07,1,08,1",,,,,"99999,9,08934,1","3,1,004,1,+999,9","3,1396,9","10,1","SYN072AAXX  13094 08213 41558 83203 11038 21058 38934 48396 53004 71022 86678;",
"08213099999","2010-02-13T12:00:00","4","40.95","-4.1333333","1005.0","SEGOVIA, SP","FM-12","99999","V020","270,1,N,0010,1","22000,1,9,N","012000,1,N,1","-0006,1","-0068,1","99999,9","06,0000,9,1",,,,,,"04,99,1,04,1,04,1,00800,1,00,1,00,1",,,,,"99999,9,08932,1","8,1,002,1,+999,9","3,1399,9",,"SYN082AAXX  13124 08213 12562 42702 11006 21068 38932 48399 58002 60001 84400 333 5////;","Q01  00002PRCP06"
"08213099999","2010-02-13T15:00:00","4","40.95","-4.1333333","1005.0","SEGOVIA, SP","FM-12","99999","V020","040,1,N,0026,1","22000,1,9,N","012000,1,N,1","+0014,1","-0069,1","99999,9",,,,,,,"04,99,1,04,1,04,1,00800,1,00,1,00,1",,,,,"99999,9,08928,1","6,1,004,1,+999,9","3,1399,9",,"SYN066AAXX  13154 08213 42562 40405 10014 21069 38928 48399 56004 84400;",
"08213099999","2010-02-13T18:00:00","4","40.95","-4.1333333","1005.0","SEGOVIA, SP","FM-12","99999","V020","040,1,N,0031,1","03600,1,9,N","012000,1,N,1","-0005,1","-0059,1","99999,9","12,0000,9,1",,,,,,"06,99,1,04,1,04,1,00800,1,07,1,08,1",,,,"999,M,+0023,1","99999,9,08936,1","1,1,008,1,+999,9","3,1403,9",,"SYN082AAXX  13184 08213 12562 60406 11005 21059 38936 48403 51008 60002 84478 333 10023;","Q01  00002PRCP12"
"08213099999","2010-02-14T06:00:00","4","40.95","-4.1333333","1005.0","SEGOVIA, SP","FM-12","99999","V020","180,1,N,0015,1","22000,1,9,N","010000,1,N,1","-0072,1","-0091,1","99999,9","12,0000,9,1","24,0000,9,1",,,,,"03,99,1,02,1,07,1,00800,1,00,1,08,1","0210,9","14,9","999,-0120,9","999,N,-0072,1","99999,9,08946,1","3,1,017,1,+999,9","3,1402,9",,"SYN100AAXX  14064 08213 12560 31803 11072 21091 38946 48402 53017 60002 82708 333 21072 34112 55035 70000;","Q01  00002PRCP24Q02  00002PRCP12"
"08213099999","2010-02-14T09:00:00","4","40.95","-4.1333333","1005.0","SEGOVIA, SP","FM-12","99999","V020","070,1,N,0021,1","22000,1,9,N","008000,1,N,1","-0038,1","-0064,1","99999,9",,,,"0,1,03,1","0,1,03,1",,"02,99,1,01,1,00,1,01750,1,04,1,08,1",,,,,"99999,9,08947,1","3,1,001,1,+999,9","3,1408,9","10,1","SYN072AAXX  14094 08213 41758 20704 11038 21064 38947 48408 53001 71000 81048;",
"08213099999","2010-02-14T12:00:00","4","40.95","-4.1333333","1005.0","SEGOVIA, SP","FM-12","99999","V020","030,1,N,0036,1","03600,1,9,N","012000,1,N,1","+0000,1","-0068,1","99999,9","06,0000,9,1",,,,,,"06,99,1,03,1,05,1,00800,1,07,1,08,1",,,,,"99999,9,08945,1","8,1,002,1,+999,9","3,1412,9",,"SYN082AAXX  14124 08213 12562 60307 10000 21068 38945 48412 58002 60001 83578 333 5////;","Q01  00002PRCP06"
"08213099999","2010-02-14T15:00:00","4","40.95","-4.1333333","1005.0","SEGOVIA, SP","FM-12","99999","V020","320,1,N,0021,1","22000,1,9,N","015000,1,N,1","+0017,1","-0057,1","99999,9",,,,,,,"04,99,1,02,1,04,1,00800,1,00,1,01,1",,,,,"99999,9,08916,1","7,1,029,1,+999,9","3,1388,9",,"SYN066AAXX  14154 08213 42565 43204 10017 21057 38916 48388 57029 82401;",
"08213099999","2010-02-14T18:00:00","4","40.95","-4.1333333","1005.0","SEGOVIA, SP","FM-12","99999","V020","040,1,N,0010,1","03600,1,9,N","012000,1,N,1","+0000,1","-0052,1","99999,9","12,0000,9,1",,,,,,"07,99,1,02,1,04,1,00800,1,07,1,09,1",,,,"999,M,+0024,1","99999,9,08906,1","6,1,010,1,+999,9","3,1377,9",,"SYN082AAXX  14184 08213 12562 70402 10000 21052 38906 48377 56010 60002 82479 333 10024;","Q01  00002PRCP12"
"08213099999","2010-02-15T06:00:00","4","40.95","-4.1333333","1005.0","SEGOVIA, SP","FM-12","99999","V020","220,1,N,0010,1","00750,1,9,N","012000,1,N,1","-0018,1","-0041,1","99999,9","12,0000,9,1","24,0000,9,1",,,,,"08,99,1,05,1,05,1,00800,1,02,1,99,9","0426,9","14,9","999,-0010,9","999,N,-0030,1","99999,9,08838,1","8,1,008,1,+999,9","3,1314,9",,"SYN100AAXX  15064 08213 12562 82202 11018 21041 38838 48314 58008 60002 8552/ 333 21030 34101 55071 70000;","Q01  00002PRCP24Q02  00002PRCP12"
"08213099999","2010-02-15T09:00:00","4","40.95","-4.1333333","1005.0","SEGOVIA, SP","FM-12","99999","V020","120,1,N,0093,1","00750,1,9,N","018000,1,N,1","+0022,1","-0047,1","99999,9",,,,,,,"08,99,1,05,1,05,1,00800,1,02,1,99,9",,,,,"99999,9,08832,1","7,1,006,1,+999,9","3,1313,9",,"SYN066AAXX  15094 08213 42568 81218 10022 21047 38832 48313 57006 8552/;",
"08213099999","2010-02-15T12:00:00","4","40.95","-4.1333333","1005.0","SEGOVIA, SP","FM-12","99999","V020","150,1,N,0067,1","00750,1,9,N","018000,1,N,1","+0033,1","-0042,1","99999,9","06,0000,9,1",,,,,,"08,99,1,05,1,05,1,00800,1,02,1,99,9",,,,,"99999,9,08828,1","7,1,004,1,+999,9","3,1311,9",,"SYN082AAXX  15124 08213 12568 81513 10033 21042 38828 48311 57004 60001 8552/ 333 5///0;","Q01  00002PRCP06"
"08213099999","2010-02-15T15:00:00","4","40.95","-4.1333333","1005.0","SEGOVIA, SP","FM-12","99999","V020","260,1,N,0031,1","00750,1,9,N","018000,1,N,1","+0036,1","-0034,1","99999,9",,,,,,,"08,99,1,05,1,05,1,00800,1,02,1,99,9",,,,,"99999,9,08811,1","7,1,017,1,+999,9","3,1296,9",,"SYN066AAXX  15154 08213 42568 82606 10036 21034 38811 48296 57017 8552/;",
"08213099999","2010-02-15T18:00:00","4","40.95","-4.1333333","1005.0","SEGOVIA, SP","FM-12","99999","V020","240,1,N,0036,1","00750,1,9,N","014000,1,N,1","+0026,1","-0016,1","99999,9","12,0000,9,1",,,,,,"08,99,1,05,1,05,1,00800,1,02,1,99,9",,,,"999,M,+0048,1","99999,9,08806,1","6,1,005,1,+999,9","3,1290,9",,"SYN082AAXX  15184 08213 12564 82407 10026 21016 38806 48290 56005 60002 8552/ 333 10048;","Q01  00002PRCP12"
"08213099999","2010-02-16T06:00:00","4","40.95","-4.1333333","1005.0","SEGOVIA, SP","FM-12","99999","V020","090,1,N,0010,1","00750,1,9,N","012000,1,N,1","-0002,1","-0018,1","99999,9","12,0000,9,1","24,0000,9,1",,,,,"08,99,1,05,1,05,1,00800,1,02,1,99,9","0000,9","09,9","999,-0030,9","999,N,-0003,1","99999,9,08770,1","7,1,012,1,+999,9","3,1255,9",,"SYN100AAXX  16064 08213 12562 80902 11002 21018 38770 48255 57012 60002 8552/ 333 21003 31103 55000 70000;","Q01  00002PRCP24Q02  00002PRCP12"
"08213099999","2010-02-16T09:00:00","4","40.95","-4.1333333","1005.0","SEGOVIA, SP","FM-12","99999","V020","120,1,N,0051,1","00750,1,9,N","012000,1,N,1","+0044,1","+0016,1","99999,9",,,,"6,1,03,1","2,1,03,1",,"08,99,1,05,1,05,1,00800,1,02,1,99,9",,,,,"99999,9,08762,1","6,1,008,1,+999,9","3,1252,9","02,1","SYN072AAXX  16094 08213 41562 81210 10044 20016 38762 48252 56008 70262 8552/;",
"08213099999","2010-02-16T12:00:00","4","40.95","-4.1333333","1005.0","SEGOVIA, SP","FM-12","99999","V020","260,1,N,0046,1","00750,1,9,N","016000,1,N,1","+0054,1","+0028,1","99999,9","06,0030,9,1",,,"6,1,06,1","2,1,06,1",,"08,99,1,05,1,05,1,00800,1,02,1,99,9",,,,,"99999,9,08758,1","8,1,004,1,+999,9","3,1249,9","02,1","SYN088AAXX  16124 08213 11566 82609 10054 20028 38758 48249 58004 60031 70262 8552/ 333 5///0;",
"08213099999","2010-02-16T15:00:00","4","40.95","-4.1333333","1005.0","SEGOVIA, SP","FM-12","99999","V020","030,1,N,0010,1","00750,1,9,N","016000,1,N,1","+0066,1","+0039,1","99999,9",,,,"6,1,03,1","2,1,03,1",,"08,99,1,05,1,05,1,00800,1,02,1,99,9",,,,,"99999,9,08753,1","7,1,005,1,+999,9","3,1245,9","02,1","SYN072AAXX  16154 08213 41566 80302 10066 20039 38753 48245 57005 70262 8552/;",
"08213099999","2010-02-16T18:00:00","4","40.95","-4.1333333","1005.0","SEGOVIA, SP","FM-12","99999","V020","080,1,N,0010,1","01200,1,9,N","016000,1,N,1","+0074,1","+0044,1","99999,9","12,0041,9,1",,,"6,1,06,1","2,1,06,1",,"07,99,1,07,1,08,1,00800,1,00,1,00,1",,,,"999,M,+0074,1","99999,9,08754,1","3,1,001,1,+999,9","3,1247,9","02,1","SYN088AAXX  16184 08213 11566 70802 10074 20044 38754 48247 53001 60042 70262 87800 333 10074;",
"08213099999","2010-02-17T06:00:00","4","40.95","-4.1333333","1005.0","SEGOVIA, SP","FM-12","99999","V020","090,1,N,0021,1","00750,1,9,N","008000,1,N,1","+0042,1","+0029,1","99999,9","12,0119,9,1","24,0168,9,1",,"6,1,06,1","2,1,06,1",,"08,99,1,05,1,06,1,00800,1,07,1,08,1","0000,9","11,9","999,+0000,9","999,N,+0040,1","99999,9,08756,1","3,1,005,1,+999,9","3,1246,9","60,1","SYN106AAXX  17064 08213 11558 80904 10042 20029 38756 48246 53005 60122 76062 85678 333 20040 32100 55000 70168;",
"08213099999","2010-02-17T09:00:00","4","40.95","-4.1333333","1005.0","SEGOVIA, SP","FM-12","99999","V020","230,1,N,0036,1","00750,1,9,N","008000,1,N,1","+0048,1","+0035,1","99999,9",,,,"6,1,03,1","6,1,03,1",,"08,99,1,06,1,06,1,00800,1,07,1,08,1",,,,,"99999,9,08771,1","3,1,015,1,+999,9","3,1260,9","60,1","SYN072AAXX  17094 08213 41558 82307 10048 20035 38771 48260 53015 76066 86678;",
"08213099999","2010-02-17T12:00:00","4","40.95","-4.1333333","1005.0","SEGOVIA, SP","FM-12","99999","V020","310,1,N,0051,1","00750,1,9,N","008000,1,N,1","+0058,1","+0044,1","99999,9","06,0010,9,1",,,"6,1,06,1","2,1,06,1",,"08,99,1,06,1,07,1,00800,1,07,1,08,1",,,,,"99999,9,08786,1","2,1,015,1,+999,9","3,1275,9","60,1","SYN088AAXX  17124 08213 11558 83110 10058 20044 38786 48275 52015 60011 76062 86778 333 5////;",
"08213099999","2010-02-17T15:00:00","4","40.95","-4.1333333","1005.0","SEGOVIA, SP","FM-12","99999","V020","270,1,N,0072,1","00750,1,9,N","005000,1,N,1","+0046,1","+0034,1","99999,9",,,,"6,1,03,1","2,1,03,1",,"08,99,1,06,1,06,1,00800,1,07,1,08,1",,,,,"99999,9,08799,1","3,1,013,1,+999,9","3,1286,9","61,1","SYN072AAXX  17154 08213 41550 82714 10046 20034 38799 48286 53013 76162 86678;",
"08213099999","2010-02-17T18:00:00","4","40.95","-4.1333333","1005.0","SEGOVIA, SP","FM-12","99999","V020","270,1,N,0072,1","00750,1,9,N","006000,1,N,1","+0049,1","+0042,1","99999,9","12,0061,9,1",,,"6,1,06,1","2,1,06,1",,"08,99,1,06,1,05,1,00800,1,07,1,08,1",,,,"999,M,+0065,1","99999,9,08825,1","2,1,026,1,+999,9","3,1310,9","60,1","SYN088AAXX  17184 08213 11556 82714 10049 20042 38825 48310 52026 60062 76062 86578 333 10065;",
"08213099999","2010-02-18T06:00:00","4","40.95","-4.1333333","1005.0","SEGOVIA, SP","FM-12","99999","V020","190,1,N,0026,1","22000,1,9,N","012000,1,N,1","-0002,1","-0031,1","99999,9","12,0005,9,1","24,0069,9,1",,,,,"02,99,1,00,1,00,1,99999,9,00,1,01,1","0000,9","14,9","999,-0060,9","999,N,-0002,1","99999,9,08872,1","8,1,007,1,+999,9","3,1347,9",,"SYN100AAXX  18064 08213 12962 21905 11002 21031 38872 48347 58007 69962 80001 333 21002 34106 55000 70068;",
"08213099999","2010-02-18T09:00:00","4","40.95","-4.1333333","1005.0","SEGOVIA, SP","FM-12","99999","V020","110,1,N,0031,1","99999,9,9,N","012000,1,N,1","+0019,1","-0038,1","99999,9",,,,,,,"06,99,1,00,1,00,1,99999,9,00,1,08,1",,,,,"99999,9,08866,1","8,1,006,1,+999,9","3,1344,9",,"SYN066AAXX  18094 08213 42962 61106 10019 21038 38866 48344 58006 80008;",
"08213099999","2010-02-18T12:00:00","4","40.95","-4.1333333","1005.0","SEGOVIA, SP","FM-12","99999","V020","030,1,N,0026,1","09000,1,9,N","015000,1,N,1","+0050,1","-0019,1","99999,9","06,0000,9,1",,,,,,"08,99,1,02,1,00,1,01750,1,07,1,08,1",,,,,"99999,9,08848,1","8,1,018,1,+999,9","3,1331,9",,"SYN082AAXX  18124 08213 12765 80305 10050 21019 38848 48331 58018 60001 82078 333 5////;","Q01  00002PRCP06"
"08213099999","2010-02-18T15:00:00","4","40.95","-4.1333333","1005.0","SEGOVIA, SP","FM-12","99999","V020","290,1,N,0015,1","09000,1,9,N","012000,1,N,1","+0050,1","-0010,1","99999,9",,,,,,,"08,99,1,03,1,00,1,01750,1,07,1,08,1",,,,,"99999,9,08838,1","8,1,010,1,+999,9","3,1322,9",,"SYN066AAXX  18154 08213 42762 82903 10050 21010 38838 48322 58010 83078;",
"08213099999","2010-02-18T18:00:00","4","40.95","-4.1333333","1005.0","SEGOVIA, SP","FM-12","99999","V020","310,1,N,0015,1","03600,1,9,N","012000,1,N,1","+0042,1","+0009,1","99999,9","12,0000,9,1",,,,,,"08,99,1,01,1,04,1,00800,1,07,1,08,1",,,,"999,M,+0058,1","99999,9,08827,1","6,1,011,1,+999,9","3,1311,9",,"SYN082AAXX  18184 08213 12562 83103 10042 20009 38827 48311 56011 60002 81478 333 10058;","Q01  00002PRCP12"
"08213099999","2010-02-19T06:00:00","4","40.95","-4.1333333","1005.0","SEGOVIA, SP","FM-12","99999","V020","300,1,N,0021,1","00750,1,9,N","005000,1,N,1","+0004,1","-0006,1","99999,9","12,0000,9,1","24,0000,9,1",,"2,1,06,1","2,1,06,1",,"08,99,1,08,1,06,1,00800,1,99,9,99,9","0144,9","09,9","999,+0000,9","999,N,+0000,1","99999,9,08832,1","2,1,010,1,+999,9","3,1311,9","10,1","SYN106AAXX  19064 08213 11550 83004 10004 21006 38832 48311 52010 60002 71022 886// 333 20000 31000 55024 70000;","Q01  00002PRCP24Q02  00002PRCP12"
"08213099999","2010-02-19T09:00:00","4","40.95","-4.1333333","1005.0","SEGOVIA, SP","FM-12","99999","V020","290,1,N,0026,1","00750,1,9,N","002500,1,N,1","+0004,1","-0012,1","99999,9",,,,"2,1,03,1","2,1,03,1",,"08,99,1,08,1,07,1,00800,1,99,9,99,9",,,,,"99999,9,08868,1","2,1,036,1,+999,9","3,1344,9","71,1","SYN072AAXX  19094 08213 41525 82905 10004 21012 38868 48344 52036 77122 887//;",
"08213099999","2010-02-19T12:00:00","4","40.95","-4.1333333","1005.0","SEGOVIA, SP","FM-12","99999","V020","010,1,N,0036,1","00750,1,9,N","010000,1,N,1","+0011,1","-0007,1","99999,9","06,0005,9,1",,,"7,1,06,1","2,1,06,1",,"08,99,1,08,1,07,1,00800,1,99,9,99,9",,,,,"99999,9,08888,1","2,1,020,1,+999,9","3,1363,9","22,1","SYN088AAXX  19124 08213 11560 80107 10011 21007 38888 48363 52020 69941 72272 887// 333 50100;",
"08213099999","2010-02-19T15:00:00","4","40.95","-4.1333333","1005.0","SEGOVIA, SP","FM-12","99999","V020","360,1,N,0010,1","01200,1,9,N","018000,1,N,1","+0018,1","-0003,1","99999,9",,,,"7,1,03,1","7,1,03,1",,"07,99,1,07,1,08,1,00800,1,99,9,99,9",,,,,"99999,9,08898,1","2,1,010,1,+999,9","3,1373,9","22,1","SYN072AAXX  19154 08213 41568 73602 10018 21003 38898 48373 52010 72277 878//;",
"08213099999","2010-02-19T18:00:00","4","40.95","-4.1333333","1005.0","SEGOVIA, SP","FM-12","99999","V020","170,1,N,0026,1","03600,1,9,N","018000,1,N,1","+0007,1","-0006,1","99999,9","12,0010,9,1",,,"7,1,06,1","2,1,06,1","02,1,+00600,1,09,1","06,99,1,04,1,09,1,00800,1,06,1,00,1",,,,"120,M,+0026,1","99999,9,08912,1","2,1,014,1,+999,9","3,1384,9","03,1","SYN094AAXX  19184 08213 11568 61705 10007 21006 38912 48384 52014 60012 70372 84960 333 10026 82920;",
"08213099999","2010-02-20T06:00:00","4","40.95","-4.1333333","1005.0","SEGOVIA, SP","FM-12","99999","V020","240,1,N,0031,1","01200,1,9,N","012000,1,N,1","-0004,1","-0026,1","99999,9","12,0000,9,1","24,0013,9,1",,,,,"07,99,1,07,1,08,1,00800,1,00,1,00,1","0096,9","14,9","999,-0020,9","999,N,-0005,1","99999,9,08949,1","5,1,000,1,+999,9","3,1415,9",,"SYN100AAXX  20064 08213 12562 72406 11004 21026 38949 48415 55000 60002 87800 333 21005 34102 55016 70012;","Q01  00002PRCP12"
"08213099999","2010-02-20T09:00:00","4","40.95","-4.1333333","1005.0","SEGOVIA, SP","FM-12","99999","V020","240,1,N,0046,1","01200,1,9,N","014000,1,N,1","+0010,1","-0022,1","99999,9",,,,,,,"07,99,1,07,1,08,1,00800,1,00,1,00,1",,,,,"99999,9,08962,1","2,1,013,1,+999,9","3,1429,9",,"SYN066AAXX  20094 08213 42564 72409 10010 21022 38962 48429 52013 87800;",
"08213099999","2010-02-20T12:00:00","4","40.95","-4.1333333","1005.0","SEGOVIA, SP","FM-12","99999","V020","240,1,N,0031,1","01200,1,9,N","016000,1,N,1","+0038,1","-0026,1","99999,9","06,0000,9,1",,,,,,"07,99,1,07,1,08,1,00800,1,00,1,00,1",,,,,"99999,9,08968,1","1,1,006,1,+999,9","3,1438,9",,"SYN082AAXX  20124 08213 12566 72406 10038 21026 38968 48438 51006 60001 87800 333 5///0;","Q01  00002PRCP06"
"08213099999","2010-02-20T15:00:00","4","40.95","-4.1333333","1005.0","SEGOVIA, SP","FM-12","99999","V020","270,1,N,0051,1","01200,1,9,N","018000,1,N,1","+0056,1","-0027,1","99999,9",,,,,,,"07,99,1,07,1,08,1,00800,1,00,1,00,1",,,,,"99999,9,08953,1","8,1,015,1,+999,9","3,1427,9",,"SYN066AAXX  20154 08213 42568 72710 10056 21027 38953 48427 58015 87800;",
"08213099999","2010-02-20T18:00:00","4","40.95","-4.1333333","1005.0","SEGOVIA, SP","FM-12","99999","V020","240,1,N,0021,1","01200,1,9,N","018000,1,N,1","+0048,1","-0032,1","99999,9","12,0000,9,1",,,,,,"07,99,1,07,1,08,1,00800,1,00,1,00,1",,,,"999,M,+0068,1","99999,9,08944,1","6,1,009,1,+999,9","3,1418,9",,"SYN082AAXX  20184 08213 12568 72404 10048 21032 38944 48418 56009 60002 87800 333 10068;","Q01  00002PRCP12"
"08213099999","2010-02-21T06:00:00","4","40.95","-4.1333333","1005.0","SEGOVIA, SP","FM-12","99999","V020","070,1,N,0051,1","00750,1,9,N","012000,1,N,1","+0058,1","-0028,1","99999,9","12,0005,9,1","24,0005,9,1",,"6,1,06,1","2,1,06,1",,"08,99,1,08,1,07,1,00800,1,99,9,99,9","0300,9","11,9","999,-0020,9","999,N,+0013,1","99999,9,08837,1","7,1,020,1,+999,9","3,1322,9","21,1","SYN106AAXX  21064 08213 11562 80710 10058 21028 38837 48322 57020 69952 72162 887// 333 20013 32102 55050 70005;",
"08213099999","2010-02-21T09:00:00","4","40.95","-4.1333333","1005.0","SEGOVIA, SP","FM-12","99999","V020","190,1,N,0087,1","03600,1,9,N","018000,1,N,1","+0086,1","-0009,1","99999,9",,,,"6,1,03,1","2,1,03,1",,"06,99,1,04,1,07,1,00800,1,07,1,00,1",,,,,"99999,9,08834,1","8,1,003,1,+999,9","3,1322,9","02,1","SYN072AAXX  21094 08213 41568 61917 10086 21009 38834 48322 58003 70262 84770;",
"08213099999","2010-02-21T12:00:00","4","40.95","-4.1333333","1005.0","SEGOVIA, SP","FM-12","99999","V020","220,1,N,0077,1","03600,1,9,N","020000,1,N,1","+0098,1","+0012,1","99999,9","06,0000,2,1",,,,,,"06,99,1,04,1,07,1,00800,1,07,1,00,1",,,,,"99999,9,08841,1","2,1,007,1,+999,9","3,1330,9",,"SYN082AAXX  21124 08213 12570 62215 10098 20012 38841 48330 52007 60001 84770 333 50000;",
"08213099999","2010-02-21T15:00:00","4","40.95","-4.1333333","1005.0","SEGOVIA, SP","FM-12","99999","V020","220,1,N,0046,1","00750,1,9,N","018000,1,N,1","+0090,1","+0010,1","99999,9",,,,"6,1,03,1","2,1,03,1",,"07,99,1,05,1,05,1,00800,1,04,1,99,9",,,,,"99999,9,08838,1","7,1,003,1,+999,9","3,1327,9","02,1","SYN072AAXX  21154 08213 41568 72209 10090 20010 38838 48327 57003 70262 8554/;",
"08213099999","2010-02-21T18:00:00","4","40.95","-4.1333333","1005.0","SEGOVIA, SP","FM-12","99999","V020","180,1,N,0015,1","09000,1,9,N","020000,1,N,1","+0078,1","+0035,1","99999,9","12,0000,2,1",,,"6,1,06,1","2,1,06,1",,"05,99,1,02,1,05,1,00800,1,03,1,01,1",,,,"999,M,+0114,1","99999,9,08848,1","2,1,010,1,+999,9","3,1335,9","02,1","SYN088AAXX  21184 08213 11570 51803 10078 20035 38848 48335 52010 69902 70262 82531 333 10114;",
"08213099999","2010-02-22T06:00:00","4","40.95","-4.1333333","1005.0","SEGOVIA, SP","FM-12","99999","V020","210,1,N,0077,1","00750,1,9,N","010000,1,N,1","+0075,1","+0009,1","99999,9","12,0005,9,1","24,0005,9,1",,"6,1,06,1","2,1,06,1",,"08,99,1,06,1,05,1,00800,1,07,1,08,1","0210,9","09,9","999,+0020,9","999,N,+0050,1","99999,9,08839,1","6,1,011,1,+999,9","3,1326,9","02,1","SYN106AAXX  22064 08213 11560 82115 10075 20009 38839 48326 56011 69942 70262 86578 333 20050 31002 55035 70004;",
"08213099999","2010-02-22T09:00:00","4","40.95","-4.1333333","1005.0","SEGOVIA, SP","FM-12","99999","V020","180,1,N,0015,1","00750,1,9,N","015000,1,N,1","+0066,1","+0030,1","99999,9",,,,"6,1,03,1","2,1,03,1",,"08,99,1,05,1,05,1,00800,1,07,1,08,1",,,,,"99999,9,08840,1","3,1,001,1,+999,9","3,1326,9","02,1","SYN072AAXX  22094 08213 41565 81803 10066 20030 38840 48326 53001 70262 85578;",
"08213099999","2010-02-22T12:00:00","4","40.95","-4.1333333","1005.0","SEGOVIA, SP","FM-12","99999","V020","250,1,N,0057,1","03600,1,9,N","006000,1,N,1","+0090,1","+0034,1","99999,9","06,0020,9,1",,,"8,1,06,1","6,1,06,1","02,1,+00480,1,09,1","07,99,1,04,1,03,1,00800,1,07,1,08,1",,,,,"99999,9,08851,1","1,1,011,1,+999,9","3,1339,9","90,1","SYN094AAXX  22124 08213 11556 72511 10090 20034 38851 48339 51011 60021 79086 84378 333 50230 82916;",
"08213099999","2010-02-22T15:00:00","4","40.95","-4.1333333","1005.0","SEGOVIA, SP","FM-12","99999","V020","250,1,N,0072,1","03600,1,9,N","020000,1,N,1","+0098,1","+0022,1","99999,9",,,,"8,1,03,1","2,1,03,1",,"07,99,1,04,1,04,1,00800,1,07,1,00,1",,,,,"99999,9,08857,1","1,1,006,1,+999,9","3,1345,9","02,1","SYN072AAXX  22154 08213 41570 72514 10098 20022 38857 48345 51006 70282 84470;",
"08213099999","2010-02-22T18:00:00","4","40.95","-4.1333333","1005.0","SEGOVIA, SP","FM-12","99999","V020","240,1,N,0057,1","03600,1,9,N","015000,1,N,1","+0078,1","+0010,1","99999,9","12,0051,9,1",,,"8,1,06,1","2,1,06,1",,"06,99,1,03,1,04,1,00800,1,04,1,08,1",,,,"999,M,+0110,1","99999,9,08871,1","3,1,014,1,+999,9","3,1356,9","02,1","SYN088AAXX  22184 08213 11565 62411 10078 20010 38871 48356 53014 60052 70282 83448 333 10110;",
"08213099999","2010-02-23T06:00:00","4","40.95","-4.1333333","1005.0","SEGOVIA, SP","FM-12","99999","V020","210,1,N,0062,1","01200,1,9,N","006000,1,N,1","+0054,1","+0031,1","99999,9","12,0041,9,1","24,0086,9,1",,"6,1,06,1","2,1,06,1",,"08,99,1,06,1,07,1,01250,1,07,1,08,1","0174,9","11,9","999,+0040,9","999,N,+0045,1","99999,9,08892,1","5,1,000,1,+999,9","3,1372,9","61,1","SYN106AAXX  23064 08213 11656 82112 10054 20031 38892 48372 55000 60042 76162 86778 333 20045 32004 55029 70087;",
"08213099999","2010-02-23T09:00:00","4","40.95","-4.1333333","1005.0","SEGOVIA, SP","FM-12","99999","V020","230,1,N,0046,1","03600,1,9,N","015000,1,N,1","+0071,1","+0020,1","99999,9",,,,"6,1,03,1","2,1,03,1",,"07,99,1,03,1,05,1,00800,1,04,1,01,1",,,,,"99999,9,08904,1","2,1,012,1,+999,9","3,1385,9","02,1","SYN072AAXX  23094 08213 41565 72309 10071 20020 38904 48385 52012 70262 83541;",
"08213099999","2010-02-23T15:00:00","4","40.95","-4.1333333","1005.0","SEGOVIA, SP","FM-12","99999","V020","250,1,N,0098,1","01200,1,9,N","006000,1,N,1","+0076,1","+0042,1","99999,9",,,,"8,1,03,1","2,1,03,1",,"08,99,1,06,1,08,1,00800,1,07,1,08,1",,,,,"99999,9,08913,1","0,1,004,1,+999,9","3,1394,9","61,1","SYN072AAXX  23154 08213 41556 82519 10076 20042 38913 48394 50004 76182 86878;",
"08213099999","2010-02-23T18:00:00","4","40.95","-4.1333333","1005.0","SEGOVIA, SP","FM-12","99999","V020","290,1,N,0046,1","03600,1,9,N","012000,1,N,1","+0062,1","+0034,1","99999,9","12,0020,9,1",,,"8,1,06,1","2,1,06,1",,"06,99,1,04,1,05,1,00800,1,04,1,01,1",,,,"999,M,+0105,1","99999,9,08915,1","3,1,002,1,+999,9","3,1394,9","02,1","SYN088AAXX  23184 08213 11562 62909 10062 20034 38915 48394 53002 60022 70282 84541 333 10105;",
"08213099999","2010-02-24T06:00:00","4","40.95","-4.1333333","1005.0","SEGOVIA, SP","FM-12","99999","V020","290,1,N,0026,1","00750,1,9,N","012000,1,N,1","+0042,1","+0021,1","99999,9","12,0010,9,1","24,0028,9,1",,"6,1,06,1","2,1,06,1",,"08,99,1,08,1,05,1,00800,1,99,9,99,9","0102,9","09,9","999,+0000,9","999,N,+0030,1","99999,9,08957,1","2,1,008,1,+999,9","3,1429,9","02,1","SYN106AAXX  24064 08213 11562 82905 10042 20021 38957 48429 52008 60012 70262 885// 333 20030 31000 55017 70029;",
"08213099999","2010-02-24T09:00:00","4","40.95","-4.1333333","1005.0","SEGOVIA, SP","FM-12","99999","V020","230,1,N,0067,1","00750,1,9,N","018000,1,N,1","+0064,1","+0009,1","99999,9",,,,"6,1,03,1","2,1,03,1",,"06,99,1,05,1,05,1,00800,1,03,1,00,1",,,,,"99999,9,08978,1","2,1,021,1,+999,9","3,1452,9","02,1","SYN072AAXX  24094 08213 41568 62313 10064 20009 38978 48452 52021 70262 85530;",
"08213099999","2010-02-24T12:00:00","4","40.95","-4.1333333","1005.0","SEGOVIA, SP","FM-12","99999","V020","260,1,N,0093,1","03600,1,9,N","018000,1,N,1","+0095,1","-0004,1","99999,9","06,0000,9,1",,,,,,"07,99,1,04,1,05,1,00800,1,04,1,99,9",,,,,"99999,9,08986,1","2,1,008,1,+999,9","3,1464,9",,"SYN082AAXX  24124 08213 12568 72618 10095 21004 38986 48464 52008 60001 8454/ 333 50110;","Q01  00002PRCP06"
"08213099999","2010-02-24T15:00:00","4","40.95","-4.1333333","1005.0","SEGOVIA, SP","FM-12","99999","V020","240,1,N,0087,1","00750,1,9,N","018000,1,N,1","+0120,1","+0030,1","99999,9",,,,,,,"07,99,1,07,1,05,1,00800,1,99,9,99,9",,,,,"99999,9,08975,1","7,1,011,1,+999,9","3,1458,9",,"SYN066AAXX  24154 08213 42568 72417 10120 20030 38975 48458 57011 875//;",
"08213099999","2010-02-24T18:00:00","4","40.95","-4.1333333","1005.0","SEGOVIA, SP","FM-12","99999","V020","230,1,N,0051,1","00750,1,9,N","020000,1,N,1","+0102,1","+0039,1","99999,9","12,0000,9,1",,,,,,"07,99,1,07,1,05,1,00800,1,99,9,99,9",,,,"999,M,+0124,1","99999,9,08973,1","6,1,002,1,+999,9","3,1453,9",,"SYN082AAXX  24184 08213 12570 72310 10102 20039 38973 48453 56002 60002 875// 333 10124;","Q01  00002PRCP12"
"08213099999","2010-02-25T06:00:00","4","40.95","-4.1333333","1005.0","SEGOVIA, SP","FM-12","99999","V020","220,1,N,0010,1","03600,1,9,N","015000,1,N,1","+0092,1","+0023,1","99999,9","12,0000,9,1","24,0000,9,1",,,,,"08,99,1,04,1,05,1,00800,1,07,1,99,9","0228,9","09,9","999,+0070,9","999,N,+0085,1","99999,9,08923,1","7,1,008,1,+999,9","3,1406,9",,"SYN100AAXX  25064 08213 12565 82202 10092 20023 38923 48406 57008 60002 8457/ 333 20085 31007 55038 70000;","Q01  00002PRCP24Q02  00002PRCP12"
"08213099999","2010-02-25T09:00:00","4","40.95","-4.1333333","1005.0","SEGOVIA, SP","FM-12","99999","V020","190,1,N,0134,1","03600,1,9,N","012000,1,N,1","+0102,1","+0035,1","99999,9",,,,"6,1,03,1","2,1,03,1",,"06,99,1,03,1,05,1,00800,1,04,1,00,1",,,,,"99999,9,08904,1","8,1,019,1,+999,9","3,1390,9","02,1","SYN072AAXX  25094 08213 41562 61926 10102 20035 38904 48390 58019 70262 83540;",
"08213099999","2010-02-25T12:00:00","4","40.95","-4.1333333","1005.0","SEGOVIA, SP","FM-12","99999","V020","210,1,N,0103,1","00750,1,9,N","010000,1,N,1","+0102,1","+0060,1","99999,9","06,0005,9,1",,,"6,1,06,1","2,1,06,1",,"08,99,1,08,1,07,1,00800,1,99,9,99,9",,,,,"99999,9,08902,1","8,1,002,1,+999,9","3,1388,9","61,1","SYN088AAXX  25124 08213 11560 82120 10102 20060 38902 48388 58002 69961 76162 887// 333 50190;",
"08213099999","2010-02-25T15:00:00","4","40.95","-4.1333333","1005.0","SEGOVIA, SP","FM-12","99999","V020","250,1,N,0113,1","03600,1,9,N","020000,1,N,1","+0118,1","+0023,1","99999,9",,,,"6,1,03,1","2,1,03,1",,"06,99,1,04,1,08,1,00800,1,04,1,02,1",,,,,"99999,9,08899,1","6,1,003,1,+999,9","3,1387,9","02,1","SYN072AAXX  25154 08213 41570 62522 10118 20023 38899 48387 56003 70262 84842;",
"08213099999","2010-02-25T18:00:00","4","40.95","-4.1333333","1005.0","SEGOVIA, SP","FM-12","99999","V020","250,1,N,0113,1","09000,1,9,N","020000,1,N,1","+0090,1","+0010,1","99999,9","12,0010,9,1",,,"6,1,06,1","2,1,06,1",,"05,99,1,02,1,08,1,00800,1,04,1,01,1",,,,"999,M,+0127,1","99999,9,08910,1","2,1,011,1,+999,9","3,1393,9","02,1","SYN088AAXX  25184 08213 11570 52522 10090 20010 38910 48393 52011 60012 70262 82841 333 10127;",
"08213099999","2010-02-26T06:00:00","4","40.95","-4.1333333","1005.0","SEGOVIA, SP","FM-12","99999","V020","250,1,N,0046,1","00750,1,9,N","014000,1,N,1","+0038,1","+0003,1","99999,9","12,0000,9,1","24,0010,9,1",,,,,"08,99,1,05,1,05,1,00800,1,02,1,99,9","0090,9","01,9","999,+0020,9","999,N,+0038,1","99999,9,08968,1","2,1,008,1,+999,9","3,1438,9",,"SYN100AAXX  26064 08213 12564 82509 10038 20003 38968 48438 52008 60002 8552/ 333 20038 30002 55015 70010;","Q01  00002PRCP12"
"08213099999","2010-02-26T12:00:00","4","40.95","-4.1333333","1005.0","SEGOVIA, SP","FM-12","99999","V020","250,1,N,0021,1","03600,1,9,N","018000,1,N,1","+0086,1","-0004,1","99999,9","06,0000,9,1",,,,,,"07,99,1,03,1,02,1,00800,1,01,1,04,1",,,,,"99999,9,08990,1","1,1,007,1,+999,9","3,1466,9",,"SYN082AAXX  26124 08213 12568 72504 10086 21004 38990 48466 51007 60001 83214 333 50160;","Q01  00002PRCP06"
"08213099999","2010-02-26T15:00:00","4","40.95","-4.1333333","1005.0","SEGOVIA, SP","FM-12","99999","V020","280,1,N,0021,1","03600,1,9,N","018000,1,N,1","+0108,1","-0019,1","99999,9",,,,,,,"07,99,1,03,1,02,1,00800,1,04,1,04,1",,,,,"99999,9,08973,1","6,1,017,1,+999,9","3,1454,9",,"SYN066AAXX  26154 08213 42568 72804 10108 21019 38973 48454 56017 83244;",
"08213099999","2010-02-26T18:00:00","4","40.95","-4.1333333","1005.0","SEGOVIA, SP","FM-12","99999","V020","200,1,N,0031,1","03600,1,9,N","018000,1,N,1","+0090,1","-0006,1","99999,9","12,0000,9,1",,,,,,"07,99,1,01,1,02,1,00800,1,05,1,04,1",,,,"999,M,+0114,1","99999,9,08960,1","8,1,013,1,+999,9","3,1439,9",,"SYN082AAXX  26184 08213 12568 72006 10090 21006 38960 48439 58013 60002 81254 333 10114;","Q01  00002PRCP12"
"08213099999","2010-02-27T06:00:00","4","40.95","-4.1333333","1005.0","SEGOVIA, SP","FM-12","99999","V020","190,1,N,0087,1","01200,1,9,N","012000,1,N,1","+0102,1","+0044,1","99999,9","12,0000,9,1","24,0000,9,1",,,,,"07,99,1,07,1,08,1,00800,1,00,1,00,1","0342,9","01,9","999,+0040,9","999,N,+0076,1","99999,9,08881,1","7,1,018,1,+999,9","3,1368,9",,"SYN100AAXX  27064 08213 12562 71917 10102 20044 38881 48368 57018 60002 87800 333 20076 30004 55057 70000;","Q01  00002PRCP24Q02  00002PRCP12"
"08213099999","2010-02-27T09:00:00","4","40.95","-4.1333333","1005.0","SEGOVIA, SP","FM-12","99999","V020","180,1,N,0175,1","00750,1,9,N","016000,1,N,1","+0122,1","+0054,1","99999,9",,,,,,,"08,99,1,05,1,05,1,00800,1,02,1,99,9",,,,,"99999,9,08855,1","5,1,026,1,+999,9","3,1347,9",,"SYN066AAXX  27094 08213 42566 81834 10122 20054 38855 48347 55026 8552/;",
"08213099999","2010-02-27T12:00:00","4","40.95","-4.1333333","1005.0","SEGOVIA, SP","FM-12","99999","V020","200,1,N,0134,1","00750,1,9,N","016000,1,N,1","+0138,1","+0049,1","99999,9","06,9999,9,9",,,"2,1,06,1","2,1,06,1",,"08,99,1,05,1,05,1,00800,1,02,1,99,9",,,,,"99999,9,08847,1","8,1,008,1,+999,9","3,1341,9","60,1","SYN088AAXX  27124 08213 11566 82026 10138 20049 38847 48341 58008 69901 76022 8552/ 333 50300;","Q01  00002PRCP06Q02  00002PRCP06"
"08213099999","2010-02-27T15:00:00","4","40.95","-4.1333333","1005.0","SEGOVIA, SP","FM-12","99999","V020","160,1,N,0242,1","01200,1,9,N","016000,1,N,1","+0154,1","+0050,1","99999,9",,,,"6,1,03,1","2,1,03,1",,"07,99,1,05,1,08,1,00800,1,04,1,04,1",,,,,"99999,9,08754,1","7,1,093,1,+999,9","3,1254,9","02,1","SYN072AAXX  27154 08213 41566 71647 10154 20050 38754 48254 57093 70262 85844;",
"08213099999","2010-02-27T18:00:00","4","40.95","-4.1333333","1005.0","SEGOVIA, SP","FM-12","99999","V020","190,1,N,0154,1","22000,1,9,N","018000,1,N,1","+0158,1","+0063,1","99999,9","12,0000,2,1",,,,,,"03,99,1,02,1,02,1,00800,1,00,1,01,1",,,,"999,M,+0178,1","99999,9,08751,1","5,1,003,1,+999,9","3,1251,9",,"SYN082AAXX  27184 08213 12568 31930 10158 20063 38751 48251 55003 69922 82201 333 10178;",
"08213099999","2010-02-28T06:00:00","4","40.95","-4.1333333","1005.0","SEGOVIA, SP","FM-12","99999","V020","280,1,N,0046,1","00750,1,9,N","012000,1,N,1","+0046,1","+0013,1","99999,9","12,9999,9,9","24,0003,9,1",,"6,1,06,1","2,1,06,1",,"08,99,1,05,1,05,1,00800,1,02,1,99,9","0348,9","01,9","999,+0030,9","999,N,+0046,1","99999,9,08930,1","1,1,015,1,+999,9","3,1405,9","60,1","SYN106AAXX  28064 08213 11562 82809 10046 20013 38930 48405 51015 69902 76062 8552/ 333 20046 30003 55058 70002;","Q01  00002PRCP12Q02  00002PRCP12"
"08213099999","2010-02-28T09:00:00","4","40.95","-4.1333333","1005.0","SEGOVIA, SP","FM-12","99999","V020","250,1,N,0021,1","22000,1,9,N","018000,1,N,1","+0060,1","+0013,1","99999,9",,,,,,,"03,99,1,02,1,02,1,00800,1,04,1,00,1",,,,,"99999,9,08944,1","1,1,014,1,+999,9","3,1420,9",,"SYN066AAXX  28094 08213 42568 32504 10060 20013 38944 48420 51014 82240;",
"08213099999","2010-02-28T12:00:00","4","40.95","-4.1333333","1005.0","SEGOVIA, SP","FM-12","99999","V020","240,1,N,0021,1","22000,1,9,N","020000,1,N,1","+0094,1","-0013,1","99999,9","06,0000,2,1",,,,,,"05,99,1,01,1,01,1,00800,1,00,1,04,1",,,,,"99999,9,08949,1","1,1,005,1,+999,9","3,1430,9",,"SYN082AAXX  28124 08213 12570 52404 10094 21013 38949 48430 51005 60001 81104 333 50520;",
"08213099999","2010-02-28T15:00:00","4","40.95","-4.1333333","1005.0","SEGOVIA, SP","FM-12","99999","V020","220,1,N,0062,1","00750,1,9,N","020000,1,N,1","+0114,1","-0028,1","99999,9",,,,,,,"06,99,1,05,1,02,1,00800,1,00,1,08,1",,,,,"99999,9,08925,1","8,1,024,1,+999,9","3,1410,9",,"SYN066AAXX  28154 08213 42570 62212 10114 21028 38925 48410 58024 85208;",
"08213099999","2010-02-28T18:00:00","4","40.95","-4.1333333","1005.0","SEGOVIA, SP","FM-12","99999","V020","150,1,N,0067,1","03600,1,9,N","020000,1,N,1","+0086,1","-0046,1","99999,9","12,0000,2,1",,,,,,"07,99,1,03,1,05,1,00800,1,02,1,00,1",,,,"999,M,+0126,1","99999,9,08923,1","6,1,002,1,+999,9","3,1404,9",,"SYN082AAXX  28184 08213 12570 71513 10086 21046 38923 48404 56002 60002 83520 333 10126;",
"08213099999","2010-03-01T06:00:00","4","40.95","-4.1333333","1005.0","SEGOVIA, SP","FM-12","99999","V020","230,1,N,0031,1","22000,1,9,N","018000,1,N,1","+0031,1","+0021,1","99999,9","12,0020,9,2","24,0018,9,2",,"6,1,06,1","2,1,06,1",,"03,99,1,01,1,05,1,00800,1,03,1,00,1","0516,9","09,9","999,+0010,9","999,N,+0026,1","99999,9,08989,1","2,1,018,1,+999,9","3,1456,9","02,1","SYN106AAXX  01064 08213 11568 32306 10031 20021 38989 48456 52018 60022 70262 81530 333 20026 31001 55086 70019;",
"08213099999","2010-03-01T09:00:00","4","40.95","-4.1333333","1005.0","SEGOVIA, SP","FM-12","99999","V020","230,1,N,0041,1","22000,1,9,N","020000,1,N,1","+0058,1","-0007,1","99999,9",,,,"6,1,03,1","2,1,03,1",,"02,99,1,01,1,05,1,00800,1,03,1,00,1",,,,,"99999,9,09009,1","2,1,020,1,+999,9","3,1478,9","02,1","SYN072AAXX  01094 08213 41570 22308 10058 21007 39009 48478 52020 70262 81530;",
"08213099999","2010-03-01T12:00:00","4","40.95","-4.1333333","1005.0","SEGOVIA, SP","FM-12","99999","V020","280,1,N,0087,1","22000,1,9,N","020000,1,N,1","+0088,1","-0002,1","99999,9","06,0000,9,1",,,,,,"03,99,1,03,1,05,1,00800,1,00,1,00,1",,,,,"99999,9,09023,1","2,1,014,1,+999,9","3,1496,9",,"SYN082AAXX  01124 08213 12570 32817 10088 21002 39023 48496 52014 60001 83500 333 50230;","Q01  00002PRCP06"
"08213099999","2010-03-01T15:00:00","4","40.95","-4.1333333","1005.0","SEGOVIA, SP","FM-12","99999","V020","290,1,N,0072,1","22000,1,9,N","020000,1,N,1","+0096,1","-0011,1","99999,9",,,,,,,"03,99,1,03,1,05,1,00800,1,00,1,00,1",,,,,"99999,9,09021,1","8,1,002,1,+999,9","3,1496,9",,"SYN066AAXX  01154 08213 42570 32914 10096 21011 39021 48496 58002 83500;",
"08213099999","2010-03-01T18:00:00","4","40.95","-4.1333333","1005.0","SEGOVIA, SP","FM-12","99999","V020","290,1,N,0026,1","22000,1,9,N","020000,1,N,1","+0076,1","+0008,1","99999,9","12,0000,9,1",,,,,,"04,99,1,01,1,05,1,00800,1,03,1,01,1",,,,"999,M,+0107,1","99999,9,09028,1","2,1,007,1,+999,9","3,1499,9",,"SYN082AAXX  01184 08213 12570 42905 10076 20008 39028 48499 52007 60002 81531 333 10107;","Q01  00002PRCP12"
"08213099999","2010-03-02T06:00:00","4","40.95","-4.1333333","1005.0","SEGOVIA, SP","FM-12","99999","V020","090,1,N,0015,1","22000,1,9,N","020000,1,N,1","+0034,1","-0038,1","99999,9","12,0000,9,1","24,0000,9,1",,,,,"02,99,1,00,1,00,1,99999,9,00,1,02,1","0516,9","09,9","999,-0040,9","999,N,+0011,1","99999,9,09001,1","7,1,010,1,+999,9","3,1467,9",,"SYN100AAXX  02064 08213 12970 20903 10034 21038 39001 48467 57010 60002 80002 333 20011 31104 55086 70000;","Q01  00002PRCP24Q02  00002PRCP12"
"08213099999","2010-03-02T09:00:00","4","40.95","-4.1333333","1005.0","SEGOVIA, SP","FM-12","99999","V020","130,1,N,0057,1","22000,1,9,N","020000,1,N,1","+0104,1","-0056,1","99999,9",,,,,,,"04,99,1,00,1,00,1,99999,9,00,1,05,1",,,,,"99999,9,08993,1","6,1,008,1,+999,9","3,1471,9",,"SYN066AAXX  02094 08213 42970 41311 10104 21056 38993 48471 56008 80005;",
"08213099999","2010-03-02T12:00:00","4","40.95","-4.1333333","1005.0","SEGOVIA, SP","FM-12","99999","V020","150,1,N,0098,1","09000,1,9,N","020000,1,N,1","+0117,1","-0099,1","99999,9","06,0000,9,1",,,,,,"07,99,1,01,1,00,1,01750,1,04,1,06,1",,,,,"99999,9,08974,1","6,1,019,1,+999,9","3,1456,9",,"SYN082AAXX  02124 08213 12770 71519 10117 21099 38974 48456 56019 60001 81046 333 5///0;","Q01  00002PRCP06"
"08213099999","2010-03-02T15:00:00","4","40.95","-4.1333333","1005.0","SEGOVIA, SP","FM-12","99999","V020","120,1,N,0067,1","03600,1,9,N","020000,1,N,1","+0110,1","-0046,1","99999,9",,,,,,,"08,99,1,01,1,05,1,00800,1,07,1,06,1",,,,,"99999,9,08950,1","7,1,024,1,+999,9","3,1433,9",,"SYN066AAXX  02154 08213 42570 81213 10110 21046 38950 48433 57024 81576;",
"08213099999","2010-03-02T18:00:00","4","40.95","-4.1333333","1005.0","SEGOVIA, SP","FM-12","99999","V020","140,1,N,0067,1","09000,1,9,N","020000,1,N,1","+0104,1","-0064,1","99999,9","12,0000,9,1",,,,,,"08,99,1,04,1,00,1,01750,1,07,1,06,1",,,,"999,M,+0127,1","99999,9,08938,1","7,1,012,1,+999,9","3,1421,9",,"SYN082AAXX  02184 08213 12770 81413 10104 21064 38938 48421 57012 60002 84076 333 10127;","Q01  00002PRCP12"
"08213099999","2010-03-03T06:00:00","4","40.95","-4.1333333","1005.0","SEGOVIA, SP","FM-12","99999","V020","140,1,N,0021,1","00750,1,9,N","012000,1,N,1","+0050,1","+0027,1","99999,9","12,0000,9,1","24,0003,9,1",,"6,1,06,1","2,1,06,1",,"08,99,1,05,1,05,1,00800,1,02,1,99,9","0084,9","09,9","999,+0020,9","999,N,+0044,1","99999,9,08902,1","4,1,000,1,+999,9","3,1381,9","02,1","SYN106AAXX  03064 08213 11562 81404 10050 20027 38902 48381 54000 69922 70262 8552/ 333 20044 31002 55014 70002;","Q01  00002PRCP12"
"08213099999","2010-03-03T09:00:00","4","40.95","-4.1333333","1005.0","SEGOVIA, SP","FM-12","99999","V020","040,1,N,0010,1","00750,1,9,N","004000,1,N,1","+0054,1","+0041,1","99999,9",,,,"6,1,03,1","2,1,03,1",,"08,99,1,05,1,05,1,00800,1,02,1,99,9",,,,,"99999,9,08920,1","2,1,018,1,+999,9","3,1398,9","61,1","SYN072AAXX  03094 08213 41540 80402 10054 20041 38920 48398 52018 76162 8552/;",
"08213099999","2010-03-03T12:00:00","4","40.95","-4.1333333","1005.0","SEGOVIA, SP","FM-12","99999","V020","210,1,N,0015,1","00750,1,9,N","014000,1,N,1","+0070,1","+0040,1","99999,9","06,0030,9,1",,,"6,1,06,1","2,1,06,1",,"08,99,1,05,1,05,1,00800,1,02,1,99,9",,,,,"99999,9,08931,1","1,1,011,1,+999,9","3,1410,9","02,1","SYN088AAXX  03124 08213 11564 82103 10070 20040 38931 48410 51011 60031 70262 8552/ 333 50600;",
"08213099999","2010-03-03T15:00:00","4","40.95","-4.1333333","1005.0","SEGOVIA, SP","FM-12","99999","V020","300,1,N,0051,1","01200,1,9,N","016000,1,N,1","+0100,1","+0040,1","99999,9",,,,,,,"07,99,1,07,1,08,1,00800,1,00,1,00,1",,,,,"99999,9,08928,1","8,1,003,1,+999,9","3,1412,9",,"SYN066AAXX  03154 08213 42566 73010 10100 20040 38928 48412 58003 87800;",
"08213099999","2010-03-03T18:00:00","4","40.95","-4.1333333","1005.0","SEGOVIA, SP","FM-12","99999","V020","260,1,N,0010,1","01200,1,9,N","016000,1,N,1","+0084,1","+0026,1","99999,9","12,0030,9,1",,,,,,"07,99,1,06,1,08,1,00800,1,00,1,01,1",,,,"999,M,+0102,1","99999,9,08934,1","3,1,006,1,+999,9","3,1415,9",,"SYN082AAXX  03184 08213 12566 72602 10084 20026 38934 48415 53006 60032 86801 333 10102;",
"08213099999","2010-03-04T06:00:00","4","40.95","-4.1333333","1005.0","SEGOVIA, SP","FM-12","99999","V020","270,1,N,0026,1","00750,1,9,N","012000,1,N,1","+0056,1","+0042,1","99999,9","12,0000,9,1","24,0025,9,1",,,,,"08,99,1,05,1,05,1,00800,1,02,1,99,9","0030,9","09,9","999,+0040,9","999,N,+0054,1","99999,9,08977,1","2,1,006,1,+999,9","3,1450,9",,"SYN100AAXX  04064 08213 12562 82705 10056 20042 38977 48450 52006 60002 8552/ 333 20054 31004 55005 70026;","Q01  00002PRCP12"
"08213099999","2010-03-04T09:00:00","4","40.95","-4.1333333","1005.0","SEGOVIA, SP","FM-12","99999","V020","270,1,N,0026,1","00750,1,9,N","002000,1,N,1","+0060,1","+0051,1","99999,9",,,,"6,1,03,1","2,1,03,1",,"08,99,1,05,1,05,1,00800,1,02,1,99,9",,,,,"99999,9,08996,1","2,1,019,1,+999,9","3,1468,9","10,1","SYN072AAXX  04094 08213 41520 82705 10060 20051 38996 48468 52019 71062 8552/;",
"08213099999","2010-03-04T12:00:00","4","40.95","-4.1333333","1005.0","SEGOVIA, SP","FM-12","99999","V020","310,1,N,0021,1","01200,1,9,N","014000,1,N,1","+0086,1","+0048,1","99999,9","06,0005,9,1",,,"6,1,06,1","2,1,06,1",,"07,99,1,07,1,08,1,00800,1,00,1,00,1",,,,,"99999,9,09007,1","1,1,011,1,+999,9","3,1482,9","02,1","SYN088AAXX  04124 08213 11564 73104 10086 20048 39007 48482 51011 69941 70262 87800 333 50160;",
"08213099999","2010-03-04T15:00:00","4","40.95","-4.1333333","1005.0","SEGOVIA, SP","FM-12","99999","V020","320,1,N,0031,1","01200,1,9,N","016000,1,N,1","+0100,1","+0031,1","99999,9",,,,,,,"07,99,1,07,1,08,1,00800,1,00,1,00,1",,,,,"99999,9,09008,1","1,1,001,1,+999,9","3,1485,9",,"SYN066AAXX  04154 08213 42566 73206 10100 20031 39008 48485 51001 87800;",
"08213099999","2010-03-04T18:00:00","4","40.95","-4.1333333","1005.0","SEGOVIA, SP","FM-12","99999","V020","100,1,N,0005,1","01200,1,9,N","016000,1,N,1","+0096,1","+0036,1","99999,9","12,0005,9,1",,,,,,"07,99,1,07,1,08,1,00800,1,00,1,00,1",,,,"999,M,+0104,1","99999,9,09007,1","8,1,001,1,+999,9","3,1483,9",,"SYN082AAXX  04184 08213 12566 71001 10096 20036 39007 48483 58001 69942 87800 333 10104;",
"08213099999","2010-03-05T06:00:00","4","40.95","-4.1333333","1005.0","SEGOVIA, SP","FM-12","99999","V020","070,1,N,0015,1","03600,1,9,N","010000,1,N,1","+0058,1","+0031,1","99999,9","12,0000,9,1","24,0005,9,1",,"5,1,06,1","2,1,06,1",,"08,99,1,04,1,05,1,00800,1,07,1,08,1","0012,9","09,9","999,+0000,9","999,N,+0045,1","99999,9,08995,1","7,1,003,1,+999,9","3,1466,9","02,1","SYN106AAXX  05064 08213 11560 80703 10058 20031 38995 48466 57003 69902 70252 84578 333 20045 31100 55002 70004;","Q01  00002PRCP12"
"08213099999","2010-03-05T09:00:00","4","40.95","-4.1333333","1005.0","SEGOVIA, SP","FM-12","99999","V020","110,1,N,0010,1","03600,1,9,N","010000,1,N,1","+0052,1","+0039,1","99999,9",,,,,,,"08,99,1,04,1,07,1,00800,1,07,1,08,1",,,,,"99999,9,08997,1","3,1,002,1,+999,9","3,1467,9",,"SYN066AAXX  05094 08213 42560 81102 10052 20039 38997 48467 53002 84778;",
"08213099999","2010-03-05T12:00:00","4","40.95","-4.1333333","1005.0","SEGOVIA, SP","FM-12","99999","V020","190,1,N,0026,1","03600,1,9,N","010000,1,N,1","+0077,1","+0047,1","99999,9","06,0000,9,1",,,"5,1,06,1","2,1,06,1",,"08,99,1,04,1,07,1,00800,1,07,1,08,1",,,,,"99999,9,08996,1","8,1,001,1,+999,9","3,1470,9","02,1","SYN088AAXX  05124 08213 11560 81905 10077 20047 38996 48470 58001 69901 70252 84778 333 50040;","Q01  00002PRCP06"
"08213099999","2010-03-05T15:00:00","4","40.95","-4.1333333","1005.0","SEGOVIA, SP","FM-12","99999","V020","080,1,N,0031,1","00750,1,9,N","010000,1,N,1","+0079,1","+0028,1","99999,9",,,,"6,1,03,1","2,1,03,1",,"08,99,1,06,1,07,1,00800,1,07,1,08,1",,,,,"99999,9,08976,1","8,1,020,1,+999,9","3,1452,9","61,1","SYN072AAXX  05154 08213 41560 80806 10079 20028 38976 48452 58020 76162 86778;",
"08213099999","2010-03-05T18:00:00","4","40.95","-4.1333333","1005.0","SEGOVIA, SP","FM-12","99999","V020","150,1,N,0041,1","00750,1,9,N","008000,1,N,1","+0060,1","+0008,1","99999,9","12,0010,9,1",,,"6,1,06,1","2,1,06,1",,"08,99,1,05,1,07,1,00800,1,07,1,08,1",,,,"999,M,+0080,1","99999,9,08975,1","5,1,001,1,+999,9","3,1448,9","15,1","SYN088AAXX  05184 08213 11558 81508 10060 20008 38975 48448 55001 60012 71562 85778 333 10080;",
"08213099999","2010-03-06T06:00:00","4","40.95","-4.1333333","1005.0","SEGOVIA, SP","FM-12","99999","V020","130,1,N,0123,1","03600,1,9,N","010000,1,N,1","+0046,1","-0041,1","99999,9","12,0000,9,1","24,0015,9,1",,,,,"08,99,1,04,1,07,1,00800,1,07,1,08,1","0000,9","01,9","999,+0030,9","999,N,+0040,1","99999,9,08955,1","5,1,003,1,+999,9","3,1428,9",,"SYN100AAXX  06064 08213 12560 81324 10046 21041 38955 48428 55003 69912 84778 333 20040 30003 55000 70015;","Q01  00002PRCP12"
"08213099999","2010-03-06T09:00:00","4","40.95","-4.1333333","1005.0","SEGOVIA, SP","FM-12","99999","V020","170,1,N,0067,1","03600,1,9,N","012000,1,N,1","+0052,1","-0033,1","99999,9",,,,,,,"08,99,1,04,1,07,1,00800,1,07,1,08,1",,,,,"99999,9,08962,1","3,1,007,1,+999,9","3,1435,9",,"SYN066AAXX  06094 08213 42562 81713 10052 21033 38962 48435 53007 84778;",
"08213099999","2010-03-06T12:00:00","4","40.95","-4.1333333","1005.0","SEGOVIA, SP","FM-12","99999","V020","210,1,N,0036,1","03600,1,9,N","015000,1,N,1","+0080,1","-0002,1","99999,9","06,0000,9,1",,,,,,"06,99,1,04,1,05,1,00800,1,07,1,01,1",,,,,"99999,9,08962,1","0,1,000,1,+999,9","3,1439,9",,"SYN082AAXX  06124 08213 12565 62107 10080 21002 38962 48439 50000 60001 84571 333 50070;","Q01  00002PRCP06"
"08213099999","2010-03-06T15:00:00","4","40.95","-4.1333333","1005.0","SEGOVIA, SP","FM-12","99999","V020","140,1,N,0051,1","03600,1,9,N","015000,1,N,1","+0084,1","+0001,1","99999,9",,,,,,,"07,99,1,04,1,08,1,00800,1,07,1,08,1",,,,,"99999,9,08952,1","7,1,010,1,+999,9","3,1431,9",,"SYN066AAXX  06154 08213 42565 71410 10084 20001 38952 48431 57010 84878;",
"08213099999","2010-03-06T18:00:00","4","40.95","-4.1333333","1005.0","SEGOVIA, SP","FM-12","99999","V020","120,1,N,0036,1","03600,1,9,N","012000,1,N,1","+0061,1","+0002,1","99999,9","12,9999,9,9",,,"6,1,06,1","2,1,06,1",,"08,99,1,03,1,04,1,00800,1,07,1,08,1",,,,"999,M,+0097,1","99999,9,08957,1","3,1,005,1,+999,9","3,1432,9","60,1","SYN088AAXX  06184 08213 11562 81207 10061 20002 38957 48432 53005 69922 76062 83478 333 10097;","Q01  00002PRCP12Q02  00002PRCP12"
"08213099999","2010-03-07T06:00:00","4","40.95","-4.1333333","1005.0","SEGOVIA, SP","FM-12","99999","V020","120,1,N,0026,1","00750,1,9,N","006000,1,N,1","+0040,1","+0027,1","99999,9","12,0010,9,1","24,0010,9,1",,"6,1,06,1","2,1,06,1",,"08,99,1,06,1,06,1,00800,1,07,1,08,1","0120,9","11,9","999,+0020,9","999,N,+0038,1","99999,9,08962,1","4,1,000,1,+999,9","3,1434,9","50,1","SYN106AAXX  07064 08213 11556 81205 10040 20027 38962 48434 54000 60012 75062 86678 333 20038 32002 55020 70011;",
"08213099999","2010-03-07T09:00:00","4","40.95","-4.1333333","1005.0","SEGOVIA, SP","FM-12","99999","V020","240,1,N,0021,1","00750,1,9,N","008000,1,N,1","+0054,1","+0031,1","99999,9",,,,"5,1,03,1","2,1,03,1",,"08,99,1,06,1,06,1,00800,1,07,1,08,1",,,,,"99999,9,08962,1","5,1,000,1,+999,9","3,1436,9","10,1","SYN072AAXX  07094 08213 41558 82404 10054 20031 38962 48436 55000 71052 86678;",
"08213099999","2010-03-07T12:00:00","4","40.95","-4.1333333","1005.0","SEGOVIA, SP","FM-12","99999","V020","290,1,N,0031,1","00420,1,9,N","004000,1,N,1","+0056,1","+0050,1","99999,9","06,0008,9,1",,,"6,1,06,1","2,1,06,1",,"08,99,1,06,1,06,1,00450,1,07,1,08,1",,,,,"99999,9,08959,1","8,1,003,1,+999,9","3,1434,9","60,1","SYN088AAXX  07124 08213 11440 82906 10056 20050 38959 48434 58003 69981 76062 86678 333 50180;",
"08213099999","2010-03-07T15:00:00","4","40.95","-4.1333333","1005.0","SEGOVIA, SP","FM-12","99999","V020","020,1,N,0021,1","00420,1,9,N","003000,1,N,1","+0053,1","+0043,1","99999,9",,,,"6,1,03,1","2,1,03,1",,"08,99,1,06,1,06,1,00450,1,07,1,08,1",,,,,"99999,9,08941,1","7,1,018,1,+999,9","3,1417,9","61,1","SYN072AAXX  07154 08213 41430 80204 10053 20043 38941 48417 57018 76162 86678;",
"08213099999","2010-03-07T18:00:00","4","40.95","-4.1333333","1005.0","SEGOVIA, SP","FM-12","99999","V020","030,1,N,0021,1","00420,1,9,N","002000,1,N,1","+0014,1","+0004,1","99999,9","12,0051,9,1",,,"7,1,06,1","6,1,06,1",,"08,99,1,07,1,06,1,00450,1,02,1,08,1",,,,"999,M,+0063,1","99999,9,08948,1","3,1,007,1,+999,9","3,1417,9","73,1","SYN088AAXX  07184 08213 11420 80304 10014 20004 38948 48417 53007 60052 77376 87628 333 10063;",
"08213099999","2010-03-08T06:00:00","4","40.95","-4.1333333","1005.0","SEGOVIA, SP","FM-12","99999","V020","010,1,N,0026,1","03600,1,9,N","012000,1,N,1","-0044,1","-0072,1","99999,9","12,0000,2,1","24,0099,9,1",,,,,"06,99,1,02,1,04,1,00800,1,05,1,00,1","0000,9","14,9","999,-0080,9","999,N,-0044,1","99999,9,08947,1","6,1,005,1,+999,9","3,1407,9",,"SYN100AAXX  08064 08213 12562 60105 11044 21072 38947 48407 56005 60002 82450 333 21044 34108 55000 70100;",
"08213099999","2010-03-08T09:00:00","4","40.95","-4.1333333","1005.0","SEGOVIA, SP","FM-12","99999","V020","030,1,N,0015,1","22000,1,9,N","014000,1,N,1","-0040,1","-0074,1","99999,9",,,,,,,"02,99,1,02,1,04,1,00800,1,00,1,00,1",,,,,"99999,9,08958,1","1,1,011,1,+999,9","3,1417,9",,"SYN066AAXX  08094 08213 42564 20303 11040 21074 38958 48417 51011 82400;",
"08213099999","2010-03-08T12:00:00","4","40.95","-4.1333333","1005.0","SEGOVIA, SP","FM-12","99999","V020","040,1,N,0026,1","01200,1,9,N","016000,1,N,1","-0010,1","-0067,1","99999,9","06,0000,9,1",,,,,,"06,99,1,06,1,08,1,00800,1,00,1,00,1",,,,,"99999,9,08955,1","8,1,003,1,+999,9","3,1419,9",,"SYN082AAXX  08124 08213 12566 60405 11010 21067 38955 48419 58003 60001 86800 333 5///0;","Q01  00002PRCP06"
"08213099999","2010-03-08T15:00:00","4","40.95","-4.1333333","1005.0","SEGOVIA, SP","FM-12","99999","V020","320,1,N,0036,1","01200,1,9,N","016000,1,N,1","+0004,1","-0088,1","99999,9",,,,,,,"06,99,1,06,1,08,1,00800,1,00,1,00,1",,,,,"99999,9,08939,1","7,1,016,1,+999,9","3,1407,9",,"SYN066AAXX  08154 08213 42566 63207 10004 21088 38939 48407 57016 86800;",
"08213099999","2010-03-08T18:00:00","4","40.95","-4.1333333","1005.0","SEGOVIA, SP","FM-12","99999","V020","040,1,N,0041,1","01200,1,9,N","016000,1,N,1","-0018,1","-0056,1","99999,9","12,0000,9,1",,,,,,"07,99,1,07,1,08,1,00800,1,00,1,00,1",,,,"999,M,+0012,1","99999,9,08932,1","6,1,007,1,+999,9","3,1398,9",,"SYN082AAXX  08184 08213 12566 70408 11018 21056 38932 48398 56007 60002 87800 333 10012;","Q01  00002PRCP12"
"08213099999","2010-03-09T06:00:00","4","40.95","-4.1333333","1005.0","SEGOVIA, SP","FM-12","99999","V020","180,1,N,0015,1","01200,1,9,N","012000,1,N,1","-0040,1","-0066,1","99999,9","12,0000,9,1","24,0000,9,1",,,,,"06,99,1,06,1,08,1,00800,1,00,1,00,1","0396,9","14,9","999,-0100,9","999,N,-0054,1","99999,9,08946,1","2,1,006,1,+999,9","3,1407,9",,"SYN100AAXX  09064 08213 12562 61803 11040 21066 38946 48407 52006 60002 86800 333 21054 34110 55066 70000;","Q01  00002PRCP24Q02  00002PRCP12"
"08213099999","2010-03-09T09:00:00","4","40.95","-4.1333333","1005.0","SEGOVIA, SP","FM-12","99999","V020","030,1,N,0031,1","01200,1,9,N","014000,1,N,1","-0018,1","-0071,1","99999,9",,,,,,,"06,99,1,06,1,08,1,00800,1,00,1,00,1",,,,,"99999,9,08967,1","2,1,021,1,+999,9","3,1428,9",,"SYN066AAXX  09094 08213 42564 60306 11018 21071 38967 48428 52021 86800;",
"08213099999","2010-03-09T12:00:00","4","40.95","-4.1333333","1005.0","SEGOVIA, SP","FM-12","99999","V020","020,1,N,0041,1","22000,1,9,N","018000,1,N,1","+0012,1","-0086,1","99999,9","06,0000,9,1",,,,,,"04,99,1,04,1,02,1,00800,1,00,1,00,1",,,,,"99999,9,08983,1","2,1,016,1,+999,9","3,1447,9",,"SYN082AAXX  09124 08213 12568 40208 10012 21086 38983 48447 52016 60001 84200 333 5///0;","Q01  00002PRCP06"
"08213099999","2010-03-09T15:00:00","4","40.95","-4.1333333","1005.0","SEGOVIA, SP","FM-12","99999","V020","020,1,N,0057,1","22000,1,9,N","020000,1,N,1","+0044,1","-0097,1","99999,9",,,,,,,"01,99,1,01,1,01,1,00800,1,00,1,00,1",,,,,"99999,9,08985,1","1,1,002,1,+999,9","3,1454,9",,"SYN066AAXX  09154 08213 42570 10211 10044 21097 38985 48454 51002 81100;",
"08213099999","2010-03-09T18:00:00","4","40.95","-4.1333333","1005.0","SEGOVIA, SP","FM-12","99999","V020","010,1,N,0051,1","22000,1,9,N","020000,1,N,1","+0028,1","-0085,1","99999,9","12,0000,9,1",,,,,,"01,99,1,01,1,01,1,00800,1,00,1,00,1",,,,"999,M,+0044,1","99999,9,08990,1","1,1,005,1,+999,9","3,1456,9",,"SYN082AAXX  09184 08213 12570 10110 10028 21085 38990 48456 51005 60002 81100 333 10044;","Q01  00002PRCP12"
"08213099999","2010-03-10T06:00:00","4","40.95","-4.1333333","1005.0","SEGOVIA, SP","FM-12","99999","V020","070,1,N,0015,1","22000,1,9,N","010000,1,N,1","-0047,1","-0076,1","99999,9","12,0000,9,1","24,0000,9,1",,,,,"04,99,1,01,1,07,1,00800,1,07,1,00,1","0534,9","14,9","999,-0090,9","999,N,-0048,1","99999,9,08996,1","6,1,009,1,+999,9","3,1449,9",,"SYN100AAXX  10064 08213 12560 40703 11047 21076 38996 48449 56009 60002 81770 333 21048 34109 55089 70000;","Q01  00002PRCP24Q02  00002PRCP12"
"08213099999","2010-03-10T09:00:00","4","40.95","-4.1333333","1005.0","SEGOVIA, SP","FM-12","99999","V020","030,1,N,0021,1","22000,1,9,N","006000,1,N,1","-0023,1","-0053,1","99999,9",,,,"1,1,03,1","1,1,03,1",,"03,99,1,02,1,07,1,00450,1,07,1,00,1",,,,,"99999,9,08993,1","7,1,003,1,+999,9","3,1450,9","10,1","SYN072AAXX  10094 08213 41456 30304 11023 21053 38993 48450 57003 71011 82770;",
"08213099999","2010-03-10T12:00:00","4","40.95","-4.1333333","1005.0","SEGOVIA, SP","FM-12","99999","V020","050,1,N,0041,1","00420,1,9,N","006000,1,N,1","+0014,1","-0059,1","99999,9","06,0000,9,1",,,"1,1,06,1","1,1,06,1",,"06,99,1,05,1,07,1,00450,1,07,1,01,1",,,,,"99999,9,08988,1","7,1,005,1,+999,9","3,1452,9","05,1","SYN088AAXX  10124 08213 11456 60508 10014 21059 38988 48452 57005 60001 70511 85771 333 5////;","Q01  00002PRCP06"
"08213099999","2010-03-10T15:00:00","4","40.95","-4.1333333","1005.0","SEGOVIA, SP","FM-12","99999","V020","360,1,N,0041,1","01200,1,9,N","010000,1,N,1","+0017,1","-0068,1","99999,9",,,,,,,"06,99,1,06,1,08,1,00800,1,00,1,00,1",,,,,"99999,9,08984,1","6,1,004,1,+999,9","3,1449,9",,"SYN066AAXX  10154 08213 42560 63608 10017 21068 38984 48449 56004 86800;",
"08213099999","2010-03-10T18:00:00","4","40.95","-4.1333333","1005.0","SEGOVIA, SP","FM-12","99999","V020","060,1,N,0031,1","22000,1,9,N","012000,1,N,1","+0013,1","-0072,1","99999,9","12,0000,9,1",,,,,,"02,99,1,02,1,04,1,00800,1,00,1,00,1",,,,"999,M,+0031,1","99999,9,08985,1","3,1,001,1,+999,9","3,1449,9",,"SYN082AAXX  10184 08213 12562 20606 10013 21072 38985 48449 53001 60002 82400 333 10031;","Q01  00002PRCP12"
"08213099999","2010-03-11T06:00:00","4","40.95","-4.1333333","1005.0","SEGOVIA, SP","FM-12","99999","V020","060,1,N,0041,1","03600,1,9,N","010000,1,N,1","-0024,1","-0057,1","99999,9","12,0000,9,1","24,0000,9,1",,,,,"06,99,1,02,1,07,1,00800,1,07,1,01,1","0516,9","14,9","999,-0070,9","999,N,-0024,1","99999,9,08983,1","5,1,000,1,+999,9","3,1441,9",,"SYN100AAXX  11064 08213 12560 60608 11024 21057 38983 48441 55000 60002 82771 333 21024 34107 55086 70000;","Q01  00002PRCP24Q02  00002PRCP12"
"08213099999","2010-03-11T09:00:00","4","40.95","-4.1333333","1005.0","SEGOVIA, SP","FM-12","99999","V020","060,1,N,0036,1","22000,1,9,N","010000,1,N,1","-0002,1","-0058,1","99999,9",,,,,,,"03,99,1,01,1,01,1,00800,1,07,1,01,1",,,,,"99999,9,08994,1","2,1,011,1,+999,9","3,1455,9",,"SYN066AAXX  11094 08213 42560 30607 11002 21058 38994 48455 52011 81171;",
"08213099999","2010-03-11T12:00:00","4","40.95","-4.1333333","1005.0","SEGOVIA, SP","FM-12","99999","V020","350,1,N,0021,1","00750,1,9,N","004000,1,N,1","-0012,1","-0052,1","99999,9","06,0000,9,1",,,"1,1,06,1","1,1,06,1",,"08,99,1,08,1,07,1,00800,1,00,1,00,1",,,,,"99999,9,08994,1","4,1,000,1,+999,9","3,1453,9","10,1","SYN088AAXX  11124 08213 11540 83504 11012 21052 38994 48453 54000 60001 71011 88700 333 5////;","Q01  00002PRCP06"
"08213099999","2010-03-11T15:00:00","4","40.95","-4.1333333","1005.0","SEGOVIA, SP","FM-12","99999","V020","040,1,N,0015,1","00750,1,9,N","010000,1,N,1","+0013,1","-0067,1","99999,9",,,,,,,"08,99,1,08,1,07,1,00800,1,00,1,00,1",,,,,"99999,9,08985,1","6,1,009,1,+999,9","3,1449,9",,"SYN066AAXX  11154 08213 42560 80403 10013 21067 38985 48449 56009 88700;",
"08213099999","2010-03-11T18:00:00","4","40.95","-4.1333333","1005.0","SEGOVIA, SP","FM-12","99999","V020","030,1,N,0021,1","00750,1,9,N","010000,1,N,1","+0011,1","-0062,1","99999,9","12,0000,9,1",,,,,,"08,99,1,08,1,07,1,00800,1,00,1,00,1",,,,"999,M,+0015,1","99999,9,08987,1","3,1,002,1,+999,9","3,1451,9",,"SYN082AAXX  11184 08213 12560 80304 10011 21062 38987 48451 53002 60002 88700 333 10015;","Q01  00002PRCP12"
"08213099999","2010-03-12T06:00:00","4","40.95","-4.1333333","1005.0","SEGOVIA, SP","FM-12","99999","V020","350,1,N,0036,1","00750,1,9,N","002000,1,N,1","-0008,1","-0016,1","99999,9","12,0003,9,1","24,0003,9,1","0001,9,1,999999,9,9","7,1,06,1","2,1,06,1",,"08,99,1,08,1,07,1,00800,1,99,9,99,9","0060,9","25,9","999,-0020,9","999,N,-0014,1","99999,9,08996,1","3,1,003,1,+999,9","3,1456,9","71,1","SYN112AAXX  12064 08213 11520 83507 11008 21016 38996 48456 53003 69932 77172 887// 333 21014 3/102 41001 55010 70003;",
"08213099999","2010-03-12T09:00:00","4","40.95","-4.1333333","1005.0","SEGOVIA, SP","FM-12","99999","V020","360,1,N,0021,1","00750,1,9,N","001500,1,N,1","-0007,1","-0015,1","99999,9",,,,"7,1,03,1","2,1,03,1",,"08,99,1,08,1,07,1,00800,1,99,9,99,9",,,,,"99999,9,09017,1","2,1,021,1,+999,9","3,1474,9","77,1","SYN072AAXX  12094 08213 41515 83604 11007 21015 39017 48474 52021 77772 887//;",
"08213099999","2010-03-12T12:00:00","4","40.95","-4.1333333","1005.0","SEGOVIA, SP","FM-12","99999","V020","020,1,N,0026,1","00750,1,9,N","002000,1,N,1","+0000,1","-0010,1","99999,9","06,0000,2,1",,,"7,1,06,1","7,1,06,1",,"08,99,1,08,1,07,1,00800,1,99,9,99,9",,,,,"99999,9,09029,1","2,1,012,1,+999,9","3,1486,9","10,1","SYN088AAXX  12124 08213 11520 80205 10000 21010 39029 48486 52012 69921 71077 887// 333 5///0;",
"08213099999","2010-03-12T15:00:00","4","40.95","-4.1333333","1005.0","SEGOVIA, SP","FM-12","99999","V020","360,1,N,0031,1","00750,1,9,N","003000,1,N,1","+0013,1","+0000,1","99999,9",,,,"7,1,03,1","2,1,03,1",,"08,99,1,08,1,07,1,00800,1,99,9,99,9",,,,,"99999,9,09030,1","3,1,001,1,+999,9","3,1489,9","10,1","SYN072AAXX  12154 08213 41530 83606 10013 20000 39030 48489 53001 71072 887//;",
"08213099999","2010-03-12T18:00:00","4","40.95","-4.1333333","1005.0","SEGOVIA, SP","FM-12","99999","V020","020,1,N,0026,1","00750,1,9,N","010000,1,N,1","+0025,1","+0013,1","99999,9","12,0000,2,1",,,,,,"06,99,1,06,1,07,1,00800,1,00,1,00,1",,,,"999,M,+0025,1","99999,9,09039,1","2,1,009,1,+999,9","3,1500,9",,"SYN082AAXX  12184 08213 12560 60205 10025 20013 39039 48500 52009 69922 86700 333 10025;",
"08213099999","2010-03-13T06:00:00","4","40.95","-4.1333333","1005.0","SEGOVIA, SP","FM-12","99999","V020","290,1,N,0010,1","00750,1,9,N","010000,1,N,1","-0017,1","-0028,1","99999,9","12,0000,9,1","24,0003,9,1",,,,,"08,99,1,08,1,05,1,00800,1,99,9,99,9","0006,9","09,9","999,-0080,9","999,N,-0040,1","99999,9,09069,1","1,1,010,1,+999,9","3,1518,9",,"SYN100AAXX  13064 08213 12560 82902 11017 21028 39069 48518 51010 60002 885// 333 21040 31108 55001 70002;","Q01  00002PRCP12"
"08213099999","2010-03-13T09:00:00","4","40.95","-4.1333333","1005.0","SEGOVIA, SP","FM-12","99999","V020","060,1,N,0015,1","22000,1,9,N","001500,1,N,1","+0002,1","-0014,1","99999,9",,,,"2,1,03,1","2,1,03,1",,"04,99,1,03,1,05,1,00800,1,03,1,00,1",,,,,"99999,9,09086,1","1,1,017,1,+999,9","3,1536,9","10,1","SYN072AAXX  13094 08213 41515 40603 10002 21014 39086 48536 51017 71022 83530;",
"08213099999","2010-03-13T12:00:00","4","40.95","-4.1333333","1005.0","SEGOVIA, SP","FM-12","99999","V020","060,1,N,0010,1","00750,1,9,N","015000,1,N,1","+0024,1","+0014,1","99999,9","06,0000,9,1",,,,,,"07,99,1,07,1,05,1,00800,1,99,9,99,9",,,,,"99999,9,09089,1","1,1,003,1,+999,9","3,1543,9",,"SYN082AAXX  13124 08213 12565 70602 10024 20014 39089 48543 51003 60001 875// 333 5///0;","Q01  00002PRCP06"
"08213099999","2010-03-13T15:00:00","4","40.95","-4.1333333","1005.0","SEGOVIA, SP","FM-12","99999","V020","090,1,N,0041,1","22000,1,9,N","013000,1,N,1","+0054,1","-0039,1","99999,9",,,,,,,"03,99,1,03,1,05,1,00800,1,00,1,00,1",,,,,"99999,9,09077,1","7,1,012,1,+999,9","3,1538,9",,"SYN066AAXX  13154 08213 42563 30908 10054 21039 39077 48538 57012 83500;",
"08213099999","2010-03-13T18:00:00","4","40.95","-4.1333333","1005.0","SEGOVIA, SP","FM-12","99999","V020","360,1,N,0015,1","22000,1,9,N","018000,1,N,1","+0053,1","-0069,1","99999,9","12,0000,9,1",,,,,,"03,99,1,03,1,05,1,00800,1,00,1,00,1",,,,"999,M,+0061,1","99999,9,09075,1","6,1,002,1,+999,9","3,1536,9",,"SYN082AAXX  13184 08213 12568 33603 10053 21069 39075 48536 56002 60002 83500 333 10061;","Q01  00002PRCP12"
"08213099999","2010-03-14T06:00:00","4","40.95","-4.1333333","1005.0","SEGOVIA, SP","FM-12","99999","V020","190,1,N,0015,1","00750,1,9,N","012000,1,N,1","-0015,1","-0026,1","99999,9","12,0000,9,1","24,0000,9,1",,,,,"08,99,1,08,1,06,1,00800,1,99,9,99,9","0354,9","01,9","999,-0060,9","999,N,-0025,1","99999,9,09087,1","3,1,003,1,+999,9","3,1534,9",,"SYN100AAXX  14064 08213 12562 81903 11015 21026 39087 48534 53003 60002 886// 333 21025 30106 55059 70000;","Q01  00002PRCP24Q02  00002PRCP12"
"08213099999","2010-03-14T09:00:00","4","40.95","-4.1333333","1005.0","SEGOVIA, SP","FM-12","99999","V020","240,1,N,0015,1","00750,1,9,N","001500,1,N,1","-0009,1","-0026,1","99999,9",,,,"2,1,03,1","2,1,03,1",,"07,99,1,07,1,07,1,00800,1,99,9,99,9",,,,,"99999,9,09104,1","2,1,017,1,+999,9","3,1550,9","10,1","SYN072AAXX  14094 08213 41515 72403 11009 21026 39104 48550 52017 71022 877//;",
"08213099999","2010-03-14T12:00:00","4","40.95","-4.1333333","1005.0","SEGOVIA, SP","FM-12","99999","V020","020,1,N,0031,1","22000,1,9,N","012000,1,N,1","+0049,1","-0044,1","99999,9","06,0000,9,1",,,,,,"02,99,1,02,1,05,1,00800,1,03,1,00,1",,,,,"99999,9,09106,1","1,1,002,1,+999,9","3,1563,9",,"SYN082AAXX  14124 08213 12562 20206 10049 21044 39106 48563 51002 60001 82530 333 5///0;","Q01  00002PRCP06"
"08213099999","2010-03-14T15:00:00","4","40.95","-4.1333333","1005.0","SEGOVIA, SP","FM-12","99999","V020","300,1,N,0026,1","22000,1,9,N","012000,1,N,1","+0082,1","-0071,1","99999,9",,,,,,,"01,99,1,01,1,05,1,00800,1,00,1,01,1",,,,,"99999,9,09095,1","7,1,011,1,+999,9","3,1559,9",,"SYN066AAXX  14154 08213 42562 13005 10082 21071 39095 48559 57011 81501;",
"08213099999","2010-03-14T18:00:00","4","40.95","-4.1333333","1005.0","SEGOVIA, SP","FM-12","99999","V020","360,1,N,0031,1","22000,1,9,N","015000,1,N,1","+0076,1","-0036,1","99999,9","12,0000,9,1",,,,,,"02,99,1,01,1,05,1,00800,1,00,1,01,1",,,,"999,M,+0090,1","99999,9,09093,1","6,1,002,1,+999,9","3,1557,9",,"SYN082AAXX  14184 08213 12565 23606 10076 21036 39093 48557 56002 60002 81501 333 10090;","Q01  00002PRCP12"
"08213099999","2010-03-15T06:00:00","4","40.95","-4.1333333","1005.0","SEGOVIA, SP","FM-12","99999","V020","280,1,N,0015,1","22000,1,9,N","012000,1,N,1","-0012,1","-0049,1","99999,9","12,0000,9,1","24,0000,9,1",,,,"00,1,+99999,9,99,9","00,99,1,00,1,00,1,99999,9,00,1,00,1","0438,9","14,9","999,-0070,9","999,N,-0020,1","99999,9,09096,1","7,1,009,1,+999,9","3,1542,9",,"SYN094AAXX  15064 08213 12962 02803 11012 21049 39096 48542 57009 60002 333 21020 34107 55073 70000;","Q01  00002PRCP24Q02  00002PRCP12"
"08213099999","2010-03-15T09:00:00","4","40.95","-4.1333333","1005.0","SEGOVIA, SP","FM-12","99999","V020","250,1,N,0010,1","22000,1,9,N","010000,1,N,1","+0016,1","-0031,1","99999,9",,,,,,"00,1,+99999,9,99,9","00,99,1,00,1,00,1,99999,9,00,1,00,1",,,,,"99999,9,09103,1","3,1,007,1,+999,9","3,1554,9",,"SYN060AAXX  15094 08213 42960 02502 10016 21031 39103 48554 53007;",
"08213099999","2010-03-15T12:00:00","4","40.95","-4.1333333","1005.0","SEGOVIA, SP","FM-12","99999","V020","140,1,N,0010,1","22000,1,9,N","012000,1,N,1","+0090,1","-0035,1","99999,9","06,0000,9,1",,,,,"00,1,+99999,9,99,9","00,99,1,00,1,00,1,99999,9,00,1,00,1",,,,,"99999,9,09099,1","8,1,004,1,+999,9","3,1565,9",,"SYN076AAXX  15124 08213 12962 01402 10090 21035 39099 48565 58004 60001 333 5////;","Q01  00002PRCP06"
"08213099999","2010-03-15T15:00:00","4","40.95","-4.1333333","1005.0","SEGOVIA, SP","FM-12","99999","V020","350,1,N,0010,1","22000,1,9,N","012000,1,N,1","+0130,1","-0025,1","99999,9",,,,,,"00,1,+99999,9,99,9","00,99,1,00,1,00,1,99999,9,00,1,00,1",,,,,"99999,9,09080,1","8,1,019,1,+999,9","3,1556,9",,"SYN060AAXX  15154 08213 42962 03502 10130 21025 39080 48556 58019;",
"08213099999","2010-03-15T18:00:00","4","40.95","-4.1333333","1005.0","SEGOVIA, SP","FM-12","99999","V020","290,1,N,0021,1","22000,1,9,N","015000,1,N,1","+0116,1","-0029,1","99999,9","12,0000,9,1",,,,,,"03,99,1,01,1,04,1,00800,1,04,1,01,1",,,,"999,M,+0137,1","99999,9,09077,1","6,1,003,1,+999,9","3,1550,9",,"SYN082AAXX  15184 08213 12565 32904 10116 21029 39077 48550 56003 60002 81441 333 10137;","Q01  00002PRCP12"
"08213099999","2010-03-16T06:00:00","4","40.95","-4.1333333","1005.0","SEGOVIA, SP","FM-12","99999","V020","100,1,N,0021,1","22000,1,9,N","012000,1,N,1","+0042,1","-0082,1","99999,9","12,0000,9,1","24,0000,9,1",,,,,"04,99,1,01,1,00,1,01750,1,04,1,08,1","0630,9","01,9","999,-0050,9","999,N,+0016,1","99999,9,09073,1","6,1,002,1,+999,9","3,1532,9",,"SYN100AAXX  16064 08213 12762 41004 10042 21082 39073 48532 56002 60002 81048 333 20016 30105 55105 70000;","Q01  00002PRCP24Q02  00002PRCP12"
"08213099999","2010-03-16T09:00:00","4","40.95","-4.1333333","1005.0","SEGOVIA, SP","FM-12","99999","V020","130,1,N,0021,1","22000,1,9,N","012000,1,N,1","+0118,1","-0076,1","99999,9",,,,,,,"01,99,1,00,1,00,1,99999,9,00,1,08,1",,,,,"99999,9,09076,1","3,1,003,1,+999,9","3,1549,9",,"SYN066AAXX  16094 08213 42962 11304 10118 21076 39076 48549 53003 80008;",
"08213099999","2010-03-16T15:00:00","4","40.95","-4.1333333","1005.0","SEGOVIA, SP","FM-12","99999","V020","130,1,N,0036,1","22000,1,9,N","015000,1,N,1","+0157,1","-0108,1","99999,9",,,,,,,"05,99,1,02,1,00,1,01750,1,04,1,08,1",,,,,"99999,9,09073,1","8,1,003,1,+999,9","3,1554,9",,"SYN066AAXX  16154 08213 42765 51307 10157 21108 39073 48554 58003 82048;",
"08213099999","2010-03-16T18:00:00","4","40.95","-4.1333333","1005.0","SEGOVIA, SP","FM-12","99999","V020","140,1,N,0062,1","09000,1,9,N","015000,1,N,1","+0126,1","-0111,1","99999,9","12,0000,9,1",,,,,,"07,99,1,03,1,00,1,01750,1,04,1,08,1",,,,"999,M,+0168,1","99999,9,09076,1","3,1,003,1,+999,9","3,1551,9",,"SYN082AAXX  16184 08213 12765 71412 10126 21111 39076 48551 53003 60002 83048 333 10168;","Q01  00002PRCP12"
"08213099999","2010-03-17T06:00:00","4","40.95","-4.1333333","1005.0","SEGOVIA, SP","FM-12","99999","V020","090,1,N,0021,1","22000,1,9,N","020000,1,N,1","+0032,1","-0104,1","99999,9","12,0000,9,1","24,0000,9,1",,,,"00,1,+99999,9,99,9","00,99,1,00,1,00,1,99999,9,00,1,00,1","0594,9","01,9","999,-0040,9","999,N,+0031,1","99999,9,09097,1","4,1,000,1,+999,9","3,1551,9",,"SYN094AAXX  17064 08213 12970 00904 10032 21104 39097 48551 54000 60002 333 20031 30104 55099 70000;","Q01  00002PRCP24Q02  00002PRCP12"
"08213099999","2010-03-17T09:00:00","4","40.95","-4.1333333","1005.0","SEGOVIA, SP","FM-12","99999","V020","240,1,N,0031,1","22000,1,9,N","020000,1,N,1","+0096,1","-0094,1","99999,9",,,,,,,"01,99,1,00,1,00,1,99999,9,00,1,01,1",,,,,"99999,9,09097,1","4,1,000,1,+999,9","3,1564,9",,"SYN066AAXX  17094 08213 42970 12406 10096 21094 39097 48564 54000 80001;",
"08213099999","2010-03-17T12:00:00","4","40.95","-4.1333333","1005.0","SEGOVIA, SP","FM-12","99999","V020","190,1,N,0051,1","22000,1,9,N","020000,1,N,1","+0154,1","-0103,1","99999,9","06,0000,9,1",,,,,,"02,99,1,00,1,00,1,99999,9,00,1,01,1",,,,,"99999,9,09100,1","1,1,003,1,+999,9","3,1578,9",,"SYN082AAXX  17124 08213 12970 21910 10154 21103 39100 48578 51003 60001 80001 333 5///0;","Q01  00002PRCP06"
"08213099999","2010-03-17T15:00:00","4","40.95","-4.1333333","1005.0","SEGOVIA, SP","FM-12","99999","V020","150,1,N,0067,1","22000,1,9,N","020000,1,N,1","+0163,1","-0121,1","99999,9",,,,,,,"02,99,1,00,1,00,1,99999,9,00,1,01,1",,,,,"99999,9,09090,1","7,1,010,1,+999,9","3,1571,9",,"SYN066AAXX  17154 08213 42970 21513 10163 21121 39090 48571 57010 80001;",
"08213099999","2010-03-17T18:00:00","4","40.95","-4.1333333","1005.0","SEGOVIA, SP","FM-12","99999","V020","140,1,N,0072,1","22000,1,9,N","020000,1,N,1","+0135,1","-0110,1","99999,9","12,0000,9,1",,,,,,"03,99,1,00,1,00,1,99999,9,00,1,02,1",,,,"999,M,+0177,1","99999,9,09087,1","6,1,003,1,+999,9","3,1562,9",,"SYN082AAXX  17184 08213 12970 31414 10135 21110 39087 48562 56003 60002 80002 333 10177;","Q01  00002PRCP12"
"08213099999","2010-03-18T06:00:00","4","40.95","-4.1333333","1005.0","SEGOVIA, SP","FM-12","99999","V020","200,1,N,0082,1","00750,1,9,N","018000,1,N,1","+0140,1","-0074,1","99999,9","12,0000,9,1","24,0000,9,1",,,,,"08,99,1,08,1,05,1,00800,1,99,9,99,9","0648,9","01,9","999,+0060,9","999,N,+0104,1","99999,9,09070,1","4,1,000,1,+999,9","3,1548,9",,"SYN100AAXX  18064 08213 12568 82016 10140 21074 39070 48548 54000 60002 885// 333 20104 30006 55108 70000;","Q01  00002PRCP24Q02  00002PRCP12"
"08213099999","2010-03-18T09:00:00","4","40.95","-4.1333333","1005.0","SEGOVIA, SP","FM-12","99999","V020","220,1,N,0057,1","00750,1,9,N","002000,1,N,1","+0127,1","-0053,1","99999,9",,,,"6,1,03,1","2,1,03,1",,"08,99,1,08,1,05,1,00800,1,99,9,99,9",,,,,"99999,9,09093,1","2,1,023,1,+999,9","3,1567,9","60,1","SYN072AAXX  18094 08213 41520 82211 10127 21053 39093 48567 52023 76062 885//;",
"08213099999","2010-03-18T12:00:00","4","40.95","-4.1333333","1005.0","SEGOVIA, SP","FM-12","99999","V020","210,1,N,0082,1","00750,1,9,N","008000,1,N,1","+0150,1","+0029,1","99999,9","06,0000,2,1",,,"6,1,06,1","2,1,06,1",,"08,99,1,08,1,05,1,00800,1,99,9,99,9",,,,,"99999,9,09086,1","7,1,007,1,+999,9","3,1566,9","05,1","SYN088AAXX  18124 08213 11558 82116 10150 20029 39086 48566 57007 69921 70562 885// 333 51880;",
"08213099999","2010-03-18T15:00:00","4","40.95","-4.1333333","1005.0","SEGOVIA, SP","FM-12","99999","V020","220,1,N,0062,1","22000,1,9,N","008000,1,N,1","+0170,1","+0030,1","99999,9",,,,"1,1,03,1","1,1,03,1",,"03,99,1,02,1,00,1,01750,1,04,1,02,1",,,,,"99999,9,09077,1","7,1,009,1,+999,9","3,1561,9","05,1","SYN072AAXX  18154 08213 41758 32212 10170 20030 39077 48561 57009 70511 82042;",
"08213099999","2010-03-18T18:00:00","4","40.95","-4.1333333","1005.0","SEGOVIA, SP","FM-12","99999","V020","200,1,N,0021,1","22000,1,9,N","012000,1,N,1","+0154,1","+0045,1","99999,9","12,0000,2,1",,,,,,"03,99,1,02,1,00,1,01750,1,03,1,01,1",,,,"999,M,+0182,1","99999,9,09075,1","5,1,002,1,+999,9","3,1556,9",,"SYN082AAXX  18184 08213 12762 32004 10154 20045 39075 48556 55002 60002 82031 333 10182;",
"08213099999","2010-03-19T06:00:00","4","40.95","-4.1333333","1005.0","SEGOVIA, SP","FM-12","99999","V020","160,1,N,0010,1","22000,1,9,N","018000,1,N,1","+0130,1","+0070,1","99999,9","12,0000,9,1","24,0000,2,1",,,,,"03,99,1,01,1,04,1,00800,1,04,1,00,1","0252,9","01,9","999,+0040,9","999,N,+0104,1","99999,9,09055,1","7,1,010,1,+999,9","3,1534,9",,"SYN100AAXX  19064 08213 12568 31602 10130 20070 39055 48534 57010 60002 81440 333 20104 30004 55042 70000;","Q01  00002PRCP12"
"08213099999","2010-03-19T09:00:00","4","40.95","-4.1333333","1005.0","SEGOVIA, SP","FM-12","99999","V020","170,1,N,0062,1","00750,1,9,N","014000,1,N,1","+0134,1","+0072,1","99999,9",,,,"6,1,03,1","2,1,03,1",,"08,99,1,05,1,05,1,00800,1,02,1,99,9",,,,,"99999,9,09064,1","3,1,009,1,+999,9","3,1543,9","60,1","SYN072AAXX  19094 08213 41564 81712 10134 20072 39064 48543 53009 76062 8552/;",
"08213099999","2010-03-19T12:00:00","4","40.95","-4.1333333","1005.0","SEGOVIA, SP","FM-12","99999","V020","240,1,N,0072,1","00750,1,9,N","012000,1,N,1","+0128,1","+0087,1","99999,9","06,0010,9,1",,,"6,1,06,1","2,1,06,1",,"08,99,1,05,1,05,1,00800,1,02,1,99,9",,,,,"99999,9,09085,1","2,1,021,1,+999,9","3,1561,9","61,1","SYN088AAXX  19124 08213 11562 82414 10128 20087 39085 48561 52021 60011 76162 8552/ 333 50120;",
"08213099999","2010-03-19T15:00:00","4","40.95","-4.1333333","1005.0","SEGOVIA, SP","FM-12","99999","V020","180,1,N,0067,1","01200,1,9,N","018000,1,N,1","+0142,1","+0077,1","99999,9",,,,"6,1,03,1","2,1,03,1",,"07,99,1,07,1,08,1,00800,1,00,1,00,1",,,,,"99999,9,09071,1","8,1,014,1,+999,9","3,1551,9","02,1","SYN072AAXX  19154 08213 41568 71813 10142 20077 39071 48551 58014 70262 87800;",
"08213099999","2010-03-19T18:00:00","4","40.95","-4.1333333","1005.0","SEGOVIA, SP","FM-12","99999","V020","180,1,N,0051,1","01200,1,9,N","018000,1,N,1","+0146,1","+0054,1","99999,9","12,0010,9,1",,,"6,1,06,1","2,1,06,1",,"07,99,1,07,1,08,1,00800,1,00,1,00,1",,,,"999,M,+0166,1","99999,9,09060,1","5,1,011,1,+999,9","3,1541,9","02,1","SYN088AAXX  19184 08213 11568 71810 10146 20054 39060 48541 55011 60012 70262 87800 333 10166;",
"08213099999","2010-03-20T06:00:00","4","40.95","-4.1333333","1005.0","SEGOVIA, SP","FM-12","99999","V020","190,1,N,0093,1","01200,1,9,N","014000,1,N,1","+0138,1","+0039,1","99999,9","12,0000,9,1","24,0010,9,1",,,,,"07,99,1,07,1,08,1,00800,1,00,1,00,1","0120,9","01,9","999,+0110,9","999,N,+0136,1","99999,9,09045,1","5,1,002,1,+999,9","3,1526,9",,"SYN100AAXX  20064 08213 12564 71918 10138 20039 39045 48526 55002 60002 87800 333 20136 30011 55020 70011;","Q01  00002PRCP12"
"08213099999","2010-03-20T09:00:00","4","40.95","-4.1333333","1005.0","SEGOVIA, SP","FM-12","99999","V020","200,1,N,0072,1","00750,1,9,N","014000,1,N,1","+0154,1","+0032,1","99999,9",,,,,,,"08,99,1,05,1,05,1,00800,1,02,1,99,9",,,,,"99999,9,09056,1","3,1,011,1,+999,9","3,1539,9",,"SYN066AAXX  20094 08213 42564 82014 10154 20032 39056 48539 53011 8552/;",
"08213099999","2010-03-20T12:00:00","4","40.95","-4.1333333","1005.0","SEGOVIA, SP","FM-12","99999","V020","220,1,N,0129,1","00750,1,9,N","014000,1,N,1","+0148,1","+0051,1","99999,9","06,0000,9,1",,,,,,"08,99,1,05,1,05,1,00800,1,02,1,99,9",,,,,"99999,9,09061,1","0,1,005,1,+999,9","3,1542,9",,"SYN082AAXX  20124 08213 12564 82225 10148 20051 39061 48542 50005 60001 8552/ 333 50250;","Q01  00002PRCP06"
"08213099999","2010-03-20T15:00:00","4","40.95","-4.1333333","1005.0","SEGOVIA, SP","FM-12","99999","V020","190,1,N,0072,1","00750,1,9,N","008000,1,N,1","+0150,1","+0044,1","99999,9",,,,"2,1,03,1","2,1,03,1",,"08,99,1,05,1,05,1,00800,1,02,1,99,9",,,,,"99999,9,09057,1","8,1,004,1,+999,9","3,1539,9","05,1","SYN072AAXX  20154 08213 41558 81914 10150 20044 39057 48539 58004 70522 8552/;",
"08213099999","2010-03-20T18:00:00","4","40.95","-4.1333333","1005.0","SEGOVIA, SP","FM-12","99999","V020","180,1,N,0072,1","00750,1,9,N","008000,1,N,1","+0138,1","+0039,1","99999,9","12,0000,9,1",,,"2,1,06,1","2,1,06,1",,"08,99,1,05,1,05,1,00800,1,02,1,99,9",,,,"999,M,+0160,1","99999,9,09053,1","6,1,004,1,+999,9","3,1533,9","05,1","SYN088AAXX  20184 08213 11558 81814 10138 20039 39053 48533 56004 60002 70522 8552/ 333 10160;","Q01  00002PRCP12"
"08213099999","2010-03-21T06:00:00","4","40.95","-4.1333333","1005.0","SEGOVIA, SP","FM-12","99999","V020","160,1,N,0026,1","00750,1,9,N","012000,1,N,1","+0096,1","+0072,1","99999,9","12,0000,9,1","24,0000,9,1",,,,,"08,99,1,05,1,05,1,00800,1,02,1,99,9","0000,9","01,9","999,+0070,9","999,N,+0096,1","99999,9,09063,1","3,1,002,1,+999,9","3,1535,9",,"SYN100AAXX  21064 08213 12562 81605 10096 20072 39063 48535 53002 60002 8552/ 333 20096 30007 55000 70000;","Q01  00002PRCP24Q02  00002PRCP12"
"08213099999","2010-03-21T09:00:00","4","40.95","-4.1333333","1005.0","SEGOVIA, SP","FM-12","99999","V020","200,1,N,0026,1","00750,1,9,N","014000,1,N,1","+0116,1","+0039,1","99999,9",,,,,,,"08,99,1,05,1,05,1,00800,1,02,1,99,9",,,,,"99999,9,09064,1","0,1,001,1,+999,9","3,1539,9",,"SYN066AAXX  21094 08213 42564 82005 10116 20039 39064 48539 50001 8552/;",
"08213099999","2010-03-21T12:00:00","4","40.95","-4.1333333","1005.0","SEGOVIA, SP","FM-12","99999","V020","220,1,N,0031,1","00750,1,9,N","014000,1,N,1","+0146,1","+0043,1","99999,9","06,0000,9,1",,,,,,"07,99,1,07,1,05,1,00800,1,02,1,00,1",,,,,"99999,9,09060,1","7,1,004,1,+999,9","3,1541,9",,"SYN082AAXX  21124 08213 12564 72206 10146 20043 39060 48541 57004 60001 87520 333 50260;","Q01  00002PRCP06"
"08213099999","2010-03-21T15:00:00","4","40.95","-4.1333333","1005.0","SEGOVIA, SP","FM-12","99999","V020","270,1,N,0087,1","00750,1,9,N","008000,1,N,1","+0146,1","+0034,1","99999,9",,,,"2,1,03,1","2,1,03,1",,"08,99,1,05,1,05,1,00800,1,02,1,99,9",,,,,"99999,9,09048,1","7,1,012,1,+999,9","3,1530,9","05,1","SYN072AAXX  21154 08213 41558 82717 10146 20034 39048 48530 57012 70522 8552/;",
"08213099999","2010-03-21T18:00:00","4","40.95","-4.1333333","1005.0","SEGOVIA, SP","FM-12","99999","V020","240,1,N,0041,1","00750,1,9,N","016000,1,N,1","+0126,1","+0043,1","99999,9","12,0000,9,1",,,,,,"08,99,1,05,1,05,1,00800,1,02,1,99,9",,,,"999,M,+0156,1","99999,9,09048,1","4,1,000,1,+999,9","3,1526,9",,"SYN082AAXX  21184 08213 12566 82408 10126 20043 39048 48526 54000 60002 8552/ 333 10156;","Q01  00002PRCP12"
"08213099999","2010-03-22T06:00:00","4","40.95","-4.1333333","1005.0","SEGOVIA, SP","FM-12","99999","V020","220,1,N,0015,1","22000,1,9,N","015000,1,N,1","+0076,1","+0054,1","99999,9","12,0000,9,1","24,0000,9,1",,"6,1,06,1","1,1,06,1","01,1,+00600,1,09,1","03,99,1,02,1,03,1,00800,1,03,1,00,1","0066,9","09,9","999,+0020,9","999,N,+0073,1","99999,9,09059,1","4,1,000,1,+999,9","3,1527,9","02,1","SYN112AAXX  22064 08213 11565 32203 10076 20054 39059 48527 54000 69912 70261 82330 333 20073 31002 55011 70001 81920;","Q01  00002PRCP24Q02  00002PRCP12"
"08213099999","2010-03-22T09:00:00","4","40.95","-4.1333333","1005.0","SEGOVIA, SP","FM-12","99999","V020","240,1,N,0026,1","22000,1,9,N","015000,1,N,1","+0108,1","+0067,1","99999,9",,,,,,,"04,99,1,02,1,05,1,00800,1,03,1,01,1",,,,,"99999,9,09070,1","2,1,011,1,+999,9","3,1543,9",,"SYN066AAXX  22094 08213 42565 42405 10108 20067 39070 48543 52011 82531;",
"08213099999","2010-03-22T12:00:00","4","40.95","-4.1333333","1005.0","SEGOVIA, SP","FM-12","99999","V020","290,1,N,0026,1","03600,1,9,N","018000,1,N,1","+0118,1","+0071,1","99999,9","06,0000,9,1",,,,,"02,1,+00600,1,09,1","06,99,1,04,1,03,1,00800,1,03,1,00,1",,,,,"99999,9,09077,1","2,1,007,1,+999,9","3,1552,9",,"SYN088AAXX  22124 08213 12568 62905 10118 20071 39077 48552 52007 60001 84330 333 50140 82920;","Q01  00002PRCP06"
"08213099999","2010-03-22T15:00:00","4","40.95","-4.1333333","1005.0","SEGOVIA, SP","FM-12","99999","V020","050,1,N,0015,1","22000,1,9,N","020000,1,N,1","+0152,1","+0051,1","99999,9",,,,,,,"02,99,1,02,1,05,1,00800,1,00,1,00,1",,,,,"99999,9,09067,1","7,1,010,1,+999,9","3,1549,9",,"SYN066AAXX  22154 08213 42570 20503 10152 20051 39067 48549 57010 82500;",
"08213099999","2010-03-22T18:00:00","4","40.95","-4.1333333","1005.0","SEGOVIA, SP","FM-12","99999","V020","340,1,N,0021,1","22000,1,9,N","020000,1,N,1","+0146,1","+0062,1","99999,9","12,0000,9,1",,,,,,"02,99,1,01,1,05,1,00800,1,00,1,01,1",,,,"999,M,+0164,1","99999,9,09065,1","6,1,002,1,+999,9","3,1546,9",,"SYN082AAXX  22184 08213 12570 23404 10146 20062 39065 48546 56002 60002 81501 333 10164;","Q01  00002PRCP12"
"08213099999","2010-03-23T06:00:00","4","40.95","-4.1333333","1005.0","SEGOVIA, SP","FM-12","99999","V020","100,1,N,0010,1","22000,1,9,N","015000,1,N,1","+0071,1","+0033,1","99999,9","12,0000,9,1","24,0000,9,1",,,,,"02,99,1,01,1,05,1,00800,1,00,1,01,1","0450,9","09,9","999,+0000,9","999,N,+0059,1","99999,9,09037,1","4,1,000,1,+999,9","3,1506,9",,"SYN100AAXX  23064 08213 12565 21002 10071 20033 39037 48506 54000 60002 81501 333 20059 31000 55075 70000;","Q01  00002PRCP24Q02  00002PRCP12"
"08213099999","2010-03-23T09:00:00","4","40.95","-4.1333333","1005.0","SEGOVIA, SP","FM-12","99999","V020","280,1,N,0015,1","09000,1,9,N","012000,1,N,1","+0126,1","+0055,1","99999,9",,,,,,,"07,99,1,01,1,05,1,00800,1,00,1,06,1",,,,,"99999,9,09033,1","7,1,004,1,+999,9","3,1513,9",,"SYN066AAXX  23094 08213 42562 72803 10126 20055 39033 48513 57004 81506;",
"08213099999","2010-03-23T12:00:00","4","40.95","-4.1333333","1005.0","SEGOVIA, SP","FM-12","99999","V020","210,1,N,0062,1","09000,1,9,N","018000,1,N,1","+0158,1","+0012,1","99999,9","06,0000,9,1",,,,,,"07,99,1,01,1,05,1,00800,1,00,1,06,1",,,,,"99999,9,09017,1","6,1,016,1,+999,9","3,1503,9",,"SYN082AAXX  23124 08213 12568 72112 10158 20012 39017 48503 56016 60001 81506 333 50210;","Q01  00002PRCP06"
"08213099999","2010-03-23T15:00:00","4","40.95","-4.1333333","1005.0","SEGOVIA, SP","FM-12","99999","V020","170,1,N,0021,1","09000,1,9,N","018000,1,N,1","+0151,1","+0030,1","99999,9",,,,,,,"08,99,1,03,1,05,1,00800,1,00,1,06,1",,,,,"99999,9,08993,1","7,1,024,1,+999,9","3,1480,9",,"SYN066AAXX  23154 08213 42568 81704 10151 20030 38993 48480 57024 83506;",
"08213099999","2010-03-23T18:00:00","4","40.95","-4.1333333","1005.0","SEGOVIA, SP","FM-12","99999","V020","200,1,N,0041,1","03600,1,9,N","020000,1,N,1","+0140,1","+0020,1","99999,9","12,0000,9,1",,,,,,"06,99,1,02,1,05,1,00800,1,05,1,02,1",,,,"999,M,+0170,1","99999,9,08988,1","7,1,005,1,+999,9","3,1473,9",,"SYN082AAXX  23184 08213 12570 62008 10140 20020 38988 48473 57005 60002 82552 333 10170;","Q01  00002PRCP12"
"08213099999","2010-03-24T06:00:00","4","40.95","-4.1333333","1005.0","SEGOVIA, SP","FM-12","99999","V020","210,1,N,0026,1","00750,1,9,N","016000,1,N,1","+0116,1","+0034,1","99999,9","12,0000,9,1","24,0000,9,1",,,,,"07,99,1,07,1,05,1,00800,1,02,1,00,1","0282,9","01,9","999,+0070,9","999,N,+0105,1","99999,9,09082,1","7,1,003,1,+999,9","3,1555,9",,"SYN100AAXX  24064 08213 12566 72105 10116 20034 39082 48555 57003 60002 87520 333 20105 30007 55047 70000;","Q01  00002PRCP24Q02  00002PRCP12"
"08213099999","2010-03-24T09:00:00","4","40.95","-4.1333333","1005.0","SEGOVIA, SP","FM-12","99999","V020","200,1,N,0031,1","00750,1,9,N","016000,1,N,1","+0128,1","+0029,1","99999,9",,,,,,,"08,99,1,05,1,05,1,00800,1,02,1,99,9",,,,,,"6,1,005,1,+999,9","3,1430,9",,"SYN066AAXX  24094 08213 42566 82006 10128 20029 38944 48430 56005 8552/;","Q01+089443APOSP "
"08213099999","2010-03-24T12:00:00","4","40.95","-4.1333333","1005.0","SEGOVIA, SP","FM-12","99999","V020","200,1,N,0077,1","00750,1,9,N","016000,1,N,1","+0140,1","+0026,1","99999,9","06,0000,9,1",,,,,,"08,99,1,05,1,05,1,00800,1,02,1,99,9",,,,,"99999,9,08949,1","0,1,005,1,+999,9","3,1437,9",,"SYN082AAXX  24124 08213 12566 82015 10140 20026 38949 48437 50005 60001 8552/ 333 50320;","Q01  00002PRCP06"
"08213099999","2010-03-24T15:00:00","4","40.95","-4.1333333","1005.0","SEGOVIA, SP","FM-12","99999","V020","220,1,N,0072,1","01200,1,9,N","016000,1,N,1","+0152,1","+0021,1","99999,9",,,,,,,"07,99,1,07,1,08,1,00800,1,00,1,00,1",,,,,"99999,9,08936,1","7,1,013,1,+999,9","3,1426,9",,"SYN066AAXX  24154 08213 42566 72214 10152 20021 38936 48426 57013 87800;",
"08213099999","2010-03-24T18:00:00","4","40.95","-4.1333333","1005.0","SEGOVIA, SP","FM-12","99999","V020","210,1,N,0051,1","01200,1,9,N","018000,1,N,1","+0104,1","+0054,1","99999,9","12,9999,9,9",,,"6,1,06,1","2,1,06,1",,"07,99,1,07,1,08,1,00800,1,00,1,00,1",,,,"999,M,+0158,1","99999,9,08928,1","6,1,008,1,+999,9","3,1412,9","60,1","SYN088AAXX  24184 08213 11568 72110 10104 20054 38928 48412 56008 69922 76062 87800 333 10158;","Q01  00002PRCP12Q02  00002PRCP12"
"08213099999","2010-03-25T06:00:00","4","40.95","-4.1333333","1005.0","SEGOVIA, SP","FM-12","99999","V020","240,1,N,0031,1","03600,1,9,N","018000,1,N,1","+0066,1","-0028,1","99999,9","12,0030,9,1","24,0033,9,1",,,,,"05,99,1,01,1,04,1,00800,1,05,1,00,1","0018,9","09,9","999,+0040,9","999,N,+0066,1","99999,9,08921,1","5,1,000,1,+999,9","3,1400,9",,"SYN100AAXX  25064 08213 12568 52406 10066 21028 38921 48400 55000 60032 81450 333 20066 31004 55003 70032;",
"08213099999","2010-03-25T09:00:00","4","40.95","-4.1333333","1005.0","SEGOVIA, SP","FM-12","99999","V020","200,1,N,0082,1","01200,1,9,N","018000,1,N,1","+0078,1","+0010,1","99999,9",,,,,,,"07,99,1,07,1,08,1,00800,1,00,1,00,1",,,,,"99999,9,08920,1","8,1,001,1,+999,9","3,1401,9",,"SYN066AAXX  25094 08213 42568 72016 10078 20010 38920 48401 58001 87800;",
"08213099999","2010-03-25T12:00:00","4","40.95","-4.1333333","1005.0","SEGOVIA, SP","FM-12","99999","V020","220,1,N,0082,1","00750,1,9,N","016000,1,N,1","+0094,1","+0023,1","99999,9","06,0000,9,1",,,,,,"08,99,1,05,1,05,1,00800,1,02,1,99,9",,,,,"99999,9,08940,1","3,1,020,1,+999,9","3,1422,9",,"SYN082AAXX  25124 08213 12566 82216 10094 20023 38940 48422 53020 60001 8552/ 333 50320;","Q01  00002PRCP06"
"08213099999","2010-03-25T15:00:00","4","40.95","-4.1333333","1005.0","SEGOVIA, SP","FM-12","99999","V020","260,1,N,0026,1","00750,1,9,N","004000,1,N,1","+0058,1","+0044,1","99999,9",,,,"6,1,03,1","2,1,03,1",,"08,99,1,05,1,05,1,00800,1,02,1,99,9",,,,,"99999,9,08938,1","8,1,002,1,+999,9","3,1415,9","63,1","SYN072AAXX  25154 08213 41540 82605 10058 20044 38938 48415 58002 76362 8552/;",
"08213099999","2010-03-25T18:00:00","4","40.95","-4.1333333","1005.0","SEGOVIA, SP","FM-12","99999","V020","280,1,N,0031,1","00750,1,9,N","016000,1,N,1","+0068,1","+0041,1","99999,9","12,0071,9,1",,,"6,1,06,1","2,1,06,1",,"08,99,1,05,1,05,1,00800,1,02,1,99,9",,,,"999,M,+0100,1","99999,9,08941,1","3,1,003,1,+999,9","3,1419,9","02,1","SYN088AAXX  25184 08213 11566 82806 10068 20041 38941 48419 53003 60072 70262 8552/ 333 10100;",
"08213099999","2010-03-26T06:00:00","4","40.95","-4.1333333","1005.0","SEGOVIA, SP","FM-12","99999","V020","120,1,N,0026,1","22000,1,9,N","020000,1,N,1","+0008,1","-0028,1","99999,9","12,0000,9,1","24,0000,2,1",,,,"00,1,+99999,9,99,9","00,99,1,00,1,00,1,99999,9,00,1,00,1","0000,9","14,9","999,-0040,9","999,N,+0006,1","99999,9,09017,1","2,1,015,1,+999,9","3,1477,9",,"SYN094AAXX  26064 08213 12970 01205 10008 21028 39017 48477 52015 60002 333 20006 34104 55000 70000;","Q01  00002PRCP12"
"08213099999","2010-03-26T09:00:00","4","40.95","-4.1333333","1005.0","SEGOVIA, SP","FM-12","99999","V020","230,1,N,0057,1","22000,1,9,N","020000,1,N,1","+0058,1","-0005,1","99999,9",,,,,,"00,1,+99999,9,99,9","00,99,1,00,1,00,1,99999,9,00,1,00,1",,,,,"99999,9,09035,1","1,1,018,1,+999,9","3,1502,9",,"SYN060AAXX  26094 08213 42970 02311 10058 21005 39035 48502 51018;",
"08213099999","2010-03-26T12:00:00","4","40.95","-4.1333333","1005.0","SEGOVIA, SP","FM-12","99999","V020","220,1,N,0067,1","01200,1,9,N","020000,1,N,1","+0090,1","-0026,1","99999,9","06,0000,9,1",,,,,,"05,99,1,05,1,08,1,00800,1,00,1,00,1",,,,,"99999,9,09035,1","4,1,000,1,+999,9","3,1507,9",,"SYN082AAXX  26124 08213 12570 52213 10090 21026 39035 48507 54000 60001 85800 333 5////;","Q01  00002PRCP06"
"08213099999","2010-03-26T15:00:00","4","40.95","-4.1333333","1005.0","SEGOVIA, SP","FM-12","99999","V020","230,1,N,0093,1","01200,1,9,N","020000,1,N,1","+0098,1","-0001,1","99999,9",,,,,,,"06,99,1,06,1,08,1,00800,1,00,1,00,1",,,,,"99999,9,09028,1","8,1,007,1,+999,9","3,1503,9",,"SYN066AAXX  26154 08213 42570 62318 10098 21001 39028 48503 58007 86800;",
"08213099999","2010-03-26T18:00:00","4","40.95","-4.1333333","1005.0","SEGOVIA, SP","FM-12","99999","V020","260,1,N,0072,1","01200,1,9,N","020000,1,N,1","+0086,1","+0017,1","99999,9","12,0000,9,1",,,,,,"06,99,1,06,1,08,1,00800,1,00,1,00,1",,,,"999,M,+0114,1","99999,9,09036,1","3,1,008,1,+999,9","3,1508,9",,"SYN082AAXX  26184 08213 12570 62614 10086 20017 39036 48508 53008 60002 86800 333 10114;","Q01  00002PRCP12"
"08213099999","2010-03-27T06:00:00","4","40.95","-4.1333333","1005.0","SEGOVIA, SP","FM-12","99999","V020","230,1,N,0026,1","00750,1,9,N","012000,1,N,1","+0034,1","+0011,1","99999,9","12,0020,9,2","24,0015,9,2",,,,,"06,99,1,06,1,07,1,00800,1,00,1,00,1","0492,9","09,9","999,-0010,9","999,N,+0022,1","99999,9,09083,1","2,1,016,1,+999,9","3,1540,9",,"SYN100AAXX  27064 08213 12562 62305 10034 20011 39083 48540 52016 60022 86700 333 20022 31101 55082 70015;",
"08213099999","2010-03-27T09:00:00","4","40.95","-4.1333333","1005.0","SEGOVIA, SP","FM-12","99999","V020","250,1,N,0057,1","00750,1,9,N","010000,1,N,1","+0054,1","+0026,1","99999,9",,,,,,,"07,99,1,07,1,07,1,00800,1,00,1,00,1",,,,,"99999,9,09101,1","2,1,018,1,+999,9","3,1560,9",,"SYN066AAXX  27094 08213 42560 72511 10054 20026 39101 48560 52018 87700;",
"08213099999","2010-03-27T12:00:00","4","40.95","-4.1333333","1005.0","SEGOVIA, SP","FM-12","99999","V020","280,1,N,0041,1","22000,1,9,N","012000,1,N,1","+0086,1","+0011,1","99999,9","06,0000,9,1",,,,,,"05,99,1,04,1,01,1,00800,1,00,1,01,1",,,,,"99999,9,09102,1","1,1,001,1,+999,9","3,1567,9",,"SYN082AAXX  27124 08213 12562 52808 10086 20011 39102 48567 51001 60001 84101 333 50450;","Q01  00002PRCP06"
"08213099999","2010-03-27T15:00:00","4","40.95","-4.1333333","1005.0","SEGOVIA, SP","FM-12","99999","V020","300,1,N,0026,1","03600,1,9,N","012000,1,N,1","+0116,1","+0021,1","99999,9",,,,,,,"06,99,1,01,1,04,1,00800,1,04,1,01,1",,,,,"99999,9,09093,1","6,1,009,1,+999,9","3,1565,9",,"SYN066AAXX  27154 08213 42562 63005 10116 20021 39093 48565 56009 81441;",
"08213099999","2010-03-27T18:00:00","4","40.95","-4.1333333","1005.0","SEGOVIA, SP","FM-12","99999","V020","290,1,N,0021,1","03600,1,9,N","012000,1,N,1","+0099,1","+0023,1","99999,9","12,0000,9,1",,,,,,"07,99,1,01,1,04,1,00800,1,07,1,08,1",,,,"999,M,+0122,1","99999,9,09094,1","1,1,001,1,+999,9","3,1563,9",,"SYN082AAXX  27184 08213 12562 72904 10099 20023 39094 48563 51001 60002 81478 333 10122;","Q01  00002PRCP12"
"08213099999","2010-03-28T06:00:00","4","40.95","-4.1333333","1005.0","SEGOVIA, SP","FM-12","99999","V020","080,1,N,0021,1","22000,1,9,N","015000,1,N,1","+0044,1","-0012,1","99999,9","12,0000,9,1","24,0000,9,1",,,,,"03,99,1,01,1,00,1,01750,1,04,1,08,1","0456,9","09,9","999,-0020,9","999,N,+0037,1","99999,9,09062,1","6,1,011,1,+999,9","3,1523,9",,"SYN100AAXX  28064 08213 12765 30804 10044 21012 39062 48523 56011 60002 81048 333 20037 31102 55076 70000;","Q01  00002PRCP24Q02  00002PRCP12"
"08213099999","2010-03-28T09:00:00","4","40.95","-4.1333333","1005.0","SEGOVIA, SP","FM-12","99999","V020","120,1,N,0010,1","09000,1,9,N","015000,1,N,1","+0108,1","+0014,1","99999,9",,,,,,,"06,99,1,02,1,00,1,01750,1,04,1,08,1",,,,,"99999,9,09054,1","8,1,008,1,+999,9","3,1528,9",,"SYN066AAXX  28094 08213 42765 61202 10108 20014 39054 48528 58008 82048;",
"08213099999","2010-03-28T12:00:00","4","40.95","-4.1333333","1005.0","SEGOVIA, SP","FM-12","99999","V020","290,1,N,0031,1","09000,1,9,N","020000,1,N,1","+0162,1","+0043,1","99999,9","06,0000,9,1",,,,,,"05,99,1,01,1,01,1,00800,1,04,1,01,1",,,,,"99999,9,09039,1","8,1,015,1,+999,9","3,1524,9",,"SYN082AAXX  28124 08213 12570 52906 10162 20043 39039 48524 58015 60001 81141 333 50220;","Q01  00002PRCP06"
"08213099999","2010-03-28T15:00:00","4","40.95","-4.1333333","1005.0","SEGOVIA, SP","FM-12","99999","V020","240,1,N,0067,1","22000,1,9,N","025000,1,N,1","+0188,1","+0013,1","99999,9",,,,,,,"02,99,1,01,1,01,1,00800,1,00,1,09,1",,,,,"99999,9,09008,1","7,1,031,1,+999,9","3,1500,9",,"SYN066AAXX  28154 08213 42575 22413 10188 20013 39008 48500 57031 81109;",
"08213099999","2010-03-28T18:00:00","4","40.95","-4.1333333","1005.0","SEGOVIA, SP","FM-12","99999","V020","230,1,N,0041,1","22000,1,9,N","025000,1,N,1","+0165,1","-0016,1","99999,9","12,0000,9,1",,,,,,"02,99,1,01,1,04,1,00800,1,00,1,08,1",,,,"999,M,+0198,1","99999,9,09004,1","6,1,004,1,+999,9","3,1492,9",,"SYN082AAXX  28184 08213 12575 22308 10165 21016 39004 48492 56004 60002 81408 333 10198;","Q01  00002PRCP12"
"08213099999","2010-03-29T06:00:00","4","40.95","-4.1333333","1005.0","SEGOVIA, SP","FM-12","99999","V020","110,1,N,0015,1","22000,1,9,N","015000,1,N,1","+0064,1","+0017,1","99999,9","12,0000,9,1","24,0000,9,1",,,,,"03,99,1,02,1,05,1,00800,1,03,1,00,1","0498,9","01,9","999,-0010,9","999,N,+0058,1","99999,9,08961,1","7,1,005,1,+999,9","3,1436,9",,"SYN100AAXX  29064 08213 12565 31103 10064 20017 38961 48436 57005 60002 82530 333 20058 30101 55083 70000;","Q01  00002PRCP24Q02  00002PRCP12"
"08213099999","2010-03-29T09:00:00","4","40.95","-4.1333333","1005.0","SEGOVIA, SP","FM-12","99999","V020","250,1,N,0051,1","22000,1,9,N","018000,1,N,1","+0112,1","+0025,1","99999,9",,,,,,,"03,99,1,01,1,05,1,00800,1,00,1,01,1",,,,,"99999,9,08952,1","7,1,009,1,+999,9","3,1435,9",,"SYN066AAXX  29094 08213 42568 32510 10112 20025 38952 48435 57009 81501;",
"08213099999","2010-03-29T12:00:00","4","40.95","-4.1333333","1005.0","SEGOVIA, SP","FM-12","99999","V020","300,1,N,0041,1","22000,1,9,N","020000,1,N,1","+0114,1","+0053,1","99999,9","06,0000,9,1",,,,,,"04,99,1,02,1,05,1,00800,1,03,1,01,1",,,,,"99999,9,08949,1","7,1,003,1,+999,9","3,1433,9",,"SYN082AAXX  29124 08213 12570 43008 10114 20053 38949 48433 57003 60001 82531 333 50280;","Q01  00002PRCP06"
"08213099999","2010-03-29T15:00:00","4","40.95","-4.1333333","1005.0","SEGOVIA, SP","FM-12","99999","V020","210,1,N,0067,1","22000,1,9,N","018000,1,N,1","+0125,1","+0029,1","99999,9",,,,,,,"04,99,1,04,1,05,1,00800,1,00,1,00,1",,,,,"99999,9,08936,1","7,1,013,1,+999,9","3,1423,9",,"SYN066AAXX  29154 08213 42568 42113 10125 20029 38936 48423 57013 84500;",
"08213099999","2010-03-29T18:00:00","4","40.95","-4.1333333","1005.0","SEGOVIA, SP","FM-12","99999","V020","210,1,N,0093,1","03600,1,9,N","020000,1,N,1","+0106,1","+0032,1","99999,9","12,0000,9,1",,,,,,"06,99,1,04,1,05,1,00800,1,03,1,00,1",,,,"999,M,+0135,1","99999,9,08928,1","7,1,008,1,+999,9","3,1412,9",,"SYN082AAXX  29184 08213 12570 62118 10106 20032 38928 48412 57008 60002 84530 333 10135;","Q01  00002PRCP12"
"08213099999","2010-03-30T06:00:00","4","40.95","-4.1333333","1005.0","SEGOVIA, SP","FM-12","99999","V020","250,1,N,0098,1","00750,1,9,N","018000,1,N,1","+0042,1","-0004,1","99999,9","12,0041,9,2","24,0036,9,2",,,,,"08,99,1,08,1,07,1,00800,1,99,9,99,9","0330,9","09,9","999,+0010,9","999,N,+0029,1","99999,9,08965,1","2,1,010,1,+999,9","3,1436,9",,"SYN100AAXX  30064 08213 12568 82519 10042 21004 38965 48436 52010 60042 887// 333 20029 31001 55055 70035;",
"08213099999","2010-03-30T09:00:00","4","40.95","-4.1333333","1005.0","SEGOVIA, SP","FM-12","99999","V020","250,1,N,0082,1","00750,1,9,N","008000,1,N,1","+0046,1","+0023,1","99999,9",,,,"5,1,03,1","2,1,03,1",,"08,99,1,08,1,07,1,00800,1,99,9,99,9",,,,,"99999,9,08987,1","2,1,022,1,+999,9","3,1457,9","10,1","SYN072AAXX  30094 08213 41558 82516 10046 20023 38987 48457 52022 71052 887//;",
"08213099999","2010-03-30T12:00:00","4","40.95","-4.1333333","1005.0","SEGOVIA, SP","FM-12","99999","V020","260,1,N,0087,1","00750,1,9,N","005000,1,N,1","+0060,1","+0033,1","99999,9","06,9999,9,9",,,"2,1,06,1","2,1,06,1",,"07,99,1,06,1,05,1,00800,1,07,1,99,9",,,,,"99999,9,09004,1","2,1,017,1,+999,9","3,1475,9","80,1","SYN088AAXX  30124 08213 11550 72617 10060 20033 39004 48475 52017 69921 78022 8657/ 333 50300;","Q01  00002PRCP06Q02  00002PRCP06"
"08213099999","2010-03-30T15:00:00","4","40.95","-4.1333333","1005.0","SEGOVIA, SP","FM-12","99999","V020","270,1,N,0077,1","00750,1,C,N","012000,1,N,1","+0076,1","+0021,1","99999,9",,,,"8,1,03,1","2,1,03,1","02,1,+00600,1,09,1","07,99,1,07,1,03,1,00800,1,99,9,99,9",,,,,"99999,9,09006,1","3,1,002,1,+999,9","3,1479,9","60,1","SYN082AAXX  30154 08213 41562 72715 10076 20021 39006 48479 53002 76082 873// 333 82920;",
"08213099999","2010-03-30T18:00:00","4","40.95","-4.1333333","1005.0","SEGOVIA, SP","FM-12","99999","V020","290,1,N,0077,1","00750,1,9,N","020000,1,N,1","+0083,1","+0015,1","99999,9","12,0008,9,1",,,"8,1,06,1","6,1,06,1",,"05,99,1,05,1,05,1,00800,1,00,1,00,1",,,,"999,M,+0094,1","99999,9,09007,1","3,1,001,1,+999,9","3,1481,9","02,1","SYN088AAXX  30184 08213 11570 52915 10083 20015 39007 48481 53001 69972 70286 85500 333 10094;",
"08213099999","2010-03-31T06:00:00","4","40.95","-4.1333333","1005.0","SEGOVIA, SP","FM-12","99999","V020","200,1,N,0026,1","03600,1,9,N","010000,1,N,1","+0026,1","-0005,1","99999,9","12,0000,9,1","24,0008,9,1",,,,,"07,99,1,04,1,04,1,00800,1,03,1,01,1","0288,9","09,9","999,-0020,9","999,N,+0012,1","99999,9,09023,1","0,1,000,1,+999,9","3,1485,9",,"SYN100AAXX  31064 08213 12560 72005 10026 21005 39023 48485 50000 60002 84431 333 20012 31102 55048 70007;","Q01  00002PRCP12"
"08213099999","2010-03-31T09:00:00","4","40.95","-4.1333333","1005.0","SEGOVIA, SP","FM-12","99999","V020","240,1,N,0036,1","00750,1,9,N","012000,1,N,1","+0050,1","+0006,1","99999,9",,,,,,,"07,99,1,05,1,04,1,00800,1,03,1,01,1",,,,,"99999,9,09025,1","1,1,002,1,+999,9","3,1491,9",,"SYN066AAXX  31094 08213 42562 72407 10050 20006 39025 48491 51002 85431;",
"08213099999","2010-03-31T12:00:00","4","40.95","-4.1333333","1005.0","SEGOVIA, SP","FM-12","99999","V020","260,1,N,0051,1","22000,1,9,N","015000,1,N,1","+0084,1","-0009,1","99999,9","06,0000,9,1",,,,,,"03,99,1,03,1,04,1,00800,1,00,1,00,1",,,,,"99999,9,09015,1","8,1,010,1,+999,9","3,1488,9",,"SYN082AAXX  31124 08213 12565 32610 10084 21009 39015 48488 58010 60001 83400 333 50240;","Q01  00002PRCP06"
"08213099999","2010-03-31T15:00:00","4","40.95","-4.1333333","1005.0","SEGOVIA, SP","FM-12","99999","V020","260,1,N,0077,1","00750,1,9,N","015000,1,N,1","+0102,1","+0000,1","99999,9",,,,,,,"05,99,1,05,1,04,1,00800,1,00,1,00,1",,,,,"99999,9,09002,1","6,1,013,1,+999,9","3,1480,9",,"SYN066AAXX  31154 08213 42565 52615 10102 20000 39002 48480 56013 85400;",
"08213099999","2010-03-31T18:00:00","4","40.95","-4.1333333","1005.0","SEGOVIA, SP","FM-12","99999","V020","270,1,N,0082,1","00750,1,9,N","012000,1,N,1","+0090,1","+0002,1","99999,9","12,9999,9,9",,,"2,1,06,1","2,1,06,1",,"07,99,1,07,1,05,1,00800,1,00,1,00,1",,,,"999,M,+0118,1","99999,9,08996,1","8,1,006,1,+999,9","3,1472,9","60,1","SYN088AAXX  31184 08213 11562 72716 10090 20002 38996 48472 58006 69902 76022 87500 333 10118;","Q01  00002PRCP12Q02  00002PRCP12"
"08213099999","2010-04-01T06:00:00","4","40.95","-4.1333333","1005.0","SEGOVIA, SP","FM-12","99999","V020","260,1,N,0026,1","00750,1,9,N","008000,1,N,1","+0016,1","+0006,1","99999,9","12,0020,9,1","24,0023,9,1",,"6,1,06,1","2,1,06,1",,"08,99,1,07,1,05,1,00800,1,07,1,99,9","0420,9","09,9","999,-0010,9","999,N,+0016,1","99999,9,09019,1","3,1,004,1,+999,9","3,1480,9","10,1","SYN106AAXX  01064 08213 11558 82605 10016 20006 39019 48480 53004 60022 71062 8757/ 333 20016 31101 55070 70022;",
"08213099999","2010-04-01T09:00:00","4","40.95","-4.1333333","1005.0","SEGOVIA, SP","FM-12","99999","V020","270,1,N,0026,1","00750,1,9,N","010000,1,N,1","+0032,1","+0004,1","99999,9",,,,,,,"08,99,1,06,1,05,1,00800,1,07,1,00,1",,,,,"99999,9,09033,1","1,1,014,1,+999,9","3,1495,9",,"SYN066AAXX  01094 08213 42560 82705 10032 20004 39033 48495 51014 86570;",
"08213099999","2010-04-01T12:00:00","4","40.95","-4.1333333","1005.0","SEGOVIA, SP","FM-12","99999","V020","350,1,N,0021,1","00750,1,9,N","015000,1,N,1","+0068,1","-0021,1","99999,9","06,0000,9,1",,,,,,"06,99,1,06,1,04,1,00800,1,00,1,00,1",,,,,"99999,9,09039,1","1,1,006,1,+999,9","3,1507,9",,"SYN082AAXX  01124 08213 12565 63504 10068 21021 39039 48507 51006 60001 86400 333 50290;","Q01  00002PRCP06"
"08213099999","2010-04-01T15:00:00","4","40.95","-4.1333333","1005.0","SEGOVIA, SP","FM-12","99999","V020","270,1,N,0046,1","22000,1,9,N","015000,1,N,1","+0086,1","-0029,1","99999,9",,,,,,,"04,99,1,04,1,04,1,00800,1,00,1,00,1",,,,,"99999,9,09036,1","8,1,003,1,+999,9","3,1507,9",,"SYN066AAXX  01154 08213 42565 42709 10086 21029 39036 48507 58003 84400;",
"08213099999","2010-04-01T18:00:00","4","40.95","-4.1333333","1005.0","SEGOVIA, SP","FM-12","99999","V020","300,1,N,0031,1","22000,1,9,N","020000,1,N,1","+0073,1","-0038,1","99999,9","12,0000,9,1",,,,,,"03,99,1,03,1,04,1,00800,1,00,1,00,1",,,,"999,M,+0092,1","99999,9,09037,1","1,1,001,1,+999,9","3,1506,9",,"SYN082AAXX  01184 08213 12570 33006 10073 21038 39037 48506 51001 60002 83400 333 10092;","Q01  00002PRCP12"
"08213099999","2010-04-02T06:00:00","4","40.95","-4.1333333","1005.0","SEGOVIA, SP","FM-12","99999","V020","170,1,N,0031,1","22000,1,9,N","020000,1,N,1","+0010,1","-0024,1","99999,9","12,0000,9,1","24,0000,9,1",,,,,"02,99,1,01,1,05,1,00800,1,00,1,01,1","0426,9","09,9","999,-0030,9","999,N,+0006,1","99999,9,09039,1","7,1,005,1,+999,9","3,1497,9",,"SYN100AAXX  02064 08213 12570 21706 10010 21024 39039 48497 57005 60002 81501 333 20006 31103 55071 70000;","Q01  00002PRCP24Q02  00002PRCP12"
"08213099999","2010-04-02T09:00:00","4","40.95","-4.1333333","1005.0","SEGOVIA, SP","FM-12","99999","V020","270,1,N,0021,1","22000,1,9,N","020000,1,N,1","+0053,1","-0005,1","99999,9",,,,,,,"02,99,1,00,1,00,1,99999,9,00,1,01,1",,,,,"99999,9,09045,1","3,1,006,1,+999,9","3,1510,9",,"SYN066AAXX  02094 08213 42970 22704 10053 21005 39045 48510 53006 80001;",
"08213099999","2010-04-02T12:00:00","4","40.95","-4.1333333","1005.0","SEGOVIA, SP","FM-12","99999","V020","270,1,N,0057,1","22000,1,9,N","020000,1,N,1","+0091,1","-0028,1","99999,9","06,0000,9,1",,,,,,"03,99,1,01,1,01,1,00800,1,00,1,01,1",,,,,"99999,9,09045,1","0,1,000,1,+999,9","3,1516,9",,"SYN082AAXX  02124 08213 12570 32711 10091 21028 39045 48516 50000 60001 81101 333 5///0;","Q01  00002PRCP06"
"08213099999","2010-04-02T15:00:00","4","40.95","-4.1333333","1005.0","SEGOVIA, SP","FM-12","99999","V020","290,1,N,0051,1","22000,1,9,N","020000,1,N,1","+0122,1","-0028,1","99999,9",,,,,,,"02,99,1,01,1,05,1,00800,1,04,1,02,1",,,,,"99999,9,09030,1","7,1,015,1,+999,9","3,1508,9",,"SYN066AAXX  02154 08213 42570 22910 10122 21028 39030 48508 57015 81542;",
"08213099999","2010-04-02T18:00:00","4","40.95","-4.1333333","1005.0","SEGOVIA, SP","FM-12","99999","V020","290,1,N,0036,1","22000,1,9,N","020000,1,N,1","+0108,1","-0006,1","99999,9","12,0000,9,1",,,,,,"03,99,1,01,1,05,1,00800,1,00,1,01,1",,,,"999,M,+0127,1","99999,9,09023,1","7,1,007,1,+999,9","3,1500,9",,"SYN082AAXX  02184 08213 12570 32907 10108 21006 39023 48500 57007 60002 81501 333 10127;","Q01  00002PRCP12"
"08213099999","2010-04-03T06:00:00","4","40.95","-4.1333333","1005.0","SEGOVIA, SP","FM-12","99999","V020","260,1,N,0026,1","09000,1,9,N","020000,1,N,1","+0064,1","+0007,1","99999,9","12,0000,9,1","24,0000,9,1",,,,,"08,99,1,03,1,00,1,01750,1,05,1,06,1","0714,9","01,9","999,+0020,9","999,N,+0050,1","99999,9,08998,1","6,1,003,1,+999,9","3,1470,9",,"SYN100AAXX  03064 08213 12770 82605 10064 20007 38998 48470 56003 60002 83056 333 20050 30002 55119 70000;","Q01  00002PRCP24Q02  00002PRCP12"
"08213099999","2010-04-03T09:00:00","4","40.95","-4.1333333","1005.0","SEGOVIA, SP","FM-12","99999","V020","230,1,N,0031,1","00750,1,9,N","020000,1,N,1","+0070,1","+0019,1","99999,9",,,,,,,"08,99,1,06,1,05,1,00800,1,07,1,99,9",,,,,"99999,9,08999,1","3,1,001,1,+999,9","3,1472,9",,"SYN066AAXX  03094 08213 42570 82306 10070 20019 38999 48472 53001 8657/;",
"08213099999","2010-04-03T12:00:00","4","40.95","-4.1333333","1005.0","SEGOVIA, SP","FM-12","99999","V020","280,1,N,0051,1","00750,1,9,N","002000,1,N,1","+0057,1","+0047,1","99999,9","06,0010,9,1",,,"6,1,06,1","2,1,06,1",,"08,99,1,08,1,05,1,00800,1,99,9,99,9",,,,,"99999,9,09000,1","1,1,001,1,+999,9","3,1471,9","63,1","SYN088AAXX  03124 08213 11520 82810 10057 20047 39000 48471 51001 60011 76362 885// 333 50420;",
"08213099999","2010-04-03T15:00:00","4","40.95","-4.1333333","1005.0","SEGOVIA, SP","FM-12","99999","V020","260,1,N,0026,1","00750,1,9,N","003000,1,N,1","+0059,1","+0044,1","99999,9",,,,"8,1,03,1","6,1,03,1",,"08,99,1,08,1,05,1,00800,1,99,9,99,9",,,,,"99999,9,09000,1","4,1,000,1,+999,9","3,1471,9","63,1","SYN072AAXX  03154 08213 41530 82605 10059 20044 39000 48471 54000 76386 885//;",
"08213099999","2010-04-03T18:00:00","4","40.95","-4.1333333","1005.0","SEGOVIA, SP","FM-12","99999","V020","180,1,N,0041,1","01200,1,9,N","015000,1,N,1","+0055,1","+0027,1","99999,9","12,0061,9,1",,,"8,1,06,1","6,1,06,1",,"08,99,1,08,1,08,1,00800,1,99,9,99,9",,,,"999,M,+0077,1","99999,9,08996,1","5,1,004,1,+999,9","3,1467,9","25,1","SYN088AAXX  03184 08213 11565 81808 10055 20027 38996 48467 55004 60062 72586 888// 333 10077;",
"08213099999","2010-04-04T06:00:00","4","40.95","-4.1333333","1005.0","SEGOVIA, SP","FM-12","99999","V020","290,1,N,0021,1","00750,1,9,N","008000,1,N,1","+0015,1","+0005,1","99999,9","12,0003,9,1","24,0066,9,1",,"2,1,06,1","2,1,06,1",,"08,99,1,08,1,07,1,00800,1,99,9,99,9","0000,9","09,9","999,+0000,9","999,N,+0010,1","99999,9,09061,1","2,1,015,1,+999,9","3,1517,9","10,1","SYN106AAXX  04064 08213 11558 82904 10015 20005 39061 48517 52015 69932 71022 887// 333 20010 31000 55000 70067;",
"08213099999","2010-04-04T09:00:00","4","40.95","-4.1333333","1005.0","SEGOVIA, SP","FM-12","99999","V020","270,1,N,0036,1","22000,1,9,N","012000,1,N,1","+0033,1","+0000,1","99999,9",,,,,,,"04,99,1,04,1,05,1,00800,1,00,1,00,1",,,,,"99999,9,09084,1","2,1,023,1,+999,9","3,1541,9",,"SYN066AAXX  04094 08213 42562 42707 10033 20000 39084 48541 52023 84500;",
"08213099999","2010-04-04T12:00:00","4","40.95","-4.1333333","1005.0","SEGOVIA, SP","FM-12","99999","V020","350,1,N,0021,1","22000,1,9,N","018000,1,N,1","+0076,1","+0008,1","99999,9","06,0000,9,1",,,,,,"03,99,1,03,1,05,1,00800,1,00,1,00,1",,,,,"99999,9,09092,1","1,1,008,1,+999,9","3,1556,9",,"SYN082AAXX  04124 08213 12568 33504 10076 20008 39092 48556 51008 60001 83500 333 50130;","Q01  00002PRCP06"
"08213099999","2010-04-04T15:00:00","4","40.95","-4.1333333","1005.0","SEGOVIA, SP","FM-12","99999","V020","300,1,N,0021,1","22000,1,9,N","020000,1,N,1","+0102,1","-0012,1","99999,9",,,,,,,"02,99,1,02,1,05,1,00800,1,00,1,00,1",,,,,"99999,9,09092,1","4,1,000,1,+999,9","3,1561,9",,"SYN066AAXX  04154 08213 42570 23004 10102 21012 39092 48561 54000 82500;",
"08213099999","2010-04-04T18:00:00","4","40.95","-4.1333333","1005.0","SEGOVIA, SP","FM-12","99999","V020","030,1,N,0015,1","22000,1,9,N","020000,1,N,1","+0098,1","-0007,1","99999,9","12,0000,9,1",,,,,,"01,99,1,01,1,01,1,00800,1,00,1,02,1",,,,"999,M,+0110,1","99999,9,09094,1","3,1,002,1,+999,9","3,1562,9",,"SYN082AAXX  04184 08213 12570 10303 10098 21007 39094 48562 53002 60002 81102 333 10110;","Q01  00002PRCP12"
"08213099999","2010-04-05T06:00:00","4","40.95","-4.1333333","1005.0","SEGOVIA, SP","FM-12","99999","V020","100,1,N,0021,1","22000,1,9,N","020000,1,N,1","+0020,1","-0031,1","99999,9","12,0000,9,1","24,0000,9,1",,,,"00,1,+99999,9,99,9","00,99,1,00,1,00,1,99999,9,00,1,00,1","0588,9","14,9","999,-0050,9","999,N,+0020,1","99999,9,09096,1","6,1,005,1,+999,9","3,1548,9",,"SYN094AAXX  05064 08213 12970 01004 10020 21031 39096 48548 56005 60002 333 20020 34105 55098 70000;","Q01  00002PRCP24Q02  00002PRCP12"
"08213099999","2010-04-05T09:00:00","4","40.95","-4.1333333","1005.0","SEGOVIA, SP","FM-12","99999","V020","270,1,N,0021,1","22000,1,9,N","020000,1,N,1","+0082,1","-0019,1","99999,9",,,,,,,"02,99,1,00,1,00,1,99999,9,00,1,01,1",,,,,"99999,9,09096,1","5,1,000,1,+999,9","3,1561,9",,"SYN066AAXX  05094 08213 42970 22704 10082 21019 39096 48561 55000 80001;",
"08213099999","2010-04-05T12:00:00","4","40.95","-4.1333333","1005.0","SEGOVIA, SP","FM-12","99999","V020","310,1,N,0021,1","99999,9,9,N","020000,1,N,1","+0138,1","-0026,1","99999,9","06,0000,9,1",,,,,,"05,99,1,00,1,00,1,99999,9,00,1,08,1",,,,,"99999,9,09084,1","8,1,012,1,+999,9","3,1561,9",,"SYN082AAXX  05124 08213 12970 53104 10138 21026 39084 48561 58012 60001 80008 333 50360;","Q01  00002PRCP06"
"08213099999","2010-04-05T15:00:00","4","40.95","-4.1333333","1005.0","SEGOVIA, SP","FM-12","99999","V020","290,1,N,0026,1","09000,1,9,N","025000,1,N,1","+0160,1","+0002,1","99999,9",,,,,,,"07,99,1,02,1,00,1,01750,1,07,1,08,1",,,,,"99999,9,09062,1","7,1,022,1,+999,9","3,1545,9",,"SYN066AAXX  05154 08213 42775 72905 10160 20002 39062 48545 57022 82078;",
"08213099999","2010-04-05T18:00:00","4","40.95","-4.1333333","1005.0","SEGOVIA, SP","FM-12","99999","V020","150,1,N,0036,1","22000,1,9,N","020000,1,N,1","+0144,1","-0034,1","99999,9","12,0000,9,1",,,,,,"04,99,1,00,1,00,1,99999,9,00,1,01,1",,,,"999,M,+0167,1","99999,9,09054,1","6,1,008,1,+999,9","3,1534,9",,"SYN082AAXX  05184 08213 12970 41507 10144 21034 39054 48534 56008 60002 80001 333 10167;","Q01  00002PRCP12"
"08213099999","2010-04-06T06:00:00","4","40.95","-4.1333333","1005.0","SEGOVIA, SP","FM-12","99999","V020","110,1,N,0021,1","22000,1,9,N","020000,1,N,1","+0046,1","-0010,1","99999,9","12,0000,9,1","24,0000,9,1",,,,"00,1,+99999,9,99,9","00,99,1,00,1,00,1,99999,9,00,1,00,1","0660,9","09,9","999,-0030,9","999,N,+0042,1","99999,9,09031,1","6,1,004,1,+999,9","3,1496,9",,"SYN094AAXX  06064 08213 12970 01104 10046 21010 39031 48496 56004 60002 333 20042 31103 55110 70000;","Q01  00002PRCP24Q02  00002PRCP12"
"08213099999","2010-04-06T09:00:00","4","40.95","-4.1333333","1005.0","SEGOVIA, SP","FM-12","99999","V020","260,1,N,0021,1","22000,1,9,N","015000,1,N,1","+0110,1","+0010,1","99999,9",,,,,,"00,1,+99999,9,99,9","00,99,1,00,1,00,1,99999,9,00,1,00,1",,,,,"99999,9,09025,1","6,1,006,1,+999,9","3,1502,9",,"SYN060AAXX  06094 08213 42965 02604 10110 20010 39025 48502 56006;",
"08213099999","2010-04-06T12:00:00","4","40.95","-4.1333333","1005.0","SEGOVIA, SP","FM-12","99999","V020","210,1,N,0021,1","22000,1,9,N","012000,1,N,1","+0158,1","+0004,1","99999,9","06,0000,9,1",,,,,,"03,99,1,00,1,00,1,99999,9,00,1,01,1",,,,,"99999,9,09019,1","8,1,006,1,+999,9","3,1505,9",,"SYN082AAXX  06124 08213 12962 32104 10158 20004 39019 48505 58006 60001 80001 333 50250;","Q01  00002PRCP06"
"08213099999","2010-04-06T15:00:00","4","40.95","-4.1333333","1005.0","SEGOVIA, SP","FM-12","99999","V020","300,1,N,0041,1","22000,1,9,N","012000,1,N,1","+0182,1","+0021,1","99999,9",,,,,,,"05,99,1,01,1,01,1,00800,1,00,1,01,1",,,,,"99999,9,09006,1","6,1,013,1,+999,9","3,1497,9",,"SYN066AAXX  06154 08213 42562 53008 10182 20021 39006 48497 56013 81101;",
"08213099999","2010-04-06T18:00:00","4","40.95","-4.1333333","1005.0","SEGOVIA, SP","FM-12","99999","V020","320,1,N,0031,1","03600,1,9,N","012000,1,N,1","+0151,1","+0020,1","99999,9","12,0000,9,1",,,,,,"07,99,1,01,1,04,1,00800,1,07,1,09,1",,,,"999,M,+0185,1","99999,9,09006,1","4,1,000,1,+999,9","3,1492,9",,"SYN082AAXX  06184 08213 12562 73206 10151 20020 39006 48492 54000 60002 81479 333 10185;","Q01  00002PRCP12"
"08213099999","2010-04-07T06:00:00","4","40.95","-4.1333333","1005.0","SEGOVIA, SP","FM-12","99999","V020","170,1,N,0021,1","03600,1,9,N","010000,1,N,1","+0058,1","+0035,1","99999,9","12,0020,9,1","24,0020,9,1",,"6,1,06,1","2,1,06,1",,"06,99,1,04,1,05,1,00800,1,03,1,00,1","0600,9","11,9","999,+0040,9","999,N,+0054,1","99999,9,09039,1","2,1,008,1,+999,9","3,1506,9","21,1","SYN106AAXX  07064 08213 11560 61704 10058 20035 39039 48506 52008 60022 72162 84530 333 20054 32004 55100 70021;",
"08213099999","2010-04-07T09:00:00","4","40.95","-4.1333333","1005.0","SEGOVIA, SP","FM-12","99999","V020","260,1,N,0021,1","22000,1,9,N","010000,1,N,1","+0074,1","+0038,1","99999,9",,,,"6,1,03,1","2,1,03,1",,"04,99,1,03,1,05,1,00800,1,03,1,00,1",,,,,"99999,9,09049,1","2,1,010,1,+999,9","3,1518,9","02,1","SYN072AAXX  07094 08213 41560 42604 10074 20038 39049 48518 52010 70262 83530;",
"08213099999","2010-04-07T12:00:00","4","40.95","-4.1333333","1005.0","SEGOVIA, SP","FM-12","99999","V020","010,1,N,0046,1","00750,1,9,N","020000,1,N,1","+0097,1","+0023,1","99999,9","06,0000,2,1",,,,,,"05,99,1,05,1,05,1,00800,1,00,1,00,1",,,,,"99999,9,09061,1","2,1,012,1,+999,9","3,1533,9",,"SYN082AAXX  07124 08213 12570 50109 10097 20023 39061 48533 52012 60001 85500 333 50330;",
"08213099999","2010-04-07T15:00:00","4","40.95","-4.1333333","1005.0","SEGOVIA, SP","FM-12","99999","V020","010,1,N,0041,1","22000,1,9,N","020000,1,N,1","+0114,1","+0022,1","99999,9",,,,,,,"04,99,1,04,1,05,1,00800,1,00,1,00,1",,,,,"99999,9,09061,1","4,1,000,1,+999,9","3,1536,9",,"SYN066AAXX  07154 08213 42570 40108 10114 20022 39061 48536 54000 84500;",
"08213099999","2010-04-07T18:00:00","4","40.95","-4.1333333","1005.0","SEGOVIA, SP","FM-12","99999","V020","020,1,N,0031,1","22000,1,9,N","018000,1,N,1","+0099,1","+0020,1","99999,9","12,0000,2,1",,,,,,"02,99,1,02,1,05,1,00800,1,00,1,00,1",,,,"999,M,+0126,1","99999,9,09066,1","2,1,005,1,+999,9","3,1537,9",,"SYN082AAXX  07184 08213 12568 20206 10099 20020 39066 48537 52005 60002 82500 333 10126;",
"08213099999","2010-04-08T06:00:00","4","40.95","-4.1333333","1005.0","SEGOVIA, SP","FM-12","99999","V020","270,1,N,0010,1","22000,1,9,N","018000,1,N,1","+0002,1","-0027,1","99999,9","12,0000,9,1","24,0000,2,1",,,,,"01,99,1,00,1,00,1,99999,9,00,1,01,1","0486,9","09,9","999,-0060,9","999,N,-0006,1","99999,9,09091,1","5,1,000,1,+999,9","3,1541,9",,"SYN100AAXX  08064 08213 12968 12702 10002 21027 39091 48541 55000 60002 80001 333 21006 31106 55081 70000;","Q01  00002PRCP12"
"08213099999","2010-04-08T09:00:00","4","40.95","-4.1333333","1005.0","SEGOVIA, SP","FM-12","99999","V020","250,1,N,0015,1","22000,1,9,N","020000,1,N,1","+0048,1","-0008,1","99999,9",,,,,,"00,1,+99999,9,99,9","00,99,1,00,1,00,1,99999,9,00,1,00,1",,,,,"99999,9,09099,1","1,1,008,1,+999,9","3,1557,9",,"SYN060AAXX  08094 08213 42970 02503 10048 21008 39099 48557 51008;",
"08213099999","2010-04-08T12:00:00","4","40.95","-4.1333333","1005.0","SEGOVIA, SP","FM-12","99999","V020","360,1,N,0015,1","22000,1,9,N","020000,1,N,1","+0115,1","+0006,1","99999,9","06,0000,9,1",,,,,"00,1,+99999,9,99,9","00,99,1,00,1,00,1,99999,9,00,1,00,1",,,,,"99999,9,09094,1","8,1,005,1,+999,9","3,1566,9",,"SYN076AAXX  08124 08213 12970 03603 10115 20006 39094 48566 58005 60001 333 5///0;","Q01  00002PRCP06"
"08213099999","2010-04-08T15:00:00","4","40.95","-4.1333333","1005.0","SEGOVIA, SP","FM-12","99999","V020","010,1,N,0031,1","22000,1,9,N","020000,1,N,1","+0147,1","-0006,1","99999,9",,,,,,"00,1,+99999,9,99,9","00,99,1,00,1,00,1,99999,9,00,1,00,1",,,,,"99999,9,09082,1","7,1,012,1,+999,9","3,1561,9",,"SYN060AAXX  08154 08213 42970 00106 10147 21006 39082 48561 57012;",
"08213099999","2010-04-08T18:00:00","4","40.95","-4.1333333","1005.0","SEGOVIA, SP","FM-12","99999","V020","140,1,N,0077,1","22000,1,9,N","020000,1,N,1","+0140,1","-0008,1","99999,9","12,0000,9,1",,,,,"00,1,+99999,9,99,9","00,99,1,00,1,00,1,99999,9,00,1,00,1",,,,"999,M,+0154,1","99999,9,09081,1","6,1,001,1,+999,9","3,1559,9",,"SYN076AAXX  08184 08213 12970 01415 10140 21008 39081 48559 56001 60002 333 10154;","Q01  00002PRCP12"
"08213099999","2010-04-09T06:00:00","4","40.95","-4.1333333","1005.0","SEGOVIA, SP","FM-12","99999","V020","080,1,N,0005,1","22000,1,9,N","020000,1,N,1","+0020,1","-0031,1","99999,9","12,0000,9,1","24,0000,9,1",,,,"00,1,+99999,9,99,9","00,99,1,00,1,00,1,99999,9,00,1,00,1","0672,9","09,9","999,+0050,9","999,N,+0020,1","99999,9,09079,1","6,1,001,1,+999,9","3,1533,9",,"SYN094AAXX  09064 08213 12970 00801 10020 21031 39079 48533 56001 60002 333 20020 31005 55112 70000;","Q01  00002PRCP24Q02  00002PRCP12"
"08213099999","2010-04-09T09:00:00","4","40.95","-4.1333333","1005.0","SEGOVIA, SP","FM-12","99999","V020","280,1,N,0021,1","22000,1,9,N","020000,1,N,1","+0080,1","+0010,1","99999,9",,,,,,"00,1,+99999,9,99,9","00,99,1,00,1,00,1,99999,9,00,1,00,1",,,,,"99999,9,09078,1","5,1,001,1,+999,9","3,1545,9",,"SYN060AAXX  09094 08213 42970 02804 10080 20010 39078 48545 55001;",
"08213099999","2010-04-09T12:00:00","4","40.95","-4.1333333","1005.0","SEGOVIA, SP","FM-12","99999","V020","240,1,N,0026,1","22000,1,9,N","020000,1,N,1","+0136,1","-0001,1","99999,9","06,0000,9,1",,,,,"00,1,+99999,9,99,9","00,99,1,00,1,00,1,99999,9,00,1,00,1",,,,,"99999,9,09075,1","8,1,003,1,+999,9","3,1552,9",,"SYN066AAXX  09124 08213 12970 02405 10136 21001 39075 48552 58003 60001;","Q01  00002PRCP06"
"08213099999","2010-04-09T15:00:00","4","40.95","-4.1333333","1005.0","SEGOVIA, SP","FM-12","99999","V020","350,1,N,0021,1","22000,1,9,N","020000,1,N,1","+0164,1","+0005,1","99999,9",,,,,,,"01,99,1,01,1,01,1,01250,1,00,1,00,1",,,,,"99999,9,09067,1","7,1,008,1,+999,9","3,1550,9",,"SYN066AAXX  09154 08213 42670 13504 10164 20005 39067 48550 57008 81100;",
"08213099999","2010-04-09T18:00:00","4","40.95","-4.1333333","1005.0","SEGOVIA, SP","FM-12","99999","V020","330,1,N,0010,1","22000,1,9,N","020000,1,N,1","+0166,1","+0015,1","99999,9","12,0000,9,1",,,,,,"01,99,1,01,1,01,1,01250,1,00,1,00,1",,,,"999,M,+0176,1","99999,9,09067,1","5,1,000,1,+999,9","3,1551,9",,"SYN082AAXX  09184 08213 12670 13302 10166 20015 39067 48551 55000 60002 81100 333 10176;","Q01  00002PRCP12"
"08213099999","2010-04-10T06:00:00","4","40.95","-4.1333333","1005.0","SEGOVIA, SP","FM-12","99999","V020","070,1,N,0031,1","22000,1,9,N","020000,1,N,1","+0096,1","-0047,1","99999,9","12,0000,9,1","24,0000,9,1",,,,"00,1,+99999,9,99,9","00,99,1,00,1,00,1,99999,9,00,1,00,1","0720,9","01,9","999,+0050,9","999,N,+0096,1","99999,9,09080,1","4,1,000,1,+999,9","3,1549,9",,"SYN094AAXX  10064 08213 12970 00706 10096 21047 39080 48549 54000 60002 333 20096 30005 55120 70000;","Q01  00002PRCP24Q02  00002PRCP12"
"08213099999","2010-04-10T09:00:00","4","40.95","-4.1333333","1005.0","SEGOVIA, SP","FM-12","99999","V020","100,1,N,0031,1","22000,1,9,N","020000,1,N,1","+0138,1","-0039,1","99999,9",,,,,,"00,1,+99999,9,99,9","00,99,1,00,1,00,1,99999,9,00,1,00,1",,,,,"99999,9,09077,1","8,1,003,1,+999,9","3,1554,9",,"SYN060AAXX  10094 08213 42970 01006 10138 21039 39077 48554 58003;",
"08213099999","2010-04-10T12:00:00","4","40.95","-4.1333333","1005.0","SEGOVIA, SP","FM-12","99999","V020","090,1,N,0031,1","22000,1,9,N","020000,1,N,1","+0166,1","-0035,1","99999,9","06,0000,9,1",,,,,"00,1,+99999,9,99,9","00,99,1,00,1,00,1,99999,9,00,1,00,1",,,,,"99999,9,09068,1","7,1,009,1,+999,9","3,1551,9",,"SYN076AAXX  10124 08213 12970 00906 10166 21035 39068 48551 57009 60001 333 50420;","Q01  00002PRCP06"
"08213099999","2010-04-10T15:00:00","4","40.95","-4.1333333","1005.0","SEGOVIA, SP","FM-12","99999","V020","060,1,N,0046,1","22000,1,9,N","020000,1,N,1","+0176,1","-0011,1","99999,9",,,,,,"00,1,+99999,9,99,9","00,99,1,00,1,00,1,99999,9,00,1,00,1",,,,,"99999,9,09047,1","7,1,021,1,+999,9","3,1534,9",,"SYN060AAXX  10154 08213 42970 00609 10176 21011 39047 48534 57021;",
"08213099999","2010-04-10T18:00:00","4","40.95","-4.1333333","1005.0","SEGOVIA, SP","FM-12","99999","V020","080,1,N,0046,1","22000,1,9,N","020000,1,N,1","+0174,1","-0008,1","99999,9","12,0000,9,1",,,,,"00,1,+99999,9,99,9","00,99,1,00,1,00,1,99999,9,00,1,00,1",,,,"999,M,+0182,1","99999,9,09033,1","6,1,014,1,+999,9","3,1521,9",,"SYN076AAXX  10184 08213 12970 00809 10174 21008 39033 48521 56014 60002 333 10182;","Q01  00002PRCP12"
"08213099999","2010-04-11T06:00:00","4","40.95","-4.1333333","1005.0","SEGOVIA, SP","FM-12","99999","V020","080,1,N,0010,1","22000,1,9,N","020000,1,N,1","+0066,1","-0001,1","99999,9","12,0000,9,1","24,0000,9,1",,,,"00,1,+99999,9,99,9","00,99,1,00,1,00,1,99999,9,00,1,00,1","0708,9","01,9","999,-0020,9","999,N,+0066,1","99999,9,09003,1","7,1,010,1,+999,9","3,1474,9",,"SYN094AAXX  11064 08213 12970 00802 10066 21001 39003 48474 57010 60002 333 20066 30102 55118 70000;","Q01  00002PRCP24Q02  00002PRCP12"
"08213099999","2010-04-11T09:00:00","4","40.95","-4.1333333","1005.0","SEGOVIA, SP","FM-12","99999","V020","250,1,N,0026,1","22000,1,9,N","020000,1,N,1","+0116,1","+0013,1","99999,9",,,,,,"00,1,+99999,9,99,9","00,99,1,00,1,00,1,99999,9,00,1,00,1",,,,,"99999,9,08996,1","7,1,007,1,+999,9","3,1476,9",,"SYN060AAXX  11094 08213 42970 02505 10116 20013 38996 48476 57007;",
"08213099999","2010-04-11T12:00:00","4","40.95","-4.1333333","1005.0","SEGOVIA, SP","FM-12","99999","V020","300,1,N,0021,1","22000,1,9,N","020000,1,N,1","+0164,1","+0009,1","99999,9","06,0000,9,1",,,,,"00,1,+99999,9,99,9","00,99,1,00,1,00,1,99999,9,00,1,00,1",,,,,"99999,9,08985,1","8,1,011,1,+999,9","3,1474,9",,"SYN066AAXX  11124 08213 12970 03004 10164 20009 38985 48474 58011 60001;","Q01  00002PRCP06"
"08213099999","2010-04-11T15:00:00","4","40.95","-4.1333333","1005.0","SEGOVIA, SP","FM-12","99999","V020","280,1,N,0026,1","22000,1,9,N","020000,1,N,1","+0194,1","-0011,1","99999,9",,,,,,"00,1,+99999,9,99,9","00,99,1,00,1,00,1,99999,9,00,1,00,1",,,,,"99999,9,08961,1","7,1,024,1,+999,9","3,1456,9",,"SYN060AAXX  11154 08213 42970 02805 10194 21011 38961 48456 57024;",
"08213099999","2010-04-11T18:00:00","4","40.95","-4.1333333","1005.0","SEGOVIA, SP","FM-12","99999","V020","010,1,N,0026,1","22000,1,9,N","020000,1,N,1","+0188,1","+0004,1","99999,9","12,0000,9,1",,,,,"00,1,+99999,9,99,9","00,99,1,00,1,00,1,99999,9,00,1,00,1",,,,"999,M,+0206,1","99999,9,08945,1","7,1,016,1,+999,9","3,1440,9",,"SYN076AAXX  11184 08213 12970 00105 10188 20004 38945 48440 57016 60002 333 10206;","Q01  00002PRCP12"
"08213099999","2010-04-12T06:00:00","4","40.95","-4.1333333","1005.0","SEGOVIA, SP","FM-12","99999","V020","250,1,N,0010,1","22000,1,9,N","020000,1,N,1","+0028,1","-0005,1","99999,9","12,0000,9,1","24,0000,9,1",,,,,"01,99,1,01,1,00,1,01750,1,05,1,00,1","0756,9","01,9","999,-0030,9","999,N,+0023,1","99999,9,08935,1","7,1,005,1,+999,9","3,1407,9",,"SYN100AAXX  12064 08213 12770 12502 10028 21005 38935 48407 57005 60002 81050 333 20023 30103 55126 70000;","Q01  00002PRCP24Q02  00002PRCP12"
"08213099999","2010-04-12T09:00:00","4","40.95","-4.1333333","1005.0","SEGOVIA, SP","FM-12","99999","V020","280,1,N,0010,1","22000,1,9,N","008000,1,N,1","+0065,1","+0006,1","99999,9",,,,"0,1,03,1","0,1,03,1",,"01,99,1,00,1,00,1,99999,9,00,1,01,1",,,,,"99999,9,08934,1","8,1,001,1,+999,9","3,1412,9","05,1","SYN072AAXX  12094 08213 41958 12802 10065 20006 38934 48412 58001 70500 80001;",
"08213099999","2010-04-12T12:00:00","4","40.95","-4.1333333","1005.0","SEGOVIA, SP","FM-12","99999","V020","280,1,N,0036,1","22000,1,9,N","010000,1,N,1","+0127,1","+0020,1","99999,9","06,0000,9,1",,,,,"01,1,+00600,1,09,1","03,99,1,01,1,03,1,00800,1,05,1,01,1",,,,,"99999,9,08929,1","7,1,005,1,+999,9","3,1416,9",,"SYN088AAXX  12124 08213 12560 32807 10127 20020 38929 48416 57005 60001 81351 333 50480 81920;","Q01  00002PRCP06"
"08213099999","2010-04-12T15:00:00","4","40.95","-4.1333333","1005.0","SEGOVIA, SP","FM-12","99999","V020","050,1,N,0062,1","22000,1,9,N","010000,1,N,1","+0144,1","-0005,1","99999,9",,,,,,"01,1,+00600,1,09,1","04,99,1,02,1,09,1,00800,1,00,1,02,1",,,,,"99999,9,08924,1","7,1,005,1,+999,9","3,1414,9",,"SYN076AAXX  12154 08213 42560 40512 10144 21005 38924 48414 57005 82902 333 81920;",
"08213099999","2010-04-12T18:00:00","4","40.95","-4.1333333","1005.0","SEGOVIA, SP","FM-12","99999","V020","060,1,N,0041,1","03600,1,9,N","015000,1,N,1","+0116,1","+0018,1","99999,9","12,0000,9,1",,,,,,"06,99,1,04,1,05,1,00800,1,06,1,01,1",,,,"999,M,+0161,1","99999,9,08926,1","3,1,002,1,+999,9","3,1412,9",,"SYN082AAXX  12184 08213 12565 60608 10116 20018 38926 48412 53002 60002 84561 333 10161;","Q01  00002PRCP12"
"08213099999","2010-04-13T06:00:00","4","40.95","-4.1333333","1005.0","SEGOVIA, SP","FM-12","99999","V020","270,1,N,0010,1","22000,1,9,N","012000,1,N,1","+0034,1","-0013,1","99999,9","12,0000,9,1","24,0000,9,1",,,,,"03,99,1,03,1,00,1,01750,1,05,1,00,1","0528,9","01,9","999,+0000,9","999,N,+0032,1","99999,9,08943,1","4,1,000,1,+999,9","3,1415,9",,"SYN100AAXX  13064 08213 12762 32702 10034 21013 38943 48415 54000 60002 83050 333 20032 30000 55088 70000;","Q01  00002PRCP24Q02  00002PRCP12"
"08213099999","2010-04-13T09:00:00","4","40.95","-4.1333333","1005.0","SEGOVIA, SP","FM-12","99999","V020","300,1,N,0026,1","22000,1,9,N","015000,1,N,1","+0076,1","-0001,1","99999,9",,,,,,,"03,99,1,01,1,05,1,00800,1,05,1,01,1",,,,,"99999,9,08946,1","2,1,003,1,+999,9","3,1424,9",,"SYN066AAXX  13094 08213 42565 33005 10076 21001 38946 48424 52003 81551;",
"08213099999","2010-04-13T12:00:00","4","40.95","-4.1333333","1005.0","SEGOVIA, SP","FM-12","99999","V020","280,1,N,0026,1","00750,1,9,N","012000,1,N,1","+0109,1","+0012,1","99999,9","06,0000,9,1",,,,,,"06,99,1,05,1,05,1,00800,1,00,1,06,1",,,,,"99999,9,08947,1","1,1,001,1,+999,9","3,1430,9",,"SYN082AAXX  13124 08213 12562 62805 10109 20012 38947 48430 51001 60001 85506 333 50290;","Q01  00002PRCP06"
"08213099999","2010-04-13T15:00:00","4","40.95","-4.1333333","1005.0","SEGOVIA, SP","FM-12","99999","V020","080,1,N,0026,1","22000,1,9,N","018000,1,N,1","+0136,1","+0031,1","99999,9",,,,,,,"04,99,1,02,1,05,1,00800,1,05,1,00,1",,,,,"99999,9,08942,1","7,1,005,1,+999,9","3,1430,9",,"SYN066AAXX  13154 08213 42568 40805 10136 20031 38942 48430 57005 82550;",
"08213099999","2010-04-13T18:00:00","4","40.95","-4.1333333","1005.0","SEGOVIA, SP","FM-12","99999","V020","100,1,N,0072,1","03600,1,9,N","018000,1,N,1","+0101,1","+0010,1","99999,9","12,0000,9,1",,,,,,"05,99,1,04,1,05,1,00800,1,03,1,00,1",,,,"999,M,+0140,1","99999,9,08941,1","8,1,001,1,+999,9","3,1424,9",,"SYN082AAXX  13184 08213 12568 51014 10101 20010 38941 48424 58001 60002 84530 333 10140;","Q01  00002PRCP12"
"08213099999","2010-04-14T06:00:00","4","40.95","-4.1333333","1005.0","SEGOVIA, SP","FM-12","99999","V020","190,1,N,0015,1","01500,1,9,N","015000,1,N,1","+0062,1","+0048,1","99999,9","12,0000,9,1","24,0010,9,1",,"6,1,06,1","2,1,06,1",,"07,99,1,05,1,00,1,01750,1,07,1,08,1","0228,9","11,9","999,+0030,9","999,N,+0060,1","99999,9,08941,1","8,1,003,1,+999,9","3,1418,9","02,1","SYN106AAXX  14064 08213 11765 71903 10062 20048 38941 48418 58003 60002 70262 85078 333 20060 32003 55038 70009;","Q01  00002PRCP12"
"08213099999","2010-04-14T09:00:00","4","40.95","-4.1333333","1005.0","SEGOVIA, SP","FM-12","99999","V020","050,1,N,0010,1","03600,1,9,N","015000,1,N,1","+0090,1","+0056,1","99999,9",,,,,,,"06,99,1,01,1,04,1,00800,1,03,1,01,1",,,,,"99999,9,08940,1","5,1,001,1,+999,9","3,1421,9",,"SYN066AAXX  14094 08213 42565 60502 10090 20056 38940 48421 55001 81431;",
"08213099999","2010-04-14T12:00:00","4","40.95","-4.1333333","1005.0","SEGOVIA, SP","FM-12","99999","V020","310,1,N,0021,1","01200,1,9,N","015000,1,N,1","+0133,1","+0059,1","99999,9","06,0000,9,1",,,,,,"07,99,1,05,1,08,1,00800,1,03,1,01,1",,,,,"99999,9,08936,1","8,1,004,1,+999,9","3,1424,9",,"SYN082AAXX  14124 08213 12565 73104 10133 20059 38936 48424 58004 60001 85831 333 50320;","Q01  00002PRCP06"
"08213099999","2010-04-14T15:00:00","4","40.95","-4.1333333","1005.0","SEGOVIA, SP","FM-12","99999","V020","010,1,N,0026,1","01200,1,9,N","015000,1,N,1","+0118,1","+0067,1","99999,9",,,,,,,"08,99,1,05,1,08,1,00800,1,07,1,08,1",,,,,"99999,9,08933,1","7,1,003,1,+999,9","3,1419,9",,"SYN066AAXX  14154 08213 42565 80105 10118 20067 38933 48419 57003 85878;",
"08213099999","2010-04-14T18:00:00","4","40.95","-4.1333333","1005.0","SEGOVIA, SP","FM-12","99999","V020","090,1,N,0021,1","00750,1,9,N","010000,1,N,1","+0097,1","+0066,1","99999,9","12,0030,9,1",,,"6,1,06,1","2,1,06,1",,"08,99,1,05,1,04,1,00800,1,07,1,08,1",,,,"999,M,+0147,1","99999,9,08936,1","1,1,003,1,+999,9","3,1419,9","21,1","SYN088AAXX  14184 08213 11560 80904 10097 20066 38936 48419 51003 60032 72162 85478 333 10147;",
"08213099999","2010-04-15T06:00:00","4","40.95","-4.1333333","1005.0","SEGOVIA, SP","FM-12","99999","V020","140,1,N,0031,1","01200,1,9,N","016000,1,N,1","+0096,1","+0040,1","99999,9","12,0020,9,1","24,0043,9,1",,"6,1,06,1","2,1,06,1",,"07,99,1,07,1,08,1,00800,1,00,1,00,1","0192,9","11,9","999,+0050,9","999,N,+0094,1","99999,9,08921,1","5,1,000,1,+999,9","3,1405,9","02,1","SYN106AAXX  15064 08213 11566 71406 10096 20040 38921 48405 55000 60022 70262 87800 333 20094 32005 55032 70044;",
"08213099999","2010-04-15T09:00:00","4","40.95","-4.1333333","1005.0","SEGOVIA, SP","FM-12","99999","V020","160,1,N,0026,1","01200,1,9,N","016000,1,N,1","+0118,1","+0048,1","99999,9",,,,"6,1,03,1","2,1,03,1",,"07,99,1,07,1,08,1,00800,1,00,1,00,1",,,,,"99999,9,08935,1","1,1,014,1,+999,9","3,1421,9","02,1","SYN072AAXX  15094 08213 41566 71605 10118 20048 38935 48421 51014 70262 87800;",
"08213099999","2010-04-15T12:00:00","4","40.95","-4.1333333","1005.0","SEGOVIA, SP","FM-12","99999","V020","190,1,N,0062,1","00750,1,C,N","016000,1,N,1","+0138,1","+0054,1","99999,9","06,0000,9,1",,,"6,1,06,1","2,1,06,1","01,1,+00600,1,09,1","06,99,1,06,1,03,1,00800,1,00,1,00,1",,,,,"99999,9,08944,1","1,1,009,1,+999,9","3,1432,9","03,1","SYN094AAXX  15124 08213 11566 61912 10138 20054 38944 48432 51009 69901 70362 86300 333 50090 81920;","Q01  00002PRCP06"
"08213099999","2010-04-15T15:00:00","4","40.95","-4.1333333","1005.0","SEGOVIA, SP","FM-12","99999","V020","240,1,N,0093,1","00750,1,C,N","018000,1,N,1","+0154,1","+0056,1","99999,9",,,,,,"01,1,+00600,1,09,1","05,99,1,05,1,03,1,00800,1,00,1,00,1",,,,,"99999,9,08938,1","8,1,006,1,+999,9","3,1429,9",,"SYN076AAXX  15154 08213 42568 52418 10154 20056 38938 48429 58006 85300 333 81920;",
"08213099999","2010-04-15T18:00:00","4","40.95","-4.1333333","1005.0","SEGOVIA, SP","FM-12","99999","V020","230,1,N,0051,1","00750,1,C,N","018000,1,N,1","+0150,1","+0050,1","99999,9","12,0000,9,1",,,,,"01,1,+00600,1,09,1","06,99,1,06,1,03,1,00800,1,00,1,00,1",,,,"120,M,+0170,1","99999,9,08941,1","3,1,003,1,+999,9","3,1431,9",,"SYN088AAXX  15184 08213 12568 62310 10150 20050 38941 48431 53003 69902 86300 333 10170 81920;","Q01  00002PRCP12"
"08213099999","2010-04-16T06:00:00","4","40.95","-4.1333333","1005.0","SEGOVIA, SP","FM-12","99999","V020","080,1,N,0010,1","01200,1,9,N","018000,1,N,1","+0104,1","+0060,1","99999,9","12,0010,9,1","24,0010,9,1",,"6,1,06,1","2,1,06,1",,"07,99,1,07,1,08,1,00800,1,00,1,00,1","0390,9","09,9","999,+0050,9","999,N,+0096,1","99999,9,08951,1","8,1,001,1,+999,9","3,1434,9","02,1","SYN106AAXX  16064 08213 11568 70802 10104 20060 38951 48434 58001 60012 70262 87800 333 20096 31005 55065 70011;",
"08213099999","2010-04-16T09:00:00","4","40.95","-4.1333333","1005.0","SEGOVIA, SP","FM-12","99999","V020","180,1,N,0010,1","01200,1,9,N","018000,1,N,1","+0136,1","+0060,1","99999,9",,,,,,,"07,99,1,07,1,08,1,00800,1,00,1,00,1",,,,,"99999,9,08969,1","1,1,018,1,+999,9","3,1455,9",,"SYN066AAXX  16094 08213 42568 71802 10136 20060 38969 48455 51018 87800;",
"08213099999","2010-04-16T12:00:00","4","40.95","-4.1333333","1005.0","SEGOVIA, SP","FM-12","99999","V020","110,1,N,0057,1","00750,1,C,N","012000,1,N,1","+0132,1","+0070,1","99999,9","06,0000,9,1",,,,,"02,1,+00600,1,09,1","05,99,1,05,1,03,1,00800,1,00,1,00,1",,,,,"99999,9,08974,1","0,1,005,1,+999,9","3,1459,9",,"SYN088AAXX  16124 08213 12562 51111 10132 20070 38974 48459 50005 60001 85300 333 50270 82920;","Q01  00002PRCP06"
"08213099999","2010-04-16T15:00:00","4","40.95","-4.1333333","1005.0","SEGOVIA, SP","FM-12","99999","V020","220,1,N,0057,1","00750,1,C,N","016000,1,N,1","+0166,1","+0030,1","99999,9",,,,,,"03,1,+00600,1,09,1","07,99,1,05,1,03,1,00800,1,00,1,01,1",,,,,"99999,9,08963,1","7,1,011,1,+999,9","3,1454,9",,"SYN076AAXX  16154 08213 42566 72211 10166 20030 38963 48454 57011 85301 333 83920;",
"08213099999","2010-04-16T18:00:00","4","40.95","-4.1333333","1005.0","SEGOVIA, SP","FM-12","99999","V020","200,1,N,0041,1","00750,1,C,N","016000,1,N,1","+0148,1","+0030,1","99999,9","12,0000,9,1",,,,,"03,1,+00600,1,09,1","07,99,1,05,1,03,1,00800,1,00,1,01,1",,,,"120,M,+0178,1","99999,9,08963,1","5,1,000,1,+999,9","3,1451,9",,"SYN088AAXX  16184 08213 12566 72008 10148 20030 38963 48451 55000 60002 85301 333 10178 83920;","Q01  00002PRCP12"
"08213099999","2010-04-17T06:00:00","4","40.95","-4.1333333","1005.0","SEGOVIA, SP","FM-12","99999","V020","270,1,N,0026,1","03600,1,9,N","012000,1,N,1","+0090,1","+0057,1","99999,9","12,9999,9,9","24,9999,9,9",,"2,1,06,1","2,1,06,1",,"08,99,1,04,1,05,1,00800,1,07,1,08,1","0420,9","09,9","999,+0060,9","999,N,+0090,1","99999,9,08972,1","6,1,005,1,+999,9","3,1451,9","60,1","SYN106AAXX  17064 08213 11562 82705 10090 20057 38972 48451 56005 69902 76022 84578 333 20090 31006 55070 79999;","Q01  00002PRCP24Q02  00002PRCP12Q03  00002PRCP12Q04  00002PRCP24"
"08213099999","2010-04-17T09:00:00","4","40.95","-4.1333333","1005.0","SEGOVIA, SP","FM-12","99999","V020","050,1,N,0010,1","00750,1,9,N","012000,1,N,1","+0095,1","+0069,1","99999,9",,,,"6,1,03,1","2,1,03,1",,"08,99,1,06,1,05,1,00800,1,07,1,08,1",,,,,"99999,9,08981,1","2,1,009,1,+999,9","3,1460,9","60,1","SYN072AAXX  17094 08213 41562 80502 10095 20069 38981 48460 52009 76062 86578;",
"08213099999","2010-04-17T12:00:00","4","40.95","-4.1333333","1005.0","SEGOVIA, SP","FM-12","99999","V020","330,1,N,0026,1","22000,1,9,N","012000,1,N,1","+0132,1","+0070,1","99999,9","06,0008,9,1",,,"6,1,06,1","2,1,06,1",,"06,99,1,04,1,02,1,00800,1,00,1,01,1",,,,,"99999,9,08976,1","8,1,005,1,+999,9","3,1461,9","02,1","SYN088AAXX  17124 08213 11562 63305 10132 20070 38976 48461 58005 69971 70262 84201 333 50320;",
"08213099999","2010-04-17T15:00:00","4","40.95","-4.1333333","1005.0","SEGOVIA, SP","FM-12","99999","V020","280,1,N,0031,1","01200,1,9,N","005000,1,N,1","+0095,1","+0074,1","99999,9",,,,"6,1,03,1","2,1,03,1",,"08,99,1,06,1,08,1,00800,1,07,1,99,9",,,,,"99999,9,08971,1","7,1,005,1,+999,9","3,1451,9","61,1","SYN072AAXX  17154 08213 41550 82806 10095 20074 38971 48451 57005 76162 8687/;",
"08213099999","2010-04-17T18:00:00","4","40.95","-4.1333333","1005.0","SEGOVIA, SP","FM-12","99999","V020","120,1,N,0036,1","09000,1,9,N","010000,1,N,1","+0105,1","+0065,1","99999,9","12,0061,9,1",,,"8,1,06,1","6,1,06,1",,"05,99,1,02,1,02,1,00800,1,04,1,01,1",,,,"999,M,+0145,1","99999,9,08964,1","6,1,007,1,+999,9","3,1446,9","15,1","SYN088AAXX  17184 08213 11560 51207 10105 20065 38964 48446 56007 60062 71586 82241 333 10145;",
"08213099999","2010-04-18T06:00:00","4","40.95","-4.1333333","1005.0","SEGOVIA, SP","FM-12","99999","V020","360,1,N,0015,1","00750,1,9,N","015000,1,N,1","+0092,1","+0048,1","99999,9","12,0000,9,1","24,0056,9,1",,,,,"07,99,1,05,1,05,1,00800,1,03,1,01,1","0126,9","09,9","999,+0040,9","999,N,+0090,1","99999,9,08977,1","4,1,000,1,+999,9","3,1456,9",,"SYN100AAXX  18064 08213 12565 73603 10092 20048 38977 48456 54000 60002 85531 333 20090 31004 55021 70057;","Q01  00002PRCP12"
"08213099999","2010-04-18T09:00:00","4","40.95","-4.1333333","1005.0","SEGOVIA, SP","FM-12","99999","V020","130,1,N,0041,1","00750,1,9,N","015000,1,N,1","+0124,1","+0056,1","99999,9",,,,,,,"07,99,1,05,1,05,1,00800,1,04,1,01,1",,,,,"99999,9,08985,1","2,1,008,1,+999,9","3,1468,9",,"SYN066AAXX  18094 08213 42565 71308 10124 20056 38985 48468 52008 85541;",
"08213099999","2010-04-18T12:00:00","4","40.95","-4.1333333","1005.0","SEGOVIA, SP","FM-12","99999","V020","250,1,N,0041,1","00750,1,C,N","015000,1,N,1","+0138,1","+0059,1","99999,9","06,0000,9,1",,,,,"01,1,+00600,1,09,1","07,99,1,05,1,03,1,00800,1,07,1,01,1",,,,,"99999,9,08985,1","0,1,000,1,+999,9","3,1470,9",,"SYN088AAXX  18124 08213 12565 72508 10138 20059 38985 48470 50000 60001 85371 333 50110 81920;","Q01  00002PRCP06"
"08213099999","2010-04-18T15:00:00","4","40.95","-4.1333333","1005.0","SEGOVIA, SP","FM-12","99999","V020","030,1,N,0021,1","03600,1,9,N","015000,1,N,1","+0147,1","+0065,1","99999,9",,,,,,"01,1,+00600,1,09,1","05,99,1,03,1,03,1,00800,1,04,1,01,1",,,,,"99999,9,08981,1","8,1,004,1,+999,9","3,1468,9",,"SYN076AAXX  18154 08213 42565 50304 10147 20065 38981 48468 58004 83341 333 81920;",
"08213099999","2010-04-18T18:00:00","4","40.95","-4.1333333","1005.0","SEGOVIA, SP","FM-12","99999","V020","250,1,N,0041,1","03600,1,9,N","015000,1,N,1","+0128,1","+0050,1","99999,9","12,0000,9,1",,,,,"01,1,+00600,1,09,1","07,99,1,04,1,03,1,00800,1,04,1,01,1",,,,"120,M,+0160,1","99999,9,08991,1","3,1,010,1,+999,9","3,1474,9",,"SYN088AAXX  18184 08213 12565 72508 10128 20050 38991 48474 53010 60002 84341 333 10160 81920;","Q01  00002PRCP12"
"08213099999","2010-04-19T06:00:00","4","40.95","-4.1333333","1005.0","SEGOVIA, SP","FM-12","99999","V020","310,1,N,0010,1","00750,1,9,N","016000,1,N,1","+0080,1","+0046,1","99999,9","12,0000,9,1","24,0000,9,1",,,,,"08,99,1,05,1,05,1,00800,1,02,1,99,9","0252,9","01,9","999,+0040,9","999,N,+0080,1","99999,9,09023,1","3,1,005,1,+999,9","3,1495,9",,"SYN100AAXX  19064 08213 12566 83102 10080 20046 39023 48495 53005 60002 8552/ 333 20080 30004 55042 70000;","Q01  00002PRCP24Q02  00002PRCP12"
"08213099999","2010-04-19T09:00:00","4","40.95","-4.1333333","1005.0","SEGOVIA, SP","FM-12","99999","V020","290,1,N,0031,1","22000,1,9,N","018000,1,N,1","+0124,1","+0065,1","99999,9",,,,,,,"04,99,1,04,1,02,1,00800,1,00,1,00,1",,,,,"99999,9,09036,1","2,1,013,1,+999,9","3,1515,9",,"SYN066AAXX  19094 08213 42568 42906 10124 20065 39036 48515 52013 84200;",
"08213099999","2010-04-19T12:00:00","4","40.95","-4.1333333","1005.0","SEGOVIA, SP","FM-12","99999","V020","340,1,N,0031,1","22000,1,9,N","018000,1,N,1","+0154,1","+0069,1","99999,9","06,0000,9,1",,,,,,"04,99,1,04,1,02,1,00800,1,00,1,00,1",,,,,"99999,9,09038,1","0,1,002,1,+999,9","3,1522,9",,"SYN082AAXX  19124 08213 12568 43406 10154 20069 39038 48522 50002 60001 84200 333 50160;","Q01  00002PRCP06"
"08213099999","2010-04-19T15:00:00","4","40.95","-4.1333333","1005.0","SEGOVIA, SP","FM-12","99999","V020","240,1,N,0031,1","00750,1,C,N","018000,1,N,1","+0152,1","+0062,1","99999,9",,,,,,"02,1,+00600,1,09,1","07,99,1,07,1,03,1,00800,1,00,1,00,1",,,,,"99999,9,09038,1","0,1,000,1,+999,9","3,1522,9",,"SYN076AAXX  19154 08213 42568 72406 10152 20062 39038 48522 50000 87300 333 82920;",
"08213099999","2010-04-19T18:00:00","4","40.95","-4.1333333","1005.0","SEGOVIA, SP","FM-12","99999","V020","300,1,N,0010,1","22000,1,9,N","018000,1,N,1","+0160,1","+0047,1","99999,9","12,0000,9,1",,,,,"02,1,+00600,1,09,1","05,99,1,04,1,03,1,00800,1,00,1,01,1",,,,"120,M,+0176,1","99999,9,09030,1","7,1,008,1,+999,9","3,1516,9",,"SYN088AAXX  19184 08213 12568 53002 10160 20047 39030 48516 57008 60002 84301 333 10176 82920;","Q01  00002PRCP12"
"08213099999","2010-04-20T06:00:00","4","40.95","-4.1333333","1005.0","SEGOVIA, SP","FM-12","99999","V020","080,1,N,0015,1","99999,9,9,N","020000,1,N,1","+0072,1","+0042,1","99999,9","12,0000,9,1","24,0000,9,1",,,,,"06,99,1,00,1,00,1,99999,9,00,1,08,1","0516,9","09,9","999,+0050,9","999,N,+0072,1","99999,9,09039,1","5,1,000,1,+999,9","3,1508,9",,"SYN100AAXX  20064 08213 12970 60803 10072 20042 39039 48508 55000 60002 80008 333 20072 31005 55086 70000;","Q01  00002PRCP24Q02  00002PRCP12"
"08213099999","2010-04-20T09:00:00","4","40.95","-4.1333333","1005.0","SEGOVIA, SP","FM-12","99999","V020","100,1,N,0015,1","09000,1,9,N","020000,1,N,1","+0150,1","+0068,1","99999,9",,,,,,,"07,99,1,01,1,02,1,00800,1,00,1,08,1",,,,,"99999,9,09040,1","0,1,001,1,+999,9","3,1524,9",,"SYN066AAXX  20094 08213 42570 71003 10150 20068 39040 48524 50001 81208;",
"08213099999","2010-04-20T12:00:00","4","40.95","-4.1333333","1005.0","SEGOVIA, SP","FM-12","99999","V020","280,1,N,0041,1","03600,1,9,N","018000,1,N,1","+0174,1","+0066,1","99999,9","06,0000,9,1",,,,,,"08,99,1,04,1,08,1,00800,1,02,1,99,9",,,,,"99999,9,09036,1","7,1,004,1,+999,9","3,1524,9",,"SYN082AAXX  20124 08213 12568 82808 10174 20066 39036 48524 57004 60001 8482/ 333 50360;","Q01  00002PRCP06"
"08213099999","2010-04-20T15:00:00","4","40.95","-4.1333333","1005.0","SEGOVIA, SP","FM-12","99999","V020","350,1,N,0031,1","03600,1,9,N","018000,1,N,1","+0194,1","+0068,1","99999,9",,,,,,,"07,99,1,03,1,02,1,00800,1,04,1,06,1",,,,,"99999,9,09028,1","8,1,008,1,+999,9","3,1520,9",,"SYN066AAXX  20154 08213 42568 73506 10194 20068 39028 48520 58008 83246;",
"08213099999","2010-04-20T18:00:00","4","40.95","-4.1333333","1005.0","SEGOVIA, SP","FM-12","99999","V020","140,1,N,0041,1","03600,1,9,N","018000,1,N,1","+0178,1","+0040,1","99999,9","12,0000,9,1",,,,,,"07,99,1,02,1,02,1,00800,1,05,1,06,1",,,,"999,M,+0200,1","99999,9,09025,1","7,1,003,1,+999,9","3,1514,9",,"SYN082AAXX  20184 08213 12568 71408 10178 20040 39025 48514 57003 60002 82256 333 10200;","Q01  00002PRCP12"
"08213099999","2010-04-21T06:00:00","4","40.95","-4.1333333","1005.0","SEGOVIA, SP","FM-12","99999","V020","260,1,N,0010,1","09000,1,9,N","012000,1,N,1","+0106,1","+0058,1","99999,9","12,0000,9,1","24,0000,9,1",,,,,"05,99,1,02,1,04,1,00800,1,04,1,01,1","0510,9","09,9","999,+0040,9","999,N,+0100,1","99999,9,09004,1","6,1,005,1,+999,9","3,1483,9",,"SYN100AAXX  21064 08213 12562 52602 10106 20058 39004 48483 56005 60002 82441 333 20100 31004 55085 70000;","Q01  00002PRCP24Q02  00002PRCP12"
"08213099999","2010-04-21T09:00:00","4","40.95","-4.1333333","1005.0","SEGOVIA, SP","FM-12","99999","V020","080,1,N,0010,1","09000,1,9,N","012000,1,N,1","+0188,1","+0063,1","99999,9",,,,,,,"05,99,1,02,1,04,1,00800,1,04,1,01,1",,,,,"99999,9,09003,1","8,1,001,1,+999,9","3,1496,9",,"SYN066AAXX  21094 08213 42562 50802 10188 20063 39003 48496 58001 82441;",
"08213099999","2010-04-21T12:00:00","4","40.95","-4.1333333","1005.0","SEGOVIA, SP","FM-12","99999","V020","210,1,N,0051,1","03600,1,9,N","012000,1,N,1","+0193,1","+0046,1","99999,9","06,9999,9,9",,,"2,1,06,1","2,1,06,1",,"08,99,1,04,1,04,1,00800,1,07,1,08,1",,,,,"99999,9,09001,1","8,1,002,1,+999,9","3,1494,9","60,1","SYN088AAXX  21124 08213 11562 82110 10193 20046 39001 48494 58002 69901 76022 84478 333 50360;","Q01  00002PRCP06Q02  00002PRCP06"
"08213099999","2010-04-21T15:00:00","4","40.95","-4.1333333","1005.0","SEGOVIA, SP","FM-12","99999","V020","190,1,N,0041,1","03600,1,9,N","012000,1,N,1","+0178,1","+0072,1","99999,9",,,,"4,1,03,1","4,1,03,1",,"08,99,1,04,1,08,1,00800,1,07,1,08,1",,,,,"99999,9,08990,1","6,1,011,1,+999,9","3,1482,9","60,1","SYN072AAXX  21154 08213 41562 81908 10178 20072 38990 48482 56011 76044 84878;",
"08213099999","2010-04-21T18:00:00","4","40.95","-4.1333333","1005.0","SEGOVIA, SP","FM-12","99999","V020","150,1,N,0051,1","03600,1,9,N","012000,1,N,1","+0168,1","+0074,1","99999,9","12,0000,2,1",,,"2,1,06,1","2,1,06,1",,"08,99,1,04,1,08,1,00800,1,07,1,08,1",,,,"999,M,+0204,1","99999,9,08982,1","8,1,008,1,+999,9","3,1473,9","15,1","SYN088AAXX  21184 08213 11562 81510 10168 20074 38982 48473 58008 69902 71522 84878 333 10204;",
"08213099999","2010-04-22T06:00:00","4","40.95","-4.1333333","1005.0","SEGOVIA, SP","FM-12","99999","V020","110,1,N,0026,1","00750,1,9,N","004000,1,N,1","+0100,1","+0089,1","99999,9","12,0061,9,2","24,0056,9,2",,"6,1,06,1","2,1,06,1",,"08,99,1,05,1,07,1,00800,1,07,1,08,1","0300,9","11,9","999,+0050,9","999,N,+0100,1","99999,9,08965,1","6,1,004,1,+999,9","3,1446,9","61,1","SYN106AAXX  22064 08213 11540 81105 10100 20089 38965 48446 56004 60062 76162 85778 333 20100 32005 55050 70056;",
"08213099999","2010-04-22T09:00:00","4","40.95","-4.1333333","1005.0","SEGOVIA, SP","FM-12","99999","V020","200,1,N,0021,1","00750,1,9,N","010000,1,N,1","+0110,1","+0091,1","99999,9",,,,"6,1,03,1","2,1,03,1",,"08,99,1,05,1,07,1,00800,1,07,1,08,1",,,,,"99999,9,08968,1","3,1,003,1,+999,9","3,1451,9","02,1","SYN072AAXX  22094 08213 41560 82004 10110 20091 38968 48451 53003 70262 85778;",
"08213099999","2010-04-22T12:00:00","4","40.95","-4.1333333","1005.0","SEGOVIA, SP","FM-12","99999","V020","250,1,N,0021,1","22000,1,9,N","012000,1,N,1","+0162,1","+0079,1","99999,9","06,0005,9,1",,,"6,1,06,1","1,1,06,1","01,1,+00600,1,09,1","04,99,1,03,1,03,1,00800,1,04,1,01,1",,,,,"99999,9,08956,1","8,1,012,1,+999,9","3,1447,9","03,1","SYN094AAXX  22124 08213 11562 42504 10162 20079 38956 48447 58012 69941 70361 83341 333 50280 81920;",
"08213099999","2010-04-22T15:00:00","4","40.95","-4.1333333","1005.0","SEGOVIA, SP","FM-12","99999","V020","280,1,N,0062,1","03600,1,9,N","012000,1,N,1","+0155,1","+0087,1","99999,9",,,,,,"01,1,+00600,1,09,1","06,99,1,04,1,03,1,00800,1,04,1,01,1",,,,,"99999,9,08954,1","8,1,002,1,+999,9","3,1445,9",,"SYN076AAXX  22154 08213 42562 62812 10155 20087 38954 48445 58002 84341 333 81920;",
"08213099999","2010-04-22T18:00:00","4","40.95","-4.1333333","1005.0","SEGOVIA, SP","FM-12","99999","V020","320,1,N,0021,1","00750,1,C,N","012000,1,N,1","+0145,1","+0082,1","99999,9","12,0000,2,1",,,"2,1,06,1","2,1,06,1","01,1,+00600,1,09,1","07,99,1,05,1,03,1,00800,1,07,1,01,1",,,,"120,M,+0172,1","99999,9,08958,1","3,1,004,1,+999,9","3,1447,9","60,1","SYN094AAXX  22184 08213 11562 73204 10145 20082 38958 48447 53004 60002 76022 85371 333 10172 81920;",
"08213099999","2010-04-23T06:00:00","4","40.95","-4.1333333","1005.0","SEGOVIA, SP","FM-12","99999","V020","260,1,N,0021,1","00750,1,9,N","002000,1,N,1","+0097,1","+0091,1","99999,9","12,0030,9,1","24,0030,9,1",,"6,1,06,1","2,1,06,1",,"08,99,1,08,1,06,1,00800,1,99,9,99,9","0384,9","11,9","999,+0040,9","999,N,+0085,1","99999,9,08986,1","3,1,002,1,+999,9","3,1465,9","10,1","SYN106AAXX  23064 08213 11520 82604 10097 20091 38986 48465 53002 60032 71062 886// 333 20085 32004 55064 70031;",
"08213099999","2010-04-23T09:00:00","4","40.95","-4.1333333","1005.0","SEGOVIA, SP","FM-12","99999","V020","260,1,N,0031,1","00750,1,C,N","004000,1,N,1","+0122,1","+0098,1","99999,9",,,,"2,1,03,1","2,1,03,1","01,1,+00600,1,09,1","05,99,1,05,1,03,1,00800,1,00,1,00,1",,,,,"99999,9,08990,1","1,1,004,1,+999,9","3,1473,9","10,1","SYN082AAXX  23094 08213 41540 52606 10122 20098 38990 48473 51004 71022 85300 333 81920;",
"08213099999","2010-04-23T12:00:00","4","40.95","-4.1333333","1005.0","SEGOVIA, SP","FM-12","99999","V020","260,1,N,0026,1","22000,1,9,N","020000,1,N,1","+0154,1","+0095,1","99999,9","06,0000,9,1",,,,,,"03,99,1,02,1,05,1,00800,1,00,1,01,1",,,,,"99999,9,08996,1","1,1,006,1,+999,9","3,1484,9",,"SYN082AAXX  23124 08213 12570 32605 10154 20095 38996 48484 51006 60001 82501 333 50220;","Q01  00002PRCP06"
"08213099999","2010-04-23T15:00:00","4","40.95","-4.1333333","1005.0","SEGOVIA, SP","FM-12","99999","V020","310,1,N,0015,1","22000,1,9,N","020000,1,N,1","+0172,1","+0073,1","99999,9",,,,,,"01,1,+00600,1,09,1","03,99,1,02,1,03,1,00800,1,00,1,01,1",,,,,"99999,9,08992,1","8,1,004,1,+999,9","3,1483,9",,"SYN076AAXX  23154 08213 42570 33103 10172 20073 38992 48483 58004 82301 333 81920;",
"08213099999","2010-04-23T18:00:00","4","40.95","-4.1333333","1005.0","SEGOVIA, SP","FM-12","99999","V020","320,1,N,0021,1","22000,1,9,N","020000,1,N,1","+0172,1","+0049,1","99999,9","12,0000,9,1",,,,,,"02,99,1,01,1,05,1,00800,1,00,1,02,1",,,,"999,M,+0185,1","99999,9,08995,1","3,1,003,1,+999,9","3,1485,9",,"SYN082AAXX  23184 08213 12570 23204 10172 20049 38995 48485 53003 60002 81502 333 10185;","Q01  00002PRCP12"
"08213099999","2010-04-24T06:00:00","4","40.95","-4.1333333","1005.0","SEGOVIA, SP","FM-12","99999","V020","080,1,N,0015,1","22000,1,9,N","018000,1,N,1","+0082,1","+0055,1","99999,9","12,0000,9,1","24,0000,9,1",,,,,"01,99,1,01,1,00,1,01750,1,03,1,00,1","0582,9","09,9","999,+0010,9","999,N,+0075,1","99999,9,09021,1","3,1,005,1,+999,9","3,1494,9",,"SYN100AAXX  24064 08213 12768 10803 10082 20055 39021 48494 53005 60002 81030 333 20075 31001 55097 70000;","Q01  00002PRCP24Q02  00002PRCP12"
"08213099999","2010-04-24T09:00:00","4","40.95","-4.1333333","1005.0","SEGOVIA, SP","FM-12","99999","V020","340,1,N,0021,1","22000,1,9,N","012000,1,N,1","+0150,1","+0087,1","99999,9",,,,,,,"01,99,1,01,1,05,1,00800,1,00,1,00,1",,,,,"99999,9,09029,1","1,1,008,1,+999,9","3,1514,9",,"SYN066AAXX  24094 08213 42562 13404 10150 20087 39029 48514 51008 81500;",
"08213099999","2010-04-24T12:00:00","4","40.95","-4.1333333","1005.0","SEGOVIA, SP","FM-12","99999","V020","230,1,N,0026,1","22000,1,9,N","020000,1,N,1","+0190,1","+0086,1","99999,9","06,0000,9,1",,,,,,"03,99,1,03,1,05,1,00800,1,00,1,00,1",,,,,"99999,9,09034,1","1,1,005,1,+999,9","3,1525,9",,"SYN082AAXX  24124 08213 12570 32305 10190 20086 39034 48525 51005 60001 83500 333 50280;","Q01  00002PRCP06"
"08213099999","2010-04-24T18:00:00","4","40.95","-4.1333333","1005.0","SEGOVIA, SP","FM-12","99999","V020","230,1,N,0051,1","00750,1,9,N","020000,1,N,1","+0176,1","+0095,1","99999,9","12,0000,9,1",,,,,,"06,99,1,05,1,05,1,00800,1,00,1,02,1",,,,"999,M,+0214,1","99999,9,09039,1","2,1,009,1,+999,9","3,1528,9",,"SYN082AAXX  24184 08213 12570 62310 10176 20095 39039 48528 52009 60002 85502 333 10214;","Q01  00002PRCP12"
"08213099999","2010-04-25T06:00:00","4","40.95","-4.1333333","1005.0","SEGOVIA, SP","FM-12","99999","V020","080,1,N,0010,1","22000,1,9,N","012000,1,N,1","+0108,1","+0079,1","99999,9","12,0000,9,1","24,0000,9,1",,,,,"02,99,1,01,1,00,1,01750,1,03,1,01,1","0618,9","01,9","999,+0030,9","999,N,+0100,1","99999,9,09078,1","2,1,005,1,+999,9","3,1551,9",,"SYN100AAXX  25064 08213 12762 20802 10108 20079 39078 48551 52005 60002 81031 333 20100 30003 55103 70000;","Q01  00002PRCP24Q02  00002PRCP12"
"08213099999","2010-04-25T09:00:00","4","40.95","-4.1333333","1005.0","SEGOVIA, SP","FM-12","99999","V020","260,1,N,0021,1","22000,1,9,N","012000,1,N,1","+0152,1","+0098,1","99999,9",,,,,,"01,1,+00600,1,09,1","01,99,1,01,1,03,1,00800,1,00,1,00,1",,,,,"99999,9,09094,1","2,1,016,1,+999,9","3,1574,9",,"SYN076AAXX  25094 08213 42562 12604 10152 20098 39094 48574 52016 81300 333 81920;",
"08213099999","2010-04-25T12:00:00","4","40.95","-4.1333333","1005.0","SEGOVIA, SP","FM-12","99999","V020","290,1,N,0031,1","22000,1,9,N","018000,1,N,1","+0203,1","+0110,1","99999,9","06,0000,9,1",,,,,"01,1,+00600,1,09,1","02,99,1,02,1,03,1,00800,1,00,1,00,1",,,,,"99999,9,09091,1","8,1,003,1,+999,9","3,1582,9",,"SYN088AAXX  25124 08213 12568 22906 10203 20110 39091 48582 58003 60001 82300 333 50410 81920;","Q01  00002PRCP06"
"08213099999","2010-04-25T15:00:00","4","40.95","-4.1333333","1005.0","SEGOVIA, SP","FM-12","99999","V020","010,1,N,0026,1","22000,1,9,N","020000,1,N,1","+0226,1","+0094,1","99999,9",,,,,,"01,1,+00600,1,09,1","03,99,1,03,1,03,1,00800,1,00,1,00,1",,,,,"99999,9,09082,1","7,1,009,1,+999,9","3,1578,9",,"SYN076AAXX  25154 08213 42570 30105 10226 20094 39082 48578 57009 83300 333 81920;",
"08213099999","2010-04-25T18:00:00","4","40.95","-4.1333333","1005.0","SEGOVIA, SP","FM-12","99999","V020","230,1,N,0026,1","22000,1,9,N","018000,1,N,1","+0204,1","+0093,1","99999,9","12,0000,9,1",,,,,"01,1,+00600,1,09,1","03,99,1,02,1,03,1,00800,1,00,1,02,1",,,,"120,M,+0235,1","99999,9,09088,1","3,1,006,1,+999,9","3,1579,9",,"SYN088AAXX  25184 08213 12568 32305 10204 20093 39088 48579 53006 60002 82302 333 10235 81920;","Q01  00002PRCP12"
"08213099999","2010-04-26T06:00:00","4","40.95","-4.1333333","1005.0","SEGOVIA, SP","FM-12","99999","V020","070,1,N,0015,1","22000,1,9,N","012000,1,N,1","+0120,1","+0081,1","99999,9","12,0000,9,1","24,0000,9,1",,,,,"02,99,1,00,1,00,1,99999,9,00,1,01,1","0648,9","01,9","999,+0060,9","999,N,+0110,1","99999,9,09110,1","3,1,003,1,+999,9","3,1582,9",,"SYN100AAXX  26064 08213 12962 20703 10120 20081 39110 48582 53003 60002 80001 333 20110 30006 55108 70000;","Q01  00002PRCP24Q02  00002PRCP12"
"08213099999","2010-04-26T09:00:00","4","40.95","-4.1333333","1005.0","SEGOVIA, SP","FM-12","99999","V020","300,1,N,0021,1","22000,1,9,N","012000,1,N,1","+0196,1","+0116,1","99999,9",,,,,,,"02,99,1,00,1,00,1,99999,9,00,1,01,1",,,,,"99999,9,09116,1","1,1,006,1,+999,9","3,1604,9",,"SYN066AAXX  26094 08213 42962 23004 10196 20116 39116 48604 51006 80001;",
"08213099999","2010-04-26T12:00:00","4","40.95","-4.1333333","1005.0","SEGOVIA, SP","FM-12","99999","V020","300,1,N,0041,1","22000,1,9,N","012000,1,N,1","+0230,1","+0075,1","99999,9","06,0000,9,1",,,,,,"03,99,1,02,1,02,1,00800,1,00,1,01,1",,,,,"99999,9,09113,1","8,1,003,1,+999,9","3,1607,9",,"SYN082AAXX  26124 08213 12562 33008 10230 20075 39113 48607 58003 60001 82201 333 50540;","Q01  00002PRCP06"
"08213099999","2010-04-26T15:00:00","4","40.95","-4.1333333","1005.0","SEGOVIA, SP","FM-12","99999","V020","010,1,N,0026,1","22000,1,9,N","015000,1,N,1","+0238,1","+0047,1","99999,9",,,,,,,"04,99,1,02,1,02,1,00800,1,00,1,01,1",,,,,"99999,9,09098,1","7,1,015,1,+999,9","3,1594,9",,"SYN066AAXX  26154 08213 42565 40105 10238 20047 39098 48594 57015 82201;",
"08213099999","2010-04-26T18:00:00","4","40.95","-4.1333333","1005.0","SEGOVIA, SP","FM-12","99999","V020","330,1,N,0021,1","22000,1,9,N","020000,1,N,1","+0230,1","+0054,1","99999,9","12,0000,9,1",,,,,,"03,99,1,01,1,02,1,00800,1,00,1,01,1",,,,"999,M,+0245,1","99999,9,09096,1","6,1,002,1,+999,9","3,1591,9",,"SYN082AAXX  26184 08213 12570 33304 10230 20054 39096 48591 56002 60002 81201 333 10245;","Q01  00002PRCP12"
"08213099999","2010-04-27T06:00:00","4","40.95","-4.1333333","1005.0","SEGOVIA, SP","FM-12","99999","V020","080,1,N,0021,1","22000,1,9,N","015000,1,N,1","+0136,1","+0074,1","99999,9","12,0000,9,1","24,0000,9,1",,,,,"02,99,1,01,1,00,1,01750,1,04,1,01,1","0738,9","09,9","999,+0050,9","999,N,+0120,1","99999,9,09100,1","6,1,003,1,+999,9","3,1576,9",,"SYN100AAXX  27064 08213 12765 20804 10136 20074 39100 48576 56003 60002 81041 333 20120 31005 55123 70000;","Q01  00002PRCP24Q02  00002PRCP12"
"08213099999","2010-04-27T09:00:00","4","40.95","-4.1333333","1005.0","SEGOVIA, SP","FM-12","99999","V020","230,1,N,0015,1","22000,1,9,N","012000,1,N,1","+0202,1","+0095,1","99999,9",,,,,,,"02,99,1,01,1,00,1,01750,1,04,1,01,1",,,,,"99999,9,09104,1","1,1,004,1,+999,9","3,1594,9",,"SYN066AAXX  27094 08213 42762 22303 10202 20095 39104 48594 51004 81041;",
"08213099999","2010-04-27T12:00:00","4","40.95","-4.1333333","1005.0","SEGOVIA, SP","FM-12","99999","V020","270,1,N,0036,1","22000,1,9,N","015000,1,N,1","+0234,1","+0067,1","99999,9","06,0000,9,1",,,,,,"03,99,1,01,1,02,1,00800,1,04,1,01,1",,,,,"99999,9,09100,1","8,1,004,1,+999,9","3,1596,9",,"SYN082AAXX  27124 08213 12565 32707 10234 20067 39100 48596 58004 60001 81241 333 50430;","Q01  00002PRCP06"
"08213099999","2010-04-27T15:00:00","4","40.95","-4.1333333","1005.0","SEGOVIA, SP","FM-12","99999","V020","300,1,N,0026,1","03600,1,9,N","015000,1,N,1","+0244,1","+0080,1","99999,9",,,,,,,"06,99,1,01,1,04,1,00800,1,04,1,08,1",,,,,"99999,9,09086,1","7,1,014,1,+999,9","3,1585,9",,"SYN066AAXX  27154 08213 42565 63005 10244 20080 39086 48585 57014 81448;",
"08213099999","2010-04-27T18:00:00","4","40.95","-4.1333333","1005.0","SEGOVIA, SP","FM-12","99999","V020","330,1,N,0036,1","03600,1,9,N","015000,1,N,1","+0224,1","+0074,1","99999,9","12,0000,9,1",,,,,,"06,99,1,01,1,04,1,00800,1,04,1,08,1",,,,"999,M,+0252,1","99999,9,09081,1","6,1,005,1,+999,9","3,1576,9",,"SYN082AAXX  27184 08213 12565 63307 10224 20074 39081 48576 56005 60002 81448 333 10252;","Q01  00002PRCP12"
"08213099999","2010-04-28T06:00:00","4","40.95","-4.1333333","1005.0","SEGOVIA, SP","FM-12","99999","V020","040,1,N,0010,1","22000,1,9,N","018000,1,N,1","+0141,1","+0065,1","99999,9","12,0000,9,1","24,0000,9,1",,,,,"02,99,1,01,1,00,1,01750,1,03,1,02,1","0678,9","01,9","999,+0060,9","999,N,+0126,1","99999,9,09074,1","7,1,005,1,+999,9","3,1553,9",,"SYN100AAXX  28064 08213 12768 20402 10141 20065 39074 48553 57005 60002 81032 333 20126 30006 55113 70000;","Q01  00002PRCP24Q02  00002PRCP12"
"08213099999","2010-04-28T09:00:00","4","40.95","-4.1333333","1005.0","SEGOVIA, SP","FM-12","99999","V020","300,1,N,0021,1","22000,1,9,N","015000,1,N,1","+0215,1","+0112,1","99999,9",,,,,,,"02,99,1,00,1,00,1,99999,9,00,1,02,1",,,,,"99999,9,09076,1","2,1,002,1,+999,9","3,1570,9",,"SYN066AAXX  28094 08213 42965 23004 10215 20112 39076 48570 52002 80002;",
"08213099999","2010-04-28T12:00:00","4","40.95","-4.1333333","1005.0","SEGOVIA, SP","FM-12","99999","V020","190,1,N,0041,1","22000,1,9,N","020000,1,N,1","+0254,1","+0056,1","99999,9","06,0000,9,1",,,,,,"03,99,1,01,1,05,1,00800,1,00,1,01,1",,,,,"99999,9,09059,1","7,1,017,1,+999,9","3,1560,9",,"SYN082AAXX  28124 08213 12570 31908 10254 20056 39059 48560 57017 60001 81501 333 50420;","Q01  00002PRCP06"
"08213099999","2010-04-28T15:00:00","4","40.95","-4.1333333","1005.0","SEGOVIA, SP","FM-12","99999","V020","200,1,N,0051,1","22000,1,9,N","020000,1,N,1","+0252,1","+0054,1","99999,9",,,,,,,"02,99,1,01,1,05,1,00800,1,00,1,01,1",,,,,"99999,9,09065,1","2,1,006,1,+999,9","3,1566,9",,"SYN066AAXX  28154 08213 42570 22010 10252 20054 39065 48566 52006 81501;",
"08213099999","2010-04-28T18:00:00","4","40.95","-4.1333333","1005.0","SEGOVIA, SP","FM-12","99999","V020","180,1,N,0041,1","22000,1,9,N","020000,1,N,1","+0224,1","+0062,1","99999,9","12,0000,9,1",,,,,,"03,99,1,00,1,00,1,99999,9,00,1,01,1",,,,"999,M,+0260,1","99999,9,09057,1","6,1,008,1,+999,9","3,1553,9",,"SYN082AAXX  28184 08213 12970 31808 10224 20062 39057 48553 56008 60002 80001 333 10260;","Q01  00002PRCP12"
"08213099999","2010-04-29T06:00:00","4","40.95","-4.1333333","1005.0","SEGOVIA, SP","FM-12","99999","V020","230,1,N,0015,1","22000,1,9,N","015000,1,N,1","+0164,1","+0068,1","99999,9","12,0000,9,1","24,0000,9,1",,,,,"04,99,1,03,1,00,1,01750,1,07,1,01,1","0672,9","01,9","999,+0120,9","999,N,+0156,1","99999,9,09035,1","6,1,005,1,+999,9","3,1521,9",,"SYN100AAXX  29064 08213 12765 42303 10164 20068 39035 48521 56005 60002 83071 333 20156 30012 55112 70000;","Q01  00002PRCP24Q02  00002PRCP12"
"08213099999","2010-04-29T09:00:00","4","40.95","-4.1333333","1005.0","SEGOVIA, SP","FM-12","99999","V020","200,1,N,0062,1","09000,1,9,N","018000,1,N,1","+0192,1","+0073,1","99999,9",,,,,,,"06,99,1,01,1,05,1,00800,1,07,1,06,1",,,,,"99999,9,09036,1","3,1,001,1,+999,9","3,1527,9",,"SYN066AAXX  29094 08213 42568 62012 10192 20073 39036 48527 53001 81576;",
"08213099999","2010-04-29T12:00:00","4","40.95","-4.1333333","1005.0","SEGOVIA, SP","FM-12","99999","V020","240,1,N,0046,1","22000,1,9,N","020000,1,N,1","+0214,1","+0073,1","99999,9","06,0000,9,1",,,,,,"03,99,1,02,1,05,1,00800,1,00,1,01,1",,,,,"99999,9,09034,1","8,1,002,1,+999,9","3,1530,9",,"SYN082AAXX  29124 08213 12570 32409 10214 20073 39034 48530 58002 60001 82501 333 50550;","Q01  00002PRCP06"
"08213099999","2010-04-29T15:00:00","4","40.95","-4.1333333","1005.0","SEGOVIA, SP","FM-12","99999","V020","250,1,N,0031,1","00750,1,C,N","018000,1,N,1","+0212,1","+0088,1","99999,9",,,,"2,1,03,1","2,1,03,1","02,1,+00600,1,09,1","07,99,1,05,1,09,1,00800,1,06,1,02,1",,,,,"99999,9,09016,1","7,1,018,1,+999,9","3,1512,9","17,1","SYN082AAXX  29154 08213 41568 72506 10212 20088 39016 48512 57018 71722 85962 333 82920;",
"08213099999","2010-04-29T18:00:00","4","40.95","-4.1333333","1005.0","SEGOVIA, SP","FM-12","99999","V020","090,1,N,0031,1","00750,1,C,N","004000,1,N,1","+0153,1","+0122,1","99999,9","12,0099,9,1",,,"9,1,06,1","8,1,06,1","03,1,+00600,1,09,1","07,99,1,06,1,09,1,00800,1,06,1,99,9",,,,"120,M,+0237,1","99999,9,09019,1","0,1,003,1,+999,9","3,1506,9","95,1","SYN094AAXX  29184 08213 11540 70906 10153 20122 39019 48506 50003 60102 79598 8696/ 333 10237 83920;",
"08213099999","2010-04-30T06:00:00","4","40.95","-4.1333333","1005.0","SEGOVIA, SP","FM-12","99999","V020","080,1,N,0010,1","22000,1,9,N","020000,1,N,1","+0106,1","+0087,1","99999,9","12,0010,9,1","24,0114,9,1",,,,,"02,99,1,02,1,02,1,00800,1,00,1,00,1","0366,9","09,9","999,+0060,9","999,N,+0106,1","99999,9,09004,1","6,1,003,1,+999,9","3,1483,9",,"SYN100AAXX  30064 08213 12570 20802 10106 20087 39004 48483 56003 60012 82200 333 20106 31006 55061 70114;",
"08213099999","2010-04-30T09:00:00","4","40.95","-4.1333333","1005.0","SEGOVIA, SP","FM-12","99999","V020","290,1,N,0021,1","22000,1,9,N","020000,1,N,1","+0160,1","+0105,1","99999,9",,,,,,,"05,99,1,02,1,02,1,00800,1,00,1,01,1",,,,,"99999,9,09007,1","3,1,003,1,+999,9","3,1495,9",,"SYN066AAXX  30094 08213 42570 52904 10160 20105 39007 48495 53003 82201;",
"08213099999","2010-04-30T12:00:00","4","40.95","-4.1333333","1005.0","SEGOVIA, SP","FM-12","99999","V020","270,1,N,0057,1","09000,1,9,N","020000,1,N,1","+0196,1","+0067,1","99999,9","06,0000,9,1",,,,,"01,1,+00600,1,09,1","07,99,1,03,1,03,1,00800,1,00,1,06,1",,,,,"99999,9,08997,1","8,1,010,1,+999,9","3,1491,9",,"SYN088AAXX  30124 08213 12570 72711 10196 20067 38997 48491 58010 60001 83306 333 50560 81920;","Q01  00002PRCP06"
"08213099999","2010-04-30T15:00:00","4","40.95","-4.1333333","1005.0","SEGOVIA, SP","FM-12","99999","V020","240,1,N,0051,1","03600,1,9,N","018000,1,N,1","+0196,1","+0083,1","99999,9",,,,,,"01,1,+00600,1,09,1","07,99,1,04,1,03,1,00800,1,02,1,00,1",,,,,"99999,9,08987,1","8,1,010,1,+999,9","3,1482,9",,"SYN076AAXX  30154 08213 42568 72410 10196 20083 38987 48482 58010 84320 333 81920;",
"08213099999","2010-04-30T18:00:00","4","40.95","-4.1333333","1005.0","SEGOVIA, SP","FM-12","99999","V020","280,1,N,0041,1","01200,1,9,N","016000,1,N,1","+0146,1","+0074,1","99999,9","12,0000,9,1",,,,,,"07,99,1,07,1,08,1,00800,1,00,1,00,1",,,,"999,M,+0206,1","99999,9,08987,1","5,1,000,1,+999,9","3,1474,9",,"SYN082AAXX  30184 08213 12566 72808 10146 20074 38987 48474 55000 60002 87800 333 10206;","Q01  00002PRCP12"
"08213099999","2010-05-01T06:00:00","4","40.95","-4.1333333","1005.0","SEGOVIA, SP","FM-12","99999","V020","250,1,N,0036,1","03600,1,9,N","012000,1,N,1","+0104,1","+0080,1","99999,9","12,0000,9,1","24,0000,9,1",,,,,"07,99,1,04,1,05,1,00800,1,02,1,00,1","0426,9","01,9","999,+0080,9","999,N,+0104,1","99999,9,08991,1","5,1,002,1,+999,9","3,1471,9",,"SYN100AAXX  01064 08213 12562 72507 10104 20080 38991 48471 55002 60002 84520 333 20104 30008 55071 70000;","Q01  00002PRCP24Q02  00002PRCP12"
"08213099999","2010-05-01T09:00:00","4","40.95","-4.1333333","1005.0","SEGOVIA, SP","FM-12","99999","V020","280,1,N,0041,1","00750,1,9,N","012000,1,N,1","+0106,1","+0078,1","99999,9",,,,,,,"08,99,1,05,1,05,1,00800,1,02,1,99,9",,,,,"99999,9,08995,1","1,1,004,1,+999,9","3,1475,9",,"SYN066AAXX  01094 08213 42562 82808 10106 20078 38995 48475 51004 8552/;",
"08213099999","2010-05-01T12:00:00","4","40.95","-4.1333333","1005.0","SEGOVIA, SP","FM-12","99999","V020","260,1,N,0010,1","00750,1,C,N","012000,1,N,1","+0126,1","+0079,1","99999,9","06,0000,9,1",,,,,"02,1,+00600,1,09,1","07,99,1,07,1,03,1,00800,1,00,1,00,1",,,,,"99999,9,08998,1","1,1,003,1,+999,9","3,1481,9",,"SYN088AAXX  01124 08213 12562 72602 10126 20079 38998 48481 51003 60001 87300 333 50340 82920;","Q01  00002PRCP06"
"08213099999","2010-05-01T15:00:00","4","40.95","-4.1333333","1005.0","SEGOVIA, SP","FM-12","99999","V020","340,1,N,0036,1","00750,1,C,N","016000,1,N,1","+0172,1","+0091,1","99999,9",,,,,,"03,1,+00600,1,09,1","07,99,1,07,1,03,1,00800,1,00,1,00,1",,,,,"99999,9,08993,1","8,1,005,1,+999,9","3,1484,9",,"SYN076AAXX  01154 08213 42566 73407 10172 20091 38993 48484 58005 87300 333 83920;",
"08213099999","2010-05-01T18:00:00","4","40.95","-4.1333333","1005.0","SEGOVIA, SP","FM-12","99999","V020","030,1,N,0026,1","22000,1,9,N","018000,1,N,1","+0152,1","+0072,1","99999,9","12,0000,9,1",,,,,"01,1,+00600,1,09,1","03,99,1,03,1,03,1,00800,1,00,1,00,1",,,,"120,M,+0178,1","99999,9,08994,1","3,1,001,1,+999,9","3,1481,9",,"SYN088AAXX  01184 08213 12568 30305 10152 20072 38994 48481 53001 60002 83300 333 10178 81920;","Q01  00002PRCP12"
"08213099999","2010-05-02T06:00:00","4","40.95","-4.1333333","1005.0","SEGOVIA, SP","FM-12","99999","V020","160,1,N,0010,1","22000,1,9,N","020000,1,N,1","+0080,1","+0049,1","99999,9","12,0000,9,1","24,0000,9,1",,,,,"02,99,1,01,1,00,1,01750,1,04,1,01,1","0216,9","09,9","999,+0030,9","999,N,+0080,1","99999,9,09004,1","6,1,004,1,+999,9","3,1478,9",,"SYN100AAXX  02064 08213 12770 21602 10080 20049 39004 48478 56004 60002 81041 333 20080 31003 55036 70000;","Q01  00002PRCP24Q02  00002PRCP12"
"08213099999","2010-05-02T09:00:00","4","40.95","-4.1333333","1005.0","SEGOVIA, SP","FM-12","99999","V020","260,1,N,0031,1","01200,1,9,N","018000,1,N,1","+0130,1","+0068,1","99999,9",,,,,,,"07,99,1,07,1,08,1,00800,1,00,1,00,1",,,,,"99999,9,09009,1","1,1,005,1,+999,9","3,1491,9",,"SYN066AAXX  02094 08213 42568 72606 10130 20068 39009 48491 51005 87800;",
"08213099999","2010-05-02T12:00:00","4","40.95","-4.1333333","1005.0","SEGOVIA, SP","FM-12","99999","V020","320,1,N,0021,1","00750,1,C,N","018000,1,N,1","+0154,1","+0069,1","99999,9","06,0000,9,1",,,,,"03,1,+00600,1,09,1","07,99,1,07,1,03,1,00800,1,00,1,00,1",,,,,"99999,9,09002,1","8,1,007,1,+999,9","3,1489,9",,"SYN088AAXX  02124 08213 12568 73204 10154 20069 39002 48489 58007 60001 87300 333 50160 83920;","Q01  00002PRCP06"
"08213099999","2010-05-02T15:00:00","4","40.95","-4.1333333","1005.0","SEGOVIA, SP","FM-12","99999","V020","310,1,N,0036,1","00750,1,C,N","018000,1,N,1","+0176,1","+0059,1","99999,9",,,,,,"03,1,+00600,1,09,1","07,99,1,07,1,03,1,00800,1,00,1,00,1",,,,,"99999,9,08985,1","7,1,017,1,+999,9","3,1477,9",,"SYN076AAXX  02154 08213 42568 73107 10176 20059 38985 48477 57017 87300 333 83920;",
"08213099999","2010-05-02T18:00:00","4","40.95","-4.1333333","1005.0","SEGOVIA, SP","FM-12","99999","V020","310,1,N,0036,1","22000,1,9,N","018000,1,N,1","+0168,1","+0038,1","99999,9","12,0000,9,1",,,,,"01,1,+00600,1,09,1","04,99,1,04,1,03,1,00800,1,00,1,00,1",,,,"120,M,+0186,1","99999,9,08975,1","7,1,010,1,+999,9","3,1466,9",,"SYN088AAXX  02184 08213 12568 43107 10168 20038 38975 48466 57010 60002 84300 333 10186 81920;","Q01  00002PRCP12"
"08213099999","2010-05-03T06:00:00","4","40.95","-4.1333333","1005.0","SEGOVIA, SP","FM-12","99999","V020","350,1,N,0041,1","00750,1,9,N","004000,1,N,1","+0046,1","+0020,1","99999,9","12,0000,9,1","24,0000,9,1",,"2,1,06,1","2,1,06,1",,"07,99,1,07,1,05,1,00800,1,99,9,99,9","0606,9","01,9","999,+0030,9","999,N,+0043,1","99999,9,08987,1","6,1,005,1,+999,9","3,1457,9","10,1","SYN106AAXX  03064 08213 11540 73508 10046 20020 38987 48457 56005 60002 71022 875// 333 20043 30003 55101 70000;","Q01  00002PRCP24Q02  00002PRCP12"
"08213099999","2010-05-03T09:00:00","4","40.95","-4.1333333","1005.0","SEGOVIA, SP","FM-12","99999","V020","350,1,N,0072,1","00750,1,9,N","018000,1,N,1","+0065,1","+0008,1","99999,9",,,,,,,"07,99,1,07,1,05,1,00800,1,99,9,99,9",,,,,"99999,9,08991,1","2,1,004,1,+999,9","3,1463,9",,"SYN066AAXX  03094 08213 42568 73514 10065 20008 38991 48463 52004 875//;",
"08213099999","2010-05-03T12:00:00","4","40.95","-4.1333333","1005.0","SEGOVIA, SP","FM-12","99999","V020","330,1,N,0051,1","00750,1,C,N","012000,1,N,1","+0068,1","+0032,1","99999,9","06,0003,9,1",,,"6,1,06,1","2,1,06,1","02,1,+00600,1,09,1","05,99,1,05,1,03,1,00800,1,00,1,00,1",,,,,"99999,9,08994,1","1,1,003,1,+999,9","3,1467,9","21,1","SYN094AAXX  03124 08213 11562 53310 10068 20032 38994 48467 51003 69931 72162 85300 333 50360 82920;",
"08213099999","2010-05-03T15:00:00","4","40.95","-4.1333333","1005.0","SEGOVIA, SP","FM-12","99999","V020","360,1,N,0098,1","22000,1,9,N","004000,1,N,1","+0098,1","-0010,1","99999,9",,,,"8,1,03,1","6,1,03,1","02,1,+00600,1,09,1","05,99,1,04,1,09,1,00800,1,00,1,01,1",,,,,"99999,9,08989,1","6,1,005,1,+999,9","3,1467,9","16,1","SYN082AAXX  03154 08213 41540 53619 10098 21010 38989 48467 56005 71686 84901 333 82920;",
"08213099999","2010-05-03T18:00:00","4","40.95","-4.1333333","1005.0","SEGOVIA, SP","FM-12","99999","V020","010,1,N,0072,1","03600,1,9,N","012000,1,N,1","+0073,1","-0022,1","99999,9","12,0000,2,1",,,"8,1,06,1","2,1,06,1","01,1,+00600,1,09,1","05,99,1,03,1,03,1,00800,1,06,1,01,1",,,,"120,M,+0107,1","99999,9,08994,1","2,1,005,1,+999,9","3,1467,9","03,1","SYN094AAXX  03184 08213 11562 50114 10073 21022 38994 48467 52005 60002 70382 83361 333 10107 81920;",
"08213099999","2010-05-04T06:00:00","4","40.95","-4.1333333","1005.0","SEGOVIA, SP","FM-12","99999","V020","330,1,N,0041,1","00750,1,9,N","004000,1,N,1","+0020,1","-0011,1","99999,9","12,9999,9,9","24,0003,9,1",,"7,1,06,1","2,1,06,1",,"08,99,1,08,1,07,1,00800,1,99,9,99,9","0360,9","09,9","999,-0010,9","999,N,+0007,1","99999,9,08994,1","6,1,003,1,+999,9","3,1459,9","71,1","SYN106AAXX  04064 08213 11540 83308 10020 21011 38994 48459 56003 69922 77172 887// 333 20007 31101 55060 70002;","Q01  00002PRCP12Q02  00002PRCP12"
"08213099999","2010-05-04T09:00:00","4","40.95","-4.1333333","1005.0","SEGOVIA, SP","FM-12","99999","V020","010,1,N,0057,1","00750,1,9,N","015000,1,N,1","+0030,1","-0021,1","99999,9",,,,"7,1,03,1","2,1,03,1",,"08,99,1,08,1,07,1,00800,1,99,9,99,9",,,,,"99999,9,08995,1","3,1,001,1,+999,9","3,1461,9","02,1","SYN072AAXX  04094 08213 41565 80111 10030 21021 38995 48461 53001 70272 887//;",
"08213099999","2010-05-04T12:00:00","4","40.95","-4.1333333","1005.0","SEGOVIA, SP","FM-12","99999","V020","360,1,N,0087,1","00750,1,9,N","012000,1,N,1","+0046,1","-0049,1","99999,9","06,0000,2,1",,,"7,1,06,1","7,1,06,1",,"08,99,1,08,1,05,1,00800,1,99,9,99,9",,,,,"99999,9,09003,1","2,1,008,1,+999,9","3,1471,9","02,1","SYN088AAXX  04124 08213 11562 83617 10046 21049 39003 48471 52008 69911 70277 885// 333 50170;",
"08213099999","2010-05-04T18:00:00","4","40.95","-4.1333333","1005.0","SEGOVIA, SP","FM-12","99999","V020","020,1,N,0046,1","03600,1,9,N","018000,1,N,1","+0054,1","-0053,1","99999,9","12,0003,9,1",,,,,,"05,99,1,03,1,05,1,00800,1,04,1,02,1",,,,"999,M,+0067,1","99999,9,09007,1","2,1,001,1,+999,9","3,1476,9",,"SYN082AAXX  04184 08213 12568 50209 10054 21053 39007 48476 52001 69932 83542 333 10067;",
"08213099999","2010-05-05T06:00:00","4","40.95","-4.1333333","1005.0","SEGOVIA, SP","FM-12","99999","V020","320,1,N,0036,1","00750,1,9,N","014000,1,N,1","+0012,1","-0033,1","99999,9","12,0000,9,1","24,0000,2,1",,,,,"08,99,1,05,1,05,1,00800,1,02,1,99,9","0258,9","09,9","999,+0000,9","999,N,+0010,1","99999,9,09012,1","4,1,000,1,+999,9","3,1473,9",,"SYN100AAXX  05064 08213 12564 83207 10012 21033 39012 48473 54000 60002 8552/ 333 20010 31000 55043 70000;","Q01  00002PRCP12"
"08213099999","2010-05-05T12:00:00","4","40.95","-4.1333333","1005.0","SEGOVIA, SP","FM-12","99999","V020","020,1,N,0031,1","00750,1,9,N","016000,1,N,1","+0064,1","-0010,1","99999,9","06,0000,9,1",,,,,,"08,99,1,05,1,05,1,00800,1,02,1,99,9",,,,,"99999,9,09002,1","7,1,002,1,+999,9","3,1473,9",,"SYN082AAXX  05124 08213 12566 80206 10064 21010 39002 48473 57002 60001 8552/ 333 50300;","Q01  00002PRCP06"
"08213099999","2010-05-05T15:00:00","4","40.95","-4.1333333","1005.0","SEGOVIA, SP","FM-12","99999","V020","080,1,N,0046,1","01200,1,9,N","018000,1,N,1","+0088,1","-0022,1","99999,9",,,,,,,"07,99,1,07,1,08,1,00800,1,00,1,00,1",,,,,"99999,9,08991,1","7,1,011,1,+999,9","3,1467,9",,"SYN066AAXX  05154 08213 42568 70809 10088 21022 38991 48467 57011 87800;",
"08213099999","2010-05-05T18:00:00","4","40.95","-4.1333333","1005.0","SEGOVIA, SP","FM-12","99999","V020","020,1,N,0062,1","22000,1,9,N","020000,1,N,1","+0092,1","-0015,1","99999,9","12,0000,9,1",,,,,,"02,99,1,02,1,02,1,00800,1,00,1,00,1",,,,"999,M,+0112,1","99999,9,08983,1","7,1,008,1,+999,9","3,1460,9",,"SYN082AAXX  05184 08213 12570 20212 10092 21015 38983 48460 57008 60002 82200 333 10112;","Q01  00002PRCP12"
"08213099999","2010-05-06T06:00:00","4","40.95","-4.1333333","1005.0","SEGOVIA, SP","FM-12","99999","V020","040,1,N,0010,1","22000,1,9,N","020000,1,N,1","-0012,1","-0035,1","99999,9","12,0000,9,1","24,0000,9,1",,,,"00,1,+99999,9,99,9","00,99,1,00,1,00,1,99999,9,00,1,00,1","0336,9","14,9","999,-0060,9","999,N,-0012,1","99999,9,08986,1","4,1,000,1,+999,9","3,1446,9",,"SYN094AAXX  06064 08213 12970 00402 11012 21035 38986 48446 54000 60002 333 21012 34106 55056 70000;","Q01  00002PRCP24Q02  00002PRCP12"
"08213099999","2010-05-06T09:00:00","4","40.95","-4.1333333","1005.0","SEGOVIA, SP","FM-12","99999","V020","060,1,N,0062,1","22000,1,9,N","020000,1,N,1","+0082,1","-0011,1","99999,9",,,,,,,"02,99,1,02,1,02,1,00800,1,00,1,00,1",,,,,"99999,9,08976,1","7,1,010,1,+999,9","3,1452,9",,"SYN066AAXX  06094 08213 42570 20612 10082 21011 38976 48452 57010 82200;",
"08213099999","2010-05-06T12:00:00","4","40.95","-4.1333333","1005.0","SEGOVIA, SP","FM-12","99999","V020","050,1,N,0036,1","22000,1,9,N","020000,1,N,1","+0112,1","+0006,1","99999,9","06,0000,9,1",,,,,,"02,99,1,01,1,02,1,00800,1,00,1,01,1",,,,,"99999,9,08969,1","8,1,007,1,+999,9","3,1451,9",,"SYN082AAXX  06124 08213 12570 20507 10112 20006 38969 48451 58007 60001 81201 333 5///0;","Q01  00002PRCP06"
"08213099999","2010-05-06T15:00:00","4","40.95","-4.1333333","1005.0","SEGOVIA, SP","FM-12","99999","V020","330,1,N,0046,1","22000,1,9,N","020000,1,N,1","+0126,1","-0003,1","99999,9",,,,,,,"02,99,1,01,1,02,1,00800,1,00,1,01,1",,,,,"99999,9,08957,1","7,1,012,1,+999,9","3,1442,9",,"SYN066AAXX  06154 08213 42570 23309 10126 21003 38957 48442 57012 81201;",
"08213099999","2010-05-06T18:00:00","4","40.95","-4.1333333","1005.0","SEGOVIA, SP","FM-12","99999","V020","350,1,N,0021,1","22000,1,9,N","020000,1,N,1","+0112,1","+0000,1","99999,9","12,0000,9,1",,,,,,"05,99,1,01,1,02,1,00800,1,00,1,04,1",,,,"999,M,+0138,1","99999,9,08952,1","6,1,005,1,+999,9","3,1435,9",,"SYN082AAXX  06184 08213 12570 53504 10112 20000 38952 48435 56005 60002 81204 333 10138;","Q01  00002PRCP12"
"08213099999","2010-05-07T06:00:00","4","40.95","-4.1333333","1005.0","SEGOVIA, SP","FM-12","99999","V020","080,1,N,0021,1","22000,1,9,N","012000,1,N,1","+0052,1","+0004,1","99999,9","12,0000,9,1","24,0000,9,1",,,,,"04,99,1,02,1,00,1,01750,1,04,1,08,1","0756,9","09,9","999,-0020,9","999,N,+0040,1","99999,9,08928,1","6,1,007,1,+999,9","3,1404,9",,"SYN100AAXX  07064 08213 12762 40804 10052 20004 38928 48404 56007 60002 82048 333 20040 31102 55126 70000;","Q01  00002PRCP24Q02  00002PRCP12"
"08213099999","2010-05-07T12:00:00","4","40.95","-4.1333333","1005.0","SEGOVIA, SP","FM-12","99999","V020","170,1,N,0041,1","01200,1,9,N","010000,1,N,1","+0100,1","+0060,1","99999,9","06,0010,9,1",,,"6,1,06,1","6,1,06,1",,"08,99,1,06,1,08,1,00800,1,07,1,08,1",,,,,"99999,9,08919,1","8,1,005,1,+999,9","3,1404,9","21,1","SYN088AAXX  07124 08213 11560 81708 10100 20060 38919 48404 58005 60011 72166 86878 333 50630;",
"08213099999","2010-05-07T18:00:00","4","40.95","-4.1333333","1005.0","SEGOVIA, SP","FM-12","99999","V020","270,1,N,0072,1","01200,1,9,N","010000,1,N,1","+0099,1","+0047,1","99999,9","12,0061,9,1",,,"9,1,06,1","8,1,06,1",,"08,99,1,06,1,08,1,00800,1,07,1,08,1",,,,"999,M,+0136,1","99999,9,08919,1","3,1,006,1,+999,9","3,1403,9","29,1","SYN088AAXX  07184 08213 11560 82714 10099 20047 38919 48403 53006 60062 72998 86878 333 10136;",
"08213099999","2010-05-08T06:00:00","4","40.95","-4.1333333","1005.0","SEGOVIA, SP","FM-12","99999","V020","200,1,N,0026,1","22000,1,9,N","010000,1,N,1","+0060,1","+0033,1","99999,9","12,0005,9,1","24,0066,9,1",,"6,1,06,1","6,1,06,1",,"04,99,1,04,1,05,1,00800,1,00,1,00,1","0120,9","09,9","999,+0040,9","999,N,+0060,1","99999,9,08933,1","3,1,005,1,+999,9","3,1410,9","01,1","SYN106AAXX  08064 08213 11560 42005 10060 20033 38933 48410 53005 69952 70166 84500 333 20060 31004 55020 70066;",
"08213099999","2010-05-08T09:00:00","4","40.95","-4.1333333","1005.0","SEGOVIA, SP","FM-12","99999","V020","240,1,N,0036,1","00750,1,9,N","012000,1,N,1","+0102,1","+0033,1","99999,9",,,,,,,"05,99,1,05,1,05,1,00800,1,00,1,00,1",,,,,"99999,9,08939,1","2,1,006,1,+999,9","3,1422,9",,"SYN066AAXX  08094 08213 42562 52407 10102 20033 38939 48422 52006 85500;",
"08213099999","2010-05-08T12:00:00","4","40.95","-4.1333333","1005.0","SEGOVIA, SP","FM-12","99999","V020","250,1,N,0036,1","03600,1,9,N","012000,1,N,1","+0122,1","+0021,1","99999,9","06,0000,9,1",,,,,,"07,99,1,04,1,05,1,00450,1,07,1,08,1",,,,,"99999,9,08945,1","1,1,006,1,+999,9","3,1430,9",,"SYN082AAXX  08124 08213 12462 72507 10122 20021 38945 48430 51006 60001 84578 333 50090;","Q01  00002PRCP06"
"08213099999","2010-05-08T15:00:00","4","40.95","-4.1333333","1005.0","SEGOVIA, SP","FM-12","99999","V020","270,1,N,0031,1","00750,1,9,N","010000,1,N,1","+0130,1","+0028,1","99999,9",,,,"2,1,03,1","2,1,03,1",,"08,99,1,06,1,05,1,00800,1,07,1,08,1",,,,,"99999,9,08936,1","6,1,009,1,+999,9","3,1423,9","60,1","SYN072AAXX  08154 08213 41560 82706 10130 20028 38936 48423 56009 76022 86578;",
"08213099999","2010-05-08T18:00:00","4","40.95","-4.1333333","1005.0","SEGOVIA, SP","FM-12","99999","V020","200,1,N,0041,1","00750,1,9,N","010000,1,N,1","+0127,1","+0031,1","99999,9","12,0000,2,1",,,"6,1,06,1","2,1,06,1",,"08,99,1,05,1,05,1,00800,1,07,1,08,1",,,,"999,M,+0145,1","99999,9,08926,1","8,1,010,1,+999,9","3,1414,9","02,1","SYN088AAXX  08184 08213 11560 82008 10127 20031 38926 48414 58010 69922 70262 85578 333 10145;",
"08213099999","2010-05-09T06:00:00","4","40.95","-4.1333333","1005.0","SEGOVIA, SP","FM-12","99999","V020","200,1,N,0082,1","22000,1,9,N","015000,1,N,1","+0103,1","+0072,1","99999,9","12,0109,9,1","24,0114,9,1",,"6,1,06,1","2,1,06,1",,"03,99,1,01,1,05,1,00800,1,04,1,09,1","0270,9","11,9","999,+0060,9","999,N,+0090,1","99999,9,08898,1","5,1,004,1,+999,9","3,1385,9","01,1","SYN106AAXX  09064 08213 11565 32016 10103 20072 38898 48385 55004 60112 70162 81549 333 20090 32006 55045 70115;",
"08213099999","2010-05-09T09:00:00","4","40.95","-4.1333333","1005.0","SEGOVIA, SP","FM-12","99999","V020","220,1,N,0093,1","22000,1,9,N","015000,1,N,1","+0135,1","+0064,1","99999,9",,,,,,,"04,99,1,04,1,08,1,00800,1,00,1,00,1",,,,,"99999,9,08906,1","2,1,008,1,+999,9","3,1396,9",,"SYN066AAXX  09094 08213 42565 42218 10135 20064 38906 48396 52008 84800;",
"08213099999","2010-05-09T12:00:00","4","40.95","-4.1333333","1005.0","SEGOVIA, SP","FM-12","99999","V020","210,1,N,0093,1","03600,1,9,N","012000,1,N,1","+0130,1","+0064,1","99999,9","06,0000,9,1",,,,,,"07,99,1,04,1,05,1,00800,1,07,1,08,1",,,,,"99999,9,08906,1","4,1,000,1,+999,9","3,1396,9",,"SYN082AAXX  09124 08213 12562 72118 10130 20064 38906 48396 54000 60001 84578 333 50230;","Q01  00002PRCP06"
"08213099999","2010-05-09T15:00:00","4","40.95","-4.1333333","1005.0","SEGOVIA, SP","FM-12","99999","V020","240,1,N,0031,1","00750,1,9,N","006000,1,N,1","+0112,1","+0089,1","99999,9",,,,"8,1,03,1","6,1,03,1",,"08,99,1,06,1,07,1,00800,1,07,1,08,1",,,,,"99999,9,08910,1","3,1,004,1,+999,9","3,1397,9","61,1","SYN072AAXX  09154 08213 41556 82406 10112 20089 38910 48397 53004 76186 86778;",
"08213099999","2010-05-09T18:00:00","4","40.95","-4.1333333","1005.0","SEGOVIA, SP","FM-12","99999","V020","290,1,N,0036,1","00750,1,C,N","006000,1,N,1","+0099,1","+0080,1","99999,9","12,0099,9,1",,,"8,1,06,1","6,1,06,1","02,1,+00600,1,09,1","07,99,1,05,1,03,1,00800,1,07,1,08,1",,,,"120,M,+0146,1","99999,9,08922,1","3,1,012,1,+999,9","3,1406,9","27,1","SYN094AAXX  09184 08213 11556 72907 10099 20080 38922 48406 53012 60102 72786 85378 333 10146 82920;",
"08213099999","2010-05-10T06:00:00","4","40.95","-4.1333333","1005.0","SEGOVIA, SP","FM-12","99999","V020","350,1,N,0010,1","00750,1,9,N","016000,1,N,1","+0060,1","+0033,1","99999,9","12,0000,2,1","24,0099,9,1",,,,,"08,99,1,05,1,05,1,00800,1,02,1,99,9","0330,9","11,9","999,+0020,9","999,N,+0060,1","99999,9,08944,1","3,1,002,1,+999,9","3,1420,9",,"SYN100AAXX  10064 08213 12566 83502 10060 20033 38944 48420 53002 60002 8552/ 333 20060 32002 55055 70099;",
"08213099999","2010-05-10T09:00:00","4","40.95","-4.1333333","1005.0","SEGOVIA, SP","FM-12","99999","V020","300,1,N,0026,1","01200,1,9,N","016000,1,N,1","+0100,1","+0050,1","99999,9",,,,,,,"05,99,1,05,1,08,1,00800,1,00,1,00,1",,,,,"99999,9,08943,1","8,1,001,1,+999,9","3,1426,9",,"SYN066AAXX  10094 08213 42566 53005 10100 20050 38943 48426 58001 85800;",
"08213099999","2010-05-10T12:00:00","4","40.95","-4.1333333","1005.0","SEGOVIA, SP","FM-12","99999","V020","280,1,N,0036,1","01200,1,9,N","016000,1,N,1","+0134,1","+0067,1","99999,9","06,0000,9,1",,,,,,"06,99,1,06,1,08,1,00800,1,00,1,00,1",,,,,"99999,9,08935,1","8,1,008,1,+999,9","3,1423,9",,"SYN082AAXX  10124 08213 12566 62807 10134 20067 38935 48423 58008 60001 86800 333 50290;","Q01  00002PRCP06"
"08213099999","2010-05-10T15:00:00","4","40.95","-4.1333333","1005.0","SEGOVIA, SP","FM-12","99999","V020","080,1,N,0010,1","00750,1,9,N","014000,1,N,1","+0100,1","+0076,1","99999,9",,,,"6,1,03,1","2,1,03,1",,"08,99,1,05,1,05,1,00800,1,02,1,99,9",,,,,"99999,9,08930,1","6,1,005,1,+999,9","3,1414,9","60,1","SYN072AAXX  10154 08213 41564 80802 10100 20076 38930 48414 56005 76062 8552/;",
"08213099999","2010-05-10T18:00:00","4","40.95","-4.1333333","1005.0","SEGOVIA, SP","FM-12","99999","V020","290,1,N,0046,1","03600,1,9,N","014000,1,N,1","+0104,1","+0034,1","99999,9","12,0051,9,1",,,"6,1,06,1","2,1,06,1",,"07,99,1,04,1,05,1,00800,1,02,1,00,1",,,,"999,M,+0142,1","99999,9,08935,1","3,1,005,1,+999,9","3,1419,9","02,1","SYN088AAXX  10184 08213 11564 72909 10104 20034 38935 48419 53005 60052 70262 84520 333 10142;",
"08213099999","2010-05-11T06:00:00","4","40.95","-4.1333333","1005.0","SEGOVIA, SP","FM-12","99999","V020","310,1,N,0010,1","01200,1,9,N","016000,1,N,1","+0068,1","+0046,1","99999,9","12,0000,9,1","24,0051,9,1",,,,,"07,99,1,07,1,08,1,00800,1,00,1,00,1","0384,9","09,9","999,+0020,9","999,N,+0066,1","99999,9,08944,1","6,1,003,1,+999,9","3,1422,9",,"SYN100AAXX  11064 08213 12566 73102 10068 20046 38944 48422 56003 60002 87800 333 20066 31002 55064 70052;","Q01  00002PRCP12"
"08213099999","2010-05-11T12:00:00","4","40.95","-4.1333333","1005.0","SEGOVIA, SP","FM-12","99999","V020","260,1,N,0026,1","01200,1,9,N","016000,1,N,1","+0130,1","+0028,1","99999,9","06,0000,9,1",,,,,,"07,99,1,07,1,08,1,00800,1,00,1,00,1",,,,,"99999,9,08941,1","8,1,004,1,+999,9","3,1428,9",,"SYN082AAXX  11124 08213 12566 72605 10130 20028 38941 48428 58004 60001 87800 333 50200;","Q01  00002PRCP06"
"08213099999","2010-05-11T18:00:00","4","40.95","-4.1333333","1005.0","SEGOVIA, SP","FM-12","99999","V020","070,1,N,0010,1","22000,1,9,N","018000,1,N,1","+0114,1","+0048,1","99999,9","12,0005,9,1",,,"6,1,06,1","2,1,06,1","02,1,+00600,1,09,1","04,99,1,04,1,03,1,00800,1,00,1,00,1",,,,"120,M,+0142,1","99999,9,08930,1","7,1,001,1,+999,9","3,1416,9","01,1","SYN094AAXX  11184 08213 11568 40702 10114 20048 38930 48416 57001 69962 70162 84300 333 10142 82920;",
"08213099999","2010-05-12T06:00:00","4","40.95","-4.1333333","1005.0","SEGOVIA, SP","FM-12","99999","V020","150,1,N,0021,1","03600,1,9,N","010000,1,N,1","+0065,1","+0050,1","99999,9","12,0030,9,1","24,0033,9,1",,"6,1,06,1","2,1,06,1",,"07,99,1,04,1,08,1,00800,1,07,1,08,1","0450,9","11,9","999,+0030,9","999,N,+0060,1","99999,9,08941,1","3,1,004,1,+999,9","3,1419,9","61,1","SYN106AAXX  12064 08213 11560 71504 10065 20050 38941 48419 53004 60032 76162 84878 333 20060 32003 55075 70032;",
"08213099999","2010-05-12T09:00:00","4","40.95","-4.1333333","1005.0","SEGOVIA, SP","FM-12","99999","V020","260,1,N,0046,1","01200,1,9,N","008000,1,N,1","+0090,1","+0061,1","99999,9",,,,"6,1,03,1","2,1,03,1",,"07,99,1,05,1,08,1,00800,1,07,1,08,1",,,,,"99999,9,08948,1","2,1,007,1,+999,9","3,1429,9","10,1","SYN072AAXX  12094 08213 41558 72609 10090 20061 38948 48429 52007 71062 85878;",
"08213099999","2010-05-12T12:00:00","4","40.95","-4.1333333","1005.0","SEGOVIA, SP","FM-12","99999","V020","300,1,N,0041,1","01200,1,9,N","006000,1,N,1","+0086,1","+0052,1","99999,9","06,0005,9,1",,,"6,1,06,1","2,1,06,1",,"08,99,1,06,1,08,1,00800,1,07,1,08,1",,,,,"99999,9,08951,1","1,1,003,1,+999,9","3,1431,9","61,1","SYN088AAXX  12124 08213 11556 83008 10086 20052 38951 48431 51003 69941 76162 86878 333 50340;",
"08213099999","2010-05-12T15:00:00","4","40.95","-4.1333333","1005.0","SEGOVIA, SP","FM-12","99999","V020","180,1,N,0010,1","00750,1,C,N","010000,1,N,1","+0097,1","+0051,1","99999,9",,,,"8,1,03,1","6,1,03,1","02,1,+00600,1,09,1","07,99,1,06,1,03,1,00800,1,07,1,08,1",,,,,"99999,9,08951,1","4,1,000,1,+999,9","3,1433,9","27,1","SYN082AAXX  12154 08213 41560 71802 10097 20051 38951 48433 54000 72786 86378 333 82920;",
"08213099999","2010-05-12T18:00:00","4","40.95","-4.1333333","1005.0","SEGOVIA, SP","FM-12","99999","V020","330,1,N,0021,1","00750,1,C,N","010000,1,N,1","+0093,1","+0053,1","99999,9","12,0020,9,1",,,"8,1,06,1","6,1,06,1","02,1,+00600,1,09,1","08,99,1,06,1,03,1,00800,1,07,1,08,1",,,,"120,M,+0122,1","99999,9,08951,1","4,1,000,1,+999,9","3,1432,9","25,1","SYN094AAXX  12184 08213 11560 83304 10093 20053 38951 48432 54000 60022 72586 86378 333 10122 82920;",
"08213099999","2010-05-13T06:00:00","4","40.95","-4.1333333","1005.0","SEGOVIA, SP","FM-12","99999","V020","240,1,N,0031,1","01200,1,9,N","008000,1,N,1","+0050,1","+0033,1","99999,9","12,0005,9,1","24,0023,9,1",,"2,1,06,1","2,1,06,1",,"08,99,1,06,1,08,1,00800,1,07,1,08,1","0180,9","11,9","999,+0040,9","999,N,+0048,1","99999,9,08965,1","5,1,000,1,+999,9","3,1438,9","10,1","SYN106AAXX  13064 08213 11558 82406 10050 20033 38965 48438 55000 69942 71022 86878 333 20048 32004 55030 70024;",
"08213099999","2010-05-13T09:00:00","4","40.95","-4.1333333","1005.0","SEGOVIA, SP","FM-12","99999","V020","250,1,N,0036,1","01200,1,9,N","006000,1,N,1","+0054,1","+0039,1","99999,9",,,,"6,1,03,1","2,1,03,1",,"08,99,1,06,1,08,1,00800,1,07,1,08,1",,,,,"99999,9,08970,1","2,1,005,1,+999,9","3,1443,9","61,1","SYN072AAXX  13094 08213 41556 82507 10054 20039 38970 48443 52005 76162 86878;",
"08213099999","2010-05-13T12:00:00","4","40.95","-4.1333333","1005.0","SEGOVIA, SP","FM-12","99999","V020","300,1,N,0046,1","01200,1,9,N","006000,1,N,1","+0057,1","+0027,1","99999,9","06,0005,9,1",,,"6,1,06,1","2,1,06,1",,"08,99,1,06,1,08,1,00800,1,07,1,08,1",,,,,"99999,9,08976,1","1,1,006,1,+999,9","3,1449,9","10,1","SYN088AAXX  13124 08213 11556 83009 10057 20027 38976 48449 51006 69941 71062 86878 333 50150;",
"08213099999","2010-05-13T15:00:00","4","40.95","-4.1333333","1005.0","SEGOVIA, SP","FM-12","99999","V020","330,1,N,0041,1","01200,1,9,N","006000,1,N,1","+0058,1","+0021,1","99999,9",,,,"6,1,03,1","2,1,03,1",,"08,99,1,06,1,08,1,00800,1,07,1,08,1",,,,,"99999,9,08975,1","8,1,001,1,+999,9","3,1448,9","10,1","SYN072AAXX  13154 08213 41556 83308 10058 20021 38975 48448 58001 71062 86878;",
"08213099999","2010-05-13T18:00:00","4","40.95","-4.1333333","1005.0","SEGOVIA, SP","FM-12","99999","V020","030,1,N,0036,1","03600,1,9,N","010000,1,N,1","+0065,1","+0018,1","99999,9","12,0005,9,1",,,"6,1,06,1","2,1,06,1","02,1,+00600,1,09,1","06,99,1,04,1,03,1,00800,1,07,1,08,1",,,,"120,M,+0067,1","99999,9,08977,1","0,1,002,1,+999,9","3,1451,9","01,1","SYN094AAXX  13184 08213 11560 60307 10065 20018 38977 48451 50002 69942 70162 84378 333 10067 82920;",
"08213099999","2010-05-14T06:00:00","4","40.95","-4.1333333","1005.0","SEGOVIA, SP","FM-12","99999","V020","010,1,N,0010,1","22000,1,9,N","004000,1,N,1","+0022,1","+0001,1","99999,9","12,0020,9,1","24,0025,9,1",,"6,1,06,1","2,1,06,1",,"06,99,1,04,1,05,1,00800,1,00,1,01,1","0036,9","09,9","999,+0000,9","999,N,+0013,1","99999,9,08992,1","2,1,007,1,+999,9","3,1457,9","10,1","SYN106AAXX  14064 08213 11540 60102 10022 20001 38992 48457 52007 60022 71062 84501 333 20013 31000 55006 70025;",
"08213099999","2010-05-14T09:00:00","4","40.95","-4.1333333","1005.0","SEGOVIA, SP","FM-12","99999","V020","330,1,N,0021,1","00750,1,C,N","012000,1,N,1","+0050,1","-0002,1","99999,9",,,,,,"02,1,+00600,1,09,1","05,99,1,05,1,03,1,00800,1,00,1,00,1",,,,,"99999,9,09000,1","2,1,008,1,+999,9","3,1469,9",,"SYN076AAXX  14094 08213 42562 53304 10050 21002 39000 48469 52008 85300 333 82920;",
"08213099999","2010-05-14T12:00:00","4","40.95","-4.1333333","1005.0","SEGOVIA, SP","FM-12","99999","V020","290,1,N,0046,1","00750,1,C,N","012000,1,N,1","+0074,1","+0006,1","99999,9","06,0000,9,1",,,,,"02,1,+00600,1,09,1","07,99,1,07,1,03,1,00800,1,99,9,99,9",,,,,"99999,9,08998,1","8,1,002,1,+999,9","3,1471,9",,"SYN088AAXX  14124 08213 12562 72909 10074 20006 38998 48471 58002 60001 873// 333 50000 82920;","Q01  00002PRCP06"
"08213099999","2010-05-14T15:00:00","4","40.95","-4.1333333","1005.0","SEGOVIA, SP","FM-12","99999","V020","290,1,N,0051,1","00750,1,C,N","008000,1,N,1","+0070,1","+0029,1","99999,9",,,,"6,1,03,1","2,1,03,1","01,1,+00600,1,09,1","08,99,1,08,1,03,1,00800,1,99,9,99,9",,,,,"99999,9,09000,1","1,1,002,1,+999,9","3,1473,9","61,1","SYN082AAXX  14154 08213 41558 82910 10070 20029 39000 48473 51002 76162 883// 333 81920;",
"08213099999","2010-05-14T18:00:00","4","40.95","-4.1333333","1005.0","SEGOVIA, SP","FM-12","99999","V020","280,1,N,0062,1","00750,1,9,N","012000,1,N,1","+0075,1","+0050,1","99999,9","12,0003,9,1",,,"6,1,06,1","2,1,06,1",,"08,99,1,08,1,05,1,00800,1,99,9,99,9",,,,"999,M,+0083,1","99999,9,09001,1","3,1,001,1,+999,9","3,1475,9","02,1","SYN088AAXX  14184 08213 11562 82812 10075 20050 39001 48475 53001 69932 70262 885// 333 10083;",
"08213099999","2010-05-15T06:00:00","4","40.95","-4.1333333","1005.0","SEGOVIA, SP","FM-12","99999","V020","270,1,N,0021,1","00750,1,9,N","004000,1,N,1","+0032,1","+0020,1","99999,9","12,0020,9,1","24,0028,9,1",,"2,1,06,1","2,1,06,1",,"07,99,1,07,1,07,1,00800,1,99,9,99,9","0222,9","09,9","999,+0000,9","999,N,+0024,1","99999,9,09025,1","2,1,005,1,+999,9","3,1488,9","10,1","SYN106AAXX  15064 08213 11540 72704 10032 20020 39025 48488 52005 60022 71022 877// 333 20024 31000 55037 70028;",
"08213099999","2010-05-15T09:00:00","4","40.95","-4.1333333","1005.0","SEGOVIA, SP","FM-12","99999","V020","010,1,N,0021,1","00750,1,9,N","012000,1,N,1","+0060,1","+0023,1","99999,9",,,,,,,"07,99,1,07,1,05,1,00800,1,99,9,99,9",,,,,"99999,9,09034,1","2,1,009,1,+999,9","3,1501,9",,"SYN066AAXX  15094 08213 42562 70104 10060 20023 39034 48501 52009 875//;",
"08213099999","2010-05-15T12:00:00","4","40.95","-4.1333333","1005.0","SEGOVIA, SP","FM-12","99999","V020","320,1,N,0026,1","00750,1,9,N","018000,1,N,1","+0100,1","+0019,1","99999,9","06,0000,9,1",,,,,,"06,99,1,06,1,05,1,00800,1,00,1,00,1",,,,,"99999,9,09045,1","2,1,011,1,+999,9","3,1519,9",,"SYN082AAXX  15124 08213 12568 63205 10100 20019 39045 48519 52011 60001 86500 333 50010;","Q01  00002PRCP06"
"08213099999","2010-05-15T15:00:00","4","40.95","-4.1333333","1005.0","SEGOVIA, SP","FM-12","99999","V020","320,1,N,0046,1","22000,1,9,N","020000,1,N,1","+0117,1","-0001,1","99999,9",,,,,,,"04,99,1,04,1,05,1,00800,1,00,1,00,1",,,,,"99999,9,09045,1","4,1,000,1,+999,9","3,1521,9",,"SYN066AAXX  15154 08213 42570 43209 10117 21001 39045 48521 54000 84500;",
"08213099999","2010-05-15T18:00:00","4","40.95","-4.1333333","1005.0","SEGOVIA, SP","FM-12","99999","V020","320,1,N,0077,1","22000,1,9,N","020000,1,N,1","+0121,1","-0001,1","99999,9","12,0000,9,1",,,,,,"03,99,1,03,1,05,1,00800,1,00,1,00,1",,,,"999,M,+0131,1","99999,9,09047,1","3,1,002,1,+999,9","3,1524,9",,"SYN082AAXX  15184 08213 12570 33215 10121 21001 39047 48524 53002 60002 83500 333 10131;","Q01  00002PRCP12"
"08213099999","2010-05-16T06:00:00","4","40.95","-4.1333333","1005.0","SEGOVIA, SP","FM-12","99999","V020","080,1,N,0015,1","22000,1,9,N","018000,1,N,1","+0028,1","-0003,1","99999,9","12,0000,9,1","24,0000,9,1",,,,,"01,99,1,01,1,00,1,01750,1,04,1,00,1","0504,9","14,9","999,-0030,9","999,N,+0024,1","99999,9,09075,1","3,1,004,1,+999,9","3,1532,9",,"SYN100AAXX  16064 08213 12768 10803 10028 21003 39075 48532 53004 60002 81040 333 20024 34103 55084 70000;","Q01  00002PRCP24Q02  00002PRCP12"
"08213099999","2010-05-16T09:00:00","4","40.95","-4.1333333","1005.0","SEGOVIA, SP","FM-12","99999","V020","040,1,N,0041,1","22000,1,9,N","020000,1,N,1","+0098,1","+0004,1","99999,9",,,,,,,"01,99,1,01,1,01,1,00800,1,00,1,00,1",,,,,"99999,9,09089,1","2,1,014,1,+999,9","3,1558,9",,"SYN066AAXX  16094 08213 42570 10408 10098 20004 39089 48558 52014 81100;",
"08213099999","2010-05-16T12:00:00","4","40.95","-4.1333333","1005.0","SEGOVIA, SP","FM-12","99999","V020","080,1,N,0041,1","22000,1,9,N","020000,1,N,1","+0124,1","+0005,1","99999,9","06,0000,9,1",,,,,"00,1,+99999,9,99,9","00,99,1,00,1,00,1,99999,9,00,1,00,1",,,,,"99999,9,09089,1","0,1,000,1,+999,9","3,1563,9",,"SYN076AAXX  16124 08213 12970 00808 10124 20005 39089 48563 50000 60001 333 50260;","Q01  00002PRCP06"
"08213099999","2010-05-16T15:00:00","4","40.95","-4.1333333","1005.0","SEGOVIA, SP","FM-12","99999","V020","340,1,N,0010,1","22000,1,9,N","020000,1,N,1","+0148,1","+0013,1","99999,9",,,,,,,"01,99,1,01,1,01,1,00800,1,00,1,00,1",,,,,"99999,9,09096,1","3,1,007,1,+999,9","3,1574,9",,"SYN066AAXX  16154 08213 42570 13402 10148 20013 39096 48574 53007 81100;",
"08213099999","2010-05-16T18:00:00","4","40.95","-4.1333333","1005.0","SEGOVIA, SP","FM-12","99999","V020","350,1,N,0031,1","22000,1,9,N","020000,1,N,1","+0154,1","+0004,1","99999,9","12,0000,9,1",,,,,,"01,99,1,01,1,01,1,00800,1,00,1,00,1",,,,"999,M,+0160,1","99999,9,09088,1","8,1,008,1,+999,9","3,1568,9",,"SYN082AAXX  16184 08213 12570 13506 10154 20004 39088 48568 58008 60002 81100 333 10160;","Q01  00002PRCP12"
"08213099999","2010-05-17T06:00:00","4","40.95","-4.1333333","1005.0","SEGOVIA, SP","FM-12","99999","V020","080,1,N,0010,1","22000,1,9,N","010000,1,N,1","+0096,1","+0029,1","99999,9","12,0000,9,1","24,0000,9,1",,,,"00,1,+99999,9,99,9","00,99,1,00,1,00,1,99999,9,00,1,00,1","0822,9","09,9","999,+0010,9","999,N,+0045,1","99999,9,09114,1","3,1,008,1,+999,9","3,1580,9",,"SYN094AAXX  17064 08213 12960 00802 10096 20029 39114 48580 53008 60002 333 20045 31001 55137 70000;","Q01  00002PRCP24Q02  00002PRCP12"
"08213099999","2010-05-17T09:00:00","4","40.95","-4.1333333","1005.0","SEGOVIA, SP","FM-12","99999","V020","070,1,N,0031,1","22000,1,9,N","010000,1,N,1","+0148,1","+0051,1","99999,9",,,,,,"00,1,+99999,9,99,9","00,99,1,00,1,00,1,99999,9,00,1,00,1",,,,,"99999,9,09117,1","1,1,003,1,+999,9","3,1594,9",,"SYN060AAXX  17094 08213 42960 00706 10148 20051 39117 48594 51003;",
"08213099999","2010-05-17T12:00:00","4","40.95","-4.1333333","1005.0","SEGOVIA, SP","FM-12","99999","V020","350,1,N,0021,1","22000,1,9,N","012000,1,N,1","+0160,1","+0044,1","99999,9","06,0000,9,1",,,,,"00,1,+99999,9,99,9","00,99,1,00,1,00,1,99999,9,00,1,00,1",,,,,"99999,9,09118,1","2,1,001,1,+999,9","3,1597,9",,"SYN076AAXX  17124 08213 12962 03504 10160 20044 39118 48597 52001 60001 333 50492;","Q01  00002PRCP06"
"08213099999","2010-05-17T15:00:00","4","40.95","-4.1333333","1005.0","SEGOVIA, SP","FM-12","99999","V020","290,1,N,0021,1","22000,1,9,N","020000,1,N,1","+0185,1","+0054,1","99999,9",,,,,,,"01,99,1,01,1,01,1,00800,1,00,1,00,1",,,,,"99999,9,09110,1","8,1,008,1,+999,9","3,1595,9",,"SYN066AAXX  17154 08213 42570 12904 10185 20054 39110 48595 58008 81100;",
"08213099999","2010-05-17T18:00:00","4","40.95","-4.1333333","1005.0","SEGOVIA, SP","FM-12","99999","V020","360,1,N,0036,1","22000,1,9,N","020000,1,N,1","+0177,1","+0032,1","99999,9","12,0000,9,1",,,,,"00,1,+99999,9,99,9","00,99,1,00,1,00,1,99999,9,00,1,00,1",,,,"999,M,+0193,1","99999,9,09108,1","7,1,002,1,+999,9","3,1591,9",,"SYN076AAXX  17184 08213 12970 03607 10177 20032 39108 48591 57002 60002 333 10193;","Q01  00002PRCP12"
"08213099999","2010-05-18T06:00:00","4","40.95","-4.1333333","1005.0","SEGOVIA, SP","FM-12","99999","V020","080,1,N,0010,1","22000,1,9,N","012000,1,N,1","+0084,1","+0020,1","99999,9","12,0000,9,1","24,0000,9,1",,,,,"01,99,1,00,1,00,1,99999,9,00,1,01,1","0822,9","09,9","999,+0000,9","999,N,+0059,1","99999,9,09129,1","3,1,003,1,+999,9","3,1591,9",,"SYN100AAXX  18064 08213 12962 10802 10084 20020 39129 48591 53003 60002 80001 333 20059 31100 55137 70000;","Q01  00002PRCP24Q02  00002PRCP12"
"08213099999","2010-05-18T09:00:00","4","40.95","-4.1333333","1005.0","SEGOVIA, SP","FM-12","99999","V020","270,1,N,0021,1","22000,1,9,N","012000,1,N,1","+0150,1","+0058,1","99999,9",,,,,,,"01,99,1,00,1,00,1,99999,9,00,1,01,1",,,,,"99999,9,09131,1","1,1,002,1,+999,9","3,1607,9",,"SYN066AAXX  18094 08213 42962 12704 10150 20058 39131 48607 51002 80001;",
"08213099999","2010-05-18T12:00:00","4","40.95","-4.1333333","1005.0","SEGOVIA, SP","FM-12","99999","V020","010,1,N,0015,1","22000,1,9,N","015000,1,N,1","+0198,1","+0017,1","99999,9","06,0000,9,1",,,,,,"02,99,1,00,1,00,1,99999,9,00,1,01,1",,,,,"99999,9,09122,1","8,1,009,1,+999,9","3,1608,9",,"SYN082AAXX  18124 08213 12965 20103 10198 20017 39122 48608 58009 60001 80001 333 50470;","Q01  00002PRCP06"
"08213099999","2010-05-18T15:00:00","4","40.95","-4.1333333","1005.0","SEGOVIA, SP","FM-12","99999","V020","030,1,N,0031,1","22000,1,9,N","020000,1,N,1","+0216,1","+0013,1","99999,9",,,,,,,"05,99,1,01,1,00,1,01750,1,07,1,08,1",,,,,"99999,9,09114,1","8,1,008,1,+999,9","3,1604,9",,"SYN066AAXX  18154 08213 42770 50306 10216 20013 39114 48604 58008 81078;",
"08213099999","2010-05-18T18:00:00","4","40.95","-4.1333333","1005.0","SEGOVIA, SP","FM-12","99999","V020","040,1,N,0026,1","22000,1,9,N","020000,1,N,1","+0204,1","+0018,1","99999,9","12,0000,9,1",,,,,,"03,99,1,01,1,00,1,01750,1,04,1,08,1",,,,"999,M,+0222,1","99999,9,09113,1","6,1,001,1,+999,9","3,1601,9",,"SYN082AAXX  18184 08213 12770 30405 10204 20018 39113 48601 56001 60002 81048 333 10222;","Q01  00002PRCP12"
"08213099999","2010-05-19T06:00:00","4","40.95","-4.1333333","1005.0","SEGOVIA, SP","FM-12","99999","V020","090,1,N,0010,1","22000,1,9,N","020000,1,N,1","+0103,1","+0019,1","99999,9","12,0000,9,1","24,0000,9,1",,,,,"01,99,1,00,1,00,1,99999,9,00,1,01,1","0810,9","01,9","999,+0010,9","999,N,+0080,1","99999,9,09114,1","5,1,000,1,+999,9","3,1582,9",,"SYN100AAXX  19064 08213 12970 10902 10103 20019 39114 48582 55000 60002 80001 333 20080 30001 55135 70000;","Q01  00002PRCP24Q02  00002PRCP12"
"08213099999","2010-05-19T09:00:00","4","40.95","-4.1333333","1005.0","SEGOVIA, SP","FM-12","99999","V020","360,1,N,0026,1","22000,1,9,N","020000,1,N,1","+0165,1","+0045,1","99999,9",,,,,,,"01,99,1,00,1,00,1,99999,9,00,1,01,1",,,,,"99999,9,09119,1","2,1,005,1,+999,9","3,1599,9",,"SYN066AAXX  19094 08213 42970 13605 10165 20045 39119 48599 52005 80001;",
"08213099999","2010-05-19T12:00:00","4","40.95","-4.1333333","1005.0","SEGOVIA, SP","FM-12","99999","V020","040,1,N,0051,1","22000,1,9,N","020000,1,N,1","+0205,1","+0061,1","99999,9","06,0000,9,1",,,,,,"01,99,1,01,1,01,1,00800,1,00,1,01,1",,,,,"99999,9,09112,1","8,1,007,1,+999,9","3,1601,9",,"SYN082AAXX  19124 08213 12570 10410 10205 20061 39112 48601 58007 60001 81101 333 50500;","Q01  00002PRCP06"
"08213099999","2010-05-19T15:00:00","4","40.95","-4.1333333","1005.0","SEGOVIA, SP","FM-12","99999","V020","020,1,N,0036,1","22000,1,9,N","020000,1,N,1","+0214,1","+0057,1","99999,9",,,,,,,"01,99,1,01,1,01,1,00800,1,00,1,00,1",,,,,"99999,9,09105,1","7,1,007,1,+999,9","3,1596,9",,"SYN066AAXX  19154 08213 42570 10207 10214 20057 39105 48596 57007 81100;",
"08213099999","2010-05-19T18:00:00","4","40.95","-4.1333333","1005.0","SEGOVIA, SP","FM-12","99999","V020","350,1,N,0051,1","22000,1,9,N","020000,1,N,1","+0202,1","+0065,1","99999,9","12,0000,9,1",,,,,"00,1,+99999,9,99,9","00,99,1,00,1,00,1,99999,9,00,1,00,1",,,,"999,M,+0224,1","99999,9,09101,1","6,1,004,1,+999,9","3,1590,9",,"SYN076AAXX  19184 08213 12970 03510 10202 20065 39101 48590 56004 60002 333 10224;","Q01  00002PRCP12"
"08213099999","2010-05-20T06:00:00","4","40.95","-4.1333333","1005.0","SEGOVIA, SP","FM-12","99999","V020","160,1,N,0010,1","22000,1,9,N","012000,1,N,1","+0079,1","+0054,1","99999,9","12,0000,9,1","24,0000,9,1",,,,"00,1,+99999,9,99,9","00,99,1,00,1,00,1,99999,9,00,1,00,1","0804,9","01,9","999,+0000,9","999,N,+0059,1","99999,9,09112,1","4,1,000,1,+999,9","3,1575,9",,"SYN094AAXX  20064 08213 12962 01602 10079 20054 39112 48575 54000 60002 333 20059 30000 55134 70000;","Q01  00002PRCP24Q02  00002PRCP12"
"08213099999","2010-05-20T09:00:00","4","40.95","-4.1333333","1005.0","SEGOVIA, SP","FM-12","99999","V020","330,1,N,0021,1","22000,1,9,N","012000,1,N,1","+0129,1","+0043,1","99999,9",,,,,,"00,1,+99999,9,99,9","00,99,1,00,1,00,1,99999,9,00,1,00,1",,,,,"99999,9,09110,1","8,1,002,1,+999,9","3,1583,9",,"SYN060AAXX  20094 08213 42962 03304 10129 20043 39110 48583 58002;",
"08213099999","2010-05-20T12:00:00","4","40.95","-4.1333333","1005.0","SEGOVIA, SP","FM-12","99999","V020","340,1,N,0026,1","22000,1,9,N","020000,1,N,1","+0198,1","+0051,1","99999,9","06,0000,9,1",,,,,"00,1,+99999,9,99,9","00,99,1,00,1,00,1,99999,9,00,1,00,1",,,,,"99999,9,09100,1","8,1,010,1,+999,9","3,1588,9",,"SYN076AAXX  20124 08213 12970 03405 10198 20051 39100 48588 58010 60001 333 50590;","Q01  00002PRCP06"
"08213099999","2010-05-20T15:00:00","4","40.95","-4.1333333","1005.0","SEGOVIA, SP","FM-12","99999","V020","320,1,N,0036,1","22000,1,9,N","020000,1,N,1","+0230,1","+0067,1","99999,9",,,,,,"00,1,+99999,9,99,9","00,99,1,00,1,00,1,99999,9,00,1,00,1",,,,,"99999,9,09087,1","7,1,013,1,+999,9","3,1583,9",,"SYN060AAXX  20154 08213 42970 03207 10230 20067 39087 48583 57013;",
"08213099999","2010-05-20T18:00:00","4","40.95","-4.1333333","1005.0","SEGOVIA, SP","FM-12","99999","V020","010,1,N,0021,1","22000,1,9,N","020000,1,N,1","+0227,1","+0052,1","99999,9","12,0000,9,1",,,,,"00,1,+99999,9,99,9","00,99,1,00,1,00,1,99999,9,00,1,00,1",,,,"999,M,+0237,1","99999,9,09078,1","7,1,009,1,+999,9","3,1573,9",,"SYN076AAXX  20184 08213 12970 00104 10227 20052 39078 48573 57009 60002 333 10237;","Q01  00002PRCP12"
"08213099999","2010-05-21T06:00:00","4","40.95","-4.1333333","1005.0","SEGOVIA, SP","FM-12","99999","V020","100,1,N,0010,1","22000,1,9,N","020000,1,N,1","+0122,1","+0042,1","99999,9","12,0000,9,1","24,0000,9,1",,,,"00,1,+99999,9,99,9","00,99,1,00,1,00,1,99999,9,00,1,00,1","0822,9","01,9","999,+0030,9","999,N,+0114,1","99999,9,09081,1","4,1,000,1,+999,9","3,1556,9",,"SYN094AAXX  21064 08213 12970 01002 10122 20042 39081 48556 54000 60002 333 20114 30003 55137 70000;","Q01  00002PRCP24Q02  00002PRCP12"
"08213099999","2010-05-21T09:00:00","4","40.95","-4.1333333","1005.0","SEGOVIA, SP","FM-12","99999","V020","290,1,N,0021,1","22000,1,9,N","020000,1,N,1","+0204,1","+0087,1","99999,9",,,,,,"00,1,+99999,9,99,9","00,99,1,00,1,00,1,99999,9,00,1,00,1",,,,,"99999,9,09081,1","4,1,000,1,+999,9","3,1572,9",,"SYN060AAXX  21094 08213 42970 02904 10204 20087 39081 48572 54000;",
"08213099999","2010-05-21T12:00:00","4","40.95","-4.1333333","1005.0","SEGOVIA, SP","FM-12","99999","V020","330,1,N,0021,1","22000,1,9,N","020000,1,N,1","+0236,1","+0064,1","99999,9","06,0000,9,1",,,,,,"01,99,1,01,1,01,1,00800,1,00,1,00,1",,,,,"99999,9,09078,1","8,1,003,1,+999,9","3,1575,9",,"SYN082AAXX  21124 08213 12570 13304 10236 20064 39078 48575 58003 60001 81100 333 50510;","Q01  00002PRCP06"
"08213099999","2010-05-21T15:00:00","4","40.95","-4.1333333","1005.0","SEGOVIA, SP","FM-12","99999","V020","030,1,N,0021,1","22000,1,9,N","020000,1,N,1","+0250,1","+0072,1","99999,9",,,,,,,"01,99,1,01,1,01,1,00800,1,00,1,00,1",,,,,"99999,9,09061,1","7,1,017,1,+999,9","3,1562,9",,"SYN066AAXX  21154 08213 42570 10304 10250 20072 39061 48562 57017 81100;",
"08213099999","2010-05-21T18:00:00","4","40.95","-4.1333333","1005.0","SEGOVIA, SP","FM-12","99999","V020","300,1,N,0021,1","22000,1,9,N","020000,1,N,1","+0254,1","+0071,1","99999,9","12,0000,9,1",,,,,,"01,99,1,01,1,01,1,00800,1,00,1,00,1",,,,"999,M,+0264,1","99999,9,09048,1","8,1,013,1,+999,9","3,1550,9",,"SYN082AAXX  21184 08213 12570 13004 10254 20071 39048 48550 58013 60002 81100 333 10264;","Q01  00002PRCP12"
"08213099999","2010-05-22T06:00:00","4","40.95","-4.1333333","1005.0","SEGOVIA, SP","FM-12","99999","V020","130,1,N,0031,1","22000,1,9,N","020000,1,N,1","+0164,1","+0048,1","99999,9","12,0000,9,1","24,0000,9,1",,,,"00,1,+99999,9,99,9","00,99,1,00,1,00,1,99999,9,00,1,00,1","0816,9","01,9","999,+0060,9","999,N,+0146,1","99999,9,09049,1","5,1,002,1,+999,9","3,1534,9",,"SYN094AAXX  22064 08213 12970 01306 10164 20048 39049 48534 55002 60002 333 20146 30006 55136 70000;","Q01  00002PRCP24Q02  00002PRCP12"
"08213099999","2010-05-22T09:00:00","4","40.95","-4.1333333","1005.0","SEGOVIA, SP","FM-12","99999","V020","290,1,N,0026,1","22000,1,9,N","020000,1,N,1","+0228,1","+0057,1","99999,9",,,,,,"00,1,+99999,9,99,9","00,99,1,00,1,00,1,99999,9,00,1,00,1",,,,,"99999,9,09048,1","8,1,001,1,+999,9","3,1545,9",,"SYN060AAXX  22094 08213 42970 02905 10228 20057 39048 48545 58001;",
"08213099999","2010-05-22T12:00:00","4","40.95","-4.1333333","1005.0","SEGOVIA, SP","FM-12","99999","V020","320,1,N,0021,1","22000,1,9,N","020000,1,N,1","+0254,1","+0071,1","99999,9","06,0000,9,1",,,,,,"01,99,1,01,1,02,1,00800,1,00,1,00,1",,,,,"99999,9,09041,1","8,1,007,1,+999,9","3,1543,9",,"SYN082AAXX  22124 08213 12570 13204 10254 20071 39041 48543 58007 60001 81200 333 50490;","Q01  00002PRCP06"
"08213099999","2010-05-22T15:00:00","4","40.95","-4.1333333","1005.0","SEGOVIA, SP","FM-12","99999","V020","280,1,N,0031,1","22000,1,9,N","020000,1,N,1","+0264,1","+0059,1","99999,9",,,,,,,"03,99,1,03,1,02,1,00800,1,00,1,00,1",,,,,"99999,9,09030,1","8,1,011,1,+999,9","3,1534,9",,"SYN066AAXX  22154 08213 42570 32806 10264 20059 39030 48534 58011 83200;",
"08213099999","2010-05-22T18:00:00","4","40.95","-4.1333333","1005.0","SEGOVIA, SP","FM-12","99999","V020","050,1,N,0015,1","22000,1,9,N","020000,1,N,1","+0256,1","+0063,1","99999,9","12,0000,9,1",,,,,,"02,99,1,02,1,02,1,00800,1,00,1,00,1",,,,"999,M,+0272,1","99999,9,09018,1","6,1,012,1,+999,9","3,1521,9",,"SYN082AAXX  22184 08213 12570 20503 10256 20063 39018 48521 56012 60002 82200 333 10272;","Q01  00002PRCP12"
"08213099999","2010-05-23T06:00:00","4","40.95","-4.1333333","1005.0","SEGOVIA, SP","FM-12","99999","V020","100,1,N,0010,1","22000,1,9,N","012000,1,N,1","+0154,1","+0091,1","99999,9","12,0000,9,1","24,0000,9,1",,,,,"02,99,1,01,1,00,1,01750,1,03,1,01,1","0834,9","01,9","999,+0050,9","999,N,+0132,1","99999,9,09018,1","5,1,000,1,+999,9","3,1504,9",,"SYN100AAXX  23064 08213 12762 21002 10154 20091 39018 48504 55000 60002 81031 333 20132 30005 55139 70000;","Q01  00002PRCP24Q02  00002PRCP12"
"08213099999","2010-05-23T09:00:00","4","40.95","-4.1333333","1005.0","SEGOVIA, SP","FM-12","99999","V020","280,1,N,0026,1","22000,1,9,N","015000,1,N,1","+0215,1","+0097,1","99999,9",,,,,,,"01,99,1,01,1,01,1,00800,1,00,1,01,1",,,,,"99999,9,09019,1","2,1,001,1,+999,9","3,1516,9",,"SYN066AAXX  23094 08213 42565 12805 10215 20097 39019 48516 52001 81101;",
"08213099999","2010-05-23T12:00:00","4","40.95","-4.1333333","1005.0","SEGOVIA, SP","FM-12","99999","V020","230,1,N,0015,1","22000,1,9,N","020000,1,N,1","+0248,1","+0074,1","99999,9","06,0000,9,1",,,,,,"02,99,1,02,1,05,1,00800,1,00,1,00,1",,,,,"99999,9,09016,1","8,1,003,1,+999,9","3,1518,9",,"SYN082AAXX  23124 08213 12570 22303 10248 20074 39016 48518 58003 60001 82500 333 50630;","Q01  00002PRCP06"
"08213099999","2010-05-23T15:00:00","4","40.95","-4.1333333","1005.0","SEGOVIA, SP","FM-12","99999","V020","330,1,N,0036,1","22000,1,9,N","020000,1,N,1","+0264,1","+0069,1","99999,9",,,,,,,"02,99,1,02,1,05,1,00800,1,00,1,00,1",,,,,"99999,9,09008,1","7,1,008,1,+999,9","3,1513,9",,"SYN066AAXX  23154 08213 42570 23307 10264 20069 39008 48513 57008 82500;",
"08213099999","2010-05-23T18:00:00","4","40.95","-4.1333333","1005.0","SEGOVIA, SP","FM-12","99999","V020","240,1,N,0057,1","22000,1,9,N","020000,1,N,1","+0240,1","+0088,1","99999,9","12,0000,9,1",,,,,"01,1,+00600,1,09,1","03,99,1,01,1,09,1,00800,1,06,1,02,1",,,,"120,M,+0277,1","99999,9,09004,1","6,1,004,1,+999,9","3,1506,9",,"SYN088AAXX  23184 08213 12570 32411 10240 20088 39004 48506 56004 60002 81962 333 10277 81920;","Q01  00002PRCP12"
"08213099999","2010-05-24T06:00:00","4","40.95","-4.1333333","1005.0","SEGOVIA, SP","FM-12","99999","V020","120,1,N,0026,1","22000,1,9,N","012000,1,N,1","+0155,1","+0098,1","99999,9","12,0000,9,1","24,0000,9,1",,,,,"01,99,1,01,1,00,1,01750,1,03,1,09,1","0804,9","01,9","999,+0060,9","999,N,+0145,1","99999,9,09017,1","3,1,003,1,+999,9","3,1504,9",,"SYN100AAXX  24064 08213 12762 11205 10155 20098 39017 48504 53003 60002 81039 333 20145 30006 55134 70000;","Q01  00002PRCP24Q02  00002PRCP12"
"08213099999","2010-05-24T09:00:00","4","40.95","-4.1333333","1005.0","SEGOVIA, SP","FM-12","99999","V020","290,1,N,0036,1","22000,1,9,N","015000,1,N,1","+0212,1","+0123,1","99999,9",,,,,,,"02,99,1,01,1,02,1,00800,1,00,1,01,1",,,,,"99999,9,09021,1","3,1,004,1,+999,9","3,1518,9",,"SYN066AAXX  24094 08213 42565 22907 10212 20123 39021 48518 53004 81201;",
"08213099999","2010-05-24T12:00:00","4","40.95","-4.1333333","1005.0","SEGOVIA, SP","FM-12","99999","V020","210,1,N,0031,1","22000,1,9,N","018000,1,N,1","+0240,1","+0058,1","99999,9","06,0000,9,1",,,,,"01,1,+00600,1,09,1","02,99,1,02,1,03,1,00800,1,00,1,01,1",,,,,"99999,9,09021,1","0,1,000,1,+999,9","3,1522,9",,"SYN088AAXX  24124 08213 12568 22106 10240 20058 39021 48522 50000 60001 82301 333 50620 81920;","Q01  00002PRCP06"
"08213099999","2010-05-24T15:00:00","4","40.95","-4.1333333","1005.0","SEGOVIA, SP","FM-12","99999","V020","160,1,N,0077,1","22000,1,9,N","018000,1,N,1","+0243,1","+0070,1","99999,9",,,,,,,"02,99,1,01,1,05,1,00800,1,00,1,01,1",,,,,"99999,9,09018,1","7,1,003,1,+999,9","3,1519,9",,"SYN066AAXX  24154 08213 42568 21615 10243 20070 39018 48519 57003 81501;",
"08213099999","2010-05-24T18:00:00","4","40.95","-4.1333333","1005.0","SEGOVIA, SP","FM-12","99999","V020","190,1,N,0051,1","22000,1,9,N","012000,1,N,1","+0226,1","+0068,1","99999,9","12,0000,9,1",,,,,,"01,99,1,01,1,05,1,00800,1,00,1,00,1",,,,"999,M,+0254,1","99999,9,09011,1","7,1,007,1,+999,9","3,1510,9",,"SYN082AAXX  24184 08213 12562 11910 10226 20068 39011 48510 57007 60002 81500 333 10254;","Q01  00002PRCP12"
"08213099999","2010-05-25T06:00:00","4","40.95","-4.1333333","1005.0","SEGOVIA, SP","FM-12","99999","V020","240,1,N,0026,1","22000,1,9,N","012000,1,N,1","+0141,1","+0072,1","99999,9","12,0000,9,1","24,0000,9,1",,,,,"02,99,1,01,1,05,1,00800,1,00,1,01,1","0762,9","01,9","999,+0060,9","999,N,+0135,1","99999,9,09015,1","2,1,005,1,+999,9","3,1499,9",,"SYN100AAXX  25064 08213 12562 22405 10141 20072 39015 48499 52005 60002 81501 333 20135 30006 55127 70000;","Q01  00002PRCP24Q02  00002PRCP12"
"08213099999","2010-05-25T09:00:00","4","40.95","-4.1333333","1005.0","SEGOVIA, SP","FM-12","99999","V020","220,1,N,0077,1","22000,1,9,N","012000,1,N,1","+0161,1","+0065,1","99999,9",,,,,,,"02,99,1,02,1,05,1,00800,1,00,1,00,1",,,,,"99999,9,09018,1","2,1,003,1,+999,9","3,1505,9",,"SYN066AAXX  25094 08213 42562 22215 10161 20065 39018 48505 52003 82500;",
"08213099999","2010-05-25T12:00:00","4","40.95","-4.1333333","1005.0","SEGOVIA, SP","FM-12","99999","V020","240,1,N,0082,1","22000,1,9,N","020000,1,N,1","+0191,1","+0007,1","99999,9","06,0000,9,1",,,,,,"02,99,1,02,1,05,1,00800,1,00,1,00,1",,,,,"99999,9,09017,1","7,1,001,1,+999,9","3,1509,9",,"SYN082AAXX  25124 08213 12570 22416 10191 20007 39017 48509 57001 60001 82500 333 50590;","Q01  00002PRCP06"
"08213099999","2010-05-25T15:00:00","4","40.95","-4.1333333","1005.0","SEGOVIA, SP","FM-12","99999","V020","230,1,N,0098,1","22000,1,9,N","020000,1,N,1","+0206,1","+0054,1","99999,9",,,,,,,"02,99,1,02,1,05,1,00800,1,00,1,00,1",,,,,"99999,9,09013,1","7,1,004,1,+999,9","3,1508,9",,"SYN066AAXX  25154 08213 42570 22319 10206 20054 39013 48508 57004 82500;",
"08213099999","2010-05-25T18:00:00","4","40.95","-4.1333333","1005.0","SEGOVIA, SP","FM-12","99999","V020","230,1,N,0051,1","22000,1,9,N","020000,1,N,1","+0184,1","+0053,1","99999,9","12,0000,9,1",,,,,,"02,99,1,02,1,05,1,00800,1,00,1,00,1",,,,"999,M,+0210,1","99999,9,09013,1","0,1,000,1,+999,9","3,1504,9",,"SYN082AAXX  25184 08213 12570 22310 10184 20053 39013 48504 50000 60002 82500 333 10210;","Q01  00002PRCP12"
"08213099999","2010-05-26T06:00:00","4","40.95","-4.1333333","1005.0","SEGOVIA, SP","FM-12","99999","V020","280,1,N,0015,1","03600,1,9,N","012000,1,N,1","+0116,1","+0085,1","99999,9","12,0000,9,1","24,0000,9,1",,,,,"07,99,1,04,1,05,1,00800,1,02,1,00,1","0654,9","01,9","999,+0040,9","999,N,+0116,1","99999,9,09010,1","3,1,002,1,+999,9","3,1490,9",,"SYN100AAXX  26064 08213 12562 72803 10116 20085 39010 48490 53002 60002 84520 333 20116 30004 55109 70000;","Q01  00002PRCP24Q02  00002PRCP12"
"08213099999","2010-05-26T09:00:00","4","40.95","-4.1333333","1005.0","SEGOVIA, SP","FM-12","99999","V020","240,1,N,0026,1","01200,1,9,N","014000,1,N,1","+0138,1","+0071,1","99999,9",,,,,,,"07,99,1,07,1,08,1,00800,1,00,1,00,1",,,,,"99999,9,09012,1","2,1,002,1,+999,9","3,1496,9",,"SYN066AAXX  26094 08213 42564 72405 10138 20071 39012 48496 52002 87800;",
"08213099999","2010-05-26T12:00:00","4","40.95","-4.1333333","1005.0","SEGOVIA, SP","FM-12","99999","V020","290,1,N,0036,1","00750,1,9,N","020000,1,N,1","+0178,1","+0057,1","99999,9","06,0000,9,1",,,,,,"05,99,1,05,1,02,1,00800,1,00,1,00,1",,,,,"99999,9,09011,1","8,1,001,1,+999,9","3,1501,9",,"SYN082AAXX  26124 08213 12570 52907 10178 20057 39011 48501 58001 60001 85200 333 50660;","Q01  00002PRCP06"
"08213099999","2010-05-26T15:00:00","4","40.95","-4.1333333","1005.0","SEGOVIA, SP","FM-12","99999","V020","330,1,N,0021,1","00750,1,9,N","020000,1,N,1","+0210,1","+0046,1","99999,9",,,,,,,"06,99,1,05,1,02,1,00800,1,00,1,01,1",,,,,"99999,9,09000,1","7,1,011,1,+999,9","3,1496,9",,"SYN066AAXX  26154 08213 42570 63304 10210 20046 39000 48496 57011 85201;",
"08213099999","2010-05-26T18:00:00","4","40.95","-4.1333333","1005.0","SEGOVIA, SP","FM-12","99999","V020","300,1,N,0036,1","22000,1,9,N","020000,1,N,1","+0188,1","+0046,1","99999,9","12,0000,9,1",,,,,,"06,99,1,02,1,02,1,00800,1,00,1,04,1",,,,"999,M,+0224,1","99999,9,08992,1","7,1,008,1,+999,9","3,1485,9",,"SYN082AAXX  26184 08213 12570 63007 10188 20046 38992 48485 57008 60002 82204 333 10224;","Q01  00002PRCP12"
"08213099999","2010-05-27T06:00:00","4","40.95","-4.1333333","1005.0","SEGOVIA, SP","FM-12","99999","V020","080,1,N,0010,1","09000,1,9,N","020000,1,N,1","+0096,1","+0050,1","99999,9","12,0000,9,1","24,0000,9,1",,,,,"07,99,1,01,1,00,1,01750,1,04,1,04,1","0558,9","09,9","999,+0020,9","999,N,+0090,1","99999,9,08991,1","6,1,004,1,+999,9","3,1469,9",,"SYN100AAXX  27064 08213 12770 70802 10096 20050 38991 48469 56004 60002 81044 333 20090 31002 55093 70000;","Q01  00002PRCP24Q02  00002PRCP12"
"08213099999","2010-05-27T09:00:00","4","40.95","-4.1333333","1005.0","SEGOVIA, SP","FM-12","99999","V020","300,1,N,0021,1","09000,1,9,N","018000,1,N,1","+0154,1","+0074,1","99999,9",,,,,,,"07,99,1,01,1,02,1,00800,1,00,1,08,1",,,,,"99999,9,08993,1","3,1,002,1,+999,9","3,1481,9",,"SYN066AAXX  27094 08213 42568 73004 10154 20074 38993 48481 53002 81208;",
"08213099999","2010-05-27T12:00:00","4","40.95","-4.1333333","1005.0","SEGOVIA, SP","FM-12","99999","V020","220,1,N,0021,1","03600,1,9,N","018000,1,N,1","+0190,1","+0068,1","99999,9","06,0000,9,1",,,,,,"08,99,1,01,1,02,1,00800,1,02,1,99,9",,,,,"99999,9,08989,1","8,1,004,1,+999,9","3,1483,9",,"SYN082AAXX  27124 08213 12568 82204 10190 20068 38989 48483 58004 60001 8122/ 333 50440;","Q01  00002PRCP06"
"08213099999","2010-05-27T15:00:00","4","40.95","-4.1333333","1005.0","SEGOVIA, SP","FM-12","99999","V020","230,1,N,0041,1","03600,1,9,N","018000,1,N,1","+0194,1","+0051,1","99999,9",,,,,,,"07,99,1,04,1,08,1,00800,1,02,1,00,1",,,,,"99999,9,08984,1","8,1,005,1,+999,9","3,1478,9",,"SYN066AAXX  27154 08213 42568 72308 10194 20051 38984 48478 58005 84820;",
"08213099999","2010-05-27T18:00:00","4","40.95","-4.1333333","1005.0","SEGOVIA, SP","FM-12","99999","V020","040,1,N,0021,1","01200,1,9,N","018000,1,N,1","+0194,1","+0051,1","99999,9","12,0000,9,1",,,,,,"07,99,1,07,1,08,1,00800,1,00,1,00,1",,,,"999,M,+0212,1","99999,9,08981,1","8,1,003,1,+999,9","3,1476,9",,"SYN082AAXX  27184 08213 12568 70404 10194 20051 38981 48476 58003 60002 87800 333 10212;","Q01  00002PRCP12"
"08213099999","2010-05-28T06:00:00","4","40.95","-4.1333333","1005.0","SEGOVIA, SP","FM-12","99999","V020","270,1,N,0026,1","00750,1,9,N","005000,1,N,1","+0104,1","+0093,1","99999,9","12,0061,9,1","24,0061,9,1",,"6,1,06,1","2,1,06,1",,"08,99,1,06,1,07,1,00800,1,07,1,08,1","0348,9","11,9","999,+0070,9","999,N,+0104,1","99999,9,09020,1","3,1,007,1,+999,9","3,1497,9","61,1","SYN106AAXX  28064 08213 11550 82705 10104 20093 39020 48497 53007 60062 76162 86778 333 20104 32007 55058 70060;",
"08213099999","2010-05-28T09:00:00","4","40.95","-4.1333333","1005.0","SEGOVIA, SP","FM-12","99999","V020","070,1,N,0036,1","03600,1,9,N","010000,1,N,1","+0127,1","+0102,1","99999,9",,,,"6,1,03,1","2,1,03,1",,"06,99,1,04,1,07,1,00800,1,07,1,08,1",,,,,"99999,9,09028,1","0,1,008,1,+999,9","3,1509,9","01,1","SYN072AAXX  28094 08213 41560 60707 10127 20102 39028 48509 50008 70162 84778;",
"08213099999","2010-05-28T12:00:00","4","40.95","-4.1333333","1005.0","SEGOVIA, SP","FM-12","99999","V020","020,1,N,0021,1","01200,1,9,N","012000,1,N,1","+0160,1","+0077,1","99999,9","06,0030,9,1",,,"8,1,06,1","2,1,06,1",,"07,99,1,05,1,08,1,00800,1,07,1,08,1",,,,,"99999,9,09034,1","0,1,006,1,+999,9","3,1520,9","02,1","SYN088AAXX  28124 08213 11562 70204 10160 20077 39034 48520 50006 60031 70282 85878 333 50430;",
"08213099999","2010-05-28T15:00:00","4","40.95","-4.1333333","1005.0","SEGOVIA, SP","FM-12","99999","V020","040,1,N,0051,1","01200,1,9,N","012000,1,N,1","+0162,1","+0087,1","99999,9",,,,,,,"07,99,1,05,1,08,1,00800,1,07,1,01,1",,,,,"99999,9,09034,1","4,1,000,1,+999,9","3,1520,9",,"SYN066AAXX  28154 08213 42562 70410 10162 20087 39034 48520 54000 85871;",
"08213099999","2010-05-28T18:00:00","4","40.95","-4.1333333","1005.0","SEGOVIA, SP","FM-12","99999","V020","350,1,N,0026,1","03600,1,9,N","015000,1,N,1","+0167,1","+0081,1","99999,9","12,0030,9,1",,,,,"01,1,+00600,1,09,1","05,99,1,04,1,03,1,00800,1,03,1,00,1",,,,"120,M,+0177,1","99999,9,09037,1","3,1,003,1,+999,9","3,1524,9",,"SYN088AAXX  28184 08213 12565 53505 10167 20081 39037 48524 53003 60032 84330 333 10177 81920;",
"08213099999","2010-05-29T06:00:00","4","40.95","-4.1333333","1005.0","SEGOVIA, SP","FM-12","99999","V020","170,1,N,0026,1","09000,1,9,N","010000,1,N,1","+0096,1","+0070,1","99999,9","12,0000,9,1","24,0033,9,1",,,,,"06,99,1,02,1,00,1,01750,1,07,1,08,1","0384,9","09,9","999,+0040,9","999,N,+0088,1","99999,9,09083,1","2,1,003,1,+999,9","3,1553,9",,"SYN100AAXX  29064 08213 12760 61705 10096 20070 39083 48553 52003 60002 82078 333 20088 31004 55064 70033;","Q01  00002PRCP12"
"08213099999","2010-05-29T09:00:00","4","40.95","-4.1333333","1005.0","SEGOVIA, SP","FM-12","99999","V020","270,1,N,0026,1","09000,1,9,N","010000,1,N,1","+0162,1","+0089,1","99999,9",,,,,,,"05,99,1,01,1,01,1,00800,1,04,1,01,1",,,,,"99999,9,09089,1","1,1,006,1,+999,9","3,1572,9",,"SYN066AAXX  29094 08213 42560 52705 10162 20089 39089 48572 51006 81141;",
"08213099999","2010-05-29T12:00:00","4","40.95","-4.1333333","1005.0","SEGOVIA, SP","FM-12","99999","V020","280,1,N,0031,1","22000,1,9,N","012000,1,N,1","+0186,1","+0094,1","99999,9","06,0000,9,1",,,,,,"04,99,1,02,1,01,1,00800,1,00,1,01,1",,,,,"99999,9,09093,1","1,1,004,1,+999,9","3,1580,9",,"SYN082AAXX  29124 08213 12562 42806 10186 20094 39093 48580 51004 60001 82101 333 50260;","Q01  00002PRCP06"
"08213099999","2010-05-29T15:00:00","4","40.95","-4.1333333","1005.0","SEGOVIA, SP","FM-12","99999","V020","300,1,N,0036,1","22000,1,9,N","015000,1,N,1","+0212,1","+0074,1","99999,9",,,,,,,"02,99,1,01,1,01,1,00800,1,00,1,08,1",,,,,"99999,9,09091,1","7,1,002,1,+999,9","3,1583,9",,"SYN066AAXX  29154 08213 42565 23007 10212 20074 39091 48583 57002 81108;",
"08213099999","2010-05-29T18:00:00","4","40.95","-4.1333333","1005.0","SEGOVIA, SP","FM-12","99999","V020","290,1,N,0021,1","22000,1,9,N","020000,1,N,1","+0214,1","+0080,1","99999,9","12,0000,9,1",,,,,,"02,99,1,01,1,04,1,00800,1,00,1,01,1",,,,"999,M,+0223,1","99999,9,09090,1","6,1,001,1,+999,9","3,1582,9",,"SYN082AAXX  29184 08213 12570 22904 10214 20080 39090 48582 56001 60002 81401 333 10223;","Q01  00002PRCP12"
"08213099999","2010-05-30T06:00:00","4","40.95","-4.1333333","1005.0","SEGOVIA, SP","FM-12","99999","V020","070,1,N,0010,1","22000,1,9,N","012000,1,N,1","+0138,1","+0093,1","99999,9","12,0000,9,1","24,0000,9,1",,,,"00,1,+99999,9,99,9","00,99,1,00,1,00,1,99999,9,00,1,00,1","0816,9","09,9","999,+0060,9","999,N,+0118,1","99999,9,09113,1","4,1,000,1,+999,9","3,1589,9",,"SYN094AAXX  30064 08213 12962 00702 10138 20093 39113 48589 54000 60002 333 20118 31006 55136 70000;","Q01  00002PRCP24Q02  00002PRCP12"
"08213099999","2010-05-30T09:00:00","4","40.95","-4.1333333","1005.0","SEGOVIA, SP","FM-12","99999","V020","010,1,N,0021,1","22000,1,9,N","012000,1,N,1","+0185,1","+0113,1","99999,9",,,,,,"00,1,+99999,9,99,9","00,99,1,00,1,00,1,99999,9,00,1,00,1",,,,,"99999,9,09118,1","3,1,005,1,+999,9","3,1603,9",,"SYN060AAXX  30094 08213 42962 00104 10185 20113 39118 48603 53005;",
"08213099999","2010-05-30T12:00:00","4","40.95","-4.1333333","1005.0","SEGOVIA, SP","FM-12","99999","V020","250,1,N,0026,1","22000,1,9,N","015000,1,N,1","+0224,1","+0105,1","99999,9","06,0000,9,1",,,,,,"01,99,1,01,1,01,1,00800,1,00,1,00,1",,,,,"99999,9,09120,1","0,1,002,1,+999,9","3,1613,9",,"SYN082AAXX  30124 08213 12565 12505 10224 20105 39120 48613 50002 60001 81100 333 50460;","Q01  00002PRCP06"
"08213099999","2010-05-30T15:00:00","4","40.95","-4.1333333","1005.0","SEGOVIA, SP","FM-12","99999","V020","180,1,N,0010,1","22000,1,9,N","015000,1,N,1","+0246,1","+0108,1","99999,9",,,,,,,"02,99,1,01,1,01,1,00800,1,00,1,01,1",,,,,"99999,9,09109,1","7,1,011,1,+999,9","3,1607,9",,"SYN066AAXX  30154 08213 42565 21802 10246 20108 39109 48607 57011 81101;",
"08213099999","2010-05-30T18:00:00","4","40.95","-4.1333333","1005.0","SEGOVIA, SP","FM-12","99999","V020","020,1,N,0021,1","22000,1,9,N","020000,1,N,1","+0245,1","+0100,1","99999,9","12,0000,9,1",,,,,,"02,99,1,01,1,04,1,00800,1,00,1,01,1",,,,"999,M,+0262,1","99999,9,09102,1","8,1,007,1,+999,9","3,1600,9",,"SYN082AAXX  30184 08213 12570 20204 10245 20100 39102 48600 58007 60002 81401 333 10262;","Q01  00002PRCP12"
"08213099999","2010-05-31T06:00:00","4","40.95","-4.1333333","1005.0","SEGOVIA, SP","FM-12","99999","V020","090,1,N,0010,1","22000,1,9,N","020000,1,N,1","+0152,1","+0098,1","99999,9","12,0000,9,1","24,0000,9,1",,,,,"01,99,1,00,1,00,1,99999,9,00,1,01,1","0834,9","09,9","999,+0070,9","999,N,+0130,1","99999,9,09109,1","4,1,000,1,+999,9","3,1588,9",,"SYN100AAXX  31064 08213 12970 10902 10152 20098 39109 48588 54000 60002 80001 333 20130 31007 55139 70000;","Q01  00002PRCP24Q02  00002PRCP12"
"08213099999","2010-05-31T09:00:00","4","40.95","-4.1333333","1005.0","SEGOVIA, SP","FM-12","99999","V020","300,1,N,0021,1","22000,1,9,N","020000,1,N,1","+0212,1","+0112,1","99999,9",,,,,,,"01,99,1,00,1,00,1,99999,9,00,1,01,1",,,,,"99999,9,09109,1","4,1,000,1,+999,9","3,1601,9",,"SYN066AAXX  31094 08213 42970 13004 10212 20112 39109 48601 54000 80001;",
"08213099999","2010-05-31T12:00:00","4","40.95","-4.1333333","1005.0","SEGOVIA, SP","FM-12","99999","V020","020,1,N,0026,1","22000,1,9,N","020000,1,N,1","+0264,1","+0121,1","99999,9","06,0000,9,1",,,,,,"02,99,1,01,1,01,1,00800,1,00,1,01,1",,,,,"99999,9,09099,1","8,1,010,1,+999,9","3,1602,9",,"SYN082AAXX  31124 08213 12570 20205 10264 20121 39099 48602 58010 60001 81101 333 50480;","Q01  00002PRCP06"
"08213099999","2010-05-31T15:00:00","4","40.95","-4.1333333","1005.0","SEGOVIA, SP","FM-12","99999","V020","090,1,N,0010,1","22000,1,9,N","020000,1,N,1","+0268,1","+0109,1","99999,9",,,,,,,"02,99,1,01,1,01,1,00800,1,00,1,01,1",,,,,"99999,9,09084,1","7,1,015,1,+999,9","3,1588,9",,"SYN066AAXX  31154 08213 42570 20902 10268 20109 39084 48588 57015 81101;",
"08213099999","2010-05-31T18:00:00","4","40.95","-4.1333333","1005.0","SEGOVIA, SP","FM-12","99999","V020","040,1,N,0021,1","22000,1,9,N","020000,1,N,1","+0266,1","+0099,1","99999,9","12,0000,9,1",,,,,,"02,99,1,01,1,01,1,00800,1,00,1,01,1",,,,"999,M,+0280,1","99999,9,09071,1","7,1,013,1,+999,9","3,1575,9",,"SYN082AAXX  31184 08213 12570 20404 10266 20099 39071 48575 57013 60002 81101 333 10280;","Q01  00002PRCP12"
"08213099999","2010-06-01T06:00:00","4","40.95","-4.1333333","1005.0","SEGOVIA, SP","FM-12","99999","V020","070,1,N,0010,1","22000,1,9,N","020000,1,N,1","+0172,1","+0091,1","99999,9","12,0000,9,1","24,0000,9,1",,,,,"03,99,1,01,1,00,1,01750,1,04,1,04,1","0804,9","09,9","999,+0100,9","999,N,+0160,1","99999,9,09059,1","7,1,002,1,+999,9","3,1546,9",,"SYN100AAXX  01064 08213 12770 30702 10172 20091 39059 48546 57002 60002 81044 333 20160 31010 55134 70000;","Q01  00002PRCP24Q02  00002PRCP12"
"08213099999","2010-06-01T09:00:00","4","40.95","-4.1333333","1005.0","SEGOVIA, SP","FM-12","99999","V020","300,1,N,0026,1","03600,1,9,N","020000,1,N,1","+0222,1","+0116,1","99999,9",,,,,,,"07,99,1,01,1,01,1,00800,1,04,1,06,1",,,,,"99999,9,09057,1","5,1,002,1,+999,9","3,1554,9",,"SYN066AAXX  01094 08213 42570 73005 10222 20116 39057 48554 55002 81146;",
"08213099999","2010-06-01T12:00:00","4","40.95","-4.1333333","1005.0","SEGOVIA, SP","FM-12","99999","V020","280,1,N,0021,1","09000,1,9,N","020000,1,N,1","+0258,1","+0130,1","99999,9","06,0000,9,1",,,,,,"07,99,1,01,1,02,1,00800,1,00,1,06,1",,,,,"99999,9,09054,1","7,1,003,1,+999,9","3,1558,9",,"SYN082AAXX  01124 08213 12570 72804 10258 20130 39054 48558 57003 60001 81206 333 50560;","Q01  00002PRCP06"
"08213099999","2010-06-01T15:00:00","4","40.95","-4.1333333","1005.0","SEGOVIA, SP","FM-12","99999","V020","280,1,N,0036,1","09000,1,9,N","020000,1,N,1","+0276,1","+0108,1","99999,9",,,,,,,"07,99,1,02,1,02,1,00800,1,00,1,06,1",,,,,"99999,9,09045,1","8,1,009,1,+999,9","3,1552,9",,"SYN066AAXX  01154 08213 42570 72807 10276 20108 39045 48552 58009 82206;",
"08213099999","2010-06-01T18:00:00","4","40.95","-4.1333333","1005.0","SEGOVIA, SP","FM-12","99999","V020","320,1,N,0031,1","03600,1,9,N","020000,1,N,1","+0268,1","+0083,1","99999,9","12,0000,9,1",,,,,,"07,99,1,03,1,02,1,00800,1,04,1,06,1",,,,"999,M,+0284,1","99999,9,09040,1","7,1,005,1,+999,9","3,1545,9",,"SYN082AAXX  01184 08213 12570 73206 10268 20083 39040 48545 57005 60002 83246 333 10284;","Q01  00002PRCP12"
"08213099999","2010-06-02T06:00:00","4","40.95","-4.1333333","1005.0","SEGOVIA, SP","FM-12","99999","V020","140,1,N,0015,1","09000,1,9,N","020000,1,N,1","+0154,1","+0120,1","99999,9","12,0000,9,1","24,0000,9,1",,,,,"07,99,1,04,1,00,1,01750,1,07,1,09,1","0678,9","09,9","999,+0120,9","999,N,+0144,1","99999,9,09033,1","8,1,003,1,+999,9","3,1519,9",,"SYN100AAXX  02064 08213 12770 71403 10154 20120 39033 48519 58003 60002 84079 333 20144 31012 55113 70000;","Q01  00002PRCP24Q02  00002PRCP12"
"08213099999","2010-06-02T09:00:00","4","40.95","-4.1333333","1005.0","SEGOVIA, SP","FM-12","99999","V020","330,1,N,0015,1","09000,1,9,N","015000,1,N,1","+0208,1","+0133,1","99999,9",,,,,,,"06,99,1,03,1,00,1,01750,1,07,1,09,1",,,,,"99999,9,09033,1","5,1,000,1,+999,9","3,1529,9",,"SYN066AAXX  02094 08213 42765 63303 10208 20133 39033 48529 55000 83079;",
"08213099999","2010-06-02T12:00:00","4","40.95","-4.1333333","1005.0","SEGOVIA, SP","FM-12","99999","V020","280,1,N,0031,1","22000,1,9,N","015000,1,N,1","+0239,1","+0106,1","99999,9","06,0000,9,1",,,,,,"05,99,1,03,1,00,1,01750,1,07,1,01,1",,,,,"99999,9,09028,1","7,1,005,1,+999,9","3,1529,9",,"SYN082AAXX  02124 08213 12765 52806 10239 20106 39028 48529 57005 60001 83071 333 50630;","Q01  00002PRCP06"
"08213099999","2010-06-02T15:00:00","4","40.95","-4.1333333","1005.0","SEGOVIA, SP","FM-12","99999","V020","010,1,N,0026,1","09000,1,9,N","015000,1,N,1","+0260,1","+0080,1","99999,9",,,,,,,"05,99,1,01,1,01,1,00800,1,07,1,01,1",,,,,"99999,9,09018,1","6,1,010,1,+999,9","3,1522,9",,"SYN066AAXX  02154 08213 42565 50105 10260 20080 39018 48522 56010 81171;",
"08213099999","2010-06-02T18:00:00","4","40.95","-4.1333333","1005.0","SEGOVIA, SP","FM-12","99999","V020","010,1,N,0057,1","09000,1,9,N","020000,1,N,1","+0257,1","+0095,1","99999,9","12,0000,9,1",,,,,,"05,99,1,01,1,01,1,00800,1,07,1,01,1",,,,"999,M,+0272,1","99999,9,09009,1","8,1,009,1,+999,9","3,1513,9",,"SYN082AAXX  02184 08213 12570 50111 10257 20095 39009 48513 58009 60002 81171 333 10272;","Q01  00002PRCP12"
"08213099999","2010-06-03T06:00:00","4","40.95","-4.1333333","1005.0","SEGOVIA, SP","FM-12","99999","V020","100,1,N,0010,1","22000,1,9,N","012000,1,N,1","+0170,1","+0097,1","99999,9","12,0000,9,1","24,0000,9,1",,,,,"05,99,1,01,1,01,1,00800,1,08,1,09,1","0468,9","09,9","999,+0080,9","999,N,+0148,1","99999,9,09006,1","5,1,000,1,+999,9","3,1496,9",,"SYN100AAXX  03064 08213 12562 51002 10170 20097 39006 48496 55000 60002 81189 333 20148 31008 55078 70000;","Q01  00002PRCP24Q02  00002PRCP12"
"08213099999","2010-06-03T09:00:00","4","40.95","-4.1333333","1005.0","SEGOVIA, SP","FM-12","99999","V020","010,1,N,0015,1","22000,1,9,N","012000,1,N,1","+0240,1","+0107,1","99999,9",,,,,,,"05,99,1,01,1,04,1,00800,1,07,1,09,1",,,,,"99999,9,09009,1","3,1,003,1,+999,9","3,1511,9",,"SYN066AAXX  03094 08213 42562 50103 10240 20107 39009 48511 53003 81479;",
"08213099999","2010-06-03T12:00:00","4","40.95","-4.1333333","1005.0","SEGOVIA, SP","FM-12","99999","V020","350,1,N,0031,1","22000,1,9,N","015000,1,N,1","+0259,1","+0093,1","99999,9","06,0000,9,1",,,,,,"03,99,1,01,1,02,1,00800,1,07,1,01,1",,,,,"99999,9,09007,1","8,1,002,1,+999,9","3,1512,9",,"SYN082AAXX  03124 08213 12565 33506 10259 20093 39007 48512 58002 60001 81271 333 50470;","Q01  00002PRCP06"
"08213099999","2010-06-03T15:00:00","4","40.95","-4.1333333","1005.0","SEGOVIA, SP","FM-12","99999","V020","300,1,N,0036,1","22000,1,9,N","020000,1,N,1","+0283,1","+0086,1","99999,9",,,,,,,"03,99,1,03,1,02,1,00800,1,00,1,00,1",,,,,"99999,9,09002,1","6,1,005,1,+999,9","3,1511,9",,"SYN066AAXX  03154 08213 42570 33007 10283 20086 39002 48511 56005 83200;",
"08213099999","2010-06-03T18:00:00","4","40.95","-4.1333333","1005.0","SEGOVIA, SP","FM-12","99999","V020","320,1,N,0051,1","22000,1,9,N","020000,1,N,1","+0269,1","+0074,1","99999,9","12,0000,9,1",,,,,,"01,99,1,01,1,04,1,00800,1,00,1,00,1",,,,"999,M,+0288,1","99999,9,09004,1","3,1,002,1,+999,9","3,1510,9",,"SYN082AAXX  03184 08213 12570 13210 10269 20074 39004 48510 53002 60002 81400 333 10288;","Q01  00002PRCP12"
"08213099999","2010-06-04T06:00:00","4","40.95","-4.1333333","1005.0","SEGOVIA, SP","FM-12","99999","V020","130,1,N,0010,1","22000,1,9,N","015000,1,N,1","+0164,1","+0098,1","99999,9","12,0000,9,1","24,0000,9,1",,,,,"02,99,1,01,1,05,1,00800,1,00,1,01,1","0774,9","01,9","999,+0080,9","999,N,+0143,1","99999,9,09049,1","2,1,004,1,+999,9","3,1535,9",,"SYN100AAXX  04064 08213 12565 21302 10164 20098 39049 48535 52004 60002 81501 333 20143 30008 55129 70000;","Q01  00002PRCP24Q02  00002PRCP12"
"08213099999","2010-06-04T09:00:00","4","40.95","-4.1333333","1005.0","SEGOVIA, SP","FM-12","99999","V020","270,1,N,0036,1","22000,1,9,N","015000,1,N,1","+0219,1","+0107,1","99999,9",,,,,,,"01,99,1,01,1,00,1,01750,1,03,1,00,1",,,,,"99999,9,09054,1","2,1,005,1,+999,9","3,1550,9",,"SYN066AAXX  04094 08213 42765 12707 10219 20107 39054 48550 52005 81030;",
"08213099999","2010-06-04T12:00:00","4","40.95","-4.1333333","1005.0","SEGOVIA, SP","FM-12","99999","V020","160,1,N,0021,1","22000,1,9,N","020000,1,N,1","+0276,1","+0090,1","99999,9","06,0000,9,1",,,,,"01,1,+00600,1,09,1","02,99,1,01,1,03,1,00800,1,03,1,00,1",,,,,"99999,9,09054,1","4,1,000,1,+999,9","3,1560,9",,"SYN088AAXX  04124 08213 12570 21604 10276 20090 39054 48560 54000 60001 81330 333 50530 81920;","Q01  00002PRCP06"
"08213099999","2010-06-04T15:00:00","4","40.95","-4.1333333","1005.0","SEGOVIA, SP","FM-12","99999","V020","250,1,N,0021,1","22000,1,9,N","020000,1,N,1","+0292,1","+0072,1","99999,9",,,,,,,"01,99,1,01,1,05,1,00800,1,00,1,00,1",,,,,"99999,9,09045,1","7,1,009,1,+999,9","3,1554,9",,"SYN066AAXX  04154 08213 42570 12504 10292 20072 39045 48554 57009 81500;",
"08213099999","2010-06-04T18:00:00","4","40.95","-4.1333333","1005.0","SEGOVIA, SP","FM-12","99999","V020","140,1,N,0010,1","22000,1,9,N","020000,1,N,1","+0286,1","+0072,1","99999,9","12,0000,9,1",,,,,,"04,99,1,01,1,05,1,00800,1,00,1,01,1",,,,"999,M,+0299,1","99999,9,09043,1","6,1,002,1,+999,9","3,1551,9",,"SYN082AAXX  04184 08213 12570 41402 10286 20072 39043 48551 56002 60002 81501 333 10299;","Q01  00002PRCP12"
"08213099999","2010-06-05T06:00:00","4","40.95","-4.1333333","1005.0","SEGOVIA, SP","FM-12","99999","V020","090,1,N,0021,1","22000,1,9,N","018000,1,N,1","+0199,1","+0106,1","99999,9","12,0000,9,1","24,0000,9,1",,,,,"01,99,1,00,1,00,1,99999,9,00,1,01,1","0822,9","01,9","999,+0090,9","999,N,+0141,1","99999,9,09051,1","6,1,005,1,+999,9","3,1543,9",,"SYN100AAXX  05064 08213 12968 10904 10199 20106 39051 48543 56005 60002 80001 333 20141 30009 55137 70000;","Q01  00002PRCP24Q02  00002PRCP12"
"08213099999","2010-06-05T09:00:00","4","40.95","-4.1333333","1005.0","SEGOVIA, SP","FM-12","99999","V020","230,1,N,0026,1","22000,1,9,N","018000,1,N,1","+0260,1","+0089,1","99999,9",,,,,,,"02,99,1,01,1,00,1,01750,1,03,1,01,1",,,,,"99999,9,09050,1","8,1,001,1,+999,9","3,1553,9",,"SYN066AAXX  05094 08213 42768 22305 10260 20089 39050 48553 58001 81031;",
"08213099999","2010-06-05T12:00:00","4","40.95","-4.1333333","1005.0","SEGOVIA, SP","FM-12","99999","V020","230,1,N,0082,1","03600,1,9,N","015000,1,N,1","+0277,1","+0086,1","99999,9","06,0000,9,1",,,,,,"06,99,1,02,1,05,1,00800,1,03,1,05,1",,,,,"99999,9,09049,1","8,1,001,1,+999,9","3,1555,9",,"SYN082AAXX  05124 08213 12565 62316 10277 20086 39049 48555 58001 60001 82535 333 50610;","Q01  00002PRCP06"
"08213099999","2010-06-05T15:00:00","4","40.95","-4.1333333","1005.0","SEGOVIA, SP","FM-12","99999","V020","230,1,N,0067,1","22000,1,9,N","020000,1,N,1","+0287,1","+0055,1","99999,9",,,,,,,"04,99,1,02,1,05,1,00800,1,03,1,02,1",,,,,"99999,9,09041,1","7,1,008,1,+999,9","3,1549,9",,"SYN066AAXX  05154 08213 42570 42313 10287 20055 39041 48549 57008 82532;",
"08213099999","2010-06-05T18:00:00","4","40.95","-4.1333333","1005.0","SEGOVIA, SP","FM-12","99999","V020","230,1,N,0057,1","22000,1,9,N","020000,1,N,1","+0275,1","+0051,1","99999,9","12,0000,9,1",,,,,,"04,99,1,02,1,05,1,00800,1,00,1,01,1",,,,"999,M,+0300,1","99999,9,09032,1","7,1,009,1,+999,9","3,1538,9",,"SYN082AAXX  05184 08213 12570 42311 10275 20051 39032 48538 57009 60002 82501 333 10300;","Q01  00002PRCP12"
"08213099999","2010-06-06T06:00:00","4","40.95","-4.1333333","1005.0","SEGOVIA, SP","FM-12","99999","V020","290,1,N,0010,1","22000,1,9,N","015000,1,N,1","+0142,1","+0094,1","99999,9","12,0000,9,1","24,0000,9,1",,,,,"03,99,1,01,1,00,1,01750,1,08,1,02,1","0774,9","01,9","999,+0100,9","999,N,+0137,1","99999,9,09040,1","5,1,000,1,+999,9","3,1523,9",,"SYN100AAXX  06064 08213 12765 32902 10142 20094 39040 48523 55000 60002 81082 333 20137 30010 55129 70000;","Q01  00002PRCP24Q02  00002PRCP12"
"08213099999","2010-06-06T09:00:00","4","40.95","-4.1333333","1005.0","SEGOVIA, SP","FM-12","99999","V020","260,1,N,0010,1","22000,1,9,N","008000,1,N,1","+0192,1","+0115,1","99999,9",,,,"1,1,03,1","1,1,03,1",,"02,99,1,01,1,05,1,00800,1,00,1,02,1",,,,,"99999,9,09043,1","3,1,003,1,+999,9","3,1535,9","05,1","SYN072AAXX  06094 08213 41558 22602 10192 20115 39043 48535 53003 70511 81502;",
"08213099999","2010-06-06T12:00:00","4","40.95","-4.1333333","1005.0","SEGOVIA, SP","FM-12","99999","V020","290,1,N,0036,1","22000,1,9,N","010000,1,N,1","+0228,1","+0112,1","99999,9","06,0000,9,1",,,,,,"02,99,1,01,1,05,1,00800,1,00,1,02,1",,,,,"99999,9,09041,1","8,1,002,1,+999,9","3,1539,9",,"SYN082AAXX  06124 08213 12560 22907 10228 20112 39041 48539 58002 60001 81502 333 50700;","Q01  00002PRCP06"
"08213099999","2010-06-06T15:00:00","4","40.95","-4.1333333","1005.0","SEGOVIA, SP","FM-12","99999","V020","330,1,N,0031,1","22000,1,9,N","020000,1,N,1","+0254,1","+0093,1","99999,9",,,,,,"01,1,+00600,1,09,1","03,99,1,02,1,03,1,00800,1,00,1,02,1",,,,,"99999,9,09029,1","7,1,012,1,+999,9","3,1532,9",,"SYN076AAXX  06154 08213 42570 33306 10254 20093 39029 48532 57012 82302 333 81920;",
"08213099999","2010-06-06T18:00:00","4","40.95","-4.1333333","1005.0","SEGOVIA, SP","FM-12","99999","V020","290,1,N,0057,1","22000,1,9,N","018000,1,N,1","+0248,1","+0083,1","99999,9","12,0000,9,1",,,,,,"05,99,1,02,1,05,1,00800,1,00,1,06,1",,,,"999,M,+0270,1","99999,9,09028,1","7,1,001,1,+999,9","3,1530,9",,"SYN082AAXX  06184 08213 12568 52911 10248 20083 39028 48530 57001 60002 82506 333 10270;","Q01  00002PRCP12"
"08213099999","2010-06-07T06:00:00","4","40.95","-4.1333333","1005.0","SEGOVIA, SP","FM-12","99999","V020","170,1,N,0005,1","22000,1,9,N","012000,1,N,1","+0152,1","+0106,1","99999,9","12,0000,9,1","24,0000,9,1",,,,,"03,99,1,00,1,00,1,99999,9,00,1,01,1","0570,9","01,9","999,+0100,9","999,N,+0124,1","99999,9,09025,1","6,1,002,1,+999,9","3,1511,9",,"SYN100AAXX  07064 08213 12962 31701 10152 20106 39025 48511 56002 60002 80001 333 20124 30010 55095 70000;","Q01  00002PRCP24Q02  00002PRCP12"
"08213099999","2010-06-07T09:00:00","4","40.95","-4.1333333","1005.0","SEGOVIA, SP","FM-12","99999","V020","260,1,N,0021,1","22000,1,9,N","012000,1,N,1","+0192,1","+0094,1","99999,9",,,,,,,"03,99,1,01,1,01,1,00800,1,00,1,08,1",,,,,"99999,9,09025,1","0,1,000,1,+999,9","3,1517,9",,"SYN066AAXX  07094 08213 42562 32604 10192 20094 39025 48517 50000 81108;",
"08213099999","2010-06-07T12:00:00","4","40.95","-4.1333333","1005.0","SEGOVIA, SP","FM-12","99999","V020","160,1,N,0015,1","22000,1,9,N","012000,1,N,1","+0249,1","+0100,1","99999,9","06,0000,9,1",,,,,,"04,99,1,01,1,01,1,00800,1,07,1,08,1",,,,,"99999,9,09011,1","8,1,014,1,+999,9","3,1514,9",,"SYN082AAXX  07124 08213 12562 41603 10249 20100 39011 48514 58014 60001 81178 333 50540;","Q01  00002PRCP06"
"08213099999","2010-06-07T15:00:00","4","40.95","-4.1333333","1005.0","SEGOVIA, SP","FM-12","99999","V020","260,1,N,0036,1","03600,1,9,N","015000,1,N,1","+0255,1","+0089,1","99999,9",,,,,,,"06,99,1,02,1,02,1,00800,1,07,1,08,1",,,,,"99999,9,08999,1","7,1,012,1,+999,9","3,1503,9",,"SYN066AAXX  07154 08213 42565 62607 10255 20089 38999 48503 57012 82278;",
"08213099999","2010-06-07T18:00:00","4","40.95","-4.1333333","1005.0","SEGOVIA, SP","FM-12","99999","V020","290,1,N,0067,1","09000,1,9,N","015000,1,N,1","+0250,1","+0067,1","99999,9","12,0000,9,1",,,,,,"05,99,1,02,1,04,1,00800,1,03,1,08,1",,,,"999,M,+0276,1","99999,9,08992,1","7,1,007,1,+999,9","3,1495,9",,"SYN082AAXX  07184 08213 12565 52913 10250 20067 38992 48495 57007 60002 82438 333 10276;","Q01  00002PRCP12"
"08213099999","2010-06-08T06:00:00","4","40.95","-4.1333333","1005.0","SEGOVIA, SP","FM-12","99999","V020","250,1,N,0015,1","22000,1,9,N","012000,1,N,1","+0124,1","+0092,1","99999,9","12,0000,9,1","24,0000,9,1",,,,,"04,99,1,03,1,04,1,00450,1,04,1,01,1","0720,9","09,9","999,+0080,9","999,N,+0124,1","99999,9,08978,1","6,1,005,1,+999,9","3,1462,9",,"SYN100AAXX  08064 08213 12462 42503 10124 20092 38978 48462 56005 60002 83441 333 20124 31008 55120 70000;","Q01  00002PRCP24Q02  00002PRCP12"
"08213099999","2010-06-08T09:00:00","4","40.95","-4.1333333","1005.0","SEGOVIA, SP","FM-12","99999","V020","290,1,N,0021,1","22000,1,9,N","010000,1,N,1","+0172,1","+0101,1","99999,9",,,,,,,"04,99,1,02,1,01,1,00800,1,07,1,01,1",,,,,"99999,9,08970,1","7,1,008,1,+999,9","3,1462,9",,"SYN066AAXX  08094 08213 42560 42904 10172 20101 38970 48462 57008 82171;",
"08213099999","2010-06-08T12:00:00","4","40.95","-4.1333333","1005.0","SEGOVIA, SP","FM-12","99999","V020","310,1,N,0041,1","03600,1,9,N","012000,1,N,1","+0210,1","+0089,1","99999,9","06,0000,9,1",,,,,,"06,99,1,03,1,04,1,00800,1,07,1,01,1",,,,,"99999,9,08957,1","7,1,013,1,+999,9","3,1456,9",,"SYN082AAXX  08124 08213 12562 63108 10210 20089 38957 48456 57013 60001 83471 333 50610;","Q01  00002PRCP06"
"08213099999","2010-06-08T15:00:00","4","40.95","-4.1333333","1005.0","SEGOVIA, SP","FM-12","99999","V020","290,1,N,0036,1","03600,1,9,N","012000,1,N,1","+0162,1","+0098,1","99999,9",,,,"6,1,03,1","2,1,03,1",,"08,99,1,04,1,04,1,00800,1,07,1,08,1",,,,,"99999,9,08951,1","8,1,006,1,+999,9","3,1443,9","60,1","SYN072AAXX  08154 08213 41562 82907 10162 20098 38951 48443 58006 76062 84478;",
"08213099999","2010-06-08T18:00:00","4","40.95","-4.1333333","1005.0","SEGOVIA, SP","FM-12","99999","V020","120,1,N,0015,1","00750,1,9,N","008000,1,N,1","+0138,1","+0115,1","99999,9","12,0005,9,1",,,"6,1,06,1","5,1,06,1",,"08,99,1,06,1,04,1,00800,1,07,1,08,1",,,,"999,M,+0222,1","99999,9,08948,1","7,1,003,1,+999,9","3,1437,9","50,1","SYN088AAXX  08184 08213 11558 81203 10138 20115 38948 48437 57003 69952 75065 86478 333 10222;",
"08213099999","2010-06-09T06:00:00","4","40.95","-4.1333333","1005.0","SEGOVIA, SP","FM-12","99999","V020","350,1,N,0010,1","00750,1,9,N","018000,1,N,1","+0122,1","+0108,1","99999,9","12,0030,9,1","24,0036,9,1",,"6,1,06,1","2,1,06,1",,"08,99,1,06,1,05,1,00800,1,09,1,99,9","0384,9","09,9","999,+0100,9","999,N,+0115,1","99999,9,08899,1","7,1,012,1,+999,9","3,1389,9","02,1","SYN106AAXX  09064 08213 11568 83502 10122 20108 38899 48389 57012 60032 70262 8659/ 333 20115 31010 55064 70036;",
"08213099999","2010-06-09T09:00:00","4","40.95","-4.1333333","1005.0","SEGOVIA, SP","FM-12","99999","V020","120,1,N,0010,1","03600,1,9,N","018000,1,N,1","+0149,1","+0105,1","99999,9",,,,"6,1,03,1","2,1,03,1",,"06,99,1,04,1,07,1,00800,1,07,1,99,9",,,,,"99999,9,08890,1","6,1,009,1,+999,9","3,1384,9","02,1","SYN072AAXX  09094 08213 41568 61202 10149 20105 38890 48384 56009 70262 8477/;",
"08213099999","2010-06-09T12:00:00","4","40.95","-4.1333333","1005.0","SEGOVIA, SP","FM-12","99999","V020","240,1,N,0015,1","03600,1,9,N","018000,1,N,1","+0149,1","+0097,1","99999,9","06,0000,9,1",,,,,,"08,99,1,04,1,07,1,00450,1,07,1,99,9",,,,,"99999,9,08883,1","6,1,007,1,+999,9","3,1377,9",,"SYN082AAXX  09124 08213 12468 82403 10149 20097 38883 48377 56007 60001 8477/ 333 50270;","Q01  00002PRCP06"
"08213099999","2010-06-09T15:00:00","4","40.95","-4.1333333","1005.0","SEGOVIA, SP","FM-12","99999","V020","150,1,N,0067,1","00750,1,9,N","020000,1,N,1","+0188,1","+0079,1","99999,9",,,,"6,1,03,1","2,1,03,1",,"07,99,1,05,1,05,1,00800,1,04,1,99,9",,,,,"99999,9,08863,1","7,1,020,1,+999,9","3,1363,9","02,1","SYN072AAXX  09154 08213 41570 71513 10188 20079 38863 48363 57020 70262 8554/;",
"08213099999","2010-06-09T18:00:00","4","40.95","-4.1333333","1005.0","SEGOVIA, SP","FM-12","99999","V020","230,1,N,0041,1","00750,1,9,N","012000,1,N,1","+0162,1","+0101,1","99999,9","12,0000,9,1",,,"6,1,06,1","2,1,06,1",,"07,99,1,05,1,05,1,00800,1,09,1,99,9",,,,"999,M,+0197,1","99999,9,08854,1","7,1,009,1,+999,9","3,1351,9","15,1","SYN088AAXX  09184 08213 11562 72308 10162 20101 38854 48351 57009 69902 71562 8559/ 333 10197;","Q01  00002PRCP12"
"08213099999","2010-06-10T06:00:00","4","40.95","-4.1333333","1005.0","SEGOVIA, SP","FM-12","99999","V020","240,1,N,0046,1","00750,1,9,N","018000,1,N,1","+0102,1","+0033,1","99999,9","12,0061,9,2","24,0056,9,2",,,,,"07,99,1,07,1,05,1,00800,1,99,9,99,9","0156,9","09,9","999,+0080,9","999,N,+0090,1","99999,9,08901,1","3,1,005,1,+999,9","3,1387,9",,"SYN100AAXX  10064 08213 12568 72409 10102 20033 38901 48387 53005 60062 875// 333 20090 31008 55026 70057;",
"08213099999","2010-06-10T09:00:00","4","40.95","-4.1333333","1005.0","SEGOVIA, SP","FM-12","99999","V020","220,1,N,0051,1","22000,1,9,N","015000,1,N,1","+0125,1","+0078,1","99999,9",,,,"6,1,03,1","2,1,03,1","01,1,+00600,1,09,1","04,99,1,03,1,03,1,00800,1,06,1,00,1",,,,,"99999,9,08912,1","2,1,011,1,+999,9","3,1401,9","25,1","SYN082AAXX  10094 08213 41565 42210 10125 20078 38912 48401 52011 72562 83360 333 81920;",
"08213099999","2010-06-10T12:00:00","4","40.95","-4.1333333","1005.0","SEGOVIA, SP","FM-12","99999","V020","230,1,N,0077,1","00750,1,C,N","020000,1,N,1","+0145,1","+0050,1","99999,9","06,0000,2,1",,,"8,1,06,1","2,1,06,1","01,1,+00600,1,09,1","07,99,1,07,1,03,1,00800,1,99,9,99,9",,,,,"99999,9,08916,1","2,1,004,1,+999,9","3,1407,9","80,1","SYN094AAXX  10124 08213 11570 72315 10145 20050 38916 48407 52004 69901 78082 873// 333 50320 81920;",
"08213099999","2010-06-10T15:00:00","4","40.95","-4.1333333","1005.0","SEGOVIA, SP","FM-12","99999","V020","220,1,N,0077,1","00750,1,C,N","018000,1,N,1","+0162,1","+0061,1","99999,9",,,,"8,1,03,1","2,1,03,1","01,1,+00600,1,09,1","07,99,1,07,1,03,1,00800,1,99,9,99,9",,,,,"99999,9,08920,1","1,1,004,1,+999,9","3,1413,9","03,1","SYN082AAXX  10154 08213 41568 72215 10162 20061 38920 48413 51004 70382 873// 333 81920;",
"08213099999","2010-06-10T18:00:00","4","40.95","-4.1333333","1005.0","SEGOVIA, SP","FM-12","99999","V020","210,1,N,0036,1","03600,1,9,N","012000,1,N,1","+0134,1","+0080,1","99999,9","12,0030,9,1",,,"8,1,06,1","8,1,06,1","02,1,+00600,1,09,1","06,99,1,03,1,03,1,00800,1,09,1,00,1",,,,"120,M,+0171,1","99999,9,08935,1","2,1,015,1,+999,9","3,1424,9","25,1","SYN094AAXX  10184 08213 11562 62107 10134 20080 38935 48424 52015 60032 72588 83390 333 10171 82920;",
"08213099999","2010-06-11T06:00:00","4","40.95","-4.1333333","1005.0","SEGOVIA, SP","FM-12","99999","V020","240,1,N,0046,1","00750,1,9,N","015000,1,N,1","+0102,1","+0067,1","99999,9","12,0000,2,1","24,0033,9,1",,,,,"08,99,1,08,1,05,1,00800,1,99,9,99,9","0372,9","09,9","999,+0060,9","999,N,+0091,1","99999,9,08971,1","3,1,005,1,+999,9","3,1452,9",,"SYN100AAXX  11064 08213 12565 82409 10102 20067 38971 48452 53005 69902 885// 333 20091 31006 55062 70033;",
"08213099999","2010-06-11T09:00:00","4","40.95","-4.1333333","1005.0","SEGOVIA, SP","FM-12","99999","V020","240,1,N,0031,1","00750,1,9,N","005000,1,N,1","+0100,1","+0076,1","99999,9",,,,"6,1,03,1","2,1,03,1",,"08,99,1,08,1,07,1,00800,1,99,9,99,9",,,,,"99999,9,08984,1","2,1,013,1,+999,9","3,1464,9","61,1","SYN072AAXX  11094 08213 41550 82406 10100 20076 38984 48464 52013 76162 887//;",
"08213099999","2010-06-11T12:00:00","4","40.95","-4.1333333","1005.0","SEGOVIA, SP","FM-12","99999","V020","240,1,N,0036,1","00750,1,9,N","004000,1,N,1","+0109,1","+0093,1","99999,9","06,0020,9,1",,,"8,1,06,1","6,1,06,1",,"08,99,1,08,1,07,1,00800,1,99,9,99,9",,,,,"99999,9,08989,1","2,1,005,1,+999,9","3,1470,9","25,1","SYN088AAXX  11124 08213 11540 82407 10109 20093 38989 48470 52005 60021 72586 887// 333 50240;",
"08213099999","2010-06-11T15:00:00","4","40.95","-4.1333333","1005.0","SEGOVIA, SP","FM-12","99999","V020","999,9,9,9999,9","00750,1,C,N","012000,1,N,1","+0131,1","+0113,1","99999,9",,,,"8,1,03,1","6,1,03,1","02,1,+00600,1,09,1","07,99,1,05,1,03,1,00800,1,06,1,99,9",,,,,"99999,9,08989,1","4,1,000,1,+999,9","3,1474,9","21,1","SYN082AAXX  11154 08213 41562 7//// 10131 20113 38989 48474 54000 72186 8536/ 333 82920;",
"08213099999","2010-06-11T18:00:00","4","40.95","-4.1333333","1005.0","SEGOVIA, SP","FM-12","99999","V020","270,1,N,0093,1","00750,1,C,N","016000,1,N,1","+0144,1","+0079,1","99999,9","12,0020,9,1",,,"8,1,06,1","6,1,06,1","02,1,+00600,1,09,1","08,99,1,08,1,03,1,00800,1,99,9,99,9",,,,"120,M,+0160,1","99999,9,08988,1","7,1,001,1,+999,9","3,1474,9","60,1","SYN094AAXX  11184 08213 11566 82718 10144 20079 38988 48474 57001 60022 76086 883// 333 10160 82920;",
"08213099999","2010-06-12T06:00:00","4","40.95","-4.1333333","1005.0","SEGOVIA, SP","FM-12","99999","V020","300,1,N,0041,1","00750,1,9,N","012000,1,N,1","+0098,1","+0079,1","99999,9","12,0211,9,1","24,0226,9,1",,"6,1,06,1","2,1,06,1",,"08,99,1,05,1,05,1,00800,1,02,1,99,9","0060,9","11,9","999,+0090,9","999,N,+0098,1","99999,9,08996,1","6,1,002,1,+999,9","3,1474,9","02,1","SYN106AAXX  12064 08213 11562 83008 10098 20079 38996 48474 56002 60212 70262 8552/ 333 20098 32009 55010 70226;",
"08213099999","2010-06-12T09:00:00","4","40.95","-4.1333333","1005.0","SEGOVIA, SP","FM-12","99999","V020","300,1,N,0026,1","00750,1,9,N","012000,1,N,1","+0108,1","+0077,1","99999,9",,,,,,,"08,99,1,05,1,05,1,00800,1,02,1,99,9",,,,,"99999,9,09001,1","1,1,005,1,+999,9","3,1481,9",,"SYN066AAXX  12094 08213 42562 83005 10108 20077 39001 48481 51005 8552/;",
"08213099999","2010-06-12T12:00:00","4","40.95","-4.1333333","1005.0","SEGOVIA, SP","FM-12","99999","V020","010,1,N,0036,1","00750,1,9,N","016000,1,N,1","+0129,1","+0074,1","99999,9","06,0000,9,1",,,,,,"08,99,1,05,1,05,1,00800,1,02,1,99,9",,,,,"99999,9,09004,1","1,1,003,1,+999,9","3,1487,9",,"SYN082AAXX  12124 08213 12566 80107 10129 20074 39004 48487 51003 60001 8552/ 333 50160;","Q01  00002PRCP06"
"08213099999","2010-06-12T15:00:00","4","40.95","-4.1333333","1005.0","SEGOVIA, SP","FM-12","99999","V020","090,1,N,0021,1","01200,1,9,N","018000,1,N,1","+0142,1","+0102,1","99999,9",,,,"6,1,03,1","2,1,03,1",,"07,99,1,07,1,08,1,00800,1,00,1,00,1",,,,,"99999,9,09001,1","7,1,003,1,+999,9","3,1487,9","02,1","SYN072AAXX  12154 08213 41568 70904 10142 20102 39001 48487 57003 70262 87800;",
"08213099999","2010-06-12T18:00:00","4","40.95","-4.1333333","1005.0","SEGOVIA, SP","FM-12","99999","V020","080,1,N,0026,1","03600,1,9,N","018000,1,N,1","+0114,1","+0095,1","99999,9","12,0020,9,1",,,"6,1,06,1","2,1,06,1",,"07,99,1,04,1,05,1,00800,1,02,1,00,1",,,,"999,M,+0158,1","99999,9,09005,1","1,1,004,1,+999,9","3,1485,9","02,1","SYN088AAXX  12184 08213 11568 70805 10114 20095 39005 48485 51004 60022 70262 84520 333 10158;",
"08213099999","2010-06-13T06:00:00","4","40.95","-4.1333333","1005.0","SEGOVIA, SP","FM-12","99999","V020","030,1,N,0026,1","00750,1,9,N","005000,1,N,1","+0108,1","+0097,1","99999,9","12,0000,9,1","24,0023,9,1",,"2,1,06,1","2,1,06,1",,"08,99,1,08,1,07,1,00800,1,99,9,99,9","0030,9","09,9","999,+0090,9","999,N,+0099,1","99999,9,09024,1","3,1,003,1,+999,9","3,1502,9","10,1","SYN106AAXX  13064 08213 11550 80305 10108 20097 39024 48502 53003 69912 71022 887// 333 20099 31009 55005 70024;","Q01  00002PRCP12"
"08213099999","2010-06-13T09:00:00","4","40.95","-4.1333333","1005.0","SEGOVIA, SP","FM-12","99999","V020","150,1,N,0010,1","00750,1,9,N","015000,1,N,1","+0141,1","+0099,1","99999,9",,,,,,,"06,99,1,05,1,05,1,00800,1,00,1,01,1",,,,,"99999,9,09031,1","2,1,007,1,+999,9","3,1514,9",,"SYN066AAXX  13094 08213 42565 61502 10141 20099 39031 48514 52007 85501;",
"08213099999","2010-06-13T12:00:00","4","40.95","-4.1333333","1005.0","SEGOVIA, SP","FM-12","99999","V020","060,1,N,0026,1","22000,1,9,N","020000,1,N,1","+0186,1","+0107,1","99999,9","06,0000,9,1",,,,,"01,1,+00600,1,09,1","05,99,1,04,1,03,1,00800,1,00,1,01,1",,,,,"99999,9,09028,1","8,1,003,1,+999,9","3,1519,9",,"SYN088AAXX  13124 08213 12570 50605 10186 20107 39028 48519 58003 60001 84301 333 50230 81920;","Q01  00002PRCP06"
"08213099999","2010-06-13T15:00:00","4","40.95","-4.1333333","1005.0","SEGOVIA, SP","FM-12","99999","V020","050,1,N,0046,1","03600,1,9,N","012000,1,N,1","+0195,1","+0085,1","99999,9",,,,"2,1,03,1","2,1,03,1","02,1,+00600,1,09,1","06,99,1,04,1,09,1,00800,1,06,1,02,1",,,,,"99999,9,09022,1","8,1,006,1,+999,9","3,1515,9","15,1","SYN082AAXX  13154 08213 41562 60509 10195 20085 39022 48515 58006 71522 84962 333 82920;",
"08213099999","2010-06-13T18:00:00","4","40.95","-4.1333333","1005.0","SEGOVIA, SP","FM-12","99999","V020","010,1,N,0021,1","03600,1,9,N","020000,1,N,1","+0182,1","+0090,1","99999,9","12,0000,9,1",,,,,"02,1,+00600,1,09,1","06,99,1,04,1,03,1,00800,1,06,1,02,1",,,,"120,M,+0210,1","99999,9,09023,1","3,1,001,1,+999,9","3,1514,9",,"SYN088AAXX  13184 08213 12570 60104 10182 20090 39023 48514 53001 60002 84362 333 10210 82920;","Q01  00002PRCP12"
"08213099999","2010-06-14T06:00:00","4","40.95","-4.1333333","1005.0","SEGOVIA, SP","FM-12","99999","V020","080,1,N,0010,1","22000,1,9,N","010000,1,N,1","+0114,1","+0083,1","99999,9","12,0000,9,1","24,0000,9,1",,,,,"03,99,1,01,1,06,1,00800,1,04,1,02,1","0342,9","09,9","999,+0040,9","999,N,+0087,1","99999,9,09019,1","5,1,000,1,+999,9","3,1498,9",,"SYN100AAXX  14064 08213 12560 30802 10114 20083 39019 48498 55000 60002 81642 333 20087 31004 55057 70000;","Q01  00002PRCP24Q02  00002PRCP12"
"08213099999","2010-06-14T09:00:00","4","40.95","-4.1333333","1005.0","SEGOVIA, SP","FM-12","99999","V020","290,1,N,0026,1","00750,1,9,N","010000,1,N,1","+0134,1","+0106,1","99999,9",,,,,,,"08,99,1,08,1,07,1,00800,1,99,9,99,9",,,,,"99999,9,09023,1","2,1,004,1,+999,9","3,1506,9",,"SYN066AAXX  14094 08213 42560 82905 10134 20106 39023 48506 52004 887//;",
"08213099999","2010-06-14T12:00:00","4","40.95","-4.1333333","1005.0","SEGOVIA, SP","FM-12","99999","V020","340,1,N,0031,1","00750,1,C,N","012000,1,N,1","+0170,1","+0097,1","99999,9","06,0000,9,1",,,,,"01,1,+00600,1,09,1","06,99,1,06,1,03,1,00800,1,00,1,00,1",,,,,"99999,9,09017,1","6,1,006,1,+999,9","3,1506,9",,"SYN088AAXX  14124 08213 12562 63406 10170 20097 39017 48506 56006 60001 86300 333 50270 81920;","Q01  00002PRCP06"
"08213099999","2010-06-14T15:00:00","4","40.95","-4.1333333","1005.0","SEGOVIA, SP","FM-12","99999","V020","070,1,N,0036,1","22000,1,9,N","020000,1,N,1","+0188,1","+0096,1","99999,9",,,,,,,"04,99,1,04,1,08,1,00800,1,00,1,00,1",,,,,"99999,9,09003,1","7,1,014,1,+999,9","3,1496,9",,"SYN066AAXX  14154 08213 42570 40707 10188 20096 39003 48496 57014 84800;",
"08213099999","2010-06-14T18:00:00","4","40.95","-4.1333333","1005.0","SEGOVIA, SP","FM-12","99999","V020","350,1,N,0031,1","22000,1,9,N","020000,1,N,1","+0178,1","+0057,1","99999,9","12,0000,9,1",,,,,,"03,99,1,03,1,05,1,00800,1,00,1,00,1",,,,"999,M,+0196,1","99999,9,08999,1","7,1,004,1,+999,9","3,1490,9",,"SYN082AAXX  14184 08213 12570 33506 10178 20057 38999 48490 57004 60002 83500 333 10196;","Q01  00002PRCP12"
"08213099999","2010-06-15T06:00:00","4","40.95","-4.1333333","1005.0","SEGOVIA, SP","FM-12","99999","V020","070,1,N,0015,1","22000,1,9,N","012000,1,N,1","+0076,1","+0054,1","99999,9","12,0000,9,1","24,0000,9,1",,,,,"03,99,1,01,1,05,1,00800,1,05,1,00,1","0630,9","09,9","999,+0030,9","999,N,+0065,1","99999,9,09019,1","7,1,003,1,+999,9","3,1491,9",,"SYN100AAXX  15064 08213 12562 30703 10076 20054 39019 48491 57003 60002 81550 333 20065 31003 55105 70000;","Q01  00002PRCP24Q02  00002PRCP12"
"08213099999","2010-06-15T09:00:00","4","40.95","-4.1333333","1005.0","SEGOVIA, SP","FM-12","99999","V020","330,1,N,0036,1","22000,1,9,N","015000,1,N,1","+0108,1","+0031,1","99999,9",,,,,,,"04,99,1,04,1,05,1,00800,1,00,1,00,1",,,,,"99999,9,09020,1","3,1,001,1,+999,9","3,1497,9",,"SYN066AAXX  15094 08213 42565 43307 10108 20031 39020 48497 53001 84500;",
"08213099999","2010-06-15T12:00:00","4","40.95","-4.1333333","1005.0","SEGOVIA, SP","FM-12","99999","V020","330,1,N,0031,1","00750,1,C,N","018000,1,N,1","+0137,1","+0038,1","99999,9","06,0000,9,1",,,,,"01,1,+00600,1,09,1","06,99,1,06,1,03,1,00800,1,00,1,00,1",,,,,"99999,9,09016,1","8,1,004,1,+999,9","3,1499,9",,"SYN088AAXX  15124 08213 12568 63306 10137 20038 39016 48499 58004 60001 86300 333 50360 81920;","Q01  00002PRCP06"
"08213099999","2010-06-15T15:00:00","4","40.95","-4.1333333","1005.0","SEGOVIA, SP","FM-12","99999","V020","360,1,N,0041,1","22000,1,9,N","015000,1,N,1","+0126,1","+0058,1","99999,9",,,,"9,1,03,1","8,1,03,1","01,1,+00600,1,09,1","03,99,1,03,1,09,1,00800,1,00,1,00,1",,,,,"99999,9,09019,1","0,1,003,1,+999,9","3,1500,9","03,1","SYN082AAXX  15154 08213 41565 33608 10126 20058 39019 48500 50003 70398 83900 333 81920;",
"08213099999","2010-06-15T18:00:00","4","40.95","-4.1333333","1005.0","SEGOVIA, SP","FM-12","99999","V020","040,1,N,0041,1","22000,1,9,N","018000,1,N,1","+0114,1","+0055,1","99999,9","12,0030,9,1",,,"8,1,06,1","6,1,06,1","01,1,+00600,1,09,1","04,99,1,03,1,03,1,00800,1,06,1,02,1",,,,"120,M,+0155,1","99999,9,09018,1","8,1,001,1,+999,9","3,1497,9","03,1","SYN094AAXX  15184 08213 11568 40408 10114 20055 39018 48497 58001 60032 70386 83362 333 10155 81920;",
"08213099999","2010-06-16T06:00:00","4","40.95","-4.1333333","1005.0","SEGOVIA, SP","FM-12","99999","V020","170,1,N,0010,1","00750,1,9,N","012000,1,N,1","+0068,1","+0051,1","99999,9","12,0000,9,1","24,0030,9,1",,"6,1,06,1","2,1,06,1",,"08,99,1,05,1,05,1,00800,1,02,1,99,9","0480,9","11,9","999,+0020,9","999,N,+0064,1","99999,9,09025,1","6,1,999,9,+999,9","3,1495,9","02,1","SYN106AAXX  16064 08213 11562 81702 10068 20051 39025 48495 56/// 69922 70262 8552/ 333 20064 32002 55080 70030;","Q01  00002PRCP12"
"08213099999","2010-06-16T09:00:00","4","40.95","-4.1333333","1005.0","SEGOVIA, SP","FM-12","99999","V020","230,1,N,0021,1","00750,1,9,N","004000,1,N,1","+0078,1","+0061,1","99999,9",,,,"6,1,03,1","2,1,03,1",,"08,99,1,05,1,05,1,00800,1,02,1,99,9",,,,,"99999,9,09026,1","3,1,001,1,+999,9","3,1498,9","61,1","SYN072AAXX  16094 08213 41540 82304 10078 20061 39026 48498 53001 76162 8552/;",
"08213099999","2010-06-16T12:00:00","4","40.95","-4.1333333","1005.0","SEGOVIA, SP","FM-12","99999","V020","310,1,N,0015,1","00750,1,9,N","012000,1,N,1","+0098,1","+0071,1","99999,9","06,0010,9,1",,,"6,1,06,1","2,1,06,1",,"08,99,1,05,1,05,1,00800,1,02,1,99,9",,,,,"99999,9,09034,1","1,1,008,1,+999,9","3,1509,9","60,1","SYN088AAXX  16124 08213 11562 83103 10098 20071 39034 48509 51008 60011 76062 8552/ 333 50320;",
"08213099999","2010-06-16T15:00:00","4","40.95","-4.1333333","1005.0","SEGOVIA, SP","FM-12","99999","V020","040,1,N,0062,1","01200,1,9,N","016000,1,N,1","+0126,1","+0066,1","99999,9",,,,,,,"07,99,1,07,1,08,1,00800,1,00,1,00,1",,,,,"99999,9,09033,1","8,1,001,1,+999,9","3,1513,9",,"SYN066AAXX  16154 08213 42566 70412 10126 20066 39033 48513 58001 87800;",
"08213099999","2010-06-16T18:00:00","4","40.95","-4.1333333","1005.0","SEGOVIA, SP","FM-12","99999","V020","060,1,N,0031,1","00750,1,9,N","016000,1,N,1","+0118,1","+0057,1","99999,9","12,0020,9,1",,,,,,"07,99,1,07,1,05,1,00800,1,02,1,00,1",,,,"999,M,+0134,1","99999,9,09030,1","7,1,003,1,+999,9","3,1509,9",,"SYN082AAXX  16184 08213 12566 70606 10118 20057 39030 48509 57003 60022 87520 333 10134;",
"08213099999","2010-06-17T06:00:00","4","40.95","-4.1333333","1005.0","SEGOVIA, SP","FM-12","99999","V020","110,1,N,0005,1","22000,1,9,N","010000,1,N,1","+0072,1","+0050,1","99999,9","12,0000,9,1","24,0015,9,1",,,,"00,1,+99999,9,99,9","00,99,1,00,1,00,1,99999,9,00,1,00,1","0000,9","09,9","999,+0020,9","999,N,+0068,1","99999,9,09031,1","4,1,000,1,+999,9","3,1501,9",,"SYN094AAXX  17064 08213 12960 01101 10072 20050 39031 48501 54000 60002 333 20068 31002 55000 70015;","Q01  00002PRCP12"
"08213099999","2010-06-17T09:00:00","4","40.95","-4.1333333","1005.0","SEGOVIA, SP","FM-12","99999","V020","070,1,N,0021,1","22000,1,9,N","020000,1,N,1","+0150,1","+0063,1","99999,9",,,,,,,"01,99,1,01,1,04,1,00800,1,00,1,00,1",,,,,"99999,9,09031,1","0,1,000,1,+999,9","3,1515,9",,"SYN066AAXX  17094 08213 42570 10704 10150 20063 39031 48515 50000 81400;",
"08213099999","2010-06-17T12:00:00","4","40.95","-4.1333333","1005.0","SEGOVIA, SP","FM-12","99999","V020","200,1,N,0021,1","22000,1,9,N","020000,1,N,1","+0180,1","+0071,1","99999,9","06,0000,9,1",,,,,,"03,99,1,03,1,02,1,00800,1,00,1,00,1",,,,,"99999,9,09027,1","7,1,004,1,+999,9","3,1517,9",,"SYN082AAXX  17124 08213 12570 32004 10180 20071 39027 48517 57004 60001 83200 333 50030;","Q01  00002PRCP06"
"08213099999","2010-06-17T15:00:00","4","40.95","-4.1333333","1005.0","SEGOVIA, SP","FM-12","99999","V020","150,1,N,0026,1","00750,1,C,N","018000,1,N,1","+0206,1","+0069,1","99999,9",,,,,,"02,1,+00600,1,09,1","06,99,1,06,1,03,1,00800,1,00,1,00,1",,,,,"99999,9,09013,1","7,1,014,1,+999,9","3,1508,9",,"SYN076AAXX  17154 08213 42568 61505 10206 20069 39013 48508 57014 86300 333 82920;",
"08213099999","2010-06-17T18:00:00","4","40.95","-4.1333333","1005.0","SEGOVIA, SP","FM-12","99999","V020","040,1,N,0026,1","00750,1,C,N","018000,1,N,1","+0214,1","+0065,1","99999,9","12,0000,9,1",,,,,"02,1,+00600,1,09,1","05,99,1,05,1,03,1,00800,1,00,1,00,1",,,,"120,M,+0228,1","99999,9,09011,1","8,1,002,1,+999,9","3,1508,9",,"SYN088AAXX  17184 08213 12568 50405 10214 20065 39011 48508 58002 60002 85300 333 10228 82920;","Q01  00002PRCP12"
"08213099999","2010-06-18T06:00:00","4","40.95","-4.1333333","1005.0","SEGOVIA, SP","FM-12","99999","V020","070,1,N,0021,1","22000,1,9,N","012000,1,N,1","+0124,1","+0083,1","99999,9","12,0010,9,1","24,0010,9,1",,"6,1,06,1","1,1,06,1",,"03,99,1,01,1,00,1,01750,1,04,1,09,1","0750,9","09,9","999,+0050,9","999,N,+0102,1","99999,9,09023,1","3,1,003,1,+999,9","3,1504,9","02,1","SYN106AAXX  18064 08213 11762 30704 10124 20083 39023 48504 53003 60012 70261 81049 333 20102 31005 55125 70011;",
"08213099999","2010-06-18T09:00:00","4","40.95","-4.1333333","1005.0","SEGOVIA, SP","FM-12","99999","V020","270,1,N,0026,1","03600,1,9,N","012000,1,N,1","+0162,1","+0094,1","99999,9",,,,,,,"06,99,1,02,1,02,1,00800,1,04,1,09,1",,,,,"99999,9,09035,1","2,1,012,1,+999,9","3,1522,9",,"SYN066AAXX  18094 08213 42562 62705 10162 20094 39035 48522 52012 82249;",
"08213099999","2010-06-18T12:00:00","4","40.95","-4.1333333","1005.0","SEGOVIA, SP","FM-12","99999","V020","270,1,N,0026,1","03600,1,9,N","015000,1,N,1","+0210,1","+0083,1","99999,9","06,0000,9,1",,,,,"01,1,+00600,1,09,1","05,99,1,03,1,03,1,00800,1,04,1,09,1",,,,,"99999,9,09029,1","8,1,006,1,+999,9","3,1524,9",,"SYN088AAXX  18124 08213 12565 52705 10210 20083 39029 48524 58006 60001 83349 333 50400 81920;","Q01  00002PRCP06"
"08213099999","2010-06-18T15:00:00","4","40.95","-4.1333333","1005.0","SEGOVIA, SP","FM-12","99999","V020","070,1,N,0026,1","03600,1,9,N","015000,1,N,1","+0206,1","+0076,1","99999,9",,,,,,"02,1,+00600,1,09,1","06,99,1,04,1,03,1,00800,1,04,1,01,1",,,,,"99999,9,09015,1","6,1,014,1,+999,9","3,1510,9",,"SYN076AAXX  18154 08213 42565 60705 10206 20076 39015 48510 56014 84341 333 82920;",
"08213099999","2010-06-18T18:00:00","4","40.95","-4.1333333","1005.0","SEGOVIA, SP","FM-12","99999","V020","190,1,N,0036,1","22000,1,9,N","015000,1,N,1","+0193,1","+0083,1","99999,9","12,0010,9,1",,,"8,1,06,1","6,1,06,1","01,1,+00600,1,09,1","04,99,1,02,1,03,1,00800,1,04,1,01,1",,,,"120,M,+0236,1","99999,9,09012,1","6,1,003,1,+999,9","3,1505,9","02,1","SYN094AAXX  18184 08213 11565 41907 10193 20083 39012 48505 56003 60012 70286 82341 333 10236 81920;",
"08213099999","2010-06-19T06:00:00","4","40.95","-4.1333333","1005.0","SEGOVIA, SP","FM-12","99999","V020","200,1,N,0021,1","00090,1,9,N","000100,1,N,1","+0098,1","+0093,1","99999,9","12,0000,9,1","24,0015,9,1",,"4,1,06,1","4,1,06,1","09,1,+00090,1,99,9","09,99,1,09,1,99,9,99999,9,99,9,99,9","0522,9","09,9","999,+0040,9","999,N,+0096,1","99999,9,09022,1","4,1,000,1,+999,9","3,1498,9","45,1","SYN106AAXX  19064 08213 11/01 92004 10098 20093 39022 48498 54000 69912 74544 333 20096 31004 55087 70015 89/03;","Q01  00002PRCP12"
"08213099999","2010-06-19T09:00:00","4","40.95","-4.1333333","1005.0","SEGOVIA, SP","FM-12","99999","V020","250,1,N,0021,1","00750,1,9,N","002000,1,N,1","+0124,1","+0111,1","99999,9",,,,"4,1,03,1","2,1,03,1",,"07,99,1,07,1,07,1,00800,1,00,1,00,1",,,,,"99999,9,09029,1","3,1,007,1,+999,9","3,1510,9","10,1","SYN072AAXX  19094 08213 41520 72504 10124 20111 39029 48510 53007 71042 87700;",
"08213099999","2010-06-19T12:00:00","4","40.95","-4.1333333","1005.0","SEGOVIA, SP","FM-12","99999","V020","060,1,N,0021,1","00750,1,9,N","010000,1,N,1","+0178,1","+0063,1","99999,9","06,0000,9,1",,,,,,"05,99,1,05,1,01,1,00800,1,00,1,00,1",,,,,"99999,9,09030,1","0,1,001,1,+999,9","3,1519,9",,"SYN082AAXX  19124 08213 12560 50604 10178 20063 39030 48519 50001 60001 85100 333 50410;","Q01  00002PRCP06"
"08213099999","2010-06-19T15:00:00","4","40.95","-4.1333333","1005.0","SEGOVIA, SP","FM-12","99999","V020","350,1,N,0041,1","22000,1,9,N","015000,1,N,1","+0200,1","+0064,1","99999,9",,,,,,,"04,99,1,04,1,01,1,00800,1,00,1,00,1",,,,,"99999,9,09020,1","8,1,010,1,+999,9","3,1514,9",,"SYN066AAXX  19154 08213 42565 43508 10200 20064 39020 48514 58010 84100;",
"08213099999","2010-06-19T18:00:00","4","40.95","-4.1333333","1005.0","SEGOVIA, SP","FM-12","99999","V020","330,1,N,0036,1","22000,1,9,N","020000,1,N,1","+0205,1","+0053,1","99999,9","12,0000,9,1",,,,,,"02,99,1,01,1,01,1,00800,1,00,1,01,1",,,,"999,M,+0214,1","99999,9,09012,1","8,1,008,1,+999,9","3,1507,9",,"SYN082AAXX  19184 08213 12570 23307 10205 20053 39012 48507 58008 60002 81101 333 10214;","Q01  00002PRCP12"
"08213099999","2010-06-20T06:00:00","4","40.95","-4.1333333","1005.0","SEGOVIA, SP","FM-12","99999","V020","250,1,N,0015,1","22000,1,9,N","012000,1,N,1","+0104,1","+0075,1","99999,9","12,0000,9,1","24,0000,9,1",,,,,"03,99,1,01,1,08,1,00800,1,04,1,01,1","0582,9","09,9","999,+0050,9","999,N,+0092,1","99999,9,09029,1","3,1,004,1,+999,9","3,1505,9",,"SYN100AAXX  20064 08213 12562 32503 10104 20075 39029 48505 53004 60002 81841 333 20092 31005 55097 70000;","Q01  00002PRCP24Q02  00002PRCP12"
"08213099999","2010-06-20T09:00:00","4","40.95","-4.1333333","1005.0","SEGOVIA, SP","FM-12","99999","V020","040,1,N,0051,1","03600,1,9,N","012000,1,N,1","+0137,1","+0063,1","99999,9",,,,,,,"06,99,1,04,1,08,1,00800,1,04,1,01,1",,,,,"99999,9,09031,1","3,1,002,1,+999,9","3,1513,9",,"SYN066AAXX  20094 08213 42562 60410 10137 20063 39031 48513 53002 84841;",
"08213099999","2010-06-20T12:00:00","4","40.95","-4.1333333","1005.0","SEGOVIA, SP","FM-12","99999","V020","360,1,N,0036,1","22000,1,9,N","012000,1,N,1","+0162,1","+0033,1","99999,9","06,0000,9,1",,,,,,"04,99,1,04,1,04,1,00800,1,00,1,00,1",,,,,"99999,9,09031,1","4,1,000,1,+999,9","3,1517,9",,"SYN082AAXX  20124 08213 12562 43607 10162 20033 39031 48517 54000 60001 84400 333 50420;","Q01  00002PRCP06"
"08213099999","2010-06-20T15:00:00","4","40.95","-4.1333333","1005.0","SEGOVIA, SP","FM-12","99999","V020","070,1,N,0057,1","22000,1,9,N","020000,1,N,1","+0186,1","+0020,1","99999,9",,,,,,,"01,99,1,01,1,01,1,00800,1,00,1,00,1",,,,,"99999,9,09030,1","6,1,001,1,+999,9","3,1520,9",,"SYN066AAXX  20154 08213 42570 10711 10186 20020 39030 48520 56001 81100;",
"08213099999","2010-06-20T18:00:00","4","40.95","-4.1333333","1005.0","SEGOVIA, SP","FM-12","99999","V020","050,1,N,0067,1","22000,1,9,N","020000,1,N,1","+0170,1","+0014,1","99999,9","12,0000,9,1",,,,,"00,1,+99999,9,99,9","00,99,1,00,1,00,1,99999,9,00,1,00,1",,,,"999,M,+0194,1","99999,9,09030,1","4,1,000,1,+999,9","3,1517,9",,"SYN076AAXX  20184 08213 12970 00513 10170 20014 39030 48517 54000 60002 333 10194;","Q01  00002PRCP12"
"08213099999","2010-06-21T06:00:00","4","40.95","-4.1333333","1005.0","SEGOVIA, SP","FM-12","99999","V020","180,1,N,0015,1","22000,1,9,N","020000,1,N,1","+0044,1","+0016,1","99999,9","12,0000,9,1","24,0000,9,1",,,,"00,1,+99999,9,99,9","00,99,1,00,1,00,1,99999,9,00,1,00,1","0672,9","01,9","999,-0030,9","999,N,+0032,1","99999,9,09049,1","3,1,005,1,+999,9","3,1512,9",,"SYN094AAXX  21064 08213 12970 01803 10044 20016 39049 48512 53005 60002 333 20032 30103 55112 70000;","Q01  00002PRCP24Q02  00002PRCP12"
"08213099999","2010-06-21T09:00:00","4","40.95","-4.1333333","1005.0","SEGOVIA, SP","FM-12","99999","V020","170,1,N,0021,1","22000,1,9,N","020000,1,N,1","+0114,1","+0027,1","99999,9",,,,,,"00,1,+99999,9,99,9","00,99,1,00,1,00,1,99999,9,00,1,00,1",,,,,"99999,9,09049,1","4,1,000,1,+999,9","3,1525,9",,"SYN060AAXX  21094 08213 42970 01704 10114 20027 39049 48525 54000;",
"08213099999","2010-06-21T12:00:00","4","40.95","-4.1333333","1005.0","SEGOVIA, SP","FM-12","99999","V020","030,1,N,0021,1","22000,1,9,N","020000,1,N,1","+0186,1","+0012,1","99999,9","06,0000,9,1",,,,,"00,1,+99999,9,99,9","00,99,1,00,1,00,1,99999,9,00,1,00,1",,,,,"99999,9,09046,1","8,1,003,1,+999,9","3,1535,9",,"SYN076AAXX  21124 08213 12970 00304 10186 20012 39046 48535 58003 60001 333 50430;","Q01  00002PRCP06"
"08213099999","2010-06-21T15:00:00","4","40.95","-4.1333333","1005.0","SEGOVIA, SP","FM-12","99999","V020","080,1,N,0021,1","22000,1,9,N","020000,1,N,1","+0224,1","-0023,1","99999,9",,,,,,"00,1,+99999,9,99,9","00,99,1,00,1,00,1,99999,9,00,1,00,1",,,,,"99999,9,09042,1","7,1,004,1,+999,9","3,1538,9",,"SYN060AAXX  21154 08213 42970 00804 10224 21023 39042 48538 57004;",
"08213099999","2010-06-21T18:00:00","4","40.95","-4.1333333","1005.0","SEGOVIA, SP","FM-12","99999","V020","350,1,N,0036,1","22000,1,9,N","020000,1,N,1","+0236,1","-0013,1","99999,9","12,0000,9,1",,,,,"00,1,+99999,9,99,9","00,99,1,00,1,00,1,99999,9,00,1,00,1",,,,"999,M,+0240,1","99999,9,09039,1","7,1,003,1,+999,9","3,1537,9",,"SYN076AAXX  21184 08213 12970 03507 10236 21013 39039 48537 57003 60002 333 10240;","Q01  00002PRCP12"
"08213099999","2010-06-22T06:00:00","4","40.95","-4.1333333","1005.0","SEGOVIA, SP","FM-12","99999","V020","070,1,N,0021,1","22000,1,9,N","020000,1,N,1","+0124,1","+0056,1","99999,9","12,0000,9,1","24,0000,9,1",,,,"00,1,+99999,9,99,9","00,99,1,00,1,00,1,99999,9,00,1,00,1","0870,9","09,9","999,+0010,9","999,N,+0100,1","99999,9,09056,1","3,1,003,1,+999,9","3,1533,9",,"SYN094AAXX  22064 08213 12970 00704 10124 20056 39056 48533 53003 60002 333 20100 31001 55145 70000;","Q01  00002PRCP24Q02  00002PRCP12"
"08213099999","2010-06-22T09:00:00","4","40.95","-4.1333333","1005.0","SEGOVIA, SP","FM-12","99999","V020","260,1,N,0015,1","22000,1,9,N","020000,1,N,1","+0194,1","+0055,1","99999,9",,,,,,"00,1,+99999,9,99,9","00,99,1,00,1,00,1,99999,9,00,1,00,1",,,,,"99999,9,09062,1","1,1,006,1,+999,9","3,1552,9",,"SYN060AAXX  22094 08213 42970 02603 10194 20055 39062 48552 51006;",
"08213099999","2010-06-22T12:00:00","4","40.95","-4.1333333","1005.0","SEGOVIA, SP","FM-12","99999","V020","010,1,N,0036,1","22000,1,9,N","020000,1,N,1","+0242,1","+0046,1","99999,9","06,0000,9,1",,,,,"00,1,+99999,9,99,9","00,99,1,00,1,00,1,99999,9,00,1,00,1",,,,,"99999,9,09062,1","0,1,000,1,+999,9","3,1561,9",,"SYN076AAXX  22124 08213 12970 00107 10242 20046 39062 48561 50000 60001 333 50520;","Q01  00002PRCP06"
"08213099999","2010-06-22T15:00:00","4","40.95","-4.1333333","1005.0","SEGOVIA, SP","FM-12","99999","V020","050,1,N,0036,1","22000,1,9,N","020000,1,N,1","+0268,1","+0020,1","99999,9",,,,,,,"01,99,1,01,1,01,1,00800,1,00,1,00,1",,,,,"99999,9,09056,1","7,1,006,1,+999,9","3,1560,9",,"SYN066AAXX  22154 08213 42570 10507 10268 20020 39056 48560 57006 81100;",
"08213099999","2010-06-22T18:00:00","4","40.95","-4.1333333","1005.0","SEGOVIA, SP","FM-12","99999","V020","050,1,N,0021,1","22000,1,9,N","020000,1,N,1","+0270,1","+0014,1","99999,9","12,0000,9,1",,,,,,"01,99,1,00,1,00,1,99999,9,00,1,01,1",,,,"999,M,+0280,1","99999,9,09054,1","7,1,002,1,+999,9","3,1558,9",,"SYN082AAXX  22184 08213 12970 10504 10270 20014 39054 48558 57002 60002 80001 333 10280;","Q01  00002PRCP12"
"08213099999","2010-06-23T06:00:00","4","40.95","-4.1333333","1005.0","SEGOVIA, SP","FM-12","99999","V020","080,1,N,0015,1","22000,1,9,N","020000,1,N,1","+0154,1","+0064,1","99999,9","12,0000,9,1","24,0000,9,1",,,,,"02,99,1,00,1,00,1,99999,9,00,1,08,1","0840,9","01,9","999,+0060,9","999,N,+0125,1","99999,9,09053,1","4,1,000,1,+999,9","3,1536,9",,"SYN100AAXX  23064 08213 12970 20803 10154 20064 39053 48536 54000 60002 80008 333 20125 30006 55140 70000;","Q01  00002PRCP24Q02  00002PRCP12"
"08213099999","2010-06-23T09:00:00","4","40.95","-4.1333333","1005.0","SEGOVIA, SP","FM-12","99999","V020","260,1,N,0026,1","22000,1,9,N","020000,1,N,1","+0224,1","+0085,1","99999,9",,,,,,,"02,99,1,00,1,00,1,99999,9,00,1,08,1",,,,,"99999,9,09053,1","4,1,000,1,+999,9","3,1550,9",,"SYN066AAXX  23094 08213 42970 22605 10224 20085 39053 48550 54000 80008;",
"08213099999","2010-06-23T12:00:00","4","40.95","-4.1333333","1005.0","SEGOVIA, SP","FM-12","99999","V020","330,1,N,0010,1","22000,1,9,N","025000,1,N,1","+0268,1","+0020,1","99999,9","06,0000,9,1",,,,,"00,1,+99999,9,99,9","00,99,1,00,1,00,1,99999,9,00,1,00,1",,,,,"99999,9,09050,1","8,1,003,1,+999,9","3,1556,9",,"SYN076AAXX  23124 08213 12975 03302 10268 20020 39050 48556 58003 60001 333 50820;","Q01  00002PRCP06"
"08213099999","2010-06-23T15:00:00","4","40.95","-4.1333333","1005.0","SEGOVIA, SP","FM-12","99999","V020","130,1,N,0015,1","22000,1,9,N","025000,1,N,1","+0286,1","+0012,1","99999,9",,,,,,,"02,99,1,00,1,00,1,99999,9,00,1,08,1",,,,,"99999,9,09037,1","7,1,013,1,+999,9","3,1544,9",,"SYN066AAXX  23154 08213 42975 21303 10286 20012 39037 48544 57013 80008;",
"08213099999","2010-06-23T18:00:00","4","40.95","-4.1333333","1005.0","SEGOVIA, SP","FM-12","99999","V020","010,1,N,0010,1","22000,1,9,N","025000,1,N,1","+0277,1","+0027,1","99999,9","12,0000,9,1",,,,,,"02,99,1,00,1,00,1,99999,9,00,1,08,1",,,,"999,M,+0292,1","99999,9,09030,1","7,1,007,1,+999,9","3,1536,9",,"SYN082AAXX  23184 08213 12975 20102 10277 20027 39030 48536 57007 60002 80008 333 10292;","Q01  00002PRCP12"
"08213099999","2010-06-24T06:00:00","4","40.95","-4.1333333","1005.0","SEGOVIA, SP","FM-12","99999","V020","090,1,N,0015,1","22000,1,9,N","020000,1,N,1","+0172,1","+0070,1","99999,9","12,0000,9,1","24,0000,9,1",,,,,"02,99,1,01,1,00,1,01750,1,04,1,01,1","0816,9","01,9","999,+0090,9","999,N,+0145,1","99999,9,09031,1","4,1,000,1,+999,9","3,1519,9",,"SYN100AAXX  24064 08213 12770 20903 10172 20070 39031 48519 54000 60002 81041 333 20145 30009 55136 70000;","Q01  00002PRCP24Q02  00002PRCP12"
"08213099999","2010-06-24T09:00:00","4","40.95","-4.1333333","1005.0","SEGOVIA, SP","FM-12","99999","V020","280,1,N,0026,1","22000,1,9,N","015000,1,N,1","+0260,1","+0076,1","99999,9",,,,,,,"02,99,1,01,1,00,1,01750,1,04,1,01,1",,,,,"99999,9,09034,1","3,1,003,1,+999,9","3,1538,9",,"SYN066AAXX  24094 08213 42765 22805 10260 20076 39034 48538 53003 81041;",
"08213099999","2010-06-24T12:00:00","4","40.95","-4.1333333","1005.0","SEGOVIA, SP","FM-12","99999","V020","050,1,N,0036,1","22000,1,9,N","015000,1,N,1","+0301,1","+0054,1","99999,9","06,0000,9,1",,,,,,"03,99,1,01,1,01,1,00800,1,00,1,01,1",,,,,"99999,9,09033,1","8,1,001,1,+999,9","3,1544,9",,"SYN082AAXX  24124 08213 12565 30507 10301 20054 39033 48544 58001 60001 81101 333 50540;","Q01  00002PRCP06"
"08213099999","2010-06-24T15:00:00","4","40.95","-4.1333333","1005.0","SEGOVIA, SP","FM-12","99999","V020","120,1,N,0015,1","22000,1,9,N","015000,1,N,1","+0311,1","+0062,1","99999,9",,,,,,"01,1,+00600,1,09,1","06,99,1,04,1,03,1,00800,1,00,1,01,1",,,,,"99999,9,09021,1","8,1,012,1,+999,9","3,1534,9",,"SYN076AAXX  24154 08213 42565 61203 10311 20062 39021 48534 58012 84301 333 81920;",
"08213099999","2010-06-24T18:00:00","4","40.95","-4.1333333","1005.0","SEGOVIA, SP","FM-12","99999","V020","070,1,N,0036,1","03600,1,9,N","020000,1,N,1","+0250,1","+0076,1","99999,9","12,0000,9,1",,,"9,1,06,1","9,1,06,1","02,1,+00600,1,09,1","07,99,1,04,1,09,1,00800,1,07,1,02,1",,,,"120,M,+0317,1","99999,9,09019,1","6,1,002,1,+999,9","3,1522,9","15,1","SYN094AAXX  24184 08213 11570 70707 10250 20076 39019 48522 56002 60002 71599 84972 333 10317 82920;","Q01  00002PRCP12"
"08213099999","2010-06-25T06:00:00","4","40.95","-4.1333333","1005.0","SEGOVIA, SP","FM-12","99999","V020","160,1,N,0036,1","01500,1,9,N","020000,1,N,1","+0172,1","+0115,1","99999,9","12,0010,9,1","24,0013,9,1",,"6,1,06,1","2,1,06,1",,"08,99,1,08,1,00,1,01750,1,07,1,99,9","0630,9","09,9","999,+0080,9","999,N,+0163,1","99999,9,09034,1","4,1,000,1,+999,9","3,1523,9","60,1","SYN106AAXX  25064 08213 11770 81607 10172 20115 39034 48523 54000 60012 76062 8807/ 333 20163 31008 55105 70013;",
"08213099999","2010-06-25T09:00:00","4","40.95","-4.1333333","1005.0","SEGOVIA, SP","FM-12","99999","V020","160,1,N,0026,1","03600,1,9,N","020000,1,N,1","+0192,1","+0132,1","99999,9",,,,"6,1,03,1","2,1,03,1",,"07,99,1,01,1,05,1,00800,1,07,1,99,9",,,,,"99999,9,09033,1","7,1,001,1,+999,9","3,1526,9","02,1","SYN072AAXX  25094 08213 41570 71605 10192 20132 39033 48526 57001 70262 8157/;",
"08213099999","2010-06-25T12:00:00","4","40.95","-4.1333333","1005.0","SEGOVIA, SP","FM-12","99999","V020","120,1,N,0041,1","03600,1,9,N","020000,1,N,1","+0233,1","+0123,1","99999,9","06,0005,9,1",,,"6,1,06,1","2,1,06,1","01,1,+00600,1,09,1","06,99,1,03,1,03,1,00800,1,07,1,00,1",,,,,"99999,9,09036,1","0,1,003,1,+999,9","3,1536,9","03,1","SYN094AAXX  25124 08213 11570 61208 10233 20123 39036 48536 50003 69941 70362 83370 333 50560 81920;",
"08213099999","2010-06-25T15:00:00","4","40.95","-4.1333333","1005.0","SEGOVIA, SP","FM-12","99999","V020","060,1,N,0026,1","03600,1,9,N","020000,1,N,1","+0261,1","+0122,1","99999,9",,,,,,,"05,99,1,02,1,05,1,00800,1,03,1,00,1",,,,,"99999,9,09023,1","7,1,013,1,+999,9","3,1528,9",,"SYN066AAXX  25154 08213 42570 50605 10261 20122 39023 48528 57013 82530;",
"08213099999","2010-06-25T18:00:00","4","40.95","-4.1333333","1005.0","SEGOVIA, SP","FM-12","99999","V020","360,1,N,0036,1","03600,1,9,N","020000,1,N,1","+0252,1","+0103,1","99999,9","12,0005,9,1",,,,,"01,1,+00600,1,09,1","06,99,1,04,1,09,1,00800,1,06,1,00,1",,,,"120,M,+0269,1","99999,9,09012,1","7,1,011,1,+999,9","3,1516,9",,"SYN088AAXX  25184 08213 12570 63607 10252 20103 39012 48516 57011 69942 84960 333 10269 81920;",
"08213099999","2010-06-26T06:00:00","4","40.95","-4.1333333","1005.0","SEGOVIA, SP","FM-12","99999","V020","220,1,N,0010,1","03600,1,9,N","016000,1,N,1","+0150,1","+0114,1","99999,9","12,0079,9,1","24,0079,9,1",,,,,"06,99,1,04,1,08,1,00800,1,05,1,00,1","0360,9","11,9","999,+0100,9","999,N,+0149,1","99999,9,09019,1","6,1,005,1,+999,9","3,1505,9",,"SYN100AAXX  26064 08213 12566 62202 10150 20114 39019 48505 56005 60082 84850 333 20149 32010 55060 70080;",
"08213099999","2010-06-26T09:00:00","4","40.95","-4.1333333","1005.0","SEGOVIA, SP","FM-12","99999","V020","310,1,N,0021,1","22000,1,9,N","020000,1,N,1","+0214,1","+0106,1","99999,9",,,,,,,"02,99,1,02,1,00,1,01750,1,05,1,00,1",,,,,"99999,9,09029,1","1,1,010,1,+999,9","3,1525,9",,"SYN066AAXX  26094 08213 42770 23104 10214 20106 39029 48525 51010 82050;",
"08213099999","2010-06-26T12:00:00","4","40.95","-4.1333333","1005.0","SEGOVIA, SP","FM-12","99999","V020","250,1,N,0031,1","22000,1,9,N","020000,1,N,1","+0250,1","+0112,1","99999,9","06,0000,9,1",,,,,"02,1,+00600,1,09,1","03,99,1,03,1,03,1,00800,1,00,1,00,1",,,,,"99999,9,09029,1","0,1,000,1,+999,9","3,1532,9",,"SYN088AAXX  26124 08213 12570 32506 10250 20112 39029 48532 50000 60001 83300 333 50390 82920;","Q01  00002PRCP06"
"08213099999","2010-06-26T15:00:00","4","40.95","-4.1333333","1005.0","SEGOVIA, SP","FM-12","99999","V020","010,1,N,0026,1","00750,1,C,N","018000,1,N,1","+0276,1","+0094,1","99999,9",,,,,,"03,1,+00600,1,09,1","07,99,1,07,1,03,1,00800,1,00,1,00,1",,,,,"99999,9,09015,1","6,1,014,1,+999,9","3,1523,9",,"SYN076AAXX  26154 08213 42568 70105 10276 20094 39015 48523 56014 87300 333 83920;",
"08213099999","2010-06-26T18:00:00","4","40.95","-4.1333333","1005.0","SEGOVIA, SP","FM-12","99999","V020","120,1,N,0057,1","00750,1,C,N","018000,1,N,1","+9999,9","+0139,1","99999,9","12,0079,9,1",,,"8,1,06,1","2,1,06,1","01,1,+00600,1,09,1","07,99,1,07,1,03,1,00800,1,00,1,00,1",,,,"120,M,+0284,1","99999,9,09024,1","0,1,009,1,+999,9","3,1513,9","02,1","SYN094AAXX  26184 08213 11568 71211 10166 20139 39024 48513 50009 60082 70282 87300 333 10284 81920;","Q01+001663ATOT  "
"08213099999","2010-06-27T06:00:00","4","40.95","-4.1333333","1005.0","SEGOVIA, SP","FM-12","99999","V020","320,1,N,0036,1","03600,1,9,N","020000,1,N,1","+0173,1","+0111,1","99999,9","12,0000,9,1","24,0079,9,1",,,,,"07,99,1,02,1,05,1,00800,1,09,1,99,9","0462,9","09,9","999,+0100,9","999,N,+0143,1","99999,9,09031,1","3,1,003,1,+999,9","3,1520,9",,"SYN100AAXX  27064 08213 12570 73207 10173 20111 39031 48520 53003 60002 8259/ 333 20143 31010 55077 70080;","Q01  00002PRCP12"
"08213099999","2010-06-27T09:00:00","4","40.95","-4.1333333","1005.0","SEGOVIA, SP","FM-12","99999","V020","290,1,N,0015,1","22000,1,9,N","018000,1,N,1","+0187,1","+0136,1","99999,9",,,,,,,"04,99,1,04,1,00,1,01750,1,05,1,00,1",,,,,"99999,9,09041,1","2,1,010,1,+999,9","3,1532,9",,"SYN066AAXX  27094 08213 42768 42903 10187 20136 39041 48532 52010 84050;",
"08213099999","2010-06-27T12:00:00","4","40.95","-4.1333333","1005.0","SEGOVIA, SP","FM-12","99999","V020","260,1,N,0046,1","03600,1,9,N","018000,1,N,1","+0252,1","+0091,1","99999,9","06,0000,9,1",,,,,"02,1,+00600,1,09,1","06,99,1,04,1,09,1,00800,1,05,1,00,1",,,,,"99999,9,09046,1","2,1,005,1,+999,9","3,1548,9",,"SYN088AAXX  27124 08213 12568 62609 10252 20091 39046 48548 52005 60001 84950 333 50450 82920;","Q01  00002PRCP06"
"08213099999","2010-06-27T15:00:00","4","40.95","-4.1333333","1005.0","SEGOVIA, SP","FM-12","99999","V020","050,1,N,0021,1","00750,1,C,N","015000,1,N,1","+0244,1","+0103,1","99999,9",,,,,,"02,1,+00600,1,09,1","07,99,1,05,1,03,1,00800,1,06,1,02,1",,,,,"99999,9,09041,1","7,1,005,1,+999,9","3,1542,9",,"SYN076AAXX  27154 08213 42565 70504 10244 20103 39041 48542 57005 85362 333 82920;",
"08213099999","2010-06-27T18:00:00","4","40.95","-4.1333333","1005.0","SEGOVIA, SP","FM-12","99999","V020","250,1,N,0021,1","22000,1,9,N","020000,1,N,1","+0234,1","+0130,1","99999,9","12,0000,9,1",,,,,"01,1,+00600,1,09,1","04,99,1,02,1,03,1,00800,1,04,1,02,1",,,,"120,M,+0264,1","99999,9,09040,1","7,1,001,1,+999,9","3,1540,9",,"SYN088AAXX  27184 08213 12570 42504 10234 20130 39040 48540 57001 60002 82342 333 10264 81920;","Q01  00002PRCP12"
"08213099999","2010-06-28T06:00:00","4","40.95","-4.1333333","1005.0","SEGOVIA, SP","FM-12","99999","V020","210,1,N,0015,1","00180,1,9,N","000200,1,N,1","+0150,1","+0144,1","99999,9","12,0000,9,1","24,0000,9,1",,"4,1,06,1","4,1,06,1","09,1,+00180,1,99,9","09,99,1,09,1,99,9,99999,9,99,9,99,9","0240,9","09,9","999,+0100,9","999,N,+0138,1","99999,9,09064,1","3,1,007,1,+999,9","3,1547,9","45,1","SYN106AAXX  28064 08213 11/02 92103 10150 20144 39064 48547 53007 60002 74544 333 20138 31010 55040 70000 89/06;","Q01  00002PRCP24Q02  00002PRCP12"
"08213099999","2010-06-28T09:00:00","4","40.95","-4.1333333","1005.0","SEGOVIA, SP","FM-12","99999","V020","350,1,N,0010,1","03600,1,9,N","006000,1,N,1","+0197,1","+0147,1","99999,9",,,,"4,1,03,1","2,1,03,1",,"06,99,1,02,1,01,1,00800,1,04,1,09,1",,,,,"99999,9,09076,1","1,1,012,1,+999,9","3,1567,9","10,1","SYN072AAXX  28094 08213 41556 63502 10197 20147 39076 48567 51012 71042 82149;",
"08213099999","2010-06-28T12:00:00","4","40.95","-4.1333333","1005.0","SEGOVIA, SP","FM-12","99999","V020","340,1,N,0005,1","22000,1,9,N","010000,1,N,1","+0266,1","+0130,1","99999,9","06,0000,9,1",,,,,"01,1,+00600,1,09,1","04,99,1,01,1,03,1,00800,1,04,1,09,1",,,,,"99999,9,09069,1","8,1,007,1,+999,9","3,1574,9",,"SYN088AAXX  28124 08213 12560 43401 10266 20130 39069 48574 58007 60001 81349 333 50650 81920;","Q01  00002PRCP06"
"08213099999","2010-06-28T15:00:00","4","40.95","-4.1333333","1005.0","SEGOVIA, SP","FM-12","99999","V020","230,1,N,0036,1","03600,1,9,N","008000,1,N,1","+0228,1","+0136,1","99999,9",,,,"9,1,03,1","2,1,03,1","02,1,+00600,1,09,1","06,99,1,04,1,09,1,00800,1,04,1,02,1",,,,,"99999,9,09063,1","6,1,006,1,+999,9","3,1561,9","95,1","SYN082AAXX  28154 08213 41558 62307 10228 20136 39063 48561 56006 79592 84942 333 82920;",
"08213099999","2010-06-28T18:00:00","4","40.95","-4.1333333","1005.0","SEGOVIA, SP","FM-12","99999","V020","080,1,N,0026,1","03600,1,9,N","010000,1,N,1","+0212,1","+0098,1","99999,9","12,0000,2,1",,,"9,1,06,1","2,1,06,1","03,1,+00600,1,09,1","06,99,1,04,1,09,1,00800,1,03,1,02,1",,,,"120,M,+0277,1","99999,9,09063,1","4,1,000,1,+999,9","3,1557,9","02,1","SYN094AAXX  28184 08213 11560 60805 10212 20098 39063 48557 54000 69912 70292 84932 333 10277 83920;",
"08213099999","2010-06-29T06:00:00","4","40.95","-4.1333333","1005.0","SEGOVIA, SP","FM-12","99999","V020","100,1,N,0015,1","22000,1,9,N","012000,1,N,1","+0156,1","+0102,1","99999,9","12,0000,9,1","24,0000,2,1",,,,,"02,99,1,01,1,08,1,00800,1,04,1,09,1","0294,9","09,9","999,+0100,9","999,N,+0136,1","99999,9,09075,1","4,1,000,1,+999,9","3,1558,9",,"SYN100AAXX  29064 08213 12562 21003 10156 20102 39075 48558 54000 60002 81849 333 20136 31010 55049 70001;","Q01  00002PRCP12"
"08213099999","2010-06-29T09:00:00","4","40.95","-4.1333333","1005.0","SEGOVIA, SP","FM-12","99999","V020","290,1,N,0010,1","22000,1,9,N","012000,1,N,1","+0228,1","+0112,1","99999,9",,,,,,,"01,99,1,01,1,01,1,00800,1,00,1,00,1",,,,,"99999,9,09078,1","1,1,003,1,+999,9","3,1574,9",,"SYN066AAXX  29094 08213 42562 12902 10228 20112 39078 48574 51003 81100;",
"08213099999","2010-06-29T12:00:00","4","40.95","-4.1333333","1005.0","SEGOVIA, SP","FM-12","99999","V020","300,1,N,0021,1","22000,1,9,N","012000,1,N,1","+0268,1","+0109,1","99999,9","06,0000,9,1",,,"0,1,06,1","0,1,06,1","01,1,+00600,1,09,1","03,99,1,02,1,09,1,00800,1,00,1,01,1",,,,,"99999,9,09077,1","8,1,001,1,+999,9","3,1581,9","15,1","SYN094AAXX  29124 08213 11562 33004 10268 20109 39077 48581 58001 60001 71500 82901 333 50360 81920;","Q01  00002PRCP06"
"08213099999","2010-06-29T15:00:00","4","40.95","-4.1333333","1005.0","SEGOVIA, SP","FM-12","99999","V020","320,1,N,0031,1","03600,1,9,N","012000,1,N,1","+0280,1","+0030,1","99999,9",,,,,,"02,1,+00600,1,09,1","06,99,1,04,1,09,1,00800,1,04,1,02,1",,,,,"99999,9,09069,1","8,1,008,1,+999,9","3,1574,9",,"SYN076AAXX  29154 08213 42562 63206 10280 20030 39069 48574 58008 84942 333 82920;",
"08213099999","2010-06-29T18:00:00","4","40.95","-4.1333333","1005.0","SEGOVIA, SP","FM-12","99999","V020","070,1,N,0051,1","03600,1,9,N","015000,1,N,1","+0262,1","+0100,1","99999,9","12,0000,9,1",,,,,"01,1,+00600,1,09,1","05,99,1,03,1,03,1,00800,1,04,1,01,1",,,,"120,M,+0295,1","99999,9,09065,1","6,1,004,1,+999,9","3,1568,9",,"SYN088AAXX  29184 08213 12565 50710 10262 20100 39065 48568 56004 60002 83341 333 10295 81920;","Q01  00002PRCP12"
"08213099999","2010-06-30T06:00:00","4","40.95","-4.1333333","1005.0","SEGOVIA, SP","FM-12","99999","V020","110,1,N,0015,1","22000,1,9,N","020000,1,N,1","+0188,1","+0090,1","99999,9","12,0000,9,1","24,0000,9,1",,,,"00,1,+99999,9,99,9","00,99,1,00,1,00,1,99999,9,00,1,00,1","0762,9","09,9","999,+0090,9","999,N,+0168,1","99999,9,09083,1","7,1,001,1,+999,9","3,1571,9",,"SYN094AAXX  30064 08213 12970 01103 10188 20090 39083 48571 57001 60002 333 20168 31009 55127 70000;","Q01  00002PRCP24Q02  00002PRCP12"
"08213099999","2010-06-30T09:00:00","4","40.95","-4.1333333","1005.0","SEGOVIA, SP","FM-12","99999","V020","340,1,N,0005,1","22000,1,9,N","020000,1,N,1","+0250,1","+0116,1","99999,9",,,,,,,"01,99,1,01,1,01,1,00800,1,00,1,00,1",,,,,"99999,9,09079,1","7,1,004,1,+999,9","3,1580,9",,"SYN066AAXX  30094 08213 42570 13401 10250 20116 39079 48580 57004 81100;",
"08213099999","2010-06-30T12:00:00","4","40.95","-4.1333333","1005.0","SEGOVIA, SP","FM-12","99999","V020","130,1,N,0021,1","22000,1,9,N","020000,1,N,1","+0290,1","+0081,1","99999,9","06,0000,9,1",,,,,,"02,99,1,02,1,02,1,00800,1,00,1,00,1",,,,,"99999,9,09074,1","7,1,005,1,+999,9","3,1582,9",,"SYN082AAXX  30124 08213 12570 21304 10290 20081 39074 48582 57005 60001 82200 333 50540;","Q01  00002PRCP06"
"08213099999","2010-06-30T15:00:00","4","40.95","-4.1333333","1005.0","SEGOVIA, SP","FM-12","99999","V020","280,1,N,0026,1","22000,1,9,N","020000,1,N,1","+0302,1","+0080,1","99999,9",,,,,,"02,1,+00600,1,09,1","04,99,1,04,1,03,1,00800,1,00,1,00,1",,,,,"99999,9,09063,1","8,1,011,1,+999,9","3,1574,9",,"SYN076AAXX  30154 08213 42570 42805 10302 20080 39063 48574 58011 84300 333 82920;",
"08213099999","2010-06-30T18:00:00","4","40.95","-4.1333333","1005.0","SEGOVIA, SP","FM-12","99999","V020","310,1,N,0021,1","22000,1,9,N","020000,1,N,1","+0300,1","+0072,1","99999,9","12,0000,9,1",,,,,"02,1,+00600,1,09,1","04,99,1,04,1,03,1,00800,1,00,1,00,1",,,,"120,M,+0314,1","99999,9,09055,1","7,1,008,1,+999,9","3,1565,9",,"SYN088AAXX  30184 08213 12570 43104 10300 20072 39055 48565 57008 60002 84300 333 10314 82920;","Q01  00002PRCP12"
"08213099999","2010-07-01T06:00:00","4","40.95","-4.1333333","1005.0","SEGOVIA, SP","FM-12","99999","V020","120,1,N,0021,1","22000,1,9,N","020000,1,N,1","+0184,1","+0105,1","99999,9","12,0000,9,1","24,0000,9,1",,,,"00,1,+99999,9,99,9","00,99,1,00,1,00,1,99999,9,00,1,00,1","0804,9","09,9","999,+0090,9","999,N,+0170,1","99999,9,09052,1","6,1,002,1,+999,9","3,1542,9",,"SYN094AAXX  01064 08213 12970 01204 10184 20105 39052 48542 56002 60002 333 20170 31009 55134 70000;","Q01  00002PRCP24Q02  00002PRCP12"
"08213099999","2010-07-01T09:00:00","4","40.95","-4.1333333","1005.0","SEGOVIA, SP","FM-12","99999","V020","280,1,N,0015,1","22000,1,9,N","020000,1,N,1","+0274,1","+0110,1","99999,9",,,,,,,"01,99,1,01,1,02,1,00800,1,00,1,00,1",,,,,"99999,9,09049,1","8,1,003,1,+999,9","3,1555,9",,"SYN066AAXX  01094 08213 42570 12803 10274 20110 39049 48555 58003 81200;",
"08213099999","2010-07-01T12:00:00","4","40.95","-4.1333333","1005.0","SEGOVIA, SP","FM-12","99999","V020","060,1,N,0021,1","00750,1,C,N","018000,1,N,1","+0252,1","+0121,1","99999,9","06,0000,9,1",,,,,"03,1,+00600,1,09,1","07,99,1,07,1,09,1,00800,1,00,1,00,1",,,,,"99999,9,09042,1","6,1,007,1,+999,9","3,1545,9",,"SYN082AAXX  01124 08213 12568 70604 10252 20121 39042 48545 56007 60001 87900 333 83920;","Q01  00002PRCP06"
"08213099999","2010-07-01T15:00:00","4","40.95","-4.1333333","1005.0","SEGOVIA, SP","FM-12","99999","V020","240,1,N,0031,1","00750,1,C,N","018000,1,N,1","+0280,1","+0139,1","99999,9",,,,,,"03,1,+00600,1,09,1","07,99,1,06,1,03,1,00800,1,05,1,00,1",,,,,"99999,9,09032,1","8,1,010,1,+999,9","3,1541,9",,"SYN076AAXX  01154 08213 42568 72406 10280 20139 39032 48541 58010 86350 333 83920;",
"08213099999","2010-07-01T18:00:00","4","40.95","-4.1333333","1005.0","SEGOVIA, SP","FM-12","99999","V020","170,1,N,0021,1","00750,1,C,N","018000,1,N,1","+0284,1","+0115,1","99999,9","12,0000,9,1",,,,,"02,1,+00600,1,09,1","06,99,1,05,1,03,1,00800,1,05,1,00,1",,,,"120,M,+0306,1","99999,9,09027,1","7,1,005,1,+999,9","3,1536,9",,"SYN088AAXX  01184 08213 12568 61704 10284 20115 39027 48536 57005 60002 85350 333 10306 82920;","Q01  00002PRCP12"
"08213099999","2010-07-02T06:00:00","4","40.95","-4.1333333","1005.0","SEGOVIA, SP","FM-12","99999","V020","110,1,N,0021,1","22000,1,9,N","018000,1,N,1","+0176,1","+0129,1","99999,9","12,0071,9,2","24,0066,9,2",,"8,1,06,1","2,1,06,1","01,1,+00600,1,09,1","04,99,1,02,1,09,1,00800,1,08,1,02,1","0534,9","09,9","999,+0100,9","999,N,+0154,1","99999,9,09021,1","5,1,010,1,+999,9","3,1512,9","03,1","SYN112AAXX  02064 08213 11568 41104 10176 20129 39021 48512 55010 60072 70382 82982 333 20154 31010 55089 70067 81920;",
"08213099999","2010-07-02T09:00:00","4","40.95","-4.1333333","1005.0","SEGOVIA, SP","FM-12","99999","V020","060,1,N,0021,1","03600,1,9,N","015000,1,N,1","+0236,1","+0120,1","99999,9",,,,"9,1,03,1","2,1,03,1","02,1,+00600,1,09,1","06,99,1,04,1,09,1,00800,1,06,1,02,1",,,,,"99999,9,09023,1","1,1,002,1,+999,9","3,1524,9","03,1","SYN082AAXX  02094 08213 41565 60604 10236 20120 39023 48524 51002 70392 84962 333 82920;",
"08213099999","2010-07-02T12:00:00","4","40.95","-4.1333333","1005.0","SEGOVIA, SP","FM-12","99999","V020","230,1,N,0031,1","03600,1,9,N","018000,1,N,1","+0246,1","+0125,1","99999,9","06,0000,9,1",,,,,"01,1,+00600,1,09,1","05,99,1,03,1,03,1,00800,1,06,1,02,1",,,,,"99999,9,09039,1","1,1,016,1,+999,9","3,1541,9",,"SYN088AAXX  02124 08213 12568 52306 10246 20125 39039 48541 51016 60001 83362 333 50560 81920;","Q01  00002PRCP06"
"08213099999","2010-07-02T15:00:00","4","40.95","-4.1333333","1005.0","SEGOVIA, SP","FM-12","99999","V020","100,1,N,0062,1","00750,1,C,N","020000,1,N,1","+0200,1","+0146,1","99999,9",,,,"9,1,03,1","8,1,03,1","02,1,+00600,1,09,1","07,99,1,05,1,09,1,00800,1,06,1,99,9",,,,,"99999,9,09034,1","7,1,005,1,+999,9","3,1528,9","25,1","SYN082AAXX  02154 08213 41570 71012 10200 20146 39034 48528 57005 72598 8596/ 333 82920;",
"08213099999","2010-07-02T18:00:00","4","40.95","-4.1333333","1005.0","SEGOVIA, SP","FM-12","99999","V020","240,1,N,0041,1","03600,1,9,N","018000,1,N,1","+0256,1","+0121,1","99999,9","12,0000,2,1",,,"9,1,06,1","8,1,06,1","01,1,+00600,1,09,1","06,99,1,03,1,09,1,00800,1,06,1,02,1",,,,"120,M,+0268,1","99999,9,09020,1","6,1,014,1,+999,9","3,1524,9","03,1","SYN094AAXX  02184 08213 11568 62408 10256 20121 39020 48524 56014 69922 70398 83962 333 10268 81920;",
"08213099999","2010-07-03T06:00:00","4","40.95","-4.1333333","1005.0","SEGOVIA, SP","FM-12","99999","V020","170,1,N,0036,1","00750,1,C,N","018000,1,N,1","+0176,1","+0116,1","99999,9","12,0000,9,1","24,0003,9,1",,,,"01,1,+00600,1,09,1","06,99,1,06,1,03,1,00800,1,00,1,00,1","0336,9","09,9","999,+0110,9","999,N,+0176,1","99999,9,09029,1","4,1,000,1,+999,9","3,1519,9",,"SYN106AAXX  03064 08213 12568 61707 10176 20116 39029 48519 54000 60002 86300 333 20176 31011 55056 70002 81920;","Q01  00002PRCP12"
"08213099999","2010-07-03T09:00:00","4","40.95","-4.1333333","1005.0","SEGOVIA, SP","FM-12","99999","V020","120,1,N,0046,1","00750,1,C,N","012000,1,N,1","+0168,1","+0141,1","99999,9",,,,"9,1,03,1","8,1,03,1","03,1,+00600,1,09,1","08,99,1,08,1,03,1,00800,1,99,9,99,9",,,,,"99999,9,09057,1","1,1,028,1,+999,9","3,1544,9","02,1","SYN082AAXX  03094 08213 41562 81209 10168 20141 39057 48544 51028 70298 883// 333 83920;",
"08213099999","2010-07-03T12:00:00","4","40.95","-4.1333333","1005.0","SEGOVIA, SP","FM-12","99999","V020","090,1,N,0041,1","22000,1,9,N","018000,1,N,1","+0252,1","+0134,1","99999,9","06,0020,9,1",,,"9,1,06,1","8,1,06,1","01,1,+00600,1,09,1","04,99,1,01,1,03,1,00800,1,04,1,04,1",,,,,"99999,9,09054,1","8,1,003,1,+999,9","3,1557,9","01,1","SYN088AAXX  03124 08213 11568 40908 10252 20134 39054 48557 58003 60021 70198 81344 333 81920;",
"08213099999","2010-07-03T15:00:00","4","40.95","-4.1333333","1005.0","SEGOVIA, SP","FM-12","99999","V020","240,1,N,0036,1","22000,1,9,N","018000,1,N,1","+0284,1","+0123,1","99999,9",,,,,,"01,1,+00600,1,09,1","02,99,1,01,1,03,1,00800,1,00,1,08,1",,,,,"99999,9,09052,1","7,1,002,1,+999,9","3,1560,9",,"SYN076AAXX  03154 08213 42568 22407 10284 20123 39052 48560 57002 81308 333 81920;",
"08213099999","2010-07-03T18:00:00","4","40.95","-4.1333333","1005.0","SEGOVIA, SP","FM-12","99999","V020","200,1,N,0026,1","00750,1,C,N","018000,1,N,1","+0256,1","+0110,1","99999,9","12,0020,9,1",,,,,"02,1,+00600,1,09,1","07,99,1,06,1,03,1,00800,1,02,1,00,1",,,,"120,M,+0298,1","99999,9,09055,1","3,1,003,1,+999,9","3,1558,9",,"SYN088AAXX  03184 08213 12568 72005 10256 20110 39055 48558 53003 60022 86320 333 10298 82920;",
"08213099999","2010-07-04T06:00:00","4","40.95","-4.1333333","1005.0","SEGOVIA, SP","FM-12","99999","V020","090,1,N,0031,1","22000,1,9,N","020000,1,N,1","+0186,1","+0109,1","99999,9","12,0000,9,1","24,0015,9,1",,,,,"01,99,1,00,1,00,1,99999,9,00,1,01,1","0462,9","01,9","999,+0100,9","999,N,+0176,1","99999,9,09084,1","3,1,003,1,+999,9","3,1572,9",,"SYN100AAXX  04064 08213 12970 10906 10186 20109 39084 48572 53003 60002 80001 333 20176 30010 55077 70016;","Q01  00002PRCP12"
"08213099999","2010-07-04T09:00:00","4","40.95","-4.1333333","1005.0","SEGOVIA, SP","FM-12","99999","V020","060,1,N,0026,1","22000,1,9,N","020000,1,N,1","+0266,1","+0133,1","99999,9",,,,,,,"04,99,1,00,1,00,1,99999,9,00,1,01,1",,,,,"99999,9,09089,1","2,1,005,1,+999,9","3,1593,9",,"SYN066AAXX  04094 08213 42970 40605 10266 20133 39089 48593 52005 80001;",
"08213099999","2010-07-04T12:00:00","4","40.95","-4.1333333","1005.0","SEGOVIA, SP","FM-12","99999","V020","040,1,N,0031,1","22000,1,9,N","018000,1,N,1","+0294,1","+0119,1","99999,9","06,0000,9,1",,,,,"01,1,+00600,1,09,1","04,99,1,02,1,03,1,00800,1,00,1,04,1",,,,,"99999,9,09089,1","0,1,000,1,+999,9","3,1598,9",,"SYN082AAXX  04124 08213 12568 40406 10294 20119 39089 48598 50000 60001 82304 333 81920;","Q01  00002PRCP06"
"08213099999","2010-07-04T15:00:00","4","40.95","-4.1333333","1005.0","SEGOVIA, SP","FM-12","99999","V020","050,1,N,0051,1","22000,1,9,N","018000,1,N,1","+0298,1","+0118,1","99999,9",,,,,,"02,1,+00600,1,09,1","03,99,1,03,1,03,1,00800,1,00,1,00,1",,,,,"99999,9,09079,1","8,1,010,1,+999,9","3,1589,9",,"SYN076AAXX  04154 08213 42568 30510 10298 20118 39079 48589 58010 83300 333 82920;",
"08213099999","2010-07-04T18:00:00","4","40.95","-4.1333333","1005.0","SEGOVIA, SP","FM-12","99999","V020","060,1,N,0031,1","22000,1,9,N","018000,1,N,1","+0298,1","+0099,1","99999,9","12,0000,9,1",,,,,"01,1,+00600,1,09,1","02,99,1,02,1,03,1,00800,1,00,1,00,1",,,,"120,M,+0314,1","99999,9,09074,1","7,1,005,1,+999,9","3,1584,9",,"SYN088AAXX  04184 08213 12568 20606 10298 20099 39074 48584 57005 60002 82300 333 10314 81920;","Q01  00002PRCP12"
"08213099999","2010-07-05T06:00:00","4","40.95","-4.1333333","1005.0","SEGOVIA, SP","FM-12","99999","V020","090,1,N,0010,1","22000,1,9,N","012000,1,N,1","+0190,1","+0130,1","99999,9","12,0000,9,1","24,0000,9,1",,,,"00,1,+99999,9,99,9","00,99,1,00,1,00,1,99999,9,00,1,00,1","0852,9","01,9","999,+0080,9","999,N,+0166,1","99999,9,09094,1","3,1,005,1,+999,9","3,1583,9",,"SYN094AAXX  05064 08213 12962 00902 10190 20130 39094 48583 53005 60002 333 20166 30008 55142 70000;","Q01  00002PRCP24Q02  00002PRCP12"
"08213099999","2010-07-05T09:00:00","4","40.95","-4.1333333","1005.0","SEGOVIA, SP","FM-12","99999","V020","340,1,N,0021,1","22000,1,9,N","012000,1,N,1","+0249,1","+0141,1","99999,9",,,,,,"00,1,+99999,9,99,9","00,99,1,00,1,00,1,99999,9,00,1,00,1",,,,,"99999,9,09097,1","3,1,003,1,+999,9","3,1597,9",,"SYN060AAXX  05094 08213 42962 03404 10249 20141 39097 48597 53003;",
"08213099999","2010-07-05T12:00:00","4","40.95","-4.1333333","1005.0","SEGOVIA, SP","FM-12","99999","V020","020,1,N,0021,1","22000,1,9,N","015000,1,N,1","+0300,1","+0129,1","99999,9","06,0000,9,1",,,,,,"01,99,1,01,1,01,1,00800,1,00,1,00,1",,,,,"99999,9,09097,1","4,1,000,1,+999,9","3,1607,9",,"SYN082AAXX  05124 08213 12565 10204 10300 20129 39097 48607 54000 60001 81100 333 50650;","Q01  00002PRCP06"
"08213099999","2010-07-05T15:00:00","4","40.95","-4.1333333","1005.0","SEGOVIA, SP","FM-12","99999","V020","030,1,N,0041,1","22000,1,9,N","020000,1,N,1","+0314,1","+0117,1","99999,9",,,,,,,"01,99,1,01,1,05,1,00800,1,00,1,00,1",,,,,"99999,9,09090,1","7,1,007,1,+999,9","3,1603,9",,"SYN066AAXX  05154 08213 42570 10308 10314 20117 39090 48603 57007 81500;",
"08213099999","2010-07-05T18:00:00","4","40.95","-4.1333333","1005.0","SEGOVIA, SP","FM-12","99999","V020","030,1,N,0041,1","22000,1,9,N","020000,1,N,1","+0294,1","+0085,1","99999,9","12,0000,9,1",,,,,"00,1,+99999,9,99,9","00,99,1,00,1,00,1,99999,9,00,1,00,1",,,,"999,M,+0321,1","99999,9,09085,1","6,1,005,1,+999,9","3,1593,9",,"SYN076AAXX  05184 08213 12970 00308 10294 20085 39085 48593 56005 60002 333 10321;","Q01  00002PRCP12"
"08213099999","2010-07-06T06:00:00","4","40.95","-4.1333333","1005.0","SEGOVIA, SP","FM-12","99999","V020","999,9,C,0000,1","22000,1,9,N","015000,1,N,1","+0185,1","+0120,1","99999,9","12,0000,9,1","24,0000,9,1",,,,"00,1,+99999,9,99,9","00,99,1,00,1,00,1,99999,9,00,1,00,1","0864,9","01,9","999,+0060,9","999,N,+0157,1","99999,9,09093,1","7,1,003,1,+999,9","3,1580,9",,"SYN094AAXX  06064 08213 12965 00000 10185 20120 39093 48580 57003 60002 333 20157 30006 55144 70000;","Q01  00002PRCP24Q02  00002PRCP12"
"08213099999","2010-07-06T09:00:00","4","40.95","-4.1333333","1005.0","SEGOVIA, SP","FM-12","99999","V020","260,1,N,0031,1","22000,1,9,N","015000,1,N,1","+0236,1","+0129,1","99999,9",,,,,,"00,1,+99999,9,99,9","00,99,1,00,1,00,1,99999,9,00,1,00,1",,,,,"99999,9,09094,1","3,1,001,1,+999,9","3,1592,9",,"SYN060AAXX  06094 08213 42965 02606 10236 20129 39094 48592 53001;",
"08213099999","2010-07-06T12:00:00","4","40.95","-4.1333333","1005.0","SEGOVIA, SP","FM-12","99999","V020","060,1,N,0021,1","22000,1,9,N","018000,1,N,1","+0302,1","+0126,1","99999,9","06,0000,9,1",,,,,,"01,99,1,01,1,01,1,00800,1,00,1,00,1",,,,,"99999,9,09089,1","6,1,005,1,+999,9","3,1600,9",,"SYN082AAXX  06124 08213 12568 10604 10302 20126 39089 48600 56005 60001 81100 333 50630;","Q01  00002PRCP06"
"08213099999","2010-07-06T15:00:00","4","40.95","-4.1333333","1005.0","SEGOVIA, SP","FM-12","99999","V020","300,1,N,0021,1","22000,1,9,N","020000,1,N,1","+0325,1","+0093,1","99999,9",,,,,,"01,1,+00600,1,09,1","01,99,1,01,1,03,1,00800,1,00,1,00,1",,,,,"99999,9,09074,1","7,1,015,1,+999,9","3,1589,9",,"SYN076AAXX  06154 08213 42570 13004 10325 20093 39074 48589 57015 81300 333 81920;",
"08213099999","2010-07-06T18:00:00","4","40.95","-4.1333333","1005.0","SEGOVIA, SP","FM-12","99999","V020","070,1,N,0046,1","22000,1,9,N","020000,1,N,1","+0316,1","+0098,1","99999,9","12,0000,9,1",,,,,,"01,99,1,01,1,05,1,00800,1,00,1,00,1",,,,"999,M,+0336,1","99999,9,09065,1","7,1,009,1,+999,9","3,1578,9",,"SYN082AAXX  06184 08213 12570 10709 10316 20098 39065 48578 57009 60002 81500 333 10336;","Q01  00002PRCP12"
"08213099999","2010-07-07T06:00:00","4","40.95","-4.1333333","1005.0","SEGOVIA, SP","FM-12","99999","V020","070,1,N,0015,1","22000,1,9,N","020000,1,N,1","+0210,1","+0105,1","99999,9","12,0000,9,1","24,0000,9,1",,,,"00,1,+99999,9,99,9","00,99,1,00,1,00,1,99999,9,00,1,00,1","0828,9","01,9","999,+0100,9","999,N,+0210,1","99999,9,09065,1","4,1,000,1,+999,9","3,1559,9",,"SYN094AAXX  07064 08213 12970 00703 10210 20105 39065 48559 54000 60002 333 20210 30010 55138 70000;","Q01  00002PRCP24Q02  00002PRCP12"
"08213099999","2010-07-07T09:00:00","4","40.95","-4.1333333","1005.0","SEGOVIA, SP","FM-12","99999","V020","240,1,N,0031,1","22000,1,9,N","016000,1,N,1","+0310,1","+0114,1","99999,9",,,,,,"00,1,+99999,9,99,9","00,99,1,00,1,00,1,99999,9,00,1,00,1",,,,,"99999,9,09068,1","2,1,003,1,+999,9","3,1581,9",,"SYN060AAXX  07094 08213 42966 02406 10310 20114 39068 48581 52003;",
"08213099999","2010-07-07T12:00:00","4","40.95","-4.1333333","1005.0","SEGOVIA, SP","FM-12","99999","V020","220,1,N,0031,1","22000,1,9,N","018000,1,N,1","+0330,1","+0115,1","99999,9","06,0000,9,1",,,,,,"01,99,1,01,1,02,1,00800,1,00,1,00,1",,,,,"99999,9,09069,1","2,1,001,1,+999,9","3,1585,9",,"SYN082AAXX  07124 08213 12568 12206 10330 20115 39069 48585 52001 60001 81200 333 50720;","Q01  00002PRCP06"
"08213099999","2010-07-07T15:00:00","4","40.95","-4.1333333","1005.0","SEGOVIA, SP","FM-12","99999","V020","090,1,N,0123,1","00750,1,C,N","006000,1,N,1","+0302,1","+0130,1","99999,9",,,,"9,1,03,1","8,1,03,1","04,1,+00600,1,09,1","07,99,1,07,1,03,1,00800,1,00,1,00,1",,,,,"99999,9,09065,1","8,1,004,1,+999,9","3,1577,9","95,1","SYN082AAXX  07154 08213 41556 70924 10302 20130 39065 48577 58004 79598 87300 333 84920;",
"08213099999","2010-07-07T18:00:00","4","40.95","-4.1333333","1005.0","SEGOVIA, SP","FM-12","99999","V020","090,1,N,0036,1","99999,9,9,N","018000,1,N,1","+0274,1","+0151,1","99999,9","12,0119,9,1",,,"9,1,06,1","8,1,06,1",,"06,99,1,00,1,00,1,99999,9,00,1,06,1",,,,"999,M,+0356,1","99999,9,09056,1","8,1,009,1,+999,9","3,1563,9","01,1","SYN088AAXX  07184 08213 11968 60907 10274 20151 39056 48563 58009 60122 70198 80006 333 10356;",
"08213099999","2010-07-08T06:00:00","4","40.95","-4.1333333","1005.0","SEGOVIA, SP","FM-12","99999","V020","140,1,N,0041,1","03600,1,9,N","016000,1,N,1","+0268,1","+0105,1","99999,9","12,0000,9,1","24,0117,9,1",,,,,"06,99,1,04,1,05,1,00800,1,02,1,00,1","0660,9","01,9","999,+0140,9","999,N,+0264,1","99999,9,09051,1","6,1,003,1,+999,9","3,1556,9",,"SYN100AAXX  08064 08213 12566 61408 10268 20105 39051 48556 56003 60002 84520 333 20264 30014 55110 70117;","Q01  00002PRCP12"
"08213099999","2010-07-08T09:00:00","4","40.95","-4.1333333","1005.0","SEGOVIA, SP","FM-12","99999","V020","150,1,N,0046,1","00750,1,9,N","014000,1,N,1","+0300,1","+0084,1","99999,9",,,,,,,"08,99,1,08,1,00,1,00800,1,02,1,99,9",,,,,"99999,9,09052,1","3,1,001,1,+999,9","3,1563,9",,"SYN066AAXX  08094 08213 42564 81509 10300 20084 39052 48563 53001 8802/;",
"08213099999","2010-07-08T12:00:00","4","40.95","-4.1333333","1005.0","SEGOVIA, SP","FM-12","99999","V020","220,1,N,0026,1","03600,1,9,N","006000,1,N,1","+0296,1","+0112,1","99999,9","06,0000,9,1",,,"2,1,06,1","2,1,06,1",,"08,99,1,04,1,05,1,00800,1,02,1,99,9",,,,,"99999,9,09054,1","0,1,002,1,+999,9","3,1564,9","10,1","SYN088AAXX  08124 08213 11556 82205 10296 20112 39054 48564 50002 60001 71022 8452/ 333 50700;","Q01  00002PRCP06"
"08213099999","2010-07-08T15:00:00","4","40.95","-4.1333333","1005.0","SEGOVIA, SP","FM-12","99999","V020","160,1,N,0082,1","00750,1,C,N","006000,1,N,1","+0328,1","+0054,1","99999,9",,,,"2,1,03,1","2,1,03,1","03,1,+00600,1,09,1","07,99,1,07,1,03,1,00800,1,00,1,00,1",,,,,"99999,9,09047,1","7,1,007,1,+999,9","3,1562,9","10,1","SYN082AAXX  08154 08213 41556 71616 10328 20054 39047 48562 57007 71022 87300 333 83920;",
"08213099999","2010-07-08T18:00:00","4","40.95","-4.1333333","1005.0","SEGOVIA, SP","FM-12","99999","V020","180,1,N,0036,1","03600,1,9,N","016000,1,N,1","+0312,1","+0076,1","99999,9","12,0000,9,1",,,,,,"06,99,1,01,1,02,1,00800,1,01,1,00,1",,,,"999,M,+0342,1","99999,9,09038,1","8,1,009,1,+999,9","3,1551,9",,"SYN082AAXX  08184 08213 12566 61807 10312 20076 39038 48551 58009 60002 81210 333 10342;","Q01  00002PRCP12"
"08213099999","2010-07-09T06:00:00","4","40.95","-4.1333333","1005.0","SEGOVIA, SP","FM-12","99999","V020","260,1,N,0010,1","22000,1,9,N","016000,1,N,1","+0180,1","+0125,1","99999,9","12,0000,9,1","24,0000,9,1",,,,"00,1,+99999,9,99,9","00,99,1,00,1,00,1,99999,9,00,1,00,1","0282,9","01,9","999,+0100,9","999,N,+0180,1","99999,9,09067,1","1,1,007,1,+999,9","3,1555,9",,"SYN094AAXX  09064 08213 12966 02602 10180 20125 39067 48555 51007 60002 333 20180 30010 55047 70000;","Q01  00002PRCP24Q02  00002PRCP12"
"08213099999","2010-07-09T09:00:00","4","40.95","-4.1333333","1005.0","SEGOVIA, SP","FM-12","99999","V020","310,1,N,0021,1","22000,1,9,N","016000,1,N,1","+0230,1","+0129,1","99999,9",,,,,,"00,1,+99999,9,99,9","00,99,1,00,1,00,1,99999,9,00,1,00,1",,,,,"99999,9,09071,1","1,1,004,1,+999,9","3,1569,9",,"SYN060AAXX  09094 08213 42966 03104 10230 20129 39071 48569 51004;",
"08213099999","2010-07-09T12:00:00","4","40.95","-4.1333333","1005.0","SEGOVIA, SP","FM-12","99999","V020","210,1,N,0031,1","22000,1,9,N","016000,1,N,1","+0276,1","+0099,1","99999,9","06,0000,9,1",,,,,,"01,99,1,01,1,02,1,00800,1,00,1,00,1",,,,,"99999,9,09077,1","1,1,006,1,+999,9","3,1583,9",,"SYN082AAXX  09124 08213 12566 12106 10276 20099 39077 48583 51006 60001 81200 333 50560;","Q01  00002PRCP06"
"08213099999","2010-07-09T15:00:00","4","40.95","-4.1333333","1005.0","SEGOVIA, SP","FM-12","99999","V020","260,1,N,0031,1","22000,1,9,N","018000,1,N,1","+0304,1","+0119,1","99999,9",,,,,,,"01,99,1,01,1,01,1,00800,1,00,1,00,1",,,,,"99999,9,09069,1","8,1,008,1,+999,9","3,1581,9",,"SYN066AAXX  09154 08213 42568 12606 10304 20119 39069 48581 58008 81100;",
"08213099999","2010-07-09T18:00:00","4","40.95","-4.1333333","1005.0","SEGOVIA, SP","FM-12","99999","V020","280,1,N,0026,1","22000,1,9,N","018000,1,N,1","+0304,1","+0114,1","99999,9","12,0000,9,1",,,,,,"01,99,1,01,1,01,1,00800,1,00,1,00,1",,,,"999,M,+0318,1","99999,9,09066,1","8,1,003,1,+999,9","3,1577,9",,"SYN082AAXX  09184 08213 12568 12805 10304 20114 39066 48577 58003 60002 81100 333 10318;","Q01  00002PRCP12"
"08213099999","2010-07-10T06:00:00","4","40.95","-4.1333333","1005.0","SEGOVIA, SP","FM-12","99999","V020","100,1,N,0010,1","22000,1,9,N","012000,1,N,1","+0203,1","+0133,1","99999,9","12,0000,9,1","24,0000,9,1",,,,"00,1,+99999,9,99,9","00,99,1,00,1,00,1,99999,9,00,1,00,1","0804,9","01,9","999,+0080,9","999,N,+0185,1","99999,9,09076,1","4,1,000,1,+999,9","3,1568,9",,"SYN094AAXX  10064 08213 12962 01002 10203 20133 39076 48568 54000 60002 333 20185 30008 55134 70000;","Q01  00002PRCP24Q02  00002PRCP12"
"08213099999","2010-07-10T09:00:00","4","40.95","-4.1333333","1005.0","SEGOVIA, SP","FM-12","99999","V020","290,1,N,0026,1","22000,1,9,N","012000,1,N,1","+0254,1","+0148,1","99999,9",,,,,,,"01,99,1,01,1,05,1,00800,1,00,1,00,1",,,,,"99999,9,09075,1","7,1,001,1,+999,9","3,1577,9",,"SYN066AAXX  10094 08213 42562 12905 10254 20148 39075 48577 57001 81500;",
"08213099999","2010-07-10T12:00:00","4","40.95","-4.1333333","1005.0","SEGOVIA, SP","FM-12","99999","V020","290,1,N,0031,1","22000,1,9,N","012000,1,N,1","+0310,1","+0124,1","99999,9","06,0000,9,1",,,,,"01,1,+00600,1,09,1","02,99,1,02,1,03,1,00800,1,00,1,00,1",,,,,"99999,9,09068,1","8,1,007,1,+999,9","3,1581,9",,"SYN088AAXX  10124 08213 12562 22906 10310 20124 39068 48581 58007 60001 82300 333 50680 81920;","Q01  00002PRCP06"
"08213099999","2010-07-10T15:00:00","4","40.95","-4.1333333","1005.0","SEGOVIA, SP","FM-12","99999","V020","330,1,N,0021,1","22000,1,9,N","018000,1,N,1","+0318,1","+0135,1","99999,9",,,,,,"01,1,+00600,1,09,1","02,99,1,02,1,03,1,00800,1,00,1,00,1",,,,,"99999,9,09061,1","7,1,007,1,+999,9","3,1576,9",,"SYN076AAXX  10154 08213 42568 23304 10318 20135 39061 48576 57007 82300 333 81920;",
"08213099999","2010-07-10T18:00:00","4","40.95","-4.1333333","1005.0","SEGOVIA, SP","FM-12","99999","V020","130,1,N,0031,1","22000,1,9,N","018000,1,N,1","+0318,1","+0093,1","99999,9","12,0000,9,1",,,,,"01,1,+00600,1,09,1","03,99,1,02,1,03,1,00800,1,06,1,00,1",,,,"120,M,+0333,1","99999,9,09051,1","7,1,010,1,+999,9","3,1565,9",,"SYN088AAXX  10184 08213 12568 31306 10318 20093 39051 48565 57010 60002 82360 333 10333 81920;","Q01  00002PRCP12"
"08213099999","2010-07-11T06:00:00","4","40.95","-4.1333333","1005.0","SEGOVIA, SP","FM-12","99999","V020","070,1,N,0015,1","22000,1,9,N","018000,1,N,1","+0201,1","+0099,1","99999,9","12,0000,9,1","24,0000,9,1",,,,"00,1,+99999,9,99,9","00,99,1,00,1,00,1,99999,9,00,1,00,1","0774,9","01,9","999,+0060,9","999,N,+0184,1","99999,9,09062,1","6,1,003,1,+999,9","3,1554,9",,"SYN094AAXX  11064 08213 12968 00703 10201 20099 39062 48554 56003 60002 333 20184 30006 55129 70000;","Q01  00002PRCP24Q02  00002PRCP12"
"08213099999","2010-07-11T09:00:00","4","40.95","-4.1333333","1005.0","SEGOVIA, SP","FM-12","99999","V020","270,1,N,0026,1","22000,1,9,N","015000,1,N,1","+0269,1","+0106,1","99999,9",,,,,,"00,1,+99999,9,99,9","00,99,1,00,1,00,1,99999,9,00,1,00,1",,,,,"99999,9,09062,1","4,1,000,1,+999,9","3,1567,9",,"SYN060AAXX  11094 08213 42965 02705 10269 20106 39062 48567 54000;",
"08213099999","2010-07-11T12:00:00","4","40.95","-4.1333333","1005.0","SEGOVIA, SP","FM-12","99999","V020","270,1,N,0036,1","22000,1,9,N","018000,1,N,1","+0317,1","+0098,1","99999,9","06,0000,9,1",,,,,,"01,99,1,01,1,01,1,00800,1,00,1,00,1",,,,,"99999,9,09055,1","7,1,007,1,+999,9","3,1569,9",,"SYN082AAXX  11124 08213 12568 12707 10317 20098 39055 48569 57007 60001 81100 333 50650;","Q01  00002PRCP06"
"08213099999","2010-07-11T15:00:00","4","40.95","-4.1333333","1005.0","SEGOVIA, SP","FM-12","99999","V020","230,1,N,0072,1","22000,1,9,N","020000,1,N,1","+0345,1","+0075,1","99999,9",,,,,,"01,1,+00600,1,09,1","02,99,1,02,1,03,1,00800,1,00,1,00,1",,,,,"99999,9,09041,1","7,1,014,1,+999,9","3,1560,9",,"SYN076AAXX  11154 08213 42570 22314 10345 20075 39041 48560 57014 82300 333 81920;",
"08213099999","2010-07-11T18:00:00","4","40.95","-4.1333333","1005.0","SEGOVIA, SP","FM-12","99999","V020","270,1,N,0010,1","22000,1,9,N","020000,1,N,1","+0295,1","+0096,1","99999,9","12,0000,9,1",,,"1,1,06,1","1,1,06,1","02,1,+00600,1,09,1","04,99,1,03,1,09,1,00800,1,06,1,00,1",,,,"120,M,+0350,1","99999,9,09037,1","6,1,004,1,+999,9","3,1547,9","15,1","SYN094AAXX  11184 08213 11570 42702 10295 20096 39037 48547 56004 60002 71511 83960 333 10350 82920;","Q01  00002PRCP12"
"08213099999","2010-07-12T06:00:00","4","40.95","-4.1333333","1005.0","SEGOVIA, SP","FM-12","99999","V020","140,1,N,0021,1","22000,1,9,N","020000,1,N,1","+0182,1","+0082,1","99999,9","12,0000,9,1","24,0000,9,1",,,,,"02,99,1,00,1,00,1,99999,9,00,1,04,1","0630,9","01,9","999,+0070,9","999,N,+0182,1","99999,9,09039,1","6,1,003,1,+999,9","3,1529,9",,"SYN100AAXX  12064 08213 12970 21404 10182 20082 39039 48529 56003 60002 80004 333 20182 30007 55105 70000;","Q01  00002PRCP24Q02  00002PRCP12"
"08213099999","2010-07-12T09:00:00","4","40.95","-4.1333333","1005.0","SEGOVIA, SP","FM-12","99999","V020","270,1,N,0015,1","22000,1,9,N","020000,1,N,1","+0244,1","+0107,1","99999,9",,,,,,,"05,99,1,01,1,00,1,01750,1,06,1,04,1",,,,,"99999,9,09052,1","1,1,013,1,+999,9","3,1553,9",,"SYN066AAXX  12094 08213 42770 52703 10244 20107 39052 48553 51013 81064;",
"08213099999","2010-07-12T12:00:00","4","40.95","-4.1333333","1005.0","SEGOVIA, SP","FM-12","99999","V020","270,1,N,0036,1","09000,1,9,N","020000,1,N,1","+0282,1","+0099,1","99999,9","06,0000,9,1",,,,,,"06,99,1,01,1,02,1,00800,1,06,1,04,1",,,,,"99999,9,09053,1","2,1,001,1,+999,9","3,1560,9",,"SYN082AAXX  12124 08213 12570 62707 10282 20099 39053 48560 52001 60001 81264 333 50630;","Q01  00002PRCP06"
"08213099999","2010-07-12T15:00:00","4","40.95","-4.1333333","1005.0","SEGOVIA, SP","FM-12","99999","V020","300,1,N,0036,1","22000,1,9,N","020000,1,N,1","+0318,1","+0046,1","99999,9",,,,,,,"06,99,1,01,1,02,1,00800,1,00,1,06,1",,,,,"99999,9,09037,1","6,1,016,1,+999,9","3,1551,9",,"SYN066AAXX  12154 08213 42570 63007 10318 20046 39037 48551 56016 81206;",
"08213099999","2010-07-12T18:00:00","4","40.95","-4.1333333","1005.0","SEGOVIA, SP","FM-12","99999","V020","310,1,N,0041,1","22000,1,9,N","020000,1,N,1","+0304,1","+0009,1","99999,9","12,0000,9,1",,,,,,"04,99,1,00,1,00,1,99999,9,00,1,04,1",,,,"999,M,+0324,1","99999,9,09025,1","7,1,012,1,+999,9","3,1536,9",,"SYN082AAXX  12184 08213 12970 43108 10304 20009 39025 48536 57012 60002 80004 333 10324;","Q01  00002PRCP12"
"08213099999","2010-07-13T06:00:00","4","40.95","-4.1333333","1005.0","SEGOVIA, SP","FM-12","99999","V020","160,1,N,0026,1","22000,1,9,N","020000,1,N,1","+0156,1","+0081,1","99999,9","12,0000,9,1","24,0000,9,1",,,,"00,1,+99999,9,99,9","00,99,1,00,1,00,1,99999,9,00,1,00,1","0858,9","01,9","999,+0050,9","999,N,+0154,1","99999,9,09025,1","6,1,003,1,+999,9","3,1511,9",,"SYN094AAXX  13064 08213 12970 01605 10156 20081 39025 48511 56003 60002 333 20154 30005 55143 70000;","Q01  00002PRCP24Q02  00002PRCP12"
"08213099999","2010-07-13T09:00:00","4","40.95","-4.1333333","1005.0","SEGOVIA, SP","FM-12","99999","V020","280,1,N,0021,1","22000,1,9,N","020000,1,N,1","+0202,1","+0119,1","99999,9",,,,,,"00,1,+99999,9,99,9","00,99,1,00,1,00,1,99999,9,00,1,00,1",,,,,"99999,9,09023,1","7,1,002,1,+999,9","3,1518,9",,"SYN060AAXX  13094 08213 42970 02804 10202 20119 39023 48518 57002;",
"08213099999","2010-07-13T12:00:00","4","40.95","-4.1333333","1005.0","SEGOVIA, SP","FM-12","99999","V020","280,1,N,0036,1","22000,1,9,N","020000,1,N,1","+0270,1","+0107,1","99999,9","06,0000,9,1",,,,,"00,1,+99999,9,99,9","00,99,1,00,1,00,1,99999,9,00,1,00,1",,,,,"99999,9,09014,1","8,1,009,1,+999,9","3,1521,9",,"SYN076AAXX  13124 08213 12970 02807 10270 20107 39014 48521 58009 60001 333 50840;","Q01  00002PRCP06"
"08213099999","2010-07-13T15:00:00","4","40.95","-4.1333333","1005.0","SEGOVIA, SP","FM-12","99999","V020","250,1,N,0031,1","22000,1,9,N","020000,1,N,1","+0318,1","+0075,1","99999,9",,,,,,"00,1,+99999,9,99,9","00,99,1,00,1,00,1,99999,9,00,1,00,1",,,,,"99999,9,08997,1","6,1,017,1,+999,9","3,1512,9",,"SYN060AAXX  13154 08213 42970 02506 10318 20075 38997 48512 56017;",
"08213099999","2010-07-13T18:00:00","4","40.95","-4.1333333","1005.0","SEGOVIA, SP","FM-12","99999","V020","300,1,N,0041,1","22000,1,9,N","020000,1,N,1","+0300,1","+0095,1","99999,9","12,0000,9,1",,,,,,"01,99,1,01,1,01,1,00800,1,00,1,00,1",,,,"999,M,+0326,1","99999,9,08990,1","6,1,007,1,+999,9","3,1502,9",,"SYN082AAXX  13184 08213 12570 13008 10300 20095 38990 48502 56007 60002 81100 333 10326;","Q01  00002PRCP12"
"08213099999","2010-07-14T06:00:00","4","40.95","-4.1333333","1005.0","SEGOVIA, SP","FM-12","99999","V020","270,1,N,0010,1","22000,1,9,N","020000,1,N,1","+0154,1","+0108,1","99999,9","12,0000,9,1","24,0000,9,1",,,,,"02,99,1,00,1,00,1,99999,9,00,1,06,1","0870,9","01,9","999,+0080,9","999,N,+0148,1","99999,9,08997,1","1,1,004,1,+999,9","3,1485,9",,"SYN100AAXX  14064 08213 12970 22702 10154 20108 38997 48485 51004 60002 80006 333 20148 30008 55145 70000;","Q01  00002PRCP24Q02  00002PRCP12"
"08213099999","2010-07-14T09:00:00","4","40.95","-4.1333333","1005.0","SEGOVIA, SP","FM-12","99999","V020","270,1,N,0031,1","22000,1,9,N","018000,1,N,1","+0198,1","+0085,1","99999,9",,,,,,,"06,99,1,02,1,00,1,01750,1,02,1,06,1",,,,,"99999,9,09007,1","0,1,010,1,+999,9","3,1501,9",,"SYN066AAXX  14094 08213 42768 62706 10198 20085 39007 48501 50010 82026;",
"08213099999","2010-07-14T12:00:00","4","40.95","-4.1333333","1005.0","SEGOVIA, SP","FM-12","99999","V020","280,1,N,0036,1","22000,1,9,N","018000,1,N,1","+0232,1","+0103,1","99999,9","06,0000,9,1",,,,,,"02,99,1,01,1,02,1,00800,1,00,1,04,1",,,,,"99999,9,09014,1","3,1,007,1,+999,9","3,1514,9",,"SYN072AAXX  14124 08213 12568 22807 10232 20103 39014 48514 53007 60001 81204;","Q01  00002PRCP06"
"08213099999","2010-07-14T15:00:00","4","40.95","-4.1333333","1005.0","SEGOVIA, SP","FM-12","99999","V020","280,1,N,0036,1","99999,9,9,N","020000,1,N,1","+0260,1","+0061,1","99999,9",,,,,,,"06,99,1,00,1,00,1,99999,9,00,1,04,1",,,,,"99999,9,09015,1","1,1,001,1,+999,9","3,1519,9",,"SYN066AAXX  14154 08213 42970 62807 10260 20061 39015 48519 51001 80004;",
"08213099999","2010-07-14T18:00:00","4","40.95","-4.1333333","1005.0","SEGOVIA, SP","FM-12","99999","V020","300,1,N,0041,1","99999,9,9,N","020000,1,N,1","+0252,1","+0054,1","99999,9","12,0000,9,1",,,,,,"06,99,1,00,1,00,1,99999,9,00,1,06,1",,,,"999,M,+0270,1","99999,9,09018,1","2,1,003,1,+999,9","3,1521,9",,"SYN082AAXX  14184 08213 12970 63008 10252 20054 39018 48521 52003 60002 80006 333 10270;","Q01  00002PRCP12"
"08213099999","2010-07-15T06:00:00","4","40.95","-4.1333333","1005.0","SEGOVIA, SP","FM-12","99999","V020","150,1,N,0021,1","22000,1,9,N","012000,1,N,1","+0126,1","+0066,1","99999,9","12,0000,9,1","24,0000,9,1",,,,"00,1,+99999,9,99,9","00,99,1,00,1,00,1,99999,9,00,1,00,1","0852,9","01,9","999,+0080,9","999,N,+0109,1","99999,9,09040,1","4,1,000,1,+999,9","3,1519,9",,"SYN094AAXX  15064 08213 12962 01504 10126 20066 39040 48519 54000 60002 333 20109 30008 55142 70000;","Q01  00002PRCP24Q02  00002PRCP12"
"08213099999","2010-07-15T09:00:00","4","40.95","-4.1333333","1005.0","SEGOVIA, SP","FM-12","99999","V020","010,1,N,0021,1","22000,1,9,N","018000,1,N,1","+0180,1","+0083,1","99999,9",,,,,,"00,1,+99999,9,99,9","00,99,1,00,1,00,1,99999,9,00,1,00,1",,,,,"99999,9,09040,1","4,1,000,1,+999,9","3,1529,9",,"SYN060AAXX  15094 08213 42968 00104 10180 20083 39040 48529 54000;",
"08213099999","2010-07-15T12:00:00","4","40.95","-4.1333333","1005.0","SEGOVIA, SP","FM-12","99999","V020","260,1,N,0031,1","22000,1,9,N","018000,1,N,1","+0258,1","+0069,1","99999,9","06,0000,9,1",,,,,"00,1,+99999,9,99,9","00,99,1,00,1,00,1,99999,9,00,1,00,1",,,,,"99999,9,09035,1","8,1,005,1,+999,9","3,1538,9",,"SYN076AAXX  15124 08213 12968 02606 10258 20069 39035 48538 58005 60001 333 50710;","Q01  00002PRCP06"
"08213099999","2010-07-15T15:00:00","4","40.95","-4.1333333","1005.0","SEGOVIA, SP","FM-12","99999","V020","290,1,N,0036,1","22000,1,9,N","020000,1,N,1","+0292,1","+0060,1","99999,9",,,,,,"00,1,+99999,9,99,9","00,99,1,00,1,00,1,99999,9,00,1,00,1",,,,,"99999,9,09028,1","7,1,007,1,+999,9","3,1537,9",,"SYN060AAXX  15154 08213 42970 02907 10292 20060 39028 48537 57007;",
"08213099999","2010-07-15T18:00:00","4","40.95","-4.1333333","1005.0","SEGOVIA, SP","FM-12","99999","V020","310,1,N,0057,1","22000,1,9,N","020000,1,N,1","+0282,1","+0009,1","99999,9","12,0000,9,1",,,,,"00,1,+99999,9,99,9","00,99,1,00,1,00,1,99999,9,00,1,00,1",,,,"999,M,+0309,1","99999,9,09025,1","7,1,003,1,+999,9","3,1532,9",,"SYN076AAXX  15184 08213 12970 03111 10282 20009 39025 48532 57003 60002 333 10309;","Q01  00002PRCP12"
"08213099999","2010-07-16T06:00:00","4","40.95","-4.1333333","1005.0","SEGOVIA, SP","FM-12","99999","V020","060,1,N,0010,1","22000,1,9,N","018000,1,N,1","+0154,1","+0053,1","99999,9","12,0000,9,1","24,0000,9,1",,,,"00,1,+99999,9,99,9","00,99,1,00,1,00,1,99999,9,00,1,00,1","0846,9","01,9","999,+0080,9","999,N,+0133,1","99999,9,09051,1","3,1,005,1,+999,9","3,1534,9",,"SYN094AAXX  16064 08213 12968 00602 10154 20053 39051 48534 53005 60002 333 20133 30008 55141 70000;","Q01  00002PRCP24Q02  00002PRCP12"
"08213099999","2010-07-16T09:00:00","4","40.95","-4.1333333","1005.0","SEGOVIA, SP","FM-12","99999","V020","250,1,N,0021,1","22000,1,9,N","020000,1,N,1","+0200,1","+0087,1","99999,9",,,,,,"00,1,+99999,9,99,9","00,99,1,00,1,00,1,99999,9,00,1,00,1",,,,,"99999,9,09061,1","2,1,010,1,+999,9","3,1553,9",,"SYN060AAXX  16094 08213 42970 02504 10200 20087 39061 48553 52010;",
"08213099999","2010-07-16T12:00:00","4","40.95","-4.1333333","1005.0","SEGOVIA, SP","FM-12","99999","V020","240,1,N,0010,1","22000,1,9,N","018000,1,N,1","+0251,1","+0086,1","99999,9","06,0000,9,1",,,,,"00,1,+99999,9,99,9","00,99,1,00,1,00,1,99999,9,00,1,00,1",,,,,"99999,9,09060,1","8,1,001,1,+999,9","3,1561,9",,"SYN076AAXX  16124 08213 12968 02402 10251 20086 39060 48561 58001 60001 333 50690;","Q01  00002PRCP06"
"08213099999","2010-07-16T15:00:00","4","40.95","-4.1333333","1005.0","SEGOVIA, SP","FM-12","99999","V020","290,1,N,0026,1","22000,1,9,N","020000,1,N,1","+0282,1","+0069,1","99999,9",,,,,,,"01,99,1,01,1,01,1,00800,1,00,1,00,1",,,,,"99999,9,09054,1","7,1,006,1,+999,9","3,1561,9",,"SYN066AAXX  16154 08213 42570 12905 10282 20069 39054 48561 57006 81100;",
"08213099999","2010-07-16T18:00:00","4","40.95","-4.1333333","1005.0","SEGOVIA, SP","FM-12","99999","V020","310,1,N,0031,1","22000,1,9,N","018000,1,N,1","+0280,1","+0062,1","99999,9","12,0000,9,1",,,,,"00,1,+99999,9,99,9","00,99,1,00,1,00,1,99999,9,00,1,00,1",,,,"999,M,+0297,1","99999,9,09049,1","7,1,005,1,+999,9","3,1556,9",,"SYN076AAXX  16184 08213 12968 03106 10280 20062 39049 48556 57005 60002 333 10297;","Q01  00002PRCP12"
"08213099999","2010-07-17T06:00:00","4","40.95","-4.1333333","1005.0","SEGOVIA, SP","FM-12","99999","V020","280,1,N,0010,1","22000,1,9,N","012000,1,N,1","+0162,1","+0109,1","99999,9","12,0000,9,1","24,0000,9,1",,,,"00,1,+99999,9,99,9","00,99,1,00,1,00,1,99999,9,00,1,00,1","0840,9","09,9","999,+0150,9","999,N,+0145,1","99999,9,09077,1","3,1,004,1,+999,9","3,1561,9",,"SYN094AAXX  17064 08213 12962 02802 10162 20109 39077 48561 53004 60002 333 20145 31015 55140 70000;","Q01  00002PRCP24Q02  00002PRCP12"
"08213099999","2010-07-17T09:00:00","4","40.95","-4.1333333","1005.0","SEGOVIA, SP","FM-12","99999","V020","260,1,N,0021,1","22000,1,9,N","012000,1,N,1","+0225,1","+0109,1","99999,9",,,,,,,"02,99,1,01,1,00,1,01750,1,04,1,01,1",,,,,"99999,9,09080,1","1,1,003,1,+999,9","3,1576,9",,"SYN066AAXX  17094 08213 42762 22604 10225 20109 39080 48576 51003 81041;",
"08213099999","2010-07-17T12:00:00","4","40.95","-4.1333333","1005.0","SEGOVIA, SP","FM-12","99999","V020","110,1,N,0031,1","22000,1,9,N","012000,1,N,1","+0282,1","+0095,1","99999,9","06,0000,9,1",,,,,,"02,99,1,01,1,01,1,00800,1,00,1,08,1",,,,,"99999,9,09080,1","4,1,000,1,+999,9","3,1586,9",,"SYN082AAXX  17124 08213 12562 21106 10282 20095 39080 48586 54000 60001 81108 333 50720;","Q01  00002PRCP06"
"08213099999","2010-07-17T15:00:00","4","40.95","-4.1333333","1005.0","SEGOVIA, SP","FM-12","99999","V020","260,1,N,0041,1","22000,1,9,N","015000,1,N,1","+0308,1","+0112,1","99999,9",,,,,,,"02,99,1,01,1,01,1,00800,1,00,1,08,1",,,,,"99999,9,09071,1","7,1,009,1,+999,9","3,1583,9",,"SYN066AAXX  17154 08213 42565 22608 10308 20112 39071 48583 57009 81108;",
"08213099999","2010-07-17T18:00:00","4","40.95","-4.1333333","1005.0","SEGOVIA, SP","FM-12","99999","V020","040,1,N,0051,1","22000,1,9,N","020000,1,N,1","+0290,1","+0102,1","99999,9","12,0000,9,1",,,,,,"02,99,1,01,1,01,1,00800,1,00,1,08,1",,,,"999,M,+0323,1","99999,9,09064,1","6,1,007,1,+999,9","3,1573,9",,"SYN082AAXX  17184 08213 12570 20410 10290 20102 39064 48573 56007 60002 81108 333 10323;","Q01  00002PRCP12"
"08213099999","2010-07-18T06:00:00","4","40.95","-4.1333333","1005.0","SEGOVIA, SP","FM-12","99999","V020","070,1,N,0015,1","22000,1,9,N","012000,1,N,1","+0176,1","+0100,1","99999,9","12,0000,9,1","24,0000,9,1",,,,"00,1,+99999,9,99,9","00,99,1,00,1,00,1,99999,9,00,1,00,1","0828,9","09,9","999,+0080,9","999,N,+0140,1","99999,9,09084,1","6,1,002,1,+999,9","3,1570,9",,"SYN094AAXX  18064 08213 12962 00703 10176 20100 39084 48570 56002 60002 333 20140 31008 55138 70000;","Q01  00002PRCP24Q02  00002PRCP12"
"08213099999","2010-07-18T09:00:00","4","40.95","-4.1333333","1005.0","SEGOVIA, SP","FM-12","99999","V020","010,1,N,0021,1","22000,1,9,N","012000,1,N,1","+0254,1","+0116,1","99999,9",,,,,,"00,1,+99999,9,99,9","00,99,1,00,1,00,1,99999,9,00,1,00,1",,,,,"99999,9,09084,1","4,1,000,1,+999,9","3,1585,9",,"SYN060AAXX  18094 08213 42962 00104 10254 20116 39084 48585 54000;",
"08213099999","2010-07-18T15:00:00","4","40.95","-4.1333333","1005.0","SEGOVIA, SP","FM-12","99999","V020","240,1,N,0026,1","22000,1,9,N","015000,1,N,1","+0344,1","+0109,1","99999,9",,,,,,,"02,99,1,02,1,02,1,00800,1,00,1,00,1",,,,,"99999,9,09062,1","7,1,015,1,+999,9","3,1581,9",,"SYN066AAXX  18154 08213 42565 22405 10344 20109 39062 48581 57015 82200;",
"08213099999","2010-07-18T18:00:00","4","40.95","-4.1333333","1005.0","SEGOVIA, SP","FM-12","99999","V020","310,1,N,0051,1","22000,1,9,N","015000,1,N,1","+0324,1","+0092,1","99999,9","12,0000,9,1",,,,,,"03,99,1,02,1,04,1,00800,1,00,1,01,1",,,,"999,M,+0350,1","99999,9,09058,1","6,1,004,1,+999,9","3,1573,9",,"SYN082AAXX  18184 08213 12565 33110 10324 20092 39058 48573 56004 60002 82401 333 10350;","Q01  00002PRCP12"
"08213099999","2010-07-19T06:00:00","4","40.95","-4.1333333","1005.0","SEGOVIA, SP","FM-12","99999","V020","080,1,N,0015,1","22000,1,9,N","018000,1,N,1","+0194,1","+0090,1","99999,9","12,0000,9,1","24,0000,9,1",,,,,"01,99,1,01,1,00,1,01750,1,03,1,00,1","0774,9","01,9","999,+0080,9","999,N,+0140,1","99999,9,09069,1","2,1,005,1,+999,9","3,1559,9",,"SYN100AAXX  19064 08213 12768 10803 10194 20090 39069 48559 52005 60002 81030 333 20140 30008 55129 70000;","Q01  00002PRCP24Q02  00002PRCP12"
"08213099999","2010-07-19T09:00:00","4","40.95","-4.1333333","1005.0","SEGOVIA, SP","FM-12","99999","V020","310,1,N,0015,1","22000,1,9,N","020000,1,N,1","+0254,1","+0101,1","99999,9",,,,,,"00,1,+99999,9,99,9","00,99,1,00,1,00,1,99999,9,00,1,00,1",,,,,"99999,9,09069,1","0,1,000,1,+999,9","3,1571,9",,"SYN060AAXX  19094 08213 42970 03103 10254 20101 39069 48571 50000;",
"08213099999","2010-07-19T12:00:00","4","40.95","-4.1333333","1005.0","SEGOVIA, SP","FM-12","99999","V020","330,1,N,0026,1","22000,1,9,N","018000,1,N,1","+0320,1","+0062,1","99999,9","06,0000,9,1",,,,,,"01,99,1,01,1,05,1,00800,1,00,1,00,1",,,,,"99999,9,09061,1","7,1,008,1,+999,9","3,1575,9",,"SYN082AAXX  19124 08213 12568 13305 10320 20062 39061 48575 57008 60001 81500 333 50990;","Q01  00002PRCP06"
"08213099999","2010-07-19T15:00:00","4","40.95","-4.1333333","1005.0","SEGOVIA, SP","FM-12","99999","V020","300,1,N,0021,1","22000,1,9,N","018000,1,N,1","+0338,1","+0054,1","99999,9",,,,,,,"02,99,1,02,1,02,1,00800,1,00,1,00,1",,,,,"99999,9,09044,1","7,1,017,1,+999,9","3,1561,9",,"SYN066AAXX  19154 08213 42568 23004 10338 20054 39044 48561 57017 82200;",
"08213099999","2010-07-19T18:00:00","4","40.95","-4.1333333","1005.0","SEGOVIA, SP","FM-12","99999","V020","280,1,N,0010,1","22000,1,9,N","018000,1,N,1","+0330,1","+0085,1","99999,9","12,0000,9,1",,,,,,"02,99,1,02,1,05,1,00800,1,00,1,00,1",,,,"999,M,+0350,1","99999,9,09032,1","7,1,012,1,+999,9","3,1548,9",,"SYN082AAXX  19184 08213 12568 22802 10330 20085 39032 48548 57012 60002 82500 333 10350;","Q01  00002PRCP12"
"08213099999","2010-07-20T06:00:00","4","40.95","-4.1333333","1005.0","SEGOVIA, SP","FM-12","99999","V020","170,1,N,0015,1","22000,1,9,N","015000,1,N,1","+0198,1","+0118,1","99999,9","12,0000,9,1","24,0000,9,1",,,,"00,1,+99999,9,99,9","00,99,1,00,1,00,1,99999,9,00,1,00,1","0816,9","01,9","999,+0090,9","999,N,+0139,1","99999,9,09027,1","7,1,005,1,+999,9","3,1521,9",,"SYN094AAXX  20064 08213 12965 01703 10198 20118 39027 48521 57005 60002 333 20139 30009 55136 70000;","Q01  00002PRCP24Q02  00002PRCP12"
"08213099999","2010-07-20T09:00:00","4","40.95","-4.1333333","1005.0","SEGOVIA, SP","FM-12","99999","V020","280,1,N,0021,1","22000,1,9,N","012000,1,N,1","+0212,1","+0071,1","99999,9",,,,,,"00,1,+99999,9,99,9","00,99,1,00,1,00,1,99999,9,00,1,00,1",,,,,"99999,9,09024,1","7,1,003,1,+999,9","3,1520,9",,"SYN060AAXX  20094 08213 42962 02804 10212 20071 39024 48520 57003;",
"08213099999","2010-07-20T12:00:00","4","40.95","-4.1333333","1005.0","SEGOVIA, SP","FM-12","99999","V020","290,1,N,0031,1","22000,1,9,N","018000,1,N,1","+0304,1","+0128,1","99999,9","06,0000,9,1",,,,,,"01,99,1,01,1,05,1,00800,1,00,1,00,1",,,,,"99999,9,09005,1","7,1,019,1,+999,9","3,1518,9",,"SYN082AAXX  20124 08213 12568 12906 10304 20128 39005 48518 57019 60001 81500 333 50920;","Q01  00002PRCP06"
"08213099999","2010-07-20T15:00:00","4","40.95","-4.1333333","1005.0","SEGOVIA, SP","FM-12","99999","V020","190,1,N,0036,1","22000,1,9,N","018000,1,N,1","+0334,1","+0042,1","99999,9",,,,,,,"02,99,1,02,1,05,1,00800,1,00,1,00,1",,,,,"99999,9,08990,1","7,1,015,1,+999,9","3,1507,9",,"SYN066AAXX  20154 08213 42568 21907 10334 20042 38990 48507 57015 82500;",
"08213099999","2010-07-20T18:00:00","4","40.95","-4.1333333","1005.0","SEGOVIA, SP","FM-12","99999","V020","290,1,N,0051,1","22000,1,9,N","018000,1,N,1","+0304,1","+0093,1","99999,9","12,0000,9,1",,,,,"01,1,+00600,1,09,1","03,99,1,02,1,03,1,00800,1,06,1,00,1",,,,"120,M,+0343,1","99999,9,08983,1","7,1,007,1,+999,9","3,1496,9",,"SYN088AAXX  20184 08213 12568 32910 10304 20093 38983 48496 57007 60002 82360 333 10343 81920;","Q01  00002PRCP12"
"08213099999","2010-07-21T06:00:00","4","40.95","-4.1333333","1005.0","SEGOVIA, SP","FM-12","99999","V020","290,1,N,0010,1","22000,1,9,N","015000,1,N,1","+0168,1","+0115,1","99999,9","12,0000,9,1","24,0000,9,1",,,,,"03,99,1,02,1,00,1,01750,1,08,1,09,1","0720,9","01,9","999,+0100,9","999,N,+0161,1","99999,9,08988,1","6,1,004,1,+999,9","3,1479,9",,"SYN100AAXX  21064 08213 12765 32902 10168 20115 38988 48479 56004 60002 82089 333 20161 30010 55120 70000;","Q01  00002PRCP24Q02  00002PRCP12"
"08213099999","2010-07-21T09:00:00","4","40.95","-4.1333333","1005.0","SEGOVIA, SP","FM-12","99999","V020","220,1,N,0031,1","22000,1,9,N","015000,1,N,1","+0210,1","+0122,1","99999,9",,,,,,,"02,99,1,01,1,00,1,01750,1,04,1,09,1",,,,,"99999,9,08989,1","0,1,001,1,+999,9","3,1487,9",,"SYN066AAXX  21094 08213 42765 22206 10210 20122 38989 48487 50001 81049;",
"08213099999","2010-07-21T12:00:00","4","40.95","-4.1333333","1005.0","SEGOVIA, SP","FM-12","99999","V020","270,1,N,0026,1","22000,1,9,N","012000,1,N,1","+0256,1","+0121,1","99999,9","06,0000,9,1",,,,,,"05,99,1,01,1,08,1,00800,1,04,1,09,1",,,,,"99999,9,08986,1","8,1,003,1,+999,9","3,1492,9",,"SYN082AAXX  21124 08213 12562 52705 10256 20121 38986 48492 58003 60001 81849 333 50930;","Q01  00002PRCP06"
"08213099999","2010-07-21T15:00:00","4","40.95","-4.1333333","1005.0","SEGOVIA, SP","FM-12","99999","V020","290,1,N,0026,1","03600,1,9,N","015000,1,N,1","+0270,1","+0069,1","99999,9",,,,,,"01,1,+00600,1,09,1","06,99,1,04,1,03,1,00800,1,07,1,08,1",,,,,"99999,9,08984,1","8,1,002,1,+999,9","3,1491,9",,"SYN076AAXX  21154 08213 42565 62905 10270 20069 38984 48491 58002 84378 333 81920;",
"08213099999","2010-07-21T18:00:00","4","40.95","-4.1333333","1005.0","SEGOVIA, SP","FM-12","99999","V020","300,1,N,0026,1","03600,1,9,N","015000,1,N,1","+0256,1","+0086,1","99999,9","12,0000,9,1",,,,,"01,1,+00600,1,09,1","07,99,1,04,1,03,1,00800,1,03,1,08,1",,,,"120,M,+0280,1","99999,9,08980,1","6,1,004,1,+999,9","3,1485,9",,"SYN088AAXX  21184 08213 12565 73005 10256 20086 38980 48485 56004 60002 84338 333 10280 81920;","Q01  00002PRCP12"
"08213099999","2010-07-22T06:00:00","4","40.95","-4.1333333","1005.0","SEGOVIA, SP","FM-12","99999","V020","130,1,N,0010,1","22000,1,9,N","012000,1,N,1","+0154,1","+0116,1","99999,9","12,0000,9,1","24,0000,9,1",,,,,"05,99,1,02,1,04,1,00800,1,08,1,09,1","0558,9","01,9","999,+0110,9","999,N,+0150,1","99999,9,09002,1","3,1,005,1,+999,9","3,1490,9",,"SYN100AAXX  22064 08213 12562 51302 10154 20116 39002 48490 53005 60002 82489 333 20150 30011 55093 70000;","Q01  00002PRCP24Q02  00002PRCP12"
"08213099999","2010-07-22T09:00:00","4","40.95","-4.1333333","1005.0","SEGOVIA, SP","FM-12","99999","V020","300,1,N,0031,1","22000,1,9,N","010000,1,N,1","+0198,1","+0123,1","99999,9",,,,,,,"03,99,1,01,1,04,1,00800,1,08,1,09,1",,,,,"99999,9,09008,1","1,1,006,1,+999,9","3,1503,9",,"SYN066AAXX  22094 08213 42560 33006 10198 20123 39008 48503 51006 81489;",
"08213099999","2010-07-22T12:00:00","4","40.95","-4.1333333","1005.0","SEGOVIA, SP","FM-12","99999","V020","020,1,N,0015,1","22000,1,9,N","012000,1,N,1","+0242,1","+0119,1","99999,9","06,0000,9,1",,,,,,"04,99,1,01,1,02,1,00800,1,00,1,01,1",,,,,"99999,9,09011,1","1,1,003,1,+999,9","3,1513,9",,"SYN082AAXX  22124 08213 12562 40203 10242 20119 39011 48513 51003 60001 81201 333 50590;","Q01  00002PRCP06"
"08213099999","2010-07-22T15:00:00","4","40.95","-4.1333333","1005.0","SEGOVIA, SP","FM-12","99999","V020","030,1,N,0026,1","03600,1,9,N","012000,1,N,1","+0264,1","+0097,1","99999,9",,,,,,"01,1,+00600,1,09,1","06,99,1,03,1,03,1,00800,1,04,1,01,1",,,,,"99999,9,09004,1","6,1,007,1,+999,9","3,1510,9",,"SYN076AAXX  22154 08213 42562 60305 10264 20097 39004 48510 56007 83341 333 81920;",
"08213099999","2010-07-22T18:00:00","4","40.95","-4.1333333","1005.0","SEGOVIA, SP","FM-12","99999","V020","020,1,N,0051,1","03600,1,9,N","015000,1,N,1","+0244,1","+0107,1","99999,9","12,0000,9,1",,,,,"01,1,+00600,1,09,1","06,99,1,04,1,03,1,00800,1,04,1,01,1",,,,"120,M,+0282,1","99999,9,09011,1","3,1,007,1,+999,9","3,1513,9",,"SYN088AAXX  22184 08213 12565 60210 10244 20107 39011 48513 53007 60002 84341 333 10282 81920;","Q01  00002PRCP12"
"08213099999","2010-07-23T06:00:00","4","40.95","-4.1333333","1005.0","SEGOVIA, SP","FM-12","99999","V020","190,1,N,0021,1","22000,1,9,N","012000,1,N,1","+0112,1","+0093,1","99999,9","12,0000,9,1","24,0000,9,1",,,,"00,1,+99999,9,99,9","00,99,1,00,1,00,1,99999,9,00,1,00,1","0564,9","09,9","999,+0060,9","999,N,+0100,1","99999,9,09071,1","1,1,014,1,+999,9","3,1545,9",,"SYN094AAXX  23064 08213 12962 01904 10112 20093 39071 48545 51014 60002 333 20100 31006 55094 70000;","Q01  00002PRCP24Q02  00002PRCP12"
"08213099999","2010-07-23T09:00:00","4","40.95","-4.1333333","1005.0","SEGOVIA, SP","FM-12","99999","V020","010,1,N,0015,1","22000,1,9,N","012000,1,N,1","+0176,1","+0109,1","99999,9",,,,,,"00,1,+99999,9,99,9","00,99,1,00,1,00,1,99999,9,00,1,00,1",,,,,"99999,9,09080,1","1,1,009,1,+999,9","3,1566,9",,"SYN060AAXX  23094 08213 42962 00103 10176 20109 39080 48566 51009;",
"08213099999","2010-07-23T12:00:00","4","40.95","-4.1333333","1005.0","SEGOVIA, SP","FM-12","99999","V020","040,1,N,0015,1","22000,1,9,N","015000,1,N,1","+0246,1","+0077,1","99999,9","06,0000,9,1",,,,,,"01,99,1,01,1,01,1,00800,1,00,1,00,1",,,,,"99999,9,09084,1","1,1,004,1,+999,9","3,1583,9",,"SYN082AAXX  23124 08213 12565 10403 10246 20077 39084 48583 51004 60001 81100 333 50620;","Q01  00002PRCP06"
"08213099999","2010-07-23T15:00:00","4","40.95","-4.1333333","1005.0","SEGOVIA, SP","FM-12","99999","V020","120,1,N,0026,1","22000,1,9,N","020000,1,N,1","+0276,1","+0052,1","99999,9",,,,,,,"01,99,1,01,1,01,1,00800,1,00,1,00,1",,,,,"99999,9,09080,1","8,1,004,1,+999,9","3,1585,9",,"SYN066AAXX  23154 08213 42570 11205 10276 20052 39080 48585 58004 81100;",
"08213099999","2010-07-23T18:00:00","4","40.95","-4.1333333","1005.0","SEGOVIA, SP","FM-12","99999","V020","010,1,N,0062,1","22000,1,9,N","020000,1,N,1","+0260,1","+0045,1","99999,9","12,0000,9,1",,,,,,"01,99,1,01,1,04,1,00800,1,00,1,00,1",,,,"999,M,+0287,1","99999,9,09080,1","4,1,000,1,+999,9","3,1581,9",,"SYN082AAXX  23184 08213 12570 10112 10260 20045 39080 48581 54000 60002 81400 333 10287;","Q01  00002PRCP12"
"08213099999","2010-07-24T06:00:00","4","40.95","-4.1333333","1005.0","SEGOVIA, SP","FM-12","99999","V020","080,1,N,0010,1","22000,1,9,N","018000,1,N,1","+0142,1","+0063,1","99999,9","12,0000,9,1","24,0000,9,1",,,,"00,1,+99999,9,99,9","00,99,1,00,1,00,1,99999,9,00,1,00,1","0864,9","01,9","999,+0010,9","999,N,+0115,1","99999,9,09104,1","5,1,000,1,+999,9","3,1581,9",,"SYN094AAXX  24064 08213 12968 00802 10142 20063 39104 48581 55000 60002 333 20115 30001 55144 70000;","Q01  00002PRCP24Q02  00002PRCP12"
"08213099999","2010-07-24T09:00:00","4","40.95","-4.1333333","1005.0","SEGOVIA, SP","FM-12","99999","V020","330,1,N,0015,1","22000,1,9,N","020000,1,N,1","+0230,1","+0054,1","99999,9",,,,,,"00,1,+99999,9,99,9","00,99,1,00,1,00,1,99999,9,00,1,00,1",,,,,"99999,9,09104,1","4,1,000,1,+999,9","3,1598,9",,"SYN060AAXX  24094 08213 42970 03303 10230 20054 39104 48598 54000;",
"08213099999","2010-07-24T12:00:00","4","40.95","-4.1333333","1005.0","SEGOVIA, SP","FM-12","99999","V020","010,1,N,0036,1","22000,1,9,N","020000,1,N,1","+0268,1","+0040,1","99999,9","06,0000,9,1",,,,,"00,1,+99999,9,99,9","00,99,1,00,1,00,1,99999,9,00,1,00,1",,,,,"99999,9,09097,1","7,1,007,1,+999,9","3,1599,9",,"SYN076AAXX  24124 08213 12970 00107 10268 20040 39097 48599 57007 60001 333 50560;","Q01  00002PRCP06"
"08213099999","2010-07-24T15:00:00","4","40.95","-4.1333333","1005.0","SEGOVIA, SP","FM-12","99999","V020","270,1,N,0057,1","22000,1,9,N","020000,1,N,1","+0294,1","+0001,1","99999,9",,,,,,,"02,99,1,01,1,05,1,00800,1,00,1,01,1",,,,,"99999,9,09081,1","7,1,016,1,+999,9","3,1588,9",,"SYN066AAXX  24154 08213 42570 22711 10294 20001 39081 48588 57016 81501;",
"08213099999","2010-07-24T18:00:00","4","40.95","-4.1333333","1005.0","SEGOVIA, SP","FM-12","99999","V020","360,1,N,0031,1","22000,1,9,N","020000,1,N,1","+0274,1","+0010,1","99999,9","12,0000,9,1",,,,,,"01,99,1,00,1,00,1,99999,9,00,1,01,1",,,,"999,M,+0303,1","99999,9,09077,1","6,1,004,1,+999,9","3,1581,9",,"SYN082AAXX  24184 08213 12970 13606 10274 20010 39077 48581 56004 60002 80001 333 10303;","Q01  00002PRCP12"
"08213099999","2010-07-25T06:00:00","4","40.95","-4.1333333","1005.0","SEGOVIA, SP","FM-12","99999","V020","130,1,N,0010,1","22000,1,9,N","020000,1,N,1","+0150,1","+0035,1","99999,9","12,0000,9,1","24,0000,9,1",,,,"00,1,+99999,9,99,9","00,99,1,00,1,00,1,99999,9,00,1,00,1","0834,9","01,9","999,+0080,9","999,N,+0130,1","99999,9,09075,1","4,1,000,1,+999,9","3,1555,9",,"SYN094AAXX  25064 08213 12970 01302 10150 20035 39075 48555 54000 60002 333 20130 30008 55139 70000;","Q01  00002PRCP24Q02  00002PRCP12"
"08213099999","2010-07-25T09:00:00","4","40.95","-4.1333333","1005.0","SEGOVIA, SP","FM-12","99999","V020","320,1,N,0021,1","22000,1,9,N","020000,1,N,1","+0218,1","+0057,1","99999,9",,,,,,"00,1,+99999,9,99,9","00,99,1,00,1,00,1,99999,9,00,1,00,1",,,,,"99999,9,09075,1","0,1,000,1,+999,9","3,1569,9",,"SYN060AAXX  25094 08213 42970 03204 10218 20057 39075 48569 50000;",
"08213099999","2010-07-25T12:00:00","4","40.95","-4.1333333","1005.0","SEGOVIA, SP","FM-12","99999","V020","340,1,N,0021,1","22000,1,9,N","020000,1,N,1","+0266,1","+0061,1","99999,9","06,0000,9,1",,,,,"00,1,+99999,9,99,9","00,99,1,00,1,00,1,99999,9,00,1,00,1",,,,,"99999,9,09071,1","7,1,004,1,+999,9","3,1574,9",,"SYN076AAXX  25124 08213 12970 03404 10266 20061 39071 48574 57004 60001 333 50850;","Q01  00002PRCP06"
"08213099999","2010-07-25T15:00:00","4","40.95","-4.1333333","1005.0","SEGOVIA, SP","FM-12","99999","V020","030,1,N,0031,1","22000,1,9,N","020000,1,N,1","+0284,1","+0059,1","99999,9",,,,,,"00,1,+99999,9,99,9","00,99,1,00,1,00,1,99999,9,00,1,00,1",,,,,"99999,9,09057,1","7,1,014,1,+999,9","3,1564,9",,"SYN060AAXX  25154 08213 42970 00306 10284 20059 39057 48564 57014;",
"08213099999","2010-07-25T18:00:00","4","40.95","-4.1333333","1005.0","SEGOVIA, SP","FM-12","99999","V020","010,1,N,0041,1","22000,1,9,N","020000,1,N,1","+0260,1","+0020,1","99999,9","12,0000,9,1",,,,,"00,1,+99999,9,99,9","00,99,1,00,1,00,1,99999,9,00,1,00,1",,,,"999,M,+0290,1","99999,9,09056,1","6,1,001,1,+999,9","3,1558,9",,"SYN076AAXX  25184 08213 12970 00108 10260 20020 39056 48558 56001 60002 333 10290;","Q01  00002PRCP12"
"08213099999","2010-07-26T06:00:00","4","40.95","-4.1333333","1005.0","SEGOVIA, SP","FM-12","99999","V020","170,1,N,0010,1","22000,1,9,N","012000,1,N,1","+0130,1","+0070,1","99999,9","12,0000,9,1","24,0000,9,1",,,,"00,1,+99999,9,99,9","00,99,1,00,1,00,1,99999,9,00,1,00,1","0828,9","09,9","999,+0050,9","999,N,+0110,1","99999,9,09056,1","7,1,004,1,+999,9","3,1535,9",,"SYN094AAXX  26064 08213 12962 01702 10130 20070 39056 48535 57004 60002 333 20110 31005 55138 70000;","Q01  00002PRCP24Q02  00002PRCP12"
"08213099999","2010-07-26T09:00:00","4","40.95","-4.1333333","1005.0","SEGOVIA, SP","FM-12","99999","V020","350,1,N,0021,1","22000,1,9,N","012000,1,N,1","+0192,1","+0082,1","99999,9",,,,,,"00,1,+99999,9,99,9","00,99,1,00,1,00,1,99999,9,00,1,00,1",,,,,"99999,9,09060,1","1,1,004,1,+999,9","3,1550,9",,"SYN060AAXX  26094 08213 42962 03504 10192 20082 39060 48550 51004;",
"08213099999","2010-07-26T12:00:00","4","40.95","-4.1333333","1005.0","SEGOVIA, SP","FM-12","99999","V020","070,1,N,0031,1","22000,1,9,N","015000,1,N,1","+0262,1","+0082,1","99999,9","06,0000,9,1",,,,,"00,1,+99999,9,99,9","00,99,1,00,1,00,1,99999,9,00,1,00,1",,,,,"99999,9,09054,1","8,1,006,1,+999,9","3,1557,9",,"SYN076AAXX  26124 08213 12965 00706 10262 20082 39054 48557 58006 60001 333 50650;","Q01  00002PRCP06"
"08213099999","2010-07-26T15:00:00","4","40.95","-4.1333333","1005.0","SEGOVIA, SP","FM-12","99999","V020","340,1,N,0026,1","22000,1,9,N","020000,1,N,1","+0299,1","+0065,1","99999,9",,,,,,"00,1,+99999,9,99,9","00,99,1,00,1,00,1,99999,9,00,1,00,1",,,,,"99999,9,09042,1","6,1,012,1,+999,9","3,1552,9",,"SYN060AAXX  26154 08213 42970 03405 10299 20065 39042 48552 56012;",
"08213099999","2010-07-26T18:00:00","4","40.95","-4.1333333","1005.0","SEGOVIA, SP","FM-12","99999","V020","030,1,N,0026,1","22000,1,9,N","020000,1,N,1","+0290,1","+0051,1","99999,9","12,0000,9,1",,,,,"00,1,+99999,9,99,9","00,99,1,00,1,00,1,99999,9,00,1,00,1",,,,"999,M,+0305,1","99999,9,09037,1","6,1,005,1,+999,9","3,1546,9",,"SYN076AAXX  26184 08213 12970 00305 10290 20051 39037 48546 56005 60002 333 10305;","Q01  00002PRCP12"
"08213099999","2010-07-27T06:00:00","4","40.95","-4.1333333","1005.0","SEGOVIA, SP","FM-12","99999","V020","110,1,N,0015,1","22000,1,9,N","015000,1,N,1","+0160,1","+0077,1","99999,9","12,0000,9,1","24,0000,9,1",,,,"00,1,+99999,9,99,9","00,99,1,00,1,00,1,99999,9,00,1,00,1","0828,9","09,9","999,+0060,9","999,N,+0142,1","99999,9,09054,1","3,1,001,1,+999,9","3,1539,9",,"SYN094AAXX  27064 08213 12965 01103 10160 20077 39054 48539 53001 60002 333 20142 31006 55138 70000;","Q01  00002PRCP24Q02  00002PRCP12"
"08213099999","2010-07-27T09:00:00","4","40.95","-4.1333333","1005.0","SEGOVIA, SP","FM-12","99999","V020","270,1,N,0010,1","22000,1,9,N","015000,1,N,1","+0236,1","+0092,1","99999,9",,,,,,"00,1,+99999,9,99,9","00,99,1,00,1,00,1,99999,9,00,1,00,1",,,,,"99999,9,09055,1","1,1,001,1,+999,9","3,1554,9",,"SYN060AAXX  27094 08213 42965 02702 10236 20092 39055 48554 51001;",
"08213099999","2010-07-27T12:00:00","4","40.95","-4.1333333","1005.0","SEGOVIA, SP","FM-12","99999","V020","340,1,N,0015,1","22000,1,9,N","015000,1,N,1","+0301,1","+0054,1","99999,9","06,0000,9,1",,,,,,"00,99,1,00,1,00,1,99999,9,00,1,00,1",,,,,"99999,9,09054,1","8,1,001,1,+999,9","3,1564,9",,"SYN076AAXX  27124 08213 12965 03403 10301 20054 39054 48564 58001 60001 333 80890;","Q01  00002PRCP06Q02    003SCCGA1"
"08213099999","2010-07-27T15:00:00","4","40.95","-4.1333333","1005.0","SEGOVIA, SP","FM-12","99999","V020","040,1,N,0026,1","22000,1,9,N","020000,1,N,1","+0324,1","+0058,1","99999,9",,,,,,,"01,99,1,01,1,01,1,00800,1,00,1,00,1",,,,,"99999,9,09044,1","8,1,010,1,+999,9","3,1559,9",,"SYN066AAXX  27154 08213 42570 10405 10324 20058 39044 48559 58010 81100;",
"08213099999","2010-07-27T18:00:00","4","40.95","-4.1333333","1005.0","SEGOVIA, SP","FM-12","99999","V020","300,1,N,0021,1","22000,1,9,N","020000,1,N,1","+0314,1","+0042,1","99999,9","12,0000,9,1",,,,,"00,1,+99999,9,99,9","00,99,1,00,1,00,1,99999,9,00,1,00,1",,,,"999,M,+0332,1","99999,9,09046,1","3,1,002,1,+999,9","3,1559,9",,"SYN076AAXX  27184 08213 12970 03004 10314 20042 39046 48559 53002 60002 333 10332;","Q01  00002PRCP12"
"08213099999","2010-07-28T06:00:00","4","40.95","-4.1333333","1005.0","SEGOVIA, SP","FM-12","99999","V020","070,1,N,0010,1","22000,1,9,N","015000,1,N,1","+0192,1","+0082,1","99999,9","12,0000,9,1","24,0000,9,1",,,,"00,1,+99999,9,99,9","00,99,1,00,1,00,1,99999,9,00,1,00,1","0822,9","01,9","999,+0090,9","999,N,+0174,1","99999,9,09070,1","2,1,005,1,+999,9","3,1560,9",,"SYN094AAXX  28064 08213 12965 00702 10192 20082 39070 48560 52005 60002 333 20174 30009 55137 70000;","Q01  00002PRCP24Q02  00002PRCP12"
"08213099999","2010-07-28T09:00:00","4","40.95","-4.1333333","1005.0","SEGOVIA, SP","FM-12","99999","V020","290,1,N,0021,1","22000,1,9,N","015000,1,N,1","+0272,1","+0076,1","99999,9",,,,,,"00,1,+99999,9,99,9","00,99,1,00,1,00,1,99999,9,00,1,00,1",,,,,"99999,9,09075,1","2,1,005,1,+999,9","3,1579,9",,"SYN060AAXX  28094 08213 42965 02904 10272 20076 39075 48579 52005;",
"08213099999","2010-07-28T12:00:00","4","40.95","-4.1333333","1005.0","SEGOVIA, SP","FM-12","99999","V020","310,1,N,0031,1","22000,1,9,N","020000,1,N,1","+0318,1","+0020,1","99999,9","06,0000,9,1",,,,,,"01,99,1,00,1,00,1,99999,9,00,1,01,1",,,,,"99999,9,09069,1","8,1,006,1,+999,9","3,1582,9",,"SYN082AAXX  28124 08213 12970 13106 10318 20020 39069 48582 58006 60001 80001 333 50730;","Q01  00002PRCP06"
"08213099999","2010-07-28T15:00:00","4","40.95","-4.1333333","1005.0","SEGOVIA, SP","FM-12","99999","V020","300,1,N,0010,1","22000,1,9,N","015000,1,N,1","+0326,1","+0026,1","99999,9",,,,,,,"01,99,1,01,1,01,1,00800,1,00,1,01,1",,,,,"99999,9,09060,1","8,1,009,1,+999,9","3,1574,9",,"SYN066AAXX  28154 08213 42565 13002 10326 20026 39060 48574 58009 81101;",
"08213099999","2010-07-28T18:00:00","4","40.95","-4.1333333","1005.0","SEGOVIA, SP","FM-12","99999","V020","330,1,N,0031,1","22000,1,9,N","020000,1,N,1","+0319,1","+0054,1","99999,9","12,0000,9,1",,,,,"00,1,+99999,9,99,9","00,99,1,00,1,00,1,99999,9,00,1,00,1",,,,"999,M,+0338,1","99999,9,09051,1","6,1,009,1,+999,9","3,1565,9",,"SYN076AAXX  28184 08213 12970 03306 10319 20054 39051 48565 56009 60002 333 10338;","Q01  00002PRCP12"
"08213099999","2010-07-29T06:00:00","4","40.95","-4.1333333","1005.0","SEGOVIA, SP","FM-12","99999","V020","210,1,N,0015,1","22000,1,9,N","020000,1,N,1","+0206,1","+0062,1","99999,9","12,0000,9,1","24,0000,9,1",,,,,"03,99,1,03,1,00,1,01750,1,05,1,00,1","0822,9","01,9","999,+0080,9","999,N,+0183,1","99999,9,09041,1","7,1,003,1,+999,9","3,1535,9",,"SYN100AAXX  29064 08213 12770 32103 10206 20062 39041 48535 57003 60002 83050 333 20183 30008 55137 70000;","Q01  00002PRCP24Q02  00002PRCP12"
"08213099999","2010-07-29T09:00:00","4","40.95","-4.1333333","1005.0","SEGOVIA, SP","FM-12","99999","V020","300,1,N,0015,1","22000,1,9,N","020000,1,N,1","+0232,1","+0081,1","99999,9",,,,,,,"03,99,1,01,1,00,1,01750,1,05,1,01,1",,,,,"99999,9,09046,1","1,1,005,1,+999,9","3,1544,9",,"SYN066AAXX  29094 08213 42770 33003 10232 20081 39046 48544 51005 81051;",
"08213099999","2010-07-29T12:00:00","4","40.95","-4.1333333","1005.0","SEGOVIA, SP","FM-12","99999","V020","350,1,N,0026,1","22000,1,9,N","020000,1,N,1","+0286,1","+0103,1","99999,9","06,0000,9,1",,,,,"00,1,+99999,9,99,9","00,99,1,00,1,00,1,99999,9,00,1,00,1",,,,,"99999,9,09042,1","8,1,004,1,+999,9","3,1551,9",,"SYN076AAXX  29124 08213 12970 03505 10286 20103 39042 48551 58004 60001 333 50610;","Q01  00002PRCP06"
"08213099999","2010-07-29T15:00:00","4","40.95","-4.1333333","1005.0","SEGOVIA, SP","FM-12","99999","V020","330,1,N,0051,1","22000,1,9,N","020000,1,N,1","+0305,1","+0043,1","99999,9",,,,,,,"02,99,1,00,1,00,1,99999,9,00,1,01,1",,,,,"99999,9,09035,1","7,1,007,1,+999,9","3,1546,9",,"SYN066AAXX  29154 08213 42970 23310 10305 20043 39035 48546 57007 80001;",
"08213099999","2010-07-29T18:00:00","4","40.95","-4.1333333","1005.0","SEGOVIA, SP","FM-12","99999","V020","040,1,N,0036,1","22000,1,9,N","018000,1,N,1","+0275,1","+0068,1","99999,9","12,0000,9,1",,,,,,"01,99,1,00,1,00,1,99999,9,00,1,01,1",,,,"999,M,+0313,1","99999,9,09032,1","7,1,003,1,+999,9","3,1538,9",,"SYN082AAXX  29184 08213 12968 10407 10275 20068 39032 48538 57003 60002 80001 333 10313;","Q01  00002PRCP12"
"08213099999","2010-07-30T06:00:00","4","40.95","-4.1333333","1005.0","SEGOVIA, SP","FM-12","99999","V020","190,1,N,0015,1","22000,1,9,N","018000,1,N,1","+0140,1","+0108,1","99999,9","12,0000,9,1","24,0000,9,1",,,,"00,1,+99999,9,99,9","00,99,1,00,1,00,1,99999,9,00,1,00,1","0816,9","01,9","999,+0030,9","999,N,+0124,1","99999,9,09041,1","4,1,000,1,+999,9","3,1523,9",,"SYN094AAXX  30064 08213 12968 01903 10140 20108 39041 48523 54000 60002 333 20124 30003 55136 70000;","Q01  00002PRCP24Q02  00002PRCP12"
"08213099999","2010-07-30T09:00:00","4","40.95","-4.1333333","1005.0","SEGOVIA, SP","FM-12","99999","V020","300,1,N,0015,1","22000,1,9,N","020000,1,N,1","+0260,1","+0071,1","99999,9",,,,,,"00,1,+99999,9,99,9","00,99,1,00,1,00,1,99999,9,00,1,00,1",,,,,"99999,9,09040,1","8,1,001,1,+999,9","3,1543,9",,"SYN060AAXX  30094 08213 42970 03003 10260 20071 39040 48543 58001;",
"08213099999","2010-07-30T12:00:00","4","40.95","-4.1333333","1005.0","SEGOVIA, SP","FM-12","99999","V020","310,1,N,0036,1","22000,1,9,N","020000,1,N,1","+0268,1","+0062,1","99999,9","06,0000,9,1",,,,,"00,1,+99999,9,99,9","00,99,1,00,1,00,1,99999,9,00,1,00,1",,,,,"99999,9,09033,1","7,1,007,1,+999,9","3,1538,9",,"SYN076AAXX  30124 08213 12970 03107 10268 20062 39033 48538 57007 60001 333 50790;","Q01  00002PRCP06"
"08213099999","2010-07-30T15:00:00","4","40.95","-4.1333333","1005.0","SEGOVIA, SP","FM-12","99999","V020","300,1,N,0031,1","22000,1,9,N","020000,1,N,1","+0296,1","+0056,1","99999,9",,,,,,"00,1,+99999,9,99,9","00,99,1,00,1,00,1,99999,9,00,1,00,1",,,,,"99999,9,09027,1","7,1,006,1,+999,9","3,1537,9",,"SYN060AAXX  30154 08213 42970 03006 10296 20056 39027 48537 57006;",
"08213099999","2010-07-30T18:00:00","4","40.95","-4.1333333","1005.0","SEGOVIA, SP","FM-12","99999","V020","020,1,N,0021,1","22000,1,9,N","020000,1,N,1","+0302,1","+0055,1","99999,9","12,0000,9,1",,,,,"00,1,+99999,9,99,9","00,99,1,00,1,00,1,99999,9,00,1,00,1",,,,"999,M,+0314,1","99999,9,09021,1","6,1,006,1,+999,9","3,1532,9",,"SYN076AAXX  30184 08213 12970 00204 10302 20055 39021 48532 56006 60002 333 10314;","Q01  00002PRCP12"
"08213099999","2010-07-31T06:00:00","4","40.95","-4.1333333","1005.0","SEGOVIA, SP","FM-12","99999","V020","080,1,N,0021,1","22000,1,9,N","020000,1,N,1","+0191,1","+0062,1","99999,9","12,0000,9,1","24,0000,9,1",,,,"00,1,+99999,9,99,9","00,99,1,00,1,00,1,99999,9,00,1,00,1","0822,9","01,9","999,+0060,9","999,N,+0175,1","99999,9,09028,1","5,1,000,1,+999,9","3,1520,9",,"SYN094AAXX  31064 08213 12970 00804 10191 20062 39028 48520 55000 60002 333 20175 30006 55137 70000;","Q01  00002PRCP24Q02  00002PRCP12"
"08213099999","2010-07-31T09:00:00","4","40.95","-4.1333333","1005.0","SEGOVIA, SP","FM-12","99999","V020","320,1,N,0026,1","22000,1,9,N","020000,1,N,1","+0284,1","+0071,1","99999,9",,,,,,"00,1,+99999,9,99,9","00,99,1,00,1,00,1,99999,9,00,1,00,1",,,,,"99999,9,09030,1","1,1,002,1,+999,9","3,1538,9",,"SYN060AAXX  31094 08213 42970 03205 10284 20071 39030 48538 51002;",
"08213099999","2010-07-31T12:00:00","4","40.95","-4.1333333","1005.0","SEGOVIA, SP","FM-12","99999","V020","310,1,N,0021,1","22000,1,9,N","020000,1,N,1","+0322,1","+0078,1","99999,9","06,0000,9,1",,,,,,"01,99,1,01,1,01,1,00800,1,00,1,00,1",,,,,"99999,9,09028,1","8,1,002,1,+999,9","3,1543,9",,"SYN082AAXX  31124 08213 12570 13104 10322 20078 39028 48543 58002 60001 81100 333 50720;","Q01  00002PRCP06"
"08213099999","2010-07-31T15:00:00","4","40.95","-4.1333333","1005.0","SEGOVIA, SP","FM-12","99999","V020","350,1,N,0021,1","22000,1,9,N","020000,1,N,1","+0344,1","+0082,1","99999,9",,,,,,,"01,99,1,01,1,05,1,00800,1,00,1,00,1",,,,,"99999,9,09018,1","7,1,010,1,+999,9","3,1537,9",,"SYN066AAXX  31154 08213 42570 13504 10344 20082 39018 48537 57010 81500;",
"08213099999","2010-07-31T18:00:00","4","40.95","-4.1333333","1005.0","SEGOVIA, SP","FM-12","99999","V020","190,1,N,0057,1","22000,1,9,N","020000,1,N,1","+0320,1","+0095,1","99999,9","12,0000,9,1",,,,,,"03,99,1,03,1,05,1,00800,1,00,1,00,1",,,,"999,M,+0359,1","99999,9,09015,1","7,1,003,1,+999,9","3,1530,9",,"SYN082AAXX  31184 08213 12570 31911 10320 20095 39015 48530 57003 60002 83500 333 10359;","Q01  00002PRCP12"
"08213099999","2010-08-01T06:00:00","4","40.95","-4.1333333","1005.0","SEGOVIA, SP","FM-12","99999","V020","080,1,N,0021,1","22000,1,9,N","020000,1,N,1","+0198,1","+0043,1","99999,9","12,0000,9,1","24,0000,9,1",,,,"00,1,+99999,9,99,9","00,99,1,00,1,00,1,99999,9,00,1,00,1","0696,9","01,9","999,+0060,9","999,N,+0198,1","99999,9,09025,1","4,1,000,1,+999,9","3,1518,9",,"SYN094AAXX  01064 08213 12970 00804 10198 20043 39025 48518 54000 60002 333 20198 30006 55116 70000;","Q01  00002PRCP24Q02  00002PRCP12"
"08213099999","2010-08-01T09:00:00","4","40.95","-4.1333333","1005.0","SEGOVIA, SP","FM-12","99999","V020","210,1,N,0067,1","22000,1,9,N","020000,1,N,1","+0290,1","+0038,1","99999,9",,,,,,"00,1,+99999,9,99,9","00,99,1,00,1,00,1,99999,9,00,1,00,1",,,,,"99999,9,09032,1","3,1,007,1,+999,9","3,1541,9",,"SYN060AAXX  01094 08213 42970 02113 10290 20038 39032 48541 53007;",
"08213099999","2010-08-01T12:00:00","4","40.95","-4.1333333","1005.0","SEGOVIA, SP","FM-12","99999","V020","200,1,N,0062,1","22000,1,9,N","020000,1,N,1","+0318,1","+0020,1","99999,9","06,0000,9,1",,,,,"00,1,+99999,9,99,9","00,99,1,00,1,00,1,99999,9,00,1,00,1",,,,,"99999,9,09032,1","0,1,000,1,+999,9","3,1545,9",,"SYN076AAXX  01124 08213 12970 02012 10318 20020 39032 48545 50000 60001 333 50840;","Q01  00002PRCP06"
"08213099999","2010-08-01T15:00:00","4","40.95","-4.1333333","1005.0","SEGOVIA, SP","FM-12","99999","V020","240,1,N,0041,1","22000,1,9,N","020000,1,N,1","+0329,1","+0046,1","99999,9",,,,,,,"02,99,1,01,1,02,1,00800,1,00,1,01,1",,,,,"99999,9,09021,1","8,1,011,1,+999,9","3,1537,9",,"SYN066AAXX  01154 08213 42570 22408 10329 20046 39021 48537 58011 81201;",
"08213099999","2010-08-01T18:00:00","4","40.95","-4.1333333","1005.0","SEGOVIA, SP","FM-12","99999","V020","290,1,N,0051,1","22000,1,9,N","020000,1,N,1","+0316,1","+0036,1","99999,9","12,0000,9,1",,,,,,"06,99,1,03,1,02,1,00800,1,00,1,04,1",,,,"999,M,+0344,1","99999,9,09011,1","6,1,010,1,+999,9","3,1525,9",,"SYN082AAXX  01184 08213 12570 62910 10316 20036 39011 48525 56010 60002 83204 333 10344;","Q01  00002PRCP12"
"08213099999","2010-08-02T06:00:00","4","40.95","-4.1333333","1005.0","SEGOVIA, SP","FM-12","99999","V020","180,1,N,0010,1","22000,1,9,N","020000,1,N,1","+0156,1","+0052,1","99999,9","12,0000,9,1","24,0000,9,1",,,,,"01,99,1,00,1,00,1,99999,9,00,1,01,1","0750,9","01,9","999,+0090,9","999,N,+0156,1","99999,9,09025,1","3,1,002,1,+999,9","3,1511,9",,"SYN100AAXX  02064 08213 12970 11802 10156 20052 39025 48511 53002 60002 80001 333 20156 30009 55125 70000;","Q01  00002PRCP24Q02  00002PRCP12"
"08213099999","2010-08-02T12:00:00","4","40.95","-4.1333333","1005.0","SEGOVIA, SP","FM-12","99999","V020","020,1,N,0026,1","22000,1,9,N","018000,1,N,1","+0268,1","+0117,1","99999,9","06,0000,9,1",,,,,,"01,99,1,01,1,02,1,00800,1,00,1,00,1",,,,,"99999,9,09031,1","4,1,000,1,+999,9","3,1537,9",,"SYN082AAXX  02124 08213 12568 10205 10268 20117 39031 48537 54000 60001 81200 333 51000;","Q01  00002PRCP06"
"08213099999","2010-08-02T15:00:00","4","40.95","-4.1333333","1005.0","SEGOVIA, SP","FM-12","99999","V020","340,1,N,0026,1","22000,1,9,N","018000,1,N,1","+0290,1","+0116,1","99999,9",,,,,,,"03,99,1,03,1,02,1,00800,1,00,1,00,1",,,,,"99999,9,09025,1","8,1,006,1,+999,9","3,1535,9",,"SYN066AAXX  02154 08213 42568 33405 10290 20116 39025 48535 58006 83200;",
"08213099999","2010-08-02T18:00:00","4","40.95","-4.1333333","1005.0","SEGOVIA, SP","FM-12","99999","V020","010,1,N,0051,1","22000,1,9,N","018000,1,N,1","+0258,1","+0108,1","99999,9","12,0000,9,1",,,,,,"02,99,1,01,1,02,1,00800,1,00,1,01,1",,,,"999,M,+0306,1","99999,9,09031,1","3,1,006,1,+999,9","3,1535,9",,"SYN082AAXX  02184 08213 12568 20110 10258 20108 39031 48535 53006 60002 81201 333 10306;","Q01  00002PRCP12"
"08213099999","2010-08-03T06:00:00","4","40.95","-4.1333333","1005.0","SEGOVIA, SP","FM-12","99999","V020","180,1,N,0015,1","22000,1,9,N","010000,1,N,1","+0112,1","+0095,1","99999,9","12,0000,9,1","24,0000,9,1",,,,"00,1,+99999,9,99,9","00,99,1,00,1,00,1,99999,9,00,1,00,1","0792,9","09,9","999,+0050,9","999,N,+0097,1","99999,9,09070,1","1,1,003,1,+999,9","3,1545,9",,"SYN094AAXX  03064 08213 12960 01803 10112 20095 39070 48545 51003 60002 333 20097 31005 55132 70000;","Q01  00002PRCP24Q02  00002PRCP12"
"08213099999","2010-08-03T09:00:00","4","40.95","-4.1333333","1005.0","SEGOVIA, SP","FM-12","99999","V020","200,1,N,0021,1","22000,1,9,N","010000,1,N,1","+0167,1","+0101,1","99999,9",,,,,,,"02,99,1,01,1,00,1,01750,1,04,1,01,1",,,,,"99999,9,09069,1","5,1,001,1,+999,9","3,1554,9",,"SYN066AAXX  03094 08213 42760 22004 10167 20101 39069 48554 55001 81041;",
"08213099999","2010-08-03T12:00:00","4","40.95","-4.1333333","1005.0","SEGOVIA, SP","FM-12","99999","V020","360,1,N,0026,1","22000,1,9,N","012000,1,N,1","+0235,1","+0076,1","99999,9","06,0000,9,1",,,,,,"02,99,1,00,1,00,1,99999,9,00,1,01,1",,,,,"99999,9,09062,1","8,1,007,1,+999,9","3,1560,9",,"SYN082AAXX  03124 08213 12962 23605 10235 20076 39062 48560 58007 60001 80001 333 50680;","Q01  00002PRCP06"
"08213099999","2010-08-03T15:00:00","4","40.95","-4.1333333","1005.0","SEGOVIA, SP","FM-12","99999","V020","340,1,N,0021,1","22000,1,9,N","018000,1,N,1","+0274,1","+0045,1","99999,9",,,,,,,"02,99,1,00,1,00,1,99999,9,00,1,01,1",,,,,"99999,9,09050,1","7,1,012,1,+999,9","3,1555,9",,"SYN066AAXX  03154 08213 42968 23404 10274 20045 39050 48555 57012 80001;",
"08213099999","2010-08-03T18:00:00","4","40.95","-4.1333333","1005.0","SEGOVIA, SP","FM-12","99999","V020","100,1,N,0026,1","22000,1,9,N","020000,1,N,1","+0267,1","+0032,1","99999,9","12,0000,9,1",,,,,,"02,99,1,00,1,00,1,99999,9,00,1,01,1",,,,"999,M,+0287,1","99999,9,09044,1","6,1,006,1,+999,9","3,1548,9",,"SYN082AAXX  03184 08213 12970 21005 10267 20032 39044 48548 56006 60002 80001 333 10287;","Q01  00002PRCP12"
"08213099999","2010-08-04T06:00:00","4","40.95","-4.1333333","1005.0","SEGOVIA, SP","FM-12","99999","V020","140,1,N,0026,1","22000,1,9,N","020000,1,N,1","+0146,1","+0083,1","99999,9","12,0000,9,1","24,0000,9,1",,,,"00,1,+99999,9,99,9","00,99,1,00,1,00,1,99999,9,00,1,00,1","0804,9","01,9","999,+0060,9","999,N,+0125,1","99999,9,09047,1","6,1,002,1,+999,9","3,1530,9",,"SYN094AAXX  04064 08213 12970 01405 10146 20083 39047 48530 56002 60002 333 20125 30006 55134 70000;","Q01  00002PRCP24Q02  00002PRCP12"
"08213099999","2010-08-04T09:00:00","4","40.95","-4.1333333","1005.0","SEGOVIA, SP","FM-12","99999","V020","330,1,N,0026,1","22000,1,9,N","020000,1,N,1","+0203,1","+0101,1","99999,9",,,,,,"00,1,+99999,9,99,9","00,99,1,00,1,00,1,99999,9,00,1,00,1",,,,,"99999,9,09053,1","1,1,006,1,+999,9","3,1546,9",,"SYN060AAXX  04094 08213 42970 03305 10203 20101 39053 48546 51006;",
"08213099999","2010-08-04T12:00:00","4","40.95","-4.1333333","1005.0","SEGOVIA, SP","FM-12","99999","V020","290,1,N,0026,1","22000,1,9,N","020000,1,N,1","+0260,1","+0102,1","99999,9","06,0000,9,1",,,,,,"01,99,1,01,1,00,1,01750,1,04,1,00,1",,,,,"99999,9,09041,1","8,1,012,1,+999,9","3,1545,9",,"SYN082AAXX  04124 08213 12770 12905 10260 20102 39041 48545 58012 60001 81040 333 50620;","Q01  00002PRCP06"
"08213099999","2010-08-04T15:00:00","4","40.95","-4.1333333","1005.0","SEGOVIA, SP","FM-12","99999","V020","360,1,N,0026,1","22000,1,9,N","020000,1,N,1","+0274,1","+0097,1","99999,9",,,,,,,"03,99,1,01,1,00,1,01750,1,04,1,01,1",,,,,"99999,9,09030,1","8,1,011,1,+999,9","3,1537,9",,"SYN066AAXX  04154 08213 42770 33605 10274 20097 39030 48537 58011 81041;",
"08213099999","2010-08-04T18:00:00","4","40.95","-4.1333333","1005.0","SEGOVIA, SP","FM-12","99999","V020","010,1,N,0026,1","22000,1,9,N","020000,1,N,1","+0260,1","+0089,1","99999,9","12,0000,9,1",,,,,,"06,99,1,03,1,00,1,01750,1,04,1,01,1",,,,"999,M,+0284,1","99999,9,09020,1","6,1,010,1,+999,9","3,1524,9",,"SYN082AAXX  04184 08213 12770 60105 10260 20089 39020 48524 56010 60002 83041 333 10284;","Q01  00002PRCP12"
"08213099999","2010-08-05T06:00:00","4","40.95","-4.1333333","1005.0","SEGOVIA, SP","FM-12","99999","V020","180,1,N,0021,1","22000,1,9,N","010000,1,N,1","+0124,1","+0101,1","99999,9","12,0000,9,1","24,0000,9,1",,,,,"03,99,1,01,1,00,1,01750,1,04,1,01,1","0732,9","09,9","999,+0070,9","999,N,+0115,1","99999,9,09033,1","3,1,007,1,+999,9","3,1513,9",,"SYN100AAXX  05064 08213 12760 31804 10124 20101 39033 48513 53007 60002 81041 333 20115 31007 55122 70000;","Q01  00002PRCP24Q02  00002PRCP12"
"08213099999","2010-08-05T09:00:00","4","40.95","-4.1333333","1005.0","SEGOVIA, SP","FM-12","99999","V020","360,1,N,0015,1","22000,1,9,N","010000,1,N,1","+0187,1","+0110,1","99999,9",,,,,,,"03,99,1,01,1,00,1,01750,1,04,1,01,1",,,,,"99999,9,09037,1","2,1,004,1,+999,9","3,1528,9",,"SYN066AAXX  05094 08213 42760 33603 10187 20110 39037 48528 52004 81041;",
"08213099999","2010-08-05T12:00:00","4","40.95","-4.1333333","1005.0","SEGOVIA, SP","FM-12","99999","V020","350,1,N,0021,1","22000,1,9,N","015000,1,N,1","+0248,1","+0051,1","99999,9","06,0000,9,1",,,,,,"02,99,1,01,1,00,1,01750,1,04,1,01,1",,,,,"99999,9,09032,1","8,1,005,1,+999,9","3,1533,9",,"SYN082AAXX  05124 08213 12765 23504 10248 20051 39032 48533 58005 60001 81041 333 50650;","Q01  00002PRCP06"
"08213099999","2010-08-05T15:00:00","4","40.95","-4.1333333","1005.0","SEGOVIA, SP","FM-12","99999","V020","350,1,N,0041,1","22000,1,9,N","020000,1,N,1","+0272,1","+0049,1","99999,9",,,,,,,"01,99,1,01,1,01,1,00800,1,00,1,00,1",,,,,"99999,9,09021,1","7,1,011,1,+999,9","3,1527,9",,"SYN066AAXX  05154 08213 42570 13508 10272 20049 39021 48527 57011 81100;",
"08213099999","2010-08-05T18:00:00","4","40.95","-4.1333333","1005.0","SEGOVIA, SP","FM-12","99999","V020","360,1,N,0036,1","22000,1,9,N","020000,1,N,1","+0262,1","+0052,1","99999,9","12,0000,9,1",,,,,"00,1,+99999,9,99,9","00,99,1,00,1,00,1,99999,9,00,1,00,1",,,,"999,M,+0284,1","99999,9,09015,1","6,1,006,1,+999,9","3,1519,9",,"SYN076AAXX  05184 08213 12970 03607 10262 20052 39015 48519 56006 60002 333 10284;","Q01  00002PRCP12"
"08213099999","2010-08-06T06:00:00","4","40.95","-4.1333333","1005.0","SEGOVIA, SP","FM-12","99999","V020","270,1,N,0015,1","22000,1,9,N","020000,1,N,1","+0104,1","+0045,1","99999,9","12,0000,9,1","24,0000,9,1",,,,"00,1,+99999,9,99,9","00,99,1,00,1,00,1,99999,9,00,1,00,1","0792,9","09,9","999,+0040,9","999,N,+0104,1","99999,9,09038,1","4,1,000,1,+999,9","3,1513,9",,"SYN094AAXX  06064 08213 12970 02703 10104 20045 39038 48513 54000 60002 333 20104 31004 55132 70000;","Q01  00002PRCP24Q02  00002PRCP12"
"08213099999","2010-08-06T09:00:00","4","40.95","-4.1333333","1005.0","SEGOVIA, SP","FM-12","99999","V020","240,1,N,0021,1","22000,1,9,N","020000,1,N,1","+0198,1","+0051,1","99999,9",,,,,,"00,1,+99999,9,99,9","00,99,1,00,1,00,1,99999,9,00,1,00,1",,,,,"99999,9,09039,1","3,1,001,1,+999,9","3,1531,9",,"SYN060AAXX  06094 08213 42970 02404 10198 20051 39039 48531 53001;",
"08213099999","2010-08-06T12:00:00","4","40.95","-4.1333333","1005.0","SEGOVIA, SP","FM-12","99999","V020","250,1,N,0026,1","22000,1,9,N","020000,1,N,1","+0264,1","+0017,1","99999,9","06,0000,9,1",,,,,"00,1,+99999,9,99,9","00,99,1,00,1,00,1,99999,9,00,1,00,1",,,,,"99999,9,09039,1","4,1,000,1,+999,9","3,1542,9",,"SYN076AAXX  06124 08213 12970 02505 10264 20017 39039 48542 54000 60001 333 50650;","Q01  00002PRCP06"
"08213099999","2010-08-06T15:00:00","4","40.95","-4.1333333","1005.0","SEGOVIA, SP","FM-12","99999","V020","290,1,N,0031,1","22000,1,9,N","020000,1,N,1","+0300,1","+0046,1","99999,9",,,,,,"00,1,+99999,9,99,9","00,99,1,00,1,00,1,99999,9,00,1,00,1",,,,,"99999,9,09030,1","8,1,009,1,+999,9","3,1541,9",,"SYN060AAXX  06154 08213 42970 02906 10300 20046 39030 48541 58009;",
"08213099999","2010-08-06T18:00:00","4","40.95","-4.1333333","1005.0","SEGOVIA, SP","FM-12","99999","V020","020,1,N,0015,1","22000,1,9,N","020000,1,N,1","+0304,1","+0034,1","99999,9","12,0000,9,1",,,,,"00,1,+99999,9,99,9","00,99,1,00,1,00,1,99999,9,00,1,00,1",,,,"999,M,+0314,1","99999,9,09024,1","7,1,006,1,+999,9","3,1535,9",,"SYN076AAXX  06184 08213 12970 00203 10304 20034 39024 48535 57006 60002 333 10314;","Q01  00002PRCP12"
"08213099999","2010-08-07T06:00:00","4","40.95","-4.1333333","1005.0","SEGOVIA, SP","FM-12","99999","V020","090,1,N,0010,1","22000,1,9,N","020000,1,N,1","+0184,1","+0014,1","99999,9","12,0000,9,1","24,0000,9,1",,,,"00,1,+99999,9,99,9","00,99,1,00,1,00,1,99999,9,00,1,00,1","0792,9","01,9","999,+0100,9","999,N,+0184,1","99999,9,09050,1","3,1,005,1,+999,9","3,1538,9",,"SYN094AAXX  07064 08213 12970 00902 10184 20014 39050 48538 53005 60002 333 20184 30010 55132 70000;","Q01  00002PRCP24Q02  00002PRCP12"
"08213099999","2010-08-07T09:00:00","4","40.95","-4.1333333","1005.0","SEGOVIA, SP","FM-12","99999","V020","170,1,N,0010,1","22000,1,9,N","020000,1,N,1","+0284,1","+0071,1","99999,9",,,,,,"00,1,+99999,9,99,9","00,99,1,00,1,00,1,99999,9,00,1,00,1",,,,,"99999,9,09052,1","2,1,002,1,+999,9","3,1559,9",,"SYN060AAXX  07094 08213 42970 01702 10284 20071 39052 48559 52002;",
"08213099999","2010-08-07T12:00:00","4","40.95","-4.1333333","1005.0","SEGOVIA, SP","FM-12","99999","V020","240,1,N,0051,1","22000,1,9,N","020000,1,N,1","+0320,1","+0101,1","99999,9","06,0000,9,1",,,,,,"03,99,1,03,1,02,1,00800,1,00,1,00,1",,,,,"99999,9,09052,1","4,1,000,1,+999,9","3,1567,9",,"SYN082AAXX  07124 08213 12570 32410 10320 20101 39052 48567 54000 60001 83200 333 50760;","Q01  00002PRCP06"
"08213099999","2010-08-07T15:00:00","4","40.95","-4.1333333","1005.0","SEGOVIA, SP","FM-12","99999","V020","270,1,N,0041,1","22000,1,9,N","020000,1,N,1","+0338,1","+0084,1","99999,9",,,,,,,"04,99,1,04,1,02,1,00800,1,00,1,00,1",,,,,"99999,9,09050,1","8,1,002,1,+999,9","3,1568,9",,"SYN066AAXX  07154 08213 42570 42708 10338 20084 39050 48568 58002 84200;",
"08213099999","2010-08-07T18:00:00","4","40.95","-4.1333333","1005.0","SEGOVIA, SP","FM-12","99999","V020","280,1,N,0026,1","22000,1,9,N","018000,1,N,1","+0334,1","+0088,1","99999,9","12,0000,9,1",,,,,"01,1,+00600,1,09,1","03,99,1,03,1,03,1,00800,1,00,1,00,1",,,,"120,M,+0346,1","99999,9,09044,1","7,1,006,1,+999,9","3,1561,9",,"SYN088AAXX  07184 08213 12568 32805 10334 20088 39044 48561 57006 60002 83300 333 10346 81920;","Q01  00002PRCP12"
"08213099999","2010-08-08T06:00:00","4","40.95","-4.1333333","1005.0","SEGOVIA, SP","FM-12","99999","V020","080,1,N,0021,1","03600,1,9,N","014000,1,N,1","+0226,1","+0087,1","99999,9","12,0000,9,1","24,0000,9,1",,,,,"06,99,1,01,1,02,1,00800,1,07,1,05,1","0780,9","01,9","999,+0130,9","999,N,+0214,1","99999,9,09055,1","7,1,002,1,+999,9","3,1552,9",,"SYN100AAXX  08064 08213 12564 60804 10226 20087 39055 48552 57002 60002 81275 333 20214 30013 55130 70000;","Q01  00002PRCP24Q02  00002PRCP12"
"08213099999","2010-08-08T09:00:00","4","40.95","-4.1333333","1005.0","SEGOVIA, SP","FM-12","99999","V020","190,1,N,0051,1","00750,1,C,N","018000,1,N,1","+0260,1","+0102,1","99999,9",,,,"2,1,03,1","2,1,03,1","03,1,+00600,1,09,1","08,99,1,08,1,03,1,00800,1,99,9,99,9",,,,,"99999,9,09063,1","3,1,008,1,+999,9","3,1566,9","17,1","SYN082AAXX  08094 08213 41568 81910 10260 20102 39063 48566 53008 71722 883// 333 83920;",
"08213099999","2010-08-08T12:00:00","4","40.95","-4.1333333","1005.0","SEGOVIA, SP","FM-12","99999","V020","140,1,N,0031,1","00750,1,C,N","012000,1,N,1","+0236,1","+0149,1","99999,9","06,0005,9,1",,,"9,1,06,1","6,1,06,1","03,1,+00600,1,09,1","08,99,1,08,1,03,1,00800,1,99,9,99,9",,,,,"99999,9,09069,1","3,1,006,1,+999,9","3,1568,9","02,1","SYN088AAXX  08124 08213 11562 81406 10236 20149 39069 48568 53006 69951 70296 883// 333 83920;",
"08213099999","2010-08-08T15:00:00","4","40.95","-4.1333333","1005.0","SEGOVIA, SP","FM-12","99999","V020","200,1,N,0015,1","00750,1,9,N","018000,1,N,1","+0280,1","+0135,1","99999,9",,,,"6,1,03,1","2,1,03,1",,"07,99,1,05,1,05,1,00800,1,02,1,00,1",,,,,"99999,9,09053,1","8,1,016,1,+999,9","3,1561,9","02,1","SYN072AAXX  08154 08213 41568 72003 10280 20135 39053 48561 58016 70262 85520;",
"08213099999","2010-08-08T18:00:00","4","40.95","-4.1333333","1005.0","SEGOVIA, SP","FM-12","99999","V020","070,1,N,0057,1","00750,1,C,N","010000,1,N,1","+0222,1","+0122,1","99999,9","12,0020,9,1",,,"9,1,06,1","6,1,06,1","02,1,+00600,1,09,1","08,99,1,08,1,03,1,00800,1,99,9,99,9",,,,"120,M,+0294,1","99999,9,09064,1","3,1,011,1,+999,9","3,1560,9","60,1","SYN094AAXX  08184 08213 11560 80711 10222 20122 39064 48560 53011 60022 76096 883// 333 10294 82920;",
"08213099999","2010-08-09T06:00:00","4","40.95","-4.1333333","1005.0","SEGOVIA, SP","FM-12","99999","V020","120,1,N,0015,1","22000,1,9,N","010000,1,N,1","+0187,1","+0142,1","99999,9","12,0020,9,1","24,0033,9,1",,,,,"03,99,1,01,1,00,1,01750,1,04,1,08,1","0060,9","09,9","999,+0120,9","999,N,+0179,1","99999,9,09064,1","4,1,000,1,+999,9","3,1554,9",,"SYN100AAXX  09064 08213 12760 31203 10187 20142 39064 48554 54000 60022 81048 333 20179 31012 55010 70032;",
"08213099999","2010-08-09T09:00:00","4","40.95","-4.1333333","1005.0","SEGOVIA, SP","FM-12","99999","V020","270,1,N,0036,1","22000,1,9,N","010000,1,N,1","+0250,1","+0112,1","99999,9",,,,,,,"03,99,1,01,1,00,1,01750,1,04,1,08,1",,,,,"99999,9,09072,1","1,1,008,1,+999,9","3,1573,9",,"SYN066AAXX  09094 08213 42760 32707 10250 20112 39072 48573 51008 81048;",
"08213099999","2010-08-09T12:00:00","4","40.95","-4.1333333","1005.0","SEGOVIA, SP","FM-12","99999","V020","260,1,N,0036,1","09000,1,9,N","008000,1,N,1","+0282,1","+0080,1","99999,9","06,0000,9,1",,,"2,1,06,1","2,1,06,1",,"06,99,1,03,1,00,1,01750,1,03,1,08,1",,,,,"99999,9,09068,1","8,1,004,1,+999,9","3,1575,9","05,1","SYN088AAXX  09124 08213 11758 62607 10282 20080 39068 48575 58004 60001 70522 83038 333 50270;","Q01  00002PRCP06"
"08213099999","2010-08-09T15:00:00","4","40.95","-4.1333333","1005.0","SEGOVIA, SP","FM-12","99999","V020","270,1,N,0041,1","03600,1,9,N","008000,1,N,1","+0314,1","+0102,1","99999,9",,,,"2,1,03,1","2,1,03,1",,"06,99,1,02,1,02,1,00800,1,04,1,08,1",,,,,"99999,9,09051,1","7,1,017,1,+999,9","3,1564,9","05,1","SYN072AAXX  09154 08213 41558 62708 10314 20102 39051 48564 57017 70522 82248;",
"08213099999","2010-08-09T18:00:00","4","40.95","-4.1333333","1005.0","SEGOVIA, SP","FM-12","99999","V020","300,1,N,0026,1","22000,1,9,N","008000,1,N,1","+0301,1","+0111,1","99999,9","12,0000,9,1",,,"1,1,06,1","1,1,06,1",,"03,99,1,01,1,01,1,00800,1,00,1,08,1",,,,"999,M,+0323,1","99999,9,09046,1","6,1,005,1,+999,9","3,1557,9","05,1","SYN088AAXX  09184 08213 11558 33005 10301 20111 39046 48557 56005 60002 70511 81108 333 10323;","Q01  00002PRCP12"
"08213099999","2010-08-10T06:00:00","4","40.95","-4.1333333","1005.0","SEGOVIA, SP","FM-12","99999","V020","090,1,N,0021,1","22000,1,9,N","008000,1,N,1","+0192,1","+0125,1","99999,9","12,0005,9,1","24,0005,9,1",,"6,1,06,1","1,1,06,1",,"03,99,1,01,1,00,1,01750,1,03,1,08,1","0486,9","09,9","999,+0120,9","999,N,+0186,1","99999,9,09062,1","3,1,003,1,+999,9","3,1553,9","05,1","SYN106AAXX  10064 08213 11758 30904 10192 20125 39062 48553 53003 69952 70561 81038 333 20186 31012 55081 70005;",
"08213099999","2010-08-10T09:00:00","4","40.95","-4.1333333","1005.0","SEGOVIA, SP","FM-12","99999","V020","250,1,N,0015,1","22000,1,9,N","006000,1,N,1","+0268,1","+0101,1","99999,9",,,,"0,1,03,1","0,1,03,1",,"03,99,1,01,1,00,1,01750,1,03,1,08,1",,,,,"99999,9,09067,1","1,1,005,1,+999,9","3,1571,9","05,1","SYN072AAXX  10094 08213 41756 32503 10268 20101 39067 48571 51005 70500 81038;",
"08213099999","2010-08-10T12:00:00","4","40.95","-4.1333333","1005.0","SEGOVIA, SP","FM-12","99999","V020","250,1,N,0051,1","22000,1,9,N","006000,1,N,1","+0299,1","+0128,1","99999,9","06,0000,9,1",,,"0,1,06,1","0,1,06,1",,"04,99,1,01,1,01,1,00800,1,03,1,08,1",,,,,"99999,9,09068,1","0,1,001,1,+999,9","3,1579,9","05,1","SYN088AAXX  10124 08213 11556 42510 10299 20128 39068 48579 50001 60001 70500 81138 333 50280;","Q01  00002PRCP06"
"08213099999","2010-08-10T15:00:00","4","40.95","-4.1333333","1005.0","SEGOVIA, SP","FM-12","99999","V020","260,1,N,0051,1","03600,1,9,N","006000,1,N,1","+0313,1","+0117,1","99999,9",,,,"1,1,03,1","1,1,03,1",,"06,99,1,03,1,08,1,00800,1,03,1,08,1",,,,,"99999,9,09053,1","8,1,015,1,+999,9","3,1567,9","05,1","SYN072AAXX  10154 08213 41556 62610 10313 20117 39053 48567 58015 70511 83838;",
"08213099999","2010-08-10T18:00:00","4","40.95","-4.1333333","1005.0","SEGOVIA, SP","FM-12","99999","V020","300,1,N,0057,1","22000,1,9,N","006000,1,N,1","+0306,1","+0077,1","99999,9","12,0000,9,1",,,"1,1,06,1","1,1,06,1",,"03,99,1,01,1,01,1,00800,1,03,1,08,1",,,,"999,M,+0328,1","99999,9,09048,1","8,1,005,1,+999,9","3,1560,9","05,1","SYN088AAXX  10184 08213 11556 33011 10306 20077 39048 48560 58005 60002 70511 81138 333 10328;","Q01  00002PRCP12"
"08213099999","2010-08-11T06:00:00","4","40.95","-4.1333333","1005.0","SEGOVIA, SP","FM-12","99999","V020","200,1,N,0026,1","22000,1,9,N","008000,1,N,1","+0168,1","+0066,1","99999,9","12,0000,9,1","24,0000,9,1",,"0,1,06,1","0,1,06,1",,"01,99,1,00,1,00,1,99999,9,00,1,01,1","0582,9","01,9","999,+0100,9","999,N,+0166,1","99999,9,09073,1","3,1,003,1,+999,9","3,1557,9","05,1","SYN106AAXX  11064 08213 11958 12005 10168 20066 39073 48557 53003 60002 70500 80001 333 20166 30010 55097 70000;","Q01  00002PRCP24Q02  00002PRCP12"
"08213099999","2010-08-11T09:00:00","4","40.95","-4.1333333","1005.0","SEGOVIA, SP","FM-12","99999","V020","210,1,N,0021,1","22000,1,9,N","008000,1,N,1","+0237,1","+0089,1","99999,9",,,,"0,1,03,1","0,1,03,1",,"01,99,1,01,1,00,1,01750,1,04,1,01,1",,,,,"99999,9,09077,1","1,1,004,1,+999,9","3,1575,9","05,1","SYN072AAXX  11094 08213 41758 12104 10237 20089 39077 48575 51004 70500 81041;",
"08213099999","2010-08-11T12:00:00","4","40.95","-4.1333333","1005.0","SEGOVIA, SP","FM-12","99999","V020","270,1,N,0026,1","22000,1,9,N","008000,1,N,1","+0281,1","+0044,1","99999,9","06,0000,9,1",,,"0,1,06,1","0,1,06,1",,"03,99,1,02,1,01,1,00800,1,00,1,01,1",,,,,"99999,9,09071,1","8,1,006,1,+999,9","3,1577,9","05,1","SYN088AAXX  11124 08213 11558 32705 10281 20044 39071 48577 58006 60001 70500 82101 333 50690;","Q01  00002PRCP06"
"08213099999","2010-08-11T15:00:00","4","40.95","-4.1333333","1005.0","SEGOVIA, SP","FM-12","99999","V020","290,1,N,0041,1","22000,1,9,N","015000,1,N,1","+0297,1","-0006,1","99999,9",,,,,,,"02,99,1,01,1,01,1,00800,1,00,1,01,1",,,,,"99999,9,09060,1","6,1,011,1,+999,9","3,1569,9",,"SYN066AAXX  11154 08213 42565 22908 10297 21006 39060 48569 56011 81101;",
"08213099999","2010-08-11T18:00:00","4","40.95","-4.1333333","1005.0","SEGOVIA, SP","FM-12","99999","V020","300,1,N,0036,1","22000,1,9,N","020000,1,N,1","+0294,1","-0009,1","99999,9","12,0000,9,1",,,,,,"02,99,1,01,1,00,1,01750,1,04,1,01,1",,,,"999,M,+0310,1","99999,9,09051,1","8,1,009,1,+999,9","3,1559,9",,"SYN082AAXX  11184 08213 12770 23007 10294 21009 39051 48559 58009 60002 81041 333 10310;","Q01  00002PRCP12"
"08213099999","2010-08-12T06:00:00","4","40.95","-4.1333333","1005.0","SEGOVIA, SP","FM-12","99999","V020","170,1,N,0026,1","22000,1,9,N","008000,1,N,1","+0154,1","+0069,1","99999,9","12,0000,9,1","24,0000,9,1",,"0,1,06,1","0,1,06,1",,"02,99,1,02,1,00,1,01750,1,04,1,00,1","0768,9","01,9","999,+0090,9","999,N,+0154,1","99999,9,09049,1","4,1,000,1,+999,9","3,1533,9","05,1","SYN106AAXX  12064 08213 11758 21705 10154 20069 39049 48533 54000 60002 70500 82040 333 20154 30009 55128 70000;","Q01  00002PRCP24Q02  00002PRCP12"
"08213099999","2010-08-12T09:00:00","4","40.95","-4.1333333","1005.0","SEGOVIA, SP","FM-12","99999","V020","260,1,N,0031,1","22000,1,9,N","018000,1,N,1","+0204,1","+0111,1","99999,9",,,,,,,"02,99,1,00,1,00,1,99999,9,00,1,01,1",,,,,"99999,9,09050,1","2,1,001,1,+999,9","3,1543,9",,"SYN066AAXX  12094 08213 42968 22606 10204 20111 39050 48543 52001 80001;",
"08213099999","2010-08-12T12:00:00","4","40.95","-4.1333333","1005.0","SEGOVIA, SP","FM-12","99999","V020","300,1,N,0036,1","22000,1,9,N","020000,1,N,1","+0258,1","+0112,1","99999,9","06,0000,9,1",,,,,,"01,99,1,01,1,02,1,00800,1,00,1,00,1",,,,,"99999,9,09041,1","8,1,009,1,+999,9","3,1545,9",,"SYN082AAXX  12124 08213 12570 13007 10258 20112 39041 48545 58009 60001 81200 333 50730;","Q01  00002PRCP06"
"08213099999","2010-08-12T15:00:00","4","40.95","-4.1333333","1005.0","SEGOVIA, SP","FM-12","99999","V020","050,1,N,0036,1","22000,1,9,N","020000,1,N,1","+0274,1","+0102,1","99999,9",,,,,,,"06,99,1,04,1,02,1,00800,1,00,1,04,1",,,,,"99999,9,09034,1","7,1,007,1,+999,9","3,1541,9",,"SYN066AAXX  12154 08213 42570 60507 10274 20102 39034 48541 57007 84204;",
"08213099999","2010-08-12T18:00:00","4","40.95","-4.1333333","1005.0","SEGOVIA, SP","FM-12","99999","V020","030,1,N,0057,1","09000,1,9,N","020000,1,N,1","+0240,1","+0107,1","99999,9","12,0000,9,1",,,,,,"07,99,1,01,1,02,1,00800,1,00,1,06,1",,,,"999,M,+0290,1","99999,9,09032,1","5,1,002,1,+999,9","3,1533,9",,"SYN082AAXX  12184 08213 12570 70311 10240 20107 39032 48533 55002 60002 81206 333 10290;","Q01  00002PRCP12"
"08213099999","2010-08-13T06:00:00","4","40.95","-4.1333333","1005.0","SEGOVIA, SP","FM-12","99999","V020","240,1,N,0021,1","03600,1,9,N","016000,1,N,1","+0096,1","+0072,1","99999,9","12,0000,9,1","24,0000,9,1",,,,,"06,99,1,01,1,04,1,00800,1,05,1,00,1","0714,9","09,9","999,+0070,9","999,N,+0096,1","99999,9,09049,1","5,1,000,1,+999,9","3,1522,9",,"SYN100AAXX  13064 08213 12566 62404 10096 20072 39049 48522 55000 60002 81450 333 20096 31007 55119 70000;","Q01  00002PRCP24Q02  00002PRCP12"
"08213099999","2010-08-13T09:00:00","4","40.95","-4.1333333","1005.0","SEGOVIA, SP","FM-12","99999","V020","340,1,N,0031,1","22000,1,9,N","016000,1,N,1","+0156,1","+0086,1","99999,9",,,,,,,"02,99,1,01,1,04,1,00800,1,05,1,00,1",,,,,"99999,9,09053,1","2,1,004,1,+999,9","3,1537,9",,"SYN066AAXX  13094 08213 42566 23406 10156 20086 39053 48537 52004 81450;",
"08213099999","2010-08-13T12:00:00","4","40.95","-4.1333333","1005.0","SEGOVIA, SP","FM-12","99999","V020","090,1,N,0021,1","22000,1,9,N","018000,1,N,1","+0204,1","+0048,1","99999,9","06,0000,9,1",,,,,,"02,99,1,01,1,02,1,00800,1,06,1,00,1",,,,,"99999,9,09041,1","8,1,012,1,+999,9","3,1534,9",,"SYN082AAXX  13124 08213 12568 20904 10204 20048 39041 48534 58012 60001 81260 333 50620;","Q01  00002PRCP06"
"08213099999","2010-08-13T15:00:00","4","40.95","-4.1333333","1005.0","SEGOVIA, SP","FM-12","99999","V020","360,1,N,0026,1","22000,1,9,N","020000,1,N,1","+0236,1","+0045,1","99999,9",,,,,,,"01,99,1,01,1,01,1,00800,1,00,1,00,1",,,,,"99999,9,09028,1","7,1,013,1,+999,9","3,1527,9",,"SYN066AAXX  13154 08213 42570 13605 10236 20045 39028 48527 57013 81100;",
"08213099999","2010-08-13T18:00:00","4","40.95","-4.1333333","1005.0","SEGOVIA, SP","FM-12","99999","V020","040,1,N,0051,1","22000,1,9,N","020000,1,N,1","+0218,1","+0053,1","99999,9","12,0000,9,1",,,,,"00,1,+99999,9,99,9","00,99,1,00,1,00,1,99999,9,00,1,00,1",,,,"999,M,+0244,1","99999,9,09020,1","6,1,008,1,+999,9","3,1517,9",,"SYN076AAXX  13184 08213 12970 00410 10218 20053 39020 48517 56008 60002 333 10244;","Q01  00002PRCP12"
"08213099999","2010-08-14T06:00:00","4","40.95","-4.1333333","1005.0","SEGOVIA, SP","FM-12","99999","V020","020,1,N,0005,1","22000,1,9,N","020000,1,N,1","+0066,1","+0044,1","99999,9","12,0000,9,1","24,0000,9,1",,,,"00,1,+99999,9,99,9","00,99,1,00,1,00,1,99999,9,00,1,00,1","0774,9","09,9","999,+0030,9","999,N,+0066,1","99999,9,09046,1","4,1,000,1,+999,9","3,1514,9",,"SYN094AAXX  14064 08213 12970 00201 10066 20044 39046 48514 54000 60002 333 20066 31003 55129 70000;","Q01  00002PRCP24Q02  00002PRCP12"
"08213099999","2010-08-14T09:00:00","4","40.95","-4.1333333","1005.0","SEGOVIA, SP","FM-12","99999","V020","220,1,N,0021,1","22000,1,9,N","016000,1,N,1","+0136,1","+0055,1","99999,9",,,,,,,"01,99,1,01,1,02,1,00800,1,00,1,00,1",,,,,"99999,9,09046,1","4,1,000,1,+999,9","3,1526,9",,"SYN066AAXX  14094 08213 42566 12204 10136 20055 39046 48526 54000 81200;",
"08213099999","2010-08-14T12:00:00","4","40.95","-4.1333333","1005.0","SEGOVIA, SP","FM-12","99999","V020","020,1,N,0021,1","22000,1,9,N","020000,1,N,1","+0206,1","+0042,1","99999,9","06,0000,9,1",,,,,,"01,99,1,01,1,01,1,00800,1,00,1,00,1",,,,,"99999,9,09045,1","8,1,001,1,+999,9","3,1538,9",,"SYN082AAXX  14124 08213 12570 10204 10206 20042 39045 48538 58001 60001 81100 333 50620;","Q01  00002PRCP06"
"08213099999","2010-08-14T15:00:00","4","40.95","-4.1333333","1005.0","SEGOVIA, SP","FM-12","99999","V020","320,1,N,0031,1","22000,1,9,N","020000,1,N,1","+0226,1","+0032,1","99999,9",,,,,,,"01,99,1,01,1,01,1,00800,1,00,1,00,1",,,,,"99999,9,09032,1","7,1,013,1,+999,9","3,1529,9",,"SYN066AAXX  14154 08213 42570 13206 10226 20032 39032 48529 57013 81100;",
"08213099999","2010-08-14T18:00:00","4","40.95","-4.1333333","1005.0","SEGOVIA, SP","FM-12","99999","V020","010,1,N,0021,1","22000,1,9,N","020000,1,N,1","+0224,1","+0030,1","99999,9","12,0000,9,1",,,,,"00,1,+99999,9,99,9","00,99,1,00,1,00,1,99999,9,00,1,00,1",,,,"999,M,+0240,1","99999,9,09023,1","8,1,009,1,+999,9","3,1520,9",,"SYN076AAXX  14184 08213 12970 00104 10224 20030 39023 48520 58009 60002 333 10240;","Q01  00002PRCP12"
"08213099999","2010-08-15T06:00:00","4","40.95","-4.1333333","1005.0","SEGOVIA, SP","FM-12","99999","V020","070,1,N,0021,1","22000,1,9,N","025000,1,N,1","+0112,1","+0030,1","99999,9","12,0000,9,1","24,0000,9,1",,,,"00,1,+99999,9,99,9","00,99,1,00,1,00,1,99999,9,00,1,00,1","0780,9","01,9","999,+0020,9","999,N,+0100,1","99999,9,09029,1","5,1,000,1,+999,9","3,1506,9",,"SYN094AAXX  15064 08213 12975 00704 10112 20030 39029 48506 55000 60002 333 20100 30002 55130 70000;","Q01  00002PRCP24Q02  00002PRCP12"
"08213099999","2010-08-15T09:00:00","4","40.95","-4.1333333","1005.0","SEGOVIA, SP","FM-12","99999","V020","340,1,N,0021,1","22000,1,9,N","020000,1,N,1","+0190,1","+0036,1","99999,9",,,,,,"00,1,+99999,9,99,9","00,99,1,00,1,00,1,99999,9,00,1,00,1",,,,,"99999,9,09037,1","2,1,008,1,+999,9","3,1528,9",,"SYN060AAXX  15094 08213 42970 03404 10190 20036 39037 48528 52008;",
"08213099999","2010-08-15T12:00:00","4","40.95","-4.1333333","1005.0","SEGOVIA, SP","FM-12","99999","V020","330,1,N,0026,1","22000,1,9,N","020000,1,N,1","+0235,1","+0029,1","99999,9","06,0000,9,1",,,,,,"01,99,1,00,1,00,1,99999,9,00,1,01,1",,,,,"99999,9,09039,1","0,1,002,1,+999,9","3,1537,9",,"SYN082AAXX  15124 08213 12970 13305 10235 20029 39039 48537 50002 60001 80001 333 50610;","Q01  00002PRCP06"
"08213099999","2010-08-15T15:00:00","4","40.95","-4.1333333","1005.0","SEGOVIA, SP","FM-12","99999","V020","320,1,N,0046,1","22000,1,9,N","020000,1,N,1","+0246,1","+0015,1","99999,9",,,,,,,"02,99,1,01,1,01,1,00800,1,00,1,01,1",,,,,"99999,9,09036,1","8,1,003,1,+999,9","3,1536,9",,"SYN066AAXX  15154 08213 42570 23209 10246 20015 39036 48536 58003 81101;",
"08213099999","2010-08-15T18:00:00","4","40.95","-4.1333333","1005.0","SEGOVIA, SP","FM-12","99999","V020","010,1,N,0021,1","22000,1,9,N","020000,1,N,1","+0239,1","+0048,1","99999,9","12,0000,9,1",,,,,"00,1,+99999,9,99,9","00,99,1,00,1,00,1,99999,9,00,1,00,1",,,,"999,M,+0262,1","99999,9,09035,1","6,1,001,1,+999,9","3,1535,9",,"SYN076AAXX  15184 08213 12970 00104 10239 20048 39035 48535 56001 60002 333 10262;","Q01  00002PRCP12"
"08213099999","2010-08-16T06:00:00","4","40.95","-4.1333333","1005.0","SEGOVIA, SP","FM-12","99999","V020","080,1,N,0015,1","22000,1,9,N","015000,1,N,1","+0124,1","+0056,1","99999,9","12,0000,9,1","24,0000,9,1",,,,,"02,99,1,01,1,00,1,01750,1,04,1,01,1","0750,9","01,9","999,+0030,9","999,N,+0115,1","99999,9,09054,1","4,1,000,1,+999,9","3,1532,9",,"SYN100AAXX  16064 08213 12765 20803 10124 20056 39054 48532 54000 60002 81041 333 20115 30003 55125 70000;","Q01  00002PRCP24Q02  00002PRCP12"
"08213099999","2010-08-16T09:00:00","4","40.95","-4.1333333","1005.0","SEGOVIA, SP","FM-12","99999","V020","270,1,N,0010,1","22000,1,9,N","015000,1,N,1","+0204,1","+0052,1","99999,9",,,,,,,"03,99,1,01,1,00,1,01750,1,03,1,01,1",,,,,"99999,9,09056,1","1,1,002,1,+999,9","3,1548,9",,"SYN066AAXX  16094 08213 42765 32702 10204 20052 39056 48548 51002 81031;",
"08213099999","2010-08-16T12:00:00","4","40.95","-4.1333333","1005.0","SEGOVIA, SP","FM-12","99999","V020","300,1,N,0026,1","22000,1,9,N","015000,1,N,1","+0237,1","+0046,1","99999,9","06,0000,9,1",,,,,,"04,99,1,02,1,02,1,00800,1,03,1,01,1",,,,,"99999,9,09060,1","1,1,004,1,+999,9","3,1558,9",,"SYN082AAXX  16124 08213 12565 43005 10237 20046 39060 48558 51004 60001 82231 333 50580;","Q01  00002PRCP06"
"08213099999","2010-08-16T15:00:00","4","40.95","-4.1333333","1005.0","SEGOVIA, SP","FM-12","99999","V020","280,1,N,0031,1","03600,1,9,N","012000,1,N,1","+0253,1","+0065,1","99999,9",,,,"1,1,03,1","1,1,03,1","02,1,+00600,1,09,1","06,99,1,03,1,09,1,00800,1,04,1,02,1",,,,,"99999,9,09049,1","7,1,011,1,+999,9","3,1551,9","17,1","SYN082AAXX  16154 08213 41562 62806 10253 20065 39049 48551 57011 71711 83942 333 82920;",
"08213099999","2010-08-16T18:00:00","4","40.95","-4.1333333","1005.0","SEGOVIA, SP","FM-12","99999","V020","140,1,N,0036,1","09000,1,9,N","020000,1,N,1","+0207,1","+0102,1","99999,9","12,0003,9,1",,,"9,1,06,1","6,1,06,1","01,1,+00600,1,09,1","05,99,1,02,1,03,1,00800,1,03,1,01,1",,,,"120,M,+0280,1","99999,9,09057,1","0,1,008,1,+999,9","3,1550,9","01,1","SYN094AAXX  16184 08213 11570 51407 10207 20102 39057 48550 50008 69932 70196 82331 333 10280 81920;",
"08213099999","2010-08-17T06:00:00","4","40.95","-4.1333333","1005.0","SEGOVIA, SP","FM-12","99999","V020","030,1,N,0010,1","22000,1,9,N","012000,1,N,1","+0145,1","+0111,1","99999,9","12,0000,9,1","24,0003,9,1",,,,,"02,99,1,01,1,00,1,01750,1,03,1,01,1","0522,9","09,9","999,+0070,9","999,N,+0138,1","99999,9,09062,1","5,1,000,1,+999,9","3,1544,9",,"SYN100AAXX  17064 08213 12762 20302 10145 20111 39062 48544 55000 60002 81031 333 20138 31007 55087 70003;","Q01  00002PRCP12"
"08213099999","2010-08-17T09:00:00","4","40.95","-4.1333333","1005.0","SEGOVIA, SP","FM-12","99999","V020","340,1,N,0021,1","22000,1,9,N","010000,1,N,1","+0204,1","+0134,1","99999,9",,,,,,,"03,99,1,01,1,01,1,00800,1,04,1,09,1",,,,,"99999,9,09071,1","1,1,009,1,+999,9","3,1564,9",,"SYN066AAXX  17094 08213 42560 33404 10204 20134 39071 48564 51009 81149;",
"08213099999","2010-08-17T12:00:00","4","40.95","-4.1333333","1005.0","SEGOVIA, SP","FM-12","99999","V020","180,1,N,0010,1","03600,1,9,N","012000,1,N,1","+0240,1","+0107,1","99999,9","06,0000,9,1",,,,,,"07,99,1,02,1,08,1,00800,1,03,1,09,1",,,,,"99999,9,09065,1","8,1,006,1,+999,9","3,1564,9",,"SYN082AAXX  17124 08213 12562 71802 10240 20107 39065 48564 58006 60001 82839 333 50340;","Q01  00002PRCP06"
"08213099999","2010-08-17T15:00:00","4","40.95","-4.1333333","1005.0","SEGOVIA, SP","FM-12","99999","V020","360,1,N,0010,1","03600,1,9,N","010000,1,N,1","+0260,1","+0076,1","99999,9",,,,,,,"06,99,1,02,1,08,1,00800,1,03,1,09,1",,,,,"99999,9,09049,1","7,1,016,1,+999,9","3,1552,9",,"SYN066AAXX  17154 08213 42560 63602 10260 20076 39049 48552 57016 82839;",
"08213099999","2010-08-17T18:00:00","4","40.95","-4.1333333","1005.0","SEGOVIA, SP","FM-12","99999","V020","200,1,N,0057,1","03600,1,9,N","012000,1,N,1","+0248,1","+0079,1","99999,9","12,0000,9,1",,,,,"01,1,+00600,1,09,1","06,99,1,03,1,03,1,00800,1,04,1,02,1",,,,"120,M,+0286,1","99999,9,09041,1","6,1,008,1,+999,9","3,1542,9",,"SYN088AAXX  17184 08213 12562 62011 10248 20079 39041 48542 56008 60002 83342 333 10286 81920;","Q01  00002PRCP12"
"08213099999","2010-08-18T06:00:00","4","40.95","-4.1333333","1005.0","SEGOVIA, SP","FM-12","99999","V020","140,1,N,0021,1","22000,1,9,N","005000,1,N,1","+0152,1","+0096,1","99999,9","12,0000,9,1","24,0000,9,1",,"0,1,06,1","0,1,06,1",,"03,99,1,02,1,00,1,01750,1,03,1,02,1","0456,9","01,9","999,+0040,9","999,N,+0145,1","99999,9,09035,1","7,1,005,1,+999,9","3,1520,9","05,1","SYN106AAXX  18064 08213 11750 31404 10152 20096 39035 48520 57005 60002 70500 82032 333 20145 30004 55076 70000;","Q01  00002PRCP24Q02  00002PRCP12"
"08213099999","2010-08-18T09:00:00","4","40.95","-4.1333333","1005.0","SEGOVIA, SP","FM-12","99999","V020","250,1,N,0026,1","22000,1,9,N","003000,1,N,1","+0222,1","+0087,1","99999,9",,,,"0,1,03,1","0,1,03,1",,"02,99,1,01,1,00,1,01750,1,05,1,02,1",,,,,"99999,9,09033,1","7,1,002,1,+999,9","3,1530,9","05,1","SYN072AAXX  18094 08213 41730 22505 10222 20087 39033 48530 57002 70500 81052;",
"08213099999","2010-08-18T12:00:00","4","40.95","-4.1333333","1005.0","SEGOVIA, SP","FM-12","99999","V020","290,1,N,0046,1","22000,1,9,N","005000,1,N,1","+0273,1","+0082,1","99999,9","06,0000,9,1",,,"0,1,06,1","0,1,06,1",,"03,99,1,02,1,00,1,01750,1,05,1,02,1",,,,,"99999,9,09027,1","7,1,006,1,+999,9","3,1533,9","05,1","SYN088AAXX  18124 08213 11750 32909 10273 20082 39027 48533 57006 60001 70500 82052 333 50350;","Q01  00002PRCP06"
"08213099999","2010-08-18T15:00:00","4","40.95","-4.1333333","1005.0","SEGOVIA, SP","FM-12","99999","V020","120,1,N,0051,1","09000,1,9,N","005000,1,N,1","+0273,1","+0092,1","99999,9",,,,"1,1,03,1","1,1,03,1",,"05,99,1,03,1,00,1,01750,1,05,1,02,1",,,,,"99999,9,09007,1","7,1,020,1,+999,9","3,1514,9","05,1","SYN072AAXX  18154 08213 41750 51210 10273 20092 39007 48514 57020 70511 83052;",
"08213099999","2010-08-18T18:00:00","4","40.95","-4.1333333","1005.0","SEGOVIA, SP","FM-12","99999","V020","180,1,N,0026,1","03600,1,9,N","008000,1,N,1","+0254,1","+0101,1","99999,9","12,0000,9,1",,,"2,1,06,1","2,1,06,1",,"06,99,1,02,1,05,1,00800,1,03,1,02,1",,,,"999,M,+0301,1","99999,9,09001,1","6,1,006,1,+999,9","3,1505,9","05,1","SYN088AAXX  18184 08213 11558 61805 10254 20101 39001 48505 56006 60002 70522 82532 333 10301;","Q01  00002PRCP12"
"08213099999","2010-08-19T06:00:00","4","40.95","-4.1333333","1005.0","SEGOVIA, SP","FM-12","99999","V020","170,1,N,0021,1","22000,1,9,N","018000,1,N,1","+0163,1","+0115,1","99999,9","12,0000,9,1","24,0000,9,1",,,,,"02,99,1,01,1,05,1,00800,1,03,1,02,1","0570,9","01,9","999,+0080,9","999,N,+0156,1","99999,9,09017,1","4,1,000,1,+999,9","3,1505,9",,"SYN100AAXX  19064 08213 12568 21704 10163 20115 39017 48505 54000 60002 81532 333 20156 30008 55095 70000;","Q01  00002PRCP24Q02  00002PRCP12"
"08213099999","2010-08-19T09:00:00","4","40.95","-4.1333333","1005.0","SEGOVIA, SP","FM-12","99999","V020","230,1,N,0015,1","22000,1,9,N","015000,1,N,1","+0215,1","+0129,1","99999,9",,,,,,,"02,99,1,01,1,05,1,00800,1,03,1,00,1",,,,,"99999,9,09020,1","1,1,003,1,+999,9","3,1517,9",,"SYN066AAXX  19094 08213 42565 22303 10215 20129 39020 48517 51003 81530;",
"08213099999","2010-08-19T12:00:00","4","40.95","-4.1333333","1005.0","SEGOVIA, SP","FM-12","99999","V020","160,1,N,0057,1","00750,1,C,N","008000,1,N,1","+0272,1","+0095,1","99999,9","06,0000,9,1",,,"2,1,06,1","2,1,06,1","03,1,+00600,1,09,1","06,99,1,06,1,09,1,00800,1,00,1,00,1",,,,,"99999,9,09021,1","3,1,001,1,+999,9","3,1528,9","15,1","SYN094AAXX  19124 08213 11558 61611 10272 20095 39021 48528 53001 60001 71522 86900 333 50470 83920;","Q01  00002PRCP06"
"08213099999","2010-08-19T15:00:00","4","40.95","-4.1333333","1005.0","SEGOVIA, SP","FM-12","99999","V020","080,1,N,0031,1","03600,1,9,N","015000,1,N,1","+0257,1","+0125,1","99999,9",,,,"8,1,03,1","2,1,03,1",,"06,99,1,02,1,05,1,00800,1,06,1,00,1",,,,,"99999,9,09018,1","8,1,003,1,+999,9","3,1523,9","03,1","SYN072AAXX  19154 08213 41565 60806 10257 20125 39018 48523 58003 70382 82560;",
"08213099999","2010-08-19T18:00:00","4","40.95","-4.1333333","1005.0","SEGOVIA, SP","FM-12","99999","V020","120,1,N,0041,1","03600,1,9,N","018000,1,N,1","+0252,1","+0106,1","99999,9","12,0000,9,1",,,,,"01,1,+00600,1,09,1","05,99,1,03,1,09,1,00800,1,06,1,01,1",,,,"120,M,+0299,1","99999,9,09022,1","3,1,004,1,+999,9","3,1525,9",,"SYN088AAXX  19184 08213 12568 51208 10252 20106 39022 48525 53004 69902 83961 333 10299 81920;","Q01  00002PRCP12"
"08213099999","2010-08-20T06:00:00","4","40.95","-4.1333333","1005.0","SEGOVIA, SP","FM-12","99999","V020","080,1,N,0021,1","22000,1,9,N","020000,1,N,1","+0168,1","+0106,1","99999,9","12,0000,9,1","24,0000,9,1",,,,,"01,99,1,00,1,00,1,99999,9,00,1,01,1","0612,9","01,9","999,+0050,9","999,N,+0164,1","99999,9,09072,1","2,1,010,1,+999,9","3,1557,9",,"SYN100AAXX  20064 08213 12970 10804 10168 20106 39072 48557 52010 60002 80001 333 20164 30005 55102 70000;","Q01  00002PRCP24Q02  00002PRCP12"
"08213099999","2010-08-20T09:00:00","4","40.95","-4.1333333","1005.0","SEGOVIA, SP","FM-12","99999","V020","290,1,N,0021,1","22000,1,9,N","020000,1,N,1","+0240,1","+0096,1","99999,9",,,,,,,"01,99,1,00,1,00,1,99999,9,00,1,01,1",,,,,"99999,9,09084,1","2,1,012,1,+999,9","3,1582,9",,"SYN066AAXX  20094 08213 42970 12904 10240 20096 39084 48582 52012 80001;",
"08213099999","2010-08-20T12:00:00","4","40.95","-4.1333333","1005.0","SEGOVIA, SP","FM-12","99999","V020","260,1,N,0036,1","22000,1,9,N","020000,1,N,1","+0297,1","+0093,1","99999,9","06,0000,9,1",,,,,,"01,99,1,01,1,05,1,00800,1,00,1,00,1",,,,,"99999,9,09088,1","1,1,004,1,+999,9","3,1597,9",,"SYN082AAXX  20124 08213 12570 12607 10297 20093 39088 48597 51004 60001 81500 333 50460;","Q01  00002PRCP06"
"08213099999","2010-08-20T15:00:00","4","40.95","-4.1333333","1005.0","SEGOVIA, SP","FM-12","99999","V020","230,1,N,0036,1","22000,1,9,N","020000,1,N,1","+0322,1","+0097,1","99999,9",,,,,,,"02,99,1,02,1,05,1,00800,1,00,1,00,1",,,,,"99999,9,09085,1","7,1,003,1,+999,9","3,1599,9",,"SYN066AAXX  20154 08213 42570 22307 10322 20097 39085 48599 57003 82500;",
"08213099999","2010-08-20T18:00:00","4","40.95","-4.1333333","1005.0","SEGOVIA, SP","FM-12","99999","V020","180,1,N,0021,1","22000,1,9,N","018000,1,N,1","+0294,1","+0115,1","99999,9","12,0000,9,1",,,,,,"02,99,1,02,1,05,1,00800,1,00,1,00,1",,,,"999,M,+0335,1","99999,9,09085,1","4,1,000,1,+999,9","3,1594,9",,"SYN082AAXX  20184 08213 12568 21804 10294 20115 39085 48594 54000 60002 82500 333 10335;","Q01  00002PRCP12"
"08213099999","2010-08-21T06:00:00","4","40.95","-4.1333333","1005.0","SEGOVIA, SP","FM-12","99999","V020","120,1,N,0026,1","22000,1,9,N","020000,1,N,1","+0204,1","+0105,1","99999,9","12,0000,9,1","24,0000,9,1",,,,"00,1,+99999,9,99,9","00,99,1,00,1,00,1,99999,9,00,1,00,1","0696,9","01,9","999,+0130,9","999,N,+0200,1","99999,9,09118,1","3,1,002,1,+999,9","3,1607,9",,"SYN094AAXX  21064 08213 12970 01205 10204 20105 39118 48607 53002 60002 333 20200 30013 55116 70000;","Q01  00002PRCP24Q02  00002PRCP12"
"08213099999","2010-08-21T09:00:00","4","40.95","-4.1333333","1005.0","SEGOVIA, SP","FM-12","99999","V020","260,1,N,0021,1","22000,1,9,N","020000,1,N,1","+0280,1","+0128,1","99999,9",,,,,,"00,1,+99999,9,99,9","00,99,1,00,1,00,1,99999,9,00,1,00,1",,,,,"99999,9,09121,1","2,1,003,1,+999,9","3,1626,9",,"SYN060AAXX  21094 08213 42970 02604 10280 20128 39121 48626 52003;",
"08213099999","2010-08-21T12:00:00","4","40.95","-4.1333333","1005.0","SEGOVIA, SP","FM-12","99999","V020","150,1,N,0015,1","22000,1,9,N","020000,1,N,1","+0324,1","+0092,1","99999,9","06,0000,9,1",,,,,,"01,99,1,01,1,01,1,00800,1,00,1,00,1",,,,,"99999,9,09121,1","4,1,000,1,+999,9","3,1634,9",,"SYN082AAXX  21124 08213 12570 11503 10324 20092 39121 48634 54000 60001 81100 333 50600;","Q01  00002PRCP06"
"08213099999","2010-08-21T15:00:00","4","40.95","-4.1333333","1005.0","SEGOVIA, SP","FM-12","99999","V020","190,1,N,0021,1","22000,1,9,N","020000,1,N,1","+0330,1","+0091,1","99999,9",,,,,,,"04,99,1,01,1,01,1,00800,1,00,1,04,1",,,,,"99999,9,09109,1","7,1,012,1,+999,9","3,1624,9",,"SYN066AAXX  21154 08213 42570 41904 10330 20091 39109 48624 57012 81104;",
"08213099999","2010-08-21T18:00:00","4","40.95","-4.1333333","1005.0","SEGOVIA, SP","FM-12","99999","V020","190,1,N,0051,1","99999,9,9,N","020000,1,N,1","+0304,1","+0087,1","99999,9","12,0000,9,1",,,,,,"05,99,1,00,1,00,1,99999,9,00,1,04,1",,,,"999,M,+0342,1","99999,9,09105,1","6,1,004,1,+999,9","3,1615,9",,"SYN082AAXX  21184 08213 12970 51910 10304 20087 39105 48615 56004 60002 80004 333 10342;","Q01  00002PRCP12"
"08213099999","2010-08-22T06:00:00","4","40.95","-4.1333333","1005.0","SEGOVIA, SP","FM-12","99999","V020","090,1,N,0021,1","22000,1,9,N","020000,1,N,1","+0218,1","+0097,1","99999,9","12,0000,9,1","24,0000,9,1",,,,,"01,99,1,01,1,00,1,01750,1,06,1,00,1","0702,9","01,9","999,+0150,9","999,N,+0218,1","99999,9,09076,1","6,1,003,1,+999,9","3,1570,9",,"SYN100AAXX  22064 08213 12770 10904 10218 20097 39076 48570 56003 60002 81060 333 20218 30015 55117 70000;","Q01  00002PRCP24Q02  00002PRCP12"
"08213099999","2010-08-22T09:00:00","4","40.95","-4.1333333","1005.0","SEGOVIA, SP","FM-12","99999","V020","230,1,N,0031,1","22000,1,9,N","020000,1,N,1","+0294,1","+0110,1","99999,9",,,,,,,"01,99,1,01,1,01,1,00800,1,00,1,00,1",,,,,"99999,9,09079,1","2,1,003,1,+999,9","3,1588,9",,"SYN066AAXX  22094 08213 42570 12306 10294 20110 39079 48588 52003 81100;",
"08213099999","2010-08-22T12:00:00","4","40.95","-4.1333333","1005.0","SEGOVIA, SP","FM-12","99999","V020","230,1,N,0041,1","22000,1,9,N","020000,1,N,1","+0322,1","+0078,1","99999,9","06,0000,9,1",,,,,,"05,99,1,04,1,02,1,00800,1,00,1,01,1",,,,,"99999,9,09067,1","8,1,012,1,+999,9","3,1581,9",,"SYN082AAXX  22124 08213 12570 52308 10322 20078 39067 48581 58012 60001 84201 333 50780;","Q01  00002PRCP06"
"08213099999","2010-08-22T15:00:00","4","40.95","-4.1333333","1005.0","SEGOVIA, SP","FM-12","99999","V020","210,1,N,0046,1","00750,1,9,N","020000,1,N,1","+0322,1","+0097,1","99999,9",,,,,,,"07,99,1,05,1,02,1,00800,1,00,1,01,1",,,,,"99999,9,09049,1","7,1,018,1,+999,9","3,1564,9",,"SYN066AAXX  22154 08213 42570 72109 10322 20097 39049 48564 57018 85201;",
"08213099999","2010-08-22T18:00:00","4","40.95","-4.1333333","1005.0","SEGOVIA, SP","FM-12","99999","V020","290,1,N,0051,1","22000,1,9,N","020000,1,N,1","+0304,1","+0070,1","99999,9","12,0000,9,1",,,,,,"06,99,1,01,1,02,1,00800,1,00,1,04,1",,,,"999,M,+0352,1","99999,9,09041,1","6,1,008,1,+999,9","3,1552,9",,"SYN082AAXX  22184 08213 12570 62910 10304 20070 39041 48552 56008 60002 81204 333 10352;","Q01  00002PRCP12"
"08213099999","2010-08-23T06:00:00","4","40.95","-4.1333333","1005.0","SEGOVIA, SP","FM-12","99999","V020","070,1,N,0015,1","22000,1,9,N","015000,1,N,1","+0164,1","+0098,1","99999,9","12,0000,9,1","24,0000,9,1",,,,,"02,99,1,01,1,00,1,01750,1,04,1,01,1","0672,9","01,9","999,+0080,9","999,N,+0160,1","99999,9,09030,1","6,1,007,1,+999,9","3,1517,9",,"SYN100AAXX  23064 08213 12765 20703 10164 20098 39030 48517 56007 60002 81041 333 20160 30008 55112 70000;","Q01  00002PRCP24Q02  00002PRCP12"
"08213099999","2010-08-23T09:00:00","4","40.95","-4.1333333","1005.0","SEGOVIA, SP","FM-12","99999","V020","260,1,N,0051,1","22000,1,9,N","012000,1,N,1","+0234,1","+0098,1","99999,9",,,,,,,"01,99,1,00,1,00,1,99999,9,00,1,01,1",,,,,"99999,9,09030,1","0,1,000,1,+999,9","3,1530,9",,"SYN066AAXX  23094 08213 42962 12610 10234 20098 39030 48530 50000 80001;",
"08213099999","2010-08-23T12:00:00","4","40.95","-4.1333333","1005.0","SEGOVIA, SP","FM-12","99999","V020","230,1,N,0036,1","22000,1,9,N","020000,1,N,1","+0280,1","+0030,1","99999,9","06,0000,9,1",,,,,,"01,99,1,00,1,00,1,99999,9,00,1,01,1",,,,,"99999,9,09024,1","8,1,006,1,+999,9","3,1531,9",,"SYN082AAXX  23124 08213 12970 12307 10280 20030 39024 48531 58006 60001 80001 333 50830;","Q01  00002PRCP06"
"08213099999","2010-08-23T15:00:00","4","40.95","-4.1333333","1005.0","SEGOVIA, SP","FM-12","99999","V020","290,1,N,0067,1","22000,1,9,N","020000,1,N,1","+0303,1","+0049,1","99999,9",,,,,,,"01,99,1,00,1,00,1,99999,9,00,1,01,1",,,,,"99999,9,09010,1","7,1,014,1,+999,9","3,1522,9",,"SYN066AAXX  23154 08213 42970 12913 10303 20049 39010 48522 57014 80001;",
"08213099999","2010-08-23T18:00:00","4","40.95","-4.1333333","1005.0","SEGOVIA, SP","FM-12","99999","V020","290,1,N,0036,1","22000,1,9,N","020000,1,N,1","+0280,1","+0083,1","99999,9","12,0000,9,1",,,,,,"02,99,1,01,1,00,1,01750,1,04,1,01,1",,,,"999,M,+0314,1","99999,9,09010,1","4,1,000,1,+999,9","3,1518,9",,"SYN082AAXX  23184 08213 12770 22907 10280 20083 39010 48518 54000 60002 81041 333 10314;","Q01  00002PRCP12"
"08213099999","2010-08-24T06:00:00","4","40.95","-4.1333333","1005.0","SEGOVIA, SP","FM-12","99999","V020","280,1,N,0026,1","00420,1,9,N","008000,1,N,1","+0166,1","+0150,1","99999,9","12,0000,9,1","24,0000,9,1",,"2,1,06,1","2,1,06,1",,"07,99,1,05,1,05,1,00450,1,07,1,01,1","0762,9","09,9","999,+0150,9","999,N,+0166,1","99999,9,09043,1","3,1,003,1,+999,9","3,1531,9","10,1","SYN106AAXX  24064 08213 11458 72805 10166 20150 39043 48531 53003 60002 71022 85571 333 20166 31015 55127 70000;","Q01  00002PRCP24Q02  00002PRCP12"
"08213099999","2010-08-24T09:00:00","4","40.95","-4.1333333","1005.0","SEGOVIA, SP","FM-12","99999","V020","280,1,N,0031,1","01200,1,9,N","012000,1,N,1","+0192,1","+0142,1","99999,9",,,,,,,"05,99,1,05,1,08,1,00800,1,00,1,00,1",,,,,"99999,9,09055,1","1,1,012,1,+999,9","3,1547,9",,"SYN066AAXX  24094 08213 42562 52806 10192 20142 39055 48547 51012 85800;",
"08213099999","2010-08-24T12:00:00","4","40.95","-4.1333333","1005.0","SEGOVIA, SP","FM-12","99999","V020","290,1,N,0031,1","22000,1,9,N","020000,1,N,1","+0243,1","+0102,1","99999,9","06,0000,9,1",,,,,,"01,99,1,01,1,01,1,00800,1,00,1,00,1",,,,,"99999,9,09060,1","1,1,005,1,+999,9","3,1560,9",,"SYN082AAXX  24124 08213 12570 12906 10243 20102 39060 48560 51005 60001 81100 333 50760;","Q01  00002PRCP06"
"08213099999","2010-08-24T15:00:00","4","40.95","-4.1333333","1005.0","SEGOVIA, SP","FM-12","99999","V020","290,1,N,0036,1","22000,1,9,N","025000,1,N,1","+0268,1","+0096,1","99999,9",,,,,,,"01,99,1,01,1,01,1,00800,1,00,1,00,1",,,,,"99999,9,09054,1","8,1,006,1,+999,9","3,1559,9",,"SYN066AAXX  24154 08213 42575 12907 10268 20096 39054 48559 58006 81100;",
"08213099999","2010-08-24T18:00:00","4","40.95","-4.1333333","1005.0","SEGOVIA, SP","FM-12","99999","V020","270,1,N,0026,1","22000,1,9,N","025000,1,N,1","+0274,1","+0088,1","99999,9","12,0000,9,1",,,,,"00,1,+99999,9,99,9","00,99,1,00,1,00,1,99999,9,00,1,00,1",,,,"999,M,+0290,1","99999,9,09051,1","6,1,003,1,+999,9","3,1557,9",,"SYN076AAXX  24184 08213 12975 02705 10274 20088 39051 48557 56003 60002 333 10290;","Q01  00002PRCP12"
"08213099999","2010-08-25T06:00:00","4","40.95","-4.1333333","1005.0","SEGOVIA, SP","FM-12","99999","V020","070,1,N,0021,1","22000,1,9,N","016000,1,N,1","+0166,1","+0056,1","99999,9","12,0000,9,1","24,0000,9,1",,,,,"01,99,1,01,1,00,1,01750,1,04,1,00,1","0624,9","01,9","999,+0120,9","999,N,+0164,1","99999,9,09071,1","4,1,000,1,+999,9","3,1555,9",,"SYN100AAXX  25064 08213 12766 10704 10166 20056 39071 48555 54000 60002 81040 333 20164 30012 55104 70000;","Q01  00002PRCP24Q02  00002PRCP12"
"08213099999","2010-08-25T09:00:00","4","40.95","-4.1333333","1005.0","SEGOVIA, SP","FM-12","99999","V020","340,1,N,0010,1","22000,1,9,N","020000,1,N,1","+0260,1","+0076,1","99999,9",,,,,,,"01,99,1,00,1,00,1,99999,9,00,1,01,1",,,,,"99999,9,09075,1","3,1,004,1,+999,9","3,1577,9",,"SYN066AAXX  25094 08213 42970 13402 10260 20076 39075 48577 53004 80001;",
"08213099999","2010-08-25T12:00:00","4","40.95","-4.1333333","1005.0","SEGOVIA, SP","FM-12","99999","V020","230,1,N,0041,1","22000,1,9,N","020000,1,N,1","+0328,1","+0062,1","99999,9","06,0000,9,1",,,,,"00,1,+99999,9,99,9","00,99,1,00,1,00,1,99999,9,00,1,00,1",,,,,"99999,9,09070,1","8,1,005,1,+999,9","3,1585,9",,"SYN076AAXX  25124 08213 12970 02308 10328 20062 39070 48585 58005 60001 333 50570;","Q01  00002PRCP06"
"08213099999","2010-08-25T15:00:00","4","40.95","-4.1333333","1005.0","SEGOVIA, SP","FM-12","99999","V020","170,1,N,0046,1","22000,1,9,N","020000,1,N,1","+0334,1","+0059,1","99999,9",,,,,,,"01,99,1,01,1,01,1,00800,1,00,1,00,1",,,,,"99999,9,09059,1","7,1,011,1,+999,9","3,1575,9",,"SYN066AAXX  25154 08213 42570 11709 10334 20059 39059 48575 57011 81100;",
"08213099999","2010-08-25T18:00:00","4","40.95","-4.1333333","1005.0","SEGOVIA, SP","FM-12","99999","V020","160,1,N,0057,1","22000,1,9,N","020000,1,N,1","+0320,1","+0062,1","99999,9","12,0000,9,1",,,,,,"01,99,1,01,1,01,1,00800,1,00,1,00,1",,,,"999,M,+0352,1","99999,9,09054,1","7,1,005,1,+999,9","3,1568,9",,"SYN082AAXX  25184 08213 12570 11611 10320 20062 39054 48568 57005 60002 81100 333 10352;","Q01  00002PRCP12"
"08213099999","2010-08-26T06:00:00","4","40.95","-4.1333333","1005.0","SEGOVIA, SP","FM-12","99999","V020","210,1,N,0041,1","22000,1,9,N","020000,1,N,1","+0264,1","+0059,1","99999,9","12,0000,9,1","24,0000,9,1",,,,,"01,99,1,00,1,00,1,99999,9,00,1,02,1","0762,9","01,9","999,+0130,9","999,N,+0220,1","99999,9,09042,1","8,1,004,1,+999,9","3,1546,9",,"SYN100AAXX  26064 08213 12970 12108 10264 20059 39042 48546 58004 60002 80002 333 20220 30013 55127 70000;","Q01  00002PRCP24Q02  00002PRCP12"
"08213099999","2010-08-26T09:00:00","4","40.95","-4.1333333","1005.0","SEGOVIA, SP","FM-12","99999","V020","240,1,N,0072,1","22000,1,9,N","020000,1,N,1","+0316,1","+0027,1","99999,9",,,,,,,"01,99,1,00,1,00,1,99999,9,00,1,04,1",,,,,"99999,9,09046,1","3,1,004,1,+999,9","3,1559,9",,"SYN066AAXX  26094 08213 42970 12414 10316 20027 39046 48559 53004 80004;",
"08213099999","2010-08-26T12:00:00","4","40.95","-4.1333333","1005.0","SEGOVIA, SP","FM-12","99999","V020","220,1,N,0072,1","22000,1,9,N","020000,1,N,1","+0344,1","+0031,1","99999,9","06,0000,9,1",,,,,,"01,99,1,00,1,00,1,99999,9,00,1,04,1",,,,,"99999,9,09048,1","1,1,002,1,+999,9","3,1566,9",,"SYN082AAXX  26124 08213 12970 12214 10344 20031 39048 48566 51002 60001 80004 333 50700;","Q01  00002PRCP06"
"08213099999","2010-08-26T15:00:00","4","40.95","-4.1333333","1005.0","SEGOVIA, SP","FM-12","99999","V020","270,1,N,0134,1","09000,1,9,N","020000,1,N,1","+0352,1","+0015,1","99999,9",,,,,,,"07,99,1,02,1,02,1,00800,1,00,1,06,1",,,,,"99999,9,09037,1","8,1,011,1,+999,9","3,1556,9",,"SYN066AAXX  26154 08213 42570 72726 10352 20015 39037 48556 58011 82206;",
"08213099999","2010-08-26T18:00:00","4","40.95","-4.1333333","1005.0","SEGOVIA, SP","FM-12","99999","V020","280,1,N,0067,1","22000,1,9,N","020000,1,N,1","+0330,1","+0020,1","99999,9","12,0000,9,1",,,,,,"03,99,1,00,1,00,1,99999,9,00,1,06,1",,,,"999,M,+0370,1","99999,9,09033,1","8,1,004,1,+999,9","3,1548,9",,"SYN082AAXX  26184 08213 12970 32813 10330 20020 39033 48548 58004 60002 80006 333 10370;","Q01  00002PRCP12"
"08213099999","2010-08-27T06:00:00","4","40.95","-4.1333333","1005.0","SEGOVIA, SP","FM-12","99999","V020","180,1,N,0021,1","22000,1,9,N","020000,1,N,1","+0166,1","+0083,1","99999,9","12,0000,9,1","24,0000,9,1",,,,,"03,99,1,01,1,05,1,00800,1,04,1,01,1","0744,9","01,9","999,+0090,9","999,N,+0162,1","99999,9,09055,1","3,1,005,1,+999,9","3,1541,9",,"SYN100AAXX  27064 08213 12570 31804 10166 20083 39055 48541 53005 60002 81541 333 20162 30009 55124 70000;","Q01  00002PRCP24Q02  00002PRCP12"
"08213099999","2010-08-27T09:00:00","4","40.95","-4.1333333","1005.0","SEGOVIA, SP","FM-12","99999","V020","170,1,N,0026,1","22000,1,9,N","018000,1,N,1","+0208,1","+0147,1","99999,9",,,,,,,"03,99,1,02,1,05,1,00800,1,00,1,01,1",,,,,"99999,9,09058,1","1,1,003,1,+999,9","3,1553,9",,"SYN066AAXX  27094 08213 42568 31705 10208 20147 39058 48553 51003 82501;",
"08213099999","2010-08-27T12:00:00","4","40.95","-4.1333333","1005.0","SEGOVIA, SP","FM-12","99999","V020","300,1,N,0021,1","22000,1,9,N","020000,1,N,1","+0264,1","+0109,1","99999,9","06,0000,9,1",,,,,,"01,99,1,00,1,00,1,99999,9,00,1,02,1",,,,,"99999,9,09060,1","0,1,002,1,+999,9","3,1564,9",,"SYN082AAXX  27124 08213 12970 13004 10264 20109 39060 48564 50002 60001 80002 333 51130;","Q01  00002PRCP06"
"08213099999","2010-08-27T15:00:00","4","40.95","-4.1333333","1005.0","SEGOVIA, SP","FM-12","99999","V020","290,1,N,0067,1","22000,1,9,N","020000,1,N,1","+0285,1","+0041,1","99999,9",,,,,,"00,1,+99999,9,99,9","00,99,1,00,1,00,1,99999,9,00,1,00,1",,,,,"99999,9,09052,1","7,1,008,1,+999,9","3,1559,9",,"SYN060AAXX  27154 08213 42970 02913 10285 20041 39052 48559 57008;",
"08213099999","2010-08-27T18:00:00","4","40.95","-4.1333333","1005.0","SEGOVIA, SP","FM-12","99999","V020","280,1,N,0041,1","22000,1,9,N","020000,1,N,1","+0276,1","+0026,1","99999,9","12,0000,9,1",,,,,"00,1,+99999,9,99,9","00,99,1,00,1,00,1,99999,9,00,1,00,1",,,,"999,M,+0297,1","99999,9,09050,1","6,1,002,1,+999,9","3,1555,9",,"SYN076AAXX  27184 08213 12970 02808 10276 20026 39050 48555 56002 60002 333 10297;","Q01  00002PRCP12"
"08213099999","2010-08-28T06:00:00","4","40.95","-4.1333333","1005.0","SEGOVIA, SP","FM-12","99999","V020","070,1,N,0015,1","22000,1,9,N","020000,1,N,1","+0144,1","+0041,1","99999,9","12,0000,9,1","24,0000,9,1",,,,"00,1,+99999,9,99,9","00,99,1,00,1,00,1,99999,9,00,1,00,1","0624,9","01,9","999,+0040,9","999,N,+0140,1","99999,9,09064,1","5,1,000,1,+999,9","3,1544,9",,"SYN094AAXX  28064 08213 12970 00703 10144 20041 39064 48544 55000 60002 333 20140 30004 55104 70000;","Q01  00002PRCP24Q02  00002PRCP12"
"08213099999","2010-08-28T09:00:00","4","40.95","-4.1333333","1005.0","SEGOVIA, SP","FM-12","99999","V020","310,1,N,0021,1","22000,1,9,N","018000,1,N,1","+0210,1","+0062,1","99999,9",,,,,,"00,1,+99999,9,99,9","00,99,1,00,1,00,1,99999,9,00,1,00,1",,,,,"99999,9,09072,1","2,1,008,1,+999,9","3,1564,9",,"SYN060AAXX  28094 08213 42968 03104 10210 20062 39072 48564 52008;",
"08213099999","2010-08-28T12:00:00","4","40.95","-4.1333333","1005.0","SEGOVIA, SP","FM-12","99999","V020","330,1,N,0041,1","22000,1,9,N","020000,1,N,1","+0266,1","+0055,1","99999,9","06,0000,9,1",,,,,"00,1,+99999,9,99,9","00,99,1,00,1,00,1,99999,9,00,1,00,1",,,,,"99999,9,09069,1","7,1,003,1,+999,9","3,1572,9",,"SYN076AAXX  28124 08213 12970 03308 10266 20055 39069 48572 57003 60001 333 50650;","Q01  00002PRCP06"
"08213099999","2010-08-28T15:00:00","4","40.95","-4.1333333","1005.0","SEGOVIA, SP","FM-12","99999","V020","350,1,N,0031,1","22000,1,9,N","020000,1,N,1","+0288,1","+0050,1","99999,9",,,,,,"00,1,+99999,9,99,9","00,99,1,00,1,00,1,99999,9,00,1,00,1",,,,,"99999,9,09059,1","7,1,010,1,+999,9","3,1567,9",,"SYN060AAXX  28154 08213 42970 03506 10288 20050 39059 48567 57010;",
"08213099999","2010-08-28T18:00:00","4","40.95","-4.1333333","1005.0","SEGOVIA, SP","FM-12","99999","V020","010,1,N,0021,1","22000,1,9,N","020000,1,N,1","+0268,1","+0020,1","99999,9","12,0000,9,1",,,,,"00,1,+99999,9,99,9","00,99,1,00,1,00,1,99999,9,00,1,00,1",,,,"999,M,+0294,1","99999,9,09056,1","6,1,003,1,+999,9","3,1560,9",,"SYN076AAXX  28184 08213 12970 00104 10268 20020 39056 48560 56003 60002 333 10294;","Q01  00002PRCP12"
"08213099999","2010-08-29T06:00:00","4","40.95","-4.1333333","1005.0","SEGOVIA, SP","FM-12","99999","V020","350,1,N,0010,1","22000,1,9,N","018000,1,N,1","+0132,1","+0030,1","99999,9","12,0000,9,1","24,0000,9,1",,,,"00,1,+99999,9,99,9","00,99,1,00,1,00,1,99999,9,00,1,00,1","0768,9","01,9","999,+0060,9","999,N,+0130,1","99999,9,09062,1","6,1,003,1,+999,9","3,1540,9",,"SYN094AAXX  29064 08213 12968 03502 10132 20030 39062 48540 56003 60002 333 20130 30006 55128 70000;","Q01  00002PRCP24Q02  00002PRCP12"
"08213099999","2010-08-29T09:00:00","4","40.95","-4.1333333","1005.0","SEGOVIA, SP","FM-12","99999","V020","250,1,N,0021,1","22000,1,9,N","015000,1,N,1","+0200,1","+0053,1","99999,9",,,,,,"00,1,+99999,9,99,9","00,99,1,00,1,00,1,99999,9,00,1,00,1",,,,,"99999,9,09069,1","2,1,007,1,+999,9","3,1560,9",,"SYN060AAXX  29094 08213 42965 02504 10200 20053 39069 48560 52007;",
"08213099999","2010-08-29T12:00:00","4","40.95","-4.1333333","1005.0","SEGOVIA, SP","FM-12","99999","V020","020,1,N,0010,1","22000,1,9,N","015000,1,N,1","+0260,1","+0050,1","99999,9","06,0000,9,1",,,,,"00,1,+99999,9,99,9","00,99,1,00,1,00,1,99999,9,00,1,00,1",,,,,"99999,9,09056,1","7,1,013,1,+999,9","3,1559,9",,"SYN076AAXX  29124 08213 12965 00202 10260 20050 39056 48559 57013 60001 333 50540;","Q01  00002PRCP06"
"08213099999","2010-08-29T15:00:00","4","40.95","-4.1333333","1005.0","SEGOVIA, SP","FM-12","99999","V020","300,1,N,0041,1","22000,1,9,N","020000,1,N,1","+0284,1","+0059,1","99999,9",,,,,,"00,1,+99999,9,99,9","00,99,1,00,1,00,1,99999,9,00,1,00,1",,,,,"99999,9,09054,1","7,1,002,1,+999,9","3,1561,9",,"SYN060AAXX  29154 08213 42970 03008 10284 20059 39054 48561 57002;",
"08213099999","2010-08-29T18:00:00","4","40.95","-4.1333333","1005.0","SEGOVIA, SP","FM-12","99999","V020","340,1,N,0031,1","22000,1,9,N","020000,1,N,1","+0270,1","+0014,1","99999,9","12,0000,9,1",,,,,"00,1,+99999,9,99,9","00,99,1,00,1,00,1,99999,9,00,1,00,1",,,,"999,M,+0296,1","99999,9,09048,1","7,1,006,1,+999,9","3,1552,9",,"SYN076AAXX  29184 08213 12970 03406 10270 20014 39048 48552 57006 60002 333 10296;","Q01  00002PRCP12"
"08213099999","2010-08-30T06:00:00","4","40.95","-4.1333333","1005.0","SEGOVIA, SP","FM-12","99999","V020","090,1,N,0015,1","22000,1,9,N","020000,1,N,1","+0136,1","+0034,1","99999,9","12,0000,9,1","24,0000,9,1",,,,"00,1,+99999,9,99,9","00,99,1,00,1,00,1,99999,9,00,1,00,1","0756,9","01,9","999,+0060,9","999,N,+0130,1","99999,9,09060,1","6,1,004,1,+999,9","3,1539,9",,"SYN094AAXX  30064 08213 12970 00903 10136 20034 39060 48539 56004 60002 333 20130 30006 55126 70000;","Q01  00002PRCP24Q02  00002PRCP12"
"08213099999","2010-08-30T09:00:00","4","40.95","-4.1333333","1005.0","SEGOVIA, SP","FM-12","99999","V020","350,1,N,0015,1","22000,1,9,N","015000,1,N,1","+0222,1","+0007,1","99999,9",,,,,,"00,1,+99999,9,99,9","00,99,1,00,1,00,1,99999,9,00,1,00,1",,,,,"99999,9,09064,1","3,1,004,1,+999,9","3,1559,9",,"SYN060AAXX  30094 08213 42965 03503 10222 20007 39064 48559 53004;",
"08213099999","2010-08-30T12:00:00","4","40.95","-4.1333333","1005.0","SEGOVIA, SP","FM-12","99999","V020","010,1,N,0036,1","22000,1,9,N","020000,1,N,1","+0270,1","-0100,1","99999,9","06,0000,9,1",,,,,"00,1,+99999,9,99,9","00,99,1,00,1,00,1,99999,9,00,1,00,1",,,,,"99999,9,09055,1","8,1,009,1,+999,9","3,1558,9",,"SYN076AAXX  30124 08213 12970 00107 10270 21100 39055 48558 58009 60001 333 50680;","Q01  00002PRCP06"
"08213099999","2010-08-30T15:00:00","4","40.95","-4.1333333","1005.0","SEGOVIA, SP","FM-12","99999","V020","360,1,N,0036,1","22000,1,9,N","020000,1,N,1","+0282,1","-0063,1","99999,9",,,,,,"00,1,+99999,9,99,9","00,99,1,00,1,00,1,99999,9,00,1,00,1",,,,,"99999,9,09042,1","7,1,013,1,+999,9","3,1548,9",,"SYN060AAXX  30154 08213 42970 03607 10282 21063 39042 48548 57013;",
"08213099999","2010-08-30T18:00:00","4","40.95","-4.1333333","1005.0","SEGOVIA, SP","FM-12","99999","V020","360,1,N,0036,1","22000,1,9,N","020000,1,N,1","+0267,1","-0062,1","99999,9","12,0000,9,1",,,,,"00,1,+99999,9,99,9","00,99,1,00,1,00,1,99999,9,00,1,00,1",,,,"999,M,+0295,1","99999,9,09034,1","6,1,008,1,+999,9","3,1538,9",,"SYN076AAXX  30184 08213 12970 03607 10267 21062 39034 48538 56008 60002 333 10295;","Q01  00002PRCP12"
"08213099999","2010-08-31T06:00:00","4","40.95","-4.1333333","1005.0","SEGOVIA, SP","FM-12","99999","V020","090,1,N,0026,1","22000,1,9,N","015000,1,N,1","+0158,1","+0033,1","99999,9","12,0000,9,1","24,0000,9,1",,,,,"01,99,1,00,1,00,1,99999,9,00,1,08,1","0738,9","01,9","999,+0070,9","999,N,+0147,1","99999,9,09019,1","6,1,008,1,+999,9","3,1505,9",,"SYN100AAXX  31064 08213 12965 10905 10158 20033 39019 48505 56008 60002 80008 333 20147 30007 55123 70000;","Q01  00002PRCP24Q02  00002PRCP12"
"08213099999","2010-08-31T09:00:00","4","40.95","-4.1333333","1005.0","SEGOVIA, SP","FM-12","99999","V020","260,1,N,0021,1","22000,1,9,N","015000,1,N,1","+0234,1","+0049,1","99999,9",,,,,,,"02,99,1,01,1,00,1,01750,1,04,1,08,1",,,,,"99999,9,09022,1","3,1,003,1,+999,9","3,1521,9",,"SYN066AAXX  31094 08213 42765 22604 10234 20049 39022 48521 53003 81048;",
"08213099999","2010-08-31T12:00:00","4","40.95","-4.1333333","1005.0","SEGOVIA, SP","FM-12","99999","V020","050,1,N,0026,1","22000,1,9,N","012000,1,N,1","+0284,1","+0033,1","99999,9","06,0000,9,1",,,,,,"06,99,1,02,1,00,1,01750,1,07,1,06,1",,,,,"99999,9,09011,1","8,1,011,1,+999,9","3,1519,9",,"SYN082AAXX  31124 08213 12762 60505 10284 20033 39011 48519 58011 60001 82076 333 50620;","Q01  00002PRCP06"
"08213099999","2010-08-31T15:00:00","4","40.95","-4.1333333","1005.0","SEGOVIA, SP","FM-12","99999","V020","270,1,N,0026,1","22000,1,9,N","012000,1,N,1","+0300,1","+0046,1","99999,9",,,,,,,"06,99,1,02,1,00,1,01750,1,07,1,06,1",,,,,"99999,9,08993,1","7,1,018,1,+999,9","3,1504,9",,"SYN066AAXX  31154 08213 42762 62705 10300 20046 38993 48504 57018 82076;",
"08213099999","2010-08-31T18:00:00","4","40.95","-4.1333333","1005.0","SEGOVIA, SP","FM-12","99999","V020","040,1,N,0015,1","22000,1,9,N","012000,1,N,1","+0282,1","+0057,1","99999,9","12,0000,9,1",,,,,,"06,99,1,03,1,00,1,01750,1,07,1,06,1",,,,"999,M,+0317,1","99999,9,08988,1","8,1,005,1,+999,9","3,1497,9",,"SYN082AAXX  31184 08213 12762 60403 10282 20057 38988 48497 58005 60002 83076 333 10317;","Q01  00002PRCP12"
"08213099999","2010-09-01T06:00:00","4","40.95","-4.1333333","1005.0","SEGOVIA, SP","FM-12","99999","V020","300,1,N,0036,1","00750,1,C,N","003000,1,N,1","+0151,1","+0122,1","99999,9","12,0099,9,1","24,0104,9,1",,"2,1,06,1","2,1,06,1","04,1,+00600,1,09,1","07,99,1,05,1,09,1,00800,1,06,1,99,9","0630,9","11,9","999,+0110,9","999,N,+0147,1","99999,9,09000,1","3,1,010,1,+999,9","3,1488,9","97,1","SYN112AAXX  01064 08213 11530 73007 10151 20122 39000 48488 53010 60102 79722 8596/ 333 20147 32011 55105 70103 84920;",
"08213099999","2010-09-01T09:00:00","4","40.95","-4.1333333","1005.0","SEGOVIA, SP","FM-12","99999","V020","080,1,N,0057,1","03600,1,9,N","015000,1,N,1","+0158,1","+0140,1","99999,9",,,,"9,1,03,1","8,1,03,1","04,1,+00600,1,09,1","08,99,1,04,1,09,1,00800,1,06,1,99,9",,,,,"99999,9,09000,1","0,1,000,1,+999,9","3,1489,9","60,1","SYN082AAXX  01094 08213 41565 80811 10158 20140 39000 48489 50000 76098 8496/ 333 84920;",
"08213099999","2010-09-01T12:00:00","4","40.95","-4.1333333","1005.0","SEGOVIA, SP","FM-12","99999","V020","350,1,N,0021,1","03600,1,9,N","015000,1,N,1","+0164,1","+0148,1","99999,9","06,0160,9,1",,,"9,1,06,1","8,1,06,1",,"08,99,1,04,1,05,1,00800,1,06,1,99,9",,,,,"99999,9,09004,1","0,1,004,1,+999,9","3,1494,9","02,1","SYN088AAXX  01124 08213 11565 83504 10164 20148 39004 48494 50004 60161 70298 8456/ 333 50700;",
"08213099999","2010-09-01T15:00:00","4","40.95","-4.1333333","1005.0","SEGOVIA, SP","FM-12","99999","V020","140,1,N,0031,1","00750,1,C,N","003000,1,N,1","+0217,1","+0120,1","99999,9",,,,"8,1,03,1","6,1,03,1","01,1,+00600,1,09,1","08,99,1,07,1,09,1,00800,1,06,1,99,9",,,,,"99999,9,08987,1","6,1,017,1,+999,9","3,1486,9","16,1","SYN082AAXX  01154 08213 41530 81406 10217 20120 38987 48486 56017 71686 8796/ 333 81920;",
"08213099999","2010-09-01T18:00:00","4","40.95","-4.1333333","1005.0","SEGOVIA, SP","FM-12","99999","V020","290,1,N,0062,1","00750,1,C,N","012000,1,N,1","+0193,1","+0152,1","99999,9","12,0160,9,1",,,"6,1,06,1","2,1,06,1","02,1,+00600,1,09,1","08,99,1,06,1,09,1,00800,1,06,1,99,9",,,,"120,M,+0224,1","99999,9,08992,1","3,1,005,1,+999,9","3,1488,9","21,1","SYN094AAXX  01184 08213 11562 82912 10193 20152 38992 48488 53005 60162 72162 8696/ 333 10224 82920;",
"08213099999","2010-09-02T06:00:00","4","40.95","-4.1333333","1005.0","SEGOVIA, SP","FM-12","99999","V020","140,1,N,0010,1","22000,1,9,N","010000,1,N,1","+0136,1","+0122,1","99999,9","12,0000,2,1","24,0163,9,1",,,,,"04,99,1,04,1,05,1,00800,1,00,1,00,1","0108,9","09,9","999,+0070,9","999,N,+0126,1","99999,9,09007,1","3,1,005,1,+999,9","3,1491,9",,"SYN100AAXX  02064 08213 12560 41402 10136 20122 39007 48491 53005 60002 84500 333 20126 31007 55018 70163;",
"08213099999","2010-09-02T09:00:00","4","40.95","-4.1333333","1005.0","SEGOVIA, SP","FM-12","99999","V020","290,1,N,0015,1","00750,1,9,N","012000,1,N,1","+0162,1","+0124,1","99999,9",,,,,,,"08,99,1,08,1,05,1,00800,1,99,9,99,9",,,,,"99999,9,09020,1","2,1,013,1,+999,9","3,1508,9",,"SYN066AAXX  02094 08213 42562 82903 10162 20124 39020 48508 52013 885//;",
"08213099999","2010-09-02T12:00:00","4","40.95","-4.1333333","1005.0","SEGOVIA, SP","FM-12","99999","V020","290,1,N,0031,1","22000,1,9,N","012000,1,N,1","+0202,1","+0139,1","99999,9","06,0000,9,1",,,,,,"02,99,1,02,1,05,1,00800,1,00,1,00,1",,,,,"99999,9,09026,1","1,1,006,1,+999,9","3,1521,9",,"SYN082AAXX  02124 08213 12562 22906 10202 20139 39026 48521 51006 60001 82500 333 50130;","Q01  00002PRCP06"
"08213099999","2010-09-02T15:00:00","4","40.95","-4.1333333","1005.0","SEGOVIA, SP","FM-12","99999","V020","340,1,N,0021,1","22000,1,9,N","018000,1,N,1","+0244,1","+0124,1","99999,9",,,,,,,"02,99,1,02,1,05,1,00800,1,00,1,00,1",,,,,"99999,9,09022,1","8,1,004,1,+999,9","3,1524,9",,"SYN066AAXX  02154 08213 42568 23404 10244 20124 39022 48524 58004 82500;",
"08213099999","2010-09-02T18:00:00","4","40.95","-4.1333333","1005.0","SEGOVIA, SP","FM-12","99999","V020","280,1,N,0021,1","22000,1,9,N","018000,1,N,1","+0240,1","+0144,1","99999,9","12,0000,9,1",,,,,,"02,99,1,02,1,05,1,00800,1,00,1,00,1",,,,"999,M,+0256,1","99999,9,09026,1","1,1,004,1,+999,9","3,1528,9",,"SYN082AAXX  02184 08213 12568 22804 10240 20144 39026 48528 51004 60002 82500 333 10256;","Q01  00002PRCP12"
"08213099999","2010-09-03T06:00:00","4","40.95","-4.1333333","1005.0","SEGOVIA, SP","FM-12","99999","V020","090,1,N,0021,1","22000,1,9,N","010000,1,N,1","+0152,1","+0106,1","99999,9","12,0000,9,1","24,0000,9,1",,,,,"01,99,1,01,1,00,1,01750,1,04,1,00,1","0486,9","09,9","999,+0090,9","999,N,+0152,1","99999,9,09054,1","3,1,004,1,+999,9","3,1538,9",,"SYN100AAXX  03064 08213 12760 10904 10152 20106 39054 48538 53004 60002 81040 333 20152 31009 55081 70000;","Q01  00002PRCP24Q02  00002PRCP12"
"08213099999","2010-09-03T09:00:00","4","40.95","-4.1333333","1005.0","SEGOVIA, SP","FM-12","99999","V020","260,1,N,0021,1","22000,1,9,N","012000,1,N,1","+0220,1","+0105,1","99999,9",,,,,,"00,1,+99999,9,99,9","00,99,1,00,1,00,1,99999,9,00,1,00,1",,,,,"99999,9,09058,1","2,1,004,1,+999,9","3,1554,9",,"SYN060AAXX  03094 08213 42962 02604 10220 20105 39058 48554 52004;",
"08213099999","2010-09-03T12:00:00","4","40.95","-4.1333333","1005.0","SEGOVIA, SP","FM-12","99999","V020","270,1,N,0021,1","22000,1,9,N","014000,1,N,1","+0276,1","+0085,1","99999,9","06,0000,9,1",,,,,,"02,99,1,01,1,02,1,00800,1,00,1,01,1",,,,,"99999,9,09056,1","8,1,002,1,+999,9","3,1562,9",,"SYN082AAXX  03124 08213 12564 22704 10276 20085 39056 48562 58002 60001 81201 333 50330;","Q01  00002PRCP06"
"08213099999","2010-09-03T15:00:00","4","40.95","-4.1333333","1005.0","SEGOVIA, SP","FM-12","99999","V020","270,1,N,0036,1","22000,1,9,N","014000,1,N,1","+0278,1","+0086,1","99999,9",,,,,,,"06,99,1,01,1,02,1,00800,1,00,1,04,1",,,,,"99999,9,09049,1","7,1,007,1,+999,9","3,1556,9",,"SYN066AAXX  03154 08213 42564 62707 10278 20086 39049 48556 57007 81204;",
"08213099999","2010-09-03T18:00:00","4","40.95","-4.1333333","1005.0","SEGOVIA, SP","FM-12","99999","V020","350,1,N,0010,1","22000,1,9,N","020000,1,N,1","+0280,1","+0078,1","99999,9","12,0000,9,1",,,,,,"02,99,1,01,1,02,1,00800,1,00,1,04,1",,,,"999,M,+0296,1","99999,9,09047,1","7,1,002,1,+999,9","3,1554,9",,"SYN082AAXX  03184 08213 12570 23502 10280 20078 39047 48554 57002 60002 81204 333 10296;","Q01  00002PRCP12"
"08213099999","2010-09-04T06:00:00","4","40.95","-4.1333333","1005.0","SEGOVIA, SP","FM-12","99999","V020","120,1,N,0015,1","22000,1,9,N","020000,1,N,1","+0160,1","+0062,1","99999,9","12,0000,9,1","24,0000,9,1",,,,,"06,99,1,03,1,00,1,01750,1,05,1,06,1","0720,9","09,9","999,+0090,9","999,N,+0160,1","99999,9,09052,1","3,1,002,1,+999,9","3,1536,9",,"SYN100AAXX  04064 08213 12770 61203 10160 20062 39052 48536 53002 60002 83056 333 20160 31009 55120 70000;","Q01  00002PRCP24Q02  00002PRCP12"
"08213099999","2010-09-04T09:00:00","4","40.95","-4.1333333","1005.0","SEGOVIA, SP","FM-12","99999","V020","260,1,N,0010,1","03600,1,9,N","020000,1,N,1","+0256,1","+0086,1","99999,9",,,,,,,"07,99,1,01,1,01,1,00800,1,06,1,04,1",,,,,"99999,9,09057,1","1,1,005,1,+999,9","3,1559,9",,"SYN066AAXX  04094 08213 42570 72602 10256 20086 39057 48559 51005 81164;",
"08213099999","2010-09-04T12:00:00","4","40.95","-4.1333333","1005.0","SEGOVIA, SP","FM-12","99999","V020","230,1,N,0015,1","22000,1,9,N","020000,1,N,1","+0280,1","+0062,1","99999,9","06,0000,9,1",,,,,,"03,99,1,03,1,02,1,00800,1,00,1,00,1",,,,,"99999,9,09054,1","8,1,003,1,+999,9","3,1560,9",,"SYN082AAXX  04124 08213 12570 32303 10280 20062 39054 48560 58003 60001 83200 333 50540;","Q01  00002PRCP06"
"08213099999","2010-09-04T15:00:00","4","40.95","-4.1333333","1005.0","SEGOVIA, SP","FM-12","99999","V020","070,1,N,0010,1","22000,1,9,N","020000,1,N,1","+0300,1","+0072,1","99999,9",,,,,,,"03,99,1,03,1,02,1,00800,1,00,1,00,1",,,,,"99999,9,09039,1","7,1,015,1,+999,9","3,1550,9",,"SYN066AAXX  04154 08213 42570 30702 10300 20072 39039 48550 57015 83200;",
"08213099999","2010-09-04T18:00:00","4","40.95","-4.1333333","1005.0","SEGOVIA, SP","FM-12","99999","V020","320,1,N,0021,1","22000,1,9,N","020000,1,N,1","+0284,1","+0087,1","99999,9","12,0000,9,1",,,,,"01,1,+00600,1,09,1","04,99,1,02,1,03,1,00800,1,00,1,04,1",,,,"120,M,+0312,1","99999,9,09037,1","6,1,002,1,+999,9","3,1545,9",,"SYN088AAXX  04184 08213 12570 43204 10284 20087 39037 48545 56002 60002 82304 333 10312 81920;","Q01  00002PRCP12"
"08213099999","2010-09-05T06:00:00","4","40.95","-4.1333333","1005.0","SEGOVIA, SP","FM-12","99999","V020","080,1,N,0015,1","01500,1,9,N","020000,1,N,1","+0180,1","+0088,1","99999,9","12,0000,9,1","24,0000,9,1",,,,,"06,99,1,06,1,00,1,01750,1,05,1,00,1","0660,9","01,9","999,+0110,9","999,N,+0178,1","99999,9,09040,1","4,1,000,1,+999,9","3,1529,9",,"SYN100AAXX  05064 08213 12770 60803 10180 20088 39040 48529 54000 60002 86050 333 20178 30011 55110 70000;","Q01  00002PRCP24Q02  00002PRCP12"
"08213099999","2010-09-05T09:00:00","4","40.95","-4.1333333","1005.0","SEGOVIA, SP","FM-12","99999","V020","130,1,N,0021,1","22000,1,9,N","020000,1,N,1","+0264,1","+0084,1","99999,9",,,,,,,"02,99,1,01,1,02,1,00800,1,00,1,01,1",,,,,"99999,9,09042,1","1,1,002,1,+999,9","3,1546,9",,"SYN066AAXX  05094 08213 42570 21304 10264 20084 39042 48546 51002 81201;",
"08213099999","2010-09-05T12:00:00","4","40.95","-4.1333333","1005.0","SEGOVIA, SP","FM-12","99999","V020","230,1,N,0046,1","00750,1,C,N","020000,1,N,1","+0296,1","+0081,1","99999,9","06,0000,9,1",,,,,"01,1,+00600,1,09,1","05,99,1,05,1,03,1,00800,1,00,1,00,1",,,,,"99999,9,09037,1","8,1,005,1,+999,9","3,1547,9",,"SYN088AAXX  05124 08213 12570 52309 10296 20081 39037 48547 58005 60001 85300 333 50480 81920;","Q01  00002PRCP06"
"08213099999","2010-09-05T15:00:00","4","40.95","-4.1333333","1005.0","SEGOVIA, SP","FM-12","99999","V020","290,1,N,0057,1","00750,1,C,N","020000,1,N,1","+0274,1","+0083,1","99999,9",,,,,,"02,1,+00600,1,09,1","07,99,1,07,1,03,1,00800,1,00,1,00,1",,,,,"99999,9,09023,1","7,1,014,1,+999,9","3,1530,9",,"SYN076AAXX  05154 08213 42570 72911 10274 20083 39023 48530 57014 87300 333 82920;",
"08213099999","2010-09-05T18:00:00","4","40.95","-4.1333333","1005.0","SEGOVIA, SP","FM-12","99999","V020","240,1,N,0036,1","00750,1,C,N","020000,1,N,1","+0282,1","+0090,1","99999,9","12,0000,9,1",,,,,"02,1,+00600,1,09,1","07,99,1,06,1,03,1,00800,1,00,1,01,1",,,,"120,M,+0322,1","99999,9,09018,1","8,1,005,1,+999,9","3,1526,9",,"SYN088AAXX  05184 08213 12570 72407 10282 20090 39018 48526 58005 60002 86301 333 10322 82920;","Q01  00002PRCP12"
"08213099999","2010-09-06T06:00:00","4","40.95","-4.1333333","1005.0","SEGOVIA, SP","FM-12","99999","V020","300,1,N,0021,1","09000,1,9,N","012000,1,N,1","+0163,1","+0097,1","99999,9","12,0000,9,1","24,0000,9,1",,,,,"06,99,1,02,1,00,1,01750,1,04,1,09,1","0450,9","01,9","999,+0100,9","999,N,+0163,1","99999,9,09010,1","6,1,007,1,+999,9","3,1498,9",,"SYN100AAXX  06064 08213 12762 63004 10163 20097 39010 48498 56007 60002 82049 333 20163 30010 55075 70000;","Q01  00002PRCP24Q02  00002PRCP12"
"08213099999","2010-09-06T09:00:00","4","40.95","-4.1333333","1005.0","SEGOVIA, SP","FM-12","99999","V020","320,1,N,0021,1","22000,1,9,N","012000,1,N,1","+0226,1","+0101,1","99999,9",,,,,,,"06,99,1,03,1,00,1,01750,1,04,1,01,1",,,,,"99999,9,09004,1","7,1,006,1,+999,9","3,1504,9",,"SYN066AAXX  06094 08213 42762 63204 10226 20101 39004 48504 57006 83041;",
"08213099999","2010-09-06T12:00:00","4","40.95","-4.1333333","1005.0","SEGOVIA, SP","FM-12","99999","V020","310,1,N,0041,1","03600,1,9,N","012000,1,N,1","+0272,1","+0091,1","99999,9","06,0000,9,1",,,,,,"06,99,1,01,1,01,1,00800,1,04,1,01,1",,,,,"99999,9,08994,1","8,1,010,1,+999,9","3,1501,9",,"SYN082AAXX  06124 08213 12562 63108 10272 20091 38994 48501 58010 60001 81141 333 50590;","Q01  00002PRCP06"
"08213099999","2010-09-06T15:00:00","4","40.95","-4.1333333","1005.0","SEGOVIA, SP","FM-12","99999","V020","290,1,N,0051,1","03600,1,9,N","012000,1,N,1","+0276,1","+0085,1","99999,9",,,,,,,"07,99,1,01,1,04,1,00800,1,04,1,06,1",,,,,"99999,9,08980,1","7,1,014,1,+999,9","3,1488,9",,"SYN066AAXX  06154 08213 42562 72910 10276 20085 38980 48488 57014 81446;",
"08213099999","2010-09-06T18:00:00","4","40.95","-4.1333333","1005.0","SEGOVIA, SP","FM-12","99999","V020","300,1,N,0031,1","03600,1,9,N","012000,1,N,1","+0234,1","+0101,1","99999,9","12,0000,9,1",,,,,,"07,99,1,04,1,04,1,00800,1,04,1,06,1",,,,"999,M,+0292,1","99999,9,08975,1","8,1,005,1,+999,9","3,1477,9",,"SYN082AAXX  06184 08213 12562 73006 10234 20101 38975 48477 58005 60002 84446 333 10292;","Q01  00002PRCP12"
"08213099999","2010-09-07T06:00:00","4","40.95","-4.1333333","1005.0","SEGOVIA, SP","FM-12","99999","V020","150,1,N,0026,1","00750,1,9,N","004000,1,N,1","+0122,1","+0109,1","99999,9","12,9999,9,9","24,9999,9,9",,"2,1,06,1","2,1,06,1",,"08,99,1,08,1,05,1,00800,1,99,9,99,9","0582,9","09,9","999,+0080,9","999,N,+0115,1","99999,9,08960,1","4,1,000,1,+999,9","3,1445,9","50,1","SYN106AAXX  07064 08213 11540 81505 10122 20109 38960 48445 54000 69902 75022 885// 333 20115 31008 55097 79999;","Q01  00002PRCP24Q02  00002PRCP12Q03  00002PRCP12Q04  00002PRCP24"
"08213099999","2010-09-07T12:00:00","4","40.95","-4.1333333","1005.0","SEGOVIA, SP","FM-12","99999","V020","290,1,N,0051,1","22000,1,9,N","020000,1,N,1","+0182,1","+0079,1","99999,9","06,0000,2,1",,,,,,"03,99,1,03,1,05,1,00800,1,00,1,00,1",,,,,"99999,9,08954,1","8,1,011,1,+999,9","3,1449,9",,"SYN082AAXX  07124 08213 12570 32910 10182 20079 38954 48449 58011 60001 83500 333 50590;",
"08213099999","2010-09-07T15:00:00","4","40.95","-4.1333333","1005.0","SEGOVIA, SP","FM-12","99999","V020","250,1,N,0077,1","22000,1,9,N","020000,1,N,1","+0188,1","+0079,1","99999,9",,,,,,,"04,99,1,04,1,05,1,00800,1,00,1,00,1",,,,,"99999,9,08950,1","7,1,004,1,+999,9","3,1446,9",,"SYN066AAXX  07154 08213 42570 42515 10188 20079 38950 48446 57004 84500;",
"08213099999","2010-09-07T18:00:00","4","40.95","-4.1333333","1005.0","SEGOVIA, SP","FM-12","99999","V020","260,1,N,0123,1","22000,1,9,N","018000,1,N,1","+0163,1","+0119,1","99999,9","12,0000,2,1",,,"2,1,06,1","2,1,06,1",,"04,99,1,03,1,05,1,00800,1,04,1,00,1",,,,"999,M,+0207,1","99999,9,08955,1","3,1,005,1,+999,9","3,1447,9","25,1","SYN088AAXX  07184 08213 11568 42624 10163 20119 38955 48447 53005 69902 72522 83540 333 10207;",
"08213099999","2010-09-08T06:00:00","4","40.95","-4.1333333","1005.0","SEGOVIA, SP","FM-12","99999","V020","280,1,N,0021,1","00750,1,9,N","016000,1,N,1","+0100,1","+0081,1","99999,9","12,0000,2,1","24,0000,2,1",,,,,"08,99,1,05,1,05,1,00800,1,02,1,99,9","0270,9","01,9","999,+0070,9","999,N,+0100,1","99999,9,09007,1","3,1,008,1,+999,9","3,1485,9",,"SYN100AAXX  08064 08213 12566 82804 10100 20081 39007 48485 53008 60002 8552/ 333 20100 30007 55045 79999;",
"08213099999","2010-09-08T09:00:00","4","40.95","-4.1333333","1005.0","SEGOVIA, SP","FM-12","99999","V020","220,1,N,0021,1","01200,1,9,N","016000,1,N,1","+0126,1","+0079,1","99999,9",,,,,,,"07,99,1,07,1,08,1,00800,1,00,1,00,1",,,,,"99999,9,09024,1","2,1,017,1,+999,9","3,1505,9",,"SYN066AAXX  08094 08213 42566 72204 10126 20079 39024 48505 52017 87800;",
"08213099999","2010-09-08T12:00:00","4","40.95","-4.1333333","1005.0","SEGOVIA, SP","FM-12","99999","V020","290,1,N,0036,1","01200,1,9,N","020000,1,N,1","+0156,1","+0040,1","99999,9","06,0000,9,1",,,,,,"07,99,1,06,1,08,1,00800,1,00,1,01,1",,,,,"99999,9,09031,1","0,1,007,1,+999,9","3,1516,9",,"SYN082AAXX  08124 08213 12570 72907 10156 20040 39031 48516 50007 60001 86801 333 50280;","Q01  00002PRCP06"
"08213099999","2010-09-08T15:00:00","4","40.95","-4.1333333","1005.0","SEGOVIA, SP","FM-12","99999","V020","300,1,N,0026,1","03600,1,9,N","020000,1,N,1","+0184,1","+0035,1","99999,9",,,,,,,"06,99,1,04,1,02,1,00800,1,03,1,01,1",,,,,"99999,9,09029,1","7,1,002,1,+999,9","3,1519,9",,"SYN066AAXX  08154 08213 42570 63005 10184 20035 39029 48519 57002 84231;",
"08213099999","2010-09-08T18:00:00","4","40.95","-4.1333333","1005.0","SEGOVIA, SP","FM-12","99999","V020","290,1,N,0057,1","00750,1,9,N","020000,1,N,1","+0184,1","+0038,1","99999,9","12,0000,9,1",,,,,,"07,99,1,07,1,02,1,00800,1,00,1,00,1",,,,"999,M,+0206,1","99999,9,09033,1","3,1,004,1,+999,9","3,1523,9",,"SYN082AAXX  08184 08213 12570 72911 10184 20038 39033 48523 53004 60002 87200 333 10206;","Q01  00002PRCP12"
"08213099999","2010-09-09T06:00:00","4","40.95","-4.1333333","1005.0","SEGOVIA, SP","FM-12","99999","V020","270,1,N,0021,1","00750,1,9,N","010000,1,N,1","+0116,1","+0090,1","99999,9","12,0000,9,1","24,0000,9,1",,,,,"08,99,1,05,1,05,1,00800,1,02,1,99,9","0486,9","01,9","999,+0060,9","999,N,+0112,1","99999,9,09075,1","3,1,004,1,+999,9","3,1550,9",,"SYN100AAXX  09064 08213 12560 82704 10116 20090 39075 48550 53004 60002 8552/ 333 20112 30006 55081 70000;","Q01  00002PRCP24Q02  00002PRCP12"
"08213099999","2010-09-09T09:00:00","4","40.95","-4.1333333","1005.0","SEGOVIA, SP","FM-12","99999","V020","350,1,N,0010,1","01200,1,9,N","014000,1,N,1","+0142,1","+0090,1","99999,9",,,,,,,"07,99,1,06,1,08,1,00800,1,00,1,01,1",,,,,"99999,9,09092,1","2,1,017,1,+999,9","3,1570,9",,"SYN066AAXX  09094 08213 42564 73502 10142 20090 39092 48570 52017 86801;",
"08213099999","2010-09-09T12:00:00","4","40.95","-4.1333333","1005.0","SEGOVIA, SP","FM-12","99999","V020","330,1,N,0015,1","22000,1,9,N","020000,1,N,1","+0192,1","+0053,1","99999,9","06,0000,9,1",,,,,,"01,99,1,01,1,01,1,00800,1,00,1,00,1",,,,,"99999,9,09096,1","0,1,004,1,+999,9","3,1583,9",,"SYN072AAXX  09124 08213 12570 13303 10192 20053 39096 48583 50004 60001 81100;","Q01  00002PRCP06"
"08213099999","2010-09-09T15:00:00","4","40.95","-4.1333333","1005.0","SEGOVIA, SP","FM-12","99999","V020","240,1,N,0010,1","22000,1,9,N","020000,1,N,1","+0218,1","+0048,1","99999,9",,,,,,"00,1,+99999,9,99,9","00,99,1,00,1,00,1,99999,9,00,1,00,1",,,,,"99999,9,09092,1","8,1,004,1,+999,9","3,1585,9",,"SYN060AAXX  09154 08213 42970 02402 10218 20048 39092 48585 58004;",
"08213099999","2010-09-09T18:00:00","4","40.95","-4.1333333","1005.0","SEGOVIA, SP","FM-12","99999","V020","030,1,N,0015,1","22000,1,9,N","020000,1,N,1","+0216,1","+0051,1","99999,9","12,0000,9,1",,,,,"00,1,+99999,9,99,9","00,99,1,00,1,00,1,99999,9,00,1,00,1",,,,"999,M,+0236,1","99999,9,09092,1","4,1,000,1,+999,9","3,1584,9",,"SYN076AAXX  09184 08213 12970 00303 10216 20051 39092 48584 54000 60002 333 10236;","Q01  00002PRCP12"
"08213099999","2010-09-10T06:00:00","4","40.95","-4.1333333","1005.0","SEGOVIA, SP","FM-12","99999","V020","080,1,N,0026,1","22000,1,9,N","020000,1,N,1","+0122,1","+0042,1","99999,9","12,0000,9,1","24,0000,9,1",,,,,"01,99,1,00,1,00,1,99999,9,00,1,08,1","0588,9","01,9","999,+0030,9","999,N,+0112,1","99999,9,09093,1","7,1,003,1,+999,9","3,1567,9",,"SYN100AAXX  10064 08213 12970 10805 10122 20042 39093 48567 57003 60002 80008 333 20112 30003 55098 70000;","Q01  00002PRCP24Q02  00002PRCP12"
"08213099999","2010-09-10T09:00:00","4","40.95","-4.1333333","1005.0","SEGOVIA, SP","FM-12","99999","V020","230,1,N,0021,1","22000,1,9,N","015000,1,N,1","+0202,1","+0062,1","99999,9",,,,,,,"02,99,1,00,1,00,1,99999,9,00,1,01,1",,,,,"99999,9,09096,1","1,1,003,1,+999,9","3,1585,9",,"SYN066AAXX  10094 08213 42965 22304 10202 20062 39096 48585 51003 80001;",
"08213099999","2010-09-10T12:00:00","4","40.95","-4.1333333","1005.0","SEGOVIA, SP","FM-12","99999","V020","330,1,N,0010,1","22000,1,9,N","015000,1,N,1","+0251,1","+0043,1","99999,9","06,0000,9,1",,,,,,"02,99,1,00,1,00,1,99999,9,00,1,01,1",,,,,"99999,9,09086,1","8,1,010,1,+999,9","3,1585,9",,"SYN082AAXX  10124 08213 12965 23302 10251 20043 39086 48585 58010 60001 80001 333 50460;","Q01  00002PRCP06"
"08213099999","2010-09-10T15:00:00","4","40.95","-4.1333333","1005.0","SEGOVIA, SP","FM-12","99999","V020","290,1,N,0026,1","22000,1,9,N","020000,1,N,1","+0276,1","+0033,1","99999,9",,,,,,,"03,99,1,01,1,00,1,01750,1,04,1,01,1",,,,,"99999,9,09070,1","7,1,016,1,+999,9","3,1575,9",,"SYN066AAXX  10154 08213 42770 32905 10276 20033 39070 48575 57016 81041;",
"08213099999","2010-09-10T18:00:00","4","40.95","-4.1333333","1005.0","SEGOVIA, SP","FM-12","99999","V020","340,1,N,0118,1","22000,1,9,N","020000,1,N,1","+0255,1","+0035,1","99999,9","12,0000,9,1",,,,,,"03,99,1,01,1,00,1,01750,1,04,1,01,1",,,,"999,M,+0278,1","99999,9,09061,1","6,1,009,1,+999,9","3,1562,9",,"SYN082AAXX  10184 08213 12770 33423 10255 20035 39061 48562 56009 60002 81041 333 10278;","Q01  00002PRCP12"
"08213099999","2010-09-11T06:00:00","4","40.95","-4.1333333","1005.0","SEGOVIA, SP","FM-12","99999","V020","140,1,N,0015,1","22000,1,9,N","015000,1,N,1","+0142,1","+0053,1","99999,9","12,0000,9,1","24,0000,9,1",,,,,"02,99,1,01,1,00,1,01750,1,04,1,01,1","0720,9","01,9","999,+0050,9","999,N,+0142,1","99999,9,09042,1","6,1,004,1,+999,9","3,1524,9",,"SYN100AAXX  11064 08213 12765 21403 10142 20053 39042 48524 56004 60002 81041 333 20142 30005 55120 70000;","Q01  00002PRCP24Q02  00002PRCP12"
"08213099999","2010-09-11T09:00:00","4","40.95","-4.1333333","1005.0","SEGOVIA, SP","FM-12","99999","V020","130,1,N,0015,1","99999,9,9,N","015000,1,N,1","+0232,1","+0061,1","99999,9",,,,,,,"05,99,1,00,1,00,1,99999,9,00,1,04,1",,,,,"99999,9,09045,1","3,1,003,1,+999,9","3,1543,9",,"SYN066AAXX  11094 08213 42965 51303 10232 20061 39045 48543 53003 80004;",
"08213099999","2010-09-11T12:00:00","4","40.95","-4.1333333","1005.0","SEGOVIA, SP","FM-12","99999","V020","280,1,N,0021,1","22000,1,9,N","015000,1,N,1","+0278,1","+0042,1","99999,9","06,0000,9,1",,,,,,"02,99,1,00,1,00,1,99999,9,00,1,01,1",,,,,"99999,9,09043,1","8,1,002,1,+999,9","3,1549,9",,"SYN082AAXX  11124 08213 12965 22804 10278 20042 39043 48549 58002 60001 80001 333 50570;","Q01  00002PRCP06"
"08213099999","2010-09-11T15:00:00","4","40.95","-4.1333333","1005.0","SEGOVIA, SP","FM-12","99999","V020","010,1,N,0036,1","22000,1,9,N","015000,1,N,1","+0294,1","+0041,1","99999,9",,,,,,,"02,99,1,01,1,01,1,00800,1,00,1,01,1",,,,,"99999,9,09026,1","8,1,017,1,+999,9","3,1536,9",,"SYN066AAXX  11154 08213 42565 20107 10294 20041 39026 48536 58017 81101;",
"08213099999","2010-09-11T18:00:00","4","40.95","-4.1333333","1005.0","SEGOVIA, SP","FM-12","99999","V020","010,1,N,0015,1","22000,1,9,N","015000,1,N,1","+0266,1","+0061,1","99999,9","12,0000,9,1",,,,,,"03,99,1,01,1,01,1,00800,1,00,1,01,1",,,,"999,M,+0302,1","99999,9,09025,1","6,1,001,1,+999,9","3,1530,9",,"SYN082AAXX  11184 08213 12565 30103 10266 20061 39025 48530 56001 60002 81101 333 10302;","Q01  00002PRCP12"
"08213099999","2010-09-12T06:00:00","4","40.95","-4.1333333","1005.0","SEGOVIA, SP","FM-12","99999","V020","110,1,N,0021,1","22000,1,9,N","020000,1,N,1","+0166,1","+0067,1","99999,9","12,0000,9,1","24,0000,9,1",,,,,"01,99,1,00,1,00,1,99999,9,00,1,01,1","0672,9","01,9","999,+0040,9","999,N,+0156,1","99999,9,09056,1","2,1,005,1,+999,9","3,1541,9",,"SYN100AAXX  12064 08213 12970 11104 10166 20067 39056 48541 52005 60002 80001 333 20156 30004 55112 70000;","Q01  00002PRCP24Q02  00002PRCP12"
"08213099999","2010-09-12T09:00:00","4","40.95","-4.1333333","1005.0","SEGOVIA, SP","FM-12","99999","V020","270,1,N,0015,1","22000,1,9,N","020000,1,N,1","+0230,1","+0087,1","99999,9",,,,,,,"01,99,1,00,1,00,1,99999,9,00,1,01,1",,,,,"99999,9,09068,1","2,1,012,1,+999,9","3,1565,9",,"SYN066AAXX  12094 08213 42970 12703 10230 20087 39068 48565 52012 80001;",
"08213099999","2010-09-12T12:00:00","4","40.95","-4.1333333","1005.0","SEGOVIA, SP","FM-12","99999","V020","320,1,N,0041,1","22000,1,9,N","020000,1,N,1","+0283,1","+0075,1","99999,9","06,0000,9,1",,,,,,"02,99,1,01,1,05,1,00800,1,00,1,02,1",,,,,"99999,9,09072,1","1,1,004,1,+999,9","3,1579,9",,"SYN082AAXX  12124 08213 12570 23208 10283 20075 39072 48579 51004 60001 81502 333 50310;","Q01  00002PRCP06"
"08213099999","2010-09-12T15:00:00","4","40.95","-4.1333333","1005.0","SEGOVIA, SP","FM-12","99999","V020","070,1,N,0021,1","22000,1,9,N","020000,1,N,1","+0294,1","+0061,1","99999,9",,,,,,,"02,99,1,02,1,05,1,00800,1,00,1,01,1",,,,,"99999,9,09063,1","8,1,009,1,+999,9","3,1572,9",,"SYN066AAXX  12154 08213 42570 20704 10294 20061 39063 48572 58009 82501;",
"08213099999","2010-09-12T18:00:00","4","40.95","-4.1333333","1005.0","SEGOVIA, SP","FM-12","99999","V020","040,1,N,0036,1","22000,1,9,N","020000,1,N,1","+0255,1","+0093,1","99999,9","12,0000,9,1",,,,,,"03,99,1,01,1,05,1,00800,1,00,1,02,1",,,,"999,M,+0303,1","99999,9,09071,1","3,1,008,1,+999,9","3,1573,9",,"SYN082AAXX  12184 08213 12570 30407 10255 20093 39071 48573 53008 60002 81502 333 10303;","Q01  00002PRCP12"
"08213099999","2010-09-13T06:00:00","4","40.95","-4.1333333","1005.0","SEGOVIA, SP","FM-12","99999","V020","120,1,N,0093,1","22000,1,9,N","020000,1,N,1","+0134,1","+0093,1","99999,9","12,0000,9,1","24,0000,9,1",,,,"00,1,+99999,9,99,9","00,99,1,00,1,00,1,99999,9,00,1,00,1","0666,9","09,9","999,+0060,9","999,N,+0130,1","99999,9,09102,1","1,1,002,1,+999,9","3,1578,9",,"SYN094AAXX  13064 08213 12970 01218 10134 20093 39102 48578 51002 60002 333 20130 31006 55111 70000;","Q01  00002PRCP24Q02  00002PRCP12"
"08213099999","2010-09-13T09:00:00","4","40.95","-4.1333333","1005.0","SEGOVIA, SP","FM-12","99999","V020","280,1,N,0015,1","22000,1,9,N","020000,1,N,1","+0220,1","+0092,1","99999,9",,,,,,"00,1,+99999,9,99,9","00,99,1,00,1,00,1,99999,9,00,1,00,1",,,,,"99999,9,09115,1","2,1,013,1,+999,9","3,1607,9",,"SYN060AAXX  13094 08213 42970 02803 10220 20092 39115 48607 52013;",
"08213099999","2010-09-13T12:00:00","4","40.95","-4.1333333","1005.0","SEGOVIA, SP","FM-12","99999","V020","350,1,N,0021,1","22000,1,9,N","020000,1,N,1","+0276,1","+0090,1","99999,9","06,0000,9,1",,,,,,"01,99,1,01,1,01,1,00800,1,00,1,00,1",,,,,"99999,9,09114,1","8,1,001,1,+999,9","3,1618,9",,"SYN082AAXX  13124 08213 12570 13504 10276 20090 39114 48618 58001 60001 81100 333 50520;","Q01  00002PRCP06"
"08213099999","2010-09-13T15:00:00","4","40.95","-4.1333333","1005.0","SEGOVIA, SP","FM-12","99999","V020","300,1,N,0026,1","22000,1,9,N","020000,1,N,1","+0298,1","+0082,1","99999,9",,,,,,,"01,99,1,01,1,02,1,00800,1,00,1,00,1",,,,,"99999,9,09104,1","7,1,010,1,+999,9","3,1613,9",,"SYN066AAXX  13154 08213 42570 13005 10298 20082 39104 48613 57010 81200;",
"08213099999","2010-09-13T18:00:00","4","40.95","-4.1333333","1005.0","SEGOVIA, SP","FM-12","99999","V020","010,1,N,0036,1","22000,1,9,N","020000,1,N,1","+0274,1","+0051,1","99999,9","12,0000,9,1",,,,,,"02,99,1,01,1,02,1,00800,1,00,1,01,1",,,,"999,M,+0306,1","99999,9,09104,1","5,1,000,1,+999,9","3,1607,9",,"SYN082AAXX  13184 08213 12570 20107 10274 20051 39104 48607 55000 60002 81201 333 10306;","Q01  00002PRCP12"
"08213099999","2010-09-14T06:00:00","4","40.95","-4.1333333","1005.0","SEGOVIA, SP","FM-12","99999","V020","080,1,N,0010,1","22000,1,9,N","020000,1,N,1","+0136,1","-0001,1","99999,9","12,0000,9,1","24,0000,9,1",,,,"00,1,+99999,9,99,9","00,99,1,00,1,00,1,99999,9,00,1,00,1","0696,9","01,9","999,+0060,9","999,N,+0132,1","99999,9,09124,1","4,1,000,1,+999,9","3,1597,9",,"SYN094AAXX  14064 08213 12970 00802 10136 21001 39124 48597 54000 60002 333 20132 30006 55116 70000;","Q01  00002PRCP24Q02  00002PRCP12"
"08213099999","2010-09-14T09:00:00","4","40.95","-4.1333333","1005.0","SEGOVIA, SP","FM-12","99999","V020","220,1,N,0015,1","22000,1,9,N","020000,1,N,1","+0196,1","-0004,1","99999,9",,,,,,"00,1,+99999,9,99,9","00,99,1,00,1,00,1,99999,9,00,1,00,1",,,,,"99999,9,09133,1","3,1,009,1,+999,9","3,1618,9",,"SYN060AAXX  14094 08213 42970 02203 10196 21004 39133 48618 53009;",
"08213099999","2010-09-14T12:00:00","4","40.95","-4.1333333","1005.0","SEGOVIA, SP","FM-12","99999","V020","010,1,N,0021,1","22000,1,9,N","020000,1,N,1","+0262,1","+0046,1","99999,9","06,0000,9,1",,,,,,"01,99,1,00,1,00,1,99999,9,00,1,01,1",,,,,"99999,9,09125,1","8,1,008,1,+999,9","3,1625,9",,"SYN082AAXX  14124 08213 12970 10104 10262 20046 39125 48625 58008 60001 80001 333 50540;","Q01  00002PRCP06"
"08213099999","2010-09-14T15:00:00","4","40.95","-4.1333333","1005.0","SEGOVIA, SP","FM-12","99999","V020","360,1,N,0021,1","22000,1,9,N","020000,1,N,1","+0278,1","+0042,1","99999,9",,,,,,,"01,99,1,00,1,00,1,99999,9,00,1,02,1",,,,,"99999,9,09108,1","7,1,017,1,+999,9","3,1612,9",,"SYN066AAXX  14154 08213 42970 13604 10278 20042 39108 48612 57017 80002;",
"08213099999","2010-09-14T18:00:00","4","40.95","-4.1333333","1005.0","SEGOVIA, SP","FM-12","99999","V020","360,1,N,0021,1","22000,1,9,N","020000,1,N,1","+0276,1","+0046,1","99999,9","12,0000,9,1",,,,,,"01,99,1,00,1,00,1,99999,9,00,1,02,1",,,,"999,M,+0292,1","99999,9,09097,1","6,1,011,1,+999,9","3,1601,9",,"SYN082AAXX  14184 08213 12970 13604 10276 20046 39097 48601 56011 60002 80002 333 10292;","Q01  00002PRCP12"
"08213099999","2010-09-15T06:00:00","4","40.95","-4.1333333","1005.0","SEGOVIA, SP","FM-12","99999","V020","010,1,N,0010,1","09000,1,9,N","015000,1,N,1","+0184,1","+0056,1","99999,9","12,0000,9,1","24,0000,9,1",,,,,"06,99,1,03,1,00,1,01750,1,04,1,09,1","0696,9","01,9","999,+0090,9","999,N,+0162,1","99999,9,09086,1","8,1,005,1,+999,9","3,1573,9",,"SYN100AAXX  15064 08213 12765 60102 10184 20056 39086 48573 58005 60002 83049 333 20162 30009 55116 70000;","Q01  00002PRCP24Q02  00002PRCP12"
"08213099999","2010-09-15T09:00:00","4","40.95","-4.1333333","1005.0","SEGOVIA, SP","FM-12","99999","V020","280,1,N,0026,1","22000,1,9,N","015000,1,N,1","+0266,1","+0086,1","99999,9",,,,,,,"03,99,1,01,1,00,1,01750,1,04,1,01,1",,,,,"99999,9,09083,1","6,1,003,1,+999,9","3,1586,9",,"SYN066AAXX  15094 08213 42765 32805 10266 20086 39083 48586 56003 81041;",
"08213099999","2010-09-15T12:00:00","4","40.95","-4.1333333","1005.0","SEGOVIA, SP","FM-12","99999","V020","340,1,N,0015,1","09000,1,9,N","015000,1,N,1","+0306,1","+0083,1","99999,9","06,0000,9,1",,,,,,"05,99,1,01,1,01,1,00800,1,04,1,04,1",,,,,"99999,9,09073,1","8,1,010,1,+999,9","3,1584,9",,"SYN082AAXX  15124 08213 12565 53403 10306 20083 39073 48584 58010 60001 81144 333 50530;","Q01  00002PRCP06"
"08213099999","2010-09-15T15:00:00","4","40.95","-4.1333333","1005.0","SEGOVIA, SP","FM-12","99999","V020","360,1,N,0026,1","03600,1,9,N","012000,1,N,1","+0304,1","+0082,1","99999,9",,,,,,,"07,99,1,03,1,08,1,00800,1,07,1,08,1",,,,,"99999,9,09053,1","7,1,020,1,+999,9","3,1564,9",,"SYN066AAXX  15154 08213 42562 73605 10304 20082 39053 48564 57020 83878;",
"08213099999","2010-09-16T06:00:00","4","40.95","-4.1333333","1005.0","SEGOVIA, SP","FM-12","99999","V020","260,1,N,0010,1","00420,1,9,N","004000,1,N,1","+0157,1","+0151,1","99999,9","12,0020,9,2","24,0018,9,2",,"6,1,06,1","2,1,06,1",,"08,99,1,06,1,06,1,00450,1,07,1,08,1","0540,9","11,9","999,+0140,9","999,N,+0157,1","99999,9,09045,1","5,1,000,1,+999,9","3,1531,9","61,1","SYN106AAXX  16064 08213 11440 82602 10157 20151 39045 48531 55000 60022 76162 86678 333 20157 32014 55090 70018;",
"08213099999","2010-09-16T09:00:00","4","40.95","-4.1333333","1005.0","SEGOVIA, SP","FM-12","99999","V020","230,1,N,0031,1","03600,1,9,N","012000,1,N,1","+0183,1","+0142,1","99999,9",,,,"6,1,03,1","2,1,03,1",,"08,99,1,03,1,05,1,00800,1,07,1,08,1",,,,,"99999,9,09033,1","8,1,012,1,+999,9","3,1524,9","02,1","SYN072AAXX  16094 08213 41562 82306 10183 20142 39033 48524 58012 70262 83578;",
"08213099999","2010-09-16T12:00:00","4","40.95","-4.1333333","1005.0","SEGOVIA, SP","FM-12","99999","V020","280,1,N,0057,1","03600,1,9,N","012000,1,N,1","+0233,1","+0129,1","99999,9","06,0008,9,1",,,"6,1,06,1","2,1,06,1","01,1,+00600,1,09,1","05,99,1,03,1,03,1,00800,1,07,1,02,1",,,,,"99999,9,09023,1","8,1,010,1,+999,9","3,1523,9","03,1","SYN094AAXX  16124 08213 11562 52811 10233 20129 39023 48523 58010 69971 70362 83372 333 50550 81920;",
"08213099999","2010-09-16T15:00:00","4","40.95","-4.1333333","1005.0","SEGOVIA, SP","FM-12","99999","V020","220,1,N,0072,1","00750,1,C,N","005000,1,N,1","+0186,1","+0153,1","99999,9",,,,"8,1,03,1","6,1,03,1","03,1,+00600,1,09,1","08,99,1,06,1,03,1,00800,1,07,1,08,1",,,,,"99999,9,09017,1","6,1,006,1,+999,9","3,1510,9","81,1","SYN082AAXX  16154 08213 41550 82214 10186 20153 39017 48510 56006 78186 86378 333 83920;",
"08213099999","2010-09-16T18:00:00","4","40.95","-4.1333333","1005.0","SEGOVIA, SP","FM-12","99999","V020","020,1,N,0021,1","22000,1,9,N","015000,1,N,1","+0185,1","+0152,1","99999,9","12,0061,9,1",,,"8,1,06,1","1,1,06,1","01,1,+00600,1,09,1","04,99,1,02,1,03,1,00800,1,04,1,02,1",,,,"120,M,+0244,1","99999,9,09005,1","8,1,012,1,+999,9","3,1499,9","01,1","SYN094AAXX  16184 08213 11565 40204 10185 20152 39005 48499 58012 60062 70181 82342 333 10244 81920;",
"08213099999","2010-09-17T06:00:00","4","40.95","-4.1333333","1005.0","SEGOVIA, SP","FM-12","99999","V020","160,1,N,0015,1","00750,1,9,N","008000,1,N,1","+0138,1","+0135,1","99999,9","12,0030,9,1","24,0094,9,1",,"6,1,06,1","2,1,06,1",,"07,99,1,05,1,05,1,00800,1,07,1,00,1","0216,9","11,9","999,+0120,9","999,N,+0135,1","99999,9,08995,1","6,1,005,1,+999,9","3,1481,9","10,1","SYN106AAXX  17064 08213 11558 71603 10138 20135 38995 48481 56005 60032 71062 85570 333 20135 32012 55036 70094;",
"08213099999","2010-09-17T09:00:00","4","40.95","-4.1333333","1005.0","SEGOVIA, SP","FM-12","99999","V020","070,1,N,0010,1","00750,1,9,N","008000,1,N,1","+0153,1","+0140,1","99999,9",,,,"2,1,03,1","2,1,03,1",,"07,99,1,07,1,05,1,00800,1,99,9,99,9",,,,,"99999,9,08998,1","3,1,003,1,+999,9","3,1486,9","10,1","SYN072AAXX  17094 08213 41558 70702 10153 20140 38998 48486 53003 71022 875//;",
"08213099999","2010-09-17T12:00:00","4","40.95","-4.1333333","1005.0","SEGOVIA, SP","FM-12","99999","V020","270,1,N,0026,1","22000,1,9,N","018000,1,N,1","+0188,1","+0134,1","99999,9","06,0000,9,1",,,,,"01,1,+00600,1,09,1","04,99,1,02,1,03,1,00800,1,03,1,05,1",,,,,"99999,9,08995,1","8,1,003,1,+999,9","3,1489,9",,"SYN088AAXX  17124 08213 12568 42705 10188 20134 38995 48489 58003 60001 82335 333 50180 81920;","Q01  00002PRCP06"
"08213099999","2010-09-17T15:00:00","4","40.95","-4.1333333","1005.0","SEGOVIA, SP","FM-12","99999","V020","280,1,N,0041,1","00750,1,C,N","018000,1,N,1","+0205,1","+0117,1","99999,9",,,,,,"02,1,+00600,1,09,1","06,99,1,05,1,09,1,00800,1,03,1,01,1",,,,,"99999,9,08980,1","6,1,015,1,+999,9","3,1477,9",,"SYN076AAXX  17154 08213 42568 62808 10205 20117 38980 48477 56015 85931 333 82920;",
"08213099999","2010-09-17T18:00:00","4","40.95","-4.1333333","1005.0","SEGOVIA, SP","FM-12","99999","V020","100,1,N,0046,1","00750,1,C,N","008000,1,N,1","+0134,1","+0120,1","99999,9","12,0320,9,1",,,"9,1,06,1","8,1,06,1","02,1,+00600,1,09,1","07,99,1,05,1,09,1,00800,1,06,1,02,1",,,,"120,M,+0220,1","99999,9,08982,1","3,1,002,1,+999,9","3,1468,9","21,1","SYN094AAXX  17184 08213 11558 71009 10134 20120 38982 48468 53002 60322 72198 85962 333 10220 82920;",
"08213099999","2010-09-18T06:00:00","4","40.95","-4.1333333","1005.0","SEGOVIA, SP","FM-12","99999","V020","280,1,N,0010,1","00750,1,9,N","005000,1,N,1","+0123,1","+0123,1","99999,9","12,0000,2,1","24,0325,9,1",,"2,1,06,1","2,1,06,1",,"08,99,1,08,1,06,1,00800,1,99,9,99,9","0252,9","09,9","999,+0100,9","999,N,+0120,1","99999,9,09010,1","2,1,003,1,+999,9","3,1492,9","10,1","SYN106AAXX  18064 08213 11550 82802 10123 20123 39010 48492 52003 60002 71022 886// 333 20120 31010 55042 70325;",
"08213099999","2010-09-18T09:00:00","4","40.95","-4.1333333","1005.0","SEGOVIA, SP","FM-12","99999","V020","290,1,N,0015,1","00750,1,9,N","003000,1,N,1","+0130,1","+0119,1","99999,9",,,,"2,1,03,1","2,1,03,1",,"08,99,1,08,1,06,1,00800,1,99,9,99,9",,,,,"99999,9,09030,1","2,1,020,1,+999,9","3,1512,9","10,1","SYN072AAXX  18094 08213 41530 82903 10130 20119 39030 48512 52020 71022 886//;",
"08213099999","2010-09-18T12:00:00","4","40.95","-4.1333333","1005.0","SEGOVIA, SP","FM-12","99999","V020","300,1,N,0036,1","03600,1,9,N","012000,1,N,1","+0173,1","+0116,1","99999,9","06,0000,9,1",,,,,"01,1,+00600,1,09,1","06,99,1,04,1,03,1,00800,1,06,1,01,1",,,,,"99999,9,09030,1","4,1,000,1,+999,9","3,1519,9",,"SYN088AAXX  18124 08213 12562 63007 10173 20116 39030 48519 54000 60001 84361 333 50950 81920;","Q01  00002PRCP06"
"08213099999","2010-09-18T15:00:00","4","40.95","-4.1333333","1005.0","SEGOVIA, SP","FM-12","99999","V020","330,1,N,0026,1","00750,1,9,N","012000,1,N,1","+0184,1","+0110,1","99999,9",,,,,,,"06,99,1,05,1,05,1,00800,1,03,1,00,1",,,,,"99999,9,09029,1","7,1,001,1,+999,9","3,1520,9",,"SYN066AAXX  18154 08213 42562 63305 10184 20110 39029 48520 57001 85530;",
"08213099999","2010-09-18T18:00:00","4","40.95","-4.1333333","1005.0","SEGOVIA, SP","FM-12","99999","V020","360,1,N,0015,1","22000,1,9,N","012000,1,N,1","+0180,1","+0109,1","99999,9","12,0000,9,1",,,,,,"02,99,1,02,1,05,1,00800,1,00,1,00,1",,,,"999,M,+0196,1","99999,9,09031,1","2,1,002,1,+999,9","3,1521,9",,"SYN082AAXX  18184 08213 12562 23603 10180 20109 39031 48521 52002 60002 82500 333 10196;","Q01  00002PRCP12"
"08213099999","2010-09-19T06:00:00","4","40.95","-4.1333333","1005.0","SEGOVIA, SP","FM-12","99999","V020","100,1,N,0010,1","22000,1,9,N","008000,1,N,1","+0102,1","+0073,1","99999,9","12,0000,9,1","24,0000,9,1",,"0,1,06,1","0,1,06,1",,"01,99,1,01,1,05,1,00800,1,00,1,00,1","0336,9","09,9","999,+0040,9","999,N,+0100,1","99999,9,09042,1","6,1,003,1,+999,9","3,1517,9","10,1","SYN106AAXX  19064 08213 11558 11002 10102 20073 39042 48517 56003 60002 71000 81500 333 20100 31004 55056 70000;","Q01  00002PRCP24Q02  00002PRCP12"
"08213099999","2010-09-19T09:00:00","4","40.95","-4.1333333","1005.0","SEGOVIA, SP","FM-12","99999","V020","190,1,N,0010,1","22000,1,9,N","015000,1,N,1","+0175,1","+0109,1","99999,9",,,,,,,"01,99,1,01,1,05,1,00800,1,00,1,00,1",,,,,"99999,9,09047,1","1,1,005,1,+999,9","3,1535,9",,"SYN066AAXX  19094 08213 42565 11902 10175 20109 39047 48535 51005 81500;",
"08213099999","2010-09-19T12:00:00","4","40.95","-4.1333333","1005.0","SEGOVIA, SP","FM-12","99999","V020","300,1,N,0021,1","22000,1,9,N","018000,1,N,1","+0209,1","+0101,1","99999,9","06,0000,9,1",,,,,,"02,99,1,02,1,05,1,00800,1,00,1,00,1",,,,,"99999,9,09043,1","8,1,004,1,+999,9","3,1538,9",,"SYN082AAXX  19124 08213 12568 23004 10209 20101 39043 48538 58004 60001 82500 333 50250;","Q01  00002PRCP06"
"08213099999","2010-09-19T15:00:00","4","40.95","-4.1333333","1005.0","SEGOVIA, SP","FM-12","99999","V020","220,1,N,0010,1","22000,1,9,N","020000,1,N,1","+0236,1","+0106,1","99999,9",,,,,,,"02,99,1,02,1,05,1,00800,1,00,1,00,1",,,,,"99999,9,09029,1","8,1,014,1,+999,9","3,1529,9",,"SYN066AAXX  19154 08213 42570 22202 10236 20106 39029 48529 58014 82500;",
"08213099999","2010-09-19T18:00:00","4","40.95","-4.1333333","1005.0","SEGOVIA, SP","FM-12","99999","V020","360,1,N,0026,1","22000,1,9,N","020000,1,N,1","+0214,1","+0083,1","99999,9","12,0000,9,1",,,,,,"02,99,1,02,1,05,1,00800,1,00,1,00,1",,,,"999,M,+0240,1","99999,9,09023,1","6,1,006,1,+999,9","3,1519,9",,"SYN082AAXX  19184 08213 12570 23605 10214 20083 39023 48519 56006 60002 82500 333 10240;","Q01  00002PRCP12"
"08213099999","2010-09-20T06:00:00","4","40.95","-4.1333333","1005.0","SEGOVIA, SP","FM-12","99999","V020","090,1,N,0015,1","22000,1,9,N","012000,1,N,1","+0142,1","+0098,1","99999,9","12,0000,9,1","24,0000,9,1",,,,,"03,99,1,02,1,07,1,00800,1,07,1,00,1","0648,9","09,9","999,+0070,9","999,N,+0136,1","99999,9,09020,1","6,1,002,1,+999,9","3,1504,9",,"SYN100AAXX  20064 08213 12562 30903 10142 20098 39020 48504 56002 60002 82770 333 20136 31007 55108 70000;","Q01  00002PRCP24Q02  00002PRCP12"
"08213099999","2010-09-20T09:00:00","4","40.95","-4.1333333","1005.0","SEGOVIA, SP","FM-12","99999","V020","070,1,N,0010,1","09000,1,9,N","012000,1,N,1","+0182,1","+0113,1","99999,9",,,,,,,"06,99,1,02,1,04,1,00800,1,07,1,06,1",,,,,"99999,9,09026,1","2,1,006,1,+999,9","3,1517,9",,"SYN066AAXX  20094 08213 42562 60702 10182 20113 39026 48517 52006 82476;",
"08213099999","2010-09-20T12:00:00","4","40.95","-4.1333333","1005.0","SEGOVIA, SP","FM-12","99999","V020","150,1,N,0067,1","03600,1,9,N","012000,1,N,1","+0202,1","+0109,1","99999,9","06,0000,9,1",,,,,"01,1,+00600,1,09,1","07,99,1,03,1,03,1,00800,1,07,1,02,1",,,,,"99999,9,09025,1","8,1,001,1,+999,9","3,1519,9",,"SYN088AAXX  20124 08213 12562 71513 10202 20109 39025 48519 58001 60001 83372 333 50390 81920;","Q01  00002PRCP06"
"08213099999","2010-09-20T15:00:00","4","40.95","-4.1333333","1005.0","SEGOVIA, SP","FM-12","99999","V020","160,1,N,0036,1","03600,1,9,N","012000,1,N,1","+0219,1","+0107,1","99999,9",,,,,,"01,1,+00600,1,09,1","07,99,1,03,1,03,1,00800,1,07,1,02,1",,,,,"99999,9,09016,1","8,1,009,1,+999,9","3,1514,9",,"SYN076AAXX  20154 08213 42562 71607 10219 20107 39016 48514 58009 83372 333 81920;",
"08213099999","2010-09-20T18:00:00","4","40.95","-4.1333333","1005.0","SEGOVIA, SP","FM-12","99999","V020","130,1,N,0026,1","03600,1,9,N","015000,1,N,1","+0188,1","+0106,1","99999,9","12,0000,9,1",,,,,"01,1,+00600,1,09,1","06,99,1,02,1,03,1,00800,1,07,1,02,1",,,,"120,M,+0236,1","99999,9,09014,1","5,1,002,1,+999,9","3,1507,9",,"SYN088AAXX  20184 08213 12565 61305 10188 20106 39014 48507 55002 60002 82372 333 10236 81920;","Q01  00002PRCP12"
"08213099999","2010-09-21T06:00:00","4","40.95","-4.1333333","1005.0","SEGOVIA, SP","FM-12","99999","V020","190,1,N,0010,1","03600,1,9,N","010000,1,N,1","+0138,1","+0106,1","99999,9","12,0000,9,1","24,0000,9,1",,,,,"06,99,1,03,1,07,1,00800,1,07,1,01,1","0312,9","09,9","999,+0070,9","999,N,+0138,1","99999,9,09039,1","3,1,007,1,+999,9","3,1521,9",,"SYN100AAXX  21064 08213 12560 61902 10138 20106 39039 48521 53007 60002 83771 333 20138 31007 55052 70000;","Q01  00002PRCP24Q02  00002PRCP12"
"08213099999","2010-09-21T09:00:00","4","40.95","-4.1333333","1005.0","SEGOVIA, SP","FM-12","99999","V020","080,1,N,0021,1","03600,1,9,N","010000,1,N,1","+0200,1","+0117,1","99999,9",,,,,,,"05,99,1,03,1,02,1,00800,1,03,1,01,1",,,,,"99999,9,09055,1","2,1,016,1,+999,9","3,1548,9",,"SYN066AAXX  21094 08213 42560 50804 10200 20117 39055 48548 52016 83231;",
"08213099999","2010-09-21T12:00:00","4","40.95","-4.1333333","1005.0","SEGOVIA, SP","FM-12","99999","V020","310,1,N,0021,1","03600,1,9,N","010000,1,N,1","+0220,1","+0108,1","99999,9","06,0000,9,1",,,,,,"05,99,1,03,1,08,1,00800,1,03,1,01,1",,,,,"99999,9,09051,1","8,1,004,1,+999,9","3,1547,9",,"SYN082AAXX  21124 08213 12560 53104 10220 20108 39051 48547 58004 60001 83831 333 50280;","Q01  00002PRCP06"
"08213099999","2010-09-21T15:00:00","4","40.95","-4.1333333","1005.0","SEGOVIA, SP","FM-12","99999","V020","240,1,N,0021,1","22000,1,9,N","012000,1,N,1","+0234,1","+0115,1","99999,9",,,,,,,"04,99,1,03,1,08,1,00800,1,00,1,01,1",,,,,"99999,9,09043,1","7,1,008,1,+999,9","3,1542,9",,"SYN066AAXX  21154 08213 42562 42404 10234 20115 39043 48542 57008 83801;",
"08213099999","2010-09-21T18:00:00","4","40.95","-4.1333333","1005.0","SEGOVIA, SP","FM-12","99999","V020","170,1,N,0031,1","22000,1,9,N","015000,1,N,1","+0217,1","+0082,1","99999,9","12,0000,9,1",,,,,,"05,99,1,03,1,08,1,00800,1,00,1,01,1",,,,"999,M,+0248,1","99999,9,09046,1","3,1,003,1,+999,9","3,1542,9",,"SYN082AAXX  21184 08213 12565 51706 10217 20082 39046 48542 53003 60002 83801 333 10248;","Q01  00002PRCP12"
"08213099999","2010-09-22T06:00:00","4","40.95","-4.1333333","1005.0","SEGOVIA, SP","FM-12","99999","V020","060,1,N,0021,1","22000,1,9,N","020000,1,N,1","+0134,1","+0100,1","99999,9","12,0000,9,1","24,0000,9,1",,,,,"02,99,1,01,1,05,1,00800,1,00,1,01,1","0456,9","09,9","999,+0060,9","999,N,+0125,1","99999,9,09061,1","4,1,000,1,+999,9","3,1541,9",,"SYN100AAXX  22064 08213 12570 20604 10134 20100 39061 48541 54000 60002 81501 333 20125 31006 55076 70000;","Q01  00002PRCP24Q02  00002PRCP12"
"08213099999","2010-09-22T09:00:00","4","40.95","-4.1333333","1005.0","SEGOVIA, SP","FM-12","99999","V020","300,1,N,0021,1","22000,1,9,N","012000,1,N,1","+0187,1","+0113,1","99999,9",,,,,,,"04,99,1,01,1,05,1,00800,1,00,1,01,1",,,,,"99999,9,09061,1","4,1,000,1,+999,9","3,1551,9",,"SYN066AAXX  22094 08213 42562 43004 10187 20113 39061 48551 54000 81501;",
"08213099999","2010-09-22T12:00:00","4","40.95","-4.1333333","1005.0","SEGOVIA, SP","FM-12","99999","V020","200,1,N,0021,1","09000,1,9,N","018000,1,N,1","+0230,1","+0071,1","99999,9","06,0000,9,1",,,,,,"05,99,1,02,1,05,1,00800,1,00,1,02,1",,,,,"99999,9,09056,1","8,1,005,1,+999,9","3,1553,9",,"SYN082AAXX  22124 08213 12568 52004 10230 20071 39056 48553 58005 60001 82502 333 50190;","Q01  00002PRCP06"
"08213099999","2010-09-22T15:00:00","4","40.95","-4.1333333","1005.0","SEGOVIA, SP","FM-12","99999","V020","190,1,N,0046,1","09000,1,9,N","020000,1,N,1","+0238,1","+0061,1","99999,9",,,,,,,"06,99,1,01,1,05,1,00800,1,00,1,09,1",,,,,"99999,9,09050,1","6,1,006,1,+999,9","3,1549,9",,"SYN066AAXX  22154 08213 42570 61909 10238 20061 39050 48549 56006 81509;",
"08213099999","2010-09-22T18:00:00","4","40.95","-4.1333333","1005.0","SEGOVIA, SP","FM-12","99999","V020","210,1,N,0046,1","09000,1,9,N","020000,1,N,1","+0217,1","+0034,1","99999,9","12,0000,9,1",,,,,,"06,99,1,01,1,00,1,01750,1,03,1,09,1",,,,"999,M,+0248,1","99999,9,09049,1","8,1,001,1,+999,9","3,1544,9",,"SYN082AAXX  22184 08213 12770 62109 10217 20034 39049 48544 58001 60002 81039 333 10248;","Q01  00002PRCP12"
"08213099999","2010-09-23T06:00:00","4","40.95","-4.1333333","1005.0","SEGOVIA, SP","FM-12","99999","V020","140,1,N,0010,1","03600,1,9,N","010000,1,N,1","+0154,1","+0102,1","99999,9","12,0000,9,1","24,0000,9,1",,,,,"08,99,1,02,1,05,1,00800,1,07,1,99,9","0534,9","09,9","999,+0080,9","999,N,+0153,1","99999,9,09031,1","4,1,000,1,+999,9","3,1517,9",,"SYN100AAXX  23064 08213 12560 81402 10154 20102 39031 48517 54000 60002 8257/ 333 20153 31008 55089 70000;","Q01  00002PRCP24Q02  00002PRCP12"
"08213099999","2010-09-23T09:00:00","4","40.95","-4.1333333","1005.0","SEGOVIA, SP","FM-12","99999","V020","070,1,N,0010,1","01500,1,9,N","012000,1,N,1","+0184,1","+0110,1","99999,9",,,,,,,"08,99,1,08,1,00,1,01750,1,07,1,99,9",,,,,"99999,9,09038,1","2,1,007,1,+999,9","3,1529,9",,"SYN066AAXX  23094 08213 42762 80702 10184 20110 39038 48529 52007 8807/;",
"08213099999","2010-09-23T12:00:00","4","40.95","-4.1333333","1005.0","SEGOVIA, SP","FM-12","99999","V020","220,1,N,0031,1","00750,1,9,N","012000,1,N,1","+0216,1","+0101,1","99999,9","06,0000,9,1",,,,,,"08,99,1,08,1,05,1,00800,1,99,9,99,9",,,,,"99999,9,09035,1","7,1,003,1,+999,9","3,1531,9",,"SYN082AAXX  23124 08213 12562 82206 10216 20101 39035 48531 57003 60001 885// 333 50570;","Q01  00002PRCP06"
"08213099999","2010-09-23T15:00:00","4","40.95","-4.1333333","1005.0","SEGOVIA, SP","FM-12","99999","V020","290,1,N,0031,1","00750,1,9,N","015000,1,N,1","+0196,1","+0103,1","99999,9",,,,,,,"08,99,1,08,1,05,1,00800,1,99,9,99,9",,,,,"99999,9,09022,1","7,1,013,1,+999,9","3,1516,9",,"SYN066AAXX  23154 08213 42565 82906 10196 20103 39022 48516 57013 885//;",
"08213099999","2010-09-23T18:00:00","4","40.95","-4.1333333","1005.0","SEGOVIA, SP","FM-12","99999","V020","280,1,N,0031,1","03600,1,9,N","014000,1,N,1","+0178,1","+0099,1","99999,9","12,9999,9,9",,,"2,1,06,1","2,1,06,1",,"08,99,1,04,1,05,1,00800,1,07,1,99,9",,,,"999,M,+0220,1","99999,9,09022,1","4,1,000,1,+999,9","3,1512,9","60,1","SYN088AAXX  23184 08213 11564 82806 10178 20099 39022 48512 54000 69902 76022 8457/ 333 10220;","Q01  00002PRCP12Q02  00002PRCP12"
"08213099999","2010-09-24T06:00:00","4","40.95","-4.1333333","1005.0","SEGOVIA, SP","FM-12","99999","V020","260,1,N,0036,1","00750,1,9,N","012000,1,N,1","+0124,1","+0106,1","99999,9","12,0005,9,1","24,0005,9,1",,,,,"08,99,1,05,1,05,1,00800,1,02,1,99,9","0030,9","09,9","999,+0110,9","999,N,+0124,1","99999,9,09022,1","6,1,004,1,+999,9","3,1503,9",,"SYN100AAXX  24064 08213 12562 82607 10124 20106 39022 48503 56004 69962 8552/ 333 20124 31011 55005 70006;",
"08213099999","2010-09-24T09:00:00","4","40.95","-4.1333333","1005.0","SEGOVIA, SP","FM-12","99999","V020","300,1,N,0051,1","00750,1,9,N","014000,1,N,1","+0130,1","+0112,1","99999,9",,,,,,,"08,99,1,05,1,05,1,00800,1,02,1,99,9",,,,,"99999,9,09025,1","0,1,003,1,+999,9","3,1507,9",,"SYN066AAXX  24094 08213 42564 83010 10130 20112 39025 48507 50003 8552/;",
"08213099999","2010-09-24T12:00:00","4","40.95","-4.1333333","1005.0","SEGOVIA, SP","FM-12","99999","V020","280,1,N,0051,1","01200,1,9,N","018000,1,N,1","+0172,1","+0078,1","99999,9","06,0000,9,1",,,,,,"07,99,1,07,1,08,1,00800,1,00,1,00,1",,,,,"99999,9,09019,1","7,1,006,1,+999,9","3,1508,9",,"SYN082AAXX  24124 08213 12568 72810 10172 20078 39019 48508 57006 60001 87800 333 50090;","Q01  00002PRCP06"
"08213099999","2010-09-24T15:00:00","4","40.95","-4.1333333","1005.0","SEGOVIA, SP","FM-12","99999","V020","320,1,N,0046,1","01200,1,9,N","018000,1,N,1","+0196,1","+0077,1","99999,9",,,,,,,"07,99,1,07,1,08,1,00800,1,00,1,00,1",,,,,"99999,9,09010,1","6,1,009,1,+999,9","3,1504,9",,"SYN066AAXX  24154 08213 42568 73209 10196 20077 39010 48504 56009 87800;",
"08213099999","2010-09-24T18:00:00","4","40.95","-4.1333333","1005.0","SEGOVIA, SP","FM-12","99999","V020","280,1,N,0057,1","01200,1,9,N","018000,1,N,1","+0180,1","+0065,1","99999,9","12,0000,9,1",,,,,,"07,99,1,07,1,08,1,00800,1,00,1,00,1",,,,"999,M,+0202,1","99999,9,09005,1","7,1,005,1,+999,9","3,1496,9",,"SYN082AAXX  24184 08213 12568 72811 10180 20065 39005 48496 57005 60002 87800 333 10202;","Q01  00002PRCP12"
"08213099999","2010-09-25T06:00:00","4","40.95","-4.1333333","1005.0","SEGOVIA, SP","FM-12","99999","V020","050,1,N,0031,1","03600,1,9,N","018000,1,N,1","+0090,1","+0038,1","99999,9","12,0000,9,1","24,0000,9,1",,,,,"05,99,1,01,1,04,1,00800,1,05,1,00,1","0372,9","01,9","999,+0050,9","999,N,+0090,1","99999,9,09008,1","3,1,002,1,+999,9","3,1483,9",,"SYN100AAXX  25064 08213 12568 50506 10090 20038 39008 48483 53002 60002 81450 333 20090 30005 55062 70000;","Q01  00002PRCP24Q02  00002PRCP12"
"08213099999","2010-09-25T09:00:00","4","40.95","-4.1333333","1005.0","SEGOVIA, SP","FM-12","99999","V020","080,1,N,0036,1","22000,1,9,N","020000,1,N,1","+0132,1","+0046,1","99999,9",,,,,,,"01,99,1,01,1,02,1,00800,1,00,1,00,1",,,,,"99999,9,09014,1","2,1,006,1,+999,9","3,1496,9",,"SYN066AAXX  25094 08213 42570 10807 10132 20046 39014 48496 52006 81200;",
"08213099999","2010-09-25T12:00:00","4","40.95","-4.1333333","1005.0","SEGOVIA, SP","FM-12","99999","V020","030,1,N,0057,1","22000,1,9,N","020000,1,N,1","+0166,1","+0040,1","99999,9","06,0000,9,1",,,,,,"04,99,1,04,1,02,1,00800,1,00,1,00,1",,,,,"99999,9,09017,1","0,1,003,1,+999,9","3,1505,9",,"SYN082AAXX  25124 08213 12570 40311 10166 20040 39017 48505 50003 60001 84200 333 50260;","Q01  00002PRCP06"
"08213099999","2010-09-25T15:00:00","4","40.95","-4.1333333","1005.0","SEGOVIA, SP","FM-12","99999","V020","050,1,N,0026,1","22000,1,9,N","020000,1,N,1","+0174,1","+0037,1","99999,9",,,,,,,"03,99,1,03,1,02,1,00800,1,00,1,00,1",,,,,"99999,9,09006,1","7,1,011,1,+999,9","3,1496,9",,"SYN066AAXX  25154 08213 42570 30505 10174 20037 39006 48496 57011 83200;",
"08213099999","2010-09-25T18:00:00","4","40.95","-4.1333333","1005.0","SEGOVIA, SP","FM-12","99999","V020","040,1,N,0041,1","22000,1,9,N","020000,1,N,1","+0146,1","+0043,1","99999,9","12,0000,9,1",,,,,,"01,99,1,01,1,02,1,00800,1,00,1,00,1",,,,"999,M,+0186,1","99999,9,09001,1","6,1,005,1,+999,9","3,1486,9",,"SYN082AAXX  25184 08213 12570 10408 10146 20043 39001 48486 56005 60002 81200 333 10186;","Q01  00002PRCP12"
"08213099999","2010-09-26T06:00:00","4","40.95","-4.1333333","1005.0","SEGOVIA, SP","FM-12","99999","V020","110,1,N,0010,1","22000,1,9,N","020000,1,N,1","+0048,1","+0025,1","99999,9","12,0000,9,1","24,0000,9,1",,,,"00,1,+99999,9,99,9","00,99,1,00,1,00,1,99999,9,00,1,00,1","0660,9","09,9","999,+0010,9","999,N,+0048,1","99999,9,08999,1","6,1,002,1,+999,9","3,1468,9",,"SYN094AAXX  26064 08213 12970 01102 10048 20025 38999 48468 56002 60002 333 20048 31001 55110 70000;","Q01  00002PRCP24Q02  00002PRCP12"
"08213099999","2010-09-26T09:00:00","4","40.95","-4.1333333","1005.0","SEGOVIA, SP","FM-12","99999","V020","060,1,N,0041,1","00750,1,9,N","020000,1,N,1","+0100,1","+0040,1","99999,9",,,,,,,"06,99,1,06,1,02,1,00800,1,00,1,00,1",,,,,"99999,9,09007,1","1,1,008,1,+999,9","3,1484,9",,"SYN066AAXX  26094 08213 42570 60608 10100 20040 39007 48484 51008 86200;",
"08213099999","2010-09-26T12:00:00","4","40.95","-4.1333333","1005.0","SEGOVIA, SP","FM-12","99999","V020","040,1,N,0041,1","22000,1,9,N","020000,1,N,1","+0140,1","+0006,1","99999,9","06,0000,9,1",,,,,"00,1,+99999,9,99,9","00,99,1,00,1,00,1,99999,9,00,1,00,1",,,,,"99999,9,09008,1","0,1,001,1,+999,9","3,1492,9",,"SYN076AAXX  26124 08213 12970 00408 10140 20006 39008 48492 50001 60001 333 50380;","Q01  00002PRCP06"
"08213099999","2010-09-26T15:00:00","4","40.95","-4.1333333","1005.0","SEGOVIA, SP","FM-12","99999","V020","030,1,N,0026,1","22000,1,9,N","020000,1,N,1","+0160,1","+0013,1","99999,9",,,,,,"00,1,+99999,9,99,9","00,99,1,00,1,00,1,99999,9,00,1,00,1",,,,,"99999,9,09004,1","7,1,004,1,+999,9","3,1491,9",,"SYN060AAXX  26154 08213 42970 00305 10160 20013 39004 48491 57004;",
"08213099999","2010-09-26T18:00:00","4","40.95","-4.1333333","1005.0","SEGOVIA, SP","FM-12","99999","V020","350,1,N,0026,1","22000,1,9,N","020000,1,N,1","+0146,1","+0012,1","99999,9","12,0000,9,1",,,,,,"01,99,1,00,1,00,1,99999,9,00,1,01,1",,,,"999,M,+0172,1","99999,9,09001,1","6,1,003,1,+999,9","3,1486,9",,"SYN082AAXX  26184 08213 12970 13505 10146 20012 39001 48486 56003 60002 80001 333 10172;","Q01  00002PRCP12"
"08213099999","2010-09-27T06:00:00","4","40.95","-4.1333333","1005.0","SEGOVIA, SP","FM-12","99999","V020","090,1,N,0010,1","22000,1,9,N","020000,1,N,1","+0062,1","+0007,1","99999,9","12,0000,9,1","24,0000,9,1",,,,,"02,99,1,01,1,00,1,01750,1,03,1,01,1","0648,9","09,9","999,-0020,9","999,N,+0052,1","99999,9,09002,1","7,1,003,1,+999,9","3,1473,9",,"SYN100AAXX  27064 08213 12770 20902 10062 20007 39002 48473 57003 60002 81031 333 20052 31102 55108 70000;","Q01  00002PRCP24Q02  00002PRCP12"
"08213099999","2010-09-27T09:00:00","4","40.95","-4.1333333","1005.0","SEGOVIA, SP","FM-12","99999","V020","340,1,N,0015,1","22000,1,9,N","020000,1,N,1","+0120,1","+0038,1","99999,9",,,,,,,"02,99,1,00,1,00,1,99999,9,00,1,02,1",,,,,"99999,9,09007,1","3,1,005,1,+999,9","3,1488,9",,"SYN066AAXX  27094 08213 42970 23403 10120 20038 39007 48488 53005 80002;",
"08213099999","2010-09-27T12:00:00","4","40.95","-4.1333333","1005.0","SEGOVIA, SP","FM-12","99999","V020","320,1,N,0026,1","22000,1,9,N","020000,1,N,1","+0168,1","+0038,1","99999,9","06,0000,9,1",,,,,,"02,99,1,00,1,00,1,99999,9,00,1,01,1",,,,,"99999,9,09009,1","1,1,002,1,+999,9","3,1498,9",,"SYN082AAXX  27124 08213 12970 23205 10168 20038 39009 48498 51002 60001 80001 333 50290;","Q01  00002PRCP06"
"08213099999","2010-09-27T15:00:00","4","40.95","-4.1333333","1005.0","SEGOVIA, SP","FM-12","99999","V020","020,1,N,0010,1","22000,1,9,N","020000,1,N,1","+0184,1","+0027,1","99999,9",,,,,,,"03,99,1,00,1,00,1,99999,9,00,1,02,1",,,,,"99999,9,09005,1","6,1,004,1,+999,9","3,1496,9",,"SYN066AAXX  27154 08213 42970 30202 10184 20027 39005 48496 56004 80002;",
"08213099999","2010-09-27T18:00:00","4","40.95","-4.1333333","1005.0","SEGOVIA, SP","FM-12","99999","V020","300,1,N,0021,1","22000,1,9,N","020000,1,N,1","+0156,1","+0037,1","99999,9","12,0000,9,1",,,,,,"04,99,1,01,1,00,1,01750,1,03,1,02,1",,,,"999,M,+0194,1","99999,9,09007,1","3,1,002,1,+999,9","3,1494,9",,"SYN082AAXX  27184 08213 12770 43004 10156 20037 39007 48494 53002 60002 81032 333 10194;","Q01  00002PRCP12"
"08213099999","2010-09-28T06:00:00","4","40.95","-4.1333333","1005.0","SEGOVIA, SP","FM-12","99999","V020","160,1,N,0021,1","22000,1,9,N","020000,1,N,1","+0080,1","+0031,1","99999,9","12,0000,9,1","24,0000,9,1",,,,,"01,99,1,01,1,01,1,00800,1,00,1,00,1","0606,9","09,9","999,+0010,9","999,N,+0078,1","99999,9,09026,1","3,1,003,1,+999,9","3,1498,9",,"SYN100AAXX  28064 08213 12570 11604 10080 20031 39026 48498 53003 60002 81100 333 20078 31001 55101 70000;","Q01  00002PRCP24Q02  00002PRCP12"
"08213099999","2010-09-28T09:00:00","4","40.95","-4.1333333","1005.0","SEGOVIA, SP","FM-12","99999","V020","260,1,N,0015,1","22000,1,9,N","018000,1,N,1","+0134,1","+0043,1","99999,9",,,,,,"00,1,+99999,9,99,9","00,99,1,00,1,00,1,99999,9,00,1,00,1",,,,,"99999,9,09039,1","2,1,013,1,+999,9","3,1519,9",,"SYN060AAXX  28094 08213 42968 02603 10134 20043 39039 48519 52013;",
"08213099999","2010-09-28T12:00:00","4","40.95","-4.1333333","1005.0","SEGOVIA, SP","FM-12","99999","V020","020,1,N,0021,1","22000,1,9,N","020000,1,N,1","+0190,1","+0055,1","99999,9","06,0000,9,1",,,,,,"01,99,1,01,1,05,1,00800,1,00,1,00,1",,,,,"99999,9,09044,1","1,1,005,1,+999,9","3,1534,9",,"SYN082AAXX  28124 08213 12570 10204 10190 20055 39044 48534 51005 60001 81500 333 50290;","Q01  00002PRCP06"
"08213099999","2010-09-28T15:00:00","4","40.95","-4.1333333","1005.0","SEGOVIA, SP","FM-12","99999","V020","320,1,N,0036,1","22000,1,9,N","020000,1,N,1","+0210,1","+0058,1","99999,9",,,,,,,"01,99,1,01,1,05,1,00800,1,00,1,00,1",,,,,"99999,9,09042,1","8,1,002,1,+999,9","3,1536,9",,"SYN066AAXX  28154 08213 42570 13207 10210 20058 39042 48536 58002 81500;",
"08213099999","2010-09-28T18:00:00","4","40.95","-4.1333333","1005.0","SEGOVIA, SP","FM-12","99999","V020","340,1,N,0021,1","22000,1,9,N","020000,1,N,1","+0189,1","+0054,1","99999,9","12,0000,9,1",,,,,"00,1,+99999,9,99,9","00,99,1,00,1,00,1,99999,9,00,1,00,1",,,,"999,M,+0210,1","99999,9,09047,1","3,1,005,1,+999,9","3,1537,9",,"SYN076AAXX  28184 08213 12970 03404 10189 20054 39047 48537 53005 60002 333 10210;","Q01  00002PRCP12"
"08213099999","2010-09-29T06:00:00","4","40.95","-4.1333333","1005.0","SEGOVIA, SP","FM-12","99999","V020","100,1,N,0010,1","22000,1,9,N","020000,1,N,1","+0112,1","+0035,1","99999,9","12,0000,9,1","24,0000,9,1",,,,,"01,99,1,00,1,00,1,99999,9,00,1,01,1","0660,9","09,9","999,+0040,9","999,N,+0110,1","99999,9,09056,1","6,1,003,1,+999,9","3,1531,9",,"SYN100AAXX  29064 08213 12970 11002 10112 20035 39056 48531 56003 60002 80001 333 20110 31004 55110 70000;","Q01  00002PRCP24Q02  00002PRCP12"
"08213099999","2010-09-29T09:00:00","4","40.95","-4.1333333","1005.0","SEGOVIA, SP","FM-12","99999","V020","290,1,N,0015,1","22000,1,9,N","020000,1,N,1","+0192,1","+0063,1","99999,9",,,,,,,"01,99,1,00,1,00,1,99999,9,00,1,04,1",,,,,"99999,9,09062,1","1,1,006,1,+999,9","3,1552,9",,"SYN066AAXX  29094 08213 42970 12903 10192 20063 39062 48552 51006 80004;",
"08213099999","2010-09-29T12:00:00","4","40.95","-4.1333333","1005.0","SEGOVIA, SP","FM-12","99999","V020","320,1,N,0026,1","22000,1,9,N","020000,1,N,1","+0218,1","+0053,1","99999,9","06,0000,9,1",,,,,,"04,99,1,01,1,02,1,00800,1,00,1,04,1",,,,,"99999,9,09061,1","8,1,001,1,+999,9","3,1555,9",,"SYN082AAXX  29124 08213 12570 43205 10218 20053 39061 48555 58001 60001 81204 333 50360;","Q01  00002PRCP06"
"08213099999","2010-09-29T15:00:00","4","40.95","-4.1333333","1005.0","SEGOVIA, SP","FM-12","99999","V020","290,1,N,0031,1","22000,1,9,N","020000,1,N,1","+0240,1","+0039,1","99999,9",,,,,,,"01,99,1,01,1,01,1,00800,1,00,1,00,1",,,,,"99999,9,09049,1","7,1,012,1,+999,9","3,1548,9",,"SYN066AAXX  29154 08213 42570 12906 10240 20039 39049 48548 57012 81100;",
"08213099999","2010-09-29T18:00:00","4","40.95","-4.1333333","1005.0","SEGOVIA, SP","FM-12","99999","V020","310,1,N,0021,1","22000,1,9,N","020000,1,N,1","+0226,1","+0055,1","99999,9","12,0000,9,1",,,,,,"01,99,1,00,1,00,1,99999,9,00,1,04,1",,,,"999,M,+0250,1","99999,9,09046,1","7,1,003,1,+999,9","3,1543,9",,"SYN082AAXX  29184 08213 12970 13104 10226 20055 39046 48543 57003 60002 80004 333 10250;","Q01  00002PRCP12"
"08213099999","2010-09-30T06:00:00","4","40.95","-4.1333333","1005.0","SEGOVIA, SP","FM-12","99999","V020","090,1,N,0010,1","22000,1,9,N","020000,1,N,1","+0100,1","+0031,1","99999,9","12,0000,9,1","24,0000,9,1",,,,"00,1,+99999,9,99,9","00,99,1,00,1,00,1,99999,9,00,1,00,1","0648,9","09,9","999,+0030,9","999,N,+0100,1","99999,9,09051,1","2,1,001,1,+999,9","3,1524,9",,"SYN094AAXX  30064 08213 12970 00902 10100 20031 39051 48524 52001 60002 333 20100 31003 55108 70000;","Q01  00002PRCP24Q02  00002PRCP12"
"08213099999","2010-09-30T09:00:00","4","40.95","-4.1333333","1005.0","SEGOVIA, SP","FM-12","99999","V020","250,1,N,0021,1","22000,1,9,N","020000,1,N,1","+0148,1","+0081,1","99999,9",,,,,,,"01,99,1,00,1,00,1,99999,9,00,1,01,1",,,,,"99999,9,09054,1","2,1,003,1,+999,9","3,1536,9",,"SYN066AAXX  30094 08213 42970 12504 10148 20081 39054 48536 52003 80001;",
"08213099999","2010-09-30T12:00:00","4","40.95","-4.1333333","1005.0","SEGOVIA, SP","FM-12","99999","V020","300,1,N,0021,1","22000,1,9,N","020000,1,N,1","+0196,1","+0077,1","99999,9","06,0000,9,1",,,,,,"06,99,1,01,1,01,1,00800,1,00,1,06,1",,,,,"99999,9,09049,1","8,1,005,1,+999,9","3,1540,9",,"SYN082AAXX  30124 08213 12570 63004 10196 20077 39049 48540 58005 60001 81106 333 50340;","Q01  00002PRCP06"
"08213099999","2010-09-30T15:00:00","4","40.95","-4.1333333","1005.0","SEGOVIA, SP","FM-12","99999","V020","310,1,N,0026,1","09000,1,9,N","020000,1,N,1","+0226,1","+0072,1","99999,9",,,,,,,"07,99,1,01,1,02,1,00800,1,00,1,06,1",,,,,"99999,9,09032,1","6,1,017,1,+999,9","3,1530,9",,"SYN066AAXX  30154 08213 42570 73105 10226 20072 39032 48530 56017 81206;",
"08213099999","2010-09-30T18:00:00","4","40.95","-4.1333333","1005.0","SEGOVIA, SP","FM-12","99999","V020","320,1,N,0031,1","09000,1,9,N","020000,1,N,1","+0186,1","+0074,1","99999,9","12,0000,9,1",,,,,,"07,99,1,01,1,04,1,00800,1,00,1,06,1",,,,"999,M,+0234,1","99999,9,09032,1","5,1,000,1,+999,9","3,1523,9",,"SYN082AAXX  30184 08213 12570 73206 10186 20074 39032 48523 55000 60002 81406 333 10234;","Q01  00002PRCP12"
"08213099999","2010-10-01T06:00:00","4","40.95","-4.1333333","1005.0","SEGOVIA, SP","FM-12","99999","V020","070,1,N,0015,1","22000,1,9,N","015000,1,N,1","+0094,1","+0070,1","99999,9","12,0000,9,1","24,0000,9,1",,,,,"02,99,1,01,1,00,1,01750,1,04,1,01,1","0612,9","09,9","999,+0040,9","999,N,+0094,1","99999,9,09024,1","6,1,007,1,+999,9","3,1499,9",,"SYN100AAXX  01064 08213 12765 20703 10094 20070 39024 48499 56007 60002 81041 333 20094 31004 55102 70000;","Q01  00002PRCP24Q02  00002PRCP12"
"08213099999","2010-10-01T09:00:00","4","40.95","-4.1333333","1005.0","SEGOVIA, SP","FM-12","99999","V020","230,1,N,0015,1","22000,1,9,N","010000,1,N,1","+0142,1","+0075,1","99999,9",,,,,,,"01,99,1,00,1,00,1,99999,9,00,1,01,1",,,,,"99999,9,09026,1","3,1,002,1,+999,9","3,1509,9",,"SYN066AAXX  01094 08213 42960 12303 10142 20075 39026 48509 53002 80001;",
"08213099999","2010-10-01T12:00:00","4","40.95","-4.1333333","1005.0","SEGOVIA, SP","FM-12","99999","V020","290,1,N,0026,1","22000,1,9,N","012000,1,N,1","+0200,1","+0060,1","99999,9","06,0000,9,1",,,,,,"01,99,1,00,1,00,1,99999,9,00,1,01,1",,,,,"99999,9,09021,1","8,1,005,1,+999,9","3,1515,9",,"SYN082AAXX  01124 08213 12962 12905 10200 20060 39021 48515 58005 60001 80001 333 50340;","Q01  00002PRCP06"
"08213099999","2010-10-01T15:00:00","4","40.95","-4.1333333","1005.0","SEGOVIA, SP","FM-12","99999","V020","280,1,N,0036,1","22000,1,9,N","015000,1,N,1","+0232,1","+0027,1","99999,9",,,,,,,"02,99,1,01,1,00,1,01750,1,04,1,01,1",,,,,"99999,9,09006,1","6,1,015,1,+999,9","3,1505,9",,"SYN066AAXX  01154 08213 42765 22807 10232 20027 39006 48505 56015 81041;",
"08213099999","2010-10-01T18:00:00","4","40.95","-4.1333333","1005.0","SEGOVIA, SP","FM-12","99999","V020","320,1,N,0021,1","22000,1,9,N","015000,1,N,1","+0201,1","+0042,1","99999,9","12,0000,9,1",,,,,,"02,99,1,01,1,00,1,01750,1,03,1,09,1",,,,"999,M,+0234,1","99999,9,09008,1","3,1,002,1,+999,9","3,1502,9",,"SYN082AAXX  01184 08213 12765 23204 10201 20042 39008 48502 53002 60002 81039 333 10234;","Q01  00002PRCP12"
"08213099999","2010-10-02T06:00:00","4","40.95","-4.1333333","1005.0","SEGOVIA, SP","FM-12","99999","V020","020,1,N,0005,1","22000,1,9,N","015000,1,N,1","+0118,1","+0050,1","99999,9","12,0000,9,1","24,0000,9,1",,,,,"02,99,1,01,1,00,1,01750,1,04,1,09,1","0648,9","09,9","999,+0020,9","999,N,+0103,1","99999,9,08994,1","6,1,009,1,+999,9","3,1475,9",,"SYN100AAXX  02064 08213 12765 20201 10118 20050 38994 48475 56009 60002 81049 333 20103 31002 55108 70000;","Q01  00002PRCP24Q02  00002PRCP12"
"08213099999","2010-10-02T09:00:00","4","40.95","-4.1333333","1005.0","SEGOVIA, SP","FM-12","99999","V020","050,1,N,0021,1","22000,1,9,N","015000,1,N,1","+0202,1","+0039,1","99999,9",,,,,,,"02,99,1,01,1,00,1,01750,1,04,1,01,1",,,,,"99999,9,09002,1","3,1,008,1,+999,9","3,1497,9",,"SYN066AAXX  02094 08213 42765 20504 10202 20039 39002 48497 53008 81041;",
"08213099999","2010-10-02T12:00:00","4","40.95","-4.1333333","1005.0","SEGOVIA, SP","FM-12","99999","V020","190,1,N,0051,1","22000,1,9,N","020000,1,N,1","+0230,1","+0030,1","99999,9","06,0000,9,1",,,,,,"01,99,1,01,1,01,1,00800,1,00,1,00,1",,,,,"99999,9,09001,1","8,1,001,1,+999,9","3,1500,9",,"SYN082AAXX  02124 08213 12570 11910 10230 20030 39001 48500 58001 60001 81100 333 50330;","Q01  00002PRCP06"
"08213099999","2010-10-02T15:00:00","4","40.95","-4.1333333","1005.0","SEGOVIA, SP","FM-12","99999","V020","230,1,N,0062,1","22000,1,9,N","020000,1,N,1","+0244,1","-0007,1","99999,9",,,,,,,"01,99,1,00,1,00,1,99999,9,00,1,05,1",,,,,"99999,9,08988,1","8,1,013,1,+999,9","3,1490,9",,"SYN066AAXX  02154 08213 42970 12312 10244 21007 38988 48490 58013 80005;",
"08213099999","2010-10-02T18:00:00","4","40.95","-4.1333333","1005.0","SEGOVIA, SP","FM-12","99999","V020","230,1,N,0041,1","22000,1,9,N","020000,1,N,1","+0204,1","-0014,1","99999,9","12,0000,9,1",,,,,,"03,99,1,01,1,00,1,01750,1,04,1,01,1",,,,"999,M,+0252,1","99999,9,08982,1","6,1,006,1,+999,9","3,1478,9",,"SYN082AAXX  02184 08213 12770 32308 10204 21014 38982 48478 56006 60002 81041 333 10252;","Q01  00002PRCP12"
"08213099999","2010-10-03T06:00:00","4","40.95","-4.1333333","1005.0","SEGOVIA, SP","FM-12","99999","V020","260,1,N,0051,1","03600,1,9,N","015000,1,N,1","+0135,1","+0038,1","99999,9","12,0000,9,1","24,0000,9,1",,,,,"06,99,1,04,1,05,1,00800,1,04,1,08,1","0600,9","01,9","999,+0070,9","999,N,+0135,1","99999,9,08950,1","6,1,013,1,+999,9","3,1437,9",,"SYN100AAXX  03064 08213 12565 62610 10135 20038 38950 48437 56013 60002 84548 333 20135 30007 55100 70000;","Q01  00002PRCP24Q02  00002PRCP12"
"08213099999","2010-10-03T09:00:00","4","40.95","-4.1333333","1005.0","SEGOVIA, SP","FM-12","99999","V020","220,1,N,0082,1","03600,1,9,N","012000,1,N,1","+0173,1","+0039,1","99999,9",,,,,,,"07,99,1,04,1,05,1,00800,1,03,1,08,1",,,,,"99999,9,08951,1","3,1,001,1,+999,9","3,1444,9",,"SYN066AAXX  03094 08213 42562 72216 10173 20039 38951 48444 53001 84538;",
"08213099999","2010-10-03T12:00:00","4","40.95","-4.1333333","1005.0","SEGOVIA, SP","FM-12","99999","V020","190,1,N,0072,1","00750,1,9,N","010000,1,N,1","+0136,1","+0065,1","99999,9","06,9999,9,9",,,"2,1,06,1","2,1,06,1",,"08,99,1,06,1,05,1,00800,1,07,1,08,1",,,,,"99999,9,08941,1","8,1,010,1,+999,9","3,1429,9","60,1","SYN088AAXX  03124 08213 11560 81914 10136 20065 38941 48429 58010 69901 76022 86578 333 50570;","Q01  00002PRCP06Q02  00002PRCP06"
"08213099999","2010-10-03T15:00:00","4","40.95","-4.1333333","1005.0","SEGOVIA, SP","FM-12","99999","V020","160,1,N,0098,1","03600,1,9,N","012000,1,N,1","+0165,1","+0082,1","99999,9",,,,"6,1,03,1","2,1,03,1",,"07,99,1,04,1,05,1,00800,1,03,1,01,1",,,,,"99999,9,08906,1","6,1,035,1,+999,9","3,1401,9","02,1","SYN072AAXX  03154 08213 41562 71619 10165 20082 38906 48401 56035 70262 84531;",
"08213099999","2010-10-03T18:00:00","4","40.95","-4.1333333","1005.0","SEGOVIA, SP","FM-12","99999","V020","200,1,N,0149,1","01200,1,9,N","010000,1,N,1","+0160,1","+0087,1","99999,9","12,0000,2,1",,,"2,1,06,1","2,1,06,1",,"07,99,1,05,1,08,1,00800,1,07,1,08,1",,,,"999,M,+0183,1","99999,9,08876,1","8,1,030,1,+999,9","3,1372,9","60,1","SYN088AAXX  03184 08213 11560 72029 10160 20087 38876 48372 58030 69902 76022 85878 333 10183;",
"08213099999","2010-10-04T06:00:00","4","40.95","-4.1333333","1005.0","SEGOVIA, SP","FM-12","99999","V020","250,1,N,0062,1","00750,1,9,N","010000,1,N,1","+0094,1","+0065,1","99999,9","12,0061,9,1","24,0061,9,1",,,,,"08,99,1,05,1,05,1,00800,1,02,1,99,9","0210,9","11,9","999,+0070,9","999,N,+0090,1","99999,9,08942,1","2,1,010,1,+999,9","3,1424,9",,"SYN100AAXX  04064 08213 12560 82512 10094 20065 38942 48424 52010 60062 8552/ 333 20090 32007 55035 70062;",
"08213099999","2010-10-04T09:00:00","4","40.95","-4.1333333","1005.0","SEGOVIA, SP","FM-12","99999","V020","280,1,N,0057,1","01200,1,9,N","016000,1,N,1","+0098,1","+0071,1","99999,9",,,,,,,"07,99,1,07,1,08,1,00800,1,00,1,00,1",,,,,"99999,9,08969,1","2,1,027,1,+999,9","3,1449,9",,"SYN066AAXX  04094 08213 42566 72811 10098 20071 38969 48449 52027 87800;",
"08213099999","2010-10-04T12:00:00","4","40.95","-4.1333333","1005.0","SEGOVIA, SP","FM-12","99999","V020","330,1,N,0031,1","01200,1,9,N","018000,1,N,1","+0130,1","+0059,1","99999,9","06,0000,9,1",,,,,,"07,99,1,07,1,08,1,00800,1,00,1,00,1",,,,,"99999,9,08978,1","1,1,009,1,+999,9","3,1463,9",,"SYN082AAXX  04124 08213 12568 73306 10130 20059 38978 48463 51009 60001 87800 333 50380;","Q01  00002PRCP06"
"08213099999","2010-10-04T15:00:00","4","40.95","-4.1333333","1005.0","SEGOVIA, SP","FM-12","99999","V020","330,1,N,0031,1","01200,1,9,N","018000,1,N,1","+0156,1","+0046,1","99999,9",,,,,,,"06,99,1,06,1,08,1,00800,1,00,1,00,1",,,,,"99999,9,08978,1","5,1,000,1,+999,9","3,1467,9",,"SYN066AAXX  04154 08213 42568 63306 10156 20046 38978 48467 55000 86800;",
"08213099999","2010-10-04T18:00:00","4","40.95","-4.1333333","1005.0","SEGOVIA, SP","FM-12","99999","V020","290,1,N,0021,1","22000,1,9,N","018000,1,N,1","+0146,1","+0054,1","99999,9","12,0000,9,1",,,,,,"03,99,1,03,1,08,1,00800,1,00,1,00,1",,,,"999,M,+0168,1","99999,9,08989,1","3,1,011,1,+999,9","3,1475,9",,"SYN082AAXX  04184 08213 12568 32904 10146 20054 38989 48475 53011 60002 83800 333 10168;","Q01  00002PRCP12"
"08213099999","2010-10-05T06:00:00","4","40.95","-4.1333333","1005.0","SEGOVIA, SP","FM-12","99999","V020","070,1,N,0021,1","22000,1,9,N","020000,1,N,1","+0061,1","+0041,1","99999,9","12,0000,9,1","24,0000,9,1",,,,,"02,99,1,01,1,00,1,01750,1,03,1,01,1","0420,9","09,9","999,-0020,9","999,N,+0060,1","99999,9,09009,1","7,1,005,1,+999,9","3,1479,9",,"SYN100AAXX  05064 08213 12770 20704 10061 20041 39009 48479 57005 60002 81031 333 20060 31102 55070 70000;","Q01  00002PRCP24Q02  00002PRCP12"
"08213099999","2010-10-05T09:00:00","4","40.95","-4.1333333","1005.0","SEGOVIA, SP","FM-12","99999","V020","180,1,N,0010,1","22000,1,9,N","020000,1,N,1","+0125,1","+0037,1","99999,9",,,,,,,"02,99,1,00,1,00,1,99999,9,00,1,04,1",,,,,"99999,9,09007,1","8,1,002,1,+999,9","3,1488,9",,"SYN066AAXX  05094 08213 42970 21802 10125 20037 39007 48488 58002 80004;",
"08213099999","2010-10-05T12:00:00","4","40.95","-4.1333333","1005.0","SEGOVIA, SP","FM-12","99999","V020","250,1,N,0031,1","22000,1,9,N","020000,1,N,1","+0210,1","+0037,1","99999,9","06,0000,9,1",,,,,,"03,99,1,00,1,00,1,99999,9,00,1,02,1",,,,,"99999,9,08995,1","7,1,012,1,+999,9","3,1491,9",,"SYN082AAXX  05124 08213 12970 32506 10210 20037 38995 48491 57012 60001 80002 333 50100;","Q01  00002PRCP06"
"08213099999","2010-10-05T15:00:00","4","40.95","-4.1333333","1005.0","SEGOVIA, SP","FM-12","99999","V020","280,1,N,0046,1","22000,1,9,N","020000,1,N,1","+0216,1","+0051,1","99999,9",,,,,,,"03,99,1,00,1,00,1,99999,9,00,1,02,1",,,,,"99999,9,08980,1","7,1,015,1,+999,9","3,1478,9",,"SYN066AAXX  05154 08213 42970 32809 10216 20051 38980 48478 57015 80002;",
"08213099999","2010-10-05T18:00:00","4","40.95","-4.1333333","1005.0","SEGOVIA, SP","FM-12","99999","V020","130,1,N,0051,1","22000,1,9,N","020000,1,N,1","+0178,1","+0060,1","99999,9","12,0000,9,1",,,,,,"04,99,1,00,1,00,1,99999,9,00,1,02,1",,,,"999,M,+0224,1","99999,9,08979,1","6,1,001,1,+999,9","3,1471,9",,"SYN082AAXX  05184 08213 12970 41310 10178 20060 38979 48471 56001 60002 80002 333 10224;","Q01  00002PRCP12"
"08213099999","2010-10-06T06:00:00","4","40.95","-4.1333333","1005.0","SEGOVIA, SP","FM-12","99999","V020","070,1,N,0015,1","22000,1,9,N","015000,1,N,1","+0103,1","+0061,1","99999,9","12,0000,9,1","24,0000,9,1",,,,,"04,99,1,01,1,00,1,01750,1,04,1,01,1","0588,9","09,9","999,+0020,9","999,N,+0100,1","99999,9,08970,1","5,1,000,1,+999,9","3,1451,9",,"SYN100AAXX  06064 08213 12765 40703 10103 20061 38970 48451 55000 60002 81041 333 20100 31002 55098 70000;","Q01  00002PRCP24Q02  00002PRCP12"
"08213099999","2010-10-06T09:00:00","4","40.95","-4.1333333","1005.0","SEGOVIA, SP","FM-12","99999","V020","160,1,N,0015,1","22000,1,9,N","012000,1,N,1","+0156,1","+0076,1","99999,9",,,,,,,"02,99,1,01,1,00,1,01750,1,04,1,01,1",,,,,"99999,9,08981,1","3,1,011,1,+999,9","3,1470,9",,"SYN066AAXX  06094 08213 42762 21603 10156 20076 38981 48470 53011 81041;",
"08213099999","2010-10-06T12:00:00","4","40.95","-4.1333333","1005.0","SEGOVIA, SP","FM-12","99999","V020","300,1,N,0021,1","22000,1,9,N","015000,1,N,1","+0217,1","+0060,1","99999,9","06,0000,9,1",,,,,,"02,99,1,01,1,00,1,01750,1,04,1,01,1",,,,,"99999,9,08981,1","0,1,000,1,+999,9","3,1479,9",,"SYN082AAXX  06124 08213 12765 23004 10217 20060 38981 48479 50000 60001 81041 333 50360;","Q01  00002PRCP06"
"08213099999","2010-10-06T15:00:00","4","40.95","-4.1333333","1005.0","SEGOVIA, SP","FM-12","99999","V020","240,1,N,0015,1","22000,1,9,N","020000,1,N,1","+0234,1","+0079,1","99999,9",,,,,,,"02,99,1,01,1,01,1,00800,1,04,1,01,1",,,,,"99999,9,08972,1","6,1,009,1,+999,9","3,1474,9",,"SYN066AAXX  06154 08213 42570 22403 10234 20079 38972 48474 56009 81141;",
"08213099999","2010-10-06T18:00:00","4","40.95","-4.1333333","1005.0","SEGOVIA, SP","FM-12","99999","V020","140,1,N,0041,1","22000,1,9,N","015000,1,N,1","+0184,1","+0056,1","99999,9","12,0000,9,1",,,,,,"02,99,1,01,1,04,1,00800,1,04,1,01,1",,,,"999,M,+0235,1","99999,9,08977,1","3,1,005,1,+999,9","3,1470,9",,"SYN082AAXX  06184 08213 12565 21408 10184 20056 38977 48470 53005 60002 81441 333 10235;","Q01  00002PRCP12"
"08213099999","2010-10-07T06:00:00","4","40.95","-4.1333333","1005.0","SEGOVIA, SP","FM-12","99999","V020","120,1,N,0010,1","22000,1,9,N","012000,1,N,1","+0136,1","+0078,1","99999,9","12,0000,9,1","24,0000,9,1",,,,,"03,99,1,01,1,08,1,00800,1,04,1,01,1","0630,9","01,9","999,+0020,9","999,N,+0107,1","99999,9,08983,1","5,1,000,1,+999,9","3,1469,9",,"SYN100AAXX  07064 08213 12562 31202 10136 20078 38983 48469 55000 60002 81841 333 20107 30002 55105 70000;","Q01  00002PRCP24Q02  00002PRCP12"
"08213099999","2010-10-07T09:00:00","4","40.95","-4.1333333","1005.0","SEGOVIA, SP","FM-12","99999","V020","270,1,N,0026,1","09000,1,9,N","012000,1,N,1","+0155,1","+0085,1","99999,9",,,,,,,"06,99,1,02,1,08,1,00800,1,07,1,06,1",,,,,"99999,9,08998,1","3,1,015,1,+999,9","3,1486,9",,"SYN066AAXX  07094 08213 42562 62705 10155 20085 38998 48486 53015 82876;",
"08213099999","2010-10-07T12:00:00","4","40.95","-4.1333333","1005.0","SEGOVIA, SP","FM-12","99999","V020","060,1,N,0015,1","03600,1,9,N","012000,1,N,1","+0210,1","+0116,1","99999,9","06,0000,9,1",,,,,,"06,99,1,02,1,08,1,00800,1,07,1,09,1",,,,,"99999,9,08995,1","8,1,003,1,+999,9","3,1493,9",,"SYN082AAXX  07124 08213 12562 60603 10210 20116 38995 48493 58003 60001 82879 333 50310;","Q01  00002PRCP06"
"08213099999","2010-10-07T15:00:00","4","40.95","-4.1333333","1005.0","SEGOVIA, SP","FM-12","99999","V020","240,1,N,0057,1","00750,1,9,N","012000,1,N,1","+0208,1","+0112,1","99999,9",,,,,,,"06,99,1,05,1,02,1,00800,1,09,1,01,1",,,,,"99999,9,08988,1","6,1,007,1,+999,9","3,1485,9",,"SYN066AAXX  07154 08213 42562 62411 10208 20112 38988 48485 56007 85291;",
"08213099999","2010-10-07T18:00:00","4","40.95","-4.1333333","1005.0","SEGOVIA, SP","FM-12","99999","V020","250,1,N,0062,1","03600,1,9,N","012000,1,N,1","+0187,1","+0113,1","99999,9","12,0000,9,1",,,,,,"06,99,1,03,1,08,1,00800,1,09,1,01,1",,,,"999,M,+0227,1","99999,9,08989,1","3,1,001,1,+999,9","3,1483,9",,"SYN082AAXX  07184 08213 12562 62512 10187 20113 38989 48483 53001 60002 83891 333 10227;","Q01  00002PRCP12"
"08213099999","2010-10-08T06:00:00","4","40.95","-4.1333333","1005.0","SEGOVIA, SP","FM-12","99999","V020","300,1,N,0036,1","03600,1,9,N","020000,1,N,1","+0152,1","+0075,1","99999,9","12,0000,9,1","24,0000,9,1",,,,,"07,99,1,01,1,06,1,00800,1,07,1,99,9","0258,9","01,9","999,+0020,9","999,N,+0144,1","99999,9,08980,1","6,1,005,1,+999,9","3,1468,9",,"SYN100AAXX  08064 08213 12570 73007 10152 20075 38980 48468 56005 60002 8167/ 333 20144 30002 55043 70000;","Q01  00002PRCP24Q02  00002PRCP12"
"08213099999","2010-10-08T09:00:00","4","40.95","-4.1333333","1005.0","SEGOVIA, SP","FM-12","99999","V020","150,1,N,0046,1","03600,1,9,N","018000,1,N,1","+0174,1","+0077,1","99999,9",,,,,,,"06,99,1,03,1,05,1,00800,1,07,1,00,1",,,,,"99999,9,08985,1","3,1,005,1,+999,9","3,1477,9",,"SYN066AAXX  08094 08213 42568 61509 10174 20077 38985 48477 53005 83570;",
"08213099999","2010-10-08T12:00:00","4","40.95","-4.1333333","1005.0","SEGOVIA, SP","FM-12","99999","V020","250,1,N,0077,1","22000,1,9,N","018000,1,N,1","+0228,1","+0074,1","99999,9","06,0000,9,1",,,,,,"03,99,1,03,1,00,1,01750,1,03,1,00,1",,,,,"99999,9,08980,1","6,1,005,1,+999,9","3,1480,9",,"SYN082AAXX  08124 08213 12768 32515 10228 20074 38980 48480 56005 60001 83030 333 50180;","Q01  00002PRCP06"
"08213099999","2010-10-08T15:00:00","4","40.95","-4.1333333","1005.0","SEGOVIA, SP","FM-12","99999","V020","210,1,N,0072,1","22000,1,9,N","015000,1,N,1","+0212,1","+0063,1","99999,9",,,,,,,"03,99,1,01,1,05,1,00800,1,04,1,00,1",,,,,"99999,9,08972,1","7,1,008,1,+999,9","3,1470,9",,"SYN066AAXX  08154 08213 42565 32114 10212 20063 38972 48470 57008 81540;",
"08213099999","2010-10-08T18:00:00","4","40.95","-4.1333333","1005.0","SEGOVIA, SP","FM-12","99999","V020","190,1,N,0077,1","03600,1,9,N","012000,1,N,1","+0195,1","+0085,1","99999,9","12,0000,9,1",,,,,,"07,99,1,02,1,05,1,00800,1,07,1,99,9",,,,"999,M,+0234,1","99999,9,08969,1","7,1,003,1,+999,9","3,1465,9",,"SYN082AAXX  08184 08213 12562 71915 10195 20085 38969 48465 57003 60002 8257/ 333 10234;","Q01  00002PRCP12"
"08213099999","2010-10-09T06:00:00","4","40.95","-4.1333333","1005.0","SEGOVIA, SP","FM-12","99999","V020","140,1,N,0093,1","03600,1,9,N","012000,1,N,1","+0154,1","+0112,1","99999,9","12,9999,9,9","24,9999,9,9",,"2,1,06,1","2,1,06,1",,"08,99,1,04,1,05,1,00800,1,07,1,99,9","0390,9","09,9","999,+0100,9","999,N,+0147,1","99999,9,08956,1","6,1,005,1,+999,9","3,1447,9","61,1","SYN106AAXX  09064 08213 11562 81418 10154 20112 38956 48447 56005 69902 76122 8457/ 333 20147 31010 55065 79999;","Q01  00002PRCP24Q02  00002PRCP12Q03  00002PRCP12Q04  00002PRCP24"
"08213099999","2010-10-09T09:00:00","4","40.95","-4.1333333","1005.0","SEGOVIA, SP","FM-12","99999","V020","180,1,N,0041,1","03600,1,9,N","005000,1,N,1","+0153,1","+0111,1","99999,9",,,,"6,1,03,1","2,1,03,1",,"08,99,1,04,1,05,1,00800,1,07,1,99,9",,,,,"99999,9,08955,1","5,1,001,1,+999,9","3,1446,9","61,1","SYN072AAXX  09094 08213 41550 81808 10153 20111 38955 48446 55001 76162 8457/;",
"08213099999","2010-10-09T12:00:00","4","40.95","-4.1333333","1005.0","SEGOVIA, SP","FM-12","99999","V020","140,1,N,0041,1","03600,1,9,N","012000,1,N,1","+0135,1","+0117,1","99999,9","06,0030,9,1",,,"6,1,06,1","6,1,06,1",,"08,99,1,04,1,05,1,00800,1,07,1,99,9",,,,,"99999,9,08949,1","8,1,006,1,+999,9","3,1437,9","60,1","SYN088AAXX  09124 08213 11562 81408 10135 20117 38949 48437 58006 60031 76066 8457/ 333 50480;",
"08213099999","2010-10-09T15:00:00","4","40.95","-4.1333333","1005.0","SEGOVIA, SP","FM-12","99999","V020","210,1,N,0077,1","03600,1,9,N","008000,1,N,1","+0150,1","+0096,1","99999,9",,,,"6,1,03,1","6,1,03,1",,"07,99,1,03,1,05,1,00800,1,07,1,99,9",,,,,"99999,9,08938,1","8,1,011,1,+999,9","3,1429,9","60,1","SYN072AAXX  09154 08213 41558 72115 10150 20096 38938 48429 58011 76066 8357/;",
"08213099999","2010-10-09T18:00:00","4","40.95","-4.1333333","1005.0","SEGOVIA, SP","FM-12","99999","V020","210,1,N,0062,1","03600,1,9,N","020000,1,N,1","+0139,1","+0085,1","99999,9","12,0030,9,1",,,"6,1,06,1","6,1,06,1",,"06,99,1,02,1,05,1,00800,1,07,1,00,1",,,,"999,M,+0182,1","99999,9,08939,1","3,1,001,1,+999,9","3,1428,9","02,1","SYN088AAXX  09184 08213 11570 62112 10139 20085 38939 48428 53001 60032 70266 82570 333 10182;",
"08213099999","2010-10-10T06:00:00","4","40.95","-4.1333333","1005.0","SEGOVIA, SP","FM-12","99999","V020","300,1,N,0015,1","00750,1,9,N","010000,1,N,1","+0096,1","+0054,1","99999,9","12,0000,9,1","24,0030,9,1",,,,,"08,99,1,05,1,05,1,00800,1,02,1,99,9","0048,9","09,9","999,+0060,9","999,N,+0096,1","99999,9,08920,1","6,1,005,1,+999,9","3,1404,9",,"SYN100AAXX  10064 08213 12560 83003 10096 20054 38920 48404 56005 60002 8552/ 333 20096 31006 55008 70030;","Q01  00002PRCP12"
"08213099999","2010-10-10T09:00:00","4","40.95","-4.1333333","1005.0","SEGOVIA, SP","FM-12","99999","V020","280,1,N,0021,1","01200,1,9,N","016000,1,N,1","+0104,1","+0067,1","99999,9",,,,,,,"06,99,1,06,1,08,1,00800,1,00,1,00,1",,,,,"99999,9,08917,1","7,1,003,1,+999,9","3,1402,9",,"SYN066AAXX  10094 08213 42566 62804 10104 20067 38917 48402 57003 86800;",
"08213099999","2010-10-10T12:00:00","4","40.95","-4.1333333","1005.0","SEGOVIA, SP","FM-12","99999","V020","310,1,N,0031,1","01200,1,9,N","016000,1,N,1","+0126,1","+0066,1","99999,9","06,0000,9,1",,,,,,"07,99,1,07,1,08,1,00800,1,00,1,00,1",,,,,"99999,9,08915,1","8,1,002,1,+999,9","3,1404,9",,"SYN082AAXX  10124 08213 12566 73106 10126 20066 38915 48404 58002 60001 87800 333 50050;","Q01  00002PRCP06"
"08213099999","2010-10-10T15:00:00","4","40.95","-4.1333333","1005.0","SEGOVIA, SP","FM-12","99999","V020","300,1,N,0067,1","00750,1,C,N","018000,1,N,1","+0152,1","+0057,1","99999,9",,,,,,"01,1,+00600,1,09,1","06,99,1,06,1,03,1,00800,1,00,1,00,1",,,,,"99999,9,08899,1","8,1,016,1,+999,9","3,1392,9",,"SYN076AAXX  10154 08213 42568 63013 10152 20057 38899 48392 58016 86300 333 81920;",
"08213099999","2010-10-10T18:00:00","4","40.95","-4.1333333","1005.0","SEGOVIA, SP","FM-12","99999","V020","090,1,N,0015,1","01200,1,9,N","018000,1,N,1","+0124,1","+0056,1","99999,9","12,0000,9,1",,,,,,"06,99,1,05,1,08,1,00800,1,00,1,01,1",,,,"999,M,+0160,1","99999,9,08892,1","6,1,007,1,+999,9","3,1382,9",,"SYN082AAXX  10184 08213 12568 60903 10124 20056 38892 48382 56007 60002 85801 333 10160;","Q01  00002PRCP12"
"08213099999","2010-10-11T06:00:00","4","40.95","-4.1333333","1005.0","SEGOVIA, SP","FM-12","99999","V020","250,1,N,0021,1","00750,1,9,N","006000,1,N,1","+0083,1","+0077,1","99999,9","12,0010,9,1","24,0013,9,1",,"6,1,06,1","2,1,06,1",,"08,99,1,05,1,07,1,00800,1,07,1,08,1","0216,9","11,9","999,+0070,9","999,N,+0083,1","99999,9,08885,1","4,1,000,1,+999,9","3,1370,9","61,1","SYN106AAXX  11064 08213 11556 82504 10083 20077 38885 48370 54000 60012 76162 85778 333 20083 32007 55036 70012;",
"08213099999","2010-10-11T09:00:00","4","40.95","-4.1333333","1005.0","SEGOVIA, SP","FM-12","99999","V020","260,1,N,0021,1","00750,1,9,N","005000,1,N,1","+0088,1","+0082,1","99999,9",,,,"6,1,03,1","2,1,03,1",,"08,99,1,06,1,06,1,00800,1,07,1,08,1",,,,,"99999,9,08891,1","3,1,006,1,+999,9","3,1376,9","10,1","SYN072AAXX  11094 08213 41550 82604 10088 20082 38891 48376 53006 71062 86678;",
"08213099999","2010-10-11T12:00:00","4","40.95","-4.1333333","1005.0","SEGOVIA, SP","FM-12","99999","V020","240,1,N,0021,1","00750,1,9,N","005000,1,N,1","+0100,1","+0097,1","99999,9","06,0008,9,1",,,"6,1,06,1","2,1,06,1",,"08,99,1,06,1,06,1,00800,1,07,1,08,1",,,,,"99999,9,08895,1","1,1,004,1,+999,9","3,1382,9","61,1","SYN088AAXX  11124 08213 11550 82404 10100 20097 38895 48382 51004 69971 76162 86678 333 50190;",
"08213099999","2010-10-11T15:00:00","4","40.95","-4.1333333","1005.0","SEGOVIA, SP","FM-12","99999","V020","290,1,N,0015,1","01200,1,9,N","008000,1,N,1","+0108,1","+0099,1","99999,9",,,,"6,1,03,1","2,1,03,1",,"08,99,1,06,1,08,1,00800,1,07,1,08,1",,,,,"99999,9,08894,1","8,1,001,1,+999,9","3,1382,9","10,1","SYN072AAXX  11154 08213 41558 82903 10108 20099 38894 48382 58001 71062 86878;",
"08213099999","2010-10-11T18:00:00","4","40.95","-4.1333333","1005.0","SEGOVIA, SP","FM-12","99999","V020","320,1,N,0010,1","01200,1,9,N","008000,1,N,1","+0108,1","+0097,1","99999,9","12,0010,9,1",,,"6,1,06,1","2,1,06,1",,"08,99,1,06,1,08,1,00800,1,07,1,08,1",,,,"999,M,+0112,1","99999,9,08899,1","3,1,005,1,+999,9","3,1387,9","61,1","SYN088AAXX  11184 08213 11558 83202 10108 20097 38899 48387 53005 60012 76162 86878 333 10112;",
"08213099999","2010-10-12T06:00:00","4","40.95","-4.1333333","1005.0","SEGOVIA, SP","FM-12","99999","V020","010,1,N,0010,1","00750,1,9,N","000100,1,N,1","+0078,1","+0078,1","99999,9","12,0000,2,1","24,0015,9,1",,"4,1,06,1","2,1,06,1",,"05,99,1,05,1,07,1,00800,1,00,1,00,1","0000,9","11,9","999,+0030,9","999,N,+0075,1","99999,9,08921,1","2,1,013,1,+999,9","3,1403,9","11,1","SYN106AAXX  12064 08213 11501 50102 10078 20078 38921 48403 52013 69922 71142 85700 333 20075 32003 55000 70014;",
"08213099999","2010-10-12T09:00:00","4","40.95","-4.1333333","1005.0","SEGOVIA, SP","FM-12","99999","V020","260,1,N,0015,1","00420,1,9,N","001500,1,N,1","+0090,1","+0085,1","99999,9",,,,"4,1,03,1","2,1,03,1",,"08,99,1,08,1,06,1,00450,1,99,9,99,9",,,,,"99999,9,08933,1","2,1,012,1,+999,9","3,1415,9","10,1","SYN072AAXX  12094 08213 41415 82603 10090 20085 38933 48415 52012 71042 886//;",
"08213099999","2010-10-12T12:00:00","4","40.95","-4.1333333","1005.0","SEGOVIA, SP","FM-12","99999","V020","350,1,N,0015,1","22000,1,9,N","010000,1,N,1","+0132,1","+0098,1","99999,9","06,0000,9,1",,,,,,"05,99,1,04,1,07,1,00800,1,00,1,01,1",,,,,"99999,9,08937,1","1,1,004,1,+999,9","3,1425,9",,"SYN082AAXX  12124 08213 12560 53503 10132 20098 38937 48425 51004 60001 84701 333 50010;","Q01  00002PRCP06"
"08213099999","2010-10-12T15:00:00","4","40.95","-4.1333333","1005.0","SEGOVIA, SP","FM-12","99999","V020","250,1,N,0010,1","01200,1,9,N","010000,1,N,1","+0144,1","+0102,1","99999,9",,,,,,,"08,99,1,06,1,08,1,00800,1,07,1,01,1",,,,,"99999,9,08932,1","6,1,005,1,+999,9","3,1422,9",,"SYN066AAXX  12154 08213 42560 82502 10144 20102 38932 48422 56005 86871;",
"08213099999","2010-10-12T18:00:00","4","40.95","-4.1333333","1005.0","SEGOVIA, SP","FM-12","99999","V020","170,1,N,0021,1","00750,1,9,N","008000,1,N,1","+0138,1","+0104,1","99999,9","12,9999,9,9",,,"5,1,06,1","2,1,06,1",,"07,99,1,06,1,04,1,00800,1,07,1,01,1",,,,"999,M,+0146,1","99999,9,08937,1","3,1,005,1,+999,9","3,1426,9","50,1","SYN088AAXX  12184 08213 11558 71704 10138 20104 38937 48426 53005 69902 75052 86471 333 10146;","Q01  00002PRCP12Q02  00002PRCP12"
"08213099999","2010-10-13T06:00:00","4","40.95","-4.1333333","1005.0","SEGOVIA, SP","FM-12","99999","V020","290,1,N,0015,1","03600,1,9,N","012000,1,N,1","+0094,1","+0089,1","99999,9","12,0000,2,1","24,0000,2,1",,,,,"08,99,1,04,1,05,1,00800,1,07,1,99,9","0072,9","09,9","999,+0040,9","999,N,+0092,1","99999,9,08963,1","2,1,005,1,+999,9","3,1444,9",,"SYN100AAXX  13064 08213 12562 82903 10094 20089 38963 48444 52005 60002 8457/ 333 20092 31004 55012 79999;",
"08213099999","2010-10-13T09:00:00","4","40.95","-4.1333333","1005.0","SEGOVIA, SP","FM-12","99999","V020","250,1,N,0010,1","00750,1,9,N","003000,1,N,1","+0104,1","+0093,1","99999,9",,,,"2,1,03,1","2,1,03,1",,"07,99,1,07,1,06,1,00800,1,99,9,99,9",,,,,"99999,9,08977,1","2,1,014,1,+999,9","3,1458,9","10,1","SYN072AAXX  13094 08213 41530 72502 10104 20093 38977 48458 52014 71022 876//;",
"08213099999","2010-10-13T12:00:00","4","40.95","-4.1333333","1005.0","SEGOVIA, SP","FM-12","99999","V020","310,1,N,0010,1","00750,1,9,N","008000,1,N,1","+0142,1","+0086,1","99999,9","06,0000,9,1",,,"2,1,06,1","2,1,06,1",,"08,99,1,08,1,05,1,00800,1,99,9,99,9",,,,,"99999,9,08985,1","2,1,008,1,+999,9","3,1471,9","05,1","SYN088AAXX  13124 08213 11558 83102 10142 20086 38985 48471 52008 60001 70522 885// 333 50030;","Q01  00002PRCP06"
"08213099999","2010-10-13T15:00:00","4","40.95","-4.1333333","1005.0","SEGOVIA, SP","FM-12","99999","V020","140,1,N,0010,1","00750,1,9,N","012000,1,N,1","+0158,1","+0088,1","99999,9",,,,,,,"06,99,1,06,1,05,1,00800,1,00,1,00,1",,,,,"99999,9,08984,1","8,1,001,1,+999,9","3,1473,9",,"SYN066AAXX  13154 08213 42562 61402 10158 20088 38984 48473 58001 86500;",
"08213099999","2010-10-13T18:00:00","4","40.95","-4.1333333","1005.0","SEGOVIA, SP","FM-12","99999","V020","320,1,N,0021,1","00750,1,9,N","018000,1,N,1","+0150,1","+0091,1","99999,9","12,0000,9,1",,,,,,"07,99,1,07,1,05,1,00800,1,99,9,99,9",,,,"999,M,+0175,1","99999,9,08990,1","3,1,006,1,+999,9","3,1478,9",,"SYN082AAXX  13184 08213 12568 73204 10150 20091 38990 48478 53006 60002 875// 333 10175;","Q01  00002PRCP12"
"08213099999","2010-10-14T06:00:00","4","40.95","-4.1333333","1005.0","SEGOVIA, SP","FM-12","99999","V020","020,1,N,0010,1","22000,1,9,N","020000,1,N,1","+0066,1","+0057,1","99999,9","12,0000,9,1","24,0000,9,1",,,,,"02,99,1,02,1,00,1,01750,1,03,1,00,1","0252,9","09,9","999,-0040,9","999,N,+0061,1","99999,9,09001,1","7,1,004,1,+999,9","3,1473,9",,"SYN100AAXX  14064 08213 12770 20202 10066 20057 39001 48473 57004 60002 82030 333 20061 31104 55042 70000;","Q01  00002PRCP24Q02  00002PRCP12"
"08213099999","2010-10-14T09:00:00","4","40.95","-4.1333333","1005.0","SEGOVIA, SP","FM-12","99999","V020","330,1,N,0010,1","22000,1,9,N","008000,1,N,1","+0114,1","+0071,1","99999,9",,,,"1,1,03,1","1,1,03,1",,"02,99,1,02,1,00,1,01750,1,03,1,00,1",,,,,"99999,9,09011,1","2,1,010,1,+999,9","3,1491,9","05,1","SYN072AAXX  14094 08213 41758 23302 10114 20071 39011 48491 52010 70511 82030;",
"08213099999","2010-10-14T12:00:00","4","40.95","-4.1333333","1005.0","SEGOVIA, SP","FM-12","99999","V020","010,1,N,0021,1","22000,1,9,N","015000,1,N,1","+0170,1","+0037,1","99999,9","06,0000,9,1",,,,,,"01,99,1,01,1,05,1,00800,1,00,1,00,1",,,,,"99999,9,09007,1","8,1,004,1,+999,9","3,1496,9",,"SYN082AAXX  14124 08213 12565 10104 10170 20037 39007 48496 58004 60001 81500 333 50150;","Q01  00002PRCP06"
"08213099999","2010-10-14T15:00:00","4","40.95","-4.1333333","1005.0","SEGOVIA, SP","FM-12","99999","V020","330,1,N,0031,1","22000,1,9,N","020000,1,N,1","+0175,1","+0034,1","99999,9",,,,,,,"02,99,1,01,1,05,1,00800,1,00,1,02,1",,,,,"99999,9,09004,1","6,1,003,1,+999,9","3,1494,9",,"SYN066AAXX  14154 08213 42570 23306 10175 20034 39004 48494 56003 81502;",
"08213099999","2010-10-14T18:00:00","4","40.95","-4.1333333","1005.0","SEGOVIA, SP","FM-12","99999","V020","360,1,N,0021,1","22000,1,9,N","015000,1,N,1","+0142,1","+0037,1","99999,9","12,0000,9,1",,,,,,"02,99,1,01,1,00,1,01750,1,03,1,01,1",,,,"999,M,+0176,1","99999,9,09003,1","6,1,001,1,+999,9","3,1488,9",,"SYN082AAXX  14184 08213 12765 23604 10142 20037 39003 48488 56001 60002 81031 333 10176;","Q01  00002PRCP12"
"08213099999","2010-10-15T06:00:00","4","40.95","-4.1333333","1005.0","SEGOVIA, SP","FM-12","99999","V020","999,9,C,0000,1","22000,1,9,N","020000,1,N,1","+0034,1","+0010,1","99999,9","12,0000,9,1","24,0000,9,1",,,,,"03,99,1,03,1,00,1,01750,1,04,1,00,1","0594,9","14,9","999,-0060,9","999,N,+0030,1","99999,9,08999,1","4,1,000,1,+999,9","3,1466,9",,"SYN100AAXX  15064 08213 12770 30000 10034 20010 38999 48466 54000 60002 83040 333 20030 34106 55099 70000;","Q01  00002PRCP24Q02  00002PRCP12"
"08213099999","2010-10-15T09:00:00","4","40.95","-4.1333333","1005.0","SEGOVIA, SP","FM-12","99999","V020","320,1,N,0010,1","22000,1,9,N","020000,1,N,1","+0064,1","+0029,1","99999,9",,,,,,,"01,99,1,01,1,00,1,01750,1,04,1,00,1",,,,,"99999,9,09010,1","1,1,011,1,+999,9","3,1481,9",,"SYN066AAXX  15094 08213 42770 13202 10064 20029 39010 48481 51011 81040;",
"08213099999","2010-10-15T12:00:00","4","40.95","-4.1333333","1005.0","SEGOVIA, SP","FM-12","99999","V020","340,1,N,0036,1","22000,1,9,N","020000,1,N,1","+0126,1","+0016,1","99999,9","06,0000,9,1",,,,,,"01,99,1,01,1,00,1,01750,1,04,1,00,1",,,,,"99999,9,09008,1","8,1,002,1,+999,9","3,1489,9",,"SYN082AAXX  15124 08213 12770 13407 10126 20016 39008 48489 58002 60001 81040 333 50220;","Q01  00002PRCP06"
"08213099999","2010-10-15T15:00:00","4","40.95","-4.1333333","1005.0","SEGOVIA, SP","FM-12","99999","V020","020,1,N,0026,1","22000,1,9,N","020000,1,N,1","+0152,1","+0021,1","99999,9",,,,,,"00,1,+99999,9,99,9","00,99,1,00,1,00,1,99999,9,00,1,00,1",,,,,"99999,9,08998,1","6,1,010,1,+999,9","3,1484,9",,"SYN060AAXX  15154 08213 42970 00205 10152 20021 38998 48484 56010;",
"08213099999","2010-10-15T18:00:00","4","40.95","-4.1333333","1005.0","SEGOVIA, SP","FM-12","99999","V020","350,1,N,0021,1","22000,1,9,N","020000,1,N,1","+0130,1","+0017,1","99999,9","12,0000,9,1",,,,,"00,1,+99999,9,99,9","00,99,1,00,1,00,1,99999,9,00,1,00,1",,,,"999,M,+0158,1","99999,9,08999,1","3,1,001,1,+999,9","3,1482,9",,"SYN076AAXX  15184 08213 12970 03504 10130 20017 38999 48482 53001 60002 333 10158;","Q01  00002PRCP12"
"08213099999","2010-10-16T06:00:00","4","40.95","-4.1333333","1005.0","SEGOVIA, SP","FM-12","99999","V020","040,1,N,0010,1","22000,1,9,N","020000,1,N,1","+0018,1","+0003,1","99999,9","12,0000,9,1","24,0000,9,1",,,,"00,1,+99999,9,99,9","00,99,1,00,1,00,1,99999,9,00,1,00,1","0582,9","14,9","999,-0070,9","999,N,+0018,1","99999,9,09001,1","6,1,004,1,+999,9","3,1465,9",,"SYN094AAXX  16064 08213 12970 00402 10018 20003 39001 48465 56004 60002 333 20018 34107 55097 70000;","Q01  00002PRCP24Q02  00002PRCP12"
"08213099999","2010-10-16T09:00:00","4","40.95","-4.1333333","1005.0","SEGOVIA, SP","FM-12","99999","V020","270,1,N,0026,1","22000,1,9,N","006000,1,N,1","+0054,1","+0026,1","99999,9",,,,"0,1,03,1","0,1,03,1","00,1,+99999,9,99,9","00,99,1,00,1,00,1,99999,9,00,1,00,1",,,,,"99999,9,09008,1","2,1,007,1,+999,9","3,1477,9","10,1","SYN066AAXX  16094 08213 41956 02705 10054 20026 39008 48477 52007 71000;",
"08213099999","2010-10-16T12:00:00","4","40.95","-4.1333333","1005.0","SEGOVIA, SP","FM-12","99999","V020","290,1,N,0031,1","22000,1,9,N","006000,1,N,1","+0106,1","+0017,1","99999,9","06,0000,9,1",,,"0,1,06,1","0,1,06,1","00,1,+99999,9,99,9","00,99,1,00,1,00,1,99999,9,00,1,00,1",,,,,"99999,9,09007,1","8,1,001,1,+999,9","3,1485,9","10,1","SYN072AAXX  16124 08213 11956 02906 10106 20017 39007 48485 58001 60001 71000;","Q01  00002PRCP06"
"08213099999","2010-10-16T18:00:00","4","40.95","-4.1333333","1005.0","SEGOVIA, SP","FM-12","99999","V020","020,1,N,0021,1","22000,1,9,N","012000,1,N,1","+0110,1","-0008,1","99999,9","12,0000,9,1",,,,,,"01,99,1,01,1,01,1,00800,1,00,1,00,1",,,,"999,M,+0142,1","99999,9,08999,1","3,1,003,1,+999,9","3,1478,9",,"SYN082AAXX  16184 08213 12562 10204 10110 21008 38999 48478 53003 60002 81100 333 10142;","Q01  00002PRCP12"
"08213099999","2010-10-17T06:00:00","4","40.95","-4.1333333","1005.0","SEGOVIA, SP","FM-12","99999","V020","090,1,N,0026,1","01200,1,9,N","006000,1,N,1","+0038,1","+0023,1","99999,9","12,0000,9,1","24,0000,9,1",,"2,1,06,1","2,1,06,1",,"06,99,1,06,1,08,1,00800,1,00,1,00,1","0570,9","09,9","999,-0030,9","999,N,+0034,1","99999,9,09029,1","2,1,004,1,+999,9","3,1493,9","10,1","SYN106AAXX  17064 08213 11556 60905 10038 20023 39029 48493 52004 60002 71022 86800 333 20034 31103 55095 70000;","Q01  00002PRCP24Q02  00002PRCP12"
"08213099999","2010-10-17T12:00:00","4","40.95","-4.1333333","1005.0","SEGOVIA, SP","FM-12","99999","V020","350,1,N,0041,1","00750,1,9,N","020000,1,N,1","+0104,1","+0002,1","99999,9","06,0000,9,1",,,,,,"05,99,1,05,1,02,1,00800,1,00,1,00,1",,,,,"99999,9,09049,1","1,1,001,1,+999,9","3,1523,9",,"SYN082AAXX  17124 08213 12570 53508 10104 20002 39049 48523 51001 60001 85200 333 50220;","Q01  00002PRCP06"
"08213099999","2010-10-17T15:00:00","4","40.95","-4.1333333","1005.0","SEGOVIA, SP","FM-12","99999","V020","010,1,N,0046,1","00750,1,9,N","020000,1,N,1","+0118,1","+0014,1","99999,9",,,,,,,"06,99,1,06,1,02,1,00800,1,00,1,00,1",,,,,"99999,9,09046,1","5,1,003,1,+999,9","3,1523,9",,"SYN066AAXX  17154 08213 42570 60109 10118 20014 39046 48523 55003 86200;",
"08213099999","2010-10-17T18:00:00","4","40.95","-4.1333333","1005.0","SEGOVIA, SP","FM-12","99999","V020","060,1,N,0046,1","22000,1,9,N","020000,1,N,1","+0088,1","+0003,1","99999,9","12,0000,9,1",,,,,,"02,99,1,02,1,04,1,00800,1,00,1,00,1",,,,"999,M,+0130,1","99999,9,09056,1","2,1,010,1,+999,9","3,1526,9",,"SYN082AAXX  17184 08213 12570 20609 10088 20003 39056 48526 52010 60002 82400 333 10130;","Q01  00002PRCP12"
"08213099999","2010-10-18T06:00:00","4","40.95","-4.1333333","1005.0","SEGOVIA, SP","FM-12","99999","V020","160,1,N,0026,1","22000,1,9,N","020000,1,N,1","-0008,1","-0014,1","99999,9","12,0000,9,1","24,0000,9,1",,,,"00,1,+99999,9,99,9","00,99,1,00,1,00,1,99999,9,00,1,00,1","0462,9","01,9","999,-0080,9","999,N,-0016,1","99999,9,09070,1","4,1,000,1,+999,9","3,1520,9",,"SYN094AAXX  18064 08213 12970 01605 11008 21014 39070 48520 54000 60002 333 21016 30108 55077 70000;","Q01  00002PRCP24Q02  00002PRCP12"
"08213099999","2010-10-18T09:00:00","4","40.95","-4.1333333","1005.0","SEGOVIA, SP","FM-12","99999","V020","300,1,N,0015,1","22000,1,9,N","012000,1,N,1","+0034,1","-0013,1","99999,9",,,,,,"00,1,+99999,9,99,9","00,99,1,00,1,00,1,99999,9,00,1,00,1",,,,,"99999,9,09079,1","2,1,009,1,+999,9","3,1536,9",,"SYN060AAXX  18094 08213 42962 03003 10034 21013 39079 48536 52009;",
"08213099999","2010-10-18T12:00:00","4","40.95","-4.1333333","1005.0","SEGOVIA, SP","FM-12","99999","V020","300,1,N,0010,1","22000,1,9,N","012000,1,N,1","+0114,1","-0017,1","99999,9","06,0000,9,1",,,,,"00,1,+99999,9,99,9","00,99,1,00,1,00,1,99999,9,00,1,00,1",,,,,"99999,9,09074,1","8,1,005,1,+999,9","3,1547,9",,"SYN076AAXX  18124 08213 12962 03002 10114 21017 39074 48547 58005 60001 333 5///0;","Q01  00002PRCP06"
"08213099999","2010-10-18T15:00:00","4","40.95","-4.1333333","1005.0","SEGOVIA, SP","FM-12","99999","V020","010,1,N,0021,1","22000,1,9,N","020000,1,N,1","+0125,1","-0025,1","99999,9",,,,,,"00,1,+99999,9,99,9","00,99,1,00,1,00,1,99999,9,00,1,00,1",,,,,"99999,9,09065,1","6,1,009,1,+999,9","3,1541,9",,"SYN060AAXX  18154 08213 42970 00104 10125 21025 39065 48541 56009;",
"08213099999","2010-10-18T18:00:00","4","40.95","-4.1333333","1005.0","SEGOVIA, SP","FM-12","99999","V020","030,1,N,0021,1","22000,1,9,N","020000,1,N,1","+0094,1","-0013,1","99999,9","12,0000,9,1",,,,,"00,1,+99999,9,99,9","00,99,1,00,1,00,1,99999,9,00,1,00,1",,,,"999,M,+0130,1","99999,9,09065,1","5,1,000,1,+999,9","3,1535,9",,"SYN076AAXX  18184 08213 12970 00304 10094 21013 39065 48535 55000 60002 333 10130;","Q01  00002PRCP12"
"08213099999","2010-10-19T06:00:00","4","40.95","-4.1333333","1005.0","SEGOVIA, SP","FM-12","99999","V020","190,1,N,0015,1","22000,1,9,N","020000,1,N,1","+0002,1","-0020,1","99999,9","12,0000,9,1","24,0000,9,1",,,,"00,1,+99999,9,99,9","00,99,1,00,1,00,1,99999,9,00,1,00,1","0618,9","01,9","999,-0070,9","999,N,-0004,1","99999,9,09057,1","6,1,005,1,+999,9","3,1511,9",,"SYN094AAXX  19064 08213 12970 01903 10002 21020 39057 48511 56005 60002 333 21004 30107 55103 70000;","Q01  00002PRCP24Q02  00002PRCP12"
"08213099999","2010-10-19T12:00:00","4","40.95","-4.1333333","1005.0","SEGOVIA, SP","FM-12","99999","V020","290,1,N,0010,1","22000,1,9,N","012000,1,N,1","+0120,1","-0012,1","99999,9","06,0000,9,1",,,,,"00,1,+99999,9,99,9","00,99,1,00,1,00,1,99999,9,00,1,00,1",,,,,"99999,9,09048,1","7,1,010,1,+999,9","3,1525,9",,"SYN076AAXX  19124 08213 12962 02902 10120 21012 39048 48525 57010 60001 333 5///0;","Q01  00002PRCP06"
"08213099999","2010-10-19T15:00:00","4","40.95","-4.1333333","1005.0","SEGOVIA, SP","FM-12","99999","V020","310,1,N,0036,1","22000,1,9,N","015000,1,N,1","+0160,1","-0002,1","99999,9",,,,,,"00,1,+99999,9,99,9","00,99,1,00,1,00,1,99999,9,00,1,00,1",,,,,"99999,9,09034,1","6,1,014,1,+999,9","3,1519,9",,"SYN060AAXX  19154 08213 42965 03107 10160 21002 39034 48519 56014;",
"08213099999","2010-10-19T18:00:00","4","40.95","-4.1333333","1005.0","SEGOVIA, SP","FM-12","99999","V020","070,1,N,0010,1","22000,1,9,N","015000,1,N,1","+0130,1","+0007,1","99999,9","12,0000,9,1",,,,,"00,1,+99999,9,99,9","00,99,1,00,1,00,1,99999,9,00,1,00,1",,,,"999,M,+0162,1","99999,9,09032,1","7,1,002,1,+999,9","3,1512,9",,"SYN076AAXX  19184 08213 12965 00702 10130 20007 39032 48512 57002 60002 333 10162;","Q01  00002PRCP12"
"08213099999","2010-10-20T06:00:00","4","40.95","-4.1333333","1005.0","SEGOVIA, SP","FM-12","99999","V020","090,1,N,0015,1","22000,1,9,N","020000,1,N,1","+0038,1","-0032,1","99999,9","12,0000,9,1","24,0000,9,1",,,,"00,1,+99999,9,99,9","00,99,1,00,1,00,1,99999,9,00,1,00,1","0618,9","09,9","999,-0050,9","999,N,+0036,1","99999,9,09028,1","6,1,003,1,+999,9","3,1492,9",,"SYN094AAXX  20064 08213 12970 00903 10038 21032 39028 48492 56003 60002 333 20036 31105 55103 70000;","Q01  00002PRCP24Q02  00002PRCP12"
"08213099999","2010-10-20T09:00:00","4","40.95","-4.1333333","1005.0","SEGOVIA, SP","FM-12","99999","V020","250,1,N,0015,1","22000,1,9,N","020000,1,N,1","+0106,1","-0008,1","99999,9",,,,,,"00,1,+99999,9,99,9","00,99,1,00,1,00,1,99999,9,00,1,00,1",,,,,"99999,9,09043,1","1,1,015,1,+999,9","3,1518,9",,"SYN060AAXX  20094 08213 42970 02503 10106 21008 39043 48518 51015;",
"08213099999","2010-10-20T12:00:00","4","40.95","-4.1333333","1005.0","SEGOVIA, SP","FM-12","99999","V020","350,1,N,0021,1","22000,1,9,N","020000,1,N,1","+0176,1","-0011,1","99999,9","06,0000,9,1",,,,,,"01,99,1,00,1,00,1,99999,9,00,1,01,1",,,,,"99999,9,09042,1","8,1,001,1,+999,9","3,1529,9",,"SYN082AAXX  20124 08213 12970 13504 10176 21011 39042 48529 58001 60001 80001 333 5///0;","Q01  00002PRCP06"
"08213099999","2010-10-20T15:00:00","4","40.95","-4.1333333","1005.0","SEGOVIA, SP","FM-12","99999","V020","010,1,N,0031,1","22000,1,9,N","020000,1,N,1","+0186,1","-0029,1","99999,9",,,,,,,"01,99,1,00,1,00,1,99999,9,00,1,01,1",,,,,"99999,9,09034,1","6,1,008,1,+999,9","3,1523,9",,"SYN066AAXX  20154 08213 42970 10106 10186 21029 39034 48523 56008 80001;",
"08213099999","2010-10-20T18:00:00","4","40.95","-4.1333333","1005.0","SEGOVIA, SP","FM-12","99999","V020","060,1,N,0021,1","22000,1,9,N","020000,1,N,1","+0154,1","-0025,1","99999,9","12,0000,9,1",,,,,,"03,99,1,00,1,00,1,99999,9,00,1,04,1",,,,"999,M,+0200,1","99999,9,09040,1","3,1,006,1,+999,9","3,1523,9",,"SYN082AAXX  20184 08213 12970 30604 10154 21025 39040 48523 53006 60002 80004 333 10200;","Q01  00002PRCP12"
"08213099999","2010-10-21T06:00:00","4","40.95","-4.1333333","1005.0","SEGOVIA, SP","FM-12","99999","V020","080,1,N,0021,1","22000,1,9,N","020000,1,N,1","+0046,1","-0029,1","99999,9","12,0000,9,1","24,0000,9,1",,,,"00,1,+99999,9,99,9","00,99,1,00,1,00,1,99999,9,00,1,00,1","0612,9","09,9","999,-0030,9","999,N,+0046,1","99999,9,09052,1","5,1,000,1,+999,9","3,1515,9",,"SYN094AAXX  21064 08213 12970 00804 10046 21029 39052 48515 55000 60002 333 20046 31103 55102 70000;","Q01  00002PRCP24Q02  00002PRCP12"
"08213099999","2010-10-21T09:00:00","4","40.95","-4.1333333","1005.0","SEGOVIA, SP","FM-12","99999","V020","030,1,N,0010,1","22000,1,9,N","020000,1,N,1","+0114,1","-0024,1","99999,9",,,,,,,"01,99,1,00,1,00,1,99999,9,00,1,01,1",,,,,"99999,9,09067,1","2,1,015,1,+999,9","3,1541,9",,"SYN066AAXX  21094 08213 42970 10302 10114 21024 39067 48541 52015 80001;",
"08213099999","2010-10-21T12:00:00","4","40.95","-4.1333333","1005.0","SEGOVIA, SP","FM-12","99999","V020","320,1,N,0026,1","22000,1,9,N","020000,1,N,1","+0186,1","-0018,1","99999,9","06,0000,9,1",,,,,"00,1,+99999,9,99,9","00,99,1,00,1,00,1,99999,9,00,1,00,1",,,,,"99999,9,09072,1","1,1,005,1,+999,9","3,1559,9",,"SYN076AAXX  21124 08213 12970 03205 10186 21018 39072 48559 51005 60001 333 50220;","Q01  00002PRCP06"
"08213099999","2010-10-21T15:00:00","4","40.95","-4.1333333","1005.0","SEGOVIA, SP","FM-12","99999","V020","280,1,N,0026,1","22000,1,9,N","020000,1,N,1","+0200,1","-0017,1","99999,9",,,,,,,"01,99,1,01,1,00,1,01750,1,04,1,00,1",,,,,"99999,9,09060,1","8,1,012,1,+999,9","3,1550,9",,"SYN066AAXX  21154 08213 42770 12805 10200 21017 39060 48550 58012 81040;",
"08213099999","2010-10-21T18:00:00","4","40.95","-4.1333333","1005.0","SEGOVIA, SP","FM-12","99999","V020","360,1,N,0010,1","22000,1,9,N","020000,1,N,1","+0170,1","-0026,1","99999,9","12,0000,9,1",,,,,,"01,99,1,01,1,00,1,01750,1,04,1,00,1",,,,"999,M,+0218,1","99999,9,09062,1","3,1,002,1,+999,9","3,1547,9",,"SYN082AAXX  21184 08213 12770 13602 10170 21026 39062 48547 53002 60002 81040 333 10218;","Q01  00002PRCP12"
"08213099999","2010-10-22T06:00:00","4","40.95","-4.1333333","1005.0","SEGOVIA, SP","FM-12","99999","V020","090,1,N,0021,1","22000,1,9,N","015000,1,N,1","+0077,1","+0009,1","99999,9","12,0000,9,1","24,0000,9,1",,,,,"02,99,1,01,1,00,1,01750,1,04,1,01,1","0606,9","01,9","999,+0020,9","999,N,+0077,1","99999,9,09061,1","6,1,004,1,+999,9","3,1529,9",,"SYN100AAXX  22064 08213 12765 20904 10077 20009 39061 48529 56004 60002 81041 333 20077 30002 55101 70000;","Q01  00002PRCP24Q02  00002PRCP12"
"08213099999","2010-10-22T09:00:00","4","40.95","-4.1333333","1005.0","SEGOVIA, SP","FM-12","99999","V020","160,1,N,0010,1","22000,1,9,N","012000,1,N,1","+0152,1","+0021,1","99999,9",,,,,,,"05,99,1,02,1,00,1,01750,1,04,1,09,1",,,,,"99999,9,09062,1","1,1,001,1,+999,9","3,1544,9",,"SYN066AAXX  22094 08213 42762 51602 10152 20021 39062 48544 51001 82049;",
"08213099999","2010-10-22T12:00:00","4","40.95","-4.1333333","1005.0","SEGOVIA, SP","FM-12","99999","V020","230,1,N,0041,1","22000,1,9,N","012000,1,N,1","+0183,1","+0000,1","99999,9","06,0000,9,1",,,,,,"04,99,1,01,1,00,1,01750,1,04,1,01,1",,,,,"99999,9,09057,1","8,1,005,1,+999,9","3,1545,9",,"SYN082AAXX  22124 08213 12762 42308 10183 20000 39057 48545 58005 60001 81041 333 50290;","Q01  00002PRCP06"
"08213099999","2010-10-22T15:00:00","4","40.95","-4.1333333","1005.0","SEGOVIA, SP","FM-12","99999","V020","210,1,N,0041,1","03600,1,9,N","012000,1,N,1","+0172,1","-0001,1","99999,9",,,,,,,"07,99,1,01,1,04,1,00800,1,07,1,08,1",,,,,"99999,9,09046,1","6,1,011,1,+999,9","3,1534,9",,"SYN066AAXX  22154 08213 42562 72108 10172 21001 39046 48534 56011 81478;",
"08213099999","2010-10-22T18:00:00","4","40.95","-4.1333333","1005.0","SEGOVIA, SP","FM-12","99999","V020","150,1,N,0021,1","03600,1,9,N","012000,1,N,1","+0137,1","+0007,1","99999,9","12,0000,9,1",,,,,,"08,99,1,03,1,04,1,00800,1,07,1,07,1",,,,"999,M,+0197,1","99999,9,09045,1","6,1,001,1,+999,9","3,1525,9",,"SYN082AAXX  22184 08213 12562 81504 10137 20007 39045 48525 56001 60002 83477 333 10197;","Q01  00002PRCP12"
"08213099999","2010-10-23T06:00:00","4","40.95","-4.1333333","1005.0","SEGOVIA, SP","FM-12","99999","V020","070,1,N,0021,1","22000,1,9,N","015000,1,N,1","+0058,1","+0031,1","99999,9","12,0000,9,1","24,0000,9,1",,,,,"01,99,1,01,1,00,1,01750,1,04,1,00,1","0444,9","09,9","999,-0010,9","999,N,+0052,1","99999,9,09041,1","6,1,003,1,+999,9","3,1507,9",,"SYN100AAXX  23064 08213 12765 10704 10058 20031 39041 48507 56003 60002 81040 333 20052 31101 55074 70000;","Q01  00002PRCP24Q02  00002PRCP12"
"08213099999","2010-10-23T09:00:00","4","40.95","-4.1333333","1005.0","SEGOVIA, SP","FM-12","99999","V020","120,1,N,0010,1","22000,1,9,N","012000,1,N,1","+0122,1","+0042,1","99999,9",,,,,,,"01,99,1,00,1,00,1,99999,9,00,1,08,1",,,,,"99999,9,09052,1","3,1,011,1,+999,9","3,1529,9",,"SYN066AAXX  23094 08213 42962 11202 10122 20042 39052 48529 53011 80008;",
"08213099999","2010-10-23T12:00:00","4","40.95","-4.1333333","1005.0","SEGOVIA, SP","FM-12","99999","V020","320,1,N,0015,1","22000,1,9,N","012000,1,N,1","+0157,1","+0047,1","99999,9","06,0000,9,1",,,,,,"02,99,1,01,1,01,1,00800,1,00,1,08,1",,,,,"99999,9,09047,1","8,1,005,1,+999,9","3,1531,9",,"SYN082AAXX  23124 08213 12562 23203 10157 20047 39047 48531 58005 60001 81108 333 50220;","Q01  00002PRCP06"
"08213099999","2010-10-23T15:00:00","4","40.95","-4.1333333","1005.0","SEGOVIA, SP","FM-12","99999","V020","280,1,N,0021,1","22000,1,9,N","012000,1,N,1","+0178,1","+0025,1","99999,9",,,,,,,"03,99,1,01,1,01,1,00800,1,00,1,01,1",,,,,"99999,9,09031,1","6,1,016,1,+999,9","3,1520,9",,"SYN066AAXX  23154 08213 42562 32804 10178 20025 39031 48520 56016 81101;",
"08213099999","2010-10-23T18:00:00","4","40.95","-4.1333333","1005.0","SEGOVIA, SP","FM-12","99999","V020","010,1,N,0010,1","22000,1,9,N","012000,1,N,1","+0142,1","+0042,1","99999,9","12,0000,9,1",,,,,,"03,99,1,01,1,04,1,00800,1,00,1,08,1",,,,"999,M,+0184,1","99999,9,09031,1","4,1,000,1,+999,9","3,1514,9",,"SYN082AAXX  23184 08213 12562 30102 10142 20042 39031 48514 54000 60002 81408 333 10184;","Q01  00002PRCP12"
"08213099999","2010-10-24T06:00:00","4","40.95","-4.1333333","1005.0","SEGOVIA, SP","FM-12","99999","V020","320,1,N,0010,1","22000,1,9,N","012000,1,N,1","+0064,1","+0050,1","99999,9","12,0000,9,1","24,0000,9,1",,,,,"03,99,1,02,1,00,1,01750,1,04,1,09,1","0582,9","09,9","999,-0010,9","999,N,+0058,1","99999,9,09040,1","3,1,003,1,+999,9","3,1508,9",,"SYN100AAXX  24064 08213 12762 33202 10064 20050 39040 48508 53003 60002 82049 333 20058 31101 55097 70000;","Q01  00002PRCP24Q02  00002PRCP12"
"08213099999","2010-10-24T09:00:00","4","40.95","-4.1333333","1005.0","SEGOVIA, SP","FM-12","99999","V020","290,1,N,0015,1","22000,1,9,N","010000,1,N,1","+0110,1","+0069,1","99999,9",,,,,,,"02,99,1,01,1,01,1,00800,1,00,1,01,1",,,,,"99999,9,09043,1","1,1,003,1,+999,9","3,1519,9",,"SYN066AAXX  24094 08213 42560 22903 10110 20069 39043 48519 51003 81101;",
"08213099999","2010-10-24T12:00:00","4","40.95","-4.1333333","1005.0","SEGOVIA, SP","FM-12","99999","V020","260,1,N,0036,1","22000,1,9,N","012000,1,N,1","+0152,1","+0051,1","99999,9","06,0000,9,1",,,,,,"02,99,1,01,1,01,1,00800,1,00,1,01,1",,,,,"99999,9,09036,1","8,1,007,1,+999,9","3,1520,9",,"SYN082AAXX  24124 08213 12562 22607 10152 20051 39036 48520 58007 60001 81101 333 50210;","Q01  00002PRCP06"
"08213099999","2010-10-24T15:00:00","4","40.95","-4.1333333","1005.0","SEGOVIA, SP","FM-12","99999","V020","280,1,N,0057,1","00750,1,9,N","012000,1,N,1","+0158,1","+0070,1","99999,9",,,,,,,"07,99,1,05,1,05,1,00800,1,07,1,08,1",,,,,"99999,9,09020,1","6,1,016,1,+999,9","3,1506,9",,"SYN066AAXX  24154 08213 42562 72811 10158 20070 39020 48506 56016 85578;",
"08213099999","2010-10-24T18:00:00","4","40.95","-4.1333333","1005.0","SEGOVIA, SP","FM-12","99999","V020","290,1,N,0051,1","03600,1,9,N","012000,1,N,1","+0143,1","+0083,1","99999,9","12,0000,9,1",,,,,,"07,99,1,04,1,05,1,00800,1,07,1,08,1",,,,"999,M,+0172,1","99999,9,09021,1","3,1,001,1,+999,9","3,1505,9",,"SYN082AAXX  24184 08213 12562 72910 10143 20083 39021 48505 53001 60002 84578 333 10172;","Q01  00002PRCP12"
"08213099999","2010-10-25T06:00:00","4","40.95","-4.1333333","1005.0","SEGOVIA, SP","FM-12","99999","V020","050,1,N,0046,1","00750,1,9,N","012000,1,N,1","+0074,1","+0035,1","99999,9","12,0000,9,1","24,0000,9,1",,,,,"08,99,1,05,1,05,1,00800,1,02,1,99,9","0372,9","01,9","999,+0060,9","999,N,+0074,1","99999,9,09047,1","1,1,004,1,+999,9","3,1516,9",,"SYN100AAXX  25064 08213 12562 80509 10074 20035 39047 48516 51004 60002 8552/ 333 20074 30006 55062 70000;","Q01  00002PRCP24Q02  00002PRCP12"
"08213099999","2010-10-25T09:00:00","4","40.95","-4.1333333","1005.0","SEGOVIA, SP","FM-12","99999","V020","050,1,N,0057,1","03600,1,9,N","018000,1,N,1","+0078,1","+0023,1","99999,9",,,,,,,"06,99,1,01,1,02,1,00800,1,05,1,00,1",,,,,"99999,9,09066,1","1,1,019,1,+999,9","3,1533,9",,"SYN066AAXX  25094 08213 42568 60511 10078 20023 39066 48533 51019 81250;",
"08213099999","2010-10-25T12:00:00","4","40.95","-4.1333333","1005.0","SEGOVIA, SP","FM-12","99999","V020","030,1,N,0062,1","22000,1,9,N","020000,1,N,1","+0114,1","+0002,1","99999,9","06,0000,9,1",,,,,,"02,99,1,02,1,02,1,00800,1,00,1,00,1",,,,,"99999,9,09073,1","1,1,007,1,+999,9","3,1546,9",,"SYN082AAXX  25124 08213 12570 20312 10114 20002 39073 48546 51007 60001 82200 333 50220;","Q01  00002PRCP06"
"08213099999","2010-10-25T15:00:00","4","40.95","-4.1333333","1005.0","SEGOVIA, SP","FM-12","99999","V020","030,1,N,0041,1","22000,1,9,N","020000,1,N,1","+0106,1","-0008,1","99999,9",,,,,,,"01,99,1,01,1,01,1,00800,1,00,1,00,1",,,,,"99999,9,09076,1","1,1,003,1,+999,9","3,1547,9",,"SYN066AAXX  25154 08213 42570 10308 10106 21008 39076 48547 51003 81100;",
"08213099999","2010-10-25T18:00:00","4","40.95","-4.1333333","1005.0","SEGOVIA, SP","FM-12","99999","V020","030,1,N,0015,1","22000,1,9,N","020000,1,N,1","+0078,1","-0040,1","99999,9","12,0000,9,1",,,,,,"01,99,1,00,1,00,1,99999,9,00,1,04,1",,,,"999,M,+0124,1","99999,9,09087,1","2,1,011,1,+999,9","3,1552,9",,"SYN082AAXX  25184 08213 12970 10303 10078 21040 39087 48552 52011 60002 80004 333 10124;","Q01  00002PRCP12"
"08213099999","2010-10-26T06:00:00","4","40.95","-4.1333333","1005.0","SEGOVIA, SP","FM-12","99999","V020","080,1,N,0021,1","22000,1,9,N","020000,1,N,1","-0012,1","-0056,1","99999,9","12,0000,9,1","24,0000,9,1",,,,"00,1,+99999,9,99,9","00,99,1,00,1,00,1,99999,9,00,1,00,1","0522,9","14,9","999,-0090,9","999,N,-0016,1","99999,9,09110,1","4,1,000,1,+999,9","3,1554,9",,"SYN094AAXX  26064 08213 12970 00804 11012 21056 39110 48554 54000 60002 333 21016 34109 55087 70000;","Q01  00002PRCP24Q02  00002PRCP12"
"08213099999","2010-10-26T09:00:00","4","40.95","-4.1333333","1005.0","SEGOVIA, SP","FM-12","99999","V020","330,1,N,0010,1","22000,1,9,N","020000,1,N,1","+0056,1","-0051,1","99999,9",,,,,,,"02,99,1,00,1,00,1,99999,9,00,1,04,1",,,,,"99999,9,09118,1","3,1,008,1,+999,9","3,1575,9",,"SYN066AAXX  26094 08213 42970 23302 10056 21051 39118 48575 53008 80004;",
"08213099999","2010-10-26T12:00:00","4","40.95","-4.1333333","1005.0","SEGOVIA, SP","FM-12","99999","V020","320,1,N,0026,1","22000,1,9,N","020000,1,N,1","+0118,1","-0098,1","99999,9","06,0000,9,1",,,,,,"04,99,1,01,1,00,1,01750,1,04,1,04,1",,,,,"99999,9,09118,1","4,1,000,1,+999,9","3,1587,9",,"SYN082AAXX  26124 08213 12770 43205 10118 21098 39118 48587 54000 60001 81044 333 5///0;","Q01  00002PRCP06"
"08213099999","2010-10-26T15:00:00","4","40.95","-4.1333333","1005.0","SEGOVIA, SP","FM-12","99999","V020","350,1,N,0026,1","22000,1,9,N","020000,1,N,1","+0144,1","-0076,1","99999,9",,,,,,,"04,99,1,01,1,00,1,01750,1,04,1,04,1",,,,,"99999,9,09112,1","8,1,006,1,+999,9","3,1587,9",,"SYN066AAXX  26154 08213 42770 43505 10144 21076 39112 48587 58006 81044;",
"08213099999","2010-10-26T18:00:00","4","40.95","-4.1333333","1005.0","SEGOVIA, SP","FM-12","99999","V020","010,1,N,0015,1","22000,1,9,N","020000,1,N,1","+0118,1","-0066,1","99999,9","12,0000,9,1",,,,,,"02,99,1,01,1,00,1,01750,1,04,1,04,1",,,,"999,M,+0156,1","99999,9,09116,1","3,1,004,1,+999,9","3,1586,9",,"SYN082AAXX  26184 08213 12770 20103 10118 21066 39116 48586 53004 60002 81044 333 10156;","Q01  00002PRCP12"
"08213099999","2010-10-27T06:00:00","4","40.95","-4.1333333","1005.0","SEGOVIA, SP","FM-12","99999","V020","100,1,N,0010,1","22000,1,9,N","012000,1,N,1","+0043,1","-0105,1","99999,9","12,0000,9,1","24,0000,9,1",,,,,"02,99,1,01,1,00,1,00800,1,04,1,01,1","0564,9","01,9","999,-0050,9","999,N,+0030,1","99999,9,09110,1","7,1,002,1,+999,9","3,1565,9",,"SYN100AAXX  27064 08213 12562 21002 10043 21105 39110 48565 57002 60002 81041 333 20030 30105 55094 70000;","Q01  00002PRCP24Q02  00002PRCP12"
"08213099999","2010-10-27T09:00:00","4","40.95","-4.1333333","1005.0","SEGOVIA, SP","FM-12","99999","V020","180,1,N,0010,1","22000,1,9,N","012000,1,N,1","+0127,1","-0084,1","99999,9",,,,,,,"02,99,1,01,1,00,1,01750,1,04,1,01,1",,,,,"99999,9,09115,1","1,1,005,1,+999,9","3,1586,9",,"SYN066AAXX  27094 08213 42762 21802 10127 21084 39115 48586 51005 81041;",
"08213099999","2010-10-27T12:00:00","4","40.95","-4.1333333","1005.0","SEGOVIA, SP","FM-12","99999","V020","260,1,N,0026,1","22000,1,9,N","015000,1,N,1","+0184,1","-0105,1","99999,9","06,0000,9,1",,,,,,"05,99,1,01,1,00,1,01750,1,04,1,06,1",,,,,"99999,9,09107,1","8,1,008,1,+999,9","3,1590,9",,"SYN082AAXX  27124 08213 12765 52605 10184 21105 39107 48590 58008 60001 81046 333 50470;","Q01  00002PRCP06"
"08213099999","2010-10-27T15:00:00","4","40.95","-4.1333333","1005.0","SEGOVIA, SP","FM-12","99999","V020","340,1,N,0021,1","22000,1,9,N","015000,1,N,1","+0212,1","-0129,1","99999,9",,,,,,,"03,99,1,01,1,00,1,01750,1,04,1,05,1",,,,,"99999,9,09099,1","6,1,008,1,+999,9","3,1589,9",,"SYN066AAXX  27154 08213 42765 33404 10212 21129 39099 48589 56008 81045;",
"08213099999","2010-10-27T18:00:00","4","40.95","-4.1333333","1005.0","SEGOVIA, SP","FM-12","99999","V020","080,1,N,0015,1","09000,1,9,N","015000,1,N,1","+0168,1","-0091,1","99999,9","12,0000,9,1",,,,,,"07,99,1,03,1,00,1,01750,1,04,1,06,1",,,,"999,M,+0214,1","99999,9,09099,1","5,1,000,1,+999,9","3,1580,9",,"SYN082AAXX  27184 08213 12765 70803 10168 21091 39099 48580 55000 60002 83046 333 10214;","Q01  00002PRCP12"
"08213099999","2010-10-28T06:00:00","4","40.95","-4.1333333","1005.0","SEGOVIA, SP","FM-12","99999","V020","350,1,N,0010,1","09000,1,9,N","015000,1,N,1","+0100,1","-0017,1","99999,9","12,0000,9,1","24,0000,9,1",,,,,"07,99,1,04,1,00,1,01750,1,07,1,08,1","0546,9","01,9","999,+0040,9","999,N,+0050,1","99999,9,09086,1","8,1,004,1,+999,9","3,1555,9",,"SYN100AAXX  28064 08213 12765 73502 10100 21017 39086 48555 58004 60002 84078 333 20050 30004 55091 70000;","Q01  00002PRCP24Q02  00002PRCP12"
"08213099999","2010-10-28T09:00:00","4","40.95","-4.1333333","1005.0","SEGOVIA, SP","FM-12","99999","V020","270,1,N,0015,1","09000,1,9,N","012000,1,N,1","+0138,1","+0001,1","99999,9",,,,,,,"05,99,1,02,1,04,1,00800,1,03,1,01,1",,,,,"99999,9,09089,1","3,1,003,1,+999,9","3,1566,9",,"SYN066AAXX  28094 08213 42562 52703 10138 20001 39089 48566 53003 82431;",
"08213099999","2010-10-28T12:00:00","4","40.95","-4.1333333","1005.0","SEGOVIA, SP","FM-12","99999","V020","340,1,N,0010,1","22000,1,9,N","015000,1,N,1","+0192,1","-0043,1","99999,9","06,0000,9,1",,,,,,"04,99,1,01,1,04,1,00800,1,04,1,09,1",,,,,"99999,9,09081,1","8,1,008,1,+999,9","3,1568,9",,"SYN082AAXX  28124 08213 12565 43402 10192 21043 39081 48568 58008 60001 81449 333 50260;","Q01  00002PRCP06"
"08213099999","2010-10-28T15:00:00","4","40.95","-4.1333333","1005.0","SEGOVIA, SP","FM-12","99999","V020","300,1,N,0021,1","22000,1,9,N","015000,1,N,1","+0228,1","-0006,1","99999,9",,,,,,,"02,99,1,01,1,00,1,01750,1,04,1,01,1",,,,,"99999,9,09058,1","6,1,023,1,+999,9","3,1554,9",,"SYN066AAXX  28154 08213 42765 23004 10228 21006 39058 48554 56023 81041;",
"08213099999","2010-10-28T18:00:00","4","40.95","-4.1333333","1005.0","SEGOVIA, SP","FM-12","99999","V020","070,1,N,0010,1","22000,1,9,N","015000,1,N,1","+0164,1","-0060,1","99999,9","12,0000,9,1",,,,,,"03,99,1,01,1,00,1,01750,1,04,1,09,1",,,,"999,M,+0235,1","99999,9,09058,1","4,1,000,1,+999,9","3,1542,9",,"SYN082AAXX  28184 08213 12765 30702 10164 21060 39058 48542 54000 60002 81049 333 10235;","Q01  00002PRCP12"
"08213099999","2010-10-29T06:00:00","4","40.95","-4.1333333","1005.0","SEGOVIA, SP","FM-12","99999","V020","210,1,N,0062,1","00750,1,9,N","020000,1,N,1","+0148,1","-0133,1","99999,9","12,0000,9,1","24,0000,9,1",,,,,"08,99,1,08,1,05,1,00800,1,99,9,99,9","0420,9","01,9","999,-0010,9","999,N,+0130,1","99999,9,08984,1","7,1,010,1,+999,9","3,1470,9",,"SYN100AAXX  29064 08213 12570 82112 10148 21133 38984 48470 57010 60002 885// 333 20130 30101 55070 70000;","Q01  00002PRCP24Q02  00002PRCP12"
"08213099999","2010-10-29T09:00:00","4","40.95","-4.1333333","1005.0","SEGOVIA, SP","FM-12","99999","V020","190,1,N,0062,1","03600,1,9,N","012000,1,N,1","+0153,1","-0013,1","99999,9",,,,,,,"07,99,1,04,1,05,1,00800,1,05,1,02,1",,,,,"99999,9,08987,1","0,1,003,1,+999,9","3,1474,9",,"SYN066AAXX  29094 08213 42562 71912 10153 21013 38987 48474 50003 84552;",
"08213099999","2010-10-29T12:00:00","4","40.95","-4.1333333","1005.0","SEGOVIA, SP","FM-12","99999","V020","220,1,N,0087,1","03600,1,9,N","012000,1,N,1","+0148,1","+0010,1","99999,9","06,0000,9,1",,,,,,"07,99,1,01,1,05,1,00800,1,07,1,99,9",,,,,"99999,9,08978,1","7,1,009,1,+999,9","3,1465,9",,"SYN082AAXX  29124 08213 12562 72217 10148 20010 38978 48465 57009 60001 8157/ 333 50350;","Q01  00002PRCP06"
"08213099999","2010-10-29T15:00:00","4","40.95","-4.1333333","1005.0","SEGOVIA, SP","FM-12","99999","V020","190,1,N,0139,1","03600,1,9,N","012000,1,N,1","+0148,1","+0036,1","99999,9",,,,,,,"08,99,1,04,1,05,1,00800,1,07,1,99,9",,,,,"99999,9,08942,1","7,1,036,1,+999,9","3,1432,9",,"SYN066AAXX  29154 08213 42562 81927 10148 20036 38942 48432 57036 8457/;",
"08213099999","2010-10-29T18:00:00","4","40.95","-4.1333333","1005.0","SEGOVIA, SP","FM-12","99999","V020","170,1,N,0036,1","03600,1,9,N","008000,1,N,1","+0072,1","+0063,1","99999,9","12,0099,9,1",,,"8,1,06,1","2,1,06,1",,"08,99,1,04,1,05,1,00800,1,07,1,99,9",,,,"999,M,+0160,1","99999,9,08966,1","0,1,024,1,+999,9","3,1443,9","80,1","SYN088AAXX  29184 08213 11558 81707 10072 20063 38966 48443 50024 60102 78082 8457/ 333 10160;",
"08213099999","2010-10-30T06:00:00","4","40.95","-4.1333333","1005.0","SEGOVIA, SP","FM-12","99999","V020","160,1,N,0010,1","00750,1,9,N","015000,1,N,1","+0072,1","+0043,1","99999,9","12,0020,9,1","24,0117,9,1",,,,,"08,99,1,08,1,05,1,00800,1,99,9,99,9","0060,9","11,9","999,+0010,9","999,N,+0059,1","99999,9,08965,1","7,1,010,1,+999,9","3,1441,9",,"SYN100AAXX  30064 08213 12565 81602 10072 20043 38965 48441 57010 60022 885// 333 20059 32001 55010 70117;",
"08213099999","2010-10-30T09:00:00","4","40.95","-4.1333333","1005.0","SEGOVIA, SP","FM-12","99999","V020","220,1,N,0067,1","00750,1,9,N","012000,1,N,1","+0080,1","+0044,1","99999,9",,,,"2,1,03,1","2,1,03,1",,"08,99,1,08,1,05,1,00800,1,99,9,99,9",,,,,"99999,9,08962,1","6,1,003,1,+999,9","3,1440,9","21,1","SYN072AAXX  30094 08213 41562 82213 10080 20044 38962 48440 56003 72122 885//;",
"08213099999","2010-10-30T12:00:00","4","40.95","-4.1333333","1005.0","SEGOVIA, SP","FM-12","99999","V020","230,1,N,0067,1","00750,1,9,N","012000,1,N,1","+0095,1","+0055,1","99999,9","06,0000,2,1",,,"6,1,06,1","2,1,06,1",,"08,99,1,08,1,05,1,00800,1,99,9,99,9",,,,,"99999,9,08940,1","7,1,022,1,+999,9","3,1422,9","61,1","SYN088AAXX  30124 08213 11562 82313 10095 20055 38940 48422 57022 60001 76162 885// 333 50370;",
"08213099999","2010-10-30T15:00:00","4","40.95","-4.1333333","1005.0","SEGOVIA, SP","FM-12","99999","V020","210,1,N,0123,1","03600,1,9,N","020000,1,N,1","+0122,1","+0044,1","99999,9",,,,"6,1,03,1","6,1,03,1",,"06,99,1,04,1,05,1,00800,1,04,1,02,1",,,,,"99999,9,08907,1","7,1,033,1,+999,9","3,1395,9","02,1","SYN072AAXX  30154 08213 41570 62124 10122 20044 38907 48395 57033 70266 84542;",
"08213099999","2010-10-30T18:00:00","4","40.95","-4.1333333","1005.0","SEGOVIA, SP","FM-12","99999","V020","190,1,N,0051,1","03600,1,9,N","018000,1,N,1","+0102,1","+0054,1","99999,9","12,0005,9,1",,,"6,1,06,1","2,1,06,1",,"06,99,1,04,1,05,1,00800,1,03,1,00,1",,,,"999,M,+0130,1","99999,9,08903,1","6,1,004,1,+999,9","3,1389,9","60,1","SYN088AAXX  30184 08213 11568 61910 10102 20054 38903 48389 56004 69962 76062 84530 333 10130;",
"08213099999","2010-10-31T06:00:00","4","40.95","-4.1333333","1005.0","SEGOVIA, SP","FM-12","99999","V020","240,1,N,0067,1","00750,1,9,N","012000,1,N,1","+0064,1","+0044,1","99999,9","12,0071,9,1","24,0076,9,1",,"6,1,06,1","2,1,06,1",,"08,99,1,08,1,05,1,00800,1,99,9,99,9","0078,9","11,9","999,+0040,9","999,N,+0055,1","99999,9,08856,1","6,1,010,1,+999,9","3,1341,9","61,1","SYN106AAXX  31064 08213 11562 82413 10064 20044 38856 48341 56010 60072 76162 885// 333 20055 32004 55013 70076;",
"08213099999","2010-10-31T09:00:00","4","40.95","-4.1333333","1005.0","SEGOVIA, SP","FM-12","99999","V020","270,1,N,0093,1","00750,1,9,N","015000,1,N,1","+0068,1","+0046,1","99999,9",,,,"6,1,03,1","2,1,03,1",,"08,99,1,08,1,05,1,00800,1,99,9,99,9",,,,,"99999,9,08874,1","2,1,018,1,+999,9","3,1358,9","02,1","SYN072AAXX  31094 08213 41565 82718 10068 20046 38874 48358 52018 70262 885//;",
"08213099999","2010-10-31T12:00:00","4","40.95","-4.1333333","1005.0","SEGOVIA, SP","FM-12","99999","V020","280,1,N,0072,1","00750,1,9,N","018000,1,N,1","+0082,1","+0040,1","99999,9","06,0000,2,1",,,"6,1,06,1","2,1,06,1",,"08,99,1,08,1,05,1,00800,1,99,9,99,9",,,,,"99999,9,08879,1","2,1,005,1,+999,9","3,1364,9","02,1","SYN088AAXX  31124 08213 11568 82814 10082 20040 38879 48364 52005 69921 70262 885// 333 50210;",
"08213099999","2010-10-31T15:00:00","4","40.95","-4.1333333","1005.0","SEGOVIA, SP","FM-12","99999","V020","280,1,N,0087,1","00750,1,9,N","015000,1,N,1","+0091,1","+0047,1","99999,9",,,,"6,1,03,1","6,1,03,1",,"08,99,1,08,1,05,1,00800,1,99,9,99,9",,,,,"99999,9,08891,1","2,1,012,1,+999,9","3,1376,9","02,1","SYN072AAXX  31154 08213 41565 82817 10091 20047 38891 48376 52012 70266 885//;",
"08213099999","2010-10-31T18:00:00","4","40.95","-4.1333333","1005.0","SEGOVIA, SP","FM-12","99999","V020","270,1,N,0103,1","00750,1,9,N","012000,1,N,1","+0082,1","+0062,1","99999,9","12,0005,9,1",,,"6,1,06,1","2,1,06,1",,"07,99,1,07,1,05,1,00800,1,99,9,99,9",,,,"999,M,+0101,1","99999,9,08913,1","2,1,022,1,+999,9","3,1396,9","60,1","SYN088AAXX  31184 08213 11562 72720 10082 20062 38913 48396 52022 69942 76062 875// 333 10101;",
"08213099999","2010-11-01T06:00:00","4","40.95","-4.1333333","1005.0","SEGOVIA, SP","FM-12","99999","V020","290,1,N,0062,1","00750,1,9,N","008000,1,N,1","+0064,1","+0060,1","99999,9","12,0061,9,1","24,0061,9,1",,"6,1,06,1","2,1,06,1",,"08,99,1,06,1,07,1,00800,1,07,1,08,1","0024,9","11,9","999,+0050,9","999,N,+0058,1","99999,9,08990,1","2,1,018,1,+999,9","3,1463,9","50,1","SYN106AAXX  01064 08213 11558 82912 10064 20060 38990 48463 52018 60062 75062 86778 333 20058 32005 55004 70061;",
"08213099999","2010-11-01T09:00:00","4","40.95","-4.1333333","1005.0","SEGOVIA, SP","FM-12","99999","V020","290,1,N,0026,1","00750,1,9,N","007000,1,N,1","+0068,1","+0068,1","99999,9",,,,"6,1,03,1","2,1,03,1",,"08,99,1,06,1,07,1,00800,1,07,1,08,1",,,,,"99999,9,09023,1","2,1,033,1,+999,9","3,1494,9","10,1","SYN072AAXX  01094 08213 41557 82905 10068 20068 39023 48494 52033 71062 86778;",
"08213099999","2010-11-01T12:00:00","4","40.95","-4.1333333","1005.0","SEGOVIA, SP","FM-12","99999","V020","320,1,N,0041,1","00750,1,9,N","008000,1,N,1","+0094,1","+0077,1","99999,9","06,0005,9,1",,,"6,1,06,1","2,1,06,1",,"08,99,1,06,1,07,1,00800,1,07,1,08,1",,,,,"99999,9,09030,1","1,1,007,1,+999,9","3,1505,9","10,1","SYN088AAXX  01124 08213 11558 83208 10094 20077 39030 48505 51007 69941 71062 86778 333 50150;",
"08213099999","2010-11-01T15:00:00","4","40.95","-4.1333333","1005.0","SEGOVIA, SP","FM-12","99999","V020","030,1,N,0041,1","03600,1,9,N","010000,1,N,1","+0117,1","+0056,1","99999,9",,,,,,,"05,99,1,04,1,08,1,00800,1,04,1,01,1",,,,,"99999,9,09035,1","3,1,005,1,+999,9","3,1513,9",,"SYN066AAXX  01154 08213 42560 50308 10117 20056 39035 48513 53005 84841;",
"08213099999","2010-11-01T18:00:00","4","40.95","-4.1333333","1005.0","SEGOVIA, SP","FM-12","99999","V020","040,1,N,0041,1","22000,1,9,N","012000,1,N,1","+0098,1","+0067,1","99999,9","12,0008,9,1",,,"6,1,06,1","1,1,06,1",,"04,99,1,03,1,08,1,00800,1,04,1,09,1",,,,"999,M,+0124,1","99999,9,09044,1","1,1,009,1,+999,9","3,1518,9","01,1","SYN088AAXX  01184 08213 11562 40408 10098 20067 39044 48518 51009 69972 70161 83849 333 10124;",
"08213099999","2010-11-02T06:00:00","4","40.95","-4.1333333","1005.0","SEGOVIA, SP","FM-12","99999","V020","010,1,N,0010,1","22000,1,9,N","010000,1,N,1","+0066,1","+0057,1","99999,9","12,0000,9,1","24,0008,9,1",,,,,"04,99,1,02,1,04,1,00800,1,04,1,08,1","0108,9","09,9","999,+0000,9","999,N,+0060,1","99999,9,09078,1","1,1,005,1,+999,9","3,1542,9",,"SYN100AAXX  02064 08213 12560 40102 10066 20057 39078 48542 51005 60002 82448 333 20060 31000 55018 70007;","Q01  00002PRCP12"
"08213099999","2010-11-02T09:00:00","4","40.95","-4.1333333","1005.0","SEGOVIA, SP","FM-12","99999","V020","080,1,N,0021,1","00750,1,9,N","012000,1,N,1","+0081,1","+0056,1","99999,9",,,,,,,"07,99,1,05,1,04,1,00800,1,03,1,01,1",,,,,"99999,9,09096,1","2,1,018,1,+999,9","3,1561,9",,"SYN066AAXX  02094 08213 42562 70804 10081 20056 39096 48561 52018 85431;",
"08213099999","2010-11-02T12:00:00","4","40.95","-4.1333333","1005.0","SEGOVIA, SP","FM-12","99999","V020","020,1,N,0036,1","22000,1,9,N","015000,1,N,1","+0116,1","+0059,1","99999,9","06,0000,9,1",,,,,,"02,99,1,02,1,04,1,00800,1,00,1,00,1",,,,,"99999,9,09086,1","8,1,010,1,+999,9","3,1559,9",,"SYN082AAXX  02124 08213 12565 20207 10116 20059 39086 48559 58010 60001 82400 333 50080;","Q01  00002PRCP06"
"08213099999","2010-11-02T15:00:00","4","40.95","-4.1333333","1005.0","SEGOVIA, SP","FM-12","99999","V020","340,1,N,0021,1","22000,1,9,N","015000,1,N,1","+0127,1","+0067,1","99999,9",,,,,,,"02,99,1,02,1,04,1,00800,1,00,1,00,1",,,,,"99999,9,09082,1","6,1,004,1,+999,9","3,1558,9",,"SYN066AAXX  02154 08213 42565 23404 10127 20067 39082 48558 56004 82400;",
"08213099999","2010-11-02T18:00:00","4","40.95","-4.1333333","1005.0","SEGOVIA, SP","FM-12","99999","V020","050,1,N,0015,1","22000,1,9,N","015000,1,N,1","+0107,1","+0074,1","99999,9","12,0000,9,1",,,,,,"01,99,1,01,1,00,1,01750,1,04,1,00,1",,,,"999,M,+0134,1","99999,9,09088,1","1,1,006,1,+999,9","3,1560,9",,"SYN082AAXX  02184 08213 12765 10503 10107 20074 39088 48560 51006 60002 81040 333 10134;","Q01  00002PRCP12"
"08213099999","2010-11-03T06:00:00","4","40.95","-4.1333333","1005.0","SEGOVIA, SP","FM-12","99999","V020","080,1,N,0021,1","22000,1,9,N","020000,1,N,1","+0055,1","+0049,1","99999,9","12,0000,9,1","24,0000,9,1",,,,,"01,99,1,00,1,00,1,99999,9,00,1,01,1","0408,9","09,9","999,-0020,9","999,N,+0050,1","99999,9,09103,1","4,1,000,1,+999,9","3,1562,9",,"SYN100AAXX  03064 08213 12970 10804 10055 20049 39103 48562 54000 60002 80001 333 20050 31102 55068 70000;","Q01  00002PRCP24Q02  00002PRCP12"
"08213099999","2010-11-03T09:00:00","4","40.95","-4.1333333","1005.0","SEGOVIA, SP","FM-12","99999","V020","250,1,N,0010,1","22000,1,9,N","015000,1,N,1","+0100,1","+0067,1","99999,9",,,,,,,"02,99,1,00,1,00,1,99999,9,00,1,01,1",,,,,"99999,9,09109,1","2,1,006,1,+999,9","3,1577,9",,"SYN066AAXX  03094 08213 42965 22502 10100 20067 39109 48577 52006 80001;",
"08213099999","2010-11-03T12:00:00","4","40.95","-4.1333333","1005.0","SEGOVIA, SP","FM-12","99999","V020","310,1,N,0036,1","22000,1,9,N","015000,1,N,1","+0152,1","+0070,1","99999,9","06,0000,9,1",,,,,,"01,99,1,00,1,00,1,99999,9,00,1,01,1",,,,,"99999,9,09120,1","1,1,011,1,+999,9","3,1598,9",,"SYN082AAXX  03124 08213 12965 13107 10152 20070 39120 48598 51011 60001 80001 333 50080;","Q01  00002PRCP06"
"08213099999","2010-11-03T15:00:00","4","40.95","-4.1333333","1005.0","SEGOVIA, SP","FM-12","99999","V020","350,1,N,0021,1","22000,1,9,N","020000,1,N,1","+0174,1","+0075,1","99999,9",,,,,,,"02,99,1,00,1,00,1,99999,9,00,1,01,1",,,,,"99999,9,09116,1","6,1,004,1,+999,9","3,1599,9",,"SYN066AAXX  03154 08213 42970 23504 10174 20075 39116 48599 56004 80001;",
"08213099999","2010-11-03T18:00:00","4","40.95","-4.1333333","1005.0","SEGOVIA, SP","FM-12","99999","V020","080,1,N,0021,1","22000,1,9,N","018000,1,N,1","+0138,1","+0088,1","99999,9","12,0000,9,1",,,,,,"01,99,1,00,1,00,1,99999,9,00,1,01,1",,,,"999,M,+0175,1","99999,9,09127,1","3,1,011,1,+999,9","3,1602,9",,"SYN082AAXX  03184 08213 12968 10804 10138 20088 39127 48602 53011 60002 80001 333 10175;","Q01  00002PRCP12"
"08213099999","2010-11-04T06:00:00","4","40.95","-4.1333333","1005.0","SEGOVIA, SP","FM-12","99999","V020","080,1,N,0010,1","22000,1,9,N","020000,1,N,1","+0069,1","+0054,1","99999,9","12,0000,9,1","24,0000,9,1",,,,"00,1,+99999,9,99,9","00,99,1,00,1,00,1,99999,9,00,1,00,1","0564,9","01,9","999,-0010,9","999,N,+0063,1","99999,9,09140,1","4,1,000,1,+999,9","3,1598,9",,"SYN094AAXX  04064 08213 12970 00802 10069 20054 39140 48598 54000 60002 333 20063 30101 55094 70000;","Q01  00002PRCP24Q02  00002PRCP12"
"08213099999","2010-11-04T12:00:00","4","40.95","-4.1333333","1005.0","SEGOVIA, SP","FM-12","99999","V020","330,1,N,0015,1","22000,1,9,N","020000,1,N,1","+0166,1","+0083,1","99999,9","06,0000,9,1",,,,,,"01,99,1,00,1,00,1,99999,9,00,1,01,1",,,,,"99999,9,09152,1","1,1,001,1,+999,9","3,1630,9",,"SYN082AAXX  04124 08213 12970 13303 10166 20083 39152 48630 51001 60001 80001 333 50100;","Q01  00002PRCP06"
"08213099999","2010-11-04T15:00:00","4","40.95","-4.1333333","1005.0","SEGOVIA, SP","FM-12","99999","V020","330,1,N,0015,1","22000,1,9,N","020000,1,N,1","+0194,1","+0093,1","99999,9",,,,,,,"01,99,1,01,1,05,1,00800,1,00,1,00,1",,,,,"99999,9,09138,1","7,1,014,1,+999,9","3,1624,9",,"SYN066AAXX  04154 08213 42570 13303 10194 20093 39138 48624 57014 81500;",
"08213099999","2010-11-04T18:00:00","4","40.95","-4.1333333","1005.0","SEGOVIA, SP","FM-12","99999","V020","050,1,N,0021,1","22000,1,9,N","020000,1,N,1","+0156,1","+0104,1","99999,9","12,0000,9,1",,,,,"00,1,+99999,9,99,9","00,99,1,00,1,00,1,99999,9,00,1,00,1",,,,"999,M,+0194,1","99999,9,09142,1","3,1,004,1,+999,9","3,1619,9",,"SYN076AAXX  04184 08213 12970 00504 10156 20104 39142 48619 53004 60002 333 10194;","Q01  00002PRCP12"
"08213099999","2010-11-05T06:00:00","4","40.95","-4.1333333","1005.0","SEGOVIA, SP","FM-12","99999","V020","070,1,N,0021,1","22000,1,9,N","020000,1,N,1","+0084,1","+0067,1","99999,9","12,0000,9,1","24,0000,9,1",,,,"00,1,+99999,9,99,9","00,99,1,00,1,00,1,99999,9,00,1,00,1","0582,9","09,9","999,+0020,9","999,N,+0082,1","99999,9,09133,1","6,1,005,1,+999,9","3,1595,9",,"SYN094AAXX  05064 08213 12970 00704 10084 20067 39133 48595 56005 60002 333 20082 31002 55097 70000;","Q01  00002PRCP24Q02  00002PRCP12"
"08213099999","2010-11-05T09:00:00","4","40.95","-4.1333333","1005.0","SEGOVIA, SP","FM-12","99999","V020","090,1,N,0021,1","22000,1,9,N","020000,1,N,1","+0126,1","+0079,1","99999,9",,,,,,"00,1,+99999,9,99,9","00,99,1,00,1,00,1,99999,9,00,1,00,1",,,,,"99999,9,09139,1","1,1,006,1,+999,9","3,1610,9",,"SYN060AAXX  05094 08213 42970 00904 10126 20079 39139 48610 51006;",
"08213099999","2010-11-05T12:00:00","4","40.95","-4.1333333","1005.0","SEGOVIA, SP","FM-12","99999","V020","340,1,N,0021,1","22000,1,9,N","020000,1,N,1","+0182,1","+0095,1","99999,9","06,0000,9,1",,,,,"00,1,+99999,9,99,9","00,99,1,00,1,00,1,99999,9,00,1,00,1",,,,,"99999,9,09139,1","0,1,000,1,+999,9","3,1622,9",,"SYN076AAXX  05124 08213 12970 03404 10182 20095 39139 48622 50000 60001 333 50150;","Q01  00002PRCP06"
"08213099999","2010-11-05T15:00:00","4","40.95","-4.1333333","1005.0","SEGOVIA, SP","FM-12","99999","V020","320,1,N,0021,1","22000,1,9,N","020000,1,N,1","+0196,1","+0100,1","99999,9",,,,,,,"01,99,1,01,1,01,1,00800,1,00,1,00,1",,,,,"99999,9,09119,1","7,1,020,1,+999,9","3,1606,9",,"SYN066AAXX  05154 08213 42570 13204 10196 20100 39119 48606 57020 81100;",
"08213099999","2010-11-05T18:00:00","4","40.95","-4.1333333","1005.0","SEGOVIA, SP","FM-12","99999","V020","100,1,N,0021,1","22000,1,9,N","020000,1,N,1","+0158,1","+0112,1","99999,9","12,0000,9,1",,,,,,"01,99,1,01,1,00,1,01750,1,04,1,00,1",,,,"999,M,+0206,1","99999,9,09119,1","5,1,000,1,+999,9","3,1599,9",,"SYN082AAXX  05184 08213 12770 11004 10158 20112 39119 48599 55000 60002 81040 333 10206;","Q01  00002PRCP12"
"08213099999","2010-11-06T06:00:00","4","40.95","-4.1333333","1005.0","SEGOVIA, SP","FM-12","99999","V020","100,1,N,0015,1","22000,1,9,N","020000,1,N,1","+0084,1","+0064,1","99999,9","12,0000,9,1","24,0000,9,1",,,,"00,1,+99999,9,99,9","00,99,1,00,1,00,1,99999,9,00,1,00,1","0558,9","09,9","999,+0020,9","999,N,+0082,1","99999,9,09106,1","6,1,003,1,+999,9","3,1571,9",,"SYN094AAXX  06064 08213 12970 01003 10084 20064 39106 48571 56003 60002 333 20082 31002 55093 70000;","Q01  00002PRCP24Q02  00002PRCP12"
"08213099999","2010-11-06T09:00:00","4","40.95","-4.1333333","1005.0","SEGOVIA, SP","FM-12","99999","V020","170,1,N,0010,1","22000,1,9,N","012000,1,N,1","+0122,1","+0092,1","99999,9",,,,,,,"02,99,1,01,1,00,1,01750,1,04,1,04,1",,,,,"99999,9,09108,1","3,1,002,1,+999,9","3,1581,9",,"SYN066AAXX  06094 08213 42762 21702 10122 20092 39108 48581 53002 81044;",
"08213099999","2010-11-06T12:00:00","4","40.95","-4.1333333","1005.0","SEGOVIA, SP","FM-12","99999","V020","260,1,N,0026,1","22000,1,9,N","020000,1,N,1","+0160,1","+0090,1","99999,9","06,0000,9,1",,,,,,"06,99,1,01,1,01,1,00800,1,00,1,04,1",,,,,"99999,9,09102,1","8,1,006,1,+999,9","3,1583,9",,"SYN082AAXX  06124 08213 12570 62605 10160 20090 39102 48583 58006 60001 81104 333 50140;","Q01  00002PRCP06"
"08213099999","2010-11-06T15:00:00","4","40.95","-4.1333333","1005.0","SEGOVIA, SP","FM-12","99999","V020","290,1,N,0026,1","99999,9,9,N","018000,1,N,1","+0178,1","+0072,1","99999,9",,,,,,,"05,99,1,00,1,00,1,99999,9,00,1,08,1",,,,,"99999,9,09074,1","6,1,028,1,+999,9","3,1560,9",,"SYN066AAXX  06154 08213 42968 52905 10178 20072 39074 48560 56028 80008;",
"08213099999","2010-11-06T18:00:00","4","40.95","-4.1333333","1005.0","SEGOVIA, SP","FM-12","99999","V020","240,1,N,0010,1","99999,9,9,N","018000,1,N,1","+0140,1","+0071,1","99999,9","12,0000,9,1",,,,,,"05,99,1,00,1,00,1,99999,9,00,1,08,1",,,,"999,M,+0188,1","99999,9,09064,1","8,1,010,1,+999,9","3,1544,9",,"SYN082AAXX  06184 08213 12968 52402 10140 20071 39064 48544 58010 60002 80008 333 10188;","Q01  00002PRCP12"
"08213099999","2010-11-07T06:00:00","4","40.95","-4.1333333","1005.0","SEGOVIA, SP","FM-12","99999","V020","280,1,N,0036,1","03600,1,9,N","010000,1,N,1","+0078,1","+0074,1","99999,9","12,0000,9,1","24,0000,9,1",,,,,"08,99,1,04,1,05,1,00800,1,02,1,99,9","0522,9","01,9","999,+0040,9","999,N,+0078,1","99999,9,09004,1","7,1,006,1,+999,9","3,1478,9",,"SYN100AAXX  07064 08213 12560 82807 10078 20074 39004 48478 57006 60002 8452/ 333 20078 30004 55087 70000;","Q01  00002PRCP24Q02  00002PRCP12"
"08213099999","2010-11-07T09:00:00","4","40.95","-4.1333333","1005.0","SEGOVIA, SP","FM-12","99999","V020","280,1,N,0031,1","03600,1,9,N","004000,1,N,1","+0074,1","+0062,1","99999,9",,,,"2,1,03,1","2,1,03,1",,"08,99,1,04,1,05,1,00800,1,02,1,99,9",,,,,"99999,9,09004,1","5,1,000,1,+999,9","3,1477,9","10,1","SYN072AAXX  07094 08213 41540 82806 10074 20062 39004 48477 55000 71022 8452/;",
"08213099999","2010-11-07T12:00:00","4","40.95","-4.1333333","1005.0","SEGOVIA, SP","FM-12","99999","V020","300,1,N,0046,1","03600,1,9,N","004000,1,N,1","+0082,1","+0062,1","99999,9","06,0000,9,1",,,"2,1,06,1","2,1,06,1",,"08,99,1,04,1,05,1,00800,1,02,1,99,9",,,,,"99999,9,08992,1","8,1,012,1,+999,9","3,1468,9","10,1","SYN088AAXX  07124 08213 11540 83009 10082 20062 38992 48468 58012 60001 71022 8452/ 333 50160;","Q01  00002PRCP06"
"08213099999","2010-11-07T15:00:00","4","40.95","-4.1333333","1005.0","SEGOVIA, SP","FM-12","99999","V020","350,1,N,0026,1","01200,1,9,N","016000,1,N,1","+0092,1","+0072,1","99999,9",,,,"6,1,03,1","2,1,03,1",,"07,99,1,07,1,08,1,00800,1,00,1,00,1",,,,,"99999,9,08967,1","7,1,025,1,+999,9","3,1447,9","02,1","SYN072AAXX  07154 08213 41566 73505 10092 20072 38967 48447 57025 70262 87800;",
"08213099999","2010-11-07T18:00:00","4","40.95","-4.1333333","1005.0","SEGOVIA, SP","FM-12","99999","V020","330,1,N,0031,1","22000,1,9,N","016000,1,N,1","+0070,1","+0015,1","99999,9","12,0010,9,1",,,"6,1,06,1","2,1,06,1",,"02,99,1,01,1,04,1,00800,1,04,1,00,1",,,,"999,M,+0108,1","99999,9,08968,1","3,1,001,1,+999,9","3,1444,9","01,1","SYN088AAXX  07184 08213 11566 23306 10070 20015 38968 48444 53001 69992 70162 81440 333 10108;",
"08213099999","2010-11-08T06:00:00","4","40.95","-4.1333333","1005.0","SEGOVIA, SP","FM-12","99999","V020","240,1,N,0077,1","03600,1,9,N","015000,1,N,1","+0035,1","+0015,1","99999,9","12,0000,9,1","24,0010,9,1",,,,,"08,99,1,02,1,05,1,00800,1,07,1,99,9","0024,9","09,9","999,-0020,9","999,N,+0029,1","99999,9,08906,1","6,1,005,1,+999,9","3,1382,9",,"SYN100AAXX  08064 08213 12565 82415 10035 20015 38906 48382 56005 60002 8257/ 333 20029 31102 55004 70009;","Q01  00002PRCP12"
"08213099999","2010-11-08T09:00:00","4","40.95","-4.1333333","1005.0","SEGOVIA, SP","FM-12","99999","V020","230,1,N,0067,1","00750,1,9,N","012000,1,N,1","+0050,1","+0035,1","99999,9",,,,,,,"08,99,1,08,1,05,1,00800,1,99,9,99,9",,,,,"99999,9,08884,1","7,1,022,1,+999,9","3,1364,9",,"SYN066AAXX  08094 08213 42562 82313 10050 20035 38884 48364 57022 885//;",
"08213099999","2010-11-08T12:00:00","4","40.95","-4.1333333","1005.0","SEGOVIA, SP","FM-12","99999","V020","260,1,N,0144,1","00750,1,9,N","015000,1,N,1","+0085,1","+0047,1","99999,9","06,0000,9,1",,,,,,"08,99,1,08,1,05,1,00800,1,99,9,99,9",,,,,"99999,9,08844,1","7,1,040,1,+999,9","3,1332,9",,"SYN082AAXX  08124 08213 12565 82628 10085 20047 38844 48332 57040 60001 885// 333 50030;","Q01  00002PRCP06"
"08213099999","2010-11-08T15:00:00","4","40.95","-4.1333333","1005.0","SEGOVIA, SP","FM-12","99999","V020","260,1,N,0185,1","00750,1,9,N","015000,1,N,1","+0102,1","+0064,1","99999,9",,,,,,,"08,99,1,08,1,05,1,00800,1,99,9,99,9",,,,,"99999,9,08809,1","7,1,035,1,+999,9","3,1301,9",,"SYN066AAXX  08154 08213 42565 82636 10102 20064 38809 48301 57035 885//;",
"08213099999","2010-11-08T18:00:00","4","40.95","-4.1333333","1005.0","SEGOVIA, SP","FM-12","99999","V020","270,1,N,0129,1","00750,1,9,N","015000,1,N,1","+0094,1","+0067,1","99999,9","12,9999,9,9",,,"2,1,06,1","2,1,06,1",,"07,99,1,07,1,05,1,00800,1,99,9,99,9",,,,"999,M,+0103,1","99999,9,08810,1","3,1,001,1,+999,9","3,1301,9","21,1","SYN088AAXX  08184 08213 11565 72725 10094 20067 38810 48301 53001 69902 72122 875// 333 10103;","Q01  00002PRCP12Q02  00002PRCP12"
"08213099999","2010-11-09T06:00:00","4","40.95","-4.1333333","1005.0","SEGOVIA, SP","FM-12","99999","V020","280,1,N,0103,1","00750,1,9,N","002000,1,N,1","+0055,1","+0055,1","99999,9","12,0079,9,2","24,0076,9,2",,"6,1,06,1","2,1,06,1",,"08,99,1,08,1,05,1,00800,1,99,9,99,9","0000,9","11,9","999,+0040,9","999,N,+0035,1","99999,9,08782,1","5,1,005,1,+999,9","3,1271,9","81,1","SYN106AAXX  09064 08213 11520 82820 10055 20055 38782 48271 55005 60082 78162 885// 333 20035 32004 55000 70075;",
"08213099999","2010-11-09T09:00:00","4","40.95","-4.1333333","1005.0","SEGOVIA, SP","FM-12","99999","V020","270,1,N,0082,1","00750,1,9,N","015000,1,N,1","+0055,1","+0045,1","99999,9",,,,"8,1,03,1","6,1,03,1",,"07,99,1,07,1,05,1,00800,1,99,9,99,9",,,,,"99999,9,08788,1","3,1,006,1,+999,9","3,1277,9","02,1","SYN072AAXX  09094 08213 41565 72716 10055 20045 38788 48277 53006 70286 875//;",
"08213099999","2010-11-09T12:00:00","4","40.95","-4.1333333","1005.0","SEGOVIA, SP","FM-12","99999","V020","280,1,N,0123,1","00750,1,9,N","015000,1,N,1","+0072,1","+0006,1","99999,9","06,0020,9,1",,,"6,1,06,1","2,1,06,1",,"07,99,1,07,1,05,1,00800,1,99,9,99,9",,,,,"99999,9,08790,1","2,1,002,1,+999,9","3,1280,9","02,1","SYN088AAXX  09124 08213 11565 72824 10072 20006 38790 48280 52002 60021 70262 875// 333 50170;",
"08213099999","2010-11-09T15:00:00","4","40.95","-4.1333333","1005.0","SEGOVIA, SP","FM-12","99999","V020","280,1,N,0129,1","00750,1,9,N","018000,1,N,1","+0075,1","+0005,1","99999,9",,,,"6,1,03,1","2,1,03,1",,"07,99,1,07,1,05,1,00800,1,99,9,99,9",,,,,"99999,9,08798,1","3,1,008,1,+999,9","3,1288,9","02,1","SYN072AAXX  09154 08213 41568 72825 10075 20005 38798 48288 53008 70262 875//;",
"08213099999","2010-11-09T18:00:00","4","40.95","-4.1333333","1005.0","SEGOVIA, SP","FM-12","99999","V020","260,1,N,0118,1","03600,1,9,N","015000,1,N,1","+0062,1","+0015,1","99999,9","12,0020,9,1",,,,,,"06,99,1,04,1,05,1,00800,1,07,1,00,1",,,,"999,M,+0083,1","99999,9,08805,1","2,1,007,1,+999,9","3,1293,9",,"SYN082AAXX  09184 08213 12565 62623 10062 20015 38805 48293 52007 60022 84570 333 10083;",
"08213099999","2010-11-10T06:00:00","4","40.95","-4.1333333","1005.0","SEGOVIA, SP","FM-12","99999","V020","280,1,N,0062,1","01200,1,9,N","010000,1,N,1","+0044,1","+0035,1","99999,9","12,0000,9,1","24,0023,9,1",,,,,"07,99,1,07,1,08,1,00800,1,00,1,00,1","0306,9","09,9","999,+0020,9","999,N,+0044,1","99999,9,08885,1","2,1,010,1,+999,9","3,1365,9",,"SYN100AAXX  10064 08213 12560 72812 10044 20035 38885 48365 52010 60002 87800 333 20044 31002 55051 70024;","Q01  00002PRCP12"
"08213099999","2010-11-10T09:00:00","4","40.95","-4.1333333","1005.0","SEGOVIA, SP","FM-12","99999","V020","280,1,N,0051,1","00750,1,9,N","014000,1,N,1","+0048,1","+0030,1","99999,9",,,,,,,"08,99,1,05,1,05,1,00800,1,02,1,99,9",,,,,"99999,9,08923,1","2,1,038,1,+999,9","3,1400,9",,"SYN066AAXX  10094 08213 42564 82810 10048 20030 38923 48400 52038 8552/;",
"08213099999","2010-11-10T12:00:00","4","40.95","-4.1333333","1005.0","SEGOVIA, SP","FM-12","99999","V020","290,1,N,0067,1","01200,1,9,N","016000,1,N,1","+0074,1","+0019,1","99999,9","06,0000,9,1",,,,,,"07,99,1,07,1,08,1,00800,1,00,1,00,1",,,,,"99999,9,08945,1","2,1,022,1,+999,9","3,1423,9",,"SYN082AAXX  10124 08213 12566 72913 10074 20019 38945 48423 52022 60001 87800 333 50180;","Q01  00002PRCP06"
"08213099999","2010-11-10T15:00:00","4","40.95","-4.1333333","1005.0","SEGOVIA, SP","FM-12","99999","V020","290,1,N,0057,1","01200,1,9,N","018000,1,N,1","+0086,1","+0001,1","99999,9",,,,,,,"07,99,1,07,1,08,1,00800,1,00,1,00,1",,,,,"99999,9,08961,1","2,1,016,1,+999,9","3,1440,9",,"SYN066AAXX  10154 08213 42568 72911 10086 20001 38961 48440 52016 87800;",
"08213099999","2010-11-10T18:00:00","4","40.95","-4.1333333","1005.0","SEGOVIA, SP","FM-12","99999","V020","310,1,N,0031,1","01200,1,9,N","018000,1,N,1","+0066,1","-0008,1","99999,9","12,0000,9,1",,,,,,"05,99,1,05,1,08,1,00800,1,00,1,00,1",,,,"999,M,+0090,1","99999,9,08993,1","2,1,032,1,+999,9","3,1465,9",,"SYN082AAXX  10184 08213 12568 53106 10066 21008 38993 48465 52032 60002 85800 333 10090;","Q01  00002PRCP12"
"08213099999","2010-11-11T06:00:00","4","40.95","-4.1333333","1005.0","SEGOVIA, SP","FM-12","99999","V020","230,1,N,0036,1","01200,1,9,N","010000,1,N,1","+0048,1","+0030,1","99999,9","12,0000,9,1","24,0000,9,1",,,,,"07,99,1,07,1,08,1,00800,1,00,1,00,1","0192,9","01,9","999,-0020,9","999,N,+0018,1","99999,9,09058,1","2,1,007,1,+999,9","3,1521,9",,"SYN100AAXX  11064 08213 12560 72307 10048 20030 39058 48521 52007 60002 87800 333 20018 30102 55032 70000;","Q01  00002PRCP24Q02  00002PRCP12"
"08213099999","2010-11-11T09:00:00","4","40.95","-4.1333333","1005.0","SEGOVIA, SP","FM-12","99999","V020","200,1,N,0026,1","03600,1,9,N","016000,1,N,1","+0058,1","+0031,1","99999,9",,,,,,,"08,99,1,04,1,05,1,00800,1,02,1,99,9",,,,,"99999,9,09072,1","1,1,014,1,+999,9","3,1535,9",,"SYN066AAXX  11094 08213 42566 82005 10058 20031 39072 48535 51014 8452/;",
"08213099999","2010-11-11T12:00:00","4","40.95","-4.1333333","1005.0","SEGOVIA, SP","FM-12","99999","V020","280,1,N,0041,1","01200,1,9,N","018000,1,N,1","+0090,1","+0038,1","99999,9","06,0000,9,1",,,,,,"07,99,1,07,1,08,1,00800,1,00,1,00,1",,,,,"99999,9,09081,1","0,1,009,1,+999,9","3,1549,9",,"SYN082AAXX  11124 08213 12568 72808 10090 20038 39081 48549 50009 60001 87800 333 50080;","Q01  00002PRCP06"
"08213099999","2010-11-11T15:00:00","4","40.95","-4.1333333","1005.0","SEGOVIA, SP","FM-12","99999","V020","240,1,N,0041,1","00750,1,9,N","018000,1,N,1","+0096,1","+0050,1","99999,9",,,,,,,"07,99,1,05,1,05,1,00800,1,02,1,00,1",,,,,"99999,9,09081,1","4,1,000,1,+999,9","3,1551,9",,"SYN066AAXX  11154 08213 42568 72408 10096 20050 39081 48551 54000 85520;",
"08213099999","2010-11-11T18:00:00","4","40.95","-4.1333333","1005.0","SEGOVIA, SP","FM-12","99999","V020","270,1,N,0031,1","00750,1,9,N","016000,1,N,1","+0090,1","+0061,1","99999,9","12,0000,9,1",,,,,,"07,99,1,05,1,05,1,00800,1,02,1,00,1",,,,"999,M,+0104,1","99999,9,09086,1","3,1,005,1,+999,9","3,1554,9",,"SYN082AAXX  11184 08213 12566 72706 10090 20061 39086 48554 53005 60002 85520 333 10104;","Q01  00002PRCP12"
"08213099999","2010-11-12T06:00:00","4","40.95","-4.1333333","1005.0","SEGOVIA, SP","FM-12","99999","V020","190,1,N,0010,1","00750,1,9,N","008000,1,N,1","+0080,1","+0068,1","99999,9","12,0000,9,1","24,0000,9,1",,"2,1,06,1","2,1,06,1",,"08,99,1,06,1,07,1,00800,1,07,1,08,1","0012,9","09,9","999,+0060,9","999,N,+0070,1","99999,9,09093,1","6,1,004,1,+999,9","3,1559,9","10,1","SYN106AAXX  12064 08213 11558 81902 10080 20068 39093 48559 56004 60002 71022 86778 333 20070 31006 55002 70000;","Q01  00002PRCP24Q02  00002PRCP12"
"08213099999","2010-11-12T09:00:00","4","40.95","-4.1333333","1005.0","SEGOVIA, SP","FM-12","99999","V020","230,1,N,0036,1","00750,1,9,N","010000,1,N,1","+0088,1","+0068,1","99999,9",,,,,,,"08,99,1,06,1,05,1,00800,1,07,1,08,1",,,,,"99999,9,09100,1","3,1,007,1,+999,9","3,1567,9",,"SYN066AAXX  12094 08213 42560 82307 10088 20068 39100 48567 53007 86578;",
"08213099999","2010-11-12T12:00:00","4","40.95","-4.1333333","1005.0","SEGOVIA, SP","FM-12","99999","V020","260,1,N,0026,1","00750,1,9,N","012000,1,N,1","+0114,1","+0069,1","99999,9","06,0000,9,1",,,,,,"06,99,1,06,1,05,1,00800,1,00,1,00,1",,,,,"99999,9,09093,1","8,1,007,1,+999,9","3,1565,9",,"SYN082AAXX  12124 08213 12562 62605 10114 20069 39093 48565 58007 60001 86500 333 50120;","Q01  00002PRCP06"
"08213099999","2010-11-12T15:00:00","4","40.95","-4.1333333","1005.0","SEGOVIA, SP","FM-12","99999","V020","250,1,N,0026,1","22000,1,9,N","020000,1,N,1","+0125,1","+0072,1","99999,9",,,,,,,"04,99,1,01,1,04,1,00800,1,04,1,01,1",,,,,"99999,9,09069,1","6,1,024,1,+999,9","3,1546,9",,"SYN066AAXX  12154 08213 42570 42505 10125 20072 39069 48546 56024 81441;",
"08213099999","2010-11-12T18:00:00","4","40.95","-4.1333333","1005.0","SEGOVIA, SP","FM-12","99999","V020","999,9,C,0000,1","22000,1,9,N","015000,1,N,1","+0103,1","+0072,1","99999,9","12,0000,9,1",,,,,,"02,99,1,01,1,04,1,00800,1,04,1,01,1",,,,"999,M,+0132,1","99999,9,09059,1","8,1,010,1,+999,9","3,1532,9",,"SYN082AAXX  12184 08213 12565 20000 10103 20072 39059 48532 58010 60002 81441 333 10132;","Q01  00002PRCP12"
"08213099999","2010-11-13T06:00:00","4","40.95","-4.1333333","1005.0","SEGOVIA, SP","FM-12","99999","V020","120,1,N,0031,1","03600,1,9,N","012000,1,N,1","+0074,1","+0057,1","99999,9","12,0000,9,1","24,0000,9,1",,,,,"06,99,1,04,1,05,1,00800,1,07,1,08,1","0210,9","09,9","999,+0060,9","999,N,+0074,1","99999,9,09016,1","7,1,013,1,+999,9","3,1488,9",,"SYN100AAXX  13064 08213 12562 61206 10074 20057 39016 48488 57013 60002 84578 333 20074 31006 55035 70000;","Q01  00002PRCP24Q02  00002PRCP12"
"08213099999","2010-11-13T09:00:00","4","40.95","-4.1333333","1005.0","SEGOVIA, SP","FM-12","99999","V020","300,1,N,0021,1","00750,1,9,N","010000,1,N,1","+0077,1","+0063,1","99999,9",,,,,,,"08,99,1,06,1,05,1,00800,1,07,1,08,1",,,,,"99999,9,09015,1","5,1,001,1,+999,9","3,1488,9",,"SYN066AAXX  13094 08213 42560 83004 10077 20063 39015 48488 55001 86578;",
"08213099999","2010-11-13T12:00:00","4","40.95","-4.1333333","1005.0","SEGOVIA, SP","FM-12","99999","V020","250,1,N,0031,1","00750,1,9,N","010000,1,N,1","+0090,1","+0052,1","99999,9","06,0000,9,1",,,,,,"07,99,1,07,1,05,1,00800,1,00,1,00,1",,,,,"99999,9,09005,1","8,1,010,1,+999,9","3,1481,9",,"SYN082AAXX  13124 08213 12560 72506 10090 20052 39005 48481 58010 60001 87500 333 50140;","Q01  00002PRCP06"
"08213099999","2010-11-13T15:00:00","4","40.95","-4.1333333","1005.0","SEGOVIA, SP","FM-12","99999","V020","170,1,N,0015,1","22000,1,9,N","012000,1,N,1","+0114,1","+0051,1","99999,9",,,,,,,"02,99,1,01,1,00,1,01750,1,04,1,01,1",,,,,"99999,9,08978,1","7,1,027,1,+999,9","3,1460,9",,"SYN066AAXX  13154 08213 42762 21703 10114 20051 38978 48460 57027 81041;",
"08213099999","2010-11-13T18:00:00","4","40.95","-4.1333333","1005.0","SEGOVIA, SP","FM-12","99999","V020","060,1,N,0015,1","22000,1,9,N","012000,1,N,1","+0087,1","+0051,1","99999,9","12,0000,9,1",,,,,,"02,99,1,01,1,00,1,01750,1,04,1,01,1",,,,"999,M,+0120,1","99999,9,08972,1","6,1,006,1,+999,9","3,1450,9",,"SYN082AAXX  13184 08213 12762 20603 10087 20051 38972 48450 56006 60002 81041 333 10120;","Q01  00002PRCP12"
"08213099999","2010-11-14T06:00:00","4","40.95","-4.1333333","1005.0","SEGOVIA, SP","FM-12","99999","V020","200,1,N,0010,1","03600,1,9,N","012000,1,N,1","+0094,1","+0048,1","99999,9","12,0000,9,1","24,0000,9,1",,,,,"06,99,1,04,1,05,1,00800,1,04,1,01,1","0222,9","09,9","999,-0010,9","999,N,+0035,1","99999,9,08915,1","8,1,010,1,+999,9","3,1399,9",,"SYN100AAXX  14064 08213 12562 62002 10094 20048 38915 48399 58010 60002 84541 333 20035 31101 55037 70000;","Q01  00002PRCP24Q02  00002PRCP12"
"08213099999","2010-11-14T09:00:00","4","40.95","-4.1333333","1005.0","SEGOVIA, SP","FM-12","99999","V020","180,1,N,0057,1","00750,1,9,N","010000,1,N,1","+0100,1","+0060,1","99999,9",,,,"5,1,03,1","2,1,03,1",,"08,99,1,06,1,07,1,00800,1,07,1,08,1",,,,,"99999,9,08934,1","2,1,019,1,+999,9","3,1417,9","60,1","SYN072AAXX  14094 08213 41560 81811 10100 20060 38934 48417 52019 76052 86778;",
"08213099999","2010-11-14T12:00:00","4","40.95","-4.1333333","1005.0","SEGOVIA, SP","FM-12","99999","V020","250,1,N,0062,1","00750,1,9,N","012000,1,N,1","+0114,1","+0044,1","99999,9","06,0003,9,1",,,"6,1,06,1","2,1,06,1",,"08,99,1,06,1,05,1,00800,1,07,1,08,1",,,,,"99999,9,08932,1","5,1,002,1,+999,9","3,1417,9","02,1","SYN088AAXX  14124 08213 11562 82512 10114 20044 38932 48417 55002 69931 70262 86578 333 50250;",
"08213099999","2010-11-14T15:00:00","4","40.95","-4.1333333","1005.0","SEGOVIA, SP","FM-12","99999","V020","310,1,N,0051,1","00750,1,9,N","006000,1,N,1","+0075,1","+0063,1","99999,9",,,,"6,1,03,1","2,1,03,1",,"08,99,1,06,1,07,1,00800,1,07,1,08,1",,,,,"99999,9,08937,1","3,1,005,1,+999,9","3,1417,9","61,1","SYN072AAXX  14154 08213 41556 83110 10075 20063 38937 48417 53005 76162 86778;",
"08213099999","2010-11-14T18:00:00","4","40.95","-4.1333333","1005.0","SEGOVIA, SP","FM-12","99999","V020","190,1,N,0021,1","00420,1,9,N","003000,1,N,1","+0064,1","+0064,1","99999,9","12,0061,9,1",,,"8,1,06,1","6,1,06,1",,"08,99,1,06,1,07,1,00450,1,07,1,08,1",,,,"999,M,+0125,1","99999,9,08955,1","2,1,018,1,+999,9","3,1431,9","61,1","SYN088AAXX  14184 08213 11430 81904 10064 20064 38955 48431 52018 60062 76186 86778 333 10125;",
"08213099999","2010-11-15T06:00:00","4","40.95","-4.1333333","1005.0","SEGOVIA, SP","FM-12","99999","V020","230,1,N,0031,1","00750,1,9,N","012000,1,N,1","+0016,1","+0006,1","99999,9","12,0020,9,1","24,0071,9,1",,,,,"08,99,1,05,1,05,1,00800,1,02,1,99,9","0000,9","11,9","999,+0010,9","999,N,+0016,1","99999,9,09015,1","2,1,010,1,+999,9","3,1477,9",,"SYN100AAXX  15064 08213 12562 82306 10016 20006 39015 48477 52010 60022 8552/ 333 20016 32001 55000 70070;",
"08213099999","2010-11-15T09:00:00","4","40.95","-4.1333333","1005.0","SEGOVIA, SP","FM-12","99999","V020","260,1,N,0051,1","01200,1,9,N","014000,1,N,1","+0026,1","+0011,1","99999,9",,,,,,,"07,99,1,07,1,08,1,00800,1,00,1,00,1",,,,,"99999,9,09039,1","2,1,024,1,+999,9","3,1500,9",,"SYN066AAXX  15094 08213 42564 72610 10026 20011 39039 48500 52024 87800;",
"08213099999","2010-11-15T12:00:00","4","40.95","-4.1333333","1005.0","SEGOVIA, SP","FM-12","99999","V020","280,1,N,0077,1","01200,1,9,N","016000,1,N,1","+0050,1","+0017,1","99999,9","06,0000,9,1",,,,,,"07,99,1,07,1,08,1,00800,1,00,1,00,1",,,,,"99999,9,09046,1","1,1,007,1,+999,9","3,1510,9",,"SYN082AAXX  15124 08213 12566 72815 10050 20017 39046 48510 51007 60001 87800 333 50130;","Q01  00002PRCP06"
"08213099999","2010-11-15T15:00:00","4","40.95","-4.1333333","1005.0","SEGOVIA, SP","FM-12","99999","V020","280,1,N,0067,1","01200,1,9,N","016000,1,N,1","+0068,1","+0021,1","99999,9",,,,,,,"07,99,1,07,1,08,1,00800,1,00,1,00,1",,,,,"99999,9,09054,1","2,1,008,1,+999,9","3,1521,9",,"SYN066AAXX  15154 08213 42566 72813 10068 20021 39054 48521 52008 87800;",
"08213099999","2010-11-15T18:00:00","4","40.95","-4.1333333","1005.0","SEGOVIA, SP","FM-12","99999","V020","230,1,N,0031,1","01200,1,9,N","014000,1,N,1","+0040,1","+0015,1","99999,9","12,0000,9,1",,,,,,"06,99,1,06,1,08,1,00800,1,00,1,00,1",,,,"999,M,+0078,1","99999,9,09072,1","2,1,018,1,+999,9","3,1532,9",,"SYN082AAXX  15184 08213 12564 62306 10040 20015 39072 48532 52018 60002 86800 333 10078;","Q01  00002PRCP12"
"08213099999","2010-11-16T06:00:00","4","40.95","-4.1333333","1005.0","SEGOVIA, SP","FM-12","99999","V020","170,1,N,0021,1","01200,1,9,N","012000,1,N,1","+0034,1","+0014,1","99999,9","12,0000,9,1","24,0000,9,1",,,,,"07,99,1,07,1,08,1,00800,1,00,1,00,1","0114,9","09,9","999,-0020,9","999,N,+0020,1","99999,9,09100,1","4,1,000,1,+999,9","3,1555,9",,"SYN100AAXX  16064 08213 12562 71704 10034 20014 39100 48555 54000 60002 87800 333 20020 31102 55019 70000;","Q01  00002PRCP24Q02  00002PRCP12"
"08213099999","2010-11-16T09:00:00","4","40.95","-4.1333333","1005.0","SEGOVIA, SP","FM-12","99999","V020","280,1,N,0010,1","22000,1,9,N","020000,1,N,1","+0048,1","+0020,1","99999,9",,,,,,,"06,99,1,01,1,01,1,00800,1,00,1,04,1",,,,,"99999,9,09102,1","2,1,002,1,+999,9","3,1560,9",,"SYN066AAXX  16094 08213 42570 62802 10048 20020 39102 48560 52002 81104;",
"08213099999","2010-11-16T12:00:00","4","40.95","-4.1333333","1005.0","SEGOVIA, SP","FM-12","99999","V020","250,1,N,0015,1","09000,1,9,N","020000,1,N,1","+0074,1","+0008,1","99999,9","06,0000,9,1",,,,,,"07,99,1,01,1,01,1,00800,1,00,1,06,1",,,,,"99999,9,09096,1","8,1,006,1,+999,9","3,1559,9",,"SYN082AAXX  16124 08213 12570 72503 10074 20008 39096 48559 58006 60001 81106 333 50080;","Q01  00002PRCP06"
"08213099999","2010-11-16T15:00:00","4","40.95","-4.1333333","1005.0","SEGOVIA, SP","FM-12","99999","V020","270,1,N,0021,1","09000,1,9,N","020000,1,N,1","+0096,1","+0002,1","99999,9",,,,,,,"05,99,1,01,1,01,1,00800,1,04,1,04,1",,,,,"99999,9,09067,1","7,1,029,1,+999,9","3,1538,9",,"SYN066AAXX  16154 08213 42570 52704 10096 20002 39067 48538 57029 81144;",
"08213099999","2010-11-16T18:00:00","4","40.95","-4.1333333","1005.0","SEGOVIA, SP","FM-12","99999","V020","100,1,N,0021,1","09000,1,9,N","020000,1,N,1","+0074,1","+0019,1","99999,9","12,0000,9,1",,,,,,"05,99,1,01,1,01,1,00800,1,04,1,04,1",,,,"999,M,+0104,1","99999,9,09054,1","8,1,013,1,+999,9","3,1522,9",,"SYN082AAXX  16184 08213 12570 51004 10074 20019 39054 48522 58013 60002 81144 333 10104;","Q01  00002PRCP12"
"08213099999","2010-11-17T06:00:00","4","40.95","-4.1333333","1005.0","SEGOVIA, SP","FM-12","99999","V020","140,1,N,0036,1","00750,1,9,N","005000,1,N,1","+0060,1","+0056,1","99999,9","12,9999,9,9","24,0041,9,1",,"6,1,06,1","2,1,06,1",,"08,99,1,06,1,07,1,00800,1,07,1,08,1","0516,9","11,9","999,+0000,9","999,N,+0042,1","99999,9,08970,1","8,1,027,1,+999,9","3,1444,9","61,1","SYN106AAXX  17064 08213 11550 81407 10060 20056 38970 48444 58027 60002 76162 86778 333 20042 32000 55086 70040;","Q01  00002PRCP12Q02  00002PRCP12"
"08213099999","2010-11-17T09:00:00","4","40.95","-4.1333333","1005.0","SEGOVIA, SP","FM-12","99999","V020","250,1,N,0041,1","00420,1,9,N","003000,1,N,1","+0082,1","+0078,1","99999,9",,,,"6,1,03,1","6,1,03,1",,"08,99,1,06,1,07,1,00450,1,07,1,08,1",,,,,"99999,9,08963,1","5,1,007,1,+999,9","3,1442,9","61,1","SYN072AAXX  17094 08213 41430 82508 10082 20078 38963 48442 55007 76166 86778;",
"08213099999","2010-11-17T12:00:00","4","40.95","-4.1333333","1005.0","SEGOVIA, SP","FM-12","99999","V020","260,1,N,0072,1","00750,1,9,N","008000,1,N,1","+0078,1","+0058,1","99999,9","06,0051,9,1",,,"6,1,06,1","6,1,06,1",,"08,99,1,06,1,07,1,00800,1,07,1,08,1",,,,,"99999,9,08976,1","1,1,013,1,+999,9","3,1453,9","10,1","SYN088AAXX  17124 08213 11558 82614 10078 20058 38976 48453 51013 60051 71066 86778 333 50060;",
"08213099999","2010-11-17T15:00:00","4","40.95","-4.1333333","1005.0","SEGOVIA, SP","FM-12","99999","V020","300,1,N,0077,1","22000,1,9,N","010000,1,N,1","+0079,1","+0028,1","99999,9",,,,,,,"04,99,1,04,1,08,1,00800,1,00,1,00,1",,,,,"99999,9,08974,1","5,1,002,1,+999,9","3,1451,9",,"SYN066AAXX  17154 08213 42560 43015 10079 20028 38974 48451 55002 84800;",
"08213099999","2010-11-17T18:00:00","4","40.95","-4.1333333","1005.0","SEGOVIA, SP","FM-12","99999","V020","280,1,N,0031,1","22000,1,9,N","012000,1,N,1","+0053,1","+0023,1","99999,9","12,0051,9,1",,,,,,"02,99,1,01,1,04,1,00800,1,03,1,00,1",,,,"999,M,+0093,1","99999,9,08985,1","3,1,011,1,+999,9","3,1456,9",,"SYN082AAXX  17184 08213 12562 22806 10053 20023 38985 48456 53011 60052 81430 333 10093;",
"08213099999","2010-11-18T06:00:00","4","40.95","-4.1333333","1005.0","SEGOVIA, SP","FM-12","99999","V020","270,1,N,0021,1","03600,1,9,N","010000,1,N,1","+0025,1","+0013,1","99999,9","12,0000,9,1","24,0051,9,1",,,,,"06,99,1,02,1,04,1,00800,1,07,1,08,1","0234,9","09,9","999,-0030,9","999,N,+0015,1","99999,9,09009,1","3,1,007,1,+999,9","3,1473,9",,"SYN100AAXX  18064 08213 12560 62704 10025 20013 39009 48473 53007 60002 82478 333 20015 31103 55039 70050;","Q01  00002PRCP12"
"08213099999","2010-11-18T09:00:00","4","40.95","-4.1333333","1005.0","SEGOVIA, SP","FM-12","99999","V020","240,1,N,0026,1","00420,1,9,N","008000,1,N,1","+0032,1","+0025,1","99999,9",,,,"2,1,03,1","2,1,03,1",,"07,99,1,06,1,06,1,00450,1,07,1,00,1",,,,,"99999,9,09021,1","3,1,012,1,+999,9","3,1485,9","10,1","SYN072AAXX  18094 08213 41458 72405 10032 20025 39021 48485 53012 71022 86670;",
"08213099999","2010-11-18T12:00:00","4","40.95","-4.1333333","1005.0","SEGOVIA, SP","FM-12","99999","V020","290,1,N,0036,1","01200,1,9,N","010000,1,N,1","+0059,1","+0029,1","99999,9","06,0000,9,1",,,,,,"07,99,1,07,1,08,1,00800,1,00,1,00,1",,,,,"99999,9,09023,1","0,1,002,1,+999,9","3,1491,9",,"SYN082AAXX  18124 08213 12560 72907 10059 20029 39023 48491 50002 60001 87800 333 50140;","Q01  00002PRCP06"
"08213099999","2010-11-18T15:00:00","4","40.95","-4.1333333","1005.0","SEGOVIA, SP","FM-12","99999","V020","280,1,N,0031,1","01200,1,9,N","012000,1,N,1","+0070,1","+0017,1","99999,9",,,,,,,"07,99,1,07,1,08,1,00800,1,00,1,00,1",,,,,"99999,9,09022,1","8,1,001,1,+999,9","3,1492,9",,"SYN066AAXX  18154 08213 42562 72806 10070 20017 39022 48492 58001 87800;",
"08213099999","2010-11-18T18:00:00","4","40.95","-4.1333333","1005.0","SEGOVIA, SP","FM-12","99999","V020","230,1,N,0026,1","01200,1,9,N","012000,1,N,1","+0060,1","+0033,1","99999,9","12,0000,9,1",,,,,,"07,99,1,07,1,08,1,00800,1,00,1,00,1",,,,"999,M,+0082,1","99999,9,09031,1","3,1,009,1,+999,9","3,1499,9",,"SYN082AAXX  18184 08213 12562 72305 10060 20033 39031 48499 53009 60002 87800 333 10082;","Q01  00002PRCP12"
"08213099999","2010-11-19T06:00:00","4","40.95","-4.1333333","1005.0","SEGOVIA, SP","FM-12","99999","V020","080,1,N,0015,1","00750,1,9,N","012000,1,N,1","+0037,1","+0011,1","99999,9","12,0000,9,1","24,0000,9,1",,,,,"05,99,1,05,1,05,1,00800,1,00,1,00,1","0090,9","09,9","999,-0040,9","999,N,+0024,1","99999,9,09012,1","6,1,005,1,+999,9","3,1478,9",,"SYN100AAXX  19064 08213 12562 50803 10037 20011 39012 48478 56005 60002 85500 333 20024 31104 55015 70000;","Q01  00002PRCP24Q02  00002PRCP12"
"08213099999","2010-11-19T09:00:00","4","40.95","-4.1333333","1005.0","SEGOVIA, SP","FM-12","99999","V020","180,1,N,0062,1","03600,1,9,N","018000,1,N,1","+0055,1","+0023,1","99999,9",,,,,,,"08,99,1,04,1,05,1,00800,1,07,1,99,9",,,,,"99999,9,09008,1","5,1,004,1,+999,9","3,1477,9",,"SYN066AAXX  19094 08213 42568 81812 10055 20023 39008 48477 55004 8457/;",
"08213099999","2010-11-19T12:00:00","4","40.95","-4.1333333","1005.0","SEGOVIA, SP","FM-12","99999","V020","210,1,N,0057,1","03600,1,9,N","018000,1,N,1","+0092,1","+0021,1","99999,9","06,0000,9,1",,,,,,"08,99,1,04,1,05,1,00800,1,07,1,99,9",,,,,"99999,9,09004,1","8,1,004,1,+999,9","3,1480,9",,"SYN082AAXX  19124 08213 12568 82111 10092 20021 39004 48480 58004 60001 8457/ 333 50000;","Q01  00002PRCP06"
"08213099999","2010-11-19T15:00:00","4","40.95","-4.1333333","1005.0","SEGOVIA, SP","FM-12","99999","V020","220,1,N,0036,1","00750,1,9,N","016000,1,N,1","+0083,1","+0017,1","99999,9",,,,,,,"08,99,1,06,1,05,1,00800,1,07,1,99,9",,,,,"99999,9,08996,1","6,1,008,1,+999,9","3,1471,9",,"SYN066AAXX  19154 08213 42566 82207 10083 20017 38996 48471 56008 8657/;",
"08213099999","2010-11-19T18:00:00","4","40.95","-4.1333333","1005.0","SEGOVIA, SP","FM-12","99999","V020","200,1,N,0026,1","03600,1,9,N","018000,1,N,1","+0074,1","+0036,1","99999,9","12,0000,9,1",,,,,,"08,99,1,03,1,05,1,00800,1,07,1,99,9",,,,"999,M,+0100,1","99999,9,08998,1","2,1,002,1,+999,9","3,1472,9",,"SYN082AAXX  19184 08213 12568 82005 10074 20036 38998 48472 52002 60002 8357/ 333 10100;","Q01  00002PRCP12"
"08213099999","2010-11-20T06:00:00","4","40.95","-4.1333333","1005.0","SEGOVIA, SP","FM-12","99999","V020","270,1,N,0046,1","00750,1,9,N","005000,1,N,1","+0046,1","+0042,1","99999,9","12,0109,9,2","24,0107,9,2",,"8,1,06,1","2,1,06,1",,"08,99,1,08,1,05,1,00800,1,99,9,99,9","0060,9","11,9","999,+0020,9","999,N,+0044,1","99999,9,08969,1","2,1,010,1,+999,9","3,1441,9","61,1","SYN106AAXX  20064 08213 11550 82709 10046 20042 38969 48441 52010 60112 76182 885// 333 20044 32002 55010 70106;",
"08213099999","2010-11-20T09:00:00","4","40.95","-4.1333333","1005.0","SEGOVIA, SP","FM-12","99999","V020","240,1,N,0036,1","00750,1,9,N","018000,1,N,1","+0053,1","+0035,1","99999,9",,,,"8,1,03,1","6,1,03,1",,"07,99,1,07,1,05,1,00800,1,99,9,99,9",,,,,"99999,9,08977,1","1,1,008,1,+999,9","3,1449,9","02,1","SYN072AAXX  20094 08213 41568 72407 10053 20035 38977 48449 51008 70286 875//;",
"08213099999","2010-11-20T12:00:00","4","40.95","-4.1333333","1005.0","SEGOVIA, SP","FM-12","99999","V020","270,1,N,0072,1","00750,1,9,N","018000,1,N,1","+0070,1","+0027,1","99999,9","06,0010,9,1",,,"6,1,06,1","2,1,06,1",,"07,99,1,07,1,05,1,00800,1,99,9,99,9",,,,,"99999,9,08974,1","8,1,003,1,+999,9","3,1449,9","02,1","SYN088AAXX  20124 08213 11568 72714 10070 20027 38974 48449 58003 60011 70262 875// 333 50240;",
"08213099999","2010-11-20T15:00:00","4","40.95","-4.1333333","1005.0","SEGOVIA, SP","FM-12","99999","V020","260,1,N,0087,1","22000,1,9,N","018000,1,N,1","+0082,1","+0024,1","99999,9",,,,,,,"04,99,1,04,1,05,1,00800,1,00,1,00,1",,,,,"99999,9,08958,1","7,1,016,1,+999,9","3,1436,9",,"SYN066AAXX  20154 08213 42568 42617 10082 20024 38958 48436 57016 84500;",
"08213099999","2010-11-20T18:00:00","4","40.95","-4.1333333","1005.0","SEGOVIA, SP","FM-12","99999","V020","230,1,N,0051,1","22000,1,9,N","018000,1,N,1","+0052,1","+0029,1","99999,9","12,0010,9,1",,,,,,"02,99,1,02,1,05,1,00800,1,00,1,00,1",,,,"999,M,+0085,1","99999,9,08956,1","5,1,002,1,+999,9","3,1430,9",,"SYN082AAXX  20184 08213 12568 22310 10052 20029 38956 48430 55002 60012 82500 333 10085;",
"08213099999","2010-11-21T06:00:00","4","40.95","-4.1333333","1005.0","SEGOVIA, SP","FM-12","99999","V020","280,1,N,0067,1","00750,1,9,N","008000,1,N,1","+0042,1","+0038,1","99999,9","12,0008,9,1","24,0008,9,1",,"6,1,06,1","2,1,06,1",,"08,99,1,08,1,07,1,00800,1,99,9,99,9","0192,9","09,9","999,+0010,9","999,N,+0033,1","99999,9,08936,1","5,1,000,1,+999,9","3,1411,9","10,1","SYN106AAXX  21064 08213 11558 82813 10042 20038 38936 48411 55000 69982 71062 887// 333 20033 31001 55032 70008;",
"08213099999","2010-11-21T09:00:00","4","40.95","-4.1333333","1005.0","SEGOVIA, SP","FM-12","99999","V020","290,1,N,0067,1","00750,1,9,N","002000,1,N,1","+0045,1","+0041,1","99999,9",,,,"2,1,03,1","2,1,03,1",,"08,99,1,08,1,05,1,00800,1,99,9,99,9",,,,,"99999,9,08944,1","2,1,008,1,+999,9","3,1418,9","10,1","SYN072AAXX  21094 08213 41520 82913 10045 20041 38944 48418 52008 71022 885//;",
"08213099999","2010-11-21T12:00:00","4","40.95","-4.1333333","1005.0","SEGOVIA, SP","FM-12","99999","V020","290,1,N,0087,1","00750,1,9,N","015000,1,N,1","+0065,1","+0042,1","99999,9","06,0000,9,1",,,,,,"07,99,1,07,1,05,1,00800,1,99,9,99,9",,,,,"99999,9,08941,1","8,1,003,1,+999,9","3,1418,9",,"SYN082AAXX  21124 08213 12565 72917 10065 20042 38941 48418 58003 60001 875// 333 50100;","Q01  00002PRCP06"
"08213099999","2010-11-21T15:00:00","4","40.95","-4.1333333","1005.0","SEGOVIA, SP","FM-12","99999","V020","280,1,N,0082,1","00750,1,9,N","012000,1,N,1","+0077,1","+0036,1","99999,9",,,,"2,1,03,1","2,1,03,1",,"07,99,1,07,1,05,1,00800,1,99,9,99,9",,,,,"99999,9,08933,1","7,1,008,1,+999,9","3,1413,9","60,1","SYN072AAXX  21154 08213 41562 72816 10077 20036 38933 48413 57008 76022 875//;",
"08213099999","2010-11-21T18:00:00","4","40.95","-4.1333333","1005.0","SEGOVIA, SP","FM-12","99999","V020","280,1,N,0036,1","00750,1,9,N","018000,1,N,1","+0060,1","+0040,1","99999,9","12,0000,2,1",,,"6,1,06,1","2,1,06,1",,"07,99,1,06,1,05,1,00800,1,07,1,99,9",,,,"999,M,+0086,1","99999,9,08939,1","1,1,006,1,+999,9","3,1416,9","02,1","SYN088AAXX  21184 08213 11568 72807 10060 20040 38939 48416 51006 69922 70262 8657/ 333 10086;",
"08213099999","2010-11-22T06:00:00","4","40.95","-4.1333333","1005.0","SEGOVIA, SP","FM-12","99999","V020","290,1,N,0031,1","00750,1,9,N","008000,1,N,1","+0030,1","+0030,1","99999,9","12,0005,9,1","24,0008,9,1",,"6,1,06,1","2,1,06,1",,"08,99,1,07,1,07,1,00800,1,07,1,08,1","0120,9","09,9","999,+0020,9","999,N,+0030,1","99999,9,08946,1","3,1,003,1,+999,9","3,1418,9","10,1","SYN106AAXX  22064 08213 11558 82906 10030 20030 38946 48418 53003 69952 71062 87778 333 20030 31002 55020 70007;",
"08213099999","2010-11-22T09:00:00","4","40.95","-4.1333333","1005.0","SEGOVIA, SP","FM-12","99999","V020","270,1,N,0026,1","00750,1,9,N","008000,1,N,1","+0034,1","+0030,1","99999,9",,,,"2,1,03,1","2,1,03,1",,"08,99,1,07,1,07,1,00800,1,07,1,08,1",,,,,"99999,9,08961,1","2,1,015,1,+999,9","3,1432,9","10,1","SYN072AAXX  22094 08213 41558 82705 10034 20030 38961 48432 52015 71022 87778;",
"08213099999","2010-11-22T12:00:00","4","40.95","-4.1333333","1005.0","SEGOVIA, SP","FM-12","99999","V020","290,1,N,0036,1","00750,1,9,N","010000,1,N,1","+0043,1","+0030,1","99999,9","06,0000,9,1",,,,,,"08,99,1,06,1,07,1,00800,1,07,1,08,1",,,,,"99999,9,08963,1","1,1,002,1,+999,9","3,1435,9",,"SYN082AAXX  22124 08213 12560 82907 10043 20030 38963 48435 51002 60001 86778 333 50070;","Q01  00002PRCP06"
"08213099999","2010-11-22T15:00:00","4","40.95","-4.1333333","1005.0","SEGOVIA, SP","FM-12","99999","V020","290,1,N,0036,1","01200,1,9,N","010000,1,N,1","+0048,1","+0022,1","99999,9",,,,,,,"08,99,1,07,1,08,1,00800,1,07,1,08,1",,,,,"99999,9,08959,1","8,1,004,1,+999,9","3,1432,9",,"SYN066AAXX  22154 08213 42560 82907 10048 20022 38959 48432 58004 87878;",
"08213099999","2010-11-22T18:00:00","4","40.95","-4.1333333","1005.0","SEGOVIA, SP","FM-12","99999","V020","220,1,N,0010,1","00750,1,9,N","010000,1,N,1","+0043,1","+0025,1","99999,9","12,0000,9,1",,,,,,"08,99,1,06,1,04,1,00800,1,07,1,08,1",,,,"999,M,+0053,1","99999,9,08965,1","1,1,006,1,+999,9","3,1437,9",,"SYN082AAXX  22184 08213 12560 82202 10043 20025 38965 48437 51006 60002 86478 333 10053;","Q01  00002PRCP12"
"08213099999","2010-11-23T06:00:00","4","40.95","-4.1333333","1005.0","SEGOVIA, SP","FM-12","99999","V020","240,1,N,0015,1","00750,1,9,N","010000,1,N,1","+0030,1","+0023,1","99999,9","12,0000,9,1","24,0003,9,1",,"6,1,06,1","2,1,06,1",,"06,99,1,05,1,07,1,00800,1,03,1,00,1","0000,9","09,9","999,+0000,9","999,N,+0026,1","99999,9,08975,1","4,1,000,1,+999,9","3,1444,9","02,1","SYN106AAXX  23064 08213 11560 62403 10030 20023 38975 48444 54000 69922 70262 85730 333 20026 31000 55000 70002;","Q01  00002PRCP12"
"08213099999","2010-11-23T09:00:00","4","40.95","-4.1333333","1005.0","SEGOVIA, SP","FM-12","99999","V020","170,1,N,0021,1","22000,1,9,N","010000,1,N,1","+0047,1","+0008,1","99999,9",,,,,,,"04,99,1,01,1,04,1,00800,1,03,1,00,1",,,,,"99999,9,08979,1","3,1,004,1,+999,9","3,1450,9",,"SYN066AAXX  23094 08213 42560 41704 10047 20008 38979 48450 53004 81430;",
"08213099999","2010-11-23T12:00:00","4","40.95","-4.1333333","1005.0","SEGOVIA, SP","FM-12","99999","V020","240,1,N,0021,1","22000,1,9,N","012000,1,N,1","+0078,1","+0016,1","99999,9","06,0000,9,1",,,,,,"04,99,1,02,1,01,1,00800,1,00,1,08,1",,,,,"99999,9,08982,1","1,1,003,1,+999,9","3,1458,9",,"SYN082AAXX  23124 08213 12562 42404 10078 20016 38982 48458 51003 60001 82108 333 50130;","Q01  00002PRCP06"
"08213099999","2010-11-23T15:00:00","4","40.95","-4.1333333","1005.0","SEGOVIA, SP","FM-12","99999","V020","310,1,N,0015,1","22000,1,9,N","015000,1,N,1","+0074,1","+0019,1","99999,9",,,,,,,"03,99,1,01,1,04,1,00800,1,04,1,09,1",,,,,"99999,9,08969,1","8,1,013,1,+999,9","3,1445,9",,"SYN066AAXX  23154 08213 42565 33103 10074 20019 38969 48445 58013 81449;",
"08213099999","2010-11-23T18:00:00","4","40.95","-4.1333333","1005.0","SEGOVIA, SP","FM-12","99999","V020","050,1,N,0036,1","03600,1,9,N","012000,1,N,1","+0048,1","+0025,1","99999,9","12,0000,9,1",,,,,,"06,99,1,02,1,04,1,00800,1,07,1,08,1",,,,"999,M,+0083,1","99999,9,08973,1","1,1,004,1,+999,9","3,1445,9",,"SYN082AAXX  23184 08213 12562 60507 10048 20025 38973 48445 51004 60002 82478 333 10083;","Q01  00002PRCP12"
"08213099999","2010-11-24T06:00:00","4","40.95","-4.1333333","1005.0","SEGOVIA, SP","FM-12","99999","V020","150,1,N,0031,1","22000,1,9,N","020000,1,N,1","-0004,1","-0012,1","99999,9","12,0000,9,1","24,0000,9,1",,,,"00,1,+99999,9,99,9","00,99,1,00,1,00,1,99999,9,00,1,00,1","0384,9","09,9","999,-0070,9","999,N,-0005,1","99999,9,08979,1","3,1,001,1,+999,9","3,1441,9",,"SYN094AAXX  24064 08213 12970 01506 11004 21012 38979 48441 53001 60002 333 21005 31107 55064 70000;","Q01  00002PRCP24Q02  00002PRCP12"
"08213099999","2010-11-24T09:00:00","4","40.95","-4.1333333","1005.0","SEGOVIA, SP","FM-12","99999","V020","050,1,N,0021,1","22000,1,9,N","008000,1,N,1","+0030,1","-0003,1","99999,9",,,,"0,1,03,1","0,1,03,1","00,1,+99999,9,99,9","00,99,1,00,1,00,1,99999,9,00,1,00,1",,,,,"99999,9,08992,1","3,1,013,1,+999,9","3,1459,9","10,1","SYN066AAXX  24094 08213 41958 00504 10030 21003 38992 48459 53013 71000;",
"08213099999","2010-11-24T12:00:00","4","40.95","-4.1333333","1005.0","SEGOVIA, SP","FM-12","99999","V020","330,1,N,0026,1","22000,1,9,N","020000,1,N,1","+0081,1","-0004,1","99999,9","06,0000,9,1",,,,,,"02,99,1,01,1,01,1,00800,1,00,1,01,1",,,,,"99999,9,08987,1","8,1,005,1,+999,9","3,1462,9",,"SYN082AAXX  24124 08213 12570 23305 10081 21004 38987 48462 58005 60001 81101 333 5///0;","Q01  00002PRCP06"
"08213099999","2010-11-24T15:00:00","4","40.95","-4.1333333","1005.0","SEGOVIA, SP","FM-12","99999","V020","020,1,N,0015,1","22000,1,9,N","020000,1,N,1","+0082,1","+0007,1","99999,9",,,,,,,"02,99,1,01,1,05,1,00800,1,00,1,02,1",,,,,"99999,9,08983,1","7,1,004,1,+999,9","3,1459,9",,"SYN066AAXX  24154 08213 42570 20203 10082 20007 38983 48459 57004 81502;",
"08213099999","2010-11-24T18:00:00","4","40.95","-4.1333333","1005.0","SEGOVIA, SP","FM-12","99999","V020","050,1,N,0031,1","22000,1,9,N","020000,1,N,1","+0040,1","+0000,1","99999,9","12,0000,9,1",,,,,,"02,99,1,01,1,05,1,00800,1,00,1,02,1",,,,"999,M,+0087,1","99999,9,08988,1","3,1,005,1,+999,9","3,1457,9",,"SYN082AAXX  24184 08213 12570 20506 10040 20000 38988 48457 53005 60002 81502 333 10087;","Q01  00002PRCP12"
"08213099999","2010-11-25T06:00:00","4","40.95","-4.1333333","1005.0","SEGOVIA, SP","FM-12","99999","V020","090,1,N,0015,1","22000,1,9,N","020000,1,N,1","-0013,1","-0024,1","99999,9","12,0000,9,1","24,0000,9,1",,,,"00,1,+99999,9,99,9","00,99,1,00,1,00,1,99999,9,00,1,00,1","0540,9","14,9","999,-0100,9","999,N,-0018,1","99999,9,08978,1","6,1,005,1,+999,9","3,1439,9",,"SYN094AAXX  25064 08213 12970 00903 11013 21024 38978 48439 56005 60002 333 21018 34110 55090 70000;","Q01  00002PRCP24Q02  00002PRCP12"
"08213099999","2010-11-25T09:00:00","4","40.95","-4.1333333","1005.0","SEGOVIA, SP","FM-12","99999","V020","110,1,N,0010,1","22000,1,9,N","008000,1,N,1","+0004,1","-0023,1","99999,9",,,,"0,1,03,1","0,1,03,1","00,1,+99999,9,99,9","00,99,1,00,1,00,1,99999,9,00,1,00,1",,,,,"99999,9,08982,1","3,1,004,1,+999,9","3,1445,9","10,1","SYN066AAXX  25094 08213 41958 01102 10004 21023 38982 48445 53004 71000;",
"08213099999","2010-11-25T12:00:00","4","40.95","-4.1333333","1005.0","SEGOVIA, SP","FM-12","99999","V020","310,1,N,0036,1","22000,1,9,N","015000,1,N,1","+0054,1","-0006,1","99999,9","06,0000,9,1",,,,,,"02,99,1,01,1,05,1,00800,1,00,1,02,1",,,,,"99999,9,08976,1","8,1,006,1,+999,9","3,1448,9",,"SYN082AAXX  25124 08213 12565 23107 10054 21006 38976 48448 58006 60001 81502 333 5///0;","Q01  00002PRCP06"
"08213099999","2010-11-25T15:00:00","4","40.95","-4.1333333","1005.0","SEGOVIA, SP","FM-12","99999","V020","340,1,N,0015,1","22000,1,9,N","020000,1,N,1","+0065,1","-0002,1","99999,9",,,,,,,"03,99,1,02,1,05,1,00800,1,00,1,02,1",,,,,"99999,9,08971,1","7,1,005,1,+999,9","3,1445,9",,"SYN066AAXX  25154 08213 42570 33403 10065 21002 38971 48445 57005 82502;",
"08213099999","2010-11-25T18:00:00","4","40.95","-4.1333333","1005.0","SEGOVIA, SP","FM-12","99999","V020","260,1,N,0021,1","22000,1,9,N","020000,1,N,1","+0020,1","+0005,1","99999,9","12,0000,9,1",,,,,,"02,99,1,02,1,00,1,01750,1,03,1,00,1",,,,"999,M,+0070,1","99999,9,08971,1","4,1,000,1,+999,9","3,1438,9",,"SYN082AAXX  25184 08213 12770 22604 10020 20005 38971 48438 54000 60002 82030 333 10070;","Q01  00002PRCP12"
"08213099999","2010-11-26T06:00:00","4","40.95","-4.1333333","1005.0","SEGOVIA, SP","FM-12","99999","V020","080,1,N,0031,1","22000,1,9,N","020000,1,N,1","-0010,1","-0034,1","99999,9","12,0000,9,1","24,0000,9,1",,,,"00,1,+99999,9,99,9","00,99,1,00,1,00,1,99999,9,00,1,00,1","0522,9","14,9","999,-0070,9","999,N,-0012,1","99999,9,09104,1","8,1,004,1,+999,9","3,1549,9",,"SYN094AAXX  26064 08213 12970 00806 11010 21034 39104 48549 58004 60002 333 21012 34107 55087 70000;","Q01  00002PRCP24Q02  00002PRCP12"
"08213099999","2010-11-26T09:00:00","4","40.95","-4.1333333","1005.0","SEGOVIA, SP","FM-12","99999","V020","060,1,N,0062,1","22000,1,9,N","020000,1,N,1","+0022,1","-0021,1","99999,9",,,,,,,"01,99,1,00,1,00,1,99999,9,00,1,01,1",,,,,"99999,9,09105,1","3,1,001,1,+999,9","3,1557,9",,"SYN066AAXX  26094 08213 42970 10612 10022 21021 39105 48557 53001 80001;",
"08213099999","2010-11-26T12:00:00","4","40.95","-4.1333333","1005.0","SEGOVIA, SP","FM-12","99999","V020","050,1,N,0057,1","22000,1,9,N","020000,1,N,1","+0040,1","-0044,1","99999,9","06,0000,9,1",,,,,,"02,99,1,01,1,00,1,01750,1,04,1,01,1",,,,,,"8,1,015,1,+999,9","3,1429,9",,"SYN082AAXX  26124 08213 12770 20511 10040 21044 38957 48429 58015 60001 81041 333 5///0;","Q01+089573APOSP Q02  00002PRCP06"
"08213099999","2010-11-26T15:00:00","4","40.95","-4.1333333","1005.0","SEGOVIA, SP","FM-12","99999","V020","030,1,N,0057,1","22000,1,9,N","020000,1,N,1","+0052,1","-0049,1","99999,9",,,,,,,"06,99,1,01,1,00,1,01750,1,04,1,04,1",,,,,"99999,9,08937,1","7,1,020,1,+999,9","3,1412,9",,"SYN066AAXX  26154 08213 42770 60311 10052 21049 38937 48412 57020 81044;",
"08213099999","2010-11-26T18:00:00","4","40.95","-4.1333333","1005.0","SEGOVIA, SP","FM-12","99999","V020","030,1,N,0021,1","22000,1,9,N","020000,1,N,1","+0016,1","-0029,1","99999,9","12,0000,9,1",,,,,,"06,99,1,01,1,00,1,01750,1,04,1,04,1",,,,"999,M,+0058,1","99999,9,08931,1","6,1,006,1,+999,9","3,1402,9",,"SYN082AAXX  26184 08213 12770 60304 10016 21029 38931 48402 56006 60002 81044 333 10058;","Q01  00002PRCP12"
"08213099999","2010-11-27T06:00:00","4","40.95","-4.1333333","1005.0","SEGOVIA, SP","FM-12","99999","V020","070,1,N,0021,1","22000,1,9,N","020000,1,N,1","-0026,1","-0051,1","99999,9","12,0000,9,1","24,0000,9,1",,,,,"02,99,1,00,1,00,1,99999,9,00,1,01,1","0498,9","14,9","999,-0090,9","999,N,-0026,1","99999,9,08898,1","7,1,006,1,+999,9","3,1366,9",,"SYN100AAXX  27064 08213 12970 20704 11026 21051 38898 48366 57006 60002 80001 333 21026 34109 55083 70000;","Q01  00002PRCP24Q02  00002PRCP12"
"08213099999","2010-11-27T09:00:00","4","40.95","-4.1333333","1005.0","SEGOVIA, SP","FM-12","99999","V020","250,1,N,0010,1","99999,9,9,N","020000,1,N,1","-0016,1","-0053,1","99999,9",,,,,,,"05,99,1,00,1,00,1,99999,9,00,1,08,1",,,,,"99999,9,08893,1","5,1,005,1,+999,9","3,1363,9",,"SYN066AAXX  27094 08213 42970 52502 11016 21053 38893 48363 55005 80008;",
"08213099999","2010-11-27T12:00:00","4","40.95","-4.1333333","1005.0","SEGOVIA, SP","FM-12","99999","V020","280,1,N,0021,1","01500,1,9,N","020000,1,N,1","+0022,1","-0033,1","99999,9","06,0000,9,1",,,,,,"07,99,1,07,1,00,1,01750,1,02,1,00,1",,,,,"99999,9,08886,1","8,1,007,1,+999,9","3,1362,9",,"SYN082AAXX  27124 08213 12770 72804 10022 21033 38886 48362 58007 60001 87020 333 5///0;","Q01  00002PRCP06"
"08213099999","2010-11-27T15:00:00","4","40.95","-4.1333333","1005.0","SEGOVIA, SP","FM-12","99999","V020","330,1,N,0015,1","09000,1,9,N","020000,1,N,1","+0034,1","-0012,1","99999,9",,,,,,,"07,99,1,03,1,00,1,01750,1,06,1,04,1",,,,,"99999,9,08869,1","7,1,017,1,+999,9","3,1348,9",,"SYN066AAXX  27154 08213 42770 73303 10034 21012 38869 48348 57017 83064;",
"08213099999","2010-11-27T18:00:00","4","40.95","-4.1333333","1005.0","SEGOVIA, SP","FM-12","99999","V020","040,1,N,0021,1","09000,1,9,N","020000,1,N,1","+0014,1","-0031,1","99999,9","12,0000,9,1",,,,,,"07,99,1,03,1,00,1,01750,1,06,1,04,1",,,,"999,M,+0040,1","99999,9,08869,1","5,1,000,1,+999,9","3,1346,9",,"SYN082AAXX  27184 08213 12770 70404 10014 21031 38869 48346 55000 60002 83064 333 10040;","Q01  00002PRCP12"
"08213099999","2010-11-28T06:00:00","4","40.95","-4.1333333","1005.0","SEGOVIA, SP","FM-12","99999","V020","220,1,N,0015,1","09000,1,9,N","020000,1,N,1","-0018,1","-0041,1","99999,9","12,0000,9,1","24,0000,9,1",,,,,"07,99,1,03,1,00,1,01750,1,06,1,04,1","0126,9","14,9","999,-0110,9","999,N,-0034,1","99999,9,08877,1","2,1,002,1,+999,9","3,1349,9",,"SYN100AAXX  28064 08213 12770 72203 11018 21041 38877 48349 52002 60002 83064 333 21034 34111 55021 70000;","Q01  00002PRCP24Q02  00002PRCP12"
"08213099999","2010-11-28T09:00:00","4","40.95","-4.1333333","1005.0","SEGOVIA, SP","FM-12","99999","V020","250,1,N,0036,1","03600,1,9,N","016000,1,N,1","-0008,1","-0032,1","99999,9",,,,,,,"07,99,1,04,1,05,1,00800,1,02,1,00,1",,,,,"99999,9,08892,1","1,1,015,1,+999,9","3,1364,9",,"SYN066AAXX  28094 08213 42566 72507 11008 21032 38892 48364 51015 84520;",
"08213099999","2010-11-28T12:00:00","4","40.95","-4.1333333","1005.0","SEGOVIA, SP","FM-12","99999","V020","270,1,N,0041,1","03600,1,9,N","016000,1,N,1","-0002,1","-0018,1","99999,9","06,0000,9,1",,,,,,"07,99,1,04,1,05,1,00800,1,02,1,00,1",,,,,"99999,9,08910,1","1,1,018,1,+999,9","3,1381,9",,"SYN082AAXX  28124 08213 12566 72708 11002 21018 38910 48381 51018 60001 84520 333 5///0;","Q01  00002PRCP06"
"08213099999","2010-11-28T15:00:00","4","40.95","-4.1333333","1005.0","SEGOVIA, SP","FM-12","99999","V020","250,1,N,0036,1","00750,1,9,N","018000,1,N,1","+0026,1","-0029,1","99999,9",,,,,,,"06,99,1,06,1,02,1,00800,1,00,1,00,1",,,,,"99999,9,08912,1","2,1,002,1,+999,9","3,1386,9",,"SYN066AAXX  28154 08213 42568 62507 10026 21029 38912 48386 52002 86200;",
"08213099999","2010-11-28T18:00:00","4","40.95","-4.1333333","1005.0","SEGOVIA, SP","FM-12","99999","V020","160,1,N,0021,1","22000,1,9,N","020000,1,N,1","-0004,1","-0046,1","99999,9","12,0000,9,1",,,,,,"01,99,1,01,1,01,1,00800,1,00,1,00,1",,,,"999,M,+0034,1","99999,9,08918,1","1,1,006,1,+999,9","3,1387,9",,"SYN082AAXX  28184 08213 12570 11604 11004 21046 38918 48387 51006 60002 81100 333 10034;","Q01  00002PRCP12"
"08213099999","2010-11-29T06:00:00","4","40.95","-4.1333333","1005.0","SEGOVIA, SP","FM-12","99999","V020","080,1,N,0021,1","22000,1,9,N","020000,1,N,1","-0028,1","-0028,1","99999,9","12,0000,9,1","24,0000,9,1",,,,,"02,99,1,00,1,00,1,99999,9,00,1,02,1","0114,9","14,9","999,-0120,9","999,N,-0037,1","99999,9,08889,1","7,1,005,1,+999,9","3,1358,9",,"SYN100AAXX  29064 08213 12970 20804 11028 21028 38889 48358 57005 60002 80002 333 21037 34112 55019 70000;","Q01  00002PRCP24Q02  00002PRCP12"
"08213099999","2010-11-29T09:00:00","4","40.95","-4.1333333","1005.0","SEGOVIA, SP","FM-12","99999","V020","260,1,N,0021,1","00750,1,9,N","020000,1,N,1","+0002,1","-0032,1","99999,9",,,,,,,"07,99,1,07,1,07,1,00800,1,99,9,99,9",,,,,"99999,9,08877,1","7,1,012,1,+999,9","3,1352,9",,"SYN066AAXX  29094 08213 42570 72604 10002 21032 38877 48352 57012 877//;",
"08213099999","2010-11-29T12:00:00","4","40.95","-4.1333333","1005.0","SEGOVIA, SP","FM-12","99999","V020","140,1,N,0041,1","00750,1,9,N","020000,1,N,1","+0028,1","-0019,1","99999,9","06,0000,9,1",,,,,,"08,99,1,08,1,07,1,00800,1,99,9,99,9",,,,,"99999,9,08871,1","7,1,006,1,+999,9","3,1349,9",,"SYN082AAXX  29124 08213 12570 81408 10028 21019 38871 48349 57006 60001 887// 333 5///0;","Q01  00002PRCP06"
"08213099999","2010-11-29T15:00:00","4","40.95","-4.1333333","1005.0","SEGOVIA, SP","FM-12","99999","V020","120,1,N,0077,1","00750,1,9,N","018000,1,N,1","+0040,1","-0049,1","99999,9",,,,,,,"07,99,1,05,1,05,1,00800,1,03,1,00,1",,,,,"99999,9,08852,1","7,1,019,1,+999,9","3,1334,9",,"SYN066AAXX  29154 08213 42568 71215 10040 21049 38852 48334 57019 85530;",
"08213099999","2010-11-29T18:00:00","4","40.95","-4.1333333","1005.0","SEGOVIA, SP","FM-12","99999","V020","160,1,N,0098,1","00750,1,9,N","018000,1,N,1","+0037,1","-0027,1","99999,9","12,0000,9,1",,,,,,"07,99,1,05,1,05,1,00800,1,07,1,99,9",,,,"999,M,+0042,1","99999,9,08838,1","7,1,014,1,+999,9","3,1321,9",,"SYN082AAXX  29184 08213 12568 71619 10037 21027 38838 48321 57014 60002 8557/ 333 10042;","Q01  00002PRCP12"
"08213099999","2010-11-30T06:00:00","4","40.95","-4.1333333","1005.0","SEGOVIA, SP","FM-12","99999","V020","080,1,N,0026,1","22000,1,9,N","012000,1,N,1","+0016,1","-0005,1","99999,9","12,9999,9,9","24,0003,9,1",,"2,1,06,1","2,1,06,1",,"04,99,1,04,1,05,1,00800,1,00,1,00,1","0000,9","09,9","999,-0040,9","999,N,+0000,1","99999,9,08826,1","8,1,002,1,+999,9","3,1307,9","77,1","SYN106AAXX  30064 08213 11562 40805 10016 21005 38826 48307 58002 69922 77722 84500 333 20000 31104 55000 70002;","Q01  00002PRCP12Q02  00002PRCP12"
"08213099999","2010-11-30T09:00:00","4","40.95","-4.1333333","1005.0","SEGOVIA, SP","FM-12","99999","V020","050,1,N,0010,1","03600,1,9,N","020000,1,N,1","+0030,1","+0001,1","99999,9",,,,"7,1,03,1","2,1,03,1",,"06,99,1,03,1,05,1,00800,1,05,1,00,1",,,,,"99999,9,08821,1","8,1,005,1,+999,9","3,1304,9","02,1","SYN072AAXX  30094 08213 41570 60502 10030 20001 38821 48304 58005 70272 83550;",
"08213099999","2010-11-30T12:00:00","4","40.95","-4.1333333","1005.0","SEGOVIA, SP","FM-12","99999","V020","030,1,N,0036,1","00750,1,9,N","018000,1,N,1","+0038,1","-0004,1","99999,9","06,0000,2,1",,,"7,1,06,1","2,1,06,1",,"07,99,1,07,1,05,1,00800,1,99,9,99,9",,,,,"99999,9,08820,1","7,1,001,1,+999,9","3,1304,9","26,1","SYN088AAXX  30124 08213 11568 70307 10038 21004 38820 48304 57001 69901 72672 875// 333 5///0;",
"08213099999","2010-11-30T15:00:00","4","40.95","-4.1333333","1005.0","SEGOVIA, SP","FM-12","99999","V020","120,1,N,0010,1","03600,1,9,N","012000,1,N,1","+0042,1","+0019,1","99999,9",,,,"7,1,03,1","2,1,03,1",,"06,99,1,04,1,05,1,00800,1,05,1,00,1",,,,,"99999,9,08814,1","6,1,006,1,+999,9","3,1299,9","02,1","SYN072AAXX  30154 08213 41562 61202 10042 20019 38814 48299 56006 70272 84550;",
"08213099999","2010-11-30T18:00:00","4","40.95","-4.1333333","1005.0","SEGOVIA, SP","FM-12","99999","V020","200,1,N,0021,1","03600,1,9,N","015000,1,N,1","+0025,1","+0002,1","99999,9","12,0000,2,1",,,"7,1,06,1","2,1,06,1",,"07,99,1,04,1,05,1,00800,1,05,1,99,9",,,,"999,M,+0054,1","99999,9,08816,1","3,1,002,1,+999,9","3,1299,9","02,1","SYN088AAXX  30184 08213 11565 72004 10025 20002 38816 48299 53002 69902 70272 8455/ 333 10054;",
"08213099999","2010-12-01T06:00:00","4","40.95","-4.1333333","1005.0","SEGOVIA, SP","FM-12","99999","V020","250,1,N,0026,1","00750,1,9,N","014000,1,N,1","+0008,1","-0008,1","99999,9","12,0000,9,1","24,0000,2,1",,,,,"08,99,1,05,1,05,1,00800,1,02,1,99,9","0072,9","09,9","999,-0040,9","999,N,+0008,1","99999,9,08863,1","3,1,005,1,+999,9","3,1340,9",,"SYN100AAXX  01064 08213 12564 82505 10008 21008 38863 48340 53005 60002 8552/ 333 20008 31104 55012 70000;","Q01  00002PRCP12"
"08213099999","2010-12-01T09:00:00","4","40.95","-4.1333333","1005.0","SEGOVIA, SP","FM-12","99999","V020","240,1,N,0031,1","00750,1,9,N","018000,1,N,1","+0010,1","-0011,1","99999,9",,,,,,,"08,99,1,05,1,05,1,00800,1,02,1,99,9",,,,,"99999,9,08879,1","3,1,016,1,+999,9","3,1354,9",,"SYN066AAXX  01094 08213 42568 82406 10010 21011 38879 48354 53016 8552/;",
"08213099999","2010-12-01T12:00:00","4","40.95","-4.1333333","1005.0","SEGOVIA, SP","FM-12","99999","V020","250,1,N,0026,1","00750,1,9,N","012000,1,N,1","+0012,1","+0006,1","99999,9","06,0003,9,1",,,"7,1,06,1","2,1,06,1",,"08,99,1,05,1,05,1,00800,1,02,1,99,9",,,,,"99999,9,08887,1","1,1,008,1,+999,9","3,1362,9","70,1","SYN088AAXX  01124 08213 11562 82505 10012 20006 38887 48362 51008 69931 77072 8552/ 333 5///0;",
"08213099999","2010-12-01T15:00:00","4","40.95","-4.1333333","1005.0","SEGOVIA, SP","FM-12","99999","V020","290,1,N,0046,1","00750,1,9,N","012000,1,N,1","+0022,1","+0007,1","99999,9",,,,"7,1,03,1","2,1,03,1",,"08,99,1,05,1,05,1,00800,1,02,1,99,9",,,,,"99999,9,08892,1","1,1,005,1,+999,9","3,1368,9","02,1","SYN072AAXX  01154 08213 41562 82909 10022 20007 38892 48368 51005 70272 8552/;",
"08213099999","2010-12-01T18:00:00","4","40.95","-4.1333333","1005.0","SEGOVIA, SP","FM-12","99999","V020","230,1,N,0031,1","22000,1,9,N","012000,1,N,1","+0010,1","-0003,1","99999,9","12,0020,9,1",,,"7,1,06,1","2,1,06,1",,"04,99,1,04,1,08,1,00800,1,00,1,00,1",,,,"999,M,+0026,1","99999,9,08920,1","2,1,028,1,+999,9","3,1391,9","02,1","SYN088AAXX  01184 08213 11562 42306 10010 21003 38920 48391 52028 60022 70272 84800 333 10026;",
"08213099999","2010-12-02T06:00:00","4","40.95","-4.1333333","1005.0","SEGOVIA, SP","FM-12","99999","V020","240,1,N,0036,1","00750,1,9,N","010000,1,N,1","-0004,1","-0010,1","99999,9","12,0000,9,1","24,0020,9,1","0001,9,1,999999,9,9",,,,"08,99,1,06,1,07,1,00800,1,02,1,08,1","0000,9","25,9","999,-0020,9","999,N,-0004,1","99999,9,08936,1","5,1,000,1,+999,9","3,1403,9",,"SYN106AAXX  02064 08213 12560 82407 11004 21010 38936 48403 55000 60002 86728 333 21004 3/102 41001 55000 70021;","Q01  00002PRCP12"
"08213099999","2010-12-02T09:00:00","4","40.95","-4.1333333","1005.0","SEGOVIA, SP","FM-12","99999","V020","260,1,N,0051,1","00750,1,9,N","007000,1,N,1","-0004,1","-0010,1","99999,9",,,,"2,1,03,1","2,1,03,1",,"08,99,1,06,1,07,1,00800,1,02,1,08,1",,,,,"99999,9,08946,1","2,1,010,1,+999,9","3,1412,9","10,1","SYN072AAXX  02094 08213 41557 82610 11004 21010 38946 48412 52010 71022 86728;",
"08213099999","2010-12-02T12:00:00","4","40.95","-4.1333333","1005.0","SEGOVIA, SP","FM-12","99999","V020","270,1,N,0077,1","01200,1,9,N","010000,1,N,1","-0003,1","-0014,1","99999,9","06,9999,9,9",,,"2,1,06,1","2,1,06,1",,"07,99,1,06,1,08,1,00800,1,02,1,08,1",,,,,"99999,9,08954,1","1,1,008,1,+999,9","3,1419,9","77,1","SYN088AAXX  02124 08213 11560 72715 11003 21014 38954 48419 51008 69911 77722 86828 333 5////;","Q01  00002PRCP06Q02  00002PRCP06"
"08213099999","2010-12-02T15:00:00","4","40.95","-4.1333333","1005.0","SEGOVIA, SP","FM-12","99999","V020","270,1,N,0077,1","01200,1,9,N","010000,1,N,1","+0006,1","-0040,1","99999,9",,,,"7,1,03,1","2,1,03,1",,"06,99,1,05,1,08,1,00800,1,07,1,00,1",,,,,"99999,9,08949,1","6,1,005,1,+999,9","3,1416,9","02,1","SYN072AAXX  02154 08213 41560 62715 10006 21040 38949 48416 56005 70272 85870;",
"08213099999","2010-12-02T18:00:00","4","40.95","-4.1333333","1005.0","SEGOVIA, SP","FM-12","99999","V020","230,1,N,0031,1","01200,1,9,N","010000,1,N,1","+0000,1","-0044,1","99999,9","12,0000,2,1",,,"7,1,06,1","2,1,06,1",,"06,99,1,05,1,08,1,00800,1,07,1,00,1",,,,"999,M,+0014,1","99999,9,08953,1","3,1,004,1,+999,9","3,1419,9","02,1","SYN088AAXX  02184 08213 11560 62306 10000 21044 38953 48419 53004 69922 70272 85870 333 10014;",
"08213099999","2010-12-03T06:00:00","4","40.95","-4.1333333","1005.0","SEGOVIA, SP","FM-12","99999","V020","290,1,N,0036,1","01200,1,9,N","010000,1,N,1","-0032,1","-0037,1","99999,9","12,0020,9,2","24,0018,9,2",,"7,1,06,1","2,1,06,1",,"07,99,1,07,1,08,1,00800,1,00,1,00,1","0102,9","14,9","999,-0060,9","999,N,-0032,1","99999,9,08998,1","2,1,010,1,+999,9","3,1453,9","02,1","SYN106AAXX  03064 08213 11560 72907 11032 21037 38998 48453 52010 60022 70272 87800 333 21032 34106 55017 70018;",
"08213099999","2010-12-03T09:00:00","4","40.95","-4.1333333","1005.0","SEGOVIA, SP","FM-12","99999","V020","200,1,N,0026,1","22000,1,9,N","014000,1,N,1","-0046,1","-0060,1","99999,9",,,,,,,"04,99,1,04,1,08,1,00800,1,00,1,00,1",,,,,"99999,9,09017,1","2,1,019,1,+999,9","3,1467,9",,"SYN066AAXX  03094 08213 42564 42005 11046 21060 39017 48467 52019 84800;",
"08213099999","2010-12-03T12:00:00","4","40.95","-4.1333333","1005.0","SEGOVIA, SP","FM-12","99999","V020","160,1,N,0026,1","22000,1,9,N","016000,1,N,1","-0008,1","-0050,1","99999,9","06,0000,9,1",,,,,,"04,99,1,04,1,02,1,00450,1,00,1,00,1",,,,,"99999,9,09037,1","1,1,020,1,+999,9","3,1491,9",,"SYN082AAXX  03124 08213 12466 41605 11008 21050 39037 48491 51020 60001 84200 333 5///0;","Q01  00002PRCP06"
"08213099999","2010-12-03T15:00:00","4","40.95","-4.1333333","1005.0","SEGOVIA, SP","FM-12","99999","V020","300,1,N,0010,1","00750,1,9,N","018000,1,N,1","+0004,1","-0037,1","99999,9",,,,,,,"06,99,1,06,1,02,1,00800,1,00,1,00,1",,,,,"99999,9,09037,1","5,1,000,1,+999,9","3,1494,9",,"SYN066AAXX  03154 08213 42568 63002 10004 21037 39037 48494 55000 86200;",
"08213099999","2010-12-03T18:00:00","4","40.95","-4.1333333","1005.0","SEGOVIA, SP","FM-12","99999","V020","160,1,N,0031,1","01200,1,9,N","012000,1,N,1","-0010,1","-0034,1","99999,9","12,0000,9,1",,,,,,"06,99,1,06,1,08,1,00800,1,00,1,00,1",,,,"999,M,+0016,1","99999,9,09040,1","1,1,003,1,+999,9","3,1494,9",,"SYN082AAXX  03184 08213 12562 61606 11010 21034 39040 48494 51003 60002 86800 333 10016;","Q01  00002PRCP12"
"08213099999","2010-12-04T06:00:00","4","40.95","-4.1333333","1005.0","SEGOVIA, SP","FM-12","99999","V020","070,1,N,0021,1","03600,1,9,N","010000,1,N,1","-0038,1","-0083,1","99999,9","12,0000,9,1","24,0000,9,1","0001,9,1,999999,9,9",,,,"05,99,1,04,1,08,1,00800,1,07,1,08,1","0372,9","30,9","999,-0110,9","999,N,-0054,1","99999,9,09020,1","6,1,011,1,+999,9","3,1471,9",,"SYN106AAXX  04064 08213 12560 50704 11038 21083 39020 48471 56011 60002 84878 333 21054 3/111 42001 55062 70000;","Q01  00002PRCP24Q02  00002PRCP12"
"08213099999","2010-12-04T09:00:00","4","40.95","-4.1333333","1005.0","SEGOVIA, SP","FM-12","99999","V020","090,1,N,0031,1","22000,1,9,N","015000,1,N,1","-0005,1","-0089,1","99999,9",,,,,,,"02,99,1,01,1,00,1,01750,1,04,1,08,1",,,,,"99999,9,09019,1","8,1,009,1,+999,9","3,1476,9",,"SYN066AAXX  04094 08213 42765 20906 11005 21089 39019 48476 58009 81048;",
"08213099999","2010-12-04T12:00:00","4","40.95","-4.1333333","1005.0","SEGOVIA, SP","FM-12","99999","V020","280,1,N,0021,1","22000,1,9,N","015000,1,N,1","+0042,1","-0055,1","99999,9","06,0000,9,1",,,,,,"05,99,1,02,1,00,1,01750,1,04,1,08,1",,,,,"99999,9,09011,1","8,1,008,1,+999,9","3,1477,9",,"SYN082AAXX  04124 08213 12765 52804 10042 21055 39011 48477 58008 60001 82048 333 5////;","Q01  00002PRCP06"
"08213099999","2010-12-04T15:00:00","4","40.95","-4.1333333","1005.0","SEGOVIA, SP","FM-12","99999","V020","360,1,N,0021,1","09000,1,9,N","015000,1,N,1","+0058,1","-0085,1","99999,9",,,,,,,"06,99,1,03,1,00,1,01750,1,04,1,08,1",,,,,"99999,9,08992,1","7,1,019,1,+999,9","3,1463,9",,"SYN066AAXX  04154 08213 42765 63604 10058 21085 38992 48463 57019 83048;",
"08213099999","2010-12-04T18:00:00","4","40.95","-4.1333333","1005.0","SEGOVIA, SP","FM-12","99999","V020","010,1,N,0015,1","09000,1,9,N","015000,1,N,1","+0042,1","-0075,1","99999,9","12,0000,9,1",,,,,,"07,99,1,04,1,00,1,01750,1,04,1,08,1",,,,"999,M,+0068,1","99999,9,08979,1","8,1,013,1,+999,9","3,1448,9",,"SYN082AAXX  04184 08213 12765 70103 10042 21075 38979 48448 58013 60002 84048 333 10068;","Q01  00002PRCP12"
"08213099999","2010-12-05T06:00:00","4","40.95","-4.1333333","1005.0","SEGOVIA, SP","FM-12","99999","V020","270,1,N,0062,1","00750,1,9,N","010000,1,N,1","+0077,1","-0023,1","99999,9","12,0000,9,1","24,0000,9,1",,,,,"07,99,1,05,1,05,1,00800,1,07,1,08,1","0390,9","01,9","999,+0010,9","999,N,+0040,1","99999,9,08954,1","0,1,000,1,+999,9","3,1432,9",,"SYN100AAXX  05064 08213 12560 72712 10077 21023 38954 48432 50000 60002 85578 333 20040 30001 55065 70000;","Q01  00002PRCP24Q02  00002PRCP12"
"08213099999","2010-12-05T09:00:00","4","40.95","-4.1333333","1005.0","SEGOVIA, SP","FM-12","99999","V020","190,1,N,0072,1","00750,1,9,N","010000,1,N,1","+0098,1","+0062,1","99999,9",,,,"6,1,03,1","2,1,03,1",,"08,99,1,05,1,05,1,00800,1,07,1,08,1",,,,,"99999,9,08948,1","8,1,006,1,+999,9","3,1430,9","21,1","SYN072AAXX  05094 08213 41560 81914 10098 20062 38948 48430 58006 72162 85578;",
"08213099999","2010-12-05T12:00:00","4","40.95","-4.1333333","1005.0","SEGOVIA, SP","FM-12","99999","V020","200,1,N,0134,1","03600,1,9,N","015000,1,N,1","+0125,1","+0065,1","99999,9","06,0051,9,1",,,"6,1,06,1","2,1,06,1",,"07,99,1,04,1,05,1,00800,1,07,1,09,1",,,,,"99999,9,08941,1","8,1,007,1,+999,9","3,1428,9","02,1","SYN088AAXX  05124 08213 11565 72026 10125 20065 38941 48428 58007 60051 70262 84579 333 5////;",
"08213099999","2010-12-05T15:00:00","4","40.95","-4.1333333","1005.0","SEGOVIA, SP","FM-12","99999","V020","230,1,N,0087,1","03600,1,9,N","015000,1,N,1","+0132,1","+0068,1","99999,9",,,,,,,"06,99,1,02,1,08,1,00800,1,04,1,08,1",,,,,"99999,9,08932,1","8,1,009,1,+999,9","3,1420,9",,"SYN066AAXX  05154 08213 42565 62317 10132 20068 38932 48420 58009 82848;",
"08213099999","2010-12-05T18:00:00","4","40.95","-4.1333333","1005.0","SEGOVIA, SP","FM-12","99999","V020","200,1,N,0087,1","03600,1,9,N","015000,1,N,1","+0121,1","+0062,1","99999,9","12,0051,9,1",,,,,,"07,99,1,04,1,08,1,00800,1,04,1,08,1",,,,"999,M,+0137,1","99999,9,08923,1","8,1,009,1,+999,9","3,1410,9",,"SYN082AAXX  05184 08213 12565 72017 10121 20062 38923 48410 58009 60052 84848 333 10137;",
"08213099999","2010-12-06T06:00:00","4","40.95","-4.1333333","1005.0","SEGOVIA, SP","FM-12","99999","V020","220,1,N,0098,1","00750,1,9,N","010000,1,N,1","+0120,1","+0077,1","99999,9","12,0005,9,1","24,0056,9,1",,"6,1,06,1","2,1,06,1",,"08,99,1,05,1,05,1,00800,1,02,1,99,9","0090,9","11,9","999,+0040,9","999,N,+0118,1","99999,9,08886,1","6,1,005,1,+999,9","3,1376,9","61,1","SYN106AAXX  06064 08213 11560 82219 10120 20077 38886 48376 56005 69942 76162 8552/ 333 20118 32004 55015 70055;",
"08213099999","2010-12-06T09:00:00","4","40.95","-4.1333333","1005.0","SEGOVIA, SP","FM-12","99999","V020","240,1,N,0067,1","01200,1,9,N","016000,1,N,1","+0134,1","+0080,1","99999,9",,,,,,,"06,99,1,06,1,08,1,00800,1,00,1,00,1",,,,,"99999,9,08886,1","5,1,000,1,+999,9","3,1378,9",,"SYN066AAXX  06094 08213 42566 62413 10134 20080 38886 48378 55000 86800;",
"08213099999","2010-12-06T12:00:00","4","40.95","-4.1333333","1005.0","SEGOVIA, SP","FM-12","99999","V020","220,1,N,0103,1","01200,1,9,N","018000,1,N,1","+0156,1","+0081,1","99999,9","06,0000,2,1",,,,,,"06,99,1,06,1,08,1,00800,1,00,1,00,1",,,,,"99999,9,08900,1","1,1,014,1,+999,9","3,1394,9",,"SYN082AAXX  06124 08213 12568 62220 10156 20081 38900 48394 51014 60001 86800 333 5///0;",
"08213099999","2010-12-06T15:00:00","4","40.95","-4.1333333","1005.0","SEGOVIA, SP","FM-12","99999","V020","240,1,N,0041,1","00750,1,9,N","018000,1,N,1","+0132,1","+0091,1","99999,9",,,,,,,"07,99,1,05,1,02,1,00800,1,04,1,09,1",,,,,"99999,9,08902,1","1,1,002,1,+999,9","3,1393,9",,"SYN066AAXX  06154 08213 42568 72408 10132 20091 38902 48393 51002 85249;",
"08213099999","2010-12-06T18:00:00","4","40.95","-4.1333333","1005.0","SEGOVIA, SP","FM-12","99999","V020","210,1,N,0026,1","01200,1,9,N","016000,1,N,1","+0110,1","+0071,1","99999,9","12,0000,2,1",,,,,,"07,99,1,07,1,08,1,00800,1,00,1,00,1",,,,"999,M,+0162,1","99999,9,08907,1","3,1,005,1,+999,9","3,1394,9",,"SYN082AAXX  06184 08213 12566 72105 10110 20071 38907 48394 53005 60002 87800 333 10162;",
"08213099999","2010-12-07T06:00:00","4","40.95","-4.1333333","1005.0","SEGOVIA, SP","FM-12","99999","V020","060,1,N,0010,1","00750,1,9,N","010000,1,N,1","+0092,1","+0072,1","99999,9","12,0030,9,1","24,0038,9,1",,"6,1,06,1","2,1,06,1",,"08,99,1,05,1,05,1,00800,1,02,1,99,9","0216,9","11,9","999,+0050,9","999,N,+0092,1","99999,9,08884,1","6,1,004,1,+999,9","3,1370,9","02,1","SYN106AAXX  07064 08213 11560 80602 10092 20072 38884 48370 56004 60032 70262 8552/ 333 20092 32005 55036 70037;",
"08213099999","2010-12-07T09:00:00","4","40.95","-4.1333333","1005.0","SEGOVIA, SP","FM-12","99999","V020","200,1,N,0046,1","03600,1,9,N","016000,1,N,1","+0116,1","+0065,1","99999,9",,,,,,,"07,99,1,03,1,04,1,00800,1,02,1,00,1",,,,,"99999,9,08883,1","7,1,001,1,+999,9","3,1372,9",,"SYN066AAXX  07094 08213 42566 72009 10116 20065 38883 48372 57001 83420;",
"08213099999","2010-12-07T12:00:00","4","40.95","-4.1333333","1005.0","SEGOVIA, SP","FM-12","99999","V020","180,1,N,0046,1","03600,1,9,N","018000,1,N,1","+0118,1","+0067,1","99999,9","06,0030,9,1",,,"6,1,06,1","2,1,06,1",,"07,99,1,01,1,04,1,00800,1,02,1,00,1",,,,,"99999,9,08885,1","0,1,002,1,+999,9","3,1374,9","02,1","SYN078AAXX  07124 08213 11568 71809 10118 20067 38885 48374 50002 60031 70262 81420;",
"08213099999","2010-12-07T15:00:00","4","40.95","-4.1333333","1005.0","SEGOVIA, SP","FM-12","99999","V020","210,1,N,0087,1","01200,1,9,N","014000,1,N,1","+0132,1","+0061,1","99999,9",,,,"6,1,03,1","2,1,03,1",,"07,99,1,07,1,08,1,00800,1,00,1,00,1",,,,,"99999,9,08877,1","8,1,008,1,+999,9","3,1369,9","02,1","SYN072AAXX  07154 08213 41564 72117 10132 20061 38877 48369 58008 70262 87800;",
"08213099999","2010-12-07T18:00:00","4","40.95","-4.1333333","1005.0","SEGOVIA, SP","FM-12","99999","V020","190,1,N,0082,1","01200,1,9,N","014000,1,N,1","+0116,1","+0069,1","99999,9","12,0030,9,1",,,"6,1,06,1","2,1,06,1",,"07,99,1,07,1,08,1,00800,1,00,1,00,1",,,,"999,M,+0136,1","99999,9,08877,1","5,1,000,1,+999,9","3,1367,9","02,1","SYN088AAXX  07184 08213 11564 71916 10116 20069 38877 48367 55000 60032 70262 87800 333 10136;",
"08213099999","2010-12-08T06:00:00","4","40.95","-4.1333333","1005.0","SEGOVIA, SP","FM-12","99999","V020","220,1,N,0072,1","22000,1,9,N","012000,1,N,1","+0104,1","+0060,1","99999,9","12,0041,9,1","24,0071,9,1",,,,,"03,99,1,02,1,04,1,00800,1,00,1,08,1","0090,9","01,9","999,+0060,9","999,N,+0077,1","99999,9,08908,1","2,1,024,1,+999,9","3,1394,9",,"SYN100AAXX  08064 08213 12562 32214 10104 20060 38908 48394 52024 60042 82408 333 20077 30006 55015 70072;",
"08213099999","2010-12-08T09:00:00","4","40.95","-4.1333333","1005.0","SEGOVIA, SP","FM-12","99999","V020","220,1,N,0051,1","03600,1,9,N","012000,1,N,1","+0110,1","+0062,1","99999,9",,,,,,,"06,99,1,04,1,04,1,00800,1,04,1,08,1",,,,,"99999,9,08940,1","2,1,032,1,+999,9","3,1424,9",,"SYN066AAXX  08094 08213 42562 62210 10110 20062 38940 48424 52032 84448;",
"08213099999","2010-12-08T12:00:00","4","40.95","-4.1333333","1005.0","SEGOVIA, SP","FM-12","99999","V020","220,1,N,0062,1","03600,1,9,N","015000,1,N,1","+0122,1","+0060,1","99999,9","06,0000,9,1",,,,,,"07,99,1,03,1,04,1,00800,1,07,1,09,1",,,,,"99999,9,08953,1","1,1,013,1,+999,9","3,1438,9",,"SYN082AAXX  08124 08213 12565 72212 10122 20060 38953 48438 51013 60001 83479 333 50450;","Q01  00002PRCP06"
"08213099999","2010-12-08T15:00:00","4","40.95","-4.1333333","1005.0","SEGOVIA, SP","FM-12","99999","V020","220,1,N,0036,1","03600,1,9,N","015000,1,N,1","+0122,1","+0051,1","99999,9",,,,,,,"07,99,1,04,1,04,1,00800,1,07,1,08,1",,,,,"99999,9,08956,1","1,1,003,1,+999,9","3,1441,9",,"SYN066AAXX  08154 08213 42565 72207 10122 20051 38956 48441 51003 84478;",
"08213099999","2010-12-08T18:00:00","4","40.95","-4.1333333","1005.0","SEGOVIA, SP","FM-12","99999","V020","200,1,N,0026,1","00750,1,9,N","012000,1,N,1","+0108,1","+0066,1","99999,9","12,9999,9,9",,,"2,1,06,1","2,1,06,1",,"08,99,1,05,1,04,1,00800,1,07,1,08,1",,,,"999,M,+0138,1","99999,9,08974,1","3,1,018,1,+999,9","3,1456,9","60,1","SYN088AAXX  08184 08213 11562 82005 10108 20066 38974 48456 53018 69902 76022 85478 333 10138;","Q01  00002PRCP12Q02  00002PRCP12"
"08213099999","2010-12-09T06:00:00","4","40.95","-4.1333333","1005.0","SEGOVIA, SP","FM-12","99999","V020","090,1,N,0031,1","22000,1,9,N","008000,1,N,1","+0066,1","+0066,1","99999,9","12,0061,9,1","24,0061,9,1",,"6,1,06,1","2,1,06,1",,"03,99,1,03,1,06,1,00450,1,00,1,00,1","0138,9","11,9","999,+0020,9","999,N,+0066,1","99999,9,09028,1","1,1,013,1,+999,9","3,1498,9","40,1","SYN106AAXX  09064 08213 11458 30906 10066 20066 39028 48498 51013 60062 74062 83600 333 20066 32002 55023 70062;",
"08213099999","2010-12-09T09:00:00","4","40.95","-4.1333333","1005.0","SEGOVIA, SP","FM-12","99999","V020","090,1,N,0010,1","22000,1,9,N","008000,1,N,1","+0073,1","+0073,1","99999,9",,,,"4,1,03,1","0,1,03,1",,"04,99,1,02,1,08,1,00450,1,03,1,01,1",,,,,"99999,9,09050,1","3,1,022,1,+999,9","3,1519,9","10,1","SYN072AAXX  09094 08213 41458 40902 10073 20073 39050 48519 53022 71040 82831;",
"08213099999","2010-12-09T12:00:00","4","40.95","-4.1333333","1005.0","SEGOVIA, SP","FM-12","99999","V020","260,1,N,0031,1","00420,1,9,N","012000,1,N,1","+0100,1","+0086,1","99999,9","06,9999,9,9",,,"5,1,06,1","4,1,06,1",,"08,99,1,06,1,06,1,00450,1,07,1,08,1",,,,,"99999,9,09051,1","0,1,001,1,+999,9","3,1525,9","50,1","SYN088AAXX  09124 08213 11462 82606 10100 20086 39051 48525 50001 69901 75054 86678 333 50300;","Q01  00002PRCP06Q02  00002PRCP06"
"08213099999","2010-12-09T15:00:00","4","40.95","-4.1333333","1005.0","SEGOVIA, SP","FM-12","99999","V020","080,1,N,0026,1","01200,1,9,N","008000,1,N,1","+0092,1","+0084,1","99999,9",,,,"6,1,03,1","2,1,03,1",,"08,99,1,05,1,08,1,00800,1,07,1,08,1",,,,,"99999,9,09071,1","1,1,020,1,+999,9","3,1541,9","10,1","SYN072AAXX  09154 08213 41558 80805 10092 20084 39071 48541 51020 71062 85878;",
"08213099999","2010-12-09T18:00:00","4","40.95","-4.1333333","1005.0","SEGOVIA, SP","FM-12","99999","V020","080,1,N,0021,1","22000,1,9,N","010000,1,N,1","+0092,1","+0084,1","99999,9","12,0008,9,1",,,"6,1,06,1","2,1,06,1",,"04,99,1,02,1,04,1,00800,1,03,1,01,1",,,,"999,M,+0100,1","99999,9,09078,1","3,1,007,1,+999,9","3,1548,9","01,1","SYN088AAXX  09184 08213 11560 40804 10092 20084 39078 48548 53007 69982 70162 82431 333 10100;",
"08213099999","2010-12-10T06:00:00","4","40.95","-4.1333333","1005.0","SEGOVIA, SP","FM-12","99999","V020","060,1,N,0010,1","00750,1,9,N","012000,1,N,1","+0065,1","+0059,1","99999,9","12,0000,9,1","24,0010,9,1",,"6,1,06,1","2,1,06,1",,"08,99,1,08,1,05,1,00800,1,99,9,99,9","0066,9","09,9","999,-0010,9","999,N,+0050,1","99999,9,09105,1","2,1,005,1,+999,9","3,1566,9","02,1","SYN106AAXX  10064 08213 11562 80602 10065 20059 39105 48566 52005 69922 70262 885// 333 20050 31101 55011 70010;","Q01  00002PRCP12"
"08213099999","2010-12-10T09:00:00","4","40.95","-4.1333333","1005.0","SEGOVIA, SP","FM-12","99999","V020","070,1,N,0015,1","22000,1,9,N","015000,1,N,1","+0083,1","+0071,1","99999,9",,,,,,,"02,99,1,02,1,00,1,01750,1,05,1,00,1",,,,,"99999,9,09114,1","2,1,009,1,+999,9","3,1578,9",,"SYN066AAXX  10094 08213 42765 20703 10083 20071 39114 48578 52009 82050;",
"08213099999","2010-12-10T12:00:00","4","40.95","-4.1333333","1005.0","SEGOVIA, SP","FM-12","99999","V020","290,1,N,0026,1","22000,1,9,N","012000,1,N,1","+0162,1","+0101,1","99999,9","06,0000,9,1",,,,,,"01,99,1,00,1,00,1,99999,9,00,1,01,1",,,,,"99999,9,09115,1","0,1,001,1,+999,9","3,1596,9",,"SYN082AAXX  10124 08213 12962 12905 10162 20101 39115 48596 50001 60001 80001 333 50580;","Q01  00002PRCP06"
"08213099999","2010-12-10T15:00:00","4","40.95","-4.1333333","1005.0","SEGOVIA, SP","FM-12","99999","V020","240,1,N,0026,1","22000,1,9,N","012000,1,N,1","+0148,1","+0119,1","99999,9",,,,,,,"04,99,1,02,1,00,1,01750,1,05,1,02,1",,,,,"99999,9,09111,1","6,1,004,1,+999,9","3,1590,9",,"SYN066AAXX  10154 08213 42762 42405 10148 20119 39111 48590 56004 82052;",
"08213099999","2010-12-10T18:00:00","4","40.95","-4.1333333","1005.0","SEGOVIA, SP","FM-12","99999","V020","250,1,N,0010,1","22000,1,9,N","012000,1,N,1","+0115,1","+0104,1","99999,9","12,0000,9,1",,,,,,"04,99,1,02,1,00,1,01750,1,05,1,02,1",,,,"999,M,+0188,1","99999,9,09112,1","2,1,001,1,+999,9","3,1583,9",,"SYN082AAXX  10184 08213 12762 42502 10115 20104 39112 48583 52001 60002 82052 333 10188;","Q01  00002PRCP12"
"08213099999","2010-12-11T06:00:00","4","40.95","-4.1333333","1005.0","SEGOVIA, SP","FM-12","99999","V020","090,1,N,0021,1","22000,1,9,N","020000,1,N,1","+0076,1","+0036,1","99999,9","12,0000,9,1","24,0000,9,1",,,,"00,1,+99999,9,99,9","00,99,1,00,1,00,1,99999,9,00,1,00,1","0282,9","09,9","999,+0010,9","999,N,+0073,1","99999,9,09095,1","7,1,005,1,+999,9","3,1559,9",,"SYN094AAXX  11064 08213 12970 00904 10076 20036 39095 48559 57005 60002 333 20073 31001 55047 70000;","Q01  00002PRCP24Q02  00002PRCP12"
"08213099999","2010-12-11T09:00:00","4","40.95","-4.1333333","1005.0","SEGOVIA, SP","FM-12","99999","V020","100,1,N,0021,1","22000,1,9,N","015000,1,N,1","+0088,1","+0038,1","99999,9",,,,,,,"03,99,1,01,1,00,1,01750,1,05,1,02,1",,,,,"99999,9,09095,1","5,1,000,1,+999,9","3,1562,9",,"SYN066AAXX  11094 08213 42765 31004 10088 20038 39095 48562 55000 81052;",
"08213099999","2010-12-11T12:00:00","4","40.95","-4.1333333","1005.0","SEGOVIA, SP","FM-12","99999","V020","060,1,N,0021,1","22000,1,9,N","012000,1,N,1","+0186,1","+0044,1","99999,9","06,0000,9,1",,,,,,"04,99,1,00,1,00,1,99999,9,00,1,01,1",,,,,"99999,9,09082,1","8,1,013,1,+999,9","3,1569,9",,"SYN082AAXX  11124 08213 12962 40604 10186 20044 39082 48569 58013 60001 80001 333 50050;","Q01  00002PRCP06"
"08213099999","2010-12-11T15:00:00","4","40.95","-4.1333333","1005.0","SEGOVIA, SP","FM-12","99999","V020","310,1,N,0010,1","22000,1,9,N","015000,1,N,1","+0178,1","+0094,1","99999,9",,,,,,,"04,99,1,00,1,00,1,99999,9,00,1,05,1",,,,,"99999,9,09071,1","7,1,011,1,+999,9","3,1558,9",,"SYN066AAXX  11154 08213 42965 43102 10178 20094 39071 48558 57011 80005;",
"08213099999","2010-12-11T18:00:00","4","40.95","-4.1333333","1005.0","SEGOVIA, SP","FM-12","99999","V020","090,1,N,0026,1","22000,1,9,N","015000,1,N,1","+0124,1","+0077,1","99999,9","12,0000,9,1",,,,,,"04,99,1,00,1,00,1,99999,9,00,1,05,1",,,,"999,M,+0198,1","99999,9,09068,1","6,1,003,1,+999,9","3,1545,9",,"SYN082AAXX  11184 08213 12965 40905 10124 20077 39068 48545 56003 60002 80005 333 10198;","Q01  00002PRCP12"
"08213099999","2010-12-12T06:00:00","4","40.95","-4.1333333","1005.0","SEGOVIA, SP","FM-12","99999","V020","190,1,N,0021,1","22000,1,9,N","015000,1,N,1","+0084,1","+0009,1","99999,9","12,0000,9,1","24,0000,9,1",,,,,"02,99,1,00,1,00,1,99999,9,00,1,01,1","0384,9","09,9","999,-0020,9","999,N,+0063,1","99999,9,09025,1","7,1,010,1,+999,9","3,1497,9",,"SYN100AAXX  12064 08213 12965 21904 10084 20009 39025 48497 57010 60002 80001 333 20063 31102 55064 70000;","Q01  00002PRCP24Q02  00002PRCP12"
"08213099999","2010-12-12T09:00:00","4","40.95","-4.1333333","1005.0","SEGOVIA, SP","FM-12","99999","V020","220,1,N,0010,1","22000,1,9,N","018000,1,N,1","+0076,1","+0021,1","99999,9",,,,,,,"04,99,1,02,1,00,1,01750,1,05,1,02,1",,,,,"99999,9,09022,1","5,1,003,1,+999,9","3,1493,9",,"SYN066AAXX  12094 08213 42768 42202 10076 20021 39022 48493 55003 82052;",
"08213099999","2010-12-12T12:00:00","4","40.95","-4.1333333","1005.0","SEGOVIA, SP","FM-12","99999","V020","160,1,N,0010,1","22000,1,9,N","015000,1,N,1","+0108,1","+0040,1","99999,9","06,0000,9,1",,,,,,"03,99,1,01,1,05,1,00800,1,05,1,02,1",,,,,"99999,9,09031,1","0,1,009,1,+999,9","3,1507,9",,"SYN082AAXX  12124 08213 12565 31602 10108 20040 39031 48507 50009 60001 81552 333 50090;","Q01  00002PRCP06"
"08213099999","2010-12-12T15:00:00","4","40.95","-4.1333333","1005.0","SEGOVIA, SP","FM-12","99999","V020","270,1,N,0021,1","22000,1,9,N","015000,1,N,1","+0126,1","+0066,1","99999,9",,,,,,,"03,99,1,01,1,05,1,00800,1,04,1,02,1",,,,,"99999,9,09006,1","7,1,025,1,+999,9","3,1488,9",,"SYN066AAXX  12154 08213 42565 32704 10126 20066 39006 48488 57025 81542;",
"08213099999","2010-12-12T18:00:00","4","40.95","-4.1333333","1005.0","SEGOVIA, SP","FM-12","99999","V020","280,1,N,0015,1","09000,1,9,N","015000,1,N,1","+0100,1","+0065,1","99999,9","12,0000,9,1",,,,,,"05,99,1,01,1,05,1,00800,1,04,1,02,1",,,,"999,M,+0140,1","99999,9,09006,1","4,1,000,1,+999,9","3,1484,9",,"SYN082AAXX  12184 08213 12565 52803 10100 20065 39006 48484 54000 60002 81542 333 10140;","Q01  00002PRCP12"
"08213099999","2010-12-13T06:00:00","4","40.95","-4.1333333","1005.0","SEGOVIA, SP","FM-12","99999","V020","080,1,N,0010,1","09000,1,9,N","012000,1,N,1","+0068,1","+0041,1","99999,9","12,0000,9,1","24,0000,9,1",,,,,"06,99,1,02,1,07,1,00450,1,00,1,08,1","0252,9","09,9","999,+0010,9","999,N,+0068,1","99999,9,08986,1","6,1,004,1,+999,9","3,1460,9",,"SYN100AAXX  13064 08213 12462 60802 10068 20041 38986 48460 56004 60002 82708 333 20068 31001 55042 70000;","Q01  00002PRCP24Q02  00002PRCP12"
"08213099999","2010-12-13T12:00:00","4","40.95","-4.1333333","1005.0","SEGOVIA, SP","FM-12","99999","V020","270,1,N,0021,1","03600,1,9,N","010000,1,N,1","+0092,1","+0061,1","99999,9","06,0000,9,1",,,,,,"08,99,1,02,1,05,1,00800,1,07,1,07,1",,,,,"99999,9,08995,1","0,1,001,1,+999,9","3,1472,9",,"SYN082AAXX  13124 08213 12560 82704 10092 20061 38995 48472 50001 60001 82577 333 50280;","Q01  00002PRCP06"
"08213099999","2010-12-13T15:00:00","4","40.95","-4.1333333","1005.0","SEGOVIA, SP","FM-12","99999","V020","070,1,N,0031,1","03600,1,9,N","010000,1,N,1","+0104,1","+0071,1","99999,9",,,,,,,"08,99,1,03,1,05,1,00800,1,07,1,07,1",,,,,"99999,9,08988,1","8,1,007,1,+999,9","3,1468,9",,"SYN066AAXX  13154 08213 42560 80706 10104 20071 38988 48468 58007 83577;",
"08213099999","2010-12-13T18:00:00","4","40.95","-4.1333333","1005.0","SEGOVIA, SP","FM-12","99999","V020","070,1,N,0021,1","03600,1,9,N","010000,1,N,1","+0087,1","+0073,1","99999,9","12,9999,9,9",,,"6,1,06,1","2,1,06,1",,"08,99,1,04,1,05,1,00800,1,07,1,07,1",,,,"999,M,+0105,1","99999,9,09000,1","2,1,012,1,+999,9","3,1476,9","60,1","SYN088AAXX  13184 08213 11560 80704 10087 20073 39000 48476 52012 69922 76062 84577 333 10105;","Q01  00002PRCP12Q02  00002PRCP12"
"08213099999","2010-12-14T06:00:00","4","40.95","-4.1333333","1005.0","SEGOVIA, SP","FM-12","99999","V020","260,1,N,0026,1","00480,1,9,N","000500,1,N,1","+0039,1","+0039,1","99999,9","12,0000,2,1","24,0005,9,1",,"4,1,06,1","4,1,06,1","09,1,+00480,1,99,9","09,99,1,09,1,99,9,99999,9,99,9,99,9","0000,9","11,9","999,+0020,9","999,N,+0039,1","99999,9,09037,1","3,1,014,1,+999,9","3,1501,9","45,1","SYN106AAXX  14064 08213 11/05 92605 10039 20039 39037 48501 53014 69922 74544 333 20039 32002 55000 70004 89/16;",
"08213099999","2010-12-14T09:00:00","4","40.95","-4.1333333","1005.0","SEGOVIA, SP","FM-12","99999","V020","270,1,N,0036,1","00420,1,9,N","004000,1,N,1","+0015,1","+0012,1","99999,9",,,,"4,1,03,1","2,1,03,1",,"07,99,1,07,1,06,1,00450,1,00,1,00,1",,,,,"99999,9,09057,1","2,1,020,1,+999,9","3,1514,9","10,1","SYN072AAXX  14094 08213 41440 72707 10015 20012 39057 48514 52020 71042 87600;",
"08213099999","2010-12-14T12:00:00","4","40.95","-4.1333333","1005.0","SEGOVIA, SP","FM-12","99999","V020","230,1,N,0010,1","22000,1,9,N","008000,1,N,1","+0058,1","+0021,1","99999,9","06,0000,9,1",,,"1,1,06,1","1,1,06,1",,"02,99,1,02,1,08,1,00450,1,00,1,00,1",,,,,"99999,9,09065,1","1,1,008,1,+999,9","3,1529,9","40,1","SYN088AAXX  14124 08213 11458 22302 10058 20021 39065 48529 51008 60001 74011 82800 333 50100;","Q01  00002PRCP06"
"08213099999","2010-12-14T15:00:00","4","40.95","-4.1333333","1005.0","SEGOVIA, SP","FM-12","99999","V020","330,1,N,0031,1","22000,1,9,N","010000,1,N,1","+0066,1","+0003,1","99999,9",,,,,,,"01,99,1,01,1,08,1,00450,1,00,1,00,1",,,,,"99999,9,09071,1","3,1,006,1,+999,9","3,1535,9",,"SYN066AAXX  14154 08213 42460 13306 10066 20003 39071 48535 53006 81800;",
"08213099999","2010-12-14T18:00:00","4","40.95","-4.1333333","1005.0","SEGOVIA, SP","FM-12","99999","V020","070,1,N,0026,1","22000,1,9,N","010000,1,N,1","+0036,1","-0008,1","99999,9","12,0000,9,1",,,,,,"01,99,1,01,1,04,1,00800,1,00,1,00,1",,,,"999,M,+0073,1","99999,9,09081,1","2,1,010,1,+999,9","3,1539,9",,"SYN082AAXX  14184 08213 12560 10705 10036 21008 39081 48539 52010 60002 81400 333 10073;","Q01  00002PRCP12"
"08213099999","2010-12-15T06:00:00","4","40.95","-4.1333333","1005.0","SEGOVIA, SP","FM-12","99999","V020","020,1,N,0021,1","22000,1,9,N","020000,1,N,1","-0026,1","-0045,1","99999,9","12,0000,9,1","24,0000,9,1",,,,"00,1,+99999,9,99,9","00,99,1,00,1,00,1,99999,9,00,1,00,1","0330,9","14,9","999,-0080,9","999,N,-0026,1","99999,9,09116,1","1,1,003,1,+999,9","3,1556,9",,"SYN094AAXX  15064 08213 12970 00204 11026 21045 39116 48556 51003 60002 333 21026 34108 55055 70000;","Q01  00002PRCP24Q02  00002PRCP12"
"08213099999","2010-12-15T09:00:00","4","40.95","-4.1333333","1005.0","SEGOVIA, SP","FM-12","99999","V020","040,1,N,0062,1","22000,1,9,N","018000,1,N,1","-0008,1","-0032,1","99999,9",,,,,,,"03,99,1,03,1,02,1,00800,1,00,1,00,1",,,,,"99999,9,09121,1","3,1,005,1,+999,9","3,1565,9",,"SYN066AAXX  15094 08213 42568 30412 11008 21032 39121 48565 53005 83200;",
"08213099999","2010-12-15T12:00:00","4","40.95","-4.1333333","1005.0","SEGOVIA, SP","FM-12","99999","V020","010,1,N,0041,1","22000,1,9,N","020000,1,N,1","+0006,1","-0063,1","99999,9","06,0000,9,1",,,,,,"02,99,1,02,1,02,1,00800,1,00,1,00,1",,,,,"99999,9,09112,1","8,1,009,1,+999,9","3,1559,9",,"SYN082AAXX  15124 08213 12570 20108 10006 21063 39112 48559 58009 60001 82200 333 5///0;","Q01  00002PRCP06"
"08213099999","2010-12-15T15:00:00","4","40.95","-4.1333333","1005.0","SEGOVIA, SP","FM-12","99999","V020","030,1,N,0031,1","22000,1,9,N","020000,1,N,1","+0010,1","-0072,1","99999,9",,,,,,,"01,99,1,01,1,01,1,00800,1,00,1,00,1",,,,,"99999,9,09100,1","8,1,012,1,+999,9","3,1550,9",,"SYN066AAXX  15154 08213 42570 10306 10010 21072 39100 48550 58012 81100;",
"08213099999","2010-12-15T18:00:00","4","40.95","-4.1333333","1005.0","SEGOVIA, SP","FM-12","99999","V020","040,1,N,0057,1","22000,1,9,N","018000,1,N,1","-0022,1","-0069,1","99999,9","12,0000,9,1",,,,,,"02,99,1,02,1,04,1,00800,1,00,1,00,1",,,,"999,M,+0020,1","99999,9,09108,1","3,1,008,1,+999,9","3,1550,9",,"SYN082AAXX  15184 08213 12568 20411 11022 21069 39108 48550 53008 60002 82400 333 10020;","Q01  00002PRCP12"
"08213099999","2010-12-16T06:00:00","4","40.95","-4.1333333","1005.0","SEGOVIA, SP","FM-12","99999","V020","060,1,N,0015,1","22000,1,9,N","020000,1,N,1","-0074,1","-0082,1","99999,9","12,0000,9,1","24,0000,9,1",,,,"00,1,+99999,9,99,9","00,99,1,00,1,00,1,99999,9,00,1,00,1","0480,9","14,9","999,-0150,9","999,N,-0076,1","99999,9,09080,1","7,1,005,1,+999,9","3,1516,9",,"SYN094AAXX  16064 08213 12970 00603 11074 21082 39080 48516 57005 60002 333 21076 34115 55080 70000;","Q01  00002PRCP24Q02  00002PRCP12"
"08213099999","2010-12-16T09:00:00","4","40.95","-4.1333333","1005.0","SEGOVIA, SP","FM-12","99999","V020","080,1,N,0010,1","22000,1,9,N","015000,1,N,1","-0045,1","-0052,1","99999,9",,,,,,"00,1,+99999,9,99,9","00,99,1,00,1,00,1,99999,9,00,1,00,1",,,,,"99999,9,09077,1","5,1,003,1,+999,9","3,1519,9",,"SYN060AAXX  16094 08213 42965 00802 11045 21052 39077 48519 55003;",
"08213099999","2010-12-16T12:00:00","4","40.95","-4.1333333","1005.0","SEGOVIA, SP","FM-12","99999","V020","280,1,N,0036,1","22000,1,9,N","010000,1,N,1","-0014,1","-0058,1","99999,9","06,0000,9,1",,,,,"00,1,+99999,9,99,9","00,99,1,00,1,00,1,99999,9,00,1,00,1",,,,,"99999,9,09071,1","8,1,006,1,+999,9","3,1520,9",,"SYN076AAXX  16124 08213 12960 02807 11014 21058 39071 48520 58006 60001 333 5///0;","Q01  00002PRCP06"
"08213099999","2010-12-16T15:00:00","4","40.95","-4.1333333","1005.0","SEGOVIA, SP","FM-12","99999","V020","340,1,N,0021,1","22000,1,9,N","015000,1,N,1","+0007,1","-0062,1","99999,9",,,,,,"00,1,+99999,9,99,9","00,99,1,00,1,00,1,99999,9,00,1,00,1",,,,,"99999,9,09053,1","7,1,018,1,+999,9","3,1508,9",,"SYN060AAXX  16154 08213 42965 03404 10007 21062 39053 48508 57018;",
"08213099999","2010-12-16T18:00:00","4","40.95","-4.1333333","1005.0","SEGOVIA, SP","FM-12","99999","V020","350,1,N,0010,1","22000,1,9,N","015000,1,N,1","-0014,1","-0058,1","99999,9","12,0000,9,1",,,,,"00,1,+99999,9,99,9","00,99,1,00,1,00,1,99999,9,00,1,00,1",,,,"999,M,+0012,1","99999,9,09053,1","4,1,000,1,+999,9","3,1504,9",,"SYN076AAXX  16184 08213 12965 03502 11014 21058 39053 48504 54000 60002 333 10012;","Q01  00002PRCP12"
"08213099999","2010-12-17T06:00:00","4","40.95","-4.1333333","1005.0","SEGOVIA, SP","FM-12","99999","V020","180,1,N,0036,1","22000,1,9,N","020000,1,N,1","-0006,1","-0116,1","99999,9","12,0000,9,1","24,0000,9,1",,,,"00,1,+99999,9,99,9","00,99,1,00,1,00,1,99999,9,00,1,00,1","0510,9","14,9","999,-0110,9","999,N,-0036,1","99999,9,08977,1","6,1,008,1,+999,9","3,1439,9",,"SYN094AAXX  17064 08213 12970 01807 11006 21116 38977 48439 56008 60002 333 21036 34111 55085 70000;","Q01  00002PRCP24Q02  00002PRCP12"
"08213099999","2010-12-17T09:00:00","4","40.95","-4.1333333","1005.0","SEGOVIA, SP","FM-12","99999","V020","220,1,N,0026,1","22000,1,9,N","020000,1,N,1","+0032,1","-0097,1","99999,9",,,,,,"00,1,+99999,9,99,9","00,99,1,00,1,00,1,99999,9,00,1,00,1",,,,,"99999,9,08958,1","6,1,019,1,+999,9","3,1428,9",,"SYN060AAXX  17094 08213 42970 02205 10032 21097 38958 48428 56019;",
"08213099999","2010-12-17T12:00:00","4","40.95","-4.1333333","1005.0","SEGOVIA, SP","FM-12","99999","V020","300,1,N,0036,1","22000,1,9,N","020000,1,N,1","+0042,1","-0088,1","99999,9","06,0000,9,1",,,,,"00,1,+99999,9,99,9","00,99,1,00,1,00,1,99999,9,00,1,00,1",,,,,"99999,9,08938,1","7,1,020,1,+999,9","3,1412,9",,"SYN076AAXX  17124 08213 12970 03007 10042 21088 38938 48412 57020 60001 333 5///0;","Q01  00002PRCP06"
"08213099999","2010-12-17T15:00:00","4","40.95","-4.1333333","1005.0","SEGOVIA, SP","FM-12","99999","V020","280,1,N,0041,1","22000,1,9,N","020000,1,N,1","+0052,1","-0073,1","99999,9",,,,,,,"01,99,1,01,1,00,1,01750,1,04,1,00,1",,,,,"99999,9,08912,1","7,1,026,1,+999,9","3,1389,9",,"SYN066AAXX  17154 08213 42770 12808 10052 21073 38912 48389 57026 81040;",
"08213099999","2010-12-17T18:00:00","4","40.95","-4.1333333","1005.0","SEGOVIA, SP","FM-12","99999","V020","240,1,N,0026,1","22000,1,9,N","020000,1,N,1","+0008,1","-0074,1","99999,9","12,0000,9,1",,,,,,"01,99,1,01,1,00,1,01750,1,04,1,00,1",,,,"999,M,+0064,1","99999,9,08905,1","8,1,007,1,+999,9","3,1377,9",,"SYN082AAXX  17184 08213 12770 12405 10008 21074 38905 48377 58007 60002 81040 333 10064;","Q01  00002PRCP12"
"08213099999","2010-12-18T06:00:00","4","40.95","-4.1333333","1005.0","SEGOVIA, SP","FM-12","99999","V020","080,1,N,0015,1","22000,1,9,N","020000,1,N,1","-0028,1","-0047,1","99999,9","12,0000,9,1","24,0000,9,1",,,,,"01,99,1,01,1,00,1,01750,1,04,1,00,1","0498,9","14,9","999,-0100,9","999,N,-0030,1","99999,9,08874,1","8,1,002,1,+999,9","3,1345,9",,"SYN100AAXX  18064 08213 12770 10803 11028 21047 38874 48345 58002 60002 81040 333 21030 34110 55083 70000;","Q01  00002PRCP24Q02  00002PRCP12"
"08213099999","2010-12-18T09:00:00","4","40.95","-4.1333333","1005.0","SEGOVIA, SP","FM-12","99999","V020","070,1,N,0015,1","22000,1,9,N","020000,1,N,1","-0014,1","-0044,1","99999,9",,,,,,,"01,99,1,01,1,00,1,01750,1,04,1,00,1",,,,,"99999,9,08862,1","6,1,012,1,+999,9","3,1336,9",,"SYN066AAXX  18094 08213 42770 10703 11014 21044 38862 48336 56012 81040;",
"08213099999","2010-12-18T12:00:00","4","40.95","-4.1333333","1005.0","SEGOVIA, SP","FM-12","99999","V020","230,1,N,0036,1","22000,1,9,N","020000,1,N,1","+0096,2","-0067,1","99999,9","06,0000,9,1",,,,,,"01,99,1,01,1,00,1,01750,1,04,1,00,1",,,,,"99999,9,08863,1","3,1,001,1,+999,9","3,1350,9",,"SYN082AAXX  18124 08213 12770 12307 10096 21067 38863 48350 53001 60001 81040 333 5///0;","Q01  00002PRCP06"
"08213099999","2010-12-18T15:00:00","4","40.95","-4.1333333","1005.0","SEGOVIA, SP","FM-12","99999","V020","320,1,N,0010,1","22000,1,9,N","020000,1,N,1","+0092,1","-0051,1","99999,9",,,,,,,"03,99,1,01,1,00,1,01750,1,04,1,01,1",,,,,"99999,9,08852,1","6,1,011,1,+999,9","3,1340,9",,"SYN066AAXX  18154 08213 42770 33202 10092 21051 38852 48340 56011 81041;",
"08213099999","2010-12-18T18:00:00","4","40.95","-4.1333333","1005.0","SEGOVIA, SP","FM-12","99999","V020","080,1,N,0021,1","22000,1,9,N","020000,1,N,1","+0046,1","-0041,1","99999,9","12,0000,9,1",,,,,,"03,99,1,02,1,00,1,01750,1,04,1,01,1",,,,"999,M,+0110,1","99999,9,08852,1","5,1,000,1,+999,9","3,1334,9",,"SYN082AAXX  18184 08213 12770 30804 10046 21041 38852 48334 55000 60002 82041 333 10110;","Q01  00002PRCP12"
"08213099999","2010-12-19T06:00:00","4","40.95","-4.1333333","1005.0","SEGOVIA, SP","FM-12","99999","V020","280,1,N,0021,1","03600,1,9,N","020000,1,N,1","+0008,1","-0002,1","99999,9","12,0000,9,1","24,0000,9,1",,,,,"08,99,1,04,1,05,1,00800,1,04,1,99,9","0450,9","09,9","999,-0060,9","999,N,+0007,1","99999,9,08851,1","5,1,000,1,+999,9","3,1329,9",,"SYN100AAXX  19064 08213 12570 82804 10008 21002 38851 48329 55000 60002 8454/ 333 20007 31106 55075 70000;","Q01  00002PRCP24Q02  00002PRCP12"
"08213099999","2010-12-19T09:00:00","4","40.95","-4.1333333","1005.0","SEGOVIA, SP","FM-12","99999","V020","140,1,N,0021,1","00015,1,9,N","000500,1,N,1","+0012,1","+0012,1","99999,9",,,,"2,1,03,1","2,1,03,1","09,1,+00015,1,99,9","09,99,1,09,1,99,9,99999,9,99,9,99,9",,,,,"99999,9,08874,1","2,1,023,1,+999,9","3,1350,9","45,1","SYN076AAXX  19094 08213 41/05 91404 10012 20012 38874 48350 52023 74522 333 89/00;",
"08213099999","2010-12-19T12:00:00","4","40.95","-4.1333333","1005.0","SEGOVIA, SP","FM-12","99999","V020","300,1,N,0021,1","00015,1,9,N","000800,1,N,1","+0031,1","+0027,1","99999,9","06,0000,9,1",,,"6,1,06,1","2,1,06,1","09,1,+00015,1,99,9","09,99,1,09,1,99,9,99999,9,99,9,99,9",,,,,"99999,9,08895,1","2,1,021,1,+999,9","3,1372,9","45,1","SYN088AAXX  19124 08213 11/08 93004 10031 20027 38895 48372 52021 69901 74562 333 5///0 89/00;","Q01  00002PRCP06"
"08213099999","2010-12-19T15:00:00","4","40.95","-4.1333333","1005.0","SEGOVIA, SP","FM-12","99999","V020","260,1,N,0031,1","22000,1,9,N","015000,1,N,1","+0068,1","+0023,1","99999,9",,,,"6,1,03,1","4,1,03,1",,"02,99,1,02,1,05,1,00800,1,00,1,00,1",,,,,"99999,9,08907,1","2,1,012,1,+999,9","3,1388,9","02,1","SYN072AAXX  19154 08213 41565 22606 10068 20023 38907 48388 52012 70264 82500;",
"08213099999","2010-12-19T18:00:00","4","40.95","-4.1333333","1005.0","SEGOVIA, SP","FM-12","99999","V020","290,1,N,0010,1","00750,1,9,N","008000,1,N,1","+0025,1","+0018,1","99999,9","12,0000,9,1",,,"2,1,06,1","2,1,06,1",,"05,99,1,05,1,05,1,00800,1,00,1,00,1",,,,"999,M,+0079,1","99999,9,08935,1","2,1,028,1,+999,9","3,1407,9","10,1","SYN088AAXX  19184 08213 11558 52902 10025 20018 38935 48407 52028 69902 71022 85500 333 10079;","Q01  00002PRCP12"
"08213099999","2010-12-20T06:00:00","4","40.95","-4.1333333","1005.0","SEGOVIA, SP","FM-12","99999","V020","170,1,N,0026,1","00750,1,9,N","012000,1,N,1","+0028,1","-0003,1","99999,9","12,0000,9,1","24,0000,9,1",,,,,"06,99,1,06,1,05,1,00800,1,00,1,00,1","0222,9","09,9","999,-0070,9","999,N,+0002,1","99999,9,08962,1","5,1,000,1,+999,9","3,1431,9",,"SYN100AAXX  20064 08213 12562 61705 10028 21003 38962 48431 55000 60002 86500 333 20002 31107 55037 70000;","Q01  00002PRCP24Q02  00002PRCP12"
"08213099999","2010-12-20T09:00:00","4","40.95","-4.1333333","1005.0","SEGOVIA, SP","FM-12","99999","V020","180,1,N,0026,1","03600,1,9,N","018000,1,N,1","+0042,1","+0000,1","99999,9",,,,"6,1,03,1","2,1,03,1",,"06,99,1,03,1,05,1,00800,1,03,1,00,1",,,,,"99999,9,08967,1","1,1,005,1,+999,9","3,1438,9","02,1","SYN072AAXX  20094 08213 41568 61805 10042 20000 38967 48438 51005 70262 83530;",
"08213099999","2010-12-20T12:00:00","4","40.95","-4.1333333","1005.0","SEGOVIA, SP","FM-12","99999","V020","230,1,N,0026,1","03600,1,9,N","020000,1,N,1","+0072,1","+0000,1","99999,9","06,0000,9,1",,,"6,1,06,1","2,1,06,1",,"07,99,1,01,1,05,1,00800,1,03,1,00,1",,,,,"99999,9,08965,1","8,1,002,1,+999,9","3,1441,9","02,1","SYN088AAXX  20124 08213 11570 72305 10072 20000 38965 48441 58002 69901 70262 81530 333 5///0;","Q01  00002PRCP06"
"08213099999","2010-12-20T15:00:00","4","40.95","-4.1333333","1005.0","SEGOVIA, SP","FM-12","99999","V020","240,1,N,0021,1","09000,1,9,N","020000,1,N,1","+0082,1","-0008,1","99999,9",,,,,,,"07,99,1,02,1,05,1,00800,1,00,1,05,1",,,,,"99999,9,08952,1","7,1,013,1,+999,9","3,1431,9",,"SYN066AAXX  20154 08213 42570 72404 10082 21008 38952 48431 57013 82505;",
"08213099999","2010-12-20T18:00:00","4","40.95","-4.1333333","1005.0","SEGOVIA, SP","FM-12","99999","V020","010,1,N,0010,1","09000,1,9,N","020000,1,N,1","+0052,1","+0010,1","99999,9","12,0000,9,1",,,,,,"07,99,1,02,1,05,1,00800,1,00,1,05,1",,,,"999,M,+0096,1","99999,9,08940,1","7,1,012,1,+999,9","3,1415,9",,"SYN082AAXX  20184 08213 12570 70102 10052 20010 38940 48415 57012 69902 82505 333 10096;","Q01  00002PRCP12"
"08213099999","2010-12-21T06:00:00","4","40.95","-4.1333333","1005.0","SEGOVIA, SP","FM-12","99999","V020","170,1,N,0051,1","00750,1,9,N","018000,1,N,1","+0106,1","+0047,1","99999,9","12,0020,9,1","24,0023,9,1",,,,,"08,99,1,08,1,05,1,00800,1,99,9,99,9","0210,9","09,9","999,+0000,9","999,N,+0045,1","99999,9,08834,1","7,1,010,1,+999,9","3,1325,9",,"SYN100AAXX  21064 08213 12568 81710 10106 20047 38834 48325 57010 60022 885// 333 20045 31000 55035 70023;",
"08213099999","2010-12-21T09:00:00","4","40.95","-4.1333333","1005.0","SEGOVIA, SP","FM-12","99999","V020","220,1,N,0057,1","00750,1,9,N","008000,1,N,1","+0092,1","+0063,1","99999,9",,,,"6,1,03,1","2,1,03,1",,"08,99,1,08,1,05,1,00800,1,99,9,99,9",,,,,"99999,9,08834,1","5,1,000,1,+999,9","3,1324,9","61,1","SYN072AAXX  21094 08213 41558 82211 10092 20063 38834 48324 55000 76162 885//;",
"08213099999","2010-12-21T12:00:00","4","40.95","-4.1333333","1005.0","SEGOVIA, SP","FM-12","99999","V020","220,1,N,0062,1","00750,1,9,N","020000,1,N,1","+0096,1","+0069,1","99999,9","06,0020,9,1",,,"6,1,06,1","2,1,06,1",,"07,99,1,06,1,05,1,00800,1,07,1,99,9",,,,,"99999,9,08836,1","0,1,002,1,+999,9","3,1326,9","02,1","SYN088AAXX  21124 08213 11570 72212 10096 20069 38836 48326 50002 60021 70262 8657/ 333 50380;",
"08213099999","2010-12-21T15:00:00","4","40.95","-4.1333333","1005.0","SEGOVIA, SP","FM-12","99999","V020","230,1,N,0072,1","03600,1,9,N","020000,1,N,1","+0122,1","+0054,1","99999,9",,,,"6,1,03,1","2,1,03,1",,"05,99,1,03,1,05,1,00800,1,03,1,01,1",,,,,"99999,9,08832,1","8,1,004,1,+999,9","3,1325,9","02,1","SYN072AAXX  21154 08213 41570 52314 10122 20054 38832 48325 58004 70262 83531;",
"08213099999","2010-12-21T18:00:00","4","40.95","-4.1333333","1005.0","SEGOVIA, SP","FM-12","99999","V020","210,1,N,0051,1","22000,1,9,N","018000,1,N,1","+0104,1","+0050,1","99999,9","12,0020,9,1",,,,,,"04,99,1,04,1,05,1,00800,1,00,1,00,1",,,,"999,M,+0122,1","99999,9,08837,1","1,1,005,1,+999,9","3,1328,9",,"SYN082AAXX  21184 08213 12568 42110 10104 20050 38837 48328 51005 60022 84500 333 10122;",
"08213099999","2010-12-22T06:00:00","4","40.95","-4.1333333","1005.0","SEGOVIA, SP","FM-12","99999","V020","240,1,N,0062,1","01200,1,9,N","014000,1,N,1","+0092,1","+0059,1","99999,9","12,0000,9,1","24,0023,9,1",,,,,"07,99,1,07,1,08,1,00800,1,00,1,00,1","0096,9","09,9","999,+0050,9","999,N,+0090,1","99999,9,08799,1","5,1,000,1,+999,9","3,1291,9",,"SYN100AAXX  22064 08213 12564 72412 10092 20059 38799 48291 55000 60002 87800 333 20090 31005 55016 70024;","Q01  00002PRCP12"
"08213099999","2010-12-22T09:00:00","4","40.95","-4.1333333","1005.0","SEGOVIA, SP","FM-12","99999","V020","200,1,N,0051,1","22000,1,9,N","018000,1,N,1","+0078,1","+0019,1","99999,9",,,,"6,1,03,1","2,1,03,1",,"03,99,1,02,1,04,1,00800,1,00,1,01,1",,,,,"99999,9,08798,1","8,1,001,1,+999,9","3,1288,9","01,1","SYN072AAXX  22094 08213 41568 32010 10078 20019 38798 48288 58001 70162 82401;",
"08213099999","2010-12-22T12:00:00","4","40.95","-4.1333333","1005.0","SEGOVIA, SP","FM-12","99999","V020","070,1,N,0021,1","01200,1,9,N","018000,1,N,1","+0094,1","+0029,1","99999,9","06,0000,9,1",,,"6,1,06,1","2,1,06,1",,"07,99,1,07,1,08,1,00800,1,00,1,00,1",,,,,"99999,9,08793,1","8,1,005,1,+999,9","3,1285,9","03,1","SYN088AAXX  22124 08213 11568 70704 10094 20029 38793 48285 58005 69901 70362 87800 333 50100;","Q01  00002PRCP06"
"08213099999","2010-12-22T15:00:00","4","40.95","-4.1333333","1005.0","SEGOVIA, SP","FM-12","99999","V020","280,1,N,0021,1","01200,1,9,N","016000,1,N,1","+0078,1","+0025,1","99999,9",,,,,,,"08,99,1,06,1,08,1,00800,1,02,1,99,9",,,,,"99999,9,08782,1","8,1,011,1,+999,9","3,1273,9",,"SYN066AAXX  22154 08213 42566 82804 10078 20025 38782 48273 58011 8682/;",
"08213099999","2010-12-22T18:00:00","4","40.95","-4.1333333","1005.0","SEGOVIA, SP","FM-12","99999","V020","090,1,N,0010,1","01200,1,9,N","014000,1,N,1","+0062,1","+0030,1","99999,9","12,0003,9,1",,,"6,1,06,1","2,1,06,1",,"07,99,1,07,1,08,1,00800,1,00,1,00,1",,,,"999,M,+0104,1","99999,9,08784,1","3,1,002,1,+999,9","3,1274,9","02,1","SYN088AAXX  22184 08213 11564 70902 10062 20030 38784 48274 53002 69932 70262 87800 333 10104;",
"08213099999","2010-12-23T06:00:00","4","40.95","-4.1333333","1005.0","SEGOVIA, SP","FM-12","99999","V020","020,1,N,0041,1","00750,1,9,N","004000,1,N,1","+0028,1","+0018,1","99999,9","12,0051,9,1","24,0053,9,1",,"6,1,06,1","2,1,06,1",,"08,99,1,05,1,05,1,00800,1,02,1,99,9","0030,9","11,9","999,+0000,9","999,N,+0028,1","99999,9,08830,1","2,1,016,1,+999,9","3,1312,9","63,1","SYN106AAXX  23064 08213 11540 80208 10028 20018 38830 48312 52016 60052 76362 8552/ 333 20028 32000 55005 70053;",
"08213099999","2010-12-23T09:00:00","4","40.95","-4.1333333","1005.0","SEGOVIA, SP","FM-12","99999","V020","340,1,N,0021,1","03600,1,9,N","004000,1,N,1","+0010,1","+0004,1","99999,9",,,,"7,1,03,1","2,1,03,1",,"08,99,1,04,1,05,1,00800,1,02,1,99,9",,,,,"99999,9,08854,1","2,1,024,1,+999,9","3,1332,9","70,1","SYN072AAXX  23094 08213 41540 83404 10010 20004 38854 48332 52024 77072 8452/;",
"08213099999","2010-12-23T12:00:00","4","40.95","-4.1333333","1005.0","SEGOVIA, SP","FM-12","99999","V020","030,1,N,0031,1","03600,1,9,N","010000,1,N,1","+0008,1","+0002,1","99999,9","06,0041,9,1",,,"7,1,06,1","2,1,06,1",,"08,99,1,04,1,05,1,00800,1,02,1,99,9",,,,,"99999,9,08879,1","1,1,025,1,+999,9","3,1354,9","02,1","SYN088AAXX  23124 08213 11560 80306 10008 20002 38879 48354 51025 60041 70272 8452/ 333 50290;",
"08213099999","2010-12-23T15:00:00","4","40.95","-4.1333333","1005.0","SEGOVIA, SP","FM-12","99999","V020","310,1,N,0057,1","03600,1,9,N","004000,1,N,1","+0002,1","-0001,1","99999,9",,,,"7,1,03,1","2,1,03,1",,"08,99,1,04,1,05,1,00800,1,02,1,99,9",,,,,"99999,9,08887,1","3,1,008,1,+999,9","3,1361,9","71,1","SYN072AAXX  23154 08213 41540 83111 10002 21001 38887 48361 53008 77172 8452/;",
"08213099999","2010-12-23T18:00:00","4","40.95","-4.1333333","1005.0","SEGOVIA, SP","FM-12","99999","V020","310,1,N,0103,1","03600,1,9,N","004000,1,N,1","+0004,1","+0001,1","99999,9","12,0071,9,1",,,"7,1,06,1","2,1,06,1",,"08,99,1,04,1,05,1,00800,1,02,1,99,9",,,,"999,M,+0050,1","99999,9,08927,1","2,1,040,1,+999,9","3,1397,9","71,1","SYN088AAXX  23184 08213 11540 83120 10004 20001 38927 48397 52040 60072 77172 8452/ 333 10050;",
"08213099999","2010-12-24T06:00:00","4","40.95","-4.1333333","1005.0","SEGOVIA, SP","FM-12","99999","V020","290,1,N,0021,1","03600,1,9,N","008000,1,N,1","-0024,1","-0032,1","99999,9","12,0000,2,1","24,0066,9,1",,"2,1,06,1","2,1,06,1",,"08,99,1,04,1,07,1,00450,1,02,1,08,1","0000,9","14,9","999,-0070,9","999,N,-0024,1","99999,9,08985,1","1,1,010,1,+999,9","3,1443,9","10,1","SYN106AAXX  24064 08213 11458 82904 11024 21032 38985 48443 51010 60002 71022 84728 333 21024 34107 55000 70066;",
"08213099999","2010-12-24T09:00:00","4","40.95","-4.1333333","1005.0","SEGOVIA, SP","FM-12","99999","V020","240,1,N,0026,1","22000,1,9,N","008000,1,N,1","-0029,1","-0036,1","99999,9",,,,"1,1,03,1","1,1,03,1",,"03,99,1,02,1,08,1,00450,1,00,1,01,1",,,,,"99999,9,08995,1","3,1,010,1,+999,9","3,1451,9","10,1","SYN072AAXX  24094 08213 41458 32405 11029 21036 38995 48451 53010 71011 82801;",
"08213099999","2010-12-24T12:00:00","4","40.95","-4.1333333","1005.0","SEGOVIA, SP","FM-12","99999","V020","320,1,N,0031,1","00900,1,9,N","008000,1,N,1","-0001,1","-0020,1","99999,9","06,0000,9,1",,,"1,1,06,1","1,1,06,1",,"06,99,1,06,1,08,1,00450,1,00,1,00,1",,,,,"99999,9,08998,1","1,1,003,1,+999,9","3,1459,9","10,1","SYN088AAXX  24124 08213 11458 63206 11001 21020 38998 48459 51003 60001 71011 86800 333 5////;","Q01  00002PRCP06"
"08213099999","2010-12-24T15:00:00","4","40.95","-4.1333333","1005.0","SEGOVIA, SP","FM-12","99999","V020","320,1,N,0041,1","01200,1,9,N","010000,1,N,1","+0012,1","-0038,1","99999,9",,,,,,,"06,99,1,06,1,08,1,00800,1,00,1,00,1",,,,,"99999,9,08995,1","6,1,003,1,+999,9","3,1458,9",,"SYN066AAXX  24154 08213 42560 63208 10012 21038 38995 48458 56003 86800;",
"08213099999","2010-12-24T18:00:00","4","40.95","-4.1333333","1005.0","SEGOVIA, SP","FM-12","99999","V020","320,1,N,0031,1","01200,1,9,N","010000,1,N,1","-0002,1","-0036,1","99999,9","12,0000,9,1",,,,,,"06,99,1,06,1,08,1,00800,1,00,1,00,1",,,,"999,M,+0014,1","99999,9,08997,1","3,1,002,1,+999,9","3,1457,9",,"SYN082AAXX  24184 08213 12560 63206 11002 21036 38997 48457 53002 60002 86800 333 10014;","Q01  00002PRCP12"
"08213099999","2010-12-25T06:00:00","4","40.95","-4.1333333","1005.0","SEGOVIA, SP","FM-12","99999","V020","090,1,N,0021,1","22000,1,9,N","010000,1,N,1","-0034,1","-0057,1","99999,9","12,0000,9,1","24,0000,9,1",,,,,"03,99,1,01,1,00,1,01750,1,04,1,08,1","0264,9","14,9","999,-0100,9","999,N,-0040,1","99999,9,09014,1","5,1,000,1,+999,9","3,1467,9",,"SYN100AAXX  25064 08213 12760 30904 11034 21057 39014 48467 55000 60002 81048 333 21040 34110 55044 70000;","Q01  00002PRCP24Q02  00002PRCP12"
"08213099999","2010-12-25T09:00:00","4","40.95","-4.1333333","1005.0","SEGOVIA, SP","FM-12","99999","V020","080,1,N,0010,1","22000,1,9,N","010000,1,N,1","-0030,1","-0052,1","99999,9",,,,,,,"04,99,1,02,1,00,1,01750,1,04,1,08,1",,,,,"99999,9,09021,1","3,1,007,1,+999,9","3,1474,9",,"SYN066AAXX  25094 08213 42760 40802 11030 21052 39021 48474 53007 82048;",
"08213099999","2010-12-25T12:00:00","4","40.95","-4.1333333","1005.0","SEGOVIA, SP","FM-12","99999","V020","060,1,N,0026,1","22000,1,9,N","015000,1,N,1","+0018,1","-0043,1","99999,9","06,0000,9,1",,,,,,"03,99,1,01,1,01,1,00800,1,04,1,01,1",,,,,"99999,9,09026,1","1,1,005,1,+999,9","3,1486,9",,"SYN082AAXX  25124 08213 12565 30605 10018 21043 39026 48486 51005 60001 81141 333 5////;","Q01  00002PRCP06"
"08213099999","2010-12-25T15:00:00","4","40.95","-4.1333333","1005.0","SEGOVIA, SP","FM-12","99999","V020","040,1,N,0041,1","03600,1,9,N","012000,1,N,1","+0009,1","-0043,1","99999,9",,,,,,,"07,99,1,02,1,08,1,00800,1,07,1,08,1",,,,,"99999,9,09025,1","6,1,001,1,+999,9","3,1484,9",,"SYN066AAXX  25154 08213 42562 70408 10009 21043 39025 48484 56001 82878;",
"08213099999","2010-12-25T18:00:00","4","40.95","-4.1333333","1005.0","SEGOVIA, SP","FM-12","99999","V020","040,1,N,0026,1","09000,1,9,N","010000,1,N,1","-0014,1","-0044,1","99999,9","12,0000,9,1",,,,,,"05,99,1,02,1,04,1,00800,1,07,1,01,1",,,,"999,M,+0030,1","99999,9,09035,1","3,1,010,1,+999,9","3,1489,9",,"SYN082AAXX  25184 08213 12560 50405 11014 21044 39035 48489 53010 60002 82471 333 10030;","Q01  00002PRCP12"
"08213099999","2010-12-26T06:00:00","4","40.95","-4.1333333","1005.0","SEGOVIA, SP","FM-12","99999","V020","090,1,N,0010,1","03600,1,9,N","008000,1,N,1","-0076,1","-0085,1","99999,9","12,0000,9,1","24,0000,9,1",,"1,1,06,1","1,1,06,1",,"05,99,1,03,1,07,1,00450,1,07,1,01,1","0300,9","14,9","999,-0140,9","999,N,-0076,1","99999,9,09049,1","6,1,003,1,+999,9","3,1489,9","10,1","SYN106AAXX  26064 08213 11458 50902 11076 21085 39049 48489 56003 60002 71011 83771 333 21076 34114 55050 70000;","Q01  00002PRCP24Q02  00002PRCP12"
"08213099999","2010-12-26T09:00:00","4","40.95","-4.1333333","1005.0","SEGOVIA, SP","FM-12","99999","V020","190,1,N,0015,1","22000,1,9,N","008000,1,N,1","-0060,1","-0068,1","99999,9",,,,"1,1,03,1","1,1,03,1",,"02,99,1,01,1,07,1,00450,1,00,1,01,1",,,,,"99999,9,09057,1","1,1,008,1,+999,9","3,1499,9","10,1","SYN072AAXX  26094 08213 41458 21903 11060 21068 39057 48499 51008 71011 81701;",
"08213099999","2010-12-26T12:00:00","4","40.95","-4.1333333","1005.0","SEGOVIA, SP","FM-12","99999","V020","280,1,N,0031,1","22000,1,9,N","012000,1,N,1","-0009,1","-0060,1","99999,9","06,0000,9,1",,,,,,"03,99,1,01,1,00,1,01750,1,04,1,01,1",,,,,"99999,9,09054,1","8,1,003,1,+999,9","3,1506,9",,"SYN082AAXX  26124 08213 12762 32806 11009 21060 39054 48506 58003 60001 81041 333 5////;","Q01  00002PRCP06"
"08213099999","2010-12-26T15:00:00","4","40.95","-4.1333333","1005.0","SEGOVIA, SP","FM-12","99999","V020","290,1,N,0021,1","22000,1,9,N","015000,1,N,1","+0027,1","-0057,1","99999,9",,,,,,,"06,99,1,01,1,00,1,01750,1,04,1,06,1",,,,,"99999,9,09042,1","8,1,012,1,+999,9","3,1502,9",,"SYN066AAXX  26154 08213 42765 62904 10027 21057 39042 48502 58012 81046;",
"08213099999","2010-12-26T18:00:00","4","40.95","-4.1333333","1005.0","SEGOVIA, SP","FM-12","99999","V020","270,1,N,0026,1","22000,1,9,N","012000,1,N,1","-0022,1","-0065,1","99999,9","12,0000,9,1",,,,,,"03,99,1,01,1,00,1,01750,1,04,1,01,1",,,,"999,M,+0033,1","99999,9,09055,1","1,1,013,1,+999,9","3,1504,9",,"SYN082AAXX  26184 08213 12762 32705 11022 21065 39055 48504 51013 60002 81041 333 10033;","Q01  00002PRCP12"
"08213099999","2010-12-27T06:00:00","4","40.95","-4.1333333","1005.0","SEGOVIA, SP","FM-12","99999","V020","100,1,N,0021,1","22000,1,9,N","014000,1,N,1","+0004,1","-0080,1","99999,9","12,0000,9,1","24,0000,9,1",,,,,"04,99,1,02,1,00,1,01750,1,04,1,01,1","0348,9","14,9","999,-0100,9","999,N,-0027,1","99999,9,09025,1","8,1,007,1,+999,9","3,1483,9",,"SYN100AAXX  27064 08213 12764 41004 10004 21080 39025 48483 58007 60002 82041 333 21027 34110 55058 70000;","Q01  00002PRCP24Q02  00002PRCP12"
"08213099999","2010-12-27T09:00:00","4","40.95","-4.1333333","1005.0","SEGOVIA, SP","FM-12","99999","V020","080,1,N,0021,1","22000,1,9,N","020000,1,N,1","+0034,1","-0068,1","99999,9",,,,,,,"04,99,1,02,1,00,1,01750,1,05,1,01,1",,,,,"99999,9,09028,1","3,1,003,1,+999,9","3,1491,9",,"SYN066AAXX  27094 08213 42770 40804 10034 21068 39028 48491 53003 82051;",
"08213099999","2010-12-27T12:00:00","4","40.95","-4.1333333","1005.0","SEGOVIA, SP","FM-12","99999","V020","130,1,N,0005,1","09000,1,9,N","020000,1,N,1","+0058,1","-0064,1","99999,9","06,0000,9,1",,,,,,"07,99,1,04,1,00,1,01750,1,05,1,04,1",,,,,"99999,9,09033,1","2,1,005,1,+999,9","3,1500,9",,"SYN082AAXX  27124 08213 12770 71301 10058 21064 39033 48500 52005 60001 84054 333 5///0;","Q01  00002PRCP06"
"08213099999","2010-12-27T15:00:00","4","40.95","-4.1333333","1005.0","SEGOVIA, SP","FM-12","99999","V020","999,9,C,0000,1","03600,1,9,N","020000,1,N,1","+0080,1","-0035,1","99999,9",,,,,,,"07,99,1,01,1,04,1,00800,1,07,1,04,1",,,,,"99999,9,09034,1","2,1,001,1,+999,9","3,1505,9",,"SYN066AAXX  27154 08213 42570 70000 10080 21035 39034 48505 52001 81474;",
"08213099999","2010-12-27T18:00:00","4","40.95","-4.1333333","1005.0","SEGOVIA, SP","FM-12","99999","V020","200,1,N,0026,1","03600,1,9,N","018000,1,N,1","+0038,1","-0054,1","99999,9","12,0000,9,1",,,,,,"07,99,1,01,1,04,1,00800,1,07,1,04,1",,,,"999,M,+0102,1","99999,9,09052,1","2,1,018,1,+999,9","3,1513,9",,"SYN082AAXX  27184 08213 12568 72005 10038 21054 39052 48513 52018 60002 81474 333 10102;","Q01  00002PRCP12"
"08213099999","2010-12-28T06:00:00","4","40.95","-4.1333333","1005.0","SEGOVIA, SP","FM-12","99999","V020","100,1,N,0021,1","22000,1,9,N","016000,1,N,1","+0016,1","-0005,1","99999,9","12,0000,9,1","24,0000,9,1",,,,,"04,99,1,02,1,00,1,01750,1,04,1,01,1","0282,9","09,9","999,-0030,9","999,N,+0016,1","99999,9,09045,1","5,1,003,1,+999,9","3,1503,9",,"SYN100AAXX  28064 08213 12766 41004 10016 21005 39045 48503 55003 60002 82041 333 20016 31103 55047 70000;","Q01  00002PRCP24Q02  00002PRCP12"
"08213099999","2010-12-28T09:00:00","4","40.95","-4.1333333","1005.0","SEGOVIA, SP","FM-12","99999","V020","080,1,N,0015,1","09000,1,9,N","020000,1,N,1","+0026,1","+0000,1","99999,9",,,,,,,"07,99,1,01,1,00,1,01750,1,04,1,04,1",,,,,"99999,9,09039,1","8,1,006,1,+999,9","3,1500,9",,"SYN066AAXX  28094 08213 42770 70803 10026 20000 39039 48500 58006 81044;",
"08213099999","2010-12-28T12:00:00","4","40.95","-4.1333333","1005.0","SEGOVIA, SP","FM-12","99999","V020","300,1,N,0015,1","03600,1,9,N","018000,1,N,1","+0086,1","+0032,1","99999,9","06,0000,9,1",,,,,,"07,99,1,01,1,04,1,00800,1,04,1,04,1",,,,,"99999,9,09035,1","7,1,004,1,+999,9","3,1507,9",,"SYN082AAXX  28124 08213 12568 73003 10086 20032 39035 48507 57004 60001 81444 333 5///0;","Q01  00002PRCP06"
"08213099999","2010-12-28T15:00:00","4","40.95","-4.1333333","1005.0","SEGOVIA, SP","FM-12","99999","V020","360,1,N,0015,1","09000,1,9,N","020000,1,N,1","+0106,1","+0052,1","99999,9",,,,,,,"07,99,1,04,1,00,1,01750,1,06,1,08,1",,,,,"99999,9,09012,1","7,1,023,1,+999,9","3,1490,9",,"SYN066AAXX  28154 08213 42770 73603 10106 20052 39012 48490 57023 84068;",
"08213099999","2010-12-28T18:00:00","4","40.95","-4.1333333","1005.0","SEGOVIA, SP","FM-12","99999","V020","190,1,N,0010,1","01200,1,9,N","018000,1,N,1","+0072,1","+0047,1","99999,9","12,0000,9,1",,,,,,"07,99,1,07,1,08,1,00800,1,00,1,00,1",,,,"999,M,+0110,1","99999,9,09014,1","3,1,002,1,+999,9","3,1486,9",,"SYN082AAXX  28184 08213 12568 71902 10072 20047 39014 48486 53002 60002 87800 333 10110;","Q01  00002PRCP12"
"08213099999","2010-12-29T06:00:00","4","40.95","-4.1333333","1005.0","SEGOVIA, SP","FM-12","99999","V020","080,1,N,0021,1","22000,1,9,N","010000,1,N,1","+0060,1","+0017,1","99999,9","12,0000,9,1","24,0000,9,1",,,,,"04,99,1,02,1,00,1,01750,1,03,1,01,1","0294,9","09,9","999,+0010,9","999,N,+0053,1","99999,9,09019,1","4,1,000,1,+999,9","3,1488,9",,"SYN100AAXX  29064 08213 12760 40804 10060 20017 39019 48488 54000 60002 82031 333 20053 31001 55049 70000;","Q01  00002PRCP24Q02  00002PRCP12"
"08213099999","2010-12-29T09:00:00","4","40.95","-4.1333333","1005.0","SEGOVIA, SP","FM-12","99999","V020","100,1,N,0021,1","22000,1,9,N","012000,1,N,1","+0064,1","+0017,1","99999,9",,,,,,,"04,99,1,01,1,04,1,00800,1,03,1,01,1",,,,,"99999,9,09023,1","3,1,004,1,+999,9","3,1492,9",,"SYN066AAXX  29094 08213 42562 41004 10064 20017 39023 48492 53004 81431;",
"08213099999","2010-12-29T12:00:00","4","40.95","-4.1333333","1005.0","SEGOVIA, SP","FM-12","99999","V020","310,1,N,0015,1","03600,1,9,N","010000,1,N,1","+0128,1","+0045,1","99999,9","06,0000,9,1",,,,,,"07,99,1,03,1,05,1,00800,1,03,1,01,1",,,,,"99999,9,09017,1","8,1,006,1,+999,9","3,1498,9",,"SYN082AAXX  29124 08213 12560 73103 10128 20045 39017 48498 58006 60001 83531 333 5////;","Q01  00002PRCP06"
"08213099999","2010-12-29T15:00:00","4","40.95","-4.1333333","1005.0","SEGOVIA, SP","FM-12","99999","V020","200,1,N,0031,1","09000,1,9,N","010000,1,N,1","+0156,1","+0027,1","99999,9",,,,,,,"05,99,1,02,1,05,1,00800,1,03,1,01,1",,,,,"99999,9,08996,1","6,1,021,1,+999,9","3,1483,9",,"SYN066AAXX  29154 08213 42560 52006 10156 20027 38996 48483 56021 82531;",
"08213099999","2010-12-29T18:00:00","4","40.95","-4.1333333","1005.0","SEGOVIA, SP","FM-12","99999","V020","140,1,N,0031,1","09000,1,9,N","010000,1,N,1","+0101,1","+0010,1","99999,9","12,0000,9,1",,,,,,"05,99,1,02,1,05,1,00800,1,03,1,01,1",,,,"999,M,+0164,1","99999,9,08997,1","3,1,001,1,+999,9","3,1475,9",,"SYN082AAXX  29184 08213 12560 51406 10101 20010 38997 48475 53001 60002 82531 333 10164;","Q01  00002PRCP12"
"08213099999","2010-12-30T06:00:00","4","40.95","-4.1333333","1005.0","SEGOVIA, SP","FM-12","99999","V020","100,1,N,0015,1","09000,1,9,N","010000,1,N,1","+0068,1","+0007,1","99999,9","12,0000,9,1","24,0000,9,1",,,,,"06,99,1,04,1,00,1,01750,1,07,1,08,1","0246,9","01,9","999,+0000,9","999,N,+0058,1","99999,9,08965,1","4,1,000,1,+999,9","3,1440,9",,"SYN100AAXX  30064 08213 12760 61003 10068 20007 38965 48440 54000 60002 84078 333 20058 30000 55041 70000;","Q01  00002PRCP24Q02  00002PRCP12"
"08213099999","2010-12-30T09:00:00","4","40.95","-4.1333333","1005.0","SEGOVIA, SP","FM-12","99999","V020","270,1,N,0031,1","03600,1,9,N","010000,1,N,1","+0061,1","+0020,1","99999,9",,,,,,,"07,99,1,03,1,05,1,00800,1,07,1,08,1",,,,,"99999,9,08977,1","3,1,012,1,+999,9","3,1450,9",,"SYN066AAXX  30094 08213 42560 72706 10061 20020 38977 48450 53012 83578;",
"08213099999","2010-12-30T12:00:00","4","40.95","-4.1333333","1005.0","SEGOVIA, SP","FM-12","99999","V020","160,1,N,0062,1","03600,1,9,N","010000,1,N,1","+0093,1","+0026,1","99999,9","06,0000,9,1",,,,,,"07,99,1,03,1,05,1,00800,1,07,1,08,1",,,,,"99999,9,08975,1","8,1,002,1,+999,9","3,1454,9",,"SYN082AAXX  30124 08213 12560 71612 10093 20026 38975 48454 58002 60001 83578 333 50370;","Q01  00002PRCP06"
"08213099999","2010-12-30T15:00:00","4","40.95","-4.1333333","1005.0","SEGOVIA, SP","FM-12","99999","V020","160,1,N,0072,1","03600,1,9,N","010000,1,N,1","+0081,1","+0026,1","99999,9",,,,,,,"07,99,1,03,1,05,1,00800,1,07,1,08,1",,,,,"99999,9,08969,1","8,1,006,1,+999,9","3,1446,9",,"SYN066AAXX  30154 08213 42560 71614 10081 20026 38969 48446 58006 83578;",
"08213099999","2010-12-30T18:00:00","4","40.95","-4.1333333","1005.0","SEGOVIA, SP","FM-12","99999","V020","130,1,N,0051,1","03600,1,9,N","010000,1,N,1","+0081,1","+0019,1","99999,9","12,0000,9,1",,,,,,"07,99,1,03,1,05,1,00800,1,04,1,08,1",,,,"999,M,+0106,1","99999,9,08971,1","3,1,002,1,+999,9","3,1448,9",,"SYN082AAXX  30184 08213 12560 71310 10081 20019 38971 48448 53002 60002 83548 333 10106;","Q01  00002PRCP12"
"08213099999","2010-12-31T06:00:00","4","40.95","-4.1333333","1005.0","SEGOVIA, SP","FM-12","99999","V020","100,1,N,0021,1","00750,1,9,N","015000,1,N,1","+0055,1","+0027,1","99999,9","12,0005,9,1","24,0005,9,1",,"6,1,06,1","2,1,06,1",,"08,99,1,08,1,05,1,00800,1,99,9,99,9","0024,9","09,9","999,-0030,9","999,N,+0045,1","99999,9,08994,1","4,1,000,1,+999,9","3,1465,9","02,1","SYN106AAXX  31064 08213 11565 81004 10055 20027 38994 48465 54000 69962 70262 885// 333 20045 31103 55004 70006;",
"08213099999","2010-12-31T09:00:00","4","40.95","-4.1333333","1005.0","SEGOVIA, SP","FM-12","99999","V020","160,1,N,0021,1","03600,1,9,N","018000,1,N,1","+0074,1","+0038,1","99999,9",,,,,,,"06,99,1,03,1,05,1,00800,1,05,1,00,1",,,,,"99999,9,09004,1","2,1,010,1,+999,9","3,1477,9",,"SYN066AAXX  31094 08213 42568 61604 10074 20038 39004 48477 52010 83550;",
"08213099999","2010-12-31T12:00:00","4","40.95","-4.1333333","1005.0","SEGOVIA, SP","FM-12","99999","V020","230,1,N,0010,1","00750,1,9,N","008000,1,N,1","+0073,1","+0062,1","99999,9","06,9999,9,9",,,"2,1,06,1","2,1,06,1",,"08,99,1,08,1,05,1,00800,1,99,9,99,9",,,,,"99999,9,09012,1","2,1,008,1,+999,9","3,1484,9","61,1","SYN088AAXX  31124 08213 11558 82302 10073 20062 39012 48484 52008 69921 76122 885// 333 50400;","Q01  00002PRCP06Q02  00002PRCP06"
"08213099999","2010-12-31T15:00:00","4","40.95","-4.1333333","1005.0","SEGOVIA, SP","FM-12","99999","V020","150,1,N,0026,1","03600,1,9,N","018000,1,N,1","+0106,1","+0047,1","99999,9",,,,"6,1,03,1","2,1,03,1",,"06,99,1,04,1,05,1,00800,1,03,1,01,1",,,,,"99999,9,09008,1","6,1,004,1,+999,9","3,1486,9","02,1","SYN072AAXX  31154 08213 41568 61505 10106 20047 39008 48486 56004 70262 84531;",
"08213099999","2010-12-31T18:00:00","4","40.95","-4.1333333","1005.0","SEGOVIA, SP","FM-12","99999","V020","140,1,N,0036,1","03600,1,9,N","018000,1,N,1","+0073,1","+0030,1","99999,9","12,0005,9,1",,,,,,"06,99,1,03,1,05,1,00800,1,03,1,01,1",,,,"999,M,+0115,1","99999,9,09014,1","1,1,006,1,+999,9","3,1486,9",,"SYN082AAXX  31184 08213 12568 61407 10073 20030 39014 48486 51006 69952 83531 333 10115;",
