"STATION","DATE","SOURCE","LATITUDE","LONGITUDE","ELEVATION","NAME","REPORT_TYPE","CALL_SIGN","QUALITY_CONTROL","WND","CIG","VIS","TMP","DEW","SLP","AA1","AA2","AJ1","AY1","AY2","GA1","GF1","GJ1","IA1","IA2","KA1","MA1","MD1","MW1","REM","EQD"
"08226099999","2010-01-01T12:00:00","4","40.6666666","-3.1666666","640.0","GUADALAJARA, SP","FM-12","99999","V020","230,1,N,0082,1","01200,1,9,N","010000,1,N,1","+0061,1","+0061,1","09869,1","06,0000,9,1",,,,,,"08,99,1,08,1,07,1,01250,1,00,1,00,1",,,,,"99999,9,09134,1","1,1,005,1,+999,9",,"SYN072AAXX  01124 08226 12660 82316 10061 20061 39134 49869 51005 60001 88700;","Q01  00002PRCP06"
"08226099999","2010-01-02T06:00:00","4","40.6666666","-3.1666666","640.0","GUADALAJARA, SP","FM-12","99999","V020","360,1,N,0010,1","22000,1,9,N","010000,1,N,1","-0005,1","-0005,1","09975,1","12,0000,9,1","24,0000,9,1",,,,,"04,99,1,04,1,00,1,02250,1,07,1,00,1","0000,9","01,9","999,-0030,9","999,N,-0014,1","99999,9,09214,1","2,1,004,1,+999,9",,"SYN106AAXX  02064 08226 12860 43602 11005 21005 39214 49975 52004 60002 84070 333 21014 30103 50054 55000 70000;","Q01  00002PRCP24Q02  00002PRCP12"
"08226099999","2010-01-02T09:00:00","4","40.6666666","-3.1666666","640.0","GUADALAJARA, SP","FM-12","99999","V020","999,9,C,0000,1","02100,1,9,N","010000,1,N,1","+0009,1","+0009,1","10004,1",,,,,,,"08,99,1,08,1,00,1,02250,1,04,1,00,1",,,,,"99999,9,09244,1","2,1,030,1,+999,9",,"SYN066AAXX  02094 08226 42860 80000 10009 20009 39244 40004 52030 88040;",
"08226099999","2010-01-02T12:00:00","4","40.6666666","-3.1666666","640.0","GUADALAJARA, SP","FM-12","99999","V020","010,1,N,0021,1","02100,1,9,N","010000,1,N,1","+0042,1","+0042,1","09999,1","06,0000,9,1",,,,,,"08,99,1,08,1,00,1,02250,1,08,1,00,1",,,,,"99999,9,09249,1","1,1,005,1,+999,9",,"SYN072AAXX  02124 08226 12860 80104 10042 20042 39249 49999 51005 60001 88080;","Q01  00002PRCP06"
"08226099999","2010-01-03T06:00:00","4","40.6666666","-3.1666666","640.0","GUADALAJARA, SP","FM-12","99999","V020","999,9,C,0000,1","01500,1,9,N","010000,1,N,1","+0025,1","+0025,1","09977,1","12,0000,9,1","24,0000,9,1",,,,,"08,99,1,08,1,07,1,01750,1,00,1,00,1","0000,9","01,9","999,-0020,9","999,N,+0000,1","99999,9,09224,1","7,1,010,1,+999,9",,"SYN106AAXX  03064 08226 12760 80000 10025 20025 39224 49977 57010 60002 88700 333 20000 30102 50044 55000 70000;","Q01  00002PRCP24Q02  00002PRCP12"
"08226099999","2010-01-03T09:00:00","4","40.6666666","-3.1666666","640.0","GUADALAJARA, SP","FM-12","99999","V020","999,9,C,0000,1","01500,1,9,N","010000,1,N,1","+0040,1","+0040,1","09973,1",,,,,,,"08,99,1,08,1,07,1,01750,1,00,1,00,1",,,,,"99999,9,09224,1","4,1,000,1,+999,9",,"SYN066AAXX  03094 08226 42760 80000 10040 20040 39224 49973 54000 88700;",
"08226099999","2010-01-03T12:00:00","4","40.6666666","-3.1666666","640.0","GUADALAJARA, SP","FM-12","99999","V020","999,9,C,0000,1","01500,1,9,N","010000,1,N,1","+0067,1","+0067,1","09965,1","06,0000,9,1",,,,,,"08,99,1,08,1,07,1,01750,1,00,1,00,1",,,,,"99999,9,09224,1","4,1,000,1,+999,9",,"SYN072AAXX  03124 08226 12760 80000 10067 20067 39224 49965 54000 60001 88700;","Q01  00002PRCP06"
"08226099999","2010-01-04T06:00:00","4","40.6666666","-3.1666666","640.0","GUADALAJARA, SP","FM-12","99999","V020","350,1,N,0021,1","01500,1,9,N","010000,1,N,1","+0062,1","+0062,1","09886,1","12,0061,9,1","24,0061,9,1",,"2,1,06,1","2,1,06,1",,"08,99,1,08,1,07,1,01750,1,00,1,00,1","0000,9","09,9","999,+0060,9","999,N,+0059,1","99999,9,09150,1","7,1,015,1,+999,9","61,1","SYN112AAXX  04064 08226 11760 83504 10062 20062 39150 49886 57015 60062 76122 88700 333 20059 31006 50044 55000 70060;",
"08226099999","2010-01-04T09:00:00","4","40.6666666","-3.1666666","640.0","GUADALAJARA, SP","FM-12","99999","V020","330,1,N,0021,1","01500,1,9,N","010000,1,N,1","+0067,1","+0067,1","09878,1",,,,,,,"08,99,1,08,1,07,1,01750,1,00,1,00,1",,,,,"99999,9,09144,1","7,1,006,1,+999,9",,"SYN066AAXX  04094 08226 42760 83304 10067 20067 39144 49878 57006 88700;",
"08226099999","2010-01-04T12:00:00","4","40.6666666","-3.1666666","640.0","GUADALAJARA, SP","FM-12","99999","V020","020,1,N,0010,1","01500,1,9,N","010000,1,N,1","+0085,1","+0079,1","09836,1","06,0030,9,1",,,"6,1,06,1","1,1,06,1",,"08,99,1,08,1,07,1,01750,1,00,1,00,1",,,,,"99999,9,09110,1","7,1,034,1,+999,9","61,1","SYN078AAXX  04124 08226 11760 80202 10085 20079 39110 49836 57034 60031 76161 88700;",
"08226099999","2010-01-05T06:00:00","4","40.6666666","-3.1666666","640.0","GUADALAJARA, SP","FM-12","99999","V020","999,9,C,0000,1","01500,1,9,N","010000,1,N,1","+0070,1","+0070,1","09769,1","12,0005,9,1","24,0109,9,1",,,,,"08,99,1,08,1,07,1,01750,1,00,1,00,1","0000,9","09,9","999,+0060,9","999,N,+0070,1","99999,9,09044,1","6,1,004,1,+999,9",,"SYN106AAXX  05064 08226 12760 80000 10070 20070 39044 49769 56004 69952 88700 333 20070 31006 50104 55000 70110;",
"08226099999","2010-01-05T09:00:00","4","40.6666666","-3.1666666","640.0","GUADALAJARA, SP","FM-12","99999","V020","999,9,C,0000,1","01500,1,9,N","010000,1,N,1","+0080,1","+0080,1","09766,1",,,,,,,"08,99,1,08,1,07,1,01750,1,00,1,00,1",,,,,"99999,9,09044,1","4,1,000,1,+999,9",,"SYN066AAXX  05094 08226 42760 80000 10080 20080 39044 49766 54000 88700;",
"08226099999","2010-01-05T12:00:00","4","40.6666666","-3.1666666","640.0","GUADALAJARA, SP","FM-12","99999","V020","010,1,N,0026,1","01500,1,9,N","010000,1,N,1","+0090,1","+0090,1","09785,1","06,0000,9,1",,,,,,"08,99,1,08,1,07,1,01750,1,00,1,00,1",,,,,"99999,9,09064,1","3,1,020,1,+999,9",,"SYN072AAXX  05124 08226 12760 80105 10090 20090 39064 49785 53020 60001 88700;","Q01  00002PRCP06"
"08226099999","2010-01-06T06:00:00","4","40.6666666","-3.1666666","640.0","GUADALAJARA, SP","FM-12","99999","V020","010,1,N,0010,1","01200,1,9,N","010000,1,N,1","+0036,1","+0021,1","09823,1","12,0000,9,1","24,0008,9,1",,,,,"07,99,1,07,1,07,1,01250,1,99,9,99,9","0066,9","11,9","999,+0010,9","999,N,+0028,1","99999,9,09084,1","2,1,002,1,+999,9",,"SYN100AAXX  06064 08226 12660 70102 10036 20021 39084 49823 52002 69902 877// 333 20028 32001 55011 70008;","Q01  00002PRCP12"
"08226099999","2010-01-06T09:00:00","4","40.6666666","-3.1666666","640.0","GUADALAJARA, SP","FM-12","99999","V020","999,9,C,0000,1","01200,1,9,N","010000,1,N,1","+0036,1","+0027,1","09838,1",,,,,,,"07,99,1,07,1,07,1,01250,1,99,9,99,9",,,,,"99999,9,09098,1","3,1,014,1,+999,9",,"SYN066AAXX  06094 08226 42660 70000 10036 20027 39098 49838 53014 877//;",
"08226099999","2010-01-06T12:00:00","4","40.6666666","-3.1666666","640.0","GUADALAJARA, SP","FM-12","99999","V020","210,1,N,0046,1","01200,1,9,N","010000,1,N,1","+0066,1","-0008,1","09837,1","06,0000,9,1",,,,,,"06,99,1,06,1,07,1,01250,1,99,9,99,9",,,,,"99999,9,09104,1","0,1,006,1,+999,9",,"SYN072AAXX  06124 08226 12660 62109 10066 21008 39104 49837 50006 60001 867//;","Q01  00002PRCP06"
"08226099999","2010-01-07T06:00:00","4","40.6666666","-3.1666666","640.0","GUADALAJARA, SP","FM-12","99999","V020","080,1,N,0031,1","01200,1,9,N","010000,1,N,1","+0022,1","+0022,1","09782,1","12,0030,9,1","24,0030,9,1",,"6,1,06,1","2,1,06,1",,"08,99,1,08,1,07,1,01250,1,99,9,99,9","0102,9","11,9","999,+0020,9","999,N,+0022,1","99999,9,09043,1","7,1,013,1,+999,9","63,1","SYN106AAXX  07064 08226 11660 80806 10022 20022 39043 49782 57013 60032 76362 887// 333 20022 32002 55017 70031;",
"08226099999","2010-01-07T09:00:00","4","40.6666666","-3.1666666","640.0","GUADALAJARA, SP","FM-12","99999","V020","360,1,N,0041,1","01200,1,9,N","010000,1,N,1","+0014,1","+0014,1","09777,1",,,,"6,1,03,1","2,1,03,1",,"08,99,1,08,1,07,1,01250,1,99,9,99,9",,,,,"99999,9,09036,1","8,1,007,1,+999,9","61,1","SYN072AAXX  07094 08226 41660 83608 10014 20014 39036 49777 58007 76162 887//;",
"08226099999","2010-01-07T12:00:00","4","40.6666666","-3.1666666","640.0","GUADALAJARA, SP","FM-12","99999","V020","360,1,N,0057,1","01200,1,9,N","005000,1,N,1","+0006,1","+0006,1","09788,1","06,0030,9,1",,,"7,1,06,1","6,1,06,1",,"08,99,1,08,1,07,1,01250,1,99,9,99,9",,,,,"99999,9,09044,1","3,1,008,1,+999,9","73,1","SYN078AAXX  07124 08226 11650 83611 10006 20006 39044 49788 53008 60031 77376 887//;",
"08226099999","2010-01-08T06:00:00","4","40.6666666","-3.1666666","640.0","GUADALAJARA, SP","FM-12","99999","V020","350,1,N,0057,1","22000,1,9,N","010000,1,N,1","-0007,1","-0051,1","09823,1","12,0000,9,1","24,0046,9,1",,,,,"02,99,1,00,1,00,1,99999,9,00,1,01,1","0000,9","11,9","999,-0020,9","999,N,-0010,1","99999,9,09072,1","2,1,008,1,+999,9",,"SYN100AAXX  08064 08226 12860 23511 11007 21051 39072 49823 52008 60002 80001 333 21010 32102 55000 70046;","Q01+022502SCOLCBQ02  00002PRCP12"
"08226099999","2010-01-08T09:00:00","4","40.6666666","-3.1666666","640.0","GUADALAJARA, SP","FM-12","99999","V020","340,1,N,0051,1","22000,1,9,N","010000,1,N,1","-0004,1","-0060,1","09846,1",,,,,,,"01,99,1,00,1,00,1,99999,9,00,1,01,1",,,,,"99999,9,09094,1","2,1,022,1,+999,9",,"SYN066AAXX  08094 08226 42860 13410 11004 21060 39094 49846 52022 80001;","Q01+022502SCOLCB"
"08226099999","2010-01-08T12:00:00","4","40.6666666","-3.1666666","640.0","GUADALAJARA, SP","FM-12","99999","V020","350,1,N,0103,1","22000,1,9,N","010000,1,N,1","+0020,1","-0031,1","09850,1","06,0000,9,1",,,,,,"03,99,1,01,1,07,1,01750,1,00,1,01,1",,,,,"99999,9,09104,1","2,1,010,1,+999,9",,"SYN072AAXX  08124 08226 12760 33520 10020 21031 39104 49850 52010 60001 81701;","Q01  00002PRCP06"
"08226099999","2010-01-09T06:00:00","4","40.6666666","-3.1666666","640.0","GUADALAJARA, SP","FM-12","99999","V020","310,1,N,0026,1","22000,1,9,N","010000,1,N,1","-0030,1","-0070,1","09929,1","12,0000,9,1","24,0000,9,1",,,,,"01,99,1,01,1,07,1,01750,1,00,1,00,1","0492,9","14,9","999,+0040,9","999,N,-0030,1","99999,9,09164,1","2,1,002,1,+999,9",,"SYN100AAXX  09064 08226 12760 13105 11030 21070 39164 49929 52002 60002 81700 333 21030 34004 55082 70000;","Q01  00002PRCP24Q02  00002PRCP12"
"08226099999","2010-01-09T09:00:00","4","40.6666666","-3.1666666","640.0","GUADALAJARA, SP","FM-12","99999","V020","310,1,N,0031,1","22000,1,9,N","010000,1,N,1","-0006,1","-0063,1","09933,1",,,,,,,"02,99,1,02,1,07,1,01750,1,00,1,00,1",,,,,"99999,9,09174,1","2,1,010,1,+999,9",,"SYN066AAXX  09094 08226 42760 23106 11006 21063 39174 49933 52010 82700;",
"08226099999","2010-01-09T12:00:00","4","40.6666666","-3.1666666","640.0","GUADALAJARA, SP","FM-12","99999","V020","290,1,N,0041,1","01500,1,9,N","010000,1,N,1","+0016,1","-0062,1","09935,1","06,0000,9,1",,,,,,"06,99,1,06,1,07,1,01750,1,00,1,00,1",,,,,"99999,9,09182,1","2,1,008,1,+999,9",,"SYN072AAXX  09124 08226 12760 62908 10016 21062 39182 49935 52008 60001 86700;","Q01  00002PRCP06"
"08226099999","2010-01-10T06:00:00","4","40.6666666","-3.1666666","640.0","GUADALAJARA, SP","FM-12","99999","V020","999,9,C,0000,1","22000,1,9,N","010000,1,N,1","-0069,1","-0077,1","09983,1","12,0000,9,1","24,0000,9,1",,,,"00,1,+99999,9,99,9","00,99,1,00,1,00,1,99999,9,00,1,00,1","0480,9","14,9","999,-0080,9","999,N,-0069,1","99999,9,09203,1","5,1,001,1,+999,9",,"SYN094AAXX  10064 08226 12960 00000 11069 21077 39203 49983 55001 60002 333 21069 34108 55080 70000;","Q01  00002PRCP24Q02  00002PRCP12"
"08226099999","2010-01-10T09:00:00","4","40.6666666","-3.1666666","640.0","GUADALAJARA, SP","FM-12","99999","V020","360,1,N,0031,1","22000,1,9,N","010000,1,N,1","-0064,1","-0075,1","09972,1",,,,,,,"02,99,1,00,1,00,1,99999,9,00,1,08,1",,,,,"99999,9,09194,1","8,1,009,1,+999,9",,"SYN066AAXX  10094 08226 42860 23606 11064 21075 39194 49972 58009 80008;","Q01+022502SCOLCB"
"08226099999","2010-01-10T12:00:00","4","40.6666666","-3.1666666","640.0","GUADALAJARA, SP","FM-12","99999","V020","999,9,C,0000,1","99999,9,9,N","010000,1,N,1","-0014,1","-0052,1","09957,1","06,0000,9,1",,,,,,"07,99,1,00,1,00,1,99999,9,00,1,08,1",,,,,"99999,9,09194,1","0,1,000,1,+999,9",,"SYN072AAXX  10124 08226 12860 70000 11014 21052 39194 49957 50000 60001 80008;","Q01+022502SCOLCBQ02  00002PRCP06"
"08226099999","2010-01-12T06:00:00","4","40.6666666","-3.1666666","640.0","GUADALAJARA, SP","FM-12","99999","V020","999,9,C,0000,1","00780,1,9,N","000800,1,N,1","-0001,1","-0001,1","09983,1","12,0000,9,1","24,0000,9,1","0005,9,1,999999,9,9","4,1,06,1","4,1,06,1","09,1,+00780,1,99,9","09,99,1,09,1,99,9,99999,9,99,9,99,9","0414,9","30,9","999,-0010,9","999,N,-0005,1","99999,9,09222,1","7,1,012,1,+999,9","45,1","SYN112AAXX  12064 08226 11/08 90000 11001 21001 39222 49983 57012 60002 74544 333 21005 3/101 42005 55069 70000 89/26;","Q01  00002PRCP24Q02  00002PRCP12"
"08226099999","2010-01-12T09:00:00","4","40.6666666","-3.1666666","640.0","GUADALAJARA, SP","FM-12","99999","V020","999,9,C,0000,1","00780,1,9,N","000800,1,N,1","+0000,1","+0000,1","09963,1",,,,"6,1,03,1","4,1,03,1","09,1,+00780,1,99,9","09,99,1,09,1,99,9,99999,9,99,9,99,9",,,,,"99999,9,09204,1","7,1,018,1,+999,9","61,1","SYN076AAXX  12094 08226 41/08 90000 10000 20000 39204 49963 57018 76164 333 89/26;",
"08226099999","2010-01-12T12:00:00","4","40.6666666","-3.1666666","640.0","GUADALAJARA, SP","FM-12","99999","V020","350,1,N,0031,1","00780,1,9,N","000800,1,N,1","+0004,1","+0004,1","09923,1","06,0061,9,1",,,"6,1,06,1","4,1,06,1","09,1,+00780,1,99,9","09,99,1,09,1,99,9,99999,9,99,9,99,9",,,,,"99999,9,09168,1","7,1,036,1,+999,9","63,1","SYN082AAXX  12124 08226 11/08 93506 10004 20004 39168 49923 57036 60061 76364 333 89/26;",
"08226099999","2010-01-13T09:00:00","4","40.6666666","-3.1666666","640.0","GUADALAJARA, SP","FM-12","99999","V020","999,9,C,0000,1","01500,1,9,N","010000,1,N,1","+0023,1","+0023,1","09945,1",,,,,,,"08,99,1,08,1,07,1,01750,1,00,1,00,1",,,,,"99999,9,09194,1","1,1,010,1,+999,9",,"SYN066AAXX  13094 08226 42760 80000 10023 20023 39194 49945 51010 88700;",
"08226099999","2010-01-13T12:00:00","4","40.6666666","-3.1666666","640.0","GUADALAJARA, SP","FM-12","99999","V020","180,1,N,0031,1","01500,1,9,N","010000,1,N,1","+0050,1","+0050,1","09937,1","06,0005,9,1",,,,,,"08,99,1,08,1,07,1,01750,1,00,1,00,1",,,,,"99999,9,09194,1","4,1,000,1,+999,9",,"SYN072AAXX  13124 08226 12760 81806 10050 20050 39194 49937 54000 69951 88700;",
"08226099999","2010-01-15T06:00:00","4","40.6666666","-3.1666666","640.0","GUADALAJARA, SP","FM-12","99999","V020","170,1,N,0021,1","22000,1,9,N","010000,1,N,1","+0005,1","+0005,1","10026,1","12,0000,9,1","24,0000,9,1",,,,"00,1,+99999,9,99,9","00,99,1,00,1,00,1,99999,9,00,1,00,1","0048,9","01,9","999,-0010,9","999,N,+0005,1","99999,9,09264,1","2,1,020,1,+999,9",,"SYN100AAXX  15064 08226 12960 01704 10005 20005 39264 40026 52020 60002 333 20005 30101 50084 55008 70000;","Q01  00002PRCP24Q02  00002PRCP12"
"08226099999","2010-01-15T09:00:00","4","40.6666666","-3.1666666","640.0","GUADALAJARA, SP","FM-12","99999","V020","360,1,N,0010,1","02100,1,9,N","010000,1,N,1","+0006,1","+0006,1","10037,1",,,,,,,"05,99,1,05,1,00,1,02250,1,05,1,00,1",,,,,"99999,9,09274,1","2,1,010,1,+999,9",,"SYN066AAXX  15094 08226 42860 53602 10006 20006 39274 40037 52010 85050;",
"08226099999","2010-01-15T12:00:00","4","40.6666666","-3.1666666","640.0","GUADALAJARA, SP","FM-12","99999","V020","999,9,C,0000,1","02100,1,9,N","010000,1,N,1","+0073,1","+0067,1","10028,1","06,0000,9,1",,,,,,"05,99,1,05,1,00,1,02250,1,04,1,00,1",,,,,"99999,9,09284,1","1,1,010,1,+999,9",,"SYN072AAXX  15124 08226 12860 50000 10073 20067 39284 40028 51010 60001 85040;","Q01  00002PRCP06"
"08226099999","2010-01-16T06:00:00","4","40.6666666","-3.1666666","640.0","GUADALAJARA, SP","FM-12","99999","V020","010,1,N,0015,1","02100,1,9,N","010000,1,N,1","+0030,1","+0030,1","09997,1","12,0000,9,1","24,0000,9,1",,,,,"06,99,1,06,1,00,1,02250,1,04,1,00,1","0276,9","01,9","999,+0020,9","999,N,+0022,1","99999,9,09244,1","8,1,010,1,+999,9",,"SYN106AAXX  16064 08226 12860 60103 10030 20030 39244 49997 58010 60002 86040 333 20022 30002 50104 55046 70000;","Q01  00002PRCP24Q02  00002PRCP12"
"08226099999","2010-01-16T09:00:00","4","40.6666666","-3.1666666","640.0","GUADALAJARA, SP","FM-12","99999","V020","999,9,C,0000,1","02100,1,9,N","010000,1,N,1","+0040,1","+0040,1","10005,1",,,,,,,"06,99,1,06,1,00,1,02250,1,04,1,00,1",,,,,"99999,9,09254,1","3,1,010,1,+999,9",,"SYN066AAXX  16094 08226 42860 60000 10040 20040 39254 40005 53010 86040;",
"08226099999","2010-01-16T12:00:00","4","40.6666666","-3.1666666","640.0","GUADALAJARA, SP","FM-12","99999","V020","999,9,C,0000,1","02100,1,9,N","010000,1,N,1","+0067,1","+0052,1","09997,1","06,0000,9,1",,,,,,"08,99,1,08,1,00,1,02250,1,07,1,00,1",,,,,"99999,9,09254,1","4,1,000,1,+999,9",,"SYN072AAXX  16124 08226 12860 80000 10067 20052 39254 49997 54000 60001 88070;","Q01  00002PRCP06"
"08226099999","2010-01-17T06:00:00","4","40.6666666","-3.1666666","640.0","GUADALAJARA, SP","FM-12","99999","V020","999,9,C,0000,1","01500,1,9,N","010000,1,N,1","+0065,1","+0065,1","09993,1","12,0000,9,1","24,0000,9,1",,,,,"08,99,1,08,1,06,1,01750,1,00,1,00,1","0000,9","09,9","999,+0060,9","999,N,+0065,1","99999,9,09250,1","4,1,000,1,+999,9",,"SYN106AAXX  17064 08226 12760 80000 10065 20065 39250 49993 54000 60002 88600 333 20065 31006 50064 55000 70000;","Q01  00002PRCP24Q02  00002PRCP12"
"08226099999","2010-01-17T09:00:00","4","40.6666666","-3.1666666","640.0","GUADALAJARA, SP","FM-12","99999","V020","020,1,N,0010,1","01500,1,9,N","010000,1,N,1","+0067,1","+0067,1","09998,1",,,,"5,1,03,1","2,1,03,1",,"08,99,1,08,1,07,1,01750,1,00,1,00,1",,,,,"99999,9,09255,1","3,1,005,1,+999,9","02,1","SYN072AAXX  17094 08226 41760 80202 10067 20067 39255 49998 53005 70252 88700;",
"08226099999","2010-01-17T12:00:00","4","40.6666666","-3.1666666","640.0","GUADALAJARA, SP","FM-12","99999","V020","999,9,C,0000,1","01500,1,9,N","010000,1,N,1","+0080,1","+0080,1","10004,1","06,0020,9,1",,,"5,1,06,1","2,1,06,1",,"08,99,1,08,1,06,1,01750,1,00,1,00,1",,,,,"99999,9,09264,1","1,1,009,1,+999,9","50,1","SYN078AAXX  17124 08226 11760 80000 10080 20080 39264 40004 51009 60021 75052 88600;",
"08226099999","2010-01-19T06:00:00","4","40.6666666","-3.1666666","640.0","GUADALAJARA, SP","FM-12","99999","V020","999,9,C,0000,1","01500,1,9,N","010000,1,N,1","+0087,1","+0087,1","09948,1","12,0003,9,1","24,0003,9,1",,"2,1,06,1","2,1,06,1",,"08,99,1,08,1,07,1,01750,1,00,1,00,1","0246,9","09,9","999,+0080,9","999,N,+0087,1","99999,9,09214,1","7,1,010,1,+999,9","51,1","SYN112AAXX  19064 08226 11760 80000 10087 20087 39214 49948 57010 69932 75122 88700 333 20087 31008 50124 55041 70003;",
"08226099999","2010-01-19T09:00:00","4","40.6666666","-3.1666666","640.0","GUADALAJARA, SP","FM-12","99999","V020","999,9,C,0000,1","01500,1,9,N","010000,1,N,1","+0090,1","+0090,1","09958,1",,,,,,,"08,99,1,08,1,06,1,01750,1,00,1,00,1",,,,,"99999,9,09224,1","3,1,010,1,+999,9",,"SYN066AAXX  19094 08226 42760 80000 10090 20090 39224 49958 53010 88600;",
"08226099999","2010-01-19T12:00:00","4","40.6666666","-3.1666666","640.0","GUADALAJARA, SP","FM-12","99999","V020","200,1,N,0021,1","01500,1,9,N","010000,1,N,1","+0100,1","+0100,1","09944,1","06,0020,9,1",,,"2,1,06,1","2,1,06,1",,"08,99,1,08,1,07,1,01750,1,00,1,00,1",,,,,"99999,9,09214,1","8,1,010,1,+999,9","50,1","SYN078AAXX  19124 08226 11760 82004 10100 20100 39214 49944 58010 60021 75022 88700;",
"08226099999","2010-01-20T06:00:00","4","40.6666666","-3.1666666","640.0","GUADALAJARA, SP","FM-12","99999","V020","120,1,N,0005,1","01200,1,9,N","008000,1,N,1","+0026,1","+0026,1","09975,1","12,0005,9,1","24,0020,9,1",,"5,1,06,1","4,1,06,1",,"08,99,1,08,1,07,1,01250,1,99,9,99,9","0000,9","09,9","999,+0000,9","999,N,+0009,1","99999,9,09222,1","3,1,008,1,+999,9","40,1","SYN106AAXX  20064 08226 11658 81201 10026 20026 39222 49975 53008 69952 74054 887// 333 20009 31100 55000 70021;",
"08226099999","2010-01-20T09:00:00","4","40.6666666","-3.1666666","640.0","GUADALAJARA, SP","FM-12","99999","V020","130,1,N,0010,1","01200,1,9,N","005000,1,N,1","+0049,1","+0049,1","09979,1",,,,"5,1,03,1","2,1,03,1",,"08,99,1,08,1,07,1,01250,1,99,9,99,9",,,,,"99999,9,09232,1","2,1,010,1,+999,9","51,1","SYN072AAXX  20094 08226 41650 81302 10049 20049 39232 49979 52010 75152 887//;",
"08226099999","2010-01-20T12:00:00","4","40.6666666","-3.1666666","640.0","GUADALAJARA, SP","FM-12","99999","V020","270,1,N,0010,1","01200,1,9,N","008000,1,N,1","+0076,1","+0076,1","09973,1","06,0000,2,1",,,"5,1,06,1","4,1,06,1",,"08,99,1,08,1,07,1,01250,1,99,9,99,9",,,,,"99999,9,09234,1","2,1,002,1,+999,9","10,1","SYN078AAXX  20124 08226 11658 82702 10076 20076 39234 49973 52002 69911 71054 887//;",
"08226099999","2010-01-21T06:00:00","4","40.6666666","-3.1666666","640.0","GUADALAJARA, SP","FM-12","99999","V020","999,9,C,0000,1","22000,1,9,N","010000,1,N,1","-0009,1","-0009,1","10009,1","12,0000,9,1","24,0000,2,1",,,,"00,1,+99999,9,99,9","00,99,1,00,1,00,1,99999,9,00,1,00,1","0282,9","14,9","999,+0030,9","999,N,-0009,1","99999,9,09244,1","0,1,000,1,+999,9",,"SYN094AAXX  21064 08226 12960 00000 11009 21009 39244 40009 50000 60002 333 21009 34003 55047 79999;","Q01  00002PRCP12"
"08226099999","2010-01-21T09:00:00","4","40.6666666","-3.1666666","640.0","GUADALAJARA, SP","FM-12","99999","V020","999,9,C,0000,1","22000,1,9,N","010000,1,N,1","+0013,1","+0013,1","10012,1",,,,,,,"04,99,1,00,1,00,1,99999,9,00,1,01,1",,,,,"99999,9,09253,1","2,1,009,1,+999,9",,"SYN066AAXX  21094 08226 42860 40000 10013 20013 39253 40012 52009 80001;","Q01+022502SCOLCB"
"08226099999","2010-01-21T12:00:00","4","40.6666666","-3.1666666","640.0","GUADALAJARA, SP","FM-12","99999","V020","999,9,C,0000,1","22000,1,9,N","010000,1,N,1","+0080,1","+0044,1","09985,1","06,0000,9,1",,,,,,"04,99,1,01,1,00,1,01750,1,08,1,01,1",,,,,"99999,9,09246,1","8,1,007,1,+999,9",,"SYN072AAXX  21124 08226 12760 40000 10080 20044 39246 49985 58007 60001 81081;","Q01  00002PRCP06"
"08226099999","2010-01-22T06:00:00","4","40.6666666","-3.1666666","640.0","GUADALAJARA, SP","FM-12","99999","V020","999,9,C,0000,1","03600,1,9,N","010000,1,N,1","+0006,1","+0006,1","10000,1","12,0000,9,1","24,0000,9,1",,,,,"06,99,1,02,1,07,1,01250,1,08,1,05,1","0324,9","09,9","999,-0020,9","999,N,-0007,1","99999,9,09240,1","7,1,005,1,+999,9",,"SYN100AAXX  22064 08226 12660 60000 10006 20006 39240 40000 57005 60002 82785 333 21007 31102 55054 70000;","Q01  00002PRCP24Q02  00002PRCP12"
"08226099999","2010-01-22T09:00:00","4","40.6666666","-3.1666666","640.0","GUADALAJARA, SP","FM-12","99999","V020","999,9,C,0000,1","03600,1,9,N","010000,1,N,1","+0022,1","+0022,1","09995,1",,,,,,,"06,99,1,04,1,07,1,01250,1,08,1,05,1",,,,,"99999,9,09240,1","4,1,000,1,+999,9",,"SYN066AAXX  22094 08226 42660 60000 10022 20022 39240 49995 54000 84785;",
"08226099999","2010-01-22T12:00:00","4","40.6666666","-3.1666666","640.0","GUADALAJARA, SP","FM-12","99999","V020","999,9,C,0000,1","03600,1,9,N","010000,1,N,1","+0064,1","+0046,1","09977,1","06,0000,9,1",,,,,,"06,99,1,02,1,07,1,01250,1,08,1,05,1",,,,,"99999,9,09234,1","8,1,006,1,+999,9",,"SYN072AAXX  22124 08226 12660 60000 10064 20046 39234 49977 58006 60001 82785;","Q01  00002PRCP06"
"08226099999","2010-01-23T06:00:00","4","40.6666666","-3.1666666","640.0","GUADALAJARA, SP","FM-12","99999","V020","070,1,N,0031,1","01200,1,9,N","008000,1,N,1","+0064,1","+0064,1","09922,1","12,0003,9,1","24,0003,9,1",,"6,1,06,1","2,1,06,1",,"08,99,1,08,1,07,1,01250,1,99,9,99,9","0324,9","09,9","999,+0050,9","999,N,+0055,1","99999,9,09184,1","7,1,014,1,+999,9","61,1","SYN106AAXX  23064 08226 11658 80706 10064 20064 39184 49922 57014 69932 76162 887// 333 20055 31005 55054 70003;",
"08226099999","2010-01-23T09:00:00","4","40.6666666","-3.1666666","640.0","GUADALAJARA, SP","FM-12","99999","V020","999,9,C,0000,1","01200,1,9,N","010000,1,N,1","+0070,1","+0061,1","09922,1",,,,"6,1,03,1","2,1,03,1",,"07,99,1,07,1,07,1,01250,1,99,9,99,9",,,,,"99999,9,09185,1","3,1,001,1,+999,9","21,1","SYN072AAXX  23094 08226 41660 70000 10070 20061 39185 49922 53001 72162 877//;",
"08226099999","2010-01-23T12:00:00","4","40.6666666","-3.1666666","640.0","GUADALAJARA, SP","FM-12","99999","V020","320,1,N,0010,1","22000,1,9,N","010000,1,N,1","+0106,1","+0062,1","09920,1","06,0010,9,1",,,"6,1,06,1","1,1,06,1",,"02,99,1,02,1,07,1,01750,1,00,1,00,1",,,,,"99999,9,09192,1","2,1,007,1,+999,9","01,1","SYN078AAXX  23124 08226 11760 23202 10106 20062 39192 49920 52007 60011 70161 82700;",
"08226099999","2010-01-24T06:00:00","4","40.6666666","-3.1666666","640.0","GUADALAJARA, SP","FM-12","99999","V020","340,1,N,0021,1","01500,1,9,N","010000,1,N,1","+0025,1","+0025,1","09960,1","12,0000,9,1","24,0010,9,1",,,,,"08,99,1,08,1,07,1,01750,1,99,9,99,9","0132,9","09,9","999,+0030,9","999,N,+0023,1","99999,9,09208,1","2,1,008,1,+999,9",,"SYN100AAXX  24064 08226 12760 83404 10025 20025 39208 49960 52008 60002 887// 333 20023 31003 55022 70011;","Q01  00002PRCP12"
"08226099999","2010-01-24T09:00:00","4","40.6666666","-3.1666666","640.0","GUADALAJARA, SP","FM-12","99999","V020","999,9,C,0000,1","01500,1,9,N","010000,1,N,1","+0037,1","+0037,1","09976,1",,,,,,,"08,99,1,08,1,07,1,01750,1,99,9,99,9",,,,,"99999,9,09226,1","2,1,018,1,+999,9",,"SYN066AAXX  24094 08226 42760 80000 10037 20037 39226 49976 52018 887//;",
"08226099999","2010-01-24T12:00:00","4","40.6666666","-3.1666666","640.0","GUADALAJARA, SP","FM-12","99999","V020","020,1,N,0010,1","09000,1,9,N","010000,1,N,1","+0080,1","+0046,1","09972,1","06,0000,9,1",,,,,,"05,99,1,02,1,07,1,01750,1,08,1,01,1",,,,,"99999,9,09234,1","1,1,008,1,+999,9",,"SYN072AAXX  24124 08226 12760 50202 10080 20046 39234 49972 51008 60001 82781;","Q01  00002PRCP06"
"08226099999","2010-01-25T06:00:00","4","40.6666666","-3.1666666","640.0","GUADALAJARA, SP","FM-12","99999","V020","350,1,N,0021,1","22000,1,9,N","010000,1,N,1","-0001,1","-0004,1","10013,1","12,0000,9,1","24,0000,9,1",,,,"00,1,+99999,9,99,9","00,99,1,00,1,00,1,99999,9,00,1,00,1","0192,9","09,9","999,-0020,9","999,N,-0001,1","99999,9,09250,1","7,1,002,1,+999,9",,"SYN094AAXX  25064 08226 12960 03504 11001 21004 39250 40013 57002 60002 333 21001 31102 55032 70000;","Q01  00002PRCP24Q02  00002PRCP12"
"08226099999","2010-01-25T09:00:00","4","40.6666666","-3.1666666","640.0","GUADALAJARA, SP","FM-12","99999","V020","340,1,N,0031,1","22000,1,9,N","010000,1,N,1","+0020,1","-0001,1","10007,1",,,,,,"00,1,+99999,9,99,9","00,99,1,00,1,00,1,99999,9,00,1,00,1",,,,,"99999,9,09250,1","4,1,000,1,+999,9",,"SYN060AAXX  25094 08226 42960 03406 10020 21001 39250 40007 54000;",
"08226099999","2010-01-25T12:00:00","4","40.6666666","-3.1666666","640.0","GUADALAJARA, SP","FM-12","99999","V020","360,1,N,0051,1","22000,1,9,N","010000,1,N,1","+0070,1","-0012,1","09987,1","06,0000,9,1",,,,,"00,1,+99999,9,99,9","00,99,1,00,1,00,1,99999,9,00,1,00,1",,,,,"99999,9,09244,1","7,1,006,1,+999,9",,"SYN066AAXX  25124 08226 12960 03610 10070 21012 39244 49987 57006 60001;","Q01  00002PRCP06"
"08226099999","2010-01-26T06:00:00","4","40.6666666","-3.1666666","640.0","GUADALAJARA, SP","FM-12","99999","V020","360,1,N,0046,1","22000,1,9,N","010000,1,N,1","+0002,1","-0009,1","09978,1","12,0020,9,1","24,0020,9,1","9999,2,9,999999,9,9","7,1,06,1","7,1,06,1","00,1,+99999,9,99,9","00,99,1,00,1,00,1,99999,9,00,1,00,1","0492,9","17,9","999,+0000,9","999,N,-0001,1","99999,9,09218,1","7,1,002,1,+999,9","02,1","SYN106AAXX  26064 08226 11960 03609 10002 21009 39218 49978 57002 60022 70277 333 21001 3/100 40998 55082 70021;","Q01  09982SNDP  "
"08226099999","2010-01-26T09:00:00","4","40.6666666","-3.1666666","640.0","GUADALAJARA, SP","FM-12","99999","V020","350,1,N,0010,1","01200,1,9,N","010000,1,N,1","+0012,1","-0015,1","09994,1",,,,,,,"07,99,1,07,1,07,1,01250,1,99,9,99,9",,,,,"99999,9,09236,1","2,1,018,1,+999,9",,"SYN066AAXX  26094 08226 42660 73502 10012 21015 39236 49994 52018 877//;",
"08226099999","2010-01-26T12:00:00","4","40.6666666","-3.1666666","640.0","GUADALAJARA, SP","FM-12","99999","V020","030,1,N,0077,1","22000,1,9,N","010000,1,N,1","+0052,1","+0002,1","09989,1","06,0000,9,1",,,,,,"04,99,1,04,1,07,1,01750,1,00,1,00,1",,,,,"99999,9,09242,1","1,1,006,1,+999,9",,"SYN072AAXX  26124 08226 12760 40315 10052 20002 39242 49989 51006 60001 84700;","Q01  00002PRCP06"
"08226099999","2010-01-27T06:00:00","4","40.6666666","-3.1666666","640.0","GUADALAJARA, SP","FM-12","99999","V020","020,1,N,0057,1","22000,1,9,N","010000,1,N,1","+0005,1","+0005,1","09962,1","12,0000,9,1","24,0000,9,1",,,,"00,1,+99999,9,99,9","00,99,1,00,1,00,1,99999,9,00,1,00,1","0336,9","01,9","999,-0040,9","999,N,-0027,1","99999,9,09204,1","6,1,005,1,+999,9",,"SYN100AAXX  27064 08226 12960 00211 10005 20005 39204 49962 56005 60002 333 21027 30104 50204 55056 70000;","Q01  00002PRCP24Q02  00002PRCP12"
"08226099999","2010-01-27T09:00:00","4","40.6666666","-3.1666666","640.0","GUADALAJARA, SP","FM-12","99999","V020","030,1,N,0036,1","22000,1,9,N","010000,1,N,1","+0010,1","-0021,1","09960,1",,,,,,"00,1,+99999,9,99,9","00,99,1,00,1,00,1,99999,9,00,1,00,1",,,,,"99999,9,09204,1","4,1,000,1,+999,9",,"SYN060AAXX  27094 08226 42960 00307 10010 21021 39204 49960 54000;",
"08226099999","2010-01-28T06:00:00","4","40.6666666","-3.1666666","640.0","GUADALAJARA, SP","FM-12","99999","V020","999,9,9,9999,9","22000,1,9,N","010000,1,N,1","-0020,1","-0020,1","09991,1","12,0000,9,1","24,0000,9,1",,,,"00,1,+99999,9,99,9","00,99,1,00,1,00,1,99999,9,00,1,00,1",,"01,9","999,-0040,9","999,N,-0025,1","99999,9,09224,1","6,1,006,1,+999,9",,"SYN100AAXX  28064 08226 12960 0//// 11020 21020 39224 49991 56006 60002 333 21025 30104 50054 55/// 70000;","Q01  00002PRCP24Q02  00002PRCP12"
"08226099999","2010-01-28T09:00:00","4","40.6666666","-3.1666666","640.0","GUADALAJARA, SP","FM-12","99999","V020","999,9,9,9999,9","22000,1,9,N","010000,1,N,1","-0020,1","-0042,1","09991,1",,,,,,"00,1,+99999,9,99,9","00,99,1,00,1,00,1,99999,9,00,1,00,1",,,,,"99999,9,09224,1","4,1,000,1,+999,9",,"SYN060AAXX  28094 08226 42960 0//// 11020 21042 39224 49991 54000;",
"08226099999","2010-01-28T12:00:00","4","40.6666666","-3.1666666","640.0","GUADALAJARA, SP","FM-12","99999","V020","999,9,9,9999,9","22000,1,9,N","010000,1,N,1","+0080,1","-0018,1","09952,1","06,0000,9,1",,,,,"00,1,+99999,9,99,9","00,99,1,00,1,00,1,99999,9,00,1,00,1",,,,,"99999,9,09214,1","8,1,010,1,+999,9",,"SYN066AAXX  28124 08226 12960 0//// 10080 21018 39214 49952 58010 60001;","Q01  00002PRCP06"
"08226099999","2010-01-29T06:00:00","4","40.6666666","-3.1666666","640.0","GUADALAJARA, SP","FM-12","99999","V020","999,9,9,9999,9","22000,1,9,N","010000,1,N,1","+0020,1","-0011,1","09876,1","12,0000,9,1","24,0000,9,1",,,,"00,1,+99999,9,99,9","00,99,1,00,1,00,1,99999,9,00,1,00,1",,,,"999,N,+0020,1","99999,9,09129,1","7,1,020,1,+999,9",,"SYN094AAXX  29064 08226 12960 0//// 10020 21011 39129 49876 57020 60002 333 20020 50154 55/// 70000;","Q01  00002PRCP24Q02  00002PRCP12"
"08226099999","2010-01-29T09:00:00","4","40.6666666","-3.1666666","640.0","GUADALAJARA, SP","FM-12","99999","V020","999,9,9,9999,9","22000,1,9,N","010000,1,N,1","+0030,1","+0007,1","09868,1",,,,,,"00,1,+99999,9,99,9","00,99,1,00,1,00,1,99999,9,00,1,00,1",,,,,"99999,9,09124,1","6,1,005,1,+999,9",,"SYN060AAXX  29094 08226 42960 0//// 10030 20007 39124 49868 56005;",
"08226099999","2010-01-29T12:00:00","4","40.6666666","-3.1666666","640.0","GUADALAJARA, SP","FM-12","99999","V020","999,9,9,9999,9","22000,1,9,N","010000,1,N,1","+0080,1","+0029,1","09838,1","06,0000,9,1",,,,,"00,1,+99999,9,99,9","00,99,1,00,1,00,1,99999,9,00,1,00,1",,,,,"99999,9,09109,1","7,1,015,1,+999,9",,"SYN066AAXX  29124 08226 12960 0//// 10080 20029 39109 49838 57015 60001;","Q01  00002PRCP06"
"08226099999","2010-01-30T06:00:00","4","40.6666666","-3.1666666","640.0","GUADALAJARA, SP","FM-12","99999","V020","999,9,9,9999,9","22000,1,9,N","010000,1,N,1","+0060,1","+0010,1","09838,1","12,0000,9,1","24,0000,9,1",,,,,"04,99,1,04,1,08,1,01750,1,00,1,00,1",,,,"999,N,+0060,1","99999,9,09104,1","3,1,010,1,+999,9",,"SYN100AAXX  30064 08226 12760 4//// 10060 20010 39104 49838 53010 60002 84800 333 20060 50204 55/// 70000;","Q01  00002PRCP24Q02  00002PRCP12"
"08226099999","2010-01-30T09:00:00","4","40.6666666","-3.1666666","640.0","GUADALAJARA, SP","FM-12","99999","V020","999,9,9,9999,9","01800,1,9,N","010000,1,N,1","+0050,1","+0018,1","09854,1",,,,,,,"05,99,1,05,1,08,1,01750,1,00,1,00,1",,,,,"99999,9,09116,1","2,1,012,1,+999,9",,"SYN066AAXX  30094 08226 42760 5//// 10050 20018 39116 49854 52012 85800;",
"08226099999","2010-01-30T12:00:00","4","40.6666666","-3.1666666","640.0","GUADALAJARA, SP","FM-12","99999","V020","999,9,9,9999,9","01500,1,9,N","010000,1,N,1","+0090,1","+0017,1","09841,1","06,0000,9,1",,,,,,"05,99,1,05,1,08,1,01250,1,00,1,00,1",,,,,"99999,9,09114,1","8,1,002,1,+999,9",,"SYN072AAXX  30124 08226 12660 5//// 10090 20017 39114 49841 58002 60001 85800;","Q01  00002PRCP06"
"08226099999","2010-01-31T06:00:00","4","40.6666666","-3.1666666","640.0","GUADALAJARA, SP","FM-12","99999","V020","999,9,9,9999,9","01500,1,9,N","010000,1,N,1","+0000,1","-0007,1","09851,1","12,0000,9,1","24,0000,9,1",,,,,"05,99,1,05,1,05,1,01750,1,00,1,00,1",,,,"999,N,+0000,1","99999,9,09100,1","4,1,000,1,+999,9",,"SYN100AAXX  31064 08226 12760 5//// 10000 21007 39100 49851 54000 60002 85500 333 20000 50204 55/// 70000;","Q01  00002PRCP24Q02  00002PRCP12"
"08226099999","2010-01-31T09:00:00","4","40.6666666","-3.1666666","640.0","GUADALAJARA, SP","FM-12","99999","V020","999,9,9,9999,9","01500,1,9,N","010000,1,N,1","+0030,1","-0001,1","09846,1",,,,,,,"05,99,1,05,1,05,1,01750,1,00,1,00,1",,,,,"99999,9,09104,1","3,1,004,1,+999,9",,"SYN066AAXX  31094 08226 42760 5//// 10030 21001 39104 49846 53004 85500;",
"08226099999","2010-01-31T12:00:00","4","40.6666666","-3.1666666","640.0","GUADALAJARA, SP","FM-12","99999","V020","999,9,9,9999,9","01200,1,9,N","010000,1,N,1","+0100,1","+0026,1","09838,1","06,0000,9,1",,,,,,"06,99,1,06,1,05,1,01250,1,00,1,00,1",,,,,"99999,9,09114,1","1,1,010,1,+999,9",,"SYN072AAXX  31124 08226 12660 6//// 10100 20026 39114 49838 51010 60001 86500;","Q01  00002PRCP06"
"08226099999","2010-02-01T06:00:00","4","40.6666666","-3.1666666","640.0","GUADALAJARA, SP","FM-12","99999","V020","999,9,9,9999,9","22000,1,9,N","010000,1,N,1","+0000,1","-0004,1","09941,1","12,0000,9,1","24,0000,9,1",,,,"00,1,+99999,9,99,9","00,99,1,00,1,00,1,99999,9,00,1,00,1",,,,"999,N,+0000,1","99999,9,09184,1","2,1,030,1,+999,9",,"SYN094AAXX  01064 08226 12960 0//// 10000 21004 39184 49941 52030 60002 333 20000 50204 55/// 70000;","Q01  00002PRCP24Q02  00002PRCP12"
"08226099999","2010-02-01T09:00:00","4","40.6666666","-3.1666666","640.0","GUADALAJARA, SP","FM-12","99999","V020","999,9,9,9999,9","22000,1,9,N","010000,1,N,1","+0070,1","+0019,1","09954,1",,,,,,"00,1,+99999,9,99,9","00,99,1,00,1,00,1,99999,9,00,1,00,1",,,,,"99999,9,09214,1","2,1,030,1,+999,9",,"SYN060AAXX  01094 08226 42960 0//// 10070 20019 39214 49954 52030;",
"08226099999","2010-02-02T06:00:00","4","40.6666666","-3.1666666","640.0","GUADALAJARA, SP","FM-12","99999","V020","999,9,9,9999,9","22000,1,9,N","010000,1,N,1","-0020,1","-0034,1","10019,1","12,0000,9,1","24,0000,9,1",,,,"00,1,+99999,9,99,9","00,99,1,00,1,00,1,99999,9,00,1,00,1",,,,"999,N,-0020,1","99999,9,09250,1","4,1,000,1,+999,9",,"SYN094AAXX  02064 08226 12960 0//// 11020 21034 39250 40019 54000 60002 333 21020 50204 55/// 70000;","Q01  00002PRCP24Q02  00002PRCP12"
"08226099999","2010-02-02T09:00:00","4","40.6666666","-3.1666666","640.0","GUADALAJARA, SP","FM-12","99999","V020","999,9,9,9999,9","22000,1,9,N","010000,1,N,1","+0050,1","+0018,1","10009,1",,,,,,"00,1,+99999,9,99,9","00,99,1,00,1,00,1,99999,9,00,1,00,1",,,,,"99999,9,09260,1","3,1,010,1,+999,9",,"SYN060AAXX  02094 08226 42960 0//// 10050 20018 39260 40009 53010;",
"08226099999","2010-02-02T12:00:00","4","40.6666666","-3.1666666","640.0","GUADALAJARA, SP","FM-12","99999","V020","240,1,N,0015,1","22000,1,9,N","010000,1,N,1","+0073,1","+0001,1","09997,1","06,0000,9,1",,,,,"00,1,+99999,9,99,9","00,99,1,00,1,00,1,99999,9,00,1,00,1",,,,,"99999,9,09254,1","8,1,006,1,+999,9",,"SYN066AAXX  02124 08226 12960 02403 10073 20001 39254 49997 58006 60001;","Q01  00002PRCP06"
"08226099999","2010-02-03T06:00:00","4","40.6666666","-3.1666666","640.0","GUADALAJARA, SP","FM-12","99999","V020","999,9,C,0000,1","22000,1,9,N","010000,1,N,1","-0052,1","-0066,1","10001,1","12,0000,9,1","24,0000,9,1",,,,"00,1,+99999,9,99,9","00,99,1,00,1,00,1,99999,9,00,1,00,1",,,,"999,N,-0052,1","99999,9,09224,1","4,1,000,1,+999,9",,"SYN088AAXX  03064 08226 12960 03400 11052 21066 39224 40001 54000 60002 333 21052 55/// 70000;","Q01  00002PRCP24Q02  00002PRCP12"
"08226099999","2010-02-03T09:00:00","4","40.6666666","-3.1666666","640.0","GUADALAJARA, SP","FM-12","99999","V020","350,1,N,0036,1","22000,1,9,N","010000,1,N,1","-0010,1","-0058,1","09988,1",,,,,,"00,1,+99999,9,99,9","00,99,1,00,1,00,1,99999,9,00,1,00,1",,,,,"99999,9,09224,1","4,1,000,1,+999,9",,"SYN060AAXX  03094 08226 42960 03507 11010 21058 39224 49988 54000;",
"08226099999","2010-02-04T06:00:00","4","40.6666666","-3.1666666","640.0","GUADALAJARA, SP","FM-12","99999","V020","999,9,C,0000,1","01200,1,9,N","010000,1,N,1","+0054,1","+0022,1","09870,1","12,9999,9,9","24,9999,9,9",,"5,1,06,1","2,1,06,1",,"08,99,1,08,1,07,1,01250,1,99,9,99,9","0462,9","01,9","999,+0020,9","999,N,+0040,1","99999,9,09132,1","7,1,012,1,+999,9","50,1","SYN106AAXX  04064 08226 11660 80000 10054 20022 39132 49870 57012 69902 75052 887// 333 20040 30002 55077 79999;","Q01  00002PRCP24Q02  00002PRCP12Q03  00002PRCP12Q04  00002PRCP24"
"08226099999","2010-02-04T09:00:00","4","40.6666666","-3.1666666","640.0","GUADALAJARA, SP","FM-12","99999","V020","999,9,C,0000,1","01200,1,9,N","010000,1,N,1","+0056,1","+0047,1","09876,1",,,,"5,1,03,1","5,1,03,1",,"08,99,1,08,1,07,1,01250,1,99,9,99,9",,,,,"99999,9,09139,1","1,1,007,1,+999,9","50,1","SYN072AAXX  04094 08226 41660 80000 10056 20047 39139 49876 51007 75055 887//;",
"08226099999","2010-02-04T12:00:00","4","40.6666666","-3.1666666","640.0","GUADALAJARA, SP","FM-12","99999","V020","999,9,C,0000,1","01200,1,9,N","010000,1,N,1","+0089,1","+0067,1","09875,1","06,0005,9,1",,,"5,1,06,1","2,1,06,1",,"08,99,1,08,1,07,1,01250,1,99,9,99,9",,,,,"99999,9,09146,1","2,1,007,1,+999,9","02,1","SYN078AAXX  04124 08226 11660 80000 10089 20067 39146 49875 52007 69951 70252 887//;",
"08226099999","2010-02-05T06:00:00","4","40.6666666","-3.1666666","640.0","GUADALAJARA, SP","FM-12","99999","V020","180,1,N,0031,1","22000,1,9,N","010000,1,N,1","+0064,1","+0055,1","09899,1","12,0041,9,1","24,0043,9,1",,"6,1,06,1","5,1,06,1",,"04,99,1,04,1,07,1,01250,1,00,1,00,1","0000,9","09,9","999,+0060,9","999,N,+0063,1","99999,9,09162,1","2,1,012,1,+999,9","02,1","SYN106AAXX  05064 08226 11660 41806 10064 20055 39162 49899 52012 60042 70265 84700 333 20063 31006 55000 70043;",
"08226099999","2010-02-05T09:00:00","4","40.6666666","-3.1666666","640.0","GUADALAJARA, SP","FM-12","99999","V020","200,1,N,0041,1","01200,1,9,N","010000,1,N,1","+0077,1","+0037,1","09924,1",,,,,,,"06,99,1,06,1,07,1,01250,1,00,1,00,1",,,,,"99999,9,09188,1","2,1,026,1,+999,9",,"SYN066AAXX  05094 08226 42660 62008 10077 20037 39188 49924 52026 86700;",
"08226099999","2010-02-05T12:00:00","4","40.6666666","-3.1666666","640.0","GUADALAJARA, SP","FM-12","99999","V020","250,1,N,0026,1","01200,1,9,N","010000,1,N,1","+0102,1","+0046,1","09935,1","06,0000,9,1",,,,,,"06,99,1,06,1,07,1,01250,1,00,1,00,1",,,,,"99999,9,09205,1","2,1,017,1,+999,9",,"SYN072AAXX  05124 08226 12660 62505 10102 20046 39205 49935 52017 60001 86700;","Q01  00002PRCP06"
"08226099999","2010-02-06T06:00:00","4","40.6666666","-3.1666666","640.0","GUADALAJARA, SP","FM-12","99999","V020","999,9,C,0000,1","22000,1,9,N","010000,1,N,1","+0018,1","+0003,1","09989,1","12,0000,9,1","24,0000,9,1",,,,"00,1,+99999,9,99,9","00,99,1,00,1,00,1,99999,9,00,1,00,1","0246,9","09,9","999,+0000,9","999,N,+0018,1","99999,9,09233,1","7,1,003,1,+999,9",,"SYN094AAXX  06064 08226 12960 00000 10018 20003 39233 49989 57003 60002 333 20018 31100 55041 70000;","Q01  00002PRCP24Q02  00002PRCP12"
"08226099999","2010-02-06T09:00:00","4","40.6666666","-3.1666666","640.0","GUADALAJARA, SP","FM-12","99999","V020","230,1,N,0021,1","22000,1,9,N","010000,1,N,1","+0061,1","+0029,1","09980,1",,,,,,"00,1,+99999,9,99,9","00,99,1,00,1,00,1,99999,9,00,1,00,1",,,,,"99999,9,09236,1","3,1,003,1,+999,9",,"SYN060AAXX  06094 08226 42960 02304 10061 20029 39236 49980 53003;",
"08226099999","2010-02-06T12:00:00","4","40.6666666","-3.1666666","640.0","GUADALAJARA, SP","FM-12","99999","V020","240,1,N,0021,1","22000,1,9,N","010000,1,N,1","+0126,1","+0051,1","09967,1","06,0000,9,1",,,,,,"03,99,1,03,1,07,1,01750,1,00,1,00,1",,,,,"99999,9,09240,1","2,1,004,1,+999,9",,"SYN072AAXX  06124 08226 12760 32404 10126 20051 39240 49967 52004 60001 83700;","Q01  00002PRCP06"
"08226099999","2010-02-07T06:00:00","4","40.6666666","-3.1666666","640.0","GUADALAJARA, SP","FM-12","99999","V020","999,9,C,0000,1","03600,1,9,N","010000,1,N,1","+0002,1","-0009,1","09956,1","12,0000,9,1","24,0000,9,1",,,,,"06,99,1,01,1,07,1,01750,1,09,1,08,1",,"01,9","999,-0020,9","999,N,+0000,1","99999,9,09198,1","7,1,016,1,+999,9",,"SYN100AAXX  07064 08226 12760 60000 10002 21009 39198 49956 57016 60002 81798 333 20000 30102 55/// 70000;","Q01  00002PRCP24Q02  00002PRCP12"
"08226099999","2010-02-07T09:00:00","4","40.6666666","-3.1666666","640.0","GUADALAJARA, SP","FM-12","99999","V020","999,9,C,0000,1","03600,1,9,N","010000,1,N,1","+0031,1","+0019,1","09943,1",,,,,,,"06,99,1,01,1,07,1,01750,1,09,1,08,1",,,,,"99999,9,09194,1","6,1,004,1,+999,9",,"SYN066AAXX  07094 08226 42760 60000 10031 20019 39194 49943 56004 81798;",
"08226099999","2010-02-07T12:00:00","4","40.6666666","-3.1666666","640.0","GUADALAJARA, SP","FM-12","99999","V020","999,9,C,0000,1","01500,1,9,N","010000,1,N,1","+0091,1","+0043,1","09916,1","06,0000,9,1",,,,,,"08,99,1,06,1,07,1,01750,1,08,1,99,9",,,,,"99999,9,09184,1","7,1,010,1,+999,9",,"SYN072AAXX  07124 08226 12760 80000 10091 20043 39184 49916 57010 60001 8678/;","Q01  00002PRCP06"
"08226099999","2010-02-08T06:00:00","4","40.6666666","-3.1666666","640.0","GUADALAJARA, SP","FM-12","99999","V020","999,9,C,0000,1","00750,1,9,N","008000,1,N,1","+0050,1","+0043,1","09816,1","12,0005,9,1","24,0005,9,1",,"5,1,06,1","2,1,06,1",,"08,99,1,06,1,07,1,00800,1,99,9,99,9","0084,9","09,9","999,+0030,9","999,N,+0041,1","99999,9,09082,1","7,1,024,1,+999,9","50,1","SYN106AAXX  08064 08226 11558 80000 10050 20043 39082 49816 57024 69942 75052 867// 333 20041 31003 55014 70004;",
"08226099999","2010-02-08T09:00:00","4","40.6666666","-3.1666666","640.0","GUADALAJARA, SP","FM-12","99999","V020","999,9,C,0000,1","00750,1,9,N","010000,1,N,1","+0060,1","+0057,1","09792,1",,,,"6,1,03,1","5,1,03,1",,"08,99,1,08,1,07,1,00800,1,99,9,99,9",,,,,"99999,9,09062,1","7,1,020,1,+999,9","61,1","SYN072AAXX  08094 08226 41560 80000 10060 20057 39062 49792 57020 76165 887//;",
"08226099999","2010-02-08T12:00:00","4","40.6666666","-3.1666666","640.0","GUADALAJARA, SP","FM-12","99999","V020","230,1,N,0015,1","00750,1,9,N","005000,1,N,1","+0078,1","+0075,1","09774,1","06,0051,9,1",,,"6,1,06,1","2,1,06,1",,"08,99,1,08,1,07,1,00800,1,99,9,99,9",,,,,"99999,9,09050,1","7,1,012,1,+999,9","61,1","SYN078AAXX  08124 08226 11550 82303 10078 20075 39050 49774 57012 60051 76162 887//;",
"08226099999","2010-02-09T06:00:00","4","40.6666666","-3.1666666","640.0","GUADALAJARA, SP","FM-12","99999","V020","310,1,N,0031,1","01200,1,9,N","010000,1,N,1","+0059,1","+0018,1","09752,1","12,0010,9,1","24,0094,9,1",,,,,"07,99,1,06,1,07,1,01250,1,99,9,99,9","0000,9","11,9","999,+0030,9","999,N,+0052,1","99999,9,09024,1","4,1,000,1,+999,9",,"SYN100AAXX  09064 08226 12660 73106 10059 20018 39024 49752 54000 69992 867// 333 20052 32003 55000 70093;",
"08226099999","2010-02-09T09:00:00","4","40.6666666","-3.1666666","640.0","GUADALAJARA, SP","FM-12","99999","V020","999,9,C,0000,1","01200,1,9,N","010000,1,N,1","+0061,1","+0020,1","09781,1",,,,,,,"07,99,1,07,1,07,1,01250,1,99,9,99,9",,,,,"99999,9,09052,1","2,1,028,1,+999,9",,"SYN066AAXX  09094 08226 42660 70000 10061 20020 39052 49781 52028 877//;",
"08226099999","2010-02-09T12:00:00","4","40.6666666","-3.1666666","640.0","GUADALAJARA, SP","FM-12","99999","V020","340,1,N,0036,1","22000,1,9,N","010000,1,N,1","+0093,1","+0029,1","09794,1","06,0000,9,1",,,,,,"04,99,1,04,1,07,1,01750,1,00,1,00,1",,,,,"99999,9,09072,1","2,1,020,1,+999,9",,"SYN072AAXX  09124 08226 12760 43407 10093 20029 39072 49794 52020 60001 84700;","Q01  00002PRCP06"
"08226099999","2010-02-10T06:00:00","4","40.6666666","-3.1666666","640.0","GUADALAJARA, SP","FM-12","99999","V020","999,9,C,0000,1","22000,1,9,N","010000,1,N,1","-0034,1","-0055,1","09865,1","12,0000,9,1","24,0000,9,1",,,,"00,1,+99999,9,99,9","00,99,1,00,1,00,1,99999,9,00,1,00,1","0156,9","01,9","999,-0060,9","999,N,-0040,1","99999,9,09104,1","4,1,000,1,+999,9",,"SYN100AAXX  10064 08226 12960 00000 11034 21055 39104 49865 54000 60002 333 21040 30106 50104 55026 70000;","Q01  00002PRCP24Q02  00002PRCP12"
"08226099999","2010-02-10T09:00:00","4","40.6666666","-3.1666666","640.0","GUADALAJARA, SP","FM-12","99999","V020","999,9,C,0000,1","22000,1,9,N","010000,1,N,1","-0005,1","-0035,1","09867,1",,,,,,,"04,99,1,00,1,00,1,99999,9,00,1,05,1",,,,,"99999,9,09114,1","1,1,010,1,+999,9",,"SYN066AAXX  10094 08226 42960 40000 11005 21035 39114 49867 51010 80005;",
"08226099999","2010-02-10T12:00:00","4","40.6666666","-3.1666666","640.0","GUADALAJARA, SP","FM-12","99999","V020","160,1,N,0015,1","02100,1,9,N","010000,1,N,1","+0065,1","-0019,1","09848,1","06,0000,9,1",,,,,,"05,99,1,05,1,00,1,02250,1,07,1,00,1",,,,,"99999,9,09114,1","4,1,000,1,+999,9",,"SYN072AAXX  10124 08226 12860 51603 10065 21019 39114 49848 54000 60001 85070;","Q01  00002PRCP06"
"08226099999","2010-02-11T06:00:00","4","40.6666666","-3.1666666","640.0","GUADALAJARA, SP","FM-12","99999","V020","999,9,C,0000,1","22000,1,9,N","010000,1,N,1","-0045,1","-0062,1","09869,1","12,0000,9,1","24,0000,9,1",,,,"00,1,+99999,9,99,9","00,99,1,00,1,00,1,99999,9,00,1,00,1","0312,9","01,9","999,-0070,9","999,N,-0046,1","99999,9,09104,1","1,1,006,1,+999,9",,"SYN100AAXX  11064 08226 12960 00000 11045 21062 39104 49869 51006 60002 333 21046 30107 50154 55052 70000;","Q01  00002PRCP24Q02  00002PRCP12"
"08226099999","2010-02-11T09:00:00","4","40.6666666","-3.1666666","640.0","GUADALAJARA, SP","FM-12","99999","V020","999,9,C,0000,1","22000,1,9,N","010000,1,N,1","+0006,1","-0042,1","09875,1",,,,,,,"03,99,1,03,1,08,1,01750,1,00,1,00,1",,,,,"99999,9,09124,1","2,1,020,1,+999,9",,"SYN066AAXX  11094 08226 42760 30000 10006 21042 39124 49875 52020 83800;",
"08226099999","2010-02-11T12:00:00","4","40.6666666","-3.1666666","640.0","GUADALAJARA, SP","FM-12","99999","V020","350,1,N,0057,1","22000,1,9,N","010000,1,N,1","+0040,1","-0060,1","09866,1","06,0000,9,1",,,,,,"03,99,1,03,1,08,1,01750,1,00,1,00,1",,,,,"99999,9,09124,1","4,1,000,1,+999,9",,"SYN072AAXX  11124 08226 12760 33511 10040 21060 39124 49866 54000 60001 83800;","Q01  00002PRCP06"
"08226099999","2010-02-12T06:00:00","4","40.6666666","-3.1666666","640.0","GUADALAJARA, SP","FM-12","99999","V020","999,9,C,0000,1","22000,1,9,N","010000,1,N,1","-0055,1","-0101,1","09915,1","12,0000,9,1","24,0000,9,1",,,,"00,1,+99999,9,99,9","00,99,1,00,1,00,1,99999,9,00,1,00,1","0504,9","01,9","999,-0070,9","999,N,-0057,1","99999,9,09144,1","4,1,000,1,+999,9",,"SYN100AAXX  12064 08226 12960 00000 11055 21101 39144 49915 54000 60002 333 21057 30107 50104 55084 70000;","Q01  00002PRCP24Q02  00002PRCP12"
"08226099999","2010-02-12T09:00:00","4","40.6666666","-3.1666666","640.0","GUADALAJARA, SP","FM-12","99999","V020","999,9,C,0000,1","22000,1,9,N","010000,1,N,1","-0023,1","-0074,1","09916,1",,,,,,"00,1,+99999,9,99,9","00,99,1,00,1,00,1,99999,9,00,1,00,1",,,,,"99999,9,09154,1","1,1,010,1,+999,9",,"SYN060AAXX  12094 08226 42960 00000 11023 21074 39154 49916 51010;",
"08226099999","2010-02-13T06:00:00","4","40.6666666","-3.1666666","640.0","GUADALAJARA, SP","FM-12","99999","V020","340,1,N,0031,1","22000,1,9,N","010000,1,N,1","-0053,1","-0082,1","09875,1","12,0000,9,1","24,0000,9,1",,,,"00,1,+99999,9,99,9","00,99,1,00,1,00,1,99999,9,00,1,00,1","0480,9","01,9","999,-0060,9","999,N,-0055,1","99999,9,09108,1","4,1,000,1,+999,9",,"SYN100AAXX  13064 08226 12960 03406 11053 21082 39108 49875 54000 60002 333 21055 30106 50154 55080 70000;","Q01  00002PRCP24Q02  00002PRCP12"
"08226099999","2010-02-13T09:00:00","4","40.6666666","-3.1666666","640.0","GUADALAJARA, SP","FM-12","99999","V020","040,1,N,0021,1","22000,1,9,N","010000,1,N,1","-0007,1","-0055,1","09868,1",,,,,,"00,1,+99999,9,99,9","00,99,1,00,1,00,1,99999,9,00,1,00,1",,,,,"99999,9,09114,1","1,1,006,1,+999,9",,"SYN060AAXX  13094 08226 42960 00404 11007 21055 39114 49868 51006;",
"08226099999","2010-02-13T12:00:00","4","40.6666666","-3.1666666","640.0","GUADALAJARA, SP","FM-12","99999","V020","360,1,N,0062,1","22000,1,9,N","010000,1,N,1","+0030,1","-0036,1","09858,1","06,0000,9,1",,,,,,"02,99,1,02,1,01,1,01250,1,00,1,00,1",,,,,"99999,9,09114,1","4,1,000,1,+999,9",,"SYN072AAXX  13124 08226 12660 23612 10030 21036 39114 49858 54000 60001 82100;","Q01  00002PRCP06"
"08226099999","2010-02-14T06:00:00","4","40.6666666","-3.1666666","640.0","GUADALAJARA, SP","FM-12","99999","V020","999,9,C,0000,1","22000,1,9,N","010000,1,N,1","-0070,1","-0086,1","09900,1","12,0000,9,1","24,0000,9,1",,,,"00,1,+99999,9,99,9","00,99,1,00,1,00,1,99999,9,00,1,00,1","0600,9","01,9","999,-0090,9","999,N,-0070,1","99999,9,09126,1","4,1,000,1,+999,9",,"SYN100AAXX  14064 08226 12960 00000 11070 21086 39126 49900 54000 60002 333 21070 30109 50154 55100 70000;","Q01  00002PRCP24Q02  00002PRCP12"
"08226099999","2010-02-14T09:00:00","4","40.6666666","-3.1666666","640.0","GUADALAJARA, SP","FM-12","99999","V020","010,1,N,0015,1","22000,1,9,N","010000,1,N,1","-0032,1","-0070,1","09889,1",,,,,,"00,1,+99999,9,99,9","00,99,1,00,1,00,1,99999,9,00,1,00,1",,,,,"99999,9,09126,1","4,1,000,1,+999,9",,"SYN060AAXX  14094 08226 42960 00103 11032 21070 39126 49889 54000;",
"08226099999","2010-02-14T12:00:00","4","40.6666666","-3.1666666","640.0","GUADALAJARA, SP","FM-12","99999","V020","350,1,N,0046,1","22000,1,9,N","010000,1,N,1","+0038,1","-0032,1","09864,1","06,0000,9,1",,,,,,"02,99,1,00,1,00,1,99999,9,00,1,01,1",,,,,"99999,9,09122,1","8,1,004,1,+999,9",,"SYN072AAXX  14124 08226 12960 23509 10038 21032 39122 49864 58004 60001 80001;","Q01  00002PRCP06"
"08226099999","2010-02-15T06:00:00","4","40.6666666","-3.1666666","640.0","GUADALAJARA, SP","FM-12","99999","V020","350,1,N,0036,1","01500,1,9,N","010000,1,N,1","-0015,1","-0045,1","09784,1","12,0000,9,1","24,0000,9,1",,,,,"08,99,1,08,1,07,1,01750,1,00,1,00,1","0528,9","01,9","999,-0070,9","999,N,-0050,1","99999,9,09034,1","7,1,020,1,+999,9",,"SYN106AAXX  15064 08226 12760 83507 11015 21045 39034 49784 57020 60002 88700 333 21050 30107 50134 55088 70000;","Q01  00002PRCP24Q02  00002PRCP12"
"08226099999","2010-02-15T09:00:00","4","40.6666666","-3.1666666","640.0","GUADALAJARA, SP","FM-12","99999","V020","360,1,N,0036,1","01500,1,9,N","010000,1,N,1","+0000,1","-0030,1","09779,1",,,,,,,"08,99,1,06,1,07,1,01750,1,07,1,00,1",,,,,"99999,9,09034,1","4,1,000,1,+999,9",,"SYN066AAXX  15094 08226 42760 83607 10000 21030 39034 49779 54000 86770;",
"08226099999","2010-02-15T12:00:00","4","40.6666666","-3.1666666","640.0","GUADALAJARA, SP","FM-12","99999","V020","360,1,N,0041,1","01500,1,9,N","010000,1,N,1","+0007,1","+0000,1","09777,1","06,0003,9,1",,,"2,1,06,1","2,1,06,1",,"08,99,1,99,9,07,1,01750,1,07,1,00,1",,,,,"99999,9,09034,1","4,1,000,1,+999,9","71,1","SYN078AAXX  15124 08226 11760 83608 10007 20000 39034 49777 54000 69931 77122 88770;","Q01+000082SCOTLC"
"08226099999","2010-02-16T06:00:00","4","40.6666666","-3.1666666","640.0","GUADALAJARA, SP","FM-12","99999","V020","360,1,N,0036,1","01500,1,9,N","010000,1,N,1","+0014,1","+0014,1","09694,1","12,0061,9,1","24,0109,9,1",,"6,1,06,1","2,1,06,1",,"08,99,1,08,1,07,1,01750,1,00,1,00,1","0000,9","09,9","999,+0000,9","999,N,+0005,1","99999,9,08959,1","7,1,020,1,+999,9","02,1","SYN112AAXX  16064 08226 11760 83607 10014 20014 38959 49694 57020 60062 70262 88700 333 20005 31000 50104 55000 70110;",
"08226099999","2010-02-16T09:00:00","4","40.6666666","-3.1666666","640.0","GUADALAJARA, SP","FM-12","99999","V020","360,1,N,0031,1","01500,1,9,N","010000,1,N,1","+0024,1","+0024,1","09685,1",,,,"6,1,03,1","2,1,03,1",,"08,99,1,08,1,07,1,01750,1,00,1,00,1",,,,,"99999,9,08954,1","6,1,005,1,+999,9","02,1","SYN072AAXX  16094 08226 41760 83606 10024 20024 38954 49685 56005 70262 88700;",
"08226099999","2010-02-16T12:00:00","4","40.6666666","-3.1666666","640.0","GUADALAJARA, SP","FM-12","99999","V020","999,9,C,0000,1","01500,1,9,N","010000,1,N,1","+0050,1","+0050,1","09667,1","06,0130,9,1",,,"6,1,06,1","6,1,06,1",,"08,99,1,08,1,07,1,01750,1,00,1,00,1",,,,,"99999,9,08944,1","7,1,010,1,+999,9","61,1","SYN078AAXX  16124 08226 11760 80000 10050 20050 38944 49667 57010 60131 76166 88700;",
"08226099999","2010-02-17T06:00:00","4","40.6666666","-3.1666666","640.0","GUADALAJARA, SP","FM-12","99999","V020","190,1,N,0046,1","01200,1,9,N","006000,1,N,1","+0066,1","+0066,1","09641,1","12,0150,9,1","24,0343,9,1",,"6,1,06,1","2,1,06,1",,"08,99,1,08,1,07,1,01250,1,99,9,99,9","0000,9","11,9","999,+0050,9","999,N,+0048,1","99999,9,08924,1","4,1,000,1,+999,9","63,1","SYN106AAXX  17064 08226 11656 81909 10066 20066 38924 49641 54000 60152 76362 887// 333 20048 32005 55000 70343;",
"08226099999","2010-02-17T12:00:00","4","40.6666666","-3.1666666","640.0","GUADALAJARA, SP","FM-12","99999","V020","200,1,N,0072,1","01200,1,9,N","010000,1,N,1","+0098,1","+0056,1","09674,1","06,0003,9,1",,,"6,1,06,1","2,1,06,1",,"06,99,1,06,1,07,1,01250,1,00,1,00,1",,,,,"99999,9,08962,1","2,1,016,1,+999,9","02,1","SYN078AAXX  17124 08226 11660 62014 10098 20056 38962 49674 52016 69931 70262 86700;",
"08226099999","2010-02-18T06:00:00","4","40.6666666","-3.1666666","640.0","GUADALAJARA, SP","FM-12","99999","V020","130,1,N,0015,1","22000,1,9,N","010000,1,N,1","+0017,1","+0010,1","09785,1","12,0000,9,1","24,0008,9,1",,"5,1,06,1","1,1,06,1",,"02,99,1,02,1,07,1,01750,1,00,1,00,1","0114,9","11,9","999,-0010,9","999,N,+0017,1","99999,9,09044,1","4,1,000,1,+999,9","02,1","SYN106AAXX  18064 08226 11760 21303 10017 20010 39044 49785 54000 69922 70251 82700 333 20017 32101 55019 70007;","Q01  00002PRCP12"
"08226099999","2010-02-18T09:00:00","4","40.6666666","-3.1666666","640.0","GUADALAJARA, SP","FM-12","99999","V020","999,9,C,0000,1","22000,1,9,N","010000,1,N,1","+0045,1","+0005,1","09786,1",,,,,,,"02,99,1,02,1,07,1,01750,1,00,1,00,1",,,,,"99999,9,09052,1","0,1,008,1,+999,9",,"SYN066AAXX  18094 08226 42760 20000 10045 20005 39052 49786 50008 82700;",
"08226099999","2010-02-18T12:00:00","4","40.6666666","-3.1666666","640.0","GUADALAJARA, SP","FM-12","99999","V020","350,1,N,0021,1","01500,1,9,N","010000,1,N,1","+0066,1","+0019,1","09758,1","06,0000,9,1",,,,,,"08,99,1,08,1,07,1,01750,1,99,9,99,9",,,,,"99999,9,09032,1","7,1,020,1,+999,9",,"SYN072AAXX  18124 08226 12760 83504 10066 20019 39032 49758 57020 60001 887//;","Q01  00002PRCP06"
"08226099999","2010-02-19T06:00:00","4","40.6666666","-3.1666666","640.0","GUADALAJARA, SP","FM-12","99999","V020","999,9,C,0000,1","01500,1,9,N","010000,1,N,1","+0042,1","+0035,1","09704,1","12,0020,9,2","24,0018,9,2",,"5,1,06,1","2,1,06,1",,"08,99,1,08,1,07,1,01750,1,99,9,99,9","0156,9","11,9","999,+0040,9","999,N,+0042,1","99999,9,08976,1","5,1,002,1,+999,9","02,1","SYN106AAXX  19064 08226 11760 80000 10042 20035 38976 49704 55002 60022 70252 887// 333 20042 32004 55026 70019;",
"08226099999","2010-02-19T09:00:00","4","40.6666666","-3.1666666","640.0","GUADALAJARA, SP","FM-12","99999","V020","999,9,C,0000,1","01500,1,9,N","010000,1,N,1","+0045,1","+0017,1","09744,1",,,,,,,"08,99,1,08,1,07,1,01750,1,99,9,99,9",,,,,"99999,9,09013,1","2,1,037,1,+999,9",,"SYN066AAXX  19094 08226 42760 80000 10045 20017 39013 49744 52037 887//;",
"08226099999","2010-02-19T12:00:00","4","40.6666666","-3.1666666","640.0","GUADALAJARA, SP","FM-12","99999","V020","320,1,N,0031,1","01500,1,9,N","010000,1,N,1","+0075,1","+0003,1","09758,1","06,0000,9,1",,,,,,"08,99,1,08,1,07,1,01750,1,99,9,99,9",,,,,"99999,9,09034,1","2,1,021,1,+999,9",,"SYN072AAXX  19124 08226 12760 83206 10075 20003 39034 49758 52021 60001 887//;","Q01  00002PRCP06"
"08226099999","2010-02-20T06:00:00","4","40.6666666","-3.1666666","640.0","GUADALAJARA, SP","FM-12","99999","V020","999,9,C,0000,1","22000,1,9,N","010000,1,N,1","-0022,1","-0030,1","09881,1","12,0000,9,1","24,0000,9,1",,,,"00,1,+99999,9,99,9","00,99,1,00,1,00,1,99999,9,00,1,00,1","0102,9","14,9","999,-0050,9","999,N,-0025,1","99999,9,09122,1","2,1,006,1,+999,9",,"SYN094AAXX  20064 08226 12960 00000 11022 21030 39122 49881 52006 60002 333 21025 34105 55017 70000;","Q01  00002PRCP24Q02  00002PRCP12"
"08226099999","2010-02-20T09:00:00","4","40.6666666","-3.1666666","640.0","GUADALAJARA, SP","FM-12","99999","V020","999,9,C,0000,1","22000,1,9,N","010000,1,N,1","+0025,1","-0024,1","09881,1",,,,,,"00,1,+99999,9,99,9","00,99,1,00,1,00,1,99999,9,00,1,00,1",,,,,"99999,9,09134,1","2,1,012,1,+999,9",,"SYN060AAXX  20094 08226 42960 00000 10025 21024 39134 49881 52012;",
"08226099999","2010-02-20T12:00:00","4","40.6666666","-3.1666666","640.0","GUADALAJARA, SP","FM-12","99999","V020","999,9,C,0000,1","22000,1,9,N","010000,1,N,1","+0070,1","-0002,1","09873,1","06,0000,9,1",,,,,,"01,99,1,01,1,01,1,01750,1,00,1,00,1",,,,,"99999,9,09139,1","1,1,005,1,+999,9",,"SYN072AAXX  20124 08226 12760 10000 10070 21002 39139 49873 51005 60001 81100;","Q01  00002PRCP06"
"08226099999","2010-02-21T06:00:00","4","40.6666666","-3.1666666","640.0","GUADALAJARA, SP","FM-12","99999","V020","240,1,N,0026,1","01200,1,9,N","010000,1,N,1","+0035,1","+0026,1","09799,1","12,9999,9,9","24,9999,9,9",,"6,1,06,1","5,1,06,1",,"08,99,1,08,1,07,1,01250,1,99,9,99,9","0414,9","09,9","999,-0010,9","999,N,-0002,1","99999,9,09062,1","7,1,022,1,+999,9","50,1","SYN106AAXX  21064 08226 11660 82405 10035 20026 39062 49799 57022 69912 75065 887// 333 21002 31101 55069 70001;","Q01  00002PRCP24Q02  00002PRCP12Q03  00002PRCP12Q04  00002PRCP24"
"08226099999","2010-02-21T09:00:00","4","40.6666666","-3.1666666","640.0","GUADALAJARA, SP","FM-12","99999","V020","999,9,C,0000,1","01200,1,9,N","010000,1,N,1","+0013,1","+0013,1","09797,1",,,,"6,1,03,1","2,1,03,1",,"08,99,1,08,1,07,1,01250,1,99,9,99,9",,,,,"99999,9,09054,1","6,1,008,1,+999,9","53,1","SYN072AAXX  21094 08226 41660 80000 10013 20013 39054 49797 56008 75362 887//;",
"08226099999","2010-02-21T12:00:00","4","40.6666666","-3.1666666","640.0","GUADALAJARA, SP","FM-12","99999","V020","360,1,N,0015,1","01200,1,9,N","010000,1,N,1","+0029,1","+0029,1","09779,1","06,0061,9,1",,,"6,1,06,1","2,1,06,1",,"08,99,1,08,1,07,1,01250,1,99,9,99,9",,,,,"99999,9,09042,1","7,1,012,1,+999,9","61,1","SYN078AAXX  21124 08226 11660 83603 10029 20029 39042 49779 57012 60061 76162 887//;",
"08226099999","2010-02-22T06:00:00","4","40.6666666","-3.1666666","640.0","GUADALAJARA, SP","FM-12","99999","V020","180,1,N,0046,1","01200,1,9,N","008000,1,N,1","+0077,1","+0077,1","09746,1","12,0041,9,1","24,0140,9,1",,"6,1,06,1","5,1,06,1",,"08,99,1,08,1,07,1,01250,1,99,9,99,9","0000,9","11,9","999,+0040,9","999,N,+0050,1","99999,9,09024,1","7,1,024,1,+999,9","50,1","SYN106AAXX  22064 08226 11658 81809 10077 20077 39024 49746 57024 60042 75065 887// 333 20050 32004 55000 70140;",
"08226099999","2010-02-22T09:00:00","4","40.6666666","-3.1666666","640.0","GUADALAJARA, SP","FM-12","99999","V020","190,1,N,0072,1","01200,1,9,N","010000,1,N,1","+0086,1","+0042,1","09738,1",,,,"6,1,03,1","5,1,03,1",,"08,99,1,08,1,07,1,01250,1,99,9,99,9",,,,,"99999,9,09018,1","7,1,006,1,+999,9","63,1","SYN072AAXX  22094 08226 41660 81914 10086 20042 39018 49738 57006 76365 887//;",
"08226099999","2010-02-22T12:00:00","4","40.6666666","-3.1666666","640.0","GUADALAJARA, SP","FM-12","99999","V020","210,1,N,0067,1","01200,1,9,N","010000,1,N,1","+0099,1","+0077,1","09749,1","06,0030,9,1",,,"6,1,06,1","5,1,06,1",,"08,99,1,08,1,07,1,01250,1,99,9,99,9",,,,,"99999,9,09032,1","2,1,014,1,+999,9","02,1","SYN078AAXX  22124 08226 11660 82113 10099 20077 39032 49749 52014 60031 70265 887//;",
"08226099999","2010-02-23T06:00:00","4","40.6666666","-3.1666666","640.0","GUADALAJARA, SP","FM-12","99999","V020","200,1,N,0026,1","01200,1,9,N","010000,1,N,1","+0076,1","+0073,1","09789,1","12,0041,9,1","24,0081,9,1",,"6,1,06,1","5,1,06,1",,"08,99,1,08,1,07,1,01250,1,99,9,99,9","0120,9","11,9","999,+0050,9","999,N,+0059,1","99999,9,09064,1","7,1,004,1,+999,9","20,1","SYN106AAXX  23064 08226 11660 82005 10076 20073 39064 49789 57004 60042 72065 887// 333 20059 32005 55020 70082;",
"08226099999","2010-02-23T09:00:00","4","40.6666666","-3.1666666","640.0","GUADALAJARA, SP","FM-12","99999","V020","200,1,N,0041,1","01200,1,9,N","010000,1,N,1","+0077,1","+0070,1","09811,1",,,,"5,1,03,1","2,1,03,1",,"08,99,1,08,1,07,1,01250,1,99,9,99,9",,,,,"99999,9,09084,1","2,1,020,1,+999,9","02,1","SYN072AAXX  23094 08226 41660 82008 10077 20070 39084 49811 52020 70252 887//;",
"08226099999","2010-02-23T12:00:00","4","40.6666666","-3.1666666","640.0","GUADALAJARA, SP","FM-12","99999","V020","210,1,N,0062,1","01200,1,9,N","010000,1,N,1","+0109,1","+0066,1","09811,1","06,0030,9,1",,,"6,1,06,1","2,1,06,1",,"06,99,1,06,1,07,1,01250,1,99,9,99,9",,,,,"99999,9,09092,1","2,1,008,1,+999,9","02,1","SYN078AAXX  23124 08226 11660 62112 10109 20066 39092 49811 52008 60031 70262 867//;",
"08226099999","2010-02-24T06:00:00","4","40.6666666","-3.1666666","640.0","GUADALAJARA, SP","FM-12","99999","V020","200,1,N,0041,1","00750,1,9,N","010000,1,N,1","+0076,1","+0076,1","09854,1","12,0010,9,1","24,0079,9,1",,,,,"06,99,1,06,1,07,1,00800,1,00,1,00,1","0084,9","09,9","999,+0060,9","999,N,+0069,1","99999,9,09124,1","2,1,004,1,+999,9",,"SYN106AAXX  24064 08226 12560 62008 10076 20076 39124 49854 52004 60012 86700 333 20069 31006 50124 55014 70080;",
"08226099999","2010-02-24T09:00:00","4","40.6666666","-3.1666666","640.0","GUADALAJARA, SP","FM-12","99999","V020","200,1,N,0051,1","00750,1,9,N","010000,1,N,1","+0078,1","+0063,1","09886,1",,,,,,,"05,99,1,05,1,07,1,00800,1,00,1,00,1",,,,,"99999,9,09154,1","2,1,030,1,+999,9",,"SYN066AAXX  24094 08226 42560 52010 10078 20063 39154 49886 52030 85700;",
"08226099999","2010-02-24T12:00:00","4","40.6666666","-3.1666666","640.0","GUADALAJARA, SP","FM-12","99999","V020","210,1,N,0093,1","00750,1,9,N","010000,1,N,1","+0110,1","+0057,1","09889,1","06,0000,9,1",,,,,,"06,99,1,06,1,07,1,00800,1,00,1,00,1",,,,,"99999,9,09164,1","1,1,010,1,+999,9",,"SYN072AAXX  24124 08226 12560 62118 10110 20057 39164 49889 51010 60001 86700;","Q01  00002PRCP06"
"08226099999","2010-02-25T06:00:00","4","40.6666666","-3.1666666","640.0","GUADALAJARA, SP","FM-12","99999","V020","180,1,N,0062,1","00750,1,9,N","010000,1,N,1","+0093,1","+0069,1","09850,1","12,0008,9,1","24,0008,9,1",,,,,"08,99,1,08,1,07,1,00800,1,00,1,00,1","0234,9","09,9","999,+0080,9","999,N,+0090,1","99999,9,09124,1","7,1,010,1,+999,9",,"SYN106AAXX  25064 08226 12560 81812 10093 20069 39124 49850 57010 69972 88700 333 20090 31008 50104 55039 70007;",
"08226099999","2010-02-25T09:00:00","4","40.6666666","-3.1666666","640.0","GUADALAJARA, SP","FM-12","99999","V020","180,1,N,0067,1","00750,1,9,N","010000,1,N,1","+0096,1","+0072,1","09823,1",,,,,,,"08,99,1,08,1,07,1,00800,1,00,1,00,1",,,,,"99999,9,09100,1","7,1,024,1,+999,9",,"SYN066AAXX  25094 08226 42560 81813 10096 20072 39100 49823 57024 88700;",
"08226099999","2010-02-25T12:00:00","4","40.6666666","-3.1666666","640.0","GUADALAJARA, SP","FM-12","99999","V020","190,1,N,0051,1","00750,1,9,N","010000,1,N,1","+0113,1","+0097,1","09811,1","06,0010,9,1",,,,,,"08,99,1,08,1,07,1,00800,1,00,1,00,1",,,,,"99999,9,09094,1","6,1,006,1,+999,9",,"SYN072AAXX  25124 08226 12560 81910 10113 20097 39094 49811 56006 60011 88700;",
"08226099999","2010-02-26T06:00:00","4","40.6666666","-3.1666666","640.0","GUADALAJARA, SP","FM-12","99999","V020","190,1,N,0026,1","22000,1,9,N","010000,1,N,1","+0037,1","+0030,1","09881,1","12,0000,9,1","24,0079,9,1",,,,"00,1,+99999,9,99,9","00,99,1,00,1,00,1,99999,9,00,1,00,1","0012,9","09,9","999,+0020,9","999,N,+0030,1","99999,9,09138,1","2,1,014,1,+999,9",,"SYN100AAXX  26064 08226 12960 01905 10037 20030 39138 49881 52014 60002 333 20030 31002 50084 55002 70079;","Q01  00002PRCP12"
"08226099999","2010-02-26T12:00:00","4","40.6666666","-3.1666666","640.0","GUADALAJARA, SP","FM-12","99999","V020","180,1,N,0041,1","22000,1,9,N","010000,1,N,1","+0110,1","+0035,1","09889,1","06,0000,9,1",,,,,,"04,99,1,04,1,07,1,01250,1,00,1,00,1",,,,,"99999,9,09164,1","1,1,006,1,+999,9",,"SYN072AAXX  26124 08226 12660 41808 10110 20035 39164 49889 51006 60001 84700;","Q01  00002PRCP06"
"08226099999","2010-02-27T06:00:00","4","40.6666666","-3.1666666","640.0","GUADALAJARA, SP","FM-12","99999","V020","999,9,C,0000,1","01200,1,9,N","010000,1,N,1","+0060,1","+0060,1","09811,1","12,0030,9,1","24,0033,9,1",,,,,"08,99,1,08,1,07,1,01250,1,00,1,00,1","0384,9","09,9","999,+0050,9","999,N,+0056,1","99999,9,09080,1","7,1,020,1,+999,9",,"SYN106AAXX  27064 08226 12660 80000 10060 20060 39080 49811 57020 60032 88700 333 20056 31005 50064 55064 70033;",
"08226099999","2010-02-27T09:00:00","4","40.6666666","-3.1666666","640.0","GUADALAJARA, SP","FM-12","99999","V020","350,1,N,0010,1","01500,1,9,N","010000,1,N,1","+0113,1","+0113,1","09768,1",,,,,,,"08,99,1,08,1,07,1,01750,1,00,1,00,1",,,,,"99999,9,09054,1","6,1,026,1,+999,9",,"SYN066AAXX  27094 08226 42760 83502 10113 20113 39054 49768 56026 88700;",
"08226099999","2010-02-27T12:00:00","4","40.6666666","-3.1666666","640.0","GUADALAJARA, SP","FM-12","99999","V020","180,1,N,0072,1","01200,1,9,N","010000,1,N,1","+0150,1","+0134,1","09736,1","06,0005,9,1",,,,,,"08,99,1,08,1,07,1,01250,1,00,1,00,1",,,,,"99999,9,09034,1","7,1,020,1,+999,9",,"SYN072AAXX  27124 08226 12660 81814 10150 20134 39034 49736 57020 69951 88700;",
"08226099999","2010-02-28T06:00:00","4","40.6666666","-3.1666666","640.0","GUADALAJARA, SP","FM-12","99999","V020","190,1,N,0015,1","01200,1,9,N","010000,1,N,1","+0060,1","+0045,1","09833,1","12,0000,9,1","24,0015,9,1",,,,,"07,99,1,07,1,07,1,01250,1,00,1,00,1","0000,9","09,9","999,+0060,9","999,N,+0060,1","99999,9,09100,1","2,1,015,1,+999,9",,"SYN106AAXX  28064 08226 12660 71903 10060 20045 39100 49833 52015 60002 87700 333 20060 31006 50054 55000 70015;","Q01  00002PRCP12"
"08226099999","2010-02-28T09:00:00","4","40.6666666","-3.1666666","640.0","GUADALAJARA, SP","FM-12","99999","V020","210,1,N,0031,1","22000,1,9,N","010000,1,N,1","+0070,1","+0034,1","09857,1",,,,,,,"06,99,1,04,1,07,1,01250,1,00,1,01,1",,,,,"99999,9,09124,1","2,1,024,1,+999,9",,"SYN066AAXX  28094 08226 42660 62106 10070 20034 39124 49857 52024 84701;",
"08226099999","2010-02-28T12:00:00","4","40.6666666","-3.1666666","640.0","GUADALAJARA, SP","FM-12","99999","V020","210,1,N,0036,1","22000,1,9,N","010000,1,N,1","+0100,1","+0037,1","09855,1","06,0000,9,1",,,,,,"04,99,1,03,1,07,1,01250,1,00,1,01,1",,,,,"99999,9,09130,1","1,1,006,1,+999,9",,"SYN072AAXX  28124 08226 12660 42107 10100 20037 39130 49855 51006 60001 83701;","Q01  00002PRCP06"
"08226099999","2010-03-01T06:00:00","4","40.6666666","-3.1666666","640.0","GUADALAJARA, SP","FM-12","99999","V020","200,1,N,0041,1","01200,1,9,N","010000,1,N,1","+0058,1","+0043,1","09860,1","12,0000,9,1","24,0000,9,1",,,,,"05,99,1,05,1,07,1,01250,1,00,1,00,1","0426,9","09,9","999,+0010,9","999,N,+0054,1","99999,9,09124,1","2,1,020,1,+999,9",,"SYN106AAXX  01064 08226 12660 52008 10058 20043 39124 49860 52020 60002 85700 333 20054 31001 50084 55071 70000;","Q01  00002PRCP24Q02  00002PRCP12"
"08226099999","2010-03-01T09:00:00","4","40.6666666","-3.1666666","640.0","GUADALAJARA, SP","FM-12","99999","V020","210,1,N,0046,1","01200,1,9,N","010000,1,N,1","+0063,1","+0048,1","09891,1",,,,,,,"06,99,1,06,1,07,1,01250,1,00,1,00,1",,,,,"99999,9,09154,1","2,1,030,1,+999,9",,"SYN066AAXX  01094 08226 42660 62109 10063 20048 39154 49891 52030 86700;",
"08226099999","2010-03-01T12:00:00","4","40.6666666","-3.1666666","640.0","GUADALAJARA, SP","FM-12","99999","V020","210,1,N,0077,1","01200,1,9,N","010000,1,N,1","+0105,1","+0042,1","09929,1","06,0000,9,1",,,,,,"05,99,1,05,1,07,1,01250,1,00,1,00,1",,,,,"99999,9,09200,1","1,1,046,1,+999,9",,"SYN072AAXX  01124 08226 12660 52115 10105 20042 39200 49929 51046 60001 85700;","Q01  00002PRCP06"
"08226099999","2010-03-02T06:00:00","4","40.6666666","-3.1666666","640.0","GUADALAJARA, SP","FM-12","99999","V020","010,1,N,0005,1","02100,1,9,N","010000,1,N,1","+0018,1","+0011,1","09958,1","12,0000,9,1","24,0000,9,1",,,,,"06,99,1,06,1,00,1,02250,1,05,1,00,1","0474,9","09,9","999,+0000,9","999,N,+0013,1","99999,9,09204,1","7,1,010,1,+999,9",,"SYN106AAXX  02064 08226 12860 60101 10018 20011 39204 49958 57010 60002 86050 333 20013 31000 50154 55079 70000;","Q01  00002PRCP24Q02  00002PRCP12"
"08226099999","2010-03-02T09:00:00","4","40.6666666","-3.1666666","640.0","GUADALAJARA, SP","FM-12","99999","V020","350,1,N,0041,1","02100,1,9,N","010000,1,N,1","+0047,1","+0030,1","09939,1",,,,,,,"06,99,1,06,1,00,1,02250,1,05,1,00,1",,,,,"99999,9,09194,1","6,1,010,1,+999,9",,"SYN066AAXX  02094 08226 42860 63508 10047 20030 39194 49939 56010 86050;",
"08226099999","2010-03-02T12:00:00","4","40.6666666","-3.1666666","640.0","GUADALAJARA, SP","FM-12","99999","V020","150,1,N,0036,1","02100,1,9,N","010000,1,N,1","+0135,1","+0059,1","09893,1","06,0000,9,1",,,,,,"08,99,1,08,1,00,1,02250,1,07,1,00,1",,,,,"99999,9,09174,1","7,1,020,1,+999,9",,"SYN072AAXX  02124 08226 12860 81507 10135 20059 39174 49893 57020 60001 88070;","Q01  00002PRCP06"
"08226099999","2010-03-03T06:00:00","4","40.6666666","-3.1666666","640.0","GUADALAJARA, SP","FM-12","99999","V020","999,9,C,0000,1","01200,1,9,N","006000,1,N,1","+0062,1","+0062,1","09815,1","12,0061,9,2","24,0058,9,2",,"6,1,06,1","2,1,06,1",,"08,99,1,08,1,07,1,01250,1,99,9,99,9","0294,9","11,9","999,+0060,9","999,N,+0061,1","99999,9,09084,1","7,1,010,1,+999,9","61,1","SYN106AAXX  03064 08226 11656 80000 10062 20062 39084 49815 57010 60062 76162 887// 333 20061 32006 55049 70059;",
"08226099999","2010-03-03T09:00:00","4","40.6666666","-3.1666666","640.0","GUADALAJARA, SP","FM-12","99999","V020","999,9,C,0000,1","01200,1,9,N","008000,1,N,1","+0064,1","+0064,1","09823,1",,,,"6,1,03,1","2,1,03,1",,"08,99,1,08,1,07,1,01250,1,99,9,99,9",,,,,"99999,9,09092,1","3,1,008,1,+999,9","61,1","SYN072AAXX  03094 08226 41658 80000 10064 20064 39092 49823 53008 76162 887//;",
"08226099999","2010-03-03T12:00:00","4","40.6666666","-3.1666666","640.0","GUADALAJARA, SP","FM-12","99999","V020","220,1,N,0026,1","01500,1,9,N","010000,1,N,1","+0080,1","+0080,1","09831,1","06,0041,9,1",,,,,,"08,99,1,08,1,07,1,01750,1,00,1,00,1",,,,,"99999,9,09104,1","2,1,012,1,+999,9",,"SYN072AAXX  03124 08226 12760 82205 10080 20080 39104 49831 52012 60041 88700;",
"08226099999","2010-03-04T06:00:00","4","40.6666666","-3.1666666","640.0","GUADALAJARA, SP","FM-12","99999","V020","999,9,C,0000,1","01500,1,9,N","010000,1,N,1","+0036,1","+0033,1","09887,1","12,0000,9,1","24,0043,9,1",,,,,"05,99,1,05,1,05,1,01750,1,00,1,00,1","0042,9","09,9","999,+0010,9","999,N,+0032,1","99999,9,09144,1","2,1,015,1,+999,9",,"SYN106AAXX  04064 08226 12760 50000 10036 20033 39144 49887 52015 69912 85500 333 20032 31001 50154 55007 70042;","Q01  00002PRCP12"
"08226099999","2010-03-04T09:00:00","4","40.6666666","-3.1666666","640.0","GUADALAJARA, SP","FM-12","99999","V020","999,9,C,0000,1","01200,1,9,N","008000,1,N,1","+0065,1","+0065,1","09900,1",,,,"2,1,03,1","2,1,03,1",,"08,99,1,08,1,06,1,01250,1,00,1,00,1",,,,,"99999,9,09164,1","2,1,020,1,+999,9","10,1","SYN072AAXX  04094 08226 41658 80000 10065 20065 39164 49900 52020 71022 88600;",
"08226099999","2010-03-04T12:00:00","4","40.6666666","-3.1666666","640.0","GUADALAJARA, SP","FM-12","99999","V020","260,1,N,0015,1","00750,1,9,N","010000,1,N,1","+0130,1","+0066,1","09890,1","06,0000,9,1",,,,,,"05,99,1,05,1,07,1,00800,1,00,1,00,1",,,,,"99999,9,09170,1","1,1,006,1,+999,9",,"SYN072AAXX  04124 08226 12560 52603 10130 20066 39170 49890 51006 60001 85700;","Q01  00002PRCP06"
"08226099999","2010-03-05T06:00:00","4","40.6666666","-3.1666666","640.0","GUADALAJARA, SP","FM-12","99999","V020","350,1,N,0041,1","01500,1,9,N","010000,1,N,1","+0052,1","+0029,1","09913,1","12,0000,9,1","24,0000,9,1",,,,,"06,99,1,06,1,00,1,01750,1,08,1,00,1","0192,9","01,9","999,+0050,9","999,N,+0051,1","99999,9,09172,1","7,1,002,1,+999,9",,"SYN100AAXX  05064 08226 12760 63508 10052 20029 39172 49913 57002 60002 86080 333 20051 30005 55032 70000;","Q01  00002PRCP24Q02  00002PRCP12"
"08226099999","2010-03-05T09:00:00","4","40.6666666","-3.1666666","640.0","GUADALAJARA, SP","FM-12","99999","V020","010,1,N,0031,1","01500,1,9,N","010000,1,N,1","+0070,1","+0038,1","09921,1",,,,,,,"06,99,1,06,1,00,1,01750,1,08,1,00,1",,,,,"99999,9,09184,1","2,1,012,1,+999,9",,"SYN066AAXX  05094 08226 42760 60106 10070 20038 39184 49921 52012 86080;",
"08226099999","2010-03-05T12:00:00","4","40.6666666","-3.1666666","640.0","GUADALAJARA, SP","FM-12","99999","V020","030,1,N,0072,1","01200,1,9,N","010000,1,N,1","+0092,1","+0032,1","09913,1","06,0000,9,1",,,,,,"08,99,1,06,1,07,1,01250,1,08,1,99,9",,,,,"99999,9,09182,1","8,1,002,1,+999,9",,"SYN072AAXX  05124 08226 12660 80314 10092 20032 39182 49913 58002 60001 8678/;","Q01  00002PRCP06"
"08226099999","2010-03-06T06:00:00","4","40.6666666","-3.1666666","640.0","GUADALAJARA, SP","FM-12","99999","V020","020,1,N,0021,1","01200,1,9,N","008000,1,N,1","+0021,1","+0021,1","09926,1","12,0170,9,1","24,0193,9,1",,"6,1,06,1","2,1,06,1",,"08,99,1,08,1,07,1,01250,1,99,9,99,9","0012,9","11,9","999,+0020,9","999,N,+0021,1","99999,9,09176,1","6,1,002,1,+999,9","63,1","SYN106AAXX  06064 08226 11658 80204 10021 20021 39176 49926 56002 60172 76362 887// 333 20021 32002 55002 70192;",
"08226099999","2010-03-06T09:00:00","4","40.6666666","-3.1666666","640.0","GUADALAJARA, SP","FM-12","99999","V020","360,1,N,0026,1","01200,1,9,N","008000,1,N,1","+0025,1","+0025,1","09925,1",,,,"6,1,03,1","2,1,03,1",,"08,99,1,08,1,07,1,01250,1,99,9,99,9",,,,,"99999,9,09176,1","4,1,000,1,+999,9","63,1","SYN072AAXX  06094 08226 41658 83605 10025 20025 39176 49925 54000 76362 887//;",
"08226099999","2010-03-06T12:00:00","4","40.6666666","-3.1666666","640.0","GUADALAJARA, SP","FM-12","99999","V020","350,1,N,0026,1","01200,1,9,N","010000,1,N,1","+0042,1","+0024,1","09921,1","06,0041,9,1",,,"6,1,06,1","2,1,06,1",,"08,99,1,08,1,07,1,01250,1,99,9,99,9",,,,,"99999,9,09176,1","4,1,000,1,+999,9","02,1","SYN078AAXX  06124 08226 11660 83505 10042 20024 39176 49921 54000 60041 70262 887//;",
"08226099999","2010-03-07T06:00:00","4","40.6666666","-3.1666666","640.0","GUADALAJARA, SP","FM-12","99999","V020","999,9,C,0000,1","01200,1,9,N","010000,1,N,1","+0040,1","+0037,1","09886,1","12,0020,9,1","24,0064,9,1",,"6,1,06,1","5,1,06,1",,"08,99,1,08,1,07,1,01250,1,99,9,99,9","0000,9","11,9","999,+0030,9","999,N,+0039,1","99999,9,09144,1","6,1,010,1,+999,9","20,1","SYN106AAXX  07064 08226 11660 80000 10040 20037 39144 49886 56010 60022 72065 887// 333 20039 32003 55000 70063;",
"08226099999","2010-03-07T09:00:00","4","40.6666666","-3.1666666","640.0","GUADALAJARA, SP","FM-12","99999","V020","999,9,C,0000,1","01200,1,9,N","010000,1,N,1","+0051,1","+0036,1","09883,1",,,,,,,"08,99,1,08,1,07,1,01250,1,99,9,99,9",,,,,"99999,9,09144,1","4,1,000,1,+999,9",,"SYN066AAXX  07094 08226 42660 80000 10051 20036 39144 49883 54000 887//;",
"08226099999","2010-03-07T12:00:00","4","40.6666666","-3.1666666","640.0","GUADALAJARA, SP","FM-12","99999","V020","180,1,N,0026,1","01200,1,9,N","010000,1,N,1","+0069,1","+0040,1","09870,1","06,0000,2,1",,,"5,1,06,1","2,1,06,1",,"08,99,1,08,1,07,1,01250,1,99,9,99,9",,,,,"99999,9,09136,1","8,1,008,1,+999,9","02,1","SYN078AAXX  07124 08226 11660 81805 10069 20040 39136 49870 58008 69901 70252 887//;",
"08226099999","2010-03-08T06:00:00","4","40.6666666","-3.1666666","640.0","GUADALAJARA, SP","FM-12","99999","V020","360,1,N,0057,1","22000,1,9,N","010000,1,N,1","-0013,1","-0068,1","09861,1","12,0041,9,1","24,0046,9,1",,"6,1,06,1","6,1,06,1",,"04,99,1,04,1,07,1,01750,1,00,1,00,1","0000,9","11,9","999,-0020,9","999,N,-0013,1","99999,9,09106,1","4,1,000,1,+999,9","02,1","SYN106AAXX  08064 08226 11760 43611 11013 21068 39106 49861 54000 60042 70266 84700 333 21013 32102 55000 70045;",
"08226099999","2010-03-08T09:00:00","4","40.6666666","-3.1666666","640.0","GUADALAJARA, SP","FM-12","99999","V020","340,1,N,0057,1","22000,1,9,N","010000,1,N,1","+0006,1","-0063,1","09875,1",,,,,,,"01,99,1,01,1,07,1,01750,1,00,1,00,1",,,,,"99999,9,09124,1","1,1,018,1,+999,9",,"SYN066AAXX  08094 08226 42760 13411 10006 21063 39124 49875 51018 81700;",
"08226099999","2010-03-08T12:00:00","4","40.6666666","-3.1666666","640.0","GUADALAJARA, SP","FM-12","99999","V020","350,1,N,0067,1","22000,1,9,N","010000,1,N,1","+0033,1","-0066,1","09859,1","06,0000,9,1",,,,,,"02,99,1,02,1,07,1,01750,1,00,1,00,1",,,,,"99999,9,09116,1","7,1,008,1,+999,9",,"SYN072AAXX  08124 08226 12760 23513 10033 21066 39116 49859 57008 60001 82700;","Q01  00002PRCP06"
"08226099999","2010-03-09T06:00:00","4","40.6666666","-3.1666666","640.0","GUADALAJARA, SP","FM-12","99999","V020","999,9,C,0000,1","22000,1,9,N","010000,1,N,1","-0022,1","-0065,1","09851,1","12,0000,9,1","24,0000,9,1",,,,"00,1,+99999,9,99,9","00,99,1,00,1,00,1,99999,9,00,1,00,1","0498,9","14,9","999,-0050,9","999,N,-0031,1","99999,9,09094,1","2,1,010,1,+999,9",,"SYN094AAXX  09064 08226 12960 00000 11022 21065 39094 49851 52010 60002 333 21031 34105 55083 70000;","Q01  00002PRCP24Q02  00002PRCP12"
"08226099999","2010-03-09T09:00:00","4","40.6666666","-3.1666666","640.0","GUADALAJARA, SP","FM-12","99999","V020","030,1,N,0015,1","22000,1,9,N","010000,1,N,1","+0021,1","-0038,1","09862,1",,,,,,"00,1,+99999,9,99,9","00,99,1,00,1,00,1,99999,9,00,1,00,1",,,,,"99999,9,09116,1","2,1,022,1,+999,9",,"SYN060AAXX  09094 08226 42960 00303 10021 21038 39116 49862 52022;",
"08226099999","2010-03-10T09:00:00","4","40.6666666","-3.1666666","640.0","GUADALAJARA, SP","FM-12","99999","V020","999,9,C,0000,1","22000,1,9,N","010000,1,N,1","+0029,1","-0050,1","09901,1",,,,,,"00,1,+99999,9,99,9","00,99,1,00,1,00,1,99999,9,00,1,00,1",,,,,"99999,9,09154,1","4,1,000,1,+999,9",,"SYN060AAXX  10094 08226 42960 00000 10029 21050 39154 49901 54000;",
"08226099999","2010-03-10T12:00:00","4","40.6666666","-3.1666666","640.0","GUADALAJARA, SP","FM-12","99999","V020","020,1,N,0062,1","22000,1,9,N","010000,1,N,1","+0058,1","-0038,1","09893,1","06,0000,9,1",,,,,,"01,99,1,01,1,08,1,01750,1,00,1,00,1",,,,,"99999,9,09154,1","4,1,000,1,+999,9",,"SYN072AAXX  10124 08226 12760 10212 10058 21038 39154 49893 54000 60001 81800;","Q01  00002PRCP06"
"08226099999","2010-03-11T06:00:00","4","40.6666666","-3.1666666","640.0","GUADALAJARA, SP","FM-12","99999","V020","999,9,C,0000,1","22000,1,9,N","010000,1,N,1","-0043,1","-0060,1","09922,1","12,0000,9,1","24,0000,9,1",,,,,"01,99,1,01,1,00,1,02250,1,03,1,00,1","0612,9","14,9","999,-0060,9","999,N,-0043,1","99999,9,09154,1","6,1,010,1,+999,9",,"SYN100AAXX  11064 08226 12860 10000 11043 21060 39154 49922 56010 60002 81030 333 21043 34106 55102 70000;","Q01  00002PRCP24Q02  00002PRCP12"
"08226099999","2010-03-11T09:00:00","4","40.6666666","-3.1666666","640.0","GUADALAJARA, SP","FM-12","99999","V020","999,9,C,0000,1","22000,1,9,N","010000,1,N,1","+0021,1","-0028,1","09916,1",,,,,,,"01,99,1,01,1,00,1,02250,1,03,1,00,1",,,,,"99999,9,09166,1","2,1,012,1,+999,9",,"SYN066AAXX  11094 08226 42860 10000 10021 21028 39166 49916 52012 81030;",
"08226099999","2010-03-11T12:00:00","4","40.6666666","-3.1666666","640.0","GUADALAJARA, SP","FM-12","99999","V020","360,1,N,0015,1","01500,1,9,N","010000,1,N,1","+0043,1","-0037,1","09908,1","06,0000,9,1",,,,,,"05,99,1,05,1,07,1,01750,1,00,1,00,1",,,,,"99999,9,09164,1","8,1,002,1,+999,9",,"SYN072AAXX  11124 08226 12760 53603 10043 21037 39164 49908 58002 60001 85700;","Q01  00002PRCP06"
"08226099999","2010-03-12T06:00:00","4","40.6666666","-3.1666666","640.0","GUADALAJARA, SP","FM-12","99999","V020","999,9,C,0000,1","01500,1,9,N","010000,1,N,1","+0017,1","-0001,1","09926,1","12,0000,9,1","24,0000,9,1",,,,,"08,99,1,99,9,05,1,01750,1,07,1,00,1","0462,9","01,9","999,+0010,9","999,N,+0017,1","99999,9,09174,1","3,1,004,1,+999,9",,"SYN106AAXX  12064 08226 12760 80000 10017 21001 39174 49926 53004 60002 88570 333 20017 30001 50404 55077 70000;","Q01+000082SCOTLCQ02  00002PRCP24Q03  00002PRCP12"
"08226099999","2010-03-12T09:00:00","4","40.6666666","-3.1666666","640.0","GUADALAJARA, SP","FM-12","99999","V020","999,9,C,0000,1","01500,1,9,N","010000,1,N,1","+0026,1","+0008,1","09945,1",,,,,,,"08,99,1,06,1,05,1,01750,1,05,1,00,1",,,,,"99999,9,09194,1","2,1,020,1,+999,9",,"SYN066AAXX  12094 08226 42760 80000 10026 20008 39194 49945 52020 86550;",
"08226099999","2010-03-12T12:00:00","4","40.6666666","-3.1666666","640.0","GUADALAJARA, SP","FM-12","99999","V020","040,1,N,0021,1","01500,1,9,N","010000,1,N,1","+0045,1","-0005,1","09946,1","06,0000,9,1",,,,,,"08,99,1,06,1,05,1,01750,1,05,1,00,1",,,,,"99999,9,09200,1","1,1,006,1,+999,9",,"SYN072AAXX  12124 08226 12760 80404 10045 21005 39200 49946 51006 60001 86550;","Q01  00002PRCP06"
"08226099999","2010-03-13T06:00:00","4","40.6666666","-3.1666666","640.0","GUADALAJARA, SP","FM-12","99999","V020","999,9,C,0000,1","22000,1,9,N","010000,1,N,1","-0050,1","-0064,1","10022,1","12,0000,9,1","24,0000,9,1",,,,"00,1,+99999,9,99,9","00,99,1,00,1,00,1,99999,9,00,1,00,1","0000,9","01,9","999,-0070,9","999,N,-0051,1","99999,9,09244,1","4,1,000,1,+999,9",,"SYN100AAXX  13064 08226 12960 00000 11050 21064 39244 40022 54000 60002 333 21051 30107 50354 55000 70000;","Q01  00002PRCP24Q02  00002PRCP12"
"08226099999","2010-03-13T12:00:00","4","40.6666666","-3.1666666","640.0","GUADALAJARA, SP","FM-12","99999","V020","320,1,N,0026,1","22000,1,9,N","010000,1,N,1","+0065,1","-0007,1","10010,1","06,0000,9,1",,,,,,"04,99,1,04,1,04,1,01250,1,00,1,00,1",,,,,"99999,9,09264,1","4,1,000,1,+999,9",,"SYN072AAXX  13124 08226 12660 43205 10065 21007 39264 40010 54000 60001 84400;","Q01  00002PRCP06"
"08226099999","2010-03-14T06:00:00","4","40.6666666","-3.1666666","640.0","GUADALAJARA, SP","FM-12","99999","V020","999,9,C,0000,1","22000,1,9,N","010000,1,N,1","-0031,1","-0045,1","10038,1","12,0000,9,1","24,0000,9,1",,,,"00,1,+99999,9,99,9","00,99,1,00,1,00,1,99999,9,00,1,00,1","0468,9","01,9","999,-0060,9","999,N,-0032,1","99999,9,09264,1","4,1,000,1,+999,9",,"SYN100AAXX  14064 08226 12960 00000 11031 21045 39264 40038 54000 60002 333 21032 30106 50454 55078 70000;","Q01  00002PRCP24Q02  00002PRCP12"
"08226099999","2010-03-14T09:00:00","4","40.6666666","-3.1666666","640.0","GUADALAJARA, SP","FM-12","99999","V020","010,1,N,0046,1","22000,1,9,N","010000,1,N,1","+0043,1","-0007,1","10027,1",,,,,,"00,1,+99999,9,99,9","00,99,1,00,1,00,1,99999,9,00,1,00,1",,,,,"99999,9,09274,1","2,1,010,1,+999,9",,"SYN060AAXX  14094 08226 42960 00109 10043 21007 39274 40027 52010;",
"08226099999","2010-03-14T12:00:00","4","40.6666666","-3.1666666","640.0","GUADALAJARA, SP","FM-12","99999","V020","010,1,N,0041,1","22000,1,9,N","010000,1,N,1","+0095,1","-0018,1","10013,1","06,0000,9,1",,,,,,"02,99,1,00,1,00,1,99999,9,00,1,01,1",,,,,"99999,9,09274,1","0,1,000,1,+999,9",,"SYN072AAXX  14124 08226 12960 20108 10095 21018 39274 40013 50000 60001 80001;","Q01  00002PRCP06"
"08226099999","2010-03-15T06:00:00","4","40.6666666","-3.1666666","640.0","GUADALAJARA, SP","FM-12","99999","V020","999,9,C,0000,1","22000,1,9,N","010000,1,N,1","-0040,1","-0061,1","10051,1","12,0000,9,1","24,0000,9,1",,,,"00,1,+99999,9,99,9","00,99,1,00,1,00,1,99999,9,00,1,00,1","0636,9","01,9","999,-0060,9","999,N,-0041,1","99999,9,09274,1","4,1,000,1,+999,9",,"SYN100AAXX  15064 08226 12960 00000 11040 21061 39274 40051 54000 60002 333 21041 30106 50454 55106 70000;","Q01  00002PRCP24Q02  00002PRCP12"
"08226099999","2010-03-15T09:00:00","4","40.6666666","-3.1666666","640.0","GUADALAJARA, SP","FM-12","99999","V020","360,1,N,0026,1","22000,1,9,N","010000,1,N,1","+0030,1","-0029,1","10041,1",,,,,,"00,1,+99999,9,99,9","00,99,1,00,1,00,1,99999,9,00,1,00,1",,,,,"99999,9,09284,1","3,1,010,1,+999,9",,"SYN060AAXX  15094 08226 42960 03605 10030 21029 39284 40041 53010;",
"08226099999","2010-03-15T12:00:00","4","40.6666666","-3.1666666","640.0","GUADALAJARA, SP","FM-12","99999","V020","999,9,C,0000,1","22000,1,9,N","010000,1,N,1","+0130,1","-0003,1","09999,1","06,0000,9,1",,,,,"00,1,+99999,9,99,9","00,99,1,00,1,00,1,99999,9,00,1,00,1",,,,,"99999,9,09270,1","8,1,014,1,+999,9",,"SYN066AAXX  15124 08226 12960 00000 10130 21003 39270 49999 58014 60001;","Q01  00002PRCP06"
"08226099999","2010-03-16T06:00:00","4","40.6666666","-3.1666666","640.0","GUADALAJARA, SP","FM-12","99999","V020","999,9,C,0000,1","22000,1,9,N","010000,1,N,1","-0032,1","-0061,1","10034,1","12,0000,9,1","24,0000,9,1",,,,"00,1,+99999,9,99,9","00,99,1,00,1,00,1,99999,9,00,1,00,1","0642,9","01,9","999,-0060,9","999,N,-0033,1","99999,9,09260,1","4,1,000,1,+999,9",,"SYN100AAXX  16064 08226 12960 00000 11032 21061 39260 40034 54000 60002 333 21033 30106 50504 55107 70000;","Q01  00002PRCP24Q02  00002PRCP12"
"08226099999","2010-03-16T09:00:00","4","40.6666666","-3.1666666","640.0","GUADALAJARA, SP","FM-12","99999","V020","360,1,N,0026,1","22000,1,9,N","010000,1,N,1","+0050,1","-0010,1","10019,1",,,,,,"00,1,+99999,9,99,9","00,99,1,00,1,00,1,99999,9,00,1,00,1",,,,,"99999,9,09269,1","1,1,009,1,+999,9",,"SYN060AAXX  16094 08226 42960 03605 10050 21010 39269 40019 51009;",
"08226099999","2010-03-16T12:00:00","4","40.6666666","-3.1666666","640.0","GUADALAJARA, SP","FM-12","99999","V020","280,1,N,0021,1","22000,1,9,N","010000,1,N,1","+0150,1","+0022,1","09987,1","06,0000,9,1",,,,,,"02,99,1,00,1,00,1,99999,9,00,1,01,1",,,,,"99999,9,09264,1","8,1,005,1,+999,9",,"SYN072AAXX  16124 08226 12960 22804 10150 20022 39264 49987 58005 60001 80001;","Q01  00002PRCP06"
"08226099999","2010-03-17T06:00:00","4","40.6666666","-3.1666666","640.0","GUADALAJARA, SP","FM-12","99999","V020","350,1,N,0021,1","22000,1,9,N","010000,1,N,1","-0010,1","-0040,1","10053,1","12,0000,9,1","24,0000,9,1",,,,"00,1,+99999,9,99,9","00,99,1,00,1,00,1,99999,9,00,1,00,1","0624,9","01,9","999,-0030,9","999,N,-0011,1","99999,9,09284,1","2,1,010,1,+999,9",,"SYN100AAXX  17064 08226 12960 03504 11010 21040 39284 40053 52010 60002 333 21011 30103 50404 55104 70000;","Q01  00002PRCP24Q02  00002PRCP12"
"08226099999","2010-03-17T09:00:00","4","40.6666666","-3.1666666","640.0","GUADALAJARA, SP","FM-12","99999","V020","360,1,N,0051,1","22000,1,9,N","010000,1,N,1","+0063,1","+0012,1","10042,1",,,,,,"00,1,+99999,9,99,9","00,99,1,00,1,00,1,99999,9,00,1,00,1",,,,,"99999,9,09294,1","1,1,010,1,+999,9",,"SYN060AAXX  17094 08226 42960 03610 10063 20012 39294 40042 51010;",
"08226099999","2010-03-17T12:00:00","4","40.6666666","-3.1666666","640.0","GUADALAJARA, SP","FM-12","99999","V020","230,1,N,0010,1","22000,1,9,N","010000,1,N,1","+0156,1","+0021,1","10009,1","06,0000,9,1",,,,,"00,1,+99999,9,99,9","00,99,1,00,1,00,1,99999,9,00,1,00,1",,,,,"99999,9,09286,1","8,1,008,1,+999,9",,"SYN066AAXX  17124 08226 12960 02302 10156 20021 39286 40009 58008 60001;","Q01  00002PRCP06"
"08226099999","2010-03-18T06:00:00","4","40.6666666","-3.1666666","640.0","GUADALAJARA, SP","FM-12","99999","V020","999,9,C,0000,1","22000,1,9,N","010000,1,N,1","+0024,1","-0004,1","10032,1","12,0000,9,1","24,0000,9,1",,,,,"03,99,1,02,1,00,1,01750,1,03,1,01,1","0642,9","01,9","999,+0000,9","999,N,+0024,1","99999,9,09274,1","4,1,000,1,+999,9",,"SYN100AAXX  18064 08226 12760 30000 10024 21004 39274 40032 54000 60002 82031 333 20024 30000 55107 70000;","Q01  00002PRCP24Q02  00002PRCP12"
"08226099999","2010-03-18T09:00:00","4","40.6666666","-3.1666666","640.0","GUADALAJARA, SP","FM-12","99999","V020","350,1,N,0015,1","01500,1,9,N","010000,1,N,1","+0068,1","+0029,1","10028,1",,,,,,,"08,99,1,08,1,07,1,01750,1,99,9,99,9",,,,,"99999,9,09282,1","3,1,008,1,+999,9",,"SYN066AAXX  18094 08226 42760 83503 10068 20029 39282 40028 53008 887//;",
"08226099999","2010-03-18T12:00:00","4","40.6666666","-3.1666666","640.0","GUADALAJARA, SP","FM-12","99999","V020","020,1,N,0021,1","01500,1,9,N","010000,1,N,1","+0109,1","+0052,1","10017,1","06,9999,9,9",,,"5,1,06,1","2,1,06,1",,"08,99,1,08,1,07,1,01750,1,99,9,99,9",,,,,"99999,9,09283,1","0,1,001,1,+999,9","20,1","SYN078AAXX  18124 08226 11760 80204 10109 20052 39283 40017 50001 69901 72052 887//;","Q01  00002PRCP06Q02  00002PRCP06"
"08226099999","2010-03-19T06:00:00","4","40.6666666","-3.1666666","640.0","GUADALAJARA, SP","FM-12","99999","V020","999,9,C,0000,1","22000,1,9,N","010000,1,N,1","+0050,1","+0041,1","10009,1","12,0000,9,1","24,0000,2,1",,,,,"04,99,1,03,1,07,1,01750,1,00,1,01,1","0246,9","01,9","999,+0020,9","999,N,+0039,1","99999,9,09260,1","7,1,010,1,+999,9",,"SYN100AAXX  19064 08226 12760 40000 10050 20041 39260 40009 57010 60002 83701 333 20039 30002 55041 79999;","Q01  00002PRCP12"
"08226099999","2010-03-19T09:00:00","4","40.6666666","-3.1666666","640.0","GUADALAJARA, SP","FM-12","99999","V020","999,9,C,0000,1","01500,1,9,N","010000,1,N,1","+0100,1","+0074,1","09999,1",,,,,,,"08,99,1,06,1,07,1,01750,1,08,1,99,9",,,,,"99999,9,09264,1","3,1,004,1,+999,9",,"SYN066AAXX  19094 08226 42760 80000 10100 20074 39264 49999 53004 8678/;",
"08226099999","2010-03-19T12:00:00","4","40.6666666","-3.1666666","640.0","GUADALAJARA, SP","FM-12","99999","V020","190,1,N,0026,1","01500,1,9,N","010000,1,N,1","+0128,1","+0119,1","09993,1","06,0020,9,1",,,"6,1,06,1","2,1,06,1",,"08,99,1,08,1,07,1,01750,1,99,9,99,9",,,,,"99999,9,09266,1","2,1,002,1,+999,9","61,1","SYN078AAXX  19124 08226 11760 81905 10128 20119 39266 49993 52002 60021 76162 887//;",
"08226099999","2010-03-20T06:00:00","4","40.6666666","-3.1666666","640.0","GUADALAJARA, SP","FM-12","99999","V020","210,1,N,0015,1","01500,1,9,N","010000,1,N,1","+0104,1","+0080,1","09955,1","12,0000,9,1","24,0025,9,1",,,,,"08,99,1,08,1,07,1,01750,1,99,9,99,9","0042,9","09,9","999,+0090,9","999,N,+0100,1","99999,9,09224,1","4,1,000,1,+999,9",,"SYN100AAXX  20064 08226 12760 82103 10104 20080 39224 49955 54000 60002 887// 333 20100 31009 55007 70026;","Q01  00002PRCP12"
"08226099999","2010-03-20T09:00:00","4","40.6666666","-3.1666666","640.0","GUADALAJARA, SP","FM-12","99999","V020","180,1,N,0005,1","01500,1,9,N","010000,1,N,1","+0142,1","+0088,1","09957,1",,,,,,,"08,99,1,08,1,07,1,01750,1,99,9,99,9",,,,,"99999,9,09236,1","1,1,012,1,+999,9",,"SYN066AAXX  20094 08226 42760 81801 10142 20088 39236 49957 51012 887//;",
"08226099999","2010-03-20T12:00:00","4","40.6666666","-3.1666666","640.0","GUADALAJARA, SP","FM-12","99999","V020","200,1,N,0036,1","01500,1,9,N","010000,1,N,1","+0157,1","+0084,1","09962,1","06,0000,9,1",,,,,,"08,99,1,08,1,07,1,01750,1,99,9,99,9",,,,,"99999,9,09244,1","2,1,008,1,+999,9",,"SYN072AAXX  20124 08226 12760 82007 10157 20084 39244 49962 52008 60001 887//;","Q01  00002PRCP06"
"08226099999","2010-03-21T06:00:00","4","40.6666666","-3.1666666","640.0","GUADALAJARA, SP","FM-12","99999","V020","999,9,C,0000,1","01500,1,9,N","010000,1,N,1","+0064,1","+0055,1","09972,1","12,0000,9,1","24,0000,9,1",,,,,"05,99,1,05,1,07,1,01750,1,00,1,00,1","0000,9","01,9","999,+0050,9","999,N,+0063,1","99999,9,09230,1","7,1,004,1,+999,9",,"SYN100AAXX  21064 08226 12760 50000 10064 20055 39230 49972 57004 60002 85700 333 20063 30005 55000 70000;","Q01  00002PRCP24Q02  00002PRCP12"
"08226099999","2010-03-21T09:00:00","4","40.6666666","-3.1666666","640.0","GUADALAJARA, SP","FM-12","99999","V020","050,1,N,0010,1","01500,1,9,N","010000,1,N,1","+0096,1","+0087,1","09978,1",,,,"5,1,03,1","2,1,03,1",,"08,99,1,08,1,07,1,01750,1,99,9,99,9",,,,,"99999,9,09244,1","2,1,014,1,+999,9","50,1","SYN072AAXX  21094 08226 41760 80502 10096 20087 39244 49978 52014 75052 887//;",
"08226099999","2010-03-21T12:00:00","4","40.6666666","-3.1666666","640.0","GUADALAJARA, SP","FM-12","99999","V020","999,9,C,0000,1","01500,1,9,N","010000,1,N,1","+0150,1","+0108,1","09963,1","06,0000,2,1",,,"5,1,06,1","2,1,06,1",,"08,99,1,08,1,07,1,01750,1,99,9,99,9",,,,,"99999,9,09244,1","4,1,000,1,+999,9","02,1","SYN078AAXX  21124 08226 11760 80000 10150 20108 39244 49963 54000 69921 70252 887//;",
"08226099999","2010-03-22T06:00:00","4","40.6666666","-3.1666666","640.0","GUADALAJARA, SP","FM-12","99999","V020","350,1,N,0015,1","00090,1,9,N","000100,1,N,1","+0049,1","+0049,1","09970,1","12,0020,9,1","24,0023,9,1",,"5,1,06,1","4,1,06,1","09,1,+00090,1,99,9","09,99,1,09,1,99,9,99999,9,99,9,99,9",,"11,9","999,+0040,9","999,N,+0048,1","99999,9,09224,1","4,1,000,1,+999,9","45,1","SYN106AAXX  22064 08226 11/01 93503 10049 20049 39224 49970 54000 60022 74554 333 20048 32004 55/// 70022 89/03;",
"08226099999","2010-03-22T09:00:00","4","40.6666666","-3.1666666","640.0","GUADALAJARA, SP","FM-12","99999","V020","999,9,C,0000,1","22000,1,9,N","010000,1,N,1","+0095,1","+0083,1","09974,1",,,,"4,1,03,1","4,1,03,1",,"03,99,1,03,1,07,1,01750,1,00,1,00,1",,,,,"99999,9,09240,1","2,1,016,1,+999,9","01,1","SYN072AAXX  22094 08226 41760 30000 10095 20083 39240 49974 52016 70144 83700;",
"08226099999","2010-03-22T12:00:00","4","40.6666666","-3.1666666","640.0","GUADALAJARA, SP","FM-12","99999","V020","310,1,N,0010,1","22000,1,9,N","010000,1,N,1","+0164,1","+0091,1","09956,1","06,0000,9,1",,,"4,1,06,1","4,1,06,1",,"02,99,1,02,1,07,1,01750,1,00,1,00,1",,,,,"99999,9,09240,1","4,1,000,1,+999,9","02,1","SYN078AAXX  22124 08226 11760 23102 10164 20091 39240 49956 54000 69911 70244 82700;","Q01  00002PRCP06"
"08226099999","2010-03-23T06:00:00","4","40.6666666","-3.1666666","640.0","GUADALAJARA, SP","FM-12","99999","V020","350,1,N,0021,1","22000,1,9,N","010000,1,N,1","+0053,1","+0041,1","09957,1","12,0000,9,1","24,0000,9,1",,,,,"03,99,1,02,1,00,1,02250,1,08,1,01,1","0432,9","09,9","999,+0030,9","999,N,+0048,1","99999,9,09213,1","7,1,009,1,+999,9",,"SYN100AAXX  23064 08226 12860 33504 10053 20041 39213 49957 57009 60002 82081 333 20048 31003 55072 70001;","Q01  00002PRCP24Q02  00002PRCP12"
"08226099999","2010-03-23T09:00:00","4","40.6666666","-3.1666666","640.0","GUADALAJARA, SP","FM-12","99999","V020","350,1,N,0026,1","22000,1,9,N","010000,1,N,1","+0102,1","+0076,1","09943,1",,,,,,,"03,99,1,02,1,00,1,02250,1,08,1,01,1",,,,,"99999,9,09213,1","4,1,000,1,+999,9",,"SYN066AAXX  23094 08226 42860 33505 10102 20076 39213 49943 54000 82081;",
"08226099999","2010-03-23T12:00:00","4","40.6666666","-3.1666666","640.0","GUADALAJARA, SP","FM-12","99999","V020","999,9,C,0000,1","03600,1,9,N","010000,1,N,1","+0168,1","+0095,1","09905,1","06,0000,9,1",,,,,,"08,99,1,04,1,07,1,01750,1,08,1,99,9",,,,,"99999,9,09194,1","8,1,019,1,+999,9",,"SYN072AAXX  23124 08226 12760 80000 10168 20095 39194 49905 58019 60001 8478/;","Q01  00002PRCP06"
"08226099999","2010-03-24T06:00:00","4","40.6666666","-3.1666666","640.0","GUADALAJARA, SP","FM-12","99999","V020","360,1,N,0021,1","01200,1,9,N","010000,1,N,1","+0080,1","+0065,1","09864,1","12,0000,9,1","24,0000,9,1",,,,,"06,99,1,06,1,05,1,01250,1,00,1,00,1","0222,9","01,9","999,+0070,9","999,N,+0080,1","99999,9,09134,1","4,1,000,1,+999,9",,"SYN106AAXX  24064 08226 12660 63604 10080 20065 39134 49864 54000 60002 86500 333 20080 30007 50304 55037 70000;","Q01  00002PRCP24Q02  00002PRCP12"
"08226099999","2010-03-24T09:00:00","4","40.6666666","-3.1666666","640.0","GUADALAJARA, SP","FM-12","99999","V020","999,9,C,0000,1","01500,1,9,N","010000,1,N,1","+0114,1","+0090,1","09855,1",,,,,,,"06,99,1,06,1,05,1,01750,1,00,1,00,1",,,,,"99999,9,09134,1","4,1,000,1,+999,9",,"SYN066AAXX  24094 08226 42760 60000 10114 20090 39134 49855 54000 86500;",
"08226099999","2010-03-24T12:00:00","4","40.6666666","-3.1666666","640.0","GUADALAJARA, SP","FM-12","99999","V020","180,1,N,0072,1","01800,1,9,N","010000,1,N,1","+0160,1","+0082,1","09832,1","06,0000,9,1",,,,,,"06,99,1,06,1,08,1,01750,1,00,1,00,1",,,,,"99999,9,09124,1","6,1,010,1,+999,9",,"SYN072AAXX  24124 08226 12760 61814 10160 20082 39124 49832 56010 60001 86800;","Q01  00002PRCP06"
"08226099999","2010-03-25T06:00:00","4","40.6666666","-3.1666666","640.0","GUADALAJARA, SP","FM-12","99999","V020","210,1,N,0051,1","01200,1,9,N","010000,1,N,1","+0090,1","+0066,1","09840,1","12,0089,9,1","24,0094,9,1",,,,,"06,99,1,06,1,07,1,01250,1,00,1,00,1","0276,9","01,9","999,+0090,9","999,N,+0090,1","99999,9,09114,1","5,1,000,1,+999,9",,"SYN106AAXX  25064 08226 12660 62110 10090 20066 39114 49840 55000 60092 86700 333 20090 30009 50304 55046 70095;",
"08226099999","2010-03-25T09:00:00","4","40.6666666","-3.1666666","640.0","GUADALAJARA, SP","FM-12","99999","V020","190,1,N,0057,1","00750,1,9,N","010000,1,N,1","+0110,1","+0067,1","09845,1",,,,,,,"06,99,1,06,1,07,1,00800,1,00,1,00,1",,,,,"99999,9,09124,1","1,1,010,1,+999,9",,"SYN066AAXX  25094 08226 42560 61911 10110 20067 39124 49845 51010 86700;",
"08226099999","2010-03-25T12:00:00","4","40.6666666","-3.1666666","640.0","GUADALAJARA, SP","FM-12","99999","V020","200,1,N,0082,1","00750,1,9,N","010000,1,N,1","+0123,1","+0059,1","09842,1","06,0010,9,1",,,,,,"06,99,1,06,1,07,1,00800,1,00,1,00,1",,,,,"99999,9,09124,1","4,1,000,1,+999,9",,"SYN072AAXX  25124 08226 12560 62016 10123 20059 39124 49842 54000 60011 86700;",
"08226099999","2010-03-26T06:00:00","4","40.6666666","-3.1666666","640.0","GUADALAJARA, SP","FM-12","99999","V020","180,1,N,0031,1","00750,1,9,N","010000,1,N,1","+0047,1","+0040,1","09949,1","12,0071,9,1","24,0071,9,1",,,,,"06,99,1,06,1,07,1,00800,1,00,1,00,1","0126,9","01,9","999,+0040,9","999,N,+0040,1","99999,9,09204,1","2,1,020,1,+999,9",,"SYN106AAXX  26064 08226 12560 61806 10047 20040 39204 49949 52020 60072 86700 333 20040 30004 50204 55021 70070;",
"08226099999","2010-03-26T09:00:00","4","40.6666666","-3.1666666","640.0","GUADALAJARA, SP","FM-12","99999","V020","200,1,N,0067,1","00750,1,9,N","010000,1,N,1","+0062,1","+0039,1","09967,1",,,,,,,"07,99,1,07,1,07,1,00800,1,00,1,00,1",,,,,"99999,9,09224,1","2,1,020,1,+999,9",,"SYN066AAXX  26094 08226 42560 72013 10062 20039 39224 49967 52020 87700;",
"08226099999","2010-03-26T12:00:00","4","40.6666666","-3.1666666","640.0","GUADALAJARA, SP","FM-12","99999","V020","230,1,N,0062,1","00750,1,9,N","010000,1,N,1","+0103,1","+0051,1","09955,1","06,0000,9,1",,,,,,"07,99,1,07,1,07,1,00800,1,00,1,00,1",,,,,"99999,9,09224,1","4,1,000,1,+999,9",,"SYN072AAXX  26124 08226 12560 72312 10103 20051 39224 49955 54000 60001 87700;","Q01  00002PRCP06"
"08226099999","2010-03-27T06:00:00","4","40.6666666","-3.1666666","640.0","GUADALAJARA, SP","FM-12","99999","V020","130,1,N,0021,1","22000,1,9,N","010000,1,N,1","+0033,1","+0018,1","10008,1","12,0000,9,1","24,0000,9,1",,,,"00,1,+99999,9,99,9","00,99,1,00,1,00,1,99999,9,00,1,00,1","0252,9","01,9","999,+0010,9","999,N,+0030,1","99999,9,09254,1","1,1,015,1,+999,9",,"SYN100AAXX  27064 08226 12960 01304 10033 20018 39254 40008 51015 60002 333 20030 30001 50204 55042 70000;","Q01  00002PRCP24Q02  00002PRCP12"
"08226099999","2010-03-27T09:00:00","4","40.6666666","-3.1666666","640.0","GUADALAJARA, SP","FM-12","99999","V020","190,1,N,0021,1","22000,1,9,N","010000,1,N,1","+0092,1","+0040,1","10002,1",,,,,,"00,1,+99999,9,99,9","00,99,1,00,1,00,1,99999,9,00,1,00,1",,,,,"99999,9,09264,1","2,1,010,1,+999,9",,"SYN060AAXX  27094 08226 42960 01904 10092 20040 39264 40002 52010;",
"08226099999","2010-03-27T12:00:00","4","40.6666666","-3.1666666","640.0","GUADALAJARA, SP","FM-12","99999","V020","250,1,N,0036,1","22000,1,9,N","010000,1,N,1","+0145,1","+0042,1","09994,1","06,0000,9,1",,,,,,"04,99,1,00,1,00,1,99999,9,00,1,05,1",,,,,"99999,9,09270,1","1,1,006,1,+999,9",,"SYN072AAXX  27124 08226 12960 42507 10145 20042 39270 49994 51006 60001 80005;","Q01  00002PRCP06"
"08226099999","2010-03-28T06:00:00","4","40.6666666","-3.1666666","640.0","GUADALAJARA, SP","FM-12","99999","V020","999,9,C,0000,1","22000,1,9,N","010000,1,N,1","+0030,1","+0023,1","10008,1","12,0000,9,1","24,0000,9,1",,,,,"03,99,1,00,1,00,1,99999,9,00,1,05,1","0612,9","01,9","999,+0020,9","999,N,+0027,1","99999,9,09254,1","4,1,000,1,+999,9",,"SYN106AAXX  28064 08226 12960 30000 10030 20023 39254 40008 54000 60002 80005 333 20027 30002 50504 55102 70000;","Q01  00002PRCP24Q02  00002PRCP12"
"08226099999","2010-03-28T09:00:00","4","40.6666666","-3.1666666","640.0","GUADALAJARA, SP","FM-12","99999","V020","360,1,N,0021,1","22000,1,9,N","010000,1,N,1","+0092,1","+0040,1","09980,1",,,,,,,"04,99,1,00,1,00,1,99999,9,00,1,05,1",,,,,"99999,9,09244,1","8,1,010,1,+999,9",,"SYN066AAXX  28094 08226 42960 43604 10092 20040 39244 49980 58010 80005;",
"08226099999","2010-03-28T12:00:00","4","40.6666666","-3.1666666","640.0","GUADALAJARA, SP","FM-12","99999","V020","230,1,N,0031,1","22000,1,9,N","010000,1,N,1","+0160,1","+0070,1","09940,1","06,0000,9,1",,,,,,"05,99,1,03,1,01,1,01750,1,00,1,01,1",,,,,"99999,9,09224,1","8,1,020,1,+999,9",,"SYN072AAXX  28124 08226 12760 52306 10160 20070 39224 49940 58020 60001 83101;","Q01  00002PRCP06"
"08226099999","2010-03-29T06:00:00","4","40.6666666","-3.1666666","640.0","GUADALAJARA, SP","FM-12","99999","V020","999,9,C,0000,1","01200,1,9,N","010000,1,N,1","+0038,1","+0028,1","09887,1","12,0000,9,1","24,0000,9,1",,,,,"05,99,1,05,1,07,1,01250,1,00,1,00,1","0600,9","01,9","999,+0020,9","999,N,+0034,1","99999,9,09144,1","6,1,006,1,+999,9",,"SYN106AAXX  29064 08226 12660 50000 10038 20028 39144 49887 56006 60002 85700 333 20034 30002 50504 55100 70000;","Q01  00002PRCP24Q02  00002PRCP12"
"08226099999","2010-03-29T09:00:00","4","40.6666666","-3.1666666","640.0","GUADALAJARA, SP","FM-12","99999","V020","200,1,N,0051,1","01500,1,9,N","010000,1,N,1","+0113,1","+0080,1","09866,1",,,,,,,"06,99,1,06,1,07,1,01750,1,00,1,00,1",,,,,"99999,9,09144,1","4,1,000,1,+999,9",,"SYN066AAXX  29094 08226 42760 62010 10113 20080 39144 49866 54000 86700;",
"08226099999","2010-03-29T12:00:00","4","40.6666666","-3.1666666","640.0","GUADALAJARA, SP","FM-12","99999","V020","200,1,N,0082,1","01500,1,9,N","010000,1,N,1","+0132,1","+0068,1","09850,1","06,0000,9,1",,,,,,"08,99,1,08,1,07,1,01750,1,00,1,00,1",,,,,"99999,9,09134,1","6,1,010,1,+999,9",,"SYN072AAXX  29124 08226 12760 82016 10132 20068 39134 49850 56010 60001 88700;","Q01  00002PRCP06"
"08226099999","2010-03-30T06:00:00","4","40.6666666","-3.1666666","640.0","GUADALAJARA, SP","FM-12","99999","V020","200,1,N,0062,1","01200,1,9,N","010000,1,N,1","+0052,1","+0037,1","09879,1","12,0061,9,1","24,0061,9,1",,,,,"07,99,1,07,1,07,1,01250,1,00,1,00,1","0126,9","01,9","999,+0040,9","999,N,+0048,1","99999,9,09140,1","2,1,020,1,+999,9",,"SYN106AAXX  30064 08226 12660 72012 10052 20037 39140 49879 52020 60062 87700 333 20048 30004 50304 55021 70060;",
"08226099999","2010-03-30T09:00:00","4","40.6666666","-3.1666666","640.0","GUADALAJARA, SP","FM-12","99999","V020","200,1,N,0062,1","01200,1,9,N","010000,1,N,1","+0070,1","+0047,1","09891,1",,,,,,,"07,99,1,07,1,07,1,01250,1,00,1,00,1",,,,,"99999,9,09156,1","2,1,016,1,+999,9",,"SYN066AAXX  30094 08226 42660 72012 10070 20047 39156 49891 52016 87700;",
"08226099999","2010-03-30T12:00:00","4","40.6666666","-3.1666666","640.0","GUADALAJARA, SP","FM-12","99999","V020","210,1,N,0072,1","01200,1,9,N","010000,1,N,1","+0095,1","+0062,1","09895,1","06,0000,9,1",,,,,,"07,99,1,07,1,07,1,01250,1,00,1,00,1",,,,,"99999,9,09166,1","1,1,010,1,+999,9",,"SYN072AAXX  30124 08226 12660 72114 10095 20062 39166 49895 51010 60001 87700;","Q01  00002PRCP06"
"08226099999","2010-03-31T06:00:00","4","40.6666666","-3.1666666","640.0","GUADALAJARA, SP","FM-12","99999","V020","999,9,C,0000,1","22000,1,9,N","010000,1,N,1","-0010,1","-0018,1","09947,1","12,0000,9,1","24,0000,9,1",,,,,"01,99,1,01,1,02,1,01750,1,00,1,01,1","0216,9","01,9","999,-0030,9","999,N,-0011,1","99999,9,09186,1","4,1,000,1,+999,9",,"SYN100AAXX  31064 08226 12760 10000 11010 21018 39186 49947 54000 60002 81201 333 21011 30103 55036 70000;","Q01  00002PRCP24Q02  00002PRCP12"
"08226099999","2010-03-31T09:00:00","4","40.6666666","-3.1666666","640.0","GUADALAJARA, SP","FM-12","99999","V020","220,1,N,0015,1","22000,1,9,N","010000,1,N,1","+0079,1","+0006,1","09930,1",,,,,,,"01,99,1,01,1,01,1,01750,1,00,1,01,1",,,,,"99999,9,09194,1","2,1,008,1,+999,9",,"SYN066AAXX  31094 08226 42760 12203 10079 20006 39194 49930 52008 81101;",
"08226099999","2010-03-31T12:00:00","4","40.6666666","-3.1666666","640.0","GUADALAJARA, SP","FM-12","99999","V020","220,1,N,0031,1","22000,1,9,N","010000,1,N,1","+0115,1","+0020,1","09910,1","06,0000,9,1",,,,,,"01,99,1,01,1,01,1,01750,1,00,1,01,1",,,,,"99999,9,09184,1","7,1,010,1,+999,9",,"SYN072AAXX  31124 08226 12760 12206 10115 20020 39184 49910 57010 60001 81101;","Q01  00002PRCP06"
"08226099999","2010-04-01T06:00:00","4","40.6666666","-3.1666666","640.0","GUADALAJARA, SP","FM-12","99999","V020","010,1,N,0010,1","22000,1,9,N","010000,1,N,1","+0014,1","+0004,1","09940,1","12,0000,9,1","24,0000,9,1",,,,,"02,99,1,00,1,00,1,99999,9,00,1,02,1","0648,9","01,9","999,+0010,9","999,N,+0014,1","99999,9,09186,1","3,1,002,1,+999,9",,"SYN100AAXX  01064 08226 12860 20102 10014 20004 39186 49940 53002 60002 80002 333 20014 30001 55108 70000;","Q01+022502SCOLCBQ02  00002PRCP24Q03  00002PRCP12"
"08226099999","2010-04-01T09:00:00","4","40.6666666","-3.1666666","640.0","GUADALAJARA, SP","FM-12","99999","V020","010,1,N,0021,1","22000,1,9,N","010000,1,N,1","+0074,1","+0027,1","09942,1",,,,,,,"03,99,1,00,1,00,1,99999,9,00,1,02,1",,,,,"99999,9,09204,1","2,1,018,1,+999,9",,"SYN066AAXX  01094 08226 42860 30104 10074 20027 39204 49942 52018 80002;","Q01+022502SCOLCB"
"08226099999","2010-04-01T12:00:00","4","40.6666666","-3.1666666","640.0","GUADALAJARA, SP","FM-12","99999","V020","190,1,N,0026,1","01500,1,9,N","010000,1,N,1","+0112,1","+0012,1","09936,1","06,0000,9,1",,,,,,"06,99,1,06,1,07,1,01750,1,00,1,00,1",,,,,"99999,9,09208,1","1,1,004,1,+999,9",,"SYN072AAXX  01124 08226 12760 61905 10112 20012 39208 49936 51004 60001 86700;","Q01  00002PRCP06"
"08226099999","2010-04-02T06:00:00","4","40.6666666","-3.1666666","640.0","GUADALAJARA, SP","FM-12","99999","V020","999,9,C,0000,1","22000,1,9,N","010000,1,N,1","-0013,1","-0019,1","09978,1","12,0000,9,1","24,0000,9,1",,,,,"02,99,1,00,1,00,1,99999,9,00,1,02,1","0468,9","01,9","999,-0030,9","999,N,-0014,1","99999,9,09214,1","4,1,000,1,+999,9",,"SYN100AAXX  02064 08226 12860 20000 11013 21019 39214 49978 54000 60002 80002 333 21014 30103 55078 70000;","Q01+022502SCOLCBQ02  00002PRCP24Q03  00002PRCP12"
"08226099999","2010-04-02T09:00:00","4","40.6666666","-3.1666666","640.0","GUADALAJARA, SP","FM-12","99999","V020","360,1,N,0015,1","22000,1,9,N","010000,1,N,1","+0074,1","+0035,1","09961,1",,,,,,"00,1,+99999,9,99,9","00,99,1,00,1,00,1,99999,9,00,1,00,1",,,,,"99999,9,09222,1","2,1,008,1,+999,9",,"SYN060AAXX  02094 08226 42960 03603 10074 20035 39222 49961 52008;",
"08226099999","2010-04-02T12:00:00","4","40.6666666","-3.1666666","640.0","GUADALAJARA, SP","FM-12","99999","V020","170,1,N,0036,1","22000,1,9,N","010000,1,N,1","+0125,1","+0018,1","09948,1","06,0000,9,1",,,,,"00,1,+99999,9,99,9","00,99,1,00,1,00,1,99999,9,00,1,00,1",,,,,"99999,9,09222,1","4,1,000,1,+999,9",,"SYN066AAXX  02124 08226 12960 01707 10125 20018 39222 49948 54000 60001;","Q01  00002PRCP06"
"08226099999","2010-04-03T06:00:00","4","40.6666666","-3.1666666","640.0","GUADALAJARA, SP","FM-12","99999","V020","999,9,C,0000,1","22000,1,9,N","010000,1,N,1","+0018,1","+0015,1","09925,1","12,0000,9,1","24,0000,9,1",,,,,"03,99,1,00,1,00,1,99999,9,00,1,02,1","0648,9","01,9","999,+0000,9","999,N,+0017,1","99999,9,09174,1","7,1,006,1,+999,9",,"SYN100AAXX  03064 08226 12860 30000 10018 20015 39174 49925 57006 60002 80002 333 20017 30000 55108 70000;","Q01+022502SCOLCBQ02  00002PRCP24Q03  00002PRCP12"
"08226099999","2010-04-03T09:00:00","4","40.6666666","-3.1666666","640.0","GUADALAJARA, SP","FM-12","99999","V020","210,1,N,0031,1","01500,1,9,N","010000,1,N,1","+0084,1","+0055,1","09906,1",,,,,,,"08,99,1,08,1,07,1,01750,1,99,9,99,9",,,,,"99999,9,09174,1","4,1,000,1,+999,9",,"SYN066AAXX  03094 08226 42760 82106 10084 20055 39174 49906 54000 887//;",
"08226099999","2010-04-03T12:00:00","4","40.6666666","-3.1666666","640.0","GUADALAJARA, SP","FM-12","99999","V020","210,1,N,0031,1","01500,1,9,N","010000,1,N,1","+0120,1","+0063,1","09897,1","06,0000,9,1",,,,,,"08,99,1,08,1,07,1,01750,1,99,9,99,9",,,,,"99999,9,09174,1","4,1,000,1,+999,9",,"SYN072AAXX  03124 08226 12760 82106 10120 20063 39174 49897 54000 60001 887//;","Q01  00002PRCP06"
"08226099999","2010-04-04T06:00:00","4","40.6666666","-3.1666666","640.0","GUADALAJARA, SP","FM-12","99999","V020","999,9,C,0000,1","22000,1,9,N","010000,1,N,1","+0008,1","+0005,1","09982,1","12,0000,9,1","24,0038,9,1",,,,,"01,99,1,01,1,08,1,01750,1,00,1,00,1","0006,9","09,9","999,-0010,9","999,N,+0007,1","99999,9,09224,1","2,1,020,1,+999,9",,"SYN100AAXX  04064 08226 12760 10000 10008 20005 39224 49982 52020 69912 81800 333 20007 31101 55001 70037;","Q01  00002PRCP12"
"08226099999","2010-04-04T09:00:00","4","40.6666666","-3.1666666","640.0","GUADALAJARA, SP","FM-12","99999","V020","360,1,N,0031,1","22000,1,9,N","010000,1,N,1","+0083,1","+0041,1","09989,1",,,,,,"00,1,+99999,9,99,9","00,99,1,00,1,00,1,99999,9,00,1,00,1",,,,,"99999,9,09250,1","2,1,026,1,+999,9",,"SYN060AAXX  04094 08226 42960 03606 10083 20041 39250 49989 52026;",
"08226099999","2010-04-04T12:00:00","4","40.6666666","-3.1666666","640.0","GUADALAJARA, SP","FM-12","99999","V020","260,1,N,0015,1","22000,1,9,N","010000,1,N,1","+0130,1","+0028,1","09983,1","06,0000,9,1",,,,,,"02,99,1,02,1,07,1,01750,1,00,1,00,1",,,,,"99999,9,09256,1","2,1,006,1,+999,9",,"SYN072AAXX  04124 08226 12760 22603 10130 20028 39256 49983 52006 60001 82700;","Q01  00002PRCP06"
"08226099999","2010-04-05T06:00:00","4","40.6666666","-3.1666666","640.0","GUADALAJARA, SP","FM-12","99999","V020","999,9,C,0000,1","22000,1,9,N","010000,1,N,1","+0003,1","-0011,1","10051,1","12,0000,9,1","24,0000,9,1",,,,"00,1,+99999,9,99,9","00,99,1,00,1,00,1,99999,9,00,1,00,1","0642,9","01,9","999,-0020,9","999,N,-0002,1","99999,9,09286,1","4,1,000,1,+999,9",,"SYN100AAXX  05064 08226 12960 00000 10003 21011 39286 40051 54000 60002 333 21002 30102 50254 55107 70000;","Q01  00002PRCP24Q02  00002PRCP12"
"08226099999","2010-04-05T09:00:00","4","40.6666666","-3.1666666","640.0","GUADALAJARA, SP","FM-12","99999","V020","350,1,N,0041,1","22000,1,9,N","010000,1,N,1","+0090,1","+0038,1","10026,1",,,,,,"00,1,+99999,9,99,9","00,99,1,00,1,00,1,99999,9,00,1,00,1",,,,,"99999,9,09286,1","4,1,000,1,+999,9",,"SYN060AAXX  05094 08226 42960 03508 10090 20038 39286 40026 54000;",
"08226099999","2010-04-05T12:00:00","4","40.6666666","-3.1666666","640.0","GUADALAJARA, SP","FM-12","99999","V020","170,1,N,0026,1","22000,1,9,N","010000,1,N,1","+0160,1","+0031,1","09995,1","06,0000,9,1",,,,,,"02,99,1,00,1,00,1,99999,9,00,1,01,1",,,,,"99999,9,09274,1","8,1,012,1,+999,9",,"SYN072AAXX  05124 08226 12960 21705 10160 20031 39274 49995 58012 60001 80001;","Q01  00002PRCP06"
"08226099999","2010-04-06T06:00:00","4","40.6666666","-3.1666666","640.0","GUADALAJARA, SP","FM-12","99999","V020","999,9,C,0000,1","22000,1,9,N","010000,1,N,1","+0016,1","+0007,1","09976,1","12,0000,9,1","24,0000,9,1",,,,"00,1,+99999,9,99,9","00,99,1,00,1,00,1,99999,9,00,1,00,1","0654,9","01,9","999,+0000,9","999,N,+0015,1","99999,9,09220,1","7,1,004,1,+999,9",,"SYN100AAXX  06064 08226 12960 00000 10016 20007 39220 49976 57004 60002 333 20015 30000 50354 55109 70000;","Q01  00002PRCP24Q02  00002PRCP12"
"08226099999","2010-04-06T09:00:00","4","40.6666666","-3.1666666","640.0","GUADALAJARA, SP","FM-12","99999","V020","240,1,N,0005,1","22000,1,9,N","010000,1,N,1","+0100,1","+0058,1","09945,1",,,,,,"00,1,+99999,9,99,9","00,99,1,00,1,00,1,99999,9,00,1,00,1",,,,,"99999,9,09214,1","7,1,006,1,+999,9",,"SYN060AAXX  06094 08226 42960 02401 10100 20058 39214 49945 57006;",
"08226099999","2010-04-07T06:00:00","4","40.6666666","-3.1666666","640.0","GUADALAJARA, SP","FM-12","99999","V020","340,1,N,0010,1","01200,1,9,N","010000,1,N,1","+0087,1","+0079,1","09912,1","12,0030,9,2","24,0028,9,2",,,,,"08,99,1,08,1,07,1,01250,1,00,1,00,1","0636,9","09,9","999,+0080,9","999,N,+0080,1","99999,9,09180,1","4,1,000,1,+999,9",,"SYN106AAXX  07064 08226 12660 83402 10087 20079 39180 49912 54000 60032 88700 333 20080 31008 50304 55106 70027;",
"08226099999","2010-04-07T09:00:00","4","40.6666666","-3.1666666","640.0","GUADALAJARA, SP","FM-12","99999","V020","050,1,N,0036,1","01500,1,9,N","010000,1,N,1","+0115,1","+0082,1","09932,1",,,,,,,"05,99,1,05,1,08,1,01250,1,00,1,00,1",,,,,"99999,9,09206,1","3,1,026,1,+999,9",,"SYN066AAXX  07094 08226 42660 50507 10115 20082 39206 49932 53026 85800;",
"08226099999","2010-04-08T06:00:00","4","40.6666666","-3.1666666","640.0","GUADALAJARA, SP","FM-12","99999","V020","010,1,N,0010,1","22000,1,9,N","010000,1,N,1","-0005,1","-0019,1","10030,1","12,0000,9,1","24,0000,9,1",,,,"00,1,+99999,9,99,9","00,99,1,00,1,00,1,99999,9,00,1,00,1","0414,9","01,9","999,-0010,9","999,N,-0006,1","99999,9,09264,1","4,1,000,1,+999,9",,"SYN100AAXX  08064 08226 12960 00102 11005 21019 39264 40030 54000 60002 333 21006 30101 50304 55069 70000;","Q01  00002PRCP24Q02  00002PRCP12"
"08226099999","2010-04-08T09:00:00","4","40.6666666","-3.1666666","640.0","GUADALAJARA, SP","FM-12","99999","V020","040,1,N,0057,1","22000,1,9,N","010000,1,N,1","+0095,1","+0043,1","10007,1",,,,,,"00,1,+99999,9,99,9","00,99,1,00,1,00,1,99999,9,00,1,00,1",,,,,"99999,9,09270,1","1,1,006,1,+999,9",,"SYN060AAXX  08094 08226 42960 00411 10095 20043 39270 40007 51006;",
"08226099999","2010-04-09T06:00:00","4","40.6666666","-3.1666666","640.0","GUADALAJARA, SP","FM-12","99999","V020","010,1,N,0026,1","22000,1,9,N","010000,1,N,1","+0017,1","-0005,1","10023,1","12,0000,9,1","24,0000,9,1",,,,"00,1,+99999,9,99,9","00,99,1,00,1,00,1,99999,9,00,1,00,1","0666,9","01,9","999,+0000,9","999,N,+0013,1","99999,9,09264,1","4,1,000,1,+999,9",,"SYN100AAXX  09064 08226 12960 00105 10017 21005 39264 40023 54000 60002 333 20013 30000 50404 55111 70000;","Q01  00002PRCP24Q02  00002PRCP12"
"08226099999","2010-04-09T09:00:00","4","40.6666666","-3.1666666","640.0","GUADALAJARA, SP","FM-12","99999","V020","340,1,N,0031,1","22000,1,9,N","010000,1,N,1","+0104,1","+0052,1","09998,1",,,,,,"00,1,+99999,9,99,9","00,99,1,00,1,00,1,99999,9,00,1,00,1",,,,,"99999,9,09264,1","4,1,000,1,+999,9",,"SYN060AAXX  09094 08226 42960 03406 10104 20052 39264 49998 54000;",
"08226099999","2010-04-09T12:00:00","4","40.6666666","-3.1666666","640.0","GUADALAJARA, SP","FM-12","99999","V020","200,1,N,0010,1","22000,1,9,N","010000,1,N,1","+0155,1","+0020,1","09975,1","06,0000,9,1",,,,,"00,1,+99999,9,99,9","00,99,1,00,1,00,1,99999,9,00,1,00,1",,,,,"99999,9,09254,1","8,1,010,1,+999,9",,"SYN066AAXX  09124 08226 12960 02002 10155 20020 39254 49975 58010 60001;","Q01  00002PRCP06"
"08226099999","2010-04-10T06:00:00","4","40.6666666","-3.1666666","640.0","GUADALAJARA, SP","FM-12","99999","V020","360,1,N,0015,1","22000,1,9,N","010000,1,N,1","+0020,1","+0005,1","10022,1","12,0000,9,1","24,0000,9,1",,,,"00,1,+99999,9,99,9","00,99,1,00,1,00,1,99999,9,00,1,00,1","0666,9","01,9","999,+0000,9","999,N,+0019,1","99999,9,09264,1","4,1,000,1,+999,9",,"SYN100AAXX  10064 08226 12960 03603 10020 20005 39264 40022 54000 60002 333 20019 30000 50454 55111 70000;","Q01  00002PRCP24Q02  00002PRCP12"
"08226099999","2010-04-10T09:00:00","4","40.6666666","-3.1666666","640.0","GUADALAJARA, SP","FM-12","99999","V020","350,1,N,0036,1","22000,1,9,N","010000,1,N,1","+9999,9","+0081,1","09987,1",,,,,,"00,1,+99999,9,99,9","00,99,1,00,1,00,1,99999,9,00,1,00,1",,,,,"99999,9,09262,1","8,1,002,1,+999,9",,"SYN060AAXX  10094 08226 42960 03507 10135 20081 39262 49987 58002;","Q01+001353ATOT  "
"08226099999","2010-04-11T06:00:00","4","40.6666666","-3.1666666","640.0","GUADALAJARA, SP","FM-12","99999","V020","999,9,C,0000,1","22000,1,9,N","010000,1,N,1","+0008,1","+0001,1","09939,1","12,0000,9,1","24,0000,9,1",,,,"00,1,+99999,9,99,9","00,99,1,00,1,00,1,99999,9,00,1,00,1","0666,9","01,9","999,+0000,9","999,N,+0007,1","99999,9,09184,1","7,1,010,1,+999,9",,"SYN100AAXX  11064 08226 12960 00000 10008 20001 39184 49939 57010 60002 333 20007 30000 50504 55111 70000;","Q01  00002PRCP24Q02  00002PRCP12"
"08226099999","2010-04-11T09:00:00","4","40.6666666","-3.1666666","640.0","GUADALAJARA, SP","FM-12","99999","V020","999,9,C,0000,1","22000,1,9,N","010000,1,N,1","+0120,1","+0045,1","09893,1",,,,,,"00,1,+99999,9,99,9","00,99,1,00,1,00,1,99999,9,00,1,00,1",,,,,"99999,9,09170,1","7,1,014,1,+999,9",,"SYN060AAXX  11094 08226 42960 00000 10120 20045 39170 49893 57014;",
"08226099999","2010-04-11T12:00:00","4","40.6666666","-3.1666666","640.0","GUADALAJARA, SP","FM-12","99999","V020","280,1,N,0010,1","22000,1,9,N","010000,1,N,1","+0190,2","+0032,1","09847,1","06,0000,9,1",,,,,"00,1,+99999,9,99,9","00,99,1,00,1,00,1,99999,9,00,1,00,1",,,,,"99999,9,09144,1","7,1,026,1,+999,9",,"SYN066AAXX  11124 08226 12960 02802 10190 20032 39144 49847 57026 60001;","Q01  00002PRCP06"
"08226099999","2010-04-12T06:00:00","4","40.6666666","-3.1666666","640.0","GUADALAJARA, SP","FM-12","99999","V020","350,1,N,0005,1","22000,1,9,N","010000,1,N,1","+0048,1","+0016,1","09830,1","12,0000,9,1","24,0000,9,1",,,,,"01,99,1,01,1,00,1,02250,1,08,1,00,1",,"01,9","999,+0030,9","999,N,+0048,1","99999,9,09094,1","7,1,004,1,+999,9",,"SYN100AAXX  12064 08226 12860 13501 10048 20016 39094 49830 57004 60002 81080 333 20048 30003 55/// 70000;","Q01  00002PRCP24Q02  00002PRCP12"
"08226099999","2010-04-12T09:00:00","4","40.6666666","-3.1666666","640.0","GUADALAJARA, SP","FM-12","99999","V020","360,1,N,0062,1","22000,1,9,N","010000,1,N,1","+0126,1","+0060,1","09809,1",,,,,,"00,1,+99999,9,99,9","00,99,1,00,1,00,1,99999,9,00,1,00,1",,,,,"99999,9,09094,1","4,1,000,1,+999,9",,"SYN060AAXX  12094 08226 42960 03612 10126 20060 39094 49809 54000;",
"08226099999","2010-04-12T12:00:00","4","40.6666666","-3.1666666","640.0","GUADALAJARA, SP","FM-12","99999","V020","350,1,N,0072,1","22000,1,9,N","010000,1,N,1","+0174,1","+0083,1","09785,1","06,0000,9,1",,,,,"00,1,+99999,9,99,9","00,99,1,00,1,00,1,99999,9,00,1,00,1",,,,,"99999,9,09084,1","7,1,010,1,+999,9",,"SYN066AAXX  12124 08226 12960 03514 10174 20083 39084 49785 57010 60001;","Q01  00002PRCP06"
"08226099999","2010-04-13T06:00:00","4","40.6666666","-3.1666666","640.0","GUADALAJARA, SP","FM-12","99999","V020","360,1,N,0021,1","01500,1,9,N","010000,1,N,1","+0047,1","+0041,1","09860,1","12,0030,9,2","24,0028,9,2",,"6,1,06,1","2,1,06,1",,"08,99,1,08,1,07,1,01750,1,99,9,99,9","0684,9","09,9","999,+0040,9","999,N,+0046,1","99999,9,09122,1","4,1,000,1,+999,9","60,1","SYN106AAXX  13064 08226 11760 83604 10047 20041 39122 49860 54000 60032 76062 887// 333 20046 31004 55114 70027;",
"08226099999","2010-04-13T09:00:00","4","40.6666666","-3.1666666","640.0","GUADALAJARA, SP","FM-12","99999","V020","330,1,N,0015,1","01500,1,9,N","010000,1,N,1","+0061,1","+0052,1","09869,1",,,,"6,1,03,1","5,1,03,1",,"08,99,1,08,1,07,1,01750,1,99,9,99,9",,,,,"99999,9,09134,1","2,1,012,1,+999,9","50,1","SYN072AAXX  13094 08226 41760 83303 10061 20052 39134 49869 52012 75065 887//;",
"08226099999","2010-04-13T12:00:00","4","40.6666666","-3.1666666","640.0","GUADALAJARA, SP","FM-12","99999","V020","040,1,N,0026,1","01500,1,9,N","010000,1,N,1","+0092,1","+0063,1","09865,1","06,0041,9,1",,,"6,1,06,1","5,1,06,1",,"08,99,1,08,1,07,1,01750,1,99,9,99,9",,,,,"99999,9,09138,1","2,1,004,1,+999,9","02,1","SYN078AAXX  13124 08226 11760 80405 10092 20063 39138 49865 52004 60041 70265 887//;",
"08226099999","2010-04-14T06:00:00","4","40.6666666","-3.1666666","640.0","GUADALAJARA, SP","FM-12","99999","V020","350,1,N,0041,1","01200,1,9,N","008000,1,N,1","+0072,1","+0072,1","09844,1","12,0109,9,1","24,0147,9,1",,"6,1,06,1","2,1,06,1",,"08,99,1,08,1,07,1,01250,1,00,1,00,1","0000,9","11,9","999,+0070,9","999,N,+0072,1","99999,9,09114,1","7,1,010,1,+999,9","61,1","SYN106AAXX  14064 08226 11658 83508 10072 20072 39114 49844 57010 60112 76162 88700 333 20072 32007 55000 70148;",
"08226099999","2010-04-14T09:00:00","4","40.6666666","-3.1666666","640.0","GUADALAJARA, SP","FM-12","99999","V020","350,1,N,0026,1","01200,1,9,N","008000,1,N,1","+0078,1","+0078,1","09849,1",,,,"6,1,03,1","5,1,03,1",,"08,99,1,08,1,07,1,01250,1,99,9,99,9",,,,,"99999,9,09120,1","2,1,006,1,+999,9","51,1","SYN072AAXX  14094 08226 41658 83505 10078 20078 39120 49849 52006 75165 887//;",
"08226099999","2010-04-14T12:00:00","4","40.6666666","-3.1666666","640.0","GUADALAJARA, SP","FM-12","99999","V020","350,1,N,0036,1","01200,1,9,N","010000,1,N,1","+0095,1","+0086,1","09847,1","06,0010,9,1",,,"6,1,06,1","5,1,06,1",,"08,99,1,08,1,07,1,01250,1,99,9,99,9",,,,,"99999,9,09122,1","2,1,002,1,+999,9","02,1","SYN078AAXX  14124 08226 11660 83507 10095 20086 39122 49847 52002 60011 70265 887//;",
"08226099999","2010-04-15T06:00:00","4","40.6666666","-3.1666666","640.0","GUADALAJARA, SP","FM-12","99999","V020","160,1,N,0010,1","01200,1,9,N","010000,1,N,1","+0088,1","+0073,1","09829,1","12,0130,9,1","24,0150,9,1",,"6,1,06,1","5,1,06,1",,"08,99,1,08,1,07,1,01250,1,99,9,99,9","0000,9","11,9","999,+0080,9","999,N,+0082,1","99999,9,09104,1","7,1,004,1,+999,9","02,1","SYN106AAXX  15064 08226 11660 81602 10088 20073 39104 49829 57004 60132 70265 887// 333 20082 32008 55000 70151;",
"08226099999","2010-04-15T09:00:00","4","40.6666666","-3.1666666","640.0","GUADALAJARA, SP","FM-12","99999","V020","350,1,N,0026,1","01200,1,9,N","010000,1,N,1","+0095,1","+0092,1","09849,1",,,,"6,1,03,1","5,1,03,1",,"08,99,1,08,1,07,1,01250,1,99,9,99,9",,,,,"99999,9,09124,1","3,1,020,1,+999,9","50,1","SYN072AAXX  15094 08226 41660 83505 10095 20092 39124 49849 53020 75065 887//;",
"08226099999","2010-04-15T12:00:00","4","40.6666666","-3.1666666","640.0","GUADALAJARA, SP","FM-12","99999","V020","999,9,C,0000,1","01200,1,9,N","010000,1,N,1","+0110,1","+0101,1","09849,1","06,0030,9,1",,,"6,1,06,1","5,1,06,1",,"08,99,1,08,1,07,1,01250,1,99,9,99,9",,,,,"99999,9,09128,1","2,1,004,1,+999,9","51,1","SYN078AAXX  15124 08226 11660 80000 10110 20101 39128 49849 52004 60031 75165 887//;",
"08226099999","2010-04-16T06:00:00","4","40.6666666","-3.1666666","640.0","GUADALAJARA, SP","FM-12","99999","V020","999,9,C,0000,1","01500,1,9,N","010000,1,N,1","+0085,1","+0082,1","09862,1","12,0030,9,1","24,0058,9,1",,"8,1,06,1","2,1,06,1",,"08,99,1,06,1,07,1,01750,1,09,1,99,9","0108,9","11,9","999,+0070,9","999,N,+0084,1","99999,9,09134,1","4,1,000,1,+999,9","02,1","SYN106AAXX  16064 08226 11760 80000 10085 20082 39134 49862 54000 60032 70282 8679/ 333 20084 32007 55018 70058;",
"08226099999","2010-04-16T09:00:00","4","40.6666666","-3.1666666","640.0","GUADALAJARA, SP","FM-12","99999","V020","999,9,C,0000,1","01500,1,9,N","010000,1,N,1","+0132,1","+0102,1","09860,1",,,,"6,1,03,1","5,1,03,1",,"07,99,1,06,1,07,1,01750,1,09,1,99,9",,,,,"99999,9,09144,1","3,1,010,1,+999,9","21,1","SYN072AAXX  16094 08226 41760 70000 10132 20102 39144 49860 53010 72165 8679/;",
"08226099999","2010-04-16T12:00:00","4","40.6666666","-3.1666666","640.0","GUADALAJARA, SP","FM-12","99999","V020","999,9,C,0000,1","03600,1,9,N","010000,1,N,1","+0173,1","+0113,1","09850,1","06,0003,9,1",,,"8,1,06,1","2,1,06,1",,"06,99,1,04,1,07,1,01750,1,09,1,00,1",,,,,"99999,9,09144,1","4,1,000,1,+999,9","02,1","SYN078AAXX  16124 08226 11760 60000 10173 20113 39144 49850 54000 69931 70282 84790;",
"08226099999","2010-04-17T06:00:00","4","40.6666666","-3.1666666","640.0","GUADALAJARA, SP","FM-12","99999","V020","999,9,C,0000,1","01200,1,9,N","010000,1,N,1","+0100,1","+0084,1","09880,1","12,9999,9,9","24,0005,9,1",,"5,1,06,1","2,1,06,1",,"08,99,1,08,1,07,1,01250,1,99,9,99,9",,"11,9","999,+0100,9","999,N,+0100,1","99999,9,09154,1","7,1,006,1,+999,9","51,1","SYN106AAXX  17064 08226 11660 80000 10100 20084 39154 49880 57006 69912 75152 887// 333 20100 32010 55/// 70004;","Q01  00002PRCP12Q02  00002PRCP12"
"08226099999","2010-04-17T09:00:00","4","40.6666666","-3.1666666","640.0","GUADALAJARA, SP","FM-12","99999","V020","160,1,N,0031,1","01200,1,9,N","010000,1,N,1","+0107,1","+0088,1","09878,1",,,,"8,1,03,1","6,1,03,1",,"08,99,1,08,1,07,1,01250,1,99,9,99,9",,,,,"99999,9,09154,1","4,1,000,1,+999,9","51,1","SYN072AAXX  17094 08226 41660 81606 10107 20088 39154 49878 54000 75186 887//;",
"08226099999","2010-04-17T12:00:00","4","40.6666666","-3.1666666","640.0","GUADALAJARA, SP","FM-12","99999","V020","180,1,N,0015,1","01200,1,9,N","010000,1,N,1","+0109,1","+0103,1","09877,1","06,0061,9,1",,,"6,1,06,1","2,1,06,1",,"08,99,1,08,1,07,1,01250,1,99,9,99,9",,,,,"99999,9,09154,1","0,1,000,1,+999,9","63,1","SYN078AAXX  17124 08226 11660 81803 10109 20103 39154 49877 50000 60061 76362 887//;",
"08226099999","2010-04-18T06:00:00","4","40.6666666","-3.1666666","640.0","GUADALAJARA, SP","FM-12","99999","V020","999,9,C,0000,1","01200,1,9,N","010000,1,N,1","+0090,1","+0087,1","09882,1","12,0119,9,1","24,0216,9,1",,"8,1,06,1","2,1,06,1",,"07,99,1,06,1,07,1,01250,1,08,1,99,9",,"11,9","999,+0080,9","999,N,+0089,1","99999,9,09154,1","4,1,000,1,+999,9","02,1","SYN106AAXX  18064 08226 11660 70000 10090 20087 39154 49882 54000 60122 70282 8678/ 333 20089 32008 55/// 70215;",
"08226099999","2010-04-18T09:00:00","4","40.6666666","-3.1666666","640.0","GUADALAJARA, SP","FM-12","99999","V020","210,1,N,0026,1","01200,1,9,N","010000,1,N,1","+0121,1","+0095,1","09885,1",,,,,,,"07,99,1,06,1,07,1,01250,1,08,1,99,9",,,,,"99999,9,09164,1","2,1,010,1,+999,9",,"SYN066AAXX  18094 08226 42660 72105 10121 20095 39164 49885 52010 8678/;",
"08226099999","2010-04-18T12:00:00","4","40.6666666","-3.1666666","640.0","GUADALAJARA, SP","FM-12","99999","V020","160,1,N,0041,1","01200,1,9,N","010000,1,N,1","+0110,1","+0084,1","09890,1","06,0005,9,1",,,"6,1,06,1","5,1,06,1",,"08,99,1,08,1,07,1,01250,1,99,9,99,9",,,,,"99999,9,09166,1","0,1,002,1,+999,9","61,1","SYN078AAXX  18124 08226 11660 81608 10110 20084 39166 49890 50002 69951 76165 887//;",
"08226099999","2010-04-19T06:00:00","4","40.6666666","-3.1666666","640.0","GUADALAJARA, SP","FM-12","99999","V020","999,9,C,0000,1","01500,1,9,N","010000,1,N,1","+0095,1","+0089,1","09924,1","12,0030,9,1","24,0058,9,1",,"8,1,06,1","2,1,06,1",,"06,99,1,05,1,07,1,01750,1,08,1,99,9","0162,9","11,9","999,+0080,9","999,N,+0089,1","99999,9,09194,1","3,1,006,1,+999,9","02,1","SYN106AAXX  19064 08226 11760 60000 10095 20089 39194 49924 53006 60032 70282 8578/ 333 20089 32008 55027 70059;",
"08226099999","2010-04-19T09:00:00","4","40.6666666","-3.1666666","640.0","GUADALAJARA, SP","FM-12","99999","V020","999,9,C,0000,1","01500,1,9,N","010000,1,N,1","+0120,1","+0090,1","09935,1",,,,,,,"06,99,1,05,1,07,1,01750,1,08,1,99,9",,,,,"99999,9,09210,1","2,1,016,1,+999,9",,"SYN066AAXX  19094 08226 42760 60000 10120 20090 39210 49935 52016 8578/;",
"08226099999","2010-04-19T12:00:00","4","40.6666666","-3.1666666","640.0","GUADALAJARA, SP","FM-12","99999","V020","200,1,N,0026,1","22000,1,9,N","010000,1,N,1","+0148,1","+0094,1","09930,1","06,0000,9,1",,,,,,"03,99,1,03,1,07,1,01750,1,00,1,00,1",,,,,"99999,9,09212,1","2,1,002,1,+999,9",,"SYN072AAXX  19124 08226 12760 32005 10148 20094 39212 49930 52002 60001 83700;","Q01  00002PRCP06"
"08226099999","2010-04-20T06:00:00","4","40.6666666","-3.1666666","640.0","GUADALAJARA, SP","FM-12","99999","V020","999,9,C,0000,1","22000,1,9,N","010000,1,N,1","+0053,1","+0046,1","09947,1","12,0000,9,1","24,0000,9,1",,,,,"03,99,1,00,1,00,1,99999,9,00,1,01,1","0354,9","01,9","999,+0040,9","999,N,+0050,1","99999,9,09204,1","4,1,000,1,+999,9",,"SYN106AAXX  20064 08226 12960 30000 10053 20046 39204 49947 54000 60002 80001 333 20050 30004 50304 55059 70000;","Q01  00002PRCP24Q02  00002PRCP12"
"08226099999","2010-04-20T09:00:00","4","40.6666666","-3.1666666","640.0","GUADALAJARA, SP","FM-12","99999","V020","020,1,N,0010,1","22000,1,9,N","010000,1,N,1","+0120,1","+0096,1","09939,1",,,,,,,"04,99,1,00,1,00,1,99999,9,00,1,05,1",,,,,"99999,9,09214,1","1,1,010,1,+999,9",,"SYN066AAXX  20094 08226 42960 40202 10120 20096 39214 49939 51010 80005;",
"08226099999","2010-04-20T12:00:00","4","40.6666666","-3.1666666","640.0","GUADALAJARA, SP","FM-12","99999","V020","130,1,N,0036,1","02100,1,9,N","010000,1,N,1","+0195,1","+0139,1","09908,1","06,0000,9,1",,,,,,"06,99,1,06,1,00,1,02250,1,07,1,00,1",,,,,"99999,9,09204,1","8,1,010,1,+999,9",,"SYN072AAXX  20124 08226 12860 61307 10195 20139 39204 49908 58010 60001 86070;","Q01  00002PRCP06"
"08226099999","2010-04-21T06:00:00","4","40.6666666","-3.1666666","640.0","GUADALAJARA, SP","FM-12","99999","V020","360,1,N,0021,1","22000,1,9,N","010000,1,N,1","+0071,1","+0062,1","09921,1","12,0000,9,1","24,0000,9,1",,,,,"04,99,1,00,1,00,1,99999,9,00,1,05,1","0432,9","01,9","999,+0060,9","999,N,+0070,1","99999,9,09184,1","7,1,002,1,+999,9",,"SYN106AAXX  21064 08226 12960 43604 10071 20062 39184 49921 57002 60002 80005 333 20070 30006 50284 55072 70000;","Q01  00002PRCP24Q02  00002PRCP12"
"08226099999","2010-04-21T09:00:00","4","40.6666666","-3.1666666","640.0","GUADALAJARA, SP","FM-12","99999","V020","350,1,N,0021,1","99999,9,9,N","010000,1,N,1","+0163,1","+0119,1","09895,1",,,,,,,"05,99,1,00,1,00,1,99999,9,00,1,05,1",,,,,"99999,9,09184,1","4,1,000,1,+999,9",,"SYN066AAXX  21094 08226 42960 53504 10163 20119 39184 49895 54000 80005;",
"08226099999","2010-04-21T12:00:00","4","40.6666666","-3.1666666","640.0","GUADALAJARA, SP","FM-12","99999","V020","350,1,N,0021,1","02100,1,9,N","010000,1,N,1","+0210,1","+0129,1","09872,1","06,0000,9,1",,,,,,"06,99,1,06,1,00,1,02250,1,05,1,00,1",,,,,"99999,9,09174,1","8,1,010,1,+999,9",,"SYN072AAXX  21124 08226 12860 63504 10210 20129 39174 49872 58010 60001 86050;","Q01  00002PRCP06"
"08226099999","2010-04-22T06:00:00","4","40.6666666","-3.1666666","640.0","GUADALAJARA, SP","FM-12","99999","V020","200,1,N,0015,1","01500,1,9,N","010000,1,N,1","+0130,1","+0130,1","09841,1","12,0071,9,1","24,0071,9,1",,,,,"08,99,1,08,1,07,1,01750,1,00,1,00,1","0414,9","09,9","999,+0120,9","999,N,+0125,1","99999,9,09126,1","7,1,002,1,+999,9",,"SYN106AAXX  22064 08226 12760 82003 10130 20130 39126 49841 57002 60072 88700 333 20125 31012 50304 55069 70072;",
"08226099999","2010-04-22T09:00:00","4","40.6666666","-3.1666666","640.0","GUADALAJARA, SP","FM-12","99999","V020","190,1,N,0026,1","01200,1,9,N","010000,1,N,1","+0144,1","+0110,1","09838,1",,,,,,,"07,99,1,07,1,07,1,01250,1,00,1,00,1",,,,,"99999,9,09126,1","4,1,000,1,+999,9",,"SYN066AAXX  22094 08226 42660 71905 10144 20110 39126 49838 54000 87700;",
"08226099999","2010-04-22T12:00:00","4","40.6666666","-3.1666666","640.0","GUADALAJARA, SP","FM-12","99999","V020","220,1,N,0036,1","01500,1,9,N","010000,1,N,1","+0180,1","+0125,1","09815,1","06,0000,9,1",,,,,,"08,99,1,08,1,07,1,01750,1,00,1,00,1",,,,,"99999,9,09114,1","8,1,012,1,+999,9",,"SYN072AAXX  22124 08226 12760 82207 10180 20125 39114 49815 58012 60001 88700;","Q01  00002PRCP06"
"08226099999","2010-04-23T06:00:00","4","40.6666666","-3.1666666","640.0","GUADALAJARA, SP","FM-12","99999","V020","999,9,C,0000,1","22000,1,9,N","010000,1,N,1","+0110,1","+0102,1","09855,1","12,0000,9,1","24,0079,9,1",,,,,"03,99,1,03,1,05,1,01750,1,03,1,00,1","0300,9","09,9","999,+0100,9","999,N,+0095,1","99999,9,09134,1","4,1,000,1,+999,9",,"SYN106AAXX  23064 08226 12760 30000 10110 20102 39134 49855 54000 60002 83530 333 20095 31010 50304 55050 70080;","Q01  00002PRCP12"
"08226099999","2010-04-23T09:00:00","4","40.6666666","-3.1666666","640.0","GUADALAJARA, SP","FM-12","99999","V020","999,9,C,0000,1","01200,1,9,N","010000,1,N,1","+0140,1","+0115,1","09864,1",,,,,,,"06,99,1,06,1,05,1,01250,1,00,1,00,1",,,,,"99999,9,09150,1","2,1,016,1,+999,9",,"SYN066AAXX  23094 08226 42660 60000 10140 20115 39150 49864 52016 86500;",
"08226099999","2010-04-23T12:00:00","4","40.6666666","-3.1666666","640.0","GUADALAJARA, SP","FM-12","99999","V020","340,1,N,0005,1","01500,1,9,N","010000,1,N,1","+0190,1","+0123,1","09856,1","06,0000,9,1",,,,,,"07,99,1,07,1,08,1,01250,1,00,1,00,1",,,,,"99999,9,09154,1","1,1,004,1,+999,9",,"SYN072AAXX  23124 08226 12660 73401 10190 20123 39154 49856 51004 60001 87800;","Q01  00002PRCP06"
"08226099999","2010-04-24T06:00:00","4","40.6666666","-3.1666666","640.0","GUADALAJARA, SP","FM-12","99999","V020","060,1,N,0010,1","22000,1,9,N","010000,1,N,1","+0070,1","+0063,1","09932,1","12,0000,9,1","24,0000,9,1",,,,"00,1,+99999,9,99,9","00,99,1,00,1,00,1,99999,9,00,1,00,1","0426,9","01,9","999,+0050,9","999,N,+0060,1","99999,9,09194,1","3,1,010,1,+999,9",,"SYN100AAXX  24064 08226 12960 00602 10070 20063 39194 49932 53010 60002 333 20060 30005 50504 55071 70000;","Q01  00002PRCP24Q02  00002PRCP12"
"08226099999","2010-04-24T09:00:00","4","40.6666666","-3.1666666","640.0","GUADALAJARA, SP","FM-12","99999","V020","360,1,N,0021,1","22000,1,9,N","010000,1,N,1","+0165,1","+0127,1","09916,1",,,,,,"00,1,+99999,9,99,9","00,99,1,00,1,00,1,99999,9,00,1,00,1",,,,,"99999,9,09204,1","1,1,010,1,+999,9",,"SYN060AAXX  24094 08226 42960 03604 10165 20127 39204 49916 51010;",
"08226099999","2010-04-24T12:00:00","4","40.6666666","-3.1666666","640.0","GUADALAJARA, SP","FM-12","99999","V020","270,1,N,0026,1","01500,1,9,N","010000,1,N,1","+0215,1","+0146,1","09903,1","06,0000,9,1",,,,,,"05,99,1,05,1,08,1,01250,1,00,1,00,1",,,,,"99999,9,09204,1","4,1,000,1,+999,9",,"SYN072AAXX  24124 08226 12660 52705 10215 20146 39204 49903 54000 60001 85800;","Q01  00002PRCP06"
"08226099999","2010-04-25T06:00:00","4","40.6666666","-3.1666666","640.0","GUADALAJARA, SP","FM-12","99999","V020","999,9,C,0000,1","22000,1,9,N","010000,1,N,1","+0079,1","+0070,1","09979,1","12,0000,9,1","24,0000,9,1",,,,,"03,99,1,01,1,01,1,01750,1,08,1,01,1","0654,9","09,9","999,+0060,9","999,N,+0078,1","99999,9,09240,1","2,1,010,1,+999,9",,"SYN100AAXX  25064 08226 12760 30000 10079 20070 39240 49979 52010 60002 81181 333 20078 31006 55109 70000;","Q01  00002PRCP24Q02  00002PRCP12"
"08226099999","2010-04-25T09:00:00","4","40.6666666","-3.1666666","640.0","GUADALAJARA, SP","FM-12","99999","V020","360,1,N,0015,1","22000,1,9,N","010000,1,N,1","+0186,1","+0141,1","09964,1",,,,,,"00,1,+99999,9,99,9","00,99,1,00,1,00,1,99999,9,00,1,00,1",,,,,"99999,9,09254,1","2,1,014,1,+999,9",,"SYN060AAXX  25094 08226 42960 03603 10186 20141 39254 49964 52014;",
"08226099999","2010-04-25T12:00:00","4","40.6666666","-3.1666666","640.0","GUADALAJARA, SP","FM-12","99999","V020","280,1,N,0026,1","22000,1,9,N","010000,1,N,1","+0233,1","+0117,1","09953,1","06,0000,9,1",,,,,,"02,99,1,02,1,01,1,01750,1,00,1,00,1",,,,,"99999,9,09254,1","0,1,000,1,+999,9",,"SYN072AAXX  25124 08226 12760 22805 10233 20117 39254 49953 50000 60001 82100;","Q01  00002PRCP06"
"08226099999","2010-04-26T06:00:00","4","40.6666666","-3.1666666","640.0","GUADALAJARA, SP","FM-12","99999","V020","010,1,N,0015,1","22000,1,9,N","010000,1,N,1","+0090,1","+0082,1","10012,1","12,0000,9,1","24,0000,9,1",,,,"00,1,+99999,9,99,9","00,99,1,00,1,00,1,99999,9,00,1,00,1","0642,9","01,9","999,+0070,9","999,N,+0088,1","99999,9,09274,1","4,1,000,1,+999,9",,"SYN100AAXX  26064 08226 12960 00103 10090 20082 39274 40012 54000 60002 333 20088 30007 50444 55107 70000;","Q01  00002PRCP24Q02  00002PRCP12"
"08226099999","2010-04-26T09:00:00","4","40.6666666","-3.1666666","640.0","GUADALAJARA, SP","FM-12","99999","V020","330,1,N,0015,1","22000,1,9,N","010000,1,N,1","+0180,1","+0135,1","09998,1",,,,,,"00,1,+99999,9,99,9","00,99,1,00,1,00,1,99999,9,00,1,00,1",,,,,"99999,9,09284,1","1,1,010,1,+999,9",,"SYN060AAXX  26094 08226 42960 03303 10180 20135 39284 49998 51010;",
"08226099999","2010-04-26T12:00:00","4","40.6666666","-3.1666666","640.0","GUADALAJARA, SP","FM-12","99999","V020","200,1,N,0036,1","22000,1,9,N","010000,1,N,1","+0240,1","+0158,1","09972,1","06,0000,9,1",,,,,"00,1,+99999,9,99,9","00,99,1,00,1,00,1,99999,9,00,1,00,1",,,,,"99999,9,09274,1","8,1,010,1,+999,9",,"SYN066AAXX  26124 08226 12960 02007 10240 20158 39274 49972 58010 60001;","Q01  00002PRCP06"
"08226099999","2010-04-27T06:00:00","4","40.6666666","-3.1666666","640.0","GUADALAJARA, SP","FM-12","99999","V020","360,1,N,0015,1","22000,1,9,N","010000,1,N,1","+0080,1","+0069,1","09994,1","12,0000,9,1","24,0000,9,1",,,,"00,1,+99999,9,99,9","00,99,1,00,1,00,1,99999,9,00,1,00,1","0684,9","01,9","999,+0070,9","999,N,+0080,1","99999,9,09254,1","6,1,003,1,+999,9",,"SYN100AAXX  27064 08226 12960 03603 10080 20069 39254 49994 56003 60002 333 20080 30007 50504 55114 70000;","Q01  00002PRCP24Q02  00002PRCP12"
"08226099999","2010-04-27T09:00:00","4","40.6666666","-3.1666666","640.0","GUADALAJARA, SP","FM-12","99999","V020","050,1,N,0015,1","22000,1,9,N","010000,1,N,1","+0185,1","+0146,1","09967,1",,,,,,"00,1,+99999,9,99,9","00,99,1,00,1,00,1,99999,9,00,1,00,1",,,,,"99999,9,09257,1","1,1,003,1,+999,9",,"SYN060AAXX  27094 08226 42960 00503 10185 20146 39257 49967 51003;",
"08226099999","2010-04-27T12:00:00","4","40.6666666","-3.1666666","640.0","GUADALAJARA, SP","FM-12","99999","V020","999,9,C,0000,1","22000,1,9,N","010000,1,N,1","+0256,2","+0131,1","09945,1","06,0000,9,1",,,,,,"02,99,1,00,1,00,1,99999,9,00,1,01,1",,,,,"99999,9,09252,1","8,1,005,1,+999,9",,"SYN072AAXX  27124 08226 12960 20000 10256 20131 39252 49945 58005 60001 80001;","Q01  00002PRCP06"
"08226099999","2010-04-28T06:00:00","4","40.6666666","-3.1666666","640.0","GUADALAJARA, SP","FM-12","99999","V020","060,1,N,0010,1","22000,1,9,N","010000,1,N,1","+0100,1","+0074,1","09977,1","12,0000,9,1","24,0000,9,1",,,,,"01,99,1,00,1,00,1,99999,9,00,1,01,1","0690,9","01,9","999,+0080,9","999,N,+0093,1","99999,9,09244,1","2,1,004,1,+999,9",,"SYN100AAXX  28064 08226 12860 10602 10100 20074 39244 49977 52004 60002 80001 333 20093 30008 55115 70000;","Q01+022502SCOLCBQ02  00002PRCP24Q03  00002PRCP12"
"08226099999","2010-04-28T09:00:00","4","40.6666666","-3.1666666","640.0","GUADALAJARA, SP","FM-12","99999","V020","330,1,N,0005,1","22000,1,9,N","010000,1,N,1","+0203,1","+0147,1","09953,1",,,,,,,"01,99,1,00,1,00,1,99999,9,00,1,01,1",,,,,"99999,9,09248,1","2,1,004,1,+999,9",,"SYN066AAXX  28094 08226 42860 13301 10203 20147 39248 49953 52004 80001;","Q01+022502SCOLCB"
"08226099999","2010-04-28T12:00:00","4","40.6666666","-3.1666666","640.0","GUADALAJARA, SP","FM-12","99999","V020","330,1,N,0010,1","22000,1,9,N","010000,1,N,1","+0252,1","+0155,1","09925,1","06,0000,9,1",,,,,,"01,99,1,00,1,00,1,99999,9,00,1,01,1",,,,,"99999,9,09233,1","7,1,015,1,+999,9",,"SYN072AAXX  28124 08226 12860 13302 10252 20155 39233 49925 57015 60001 80001;","Q01+022502SCOLCBQ02  00002PRCP06"
"08226099999","2010-04-29T06:00:00","4","40.6666666","-3.1666666","640.0","GUADALAJARA, SP","FM-12","99999","V020","999,9,C,0000,1","99999,9,9,N","010000,1,N,1","+0116,1","+0100,1","09935,1","12,0000,9,1","24,0000,9,1",,,,,"06,99,1,00,1,00,1,99999,9,00,1,06,1",,"01,9","999,+0100,9","999,N,+0113,1","99999,9,09209,1","7,1,005,1,+999,9",,"SYN100AAXX  29064 08226 12860 60000 10116 20100 39209 49935 57005 60002 80006 333 20113 30010 55/// 70000;","Q01+022502SCOLCBQ02  00002PRCP24Q03  00002PRCP12"
"08226099999","2010-04-29T09:00:00","4","40.6666666","-3.1666666","640.0","GUADALAJARA, SP","FM-12","99999","V020","260,1,N,0015,1","99999,9,9,N","010000,1,N,1","+0189,1","+0133,1","09915,1",,,,,,,"06,99,1,00,1,00,1,99999,9,00,1,08,1",,,,,"99999,9,09209,1","4,1,000,1,+999,9",,"SYN066AAXX  29094 08226 42860 62603 10189 20133 39209 49915 54000 80008;","Q01+022502SCOLCB"
"08226099999","2010-04-29T12:00:00","4","40.6666666","-3.1666666","640.0","GUADALAJARA, SP","FM-12","99999","V020","240,1,N,0031,1","09000,1,9,N","010000,1,N,1","+0229,1","+0134,1","09900,1","06,0000,9,1",,,,,,"06,99,1,01,1,01,1,01750,1,00,1,08,1",,,,,"99999,9,09204,1","7,1,005,1,+999,9",,"SYN072AAXX  29124 08226 12760 62406 10229 20134 39204 49900 57005 60001 81108;","Q01  00002PRCP06"
"08226099999","2010-04-30T06:00:00","4","40.6666666","-3.1666666","640.0","GUADALAJARA, SP","FM-12","99999","V020","999,9,C,0000,1","22000,1,9,N","010000,1,N,1","+0078,1","+0066,1","09906,1","12,0000,9,1","24,0000,9,1",,,,,"02,99,1,01,1,01,1,01750,1,00,1,01,1",,"01,9","999,+0060,9","999,N,+0074,1","99999,9,09172,1","7,1,002,1,+999,9",,"SYN100AAXX  30064 08226 12760 20000 10078 20066 39172 49906 57002 60002 81101 333 20074 30006 55/// 70000;","Q01  00002PRCP24Q02  00002PRCP12"
"08226099999","2010-04-30T09:00:00","4","40.6666666","-3.1666666","640.0","GUADALAJARA, SP","FM-12","99999","V020","160,1,N,0005,1","22000,1,9,N","010000,1,N,1","+0193,1","+0150,1","09874,1",,,,,,,"02,99,1,01,1,01,1,01750,1,00,1,01,1",,,,,"99999,9,09172,1","4,1,000,1,+999,9",,"SYN066AAXX  30094 08226 42760 21601 10193 20150 39172 49874 54000 81101;",
"08226099999","2010-04-30T12:00:00","4","40.6666666","-3.1666666","640.0","GUADALAJARA, SP","FM-12","99999","V020","250,1,N,0041,1","03600,1,9,N","010000,1,N,1","+0219,1","+0153,1","09857,1","06,0000,9,1",,,,,,"08,99,1,04,1,07,1,01750,1,05,1,07,1",,,,,"99999,9,09162,1","7,1,010,1,+999,9",,"SYN072AAXX  30124 08226 12760 82508 10219 20153 39162 49857 57010 60001 84757;","Q01  00002PRCP06"
"08226099999","2010-05-01T06:00:00","4","40.6666666","-3.1666666","640.0","GUADALAJARA, SP","FM-12","99999","V020","999,9,C,0000,1","01500,1,9,N","010000,1,N,1","+0119,1","+0103,1","09853,1","12,0000,9,1","24,0000,9,1",,,,,"07,99,1,05,1,07,1,01750,1,09,1,99,9",,"01,9","999,+0100,9","999,N,+0106,1","99999,9,09134,1","7,1,002,1,+999,9",,"SYN100AAXX  01064 08226 12760 70000 10119 20103 39134 49853 57002 60002 8579/ 333 20106 30010 55/// 70000;","Q01  00002PRCP24Q02  00002PRCP12"
"08226099999","2010-05-01T09:00:00","4","40.6666666","-3.1666666","640.0","GUADALAJARA, SP","FM-12","99999","V020","020,1,N,0036,1","03600,1,9,N","010000,1,N,1","+0189,1","+0133,1","09843,1",,,,,,,"05,99,1,03,1,07,1,01750,1,08,1,00,1",,,,,"99999,9,09142,1","1,1,008,1,+999,9",,"SYN066AAXX  01094 08226 42760 50207 10189 20133 39142 49843 51008 83780;",
"08226099999","2010-05-01T12:00:00","4","40.6666666","-3.1666666","640.0","GUADALAJARA, SP","FM-12","99999","V020","210,1,N,0021,1","03600,1,9,N","010000,1,N,1","+0213,1","+0122,1","09840,1","06,0000,9,1",,,,,,"05,99,1,03,1,07,1,01750,1,08,1,00,1",,,,,"99999,9,09144,1","2,1,002,1,+999,9",,"SYN072AAXX  01124 08226 12760 52104 10213 20122 39144 49840 52002 60001 83780;","Q01  00002PRCP06"
"08226099999","2010-05-02T06:00:00","4","40.6666666","-3.1666666","640.0","GUADALAJARA, SP","FM-12","99999","V020","999,9,C,0000,1","22000,1,9,N","010000,1,N,1","+0069,1","+0057,1","09904,1","12,0000,9,1","24,0000,9,1",,,,,"03,99,1,01,1,01,1,01750,1,07,1,01,1",,"01,9","999,+0060,9","999,N,+0066,1","99999,9,09168,1","8,1,006,1,+999,9",,"SYN100AAXX  02064 08226 12760 30000 10069 20057 39168 49904 58006 60002 81171 333 20066 30006 55/// 70000;","Q01  00002PRCP24Q02  00002PRCP12"
"08226099999","2010-05-02T09:00:00","4","40.6666666","-3.1666666","640.0","GUADALAJARA, SP","FM-12","99999","V020","999,9,C,0000,1","22000,1,9,N","010000,1,N,1","+0164,1","+0120,1","09878,1",,,,,,"00,1,+99999,9,99,9","00,99,1,00,1,00,1,99999,9,00,1,00,1",,,,,"99999,9,09168,1","4,1,000,1,+999,9",,"SYN060AAXX  02094 08226 42960 00000 10164 20120 39168 49878 54000;",
"08226099999","2010-05-02T12:00:00","4","40.6666666","-3.1666666","640.0","GUADALAJARA, SP","FM-12","99999","V020","190,1,N,0031,1","03600,1,9,N","010000,1,N,1","+0201,1","+0136,1","09855,1","06,0000,9,1",,,,,,"05,99,1,04,1,07,1,01750,1,08,1,01,1",,,,,"99999,9,09156,1","7,1,012,1,+999,9",,"SYN072AAXX  02124 08226 12760 51906 10201 20136 39156 49855 57012 60001 84781;","Q01  00002PRCP06"
"08226099999","2010-05-03T06:00:00","4","40.6666666","-3.1666666","640.0","GUADALAJARA, SP","FM-12","99999","V020","360,1,N,0051,1","01500,1,9,N","010000,1,N,1","+0055,1","+0040,1","09876,1","12,0010,9,1","24,0010,9,1",,"8,1,06,1","2,1,06,1",,"07,99,1,06,1,07,1,01750,1,09,1,99,9",,"09,9","999,+0050,9","999,N,+0055,1","99999,9,09138,1","2,1,014,1,+999,9","80,1","SYN106AAXX  03064 08226 11760 73610 10055 20040 39138 49876 52014 60012 78082 8679/ 333 20055 31005 55/// 70010;",
"08226099999","2010-05-03T09:00:00","4","40.6666666","-3.1666666","640.0","GUADALAJARA, SP","FM-12","99999","V020","020,1,N,0031,1","01500,1,9,N","010000,1,N,1","+0095,1","+0062,1","09871,1",,,,,,,"07,99,1,06,1,07,1,01750,1,09,1,99,9",,,,,"99999,9,09144,1","1,1,006,1,+999,9",,"SYN066AAXX  03094 08226 42760 70206 10095 20062 39144 49871 51006 8679/;",
"08226099999","2010-05-03T12:00:00","4","40.6666666","-3.1666666","640.0","GUADALAJARA, SP","FM-12","99999","V020","340,1,N,0093,1","01500,1,9,N","010000,1,N,1","+0130,1","+0054,1","09855,1","06,0000,2,1",,,,,,"08,99,1,99,9,07,1,01750,1,08,1,99,9",,,,,"99999,9,09138,1","7,1,006,1,+999,9",,"SYN072AAXX  03124 08226 12760 83418 10130 20054 39138 49855 57006 60001 8878/;","Q01+000082SCOTLC"
"08226099999","2010-05-04T06:00:00","4","40.6666666","-3.1666666","640.0","GUADALAJARA, SP","FM-12","99999","V020","340,1,N,0062,1","22000,1,9,N","010000,1,N,1","+0063,1","+0008,1","09867,1","12,0000,9,1","24,0000,2,1",,,,,"04,99,1,04,1,07,1,01750,1,00,1,00,1",,"01,9","999,+0000,9","999,N,+0019,1","99999,9,09132,1","7,1,012,1,+999,9",,"SYN100AAXX  04064 08226 12760 43412 10063 20008 39132 49867 57012 60002 84700 333 20019 30000 55/// 70000;","Q01  00002PRCP12"
"08226099999","2010-05-04T09:00:00","4","40.6666666","-3.1666666","640.0","GUADALAJARA, SP","FM-12","99999","V020","350,1,N,0103,1","01500,1,9,N","010000,1,N,1","+0089,1","+0016,1","09852,1",,,,,,,"07,99,1,07,1,07,1,01750,1,00,1,00,1",,,,,"99999,9,09124,1","7,1,008,1,+999,9",,"SYN066AAXX  04094 08226 42760 73520 10089 20016 39124 49852 57008 87700;",
"08226099999","2010-05-04T12:00:00","4","40.6666666","-3.1666666","640.0","GUADALAJARA, SP","FM-12","99999","V020","350,1,N,0103,1","01500,1,9,N","010000,1,N,1","+0101,1","+0015,1","09859,1","06,0000,9,1",,,,,,"06,99,1,06,1,07,1,01750,1,00,1,00,1",,,,,"99999,9,09134,1","2,1,010,1,+999,9",,"SYN072AAXX  04124 08226 12760 63520 10101 20015 39134 49859 52010 60001 86700;","Q01  00002PRCP06"
"08226099999","2010-05-05T06:00:00","4","40.6666666","-3.1666666","640.0","GUADALAJARA, SP","FM-12","99999","V020","999,9,C,0000,1","22000,1,9,N","010000,1,N,1","+0044,1","+0035,1","09896,1","12,0000,9,1","24,0000,9,1",,,,"00,1,+99999,9,99,9","00,99,1,00,1,00,1,99999,9,00,1,00,1",,"01,9","999,+0030,9","999,N,+0044,1","99999,9,09154,1","4,1,000,1,+999,9",,"SYN100AAXX  05064 08226 12960 00000 10044 20035 39154 49896 54000 60002 333 20044 30003 50374 55/// 70000;","Q01  00002PRCP24Q02  00002PRCP12"
"08226099999","2010-05-06T06:00:00","4","40.6666666","-3.1666666","640.0","GUADALAJARA, SP","FM-12","99999","V020","999,9,C,0000,1","22000,1,9,N","010000,1,N,1","-0020,1","-0034,1","09904,1","12,0000,9,1","24,0000,9,1",,,,"00,1,+99999,9,99,9","00,99,1,00,1,00,1,99999,9,00,1,00,1",,"01,9","999,-0030,9","999,N,-0020,1","99999,9,09144,1","4,1,000,1,+999,9",,"SYN100AAXX  06064 08226 12960 00000 11020 21034 39144 49904 54000 60002 333 21020 30103 50304 55/// 70000;","Q01  00002PRCP24Q02  00002PRCP12"
"08226099999","2010-05-06T09:00:00","4","40.6666666","-3.1666666","640.0","GUADALAJARA, SP","FM-12","99999","V020","060,1,N,0015,1","22000,1,9,N","010000,1,N,1","+0103,1","+0042,1","09869,1",,,,,,"00,1,+99999,9,99,9","00,99,1,00,1,00,1,99999,9,00,1,00,1",,,,,"99999,9,09144,1","0,1,000,1,+999,9",,"SYN060AAXX  06094 08226 42960 00603 10103 20042 39144 49869 50000;",
"08226099999","2010-05-06T12:00:00","4","40.6666666","-3.1666666","640.0","GUADALAJARA, SP","FM-12","99999","V020","250,1,N,0010,1","22000,1,9,N","010000,1,N,1","+0150,1","+0032,1","09836,1","06,0000,9,1",,,,,"00,1,+99999,9,99,9","00,99,1,00,1,00,1,99999,9,00,1,00,1",,,,,"99999,9,09124,1","7,1,020,1,+999,9",,"SYN066AAXX  06124 08226 12960 02502 10150 20032 39124 49836 57020 60001;","Q01  00002PRCP06"
"08226099999","2010-05-07T06:00:00","4","40.6666666","-3.1666666","640.0","GUADALAJARA, SP","FM-12","99999","V020","999,9,C,0000,1","01500,1,9,N","010000,1,N,1","+0040,1","+0028,1","09843,1","12,0000,9,1","24,0000,9,1",,,,,"05,99,1,05,1,05,1,01750,1,00,1,00,1",,"01,9","999,+0010,9","999,N,+0020,1","99999,9,09104,1","6,1,006,1,+999,9",,"SYN106AAXX  07064 08226 12760 50000 10040 20028 39104 49843 56006 60002 85500 333 20020 30001 50304 55/// 70000;","Q01  00002PRCP24Q02  00002PRCP12"
"08226099999","2010-05-07T12:00:00","4","40.6666666","-3.1666666","640.0","GUADALAJARA, SP","FM-12","99999","V020","200,1,N,0046,1","01500,1,9,N","010000,1,N,1","+0170,1","+0079,1","09787,1","06,0000,9,1",,,,,,"06,99,1,06,1,05,1,01750,1,00,1,00,1",,,,,"99999,9,09084,1","7,1,012,1,+999,9",,"SYN072AAXX  07124 08226 12760 62009 10170 20079 39084 49787 57012 60001 86500;","Q01  00002PRCP06"
"08226099999","2010-05-08T06:00:00","4","40.6666666","-3.1666666","640.0","GUADALAJARA, SP","FM-12","99999","V020","999,9,C,0000,1","01200,1,9,N","010000,1,N,1","+0077,1","+0070,1","09834,1","12,0000,9,1","24,0015,9,1",,,,,"08,99,1,08,1,05,1,01250,1,00,1,00,1",,"01,9","999,+0030,9","999,N,+0040,1","99999,9,09106,1","3,1,010,1,+999,9",,"SYN106AAXX  08064 08226 12660 80000 10077 20070 39106 49834 53010 60002 88500 333 20040 30003 50354 55/// 70014;","Q01  00002PRCP12"
"08226099999","2010-05-08T09:00:00","4","40.6666666","-3.1666666","640.0","GUADALAJARA, SP","FM-12","99999","V020","220,1,N,0031,1","01200,1,9,N","010000,1,N,1","+0122,1","+0089,1","09831,1",,,,,,,"08,99,1,08,1,05,1,01250,1,00,1,00,1",,,,,"99999,9,09114,1","2,1,008,1,+999,9",,"SYN066AAXX  08094 08226 42660 82206 10122 20089 39114 49831 52008 88500;",
"08226099999","2010-05-08T12:00:00","4","40.6666666","-3.1666666","640.0","GUADALAJARA, SP","FM-12","99999","V020","190,1,N,0067,1","01200,1,9,N","010000,1,N,1","+0156,1","+0079,1","09829,1","06,0000,9,1",,,,,,"06,99,1,06,1,07,1,01250,1,00,1,00,1",,,,,"99999,9,09120,1","1,1,006,1,+999,9",,"SYN072AAXX  08124 08226 12660 61913 10156 20079 39120 49829 51006 60001 86700;","Q01  00002PRCP06"
"08226099999","2010-05-09T06:00:00","4","40.6666666","-3.1666666","640.0","GUADALAJARA, SP","FM-12","99999","V020","200,1,N,0051,1","01200,1,9,N","010000,1,N,1","+0110,1","+0110,1","09790,1","12,0239,9,1","24,0241,9,1",,"6,1,06,1","2,1,06,1",,"08,99,1,08,1,07,1,01250,1,00,1,00,1",,"09,9","999,+0100,9","999,N,+0100,1","99999,9,09074,1","5,1,010,1,+999,9","61,1","SYN112AAXX  09064 08226 11660 82010 10110 20110 39074 49790 55010 60242 76162 88700 333 20100 31010 50204 55/// 70242;",
"08226099999","2010-05-09T09:00:00","4","40.6666666","-3.1666666","640.0","GUADALAJARA, SP","FM-12","99999","V020","200,1,N,0041,1","01200,1,9,N","010000,1,N,1","+0132,1","+0129,1","09797,1",,,,"2,1,03,1","2,1,03,1",,"08,99,1,08,1,07,1,01250,1,00,1,00,1",,,,,"99999,9,09086,1","2,1,012,1,+999,9","60,1","SYN072AAXX  09094 08226 41660 82008 10132 20129 39086 49797 52012 76022 88700;",
"08226099999","2010-05-09T12:00:00","4","40.6666666","-3.1666666","640.0","GUADALAJARA, SP","FM-12","99999","V020","240,1,N,0021,1","01200,1,9,N","010000,1,N,1","+0140,1","+0122,1","09795,1","06,0051,9,1",,,,,,"08,99,1,08,1,07,1,01250,1,00,1,00,1",,,,,"99999,9,09086,1","0,1,000,1,+999,9",,"SYN072AAXX  09124 08226 12660 82404 10140 20122 39086 49795 50000 60051 88700;",
"08226099999","2010-05-10T06:00:00","4","40.6666666","-3.1666666","640.0","GUADALAJARA, SP","FM-12","99999","V020","220,1,N,0026,1","01200,1,9,N","010000,1,N,1","+0105,1","+0096,1","09835,1","12,0000,9,1","24,0119,9,1",,,,,"07,99,1,07,1,07,1,01250,1,00,1,00,1",,"09,9","999,+0080,9","999,N,+0094,1","99999,9,09114,1","4,1,000,1,+999,9",,"SYN106AAXX  10064 08226 12660 72205 10105 20096 39114 49835 54000 60002 87700 333 20094 31008 50204 55/// 70120;","Q01  00002PRCP12"
"08226099999","2010-05-10T09:00:00","4","40.6666666","-3.1666666","640.0","GUADALAJARA, SP","FM-12","99999","V020","200,1,N,0036,1","01200,1,9,N","010000,1,N,1","+0140,1","+0122,1","09825,1",,,,,,,"07,99,1,07,1,07,1,01250,1,00,1,00,1",,,,,"99999,9,09114,1","4,1,000,1,+999,9",,"SYN066AAXX  10094 08226 42660 72007 10140 20122 39114 49825 54000 87700;",
"08226099999","2010-05-10T12:00:00","4","40.6666666","-3.1666666","640.0","GUADALAJARA, SP","FM-12","99999","V020","200,1,N,0051,1","01200,1,9,N","010000,1,N,1","+0146,1","+0136,1","09823,1","06,0000,9,1",,,,,,"08,99,1,08,1,07,1,01250,1,00,1,00,1",,,,,"99999,9,09114,1","4,1,000,1,+999,9",,"SYN072AAXX  10124 08226 12660 82010 10146 20136 39114 49823 54000 60001 88700;","Q01  00002PRCP06"
"08226099999","2010-05-11T06:00:00","4","40.6666666","-3.1666666","640.0","GUADALAJARA, SP","FM-12","99999","V020","999,9,C,0000,1","01200,1,9,N","010000,1,N,1","+0040,1","+0040,1","09854,1","12,0000,9,1","24,0000,9,1",,,,,"06,99,1,06,1,05,1,01250,1,00,1,00,1",,"09,9","999,+0020,9","999,N,+0032,1","99999,9,09114,1","4,1,000,1,+999,9",,"SYN106AAXX  11064 08226 12660 60000 10040 20040 39114 49854 54000 60002 86500 333 20032 31002 50154 55/// 70000;","Q01  00002PRCP24Q02  00002PRCP12"
"08226099999","2010-05-12T09:00:00","4","40.6666666","-3.1666666","640.0","GUADALAJARA, SP","FM-12","99999","V020","240,1,N,0021,1","01200,1,9,N","010000,1,N,1","+0106,1","+0100,1","09833,1",,,,"8,1,03,1","5,1,03,1",,"08,99,1,08,1,07,1,01250,1,99,9,99,9",,,,,"99999,9,09112,1","2,1,008,1,+999,9","50,1","SYN072AAXX  12094 08226 41660 82404 10106 20100 39112 49833 52008 75085 887//;",
"08226099999","2010-05-12T12:00:00","4","40.6666666","-3.1666666","640.0","GUADALAJARA, SP","FM-12","99999","V020","330,1,N,0026,1","01200,1,9,N","010000,1,N,1","+0112,1","+0079,1","09832,1","06,0079,9,1",,,"9,1,06,1","8,1,06,1",,"08,99,1,08,1,07,1,01250,1,99,9,99,9",,,,,"99999,9,09112,1","4,1,000,1,+999,9","25,1","SYN078AAXX  12124 08226 11660 83305 10112 20079 39112 49832 54000 60081 72598 887//;",
"08226099999","2010-05-13T06:00:00","4","40.6666666","-3.1666666","640.0","GUADALAJARA, SP","FM-12","99999","V020","190,1,N,0021,1","22000,1,9,N","010000,1,N,1","+0068,1","+0053,1","09863,1","12,0020,9,1","24,0117,9,1",,"8,1,06,1","0,1,06,1",,"03,99,1,03,1,07,1,01750,1,00,1,00,1",,"11,9","999,+0050,9","999,N,+0058,1","99999,9,09130,1","2,1,004,1,+999,9","02,1","SYN106AAXX  13064 08226 11760 31904 10068 20053 39130 49863 52004 60022 70280 83700 333 20058 32005 55/// 70117;",
"08226099999","2010-05-13T09:00:00","4","40.6666666","-3.1666666","640.0","GUADALAJARA, SP","FM-12","99999","V020","999,9,C,0000,1","01500,1,9,N","010000,1,N,1","+0096,1","+0070,1","09862,1",,,,,,,"06,99,1,06,1,07,1,01750,1,00,1,00,1",,,,,"99999,9,09136,1","2,1,006,1,+999,9",,"SYN066AAXX  13094 08226 42760 60000 10096 20070 39136 49862 52006 86700;",
"08226099999","2010-05-13T12:00:00","4","40.6666666","-3.1666666","640.0","GUADALAJARA, SP","FM-12","99999","V020","320,1,N,0026,1","01200,1,9,N","010000,1,N,1","+0103,1","+0061,1","09857,1","06,9999,9,9",,,"8,1,06,1","1,1,06,1",,"08,99,1,08,1,07,1,01250,1,99,9,99,9",,,,,"99999,9,09133,1","8,1,003,1,+999,9","61,1","SYN078AAXX  13124 08226 11660 83205 10103 20061 39133 49857 58003 69911 76181 887//;","Q01  00002PRCP06Q02  00002PRCP06"
"08226099999","2010-05-14T06:00:00","4","40.6666666","-3.1666666","640.0","GUADALAJARA, SP","FM-12","99999","V020","999,9,C,0000,1","22000,1,9,N","010000,1,N,1","+0052,1","+0037,1","09894,1","12,0000,9,1","24,0102,9,1",,,,,"02,99,1,02,1,07,1,01750,1,00,1,00,1",,"11,9","999,+0020,9","999,N,+0036,1","99999,9,09154,1","2,1,010,1,+999,9",,"SYN100AAXX  14064 08226 12760 20000 10052 20037 39154 49894 52010 60002 82700 333 20036 32002 55/// 70101;","Q01  00002PRCP12"
"08226099999","2010-05-14T09:00:00","4","40.6666666","-3.1666666","640.0","GUADALAJARA, SP","FM-12","99999","V020","010,1,N,0010,1","22000,1,9,N","010000,1,N,1","+0098,1","+0029,1","09886,1",,,,,,,"02,99,1,02,1,07,1,01750,1,00,1,00,1",,,,,"99999,9,09158,1","2,1,004,1,+999,9",,"SYN066AAXX  14094 08226 42760 20102 10098 20029 39158 49886 52004 82700;",
"08226099999","2010-05-14T12:00:00","4","40.6666666","-3.1666666","640.0","GUADALAJARA, SP","FM-12","99999","V020","290,1,N,0026,1","01500,1,9,N","010000,1,N,1","+0128,1","+0026,1","09874,1","06,0000,9,1",,,,,,"05,99,1,05,1,07,1,01750,1,00,1,00,1",,,,,"99999,9,09154,1","8,1,004,1,+999,9",,"SYN072AAXX  14124 08226 12760 52905 10128 20026 39154 49874 58004 60001 85700;","Q01  00002PRCP06"
"08226099999","2010-05-15T06:00:00","4","40.6666666","-3.1666666","640.0","GUADALAJARA, SP","FM-12","99999","V020","360,1,N,0005,1","22000,1,9,N","010000,1,N,1","+0058,1","+0026,1","09927,1","12,0020,9,2","24,0018,9,2",,"8,1,06,1","8,1,06,1",,"02,99,1,01,1,08,1,01750,1,07,1,00,1","0432,9","11,9","999,+0030,9","999,N,+0050,1","99999,9,09186,1","2,1,010,1,+999,9","02,1","SYN106AAXX  15064 08226 11760 23601 10058 20026 39186 49927 52010 60022 70288 81870 333 20050 32003 55072 70019;",
"08226099999","2010-05-15T09:00:00","4","40.6666666","-3.1666666","640.0","GUADALAJARA, SP","FM-12","99999","V020","340,1,N,0026,1","01500,1,9,N","010000,1,N,1","+0112,1","+0037,1","09925,1",,,,,,,"06,99,1,05,1,07,1,01750,1,08,1,00,1",,,,,"99999,9,09198,1","2,1,012,1,+999,9",,"SYN066AAXX  15094 08226 42760 63405 10112 20037 39198 49925 52012 85780;",
"08226099999","2010-05-15T12:00:00","4","40.6666666","-3.1666666","640.0","GUADALAJARA, SP","FM-12","99999","V020","320,1,N,0026,1","22000,1,9,N","010000,1,N,1","+0136,1","+0039,1","09931,1","06,0000,9,1",,,,,,"03,99,1,03,1,07,1,01750,1,00,1,00,1",,,,,"99999,9,09209,1","2,1,011,1,+999,9",,"SYN072AAXX  15124 08226 12760 33205 10136 20039 39209 49931 52011 60001 83700;","Q01  00002PRCP06"
"08226099999","2010-05-16T06:00:00","4","40.6666666","-3.1666666","640.0","GUADALAJARA, SP","FM-12","99999","V020","999,9,C,0000,1","22000,1,9,N","010000,1,N,1","+0030,1","+0012,1","10000,1","12,0000,9,1","24,0000,9,1",,,,"00,1,+99999,9,99,9","00,99,1,00,1,00,1,99999,9,00,1,00,1","0534,9","09,9","999,+0010,9","999,N,+0019,1","99999,9,09246,1","2,1,010,1,+999,9",,"SYN094AAXX  16064 08226 12960 00000 10030 20012 39246 40000 52010 60002 333 20019 31001 55089 70000;","Q01  00002PRCP24Q02  00002PRCP12"
"08226099999","2010-05-16T09:00:00","4","40.6666666","-3.1666666","640.0","GUADALAJARA, SP","FM-12","99999","V020","020,1,N,0046,1","22000,1,9,N","010000,1,N,1","+0121,1","+0046,1","09984,1",,,,,,"00,1,+99999,9,99,9","00,99,1,00,1,00,1,99999,9,00,1,00,1",,,,,"99999,9,09255,1","2,1,009,1,+999,9",,"SYN060AAXX  16094 08226 42960 00209 10121 20046 39255 49984 52009;",
"08226099999","2010-05-16T12:00:00","4","40.6666666","-3.1666666","640.0","GUADALAJARA, SP","FM-12","99999","V020","999,9,C,0000,1","22000,1,9,N","010000,1,N,1","+0156,1","+0058,1","09976,1","06,0000,9,1",,,,,"00,1,+99999,9,99,9","00,99,1,00,1,00,1,99999,9,00,1,00,1",,,,,"99999,9,09256,1","1,1,001,1,+999,9",,"SYN066AAXX  16124 08226 12960 00000 10156 20058 39256 49976 51001 60001;","Q01  00002PRCP06"
"08226099999","2010-05-17T06:00:00","4","40.6666666","-3.1666666","640.0","GUADALAJARA, SP","FM-12","99999","V020","999,9,C,0000,1","22000,1,9,N","010000,1,N,1","+0042,1","+0030,1","10031,1","12,0000,9,1","24,0000,9,1",,,,"00,1,+99999,9,99,9","00,99,1,00,1,00,1,99999,9,00,1,00,1","0018,9","09,9","999,+0000,9","999,N,+0027,1","99999,9,09278,1","2,1,004,1,+999,9",,"SYN094AAXX  17064 08226 12960 00000 10042 20030 39278 40031 52004 60002 333 20027 31000 55003 70000;","Q01  00002PRCP24Q02  00002PRCP12"
"08226099999","2010-05-17T09:00:00","4","40.6666666","-3.1666666","640.0","GUADALAJARA, SP","FM-12","99999","V020","360,1,N,0031,1","22000,1,9,N","010000,1,N,1","+0155,1","+0090,1","10006,1",,,,,,"00,1,+99999,9,99,9","00,99,1,00,1,00,1,99999,9,00,1,00,1",,,,,"99999,9,09284,1","2,1,006,1,+999,9",,"SYN060AAXX  17094 08226 42960 03606 10155 20090 39284 40006 52006;",
"08226099999","2010-05-17T12:00:00","4","40.6666666","-3.1666666","640.0","GUADALAJARA, SP","FM-12","99999","V020","999,9,C,0000,1","22000,1,9,N","010000,1,N,1","+0200,1","+0087,1","09986,1","06,0000,9,1",,,,,"00,1,+99999,9,99,9","00,99,1,00,1,00,1,99999,9,00,1,00,1",,,,,"99999,9,09276,1","7,1,008,1,+999,9",,"SYN066AAXX  17124 08226 12960 00000 10200 20087 39276 49986 57008 60001;","Q01  00002PRCP06"
"08226099999","2010-05-18T06:00:00","4","40.6666666","-3.1666666","640.0","GUADALAJARA, SP","FM-12","99999","V020","360,1,N,0021,1","22000,1,9,N","010000,1,N,1","+0066,1","+0044,1","10030,1","12,0000,9,1","24,0000,9,1",,,,"00,1,+99999,9,99,9","00,99,1,00,1,00,1,99999,9,00,1,00,1","0780,9","09,9","999,+0020,9","999,N,+0044,1","99999,9,09284,1","4,1,000,1,+999,9",,"SYN094AAXX  18064 08226 12960 03604 10066 20044 39284 40030 54000 60002 333 20044 31002 55130 70000;","Q01  00002PRCP24Q02  00002PRCP12"
"08226099999","2010-05-18T09:00:00","4","40.6666666","-3.1666666","640.0","GUADALAJARA, SP","FM-12","99999","V020","010,1,N,0015,1","22000,1,9,N","010000,1,N,1","+0169,1","+0091,1","10011,1",,,,,,"00,1,+99999,9,99,9","00,99,1,00,1,00,1,99999,9,00,1,00,1",,,,,"99999,9,09292,1","1,1,008,1,+999,9",,"SYN060AAXX  18094 08226 42960 00103 10169 20091 39292 40011 51008;",
"08226099999","2010-05-18T12:00:00","4","40.6666666","-3.1666666","640.0","GUADALAJARA, SP","FM-12","99999","V020","030,1,N,0010,1","22000,1,9,N","010000,1,N,1","+0226,1","+0083,1","09982,1","06,0000,9,1",,,,,"00,1,+99999,9,99,9","00,99,1,00,1,00,1,99999,9,00,1,00,1",,,,,"99999,9,09278,1","7,1,014,1,+999,9",,"SYN066AAXX  18124 08226 12960 00302 10226 20083 39278 49982 57014 60001;","Q01  00002PRCP06"
"08226099999","2010-05-19T06:00:00","4","40.6666666","-3.1666666","640.0","GUADALAJARA, SP","FM-12","99999","V020","210,1,N,0026,1","22000,1,9,N","010000,1,N,1","+0070,1","+0036,1","10014,1","12,0000,9,1","24,0000,9,1",,,,"00,1,+99999,9,99,9","00,99,1,00,1,00,1,99999,9,00,1,00,1","0774,9","01,9","999,+0040,9","999,N,+0055,1","99999,9,09270,1","4,1,000,1,+999,9",,"SYN100AAXX  19064 08226 12960 02105 10070 20036 39270 40014 54000 60002 333 20055 30004 50504 55129 70000;","Q01  00002PRCP24Q02  00002PRCP12"
"08226099999","2010-05-19T09:00:00","4","40.6666666","-3.1666666","640.0","GUADALAJARA, SP","FM-12","99999","V020","050,1,N,0041,1","22000,1,9,N","010000,1,N,1","+9999,9","+0102,1","09976,1",,,,,,"00,1,+99999,9,99,9","00,99,1,00,1,00,1,99999,9,00,1,00,1",,,,,"99999,9,09270,1","4,1,000,1,+999,9",,"SYN060AAXX  19094 08226 42960 00508 10210 20102 39270 49976 54000;","Q01+002103ATOT  "
"08226099999","2010-05-20T06:00:00","4","40.6666666","-3.1666666","640.0","GUADALAJARA, SP","FM-12","99999","V020","999,9,C,0000,1","22000,1,9,N","010000,1,N,1","+0080,1","+0056,1","10026,1","12,0000,9,1","24,0000,9,1",,,,"00,1,+99999,9,99,9","00,99,1,00,1,00,1,99999,9,00,1,00,1","0786,9","01,9","999,+0050,9","999,N,+0070,1","99999,9,09284,1","3,1,010,1,+999,9",,"SYN100AAXX  20064 08226 12960 00000 10080 20056 39284 40026 53010 60002 333 20070 30005 50504 55131 70000;","Q01  00002PRCP24Q02  00002PRCP12"
"08226099999","2010-05-20T09:00:00","4","40.6666666","-3.1666666","640.0","GUADALAJARA, SP","FM-12","99999","V020","360,1,N,0031,1","22000,1,9,N","010000,1,N,1","+0175,1","+0120,1","10000,1",,,,,,"00,1,+99999,9,99,9","00,99,1,00,1,00,1,99999,9,00,1,00,1",,,,,"99999,9,09284,1","4,1,000,1,+999,9",,"SYN060AAXX  20094 08226 42960 03606 10175 20120 39284 40000 54000;",
"08226099999","2010-05-20T12:00:00","4","40.6666666","-3.1666666","640.0","GUADALAJARA, SP","FM-12","99999","V020","040,1,N,0021,1","22000,1,9,N","010000,1,N,1","+0225,1","+0100,1","09966,1","06,0000,9,1",,,,,"00,1,+99999,9,99,9","00,99,1,00,1,00,1,99999,9,00,1,00,1",,,,,"99999,9,09264,1","8,1,020,1,+999,9",,"SYN066AAXX  20124 08226 12960 00404 10225 20100 39264 49966 58020 60001;","Q01  00002PRCP06"
"08226099999","2010-05-21T06:00:00","4","40.6666666","-3.1666666","640.0","GUADALAJARA, SP","FM-12","99999","V020","360,1,N,0021,1","22000,1,9,N","010000,1,N,1","+0150,1","+0125,1","09965,1","12,0000,9,1","24,0000,9,1",,,,"00,1,+99999,9,99,9","00,99,1,00,1,00,1,99999,9,00,1,00,1","0786,9","01,9","999,+0050,9","999,N,+0070,1","99999,9,09246,1","2,1,002,1,+999,9",,"SYN100AAXX  21064 08226 12960 03604 10150 20125 39246 49965 52002 60002 333 20070 30005 50604 55131 70000;","Q01  00002PRCP24Q02  00002PRCP12"
"08226099999","2010-05-21T09:00:00","4","40.6666666","-3.1666666","640.0","GUADALAJARA, SP","FM-12","99999","V020","330,1,N,0015,1","22000,1,9,N","010000,1,N,1","+0210,1","+0129,1","09958,1",,,,,,"00,1,+99999,9,99,9","00,99,1,00,1,00,1,99999,9,00,1,00,1",,,,,"99999,9,09254,1","1,1,008,1,+999,9",,"SYN060AAXX  21094 08226 42960 03303 10210 20129 39254 49958 51008;",
"08226099999","2010-05-21T12:00:00","4","40.6666666","-3.1666666","640.0","GUADALAJARA, SP","FM-12","99999","V020","200,1,N,0010,1","22000,1,9,N","010000,1,N,1","+0245,1","+0100,1","09940,1","06,0000,9,1",,,,,"00,1,+99999,9,99,9","00,99,1,00,1,00,1,99999,9,00,1,00,1",,,,,"99999,9,09244,1","8,1,010,1,+999,9",,"SYN066AAXX  21124 08226 12960 02002 10245 20100 39244 49940 58010 60001;","Q01  00002PRCP06"
"08226099999","2010-05-22T06:00:00","4","40.6666666","-3.1666666","640.0","GUADALAJARA, SP","FM-12","99999","V020","999,9,C,0000,1","22000,1,9,N","010000,1,N,1","+0105,1","+0076,1","09954,1","12,0000,9,1","24,0000,9,1",,,,"00,1,+99999,9,99,9","00,99,1,00,1,00,1,99999,9,00,1,00,1","0786,9","01,9","999,+0060,9","999,N,+0080,1","99999,9,09224,1","4,1,000,1,+999,9",,"SYN100AAXX  22064 08226 12960 00000 10105 20076 39224 49954 54000 60002 333 20080 30006 50604 55131 70000;","Q01  00002PRCP24Q02  00002PRCP12"
"08226099999","2010-05-22T09:00:00","4","40.6666666","-3.1666666","640.0","GUADALAJARA, SP","FM-12","99999","V020","999,9,C,0000,1","22000,1,9,N","010000,1,N,1","+0210,1","+0153,1","09925,1",,,,,,"00,1,+99999,9,99,9","00,99,1,00,1,00,1,99999,9,00,1,00,1",,,,,"99999,9,09224,1","4,1,000,1,+999,9",,"SYN060AAXX  22094 08226 42960 00000 10210 20153 39224 49925 54000;",
"08226099999","2010-05-23T06:00:00","4","40.6666666","-3.1666666","640.0","GUADALAJARA, SP","FM-12","99999","V020","999,9,9,9999,9","22000,1,9,N","010000,1,N,1","+0130,1","+0114,1","09914,1","12,0000,9,1","24,0000,9,1",,,,"00,1,+99999,9,99,9","00,99,1,00,1,00,1,99999,9,00,1,00,1","0780,9","01,9","999,+0110,9","999,N,+0120,1","99999,9,09194,1","3,1,004,1,+999,9",,"SYN100AAXX  23064 08226 12960 0//// 10130 20114 39194 49914 53004 60002 333 20120 30011 50604 55130 70000;","Q01  00002PRCP24Q02  00002PRCP12"
"08226099999","2010-05-23T09:00:00","4","40.6666666","-3.1666666","640.0","GUADALAJARA, SP","FM-12","99999","V020","999,9,9,9999,9","22000,1,9,N","010000,1,N,1","+0200,1","+0144,1","09896,1",,,,,,"00,1,+99999,9,99,9","00,99,1,00,1,00,1,99999,9,00,1,00,1",,,,,"99999,9,09194,1","4,1,000,1,+999,9",,"SYN060AAXX  23094 08226 42960 0//// 10200 20144 39194 49896 54000;",
"08226099999","2010-05-24T09:00:00","4","40.6666666","-3.1666666","640.0","GUADALAJARA, SP","FM-12","99999","V020","999,9,9,9999,9","22000,1,9,N","010000,1,N,1","+0180,1","+0135,1","09912,1",,,,,,"00,1,+99999,9,99,9","00,99,1,00,1,00,1,99999,9,00,1,00,1",,,,,"99999,9,09204,1","4,1,000,1,+999,9",,"SYN060AAXX  24094 08226 42960 0//// 10180 20135 39204 49912 54000;",
"08226099999","2010-05-24T12:00:00","4","40.6666666","-3.1666666","640.0","GUADALAJARA, SP","FM-12","99999","V020","999,9,9,9999,9","22000,1,9,N","010000,1,N,1","+0240,1","+0158,1","09892,1","06,0000,9,1",,,,,,"02,99,1,02,1,01,1,01250,1,00,1,00,1",,,,,"99999,9,09200,1","8,1,004,1,+999,9",,"SYN072AAXX  24124 08226 12660 2//// 10240 20158 39200 49892 58004 60001 82100;","Q01  00002PRCP06"
"08226099999","2010-05-25T06:00:00","4","40.6666666","-3.1666666","640.0","GUADALAJARA, SP","FM-12","99999","V020","999,9,9,9999,9","22000,1,9,N","010000,1,N,1","+0170,1","+0119,1","09904,1","12,0000,9,1","24,0000,9,1",,,,"00,1,+99999,9,99,9","00,99,1,00,1,00,1,99999,9,00,1,00,1",,,,"999,N,+0160,1","99999,9,09194,1","3,1,010,1,+999,9",,"SYN094AAXX  25064 08226 12960 0//// 10170 20119 39194 49904 53010 60002 333 20160 50604 55/// 70000;","Q01  00002PRCP24Q02  00002PRCP12"
"08226099999","2010-05-25T09:00:00","4","40.6666666","-3.1666666","640.0","GUADALAJARA, SP","FM-12","99999","V020","999,9,9,9999,9","22000,1,9,N","010000,1,N,1","+0200,1","+0132,1","09896,1",,,,,,,"03,99,1,03,1,01,1,01250,1,00,1,00,1",,,,,"99999,9,09194,1","4,1,000,1,+999,9",,"SYN066AAXX  25094 08226 42660 3//// 10200 20132 39194 49896 54000 83100;",
"08226099999","2010-05-25T12:00:00","4","40.6666666","-3.1666666","640.0","GUADALAJARA, SP","FM-12","99999","V020","999,9,9,9999,9","01500,1,9,N","010000,1,N,1","+0240,1","+0135,1","09886,1","06,0000,9,1",,,,,"05,1,+01500,1,09,1","05,99,1,05,1,03,1,01250,1,00,1,00,1",,,,,"99999,9,09194,1","4,1,000,1,+999,9",,"SYN082AAXX  25124 08226 12660 5//// 10240 20135 39194 49886 54000 60001 85300 333 85950;","Q01  00002PRCP06"
"08226099999","2010-05-26T06:00:00","4","40.6666666","-3.1666666","640.0","GUADALAJARA, SP","FM-12","99999","V020","999,9,9,9999,9","01200,1,9,N","010000,1,N,1","+0128,1","+0103,1","09889,1","12,0000,9,1","24,0000,9,1",,,,,"06,99,1,06,1,01,1,01250,1,00,1,00,1",,,,"999,N,+0110,1","99999,9,09170,1","5,1,000,1,+999,9",,"SYN094AAXX  26064 08226 12660 6//// 10128 20103 39170 49889 55000 60002 86100 333 20110 55/// 70000;","Q01  00002PRCP24Q02  00002PRCP12"
"08226099999","2010-05-26T09:00:00","4","40.6666666","-3.1666666","640.0","GUADALAJARA, SP","FM-12","99999","V020","999,9,9,9999,9","22000,1,9,N","010000,1,N,1","+0188,1","+0136,1","09878,1",,,,,,,"03,99,1,02,1,01,1,01750,1,08,1,00,1",,,,,"99999,9,09174,1","1,1,004,1,+999,9",,"SYN066AAXX  26094 08226 42760 3//// 10188 20136 39174 49878 51004 82180;",
"08226099999","2010-05-26T12:00:00","4","40.6666666","-3.1666666","640.0","GUADALAJARA, SP","FM-12","99999","V020","999,9,9,9999,9","22000,1,9,N","010000,1,N,1","+0230,1","+0132,1","09859,1","06,0000,9,1",,,,,,"02,99,1,02,1,01,1,01750,1,00,1,00,1",,,,,"99999,9,09166,1","7,1,008,1,+999,9",,"SYN072AAXX  26124 08226 12760 2//// 10230 20132 39166 49859 57008 60001 82100;","Q01  00002PRCP06"
"08226099999","2010-05-27T06:00:00","4","40.6666666","-3.1666666","640.0","GUADALAJARA, SP","FM-12","99999","V020","999,9,9,9999,9","22000,1,9,N","010000,1,N,1","+0112,1","+0099,1","09876,1","12,0000,9,1","24,0000,9,1",,,,,"02,99,1,02,1,00,1,02250,1,08,1,01,1",,,,"999,N,+0108,1","99999,9,09154,1","5,1,000,1,+999,9",,"SYN094AAXX  27064 08226 12860 2//// 10112 20099 39154 49876 55000 60002 82081 333 20108 55/// 70000;","Q01  00002PRCP24Q02  00002PRCP12"
"08226099999","2010-05-27T09:00:00","4","40.6666666","-3.1666666","640.0","GUADALAJARA, SP","FM-12","99999","V020","999,9,9,9999,9","01500,1,9,N","010000,1,N,1","+0190,1","+0123,1","09856,1",,,,,,,"08,99,1,08,1,07,1,01750,1,99,9,99,9",,,,,"99999,9,09154,1","4,1,000,1,+999,9",,"SYN066AAXX  27094 08226 42760 8//// 10190 20123 39154 49856 54000 887//;",
"08226099999","2010-05-27T12:00:00","4","40.6666666","-3.1666666","640.0","GUADALAJARA, SP","FM-12","99999","V020","230,1,N,0015,1","01500,1,9,N","010000,1,N,1","+0228,1","+0136,1","09840,1","06,0000,9,1",,,,,,"08,99,1,08,1,07,1,01750,1,99,9,99,9",,,,,"99999,9,09148,1","7,1,006,1,+999,9",,"SYN072AAXX  27124 08226 12760 82303 10228 20136 39148 49840 57006 60001 887//;","Q01  00002PRCP06"
"08226099999","2010-05-28T06:00:00","4","40.6666666","-3.1666666","640.0","GUADALAJARA, SP","FM-12","99999","V020","360,1,N,0021,1","22000,1,9,N","010000,1,N,1","+0108,1","+0105,1","09899,1","12,0020,9,1","24,0020,9,1",,,,,"03,99,1,01,1,07,1,01750,1,08,1,00,1",,"11,9","999,+0080,9","999,N,+0092,1","99999,9,09174,1","2,1,002,1,+999,9",,"SYN100AAXX  28064 08226 12760 33604 10108 20105 39174 49899 52002 60022 81780 333 20092 32008 55/// 70020;",
"08226099999","2010-05-28T09:00:00","4","40.6666666","-3.1666666","640.0","GUADALAJARA, SP","FM-12","99999","V020","999,9,9,9999,9","01500,1,9,N","010000,1,N,1","+0178,1","+0123,1","09902,1",,,,,,,"07,99,1,05,1,07,1,01750,1,08,1,00,1",,,,,"99999,9,09194,1","2,1,020,1,+999,9",,"SYN066AAXX  28094 08226 42760 7//// 10178 20123 39194 49902 52020 85780;",
"08226099999","2010-05-28T12:00:00","4","40.6666666","-3.1666666","640.0","GUADALAJARA, SP","FM-12","99999","V020","999,9,9,9999,9","22000,1,9,N","010000,1,N,1","+0202,1","+0109,1","09890,1","06,0000,9,1",,,,,,"03,99,1,03,1,07,1,01750,1,08,1,01,1",,,,,"99999,9,09188,1","7,1,006,1,+999,9",,"SYN072AAXX  28124 08226 12760 3//// 10202 20109 39188 49890 57006 60001 83781;","Q01  00002PRCP06"
"08226099999","2010-05-29T06:00:00","4","40.6666666","-3.1666666","640.0","GUADALAJARA, SP","FM-12","99999","V020","999,9,9,9999,9","22000,1,9,N","010000,1,N,1","+0100,1","+0092,1","09977,1","12,0000,9,1","24,0003,9,1",,,,,"01,99,1,00,1,00,1,99999,9,00,1,01,1",,,,"999,N,+0090,1","99999,9,09244,1","2,1,012,1,+999,9",,"SYN094AAXX  29064 08226 12860 1//// 10100 20092 39244 49977 52012 69922 80001 333 20090 55/// 70002;","Q01+022502SCOLCBQ02  00002PRCP12"
"08226099999","2010-05-29T09:00:00","4","40.6666666","-3.1666666","640.0","GUADALAJARA, SP","FM-12","99999","V020","999,9,9,9999,9","22000,1,9,N","010000,1,N,1","+0168,1","+0125,1","09967,1",,,,,,"00,1,+99999,9,99,9","00,99,1,00,1,00,1,99999,9,00,1,00,1",,,,,"99999,9,09252,1","2,1,008,1,+999,9",,"SYN060AAXX  29094 08226 42960 0//// 10168 20125 39252 49967 52008;",
"08226099999","2010-05-29T12:00:00","4","40.6666666","-3.1666666","640.0","GUADALAJARA, SP","FM-12","99999","V020","999,9,9,9999,9","22000,1,9,N","010000,1,N,1","+0242,1","+0125,1","09946,1","06,0000,9,1",,,,,,"02,99,1,02,1,01,1,01750,1,00,1,00,1",,,,,"99999,9,09250,1","8,1,002,1,+999,9",,"SYN072AAXX  29124 08226 12760 2//// 10242 20125 39250 49946 58002 60001 82100;","Q01  00002PRCP06"
"08226099999","2010-05-30T06:00:00","4","40.6666666","-3.1666666","640.0","GUADALAJARA, SP","FM-12","99999","V020","999,9,9,9999,9","22000,1,9,N","010000,1,N,1","+0128,1","+0115,1","09999,1","12,0000,9,1","24,0000,9,1",,,,"00,1,+99999,9,99,9","00,99,1,00,1,00,1,99999,9,00,1,00,1",,,,"999,N,+0110,1","99999,9,09272,1","2,1,008,1,+999,9",,"SYN088AAXX  30064 08226 12960 0//// 10128 20115 39272 49999 52008 60002 333 20110 55/// 70000;","Q01  00002PRCP24Q02  00002PRCP12"
"08226099999","2010-05-30T09:00:00","4","40.6666666","-3.1666666","640.0","GUADALAJARA, SP","FM-12","99999","V020","999,9,9,9999,9","22000,1,9,N","010000,1,N,1","+0200,1","+0135,1","09983,1",,,,,,"00,1,+99999,9,99,9","00,99,1,00,1,00,1,99999,9,00,1,00,1",,,,,"99999,9,09275,1","2,1,003,1,+999,9",,"SYN060AAXX  30094 08226 42960 0//// 10200 20135 39275 49983 52003;",
"08226099999","2010-05-30T12:00:00","4","40.6666666","-3.1666666","640.0","GUADALAJARA, SP","FM-12","99999","V020","999,9,9,9999,9","22000,1,9,N","010000,1,N,1","+0260,1","+0148,1","09968,1","06,0000,9,1",,,,,,"01,99,1,01,1,01,1,01750,1,00,1,00,1",,,,,"99999,9,09275,1","4,1,000,1,+999,9",,"SYN072AAXX  30124 08226 12760 1//// 10260 20148 39275 49968 54000 60001 81100;","Q01  00002PRCP06"
"08226099999","2010-05-31T06:00:00","4","40.6666666","-3.1666666","640.0","GUADALAJARA, SP","FM-12","99999","V020","999,9,9,9999,9","22000,1,9,N","010000,1,N,1","+0151,1","+0138,1","09986,1","12,0000,9,1","24,0000,9,1",,,,"00,1,+99999,9,99,9","00,99,1,00,1,00,1,99999,9,00,1,00,1",,,,"999,N,+0142,1","99999,9,09266,1","5,1,006,1,+999,9",,"SYN088AAXX  31064 08226 12960 0//// 10151 20138 39266 49986 55006 60002 333 20142 55/// 70000;","Q01  00002PRCP24Q02  00002PRCP12"
"08226099999","2010-05-31T09:00:00","4","40.6666666","-3.1666666","640.0","GUADALAJARA, SP","FM-12","99999","V020","999,9,9,9999,9","22000,1,9,N","010000,1,N,1","+0210,1","+0153,1","09968,1",,,,,,"00,1,+99999,9,99,9","00,99,1,00,1,00,1,99999,9,00,1,00,1",,,,,"99999,9,09264,1","8,1,002,1,+999,9",,"SYN060AAXX  31094 08226 42960 0//// 10210 20153 39264 49968 58002;",
"08226099999","2010-05-31T12:00:00","4","40.6666666","-3.1666666","640.0","GUADALAJARA, SP","FM-12","99999","V020","999,9,9,9999,9","22000,1,9,N","010000,1,N,1","+0274,1","+0161,1","09931,1","06,0000,9,1",,,,,,"01,99,1,01,1,01,1,01750,1,00,1,00,1",,,,,"99999,9,09244,1","7,1,020,1,+999,9",,"SYN072AAXX  31124 08226 12760 1//// 10274 20161 39244 49931 57020 60001 81100;","Q01  00002PRCP06"
"08226099999","2010-06-01T06:00:00","4","40.6666666","-3.1666666","640.0","GUADALAJARA, SP","FM-12","99999","V020","999,9,9,9999,9","22000,1,9,N","010000,1,N,1","+0170,1","+0146,1","09927,1","12,0000,9,1","24,0000,9,1",,,,,"03,99,1,00,1,00,1,99999,9,00,1,01,1",,,,"999,N,+0160,1","99999,9,09216,1","5,1,000,1,+999,9",,"SYN094AAXX  01064 08226 12860 3//// 10170 20146 39216 49927 55000 60002 80001 333 20160 55/// 70000;","Q01+022502SCOLCBQ02  00002PRCP24Q03  00002PRCP12"
"08226099999","2010-06-01T09:00:00","4","40.6666666","-3.1666666","640.0","GUADALAJARA, SP","FM-12","99999","V020","999,9,9,9999,9","22000,1,9,N","010000,1,N,1","+0224,1","+0155,1","09905,1",,,,,,,"01,99,1,00,1,00,1,99999,9,00,1,01,1",,,,,"99999,9,09208,1","7,1,008,1,+999,9",,"SYN066AAXX  01094 08226 42860 1//// 10224 20155 39208 49905 57008 80001;","Q01+022502SCOLCB"
"08226099999","2010-06-01T12:00:00","4","40.6666666","-3.1666666","640.0","GUADALAJARA, SP","FM-12","99999","V020","999,9,9,9999,9","09000,1,9,N","010000,1,N,1","+0278,1","+0176,1","09878,1","06,0000,9,1",,,,,,"05,99,1,01,1,01,1,01750,1,07,1,06,1",,,,,"99999,9,09196,1","7,1,012,1,+999,9",,"SYN072AAXX  01124 08226 12760 5//// 10278 20176 39196 49878 57012 60001 81176;","Q01  00002PRCP06"
"08226099999","2010-06-02T06:00:00","4","40.6666666","-3.1666666","640.0","GUADALAJARA, SP","FM-12","99999","V020","010,1,N,0021,1","01500,1,9,N","010000,1,N,1","+0160,1","+0144,1","09906,1","12,0000,9,1","24,0000,9,1",,,,,"06,99,1,06,1,08,1,01250,1,00,1,00,1","0546,9","01,9","999,+0140,9","999,N,+0159,1","99999,9,09194,1","5,1,000,1,+999,9",,"SYN106AAXX  02064 08226 12660 60104 10160 20144 39194 49906 55000 60002 86800 333 20159 30014 50504 55091 70000;","Q01  00002PRCP24Q02  00002PRCP12"
"08226099999","2010-06-02T09:00:00","4","40.6666666","-3.1666666","640.0","GUADALAJARA, SP","FM-12","99999","V020","360,1,N,0010,1","01200,1,9,N","010000,1,N,1","+0210,1","+0142,1","09893,1",,,,,,,"06,99,1,06,1,04,1,01250,1,00,1,00,1",,,,,"99999,9,09194,1","4,1,000,1,+999,9",,"SYN066AAXX  02094 08226 42660 63602 10210 20142 39194 49893 54000 86400;",
"08226099999","2010-06-02T12:00:00","4","40.6666666","-3.1666666","640.0","GUADALAJARA, SP","FM-12","99999","V020","999,9,C,0000,1","01500,1,9,N","010000,1,N,1","+0240,1","+0152,1","09875,1","06,0000,9,1",,,,,,"06,99,1,06,1,04,1,01750,1,00,1,00,1",,,,,"99999,9,09184,1","8,1,010,1,+999,9",,"SYN072AAXX  02124 08226 12760 60000 10240 20152 39184 49875 58010 60001 86400;","Q01  00002PRCP06"
"08226099999","2010-06-03T06:00:00","4","40.6666666","-3.1666666","640.0","GUADALAJARA, SP","FM-12","99999","V020","999,9,9,9999,9","03600,1,9,N","010000,1,N,1","+0160,1","+0116,1","09874,1","12,0000,9,1","24,0000,9,1",,,,,"06,99,1,02,1,08,1,01250,1,04,1,00,1",,,,"999,N,+0160,1","99999,9,09164,1","4,1,000,1,+999,9",,"SYN100AAXX  03064 08226 12660 6//// 10160 20116 39164 49874 54000 60002 82840 333 20160 50504 55/// 70000;","Q01  00002PRCP24Q02  00002PRCP12"
"08226099999","2010-06-03T09:00:00","4","40.6666666","-3.1666666","640.0","GUADALAJARA, SP","FM-12","99999","V020","999,9,9,9999,9","03600,1,9,N","010000,1,N,1","+0220,1","+0139,1","09859,1",,,,,,,"06,99,1,01,1,01,1,01250,1,04,1,00,1",,,,,"99999,9,09164,1","5,1,000,1,+999,9",,"SYN066AAXX  03094 08226 42660 6//// 10220 20139 39164 49859 55000 81140;",
"08226099999","2010-06-04T06:00:00","4","40.6666666","-3.1666666","640.0","GUADALAJARA, SP","FM-12","99999","V020","999,9,9,9999,9","22000,1,9,N","010000,1,N,1","+0160,1","+0126,1","09917,1","12,0000,9,1","24,0000,9,1",,,,"00,1,+99999,9,99,9","00,99,1,00,1,00,1,99999,9,00,1,00,1",,,,"999,N,+0140,1","99999,9,09204,1","2,1,018,1,+999,9",,"SYN094AAXX  04064 08226 12960 0//// 10160 20126 39204 49917 52018 60002 333 20140 50504 55/// 70000;","Q01  00002PRCP24Q02  00002PRCP12"
"08226099999","2010-06-04T09:00:00","4","40.6666666","-3.1666666","640.0","GUADALAJARA, SP","FM-12","99999","V020","999,9,9,9999,9","22000,1,9,N","010000,1,N,1","+0210,1","+0129,1","09905,1",,,,,,"00,1,+99999,9,99,9","00,99,1,00,1,00,1,99999,9,00,1,00,1",,,,,"99999,9,09204,1","4,1,000,1,+999,9",,"SYN060AAXX  04094 08226 42960 0//// 10210 20129 39204 49905 54000;",
"08226099999","2010-06-04T12:00:00","4","40.6666666","-3.1666666","640.0","GUADALAJARA, SP","FM-12","99999","V020","999,9,9,9999,9","22000,1,9,N","010000,1,N,1","+0260,1","+0141,1","09892,1","06,0000,9,1",,,,,,"01,99,1,01,1,01,1,01250,1,00,1,00,1",,,,,"99999,9,09204,1","4,1,000,1,+999,9",,"SYN072AAXX  04124 08226 12660 1//// 10260 20141 39204 49892 54000 60001 81100;","Q01  00002PRCP06"
"08226099999","2010-06-05T06:00:00","4","40.6666666","-3.1666666","640.0","GUADALAJARA, SP","FM-12","99999","V020","999,9,9,9999,9","22000,1,9,N","010000,1,N,1","+0170,1","+0135,1","09931,1","12,0000,9,1","24,0000,9,1",,,,"00,1,+99999,9,99,9","00,99,1,00,1,00,1,99999,9,00,1,00,1",,,,"999,N,+0165,1","99999,9,09219,1","3,1,009,1,+999,9",,"SYN094AAXX  05064 08226 12960 0//// 10170 20135 39219 49931 53009 60002 333 20165 50604 55/// 70000;","Q01  00002PRCP24Q02  00002PRCP12"
"08226099999","2010-06-05T09:00:00","4","40.6666666","-3.1666666","640.0","GUADALAJARA, SP","FM-12","99999","V020","999,9,9,9999,9","22000,1,9,N","010000,1,N,1","+0250,1","+0167,1","09910,1",,,,,,,"02,99,1,02,1,01,1,01750,1,00,1,00,1",,,,,"99999,9,09219,1","4,1,000,1,+999,9",,"SYN066AAXX  05094 08226 42760 2//// 10250 20167 39219 49910 54000 82100;",
"08226099999","2010-06-05T12:00:00","4","40.6666666","-3.1666666","640.0","GUADALAJARA, SP","FM-12","99999","V020","999,9,9,9999,9","22000,1,9,N","010000,1,N,1","+0270,1","+0186,1","09895,1","06,0000,9,1",,,,,,"03,99,1,03,1,02,1,01250,1,00,1,00,1",,,,,"99999,9,09210,1","8,1,009,1,+999,9",,"SYN072AAXX  05124 08226 12660 3//// 10270 20186 39210 49895 58009 60001 83200;","Q01  00002PRCP06"
"08226099999","2010-06-06T06:00:00","4","40.6666666","-3.1666666","640.0","GUADALAJARA, SP","FM-12","99999","V020","999,9,9,9999,9","22000,1,9,N","010000,1,N,1","+0170,1","+0145,1","09903,1","12,0000,9,1","24,0000,9,1",,,,,"04,99,1,01,1,02,1,01750,1,04,1,00,1",,,,"999,N,+0160,1","99999,9,09194,1","3,1,010,1,+999,9",,"SYN100AAXX  06064 08226 12760 4//// 10170 20145 39194 49903 53010 60002 81240 333 20160 50604 55/// 70000;","Q01  00002PRCP24Q02  00002PRCP12"
"08226099999","2010-06-06T09:00:00","4","40.6666666","-3.1666666","640.0","GUADALAJARA, SP","FM-12","99999","V020","999,9,9,9999,9","03600,1,9,N","010000,1,N,1","+0230,1","+0148,1","09888,1",,,,,,,"05,99,1,02,1,02,1,01750,1,04,1,00,1",,,,,"99999,9,09194,1","4,1,000,1,+999,9",,"SYN066AAXX  06094 08226 42760 5//// 10230 20148 39194 49888 54000 82240;",
"08226099999","2010-06-06T12:00:00","4","40.6666666","-3.1666666","640.0","GUADALAJARA, SP","FM-12","99999","V020","999,9,9,9999,9","22000,1,9,N","010000,1,N,1","+0270,1","+0157,1","09868,1","06,0000,9,1",,,,,,"04,99,1,04,1,02,1,01250,1,00,1,00,1",,,,,"99999,9,09184,1","8,1,010,1,+999,9",,"SYN072AAXX  06124 08226 12660 4//// 10270 20157 39184 49868 58010 60001 84200;","Q01  00002PRCP06"
"08226099999","2010-06-07T09:00:00","4","40.6666666","-3.1666666","640.0","GUADALAJARA, SP","FM-12","99999","V020","999,9,9,9999,9","22000,1,9,N","010000,1,N,1","+0220,1","+0151,1","09882,1",,,,,,"00,1,+99999,9,99,9","00,99,1,00,1,00,1,99999,9,00,1,00,1",,,,,"99999,9,09186,1","8,1,008,1,+999,9",,"SYN060AAXX  07094 08226 42960 0//// 10220 20151 39186 49882 58008;",
"08226099999","2010-06-07T12:00:00","4","40.6666666","-3.1666666","640.0","GUADALAJARA, SP","FM-12","99999","V020","999,9,9,9999,9","22000,1,9,N","010000,1,N,1","+0270,1","+0141,1","09858,1","06,0000,9,1",,,,,"00,1,+99999,9,99,9","00,99,1,00,1,00,1,99999,9,00,1,00,1",,,,,"99999,9,09174,1","8,1,012,1,+999,9",,"SYN066AAXX  07124 08226 12960 0//// 10270 20141 39174 49858 58012 60001;","Q01  00002PRCP06"
"08226099999","2010-06-08T06:00:00","4","40.6666666","-3.1666666","640.0","GUADALAJARA, SP","FM-12","99999","V020","999,9,9,9999,9","22000,1,9,N","010000,1,N,1","+0140,1","+0106,1","09847,1","12,0000,9,1","24,0000,9,1",,,,"00,1,+99999,9,99,9","00,99,1,00,1,00,1,99999,9,00,1,00,1",,,,"999,N,+0140,1","99999,9,09134,1","4,1,000,1,+999,9",,"SYN094AAXX  08064 08226 12960 0//// 10140 20106 39134 49847 54000 60002 333 20140 50604 55/// 70000;","Q01  00002PRCP24Q02  00002PRCP12"
"08226099999","2010-06-08T09:00:00","4","40.6666666","-3.1666666","640.0","GUADALAJARA, SP","FM-12","99999","V020","999,9,9,9999,9","22000,1,9,N","010000,1,N,1","+0210,1","+0129,1","09829,1",,,,,,"00,1,+99999,9,99,9","00,99,1,00,1,00,1,99999,9,00,1,00,1",,,,,"99999,9,09134,1","4,1,000,1,+999,9",,"SYN060AAXX  08094 08226 42960 0//// 10210 20129 39134 49829 54000;",
"08226099999","2010-06-09T06:00:00","4","40.6666666","-3.1666666","640.0","GUADALAJARA, SP","FM-12","99999","V020","999,9,9,9999,9","01200,1,9,N","010000,1,N,1","+0136,1","+0130,1","09783,1","12,0071,9,1","24,0079,9,1",,"6,1,06,1","2,1,06,1",,"08,99,1,08,1,07,1,01250,1,99,9,99,9",,,,"999,N,+0128,1","99999,9,09074,1","7,1,010,1,+999,9","61,1","SYN100AAXX  09064 08226 11660 8//// 10136 20130 39074 49783 57010 60072 76162 887// 333 20128 55/// 70078;",
"08226099999","2010-06-09T09:00:00","4","40.6666666","-3.1666666","640.0","GUADALAJARA, SP","FM-12","99999","V020","999,9,9,9999,9","01200,1,9,N","010000,1,N,1","+0144,1","+0124,1","09777,1",,,,"6,1,03,1","2,1,03,1",,"08,99,1,08,1,07,1,01250,1,99,9,99,9",,,,,"99999,9,09070,1","7,1,004,1,+999,9","02,1","SYN072AAXX  09094 08226 41660 8//// 10144 20124 39070 49777 57004 70262 887//;",
"08226099999","2010-06-09T12:00:00","4","40.6666666","-3.1666666","640.0","GUADALAJARA, SP","FM-12","99999","V020","999,9,9,9999,9","01200,1,9,N","010000,1,N,1","+0148,1","+0135,1","09769,1","06,0020,9,1",,,"6,1,06,1","2,1,06,1",,"08,99,1,08,1,07,1,01250,1,99,9,99,9",,,,,"99999,9,09064,1","7,1,006,1,+999,9","63,1","SYN078AAXX  09124 08226 11660 8//// 10148 20135 39064 49769 57006 60021 76362 887//;",
"08226099999","2010-06-10T06:00:00","4","40.6666666","-3.1666666","640.0","GUADALAJARA, SP","FM-12","99999","V020","999,9,9,9999,9","01200,1,9,N","010000,1,N,1","+0130,1","+0107,1","09783,1","12,0020,9,1","24,0053,9,1",,,,,"08,99,1,08,1,07,1,01250,1,99,9,99,9",,,,"999,N,+0126,1","99999,9,09072,1","2,1,018,1,+999,9",,"SYN094AAXX  10064 08226 12660 8//// 10130 20107 39072 49783 52018 60022 887// 333 20126 55/// 70054;",
"08226099999","2010-06-10T09:00:00","4","40.6666666","-3.1666666","640.0","GUADALAJARA, SP","FM-12","99999","V020","999,9,9,9999,9","01200,1,9,N","010000,1,N,1","+0149,1","+0115,1","09792,1",,,,,,,"08,99,1,08,1,07,1,01250,1,99,9,99,9",,,,,"99999,9,09085,1","2,1,013,1,+999,9",,"SYN066AAXX  10094 08226 42660 8//// 10149 20115 39085 49792 52013 887//;",
"08226099999","2010-06-10T12:00:00","4","40.6666666","-3.1666666","640.0","GUADALAJARA, SP","FM-12","99999","V020","999,9,9,9999,9","01200,1,9,N","010000,1,N,1","+0170,1","+0111,1","09794,1","06,0000,9,1",,,"6,1,06,1","2,1,06,1",,"06,99,1,06,1,07,1,01250,1,00,1,00,1",,,,,"99999,9,09092,1","2,1,007,1,+999,9","02,1","SYN078AAXX  10124 08226 11660 6//// 10170 20111 39092 49794 52007 69911 70262 86700;","Q01  00002PRCP06"
"08226099999","2010-06-11T06:00:00","4","40.6666666","-3.1666666","640.0","GUADALAJARA, SP","FM-12","99999","V020","999,9,9,9999,9","01200,1,9,N","010000,1,N,1","+0138,1","+0117,1","09848,1","12,0005,9,1","24,0041,9,1",,"8,1,06,1","8,1,06,1",,"05,99,1,05,1,07,1,01250,1,00,1,00,1",,,,"999,N,+0138,1","99999,9,09134,1","2,1,006,1,+999,9","02,1","SYN100AAXX  11064 08226 11660 5//// 10138 20117 39134 49848 52006 69942 70288 85700 333 20138 55/// 70041;",
"08226099999","2010-06-11T09:00:00","4","40.6666666","-3.1666666","640.0","GUADALAJARA, SP","FM-12","99999","V020","999,9,9,9999,9","01200,1,9,N","010000,1,N,1","+0152,1","+0108,1","09856,1",,,,,,,"06,99,1,05,1,07,1,01250,1,08,1,01,1",,,,,"99999,9,09145,1","1,1,011,1,+999,9",,"SYN066AAXX  11094 08226 42660 6//// 10152 20108 39145 49856 51011 85781;",
"08226099999","2010-06-11T12:00:00","4","40.6666666","-3.1666666","640.0","GUADALAJARA, SP","FM-12","99999","V020","999,9,9,9999,9","01200,1,9,N","010000,1,N,1","+0180,1","+0096,1","09855,1","06,0000,9,1",,,,,,"08,99,1,06,1,07,1,01250,1,08,1,99,9",,,,,"99999,9,09150,1","2,1,005,1,+999,9",,"SYN072AAXX  11124 08226 12660 8//// 10180 20096 39150 49855 52005 60001 8678/;","Q01  00002PRCP06"
"08226099999","2010-06-12T06:00:00","4","40.6666666","-3.1666666","640.0","GUADALAJARA, SP","FM-12","99999","V020","999,9,9,9999,9","01200,1,9,N","010000,1,N,1","+0139,1","+0133,1","09870,1","12,0010,9,1","24,0015,9,1",,"6,1,06,1","2,1,06,1",,"08,99,1,99,9,07,1,01250,1,08,1,99,9",,,,"999,N,+0139,1","99999,9,09155,1","2,1,001,1,+999,9","60,1","SYN100AAXX  12064 08226 11660 8//// 10139 20133 39155 49870 52001 60012 76062 8878/ 333 20139 55/// 70014;","Q01+000082SCOTLC"
"08226099999","2010-06-12T09:00:00","4","40.6666666","-3.1666666","640.0","GUADALAJARA, SP","FM-12","99999","V020","999,9,9,9999,9","01200,1,9,N","010000,1,N,1","+0148,1","+0140,1","09872,1",,,,"6,1,03,1","2,1,03,1",,"08,99,1,99,9,07,1,01250,1,09,1,99,9",,,,,"99999,9,09160,1","2,1,005,1,+999,9","02,1","SYN072AAXX  12094 08226 41660 8//// 10148 20140 39160 49872 52005 70262 8879/;","Q01+000082SCOTLC"
"08226099999","2010-06-12T12:00:00","4","40.6666666","-3.1666666","640.0","GUADALAJARA, SP","FM-12","99999","V020","999,9,9,9999,9","01200,1,9,N","010000,1,N,1","+0160,1","+0114,1","09866,1","06,0005,9,1",,,"6,1,06,1","2,1,06,1",,"08,99,1,06,1,07,1,01250,1,09,1,99,9",,,,,"99999,9,09156,1","7,1,004,1,+999,9","02,1","SYN078AAXX  12124 08226 11660 8//// 10160 20114 39156 49866 57004 69951 70262 8679/;",
"08226099999","2010-06-13T06:00:00","4","40.6666666","-3.1666666","640.0","GUADALAJARA, SP","FM-12","99999","V020","999,9,9,9999,9","22000,1,9,N","010000,1,N,1","+0136,1","+0122,1","09895,1","12,0140,9,1","24,0145,9,1",,,,,"01,99,1,01,1,00,1,01750,1,08,1,01,1",,,,"999,N,+0130,1","99999,9,09178,1","2,1,004,1,+999,9",,"SYN094AAXX  13064 08226 12760 1//// 10136 20122 39178 49895 52004 60142 81081 333 20130 55/// 70144;",
"08226099999","2010-06-13T09:00:00","4","40.6666666","-3.1666666","640.0","GUADALAJARA, SP","FM-12","99999","V020","999,9,9,9999,9","01200,1,9,N","010000,1,N,1","+0166,1","+0128,1","09898,1",,,,,,,"06,99,1,05,1,07,1,01250,1,09,1,01,1",,,,,"99999,9,09188,1","2,1,010,1,+999,9",,"SYN066AAXX  13094 08226 42660 6//// 10166 20128 39188 49898 52010 85791;",
"08226099999","2010-06-13T12:00:00","4","40.6666666","-3.1666666","640.0","GUADALAJARA, SP","FM-12","99999","V020","999,9,9,9999,9","01200,1,9,N","010000,1,N,1","+0190,1","+0125,1","09895,1","06,0000,9,1",,,,,,"06,99,1,05,1,07,1,01250,1,09,1,01,1",,,,,"99999,9,09190,1","2,1,002,1,+999,9",,"SYN072AAXX  13124 08226 12660 6//// 10190 20125 39190 49895 52002 60001 85791;","Q01  00002PRCP06"
"08226099999","2010-06-14T06:00:00","4","40.6666666","-3.1666666","640.0","GUADALAJARA, SP","FM-12","99999","V020","999,9,9,9999,9","03600,1,9,N","010000,1,N,1","+0130,1","+0117,1","09904,1","12,0000,9,1","24,0000,9,1",,,,,"06,99,1,03,1,08,1,01750,1,07,1,00,1",,,,"999,N,+0120,1","99999,9,09184,1","4,1,000,1,+999,9",,"SYN100AAXX  14064 08226 12760 6//// 10130 20117 39184 49904 54000 60002 83870 333 20120 50204 55/// 70000;","Q01  00002PRCP24Q02  00002PRCP12"
"08226099999","2010-06-14T12:00:00","4","40.6666666","-3.1666666","640.0","GUADALAJARA, SP","FM-12","99999","V020","999,9,9,9999,9","03600,1,9,N","010000,1,N,1","+0200,1","+0132,1","09866,1","06,0000,9,1",,,,,,"06,99,1,04,1,04,1,01750,1,04,1,01,1",,,,,"99999,9,09166,1","8,1,018,1,+999,9",,"SYN072AAXX  14124 08226 12760 6//// 10200 20132 39166 49866 58018 60001 84441;","Q01  00002PRCP06"
"08226099999","2010-06-15T06:00:00","4","40.6666666","-3.1666666","640.0","GUADALAJARA, SP","FM-12","99999","V020","999,9,9,9999,9","22000,1,9,N","010000,1,N,1","+0100,1","+0081,1","09902,1","12,0000,9,1","24,0000,9,1",,,,"00,1,+99999,9,99,9","00,99,1,00,1,00,1,99999,9,00,1,00,1",,,,"999,N,+0090,1","99999,9,09174,1","4,1,000,1,+999,9",,"SYN088AAXX  15064 08226 12960 0//// 10100 20081 39174 49902 54000 60002 333 20090 55/// 70000;","Q01  00002PRCP24Q02  00002PRCP12"
"08226099999","2010-06-15T09:00:00","4","40.6666666","-3.1666666","640.0","GUADALAJARA, SP","FM-12","99999","V020","999,9,9,9999,9","22000,1,9,N","010000,1,N,1","+0150,1","+0078,1","09884,1",,,,,,,"02,99,1,02,1,01,1,01750,1,00,1,00,1",,,,,"99999,9,09170,1","7,1,004,1,+999,9",,"SYN066AAXX  15094 08226 42760 2//// 10150 20078 39170 49884 57004 82100;",
"08226099999","2010-06-15T12:00:00","4","40.6666666","-3.1666666","640.0","GUADALAJARA, SP","FM-12","99999","V020","999,9,9,9999,9","01500,1,9,N","010000,1,N,1","+0170,1","+0065,1","09877,1","06,0000,9,1",,,,,,"06,99,1,06,1,07,1,01750,1,00,1,00,1",,,,,"99999,9,09168,1","7,1,002,1,+999,9",,"SYN072AAXX  15124 08226 12760 6//// 10170 20065 39168 49877 57002 60001 86700;","Q01  00002PRCP06"
"08226099999","2010-06-16T09:00:00","4","40.6666666","-3.1666666","640.0","GUADALAJARA, SP","FM-12","99999","V020","999,9,9,9999,9","03600,1,9,N","010000,1,N,1","+0120,1","+0087,1","09896,1",,,,,,,"07,99,1,04,1,07,1,01750,1,06,1,00,1",,,,,"99999,9,09174,1","4,1,000,1,+999,9",,"SYN066AAXX  16094 08226 42760 7//// 10120 20087 39174 49896 54000 84760;",
"08226099999","2010-06-16T12:00:00","4","40.6666666","-3.1666666","640.0","GUADALAJARA, SP","FM-12","99999","V020","999,9,9,9999,9","01500,1,9,N","010000,1,N,1","+0140,1","+0075,1","09891,1","06,0000,9,1",,,,,,"08,99,1,08,1,07,1,01750,1,00,1,00,1",,,,,"99999,9,09174,1","4,1,000,1,+999,9",,"SYN072AAXX  16124 08226 12760 8//// 10140 20075 39174 49891 54000 60001 88700;","Q01  00002PRCP06"
"08226099999","2010-06-17T09:00:00","4","40.6666666","-3.1666666","640.0","GUADALAJARA, SP","FM-12","99999","V020","999,9,9,9999,9","22000,1,9,N","010000,1,N,1","+0140,1","+0086,1","09913,1",,,,,,"00,1,+99999,9,99,9","00,99,1,00,1,00,1,99999,9,00,1,00,1",,,,,"99999,9,09194,1","1,1,002,1,+999,9",,"SYN060AAXX  17094 08226 42960 0//// 10140 20086 39194 49913 51002;",
"08226099999","2010-06-17T12:00:00","4","40.6666666","-3.1666666","640.0","GUADALAJARA, SP","FM-12","99999","V020","999,9,9,9999,9","01500,1,9,N","010000,1,N,1","+0190,1","+0098,1","09889,1","06,0000,9,1",,,,,,"06,99,1,06,1,08,1,01250,1,00,1,00,1",,,,,"99999,9,09184,1","8,1,010,1,+999,9",,"SYN072AAXX  17124 08226 12660 6//// 10190 20098 39184 49889 58010 60001 86800;","Q01  00002PRCP06"
"08226099999","2010-06-18T09:00:00","4","40.6666666","-3.1666666","640.0","GUADALAJARA, SP","FM-12","99999","V020","999,9,9,9999,9","01500,1,9,N","010000,1,N,1","+0180,1","+0125,1","09897,1",,,,,,,"06,99,1,06,1,05,1,01750,1,00,1,00,1",,,,,"99999,9,09190,1","1,1,006,1,+999,9",,"SYN066AAXX  18094 08226 42760 6//// 10180 20125 39190 49897 51006 86500;",
"08226099999","2010-06-18T12:00:00","4","40.6666666","-3.1666666","640.0","GUADALAJARA, SP","FM-12","99999","V020","200,1,N,0036,1","01500,1,9,N","010000,1,N,1","+0240,1","+0158,1","09875,1","06,0000,9,1",,,,,,"06,99,1,06,1,08,1,01250,1,00,1,00,1",,,,,"99999,9,09184,1","8,1,006,1,+999,9",,"SYN072AAXX  18124 08226 12660 62007 10240 20158 39184 49875 58006 60001 86800;","Q01  00002PRCP06"
"08226099999","2010-06-19T06:00:00","4","40.6666666","-3.1666666","640.0","GUADALAJARA, SP","FM-12","99999","V020","999,9,C,0000,1","22000,1,9,N","010000,1,N,1","+0128,1","+0120,1","09900,1","12,0061,9,1","24,0066,9,1",,,,"00,1,+99999,9,99,9","00,99,1,00,1,00,1,99999,9,00,1,00,1","0426,9","09,9","999,+0100,9","999,N,+0109,1","99999,9,09180,1","4,1,000,1,+999,9",,"SYN100AAXX  19064 08226 12960 00000 10128 20120 39180 49900 54000 60062 333 20109 31010 50404 55071 70066;",
"08226099999","2010-06-19T09:00:00","4","40.6666666","-3.1666666","640.0","GUADALAJARA, SP","FM-12","99999","V020","020,1,N,0026,1","22000,1,9,N","010000,1,N,1","+0185,1","+0129,1","09885,1",,,,,,"00,1,+99999,9,99,9","00,99,1,00,1,00,1,99999,9,00,1,00,1",,,,,"99999,9,09180,1","4,1,000,1,+999,9",,"SYN060AAXX  19094 08226 42960 00205 10185 20129 39180 49885 54000;",
"08226099999","2010-06-19T12:00:00","4","40.6666666","-3.1666666","640.0","GUADALAJARA, SP","FM-12","99999","V020","120,1,N,0005,1","01500,1,9,N","010000,1,N,1","+0224,1","+0115,1","09869,1","06,0000,9,1",,,,,,"06,99,1,06,1,08,1,01250,1,00,1,00,1",,,,,"99999,9,09174,1","8,1,006,1,+999,9",,"SYN072AAXX  19124 08226 12660 61201 10224 20115 39174 49869 58006 60001 86800;","Q01  00002PRCP06"
"08226099999","2010-06-20T06:00:00","4","40.6666666","-3.1666666","640.0","GUADALAJARA, SP","FM-12","99999","V020","999,9,C,0000,1","22000,1,9,N","010000,1,N,1","+0111,1","+0078,1","09899,1","12,0000,9,1","24,0000,9,1",,,,"00,1,+99999,9,99,9","00,99,1,00,1,00,1,99999,9,00,1,00,1","0756,9","01,9","999,+0080,9","999,N,+0093,1","99999,9,09174,1","3,1,002,1,+999,9",,"SYN094AAXX  20064 08226 12960 00000 10111 20078 39174 49899 53002 60002 333 20093 30008 55126 70000;","Q01  00002PRCP24Q02  00002PRCP12"
"08226099999","2010-06-20T09:00:00","4","40.6666666","-3.1666666","640.0","GUADALAJARA, SP","FM-12","99999","V020","350,1,N,0046,1","22000,1,9,N","010000,1,N,1","+0190,1","+0078,1","09887,1",,,,,,,"02,99,1,02,1,01,1,01750,1,00,1,00,1",,,,,"99999,9,09182,1","2,1,008,1,+999,9",,"SYN066AAXX  20094 08226 42760 23509 10190 20078 39182 49887 52008 82100;",
"08226099999","2010-06-20T12:00:00","4","40.6666666","-3.1666666","640.0","GUADALAJARA, SP","FM-12","99999","V020","360,1,N,0062,1","22000,1,9,N","010000,1,N,1","+0214,1","+0080,1","09878,1","06,0000,9,1",,,,,,"01,99,1,01,1,01,1,01750,1,00,1,00,1",,,,,"99999,9,09179,1","7,1,003,1,+999,9",,"SYN072AAXX  20124 08226 12760 13612 10214 20080 39179 49878 57003 60001 81100;","Q01  00002PRCP06"
"08226099999","2010-06-21T06:00:00","4","40.6666666","-3.1666666","640.0","GUADALAJARA, SP","FM-12","99999","V020","999,9,C,0000,1","22000,1,9,N","010000,1,N,1","+0080,1","+0048,1","09940,1","12,0000,9,1","24,0000,9,1",,,,"00,1,+99999,9,99,9","00,99,1,00,1,00,1,99999,9,00,1,00,1",,"01,9","999,+0070,9","999,N,+0080,1","99999,9,09204,1","4,1,000,1,+999,9",,"SYN100AAXX  21064 08226 12960 00000 10080 20048 39204 49940 54000 60002 333 20080 30007 50504 55/// 70000;","Q01  00002PRCP24Q02  00002PRCP12"
"08226099999","2010-06-21T09:00:00","4","40.6666666","-3.1666666","640.0","GUADALAJARA, SP","FM-12","99999","V020","999,9,9,9999,9","22000,1,9,N","010000,1,N,1","+0170,1","+0065,1","09927,1",,,,,,"00,1,+99999,9,99,9","00,99,1,00,1,00,1,99999,9,00,1,00,1",,,,,"99999,9,09214,1","1,1,010,1,+999,9",,"SYN060AAXX  21094 08226 42960 0//// 10170 20065 39214 49927 51010;",
"08226099999","2010-06-21T12:00:00","4","40.6666666","-3.1666666","640.0","GUADALAJARA, SP","FM-12","99999","V020","999,9,9,9999,9","22000,1,9,N","010000,1,N,1","+0206,1","+0065,1","09907,1","06,0000,9,1",,,,,"00,1,+99999,9,99,9","00,99,1,00,1,00,1,99999,9,00,1,00,1",,,,,"99999,9,09204,1","8,1,010,1,+999,9",,"SYN066AAXX  21124 08226 12960 0//// 10206 20065 39204 49907 58010 60001;","Q01  00002PRCP06"
"08226099999","2010-06-22T09:00:00","4","40.6666666","-3.1666666","640.0","GUADALAJARA, SP","FM-12","99999","V020","999,9,C,0000,1","22000,1,9,N","010000,1,N,1","+0190,1","+0106,1","09926,1",,,,,,"00,1,+99999,9,99,9","00,99,1,00,1,00,1,99999,9,00,1,00,1",,,,,"99999,9,09219,1","1,1,005,1,+999,9",,"SYN060AAXX  22094 08226 42960 00000 10190 20106 39219 49926 51005;",
"08226099999","2010-06-23T06:00:00","4","40.6666666","-3.1666666","640.0","GUADALAJARA, SP","FM-12","99999","V020","999,9,9,9999,9","22000,1,9,N","010000,1,N,1","+0140,1","+0102,1","09932,1","12,0000,9,1","24,0000,9,1",,,,"00,1,+99999,9,99,9","00,99,1,00,1,00,1,99999,9,00,1,00,1",,,,"999,N,+0120,1","99999,9,09212,1","2,1,008,1,+999,9",,"SYN088AAXX  23064 08226 12960 0//// 10140 20102 39212 49932 52008 60002 333 20120 55/// 70000;","Q01  00002PRCP24Q02  00002PRCP12"
"08226099999","2010-06-23T09:00:00","4","40.6666666","-3.1666666","640.0","GUADALAJARA, SP","FM-12","99999","V020","999,9,9,9999,9","22000,1,9,N","010000,1,N,1","+0210,1","+0124,1","09913,1",,,,,,"00,1,+99999,9,99,9","00,99,1,00,1,00,1,99999,9,00,1,00,1",,,,,"99999,9,09212,1","0,1,000,1,+999,9",,"SYN060AAXX  23094 08226 42960 0//// 10210 20124 39212 49913 50000;",
"08226099999","2010-06-23T12:00:00","4","40.6666666","-3.1666666","640.0","GUADALAJARA, SP","FM-12","99999","V020","999,9,9,9999,9","22000,1,9,N","010000,1,N,1","+0270,1","+0130,1","09888,1","06,0000,9,1",,,,,"00,1,+99999,9,99,9","00,99,1,00,1,00,1,99999,9,00,1,00,1",,,,,"99999,9,09202,1","7,1,010,1,+999,9",,"SYN066AAXX  23124 08226 12960 0//// 10270 20130 39202 49888 57010 60001;","Q01  00002PRCP06"
"08226099999","2010-06-24T06:00:00","4","40.6666666","-3.1666666","640.0","GUADALAJARA, SP","FM-12","99999","V020","999,9,9,9999,9","22000,1,9,N","010000,1,N,1","+0160,1","+0116,1","09907,1","12,0000,9,1","24,0000,9,1",,,,,"01,99,1,00,1,00,1,99999,9,00,1,01,1",,,,"999,N,+0140,1","99999,9,09194,1","2,1,006,1,+999,9",,"SYN094AAXX  24064 08226 12860 1//// 10160 20116 39194 49907 52006 60002 80001 333 20140 55/// 70000;","Q01+022502SCOLCBQ02  00002PRCP24Q03  00002PRCP12"
"08226099999","2010-06-24T09:00:00","4","40.6666666","-3.1666666","640.0","GUADALAJARA, SP","FM-12","99999","V020","999,9,9,9999,9","22000,1,9,N","010000,1,N,1","+0246,1","+0163,1","09888,1",,,,,,,"01,99,1,00,1,00,1,99999,9,00,1,01,1",,,,,"99999,9,09198,1","1,1,004,1,+999,9",,"SYN066AAXX  24094 08226 42860 1//// 10246 20163 39198 49888 51004 80001;","Q01+022502SCOLCB"
"08226099999","2010-06-24T12:00:00","4","40.6666666","-3.1666666","640.0","GUADALAJARA, SP","FM-12","99999","V020","240,1,N,0021,1","22000,1,9,N","010000,1,N,1","+0312,1","+0179,1","09862,1","06,0000,9,1",,,,,,"01,99,1,01,1,01,1,01750,1,00,1,01,1",,,,,"99999,9,09188,1","7,1,010,1,+999,9",,"SYN072AAXX  24124 08226 12760 12404 10312 20179 39188 49862 57010 60001 81101;","Q01  00002PRCP06"
"08226099999","2010-06-25T06:00:00","4","40.6666666","-3.1666666","640.0","GUADALAJARA, SP","FM-12","99999","V020","999,9,9,9999,9","03600,1,9,N","010000,1,N,1","+0210,1","+0164,1","09882,1","12,0000,9,1","24,0000,9,1",,"9,1,06,1","2,1,06,1",,"06,99,1,03,1,07,1,01750,1,09,1,08,1",,,,"999,N,+0210,1","99999,9,09184,1","1,1,010,1,+999,9","02,1","SYN100AAXX  25064 08226 11760 6//// 10210 20164 39184 49882 51010 60002 70292 83798 333 20210 55/// 70000;","Q01  00002PRCP24Q02  00002PRCP12"
"08226099999","2010-06-25T09:00:00","4","40.6666666","-3.1666666","640.0","GUADALAJARA, SP","FM-12","99999","V020","070,1,N,0031,1","09000,1,9,N","010000,1,N,1","+0268,1","+0113,1","09870,1",,,,,,,"05,99,1,01,1,07,1,01750,1,09,1,08,1",,,,,"99999,9,09184,1","4,1,000,1,+999,9",,"SYN066AAXX  25094 08226 42760 50706 10268 20113 39184 49870 54000 81798;",
"08226099999","2010-06-25T12:00:00","4","40.6666666","-3.1666666","640.0","GUADALAJARA, SP","FM-12","99999","V020","270,1,N,0021,1","09000,1,9,N","010000,1,N,1","+0298,1","+0113,1","09852,1","06,0000,9,1",,,,,,"05,99,1,02,1,07,1,01750,1,09,1,08,1",,,,,"99999,9,09174,1","8,1,010,1,+999,9",,"SYN072AAXX  25124 08226 12760 52704 10298 20113 39174 49852 58010 60001 82798;","Q01  00002PRCP06"
"08226099999","2010-06-26T06:00:00","4","40.6666666","-3.1666666","640.0","GUADALAJARA, SP","FM-12","99999","V020","999,9,9,9999,9","22000,1,9,N","010000,1,N,1","+0154,1","+0148,1","09897,1","12,0109,9,1","24,0109,9,1",,"9,1,06,1","6,1,06,1",,"03,99,1,03,1,00,1,01750,1,08,1,00,1",,,,"999,N,+0154,1","99999,9,09184,1","5,1,000,1,+999,9","02,1","SYN100AAXX  26064 08226 11760 3//// 10154 20148 39184 49897 55000 60112 70296 83080 333 20154 55/// 70108;",
"08226099999","2010-06-26T09:00:00","4","40.6666666","-3.1666666","640.0","GUADALAJARA, SP","FM-12","99999","V020","999,9,9,9999,9","22000,1,9,N","010000,1,N,1","+0220,1","+0174,1","09881,1",,,,,,,"02,99,1,01,1,06,1,01750,1,08,1,00,1",,,,,"99999,9,09186,1","2,1,002,1,+999,9",,"SYN066AAXX  26094 08226 42760 2//// 10220 20174 39186 49881 52002 81680;",
"08226099999","2010-06-26T12:00:00","4","40.6666666","-3.1666666","640.0","GUADALAJARA, SP","FM-12","99999","V020","999,9,9,9999,9","22000,1,9,N","010000,1,N,1","+0262,1","+0126,1","09871,1","06,0000,9,1",,,,,,"02,99,1,01,1,01,1,01750,1,08,1,00,1",,,,,"99999,9,09184,1","7,1,002,1,+999,9",,"SYN072AAXX  26124 08226 12760 2//// 10262 20126 39184 49871 57002 60001 81180;","Q01  00002PRCP06"
"08226099999","2010-06-27T06:00:00","4","40.6666666","-3.1666666","640.0","GUADALAJARA, SP","FM-12","99999","V020","999,9,C,0000,1","03600,1,9,N","010000,1,N,1","+0174,1","+0161,1","09913,1","12,0071,9,1","24,0074,9,1",,"9,1,06,1","8,1,06,1",,"07,99,1,03,1,07,1,01750,1,05,1,08,1",,"11,9","999,+0160,9","999,N,+0162,1","99999,9,09204,1","6,1,004,1,+999,9","02,1","SYN106AAXX  27064 08226 11760 70000 10174 20161 39204 49913 56004 60072 70298 83758 333 20162 32016 55/// 70073;",
"08226099999","2010-06-27T09:00:00","4","40.6666666","-3.1666666","640.0","GUADALAJARA, SP","FM-12","99999","V020","330,1,N,0021,1","03600,1,9,N","010000,1,N,1","+0212,1","+0172,1","09903,1",,,,,,,"07,99,1,04,1,07,1,01750,1,05,1,08,1",,,,,"99999,9,09204,1","4,1,000,1,+999,9",,"SYN066AAXX  27094 08226 42760 73304 10212 20172 39204 49903 54000 84758;",
"08226099999","2010-06-27T12:00:00","4","40.6666666","-3.1666666","640.0","GUADALAJARA, SP","FM-12","99999","V020","030,1,N,0015,1","22000,1,9,N","010000,1,N,1","+0272,1","+0139,1","09892,1","06,0000,9,1",,,,,,"03,99,1,01,1,01,1,01750,1,08,1,05,1",,,,,"99999,9,09206,1","2,1,002,1,+999,9",,"SYN072AAXX  27124 08226 12760 30303 10272 20139 39206 49892 52002 60001 81185;","Q01  00002PRCP06"
"08226099999","2010-06-28T06:00:00","4","40.6666666","-3.1666666","640.0","GUADALAJARA, SP","FM-12","99999","V020","999,9,9,9999,9","22000,1,9,N","010000,1,N,1","+0160,1","+0144,1","09940,1","12,0000,9,1","24,0000,9,1",,,,,"01,99,1,01,1,00,1,02250,1,08,1,01,1",,,,"999,N,+0148,1","99999,9,09226,1","3,1,006,1,+999,9",,"SYN094AAXX  28064 08226 12860 1//// 10160 20144 39226 49940 53006 60002 81081 333 20148 55/// 70000;","Q01  00002PRCP24Q02  00002PRCP12"
"08226099999","2010-06-28T09:00:00","4","40.6666666","-3.1666666","640.0","GUADALAJARA, SP","FM-12","99999","V020","999,9,9,9999,9","22000,1,9,N","010000,1,N,1","+0238,1","+0136,1","09930,1",,,,,,,"02,99,1,01,1,00,1,02250,1,08,1,01,1",,,,,"99999,9,09234,1","2,1,008,1,+999,9",,"SYN066AAXX  28094 08226 42860 2//// 10238 20136 39234 49930 52008 81081;",
"08226099999","2010-06-28T12:00:00","4","40.6666666","-3.1666666","640.0","GUADALAJARA, SP","FM-12","99999","V020","999,9,9,9999,9","22000,1,9,N","010000,1,N,1","+0282,1","+0085,1","09910,1","06,0000,9,1",,,,,,"01,99,1,01,1,01,1,01750,1,00,1,01,1",,,,,"99999,9,09224,1","7,1,010,1,+999,9",,"SYN072AAXX  28124 08226 12760 1//// 10282 20085 39224 49910 57010 60001 81101;","Q01  00002PRCP06"
"08226099999","2010-06-29T06:00:00","4","40.6666666","-3.1666666","640.0","GUADALAJARA, SP","FM-12","99999","V020","999,9,9,9999,9","03600,1,9,N","010000,1,N,1","+0166,1","+0150,1","09947,1","12,0020,9,2","24,0015,9,2",,"9,1,06,1","9,1,06,1",,"05,99,1,04,1,07,1,01750,1,08,1,00,1",,,,"999,N,+0166,1","99999,9,09234,1","2,1,006,1,+999,9","02,1","SYN100AAXX  29064 08226 11760 5//// 10166 20150 39234 49947 52006 60022 70299 84780 333 20166 55/// 70016;",
"08226099999","2010-06-29T09:00:00","4","40.6666666","-3.1666666","640.0","GUADALAJARA, SP","FM-12","99999","V020","999,9,9,9999,9","03600,1,9,N","010000,1,N,1","+0226,1","+0147,1","09937,1",,,,,,,"05,99,1,02,1,07,1,01750,1,08,1,00,1",,,,,"99999,9,09238,1","3,1,004,1,+999,9",,"SYN066AAXX  29094 08226 42760 5//// 10226 20147 39238 49937 53004 82780;",
"08226099999","2010-06-29T12:00:00","4","40.6666666","-3.1666666","640.0","GUADALAJARA, SP","FM-12","99999","V020","999,9,9,9999,9","22000,1,9,N","010000,1,N,1","+0272,1","+0132,1","09920,1","06,0000,9,1",,,,,"01,1,+01800,1,09,1","02,99,1,02,1,03,1,01750,1,08,1,00,1",,,,,"99999,9,09232,1","7,1,006,1,+999,9",,"SYN082AAXX  29124 08226 12760 2//// 10272 20132 39232 49920 57006 60001 82380 333 81956;","Q01  00002PRCP06"
"08226099999","2010-06-30T06:00:00","4","40.6666666","-3.1666666","640.0","GUADALAJARA, SP","FM-12","99999","V020","999,9,9,9999,9","22000,1,9,N","010000,1,N,1","+0170,1","+0135,1","09947,1","12,0000,9,1","24,0000,9,1",,,,"00,1,+99999,9,99,9","00,99,1,00,1,00,1,99999,9,00,1,00,1",,,,"999,N,+0140,1","99999,9,09234,1","4,1,000,1,+999,9",,"SYN094AAXX  30064 08226 12960 0//// 10170 20135 39234 49947 54000 60002 333 20140 50524 55/// 70000;","Q01  00002PRCP24Q02  00002PRCP12"
"08226099999","2010-06-30T09:00:00","4","40.6666666","-3.1666666","640.0","GUADALAJARA, SP","FM-12","99999","V020","999,9,9,9999,9","22000,1,9,N","010000,1,N,1","+0230,1","+0148,1","09931,1",,,,,,"00,1,+99999,9,99,9","00,99,1,00,1,00,1,99999,9,00,1,00,1",,,,,"99999,9,09234,1","4,1,000,1,+999,9",,"SYN060AAXX  30094 08226 42960 0//// 10230 20148 39234 49931 54000;",
"08226099999","2010-06-30T12:00:00","4","40.6666666","-3.1666666","640.0","GUADALAJARA, SP","FM-12","99999","V020","999,9,9,9999,9","22000,1,9,N","010000,1,N,1","+0280,1","+0131,1","09911,1","06,0000,9,1",,,,,"00,1,+99999,9,99,9","00,99,1,00,1,00,1,99999,9,00,1,00,1",,,,,"99999,9,09226,1","8,1,008,1,+999,9",,"SYN066AAXX  30124 08226 12960 0//// 10280 20131 39226 49911 58008 60001;","Q01  00002PRCP06"
"08226099999","2010-07-01T06:00:00","4","40.6666666","-3.1666666","640.0","GUADALAJARA, SP","FM-12","99999","V020","999,9,9,9999,9","22000,1,9,N","010000,1,N,1","+0160,1","+0135,1","09917,1","12,0000,9,1","24,0000,9,1",,,,,"02,99,1,02,1,01,1,01250,1,00,1,00,1",,,,"999,N,+0150,1","99999,9,09204,1","4,1,000,1,+999,9",,"SYN100AAXX  01064 08226 12660 2//// 10160 20135 39204 49917 54000 60002 82100 333 20150 50604 55/// 70000;","Q01  00002PRCP24Q02  00002PRCP12"
"08226099999","2010-07-01T09:00:00","4","40.6666666","-3.1666666","640.0","GUADALAJARA, SP","FM-12","99999","V020","999,9,9,9999,9","22000,1,9,N","010000,1,N,1","+0236,1","+0149,1","09898,1",,,,,,"00,1,+99999,9,99,9","00,99,1,00,1,00,1,99999,9,00,1,00,1",,,,,"99999,9,09204,1","4,1,000,1,+999,9",,"SYN060AAXX  01094 08226 42960 0//// 10236 20149 39204 49898 54000;",
"08226099999","2010-07-01T12:00:00","4","40.6666666","-3.1666666","640.0","GUADALAJARA, SP","FM-12","99999","V020","999,9,9,9999,9","22000,1,9,N","010000,1,N,1","+0330,2","+0176,1","09871,1","06,0000,9,1",,,,,"02,1,+00990,1,09,1","02,99,1,02,1,03,1,01250,1,00,1,00,1",,,,,"99999,9,09200,1","8,1,004,1,+999,9",,"SYN082AAXX  01124 08226 12660 2//// 10330 20176 39200 49871 58004 60001 82300 333 82933;","Q01  00002PRCP06"
"08226099999","2010-07-02T06:00:00","4","40.6666666","-3.1666666","640.0","GUADALAJARA, SP","FM-12","99999","V020","999,9,9,9999,9","22000,1,9,N","010000,1,N,1","+0170,1","+0145,1","09893,1","12,0000,9,1","24,0000,9,1",,,,"00,1,+99999,9,99,9","00,99,1,00,1,00,1,99999,9,00,1,00,1",,,,"999,N,+0170,1","99999,9,09184,1","4,1,000,1,+999,9",,"SYN094AAXX  02064 08226 12960 0//// 10170 20145 39184 49893 54000 60002 333 20170 50604 55/// 70000;","Q01  00002PRCP24Q02  00002PRCP12"
"08226099999","2010-07-02T09:00:00","4","40.6666666","-3.1666666","640.0","GUADALAJARA, SP","FM-12","99999","V020","999,9,9,9999,9","22000,1,9,N","010000,1,N,1","+0260,1","+0148,1","09881,1",,,,,,,"03,99,1,00,1,00,1,99999,9,00,1,05,1",,,,,"99999,9,09194,1","1,1,010,1,+999,9",,"SYN066AAXX  02094 08226 42860 3//// 10260 20148 39194 49881 51010 80005;","Q01+022502SCOLCB"
"08226099999","2010-07-02T12:00:00","4","40.6666666","-3.1666666","640.0","GUADALAJARA, SP","FM-12","99999","V020","999,9,9,9999,9","01200,1,9,N","010000,1,N,1","+0280,1","+0131,1","09884,1","06,0000,9,1",,,,,,"08,99,1,08,1,02,1,01250,1,00,1,00,1",,,,,"99999,9,09200,1","1,1,006,1,+999,9",,"SYN072AAXX  02124 08226 12660 8//// 10280 20131 39200 49884 51006 60001 88200;","Q01  00002PRCP06"
"08226099999","2010-07-03T06:00:00","4","40.6666666","-3.1666666","640.0","GUADALAJARA, SP","FM-12","99999","V020","999,9,9,9999,9","00990,1,9,N","010000,1,N,1","+0170,1","+0153,1","09916,1","12,0000,9,1","24,0000,9,1",,"9,1,06,1","2,1,06,1","08,1,+00990,1,09,1","08,99,1,08,1,03,1,01250,1,00,1,00,1",,,,"999,N,+0160,1","99999,9,09206,1","3,1,006,1,+999,9","03,1","SYN112AAXX  03064 08226 11660 8//// 10170 20153 39206 49916 53006 60002 70392 88300 333 20160 50654 55/// 70000 88933;","Q01  00002PRCP24Q02  00002PRCP12"
"08226099999","2010-07-03T09:00:00","4","40.6666666","-3.1666666","640.0","GUADALAJARA, SP","FM-12","99999","V020","999,9,9,9999,9","00990,1,9,N","010000,1,N,1","+0180,1","+0172,1","09954,1",,,,"6,1,03,1","2,1,03,1","08,1,+00990,1,09,1","08,99,1,08,1,03,1,01250,1,00,1,00,1",,,,,"99999,9,09244,1","1,1,038,1,+999,9","02,1","SYN082AAXX  03094 08226 41660 8//// 10180 20172 39244 49954 51038 70262 88300 333 88933;",
"08226099999","2010-07-03T12:00:00","4","40.6666666","-3.1666666","640.0","GUADALAJARA, SP","FM-12","99999","V020","999,9,9,9999,9","01200,1,9,N","010000,1,N,1","+0220,1","+0167,1","09933,1","06,0071,9,1",,,,,,"06,99,1,05,1,02,1,01250,1,04,1,00,1",,,,,"99999,9,09234,1","8,1,010,1,+999,9",,"SYN072AAXX  03124 08226 12660 6//// 10220 20167 39234 49933 58010 60071 85240;",
"08226099999","2010-07-04T06:00:00","4","40.6666666","-3.1666666","640.0","GUADALAJARA, SP","FM-12","99999","V020","999,9,9,9999,9","22000,1,9,N","010000,1,N,1","+0170,1","+0125,1","09958,1","12,0000,9,1","24,0000,9,1",,,,"00,1,+99999,9,99,9","00,99,1,00,1,00,1,99999,9,00,1,00,1",,,,"999,N,+0150,1","99999,9,09244,1","4,1,000,1,+999,9",,"SYN094AAXX  04064 08226 12960 0//// 10170 20125 39244 49958 54000 60002 333 20150 50504 55/// 70000;","Q01  00002PRCP24Q02  00002PRCP12"
"08226099999","2010-07-04T09:00:00","4","40.6666666","-3.1666666","640.0","GUADALAJARA, SP","FM-12","99999","V020","999,9,9,9999,9","22000,1,9,N","010000,1,N,1","+0220,1","+0139,1","09951,1",,,,,,"00,1,+99999,9,99,9","00,99,1,00,1,00,1,99999,9,00,1,00,1",,,,,"99999,9,09250,1","3,1,006,1,+999,9",,"SYN060AAXX  04094 08226 42960 0//// 10220 20139 39250 49951 53006;",
"08226099999","2010-07-05T06:00:00","4","40.6666666","-3.1666666","640.0","GUADALAJARA, SP","FM-12","99999","V020","999,9,9,9999,9","22000,1,9,N","010000,1,N,1","+0190,1","+0180,1","09960,1","12,0000,9,1","24,0000,9,1",,,,"00,1,+99999,9,99,9","00,99,1,00,1,00,1,99999,9,00,1,00,1",,,,"999,N,+0170,1","99999,9,09252,1","3,1,008,1,+999,9",,"SYN094AAXX  05064 08226 12960 0//// 10190 20180 39252 49960 53008 60002 333 20170 50604 55/// 70000;","Q01  00002PRCP24Q02  00002PRCP12"
"08226099999","2010-07-05T09:00:00","4","40.6666666","-3.1666666","640.0","GUADALAJARA, SP","FM-12","99999","V020","999,9,9,9999,9","22000,1,9,N","010000,1,N,1","+0250,1","+0167,1","09948,1",,,,,,"00,1,+99999,9,99,9","00,99,1,00,1,00,1,99999,9,00,1,00,1",,,,,"99999,9,09254,1","1,1,002,1,+999,9",,"SYN060AAXX  05094 08226 42960 0//// 10250 20167 39254 49948 51002;",
"08226099999","2010-07-05T12:00:00","4","40.6666666","-3.1666666","640.0","GUADALAJARA, SP","FM-12","99999","V020","999,9,9,9999,9","22000,1,9,N","010000,1,N,1","+0320,1","+0167,1","09927,1","06,0000,9,1",,,,,"00,1,+99999,9,99,9","00,99,1,00,1,00,1,99999,9,00,1,00,1",,,,,"99999,9,09250,1","8,1,004,1,+999,9",,"SYN066AAXX  05124 08226 12960 0//// 10320 20167 39250 49927 58004 60001;","Q01  00002PRCP06"
"08226099999","2010-07-06T06:00:00","4","40.6666666","-3.1666666","640.0","GUADALAJARA, SP","FM-12","99999","V020","999,9,9,9999,9","22000,1,9,N","010000,1,N,1","+0190,1","+0108,1","09960,1","12,0000,9,1","24,0000,9,1",,,,"00,1,+99999,9,99,9","00,99,1,00,1,00,1,99999,9,00,1,00,1",,,,"999,N,+0160,1","99999,9,09250,1","4,1,000,1,+999,9",,"SYN094AAXX  06064 08226 12960 0//// 10190 20108 39250 49960 54000 60002 333 20160 50604 55/// 70000;","Q01  00002PRCP24Q02  00002PRCP12"
"08226099999","2010-07-06T09:00:00","4","40.6666666","-3.1666666","640.0","GUADALAJARA, SP","FM-12","99999","V020","999,9,9,9999,9","22000,1,9,N","010000,1,N,1","+0270,1","+0157,1","09939,1",,,,,,"00,1,+99999,9,99,9","00,99,1,00,1,00,1,99999,9,00,1,00,1",,,,,"99999,9,09250,1","4,1,000,1,+999,9",,"SYN060AAXX  06094 08226 42960 0//// 10270 20157 39250 49939 54000;",
"08226099999","2010-07-06T12:00:00","4","40.6666666","-3.1666666","640.0","GUADALAJARA, SP","FM-12","99999","V020","999,9,9,9999,9","22000,1,9,N","010000,1,N,1","+0320,1","+0146,1","09910,1","06,0000,9,1",,,,,"00,1,+99999,9,99,9","00,99,1,00,1,00,1,99999,9,00,1,00,1",,,,,"99999,9,09234,1","8,1,016,1,+999,9",,"SYN066AAXX  06124 08226 12960 0//// 10320 20146 39234 49910 58016 60001;","Q01  00002PRCP06"
"08226099999","2010-07-07T09:00:00","4","40.6666666","-3.1666666","640.0","GUADALAJARA, SP","FM-12","99999","V020","999,9,9,9999,9","22000,1,9,N","010000,1,N,1","+0288,1","+0150,1","09907,1",,,,,,"00,1,+99999,9,99,9","00,99,1,00,1,00,1,99999,9,00,1,00,1",,,,,"99999,9,09224,1","4,1,000,1,+999,9",,"SYN060AAXX  07094 08226 42960 0//// 10288 20150 39224 49907 54000;",
"08226099999","2010-07-07T12:00:00","4","40.6666666","-3.1666666","640.0","GUADALAJARA, SP","FM-12","99999","V020","999,9,9,9999,9","22000,1,9,N","010000,1,N,1","+0340,1","+0140,1","09885,1","06,0000,9,1",,,,,"00,1,+99999,9,99,9","00,99,1,00,1,00,1,99999,9,00,1,00,1",,,,,"99999,9,09214,1","7,1,010,1,+999,9",,"SYN066AAXX  07124 08226 12960 0//// 10340 20140 39214 49885 57010 60001;","Q01  00002PRCP06"
"08226099999","2010-07-08T06:00:00","4","40.6666666","-3.1666666","640.0","GUADALAJARA, SP","FM-12","99999","V020","999,9,9,9999,9","09000,1,9,N","010000,1,N,1","+0204,1","+0145,1","09916,1","12,0000,9,1","24,0000,9,1",,,,,"06,99,1,03,1,00,1,01750,1,08,1,08,1",,,,"999,N,+0198,1","99999,9,09214,1","7,1,002,1,+999,9","02,1","SYN100AAXX  08064 08226 11760 6//// 10204 20145 39214 49916 57002 60002 702// 83088 333 20198 55/// 70000;","Q01  00002PRCP24Q02  00002PRCP12"
"08226099999","2010-07-08T09:00:00","4","40.6666666","-3.1666666","640.0","GUADALAJARA, SP","FM-12","99999","V020","999,9,9,9999,9","03600,1,9,N","010000,1,N,1","+0254,1","+0171,1","09906,1",,,,,,,"08,99,1,04,1,08,1,01750,1,08,1,07,1",,,,,"99999,9,09216,1","2,1,002,1,+999,9",,"SYN066AAXX  08094 08226 42760 8//// 10254 20171 39216 49906 52002 84887;",
"08226099999","2010-07-08T12:00:00","4","40.6666666","-3.1666666","640.0","GUADALAJARA, SP","FM-12","99999","V020","999,9,C,0000,1","01800,1,9,N","010000,1,N,1","+0321,1","+0143,1","09900,1","06,0000,9,1",,,,,,"08,99,1,99,9,08,1,01750,1,08,1,99,9",,,,,"99999,9,09224,1","2,1,008,1,+999,9",,"SYN072AAXX  08124 08226 12760 80000 10321 20143 39224 49900 52008 60001 8888/;","Q01+000082SCOTLCQ02  00002PRCP06"
"08226099999","2010-07-09T06:00:00","4","40.6666666","-3.1666666","640.0","GUADALAJARA, SP","FM-12","99999","V020","030,1,N,0010,1","22000,1,9,N","010000,1,N,1","+0179,1","+0130,1","09927,1","12,0010,9,1","24,0010,9,1",,"9,1,06,1","9,1,06,1","00,1,+99999,9,99,9","00,99,1,00,1,00,1,99999,9,00,1,00,1",,"09,9","999,+0150,9","999,N,+0165,1","99999,9,09218,1","2,1,014,1,+999,9","00,1","SYN100AAXX  09064 08226 11960 00302 10179 20130 39218 49927 52014 60012 70099 333 20165 31015 55/// 70010;",
"08226099999","2010-07-09T09:00:00","4","40.6666666","-3.1666666","640.0","GUADALAJARA, SP","FM-12","99999","V020","190,1,N,0051,1","22000,1,9,N","010000,1,N,1","+0272,1","+0128,1","09909,1",,,,,,"00,1,+99999,9,99,9","00,99,1,00,1,00,1,99999,9,00,1,00,1",,,,,"99999,9,09222,1","2,1,004,1,+999,9",,"SYN060AAXX  09094 08226 42960 01910 10272 20128 39222 49909 52004;",
"08226099999","2010-07-09T12:00:00","4","40.6666666","-3.1666666","640.0","GUADALAJARA, SP","FM-12","99999","V020","180,1,N,0031,1","22000,1,9,N","010000,1,N,1","+0310,1","+0124,1","09900,1","06,0000,9,1",,,,,"00,1,+99999,9,99,9","00,99,1,00,1,00,1,99999,9,00,1,00,1",,,,,"99999,9,09222,1","4,1,000,1,+999,9",,"SYN066AAXX  09124 08226 12960 01806 10310 20124 39222 49900 54000 60001;","Q01  00002PRCP06"
"08226099999","2010-07-10T06:00:00","4","40.6666666","-3.1666666","640.0","GUADALAJARA, SP","FM-12","99999","V020","999,9,C,0000,1","22000,1,9,N","010000,1,N,1","+0186,1","+0160,1","09931,1","12,0000,9,1","24,0000,9,1",,,,"00,1,+99999,9,99,9","00,99,1,00,1,00,1,99999,9,00,1,00,1","0816,9","01,9","999,+0160,9","999,N,+0172,1","99999,9,09224,1","2,1,002,1,+999,9",,"SYN094AAXX  10064 08226 12960 00000 10186 20160 39224 49931 52002 60002 333 20172 30016 55136 70000;","Q01  00002PRCP24Q02  00002PRCP12"
"08226099999","2010-07-10T09:00:00","4","40.6666666","-3.1666666","640.0","GUADALAJARA, SP","FM-12","99999","V020","080,1,N,0010,1","22000,1,9,N","010000,1,N,1","+0284,1","+0150,1","09910,1",,,,,,"00,1,+99999,9,99,9","00,99,1,00,1,00,1,99999,9,00,1,00,1",,,,,"99999,9,09226,1","2,1,002,1,+999,9",,"SYN060AAXX  10094 08226 42960 00802 10284 20150 39226 49910 52002;",
"08226099999","2010-07-10T12:00:00","4","40.6666666","-3.1666666","640.0","GUADALAJARA, SP","FM-12","99999","V020","220,1,N,0005,1","22000,1,9,N","010000,1,N,1","+0324,1","+0136,1","09895,1","06,0000,9,1",,,,,"00,1,+99999,9,99,9","00,99,1,00,1,00,1,99999,9,00,1,00,1",,,,,"99999,9,09220,1","7,1,006,1,+999,9",,"SYN066AAXX  10124 08226 12960 02201 10324 20136 39220 49895 57006 60001;","Q01  00002PRCP06"
"08226099999","2010-07-11T06:00:00","4","40.6666666","-3.1666666","640.0","GUADALAJARA, SP","FM-12","99999","V020","360,1,N,0021,1","22000,1,9,N","010000,1,N,1","+0170,1","+0143,1","09925,1","12,0000,9,1","24,0000,9,1",,,,"00,1,+99999,9,99,9","00,99,1,00,1,00,1,99999,9,00,1,00,1","0792,9","01,9","999,+0150,9","999,N,+0163,1","99999,9,09214,1","2,1,005,1,+999,9",,"SYN094AAXX  11064 08226 12960 03604 10170 20143 39214 49925 52005 60002 333 20163 30015 55132 70000;","Q01  00002PRCP24Q02  00002PRCP12"
"08226099999","2010-07-11T09:00:00","4","40.6666666","-3.1666666","640.0","GUADALAJARA, SP","FM-12","99999","V020","030,1,N,0015,1","22000,1,9,N","010000,1,N,1","+0280,1","+0146,1","09898,1",,,,,,"00,1,+99999,9,99,9","00,99,1,00,1,00,1,99999,9,00,1,00,1",,,,,"99999,9,09214,1","4,1,000,1,+999,9",,"SYN060AAXX  11094 08226 42960 00303 10280 20146 39214 49898 54000;",
"08226099999","2010-07-11T12:00:00","4","40.6666666","-3.1666666","640.0","GUADALAJARA, SP","FM-12","99999","V020","190,1,N,0010,1","22000,1,9,N","010000,1,N,1","+0334,1","+0149,1","09876,1","06,0000,9,1",,,,,"00,1,+99999,9,99,9","00,99,1,00,1,00,1,99999,9,00,1,00,1",,,,,"99999,9,09205,1","7,1,009,1,+999,9",,"SYN066AAXX  11124 08226 12960 01902 10334 20149 39205 49876 57009 60001;","Q01  00002PRCP06"
"08226099999","2010-07-12T06:00:00","4","40.6666666","-3.1666666","640.0","GUADALAJARA, SP","FM-12","99999","V020","010,1,N,0015,1","22000,1,9,N","010000,1,N,1","+0196,1","+0153,1","09894,1","12,0000,9,1","24,0000,9,1",,,,,"03,99,1,01,1,01,1,01750,1,08,1,01,1","0798,9","01,9","999,+0170,9","999,N,+0184,1","99999,9,09192,1","3,1,006,1,+999,9",,"SYN100AAXX  12064 08226 12760 30103 10196 20153 39192 49894 53006 60002 81181 333 20184 30017 55133 70000;","Q01  00002PRCP24Q02  00002PRCP12"
"08226099999","2010-07-12T09:00:00","4","40.6666666","-3.1666666","640.0","GUADALAJARA, SP","FM-12","99999","V020","200,1,N,0026,1","22000,1,9,N","010000,1,N,1","+0276,1","+0143,1","09878,1",,,,,,,"02,99,1,00,1,00,1,99999,9,00,1,05,1",,,,,"99999,9,09194,1","3,1,002,1,+999,9",,"SYN066AAXX  12094 08226 42860 22005 10276 20143 39194 49878 53002 80005;","Q01+022502SCOLCB"
"08226099999","2010-07-12T12:00:00","4","40.6666666","-3.1666666","640.0","GUADALAJARA, SP","FM-12","99999","V020","160,1,N,0041,1","22000,1,9,N","010000,1,N,1","+0328,1","+0149,1","09866,1","06,0000,9,1",,,,,,"02,99,1,00,1,00,1,99999,9,00,1,05,1",,,,,"99999,9,09194,1","4,1,000,1,+999,9",,"SYN072AAXX  12124 08226 12860 21608 10328 20149 39194 49866 54000 60001 80005;","Q01+022502SCOLCBQ02  00002PRCP06"
"08226099999","2010-07-13T06:00:00","4","40.6666666","-3.1666666","640.0","GUADALAJARA, SP","FM-12","99999","V020","360,1,N,0021,1","22000,1,9,N","010000,1,N,1","+0144,1","+0088,1","09890,1","12,0000,9,1","24,0000,9,1",,,,"00,1,+99999,9,99,9","00,99,1,00,1,00,1,99999,9,00,1,00,1","0822,9","01,9","999,+0100,9","999,N,+0117,1","99999,9,09174,1","4,1,000,1,+999,9",,"SYN094AAXX  13064 08226 12960 03604 10144 20088 39174 49890 54000 60002 333 20117 30010 55137 70000;","Q01  00002PRCP24Q02  00002PRCP12"
"08226099999","2010-07-13T09:00:00","4","40.6666666","-3.1666666","640.0","GUADALAJARA, SP","FM-12","99999","V020","180,1,N,0031,1","22000,1,9,N","010000,1,N,1","+0259,1","+0080,1","09864,1",,,,,,"00,1,+99999,9,99,9","00,99,1,00,1,00,1,99999,9,00,1,00,1",,,,,"99999,9,09176,1","2,1,002,1,+999,9",,"SYN060AAXX  13094 08226 42960 01806 10259 20080 39176 49864 52002;",
"08226099999","2010-07-13T12:00:00","4","40.6666666","-3.1666666","640.0","GUADALAJARA, SP","FM-12","99999","V020","200,1,N,0057,1","22000,1,9,N","010000,1,N,1","+0308,1","+0096,1","09846,1","06,0000,9,1",,,,,"00,1,+99999,9,99,9","00,99,1,00,1,00,1,99999,9,00,1,00,1",,,,,"99999,9,09170,1","7,1,006,1,+999,9",,"SYN066AAXX  13124 08226 12960 02011 10308 20096 39170 49846 57006 60001;","Q01  00002PRCP06"
"08226099999","2010-07-17T06:00:00","4","40.6666666","-3.1666666","640.0","GUADALAJARA, SP","FM-12","99999","V020","050,1,N,0010,1","22000,1,9,N","010000,1,N,1","+0174,1","+0131,1","09931,1","12,0000,9,1","24,0000,9,1",,,,"00,1,+99999,9,99,9","00,99,1,00,1,00,1,99999,9,00,1,00,1","0822,9","01,9","999,+0130,9","999,N,+0146,1","99999,9,09220,1","3,1,006,1,+999,9",,"SYN094AAXX  17064 08226 12960 00502 10174 20131 39220 49931 53006 60002 333 20146 30013 55137 70000;","Q01  00002PRCP24Q02  00002PRCP12"
"08226099999","2010-07-17T09:00:00","4","40.6666666","-3.1666666","640.0","GUADALAJARA, SP","FM-12","99999","V020","020,1,N,0036,1","22000,1,9,N","010000,1,N,1","+0276,1","+0135,1","09916,1",,,,,,"00,1,+99999,9,99,9","00,99,1,00,1,00,1,99999,9,00,1,00,1",,,,,"99999,9,09229,1","2,1,009,1,+999,9",,"SYN060AAXX  17094 08226 42960 00207 10276 20135 39229 49916 52009;",
"08226099999","2010-07-18T06:00:00","4","40.6666666","-3.1666666","640.0","GUADALAJARA, SP","FM-12","99999","V020","030,1,N,0015,1","22000,1,9,N","010000,1,N,1","+0176,1","+0131,1","09960,1","12,0000,9,1","24,0000,9,1",,,,"00,1,+99999,9,99,9","00,99,1,00,1,00,1,99999,9,00,1,00,1","0816,9","01,9","999,+0150,9","999,N,+0168,1","99999,9,09248,1","2,1,004,1,+999,9",,"SYN094AAXX  18064 08226 12960 00303 10176 20131 39248 49960 52004 60002 333 20168 30015 55136 70000;","Q01  00002PRCP24Q02  00002PRCP12"
"08226099999","2010-07-18T09:00:00","4","40.6666666","-3.1666666","640.0","GUADALAJARA, SP","FM-12","99999","V020","999,9,C,0000,1","22000,1,9,N","010000,1,N,1","+0276,1","+0175,1","09935,1",,,,,,"00,1,+99999,9,99,9","00,99,1,00,1,00,1,99999,9,00,1,00,1",,,,,"99999,9,09248,1","4,1,000,1,+999,9",,"SYN060AAXX  18094 08226 42960 00000 10276 20175 39248 49935 54000;",
"08226099999","2010-07-18T12:00:00","4","40.6666666","-3.1666666","640.0","GUADALAJARA, SP","FM-12","99999","V020","170,1,N,0036,1","22000,1,9,N","010000,1,N,1","+0314,1","+0169,1","09911,1","06,0000,9,1",,,,,"00,1,+99999,9,99,9","00,99,1,00,1,00,1,99999,9,00,1,00,1",,,,,"99999,9,09234,1","7,1,014,1,+999,9",,"SYN066AAXX  18124 08226 12960 01707 10314 20169 39234 49911 57014 60001;","Q01  00002PRCP06"
"08226099999","2010-07-19T06:00:00","4","40.6666666","-3.1666666","640.0","GUADALAJARA, SP","FM-12","99999","V020","360,1,N,0015,1","22000,1,9,N","010000,1,N,1","+0170,1","+0133,1","09932,1","12,0000,9,1","24,0000,9,1",,,,,"02,99,1,02,1,00,1,01750,1,08,1,00,1","0786,9","01,9","999,+0140,9","999,N,+0156,1","99999,9,09220,1","2,1,006,1,+999,9",,"SYN100AAXX  19064 08226 12760 23603 10170 20133 39220 49932 52006 60002 82080 333 20156 30014 55131 70000;","Q01  00002PRCP24Q02  00002PRCP12"
"08226099999","2010-07-19T09:00:00","4","40.6666666","-3.1666666","640.0","GUADALAJARA, SP","FM-12","99999","V020","260,1,N,0021,1","22000,1,9,N","010000,1,N,1","+0282,1","+0174,1","09905,1",,,,,,"00,1,+99999,9,99,9","00,99,1,00,1,00,1,99999,9,00,1,00,1",,,,,"99999,9,09222,1","1,1,002,1,+999,9",,"SYN060AAXX  19094 08226 42960 02604 10282 20174 39222 49905 51002;",
"08226099999","2010-07-19T12:00:00","4","40.6666666","-3.1666666","640.0","GUADALAJARA, SP","FM-12","99999","V020","220,1,N,0026,1","22000,1,9,N","010000,1,N,1","+0332,1","+0122,1","09876,1","06,0000,9,1",,,,,,"01,99,1,01,1,01,1,01750,1,00,1,00,1",,,,,"99999,9,09204,1","7,1,018,1,+999,9",,"SYN072AAXX  19124 08226 12760 12205 10332 20122 39204 49876 57018 60001 81100;","Q01  00002PRCP06"
"08226099999","2010-07-20T06:00:00","4","40.6666666","-3.1666666","640.0","GUADALAJARA, SP","FM-12","99999","V020","350,1,N,0015,1","22000,1,9,N","010000,1,N,1","+0182,1","+0131,1","09884,1","12,0000,9,1","24,0000,9,1",,,,"00,1,+99999,9,99,9","00,99,1,00,1,00,1,99999,9,00,1,00,1","0744,9","01,9","999,+0150,9","999,N,+0167,1","99999,9,09178,1","3,1,004,1,+999,9",,"SYN094AAXX  20064 08226 12960 03503 10182 20131 39178 49884 53004 60002 333 20167 30015 55124 70000;","Q01  00002PRCP24Q02  00002PRCP12"
"08226099999","2010-07-20T09:00:00","4","40.6666666","-3.1666666","640.0","GUADALAJARA, SP","FM-12","99999","V020","280,1,N,0015,1","22000,1,9,N","010000,1,N,1","+0280,1","+0139,1","09855,1",,,,,,"00,1,+99999,9,99,9","00,99,1,00,1,00,1,99999,9,00,1,00,1",,,,,"99999,9,09174,1","7,1,004,1,+999,9",,"SYN060AAXX  20094 08226 42960 02803 10280 20139 39174 49855 57004;",
"08226099999","2010-07-20T12:00:00","4","40.6666666","-3.1666666","640.0","GUADALAJARA, SP","FM-12","99999","V020","190,1,N,0036,1","22000,1,9,N","010000,1,N,1","+0331,1","+0092,1","09815,1","06,0000,9,1",,,,,"00,1,+99999,9,99,9","00,99,1,00,1,00,1,99999,9,00,1,00,1",,,,,"99999,9,09146,1","7,1,028,1,+999,9",,"SYN066AAXX  20124 08226 12960 01907 10331 20092 39146 49815 57028 60001;","Q01  00002PRCP06"
"08226099999","2010-07-21T06:00:00","4","40.6666666","-3.1666666","640.0","GUADALAJARA, SP","FM-12","99999","V020","360,1,N,0015,1","01500,1,9,N","010000,1,N,1","+0166,1","+0117,1","09838,1","12,0000,9,1","24,0000,9,1",,,,,"05,99,1,05,1,00,1,01750,1,08,1,00,1","0786,9","01,9","999,+0140,9","999,N,+0155,1","99999,9,09132,1","4,1,000,1,+999,9",,"SYN100AAXX  21064 08226 12760 53603 10166 20117 39132 49838 54000 60002 85080 333 20155 30014 55131 70000;","Q01  00002PRCP24Q02  00002PRCP12"
"08226099999","2010-07-21T09:00:00","4","40.6666666","-3.1666666","640.0","GUADALAJARA, SP","FM-12","99999","V020","180,1,N,0041,1","22000,1,9,N","010000,1,N,1","+0256,1","+0106,1","09821,1",,,,,,,"02,99,1,02,1,00,1,01750,1,08,1,00,1",,,,,"99999,9,09136,1","2,1,004,1,+999,9",,"SYN066AAXX  21094 08226 42760 21808 10256 20106 39136 49821 52004 82080;",
"08226099999","2010-07-21T12:00:00","4","40.6666666","-3.1666666","640.0","GUADALAJARA, SP","FM-12","99999","V020","190,1,N,0031,1","22000,1,9,N","010000,1,N,1","+0290,1","+0092,1","09809,1","06,0000,9,1",,,,,,"02,99,1,02,1,00,1,01750,1,08,1,00,1",,,,,"99999,9,09132,1","8,1,004,1,+999,9",,"SYN072AAXX  21124 08226 12760 21906 10290 20092 39132 49809 58004 60001 82080;","Q01  00002PRCP06"
"08226099999","2010-07-22T06:00:00","4","40.6666666","-3.1666666","640.0","GUADALAJARA, SP","FM-12","99999","V020","010,1,N,0010,1","22000,1,9,N","010000,1,N,1","+0174,1","+0133,1","09851,1","12,0000,9,1","24,0000,9,1",,,,,"04,99,1,02,1,08,1,01750,1,09,1,05,1","0624,9","01,9","999,+0140,9","999,N,+0150,1","99999,9,09146,1","3,1,010,1,+999,9",,"SYN100AAXX  22064 08226 12760 40102 10174 20133 39146 49851 53010 60002 82895 333 20150 30014 55104 70000;","Q01  00002PRCP24Q02  00002PRCP12"
"08226099999","2010-07-22T09:00:00","4","40.6666666","-3.1666666","640.0","GUADALAJARA, SP","FM-12","99999","V020","220,1,N,0015,1","22000,1,9,N","010000,1,N,1","+0254,1","+0123,1","09843,1",,,,,,,"01,99,1,01,1,01,1,01750,1,08,1,00,1",,,,,"99999,9,09156,1","2,1,010,1,+999,9",,"SYN066AAXX  22094 08226 42760 12203 10254 20123 39156 49843 52010 81180;",
"08226099999","2010-07-22T12:00:00","4","40.6666666","-3.1666666","640.0","GUADALAJARA, SP","FM-12","99999","V020","210,1,N,0051,1","22000,1,9,N","010000,1,N,1","+0300,1","+0090,1","09833,1","06,0000,9,1",,,,,,"03,99,1,01,1,01,1,01750,1,08,1,05,1",,,,,"99999,9,09156,1","0,1,000,1,+999,9",,"SYN072AAXX  22124 08226 12760 32110 10300 20090 39156 49833 50000 60001 81185;","Q01  00002PRCP06"
"08226099999","2010-07-23T06:00:00","4","40.6666666","-3.1666666","640.0","GUADALAJARA, SP","FM-12","99999","V020","360,1,N,0031,1","22000,1,9,N","010000,1,N,1","+0164,1","+0118,1","09938,1","12,0000,9,1","24,0000,9,1",,,,"00,1,+99999,9,99,9","00,99,1,00,1,00,1,99999,9,00,1,00,1","0726,9","01,9","999,+0150,9","999,N,+0151,1","99999,9,09224,1","2,1,020,1,+999,9",,"SYN094AAXX  23064 08226 12960 03606 10164 20118 39224 49938 52020 60002 333 20151 30015 55121 70000;","Q01  00002PRCP24Q02  00002PRCP12"
"08226099999","2010-07-23T09:00:00","4","40.6666666","-3.1666666","640.0","GUADALAJARA, SP","FM-12","99999","V020","020,1,N,0031,1","22000,1,9,N","010000,1,N,1","+0239,1","+0140,1","09927,1",,,,,,"00,1,+99999,9,99,9","00,99,1,00,1,00,1,99999,9,00,1,00,1",,,,,"99999,9,09232,1","2,1,008,1,+999,9",,"SYN060AAXX  23094 08226 42960 00206 10239 20140 39232 49927 52008;",
"08226099999","2010-07-23T12:00:00","4","40.6666666","-3.1666666","640.0","GUADALAJARA, SP","FM-12","99999","V020","350,1,N,0026,1","22000,1,9,N","010000,1,N,1","+0288,1","+0074,1","09920,1","06,0000,9,1",,,,,"00,1,+99999,9,99,9","00,99,1,00,1,00,1,99999,9,00,1,00,1",,,,,"99999,9,09234,1","2,1,002,1,+999,9",,"SYN066AAXX  23124 08226 12960 03505 10288 20074 39234 49920 52002 60001;","Q01  00002PRCP06"
"08226099999","2010-07-24T06:00:00","4","40.6666666","-3.1666666","640.0","GUADALAJARA, SP","FM-12","99999","V020","350,1,N,0031,1","22000,1,9,N","010000,1,N,1","+0152,1","+0091,1","09985,1","12,0000,9,1","24,0000,9,1",,,,"00,1,+99999,9,99,9","00,99,1,00,1,00,1,99999,9,00,1,00,1","0780,9","01,9","999,+0130,9","999,N,+0141,1","99999,9,09264,1","3,1,002,1,+999,9",,"SYN094AAXX  24064 08226 12960 03506 10152 20091 39264 49985 53002 60002 333 20141 30013 55130 70000;","Q01  00002PRCP24Q02  00002PRCP12"
"08226099999","2010-07-24T09:00:00","4","40.6666666","-3.1666666","640.0","GUADALAJARA, SP","FM-12","99999","V020","350,1,N,0026,1","22000,1,9,N","010000,1,N,1","+0238,1","+0121,1","09963,1",,,,,,"00,1,+99999,9,99,9","00,99,1,00,1,00,1,99999,9,00,1,00,1",,,,,"99999,9,09264,1","4,1,000,1,+999,9",,"SYN060AAXX  24094 08226 42960 03505 10238 20121 39264 49963 54000;",
"08226099999","2010-07-24T12:00:00","4","40.6666666","-3.1666666","640.0","GUADALAJARA, SP","FM-12","99999","V020","220,1,N,0026,1","22000,1,9,N","010000,1,N,1","+0300,1","+0105,1","09931,1","06,0000,9,1",,,,,,"01,99,1,01,1,01,1,01750,1,00,1,00,1",,,,,"99999,9,09248,1","7,1,016,1,+999,9",,"SYN072AAXX  24124 08226 12760 12205 10300 20105 39248 49931 57016 60001 81100;","Q01  00002PRCP06"
"08226099999","2010-07-25T06:00:00","4","40.6666666","-3.1666666","640.0","GUADALAJARA, SP","FM-12","99999","V020","010,1,N,0021,1","22000,1,9,N","010000,1,N,1","+0135,1","+0046,1","09954,1","12,0000,9,1","24,0000,9,1",,,,"00,1,+99999,9,99,9","00,99,1,00,1,00,1,99999,9,00,1,00,1","0774,9","01,9","999,+0100,9","999,N,+0111,1","99999,9,09230,1","2,1,004,1,+999,9",,"SYN094AAXX  25064 08226 12960 00104 10135 20046 39230 49954 52004 60002 333 20111 30010 55129 70000;","Q01  00002PRCP24Q02  00002PRCP12"
"08226099999","2010-07-25T09:00:00","4","40.6666666","-3.1666666","640.0","GUADALAJARA, SP","FM-12","99999","V020","360,1,N,0041,1","22000,1,9,N","010000,1,N,1","+0251,1","+0037,1","09920,1",,,,,,"00,1,+99999,9,99,9","00,99,1,00,1,00,1,99999,9,00,1,00,1",,,,,"99999,9,09226,1","8,1,004,1,+999,9",,"SYN060AAXX  25094 08226 42960 03608 10251 20037 39226 49920 58004;",
"08226099999","2010-07-25T12:00:00","4","40.6666666","-3.1666666","640.0","GUADALAJARA, SP","FM-12","99999","V020","340,1,N,0036,1","22000,1,9,N","010000,1,N,1","+0296,1","+0075,1","09896,1","06,0000,9,1",,,,,"00,1,+99999,9,99,9","00,99,1,00,1,00,1,99999,9,00,1,00,1",,,,,"99999,9,09214,1","7,1,012,1,+999,9",,"SYN066AAXX  25124 08226 12960 03407 10296 20075 39214 49896 57012 60001;","Q01  00002PRCP06"
"08226099999","2010-07-26T06:00:00","4","40.6666666","-3.1666666","640.0","GUADALAJARA, SP","FM-12","99999","V020","999,9,C,0000,1","22000,1,9,N","010000,1,N,1","+0138,1","+0090,1","09932,1","12,0000,9,1","24,0000,9,1",,,,"00,1,+99999,9,99,9","00,99,1,00,1,00,1,99999,9,00,1,00,1","0780,9","01,9","999,+0110,9","999,N,+0130,1","99999,9,09212,1","2,1,008,1,+999,9",,"SYN094AAXX  26064 08226 12960 00000 10138 20090 39212 49932 52008 60002 333 20130 30011 55130 70000;","Q01  00002PRCP24Q02  00002PRCP12"
"08226099999","2010-07-26T09:00:00","4","40.6666666","-3.1666666","640.0","GUADALAJARA, SP","FM-12","99999","V020","030,1,N,0067,1","22000,1,9,N","010000,1,N,1","+0236,1","+0081,1","09910,1",,,,,,"00,1,+99999,9,99,9","00,99,1,00,1,00,1,99999,9,00,1,00,1",,,,,"99999,9,09214,1","2,1,002,1,+999,9",,"SYN060AAXX  26094 08226 42960 00313 10236 20081 39214 49910 52002;",
"08226099999","2010-07-26T12:00:00","4","40.6666666","-3.1666666","640.0","GUADALAJARA, SP","FM-12","99999","V020","020,1,N,0046,1","22000,1,9,N","010000,1,N,1","+0290,1","+0076,1","09885,1","06,0000,9,1",,,,,"00,1,+99999,9,99,9","00,99,1,00,1,00,1,99999,9,00,1,00,1",,,,,"99999,9,09202,1","7,1,012,1,+999,9",,"SYN066AAXX  26124 08226 12960 00209 10290 20076 39202 49885 57012 60001;","Q01  00002PRCP06"
"08226099999","2010-07-27T06:00:00","4","40.6666666","-3.1666666","640.0","GUADALAJARA, SP","FM-12","99999","V020","999,9,C,0000,1","22000,1,9,N","010000,1,N,1","+0136,1","+0087,1","09944,1","12,0000,9,1","24,0000,9,1",,,,"00,1,+99999,9,99,9","00,99,1,00,1,00,1,99999,9,00,1,00,1","0774,9","01,9","999,+0100,9","999,N,+0113,1","99999,9,09222,1","2,1,010,1,+999,9",,"SYN094AAXX  27064 08226 12960 00000 10136 20087 39222 49944 52010 60002 333 20113 30010 55129 70000;","Q01  00002PRCP24Q02  00002PRCP12"
"08226099999","2010-07-27T09:00:00","4","40.6666666","-3.1666666","640.0","GUADALAJARA, SP","FM-12","99999","V020","010,1,N,0010,1","22000,1,9,N","010000,1,N,1","+0240,1","+0113,1","09919,1",,,,,,"00,1,+99999,9,99,9","00,99,1,00,1,00,1,99999,9,00,1,00,1",,,,,"99999,9,09224,1","1,1,002,1,+999,9",,"SYN060AAXX  27094 08226 42960 00102 10240 20113 39224 49919 51002;",
"08226099999","2010-07-27T12:00:00","4","40.6666666","-3.1666666","640.0","GUADALAJARA, SP","FM-12","99999","V020","250,1,N,0026,1","22000,1,9,N","010000,1,N,1","+0298,1","+0104,1","09895,1","06,0000,9,1",,,,,"00,1,+99999,9,99,9","00,99,1,00,1,00,1,99999,9,00,1,00,1",,,,,"99999,9,09214,1","7,1,010,1,+999,9",,"SYN066AAXX  27124 08226 12960 02505 10298 20104 39214 49895 57010 60001;","Q01  00002PRCP06"
"08226099999","2010-07-28T06:00:00","4","40.6666666","-3.1666666","640.0","GUADALAJARA, SP","FM-12","99999","V020","010,1,N,0010,1","22000,1,9,N","010000,1,N,1","+0153,1","+0101,1","09951,1","12,0000,9,1","24,0000,9,1",,,,"00,1,+99999,9,99,9","00,99,1,00,1,00,1,99999,9,00,1,00,1","0804,9","01,9","999,+0130,9","999,N,+0146,1","99999,9,09233,1","2,1,010,1,+999,9",,"SYN094AAXX  28064 08226 12960 00102 10153 20101 39233 49951 52010 60002 333 20146 30013 55134 70000;","Q01  00002PRCP24Q02  00002PRCP12"
"08226099999","2010-07-28T09:00:00","4","40.6666666","-3.1666666","640.0","GUADALAJARA, SP","FM-12","99999","V020","999,9,C,0000,1","22000,1,9,N","010000,1,N,1","+0283,1","+0134,1","09917,1",,,,,,"00,1,+99999,9,99,9","00,99,1,00,1,00,1,99999,9,00,1,00,1",,,,,"99999,9,09232,1","8,1,001,1,+999,9",,"SYN060AAXX  28094 08226 42960 00000 10283 20134 39232 49917 58001;",
"08226099999","2010-07-28T12:00:00","4","40.6666666","-3.1666666","640.0","GUADALAJARA, SP","FM-12","99999","V020","160,1,N,0015,1","22000,1,9,N","010000,1,N,1","+0332,1","+0099,1","09885,1","06,0000,9,1",,,,,"00,1,+99999,9,99,9","00,99,1,00,1,00,1,99999,9,00,1,00,1",,,,,"99999,9,09212,1","7,1,020,1,+999,9",,"SYN066AAXX  28124 08226 12960 01603 10332 20099 39212 49885 57020 60001;","Q01  00002PRCP06"
"08226099999","2010-07-29T06:00:00","4","40.6666666","-3.1666666","640.0","GUADALAJARA, SP","FM-12","99999","V020","020,1,N,0010,1","22000,1,9,N","010000,1,N,1","+0176,1","+0116,1","09901,1","12,0000,9,1","24,0000,9,1",,,,,"03,99,1,01,1,08,1,01750,1,08,1,00,1","0774,9","01,9","999,+0150,9","999,N,+0162,1","99999,9,09192,1","4,1,000,1,+999,9",,"SYN100AAXX  29064 08226 12760 30202 10176 20116 39192 49901 54000 60002 81880 333 20162 30015 55129 70000;","Q01  00002PRCP24Q02  00002PRCP12"
"08226099999","2010-07-29T09:00:00","4","40.6666666","-3.1666666","640.0","GUADALAJARA, SP","FM-12","99999","V020","340,1,N,0031,1","22000,1,9,N","010000,1,N,1","+0276,1","+0124,1","09872,1",,,,,,,"01,99,1,01,1,01,1,01750,1,08,1,00,1",,,,,"99999,9,09188,1","8,1,004,1,+999,9",,"SYN066AAXX  29094 08226 42760 13406 10276 20124 39188 49872 58004 81180;",
"08226099999","2010-07-29T12:00:00","4","40.6666666","-3.1666666","640.0","GUADALAJARA, SP","FM-12","99999","V020","350,1,N,0015,1","22000,1,9,N","010000,1,N,1","+0338,1","+0098,1","09845,1","06,0000,9,1",,,,,,"03,99,1,01,1,01,1,01750,1,09,1,01,1",,,,,"99999,9,09176,1","7,1,012,1,+999,9",,"SYN072AAXX  29124 08226 12760 33503 10338 20098 39176 49845 57012 60001 81191;","Q01  00002PRCP06"
"08226099999","2010-07-30T06:00:00","4","40.6666666","-3.1666666","640.0","GUADALAJARA, SP","FM-12","99999","V020","350,1,N,0031,1","22000,1,9,N","010000,1,N,1","+0156,1","+0118,1","09908,1","12,0000,9,1","24,0000,9,1",,,,"00,1,+99999,9,99,9","00,99,1,00,1,00,1,99999,9,00,1,00,1","0732,9","01,9","999,+0150,9","999,N,+0151,1","99999,9,09194,1","4,1,000,1,+999,9",,"SYN094AAXX  30064 08226 12960 03506 10156 20118 39194 49908 54000 60002 333 20151 30015 55122 70000;","Q01  00002PRCP24Q02  00002PRCP12"
"08226099999","2010-07-30T09:00:00","4","40.6666666","-3.1666666","640.0","GUADALAJARA, SP","FM-12","99999","V020","360,1,N,0046,1","22000,1,9,N","010000,1,N,1","+0252,1","+0059,1","09885,1",,,,,,"00,1,+99999,9,99,9","00,99,1,00,1,00,1,99999,9,00,1,00,1",,,,,"99999,9,09194,1","4,1,000,1,+999,9",,"SYN060AAXX  30094 08226 42960 03609 10252 20059 39194 49885 54000;",
"08226099999","2010-07-30T12:00:00","4","40.6666666","-3.1666666","640.0","GUADALAJARA, SP","FM-12","99999","V020","040,1,N,0026,1","22000,1,9,N","010000,1,N,1","+0309,1","+0074,1","09859,1","06,0000,9,1",,,,,"00,1,+99999,9,99,9","00,99,1,00,1,00,1,99999,9,00,1,00,1",,,,,"99999,9,09182,1","7,1,012,1,+999,9",,"SYN066AAXX  30124 08226 12960 00405 10309 20074 39182 49859 57012 60001;","Q01  00002PRCP06"
"08226099999","2010-07-31T06:00:00","4","40.6666666","-3.1666666","640.0","GUADALAJARA, SP","FM-12","99999","V020","999,9,C,0000,1","22000,1,9,N","010000,1,N,1","+0142,1","+0102,1","09907,1","12,0000,9,1","24,0000,9,1",,,,"00,1,+99999,9,99,9","00,99,1,00,1,00,1,99999,9,00,1,00,1","0804,9","01,9","999,+0120,9","999,N,+0135,1","99999,9,09190,1","2,1,006,1,+999,9",,"SYN094AAXX  31064 08226 12960 00000 10142 20102 39190 49907 52006 60002 333 20135 30012 55134 70000;","Q01  00002PRCP24Q02  00002PRCP12"
"08226099999","2010-07-31T09:00:00","4","40.6666666","-3.1666666","640.0","GUADALAJARA, SP","FM-12","99999","V020","999,9,C,0000,1","22000,1,9,N","010000,1,N,1","+0269,1","+0168,1","09878,1",,,,,,"00,1,+99999,9,99,9","00,99,1,00,1,00,1,99999,9,00,1,00,1",,,,,"99999,9,09194,1","1,1,004,1,+999,9",,"SYN060AAXX  31094 08226 42960 00000 10269 20168 39194 49878 51004;",
"08226099999","2010-07-31T12:00:00","4","40.6666666","-3.1666666","640.0","GUADALAJARA, SP","FM-12","99999","V020","160,1,N,0046,1","22000,1,9,N","010000,1,N,1","+0323,1","+0144,1","09856,1","06,0000,9,1",,,,,"00,1,+99999,9,99,9","00,99,1,00,1,00,1,99999,9,00,1,00,1",,,,,"99999,9,09184,1","7,1,010,1,+999,9",,"SYN066AAXX  31124 08226 12960 01609 10323 20144 39184 49856 57010 60001;","Q01  00002PRCP06"
"08226099999","2010-08-01T06:00:00","4","40.6666666","-3.1666666","640.0","GUADALAJARA, SP","FM-12","99999","V020","360,1,N,0021,1","22000,1,9,N","010000,1,N,1","+0178,1","+0133,1","09902,1","12,0000,9,1","24,0000,9,1",,,,"00,1,+99999,9,99,9","00,99,1,00,1,00,1,99999,9,00,1,00,1","0792,9","01,9","999,+0160,9","999,N,+0172,1","99999,9,09194,1","2,1,006,1,+999,9",,"SYN094AAXX  01064 08226 12960 03604 10178 20133 39194 49902 52006 60002 333 20172 30016 55132 70000;","Q01  00002PRCP24Q02  00002PRCP12"
"08226099999","2010-08-01T09:00:00","4","40.6666666","-3.1666666","640.0","GUADALAJARA, SP","FM-12","99999","V020","160,1,N,0026,1","22000,1,9,N","010000,1,N,1","+0278,1","+0141,1","09877,1",,,,,,"00,1,+99999,9,99,9","00,99,1,00,1,00,1,99999,9,00,1,00,1",,,,,"99999,9,09194,1","4,1,000,1,+999,9",,"SYN060AAXX  01094 08226 42960 01605 10278 20141 39194 49877 54000;",
"08226099999","2010-08-01T12:00:00","4","40.6666666","-3.1666666","640.0","GUADALAJARA, SP","FM-12","99999","V020","180,1,N,0041,1","22000,1,9,N","010000,1,N,1","+0324,1","+0092,1","09861,1","06,0000,9,1",,,,,"00,1,+99999,9,99,9","00,99,1,00,1,00,1,99999,9,00,1,00,1",,,,,"99999,9,09188,1","7,1,006,1,+999,9",,"SYN066AAXX  01124 08226 12960 01808 10324 20092 39188 49861 57006 60001;","Q01  00002PRCP06"
"08226099999","2010-08-02T06:00:00","4","40.6666666","-3.1666666","640.0","GUADALAJARA, SP","FM-12","99999","V020","350,1,N,0021,1","22000,1,9,N","010000,1,N,1","+0154,1","+0104,1","09898,1","12,0000,9,1","24,0000,9,1",,,,"00,1,+99999,9,99,9","00,99,1,00,1,00,1,99999,9,00,1,00,1","0774,9","01,9","999,+0140,9","999,N,+0150,1","99999,9,09184,1","3,1,010,1,+999,9",,"SYN094AAXX  02064 08226 12960 03504 10154 20104 39184 49898 53010 60002 333 20150 30014 55129 70000;","Q01  00002PRCP24Q02  00002PRCP12"
"08226099999","2010-08-02T09:00:00","4","40.6666666","-3.1666666","640.0","GUADALAJARA, SP","FM-12","99999","V020","220,1,N,0031,1","22000,1,9,N","010000,1,N,1","+0269,1","+0129,1","09869,1",,,,,,"00,1,+99999,9,99,9","00,99,1,00,1,00,1,99999,9,00,1,00,1",,,,,"99999,9,09184,1","4,1,000,1,+999,9",,"SYN060AAXX  02094 08226 42960 02206 10269 20129 39184 49869 54000;",
"08226099999","2010-08-02T12:00:00","4","40.6666666","-3.1666666","640.0","GUADALAJARA, SP","FM-12","99999","V020","230,1,N,0041,1","22000,1,9,N","010000,1,N,1","+0316,1","+0079,1","09849,1","06,0000,9,1",,,,,"00,1,+99999,9,99,9","00,99,1,00,1,00,1,99999,9,00,1,00,1",,,,,"99999,9,09174,1","7,1,010,1,+999,9",,"SYN066AAXX  02124 08226 12960 02308 10316 20079 39174 49849 57010 60001;","Q01  00002PRCP06"
"08226099999","2010-08-03T06:00:00","4","40.6666666","-3.1666666","640.0","GUADALAJARA, SP","FM-12","99999","V020","010,1,N,0036,1","22000,1,9,N","010000,1,N,1","+0156,1","+0108,1","09938,1","12,0000,9,1","24,0000,9,1",,,,,"04,99,1,04,1,01,1,01750,1,00,1,00,1","0774,9","01,9","999,+0150,9","999,N,+0148,1","99999,9,09222,1","3,1,008,1,+999,9",,"SYN100AAXX  03064 08226 12760 40107 10156 20108 39222 49938 53008 60002 84100 333 20148 30015 55129 70000;","Q01  00002PRCP24Q02  00002PRCP12"
"08226099999","2010-08-03T09:00:00","4","40.6666666","-3.1666666","640.0","GUADALAJARA, SP","FM-12","99999","V020","350,1,N,0051,1","22000,1,9,N","010000,1,N,1","+0227,1","+0098,1","09921,1",,,,,,"00,1,+99999,9,99,9","00,99,1,00,1,00,1,99999,9,00,1,00,1",,,,,"99999,9,09222,1","4,1,000,1,+999,9",,"SYN060AAXX  03094 08226 42960 03510 10227 20098 39222 49921 54000;",
"08226099999","2010-08-03T12:00:00","4","40.6666666","-3.1666666","640.0","GUADALAJARA, SP","FM-12","99999","V020","350,1,N,0051,1","22000,1,9,N","010000,1,N,1","+0276,1","+0085,1","09896,1","06,0000,9,1",,,,,"00,1,+99999,9,99,9","00,99,1,00,1,00,1,99999,9,00,1,00,1",,,,,"99999,9,09210,1","7,1,012,1,+999,9",,"SYN066AAXX  03124 08226 12960 03510 10276 20085 39210 49896 57012 60001;","Q01  00002PRCP06"
"08226099999","2010-08-04T06:00:00","4","40.6666666","-3.1666666","640.0","GUADALAJARA, SP","FM-12","99999","V020","360,1,N,0021,1","22000,1,9,N","010000,1,N,1","+0155,1","+0119,1","09908,1","12,0000,9,1","24,0000,9,1",,,,"00,1,+99999,9,99,9","00,99,1,00,1,00,1,99999,9,00,1,00,1","0732,9","01,9","999,+0140,9","999,N,+0147,1","99999,9,09194,1","4,1,000,1,+999,9",,"SYN100AAXX  04064 08226 12960 03604 10155 20119 39194 49908 54000 60002 333 20147 30014 51004 55122 70000;","Q01  00002PRCP24Q02  00002PRCP12"
"08226099999","2010-08-04T09:00:00","4","40.6666666","-3.1666666","640.0","GUADALAJARA, SP","FM-12","99999","V020","300,1,N,0015,1","22000,1,9,N","010000,1,N,1","+0250,1","+0153,1","09883,1",,,,,,"00,1,+99999,9,99,9","00,99,1,00,1,00,1,99999,9,00,1,00,1",,,,,"99999,9,09194,1","4,1,000,1,+999,9",,"SYN060AAXX  04094 08226 42960 03003 10250 20153 39194 49883 54000;",
"08226099999","2010-08-04T12:00:00","4","40.6666666","-3.1666666","640.0","GUADALAJARA, SP","FM-12","99999","V020","210,1,N,0015,1","22000,1,9,N","010000,1,N,1","+0300,1","+0105,1","09862,1","06,0000,9,1",,,,,"00,1,+99999,9,99,9","00,99,1,00,1,00,1,99999,9,00,1,00,1",,,,,"99999,9,09184,1","8,1,010,1,+999,9",,"SYN066AAXX  04124 08226 12960 02103 10300 20105 39184 49862 58010 60001;","Q01  00002PRCP06"
"08226099999","2010-08-05T06:00:00","4","40.6666666","-3.1666666","640.0","GUADALAJARA, SP","FM-12","99999","V020","360,1,N,0021,1","22000,1,9,N","010000,1,N,1","+0160,1","+0126,1","09896,1","12,0000,9,1","24,0000,9,1",,,,,"02,99,1,00,1,00,1,99999,9,00,1,05,1","0714,9","01,9","999,+0140,9","999,N,+0150,1","99999,9,09184,1","3,1,010,1,+999,9",,"SYN106AAXX  05064 08226 12960 23604 10160 20126 39184 49896 53010 60002 80005 333 20150 30014 50954 55119 70000;","Q01  00002PRCP24Q02  00002PRCP12"
"08226099999","2010-08-05T09:00:00","4","40.6666666","-3.1666666","640.0","GUADALAJARA, SP","FM-12","99999","V020","010,1,N,0031,1","22000,1,9,N","010000,1,N,1","+0245,1","+0100,1","09882,1",,,,,,"00,1,+99999,9,99,9","00,99,1,00,1,00,1,99999,9,00,1,00,1",,,,,"99999,9,09190,1","2,1,006,1,+999,9",,"SYN060AAXX  05094 08226 42960 00106 10245 20100 39190 49882 52006;",
"08226099999","2010-08-05T12:00:00","4","40.6666666","-3.1666666","640.0","GUADALAJARA, SP","FM-12","99999","V020","360,1,N,0041,1","22000,1,9,N","010000,1,N,1","+0280,1","+0088,1","09863,1","06,0000,9,1",,,,,,"03,99,1,00,1,00,1,99999,9,00,1,05,1",,,,,"99999,9,09180,1","8,1,010,1,+999,9",,"SYN072AAXX  05124 08226 12960 33608 10280 20088 39180 49863 58010 60001 80005;","Q01  00002PRCP06"
"08226099999","2010-08-06T06:00:00","4","40.6666666","-3.1666666","640.0","GUADALAJARA, SP","FM-12","99999","V020","010,1,N,0036,1","22000,1,9,N","010000,1,N,1","+0135,1","+0059,1","09914,1","12,0000,9,1","24,0000,9,1",,,,"00,1,+99999,9,99,9","00,99,1,00,1,00,1,99999,9,00,1,00,1","0756,9","01,9","999,+0130,9","999,N,+0130,1","99999,9,09194,1","4,1,000,1,+999,9",,"SYN100AAXX  06064 08226 12960 00107 10135 20059 39194 49914 54000 60002 333 20130 30013 51004 55126 70000;","Q01  00002PRCP24Q02  00002PRCP12"
"08226099999","2010-08-06T09:00:00","4","40.6666666","-3.1666666","640.0","GUADALAJARA, SP","FM-12","99999","V020","360,1,N,0031,1","22000,1,9,N","010000,1,N,1","+0235,1","+0072,1","09900,1",,,,,,"00,1,+99999,9,99,9","00,99,1,00,1,00,1,99999,9,00,1,00,1",,,,,"99999,9,09204,1","1,1,010,1,+999,9",,"SYN060AAXX  06094 08226 42960 03606 10235 20072 39204 49900 51010;",
"08226099999","2010-08-06T12:00:00","4","40.6666666","-3.1666666","640.0","GUADALAJARA, SP","FM-12","99999","V020","999,9,C,0000,1","22000,1,9,N","010000,1,N,1","+0295,1","+0101,1","09870,1","06,0000,9,1",,,,,"00,1,+99999,9,99,9","00,99,1,00,1,00,1,99999,9,00,1,00,1",,,,,"99999,9,09190,1","8,1,014,1,+999,9",,"SYN066AAXX  06124 08226 12960 00000 10295 20101 39190 49870 58014 60001;","Q01  00002PRCP06"
"08226099999","2010-08-07T06:00:00","4","40.6666666","-3.1666666","640.0","GUADALAJARA, SP","FM-12","99999","V020","999,9,C,0000,1","22000,1,9,N","010000,1,N,1","+0140,1","+0086,1","09937,1","12,0000,9,1","24,0000,9,1",,,,"00,1,+99999,9,99,9","00,99,1,00,1,00,1,99999,9,00,1,00,1","0756,9","01,9","999,+0130,9","999,N,+0138,1","99999,9,09217,1","2,1,015,1,+999,9",,"SYN100AAXX  07064 08226 12960 00000 10140 20086 39217 49937 52015 60002 333 20138 30013 51054 55126 70000;","Q01  00002PRCP24Q02  00002PRCP12"
"08226099999","2010-08-07T09:00:00","4","40.6666666","-3.1666666","640.0","GUADALAJARA, SP","FM-12","99999","V020","999,9,C,0000,1","22000,1,9,N","010000,1,N,1","+0270,1","+0172,1","09910,1",,,,,,"00,1,+99999,9,99,9","00,99,1,00,1,00,1,99999,9,00,1,00,1",,,,,"99999,9,09224,1","1,1,007,1,+999,9",,"SYN060AAXX  07094 08226 42960 00000 10270 20172 39224 49910 51007;",
"08226099999","2010-08-07T12:00:00","4","40.6666666","-3.1666666","640.0","GUADALAJARA, SP","FM-12","99999","V020","230,1,N,0021,1","22000,1,9,N","010000,1,N,1","+0310,2","+0158,1","09891,1","06,0000,9,1",,,,,"00,1,+99999,9,99,9","00,99,1,00,1,00,1,99999,9,00,1,00,1",,,,,"99999,9,09214,1","8,1,010,1,+999,9",,"SYN066AAXX  07124 08226 12960 02304 10310 20158 39214 49891 58010 60001;","Q01  00002PRCP06"
"08226099999","2010-08-08T06:00:00","4","40.6666666","-3.1666666","640.0","GUADALAJARA, SP","FM-12","99999","V020","350,1,N,0021,1","22000,1,9,N","010000,1,N,1","+0180,1","+0145,1","09923,1","12,0000,9,1","24,0000,9,1",,,,,"03,99,1,00,1,00,1,99999,9,00,1,05,1","0702,9","01,9","999,+0170,9","999,N,+0174,1","99999,9,09215,1","4,1,000,1,+999,9",,"SYN106AAXX  08064 08226 12860 33504 10180 20145 39215 49923 54000 60002 80005 333 20174 30017 51104 55117 70000;","Q01+022502SCOLCBQ02  00002PRCP24Q03  00002PRCP12"
"08226099999","2010-08-08T09:00:00","4","40.6666666","-3.1666666","640.0","GUADALAJARA, SP","FM-12","99999","V020","999,9,C,0000,1","22000,1,9,N","010000,1,N,1","+0280,1","+0150,1","09909,1",,,,,,,"04,99,1,03,1,02,1,01750,1,00,1,05,1",,,,,"99999,9,09224,1","1,1,009,1,+999,9",,"SYN066AAXX  08094 08226 42760 40000 10280 20150 39224 49909 51009 83205;",
"08226099999","2010-08-08T12:00:00","4","40.6666666","-3.1666666","640.0","GUADALAJARA, SP","FM-12","99999","V020","360,1,N,0010,1","01200,1,9,N","010000,1,N,1","+0295,1","+0163,1","09905,1","06,0000,9,1",,,,,,"08,99,1,05,1,02,1,01250,1,01,1,00,1",,,,,"99999,9,09224,1","4,1,000,1,+999,9",,"SYN072AAXX  08124 08226 12660 83602 10295 20163 39224 49905 54000 60001 85210;","Q01  00002PRCP06"
"08226099999","2010-08-09T09:00:00","4","40.6666666","-3.1666666","640.0","GUADALAJARA, SP","FM-12","99999","V020","999,9,C,0000,1","02100,1,9,N","010000,1,N,1","+0245,1","+0208,1","09915,1",,,,,,,"05,99,1,05,1,00,1,02250,1,01,1,00,1",,,,,"99999,9,09224,1","4,1,000,1,+999,9",,"SYN066AAXX  09094 08226 42860 50000 10245 20208 39224 49915 54000 85010;",
"08226099999","2010-08-09T12:00:00","4","40.6666666","-3.1666666","640.0","GUADALAJARA, SP","FM-12","99999","V020","230,1,N,0026,1","01500,1,9,N","010000,1,N,1","+0300,1","+0184,1","09903,1","06,0000,9,1",,,,,,"08,99,1,05,1,02,1,01750,1,01,1,00,1",,,,,"99999,9,09224,1","4,1,000,1,+999,9",,"SYN072AAXX  09124 08226 12760 82305 10300 20184 39224 49903 54000 60001 85210;","Q01  00002PRCP06"
"08226099999","2010-08-10T06:00:00","4","40.6666666","-3.1666666","640.0","GUADALAJARA, SP","FM-12","99999","V020","999,9,C,0000,1","03600,1,9,N","010000,1,N,1","+0175,1","+0140,1","09926,1","12,0000,9,1","24,0000,9,1",,,,,"05,99,1,02,1,01,1,01750,1,03,1,00,1","0486,9","01,9","999,+0160,9","999,N,+0167,1","99999,9,09216,1","3,1,005,1,+999,9",,"SYN106AAXX  10064 08226 12760 50000 10175 20140 39216 49926 53005 60002 82130 333 20167 30016 51104 55081 70000;","Q01  00002PRCP24Q02  00002PRCP12"
"08226099999","2010-08-10T09:00:00","4","40.6666666","-3.1666666","640.0","GUADALAJARA, SP","FM-12","99999","V020","360,1,N,0010,1","03600,1,9,N","010000,1,N,1","+0270,1","+0157,1","09902,1",,,,,,,"06,99,1,02,1,01,1,01750,1,03,1,00,1",,,,,"99999,9,09216,1","4,1,000,1,+999,9",,"SYN066AAXX  10094 08226 42760 63602 10270 20157 39216 49902 54000 82130;",
"08226099999","2010-08-10T12:00:00","4","40.6666666","-3.1666666","640.0","GUADALAJARA, SP","FM-12","99999","V020","200,1,N,0010,1","02100,1,9,N","010000,1,N,1","+0340,1","+0159,1","09886,1","06,0000,9,1",,,,,,"06,99,1,06,1,00,1,02250,1,03,1,00,1",,,,,"99999,9,09216,1","4,1,000,1,+999,9",,"SYN072AAXX  10124 08226 12860 62002 10340 20159 39216 49886 54000 60001 86030;","Q01  00002PRCP06"
"08226099999","2010-08-11T06:00:00","4","40.6666666","-3.1666666","640.0","GUADALAJARA, SP","FM-12","99999","V020","350,1,N,0021,1","22000,1,9,N","010000,1,N,1","+0144,1","+0123,1","09934,1","12,0000,9,1","24,0005,9,1",,,,"00,1,+99999,9,99,9","00,99,1,00,1,00,1,99999,9,00,1,00,1",,"01,9","999,+0130,9","999,N,+0140,1","99999,9,09216,1","3,1,004,1,+999,9",,"SYN094AAXX  11064 08226 12960 03504 10144 20123 39216 49934 53004 60002 333 20140 30013 55/// 70004;","Q01  00002PRCP12"
"08226099999","2010-08-11T09:00:00","4","40.6666666","-3.1666666","640.0","GUADALAJARA, SP","FM-12","99999","V020","999,9,C,0000,1","22000,1,9,N","010000,1,N,1","+0256,1","+0144,1","09912,1",,,,,,"00,1,+99999,9,99,9","00,99,1,00,1,00,1,99999,9,00,1,00,1",,,,,"99999,9,09222,1","2,1,006,1,+999,9",,"SYN060AAXX  11094 08226 42960 00000 10256 20144 39222 49912 52006;",
"08226099999","2010-08-11T12:00:00","4","40.6666666","-3.1666666","640.0","GUADALAJARA, SP","FM-12","99999","V020","270,1,N,0021,1","22000,1,9,N","010000,1,N,1","+0332,2","+0072,1","09877,1","06,0000,9,1",,,,,"00,1,+99999,9,99,9","00,99,1,00,1,00,1,99999,9,00,1,00,1",,,,,"99999,9,09204,1","7,1,018,1,+999,9",,"SYN066AAXX  11124 08226 12960 02704 10332 20072 39204 49877 57018 60001;","Q01  00002PRCP06"
"08226099999","2010-08-12T06:00:00","4","40.6666666","-3.1666666","640.0","GUADALAJARA, SP","FM-12","99999","V020","020,1,N,0015,1","22000,1,9,N","010000,1,N,1","+0122,1","+0087,1","09913,1","12,0000,9,1","24,0000,9,1",,,,,"02,99,1,00,1,00,1,99999,9,00,1,01,1","0660,9","01,9","999,+0090,9","999,N,+0109,1","99999,9,09190,1","3,1,004,1,+999,9",,"SYN100AAXX  12064 08226 12860 20203 10122 20087 39190 49913 53004 60002 80001 333 20109 30009 55110 70000;","Q01+022502SCOLCBQ02  00002PRCP24Q03  00002PRCP12"
"08226099999","2010-08-12T09:00:00","4","40.6666666","-3.1666666","640.0","GUADALAJARA, SP","FM-12","99999","V020","030,1,N,0031,1","22000,1,9,N","010000,1,N,1","+0247,1","+0151,1","09884,1",,,,,,"00,1,+99999,9,99,9","00,99,1,00,1,00,1,99999,9,00,1,00,1",,,,,"99999,9,09194,1","1,1,004,1,+999,9",,"SYN060AAXX  12094 08226 42960 00306 10247 20151 39194 49884 51004;",
"08226099999","2010-08-12T12:00:00","4","40.6666666","-3.1666666","640.0","GUADALAJARA, SP","FM-12","99999","V020","350,1,N,0036,1","22000,1,9,N","010000,1,N,1","+0316,2","+0119,1","09850,1","06,0000,9,1",,,,,"00,1,+99999,9,99,9","00,99,1,00,1,00,1,99999,9,00,1,00,1",,,,,"99999,9,09176,1","7,1,018,1,+999,9",,"SYN066AAXX  12124 08226 12960 03507 10316 20119 39176 49850 57018 60001;","Q01  00002PRCP06"
"08226099999","2010-08-13T06:00:00","4","40.6666666","-3.1666666","640.0","GUADALAJARA, SP","FM-12","99999","V020","360,1,N,0026,1","03600,1,9,N","010000,1,N,1","+0138,1","+0080,1","09924,1","12,0000,9,1","24,0000,9,1",,,,,"06,99,1,03,1,08,1,01750,1,07,1,08,1","0594,9","01,9","999,+0130,9","999,N,+0136,1","99999,9,09204,1","2,1,004,1,+999,9",,"SYN100AAXX  13064 08226 12760 63605 10138 20080 39204 49924 52004 60002 83878 333 20136 30013 55099 70000;","Q01  00002PRCP24Q02  00002PRCP12"
"08226099999","2010-08-13T09:00:00","4","40.6666666","-3.1666666","640.0","GUADALAJARA, SP","FM-12","99999","V020","010,1,N,0046,1","01500,1,9,N","010000,1,N,1","+0179,1","+0085,1","09916,1",,,,,,,"08,99,1,08,1,07,1,01750,1,99,9,99,9",,,,,"99999,9,09206,1","2,1,002,1,+999,9",,"SYN066AAXX  13094 08226 42760 80109 10179 20085 39206 49916 52002 887//;",
"08226099999","2010-08-13T12:00:00","4","40.6666666","-3.1666666","640.0","GUADALAJARA, SP","FM-12","99999","V020","020,1,N,0062,1","01500,1,9,N","010000,1,N,1","+0214,1","+0096,1","09898,1","06,0000,9,1",,,,,,"07,99,1,07,1,07,1,01750,1,99,9,99,9",,,,,"99999,9,09198,1","7,1,008,1,+999,9",,"SYN072AAXX  13124 08226 12760 70212 10214 20096 39198 49898 57008 60001 877//;","Q01  00002PRCP06"
"08226099999","2010-08-14T06:00:00","4","40.6666666","-3.1666666","640.0","GUADALAJARA, SP","FM-12","99999","V020","999,9,9,9999,9","22000,1,9,N","010000,1,N,1","+0090,1","+0064,1","09941,1","12,0000,9,1","24,0000,9,1",,,,"00,1,+99999,9,99,9","00,99,1,00,1,00,1,99999,9,00,1,00,1","0294,9",,,"999,N,+0090,1","99999,9,09208,1","4,1,000,1,+999,9",,"SYN088AAXX  14064 08226 12960 0//// 10090 20064 39208 49941 54000 60002 333 20090 55049 70000;","Q01  00002PRCP24Q02  00002PRCP12"
"08226099999","2010-08-14T09:00:00","4","40.6666666","-3.1666666","640.0","GUADALAJARA, SP","FM-12","99999","V020","010,1,N,0041,1","22000,1,9,N","010000,1,N,1","+0189,1","+0077,1","09915,1",,,,,,"00,1,+99999,9,99,9","00,99,1,00,1,00,1,99999,9,00,1,00,1",,,,,"99999,9,09208,1","4,1,000,1,+999,9",,"SYN060AAXX  14094 08226 42960 00108 10189 20077 39208 49915 54000;",
"08226099999","2010-08-14T12:00:00","4","40.6666666","-3.1666666","640.0","GUADALAJARA, SP","FM-12","99999","V020","330,1,N,0026,1","22000,1,9,N","010000,1,N,1","+0234,1","+0083,1","09898,1","06,0000,9,1",,,,,"00,1,+99999,9,99,9","00,99,1,00,1,00,1,99999,9,00,1,00,1",,,,,"99999,9,09202,1","8,1,006,1,+999,9",,"SYN066AAXX  14124 08226 12960 03305 10234 20083 39202 49898 58006 60001;","Q01  00002PRCP06"
"08226099999","2010-08-15T06:00:00","4","40.6666666","-3.1666666","640.0","GUADALAJARA, SP","FM-12","99999","V020","350,1,N,0026,1","22000,1,9,N","010000,1,N,1","+0111,1","+0072,1","09920,1","12,0000,9,1","24,0000,9,1",,,,"00,1,+99999,9,99,9","00,99,1,00,1,00,1,99999,9,00,1,00,1",,"01,9","999,+0100,9","999,N,+0107,1","99999,9,09194,1","4,1,000,1,+999,9",,"SYN094AAXX  15064 08226 12960 03505 10111 20072 39194 49920 54000 60002 333 20107 30010 55/// 70000;","Q01  00002PRCP24Q02  00002PRCP12"
"08226099999","2010-08-15T09:00:00","4","40.6666666","-3.1666666","640.0","GUADALAJARA, SP","FM-12","99999","V020","360,1,N,0051,1","22000,1,9,N","010000,1,N,1","+0208,1","+0109,1","09901,1",,,,,,"00,1,+99999,9,99,9","00,99,1,00,1,00,1,99999,9,00,1,00,1",,,,,"99999,9,09200,1","2,1,006,1,+999,9",,"SYN060AAXX  15094 08226 42960 03610 10208 20109 39200 49901 52006;",
"08226099999","2010-08-15T12:00:00","4","40.6666666","-3.1666666","640.0","GUADALAJARA, SP","FM-12","99999","V020","190,1,N,0021,1","22000,1,9,N","010000,1,N,1","+0267,1","+0077,1","09881,1","06,0000,9,1",,,,,"00,1,+99999,9,99,9","00,99,1,00,1,00,1,99999,9,00,1,00,1",,,,,"99999,9,09194,1","8,1,006,1,+999,9",,"SYN066AAXX  15124 08226 12960 01904 10267 20077 39194 49881 58006 60001;","Q01  00002PRCP06"
"08226099999","2010-08-16T06:00:00","4","40.6666666","-3.1666666","640.0","GUADALAJARA, SP","FM-12","99999","V020","360,1,N,0036,1","22000,1,9,N","010000,1,N,1","+0135,1","+0101,1","09946,1","12,0000,9,1","24,0000,9,1",,,,"00,1,+99999,9,99,9","00,99,1,00,1,00,1,99999,9,00,1,00,1","0696,9","01,9","999,+0130,9","999,N,+0132,1","99999,9,09224,1","4,1,000,1,+999,9",,"SYN100AAXX  16064 08226 12960 03607 10135 20101 39224 49946 54000 60002 333 20132 30013 50754 55116 70000;","Q01  00002PRCP24Q02  00002PRCP12"
"08226099999","2010-08-16T09:00:00","4","40.6666666","-3.1666666","640.0","GUADALAJARA, SP","FM-12","99999","V020","340,1,N,0046,1","22000,1,9,N","010000,1,N,1","+0215,1","+0106,1","09926,1",,,,,,"00,1,+99999,9,99,9","00,99,1,00,1,00,1,99999,9,00,1,00,1",,,,,"99999,9,09224,1","4,1,000,1,+999,9",,"SYN060AAXX  16094 08226 42960 03409 10215 20106 39224 49926 54000;",
"08226099999","2010-08-16T12:00:00","4","40.6666666","-3.1666666","640.0","GUADALAJARA, SP","FM-12","99999","V020","300,1,N,0005,1","01500,1,9,N","010000,1,N,1","+0240,1","+0113,1","09930,1","06,0000,9,1",,,,,,"07,99,1,07,1,07,1,01750,1,00,1,00,1",,,,,"99999,9,09234,1","1,1,010,1,+999,9",,"SYN072AAXX  16124 08226 12760 73001 10240 20113 39234 49930 51010 60001 87700;","Q01  00002PRCP06"
"08226099999","2010-08-17T06:00:00","4","40.6666666","-3.1666666","640.0","GUADALAJARA, SP","FM-12","99999","V020","340,1,N,0010,1","01200,1,9,N","010000,1,N,1","+0160,1","+0135,1","09949,1","12,0000,9,1","24,0000,9,1",,,,,"06,99,1,06,1,05,1,01250,1,00,1,00,1","0486,9","01,9","999,+0140,9","999,N,+0150,1","99999,9,09234,1","4,1,000,1,+999,9",,"SYN106AAXX  17064 08226 12660 63402 10160 20135 39234 49949 54000 60002 86500 333 20150 30014 50704 55081 70000;","Q01  00002PRCP24Q02  00002PRCP12"
"08226099999","2010-08-17T09:00:00","4","40.6666666","-3.1666666","640.0","GUADALAJARA, SP","FM-12","99999","V020","999,9,C,0000,1","01200,1,9,N","010000,1,N,1","+0220,1","+0174,1","09933,1",,,,,,,"06,99,1,06,1,05,1,01250,1,00,1,00,1",,,,,"99999,9,09234,1","4,1,000,1,+999,9",,"SYN066AAXX  17094 08226 42660 60000 10220 20174 39234 49933 54000 86500;",
"08226099999","2010-08-17T12:00:00","4","40.6666666","-3.1666666","640.0","GUADALAJARA, SP","FM-12","99999","V020","280,1,N,0031,1","22000,1,9,N","010000,1,N,1","+0260,1","+0176,1","09913,1","06,0000,9,1",,,,,,"04,99,1,04,1,01,1,01250,1,00,1,00,1",,,,,"99999,9,09224,1","8,1,010,1,+999,9",,"SYN072AAXX  17124 08226 12660 42806 10260 20176 39224 49913 58010 60001 84100;","Q01  00002PRCP06"
"08226099999","2010-08-18T06:00:00","4","40.6666666","-3.1666666","640.0","GUADALAJARA, SP","FM-12","99999","V020","350,1,N,0021,1","22000,1,9,N","010000,1,N,1","+0150,1","+0132,1","09909,1","12,0000,9,1","24,0000,9,1",,,,"00,1,+99999,9,99,9","00,99,1,00,1,00,1,99999,9,00,1,00,1","0348,9","01,9","999,+0140,9","999,N,+0150,1","99999,9,09194,1","4,1,000,1,+999,9",,"SYN100AAXX  18064 08226 12960 03504 10150 20132 39194 49909 54000 60002 333 20150 30014 50704 55058 70000;","Q01  00002PRCP24Q02  00002PRCP12"
"08226099999","2010-08-18T09:00:00","4","40.6666666","-3.1666666","640.0","GUADALAJARA, SP","FM-12","99999","V020","220,1,N,0010,1","22000,1,9,N","010000,1,N,1","+0231,1","+0184,1","09887,1",,,,,,,"02,99,1,02,1,01,1,01750,1,00,1,00,1",,,,,"99999,9,09194,1","4,1,000,1,+999,9",,"SYN066AAXX  18094 08226 42760 22202 10231 20184 39194 49887 54000 82100;",
"08226099999","2010-08-18T12:00:00","4","40.6666666","-3.1666666","640.0","GUADALAJARA, SP","FM-12","99999","V020","250,1,N,0021,1","22000,1,9,N","010000,1,N,1","+0285,1","+0154,1","09864,1","06,0000,9,1",,,,,,"02,99,1,02,1,02,1,01750,1,00,1,00,1",,,,,"99999,9,09184,1","8,1,010,1,+999,9",,"SYN072AAXX  18124 08226 12760 22504 10285 20154 39184 49864 58010 60001 82200;","Q01  00002PRCP06"
"08226099999","2010-08-19T06:00:00","4","40.6666666","-3.1666666","640.0","GUADALAJARA, SP","FM-12","99999","V020","360,1,N,0015,1","22000,1,9,N","010000,1,N,1","+0145,1","+0137,1","09884,1","12,0000,9,1","24,0000,9,1",,,,"00,1,+99999,9,99,9","00,99,1,00,1,00,1,99999,9,00,1,00,1","0654,9","01,9","999,+0140,9","999,N,+0145,1","99999,9,09170,1","4,1,000,1,+999,9",,"SYN100AAXX  19064 08226 12960 03603 10145 20137 39170 49884 54000 60002 333 20145 30014 50804 55109 70000;","Q01  00002PRCP24Q02  00002PRCP12"
"08226099999","2010-08-19T09:00:00","4","40.6666666","-3.1666666","640.0","GUADALAJARA, SP","FM-12","99999","V020","190,1,N,0015,1","22000,1,9,N","010000,1,N,1","+0260,1","+0163,1","09859,1",,,,,,,"03,99,1,03,1,05,1,01750,1,00,1,00,1",,,,,"99999,9,09174,1","0,1,004,1,+999,9",,"SYN066AAXX  19094 08226 42760 31903 10260 20163 39174 49859 50004 83500;",
"08226099999","2010-08-19T12:00:00","4","40.6666666","-3.1666666","640.0","GUADALAJARA, SP","FM-12","99999","V020","190,1,N,0041,1","22000,1,9,N","010000,1,N,1","+0285,1","+0154,1","09854,1","06,0000,9,1",,,,,,"04,99,1,04,1,02,1,01250,1,00,1,00,1",,,,,"99999,9,09174,1","4,1,000,1,+999,9",,"SYN072AAXX  19124 08226 12660 41908 10285 20154 39174 49854 54000 60001 84200;","Q01  00002PRCP06"
"08226099999","2010-08-20T06:00:00","4","40.6666666","-3.1666666","640.0","GUADALAJARA, SP","FM-12","99999","V020","020,1,N,0015,1","22000,1,9,N","010000,1,N,1","+0140,1","+0122,1","09955,1","12,0000,9,1","24,0036,9,1",,,,"00,1,+99999,9,99,9","00,99,1,00,1,00,1,99999,9,00,1,00,1","0360,9","01,9","999,+0120,9","999,N,+0135,1","99999,9,09234,1","3,1,010,1,+999,9",,"SYN100AAXX  20064 08226 12960 00203 10140 20122 39234 49955 53010 60002 333 20135 30012 50604 55060 70036;","Q01  00002PRCP12"
"08226099999","2010-08-20T09:00:00","4","40.6666666","-3.1666666","640.0","GUADALAJARA, SP","FM-12","99999","V020","340,1,N,0021,1","22000,1,9,N","010000,1,N,1","+0215,1","+0175,1","09945,1",,,,,,"00,1,+99999,9,99,9","00,99,1,00,1,00,1,99999,9,00,1,00,1",,,,,"99999,9,09244,1","2,1,010,1,+999,9",,"SYN060AAXX  20094 08226 42960 03404 10215 20175 39244 49945 52010;",
"08226099999","2010-08-20T12:00:00","4","40.6666666","-3.1666666","640.0","GUADALAJARA, SP","FM-12","99999","V020","999,9,C,0000,1","22000,1,9,N","010000,1,N,1","+0290,1","+0175,1","09934,1","06,0000,9,1",,,,,"00,1,+99999,9,99,9","00,99,1,00,1,00,1,99999,9,00,1,00,1",,,,,"99999,9,09250,1","1,1,006,1,+999,9",,"SYN066AAXX  20124 08226 12960 00000 10290 20175 39250 49934 51006 60001;","Q01  00002PRCP06"
"08226099999","2010-08-21T06:00:00","4","40.6666666","-3.1666666","640.0","GUADALAJARA, SP","FM-12","99999","V020","020,1,N,0015,1","22000,1,9,N","010000,1,N,1","+0155,1","+0147,1","10004,1","12,0000,9,1","24,0000,9,1",,,,"00,1,+99999,9,99,9","00,99,1,00,1,00,1,99999,9,00,1,00,1","0672,9","01,9","999,+0140,9","999,N,+0150,1","99999,9,09284,1","2,1,020,1,+999,9",,"SYN100AAXX  21064 08226 12960 00203 10155 20147 39284 40004 52020 60002 333 20150 30014 50804 55112 70000;","Q01  00002PRCP24Q02  00002PRCP12"
"08226099999","2010-08-21T09:00:00","4","40.6666666","-3.1666666","640.0","GUADALAJARA, SP","FM-12","99999","V020","340,1,N,0021,1","22000,1,9,N","010000,1,N,1","+0260,1","+0189,1","09977,1",,,,,,"00,1,+99999,9,99,9","00,99,1,00,1,00,1,99999,9,00,1,00,1",,,,,"99999,9,09284,1","4,1,000,1,+999,9",,"SYN060AAXX  21094 08226 42960 03404 10260 20189 39284 49977 54000;",
"08226099999","2010-08-21T12:00:00","4","40.6666666","-3.1666666","640.0","GUADALAJARA, SP","FM-12","99999","V020","300,1,N,0021,1","22000,1,9,N","010000,1,N,1","+0325,2","+0151,1","09961,1","06,0000,9,1",,,,,"00,1,+99999,9,99,9","00,99,1,00,1,00,1,99999,9,00,1,00,1",,,,,"99999,9,09282,1","8,1,002,1,+999,9",,"SYN066AAXX  21124 08226 12960 03004 10325 20151 39282 49961 58002 60001;","Q01  00002PRCP06"
"08226099999","2010-08-22T06:00:00","4","40.6666666","-3.1666666","640.0","GUADALAJARA, SP","FM-12","99999","V020","999,9,C,0000,1","22000,1,9,N","010000,1,N,1","+0160,1","+0135,1","09960,1","12,0000,9,1","24,0000,9,1",,,,,"01,99,1,01,1,00,1,01750,1,07,1,00,1","0660,9","01,9","999,+0150,9","999,N,+0160,1","99999,9,09244,1","6,1,010,1,+999,9",,"SYN106AAXX  22064 08226 12760 10000 10160 20135 39244 49960 56010 60002 81070 333 20160 30015 50904 55110 70000;","Q01  00002PRCP24Q02  00002PRCP12"
"08226099999","2010-08-22T12:00:00","4","40.6666666","-3.1666666","640.0","GUADALAJARA, SP","FM-12","99999","V020","220,1,N,0041,1","22000,1,9,N","010000,1,N,1","+0325,1","+0151,1","09898,1","06,0000,9,1",,,,,"00,1,+99999,9,99,9","00,99,1,00,1,00,1,99999,9,00,1,00,1",,,,,"99999,9,09224,1","8,1,020,1,+999,9",,"SYN066AAXX  22124 08226 12960 02208 10325 20151 39224 49898 58020 60001;","Q01  00002PRCP06"
"08226099999","2010-08-23T06:00:00","4","40.6666666","-3.1666666","640.0","GUADALAJARA, SP","FM-12","99999","V020","020,1,N,0015,1","22000,1,9,N","010000,1,N,1","+0130,1","+0105,1","09904,1","12,0000,9,1","24,0000,9,1",,,,,"02,99,1,00,1,00,1,99999,9,00,1,02,1","0666,9","01,9","999,+0110,9","999,N,+0127,1","99999,9,09184,1","4,1,000,1,+999,9",,"SYN106AAXX  23064 08226 12960 20203 10130 20105 39184 49904 54000 60002 80002 333 20127 30011 51004 55111 70000;","Q01  00002PRCP24Q02  00002PRCP12"
"08226099999","2010-08-23T09:00:00","4","40.6666666","-3.1666666","640.0","GUADALAJARA, SP","FM-12","99999","V020","240,1,N,0031,1","22000,1,9,N","010000,1,N,1","+0260,1","+0114,1","09871,1",,,,,,,"02,99,1,00,1,00,1,99999,9,00,1,02,1",,,,,"99999,9,09184,1","4,1,000,1,+999,9",,"SYN066AAXX  23094 08226 42960 22406 10260 20114 39184 49871 54000 80002;",
"08226099999","2010-08-23T12:00:00","4","40.6666666","-3.1666666","640.0","GUADALAJARA, SP","FM-12","99999","V020","210,1,N,0067,1","22000,1,9,N","010000,1,N,1","+0305,2","+0083,1","09851,1","06,0000,9,1",,,,,,"01,99,1,00,1,00,1,99999,9,00,1,01,1",,,,,"99999,9,09174,1","8,1,010,1,+999,9",,"SYN072AAXX  23124 08226 12960 12113 10305 20083 39174 49851 58010 60001 80001;","Q01  00002PRCP06"
"08226099999","2010-08-24T06:00:00","4","40.6666666","-3.1666666","640.0","GUADALAJARA, SP","FM-12","99999","V020","010,1,N,0015,1","22000,1,9,N","010000,1,N,1","+0130,1","+0112,1","09904,1","12,0000,9,1","24,0000,9,1",,,,"00,1,+99999,9,99,9","00,99,1,00,1,00,1,99999,9,00,1,00,1","0660,9","01,9","999,+0110,9","999,N,+0127,1","99999,9,09184,1","3,1,010,1,+999,9",,"SYN100AAXX  24064 08226 12960 00103 10130 20112 39184 49904 53010 60002 333 20127 30011 51004 55110 70000;","Q01  00002PRCP24Q02  00002PRCP12"
"08226099999","2010-08-24T09:00:00","4","40.6666666","-3.1666666","640.0","GUADALAJARA, SP","FM-12","99999","V020","040,1,N,0015,1","22000,1,9,N","010000,1,N,1","+0242,1","+0159,1","09892,1",,,,,,"00,1,+99999,9,99,9","00,99,1,00,1,00,1,99999,9,00,1,00,1",,,,,"99999,9,09200,1","2,1,016,1,+999,9",,"SYN060AAXX  24094 08226 42960 00403 10242 20159 39200 49892 52016;",
"08226099999","2010-08-24T12:00:00","4","40.6666666","-3.1666666","640.0","GUADALAJARA, SP","FM-12","99999","V020","210,1,N,0036,1","22000,1,9,N","010000,1,N,1","+0282,1","+0151,1","09882,1","06,0000,9,1",,,,,"00,1,+99999,9,99,9","00,99,1,00,1,00,1,99999,9,00,1,00,1",,,,,"99999,9,09200,1","4,1,000,1,+999,9",,"SYN066AAXX  24124 08226 12960 02107 10282 20151 39200 49882 54000 60001;","Q01  00002PRCP06"
"08226099999","2010-08-25T06:00:00","4","40.6666666","-3.1666666","640.0","GUADALAJARA, SP","FM-12","99999","V020","010,1,N,0021,1","22000,1,9,N","010000,1,N,1","+0128,1","+0114,1","09947,1","12,0000,9,1","24,0000,9,1",,,,"00,1,+99999,9,99,9","00,99,1,00,1,00,1,99999,9,00,1,00,1","0678,9","01,9","999,+0110,9","999,N,+0125,1","99999,9,09224,1","3,1,002,1,+999,9",,"SYN094AAXX  25064 08226 12960 00104 10128 20114 39224 49947 53002 60002 333 20125 30011 55113 70000;","Q01  00002PRCP24Q02  00002PRCP12"
"08226099999","2010-08-25T09:00:00","4","40.6666666","-3.1666666","640.0","GUADALAJARA, SP","FM-12","99999","V020","040,1,N,0021,1","22000,1,9,N","010000,1,N,1","+0254,1","+0139,1","09915,1",,,,,,"00,1,+99999,9,99,9","00,99,1,00,1,00,1,99999,9,00,1,00,1",,,,,"99999,9,09224,1","4,1,000,1,+999,9",,"SYN060AAXX  25094 08226 42960 00404 10254 20139 39224 49915 54000;",
"08226099999","2010-08-25T12:00:00","4","40.6666666","-3.1666666","640.0","GUADALAJARA, SP","FM-12","99999","V020","250,1,N,0041,1","22000,1,9,N","010000,1,N,1","+0332,1","+0099,1","09896,1","06,0000,9,1",,,,,"00,1,+99999,9,99,9","00,99,1,00,1,00,1,99999,9,00,1,00,1",,,,,"99999,9,09222,1","7,1,002,1,+999,9",,"SYN066AAXX  25124 08226 12960 02508 10332 20099 39222 49896 57002 60001;","Q01  00002PRCP06"
"08226099999","2010-08-26T06:00:00","4","40.6666666","-3.1666666","640.0","GUADALAJARA, SP","FM-12","99999","V020","350,1,N,0010,1","22000,1,9,N","010000,1,N,1","+0152,1","+0120,1","09925,1","12,0000,9,1","24,0000,9,1",,,,"00,1,+99999,9,99,9","00,99,1,00,1,00,1,99999,9,00,1,00,1","0672,9","01,9","999,+0140,9","999,N,+0151,1","99999,9,09209,1","2,1,005,1,+999,9",,"SYN094AAXX  26064 08226 12960 03502 10152 20120 39209 49925 52005 60002 333 20151 30014 55112 70000;","Q01  00002PRCP24Q02  00002PRCP12"
"08226099999","2010-08-26T09:00:00","4","40.6666666","-3.1666666","640.0","GUADALAJARA, SP","FM-12","99999","V020","290,1,N,0015,1","22000,1,9,N","010000,1,N,1","+0278,1","+0130,1","09894,1",,,,,,"00,1,+99999,9,99,9","00,99,1,00,1,00,1,99999,9,00,1,00,1",,,,,"99999,9,09209,1","4,1,000,1,+999,9",,"SYN060AAXX  26094 08226 42960 02903 10278 20130 39209 49894 54000;",
"08226099999","2010-08-26T12:00:00","4","40.6666666","-3.1666666","640.0","GUADALAJARA, SP","FM-12","99999","V020","210,1,N,0067,1","22000,1,9,N","010000,1,N,1","+0338,2","+0116,1","09875,1","06,0000,9,1",,,,,,"01,99,1,00,1,00,1,99999,9,00,1,01,1",,,,,"99999,9,09204,1","7,1,005,1,+999,9",,"SYN072AAXX  26124 08226 12960 12113 10338 20116 39204 49875 57005 60001 80001;","Q01  00002PRCP06"
"08226099999","2010-08-27T06:00:00","4","40.6666666","-3.1666666","640.0","GUADALAJARA, SP","FM-12","99999","V020","999,9,C,0000,1","22000,1,9,N","010000,1,N,1","+0129,1","+0094,1","09910,1","12,0000,9,1","24,0000,9,1",,,,,"02,99,1,00,1,00,1,99999,9,00,1,01,1","0666,9","01,9","999,+0100,9","999,N,+0118,1","99999,9,09189,1","2,1,011,1,+999,9",,"SYN100AAXX  27064 08226 12960 20000 10129 20094 39189 49910 52011 60002 80001 333 20118 30010 55111 70000;","Q01  00002PRCP24Q02  00002PRCP12"
"08226099999","2010-08-27T09:00:00","4","40.6666666","-3.1666666","640.0","GUADALAJARA, SP","FM-12","99999","V020","180,1,N,0021,1","22000,1,9,N","010000,1,N,1","+0266,1","+0090,1","09881,1",,,,,,"00,1,+99999,9,99,9","00,99,1,00,1,00,1,99999,9,00,1,00,1",,,,,"99999,9,09194,1","1,1,005,1,+999,9",,"SYN060AAXX  27094 08226 42960 01804 10266 20090 39194 49881 51005;",
"08226099999","2010-08-27T12:00:00","4","40.6666666","-3.1666666","640.0","GUADALAJARA, SP","FM-12","99999","V020","210,1,N,0036,1","22000,1,9,N","010000,1,N,1","+0324,2","+0080,1","09868,1","06,0000,9,1",,,,,,"01,99,1,01,1,01,1,01750,1,00,1,01,1",,,,,"99999,9,09194,1","4,1,000,1,+999,9",,"SYN072AAXX  27124 08226 12760 12107 10324 20080 39194 49868 54000 60001 81101;","Q01  00002PRCP06"
"08226099999","2010-08-28T06:00:00","4","40.6666666","-3.1666666","640.0","GUADALAJARA, SP","FM-12","99999","V020","360,1,N,0031,1","22000,1,9,N","010000,1,N,1","+0159,1","+0121,1","09920,1","12,0000,9,1","24,0000,9,1",,,,"00,1,+99999,9,99,9","00,99,1,00,1,00,1,99999,9,00,1,00,1",,"01,9","999,+0130,9","999,N,+0159,1","99999,9,09206,1","4,1,000,1,+999,9",,"SYN094AAXX  28064 08226 12960 03606 10159 20121 39206 49920 54000 60002 333 20159 30013 55/// 70000;","Q01  00002PRCP24Q02  00002PRCP12"
"08226099999","2010-08-28T09:00:00","4","40.6666666","-3.1666666","640.0","GUADALAJARA, SP","FM-12","99999","V020","360,1,N,0046,1","22000,1,9,N","010000,1,N,1","+0229,1","+0128,1","09911,1",,,,,,"00,1,+99999,9,99,9","00,99,1,00,1,00,1,99999,9,00,1,00,1",,,,,"99999,9,09214,1","2,1,008,1,+999,9",,"SYN060AAXX  28094 08226 42960 03609 10229 20128 39214 49911 52008;",
"08226099999","2010-08-28T12:00:00","4","40.6666666","-3.1666666","640.0","GUADALAJARA, SP","FM-12","99999","V020","030,1,N,0036,1","22000,1,9,N","010000,1,N,1","+0302,1","+0135,1","09893,1","06,0000,9,1",,,,,"00,1,+99999,9,99,9","00,99,1,00,1,00,1,99999,9,00,1,00,1",,,,,"99999,9,09214,1","4,1,000,1,+999,9",,"SYN066AAXX  28124 08226 12960 00307 10302 20135 39214 49893 54000 60001;","Q01  00002PRCP06"
"08226099999","2010-08-29T06:00:00","4","40.6666666","-3.1666666","640.0","GUADALAJARA, SP","FM-12","99999","V020","350,1,N,0031,1","22000,1,9,N","010000,1,N,1","+0144,1","+0010,1","09930,1","12,0000,9,1","24,0000,9,1",,,,"00,1,+99999,9,99,9","00,99,1,00,1,00,1,99999,9,00,1,00,1","0672,9","01,9","999,+0120,9","999,N,+0137,1","99999,9,09210,1","3,1,004,1,+999,9",,"SYN094AAXX  29064 08226 12960 03506 10144 20010 39210 49930 53004 60002 333 20137 30012 55112 70000;","Q01  00002PRCP24Q02  00002PRCP12"
"08226099999","2010-08-29T09:00:00","4","40.6666666","-3.1666666","640.0","GUADALAJARA, SP","FM-12","99999","V020","340,1,N,0036,1","22000,1,9,N","010000,1,N,1","+0238,1","+0066,1","09919,1",,,,,,"00,1,+99999,9,99,9","00,99,1,00,1,00,1,99999,9,00,1,00,1",,,,,"99999,9,09222,1","2,1,012,1,+999,9",,"SYN060AAXX  29094 08226 42960 03407 10238 20066 39222 49919 52012;",
"08226099999","2010-08-29T12:00:00","4","40.6666666","-3.1666666","640.0","GUADALAJARA, SP","FM-12","99999","V020","120,1,N,0015,1","22000,1,9,N","010000,1,N,1","+0302,1","+0055,1","09891,1","06,0000,9,1",,,,,"00,1,+99999,9,99,9","00,99,1,00,1,00,1,99999,9,00,1,00,1",,,,,"99999,9,09210,1","7,1,012,1,+999,9",,"SYN066AAXX  29124 08226 12960 01203 10302 20055 39210 49891 57012 60001;","Q01  00002PRCP06"
"08226099999","2010-08-30T06:00:00","4","40.6666666","-3.1666666","640.0","GUADALAJARA, SP","FM-12","99999","V020","999,9,C,0000,1","22000,1,9,N","010000,1,N,1","+0100,1","+0058,1","09939,1","12,0000,9,1","24,0000,9,1",,,,"00,1,+99999,9,99,9","00,99,1,00,1,00,1,99999,9,00,1,00,1","0672,9","01,9","999,+0090,9","999,N,+0098,1","99999,9,09208,1","5,1,006,1,+999,9",,"SYN094AAXX  30064 08226 12960 00000 10100 20058 39208 49939 55006 60002 333 20098 30009 55112 70000;","Q01  00002PRCP24Q02  00002PRCP12"
"08226099999","2010-08-30T09:00:00","4","40.6666666","-3.1666666","640.0","GUADALAJARA, SP","FM-12","99999","V020","010,1,N,0021,1","22000,1,9,N","010000,1,N,1","+0232,1","+0032,1","09910,1",,,,,,"00,1,+99999,9,99,9","00,99,1,00,1,00,1,99999,9,00,1,00,1",,,,,"99999,9,09212,1","1,1,004,1,+999,9",,"SYN060AAXX  30094 08226 42960 00104 10232 20032 39212 49910 51004;",
"08226099999","2010-08-30T12:00:00","4","40.6666666","-3.1666666","640.0","GUADALAJARA, SP","FM-12","99999","V020","240,1,N,0010,1","22000,1,9,N","010000,1,N,1","+0302,2","+0033,1","09885,1","06,0000,9,1",,,,,"00,1,+99999,9,99,9","00,99,1,00,1,00,1,99999,9,00,1,00,1",,,,,"99999,9,09204,1","7,1,008,1,+999,9",,"SYN066AAXX  30124 08226 12960 02402 10302 20033 39204 49885 57008 60001;","Q01  00002PRCP06"
"08226099999","2010-08-31T06:00:00","4","40.6666666","-3.1666666","640.0","GUADALAJARA, SP","FM-12","99999","V020","350,1,N,0026,1","22000,1,9,N","010000,1,N,1","+0115,1","+0060,1","09911,1","12,0000,9,1","24,0000,9,1",,,,"00,1,+99999,9,99,9","00,99,1,00,1,00,1,99999,9,00,1,00,1","0672,9","01,9","999,+0100,9","999,N,+0115,1","99999,9,09186,1","4,1,000,1,+999,9",,"SYN094AAXX  31064 08226 12960 03505 10115 20060 39186 49911 54000 60002 333 20115 30010 55112 70000;","Q01  00002PRCP24Q02  00002PRCP12"
"08226099999","2010-08-31T09:00:00","4","40.6666666","-3.1666666","640.0","GUADALAJARA, SP","FM-12","99999","V020","330,1,N,0015,1","22000,1,9,N","010000,1,N,1","+0218,1","+0087,1","09889,1",,,,,,"00,1,+99999,9,99,9","00,99,1,00,1,00,1,99999,9,00,1,00,1",,,,,"99999,9,09190,1","1,1,004,1,+999,9",,"SYN060AAXX  31094 08226 42960 03303 10218 20087 39190 49889 51004;",
"08226099999","2010-08-31T12:00:00","4","40.6666666","-3.1666666","640.0","GUADALAJARA, SP","FM-12","99999","V020","200,1,N,0026,1","22000,1,9,N","010000,1,N,1","+0276,1","+0103,1","09857,1","06,0000,9,1",,,,,,"01,99,1,00,1,00,1,99999,9,00,1,01,1",,,,,"99999,9,09174,1","7,1,016,1,+999,9",,"SYN072AAXX  31124 08226 12960 12005 10276 20103 39174 49857 57016 60001 80001;","Q01  00002PRCP06"
"08226099999","2010-09-01T06:00:00","4","40.6666666","-3.1666666","640.0","GUADALAJARA, SP","FM-12","99999","V020","350,1,N,0021,1","22000,1,9,N","010000,1,N,1","+0152,1","+0116,1","09855,1","12,0000,9,1","24,0000,9,1",,,,,"03,99,1,02,1,02,1,01750,1,09,1,01,1","0636,9","01,9","999,+0140,9","999,N,+0150,1","99999,9,09144,1","4,1,000,1,+999,9",,"SYN100AAXX  01064 08226 12760 33504 10152 20116 39144 49855 54000 60002 82291 333 20150 30014 55106 70000;","Q01  00002PRCP24Q02  00002PRCP12"
"08226099999","2010-09-01T09:00:00","4","40.6666666","-3.1666666","640.0","GUADALAJARA, SP","FM-12","99999","V020","130,1,N,0031,1","03600,1,9,N","010000,1,N,1","+0234,1","+0130,1","09843,1",,,,,,,"05,99,1,03,1,08,1,01750,1,09,1,01,1",,,,,"99999,9,09152,1","0,1,008,1,+999,9",,"SYN066AAXX  01094 08226 42760 51306 10234 20130 39152 49843 50008 83891;",
"08226099999","2010-09-01T12:00:00","4","40.6666666","-3.1666666","640.0","GUADALAJARA, SP","FM-12","99999","V020","070,1,N,0036,1","01500,1,9,N","010000,1,N,1","+0235,1","+0177,1","09835,1","06,9999,9,9",,,"5,1,06,1","1,1,06,1",,"08,99,1,08,1,07,1,01750,1,99,9,99,9",,,,,"99999,9,09146,1","7,1,006,1,+999,9","50,1","SYN078AAXX  01124 08226 11760 80707 10235 20177 39146 49835 57006 69901 75051 887//;","Q01  00002PRCP06Q02  00002PRCP06"
"08226099999","2010-09-02T06:00:00","4","40.6666666","-3.1666666","640.0","GUADALAJARA, SP","FM-12","99999","V020","040,1,N,0015,1","22000,1,9,N","010000,1,N,1","+0144,1","+0141,1","09878,1","12,0371,9,1","24,0371,9,1",,,,,"01,99,1,01,1,00,1,02250,1,08,1,01,1","0306,9","09,9","999,+0140,9","999,N,+0144,1","99999,9,09164,1","3,1,010,1,+999,9",,"SYN100AAXX  02064 08226 12860 10403 10144 20141 39164 49878 53010 60372 81081 333 20144 31014 55051 70370;",
"08226099999","2010-09-02T09:00:00","4","40.6666666","-3.1666666","640.0","GUADALAJARA, SP","FM-12","99999","V020","010,1,N,0010,1","09000,1,9,N","010000,1,N,1","+0201,1","+0175,1","09874,1",,,,,,,"05,99,1,02,1,07,1,01750,1,08,1,01,1",,,,,"99999,9,09175,1","2,1,011,1,+999,9",,"SYN066AAXX  02094 08226 42760 50102 10201 20175 39175 49874 52011 82781;",
"08226099999","2010-09-02T12:00:00","4","40.6666666","-3.1666666","640.0","GUADALAJARA, SP","FM-12","99999","V020","999,9,C,0000,1","03600,1,9,N","010000,1,N,1","+0252,1","+0177,1","09862,1","06,0000,9,1",,,,,,"05,99,1,03,1,07,1,01750,1,08,1,01,1",,,,,"99999,9,09175,1","0,1,000,1,+999,9",,"SYN072AAXX  02124 08226 12760 50000 10252 20177 39175 49862 50000 60001 83781;","Q01  00002PRCP06"
"08226099999","2010-09-03T06:00:00","4","40.6666666","-3.1666666","640.0","GUADALAJARA, SP","FM-12","99999","V020","030,1,N,0010,1","22000,1,9,N","010000,1,N,1","+0144,1","+0138,1","09932,1","12,0000,9,1","24,0000,9,1",,,,"00,1,+99999,9,99,9","00,99,1,00,1,00,1,99999,9,00,1,00,1","0540,9","09,9","999,+0140,9","999,N,+0144,1","99999,9,09214,1","3,1,010,1,+999,9",,"SYN094AAXX  03064 08226 12960 00302 10144 20138 39214 49932 53010 60002 333 20144 31014 55090 70000;","Q01  00002PRCP24Q02  00002PRCP12"
"08226099999","2010-09-03T09:00:00","4","40.6666666","-3.1666666","640.0","GUADALAJARA, SP","FM-12","99999","V020","360,1,N,0021,1","22000,1,9,N","010000,1,N,1","+0212,1","+0162,1","09920,1",,,,,,"00,1,+99999,9,99,9","00,99,1,00,1,00,1,99999,9,00,1,00,1",,,,,"99999,9,09220,1","2,1,006,1,+999,9",,"SYN060AAXX  03094 08226 42960 03604 10212 20162 39220 49920 52006;",
"08226099999","2010-09-03T12:00:00","4","40.6666666","-3.1666666","640.0","GUADALAJARA, SP","FM-12","99999","V020","130,1,N,0010,1","22000,1,9,N","010000,1,N,1","+0272,1","+0165,1","09899,1","06,0000,9,1",,,,,,"01,99,1,01,1,01,1,01750,1,00,1,00,1",,,,,"99999,9,09214,1","7,1,006,1,+999,9",,"SYN072AAXX  03124 08226 12760 11302 10272 20165 39214 49899 57006 60001 81100;","Q01  00002PRCP06"
"08226099999","2010-09-04T06:00:00","4","40.6666666","-3.1666666","640.0","GUADALAJARA, SP","FM-12","99999","V020","360,1,N,0010,1","22000,1,9,N","010000,1,N,1","+0132,1","+0116,1","09935,1","12,0000,9,1","24,0000,9,1",,,,,"01,99,1,00,1,00,1,99999,9,00,1,01,1","0666,9","01,9","999,+0120,9","999,N,+0130,1","99999,9,09214,1","4,1,000,1,+999,9",,"SYN106AAXX  04064 08226 12960 13602 10132 20116 39214 49935 54000 60002 80001 333 20130 30012 50504 55111 70000;","Q01  00002PRCP24Q02  00002PRCP12"
"08226099999","2010-09-04T09:00:00","4","40.6666666","-3.1666666","640.0","GUADALAJARA, SP","FM-12","99999","V020","360,1,N,0021,1","22000,1,9,N","010000,1,N,1","+0220,1","+0163,1","09918,1",,,,,,,"04,99,1,00,1,00,1,99999,9,00,1,05,1",,,,,"99999,9,09220,1","1,1,006,1,+999,9",,"SYN066AAXX  04094 08226 42960 43604 10220 20163 39220 49918 51006 80005;",
"08226099999","2010-09-04T12:00:00","4","40.6666666","-3.1666666","640.0","GUADALAJARA, SP","FM-12","99999","V020","999,9,C,0000,1","22000,1,9,N","010000,1,N,1","+0270,1","+0102,1","09902,1","06,0000,9,1",,,,,,"03,99,1,01,1,02,1,01750,1,00,1,05,1",,,,,"99999,9,09214,1","8,1,006,1,+999,9",,"SYN072AAXX  04124 08226 12760 30000 10270 20102 39214 49902 58006 60001 81205;","Q01  00002PRCP06"
"08226099999","2010-09-05T06:00:00","4","40.6666666","-3.1666666","640.0","GUADALAJARA, SP","FM-12","99999","V020","999,9,9,9999,9","22000,1,9,N","010000,1,N,1","+0150,1","+0116,1","09909,1","12,0000,9,1","24,0000,9,1",,,,,"03,99,1,03,1,00,1,02250,1,04,1,00,1",,,,"999,N,+0150,1","99999,9,09194,1","4,1,000,1,+999,9",,"SYN100AAXX  05064 08226 12860 3//// 10150 20116 39194 49909 54000 60002 83040 333 20150 50604 55/// 70000;","Q01  00002PRCP24Q02  00002PRCP12"
"08226099999","2010-09-05T09:00:00","4","40.6666666","-3.1666666","640.0","GUADALAJARA, SP","FM-12","99999","V020","999,9,9,9999,9","22000,1,9,N","010000,1,N,1","+0210,1","+0086,1","09906,1",,,,,,,"03,99,1,03,1,00,1,02250,1,04,1,00,1",,,,,"99999,9,09204,1","1,1,010,1,+999,9",,"SYN066AAXX  05094 08226 42860 3//// 10210 20086 39204 49906 51010 83040;",
"08226099999","2010-09-05T12:00:00","4","40.6666666","-3.1666666","640.0","GUADALAJARA, SP","FM-12","99999","V020","999,9,9,9999,9","22000,1,9,N","010000,1,N,1","+0280,1","+0088,1","09878,1","06,0000,9,1",,,,,"00,1,+99999,9,99,9","00,99,1,00,1,00,1,99999,9,00,1,00,1",,,,,"99999,9,09194,1","8,1,010,1,+999,9",,"SYN066AAXX  05124 08226 12960 0//// 10280 20088 39194 49878 58010 60001;","Q01  00002PRCP06"
"08226099999","2010-09-06T06:00:00","4","40.6666666","-3.1666666","640.0","GUADALAJARA, SP","FM-12","99999","V020","999,9,9,9999,9","22000,1,9,N","010000,1,N,1","+0150,1","+0118,1","09888,1","12,0000,9,1","24,0000,9,1",,,,,"02,99,1,01,1,01,1,01250,1,04,1,00,1",,,,"999,N,+0150,1","99999,9,09174,1","4,1,000,1,+999,9",,"SYN100AAXX  06064 08226 12660 2//// 10150 20118 39174 49888 54000 60002 81140 333 20150 50604 55/// 70000;","Q01  00002PRCP24Q02  00002PRCP12"
"08226099999","2010-09-06T09:00:00","4","40.6666666","-3.1666666","640.0","GUADALAJARA, SP","FM-12","99999","V020","999,9,9,9999,9","01500,1,9,N","010000,1,N,1","+0200,1","+0093,1","09876,1",,,,,,,"06,99,1,06,1,00,1,01750,1,03,1,00,1",,,,,"99999,9,09174,1","4,1,000,1,+999,9",,"SYN066AAXX  06094 08226 42760 6//// 10200 20093 39174 49876 54000 86030;",
"08226099999","2010-09-06T12:00:00","4","40.6666666","-3.1666666","640.0","GUADALAJARA, SP","FM-12","99999","V020","999,9,9,9999,9","99999,9,9,N","010000,1,N,1","+0290,1","+0120,1","09832,1","06,0000,9,1",,,,,,"06,99,1,00,1,00,1,99999,9,00,1,05,1",,,,,"99999,9,09154,1","8,1,020,1,+999,9",,"SYN072AAXX  06124 08226 12960 6//// 10290 20120 39154 49832 58020 60001 80005;","Q01  00002PRCP06"
"08226099999","2010-09-07T06:00:00","4","40.6666666","-3.1666666","640.0","GUADALAJARA, SP","FM-12","99999","V020","999,9,9,9999,9","22000,1,9,N","010000,1,N,1","+0140,1","+0086,1","09826,1","12,0000,9,1","24,0000,9,1",,,,,"03,99,1,03,1,05,1,01750,1,00,1,00,1",,,,"999,N,+0140,1","99999,9,09114,1","4,1,000,1,+999,9",,"SYN100AAXX  07064 08226 12760 3//// 10140 20086 39114 49826 54000 60002 83500 333 20140 50604 55/// 70000;","Q01  00002PRCP24Q02  00002PRCP12"
"08226099999","2010-09-07T12:00:00","4","40.6666666","-3.1666666","640.0","GUADALAJARA, SP","FM-12","99999","V020","999,9,9,9999,9","01500,1,9,N","010000,1,N,1","+0250,1","+0072,1","09789,1","06,0000,9,1",,,,,,"06,99,1,06,1,08,1,01250,1,00,1,00,1",,,,,"99999,9,09104,1","4,1,000,1,+999,9",,"SYN072AAXX  07124 08226 12660 6//// 10250 20072 39104 49789 54000 60001 86800;","Q01  00002PRCP06"
"08226099999","2010-09-08T06:00:00","4","40.6666666","-3.1666666","640.0","GUADALAJARA, SP","FM-12","99999","V020","999,9,9,9999,9","01200,1,9,N","010000,1,N,1","+0148,1","+0094,1","09878,1","12,0000,9,1","24,0000,9,1",,,,,"06,99,1,06,1,05,1,01250,1,00,1,00,1",,,,"999,N,+0148,1","99999,9,09164,1","2,1,020,1,+999,9",,"SYN100AAXX  08064 08226 12660 6//// 10148 20094 39164 49878 52020 60002 86500 333 20148 50604 55/// 70000;","Q01  00002PRCP24Q02  00002PRCP12"
"08226099999","2010-09-08T09:00:00","4","40.6666666","-3.1666666","640.0","GUADALAJARA, SP","FM-12","99999","V020","999,9,9,9999,9","22000,1,9,N","010000,1,N,1","+0180,1","+0074,1","09883,1",,,,,,,"03,99,1,03,1,01,1,01250,1,00,1,00,1",,,,,"99999,9,09176,1","1,1,012,1,+999,9",,"SYN066AAXX  08094 08226 42660 3//// 10180 20074 39176 49883 51012 83100;",
"08226099999","2010-09-08T12:00:00","4","40.6666666","-3.1666666","640.0","GUADALAJARA, SP","FM-12","99999","V020","999,9,9,9999,9","22000,1,9,N","010000,1,N,1","+0210,1","+0054,1","09881,1","06,0000,9,1",,,,,,"04,99,1,02,1,01,1,01250,1,00,1,01,1",,,,,"99999,9,09180,1","1,1,004,1,+999,9",,"SYN072AAXX  08124 08226 12660 4//// 10210 20054 39180 49881 51004 60001 82101;","Q01  00002PRCP06"
"08226099999","2010-09-09T06:00:00","4","40.6666666","-3.1666666","640.0","GUADALAJARA, SP","FM-12","99999","V020","999,9,9,9999,9","22000,1,9,N","010000,1,N,1","+0150,1","+0096,1","09953,1","12,0000,9,1","24,0000,9,1",,,,"00,1,+99999,9,99,9","00,99,1,00,1,00,1,99999,9,00,1,00,1",,,,"999,N,+0150,1","99999,9,09234,1","2,1,010,1,+999,9",,"SYN094AAXX  09064 08226 12960 0//// 10150 20096 39234 49953 52010 60002 333 20150 50654 55/// 70000;","Q01  00002PRCP24Q02  00002PRCP12"
"08226099999","2010-09-09T09:00:00","4","40.6666666","-3.1666666","640.0","GUADALAJARA, SP","FM-12","99999","V020","999,9,9,9999,9","22000,1,9,N","010000,1,N,1","+0190,1","+0100,1","09956,1",,,,,,,"04,99,1,00,1,00,1,99999,9,00,1,05,1",,,,,"99999,9,09246,1","1,1,012,1,+999,9",,"SYN066AAXX  09094 08226 42960 4//// 10190 20100 39246 49956 51012 80005;",
"08226099999","2010-09-09T12:00:00","4","40.6666666","-3.1666666","640.0","GUADALAJARA, SP","FM-12","99999","V020","999,9,9,9999,9","22000,1,9,N","010000,1,N,1","+0220,1","+0105,1","09957,1","06,0000,9,1",,,,,,"02,99,1,02,1,01,1,01250,1,00,1,00,1",,,,,"99999,9,09254,1","1,1,008,1,+999,9",,"SYN072AAXX  09124 08226 12660 2//// 10220 20105 39254 49957 51008 60001 82100;","Q01  00002PRCP06"
"08226099999","2010-09-10T06:00:00","4","40.6666666","-3.1666666","640.0","GUADALAJARA, SP","FM-12","99999","V020","999,9,9,9999,9","22000,1,9,N","010000,1,N,1","+0100,1","+0076,1","09999,1","12,0000,9,1","24,0000,9,1",,,,"00,1,+99999,9,99,9","00,99,1,00,1,00,1,99999,9,00,1,00,1",,,,"999,N,+0100,1","99999,9,09264,1","4,1,000,1,+999,9",,"SYN094AAXX  10064 08226 12960 0//// 10100 20076 39264 49999 54000 60002 333 20100 50654 55/// 70000;","Q01  00002PRCP24Q02  00002PRCP12"
"08226099999","2010-09-10T09:00:00","4","40.6666666","-3.1666666","640.0","GUADALAJARA, SP","FM-12","99999","V020","999,9,9,9999,9","22000,1,9,N","010000,1,N,1","+0176,1","+0105,1","09978,1",,,,,,"00,1,+99999,9,99,9","00,99,1,00,1,00,1,99999,9,00,1,00,1",,,,,"99999,9,09264,1","4,1,000,1,+999,9",,"SYN060AAXX  10094 08226 42960 0//// 10176 20105 39264 49978 54000;",
"08226099999","2010-09-10T12:00:00","4","40.6666666","-3.1666666","640.0","GUADALAJARA, SP","FM-12","99999","V020","999,9,9,9999,9","22000,1,9,N","010000,1,N,1","+0230,1","+0087,1","09955,1","06,0000,9,1",,,,,"00,1,+99999,9,99,9","00,99,1,00,1,00,1,99999,9,00,1,00,1",,,,,"99999,9,09254,1","8,1,010,1,+999,9",,"SYN066AAXX  10124 08226 12960 0//// 10230 20087 39254 49955 58010 60001;","Q01  00002PRCP06"
"08226099999","2010-09-11T06:00:00","4","40.6666666","-3.1666666","640.0","GUADALAJARA, SP","FM-12","99999","V020","999,9,9,9999,9","22000,1,9,N","010000,1,N,1","+0096,1","+0088,1","09946,1","12,0000,9,1","24,0000,9,1",,,,"00,1,+99999,9,99,9","00,99,1,00,1,00,1,99999,9,00,1,00,1",,,,"999,N,+0090,1","99999,9,09214,1","4,1,000,1,+999,9",,"SYN094AAXX  11064 08226 12960 0//// 10096 20088 39214 49946 54000 60002 333 20090 50654 55/// 70000;","Q01  00002PRCP24Q02  00002PRCP12"
"08226099999","2010-09-11T09:00:00","4","40.6666666","-3.1666666","640.0","GUADALAJARA, SP","FM-12","99999","V020","999,9,9,9999,9","22000,1,9,N","010000,1,N,1","+0220,1","+0111,1","09916,1",,,,,,"00,1,+99999,9,99,9","00,99,1,00,1,00,1,99999,9,00,1,00,1",,,,,"99999,9,09216,1","1,1,002,1,+999,9",,"SYN060AAXX  11094 08226 42960 0//// 10220 20111 39216 49916 51002;",
"08226099999","2010-09-11T12:00:00","4","40.6666666","-3.1666666","640.0","GUADALAJARA, SP","FM-12","99999","V020","999,9,9,9999,9","22000,1,9,N","010000,1,N,1","+0260,1","+0141,1","09892,1","06,0000,9,1",,,,,,"03,99,1,00,1,00,1,99999,9,00,1,01,1",,,,,"99999,9,09204,1","8,1,012,1,+999,9",,"SYN072AAXX  11124 08226 12960 3//// 10260 20141 39204 49892 58012 60001 80001;","Q01  00002PRCP06"
"08226099999","2010-09-12T06:00:00","4","40.6666666","-3.1666666","640.0","GUADALAJARA, SP","FM-12","99999","V020","999,9,9,9999,9","22000,1,9,N","010000,1,N,1","+0112,1","+0071,1","09953,1","12,0000,9,1","24,0000,9,1",,,,"00,1,+99999,9,99,9","00,99,1,00,1,00,1,99999,9,00,1,00,1",,,,"999,N,+0100,1","99999,9,09224,1","1,1,010,1,+999,9",,"SYN094AAXX  12064 08226 12960 0//// 10112 20071 39224 49953 51010 60002 333 20100 50704 55/// 70000;","Q01  00002PRCP24Q02  00002PRCP12"
"08226099999","2010-09-12T09:00:00","4","40.6666666","-3.1666666","640.0","GUADALAJARA, SP","FM-12","99999","V020","999,9,9,9999,9","22000,1,9,N","010000,1,N,1","+0200,1","+0107,1","09940,1",,,,,,"00,1,+99999,9,99,9","00,99,1,00,1,00,1,99999,9,00,1,00,1",,,,,"99999,9,09234,1","1,1,010,1,+999,9",,"SYN060AAXX  12094 08226 42960 0//// 10200 20107 39234 49940 51010;",
"08226099999","2010-09-12T12:00:00","4","40.6666666","-3.1666666","640.0","GUADALAJARA, SP","FM-12","99999","V020","999,9,9,9999,9","22000,1,9,N","010000,1,N,1","+0290,2","+0148,1","09913,1","06,0000,9,1",,,,,"00,1,+99999,9,99,9","00,99,1,00,1,00,1,99999,9,00,1,00,1",,,,,"99999,9,09230,1","8,1,004,1,+999,9",,"SYN066AAXX  12124 08226 12960 0//// 10290 20148 39230 49913 58004 60001;","Q01  00002PRCP06"
"08226099999","2010-09-13T06:00:00","4","40.6666666","-3.1666666","640.0","GUADALAJARA, SP","FM-12","99999","V020","999,9,9,9999,9","22000,1,9,N","010000,1,N,1","+0130,1","+0112,1","10001,1","12,0000,9,1","24,0000,9,1",,,,"00,1,+99999,9,99,9","00,99,1,00,1,00,1,99999,9,00,1,00,1",,,,"999,N,+0100,1","99999,9,09274,1","3,1,004,1,+999,9",,"SYN094AAXX  13064 08226 12960 0//// 10130 20112 39274 40001 53004 60002 333 20100 50704 55/// 70000;","Q01  00002PRCP24Q02  00002PRCP12"
"08226099999","2010-09-13T09:00:00","4","40.6666666","-3.1666666","640.0","GUADALAJARA, SP","FM-12","99999","V020","999,9,9,9999,9","22000,1,9,N","010000,1,N,1","+0228,1","+0127,1","09982,1",,,,,,"00,1,+99999,9,99,9","00,99,1,00,1,00,1,99999,9,00,1,00,1",,,,,"99999,9,09280,1","2,1,006,1,+999,9",,"SYN060AAXX  13094 08226 42960 0//// 10228 20127 39280 49982 52006;",
"08226099999","2010-09-13T12:00:00","4","40.6666666","-3.1666666","640.0","GUADALAJARA, SP","FM-12","99999","V020","999,9,9,9999,9","22000,1,9,N","010000,1,N,1","+0290,1","+0124,1","09957,1","06,0000,9,1",,,,,"00,1,+99999,9,99,9","00,99,1,00,1,00,1,99999,9,00,1,00,1",,,,,"99999,9,09270,1","8,1,010,1,+999,9",,"SYN066AAXX  13124 08226 12960 0//// 10290 20124 39270 49957 58010 60001;","Q01  00002PRCP06"
"08226099999","2010-09-14T06:00:00","4","40.6666666","-3.1666666","640.0","GUADALAJARA, SP","FM-12","99999","V020","999,9,9,9999,9","22000,1,9,N","010000,1,N,1","+0090,1","+0046,1","10019,1","12,0000,9,1","24,0000,9,1",,,,"00,1,+99999,9,99,9","00,99,1,00,1,00,1,99999,9,00,1,00,1",,,,"999,N,+0090,1","99999,9,09280,1","3,1,006,1,+999,9",,"SYN094AAXX  14064 08226 12960 0//// 10090 20046 39280 40019 53006 60002 333 20090 51004 55/// 70000;","Q01  00002PRCP24Q02  00002PRCP12"
"08226099999","2010-09-14T09:00:00","4","40.6666666","-3.1666666","640.0","GUADALAJARA, SP","FM-12","99999","V020","999,9,9,9999,9","22000,1,9,N","010000,1,N,1","+0210,1","+0054,1","09988,1",,,,,,"00,1,+99999,9,99,9","00,99,1,00,1,00,1,99999,9,00,1,00,1",,,,,"99999,9,09280,1","4,1,000,1,+999,9",,"SYN060AAXX  14094 08226 42960 0//// 10210 20054 39280 49988 54000;",
"08226099999","2010-09-14T12:00:00","4","40.6666666","-3.1666666","640.0","GUADALAJARA, SP","FM-12","99999","V020","999,9,9,9999,9","22000,1,9,N","010000,1,N,1","+0285,1","+0066,1","09960,1","06,0000,9,1",,,,,"00,1,+99999,9,99,9","00,99,1,00,1,00,1,99999,9,00,1,00,1",,,,,"99999,9,09271,1","8,1,009,1,+999,9",,"SYN066AAXX  14124 08226 12960 0//// 10285 20066 39271 49960 58009 60001;","Q01  00002PRCP06"
"08226099999","2010-09-15T06:00:00","4","40.6666666","-3.1666666","640.0","GUADALAJARA, SP","FM-12","99999","V020","999,9,9,9999,9","99999,9,9,N","010000,1,N,1","+0112,1","+0084,1","09985,1","12,0000,9,1","24,0000,9,1",,,,,"05,99,1,00,1,00,1,99999,9,00,1,05,1",,,,"999,N,+0090,1","99999,9,09254,1","1,1,010,1,+999,9",,"SYN100AAXX  15064 08226 12960 5//// 10112 20084 39254 49985 51010 60002 80005 333 20090 50804 55/// 70000;","Q01  00002PRCP24Q02  00002PRCP12"
"08226099999","2010-09-15T09:00:00","4","40.6666666","-3.1666666","640.0","GUADALAJARA, SP","FM-12","99999","V020","999,9,9,9999,9","22000,1,9,N","010000,1,N,1","+0210,1","+0105,1","09959,1",,,,,,,"03,99,1,00,1,00,1,99999,9,00,1,05,1",,,,,"99999,9,09254,1","4,1,000,1,+999,9",,"SYN066AAXX  15094 08226 42960 3//// 10210 20105 39254 49959 54000 80005;",
"08226099999","2010-09-15T12:00:00","4","40.6666666","-3.1666666","640.0","GUADALAJARA, SP","FM-12","99999","V020","999,9,9,9999,9","22000,1,9,N","010000,1,N,1","+0300,2","+0100,1","09916,1","06,0000,9,1",,,,,,"02,99,1,00,1,00,1,99999,9,00,1,05,1",,,,,"99999,9,09234,1","8,1,020,1,+999,9",,"SYN072AAXX  15124 08226 12960 2//// 10300 20100 39234 49916 58020 60001 80005;","Q01  00002PRCP06"
"08226099999","2010-09-16T06:00:00","4","40.6666666","-3.1666666","640.0","GUADALAJARA, SP","FM-12","99999","V020","999,9,9,9999,9","01200,1,9,N","010000,1,N,1","+0190,1","+0113,1","09888,1","12,0000,9,1","24,0000,9,1",,,,,"08,99,1,08,1,07,1,01250,1,00,1,00,1",,,,"999,N,+0180,1","99999,9,09184,1","5,1,000,1,+999,9",,"SYN100AAXX  16064 08226 12660 8//// 10190 20113 39184 49888 55000 60002 88700 333 20180 50604 55/// 70000;","Q01  00002PRCP24Q02  00002PRCP12"
"08226099999","2010-09-16T09:00:00","4","40.6666666","-3.1666666","640.0","GUADALAJARA, SP","FM-12","99999","V020","999,9,9,9999,9","01200,1,9,N","010000,1,N,1","+0188,1","+0175,1","09909,1",,,,"2,1,03,1","2,1,03,1",,"08,99,1,08,1,07,1,01250,1,00,1,00,1",,,,,"99999,9,09204,1","1,1,020,1,+999,9","51,1","SYN072AAXX  16094 08226 41660 8//// 10188 20175 39204 49909 51020 75122 88700;",
"08226099999","2010-09-16T12:00:00","4","40.6666666","-3.1666666","640.0","GUADALAJARA, SP","FM-12","99999","V020","999,9,9,9999,9","01200,1,9,N","010000,1,N,1","+0222,1","+0158,1","09890,1","06,0020,9,1",,,"5,1,06,1","2,1,06,1",,"08,99,1,08,1,07,1,01250,1,00,1,00,1",,,,,"99999,9,09194,1","8,1,010,1,+999,9","02,1","SYN078AAXX  16124 08226 11660 8//// 10222 20158 39194 49890 58010 60021 70252 88700;",
"08226099999","2010-09-17T06:00:00","4","40.6666666","-3.1666666","640.0","GUADALAJARA, SP","FM-12","99999","V020","999,9,9,9999,9","01200,1,9,N","010000,1,N,1","+0150,1","+0150,1","09861,1","12,0109,9,1","24,0130,9,1",,,,,"08,99,1,08,1,07,1,01250,1,00,1,00,1",,,,"999,N,+0140,1","99999,9,09150,1","4,1,000,1,+999,9",,"SYN100AAXX  17064 08226 12660 8//// 10150 20150 39150 49861 54000 60112 88700 333 20140 50204 55/// 70130;",
"08226099999","2010-09-17T09:00:00","4","40.6666666","-3.1666666","640.0","GUADALAJARA, SP","FM-12","99999","V020","999,9,9,9999,9","01200,1,9,N","010000,1,N,1","+0176,1","+0166,1","09854,1",,,,,,,"08,99,1,08,1,07,1,01250,1,00,1,00,1",,,,,"99999,9,09150,1","4,1,000,1,+999,9",,"SYN066AAXX  17094 08226 42660 8//// 10176 20166 39150 49854 54000 88700;",
"08226099999","2010-09-17T12:00:00","4","40.6666666","-3.1666666","640.0","GUADALAJARA, SP","FM-12","99999","V020","999,9,9,9999,9","01200,1,9,N","010000,1,N,1","+0192,1","+0177,1","09843,1","06,0000,9,1",,,,,,"08,99,1,08,1,07,1,01250,1,00,1,00,1",,,,,"99999,9,09144,1","8,1,006,1,+999,9",,"SYN072AAXX  17124 08226 12660 8//// 10192 20177 39144 49843 58006 60001 88700;","Q01  00002PRCP06"
"08226099999","2010-09-18T06:00:00","4","40.6666666","-3.1666666","640.0","GUADALAJARA, SP","FM-12","99999","V020","999,9,9,9999,9","01200,1,9,N","010000,1,N,1","+0140,1","+0134,1","09879,1","12,0061,9,1","24,0061,9,1",,,,,"07,99,1,07,1,04,1,01250,1,00,1,00,1",,,,"999,N,+0130,1","99999,9,09164,1","3,1,010,1,+999,9",,"SYN100AAXX  18064 08226 12660 7//// 10140 20134 39164 49879 53010 60062 87400 333 20130 50204 55/// 70060;",
"08226099999","2010-09-18T09:00:00","4","40.6666666","-3.1666666","640.0","GUADALAJARA, SP","FM-12","99999","V020","999,9,9,9999,9","01200,1,9,N","010000,1,N,1","+0150,1","+0094,1","09899,1",,,,,,,"07,99,1,07,1,04,1,01250,1,00,1,00,1",,,,,"99999,9,09184,1","1,1,020,1,+999,9",,"SYN066AAXX  18094 08226 42660 7//// 10150 20094 39184 49899 51020 87400;",
"08226099999","2010-09-18T12:00:00","4","40.6666666","-3.1666666","640.0","GUADALAJARA, SP","FM-12","99999","V020","999,9,9,9999,9","22000,1,9,N","010000,1,N,1","+0200,1","+0139,1","09892,1","06,0000,9,1",,,,,,"04,99,1,04,1,02,1,01250,1,00,1,00,1",,,,,"99999,9,09190,1","1,1,006,1,+999,9",,"SYN072AAXX  18124 08226 12660 4//// 10200 20139 39190 49892 51006 60001 84200;","Q01  00002PRCP06"
"08226099999","2010-09-19T06:00:00","4","40.6666666","-3.1666666","640.0","GUADALAJARA, SP","FM-12","99999","V020","999,9,9,9999,9","22000,1,9,N","010000,1,N,1","+0110,1","+0110,1","09931,1","12,0000,9,1","24,0000,9,1",,,,"00,1,+99999,9,99,9","00,99,1,00,1,00,1,99999,9,00,1,00,1",,,,"999,N,+0110,1","99999,9,09204,1","4,1,000,1,+999,9",,"SYN094AAXX  19064 08226 12960 0//// 10110 20110 39204 49931 54000 60002 333 20110 50204 55/// 70000;","Q01  00002PRCP24Q02  00002PRCP12"
"08226099999","2010-09-19T09:00:00","4","40.6666666","-3.1666666","640.0","GUADALAJARA, SP","FM-12","99999","V020","999,9,9,9999,9","22000,1,9,N","010000,1,N,1","+0160,1","+0105,1","09929,1",,,,,,"00,1,+99999,9,99,9","00,99,1,00,1,00,1,99999,9,00,1,00,1",,,,,"99999,9,09214,1","1,1,010,1,+999,9",,"SYN060AAXX  19094 08226 42960 0//// 10160 20105 39214 49929 51010;",
"08226099999","2010-09-19T12:00:00","4","40.6666666","-3.1666666","640.0","GUADALAJARA, SP","FM-12","99999","V020","999,9,9,9999,9","22000,1,9,N","010000,1,N,1","+0230,1","+0148,1","09899,1","06,0000,9,1",,,,,,"02,99,1,02,1,02,1,01750,1,00,1,00,1",,,,,"99999,9,09204,1","8,1,010,1,+999,9",,"SYN072AAXX  19124 08226 12760 2//// 10230 20148 39204 49899 58010 60001 82200;","Q01  00002PRCP06"
"08226099999","2010-09-20T06:00:00","4","40.6666666","-3.1666666","640.0","GUADALAJARA, SP","FM-12","99999","V020","999,9,9,9999,9","22000,1,9,N","010000,1,N,1","+0120,1","+0117,1","09917,1","12,0000,9,1","24,0000,9,1",,,,,"02,99,1,00,1,00,1,99999,9,00,1,01,1",,,,"999,N,+0110,1","99999,9,09194,1","4,1,000,1,+999,9",,"SYN100AAXX  20064 08226 12960 2//// 10120 20117 39194 49917 54000 60002 80001 333 20110 50254 55/// 70000;","Q01  00002PRCP24Q02  00002PRCP12"
"08226099999","2010-09-20T09:00:00","4","40.6666666","-3.1666666","640.0","GUADALAJARA, SP","FM-12","99999","V020","999,9,9,9999,9","01500,1,9,N","010000,1,N,1","+0150,1","+0096,1","09921,1",,,,,,,"08,99,1,08,1,06,1,01750,1,00,1,00,1",,,,,"99999,9,09204,1","1,1,010,1,+999,9",,"SYN066AAXX  20094 08226 42760 8//// 10150 20096 39204 49921 51010 88600;",
"08226099999","2010-09-20T12:00:00","4","40.6666666","-3.1666666","640.0","GUADALAJARA, SP","FM-12","99999","V020","999,9,9,9999,9","01500,1,9,N","010000,1,N,1","+0190,1","+0143,1","09909,1","06,0000,9,1",,,,,,"08,99,1,08,1,07,1,01750,1,00,1,00,1",,,,,"99999,9,09204,1","4,1,000,1,+999,9",,"SYN072AAXX  20124 08226 12760 8//// 10190 20143 39204 49909 54000 60001 88700;","Q01  00002PRCP06"
"08226099999","2010-09-21T06:00:00","4","40.6666666","-3.1666666","640.0","GUADALAJARA, SP","FM-12","99999","V020","999,9,9,9999,9","22000,1,9,N","010000,1,N,1","+0110,1","+0110,1","09941,1","12,0000,9,1","24,0000,9,1",,,,,"02,99,1,02,1,07,1,01750,1,00,1,00,1",,,,"999,N,+0100,1","99999,9,09214,1","3,1,010,1,+999,9",,"SYN100AAXX  21064 08226 12760 2//// 10110 20110 39214 49941 53010 60002 82700 333 20100 50054 55/// 70000;","Q01  00002PRCP24Q02  00002PRCP12"
"08226099999","2010-09-21T09:00:00","4","40.6666666","-3.1666666","640.0","GUADALAJARA, SP","FM-12","99999","V020","999,9,9,9999,9","22000,1,9,N","010000,1,N,1","+0140,1","+0086,1","09945,1",,,,,,,"04,99,1,04,1,07,1,01750,1,00,1,00,1",,,,,"99999,9,09224,1","2,1,010,1,+999,9",,"SYN066AAXX  21094 08226 42760 4//// 10140 20086 39224 49945 52010 84700;",
"08226099999","2010-09-21T12:00:00","4","40.6666666","-3.1666666","640.0","GUADALAJARA, SP","FM-12","99999","V020","999,9,9,9999,9","22000,1,9,N","010000,1,N,1","+0220,1","+0144,1","09919,1","06,0000,9,1",,,,,"00,1,+99999,9,99,9","00,99,1,00,1,00,1,99999,9,00,1,00,1",,,,,"99999,9,09220,1","8,1,004,1,+999,9",,"SYN066AAXX  21124 08226 12960 0//// 10220 20144 39220 49919 58004 60001;","Q01  00002PRCP06"
"08226099999","2010-09-22T06:00:00","4","40.6666666","-3.1666666","640.0","GUADALAJARA, SP","FM-12","99999","V020","999,9,9,9999,9","22000,1,9,N","010000,1,N,1","+0110,1","+0110,1","09952,1","12,0000,9,1","24,0000,9,1",,,,,"03,99,1,03,1,07,1,01250,1,00,1,00,1",,,,"999,N,+0100,1","99999,9,09224,1","4,1,000,1,+999,9",,"SYN100AAXX  22064 08226 12660 3//// 10110 20110 39224 49952 54000 60002 83700 333 20100 50254 55/// 70000;","Q01  00002PRCP24Q02  00002PRCP12"
"08226099999","2010-09-22T09:00:00","4","40.6666666","-3.1666666","640.0","GUADALAJARA, SP","FM-12","99999","V020","999,9,9,9999,9","03600,1,9,N","010000,1,N,1","+0150,1","+0085,1","09953,1",,,,,,,"06,99,1,04,1,07,1,01750,1,07,1,00,1",,,,,"99999,9,09234,1","1,1,010,1,+999,9",,"SYN066AAXX  22094 08226 42760 6//// 10150 20085 39234 49953 51010 84770;",
"08226099999","2010-09-22T12:00:00","4","40.6666666","-3.1666666","640.0","GUADALAJARA, SP","FM-12","99999","V020","999,9,9,9999,9","01200,1,9,N","010000,1,N,1","+0232,1","+0153,1","09913,1","06,0000,9,1",,,,,,"06,99,1,06,1,02,1,01250,1,00,1,00,1",,,,,"99999,9,09217,1","8,1,017,1,+999,9",,"SYN072AAXX  22124 08226 12660 6//// 10232 20153 39217 49913 58017 60001 86200;","Q01  00002PRCP06"
"08226099999","2010-09-23T06:00:00","4","40.6666666","-3.1666666","640.0","GUADALAJARA, SP","FM-12","99999","V020","999,9,9,9999,9","01500,1,9,N","010000,1,N,1","+0120,1","+0101,1","09928,1","12,0000,9,1","24,0000,9,1",,,,,"08,99,1,08,1,00,1,01750,1,02,1,00,1",,,,"999,N,+0120,1","99999,9,09204,1","4,1,000,1,+999,9",,"SYN100AAXX  23064 08226 12760 8//// 10120 20101 39204 49928 54000 60002 88020 333 20120 50304 55/// 70000;","Q01  00002PRCP24Q02  00002PRCP12"
"08226099999","2010-09-23T09:00:00","4","40.6666666","-3.1666666","640.0","GUADALAJARA, SP","FM-12","99999","V020","999,9,9,9999,9","01500,1,9,N","010000,1,N,1","+0160,1","+0105,1","09918,1",,,,,,,"08,99,1,08,1,00,1,01750,1,02,1,00,1",,,,,"99999,9,09204,1","4,1,000,1,+999,9",,"SYN066AAXX  23094 08226 42760 8//// 10160 20105 39204 49918 54000 88020;",
"08226099999","2010-09-23T12:00:00","4","40.6666666","-3.1666666","640.0","GUADALAJARA, SP","FM-12","99999","V020","999,9,9,9999,9","03600,1,9,N","010000,1,N,1","+0226,1","+0142,1","09898,1","06,0000,9,1",,,,,,"08,99,1,04,1,07,1,01750,1,02,1,00,1",,,,,"99999,9,09202,1","8,1,002,1,+999,9",,"SYN072AAXX  23124 08226 12760 8//// 10226 20142 39202 49898 58002 60001 84720;","Q01  00002PRCP06"
"08226099999","2010-09-24T06:00:00","4","40.6666666","-3.1666666","640.0","GUADALAJARA, SP","FM-12","99999","V020","999,9,9,9999,9","22000,1,9,N","010000,1,N,1","+0110,1","+0110,1","09898,1","12,0000,9,1","24,0000,9,1",,,,,"04,99,1,04,1,07,1,01250,1,00,1,00,1",,,,"999,N,+0100,1","99999,9,09174,1","4,1,000,1,+999,9",,"SYN100AAXX  24064 08226 12660 4//// 10110 20110 39174 49898 54000 60002 84700 333 20100 50254 55/// 70000;","Q01  00002PRCP24Q02  00002PRCP12"
"08226099999","2010-09-24T09:00:00","4","40.6666666","-3.1666666","640.0","GUADALAJARA, SP","FM-12","99999","V020","999,9,9,9999,9","22000,1,9,N","010000,1,N,1","+0180,1","+0129,1","09886,1",,,,,,,"04,99,1,04,1,02,1,01250,1,00,1,00,1",,,,,"99999,9,09180,1","1,1,006,1,+999,9",,"SYN066AAXX  24094 08226 42660 4//// 10180 20129 39180 49886 51006 84200;",
"08226099999","2010-09-24T12:00:00","4","40.6666666","-3.1666666","640.0","GUADALAJARA, SP","FM-12","99999","V020","999,9,9,9999,9","01500,1,9,N","010000,1,N,1","+0216,1","+0098,1","09872,1","06,0000,9,1",,,,,,"06,99,1,06,1,08,1,01250,1,00,1,00,1",,,,,"99999,9,09174,1","8,1,006,1,+999,9",,"SYN072AAXX  24124 08226 12660 6//// 10216 20098 39174 49872 58006 60001 86800;","Q01  00002PRCP06"
"08226099999","2010-09-25T06:00:00","4","40.6666666","-3.1666666","640.0","GUADALAJARA, SP","FM-12","99999","V020","999,9,9,9999,9","22000,1,9,N","010000,1,N,1","+0068,1","+0064,1","09900,1","12,0000,9,1","24,0000,9,1",,,,"00,1,+99999,9,99,9","00,99,1,00,1,00,1,99999,9,00,1,00,1",,,,"999,N,+0068,1","99999,9,09164,1","2,1,008,1,+999,9",,"SYN088AAXX  25064 08226 12960 0//// 10068 20064 39164 49900 52008 60002 333 20068 55/// 70000;","Q01  00002PRCP24Q02  00002PRCP12"
"08226099999","2010-09-25T09:00:00","4","40.6666666","-3.1666666","640.0","GUADALAJARA, SP","FM-12","99999","V020","999,9,9,9999,9","22000,1,9,N","010000,1,N,1","+0149,1","+0075,1","09889,1",,,,,,"00,1,+99999,9,99,9","00,99,1,00,1,00,1,99999,9,00,1,00,1",,,,,"99999,9,09174,1","2,1,010,1,+999,9",,"SYN060AAXX  25094 08226 42960 0//// 10149 20075 39174 49889 52010;",
"08226099999","2010-09-25T12:00:00","4","40.6666666","-3.1666666","640.0","GUADALAJARA, SP","FM-12","99999","V020","999,9,9,9999,9","22000,1,9,N","010000,1,N,1","+0188,1","+0069,1","09879,1","06,0000,9,1",,,,,,"02,99,1,02,1,01,1,01750,1,00,1,00,1",,,,,"99999,9,09174,1","4,1,000,1,+999,9",,"SYN072AAXX  25124 08226 12760 2//// 10188 20069 39174 49879 54000 60001 82100;","Q01  00002PRCP06"
"08226099999","2010-09-26T06:00:00","4","40.6666666","-3.1666666","640.0","GUADALAJARA, SP","FM-12","99999","V020","999,9,9,9999,9","22000,1,9,N","010000,1,N,1","+0050,1","+0050,1","09903,1","12,0000,9,1","24,0000,9,1",,,,"00,1,+99999,9,99,9","00,99,1,00,1,00,1,99999,9,00,1,00,1",,,,"999,N,+0040,1","99999,9,09162,1","4,1,000,1,+999,9",,"SYN088AAXX  26064 08226 12960 0//// 10050 20050 39162 49903 54000 60002 333 20040 55/// 70000;","Q01  00002PRCP24Q02  00002PRCP12"
"08226099999","2010-09-26T09:00:00","4","40.6666666","-3.1666666","640.0","GUADALAJARA, SP","FM-12","99999","V020","999,9,9,9999,9","22000,1,9,N","010000,1,N,1","+0130,1","+0061,1","09883,1",,,,,,"00,1,+99999,9,99,9","00,99,1,00,1,00,1,99999,9,00,1,00,1",,,,,"99999,9,09164,1","2,1,002,1,+999,9",,"SYN060AAXX  26094 08226 42960 0//// 10130 20061 39164 49883 52002;",
"08226099999","2010-09-26T12:00:00","4","40.6666666","-3.1666666","640.0","GUADALAJARA, SP","FM-12","99999","V020","999,9,9,9999,9","22000,1,9,N","010000,1,N,1","+0170,1","+0059,1","09873,1","06,0000,9,1",,,,,"00,1,+99999,9,99,9","00,99,1,00,1,00,1,99999,9,00,1,00,1",,,,,"99999,9,09164,1","4,1,000,1,+999,9",,"SYN066AAXX  26124 08226 12960 0//// 10170 20059 39164 49873 54000 60001;","Q01  00002PRCP06"
"08226099999","2010-09-27T06:00:00","4","40.6666666","-3.1666666","640.0","GUADALAJARA, SP","FM-12","99999","V020","999,9,9,9999,9","22000,1,9,N","010000,1,N,1","+0048,1","+0044,1","09912,1","12,0000,9,1","24,0000,9,1",,,,,"02,99,1,01,1,00,1,01750,1,08,1,01,1",,,,"999,N,+0040,1","99999,9,09170,1","4,1,000,1,+999,9",,"SYN094AAXX  27064 08226 12760 2//// 10048 20044 39170 49912 54000 60002 81081 333 20040 55/// 70000;","Q01  00002PRCP24Q02  00002PRCP12"
"08226099999","2010-09-27T09:00:00","4","40.6666666","-3.1666666","640.0","GUADALAJARA, SP","FM-12","99999","V020","999,9,9,9999,9","22000,1,9,N","010000,1,N,1","+0118,1","+0065,1","09899,1",,,,,,,"04,99,1,02,1,00,1,01750,1,08,1,08,1",,,,,"99999,9,09176,1","2,1,006,1,+999,9",,"SYN066AAXX  27094 08226 42760 4//// 10118 20065 39176 49899 52006 82088;",
"08226099999","2010-09-27T12:00:00","4","40.6666666","-3.1666666","640.0","GUADALAJARA, SP","FM-12","99999","V020","999,9,9,9999,9","22000,1,9,N","010000,1,N,1","+0193,1","+0064,1","09876,1","06,0000,9,1",,,,,,"06,99,1,02,1,00,1,01750,1,08,1,06,1",,,,,"99999,9,09172,1","7,1,004,1,+999,9",,"SYN072AAXX  27124 08226 12760 6//// 10193 20064 39172 49876 57004 60001 82086;","Q01  00002PRCP06"
"08226099999","2010-09-28T06:00:00","4","40.6666666","-3.1666666","640.0","GUADALAJARA, SP","FM-12","99999","V020","999,9,9,9999,9","22000,1,9,N","010000,1,N,1","+0054,1","+0045,1","09934,1","12,0000,9,1","24,0000,9,1",,,,"00,1,+99999,9,99,9","00,99,1,00,1,00,1,99999,9,00,1,00,1",,,,"999,N,+0040,1","99999,9,09192,1","2,1,012,1,+999,9",,"SYN088AAXX  28064 08226 12960 0//// 10054 20045 39192 49934 52012 60002 333 20040 55/// 70000;","Q01  00002PRCP24Q02  00002PRCP12"
"08226099999","2010-09-28T09:00:00","4","40.6666666","-3.1666666","640.0","GUADALAJARA, SP","FM-12","99999","V020","999,9,9,9999,9","22000,1,9,N","010000,1,N,1","+0136,1","+0065,1","09925,1",,,,,,"00,1,+99999,9,99,9","00,99,1,00,1,00,1,99999,9,00,1,00,1",,,,,"99999,9,09204,1","2,1,012,1,+999,9",,"SYN060AAXX  28094 08226 42960 0//// 10136 20065 39204 49925 52012;",
"08226099999","2010-09-28T12:00:00","4","40.6666666","-3.1666666","640.0","GUADALAJARA, SP","FM-12","99999","V020","999,9,9,9999,9","22000,1,9,N","010000,1,N,1","+0214,1","+0076,1","09905,1","06,0000,9,1",,,,,,"01,99,1,01,1,01,1,01750,1,00,1,00,1",,,,,"99999,9,09204,1","4,1,000,1,+999,9",,"SYN072AAXX  28124 08226 12760 1//// 10214 20076 39204 49905 54000 60001 81100;","Q01  00002PRCP06"
"08226099999","2010-09-29T06:00:00","4","40.6666666","-3.1666666","640.0","GUADALAJARA, SP","FM-12","99999","V020","999,9,9,9999,9","22000,1,9,N","010000,1,N,1","+0050,1","+0041,1","09970,1","12,0000,9,1","24,0000,9,1",,,,,"01,99,1,00,1,00,1,99999,9,00,1,01,1",,,,"999,N,+0040,1","99999,9,09224,1","4,1,000,1,+999,9",,"SYN094AAXX  29064 08226 12860 1//// 10050 20041 39224 49970 54000 60002 80001 333 20040 55/// 70000;","Q01+022502SCOLCBQ02  00002PRCP24Q03  00002PRCP12"
"08226099999","2010-09-29T09:00:00","4","40.6666666","-3.1666666","640.0","GUADALAJARA, SP","FM-12","99999","V020","999,9,9,9999,9","22000,1,9,N","010000,1,N,1","+0140,1","+0046,1","09954,1",,,,,,,"01,99,1,00,1,00,1,99999,9,00,1,01,1",,,,,"99999,9,09232,1","2,1,008,1,+999,9",,"SYN066AAXX  29094 08226 42860 1//// 10140 20046 39232 49954 52008 80001;","Q01+022502SCOLCB"
"08226099999","2010-09-29T12:00:00","4","40.6666666","-3.1666666","640.0","GUADALAJARA, SP","FM-12","99999","V020","999,9,9,9999,9","22000,1,9,N","010000,1,N,1","+0234,1","+0075,1","09922,1","06,0000,9,1",,,,,,"03,99,1,00,1,00,1,99999,9,00,1,01,1",,,,,"99999,9,09224,1","7,1,008,1,+999,9",,"SYN072AAXX  29124 08226 12860 3//// 10234 20075 39224 49922 57008 60001 80001;","Q01+022502SCOLCBQ02  00002PRCP06"
"08226099999","2010-09-30T06:00:00","4","40.6666666","-3.1666666","640.0","GUADALAJARA, SP","FM-12","99999","V020","999,9,9,9999,9","22000,1,9,N","010000,1,N,1","+0060,1","+0051,1","09956,1","12,0000,9,1","24,0000,9,1",,,,"00,1,+99999,9,99,9","00,99,1,00,1,00,1,99999,9,00,1,00,1",,,,"999,N,+0060,1","99999,9,09214,1","3,1,002,1,+999,9",,"SYN088AAXX  30064 08226 12960 0//// 10060 20051 39214 49956 53002 60002 333 20060 55/// 70000;","Q01  00002PRCP24Q02  00002PRCP12"
"08226099999","2010-09-30T09:00:00","4","40.6666666","-3.1666666","640.0","GUADALAJARA, SP","FM-12","99999","V020","999,9,9,9999,9","22000,1,9,N","010000,1,N,1","+0153,1","+0083,1","09935,1",,,,,,"00,1,+99999,9,99,9","00,99,1,00,1,00,1,99999,9,00,1,00,1",,,,,"99999,9,09218,1","1,1,004,1,+999,9",,"SYN060AAXX  30094 08226 42960 0//// 10153 20083 39218 49935 51004;",
"08226099999","2010-09-30T12:00:00","4","40.6666666","-3.1666666","640.0","GUADALAJARA, SP","FM-12","99999","V020","999,9,9,9999,9","03600,1,9,N","010000,1,N,1","+0236,2","+0060,1","09904,1","06,0000,9,1",,,,,,"06,99,1,03,1,07,1,01750,1,08,1,08,1",,,,,"99999,9,09208,1","7,1,010,1,+999,9",,"SYN072AAXX  30124 08226 12760 6//// 10236 20060 39208 49904 57010 60001 83788;","Q01  00002PRCP06"
"08226099999","2010-10-01T06:00:00","4","40.6666666","-3.1666666","640.0","GUADALAJARA, SP","FM-12","99999","V020","999,9,9,9999,9","22000,1,9,N","010000,1,N,1","+0066,1","+0062,1","09920,1","12,0000,9,1","24,0000,9,1",,,,,"01,99,1,01,1,00,1,02250,1,08,1,01,1",,,,"999,N,+0066,1","99999,9,09182,1","7,1,002,1,+999,9",,"SYN094AAXX  01064 08226 12860 1//// 10066 20062 39182 49920 57002 60002 81081 333 20066 55/// 70000;","Q01  00002PRCP24Q02  00002PRCP12"
"08226099999","2010-10-01T09:00:00","4","40.6666666","-3.1666666","640.0","GUADALAJARA, SP","FM-12","99999","V020","999,9,9,9999,9","22000,1,9,N","010000,1,N,1","+0146,1","+0098,1","09904,1",,,,,,"00,1,+99999,9,99,9","00,99,1,00,1,00,1,99999,9,00,1,00,1",,,,,"99999,9,09188,1","2,1,006,1,+999,9",,"SYN060AAXX  01094 08226 42960 0//// 10146 20098 39188 49904 52006;",
"08226099999","2010-10-01T12:00:00","4","40.6666666","-3.1666666","640.0","GUADALAJARA, SP","FM-12","99999","V020","999,9,9,9999,9","22000,1,9,N","010000,1,N,1","+0232,1","+0103,1","09874,1","06,0000,9,1",,,,,"00,1,+99999,9,99,9","00,99,1,00,1,00,1,99999,9,00,1,00,1",,,,,"99999,9,09180,1","7,1,008,1,+999,9",,"SYN066AAXX  01124 08226 12960 0//// 10232 20103 39180 49874 57008 60001;","Q01  00002PRCP06"
"08226099999","2010-10-02T06:00:00","4","40.6666666","-3.1666666","640.0","GUADALAJARA, SP","FM-12","99999","V020","999,9,9,9999,9","22000,1,9,N","010000,1,N,1","+0058,1","+0054,1","09913,1","12,0000,9,1","24,0000,9,1",,,,,"02,99,1,02,1,00,1,02250,1,08,1,00,1",,,,"999,N,+0058,1","99999,9,09174,1","4,1,000,1,+999,9",,"SYN094AAXX  02064 08226 12860 2//// 10058 20054 39174 49913 54000 60002 82080 333 20058 55/// 70000;","Q01  00002PRCP24Q02  00002PRCP12"
"08226099999","2010-10-02T09:00:00","4","40.6666666","-3.1666666","640.0","GUADALAJARA, SP","FM-12","99999","V020","999,9,9,9999,9","22000,1,9,N","010000,1,N,1","+0162,1","+0092,1","09896,1",,,,,,,"01,99,1,01,1,00,1,02250,1,08,1,01,1",,,,,"99999,9,09184,1","2,1,010,1,+999,9",,"SYN066AAXX  02094 08226 42860 1//// 10162 20092 39184 49896 52010 81081;",
"08226099999","2010-10-02T12:00:00","4","40.6666666","-3.1666666","640.0","GUADALAJARA, SP","FM-12","99999","V020","999,9,9,9999,9","22000,1,9,N","010000,1,N,1","+0236,2","+0068,1","09866,1","06,0000,9,1",,,,,"00,1,+99999,9,99,9","00,99,1,00,1,00,1,99999,9,00,1,00,1",,,,,"99999,9,09173,1","7,1,011,1,+999,9",,"SYN066AAXX  02124 08226 12960 0//// 10236 20068 39173 49866 57011 60001;","Q01  00002PRCP06"
"08226099999","2010-10-03T06:00:00","4","40.6666666","-3.1666666","640.0","GUADALAJARA, SP","FM-12","99999","V020","999,9,9,9999,9","22000,1,9,N","010000,1,N,1","+0052,1","+0048,1","09874,1","12,0000,9,1","24,0000,9,1",,,,,"03,99,1,01,1,07,1,01750,1,08,1,01,1",,,,"999,N,+0050,1","99999,9,09136,1","7,1,008,1,+999,9",,"SYN094AAXX  03064 08226 12760 3//// 10052 20048 39136 49874 57008 60002 81781 333 20050 55/// 70000;","Q01  00002PRCP24Q02  00002PRCP12"
"08226099999","2010-10-03T09:00:00","4","40.6666666","-3.1666666","640.0","GUADALAJARA, SP","FM-12","99999","V020","999,9,9,9999,9","09000,1,9,N","010000,1,N,1","+0162,2","+0082,1","09853,1",,,,,,,"05,99,1,02,1,07,1,01750,1,08,1,01,1",,,,,"99999,9,09144,1","2,1,008,1,+999,9",,"SYN066AAXX  03094 08226 42760 5//// 10162 20082 39144 49853 52008 82781;",
"08226099999","2010-10-03T12:00:00","4","40.6666666","-3.1666666","640.0","GUADALAJARA, SP","FM-12","99999","V020","999,9,9,9999,9","01500,1,9,N","010000,1,N,1","+0162,1","+0101,1","09851,1","06,0000,9,1",,,,,,"08,99,1,08,1,07,1,01750,1,99,9,99,9",,,,,"99999,9,09142,1","7,1,002,1,+999,9",,"SYN072AAXX  03124 08226 12760 8//// 10162 20101 39142 49851 57002 60001 887//;","Q01  00002PRCP06"
"08226099999","2010-10-04T06:00:00","4","40.6666666","-3.1666666","640.0","GUADALAJARA, SP","FM-12","99999","V020","999,9,9,9999,9","22000,1,9,N","020000,1,N,1","+0116,1","+0116,1","09812,1","12,0041,9,2","24,0036,9,2",,,,,"04,99,1,04,1,07,1,01750,1,00,1,00,1",,,,"999,N,+0116,1","99999,9,09096,1","2,1,014,1,+999,9",,"SYN094AAXX  04064 08226 12770 4//// 10116 20116 39096 49812 52014 60042 84700 333 20116 55/// 70035;",
"08226099999","2010-10-04T09:00:00","4","40.6666666","-3.1666666","640.0","GUADALAJARA, SP","FM-12","99999","V020","999,9,9,9999,9","03600,1,9,N","010000,1,N,1","+0150,1","+0106,1","09834,1",,,,,,,"06,99,1,04,1,07,1,01750,1,09,1,01,1",,,,,"99999,9,09124,1","2,1,028,1,+999,9",,"SYN066AAXX  04094 08226 42760 6//// 10150 20106 39124 49834 52028 84791;",
"08226099999","2010-10-04T12:00:00","4","40.6666666","-3.1666666","640.0","GUADALAJARA, SP","FM-12","99999","V020","999,9,9,9999,9","01500,1,9,N","010000,1,N,1","+0176,1","+0095,1","09836,1","06,0000,9,1",,,,,,"06,99,1,06,1,07,1,01750,1,00,1,00,1",,,,,"99999,9,09132,1","2,1,008,1,+999,9",,"SYN072AAXX  04124 08226 12760 6//// 10176 20095 39132 49836 52008 60001 86700;","Q01  00002PRCP06"
"08226099999","2010-10-05T06:00:00","4","40.6666666","-3.1666666","640.0","GUADALAJARA, SP","FM-12","99999","V020","999,9,9,9999,9","22000,1,9,N","010000,1,N,1","+0028,1","+0028,1","09924,1","12,0000,9,1","24,0000,9,1",,,,,"01,99,1,00,1,00,1,99999,9,00,1,01,1",,,,"999,N,+0028,1","99999,9,09176,1","3,1,002,1,+999,9",,"SYN094AAXX  05064 08226 12860 1//// 10028 20028 39176 49924 53002 60002 80001 333 20028 55/// 70000;","Q01+022502SCOLCBQ02  00002PRCP24Q03  00002PRCP12"
"08226099999","2010-10-05T09:00:00","4","40.6666666","-3.1666666","640.0","GUADALAJARA, SP","FM-12","99999","V020","999,9,9,9999,9","22000,1,9,N","010000,1,N,1","+0100,1","+0076,1","09912,1",,,,,,,"02,99,1,00,1,00,1,99999,9,00,1,01,1",,,,,"99999,9,09184,1","1,1,008,1,+999,9",,"SYN066AAXX  05094 08226 42860 2//// 10100 20076 39184 49912 51008 80001;","Q01+022502SCOLCB"
"08226099999","2010-10-05T12:00:00","4","40.6666666","-3.1666666","640.0","GUADALAJARA, SP","FM-12","99999","V020","999,9,9,9999,9","22000,1,9,N","010000,1,N,1","+0196,1","+0089,1","09877,1","06,0000,9,1",,,,,,"02,99,1,00,1,00,1,99999,9,00,1,01,1",,,,,"99999,9,09174,1","7,1,010,1,+999,9",,"SYN072AAXX  05124 08226 12860 2//// 10196 20089 39174 49877 57010 60001 80001;","Q01+022502SCOLCBQ02  00002PRCP06"
"08226099999","2010-10-06T06:00:00","4","40.6666666","-3.1666666","640.0","GUADALAJARA, SP","FM-12","99999","V020","999,9,9,9999,9","22000,1,9,N","010000,1,N,1","+0050,1","+0050,1","09883,1","12,0000,9,1","24,0000,9,1",,,,"00,1,+99999,9,99,9","00,99,1,00,1,00,1,99999,9,00,1,00,1",,,,"999,N,+0050,1","99999,9,09144,1","4,1,000,1,+999,9",,"SYN094AAXX  06064 08226 12960 0//// 10050 20050 39144 49883 54000 60002 333 20050 50304 55/// 70000;","Q01  00002PRCP24Q02  00002PRCP12"
"08226099999","2010-10-06T09:00:00","4","40.6666666","-3.1666666","640.0","GUADALAJARA, SP","FM-12","99999","V020","999,9,9,9999,9","22000,1,9,N","010000,1,N,1","+0100,1","+0067,1","09880,1",,,,,,"00,1,+99999,9,99,9","00,99,1,00,1,00,1,99999,9,00,1,00,1",,,,,"99999,9,09154,1","3,1,010,1,+999,9",,"SYN060AAXX  06094 08226 42960 0//// 10100 20067 39154 49880 53010;",
"08226099999","2010-10-06T12:00:00","4","40.6666666","-3.1666666","640.0","GUADALAJARA, SP","FM-12","99999","V020","999,9,9,9999,9","22000,1,9,N","010000,1,N,1","+9999,9","+0115,1","09851,1","06,0000,9,1",,,,,"00,1,+99999,9,99,9","00,99,1,00,1,00,1,99999,9,00,1,00,1",,,,,"99999,9,09154,1","0,1,000,1,+999,9",,"SYN066AAXX  06124 08226 12960 0//// 10212 20115 39154 49851 50000 60001;","Q01+002123ATOT  Q02  00002PRCP06"
"08226099999","2010-10-07T06:00:00","4","40.6666666","-3.1666666","640.0","GUADALAJARA, SP","FM-12","99999","V020","999,9,9,9999,9","22000,1,9,N","010000,1,N,1","+0100,1","+0094,1","09890,1","12,0000,9,1","24,0000,9,1",,,,"00,1,+99999,9,99,9","00,99,1,00,1,00,1,99999,9,00,1,00,1",,,,"999,N,+0100,1","99999,9,09164,1","3,1,010,1,+999,9",,"SYN094AAXX  07064 08226 12960 0//// 10100 20094 39164 49890 53010 60002 333 20100 50314 55/// 70000;","Q01  00002PRCP24Q02  00002PRCP12"
"08226099999","2010-10-07T09:00:00","4","40.6666666","-3.1666666","640.0","GUADALAJARA, SP","FM-12","99999","V020","999,9,9,9999,9","22000,1,9,N","010000,1,N,1","+0150,1","+0106,1","09888,1",,,,,,"00,1,+99999,9,99,9","00,99,1,00,1,00,1,99999,9,00,1,00,1",,,,,"99999,9,09174,1","2,1,010,1,+999,9",,"SYN060AAXX  07094 08226 42960 0//// 10150 20106 39174 49888 52010;",
"08226099999","2010-10-07T12:00:00","4","40.6666666","-3.1666666","640.0","GUADALAJARA, SP","FM-12","99999","V020","999,9,9,9999,9","01500,1,9,N","010000,1,N,1","+0220,1","+0156,1","09858,1","06,0000,9,1",,,,,,"08,99,1,05,1,08,1,01250,1,05,1,00,1",,,,,"99999,9,09164,1","8,1,010,1,+999,9",,"SYN072AAXX  07124 08226 12660 8//// 10220 20156 39164 49858 58010 60001 85850;","Q01  00002PRCP06"
"08226099999","2010-10-08T06:00:00","4","40.6666666","-3.1666666","640.0","GUADALAJARA, SP","FM-12","99999","V020","999,9,9,9999,9","01200,1,9,N","010000,1,N,1","+0150,1","+0150,1","09876,1","12,0000,9,1","24,0000,9,1",,,,,"08,99,1,08,1,07,1,01250,1,00,1,00,1",,,,"999,N,+0150,1","99999,9,09164,1","4,1,000,1,+999,9",,"SYN100AAXX  08064 08226 12660 8//// 10150 20150 39164 49876 54000 60002 88700 333 20150 50404 55/// 70000;","Q01  00002PRCP24Q02  00002PRCP12"
"08226099999","2010-10-08T09:00:00","4","40.6666666","-3.1666666","640.0","GUADALAJARA, SP","FM-12","99999","V020","999,9,9,9999,9","01200,1,9,N","010000,1,N,1","+0200,1","+0164,1","09874,1",,,,,,,"08,99,1,08,1,07,1,01250,1,00,1,00,1",,,,,"99999,9,09174,1","1,1,010,1,+999,9",,"SYN066AAXX  08094 08226 42660 8//// 10200 20164 39174 49874 51010 88700;",
"08226099999","2010-10-08T12:00:00","4","40.6666666","-3.1666666","640.0","GUADALAJARA, SP","FM-12","99999","V020","999,9,9,9999,9","01200,1,9,N","010000,1,N,1","+0210,1","+0168,1","09871,1","06,0000,9,1",,,,,,"08,99,1,08,1,07,1,01250,1,00,1,00,1",,,,,"99999,9,09174,1","4,1,000,1,+999,9",,"SYN072AAXX  08124 08226 12660 8//// 10210 20168 39174 49871 54000 60001 88700;","Q01  00002PRCP06"
"08226099999","2010-10-09T06:00:00","4","40.6666666","-3.1666666","640.0","GUADALAJARA, SP","FM-12","99999","V020","999,9,9,9999,9","01200,1,9,N","010000,1,N,1","+0160,1","+0160,1","09841,1","12,0041,9,1","24,0041,9,1",,,,,"08,99,1,08,1,07,1,01250,1,00,1,00,1",,,,"999,N,+0160,1","99999,9,09134,1","8,1,010,1,+999,9",,"SYN100AAXX  09064 08226 12660 8//// 10160 20160 39134 49841 58010 60042 88700 333 20160 50504 55/// 70040;",
"08226099999","2010-10-09T09:00:00","4","40.6666666","-3.1666666","640.0","GUADALAJARA, SP","FM-12","99999","V020","999,9,9,9999,9","01200,1,9,N","010000,1,N,1","+0170,1","+0170,1","09849,1",,,,"6,1,03,1","2,1,03,1",,"08,99,1,08,1,07,1,01250,1,00,1,00,1",,,,,"99999,9,09144,1","1,1,010,1,+999,9","63,1","SYN072AAXX  09094 08226 41660 8//// 10170 20170 39144 49849 51010 76362 88700;",
"08226099999","2010-10-09T12:00:00","4","40.6666666","-3.1666666","640.0","GUADALAJARA, SP","FM-12","99999","V020","999,9,9,9999,9","01200,1,9,N","010000,1,N,1","+0160,1","+0160,1","09841,1","06,0150,9,1",,,"6,1,06,1","6,1,06,1",,"08,99,1,08,1,07,1,01250,1,00,1,00,1",,,,,"99999,9,09134,1","8,1,010,1,+999,9","62,1","SYN078AAXX  09124 08226 11660 8//// 10160 20160 39134 49841 58010 60151 76266 88700;",
"08226099999","2010-10-10T06:00:00","4","40.6666666","-3.1666666","640.0","GUADALAJARA, SP","FM-12","99999","V020","999,9,9,9999,9","01200,1,9,N","010000,1,N,1","+0100,1","+0100,1","09804,1","12,0061,9,1","24,0290,9,1",,,,,"05,99,1,05,1,07,1,01250,1,00,1,00,1",,,,"999,N,+0100,1","99999,9,09084,1","6,1,006,1,+999,9",,"SYN100AAXX  10064 08226 12660 5//// 10100 20100 39084 49804 56006 60062 85700 333 20100 50104 55/// 70290;",
"08226099999","2010-10-10T12:00:00","4","40.6666666","-3.1666666","640.0","GUADALAJARA, SP","FM-12","99999","V020","999,9,9,9999,9","01200,1,9,N","010000,1,N,1","+0150,1","+0114,1","09780,1","06,0000,9,1",,,,,,"06,99,1,06,1,07,1,01250,1,00,1,00,1",,,,,"99999,9,09074,1","8,1,010,1,+999,9",,"SYN072AAXX  10124 08226 12660 6//// 10150 20114 39074 49780 58010 60001 86700;","Q01  00002PRCP06"
"08226099999","2010-10-11T06:00:00","4","40.6666666","-3.1666666","640.0","GUADALAJARA, SP","FM-12","99999","V020","999,9,9,9999,9","01200,1,9,N","010000,1,N,1","+0100,1","+0100,1","09761,1","12,0000,9,1","24,0000,9,1",,,,,"08,99,1,08,1,07,1,01250,1,00,1,00,1",,,,"999,N,+0100,1","99999,9,09044,1","4,1,000,1,+999,9",,"SYN100AAXX  11064 08226 12660 8//// 10100 20100 39044 49761 54000 60002 88700 333 20100 50154 55/// 70000;","Q01  00002PRCP24Q02  00002PRCP12"
"08226099999","2010-10-11T09:00:00","4","40.6666666","-3.1666666","640.0","GUADALAJARA, SP","FM-12","99999","V020","999,9,9,9999,9","01500,1,9,N","010000,1,N,1","+0140,1","+0106,1","09750,1",,,,,,,"08,99,1,08,1,07,1,01750,1,00,1,00,1",,,,,"99999,9,09044,1","4,1,000,1,+999,9",,"SYN066AAXX  11094 08226 42760 8//// 10140 20106 39044 49750 54000 88700;",
"08226099999","2010-10-11T12:00:00","4","40.6666666","-3.1666666","640.0","GUADALAJARA, SP","FM-12","99999","V020","999,9,9,9999,9","01200,1,9,N","010000,1,N,1","+0130,1","+0116,1","09763,1","06,0000,9,1",,,,,,"08,99,1,08,1,07,1,01250,1,00,1,00,1",,,,,"99999,9,09054,1","1,1,010,1,+999,9",,"SYN072AAXX  11124 08226 12660 8//// 10130 20116 39054 49763 51010 60001 88700;","Q01  00002PRCP06"
"08226099999","2010-10-12T06:00:00","4","40.6666666","-3.1666666","640.0","GUADALAJARA, SP","FM-12","99999","V020","999,9,9,9999,9","01200,1,9,N","010000,1,N,1","+0080,1","+0080,1","09810,1","12,0000,9,1","24,0000,9,1",,,,,"08,99,1,08,1,07,1,01250,1,00,1,00,1",,,,"999,N,+0080,1","99999,9,09084,1","1,1,010,1,+999,9",,"SYN100AAXX  12064 08226 12660 8//// 10080 20080 39084 49810 51010 60002 88700 333 20080 50104 55/// 70000;","Q01  00002PRCP24Q02  00002PRCP12"
"08226099999","2010-10-12T09:00:00","4","40.6666666","-3.1666666","640.0","GUADALAJARA, SP","FM-12","99999","V020","999,9,9,9999,9","01200,1,9,N","010000,1,N,1","+0170,1","+0135,1","09792,1",,,,,,,"06,99,1,06,1,07,1,01250,1,00,1,00,1",,,,,"99999,9,09090,1","2,1,006,1,+999,9",,"SYN066AAXX  12094 08226 42660 6//// 10170 20135 39090 49792 52006 86700;",
"08226099999","2010-10-12T12:00:00","4","40.6666666","-3.1666666","640.0","GUADALAJARA, SP","FM-12","99999","V020","999,9,9,9999,9","01500,1,9,N","010000,1,N,1","+0160,1","+0126,1","09794,1","06,0000,9,1",,,,,,"08,99,1,08,1,07,1,01750,1,00,1,00,1",,,,,"99999,9,09090,1","4,1,000,1,+999,9",,"SYN072AAXX  12124 08226 12760 8//// 10160 20126 39090 49794 54000 60001 88700;","Q01  00002PRCP06"
"08226099999","2010-10-13T06:00:00","4","40.6666666","-3.1666666","640.0","GUADALAJARA, SP","FM-12","99999","V020","999,9,9,9999,9","22000,1,9,N","010000,1,N,1","+0068,1","+0068,1","09851,1","12,0000,9,1","24,0000,9,1",,,,"00,1,+99999,9,99,9","00,99,1,00,1,00,1,99999,9,00,1,00,1",,,,"999,N,+0068,1","99999,9,09119,1","2,1,015,1,+999,9",,"SYN088AAXX  13064 08226 12960 0//// 10068 20068 39119 49851 52015 60002 333 20068 55/// 70000;","Q01  00002PRCP24Q02  00002PRCP12"
"08226099999","2010-10-13T09:00:00","4","40.6666666","-3.1666666","640.0","GUADALAJARA, SP","FM-12","99999","V020","999,9,9,9999,9","22000,1,9,N","010000,1,N,1","+0124,1","+0110,1","09851,1",,,,,,"00,1,+99999,9,99,9","00,99,1,00,1,00,1,99999,9,00,1,00,1",,,,,"99999,9,09134,1","2,1,015,1,+999,9",,"SYN060AAXX  13094 08226 42960 0//// 10124 20110 39134 49851 52015;",
"08226099999","2010-10-13T12:00:00","4","40.6666666","-3.1666666","640.0","GUADALAJARA, SP","FM-12","99999","V020","999,9,9,9999,9","22000,1,9,N","010000,1,N,1","+0194,1","+0117,1","09834,1","06,0000,9,1",,,,,,"01,99,1,01,1,01,1,01750,1,00,1,00,1",,,,,"99999,9,09134,1","4,1,000,1,+999,9",,"SYN072AAXX  13124 08226 12760 1//// 10194 20117 39134 49834 54000 60001 81100;","Q01  00002PRCP06"
"08226099999","2010-10-14T06:00:00","4","40.6666666","-3.1666666","640.0","GUADALAJARA, SP","FM-12","99999","V020","999,9,9,9999,9","22000,1,9,N","010000,1,N,1","+0060,1","+0060,1","09893,1","12,0000,9,1","24,0000,9,1",,,,"00,1,+99999,9,99,9","00,99,1,00,1,00,1,99999,9,00,1,00,1",,,,"999,N,+0060,1","99999,9,09156,1","4,1,000,1,+999,9",,"SYN088AAXX  14064 08226 12960 0//// 10060 20060 39156 49893 54000 60002 333 20060 55/// 70000;","Q01  00002PRCP24Q02  00002PRCP12"
"08226099999","2010-10-14T09:00:00","4","40.6666666","-3.1666666","640.0","GUADALAJARA, SP","FM-12","99999","V020","999,9,9,9999,9","22000,1,9,N","010000,1,N,1","+0104,1","+0092,1","09900,1",,,,,,"00,1,+99999,9,99,9","00,99,1,00,1,00,1,99999,9,00,1,00,1",,,,,"99999,9,09174,1","2,1,018,1,+999,9",,"SYN060AAXX  14094 08226 42960 0//// 10104 20092 39174 49900 52018;",
"08226099999","2010-10-14T12:00:00","4","40.6666666","-3.1666666","640.0","GUADALAJARA, SP","FM-12","99999","V020","999,9,9,9999,9","22000,1,9,N","010000,1,N,1","+0190,1","+0084,1","09868,1","06,0000,9,1",,,,,"00,1,+99999,9,99,9","00,99,1,00,1,00,1,99999,9,00,1,00,1",,,,,"99999,9,09164,1","8,1,010,1,+999,9",,"SYN066AAXX  14124 08226 12960 0//// 10190 20084 39164 49868 58010 60001;","Q01  00002PRCP06"
"08226099999","2010-10-15T06:00:00","4","40.6666666","-3.1666666","640.0","GUADALAJARA, SP","FM-12","99999","V020","999,9,9,9999,9","22000,1,9,N","010000,1,N,1","+0030,1","+0030,1","09900,1","12,0000,9,1","24,0000,9,1",,,,"00,1,+99999,9,99,9","00,99,1,00,1,00,1,99999,9,00,1,00,1",,,,"999,N,+0030,1","99999,9,09154,1","7,1,002,1,+999,9",,"SYN088AAXX  15064 08226 12960 0//// 10030 20030 39154 49900 57002 60002 333 20030 55/// 70000;","Q01  00002PRCP24Q02  00002PRCP12"
"08226099999","2010-10-15T09:00:00","4","40.6666666","-3.1666666","640.0","GUADALAJARA, SP","FM-12","99999","V020","999,9,9,9999,9","22000,1,9,N","010000,1,N,1","+0088,1","+0054,1","09895,1",,,,,,"00,1,+99999,9,99,9","00,99,1,00,1,00,1,99999,9,00,1,00,1",,,,,"99999,9,09164,1","2,1,010,1,+999,9",,"SYN060AAXX  15094 08226 42960 0//// 10088 20054 39164 49895 52010;",
"08226099999","2010-10-15T12:00:00","4","40.6666666","-3.1666666","640.0","GUADALAJARA, SP","FM-12","99999","V020","999,9,9,9999,9","22000,1,9,N","010000,1,N,1","+0162,1","+0049,1","09869,1","06,0000,9,1",,,,,"00,1,+99999,9,99,9","00,99,1,00,1,00,1,99999,9,00,1,00,1",,,,,"99999,9,09158,1","7,1,006,1,+999,9",,"SYN066AAXX  15124 08226 12960 0//// 10162 20049 39158 49869 57006 60001;","Q01  00002PRCP06"
"08226099999","2010-10-16T06:00:00","4","40.6666666","-3.1666666","640.0","GUADALAJARA, SP","FM-12","99999","V020","999,9,9,9999,9","22000,1,9,N","010000,1,N,1","+0030,1","+0030,1","09902,1","12,0000,9,1","24,0000,9,1",,,,"00,1,+99999,9,99,9","00,99,1,00,1,00,1,99999,9,00,1,00,1",,,,"999,N,+0030,1","99999,9,09156,1","2,1,004,1,+999,9",,"SYN088AAXX  16064 08226 12960 0//// 10030 20030 39156 49902 52004 60002 333 20030 55/// 70000;","Q01  00002PRCP24Q02  00002PRCP12"
"08226099999","2010-10-16T09:00:00","4","40.6666666","-3.1666666","640.0","GUADALAJARA, SP","FM-12","99999","V020","999,9,9,9999,9","22000,1,9,N","010000,1,N,1","+0084,1","+0059,1","09898,1",,,,,,"00,1,+99999,9,99,9","00,99,1,00,1,00,1,99999,9,00,1,00,1",,,,,"99999,9,09166,1","2,1,010,1,+999,9",,"SYN060AAXX  16094 08226 42960 0//// 10084 20059 39166 49898 52010;",
"08226099999","2010-10-16T12:00:00","4","40.6666666","-3.1666666","640.0","GUADALAJARA, SP","FM-12","99999","V020","999,9,9,9999,9","22000,1,9,N","010000,1,N,1","+0162,1","+0069,1","09869,1","06,0000,9,1",,,,,"00,1,+99999,9,99,9","00,99,1,00,1,00,1,99999,9,00,1,00,1",,,,,"99999,9,09158,1","7,1,008,1,+999,9",,"SYN066AAXX  16124 08226 12960 0//// 10162 20069 39158 49869 57008 60001;","Q01  00002PRCP06"
"08226099999","2010-10-17T06:00:00","4","40.6666666","-3.1666666","640.0","GUADALAJARA, SP","FM-12","99999","V020","999,9,9,9999,9","22000,1,9,N","010000,1,N,1","+0016,1","+0016,1","09947,1","12,0000,9,1","24,0000,9,1",,,,"00,1,+99999,9,99,9","00,99,1,00,1,00,1,99999,9,00,1,00,1",,,,"999,N,+0016,1","99999,9,09194,1","2,1,010,1,+999,9",,"SYN088AAXX  17064 08226 12960 0//// 10016 20016 39194 49947 52010 60002 333 20016 55/// 70000;","Q01  00002PRCP24Q02  00002PRCP12"
"08226099999","2010-10-17T09:00:00","4","40.6666666","-3.1666666","640.0","GUADALAJARA, SP","FM-12","99999","V020","999,9,9,9999,9","22000,1,9,N","010000,1,N,1","+0080,1","+0055,1","09940,1",,,,,,"00,1,+99999,9,99,9","00,99,1,00,1,00,1,99999,9,00,1,00,1",,,,,"99999,9,09204,1","2,1,010,1,+999,9",,"SYN060AAXX  17094 08226 42960 0//// 10080 20055 39204 49940 52010;",
"08226099999","2010-10-17T12:00:00","4","40.6666666","-3.1666666","640.0","GUADALAJARA, SP","FM-12","99999","V020","999,9,9,9999,9","22000,1,9,N","010000,1,N,1","+0144,1","+0050,1","09923,1","06,0000,9,1",,,,,"00,1,+99999,9,99,9","00,99,1,00,1,00,1,99999,9,00,1,00,1",,,,,"99999,9,09204,1","0,1,000,1,+999,9",,"SYN066AAXX  17124 08226 12960 0//// 10144 20050 39204 49923 50000 60001;","Q01  00002PRCP06"
"08226099999","2010-10-18T06:00:00","4","40.6666666","-3.1666666","640.0","GUADALAJARA, SP","FM-12","99999","V020","999,9,9,9999,9","22000,1,9,N","010000,1,N,1","-0016,1","-0016,1","10003,1","12,0000,9,1","24,0000,9,1",,,,"00,1,+99999,9,99,9","00,99,1,00,1,00,1,99999,9,00,1,00,1",,,,"999,N,-0016,1","99999,9,09236,1","2,1,002,1,+999,9",,"SYN088AAXX  18064 08226 12960 0//// 11016 21016 39236 40003 52002 60002 333 21016 55/// 70000;","Q01  00002PRCP24Q02  00002PRCP12"
"08226099999","2010-10-18T09:00:00","4","40.6666666","-3.1666666","640.0","GUADALAJARA, SP","FM-12","99999","V020","999,9,9,9999,9","22000,1,9,N","010000,1,N,1","+0062,1","+0009,1","09991,1",,,,,,"00,1,+99999,9,99,9","00,99,1,00,1,00,1,99999,9,00,1,00,1",,,,,"99999,9,09246,1","3,1,010,1,+999,9",,"SYN060AAXX  18094 08226 42960 0//// 10062 20009 39246 49991 53010;",
"08226099999","2010-10-18T12:00:00","4","40.6666666","-3.1666666","640.0","GUADALAJARA, SP","FM-12","99999","V020","999,9,9,9999,9","22000,1,9,N","010000,1,N,1","+0140,1","-0008,1","09960,1","06,0000,9,1",,,,,"00,1,+99999,9,99,9","00,99,1,00,1,00,1,99999,9,00,1,00,1",,,,,"99999,9,09236,1","7,1,010,1,+999,9",,"SYN066AAXX  18124 08226 12960 0//// 10140 21008 39236 49960 57010 60001;","Q01  00002PRCP06"
"08226099999","2010-10-19T06:00:00","4","40.6666666","-3.1666666","640.0","GUADALAJARA, SP","FM-12","99999","V020","999,9,9,9999,9","22000,1,9,N","010000,1,N,1","-0018,1","-0018,1","09979,1","12,0000,9,1","24,0000,9,1",,,,"00,1,+99999,9,99,9","00,99,1,00,1,00,1,99999,9,00,1,00,1",,,,"999,N,-0018,1","99999,9,09214,1","7,1,008,1,+999,9",,"SYN088AAXX  19064 08226 12960 0//// 11018 21018 39214 49979 57008 60002 333 21018 55/// 70000;","Q01  00002PRCP24Q02  00002PRCP12"
"08226099999","2010-10-19T12:00:00","4","40.6666666","-3.1666666","640.0","GUADALAJARA, SP","FM-12","99999","V020","999,9,9,9999,9","22000,1,9,N","010000,1,N,1","+0150,1","+0008,1","09927,1","06,0000,9,1",,,,,"00,1,+99999,9,99,9","00,99,1,00,1,00,1,99999,9,00,1,00,1",,,,,"99999,9,09208,1","7,1,016,1,+999,9",,"SYN066AAXX  19124 08226 12960 0//// 10150 20008 39208 49927 57016 60001;","Q01  00002PRCP06"
"08226099999","2010-10-20T06:00:00","4","40.6666666","-3.1666666","640.0","GUADALAJARA, SP","FM-12","99999","V020","999,9,9,9999,9","22000,1,9,N","010000,1,N,1","-0015,1","-0029,1","09957,1","12,0000,9,1","24,0000,9,1",,,,"00,1,+99999,9,99,9","00,99,1,00,1,00,1,99999,9,00,1,00,1",,,,"999,N,-0015,1","99999,9,09194,1","4,1,000,1,+999,9",,"SYN094AAXX  20064 08226 12960 0//// 11015 21029 39194 49957 54000 60002 333 21015 50404 55/// 70000;","Q01  00002PRCP24Q02  00002PRCP12"
"08226099999","2010-10-20T09:00:00","4","40.6666666","-3.1666666","640.0","GUADALAJARA, SP","FM-12","99999","V020","999,9,9,9999,9","22000,1,9,N","010000,1,N,1","+0080,1","+0010,1","09947,1",,,,,,"00,1,+99999,9,99,9","00,99,1,00,1,00,1,99999,9,00,1,00,1",,,,,"99999,9,09210,1","1,1,016,1,+999,9",,"SYN060AAXX  20094 08226 42960 0//// 10080 20010 39210 49947 51016;",
"08226099999","2010-10-20T12:00:00","4","40.6666666","-3.1666666","640.0","GUADALAJARA, SP","FM-12","99999","V020","999,9,9,9999,9","22000,1,9,N","010000,1,N,1","+0184,2","+0042,1","09913,1","06,0000,9,1",,,,,"00,1,+99999,9,99,9","00,99,1,00,1,00,1,99999,9,00,1,00,1",,,,,"99999,9,09204,1","8,1,006,1,+999,9",,"SYN066AAXX  20124 08226 12960 0//// 10184 20042 39204 49913 58006 60001;","Q01  00002PRCP06"
"08226099999","2010-10-21T06:00:00","4","40.6666666","-3.1666666","640.0","GUADALAJARA, SP","FM-12","99999","V020","999,9,9,9999,9","22000,1,9,N","010000,1,N,1","+0000,1","+0000,1","09996,1","12,0000,9,1","24,0000,9,1",,,,"00,1,+99999,9,99,9","00,99,1,00,1,00,1,99999,9,00,1,00,1",,,,"999,N,+0000,1","99999,9,09234,1","3,1,012,1,+999,9",,"SYN094AAXX  21064 08226 12960 0//// 10000 20000 39234 49996 53012 60002 333 20000 50334 55/// 70000;","Q01  00002PRCP24Q02  00002PRCP12"
"08226099999","2010-10-21T12:00:00","4","40.6666666","-3.1666666","640.0","GUADALAJARA, SP","FM-12","99999","V020","999,9,9,9999,9","22000,1,9,N","010000,1,N,1","+9999,9","+0088,1","09963,1","06,0000,9,1",,,,,"00,1,+99999,9,99,9","00,99,1,00,1,00,1,99999,9,00,1,00,1",,,,,"99999,9,09250,1","1,1,004,1,+999,9",,"SYN066AAXX  21124 08226 12960 0//// 10180 20088 39250 49963 51004 60001;","Q01+001803ATOT  Q02  00002PRCP06"
"08226099999","2010-10-22T06:00:00","4","40.6666666","-3.1666666","640.0","GUADALAJARA, SP","FM-12","99999","V020","999,9,9,9999,9","22000,1,9,N","010000,1,N,1","+0010,1","+0010,1","10003,1","12,0000,9,1","24,0000,9,1",,,,"00,1,+99999,9,99,9","00,99,1,00,1,00,1,99999,9,00,1,00,1",,,,"999,N,+0000,1","99999,9,09244,1","4,1,000,1,+999,9",,"SYN094AAXX  22064 08226 12960 0//// 10010 20010 39244 40003 54000 60002 333 20000 50304 55/// 70000;","Q01  00002PRCP24Q02  00002PRCP12"
"08226099999","2010-10-22T12:00:00","4","40.6666666","-3.1666666","640.0","GUADALAJARA, SP","FM-12","99999","V020","999,9,C,0000,1","22000,1,9,N","010000,1,N,1","+9999,9","+0074,1","09946,1","06,0000,9,1",,,,,,"04,99,1,04,1,00,1,02250,1,01,1,00,1",,,,,"99999,9,09234,1","8,1,010,1,+999,9",,"SYN072AAXX  22124 08226 12860 40000 10180 20074 39234 49946 58010 60001 84010;","Q01+001803ATOT  Q02  00002PRCP06"
"08226099999","2010-10-23T06:00:00","4","40.6666666","-3.1666666","640.0","GUADALAJARA, SP","FM-12","99999","V020","999,9,C,0000,1","22000,1,9,N","010000,1,N,1","+0048,1","+0035,1","09958,1","12,0000,9,1","24,0000,9,1",,,,,"04,99,1,03,1,05,1,01750,1,07,1,00,1",,,,"999,N,+0040,1","99999,9,09212,1","4,1,000,1,+999,9",,"SYN100AAXX  23064 08226 12760 40000 10048 20035 39212 49958 54000 60002 83570 333 20040 50304 55/// 70000;","Q01  00002PRCP24Q02  00002PRCP12"
"08226099999","2010-10-23T09:00:00","4","40.6666666","-3.1666666","640.0","GUADALAJARA, SP","FM-12","99999","V020","999,9,C,0000,1","22000,1,9,N","010000,1,N,1","+0115,1","+0062,1","09952,1",,,,,,"00,1,+99999,9,99,9","00,99,1,00,1,00,1,99999,9,00,1,00,1",,,,,"99999,9,09224,1","3,1,012,1,+999,9",,"SYN060AAXX  23094 08226 42960 00000 10115 20062 39224 49952 53012;",
"08226099999","2010-10-23T12:00:00","4","40.6666666","-3.1666666","640.0","GUADALAJARA, SP","FM-12","99999","V020","999,9,C,0000,1","22000,1,9,N","010000,1,N,1","+0180,1","+0074,1","09924,1","06,0000,9,1",,,,,"00,1,+99999,9,99,9","00,99,1,00,1,00,1,99999,9,00,1,00,1",,,,,"99999,9,09214,1","8,1,010,1,+999,9",,"SYN066AAXX  23124 08226 12960 00000 10180 20074 39214 49924 58010 60001;","Q01  00002PRCP06"
"08226099999","2010-10-24T06:00:00","4","40.6666666","-3.1666666","640.0","GUADALAJARA, SP","FM-12","99999","V020","999,9,C,0000,1","22000,1,9,N","010000,1,N,1","+0028,1","+0002,1","09968,1","12,0000,9,1","24,0000,9,1",,,,"00,1,+99999,9,99,9","00,99,1,00,1,00,1,99999,9,00,1,00,1",,,,"999,N,+0020,1","99999,9,09216,1","3,1,002,1,+999,9",,"SYN094AAXX  24064 08226 12960 00000 10028 20002 39216 49968 53002 60002 333 20020 50404 55/// 70000;","Q01  00002PRCP24Q02  00002PRCP12"
"08226099999","2010-10-24T09:00:00","4","40.6666666","-3.1666666","640.0","GUADALAJARA, SP","FM-12","99999","V020","999,9,C,0000,1","22000,1,9,N","010000,1,N,1","+0090,1","+0059,1","09939,1",,,,,,"00,1,+99999,9,99,9","00,99,1,00,1,00,1,99999,9,00,1,00,1",,,,,"99999,9,09206,1","2,1,010,1,+999,9",,"SYN060AAXX  24094 08226 42960 00000 10090 20059 39206 49939 52010;",
"08226099999","2010-10-24T12:00:00","4","40.6666666","-3.1666666","640.0","GUADALAJARA, SP","FM-12","99999","V020","190,1,N,0026,1","22000,1,9,N","010000,1,N,1","+0185,1","+0079,1","09908,1","06,0000,9,1",,,,,"00,1,+99999,9,99,9","00,99,1,00,1,00,1,99999,9,00,1,00,1",,,,,"99999,9,09200,1","8,1,006,1,+999,9",,"SYN066AAXX  24124 08226 12960 01905 10185 20079 39200 49908 58006 60001;","Q01  00002PRCP06"
"08226099999","2010-10-25T06:00:00","4","40.6666666","-3.1666666","640.0","GUADALAJARA, SP","FM-12","99999","V020","020,1,N,0015,1","22000,1,9,N","010000,1,N,1","+0100,1","+0076,1","09934,1","12,0000,9,1","24,0000,9,1",,,,,"03,99,1,03,1,05,1,01750,1,00,1,00,1","0486,9","01,9","999,+0060,9","999,N,+0090,1","99999,9,09204,1","2,1,020,1,+999,9",,"SYN106AAXX  25064 08226 12760 30203 10100 20076 39204 49934 52020 60002 83500 333 20090 30006 50404 55081 70000;","Q01  00002PRCP24Q02  00002PRCP12"
"08226099999","2010-10-25T09:00:00","4","40.6666666","-3.1666666","640.0","GUADALAJARA, SP","FM-12","99999","V020","020,1,N,0041,1","22000,1,9,N","010000,1,N,1","+0125,1","+0037,1","09952,1",,,,,,,"02,99,1,00,1,00,1,99999,9,00,1,01,1",,,,,"99999,9,09226,1","1,1,022,1,+999,9",,"SYN066AAXX  25094 08226 42960 20208 10125 20037 39226 49952 51022 80001;",
"08226099999","2010-10-25T12:00:00","4","40.6666666","-3.1666666","640.0","GUADALAJARA, SP","FM-12","99999","V020","320,1,N,0051,1","22000,1,9,N","010000,1,N,1","+0150,1","+0015,1","09954,1","06,0000,9,1",,,,,,"03,99,1,01,1,01,1,01250,1,00,1,01,1",,,,,"99999,9,09234,1","1,1,008,1,+999,9",,"SYN072AAXX  25124 08226 12660 33210 10150 20015 39234 49954 51008 60001 81101;","Q01  00002PRCP06"
"08226099999","2010-10-26T06:00:00","4","40.6666666","-3.1666666","640.0","GUADALAJARA, SP","FM-12","99999","V020","360,1,N,0010,1","22000,1,9,N","010000,1,N,1","-0020,1","-0034,1","10045,1","12,0000,9,1","24,0000,9,1",,,,"00,1,+99999,9,99,9","00,99,1,00,1,00,1,99999,9,00,1,00,1","0480,9","01,9","999,-0030,9","999,N,-0020,1","99999,9,09274,1","4,1,000,1,+999,9",,"SYN100AAXX  26064 08226 12960 03602 11020 21034 39274 40045 54000 60002 333 21020 30103 50404 55080 70000;","Q01  00002PRCP24Q02  00002PRCP12"
"08226099999","2010-10-26T09:00:00","4","40.6666666","-3.1666666","640.0","GUADALAJARA, SP","FM-12","99999","V020","999,9,C,0000,1","22000,1,9,N","010000,1,N,1","+0060,1","+0010,1","10022,1",,,,,,"00,1,+99999,9,99,9","00,99,1,00,1,00,1,99999,9,00,1,00,1",,,,,"99999,9,09274,1","4,1,000,1,+999,9",,"SYN060AAXX  26094 08226 42960 00000 10060 20010 39274 40022 54000;",
"08226099999","2010-10-26T12:00:00","4","40.6666666","-3.1666666","640.0","GUADALAJARA, SP","FM-12","99999","V020","999,9,C,0000,1","22000,1,9,N","010000,1,N,1","+0150,2","+0032,1","09997,1","06,0000,9,1",,,,,"00,1,+99999,9,99,9","00,99,1,00,1,00,1,99999,9,00,1,00,1",,,,,"99999,9,09274,1","4,1,000,1,+999,9",,"SYN066AAXX  26124 08226 12960 00000 10150 20032 39274 49997 54000 60001;","Q01  00002PRCP06"
"08226099999","2010-10-27T06:00:00","4","40.6666666","-3.1666666","640.0","GUADALAJARA, SP","FM-12","99999","V020","999,9,9,9999,9","22000,1,9,N","010000,1,N,1","-0032,1","-0054,1","10060,1","12,0000,9,1","24,0000,9,1",,,,,"01,99,1,00,1,00,1,99999,9,00,1,01,1",,,,"999,N,-0032,1","99999,9,09284,1","4,1,000,1,+999,9",,"SYN094AAXX  27064 08226 12860 1//// 11032 21054 39284 40060 54000 60002 80001 333 21032 55/// 70000;","Q01+022502SCOLCBQ02  00002PRCP24Q03  00002PRCP12"
"08226099999","2010-10-27T09:00:00","4","40.6666666","-3.1666666","640.0","GUADALAJARA, SP","FM-12","99999","V020","360,1,N,0015,1","22000,1,9,N","010000,1,N,1","+0070,1","+0009,1","10041,1",,,,,,,"01,99,1,00,1,00,1,99999,9,00,1,01,1",,,,,"99999,9,09294,1","3,1,010,1,+999,9",,"SYN066AAXX  27094 08226 42860 13603 10070 20009 39294 40041 53010 80001;","Q01+022502SCOLCB"
"08226099999","2010-10-27T12:00:00","4","40.6666666","-3.1666666","640.0","GUADALAJARA, SP","FM-12","99999","V020","230,1,N,0026,1","22000,1,9,N","010000,1,N,1","+9999,9","+0044,1","10000,1","06,0000,9,1",,,,,"00,1,+99999,9,99,9","00,99,1,00,1,00,1,99999,9,00,1,00,1",,,,,"99999,9,09284,1","7,1,010,1,+999,9",,"SYN066AAXX  27124 08226 12960 02305 10182 20044 39284 40000 57010 60001;","Q01+001823ATOT  Q02  00002PRCP06"
"08226099999","2010-10-28T06:00:00","4","40.6666666","-3.1666666","640.0","GUADALAJARA, SP","FM-12","99999","V020","999,9,9,9999,9","03600,1,C,N","010000,1,N,1","+0044,1","+0019,1","10015,1","12,0000,9,1","24,0000,9,1",,,,,"06,99,1,02,1,07,1,01750,1,08,1,99,9","0558,9",,,"999,N,+0040,1","99999,9,09264,1","6,1,008,1,+999,9",,"SYN094AAXX  28064 08226 12760 6//// 10044 20019 39264 40015 56008 60002 8278/ 333 20040 55093 70000;","Q01  00002PRCP24Q02  00002PRCP12"
"08226099999","2010-10-28T09:00:00","4","40.6666666","-3.1666666","640.0","GUADALAJARA, SP","FM-12","99999","V020","999,9,C,0000,1","01500,1,9,N","010000,1,N,1","+0093,1","+0019,1","10010,1",,,,,,,"08,99,1,99,9,07,1,01750,1,08,1,99,9",,,,,"99999,9,09272,1","3,1,008,1,+999,9",,"SYN066AAXX  28094 08226 42760 80000 10093 20019 39272 40010 53008 8878/;","Q01+000082SCOTLC"
"08226099999","2010-10-28T12:00:00","4","40.6666666","-3.1666666","640.0","GUADALAJARA, SP","FM-12","99999","V020","999,9,C,0000,1","09000,1,9,N","010000,1,N,1","+0182,1","+0008,1","09977,1","06,0000,9,1",,,,,,"05,99,1,03,1,00,1,01750,1,08,1,05,1",,,,,"99999,9,09262,1","7,1,010,1,+999,9",,"SYN072AAXX  28124 08226 12760 50000 10182 20008 39262 49977 57010 60001 83085;","Q01  00002PRCP06"
"08226099999","2010-10-29T06:00:00","4","40.6666666","-3.1666666","640.0","GUADALAJARA, SP","FM-12","99999","V020","999,9,9,9999,9","03600,1,9,N","010000,1,N,1","+0036,1","+0012,1","09879,1","12,0000,9,1","24,0000,9,1",,,,,"06,99,1,02,1,07,1,01750,1,08,1,08,1","0378,9",,,"999,N,+0036,1","99999,9,09136,1","7,1,010,1,+999,9",,"SYN094AAXX  29064 08226 12760 6//// 10036 20012 39136 49879 57010 60002 82788 333 20036 55063 70000;","Q01  00002PRCP24Q02  00002PRCP12"
"08226099999","2010-10-29T09:00:00","4","40.6666666","-3.1666666","640.0","GUADALAJARA, SP","FM-12","99999","V020","999,9,C,0000,1","03600,1,9,N","010000,1,N,1","+0078,1","+0023,1","09919,1",,,,,,,"06,99,1,04,1,07,1,01750,1,08,1,08,1",,,,,"99999,9,09184,1","6,1,002,1,+999,9",,"SYN066AAXX  29094 08226 42760 60000 10078 20023 39184 49919 56002 84788;",
"08226099999","2010-10-29T12:00:00","4","40.6666666","-3.1666666","640.0","GUADALAJARA, SP","FM-12","99999","V020","190,1,N,0057,1","03600,1,9,N","010000,1,N,1","+0184,1","+0056,1","09868,1","06,0000,9,1",,,,,,"07,99,1,04,1,07,1,01750,1,08,1,08,1",,,,,"99999,9,09162,1","7,1,022,1,+999,9",,"SYN072AAXX  29124 08226 12760 71911 10184 20056 39162 49868 57022 60001 84788;","Q01  00002PRCP06"
"08226099999","2010-10-30T06:00:00","4","40.6666666","-3.1666666","640.0","GUADALAJARA, SP","FM-12","99999","V020","200,1,N,0026,1","01500,1,9,N","010000,1,N,1","+0092,1","+0092,1","09871,1","12,0051,9,1","24,0051,9,1",,"8,1,06,1","2,1,06,1",,"06,99,1,06,1,07,1,01750,1,08,1,99,9","0264,9","11,9","999,+0080,9","999,N,+0092,1","99999,9,09144,1","7,1,008,1,+999,9","02,1","SYN106AAXX  30064 08226 11760 62005 10092 20092 39144 49871 57008 60052 70282 8678/ 333 20092 32008 55044 70052;",
"08226099999","2010-10-30T09:00:00","4","40.6666666","-3.1666666","640.0","GUADALAJARA, SP","FM-12","99999","V020","210,1,N,0057,1","01200,1,9,N","010000,1,N,1","+0094,1","+0094,1","09870,1",,,,"5,1,03,1","2,1,03,1",,"08,99,1,99,9,07,1,01250,1,08,1,99,9",,,,,"99999,9,09144,1","4,1,000,1,+999,9","61,1","SYN072AAXX  30094 08226 41660 82111 10094 20094 39144 49870 54000 76152 8878/;","Q01+000082SCOTLC"
"08226099999","2010-10-30T12:00:00","4","40.6666666","-3.1666666","640.0","GUADALAJARA, SP","FM-12","99999","V020","200,1,N,0051,1","01200,1,9,N","010000,1,N,1","+0108,1","+0102,1","09847,1","06,0020,9,1",,,"6,1,06,1","2,1,06,1",,"08,99,1,99,9,07,1,01250,1,08,1,99,9",,,,,"99999,9,09126,1","7,1,018,1,+999,9","02,1","SYN078AAXX  30124 08226 11660 82010 10108 20102 39126 49847 57018 60021 70262 8878/;","Q01+000082SCOTLC"
"08226099999","2010-10-31T06:00:00","4","40.6666666","-3.1666666","640.0","GUADALAJARA, SP","FM-12","99999","V020","200,1,N,0062,1","01500,1,9,N","010000,1,N,1","+0086,1","+0086,1","09732,1","12,0061,9,1","24,0127,9,1",,"6,1,06,1","2,1,06,1",,"06,99,1,06,1,07,1,01750,1,08,1,00,1","0006,9","11,9","999,+0060,9","999,N,+0082,1","99999,9,09014,1","4,1,000,1,+999,9","02,1","SYN106AAXX  31064 08226 11760 62012 10086 20086 39014 49732 54000 60062 70262 86780 333 20082 32006 55001 70126;",
"08226099999","2010-10-31T09:00:00","4","40.6666666","-3.1666666","640.0","GUADALAJARA, SP","FM-12","99999","V020","200,1,N,0067,1","01500,1,9,N","010000,1,N,1","+0102,1","+0099,1","09749,1",,,,"5,1,03,1","2,1,03,1",,"06,99,1,06,1,07,1,01750,1,08,1,01,1",,,,,"99999,9,09034,1","2,1,020,1,+999,9","02,1","SYN072AAXX  31094 08226 41760 62013 10102 20099 39034 49749 52020 70252 86781;",
"08226099999","2010-10-31T12:00:00","4","40.6666666","-3.1666666","640.0","GUADALAJARA, SP","FM-12","99999","V020","230,1,N,0051,1","01200,1,9,N","010000,1,N,1","+0120,1","+0081,1","09747,1","06,9999,9,9",,,"5,1,06,1","2,1,06,1",,"08,99,1,08,1,07,1,01250,1,99,9,99,9",,,,,"99999,9,09036,1","2,1,012,1,+999,9","50,1","SYN078AAXX  31124 08226 11660 82310 10120 20081 39036 49747 52012 69901 75052 887//;","Q01  00002PRCP06Q02  00002PRCP06"
"08226099999","2010-11-01T06:00:00","4","40.6666666","-3.1666666","640.0","GUADALAJARA, SP","FM-12","99999","V020","300,1,N,0010,1","01500,1,9,N","010000,1,N,1","+0104,1","+0073,1","09866,1","12,0000,9,1","24,0000,2,1",,,,,"06,99,1,06,1,07,1,01750,1,00,1,00,1","0138,9","09,9","999,+0080,9","999,N,+0088,1","99999,9,09142,1","3,1,028,1,+999,9",,"SYN100AAXX  01064 08226 12760 63002 10104 20073 39142 49866 53028 60002 86700 333 20088 31008 55023 79999;","Q01  00002PRCP12"
"08226099999","2010-11-01T09:00:00","4","40.6666666","-3.1666666","640.0","GUADALAJARA, SP","FM-12","99999","V020","330,1,N,0082,1","22000,1,9,N","010000,1,N,1","+0130,1","+0077,1","09883,1",,,,,,,"04,99,1,04,1,07,1,01750,1,00,1,00,1",,,,,"99999,9,09164,1","2,1,022,1,+999,9",,"SYN066AAXX  01094 08226 42760 43316 10130 20077 39164 49883 52022 84700;",
"08226099999","2010-11-01T12:00:00","4","40.6666666","-3.1666666","640.0","GUADALAJARA, SP","FM-12","99999","V020","320,1,N,0015,1","22000,1,9,N","010000,1,N,1","+0149,1","+0088,1","09889,1","06,0000,9,1",,,,,,"04,99,1,04,1,07,1,01750,1,00,1,00,1",,,,,"99999,9,09174,1","2,1,010,1,+999,9",,"SYN072AAXX  01124 08226 12760 43203 10149 20088 39174 49889 52010 60001 84700;","Q01  00002PRCP06"
"08226099999","2010-11-02T06:00:00","4","40.6666666","-3.1666666","640.0","GUADALAJARA, SP","FM-12","99999","V020","999,9,C,0000,1","22000,1,9,N","010000,1,N,1","+0054,1","+0054,1","09977,1","12,0000,9,1","24,0000,9,1",,,,,"01,99,1,01,1,01,1,01750,1,00,1,00,1","0318,9",,,"999,N,+0054,1","99999,9,09232,1","2,1,008,1,+999,9",,"SYN094AAXX  02064 08226 12760 10000 10054 20054 39232 49977 52008 60002 81100 333 20054 55053 70000;","Q01  00002PRCP24Q02  00002PRCP12"
"08226099999","2010-11-02T09:00:00","4","40.6666666","-3.1666666","640.0","GUADALAJARA, SP","FM-12","99999","V020","999,9,C,0000,1","22000,1,9,N","010000,1,N,1","+0110,1","+0069,1","09977,1",,,,,,,"01,99,1,01,1,01,1,01750,1,00,1,00,1",,,,,"99999,9,09246,1","2,1,014,1,+999,9",,"SYN066AAXX  02094 08226 42760 10000 10110 20069 39246 49977 52014 81100;",
"08226099999","2010-11-02T12:00:00","4","40.6666666","-3.1666666","640.0","GUADALAJARA, SP","FM-12","99999","V020","030,1,N,0010,1","22000,1,9,N","010000,1,N,1","+0110,1","+0026,1","09965,1","06,0000,9,1",,,,,,"01,99,1,01,1,01,1,01750,1,00,1,00,1",,,,,"99999,9,09234,1","7,1,012,1,+999,9",,"SYN072AAXX  02124 08226 12760 10302 10110 20026 39234 49965 57012 60001 81100;","Q01  00002PRCP06"
"08226099999","2010-11-03T06:00:00","4","40.6666666","-3.1666666","640.0","GUADALAJARA, SP","FM-12","99999","V020","999,9,C,0000,1","22000,1,9,N","010000,1,N,1","-0030,1","-0046,1","10037,1","12,0000,9,1","24,0000,9,1",,,,"00,1,+99999,9,99,9","00,99,1,00,1,00,1,99999,9,00,1,00,1",,,,"999,N,-0030,1","99999,9,09264,1","3,1,006,1,+999,9",,"SYN094AAXX  03064 08226 12960 00000 11030 21046 39264 40037 53006 60002 333 21030 50224 55/// 70000;","Q01  00002PRCP24Q02  00002PRCP12"
"08226099999","2010-11-03T09:00:00","4","40.6666666","-3.1666666","640.0","GUADALAJARA, SP","FM-12","99999","V020","330,1,N,0010,1","22000,1,9,N","010000,1,N,1","+0085,1","+0074,1","10016,1",,,,,,"00,1,+99999,9,99,9","00,99,1,00,1,00,1,99999,9,00,1,00,1",,,,,"99999,9,09276,1","2,1,012,1,+999,9",,"SYN060AAXX  03094 08226 42960 03302 10085 20074 39276 40016 52012;",
"08226099999","2010-11-03T12:00:00","4","40.6666666","-3.1666666","640.0","GUADALAJARA, SP","FM-12","99999","V020","999,9,C,0000,1","22000,1,9,N","010000,1,N,1","+0180,1","+0113,1","09988,1","06,0000,9,1",,,,,"00,1,+99999,9,99,9","00,99,1,00,1,00,1,99999,9,00,1,00,1",,,,,"99999,9,09274,1","8,1,002,1,+999,9",,"SYN066AAXX  03124 08226 12960 00000 10180 20113 39274 49988 58002 60001;","Q01  00002PRCP06"
"08226099999","2010-11-04T06:00:00","4","40.6666666","-3.1666666","640.0","GUADALAJARA, SP","FM-12","99999","V020","040,1,N,0015,1","22000,1,9,N","010000,1,N,1","+0070,1","+0048,1","10057,1","12,0000,9,1","24,0000,9,1",,,,"00,1,+99999,9,99,9","00,99,1,00,1,00,1,99999,9,00,1,00,1","0558,9","01,9","999,+0040,9","999,N,+0055,1","99999,9,09310,1","4,1,000,1,+999,9",,"SYN100AAXX  04064 08226 12960 00403 10070 20048 39310 40057 54000 60002 333 20055 30004 50404 55093 70000;","Q01  00002PRCP24Q02  00002PRCP12"
"08226099999","2010-11-04T12:00:00","4","40.6666666","-3.1666666","640.0","GUADALAJARA, SP","FM-12","99999","V020","999,9,C,0000,1","22000,1,9,N","010000,1,N,1","+0205,1","+0125,1","10035,1","06,0000,9,1",,,,,"00,1,+99999,9,99,9","00,99,1,00,1,00,1,99999,9,00,1,00,1",,,,,"99999,9,09324,1","4,1,000,1,+999,9",,"SYN066AAXX  04124 08226 12960 00000 10205 20125 39324 40035 54000 60001;","Q01  00002PRCP06"
"08226099999","2010-11-05T06:00:00","4","40.6666666","-3.1666666","640.0","GUADALAJARA, SP","FM-12","99999","V020","999,9,C,0000,1","22000,1,9,N","010000,1,N,1","+0050,1","+0050,1","10045,1","12,0000,9,1","24,0000,9,1",,,,"00,1,+99999,9,99,9","00,99,1,00,1,00,1,99999,9,00,1,00,1","0558,9","01,9","999,+0040,9","999,N,+0050,1","99999,9,09294,1","4,1,000,1,+999,9",,"SYN100AAXX  05064 08226 12960 00000 10050 20050 39294 40045 54000 60002 333 20050 30004 50404 55093 70000;","Q01  00002PRCP24Q02  00002PRCP12"
"08226099999","2010-11-05T09:00:00","4","40.6666666","-3.1666666","640.0","GUADALAJARA, SP","FM-12","99999","V020","999,9,C,0000,1","22000,1,9,N","010000,1,N,1","+0120,1","+0081,1","10047,1",,,,,,"00,1,+99999,9,99,9","00,99,1,00,1,00,1,99999,9,00,1,00,1",,,,,"99999,9,09314,1","2,1,020,1,+999,9",,"SYN060AAXX  05094 08226 42960 00000 10120 20081 39314 40047 52020;",
"08226099999","2010-11-05T12:00:00","4","40.6666666","-3.1666666","640.0","GUADALAJARA, SP","FM-12","99999","V020","999,9,C,0000,1","22000,1,9,N","010000,1,N,1","+0190,1","+0111,1","10029,1","06,0000,9,1",,,,,"00,1,+99999,9,99,9","00,99,1,00,1,00,1,99999,9,00,1,00,1",,,,,"99999,9,09314,1","4,1,000,1,+999,9",,"SYN066AAXX  05124 08226 12960 00000 10190 20111 39314 40029 54000 60001;","Q01  00002PRCP06"
"08226099999","2010-11-06T06:00:00","4","40.6666666","-3.1666666","640.0","GUADALAJARA, SP","FM-12","99999","V020","999,9,C,0000,1","22000,1,9,N","010000,1,N,1","+0030,1","+0030,1","10041,1","12,0000,9,1","24,0000,9,1",,,,"00,1,+99999,9,99,9","00,99,1,00,1,00,1,99999,9,00,1,00,1","0558,9","01,9","999,+0010,9","999,N,+0030,1","99999,9,09284,1","7,1,010,1,+999,9",,"SYN100AAXX  06064 08226 12960 00000 10030 20030 39284 40041 57010 60002 333 20030 30001 50404 55093 70000;","Q01  00002PRCP24Q02  00002PRCP12"
"08226099999","2010-11-06T09:00:00","4","40.6666666","-3.1666666","640.0","GUADALAJARA, SP","FM-12","99999","V020","010,1,N,0015,1","22000,1,9,N","010000,1,N,1","+0070,1","+0070,1","10029,1",,,,,,"00,1,+99999,9,99,9","00,99,1,00,1,00,1,99999,9,00,1,00,1",,,,,"99999,9,09284,1","4,1,000,1,+999,9",,"SYN060AAXX  06094 08226 42960 00103 10070 20070 39284 40029 54000;",
"08226099999","2010-11-06T12:00:00","4","40.6666666","-3.1666666","640.0","GUADALAJARA, SP","FM-12","99999","V020","999,9,C,0000,1","22000,1,9,N","010000,1,N,1","+0160,1","+0126,1","09982,1","06,0000,9,1",,,,,,"01,99,1,00,1,00,1,99999,9,00,1,01,1",,,,,"99999,9,09264,1","8,1,020,1,+999,9",,"SYN072AAXX  06124 08226 12960 10000 10160 20126 39264 49982 58020 60001 80001;","Q01  00002PRCP06"
"08226099999","2010-11-07T06:00:00","4","40.6666666","-3.1666666","640.0","GUADALAJARA, SP","FM-12","99999","V020","999,9,C,0000,1","22000,1,9,N","010000,1,N,1","+0030,1","+0030,1","09900,1","12,0000,9,1","24,0000,9,1",,,,,"03,99,1,03,1,00,1,02250,1,08,1,00,1","0552,9","01,9","999,+0010,9","999,N,+0030,1","99999,9,09154,1","7,1,020,1,+999,9",,"SYN106AAXX  07064 08226 12860 30000 10030 20030 39154 49900 57020 60002 83080 333 20030 30001 50354 55092 70000;","Q01  00002PRCP24Q02  00002PRCP12"
"08226099999","2010-11-07T09:00:00","4","40.6666666","-3.1666666","640.0","GUADALAJARA, SP","FM-12","99999","V020","010,1,N,0005,1","22000,1,9,N","010000,1,N,1","+0090,1","+0090,1","09882,1",,,,,,,"04,99,1,04,1,08,1,01750,1,00,1,00,1",,,,,"99999,9,09154,1","4,1,000,1,+999,9",,"SYN066AAXX  07094 08226 42760 40101 10090 20090 39154 49882 54000 84800;",
"08226099999","2010-11-07T12:00:00","4","40.6666666","-3.1666666","640.0","GUADALAJARA, SP","FM-12","99999","V020","300,1,N,0021,1","01800,1,9,N","010000,1,N,1","+0140,1","+0102,1","09847,1","06,0000,9,1",,,,,,"06,99,1,06,1,08,1,01750,1,00,1,00,1",,,,,"99999,9,09134,1","8,1,020,1,+999,9",,"SYN072AAXX  07124 08226 12760 63004 10140 20102 39134 49847 58020 60001 86800;","Q01  00002PRCP06"
"08226099999","2010-11-08T06:00:00","4","40.6666666","-3.1666666","640.0","GUADALAJARA, SP","FM-12","99999","V020","999,9,C,0000,1","03600,1,9,N","010000,1,N,1","+0040,1","+0040,1","09800,1","12,0000,9,1","24,0000,9,1",,,,,"06,99,1,03,1,05,1,01750,1,04,1,00,1",,"01,9","999,+0020,9","999,N,+0040,1","99999,9,09064,1","7,1,030,1,+999,9",,"SYN106AAXX  08064 08226 12760 60000 10040 20040 39064 49800 57030 60002 83540 333 20040 30002 50204 55/// 70000;","Q01  00002PRCP24Q02  00002PRCP12"
"08226099999","2010-11-08T09:00:00","4","40.6666666","-3.1666666","640.0","GUADALAJARA, SP","FM-12","99999","V020","200,1,N,0057,1","03600,1,9,N","010000,1,N,1","+0080,1","+0056,1","09767,1",,,,,,,"06,99,1,04,1,07,1,01750,1,04,1,00,1",,,,,"99999,9,09044,1","7,1,020,1,+999,9",,"SYN066AAXX  08094 08226 42760 62011 10080 20056 39044 49767 57020 84740;",
"08226099999","2010-11-08T12:00:00","4","40.6666666","-3.1666666","640.0","GUADALAJARA, SP","FM-12","99999","V020","190,1,N,0062,1","01500,1,9,N","010000,1,N,1","+0100,1","+0062,1","09729,1","06,0000,9,1",,,,,,"08,99,1,08,1,07,1,01750,1,00,1,00,1",,,,,"99999,9,09014,1","7,1,030,1,+999,9",,"SYN072AAXX  08124 08226 12760 81912 10100 20062 39014 49729 57030 60001 88700;","Q01  00002PRCP06"
"08226099999","2010-11-09T06:00:00","4","40.6666666","-3.1666666","640.0","GUADALAJARA, SP","FM-12","99999","V020","260,1,N,0015,1","01200,1,9,N","010000,1,N,1","+0092,1","+0087,1","09666,1","12,0020,9,2","24,0018,9,2",,,,,"08,99,1,08,1,07,1,01250,1,00,1,00,1","0066,9","09,9","999,+0080,9","999,N,+0090,1","99999,9,08954,1","4,1,000,1,+999,9",,"SYN106AAXX  09064 08226 12660 82603 10092 20087 38954 49666 54000 60022 88700 333 20090 31008 50054 55011 70018;",
"08226099999","2010-11-09T09:00:00","4","40.6666666","-3.1666666","640.0","GUADALAJARA, SP","FM-12","99999","V020","230,1,N,0026,1","01200,1,9,N","010000,1,N,1","+0090,1","+0090,1","09666,1",,,,,,,"08,99,1,08,1,07,1,01250,1,00,1,00,1",,,,,"99999,9,08954,1","4,1,000,1,+999,9",,"SYN066AAXX  09094 08226 42660 82305 10090 20090 38954 49666 54000 88700;",
"08226099999","2010-11-09T12:00:00","4","40.6666666","-3.1666666","640.0","GUADALAJARA, SP","FM-12","99999","V020","240,1,N,0082,1","01200,1,9,N","010000,1,N,1","+0120,1","+0045,1","09660,1","06,0010,9,1",,,,,,"08,99,1,08,1,07,1,01250,1,00,1,00,1",,,,,"99999,9,08954,1","4,1,000,1,+999,9",,"SYN072AAXX  09124 08226 12660 82416 10120 20045 38954 49660 54000 60011 88700;",
"08226099999","2010-11-10T06:00:00","4","40.6666666","-3.1666666","640.0","GUADALAJARA, SP","FM-12","99999","V020","230,1,N,0036,1","01500,1,9,N","010000,1,N,1","+0076,1","+0031,1","09766,1","12,0000,9,1","24,0008,9,1",,,,,"06,99,1,06,1,07,1,01750,1,00,1,00,1","0156,9","09,9","999,+0060,9","999,N,+0069,1","99999,9,09042,1","2,1,020,1,+999,9",,"SYN100AAXX  10064 08226 12760 62307 10076 20031 39042 49766 52020 60002 86700 333 20069 31006 55026 70007;","Q01  00002PRCP12"
"08226099999","2010-11-10T09:00:00","4","40.6666666","-3.1666666","640.0","GUADALAJARA, SP","FM-12","99999","V020","190,1,N,0057,1","01500,1,9,N","010000,1,N,1","+0088,1","+0036,1","09800,1",,,,,,,"06,99,1,06,1,07,1,01750,1,00,1,00,1",,,,,"99999,9,09076,1","2,1,034,1,+999,9",,"SYN066AAXX  10094 08226 42760 61911 10088 20036 39076 49800 52034 86700;",
"08226099999","2010-11-10T12:00:00","4","40.6666666","-3.1666666","640.0","GUADALAJARA, SP","FM-12","99999","V020","290,1,N,0031,1","01500,1,9,N","010000,1,N,1","+0108,1","+0016,1","09825,1","06,0000,9,1",,,,,,"06,99,1,06,1,07,1,01750,1,00,1,00,1",,,,,"99999,9,09104,1","2,1,028,1,+999,9",,"SYN072AAXX  10124 08226 12760 62906 10108 20016 39104 49825 52028 60001 86700;","Q01  00002PRCP06"
"08226099999","2010-11-11T06:00:00","4","40.6666666","-3.1666666","640.0","GUADALAJARA, SP","FM-12","99999","V020","999,9,9,9999,9","22000,1,9,N","010000,1,N,1","-0018,1","-0024,1","09992,1","12,0000,9,1","24,0000,9,1",,,,"00,1,+99999,9,99,9","00,99,1,00,1,00,1,99999,9,00,1,00,1","0108,9",,,"999,N,-0018,1","99999,9,09226,1","2,1,012,1,+999,9",,"SYN088AAXX  11064 08226 12960 0//// 11018 21024 39226 49992 52012 60002 333 21018 55018 70000;","Q01  00002PRCP24Q02  00002PRCP12"
"08226099999","2010-11-11T09:00:00","4","40.6666666","-3.1666666","640.0","GUADALAJARA, SP","FM-12","99999","V020","999,9,C,0000,1","22000,1,9,N","010000,1,N,1","+0028,1","+0010,1","09998,1",,,,,,"00,1,+99999,9,99,9","00,99,1,00,1,00,1,99999,9,00,1,00,1",,,,,"99999,9,09244,1","2,1,018,1,+999,9",,"SYN060AAXX  11094 08226 42960 00000 10028 20010 39244 49998 52018;",
"08226099999","2010-11-11T12:00:00","4","40.6666666","-3.1666666","640.0","GUADALAJARA, SP","FM-12","99999","V020","180,1,N,0031,1","22000,1,9,N","010000,1,N,1","+0128,1","+0037,1","09977,1","06,0000,9,1",,,,,,"01,99,1,01,1,00,1,01750,1,07,1,01,1",,,,,"99999,9,09250,1","2,1,006,1,+999,9",,"SYN072AAXX  11124 08226 12760 11806 10128 20037 39250 49977 52006 60001 81071;","Q01  00002PRCP06"
"08226099999","2010-11-12T06:00:00","4","40.6666666","-3.1666666","640.0","GUADALAJARA, SP","FM-12","99999","V020","999,9,9,9999,9","22000,1,9,N","010000,1,N,1","+0022,1","+0018,1","10019,1","12,0000,9,1","24,0000,9,1",,,,"00,1,+99999,9,99,9","00,99,1,00,1,00,1,99999,9,00,1,00,1","0390,9",,,"999,N,+0022,1","99999,9,09262,1","4,1,000,1,+999,9",,"SYN088AAXX  12064 08226 12960 0//// 10022 20018 39262 40019 54000 60002 333 20022 55065 70000;","Q01  00002PRCP24Q02  00002PRCP12"
"08226099999","2010-11-12T09:00:00","4","40.6666666","-3.1666666","640.0","GUADALAJARA, SP","FM-12","99999","V020","999,9,C,0000,1","00750,1,9,N","005000,1,N,1","+0052,1","+0052,1","10023,1",,,,"4,1,03,1","1,1,03,1",,"08,99,1,08,1,05,1,00800,1,99,9,99,9",,,,,"99999,9,09274,1","2,1,012,1,+999,9","10,1","SYN072AAXX  12094 08226 41550 80000 10052 20052 39274 40023 52012 71041 885//;",
"08226099999","2010-11-12T12:00:00","4","40.6666666","-3.1666666","640.0","GUADALAJARA, SP","FM-12","99999","V020","160,1,N,0015,1","01200,1,9,N","010000,1,N,1","+0096,1","+0067,1","10000,1","06,0000,9,1",,,,,,"08,99,1,08,1,05,1,01250,1,99,9,99,9",,,,,"99999,9,09264,1","7,1,010,1,+999,9",,"SYN072AAXX  12124 08226 12660 81603 10096 20067 39264 40000 57010 60001 885//;","Q01  00002PRCP06"
"08226099999","2010-11-13T06:00:00","4","40.6666666","-3.1666666","640.0","GUADALAJARA, SP","FM-12","99999","V020","999,9,9,9999,9","00750,1,9,N","005000,1,N,1","+0048,1","+0048,1","09940,1","12,0000,9,1","24,0000,9,1",,"2,1,06,1","2,1,06,1",,"08,99,1,08,1,05,1,00800,1,99,9,99,9","0234,9",,,"999,N,+0048,1","99999,9,09196,1","7,1,016,1,+999,9","10,1","SYN100AAXX  13064 08226 11550 8//// 10048 20048 39196 49940 57016 60002 71022 885// 333 20048 55039 70000;","Q01  00002PRCP24Q02  00002PRCP12"
"08226099999","2010-11-13T09:00:00","4","40.6666666","-3.1666666","640.0","GUADALAJARA, SP","FM-12","99999","V020","999,9,C,0000,1","00390,1,9,N","000500,1,N,1","+0069,1","+0069,1","09932,1",,,,"5,1,03,1","4,1,03,1","09,1,+00390,1,99,9","09,99,1,09,1,99,9,99999,9,99,9,99,9",,,,,"99999,9,09194,1","7,1,002,1,+999,9","45,1","SYN076AAXX  13094 08226 41/05 90000 10069 20069 39194 49932 57002 74554 333 89/13;",
"08226099999","2010-11-13T12:00:00","4","40.6666666","-3.1666666","640.0","GUADALAJARA, SP","FM-12","99999","V020","200,1,N,0031,1","00750,1,9,N","010000,1,N,1","+0108,1","+0060,1","09909,1","06,0000,9,1",,,"5,1,06,1","4,1,06,1",,"08,99,1,08,1,07,1,00800,1,99,9,99,9",,,,,"99999,9,09182,1","8,1,012,1,+999,9","02,1","SYN078AAXX  13124 08226 11560 82006 10108 20060 39182 49909 58012 69911 70254 887//;","Q01  00002PRCP06"
"08226099999","2010-11-14T06:00:00","4","40.6666666","-3.1666666","640.0","GUADALAJARA, SP","FM-12","99999","V020","180,1,N,0015,1","01200,1,9,N","010000,1,N,1","+0084,1","+0055,1","09846,1","12,0000,9,1","24,0000,9,1",,,,,"06,99,1,05,1,07,1,01250,1,08,1,00,1","0000,9","09,9","999,+0080,9","999,N,+0084,1","99999,9,09118,1","7,1,010,1,+999,9",,"SYN100AAXX  14064 08226 12660 61803 10084 20055 39118 49846 57010 60002 85780 333 20084 31008 55000 70001;","Q01  00002PRCP24Q02  00002PRCP12"
"08226099999","2010-11-14T09:00:00","4","40.6666666","-3.1666666","640.0","GUADALAJARA, SP","FM-12","99999","V020","220,1,N,0015,1","01200,1,9,N","010000,1,N,1","+0093,1","+0049,1","09855,1",,,,,,,"08,99,1,08,1,07,1,01250,1,99,9,99,9",,,,,"99999,9,09129,1","2,1,011,1,+999,9",,"SYN066AAXX  14094 08226 42660 82203 10093 20049 39129 49855 52011 887//;",
"08226099999","2010-11-14T12:00:00","4","40.6666666","-3.1666666","640.0","GUADALAJARA, SP","FM-12","99999","V020","210,1,N,0031,1","01200,1,9,N","010000,1,N,1","+0104,1","+0075,1","09847,1","06,0000,9,1",,,,,,"08,99,1,08,1,07,1,01250,1,99,9,99,9",,,,,"99999,9,09124,1","8,1,005,1,+999,9",,"SYN072AAXX  14124 08226 12660 82106 10104 20075 39124 49847 58005 60001 887//;","Q01  00002PRCP06"
"08226099999","2010-11-15T06:00:00","4","40.6666666","-3.1666666","640.0","GUADALAJARA, SP","FM-12","99999","V020","999,9,9,9999,9","22000,1,9,N","010000,1,N,1","+0032,1","+0008,1","09926,1","12,0109,9,1","24,0203,9,1",,,,"00,1,+99999,9,99,9","00,99,1,00,1,00,1,99999,9,00,1,00,1","0030,9",,,"999,N,+0032,1","99999,9,09178,1","2,1,020,1,+999,9",,"SYN088AAXX  15064 08226 12960 0//// 10032 20008 39178 49926 52020 60112 333 20032 55005 70204;",
"08226099999","2010-11-15T09:00:00","4","40.6666666","-3.1666666","640.0","GUADALAJARA, SP","FM-12","99999","V020","999,9,C,0000,1","22000,1,9,N","010000,1,N,1","+0062,1","+0003,1","09948,1",,,,,,,"02,99,1,02,1,07,1,01750,1,08,1,00,1",,,,,"99999,9,09206,1","2,1,028,1,+999,9",,"SYN066AAXX  15094 08226 42760 20000 10062 20003 39206 49948 52028 82780;",
"08226099999","2010-11-15T12:00:00","4","40.6666666","-3.1666666","640.0","GUADALAJARA, SP","FM-12","99999","V020","270,1,N,0036,1","01500,1,9,N","010000,1,N,1","+0094,1","+0032,1","09947,1","06,0000,9,1",,,,,,"05,99,1,05,1,07,1,01750,1,08,1,00,1",,,,,"99999,9,09214,1","2,1,008,1,+999,9",,"SYN072AAXX  15124 08226 12760 52707 10094 20032 39214 49947 52008 60001 85780;","Q01  00002PRCP06"
"08226099999","2010-11-16T06:00:00","4","40.6666666","-3.1666666","640.0","GUADALAJARA, SP","FM-12","99999","V020","999,9,9,9999,9","22000,1,9,N","010000,1,N,1","-0008,1","-0008,1","10036,1","12,0000,9,1","24,0000,9,1",,,,,"01,99,1,00,1,00,1,99999,9,00,1,01,1","0270,9",,,"999,N,-0008,1","99999,9,09269,1","2,1,003,1,+999,9",,"SYN094AAXX  16064 08226 12860 1//// 11008 21008 39269 40036 52003 60002 80001 333 21008 55045 70000;","Q01+022502SCOLCBQ02  00002PRCP24Q03  00002PRCP12"
"08226099999","2010-11-16T09:00:00","4","40.6666666","-3.1666666","640.0","GUADALAJARA, SP","FM-12","99999","V020","999,9,C,0000,1","22000,1,9,N","010000,1,N,1","+0031,1","+0012,1","10032,1",,,,,,,"02,99,1,00,1,00,1,99999,9,00,1,01,1",,,,,"99999,9,09276,1","2,1,007,1,+999,9",,"SYN066AAXX  16094 08226 42860 20000 10031 20012 39276 40032 52007 80001;","Q01+022502SCOLCB"
"08226099999","2010-11-16T12:00:00","4","40.6666666","-3.1666666","640.0","GUADALAJARA, SP","FM-12","99999","V020","220,1,N,0015,1","22000,1,9,N","010000,1,N,1","+0107,1","+0033,1","10000,1","06,0000,9,1",,,,,,"02,99,1,00,1,00,1,99999,9,00,1,01,1",,,,,"99999,9,09266,1","8,1,010,1,+999,9",,"SYN072AAXX  16124 08226 12860 22203 10107 20033 39266 40000 58010 60001 80001;","Q01+022502SCOLCBQ02  00002PRCP06"
"08226099999","2010-11-17T06:00:00","4","40.6666666","-3.1666666","640.0","GUADALAJARA, SP","FM-12","99999","V020","999,9,C,0000,1","01200,1,9,N","010000,1,N,1","+0050,1","+0050,1","09905,1","12,0010,9,1","24,0010,9,1",,"2,1,06,1","2,1,06,1",,"08,99,1,08,1,07,1,01250,1,00,1,00,1",,"09,9","999,+0020,9","999,N,+0030,1","99999,9,09164,1","7,1,010,1,+999,9","61,1","SYN112AAXX  17064 08226 11660 80000 10050 20050 39164 49905 57010 60012 76122 88700 333 20030 31002 50114 55/// 70010;",
"08226099999","2010-11-17T09:00:00","4","40.6666666","-3.1666666","640.0","GUADALAJARA, SP","FM-12","99999","V020","999,9,C,0000,1","01200,1,9,N","010000,1,N,1","+0060,1","+0060,1","09891,1",,,,,,,"08,99,1,08,1,07,1,01250,1,00,1,00,1",,,,,"99999,9,09154,1","6,1,010,1,+999,9",,"SYN066AAXX  17094 08226 42660 80000 10060 20060 39154 49891 56010 88700;",
"08226099999","2010-11-17T12:00:00","4","40.6666666","-3.1666666","640.0","GUADALAJARA, SP","FM-12","99999","V020","200,1,N,0041,1","01200,1,9,N","010000,1,N,1","+0063,1","+0063,1","09890,1","06,0051,9,1",,,,,,"08,99,1,08,1,07,1,01250,1,00,1,00,1",,,,,"99999,9,09154,1","4,1,000,1,+999,9",,"SYN072AAXX  17124 08226 12660 82008 10063 20063 39154 49890 54000 60051 88700;",
"08226099999","2010-11-18T06:00:00","4","40.6666666","-3.1666666","640.0","GUADALAJARA, SP","FM-12","99999","V020","999,9,C,0000,1","22000,1,9,N","010000,1,N,1","-0020,1","-0037,1","09937,1","12,0000,9,1","24,0051,9,1",,,,"00,1,+99999,9,99,9","00,99,1,00,1,00,1,99999,9,00,1,00,1","0000,9","01,9","999,-0030,9","999,N,-0020,1","99999,9,09174,1","4,1,000,1,+999,9",,"SYN100AAXX  18064 08226 12960 00000 11020 21037 39174 49937 54000 60002 333 21020 30103 50054 55000 70050;","Q01  00002PRCP12"
"08226099999","2010-11-18T09:00:00","4","40.6666666","-3.1666666","640.0","GUADALAJARA, SP","FM-12","99999","V020","999,9,C,0000,1","22000,1,9,N","010000,1,N,1","+0050,1","-0021,1","09938,1",,,,,,,"02,99,1,02,1,07,1,00800,1,00,1,00,1",,,,,"99999,9,09194,1","3,1,020,1,+999,9",,"SYN066AAXX  18094 08226 42560 20000 10050 21021 39194 49938 53020 82700;",
"08226099999","2010-11-18T12:00:00","4","40.6666666","-3.1666666","640.0","GUADALAJARA, SP","FM-12","99999","V020","240,1,N,0026,1","22000,1,9,N","010000,1,N,1","+0100,1","+0058,1","09928,1","06,0000,9,1",,,,,,"03,99,1,03,1,07,1,01250,1,00,1,00,1",,,,,"99999,9,09198,1","1,1,004,1,+999,9",,"SYN072AAXX  18124 08226 12660 32405 10100 20058 39198 49928 51004 60001 83700;","Q01  00002PRCP06"
"08226099999","2010-11-19T06:00:00","4","40.6666666","-3.1666666","640.0","GUADALAJARA, SP","FM-12","99999","V020","999,9,C,0000,1","01200,1,9,N","010000,1,N,1","-0010,1","-0024,1","09955,1","12,0000,9,1","24,0000,9,1",,,,,"06,99,1,06,1,07,1,01250,1,00,1,00,1","0438,9","01,9","999,-0020,9","999,N,-0018,1","99999,9,09194,1","6,1,010,1,+999,9",,"SYN106AAXX  19064 08226 12660 60000 11010 21024 39194 49955 56010 60002 86700 333 21018 30102 50154 55073 70000;","Q01  00002PRCP24Q02  00002PRCP12"
"08226099999","2010-11-19T09:00:00","4","40.6666666","-3.1666666","640.0","GUADALAJARA, SP","FM-12","99999","V020","999,9,C,0000,1","01200,1,9,N","010000,1,N,1","+0020,1","+0005,1","09957,1",,,,,,,"08,99,1,08,1,07,1,01250,1,00,1,00,1",,,,,"99999,9,09204,1","3,1,010,1,+999,9",,"SYN066AAXX  19094 08226 42660 80000 10020 20005 39204 49957 53010 88700;",
"08226099999","2010-11-19T12:00:00","4","40.6666666","-3.1666666","640.0","GUADALAJARA, SP","FM-12","99999","V020","280,1,N,0010,1","01200,1,9,N","010000,1,N,1","+0090,1","+0066,1","09926,1","06,0000,9,1",,,,,,"06,99,1,06,1,07,1,01250,1,00,1,00,1",,,,,"99999,9,09194,1","8,1,010,1,+999,9",,"SYN072AAXX  19124 08226 12660 62802 10090 20066 39194 49926 58010 60001 86700;","Q01  00002PRCP06"
"08226099999","2010-11-20T06:00:00","4","40.6666666","-3.1666666","640.0","GUADALAJARA, SP","FM-12","99999","V020","180,1,N,0062,1","01200,1,9,N","010000,1,N,1","+0080,1","+0080,1","09853,1","12,0005,9,1","24,0005,9,1",,"2,1,06,1","2,1,06,1",,"08,99,1,08,1,07,1,01250,1,00,1,00,1","0156,9","09,9","999,+0070,9","999,N,+0075,1","99999,9,09124,1","6,1,020,1,+999,9","61,1","SYN112AAXX  20064 08226 11660 81812 10080 20080 39124 49853 56020 69942 76122 88700 333 20075 31007 50054 55026 70004;",
"08226099999","2010-11-20T09:00:00","4","40.6666666","-3.1666666","640.0","GUADALAJARA, SP","FM-12","99999","V020","020,1,N,0010,1","01200,1,9,N","010000,1,N,1","+0070,1","+0070,1","09877,1",,,,,,,"08,99,1,08,1,07,1,01250,1,00,1,00,1",,,,,"99999,9,09144,1","3,1,020,1,+999,9",,"SYN066AAXX  20094 08226 42660 80202 10070 20070 39144 49877 53020 88700;",
"08226099999","2010-11-20T12:00:00","4","40.6666666","-3.1666666","640.0","GUADALAJARA, SP","FM-12","99999","V020","220,1,N,0026,1","22000,1,9,N","010000,1,N,1","+0110,1","+0077,1","09862,1","06,0051,9,1",,,,,,"03,99,1,03,1,07,1,01250,1,00,1,00,1",,,,,"99999,9,09140,1","8,1,004,1,+999,9",,"SYN072AAXX  20124 08226 12660 32205 10110 20077 39140 49862 58004 60051 83700;",
"08226099999","2010-11-21T06:00:00","4","40.6666666","-3.1666666","640.0","GUADALAJARA, SP","FM-12","99999","V020","200,1,N,0036,1","22000,1,9,N","010000,1,N,1","+0057,1","+0042,1","09827,1","12,0000,9,1","24,0051,9,1",,,,,"04,99,1,04,1,07,1,01250,1,00,1,00,1","0336,9","09,9","999,+0000,9","999,N,+0017,1","99999,9,09094,1","6,1,010,1,+999,9",,"SYN106AAXX  21064 08226 12660 42007 10057 20042 39094 49827 56010 60002 84700 333 20017 31000 50054 55056 70050;","Q01  00002PRCP12"
"08226099999","2010-11-21T09:00:00","4","40.6666666","-3.1666666","640.0","GUADALAJARA, SP","FM-12","99999","V020","240,1,N,0021,1","01200,1,9,N","010000,1,N,1","+0061,1","+0060,1","09848,1",,,,,,,"07,99,1,07,1,07,1,01250,1,00,1,00,1",,,,,"99999,9,09114,1","3,1,020,1,+999,9",,"SYN066AAXX  21094 08226 42660 72404 10061 20060 39114 49848 53020 87700;",
"08226099999","2010-11-21T12:00:00","4","40.6666666","-3.1666666","640.0","GUADALAJARA, SP","FM-12","99999","V020","270,1,N,0031,1","01200,1,9,N","010000,1,N,1","+0115,1","+0072,1","09833,1","06,0000,9,1",,,,,,"08,99,1,08,1,07,1,01250,1,00,1,00,1",,,,,"99999,9,09114,1","4,1,000,1,+999,9",,"SYN072AAXX  21124 08226 12660 82706 10115 20072 39114 49833 54000 60001 88700;","Q01  00002PRCP06"
"08226099999","2010-11-22T06:00:00","4","40.6666666","-3.1666666","640.0","GUADALAJARA, SP","FM-12","99999","V020","999,9,C,0000,1","01200,1,9,N","010000,1,N,1","+0053,1","+0053,1","09850,1","12,0000,9,1","24,0000,9,1",,,,,"06,99,1,06,1,07,1,01250,1,00,1,00,1","0054,9","09,9","999,+0020,9","999,N,+0040,1","99999,9,09114,1","4,1,000,1,+999,9",,"SYN106AAXX  22064 08226 12660 60000 10053 20053 39114 49850 54000 60002 86700 333 20040 31002 50054 55009 70000;","Q01  00002PRCP24Q02  00002PRCP12"
"08226099999","2010-11-22T09:00:00","4","40.6666666","-3.1666666","640.0","GUADALAJARA, SP","FM-12","99999","V020","999,9,C,0000,1","01200,1,9,N","010000,1,N,1","+0053,1","+0053,1","09872,1",,,,,,,"06,99,1,06,1,07,1,01250,1,00,1,00,1",,,,,"99999,9,09134,1","3,1,020,1,+999,9",,"SYN066AAXX  22094 08226 42660 60000 10053 20053 39134 49872 53020 86700;",
"08226099999","2010-11-22T12:00:00","4","40.6666666","-3.1666666","640.0","GUADALAJARA, SP","FM-12","99999","V020","999,9,C,0000,1","01500,1,9,N","010000,1,N,1","+0095,1","+0053,1","09860,1","06,0003,9,1",,,,,,"06,99,1,06,1,07,1,01750,1,00,1,00,1",,,,,"99999,9,09134,1","4,1,000,1,+999,9",,"SYN072AAXX  22124 08226 12760 60000 10095 20053 39134 49860 54000 69931 86700;",
"08226099999","2010-11-23T06:00:00","4","40.6666666","-3.1666666","640.0","GUADALAJARA, SP","FM-12","99999","V020","999,9,C,0000,1","22000,1,9,N","010000,1,N,1","+0000,1","-0006,1","09902,1","12,0000,9,1","24,0003,9,1",,,,,"03,99,1,01,1,00,1,01750,1,07,1,01,1","0162,9",,,"999,N,+0000,1","99999,9,09148,1","2,1,002,1,+999,9",,"SYN094AAXX  23064 08226 12760 30000 10000 21006 39148 49902 52002 60002 81071 333 20000 55027 70002;","Q01  00002PRCP12"
"08226099999","2010-11-23T09:00:00","4","40.6666666","-3.1666666","640.0","GUADALAJARA, SP","FM-12","99999","V020","010,1,N,0015,1","22000,1,9,N","010000,1,N,1","+0028,1","+0013,1","09903,1",,,,,,,"04,99,1,03,1,07,1,01750,1,08,1,01,1",,,,,"99999,9,09156,1","2,1,008,1,+999,9",,"SYN066AAXX  23094 08226 42760 40103 10028 20013 39156 49903 52008 83781;",
"08226099999","2010-11-23T12:00:00","4","40.6666666","-3.1666666","640.0","GUADALAJARA, SP","FM-12","99999","V020","210,1,N,0031,1","03600,1,9,N","010000,1,N,1","+0100,1","+0048,1","09883,1","06,0000,9,1",,,,,,"05,99,1,03,1,07,1,01750,1,08,1,00,1",,,,,"99999,9,09156,1","4,1,000,1,+999,9",,"SYN072AAXX  23124 08226 12760 52106 10100 20048 39156 49883 54000 60001 83780;","Q01  00002PRCP06"
"08226099999","2010-11-24T06:00:00","4","40.6666666","-3.1666666","640.0","GUADALAJARA, SP","FM-12","99999","V020","999,9,C,0000,1","22000,1,9,N","010000,1,N,1","-0010,1","-0010,1","09912,1","12,0000,9,1","24,0000,9,1",,,,"00,1,+99999,9,99,9","00,99,1,00,1,00,1,99999,9,00,1,00,1","0000,9","01,9","999,-0020,9","999,N,-0010,1","99999,9,09154,1","4,1,000,1,+999,9",,"SYN100AAXX  24064 08226 12960 00000 11010 21010 39154 49912 54000 60002 333 21010 30102 50034 55000 70000;","Q01  00002PRCP24Q02  00002PRCP12"
"08226099999","2010-11-24T09:00:00","4","40.6666666","-3.1666666","640.0","GUADALAJARA, SP","FM-12","99999","V020","999,9,C,0000,1","22000,1,9,N","010000,1,N,1","+0028,1","-0021,1","09914,1",,,,,,"00,1,+99999,9,99,9","00,99,1,00,1,00,1,99999,9,00,1,00,1",,,,,"99999,9,09166,1","3,1,012,1,+999,9",,"SYN060AAXX  24094 08226 42960 00000 10028 21021 39166 49914 53012;",
"08226099999","2010-11-24T12:00:00","4","40.6666666","-3.1666666","640.0","GUADALAJARA, SP","FM-12","99999","V020","020,1,N,0010,1","22000,1,9,N","010000,1,N,1","+0104,1","+0041,1","09882,1","06,0000,9,1",,,,,"00,1,+99999,9,99,9","00,99,1,00,1,00,1,99999,9,00,1,00,1",,,,,"99999,9,09156,1","8,1,010,1,+999,9",,"SYN066AAXX  24124 08226 12960 00202 10104 20041 39156 49882 58010 60001;","Q01  00002PRCP06"
"08226099999","2010-11-25T06:00:00","4","40.6666666","-3.1666666","640.0","GUADALAJARA, SP","FM-12","99999","V020","999,9,C,0000,1","22000,1,9,N","010000,1,N,1","-0020,1","-0023,1","09915,1","12,0000,9,1","24,0000,9,1",,,,"00,1,+99999,9,99,9","00,99,1,00,1,00,1,99999,9,00,1,00,1","0390,9","01,9","999,-0040,9","999,N,-0020,1","99999,9,09154,1","7,1,010,1,+999,9",,"SYN100AAXX  25064 08226 12960 00000 11020 21023 39154 49915 57010 60002 333 21020 30104 50104 55065 70000;","Q01  00002PRCP24Q02  00002PRCP12"
"08226099999","2010-11-25T09:00:00","4","40.6666666","-3.1666666","640.0","GUADALAJARA, SP","FM-12","99999","V020","999,9,C,0000,1","22000,1,9,N","010000,1,N,1","+0030,1","-0019,1","09901,1",,,,,,"00,1,+99999,9,99,9","00,99,1,00,1,00,1,99999,9,00,1,00,1",,,,,"99999,9,09154,1","4,1,000,1,+999,9",,"SYN060AAXX  25094 08226 42960 00000 10030 21019 39154 49901 54000;",
"08226099999","2010-11-25T12:00:00","4","40.6666666","-3.1666666","640.0","GUADALAJARA, SP","FM-12","99999","V020","999,9,C,0000,1","22000,1,9,N","010000,1,N,1","+0085,1","+0023,1","09874,1","06,0000,9,1",,,,,"00,1,+99999,9,99,9","00,99,1,00,1,00,1,99999,9,00,1,00,1",,,,,"99999,9,09144,1","8,1,010,1,+999,9",,"SYN066AAXX  25124 08226 12960 00000 10085 20023 39144 49874 58010 60001;","Q01  00002PRCP06"
"08226099999","2010-11-26T06:00:00","4","40.6666666","-3.1666666","640.0","GUADALAJARA, SP","FM-12","99999","V020","999,9,9,9999,9","22000,1,9,N","010000,1,N,1","-0034,1","-0041,1","09915,1","12,0000,9,1","24,0000,9,1",,,,"00,1,+99999,9,99,9","00,99,1,00,1,00,1,99999,9,00,1,00,1","0498,9",,,"999,N,-0034,1","99999,9,09150,1","7,1,004,1,+999,9",,"SYN088AAXX  26064 08226 12960 0//// 11034 21041 39150 49915 57004 60002 333 21034 55083 70000;","Q01  00002PRCP24Q02  00002PRCP12"
"08226099999","2010-11-26T09:00:00","4","40.6666666","-3.1666666","640.0","GUADALAJARA, SP","FM-12","99999","V020","999,9,9,9999,9","22000,1,9,N","010000,1,N,1","+0002,1","-0039,1","09911,1",,,,,,,"01,99,1,00,1,00,1,99999,9,00,1,01,1",,,,,"99999,9,09156,1","2,1,006,1,+999,9",,"SYN066AAXX  26094 08226 42860 1//// 10002 21039 39156 49911 52006 80001;","Q01+022502SCOLCB"
"08226099999","2010-11-26T12:00:00","4","40.6666666","-3.1666666","640.0","GUADALAJARA, SP","FM-12","99999","V020","050,1,N,0026,1","22000,1,9,N","010000,1,N,1","+0069,1","-0017,1","09878,1","06,0000,9,1",,,,,"00,1,+99999,9,99,9","00,99,1,00,1,00,1,99999,9,00,1,00,1",,,,,"99999,9,09143,1","7,1,013,1,+999,9",,"SYN066AAXX  26124 08226 12960 00505 10069 21017 39143 49878 57013 60001;","Q01  00002PRCP06"
"08226099999","2010-11-27T06:00:00","4","40.6666666","-3.1666666","640.0","GUADALAJARA, SP","FM-12","99999","V020","999,9,9,9999,9","22000,1,9,N","010000,1,N,1","-0040,1","-0040,1","09834,1","12,0000,9,1","24,0000,9,1",,,,,"02,99,1,00,1,00,1,99999,9,00,1,01,1","0510,9",,,"999,N,-0040,1","99999,9,09074,1","7,1,010,1,+999,9",,"SYN094AAXX  27064 08226 12860 2//// 11040 21040 39074 49834 57010 60002 80001 333 21040 55085 70000;","Q01+022502SCOLCBQ02  00002PRCP24Q03  00002PRCP12"
"08226099999","2010-11-27T09:00:00","4","40.6666666","-3.1666666","640.0","GUADALAJARA, SP","FM-12","99999","V020","999,9,9,9999,9","99999,9,9,N","010000,1,N,1","-0020,1","-0045,1","09829,1",,,,,,,"06,99,1,00,1,00,1,99999,9,00,1,08,1",,,,,"99999,9,09074,1","4,1,000,1,+999,9","03,1","SYN072AAXX  27094 08226 41860 6//// 11020 21045 39074 49829 54000 703/1 80008;","Q01+022502SCOLCB"
"08226099999","2010-11-27T12:00:00","4","40.6666666","-3.1666666","640.0","GUADALAJARA, SP","FM-12","99999","V020","999,9,C,0000,1","09000,1,9,N","010000,1,N,1","+0040,1","-0006,1","09800,1","06,0000,9,1",,,,,,"08,99,1,02,1,00,1,01750,1,02,1,07,1",,,,,"99999,9,09064,1","7,1,010,1,+999,9",,"SYN072AAXX  27124 08226 12760 80000 10040 21006 39064 49800 57010 60001 82027;","Q01  00002PRCP06"
"08226099999","2010-11-28T06:00:00","4","40.6666666","-3.1666666","640.0","GUADALAJARA, SP","FM-12","99999","V020","999,9,9,9999,9","22000,1,9,N","010000,1,N,1","-0055,1","-0055,1","09813,1","12,0000,9,1","24,0000,9,1",,,,,"04,99,1,00,1,00,1,99999,9,00,1,08,1","0012,9",,,"999,N,-0055,1","99999,9,09050,1","2,1,006,1,+999,9",,"SYN094AAXX  28064 08226 12860 4//// 11055 21055 39050 49813 52006 60002 80008 333 21055 55002 70000;","Q01+022502SCOLCBQ02  00002PRCP24Q03  00002PRCP12"
"08226099999","2010-11-28T09:00:00","4","40.6666666","-3.1666666","640.0","GUADALAJARA, SP","FM-12","99999","V020","999,9,9,9999,9","03600,1,9,N","010000,1,N,1","-0033,1","-0040,1","09832,1",,,,,,,"06,99,1,03,1,07,1,01750,1,08,1,08,1",,,,,"99999,9,09074,1","2,1,024,1,+999,9",,"SYN066AAXX  28094 08226 42760 6//// 11033 21040 39074 49832 52024 83788;",
"08226099999","2010-11-28T12:00:00","4","40.6666666","-3.1666666","640.0","GUADALAJARA, SP","FM-12","99999","V020","160,1,N,0026,1","22000,1,9,N","010000,1,N,1","+0057,1","-0004,1","09813,1","06,0000,9,1",,,,,,"01,99,1,01,1,07,1,01750,1,00,1,00,1",,,,,"99999,9,09080,1","2,1,006,1,+999,9",,"SYN072AAXX  28124 08226 12760 11605 10057 21004 39080 49813 52006 60001 81700;","Q01  00002PRCP06"
"08226099999","2010-11-29T06:00:00","4","40.6666666","-3.1666666","640.0","GUADALAJARA, SP","FM-12","99999","V020","999,9,9,9999,9","01500,1,9,N","010000,1,N,1","-0044,1","-0052,1","09846,1","12,0000,9,1","24,0000,9,1",,,,,"07,99,1,07,1,07,1,01750,1,99,9,99,9","0294,9",,,"999,N,-0044,1","99999,9,09084,1","7,1,018,1,+999,9",,"SYN094AAXX  29064 08226 12760 7//// 11044 21052 39084 49846 57018 60002 877// 333 21044 55049 70000;","Q01  00002PRCP24Q02  00002PRCP12"
"08226099999","2010-11-29T09:00:00","4","40.6666666","-3.1666666","640.0","GUADALAJARA, SP","FM-12","99999","V020","999,9,9,9999,9","01500,1,9,N","010000,1,N,1","-0030,1","-0041,1","09836,1",,,,,,,"08,99,1,08,1,07,1,01750,1,99,9,99,9",,,,,"99999,9,09078,1","7,1,006,1,+999,9",,"SYN066AAXX  29094 08226 42760 8//// 11030 21041 39078 49836 57006 887//;",
"08226099999","2010-11-29T12:00:00","4","40.6666666","-3.1666666","640.0","GUADALAJARA, SP","FM-12","99999","V020","999,9,9,9999,9","01500,1,9,N","010000,1,N,1","+0010,1","-0024,1","09809,1","06,0000,9,1",,,,,,"08,99,1,08,1,07,1,01750,1,99,9,99,9",,,,,"99999,9,09064,1","7,1,014,1,+999,9",,"SYN072AAXX  29124 08226 12760 8//// 10010 21024 39064 49809 57014 60001 887//;","Q01  00002PRCP06"
"08226099999","2010-11-30T06:00:00","4","40.6666666","-3.1666666","640.0","GUADALAJARA, SP","FM-12","99999","V020","999,9,9,9999,9","00750,1,9,N","005000,1,N,1","+0012,1","+0012,1","09755,1","12,0030,9,1","24,0033,9,1",,"6,1,06,1","6,1,06,1",,"08,99,1,08,1,07,1,00800,1,99,9,99,9",,,,"999,N,+0000,1","99999,9,09015,1","7,1,005,1,+999,9","60,1","SYN100AAXX  30064 08226 11550 8//// 10012 20012 39015 49755 57005 60032 76066 887// 333 20000 55/// 70034;",
"08226099999","2010-11-30T09:00:00","4","40.6666666","-3.1666666","640.0","GUADALAJARA, SP","FM-12","99999","V020","999,9,9,9999,9","00750,1,9,N","010000,1,N,1","+0022,1","+0022,1","09749,1",,,,"6,1,03,1","4,1,03,1",,"08,99,1,08,1,07,1,00800,1,99,9,99,9",,,,,"99999,9,09012,1","7,1,003,1,+999,9","40,1","SYN072AAXX  30094 08226 41560 8//// 10022 20022 39012 49749 57003 74064 887//;",
"08226099999","2010-11-30T12:00:00","4","40.6666666","-3.1666666","640.0","GUADALAJARA, SP","FM-12","99999","V020","999,9,C,0000,1","00750,1,9,N","005000,1,N,1","+0049,1","+0049,1","09732,1","06,0008,9,1",,,"6,1,06,1","2,1,06,1",,"08,99,1,08,1,07,1,00800,1,99,9,99,9",,,,,"99999,9,09004,1","7,1,008,1,+999,9","50,1","SYN078AAXX  30124 08226 11550 80000 10049 20049 39004 49732 57008 69971 75062 887//;",
"08226099999","2010-12-01T06:00:00","4","40.6666666","-3.1666666","640.0","GUADALAJARA, SP","FM-12","99999","V020","999,9,9,9999,9","01200,1,9,N","010000,1,N,1","+0032,1","+0022,1","09770,1","12,0000,9,1","24,0041,9,1",,,,,"08,99,1,08,1,07,1,01250,1,99,9,99,9","0000,9",,,"999,N,+0028,1","99999,9,09034,1","2,1,002,1,+999,9",,"SYN094AAXX  01064 08226 12660 8//// 10032 20022 39034 49770 52002 60002 887// 333 20028 55000 70040;","Q01  00002PRCP12"
"08226099999","2010-12-01T09:00:00","4","40.6666666","-3.1666666","640.0","GUADALAJARA, SP","FM-12","99999","V020","220,1,N,0026,1","01200,1,9,N","010000,1,N,1","+0034,1","+0016,1","09791,1",,,,,,,"08,99,1,08,1,07,1,01250,1,99,9,99,9",,,,,"99999,9,09054,1","2,1,020,1,+999,9",,"SYN066AAXX  01094 08226 42660 82205 10034 20016 39054 49791 52020 887//;",
"08226099999","2010-12-01T12:00:00","4","40.6666666","-3.1666666","640.0","GUADALAJARA, SP","FM-12","99999","V020","210,1,N,0041,1","01200,1,9,N","010000,1,N,1","+0056,1","+0024,1","09796,1","06,0000,9,1",,,,,,"08,99,1,08,1,07,1,01250,1,99,9,99,9",,,,,"99999,9,09064,1","2,1,010,1,+999,9",,"SYN072AAXX  01124 08226 12660 82108 10056 20024 39064 49796 52010 60001 887//;","Q01  00002PRCP06"
"08226099999","2010-12-02T06:00:00","4","40.6666666","-3.1666666","640.0","GUADALAJARA, SP","FM-12","99999","V020","999,9,9,9999,9","09000,1,9,N","010000,1,N,1","-0006,1","-0006,1","09857,1","12,0000,9,1","24,0000,9,1",,,,,"06,99,1,04,1,00,1,01750,1,08,1,08,1","0072,9",,,"999,N,-0006,1","99999,9,09104,1","7,1,002,1,+999,9",,"SYN094AAXX  02064 08226 12760 6//// 11006 21006 39104 49857 57002 60002 84088 333 21006 55012 70000;","Q01  00002PRCP24Q02  00002PRCP12"
"08226099999","2010-12-02T09:00:00","4","40.6666666","-3.1666666","640.0","GUADALAJARA, SP","FM-12","99999","V020","999,9,C,0000,1","03600,1,9,N","010000,1,N,1","+0023,1","+0019,1","09867,1",,,,,,,"05,99,1,02,1,07,1,01750,1,08,1,05,1",,,,,"99999,9,09122,1","2,1,018,1,+999,9",,"SYN066AAXX  02094 08226 42760 50000 10023 20019 39122 49867 52018 82785;",
"08226099999","2010-12-02T12:00:00","4","40.6666666","-3.1666666","640.0","GUADALAJARA, SP","FM-12","99999","V020","280,1,N,0026,1","01200,1,9,N","010000,1,N,1","+0054,1","+0004,1","09860,1","06,0000,9,1",,,,,,"08,99,1,08,1,07,1,01250,1,99,9,99,9",,,,,"99999,9,09123,1","0,1,001,1,+999,9",,"SYN072AAXX  02124 08226 12660 82805 10054 20004 39123 49860 50001 60001 887//;","Q01  00002PRCP06"
"08226099999","2010-12-03T06:00:00","4","40.6666666","-3.1666666","640.0","GUADALAJARA, SP","FM-12","99999","V020","999,9,C,0000,1","22000,1,9,N","010000,1,N,1","-0010,1","-0024,1","09912,1","12,0000,9,1","24,0000,9,1",,,,"00,1,+99999,9,99,9","00,99,1,00,1,00,1,99999,9,00,1,00,1",,"14,9","999,-0030,9","999,N,-0010,1","99999,9,09154,1","2,1,019,1,+999,9",,"SYN100AAXX  03064 08226 12960 00000 11010 21024 39154 49912 52019 60002 333 21010 34103 50184 55/// 70000;","Q01  00002PRCP24Q02  00002PRCP12"
"08226099999","2010-12-03T09:00:00","4","40.6666666","-3.1666666","640.0","GUADALAJARA, SP","FM-12","99999","V020","999,9,9,9999,9","22000,1,9,N","010000,1,N,1","+0030,1","-0051,1","09944,1",,,,,,"00,1,+99999,9,99,9","00,99,1,00,1,00,1,99999,9,00,1,00,1",,,,,"99999,9,09194,1","2,1,040,1,+999,9",,"SYN060AAXX  03094 08226 42960 0//// 10030 21051 39194 49944 52040;",
"08226099999","2010-12-03T12:00:00","4","40.6666666","-3.1666666","640.0","GUADALAJARA, SP","FM-12","99999","V020","330,1,N,0046,1","22000,1,9,N","010000,1,N,1","+0050,1","-0021,1","09949,1","06,0000,9,1",,,,,"00,1,+99999,9,99,9","00,99,1,00,1,00,1,99999,9,00,1,00,1",,,,,"99999,9,09204,1","1,1,010,1,+999,9",,"SYN066AAXX  03124 08226 12960 03309 10050 21021 39204 49949 51010 60001;","Q01  00002PRCP06"
"08226099999","2010-12-04T06:00:00","4","40.6666666","-3.1666666","640.0","GUADALAJARA, SP","FM-12","99999","V020","999,9,C,0000,1","22000,1,9,N","010000,1,N,1","-0065,1","-0105,1","10011,1","12,0000,9,1","24,0000,9,1",,,,"00,1,+99999,9,99,9","00,99,1,00,1,00,1,99999,9,00,1,00,1",,"14,9","999,-0080,9","999,N,-0065,1","99999,9,09230,1","4,1,000,1,+999,9",,"SYN100AAXX  04064 08226 12960 00000 11065 21105 39230 40011 54000 60002 333 21065 34108 50154 55/// 70000;","Q01  00002PRCP24Q02  00002PRCP12"
"08226099999","2010-12-04T09:00:00","4","40.6666666","-3.1666666","640.0","GUADALAJARA, SP","FM-12","99999","V020","999,9,9,9999,9","22000,1,9,N","010000,1,N,1","-0020,1","-0067,1","10002,1",,,,,,"00,1,+99999,9,99,9","00,99,1,00,1,00,1,99999,9,00,1,00,1",,,,,"99999,9,09234,1","1,1,004,1,+999,9",,"SYN060AAXX  04094 08226 42960 0//// 11020 21067 39234 40002 51004;",
"08226099999","2010-12-04T12:00:00","4","40.6666666","-3.1666666","640.0","GUADALAJARA, SP","FM-12","99999","V020","999,9,C,0000,1","22000,1,9,N","010000,1,N,1","+0021,1","-0028,1","09990,1","06,0000,9,1",,,,,"00,1,+99999,9,99,9","00,99,1,00,1,00,1,99999,9,00,1,00,1",,,,,"99999,9,09234,1","4,1,000,1,+999,9",,"SYN066AAXX  04124 08226 12960 00000 10021 21028 39234 49990 54000 60001;","Q01  00002PRCP06"
"08226099999","2010-12-05T06:00:00","4","40.6666666","-3.1666666","640.0","GUADALAJARA, SP","FM-12","99999","V020","999,9,C,0000,1","22000,1,9,N","010000,1,N,1","+0007,1","-0015,1","09929,1","12,0000,9,1","24,0000,9,1",,,,,"04,99,1,04,1,05,1,01750,1,00,1,00,1","0402,9","01,9","999,+0000,9","999,N,+0003,1","99999,9,09174,1","7,1,002,1,+999,9",,"SYN106AAXX  05064 08226 12760 40000 10007 21015 39174 49929 57002 60002 84500 333 20003 30100 50104 55067 70000;","Q01  00002PRCP24Q02  00002PRCP12"
"08226099999","2010-12-05T12:00:00","4","40.6666666","-3.1666666","640.0","GUADALAJARA, SP","FM-12","99999","V020","999,9,C,0000,1","01500,1,9,N","010000,1,N,1","+0045,1","+0030,1","09907,1","06,0000,9,1",,,,,,"08,99,1,08,1,07,1,01750,1,00,1,00,1",,,,,"99999,9,09164,1","7,1,006,1,+999,9",,"SYN072AAXX  05124 08226 12760 80000 10045 20030 39164 49907 57006 60001 88700;","Q01  00002PRCP06"
"08226099999","2010-12-06T06:00:00","4","40.6666666","-3.1666666","640.0","GUADALAJARA, SP","FM-12","99999","V020","200,1,N,0046,1","01500,1,9,N","010000,1,N,1","+0118,1","+0118,1","09777,1","12,0041,9,1","24,0043,9,1",,"2,1,06,1","2,1,06,1",,"08,99,1,08,1,07,1,01750,1,00,1,00,1","0000,9","09,9","999,+0060,9","999,N,+0060,1","99999,9,09064,1","6,1,012,1,+999,9","61,1","SYN112AAXX  06064 08226 11760 82009 10118 20118 39064 49777 56012 60042 76122 88700 333 20060 31006 50104 55000 70043;",
"08226099999","2010-12-06T09:00:00","4","40.6666666","-3.1666666","640.0","GUADALAJARA, SP","FM-12","99999","V020","160,1,N,0067,1","01500,1,9,N","010000,1,N,1","+0118,1","+0118,1","09777,1",,,,"2,1,03,1","2,1,03,1",,"08,99,1,08,1,07,1,01750,1,00,1,00,1",,,,,"99999,9,09064,1","4,1,000,1,+999,9","61,1","SYN072AAXX  06094 08226 41760 81613 10118 20118 39064 49777 54000 76122 88700;",
"08226099999","2010-12-06T12:00:00","4","40.6666666","-3.1666666","640.0","GUADALAJARA, SP","FM-12","99999","V020","210,1,N,0051,1","01200,1,9,N","010000,1,N,1","+0142,1","+0142,1","09781,1","06,0119,9,1",,,,,,"08,99,1,08,1,07,1,01250,1,00,1,00,1",,,,,"99999,9,09074,1","3,1,010,1,+999,9",,"SYN072AAXX  06124 08226 12660 82110 10142 20142 39074 49781 53010 60121 88700;",
"08226099999","2010-12-07T06:00:00","4","40.6666666","-3.1666666","640.0","GUADALAJARA, SP","FM-12","99999","V020","190,1,N,0057,1","01500,1,9,N","010000,1,N,1","+0120,1","+0120,1","09777,1","12,0051,9,1","24,0191,9,1",,,,,"08,99,1,08,1,07,1,01750,1,00,1,00,1","0000,9","09,9","999,+0110,9","999,N,+0119,1","99999,9,09064,1","4,1,000,1,+999,9",,"SYN106AAXX  07064 08226 12760 81911 10120 20120 39064 49777 54000 60052 88700 333 20119 31011 50104 55000 70190;",
"08226099999","2010-12-07T09:00:00","4","40.6666666","-3.1666666","640.0","GUADALAJARA, SP","FM-12","99999","V020","170,1,N,0036,1","01500,1,9,N","010000,1,N,1","+0110,1","+0110,1","09786,1",,,,,,,"08,99,1,08,1,04,1,01750,1,00,1,00,1",,,,,"99999,9,09070,1","3,1,006,1,+999,9",,"SYN066AAXX  07094 08226 42760 81707 10110 20110 39070 49786 53006 88400;",
"08226099999","2010-12-07T12:00:00","4","40.6666666","-3.1666666","640.0","GUADALAJARA, SP","FM-12","99999","V020","200,1,N,0031,1","01200,1,9,N","010000,1,N,1","+0120,1","+0120,1","09787,1","06,0071,9,1",,,,,,"08,99,1,08,1,07,1,01250,1,00,1,00,1",,,,,"99999,9,09074,1","2,1,004,1,+999,9",,"SYN072AAXX  07124 08226 12660 82006 10120 20120 39074 49787 52004 60071 88700;",
"08226099999","2010-12-08T06:00:00","4","40.6666666","-3.1666666","640.0","GUADALAJARA, SP","FM-12","99999","V020","190,1,N,0057,1","01200,1,9,N","010000,1,N,1","+0127,1","+0082,1","09804,1","12,0010,9,1","24,0048,9,1",,"6,1,06,1","1,1,06,1",,"05,99,1,05,1,07,1,01250,1,00,1,00,1","0000,9","11,9","999,+0120,9","999,N,+0124,1","99999,9,09090,1","2,1,016,1,+999,9","02,1","SYN106AAXX  08064 08226 11660 51911 10127 20082 39090 49804 52016 60012 70261 85700 333 20124 32012 55000 70049;",
"08226099999","2010-12-08T09:00:00","4","40.6666666","-3.1666666","640.0","GUADALAJARA, SP","FM-12","99999","V020","200,1,N,0026,1","01200,1,9,N","010000,1,N,1","+0119,1","+0078,1","09841,1",,,,,,,"07,99,1,07,1,07,1,01250,1,99,9,99,9",,,,,"99999,9,09122,1","2,1,032,1,+999,9",,"SYN066AAXX  08094 08226 42660 72005 10119 20078 39122 49841 52032 877//;",
"08226099999","2010-12-08T12:00:00","4","40.6666666","-3.1666666","640.0","GUADALAJARA, SP","FM-12","99999","V020","190,1,N,0051,1","01200,1,9,N","010000,1,N,1","+0135,1","+0092,1","09858,1","06,0000,9,1",,,,,,"08,99,1,08,1,07,1,01250,1,99,9,99,9",,,,,"99999,9,09142,1","1,1,020,1,+999,9",,"SYN072AAXX  08124 08226 12660 81910 10135 20092 39142 49858 51020 60001 887//;","Q01  00002PRCP06"
"08226099999","2010-12-09T06:00:00","4","40.6666666","-3.1666666","640.0","GUADALAJARA, SP","FM-12","99999","V020","999,9,C,0000,1","01200,1,9,N","010000,1,N,1","+0100,1","+0100,1","09933,1","12,0030,9,1","24,0033,9,1",,"2,1,06,1","2,1,06,1",,"08,99,1,08,1,07,1,01250,1,00,1,00,1","0000,9","09,9","999,+0090,9","999,N,+0094,1","99999,9,09204,1","2,1,020,1,+999,9","21,1","SYN112AAXX  09064 08226 11660 80000 10100 20100 39204 49933 52020 60032 72122 88700 333 20094 31009 50104 55000 70032;",
"08226099999","2010-12-09T09:00:00","4","40.6666666","-3.1666666","640.0","GUADALAJARA, SP","FM-12","99999","V020","999,9,C,0000,1","01200,1,9,N","010000,1,N,1","+0112,1","+0109,1","09962,1",,,,,,,"08,99,1,08,1,07,1,01250,1,00,1,00,1",,,,,"99999,9,09234,1","2,1,030,1,+999,9",,"SYN066AAXX  09094 08226 42660 80000 10112 20109 39234 49962 52030 88700;",
"08226099999","2010-12-09T12:00:00","4","40.6666666","-3.1666666","640.0","GUADALAJARA, SP","FM-12","99999","V020","360,1,N,0026,1","01200,1,9,N","010000,1,N,1","+0130,1","+0112,1","09958,1","06,0000,2,1",,,,,,"08,99,1,08,1,07,1,01250,1,00,1,00,1",,,,,"99999,9,09234,1","4,1,000,1,+999,9",,"SYN072AAXX  09124 08226 12660 83605 10130 20112 39234 49958 54000 60001 88700;",
"08226099999","2010-12-10T06:00:00","4","40.6666666","-3.1666666","640.0","GUADALAJARA, SP","FM-12","99999","V020","010,1,N,0010,1","22000,1,9,N","010000,1,N,1","+0070,1","+0070,1","10029,1","12,0000,9,1","24,0000,2,1",,,,"00,1,+99999,9,99,9","00,99,1,00,1,00,1,99999,9,00,1,00,1","0000,9","09,9","999,+0060,9","999,N,+0070,1","99999,9,09284,1","4,1,000,1,+999,9",,"SYN100AAXX  10064 08226 12960 00102 10070 20070 39284 40029 54000 60002 333 20070 31006 50104 55000 70000;","Q01  00002PRCP12"
"08226099999","2010-12-10T09:00:00","4","40.6666666","-3.1666666","640.0","GUADALAJARA, SP","FM-12","99999","V020","360,1,N,0036,1","22000,1,9,N","010000,1,N,1","+0082,1","+0050,1","10047,1",,,,,,"00,1,+99999,9,99,9","00,99,1,00,1,00,1,99999,9,00,1,00,1",,,,,"99999,9,09304,1","3,1,020,1,+999,9",,"SYN060AAXX  10094 08226 42960 03607 10082 20050 39304 40047 53020;",
"08226099999","2010-12-10T12:00:00","4","40.6666666","-3.1666666","640.0","GUADALAJARA, SP","FM-12","99999","V020","340,1,N,0036,1","22000,1,9,N","010000,1,N,1","+0140,1","+0051,1","10028,1","06,0000,9,1",,,,,"00,1,+99999,9,99,9","00,99,1,00,1,00,1,99999,9,00,1,00,1",,,,,"99999,9,09300,1","8,1,004,1,+999,9",,"SYN066AAXX  10124 08226 12960 03407 10140 20051 39300 40028 58004 60001;","Q01  00002PRCP06"
"08226099999","2010-12-11T06:00:00","4","40.6666666","-3.1666666","640.0","GUADALAJARA, SP","FM-12","99999","V020","999,9,C,0000,1","22000,1,9,N","010000,1,N,1","+0030,1","+0030,1","10041,1","12,0000,9,1","24,0000,9,1",,,,,"04,99,1,04,1,06,1,01250,1,00,1,00,1","0330,9","09,9","999,+0010,9","999,N,+0020,1","99999,9,09284,1","7,1,010,1,+999,9",,"SYN106AAXX  11064 08226 12660 40000 10030 20030 39284 40041 57010 60002 84600 333 20020 31001 50134 55055 70000;","Q01  00002PRCP24Q02  00002PRCP12"
"08226099999","2010-12-11T09:00:00","4","40.6666666","-3.1666666","640.0","GUADALAJARA, SP","FM-12","99999","V020","999,9,C,0000,1","22000,1,9,N","010000,1,N,1","+0042,1","+0026,1","10037,1",,,,,,"00,1,+99999,9,99,9","00,99,1,00,1,00,1,99999,9,00,1,00,1",,,,,"99999,9,09284,1","4,1,000,1,+999,9",,"SYN060AAXX  11094 08226 42960 00000 10042 20026 39284 40037 54000;",
"08226099999","2010-12-11T12:00:00","4","40.6666666","-3.1666666","640.0","GUADALAJARA, SP","FM-12","99999","V020","010,1,N,0010,1","22000,1,9,N","010000,1,N,1","+0110,1","+0069,1","10003,1","06,0000,9,1",,,,,,"04,99,1,00,1,00,1,99999,9,00,1,05,1",,,,,"99999,9,09270,1","8,1,014,1,+999,9",,"SYN072AAXX  11124 08226 12960 40102 10110 20069 39270 40003 58014 60001 80005;","Q01  00002PRCP06"
"08226099999","2010-12-12T06:00:00","4","40.6666666","-3.1666666","640.0","GUADALAJARA, SP","FM-12","99999","V020","999,9,C,0000,1","00300,1,9,N","000500,1,N,1","+0034,1","+0034,1","09953,1","12,0000,9,1","24,0000,9,1",,"4,1,06,1","4,1,06,1","09,1,+00300,1,99,9","09,99,1,09,1,99,9,99999,9,99,9,99,9","0378,9","09,9","999,+0030,9","999,N,+0033,1","99999,9,09204,1","7,1,020,1,+999,9","46,1","SYN112AAXX  12064 08226 11/05 90000 10034 20034 39204 49953 57020 60002 74644 333 20033 31003 50204 55063 70000 89/10;","Q01  00002PRCP24Q02  00002PRCP12"
"08226099999","2010-12-12T12:00:00","4","40.6666666","-3.1666666","640.0","GUADALAJARA, SP","FM-12","99999","V020","110,1,N,0015,1","01500,1,9,N","010000,1,N,1","+0084,1","+0055,1","09928,1","06,0000,9,1",,,,,,"06,99,1,06,1,06,1,01750,1,00,1,00,1",,,,,"99999,9,09194,1","8,1,002,1,+999,9",,"SYN072AAXX  12124 08226 12760 61103 10084 20055 39194 49928 58002 60001 86600;","Q01  00002PRCP06"
"08226099999","2010-12-13T06:00:00","4","40.6666666","-3.1666666","640.0","GUADALAJARA, SP","FM-12","99999","V020","040,1,N,0010,1","01500,1,9,N","010000,1,N,1","+0055,1","+0055,1","09884,1","12,0000,9,1","24,0000,9,1",,,,,"06,99,1,06,1,07,1,01750,1,99,9,99,9","0174,9","09,9","999,+0040,9","999,N,+0047,1","99999,9,09146,1","7,1,006,1,+999,9",,"SYN100AAXX  13064 08226 12760 60402 10055 20055 39146 49884 57006 60002 867// 333 20047 31004 55029 79999;","Q01  00002PRCP24Q02  00002PRCP12"
"08226099999","2010-12-13T12:00:00","4","40.6666666","-3.1666666","640.0","GUADALAJARA, SP","FM-12","99999","V020","999,9,C,0000,1","22000,1,9,N","010000,1,N,1","+0107,1","+0083,1","09882,1","06,0000,9,1",,,"4,1,06,1","2,1,06,1",,"04,99,1,02,1,07,1,01750,1,08,1,05,1",,,,,"99999,9,09158,1","8,1,004,1,+999,9","01,1","SYN078AAXX  13124 08226 11760 40000 10107 20083 39158 49882 58004 60001 70142 82785;","Q01  00002PRCP06"
"08226099999","2010-12-14T06:00:00","4","40.6666666","-3.1666666","640.0","GUADALAJARA, SP","FM-12","99999","V020","999,9,C,0000,1","22000,1,9,N","010000,1,N,1","+0028,1","+0028,1","09952,1","12,0020,9,2","24,0018,9,2",,,,,"03,99,1,03,1,07,1,01750,1,00,1,00,1","0156,9",,,"999,N,+0028,1","99999,9,09202,1","2,1,018,1,+999,9",,"SYN094AAXX  14064 08226 12760 30000 10028 20028 39202 49952 52018 60022 83700 333 20028 55026 70019;",
"08226099999","2010-12-14T09:00:00","4","40.6666666","-3.1666666","640.0","GUADALAJARA, SP","FM-12","99999","V020","999,9,C,0000,1","22000,1,9,N","010000,1,N,1","+0044,1","+0038,1","09969,1",,,,"4,1,03,1","0,1,03,1","00,1,+99999,9,99,9","00,99,1,00,1,00,1,99999,9,00,1,00,1",,,,,"99999,9,09222,1","2,1,020,1,+999,9","00,1","SYN066AAXX  14094 08226 41960 00000 10044 20038 39222 49969 52020 70040;",
"08226099999","2010-12-14T12:00:00","4","40.6666666","-3.1666666","640.0","GUADALAJARA, SP","FM-12","99999","V020","360,1,N,0026,1","22000,1,9,N","010000,1,N,1","+0104,1","+0043,1","09955,1","06,0000,9,1",,,"4,1,06,1","0,1,06,1","00,1,+99999,9,99,9","00,99,1,00,1,00,1,99999,9,00,1,00,1",,,,,"99999,9,09224,1","0,1,002,1,+999,9","02,1","SYN072AAXX  14124 08226 11960 03605 10104 20043 39224 49955 50002 60001 70240;","Q01  00002PRCP06"
"08226099999","2010-12-15T06:00:00","4","40.6666666","-3.1666666","640.0","GUADALAJARA, SP","FM-12","99999","V020","999,9,C,0000,1","22000,1,9,N","010000,1,N,1","-0011,1","-0011,1","10038,1","12,0000,9,1","24,0000,9,1",,,,"00,1,+99999,9,99,9","00,99,1,00,1,00,1,99999,9,00,1,00,1","0492,9","01,9","999,-0050,9","999,N,-0022,1","99999,9,09270,1","1,1,006,1,+999,9",,"SYN100AAXX  15064 08226 12960 00000 11011 21011 39270 40038 51006 60002 333 21022 30105 50074 55082 70000;","Q01  00002PRCP24Q02  00002PRCP12"
"08226099999","2010-12-15T09:00:00","4","40.6666666","-3.1666666","640.0","GUADALAJARA, SP","FM-12","99999","V020","360,1,N,0031,1","22000,1,9,N","010000,1,N,1","+0030,1","-0019,1","10033,1",,,,,,"00,1,+99999,9,99,9","00,99,1,00,1,00,1,99999,9,00,1,00,1",,,,,"99999,9,09276,1","1,1,006,1,+999,9",,"SYN060AAXX  15094 08226 42960 03606 10030 21019 39276 40033 51006;",
"08226099999","2010-12-15T12:00:00","4","40.6666666","-3.1666666","640.0","GUADALAJARA, SP","FM-12","99999","V020","010,1,N,0041,1","22000,1,9,N","010000,1,N,1","+0050,1","-0045,1","10027,1","06,0000,9,1",,,,,"00,1,+99999,9,99,9","00,99,1,00,1,00,1,99999,9,00,1,00,1",,,,,"99999,9,09276,1","4,1,000,1,+999,9",,"SYN066AAXX  15124 08226 12960 00108 10050 21045 39276 40027 54000 60001;","Q01  00002PRCP06"
"08226099999","2010-12-16T06:00:00","4","40.6666666","-3.1666666","640.0","GUADALAJARA, SP","FM-12","99999","V020","999,9,C,0000,1","22000,1,9,N","010000,1,N,1","-0063,1","-0071,1","10030,1","12,0000,9,1","24,0000,9,1",,,,"00,1,+99999,9,99,9","00,99,1,00,1,00,1,99999,9,00,1,00,1","0510,9","14,9","999,-0090,9","999,N,-0065,1","99999,9,09248,1","8,1,006,1,+999,9",,"SYN094AAXX  16064 08226 12960 00000 11063 21071 39248 40030 58006 60002 333 21065 34109 55085 70000;","Q01  00002PRCP24Q02  00002PRCP12"
"08226099999","2010-12-16T09:00:00","4","40.6666666","-3.1666666","640.0","GUADALAJARA, SP","FM-12","99999","V020","999,9,C,0000,1","22000,1,9,N","010000,1,N,1","-0023,1","-0090,1","10023,1",,,,,,"00,1,+99999,9,99,9","00,99,1,00,1,00,1,99999,9,00,1,00,1",,,,,"99999,9,09252,1","3,1,004,1,+999,9",,"SYN060AAXX  16094 08226 42960 00000 11023 21090 39252 40023 53004;",
"08226099999","2010-12-16T12:00:00","4","40.6666666","-3.1666666","640.0","GUADALAJARA, SP","FM-12","99999","V020","040,1,N,0077,1","22000,1,9,N","010000,1,N,1","+0028,1","-0094,1","09997,1","06,0000,9,1",,,,,"00,1,+99999,9,99,9","00,99,1,00,1,00,1,99999,9,00,1,00,1",,,,,"99999,9,09242,1","8,1,010,1,+999,9",,"SYN066AAXX  16124 08226 12960 00415 10028 21094 39242 49997 58010 60001;","Q01  00002PRCP06"
"08226099999","2010-12-17T06:00:00","4","40.6666666","-3.1666666","640.0","GUADALAJARA, SP","FM-12","99999","V020","999,9,9,9999,9","22000,1,9,N","010000,1,N,1","-0050,1","-0055,1","09924,1","12,0000,9,1","24,0000,9,1",,,,"00,1,+99999,9,99,9","00,99,1,00,1,00,1,99999,9,00,1,00,1","0510,9",,,"999,N,-0050,1","99999,9,09154,1","7,1,024,1,+999,9",,"SYN088AAXX  17064 08226 12960 0//// 11050 21055 39154 49924 57024 60002 333 21050 55085 70000;","Q01  00002PRCP24Q02  00002PRCP12"
"08226099999","2010-12-17T09:00:00","4","40.6666666","-3.1666666","640.0","GUADALAJARA, SP","FM-12","99999","V020","999,9,9,9999,9","22000,1,9,N","010000,1,N,1","-0044,1","-0090,1","09901,1",,,,,,"00,1,+99999,9,99,9","00,99,1,00,1,00,1,99999,9,00,1,00,1",,,,,"99999,9,09134,1","7,1,020,1,+999,9",,"SYN060AAXX  17094 08226 42960 0//// 11044 21090 39134 49901 57020;",
"08226099999","2010-12-17T12:00:00","4","40.6666666","-3.1666666","640.0","GUADALAJARA, SP","FM-12","99999","V020","200,1,N,0036,1","22000,1,9,N","010000,1,N,1","+0026,1","-0044,1","09852,1","06,0000,9,1",,,,,"00,1,+99999,9,99,9","00,99,1,00,1,00,1,99999,9,00,1,00,1",,,,,"99999,9,09108,1","7,1,026,1,+999,9",,"SYN066AAXX  17124 08226 12960 02007 10026 21044 39108 49852 57026 60001;","Q01  00002PRCP06"
"08226099999","2010-12-18T06:00:00","4","40.6666666","-3.1666666","640.0","GUADALAJARA, SP","FM-12","99999","V020","999,9,9,9999,9","22000,1,9,N","010000,1,N,1","-0050,1","-0055,1","09816,1","12,0000,9,1","24,0000,9,1",,,,,"02,99,1,02,1,00,1,01750,1,08,1,00,1","0498,9",,,"999,N,-0050,1","99999,9,09054,1","4,1,000,1,+999,9",,"SYN094AAXX  18064 08226 12760 2//// 11050 21055 39054 49816 54000 60002 82080 333 21050 55083 70000;","Q01  00002PRCP24Q02  00002PRCP12"
"08226099999","2010-12-18T09:00:00","4","40.6666666","-3.1666666","640.0","GUADALAJARA, SP","FM-12","99999","V020","999,9,9,9999,9","22000,1,9,N","010000,1,N,1","-0030,1","-0050,1","09818,1",,,,,,,"01,99,1,01,1,00,1,02250,1,08,1,01,1",,,,,"99999,9,09062,1","2,1,008,1,+999,9",,"SYN066AAXX  18094 08226 42860 1//// 11030 21050 39062 49818 52008 81081;",
"08226099999","2010-12-18T12:00:00","4","40.6666666","-3.1666666","640.0","GUADALAJARA, SP","FM-12","99999","V020","350,1,N,0010,1","22000,1,9,N","010000,1,N,1","+0038,1","-0032,1","09790,1","06,0000,9,1",,,,,,"01,99,1,00,1,00,1,99999,9,00,1,01,1",,,,,"99999,9,09054,1","7,1,008,1,+999,9",,"SYN072AAXX  18124 08226 12860 13502 10038 21032 39054 49790 57008 60001 80001;","Q01+022502SCOLCBQ02  00002PRCP06"
"08226099999","2010-12-19T06:00:00","4","40.6666666","-3.1666666","640.0","GUADALAJARA, SP","FM-12","99999","V020","999,9,C,0000,1","01200,1,9,N","010000,1,N,1","+0032,1","+0032,1","09748,1","12,0008,9,1","24,0008,9,1",,"6,1,06,1","4,1,06,1",,"08,99,1,08,1,07,1,01250,1,99,9,99,9","0354,9","11,9","999,+0020,9","999,N,+0022,1","99999,9,09014,1","7,1,010,1,+999,9","60,1","SYN106AAXX  19064 08226 11660 80000 10032 20032 39014 49748 57010 69982 76064 887// 333 20022 32002 55059 70008;",
"08226099999","2010-12-19T09:00:00","4","40.6666666","-3.1666666","640.0","GUADALAJARA, SP","FM-12","99999","V020","350,1,N,0010,1","01200,1,9,N","010000,1,N,1","+0044,1","+0044,1","09760,1",,,,"6,1,03,1","5,1,03,1",,"08,99,1,08,1,07,1,01250,1,99,9,99,9",,,,,"99999,9,09028,1","2,1,014,1,+999,9","50,1","SYN072AAXX  19094 08226 41660 83502 10044 20044 39028 49760 52014 75065 887//;",
"08226099999","2010-12-19T12:00:00","4","40.6666666","-3.1666666","640.0","GUADALAJARA, SP","FM-12","99999","V020","350,1,N,0021,1","01200,1,9,N","010000,1,N,1","+0081,1","+0056,1","09769,1","06,0005,9,1",,,"6,1,06,1","5,1,06,1",,"08,99,1,08,1,07,1,01250,1,99,9,99,9",,,,,"99999,9,09046,1","2,1,018,1,+999,9","02,1","SYN078AAXX  19124 08226 11660 83504 10081 20056 39046 49769 52018 69951 70265 887//;",
"08226099999","2010-12-20T06:00:00","4","40.6666666","-3.1666666","640.0","GUADALAJARA, SP","FM-12","99999","V020","999,9,C,0000,1","01200,1,9,N","010000,1,N,1","+0046,1","+0033,1","09885,1","12,0000,9,1","24,0008,9,1",,,,,"08,99,1,08,1,07,1,01250,1,00,1,00,1","0132,9","09,9","999,+0040,9","999,N,+0046,1","99999,9,09144,1","3,1,006,1,+999,9",,"SYN106AAXX  20064 08226 12660 80000 10046 20033 39144 49885 53006 60002 88700 333 20046 31004 50084 55022 70008;","Q01  00002PRCP12"
"08226099999","2010-12-20T09:00:00","4","40.6666666","-3.1666666","640.0","GUADALAJARA, SP","FM-12","99999","V020","999,9,C,0000,1","01200,1,9,N","010000,1,N,1","+0048,1","+0030,1","09895,1",,,,,,,"08,99,1,08,1,07,1,01250,1,00,1,00,1",,,,,"99999,9,09154,1","2,1,010,1,+999,9",,"SYN066AAXX  20094 08226 42660 80000 10048 20030 39154 49895 52010 88700;",
"08226099999","2010-12-20T12:00:00","4","40.6666666","-3.1666666","640.0","GUADALAJARA, SP","FM-12","99999","V020","180,1,N,0026,1","00750,1,9,N","010000,1,N,1","+0077,1","+0062,1","09887,1","06,0000,9,1",,,,,,"06,99,1,06,1,07,1,00800,1,00,1,00,1",,,,,"99999,9,09154,1","4,1,000,1,+999,9",,"SYN072AAXX  20124 08226 12560 61805 10077 20062 39154 49887 54000 60001 86700;","Q01  00002PRCP06"
"08226099999","2010-12-21T06:00:00","4","40.6666666","-3.1666666","640.0","GUADALAJARA, SP","FM-12","99999","V020","350,1,N,0015,1","00750,1,9,N","010000,1,N,1","+0053,1","+0053,1","09742,1","12,0130,9,2","24,0127,9,2",,,,,"08,99,1,08,1,07,1,00800,1,00,1,00,1","0000,9","09,9","999,+0040,9","999,N,+0043,1","99999,9,09014,1","7,1,030,1,+999,9",,"SYN106AAXX  21064 08226 12560 83503 10053 20053 39014 49742 57030 60132 88700 333 20043 31004 50054 55000 70128;",
"08226099999","2010-12-21T12:00:00","4","40.6666666","-3.1666666","640.0","GUADALAJARA, SP","FM-12","99999","V020","200,1,N,0062,1","00750,1,9,N","010000,1,N,1","+0105,1","+0105,1","09727,1","06,0089,9,1",,,,,,"08,99,1,08,1,07,1,00800,1,00,1,00,1",,,,,"99999,9,09014,1","4,1,000,1,+999,9",,"SYN072AAXX  21124 08226 12560 82012 10105 20105 39014 49727 54000 60091 88700;",
"08226099999","2010-12-22T06:00:00","4","40.6666666","-3.1666666","640.0","GUADALAJARA, SP","FM-12","99999","V020","190,1,N,0031,1","00750,1,9,N","010000,1,N,1","+0098,1","+0098,1","09694,1","12,0099,9,1","24,0218,9,1",,"6,1,06,1","5,1,06,1",,"08,99,1,08,1,07,1,00800,1,99,9,99,9","0000,9","11,9","999,+0080,9","999,N,+0093,1","99999,9,08982,1","7,1,012,1,+999,9","50,1","SYN106AAXX  22064 08226 11560 81906 10098 20098 38982 49694 57012 60102 75065 887// 333 20093 32008 55000 70219;",
"08226099999","2010-12-22T09:00:00","4","40.6666666","-3.1666666","640.0","GUADALAJARA, SP","FM-12","99999","V020","150,1,N,0046,1","01200,1,9,N","010000,1,N,1","+0098,1","+0098,1","09694,1",,,,"5,1,03,1","2,1,03,1",,"07,99,1,07,1,07,1,01250,1,00,1,00,1",,,,,"99999,9,08982,1","5,1,000,1,+999,9","02,1","SYN072AAXX  22094 08226 41660 71509 10098 20098 38982 49694 55000 70252 87700;",
"08226099999","2010-12-22T12:00:00","4","40.6666666","-3.1666666","640.0","GUADALAJARA, SP","FM-12","99999","V020","150,1,N,0057,1","01200,1,9,N","010000,1,N,1","+0108,1","+0064,1","09684,1","06,0000,2,1",,,"5,1,06,1","2,1,06,1",,"06,99,1,06,1,07,1,01250,1,08,1,00,1",,,,,"99999,9,08974,1","8,1,008,1,+999,9","02,1","SYN078AAXX  22124 08226 11660 61511 10108 20064 38974 49684 58008 69901 70252 86780;",
"08226099999","2010-12-23T06:00:00","4","40.6666666","-3.1666666","640.0","GUADALAJARA, SP","FM-12","99999","V020","999,9,C,0000,1","00750,1,9,N","006000,1,N,1","+0067,1","+0067,1","09695,1","12,0061,9,1","24,0114,9,1",,"6,1,06,1","5,1,06,1",,"08,99,1,08,1,07,1,00800,1,99,9,99,9","0114,9","11,9","999,+0060,9","999,N,+0066,1","99999,9,08974,1","2,1,010,1,+999,9","50,1","SYN106AAXX  23064 08226 11556 80000 10067 20067 38974 49695 52010 60062 75065 887// 333 20066 32006 55019 70115;",
"08226099999","2010-12-23T09:00:00","4","40.6666666","-3.1666666","640.0","GUADALAJARA, SP","FM-12","99999","V020","999,9,C,0000,1","00750,1,9,N","010000,1,N,1","+0063,1","+0063,1","09724,1",,,,"5,1,03,1","2,1,03,1",,"08,99,1,08,1,07,1,00800,1,99,9,99,9",,,,,"99999,9,09000,1","2,1,026,1,+999,9","51,1","SYN072AAXX  23094 08226 41560 80000 10063 20063 39000 49724 52026 75152 887//;",
"08226099999","2010-12-23T12:00:00","4","40.6666666","-3.1666666","640.0","GUADALAJARA, SP","FM-12","99999","V020","330,1,N,0026,1","00750,1,9,N","010000,1,N,1","+0070,1","+0034,1","09742,1","06,0010,9,1",,,"6,1,06,1","5,1,06,1",,"08,99,1,08,1,07,1,00800,1,99,9,99,9",,,,,"99999,9,09018,1","2,1,018,1,+999,9","50,1","SYN078AAXX  23124 08226 11560 83305 10070 20034 39018 49742 52018 60011 75065 887//;",
"08226099999","2010-12-24T06:00:00","4","40.6666666","-3.1666666","640.0","GUADALAJARA, SP","FM-12","99999","V020","999,9,9,9999,9","22000,1,9,N","010000,1,N,1","+0004,1","-0018,1","09906,1","12,0000,9,1","24,0013,9,1",,,,,"02,99,1,02,1,07,1,01250,1,00,1,00,1","0000,9",,,"999,N,+0004,1","99999,9,09152,1","2,1,010,1,+999,9",,"SYN094AAXX  24064 08226 12660 2//// 10004 21018 39152 49906 52010 60002 82700 333 20004 55000 70012;","Q01  00002PRCP12"
"08226099999","2010-12-24T09:00:00","4","40.6666666","-3.1666666","640.0","GUADALAJARA, SP","FM-12","99999","V020","310,1,N,0031,1","22000,1,9,N","010000,1,N,1","+0021,1","-0026,1","09912,1",,,,,,,"01,99,1,01,1,08,1,01250,1,00,1,00,1",,,,,"99999,9,09162,1","2,1,010,1,+999,9",,"SYN066AAXX  24094 08226 42660 13106 10021 21026 39162 49912 52010 81800;",
"08226099999","2010-12-24T12:00:00","4","40.6666666","-3.1666666","640.0","GUADALAJARA, SP","FM-12","99999","V020","300,1,N,0036,1","22000,1,9,N","010000,1,N,1","+0055,1","-0036,1","09905,1","06,0000,9,1",,,,,,"01,99,1,01,1,08,1,01250,1,00,1,00,1",,,,,"99999,9,09164,1","0,1,002,1,+999,9",,"SYN072AAXX  24124 08226 12660 13007 10055 21036 39164 49905 50002 60001 81800;","Q01  00002PRCP06"
"08226099999","2010-12-25T09:00:00","4","40.6666666","-3.1666666","640.0","GUADALAJARA, SP","FM-12","99999","V020","999,9,C,0000,1","22000,1,9,N","010000,1,N,1","-0018,1","-0029,1","09966,1",,,,,,,"01,99,1,00,1,00,1,99999,9,00,1,01,1",,,,,"99999,9,09202,1","2,1,016,1,+999,9",,"SYN066AAXX  25094 08226 42860 10000 11018 21029 39202 49966 52016 80001;","Q01+022502SCOLCB"
"08226099999","2010-12-25T12:00:00","4","40.6666666","-3.1666666","640.0","GUADALAJARA, SP","FM-12","99999","V020","020,1,N,0026,1","22000,1,9,N","010000,1,N,1","+0044,1","-0027,1","09944,1","06,0000,9,1",,,,,,"01,99,1,00,1,00,1,99999,9,00,1,01,1",,,,,"99999,9,09198,1","8,1,004,1,+999,9",,"SYN072AAXX  25124 08226 12860 10205 10044 21027 39198 49944 58004 60001 80001;","Q01+022502SCOLCBQ02  00002PRCP06"
"08226099999","2010-12-26T06:00:00","4","40.6666666","-3.1666666","640.0","GUADALAJARA, SP","FM-12","99999","V020","999,9,C,0000,1","22000,1,9,N","010000,1,N,1","-0069,1","-0090,1","10004,1","12,0000,9,1","24,0000,9,1",,,,"00,1,+99999,9,99,9","00,99,1,00,1,00,1,99999,9,00,1,00,1","0402,9","14,9","999,-0090,9","999,N,-0070,1","99999,9,09222,1","3,1,004,1,+999,9",,"SYN094AAXX  26064 08226 12960 00000 11069 21090 39222 40004 53004 60002 333 21070 34109 55067 70000;","Q01  00002PRCP24Q02  00002PRCP12"
"08226099999","2010-12-26T09:00:00","4","40.6666666","-3.1666666","640.0","GUADALAJARA, SP","FM-12","99999","V020","999,9,C,0000,1","22000,1,9,N","010000,1,N,1","-0050,1","-0111,1","10009,1",,,,,,"00,1,+99999,9,99,9","00,99,1,00,1,00,1,99999,9,00,1,00,1",,,,,"99999,9,09232,1","2,1,010,1,+999,9",,"SYN060AAXX  26094 08226 42960 00000 11050 21111 39232 40009 52010;",
"08226099999","2010-12-26T12:00:00","4","40.6666666","-3.1666666","640.0","GUADALAJARA, SP","FM-12","99999","V020","999,9,C,0000,1","22000,1,9,N","010000,1,N,1","+0038,1","-0056,1","09983,1","06,0000,9,1",,,,,"00,1,+99999,9,99,9","00,99,1,00,1,00,1,99999,9,00,1,00,1",,,,,"99999,9,09232,1","0,1,000,1,+999,9",,"SYN066AAXX  26124 08226 12960 00000 10038 21056 39232 49983 50000 60001;","Q01  00002PRCP06"
"08226099999","2010-12-27T06:00:00","4","40.6666666","-3.1666666","640.0","GUADALAJARA, SP","FM-12","99999","V020","999,9,C,0000,1","22000,1,9,N","010000,1,N,1","-0068,1","-0075,1","10006,1","12,0000,9,1","24,0000,9,1",,,,,"02,99,1,00,1,00,1,99999,9,00,1,01,1","0474,9","14,9","999,-0080,9","999,N,-0068,1","99999,9,09224,1","4,1,000,1,+999,9",,"SYN100AAXX  27064 08226 12860 20000 11068 21075 39224 40006 54000 60002 80001 333 21068 34108 55079 70000;","Q01+022502SCOLCBQ02  00002PRCP24Q03  00002PRCP12"
"08226099999","2010-12-27T09:00:00","4","40.6666666","-3.1666666","640.0","GUADALAJARA, SP","FM-12","99999","V020","999,9,9,9999,9","22000,1,9,N","010000,1,N,1","-0040,1","-0054,1","10008,1",,,,,,,"01,99,1,00,1,00,1,99999,9,00,1,01,1",,,,,"99999,9,09234,1","3,1,010,1,+999,9",,"SYN066AAXX  27094 08226 42860 1//// 11040 21054 39234 40008 53010 80001;","Q01+022502SCOLCB"
"08226099999","2010-12-27T12:00:00","4","40.6666666","-3.1666666","640.0","GUADALAJARA, SP","FM-12","99999","V020","330,1,N,0010,1","22000,1,9,N","010000,1,N,1","+0037,1","-0045,1","09975,1","06,0000,9,1",,,,,,"02,99,1,01,1,00,1,01750,1,08,1,01,1",,,,,"99999,9,09224,1","7,1,010,1,+999,9",,"SYN072AAXX  27124 08226 12760 23302 10037 21045 39224 49975 57010 60001 81081;","Q01  00002PRCP06"
"08226099999","2010-12-28T06:00:00","4","40.6666666","-3.1666666","640.0","GUADALAJARA, SP","FM-12","99999","V020","999,9,C,0000,1","22000,1,9,N","010000,1,N,1","-0028,1","-0028,1","09993,1","12,0000,9,1","24,0000,9,1",,,,,"04,99,1,02,1,06,1,01750,1,08,1,01,1","0450,9","14,9","999,-0050,9","999,N,-0029,1","99999,9,09224,1","7,1,008,1,+999,9",,"SYN100AAXX  28064 08226 12760 40000 11028 21028 39224 49993 57008 60002 82681 333 21029 34105 55075 70000;","Q01  00002PRCP24Q02  00002PRCP12"
"08226099999","2010-12-28T09:00:00","4","40.6666666","-3.1666666","640.0","GUADALAJARA, SP","FM-12","99999","V020","010,1,N,0010,1","22000,1,9,N","010000,1,N,1","-0009,1","-0039,1","09998,1",,,,,,,"02,99,1,01,1,08,1,01750,1,00,1,01,1",,,,,"99999,9,09233,1","1,1,009,1,+999,9",,"SYN066AAXX  28094 08226 42760 20102 11009 21039 39233 49998 51009 81801;",
"08226099999","2010-12-28T12:00:00","4","40.6666666","-3.1666666","640.0","GUADALAJARA, SP","FM-12","99999","V020","999,9,C,0000,1","03600,1,9,N","010000,1,N,1","+0046,1","-0014,1","09971,1","06,0000,9,1",,,,,,"06,99,1,04,1,08,1,01750,1,08,1,01,1",,,,,"99999,9,09223,1","7,1,010,1,+999,9",,"SYN072AAXX  28124 08226 12760 60000 10046 21014 39223 49971 57010 60001 84881;","Q01  00002PRCP06"
"08226099999","2010-12-29T06:00:00","4","40.6666666","-3.1666666","640.0","GUADALAJARA, SP","FM-12","99999","V020","999,9,C,0000,1","22000,1,9,N","010000,1,N,1","+0013,1","+0006,1","09959,1","12,0000,9,1","24,0000,9,1",,,,,"04,99,1,04,1,00,1,02250,1,04,1,00,1","0186,9","01,9","999,+0000,9","999,N,+0007,1","99999,9,09204,1","4,1,000,1,+999,9",,"SYN100AAXX  29064 08226 12860 40000 10013 20006 39204 49959 54000 60002 84040 333 20007 30000 55031 70000;","Q01  00002PRCP24Q02  00002PRCP12"
"08226099999","2010-12-29T09:00:00","4","40.6666666","-3.1666666","640.0","GUADALAJARA, SP","FM-12","99999","V020","010,1,N,0026,1","02100,1,9,N","010000,1,N,1","+0017,1","+0011,1","09958,1",,,,,,,"05,99,1,05,1,00,1,02250,1,04,1,00,1",,,,,"99999,9,09204,1","4,1,000,1,+999,9",,"SYN066AAXX  29094 08226 42860 50105 10017 20011 39204 49958 54000 85040;",
"08226099999","2010-12-29T12:00:00","4","40.6666666","-3.1666666","640.0","GUADALAJARA, SP","FM-12","99999","V020","040,1,N,0021,1","02100,1,9,N","010000,1,N,1","+0092,1","+0068,1","09936,1","06,0000,9,1",,,,,,"06,99,1,06,1,00,1,02250,1,04,1,00,1",,,,,"99999,9,09204,1","4,1,000,1,+999,9",,"SYN072AAXX  29124 08226 12860 60404 10092 20068 39204 49936 54000 60001 86040;","Q01  00002PRCP06"
"08226099999","2010-12-30T06:00:00","4","40.6666666","-3.1666666","640.0","GUADALAJARA, SP","FM-12","99999","V020","999,9,C,0000,1","22000,1,9,N","010000,1,N,1","+0000,1","+0000,1","09920,1","12,0000,9,1","24,0000,9,1",,,,,"03,99,1,03,1,00,1,02250,1,07,1,00,1","0366,9","01,9","999,-0020,9","999,N,+0000,1","99999,9,09164,1","7,1,003,1,+999,9",,"SYN100AAXX  30064 08226 12860 30000 10000 20000 39164 49920 57003 60002 83070 333 20000 30102 55061 70000;","Q01  00002PRCP24Q02  00002PRCP12"
"08226099999","2010-12-30T09:00:00","4","40.6666666","-3.1666666","640.0","GUADALAJARA, SP","FM-12","99999","V020","110,1,N,0005,1","22000,1,9,N","010000,1,N,1","+0004,1","-0007,1","09930,1",,,,,,,"04,99,1,04,1,00,1,02250,1,07,1,00,1",,,,,"99999,9,09174,1","3,1,010,1,+999,9",,"SYN066AAXX  30094 08226 42860 41101 10004 21007 39174 49930 53010 84070;",
"08226099999","2010-12-30T12:00:00","4","40.6666666","-3.1666666","640.0","GUADALAJARA, SP","FM-12","99999","V020","200,1,N,0021,1","01500,1,9,N","010000,1,N,1","+0075,1","+0060,1","09920,1","06,0000,9,1",,,,,,"08,99,1,05,1,06,1,01750,1,04,1,00,1",,,,,"99999,9,09184,1","1,1,010,1,+999,9",,"SYN072AAXX  30124 08226 12760 82004 10075 20060 39184 49920 51010 60001 85640;","Q01  00002PRCP06"
"08226099999","2010-12-31T06:00:00","4","40.6666666","-3.1666666","640.0","GUADALAJARA, SP","FM-12","99999","V020","999,9,C,0000,1","01200,1,9,N","010000,1,N,1","+0065,1","+0065,1","09922,1","12,0051,9,1","24,0061,9,1",,,,,"08,99,1,08,1,07,1,01250,1,00,1,00,1","0000,9","09,9","999,+0060,9","999,N,+0065,1","99999,9,09184,1","4,1,000,1,+999,9",,"SYN100AAXX  31064 08226 12660 80000 10065 20065 39184 49922 54000 60052 88700 333 20065 31006 55000 70060;",
"08226099999","2010-12-31T09:00:00","4","40.6666666","-3.1666666","640.0","GUADALAJARA, SP","FM-12","99999","V020","999,9,C,0000,1","00750,1,9,N","010000,1,N,1","+0066,1","+0066,1","09933,1",,,,,,,"08,99,1,08,1,07,1,00800,1,00,1,00,1",,,,,"99999,9,09194,1","3,1,010,1,+999,9",,"SYN066AAXX  31094 08226 42560 80000 10066 20066 39194 49933 53010 88700;",
"08226099999","2010-12-31T12:00:00","4","40.6666666","-3.1666666","640.0","GUADALAJARA, SP","FM-12","99999","V020","999,9,C,0000,1","01200,1,9,N","010000,1,N,1","+0084,1","+0076,1","09938,1","06,0005,9,1",,,,,,"08,99,1,08,1,07,1,01250,1,00,1,00,1",,,,,"99999,9,09204,1","2,1,010,1,+999,9",,"SYN072AAXX  31124 08226 12660 80000 10084 20076 39204 49938 52010 69961 88700;",
