"STATION","DATE","SOURCE","LATITUDE","LONGITUDE","ELEVATION","NAME","REPORT_TYPE","CALL_SIGN","QUALITY_CONTROL","WND","CIG","VIS","TMP","DEW","SLP","AA1","AA2","AJ1","AY1","AY2","GA1","GA2","GF1","GJ1","IA1","IA2","KA1","MA1","MD1","MW1","OD1","OD2","REM","EQD"
"08272099999","2010-01-04T06:00:00","4","39.8833333","-4.05","516.0","TOLEDO, SP","FM-12","99999","V020","130,1,N,0010,1","00420,1,9,N","001500,1,N,1","+0079,1","+0078,1","10112,1","12,0030,9,1","24,0064,9,1",,,,,,"08,99,1,08,1,06,1,00450,1,99,9,99,9","0144,9","11,9","999,+0060,9","999,N,+0075,1","99999,9,09502,1","8,1,019,1,+999,9","10,1",,,"SYN106AAXX  04064 08272 11415 81302 10079 20078 39502 40112 58019 60032 710// 886// 333 20075 32006 55024 70064;",
"08272099999","2010-01-04T09:00:00","4","39.8833333","-4.05","516.0","TOLEDO, SP","FM-12","99999","V020","090,1,N,0036,1","00210,1,9,N","001700,1,N,1","+0083,1","+0079,1","10093,1",,,,"6,1,03,1","2,1,03,1",,,"08,99,1,08,1,06,1,00250,1,99,9,99,9",,,,,"99999,9,09485,1","8,1,017,1,+999,9","10,1",,,"SYN072AAXX  04094 08272 41317 80907 10083 20079 39485 40093 58017 71062 886//;",
"08272099999","2010-01-04T12:00:00","4","39.8833333","-4.05","516.0","TOLEDO, SP","FM-12","99999","V020","110,1,N,0041,1","03600,1,9,N","025000,1,N,1","+0095,1","+0083,1","10063,1","06,0041,9,1",,,"6,1,06,1","2,1,06,1",,,"08,99,1,03,1,07,1,00150,1,02,1,99,9",,,,,"99999,9,09460,1","8,1,025,1,+999,9","63,1",,,"SYN078AAXX  04124 08272 11275 81108 10095 20083 39460 40063 58025 60041 76362 8372/;",
"08272099999","2010-01-04T15:00:00","4","39.8833333","-4.05","516.0","TOLEDO, SP","FM-12","99999","V020","170,1,N,0036,1","00420,1,9,N","030000,1,N,1","+0114,1","+0088,1","10023,1",,,,"6,1,03,1","2,1,03,1",,,"08,99,1,06,1,05,1,00450,1,07,1,05,1",,,,,"99999,9,09426,1","6,1,034,1,+999,9","02,1",,,"SYN072AAXX  04154 08272 41480 81707 10114 20088 39426 40023 56034 70262 86575;",
"08272099999","2010-01-04T18:00:00","4","39.8833333","-4.05","516.0","TOLEDO, SP","FM-12","99999","V020","220,1,N,0021,1","00420,1,9,N","040000,1,N,1","+0109,1","+0078,1","10021,1","12,0051,9,1",,,"6,1,06,1","2,1,06,1",,,"06,99,1,06,1,05,1,00450,1,00,1,05,1",,,,"999,M,+0124,1","99999,9,09423,1","6,1,003,1,+999,9","02,1",,,"SYN088AAXX  04184 08272 11482 62204 10109 20078 39423 40021 56003 60052 70262 86505 333 10124;",
"08272099999","2010-01-05T06:00:00","4","39.8833333","-4.05","516.0","TOLEDO, SP","FM-12","99999","V020","270,1,N,0015,1","00180,1,9,N","000300,1,N,1","+0081,1","+0080,1","10000,1","12,0003,9,1","24,0051,9,1",,"4,1,06,1","4,1,06,1","09,1,+00180,1,99,9",,"09,99,1,09,1,99,9,99999,9,99,9,99,9","0018,9","11,9","999,+0070,9","999,N,+0079,1","99999,9,09398,1","5,1,000,1,+999,9","50,1",,,"SYN112AAXX  05064 08272 11/03 92703 10081 20080 39398 40000 55000 69932 75044 333 20079 32007 50054 55003 70050 89/06;",
"08272099999","2010-01-05T09:00:00","4","39.8833333","-4.05","516.0","TOLEDO, SP","FM-12","99999","V020","330,1,N,0015,1","22000,1,9,N","000800,1,N,1","+0075,1","+0075,1","10013,1",,,,"5,1,03,1","4,1,03,1",,,"04,99,1,04,1,05,1,00450,1,03,1,00,1",,,,,"99999,9,09408,1","3,1,010,1,+999,9","42,1",,,"SYN072AAXX  05094 08272 41408 43303 10075 20075 39408 40013 53010 74254 84530;",
"08272099999","2010-01-05T12:00:00","4","39.8833333","-4.05","516.0","TOLEDO, SP","FM-12","99999","V020","290,1,N,0046,1","00420,1,9,N","015000,1,N,1","+0101,1","+0075,1","10020,1","06,0000,2,1",,,"5,1,06,1","4,1,06,1",,,"07,99,1,06,1,05,1,00450,1,03,1,01,1",,,,,"99999,9,09420,1","1,1,012,1,+999,9","02,1",,,"SYN078AAXX  05124 08272 11465 72909 10101 20075 39420 40020 51012 69921 70254 86531;",
"08272099999","2010-01-05T15:00:00","4","39.8833333","-4.05","516.0","TOLEDO, SP","FM-12","99999","V020","310,1,N,0057,1","00900,1,9,N","030000,1,N,1","+0100,1","+0071,1","10021,1",,,,,,,,"08,99,1,07,1,08,1,00450,1,07,1,99,9",,,,,"99999,9,09421,1","3,1,001,1,+999,9",,,,"SYN066AAXX  05154 08272 42480 83111 10100 20071 39421 40021 53001 8787/;",
"08272099999","2010-01-05T18:00:00","4","39.8833333","-4.05","516.0","TOLEDO, SP","FM-12","99999","V020","300,1,N,0036,1","03600,1,9,N","030000,1,N,1","+0093,1","+0071,1","10031,1","12,0000,2,1",,,,,,,"07,99,1,03,1,05,1,00450,1,07,1,00,1",,,,"999,M,+0119,1","99999,9,09429,1","2,1,008,1,+999,9",,,,"SYN082AAXX  05184 08272 12480 73007 10093 20071 39429 40031 52008 69922 83570 333 10119;",
"08272099999","2010-01-06T06:00:00","4","39.8833333","-4.05","516.0","TOLEDO, SP","FM-12","99999","V020","300,1,N,0041,1","00420,1,9,N","020000,1,N,1","+0059,1","+0031,1","10058,1","12,0000,9,1","24,0003,9,1",,,,,,"07,99,1,05,1,05,1,00450,1,07,1,00,1","0168,9","09,9","999,+0040,9","999,N,+0057,1","99999,9,09447,1","2,1,005,1,+999,9","02,1",,,"SYN112AAXX  06064 08272 11470 73008 10059 20031 39447 40058 52005 60002 702// 85570 333 20057 31004 50084 55028 70002;","Q01  00002PRCP12"
"08272099999","2010-01-06T09:00:00","4","39.8833333","-4.05","516.0","TOLEDO, SP","FM-12","99999","V020","270,1,N,0036,1","03600,1,9,N","020000,1,N,1","+0054,1","+0028,1","10075,1",,,,,,,,"08,99,1,03,1,05,1,00250,1,07,1,00,1",,,,,"99999,9,09462,1","2,1,015,1,+999,9",,,,"SYN066AAXX  06094 08272 42370 82707 10054 20028 39462 40075 52015 83570;",
"08272099999","2010-01-06T12:00:00","4","39.8833333","-4.05","516.0","TOLEDO, SP","FM-12","99999","V020","290,1,N,0036,1","00420,1,9,N","035000,1,N,1","+0072,1","+0029,1","10075,1","06,0000,9,1",,,,,,,"07,99,1,06,1,05,1,00450,1,03,1,06,1",,,,,"99999,9,09465,1","0,1,003,1,+999,9",,,,"SYN072AAXX  06124 08272 12481 72907 10072 20029 39465 40075 50003 60001 86536;","Q01  00002PRCP06"
"08272099999","2010-01-06T15:00:00","4","39.8833333","-4.05","516.0","TOLEDO, SP","FM-12","99999","V020","300,1,N,0041,1","03600,1,9,N","040000,1,N,1","+0067,1","+0014,1","10062,1",,,,,,,,"07,99,1,04,1,02,1,00450,1,03,1,09,1",,,,,"99999,9,09452,1","6,1,013,1,+999,9",,,,"SYN066AAXX  06154 08272 42482 73008 10067 20014 39452 40062 56013 84239;",
"08272099999","2010-01-06T18:00:00","4","39.8833333","-4.05","516.0","TOLEDO, SP","FM-12","99999","V020","310,1,N,0026,1","01500,1,9,N","040000,1,N,1","+0058,1","+0017,1","10064,1","12,0000,9,1",,,,,,,"07,99,1,07,1,00,1,01750,1,07,1,00,1",,,,"999,M,+0079,1","99999,9,09452,1","4,1,000,1,+999,9",,,,"SYN082AAXX  06184 08272 12782 73105 10058 20017 39452 40064 54000 60002 87070 333 10079;","Q01  00002PRCP12"
"08272099999","2010-01-07T06:00:00","4","39.8833333","-4.05","516.0","TOLEDO, SP","FM-12","99999","V020","040,1,N,0051,1","00210,1,9,N","005000,1,N,1","+0045,1","+0036,1","09992,1","12,0030,9,2","24,0028,9,2",,,,,,"08,99,1,08,1,07,1,00250,1,99,9,99,9","0084,9","11,9","999,+0040,9","999,N,+0043,1","99999,9,09382,1","7,1,018,1,+999,9","53,1",,,"SYN112AAXX  07064 08272 11350 80410 10045 20036 39382 49992 57018 60032 753// 887// 333 20043 32004 50094 55014 70029;",
"08272099999","2010-01-07T09:00:00","4","39.8833333","-4.05","516.0","TOLEDO, SP","FM-12","99999","V020","040,1,N,0062,1","00210,1,9,N","005000,1,N,1","+0023,1","+0013,1","09999,1",,,,"6,1,03,1","2,1,03,1",,,"08,99,1,08,1,07,1,00250,1,99,9,99,9",,,,,"99999,9,09383,1","3,1,001,1,+999,9","61,1",,,"SYN072AAXX  07094 08272 41350 80412 10023 20013 39383 49999 53001 76162 887//;",
"08272099999","2010-01-07T12:00:00","4","39.8833333","-4.05","516.0","TOLEDO, SP","FM-12","99999","V020","040,1,N,0087,1","00210,1,9,N","006000,1,N,1","+0029,1","+0014,1","09997,1","06,0051,9,1",,,"6,1,06,1","2,1,06,1",,,"08,99,1,08,1,07,1,00250,1,99,9,99,9",,,,,"99999,9,09383,1","0,1,000,1,+999,9","61,1",,,"SYN078AAXX  07124 08272 11356 80417 10029 20014 39383 49997 50000 60051 76162 887//;",
"08272099999","2010-01-07T15:00:00","4","39.8833333","-4.05","516.0","TOLEDO, SP","FM-12","99999","V020","030,1,N,0082,1","00420,1,9,N","002500,1,N,1","+0013,1","+0003,1","09997,1",,,,"6,1,03,1","2,1,03,1",,,"08,99,1,08,1,06,1,00450,1,99,9,99,9",,,,,"99999,9,09379,1","6,1,004,1,+999,9","71,1",,,"SYN072AAXX  07154 08272 41425 80316 10013 20003 39379 49997 56004 77162 886//;",
"08272099999","2010-01-07T18:00:00","4","39.8833333","-4.05","516.0","TOLEDO, SP","FM-12","99999","V020","240,1,N,0010,1","00420,1,9,N","002500,1,N,1","+0007,1","-0002,1","10024,1","12,0160,9,1",,,"7,1,06,1","2,1,06,1",,,"08,99,1,08,1,06,1,00450,1,99,9,99,9",,,,"999,M,+0050,1","99999,9,09403,1","1,1,024,1,+999,9","73,1",,,"SYN088AAXX  07184 08272 11425 82402 10007 21002 39403 40024 51024 60162 77372 886// 333 10050;",
"08272099999","2010-01-08T06:00:00","4","39.8833333","-4.05","516.0","TOLEDO, SP","FM-12","99999","V020","330,1,N,0087,1","22000,1,9,N","040000,1,N,1","+0005,1","-0070,1","10073,1","12,0010,9,1","24,0173,9,1",,,,,,"02,99,1,00,1,00,1,99999,9,00,1,02,1","0000,9","01,9","999,-0020,9","999,N,+0004,1","99999,9,09448,1","1,1,009,1,+999,9","02,1",,,"SYN112AAXX  08064 08272 11982 23317 10005 21070 39448 40073 51009 60012 702// 80002 333 20004 30102 50094 55000 70173;",
"08272099999","2010-01-08T09:00:00","4","39.8833333","-4.05","516.0","TOLEDO, SP","FM-12","99999","V020","330,1,N,0062,1","22000,1,9,N","050000,1,N,1","+0007,1","-0064,1","10103,1",,,,,,,,"02,99,1,01,1,05,1,00450,1,03,1,01,1",,,,,"99999,9,09477,1","2,1,029,1,+999,9",,,,"SYN066AAXX  08094 08272 42484 23312 10007 21064 39477 40103 52029 81531;",
"08272099999","2010-01-08T12:00:00","4","39.8833333","-4.05","516.0","TOLEDO, SP","FM-12","99999","V020","330,1,N,0087,1","22000,1,9,N","045000,1,N,1","+0029,1","-0067,1","10109,1","06,0000,9,1",,,,,,,"04,99,1,04,1,02,1,00450,1,00,1,00,1",,,,,"99999,9,09487,1","1,1,010,1,+999,9",,,,"SYN072AAXX  08124 08272 12483 43317 10029 21067 39487 40109 51010 60001 84200;","Q01  00002PRCP06"
"08272099999","2010-01-08T15:00:00","4","39.8833333","-4.05","516.0","TOLEDO, SP","FM-12","99999","V020","330,1,N,0087,1","03600,1,9,N","045000,1,N,1","+0031,1","-0060,1","10114,1",,,,,,,,"07,99,1,04,1,05,1,00450,1,07,1,00,1",,,,,"99999,9,09492,1","3,1,005,1,+999,9",,,,"SYN066AAXX  08154 08272 42483 73317 10031 21060 39492 40114 53005 84570;",
"08272099999","2010-01-08T18:00:00","4","39.8833333","-4.05","516.0","TOLEDO, SP","FM-12","99999","V020","340,1,N,0057,1","22000,1,9,N","050000,1,N,1","+0013,1","-0052,1","10140,1","12,0000,9,1",,,,,,,"02,99,1,01,1,05,1,00450,1,03,1,00,1",,,,"999,M,+0037,1","99999,9,09513,1","2,1,021,1,+999,9",,,,"SYN082AAXX  08184 08272 12484 23411 10013 21052 39513 40140 52021 60002 81530 333 10037;","Q01  00002PRCP12"
"08272099999","2010-01-11T06:00:00","4","39.8833333","-4.05","516.0","TOLEDO, SP","FM-12","99999","V020","080,1,N,0026,1","03600,1,9,N","003000,1,N,1","-0017,1","-0028,1","10169,1","12,0030,9,1","24,0033,9,1","0004,9,1,999999,9,9","7,1,06,1","2,1,06,1",,,"08,99,1,03,1,07,1,00150,1,02,1,99,9","0030,9","27,9","999,-0040,9","999,N,-0022,1","99999,9,09534,1","3,1,012,1,+999,9","40,1",,,"SYN118AAXX  11064 08272 11230 80805 11017 21028 39534 40169 53012 60032 74072 8372/ 333 21022 3/104 43004 5//// 55005 70033;",
"08272099999","2010-01-11T09:00:00","4","39.8833333","-4.05","516.0","TOLEDO, SP","FM-12","99999","V020","110,1,N,0015,1","00420,1,9,N","004000,1,N,1","-0012,1","-0031,1","10191,1",,,,"7,1,03,1","4,1,03,1",,,"08,99,1,08,1,07,1,00450,1,99,9,99,9",,,,,"99999,9,09555,1","3,1,021,1,+999,9","10,1",,,"SYN072AAXX  11094 08272 41440 81103 11012 21031 39555 40191 53021 71074 887//;",
"08272099999","2010-01-11T12:00:00","4","39.8833333","-4.05","516.0","TOLEDO, SP","FM-12","99999","V020","190,1,N,0010,1","00420,1,9,N","010000,1,N,1","+0009,1","-0020,1","10204,1","06,0000,9,1",,,"7,1,06,1","2,1,06,1",,,"08,99,1,08,1,07,1,00450,1,99,9,99,9",,,,,"99999,9,09572,1","1,1,017,1,+999,9","02,1",,,"SYN078AAXX  11124 08272 11460 81902 10009 21020 39572 40204 51017 69901 70272 887//;","Q01  00002PRCP06"
"08272099999","2010-01-11T15:00:00","4","39.8833333","-4.05","516.0","TOLEDO, SP","FM-12","99999","V020","240,1,N,0010,1","00420,1,9,N","010000,1,N,1","+0014,1","-0005,1","10204,1",,,,,,,,"08,99,1,08,1,07,1,00450,1,99,9,99,9",,,,,"99999,9,09574,1","3,1,002,1,+999,9",,,,"SYN066AAXX  11154 08272 42460 82402 10014 21005 39574 40204 53002 887//;",
"08272099999","2010-01-11T18:00:00","4","39.8833333","-4.05","516.0","TOLEDO, SP","FM-12","99999","V020","260,1,N,0010,1","00420,1,9,N","006000,1,N,1","+0013,1","+0004,1","10229,1","12,0000,9,1",,,"2,1,06,1","2,1,06,1",,,"08,99,1,08,1,07,1,00450,1,99,9,99,9",,,,"999,M,+0031,1","99999,9,09597,1","1,1,023,1,+999,9","10,1",,,"SYN088AAXX  11184 08272 11456 82602 10013 20004 39597 40229 51023 60002 71022 887// 333 10031;","Q01  00002PRCP12"
"08272099999","2010-01-12T06:00:00","4","39.8833333","-4.05","516.0","TOLEDO, SP","FM-12","99999","V020","110,1,N,0021,1","00420,1,9,N","002000,1,N,1","+0017,1","+0011,1","10206,1","12,0000,9,1","24,0000,9,1",,,,,,"08,99,1,08,1,06,1,00450,1,99,9,99,9","0012,9","09,9","999,+0010,9","999,N,+0015,1","99999,9,09576,1","8,1,018,1,+999,9","10,1",,,"SYN106AAXX  12064 08272 11420 81104 10017 20011 39576 40206 58018 60002 710// 886// 333 20015 31001 55002 70001;","Q01  00002PRCP24Q02  00002PRCP12"
"08272099999","2010-01-12T09:00:00","4","39.8833333","-4.05","516.0","TOLEDO, SP","FM-12","99999","V020","100,1,N,0036,1","00750,1,9,N","001500,1,N,1","+0019,1","+0016,1","10177,1",,,,"6,1,03,1","4,1,03,1",,,"08,99,1,07,1,07,1,00800,1,02,1,99,9",,,,,"99999,9,09550,1","7,1,026,1,+999,9","60,1",,,"SYN072AAXX  12094 08272 41515 81007 10019 20016 39550 40177 57026 76064 8772/;",
"08272099999","2010-01-12T12:00:00","4","39.8833333","-4.05","516.0","TOLEDO, SP","FM-12","99999","V020","160,1,N,0010,1","00420,1,9,N","000800,1,N,1","+0039,1","+0035,1","10130,1","06,0020,9,1",,,"6,1,06,1","4,1,06,1",,,"08,99,1,08,1,00,1,00450,1,02,1,99,9",,,,,"99999,9,09510,1","7,1,040,1,+999,9","63,1",,,"SYN078AAXX  12124 08272 11408 81602 10039 20035 39510 40130 57040 60021 76364 8802/;",
"08272099999","2010-01-12T15:00:00","4","39.8833333","-4.05","516.0","TOLEDO, SP","FM-12","99999","V020","250,1,N,0010,1","03600,1,9,N","000200,1,N,1","+0054,1","+0051,1","10080,1",,,,"6,1,03,1","4,1,03,1",,,"08,99,1,03,1,07,1,00450,1,02,1,99,9",,,,,"99999,9,09467,1","6,1,043,1,+999,9","63,1",,,"SYN072AAXX  12154 08272 41402 82502 10054 20051 39467 40080 56043 76364 8372/;",
"08272099999","2010-01-12T18:00:00","4","39.8833333","-4.05","516.0","TOLEDO, SP","FM-12","99999","V020","280,1,N,0031,1","00420,1,9,N","006000,1,N,1","+0042,1","+0038,1","10110,1","12,0079,9,1",,,"6,1,06,1","4,1,06,1",,,"08,99,1,08,1,07,1,00450,1,99,9,99,9",,,,"999,M,+0056,1","99999,9,09492,1","3,1,025,1,+999,9","10,1",,,"SYN088AAXX  12184 08272 11456 82806 10042 20038 39492 40110 53025 60082 71064 887// 333 10056;",
"08272099999","2010-01-13T06:00:00","4","39.8833333","-4.05","516.0","TOLEDO, SP","FM-12","99999","V020","080,1,N,0021,1","00750,1,9,N","020000,1,N,1","+0028,1","+0018,1","10174,1","12,0000,9,1","24,0079,9,1",,,,,,"08,99,1,06,1,05,1,00800,1,07,1,99,9","0000,9","11,9","999,-0010,9","999,N,+0024,1","99999,9,09549,1","1,1,009,1,+999,9","02,1",,,"SYN112AAXX  13064 08272 11570 80804 10028 20018 39549 40174 51009 60002 702// 8657/ 333 20024 32101 50024 55000 70080;","Q01  00002PRCP12"
"08272099999","2010-01-13T09:00:00","4","39.8833333","-4.05","516.0","TOLEDO, SP","FM-12","99999","V020","100,1,N,0010,1","03600,1,9,N","020000,1,N,1","+0044,1","+0028,1","10170,1",,,,,,,,"08,99,1,03,1,07,1,00800,1,07,1,99,9",,,,,"99999,9,09549,1","0,1,000,1,+999,9",,,,"SYN066AAXX  13094 08272 42570 81002 10044 20028 39549 40170 50000 8377/;",
"08272099999","2010-01-13T12:00:00","4","39.8833333","-4.05","516.0","TOLEDO, SP","FM-12","99999","V020","210,1,N,0015,1","00420,1,9,N","018000,1,N,1","+0088,1","+0064,1","10147,1","06,9999,9,9",,,"2,1,06,1","2,1,06,1",,,"08,99,1,07,1,07,1,00450,1,02,1,99,9",,,,,"99999,9,09537,1","8,1,012,1,+999,9","50,1",,,"SYN078AAXX  13124 08272 11468 82103 10088 20064 39537 40147 58012 69901 75022 8772/;","Q01  00002PRCP06Q02  00002PRCP06"
"08272099999","2010-01-13T15:00:00","4","39.8833333","-4.05","516.0","TOLEDO, SP","FM-12","99999","V020","230,1,N,0036,1","00420,1,9,N","020000,1,N,1","+0101,1","+0075,1","10107,1",,,,"5,1,03,1","2,1,03,1",,,"08,99,1,06,1,07,1,00450,1,02,1,99,9",,,,,"99999,9,09502,1","7,1,035,1,+999,9","60,1",,,"SYN072AAXX  13154 08272 41470 82307 10101 20075 39502 40107 57035 76052 8672/;",
"08272099999","2010-01-13T18:00:00","4","39.8833333","-4.05","516.0","TOLEDO, SP","FM-12","99999","V020","240,1,N,0021,1","00420,1,9,N","005000,1,N,1","+0090,1","+0082,1","10089,1","12,0020,9,1",,,"6,1,06,1","5,1,06,1",,,"08,99,1,08,1,00,1,00450,1,02,1,99,9",,,,"999,M,+0106,1","99999,9,09483,1","6,1,019,1,+999,9","63,1",,,"SYN088AAXX  13184 08272 11450 82404 10090 20082 39483 40089 56019 60022 76365 8802/ 333 10106;",
"08272099999","2010-01-14T06:00:00","4","39.8833333","-4.05","516.0","TOLEDO, SP","FM-12","99999","V020","260,1,N,0159,1","22000,1,9,N","028000,1,N,1","+0108,1","+0040,1","10026,1","12,0020,9,1","24,0038,9,1",,,,,,"03,99,1,02,1,01,1,00800,1,03,1,01,1","0000,9","09,9","999,+0070,9","999,N,+0090,1","99999,9,09427,1","3,1,008,1,+999,9","02,1","4,99,0247,9,999","5,99,0165,9,999","SYN130AAXX  14064 08272 11578 32631 10108 20040 39427 40026 53008 60022 702// 82131 333 20090 31007 50184 55000 70038 91148 91232 91526;",
"08272099999","2010-01-14T09:00:00","4","39.8833333","-4.05","516.0","TOLEDO, SP","FM-12","99999","V020","270,1,N,0098,1","22000,1,9,N","030000,1,N,1","+0096,1","+0044,1","10077,1",,,,,,,,"03,99,1,02,1,02,1,00800,1,03,1,00,1",,,,,"99999,9,09472,1","2,1,045,1,+999,9",,,,"SYN066AAXX  14094 08272 42580 32719 10096 20044 39472 40077 52045 82230;",
"08272099999","2010-01-14T12:00:00","4","39.8833333","-4.05","516.0","TOLEDO, SP","FM-12","99999","V020","280,1,N,0134,1","22000,1,9,N","030000,1,N,1","+0110,1","+0035,1","10091,1","06,0000,9,1",,,,,,,"03,99,1,02,1,02,1,00800,1,03,1,08,1",,,,,"99999,9,09488,1","1,1,016,1,+999,9",,"4,99,0165,9,999",,"SYN094AAXX  14124 08272 12580 32826 10110 20035 39488 40091 51016 60001 82238 333 91132 91145 91527;","Q01  00002PRCP06"
"08272099999","2010-01-14T15:00:00","4","39.8833333","-4.05","516.0","TOLEDO, SP","FM-12","99999","V020","280,1,N,0103,1","22000,1,9,N","040000,1,N,1","+0108,1","+0043,1","10118,1",,,,,,,,"03,99,1,02,1,05,1,00800,1,03,1,02,1",,,,,"99999,9,09513,1","3,1,025,1,+999,9",,,,"SYN066AAXX  14154 08272 42582 32820 10108 20043 39513 40118 53025 82532;",
"08272099999","2010-01-14T18:00:00","4","39.8833333","-4.05","516.0","TOLEDO, SP","FM-12","99999","V020","280,1,N,0077,1","22000,1,9,N","020000,1,N,1","+0087,1","+0035,1","10154,1","12,0000,9,1",,,,,,,"02,99,1,02,1,05,1,00800,1,03,1,00,1",,,,"999,M,+0115,1","99999,9,09543,1","2,1,030,1,+999,9",,,,"SYN082AAXX  14184 08272 12570 22815 10087 20035 39543 40154 52030 60002 82530 333 10115;","Q01  00002PRCP12"
"08272099999","2010-01-15T06:00:00","4","39.8833333","-4.05","516.0","TOLEDO, SP","FM-12","99999","V020","320,1,N,0010,1","99999,9,9,N","020000,1,N,1","+0038,1","+0023,1","10250,1","12,0000,9,1","24,0000,9,1",,,,,,"08,99,1,00,1,00,1,99999,9,00,1,07,1","0498,9","09,9","999,+0010,9","999,N,+0035,1","99999,9,09622,1","2,1,016,1,+999,9","02,1",,,"SYN112AAXX  15064 08272 11970 83202 10038 20023 39622 40250 52016 60002 702// 80007 333 20035 31001 50224 55083 70000;","Q01  00002PRCP24Q02  00002PRCP12"
"08272099999","2010-01-15T09:00:00","4","39.8833333","-4.05","516.0","TOLEDO, SP","FM-12","99999","V020","030,1,N,0010,1","99999,9,9,N","040000,1,N,1","+0048,1","+0027,1","10263,1",,,,,,,,"07,99,1,00,1,00,1,99999,9,00,1,08,1",,,,,"99999,9,09637,1","2,1,015,1,+999,9",,,,"SYN066AAXX  15094 08272 42982 70302 10048 20027 39637 40263 52015 80008;",
"08272099999","2010-01-15T12:00:00","4","39.8833333","-4.05","516.0","TOLEDO, SP","FM-12","99999","V020","250,1,N,0010,1","09000,1,9,N","030000,1,N,1","+0095,1","+0030,1","10251,1","06,0000,9,1",,,,,,,"07,99,1,03,1,00,1,02250,1,07,1,08,1",,,,,"99999,9,09636,1","8,1,001,1,+999,9",,,,"SYN072AAXX  15124 08272 12880 72502 10095 20030 39636 40251 58001 60001 83078;","Q01  00002PRCP06"
"08272099999","2010-01-15T15:00:00","4","39.8833333","-4.05","516.0","TOLEDO, SP","FM-12","99999","V020","360,1,N,0010,1","09000,1,9,N","040000,1,N,1","+0104,1","+0030,1","10239,1",,,,,,,,"07,99,1,03,1,00,1,02250,1,07,1,08,1",,,,,"99999,9,09626,1","7,1,010,1,+999,9",,,,"SYN066AAXX  15154 08272 42882 73602 10104 20030 39626 40239 57010 83078;",
"08272099999","2010-01-15T18:00:00","4","39.8833333","-4.05","516.0","TOLEDO, SP","FM-12","99999","V020","010,1,N,0010,1","02100,1,9,N","020000,1,N,1","+0081,1","+0034,1","10251,1","12,0000,9,1",,,,,,,"08,99,1,07,1,00,1,02250,1,07,1,07,1",,,,"999,M,+0110,1","99999,9,09633,1","2,1,007,1,+999,9",,,,"SYN082AAXX  15184 08272 12870 80102 10081 20034 39633 40251 52007 60002 87077 333 10110;","Q01  00002PRCP12"
"08272099999","2010-01-18T06:00:00","4","39.8833333","-4.05","516.0","TOLEDO, SP","FM-12","99999","V020","090,1,N,0031,1","00030,1,9,N","000600,1,N,1","+0053,1","+0050,1","10224,1","12,0000,9,1","24,0000,9,1",,,,"09,1,+00030,1,99,9",,"09,99,1,09,1,99,9,99999,9,99,9,99,9","0042,9","09,9","999,+0040,9","999,N,+0051,1","99999,9,09602,1","7,1,012,1,+999,9","45,1",,,"SYN106AAXX  18064 08272 11/06 90906 10053 20050 39602 40224 57012 69902 745// 333 20051 31004 55007 79999 89/01;","Q01  00002PRCP24Q02  00002PRCP12"
"08272099999","2010-01-18T09:00:00","4","39.8833333","-4.05","516.0","TOLEDO, SP","FM-12","99999","V020","120,1,N,0031,1","22000,1,9,N","001500,1,N,1","+0051,1","+0047,1","10222,1",,,,"4,1,03,1","4,1,03,1",,,"03,99,1,03,1,00,1,01750,1,03,1,00,1",,,,,"99999,9,09599,1","6,1,003,1,+999,9","10,1",,,"SYN072AAXX  18094 08272 41715 31206 10051 20047 39599 40222 56003 71044 83030;",
"08272099999","2010-01-18T12:00:00","4","39.8833333","-4.05","516.0","TOLEDO, SP","FM-12","99999","V020","260,1,N,0021,1","03600,1,9,N","004000,1,N,1","+0093,1","+0074,1","10212,1","06,0000,9,1",,,"4,1,06,1","4,1,06,1",,,"07,99,1,01,1,06,1,00150,1,03,1,00,1",,,,,"99999,9,09599,1","0,1,000,1,+999,9","10,1",,,"SYN078AAXX  18124 08272 11240 72604 10093 20074 39599 40212 50000 60001 71044 81630;","Q01  00002PRCP06"
"08272099999","2010-01-18T15:00:00","4","39.8833333","-4.05","516.0","TOLEDO, SP","FM-12","99999","V020","260,1,N,0031,1","03600,1,9,N","015000,1,N,1","+0129,1","+0082,1","10195,1",,,,,,,,"07,99,1,01,1,04,1,00450,1,03,1,01,1",,,,,"99999,9,09591,1","5,1,008,1,+999,9",,,,"SYN066AAXX  18154 08272 42465 72606 10129 20082 39591 40195 55008 81431;",
"08272099999","2010-01-18T18:00:00","4","39.8833333","-4.05","516.0","TOLEDO, SP","FM-12","99999","V020","300,1,N,0010,1","03600,1,9,N","020000,1,N,1","+0110,1","+0079,1","10207,1","12,0000,9,1",,,,,,,"05,99,1,03,1,05,1,00450,1,03,1,00,1",,,,"999,M,+0145,1","99999,9,09598,1","3,1,007,1,+999,9",,,,"SYN082AAXX  18184 08272 12470 53002 10110 20079 39598 40207 53007 60002 83530 333 10145;","Q01  00002PRCP12"
"08272099999","2010-01-19T06:00:00","4","39.8833333","-4.05","516.0","TOLEDO, SP","FM-12","99999","V020","130,1,N,0021,1","22000,1,9,N","020000,1,N,1","+0088,1","+0077,1","10203,1","12,0000,9,1","24,0000,9,1",,,,,,"04,99,1,01,1,00,1,01750,1,03,1,08,1","0162,9","01,9","999,+0050,9","999,N,+0082,1","99999,9,09590,1","8,1,005,1,+999,9","02,1",,,"SYN112AAXX  19064 08272 11770 41304 10088 20077 39590 40203 58005 60002 702// 81038 333 20082 30005 50054 55027 70000;","Q01  00002PRCP24Q02  00002PRCP12"
"08272099999","2010-01-19T09:00:00","4","39.8833333","-4.05","516.0","TOLEDO, SP","FM-12","99999","V020","090,1,N,0021,1","03600,1,9,N","025000,1,N,1","+0105,1","+0091,1","10204,1",,,,,,,,"07,99,1,02,1,05,1,00450,1,03,1,06,1",,,,,"99999,9,09594,1","0,1,004,1,+999,9",,,,"SYN066AAXX  19094 08272 42475 70904 10105 20091 39594 40204 50004 82536;",
"08272099999","2010-01-19T12:00:00","4","39.8833333","-4.05","516.0","TOLEDO, SP","FM-12","99999","V020","290,1,N,0021,1","03600,1,9,N","030000,1,N,1","+0135,1","+0103,1","10186,1","06,0000,9,1",,,,,,,"08,99,1,04,1,05,1,00450,1,07,1,07,1",,,,,"99999,9,09584,1","8,1,010,1,+999,9",,,,"SYN072AAXX  19124 08272 12480 82904 10135 20103 39584 40186 58010 60001 84577;","Q01  00002PRCP06"
"08272099999","2010-01-19T15:00:00","4","39.8833333","-4.05","516.0","TOLEDO, SP","FM-12","99999","V020","270,1,N,0021,1","00210,1,9,N","015000,1,N,1","+0128,1","+0112,1","10182,1",,,,"2,1,03,1","2,1,03,1",,,"08,99,1,07,1,07,1,00250,1,02,1,99,9",,,,,"99999,9,09579,1","8,1,005,1,+999,9","50,1",,,"SYN072AAXX  19154 08272 41365 82704 10128 20112 39579 40182 58005 75022 8772/;",
"08272099999","2010-01-19T18:00:00","4","39.8833333","-4.05","516.0","TOLEDO, SP","FM-12","99999","V020","270,1,N,0051,1","03600,1,9,N","035000,1,N,1","+0106,1","+0087,1","10194,1","12,0020,9,1",,,"5,1,06,1","2,1,06,1",,,"06,99,1,04,1,05,1,00450,1,03,1,00,1",,,,"999,M,+0139,1","99999,9,09585,1","2,1,006,1,+999,9","02,1",,,"SYN088AAXX  19184 08272 11481 62710 10106 20087 39585 40194 52006 60022 70252 84530 333 10139;",
"08272099999","2010-01-20T06:00:00","4","39.8833333","-4.05","516.0","TOLEDO, SP","FM-12","99999","V020","270,1,N,0015,1","00420,1,9,N","040000,1,N,1","+0068,1","+0053,1","10221,1","12,0000,9,1","24,0023,9,1",,,,,,"08,99,1,06,1,07,1,00450,1,07,1,99,9","0036,9","09,9","999,+0040,9","999,N,+0057,1","99999,9,09602,1","3,1,001,1,+999,9","02,1",,,"SYN112AAXX  20064 08272 11482 82703 10068 20053 39602 40221 53001 60002 702// 8677/ 333 20057 31004 50074 55006 70022;","Q01  00002PRCP12"
"08272099999","2010-01-20T09:00:00","4","39.8833333","-4.05","516.0","TOLEDO, SP","FM-12","99999","V020","290,1,N,0015,1","00420,1,9,N","040000,1,N,1","+0080,1","+0063,1","10229,1",,,,,,,,"07,99,1,07,1,05,1,00450,1,00,1,00,1",,,,,"99999,9,09612,1","3,1,010,1,+999,9",,,,"SYN066AAXX  20094 08272 42482 72903 10080 20063 39612 40229 53010 87500;",
"08272099999","2010-01-20T12:00:00","4","39.8833333","-4.05","516.0","TOLEDO, SP","FM-12","99999","V020","290,1,N,0057,1","00210,1,9,N","035000,1,N,1","+0111,1","+0085,1","10223,1","06,0000,9,1",,,,,,,"07,99,1,07,1,05,1,00250,1,00,1,06,1",,,,,"99999,9,09613,1","0,1,001,1,+999,9",,,,"SYN072AAXX  20124 08272 12381 72911 10111 20085 39613 40223 50001 60001 87506;","Q01  00002PRCP06"
"08272099999","2010-01-20T15:00:00","4","39.8833333","-4.05","516.0","TOLEDO, SP","FM-12","99999","V020","300,1,N,0062,1","09000,1,9,N","050000,1,N,1","+0113,1","+0072,1","10216,1",,,,,,,,"07,99,1,02,1,01,1,00450,1,00,1,02,1",,,,,"99999,9,09607,1","5,1,006,1,+999,9",,,,"SYN066AAXX  20154 08272 42484 73012 10113 20072 39607 40216 55006 82102;",
"08272099999","2010-01-20T18:00:00","4","39.8833333","-4.05","516.0","TOLEDO, SP","FM-12","99999","V020","300,1,N,0036,1","22000,1,9,N","050000,1,N,1","+0096,1","+0067,1","10230,1","12,0000,9,1",,,,,,,"03,99,1,00,1,00,1,99999,9,00,1,01,1",,,,"999,M,+0125,1","99999,9,09617,1","2,1,010,1,+999,9",,,,"SYN082AAXX  20184 08272 12984 33007 10096 20067 39617 40230 52010 60002 80001 333 10125;","Q01  00002PRCP12"
"08272099999","2010-01-21T06:00:00","4","39.8833333","-4.05","516.0","TOLEDO, SP","FM-12","99999","V020","200,1,N,0010,1","22000,1,9,N","030000,1,N,1","+0032,1","+0020,1","10249,1","12,0000,9,1","24,0000,9,1",,,,,,"02,99,1,00,1,00,1,99999,9,00,1,01,1","0198,9","01,9","999,-0010,9","999,N,+0031,1","99999,9,09620,1","8,1,007,1,+999,9","02,1",,,"SYN112AAXX  21064 08272 11980 22002 10032 20020 39620 40249 58007 60002 702// 80001 333 20031 30101 50094 55033 70000;","Q01  00002PRCP24Q02  00002PRCP12"
"08272099999","2010-01-21T12:00:00","4","39.8833333","-4.05","516.0","TOLEDO, SP","FM-12","99999","V020","230,1,N,0015,1","03600,1,9,N","020000,1,N,1","+0090,1","+0044,1","10252,1","06,0000,9,1",,,,,,,"07,99,1,01,1,01,1,00450,1,08,1,08,1",,,,,"99999,9,09636,1","1,1,005,1,+999,9",,,,"SYN072AAXX  21124 08272 12470 72303 10090 20044 39636 40252 51005 60001 81188;","Q01  00002PRCP06"
"08272099999","2010-01-21T15:00:00","4","39.8833333","-4.05","516.0","TOLEDO, SP","FM-12","99999","V020","250,1,N,0010,1","03600,1,9,N","035000,1,N,1","+0103,1","+0047,1","10231,1",,,,,,,,"07,99,1,01,1,01,1,00450,1,07,1,08,1",,,,,"99999,9,09619,1","6,1,017,1,+999,9",,,,"SYN066AAXX  21154 08272 42481 72502 10103 20047 39619 40231 56017 81178;",
"08272099999","2010-01-21T18:00:00","4","39.8833333","-4.05","516.0","TOLEDO, SP","FM-12","99999","V020","030,1,N,0021,1","22000,1,9,N","035000,1,N,1","+0075,1","+0046,1","10240,1","12,0000,9,1",,,,,,,"04,99,1,02,1,00,1,02250,1,03,1,01,1",,,,"999,M,+0109,1","99999,9,09621,1","1,1,002,1,+999,9",,,,"SYN082AAXX  21184 08272 12881 40304 10075 20046 39621 40240 51002 60002 82031 333 10109;","Q01  00002PRCP12"
"08272099999","2010-01-22T06:00:00","4","39.8833333","-4.05","516.0","TOLEDO, SP","FM-12","99999","V020","100,1,N,0021,1","01500,1,9,N","001500,1,N,1","+0012,1","+0003,1","10250,1","12,0000,9,1","24,0000,9,1",,,,,,"06,99,1,06,1,00,1,01750,1,03,1,00,1","0138,9","01,9","999,-0010,9","999,N,+0011,1","99999,9,09616,1","7,1,004,1,+999,9","40,1",,,"SYN112AAXX  22064 08272 11715 61004 10012 20003 39616 40250 57004 60002 740// 86030 333 20011 30101 50064 55023 70000;","Q01  00002PRCP24Q02  00002PRCP12"
"08272099999","2010-01-22T09:00:00","4","39.8833333","-4.05","516.0","TOLEDO, SP","FM-12","99999","V020","110,1,N,0015,1","00180,1,9,N","000800,1,N,1","+0026,1","+0019,1","10249,1",,,,"4,1,03,1","4,1,03,1","09,1,+00180,1,99,9",,"09,99,1,09,1,99,9,99999,9,99,9,99,9",,,,,"99999,9,09619,1","3,1,003,1,+999,9","43,1",,,"SYN076AAXX  22094 08272 41/08 91103 10026 20019 39619 40249 53003 74344 333 89/06;",
"08272099999","2010-01-22T12:00:00","4","39.8833333","-4.05","516.0","TOLEDO, SP","FM-12","99999","V020","100,1,N,0021,1","03600,1,9,N","007000,1,N,1","+0079,1","+0048,1","10232,1","06,0000,9,1",,,"4,1,06,1","2,1,06,1",,,"07,99,1,04,1,05,1,00450,1,03,1,08,1",,,,,"99999,9,09615,1","8,1,004,1,+999,9","10,1",,,"SYN078AAXX  22124 08272 11457 71004 10079 20048 39615 40232 58004 60001 71042 84538;","Q01  00002PRCP06"
"08272099999","2010-01-22T15:00:00","4","39.8833333","-4.05","516.0","TOLEDO, SP","FM-12","99999","V020","050,1,N,0021,1","09000,1,9,N","008000,1,N,1","+0091,1","+0057,1","10204,1",,,,"2,1,03,1","2,1,03,1",,,"07,99,1,02,1,00,1,02250,1,03,1,08,1",,,,,"99999,9,09591,1","6,1,024,1,+999,9","10,1",,,"SYN072AAXX  22154 08272 41858 70504 10091 20057 39591 40204 56024 71022 82038;",
"08272099999","2010-01-22T18:00:00","4","39.8833333","-4.05","516.0","TOLEDO, SP","FM-12","99999","V020","090,1,N,0015,1","09000,1,9,N","007000,1,N,1","+0072,1","+0057,1","10202,1","12,0000,9,1",,,"4,1,06,1","2,1,06,1",,,"07,99,1,03,1,00,1,01750,1,07,1,08,1",,,,"999,M,+0097,1","99999,9,09585,1","8,1,006,1,+999,9","10,1",,,"SYN088AAXX  22184 08272 11757 70903 10072 20057 39585 40202 58006 60002 71042 83078 333 10097;","Q01  00002PRCP12"
"08272099999","2010-01-25T06:00:00","4","39.8833333","-4.05","516.0","TOLEDO, SP","FM-12","99999","V020","030,1,N,0036,1","02100,1,9,N","020000,1,N,1","+0060,1","+0019,1","10242,1","12,0000,9,1","24,0000,9,1",,,,,,"06,99,1,06,1,00,1,02250,1,07,1,00,1","0216,9","01,9","999,+0040,9","999,N,+0059,1","99999,9,09620,1","5,1,002,1,+999,9","02,1",,,"SYN106AAXX  25064 08272 11870 60307 10060 20019 39620 40242 55002 60002 702// 86070 333 20059 30004 55036 70000;","Q01  00002PRCP24Q02  00002PRCP12"
"08272099999","2010-01-25T09:00:00","4","39.8833333","-4.05","516.0","TOLEDO, SP","FM-12","99999","V020","070,1,N,0036,1","22000,1,9,N","040000,1,N,1","+0063,1","+0000,1","10247,1",,,,,,,,"02,99,1,01,1,01,1,00800,1,03,1,00,1",,,,,"99999,9,09625,1","2,1,005,1,+999,9",,,,"SYN066AAXX  25094 08272 42582 20707 10063 20000 39625 40247 52005 81130;",
"08272099999","2010-01-25T12:00:00","4","39.8833333","-4.05","516.0","TOLEDO, SP","FM-12","99999","V020","070,1,N,0057,1","22000,1,9,N","040000,1,N,1","+0089,1","-0009,1","10234,1","06,0000,9,1",,,,,,,"03,99,1,03,1,05,1,00800,1,03,1,00,1",,,,,"99999,9,09618,1","8,1,007,1,+999,9",,,,"SYN072AAXX  25124 08272 12582 30711 10089 21009 39618 40234 58007 60001 83530;","Q01  00002PRCP06"
"08272099999","2010-01-25T15:00:00","4","39.8833333","-4.05","516.0","TOLEDO, SP","FM-12","99999","V020","030,1,N,0046,1","00750,1,9,N","040000,1,N,1","+0089,1","-0015,1","10205,1",,,,,,,,"05,99,1,05,1,05,1,00800,1,03,1,01,1",,,,,"99999,9,09591,1","6,1,027,1,+999,9",,,,"SYN066AAXX  25154 08272 42582 50309 10089 21015 39591 40205 56027 85531;",
"08272099999","2010-01-25T18:00:00","4","39.8833333","-4.05","516.0","TOLEDO, SP","FM-12","99999","V020","360,1,N,0041,1","09000,1,9,N","030000,1,N,1","+0061,1","-0022,1","10203,1","12,0000,9,1",,,,,,,"05,99,1,02,1,05,1,00800,1,03,1,01,1",,,,"999,M,+0101,1","99999,9,09583,1","6,1,008,1,+999,9",,,,"SYN082AAXX  25184 08272 12580 53608 10061 21022 39583 40203 56008 60002 82531 333 10101;","Q01  00002PRCP12"
"08272099999","2010-01-26T06:00:00","4","39.8833333","-4.05","516.0","TOLEDO, SP","FM-12","99999","V020","080,1,N,0046,1","00750,1,9,N","020000,1,N,1","+0012,1","-0004,1","10210,1","12,0079,9,1","24,0081,9,1",,,,,,"07,99,1,05,1,05,1,00800,1,07,1,99,9","0390,9","14,9","999,+0000,9","999,N,+0007,1","99999,9,09579,1","3,1,003,1,+999,9","22,1",,,"SYN112AAXX  26064 08272 11570 70809 10012 21004 39579 40210 53003 60082 722// 8557/ 333 20007 34000 50174 55065 70081;",
"08272099999","2010-01-26T09:00:00","4","39.8833333","-4.05","516.0","TOLEDO, SP","FM-12","99999","V020","070,1,N,0062,1","03600,1,9,N","012000,1,N,1","+0018,1","-0013,1","10227,1",,,,,,,,"07,99,1,01,1,07,1,00450,1,07,1,08,1",,,,,"99999,9,09596,1","2,1,017,1,+999,9",,,,"SYN066AAXX  26094 08272 42462 70712 10018 21013 39596 40227 52017 81778;",
"08272099999","2010-01-26T12:00:00","4","39.8833333","-4.05","516.0","TOLEDO, SP","FM-12","99999","V020","060,1,N,0082,1","03600,1,9,N","015000,1,N,1","+0058,1","+0008,1","10222,1","06,0000,2,1",,,,,,,"06,99,1,01,1,01,1,00800,1,04,1,08,1",,,,,"99999,9,09600,1","0,1,004,1,+999,9",,,,"SYN072AAXX  26124 08272 12565 60616 10058 20008 39600 40222 50004 60001 81148;",
"08272099999","2010-01-26T18:00:00","4","39.8833333","-4.05","516.0","TOLEDO, SP","FM-12","99999","V020","040,1,N,0041,1","22000,1,9,N","030000,1,N,1","+0076,1","+0012,1","10209,1","12,0000,2,1",,,,,,,"01,99,1,01,1,00,1,02250,1,03,1,01,1",,,,"999,M,+0101,1","99999,9,09592,1","3,1,002,1,+999,9",,,,"SYN082AAXX  26184 08272 12880 10408 10076 20012 39592 40209 53002 60002 81031 333 10101;",
"08272099999","2010-01-27T06:00:00","4","39.8833333","-4.05","516.0","TOLEDO, SP","FM-12","99999","V020","100,1,N,0005,1","22000,1,9,N","020000,1,N,1","+0001,1","-0031,1","10212,1","12,0000,9,1","24,0000,2,1",,,,"00,1,+99999,9,99,9",,"00,99,1,00,1,00,1,99999,9,00,1,00,1","0390,9","01,9","999,-0050,9","999,N,+0000,1","99999,9,09578,1","5,1,008,1,+999,9","00,1",,,"SYN106AAXX  27064 08272 11970 01001 10001 21031 39578 40212 55008 60002 700// 333 20000 30105 50144 55065 70000;","Q01  00002PRCP12"
"08272099999","2010-01-27T09:00:00","4","39.8833333","-4.05","516.0","TOLEDO, SP","FM-12","99999","V020","120,1,N,0010,1","22000,1,9,N","018000,1,N,1","+0020,1","-0023,1","10209,1",,,,,,"00,1,+99999,9,99,9",,"00,99,1,00,1,00,1,99999,9,00,1,00,1",,,,,"99999,9,09579,1","1,1,001,1,+999,9",,,,"SYN060AAXX  27094 08272 42968 01202 10020 21023 39579 40209 51001;",
"08272099999","2010-01-27T12:00:00","4","39.8833333","-4.05","516.0","TOLEDO, SP","FM-12","99999","V020","080,1,N,0082,1","03600,1,9,N","020000,1,N,1","+0034,1","-0065,1","10208,1","06,0000,9,1",,,"2,1,06,1","2,1,06,1",,,"07,99,1,03,1,05,1,00800,1,07,1,08,1",,,,,"99999,9,09581,1","0,1,002,1,+999,9","15,1",,,"SYN078AAXX  27124 08272 11570 70816 10034 21065 39581 40208 50002 60001 71522 83578;","Q01  00002PRCP06"
"08272099999","2010-01-27T15:00:00","4","39.8833333","-4.05","516.0","TOLEDO, SP","FM-12","99999","V020","090,1,N,0077,1","00750,1,9,N","008000,1,N,1","+0035,1","-0031,1","10208,1",,,,"7,1,03,1","2,1,03,1",,,"06,99,1,05,1,05,1,00800,1,07,1,00,1",,,,,"99999,9,09582,1","3,1,001,1,+999,9","70,1",,,"SYN072AAXX  27154 08272 41558 60915 10035 21031 39582 40208 53001 77072 85570;",
"08272099999","2010-01-27T18:00:00","4","39.8833333","-4.05","516.0","TOLEDO, SP","FM-12","99999","V020","080,1,N,0041,1","03600,1,9,N","015000,1,N,1","+0021,1","-0006,1","10229,1","12,0000,2,1",,,"7,1,06,1","2,1,06,1",,,"08,99,1,03,1,07,1,00800,1,07,1,99,9",,,,"999,M,+0051,1","99999,9,09599,1","2,1,017,1,+999,9","02,1",,,"SYN088AAXX  27184 08272 11565 80808 10021 21006 39599 40229 52017 69902 70272 8377/ 333 10051;",
"08272099999","2010-01-28T06:00:00","4","39.8833333","-4.05","516.0","TOLEDO, SP","FM-12","99999","V020","999,9,C,0000,1","22000,1,9,N","015000,1,N,1","-0020,1","-0039,1","10245,1","12,0000,9,1","24,0000,2,1",,,,,,"01,99,1,00,1,00,1,99999,9,00,1,02,1","0282,9","01,9","999,-0050,9","999,N,-0024,1","99999,9,09604,1","8,1,008,1,+999,9","02,1",,,"SYN112AAXX  28064 08272 11965 10000 11020 21039 39604 40245 58008 60002 702// 80002 333 21024 30105 50134 55047 79999;","Q01  00002PRCP12"
"08272099999","2010-01-28T09:00:00","4","39.8833333","-4.05","516.0","TOLEDO, SP","FM-12","99999","V020","999,9,C,0000,1","22000,1,9,N","008000,1,N,1","-0001,1","-0043,1","10240,1",,,,"0,1,03,1","0,1,03,1",,,"01,99,1,01,1,00,1,02250,1,03,1,01,1",,,,,"99999,9,09604,1","5,1,000,1,+999,9","10,1",,,"SYN072AAXX  28094 08272 41858 10000 11001 21043 39604 40240 55000 71000 81031;",
"08272099999","2010-01-28T12:00:00","4","39.8833333","-4.05","516.0","TOLEDO, SP","FM-12","99999","V020","290,1,N,0026,1","22000,1,9,N","020000,1,N,1","+0065,1","-0026,1","10212,1","06,0000,9,1",,,,,,,"01,99,1,01,1,00,1,02250,1,03,1,00,1",,,,,"99999,9,09592,1","8,1,012,1,+999,9",,,,"SYN072AAXX  28124 08272 12870 12905 10065 21026 39592 40212 58012 60001 81030;","Q01  00002PRCP06"
"08272099999","2010-01-28T15:00:00","4","39.8833333","-4.05","516.0","TOLEDO, SP","FM-12","99999","V020","270,1,N,0046,1","22000,1,9,N","040000,1,N,1","+0107,1","-0037,1","10171,1",,,,,,,,"01,99,1,01,1,00,1,02250,1,03,1,01,1",,,,,"99999,9,09562,1","6,1,030,1,+999,9",,,,"SYN066AAXX  28154 08272 42882 12709 10107 21037 39562 40171 56030 81031;",
"08272099999","2010-01-28T18:00:00","4","39.8833333","-4.05","516.0","TOLEDO, SP","FM-12","99999","V020","300,1,N,0041,1","22000,1,9,N","040000,1,N,1","+0072,1","-0028,1","10172,1","12,0000,9,1",,,,,"00,1,+99999,9,99,9",,"00,99,1,00,1,00,1,99999,9,00,1,00,1",,,,"999,M,+0113,1","99999,9,09556,1","5,1,006,1,+999,9",,,,"SYN076AAXX  28184 08272 12982 03008 10072 21028 39556 40172 55006 60002 333 10113;","Q01  00002PRCP12"
"08272099999","2010-01-29T06:00:00","4","39.8833333","-4.05","516.0","TOLEDO, SP","FM-12","99999","V020","999,9,C,0000,1","22000,1,9,N","020000,1,N,1","+0004,1","-0031,1","10144,1","12,0000,9,1","24,0000,9,1",,,,"00,1,+99999,9,99,9",,"00,99,1,00,1,00,1,99999,9,00,1,00,1","0510,9","01,9","999,-0050,9","999,N,+0002,1","99999,9,09515,1","6,1,017,1,+999,9","00,1",,,"SYN106AAXX  29064 08272 11970 00000 10004 21031 39515 40144 56017 60002 700// 333 20002 30105 50164 55085 70000;","Q01  00002PRCP24Q02  00002PRCP12"
"08272099999","2010-01-29T09:00:00","4","39.8833333","-4.05","516.0","TOLEDO, SP","FM-12","99999","V020","270,1,N,0021,1","22000,1,9,N","050000,1,N,1","+0041,1","-0015,1","10125,1",,,,,,,,"01,99,1,01,1,00,1,02250,1,03,1,00,1",,,,,"99999,9,09505,1","7,1,010,1,+999,9",,,,"SYN066AAXX  29094 08272 42884 12704 10041 21015 39505 40125 57010 81030;",
"08272099999","2010-01-29T12:00:00","4","39.8833333","-4.05","516.0","TOLEDO, SP","FM-12","99999","V020","290,1,N,0046,1","22000,1,9,N","050000,1,N,1","+0090,1","-0009,1","10102,1","06,0000,9,1",,,,,,,"01,99,1,00,1,00,1,99999,9,00,1,01,1",,,,,"99999,9,09494,1","8,1,011,1,+999,9",,,,"SYN072AAXX  29124 08272 12984 12909 10090 21009 39494 40102 58011 60001 80001;","Q01  00002PRCP06"
"08272099999","2010-01-29T15:00:00","4","39.8833333","-4.05","516.0","TOLEDO, SP","FM-12","99999","V020","260,1,N,0067,1","22000,1,9,N","030000,1,N,1","+0110,1","-0011,1","10069,1",,,,,,,,"03,99,1,01,1,01,1,00800,1,00,1,01,1",,,,,"99999,9,09467,1","6,1,027,1,+999,9",,,,"SYN066AAXX  29154 08272 42580 32613 10110 21011 39467 40069 56027 81101;",
"08272099999","2010-01-29T18:00:00","4","39.8833333","-4.05","516.0","TOLEDO, SP","FM-12","99999","V020","240,1,N,0015,1","22000,1,9,N","040000,1,N,1","+0082,1","+0016,1","10078,1","12,0000,9,1",,,,,,,"02,99,1,01,1,05,1,00800,1,03,1,00,1",,,,"999,M,+0115,1","99999,9,09470,1","3,1,003,1,+999,9",,,,"SYN082AAXX  29184 08272 12582 22403 10082 20016 39470 40078 53003 60002 81530 333 10115;","Q01  00002PRCP12"
"08272099999","2010-02-01T06:00:00","4","39.8833333","-4.05","516.0","TOLEDO, SP","FM-12","99999","V020","300,1,N,0026,1","22000,1,9,N","040000,1,N,1","+0035,1","-0011,1","10183,1","12,0000,9,1","24,0000,9,1",,,,"00,1,+99999,9,99,9",,"00,99,1,00,1,00,1,99999,9,00,1,00,1","0576,9","01,9","999,-0020,9","999,N,+0024,1","99999,9,09558,1","3,1,021,1,+999,9","00,1",,,"SYN100AAXX  01064 08272 11982 03005 10035 21011 39558 40183 53021 60002 700// 333 20024 30102 55096 70000;","Q01  00002PRCP24Q02  00002PRCP12"
"08272099999","2010-02-01T09:00:00","4","39.8833333","-4.05","516.0","TOLEDO, SP","FM-12","99999","V020","170,1,N,0010,1","22000,1,9,N","050000,1,N,1","+0053,1","-0003,1","10212,1",,,,,,,,"01,99,1,01,1,04,1,00450,1,00,1,00,1",,,,,"99999,9,09590,1","2,1,032,1,+999,9",,,,"SYN066AAXX  01094 08272 42484 11702 10053 21003 39590 40212 52032 81400;",
"08272099999","2010-02-01T12:00:00","4","39.8833333","-4.05","516.0","TOLEDO, SP","FM-12","99999","V020","120,1,N,0041,1","22000,1,9,N","050000,1,N,1","+0094,1","-0019,1","10217,1","06,0000,9,1",,,,,,,"01,99,1,01,1,01,1,00450,1,00,1,00,1",,,,,"99999,9,09603,1","1,1,013,1,+999,9",,,,"SYN072AAXX  01124 08272 12484 11208 10094 21019 39603 40217 51013 60001 81100;","Q01  00002PRCP06"
"08272099999","2010-02-01T15:00:00","4","39.8833333","-4.05","516.0","TOLEDO, SP","FM-12","99999","V020","120,1,N,0026,1","22000,1,9,N","050000,1,N,1","+0116,1","-0045,1","10209,1",,,,,,,,"01,99,1,01,1,01,1,00450,1,00,1,00,1",,,,,"99999,9,09600,1","6,1,003,1,+999,9",,,,"SYN066AAXX  01154 08272 42484 11205 10116 21045 39600 40209 56003 81100;",
"08272099999","2010-02-01T18:00:00","4","39.8833333","-4.05","516.0","TOLEDO, SP","FM-12","99999","V020","260,1,N,0010,1","22000,1,9,N","050000,1,N,1","+0093,1","-0017,1","10226,1","12,0000,9,1",,,,,,,"01,99,1,00,1,00,1,99999,9,00,1,01,1",,,,"999,M,+0120,1","99999,9,09611,1","3,1,011,1,+999,9",,,,"SYN082AAXX  01184 08272 12984 12602 10093 21017 39611 40226 53011 60002 80001 333 10120;","Q01  00002PRCP12"
"08272099999","2010-02-02T06:00:00","4","39.8833333","-4.05","516.0","TOLEDO, SP","FM-12","99999","V020","110,1,N,0021,1","22000,1,9,N","050000,1,N,1","-0014,1","-0052,1","10272,1","12,0000,9,1","24,0000,9,1",,,,,,"02,99,1,00,1,00,1,99999,9,00,1,01,1","0588,9","01,9","999,-0040,9","999,N,-0015,1","99999,9,09631,1","7,1,003,1,+999,9","02,1",,,"SYN112AAXX  02064 08272 11984 21104 11014 21052 39631 40272 57003 60002 702// 80001 333 21015 30104 50214 55098 70000;","Q01  00002PRCP24Q02  00002PRCP12"
"08272099999","2010-02-02T09:00:00","4","39.8833333","-4.05","516.0","TOLEDO, SP","FM-12","99999","V020","120,1,N,0041,1","22000,1,9,N","050000,1,N,1","+0002,1","-0042,1","10276,1",,,,,,,,"01,99,1,00,1,00,1,99999,9,00,1,01,1",,,,,"99999,9,09638,1","3,1,007,1,+999,9",,,,"SYN066AAXX  02094 08272 42984 11208 10002 21042 39638 40276 53007 80001;",
"08272099999","2010-02-02T12:00:00","4","39.8833333","-4.05","516.0","TOLEDO, SP","FM-12","99999","V020","100,1,N,0031,1","22000,1,9,N","040000,1,N,1","+0078,1","-0020,1","10255,1","06,0000,9,1",,,,,"00,1,+99999,9,99,9",,"00,99,1,00,1,00,1,99999,9,00,1,00,1",,,,,"99999,9,09635,1","8,1,003,1,+999,9",,,,"SYN066AAXX  02124 08272 12982 01006 10078 21020 39635 40255 58003 60001;","Q01  00002PRCP06"
"08272099999","2010-02-02T15:00:00","4","39.8833333","-4.05","516.0","TOLEDO, SP","FM-12","99999","V020","120,1,N,0031,1","22000,1,9,N","035000,1,N,1","+0109,1","-0018,1","10223,1",,,,,,"00,1,+99999,9,99,9",,"00,99,1,00,1,00,1,99999,9,00,1,00,1",,,,,"99999,9,09612,1","7,1,023,1,+999,9",,,,"SYN060AAXX  02154 08272 42981 01206 10109 21018 39612 40223 57023;",
"08272099999","2010-02-02T18:00:00","4","39.8833333","-4.05","516.0","TOLEDO, SP","FM-12","99999","V020","060,1,N,0041,1","22000,1,9,N","050000,1,N,1","+0075,1","-0039,1","10230,1","12,0000,9,1",,,,,"00,1,+99999,9,99,9",,"00,99,1,00,1,00,1,99999,9,00,1,00,1",,,,"999,M,+0112,1","99999,9,09611,1","7,1,001,1,+999,9",,,,"SYN076AAXX  02184 08272 12984 00608 10075 21039 39611 40230 57001 60002 333 10112;","Q01  00002PRCP12"
"08272099999","2010-02-03T06:00:00","4","39.8833333","-4.05","516.0","TOLEDO, SP","FM-12","99999","V020","100,1,N,0031,1","22000,1,9,N","030000,1,N,1","-0013,1","-0035,1","10238,1","12,0000,9,1","24,0000,9,1",,,,,,"01,99,1,00,1,00,1,99999,9,00,1,01,1","0582,9","01,9","999,-0050,9","999,N,-0014,1","99999,9,09599,1","7,1,007,1,+999,9","02,1",,,"SYN112AAXX  03064 08272 11980 11006 11013 21035 39599 40238 57007 60002 702// 80001 333 21014 30105 50174 55097 70000;","Q01  00002PRCP24Q02  00002PRCP12"
"08272099999","2010-02-03T09:00:00","4","39.8833333","-4.05","516.0","TOLEDO, SP","FM-12","99999","V020","100,1,N,0041,1","99999,9,9,N","015000,1,N,1","+0001,1","-0031,1","10233,1",,,,,,,,"07,99,1,00,1,00,1,99999,9,00,1,01,1",,,,,"99999,9,09598,1","7,1,001,1,+999,9",,,,"SYN066AAXX  03094 08272 42965 71008 10001 21031 39598 40233 57001 80001;",
"08272099999","2010-02-03T12:00:00","4","39.8833333","-4.05","516.0","TOLEDO, SP","FM-12","99999","V020","100,1,N,0036,1","09000,1,9,N","030000,1,N,1","+0095,1","+0009,1","10191,1","06,0000,9,1",,,,,,,"07,99,1,03,1,00,1,02250,1,03,1,02,1",,,,,"99999,9,09579,1","8,1,019,1,+999,9",,,,"SYN072AAXX  03124 08272 12880 71007 10095 20009 39579 40191 58019 60001 83032;","Q01  00002PRCP06"
"08272099999","2010-02-03T15:00:00","4","39.8833333","-4.05","516.0","TOLEDO, SP","FM-12","99999","V020","100,1,N,0031,1","22000,1,9,N","030000,1,N,1","+0130,1","+0010,1","10155,1",,,,,,,,"04,99,1,01,1,00,1,02250,1,04,1,09,1",,,,,"99999,9,09552,1","7,1,027,1,+999,9",,,,"SYN066AAXX  03154 08272 42880 41006 10130 20010 39552 40155 57027 81049;",
"08272099999","2010-02-03T18:00:00","4","39.8833333","-4.05","516.0","TOLEDO, SP","FM-12","99999","V020","060,1,N,0021,1","01500,1,9,N","030000,1,N,1","+0107,1","+0015,1","10152,1","12,0000,9,1",,,,,,,"07,99,1,07,1,00,1,01750,1,07,1,01,1",,,,"999,M,+0130,1","99999,9,09545,1","6,1,007,1,+999,9",,,,"SYN082AAXX  03184 08272 12780 70604 10107 20015 39545 40152 56007 60002 87071 333 10130;","Q01  00002PRCP12"
"08272099999","2010-02-04T06:00:00","4","39.8833333","-4.05","516.0","TOLEDO, SP","FM-12","99999","V020","080,1,N,0041,1","00420,1,9,N","005000,1,N,1","+0065,1","+0047,1","10124,1","12,0005,9,1","24,0005,9,1",,,,,,"08,99,1,08,1,06,1,00450,1,99,9,99,9","0438,9","09,9","999,+0060,9","999,N,+0065,1","99999,9,09510,1","5,1,000,1,+999,9","51,1",,,"SYN112AAXX  04064 08272 11450 80808 10065 20047 39510 40124 55000 69952 751// 886// 333 20065 31006 50234 55073 70005;",
"08272099999","2010-02-04T09:00:00","4","39.8833333","-4.05","516.0","TOLEDO, SP","FM-12","99999","V020","100,1,N,0036,1","02100,1,9,N","006000,1,N,1","+0068,1","+0050,1","10129,1",,,,"5,1,03,1","2,1,03,1",,,"08,99,1,07,1,00,1,02250,1,03,1,07,1",,,,,"99999,9,09516,1","2,1,006,1,+999,9","10,1",,,"SYN072AAXX  04094 08272 41856 81007 10068 20050 39516 40129 52006 71052 87037;",
"08272099999","2010-02-04T12:00:00","4","39.8833333","-4.05","516.0","TOLEDO, SP","FM-12","99999","V020","320,1,N,0010,1","03600,1,9,N","006000,1,N,1","+0091,1","+0057,1","10137,1","06,0010,9,1",,,"5,1,06,1","2,1,06,1",,,"07,99,1,01,1,07,1,00450,1,03,1,08,1",,,,,"99999,9,09528,1","1,1,012,1,+999,9","10,1",,,"SYN078AAXX  04124 08272 11456 73202 10091 20057 39528 40137 51012 60011 71052 81738;",
"08272099999","2010-02-04T15:00:00","4","39.8833333","-4.05","516.0","TOLEDO, SP","FM-12","99999","V020","260,1,N,0026,1","03600,1,9,N","007000,1,N,1","+0101,1","+0070,1","10128,1",,,,"2,1,03,1","2,1,03,1",,,"08,99,1,02,1,07,1,00250,1,02,1,99,9",,,,,"99999,9,09522,1","8,1,006,1,+999,9","10,1",,,"SYN072AAXX  04154 08272 41357 82605 10101 20070 39522 40128 58006 71022 8272/;",
"08272099999","2010-02-04T18:00:00","4","39.8833333","-4.05","516.0","TOLEDO, SP","FM-12","99999","V020","250,1,N,0021,1","03600,1,9,N","030000,1,N,1","+0106,1","+0082,1","10127,1","12,0010,9,1",,,"5,1,06,1","2,1,06,1",,,"08,99,1,04,1,05,1,00450,1,07,1,08,1",,,,"999,M,+0109,1","99999,9,09522,1","4,1,000,1,+999,9","02,1",,,"SYN088AAXX  04184 08272 11480 82504 10106 20082 39522 40127 54000 60012 70252 84578 333 10109;",
"08272099999","2010-02-05T06:00:00","4","39.8833333","-4.05","516.0","TOLEDO, SP","FM-12","99999","V020","270,1,N,0062,1","01500,1,9,N","030000,1,N,1","+0087,1","+0063,1","10167,1","12,0010,9,1","24,0023,9,1",,,,,,"06,99,1,06,1,00,1,01750,1,07,1,01,1","0024,9","01,9","999,+0070,9","999,N,+0087,1","99999,9,09555,1","3,1,013,1,+999,9","02,1",,,"SYN112AAXX  05064 08272 11780 62712 10087 20063 39555 40167 53013 60012 702// 86071 333 20087 30007 50074 55004 70023;",
"08272099999","2010-02-05T09:00:00","4","39.8833333","-4.05","516.0","TOLEDO, SP","FM-12","99999","V020","270,1,N,0051,1","03600,1,9,N","035000,1,N,1","+0099,1","+0049,1","10194,1",,,,,,,,"06,99,1,01,1,02,1,00450,1,03,1,01,1",,,,,"99999,9,09583,1","2,1,028,1,+999,9",,,,"SYN066AAXX  05094 08272 42481 62710 10099 20049 39583 40194 52028 81231;",
"08272099999","2010-02-05T12:00:00","4","39.8833333","-4.05","516.0","TOLEDO, SP","FM-12","99999","V020","280,1,N,0103,1","00420,1,9,N","040000,1,N,1","+0123,1","+0030,1","10201,1","06,0000,9,1",,,,,,,"06,99,1,06,1,04,1,00450,1,04,1,01,1",,,,,"99999,9,09594,1","1,1,011,1,+999,9",,,,"SYN072AAXX  05124 08272 12482 62820 10123 20030 39594 40201 51011 60001 86441;","Q01  00002PRCP06"
"08272099999","2010-02-05T15:00:00","4","39.8833333","-4.05","516.0","TOLEDO, SP","FM-12","99999","V020","270,1,N,0103,1","03600,1,9,N","040000,1,N,1","+0125,1","+0029,1","10201,1",,,,,,,,"07,99,1,04,1,08,1,00450,1,03,1,01,1",,,,,"99999,9,09595,1","2,1,001,1,+999,9",,,,"SYN066AAXX  05154 08272 42482 72720 10125 20029 39595 40201 52001 84831;",
"08272099999","2010-02-05T18:00:00","4","39.8833333","-4.05","516.0","TOLEDO, SP","FM-12","99999","V020","280,1,N,0062,1","22000,1,9,N","040000,1,N,1","+0108,1","+0034,1","10220,1","12,0000,9,1",,,,,,,"03,99,1,01,1,04,1,00450,1,00,1,01,1",,,,"999,M,+0135,1","99999,9,09609,1","3,1,014,1,+999,9",,,,"SYN082AAXX  05184 08272 12482 32812 10108 20034 39609 40220 53014 60002 81401 333 10135;","Q01  00002PRCP12"
"08272099999","2010-02-08T06:00:00","4","39.8833333","-4.05","516.0","TOLEDO, SP","FM-12","99999","V020","080,1,N,0015,1","00750,1,9,N","010000,1,N,1","+0078,1","+0069,1","10062,1","12,0003,9,1","24,0003,9,1",,,,,,"08,99,1,08,1,07,1,00800,1,99,9,99,9","0174,9","09,9","999,+0050,9","999,N,+0077,1","99999,9,09455,1","7,1,023,1,+999,9","02,1",,,"SYN106AAXX  08064 08272 11560 80803 10078 20069 39455 40062 57023 69932 702// 887// 333 20077 31005 55029 70003;",
"08272099999","2010-02-08T09:00:00","4","39.8833333","-4.05","516.0","TOLEDO, SP","FM-12","99999","V020","200,1,N,0005,1","00420,1,9,N","002000,1,N,1","+0083,1","+0077,1","10049,1",,,,"5,1,03,1","4,1,03,1",,,"08,99,1,06,1,07,1,00450,1,02,1,99,9",,,,,"99999,9,09444,1","7,1,011,1,+999,9","50,1",,,"SYN072AAXX  08094 08272 41420 82001 10083 20077 39444 40049 57011 75054 8672/;",
"08272099999","2010-02-08T12:00:00","4","39.8833333","-4.05","516.0","TOLEDO, SP","FM-12","99999","V020","280,1,N,0041,1","00420,1,9,N","008000,1,N,1","+0098,1","+0090,1","10033,1","06,0020,9,1",,,"6,1,06,1","5,1,06,1",,,"08,99,1,06,1,07,1,00450,1,02,1,99,9",,,,,"99999,9,09432,1","7,1,012,1,+999,9","61,1",,,"SYN078AAXX  08124 08272 11458 82808 10098 20090 39432 40033 57012 60021 76165 8672/;",
"08272099999","2010-02-08T15:00:00","4","39.8833333","-4.05","516.0","TOLEDO, SP","FM-12","99999","V020","280,1,N,0057,1","00750,1,C,N","030000,1,N,1","+0117,1","+0086,1","10003,1",,,,"6,1,03,1","2,1,03,1","01,1,+00480,1,09,1",,"05,99,1,05,1,03,1,00800,1,06,1,00,1",,,,,"99999,9,09408,1","7,1,024,1,+999,9","03,1",,,"SYN088AAXX  08154 08272 41580 52811 10117 20086 39408 40003 57024 70362 85360 333 81916 83616;",
"08272099999","2010-02-08T18:00:00","4","39.8833333","-4.05","516.0","TOLEDO, SP","FM-12","99999","V020","290,1,N,0051,1","00420,1,C,N","010000,1,N,1","+0083,1","+0056,1","10009,1","12,0061,9,1",,,"8,1,06,1","6,1,06,1","03,1,+00390,1,09,1",,"06,99,1,06,1,03,1,00450,1,06,1,00,1",,,,"120,M,+0127,1","99999,9,09406,1","5,1,002,1,+999,9","81,1",,,"SYN100AAXX  08184 08272 11460 62910 10083 20056 39406 40009 55002 60062 78186 86360 333 10127 83913 83616;",
"08272099999","2010-02-09T06:00:00","4","39.8833333","-4.05","516.0","TOLEDO, SP","FM-12","99999","V020","090,1,N,0010,1","22000,1,9,N","015000,1,N,1","+0050,1","+0037,1","10027,1","12,0005,9,1","24,0066,9,1",,,,,,"03,99,1,01,1,01,1,00800,1,03,1,01,1","0060,9","09,9","999,+0010,9","999,N,+0049,1","99999,9,09416,1","3,1,007,1,+999,9","02,1",,,"SYN112AAXX  09064 08272 11565 30902 10050 20037 39416 40027 53007 69962 702// 81131 333 20049 31001 50054 55010 70066;",
"08272099999","2010-02-09T09:00:00","4","39.8833333","-4.05","516.0","TOLEDO, SP","FM-12","99999","V020","290,1,N,0057,1","03600,1,9,N","016000,1,N,1","+0069,1","+0040,1","10042,1",,,,,,,,"05,99,1,03,1,05,1,00800,1,04,1,02,1",,,,,"99999,9,09434,1","2,1,018,1,+999,9",,,,"SYN066AAXX  09094 08272 42566 52911 10069 20040 39434 40042 52018 83542;",
"08272099999","2010-02-09T12:00:00","4","39.8833333","-4.05","516.0","TOLEDO, SP","FM-12","99999","V020","320,1,N,0051,1","01200,1,9,N","030000,1,N,1","+0104,1","+0043,1","10045,1","06,0000,9,1",,,,,,,"06,99,1,05,1,08,1,00800,1,03,1,00,1",,,,,"99999,9,09444,1","1,1,010,1,+999,9",,,,"SYN072AAXX  09124 08272 12580 63210 10104 20043 39444 40045 51010 60001 85830;","Q01  00002PRCP06"
"08272099999","2010-02-09T15:00:00","4","39.8833333","-4.05","516.0","TOLEDO, SP","FM-12","99999","V020","360,1,N,0057,1","00420,1,C,N","015000,1,N,1","+0092,1","+0044,1","10039,1",,,,"2,1,03,1","2,1,03,1","02,1,+00390,1,09,1",,"07,99,1,07,1,03,1,00450,1,99,9,99,9",,,,,"99999,9,09436,1","6,1,008,1,+999,9","80,1",,,"SYN088AAXX  09154 08272 41465 73611 10092 20044 39436 40039 56008 78022 873// 333 82913 85616;",
"08272099999","2010-02-09T18:00:00","4","39.8833333","-4.05","516.0","TOLEDO, SP","FM-12","99999","V020","360,1,N,0062,1","00420,1,C,N","020000,1,N,1","+0071,1","+0042,1","10057,1","12,0041,9,1",,,"8,1,06,1","2,1,06,1","02,1,+00390,1,09,1",,"07,99,1,07,1,03,1,00450,1,99,9,99,9",,,,"120,M,+0119,1","99999,9,09448,1","2,1,012,1,+999,9","25,1",,,"SYN100AAXX  09184 08272 11470 73612 10071 20042 39448 40057 52012 60042 72582 873// 333 10119 82913 85616;",
"08272099999","2010-02-10T06:00:00","4","39.8833333","-4.05","516.0","TOLEDO, SP","FM-12","99999","V020","050,1,N,0015,1","99999,9,9,N","020000,1,N,1","+0010,1","-0012,1","10113,1","12,0000,2,1","24,0041,9,1",,,,,,"06,99,1,00,1,00,1,99999,9,00,1,08,1","0252,9","09,9","999,-0020,9","999,N,+0010,1","99999,9,09487,1","6,1,003,1,+999,9","02,1",,,"SYN112AAXX  10064 08272 11970 60503 10010 21012 39487 40113 56003 60002 702// 80008 333 20010 31102 50114 55042 70040;",
"08272099999","2010-02-10T09:00:00","4","39.8833333","-4.05","516.0","TOLEDO, SP","FM-12","99999","V020","140,1,N,0015,1","09000,1,9,N","030000,1,N,1","+0026,1","-0007,1","10115,1",,,,,,,,"07,99,1,03,1,00,1,02250,1,07,1,08,1",,,,,"99999,9,09493,1","1,1,006,1,+999,9",,,,"SYN066AAXX  10094 08272 42880 71403 10026 21007 39493 40115 51006 83078;",
"08272099999","2010-02-10T12:00:00","4","39.8833333","-4.05","516.0","TOLEDO, SP","FM-12","99999","V020","120,1,N,0021,1","09000,1,9,N","040000,1,N,1","+0061,1","-0015,1","10105,1","06,0000,9,1",,,,,,,"08,99,1,02,1,00,1,02250,1,07,1,07,1",,,,,"99999,9,09491,1","8,1,002,1,+999,9",,,,"SYN072AAXX  10124 08272 12882 81204 10061 21015 39491 40105 58002 60001 82077;","Q01  00002PRCP06"
"08272099999","2010-02-10T15:00:00","4","39.8833333","-4.05","516.0","TOLEDO, SP","FM-12","99999","V020","270,1,N,0041,1","03600,1,9,N","018000,1,N,1","+0083,1","+0005,1","10079,1",,,,,,,,"08,99,1,03,1,07,1,00800,1,02,1,99,9",,,,,"99999,9,09471,1","7,1,020,1,+999,9",,,,"SYN066AAXX  10154 08272 42568 82708 10083 20005 39471 40079 57020 8372/;",
"08272099999","2010-02-10T18:00:00","4","39.8833333","-4.05","516.0","TOLEDO, SP","FM-12","99999","V020","290,1,N,0021,1","03600,1,9,N","015000,1,N,1","+0061,1","+0012,1","10078,1","12,0000,9,1",,,,,,,"07,99,1,04,1,07,1,00800,1,02,1,99,9",,,,"999,M,+0084,1","99999,9,09466,1","6,1,005,1,+999,9",,,,"SYN082AAXX  10184 08272 12565 72904 10061 20012 39466 40078 56005 60002 8472/ 333 10084;","Q01  00002PRCP12"
"08272099999","2010-02-11T06:00:00","4","39.8833333","-4.05","516.0","TOLEDO, SP","FM-12","99999","V020","010,1,N,0041,1","22000,1,9,N","020000,1,N,1","-0007,1","-0068,1","10118,1","12,0005,9,1","24,0005,9,1",,,,,,"01,99,1,01,1,00,1,02250,1,03,1,00,1","0012,9","01,9","999,-0050,9","999,N,-0010,1","99999,9,09488,1","1,1,013,1,+999,9","02,1",,,"SYN112AAXX  11064 08272 11870 10108 11007 21068 39488 40118 51013 69942 702// 81030 333 21010 30105 50144 55002 70004;",
"08272099999","2010-02-11T09:00:00","4","39.8833333","-4.05","516.0","TOLEDO, SP","FM-12","99999","V020","250,1,N,0010,1","22000,1,9,N","016000,1,N,1","+0009,1","-0055,1","10138,1",,,,,,,,"01,99,1,01,1,01,1,00800,1,00,1,01,1",,,,,"99999,9,09510,1","2,1,022,1,+999,9",,,,"SYN066AAXX  11094 08272 42566 12502 10009 21055 39510 40138 52022 81101;",
"08272099999","2010-02-11T12:00:00","4","39.8833333","-4.05","516.0","TOLEDO, SP","FM-12","99999","V020","290,1,N,0015,1","22000,1,9,N","040000,1,N,1","+0058,1","-0064,1","10129,1","06,0000,9,1",,,,,,,"03,99,1,03,1,04,1,00800,1,00,1,00,1",,,,,"99999,9,09512,1","0,1,002,1,+999,9",,,,"SYN072AAXX  11124 08272 12582 32903 10058 21064 39512 40129 50002 60001 83400;","Q01  00002PRCP06"
"08272099999","2010-02-11T15:00:00","4","39.8833333","-4.05","516.0","TOLEDO, SP","FM-12","99999","V020","340,1,N,0093,1","22000,1,9,N","040000,1,N,1","+0060,1","-0079,1","10116,1",,,,,,,,"01,99,1,01,1,04,1,00800,1,00,1,00,1",,,,,"99999,9,09500,1","5,1,012,1,+999,9",,,,"SYN066AAXX  11154 08272 42582 13418 10060 21079 39500 40116 55012 81400;",
"08272099999","2010-02-11T18:00:00","4","39.8833333","-4.05","516.0","TOLEDO, SP","FM-12","99999","V020","350,1,N,0051,1","22000,1,9,N","040000,1,N,1","+0032,1","-0081,1","10141,1","12,0000,9,1",,,,,,,"03,99,1,01,1,04,1,00800,1,07,1,00,1",,,,"999,M,+0070,1","99999,9,09518,1","2,1,018,1,+999,9",,,,"SYN082AAXX  11184 08272 12582 33510 10032 21081 39518 40141 52018 60002 81470 333 10070;","Q01  00002PRCP12"
"08272099999","2010-02-12T06:00:00","4","39.8833333","-4.05","516.0","TOLEDO, SP","FM-12","99999","V020","200,1,N,0005,1","22000,1,9,N","020000,1,N,1","-0035,1","-0055,1","10170,1","12,0000,9,1","24,0000,9,1",,,,,,"01,99,1,00,1,00,1,99999,9,00,1,04,1","0570,9","01,9","999,-0080,9","999,N,-0035,1","99999,9,09530,1","5,1,003,1,+999,9","02,1",,,"SYN112AAXX  12064 08272 11970 12001 11035 21055 39530 40170 55003 60002 702// 80004 333 21035 30108 50244 55095 70000;","Q01  00002PRCP24Q02  00002PRCP12"
"08272099999","2010-02-12T09:00:00","4","39.8833333","-4.05","516.0","TOLEDO, SP","FM-12","99999","V020","110,1,N,0026,1","22000,1,9,N","030000,1,N,1","+0011,1","-0074,1","10162,1",,,,,,,,"02,99,1,00,1,00,1,99999,9,00,1,01,1",,,,,"99999,9,09533,1","1,1,003,1,+999,9",,,,"SYN066AAXX  12094 08272 42980 21105 10011 21074 39533 40162 51003 80001;",
"08272099999","2010-02-12T12:00:00","4","39.8833333","-4.05","516.0","TOLEDO, SP","FM-12","99999","V020","010,1,N,0021,1","22000,1,9,N","030000,1,N,1","+0043,1","-0081,1","10144,1","06,0000,9,1",,,,,,,"05,99,1,03,1,00,1,02250,1,01,1,08,1",,,,,"99999,9,09523,1","8,1,010,1,+999,9",,,,"SYN072AAXX  12124 08272 12880 50104 10043 21081 39523 40144 58010 60001 83018;","Q01  00002PRCP06"
"08272099999","2010-02-12T15:00:00","4","39.8833333","-4.05","516.0","TOLEDO, SP","FM-12","99999","V020","190,1,N,0015,1","09000,1,9,N","020000,1,N,1","+0061,1","-0068,1","10114,1",,,,,,,,"07,99,1,04,1,00,1,02250,1,07,1,08,1",,,,,"99999,9,09499,1","6,1,024,1,+999,9",,,,"SYN066AAXX  12154 08272 42870 71903 10061 21068 39499 40114 56024 84078;",
"08272099999","2010-02-12T18:00:00","4","39.8833333","-4.05","516.0","TOLEDO, SP","FM-12","99999","V020","999,9,C,0000,1","02100,1,9,N","015000,1,N,1","+0046,1","-0063,1","10108,1","12,0000,9,1",,,,,,,"08,99,1,06,1,00,1,02250,1,07,1,07,1",,,,"999,M,+0069,1","99999,9,09490,1","8,1,009,1,+999,9",,,,"SYN082AAXX  12184 08272 12865 80000 10046 21063 39490 40108 58009 60002 86077 333 10069;","Q01  00002PRCP12"
"08272099999","2010-02-15T06:00:00","4","39.8833333","-4.05","516.0","TOLEDO, SP","FM-12","99999","V020","080,1,N,0072,1","00420,1,9,N","012000,1,N,1","+0026,1","-0005,1","10006,1","12,0000,9,1","24,0000,9,1",,,,,,"08,99,1,08,1,05,1,00450,1,99,9,99,9","0414,9","01,9","999,+0000,9","999,N,+0010,1","99999,9,09390,1","7,1,021,1,+999,9","02,1",,,"SYN112AAXX  15064 08272 11462 80814 10026 21005 39390 40006 57021 60002 702// 885// 333 20010 30100 50864 55069 70000;","Q01  00002PRCP24Q02  00002PRCP12"
"08272099999","2010-02-15T09:00:00","4","39.8833333","-4.05","516.0","TOLEDO, SP","FM-12","99999","V020","090,1,N,0067,1","00420,1,9,N","001200,1,N,1","+0009,1","+0000,1","10009,1",,,,"6,1,03,1","2,1,03,1",,,"08,99,1,08,1,06,1,00450,1,99,9,99,9",,,,,"99999,9,09390,1","5,1,000,1,+999,9","73,1",,,"SYN072AAXX  15094 08272 41412 80913 10009 20000 39390 40009 55000 77362 886//;",
"08272099999","2010-02-15T12:00:00","4","39.8833333","-4.05","516.0","TOLEDO, SP","FM-12","99999","V020","080,1,N,0072,1","00420,1,9,N","003000,1,N,1","+0020,1","+0013,1","09999,1","06,0061,9,1",,,"7,1,06,1","4,1,06,1",,,"08,99,1,08,1,06,1,00450,1,99,9,99,9",,,,,"99999,9,09383,1","8,1,007,1,+999,9","70,1",,,"SYN078AAXX  15124 08272 11430 80814 10020 20013 39383 49999 58007 60061 77074 886//;",
"08272099999","2010-02-15T15:00:00","4","39.8833333","-4.05","516.0","TOLEDO, SP","FM-12","99999","V020","080,1,N,0067,1","00210,1,9,N","003000,1,N,1","+0008,1","+0002,1","09982,1",,,,"7,1,03,1","4,1,03,1",,,"08,99,1,08,1,06,1,00250,1,99,9,99,9",,,,,"99999,9,09364,1","6,1,019,1,+999,9","70,1",,,"SYN072AAXX  15154 08272 41330 80813 10008 20002 39364 49982 56019 77074 886//;",
"08272099999","2010-02-15T18:00:00","4","39.8833333","-4.05","516.0","TOLEDO, SP","FM-12","99999","V020","080,1,N,0062,1","00120,1,9,N","002500,1,N,1","+0014,1","+0007,1","09983,1","12,0130,9,1",,,"7,1,06,1","4,1,06,1",,,"08,99,1,08,1,07,1,00150,1,99,9,99,9",,,,"999,M,+0026,1","99999,9,09366,1","3,1,002,1,+999,9","61,1",,,"SYN088AAXX  15184 08272 11225 80812 10014 20007 39366 49983 53002 60132 76174 887// 333 10026;",
"08272099999","2010-02-16T06:00:00","4","39.8833333","-4.05","516.0","TOLEDO, SP","FM-12","99999","V020","090,1,N,0057,1","03600,1,9,N","003000,1,N,1","+0035,1","+0028,1","09926,1","12,0109,9,1","24,0239,9,1",,,,,,"08,99,1,04,1,07,1,00450,1,02,1,99,9","0000,9","11,9","999,+0010,9","999,N,+0014,1","99999,9,09318,1","6,1,019,1,+999,9","63,1",,,"SYN112AAXX  16064 08272 11430 80911 10035 20028 39318 49926 56019 60112 763// 8472/ 333 20014 32001 50024 55000 70238;",
"08272099999","2010-02-16T09:00:00","4","39.8833333","-4.05","516.0","TOLEDO, SP","FM-12","99999","V020","090,1,N,0057,1","00060,1,9,N","004000,1,N,1","+0043,1","+0039,1","09913,1",,,,"4,1,03,1","2,1,03,1",,,"08,99,1,07,1,07,1,00075,1,02,1,99,9",,,,,"99999,9,09307,1","6,1,011,1,+999,9","60,1",,,"SYN072AAXX  16094 08272 41140 80911 10043 20039 39307 49913 56011 76042 8772/;",
"08272099999","2010-02-16T12:00:00","4","39.8833333","-4.05","516.0","TOLEDO, SP","FM-12","99999","V020","080,1,N,0021,1","03600,1,9,N","002000,1,N,1","+0081,1","+0073,1","09899,1","06,0079,9,1",,,"6,1,06,1","2,1,06,1",,,"08,99,1,04,1,07,1,00250,1,02,1,99,9",,,,,"99999,9,09303,1","7,1,004,1,+999,9","52,1",,,"SYN078AAXX  16124 08272 11320 80804 10081 20073 39303 49899 57004 60081 75262 8472/;",
"08272099999","2010-02-16T15:00:00","4","39.8833333","-4.05","516.0","TOLEDO, SP","FM-12","99999","V020","300,1,N,0026,1","00210,1,9,N","010000,1,N,1","+0101,1","+0087,1","09886,1",,,,"5,1,03,1","4,1,03,1",,,"07,99,1,07,1,05,1,00250,1,03,1,00,1",,,,,"99999,9,09295,1","7,1,008,1,+999,9","02,1",,,"SYN072AAXX  16154 08272 41360 73005 10101 20087 39295 49886 57008 70254 87530;",
"08272099999","2010-02-16T18:00:00","4","39.8833333","-4.05","516.0","TOLEDO, SP","FM-12","99999","V020","020,1,N,0026,1","00600,1,9,N","004000,1,N,1","+0084,1","+0078,1","09888,1","12,0089,9,1",,,"5,1,06,1","4,1,06,1",,,"07,99,1,05,1,08,1,00250,1,07,1,00,1",,,,"999,M,+0105,1","99999,9,09293,1","7,1,002,1,+999,9","10,1",,,"SYN088AAXX  16184 08272 11340 70205 10084 20078 39293 49888 57002 60092 71054 85870 333 10105;",
"08272099999","2010-02-17T06:00:00","4","39.8833333","-4.05","516.0","TOLEDO, SP","FM-12","99999","V020","260,1,N,0062,1","03600,1,9,N","040000,1,N,1","+0089,1","+0055,1","09900,1","12,0010,9,1","24,0104,9,1",,,,,,"07,99,1,04,1,05,1,00450,1,07,1,00,1","0000,9","11,9","999,+0070,9","999,N,+0082,1","99999,9,09305,1","3,1,005,1,+999,9","02,1",,,"SYN112AAXX  17064 08272 11482 72612 10089 20055 39305 49900 53005 60012 702// 84570 333 20082 32007 50084 55000 70105;",
"08272099999","2010-02-17T09:00:00","4","39.8833333","-4.05","516.0","TOLEDO, SP","FM-12","99999","V020","260,1,N,0010,1","03600,1,9,N","035000,1,N,1","+0085,1","+0065,1","09924,1",,,,"6,1,03,1","2,1,03,1",,,"07,99,1,04,1,08,1,00250,1,07,1,00,1",,,,,"99999,9,09327,1","2,1,022,1,+999,9","02,1",,,"SYN072AAXX  17094 08272 41381 72602 10085 20065 39327 49924 52022 70262 84870;",
"08272099999","2010-02-17T12:00:00","4","39.8833333","-4.05","516.0","TOLEDO, SP","FM-12","99999","V020","240,1,N,0051,1","03600,1,9,N","045000,1,N,1","+0089,1","+0047,1","09940,1","06,0010,9,1",,,"6,1,06,1","2,1,06,1",,,"07,99,1,04,1,05,1,00450,1,07,1,03,1",,,,,"99999,9,09342,1","2,1,015,1,+999,9","21,1",,,"SYN078AAXX  17124 08272 11483 72410 10089 20047 39342 49940 52015 60011 72162 84573;",
"08272099999","2010-02-17T15:00:00","4","39.8833333","-4.05","516.0","TOLEDO, SP","FM-12","99999","V020","290,1,N,0057,1","00900,1,9,N","035000,1,N,1","+0095,1","+0071,1","09942,1",,,,"6,1,03,1","2,1,03,1",,,"07,99,1,07,1,08,1,00450,1,07,1,00,1",,,,,"99999,9,09346,1","3,1,004,1,+999,9","60,1",,,"SYN072AAXX  17154 08272 41481 72911 10095 20071 39346 49942 53004 76062 87870;",
"08272099999","2010-02-17T18:00:00","4","39.8833333","-4.05","516.0","TOLEDO, SP","FM-12","99999","V020","270,1,N,0062,1","00210,1,9,N","040000,1,N,1","+0089,1","+0060,1","09978,1","12,0020,9,1",,,"6,1,06,1","2,1,06,1",,,"07,99,1,06,1,05,1,00250,1,07,1,05,1",,,,"999,M,+0119,1","99999,9,09378,1","2,1,032,1,+999,9","02,1",,,"SYN088AAXX  17184 08272 11382 72712 10089 20060 39378 49978 52032 60022 70262 86575 333 10119;",
"08272099999","2010-02-18T06:00:00","4","39.8833333","-4.05","516.0","TOLEDO, SP","FM-12","99999","V020","100,1,N,0021,1","22000,1,9,N","040000,1,N,1","+0024,1","+0011,1","10043,1","12,0000,9,1","24,0025,9,1",,,,,,"03,99,1,03,1,00,1,01750,1,03,1,00,1","0138,9","09,9","999,-0010,9","999,N,+0022,1","99999,9,09425,1","4,1,000,1,+999,9","02,1",,,"SYN112AAXX  18064 08272 11782 31004 10024 20011 39425 40043 54000 60002 702// 83030 333 20022 31101 50124 55023 70025;","Q01  00002PRCP12"
"08272099999","2010-02-18T09:00:00","4","39.8833333","-4.05","516.0","TOLEDO, SP","FM-12","99999","V020","100,1,N,0031,1","09000,1,9,N","030000,1,N,1","+0040,1","+0024,1","10029,1",,,,,,,,"08,99,1,01,1,04,1,00250,1,00,1,07,1",,,,,"99999,9,09415,1","8,1,010,1,+999,9",,,,"SYN066AAXX  18094 08272 42380 81006 10040 20024 39415 40029 58010 81407;",
"08272099999","2010-02-18T12:00:00","4","39.8833333","-4.05","516.0","TOLEDO, SP","FM-12","99999","V020","110,1,N,0041,1","09000,1,9,N","030000,1,N,1","+0078,1","+0046,1","09999,1","06,0000,9,1",,,,,,,"08,99,1,04,1,04,1,00450,1,00,1,07,1",,,,,"99999,9,09395,1","8,1,020,1,+999,9",,,,"SYN072AAXX  18124 08272 12480 81108 10078 20046 39395 49999 58020 60001 84407;","Q01  00002PRCP06"
"08272099999","2010-02-18T15:00:00","4","39.8833333","-4.05","516.0","TOLEDO, SP","FM-12","99999","V020","030,1,N,0057,1","00420,1,9,N","030000,1,N,1","+0089,1","+0033,1","09974,1",,,,,,,,"08,99,1,07,1,05,1,00450,1,00,1,07,1",,,,,"99999,9,09374,1","7,1,021,1,+999,9",,,,"SYN066AAXX  18154 08272 42480 80311 10089 20033 39374 49974 57021 87507;",
"08272099999","2010-02-18T18:00:00","4","39.8833333","-4.05","516.0","TOLEDO, SP","FM-12","99999","V020","030,1,N,0041,1","03600,1,9,N","015000,1,N,1","+0075,1","+0034,1","09954,1","12,9999,9,9",,,"2,1,06,1","2,1,06,1",,,"08,99,1,01,1,05,1,00450,1,02,1,99,9",,,,"999,M,+0092,1","99999,9,09352,1","7,1,022,1,+999,9","60,1",,,"SYN088AAXX  18184 08272 11465 80308 10075 20034 39352 49954 57022 69902 76022 8152/ 333 10092;","Q01  00002PRCP12Q02  00002PRCP12"
"08272099999","2010-02-19T06:00:00","4","39.8833333","-4.05","516.0","TOLEDO, SP","FM-12","99999","V020","320,1,N,0036,1","01500,1,9,N","025000,1,N,1","+0053,1","+0027,1","09971,1","12,0005,9,1","24,0005,9,1",,,,,,"08,99,1,08,1,00,1,01750,1,07,1,99,9","0036,9","09,9","999,+0040,9","999,N,+0049,1","99999,9,09364,1","3,1,017,1,+999,9","02,1",,,"SYN112AAXX  19064 08272 11775 83207 10053 20027 39364 49971 53017 69952 702// 8807/ 333 20049 31004 50084 55006 70005;",
"08272099999","2010-02-19T09:00:00","4","39.8833333","-4.05","516.0","TOLEDO, SP","FM-12","99999","V020","300,1,N,0051,1","03600,1,9,N","010000,1,N,1","+0058,1","+0030,1","10006,1",,,,,,,,"07,99,1,01,1,06,1,00250,1,07,1,00,1",,,,,"99999,9,09398,1","2,1,034,1,+999,9",,,,"SYN066AAXX  19094 08272 42360 73010 10058 20030 39398 40006 52034 81670;",
"08272099999","2010-02-19T12:00:00","4","39.8833333","-4.05","516.0","TOLEDO, SP","FM-12","99999","V020","320,1,N,0077,1","03600,1,9,N","035000,1,N,1","+0087,1","+0004,1","10027,1","06,0000,9,1",,,,,,,"07,99,1,01,1,02,1,00450,1,07,1,00,1",,,,,"99999,9,09423,1","2,1,025,1,+999,9",,,,"SYN072AAXX  19124 08272 12481 73215 10087 20004 39423 40027 52025 60001 81270;","Q01  00002PRCP06"
"08272099999","2010-02-19T15:00:00","4","39.8833333","-4.05","516.0","TOLEDO, SP","FM-12","99999","V020","290,1,N,0031,1","00420,1,9,N","050000,1,N,1","+0072,1","+0023,1","10047,1",,,,"6,1,03,1","2,1,03,1",,,"06,99,1,06,1,02,1,00450,1,07,1,00,1",,,,,"99999,9,09439,1","2,1,016,1,+999,9","21,1",,,"SYN072AAXX  19154 08272 41484 62906 10072 20023 39439 40047 52016 72162 86270;",
"08272099999","2010-02-19T18:00:00","4","39.8833333","-4.05","516.0","TOLEDO, SP","FM-12","99999","V020","350,1,N,0036,1","03600,1,9,N","050000,1,N,1","+0068,1","-0002,1","10068,1","12,0008,9,1",,,"8,1,06,1","2,1,06,1","02,1,+00900,1,09,1",,"05,99,1,04,1,09,1,00800,1,07,1,00,1",,,,"120,M,+0100,1","99999,9,09458,1","3,1,019,1,+999,9","15,1",,,"SYN094AAXX  19184 08272 11584 53507 10068 21002 39458 40068 53019 69982 71582 84970 333 10100 82930;",
"08272099999","2010-02-22T06:00:00","4","39.8833333","-4.05","516.0","TOLEDO, SP","FM-12","99999","V020","190,1,N,0041,1","01500,1,9,N","020000,1,N,1","+0105,1","+0068,1","09994,1","12,0000,9,1","24,0051,9,1",,,,,,"08,99,1,08,1,00,1,01750,1,07,1,99,9","0036,9","09,9","999,+0040,9","999,N,+0066,1","99999,9,09397,1","6,1,018,1,+999,9","02,1",,,"SYN106AAXX  22064 08272 11770 81908 10105 20068 39397 49994 56018 69912 702// 8807/ 333 20066 31004 55006 70050;","Q01  00002PRCP12"
"08272099999","2010-02-22T09:00:00","4","39.8833333","-4.05","516.0","TOLEDO, SP","FM-12","99999","V020","290,1,N,0041,1","00750,1,9,N","030000,1,N,1","+0098,1","+0074,1","10001,1",,,,"6,1,03,1","2,1,03,1",,,"08,99,1,06,1,07,1,00800,1,07,1,99,9",,,,,"99999,9,09402,1","3,1,005,1,+999,9","21,1",,,"SYN072AAXX  22094 08272 41580 82908 10098 20074 39402 40001 53005 72162 8677/;",
"08272099999","2010-02-22T12:00:00","4","39.8833333","-4.05","516.0","TOLEDO, SP","FM-12","99999","V020","250,1,N,0113,1","22000,1,9,N","030000,1,N,1","+0142,1","+0061,1","10000,1","06,0010,9,1",,,"6,1,06,1","1,1,06,1",,,"04,99,1,04,1,02,1,00800,1,03,1,00,1",,,,,"99999,9,09410,1","1,1,008,1,+999,9","02,1",,,"SYN078AAXX  22124 08272 11580 42522 10142 20061 39410 40000 51008 60011 70261 84230;",
"08272099999","2010-02-22T15:00:00","4","39.8833333","-4.05","516.0","TOLEDO, SP","FM-12","99999","V020","250,1,N,0093,1","03600,1,9,N","030000,1,N,1","+0148,1","+0064,1","09999,1",,,,,,"01,1,+00480,1,09,1",,"05,99,1,03,1,09,1,00800,1,07,1,08,1",,,,,"99999,9,09410,1","5,1,000,1,+999,9",,,,"SYN076AAXX  22154 08272 42580 52518 10148 20064 39410 49999 55000 83978 333 81916;",
"08272099999","2010-02-22T18:00:00","4","39.8833333","-4.05","516.0","TOLEDO, SP","FM-12","99999","V020","280,1,N,0057,1","01800,1,9,N","030000,1,N,1","+0088,1","+0069,1","10030,1","12,0020,9,1",,,"8,1,06,1","2,1,06,1","01,1,+00480,1,09,1","04,1,+01800,1,03,1","06,99,1,03,1,09,1,00800,1,09,1,08,1",,,,"120,M,+0163,1","99999,9,09427,1","2,1,017,1,+999,9","25,1","4,99,0211,9,999",,"SYN112AAXX  22184 08272 11580 62811 10088 20069 39427 40030 52017 60022 72582 83998 333 10163 81916 84356 91141 91530;",
"08272099999","2010-02-23T06:00:00","4","39.8833333","-4.05","516.0","TOLEDO, SP","FM-12","99999","V020","270,1,N,0041,1","03600,1,9,N","020000,1,N,1","+0097,1","+0066,1","10047,1","12,0041,9,1","24,0056,9,1",,,,,,"06,99,1,04,1,05,1,00800,1,07,1,08,1","0282,9","09,9","999,+0050,9","999,N,+0075,1","99999,9,09445,1","3,1,001,1,+999,9","02,1",,,"SYN112AAXX  23064 08272 11570 62708 10097 20066 39445 40047 53001 60042 702// 84578 333 20075 31005 50214 55047 70055;",
"08272099999","2010-02-23T09:00:00","4","39.8833333","-4.05","516.0","TOLEDO, SP","FM-12","99999","V020","270,1,N,0062,1","00420,1,C,N","010000,1,N,1","+0118,1","+0067,1","10065,1",,,,"1,1,03,1","1,1,03,1","03,1,+00390,1,09,1",,"07,99,1,06,1,03,1,00450,1,06,1,01,1",,,,,"99999,9,09466,1","2,1,021,1,+999,9","80,1",,,"SYN088AAXX  23094 08272 41460 72712 10118 20067 39466 40065 52021 78011 86361 333 83913 83616;",
"08272099999","2010-02-23T12:00:00","4","39.8833333","-4.05","516.0","TOLEDO, SP","FM-12","99999","V020","250,1,N,0093,1","00750,1,9,N","030000,1,N,1","+0143,1","+0046,1","10066,1","06,0005,9,1",,,"8,1,06,1","2,1,06,1",,,"05,99,1,05,1,02,1,00800,1,00,1,02,1",,,,,"99999,9,09472,1","1,1,006,1,+999,9","02,1",,,"SYN078AAXX  23124 08272 11580 52518 10143 20046 39472 40066 51006 69951 70282 85202;",
"08272099999","2010-02-23T15:00:00","4","39.8833333","-4.05","516.0","TOLEDO, SP","FM-12","99999","V020","250,1,N,0093,1","00420,1,C,N","015000,1,N,1","+0135,1","+0054,1","10065,1",,,,"2,1,03,1","2,1,03,1","02,1,+00390,1,09,1",,"07,99,1,05,1,03,1,00450,1,07,1,08,1",,,,,"99999,9,09469,1","5,1,003,1,+999,9","80,1",,,"SYN088AAXX  23154 08272 41465 72518 10135 20054 39469 40065 55003 78022 85378 333 82913 83616;",
"08272099999","2010-02-23T18:00:00","4","39.8833333","-4.05","516.0","TOLEDO, SP","FM-12","99999","V020","260,1,N,0062,1","00420,1,C,N","008000,1,N,1","+0085,1","+0071,1","10091,1","12,0061,9,1",,,"8,1,06,1","2,1,06,1","03,1,+00390,1,09,1",,"07,99,1,06,1,09,1,00450,1,06,1,03,1",,,,"120,M,+0151,1","99999,9,09484,1","1,1,015,1,+999,9","81,1",,,"SYN100AAXX  23184 08272 11458 72612 10085 20071 39484 40091 51015 60062 78182 86963 333 10151 83913 83716;",
"08272099999","2010-02-24T06:00:00","4","39.8833333","-4.05","516.0","TOLEDO, SP","FM-12","99999","V020","270,1,N,0057,1","22000,1,9,N","020000,1,N,1","+0093,1","+0049,1","10123,1","12,0020,9,1","24,0074,9,1",,,,,,"03,99,1,02,1,05,1,00800,1,03,1,00,1","0354,9","09,9","999,+0050,9","999,N,+0079,1","99999,9,09515,1","3,1,013,1,+999,9","02,1",,,"SYN112AAXX  24064 08272 11570 32711 10093 20049 39515 40123 53013 60022 702// 82530 333 20079 31005 50204 55059 70073;",
"08272099999","2010-02-24T09:00:00","4","39.8833333","-4.05","516.0","TOLEDO, SP","FM-12","99999","V020","270,1,N,0051,1","22000,1,9,N","030000,1,N,1","+0105,1","+0044,1","10154,1",,,,,,,,"03,99,1,01,1,02,1,00800,1,03,1,01,1",,,,,"99999,9,09547,1","1,1,032,1,+999,9",,,,"SYN066AAXX  24094 08272 42580 32710 10105 20044 39547 40154 51032 81231;",
"08272099999","2010-02-24T12:00:00","4","39.8833333","-4.05","516.0","TOLEDO, SP","FM-12","99999","V020","260,1,N,0103,1","00750,1,9,N","020000,1,N,1","+0143,1","+0049,1","10150,1","06,0000,9,1",,,,,,,"06,99,1,06,1,05,1,00800,1,00,1,00,1",,,,,"99999,9,09551,1","1,1,004,1,+999,9",,,,"SYN072AAXX  24124 08272 12570 62620 10143 20049 39551 40150 51004 60001 86500;","Q01  00002PRCP06"
"08272099999","2010-02-24T15:00:00","4","39.8833333","-4.05","516.0","TOLEDO, SP","FM-12","99999","V020","250,1,N,0082,1","00750,1,9,N","018000,1,N,1","+0143,1","+0066,1","10138,1",,,,,,,,"07,99,1,07,1,02,1,00800,1,99,9,99,9",,,,,"99999,9,09540,1","6,1,011,1,+999,9",,,,"SYN066AAXX  24154 08272 42568 72516 10143 20066 39540 40138 56011 872//;",
"08272099999","2010-02-24T18:00:00","4","39.8833333","-4.05","516.0","TOLEDO, SP","FM-12","99999","V020","240,1,N,0051,1","03600,1,9,N","020000,1,N,1","+0137,1","+0061,1","10133,1","12,0000,9,1",,,,,,,"05,99,1,03,1,05,1,00800,1,07,1,06,1",,,,"999,M,+0163,1","99999,9,09534,1","6,1,006,1,+999,9",,,,"SYN082AAXX  24184 08272 12570 52410 10137 20061 39534 40133 56006 60002 83576 333 10163;","Q01  00002PRCP12"
"08272099999","2010-02-25T06:00:00","4","39.8833333","-4.05","516.0","TOLEDO, SP","FM-12","99999","V020","210,1,N,0062,1","03600,1,9,N","020000,1,N,1","+0116,1","+0065,1","10092,1","12,0000,9,1","24,0000,9,1",,,,,,"08,99,1,04,1,07,1,00800,1,07,1,07,1","0384,9","01,9","999,+0070,9","999,N,+0109,1","99999,9,09491,1","7,1,021,1,+999,9","02,1",,,"SYN112AAXX  25064 08272 11570 82112 10116 20065 39491 40092 57021 60002 702// 84777 333 20109 30007 50274 55064 70000;","Q01  00002PRCP24Q02  00002PRCP12"
"08272099999","2010-02-25T09:00:00","4","39.8833333","-4.05","516.0","TOLEDO, SP","FM-12","99999","V020","230,1,N,0072,1","00480,1,9,N","015000,1,N,1","+0127,1","+0080,1","10065,1",,,,"8,1,03,1","2,1,03,1","01,1,+00390,1,09,1","04,1,+00480,1,06,1","07,99,1,05,1,09,1,00450,1,07,1,08,1",,,,,"99999,9,09468,1","7,1,023,1,+999,9","80,1",,,"SYN094AAXX  25094 08272 41465 72314 10127 20080 39468 40065 57023 78082 85978 333 81913 84616 87258;",
"08272099999","2010-02-25T12:00:00","4","39.8833333","-4.05","516.0","TOLEDO, SP","FM-12","99999","V020","240,1,N,0093,1","03600,1,9,N","030000,1,N,1","+0154,1","+0082,1","10055,1","06,0000,2,1",,,"8,1,06,1","2,1,06,1",,,"08,99,1,04,1,05,1,00800,1,02,1,99,9",,,,,"99999,9,09464,1","8,1,004,1,+999,9","02,1",,,"SYN078AAXX  25124 08272 11580 82418 10154 20082 39464 40055 58004 69921 70282 8452/;",
"08272099999","2010-02-25T15:00:00","4","39.8833333","-4.05","516.0","TOLEDO, SP","FM-12","99999","V020","270,1,N,0072,1","00210,1,9,N","002000,1,N,1","+0111,1","+0105,1","10061,1",,,,"8,1,03,1","6,1,03,1",,,"07,99,1,07,1,07,1,00250,1,99,9,99,9",,,,,"99999,9,09461,1","5,1,003,1,+999,9","63,1",,,"SYN072AAXX  25154 08272 41320 72714 10111 20105 39461 40061 55003 76386 877//;",
"08272099999","2010-02-25T18:00:00","4","39.8833333","-4.05","516.0","TOLEDO, SP","FM-12","99999","V020","260,1,N,0057,1","03600,1,9,N","015000,1,N,1","+0115,1","+0087,1","10067,1","12,0089,9,1",,,"8,1,06,1","6,1,06,1",,,"08,99,1,04,1,07,1,00450,1,02,1,07,1",,,,"999,M,+0163,1","99999,9,09468,1","3,1,007,1,+999,9","60,1",,,"SYN088AAXX  25184 08272 11465 82611 10115 20087 39468 40067 53007 60092 76086 84727 333 10163;",
"08272099999","2010-02-26T06:00:00","4","39.8833333","-4.05","516.0","TOLEDO, SP","FM-12","99999","V020","300,1,N,0036,1","22000,1,9,N","020000,1,N,1","+0075,1","+0046,1","10135,1","12,0000,2,1","24,0094,9,1",,,,,,"04,99,1,02,1,05,1,00800,1,07,1,02,1","0102,9","09,9","999,+0050,9","999,N,+0075,1","99999,9,09523,1","3,1,016,1,+999,9","02,1",,,"SYN112AAXX  26064 08272 11570 43007 10075 20046 39523 40135 53016 69912 702// 82572 333 20075 31005 50194 55017 70095;",
"08272099999","2010-02-26T09:00:00","4","39.8833333","-4.05","516.0","TOLEDO, SP","FM-12","99999","V020","160,1,N,0005,1","02100,1,9,N","030000,1,N,1","+0080,1","+0048,1","10149,1",,,,,,,,"07,99,1,07,1,00,1,02250,1,07,1,08,1",,,,,"99999,9,09537,1","2,1,014,1,+999,9",,,,"SYN066AAXX  26094 08272 42880 71601 10080 20048 39537 40149 52014 87078;",
"08272099999","2010-02-26T12:00:00","4","39.8833333","-4.05","516.0","TOLEDO, SP","FM-12","99999","V020","280,1,N,0031,1","03600,1,9,N","030000,1,N,1","+0107,1","+0046,1","10150,1","06,0000,9,1",,,,,,,"08,99,1,03,1,08,1,00800,1,07,1,07,1",,,,,"99999,9,09543,1","0,1,006,1,+999,9",,,,"SYN072AAXX  26124 08272 12580 82806 10107 20046 39543 40150 50006 60001 83877;","Q01  00002PRCP06"
"08272099999","2010-02-26T15:00:00","4","39.8833333","-4.05","516.0","TOLEDO, SP","FM-12","99999","V020","270,1,N,0031,1","03600,1,9,N","040000,1,N,1","+0131,1","+0043,1","10127,1",,,,,,,,"07,99,1,03,1,08,1,00800,1,07,1,08,1",,,,,"99999,9,09527,1","6,1,016,1,+999,9",,,,"SYN066AAXX  26154 08272 42582 72706 10131 20043 39527 40127 56016 83878;",
"08272099999","2010-02-26T18:00:00","4","39.8833333","-4.05","516.0","TOLEDO, SP","FM-12","99999","V020","220,1,N,0010,1","03600,1,9,N","030000,1,N,1","+0115,1","+0052,1","10125,1","12,0000,9,1",,,,,,,"07,99,1,01,1,05,1,00800,1,07,1,08,1",,,,"999,M,+0135,1","99999,9,09522,1","6,1,005,1,+999,9",,,,"SYN082AAXX  26184 08272 12580 72202 10115 20052 39522 40125 56005 60002 81578 333 10135;","Q01  00002PRCP12"
"08272099999","2010-03-01T06:00:00","4","39.8833333","-4.05","516.0","TOLEDO, SP","FM-12","99999","V020","270,1,N,0077,1","22000,1,9,N","040000,1,N,1","+0066,1","+0030,1","10158,1","12,0020,9,1","24,0020,9,1",,,,,,"01,99,1,01,1,05,1,00450,1,00,1,00,1","0462,9","01,9","999,+0050,9","999,N,+0066,1","99999,9,09542,1","2,1,029,1,+999,9","02,1",,,"SYN106AAXX  01064 08272 11482 12715 10066 20030 39542 40158 52029 60022 702// 81500 333 20066 30005 55077 70020;",
"08272099999","2010-03-01T09:00:00","4","39.8833333","-4.05","516.0","TOLEDO, SP","FM-12","99999","V020","270,1,N,0051,1","22000,1,9,N","040000,1,N,1","+0087,1","+0025,1","10184,1",,,,,,,,"01,99,1,01,1,01,1,00450,1,03,1,00,1",,,,,"99999,9,09571,1","1,1,029,1,+999,9",,,,"SYN066AAXX  01094 08272 42482 12710 10087 20025 39571 40184 51029 81130;",
"08272099999","2010-03-01T12:00:00","4","39.8833333","-4.05","516.0","TOLEDO, SP","FM-12","99999","V020","290,1,N,0051,1","01200,1,9,N","040000,1,N,1","+0113,1","+0043,1","10190,1","06,0000,9,1",,,,,,,"07,99,1,07,1,08,1,00800,1,07,1,00,1",,,,,"99999,9,09582,1","0,1,011,1,+999,9",,,,"SYN072AAXX  01124 08272 12582 72910 10113 20043 39582 40190 50011 60001 87870;","Q01  00002PRCP06"
"08272099999","2010-03-01T15:00:00","4","39.8833333","-4.05","516.0","TOLEDO, SP","FM-12","99999","V020","250,1,N,0051,1","03600,1,9,N","040000,1,N,1","+0127,1","+0036,1","10188,1",,,,,,,,"07,99,1,04,1,08,1,00800,1,06,1,01,1",,,,,"99999,9,09583,1","3,1,001,1,+999,9",,,,"SYN066AAXX  01154 08272 42582 72510 10127 20036 39583 40188 53001 84861;",
"08272099999","2010-03-01T18:00:00","4","39.8833333","-4.05","516.0","TOLEDO, SP","FM-12","99999","V020","350,1,N,0026,1","03600,1,9,N","040000,1,N,1","+0105,1","+0063,1","10193,1","12,0000,9,1",,,,,,,"07,99,1,01,1,04,1,00800,1,03,1,08,1",,,,"999,M,+0142,1","99999,9,09584,1","3,1,001,1,+999,9",,,,"SYN082AAXX  01184 08272 12582 73505 10105 20063 39584 40193 53001 60002 81438 333 10142;","Q01  00002PRCP12"
"08272099999","2010-03-02T06:00:00","4","39.8833333","-4.05","516.0","TOLEDO, SP","FM-12","99999","V020","100,1,N,0026,1","09000,1,9,N","030000,1,N,1","+0044,1","+0024,1","10181,1","12,0000,9,1","24,0000,9,1",,,,,,"07,99,1,01,1,00,1,01750,1,03,1,08,1","0396,9","01,9","999,+0020,9","999,N,+0043,1","99999,9,09559,1","7,1,015,1,+999,9","02,1",,,"SYN112AAXX  02064 08272 11780 71005 10044 20024 39559 40181 57015 60002 702// 81038 333 20043 30002 50174 55066 70000;","Q01  00002PRCP24Q02  00002PRCP12"
"08272099999","2010-03-02T09:00:00","4","39.8833333","-4.05","516.0","TOLEDO, SP","FM-12","99999","V020","110,1,N,0036,1","09000,1,9,N","035000,1,N,1","+0060,1","+0030,1","10168,1",,,,,,,,"08,99,1,01,1,00,1,02250,1,03,1,07,1",,,,,"99999,9,09550,1","6,1,009,1,+999,9",,,,"SYN066AAXX  02094 08272 42881 81107 10060 20030 39550 40168 56009 81037;",
"08272099999","2010-03-02T12:00:00","4","39.8833333","-4.05","516.0","TOLEDO, SP","FM-12","99999","V020","120,1,N,0077,1","09000,1,9,N","035000,1,N,1","+0141,1","+0014,1","10126,1","06,0000,9,1",,,"2,1,06,1","2,1,06,1",,,"07,99,1,03,1,00,1,01750,1,08,1,08,1",,,,,"99999,9,09527,1","8,1,023,1,+999,9","14,1",,,"SYN078AAXX  02124 08272 11781 71215 10141 20014 39527 40126 58023 60001 71422 83088;","Q01  00002PRCP06"
"08272099999","2010-03-02T15:00:00","4","39.8833333","-4.05","516.0","TOLEDO, SP","FM-12","99999","V020","120,1,N,0093,1","09000,1,9,N","035000,1,N,1","+0141,1","-0004,1","10092,1",,,,,,,,"08,99,1,04,1,00,1,01750,1,06,1,07,1",,,,,"99999,9,09495,1","7,1,032,1,+999,9",,,,"SYN066AAXX  02154 08272 42781 81218 10141 21004 39495 40092 57032 84067;",
"08272099999","2010-03-02T18:00:00","4","39.8833333","-4.05","516.0","TOLEDO, SP","FM-12","99999","V020","120,1,N,0082,1","03600,1,9,N","040000,1,N,1","+0124,1","+0002,1","10084,1","12,0000,9,1",,,,,,,"08,99,1,01,1,04,1,00800,1,07,1,07,1",,,,"999,M,+0146,1","99999,9,09484,1","6,1,011,1,+999,9",,,,"SYN082AAXX  02184 08272 12582 81216 10124 20002 39484 40084 56011 60002 81477 333 10146;","Q01  00002PRCP12"
"08272099999","2010-03-03T06:00:00","4","39.8833333","-4.05","516.0","TOLEDO, SP","FM-12","99999","V020","190,1,N,0010,1","03600,1,9,N","005000,1,N,1","+0071,1","+0065,1","10067,1","12,0089,9,1","24,0091,9,1",,,,,,"08,99,1,03,1,05,1,00450,1,07,1,99,9","0108,9","11,9","999,+0060,9","999,N,+0068,1","99999,9,09458,1","2,1,004,1,+999,9","63,1",,,"SYN112AAXX  03064 08272 11450 81902 10071 20065 39458 40067 52004 60092 763// 8357/ 333 20068 32006 50284 55018 70091;",
"08272099999","2010-03-03T09:00:00","4","39.8833333","-4.05","516.0","TOLEDO, SP","FM-12","99999","V020","260,1,N,0031,1","00030,1,9,N","005000,1,N,1","+0077,1","+0073,1","10086,1",,,,"6,1,03,1","4,1,03,1",,,"07,99,1,05,1,07,1,00025,1,03,1,02,1",,,,,"99999,9,09477,1","3,1,019,1,+999,9","10,1",,,"SYN072AAXX  03094 08272 41050 72606 10077 20073 39477 40086 53019 71064 85732;",
"08272099999","2010-03-03T12:00:00","4","39.8833333","-4.05","516.0","TOLEDO, SP","FM-12","99999","V020","280,1,N,0051,1","00420,1,9,N","035000,1,N,1","+0131,1","+0075,1","10079,1","06,0008,9,1",,,"6,1,06,1","4,1,06,1",,,"06,99,1,05,1,02,1,00450,1,03,1,05,1",,,,,"99999,9,09482,1","1,1,005,1,+999,9","02,1",,,"SYN078AAXX  03124 08272 11481 62810 10131 20075 39482 40079 51005 69981 70264 85235;",
"08272099999","2010-03-03T15:00:00","4","39.8833333","-4.05","516.0","TOLEDO, SP","FM-12","99999","V020","270,1,N,0051,1","00420,1,9,N","035000,1,N,1","+0145,1","+0068,1","10065,1",,,,,,,,"06,99,1,06,1,02,1,00450,1,03,1,05,1",,,,,"99999,9,09471,1","7,1,011,1,+999,9",,,,"SYN066AAXX  03154 08272 42481 62710 10145 20068 39471 40065 57011 86235;",
"08272099999","2010-03-03T18:00:00","4","39.8833333","-4.05","516.0","TOLEDO, SP","FM-12","99999","V020","170,1,N,0010,1","03600,1,9,N","040000,1,N,1","+0120,1","+0083,1","10076,1","12,0010,9,1",,,"6,1,06,1","2,1,06,1","02,1,+00900,1,09,1",,"06,99,1,04,1,09,1,00800,1,07,1,05,1",,,,"120,M,+0147,1","99999,9,09477,1","3,1,006,1,+999,9","15,1",,,"SYN094AAXX  03184 08272 11582 61702 10120 20083 39477 40076 53006 60012 71562 84975 333 10147 82930;",
"08272099999","2010-03-04T06:00:00","4","39.8833333","-4.05","516.0","TOLEDO, SP","FM-12","99999","V020","300,1,N,0021,1","22000,1,9,N","001200,1,N,1","+0066,1","+0065,1","10138,1","12,0000,9,1","24,0010,9,1",,,,,,"03,99,1,01,1,06,1,00025,1,03,1,00,1","0318,9","09,9","999,+0040,9","999,N,+0066,1","99999,9,09524,1","2,1,012,1,+999,9","40,1",,,"SYN112AAXX  04064 08272 11012 33004 10066 20065 39524 40138 52012 69902 740// 81630 333 20066 31004 50104 55053 70010;","Q01  00002PRCP12"
"08272099999","2010-03-04T09:00:00","4","39.8833333","-4.05","516.0","TOLEDO, SP","FM-12","99999","V020","250,1,N,0015,1","00210,1,9,N","045000,1,N,1","+0085,1","+0077,1","10161,1",,,,"4,1,03,1","2,1,03,1",,,"07,99,1,07,1,05,1,00250,1,00,1,00,1",,,,,"99999,9,09550,1","3,1,026,1,+999,9","02,1",,,"SYN072AAXX  04094 08272 41383 72503 10085 20077 39550 40161 53026 70242 87500;",
"08272099999","2010-03-04T12:00:00","4","39.8833333","-4.05","516.0","TOLEDO, SP","FM-12","99999","V020","270,1,N,0046,1","00420,1,9,N","040000,1,N,1","+0132,1","+0074,1","10154,1","06,0000,9,1",,,,,,,"06,99,1,06,1,04,1,00450,1,00,1,02,1",,,,,"99999,9,09553,1","2,1,003,1,+999,9",,,,"SYN072AAXX  04124 08272 12482 62709 10132 20074 39553 40154 52003 60001 86402;","Q01  00002PRCP06"
"08272099999","2010-03-04T15:00:00","4","39.8833333","-4.05","516.0","TOLEDO, SP","FM-12","99999","V020","280,1,N,0051,1","03600,1,9,N","035000,1,N,1","+0155,1","+0078,1","10140,1",,,,,,,,"06,99,1,02,1,02,1,00800,1,03,1,05,1",,,,,"99999,9,09544,1","7,1,009,1,+999,9",,,,"SYN066AAXX  04154 08272 42581 62810 10155 20078 39544 40140 57009 82235;",
"08272099999","2010-03-04T18:00:00","4","39.8833333","-4.05","516.0","TOLEDO, SP","FM-12","99999","V020","310,1,N,0031,1","09000,1,9,N","040000,1,N,1","+0134,1","+0076,1","10144,1","12,0000,9,1",,,,,,,"06,99,1,02,1,02,1,00800,1,06,1,06,1",,,,"999,M,+0163,1","99999,9,09544,1","4,1,000,1,+999,9",,,,"SYN082AAXX  04184 08272 12582 63106 10134 20076 39544 40144 54000 60002 82266 333 10163;","Q01  00002PRCP12"
"08272099999","2010-03-05T06:00:00","4","39.8833333","-4.05","516.0","TOLEDO, SP","FM-12","99999","V020","070,1,N,0021,1","09000,1,9,N","030000,1,N,1","+0090,1","+0070,1","10149,1","12,0000,9,1","24,0000,9,1",,,,,,"08,99,1,04,1,00,1,01750,1,07,1,07,1","0450,9","01,9","999,+0060,9","999,N,+0087,1","99999,9,09539,1","6,1,001,1,+999,9","02,1",,,"SYN112AAXX  05064 08272 11780 80704 10090 20070 39539 40149 56001 60002 702// 84077 333 20087 30006 50134 55075 79999;","Q01  00002PRCP24Q02  00002PRCP12"
"08272099999","2010-03-05T09:00:00","4","39.8833333","-4.05","516.0","TOLEDO, SP","FM-12","99999","V020","080,1,N,0041,1","01500,1,9,N","005000,1,N,1","+0095,1","+0073,1","10150,1",,,,"2,1,03,1","2,1,03,1",,,"08,99,1,05,1,00,1,01750,1,03,1,07,1",,,,,"99999,9,09541,1","3,1,002,1,+999,9","10,1",,,"SYN072AAXX  05094 08272 41750 80808 10095 20073 39541 40150 53002 71022 85037;",
"08272099999","2010-03-05T12:00:00","4","39.8833333","-4.05","516.0","TOLEDO, SP","FM-12","99999","V020","070,1,N,0051,1","00420,1,9,N","007000,1,N,1","+0101,1","+0066,1","10147,1","06,9999,9,9",,,"2,1,06,1","2,1,06,1",,,"08,99,1,05,1,05,1,00450,1,02,1,99,9",,,,,"99999,9,09540,1","8,1,001,1,+999,9","60,1",,,"SYN078AAXX  05124 08272 11457 80710 10101 20066 39540 40147 58001 69901 76022 8552/;","Q01  00002PRCP06Q02  00002PRCP06"
"08272099999","2010-03-05T15:00:00","4","39.8833333","-4.05","516.0","TOLEDO, SP","FM-12","99999","V020","050,1,N,0046,1","03600,1,9,N","003000,1,N,1","+0085,1","+0073,1","10126,1",,,,"2,1,03,1","2,1,03,1",,,"08,99,1,04,1,07,1,00450,1,02,1,99,9",,,,,"99999,9,09517,1","6,1,023,1,+999,9","63,1",,,"SYN072AAXX  05154 08272 41430 80509 10085 20073 39517 40126 56023 76322 8472/;",
"08272099999","2010-03-05T18:00:00","4","39.8833333","-4.05","516.0","TOLEDO, SP","FM-12","99999","V020","080,1,N,0067,1","00210,1,9,N","003000,1,N,1","+0080,1","+0071,1","10125,1","12,0079,9,1",,,"4,1,06,1","2,1,06,1",,,"08,99,1,05,1,07,1,00250,1,02,1,99,9",,,,"999,M,+0108,1","99999,9,09515,1","8,1,002,1,+999,9","62,1",,,"SYN088AAXX  05184 08272 11330 80813 10080 20071 39515 40125 58002 60082 76242 8572/ 333 10108;",
"08272099999","2010-03-08T06:00:00","4","39.8833333","-4.05","516.0","TOLEDO, SP","FM-12","99999","V020","360,1,N,0057,1","00750,1,9,N","004000,1,N,1","+0009,1","-0021,1","10113,1","12,0061,9,1","24,0066,9,1",,,,,,"08,99,1,08,1,00,1,00800,1,02,1,99,9","0000,9","11,9","999,-0010,9","999,N,+0009,1","99999,9,09487,1","3,1,006,1,+999,9","71,1",,,"SYN106AAXX  08064 08272 11540 83611 10009 21021 39487 40113 53006 60062 771// 8802/ 333 20009 32101 55000 70066;",
"08272099999","2010-03-08T09:00:00","4","39.8833333","-4.05","516.0","TOLEDO, SP","FM-12","99999","V020","360,1,N,0046,1","01200,1,9,N","016000,1,N,1","+0023,1","-0042,1","10130,1",,,,"7,1,03,1","2,1,03,1",,,"06,99,1,06,1,05,1,01250,1,99,9,99,9",,,,,"99999,9,09506,1","1,1,019,1,+999,9","02,1",,,"SYN072AAXX  08094 08272 41666 63609 10023 21042 39506 40130 51019 70272 865//;",
"08272099999","2010-03-08T12:00:00","4","39.8833333","-4.05","516.0","TOLEDO, SP","FM-12","99999","V020","010,1,N,0041,1","22000,1,9,N","030000,1,N,1","+0056,1","-0051,1","10117,1","06,0000,2,1",,,"7,1,06,1","2,1,06,1",,,"03,99,1,01,1,01,1,00800,1,03,1,02,1",,,,,"99999,9,09501,1","8,1,005,1,+999,9","01,1",,,"SYN078AAXX  08124 08272 11580 30108 10056 21051 39501 40117 58005 69911 70172 81132;",
"08272099999","2010-03-08T15:00:00","4","39.8833333","-4.05","516.0","TOLEDO, SP","FM-12","99999","V020","350,1,N,0067,1","09000,1,9,N","030000,1,N,1","+0060,1","-0079,1","10099,1",,,,,,,,"06,99,1,01,1,02,1,00800,1,03,1,06,1",,,,,"99999,9,09484,1","7,1,017,1,+999,9",,,,"SYN066AAXX  08154 08272 42580 63513 10060 21079 39484 40099 57017 81236;",
"08272099999","2010-03-08T18:00:00","4","39.8833333","-4.05","516.0","TOLEDO, SP","FM-12","99999","V020","010,1,N,0051,1","03600,1,9,N","030000,1,N,1","+0042,1","-0088,1","10092,1","12,0000,2,1",,,,,,,"07,99,1,01,1,01,1,00800,1,03,1,08,1",,,,"999,M,+0065,1","99999,9,09474,1","6,1,010,1,+999,9",,,,"SYN082AAXX  08184 08272 12580 70110 10042 21088 39474 40092 56010 60002 81138 333 10065;",
"08272099999","2010-03-09T06:00:00","4","39.8833333","-4.05","516.0","TOLEDO, SP","FM-12","99999","V020","360,1,N,0036,1","22000,1,9,N","020000,1,N,1","-0013,1","-0062,1","10116,1","12,0000,9,1","24,0000,2,1",,,,"00,1,+99999,9,99,9",,"00,99,1,00,1,00,1,99999,9,00,1,00,1","0414,9","01,9","999,-0060,9","999,N,-0016,1","99999,9,09485,1","3,1,017,1,+999,9","00,1",,,"SYN106AAXX  09064 08272 11970 03607 11013 21062 39485 40116 53017 60002 700// 333 21016 30106 50234 55069 70001;","Q01  00002PRCP12"
"08272099999","2010-03-09T09:00:00","4","39.8833333","-4.05","516.0","TOLEDO, SP","FM-12","99999","V020","360,1,N,0021,1","22000,1,9,N","030000,1,N,1","+0031,1","-0068,1","10126,1",,,,,,"00,1,+99999,9,99,9",,"00,99,1,00,1,00,1,99999,9,00,1,00,1",,,,,"99999,9,09504,1","2,1,019,1,+999,9",,,,"SYN060AAXX  09094 08272 42980 03604 10031 21068 39504 40126 52019;",
"08272099999","2010-03-09T12:00:00","4","39.8833333","-4.05","516.0","TOLEDO, SP","FM-12","99999","V020","330,1,N,0057,1","22000,1,9,N","030000,1,N,1","+0077,1","-0071,1","10120,1","06,0000,9,1",,,,,"00,1,+99999,9,99,9",,"00,99,1,00,1,00,1,99999,9,00,1,00,1",,,,,"99999,9,09508,1","1,1,004,1,+999,9",,,,"SYN066AAXX  09124 08272 12980 03311 10077 21071 39508 40120 51004 60001;","Q01  00002PRCP06"
"08272099999","2010-03-09T15:00:00","4","39.8833333","-4.05","516.0","TOLEDO, SP","FM-12","99999","V020","330,1,N,0093,1","22000,1,9,N","040000,1,N,1","+0100,1","-0076,1","10113,1",,,,,,"00,1,+99999,9,99,9",,"00,99,1,00,1,00,1,99999,9,00,1,00,1",,,,,"99999,9,09506,1","7,1,002,1,+999,9",,,,"SYN060AAXX  09154 08272 42982 03318 10100 21076 39506 40113 57002;",
"08272099999","2010-03-09T18:00:00","4","39.8833333","-4.05","516.0","TOLEDO, SP","FM-12","99999","V020","330,1,N,0072,1","22000,1,9,N","040000,1,N,1","+0081,1","-0072,1","10123,1","12,0000,9,1",,,,,"00,1,+99999,9,99,9",,"00,99,1,00,1,00,1,99999,9,00,1,00,1",,,,"999,M,+0104,1","99999,9,09511,1","3,1,005,1,+999,9",,,,"SYN076AAXX  09184 08272 12982 03314 10081 21072 39511 40123 53005 60002 333 10104;","Q01  00002PRCP12"
"08272099999","2010-03-10T06:00:00","4","39.8833333","-4.05","516.0","TOLEDO, SP","FM-12","99999","V020","130,1,N,0026,1","22000,1,9,N","020000,1,N,1","-0012,1","-0065,1","10177,1","12,0000,9,1","24,0000,9,1",,,,"00,1,+99999,9,99,9",,"00,99,1,00,1,00,1,99999,9,00,1,00,1","0630,9","01,9","999,-0060,9","999,N,-0016,1","99999,9,09542,1","3,1,006,1,+999,9","00,1",,,"SYN106AAXX  10064 08272 11970 01305 11012 21065 39542 40177 53006 60002 700// 333 21016 30106 50334 55105 70000;","Q01  00002PRCP24Q02  00002PRCP12"
"08272099999","2010-03-10T09:00:00","4","39.8833333","-4.05","516.0","TOLEDO, SP","FM-12","99999","V020","250,1,N,0026,1","22000,1,9,N","040000,1,N,1","+0023,1","-0073,1","10171,1",,,,,,,,"01,99,1,00,1,00,1,99999,9,00,1,01,1",,,,,"99999,9,09544,1","0,1,002,1,+999,9",,,,"SYN066AAXX  10094 08272 42982 12505 10023 21073 39544 40171 50002 80001;",
"08272099999","2010-03-10T12:00:00","4","39.8833333","-4.05","516.0","TOLEDO, SP","FM-12","99999","V020","330,1,N,0051,1","22000,1,9,N","040000,1,N,1","+0083,1","-0078,1","10144,1","06,0000,9,1",,,,,,,"01,99,1,00,1,00,1,99999,9,00,1,01,1",,,,,"99999,9,09532,1","8,1,012,1,+999,9",,,,"SYN072AAXX  10124 08272 12982 13310 10083 21078 39532 40144 58012 60001 80001;","Q01  00002PRCP06"
"08272099999","2010-03-10T15:00:00","4","39.8833333","-4.05","516.0","TOLEDO, SP","FM-12","99999","V020","330,1,N,0067,1","22000,1,9,N","030000,1,N,1","+0099,1","-0064,1","10129,1",,,,,,,,"01,99,1,01,1,01,1,01250,1,00,1,01,1",,,,,"99999,9,09521,1","6,1,011,1,+999,9",,,,"SYN066AAXX  10154 08272 42680 13313 10099 21064 39521 40129 56011 81101;",
"08272099999","2010-03-10T18:00:00","4","39.8833333","-4.05","516.0","TOLEDO, SP","FM-12","99999","V020","360,1,N,0041,1","22000,1,9,N","030000,1,N,1","+0069,1","-0061,1","10143,1","12,0000,9,1",,,,,,,"01,99,1,00,1,00,1,99999,9,00,1,02,1",,,,"999,M,+0106,1","99999,9,09528,1","2,1,007,1,+999,9",,,,"SYN082AAXX  10184 08272 12980 13608 10069 21061 39528 40143 52007 60002 80002 333 10106;","Q01  00002PRCP12"
"08272099999","2010-03-11T06:00:00","4","39.8833333","-4.05","516.0","TOLEDO, SP","FM-12","99999","V020","130,1,N,0010,1","22000,1,9,N","018000,1,N,1","-0011,1","-0050,1","10173,1","12,0000,9,1","24,0000,9,1",,,,,,"03,99,1,01,1,00,1,02250,1,03,1,02,1","0612,9","01,9","999,-0060,9","999,N,-0012,1","99999,9,09539,1","3,1,002,1,+999,9","02,1",,,"SYN112AAXX  11064 08272 11868 31302 11011 21050 39539 40173 53002 60002 702// 81032 333 21012 30106 50274 55102 70000;","Q01  00002PRCP24Q02  00002PRCP12"
"08272099999","2010-03-11T09:00:00","4","39.8833333","-4.05","516.0","TOLEDO, SP","FM-12","99999","V020","120,1,N,0021,1","22000,1,9,N","015000,1,N,1","+0032,1","-0038,1","10177,1",,,,,,"00,1,+99999,9,99,9",,"00,99,1,00,1,00,1,99999,9,00,1,00,1",,,,,"99999,9,09552,1","3,1,013,1,+999,9",,,,"SYN060AAXX  11094 08272 42965 01204 10032 21038 39552 40177 53013;",
"08272099999","2010-03-11T12:00:00","4","39.8833333","-4.05","516.0","TOLEDO, SP","FM-12","99999","V020","330,1,N,0021,1","22000,1,9,N","020000,1,N,1","+0073,1","-0047,1","10157,1","06,0000,9,1",,,,,,,"02,99,1,00,1,00,1,99999,9,00,1,01,1",,,,,"99999,9,09542,1","8,1,010,1,+999,9",,,,"SYN072AAXX  11124 08272 12970 23304 10073 21047 39542 40157 58010 60001 80001;","Q01  00002PRCP06"
"08272099999","2010-03-11T15:00:00","4","39.8833333","-4.05","516.0","TOLEDO, SP","FM-12","99999","V020","070,1,N,0026,1","22000,1,9,N","018000,1,N,1","+0095,1","-0041,1","10132,1",,,,,,,,"04,99,1,01,1,00,1,02250,1,03,1,02,1",,,,,"99999,9,09523,1","7,1,019,1,+999,9",,,,"SYN066AAXX  11154 08272 42868 40705 10095 21041 39523 40132 57019 81032;",
"08272099999","2010-03-11T18:00:00","4","39.8833333","-4.05","516.0","TOLEDO, SP","FM-12","99999","V020","100,1,N,0026,1","22000,1,9,N","018000,1,N,1","+0078,1","-0028,1","10137,1","12,0000,9,1",,,,,,,"01,99,1,01,1,00,1,02250,1,03,1,01,1",,,,"999,M,+0105,1","99999,9,09524,1","3,1,001,1,+999,9",,,,"SYN082AAXX  11184 08272 12868 11005 10078 21028 39524 40137 53001 60002 81031 333 10105;","Q01  00002PRCP12"
"08272099999","2010-03-12T06:00:00","4","39.8833333","-4.05","516.0","TOLEDO, SP","FM-12","99999","V020","360,1,N,0026,1","01500,1,9,N","012000,1,N,1","+0026,1","-0021,1","10182,1","12,0000,9,1","24,0000,9,1",,,,,,"07,99,1,07,1,00,1,01750,1,07,1,99,9","0612,9","01,9","999,-0010,9","999,N,+0020,1","99999,9,09555,1","3,1,006,1,+999,9","02,1",,,"SYN112AAXX  12064 08272 11762 73605 10026 21021 39555 40182 53006 60002 702// 8707/ 333 20020 30101 50184 55102 70000;","Q01  00002PRCP24Q02  00002PRCP12"
"08272099999","2010-03-12T09:00:00","4","39.8833333","-4.05","516.0","TOLEDO, SP","FM-12","99999","V020","280,1,N,0010,1","00750,1,9,N","014000,1,N,1","+0041,1","-0013,1","10199,1",,,,,,,,"08,99,1,06,1,07,1,00800,1,07,1,99,9",,,,,"99999,9,09575,1","2,1,020,1,+999,9",,,,"SYN066AAXX  12094 08272 42564 82802 10041 21013 39575 40199 52020 8677/;",
"08272099999","2010-03-12T12:00:00","4","39.8833333","-4.05","516.0","TOLEDO, SP","FM-12","99999","V020","260,1,N,0021,1","03600,1,9,N","020000,1,N,1","+0062,1","-0024,1","10198,1","06,0000,9,1",,,,,,,"08,99,1,04,1,05,1,00800,1,07,1,99,9",,,,,"99999,9,09578,1","0,1,003,1,+999,9",,,,"SYN072AAXX  12124 08272 12570 82604 10062 21024 39578 40198 50003 60001 8457/;","Q01  00002PRCP06"
"08272099999","2010-03-12T15:00:00","4","39.8833333","-4.05","516.0","TOLEDO, SP","FM-12","99999","V020","340,1,N,0051,1","03600,1,9,N","012000,1,N,1","+0065,1","-0029,1","10198,1",,,,,,,,"08,99,1,04,1,07,1,00800,1,07,1,99,9",,,,,"99999,9,09579,1","3,1,001,1,+999,9",,,,"SYN066AAXX  12154 08272 42562 83410 10065 21029 39579 40198 53001 8477/;",
"08272099999","2010-03-12T18:00:00","4","39.8833333","-4.05","516.0","TOLEDO, SP","FM-12","99999","V020","360,1,N,0041,1","01500,1,9,N","010000,1,N,1","+0054,1","-0029,1","10213,1","12,0000,9,1",,,,,,,"07,99,1,07,1,00,1,01750,1,07,1,99,9",,,,"999,M,+0071,1","99999,9,09591,1","2,1,012,1,+999,9",,,,"SYN082AAXX  12184 08272 12760 73608 10054 21029 39591 40213 52012 60002 8707/ 333 10071;","Q01  00002PRCP12"
"08272099999","2010-03-15T06:00:00","4","39.8833333","-4.05","516.0","TOLEDO, SP","FM-12","99999","V020","110,1,N,0026,1","22000,1,9,N","035000,1,N,1","+0006,1","-0019,1","10284,1","12,0000,9,1","24,0000,9,1",,,,"00,1,+99999,9,99,9",,"00,99,1,00,1,00,1,99999,9,00,1,00,1","0642,9","01,9","999,-0030,9","999,N,+0006,1","99999,9,09647,1","6,1,003,1,+999,9","00,1",,,"SYN100AAXX  15064 08272 11981 01105 10006 21019 39647 40284 56003 60002 700// 333 20006 30103 55107 70000;","Q01  00002PRCP24Q02  00002PRCP12"
"08272099999","2010-03-15T09:00:00","4","39.8833333","-4.05","516.0","TOLEDO, SP","FM-12","99999","V020","130,1,N,0021,1","22000,1,9,N","015000,1,N,1","+0065,1","-0032,1","10283,1",,,,,,,,"01,99,1,00,1,00,1,99999,9,00,1,01,1",,,,,"99999,9,09659,1","3,1,012,1,+999,9",,,,"SYN066AAXX  15094 08272 42965 11304 10065 21032 39659 40283 53012 80001;",
"08272099999","2010-03-15T12:00:00","4","39.8833333","-4.05","516.0","TOLEDO, SP","FM-12","99999","V020","120,1,N,0026,1","22000,1,9,N","030000,1,N,1","+0126,1","-0032,1","10262,1","06,0000,9,1",,,,,,,"01,99,1,00,1,00,1,99999,9,00,1,01,1",,,,,"99999,9,09652,1","8,1,007,1,+999,9",,,,"SYN072AAXX  15124 08272 12980 11205 10126 21032 39652 40262 58007 60001 80001;","Q01  00002PRCP06"
"08272099999","2010-03-15T15:00:00","4","39.8833333","-4.05","516.0","TOLEDO, SP","FM-12","99999","V020","130,1,N,0021,1","22000,1,9,N","030000,1,N,1","+0161,1","-0056,1","10228,1",,,,,,,,"02,99,1,00,1,00,1,99999,9,00,1,08,1",,,,,"99999,9,09627,1","7,1,025,1,+999,9",,,,"SYN066AAXX  15154 08272 42980 21304 10161 21056 39627 40228 57025 80008;",
"08272099999","2010-03-15T18:00:00","4","39.8833333","-4.05","516.0","TOLEDO, SP","FM-12","99999","V020","110,1,N,0015,1","22000,1,9,N","035000,1,N,1","+0144,1","-0039,1","10228,1","12,0000,9,1",,,,,,,"04,99,1,00,1,00,1,99999,9,00,1,08,1",,,,"999,M,+0167,1","99999,9,09623,1","6,1,004,1,+999,9",,,,"SYN082AAXX  15184 08272 12981 41103 10144 21039 39623 40228 56004 60002 80008 333 10167;","Q01  00002PRCP12"
"08272099999","2010-03-16T06:00:00","4","39.8833333","-4.05","516.0","TOLEDO, SP","FM-12","99999","V020","120,1,N,0015,1","22000,1,9,N","035000,1,N,1","+0007,1","-0038,1","10268,1","12,0000,9,1","24,0000,9,1",,,,,,"02,99,1,00,1,00,1,99999,9,00,1,01,1","0606,9","01,9","999,-0040,9","999,N,+0004,1","99999,9,09632,1","3,1,004,1,+999,9","02,1",,,"SYN112AAXX  16064 08272 11981 21203 10007 21038 39632 40268 53004 60002 702// 80001 333 20004 30104 50264 55101 70000;","Q01  00002PRCP24Q02  00002PRCP12"
"08272099999","2010-03-16T09:00:00","4","39.8833333","-4.05","516.0","TOLEDO, SP","FM-12","99999","V020","130,1,N,0031,1","22000,1,9,N","015000,1,N,1","+0069,1","-0025,1","10263,1",,,,,,,,"02,99,1,00,1,00,1,99999,9,00,1,01,1",,,,,"99999,9,09641,1","3,1,009,1,+999,9",,,,"SYN066AAXX  16094 08272 42965 21306 10069 21025 39641 40263 53009 80001;",
"08272099999","2010-03-16T12:00:00","4","39.8833333","-4.05","516.0","TOLEDO, SP","FM-12","99999","V020","090,1,N,0046,1","99999,9,9,N","030000,1,N,1","+0157,1","-0027,1","10232,1","06,0000,9,1",,,,,,,"05,99,1,00,1,00,1,99999,9,00,1,05,1",,,,,"99999,9,09630,1","8,1,011,1,+999,9",,,,"SYN072AAXX  16124 08272 12980 50909 10157 21027 39630 40232 58011 60001 80005;","Q01  00002PRCP06"
"08272099999","2010-03-16T15:00:00","4","39.8833333","-4.05","516.0","TOLEDO, SP","FM-12","99999","V020","110,1,N,0036,1","99999,9,9,N","030000,1,N,1","+0186,1","-0062,1","10214,1",,,,,,,,"06,99,1,00,1,00,1,99999,9,00,1,08,1",,,,,"99999,9,09618,1","7,1,012,1,+999,9",,,,"SYN066AAXX  16154 08272 42980 61107 10186 21062 39618 40214 57012 80008;",
"08272099999","2010-03-16T18:00:00","4","39.8833333","-4.05","516.0","TOLEDO, SP","FM-12","99999","V020","070,1,N,0036,1","99999,9,9,N","040000,1,N,1","+0161,1","-0044,1","10219,1","12,0000,9,1",,,,,,,"07,99,1,00,1,00,1,99999,9,00,1,02,1",,,,"999,M,+0194,1","99999,9,09618,1","5,1,000,1,+999,9",,,,"SYN082AAXX  16184 08272 12982 70707 10161 21044 39618 40219 55000 60002 80002 333 10194;","Q01  00002PRCP12"
"08272099999","2010-03-17T06:00:00","4","39.8833333","-4.05","516.0","TOLEDO, SP","FM-12","99999","V020","090,1,N,0031,1","22000,1,9,N","030000,1,N,1","+0047,1","-0009,1","10282,1","12,0000,9,1","24,0000,9,1",,,,"00,1,+99999,9,99,9",,"00,99,1,00,1,00,1,99999,9,00,1,00,1","0528,9","01,9","999,+0020,9","999,N,+0046,1","99999,9,09654,1","3,1,012,1,+999,9","00,1",,,"SYN106AAXX  17064 08272 11980 00906 10047 21009 39654 40282 53012 60002 700// 333 20046 30002 50474 55088 70000;","Q01  00002PRCP24Q02  00002PRCP12"
"08272099999","2010-03-17T09:00:00","4","39.8833333","-4.05","516.0","TOLEDO, SP","FM-12","99999","V020","100,1,N,0046,1","22000,1,9,N","030000,1,N,1","+0094,1","-0005,1","10279,1",,,,,,,,"01,99,1,00,1,00,1,99999,9,00,1,01,1",,,,,"99999,9,09661,1","3,1,007,1,+999,9",,,,"SYN066AAXX  17094 08272 42980 11009 10094 21005 39661 40279 53007 80001;",
"08272099999","2010-03-17T12:00:00","4","39.8833333","-4.05","516.0","TOLEDO, SP","FM-12","99999","V020","100,1,N,0041,1","22000,1,9,N","030000,1,N,1","+0162,1","-0018,1","10258,1","06,0000,9,1",,,,,,,"03,99,1,00,1,00,1,99999,9,00,1,08,1",,,,,"99999,9,09655,1","8,1,006,1,+999,9",,,,"SYN072AAXX  17124 08272 12980 31008 10162 21018 39655 40258 58006 60001 80008;","Q01  00002PRCP06"
"08272099999","2010-03-17T15:00:00","4","39.8833333","-4.05","516.0","TOLEDO, SP","FM-12","99999","V020","080,1,N,0036,1","22000,1,9,N","035000,1,N,1","+0203,1","-0027,1","10227,1",,,,,,,,"04,99,1,00,1,00,1,99999,9,00,1,01,1",,,,,"99999,9,09634,1","7,1,021,1,+999,9",,,,"SYN066AAXX  17154 08272 42981 40807 10203 21027 39634 40227 57021 80001;",
"08272099999","2010-03-17T18:00:00","4","39.8833333","-4.05","516.0","TOLEDO, SP","FM-12","99999","V020","110,1,N,0036,1","99999,9,9,N","040000,1,N,1","+0185,1","-0036,1","10228,1","12,0000,9,1",,,,,,,"06,99,1,00,1,00,1,99999,9,00,1,08,1",,,,"999,M,+0206,1","99999,9,09632,1","5,1,002,1,+999,9",,,,"SYN082AAXX  17184 08272 12982 61107 10185 21036 39632 40228 55002 60002 80008 333 10206;","Q01  00002PRCP12"
"08272099999","2010-03-18T06:00:00","4","39.8833333","-4.05","516.0","TOLEDO, SP","FM-12","99999","V020","090,1,N,0046,1","09000,1,9,N","035000,1,N,1","+0078,1","+0016,1","10257,1","12,0000,9,1","24,0000,9,1",,,,,,"08,99,1,04,1,00,1,01750,1,08,1,07,1","0606,9","01,9","999,+0060,9","999,N,+0077,1","99999,9,09637,1","5,1,000,1,+999,9","02,1",,,"SYN112AAXX  18064 08272 11781 80909 10078 20016 39637 40257 55000 60002 702// 84087 333 20077 30006 50454 55101 70000;","Q01  00002PRCP24Q02  00002PRCP12"
"08272099999","2010-03-18T09:00:00","4","39.8833333","-4.05","516.0","TOLEDO, SP","FM-12","99999","V020","100,1,N,0026,1","01500,1,9,N","020000,1,N,1","+0087,1","+0035,1","10274,1",,,,"2,1,03,1","2,1,03,1",,,"08,99,1,08,1,00,1,01750,1,07,1,99,9",,,,,"99999,9,09656,1","3,1,019,1,+999,9","60,1",,,"SYN072AAXX  18094 08272 41770 81005 10087 20035 39656 40274 53019 76022 8807/;",
"08272099999","2010-03-18T12:00:00","4","39.8833333","-4.05","516.0","TOLEDO, SP","FM-12","99999","V020","110,1,N,0026,1","09000,1,9,N","020000,1,N,1","+0158,1","+0076,1","10247,1","06,0000,2,1",,,"6,1,06,1","2,1,06,1",,,"07,99,1,04,1,00,1,01750,1,03,1,08,1",,,,,"99999,9,09645,1","8,1,011,1,+999,9","02,1",,,"SYN078AAXX  18124 08272 11770 71105 10158 20076 39645 40247 58011 69911 70262 84038;",
"08272099999","2010-03-18T15:00:00","4","39.8833333","-4.05","516.0","TOLEDO, SP","FM-12","99999","V020","360,1,N,0031,1","22000,1,9,N","030000,1,N,1","+0202,1","+0076,1","10219,1",,,,,,,,"03,99,1,01,1,01,1,00800,1,08,1,08,1",,,,,"99999,9,09628,1","6,1,017,1,+999,9",,,,"SYN066AAXX  18154 08272 42580 33606 10202 20076 39628 40219 56017 81188;",
"08272099999","2010-03-18T18:00:00","4","39.8833333","-4.05","516.0","TOLEDO, SP","FM-12","99999","V020","010,1,N,0026,1","22000,1,9,N","030000,1,N,1","+0170,1","+0068,1","10226,1","12,0000,2,1",,,,,,,"04,99,1,01,1,00,1,01750,1,08,1,08,1",,,,"999,M,+0209,1","99999,9,09628,1","5,1,000,1,+999,9",,,,"SYN082AAXX  18184 08272 12780 40105 10170 20068 39628 40226 55000 69912 81088 333 10209;",
"08272099999","2010-03-19T06:00:00","4","39.8833333","-4.05","516.0","TOLEDO, SP","FM-12","99999","V020","210,1,N,0010,1","09000,1,9,N","030000,1,N,1","+0117,1","+0082,1","10237,1","12,0000,9,1","24,0000,2,1",,,,,,"07,99,1,04,1,05,1,00800,1,00,1,08,1","0294,9","01,9","999,+0070,9","999,N,+0111,1","99999,9,09628,1","7,1,006,1,+999,9","02,1",,,"SYN112AAXX  19064 08272 11580 72102 10117 20082 39628 40237 57006 60002 702// 84508 333 20111 30007 50244 55049 70001;","Q01  00002PRCP12"
"08272099999","2010-03-19T09:00:00","4","39.8833333","-4.05","516.0","TOLEDO, SP","FM-12","99999","V020","220,1,N,0021,1","01500,1,9,N","030000,1,N,1","+0151,1","+0101,1","10236,1",,,,"2,1,03,1","2,1,03,1",,,"08,99,1,07,1,00,1,01750,1,02,1,08,1",,,,,"99999,9,09634,1","1,1,006,1,+999,9","60,1",,,"SYN072AAXX  19094 08272 41780 82204 10151 20101 39634 40236 51006 76022 87028;",
"08272099999","2010-03-19T12:00:00","4","39.8833333","-4.05","516.0","TOLEDO, SP","FM-12","99999","V020","270,1,N,0046,1","03600,1,9,N","030000,1,N,1","+0164,1","+0109,1","10239,1","06,0000,2,1",,,"6,1,06,1","2,1,06,1",,,"08,99,1,04,1,05,1,00800,1,07,1,99,9",,,,,"99999,9,09640,1","1,1,006,1,+999,9","02,1",,,"SYN078AAXX  19124 08272 11580 82709 10164 20109 39640 40239 51006 69921 70262 8457/;",
"08272099999","2010-03-19T15:00:00","4","39.8833333","-4.05","516.0","TOLEDO, SP","FM-12","99999","V020","170,1,N,0015,1","03600,1,9,N","020000,1,N,1","+0192,1","+0102,1","10211,1",,,,,,,,"07,99,1,01,1,01,1,00800,1,03,1,08,1",,,,,"99999,9,09619,1","8,1,021,1,+999,9",,,,"SYN066AAXX  19154 08272 42570 71703 10192 20102 39619 40211 58021 81138;",
"08272099999","2010-03-22T06:00:00","4","39.8833333","-4.05","516.0","TOLEDO, SP","FM-12","99999","V020","340,1,N,0021,1","22000,1,9,N","001500,1,N,1","+0088,1","+0071,1","10215,1","12,0000,9,1","24,0005,9,1",,,,,,"01,99,1,01,1,00,1,02250,1,03,1,00,1","0000,9","01,9","999,+0050,9","999,N,+0087,1","99999,9,09601,1","3,1,001,1,+999,9","11,1",,,"SYN106AAXX  22064 08272 11815 13404 10088 20071 39601 40215 53001 69922 711// 81030 333 20087 30005 55000 70004;","Q01  00002PRCP12"
"08272099999","2010-03-22T09:00:00","4","39.8833333","-4.05","516.0","TOLEDO, SP","FM-12","99999","V020","300,1,N,0041,1","22000,1,9,N","010000,1,N,1","+0131,1","+0092,1","10223,1",,,,,,,,"01,99,1,01,1,01,1,00800,1,03,1,01,1",,,,,"99999,9,09618,1","3,1,017,1,+999,9",,,,"SYN066AAXX  22094 08272 42560 13008 10131 20092 39618 40223 53017 81131;",
"08272099999","2010-03-22T12:00:00","4","39.8833333","-4.05","516.0","TOLEDO, SP","FM-12","99999","V020","310,1,N,0031,1","22000,1,9,N","030000,1,N,1","+0173,1","+0090,1","10214,1","06,0000,9,1",,,,,,,"02,99,1,02,1,02,1,00800,1,00,1,00,1",,,,,"99999,9,09618,1","0,1,000,1,+999,9",,,,"SYN072AAXX  22124 08272 12580 23106 10173 20090 39618 40214 50000 60001 82200;","Q01  00002PRCP06"
"08272099999","2010-03-22T15:00:00","4","39.8833333","-4.05","516.0","TOLEDO, SP","FM-12","99999","V020","290,1,N,0041,1","22000,1,9,N","040000,1,N,1","+0207,1","+0051,1","10190,1",,,,,,,,"03,99,1,03,1,02,1,00800,1,03,1,01,1",,,,,"99999,9,09601,1","7,1,017,1,+999,9",,,,"SYN066AAXX  22154 08272 42582 32908 10207 20051 39601 40190 57017 83231;",
"08272099999","2010-03-22T18:00:00","4","39.8833333","-4.05","516.0","TOLEDO, SP","FM-12","99999","V020","270,1,N,0021,1","22000,1,9,N","040000,1,N,1","+0191,1","+0062,1","10190,1","12,0000,9,1",,,,,,,"02,99,1,01,1,04,1,00800,1,00,1,04,1",,,,"999,M,+0213,1","99999,9,09598,1","6,1,003,1,+999,9",,,,"SYN082AAXX  22184 08272 12582 22704 10191 20062 39598 40190 56003 60002 81404 333 10213;","Q01  00002PRCP12"
"08272099999","2010-03-23T06:00:00","4","39.8833333","-4.05","516.0","TOLEDO, SP","FM-12","99999","V020","100,1,N,0021,1","03600,1,9,N","020000,1,N,1","+0077,1","+0053,1","10198,1","12,0000,9,1","24,0000,9,1",,,,,,"07,99,1,01,1,01,1,00800,1,03,1,08,1","0600,9","01,9","999,+0040,9","999,N,+0075,1","99999,9,09582,1","6,1,007,1,+999,9","02,1",,,"SYN112AAXX  23064 08272 11570 71004 10077 20053 39582 40198 56007 60002 702// 81138 333 20075 30004 50254 55100 70000;","Q01  00002PRCP24Q02  00002PRCP12"
"08272099999","2010-03-23T09:00:00","4","39.8833333","-4.05","516.0","TOLEDO, SP","FM-12","99999","V020","110,1,N,0041,1","09000,1,9,N","014000,1,N,1","+0129,1","+0074,1","10181,1",,,,,,,,"08,99,1,01,1,00,1,02250,1,03,1,07,1",,,,,"99999,9,09577,1","7,1,005,1,+999,9",,,,"SYN066AAXX  23094 08272 42864 81108 10129 20074 39577 40181 57005 81037;",
"08272099999","2010-03-23T12:00:00","4","39.8833333","-4.05","516.0","TOLEDO, SP","FM-12","99999","V020","150,1,N,0036,1","09000,1,9,N","020000,1,N,1","+0196,1","+0070,1","10147,1","06,0000,9,1",,,,,,,"08,99,1,01,1,01,1,00800,1,00,1,07,1",,,,,"99999,9,09559,1","8,1,018,1,+999,9",,,,"SYN072AAXX  23124 08272 12570 81507 10196 20070 39559 40147 58018 60001 81107;","Q01  00002PRCP06"
"08272099999","2010-03-23T15:00:00","4","39.8833333","-4.05","516.0","TOLEDO, SP","FM-12","99999","V020","250,1,N,0036,1","03600,1,9,N","020000,1,N,1","+0205,1","+0049,1","10118,1",,,,,,,,"07,99,1,03,1,05,1,00800,1,03,1,08,1",,,,,"99999,9,09533,1","7,1,026,1,+999,9",,,,"SYN066AAXX  23154 08272 42570 72507 10205 20049 39533 40118 57026 83538;",
"08272099999","2010-03-23T18:00:00","4","39.8833333","-4.05","516.0","TOLEDO, SP","FM-12","99999","V020","220,1,N,0015,1","03600,1,9,N","020000,1,N,1","+0182,1","+0064,1","10111,1","12,0000,9,1",,,,,,,"06,99,1,03,1,05,1,00800,1,07,1,08,1",,,,"999,M,+0216,1","99999,9,09522,1","6,1,011,1,+999,9",,,,"SYN082AAXX  23184 08272 12570 62203 10182 20064 39522 40111 56011 60002 83578 333 10216;","Q01  00002PRCP12"
"08272099999","2010-03-24T06:00:00","4","39.8833333","-4.05","516.0","TOLEDO, SP","FM-12","99999","V020","100,1,N,0036,1","01200,1,9,N","015000,1,N,1","+0111,1","+0081,1","10105,1","12,0000,9,1","24,0000,9,1",,,,,,"06,99,1,05,1,05,1,01250,1,07,1,00,1","0300,9","01,9","999,+0090,9","999,N,+0110,1","99999,9,09502,1","5,1,002,1,+999,9","02,1",,,"SYN112AAXX  24064 08272 11665 61007 10111 20081 39502 40105 55002 60002 702// 85570 333 20110 30009 50314 55050 70000;","Q01  00002PRCP24Q02  00002PRCP12"
"08272099999","2010-03-24T09:00:00","4","39.8833333","-4.05","516.0","TOLEDO, SP","FM-12","99999","V020","100,1,N,0041,1","03600,1,9,N","004000,1,N,1","+0146,1","+0085,1","10099,1",,,,"2,1,03,1","2,1,03,1",,,"05,99,1,02,1,05,1,01250,1,03,1,00,1",,,,,"99999,9,09504,1","3,1,002,1,+999,9","05,1",,,"SYN072AAXX  24094 08272 41640 51008 10146 20085 39504 40099 53002 70522 82530;",
"08272099999","2010-03-24T12:00:00","4","39.8833333","-4.05","516.0","TOLEDO, SP","FM-12","99999","V020","190,1,N,0041,1","03600,1,9,N","018000,1,N,1","+0188,1","+0069,1","10075,1","06,0000,9,1",,,,,,,"06,99,1,03,1,05,1,00800,1,03,1,00,1",,,,,"99999,9,09489,1","8,1,015,1,+999,9",,,,"SYN072AAXX  24124 08272 12568 61908 10188 20069 39489 40075 58015 60001 83530;","Q01  00002PRCP06"
"08272099999","2010-03-24T15:00:00","4","39.8833333","-4.05","516.0","TOLEDO, SP","FM-12","99999","V020","310,1,N,0036,1","00750,1,9,N","030000,1,N,1","+0190,1","+0084,1","10053,1",,,,"6,1,03,1","2,1,03,1",,,"07,99,1,05,1,05,1,00800,1,03,1,01,1",,,,,"99999,9,09469,1","7,1,020,1,+999,9","02,1",,,"SYN072AAXX  24154 08272 41580 73107 10190 20084 39469 40053 57020 70262 85531;",
"08272099999","2010-03-24T18:00:00","4","39.8833333","-4.05","516.0","TOLEDO, SP","FM-12","99999","V020","350,1,N,0021,1","00420,1,C,N","002000,1,N,1","+0157,1","+0109,1","10052,1","12,9999,9,9",,,"9,1,06,1","2,1,06,1","04,1,+00390,1,09,1",,"07,99,1,06,1,09,1,00450,1,02,1,99,9",,,,"120,M,+0209,1","99999,9,09462,1","6,1,007,1,+999,9","96,1",,,"SYN094AAXX  24184 08272 11420 73504 10157 20109 39462 40052 56007 69922 79692 8692/ 333 10209 84913;","Q01  00002PRCP12Q02  00002PRCP12"
"08272099999","2010-03-25T06:00:00","4","39.8833333","-4.05","516.0","TOLEDO, SP","FM-12","99999","V020","210,1,N,0015,1","22000,1,9,N","020000,1,N,1","+0080,1","+0055,1","10102,1","12,0061,9,2","24,0058,9,2",,,,,,"03,99,1,01,1,05,1,00800,1,07,1,01,1","0330,9","09,9","999,+0040,9","999,N,+0080,1","99999,9,09493,1","2,1,008,1,+999,9","02,1",,,"SYN112AAXX  25064 08272 11570 32103 10080 20055 39493 40102 52008 60062 702// 81571 333 20080 31004 50244 55055 70059;",
"08272099999","2010-03-25T09:00:00","4","39.8833333","-4.05","516.0","TOLEDO, SP","FM-12","99999","V020","220,1,N,0057,1","03600,1,9,N","030000,1,N,1","+0115,1","+0043,1","10102,1",,,,,,,,"07,99,1,02,1,05,1,00800,1,07,1,08,1",,,,,"99999,9,09500,1","3,1,007,1,+999,9",,,,"SYN066AAXX  25094 08272 42580 72211 10115 20043 39500 40102 53007 82578;",
"08272099999","2010-03-25T12:00:00","4","39.8833333","-4.05","516.0","TOLEDO, SP","FM-12","99999","V020","220,1,N,0041,1","00750,1,9,N","030000,1,N,1","+0139,1","+0065,1","10092,1","06,0000,9,1",,,,,,,"08,99,1,07,1,05,1,00800,1,07,1,07,1",,,,,"99999,9,09496,1","8,1,004,1,+999,9",,,,"SYN072AAXX  25124 08272 12580 82208 10139 20065 39496 40092 58004 60001 87577;","Q01  00002PRCP06"
"08272099999","2010-03-25T15:00:00","4","39.8833333","-4.05","516.0","TOLEDO, SP","FM-12","99999","V020","270,1,N,0026,1","00210,1,9,N","002000,1,N,1","+0078,1","+0067,1","10110,1",,,,"6,1,03,1","2,1,03,1",,,"08,99,1,08,1,07,1,00250,1,99,9,99,9",,,,,"99999,9,09500,1","3,1,004,1,+999,9","63,1",,,"SYN072AAXX  25154 08272 41320 82705 10078 20067 39500 40110 53004 76362 887//;",
"08272099999","2010-03-25T18:00:00","4","39.8833333","-4.05","516.0","TOLEDO, SP","FM-12","99999","V020","240,1,N,0015,1","00420,1,9,N","008000,1,N,1","+0081,1","+0072,1","10122,1","12,0061,9,1",,,"6,1,06,1","2,1,06,1",,,"08,99,1,07,1,07,1,00450,1,02,1,99,9",,,,"999,M,+0148,1","99999,9,09512,1","1,1,012,1,+999,9","61,1",,,"SYN088AAXX  25184 08272 11458 82403 10081 20072 39512 40122 51012 60062 76162 8772/ 333 10148;",
"08272099999","2010-03-26T06:00:00","4","39.8833333","-4.05","516.0","TOLEDO, SP","FM-12","99999","V020","240,1,N,0021,1","22000,1,9,N","030000,1,N,1","+0054,1","+0021,1","10207,1","12,0005,9,1","24,0066,9,1",,,,,,"02,99,1,01,1,05,1,00800,1,00,1,01,1","0036,9","09,9","999,+0020,9","999,N,+0054,1","99999,9,09585,1","2,1,019,1,+999,9","02,1",,,"SYN112AAXX  26064 08272 11580 22404 10054 20021 39585 40207 52019 69962 702// 81501 333 20054 31002 50144 55006 70065;",
"08272099999","2010-03-26T09:00:00","4","39.8833333","-4.05","516.0","TOLEDO, SP","FM-12","99999","V020","260,1,N,0051,1","22000,1,9,N","040000,1,N,1","+0093,1","+0012,1","10220,1",,,,,,,,"05,99,1,02,1,08,1,00800,1,03,1,09,1",,,,,"99999,9,09606,1","2,1,021,1,+999,9",,,,"SYN066AAXX  26094 08272 42582 52610 10093 20012 39606 40220 52021 82839;",
"08272099999","2010-03-26T12:00:00","4","39.8833333","-4.05","516.0","TOLEDO, SP","FM-12","99999","V020","250,1,N,0057,1","00750,1,9,N","030000,1,N,1","+0130,1","+0017,1","10213,1","06,0000,9,1",,,,,,,"05,99,1,05,1,05,1,00800,1,00,1,00,1",,,,,"99999,9,09607,1","0,1,001,1,+999,9",,,,"SYN072AAXX  26124 08272 12580 52511 10130 20017 39607 40213 50001 60001 85500;","Q01  00002PRCP06"
"08272099999","2010-03-26T15:00:00","4","39.8833333","-4.05","516.0","TOLEDO, SP","FM-12","99999","V020","280,1,N,0062,1","00750,1,9,N","030000,1,N,1","+0137,1","+0010,1","10201,1",,,,"8,1,03,1","2,1,03,1",,,"06,99,1,06,1,05,1,00800,1,00,1,00,1",,,,,"99999,9,09597,1","8,1,010,1,+999,9","02,1",,,"SYN072AAXX  26154 08272 41580 62812 10137 20010 39597 40201 58010 70282 86500;",
"08272099999","2010-03-26T18:00:00","4","39.8833333","-4.05","516.0","TOLEDO, SP","FM-12","99999","V020","250,1,N,0062,1","00750,1,9,N","040000,1,N,1","+0123,1","+0033,1","10206,1","12,9999,9,9",,,"8,1,06,1","2,1,06,1",,,"06,99,1,06,1,05,1,00800,1,03,1,00,1",,,,"999,M,+0145,1","99999,9,09599,1","3,1,002,1,+999,9","80,1",,,"SYN088AAXX  26184 08272 11582 62512 10123 20033 39599 40206 53002 69902 78082 86530 333 10145;","Q01  00002PRCP12Q02  00002PRCP12"
"08272099999","2010-03-29T06:00:00","4","39.8833333","-4.05","516.0","TOLEDO, SP","FM-12","99999","V020","240,1,N,0036,1","00420,1,9,N","040000,1,N,1","+0109,1","+0050,1","10120,1","12,0000,9,1","24,0000,9,1",,,,,,"07,99,1,05,1,05,1,00450,1,03,1,01,1","0666,9","01,9","999,+0070,9","999,N,+0108,1","99999,9,09516,1","6,1,007,1,+999,9","02,1",,,"SYN106AAXX  29064 08272 11482 72407 10109 20050 39516 40120 56007 60002 702// 85531 333 20108 30007 55111 70000;","Q01  00002PRCP24Q02  00002PRCP12"
"08272099999","2010-03-29T09:00:00","4","39.8833333","-4.05","516.0","TOLEDO, SP","FM-12","99999","V020","320,1,N,0051,1","00420,1,9,N","035000,1,N,1","+0119,1","+0082,1","10121,1",,,,,,,,"07,99,1,05,1,05,1,00450,1,06,1,01,1",,,,,"99999,9,09519,1","1,1,003,1,+999,9",,,,"SYN066AAXX  29094 08272 42481 73210 10119 20082 39519 40121 51003 85561;",
"08272099999","2010-03-29T12:00:00","4","39.8833333","-4.05","516.0","TOLEDO, SP","FM-12","99999","V020","280,1,N,0051,1","03600,1,9,N","035000,1,N,1","+0141,1","+0060,1","10110,1","06,0000,9,1",,,,,,,"06,99,1,04,1,04,1,00450,1,03,1,05,1",,,,,"99999,9,09513,1","8,1,006,1,+999,9",,,,"SYN072AAXX  29124 08272 12481 62810 10141 20060 39513 40110 58006 60001 84435;","Q01  00002PRCP06"
"08272099999","2010-03-29T15:00:00","4","39.8833333","-4.05","516.0","TOLEDO, SP","FM-12","99999","V020","240,1,N,0082,1","00420,1,9,N","040000,1,N,1","+0155,1","+0045,1","10095,1",,,,,,,,"07,99,1,07,1,04,1,00450,1,00,1,08,1",,,,,"99999,9,09501,1","7,1,012,1,+999,9",,,,"SYN066AAXX  29154 08272 42482 72416 10155 20045 39501 40095 57012 87408;",
"08272099999","2010-03-29T18:00:00","4","39.8833333","-4.05","516.0","TOLEDO, SP","FM-12","99999","V020","230,1,N,0051,1","03600,1,9,N","040000,1,N,1","+0139,1","+0053,1","10091,1","12,0000,9,1",,,,,,,"05,99,1,04,1,08,1,00450,1,06,1,01,1",,,,"999,M,+0174,1","99999,9,09494,1","6,1,007,1,+999,9",,,,"SYN082AAXX  29184 08272 12482 52310 10139 20053 39494 40091 56007 60002 84861 333 10174;","Q01  00002PRCP12"
"08272099999","2010-03-30T06:00:00","4","39.8833333","-4.05","516.0","TOLEDO, SP","FM-12","99999","V020","280,1,N,0077,1","22000,1,9,N","035000,1,N,1","+0068,1","+0025,1","10142,1","12,0041,9,2","24,0036,9,2",,,,,,"01,99,1,01,1,04,1,00800,1,00,1,00,1","0324,9","01,9","999,+0050,9","999,N,+0068,1","99999,9,09527,1","3,1,017,1,+999,9","01,1",,,"SYN112AAXX  30064 08272 11581 12815 10068 20025 39527 40142 53017 60042 701// 81400 333 20068 30005 50354 55054 70036;",
"08272099999","2010-03-30T09:00:00","4","39.8833333","-4.05","516.0","TOLEDO, SP","FM-12","99999","V020","270,1,N,0087,1","22000,1,9,N","040000,1,N,1","+0095,1","+0033,1","10165,1",,,,,,,,"04,99,1,04,1,04,1,00800,1,03,1,00,1",,,,,"99999,9,09555,1","1,1,028,1,+999,9",,,,"SYN066AAXX  30094 08272 42582 42717 10095 20033 39555 40165 51028 84430;",
"08272099999","2010-03-30T12:00:00","4","39.8833333","-4.05","516.0","TOLEDO, SP","FM-12","99999","V020","270,1,N,0093,1","03600,1,9,N","035000,1,N,1","+0128,1","+0035,1","10164,1","06,0000,9,1",,,,,,,"06,99,1,03,1,05,1,00800,1,03,1,01,1",,,,,"99999,9,09561,1","0,1,006,1,+999,9",,,,"SYN072AAXX  30124 08272 12581 62718 10128 20035 39561 40164 50006 60001 83531;","Q01  00002PRCP06"
"08272099999","2010-03-30T15:00:00","4","39.8833333","-4.05","516.0","TOLEDO, SP","FM-12","99999","V020","280,1,N,0093,1","03600,1,9,N","035000,1,N,1","+0139,1","+0031,1","10158,1",,,,,,,,"05,99,1,04,1,02,1,00800,1,03,1,01,1",,,,,"99999,9,09557,1","6,1,004,1,+999,9",,,,"SYN066AAXX  30154 08272 42581 52818 10139 20031 39557 40158 56004 84231;",
"08272099999","2010-03-30T18:00:00","4","39.8833333","-4.05","516.0","TOLEDO, SP","FM-12","99999","V020","280,1,N,0087,1","22000,1,9,N","040000,1,N,1","+0123,1","+0035,1","10162,1","12,0000,9,1",,,,,,,"02,99,1,02,1,02,1,00800,1,04,1,00,1",,,,"999,M,+0148,1","99999,9,09558,1","3,1,001,1,+999,9",,,,"SYN082AAXX  30184 08272 12582 22817 10123 20035 39558 40162 53001 60002 82240 333 10148;","Q01  00002PRCP12"
"08272099999","2010-03-31T06:00:00","4","39.8833333","-4.05","516.0","TOLEDO, SP","FM-12","99999","V020","210,1,N,0005,1","22000,1,9,N","035000,1,N,1","+0041,1","+0021,1","10201,1","12,0000,9,1","24,0000,9,1",,,,,,"03,99,1,00,1,00,1,99999,9,00,1,05,1","0564,9","01,9","999,-0010,9","999,N,+0040,1","99999,9,09577,1","3,1,002,1,+999,9","02,1",,,"SYN112AAXX  31064 08272 11981 32101 10041 20021 39577 40201 53002 60002 702// 80005 333 20040 30101 50294 55094 70000;","Q01  00002PRCP24Q02  00002PRCP12"
"08272099999","2010-03-31T09:00:00","4","39.8833333","-4.05","516.0","TOLEDO, SP","FM-12","99999","V020","270,1,N,0036,1","09000,1,9,N","045000,1,N,1","+0084,1","+0020,1","10197,1",,,,,,,,"07,99,1,01,1,04,1,00800,1,00,1,06,1",,,,,"99999,9,09582,1","3,1,005,1,+999,9",,,,"SYN066AAXX  31094 08272 42583 72707 10084 20020 39582 40197 53005 81406;",
"08272099999","2010-03-31T12:00:00","4","39.8833333","-4.05","516.0","TOLEDO, SP","FM-12","99999","V020","260,1,N,0067,1","22000,1,9,N","050000,1,N,1","+0128,1","+0021,1","10178,1","06,0000,9,1",,,,,,,"04,99,1,03,1,04,1,00800,1,00,1,05,1",,,,,"99999,9,09574,1","8,1,008,1,+999,9",,,,"SYN072AAXX  31124 08272 12584 42613 10128 20021 39574 40178 58008 60001 83405;","Q01  00002PRCP06"
"08272099999","2010-03-31T15:00:00","4","39.8833333","-4.05","516.0","TOLEDO, SP","FM-12","99999","V020","280,1,N,0093,1","22000,1,9,N","050000,1,N,1","+0149,1","+0024,1","10158,1",,,,,,,,"01,99,1,01,1,04,1,00800,1,00,1,00,1",,,,,"99999,9,09559,1","6,1,015,1,+999,9",,,,"SYN066AAXX  31154 08272 42584 12818 10149 20024 39559 40158 56015 81400;",
"08272099999","2010-03-31T18:00:00","4","39.8833333","-4.05","516.0","TOLEDO, SP","FM-12","99999","V020","280,1,N,0082,1","22000,1,9,N","045000,1,N,1","+0123,1","+0019,1","10160,1","12,0000,9,1",,,,,,,"02,99,1,02,1,04,1,00800,1,00,1,02,1",,,,"999,M,+0152,1","99999,9,09556,1","5,1,003,1,+999,9",,,,"SYN082AAXX  31184 08272 12583 22816 10123 20019 39556 40160 55003 60002 82402 333 10152;","Q01  00002PRCP12"
"08272099999","2010-04-01T06:00:00","4","39.8833333","-4.05","516.0","TOLEDO, SP","FM-12","99999","V020","030,1,N,0015,1","00900,1,9,N","035000,1,N,1","+0081,1","+0015,1","10185,1","12,0000,9,1","24,0000,9,1",,,,,,"07,99,1,07,1,08,1,00450,1,07,1,00,1","0642,9","01,9","999,+0060,9","999,N,+0079,1","99999,9,09570,1","3,1,008,1,+999,9","02,1",,,"SYN112AAXX  01064 08272 11481 70303 10081 20015 39570 40185 53008 60002 702// 87870 333 20079 30006 50334 55107 70000;","Q01  00002PRCP24Q02  00002PRCP12"
"08272099999","2010-04-01T09:00:00","4","39.8833333","-4.05","516.0","TOLEDO, SP","FM-12","99999","V020","010,1,N,0036,1","03600,1,9,N","040000,1,N,1","+0087,1","-0006,1","10198,1",,,,,,,,"07,99,1,03,1,08,1,00450,1,07,1,08,1",,,,,"99999,9,09584,1","2,1,014,1,+999,9",,,,"SYN066AAXX  01094 08272 42482 70107 10087 21006 39584 40198 52014 83878;",
"08272099999","2010-04-01T12:00:00","4","39.8833333","-4.05","516.0","TOLEDO, SP","FM-12","99999","V020","310,1,N,0021,1","00750,1,9,N","035000,1,N,1","+0126,1","+0010,1","10194,1","06,0000,9,1",,,"5,1,06,1","2,1,06,1",,,"07,99,1,07,1,02,1,00800,1,00,1,00,1",,,,,"99999,9,09588,1","1,1,004,1,+999,9","02,1",,,"SYN078AAXX  01124 08272 11581 73104 10126 20010 39588 40194 51004 69901 70252 87200;","Q01  00002PRCP06"
"08272099999","2010-04-01T15:00:00","4","39.8833333","-4.05","516.0","TOLEDO, SP","FM-12","99999","V020","310,1,N,0036,1","00750,1,9,N","040000,1,N,1","+0152,1","-0009,1","10177,1",,,,,,,,"06,99,1,06,1,02,1,00800,1,00,1,00,1",,,,,"99999,9,09577,1","8,1,011,1,+999,9",,,,"SYN066AAXX  01154 08272 42582 63107 10152 21009 39577 40177 58011 86200;",
"08272099999","2010-04-01T18:00:00","4","39.8833333","-4.05","516.0","TOLEDO, SP","FM-12","99999","V020","280,1,N,0041,1","22000,1,9,N","045000,1,N,1","+0136,1","-0023,1","10182,1","12,0000,9,1",,,,,,,"03,99,1,02,1,04,1,00800,1,07,1,00,1",,,,"999,M,+0160,1","99999,9,09579,1","3,1,002,1,+999,9",,,,"SYN082AAXX  01184 08272 12583 32808 10136 21023 39579 40182 53002 60002 82470 333 10160;","Q01  00002PRCP12"
"08272099999","2010-04-02T06:00:00","4","39.8833333","-4.05","516.0","TOLEDO, SP","FM-12","99999","V020","340,1,N,0005,1","22000,1,9,N","040000,1,N,1","+0056,1","-0002,1","10216,1","12,0000,9,1","24,0000,9,1",,,,,,"03,99,1,00,1,00,1,99999,9,00,1,01,1","0552,9","01,9","999,+0000,9","999,N,+0055,1","99999,9,09594,1","3,1,002,1,+999,9","02,1",,,"SYN112AAXX  02064 08272 11982 33401 10056 21002 39594 40216 53002 60002 702// 80001 333 20055 30000 50294 55092 70000;","Q01  00002PRCP24Q02  00002PRCP12"
"08272099999","2010-04-02T09:00:00","4","39.8833333","-4.05","516.0","TOLEDO, SP","FM-12","99999","V020","290,1,N,0036,1","22000,1,9,N","045000,1,N,1","+0097,1","+0001,1","10216,1",,,,,,,,"02,99,1,00,1,00,1,99999,9,00,1,01,1",,,,,"99999,9,09603,1","3,1,009,1,+999,9",,,,"SYN066AAXX  02094 08272 42983 22907 10097 20001 39603 40216 53009 80001;",
"08272099999","2010-04-02T12:00:00","4","39.8833333","-4.05","516.0","TOLEDO, SP","FM-12","99999","V020","270,1,N,0051,1","22000,1,9,N","045000,1,N,1","+0145,1","-0004,1","10202,1","06,0000,9,1",,,,,,,"01,99,1,00,1,00,1,99999,9,00,1,08,1",,,,,"99999,9,09599,1","8,1,004,1,+999,9",,,,"SYN072AAXX  02124 08272 12983 12710 10145 21004 39599 40202 58004 60001 80008;","Q01  00002PRCP06"
"08272099999","2010-04-02T15:00:00","4","39.8833333","-4.05","516.0","TOLEDO, SP","FM-12","99999","V020","270,1,N,0057,1","22000,1,9,N","045000,1,N,1","+0170,1","+0002,1","10170,1",,,,,,,,"02,99,1,01,1,01,1,00800,1,00,1,01,1",,,,,"99999,9,09574,1","8,1,025,1,+999,9",,,,"SYN066AAXX  02154 08272 42583 22711 10170 20002 39574 40170 58025 81101;",
"08272099999","2010-04-02T18:00:00","4","39.8833333","-4.05","516.0","TOLEDO, SP","FM-12","99999","V020","280,1,N,0062,1","22000,1,9,N","050000,1,N,1","+0145,1","+0000,1","10171,1","12,0000,9,1",,,,,,,"01,99,1,00,1,00,1,99999,9,00,1,01,1",,,,"999,M,+0174,1","99999,9,09570,1","6,1,004,1,+999,9",,,,"SYN082AAXX  02184 08272 12984 12812 10145 20000 39570 40171 56004 60002 80001 333 10174;","Q01  00002PRCP12"
"08272099999","2010-04-05T06:00:00","4","39.8833333","-4.05","516.0","TOLEDO, SP","FM-12","99999","V020","080,1,N,0031,1","22000,1,9,N","030000,1,N,1","+0032,1","+0001,1","10281,1","12,0000,9,1","24,0000,9,1",,,,,,"04,99,1,00,1,00,1,99999,9,00,1,06,1","0738,9","01,9","999,+0010,9","999,N,+0032,1","99999,9,09650,1","6,1,004,1,+999,9","02,1",,,"SYN106AAXX  05064 08272 11980 40806 10032 20001 39650 40281 56004 60002 702// 80006 333 20032 30001 55123 70000;","Q01  00002PRCP24Q02  00002PRCP12"
"08272099999","2010-04-05T09:00:00","4","39.8833333","-4.05","516.0","TOLEDO, SP","FM-12","99999","V020","090,1,N,0051,1","99999,9,9,N","040000,1,N,1","+0096,1","+0010,1","10265,1",,,,,,,,"06,99,1,00,1,00,1,99999,9,00,1,08,1",,,,,"99999,9,09649,1","8,1,001,1,+999,9",,,,"SYN066AAXX  05094 08272 42982 60910 10096 20010 39649 40265 58001 80008;",
"08272099999","2010-04-05T12:00:00","4","39.8833333","-4.05","516.0","TOLEDO, SP","FM-12","99999","V020","110,1,N,0082,1","99999,9,9,N","040000,1,N,1","+0164,1","-0008,1","10228,1","06,0000,9,1",,,,,,,"07,99,1,00,1,00,1,99999,9,00,1,08,1",,,,,"99999,9,09628,1","7,1,021,1,+999,9",,,,"SYN072AAXX  05124 08272 12982 71116 10164 21008 39628 40228 57021 60001 80008;","Q01  00002PRCP06"
"08272099999","2010-04-05T15:00:00","4","39.8833333","-4.05","516.0","TOLEDO, SP","FM-12","99999","V020","120,1,N,0077,1","99999,9,9,N","040000,1,N,1","+0185,1","-0008,1","10195,1",,,,,,,,"07,99,1,00,1,00,1,99999,9,00,1,08,1",,,,,"99999,9,09601,1","7,1,027,1,+999,9",,,,"SYN066AAXX  05154 08272 42982 71215 10185 21008 39601 40195 57027 80008;",
"08272099999","2010-04-05T18:00:00","4","39.8833333","-4.05","516.0","TOLEDO, SP","FM-12","99999","V020","130,1,N,0082,1","99999,9,9,N","040000,1,N,1","+0151,1","+0002,1","10198,1","12,0000,9,1",,,,,,,"06,99,1,00,1,00,1,99999,9,00,1,08,1",,,,"999,M,+0195,1","99999,9,09597,1","5,1,004,1,+999,9",,,,"SYN082AAXX  05184 08272 12982 61316 10151 20002 39597 40198 55004 60002 80008 333 10195;","Q01  00002PRCP12"
"08272099999","2010-04-06T06:00:00","4","39.8833333","-4.05","516.0","TOLEDO, SP","FM-12","99999","V020","100,1,N,0031,1","22000,1,9,N","030000,1,N,1","+0055,1","+0001,1","10208,1","12,0000,9,1","24,0000,9,1",,,,,,"01,99,1,00,1,00,1,99999,9,00,1,01,1","0636,9","01,9","999,+0040,9","999,N,+0055,1","99999,9,09586,1","6,1,004,1,+999,9","02,1",,,"SYN112AAXX  06064 08272 11980 11006 10055 20001 39586 40208 56004 60002 702// 80001 333 20055 30004 50494 55106 70000;","Q01  00002PRCP24Q02  00002PRCP12"
"08272099999","2010-04-06T09:00:00","4","39.8833333","-4.05","516.0","TOLEDO, SP","FM-12","99999","V020","100,1,N,0057,1","22000,1,9,N","040000,1,N,1","+0108,1","+0005,1","10196,1",,,,,,,,"01,99,1,00,1,00,1,99999,9,00,1,01,1",,,,,"99999,9,09586,1","0,1,000,1,+999,9",,,,"SYN066AAXX  06094 08272 42982 11011 10108 20005 39586 40196 50000 80001;",
"08272099999","2010-04-06T12:00:00","4","39.8833333","-4.05","516.0","TOLEDO, SP","FM-12","99999","V020","120,1,N,0036,1","22000,1,9,N","040000,1,N,1","+0165,1","+0022,1","10165,1","06,0000,9,1",,,,,,,"04,99,1,00,1,00,1,99999,9,00,1,04,1",,,,,"99999,9,09569,1","8,1,017,1,+999,9",,,,"SYN072AAXX  06124 08272 12982 41207 10165 20022 39569 40165 58017 60001 80004;","Q01  00002PRCP06"
"08272099999","2010-04-06T15:00:00","4","39.8833333","-4.05","516.0","TOLEDO, SP","FM-12","99999","V020","330,1,N,0026,1","99999,9,9,N","040000,1,N,1","+0197,1","+0030,1","10140,1",,,,,,,,"06,99,1,00,1,00,1,99999,9,00,1,06,1",,,,,"99999,9,09552,1","7,1,017,1,+999,9",,,,"SYN066AAXX  06154 08272 42982 63305 10197 20030 39552 40140 57017 80006;",
"08272099999","2010-04-06T18:00:00","4","39.8833333","-4.05","516.0","TOLEDO, SP","FM-12","99999","V020","300,1,N,0036,1","09000,1,9,N","030000,1,N,1","+0177,1","+0036,1","10142,1","12,0000,9,1",,,,,,,"07,99,1,03,1,00,1,02250,1,01,1,08,1",,,,"999,M,+0208,1","99999,9,09550,1","5,1,002,1,+999,9",,,,"SYN082AAXX  06184 08272 12880 73007 10177 20036 39550 40142 55002 60002 83018 333 10208;","Q01  00002PRCP12"
"08272099999","2010-04-07T06:00:00","4","39.8833333","-4.05","516.0","TOLEDO, SP","FM-12","99999","V020","290,1,N,0021,1","22000,1,9,N","040000,1,N,1","+0115,1","+0056,1","10169,1","12,0000,9,1","24,0000,9,1",,,,,,"03,99,1,03,1,05,1,00800,1,00,1,00,1","0618,9","01,9","999,+0080,9","999,N,+0115,1","99999,9,09563,1","3,1,007,1,+999,9","02,1",,,"SYN112AAXX  07064 08272 11582 32904 10115 20056 39563 40169 53007 60002 702// 83500 333 20115 30008 50404 55103 70000;","Q01  00002PRCP24Q02  00002PRCP12"
"08272099999","2010-04-07T09:00:00","4","39.8833333","-4.05","516.0","TOLEDO, SP","FM-12","99999","V020","350,1,N,0057,1","22000,1,9,N","040000,1,N,1","+0145,1","+0030,1","10180,1",,,,,,,,"03,99,1,02,1,05,1,00800,1,03,1,00,1",,,,,"99999,9,09579,1","1,1,016,1,+999,9",,,,"SYN066AAXX  07094 08272 42582 33511 10145 20030 39579 40180 51016 82530;",
"08272099999","2010-04-07T12:00:00","4","39.8833333","-4.05","516.0","TOLEDO, SP","FM-12","99999","V020","360,1,N,0062,1","22000,1,9,N","040000,1,N,1","+0177,1","+0017,1","10178,1","06,0000,9,1",,,,,,,"02,99,1,02,1,01,1,00800,1,00,1,00,1",,,,,"99999,9,09583,1","0,1,004,1,+999,9",,,,"SYN072AAXX  07124 08272 12582 23612 10177 20017 39583 40178 50004 60001 82100;","Q01  00002PRCP06"
"08272099999","2010-04-07T15:00:00","4","39.8833333","-4.05","516.0","TOLEDO, SP","FM-12","99999","V020","010,1,N,0041,1","22000,1,9,N","040000,1,N,1","+0186,1","+0020,1","10177,1",,,,,,,,"03,99,1,03,1,01,1,00800,1,00,1,00,1",,,,,"99999,9,09584,1","3,1,001,1,+999,9",,,,"SYN066AAXX  07154 08272 42582 30108 10186 20020 39584 40177 53001 83100;",
"08272099999","2010-04-07T18:00:00","4","39.8833333","-4.05","516.0","TOLEDO, SP","FM-12","99999","V020","080,1,N,0051,1","22000,1,9,N","040000,1,N,1","+0163,1","+0023,1","10190,1","12,0000,9,1",,,,,,,"01,99,1,01,1,01,1,01250,1,00,1,00,1",,,,"999,M,+0196,1","99999,9,09592,1","3,1,008,1,+999,9",,,,"SYN082AAXX  07184 08272 12682 10810 10163 20023 39592 40190 53008 60002 81100 333 10196;","Q01  00002PRCP12"
"08272099999","2010-04-08T06:00:00","4","39.8833333","-4.05","516.0","TOLEDO, SP","FM-12","99999","V020","090,1,N,0021,1","22000,1,9,N","040000,1,N,1","+0040,1","-0004,1","10267,1","12,0000,9,1","24,0000,9,1",,,,"00,1,+99999,9,99,9",,"00,99,1,00,1,00,1,99999,9,00,1,00,1","0672,9","01,9","999,+0010,9","999,N,+0039,1","99999,9,09638,1","3,1,009,1,+999,9","00,1",,,"SYN106AAXX  08064 08272 11982 00904 10040 21004 39638 40267 53009 60002 700// 333 20039 30001 50414 55112 70000;","Q01  00002PRCP24Q02  00002PRCP12"
"08272099999","2010-04-08T09:00:00","4","39.8833333","-4.05","516.0","TOLEDO, SP","FM-12","99999","V020","080,1,N,0046,1","22000,1,9,N","040000,1,N,1","+0108,1","+0005,1","10257,1",,,,,,"00,1,+99999,9,99,9",,"00,99,1,00,1,00,1,99999,9,00,1,00,1",,,,,"99999,9,09644,1","1,1,006,1,+999,9",,,,"SYN060AAXX  08094 08272 42982 00809 10108 20005 39644 40257 51006;",
"08272099999","2010-04-08T12:00:00","4","39.8833333","-4.05","516.0","TOLEDO, SP","FM-12","99999","V020","070,1,N,0026,1","22000,1,9,N","040000,1,N,1","+0158,1","+0004,1","10236,1","06,0000,9,1",,,,,"00,1,+99999,9,99,9",,"00,99,1,00,1,00,1,99999,9,00,1,00,1",,,,,"99999,9,09634,1","8,1,010,1,+999,9",,,,"SYN066AAXX  08124 08272 12982 00705 10158 20004 39634 40236 58010 60001;","Q01  00002PRCP06"
"08272099999","2010-04-08T15:00:00","4","39.8833333","-4.05","516.0","TOLEDO, SP","FM-12","99999","V020","050,1,N,0031,1","22000,1,9,N","040000,1,N,1","+0186,1","-0018,1","10209,1",,,,,,"00,1,+99999,9,99,9",,"00,99,1,00,1,00,1,99999,9,00,1,00,1",,,,,"99999,9,09614,1","7,1,020,1,+999,9",,,,"SYN060AAXX  08154 08272 42982 00506 10186 21018 39614 40209 57020;",
"08272099999","2010-04-08T18:00:00","4","39.8833333","-4.05","516.0","TOLEDO, SP","FM-12","99999","V020","360,1,N,0021,1","22000,1,9,N","040000,1,N,1","+0189,1","+0000,1","10201,1","12,0000,9,1",,,,,"00,1,+99999,9,99,9",,"00,99,1,00,1,00,1,99999,9,00,1,00,1",,,,"999,M,+0197,1","99999,9,09607,1","6,1,007,1,+999,9",,,,"SYN076AAXX  08184 08272 12982 03604 10189 20000 39607 40201 56007 60002 333 10197;","Q01  00002PRCP12"
"08272099999","2010-04-09T06:00:00","4","39.8833333","-4.05","516.0","TOLEDO, SP","FM-12","99999","V020","110,1,N,0026,1","22000,1,9,N","030000,1,N,1","+0058,1","+0000,1","10252,1","12,0000,9,1","24,0000,9,1",,,,"00,1,+99999,9,99,9",,"00,99,1,00,1,00,1,99999,9,00,1,00,1","0714,9","01,9","999,+0030,9","999,N,+0058,1","99999,9,09628,1","2,1,003,1,+999,9","00,1",,,"SYN106AAXX  09064 08272 11980 01105 10058 20000 39628 40252 52003 60002 700// 333 20058 30003 50384 55119 70000;","Q01  00002PRCP24Q02  00002PRCP12"
"08272099999","2010-04-09T09:00:00","4","39.8833333","-4.05","516.0","TOLEDO, SP","FM-12","99999","V020","110,1,N,0036,1","22000,1,9,N","030000,1,N,1","+0113,1","+0018,1","10248,1",,,,,,"00,1,+99999,9,99,9",,"00,99,1,00,1,00,1,99999,9,00,1,00,1",,,,,"99999,9,09636,1","1,1,008,1,+999,9",,,,"SYN060AAXX  09094 08272 42980 01107 10113 20018 39636 40248 51008;",
"08272099999","2010-04-09T12:00:00","4","39.8833333","-4.05","516.0","TOLEDO, SP","FM-12","99999","V020","090,1,N,0036,1","22000,1,9,N","035000,1,N,1","+0168,1","+0028,1","10224,1","06,0000,9,1",,,,,"00,1,+99999,9,99,9",,"00,99,1,00,1,00,1,99999,9,00,1,00,1",,,,,"99999,9,09625,1","8,1,011,1,+999,9",,,,"SYN066AAXX  09124 08272 12981 00907 10168 20028 39625 40224 58011 60001;","Q01  00002PRCP06"
"08272099999","2010-04-09T15:00:00","4","39.8833333","-4.05","516.0","TOLEDO, SP","FM-12","99999","V020","110,1,N,0041,1","22000,1,9,N","040000,1,N,1","+0200,1","-0023,1","10199,1",,,,,,"00,1,+99999,9,99,9",,"00,99,1,00,1,00,1,99999,9,00,1,00,1",,,,,"99999,9,09607,1","7,1,018,1,+999,9",,,,"SYN060AAXX  09154 08272 42982 01108 10200 21023 39607 40199 57018;",
"08272099999","2010-04-09T18:00:00","4","39.8833333","-4.05","516.0","TOLEDO, SP","FM-12","99999","V020","110,1,N,0051,1","22000,1,9,N","040000,1,N,1","+0188,1","-0006,1","10200,1","12,0000,9,1",,,,,"00,1,+99999,9,99,9",,"00,99,1,00,1,00,1,99999,9,00,1,00,1",,,,"999,M,+0206,1","99999,9,09606,1","5,1,001,1,+999,9",,,,"SYN076AAXX  09184 08272 12982 01110 10188 21006 39606 40200 55001 60002 333 10206;","Q01  00002PRCP12"
"08272099999","2010-04-12T06:00:00","4","39.8833333","-4.05","516.0","TOLEDO, SP","FM-12","99999","V020","130,1,N,0010,1","22000,1,9,N","050000,1,N,1","+0052,1","+0002,1","10074,1","12,0000,9,1","24,0000,9,1",,,,"00,1,+99999,9,99,9",,"00,99,1,00,1,00,1,99999,9,00,1,00,1","0732,9","01,9","999,+0010,9","999,N,+0052,1","99999,9,09460,1","7,1,002,1,+999,9","00,1",,,"SYN100AAXX  12064 08272 11984 01302 10052 20002 39460 40074 57002 60002 700// 333 20052 30001 55122 70000;","Q01  00002PRCP24Q02  00002PRCP12"
"08272099999","2010-04-12T09:00:00","4","39.8833333","-4.05","516.0","TOLEDO, SP","FM-12","99999","V020","080,1,N,0026,1","22000,1,9,N","030000,1,N,1","+0129,1","+0019,1","10060,1",,,,,,"00,1,+99999,9,99,9",,"00,99,1,00,1,00,1,99999,9,00,1,00,1",,,,,"99999,9,09463,1","0,1,003,1,+999,9",,,,"SYN060AAXX  12094 08272 42980 00805 10129 20019 39463 40060 50003;",
"08272099999","2010-04-12T12:00:00","4","39.8833333","-4.05","516.0","TOLEDO, SP","FM-12","99999","V020","080,1,N,0015,1","22000,1,9,N","030000,1,N,1","+0188,1","+0038,1","10038,1","06,0000,9,1",,,,,,,"01,99,1,01,1,01,1,00800,1,00,1,01,1",,,,,"99999,9,09454,1","8,1,009,1,+999,9",,,,"SYN072AAXX  12124 08272 12580 10803 10188 20038 39454 40038 58009 60001 81101;","Q01  00002PRCP06"
"08272099999","2010-04-12T15:00:00","4","39.8833333","-4.05","516.0","TOLEDO, SP","FM-12","99999","V020","330,1,N,0036,1","03600,1,9,N","030000,1,N,1","+0207,1","+0030,1","10015,1",,,,,,,,"06,99,1,03,1,02,1,00800,1,06,1,01,1",,,,,"99999,9,09436,1","7,1,018,1,+999,9",,,,"SYN066AAXX  12154 08272 42580 63307 10207 20030 39436 40015 57018 83261;",
"08272099999","2010-04-12T18:00:00","4","39.8833333","-4.05","516.0","TOLEDO, SP","FM-12","99999","V020","240,1,N,0031,1","03600,1,9,N","035000,1,N,1","+0185,1","+0050,1","10022,1","12,0000,9,1",,,,,,,"07,99,1,04,1,02,1,01250,1,07,1,08,1",,,,"999,M,+0216,1","99999,9,09439,1","3,1,003,1,+999,9",,,,"SYN082AAXX  12184 08272 12681 72406 10185 20050 39439 40022 53003 60002 84278 333 10216;","Q01  00002PRCP12"
"08272099999","2010-04-13T06:00:00","4","39.8833333","-4.05","516.0","TOLEDO, SP","FM-12","99999","V020","050,1,N,0046,1","03600,1,9,N","025000,1,N,1","+0081,1","+0028,1","10094,1","12,0008,9,1","24,0008,9,1",,,,,,"08,99,1,01,1,01,1,00450,1,07,1,99,9","0486,9","01,9","999,+0080,9","999,N,+0081,1","99999,9,09485,1","2,1,007,1,+999,9","02,1",,,"SYN112AAXX  13064 08272 11475 80509 10081 20028 39485 40094 52007 69982 702// 8117/ 333 20081 30008 50434 55081 70008;",
"08272099999","2010-04-13T09:00:00","4","39.8833333","-4.05","516.0","TOLEDO, SP","FM-12","99999","V020","070,1,N,0051,1","00210,1,9,N","015000,1,N,1","+0082,1","+0040,1","10113,1",,,,,,,,"08,99,1,05,1,07,1,00250,1,07,1,99,9",,,,,"99999,9,09503,1","2,1,018,1,+999,9",,,,"SYN066AAXX  13094 08272 42365 80710 10082 20040 39503 40113 52018 8577/;",
"08272099999","2010-04-13T12:00:00","4","39.8833333","-4.05","516.0","TOLEDO, SP","FM-12","99999","V020","070,1,N,0046,1","00210,1,9,N","035000,1,N,1","+0098,1","+0056,1","10110,1","06,0000,9,1",,,,,,,"08,99,1,07,1,05,1,00250,1,02,1,99,9",,,,,"99999,9,09504,1","0,1,001,1,+999,9",,,,"SYN072AAXX  13124 08272 12381 80709 10098 20056 39504 40110 50001 60001 8752/;","Q01  00002PRCP06"
"08272099999","2010-04-13T15:00:00","4","39.8833333","-4.05","516.0","TOLEDO, SP","FM-12","99999","V020","070,1,N,0051,1","00420,1,9,N","020000,1,N,1","+0101,1","+0068,1","10096,1",,,,"6,1,03,1","2,1,03,1",,,"08,99,1,05,1,05,1,00450,1,02,1,99,9",,,,,"99999,9,09492,1","8,1,012,1,+999,9","60,1",,,"SYN072AAXX  13154 08272 41470 80710 10101 20068 39492 40096 58012 76062 8552/;",
"08272099999","2010-04-13T18:00:00","4","39.8833333","-4.05","516.0","TOLEDO, SP","FM-12","99999","V020","080,1,N,0051,1","00420,1,9,N","008000,1,N,1","+0094,1","+0078,1","10096,1","12,0020,9,1",,,"6,1,06,1","2,1,06,1",,,"08,99,1,05,1,04,1,00450,1,07,1,99,9",,,,"999,M,+0108,1","99999,9,09490,1","8,1,002,1,+999,9","61,1",,,"SYN088AAXX  13184 08272 11458 80810 10094 20078 39490 40096 58002 60022 76162 8547/ 333 10108;",
"08272099999","2010-04-14T06:00:00","4","39.8833333","-4.05","516.0","TOLEDO, SP","FM-12","99999","V020","070,1,N,0031,1","00030,1,9,N","004000,1,N,1","+0090,1","+0084,1","10092,1","12,0140,9,1","24,0155,9,1",,,,,,"08,99,1,08,1,07,1,00025,1,99,9,99,9","0000,9","09,9","999,+0080,9","999,N,+0087,1","99999,9,09486,1","6,1,004,1,+999,9","21,1",,,"SYN112AAXX  14064 08272 11040 80706 10090 20084 39486 40092 56004 60142 721// 887// 333 20087 31008 50074 55000 70156;",
"08272099999","2010-04-14T09:00:00","4","39.8833333","-4.05","516.0","TOLEDO, SP","FM-12","99999","V020","070,1,N,0031,1","00210,1,9,N","001700,1,N,1","+0099,1","+0093,1","10091,1",,,,"4,1,03,1","2,1,03,1",,,"08,99,1,08,1,06,1,00250,1,99,9,99,9",,,,,"99999,9,09487,1","1,1,001,1,+999,9","50,1",,,"SYN072AAXX  14094 08272 41317 80706 10099 20093 39487 40091 51001 75042 886//;",
"08272099999","2010-04-14T12:00:00","4","39.8833333","-4.05","516.0","TOLEDO, SP","FM-12","99999","V020","060,1,N,0026,1","00420,1,9,N","008000,1,N,1","+0135,1","+0096,1","10080,1","06,0000,2,1",,,"5,1,06,1","4,1,06,1",,,"07,99,1,06,1,02,1,00450,1,00,1,08,1",,,,,"99999,9,09484,1","8,1,003,1,+999,9","10,1",,,"SYN078AAXX  14124 08272 11458 70605 10135 20096 39484 40080 58003 69921 71054 86208;",
"08272099999","2010-04-14T15:00:00","4","39.8833333","-4.05","516.0","TOLEDO, SP","FM-12","99999","V020","090,1,N,0026,1","00420,1,9,N","012000,1,N,1","+0154,1","+0108,1","10067,1",,,,,,,,"07,99,1,05,1,02,1,00450,1,07,1,08,1",,,,,"99999,9,09476,1","8,1,008,1,+999,9",,,,"SYN066AAXX  14154 08272 42462 70905 10154 20108 39476 40067 58008 85278;",
"08272099999","2010-04-14T18:00:00","4","39.8833333","-4.05","516.0","TOLEDO, SP","FM-12","99999","V020","080,1,N,0051,1","03600,1,9,N","015000,1,N,1","+0143,1","+0113,1","10062,1","12,0000,2,1",,,"4,1,06,1","2,1,06,1",,,"07,99,1,02,1,01,1,00450,1,07,1,01,1",,,,"999,M,+0159,1","99999,9,09469,1","6,1,007,1,+999,9","02,1",,,"SYN088AAXX  14184 08272 11465 70810 10143 20113 39469 40062 56007 69922 70242 82171 333 10159;",
"08272099999","2010-04-15T06:00:00","4","39.8833333","-4.05","516.0","TOLEDO, SP","FM-12","99999","V020","110,1,N,0046,1","03600,1,C,N","006000,1,N,1","+0096,1","+0088,1","10078,1","12,0071,9,1","24,0071,9,1",,,,"01,1,+00480,1,09,1",,"07,99,1,04,1,03,1,00450,1,07,1,00,1","0060,9","11,9","999,+0080,9","999,N,+0096,1","99999,9,09474,1","3,1,004,1,+999,9","60,1",,,"SYN124AAXX  15064 08272 11456 71109 10096 20088 39474 40078 53004 60072 760// 84370 333 20096 32008 50094 55010 70072 81916 86356;",
"08272099999","2010-04-15T09:00:00","4","39.8833333","-4.05","516.0","TOLEDO, SP","FM-12","99999","V020","110,1,N,0051,1","03600,1,C,N","010000,1,N,1","+0134,1","+0104,1","10081,1",,,,"6,1,03,1","6,1,03,1","01,1,+00480,1,09,1",,"06,99,1,03,1,03,1,00450,1,07,1,00,1",,,,,"99999,9,09485,1","2,1,011,1,+999,9","02,1",,,"SYN088AAXX  15094 08272 41460 61110 10134 20104 39485 40081 52011 70266 83370 333 81916 85356;",
"08272099999","2010-04-15T12:00:00","4","39.8833333","-4.05","516.0","TOLEDO, SP","FM-12","99999","V020","360,1,N,0041,1","00420,1,C,N","015000,1,N,1","+0155,1","+0121,1","10073,1","06,0000,2,1",,,"6,1,06,1","2,1,06,1","04,1,+00480,1,09,1",,"06,99,1,05,1,03,1,00450,1,07,1,00,1",,,,,"99999,9,09482,1","8,1,003,1,+999,9","80,1",,,"SYN088AAXX  15124 08272 11465 63608 10155 20121 39482 40073 58003 69911 78062 85370 333 84916;",
"08272099999","2010-04-15T15:00:00","4","39.8833333","-4.05","516.0","TOLEDO, SP","FM-12","99999","V020","080,1,N,0031,1","00420,1,C,N","030000,1,N,1","+0156,1","+0118,1","10070,1",,,,"8,1,03,1","2,1,03,1","03,1,+00480,1,09,1",,"07,99,1,07,1,09,1,00450,1,07,1,00,1",,,,,"99999,9,09479,1","6,1,003,1,+999,9","60,1",,,"SYN082AAXX  15154 08272 41480 70806 10156 20118 39479 40070 56003 76082 87970 333 83916;",
"08272099999","2010-04-15T18:00:00","4","39.8833333","-4.05","516.0","TOLEDO, SP","FM-12","99999","V020","040,1,N,0021,1","00750,1,C,N","040000,1,N,1","+0153,1","+0115,1","10073,1","12,0099,9,1",,,"8,1,06,1","2,1,06,1","03,1,+00900,1,09,1",,"07,99,1,05,1,09,1,00800,1,07,1,00,1",,,,"120,M,+0177,1","99999,9,09481,1","3,1,002,1,+999,9","03,1",,,"SYN100AAXX  15184 08272 11582 70404 10153 20115 39481 40073 53002 60102 70382 85970 333 10177 83930 84356;",
"08272099999","2010-04-16T06:00:00","4","39.8833333","-4.05","516.0","TOLEDO, SP","FM-12","99999","V020","090,1,N,0031,1","09000,1,9,N","003000,1,N,1","+0102,1","+0096,1","10103,1","12,0010,9,1","24,0117,9,1",,,,,,"05,99,1,02,1,05,1,00800,1,07,1,01,1","0276,9","11,9","999,+0080,9","999,N,+0102,1","99999,9,09499,1","5,1,005,1,+999,9","10,1",,,"SYN112AAXX  16064 08272 11530 50906 10102 20096 39499 40103 55005 60012 710// 82571 333 20102 32008 50114 55046 70118;",
"08272099999","2010-04-16T09:00:00","4","39.8833333","-4.05","516.0","TOLEDO, SP","FM-12","99999","V020","100,1,N,0051,1","03600,1,9,N","005000,1,N,1","+0121,1","+0102,1","10115,1",,,,"2,1,03,1","2,1,03,1",,,"07,99,1,04,1,02,1,00800,1,08,1,00,1",,,,,"99999,9,09514,1","2,1,015,1,+999,9","10,1",,,"SYN072AAXX  16094 08272 41550 71010 10121 20102 39514 40115 52015 71022 84280;",
"08272099999","2010-04-16T12:00:00","4","39.8833333","-4.05","516.0","TOLEDO, SP","FM-12","99999","V020","050,1,N,0031,1","00690,1,9,N","003000,1,N,1","+0139,1","+0123,1","10104,1","06,0010,9,1",,,"8,1,06,1","4,1,06,1","07,1,+00690,1,09,1",,"08,99,1,07,1,09,1,00800,1,06,1,00,1",,,,,"99999,9,09508,1","8,1,006,1,+999,9","17,1",,,"SYN088AAXX  16124 08272 11530 80506 10139 20123 39508 40104 58006 60011 71784 87960 333 87923;",
"08272099999","2010-04-16T15:00:00","4","39.8833333","-4.05","516.0","TOLEDO, SP","FM-12","99999","V020","110,1,N,0041,1","03600,1,C,N","040000,1,N,1","+0129,1","+0106,1","10108,1",,,,"9,1,03,1","8,1,03,1","04,1,+00780,1,09,1",,"08,99,1,04,1,09,1,00800,1,06,1,08,1",,,,,"99999,9,09509,1","3,1,001,1,+999,9","96,1",,,"SYN088AAXX  16154 08272 41582 81108 10129 20106 39509 40108 53001 79698 84968 333 84926 84276;",
"08272099999","2010-04-16T18:00:00","4","39.8833333","-4.05","516.0","TOLEDO, SP","FM-12","99999","V020","110,1,N,0041,1","03600,1,9,N","050000,1,N,1","+0151,1","+0099,1","10104,1","12,0079,9,1",,,"9,1,06,1","8,1,06,1",,,"07,99,1,02,1,02,1,00800,1,08,1,08,1",,,,"999,M,+0172,1","99999,9,09510,1","2,1,001,1,+999,9","02,1",,,"SYN088AAXX  16184 08272 11584 71108 10151 20099 39510 40104 52001 60082 70298 82288 333 10172;",
"08272099999","2010-04-19T06:00:00","4","39.8833333","-4.05","516.0","TOLEDO, SP","FM-12","99999","V020","090,1,N,0005,1","22000,1,9,N","000800,1,N,1","+0086,1","+0082,1","10181,1","12,0020,9,1","24,0079,9,1",,,,,,"01,99,1,01,1,00,1,02250,1,03,1,00,1","0144,9","09,9","999,+0050,9","999,N,+0084,1","99999,9,09569,1","3,1,003,1,+999,9","41,1",,,"SYN106AAXX  19064 08272 11808 10901 10086 20082 39569 40181 53003 60022 741// 81030 333 20084 31005 55024 70080;",
"08272099999","2010-04-19T09:00:00","4","39.8833333","-4.05","516.0","TOLEDO, SP","FM-12","99999","V020","300,1,N,0031,1","03600,1,9,N","040000,1,N,1","+0132,1","+0072,1","10191,1",,,,"4,1,03,1","1,1,03,1",,,"05,99,1,04,1,02,1,00800,1,03,1,00,1",,,,,"99999,9,09587,1","3,1,018,1,+999,9","02,1",,,"SYN072AAXX  19094 08272 41582 53006 10132 20072 39587 40191 53018 70241 84230;",
"08272099999","2010-04-19T12:00:00","4","39.8833333","-4.05","516.0","TOLEDO, SP","FM-12","99999","V020","270,1,N,0036,1","03600,1,9,N","035000,1,N,1","+0176,1","+0095,1","10183,1","06,0000,9,1",,,,,,,"05,99,1,03,1,02,1,00800,1,03,1,00,1",,,,,"99999,9,09589,1","1,1,002,1,+999,9",,,,"SYN072AAXX  19124 08272 12581 52707 10176 20095 39589 40183 51002 60001 83230;","Q01  00002PRCP06"
"08272099999","2010-04-19T15:00:00","4","39.8833333","-4.05","516.0","TOLEDO, SP","FM-12","99999","V020","280,1,N,0026,1","03600,1,9,N","040000,1,N,1","+0192,1","+0094,1","10168,1",,,,,,,,"05,99,1,04,1,02,1,00800,1,03,1,01,1",,,,,"99999,9,09578,1","7,1,011,1,+999,9",,,,"SYN066AAXX  19154 08272 42582 52805 10192 20094 39578 40168 57011 84231;",
"08272099999","2010-04-19T18:00:00","4","39.8833333","-4.05","516.0","TOLEDO, SP","FM-12","99999","V020","210,1,N,0015,1","22000,1,9,N","040000,1,N,1","+0185,1","+0085,1","10163,1","12,0000,9,1",,,,,,,"02,99,1,01,1,04,1,00800,1,00,1,05,1",,,,"999,M,+0204,1","99999,9,09572,1","6,1,006,1,+999,9",,,,"SYN082AAXX  19184 08272 12582 22103 10185 20085 39572 40163 56006 60002 81405 333 10204;","Q01  00002PRCP12"
"08272099999","2010-04-20T06:00:00","4","39.8833333","-4.05","516.0","TOLEDO, SP","FM-12","99999","V020","090,1,N,0067,1","99999,9,9,N","018000,1,N,1","+0094,1","+0080,1","10189,1","12,0000,9,1","24,0000,9,1",,,,,,"08,99,1,00,1,00,1,99999,9,00,1,07,1","0738,9","09,9","999,+0070,9","999,N,+0094,1","99999,9,09578,1","3,1,003,1,+999,9","02,1",,,"SYN112AAXX  20064 08272 11968 80913 10094 20080 39578 40189 53003 60002 702// 80007 333 20094 31007 50184 55123 70000;","Q01  00002PRCP24Q02  00002PRCP12"
"08272099999","2010-04-20T09:00:00","4","39.8833333","-4.05","516.0","TOLEDO, SP","FM-12","99999","V020","110,1,N,0031,1","09000,1,9,N","016000,1,N,1","+0140,1","+0096,1","10182,1",,,,,,,,"08,99,1,01,1,01,1,00800,1,00,1,07,1",,,,,"99999,9,09581,1","1,1,003,1,+999,9",,,,"SYN066AAXX  20094 08272 42566 81106 10140 20096 39581 40182 51003 81107;",
"08272099999","2010-04-20T12:00:00","4","39.8833333","-4.05","516.0","TOLEDO, SP","FM-12","99999","V020","110,1,N,0026,1","09000,1,9,N","040000,1,N,1","+0196,1","+0100,1","10165,1","06,0000,9,1",,,,,,,"08,99,1,02,1,01,1,00800,1,00,1,07,1",,,,,"99999,9,09576,1","8,1,005,1,+999,9",,,,"SYN072AAXX  20124 08272 12582 81105 10196 20100 39576 40165 58005 60001 82107;","Q01  00002PRCP06"
"08272099999","2010-04-20T15:00:00","4","39.8833333","-4.05","516.0","TOLEDO, SP","FM-12","99999","V020","060,1,N,0021,1","03600,1,9,N","040000,1,N,1","+0211,1","+0094,1","10149,1",,,,,,,,"07,99,1,01,1,01,1,00800,1,07,1,08,1",,,,,"99999,9,09564,1","7,1,012,1,+999,9",,,,"SYN066AAXX  20154 08272 42582 70604 10211 20094 39564 40149 57012 81178;",
"08272099999","2010-04-20T18:00:00","4","39.8833333","-4.05","516.0","TOLEDO, SP","FM-12","99999","V020","060,1,N,0026,1","09000,1,9,N","040000,1,N,1","+0198,1","+0091,1","10150,1","12,0000,9,1",,,,,,,"05,99,1,01,1,02,1,00800,1,03,1,01,1",,,,"999,M,+0220,1","99999,9,09562,1","6,1,002,1,+999,9",,,,"SYN082AAXX  20184 08272 12582 50605 10198 20091 39562 40150 56002 60002 81231 333 10220;","Q01  00002PRCP12"
"08272099999","2010-04-21T06:00:00","4","39.8833333","-4.05","516.0","TOLEDO, SP","FM-12","99999","V020","100,1,N,0036,1","09000,1,9,N","018000,1,N,1","+0115,1","+0087,1","10151,1","12,0000,9,1","24,0000,9,1",,,,,,"07,99,1,02,1,00,1,02250,1,08,1,08,1","0432,9","09,9","999,+0080,9","999,N,+0115,1","99999,9,09547,1","6,1,007,1,+999,9","02,1",,,"SYN112AAXX  21064 08272 11868 71007 10115 20087 39547 40151 56007 60002 702// 82088 333 20115 31008 50224 55072 70000;","Q01  00002PRCP24Q02  00002PRCP12"
"08272099999","2010-04-21T09:00:00","4","39.8833333","-4.05","516.0","TOLEDO, SP","FM-12","99999","V020","100,1,N,0041,1","09000,1,9,N","015000,1,N,1","+0149,1","+0099,1","10143,1",,,,,,,,"08,99,1,02,1,00,1,01750,1,08,1,07,1",,,,,"99999,9,09546,1","8,1,001,1,+999,9",,,,"SYN066AAXX  21094 08272 42765 81008 10149 20099 39546 40143 58001 82087;",
"08272099999","2010-04-21T12:00:00","4","39.8833333","-4.05","516.0","TOLEDO, SP","FM-12","99999","V020","090,1,N,0051,1","09000,1,9,N","020000,1,N,1","+0214,1","+0123,1","10114,1","06,0000,9,1",,,,,,,"05,99,1,01,1,01,1,00800,1,08,1,08,1",,,,,"99999,9,09532,1","8,1,014,1,+999,9",,,,"SYN072AAXX  21124 08272 12570 50910 10214 20123 39532 40114 58014 60001 81188;","Q01  00002PRCP06"
"08272099999","2010-04-21T15:00:00","4","39.8833333","-4.05","516.0","TOLEDO, SP","FM-12","99999","V020","100,1,N,0021,1","03600,1,9,N","030000,1,N,1","+0220,1","+0108,1","10097,1",,,,,,,,"07,99,1,03,1,08,1,00800,1,07,1,08,1",,,,,"99999,9,09517,1","7,1,015,1,+999,9",,,,"SYN066AAXX  21154 08272 42580 71004 10220 20108 39517 40097 57015 83878;",
"08272099999","2010-04-21T18:00:00","4","39.8833333","-4.05","516.0","TOLEDO, SP","FM-12","99999","V020","120,1,N,0026,1","03600,1,9,N","015000,1,N,1","+0176,1","+0147,1","10103,1","12,0005,9,1",,,"8,1,06,1","2,1,06,1","02,1,+00390,1,09,1",,"06,99,1,04,1,09,1,00450,1,07,1,03,1",,,,"120,M,+0240,1","99999,9,09515,1","5,1,002,1,+999,9","25,1",,,"SYN094AAXX  21184 08272 11465 61205 10176 20147 39515 40103 55002 69962 72582 84973 333 10240 82913;",
"08272099999","2010-04-22T06:00:00","4","39.8833333","-4.05","516.0","TOLEDO, SP","FM-12","99999","V020","260,1,N,0026,1","03600,1,9,N","015000,1,N,1","+0138,1","+0104,1","10097,1","12,0000,2,1","24,0005,9,1",,,,,,"06,99,1,03,1,08,1,00800,1,07,1,08,1","0318,9","01,9","999,+0110,9","999,N,+0138,1","99999,9,09501,1","6,1,004,1,+999,9","02,1",,,"SYN112AAXX  22064 08272 11565 62605 10138 20104 39501 40097 56004 69902 702// 83878 333 20138 30011 50254 55053 70006;",
"08272099999","2010-04-22T09:00:00","4","39.8833333","-4.05","516.0","TOLEDO, SP","FM-12","99999","V020","300,1,N,0031,1","00750,1,9,N","030000,1,N,1","+0162,1","+0101,1","10092,1",,,,,,,,"06,99,1,05,1,02,1,00800,1,03,1,00,1",,,,,"99999,9,09501,1","0,1,000,1,+999,9",,,,"SYN066AAXX  22094 08272 42580 63006 10162 20101 39501 40092 50000 85230;",
"08272099999","2010-04-22T12:00:00","4","39.8833333","-4.05","516.0","TOLEDO, SP","FM-12","99999","V020","260,1,N,0036,1","09000,1,9,N","030000,1,N,1","+0200,1","+0096,1","10076,1","06,0000,9,1",,,,,,,"05,99,1,04,1,02,1,00800,1,00,1,03,1",,,,,"99999,9,09493,1","8,1,008,1,+999,9",,,,"SYN072AAXX  22124 08272 12580 52607 10200 20096 39493 40076 58008 60001 84203;","Q01  00002PRCP06"
"08272099999","2010-04-22T15:00:00","4","39.8833333","-4.05","516.0","TOLEDO, SP","FM-12","99999","V020","300,1,N,0062,1","00750,1,9,N","030000,1,N,1","+0197,1","+0096,1","10066,1",,,,,,,,"06,99,1,05,1,02,1,00800,1,06,1,03,1",,,,,"99999,9,09483,1","8,1,010,1,+999,9",,,,"SYN066AAXX  22154 08272 42580 63012 10197 20096 39483 40066 58010 85263;",
"08272099999","2010-04-22T18:00:00","4","39.8833333","-4.05","516.0","TOLEDO, SP","FM-12","99999","V020","280,1,N,0041,1","09000,1,9,N","040000,1,N,1","+0174,1","+0112,1","10078,1","12,0000,9,1",,,,,"01,1,+00480,1,09,1",,"05,99,1,02,1,03,1,00800,1,06,1,08,1",,,,"120,M,+0209,1","99999,9,09490,1","3,1,007,1,+999,9",,,,"SYN094AAXX  22184 08272 12582 52808 10174 20112 39490 40078 53007 60002 82368 333 10209 81916 83350;","Q01  00002PRCP12"
"08272099999","2010-04-23T06:00:00","4","39.8833333","-4.05","516.0","TOLEDO, SP","FM-12","99999","V020","320,1,N,0026,1","22000,1,9,N","040000,1,N,1","+0117,1","+0094,1","10118,1","12,0000,9,1","24,0000,9,1",,,,,,"03,99,1,02,1,05,1,01250,1,03,1,01,1","0570,9","09,9","999,+0070,9","999,N,+0111,1","99999,9,09516,1","3,1,006,1,+999,9","02,1",,,"SYN112AAXX  23064 08272 11682 33205 10117 20094 39516 40118 53006 60002 702// 82531 333 20111 31007 50264 55095 70000;","Q01  00002PRCP24Q02  00002PRCP12"
"08272099999","2010-04-23T09:00:00","4","39.8833333","-4.05","516.0","TOLEDO, SP","FM-12","99999","V020","310,1,N,0036,1","22000,1,9,N","040000,1,N,1","+0165,1","+0108,1","10117,1",,,,,,,,"02,99,1,02,1,02,1,00800,1,03,1,01,1",,,,,"99999,9,09525,1","2,1,009,1,+999,9",,,,"SYN066AAXX  23094 08272 42582 23107 10165 20108 39525 40117 52009 82231;",
"08272099999","2010-04-23T12:00:00","4","39.8833333","-4.05","516.0","TOLEDO, SP","FM-12","99999","V020","260,1,N,0031,1","00750,1,9,N","040000,1,N,1","+0196,1","+0100,1","10116,1","06,0000,9,1",,,,,,,"06,99,1,05,1,02,1,00800,1,03,1,01,1",,,,,"99999,9,09530,1","1,1,005,1,+999,9",,,,"SYN072AAXX  23124 08272 12582 62606 10196 20100 39530 40116 51005 60001 85231;","Q01  00002PRCP06"
"08272099999","2010-04-23T15:00:00","4","39.8833333","-4.05","516.0","TOLEDO, SP","FM-12","99999","V020","290,1,N,0041,1","03600,1,9,N","040000,1,N,1","+0225,1","+0096,1","10102,1",,,,,,"01,1,+00390,1,09,1",,"06,99,1,03,1,03,1,00800,1,07,1,02,1",,,,,"99999,9,09522,1","8,1,008,1,+999,9",,,,"SYN076AAXX  23154 08272 42582 62908 10225 20096 39522 40102 58008 83372 333 81913;",
"08272099999","2010-04-23T18:00:00","4","39.8833333","-4.05","516.0","TOLEDO, SP","FM-12","99999","V020","310,1,N,0036,1","22000,1,9,N","030000,1,N,1","+0205,1","+0100,1","10110,1","12,0000,9,1",,,,,"01,1,+00390,1,09,1",,"04,99,1,02,1,03,1,00800,1,06,1,03,1",,,,"120,M,+0234,1","99999,9,09526,1","3,1,004,1,+999,9",,,,"SYN088AAXX  23184 08272 12580 43107 10205 20100 39526 40110 53004 60002 82363 333 10234 81913;","Q01  00002PRCP12"
"08272099999","2010-04-26T06:00:00","4","39.8833333","-4.05","516.0","TOLEDO, SP","FM-12","99999","V020","120,1,N,0005,1","22000,1,9,N","040000,1,N,1","+0135,1","+0112,1","10249,1","12,0000,9,1","24,0000,9,1",,,,,,"01,99,1,00,1,00,1,99999,9,00,1,01,1","0678,9","01,9","999,+0100,9","999,N,+0134,1","99999,9,09643,1","3,1,010,1,+999,9","02,1",,,"SYN106AAXX  26064 08272 11982 11201 10135 20112 39643 40249 53010 60002 702// 80001 333 20134 30010 55113 70000;","Q01  00002PRCP24Q02  00002PRCP12"
"08272099999","2010-04-26T09:00:00","4","39.8833333","-4.05","516.0","TOLEDO, SP","FM-12","99999","V020","120,1,N,0031,1","22000,1,9,N","035000,1,N,1","+0200,1","+0132,1","10242,1",,,,,,,,"02,99,1,01,1,01,1,00800,1,00,1,01,1",,,,,"99999,9,09650,1","1,1,007,1,+999,9",,,,"SYN066AAXX  26094 08272 42581 21206 10200 20132 39650 40242 51007 81101;",
"08272099999","2010-04-26T12:00:00","4","39.8833333","-4.05","516.0","TOLEDO, SP","FM-12","99999","V020","110,1,N,0021,1","22000,1,9,N","040000,1,N,1","+0251,1","+0120,1","10229,1","06,0000,9,1",,,,,,,"03,99,1,02,1,02,1,00800,1,00,1,01,1",,,,,"99999,9,09647,1","8,1,003,1,+999,9",,,,"SYN072AAXX  26124 08272 12582 31104 10251 20120 39647 40229 58003 60001 82201;","Q01  00002PRCP06"
"08272099999","2010-04-26T15:00:00","4","39.8833333","-4.05","516.0","TOLEDO, SP","FM-12","99999","V020","280,1,N,0026,1","22000,1,9,N","040000,1,N,1","+0281,1","+0116,1","10203,1",,,,,,,,"05,99,1,02,1,02,1,00800,1,00,1,01,1",,,,,"99999,9,09628,1","8,1,019,1,+999,9",,,,"SYN066AAXX  26154 08272 42582 52805 10281 20116 39628 40203 58019 82201;",
"08272099999","2010-04-26T18:00:00","4","39.8833333","-4.05","516.0","TOLEDO, SP","FM-12","99999","V020","310,1,N,0010,1","22000,1,9,N","040000,1,N,1","+0273,1","+0113,1","10193,1","12,0000,9,1",,,,,,,"03,99,1,01,1,02,1,00800,1,00,1,01,1",,,,"999,M,+0283,1","99999,9,09617,1","6,1,011,1,+999,9",,,,"SYN082AAXX  26184 08272 12582 33102 10273 20113 39617 40193 56011 60002 81201 333 10283;","Q01  00002PRCP12"
"08272099999","2010-04-27T06:00:00","4","39.8833333","-4.05","516.0","TOLEDO, SP","FM-12","99999","V020","130,1,N,0015,1","22000,1,9,N","045000,1,N,1","+0141,1","+0111,1","10230,1","12,0000,9,1","24,0000,9,1",,,,,,"04,99,1,00,1,00,1,99999,9,00,1,01,1","0780,9","01,9","999,+0100,9","999,N,+0140,1","99999,9,09627,1","4,1,000,1,+999,9","02,1",,,"SYN112AAXX  27064 08272 11983 41303 10141 20111 39627 40230 54000 60002 702// 80001 333 20140 30010 50284 55130 70000;","Q01  00002PRCP24Q02  00002PRCP12"
"08272099999","2010-04-27T09:00:00","4","39.8833333","-4.05","516.0","TOLEDO, SP","FM-12","99999","V020","120,1,N,0031,1","22000,1,9,N","040000,1,N,1","+0207,1","+0132,1","10219,1",,,,,,,,"03,99,1,01,1,00,1,01750,1,08,1,01,1",,,,,"99999,9,09630,1","1,1,003,1,+999,9",,,,"SYN066AAXX  27094 08272 42782 31206 10207 20132 39630 40219 51003 81081;",
"08272099999","2010-04-27T12:00:00","4","39.8833333","-4.05","516.0","TOLEDO, SP","FM-12","99999","V020","010,1,N,0031,1","22000,1,9,N","045000,1,N,1","+0263,1","+0078,1","10202,1","06,0000,9,1",,,,,,,"03,99,1,01,1,01,1,00800,1,08,1,01,1",,,,,"99999,9,09623,1","8,1,007,1,+999,9",,,,"SYN072AAXX  27124 08272 12583 30106 10263 20078 39623 40202 58007 60001 81181;","Q01  00002PRCP06"
"08272099999","2010-04-27T15:00:00","4","39.8833333","-4.05","516.0","TOLEDO, SP","FM-12","99999","V020","350,1,N,0021,1","09000,1,9,N","040000,1,N,1","+0286,1","+0072,1","10180,1",,,,,,,,"06,99,1,01,1,01,1,00800,1,08,1,06,1",,,,,"99999,9,09607,1","8,1,016,1,+999,9",,,,"SYN066AAXX  27154 08272 42582 63504 10286 20072 39607 40180 58016 81186;",
"08272099999","2010-04-27T18:00:00","4","39.8833333","-4.05","516.0","TOLEDO, SP","FM-12","99999","V020","250,1,N,0010,1","09000,1,9,N","045000,1,N,1","+0272,1","+0086,1","10175,1","12,0000,9,1",,,,,,,"07,99,1,03,1,00,1,02250,1,03,1,06,1",,,,"999,M,+0291,1","99999,9,09600,1","6,1,007,1,+999,9",,,,"SYN082AAXX  27184 08272 12883 72502 10272 20086 39600 40175 56007 60002 83036 333 10291;","Q01  00002PRCP12"
"08272099999","2010-04-28T06:00:00","4","39.8833333","-4.05","516.0","TOLEDO, SP","FM-12","99999","V020","100,1,N,0041,1","22000,1,9,N","040000,1,N,1","+0161,1","+0102,1","10205,1","12,0000,9,1","24,0000,9,1",,,,,,"05,99,1,02,1,00,1,01750,1,06,1,01,1","0648,9","01,9","999,+0130,9","999,N,+0153,1","99999,9,09607,1","4,1,000,1,+999,9","02,1",,,"SYN112AAXX  28064 08272 11782 51008 10161 20102 39607 40205 54000 60002 702// 82061 333 20153 30013 50444 55108 70000;","Q01  00002PRCP24Q02  00002PRCP12"
"08272099999","2010-04-28T09:00:00","4","39.8833333","-4.05","516.0","TOLEDO, SP","FM-12","99999","V020","100,1,N,0057,1","99999,9,9,N","035000,1,N,1","+0201,1","+0111,1","10204,1",,,,,,,,"05,99,1,00,1,00,1,99999,9,00,1,09,1",,,,,"99999,9,09614,1","3,1,007,1,+999,9",,,,"SYN066AAXX  28094 08272 42981 51011 10201 20111 39614 40204 53007 80009;",
"08272099999","2010-04-28T15:00:00","4","39.8833333","-4.05","516.0","TOLEDO, SP","FM-12","99999","V020","060,1,N,0021,1","09000,1,9,N","035000,1,N,1","+0296,1","+0129,1","10156,1",,,,,,,,"07,99,1,03,1,04,1,01250,1,00,1,06,1",,,,,"99999,9,09587,1","8,1,021,1,+999,9",,,,"SYN066AAXX  28154 08272 42681 70604 10296 20129 39587 40156 58021 83406;",
"08272099999","2010-04-28T18:00:00","4","39.8833333","-4.05","516.0","TOLEDO, SP","FM-12","99999","V020","200,1,N,0031,1","09000,1,9,N","040000,1,N,1","+0275,1","+0084,1","10148,1","12,0000,9,1",,,,,,,"07,99,1,03,1,04,1,01250,1,00,1,06,1",,,,"999,M,+0299,1","99999,9,09575,1","7,1,012,1,+999,9",,,,"SYN082AAXX  28184 08272 12682 72006 10275 20084 39575 40148 57012 60002 83406 333 10299;","Q01  00002PRCP12"
"08272099999","2010-04-29T06:00:00","4","39.8833333","-4.05","516.0","TOLEDO, SP","FM-12","99999","V020","090,1,N,0015,1","09000,1,9,N","040000,1,N,1","+0141,1","+0103,1","10177,1","12,0000,9,1","24,0000,9,1",,,,,,"07,99,1,03,1,00,1,01750,1,03,1,08,1","0726,9","01,9","999,+0100,9","999,N,+0138,1","99999,9,09577,1","3,1,004,1,+999,9","02,1",,,"SYN112AAXX  29064 08272 11782 70903 10141 20103 39577 40177 53004 60002 702// 83038 333 20138 30010 50504 55121 70000;","Q01  00002PRCP24Q02  00002PRCP12"
"08272099999","2010-04-29T09:00:00","4","39.8833333","-4.05","516.0","TOLEDO, SP","FM-12","99999","V020","160,1,N,0010,1","09000,1,9,N","040000,1,N,1","+0204,1","+0108,1","10169,1",,,,,,,,"07,99,1,02,1,00,1,01750,1,08,1,08,1",,,,,"99999,9,09582,1","1,1,005,1,+999,9",,,,"SYN066AAXX  29094 08272 42782 71602 10204 20108 39582 40169 51005 82088;",
"08272099999","2010-04-29T12:00:00","4","39.8833333","-4.05","516.0","TOLEDO, SP","FM-12","99999","V020","330,1,N,0026,1","22000,1,9,N","040000,1,N,1","+0250,1","+0101,1","10149,1","06,0000,9,1",,,,,,,"05,99,1,01,1,01,1,00800,1,00,1,08,1",,,,,"99999,9,09571,1","8,1,011,1,+999,9",,,,"SYN072AAXX  29124 08272 12582 53305 10250 20101 39571 40149 58011 60001 81108;","Q01  00002PRCP06"
"08272099999","2010-04-29T15:00:00","4","39.8833333","-4.05","516.0","TOLEDO, SP","FM-12","99999","V020","270,1,N,0041,1","09000,1,9,N","040000,1,N,1","+0267,1","+0100,1","10126,1",,,,,,,,"07,99,1,02,1,04,1,00800,1,00,1,08,1",,,,,"99999,9,09553,1","8,1,018,1,+999,9",,,,"SYN066AAXX  29154 08272 42582 72708 10267 20100 39553 40126 58018 82408;",
"08272099999","2010-04-29T18:00:00","4","39.8833333","-4.05","516.0","TOLEDO, SP","FM-12","99999","V020","300,1,N,0062,1","09000,1,C,N","040000,1,N,1","+0246,1","+0119,1","10119,1","12,0000,9,1",,,,,"01,1,+00900,1,09,1",,"05,99,1,01,1,09,1,00800,1,06,1,02,1",,,,"120,M,+0275,1","99999,9,09543,1","6,1,010,1,+999,9",,,,"SYN094AAXX  29184 08272 12582 53012 10246 20119 39543 40119 56010 60002 81962 333 10275 81930 84070;","Q01  00002PRCP12"
"08272099999","2010-04-30T06:00:00","4","39.8833333","-4.05","516.0","TOLEDO, SP","FM-12","99999","V020","999,9,C,0000,1","22000,1,9,N","030000,1,N,1","+0159,1","+0132,1","10136,1","12,0000,9,1","24,0000,9,1",,,,,,"03,99,1,01,1,02,1,00450,1,08,1,01,1","0630,9","01,9","999,+0120,9","999,N,+0157,1","99999,9,09542,1","6,1,003,1,+999,9","02,1",,,"SYN112AAXX  30064 08272 11480 30000 10159 20132 39542 40136 56003 60002 702// 81281 333 20157 30012 50394 55105 70000;","Q01  00002PRCP24Q02  00002PRCP12"
"08272099999","2010-04-30T09:00:00","4","39.8833333","-4.05","516.0","TOLEDO, SP","FM-12","99999","V020","350,1,N,0015,1","03600,1,9,N","030000,1,N,1","+0201,1","+0145,1","10129,1",,,,,,,,"07,99,1,02,1,02,1,00800,1,03,1,08,1",,,,,"99999,9,09544,1","0,1,002,1,+999,9",,,,"SYN066AAXX  30094 08272 42580 73503 10201 20145 39544 40129 50002 82238;",
"08272099999","2010-04-30T12:00:00","4","39.8833333","-4.05","516.0","TOLEDO, SP","FM-12","99999","V020","240,1,N,0026,1","00750,1,9,N","035000,1,N,1","+0243,1","+0135,1","10109,1","06,0000,9,1",,,,,,,"07,99,1,06,1,02,1,00800,1,00,1,08,1",,,,,"99999,9,09533,1","8,1,011,1,+999,9",,,,"SYN072AAXX  30124 08272 12581 72405 10243 20135 39533 40109 58011 60001 86208;","Q01  00002PRCP06"
"08272099999","2010-04-30T15:00:00","4","39.8833333","-4.05","516.0","TOLEDO, SP","FM-12","99999","V020","280,1,N,0057,1","00750,1,9,N","040000,1,N,1","+0239,1","+0112,1","10091,1",,,,,,,,"07,99,1,05,1,02,1,00800,1,00,1,08,1",,,,,"99999,9,09515,1","7,1,018,1,+999,9",,,,"SYN066AAXX  30154 08272 42582 72811 10239 20112 39515 40091 57018 85208;",
"08272099999","2010-04-30T18:00:00","4","39.8833333","-4.05","516.0","TOLEDO, SP","FM-12","99999","V020","290,1,N,0067,1","09000,1,9,N","040000,1,N,1","+0226,1","+0107,1","10088,1","12,0000,9,1",,,,,,,"05,99,1,02,1,04,1,00800,1,06,1,08,1",,,,"999,M,+0254,1","99999,9,09509,1","6,1,006,1,+999,9",,,,"SYN082AAXX  30184 08272 12582 52913 10226 20107 39509 40088 56006 60002 82468 333 10254;","Q01  00002PRCP12"
"08272099999","2010-05-03T06:00:00","4","39.8833333","-4.05","516.0","TOLEDO, SP","FM-12","99999","V020","080,1,N,0051,1","00750,1,9,N","015000,1,N,1","+0096,1","+0038,1","10119,1","12,9999,9,9","24,9999,9,9",,,,,,"07,99,1,06,1,07,1,00800,1,07,1,99,9",,,,"999,N,+0095,1","99999,9,09512,1","3,1,017,1,+999,9","60,1",,,"SYN100AAXX  03064 08272 11565 70810 10096 20038 39512 40119 53017 69902 760// 8677/ 333 20095 55/// 79999;","Q01  00002PRCP24Q02  00002PRCP12Q03  00002PRCP12Q04  00002PRCP24"
"08272099999","2010-05-03T09:00:00","4","39.8833333","-4.05","516.0","TOLEDO, SP","FM-12","99999","V020","350,1,N,0026,1","00750,1,9,N","030000,1,N,1","+0116,1","+0041,1","10130,1",,,,"6,1,03,1","2,1,03,1",,,"06,99,1,06,1,02,1,00800,1,07,1,00,1",,,,,"99999,9,09526,1","1,1,014,1,+999,9","02,1",,,"SYN072AAXX  03094 08272 41580 63505 10116 20041 39526 40130 51014 70262 86270;",
"08272099999","2010-05-03T12:00:00","4","39.8833333","-4.05","516.0","TOLEDO, SP","FM-12","99999","V020","350,1,N,0093,1","03600,1,9,N","040000,1,N,1","+0150,1","-0003,1","10121,1","06,0000,2,1",,,"8,1,06,1","2,1,06,1",,,"05,99,1,04,1,02,1,00800,1,06,1,02,1",,,,,"99999,9,09524,1","6,1,002,1,+999,9","02,1",,,"SYN078AAXX  03124 08272 11582 53518 10150 21003 39524 40121 56002 69921 70282 84262;",
"08272099999","2010-05-03T15:00:00","4","39.8833333","-4.05","516.0","TOLEDO, SP","FM-12","99999","V020","340,1,N,0113,1","00750,1,9,N","040000,1,N,1","+0158,1","+0015,1","10112,1",,,,,,,,"06,99,1,05,1,02,1,00800,1,06,1,02,1",,,,,"99999,9,09518,1","6,1,006,1,+999,9",,,,"SYN066AAXX  03154 08272 42582 63422 10158 20015 39518 40112 56006 85262;",
"08272099999","2010-05-03T18:00:00","4","39.8833333","-4.05","516.0","TOLEDO, SP","FM-12","99999","V020","350,1,N,0077,1","03600,1,C,N","050000,1,N,1","+0117,1","+0005,1","10130,1","12,0000,2,1",,,,,"03,1,+00390,1,09,1",,"07,99,1,03,1,03,1,00450,1,07,1,99,9",,,,"120,M,+0169,1","99999,9,09526,1","1,1,008,1,+999,9",,,,"SYN094AAXX  03184 08272 12484 73515 10117 20005 39526 40130 51008 69922 8337/ 333 10169 83913 83450;",
"08272099999","2010-05-04T06:00:00","4","39.8833333","-4.05","516.0","TOLEDO, SP","FM-12","99999","V020","360,1,N,0046,1","22000,1,9,N","050000,1,N,1","+0055,1","-0016,1","10147,1","12,0000,9,1","24,0003,9,1",,,,,,"02,99,1,02,1,04,1,00800,1,03,1,01,1","0348,9","01,9","999,-0010,9","999,N,+0046,1","99999,9,09529,1","6,1,008,1,+999,9","02,1",,,"SYN112AAXX  04064 08272 11584 23609 10055 21016 39529 40147 56008 60002 702// 82431 333 20046 30101 50524 55058 70002;","Q01  00002PRCP12"
"08272099999","2010-05-04T09:00:00","4","39.8833333","-4.05","516.0","TOLEDO, SP","FM-12","99999","V020","330,1,N,0098,1","00750,1,9,N","040000,1,N,1","+0093,1","-0026,1","10132,1",,,,,,,,"05,99,1,05,1,02,1,00800,1,03,1,00,1",,,,,"99999,9,09523,1","8,1,006,1,+999,9",,,,"SYN066AAXX  04094 08272 42582 53319 10093 21026 39523 40132 58006 85230;",
"08272099999","2010-05-04T12:00:00","4","39.8833333","-4.05","516.0","TOLEDO, SP","FM-12","99999","V020","360,1,N,0108,1","03600,1,9,N","040000,1,N,1","+0129,1","-0047,1","10122,1","06,0000,9,1",,,,,,,"05,99,1,03,1,02,1,00800,1,04,1,01,1",,,,,"99999,9,09521,1","6,1,002,1,+999,9",,,,"SYN072AAXX  04124 08272 12582 53621 10129 21047 39521 40122 56002 60001 83241;","Q01  00002PRCP06"
"08272099999","2010-05-04T18:00:00","4","39.8833333","-4.05","516.0","TOLEDO, SP","FM-12","99999","V020","360,1,N,0082,1","22000,1,9,N","040000,1,N,1","+0124,1","-0056,1","10129,1","12,0000,9,1",,,,,,,"03,99,1,01,1,04,1,00800,1,04,1,02,1",,,,"999,M,+0153,1","99999,9,09526,1","2,1,005,1,+999,9",,,,"SYN082AAXX  04184 08272 12582 33616 10124 21056 39526 40129 52005 60002 81442 333 10153;","Q01  00002PRCP12"
"08272099999","2010-05-05T06:00:00","4","39.8833333","-4.05","516.0","TOLEDO, SP","FM-12","99999","V020","330,1,N,0051,1","22000,1,9,N","040000,1,N,1","+0063,1","-0028,1","10161,1","12,0000,9,1","24,0000,9,1",,,,,,"02,99,1,01,1,04,1,00800,1,03,1,01,1","0720,9","01,9","999,+0000,9","999,N,+0045,1","99999,9,09544,1","6,1,003,1,+999,9","02,1",,,"SYN112AAXX  05064 08272 11582 23310 10063 21028 39544 40161 56003 60002 702// 81431 333 20045 30000 50604 55120 70000;","Q01  00002PRCP24Q02  00002PRCP12"
"08272099999","2010-05-05T12:00:00","4","39.8833333","-4.05","516.0","TOLEDO, SP","FM-12","99999","V020","310,1,N,0031,1","22000,1,9,N","040000,1,N,1","+0144,1","-0001,1","10125,1","06,0000,9,1",,,,,,,"04,99,1,04,1,01,1,00800,1,00,1,00,1",,,,,"99999,9,09527,1","7,1,011,1,+999,9",,,,"SYN072AAXX  05124 08272 12582 43106 10144 21001 39527 40125 57011 60001 84100;","Q01  00002PRCP06"
"08272099999","2010-05-05T15:00:00","4","39.8833333","-4.05","516.0","TOLEDO, SP","FM-12","99999","V020","310,1,N,0062,1","22000,1,9,N","040000,1,N,1","+0164,1","-0012,1","10108,1",,,,,,,,"02,99,1,02,1,01,1,01250,1,00,1,00,1",,,,,"99999,9,09515,1","7,1,012,1,+999,9",,,,"SYN066AAXX  05154 08272 42682 23112 10164 21012 39515 40108 57012 82100;",
"08272099999","2010-05-05T18:00:00","4","39.8833333","-4.05","516.0","TOLEDO, SP","FM-12","99999","V020","330,1,N,0067,1","22000,1,9,N","050000,1,N,1","+0158,1","-0031,1","10107,1","12,0000,9,1",,,,,,,"01,99,1,01,1,04,1,01250,1,06,1,00,1",,,,"999,M,+0169,1","99999,9,09512,1","5,1,003,1,+999,9",,,,"SYN082AAXX  05184 08272 12684 13313 10158 21031 39512 40107 55003 60002 81460 333 10169;","Q01  00002PRCP12"
"08272099999","2010-05-06T06:00:00","4","39.8833333","-4.05","516.0","TOLEDO, SP","FM-12","99999","V020","090,1,N,0021,1","22000,1,9,N","040000,1,N,1","+0048,1","-0010,1","10140,1","12,0000,9,1","24,0000,9,1",,,,"00,1,+99999,9,99,9",,"00,99,1,00,1,00,1,99999,9,00,1,00,1","0810,9","01,9","999,-0010,9","999,N,+0035,1","99999,9,09521,1","5,1,001,1,+999,9","00,1",,,"SYN106AAXX  06064 08272 11982 00904 10048 21010 39521 40140 55001 60002 700// 333 20035 30101 50464 55135 70000;","Q01  00002PRCP24Q02  00002PRCP12"
"08272099999","2010-05-06T09:00:00","4","39.8833333","-4.05","516.0","TOLEDO, SP","FM-12","99999","V020","110,1,N,0031,1","22000,1,9,N","040000,1,N,1","+0118,1","-0010,1","10125,1",,,,,,,,"02,99,1,00,1,00,1,99999,9,00,1,04,1",,,,,"99999,9,09521,1","4,1,000,1,+999,9",,,,"SYN066AAXX  06094 08272 42982 21106 10118 21010 39521 40125 54000 80004;",
"08272099999","2010-05-06T12:00:00","4","39.8833333","-4.05","516.0","TOLEDO, SP","FM-12","99999","V020","330,1,N,0031,1","22000,1,9,N","040000,1,N,1","+0156,1","+0006,1","10098,1","06,0000,9,1",,,,,,,"04,99,1,01,1,01,1,00800,1,00,1,04,1",,,,,"99999,9,09504,1","7,1,017,1,+999,9",,,,"SYN072AAXX  06124 08272 12582 43306 10156 20006 39504 40098 57017 60001 81104;","Q01  00002PRCP06"
"08272099999","2010-05-06T15:00:00","4","39.8833333","-4.05","516.0","TOLEDO, SP","FM-12","99999","V020","290,1,N,0021,1","09000,1,9,N","040000,1,N,1","+0186,1","+0020,1","10067,1",,,,,,,,"05,99,1,01,1,01,1,00800,1,00,1,05,1",,,,,"99999,9,09481,1","7,1,023,1,+999,9",,,,"SYN066AAXX  06154 08272 42582 52904 10186 20020 39481 40067 57023 81105;",
"08272099999","2010-05-06T18:00:00","4","39.8833333","-4.05","516.0","TOLEDO, SP","FM-12","99999","V020","290,1,N,0041,1","09000,1,9,N","050000,1,N,1","+0194,1","+0023,1","10055,1","12,0000,9,1",,,,,,,"06,99,1,01,1,04,1,00800,1,00,1,05,1",,,,"999,M,+0201,1","99999,9,09471,1","6,1,010,1,+999,9",,,,"SYN082AAXX  06184 08272 12584 62908 10194 20023 39471 40055 56010 60002 81405 333 10201;","Q01  00002PRCP12"
"08272099999","2010-05-07T06:00:00","4","39.8833333","-4.05","516.0","TOLEDO, SP","FM-12","99999","V020","100,1,N,0015,1","03600,1,9,N","035000,1,N,1","+0090,1","+0042,1","10079,1","12,0000,9,1","24,0000,9,1",,,,,,"06,99,1,02,1,05,1,00800,1,07,1,08,1","0798,9","01,9","999,+0050,9","999,N,+0090,1","99999,9,09473,1","5,1,002,1,+999,9","02,1",,,"SYN112AAXX  07064 08272 11581 61003 10090 20042 39473 40079 55002 60002 702// 82578 333 20090 30005 50364 55133 70000;","Q01  00002PRCP24Q02  00002PRCP12"
"08272099999","2010-05-07T12:00:00","4","39.8833333","-4.05","516.0","TOLEDO, SP","FM-12","99999","V020","280,1,N,0057,1","03600,1,9,N","020000,1,N,1","+0172,1","+0042,1","10047,1","06,9999,9,9",,,"6,1,06,1","2,1,06,1",,,"08,99,1,03,1,02,1,00800,1,06,1,07,1",,,,,"99999,9,09459,1","7,1,009,1,+999,9","21,1",,,"SYN078AAXX  07124 08272 11570 82811 10172 20042 39459 40047 57009 69901 72162 83267;","Q01  00002PRCP06Q02  00002PRCP06"
"08272099999","2010-05-07T18:00:00","4","39.8833333","-4.05","516.0","TOLEDO, SP","FM-12","99999","V020","290,1,N,0082,1","03600,1,9,N","030000,1,N,1","+0179,1","+0026,1","10033,1","12,0000,2,1",,,,,,,"06,99,1,04,1,02,1,00800,1,06,1,01,1",,,,"999,M,+0194,1","99999,9,09447,1","5,1,003,1,+999,9",,,,"SYN082AAXX  07184 08272 12580 62916 10179 20026 39447 40033 55003 69902 84261 333 10194;",
"08272099999","2010-05-10T06:00:00","4","39.8833333","-4.05","516.0","TOLEDO, SP","FM-12","99999","V020","130,1,N,0010,1","03600,1,9,N","030000,1,N,1","+0113,1","+0105,1","10087,1","12,0051,9,1","24,0064,9,1",,,,,,"08,99,1,01,1,07,1,00025,1,07,1,00,1","0468,9","11,9","999,+0100,9","999,N,+0111,1","99999,9,09486,1","1,1,004,1,+999,9","21,1",,,"SYN106AAXX  10064 08272 11080 81302 10113 20105 39486 40087 51004 60052 721// 81770 333 20111 32010 55078 70064;",
"08272099999","2010-05-10T09:00:00","4","39.8833333","-4.05","516.0","TOLEDO, SP","FM-12","99999","V020","270,1,N,0026,1","03600,1,9,N","015000,1,N,1","+0115,1","+0098,1","10092,1",,,,"6,1,03,1","2,1,03,1",,,"08,99,1,01,1,07,1,00250,1,07,1,99,9",,,,,"99999,9,09491,1","2,1,005,1,+999,9","61,1",,,"SYN072AAXX  10094 08272 41365 82705 10115 20098 39491 40092 52005 76162 8177/;",
"08272099999","2010-05-10T12:00:00","4","39.8833333","-4.05","516.0","TOLEDO, SP","FM-12","99999","V020","250,1,N,0021,1","03600,1,9,N","020000,1,N,1","+0119,1","+0103,1","10088,1","06,0051,9,1",,,"6,1,06,1","2,1,06,1",,,"08,99,1,01,1,07,1,00250,1,07,1,08,1",,,,,"99999,9,09488,1","8,1,003,1,+999,9","21,1",,,"SYN078AAXX  10124 08272 11370 82504 10119 20103 39488 40088 58003 60051 72162 81778;",
"08272099999","2010-05-10T15:00:00","4","39.8833333","-4.05","516.0","TOLEDO, SP","FM-12","99999","V020","270,1,N,0041,1","00420,1,9,N","040000,1,N,1","+0153,1","+0097,1","10071,1",,,,"5,1,03,1","2,1,03,1",,,"07,99,1,07,1,02,1,00450,1,06,1,00,1",,,,,"99999,9,09479,1","8,1,009,1,+999,9","02,1",,,"SYN072AAXX  10154 08272 41482 72708 10153 20097 39479 40071 58009 70252 87260;",
"08272099999","2010-05-10T18:00:00","4","39.8833333","-4.05","516.0","TOLEDO, SP","FM-12","99999","V020","270,1,N,0067,1","00420,1,9,N","050000,1,N,1","+0159,1","+0061,1","10073,1","12,0051,9,1",,,"5,1,06,1","2,1,06,1",,,"06,99,1,06,1,04,1,00450,1,00,1,00,1",,,,"999,M,+0168,1","99999,9,09482,1","3,1,003,1,+999,9","02,1",,,"SYN088AAXX  10184 08272 11484 62713 10159 20061 39482 40073 53003 60052 70252 86400 333 10168;",
"08272099999","2010-05-11T06:00:00","4","39.8833333","-4.05","516.0","TOLEDO, SP","FM-12","99999","V020","100,1,N,0005,1","03600,1,9,N","045000,1,N,1","+0104,1","+0076,1","10088,1","12,0000,9,1","24,0046,9,1",,,,,,"06,99,1,04,1,05,1,00450,1,08,1,00,1","0258,9","09,9","999,+0060,9","999,N,+0094,1","99999,9,09485,1","5,1,000,1,+999,9","02,1",,,"SYN112AAXX  11064 08272 11483 61001 10104 20076 39485 40088 55000 60002 702// 84580 333 20094 31006 50154 55043 70046;","Q01  00002PRCP12"
"08272099999","2010-05-11T12:00:00","4","39.8833333","-4.05","516.0","TOLEDO, SP","FM-12","99999","V020","300,1,N,0021,1","03600,1,9,N","030000,1,N,1","+0124,1","+0100,1","10088,1","06,0010,9,1",,,"6,1,06,1","2,1,06,1",,,"07,99,1,02,1,02,1,00450,1,07,1,00,1",,,,,"99999,9,09489,1","0,1,003,1,+999,9","50,1",,,"SYN078AAXX  11124 08272 11480 73004 10124 20100 39489 40088 50003 69991 75062 82270;",
"08272099999","2010-05-11T18:00:00","4","39.8833333","-4.05","516.0","TOLEDO, SP","FM-12","99999","V020","270,1,N,0057,1","22000,1,9,N","050000,1,N,1","+0164,1","+0065,1","10064,1","12,0051,9,1",,,"9,1,06,1","8,1,06,1",,,"03,99,1,03,1,02,1,00800,1,06,1,00,1",,,,"999,M,+0168,1","99999,9,09474,1","7,1,002,1,+999,9","02,1",,,"SYN088AAXX  11184 08272 11584 32711 10164 20065 39474 40064 57002 60052 70298 83260 333 10168;",
"08272099999","2010-05-12T06:00:00","4","39.8833333","-4.05","516.0","TOLEDO, SP","FM-12","99999","V020","240,1,N,0031,1","03600,1,9,N","040000,1,N,1","+0103,1","+0072,1","10094,1","12,0000,9,1","24,0048,9,1",,,,,,"07,99,1,04,1,02,1,00450,1,07,1,00,1","0450,9","09,9","999,+0090,9","999,N,+0102,1","99999,9,09490,1","3,1,006,1,+999,9","02,1",,,"SYN112AAXX  12064 08272 11482 72406 10103 20072 39490 40094 53006 60002 702// 84270 333 20102 31009 50184 55075 70047;","Q01  00002PRCP12"
"08272099999","2010-05-12T09:00:00","4","39.8833333","-4.05","516.0","TOLEDO, SP","FM-12","99999","V020","260,1,N,0062,1","00750,1,C,N","050000,1,N,1","+0137,1","+0077,1","10094,1",,,,,,"01,1,+00900,1,09,1",,"07,99,1,07,1,09,1,00800,1,06,1,00,1",,,,,"99999,9,09497,1","2,1,007,1,+999,9",,,,"SYN076AAXX  12094 08272 42584 72612 10137 20077 39497 40094 52007 87960 333 81930;",
"08272099999","2010-05-12T12:00:00","4","39.8833333","-4.05","516.0","TOLEDO, SP","FM-12","99999","V020","280,1,N,0077,1","00750,1,9,N","050000,1,N,1","+0146,1","+0054,1","10092,1","06,0000,9,1",,,,,,,"07,99,1,06,1,02,1,00800,1,06,1,01,1",,,,,"99999,9,09497,1","4,1,000,1,+999,9",,,,"SYN072AAXX  12124 08272 12584 72815 10146 20054 39497 40092 54000 60001 86261;","Q01  00002PRCP06"
"08272099999","2010-05-12T15:00:00","4","39.8833333","-4.05","516.0","TOLEDO, SP","FM-12","99999","V020","270,1,N,0082,1","01200,1,9,N","050000,1,N,1","+0165,1","+0025,1","10089,1",,,,,,,,"07,99,1,05,1,02,1,01250,1,03,1,00,1",,,,,"99999,9,09497,1","4,1,000,1,+999,9",,,,"SYN066AAXX  12154 08272 42684 72716 10165 20025 39497 40089 54000 85230;",
"08272099999","2010-05-12T18:00:00","4","39.8833333","-4.05","516.0","TOLEDO, SP","FM-12","99999","V020","270,1,N,0072,1","03600,1,9,N","050000,1,N,1","+0147,1","+0032,1","10094,1","12,0000,9,1",,,,,,,"07,99,1,04,1,02,1,01250,1,07,1,00,1",,,,"999,M,+0173,1","99999,9,09499,1","3,1,002,1,+999,9",,,,"SYN082AAXX  12184 08272 12684 72714 10147 20032 39499 40094 53002 60002 84270 333 10173;","Q01  00002PRCP12"
"08272099999","2010-05-13T06:00:00","4","39.8833333","-4.05","516.0","TOLEDO, SP","FM-12","99999","V020","250,1,N,0010,1","22000,1,9,N","050000,1,N,1","+0066,1","+0044,1","10130,1","12,0000,9,1","24,0000,9,1",,,,,,"01,99,1,01,1,02,1,00800,1,03,1,00,1","0534,9","01,9","999,+0030,9","999,N,+0064,1","99999,9,09516,1","3,1,004,1,+999,9","02,1",,,"SYN112AAXX  13064 08272 11584 12502 10066 20044 39516 40130 53004 60002 702// 81230 333 20064 30003 50314 55089 70000;","Q01  00002PRCP24Q02  00002PRCP12"
"08272099999","2010-05-13T09:00:00","4","39.8833333","-4.05","516.0","TOLEDO, SP","FM-12","99999","V020","260,1,N,0062,1","00750,1,9,N","050000,1,N,1","+0119,1","+0039,1","10124,1",,,,,,,,"05,99,1,05,1,02,1,00800,1,03,1,00,1",,,,,"99999,9,09521,1","1,1,005,1,+999,9",,,,"SYN066AAXX  13094 08272 42584 52612 10119 20039 39521 40124 51005 85230;",
"08272099999","2010-05-13T12:00:00","4","39.8833333","-4.05","516.0","TOLEDO, SP","FM-12","99999","V020","260,1,N,0077,1","00750,1,9,N","050000,1,N,1","+0153,1","+0011,1","10107,1","06,0000,9,1",,,,,,,"05,99,1,05,1,02,1,00800,1,00,1,00,1",,,,,"99999,9,09512,1","8,1,009,1,+999,9",,,,"SYN072AAXX  13124 08272 12584 52615 10153 20011 39512 40107 58009 60001 85200;","Q01  00002PRCP06"
"08272099999","2010-05-13T15:00:00","4","39.8833333","-4.05","516.0","TOLEDO, SP","FM-12","99999","V020","320,1,N,0113,1","01200,1,9,N","050000,1,N,1","+0129,1","+0038,1","10108,1",,,,"2,1,03,1","2,1,03,1","03,1,+01200,1,09,1",,"07,99,1,07,1,09,1,01250,1,06,1,00,1",,,,,"99999,9,09508,1","6,1,004,1,+999,9","16,1",,,"SYN082AAXX  13154 08272 41684 73222 10129 20038 39508 40108 56004 71622 87960 333 83940;",
"08272099999","2010-05-13T18:00:00","4","39.8833333","-4.05","516.0","TOLEDO, SP","FM-12","99999","V020","350,1,N,0051,1","03600,1,9,N","050000,1,N,1","+0111,1","+0041,1","10117,1","12,0020,9,1",,,"8,1,06,1","2,1,06,1","03,1,+01200,1,09,1",,"07,99,1,04,1,09,1,01250,1,06,1,00,1",,,,"120,M,+0174,1","99999,9,09513,1","0,1,005,1,+999,9","02,1",,,"SYN094AAXX  13184 08272 11684 73510 10111 20041 39513 40117 50005 60022 70282 84960 333 10174 83940;",
"08272099999","2010-05-14T06:00:00","4","39.8833333","-4.05","516.0","TOLEDO, SP","FM-12","99999","V020","320,1,N,0026,1","03600,1,9,N","050000,1,N,1","+0061,1","+0024,1","10147,1","12,0008,9,1","24,0030,9,1",,,,,,"07,99,1,04,1,02,1,00800,1,08,1,01,1","0594,9","09,9","999,+0040,9","999,N,+0060,1","99999,9,09531,1","2,1,009,1,+999,9","02,1",,,"SYN112AAXX  14064 08272 11584 73205 10061 20024 39531 40147 52009 69982 702// 84281 333 20060 31004 50254 55099 70030;",
"08272099999","2010-05-14T09:00:00","4","39.8833333","-4.05","516.0","TOLEDO, SP","FM-12","99999","V020","330,1,N,0072,1","00750,1,9,N","045000,1,N,1","+0103,1","-0005,1","10151,1",,,,,,,,"05,99,1,05,1,02,1,00800,1,03,1,00,1",,,,,"99999,9,09543,1","1,1,012,1,+999,9",,,,"SYN066AAXX  14094 08272 42583 53314 10103 21005 39543 40151 51012 85230;",
"08272099999","2010-05-14T12:00:00","4","39.8833333","-4.05","516.0","TOLEDO, SP","FM-12","99999","V020","340,1,N,0067,1","00750,1,9,N","045000,1,N,1","+0137,1","-0003,1","10142,1","06,0000,9,1",,,,,,,"06,99,1,05,1,02,1,00800,1,04,1,01,1",,,,,"99999,9,09541,1","8,1,002,1,+999,9",,,,"SYN072AAXX  14124 08272 12583 63413 10137 21003 39541 40142 58002 60001 85241;","Q01  00002PRCP06"
"08272099999","2010-05-14T15:00:00","4","39.8833333","-4.05","516.0","TOLEDO, SP","FM-12","99999","V020","280,1,N,0072,1","00750,1,9,N","045000,1,N,1","+0146,1","+0018,1","10138,1",,,,"2,1,03,1","2,1,03,1",,,"08,99,1,06,1,04,1,00800,1,01,1,01,1",,,,,"99999,9,09540,1","8,1,001,1,+999,9","14,1",,,"SYN072AAXX  14154 08272 41583 82814 10146 20018 39540 40138 58001 71422 86411;",
"08272099999","2010-05-14T18:00:00","4","39.8833333","-4.05","516.0","TOLEDO, SP","FM-12","99999","V020","280,1,N,0087,1","03600,1,9,N","045000,1,N,1","+0125,1","+0052,1","10151,1","12,0000,9,1",,,,,,,"07,99,1,04,1,04,1,00800,1,08,1,00,1",,,,"999,M,+0151,1","99999,9,09548,1","3,1,008,1,+999,9",,,,"SYN082AAXX  14184 08272 12583 72817 10125 20052 39548 40151 53008 60002 84480 333 10151;","Q01  00002PRCP12"
"08272099999","2010-05-17T06:00:00","4","39.8833333","-4.05","516.0","TOLEDO, SP","FM-12","99999","V020","999,9,C,0000,1","22000,1,9,N","040000,1,N,1","+0088,1","+0048,1","10269,1","12,0000,9,1","24,0000,9,1",,,,"00,1,+99999,9,99,9",,"00,99,1,00,1,00,1,99999,9,00,1,00,1","0828,9","01,9","999,+0030,9","999,N,+0080,1","99999,9,09651,1","3,1,009,1,+999,9","00,1",,,"SYN100AAXX  17064 08272 11982 00000 10088 20048 39651 40269 53009 60002 700// 333 20080 30003 55138 70000;","Q01  00002PRCP24Q02  00002PRCP12"
"08272099999","2010-05-17T09:00:00","4","39.8833333","-4.05","516.0","TOLEDO, SP","FM-12","99999","V020","120,1,N,0031,1","22000,1,9,N","040000,1,N,1","+0160,1","+0044,1","10258,1",,,,,,"00,1,+99999,9,99,9",,"00,99,1,00,1,00,1,99999,9,00,1,00,1",,,,,"99999,9,09656,1","1,1,005,1,+999,9",,,,"SYN060AAXX  17094 08272 42982 01206 10160 20044 39656 40258 51005;",
"08272099999","2010-05-17T12:00:00","4","39.8833333","-4.05","516.0","TOLEDO, SP","FM-12","99999","V020","250,1,N,0015,1","22000,1,9,N","040000,1,N,1","+0208,1","+0040,1","10244,1","06,0000,9,1",,,,,"00,1,+99999,9,99,9",,"00,99,1,00,1,00,1,99999,9,00,1,00,1",,,,,"99999,9,09652,1","8,1,004,1,+999,9",,,,"SYN066AAXX  17124 08272 12982 02503 10208 20040 39652 40244 58004 60001;","Q01  00002PRCP06"
"08272099999","2010-05-17T15:00:00","4","39.8833333","-4.05","516.0","TOLEDO, SP","FM-12","99999","V020","320,1,N,0026,1","22000,1,9,N","040000,1,N,1","+0245,1","+0038,1","10216,1",,,,,,"00,1,+99999,9,99,9",,"00,99,1,00,1,00,1,99999,9,00,1,00,1",,,,,"99999,9,09633,1","8,1,019,1,+999,9",,,,"SYN060AAXX  17154 08272 42982 03205 10245 20038 39633 40216 58019;",
"08272099999","2010-05-17T18:00:00","4","39.8833333","-4.05","516.0","TOLEDO, SP","FM-12","99999","V020","020,1,N,0015,1","22000,1,9,N","040000,1,N,1","+0241,1","+0064,1","10208,1","12,0000,9,1",,,,,"00,1,+99999,9,99,9",,"00,99,1,00,1,00,1,99999,9,00,1,00,1",,,,"999,M,+0251,1","99999,9,09625,1","6,1,008,1,+999,9",,,,"SYN076AAXX  17184 08272 12982 00203 10241 20064 39625 40208 56008 60002 333 10251;","Q01  00002PRCP12"
"08272099999","2010-05-18T06:00:00","4","39.8833333","-4.05","516.0","TOLEDO, SP","FM-12","99999","V020","090,1,N,0021,1","22000,1,9,N","030000,1,N,1","+0112,1","+0063,1","10270,1","12,0000,9,1","24,0000,9,1",,,,,,"01,99,1,00,1,00,1,99999,9,00,1,01,1","0834,9","01,9","999,+0070,9","999,N,+0108,1","99999,9,09657,1","2,1,007,1,+999,9","02,1",,,"SYN112AAXX  18064 08272 11980 10904 10112 20063 39657 40270 52007 60002 702// 80001 333 20108 30007 50404 55139 70000;","Q01  00002PRCP24Q02  00002PRCP12"
"08272099999","2010-05-18T09:00:00","4","39.8833333","-4.05","516.0","TOLEDO, SP","FM-12","99999","V020","110,1,N,0031,1","22000,1,9,N","030000,1,N,1","+0180,1","+0088,1","10260,1",,,,,,,,"01,99,1,00,1,00,1,99999,9,00,1,01,1",,,,,"99999,9,09662,1","0,1,005,1,+999,9",,,,"SYN066AAXX  18094 08272 42980 11106 10180 20088 39662 40260 50005 80001;",
"08272099999","2010-05-18T12:00:00","4","39.8833333","-4.05","516.0","TOLEDO, SP","FM-12","99999","V020","150,1,N,0021,1","22000,1,9,N","030000,1,N,1","+0239,1","+0062,1","10237,1","06,0000,9,1",,,,,,,"01,99,1,00,1,00,1,99999,9,00,1,01,1",,,,,"99999,9,09652,1","8,1,010,1,+999,9",,,,"SYN072AAXX  18124 08272 12980 11504 10239 20062 39652 40237 58010 60001 80001;","Q01  00002PRCP06"
"08272099999","2010-05-18T15:00:00","4","39.8833333","-4.05","516.0","TOLEDO, SP","FM-12","99999","V020","220,1,N,0015,1","99999,9,9,N","035000,1,N,1","+0269,1","+0069,1","10215,1",,,,,,,,"05,99,1,00,1,00,1,99999,9,00,1,02,1",,,,,"99999,9,09637,1","7,1,015,1,+999,9",,,,"SYN066AAXX  18154 08272 42981 52203 10269 20069 39637 40215 57015 80002;",
"08272099999","2010-05-18T18:00:00","4","39.8833333","-4.05","516.0","TOLEDO, SP","FM-12","99999","V020","020,1,N,0021,1","99999,9,9,N","040000,1,N,1","+0262,1","+0057,1","10207,1","12,0000,9,1",,,,,,,"05,99,1,00,1,00,1,99999,9,00,1,01,1",,,,"999,M,+0275,1","99999,9,09628,1","6,1,009,1,+999,9",,,,"SYN082AAXX  18184 08272 12982 50204 10262 20057 39628 40207 56009 60002 80001 333 10275;","Q01  00002PRCP12"
"08272099999","2010-05-19T06:00:00","4","39.8833333","-4.05","516.0","TOLEDO, SP","FM-12","99999","V020","210,1,N,0005,1","22000,1,9,N","040000,1,N,1","+0121,1","+0068,1","10252,1","12,0000,9,1","24,0000,9,1",,,,,,"01,99,1,00,1,00,1,99999,9,00,1,01,1","0834,9","01,9","999,+0070,9","999,N,+0113,1","99999,9,09642,1","3,1,006,1,+999,9","02,1",,,"SYN112AAXX  19064 08272 11982 12101 10121 20068 39642 40252 53006 60002 702// 80001 333 20113 30007 50434 55139 70000;","Q01  00002PRCP24Q02  00002PRCP12"
"08272099999","2010-05-19T09:00:00","4","39.8833333","-4.05","516.0","TOLEDO, SP","FM-12","99999","V020","140,1,N,0021,1","22000,1,9,N","040000,1,N,1","+0200,1","+0056,1","10237,1",,,,,,,,"01,99,1,00,1,00,1,99999,9,00,1,01,1",,,,,"99999,9,09644,1","0,1,002,1,+999,9",,,,"SYN066AAXX  19094 08272 42982 11404 10200 20056 39644 40237 50002 80001;",
"08272099999","2010-05-19T12:00:00","4","39.8833333","-4.05","516.0","TOLEDO, SP","FM-12","99999","V020","020,1,N,0021,1","22000,1,9,N","040000,1,N,1","+0253,1","+0060,1","10211,1","06,0000,9,1",,,,,"00,1,+99999,9,99,9",,"00,99,1,00,1,00,1,99999,9,00,1,00,1",,,,,"99999,9,09630,1","8,1,014,1,+999,9",,,,"SYN066AAXX  19124 08272 12982 00204 10253 20060 39630 40211 58014 60001;","Q01  00002PRCP06"
"08272099999","2010-05-19T15:00:00","4","39.8833333","-4.05","516.0","TOLEDO, SP","FM-12","99999","V020","010,1,N,0031,1","22000,1,9,N","050000,1,N,1","+0279,1","+0066,1","10190,1",,,,,,,,"01,99,1,01,1,01,1,01250,1,00,1,00,1",,,,,"99999,9,09615,1","7,1,015,1,+999,9",,,,"SYN066AAXX  19154 08272 42684 10106 10279 20066 39615 40190 57015 81100;",
"08272099999","2010-05-19T18:00:00","4","39.8833333","-4.05","516.0","TOLEDO, SP","FM-12","99999","V020","080,1,N,0046,1","22000,1,9,N","050000,1,N,1","+0271,1","+0085,1","10182,1","12,0000,9,1",,,,,,,"01,99,1,01,1,04,1,01250,1,00,1,00,1",,,,"999,M,+0286,1","99999,9,09606,1","6,1,009,1,+999,9",,,,"SYN082AAXX  19184 08272 12684 10809 10271 20085 39606 40182 56009 60002 81400 333 10286;","Q01  00002PRCP12"
"08272099999","2010-05-20T06:00:00","4","39.8833333","-4.05","516.0","TOLEDO, SP","FM-12","99999","V020","100,1,N,0036,1","22000,1,9,N","020000,1,N,1","+0126,1","+0053,1","10258,1","12,0000,9,1","24,0000,9,1",,,,"00,1,+99999,9,99,9",,"00,99,1,00,1,00,1,99999,9,00,1,00,1","0828,9","01,9","999,+0100,9","999,N,+0121,1","99999,9,09649,1","3,1,006,1,+999,9","00,1",,,"SYN106AAXX  20064 08272 11970 01007 10126 20053 39649 40258 53006 60002 700// 333 20121 30010 50554 55138 70000;","Q01  00002PRCP24Q02  00002PRCP12"
"08272099999","2010-05-20T09:00:00","4","39.8833333","-4.05","516.0","TOLEDO, SP","FM-12","99999","V020","110,1,N,0036,1","22000,1,9,N","020000,1,N,1","+0176,1","+0062,1","10245,1",,,,,,"00,1,+99999,9,99,9",,"00,99,1,00,1,00,1,99999,9,00,1,00,1",,,,,"99999,9,09647,1","8,1,002,1,+999,9",,,,"SYN060AAXX  20094 08272 42970 01107 10176 20062 39647 40245 58002;",
"08272099999","2010-05-20T12:00:00","4","39.8833333","-4.05","516.0","TOLEDO, SP","FM-12","99999","V020","120,1,N,0041,1","22000,1,9,N","030000,1,N,1","+0226,1","+0072,1","10219,1","06,0000,9,1",,,,,"00,1,+99999,9,99,9",,"00,99,1,00,1,00,1,99999,9,00,1,00,1",,,,,"99999,9,09632,1","8,1,015,1,+999,9",,,,"SYN066AAXX  20124 08272 12980 01208 10226 20072 39632 40219 58015 60001;","Q01  00002PRCP06"
"08272099999","2010-05-20T15:00:00","4","39.8833333","-4.05","516.0","TOLEDO, SP","FM-12","99999","V020","080,1,N,0026,1","22000,1,9,N","040000,1,N,1","+0256,1","+0072,1","10191,1",,,,,,"00,1,+99999,9,99,9",,"00,99,1,00,1,00,1,99999,9,00,1,00,1",,,,,"99999,9,09612,1","7,1,020,1,+999,9",,,,"SYN060AAXX  20154 08272 42982 00805 10256 20072 39612 40191 57020;",
"08272099999","2010-05-20T18:00:00","4","39.8833333","-4.05","516.0","TOLEDO, SP","FM-12","99999","V020","090,1,N,0041,1","22000,1,9,N","040000,1,N,1","+0258,1","+0059,1","10179,1","12,0000,9,1",,,,,"00,1,+99999,9,99,9",,"00,99,1,00,1,00,1,99999,9,00,1,00,1",,,,"999,M,+0265,1","99999,9,09600,1","7,1,012,1,+999,9",,,,"SYN076AAXX  20184 08272 12982 00908 10258 20059 39600 40179 57012 60002 333 10265;","Q01  00002PRCP12"
"08272099999","2010-05-21T06:00:00","4","39.8833333","-4.05","516.0","TOLEDO, SP","FM-12","99999","V020","110,1,N,0026,1","22000,1,9,N","018000,1,N,1","+0143,1","+0074,1","10220,1","12,0000,9,1","24,0000,9,1",,,,"00,1,+99999,9,99,9",,"00,99,1,00,1,00,1,99999,9,00,1,00,1","0840,9","01,9","999,+0120,9","999,N,+0140,1","99999,9,09617,1","2,1,007,1,+999,9","00,1",,,"SYN106AAXX  21064 08272 11968 01105 10143 20074 39617 40220 52007 60002 700// 333 20140 30012 50514 55140 70000;","Q01  00002PRCP24Q02  00002PRCP12"
"08272099999","2010-05-21T09:00:00","4","39.8833333","-4.05","516.0","TOLEDO, SP","FM-12","99999","V020","110,1,N,0062,1","22000,1,9,N","030000,1,N,1","+0203,1","+0048,1","10207,1",,,,,,"00,1,+99999,9,99,9",,"00,99,1,00,1,00,1,99999,9,00,1,00,1",,,,,"99999,9,09616,1","8,1,001,1,+999,9",,,,"SYN060AAXX  21094 08272 42980 01112 10203 20048 39616 40207 58001;",
"08272099999","2010-05-21T12:00:00","4","39.8833333","-4.05","516.0","TOLEDO, SP","FM-12","99999","V020","110,1,N,0062,1","22000,1,9,N","040000,1,N,1","+0269,1","+0058,1","10176,1","06,0000,9,1",,,,,"00,1,+99999,9,99,9",,"00,99,1,00,1,00,1,99999,9,00,1,00,1",,,,,"99999,9,09600,1","8,1,016,1,+999,9",,,,"SYN066AAXX  21124 08272 12982 01112 10269 20058 39600 40176 58016 60001;","Q01  00002PRCP06"
"08272099999","2010-05-21T15:00:00","4","39.8833333","-4.05","516.0","TOLEDO, SP","FM-12","99999","V020","090,1,N,0051,1","22000,1,9,N","040000,1,N,1","+0286,1","+0067,1","10151,1",,,,,,"00,1,+99999,9,99,9",,"00,99,1,00,1,00,1,99999,9,00,1,00,1",,,,,"99999,9,09579,1","7,1,021,1,+999,9",,,,"SYN060AAXX  21154 08272 42982 00910 10286 20067 39579 40151 57021;",
"08272099999","2010-05-21T18:00:00","4","39.8833333","-4.05","516.0","TOLEDO, SP","FM-12","99999","V020","100,1,N,0041,1","22000,1,9,N","040000,1,N,1","+0277,1","+0059,1","10142,1","12,0000,9,1",,,,,"00,1,+99999,9,99,9",,"00,99,1,00,1,00,1,99999,9,00,1,00,1",,,,"999,M,+0290,1","99999,9,09569,1","6,1,010,1,+999,9",,,,"SYN076AAXX  21184 08272 12982 01008 10277 20059 39569 40142 56010 60002 333 10290;","Q01  00002PRCP12"
"08272099999","2010-05-24T06:00:00","4","39.8833333","-4.05","516.0","TOLEDO, SP","FM-12","99999","V020","260,1,N,0005,1","22000,1,9,N","030000,1,N,1","+0145,1","+0109,1","10165,1","12,0000,9,1","24,0000,9,1",,,,"00,1,+99999,9,99,9",,"00,99,1,00,1,00,1,99999,9,00,1,00,1","0798,9","01,9","999,+0110,9","999,N,+0142,1","99999,9,09566,1","3,1,011,1,+999,9","00,1",,,"SYN100AAXX  24064 08272 11980 02601 10145 20109 39566 40165 53011 60002 700// 333 20142 30011 55133 70000;","Q01  00002PRCP24Q02  00002PRCP12"
"08272099999","2010-05-24T09:00:00","4","39.8833333","-4.05","516.0","TOLEDO, SP","FM-12","99999","V020","160,1,N,0021,1","22000,1,9,N","030000,1,N,1","+0208,1","+0122,1","10156,1",,,,,,,,"01,99,1,00,1,00,1,99999,9,00,1,01,1",,,,,"99999,9,09570,1","1,1,004,1,+999,9",,,,"SYN066AAXX  24094 08272 42980 11604 10208 20122 39570 40156 51004 80001;",
"08272099999","2010-05-24T12:00:00","4","39.8833333","-4.05","516.0","TOLEDO, SP","FM-12","99999","V020","150,1,N,0021,1","22000,1,9,N","035000,1,N,1","+0262,1","+0119,1","10133,1","06,0000,9,1",,,,,,,"03,99,1,02,1,04,1,01250,1,00,1,01,1",,,,,"99999,9,09559,1","8,1,011,1,+999,9",,,,"SYN072AAXX  24124 08272 12681 31504 10262 20119 39559 40133 58011 60001 82401;","Q01  00002PRCP06"
"08272099999","2010-05-24T15:00:00","4","39.8833333","-4.05","516.0","TOLEDO, SP","FM-12","99999","V020","260,1,N,0036,1","01200,1,9,N","040000,1,N,1","+0296,1","+0102,1","10107,1",,,,,,,,"05,99,1,05,1,02,1,01250,1,00,1,01,1",,,,,"99999,9,09540,1","8,1,019,1,+999,9",,,,"SYN066AAXX  24154 08272 42682 52607 10296 20102 39540 40107 58019 85201;",
"08272099999","2010-05-24T18:00:00","4","39.8833333","-4.05","516.0","TOLEDO, SP","FM-12","99999","V020","290,1,N,0051,1","22000,1,9,N","040000,1,N,1","+0278,1","+0101,1","10102,1","12,0000,9,1",,,,,,,"03,99,1,02,1,02,1,01250,1,03,1,00,1",,,,"999,M,+0303,1","99999,9,09532,1","6,1,008,1,+999,9",,,,"SYN082AAXX  24184 08272 12682 32910 10278 20101 39532 40102 56008 60002 82230 333 10303;","Q01  00002PRCP12"
"08272099999","2010-05-25T06:00:00","4","39.8833333","-4.05","516.0","TOLEDO, SP","FM-12","99999","V020","190,1,N,0010,1","22000,1,9,N","035000,1,N,1","+0161,1","+0106,1","10158,1","12,0000,9,1","24,0000,9,1",,,,,,"01,99,1,01,1,04,1,00800,1,03,1,01,1","0798,9","01,9","999,+0110,9","999,N,+0156,1","99999,9,09563,1","3,1,009,1,+999,9","02,1",,,"SYN112AAXX  25064 08272 11581 11902 10161 20106 39563 40158 53009 60002 702// 81431 333 20156 30011 50484 55133 70000;","Q01  00002PRCP24Q02  00002PRCP12"
"08272099999","2010-05-25T09:00:00","4","39.8833333","-4.05","516.0","TOLEDO, SP","FM-12","99999","V020","240,1,N,0031,1","00750,1,9,N","030000,1,N,1","+0196,1","+0106,1","10158,1",,,,,,,,"07,99,1,07,1,04,1,00800,1,08,1,00,1",,,,,"99999,9,09570,1","1,1,007,1,+999,9",,,,"SYN066AAXX  25094 08272 42580 72406 10196 20106 39570 40158 51007 87480;",
"08272099999","2010-05-25T12:00:00","4","39.8833333","-4.05","516.0","TOLEDO, SP","FM-12","99999","V020","230,1,N,0051,1","22000,1,9,N","040000,1,N,1","+0229,1","+0074,1","10146,1","06,0000,9,1",,,,,,,"03,99,1,03,1,04,1,01250,1,00,1,00,1",,,,,"99999,9,09564,1","8,1,006,1,+999,9",,,,"SYN072AAXX  25124 08272 12682 32310 10229 20074 39564 40146 58006 60001 83400;","Q01  00002PRCP06"
"08272099999","2010-05-25T15:00:00","4","39.8833333","-4.05","516.0","TOLEDO, SP","FM-12","99999","V020","280,1,N,0072,1","22000,1,9,N","045000,1,N,1","+0247,1","+0086,1","10130,1",,,,,,,,"03,99,1,03,1,04,1,01250,1,00,1,01,1",,,,,"99999,9,09553,1","7,1,011,1,+999,9",,,,"SYN066AAXX  25154 08272 42683 32814 10247 20086 39553 40130 57011 83401;",
"08272099999","2010-05-25T18:00:00","4","39.8833333","-4.05","516.0","TOLEDO, SP","FM-12","99999","V020","270,1,N,0051,1","22000,1,9,N","045000,1,N,1","+0232,1","+0092,1","10129,1","12,0000,9,1",,,,,,,"04,99,1,04,1,04,1,01250,1,00,1,01,1",,,,"999,M,+0256,1","99999,9,09549,1","7,1,004,1,+999,9",,,,"SYN082AAXX  25184 08272 12683 42710 10232 20092 39549 40129 57004 60002 84401 333 10256;","Q01  00002PRCP12"
"08272099999","2010-05-26T06:00:00","4","39.8833333","-4.05","516.0","TOLEDO, SP","FM-12","99999","V020","280,1,N,0021,1","02100,1,9,N","030000,1,N,1","+0144,1","+0117,1","10144,1","12,0000,9,1","24,0000,9,1",,,,,,"05,99,1,05,1,00,1,02250,1,08,1,00,1","0756,9","01,9","999,+0100,9","999,N,+0137,1","99999,9,09546,1","3,1,002,1,+999,9","02,1",,,"SYN112AAXX  26064 08272 11880 52804 10144 20117 39546 40144 53002 60002 702// 85080 333 20137 30010 50584 55126 70000;","Q01  00002PRCP24Q02  00002PRCP12"
"08272099999","2010-05-26T09:00:00","4","39.8833333","-4.05","516.0","TOLEDO, SP","FM-12","99999","V020","280,1,N,0046,1","03600,1,9,N","030000,1,N,1","+0181,1","+0107,1","10140,1",,,,,,,,"06,99,1,01,1,01,1,00800,1,08,1,00,1",,,,,"99999,9,09550,1","1,1,004,1,+999,9",,,,"SYN066AAXX  26094 08272 42580 62809 10181 20107 39550 40140 51004 81180;",
"08272099999","2010-05-26T12:00:00","4","39.8833333","-4.05","516.0","TOLEDO, SP","FM-12","99999","V020","270,1,N,0046,1","22000,1,9,N","040000,1,N,1","+0223,1","+0098,1","10128,1","06,0000,9,1",,,,,,,"04,99,1,03,1,01,1,00800,1,00,1,01,1",,,,,"99999,9,09546,1","8,1,004,1,+999,9",,,,"SYN072AAXX  26124 08272 12582 42709 10223 20098 39546 40128 58004 60001 83101;","Q01  00002PRCP06"
"08272099999","2010-05-26T15:00:00","4","39.8833333","-4.05","516.0","TOLEDO, SP","FM-12","99999","V020","290,1,N,0057,1","22000,1,9,N","045000,1,N,1","+0251,1","+0081,1","10106,1",,,,,,,,"06,99,1,02,1,04,1,01250,1,00,1,01,1",,,,,"99999,9,09531,1","8,1,015,1,+999,9",,,,"SYN066AAXX  26154 08272 42683 62911 10251 20081 39531 40106 58015 82401;",
"08272099999","2010-05-26T18:00:00","4","39.8833333","-4.05","516.0","TOLEDO, SP","FM-12","99999","V020","290,1,N,0067,1","09000,1,9,N","045000,1,N,1","+0241,1","+0073,1","10096,1","12,0000,9,1",,,,,,,"06,99,1,01,1,01,1,01250,1,00,1,05,1",,,,"999,M,+0256,1","99999,9,09519,1","7,1,012,1,+999,9",,,,"SYN082AAXX  26184 08272 12683 62913 10241 20073 39519 40096 57012 60002 81105 333 10256;","Q01  00002PRCP12"
"08272099999","2010-05-27T06:00:00","4","39.8833333","-4.05","516.0","TOLEDO, SP","FM-12","99999","V020","260,1,N,0010,1","02100,1,9,N","045000,1,N,1","+0145,1","+0089,1","10118,1","12,0000,9,1","24,0000,9,1",,,,,,"07,99,1,06,1,00,1,02250,1,07,1,01,1","0666,9","01,9","999,+0100,9","999,N,+0140,1","99999,9,09522,1","3,1,003,1,+999,9","02,1",,,"SYN112AAXX  27064 08272 11883 72602 10145 20089 39522 40118 53003 60002 702// 86071 333 20140 30010 50474 55111 70000;","Q01  00002PRCP24Q02  00002PRCP12"
"08272099999","2010-05-27T09:00:00","4","39.8833333","-4.05","516.0","TOLEDO, SP","FM-12","99999","V020","320,1,N,0036,1","03600,1,9,N","040000,1,N,1","+0192,1","+0097,1","10115,1",,,,,,,,"07,99,1,01,1,02,1,00800,1,03,1,06,1",,,,,"99999,9,09528,1","1,1,006,1,+999,9",,,,"SYN066AAXX  27094 08272 42582 73207 10192 20097 39528 40115 51006 81236;",
"08272099999","2010-05-27T12:00:00","4","39.8833333","-4.05","516.0","TOLEDO, SP","FM-12","99999","V020","290,1,N,0057,1","03600,1,9,N","045000,1,N,1","+0229,1","+0107,1","10102,1","06,0000,9,1",,,,,,,"07,99,1,02,1,02,1,00800,1,03,1,08,1",,,,,"99999,9,09523,1","8,1,005,1,+999,9",,,,"SYN072AAXX  27124 08272 12583 72911 10229 20107 39523 40102 58005 60001 82238;","Q01  00002PRCP06"
"08272099999","2010-05-27T15:00:00","4","39.8833333","-4.05","516.0","TOLEDO, SP","FM-12","99999","V020","300,1,N,0077,1","03600,1,C,N","040000,1,N,1","+0243,1","+0106,1","10083,1",,,,,,"02,1,+01290,1,09,1",,"07,99,1,02,1,09,1,01250,1,08,1,06,1",,,,,"99999,9,09508,1","8,1,015,1,+999,9",,,,"SYN082AAXX  27154 08272 42682 73015 10243 20106 39508 40083 58015 82986 333 82943 85276;",
"08272099999","2010-05-27T18:00:00","4","39.8833333","-4.05","516.0","TOLEDO, SP","FM-12","99999","V020","280,1,N,0082,1","22000,1,9,N","045000,1,N,1","+0225,1","+0100,1","10089,1","12,0000,9,1",,,,,,,"04,99,1,01,1,02,1,01250,1,03,1,08,1",,,,"999,M,+0252,1","99999,9,09510,1","1,1,002,1,+999,9",,,,"SYN082AAXX  27184 08272 12683 42816 10225 20100 39510 40089 51002 60002 81238 333 10252;","Q01  00002PRCP12"
"08272099999","2010-05-28T06:00:00","4","39.8833333","-4.05","516.0","TOLEDO, SP","FM-12","99999","V020","330,1,N,0010,1","22000,1,9,N","030000,1,N,1","+0137,1","+0101,1","10149,1","12,0000,9,1","24,0000,9,1",,,,,,"04,99,1,02,1,02,1,00800,1,03,1,08,1","0570,9","01,9","999,+0090,9","999,N,+0126,1","99999,9,09549,1","3,1,011,1,+999,9","02,1",,,"SYN112AAXX  28064 08272 11580 43302 10137 20101 39549 40149 53011 60002 702// 82238 333 20126 30009 50474 55095 70000;","Q01  00002PRCP24Q02  00002PRCP12"
"08272099999","2010-05-28T09:00:00","4","39.8833333","-4.05","516.0","TOLEDO, SP","FM-12","99999","V020","240,1,N,0010,1","03600,1,9,N","035000,1,N,1","+0179,1","+0119,1","10151,1",,,,,,,,"07,99,1,01,1,02,1,00800,1,03,1,03,1",,,,,"99999,9,09560,1","1,1,011,1,+999,9",,,,"SYN066AAXX  28094 08272 42581 72402 10179 20119 39560 40151 51011 81233;",
"08272099999","2010-05-28T12:00:00","4","39.8833333","-4.05","516.0","TOLEDO, SP","FM-12","99999","V020","100,1,N,0021,1","01200,1,9,N","030000,1,N,1","+0202,1","+0127,1","10147,1","06,9999,9,9",,,"6,1,06,1","2,1,06,1","04,1,+01200,1,09,1",,"07,99,1,07,1,09,1,01250,1,06,1,00,1",,,,,"99999,9,09561,1","1,1,001,1,+999,9","95,1",,,"SYN088AAXX  28124 08272 11680 71004 10202 20127 39561 40147 51001 69901 79562 87960 333 84940;","Q01  00002PRCP06Q02  00002PRCP06"
"08272099999","2010-05-28T15:00:00","4","39.8833333","-4.05","516.0","TOLEDO, SP","FM-12","99999","V020","320,1,N,0057,1","03600,1,C,N","040000,1,N,1","+0225,1","+0113,1","10139,1",,,,"9,1,03,1","8,1,03,1","01,1,+01200,1,09,1",,"06,99,1,03,1,09,1,01250,1,06,1,03,1",,,,,"99999,9,09557,1","8,1,004,1,+999,9","02,1",,,"SYN088AAXX  28154 08272 41682 63211 10225 20113 39557 40139 58004 70298 83963 333 81940 83365;",
"08272099999","2010-05-28T18:00:00","4","39.8833333","-4.05","516.0","TOLEDO, SP","FM-12","99999","V020","290,1,N,0046,1","09000,1,C,N","050000,1,N,1","+0222,1","+0094,1","10147,1","12,0051,9,1",,,"9,1,06,1","8,1,06,1","01,1,+01200,1,09,1",,"06,99,1,02,1,09,1,01250,1,06,1,03,1",,,,"120,M,+0234,1","99999,9,09564,1","3,1,007,1,+999,9","02,1",,,"SYN100AAXX  28184 08272 11684 62909 10222 20094 39564 40147 53007 60052 70298 82963 333 10234 81940 85365;",
"08272099999","2010-05-31T06:00:00","4","39.8833333","-4.05","516.0","TOLEDO, SP","FM-12","99999","V020","110,1,N,0010,1","22000,1,9,N","040000,1,N,1","+0175,1","+0132,1","10229,1","12,0000,9,1","24,0000,9,1",,,,,,"01,99,1,00,1,00,1,99999,9,00,1,01,1","0852,9","01,9","999,+0120,9","999,N,+0166,1","99999,9,09633,1","3,1,005,1,+999,9","02,1",,,"SYN106AAXX  31064 08272 11982 11102 10175 20132 39633 40229 53005 60002 702// 80001 333 20166 30012 55142 70000;","Q01  00002PRCP24Q02  00002PRCP12"
"08272099999","2010-05-31T09:00:00","4","39.8833333","-4.05","516.0","TOLEDO, SP","FM-12","99999","V020","140,1,N,0026,1","22000,1,9,N","040000,1,N,1","+0248,1","+0134,1","10210,1",,,,,,,,"01,99,1,00,1,00,1,99999,9,00,1,01,1",,,,,"99999,9,09629,1","7,1,004,1,+999,9",,,,"SYN066AAXX  31094 08272 42982 11405 10248 20134 39629 40210 57004 80001;",
"08272099999","2010-05-31T12:00:00","4","39.8833333","-4.05","516.0","TOLEDO, SP","FM-12","99999","V020","290,1,N,0031,1","22000,1,9,N","040000,1,N,1","+0303,1","+0131,1","10181,1","06,0000,9,1",,,,,,,"01,99,1,01,1,01,1,01250,1,00,1,01,1",,,,,"99999,9,09612,1","7,1,017,1,+999,9",,,,"SYN072AAXX  31124 08272 12682 12906 10303 20131 39612 40181 57017 60001 81101;","Q01  00002PRCP06"
"08272099999","2010-05-31T15:00:00","4","39.8833333","-4.05","516.0","TOLEDO, SP","FM-12","99999","V020","240,1,N,0026,1","22000,1,9,N","050000,1,N,1","+0328,1","+0162,1","10153,1",,,,,,,,"02,99,1,02,1,01,1,01250,1,00,1,01,1",,,,,"99999,9,09591,1","7,1,021,1,+999,9",,,,"SYN066AAXX  31154 08272 42684 22405 10328 20162 39591 40153 57021 82101;",
"08272099999","2010-05-31T18:00:00","4","39.8833333","-4.05","516.0","TOLEDO, SP","FM-12","99999","V020","270,1,N,0036,1","22000,1,9,N","050000,1,N,1","+0322,1","+0124,1","10143,1","12,0000,9,1",,,,,,,"02,99,1,02,1,01,1,01250,1,06,1,01,1",,,,"999,M,+0335,1","99999,9,09579,1","6,1,012,1,+999,9",,,,"SYN082AAXX  31184 08272 12684 22707 10322 20124 39579 40143 56012 60002 82161 333 10335;","Q01  00002PRCP12"
"08272099999","2010-06-01T06:00:00","4","39.8833333","-4.05","516.0","TOLEDO, SP","FM-12","99999","V020","110,1,N,0021,1","22000,1,9,N","050000,1,N,1","+0192,1","+0129,1","10173,1","12,0000,9,1","24,0000,9,1",,,,,,"04,99,1,00,1,00,1,99999,9,00,1,02,1","0834,9","01,9","999,+0160,9","999,N,+0187,1","99999,9,09583,1","1,1,002,1,+999,9","02,1",,,"SYN112AAXX  01064 08272 11984 41104 10192 20129 39583 40173 51002 60002 702// 80002 333 20187 30016 50584 55139 70000;","Q01  00002PRCP24Q02  00002PRCP12"
"08272099999","2010-06-01T09:00:00","4","39.8833333","-4.05","516.0","TOLEDO, SP","FM-12","99999","V020","150,1,N,0026,1","22000,1,9,N","040000,1,N,1","+0250,1","+0142,1","10154,1",,,,,,,,"04,99,1,00,1,00,1,99999,9,00,1,02,1",,,,,"99999,9,09577,1","8,1,006,1,+999,9",,,,"SYN066AAXX  01094 08272 42982 41505 10250 20142 39577 40154 58006 80002;",
"08272099999","2010-06-01T12:00:00","4","39.8833333","-4.05","516.0","TOLEDO, SP","FM-12","99999","V020","260,1,N,0036,1","09000,1,9,N","040000,1,N,1","+0316,1","+0134,1","10130,1","06,0000,9,1",,,,,,,"07,99,1,01,1,01,1,01250,1,00,1,08,1",,,,,"99999,9,09566,1","7,1,011,1,+999,9",,,,"SYN072AAXX  01124 08272 12682 72607 10316 20134 39566 40130 57011 60001 81108;","Q01  00002PRCP06"
"08272099999","2010-06-01T15:00:00","4","39.8833333","-4.05","516.0","TOLEDO, SP","FM-12","99999","V020","270,1,N,0051,1","03600,1,9,N","040000,1,N,1","+0331,1","+0127,1","10111,1",,,,,,,,"07,99,1,02,1,02,1,00800,1,03,1,08,1",,,,,"99999,9,09551,1","7,1,015,1,+999,9",,,,"SYN066AAXX  01154 08272 42582 72710 10331 20127 39551 40111 57015 82238;",
"08272099999","2010-06-01T18:00:00","4","39.8833333","-4.05","516.0","TOLEDO, SP","FM-12","99999","V020","310,1,N,0041,1","03600,1,9,N","050000,1,N,1","+0320,1","+0128,1","10106,1","12,0000,9,1",,,,,,,"06,99,1,02,1,02,1,00800,1,03,1,08,1",,,,"999,M,+0344,1","99999,9,09544,1","6,1,007,1,+999,9",,,,"SYN082AAXX  01184 08272 12584 63108 10320 20128 39544 40106 56007 60002 82238 333 10344;","Q01  00002PRCP12"
"08272099999","2010-06-02T06:00:00","4","39.8833333","-4.05","516.0","TOLEDO, SP","FM-12","99999","V020","100,1,N,0031,1","09000,1,9,N","040000,1,N,1","+0195,1","+0118,1","10143,1","12,0000,9,1","24,0000,9,1",,,,,,"08,99,1,03,1,00,1,02250,1,07,1,07,1","0648,9","01,9","999,+0170,9","999,N,+0195,1","99999,9,09556,1","3,1,002,1,+999,9","02,1",,,"SYN112AAXX  02064 08272 11882 81006 10195 20118 39556 40143 53002 60002 702// 83077 333 20195 30017 50674 55108 70000;","Q01  00002PRCP24Q02  00002PRCP12"
"08272099999","2010-06-02T09:00:00","4","39.8833333","-4.05","516.0","TOLEDO, SP","FM-12","99999","V020","110,1,N,0031,1","09000,1,9,N","040000,1,N,1","+0235,1","+0125,1","10133,1",,,,,,,,"07,99,1,03,1,00,1,02250,1,03,1,08,1",,,,,"99999,9,09554,1","8,1,002,1,+999,9",,,,"SYN066AAXX  02094 08272 42882 71106 10235 20125 39554 40133 58002 83038;",
"08272099999","2010-06-02T12:00:00","4","39.8833333","-4.05","516.0","TOLEDO, SP","FM-12","99999","V020","120,1,N,0021,1","03600,1,9,N","040000,1,N,1","+0287,1","+0138,1","10111,1","06,0000,9,1",,,,,,,"08,99,1,01,1,01,1,00800,1,03,1,07,1",,,,,"99999,9,09543,1","8,1,011,1,+999,9",,,,"SYN072AAXX  02124 08272 12582 81204 10287 20138 39543 40111 58011 60001 81137;","Q01  00002PRCP06"
"08272099999","2010-06-02T15:00:00","4","39.8833333","-4.05","516.0","TOLEDO, SP","FM-12","99999","V020","350,1,N,0031,1","03600,1,9,N","040000,1,N,1","+0312,1","+0116,1","10093,1",,,,,,,,"08,99,1,01,1,02,1,00800,1,03,1,07,1",,,,,"99999,9,09530,1","7,1,013,1,+999,9",,,,"SYN066AAXX  02154 08272 42582 83506 10312 20116 39530 40093 57013 81237;",
"08272099999","2010-06-02T18:00:00","4","39.8833333","-4.05","516.0","TOLEDO, SP","FM-12","99999","V020","350,1,N,0021,1","03600,1,9,N","040000,1,N,1","+0303,1","+0113,1","10086,1","12,0000,9,1",,,,,,,"07,99,1,02,1,02,1,00800,1,03,1,08,1",,,,"999,M,+0321,1","99999,9,09522,1","6,1,008,1,+999,9",,,,"SYN082AAXX  02184 08272 12582 73504 10303 20113 39522 40086 56008 60002 82238 333 10321;","Q01  00002PRCP12"
"08272099999","2010-06-03T06:00:00","4","39.8833333","-4.05","516.0","TOLEDO, SP","FM-12","99999","V020","100,1,N,0010,1","22000,1,9,N","030000,1,N,1","+0200,1","+0127,1","10109,1","12,0000,9,1","24,0000,9,1",,,,,,"03,99,1,03,1,00,1,02250,1,03,1,09,1","0402,9","01,9","999,+0160,9","999,N,+0195,1","99999,9,09525,1","3,1,007,1,+999,9","02,1",,,"SYN112AAXX  03064 08272 11880 31002 10200 20127 39525 40109 53007 60002 702// 83039 333 20195 30016 50514 55067 70000;","Q01  00002PRCP24Q02  00002PRCP12"
"08272099999","2010-06-03T09:00:00","4","39.8833333","-4.05","516.0","TOLEDO, SP","FM-12","99999","V020","200,1,N,0015,1","22000,1,9,N","030000,1,N,1","+0254,1","+0126,1","10103,1",,,,,,,,"03,99,1,01,1,02,1,00800,1,03,1,09,1",,,,,"99999,9,09529,1","1,1,004,1,+999,9",,,,"SYN066AAXX  03094 08272 42580 32003 10254 20126 39529 40103 51004 81239;",
"08272099999","2010-06-03T12:00:00","4","39.8833333","-4.05","516.0","TOLEDO, SP","FM-12","99999","V020","260,1,N,0051,1","22000,1,9,N","030000,1,N,1","+0313,1","+0122,1","10084,1","06,0000,9,1",,,,,,,"03,99,1,02,1,02,1,00800,1,08,1,00,1",,,,,"99999,9,09522,1","8,1,007,1,+999,9",,,,"SYN072AAXX  03124 08272 12580 32610 10313 20122 39522 40084 58007 60001 82280;","Q01  00002PRCP06"
"08272099999","2010-06-03T15:00:00","4","39.8833333","-4.05","516.0","TOLEDO, SP","FM-12","99999","V020","280,1,N,0051,1","22000,1,9,N","040000,1,N,1","+0327,1","+0118,1","10071,1",,,,,,,,"03,99,1,02,1,02,1,00800,1,06,1,02,1",,,,,"99999,9,09512,1","7,1,010,1,+999,9",,,,"SYN066AAXX  03154 08272 42582 32810 10327 20118 39512 40071 57010 82262;",
"08272099999","2010-06-03T18:00:00","4","39.8833333","-4.05","516.0","TOLEDO, SP","FM-12","99999","V020","280,1,N,0062,1","22000,1,9,N","040000,1,N,1","+0315,1","+0128,1","10073,1","12,0000,9,1",,,,,,,"04,99,1,03,1,04,1,00800,1,06,1,00,1",,,,"999,M,+0338,1","99999,9,09512,1","5,1,000,1,+999,9",,,,"SYN082AAXX  03184 08272 12582 42812 10315 20128 39512 40073 55000 60002 83460 333 10338;","Q01  00002PRCP12"
"08272099999","2010-06-04T06:00:00","4","39.8833333","-4.05","516.0","TOLEDO, SP","FM-12","99999","V020","100,1,N,0021,1","22000,1,9,N","040000,1,N,1","+0209,1","+0113,1","10148,1","12,0000,9,1","24,0000,9,1",,,,,,"04,99,1,03,1,00,1,01750,1,03,1,01,1","0720,9","01,9","999,+0160,9","999,N,+0209,1","99999,9,09563,1","2,1,013,1,+999,9","02,1",,,"SYN112AAXX  04064 08272 11782 41004 10209 20113 39563 40148 52013 60002 702// 83031 333 20209 30016 50804 55120 70000;","Q01  00002PRCP24Q02  00002PRCP12"
"08272099999","2010-06-04T09:00:00","4","39.8833333","-4.05","516.0","TOLEDO, SP","FM-12","99999","V020","200,1,N,0021,1","22000,1,9,N","035000,1,N,1","+0259,1","+0124,1","10147,1",,,,,,,,"01,99,1,01,1,00,1,02250,1,08,1,00,1",,,,,"99999,9,09572,1","1,1,009,1,+999,9",,,,"SYN066AAXX  04094 08272 42881 12004 10259 20124 39572 40147 51009 81080;",
"08272099999","2010-06-04T12:00:00","4","39.8833333","-4.05","516.0","TOLEDO, SP","FM-12","99999","V020","240,1,N,0021,1","22000,1,9,N","040000,1,N,1","+0318,1","+0126,1","10133,1","06,0000,9,1",,,,,,,"02,99,1,02,1,01,1,01250,1,00,1,00,1",,,,,"99999,9,09569,1","8,1,003,1,+999,9",,,,"SYN072AAXX  04124 08272 12682 22404 10318 20126 39569 40133 58003 60001 82100;","Q01  00002PRCP06"
"08272099999","2010-06-04T15:00:00","4","39.8833333","-4.05","516.0","TOLEDO, SP","FM-12","99999","V020","310,1,N,0031,1","22000,1,9,N","040000,1,N,1","+0343,1","+0126,1","10120,1",,,,,,,,"02,99,1,02,1,01,1,01250,1,00,1,00,1",,,,,"99999,9,09561,1","7,1,008,1,+999,9",,,,"SYN066AAXX  04154 08272 42682 23106 10343 20126 39561 40120 57008 82100;",
"08272099999","2010-06-04T18:00:00","4","39.8833333","-4.05","516.0","TOLEDO, SP","FM-12","99999","V020","280,1,N,0026,1","09000,1,9,N","040000,1,N,1","+0331,1","+0142,1","10115,1","12,0000,9,1",,,,,,,"05,99,1,02,1,04,1,01250,1,00,1,05,1",,,,"999,M,+0350,1","99999,9,09555,1","6,1,006,1,+999,9",,,,"SYN082AAXX  04184 08272 12682 52805 10331 20142 39555 40115 56006 60002 82405 333 10350;","Q01  00002PRCP12"
"08272099999","2010-06-07T06:00:00","4","39.8833333","-4.05","516.0","TOLEDO, SP","FM-12","99999","V020","280,1,N,0010,1","22000,1,9,N","040000,1,N,1","+0179,1","+0110,1","10144,1","12,0000,9,1","24,0000,9,1",,,,,,"01,99,1,00,1,00,1,99999,9,00,1,01,1","0630,9","01,9","999,+0130,9","999,N,+0171,1","99999,9,09553,1","3,1,002,1,+999,9","02,1",,,"SYN106AAXX  07064 08272 11982 12802 10179 20110 39553 40144 53002 60002 702// 80001 333 20171 30013 55105 70000;","Q01  00002PRCP24Q02  00002PRCP12"
"08272099999","2010-06-07T09:00:00","4","39.8833333","-4.05","516.0","TOLEDO, SP","FM-12","99999","V020","170,1,N,0015,1","22000,1,9,N","040000,1,N,1","+0244,1","+0139,1","10131,1",,,,,,,,"03,99,1,00,1,00,1,99999,9,00,1,01,1",,,,,"99999,9,09554,1","0,1,001,1,+999,9",,,,"SYN066AAXX  07094 08272 42982 31703 10244 20139 39554 40131 50001 80001;",
"08272099999","2010-06-07T12:00:00","4","39.8833333","-4.05","516.0","TOLEDO, SP","FM-12","99999","V020","310,1,N,0046,1","22000,1,9,N","050000,1,N,1","+0286,1","+0121,1","10110,1","06,0000,9,1",,,,,,,"03,99,1,00,1,00,1,99999,9,00,1,08,1",,,,,"99999,9,09542,1","8,1,012,1,+999,9",,,,"SYN072AAXX  07124 08272 12984 33109 10286 20121 39542 40110 58012 60001 80008;","Q01  00002PRCP06"
"08272099999","2010-06-07T15:00:00","4","39.8833333","-4.05","516.0","TOLEDO, SP","FM-12","99999","V020","280,1,N,0067,1","22000,1,9,N","040000,1,N,1","+0303,1","+0140,1","10089,1",,,,,,,,"05,99,1,02,1,04,1,01750,1,00,1,01,1",,,,,"99999,9,09525,1","6,1,017,1,+999,9",,,,"SYN066AAXX  07154 08272 42782 52813 10303 20140 39525 40089 56017 82401;",
"08272099999","2010-06-07T18:00:00","4","39.8833333","-4.05","516.0","TOLEDO, SP","FM-12","99999","V020","270,1,N,0067,1","22000,1,9,N","040000,1,N,1","+0291,1","+0129,1","10082,1","12,0000,9,1",,,,,,,"04,99,1,02,1,04,1,01750,1,00,1,05,1",,,,"999,M,+0312,1","99999,9,09516,1","7,1,009,1,+999,9",,,,"SYN082AAXX  07184 08272 12782 42713 10291 20129 39516 40082 57009 60002 82405 333 10312;","Q01  00002PRCP12"
"08272099999","2010-06-08T06:00:00","4","39.8833333","-4.05","516.0","TOLEDO, SP","FM-12","99999","V020","300,1,N,0026,1","22000,1,9,N","050000,1,N,1","+0168,1","+0115,1","10102,1","12,0000,9,1","24,0000,9,1",,,,,,"02,99,1,00,1,00,1,99999,9,00,1,01,1","0828,9","01,9","999,+0120,9","999,N,+0163,1","99999,9,09512,1","2,1,001,1,+999,9","02,1",,,"SYN112AAXX  08064 08272 11984 23005 10168 20115 39512 40102 52001 60002 702// 80001 333 20163 30012 50734 55138 70000;","Q01  00002PRCP24Q02  00002PRCP12"
"08272099999","2010-06-08T09:00:00","4","39.8833333","-4.05","516.0","TOLEDO, SP","FM-12","99999","V020","280,1,N,0026,1","22000,1,9,N","050000,1,N,1","+0210,1","+0122,1","10086,1",,,,,,,,"04,99,1,02,1,00,1,01750,1,03,1,01,1",,,,,"99999,9,09505,1","8,1,007,1,+999,9",,,,"SYN066AAXX  08094 08272 42784 42805 10210 20122 39505 40086 58007 82031;",
"08272099999","2010-06-08T12:00:00","4","39.8833333","-4.05","516.0","TOLEDO, SP","FM-12","99999","V020","270,1,N,0072,1","09000,1,9,N","050000,1,N,1","+0250,1","+0116,1","10067,1","06,0000,9,1",,,,,,,"06,99,1,01,1,01,1,00800,1,00,1,05,1",,,,,"99999,9,09494,1","8,1,011,1,+999,9",,,,"SYN072AAXX  08124 08272 12584 62714 10250 20116 39494 40067 58011 60001 81105;","Q01  00002PRCP06"
"08272099999","2010-06-08T15:00:00","4","39.8833333","-4.05","516.0","TOLEDO, SP","FM-12","99999","V020","280,1,N,0067,1","03600,1,9,N","050000,1,N,1","+0235,1","+0115,1","10057,1",,,,,,,,"07,99,1,03,1,04,1,00800,1,07,1,06,1",,,,,"99999,9,09482,1","7,1,012,1,+999,9",,,,"SYN066AAXX  08154 08272 42584 72813 10235 20115 39482 40057 57012 83476;",
"08272099999","2010-06-08T18:00:00","4","39.8833333","-4.05","516.0","TOLEDO, SP","FM-12","99999","V020","270,1,N,0041,1","02100,1,9,N","008000,1,N,1","+0162,1","+0146,1","10080,1","12,0008,9,1",,,"2,1,06,1","2,1,06,1",,,"08,99,1,08,1,00,1,02250,1,02,1,99,9",,,,"999,M,+0258,1","99999,9,09490,1","3,1,008,1,+999,9","61,1",,,"SYN088AAXX  08184 08272 11858 82708 10162 20146 39490 40080 53008 69982 76122 8802/ 333 10258;",
"08272099999","2010-06-09T06:00:00","4","39.8833333","-4.05","516.0","TOLEDO, SP","FM-12","99999","V020","180,1,N,0026,1","03600,1,9,N","040000,1,N,1","+0137,1","+0114,1","10042,1","12,0061,9,1","24,0066,9,1",,,,,,"08,99,1,03,1,08,1,00450,1,07,1,99,9","0510,9","09,9","999,+0120,9","999,N,+0133,1","99999,9,09449,1","7,1,010,1,+999,9","60,1",,,"SYN112AAXX  09064 08272 11482 81805 10137 20114 39449 40042 57010 60062 760// 8387/ 333 20133 31012 50364 55085 70066;",
"08272099999","2010-06-09T09:00:00","4","39.8833333","-4.05","516.0","TOLEDO, SP","FM-12","99999","V020","330,1,N,0010,1","00900,1,9,N","015000,1,N,1","+0147,1","+0127,1","10033,1",,,,"6,1,03,1","2,1,03,1",,,"08,99,1,07,1,08,1,00450,1,02,1,99,9",,,,,"99999,9,09443,1","6,1,006,1,+999,9","60,1",,,"SYN072AAXX  09094 08272 41465 83302 10147 20127 39443 40033 56006 76062 8782/;",
"08272099999","2010-06-09T12:00:00","4","39.8833333","-4.05","516.0","TOLEDO, SP","FM-12","99999","V020","120,1,N,0026,1","03600,1,9,N","005000,1,N,1","+0153,1","+0140,1","10021,1","06,0051,9,1",,,"6,1,06,1","2,1,06,1",,,"08,99,1,03,1,07,1,00450,1,02,1,99,9",,,,,"99999,9,09433,1","7,1,010,1,+999,9","63,1",,,"SYN078AAXX  09124 08272 11450 81205 10153 20140 39433 40021 57010 60051 76362 8372/;",
"08272099999","2010-06-09T15:00:00","4","39.8833333","-4.05","516.0","TOLEDO, SP","FM-12","99999","V020","150,1,N,0036,1","03600,1,9,N","018000,1,N,1","+0169,1","+0145,1","09992,1",,,,"6,1,03,1","2,1,03,1",,,"08,99,1,04,1,07,1,00450,1,07,1,99,9",,,,,"99999,9,09409,1","6,1,024,1,+999,9","50,1",,,"SYN072AAXX  09154 08272 41468 81507 10169 20145 39409 49992 56024 75062 8477/;",
"08272099999","2010-06-09T18:00:00","4","39.8833333","-4.05","516.0","TOLEDO, SP","FM-12","99999","V020","260,1,N,0041,1","00420,1,C,N","040000,1,N,1","+0183,1","+0140,1","09973,1","12,0051,9,1",,,"6,1,06,1","2,1,06,1","03,1,+00480,1,09,1",,"07,99,1,07,1,03,1,00450,1,07,1,00,1",,,,"120,M,+0188,1","99999,9,09394,1","7,1,015,1,+999,9","02,1",,,"SYN094AAXX  09184 08272 11482 72608 10183 20140 39394 49973 57015 60052 70262 87370 333 10188 83916;",
"08272099999","2010-06-10T06:00:00","4","39.8833333","-4.05","516.0","TOLEDO, SP","FM-12","99999","V020","280,1,N,0010,1","03600,1,9,N","040000,1,N,1","+0123,1","+0097,1","10050,1","12,0030,9,1","24,0130,9,1",,,,,,"07,99,1,03,1,05,1,00450,1,07,1,01,1","0018,9","09,9","999,+0090,9","999,N,+0116,1","99999,9,09453,1","3,1,013,1,+999,9","02,1",,,"SYN112AAXX  10064 08272 11482 72802 10123 20097 39453 40050 53013 60032 702// 83571 333 20116 31009 50084 55003 70129;",
"08272099999","2010-06-10T09:00:00","4","39.8833333","-4.05","516.0","TOLEDO, SP","FM-12","99999","V020","230,1,N,0046,1","03600,1,9,N","015000,1,N,1","+0148,1","+0102,1","10063,1",,,,"2,1,03,1","2,1,03,1",,,"08,99,1,04,1,02,1,00450,1,07,1,00,1",,,,,"99999,9,09471,1","1,1,018,1,+999,9","60,1",,,"SYN072AAXX  10094 08272 41465 82309 10148 20102 39471 40063 51018 76022 84270;",
"08272099999","2010-06-10T12:00:00","4","39.8833333","-4.05","516.0","TOLEDO, SP","FM-12","99999","V020","230,1,N,0062,1","03600,1,9,N","035000,1,N,1","+0174,1","+0110,1","10063,1","06,0000,2,1",,,"6,1,06,1","2,1,06,1",,,"07,99,1,03,1,02,1,00450,1,07,1,00,1",,,,,"99999,9,09476,1","2,1,005,1,+999,9","02,1",,,"SYN078AAXX  10124 08272 11481 72312 10174 20110 39476 40063 52005 69901 70262 83270;",
"08272099999","2010-06-10T15:00:00","4","39.8833333","-4.05","516.0","TOLEDO, SP","FM-12","99999","V020","250,1,N,0072,1","00750,1,C,N","050000,1,N,1","+0205,1","+0106,1","10053,1",,,,"2,1,03,1","2,1,03,1","03,1,+00600,1,09,1",,"06,99,1,05,1,03,1,00800,1,06,1,06,1",,,,,"99999,9,09472,1","6,1,004,1,+999,9","16,1",,,"SYN082AAXX  10154 08272 41584 62514 10205 20106 39472 40053 56004 71622 85366 333 83920;",
"08272099999","2010-06-10T18:00:00","4","39.8833333","-4.05","516.0","TOLEDO, SP","FM-12","99999","V020","190,1,N,0021,1","03600,1,9,N","060000,1,N,1","+0157,1","+0119,1","10074,1","12,0008,9,1",,,"2,1,06,1","2,1,06,1","03,1,+00750,1,09,1",,"06,99,1,03,1,09,1,00800,1,07,1,00,1",,,,"120,M,+0216,1","99999,9,09483,1","1,1,011,1,+999,9","25,1",,,"SYN094AAXX  10184 08272 11586 61904 10157 20119 39483 40074 51011 69982 72522 83970 333 10216 83925;",
"08272099999","2010-06-11T06:00:00","4","39.8833333","-4.05","516.0","TOLEDO, SP","FM-12","99999","V020","300,1,N,0031,1","03600,1,9,N","050000,1,N,1","+0120,1","+0090,1","10121,1","12,0000,2,1","24,0010,9,1",,,,,,"06,99,1,04,1,02,1,00450,1,03,1,03,1","0360,9","01,9","999,+0090,9","999,N,+0116,1","99999,9,09519,1","3,1,012,1,+999,9","02,1",,,"SYN112AAXX  11064 08272 11484 63006 10120 20090 39519 40121 53012 69912 702// 84233 333 20116 30009 50244 55060 70009;",
"08272099999","2010-06-11T09:00:00","4","39.8833333","-4.05","516.0","TOLEDO, SP","FM-12","99999","V020","300,1,N,0057,1","00420,1,9,N","045000,1,N,1","+0157,1","+0094,1","10125,1",,,,,,,,"07,99,1,05,1,02,1,00450,1,03,1,06,1",,,,,"99999,9,09531,1","2,1,012,1,+999,9",,,,"SYN066AAXX  11094 08272 42483 73011 10157 20094 39531 40125 52012 85236;",
"08272099999","2010-06-11T12:00:00","4","39.8833333","-4.05","516.0","TOLEDO, SP","FM-12","99999","V020","280,1,N,0067,1","00750,1,9,N","040000,1,N,1","+0179,1","+0090,1","10125,1","06,0000,9,1",,,,,,,"07,99,1,05,1,05,1,00800,1,07,1,00,1",,,,,"99999,9,09535,1","1,1,004,1,+999,9",,,,"SYN072AAXX  11124 08272 12582 72813 10179 20090 39535 40125 51004 60001 85570;","Q01  00002PRCP06"
"08272099999","2010-06-11T15:00:00","4","39.8833333","-4.05","516.0","TOLEDO, SP","FM-12","99999","V020","270,1,N,0082,1","01200,1,9,N","040000,1,N,1","+0184,1","+0107,1","10124,1",,,,,,,,"08,99,1,06,1,08,1,00800,1,07,1,00,1",,,,,"99999,9,09535,1","4,1,000,1,+999,9",,,,"SYN066AAXX  11154 08272 42582 82716 10184 20107 39535 40124 54000 86870;",
"08272099999","2010-06-11T18:00:00","4","39.8833333","-4.05","516.0","TOLEDO, SP","FM-12","99999","V020","260,1,N,0067,1","03600,1,9,N","050000,1,N,1","+0181,1","+0112,1","10124,1","12,0000,9,1",,,,,,,"07,99,1,01,1,04,1,00800,1,07,1,00,1",,,,"999,M,+0197,1","99999,9,09535,1","4,1,000,1,+999,9",,,,"SYN082AAXX  11184 08272 12584 72613 10181 20112 39535 40124 54000 60002 81470 333 10197;","Q01  00002PRCP12"
"08272099999","2010-06-14T06:00:00","4","39.8833333","-4.05","516.0","TOLEDO, SP","FM-12","99999","V020","160,1,N,0015,1","01500,1,9,N","060000,1,N,1","+0145,1","+0129,1","10146,1","12,0000,9,1","24,0000,9,1",,,,,,"06,99,1,06,1,00,1,01750,1,07,1,01,1","0546,9","01,9","999,+0130,9","999,N,+0139,1","99999,9,09549,1","0,1,000,1,+999,9","02,1",,,"SYN106AAXX  14064 08272 11786 61603 10145 20129 39549 40146 50000 60002 702// 86071 333 20139 30013 55091 70000;","Q01  00002PRCP24Q02  00002PRCP12"
"08272099999","2010-06-14T09:00:00","4","39.8833333","-4.05","516.0","TOLEDO, SP","FM-12","99999","V020","030,1,N,0026,1","22000,1,9,N","040000,1,N,1","+0193,1","+0128,1","10135,1",,,,,,,,"03,99,1,01,1,01,1,00800,1,03,1,01,1",,,,,"99999,9,09548,1","8,1,001,1,+999,9",,,,"SYN066AAXX  14094 08272 42582 30305 10193 20128 39548 40135 58001 81131;",
"08272099999","2010-06-14T12:00:00","4","39.8833333","-4.05","516.0","TOLEDO, SP","FM-12","99999","V020","190,1,N,0021,1","03600,1,9,N","040000,1,N,1","+0239,1","+0119,1","10105,1","06,0000,9,1",,,,,,,"05,99,1,03,1,02,1,00800,1,03,1,02,1",,,,,"99999,9,09528,1","8,1,020,1,+999,9",,,,"SYN072AAXX  14124 08272 12582 51904 10239 20119 39528 40105 58020 60001 83232;","Q01  00002PRCP06"
"08272099999","2010-06-14T15:00:00","4","39.8833333","-4.05","516.0","TOLEDO, SP","FM-12","99999","V020","280,1,N,0031,1","03600,1,9,N","050000,1,N,1","+0241,1","+0121,1","10090,1",,,,,,"01,1,+00480,1,09,1",,"06,99,1,04,1,03,1,00800,1,03,1,03,1",,,,,"99999,9,09514,1","8,1,014,1,+999,9",,,,"SYN082AAXX  14154 08272 42584 62806 10241 20121 39514 40090 58014 84333 333 81916 83816;",
"08272099999","2010-06-14T18:00:00","4","39.8833333","-4.05","516.0","TOLEDO, SP","FM-12","99999","V020","300,1,N,0021,1","00750,1,C,N","050000,1,N,1","+0228,1","+0127,1","10084,1","12,9999,9,9",,,"2,1,06,1","2,1,06,1","01,1,+00480,1,09,1",,"06,99,1,06,1,09,1,00800,1,06,1,03,1",,,,"120,M,+0264,1","99999,9,09506,1","5,1,008,1,+999,9","80,1",,,"SYN100AAXX  14184 08272 11584 63004 10228 20127 39506 40084 55008 69902 78022 86963 333 10264 81916 85816;","Q01  00002PRCP12Q02  00002PRCP12"
"08272099999","2010-06-15T06:00:00","4","39.8833333","-4.05","516.0","TOLEDO, SP","FM-12","99999","V020","060,1,N,0031,1","03600,1,9,N","050000,1,N,1","+0128,1","+0066,1","10150,1","12,0000,2,1","24,0000,2,1",,,,,,"05,99,1,01,1,05,1,00800,1,03,1,00,1","0636,9","01,9","999,+0100,9","999,N,+0119,1","99999,9,09548,1","2,1,003,1,+999,9","02,1",,,"SYN112AAXX  15064 08272 11584 50606 10128 20066 39548 40150 52003 60002 702// 81530 333 20119 30010 50354 55106 70000;",
"08272099999","2010-06-15T09:00:00","4","39.8833333","-4.05","516.0","TOLEDO, SP","FM-12","99999","V020","040,1,N,0041,1","22000,1,9,N","040000,1,N,1","+0169,1","+0061,1","10141,1",,,,,,,,"02,99,1,01,1,01,1,00800,1,08,1,00,1",,,,,"99999,9,09548,1","0,1,000,1,+999,9",,,,"SYN066AAXX  15094 08272 42582 20408 10169 20061 39548 40141 50000 81180;",
"08272099999","2010-06-15T12:00:00","4","39.8833333","-4.05","516.0","TOLEDO, SP","FM-12","99999","V020","350,1,N,0041,1","22000,1,9,N","050000,1,N,1","+0203,1","+0080,1","10131,1","06,0000,9,1",,,,,,,"03,99,1,03,1,02,1,00800,1,00,1,00,1",,,,,"99999,9,09545,1","8,1,003,1,+999,9",,,,"SYN072AAXX  15124 08272 12584 33508 10203 20080 39545 40131 58003 60001 83200;","Q01  00002PRCP06"
"08272099999","2010-06-15T15:00:00","4","39.8833333","-4.05","516.0","TOLEDO, SP","FM-12","99999","V020","360,1,N,0057,1","00750,1,C,N","050000,1,N,1","+0223,1","+0057,1","10119,1",,,,,,"01,1,+00480,1,09,1",,"05,99,1,05,1,09,1,00800,1,06,1,03,1",,,,,"99999,9,09537,1","6,1,008,1,+999,9",,,,"SYN082AAXX  15154 08272 42584 53611 10223 20057 39537 40119 56008 85963 333 81916 84816;",
"08272099999","2010-06-15T18:00:00","4","39.8833333","-4.05","516.0","TOLEDO, SP","FM-12","99999","V020","100,1,N,0062,1","22000,1,9,N","050000,1,N,1","+0204,1","+0023,1","10128,1","12,0000,9,1",,,,,,,"03,99,1,03,1,02,1,00800,1,06,1,02,1",,,,"999,M,+0226,1","99999,9,09542,1","2,1,005,1,+999,9",,,,"SYN082AAXX  15184 08272 12584 31012 10204 20023 39542 40128 52005 60002 83262 333 10226;","Q01  00002PRCP12"
"08272099999","2010-06-16T06:00:00","4","39.8833333","-4.05","516.0","TOLEDO, SP","FM-12","99999","V020","999,9,C,0000,1","22000,1,9,N","050000,1,N,1","+0106,1","+0078,1","10166,1","12,0000,9,1","24,0000,9,1",,,,,,"03,99,1,01,1,05,1,00800,1,07,1,05,1","0714,9","01,9","999,+0060,9","999,N,+0095,1","99999,9,09559,1","3,1,001,1,+999,9","02,1",,,"SYN112AAXX  16064 08272 11584 30000 10106 20078 39559 40166 53001 60002 702// 81575 333 20095 30006 50094 55119 70000;","Q01  00002PRCP24Q02  00002PRCP12"
"08272099999","2010-06-16T09:00:00","4","39.8833333","-4.05","516.0","TOLEDO, SP","FM-12","99999","V020","320,1,N,0051,1","03600,1,9,N","050000,1,N,1","+0161,1","+0060,1","10154,1",,,,,,,,"07,99,1,01,1,05,1,00800,1,07,1,06,1",,,,,"99999,9,09558,1","8,1,001,1,+999,9",,,,"SYN066AAXX  16094 08272 42584 73210 10161 20060 39558 40154 58001 81576;",
"08272099999","2010-06-16T12:00:00","4","39.8833333","-4.05","516.0","TOLEDO, SP","FM-12","99999","V020","340,1,N,0067,1","00750,1,9,N","040000,1,N,1","+0189,1","+0070,1","10147,1","06,0000,9,1",,,,,,,"07,99,1,06,1,05,1,00800,1,00,1,08,1",,,,,"99999,9,09557,1","8,1,001,1,+999,9",,,,"SYN072AAXX  16124 08272 12582 73413 10189 20070 39557 40147 58001 60001 86508;","Q01  00002PRCP06"
"08272099999","2010-06-16T15:00:00","4","39.8833333","-4.05","516.0","TOLEDO, SP","FM-12","99999","V020","310,1,N,0082,1","01200,1,9,N","060000,1,N,1","+0187,1","+0087,1","10146,1",,,,,,,,"07,99,1,06,1,08,1,00800,1,00,1,08,1",,,,,"99999,9,09556,1","6,1,001,1,+999,9",,,,"SYN066AAXX  16154 08272 42586 73116 10187 20087 39556 40146 56001 86808;",
"08272099999","2010-06-16T18:00:00","4","39.8833333","-4.05","516.0","TOLEDO, SP","FM-12","99999","V020","330,1,N,0051,1","01200,1,9,N","060000,1,N,1","+0181,1","+0075,1","10149,1","12,0000,9,1",,,,,,,"07,99,1,06,1,08,1,00800,1,07,1,08,1",,,,"999,M,+0210,1","99999,9,09558,1","1,1,002,1,+999,9",,,,"SYN082AAXX  16184 08272 12586 73310 10181 20075 39558 40149 51002 60002 86878 333 10210;","Q01  00002PRCP12"
"08272099999","2010-06-17T06:00:00","4","39.8833333","-4.05","516.0","TOLEDO, SP","FM-12","99999","V020","100,1,N,0021,1","22000,1,9,N","040000,1,N,1","+0125,1","+0078,1","10165,1","12,0000,9,1","24,0000,9,1",,,,,,"03,99,1,01,1,00,1,02250,1,03,1,02,1","0438,9","01,9","999,+0090,9","999,N,+0112,1","99999,9,09562,1","1,1,004,1,+999,9","02,1",,,"SYN112AAXX  17064 08272 11882 31004 10125 20078 39562 40165 51004 60002 702// 81032 333 20112 30009 50404 55073 70000;","Q01  00002PRCP24Q02  00002PRCP12"
"08272099999","2010-06-17T09:00:00","4","39.8833333","-4.05","516.0","TOLEDO, SP","FM-12","99999","V020","090,1,N,0036,1","22000,1,9,N","030000,1,N,1","+0182,1","+0076,1","10159,1",,,,,,,,"03,99,1,01,1,01,1,00800,1,00,1,02,1",,,,,"99999,9,09567,1","1,1,005,1,+999,9",,,,"SYN066AAXX  17094 08272 42580 30907 10182 20076 39567 40159 51005 81102;",
"08272099999","2010-06-17T12:00:00","4","39.8833333","-4.05","516.0","TOLEDO, SP","FM-12","99999","V020","060,1,N,0021,1","22000,1,9,N","040000,1,N,1","+0219,1","+0073,1","10139,1","06,0000,9,1",,,,,,,"04,99,1,01,1,01,1,00800,1,00,1,02,1",,,,,"99999,9,09556,1","7,1,011,1,+999,9",,,,"SYN072AAXX  17124 08272 12582 40604 10219 20073 39556 40139 57011 60001 81102;","Q01  00002PRCP06"
"08272099999","2010-06-17T15:00:00","4","39.8833333","-4.05","516.0","TOLEDO, SP","FM-12","99999","V020","270,1,N,0031,1","22000,1,9,N","040000,1,N,1","+0253,1","+0079,1","10119,1",,,,,,,,"03,99,1,02,1,01,1,00800,1,00,1,02,1",,,,,"99999,9,09543,1","6,1,013,1,+999,9",,,,"SYN066AAXX  17154 08272 42582 32706 10253 20079 39543 40119 56013 82102;",
"08272099999","2010-06-17T18:00:00","4","39.8833333","-4.05","516.0","TOLEDO, SP","FM-12","99999","V020","270,1,N,0015,1","22000,1,9,N","050000,1,N,1","+0251,1","+0073,1","10116,1","12,0000,9,1",,,,,,,"02,99,1,02,1,04,1,00800,1,00,1,00,1",,,,"999,M,+0260,1","99999,9,09540,1","6,1,003,1,+999,9",,,,"SYN082AAXX  17184 08272 12584 22703 10251 20073 39540 40116 56003 60002 82400 333 10260;","Q01  00002PRCP12"
"08272099999","2010-06-18T06:00:00","4","39.8833333","-4.05","516.0","TOLEDO, SP","FM-12","99999","V020","999,9,C,0000,1","03600,1,9,N","040000,1,N,1","+0143,1","+0107,1","10152,1","12,0000,9,1","24,0000,9,1",,,,,,"06,99,1,01,1,02,1,00800,1,07,1,00,1","0810,9","01,9","999,+0090,9","999,N,+0133,1","99999,9,09554,1","3,1,007,1,+999,9","02,1",,,"SYN112AAXX  18064 08272 11582 60000 10143 20107 39554 40152 53007 60002 702// 81270 333 20133 30009 50414 55135 70000;","Q01  00002PRCP24Q02  00002PRCP12"
"08272099999","2010-06-18T09:00:00","4","39.8833333","-4.05","516.0","TOLEDO, SP","FM-12","99999","V020","100,1,N,0021,1","09000,1,9,N","040000,1,N,1","+0211,1","+0128,1","10142,1",,,,,,"01,1,+00480,1,09,1",,"05,99,1,02,1,09,1,00800,1,08,1,03,1",,,,,"99999,9,09558,1","2,1,004,1,+999,9",,,,"SYN076AAXX  18094 08272 42582 51004 10211 20128 39558 40142 52004 82983 333 81916;",
"08272099999","2010-06-18T12:00:00","4","39.8833333","-4.05","516.0","TOLEDO, SP","FM-12","99999","V020","280,1,N,0026,1","22000,1,9,N","040000,1,N,1","+0253,1","+0107,1","10130,1","06,0003,9,1",,,"8,1,06,1","2,1,06,1",,,"04,99,1,03,1,02,1,00800,1,06,1,03,1",,,,,"99999,9,09554,1","8,1,004,1,+999,9","03,1",,,"SYN078AAXX  18124 08272 11582 42805 10253 20107 39554 40130 58004 69931 70382 83263;",
"08272099999","2010-06-18T15:00:00","4","39.8833333","-4.05","516.0","TOLEDO, SP","FM-12","99999","V020","290,1,N,0041,1","03600,1,9,N","040000,1,N,1","+0257,1","+0103,1","10115,1",,,,,,"01,1,+00390,1,09,1",,"06,99,1,03,1,03,1,00800,1,06,1,03,1",,,,,"99999,9,09541,1","6,1,013,1,+999,9",,,,"SYN076AAXX  18154 08272 42582 62908 10257 20103 39541 40115 56013 83363 333 81913;",
"08272099999","2010-06-18T18:00:00","4","39.8833333","-4.05","516.0","TOLEDO, SP","FM-12","99999","V020","340,1,N,0051,1","00420,1,C,N","015000,1,N,1","+0242,1","+0101,1","10111,1","12,0003,9,1",,,"8,1,06,1","2,1,06,1","02,1,+00390,1,09,1",,"06,99,1,05,1,09,1,00450,1,06,1,00,1",,,,"120,M,+0275,1","99999,9,09534,1","5,1,007,1,+999,9","95,1",,,"SYN100AAXX  18184 08272 11465 63410 10242 20101 39534 40111 55007 69932 79582 85960 333 10275 82913 83616;",
"08272099999","2010-06-21T06:00:00","4","39.8833333","-4.05","516.0","TOLEDO, SP","FM-12","99999","V020","080,1,N,0026,1","22000,1,9,N","030000,1,N,1","+0106,1","+0041,1","10196,1","12,0000,9,1","24,0000,9,1",,,,"00,1,+99999,9,99,9",,"00,99,1,00,1,00,1,99999,9,00,1,00,1","0840,9","01,9","999,+0080,9","999,N,+0098,1","99999,9,09586,1","3,1,011,1,+999,9","00,1",,,"SYN100AAXX  21064 08272 11980 00805 10106 20041 39586 40196 53011 60002 700// 333 20098 30008 55140 70000;","Q01  00002PRCP24Q02  00002PRCP12"
"08272099999","2010-06-21T09:00:00","4","39.8833333","-4.05","516.0","TOLEDO, SP","FM-12","99999","V020","090,1,N,0036,1","22000,1,9,N","040000,1,N,1","+0162,1","+0029,1","10188,1",,,,,,"00,1,+99999,9,99,9",,"00,99,1,00,1,00,1,99999,9,00,1,00,1",,,,,"99999,9,09590,1","1,1,004,1,+999,9",,,,"SYN060AAXX  21094 08272 42982 00907 10162 20029 39590 40188 51004;",
"08272099999","2010-06-21T12:00:00","4","39.8833333","-4.05","516.0","TOLEDO, SP","FM-12","99999","V020","270,1,N,0021,1","22000,1,9,N","040000,1,N,1","+0214,1","+0031,1","10164,1","06,0000,9,1",,,,,"00,1,+99999,9,99,9",,"00,99,1,00,1,00,1,99999,9,00,1,00,1",,,,,"99999,9,09578,1","7,1,012,1,+999,9",,,,"SYN066AAXX  21124 08272 12982 02704 10214 20031 39578 40164 57012 60001;","Q01  00002PRCP06"
"08272099999","2010-06-21T15:00:00","4","39.8833333","-4.05","516.0","TOLEDO, SP","FM-12","99999","V020","330,1,N,0021,1","22000,1,9,N","050000,1,N,1","+0256,1","+0047,1","10141,1",,,,,,"00,1,+99999,9,99,9",,"00,99,1,00,1,00,1,99999,9,00,1,00,1",,,,,"99999,9,09564,1","7,1,014,1,+999,9",,,,"SYN060AAXX  21154 08272 42984 03304 10256 20047 39564 40141 57014;",
"08272099999","2010-06-21T18:00:00","4","39.8833333","-4.05","516.0","TOLEDO, SP","FM-12","99999","V020","170,1,N,0021,1","22000,1,9,N","060000,1,N,1","+0261,1","+0067,1","10135,1","12,0000,9,1",,,,,"00,1,+99999,9,99,9",,"00,99,1,00,1,00,1,99999,9,00,1,00,1",,,,"999,M,+0274,1","99999,9,09560,1","6,1,004,1,+999,9",,,,"SYN076AAXX  21184 08272 12986 01704 10261 20067 39560 40135 56004 60002 333 10274;","Q01  00002PRCP12"
"08272099999","2010-06-22T06:00:00","4","39.8833333","-4.05","516.0","TOLEDO, SP","FM-12","99999","V020","999,9,C,0000,1","22000,1,9,N","040000,1,N,1","+0149,1","+0065,1","10186,1","12,0000,9,1","24,0000,9,1",,,,"00,1,+99999,9,99,9",,"00,99,1,00,1,00,1,99999,9,00,1,00,1","0864,9","01,9","999,+0080,9","999,N,+0134,1","99999,9,09586,1","3,1,009,1,+999,9","00,1",,,"SYN106AAXX  22064 08272 11982 00000 10149 20065 39586 40186 53009 60002 700// 333 20134 30008 50544 55144 70000;","Q01  00002PRCP24Q02  00002PRCP12"
"08272099999","2010-06-22T09:00:00","4","39.8833333","-4.05","516.0","TOLEDO, SP","FM-12","99999","V020","110,1,N,0031,1","22000,1,9,N","040000,1,N,1","+0230,1","+0054,1","10174,1",,,,,,"00,1,+99999,9,99,9",,"00,99,1,00,1,00,1,99999,9,00,1,00,1",,,,,"99999,9,09590,1","1,1,004,1,+999,9",,,,"SYN060AAXX  22094 08272 42982 01106 10230 20054 39590 40174 51004;",
"08272099999","2010-06-22T12:00:00","4","39.8833333","-4.05","516.0","TOLEDO, SP","FM-12","99999","V020","200,1,N,0021,1","22000,1,9,N","040000,1,N,1","+0285,1","+0077,1","10156,1","06,0000,9,1",,,,,"00,1,+99999,9,99,9",,"00,99,1,00,1,00,1,99999,9,00,1,00,1",,,,,"99999,9,09584,1","8,1,006,1,+999,9",,,,"SYN066AAXX  22124 08272 12982 02004 10285 20077 39584 40156 58006 60001;","Q01  00002PRCP06"
"08272099999","2010-06-22T15:00:00","4","39.8833333","-4.05","516.0","TOLEDO, SP","FM-12","99999","V020","120,1,N,0015,1","22000,1,9,N","050000,1,N,1","+0310,1","+0068,1","10138,1",,,,,,"00,1,+99999,9,99,9",,"00,99,1,00,1,00,1,99999,9,00,1,00,1",,,,,"99999,9,09571,1","7,1,013,1,+999,9",,,,"SYN060AAXX  22154 08272 42984 01203 10310 20068 39571 40138 57013;",
"08272099999","2010-06-22T18:00:00","4","39.8833333","-4.05","516.0","TOLEDO, SP","FM-12","99999","V020","240,1,N,0021,1","22000,1,9,N","060000,1,N,1","+0308,1","+0060,1","10129,1","12,0000,9,1",,,,,"00,1,+99999,9,99,9",,"00,99,1,00,1,00,1,99999,9,00,1,00,1",,,,"999,M,+0324,1","99999,9,09562,1","6,1,009,1,+999,9",,,,"SYN076AAXX  22184 08272 12986 02404 10308 20060 39562 40129 56009 60002 333 10324;","Q01  00002PRCP12"
"08272099999","2010-06-23T06:00:00","4","39.8833333","-4.05","516.0","TOLEDO, SP","FM-12","99999","V020","100,1,N,0015,1","22000,1,9,N","040000,1,N,1","+0165,1","+0104,1","10170,1","12,0000,9,1","24,0000,9,1",,,,,,"01,99,1,00,1,00,1,99999,9,00,1,01,1","0864,9","01,9","999,+0110,9","999,N,+0160,1","99999,9,09575,1","3,1,005,1,+999,9","02,1",,,"SYN112AAXX  23064 08272 11982 11003 10165 20104 39575 40170 53005 60002 702// 80001 333 20160 30011 50624 55144 70000;","Q01  00002PRCP24Q02  00002PRCP12"
"08272099999","2010-06-23T09:00:00","4","39.8833333","-4.05","516.0","TOLEDO, SP","FM-12","99999","V020","090,1,N,0026,1","22000,1,9,N","040000,1,N,1","+0242,1","+0137,1","10156,1",,,,,,,,"01,99,1,00,1,00,1,99999,9,00,1,01,1",,,,,"99999,9,09577,1","1,1,002,1,+999,9",,,,"SYN066AAXX  23094 08272 42982 10905 10242 20137 39577 40156 51002 80001;",
"08272099999","2010-06-23T12:00:00","4","39.8833333","-4.05","516.0","TOLEDO, SP","FM-12","99999","V020","190,1,N,0021,1","22000,1,9,N","040000,1,N,1","+0297,1","+0093,1","10136,1","06,0000,9,1",,,,,,,"01,99,1,01,1,01,1,01250,1,00,1,00,1",,,,,"99999,9,09568,1","8,1,009,1,+999,9",,,,"SYN072AAXX  23124 08272 12682 11904 10297 20093 39568 40136 58009 60001 81100;","Q01  00002PRCP06"
"08272099999","2010-06-23T15:00:00","4","39.8833333","-4.05","516.0","TOLEDO, SP","FM-12","99999","V020","230,1,N,0021,1","22000,1,9,N","050000,1,N,1","+0334,1","+0059,1","10110,1",,,,,,,,"01,99,1,01,1,01,1,01250,1,00,1,00,1",,,,,"99999,9,09549,1","7,1,019,1,+999,9",,,,"SYN066AAXX  23154 08272 42684 12304 10334 20059 39549 40110 57019 81100;",
"08272099999","2010-06-23T18:00:00","4","39.8833333","-4.05","516.0","TOLEDO, SP","FM-12","99999","V020","280,1,N,0031,1","22000,1,9,N","050000,1,N,1","+0331,1","+0092,1","10100,1","12,0000,9,1",,,,,"00,1,+99999,9,99,9",,"00,99,1,00,1,00,1,99999,9,00,1,00,1",,,,"999,M,+0340,1","99999,9,09540,1","6,1,009,1,+999,9",,,,"SYN076AAXX  23184 08272 12984 02806 10331 20092 39540 40100 56009 60002 333 10340;","Q01  00002PRCP12"
"08272099999","2010-06-24T06:00:00","4","39.8833333","-4.05","516.0","TOLEDO, SP","FM-12","99999","V020","090,1,N,0057,1","22000,1,9,N","030000,1,N,1","+0193,1","+0139,1","10140,1","12,0000,9,1","24,0000,9,1",,,,,,"03,99,1,00,1,00,1,99999,9,00,1,02,1","0858,9","01,9","999,+0160,9","999,N,+0186,1","99999,9,09553,1","3,1,006,1,+999,9","02,1",,,"SYN112AAXX  24064 08272 11980 30911 10193 20139 39553 40140 53006 60002 702// 80002 333 20186 30016 50644 55143 70000;","Q01  00002PRCP24Q02  00002PRCP12"
"08272099999","2010-06-24T09:00:00","4","39.8833333","-4.05","516.0","TOLEDO, SP","FM-12","99999","V020","120,1,N,0046,1","22000,1,9,N","030000,1,N,1","+0241,1","+0139,1","10137,1",,,,,,,,"02,99,1,00,1,00,1,99999,9,00,1,01,1",,,,,"99999,9,09559,1","1,1,006,1,+999,9",,,,"SYN066AAXX  24094 08272 42980 21209 10241 20139 39559 40137 51006 80001;",
"08272099999","2010-06-24T12:00:00","4","39.8833333","-4.05","516.0","TOLEDO, SP","FM-12","99999","V020","100,1,N,0036,1","22000,1,9,N","035000,1,N,1","+0307,1","+0126,1","10118,1","06,0000,9,1",,,,,,,"05,99,1,01,1,01,1,01250,1,00,1,01,1",,,,,"99999,9,09553,1","8,1,006,1,+999,9",,,,"SYN072AAXX  24124 08272 12681 51007 10307 20126 39553 40118 58006 60001 81101;","Q01  00002PRCP06"
"08272099999","2010-06-24T15:00:00","4","39.8833333","-4.05","516.0","TOLEDO, SP","FM-12","99999","V020","090,1,N,0031,1","22000,1,9,N","030000,1,N,1","+0339,1","+0105,1","10094,1",,,,,,,,"06,99,1,02,1,02,1,00800,1,00,1,01,1",,,,,"99999,9,09536,1","7,1,017,1,+999,9",,,,"SYN066AAXX  24154 08272 42580 60906 10339 20105 39536 40094 57017 82201;",
"08272099999","2010-06-24T18:00:00","4","39.8833333","-4.05","516.0","TOLEDO, SP","FM-12","99999","V020","280,1,N,0010,1","03600,1,C,N","018000,1,N,1","+0337,1","+0115,1","10084,1","12,9999,9,9",,,"9,1,06,1","2,1,06,1","03,1,+00390,1,09,1",,"06,99,1,04,1,09,1,00450,1,06,1,03,1",,,,"120,M,+0351,1","99999,9,09526,1","5,1,010,1,+999,9","95,1",,,"SYN100AAXX  24184 08272 11468 62802 10337 20115 39526 40084 55010 69902 79592 84963 333 10351 83913 85058;","Q01  00002PRCP12Q02  00002PRCP12"
"08272099999","2010-06-25T06:00:00","4","39.8833333","-4.05","516.0","TOLEDO, SP","FM-12","99999","V020","090,1,N,0026,1","03600,1,9,N","018000,1,N,1","+0205,1","+0155,1","10136,1","12,0041,9,2","24,0038,9,2",,,,"02,1,+00390,1,09,1",,"06,99,1,03,1,09,1,00450,1,06,1,03,1","0762,9","09,9","999,+0170,9","999,N,+0200,1","99999,9,09552,1","2,1,005,1,+999,9","03,1",,,"SYN118AAXX  25064 08272 11468 60905 10205 20155 39552 40136 52005 60042 703// 83963 333 20200 31017 50574 55127 70038 82913;",
"08272099999","2010-06-25T09:00:00","4","39.8833333","-4.05","516.0","TOLEDO, SP","FM-12","99999","V020","070,1,N,0015,1","09000,1,9,N","040000,1,N,1","+0256,1","+0141,1","10127,1",,,,"9,1,03,1","2,1,03,1","01,1,+00480,1,09,1",,"05,99,1,02,1,09,1,00800,1,06,1,03,1",,,,,"99999,9,09553,1","0,1,001,1,+999,9","01,1",,,"SYN088AAXX  25094 08272 41582 50703 10256 20141 39553 40127 50001 70192 82963 333 81916 83356;",
"08272099999","2010-06-25T12:00:00","4","39.8833333","-4.05","516.0","TOLEDO, SP","FM-12","99999","V020","010,1,N,0036,1","09000,1,9,N","040000,1,N,1","+0287,1","+0138,1","10112,1","06,0000,9,1",,,"9,1,06,1","2,1,06,1",,,"05,99,1,01,1,02,1,00800,1,08,1,03,1",,,,,"99999,9,09544,1","8,1,009,1,+999,9","02,1",,,"SYN078AAXX  25124 08272 11582 50107 10287 20138 39544 40112 58009 69911 70292 81283;","Q01  00002PRCP06"
"08272099999","2010-06-25T15:00:00","4","39.8833333","-4.05","516.0","TOLEDO, SP","FM-12","99999","V020","140,1,N,0021,1","22000,1,9,N","040000,1,N,1","+0318,1","+0131,1","10085,1",,,,,,"01,1,+00480,1,09,1",,"03,99,1,02,1,03,1,00800,1,08,1,02,1",,,,,"99999,9,09524,1","7,1,020,1,+999,9",,,,"SYN076AAXX  25154 08272 42582 31404 10318 20131 39524 40085 57020 82382 333 81916;",
"08272099999","2010-06-25T18:00:00","4","39.8833333","-4.05","516.0","TOLEDO, SP","FM-12","99999","V020","330,1,N,0015,1","00420,1,C,N","015000,1,N,1","+0303,1","+0131,1","10078,1","12,0000,9,1",,,"2,1,06,1","2,1,06,1","03,1,+00390,1,09,1",,"07,99,1,06,1,09,1,00450,1,06,1,99,9",,,,"120,M,+0324,1","99999,9,09515,1","5,1,009,1,+999,9","17,1",,,"SYN100AAXX  25184 08272 11465 73303 10303 20131 39515 40078 55009 60002 71722 8696/ 333 10324 83913 83616;","Q01  00002PRCP12"
"08272099999","2010-06-28T06:00:00","4","39.8833333","-4.05","516.0","TOLEDO, SP","FM-12","99999","V020","090,1,N,0021,1","09000,1,9,N","040000,1,N,1","+0183,1","+0130,1","10179,1","12,0000,9,1","24,0000,9,1",,,,,,"06,99,1,04,1,00,1,01750,1,07,1,08,1","0498,9","01,9","999,+0150,9","999,N,+0178,1","99999,9,09587,1","3,1,008,1,+999,9","02,1",,,"SYN106AAXX  28064 08272 11782 60904 10183 20130 39587 40179 53008 60002 702// 84078 333 20178 30015 55083 70000;","Q01  00002PRCP24Q02  00002PRCP12"
"08272099999","2010-06-28T09:00:00","4","39.8833333","-4.05","516.0","TOLEDO, SP","FM-12","99999","V020","090,1,N,0031,1","22000,1,9,N","040000,1,N,1","+0241,1","+0104,1","10176,1",,,,,,,,"03,99,1,01,1,00,1,02250,1,08,1,01,1",,,,,"99999,9,09595,1","1,1,008,1,+999,9",,,,"SYN066AAXX  28094 08272 42882 30906 10241 20104 39595 40176 51008 81081;",
"08272099999","2010-06-28T12:00:00","4","39.8833333","-4.05","516.0","TOLEDO, SP","FM-12","99999","V020","090,1,N,0026,1","22000,1,9,N","030000,1,N,1","+0288,1","+0118,1","10163,1","06,0000,9,1",,,,,,,"02,99,1,00,1,00,1,99999,9,00,1,01,1",,,,,"99999,9,09592,1","7,1,003,1,+999,9",,,,"SYN072AAXX  28124 08272 12980 20905 10288 20118 39592 40163 57003 60001 80001;","Q01  00002PRCP06"
"08272099999","2010-06-28T15:00:00","4","39.8833333","-4.05","516.0","TOLEDO, SP","FM-12","99999","V020","150,1,N,0021,1","22000,1,9,N","030000,1,N,1","+0318,1","+0110,1","10136,1",,,,,,,,"02,99,1,01,1,02,1,00800,1,06,1,03,1",,,,,"99999,9,09572,1","7,1,020,1,+999,9",,,,"SYN066AAXX  28154 08272 42580 21504 10318 20110 39572 40136 57020 81263;",
"08272099999","2010-06-28T18:00:00","4","39.8833333","-4.05","516.0","TOLEDO, SP","FM-12","99999","V020","300,1,N,0026,1","22000,1,9,N","040000,1,N,1","+0321,1","+0107,1","10127,1","12,0000,9,1",,,,,"01,1,+00480,1,09,1",,"02,99,1,01,1,03,1,00800,1,06,1,03,1",,,,"120,M,+0330,1","99999,9,09564,1","5,1,008,1,+999,9",,,,"SYN088AAXX  28184 08272 12582 23005 10321 20107 39564 40127 55008 60002 81363 333 10330 81916;","Q01  00002PRCP12"
"08272099999","2010-06-29T06:00:00","4","39.8833333","-4.05","516.0","TOLEDO, SP","FM-12","99999","V020","100,1,N,0010,1","22000,1,9,N","020000,1,N,1","+0202,1","+0146,1","10183,1","12,0000,9,1","24,0000,9,1",,,,,,"04,99,1,04,1,00,1,02250,1,08,1,00,1","0792,9","01,9","999,+0160,9","999,N,+0199,1","99999,9,09595,1","3,1,004,1,+999,9","02,1",,,"SYN112AAXX  29064 08272 11870 41002 10202 20146 39595 40183 53004 60002 702// 84080 333 20199 30016 50604 55132 70000;","Q01  00002PRCP24Q02  00002PRCP12"
"08272099999","2010-06-29T09:00:00","4","39.8833333","-4.05","516.0","TOLEDO, SP","FM-12","99999","V020","110,1,N,0031,1","22000,1,9,N","030000,1,N,1","+0252,1","+0117,1","10181,1",,,,,,,,"02,99,1,02,1,00,1,02250,1,03,1,00,1",,,,,"99999,9,09602,1","1,1,007,1,+999,9",,,,"SYN066AAXX  29094 08272 42880 21106 10252 20117 39602 40181 51007 82030;",
"08272099999","2010-06-29T12:00:00","4","39.8833333","-4.05","516.0","TOLEDO, SP","FM-12","99999","V020","200,1,N,0026,1","22000,1,9,N","030000,1,N,1","+0300,1","+0124,1","10166,1","06,0000,9,1",,,,,"01,1,+00480,1,09,1",,"02,99,1,02,1,09,1,00800,1,00,1,03,1",,,,,"99999,9,09597,1","8,1,005,1,+999,9",,,,"SYN082AAXX  29124 08272 12580 22005 10300 20124 39597 40166 58005 60001 82903 333 81916;","Q01  00002PRCP06"
"08272099999","2010-06-29T15:00:00","4","39.8833333","-4.05","516.0","TOLEDO, SP","FM-12","99999","V020","340,1,N,0031,1","22000,1,9,N","030000,1,N,1","+0332,1","+0117,1","10144,1",,,,,,"01,1,+00480,1,09,1",,"03,99,1,02,1,03,1,00800,1,00,1,03,1",,,,,"99999,9,09582,1","7,1,015,1,+999,9",,,,"SYN076AAXX  29154 08272 42580 33406 10332 20117 39582 40144 57015 82303 333 81916;",
"08272099999","2010-06-29T18:00:00","4","39.8833333","-4.05","516.0","TOLEDO, SP","FM-12","99999","V020","060,1,N,0026,1","22000,1,9,N","030000,1,N,1","+0326,1","+0117,1","10139,1","12,0000,9,1",,,,,"01,1,+00480,1,09,1",,"03,99,1,02,1,09,1,00800,1,06,1,03,1",,,,"120,M,+0340,1","99999,9,09576,1","5,1,006,1,+999,9",,,,"SYN088AAXX  29184 08272 12580 30605 10326 20117 39576 40139 55006 60002 82963 333 10340 81916;","Q01  00002PRCP12"
"08272099999","2010-06-30T06:00:00","4","39.8833333","-4.05","516.0","TOLEDO, SP","FM-12","99999","V020","100,1,N,0015,1","22000,1,9,N","030000,1,N,1","+0198,1","+0142,1","10188,1","12,0000,9,1","24,0000,9,1",,,,"00,1,+99999,9,99,9",,"00,99,1,00,1,00,1,99999,9,00,1,00,1","0756,9","01,9","999,+0170,9","999,N,+0195,1","99999,9,09599,1","2,1,006,1,+999,9","00,1",,,"SYN106AAXX  30064 08272 11980 01003 10198 20142 39599 40188 52006 60002 700// 333 20195 30017 50634 55126 70000;","Q01  00002PRCP24Q02  00002PRCP12"
"08272099999","2010-06-30T09:00:00","4","39.8833333","-4.05","516.0","TOLEDO, SP","FM-12","99999","V020","100,1,N,0036,1","22000,1,9,N","030000,1,N,1","+0261,1","+0146,1","10175,1",,,,,,"00,1,+99999,9,99,9",,"00,99,1,00,1,00,1,99999,9,00,1,00,1",,,,,"99999,9,09599,1","4,1,000,1,+999,9",,,,"SYN060AAXX  30094 08272 42980 01007 10261 20146 39599 40175 54000;",
"08272099999","2010-06-30T12:00:00","4","39.8833333","-4.05","516.0","TOLEDO, SP","FM-12","99999","V020","150,1,N,0021,1","22000,1,9,N","030000,1,N,1","+0317,1","+0115,1","10159,1","06,0000,9,1",,,,,,,"01,99,1,01,1,02,1,00800,1,00,1,00,1",,,,,"99999,9,09593,1","8,1,006,1,+999,9",,,,"SYN072AAXX  30124 08272 12580 11504 10317 20115 39593 40159 58006 60001 81200;","Q01  00002PRCP06"
"08272099999","2010-06-30T15:00:00","4","39.8833333","-4.05","516.0","TOLEDO, SP","FM-12","99999","V020","260,1,N,0036,1","22000,1,9,N","030000,1,N,1","+0343,1","+0095,1","10135,1",,,,,,,,"02,99,1,02,1,02,1,00800,1,00,1,02,1",,,,,"99999,9,09575,1","6,1,018,1,+999,9",,,,"SYN066AAXX  30154 08272 42580 22607 10343 20095 39575 40135 56018 82202;",
"08272099999","2010-06-30T18:00:00","4","39.8833333","-4.05","516.0","TOLEDO, SP","FM-12","99999","V020","250,1,N,0021,1","22000,1,9,N","040000,1,N,1","+0338,1","+0104,1","10125,1","12,0000,9,1",,,,,,,"02,99,1,01,1,02,1,00800,1,06,1,02,1",,,,"999,M,+0350,1","99999,9,09565,1","6,1,010,1,+999,9",,,,"SYN082AAXX  30184 08272 12582 22504 10338 20104 39565 40125 56010 60002 81262 333 10350;","Q01  00002PRCP12"
"08272099999","2010-07-01T06:00:00","4","39.8833333","-4.05","516.0","TOLEDO, SP","FM-12","99999","V020","100,1,N,0026,1","22000,1,9,N","020000,1,N,1","+0208,1","+0120,1","10154,1","12,0000,9,1","24,0000,9,1",,,,,,"03,99,1,02,1,00,1,02250,1,08,1,09,1","0846,9","01,9","999,+0170,9","999,N,+0205,1","99999,9,09568,1","3,1,002,1,+999,9","02,1",,,"SYN112AAXX  01064 08272 11870 31005 10208 20120 39568 40154 53002 60002 702// 82089 333 20205 30017 50664 55141 70000;","Q01  00002PRCP24Q02  00002PRCP12"
"08272099999","2010-07-01T09:00:00","4","39.8833333","-4.05","516.0","TOLEDO, SP","FM-12","99999","V020","160,1,N,0021,1","03600,1,9,N","020000,1,N,1","+0259,1","+0131,1","10147,1",,,,,,,,"06,99,1,01,1,05,1,01250,1,07,1,00,1",,,,,"99999,9,09572,1","1,1,004,1,+999,9",,,,"SYN066AAXX  01094 08272 42670 61604 10259 20131 39572 40147 51004 81570;",
"08272099999","2010-07-01T12:00:00","4","39.8833333","-4.05","516.0","TOLEDO, SP","FM-12","99999","V020","230,1,N,0015,1","03600,1,9,N","018000,1,N,1","+0278,1","+0148,1","10140,1","06,0000,9,1",,,"6,1,06,1","2,1,06,1",,,"07,99,1,01,1,05,1,01250,1,07,1,99,9",,,,,"99999,9,09569,1","8,1,003,1,+999,9","02,1",,,"SYN078AAXX  01124 08272 11668 72303 10278 20148 39569 40140 58003 69901 70262 8157/;","Q01  00002PRCP06"
"08272099999","2010-07-01T15:00:00","4","39.8833333","-4.05","516.0","TOLEDO, SP","FM-12","99999","V020","270,1,N,0021,1","22000,1,9,N","015000,1,N,1","+0342,1","+0141,1","10106,1",,,,"1,1,03,1","1,1,03,1","01,1,+00480,1,09,1",,"04,99,1,02,1,03,1,00800,1,08,1,02,1",,,,,"99999,9,09548,1","7,1,021,1,+999,9","15,1",,,"SYN082AAXX  01154 08272 41565 42704 10342 20141 39548 40106 57021 71511 82382 333 81916;",
"08272099999","2010-07-01T18:00:00","4","39.8833333","-4.05","516.0","TOLEDO, SP","FM-12","99999","V020","210,1,N,0031,1","03600,1,C,N","020000,1,N,1","+0274,1","+0173,1","10105,1","12,0000,9,1",,,"9,1,06,1","2,1,06,1","01,1,+00480,1,09,1",,"06,99,1,01,1,09,1,00800,1,09,1,08,1",,,,"120,M,+0350,1","99999,9,09536,1","8,1,012,1,+999,9","02,1",,,"SYN100AAXX  01184 08272 11570 62106 10274 20173 39536 40105 58012 69912 70292 81998 333 10350 81916 83350;","Q01  00002PRCP12"
"08272099999","2010-07-02T06:00:00","4","39.8833333","-4.05","516.0","TOLEDO, SP","FM-12","99999","V020","999,9,C,0000,1","03600,1,9,N","015000,1,N,1","+0198,1","+0154,1","10137,1","12,0000,9,1","24,0000,9,1",,,,,,"07,99,1,03,1,05,1,00800,1,07,1,99,9","0372,9","01,9","999,+0160,9","999,N,+0193,1","99999,9,09551,1","3,1,011,1,+999,9","02,1",,,"SYN112AAXX  02064 08272 11565 70000 10198 20154 39551 40137 53011 60002 702// 8357/ 333 20193 30016 50424 55062 70001;","Q01  00002PRCP24Q02  00002PRCP12"
"08272099999","2010-07-02T09:00:00","4","39.8833333","-4.05","516.0","TOLEDO, SP","FM-12","99999","V020","230,1,N,0010,1","00420,1,C,N","010000,1,N,1","+0217,1","+0175,1","10139,1",,,,"9,1,03,1","2,1,03,1","03,1,+00390,1,09,1",,"07,99,1,07,1,09,1,00450,1,07,1,99,9",,,,,"99999,9,09557,1","0,1,006,1,+999,9","95,1",,,"SYN088AAXX  02094 08272 41460 72302 10217 20175 39557 40139 50006 79592 8797/ 333 83913 84616;",
"08272099999","2010-07-02T12:00:00","4","39.8833333","-4.05","516.0","TOLEDO, SP","FM-12","99999","V020","100,1,N,0021,1","22000,1,9,N","030000,1,N,1","+0300,1","+0145,1","10117,1","06,0010,9,1",,,"9,1,06,1","1,1,06,1",,,"03,99,1,01,1,02,1,00800,1,08,1,01,1",,,,,"99999,9,09551,1","6,1,006,1,+999,9","02,1",,,"SYN078AAXX  02124 08272 11580 31004 10300 20145 39551 40117 56006 69991 70291 81281;",
"08272099999","2010-07-02T15:00:00","4","39.8833333","-4.05","516.0","TOLEDO, SP","FM-12","99999","V020","110,1,N,0021,1","03600,1,9,N","030000,1,N,1","+0336,1","+0126,1","10095,1",,,,,,,,"05,99,1,04,1,02,1,00800,1,06,1,01,1",,,,,"99999,9,09536,1","7,1,015,1,+999,9",,,,"SYN066AAXX  02154 08272 42580 51104 10336 20126 39536 40095 57015 84261;",
"08272099999","2010-07-02T18:00:00","4","39.8833333","-4.05","516.0","TOLEDO, SP","FM-12","99999","V020","020,1,N,0026,1","03600,1,9,N","030000,1,N,1","+0317,1","+0135,1","10086,1","12,0010,9,1",,,"8,1,06,1","2,1,06,1",,,"06,99,1,01,1,02,1,00800,1,06,1,08,1",,,,"999,M,+0339,1","99999,9,09525,1","6,1,011,1,+999,9","02,1",,,"SYN088AAXX  02184 08272 11580 60205 10317 20135 39525 40086 56011 69992 70282 81268 333 10339;",
"08272099999","2010-07-05T06:00:00","4","39.8833333","-4.05","516.0","TOLEDO, SP","FM-12","99999","V020","090,1,N,0036,1","22000,1,9,N","040000,1,N,1","+0209,1","+0131,1","10199,1","12,0000,9,1","24,0000,9,1",,,,"00,1,+99999,9,99,9",,"00,99,1,00,1,00,1,99999,9,00,1,00,1","0834,9","01,9","999,+0180,9","999,N,+0202,1","99999,9,09611,1","3,1,007,1,+999,9","00,1",,,"SYN100AAXX  05064 08272 11982 00907 10209 20131 39611 40199 53007 60002 700// 333 20202 30018 55139 70000;","Q01  00002PRCP24Q02  00002PRCP12"
"08272099999","2010-07-05T09:00:00","4","39.8833333","-4.05","516.0","TOLEDO, SP","FM-12","99999","V020","100,1,N,0021,1","22000,1,9,N","040000,1,N,1","+0277,1","+0113,1","10192,1",,,,,,"00,1,+99999,9,99,9",,"00,99,1,00,1,00,1,99999,9,00,1,00,1",,,,,"99999,9,09617,1","1,1,006,1,+999,9",,,,"SYN060AAXX  05094 08272 42982 01004 10277 20113 39617 40192 51006;",
"08272099999","2010-07-05T12:00:00","4","39.8833333","-4.05","516.0","TOLEDO, SP","FM-12","99999","V020","160,1,N,0026,1","22000,1,9,N","040000,1,N,1","+0326,1","+0133,1","10171,1","06,0000,9,1",,,,,"00,1,+99999,9,99,9",,"00,99,1,00,1,00,1,99999,9,00,1,00,1",,,,,"99999,9,09607,1","8,1,010,1,+999,9",,,,"SYN066AAXX  05124 08272 12982 01605 10326 20133 39607 40171 58010 60001;","Q01  00002PRCP06"
"08272099999","2010-07-05T15:00:00","4","39.8833333","-4.05","516.0","TOLEDO, SP","FM-12","99999","V020","090,1,N,0031,1","22000,1,9,N","035000,1,N,1","+0355,1","+0131,1","10147,1",,,,,,,,"01,99,1,01,1,01,1,00800,1,00,1,00,1",,,,,"99999,9,09589,1","7,1,018,1,+999,9",,,,"SYN066AAXX  05154 08272 42581 10906 10355 20131 39589 40147 57018 81100;",
"08272099999","2010-07-05T18:00:00","4","39.8833333","-4.05","516.0","TOLEDO, SP","FM-12","99999","V020","100,1,N,0041,1","22000,1,9,N","035000,1,N,1","+0345,1","+0110,1","10144,1","12,0000,9,1",,,,,,,"01,99,1,01,1,01,1,00800,1,00,1,00,1",,,,"999,M,+0360,1","99999,9,09584,1","7,1,005,1,+999,9",,,,"SYN082AAXX  05184 08272 12581 11008 10345 20110 39584 40144 57005 60002 81100 333 10360;","Q01  00002PRCP12"
"08272099999","2010-07-06T06:00:00","4","39.8833333","-4.05","516.0","TOLEDO, SP","FM-12","99999","V020","110,1,N,0021,1","22000,1,9,N","035000,1,N,1","+0209,1","+0123,1","10196,1","12,0000,9,1","24,0000,9,1",,,,"00,1,+99999,9,99,9",,"00,99,1,00,1,00,1,99999,9,00,1,00,1","0804,9","01,9","999,+0170,9","999,N,+0201,1","99999,9,09608,1","1,1,008,1,+999,9","00,1",,,"SYN106AAXX  06064 08272 11981 01104 10209 20123 39608 40196 51008 60002 700// 333 20201 30017 50714 55134 70000;","Q01  00002PRCP24Q02  00002PRCP12"
"08272099999","2010-07-06T09:00:00","4","39.8833333","-4.05","516.0","TOLEDO, SP","FM-12","99999","V020","100,1,N,0036,1","22000,1,9,N","030000,1,N,1","+0275,1","+0155,1","10184,1",,,,,,"00,1,+99999,9,99,9",,"00,99,1,00,1,00,1,99999,9,00,1,00,1",,,,,"99999,9,09610,1","1,1,002,1,+999,9",,,,"SYN060AAXX  06094 08272 42980 01007 10275 20155 39610 40184 51002;",
"08272099999","2010-07-06T12:00:00","4","39.8833333","-4.05","516.0","TOLEDO, SP","FM-12","99999","V020","100,1,N,0036,1","22000,1,9,N","030000,1,N,1","+0341,1","+0146,1","10160,1","06,0000,9,1",,,,,,,"01,99,1,01,1,01,1,00800,1,00,1,00,1",,,,,"99999,9,09599,1","8,1,011,1,+999,9",,,,"SYN072AAXX  06124 08272 12580 11007 10341 20146 39599 40160 58011 60001 81100;","Q01  00002PRCP06"
"08272099999","2010-07-06T15:00:00","4","39.8833333","-4.05","516.0","TOLEDO, SP","FM-12","99999","V020","130,1,N,0031,1","22000,1,9,N","035000,1,N,1","+0368,1","+0129,1","10135,1",,,,,,,,"01,99,1,01,1,01,1,00800,1,00,1,00,1",,,,,"99999,9,09580,1","7,1,019,1,+999,9",,,,"SYN066AAXX  06154 08272 42581 11306 10368 20129 39580 40135 57019 81100;",
"08272099999","2010-07-06T18:00:00","4","39.8833333","-4.05","516.0","TOLEDO, SP","FM-12","99999","V020","090,1,N,0031,1","22000,1,9,N","030000,1,N,1","+0360,1","+0129,1","10126,1","12,0000,9,1",,,,,,,"01,99,1,01,1,01,1,00800,1,03,1,00,1",,,,"999,M,+0374,1","99999,9,09570,1","7,1,010,1,+999,9",,,,"SYN082AAXX  06184 08272 12580 10906 10360 20129 39570 40126 57010 60002 81130 333 10374;","Q01  00002PRCP12"
"08272099999","2010-07-07T06:00:00","4","39.8833333","-4.05","516.0","TOLEDO, SP","FM-12","99999","V020","090,1,N,0046,1","22000,1,9,N","040000,1,N,1","+0225,1","+0133,1","10169,1","12,0000,9,1","24,0000,9,1",,,,"00,1,+99999,9,99,9",,"00,99,1,00,1,00,1,99999,9,00,1,00,1","0840,9","01,9","999,+0200,9","999,N,+0222,1","99999,9,09586,1","3,1,011,1,+999,9","00,1",,,"SYN106AAXX  07064 08272 11982 00909 10225 20133 39586 40169 53011 60002 700// 333 20222 30020 50754 55140 70000;","Q01  00002PRCP24Q02  00002PRCP12"
"08272099999","2010-07-07T09:00:00","4","39.8833333","-4.05","516.0","TOLEDO, SP","FM-12","99999","V020","100,1,N,0046,1","22000,1,9,N","035000,1,N,1","+0283,1","+0145,1","10159,1",,,,,,,,"02,99,1,00,1,00,1,99999,9,00,1,01,1",,,,,"99999,9,09588,1","1,1,002,1,+999,9",,,,"SYN066AAXX  07094 08272 42981 21009 10283 20145 39588 40159 51002 80001;",
"08272099999","2010-07-07T12:00:00","4","39.8833333","-4.05","516.0","TOLEDO, SP","FM-12","99999","V020","140,1,N,0031,1","22000,1,9,N","035000,1,N,1","+0349,1","+0131,1","10145,1","06,0000,9,1",,,,,,,"01,99,1,01,1,01,1,00800,1,00,1,01,1",,,,,"99999,9,09586,1","5,1,002,1,+999,9",,,,"SYN072AAXX  07124 08272 12581 11406 10349 20131 39586 40145 55002 60001 81101;","Q01  00002PRCP06"
"08272099999","2010-07-07T15:00:00","4","39.8833333","-4.05","516.0","TOLEDO, SP","FM-12","99999","V020","340,1,N,0026,1","22000,1,9,N","035000,1,N,1","+0378,1","+0137,1","10127,1",,,,,,,,"02,99,1,01,1,01,1,00800,1,00,1,08,1",,,,,"99999,9,09574,1","8,1,012,1,+999,9",,,,"SYN066AAXX  07154 08272 42581 23405 10378 20137 39574 40127 58012 81108;",
"08272099999","2010-07-07T18:00:00","4","39.8833333","-4.05","516.0","TOLEDO, SP","FM-12","99999","V020","110,1,N,0041,1","22000,1,9,N","035000,1,N,1","+0366,1","+0127,1","10113,1","12,0000,9,1",,,,,,,"01,99,1,01,1,00,1,02250,1,08,1,00,1",,,,"999,M,+0387,1","99999,9,09559,1","6,1,015,1,+999,9",,,,"SYN082AAXX  07184 08272 12881 11108 10366 20127 39559 40113 56015 60002 81080 333 10387;","Q01  00002PRCP12"
"08272099999","2010-07-08T06:00:00","4","39.8833333","-4.05","516.0","TOLEDO, SP","FM-12","99999","V020","080,1,N,0036,1","03600,1,C,N","035000,1,N,1","+0272,1","+0120,1","10141,1","12,0000,9,1","24,0000,9,1",,,,"02,1,+00900,1,09,1",,"07,99,1,02,1,09,1,00800,1,07,1,06,1","0768,9","01,9","999,+0250,9","999,N,+0271,1","99999,9,09568,1","3,1,002,1,+999,9","14,1",,,"SYN124AAXX  08064 08272 11581 70807 10272 20120 39568 40141 53002 60002 714// 82976 333 20271 30025 50924 55128 70000 82930 86276;","Q01  00002PRCP24Q02  00002PRCP12"
"08272099999","2010-07-08T09:00:00","4","39.8833333","-4.05","516.0","TOLEDO, SP","FM-12","99999","V020","110,1,N,0031,1","03600,1,9,N","035000,1,N,1","+0320,1","+0132,1","10141,1",,,,,,,,"08,99,1,02,1,02,1,01250,1,03,1,08,1",,,,,"99999,9,09577,1","3,1,009,1,+999,9",,,,"SYN066AAXX  08094 08272 42681 81106 10320 20132 39577 40141 53009 82238;",
"08272099999","2010-07-08T12:00:00","4","39.8833333","-4.05","516.0","TOLEDO, SP","FM-12","99999","V020","140,1,N,0062,1","03600,1,C,N","030000,1,N,1","+0313,1","+0111,1","10131,1","06,0000,9,1",,,"8,1,06,1","2,1,06,1","04,1,+01500,1,09,1",,"08,99,1,04,1,09,1,01250,1,07,1,07,1",,,,,"99999,9,09566,1","5,1,011,1,+999,9","17,1",,,"SYN094AAXX  08124 08272 11680 81412 10313 20111 39566 40131 55011 69901 71782 84977 333 84950 88280;","Q01  00002PRCP06"
"08272099999","2010-07-08T15:00:00","4","39.8833333","-4.05","516.0","TOLEDO, SP","FM-12","99999","V020","330,1,N,0036,1","03600,1,C,N","040000,1,N,1","+0298,1","+0176,1","10129,1",,,,"9,1,03,1","2,1,03,1","04,1,+01500,1,09,1",,"07,99,1,04,1,09,1,01250,1,07,1,08,1",,,,,"99999,9,09563,1","8,1,003,1,+999,9","25,1",,,"SYN088AAXX  08154 08272 41682 73307 10298 20176 39563 40129 58003 72592 84978 333 84950 86280;",
"08272099999","2010-07-08T18:00:00","4","39.8833333","-4.05","516.0","TOLEDO, SP","FM-12","99999","V020","330,1,N,0015,1","03600,1,C,N","040000,1,N,1","+0303,1","+0177,1","10113,1","12,0003,9,1",,,"9,1,06,1","8,1,06,1","03,1,+01500,1,09,1",,"07,99,1,04,1,09,1,01250,1,07,1,08,1",,,,"120,M,+0326,1","99999,9,09549,1","8,1,014,1,+999,9","02,1",,,"SYN094AAXX  08184 08272 11682 73303 10303 20177 39549 40113 58014 69932 70298 84978 333 10326 83950;",
"08272099999","2010-07-09T06:00:00","4","39.8833333","-4.05","516.0","TOLEDO, SP","FM-12","99999","V020","240,1,N,0010,1","22000,1,9,N","035000,1,N,1","+0222,1","+0146,1","10172,1","12,0000,9,1","24,0003,9,1",,,,"00,1,+99999,9,99,9",,"00,99,1,00,1,00,1,99999,9,00,1,00,1","0066,9","01,9","999,+0170,9","999,N,+0217,1","99999,9,09589,1","1,1,011,1,+999,9","00,1",,,"SYN106AAXX  09064 08272 11981 02402 10222 20146 39589 40172 51011 60002 700// 333 20217 30017 50624 55011 70003;","Q01  00002PRCP12"
"08272099999","2010-07-09T09:00:00","4","39.8833333","-4.05","516.0","TOLEDO, SP","FM-12","99999","V020","270,1,N,0015,1","22000,1,9,N","030000,1,N,1","+0279,1","+0145,1","10166,1",,,,,,"00,1,+99999,9,99,9",,"00,99,1,00,1,00,1,99999,9,00,1,00,1",,,,,"99999,9,09594,1","1,1,005,1,+999,9",,,,"SYN060AAXX  09094 08272 42980 02703 10279 20145 39594 40166 51005;",
"08272099999","2010-07-09T12:00:00","4","39.8833333","-4.05","516.0","TOLEDO, SP","FM-12","99999","V020","300,1,N,0041,1","22000,1,9,N","030000,1,N,1","+0328,1","+0124,1","10155,1","06,0000,9,1",,,,,"00,1,+99999,9,99,9",,"00,99,1,00,1,00,1,99999,9,00,1,00,1",,,,,"99999,9,09592,1","7,1,002,1,+999,9",,,,"SYN066AAXX  09124 08272 12980 03008 10328 20124 39592 40155 57002 60001;","Q01  00002PRCP06"
"08272099999","2010-07-09T15:00:00","4","39.8833333","-4.05","516.0","TOLEDO, SP","FM-12","99999","V020","250,1,N,0036,1","22000,1,9,N","035000,1,N,1","+0353,1","+0110,1","10139,1",,,,,,"00,1,+99999,9,99,9",,"00,99,1,00,1,00,1,99999,9,00,1,00,1",,,,,"99999,9,09581,1","8,1,011,1,+999,9",,,,"SYN060AAXX  09154 08272 42981 02507 10353 20110 39581 40139 58011;",
"08272099999","2010-07-09T18:00:00","4","39.8833333","-4.05","516.0","TOLEDO, SP","FM-12","99999","V020","270,1,N,0031,1","22000,1,9,N","040000,1,N,1","+0352,1","+0109,1","10131,1","12,0000,9,1",,,,,"00,1,+99999,9,99,9",,"00,99,1,00,1,00,1,99999,9,00,1,00,1",,,,"999,M,+0362,1","99999,9,09573,1","6,1,008,1,+999,9",,,,"SYN076AAXX  09184 08272 12982 02706 10352 20109 39573 40131 56008 60002 333 10362;","Q01  00002PRCP12"
"08272099999","2010-07-12T06:00:00","4","39.8833333","-4.05","516.0","TOLEDO, SP","FM-12","99999","V020","300,1,N,0005,1","99999,9,9,N","035000,1,N,1","+0242,1","+0108,1","10134,1","12,0000,9,1","24,0000,9,1",,,,,,"06,99,1,00,1,00,1,99999,9,00,1,08,1","0780,9","01,9","999,+0190,9","999,N,+0236,1","99999,9,09556,1","1,1,005,1,+999,9","02,1",,,"SYN106AAXX  12064 08272 11981 63001 10242 20108 39556 40134 51005 60002 702// 80008 333 20236 30019 55130 70000;","Q01  00002PRCP24Q02  00002PRCP12"
"08272099999","2010-07-12T09:00:00","4","39.8833333","-4.05","516.0","TOLEDO, SP","FM-12","99999","V020","270,1,N,0046,1","22000,1,9,N","030000,1,N,1","+0282,1","+0117,1","10136,1",,,,,,,,"03,99,1,00,1,00,1,99999,9,00,1,01,1",,,,,"99999,9,09565,1","1,1,009,1,+999,9",,,,"SYN066AAXX  12094 08272 42980 32709 10282 20117 39565 40136 51009 80001;",
"08272099999","2010-07-12T12:00:00","4","39.8833333","-4.05","516.0","TOLEDO, SP","FM-12","99999","V020","290,1,N,0062,1","22000,1,9,N","040000,1,N,1","+0334,1","+0074,1","10123,1","06,0000,9,1",,,,,,,"03,99,1,00,1,00,1,99999,9,00,1,02,1",,,,,"99999,9,09562,1","8,1,003,1,+999,9",,,,"SYN072AAXX  12124 08272 12982 32912 10334 20074 39562 40123 58003 60001 80002;","Q01  00002PRCP06"
"08272099999","2010-07-12T15:00:00","4","39.8833333","-4.05","516.0","TOLEDO, SP","FM-12","99999","V020","280,1,N,0067,1","22000,1,9,N","040000,1,N,1","+0356,1","+0068,1","10106,1",,,,,,,,"03,99,1,00,1,00,1,99999,9,00,1,02,1",,,,,"99999,9,09549,1","6,1,013,1,+999,9",,,,"SYN066AAXX  12154 08272 42982 32813 10356 20068 39549 40106 56013 80002;",
"08272099999","2010-07-12T18:00:00","4","39.8833333","-4.05","516.0","TOLEDO, SP","FM-12","99999","V020","280,1,N,0067,1","22000,1,9,N","040000,1,N,1","+0343,1","+0049,1","10098,1","12,0000,9,1",,,,,,,"02,99,1,00,1,00,1,99999,9,00,1,02,1",,,,"999,M,+0362,1","99999,9,09539,1","6,1,010,1,+999,9",,,,"SYN082AAXX  12184 08272 12982 22813 10343 20049 39539 40098 56010 60002 80002 333 10362;","Q01  00002PRCP12"
"08272099999","2010-07-13T06:00:00","4","39.8833333","-4.05","516.0","TOLEDO, SP","FM-12","99999","V020","999,9,C,0000,1","22000,1,9,N","050000,1,N,1","+0203,1","+0083,1","10130,1","12,0000,9,1","24,0000,9,1",,,,,,"01,99,1,01,1,00,1,02250,1,03,1,00,1","0810,9","01,9","999,+0140,9","999,N,+0199,1","99999,9,09544,1","5,1,002,1,+999,9","02,1",,,"SYN112AAXX  13064 08272 11884 10000 10203 20083 39544 40130 55002 60002 702// 81030 333 20199 30014 50994 55135 70000;","Q01  00002PRCP24Q02  00002PRCP12"
"08272099999","2010-07-13T09:00:00","4","39.8833333","-4.05","516.0","TOLEDO, SP","FM-12","99999","V020","270,1,N,0021,1","22000,1,9,N","040000,1,N,1","+0262,1","+0104,1","10121,1",,,,,,"00,1,+99999,9,99,9",,"00,99,1,00,1,00,1,99999,9,00,1,00,1",,,,,"99999,9,09547,1","1,1,003,1,+999,9",,,,"SYN060AAXX  13094 08272 42982 02704 10262 20104 39547 40121 51003;",
"08272099999","2010-07-13T12:00:00","4","39.8833333","-4.05","516.0","TOLEDO, SP","FM-12","99999","V020","330,1,N,0031,1","22000,1,9,N","040000,1,N,1","+0317,1","+0074,1","10098,1","06,0000,9,1",,,,,"00,1,+99999,9,99,9",,"00,99,1,00,1,00,1,99999,9,00,1,00,1",,,,,"99999,9,09535,1","8,1,012,1,+999,9",,,,"SYN066AAXX  13124 08272 12982 03306 10317 20074 39535 40098 58012 60001;","Q01  00002PRCP06"
"08272099999","2010-07-13T15:00:00","4","39.8833333","-4.05","516.0","TOLEDO, SP","FM-12","99999","V020","290,1,N,0051,1","22000,1,9,N","040000,1,N,1","+0339,1","+0105,1","10080,1",,,,,,"00,1,+99999,9,99,9",,"00,99,1,00,1,00,1,99999,9,00,1,00,1",,,,,"99999,9,09522,1","7,1,013,1,+999,9",,,,"SYN060AAXX  13154 08272 42982 02910 10339 20105 39522 40080 57013;",
"08272099999","2010-07-13T18:00:00","4","39.8833333","-4.05","516.0","TOLEDO, SP","FM-12","99999","V020","240,1,N,0051,1","22000,1,9,N","040000,1,N,1","+0326,1","+0060,1","10073,1","12,0000,9,1",,,,,"00,1,+99999,9,99,9",,"00,99,1,00,1,00,1,99999,9,00,1,00,1",,,,"999,M,+0346,1","99999,9,09513,1","6,1,009,1,+999,9",,,,"SYN076AAXX  13184 08272 12982 02410 10326 20060 39513 40073 56009 60002 333 10346;","Q01  00002PRCP12"
"08272099999","2010-07-14T06:00:00","4","39.8833333","-4.05","516.0","TOLEDO, SP","FM-12","99999","V020","250,1,N,0021,1","22000,1,9,N","040000,1,N,1","+0198,1","+0126,1","10108,1","12,0000,9,1","24,0000,9,1",,,,,,"01,99,1,01,1,00,1,02250,1,03,1,04,1","0846,9","01,9","999,+0170,9","999,N,+0198,1","99999,9,09523,1","0,1,008,1,+999,9","02,1",,,"SYN112AAXX  14064 08272 11882 12504 10198 20126 39523 40108 50008 60002 702// 81034 333 20198 30017 50844 55141 70000;","Q01  00002PRCP24Q02  00002PRCP12"
"08272099999","2010-07-14T09:00:00","4","39.8833333","-4.05","516.0","TOLEDO, SP","FM-12","99999","V020","270,1,N,0041,1","22000,1,9,N","040000,1,N,1","+0233,1","+0117,1","10111,1",,,,,,,,"04,99,1,00,1,00,1,99999,9,00,1,02,1",,,,,"99999,9,09533,1","1,1,010,1,+999,9",,,,"SYN066AAXX  14094 08272 42982 42708 10233 20117 39533 40111 51010 80002;",
"08272099999","2010-07-14T12:00:00","4","39.8833333","-4.05","516.0","TOLEDO, SP","FM-12","99999","V020","280,1,N,0067,1","22000,1,9,N","040000,1,N,1","+0277,1","+0121,1","10104,1","06,0000,9,1",,,,,,,"01,99,1,00,1,00,1,99999,9,00,1,02,1",,,,,"99999,9,09534,1","1,1,001,1,+999,9",,,,"SYN072AAXX  14124 08272 12982 12813 10277 20121 39534 40104 51001 60001 80002;","Q01  00002PRCP06"
"08272099999","2010-07-14T15:00:00","4","39.8833333","-4.05","516.0","TOLEDO, SP","FM-12","99999","V020","290,1,N,0082,1","22000,1,9,N","040000,1,N,1","+0311,1","+0093,1","10091,1",,,,,,,,"03,99,1,00,1,00,1,99999,9,00,1,01,1",,,,,"99999,9,09528,1","7,1,006,1,+999,9",,,,"SYN066AAXX  14154 08272 42982 32916 10311 20093 39528 40091 57006 80001;",
"08272099999","2010-07-14T18:00:00","4","39.8833333","-4.05","516.0","TOLEDO, SP","FM-12","99999","V020","280,1,N,0062,1","22000,1,9,N","040000,1,N,1","+0306,1","+0058,1","10097,1","12,0000,9,1",,,,,,,"03,99,1,00,1,00,1,99999,9,00,1,01,1",,,,"999,M,+0318,1","99999,9,09532,1","2,1,004,1,+999,9",,,,"SYN082AAXX  14184 08272 12982 32812 10306 20058 39532 40097 52004 60002 80001 333 10318;","Q01  00002PRCP12"
"08272099999","2010-07-15T06:00:00","4","39.8833333","-4.05","516.0","TOLEDO, SP","FM-12","99999","V020","999,9,C,0000,1","22000,1,9,N","040000,1,N,1","+0178,1","+0072,1","10154,1","12,0000,9,1","24,0000,9,1",,,,,,"01,99,1,00,1,00,1,99999,9,00,1,01,1","0846,9","01,9","999,+0120,9","999,N,+0177,1","99999,9,09562,1","3,1,007,1,+999,9","02,1",,,"SYN112AAXX  15064 08272 11982 10000 10178 20072 39562 40154 53007 60002 702// 80001 333 20177 30012 50754 55141 70000;","Q01  00002PRCP24Q02  00002PRCP12"
"08272099999","2010-07-15T09:00:00","4","39.8833333","-4.05","516.0","TOLEDO, SP","FM-12","99999","V020","240,1,N,0015,1","22000,1,9,N","040000,1,N,1","+0248,1","+0091,1","10145,1",,,,,,"00,1,+99999,9,99,9",,"00,99,1,00,1,00,1,99999,9,00,1,00,1",,,,,"99999,9,09567,1","1,1,005,1,+999,9",,,,"SYN060AAXX  15094 08272 42982 02403 10248 20091 39567 40145 51005;",
"08272099999","2010-07-15T12:00:00","4","39.8833333","-4.05","516.0","TOLEDO, SP","FM-12","99999","V020","340,1,N,0031,1","22000,1,9,N","040000,1,N,1","+0301,1","+0067,1","10127,1","06,0000,9,1",,,,,"00,1,+99999,9,99,9",,"00,99,1,00,1,00,1,99999,9,00,1,00,1",,,,,"99999,9,09559,1","8,1,008,1,+999,9",,,,"SYN066AAXX  15124 08272 12982 03406 10301 20067 39559 40127 58008 60001;","Q01  00002PRCP06"
"08272099999","2010-07-15T15:00:00","4","39.8833333","-4.05","516.0","TOLEDO, SP","FM-12","99999","V020","280,1,N,0026,1","22000,1,9,N","050000,1,N,1","+0338,1","+0070,1","10106,1",,,,,,"00,1,+99999,9,99,9",,"00,99,1,00,1,00,1,99999,9,00,1,00,1",,,,,"99999,9,09546,1","6,1,013,1,+999,9",,,,"SYN060AAXX  15154 08272 42984 02805 10338 20070 39546 40106 56013;",
"08272099999","2010-07-15T18:00:00","4","39.8833333","-4.05","516.0","TOLEDO, SP","FM-12","99999","V020","290,1,N,0046,1","22000,1,9,N","040000,1,N,1","+0331,1","+0039,1","10100,1","12,0000,9,1",,,,,"00,1,+99999,9,99,9",,"00,99,1,00,1,00,1,99999,9,00,1,00,1",,,,"999,M,+0345,1","99999,9,09539,1","6,1,007,1,+999,9",,,,"SYN076AAXX  15184 08272 12982 02909 10331 20039 39539 40100 56007 60002 333 10345;","Q01  00002PRCP12"
"08272099999","2010-07-16T06:00:00","4","39.8833333","-4.05","516.0","TOLEDO, SP","FM-12","99999","V020","999,9,C,0000,1","22000,1,9,N","040000,1,N,1","+0190,1","+0074,1","10154,1","12,0000,9,1","24,0000,9,1",,,,"00,1,+99999,9,99,9",,"00,99,1,00,1,00,1,99999,9,00,1,00,1","0852,9","01,9","999,+0130,9","999,N,+0190,1","99999,9,09564,1","3,1,006,1,+999,9","00,1",,,"SYN106AAXX  16064 08272 11982 00000 10190 20074 39564 40154 53006 60002 700// 333 20190 30013 50774 55142 70000;","Q01  00002PRCP24Q02  00002PRCP12"
"08272099999","2010-07-16T09:00:00","4","39.8833333","-4.05","516.0","TOLEDO, SP","FM-12","99999","V020","290,1,N,0015,1","22000,1,9,N","035000,1,N,1","+0272,1","+0071,1","10147,1",,,,,,"00,1,+99999,9,99,9",,"00,99,1,00,1,00,1,99999,9,00,1,00,1",,,,,"99999,9,09573,1","1,1,009,1,+999,9",,,,"SYN060AAXX  16094 08272 42981 02903 10272 20071 39573 40147 51009;",
"08272099999","2010-07-16T12:00:00","4","39.8833333","-4.05","516.0","TOLEDO, SP","FM-12","99999","V020","300,1,N,0041,1","22000,1,9,N","035000,1,N,1","+0319,1","+0021,1","10138,1","06,0000,9,1",,,,,"00,1,+99999,9,99,9",,"00,99,1,00,1,00,1,99999,9,00,1,00,1",,,,,"99999,9,09572,1","8,1,001,1,+999,9",,,,"SYN066AAXX  16124 08272 12981 03008 10319 20021 39572 40138 58001 60001;","Q01  00002PRCP06"
"08272099999","2010-07-16T15:00:00","4","39.8833333","-4.05","516.0","TOLEDO, SP","FM-12","99999","V020","320,1,N,0041,1","22000,1,9,N","035000,1,N,1","+0340,1","+0037,1","10126,1",,,,,,"00,1,+99999,9,99,9",,"00,99,1,00,1,00,1,99999,9,00,1,00,1",,,,,"99999,9,09565,1","6,1,007,1,+999,9",,,,"SYN060AAXX  16154 08272 42981 03208 10340 20037 39565 40126 56007;",
"08272099999","2010-07-16T18:00:00","4","39.8833333","-4.05","516.0","TOLEDO, SP","FM-12","99999","V020","290,1,N,0051,1","22000,1,9,N","040000,1,N,1","+0334,1","+0059,1","10119,1","12,0000,9,1",,,,,"00,1,+99999,9,99,9",,"00,99,1,00,1,00,1,99999,9,00,1,00,1",,,,"999,M,+0347,1","99999,9,09558,1","6,1,007,1,+999,9",,,,"SYN076AAXX  16184 08272 12982 02910 10334 20059 39558 40119 56007 60002 333 10347;","Q01  00002PRCP12"
"08272099999","2010-07-19T06:00:00","4","39.8833333","-4.05","516.0","TOLEDO, SP","FM-12","99999","V020","240,1,N,0005,1","01500,1,9,N","050000,1,N,1","+0226,1","+0110,1","10164,1","12,0000,9,1","24,0000,9,1",,,,,,"07,99,1,07,1,00,1,01750,1,03,1,00,1","0822,9","01,9","999,+0190,9","999,N,+0223,1","99999,9,09581,1","3,1,007,1,+999,9","14,1",,,"SYN106AAXX  19064 08272 11784 72401 10226 20110 39581 40164 53007 60002 714// 87030 333 20223 30019 55137 70000;","Q01  00002PRCP24Q02  00002PRCP12"
"08272099999","2010-07-19T09:00:00","4","39.8833333","-4.05","516.0","TOLEDO, SP","FM-12","99999","V020","270,1,N,0036,1","22000,1,9,N","035000,1,N,1","+0294,1","+0123,1","10153,1",,,,,,,,"03,99,1,03,1,00,1,01750,1,03,1,00,1",,,,,"99999,9,09584,1","1,1,003,1,+999,9",,,,"SYN066AAXX  19094 08272 42781 32707 10294 20123 39584 40153 51003 83030;",
"08272099999","2010-07-19T12:00:00","4","39.8833333","-4.05","516.0","TOLEDO, SP","FM-12","99999","V020","260,1,N,0046,1","22000,1,9,N","035000,1,N,1","+0354,1","+0111,1","10131,1","06,0000,9,1",,,,,,,"01,99,1,01,1,01,1,00800,1,00,1,00,1",,,,,"99999,9,09573,1","8,1,011,1,+999,9",,,,"SYN072AAXX  19124 08272 12581 12609 10354 20111 39573 40131 58011 60001 81100;","Q01  00002PRCP06"
"08272099999","2010-07-19T15:00:00","4","39.8833333","-4.05","516.0","TOLEDO, SP","FM-12","99999","V020","270,1,N,0031,1","22000,1,9,N","040000,1,N,1","+0375,1","+0107,1","10112,1",,,,,,,,"01,99,1,01,1,01,1,00800,1,00,1,00,1",,,,,"99999,9,09559,1","7,1,014,1,+999,9",,,,"SYN066AAXX  19154 08272 42582 12706 10375 20107 39559 40112 57014 81100;",
"08272099999","2010-07-19T18:00:00","4","39.8833333","-4.05","516.0","TOLEDO, SP","FM-12","99999","V020","270,1,N,0046,1","22000,1,9,N","040000,1,N,1","+0365,1","+0099,1","10098,1","12,0000,9,1",,,,,,,"01,99,1,01,1,01,1,00800,1,00,1,00,1",,,,"999,M,+0380,1","99999,9,09544,1","7,1,015,1,+999,9",,,,"SYN082AAXX  19184 08272 12582 12709 10365 20099 39544 40098 57015 60002 81100 333 10380;","Q01  00002PRCP12"
"08272099999","2010-07-20T06:00:00","4","39.8833333","-4.05","516.0","TOLEDO, SP","FM-12","99999","V020","070,1,N,0015,1","22000,1,9,N","050000,1,N,1","+0213,1","+0079,1","10124,1","12,0000,9,1","24,0000,9,1",,,,"00,1,+99999,9,99,9",,"00,99,1,00,1,00,1,99999,9,00,1,00,1","0756,9","01,9","999,+0180,9","999,N,+0211,1","99999,9,09540,1","0,1,001,1,+999,9","00,1",,,"SYN106AAXX  20064 08272 11984 00703 10213 20079 39540 40124 50001 60002 700// 333 20211 30018 50994 55126 70000;","Q01  00002PRCP24Q02  00002PRCP12"
"08272099999","2010-07-20T09:00:00","4","39.8833333","-4.05","516.0","TOLEDO, SP","FM-12","99999","V020","290,1,N,0015,1","22000,1,9,N","040000,1,N,1","+0300,1","+0090,1","10105,1",,,,,,"00,1,+99999,9,99,9",,"00,99,1,00,1,00,1,99999,9,00,1,00,1",,,,,"99999,9,09539,1","8,1,001,1,+999,9",,,,"SYN060AAXX  20094 08272 42982 02903 10300 20090 39539 40105 58001;",
"08272099999","2010-07-20T12:00:00","4","39.8833333","-4.05","516.0","TOLEDO, SP","FM-12","99999","V020","290,1,N,0041,1","22000,1,9,N","035000,1,N,1","+0348,1","+0078,1","10082,1","06,0000,9,1",,,,,"00,1,+99999,9,99,9",,"00,99,1,00,1,00,1,99999,9,00,1,00,1",,,,,"99999,9,09525,1","8,1,014,1,+999,9",,,,"SYN066AAXX  20124 08272 12981 02908 10348 20078 39525 40082 58014 60001;","Q01  00002PRCP06"
"08272099999","2010-07-20T15:00:00","4","39.8833333","-4.05","516.0","TOLEDO, SP","FM-12","99999","V020","250,1,N,0062,1","22000,1,9,N","040000,1,N,1","+0364,1","+0083,1","10057,1",,,,,,,,"01,99,1,01,1,04,1,01250,1,00,1,00,1",,,,,"99999,9,09505,1","7,1,020,1,+999,9",,,,"SYN066AAXX  20154 08272 42682 12512 10364 20083 39505 40057 57020 81400;",
"08272099999","2010-07-20T18:00:00","4","39.8833333","-4.05","516.0","TOLEDO, SP","FM-12","99999","V020","280,1,N,0051,1","22000,1,9,N","050000,1,N,1","+0351,1","+0064,1","10053,1","12,0000,9,1",,,,,"00,1,+99999,9,99,9",,"00,99,1,00,1,00,1,99999,9,00,1,00,1",,,,"999,M,+0374,1","99999,9,09498,1","7,1,007,1,+999,9",,,,"SYN076AAXX  20184 08272 12984 02810 10351 20064 39498 40053 57007 60002 333 10374;","Q01  00002PRCP12"
"08272099999","2010-07-21T06:00:00","4","39.8833333","-4.05","516.0","TOLEDO, SP","FM-12","99999","V020","290,1,N,0015,1","22000,1,9,N","060000,1,N,1","+0213,1","+0108,1","10086,1","12,0000,9,1","24,0000,9,1",,,,,,"04,99,1,01,1,02,1,00800,1,03,1,01,1","0798,9","01,9","999,+0170,9","999,N,+0212,1","99999,9,09505,1","3,1,001,1,+999,9","02,1",,,"SYN112AAXX  21064 08272 11586 42903 10213 20108 39505 40086 53001 60002 702// 81231 333 20212 30017 50944 55133 70000;","Q01  00002PRCP24Q02  00002PRCP12"
"08272099999","2010-07-21T09:00:00","4","39.8833333","-4.05","516.0","TOLEDO, SP","FM-12","99999","V020","270,1,N,0036,1","22000,1,9,N","060000,1,N,1","+0260,1","+0117,1","10085,1",,,,,,,,"02,99,1,01,1,00,1,02250,1,08,1,01,1",,,,,"99999,9,09513,1","1,1,008,1,+999,9",,,,"SYN066AAXX  21094 08272 42886 22707 10260 20117 39513 40085 51008 81081;",
"08272099999","2010-07-21T12:00:00","4","39.8833333","-4.05","516.0","TOLEDO, SP","FM-12","99999","V020","300,1,N,0067,1","22000,1,9,N","060000,1,N,1","+0301,1","+0116,1","10070,1","06,0000,9,1",,,,,,,"04,99,1,01,1,02,1,00800,1,03,1,03,1",,,,,"99999,9,09506,1","8,1,007,1,+999,9",,,,"SYN072AAXX  21124 08272 12586 43013 10301 20116 39506 40070 58007 60001 81233;","Q01  00002PRCP06"
"08272099999","2010-07-21T15:00:00","4","39.8833333","-4.05","516.0","TOLEDO, SP","FM-12","99999","V020","290,1,N,0062,1","09000,1,9,N","060000,1,N,1","+0323,1","+0125,1","10058,1",,,,,,,,"05,99,1,02,1,02,1,01250,1,08,1,01,1",,,,,"99999,9,09499,1","7,1,007,1,+999,9",,,,"SYN066AAXX  21154 08272 42686 52912 10323 20125 39499 40058 57007 82281;",
"08272099999","2010-07-21T18:00:00","4","39.8833333","-4.05","516.0","TOLEDO, SP","FM-12","99999","V020","270,1,N,0051,1","03600,1,9,N","060000,1,N,1","+0314,1","+0122,1","10054,1","12,0000,9,1",,,,,,,"07,99,1,02,1,02,1,01250,1,08,1,08,1",,,,"999,M,+0329,1","99999,9,09494,1","6,1,005,1,+999,9",,,,"SYN082AAXX  21184 08272 12686 72710 10314 20122 39494 40054 56005 60002 82288 333 10329;","Q01  00002PRCP12"
"08272099999","2010-07-22T06:00:00","4","39.8833333","-4.05","516.0","TOLEDO, SP","FM-12","99999","V020","300,1,N,0010,1","22000,1,9,N","060000,1,N,1","+0207,1","+0099,1","10102,1","12,0000,9,1","24,0000,9,1",,,,,,"04,99,1,04,1,05,1,00800,1,08,1,00,1","0756,9","01,9","999,+0170,9","999,N,+0205,1","99999,9,09519,1","3,1,009,1,+999,9","02,1",,,"SYN112AAXX  22064 08272 11586 43002 10207 20099 39519 40102 53009 60002 702// 84580 333 20205 30017 50724 55126 70000;","Q01  00002PRCP24Q02  00002PRCP12"
"08272099999","2010-07-22T09:00:00","4","39.8833333","-4.05","516.0","TOLEDO, SP","FM-12","99999","V020","290,1,N,0026,1","22000,1,9,N","060000,1,N,1","+0261,1","+0103,1","10102,1",,,,,,,,"03,99,1,00,1,00,1,99999,9,00,1,01,1",,,,,"99999,9,09529,1","1,1,010,1,+999,9",,,,"SYN066AAXX  22094 08272 42986 32905 10261 20103 39529 40102 51010 80001;",
"08272099999","2010-07-22T12:00:00","4","39.8833333","-4.05","516.0","TOLEDO, SP","FM-12","99999","V020","290,1,N,0062,1","09000,1,9,N","060000,1,N,1","+0298,1","+0099,1","10094,1","06,0000,9,1",,,,,,,"06,99,1,01,1,04,1,01250,1,00,1,02,1",,,,,"99999,9,09528,1","8,1,001,1,+999,9",,,,"SYN072AAXX  22124 08272 12686 62912 10298 20099 39528 40094 58001 60001 81402;","Q01  00002PRCP06"
"08272099999","2010-07-22T15:00:00","4","39.8833333","-4.05","516.0","TOLEDO, SP","FM-12","99999","V020","280,1,N,0067,1","09000,1,9,N","060000,1,N,1","+0322,1","+0108,1","10081,1",,,,,,,,"05,99,1,04,1,04,1,01250,1,00,1,05,1",,,,,"99999,9,09520,1","6,1,008,1,+999,9",,,,"SYN066AAXX  22154 08272 42686 52813 10322 20108 39520 40081 56008 84405;",
"08272099999","2010-07-22T18:00:00","4","39.8833333","-4.05","516.0","TOLEDO, SP","FM-12","99999","V020","300,1,N,0051,1","22000,1,9,N","060000,1,N,1","+0316,1","+0079,1","10082,1","12,0000,9,1",,,,,,,"04,99,1,02,1,02,1,01250,1,08,1,09,1",,,,"999,M,+0335,1","99999,9,09520,1","4,1,000,1,+999,9",,,,"SYN082AAXX  22184 08272 12686 43010 10316 20079 39520 40082 54000 60002 82289 333 10335;","Q01  00002PRCP12"
"08272099999","2010-07-23T06:00:00","4","39.8833333","-4.05","516.0","TOLEDO, SP","FM-12","99999","V020","060,1,N,0031,1","22000,1,9,N","050000,1,N,1","+0195,1","+0123,1","10171,1","12,0000,9,1","24,0000,9,1",,,,"00,1,+99999,9,99,9",,"00,99,1,00,1,00,1,99999,9,00,1,00,1","0762,9","01,9","999,+0170,9","999,N,+0188,1","99999,9,09582,1","3,1,015,1,+999,9","00,1",,,"SYN106AAXX  23064 08272 11984 00606 10195 20123 39582 40171 53015 60002 700// 333 20188 30017 50784 55127 70000;","Q01  00002PRCP24Q02  00002PRCP12"
"08272099999","2010-07-23T09:00:00","4","39.8833333","-4.05","516.0","TOLEDO, SP","FM-12","99999","V020","130,1,N,0026,1","22000,1,9,N","045000,1,N,1","+0245,1","+0131,1","10180,1",,,,,,"00,1,+99999,9,99,9",,"00,99,1,00,1,00,1,99999,9,00,1,00,1",,,,,"99999,9,09600,1","1,1,018,1,+999,9",,,,"SYN060AAXX  23094 08272 42983 01305 10245 20131 39600 40180 51018;",
"08272099999","2010-07-23T12:00:00","4","39.8833333","-4.05","516.0","TOLEDO, SP","FM-12","99999","V020","120,1,N,0026,1","22000,1,9,N","040000,1,N,1","+0310,1","+0137,1","10161,1","06,0000,9,1",,,,,,,"03,99,1,03,1,01,1,01250,1,00,1,00,1",,,,,"99999,9,09594,1","8,1,006,1,+999,9",,,,"SYN072AAXX  23124 08272 12682 31205 10310 20137 39594 40161 58006 60001 83100;","Q01  00002PRCP06"
"08272099999","2010-07-23T15:00:00","4","39.8833333","-4.05","516.0","TOLEDO, SP","FM-12","99999","V020","090,1,N,0031,1","22000,1,9,N","040000,1,N,1","+0329,1","+0097,1","10150,1",,,,,,,,"04,99,1,04,1,04,1,01250,1,00,1,00,1",,,,,"99999,9,09587,1","6,1,007,1,+999,9",,,,"SYN066AAXX  23154 08272 42682 40906 10329 20097 39587 40150 56007 84400;",
"08272099999","2010-07-23T18:00:00","4","39.8833333","-4.05","516.0","TOLEDO, SP","FM-12","99999","V020","340,1,N,0021,1","22000,1,9,N","040000,1,N,1","+0333,1","+0087,1","10146,1","12,0000,9,1",,,,,,,"01,99,1,01,1,01,1,01250,1,00,1,00,1",,,,"999,M,+0351,1","99999,9,09583,1","5,1,004,1,+999,9",,,,"SYN082AAXX  23184 08272 12682 13404 10333 20087 39583 40146 55004 60002 81100 333 10351;","Q01  00002PRCP12"
"08272099999","2010-07-26T06:00:00","4","39.8833333","-4.05","516.0","TOLEDO, SP","FM-12","99999","V020","090,1,N,0021,1","22000,1,9,N","060000,1,N,1","+0194,1","+0075,1","10164,1","12,0000,9,1","24,0000,9,1",,,,"00,1,+99999,9,99,9",,"00,99,1,00,1,00,1,99999,9,00,1,00,1","0828,9","01,9","999,+0170,9","999,N,+0192,1","99999,9,09574,1","3,1,004,1,+999,9","00,1",,,"SYN100AAXX  26064 08272 11986 00904 10194 20075 39574 40164 53004 60002 700// 333 20192 30017 55138 70000;","Q01  00002PRCP24Q02  00002PRCP12"
"08272099999","2010-07-26T09:00:00","4","39.8833333","-4.05","516.0","TOLEDO, SP","FM-12","99999","V020","110,1,N,0041,1","22000,1,9,N","050000,1,N,1","+0253,1","+0074,1","10154,1",,,,,,"00,1,+99999,9,99,9",,"00,99,1,00,1,00,1,99999,9,00,1,00,1",,,,,"99999,9,09576,1","0,1,002,1,+999,9",,,,"SYN060AAXX  26094 08272 42984 01108 10253 20074 39576 40154 50002;",
"08272099999","2010-07-26T12:00:00","4","39.8833333","-4.05","516.0","TOLEDO, SP","FM-12","99999","V020","070,1,N,0041,1","22000,1,9,N","050000,1,N,1","+0308,1","+0091,1","10130,1","06,0000,9,1",,,,,"00,1,+99999,9,99,9",,"00,99,1,00,1,00,1,99999,9,00,1,00,1",,,,,"99999,9,09564,1","6,1,012,1,+999,9",,,,"SYN066AAXX  26124 08272 12984 00708 10308 20091 39564 40130 56012 60001;","Q01  00002PRCP06"
"08272099999","2010-07-26T15:00:00","4","39.8833333","-4.05","516.0","TOLEDO, SP","FM-12","99999","V020","040,1,N,0036,1","22000,1,9,N","055000,1,N,1","+0341,1","+0080,1","10108,1",,,,,,"00,1,+99999,9,99,9",,"00,99,1,00,1,00,1,99999,9,00,1,00,1",,,,,"99999,9,09549,1","7,1,015,1,+999,9",,,,"SYN060AAXX  26154 08272 42985 00407 10341 20080 39549 40108 57015;",
"08272099999","2010-07-26T18:00:00","4","39.8833333","-4.05","516.0","TOLEDO, SP","FM-12","99999","V020","090,1,N,0041,1","22000,1,9,N","060000,1,N,1","+0343,1","+0058,1","10097,1","12,0000,9,1",,,,,"00,1,+99999,9,99,9",,"00,99,1,00,1,00,1,99999,9,00,1,00,1",,,,"999,M,+0356,1","99999,9,09538,1","7,1,011,1,+999,9",,,,"SYN076AAXX  26184 08272 12986 00908 10343 20058 39538 40097 57011 60002 333 10356;","Q01  00002PRCP12"
"08272099999","2010-07-27T06:00:00","4","39.8833333","-4.05","516.0","TOLEDO, SP","FM-12","99999","V020","120,1,N,0026,1","22000,1,9,N","050000,1,N,1","+0192,1","+0088,1","10170,1","12,0000,9,1","24,0000,9,1",,,,"00,1,+99999,9,99,9",,"00,99,1,00,1,00,1,99999,9,00,1,00,1","0828,9","01,9","999,+0150,9","999,N,+0188,1","99999,9,09580,1","3,1,011,1,+999,9","00,1",,,"SYN106AAXX  27064 08272 11984 01205 10192 20088 39580 40170 53011 60002 700// 333 20188 30015 50854 55138 70000;","Q01  00002PRCP24Q02  00002PRCP12"
"08272099999","2010-07-27T09:00:00","4","39.8833333","-4.05","516.0","TOLEDO, SP","FM-12","99999","V020","110,1,N,0036,1","22000,1,9,N","035000,1,N,1","+0259,1","+0147,1","10160,1",,,,,,"00,1,+99999,9,99,9",,"00,99,1,00,1,00,1,99999,9,00,1,00,1",,,,,"99999,9,09584,1","1,1,004,1,+999,9",,,,"SYN060AAXX  27094 08272 42981 01107 10259 20147 39584 40160 51004;",
"08272099999","2010-07-27T12:00:00","4","39.8833333","-4.05","516.0","TOLEDO, SP","FM-12","99999","V020","130,1,N,0036,1","22000,1,9,N","040000,1,N,1","+0329,1","+0130,1","10135,1","06,0000,9,1",,,,,"00,1,+99999,9,99,9",,"00,99,1,00,1,00,1,99999,9,00,1,00,1",,,,,"99999,9,09573,1","8,1,011,1,+999,9",,,,"SYN066AAXX  27124 08272 12982 01307 10329 20130 39573 40135 58011 60001;","Q01  00002PRCP06"
"08272099999","2010-07-27T15:00:00","4","39.8833333","-4.05","516.0","TOLEDO, SP","FM-12","99999","V020","260,1,N,0026,1","22000,1,9,N","040000,1,N,1","+0363,1","+0105,1","10114,1",,,,,,,,"01,99,1,01,1,01,1,01250,1,00,1,00,1",,,,,"99999,9,09559,1","7,1,014,1,+999,9",,,,"SYN066AAXX  27154 08272 42682 12605 10363 20105 39559 40114 57014 81100;",
"08272099999","2010-07-27T18:00:00","4","39.8833333","-4.05","516.0","TOLEDO, SP","FM-12","99999","V020","150,1,N,0010,1","22000,1,9,N","045000,1,N,1","+0353,1","+0089,1","10112,1","12,0000,9,1",,,,,,,"01,99,1,01,1,04,1,01250,1,00,1,00,1",,,,"999,M,+0369,1","99999,9,09555,1","6,1,004,1,+999,9",,,,"SYN082AAXX  27184 08272 12683 11502 10353 20089 39555 40112 56004 60002 81400 333 10369;","Q01  00002PRCP12"
"08272099999","2010-07-28T06:00:00","4","39.8833333","-4.05","516.0","TOLEDO, SP","FM-12","99999","V020","090,1,N,0046,1","22000,1,9,N","050000,1,N,1","+0210,1","+0134,1","10174,1","12,0000,9,1","24,0000,9,1",,,,"00,1,+99999,9,99,9",,"00,99,1,00,1,00,1,99999,9,00,1,00,1","0828,9","01,9","999,+0200,9","999,N,+0208,1","99999,9,09588,1","1,1,011,1,+999,9","00,1",,,"SYN106AAXX  28064 08272 11984 00909 10210 20134 39588 40174 51011 60002 700// 333 20208 30020 50704 55138 70000;","Q01  00002PRCP24Q02  00002PRCP12"
"08272099999","2010-07-28T09:00:00","4","39.8833333","-4.05","516.0","TOLEDO, SP","FM-12","99999","V020","120,1,N,0031,1","22000,1,9,N","045000,1,N,1","+0275,1","+0142,1","10168,1",,,,,,"00,1,+99999,9,99,9",,"00,99,1,00,1,00,1,99999,9,00,1,00,1",,,,,"99999,9,09595,1","1,1,007,1,+999,9",,,,"SYN060AAXX  28094 08272 42983 01206 10275 20142 39595 40168 51007;",
"08272099999","2010-07-28T12:00:00","4","39.8833333","-4.05","516.0","TOLEDO, SP","FM-12","99999","V020","210,1,N,0026,1","22000,1,9,N","045000,1,N,1","+0339,1","+0123,1","10147,1","06,0000,9,1",,,,,,,"01,99,1,01,1,01,1,01250,1,00,1,00,1",,,,,"99999,9,09586,1","8,1,009,1,+999,9",,,,"SYN072AAXX  28124 08272 12683 12105 10339 20123 39586 40147 58009 60001 81100;","Q01  00002PRCP06"
"08272099999","2010-07-28T15:00:00","4","39.8833333","-4.05","516.0","TOLEDO, SP","FM-12","99999","V020","250,1,N,0036,1","22000,1,9,N","050000,1,N,1","+0381,1","+0079,1","10120,1",,,,,,,,"01,99,1,01,1,02,1,01250,1,00,1,00,1",,,,,"99999,9,09567,1","6,1,019,1,+999,9",,,,"SYN066AAXX  28154 08272 42684 12507 10381 20079 39567 40120 56019 81200;",
"08272099999","2010-07-28T18:00:00","4","39.8833333","-4.05","516.0","TOLEDO, SP","FM-12","99999","V020","270,1,N,0026,1","22000,1,9,N","050000,1,N,1","+0372,1","+0105,1","10109,1","12,0000,9,1",,,,,,,"01,99,1,01,1,02,1,01250,1,00,1,00,1",,,,"999,M,+0389,1","99999,9,09556,1","6,1,011,1,+999,9",,,,"SYN082AAXX  28184 08272 12684 12705 10372 20105 39556 40109 56011 60002 81200 333 10389;","Q01  00002PRCP12"
"08272099999","2010-07-29T06:00:00","4","39.8833333","-4.05","516.0","TOLEDO, SP","FM-12","99999","V020","110,1,N,0021,1","22000,1,9,N","050000,1,N,1","+0214,1","+0083,1","10139,1","12,0000,9,1","24,0000,9,1",,,,,,"04,99,1,04,1,00,1,02250,1,05,1,09,1","0816,9","01,9","999,+0180,9","999,N,+0208,1","99999,9,09555,1","1,1,003,1,+999,9","02,1",,,"SYN112AAXX  29064 08272 11884 41104 10214 20083 39555 40139 51003 60002 702// 84059 333 20208 30018 50814 55136 70000;","Q01  00002PRCP24Q02  00002PRCP12"
"08272099999","2010-07-29T09:00:00","4","39.8833333","-4.05","516.0","TOLEDO, SP","FM-12","99999","V020","120,1,N,0021,1","22000,1,9,N","040000,1,N,1","+0285,1","+0097,1","10122,1",,,,,,,,"05,99,1,03,1,00,1,02250,1,03,1,01,1",,,,,"99999,9,09552,1","8,1,003,1,+999,9",,,,"SYN066AAXX  29094 08272 42882 51204 10285 20097 39552 40122 58003 83031;",
"08272099999","2010-07-29T12:00:00","4","39.8833333","-4.05","516.0","TOLEDO, SP","FM-12","99999","V020","270,1,N,0021,1","22000,1,9,N","035000,1,N,1","+0350,1","+0126,1","10099,1","06,0000,9,1",,,,,,,"07,99,1,01,1,01,1,01250,1,00,1,01,1",,,,,"99999,9,09543,1","8,1,009,1,+999,9",,,,"SYN072AAXX  29124 08272 12681 72704 10350 20126 39543 40099 58009 60001 81101;","Q01  00002PRCP06"
"08272099999","2010-07-29T15:00:00","4","39.8833333","-4.05","516.0","TOLEDO, SP","FM-12","99999","V020","290,1,N,0051,1","22000,1,9,N","030000,1,N,1","+0375,1","+0092,1","10078,1",,,,,,,,"06,99,1,03,1,04,1,01250,1,00,1,01,1",,,,,"99999,9,09527,1","6,1,016,1,+999,9",,,,"SYN066AAXX  29154 08272 42680 62910 10375 20092 39527 40078 56016 83401;",
"08272099999","2010-07-29T18:00:00","4","39.8833333","-4.05","516.0","TOLEDO, SP","FM-12","99999","V020","010,1,N,0057,1","22000,1,9,N","040000,1,N,1","+0360,1","+0053,1","10073,1","12,0000,9,1",,,,,,,"03,99,1,01,1,04,1,01250,1,00,1,01,1",,,,"999,M,+0389,1","99999,9,09519,1","6,1,008,1,+999,9",,,,"SYN082AAXX  29184 08272 12682 30111 10360 20053 39519 40073 56008 60002 81401 333 10389;","Q01  00002PRCP12"
"08272099999","2010-07-30T06:00:00","4","39.8833333","-4.05","516.0","TOLEDO, SP","FM-12","99999","V020","110,1,N,0015,1","22000,1,9,N","050000,1,N,1","+0202,1","+0119,1","10139,1","12,0000,9,1","24,0000,9,1",,,,"00,1,+99999,9,99,9",,"00,99,1,00,1,00,1,99999,9,00,1,00,1","0750,9","01,9","999,+0160,9","999,N,+0200,1","99999,9,09553,1","3,1,006,1,+999,9","00,1",,,"SYN106AAXX  30064 08272 11984 01103 10202 20119 39553 40139 53006 60002 700// 333 20200 30016 50944 55125 70000;","Q01  00002PRCP24Q02  00002PRCP12"
"08272099999","2010-07-30T09:00:00","4","39.8833333","-4.05","516.0","TOLEDO, SP","FM-12","99999","V020","140,1,N,0021,1","22000,1,9,N","050000,1,N,1","+0256,1","+0128,1","10131,1",,,,,,,,"01,99,1,00,1,00,1,99999,9,00,1,01,1",,,,,"99999,9,09556,1","1,1,003,1,+999,9",,,,"SYN066AAXX  30094 08272 42984 11404 10256 20128 39556 40131 51003 80001;",
"08272099999","2010-07-30T12:00:00","4","39.8833333","-4.05","516.0","TOLEDO, SP","FM-12","99999","V020","320,1,N,0021,1","22000,1,9,N","060000,1,N,1","+0323,1","+0104,1","10106,1","06,0000,9,1",,,,,,,"01,99,1,00,1,00,1,99999,9,00,1,01,1",,,,,"99999,9,09544,1","8,1,012,1,+999,9",,,,"SYN072AAXX  30124 08272 12986 13204 10323 20104 39544 40106 58012 60001 80001;","Q01  00002PRCP06"
"08272099999","2010-07-30T15:00:00","4","39.8833333","-4.05","516.0","TOLEDO, SP","FM-12","99999","V020","320,1,N,0021,1","22000,1,9,N","060000,1,N,1","+0355,1","+0067,1","10088,1",,,,,,"00,1,+99999,9,99,9",,"00,99,1,00,1,00,1,99999,9,00,1,00,1",,,,,"99999,9,09532,1","6,1,012,1,+999,9",,,,"SYN060AAXX  30154 08272 42986 03204 10355 20067 39532 40088 56012;",
"08272099999","2010-08-02T06:00:00","4","39.8833333","-4.05","516.0","TOLEDO, SP","FM-12","99999","V020","110,1,N,0015,1","22000,1,9,N","050000,1,N,1","+0229,1","+0093,1","10124,1","12,0000,9,1","24,0000,9,1",,,,"00,1,+99999,9,99,9",,"00,99,1,00,1,00,1,99999,9,00,1,00,1",,"01,9","999,+0180,9","999,N,+0222,1","99999,9,09544,1","3,1,005,1,+999,9","00,1",,,"SYN100AAXX  02064 08272 11984 01103 10229 20093 39544 40124 53005 60002 700// 333 20222 30018 55/// 70000;","Q01  00002PRCP24Q02  00002PRCP12"
"08272099999","2010-08-02T09:00:00","4","39.8833333","-4.05","516.0","TOLEDO, SP","FM-12","99999","V020","270,1,N,0021,1","22000,1,9,N","035000,1,N,1","+0287,1","+0099,1","10119,1",,,,,,"00,1,+99999,9,99,9",,"00,99,1,00,1,00,1,99999,9,00,1,00,1",,,,,"99999,9,09550,1","1,1,006,1,+999,9",,,,"SYN060AAXX  02094 08272 42981 02704 10287 20099 39550 40119 51006;",
"08272099999","2010-08-02T12:00:00","4","39.8833333","-4.05","516.0","TOLEDO, SP","FM-12","99999","V020","300,1,N,0057,1","22000,1,9,N","040000,1,N,1","+0332,1","+0072,1","10103,1","06,0000,9,1",,,,,,,"01,99,1,01,1,02,1,01250,1,00,1,00,1",,,,,"99999,9,09542,1","8,1,008,1,+999,9",,,,"SYN072AAXX  02124 08272 12682 13011 10332 20072 39542 40103 58008 60001 81200;","Q01  00002PRCP06"
"08272099999","2010-08-02T15:00:00","4","39.8833333","-4.05","516.0","TOLEDO, SP","FM-12","99999","V020","290,1,N,0067,1","22000,1,9,N","060000,1,N,1","+0358,1","+0042,1","10088,1",,,,,,,,"01,99,1,01,1,02,1,01250,1,00,1,00,1",,,,,"99999,9,09532,1","6,1,010,1,+999,9",,,,"SYN066AAXX  02154 08272 42686 12913 10358 20042 39532 40088 56010 81200;",
"08272099999","2010-08-02T18:00:00","4","39.8833333","-4.05","516.0","TOLEDO, SP","FM-12","99999","V020","280,1,N,0046,1","22000,1,9,N","060000,1,N,1","+0345,1","+0050,1","10088,1","12,0000,9,1",,,,,,,"02,99,1,01,1,04,1,01250,1,00,1,01,1",,,,"999,M,+0364,1","99999,9,09530,1","6,1,002,1,+999,9",,,,"SYN082AAXX  02184 08272 12686 22809 10345 20050 39530 40088 56002 60002 81401 333 10364;","Q01  00002PRCP12"
"08272099999","2010-08-03T06:00:00","4","39.8833333","-4.05","516.0","TOLEDO, SP","FM-12","99999","V020","080,1,N,0031,1","22000,1,9,N","040000,1,N,1","+0190,1","+0113,1","10171,1","12,0000,9,1","24,0000,9,1",,,,,,"02,99,1,01,1,00,1,02250,1,01,1,01,1","0804,9","01,9","999,+0160,9","999,N,+0187,1","99999,9,09581,1","3,1,008,1,+999,9","02,1",,,"SYN112AAXX  03064 08272 11882 20806 10190 20113 39581 40171 53008 60002 702// 81011 333 20187 30016 50914 55134 70000;","Q01  00002PRCP24Q02  00002PRCP12"
"08272099999","2010-08-03T09:00:00","4","39.8833333","-4.05","516.0","TOLEDO, SP","FM-12","99999","V020","110,1,N,0026,1","22000,1,9,N","040000,1,N,1","+0247,1","+0151,1","10164,1",,,,,,,,"03,99,1,01,1,01,1,00800,1,03,1,00,1",,,,,"99999,9,09586,1","1,1,005,1,+999,9",,,,"SYN066AAXX  03094 08272 42582 31105 10247 20151 39586 40164 51005 81130;",
"08272099999","2010-08-03T12:00:00","4","39.8833333","-4.05","516.0","TOLEDO, SP","FM-12","99999","V020","110,1,N,0031,1","22000,1,9,N","035000,1,N,1","+0293,1","+0154,1","10145,1","06,0000,9,1",,,,,,,"02,99,1,00,1,00,1,99999,9,00,1,01,1",,,,,"99999,9,09577,1","8,1,009,1,+999,9",,,,"SYN072AAXX  03124 08272 12981 21106 10293 20154 39577 40145 58009 60001 80001;","Q01  00002PRCP06"
"08272099999","2010-08-03T15:00:00","4","39.8833333","-4.05","516.0","TOLEDO, SP","FM-12","99999","V020","350,1,N,0036,1","22000,1,9,N","045000,1,N,1","+0324,1","+0080,1","10121,1",,,,,,,,"02,99,1,01,1,01,1,01250,1,00,1,01,1",,,,,"99999,9,09558,1","7,1,019,1,+999,9",,,,"SYN066AAXX  03154 08272 42683 23507 10324 20080 39558 40121 57019 81101;",
"08272099999","2010-08-03T18:00:00","4","39.8833333","-4.05","516.0","TOLEDO, SP","FM-12","99999","V020","040,1,N,0015,1","22000,1,9,N","060000,1,N,1","+0328,1","+0062,1","10108,1","12,0000,9,1",,,,,,,"02,99,1,00,1,00,1,99999,9,00,1,01,1",,,,"999,M,+0339,1","99999,9,09546,1","7,1,012,1,+999,9",,,,"SYN082AAXX  03184 08272 12986 20403 10328 20062 39546 40108 57012 60002 80001 333 10339;","Q01  00002PRCP12"
"08272099999","2010-08-04T06:00:00","4","39.8833333","-4.05","516.0","TOLEDO, SP","FM-12","99999","V020","130,1,N,0010,1","22000,1,9,N","040000,1,N,1","+0193,1","+0106,1","10149,1","12,0000,9,1","24,0000,9,1",,,,"00,1,+99999,9,99,9",,"00,99,1,00,1,00,1,99999,9,00,1,00,1","0774,9","01,9","999,+0150,9","999,N,+0187,1","99999,9,09561,1","3,1,004,1,+999,9","00,1",,,"SYN106AAXX  04064 08272 11982 01302 10193 20106 39561 40149 53004 60002 700// 333 20187 30015 50554 55129 70000;","Q01  00002PRCP24Q02  00002PRCP12"
"08272099999","2010-08-04T09:00:00","4","39.8833333","-4.05","516.0","TOLEDO, SP","FM-12","99999","V020","130,1,N,0031,1","22000,1,9,N","035000,1,N,1","+0259,1","+0141,1","10140,1",,,,,,"00,1,+99999,9,99,9",,"00,99,1,00,1,00,1,99999,9,00,1,00,1",,,,,"99999,9,09565,1","0,1,004,1,+999,9",,,,"SYN060AAXX  04094 08272 42981 01306 10259 20141 39565 40140 50004;",
"08272099999","2010-08-04T12:00:00","4","39.8833333","-4.05","516.0","TOLEDO, SP","FM-12","99999","V020","290,1,N,0021,1","22000,1,9,N","050000,1,N,1","+0306,1","+0130,1","10118,1","06,0000,9,1",,,,,,,"01,99,1,01,1,01,1,00800,1,00,1,00,1",,,,,"99999,9,09553,1","8,1,012,1,+999,9",,,,"SYN072AAXX  04124 08272 12584 12904 10306 20130 39553 40118 58012 60001 81100;","Q01  00002PRCP06"
"08272099999","2010-08-04T15:00:00","4","39.8833333","-4.05","516.0","TOLEDO, SP","FM-12","99999","V020","250,1,N,0051,1","22000,1,9,N","050000,1,N,1","+0347,1","+0105,1","10089,1",,,,,,,,"03,99,1,01,1,04,1,01250,1,00,1,08,1",,,,,"99999,9,09532,1","7,1,021,1,+999,9",,,,"SYN066AAXX  04154 08272 42684 32510 10347 20105 39532 40089 57021 81408;",
"08272099999","2010-08-04T18:00:00","4","39.8833333","-4.05","516.0","TOLEDO, SP","FM-12","99999","V020","360,1,N,0041,1","99999,9,9,N","060000,1,N,1","+0328,1","+0083,1","10079,1","12,0000,9,1",,,,,,,"06,99,1,00,1,00,1,99999,9,00,1,02,1",,,,"999,M,+0360,1","99999,9,09519,1","7,1,013,1,+999,9",,,,"SYN082AAXX  04184 08272 12986 63608 10328 20083 39519 40079 57013 60002 80002 333 10360;","Q01  00002PRCP12"
"08272099999","2010-08-05T06:00:00","4","39.8833333","-4.05","516.0","TOLEDO, SP","FM-12","99999","V020","090,1,N,0015,1","99999,9,9,N","050000,1,N,1","+0191,1","+0104,1","10131,1","12,0000,9,1","24,0000,9,1",,,,,,"07,99,1,00,1,00,1,99999,9,00,1,01,1","0708,9","01,9","999,+0150,9","999,N,+0189,1","99999,9,09543,1","3,1,011,1,+999,9","02,1",,,"SYN112AAXX  05064 08272 11984 70903 10191 20104 39543 40131 53011 60002 702// 80001 333 20189 30015 50764 55118 70000;","Q01  00002PRCP24Q02  00002PRCP12"
"08272099999","2010-08-05T09:00:00","4","39.8833333","-4.05","516.0","TOLEDO, SP","FM-12","99999","V020","090,1,N,0031,1","99999,9,9,N","040000,1,N,1","+0264,1","+0128,1","10123,1",,,,,,,,"07,99,1,00,1,00,1,99999,9,00,1,01,1",,,,,"99999,9,09550,1","1,1,007,1,+999,9",,,,"SYN066AAXX  05094 08272 42982 70906 10264 20128 39550 40123 51007 80001;",
"08272099999","2010-08-05T12:00:00","4","39.8833333","-4.05","516.0","TOLEDO, SP","FM-12","99999","V020","080,1,N,0021,1","22000,1,9,N","040000,1,N,1","+0310,1","+0124,1","10105,1","06,0000,9,1",,,,,,,"05,99,1,01,1,01,1,01250,1,00,1,01,1",,,,,"99999,9,09541,1","8,1,009,1,+999,9",,,,"SYN072AAXX  05124 08272 12682 50804 10310 20124 39541 40105 58009 60001 81101;","Q01  00002PRCP06"
"08272099999","2010-08-05T15:00:00","4","39.8833333","-4.05","516.0","TOLEDO, SP","FM-12","99999","V020","040,1,N,0026,1","22000,1,9,N","045000,1,N,1","+0333,1","+0094,1","10085,1",,,,,,,,"03,99,1,01,1,01,1,01250,1,00,1,01,1",,,,,"99999,9,09526,1","7,1,015,1,+999,9",,,,"SYN066AAXX  05154 08272 42683 30405 10333 20094 39526 40085 57015 81101;",
"08272099999","2010-08-05T18:00:00","4","39.8833333","-4.05","516.0","TOLEDO, SP","FM-12","99999","V020","040,1,N,0021,1","22000,1,9,N","050000,1,N,1","+0329,1","+0084,1","10075,1","12,0000,9,1",,,,,,,"01,99,1,01,1,01,1,01250,1,00,1,01,1",,,,"999,M,+0347,1","99999,9,09516,1","7,1,010,1,+999,9",,,,"SYN082AAXX  05184 08272 12684 10404 10329 20084 39516 40075 57010 60002 81101 333 10347;","Q01  00002PRCP12"
"08272099999","2010-08-06T06:00:00","4","39.8833333","-4.05","516.0","TOLEDO, SP","FM-12","99999","V020","120,1,N,0010,1","22000,1,9,N","050000,1,N,1","+0181,1","+0078,1","10148,1","12,0000,9,1","24,0000,9,1",,,,,,"01,99,1,00,1,00,1,99999,9,00,1,01,1","0804,9","01,9","999,+0150,9","999,N,+0179,1","99999,9,09557,1","3,1,014,1,+999,9","02,1",,,"SYN112AAXX  06064 08272 11984 11202 10181 20078 39557 40148 53014 60002 702// 80001 333 20179 30015 50684 55134 70000;","Q01  00002PRCP24Q02  00002PRCP12"
"08272099999","2010-08-06T09:00:00","4","39.8833333","-4.05","516.0","TOLEDO, SP","FM-12","99999","V020","090,1,N,0041,1","22000,1,9,N","040000,1,N,1","+0253,1","+0092,1","10137,1",,,,,,"00,1,+99999,9,99,9",,"00,99,1,00,1,00,1,99999,9,00,1,00,1",,,,,"99999,9,09560,1","1,1,003,1,+999,9",,,,"SYN060AAXX  06094 08272 42982 00908 10253 20092 39560 40137 51003;",
"08272099999","2010-08-06T12:00:00","4","39.8833333","-4.05","516.0","TOLEDO, SP","FM-12","99999","V020","080,1,N,0031,1","22000,1,9,N","035000,1,N,1","+0310,1","+0133,1","10114,1","06,0000,9,1",,,,,"00,1,+99999,9,99,9",,"00,99,1,00,1,00,1,99999,9,00,1,00,1",,,,,"99999,9,09550,1","8,1,010,1,+999,9",,,,"SYN066AAXX  06124 08272 12981 00806 10310 20133 39550 40114 58010 60001;","Q01  00002PRCP06"
"08272099999","2010-08-06T15:00:00","4","39.8833333","-4.05","516.0","TOLEDO, SP","FM-12","99999","V020","310,1,N,0036,1","22000,1,9,N","030000,1,N,1","+0349,1","+0119,1","10094,1",,,,,,,,"03,99,1,03,1,01,1,01250,1,00,1,00,1",,,,,"99999,9,09538,1","8,1,012,1,+999,9",,,,"SYN066AAXX  06154 08272 42680 33107 10349 20119 39538 40094 58012 83100;",
"08272099999","2010-08-06T18:00:00","4","39.8833333","-4.05","516.0","TOLEDO, SP","FM-12","99999","V020","040,1,N,0021,1","22000,1,9,N","040000,1,N,1","+0343,1","+0108,1","10089,1","12,0000,9,1",,,,,,,"01,99,1,01,1,01,1,01250,1,00,1,00,1",,,,"999,M,+0356,1","99999,9,09532,1","6,1,006,1,+999,9",,,,"SYN082AAXX  06184 08272 12682 10404 10343 20108 39532 40089 56006 60002 81100 333 10356;","Q01  00002PRCP12"
"08272099999","2010-08-09T06:00:00","4","39.8833333","-4.05","516.0","TOLEDO, SP","FM-12","99999","V020","100,1,N,0015,1","22000,1,9,N","008000,1,N,1","+0210,1","+0186,1","10173,1","12,0020,9,1","24,0025,9,1",,,,,,"01,99,1,01,1,00,1,02250,1,03,1,00,1","0060,9","01,9","999,+0180,9","999,N,+0208,1","99999,9,09588,1","3,1,006,1,+999,9","10,1",,,"SYN106AAXX  09064 08272 11858 11003 10210 20186 39588 40173 53006 60022 710// 81030 333 20208 30018 55010 70025;",
"08272099999","2010-08-09T09:00:00","4","39.8833333","-4.05","516.0","TOLEDO, SP","FM-12","99999","V020","100,1,N,0015,1","22000,1,9,N","014000,1,N,1","+0265,1","+0194,1","10165,1",,,,,,"00,1,+99999,9,99,9",,"00,99,1,00,1,00,1,99999,9,00,1,00,1",,,,,"99999,9,09591,1","1,1,003,1,+999,9",,,,"SYN060AAXX  09094 08272 42964 01003 10265 20194 39591 40165 51003;",
"08272099999","2010-08-09T12:00:00","4","39.8833333","-4.05","516.0","TOLEDO, SP","FM-12","99999","V020","200,1,N,0021,1","22000,1,9,N","014000,1,N,1","+0325,1","+0159,1","10147,1","06,0000,9,1",,,,,,,"02,99,1,00,1,00,1,99999,9,00,1,01,1",,,,,"99999,9,09584,1","8,1,007,1,+999,9",,,,"SYN072AAXX  09124 08272 12964 22004 10325 20159 39584 40147 58007 60001 80001;","Q01  00002PRCP06"
"08272099999","2010-08-09T15:00:00","4","39.8833333","-4.05","516.0","TOLEDO, SP","FM-12","99999","V020","270,1,N,0026,1","22000,1,9,N","012000,1,N,1","+0353,1","+0140,1","10122,1",,,,,,,,"04,99,1,01,1,00,1,02250,1,03,1,01,1",,,,,"99999,9,09565,1","7,1,019,1,+999,9",,,,"SYN066AAXX  09154 08272 42862 42705 10353 20140 39565 40122 57019 81031;",
"08272099999","2010-08-09T18:00:00","4","39.8833333","-4.05","516.0","TOLEDO, SP","FM-12","99999","V020","270,1,N,0021,1","02100,1,9,N","012000,1,N,1","+0339,1","+0128,1","10117,1","12,0000,9,1",,,,,,,"07,99,1,06,1,00,1,02250,1,07,1,08,1",,,,"999,M,+0360,1","99999,9,09558,1","7,1,007,1,+999,9",,,,"SYN082AAXX  09184 08272 12862 72704 10339 20128 39558 40117 57007 60002 86078 333 10360;","Q01  00002PRCP12"
"08272099999","2010-08-10T06:00:00","4","39.8833333","-4.05","516.0","TOLEDO, SP","FM-12","99999","V020","090,1,N,0021,1","22000,1,9,N","012000,1,N,1","+0228,1","+0159,1","10155,1","12,0000,9,1","24,0000,9,1",,,,,,"02,99,1,02,1,00,1,02250,1,08,1,00,1","0606,9","01,9","999,+0200,9","999,N,+0228,1","99999,9,09574,1","3,1,006,1,+999,9","02,1",,,"SYN112AAXX  10064 08272 11862 20904 10228 20159 39574 40155 53006 60002 702// 82080 333 20228 30020 50554 55101 70000;","Q01  00002PRCP24Q02  00002PRCP12"
"08272099999","2010-08-10T09:00:00","4","39.8833333","-4.05","516.0","TOLEDO, SP","FM-12","99999","V020","260,1,N,0015,1","22000,1,9,N","008000,1,N,1","+0298,1","+0159,1","10151,1",,,,"0,1,03,1","0,1,03,1",,,"02,99,1,02,1,00,1,02250,1,08,1,00,1",,,,,"99999,9,09583,1","2,1,009,1,+999,9","05,1",,,"SYN072AAXX  10094 08272 41858 22603 10298 20159 39583 40151 52009 70500 82080;",
"08272099999","2010-08-10T12:00:00","4","39.8833333","-4.05","516.0","TOLEDO, SP","FM-12","99999","V020","280,1,N,0036,1","22000,1,9,N","010000,1,N,1","+0361,1","+0136,1","10136,1","06,0000,9,1",,,,,,,"03,99,1,01,1,01,1,01250,1,08,1,02,1",,,,,"99999,9,09580,1","8,1,003,1,+999,9",,,,"SYN072AAXX  10124 08272 12660 32807 10361 20136 39580 40136 58003 60001 81182;","Q01  00002PRCP06"
"08272099999","2010-08-10T15:00:00","4","39.8833333","-4.05","516.0","TOLEDO, SP","FM-12","99999","V020","270,1,N,0087,1","03600,1,9,N","010000,1,N,1","+0378,1","+0110,1","10113,1",,,,,,,,"06,99,1,02,1,02,1,00800,1,08,1,08,1",,,,,"99999,9,09560,1","7,1,020,1,+999,9",,,,"SYN066AAXX  10154 08272 42560 62717 10378 20110 39560 40113 57020 82288;",
"08272099999","2010-08-10T18:00:00","4","39.8833333","-4.05","516.0","TOLEDO, SP","FM-12","99999","V020","320,1,N,0021,1","03600,1,9,N","010000,1,N,1","+0355,1","+0153,1","10115,1","12,0000,9,1",,,,,,,"06,99,1,03,1,02,1,00800,1,06,1,01,1",,,,"999,M,+0384,1","99999,9,09559,1","8,1,001,1,+999,9",,,,"SYN082AAXX  10184 08272 12560 63204 10355 20153 39559 40115 58001 60002 83261 333 10384;","Q01  00002PRCP12"
"08272099999","2010-08-11T06:00:00","4","39.8833333","-4.05","516.0","TOLEDO, SP","FM-12","99999","V020","340,1,N,0005,1","22000,1,9,N","006000,1,N,1","+0231,1","+0124,1","10165,1","12,0000,9,1","24,0000,9,1",,,,,,"01,99,1,01,1,00,1,02250,1,03,1,00,1","0630,9","01,9","999,+0180,9","999,N,+0227,1","99999,9,09583,1","3,1,004,1,+999,9","05,1",,,"SYN112AAXX  11064 08272 11856 13401 10231 20124 39583 40165 53004 60002 705// 81030 333 20227 30018 50764 55105 70000;","Q01  00002PRCP24Q02  00002PRCP12"
"08272099999","2010-08-11T09:00:00","4","39.8833333","-4.05","516.0","TOLEDO, SP","FM-12","99999","V020","250,1,N,0021,1","22000,1,9,N","003000,1,N,1","+0291,1","+0137,1","10160,1",,,,"4,1,03,1","4,1,03,1","00,1,+99999,9,99,9",,"00,99,1,00,1,00,1,99999,9,00,1,00,1",,,,,"99999,9,09590,1","0,1,007,1,+999,9","05,1",,,"SYN066AAXX  11094 08272 41930 02504 10291 20137 39590 40160 50007 70544;",
"08272099999","2010-08-11T12:00:00","4","39.8833333","-4.05","516.0","TOLEDO, SP","FM-12","99999","V020","310,1,N,0036,1","22000,1,9,N","006000,1,N,1","+0333,1","+0058,1","10143,1","06,0000,9,1",,,"4,1,06,1","4,1,06,1","00,1,+99999,9,99,9",,"00,99,1,00,1,00,1,99999,9,00,1,00,1",,,,,"99999,9,09580,1","8,1,010,1,+999,9","05,1",,,"SYN072AAXX  11124 08272 11956 03107 10333 20058 39580 40143 58010 60001 70544;","Q01  00002PRCP06"
"08272099999","2010-08-11T15:00:00","4","39.8833333","-4.05","516.0","TOLEDO, SP","FM-12","99999","V020","260,1,N,0046,1","22000,1,9,N","010000,1,N,1","+0366,1","+0037,1","10118,1",,,,,,,,"01,99,1,00,1,00,1,99999,9,00,1,02,1",,,,,"99999,9,09562,1","7,1,018,1,+999,9",,,,"SYN066AAXX  11154 08272 42960 12609 10366 20037 39562 40118 57018 80002;",
"08272099999","2010-08-11T18:00:00","4","39.8833333","-4.05","516.0","TOLEDO, SP","FM-12","99999","V020","270,1,N,0062,1","22000,1,9,N","012000,1,N,1","+0349,1","+0013,1","10112,1","12,0000,9,1",,,,,,,"03,99,1,00,1,00,1,99999,9,00,1,01,1",,,,"999,M,+0375,1","99999,9,09553,1","6,1,009,1,+999,9",,,,"SYN082AAXX  11184 08272 12962 32712 10349 20013 39553 40112 56009 60002 80001 333 10375;","Q01  00002PRCP12"
"08272099999","2010-08-12T06:00:00","4","39.8833333","-4.05","516.0","TOLEDO, SP","FM-12","99999","V020","140,1,N,0015,1","22000,1,9,N","030000,1,N,1","+0204,1","+0052,1","10143,1","12,0000,9,1","24,0000,9,1",,,,,,"04,99,1,00,1,00,1,99999,9,00,1,01,1","0714,9","01,9","999,+0160,9","999,N,+0204,1","99999,9,09556,1","5,1,001,1,+999,9","02,1",,,"SYN112AAXX  12064 08272 11980 41403 10204 20052 39556 40143 55001 60002 702// 80001 333 20204 30016 50984 55119 70000;","Q01  00002PRCP24Q02  00002PRCP12"
"08272099999","2010-08-12T09:00:00","4","39.8833333","-4.05","516.0","TOLEDO, SP","FM-12","99999","V020","120,1,N,0036,1","22000,1,9,N","030000,1,N,1","+0259,1","+0055,1","10136,1",,,,,,,,"01,99,1,00,1,00,1,99999,9,00,1,01,1",,,,,"99999,9,09560,1","0,1,004,1,+999,9",,,,"SYN066AAXX  12094 08272 42980 11207 10259 20055 39560 40136 50004 80001;",
"08272099999","2010-08-12T12:00:00","4","39.8833333","-4.05","516.0","TOLEDO, SP","FM-12","99999","V020","340,1,N,0026,1","22000,1,9,N","030000,1,N,1","+0320,1","+0089,1","10112,1","06,0000,9,1",,,,,"00,1,+99999,9,99,9",,"00,99,1,00,1,00,1,99999,9,00,1,00,1",,,,,"99999,9,09549,1","8,1,011,1,+999,9",,,,"SYN066AAXX  12124 08272 12980 03405 10320 20089 39549 40112 58011 60001;","Q01  00002PRCP06"
"08272099999","2010-08-12T15:00:00","4","39.8833333","-4.05","516.0","TOLEDO, SP","FM-12","99999","V020","270,1,N,0031,1","22000,1,9,N","016000,1,N,1","+0351,1","+0064,1","10085,1",,,,,,"00,1,+99999,9,99,9",,"00,99,1,00,1,00,1,99999,9,00,1,00,1",,,,,"99999,9,09529,1","7,1,020,1,+999,9",,,,"SYN060AAXX  12154 08272 42966 02706 10351 20064 39529 40085 57020;",
"08272099999","2010-08-12T18:00:00","4","39.8833333","-4.05","516.0","TOLEDO, SP","FM-12","99999","V020","340,1,N,0046,1","22000,1,9,N","012000,1,N,1","+0336,1","+0083,1","10077,1","12,0000,9,1",,,,,,,"01,99,1,00,1,00,1,99999,9,00,1,02,1",,,,"999,M,+0358,1","99999,9,09519,1","6,1,010,1,+999,9",,,,"SYN082AAXX  12184 08272 12962 13409 10336 20083 39519 40077 56010 60002 80002 333 10358;","Q01  00002PRCP12"
"08272099999","2010-08-13T06:00:00","4","39.8833333","-4.05","516.0","TOLEDO, SP","FM-12","99999","V020","070,1,N,0041,1","22000,1,9,N","035000,1,N,1","+0171,1","+0085,1","10150,1","12,0000,9,1","24,0000,9,1",,,,,,"02,99,1,02,1,00,1,02250,1,08,1,09,1","0780,9","01,9","999,+0160,9","999,N,+0171,1","99999,9,09557,1","3,1,003,1,+999,9","02,1",,,"SYN112AAXX  13064 08272 11881 20708 10171 20085 39557 40150 53003 60002 702// 82089 333 20171 30016 50894 55130 70000;","Q01  00002PRCP24Q02  00002PRCP12"
"08272099999","2010-08-13T09:00:00","4","39.8833333","-4.05","516.0","TOLEDO, SP","FM-12","99999","V020","080,1,N,0051,1","03600,1,9,N","030000,1,N,1","+0222,1","+0087,1","10147,1",,,,,,,,"06,99,1,03,1,05,1,00800,1,08,1,00,1",,,,,"99999,9,09564,1","0,1,007,1,+999,9",,,,"SYN066AAXX  13094 08272 42580 60810 10222 20087 39564 40147 50007 83580;",
"08272099999","2010-08-13T12:00:00","4","39.8833333","-4.05","516.0","TOLEDO, SP","FM-12","99999","V020","060,1,N,0041,1","22000,1,9,N","030000,1,N,1","+0270,1","+0126,1","10120,1","06,0000,9,1",,,,,,,"03,99,1,02,1,01,1,00800,1,08,1,00,1",,,,,"99999,9,09548,1","8,1,016,1,+999,9",,,,"SYN072AAXX  13124 08272 12580 30608 10270 20126 39548 40120 58016 60001 82180;","Q01  00002PRCP06"
"08272099999","2010-08-13T15:00:00","4","39.8833333","-4.05","516.0","TOLEDO, SP","FM-12","99999","V020","030,1,N,0036,1","22000,1,9,N","030000,1,N,1","+0286,1","+0108,1","10101,1",,,,,,,,"02,99,1,02,1,01,1,00800,1,00,1,03,1",,,,,"99999,9,09533,1","7,1,015,1,+999,9",,,,"SYN066AAXX  13154 08272 42580 20307 10286 20108 39533 40101 57015 82103;",
"08272099999","2010-08-13T18:00:00","4","39.8833333","-4.05","516.0","TOLEDO, SP","FM-12","99999","V020","050,1,N,0041,1","22000,1,9,N","050000,1,N,1","+0287,1","+0049,1","10092,1","12,0000,9,1",,,,,,,"01,99,1,01,1,02,1,00800,1,00,1,00,1",,,,"999,M,+0300,1","99999,9,09524,1","6,1,009,1,+999,9",,,,"SYN082AAXX  13184 08272 12584 10508 10287 20049 39524 40092 56009 60002 81200 333 10300;","Q01  00002PRCP12"
"08272099999","2010-08-16T06:00:00","4","39.8833333","-4.05","516.0","TOLEDO, SP","FM-12","99999","V020","090,1,N,0041,1","00750,1,9,N","035000,1,N,1","+0179,1","+0073,1","10176,1","12,0000,9,1","24,0000,9,1",,,,,,"07,99,1,06,1,05,1,00800,1,07,1,00,1","0786,9","01,9","999,+0170,9","999,N,+0179,1","99999,9,09583,1","2,1,005,1,+999,9","02,1",,,"SYN106AAXX  16064 08272 11581 70908 10179 20073 39583 40176 52005 60002 702// 86570 333 20179 30017 55131 70000;","Q01  00002PRCP24Q02  00002PRCP12"
"08272099999","2010-08-16T09:00:00","4","39.8833333","-4.05","516.0","TOLEDO, SP","FM-12","99999","V020","090,1,N,0041,1","00750,1,C,N","010000,1,N,1","+0169,1","+0112,1","10186,1",,,,"6,1,03,1","2,1,03,1","04,1,+00900,1,09,1",,"07,99,1,05,1,09,1,00800,1,07,1,00,1",,,,,"99999,9,09591,1","1,1,008,1,+999,9","29,1",,,"SYN082AAXX  16094 08272 41560 70908 10169 20112 39591 40186 51008 72962 85970 333 84930;",
"08272099999","2010-08-16T12:00:00","4","39.8833333","-4.05","516.0","TOLEDO, SP","FM-12","99999","V020","100,1,N,0051,1","00750,1,C,N","035000,1,N,1","+0210,1","+0153,1","10178,1","06,9999,9,9",,,"9,1,06,1","6,1,06,1","02,1,+00900,1,09,1",,"07,99,1,06,1,09,1,00800,1,07,1,00,1",,,,,"99999,9,09592,1","0,1,001,1,+999,9","60,1",,,"SYN088AAXX  16124 08272 11581 71010 10210 20153 39592 40178 50001 69901 76096 86970 333 82930;","Q01  00002PRCP06Q02  00002PRCP06"
"08272099999","2010-08-16T15:00:00","4","39.8833333","-4.05","516.0","TOLEDO, SP","FM-12","99999","V020","050,1,N,0031,1","03600,1,9,N","035000,1,N,1","+0237,1","+0144,1","10167,1",,,,"2,1,03,1","2,1,03,1","04,1,+00900,1,09,1",,"07,99,1,04,1,09,1,00800,1,06,1,00,1",,,,,"99999,9,09587,1","6,1,005,1,+999,9","17,1",,,"SYN082AAXX  16154 08272 41581 70506 10237 20144 39587 40167 56005 71722 84960 333 84930;",
"08272099999","2010-08-16T18:00:00","4","39.8833333","-4.05","516.0","TOLEDO, SP","FM-12","99999","V020","130,1,N,0041,1","00750,1,C,N","035000,1,N,1","+0230,1","+0175,1","10168,1","12,0010,9,1",,,"9,1,06,1","2,1,06,1","04,1,+00900,1,09,1",,"07,99,1,07,1,09,1,00800,1,00,1,00,1",,,,"120,M,+0252,1","99999,9,09587,1","4,1,000,1,+999,9","60,1",,,"SYN094AAXX  16184 08272 11581 71308 10230 20175 39587 40168 54000 69992 76092 87900 333 10252 84930;",
"08272099999","2010-08-17T06:00:00","4","39.8833333","-4.05","516.0","TOLEDO, SP","FM-12","99999","V020","040,1,N,0015,1","03600,1,9,N","012000,1,N,1","+0177,1","+0157,1","10188,1","12,0000,2,1","24,0010,9,1",,,,,,"07,99,1,01,1,07,1,00800,1,07,1,08,1","0144,9","01,9","999,+0150,9","999,N,+0172,1","99999,9,09595,1","3,1,002,1,+999,9","02,1",,,"SYN112AAXX  17064 08272 11562 70403 10177 20157 39595 40188 53002 69902 702// 81778 333 20172 30015 50234 55024 70009;",
"08272099999","2010-08-17T09:00:00","4","39.8833333","-4.05","516.0","TOLEDO, SP","FM-12","99999","V020","290,1,N,0010,1","01500,1,9,N","015000,1,N,1","+0194,1","+0162,1","10194,1",,,,,,,,"08,99,1,08,1,00,1,01750,1,07,1,99,9",,,,,"99999,9,09604,1","1,1,009,1,+999,9",,,,"SYN066AAXX  17094 08272 42765 82902 10194 20162 39604 40194 51009 8807/;",
"08272099999","2010-08-17T12:00:00","4","39.8833333","-4.05","516.0","TOLEDO, SP","FM-12","99999","V020","230,1,N,0031,1","03600,1,9,N","035000,1,N,1","+0247,1","+0162,1","10178,1","06,0000,9,1",,,,,,,"07,99,1,04,1,02,1,00800,1,03,1,08,1",,,,,"99999,9,09599,1","8,1,005,1,+999,9",,,,"SYN072AAXX  17124 08272 12581 72306 10247 20162 39599 40178 58005 60001 84238;","Q01  00002PRCP06"
"08272099999","2010-08-17T15:00:00","4","39.8833333","-4.05","516.0","TOLEDO, SP","FM-12","99999","V020","210,1,N,0021,1","03600,1,9,N","035000,1,N,1","+0280,1","+0146,1","10147,1",,,,,,,,"07,99,1,03,1,02,1,00800,1,06,1,08,1",,,,,"99999,9,09576,1","7,1,023,1,+999,9",,,,"SYN066AAXX  17154 08272 42581 72104 10280 20146 39576 40147 57023 83268;",
"08272099999","2010-08-17T18:00:00","4","39.8833333","-4.05","516.0","TOLEDO, SP","FM-12","99999","V020","280,1,N,0057,1","03600,1,C,N","050000,1,N,1","+0258,1","+0149,1","10143,1","12,0000,9,1",,,,,"02,1,+00900,1,09,1",,"07,99,1,03,1,09,1,00800,1,07,1,08,1",,,,"120,M,+0290,1","99999,9,09568,1","8,1,008,1,+999,9",,,,"SYN094AAXX  17184 08272 12584 72811 10258 20149 39568 40143 58008 60002 83978 333 10290 82930 83350;","Q01  00002PRCP12"
"08272099999","2010-08-18T06:00:00","4","39.8833333","-4.05","516.0","TOLEDO, SP","FM-12","99999","V020","290,1,N,0005,1","01500,1,9,N","035000,1,N,1","+0188,1","+0139,1","10148,1","12,0000,9,1","24,0000,9,1",,,,,,"07,99,1,07,1,00,1,01750,1,07,1,09,1","0252,9","01,9","999,+0150,9","999,N,+0186,1","99999,9,09559,1","6,1,004,1,+999,9","02,1",,,"SYN112AAXX  18064 08272 11781 72901 10188 20139 39559 40148 56004 60002 702// 87079 333 20186 30015 50304 55042 70000;","Q01  00002PRCP24Q02  00002PRCP12"
"08272099999","2010-08-18T09:00:00","4","39.8833333","-4.05","516.0","TOLEDO, SP","FM-12","99999","V020","300,1,N,0031,1","22000,1,9,N","035000,1,N,1","+0246,1","+0141,1","10136,1",,,,,,,,"04,99,1,02,1,00,1,01750,1,08,1,01,1",,,,,"99999,9,09559,1","4,1,000,1,+999,9",,,,"SYN066AAXX  18094 08272 42781 43006 10246 20141 39559 40136 54000 82081;",
"08272099999","2010-08-18T12:00:00","4","39.8833333","-4.05","516.0","TOLEDO, SP","FM-12","99999","V020","240,1,N,0015,1","22000,1,9,N","030000,1,N,1","+0293,1","+0131,1","10118,1","06,0000,9,1",,,,,,,"05,99,1,02,1,02,1,00800,1,00,1,08,1",,,,,"99999,9,09551,1","8,1,008,1,+999,9",,,,"SYN072AAXX  18124 08272 12580 52403 10293 20131 39551 40118 58008 60001 82208;","Q01  00002PRCP06"
"08272099999","2010-08-18T15:00:00","4","39.8833333","-4.05","516.0","TOLEDO, SP","FM-12","99999","V020","250,1,N,0026,1","03600,1,9,N","030000,1,N,1","+0319,1","+0127,1","10088,1",,,,,,,,"05,99,1,03,1,02,1,00800,1,03,1,08,1",,,,,"99999,9,09527,1","7,1,024,1,+999,9",,,,"SYN066AAXX  18154 08272 42580 52505 10319 20127 39527 40088 57024 83238;",
"08272099999","2010-08-18T18:00:00","4","39.8833333","-4.05","516.0","TOLEDO, SP","FM-12","99999","V020","290,1,N,0036,1","00750,1,C,N","030000,1,N,1","+0308,1","+0122,1","10081,1","12,0000,9,1",,,,,"02,1,+00900,1,09,1",,"05,99,1,05,1,09,1,00800,1,00,1,00,1",,,,"120,M,+0333,1","99999,9,09518,1","7,1,009,1,+999,9",,,,"SYN088AAXX  18184 08272 12580 52907 10308 20122 39518 40081 57009 60002 85900 333 10333 82930;","Q01  00002PRCP12"
"08272099999","2010-08-19T06:00:00","4","39.8833333","-4.05","516.0","TOLEDO, SP","FM-12","99999","V020","090,1,N,0010,1","22000,1,9,N","040000,1,N,1","+0185,1","+0136,1","10123,1","12,0000,9,1","24,0000,9,1",,,,,,"03,99,1,01,1,02,1,00800,1,03,1,02,1","0654,9","01,9","999,+0150,9","999,N,+0184,1","99999,9,09535,1","3,1,006,1,+999,9","02,1",,,"SYN112AAXX  19064 08272 11582 30902 10185 20136 39535 40123 53006 60002 702// 81232 333 20184 30015 50534 55109 70000;","Q01  00002PRCP24Q02  00002PRCP12"
"08272099999","2010-08-19T09:00:00","4","39.8833333","-4.05","516.0","TOLEDO, SP","FM-12","99999","V020","280,1,N,0010,1","22000,1,9,N","025000,1,N,1","+0224,1","+0150,1","10122,1",,,,,,,,"05,99,1,01,1,00,1,01750,1,03,1,06,1",,,,,"99999,9,09542,1","1,1,007,1,+999,9",,,,"SYN066AAXX  19094 08272 42775 52802 10224 20150 39542 40122 51007 81036;",
"08272099999","2010-08-19T12:00:00","4","39.8833333","-4.05","516.0","TOLEDO, SP","FM-12","99999","V020","100,1,N,0031,1","09000,1,9,N","030000,1,N,1","+0301,1","+0146,1","10109,1","06,0000,9,1",,,,,"01,1,+00900,1,09,1",,"06,99,1,02,1,03,1,00800,1,03,1,06,1",,,,,"99999,9,09544,1","1,1,002,1,+999,9",,,,"SYN088AAXX  19124 08272 12580 61006 10301 20146 39544 40109 51002 60001 82336 333 81930 83350;","Q01  00002PRCP06"
"08272099999","2010-08-19T15:00:00","4","39.8833333","-4.05","516.0","TOLEDO, SP","FM-12","99999","V020","180,1,N,0057,1","00750,1,9,N","035000,1,N,1","+0293,1","+0139,1","10102,1",,,,,,,,"05,99,1,05,1,02,1,00800,1,06,1,06,1",,,,,"99999,9,09536,1","5,1,008,1,+999,9",,,,"SYN066AAXX  19154 08272 42581 51811 10293 20139 39536 40102 55008 85266;",
"08272099999","2010-08-19T18:00:00","4","39.8833333","-4.05","516.0","TOLEDO, SP","FM-12","99999","V020","120,1,N,0036,1","03600,1,C,N","040000,1,N,1","+0228,1","+0168,1","10129,1","12,0000,9,1",,,,,"01,1,+00900,1,09,1",,"07,99,1,02,1,09,1,00800,1,07,1,00,1",,,,"120,M,+0328,1","99999,9,09550,1","3,1,014,1,+999,9",,,,"SYN094AAXX  19184 08272 12582 71207 10228 20168 39550 40129 53014 69902 82970 333 10328 81930 85350;","Q01  00002PRCP12"
"08272099999","2010-08-20T06:00:00","4","39.8833333","-4.05","516.0","TOLEDO, SP","FM-12","99999","V020","120,1,N,0010,1","22000,1,9,N","009000,1,N,1","+0176,1","+0161,1","10190,1","12,0000,9,1","24,0000,9,1",,,,"00,1,+99999,9,99,9",,"00,99,1,00,1,00,1,99999,9,00,1,00,1","0462,9","01,9","999,+0150,9","999,N,+0173,1","99999,9,09597,1","3,1,012,1,+999,9","10,1",,,"SYN106AAXX  20064 08272 11959 01202 10176 20161 39597 40190 53012 60002 710// 333 20173 30015 50344 55077 70000;","Q01  00002PRCP24Q02  00002PRCP12"
"08272099999","2010-08-20T09:00:00","4","39.8833333","-4.05","516.0","TOLEDO, SP","FM-12","99999","V020","110,1,N,0021,1","22000,1,9,N","015000,1,N,1","+0241,1","+0176,1","10192,1",,,,,,"00,1,+99999,9,99,9",,"00,99,1,00,1,00,1,99999,9,00,1,00,1",,,,,"99999,9,09612,1","1,1,015,1,+999,9",,,,"SYN060AAXX  20094 08272 42965 01104 10241 20176 39612 40192 51015;",
"08272099999","2010-08-20T12:00:00","4","39.8833333","-4.05","516.0","TOLEDO, SP","FM-12","99999","V020","130,1,N,0021,1","22000,1,9,N","030000,1,N,1","+0304,1","+0137,1","10184,1","06,0000,9,1",,,,,,,"01,99,1,01,1,02,1,00800,1,00,1,00,1",,,,,"99999,9,09615,1","1,1,003,1,+999,9",,,,"SYN072AAXX  20124 08272 12580 11304 10304 20137 39615 40184 51003 60001 81200;","Q01  00002PRCP06"
"08272099999","2010-08-20T15:00:00","4","39.8833333","-4.05","516.0","TOLEDO, SP","FM-12","99999","V020","140,1,N,0021,1","22000,1,9,N","040000,1,N,1","+0335,1","+0125,1","10170,1",,,,,,,,"03,99,1,03,1,02,1,00800,1,00,1,00,1",,,,,"99999,9,09607,1","8,1,008,1,+999,9",,,,"SYN066AAXX  20154 08272 42582 31404 10335 20125 39607 40170 58008 83200;",
"08272099999","2010-08-20T18:00:00","4","39.8833333","-4.05","516.0","TOLEDO, SP","FM-12","99999","V020","060,1,N,0021,1","22000,1,9,N","040000,1,N,1","+0333,1","+0118,1","10169,1","12,0000,9,1",,,,,"00,1,+99999,9,99,9",,"00,99,1,00,1,00,1,99999,9,00,1,00,1",,,,"999,M,+0349,1","99999,9,09606,1","6,1,001,1,+999,9",,,,"SYN076AAXX  20184 08272 12982 00604 10333 20118 39606 40169 56001 60002 333 10349;","Q01  00002PRCP12"
"08272099999","2010-08-23T06:00:00","4","39.8833333","-4.05","516.0","TOLEDO, SP","FM-12","99999","V020","330,1,N,0010,1","22000,1,9,N","050000,1,N,1","+0214,1","+0103,1","10137,1","12,0000,9,1","24,0000,9,1",,,,,,"01,99,1,01,1,00,1,02250,1,03,1,01,1","0762,9","01,9","999,+0150,9","999,N,+0213,1","99999,9,09553,1","5,1,001,1,+999,9","02,1",,,"SYN106AAXX  23064 08272 11884 13302 10214 20103 39553 40137 55001 60002 702// 81031 333 20213 30015 55127 70000;","Q01  00002PRCP24Q02  00002PRCP12"
"08272099999","2010-08-23T09:00:00","4","39.8833333","-4.05","516.0","TOLEDO, SP","FM-12","99999","V020","280,1,N,0051,1","22000,1,9,N","050000,1,N,1","+0268,1","+0087,1","10133,1",,,,,,,,"01,99,1,00,1,00,1,99999,9,00,1,01,1",,,,,"99999,9,09559,1","2,1,006,1,+999,9",,,,"SYN066AAXX  23094 08272 42984 12810 10268 20087 39559 40133 52006 80001;",
"08272099999","2010-08-23T12:00:00","4","39.8833333","-4.05","516.0","TOLEDO, SP","FM-12","99999","V020","270,1,N,0077,1","22000,1,9,N","050000,1,N,1","+0322,1","+0023,1","10114,1","06,0000,9,1",,,,,,,"02,99,1,01,1,00,1,02250,1,03,1,01,1",,,,,"99999,9,09550,1","8,1,009,1,+999,9",,,,"SYN072AAXX  23124 08272 12884 22715 10322 20023 39550 40114 58009 60001 81031;","Q01  00002PRCP06"
"08272099999","2010-08-23T15:00:00","4","39.8833333","-4.05","516.0","TOLEDO, SP","FM-12","99999","V020","280,1,N,0077,1","22000,1,9,N","050000,1,N,1","+0341,1","+0028,1","10095,1",,,,,,,,"01,99,1,00,1,00,1,99999,9,00,1,01,1",,,,,"99999,9,09536,1","7,1,014,1,+999,9",,,,"SYN066AAXX  23154 08272 42984 12815 10341 20028 39536 40095 57014 80001;",
"08272099999","2010-08-23T18:00:00","4","39.8833333","-4.05","516.0","TOLEDO, SP","FM-12","99999","V020","290,1,N,0082,1","22000,1,9,N","050000,1,N,1","+0316,1","+0073,1","10096,1","12,0000,9,1",,,,,,,"01,99,1,00,1,00,1,99999,9,00,1,01,1",,,,"999,M,+0348,1","99999,9,09533,1","5,1,003,1,+999,9",,,,"SYN082AAXX  23184 08272 12984 12916 10316 20073 39533 40096 55003 60002 80001 333 10348;","Q01  00002PRCP12"
"08272099999","2010-08-24T06:00:00","4","39.8833333","-4.05","516.0","TOLEDO, SP","FM-12","99999","V020","260,1,N,0031,1","22000,1,9,N","035000,1,N,1","+0181,1","+0154,1","10155,1","12,0000,9,1","24,0000,9,1",,,,,,"01,99,1,01,1,05,1,00450,1,00,1,01,1","0774,9","01,9","999,+0150,9","999,N,+0181,1","99999,9,09565,1","3,1,006,1,+999,9","02,1",,,"SYN112AAXX  24064 08272 11481 12606 10181 20154 39565 40155 53006 60002 702// 81501 333 20181 30015 50964 55129 70000;","Q01  00002PRCP24Q02  00002PRCP12"
"08272099999","2010-08-24T09:00:00","4","39.8833333","-4.05","516.0","TOLEDO, SP","FM-12","99999","V020","290,1,N,0062,1","22000,1,9,N","040000,1,N,1","+0224,1","+0160,1","10161,1",,,,,,,,"01,99,1,01,1,01,1,00800,1,00,1,01,1",,,,,"99999,9,09579,1","1,1,014,1,+999,9",,,,"SYN066AAXX  24094 08272 42582 12912 10224 20160 39579 40161 51014 81101;",
"08272099999","2010-08-24T12:00:00","4","39.8833333","-4.05","516.0","TOLEDO, SP","FM-12","99999","V020","310,1,N,0036,1","22000,1,9,N","050000,1,N,1","+0280,1","+0139,1","10151,1","06,0000,9,1",,,,,"00,1,+99999,9,99,9",,"00,99,1,00,1,00,1,99999,9,00,1,00,1",,,,,"99999,9,09580,1","0,1,001,1,+999,9",,,,"SYN066AAXX  24124 08272 12984 03107 10280 20139 39580 40151 50001 60001;","Q01  00002PRCP06"
"08272099999","2010-08-24T15:00:00","4","39.8833333","-4.05","516.0","TOLEDO, SP","FM-12","99999","V020","280,1,N,0046,1","22000,1,9,N","050000,1,N,1","+0326,1","+0100,1","10132,1",,,,,,"00,1,+99999,9,99,9",,"00,99,1,00,1,00,1,99999,9,00,1,00,1",,,,,"99999,9,09569,1","8,1,011,1,+999,9",,,,"SYN060AAXX  24154 08272 42984 02809 10326 20100 39569 40132 58011;",
"08272099999","2010-08-24T18:00:00","4","39.8833333","-4.05","516.0","TOLEDO, SP","FM-12","99999","V020","270,1,N,0041,1","22000,1,9,N","050000,1,N,1","+0318,1","+0093,1","10131,1","12,0000,9,1",,,,,"00,1,+99999,9,99,9",,"00,99,1,00,1,00,1,99999,9,00,1,00,1",,,,"999,M,+0334,1","99999,9,09567,1","6,1,002,1,+999,9",,,,"SYN076AAXX  24184 08272 12984 02708 10318 20093 39567 40131 56002 60002 333 10334;","Q01  00002PRCP12"
"08272099999","2010-08-25T06:00:00","4","39.8833333","-4.05","516.0","TOLEDO, SP","FM-12","99999","V020","160,1,N,0010,1","22000,1,9,N","050000,1,N,1","+0200,1","+0112,1","10179,1","12,0000,9,1","24,0000,9,1",,,,,,"01,99,1,00,1,00,1,99999,9,00,1,01,1","0774,9","01,9","999,+0150,9","999,N,+0200,1","99999,9,09590,1","3,1,002,1,+999,9","02,1",,,"SYN112AAXX  25064 08272 11984 11602 10200 20112 39590 40179 53002 60002 702// 80001 333 20200 30015 50564 55129 70000;","Q01  00002PRCP24Q02  00002PRCP12"
"08272099999","2010-08-25T09:00:00","4","39.8833333","-4.05","516.0","TOLEDO, SP","FM-12","99999","V020","110,1,N,0026,1","22000,1,9,N","040000,1,N,1","+0276,1","+0108,1","10172,1",,,,,,,,"01,99,1,00,1,00,1,99999,9,00,1,01,1",,,,,"99999,9,09598,1","1,1,008,1,+999,9",,,,"SYN066AAXX  25094 08272 42982 11105 10276 20108 39598 40172 51008 80001;",
"08272099999","2010-08-25T12:00:00","4","39.8833333","-4.05","516.0","TOLEDO, SP","FM-12","99999","V020","160,1,N,0026,1","22000,1,9,N","040000,1,N,1","+0344,1","+0096,1","10153,1","06,0000,9,1",,,,,"00,1,+99999,9,99,9",,"00,99,1,00,1,00,1,99999,9,00,1,00,1",,,,,"99999,9,09592,1","8,1,006,1,+999,9",,,,"SYN066AAXX  25124 08272 12982 01605 10344 20096 39592 40153 58006 60001;","Q01  00002PRCP06"
"08272099999","2010-08-25T15:00:00","4","39.8833333","-4.05","516.0","TOLEDO, SP","FM-12","99999","V020","140,1,N,0021,1","22000,1,9,N","050000,1,N,1","+0375,1","+0107,1","10126,1",,,,,,"00,1,+99999,9,99,9",,"00,99,1,00,1,00,1,99999,9,00,1,00,1",,,,,"99999,9,09572,1","7,1,020,1,+999,9",,,,"SYN060AAXX  25154 08272 42984 01404 10375 20107 39572 40126 57020;",
"08272099999","2010-08-25T18:00:00","4","39.8833333","-4.05","516.0","TOLEDO, SP","FM-12","99999","V020","020,1,N,0031,1","22000,1,9,N","050000,1,N,1","+0362,1","+0089,1","10120,1","12,0000,9,1",,,,,"00,1,+99999,9,99,9",,"00,99,1,00,1,00,1,99999,9,00,1,00,1",,,,"999,M,+0384,1","99999,9,09564,1","6,1,008,1,+999,9",,,,"SYN076AAXX  25184 08272 12984 00206 10362 20089 39564 40120 56008 60002 333 10384;","Q01  00002PRCP12"
"08272099999","2010-08-26T06:00:00","4","39.8833333","-4.05","516.0","TOLEDO, SP","FM-12","99999","V020","330,1,N,0031,1","22000,1,9,N","035000,1,N,1","+0244,1","+0088,1","10152,1","12,0000,9,1","24,0000,9,1",,,,"00,1,+99999,9,99,9",,"00,99,1,00,1,00,1,99999,9,00,1,00,1","0780,9","01,9","999,+0210,9","999,N,+0244,1","99999,9,09573,1","3,1,007,1,+999,9","00,1",,,"SYN106AAXX  26064 08272 11981 03306 10244 20088 39573 40152 53007 60002 700// 333 20244 30021 50810 55130 70000;","Q01  00002PRCP24Q02  00002PRCP12"
"08272099999","2010-08-26T09:00:00","4","39.8833333","-4.05","516.0","TOLEDO, SP","FM-12","99999","V020","300,1,N,0021,1","22000,1,9,N","040000,1,N,1","+0300,1","+0115,1","10151,1",,,,,,,,"01,99,1,00,1,00,1,99999,9,00,1,01,1",,,,,"99999,9,09583,1","2,1,010,1,+999,9",,,,"SYN066AAXX  26094 08272 42982 13004 10300 20115 39583 40151 52010 80001;",
"08272099999","2010-08-26T12:00:00","4","39.8833333","-4.05","516.0","TOLEDO, SP","FM-12","99999","V020","300,1,N,0041,1","22000,1,9,N","040000,1,N,1","+0358,1","+0101,1","10132,1","06,0000,9,1",,,,,,,"01,99,1,00,1,00,1,99999,9,00,1,01,1",,,,,"99999,9,09575,1","8,1,008,1,+999,9",,,,"SYN072AAXX  26124 08272 12982 13008 10358 20101 39575 40132 58008 60001 80001;","Q01  00002PRCP06"
"08272099999","2010-08-26T15:00:00","4","39.8833333","-4.05","516.0","TOLEDO, SP","FM-12","99999","V020","290,1,N,0051,1","22000,1,9,N","030000,1,N,1","+0394,1","+0080,1","10105,1",,,,,,,,"02,99,1,00,1,00,1,99999,9,00,1,04,1",,,,,"99999,9,09555,1","7,1,020,1,+999,9",,,,"SYN066AAXX  26154 08272 42980 22910 10394 20080 39555 40105 57020 80004;",
"08272099999","2010-08-26T18:00:00","4","39.8833333","-4.05","516.0","TOLEDO, SP","FM-12","99999","V020","290,1,N,0046,1","22000,1,9,N","030000,1,N,1","+0367,1","+0101,1","10102,1","12,0000,9,1",,,,,,,"01,99,1,01,1,00,1,02250,1,03,1,01,1",,,,"999,M,+0399,1","99999,9,09548,1","6,1,007,1,+999,9",,,,"SYN082AAXX  26184 08272 12880 12909 10367 20101 39548 40102 56007 60002 81031 333 10399;","Q01  00002PRCP12"
"08272099999","2010-08-27T06:00:00","4","39.8833333","-4.05","516.0","TOLEDO, SP","FM-12","99999","V020","300,1,N,0021,1","22000,1,9,N","050000,1,N,1","+0217,1","+0086,1","10148,1","12,0000,9,1","24,0000,9,1",,,,,,"01,99,1,01,1,00,1,02250,1,03,1,04,1","0744,9","01,9","999,+0170,9","999,N,+0216,1","99999,9,09564,1","3,1,005,1,+999,9","02,1",,,"SYN112AAXX  27064 08272 11884 13004 10217 20086 39564 40148 53005 60002 702// 81034 333 20216 30017 51004 55124 70000;","Q01  00002PRCP24Q02  00002PRCP12"
"08272099999","2010-08-27T09:00:00","4","39.8833333","-4.05","516.0","TOLEDO, SP","FM-12","99999","V020","280,1,N,0041,1","22000,1,9,N","040000,1,N,1","+0274,1","+0110,1","10149,1",,,,,,,,"01,99,1,00,1,00,1,99999,9,00,1,01,1",,,,,"99999,9,09576,1","1,1,012,1,+999,9",,,,"SYN066AAXX  27094 08272 42982 12808 10274 20110 39576 40149 51012 80001;",
"08272099999","2010-08-27T12:00:00","4","39.8833333","-4.05","516.0","TOLEDO, SP","FM-12","99999","V020","270,1,N,0067,1","22000,1,9,N","040000,1,N,1","+0336,1","+0114,1","10127,1","06,0000,9,1",,,,,"00,1,+99999,9,99,9",,"00,99,1,00,1,00,1,99999,9,00,1,00,1",,,,,"99999,9,09566,1","8,1,010,1,+999,9",,,,"SYN066AAXX  27124 08272 12982 02713 10336 20114 39566 40127 58010 60001;","Q01  00002PRCP06"
"08272099999","2010-08-27T15:00:00","4","39.8833333","-4.05","516.0","TOLEDO, SP","FM-12","99999","V020","290,1,N,0072,1","22000,1,9,N","040000,1,N,1","+0359,1","+0087,1","10107,1",,,,,,,,"01,99,1,01,1,01,1,00800,1,00,1,00,1",,,,,"99999,9,09551,1","7,1,015,1,+999,9",,,,"SYN066AAXX  27154 08272 42582 12914 10359 20087 39551 40107 57015 81100;",
"08272099999","2010-08-27T18:00:00","4","39.8833333","-4.05","516.0","TOLEDO, SP","FM-12","99999","V020","300,1,N,0077,1","22000,1,9,N","035000,1,N,1","+0335,1","+0095,1","10110,1","12,0000,9,1",,,,,"00,1,+99999,9,99,9",,"00,99,1,00,1,00,1,99999,9,00,1,00,1",,,,"999,M,+0365,1","99999,9,09550,1","5,1,001,1,+999,9",,,,"SYN076AAXX  27184 08272 12981 03015 10335 20095 39550 40110 55001 60002 333 10365;","Q01  00002PRCP12"
"08272099999","2010-08-30T06:00:00","4","39.8833333","-4.05","516.0","TOLEDO, SP","FM-12","99999","V020","130,1,N,0015,1","22000,1,9,N","050000,1,N,1","+0189,1","+0031,1","10166,1","12,0000,9,1","24,0000,9,1",,,,"00,1,+99999,9,99,9",,"00,99,1,00,1,00,1,99999,9,00,1,00,1","0630,9","01,9","999,+0140,9","999,N,+0185,1","99999,9,09575,1","3,1,002,1,+999,9","00,1",,,"SYN100AAXX  30064 08272 11984 01303 10189 20031 39575 40166 53002 60002 700// 333 20185 30014 55105 70000;","Q01  00002PRCP24Q02  00002PRCP12"
"08272099999","2010-08-30T09:00:00","4","39.8833333","-4.05","516.0","TOLEDO, SP","FM-12","99999","V020","120,1,N,0031,1","22000,1,9,N","040000,1,N,1","+0253,1","+0027,1","10157,1",,,,,,"00,1,+99999,9,99,9",,"00,99,1,00,1,00,1,99999,9,00,1,00,1",,,,,"99999,9,09578,1","1,1,003,1,+999,9",,,,"SYN060AAXX  30094 08272 42982 01206 10253 20027 39578 40157 51003;",
"08272099999","2010-08-30T12:00:00","4","39.8833333","-4.05","516.0","TOLEDO, SP","FM-12","99999","V020","100,1,N,0026,1","22000,1,9,N","040000,1,N,1","+0316,1","+0059,1","10131,1","06,0000,9,1",,,,,"00,1,+99999,9,99,9",,"00,99,1,00,1,00,1,99999,9,00,1,00,1",,,,,"99999,9,09566,1","8,1,012,1,+999,9",,,,"SYN066AAXX  30124 08272 12982 01005 10316 20059 39566 40131 58012 60001;","Q01  00002PRCP06"
"08272099999","2010-08-30T15:00:00","4","39.8833333","-4.05","516.0","TOLEDO, SP","FM-12","99999","V020","100,1,N,0026,1","22000,1,9,N","050000,1,N,1","+0348,1","+0062,1","10102,1",,,,,,"00,1,+99999,9,99,9",,"00,99,1,00,1,00,1,99999,9,00,1,00,1",,,,,"99999,9,09544,1","7,1,022,1,+999,9",,,,"SYN060AAXX  30154 08272 42984 01005 10348 20062 39544 40102 57022;",
"08272099999","2010-08-30T18:00:00","4","39.8833333","-4.05","516.0","TOLEDO, SP","FM-12","99999","V020","140,1,N,0021,1","22000,1,9,N","045000,1,N,1","+0335,1","+0059,1","10086,1","12,0000,9,1",,,,,"00,1,+99999,9,99,9",,"00,99,1,00,1,00,1,99999,9,00,1,00,1",,,,"999,M,+0360,1","99999,9,09527,1","6,1,017,1,+999,9",,,,"SYN076AAXX  30184 08272 12983 01404 10335 20059 39527 40086 56017 60002 333 10360;","Q01  00002PRCP12"
"08272099999","2010-08-31T06:00:00","4","39.8833333","-4.05","516.0","TOLEDO, SP","FM-12","99999","V020","090,1,N,0021,1","22000,1,9,N","012000,1,N,1","+0185,1","+0131,1","10134,1","12,0000,9,1","24,0000,9,1",,,,,,"01,99,1,01,1,01,1,00450,1,00,1,00,1","0744,9","01,9","999,+0160,9","999,N,+0185,1","99999,9,09545,1","3,1,003,1,+999,9","02,1",,,"SYN112AAXX  31064 08272 11462 10904 10185 20131 39545 40134 53003 60002 702// 81100 333 20185 30016 50804 55124 70000;","Q01  00002PRCP24Q02  00002PRCP12"
"08272099999","2010-08-31T09:00:00","4","39.8833333","-4.05","516.0","TOLEDO, SP","FM-12","99999","V020","110,1,N,0046,1","22000,1,9,N","015000,1,N,1","+0239,1","+0159,1","10128,1",,,,,,,,"02,99,1,00,1,00,1,99999,9,00,1,01,1",,,,,"99999,9,09551,1","1,1,006,1,+999,9",,,,"SYN066AAXX  31094 08272 42965 21109 10239 20159 39551 40128 51006 80001;",
"08272099999","2010-08-31T12:00:00","4","39.8833333","-4.05","516.0","TOLEDO, SP","FM-12","99999","V020","090,1,N,0041,1","99999,9,9,N","035000,1,N,1","+0309,1","+0153,1","10097,1","06,0000,9,1",,,,,,,"05,99,1,00,1,00,1,99999,9,00,1,06,1",,,,,"99999,9,09534,1","8,1,017,1,+999,9",,,,"SYN072AAXX  31124 08272 12981 50908 10309 20153 39534 40097 58017 60001 80006;","Q01  00002PRCP06"
"08272099999","2010-08-31T15:00:00","4","39.8833333","-4.05","516.0","TOLEDO, SP","FM-12","99999","V020","160,1,N,0021,1","99999,9,9,N","035000,1,N,1","+0331,1","+0121,1","10069,1",,,,,,,,"07,99,1,00,1,00,1,99999,9,00,1,08,1",,,,,"99999,9,09511,1","7,1,023,1,+999,9",,,,"SYN066AAXX  31154 08272 42981 71604 10331 20121 39511 40069 57023 80008;",
"08272099999","2010-08-31T18:00:00","4","39.8833333","-4.05","516.0","TOLEDO, SP","FM-12","99999","V020","080,1,N,0026,1","09000,1,9,N","035000,1,N,1","+0326,1","+0117,1","10057,1","12,0000,9,1",,,,,,,"07,99,1,03,1,00,1,02250,1,07,1,06,1",,,,"999,M,+0347,1","99999,9,09499,1","7,1,012,1,+999,9",,,,"SYN082AAXX  31184 08272 12881 70805 10326 20117 39499 40057 57012 60002 83076 333 10347;","Q01  00002PRCP12"
"08272099999","2010-09-01T06:00:00","4","39.8833333","-4.05","516.0","TOLEDO, SP","FM-12","99999","V020","100,1,N,0057,1","00420,1,9,N","040000,1,N,1","+0206,1","+0158,1","10087,1","12,0000,9,1","24,0000,9,1",,,,,,"06,99,1,06,1,02,1,00450,1,00,1,03,1","0588,9","01,9","999,+0190,9","999,N,+0205,1","99999,9,09506,1","3,1,006,1,+999,9","03,1",,,"SYN112AAXX  01064 08272 11482 61011 10206 20158 39506 40087 53006 60002 703// 86203 333 20205 30019 50644 55098 70000;","Q01  00002PRCP24Q02  00002PRCP12"
"08272099999","2010-09-01T09:00:00","4","39.8833333","-4.05","516.0","TOLEDO, SP","FM-12","99999","V020","070,1,N,0041,1","00420,1,9,N","035000,1,N,1","+0223,1","+0168,1","10091,1",,,,"8,1,03,1","2,1,03,1",,,"07,99,1,07,1,05,1,00450,1,00,1,06,1",,,,,"99999,9,09513,1","1,1,007,1,+999,9","02,1",,,"SYN072AAXX  01094 08272 41481 70708 10223 20168 39513 40091 51007 70282 87506;",
"08272099999","2010-09-01T12:00:00","4","39.8833333","-4.05","516.0","TOLEDO, SP","FM-12","99999","V020","190,1,N,0026,1","03600,1,9,N","035000,1,N,1","+0276,1","+0153,1","10077,1","06,0000,9,1",,,"8,1,06,1","2,1,06,1",,,"06,99,1,02,1,02,1,00800,1,06,1,08,1",,,,,"99999,9,09509,1","8,1,004,1,+999,9","02,1",,,"SYN078AAXX  01124 08272 11581 61905 10276 20153 39509 40077 58004 69911 70282 82268;","Q01  00002PRCP06"
"08272099999","2010-09-01T15:00:00","4","39.8833333","-4.05","516.0","TOLEDO, SP","FM-12","99999","V020","020,1,N,0026,1","03600,1,C,N","040000,1,N,1","+0287,1","+0152,1","10052,1",,,,"8,1,03,1","2,1,03,1","02,1,+00900,1,09,1",,"08,99,1,03,1,09,1,00800,1,06,1,08,1",,,,,"99999,9,09488,1","8,1,021,1,+999,9","17,1",,,"SYN088AAXX  01154 08272 41582 80205 10287 20152 39488 40052 58021 71782 83968 333 82930 87276;",
"08272099999","2010-09-01T18:00:00","4","39.8833333","-4.05","516.0","TOLEDO, SP","FM-12","99999","V020","320,1,N,0021,1","03600,1,C,N","035000,1,N,1","+0222,1","+0192,1","10079,1","12,0061,9,1",,,"9,1,06,1","8,1,06,1","04,1,+00900,1,09,1",,"08,99,1,04,1,09,1,00800,1,07,1,08,1",,,,"120,M,+0316,1","99999,9,09502,1","1,1,014,1,+999,9","17,1",,,"SYN100AAXX  01184 08272 11581 83204 10222 20192 39502 40079 51014 60062 71798 84978 333 10316 84930 87276;",
"08272099999","2010-09-02T06:00:00","4","39.8833333","-4.05","516.0","TOLEDO, SP","FM-12","99999","V020","999,9,C,0000,1","22000,1,9,N","001700,1,N,1","+0169,1","+0163,1","10123,1","12,0051,9,1","24,0109,9,1",,,,,,"02,99,1,02,1,06,1,00450,1,03,1,00,1","0276,9","09,9","999,+0140,9","999,N,+0168,1","99999,9,09533,1","3,1,012,1,+999,9","10,1",,,"SYN112AAXX  02064 08272 11417 20000 10169 20163 39533 40123 53012 60052 710// 82630 333 20168 31014 50234 55046 70109;",
"08272099999","2010-09-02T09:00:00","4","39.8833333","-4.05","516.0","TOLEDO, SP","FM-12","99999","V020","220,1,N,0010,1","00420,1,9,N","006000,1,N,1","+0190,1","+0173,1","10132,1",,,,"4,1,03,1","2,1,03,1",,,"07,99,1,05,1,05,1,00450,1,03,1,09,1",,,,,"99999,9,09546,1","3,1,013,1,+999,9","10,1",,,"SYN072AAXX  02094 08272 41456 72202 10190 20173 39546 40132 53013 71042 85539;",
"08272099999","2010-09-02T12:00:00","4","39.8833333","-4.05","516.0","TOLEDO, SP","FM-12","99999","V020","070,1,N,0021,1","00750,1,9,N","030000,1,N,1","+0236,1","+0161,1","10127,1","06,0000,9,1",,,"4,1,06,1","2,1,06,1",,,"05,99,1,05,1,02,1,00800,1,03,1,00,1",,,,,"99999,9,09549,1","1,1,003,1,+999,9","02,1",,,"SYN078AAXX  02124 08272 11580 50704 10236 20161 39549 40127 51003 60001 70242 85230;","Q01  00002PRCP06"
"08272099999","2010-09-02T15:00:00","4","39.8833333","-4.05","516.0","TOLEDO, SP","FM-12","99999","V020","030,1,N,0015,1","22000,1,9,N","035000,1,N,1","+0267,1","+0148,1","10114,1",,,,,,,,"03,99,1,03,1,02,1,00800,1,00,1,00,1",,,,,"99999,9,09542,1","7,1,007,1,+999,9",,,,"SYN066AAXX  02154 08272 42581 30303 10267 20148 39542 40114 57007 83200;",
"08272099999","2010-09-02T18:00:00","4","39.8833333","-4.05","516.0","TOLEDO, SP","FM-12","99999","V020","340,1,N,0010,1","22000,1,9,N","035000,1,N,1","+0274,1","+0161,1","10113,1","12,0000,9,1",,,,,,,"02,99,1,02,1,02,1,00800,1,00,1,00,1",,,,"999,M,+0282,1","99999,9,09543,1","3,1,001,1,+999,9",,,,"SYN082AAXX  02184 08272 12581 23402 10274 20161 39543 40113 53001 60002 82200 333 10282;","Q01  00002PRCP12"
"08272099999","2010-09-03T06:00:00","4","39.8833333","-4.05","516.0","TOLEDO, SP","FM-12","99999","V020","030,1,N,0005,1","22000,1,9,N","030000,1,N,1","+0180,1","+0158,1","10169,1","12,0000,9,1","24,0000,9,1",,,,,,"01,99,1,00,1,00,1,99999,9,00,1,01,1","0492,9","09,9","999,+0150,9","999,N,+0180,1","99999,9,09578,1","3,1,010,1,+999,9","02,1",,,"SYN112AAXX  03064 08272 11980 10301 10180 20158 39578 40169 53010 60002 702// 80001 333 20180 31015 50234 55082 70000;","Q01  00002PRCP24Q02  00002PRCP12"
"08272099999","2010-09-03T09:00:00","4","39.8833333","-4.05","516.0","TOLEDO, SP","FM-12","99999","V020","100,1,N,0031,1","22000,1,9,N","025000,1,N,1","+0236,1","+0171,1","10166,1",,,,,,"00,1,+99999,9,99,9",,"00,99,1,00,1,00,1,99999,9,00,1,00,1",,,,,"99999,9,09586,1","1,1,008,1,+999,9",,,,"SYN060AAXX  03094 08272 42975 01006 10236 20171 39586 40166 51008;",
"08272099999","2010-09-03T12:00:00","4","39.8833333","-4.05","516.0","TOLEDO, SP","FM-12","99999","V020","090,1,N,0021,1","22000,1,9,N","040000,1,N,1","+0288,1","+0153,1","10152,1","06,0000,9,1",,,,,,,"02,99,1,01,1,02,1,00800,1,00,1,01,1",,,,,"99999,9,09582,1","8,1,004,1,+999,9",,,,"SYN072AAXX  03124 08272 12582 20904 10288 20153 39582 40152 58004 60001 81201;","Q01  00002PRCP06"
"08272099999","2010-09-03T15:00:00","4","39.8833333","-4.05","516.0","TOLEDO, SP","FM-12","99999","V020","240,1,N,0031,1","22000,1,9,N","040000,1,N,1","+0313,1","+0126,1","10134,1",,,,,,,,"05,99,1,01,1,02,1,00800,1,00,1,01,1",,,,,"99999,9,09569,1","7,1,013,1,+999,9",,,,"SYN066AAXX  03154 08272 42582 52406 10313 20126 39569 40134 57013 81201;",
"08272099999","2010-09-03T18:00:00","4","39.8833333","-4.05","516.0","TOLEDO, SP","FM-12","99999","V020","180,1,N,0021,1","22000,1,9,N","050000,1,N,1","+0298,1","+0118,1","10132,1","12,0000,9,1",,,,,,,"02,99,1,00,1,00,1,99999,9,00,1,01,1",,,,"999,M,+0324,1","99999,9,09564,1","6,1,005,1,+999,9",,,,"SYN082AAXX  03184 08272 12984 21804 10298 20118 39564 40132 56005 60002 80001 333 10324;","Q01  00002PRCP12"
"08272099999","2010-09-06T06:00:00","4","39.8833333","-4.05","516.0","TOLEDO, SP","FM-12","99999","V020","999,9,C,0000,1","09000,1,9,N","035000,1,N,1","+0211,1","+0123,1","10118,1","12,0000,9,1","24,0000,9,1",,,,,,"05,99,1,02,1,05,1,01250,1,08,1,01,1","0558,9","01,9","999,+0150,9","999,N,+0206,1","99999,9,09535,1","3,1,003,1,+999,9","02,1",,,"SYN106AAXX  06064 08272 11681 50000 10211 20123 39535 40118 53003 60002 702// 82581 333 20206 30015 55093 70000;","Q01  00002PRCP24Q02  00002PRCP12"
"08272099999","2010-09-06T09:00:00","4","39.8833333","-4.05","516.0","TOLEDO, SP","FM-12","99999","V020","290,1,N,0021,1","09000,1,9,N","030000,1,N,1","+0269,1","+0114,1","10108,1",,,,,,,,"05,99,1,01,1,00,1,02250,1,03,1,02,1",,,,,"99999,9,09536,1","0,1,001,1,+999,9",,,,"SYN066AAXX  06094 08272 42880 52904 10269 20114 39536 40108 50001 81032;",
"08272099999","2010-09-06T12:00:00","4","39.8833333","-4.05","516.0","TOLEDO, SP","FM-12","99999","V020","290,1,N,0067,1","22000,1,9,N","040000,1,N,1","+0320,1","+0076,1","10085,1","06,0000,9,1",,,,,,,"04,99,1,01,1,01,1,00800,1,03,1,02,1",,,,,"99999,9,09523,1","8,1,013,1,+999,9",,,,"SYN072AAXX  06124 08272 12582 42913 10320 20076 39523 40085 58013 60001 81132;","Q01  00002PRCP06"
"08272099999","2010-09-06T15:00:00","4","39.8833333","-4.05","516.0","TOLEDO, SP","FM-12","99999","V020","270,1,N,0082,1","09000,1,9,N","040000,1,N,1","+0333,1","+0022,1","10060,1",,,,,,,,"06,99,1,01,1,01,1,01250,1,03,1,06,1",,,,,"99999,9,09501,1","7,1,022,1,+999,9",,,,"SYN066AAXX  06154 08272 42682 62716 10333 20022 39501 40060 57022 81136;",
"08272099999","2010-09-06T18:00:00","4","39.8833333","-4.05","516.0","TOLEDO, SP","FM-12","99999","V020","240,1,N,0041,1","03600,1,9,N","050000,1,N,1","+0297,1","+0044,1","10060,1","12,0000,9,1",,,,,,,"07,99,1,01,1,01,1,01250,1,07,1,08,1",,,,"999,M,+0335,1","99999,9,09495,1","7,1,006,1,+999,9",,,,"SYN082AAXX  06184 08272 12684 72408 10297 20044 39495 40060 57006 60002 81178 333 10335;","Q01  00002PRCP12"
"08272099999","2010-09-07T06:00:00","4","39.8833333","-4.05","516.0","TOLEDO, SP","FM-12","99999","V020","270,1,N,0062,1","00750,1,9,N","030000,1,N,1","+0189,1","+0137,1","10071,1","12,0000,9,1","24,0000,9,1",,,,,,"06,99,1,06,1,05,1,00800,1,99,9,99,9","0594,9","01,9","999,+0170,9","999,N,+0188,1","99999,9,09487,1","5,1,002,1,+999,9","02,1",,,"SYN112AAXX  07064 08272 11580 62712 10189 20137 39487 40071 55002 60002 702// 865// 333 20188 30017 50934 55099 70000;","Q01  00002PRCP24Q02  00002PRCP12"
"08272099999","2010-09-07T12:00:00","4","39.8833333","-4.05","516.0","TOLEDO, SP","FM-12","99999","V020","270,1,N,0108,1","22000,1,9,N","040000,1,N,1","+0228,1","+0089,1","10069,1","06,0000,9,1",,,,,,,"03,99,1,03,1,02,1,00800,1,00,1,00,1",,,,,"99999,9,09492,1","8,1,005,1,+999,9",,,,"SYN072AAXX  07124 08272 12582 32721 10228 20089 39492 40069 58005 60001 83200;","Q01  00002PRCP06"
"08272099999","2010-09-07T15:00:00","4","39.8833333","-4.05","516.0","TOLEDO, SP","FM-12","99999","V020","270,1,N,0113,1","03600,1,9,N","040000,1,N,1","+0236,1","+0081,1","10062,1",,,,,,,,"05,99,1,04,1,05,1,00800,1,04,1,00,1",,,,,"99999,9,09486,1","7,1,006,1,+999,9",,,,"SYN066AAXX  07154 08272 42582 52722 10236 20081 39486 40062 57006 84540;",
"08272099999","2010-09-07T18:00:00","4","39.8833333","-4.05","516.0","TOLEDO, SP","FM-12","99999","V020","270,1,N,0077,1","22000,1,9,N","030000,1,N,1","+0215,1","+0109,1","10073,1","12,0000,9,1",,,,,,,"03,99,1,02,1,05,1,00800,1,03,1,01,1",,,,"999,M,+0255,1","99999,9,09493,1","3,1,007,1,+999,9",,,,"SYN082AAXX  07184 08272 12580 32715 10215 20109 39493 40073 53007 60002 82531 333 10255;","Q01  00002PRCP12"
"08272099999","2010-09-08T06:00:00","4","39.8833333","-4.05","516.0","TOLEDO, SP","FM-12","99999","V020","300,1,N,0021,1","22000,1,9,N","030000,1,N,1","+0144,1","+0098,1","10138,1","12,0000,9,1","24,0000,9,1",,,,,,"04,99,1,04,1,05,1,00800,1,00,1,01,1","0498,9","01,9","999,+0110,9","999,N,+0144,1","99999,9,09540,1","2,1,015,1,+999,9","02,1",,,"SYN112AAXX  08064 08272 11580 43004 10144 20098 39540 40138 52015 60002 702// 84501 333 20144 30011 50554 55083 70000;","Q01  00002PRCP24Q02  00002PRCP12"
"08272099999","2010-09-08T09:00:00","4","39.8833333","-4.05","516.0","TOLEDO, SP","FM-12","99999","V020","320,1,N,0031,1","22000,1,9,N","030000,1,N,1","+0182,1","+0095,1","10146,1",,,,,,,,"03,99,1,02,1,01,1,00800,1,03,1,00,1",,,,,"99999,9,09555,1","1,1,015,1,+999,9",,,,"SYN066AAXX  08094 08272 42580 33206 10182 20095 39555 40146 51015 82130;",
"08272099999","2010-09-08T12:00:00","4","39.8833333","-4.05","516.0","TOLEDO, SP","FM-12","99999","V020","300,1,N,0041,1","22000,1,9,N","030000,1,N,1","+0221,1","+0071,1","10140,1","06,0000,9,1",,,,,,,"04,99,1,03,1,01,1,00800,1,00,1,02,1",,,,,"99999,9,09557,1","1,1,002,1,+999,9",,,,"SYN072AAXX  08124 08272 12580 43008 10221 20071 39557 40140 51002 60001 83102;","Q01  00002PRCP06"
"08272099999","2010-09-08T15:00:00","4","39.8833333","-4.05","516.0","TOLEDO, SP","FM-12","99999","V020","270,1,N,0031,1","22000,1,9,N","040000,1,N,1","+0250,1","+0062,1","10131,1",,,,,,,,"04,99,1,01,1,01,1,01250,1,06,1,02,1",,,,,"99999,9,09554,1","6,1,003,1,+999,9",,,,"SYN066AAXX  08154 08272 42682 42706 10250 20062 39554 40131 56003 81162;",
"08272099999","2010-09-08T18:00:00","4","39.8833333","-4.05","516.0","TOLEDO, SP","FM-12","99999","V020","270,1,N,0041,1","22000,1,9,N","050000,1,N,1","+0237,1","+0065,1","10135,1","12,0000,9,1",,,,,,,"02,99,1,02,1,04,1,01250,1,06,1,00,1",,,,"999,M,+0254,1","99999,9,09555,1","3,1,001,1,+999,9",,,,"SYN082AAXX  08184 08272 12684 22708 10237 20065 39555 40135 53001 60002 82460 333 10254;","Q01  00002PRCP12"
"08272099999","2010-09-09T06:00:00","4","39.8833333","-4.05","516.0","TOLEDO, SP","FM-12","99999","V020","010,1,N,0010,1","22000,1,9,N","050000,1,N,1","+0151,1","+0097,1","10210,1","12,0000,9,1","24,0000,9,1",,,,,,"01,99,1,00,1,00,1,99999,9,00,1,01,1","0648,9","01,9","999,+0100,9","999,N,+0150,1","99999,9,09610,1","2,1,010,1,+999,9","02,1",,,"SYN112AAXX  09064 08272 11984 10102 10151 20097 39610 40210 52010 60002 702// 80001 333 20150 30010 50474 55108 70000;","Q01  00002PRCP24Q02  00002PRCP12"
"08272099999","2010-09-09T09:00:00","4","39.8833333","-4.05","516.0","TOLEDO, SP","FM-12","99999","V020","020,1,N,0031,1","99999,9,9,N","040000,1,N,1","+0205,1","+0088,1","10212,1",,,,,,,,"05,99,1,00,1,00,1,99999,9,00,1,01,1",,,,,"99999,9,09622,1","2,1,012,1,+999,9",,,,"SYN066AAXX  09094 08272 42982 50206 10205 20088 39622 40212 52012 80001;",
"08272099999","2010-09-09T12:00:00","4","39.8833333","-4.05","516.0","TOLEDO, SP","FM-12","99999","V020","200,1,N,0021,1","22000,1,9,N","050000,1,N,1","+0247,1","+0078,1","10205,1","06,0000,9,1",,,,,,,"01,99,1,01,1,01,1,01250,1,00,1,01,1",,,,,"99999,9,09623,1","0,1,001,1,+999,9",,,,"SYN072AAXX  09124 08272 12684 12004 10247 20078 39623 40205 50001 60001 81101;","Q01  00002PRCP06"
"08272099999","2010-09-09T15:00:00","4","39.8833333","-4.05","516.0","TOLEDO, SP","FM-12","99999","V020","030,1,N,0010,1","22000,1,9,N","050000,1,N,1","+0269,1","+0069,1","10188,1",,,,,,"00,1,+99999,9,99,9",,"00,99,1,00,1,00,1,99999,9,00,1,00,1",,,,,"99999,9,09611,1","7,1,012,1,+999,9",,,,"SYN060AAXX  09154 08272 42984 00302 10269 20069 39611 40188 57012;",
"08272099999","2010-09-09T18:00:00","4","39.8833333","-4.05","516.0","TOLEDO, SP","FM-12","99999","V020","250,1,N,0021,1","22000,1,9,N","050000,1,N,1","+0264,1","+0079,1","10188,1","12,0000,9,1",,,,,,,"01,99,1,00,1,00,1,99999,9,00,1,01,1",,,,"999,M,+0284,1","99999,9,09610,1","5,1,001,1,+999,9",,,,"SYN082AAXX  09184 08272 12984 12504 10264 20079 39610 40188 55001 60002 80001 333 10284;","Q01  00002PRCP12"
"08272099999","2010-09-10T06:00:00","4","39.8833333","-4.05","516.0","TOLEDO, SP","FM-12","99999","V020","090,1,N,0031,1","22000,1,9,N","050000,1,N,1","+0141,1","+0062,1","10230,1","12,0000,9,1","24,0000,9,1",,,,,,"01,99,1,00,1,00,1,99999,9,00,1,01,1","0666,9","01,9","999,+0100,9","999,N,+0140,1","99999,9,09626,1","3,1,002,1,+999,9","02,1",,,"SYN112AAXX  10064 08272 11984 10906 10141 20062 39626 40230 53002 60002 702// 80001 333 20140 30010 50464 55111 70000;","Q01  00002PRCP24Q02  00002PRCP12"
"08272099999","2010-09-10T09:00:00","4","39.8833333","-4.05","516.0","TOLEDO, SP","FM-12","99999","V020","100,1,N,0036,1","22000,1,9,N","040000,1,N,1","+0206,1","+0072,1","10223,1",,,,,,,,"02,99,1,00,1,00,1,99999,9,00,1,01,1",,,,,"99999,9,09632,1","1,1,006,1,+999,9",,,,"SYN066AAXX  10094 08272 42982 21007 10206 20072 39632 40223 51006 80001;",
"08272099999","2010-09-10T12:00:00","4","39.8833333","-4.05","516.0","TOLEDO, SP","FM-12","99999","V020","100,1,N,0036,1","22000,1,9,N","040000,1,N,1","+0271,1","+0070,1","10198,1","06,0000,9,1",,,,,,,"02,99,1,00,1,00,1,99999,9,00,1,01,1",,,,,"99999,9,09621,1","8,1,011,1,+999,9",,,,"SYN072AAXX  10124 08272 12982 21007 10271 20070 39621 40198 58011 60001 80001;","Q01  00002PRCP06"
"08272099999","2010-09-10T15:00:00","4","39.8833333","-4.05","516.0","TOLEDO, SP","FM-12","99999","V020","190,1,N,0021,1","22000,1,9,N","040000,1,N,1","+0295,1","+0056,1","10167,1",,,,,,,,"02,99,1,00,1,00,1,99999,9,00,1,01,1",,,,,"99999,9,09596,1","7,1,025,1,+999,9",,,,"SYN066AAXX  10154 08272 42982 21904 10295 20056 39596 40167 57025 80001;",
"08272099999","2010-09-10T18:00:00","4","39.8833333","-4.05","516.0","TOLEDO, SP","FM-12","99999","V020","120,1,N,0021,1","22000,1,9,N","040000,1,N,1","+0284,1","+0053,1","10153,1","12,0000,9,1",,,,,,,"02,99,1,00,1,00,1,99999,9,00,1,01,1",,,,"999,M,+0304,1","99999,9,09581,1","6,1,015,1,+999,9",,,,"SYN082AAXX  10184 08272 12982 21204 10284 20053 39581 40153 56015 60002 80001 333 10304;","Q01  00002PRCP12"
"08272099999","2010-09-13T06:00:00","4","39.8833333","-4.05","516.0","TOLEDO, SP","FM-12","99999","V020","130,1,N,0021,1","22000,1,9,N","040000,1,N,1","+0180,1","+0113,1","10230,1","12,0000,9,1","24,0000,9,1",,,,,,"01,99,1,01,1,00,1,02250,1,03,1,00,1","0678,9","01,9","999,+0150,9","999,N,+0179,1","99999,9,09634,1","3,1,015,1,+999,9","02,1",,,"SYN106AAXX  13064 08272 11882 11304 10180 20113 39634 40230 53015 60002 702// 81030 333 20179 30015 55113 70000;","Q01  00002PRCP24Q02  00002PRCP12"
"08272099999","2010-09-13T09:00:00","4","39.8833333","-4.05","516.0","TOLEDO, SP","FM-12","99999","V020","090,1,N,0041,1","22000,1,9,N","040000,1,N,1","+0237,1","+0114,1","10226,1",,,,,,,,"01,99,1,01,1,00,1,02250,1,03,1,01,1",,,,,"99999,9,09642,1","2,1,008,1,+999,9",,,,"SYN066AAXX  13094 08272 42882 10908 10237 20114 39642 40226 52008 81031;",
"08272099999","2010-09-13T12:00:00","4","39.8833333","-4.05","516.0","TOLEDO, SP","FM-12","99999","V020","150,1,N,0021,1","22000,1,9,N","040000,1,N,1","+0289,1","+0128,1","10209,1","06,0000,9,1",,,,,,,"01,99,1,01,1,02,1,00800,1,03,1,01,1",,,,,"99999,9,09636,1","8,1,006,1,+999,9",,,,"SYN072AAXX  13124 08272 12582 11504 10289 20128 39636 40209 58006 60001 81231;","Q01  00002PRCP06"
"08272099999","2010-09-13T15:00:00","4","39.8833333","-4.05","516.0","TOLEDO, SP","FM-12","99999","V020","260,1,N,0021,1","22000,1,9,N","040000,1,N,1","+0332,1","+0128,1","10183,1",,,,,,,,"02,99,1,02,1,02,1,00800,1,03,1,00,1",,,,,"99999,9,09619,1","7,1,017,1,+999,9",,,,"SYN066AAXX  13154 08272 42582 22604 10332 20128 39619 40183 57017 82230;",
"08272099999","2010-09-13T18:00:00","4","39.8833333","-4.05","516.0","TOLEDO, SP","FM-12","99999","V020","290,1,N,0021,1","22000,1,9,N","040000,1,N,1","+0325,1","+0122,1","10178,1","12,0000,9,1",,,,,,,"01,99,1,01,1,04,1,00800,1,03,1,01,1",,,,"999,M,+0343,1","99999,9,09613,1","6,1,006,1,+999,9",,,,"SYN082AAXX  13184 08272 12582 12904 10325 20122 39613 40178 56006 60002 81431 333 10343;","Q01  00002PRCP12"
"08272099999","2010-09-14T06:00:00","4","39.8833333","-4.05","516.0","TOLEDO, SP","FM-12","99999","V020","180,1,N,0005,1","22000,1,9,N","050000,1,N,1","+0177,1","+0050,1","10241,1","12,0000,9,1","24,0000,9,1",,,,"00,1,+99999,9,99,9",,"00,99,1,00,1,00,1,99999,9,00,1,00,1","0624,9","01,9","999,+0130,9","999,N,+0177,1","99999,9,09643,1","3,1,005,1,+999,9","00,1",,,"SYN106AAXX  14064 08272 11984 01801 10177 20050 39643 40241 53005 60002 700// 333 20177 30013 50604 55104 70000;","Q01  00002PRCP24Q02  00002PRCP12"
"08272099999","2010-09-14T09:00:00","4","39.8833333","-4.05","516.0","TOLEDO, SP","FM-12","99999","V020","120,1,N,0031,1","22000,1,9,N","045000,1,N,1","+0246,1","+0064,1","10231,1",,,,,,,,"02,99,1,00,1,00,1,99999,9,00,1,01,1",,,,,"99999,9,09647,1","1,1,004,1,+999,9",,,,"SYN066AAXX  14094 08272 42983 21206 10246 20064 39647 40231 51004 80001;",
"08272099999","2010-09-14T12:00:00","4","39.8833333","-4.05","516.0","TOLEDO, SP","FM-12","99999","V020","350,1,N,0026,1","22000,1,9,N","050000,1,N,1","+0318,1","+0046,1","10205,1","06,0000,9,1",,,,,,,"01,99,1,00,1,00,1,99999,9,00,1,01,1",,,,,"99999,9,09636,1","8,1,011,1,+999,9",,,,"SYN072AAXX  14124 08272 12984 13505 10318 20046 39636 40205 58011 60001 80001;","Q01  00002PRCP06"
"08272099999","2010-09-14T15:00:00","4","39.8833333","-4.05","516.0","TOLEDO, SP","FM-12","99999","V020","350,1,N,0057,1","22000,1,9,N","040000,1,N,1","+0353,1","+0016,1","10170,1",,,,,,,,"01,99,1,00,1,00,1,99999,9,00,1,01,1",,,,,"99999,9,09609,1","7,1,027,1,+999,9",,,,"SYN066AAXX  14154 08272 42982 13511 10353 20016 39609 40170 57027 80001;",
"08272099999","2010-09-14T18:00:00","4","39.8833333","-4.05","516.0","TOLEDO, SP","FM-12","99999","V020","330,1,N,0041,1","22000,1,9,N","050000,1,N,1","+0329,1","+0029,1","10169,1","12,0000,9,1",,,,,"00,1,+99999,9,99,9",,"00,99,1,00,1,00,1,99999,9,00,1,00,1",,,,"999,M,+0359,1","99999,9,09604,1","6,1,005,1,+999,9",,,,"SYN076AAXX  14184 08272 12984 03308 10329 20029 39604 40169 56005 60002 333 10359;","Q01  00002PRCP12"
"08272099999","2010-09-15T06:00:00","4","39.8833333","-4.05","516.0","TOLEDO, SP","FM-12","99999","V020","120,1,N,0010,1","22000,1,9,N","040000,1,N,1","+0173,1","+0107,1","10209,1","12,0000,9,1","24,0000,9,1",,,,,,"06,99,1,01,1,04,1,00800,1,00,1,01,1","0630,9","01,9","999,+0140,9","999,N,+0170,1","99999,9,09613,1","3,1,001,1,+999,9","02,1",,,"SYN112AAXX  15064 08272 11582 61202 10173 20107 39613 40209 53001 60002 702// 81401 333 20170 30014 50884 55105 70000;","Q01  00002PRCP24Q02  00002PRCP12"
"08272099999","2010-09-15T09:00:00","4","39.8833333","-4.05","516.0","TOLEDO, SP","FM-12","99999","V020","100,1,N,0036,1","22000,1,9,N","030000,1,N,1","+0237,1","+0152,1","10196,1",,,,,,,,"02,99,1,00,1,00,1,99999,9,00,1,05,1",,,,,"99999,9,09614,1","1,1,001,1,+999,9",,,,"SYN066AAXX  15094 08272 42980 21007 10237 20152 39614 40196 51001 80005;",
"08272099999","2010-09-15T12:00:00","4","39.8833333","-4.05","516.0","TOLEDO, SP","FM-12","99999","V020","090,1,N,0021,1","22000,1,9,N","035000,1,N,1","+0305,1","+0142,1","10168,1","06,0000,9,1",,,,,,,"04,99,1,00,1,00,1,99999,9,00,1,01,1",,,,,"99999,9,09600,1","8,1,014,1,+999,9",,,,"SYN072AAXX  15124 08272 12981 40904 10305 20142 39600 40168 58014 60001 80001;","Q01  00002PRCP06"
"08272099999","2010-09-15T15:00:00","4","39.8833333","-4.05","516.0","TOLEDO, SP","FM-12","99999","V020","150,1,N,0015,1","22000,1,9,N","040000,1,N,1","+0348,1","+0078,1","10130,1",,,,,,,,"03,99,1,01,1,04,1,00800,1,03,1,01,1",,,,,"99999,9,09571,1","7,1,029,1,+999,9",,,,"SYN066AAXX  15154 08272 42582 31503 10348 20078 39571 40130 57029 81431;",
"08272099999","2010-09-15T18:00:00","4","39.8833333","-4.05","516.0","TOLEDO, SP","FM-12","99999","V020","130,1,N,0005,1","22000,1,9,N","035000,1,N,1","+0330,1","+0121,1","10119,1","12,0000,9,1",,,,,,,"07,99,1,04,1,00,1,01750,1,07,1,01,1",,,,"999,M,+0358,1","99999,9,09558,1","6,1,013,1,+999,9",,,,"SYN082AAXX  15184 08272 12781 71301 10330 20121 39558 40119 56013 60002 84071 333 10358;","Q01  00002PRCP12"
"08272099999","2010-09-16T06:00:00","4","39.8833333","-4.05","516.0","TOLEDO, SP","FM-12","99999","V020","280,1,N,0067,1","03600,1,9,N","010000,1,N,1","+0214,1","+0143,1","10154,1","12,9999,9,9","24,9999,9,9",,,,,,"08,99,1,02,1,05,1,00800,1,02,1,99,9","0570,9","09,9","999,+0180,9","999,N,+0214,1","99999,9,09570,1","3,1,020,1,+999,9","60,1",,,"SYN112AAXX  16064 08272 11560 82813 10214 20143 39570 40154 53020 69912 760// 8252/ 333 20214 31018 50694 55095 70001;","Q01  00002PRCP24Q02  00002PRCP12Q03  00002PRCP12Q04  00002PRCP24"
"08272099999","2010-09-16T09:00:00","4","39.8833333","-4.05","516.0","TOLEDO, SP","FM-12","99999","V020","110,1,N,0031,1","01500,1,9,N","003000,1,N,1","+0197,1","+0171,1","10156,1",,,,"6,1,03,1","2,1,03,1",,,"08,99,1,08,1,00,1,01750,1,07,1,99,9",,,,,"99999,9,09569,1","8,1,001,1,+999,9","21,1",,,"SYN072AAXX  16094 08272 41730 81106 10197 20171 39569 40156 58001 72162 8807/;",
"08272099999","2010-09-16T12:00:00","4","39.8833333","-4.05","516.0","TOLEDO, SP","FM-12","99999","V020","090,1,N,0021,1","03600,1,9,N","035000,1,N,1","+0249,1","+0166,1","10130,1","06,0020,9,1",,,"6,1,06,1","2,1,06,1",,,"07,99,1,01,1,05,1,00450,1,07,1,06,1",,,,,"99999,9,09555,1","8,1,014,1,+999,9","02,1",,,"SYN078AAXX  16124 08272 11481 70904 10249 20166 39555 40130 58014 60021 70262 81576;",
"08272099999","2010-09-16T15:00:00","4","39.8833333","-4.05","516.0","TOLEDO, SP","FM-12","99999","V020","290,1,N,0072,1","03600,1,9,N","030000,1,N,1","+0241,1","+0142,1","10122,1",,,,,,,,"08,99,1,02,1,04,1,00450,1,07,1,08,1",,,,,"99999,9,09545,1","6,1,010,1,+999,9",,,,"SYN066AAXX  16154 08272 42480 82914 10241 20142 39545 40122 56010 82478;",
"08272099999","2010-09-16T18:00:00","4","39.8833333","-4.05","516.0","TOLEDO, SP","FM-12","99999","V020","280,1,N,0010,1","03600,1,9,N","040000,1,N,1","+0225,1","+0161,1","10118,1","12,0020,9,1",,,,,,,"07,99,1,03,1,02,1,00450,1,03,1,08,1",,,,"999,M,+0259,1","99999,9,09539,1","7,1,006,1,+999,9",,,,"SYN082AAXX  16184 08272 12482 72802 10225 20161 39539 40118 57006 60022 83238 333 10259;",
"08272099999","2010-09-17T06:00:00","4","39.8833333","-4.05","516.0","TOLEDO, SP","FM-12","99999","V020","050,1,N,0021,1","03600,1,9,N","030000,1,N,1","+0160,1","+0147,1","10114,1","12,0051,9,1","24,0071,9,1",,,,,,"07,99,1,04,1,05,1,00450,1,07,1,00,1","0072,9","09,9","999,+0140,9","999,N,+0155,1","99999,9,09522,1","3,1,003,1,+999,9","02,1",,,"SYN112AAXX  17064 08272 11480 70504 10160 20147 39522 40114 53003 60052 702// 84570 333 20155 31014 50224 55012 70070;",
"08272099999","2010-09-17T09:00:00","4","39.8833333","-4.05","516.0","TOLEDO, SP","FM-12","99999","V020","190,1,N,0010,1","03600,1,9,N","012000,1,N,1","+0183,1","+0154,1","10111,1",,,,,,,,"07,99,1,01,1,05,1,00250,1,07,1,00,1",,,,,"99999,9,09524,1","3,1,002,1,+999,9",,,,"SYN066AAXX  17094 08272 42362 71902 10183 20154 39524 40111 53002 81570;",
"08272099999","2010-09-17T12:00:00","4","39.8833333","-4.05","516.0","TOLEDO, SP","FM-12","99999","V020","320,1,N,0026,1","03600,1,9,N","020000,1,N,1","+0224,1","+0162,1","10096,1","06,0000,9,1",,,,,"02,1,+00480,1,09,1",,"07,99,1,02,1,09,1,00450,1,07,1,03,1",,,,,"99999,9,09518,1","8,1,006,1,+999,9",,,,"SYN082AAXX  17124 08272 12470 73205 10224 20162 39518 40096 58006 60001 82973 333 82916;","Q01  00002PRCP06"
"08272099999","2010-09-17T15:00:00","4","39.8833333","-4.05","516.0","TOLEDO, SP","FM-12","99999","V020","240,1,N,0026,1","03600,1,9,N","040000,1,N,1","+0225,1","+0136,1","10082,1",,,,,,"03,1,+00900,1,09,1",,"07,99,1,03,1,09,1,00800,1,07,1,06,1",,,,,"99999,9,09504,1","6,1,014,1,+999,9",,,,"SYN076AAXX  17154 08272 42582 72405 10225 20136 39504 40082 56014 83976 333 83930;",
"08272099999","2010-09-17T18:00:00","4","39.8833333","-4.05","516.0","TOLEDO, SP","FM-12","99999","V020","340,1,N,0036,1","03600,1,C,N","040000,1,N,1","+0201,1","+0118,1","10086,1","12,0000,9,1",,,,,"01,1,+00900,1,09,1",,"07,99,1,03,1,09,1,00800,1,07,1,01,1",,,,"120,M,+0239,1","99999,9,09503,1","6,1,001,1,+999,9",,,,"SYN094AAXX  17184 08272 12582 73407 10201 20118 39503 40086 56001 60002 83971 333 10239 81930 86460;","Q01  00002PRCP12"
"08272099999","2010-09-20T06:00:00","4","39.8833333","-4.05","516.0","TOLEDO, SP","FM-12","99999","V020","360,1,N,0005,1","03600,1,9,N","015000,1,N,1","+0161,1","+0136,1","10143,1","12,0000,9,1","24,0000,9,1",,,,,,"06,99,1,04,1,05,1,00800,1,07,1,99,9","0648,9","01,9","999,+0130,9","999,N,+0160,1","99999,9,09549,1","3,1,003,1,+999,9","02,1",,,"SYN106AAXX  20064 08272 11565 63601 10161 20136 39549 40143 53003 60002 702// 8457/ 333 20160 30013 55108 70000;","Q01  00002PRCP24Q02  00002PRCP12"
"08272099999","2010-09-20T09:00:00","4","39.8833333","-4.05","516.0","TOLEDO, SP","FM-12","99999","V020","080,1,N,0021,1","00750,1,C,N","016000,1,N,1","+0185,1","+0148,1","10151,1",,,,"2,1,03,1","2,1,03,1","01,1,+00480,1,09,1",,"07,99,1,05,1,03,1,00800,1,07,1,08,1",,,,,"99999,9,09562,1","1,1,013,1,+999,9","21,1",,,"SYN088AAXX  20094 08272 41566 70804 10185 20148 39562 40151 51013 72122 85378 333 81916 84616;",
"08272099999","2010-09-20T12:00:00","4","39.8833333","-4.05","516.0","TOLEDO, SP","FM-12","99999","V020","220,1,N,0036,1","00390,1,9,N","001500,1,N,1","+0180,1","+0153,1","10165,1","06,0005,9,1",,,"9,1,06,1","2,1,06,1","05,1,+00390,1,09,1",,"08,99,1,08,1,09,1,00450,1,99,9,99,9",,,,,"99999,9,09574,1","2,1,012,1,+999,9","95,1",,,"SYN094AAXX  20124 08272 11415 82207 10180 20153 39574 40165 52012 69941 79592 889// 333 85913 83613;",
"08272099999","2010-09-20T15:00:00","4","39.8833333","-4.05","516.0","TOLEDO, SP","FM-12","99999","V020","110,1,N,0046,1","03600,1,9,N","020000,1,N,1","+0195,1","+0139,1","10146,1",,,,"9,1,03,1","2,1,03,1","02,1,+00390,1,09,1",,"07,99,1,04,1,09,1,00800,1,07,1,08,1",,,,,"99999,9,09559,1","6,1,015,1,+999,9","03,1",,,"SYN082AAXX  20154 08272 41570 71109 10195 20139 39559 40146 56015 70392 84978 333 82913;",
"08272099999","2010-09-20T18:00:00","4","39.8833333","-4.05","516.0","TOLEDO, SP","FM-12","99999","V020","150,1,N,0031,1","03600,1,C,N","018000,1,N,1","+0180,1","+0143,1","10146,1","12,0010,9,1",,,"9,1,06,1","8,1,06,1","03,1,+00390,1,09,1",,"07,99,1,03,1,09,1,00800,1,07,1,08,1",,,,"120,M,+0205,1","99999,9,09556,1","6,1,003,1,+999,9","25,1",,,"SYN100AAXX  20184 08272 11568 71506 10180 20143 39556 40146 56003 60012 72598 83978 333 10205 83913 86456;",
"08272099999","2010-09-21T06:00:00","4","39.8833333","-4.05","516.0","TOLEDO, SP","FM-12","99999","V020","999,9,C,0000,1","22000,1,9,N","002000,1,N,1","+0133,1","+0124,1","10181,1","12,0000,2,1","24,0013,9,1",,,,,,"01,99,1,01,1,05,1,01250,1,03,1,00,1","0018,9","09,9","999,+0110,9","999,N,+0133,1","99999,9,09579,1","3,1,004,1,+999,9","11,1",,,"SYN112AAXX  21064 08272 11620 10000 10133 20124 39579 40181 53004 60002 711// 81530 333 20133 31011 50114 55003 70013;",
"08272099999","2010-09-21T09:00:00","4","39.8833333","-4.05","516.0","TOLEDO, SP","FM-12","99999","V020","150,1,N,0015,1","22000,1,9,N","020000,1,N,1","+0193,1","+0143,1","10184,1",,,,,,,,"01,99,1,01,1,02,1,00800,1,03,1,00,1",,,,,"99999,9,09594,1","2,1,015,1,+999,9",,,,"SYN066AAXX  21094 08272 42570 11503 10193 20143 39594 40184 52015 81230;",
"08272099999","2010-09-21T12:00:00","4","39.8833333","-4.05","516.0","TOLEDO, SP","FM-12","99999","V020","350,1,N,0026,1","22000,1,9,N","030000,1,N,1","+0243,1","+0141,1","10167,1","06,0000,9,1",,,,,,,"03,99,1,03,1,02,1,00800,1,00,1,00,1",,,,,"99999,9,09588,1","7,1,006,1,+999,9",,,,"SYN072AAXX  21124 08272 12580 33505 10243 20141 39588 40167 57006 60001 83200;","Q01  00002PRCP06"
"08272099999","2010-09-21T15:00:00","4","39.8833333","-4.05","516.0","TOLEDO, SP","FM-12","99999","V020","200,1,N,0010,1","22000,1,9,N","030000,1,N,1","+0258,1","+0130,1","10154,1",,,,,,,,"03,99,1,03,1,02,1,00800,1,06,1,00,1",,,,,"99999,9,09578,1","6,1,010,1,+999,9",,,,"SYN066AAXX  21154 08272 42580 32002 10258 20130 39578 40154 56010 83260;",
"08272099999","2010-09-21T18:00:00","4","39.8833333","-4.05","516.0","TOLEDO, SP","FM-12","99999","V020","160,1,N,0021,1","03600,1,9,N","040000,1,N,1","+0241,1","+0130,1","10157,1","12,0000,9,1",,,,,,,"06,99,1,03,1,04,1,00800,1,06,1,04,1",,,,"999,M,+0265,1","99999,9,09578,1","5,1,000,1,+999,9",,,,"SYN082AAXX  21184 08272 12582 61604 10241 20130 39578 40157 55000 60002 83464 333 10265;","Q01  00002PRCP12"
"08272099999","2010-09-22T06:00:00","4","39.8833333","-4.05","516.0","TOLEDO, SP","FM-12","99999","V020","999,9,C,0000,1","09000,1,9,N","018000,1,N,1","+0143,1","+0127,1","10189,1","12,0000,9,1","24,0000,9,1",,,,,,"05,99,1,01,1,00,1,01750,1,03,1,05,1","0522,9","01,9","999,+0110,9","999,N,+0143,1","99999,9,09589,1","3,1,002,1,+999,9","02,1",,,"SYN112AAXX  22064 08272 11768 50000 10143 20127 39589 40189 53002 60002 702// 81035 333 20143 30011 50284 55087 70000;","Q01  00002PRCP24Q02  00002PRCP12"
"08272099999","2010-09-22T09:00:00","4","39.8833333","-4.05","516.0","TOLEDO, SP","FM-12","99999","V020","110,1,N,0036,1","99999,9,9,N","014000,1,N,1","+0203,1","+0144,1","10182,1",,,,,,,,"06,99,1,00,1,00,1,99999,9,00,1,08,1",,,,,"99999,9,09594,1","0,1,005,1,+999,9",,,,"SYN066AAXX  22094 08272 42964 61107 10203 20144 39594 40182 50005 80008;",
"08272099999","2010-09-22T12:00:00","4","39.8833333","-4.05","516.0","TOLEDO, SP","FM-12","99999","V020","040,1,N,0015,1","09000,1,9,N","040000,1,N,1","+0267,1","+0116,1","10165,1","06,0000,9,1",,,,,,,"06,99,1,02,1,01,1,00800,1,00,1,08,1",,,,,"99999,9,09590,1","8,1,004,1,+999,9",,,,"SYN072AAXX  22124 08272 12582 60403 10267 20116 39590 40165 58004 60001 82108;","Q01  00002PRCP06"
"08272099999","2010-09-22T15:00:00","4","39.8833333","-4.05","516.0","TOLEDO, SP","FM-12","99999","V020","270,1,N,0021,1","09000,1,9,N","035000,1,N,1","+0283,1","+0096,1","10145,1",,,,,,,,"08,99,1,02,1,01,1,00800,1,00,1,07,1",,,,,"99999,9,09574,1","6,1,016,1,+999,9",,,,"SYN066AAXX  22154 08272 42581 82704 10283 20096 39574 40145 56016 82107;",
"08272099999","2010-09-22T18:00:00","4","39.8833333","-4.05","516.0","TOLEDO, SP","FM-12","99999","V020","240,1,N,0021,1","09000,1,9,N","030000,1,N,1","+0255,1","+0105,1","10149,1","12,0000,9,1",,,,,,,"07,99,1,03,1,04,1,00800,1,00,1,08,1",,,,"999,M,+0289,1","99999,9,09572,1","5,1,002,1,+999,9",,,,"SYN082AAXX  22184 08272 12580 72404 10255 20105 39572 40149 55002 60002 83408 333 10289;","Q01  00002PRCP12"
"08272099999","2010-09-23T06:00:00","4","39.8833333","-4.05","516.0","TOLEDO, SP","FM-12","99999","V020","230,1,N,0010,1","03600,1,9,N","014000,1,N,1","+0198,1","+0128,1","10162,1","12,0000,9,1","24,0000,9,1",,,,,,"08,99,1,02,1,07,1,00800,1,02,1,99,9","0492,9","01,9","999,+0170,9","999,N,+0196,1","99999,9,09574,1","6,1,003,1,+999,9","02,1",,,"SYN112AAXX  23064 08272 11564 82302 10198 20128 39574 40162 56003 60002 702// 8272/ 333 20196 30017 50424 55082 70000;","Q01  00002PRCP24Q02  00002PRCP12"
"08272099999","2010-09-23T09:00:00","4","39.8833333","-4.05","516.0","TOLEDO, SP","FM-12","99999","V020","220,1,N,0031,1","03600,1,9,N","014000,1,N,1","+0215,1","+0139,1","10160,1",,,,,,,,"08,99,1,04,1,07,1,00800,1,02,1,99,9",,,,,"99999,9,09576,1","3,1,002,1,+999,9",,,,"SYN066AAXX  23094 08272 42564 82206 10215 20139 39576 40160 53002 8472/;",
"08272099999","2010-09-23T12:00:00","4","39.8833333","-4.05","516.0","TOLEDO, SP","FM-12","99999","V020","290,1,N,0036,1","03600,1,9,N","020000,1,N,1","+0235,1","+0139,1","10154,1","06,0000,9,1",,,,,,,"08,99,1,03,1,01,1,00800,1,07,1,07,1",,,,,"99999,9,09574,1","8,1,002,1,+999,9",,,,"SYN072AAXX  23124 08272 12570 82907 10235 20139 39574 40154 58002 60001 83177;","Q01  00002PRCP06"
"08272099999","2010-09-23T15:00:00","4","39.8833333","-4.05","516.0","TOLEDO, SP","FM-12","99999","V020","260,1,N,0041,1","03600,1,9,N","020000,1,N,1","+0225,1","+0124,1","10138,1",,,,,,,,"08,99,1,02,1,01,1,00800,1,02,1,99,9",,,,,"99999,9,09557,1","7,1,017,1,+999,9",,,,"SYN066AAXX  23154 08272 42570 82608 10225 20124 39557 40138 57017 8212/;",
"08272099999","2010-09-23T18:00:00","4","39.8833333","-4.05","516.0","TOLEDO, SP","FM-12","99999","V020","280,1,N,0041,1","03600,1,9,N","018000,1,N,1","+0213,1","+0124,1","10132,1","12,0000,9,1",,,,,,,"08,99,1,01,1,05,1,00800,1,07,1,99,9",,,,"999,M,+0241,1","99999,9,09549,1","5,1,008,1,+999,9",,,,"SYN082AAXX  23184 08272 12568 82808 10213 20124 39549 40132 55008 60002 8157/ 333 10241;","Q01  00002PRCP12"
"08272099999","2010-09-24T06:00:00","4","39.8833333","-4.05","516.0","TOLEDO, SP","FM-12","99999","V020","230,1,N,0010,1","22000,1,9,N","035000,1,N,1","+0143,1","+0109,1","10152,1","12,0000,9,1","24,0000,9,1",,,,,,"01,99,1,01,1,04,1,01250,1,00,1,01,1","0006,9","01,9","999,+0100,9","999,N,+0143,1","99999,9,09554,1","3,1,003,1,+999,9","02,1",,,"SYN112AAXX  24064 08272 11681 12302 10143 20109 39554 40152 53003 60002 702// 81401 333 20143 30010 50364 55001 70000;","Q01  00002PRCP24Q02  00002PRCP12"
"08272099999","2010-09-24T09:00:00","4","39.8833333","-4.05","516.0","TOLEDO, SP","FM-12","99999","V020","260,1,N,0041,1","22000,1,9,N","040000,1,N,1","+0193,1","+0118,1","10145,1",,,,,,,,"01,99,1,01,1,02,1,00800,1,00,1,02,1",,,,,"99999,9,09557,1","1,1,003,1,+999,9",,,,"SYN066AAXX  24094 08272 42582 12608 10193 20118 39557 40145 51003 81202;",
"08272099999","2010-09-24T12:00:00","4","39.8833333","-4.05","516.0","TOLEDO, SP","FM-12","99999","V020","260,1,N,0046,1","22000,1,9,N","050000,1,N,1","+0241,1","+0097,1","10126,1","06,0000,9,1",,,,,,,"03,99,1,02,1,01,1,00800,1,00,1,02,1",,,,,"99999,9,09548,1","8,1,009,1,+999,9",,,,"SYN072AAXX  24124 08272 12584 32609 10241 20097 39548 40126 58009 60001 82102;","Q01  00002PRCP06"
"08272099999","2010-09-24T15:00:00","4","39.8833333","-4.05","516.0","TOLEDO, SP","FM-12","99999","V020","290,1,N,0057,1","22000,1,9,N","050000,1,N,1","+0267,1","+0082,1","10103,1",,,,,,,,"03,99,1,03,1,04,1,00800,1,00,1,00,1",,,,,"99999,9,09531,1","6,1,017,1,+999,9",,,,"SYN066AAXX  24154 08272 42584 32911 10267 20082 39531 40103 56017 83400;",
"08272099999","2010-09-24T18:00:00","4","39.8833333","-4.05","516.0","TOLEDO, SP","FM-12","99999","V020","270,1,N,0051,1","22000,1,9,N","050000,1,N,1","+0237,1","+0082,1","10105,1","12,0000,9,1",,,,,,,"03,99,1,03,1,04,1,00800,1,00,1,01,1",,,,"999,M,+0269,1","99999,9,09527,1","6,1,004,1,+999,9",,,,"SYN082AAXX  24184 08272 12584 32710 10237 20082 39527 40105 56004 60002 83401 333 10269;","Q01  00002PRCP12"
"08272099999","2010-09-27T06:00:00","4","39.8833333","-4.05","516.0","TOLEDO, SP","FM-12","99999","V020","100,1,N,0021,1","22000,1,9,N","040000,1,N,1","+0079,1","+0032,1","10150,1","12,0000,9,1","24,0000,9,1",,,,,,"04,99,1,00,1,00,1,99999,9,00,1,01,1","0666,9","01,9","999,+0050,9","999,N,+0079,1","99999,9,09537,1","3,1,003,1,+999,9","02,1",,,"SYN106AAXX  27064 08272 11982 41004 10079 20032 39537 40150 53003 60002 702// 80001 333 20079 30005 55111 70000;","Q01  00002PRCP24Q02  00002PRCP12"
"08272099999","2010-09-27T09:00:00","4","39.8833333","-4.05","516.0","TOLEDO, SP","FM-12","99999","V020","130,1,N,0026,1","22000,1,9,N","040000,1,N,1","+0145,1","+0045,1","10145,1",,,,,,,,"04,99,1,00,1,00,1,99999,9,00,1,01,1",,,,,"99999,9,09546,1","3,1,009,1,+999,9",,,,"SYN066AAXX  27094 08272 42982 41305 10145 20045 39546 40145 53009 80001;",
"08272099999","2010-09-27T12:00:00","4","39.8833333","-4.05","516.0","TOLEDO, SP","FM-12","99999","V020","220,1,N,0026,1","22000,1,9,N","050000,1,N,1","+0232,1","+0047,1","10121,1","06,0000,9,1",,,,,,,"06,99,1,01,1,04,1,00800,1,00,1,01,1",,,,,"99999,9,09541,1","8,1,005,1,+999,9",,,,"SYN072AAXX  27124 08272 12584 62205 10232 20047 39541 40121 58005 60001 81401;","Q01  00002PRCP06"
"08272099999","2010-09-27T15:00:00","4","39.8833333","-4.05","516.0","TOLEDO, SP","FM-12","99999","V020","290,1,N,0057,1","22000,1,9,N","060000,1,N,1","+0253,1","+0027,1","10100,1",,,,,,,,"04,99,1,01,1,04,1,00800,1,08,1,01,1",,,,,"99999,9,09525,1","7,1,016,1,+999,9",,,,"SYN066AAXX  27154 08272 42586 42911 10253 20027 39525 40100 57016 81481;",
"08272099999","2010-09-27T18:00:00","4","39.8833333","-4.05","516.0","TOLEDO, SP","FM-12","99999","V020","290,1,N,0036,1","03600,1,9,N","060000,1,N,1","+0230,1","+0030,1","10106,1","12,0000,9,1",,,,,,,"06,99,1,01,1,05,1,00800,1,07,1,02,1",,,,"999,M,+0256,1","99999,9,09526,1","3,1,001,1,+999,9",,,,"SYN082AAXX  27184 08272 12586 62907 10230 20030 39526 40106 53001 60002 81572 333 10256;","Q01  00002PRCP12"
"08272099999","2010-09-28T06:00:00","4","39.8833333","-4.05","516.0","TOLEDO, SP","FM-12","99999","V020","999,9,C,0000,1","22000,1,9,N","040000,1,N,1","+0121,1","+0036,1","10163,1","12,0000,9,1","24,0000,9,1",,,,"00,1,+99999,9,99,9",,"00,99,1,00,1,00,1,99999,9,00,1,00,1","0576,9","01,9","999,+0060,9","999,N,+0117,1","99999,9,09558,1","3,1,008,1,+999,9","00,1",,,"SYN106AAXX  28064 08272 11982 00000 10121 20036 39558 40163 53008 60002 700// 333 20117 30006 50514 55096 70000;","Q01  00002PRCP24Q02  00002PRCP12"
"08272099999","2010-09-28T09:00:00","4","39.8833333","-4.05","516.0","TOLEDO, SP","FM-12","99999","V020","150,1,N,0021,1","22000,1,9,N","040000,1,N,1","+0183,1","+0058,1","10167,1",,,,,,"00,1,+99999,9,99,9",,"00,99,1,00,1,00,1,99999,9,00,1,00,1",,,,,"99999,9,09575,1","1,1,017,1,+999,9",,,,"SYN060AAXX  28094 08272 42982 01504 10183 20058 39575 40167 51017;",
"08272099999","2010-09-28T12:00:00","4","39.8833333","-4.05","516.0","TOLEDO, SP","FM-12","99999","V020","330,1,N,0026,1","22000,1,9,N","050000,1,N,1","+0237,1","+0046,1","10156,1","06,0000,9,1",,,,,"00,1,+99999,9,99,9",,"00,99,1,00,1,00,1,99999,9,00,1,00,1",,,,,"99999,9,09575,1","0,1,000,1,+999,9",,,,"SYN066AAXX  28124 08272 12984 03305 10237 20046 39575 40156 50000 60001;","Q01  00002PRCP06"
"08272099999","2010-09-28T15:00:00","4","39.8833333","-4.05","516.0","TOLEDO, SP","FM-12","99999","V020","260,1,N,0026,1","22000,1,9,N","050000,1,N,1","+0265,1","+0043,1","10142,1",,,,,,,,"01,99,1,01,1,01,1,00800,1,00,1,00,1",,,,,"99999,9,09567,1","8,1,008,1,+999,9",,,,"SYN066AAXX  28154 08272 42584 12605 10265 20043 39567 40142 58008 81100;",
"08272099999","2010-09-28T18:00:00","4","39.8833333","-4.05","516.0","TOLEDO, SP","FM-12","99999","V020","270,1,N,0031,1","22000,1,9,N","060000,1,N,1","+0241,1","+0055,1","10149,1","12,0000,9,1",,,,,"00,1,+99999,9,99,9",,"00,99,1,00,1,00,1,99999,9,00,1,00,1",,,,"999,M,+0273,1","99999,9,09569,1","3,1,002,1,+999,9",,,,"SYN076AAXX  28184 08272 12986 02706 10241 20055 39569 40149 53002 60002 333 10273;","Q01  00002PRCP12"
"08272099999","2010-09-29T06:00:00","4","39.8833333","-4.05","516.0","TOLEDO, SP","FM-12","99999","V020","160,1,N,0010,1","22000,1,9,N","040000,1,N,1","+0112,1","+0051,1","10202,1","12,0000,9,1","24,0000,9,1",,,,,,"03,99,1,00,1,00,1,99999,9,00,1,01,1","0606,9","01,9","999,+0080,9","999,N,+0110,1","99999,9,09593,1","3,1,005,1,+999,9","02,1",,,"SYN112AAXX  29064 08272 11982 31602 10112 20051 39593 40202 53005 60002 702// 80001 333 20110 30008 50514 55101 70000;","Q01  00002PRCP24Q02  00002PRCP12"
"08272099999","2010-09-29T09:00:00","4","39.8833333","-4.05","516.0","TOLEDO, SP","FM-12","99999","V020","130,1,N,0021,1","99999,9,9,N","040000,1,N,1","+0181,1","+0057,1","10197,1",,,,,,,,"06,99,1,00,1,00,1,99999,9,00,1,01,1",,,,,"99999,9,09603,1","2,1,010,1,+999,9",,,,"SYN066AAXX  29094 08272 42982 61304 10181 20057 39603 40197 52010 80001;",
"08272099999","2010-09-29T12:00:00","4","39.8833333","-4.05","516.0","TOLEDO, SP","FM-12","99999","V020","280,1,N,0041,1","99999,9,9,N","040000,1,N,1","+0254,1","+0051,1","10176,1","06,0000,9,1",,,,,,,"07,99,1,00,1,00,1,99999,9,00,1,01,1",,,,,"99999,9,09597,1","8,1,006,1,+999,9",,,,"SYN072AAXX  29124 08272 12982 72808 10254 20051 39597 40176 58006 60001 80001;","Q01  00002PRCP06"
"08272099999","2010-09-29T15:00:00","4","39.8833333","-4.05","516.0","TOLEDO, SP","FM-12","99999","V020","270,1,N,0041,1","22000,1,9,N","035000,1,N,1","+0281,1","+0062,1","10151,1",,,,,,,,"03,99,1,00,1,00,1,99999,9,00,1,01,1",,,,,"99999,9,09578,1","7,1,019,1,+999,9",,,,"SYN066AAXX  29154 08272 42981 32708 10281 20062 39578 40151 57019 80001;",
"08272099999","2010-09-29T18:00:00","4","39.8833333","-4.05","516.0","TOLEDO, SP","FM-12","99999","V020","290,1,N,0036,1","22000,1,9,N","060000,1,N,1","+0247,1","+0060,1","10154,1","12,0000,9,1",,,,,,,"02,99,1,01,1,00,1,02250,1,03,1,01,1",,,,"999,M,+0286,1","99999,9,09575,1","6,1,003,1,+999,9",,,,"SYN082AAXX  29184 08272 12886 22907 10247 20060 39575 40154 56003 60002 81031 333 10286;","Q01  00002PRCP12"
"08272099999","2010-09-30T06:00:00","4","39.8833333","-4.05","516.0","TOLEDO, SP","FM-12","99999","V020","999,9,C,0000,1","22000,1,9,N","040000,1,N,1","+0127,1","+0049,1","10185,1","12,0000,9,1","24,0000,9,1",,,,,,"03,99,1,00,1,00,1,99999,9,00,1,01,1","0612,9","01,9","999,+0080,9","999,N,+0127,1","99999,9,09580,1","3,1,003,1,+999,9","02,1",,,"SYN112AAXX  30064 08272 11982 30000 10127 20049 39580 40185 53003 60002 702// 80001 333 20127 30008 50554 55102 70000;","Q01  00002PRCP24Q02  00002PRCP12"
"08272099999","2010-09-30T09:00:00","4","39.8833333","-4.05","516.0","TOLEDO, SP","FM-12","99999","V020","140,1,N,0015,1","22000,1,9,N","035000,1,N,1","+0196,1","+0056,1","10180,1",,,,,,,,"03,99,1,00,1,00,1,99999,9,00,1,01,1",,,,,"99999,9,09590,1","1,1,010,1,+999,9",,,,"SYN066AAXX  30094 08272 42981 31403 10196 20056 39590 40180 51010 80001;",
"08272099999","2010-09-30T12:00:00","4","39.8833333","-4.05","516.0","TOLEDO, SP","FM-12","99999","V020","280,1,N,0041,1","22000,1,9,N","040000,1,N,1","+0258,1","+0069,1","10156,1","06,0000,9,1",,,,,,,"03,99,1,00,1,00,1,99999,9,00,1,01,1",,,,,"99999,9,09579,1","8,1,011,1,+999,9",,,,"SYN072AAXX  30124 08272 12982 32808 10258 20069 39579 40156 58011 60001 80001;","Q01  00002PRCP06"
"08272099999","2010-09-30T15:00:00","4","39.8833333","-4.05","516.0","TOLEDO, SP","FM-12","99999","V020","250,1,N,0046,1","09000,1,9,N","050000,1,N,1","+0281,1","+0056,1","10127,1",,,,,,,,"05,99,1,01,1,01,1,00800,1,00,1,02,1",,,,,"99999,9,09556,1","6,1,023,1,+999,9",,,,"SYN066AAXX  30154 08272 42584 52509 10281 20056 39556 40127 56023 81102;",
"08272099999","2010-09-30T18:00:00","4","39.8833333","-4.05","516.0","TOLEDO, SP","FM-12","99999","V020","290,1,N,0036,1","22000,1,9,N","050000,1,N,1","+0246,1","+0085,1","10131,1","12,0000,9,1",,,,,,,"03,99,1,00,1,00,1,99999,9,00,1,01,1",,,,"999,M,+0289,1","99999,9,09553,1","5,1,003,1,+999,9",,,,"SYN082AAXX  30184 08272 12984 32907 10246 20085 39553 40131 55003 60002 80001 333 10289;","Q01  00002PRCP12"
"08272099999","2010-10-01T06:00:00","4","39.8833333","-4.05","516.0","TOLEDO, SP","FM-12","99999","V020","290,1,N,0010,1","22000,1,9,N","050000,1,N,1","+0137,1","+0081,1","10150,1","12,0000,9,1","24,0000,9,1",,,,,,"02,99,1,01,1,00,1,01750,1,03,1,01,1","0582,9","01,9","999,+0080,9","999,N,+0136,1","99999,9,09550,1","6,1,002,1,+999,9","02,1",,,"SYN112AAXX  01064 08272 11784 22902 10137 20081 39550 40150 56002 60002 702// 81031 333 20136 30008 50544 55097 70000;","Q01  00002PRCP24Q02  00002PRCP12"
"08272099999","2010-10-01T09:00:00","4","39.8833333","-4.05","516.0","TOLEDO, SP","FM-12","99999","V020","100,1,N,0015,1","22000,1,9,N","018000,1,N,1","+0189,1","+0088,1","10151,1",,,,,,,,"02,99,1,00,1,00,1,99999,9,00,1,01,1",,,,,"99999,9,09561,1","1,1,011,1,+999,9",,,,"SYN066AAXX  01094 08272 42968 21003 10189 20088 39561 40151 51011 80001;",
"08272099999","2010-10-01T12:00:00","4","39.8833333","-4.05","516.0","TOLEDO, SP","FM-12","99999","V020","310,1,N,0036,1","22000,1,9,N","040000,1,N,1","+0251,1","+0077,1","10127,1","06,0000,9,1",,,,,,,"01,99,1,00,1,00,1,99999,9,00,1,01,1",,,,,"99999,9,09550,1","8,1,011,1,+999,9",,,,"SYN072AAXX  01124 08272 12982 13107 10251 20077 39550 40127 58011 60001 80001;","Q01  00002PRCP06"
"08272099999","2010-10-01T15:00:00","4","39.8833333","-4.05","516.0","TOLEDO, SP","FM-12","99999","V020","280,1,N,0041,1","22000,1,9,N","040000,1,N,1","+0276,1","+0058,1","10107,1",,,,,,"00,1,+99999,9,99,9",,"00,99,1,00,1,00,1,99999,9,00,1,00,1",,,,,"99999,9,09536,1","7,1,014,1,+999,9",,,,"SYN060AAXX  01154 08272 42982 02808 10276 20058 39536 40107 57014;",
"08272099999","2010-10-01T18:00:00","4","39.8833333","-4.05","516.0","TOLEDO, SP","FM-12","99999","V020","320,1,N,0031,1","22000,1,9,N","050000,1,N,1","+0240,1","+0063,1","10112,1","12,0000,9,1",,,,,"00,1,+99999,9,99,9",,"00,99,1,00,1,00,1,99999,9,00,1,00,1",,,,"999,M,+0283,1","99999,9,09534,1","5,1,002,1,+999,9",,,,"SYN076AAXX  01184 08272 12984 03206 10240 20063 39534 40112 55002 60002 333 10283;","Q01  00002PRCP12"
"08272099999","2010-10-04T06:00:00","4","39.8833333","-4.05","516.0","TOLEDO, SP","FM-12","99999","V020","270,1,N,0062,1","00420,1,9,N","030000,1,N,1","+0132,1","+0107,1","10078,1","12,0041,9,2","24,0038,9,2",,,,,,"06,99,1,05,1,05,1,00450,1,07,1,02,1","0096,9","09,9","999,+0110,9","999,N,+0132,1","99999,9,09482,1","3,1,015,1,+999,9","02,1",,,"SYN106AAXX  04064 08272 11480 62712 10132 20107 39482 40078 53015 60042 702// 85572 333 20132 31011 55016 70037;",
"08272099999","2010-10-04T09:00:00","4","39.8833333","-4.05","516.0","TOLEDO, SP","FM-12","99999","V020","280,1,N,0057,1","09000,1,9,N","050000,1,N,1","+0151,1","+0101,1","10099,1",,,,,,,,"06,99,1,01,1,05,1,00800,1,00,1,02,1",,,,,"99999,9,09505,1","2,1,023,1,+999,9",,,,"SYN066AAXX  04094 08272 42584 62811 10151 20101 39505 40099 52023 81502;",
"08272099999","2010-10-04T12:00:00","4","39.8833333","-4.05","516.0","TOLEDO, SP","FM-12","99999","V020","280,1,N,0051,1","00750,1,9,N","050000,1,N,1","+0190,1","+0071,1","10097,1","06,0000,9,1",,,,,,,"06,99,1,05,1,05,1,00800,1,07,1,02,1",,,,,"99999,9,09510,1","1,1,005,1,+999,9",,,,"SYN072AAXX  04124 08272 12584 62810 10190 20071 39510 40097 51005 60001 85572;","Q01  00002PRCP06"
"08272099999","2010-10-04T15:00:00","4","39.8833333","-4.05","516.0","TOLEDO, SP","FM-12","99999","V020","290,1,N,0036,1","22000,1,9,N","060000,1,N,1","+0213,1","+0082,1","10091,1",,,,,,,,"04,99,1,04,1,02,1,00800,1,03,1,00,1",,,,,"99999,9,09509,1","6,1,001,1,+999,9",,,,"SYN066AAXX  04154 08272 42586 42907 10213 20082 39509 40091 56001 84230;",
"08272099999","2010-10-04T18:00:00","4","39.8833333","-4.05","516.0","TOLEDO, SP","FM-12","99999","V020","270,1,N,0036,1","22000,1,9,N","050000,1,N,1","+0194,1","+0068,1","10105,1","12,0000,9,1",,,,,,,"04,99,1,04,1,04,1,00800,1,03,1,00,1",,,,"999,M,+0223,1","99999,9,09519,1","3,1,010,1,+999,9",,,,"SYN082AAXX  04184 08272 12584 42707 10194 20068 39519 40105 53010 60002 84430 333 10223;","Q01  00002PRCP12"
"08272099999","2010-10-05T06:00:00","4","39.8833333","-4.05","516.0","TOLEDO, SP","FM-12","99999","V020","140,1,N,0010,1","22000,1,9,N","030000,1,N,1","+0095,1","+0069,1","10156,1","12,0000,9,1","24,0000,9,1",,,,,,"02,99,1,00,1,00,1,99999,9,00,1,01,1","0558,9","09,9","999,+0050,9","999,N,+0095,1","99999,9,09547,1","3,1,002,1,+999,9","02,1",,,"SYN112AAXX  05064 08272 11980 21402 10095 20069 39547 40156 53002 60002 702// 80001 333 20095 31005 50294 55093 70000;","Q01  00002PRCP24Q02  00002PRCP12"
"08272099999","2010-10-05T09:00:00","4","39.8833333","-4.05","516.0","TOLEDO, SP","FM-12","99999","V020","120,1,N,0026,1","22000,1,9,N","040000,1,N,1","+0141,1","+0079,1","10155,1",,,,,,,,"03,99,1,00,1,00,1,99999,9,00,1,01,1",,,,,"99999,9,09555,1","1,1,008,1,+999,9",,,,"SYN066AAXX  05094 08272 42982 31205 10141 20079 39555 40155 51008 80001;",
"08272099999","2010-10-05T12:00:00","4","39.8833333","-4.05","516.0","TOLEDO, SP","FM-12","99999","V020","190,1,N,0021,1","22000,1,9,N","040000,1,N,1","+0213,1","+0068,1","10127,1","06,0000,9,1",,,,,,,"02,99,1,00,1,00,1,99999,9,00,1,01,1",,,,,"99999,9,09543,1","8,1,012,1,+999,9",,,,"SYN072AAXX  05124 08272 12982 21904 10213 20068 39543 40127 58012 60001 80001;","Q01  00002PRCP06"
"08272099999","2010-10-05T15:00:00","4","39.8833333","-4.05","516.0","TOLEDO, SP","FM-12","99999","V020","290,1,N,0021,1","99999,9,9,N","040000,1,N,1","+0235,1","+0063,1","10096,1",,,,,,,,"05,99,1,00,1,00,1,99999,9,00,1,01,1",,,,,"99999,9,09518,1","7,1,025,1,+999,9",,,,"SYN066AAXX  05154 08272 42982 52904 10235 20063 39518 40096 57025 80001;",
"08272099999","2010-10-05T18:00:00","4","39.8833333","-4.05","516.0","TOLEDO, SP","FM-12","99999","V020","010,1,N,0026,1","99999,9,9,N","040000,1,N,1","+0202,1","+0069,1","10097,1","12,0000,9,1",,,,,,,"06,99,1,00,1,00,1,99999,9,00,1,05,1",,,,"999,M,+0250,1","99999,9,09513,1","5,1,005,1,+999,9",,,,"SYN082AAXX  05184 08272 12982 60105 10202 20069 39513 40097 55005 60002 80005 333 10250;","Q01  00002PRCP12"
"08272099999","2010-10-06T06:00:00","4","39.8833333","-4.05","516.0","TOLEDO, SP","FM-12","99999","V020","120,1,N,0021,1","22000,1,9,N","030000,1,N,1","+0096,1","+0058,1","10118,1","12,0000,9,1","24,0000,9,1",,,,,,"02,99,1,01,1,00,1,02250,1,03,1,01,1","0582,9","01,9","999,+0050,9","999,N,+0096,1","99999,9,09511,1","3,1,005,1,+999,9","02,1",,,"SYN112AAXX  06064 08272 11880 21204 10096 20058 39511 40118 53005 60002 702// 81031 333 20096 30005 50294 55097 70000;","Q01  00002PRCP24Q02  00002PRCP12"
"08272099999","2010-10-06T09:00:00","4","39.8833333","-4.05","516.0","TOLEDO, SP","FM-12","99999","V020","120,1,N,0031,1","22000,1,9,N","040000,1,N,1","+0150,1","+0071,1","10121,1",,,,,,,,"01,99,1,00,1,00,1,99999,9,00,1,01,1",,,,,"99999,9,09525,1","2,1,014,1,+999,9",,,,"SYN066AAXX  06094 08272 42982 11206 10150 20071 39525 40121 52014 80001;",
"08272099999","2010-10-06T12:00:00","4","39.8833333","-4.05","516.0","TOLEDO, SP","FM-12","99999","V020","310,1,N,0026,1","22000,1,9,N","040000,1,N,1","+0232,1","+0077,1","10101,1","06,0000,9,1",,,,,,,"01,99,1,00,1,00,1,99999,9,00,1,01,1",,,,,"99999,9,09522,1","8,1,003,1,+999,9",,,,"SYN072AAXX  06124 08272 12982 13105 10232 20077 39522 40101 58003 60001 80001;","Q01  00002PRCP06"
"08272099999","2010-10-06T15:00:00","4","39.8833333","-4.05","516.0","TOLEDO, SP","FM-12","99999","V020","270,1,N,0026,1","22000,1,9,N","040000,1,N,1","+0262,1","+0073,1","10079,1",,,,,,,,"01,99,1,00,1,00,1,99999,9,00,1,01,1",,,,,"99999,9,09507,1","6,1,015,1,+999,9",,,,"SYN066AAXX  06154 08272 42982 12705 10262 20073 39507 40079 56015 80001;",
"08272099999","2010-10-06T18:00:00","4","39.8833333","-4.05","516.0","TOLEDO, SP","FM-12","99999","V020","040,1,N,0026,1","22000,1,9,N","050000,1,N,1","+0224,1","+0062,1","10084,1","12,0000,9,1",,,,,,,"03,99,1,01,1,00,1,02250,1,03,1,01,1",,,,"999,M,+0265,1","99999,9,09505,1","5,1,002,1,+999,9",,,,"SYN082AAXX  06184 08272 12884 30405 10224 20062 39505 40084 55002 60002 81031 333 10265;","Q01  00002PRCP12"
"08272099999","2010-10-07T06:00:00","4","39.8833333","-4.05","516.0","TOLEDO, SP","FM-12","99999","V020","090,1,N,0031,1","22000,1,9,N","020000,1,N,1","+0150,1","+0121,1","10113,1","12,0000,9,1","24,0000,9,1",,,,,,"05,99,1,04,1,00,1,02250,1,05,1,09,1","0612,9","01,9","999,+0130,9","999,N,+0150,1","99999,9,09519,1","3,1,002,1,+999,9","02,1",,,"SYN112AAXX  07064 08272 11870 50906 10150 20121 39519 40113 53002 60002 702// 84059 333 20150 30013 50424 55102 70000;","Q01  00002PRCP24Q02  00002PRCP12"
"08272099999","2010-10-07T09:00:00","4","39.8833333","-4.05","516.0","TOLEDO, SP","FM-12","99999","V020","110,1,N,0036,1","09000,1,9,N","020000,1,N,1","+0198,1","+0130,1","10121,1",,,,,,,,"05,99,1,02,1,00,1,02250,1,03,1,05,1",,,,,"99999,9,09536,1","2,1,017,1,+999,9",,,,"SYN066AAXX  07094 08272 42870 51107 10198 20130 39536 40121 52017 82035;",
"08272099999","2010-10-07T12:00:00","4","39.8833333","-4.05","516.0","TOLEDO, SP","FM-12","99999","V020","120,1,N,0021,1","09000,1,9,N","030000,1,N,1","+0260,1","+0121,1","10104,1","06,0000,9,1",,,,,,,"05,99,1,02,1,05,1,00800,1,08,1,01,1",,,,,"99999,9,09531,1","8,1,005,1,+999,9",,,,"SYN072AAXX  07124 08272 12580 51204 10260 20121 39531 40104 58005 60001 82581;","Q01  00002PRCP06"
"08272099999","2010-10-07T15:00:00","4","39.8833333","-4.05","516.0","TOLEDO, SP","FM-12","99999","V020","280,1,N,0041,1","00750,1,9,N","030000,1,N,1","+0255,1","+0120,1","10096,1",,,,,,,,"06,99,1,06,1,05,1,00800,1,07,1,02,1",,,,,"99999,9,09523,1","6,1,008,1,+999,9",,,,"SYN066AAXX  07154 08272 42580 62808 10255 20120 39523 40096 56008 86572;",
"08272099999","2010-10-07T18:00:00","4","39.8833333","-4.05","516.0","TOLEDO, SP","FM-12","99999","V020","290,1,N,0031,1","03600,1,9,N","020000,1,N,1","+0213,1","+0135,1","10105,1","12,9999,9,9",,,"2,1,06,1","2,1,06,1","01,1,+00390,1,09,1",,"07,99,1,04,1,09,1,00450,1,08,1,03,1",,,,"120,M,+0272,1","99999,9,09524,1","1,1,001,1,+999,9","25,1",,,"SYN100AAXX  07184 08272 11470 72906 10213 20135 39524 40105 51001 69902 72522 84983 333 10272 81913 83616;","Q01  00002PRCP12Q02  00002PRCP12"
"08272099999","2010-10-08T06:00:00","4","39.8833333","-4.05","516.0","TOLEDO, SP","FM-12","99999","V020","090,1,N,0026,1","03600,1,9,N","008000,1,N,1","+0152,1","+0136,1","10125,1","12,0020,9,2","24,0018,9,2",,,,,,"07,99,1,03,1,02,1,00800,1,03,1,08,1","0456,9","09,9","999,+0140,9","999,N,+0152,1","99999,9,09531,1","6,1,003,1,+999,9","10,1",,,"SYN112AAXX  08064 08272 11558 70905 10152 20136 39531 40125 56003 60022 710// 83238 333 20152 31014 50274 55076 70017;",
"08272099999","2010-10-08T09:00:00","4","39.8833333","-4.05","516.0","TOLEDO, SP","FM-12","99999","V020","110,1,N,0026,1","03600,1,9,N","012000,1,N,1","+0196,1","+0150,1","10128,1",,,,,,,,"07,99,1,04,1,05,1,00800,1,07,1,08,1",,,,,"99999,9,09542,1","1,1,011,1,+999,9",,,,"SYN066AAXX  08094 08272 42562 71105 10196 20150 39542 40128 51011 84578;",
"08272099999","2010-10-08T12:00:00","4","39.8833333","-4.05","516.0","TOLEDO, SP","FM-12","99999","V020","250,1,N,0046,1","03600,1,9,N","030000,1,N,1","+0247,1","+0120,1","10104,1","06,0000,9,1",,,,,,,"05,99,1,03,1,02,1,00800,1,08,1,02,1",,,,,"99999,9,09529,1","7,1,013,1,+999,9",,,,"SYN072AAXX  08124 08272 12580 52509 10247 20120 39529 40104 57013 60001 83282;","Q01  00002PRCP06"
"08272099999","2010-10-08T15:00:00","4","39.8833333","-4.05","516.0","TOLEDO, SP","FM-12","99999","V020","230,1,N,0062,1","09000,1,9,N","030000,1,N,1","+0265,1","+0098,1","10081,1",,,,,,,,"05,99,1,04,1,02,1,00800,1,00,1,02,1",,,,,"99999,9,09510,1","7,1,019,1,+999,9",,,,"SYN066AAXX  08154 08272 42580 52312 10265 20098 39510 40081 57019 84202;",
"08272099999","2010-10-08T18:00:00","4","39.8833333","-4.05","516.0","TOLEDO, SP","FM-12","99999","V020","200,1,N,0057,1","09000,1,9,N","020000,1,N,1","+0238,1","+0090,1","10078,1","12,0000,9,1",,,,,,,"05,99,1,01,1,01,1,00800,1,07,1,02,1",,,,"999,M,+0273,1","99999,9,09502,1","6,1,008,1,+999,9",,,,"SYN082AAXX  08184 08272 12570 52011 10238 20090 39502 40078 56008 60002 81172 333 10273;","Q01  00002PRCP12"
"08272099999","2010-10-11T06:00:00","4","39.8833333","-4.05","516.0","TOLEDO, SP","FM-12","99999","V020","320,1,N,0005,1","03600,1,9,N","040000,1,N,1","+0104,1","+0098,1","10009,1","12,0000,9,1","24,0000,9,1",,,,,,"06,99,1,01,1,05,1,00450,1,07,1,08,1","0264,9","09,9","999,+0080,9","999,N,+0102,1","99999,9,09411,1","1,1,001,1,+999,9","02,1",,,"SYN106AAXX  11064 08272 11482 63201 10104 20098 39411 40009 51001 60002 702// 81578 333 20102 31008 55044 70000;","Q01  00002PRCP24Q02  00002PRCP12"
"08272099999","2010-10-11T09:00:00","4","39.8833333","-4.05","516.0","TOLEDO, SP","FM-12","99999","V020","270,1,N,0010,1","03600,1,9,N","035000,1,N,1","+0130,1","+0109,1","10014,1",,,,,,,,"07,99,1,01,1,01,1,00450,1,07,1,02,1",,,,,"99999,9,09421,1","3,1,010,1,+999,9",,,,"SYN066AAXX  11094 08272 42481 72702 10130 20109 39421 40014 53010 81172;",
"08272099999","2010-10-11T12:00:00","4","39.8833333","-4.05","516.0","TOLEDO, SP","FM-12","99999","V020","270,1,N,0015,1","03600,1,9,N","050000,1,N,1","+0171,1","+0093,1","10008,1","06,0000,9,1",,,,,,,"07,99,1,02,1,05,1,00450,1,07,1,06,1",,,,,"99999,9,09423,1","0,1,002,1,+999,9",,,,"SYN072AAXX  11124 08272 12484 72703 10171 20093 39423 40008 50002 60001 82576;","Q01  00002PRCP06"
"08272099999","2010-10-11T15:00:00","4","39.8833333","-4.05","516.0","TOLEDO, SP","FM-12","99999","V020","320,1,N,0041,1","03600,1,9,N","035000,1,N,1","+0161,1","+0098,1","10004,1",,,,"2,1,03,1","2,1,03,1",,,"07,99,1,04,1,08,1,00450,1,07,1,08,1",,,,,"99999,9,09418,1","5,1,005,1,+999,9","60,1",,,"SYN072AAXX  11154 08272 41481 73208 10161 20098 39418 40004 55005 76022 84878;",
"08272099999","2010-10-11T18:00:00","4","39.8833333","-4.05","516.0","TOLEDO, SP","FM-12","99999","V020","310,1,N,0015,1","03600,1,9,N","050000,1,N,1","+0158,1","+0097,1","10017,1","12,0000,2,1",,,"6,1,06,1","2,1,06,1",,,"07,99,1,02,1,02,1,00450,1,07,1,08,1",,,,"999,M,+0183,1","99999,9,09429,1","3,1,011,1,+999,9","02,1",,,"SYN088AAXX  11184 08272 11484 73103 10158 20097 39429 40017 53011 69902 70262 82278 333 10183;",
"08272099999","2010-10-12T06:00:00","4","39.8833333","-4.05","516.0","TOLEDO, SP","FM-12","99999","V020","999,9,C,0000,1","22000,1,9,N","012000,1,N,1","+0104,1","+0092,1","10057,1","12,0000,9,1","24,0000,2,1",,,,,,"04,99,1,03,1,00,1,01750,1,07,1,01,1","0036,9","09,9","999,+0070,9","999,N,+0101,1","99999,9,09456,1","1,1,009,1,+999,9","02,1",,,"SYN112AAXX  12064 08272 11762 40000 10104 20092 39456 40057 51009 69902 702// 83071 333 20101 31007 50144 55006 70001;","Q01  00002PRCP12"
"08272099999","2010-10-12T09:00:00","4","39.8833333","-4.05","516.0","TOLEDO, SP","FM-12","99999","V020","180,1,N,0015,1","09000,1,9,N","008000,1,N,1","+0145,1","+0113,1","10053,1",,,,"1,1,03,1","1,1,03,1",,,"05,99,1,01,1,04,1,00450,1,03,1,08,1",,,,,"99999,9,09461,1","2,1,005,1,+999,9","10,1",,,"SYN072AAXX  12094 08272 41458 51803 10145 20113 39461 40053 52005 71011 81438;",
"08272099999","2010-10-12T12:00:00","4","39.8833333","-4.05","516.0","TOLEDO, SP","FM-12","99999","V020","340,1,N,0031,1","09000,1,9,N","040000,1,N,1","+0187,1","+0100,1","10045,1","06,0000,9,1",,,,,,,"05,99,1,02,1,02,1,00450,1,03,1,08,1",,,,,"99999,9,09461,1","0,1,000,1,+999,9",,,,"SYN072AAXX  12124 08272 12482 53406 10187 20100 39461 40045 50000 60001 82238;","Q01  00002PRCP06"
"08272099999","2010-10-12T15:00:00","4","39.8833333","-4.05","516.0","TOLEDO, SP","FM-12","99999","V020","360,1,N,0036,1","03600,1,9,N","050000,1,N,1","+0200,1","+0087,1","10034,1",,,,,,,,"08,99,1,01,1,02,1,00450,1,07,1,08,1",,,,,"99999,9,09453,1","6,1,008,1,+999,9",,,,"SYN066AAXX  12154 08272 42484 83607 10200 20087 39453 40034 56008 81278;",
"08272099999","2010-10-12T18:00:00","4","39.8833333","-4.05","516.0","TOLEDO, SP","FM-12","99999","V020","100,1,N,0026,1","00420,1,9,N","060000,1,N,1","+0179,1","+0105,1","10047,1","12,0000,9,1",,,,,,,"07,99,1,05,1,05,1,00450,1,07,1,01,1",,,,"999,M,+0204,1","99999,9,09462,1","3,1,009,1,+999,9",,,,"SYN082AAXX  12184 08272 12486 71005 10179 20105 39462 40047 53009 60002 85571 333 10204;","Q01  00002PRCP12"
"08272099999","2010-10-13T06:00:00","4","39.8833333","-4.05","516.0","TOLEDO, SP","FM-12","99999","V020","999,9,C,0000,1","22000,1,9,N","035000,1,N,1","+0121,1","+0089,1","10092,1","12,0000,9,1","24,0000,9,1",,,,,,"01,99,1,01,1,04,1,00450,1,00,1,01,1","0300,9","01,9","999,+0080,9","999,N,+0117,1","99999,9,09492,1","2,1,012,1,+999,9","02,1",,,"SYN112AAXX  13064 08272 11481 10000 10121 20089 39492 40092 52012 60002 702// 81401 333 20117 30008 50194 55050 70000;","Q01  00002PRCP24Q02  00002PRCP12"
"08272099999","2010-10-13T09:00:00","4","39.8833333","-4.05","516.0","TOLEDO, SP","FM-12","99999","V020","260,1,N,0005,1","22000,1,9,N","020000,1,N,1","+0159,1","+0107,1","10106,1",,,,,,,,"01,99,1,01,1,00,1,01750,1,03,1,00,1",,,,,"99999,9,09513,1","2,1,021,1,+999,9",,,,"SYN066AAXX  13094 08272 42770 12601 10159 20107 39513 40106 52021 81030;",
"08272099999","2010-10-13T12:00:00","4","39.8833333","-4.05","516.0","TOLEDO, SP","FM-12","99999","V020","260,1,N,0021,1","22000,1,9,N","040000,1,N,1","+0209,1","+0089,1","10097,1","06,0000,9,1",,,,,,,"03,99,1,03,1,04,1,00800,1,00,1,00,1",,,,,"99999,9,09514,1","0,1,001,1,+999,9",,,,"SYN072AAXX  13124 08272 12582 32604 10209 20089 39514 40097 50001 60001 83400;","Q01  00002PRCP06"
"08272099999","2010-10-13T15:00:00","4","39.8833333","-4.05","516.0","TOLEDO, SP","FM-12","99999","V020","310,1,N,0031,1","22000,1,9,N","035000,1,N,1","+0230,1","+0098,1","10086,1",,,,,,,,"04,99,1,04,1,04,1,00800,1,03,1,00,1",,,,,"99999,9,09508,1","6,1,006,1,+999,9",,,,"SYN066AAXX  13154 08272 42581 43106 10230 20098 39508 40086 56006 84430;",
"08272099999","2010-10-13T18:00:00","4","39.8833333","-4.05","516.0","TOLEDO, SP","FM-12","99999","V020","050,1,N,0026,1","22000,1,9,N","040000,1,N,1","+0192,1","+0097,1","10104,1","12,0000,9,1",,,,,,,"04,99,1,04,1,05,1,00800,1,00,1,00,1",,,,"999,M,+0230,1","99999,9,09518,1","3,1,010,1,+999,9",,,,"SYN082AAXX  13184 08272 12582 40505 10192 20097 39518 40104 53010 60002 84500 333 10230;","Q01  00002PRCP12"
"08272099999","2010-10-14T06:00:00","4","39.8833333","-4.05","516.0","TOLEDO, SP","FM-12","99999","V020","999,9,C,0000,1","22000,1,9,N","040000,1,N,1","+0115,1","+0098,1","10134,1","12,0000,9,1","24,0000,9,1",,,,,,"01,99,1,01,1,00,1,01750,1,03,1,01,1","0618,9","09,9","999,+0080,9","999,N,+0115,1","99999,9,09531,1","4,1,000,1,+999,9","02,1",,,"SYN112AAXX  14064 08272 11782 10000 10115 20098 39531 40134 54000 60002 702// 81031 333 20115 31008 50264 55103 70000;","Q01  00002PRCP24Q02  00002PRCP12"
"08272099999","2010-10-14T09:00:00","4","39.8833333","-4.05","516.0","TOLEDO, SP","FM-12","99999","V020","240,1,N,0021,1","22000,1,9,N","020000,1,N,1","+0174,1","+0112,1","10134,1",,,,,,,,"04,99,1,04,1,00,1,01750,1,03,1,00,1",,,,,"99999,9,09543,1","1,1,012,1,+999,9",,,,"SYN066AAXX  14094 08272 42770 42404 10174 20112 39543 40134 51012 84030;",
"08272099999","2010-10-14T12:00:00","4","39.8833333","-4.05","516.0","TOLEDO, SP","FM-12","99999","V020","010,1,N,0021,1","22000,1,9,N","040000,1,N,1","+0208,1","+0088,1","10122,1","06,0000,9,1",,,,,,,"02,99,1,02,1,02,1,00800,1,03,1,00,1",,,,,"99999,9,09538,1","8,1,005,1,+999,9",,,,"SYN072AAXX  14124 08272 12582 20104 10208 20088 39538 40122 58005 60001 82230;","Q01  00002PRCP06"
"08272099999","2010-10-14T15:00:00","4","39.8833333","-4.05","516.0","TOLEDO, SP","FM-12","99999","V020","320,1,N,0031,1","00750,1,9,N","040000,1,N,1","+0229,1","+0070,1","10106,1",,,,,,,,"05,99,1,05,1,04,1,00800,1,00,1,00,1",,,,,"99999,9,09526,1","6,1,012,1,+999,9",,,,"SYN066AAXX  14154 08272 42582 53206 10229 20070 39526 40106 56012 85400;",
"08272099999","2010-10-14T18:00:00","4","39.8833333","-4.05","516.0","TOLEDO, SP","FM-12","99999","V020","290,1,N,0015,1","22000,1,9,N","040000,1,N,1","+0194,1","+0078,1","10114,1","12,0000,9,1",,,,,,,"03,99,1,03,1,05,1,00800,1,00,1,00,1",,,,"999,M,+0237,1","99999,9,09527,1","3,1,001,1,+999,9",,,,"SYN082AAXX  14184 08272 12582 32903 10194 20078 39527 40114 53001 60002 83500 333 10237;","Q01  00002PRCP12"
"08272099999","2010-10-15T06:00:00","4","39.8833333","-4.05","516.0","TOLEDO, SP","FM-12","99999","V020","999,9,C,0000,1","22000,1,9,N","040000,1,N,1","+0099,1","+0043,1","10130,1","12,0000,9,1","24,0000,9,1",,,,,,"02,99,1,02,1,00,1,01750,1,03,1,00,1","0630,9","01,9","999,+0040,9","999,N,+0099,1","99999,9,09523,1","3,1,001,1,+999,9","02,1",,,"SYN112AAXX  15064 08272 11782 20000 10099 20043 39523 40130 53001 60002 702// 82030 333 20099 30004 50334 55105 70000;","Q01  00002PRCP24Q02  00002PRCP12"
"08272099999","2010-10-15T09:00:00","4","39.8833333","-4.05","516.0","TOLEDO, SP","FM-12","99999","V020","130,1,N,0031,1","22000,1,9,N","020000,1,N,1","+0135,1","+0052,1","10133,1",,,,,,,,"01,99,1,01,1,01,1,00800,1,03,1,00,1",,,,,"99999,9,09533,1","2,1,010,1,+999,9",,,,"SYN066AAXX  15094 08272 42570 11306 10135 20052 39533 40133 52010 81130;",
"08272099999","2010-10-15T12:00:00","4","39.8833333","-4.05","516.0","TOLEDO, SP","FM-12","99999","V020","350,1,N,0026,1","22000,1,9,N","035000,1,N,1","+0184,1","+0042,1","10119,1","06,0000,9,1",,,,,,,"01,99,1,01,1,05,1,00800,1,00,1,00,1",,,,,"99999,9,09530,1","8,1,003,1,+999,9",,,,"SYN072AAXX  15124 08272 12581 13505 10184 20042 39530 40119 58003 60001 81500;","Q01  00002PRCP06"
"08272099999","2010-10-15T15:00:00","4","39.8833333","-4.05","516.0","TOLEDO, SP","FM-12","99999","V020","280,1,N,0026,1","22000,1,9,N","040000,1,N,1","+0215,1","+0037,1","10096,1",,,,,,,,"01,99,1,01,1,04,1,00800,1,00,1,00,1",,,,,"99999,9,09514,1","6,1,016,1,+999,9",,,,"SYN066AAXX  15154 08272 42582 12805 10215 20037 39514 40096 56016 81400;",
"08272099999","2010-10-15T18:00:00","4","39.8833333","-4.05","516.0","TOLEDO, SP","FM-12","99999","V020","360,1,N,0031,1","22000,1,9,N","040000,1,N,1","+0168,1","+0031,1","10111,1","12,0000,9,1",,,,,,,"01,99,1,01,1,04,1,00800,1,00,1,00,1",,,,"999,M,+0220,1","99999,9,09519,1","3,1,005,1,+999,9",,,,"SYN082AAXX  15184 08272 12582 13606 10168 20031 39519 40111 53005 60002 81400 333 10220;","Q01  00002PRCP12"
"08272099999","2010-10-18T06:00:00","4","39.8833333","-4.05","516.0","TOLEDO, SP","FM-12","99999","V020","100,1,N,0021,1","22000,1,9,N","030000,1,N,1","+0034,1","+0003,1","10237,1","12,0000,9,1","24,0000,9,1",,,,"00,1,+99999,9,99,9",,"00,99,1,00,1,00,1,99999,9,00,1,00,1","0624,9","01,9","999,+0000,9","999,N,+0034,1","99999,9,09609,1","2,1,007,1,+999,9","00,1",,,"SYN100AAXX  18064 08272 11980 01004 10034 20003 39609 40237 52007 60002 700// 333 20034 30000 55104 70000;","Q01  00002PRCP24Q02  00002PRCP12"
"08272099999","2010-10-18T09:00:00","4","39.8833333","-4.05","516.0","TOLEDO, SP","FM-12","99999","V020","110,1,N,0031,1","22000,1,9,N","040000,1,N,1","+0094,1","-0019,1","10238,1",,,,,,"00,1,+99999,9,99,9",,"00,99,1,00,1,00,1,99999,9,00,1,00,1",,,,,"99999,9,09623,1","2,1,014,1,+999,9",,,,"SYN060AAXX  18094 08272 42982 01106 10094 21019 39623 40238 52014;",
"08272099999","2010-10-18T12:00:00","4","39.8833333","-4.05","516.0","TOLEDO, SP","FM-12","99999","V020","100,1,N,0021,1","22000,1,9,N","050000,1,N,1","+0149,1","-0025,1","10216,1","06,0000,9,1",,,,,"00,1,+99999,9,99,9",,"00,99,1,00,1,00,1,99999,9,00,1,00,1",,,,,"99999,9,09613,1","8,1,010,1,+999,9",,,,"SYN066AAXX  18124 08272 12984 01004 10149 21025 39613 40216 58010 60001;","Q01  00002PRCP06"
"08272099999","2010-10-18T15:00:00","4","39.8833333","-4.05","516.0","TOLEDO, SP","FM-12","99999","V020","020,1,N,0021,1","22000,1,9,N","040000,1,N,1","+0178,1","-0025,1","10187,1",,,,,,"00,1,+99999,9,99,9",,"00,99,1,00,1,00,1,99999,9,00,1,00,1",,,,,"99999,9,09592,1","7,1,021,1,+999,9",,,,"SYN060AAXX  18154 08272 42982 00204 10178 21025 39592 40187 57021;",
"08272099999","2010-10-18T18:00:00","4","39.8833333","-4.05","516.0","TOLEDO, SP","FM-12","99999","V020","999,9,C,0000,1","22000,1,9,N","030000,1,N,1","+0151,1","-0015,1","10192,1","12,0000,9,1",,,,,"00,1,+99999,9,99,9",,"00,99,1,00,1,00,1,99999,9,00,1,00,1",,,,"999,M,+0184,1","99999,9,09591,1","5,1,001,1,+999,9",,,,"SYN076AAXX  18184 08272 12980 00000 10151 21015 39591 40192 55001 60002 333 10184;","Q01  00002PRCP12"
"08272099999","2010-10-19T06:00:00","4","39.8833333","-4.05","516.0","TOLEDO, SP","FM-12","99999","V020","110,1,N,0026,1","22000,1,9,N","020000,1,N,1","+0042,1","-0018,1","10211,1","12,0000,9,1","24,0000,9,1",,,,"00,1,+99999,9,99,9",,"00,99,1,00,1,00,1,99999,9,00,1,00,1","0642,9","01,9","999,-0010,9","999,N,+0035,1","99999,9,09586,1","5,1,002,1,+999,9","00,1",,,"SYN106AAXX  19064 08272 11970 01105 10042 21018 39586 40211 55002 60002 700// 333 20035 30101 50274 55107 70000;","Q01  00002PRCP24Q02  00002PRCP12"
"08272099999","2010-10-19T12:00:00","4","39.8833333","-4.05","516.0","TOLEDO, SP","FM-12","99999","V020","190,1,N,0021,1","22000,1,9,N","040000,1,N,1","+0167,1","-0019,1","10179,1","06,0000,9,1",,,,,"00,1,+99999,9,99,9",,"00,99,1,00,1,00,1,99999,9,00,1,00,1",,,,,"99999,9,09582,1","8,1,017,1,+999,9",,,,"SYN066AAXX  19124 08272 12982 01904 10167 21019 39582 40179 58017 60001;","Q01  00002PRCP06"
"08272099999","2010-10-19T15:00:00","4","39.8833333","-4.05","516.0","TOLEDO, SP","FM-12","99999","V020","270,1,N,0021,1","22000,1,9,N","040000,1,N,1","+0211,1","-0014,1","10146,1",,,,,,"00,1,+99999,9,99,9",,"00,99,1,00,1,00,1,99999,9,00,1,00,1",,,,,"99999,9,09560,1","6,1,022,1,+999,9",,,,"SYN060AAXX  19154 08272 42982 02704 10211 21014 39560 40146 56022;",
"08272099999","2010-10-19T18:00:00","4","39.8833333","-4.05","516.0","TOLEDO, SP","FM-12","99999","V020","360,1,N,0015,1","22000,1,9,N","030000,1,N,1","+0159,1","-0012,1","10157,1","12,0000,9,1",,,,,"00,1,+99999,9,99,9",,"00,99,1,00,1,00,1,99999,9,00,1,00,1",,,,"999,M,+0216,1","99999,9,09560,1","5,1,000,1,+999,9",,,,"SYN076AAXX  19184 08272 12980 03603 10159 21012 39560 40157 55000 60002 333 10216;","Q01  00002PRCP12"
"08272099999","2010-10-20T06:00:00","4","39.8833333","-4.05","516.0","TOLEDO, SP","FM-12","99999","V020","160,1,N,0010,1","22000,1,9,N","030000,1,N,1","+0047,1","+0003,1","10190,1","12,0000,9,1","24,0000,9,1",,,,"00,1,+99999,9,99,9",,"00,99,1,00,1,00,1,99999,9,00,1,00,1","0642,9","01,9","999,+0000,9","999,N,+0047,1","99999,9,09568,1","3,1,003,1,+999,9","00,1",,,"SYN106AAXX  20064 08272 11980 01602 10047 20003 39568 40190 53003 60002 700// 333 20047 30000 50324 55107 70000;","Q01  00002PRCP24Q02  00002PRCP12"
"08272099999","2010-10-20T09:00:00","4","39.8833333","-4.05","516.0","TOLEDO, SP","FM-12","99999","V020","130,1,N,0015,1","22000,1,9,N","040000,1,N,1","+0112,1","+0015,1","10191,1",,,,,,,,"01,99,1,00,1,00,1,99999,9,00,1,01,1",,,,,"99999,9,09583,1","2,1,015,1,+999,9",,,,"SYN066AAXX  20094 08272 42982 11303 10112 20015 39583 40191 52015 80001;",
"08272099999","2010-10-20T12:00:00","4","39.8833333","-4.05","516.0","TOLEDO, SP","FM-12","99999","V020","130,1,N,0021,1","22000,1,9,N","015000,1,N,1","+0190,1","+0015,1","10166,1","06,0000,9,1",,,,,"00,1,+99999,9,99,9",,"00,99,1,00,1,00,1,99999,9,00,1,00,1",,,,,"99999,9,09575,1","8,1,008,1,+999,9",,,,"SYN066AAXX  20124 08272 12965 01304 10190 20015 39575 40166 58008 60001;","Q01  00002PRCP06"
"08272099999","2010-10-20T15:00:00","4","39.8833333","-4.05","516.0","TOLEDO, SP","FM-12","99999","V020","310,1,N,0021,1","22000,1,9,N","020000,1,N,1","+0233,1","+0016,1","10142,1",,,,,,,,"01,99,1,00,1,00,1,99999,9,00,1,01,1",,,,,"99999,9,09560,1","6,1,015,1,+999,9",,,,"SYN066AAXX  20154 08272 42970 13104 10233 20016 39560 40142 56015 80001;",
"08272099999","2010-10-20T18:00:00","4","39.8833333","-4.05","516.0","TOLEDO, SP","FM-12","99999","V020","020,1,N,0021,1","22000,1,9,N","020000,1,N,1","+0192,1","-0007,1","10153,1","12,0000,9,1",,,,,,,"01,99,1,00,1,00,1,99999,9,00,1,01,1",,,,"999,M,+0237,1","99999,9,09563,1","3,1,003,1,+999,9",,,,"SYN082AAXX  20184 08272 12970 10204 10192 21007 39563 40153 53003 60002 80001 333 10237;","Q01  00002PRCP12"
"08272099999","2010-10-21T06:00:00","4","39.8833333","-4.05","516.0","TOLEDO, SP","FM-12","99999","V020","220,1,N,0010,1","22000,1,9,N","020000,1,N,1","+0043,1","+0013,1","10223,1","12,0000,9,1","24,0000,9,1",,,,"00,1,+99999,9,99,9",,"00,99,1,00,1,00,1,99999,9,00,1,00,1","0642,9","01,9","999,+0000,9","999,N,+0043,1","99999,9,09598,1","2,1,008,1,+999,9","00,1",,,"SYN106AAXX  21064 08272 11970 02202 10043 20013 39598 40223 52008 60002 700// 333 20043 30100 50314 55107 70000;","Q01  00002PRCP24Q02  00002PRCP12"
"08272099999","2010-10-21T09:00:00","4","39.8833333","-4.05","516.0","TOLEDO, SP","FM-12","99999","V020","090,1,N,0041,1","22000,1,9,N","006000,1,N,1","+0108,1","+0053,1","10226,1",,,,"0,1,03,1","0,1,03,1","00,1,+99999,9,99,9",,"00,99,1,00,1,00,1,99999,9,00,1,00,1",,,,,"99999,9,09615,1","2,1,017,1,+999,9","05,1",,,"SYN066AAXX  21094 08272 41956 00908 10108 20053 39615 40226 52017 70500;",
"08272099999","2010-10-21T12:00:00","4","39.8833333","-4.05","516.0","TOLEDO, SP","FM-12","99999","V020","120,1,N,0041,1","22000,1,9,N","014000,1,N,1","+0177,1","+0066,1","10209,1","06,0000,9,1",,,,,"00,1,+99999,9,99,9",,"00,99,1,00,1,00,1,99999,9,00,1,00,1",,,,,"99999,9,09613,1","8,1,002,1,+999,9",,,,"SYN066AAXX  21124 08272 12964 01208 10177 20066 39613 40209 58002 60001;","Q01  00002PRCP06"
"08272099999","2010-10-21T15:00:00","4","39.8833333","-4.05","516.0","TOLEDO, SP","FM-12","99999","V020","020,1,N,0021,1","22000,1,9,N","030000,1,N,1","+0222,1","+0038,1","10183,1",,,,,,"00,1,+99999,9,99,9",,"00,99,1,00,1,00,1,99999,9,00,1,00,1",,,,,"99999,9,09597,1","6,1,016,1,+999,9",,,,"SYN060AAXX  21154 08272 42980 00204 10222 20038 39597 40183 56016;",
"08272099999","2010-10-21T18:00:00","4","39.8833333","-4.05","516.0","TOLEDO, SP","FM-12","99999","V020","080,1,N,0021,1","22000,1,9,N","020000,1,N,1","+0178,1","+0022,1","10191,1","12,0000,9,1",,,,,"00,1,+99999,9,99,9",,"00,99,1,00,1,00,1,99999,9,00,1,00,1",,,,"999,M,+0230,1","99999,9,09596,1","5,1,001,1,+999,9",,,,"SYN076AAXX  21184 08272 12970 00804 10178 20022 39596 40191 55001 60002 333 10230;","Q01  00002PRCP12"
"08272099999","2010-10-22T06:00:00","4","39.8833333","-4.05","516.0","TOLEDO, SP","FM-12","99999","V020","120,1,N,0015,1","22000,1,9,N","020000,1,N,1","+0065,1","+0040,1","10226,1","12,0000,9,1","24,0000,9,1",,,,"00,1,+99999,9,99,9",,"00,99,1,00,1,00,1,99999,9,00,1,00,1","0624,9","01,9","999,+0020,9","999,N,+0060,1","99999,9,09606,1","3,1,003,1,+999,9","00,1",,,"SYN106AAXX  22064 08272 11970 01203 10065 20040 39606 40226 53003 60002 700// 333 20060 30002 50294 55104 70000;","Q01  00002PRCP24Q02  00002PRCP12"
"08272099999","2010-10-22T09:00:00","4","39.8833333","-4.05","516.0","TOLEDO, SP","FM-12","99999","V020","110,1,N,0046,1","00210,1,9,N","004000,1,N,1","+0094,1","+0072,1","10231,1",,,,"4,1,03,1","4,1,03,1",,,"07,99,1,07,1,06,1,00250,1,99,9,99,9",,,,,"99999,9,09617,1","2,1,011,1,+999,9","28,1",,,"SYN072AAXX  22094 08272 41340 71109 10094 20072 39617 40231 52011 72844 876//;",
"08272099999","2010-10-22T12:00:00","4","39.8833333","-4.05","516.0","TOLEDO, SP","FM-12","99999","V020","120,1,N,0026,1","09000,1,9,N","015000,1,N,1","+0157,1","+0082,1","10211,1","06,0000,9,1",,,"4,1,06,1","2,1,06,1",,,"07,99,1,03,1,00,1,02250,1,03,1,08,1",,,,,"99999,9,09611,1","8,1,006,1,+999,9","02,1",,,"SYN078AAXX  22124 08272 11865 71205 10157 20082 39611 40211 58006 60001 70242 83038;","Q01  00002PRCP06"
"08272099999","2010-10-22T15:00:00","4","39.8833333","-4.05","516.0","TOLEDO, SP","FM-12","99999","V020","280,1,N,0010,1","09000,1,9,N","016000,1,N,1","+0195,1","+0073,1","10180,1",,,,,,,,"07,99,1,02,1,00,1,02250,1,03,1,08,1",,,,,"99999,9,09590,1","6,1,021,1,+999,9",,,,"SYN066AAXX  22154 08272 42866 72802 10195 20073 39590 40180 56021 82038;",
"08272099999","2010-10-22T18:00:00","4","39.8833333","-4.05","516.0","TOLEDO, SP","FM-12","99999","V020","999,9,C,0000,1","02100,1,9,N","015000,1,N,1","+0168,1","+0077,1","10182,1","12,0000,9,1",,,,,,,"07,99,1,05,1,00,1,02250,1,07,1,08,1",,,,"999,M,+0208,1","99999,9,09586,1","5,1,004,1,+999,9",,,,"SYN082AAXX  22184 08272 12865 70000 10168 20077 39586 40182 55004 60002 85078 333 10208;","Q01  00002PRCP12"
"08272099999","2010-10-25T06:00:00","4","39.8833333","-4.05","516.0","TOLEDO, SP","FM-12","99999","V020","180,1,N,0015,1","03600,1,9,N","040000,1,N,1","+0130,1","+0087,1","10172,1","12,0000,9,1","24,0000,9,1",,,,,,"07,99,1,04,1,05,1,00800,1,03,1,01,1","0576,9","01,9","999,+0100,9","999,N,+0126,1","99999,9,09569,1","1,1,007,1,+999,9","02,1",,,"SYN106AAXX  25064 08272 11582 71803 10130 20087 39569 40172 51007 60002 702// 84531 333 20126 30010 55096 70000;","Q01  00002PRCP24Q02  00002PRCP12"
"08272099999","2010-10-25T09:00:00","4","39.8833333","-4.05","516.0","TOLEDO, SP","FM-12","99999","V020","090,1,N,0021,1","03600,1,9,N","040000,1,N,1","+0159,1","+0071,1","10191,1",,,,,,,,"06,99,1,01,1,05,1,00800,1,03,1,01,1",,,,,"99999,9,09593,1","3,1,024,1,+999,9",,,,"SYN066AAXX  25094 08272 42582 60904 10159 20071 39593 40191 53024 81531;",
"08272099999","2010-10-25T12:00:00","4","39.8833333","-4.05","516.0","TOLEDO, SP","FM-12","99999","V020","360,1,N,0046,1","22000,1,9,N","040000,1,N,1","+0176,1","+0016,1","10196,1","06,0000,9,1",,,,,,,"06,99,1,01,1,05,1,00800,1,00,1,01,1",,,,,"99999,9,09600,1","1,1,007,1,+999,9",,,,"SYN072AAXX  25124 08272 12582 63609 10176 20016 39600 40196 51007 60001 81501;","Q01  00002PRCP06"
"08272099999","2010-10-25T15:00:00","4","39.8833333","-4.05","516.0","TOLEDO, SP","FM-12","99999","V020","360,1,N,0031,1","22000,1,9,N","060000,1,N,1","+0191,1","+0016,1","10191,1",,,,,,,,"01,99,1,01,1,04,1,00800,1,00,1,00,1",,,,,"99999,9,09598,1","5,1,002,1,+999,9",,,,"SYN066AAXX  25154 08272 42586 13606 10191 20016 39598 40191 55002 81400;",
"08272099999","2010-10-25T18:00:00","4","39.8833333","-4.05","516.0","TOLEDO, SP","FM-12","99999","V020","060,1,N,0036,1","22000,1,9,N","060000,1,N,1","+0141,1","-0011,1","10221,1","12,0000,9,1",,,,,,,"01,99,1,01,1,00,1,02250,1,03,1,00,1",,,,"999,M,+0193,1","99999,9,09616,1","3,1,018,1,+999,9",,,,"SYN082AAXX  25184 08272 12886 10607 10141 21011 39616 40221 53018 60002 81030 333 10193;","Q01  00002PRCP12"
"08272099999","2010-10-26T06:00:00","4","39.8833333","-4.05","516.0","TOLEDO, SP","FM-12","99999","V020","100,1,N,0026,1","22000,1,9,N","060000,1,N,1","+0026,1","-0029,1","10275,1","12,0000,9,1","24,0000,9,1",,,,,,"01,99,1,01,1,00,1,02250,1,03,1,00,1","0570,9","01,9","999,-0020,9","999,N,+0024,1","99999,9,09643,1","6,1,005,1,+999,9","02,1",,,"SYN112AAXX  26064 08272 11886 11005 10026 21029 39643 40275 56005 60002 702// 81030 333 20024 30102 50364 55095 70000;","Q01  00002PRCP24Q02  00002PRCP12"
"08272099999","2010-10-26T09:00:00","4","39.8833333","-4.05","516.0","TOLEDO, SP","FM-12","99999","V020","110,1,N,0026,1","22000,1,9,N","030000,1,N,1","+0081,1","-0034,1","10273,1",,,,,,,,"02,99,1,00,1,00,1,99999,9,00,1,01,1",,,,,"99999,9,09653,1","1,1,010,1,+999,9",,,,"SYN066AAXX  26094 08272 42980 21105 10081 21034 39653 40273 51010 80001;",
"08272099999","2010-10-26T12:00:00","4","39.8833333","-4.05","516.0","TOLEDO, SP","FM-12","99999","V020","280,1,N,0026,1","22000,1,9,N","040000,1,N,1","+0158,1","-0053,1","10249,1","06,0000,9,1",,,,,,,"04,99,1,00,1,00,1,99999,9,00,1,01,1",,,,,"99999,9,09646,1","8,1,007,1,+999,9",,,,"SYN072AAXX  26124 08272 12982 42805 10158 21053 39646 40249 58007 60001 80001;","Q01  00002PRCP06"
"08272099999","2010-10-26T15:00:00","4","39.8833333","-4.05","516.0","TOLEDO, SP","FM-12","99999","V020","270,1,N,0051,1","22000,1,9,N","045000,1,N,1","+0202,1","-0091,1","10230,1",,,,,,,,"04,99,1,00,1,00,1,99999,9,00,1,01,1",,,,,"99999,9,09636,1","7,1,010,1,+999,9",,,,"SYN066AAXX  26154 08272 42983 42710 10202 21091 39636 40230 57010 80001;",
"08272099999","2010-10-26T18:00:00","4","39.8833333","-4.05","516.0","TOLEDO, SP","FM-12","99999","V020","290,1,N,0031,1","22000,1,9,N","060000,1,N,1","+0155,1","-0073,1","10241,1","12,0000,9,1",,,,,,,"02,99,1,00,1,00,1,99999,9,00,1,01,1",,,,"999,M,+0205,1","99999,9,09638,1","3,1,002,1,+999,9",,,,"SYN082AAXX  26184 08272 12986 22906 10155 21073 39638 40241 53002 60002 80001 333 10205;","Q01  00002PRCP12"
"08272099999","2010-10-27T06:00:00","4","39.8833333","-4.05","516.0","TOLEDO, SP","FM-12","99999","V020","999,9,C,0000,1","22000,1,9,N","060000,1,N,1","+0035,1","-0044,1","10285,1","12,0000,9,1","24,0000,9,1",,,,,,"03,99,1,00,1,00,1,99999,9,00,1,01,1","0612,9","01,9","999,-0010,9","999,N,+0030,1","99999,9,09654,1","3,1,004,1,+999,9","02,1",,,"SYN112AAXX  27064 08272 11986 30000 10035 21044 39654 40285 53004 60002 702// 80001 333 20030 30101 50424 55102 70000;","Q01  00002PRCP24Q02  00002PRCP12"
"08272099999","2010-10-27T09:00:00","4","39.8833333","-4.05","516.0","TOLEDO, SP","FM-12","99999","V020","130,1,N,0021,1","22000,1,9,N","020000,1,N,1","+0087,1","-0045,1","10287,1",,,,,,,,"01,99,1,00,1,00,1,99999,9,00,1,05,1",,,,,"99999,9,09667,1","2,1,013,1,+999,9",,,,"SYN066AAXX  27094 08272 42970 11304 10087 21045 39667 40287 52013 80005;",
"08272099999","2010-10-27T12:00:00","4","39.8833333","-4.05","516.0","TOLEDO, SP","FM-12","99999","V020","170,1,N,0021,1","99999,9,9,N","035000,1,N,1","+0180,1","-0028,1","10255,1","06,0000,9,1",,,,,,,"05,99,1,00,1,00,1,99999,9,00,1,01,1",,,,,"99999,9,09656,1","8,1,011,1,+999,9",,,,"SYN072AAXX  27124 08272 12981 51704 10180 21028 39656 40255 58011 60001 80001;","Q01  00002PRCP06"
"08272099999","2010-10-27T15:00:00","4","39.8833333","-4.05","516.0","TOLEDO, SP","FM-12","99999","V020","320,1,N,0031,1","22000,1,9,N","035000,1,N,1","+0225,1","-0094,1","10228,1",,,,,,,,"04,99,1,00,1,00,1,99999,9,00,1,01,1",,,,,"99999,9,09639,1","6,1,017,1,+999,9",,,,"SYN066AAXX  27154 08272 42981 43206 10225 21094 39639 40228 56017 80001;",
"08272099999","2010-10-27T18:00:00","4","39.8833333","-4.05","516.0","TOLEDO, SP","FM-12","99999","V020","170,1,N,0010,1","22000,1,9,N","060000,1,N,1","+0182,1","-0051,1","10237,1","12,0000,9,1",,,,,,,"05,99,1,02,1,00,1,02250,1,07,1,01,1",,,,"999,M,+0231,1","99999,9,09639,1","5,1,000,1,+999,9",,,,"SYN082AAXX  27184 08272 12886 51702 10182 21051 39639 40237 55000 60002 82071 333 10231;","Q01  00002PRCP12"
"08272099999","2010-10-28T06:00:00","4","39.8833333","-4.05","516.0","TOLEDO, SP","FM-12","99999","V020","999,9,C,0000,1","09000,1,9,N","030000,1,N,1","+0080,1","-0018,1","10255,1","12,0000,9,1","24,0000,9,1",,,,,,"07,99,1,02,1,00,1,02250,1,03,1,08,1","0606,9","01,9","999,+0050,9","999,N,+0077,1","99999,9,09636,1","6,1,001,1,+999,9","02,1",,,"SYN112AAXX  28064 08272 11880 70000 10080 21018 39636 40255 56001 60002 702// 82038 333 20077 30005 50404 55101 70000;","Q01  00002PRCP24Q02  00002PRCP12"
"08272099999","2010-10-28T09:00:00","4","39.8833333","-4.05","516.0","TOLEDO, SP","FM-12","99999","V020","100,1,N,0015,1","09000,1,9,N","035000,1,N,1","+0112,1","-0012,1","10258,1",,,,,,,,"08,99,1,01,1,00,1,02250,1,03,1,07,1",,,,,"99999,9,09645,1","3,1,009,1,+999,9",,,,"SYN066AAXX  28094 08272 42881 81003 10112 21012 39645 40258 53009 81037;",
"08272099999","2010-10-28T12:00:00","4","39.8833333","-4.05","516.0","TOLEDO, SP","FM-12","99999","V020","090,1,N,0026,1","09000,1,9,N","020000,1,N,1","+0181,1","-0022,1","10225,1","06,0000,9,1",,,,,,,"07,99,1,01,1,00,1,02250,1,03,1,08,1",,,,,"99999,9,09628,1","8,1,017,1,+999,9",,,,"SYN072AAXX  28124 08272 12870 70905 10181 21022 39628 40225 58017 60001 81038;","Q01  00002PRCP06"
"08272099999","2010-10-28T15:00:00","4","39.8833333","-4.05","516.0","TOLEDO, SP","FM-12","99999","V020","240,1,N,0010,1","09000,1,9,N","015000,1,N,1","+0206,1","+0029,1","10200,1",,,,,,,,"07,99,1,04,1,00,1,02250,1,07,1,08,1",,,,,"99999,9,09610,1","6,1,018,1,+999,9",,,,"SYN066AAXX  28154 08272 42865 72402 10206 20029 39610 40200 56018 84078;",
"08272099999","2010-10-28T18:00:00","4","39.8833333","-4.05","516.0","TOLEDO, SP","FM-12","99999","V020","999,9,C,0000,1","02100,1,9,N","030000,1,N,1","+0174,1","-0023,1","10200,1","12,0000,9,1",,,,,,,"07,99,1,05,1,00,1,02250,1,07,1,08,1",,,,"999,M,+0216,1","99999,9,09603,1","6,1,007,1,+999,9",,,,"SYN082AAXX  28184 08272 12880 70000 10174 21023 39603 40200 56007 60002 85078 333 10216;","Q01  00002PRCP12"
"08272099999","2010-10-29T06:00:00","4","39.8833333","-4.05","516.0","TOLEDO, SP","FM-12","99999","V020","999,9,C,0000,1","09000,1,9,N","040000,1,N,1","+0094,1","+0011,1","10165,1","12,0000,9,1","24,0000,9,1",,,,,,"07,99,1,04,1,00,1,02250,1,07,1,08,1","0168,9","01,9","999,+0060,9","999,N,+0087,1","99999,9,09554,1","7,1,012,1,+999,9","02,1",,,"SYN112AAXX  29064 08272 11882 70000 10094 20011 39554 40165 57012 60002 702// 84078 333 20087 30006 50334 55028 70000;","Q01  00002PRCP24Q02  00002PRCP12"
"08272099999","2010-10-29T09:00:00","4","39.8833333","-4.05","516.0","TOLEDO, SP","FM-12","99999","V020","190,1,N,0041,1","22000,1,9,N","020000,1,N,1","+0164,1","+0038,1","10149,1",,,,,,,,"06,99,1,01,1,00,1,02250,1,03,1,06,1",,,,,"99999,9,09554,1","5,1,000,1,+999,9",,,,"SYN066AAXX  29094 08272 42870 61908 10164 20038 39554 40149 55000 81036;",
"08272099999","2010-10-29T12:00:00","4","39.8833333","-4.05","516.0","TOLEDO, SP","FM-12","99999","V020","200,1,N,0046,1","09000,1,9,N","035000,1,N,1","+0210,1","+0054,1","10115,1","06,0000,9,1",,,,,,,"07,99,1,01,1,00,1,02250,1,03,1,08,1",,,,,"99999,9,09531,1","7,1,023,1,+999,9",,,,"SYN072AAXX  29124 08272 12881 72009 10210 20054 39531 40115 57023 60001 81038;","Q01  00002PRCP06"
"08272099999","2010-10-29T15:00:00","4","39.8833333","-4.05","516.0","TOLEDO, SP","FM-12","99999","V020","230,1,N,0062,1","03600,1,9,N","035000,1,N,1","+0209,1","+0061,1","10082,1",,,,,,,,"08,99,1,04,1,05,1,00800,1,01,1,06,1",,,,,"99999,9,09500,1","7,1,031,1,+999,9",,,,"SYN066AAXX  29154 08272 42581 82312 10209 20061 39500 40082 57031 84516;",
"08272099999","2010-10-29T18:00:00","4","39.8833333","-4.05","516.0","TOLEDO, SP","FM-12","99999","V020","290,1,N,0062,1","03600,1,9,N","007000,1,N,1","+0104,1","+0095,1","10131,1","12,0061,9,1",,,"6,1,06,1","2,1,06,1",,,"08,99,1,03,1,07,1,00250,1,02,1,99,9",,,,"999,M,+0218,1","99999,9,09526,1","1,1,026,1,+999,9","63,1",,,"SYN088AAXX  29184 08272 11357 82912 10104 20095 39526 40131 51026 60062 76362 8372/ 333 10218;",
"08272099999","2010-11-01T06:00:00","4","39.8833333","-4.05","516.0","TOLEDO, SP","FM-12","99999","V020","270,1,N,0041,1","22000,1,9,N","020000,1,N,1","+0094,1","+0048,1","10132,1","12,0000,9,1","24,0000,9,1",,,,,,"03,99,1,02,1,05,1,00800,1,03,1,00,1","0210,9","01,9","999,+0060,9","999,N,+0089,1","99999,9,09524,1","3,1,018,1,+999,9","02,1",,,"SYN106AAXX  01064 08272 11570 32708 10094 20048 39524 40132 53018 60002 702// 82530 333 20089 30006 55035 70000;","Q01  00002PRCP24Q02  00002PRCP12"
"08272099999","2010-11-01T09:00:00","4","39.8833333","-4.05","516.0","TOLEDO, SP","FM-12","99999","V020","260,1,N,0036,1","22000,1,9,N","060000,1,N,1","+0123,1","+0059,1","10158,1",,,,,,,,"03,99,1,03,1,05,1,00800,1,03,1,00,1",,,,,"99999,9,09554,1","2,1,030,1,+999,9",,,,"SYN066AAXX  01094 08272 42586 32607 10123 20059 39554 40158 52030 83530;",
"08272099999","2010-11-01T12:00:00","4","39.8833333","-4.05","516.0","TOLEDO, SP","FM-12","99999","V020","340,1,N,0093,1","22000,1,9,N","060000,1,N,1","+0166,1","+0056,1","10151,1","06,0000,9,1",,,,,,,"03,99,1,03,1,05,1,00800,1,00,1,01,1",,,,,"99999,9,09556,1","0,1,002,1,+999,9",,,,"SYN072AAXX  01124 08272 12586 33418 10166 20056 39556 40151 50002 60001 83501;","Q01  00002PRCP06"
"08272099999","2010-11-01T15:00:00","4","39.8833333","-4.05","516.0","TOLEDO, SP","FM-12","99999","V020","350,1,N,0087,1","00750,1,9,N","050000,1,N,1","+0169,1","+0049,1","10154,1",,,,,,,,"05,99,1,05,1,05,1,00800,1,03,1,01,1",,,,,"99999,9,09560,1","3,1,004,1,+999,9",,,,"SYN066AAXX  01154 08272 42584 53517 10169 20049 39560 40154 53004 85531;",
"08272099999","2010-11-01T18:00:00","4","39.8833333","-4.05","516.0","TOLEDO, SP","FM-12","99999","V020","320,1,N,0005,1","22000,1,9,N","020000,1,N,1","+0147,1","+0075,1","10176,1","12,0000,9,1",,,,,,,"03,99,1,02,1,05,1,00800,1,03,1,00,1",,,,"999,M,+0185,1","99999,9,09576,1","3,1,016,1,+999,9",,,,"SYN082AAXX  01184 08272 12570 33201 10147 20075 39576 40176 53016 60002 82530 333 10185;","Q01  00002PRCP12"
"08272099999","2010-11-02T06:00:00","4","39.8833333","-4.05","516.0","TOLEDO, SP","FM-12","99999","V020","999,9,C,0000,1","22000,1,9,N","020000,1,N,1","+0091,1","+0057,1","10222,1","12,0000,9,1","24,0000,9,1",,,,"00,1,+99999,9,99,9",,"00,99,1,00,1,00,1,99999,9,00,1,00,1","0540,9","09,9","999,+0040,9","999,N,+0089,1","99999,9,09608,1","3,1,008,1,+999,9","00,1",,,"SYN106AAXX  02064 08272 11970 00000 10091 20057 39608 40222 53008 60002 700// 333 20089 31004 50304 55090 70000;","Q01  00002PRCP24Q02  00002PRCP12"
"08272099999","2010-11-02T09:00:00","4","39.8833333","-4.05","516.0","TOLEDO, SP","FM-12","99999","V020","170,1,N,0015,1","22000,1,9,N","050000,1,N,1","+0129,1","+0067,1","10235,1",,,,,,"00,1,+99999,9,99,9",,"00,99,1,00,1,00,1,99999,9,00,1,00,1",,,,,"99999,9,09628,1","2,1,020,1,+999,9",,,,"SYN060AAXX  02094 08272 42984 01703 10129 20067 39628 40235 52020;",
"08272099999","2010-11-02T12:00:00","4","39.8833333","-4.05","516.0","TOLEDO, SP","FM-12","99999","V020","210,1,N,0021,1","22000,1,9,N","040000,1,N,1","+0180,1","+0056,1","10214,1","06,0000,9,1",,,,,"00,1,+99999,9,99,9",,"00,99,1,00,1,00,1,99999,9,00,1,00,1",,,,,"99999,9,09618,1","8,1,010,1,+999,9",,,,"SYN066AAXX  02124 08272 12982 02104 10180 20056 39618 40214 58010 60001;","Q01  00002PRCP06"
"08272099999","2010-11-02T15:00:00","4","39.8833333","-4.05","516.0","TOLEDO, SP","FM-12","99999","V020","320,1,N,0062,1","22000,1,9,N","040000,1,N,1","+0196,1","+0056,1","10195,1",,,,,,,,"01,99,1,00,1,00,1,99999,9,00,1,01,1",,,,,"99999,9,09604,1","6,1,014,1,+999,9",,,,"SYN066AAXX  02154 08272 42982 13212 10196 20056 39604 40195 56014 80001;",
"08272099999","2010-11-02T18:00:00","4","39.8833333","-4.05","516.0","TOLEDO, SP","FM-12","99999","V020","350,1,N,0051,1","22000,1,9,N","020000,1,N,1","+0160,1","+0047,1","10210,1","12,0000,9,1",,,,,,,"01,99,1,00,1,00,1,99999,9,00,1,01,1",,,,"999,M,+0200,1","99999,9,09611,1","3,1,007,1,+999,9",,,,"SYN082AAXX  02184 08272 12970 13510 10160 20047 39611 40210 53007 60002 80001 333 10200;","Q01  00002PRCP12"
"08272099999","2010-11-03T06:00:00","4","39.8833333","-4.05","516.0","TOLEDO, SP","FM-12","99999","V020","999,9,C,0000,1","22000,1,9,N","020000,1,N,1","+0069,1","+0054,1","10255,1","12,0000,9,1","24,0000,9,1",,,,"00,1,+99999,9,99,9",,"00,99,1,00,1,00,1,99999,9,00,1,00,1","0606,9","09,9","999,+0030,9","999,N,+0069,1","99999,9,09634,1","2,1,004,1,+999,9","00,1",,,"SYN106AAXX  03064 08272 11970 00000 10069 20054 39634 40255 52004 60002 700// 333 20069 31003 50264 55101 70000;","Q01  00002PRCP24Q02  00002PRCP12"
"08272099999","2010-11-03T09:00:00","4","39.8833333","-4.05","516.0","TOLEDO, SP","FM-12","99999","V020","120,1,N,0031,1","22000,1,9,N","012000,1,N,1","+0106,1","+0062,1","10268,1",,,,,,,,"02,99,1,00,1,00,1,99999,9,00,1,01,1",,,,,"99999,9,09654,1","2,1,020,1,+999,9",,,,"SYN066AAXX  03094 08272 42962 21206 10106 20062 39654 40268 52020 80001;",
"08272099999","2010-11-03T12:00:00","4","39.8833333","-4.05","516.0","TOLEDO, SP","FM-12","99999","V020","190,1,N,0021,1","22000,1,9,N","040000,1,N,1","+0188,1","+0082,1","10245,1","06,0000,9,1",,,,,,,"01,99,1,00,1,00,1,99999,9,00,1,01,1",,,,,"99999,9,09650,1","8,1,004,1,+999,9",,,,"SYN072AAXX  03124 08272 12982 11904 10188 20082 39650 40245 58004 60001 80001;","Q01  00002PRCP06"
"08272099999","2010-11-03T15:00:00","4","39.8833333","-4.05","516.0","TOLEDO, SP","FM-12","99999","V020","240,1,N,0021,1","22000,1,9,N","040000,1,N,1","+0217,1","+0093,1","10231,1",,,,,,,,"03,99,1,00,1,00,1,99999,9,00,1,01,1",,,,,"99999,9,09642,1","6,1,008,1,+999,9",,,,"SYN066AAXX  03154 08272 42982 32404 10217 20093 39642 40231 56008 80001;",
"08272099999","2010-11-03T18:00:00","4","39.8833333","-4.05","516.0","TOLEDO, SP","FM-12","99999","V020","360,1,N,0021,1","22000,1,9,N","020000,1,N,1","+0169,1","+0096,1","10247,1","12,0000,9,1",,,,,,,"02,99,1,00,1,00,1,99999,9,00,1,01,1",,,,"999,M,+0219,1","99999,9,09648,1","3,1,006,1,+999,9",,,,"SYN082AAXX  03184 08272 12970 23604 10169 20096 39648 40247 53006 60002 80001 333 10219;","Q01  00002PRCP12"
"08272099999","2010-11-04T06:00:00","4","39.8833333","-4.05","516.0","TOLEDO, SP","FM-12","99999","V020","999,9,C,0000,1","22000,1,9,N","001500,1,N,1","+0090,1","+0076,1","10295,1","12,0000,9,1","24,0000,9,1",,,,"00,1,+99999,9,99,9",,"00,99,1,00,1,00,1,99999,9,00,1,00,1","0552,9","09,9","999,+0060,9","999,N,+0088,1","99999,9,09677,1","3,1,004,1,+999,9","11,1",,,"SYN106AAXX  04064 08272 11915 00000 10090 20076 39677 40295 53004 60002 711// 333 20088 31006 50204 55092 70000;","Q01  00002PRCP24Q02  00002PRCP12"
"08272099999","2010-11-04T12:00:00","4","39.8833333","-4.05","516.0","TOLEDO, SP","FM-12","99999","V020","120,1,N,0026,1","22000,1,9,N","018000,1,N,1","+0188,1","+0090,1","10287,1","06,0000,9,1",,,,,"00,1,+99999,9,99,9",,"00,99,1,00,1,00,1,99999,9,00,1,00,1",,,,,"99999,9,09689,1","8,1,007,1,+999,9",,,,"SYN066AAXX  04124 08272 12968 01205 10188 20090 39689 40287 58007 60001;","Q01  00002PRCP06"
"08272099999","2010-11-04T15:00:00","4","39.8833333","-4.05","516.0","TOLEDO, SP","FM-12","99999","V020","060,1,N,0021,1","22000,1,9,N","020000,1,N,1","+0222,1","+0087,1","10261,1",,,,,,"00,1,+99999,9,99,9",,"00,99,1,00,1,00,1,99999,9,00,1,00,1",,,,,"99999,9,09671,1","7,1,018,1,+999,9",,,,"SYN060AAXX  04154 08272 42970 00604 10222 20087 39671 40261 57018;",
"08272099999","2010-11-04T18:00:00","4","39.8833333","-4.05","516.0","TOLEDO, SP","FM-12","99999","V020","050,1,N,0021,1","22000,1,9,N","020000,1,N,1","+0194,1","+0081,1","10270,1","12,0000,9,1",,,,,"00,1,+99999,9,99,9",,"00,99,1,00,1,00,1,99999,9,00,1,00,1",,,,"999,M,+0225,1","99999,9,09674,1","3,1,003,1,+999,9",,,,"SYN076AAXX  04184 08272 12970 00504 10194 20081 39674 40270 53003 60002 333 10225;","Q01  00002PRCP12"
"08272099999","2010-11-05T06:00:00","4","39.8833333","-4.05","516.0","TOLEDO, SP","FM-12","99999","V020","010,1,N,0010,1","22000,1,9,N","020000,1,N,1","+0069,1","+0049,1","10293,1","12,0000,9,1","24,0000,9,1",,,,"00,1,+99999,9,99,9",,"00,99,1,00,1,00,1,99999,9,00,1,00,1","0600,9","09,9","999,+0030,9","999,N,+0065,1","99999,9,09670,1","4,1,000,1,+999,9","00,1",,,"SYN106AAXX  05064 08272 11970 00102 10069 20049 39670 40293 54000 60002 700// 333 20065 31003 50194 55100 70000;","Q01  00002PRCP24Q02  00002PRCP12"
"08272099999","2010-11-05T09:00:00","4","39.8833333","-4.05","516.0","TOLEDO, SP","FM-12","99999","V020","140,1,N,0021,1","22000,1,9,N","014000,1,N,1","+0120,1","+0063,1","10294,1",,,,,,"00,1,+99999,9,99,9",,"00,99,1,00,1,00,1,99999,9,00,1,00,1",,,,,"99999,9,09682,1","2,1,012,1,+999,9",,,,"SYN060AAXX  05094 08272 42964 01404 10120 20063 39682 40294 52012;",
"08272099999","2010-11-05T12:00:00","4","39.8833333","-4.05","516.0","TOLEDO, SP","FM-12","99999","V020","120,1,N,0026,1","22000,1,9,N","030000,1,N,1","+0203,1","+0089,1","10268,1","06,0000,9,1",,,,,,,"01,99,1,01,1,00,1,02250,1,03,1,00,1",,,,,"99999,9,09674,1","8,1,008,1,+999,9",,,,"SYN072AAXX  05124 08272 12880 11205 10203 20089 39674 40268 58008 60001 81030;","Q01  00002PRCP06"
"08272099999","2010-11-05T15:00:00","4","39.8833333","-4.05","516.0","TOLEDO, SP","FM-12","99999","V020","120,1,N,0021,1","22000,1,9,N","030000,1,N,1","+0225,1","+0093,1","10242,1",,,,,,,,"01,99,1,01,1,01,1,01250,1,00,1,00,1",,,,,"99999,9,09654,1","6,1,020,1,+999,9",,,,"SYN066AAXX  05154 08272 42680 11204 10225 20093 39654 40242 56020 81100;",
"08272099999","2010-11-05T18:00:00","4","39.8833333","-4.05","516.0","TOLEDO, SP","FM-12","99999","V020","110,1,N,0031,1","22000,1,9,N","020000,1,N,1","+0180,1","+0088,1","10256,1","12,0000,9,1",,,,,,,"01,99,1,01,1,00,1,02250,1,03,1,00,1",,,,"999,M,+0226,1","99999,9,09658,1","3,1,004,1,+999,9",,,,"SYN082AAXX  05184 08272 12870 11106 10180 20088 39658 40256 53004 60002 81030 333 10226;","Q01  00002PRCP12"
"08272099999","2010-11-08T06:00:00","4","39.8833333","-4.05","516.0","TOLEDO, SP","FM-12","99999","V020","290,1,N,0041,1","02100,1,9,N","040000,1,N,1","+0071,1","+0039,1","10058,1","12,0000,9,1","24,0000,9,1",,,,,,"07,99,1,07,1,00,1,02250,1,07,1,01,1","0198,9","01,9","999,+0020,9","999,N,+0059,1","99999,9,09449,1","8,1,021,1,+999,9","02,1",,,"SYN106AAXX  08064 08272 11882 72908 10071 20039 39449 40058 58021 60002 702// 87071 333 20059 30002 55033 70000;","Q01  00002PRCP24Q02  00002PRCP12"
"08272099999","2010-11-08T09:00:00","4","39.8833333","-4.05","516.0","TOLEDO, SP","FM-12","99999","V020","270,1,N,0093,1","22000,1,9,N","050000,1,N,1","+0095,1","+0021,1","10041,1",,,,,,,,"04,99,1,01,1,05,1,00800,1,07,1,08,1",,,,,"99999,9,09438,1","6,1,011,1,+999,9",,,,"SYN066AAXX  08094 08272 42584 42718 10095 20021 39438 40041 56011 81578;",
"08272099999","2010-11-08T12:00:00","4","39.8833333","-4.05","516.0","TOLEDO, SP","FM-12","99999","V020","280,1,N,0113,1","03600,1,9,N","050000,1,N,1","+0129,1","+0048,1","09995,1","06,0000,9,1",,,,,,,"08,99,1,03,1,05,1,00800,1,07,1,08,1",,,,,"99999,9,09402,1","8,1,036,1,+999,9",,,,"SYN072AAXX  08124 08272 12584 82822 10129 20048 39402 49995 58036 60001 83578;","Q01  00002PRCP06"
"08272099999","2010-11-08T15:00:00","4","39.8833333","-4.05","516.0","TOLEDO, SP","FM-12","99999","V020","260,1,N,0093,1","00900,1,9,N","050000,1,N,1","+0126,1","+0073,1","09956,1",,,,,,,,"08,99,1,08,1,08,1,00450,1,99,9,99,9",,,,,"99999,9,09365,1","7,1,037,1,+999,9",,,,"SYN066AAXX  08154 08272 42484 82618 10126 20073 39365 49956 57037 888//;",
"08272099999","2010-11-08T18:00:00","4","39.8833333","-4.05","516.0","TOLEDO, SP","FM-12","99999","V020","270,1,N,0134,1","00420,1,9,N","040000,1,N,1","+0141,1","+0074,1","09943,1","12,0000,9,1",,,,,,,"07,99,1,07,1,05,1,00450,1,00,1,00,1",,,,"999,M,+0144,1","99999,9,09356,1","6,1,009,1,+999,9",,,,"SYN082AAXX  08184 08272 12482 72726 10141 20074 39356 49943 56009 69902 87500 333 10144;","Q01  00002PRCP12"
"08272099999","2010-11-09T06:00:00","4","39.8833333","-4.05","516.0","TOLEDO, SP","FM-12","99999","V020","280,1,N,0129,1","03600,1,9,N","030000,1,N,1","+0124,1","+0073,1","09910,1","12,0000,9,1","24,0000,9,1",,,,,,"08,99,1,04,1,04,1,00450,1,02,1,99,9","0228,9","01,9","999,+0060,9","999,N,+0115,1","99999,9,09322,1","5,1,002,1,+999,9","02,1",,,"SYN112AAXX  09064 08272 11480 82825 10124 20073 39322 49910 55002 69902 702// 8442/ 333 20115 30006 50384 55038 79999;","Q01  00002PRCP24Q02  00002PRCP12"
"08272099999","2010-11-09T09:00:00","4","39.8833333","-4.05","516.0","TOLEDO, SP","FM-12","99999","V020","280,1,N,0087,1","00420,1,9,N","040000,1,N,1","+0119,1","+0078,1","09930,1",,,,"6,1,03,1","2,1,03,1",,,"06,99,1,05,1,05,1,00450,1,07,1,00,1",,,,,"99999,9,09339,1","3,1,017,1,+999,9","02,1",,,"SYN072AAXX  09094 08272 41482 62817 10119 20078 39339 49930 53017 70262 85570;",
"08272099999","2010-11-09T12:00:00","4","39.8833333","-4.05","516.0","TOLEDO, SP","FM-12","99999","V020","290,1,N,0123,1","00420,1,9,N","040000,1,N,1","+0132,1","+0030,1","09929,1","06,0000,9,1",,,"6,1,06,1","2,1,06,1",,,"07,99,1,07,1,04,1,00450,1,07,1,00,1",,,,,"99999,9,09340,1","1,1,001,1,+999,9","02,1",,,"SYN078AAXX  09124 08272 11482 72924 10132 20030 39340 49929 51001 69901 70262 87470;","Q01  00002PRCP06"
"08272099999","2010-11-09T15:00:00","4","39.8833333","-4.05","516.0","TOLEDO, SP","FM-12","99999","V020","280,1,N,0113,1","22000,1,9,N","035000,1,N,1","+0141,1","+0000,1","09932,1",,,,,,,,"04,99,1,04,1,04,1,00450,1,00,1,00,1",,,,,"99999,9,09345,1","1,1,005,1,+999,9",,,,"SYN066AAXX  09154 08272 42481 42822 10141 20000 39345 49932 51005 84400;",
"08272099999","2010-11-09T18:00:00","4","39.8833333","-4.05","516.0","TOLEDO, SP","FM-12","99999","V020","270,1,N,0077,1","22000,1,9,N","040000,1,N,1","+0111,1","+0008,1","09957,1","12,0000,9,1",,,,,,,"01,99,1,01,1,05,1,00800,1,03,1,00,1",,,,"999,M,+0150,1","99999,9,09362,1","1,1,017,1,+999,9",,,,"SYN082AAXX  09184 08272 12582 12715 10111 20008 39362 49957 51017 69912 81530 333 10150;","Q01  00002PRCP12"
"08272099999","2010-11-10T06:00:00","4","39.8833333","-4.05","516.0","TOLEDO, SP","FM-12","99999","V020","280,1,N,0051,1","03600,1,9,N","040000,1,N,1","+0081,1","+0041,1","10042,1","12,0000,9,1","24,0000,9,1",,,,,,"06,99,1,01,1,05,1,00450,1,07,1,00,1","0486,9","01,9","999,+0060,9","999,N,+0079,1","99999,9,09436,1","3,1,023,1,+999,9","02,1",,,"SYN112AAXX  10064 08272 11482 62810 10081 20041 39436 40042 53023 60002 702// 81570 333 20079 30006 50404 55081 79999;","Q01  00002PRCP24Q02  00002PRCP12"
"08272099999","2010-11-10T09:00:00","4","39.8833333","-4.05","516.0","TOLEDO, SP","FM-12","99999","V020","280,1,N,0082,1","22000,1,9,N","035000,1,N,1","+0101,1","+0045,1","10073,1",,,,,,,,"03,99,1,03,1,05,1,00800,1,00,1,00,1",,,,,"99999,9,09470,1","2,1,034,1,+999,9",,,,"SYN066AAXX  10094 08272 42581 32816 10101 20045 39470 40073 52034 83500;",
"08272099999","2010-11-10T12:00:00","4","39.8833333","-4.05","516.0","TOLEDO, SP","FM-12","99999","V020","290,1,N,0072,1","00750,1,9,N","040000,1,N,1","+0142,1","+0008,1","10084,1","06,0000,9,1",,,,,,,"07,99,1,07,1,02,1,00800,1,03,1,00,1",,,,,"99999,9,09488,1","1,1,018,1,+999,9",,,,"SYN072AAXX  10124 08272 12582 72914 10142 20008 39488 40084 51018 60001 87230;","Q01  00002PRCP06"
"08272099999","2010-11-10T15:00:00","4","39.8833333","-4.05","516.0","TOLEDO, SP","FM-12","99999","V020","330,1,N,0041,1","00750,1,9,N","040000,1,N,1","+0131,1","-0002,1","10102,1",,,,,,,,"06,99,1,06,1,04,1,00800,1,00,1,00,1",,,,,"99999,9,09503,1","3,1,015,1,+999,9",,,,"SYN066AAXX  10154 08272 42582 63308 10131 21002 39503 40102 53015 86400;",
"08272099999","2010-11-10T18:00:00","4","39.8833333","-4.05","516.0","TOLEDO, SP","FM-12","99999","V020","340,1,N,0036,1","22000,1,9,N","040000,1,N,1","+0115,1","-0009,1","10144,1","12,0000,9,1",,,,,,,"03,99,1,03,1,04,1,00800,1,00,1,00,1",,,,"999,M,+0145,1","99999,9,09539,1","3,1,036,1,+999,9",,,,"SYN082AAXX  10184 08272 12582 33407 10115 21009 39539 40144 53036 60002 83400 333 10145;","Q01  00002PRCP12"
"08272099999","2010-11-11T06:00:00","4","39.8833333","-4.05","516.0","TOLEDO, SP","FM-12","99999","V020","999,9,C,0000,1","22000,1,9,N","040000,1,N,1","+0045,1","-0001,1","10234,1","12,0000,9,1","24,0000,9,1",,,,,,"01,99,1,01,1,00,1,02250,1,03,1,01,1","0384,9","01,9","999,-0010,9","999,N,+0042,1","99999,9,09609,1","2,1,012,1,+999,9","02,1",,,"SYN112AAXX  11064 08272 11882 10000 10045 21001 39609 40234 52012 60002 702// 81031 333 20042 30101 50304 55064 70000;","Q01  00002PRCP24Q02  00002PRCP12"
"08272099999","2010-11-11T18:00:00","4","39.8833333","-4.05","516.0","TOLEDO, SP","FM-12","99999","V020","280,1,N,0036,1","22000,1,9,N","040000,1,N,1","+0120,1","+0056,1","10244,1","12,0000,9,1",,,,,,,"02,99,1,01,1,00,1,02250,1,03,1,01,1",,,,"999,M,+0158,1","99999,9,09635,1","2,1,012,1,+999,9",,,,"SYN082AAXX  11184 08272 12882 22807 10120 20056 39635 40244 52012 60002 81031 333 10158;","Q01  00002PRCP12"
"08272099999","2010-11-12T06:00:00","4","39.8833333","-4.05","516.0","TOLEDO, SP","FM-12","99999","V020","180,1,N,0005,1","22000,1,9,N","020000,1,N,1","+0057,1","+0043,1","10263,1","12,0000,9,1","24,0000,9,1",,,,,,"01,99,1,01,1,00,1,01750,1,03,1,01,1","0420,9","01,9","999,+0020,9","999,N,+0055,1","99999,9,09639,1","3,1,002,1,+999,9","02,1",,,"SYN112AAXX  12064 08272 11770 11801 10057 20043 39639 40263 53002 60002 702// 81031 333 20055 30002 50194 55070 70000;","Q01  00002PRCP24Q02  00002PRCP12"
"08272099999","2010-11-12T09:00:00","4","39.8833333","-4.05","516.0","TOLEDO, SP","FM-12","99999","V020","260,1,N,0021,1","22000,1,9,N","030000,1,N,1","+0104,1","+0069,1","10259,1",,,,,,,,"03,99,1,03,1,00,1,02250,1,03,1,01,1",,,,,"99999,9,09646,1","3,1,007,1,+999,9",,,,"SYN066AAXX  12094 08272 42880 32604 10104 20069 39646 40259 53007 83031;",
"08272099999","2010-11-12T12:00:00","4","39.8833333","-4.05","516.0","TOLEDO, SP","FM-12","99999","V020","300,1,N,0026,1","22000,1,9,N","035000,1,N,1","+0159,1","+0079,1","10236,1","06,0000,9,1",,,,,,,"03,99,1,00,1,00,1,99999,9,00,1,01,1",,,,,"99999,9,09635,1","8,1,011,1,+999,9",,,,"SYN072AAXX  12124 08272 12981 33005 10159 20079 39635 40236 58011 60001 80001;","Q01  00002PRCP06"
"08272099999","2010-11-12T15:00:00","4","39.8833333","-4.05","516.0","TOLEDO, SP","FM-12","99999","V020","260,1,N,0015,1","22000,1,9,N","035000,1,N,1","+0187,1","+0078,1","10203,1",,,,,,,,"04,99,1,00,1,00,1,99999,9,00,1,01,1",,,,,"99999,9,09610,1","7,1,025,1,+999,9",,,,"SYN066AAXX  12154 08272 42981 42603 10187 20078 39610 40203 57025 80001;",
"08272099999","2010-11-12T18:00:00","4","39.8833333","-4.05","516.0","TOLEDO, SP","FM-12","99999","V020","320,1,N,0015,1","22000,1,9,N","040000,1,N,1","+0137,1","+0079,1","10209,1","12,0000,9,1",,,,,,,"03,99,1,00,1,00,1,99999,9,00,1,01,1",,,,"999,M,+0190,1","99999,9,09605,1","6,1,005,1,+999,9",,,,"SYN082AAXX  12184 08272 12982 33203 10137 20079 39605 40209 56005 60002 80001 333 10190;","Q01  00002PRCP12"
"08272099999","2010-11-15T06:00:00","4","39.8833333","-4.05","516.0","TOLEDO, SP","FM-12","99999","V020","320,1,N,0015,1","22000,1,9,N","020000,1,N,1","+0045,1","+0019,1","10193,1","12,0000,9,1","24,0066,9,1",,,,,,"01,99,1,01,1,01,1,01250,1,03,1,00,1","0012,9","09,9","999,+0010,9","999,N,+0045,1","99999,9,09570,1","3,1,018,1,+999,9","02,1",,,"SYN106AAXX  15064 08272 11670 13203 10045 20019 39570 40193 53018 69922 702// 81130 333 20045 31001 55002 70066;","Q01  00002PRCP12"
"08272099999","2010-11-15T09:00:00","4","39.8833333","-4.05","516.0","TOLEDO, SP","FM-12","99999","V020","260,1,N,0010,1","22000,1,9,N","060000,1,N,1","+0066,1","+0021,1","10216,1",,,,,,,,"01,99,1,01,1,04,1,00800,1,00,1,00,1",,,,,"99999,9,09596,1","2,1,026,1,+999,9",,,,"SYN066AAXX  15094 08272 42586 12602 10066 20021 39596 40216 52026 81400;",
"08272099999","2010-11-15T12:00:00","4","39.8833333","-4.05","516.0","TOLEDO, SP","FM-12","99999","V020","280,1,N,0057,1","22000,1,9,N","040000,1,N,1","+0110,1","+0018,1","10213,1","06,0000,9,1",,,,,,,"01,99,1,01,1,01,1,00800,1,00,1,00,1",,,,,"99999,9,09603,1","0,1,007,1,+999,9",,,,"SYN072AAXX  15124 08272 12582 12811 10110 20018 39603 40213 50007 60001 81100;","Q01  00002PRCP06"
"08272099999","2010-11-15T15:00:00","4","39.8833333","-4.05","516.0","TOLEDO, SP","FM-12","99999","V020","290,1,N,0077,1","22000,1,9,N","050000,1,N,1","+0125,1","+0006,1","10209,1",,,,,,,,"02,99,1,02,1,04,1,00800,1,00,1,00,1",,,,,"99999,9,09602,1","5,1,001,1,+999,9",,,,"SYN066AAXX  15154 08272 42584 22915 10125 20006 39602 40209 55001 82400;",
"08272099999","2010-11-15T18:00:00","4","39.8833333","-4.05","516.0","TOLEDO, SP","FM-12","99999","V020","280,1,N,0041,1","22000,1,9,N","020000,1,N,1","+0095,1","+0026,1","10236,1","12,0000,9,1",,,,,,,"02,99,1,02,1,04,1,00800,1,00,1,00,1",,,,"999,M,+0129,1","99999,9,09621,1","2,1,019,1,+999,9",,,,"SYN082AAXX  15184 08272 12570 22808 10095 20026 39621 40236 52019 60002 82400 333 10129;","Q01  00002PRCP12"
"08272099999","2010-11-16T06:00:00","4","39.8833333","-4.05","516.0","TOLEDO, SP","FM-12","99999","V020","999,9,C,0000,1","22000,1,9,N","020000,1,N,1","+0033,1","+0013,1","10280,1","12,0000,9,1","24,0000,9,1",,,,,,"03,99,1,00,1,00,1,99999,9,00,1,08,1","0576,9","09,9","999,-0010,9","999,N,+0031,1","99999,9,09649,1","6,1,002,1,+999,9","02,1",,,"SYN112AAXX  16064 08272 11970 30000 10033 20013 39649 40280 56002 60002 702// 80008 333 20031 31101 50184 55096 70000;","Q01  00002PRCP24Q02  00002PRCP12"
"08272099999","2010-11-16T09:00:00","4","39.8833333","-4.05","516.0","TOLEDO, SP","FM-12","99999","V020","020,1,N,0010,1","22000,1,9,N","050000,1,N,1","+0068,1","+0025,1","10279,1",,,,,,,,"04,99,1,00,1,00,1,99999,9,00,1,01,1",,,,,"99999,9,09656,1","2,1,007,1,+999,9",,,,"SYN066AAXX  16094 08272 42984 40202 10068 20025 39656 40279 52007 80001;",
"08272099999","2010-11-16T12:00:00","4","39.8833333","-4.05","516.0","TOLEDO, SP","FM-12","99999","V020","300,1,N,0015,1","09000,1,9,N","040000,1,N,1","+0122,1","+0032,1","10254,1","06,0000,9,1",,,,,,,"05,99,1,01,1,01,1,00800,1,00,1,02,1",,,,,"99999,9,09644,1","8,1,012,1,+999,9",,,,"SYN072AAXX  16124 08272 12582 53003 10122 20032 39644 40254 58012 60001 81102;","Q01  00002PRCP06"
"08272099999","2010-11-16T15:00:00","4","39.8833333","-4.05","516.0","TOLEDO, SP","FM-12","99999","V020","270,1,N,0026,1","09000,1,9,N","040000,1,N,1","+0140,1","+0013,1","10219,1",,,,,,,,"06,99,1,02,1,00,1,02250,1,03,1,02,1",,,,,"99999,9,09615,1","7,1,029,1,+999,9",,,,"SYN066AAXX  16154 08272 42882 62705 10140 20013 39615 40219 57029 82032;",
"08272099999","2010-11-16T18:00:00","4","39.8833333","-4.05","516.0","TOLEDO, SP","FM-12","99999","V020","310,1,N,0026,1","09000,1,9,N","020000,1,N,1","+0096,1","+0022,1","10214,1","12,0000,9,1",,,,,,,"06,99,1,03,1,00,1,02250,1,07,1,08,1",,,,"999,M,+0143,1","99999,9,09601,1","7,1,014,1,+999,9",,,,"SYN082AAXX  16184 08272 12870 63105 10096 20022 39601 40214 57014 60002 83078 333 10143;","Q01  00002PRCP12"
"08272099999","2010-11-17T06:00:00","4","39.8833333","-4.05","516.0","TOLEDO, SP","FM-12","99999","V020","270,1,N,0021,1","00750,1,9,N","005000,1,N,1","+0070,1","+0056,1","10156,1","12,0030,9,1","24,0033,9,1",,,,,,"08,99,1,08,1,00,1,00800,1,02,1,99,9","0516,9","11,9","999,+0040,9","999,N,+0060,1","99999,9,09541,1","7,1,008,1,+999,9","63,1",,,"SYN112AAXX  17064 08272 11550 82704 10070 20056 39541 40156 57008 60032 763// 8802/ 333 20060 32004 50164 55086 70034;",
"08272099999","2010-11-17T09:00:00","4","39.8833333","-4.05","516.0","TOLEDO, SP","FM-12","99999","V020","999,9,C,0000,1","03600,1,9,N","004000,1,N,1","+0071,1","+0062,1","10151,1",,,,"6,1,03,1","6,1,03,1",,,"08,99,1,04,1,07,1,00150,1,02,1,99,9",,,,,"99999,9,09537,1","7,1,004,1,+999,9","60,1",,,"SYN072AAXX  17094 08272 41240 80000 10071 20062 39537 40151 57004 76066 8472/;",
"08272099999","2010-11-17T12:00:00","4","39.8833333","-4.05","516.0","TOLEDO, SP","FM-12","99999","V020","300,1,N,0041,1","00210,1,9,N","006000,1,N,1","+0088,1","+0074,1","10137,1","06,0041,9,1",,,"6,1,06,1","2,1,06,1",,,"08,99,1,08,1,07,1,00250,1,99,9,99,9",,,,,"99999,9,09528,1","8,1,009,1,+999,9","10,1",,,"SYN078AAXX  17124 08272 11356 83008 10088 20074 39528 40137 58009 60041 71062 887//;",
"08272099999","2010-11-17T15:00:00","4","39.8833333","-4.05","516.0","TOLEDO, SP","FM-12","99999","V020","290,1,N,0051,1","00420,1,9,N","030000,1,N,1","+0106,1","+0075,1","10128,1",,,,"4,1,03,1","2,1,03,1",,,"06,99,1,06,1,05,1,00450,1,00,1,00,1",,,,,"99999,9,09523,1","6,1,005,1,+999,9","02,1",,,"SYN072AAXX  17154 08272 41480 62910 10106 20075 39523 40128 56005 70242 86500;",
"08272099999","2010-11-17T18:00:00","4","39.8833333","-4.05","516.0","TOLEDO, SP","FM-12","99999","V020","300,1,N,0026,1","22000,1,9,N","020000,1,N,1","+0085,1","+0071,1","10147,1","12,0041,9,1",,,"4,1,06,1","1,1,06,1",,,"02,99,1,02,1,05,1,00800,1,00,1,00,1",,,,"999,M,+0111,1","99999,9,09536,1","2,1,013,1,+999,9","01,1",,,"SYN088AAXX  17184 08272 11570 23005 10085 20071 39536 40147 52013 60042 70141 82500 333 10111;",
"08272099999","2010-11-18T06:00:00","4","39.8833333","-4.05","516.0","TOLEDO, SP","FM-12","99999","V020","310,1,N,0010,1","22000,1,9,N","000800,1,N,1","+0031,1","+0016,1","10185,1","12,0000,9,1","24,0041,9,1",,,,"00,1,+99999,9,99,9",,"00,99,1,00,1,00,1,99999,9,00,1,00,1","0072,9","09,9","999,-0020,9","999,N,+0031,1","99999,9,09560,1","3,1,005,1,+999,9","41,1",,,"SYN106AAXX  18064 08272 11908 03102 10031 20016 39560 40185 53005 60002 741// 333 20031 31102 50044 55012 70040;","Q01  00002PRCP12"
"08272099999","2010-11-18T09:00:00","4","39.8833333","-4.05","516.0","TOLEDO, SP","FM-12","99999","V020","360,1,N,0005,1","22000,1,9,N","050000,1,N,1","+0064,1","+0034,1","10192,1",,,,"4,1,03,1","0,1,03,1",,,"03,99,1,00,1,00,1,99999,9,00,1,04,1",,,,,"99999,9,09574,1","1,1,014,1,+999,9","02,1",,,"SYN072AAXX  18094 08272 41984 33601 10064 20034 39574 40192 51014 70240 80004;",
"08272099999","2010-11-18T12:00:00","4","39.8833333","-4.05","516.0","TOLEDO, SP","FM-12","99999","V020","320,1,N,0026,1","22000,1,9,N","040000,1,N,1","+0106,1","+0047,1","10184,1","06,0000,9,1",,,"4,1,06,1","0,1,06,1",,,"02,99,1,01,1,01,1,00800,1,00,1,01,1",,,,,"99999,9,09575,1","0,1,001,1,+999,9","02,1",,,"SYN078AAXX  18124 08272 11582 23205 10106 20047 39575 40184 50001 60001 70240 81101;","Q01  00002PRCP06"
"08272099999","2010-11-18T15:00:00","4","39.8833333","-4.05","516.0","TOLEDO, SP","FM-12","99999","V020","290,1,N,0041,1","09000,1,9,N","040000,1,N,1","+0131,1","+0040,1","10174,1",,,,,,,,"05,99,1,02,1,04,1,00800,1,03,1,01,1",,,,,"99999,9,09571,1","7,1,004,1,+999,9",,,,"SYN066AAXX  18154 08272 42582 52908 10131 20040 39571 40174 57004 82431;",
"08272099999","2010-11-18T18:00:00","4","39.8833333","-4.05","516.0","TOLEDO, SP","FM-12","99999","V020","310,1,N,0010,1","03600,1,9,N","020000,1,N,1","+0099,1","+0039,1","10189,1","12,0000,9,1",,,,,,,"06,99,1,01,1,04,1,00800,1,03,1,08,1",,,,"999,M,+0137,1","99999,9,09578,1","2,1,007,1,+999,9",,,,"SYN082AAXX  18184 08272 12570 63102 10099 20039 39578 40189 52007 60002 81438 333 10137;","Q01  00002PRCP12"
"08272099999","2010-11-19T06:00:00","4","39.8833333","-4.05","516.0","TOLEDO, SP","FM-12","99999","V020","110,1,N,0005,1","02100,1,9,N","010000,1,N,1","+0043,1","+0023,1","10191,1","12,0000,9,1","24,0000,9,1",,,,,,"08,99,1,08,1,00,1,02250,1,07,1,99,9","0558,9","09,9","999,+0020,9","999,N,+0040,1","99999,9,09568,1","5,1,001,1,+999,9","02,1",,,"SYN112AAXX  19064 08272 11860 81101 10043 20023 39568 40191 55001 60002 702// 8807/ 333 20040 31002 50124 55093 70000;","Q01  00002PRCP24Q02  00002PRCP12"
"08272099999","2010-11-19T09:00:00","4","39.8833333","-4.05","516.0","TOLEDO, SP","FM-12","99999","V020","080,1,N,0036,1","00420,1,9,N","008000,1,N,1","+0046,1","+0029,1","10193,1",,,,"2,1,03,1","2,1,03,1",,,"08,99,1,06,1,06,1,00450,1,07,1,99,9",,,,,"99999,9,09571,1","0,1,003,1,+999,9","10,1",,,"SYN072AAXX  19094 08272 41458 80807 10046 20029 39571 40193 50003 71022 8667/;",
"08272099999","2010-11-19T12:00:00","4","39.8833333","-4.05","516.0","TOLEDO, SP","FM-12","99999","V020","130,1,N,0026,1","03600,1,9,N","008000,1,N,1","+0105,1","+0055,1","10168,1","06,0000,9,1",,,"2,1,06,1","2,1,06,1",,,"05,99,1,01,1,01,1,00800,1,03,1,00,1",,,,,"99999,9,09560,1","8,1,011,1,+999,9","10,1",,,"SYN078AAXX  19124 08272 11558 51305 10105 20055 39560 40168 58011 60001 71022 81130;","Q01  00002PRCP06"
"08272099999","2010-11-19T15:00:00","4","39.8833333","-4.05","516.0","TOLEDO, SP","FM-12","99999","V020","310,1,N,0041,1","01200,1,9,N","020000,1,N,1","+0143,1","+0049,1","10150,1",,,,,,,,"06,99,1,05,1,08,1,00800,1,03,1,00,1",,,,,"99999,9,09551,1","6,1,009,1,+999,9",,,,"SYN066AAXX  19154 08272 42570 63108 10143 20049 39551 40150 56009 85830;",
"08272099999","2010-11-19T18:00:00","4","39.8833333","-4.05","516.0","TOLEDO, SP","FM-12","99999","V020","290,1,N,0021,1","01200,1,9,N","020000,1,N,1","+0096,1","+0060,1","10174,1","12,0000,9,1",,,,,,,"07,99,1,05,1,05,1,01250,1,03,1,99,9",,,,"999,M,+0148,1","99999,9,09564,1","2,1,013,1,+999,9",,,,"SYN082AAXX  19184 08272 12670 72904 10096 20060 39564 40174 52013 60002 8553/ 333 10148;","Q01  00002PRCP12"
"08272099999","2010-11-22T06:00:00","4","39.8833333","-4.05","516.0","TOLEDO, SP","FM-12","99999","V020","300,1,N,0021,1","22000,1,9,N","035000,1,N,1","+0047,1","+0021,1","10114,1","12,0010,9,1","24,0025,9,1",,,,,,"03,99,1,03,1,00,1,01750,1,03,1,00,1","0384,9","09,9","999,+0010,9","999,N,+0045,1","99999,9,09497,1","3,1,005,1,+999,9","02,1",,,"SYN106AAXX  22064 08272 11781 33004 10047 20021 39497 40114 53005 69992 702// 83030 333 20045 31001 55064 70026;",
"08272099999","2010-11-22T09:00:00","4","39.8833333","-4.05","516.0","TOLEDO, SP","FM-12","99999","V020","280,1,N,0041,1","22000,1,9,N","040000,1,N,1","+0065,1","+0028,1","10125,1",,,,,,,,"01,99,1,01,1,02,1,00450,1,00,1,01,1",,,,,"99999,9,09511,1","2,1,014,1,+999,9",,,,"SYN066AAXX  22094 08272 42482 12808 10065 20028 39511 40125 52014 81201;",
"08272099999","2010-11-22T12:00:00","4","39.8833333","-4.05","516.0","TOLEDO, SP","FM-12","99999","V020","290,1,N,0041,1","22000,1,9,N","050000,1,N,1","+0102,1","+0033,1","10114,1","06,0000,9,1",,,,,,,"04,99,1,04,1,02,1,00450,1,00,1,00,1",,,,,"99999,9,09508,1","8,1,003,1,+999,9",,,,"SYN072AAXX  22124 08272 12484 42908 10102 20033 39508 40114 58003 60001 84200;","Q01  00002PRCP06"
"08272099999","2010-11-22T15:00:00","4","39.8833333","-4.05","516.0","TOLEDO, SP","FM-12","99999","V020","300,1,N,0036,1","03600,1,9,N","040000,1,N,1","+0107,1","+0030,1","10109,1",,,,,,,,"06,99,1,04,1,02,1,00450,1,03,1,00,1",,,,,"99999,9,09505,1","6,1,003,1,+999,9",,,,"SYN066AAXX  22154 08272 42482 63007 10107 20030 39505 40109 56003 84230;",
"08272099999","2010-11-22T18:00:00","4","39.8833333","-4.05","516.0","TOLEDO, SP","FM-12","99999","V020","270,1,N,0036,1","00420,1,9,N","035000,1,N,1","+0087,1","+0023,1","10122,1","12,0000,9,1",,,,,,,"07,99,1,07,1,05,1,00450,1,00,1,01,1",,,,"999,M,+0123,1","99999,9,09513,1","3,1,008,1,+999,9",,,,"SYN082AAXX  22184 08272 12481 72707 10087 20023 39513 40122 53008 60002 87501 333 10123;","Q01  00002PRCP12"
"08272099999","2010-11-23T06:00:00","4","39.8833333","-4.05","516.0","TOLEDO, SP","FM-12","99999","V020","999,9,C,0000,1","22000,1,9,N","035000,1,N,1","+0039,1","+0019,1","10147,1","12,0000,9,1","24,0000,9,1",,,,,,"04,99,1,01,1,00,1,02250,1,03,1,08,1","0486,9","09,9","999,+0000,9","999,N,+0037,1","99999,9,09526,1","4,1,000,1,+999,9","02,1",,,"SYN112AAXX  23064 08272 11881 40000 10039 20019 39526 40147 54000 60002 702// 81038 333 20037 31100 50134 55081 70000;","Q01  00002PRCP24Q02  00002PRCP12"
"08272099999","2010-11-23T09:00:00","4","39.8833333","-4.05","516.0","TOLEDO, SP","FM-12","99999","V020","999,9,C,0000,1","09000,1,9,N","035000,1,N,1","+0057,1","+0029,1","10150,1",,,,,,,,"07,99,1,04,1,00,1,02250,1,07,1,08,1",,,,,"99999,9,09533,1","3,1,007,1,+999,9",,,,"SYN066AAXX  23094 08272 42881 70000 10057 20029 39533 40150 53007 84078;",
"08272099999","2010-11-23T12:00:00","4","39.8833333","-4.05","516.0","TOLEDO, SP","FM-12","99999","V020","270,1,N,0036,1","22000,1,9,N","035000,1,N,1","+0113,1","+0033,1","10135,1","06,0000,9,1",,,,,,,"04,99,1,01,1,01,1,00800,1,03,1,00,1",,,,,"99999,9,09530,1","8,1,003,1,+999,9",,,,"SYN072AAXX  23124 08272 12581 42707 10113 20033 39530 40135 58003 60001 81130;","Q01  00002PRCP06"
"08272099999","2010-11-23T15:00:00","4","39.8833333","-4.05","516.0","TOLEDO, SP","FM-12","99999","V020","280,1,N,0041,1","22000,1,9,N","035000,1,N,1","+0129,1","+0022,1","10118,1",,,,,,,,"04,99,1,02,1,04,1,00800,1,03,1,00,1",,,,,"99999,9,09517,1","6,1,013,1,+999,9",,,,"SYN066AAXX  23154 08272 42581 42808 10129 20022 39517 40118 56013 82430;",
"08272099999","2010-11-23T18:00:00","4","39.8833333","-4.05","516.0","TOLEDO, SP","FM-12","99999","V020","999,9,C,0000,1","03600,1,9,N","035000,1,N,1","+0092,1","+0032,1","10129,1","12,0000,9,1",,,,,,,"05,99,1,02,1,05,1,00800,1,03,1,00,1",,,,"999,M,+0134,1","99999,9,09520,1","3,1,003,1,+999,9",,,,"SYN082AAXX  23184 08272 12581 50000 10092 20032 39520 40129 53003 60002 82530 333 10134;","Q01  00002PRCP12"
"08272099999","2010-11-24T06:00:00","4","39.8833333","-4.05","516.0","TOLEDO, SP","FM-12","99999","V020","090,1,N,0015,1","00420,1,9,N","020000,1,N,1","+0076,1","+0054,1","10134,1","12,0000,9,1","24,0000,9,1",,,,,,"07,99,1,07,1,05,1,00450,1,00,1,00,1","0420,9","01,9","999,+0050,9","999,N,+0073,1","99999,9,09522,1","1,1,003,1,+999,9","02,1",,,"SYN112AAXX  24064 08272 11470 70903 10076 20054 39522 40134 51003 60002 702// 87500 333 20073 30005 50134 55070 70000;","Q01  00002PRCP24Q02  00002PRCP12"
"08272099999","2010-11-24T09:00:00","4","39.8833333","-4.05","516.0","TOLEDO, SP","FM-12","99999","V020","110,1,N,0026,1","22000,1,9,N","005000,1,N,1","+0077,1","+0041,1","10148,1",,,,"1,1,03,1","1,1,03,1",,,"03,99,1,03,1,00,1,01750,1,03,1,00,1",,,,,"99999,9,09535,1","3,1,013,1,+999,9","10,1",,,"SYN072AAXX  24094 08272 41750 31105 10077 20041 39535 40148 53013 71011 83030;",
"08272099999","2010-11-24T12:00:00","4","39.8833333","-4.05","516.0","TOLEDO, SP","FM-12","99999","V020","140,1,N,0015,1","22000,1,9,N","015000,1,N,1","+0121,1","+0055,1","10135,1","06,0000,9,1",,,"4,1,06,1","1,1,06,1",,,"02,99,1,01,1,01,1,00800,1,03,1,01,1",,,,,"99999,9,09532,1","8,1,003,1,+999,9","02,1",,,"SYN078AAXX  24124 08272 11565 21403 10121 20055 39532 40135 58003 60001 70241 81131;","Q01  00002PRCP06"
"08272099999","2010-11-24T15:00:00","4","39.8833333","-4.05","516.0","TOLEDO, SP","FM-12","99999","V020","070,1,N,0021,1","22000,1,9,N","025000,1,N,1","+0126,1","+0058,1","10120,1",,,,,,,,"04,99,1,04,1,04,1,00800,1,03,1,01,1",,,,,"99999,9,09519,1","7,1,013,1,+999,9",,,,"SYN066AAXX  24154 08272 42575 40704 10126 20058 39519 40120 57013 84431;",
"08272099999","2010-11-24T18:00:00","4","39.8833333","-4.05","516.0","TOLEDO, SP","FM-12","99999","V020","060,1,N,0026,1","22000,1,9,N","020000,1,N,1","+0100,1","+0044,1","10132,1","12,0000,9,1",,,,,,,"01,99,1,01,1,05,1,00800,1,00,1,01,1",,,,"999,M,+0145,1","99999,9,09525,1","1,1,006,1,+999,9",,,,"SYN082AAXX  24184 08272 12570 10605 10100 20044 39525 40132 51006 60002 81501 333 10145;","Q01  00002PRCP12"
"08272099999","2010-11-25T06:00:00","4","39.8833333","-4.05","516.0","TOLEDO, SP","FM-12","99999","V020","100,1,N,0026,1","22000,1,9,N","001000,1,N,1","+0014,1","-0002,1","10152,1","12,0000,9,1","24,0000,9,1",,,,,,"03,99,1,03,1,05,1,01250,1,00,1,00,1","0432,9","14,9","999,-0010,9","999,N,+0014,1","99999,9,09525,1","6,1,005,1,+999,9","40,1",,,"SYN112AAXX  25064 08272 11610 31005 10014 21002 39525 40152 56005 60002 740// 83500 333 20014 34101 50094 55072 70000;","Q01  00002PRCP24Q02  00002PRCP12"
"08272099999","2010-11-25T09:00:00","4","39.8833333","-4.05","516.0","TOLEDO, SP","FM-12","99999","V020","110,1,N,0021,1","22000,1,9,N","017000,1,N,1","+0042,1","+0004,1","10150,1",,,,"4,1,03,1","0,1,03,1",,,"03,99,1,03,1,00,1,02250,1,03,1,00,1",,,,,"99999,9,09529,1","2,1,004,1,+999,9","02,1",,,"SYN072AAXX  25094 08272 41867 31104 10042 20004 39529 40150 52004 70240 83030;",
"08272099999","2010-11-25T12:00:00","4","39.8833333","-4.05","516.0","TOLEDO, SP","FM-12","99999","V020","140,1,N,0015,1","22000,1,9,N","015000,1,N,1","+0088,1","+0026,1","10131,1","06,0000,9,1",,,"4,1,06,1","1,1,06,1",,,"06,99,1,02,1,00,1,02250,1,03,1,06,1",,,,,"99999,9,09521,1","8,1,008,1,+999,9","02,1",,,"SYN078AAXX  25124 08272 11865 61403 10088 20026 39521 40131 58008 60001 70241 82036;","Q01  00002PRCP06"
"08272099999","2010-11-25T15:00:00","4","39.8833333","-4.05","516.0","TOLEDO, SP","FM-12","99999","V020","310,1,N,0026,1","09000,1,9,N","017000,1,N,1","+0118,1","+0023,1","10106,1",,,,,,,,"06,99,1,01,1,05,1,00800,1,00,1,08,1",,,,,"99999,9,09504,1","7,1,017,1,+999,9",,,,"SYN066AAXX  25154 08272 42567 63105 10118 20023 39504 40106 57017 81508;",
"08272099999","2010-11-25T18:00:00","4","39.8833333","-4.05","516.0","TOLEDO, SP","FM-12","99999","V020","330,1,N,0031,1","03600,1,9,N","015000,1,N,1","+0080,1","+0027,1","10119,1","12,0000,9,1",,,,,,,"06,99,1,01,1,05,1,00800,1,03,1,08,1",,,,"999,M,+0122,1","99999,9,09508,1","3,1,004,1,+999,9",,,,"SYN082AAXX  25184 08272 12565 63306 10080 20027 39508 40119 53004 60002 81538 333 10122;","Q01  00002PRCP12"
"08272099999","2010-11-26T06:00:00","4","39.8833333","-4.05","516.0","TOLEDO, SP","FM-12","99999","V020","999,9,C,0000,1","22000,1,9,N","020000,1,N,1","-0002,1","-0019,1","10153,1","12,0000,9,1","24,0000,9,1",,,,"00,1,+99999,9,99,9",,"00,99,1,00,1,00,1,99999,9,00,1,00,1","0420,9","14,9","999,-0040,9","999,N,-0005,1","99999,9,09522,1","7,1,003,1,+999,9","00,1",,,"SYN106AAXX  26064 08272 11970 00000 11002 21019 39522 40153 57003 60002 700// 333 21005 34104 50114 55070 70000;","Q01  00002PRCP24Q02  00002PRCP12"
"08272099999","2010-11-26T09:00:00","4","39.8833333","-4.05","516.0","TOLEDO, SP","FM-12","99999","V020","999,9,C,0000,1","22000,1,9,N","015000,1,N,1","+0038,1","-0014,1","10149,1",,,,"4,1,03,1","0,1,03,1",,,"02,99,1,01,1,00,1,99999,9,03,1,05,1",,,,,"99999,9,09527,1","2,1,005,1,+999,9","02,1",,,"SYN072AAXX  26094 08272 41965 20000 10038 21014 39527 40149 52005 70240 81035;",
"08272099999","2010-11-26T12:00:00","4","39.8833333","-4.05","516.0","TOLEDO, SP","FM-12","99999","V020","090,1,N,0057,1","99999,9,9,N","030000,1,N,1","+0078,1","-0031,1","10121,1","06,0000,9,1",,,"4,1,06,1","1,1,06,1",,,"07,99,1,06,1,00,1,99999,9,05,1,08,1",,,,,"99999,9,09509,1","8,1,018,1,+999,9","02,1",,,"SYN078AAXX  26124 08272 12980 70911 10078 21031 39509 40121 58018 60001 70241 86058;","Q01  00002PRCP06"
"08272099999","2010-11-26T15:00:00","4","39.8833333","-4.05","516.0","TOLEDO, SP","FM-12","99999","V020","120,1,N,0031,1","99999,9,9,N","040000,1,N,1","+0094,1","-0032,1","10086,1",,,,,,,,"07,99,1,05,1,00,1,99999,9,07,1,08,1",,,,,"99999,9,09480,1","7,1,029,1,+999,9",,,,"SYN066AAXX  26154 08272 42982 71206 10094 21032 39480 40086 57029 85078;",
"08272099999","2010-11-26T18:00:00","4","39.8833333","-4.05","516.0","TOLEDO, SP","FM-12","99999","V020","060,1,N,0031,1","99999,9,9,N","030000,1,N,1","+0058,1","-0033,1","10089,1","12,0000,9,1",,,,,,,"07,99,1,03,1,00,1,99999,9,07,1,08,1",,,,"999,M,+0102,1","99999,9,09475,1","6,1,005,1,+999,9",,,,"SYN082AAXX  26184 08272 12980 70606 10058 21033 39475 40089 56005 60002 83078 333 10102;","Q01  00002PRCP12"
"08272099999","2010-11-29T06:00:00","4","39.8833333","-4.05","516.0","TOLEDO, SP","FM-12","99999","V020","110,1,N,0026,1","02100,1,9,N","008000,1,N,1","-0006,1","-0026,1","10075,1","12,0000,9,1","24,0000,9,1",,,,,,"08,99,1,07,1,00,1,02250,1,07,1,07,1","0468,9","01,9","999,-0050,9","999,N,-0018,1","99999,9,09448,1","7,1,017,1,+999,9","10,1",,,"SYN106AAXX  29064 08272 11858 81105 11006 21026 39448 40075 57017 60002 710// 87077 333 21018 30105 55078 70000;","Q01  00002PRCP24Q02  00002PRCP12"
"08272099999","2010-11-29T09:00:00","4","39.8833333","-4.05","516.0","TOLEDO, SP","FM-12","99999","V020","100,1,N,0041,1","02100,1,9,N","008000,1,N,1","+0007,1","-0018,1","10062,1",,,,"2,1,03,1","2,1,03,1",,,"08,99,1,08,1,00,1,02250,1,07,1,99,9",,,,,"99999,9,09439,1","6,1,009,1,+999,9","10,1",,,"SYN072AAXX  29094 08272 41858 81008 10007 21018 39439 40062 56009 71022 8807/;",
"08272099999","2010-11-29T12:00:00","4","39.8833333","-4.05","516.0","TOLEDO, SP","FM-12","99999","V020","080,1,N,0031,1","01200,1,9,N","005000,1,N,1","+0019,1","+0001,1","10042,1","06,0005,9,1",,,"7,1,06,1","6,1,06,1",,,"08,99,1,08,1,00,1,01250,1,02,1,99,9",,,,,"99999,9,09423,1","8,1,016,1,+999,9","61,1",,,"SYN078AAXX  29124 08272 11650 80806 10019 20001 39423 40042 58016 69951 76176 8802/;",
"08272099999","2010-11-29T15:00:00","4","39.8833333","-4.05","516.0","TOLEDO, SP","FM-12","99999","V020","070,1,N,0041,1","00420,1,9,N","003000,1,N,1","+0033,1","+0021,1","10020,1",,,,"6,1,03,1","4,1,03,1",,,"08,99,1,08,1,07,1,00450,1,99,9,99,9",,,,,"99999,9,09405,1","7,1,018,1,+999,9","63,1",,,"SYN072AAXX  29154 08272 41430 80708 10033 20021 39405 40020 57018 76364 887//;",
"08272099999","2010-11-29T18:00:00","4","39.8833333","-4.05","516.0","TOLEDO, SP","FM-12","99999","V020","090,1,N,0051,1","00420,1,9,N","010000,1,N,1","+0038,1","+0022,1","10014,1","12,0020,9,1",,,"6,1,06,1","4,1,06,1",,,"08,99,1,08,1,07,1,00450,1,99,9,99,9",,,,"999,M,+0040,1","99999,9,09401,1","8,1,004,1,+999,9","02,1",,,"SYN088AAXX  29184 08272 11460 80910 10038 20022 39401 40014 58004 60022 70264 887// 333 10040;",
"08272099999","2010-11-30T06:00:00","4","39.8833333","-4.05","516.0","TOLEDO, SP","FM-12","99999","V020","999,9,C,0000,1","00210,1,9,N","002000,1,N,1","+0037,1","+0030,1","10002,1","12,0005,9,1","24,0025,9,1",,,,,,"08,99,1,08,1,07,1,00250,1,99,9,99,9","0000,9","09,9","999,+0020,9","999,N,+0036,1","99999,9,09389,1","6,1,005,1,+999,9","60,1",,,"SYN112AAXX  30064 08272 11320 80000 10037 20030 39389 40002 56005 69942 760// 887// 333 20036 31002 50034 55000 70025;",
"08272099999","2010-11-30T09:00:00","4","39.8833333","-4.05","516.0","TOLEDO, SP","FM-12","99999","V020","999,9,C,0000,1","00120,1,9,N","000800,1,N,1","+0043,1","+0039,1","09999,1",,,,"6,1,03,1","4,1,03,1",,,"07,99,1,07,1,07,1,00150,1,99,9,99,9",,,,,"99999,9,09388,1","5,1,001,1,+999,9","46,1",,,"SYN072AAXX  30094 08272 41208 70000 10043 20039 39388 49999 55001 74664 877//;",
"08272099999","2010-11-30T12:00:00","4","39.8833333","-4.05","516.0","TOLEDO, SP","FM-12","99999","V020","100,1,N,0026,1","00420,1,9,N","003000,1,N,1","+0083,1","+0052,1","09971,1","06,0000,2,1",,,"6,1,06,1","4,1,06,1",,,"08,99,1,08,1,07,1,00450,1,99,9,99,9",,,,,"99999,9,09370,1","8,1,018,1,+999,9","60,1",,,"SYN078AAXX  30124 08272 11430 81005 10083 20052 39370 49971 58018 69901 76064 887//;",
"08272099999","2010-11-30T15:00:00","4","39.8833333","-4.05","516.0","TOLEDO, SP","FM-12","99999","V020","300,1,N,0036,1","00420,1,9,N","030000,1,N,1","+0077,1","+0048,1","09967,1",,,,"6,1,03,1","2,1,03,1",,,"07,99,1,06,1,07,1,00450,1,07,1,00,1",,,,,"99999,9,09365,1","5,1,005,1,+999,9","02,1",,,"SYN072AAXX  30154 08272 41480 73007 10077 20048 39365 49967 55005 70262 86770;",
"08272099999","2010-11-30T18:00:00","4","39.8833333","-4.05","516.0","TOLEDO, SP","FM-12","99999","V020","290,1,N,0031,1","03600,1,9,N","003000,1,N,1","+0062,1","+0048,1","09975,1","12,0020,9,1",,,"6,1,06,1","2,1,06,1",,,"07,99,1,03,1,07,1,00450,1,02,1,99,9",,,,"999,M,+0086,1","99999,9,09370,1","3,1,005,1,+999,9","63,1",,,"SYN088AAXX  30184 08272 11430 72906 10062 20048 39370 49975 53005 60022 76362 8372/ 333 10086;",
"08272099999","2010-12-01T06:00:00","4","39.8833333","-4.05","516.0","TOLEDO, SP","FM-12","99999","V020","270,1,N,0015,1","01200,1,9,N","020000,1,N,1","+0037,1","+0025,1","10031,1","12,0020,9,1","24,0033,9,1",,,,,,"08,99,1,06,1,08,1,00800,1,07,1,99,9","0048,9","09,9","999,+0010,9","999,N,+0030,1","99999,9,09417,1","3,1,006,1,+999,9","21,1",,,"SYN112AAXX  01064 08272 11570 82703 10037 20025 39417 40031 53006 60022 721// 8687/ 333 20030 31001 50034 55008 70033;",
"08272099999","2010-12-01T09:00:00","4","39.8833333","-4.05","516.0","TOLEDO, SP","FM-12","99999","V020","350,1,N,0015,1","00750,1,9,N","020000,1,N,1","+0044,1","+0032,1","10049,1",,,,,,,,"08,99,1,08,1,07,1,00800,1,99,9,99,9",,,,,"99999,9,09435,1","3,1,018,1,+999,9",,,,"SYN066AAXX  01094 08272 42570 83503 10044 20032 39435 40049 53018 887//;",
"08272099999","2010-12-01T12:00:00","4","39.8833333","-4.05","516.0","TOLEDO, SP","FM-12","99999","V020","270,1,N,0036,1","00420,1,9,N","008000,1,N,1","+0051,1","+0042,1","10060,1","06,0008,9,1",,,"6,1,06,1","2,1,06,1",,,"07,99,1,07,1,07,1,00450,1,99,9,99,9",,,,,"99999,9,09447,1","1,1,012,1,+999,9","61,1",,,"SYN078AAXX  01124 08272 11458 72707 10051 20042 39447 40060 51012 69981 76162 877//;",
"08272099999","2010-12-01T15:00:00","4","39.8833333","-4.05","516.0","TOLEDO, SP","FM-12","99999","V020","280,1,N,0072,1","00900,1,9,N","020000,1,N,1","+0063,1","+0026,1","10062,1",,,,"6,1,03,1","2,1,03,1",,,"06,99,1,06,1,08,1,00450,1,00,1,02,1",,,,,"99999,9,09451,1","1,1,004,1,+999,9","02,1",,,"SYN072AAXX  01154 08272 41470 62814 10063 20026 39451 40062 51004 70262 86802;",
"08272099999","2010-12-01T18:00:00","4","39.8833333","-4.05","516.0","TOLEDO, SP","FM-12","99999","V020","280,1,N,0036,1","22000,1,9,N","020000,1,N,1","+0050,1","+0018,1","10087,1","12,0008,9,1",,,"6,1,06,1","2,1,06,1",,,"02,99,1,02,1,05,1,00800,1,00,1,00,1",,,,"999,M,+0073,1","99999,9,09472,1","2,1,021,1,+999,9","01,1",,,"SYN088AAXX  01184 08272 11570 22807 10050 20018 39472 40087 52021 69982 70162 82500 333 10073;",
"08272099999","2010-12-02T06:00:00","4","39.8833333","-4.05","516.0","TOLEDO, SP","FM-12","99999","V020","999,9,C,0000,1","00750,1,9,N","010000,1,N,1","+0032,1","+0022,1","10107,1","12,0008,9,1","24,0015,9,1",,,,,,"06,99,1,05,1,07,1,00800,1,07,1,99,9","0048,9","09,9","999,-0010,9","999,N,+0030,1","99999,9,09487,1","5,1,000,1,+999,9","02,1",,,"SYN112AAXX  02064 08272 11560 60000 10032 20022 39487 40107 55000 69982 702// 8577/ 333 20030 31101 50054 55008 70016;",
"08272099999","2010-12-02T09:00:00","4","39.8833333","-4.05","516.0","TOLEDO, SP","FM-12","99999","V020","250,1,N,0026,1","22000,1,9,N","000800,1,N,1","+0034,1","+0022,1","10128,1",,,,"4,1,03,1","2,1,03,1",,,"04,99,1,02,1,06,1,00800,1,07,1,00,1",,,,,"99999,9,09507,1","2,1,020,1,+999,9","41,1",,,"SYN072AAXX  02094 08272 41508 42505 10034 20022 39507 40128 52020 74142 82670;",
"08272099999","2010-12-02T12:00:00","4","39.8833333","-4.05","516.0","TOLEDO, SP","FM-12","99999","V020","260,1,N,0087,1","22000,1,9,N","040000,1,N,1","+0078,1","-0002,1","10120,1","06,0000,9,1",,,,,,,"04,99,1,04,1,02,1,00800,1,03,1,00,1",,,,,"99999,9,09509,1","0,1,002,1,+999,9",,,,"SYN072AAXX  02124 08272 12582 42617 10078 21002 39509 40120 50002 60001 84230;","Q01  00002PRCP06"
"08272099999","2010-12-02T15:00:00","4","39.8833333","-4.05","516.0","TOLEDO, SP","FM-12","99999","V020","290,1,N,0067,1","22000,1,9,N","040000,1,N,1","+0067,1","-0019,1","10122,1",,,,,,,,"03,99,1,03,1,02,1,00800,1,00,1,00,1",,,,,"99999,9,09508,1","5,1,001,1,+999,9",,,,"SYN066AAXX  02154 08272 42582 32913 10067 21019 39508 40122 55001 83200;",
"08272099999","2010-12-02T18:00:00","4","39.8833333","-4.05","516.0","TOLEDO, SP","FM-12","99999","V020","280,1,N,0041,1","22000,1,9,N","020000,1,N,1","+0041,1","-0039,1","10144,1","12,0000,9,1",,,,,,,"01,99,1,01,1,00,1,02250,1,03,1,00,1",,,,"999,M,+0086,1","99999,9,09523,1","2,1,015,1,+999,9",,,,"SYN082AAXX  02184 08272 12870 12808 10041 21039 39523 40144 52015 60002 81030 333 10086;","Q01  00002PRCP12"
"08272099999","2010-12-03T06:00:00","4","39.8833333","-4.05","516.0","TOLEDO, SP","FM-12","99999","V020","300,1,N,0036,1","22000,1,9,N","020000,1,N,1","+0013,1","-0030,1","10173,1","12,0030,9,2","24,0028,9,2",,,,,,"01,99,1,01,1,05,1,00800,1,00,1,00,1","0456,9","09,9","999,-0020,9","999,N,+0010,1","99999,9,09544,1","2,1,026,1,+999,9","02,1",,,"SYN112AAXX  03064 08272 11570 13007 10013 21030 39544 40173 52026 60032 702// 81500 333 20010 31102 50174 55076 70027;",
"08272099999","2010-12-03T09:00:00","4","39.8833333","-4.05","516.0","TOLEDO, SP","FM-12","99999","V020","340,1,N,0051,1","22000,1,9,N","060000,1,N,1","+0028,1","-0066,1","10210,1",,,,,,"00,1,+99999,9,99,9",,"00,99,1,00,1,00,1,99999,9,00,1,00,1",,,,,"99999,9,09582,1","2,1,038,1,+999,9",,,,"SYN060AAXX  03094 08272 42986 03410 10028 21066 39582 40210 52038;",
"08272099999","2010-12-03T12:00:00","4","39.8833333","-4.05","516.0","TOLEDO, SP","FM-12","99999","V020","310,1,N,0041,1","22000,1,9,N","040000,1,N,1","+0057,1","-0026,1","10212,1","06,0000,9,1",,,,,,,"01,99,1,01,1,01,1,00800,1,00,1,00,1",,,,,"99999,9,09590,1","0,1,008,1,+999,9",,,,"SYN072AAXX  03124 08272 12582 13108 10057 21026 39590 40212 50008 60001 81100;","Q01  00002PRCP06"
"08272099999","2010-12-03T15:00:00","4","39.8833333","-4.05","516.0","TOLEDO, SP","FM-12","99999","V020","290,1,N,0036,1","22000,1,9,N","050000,1,N,1","+0079,1","-0030,1","10206,1",,,,,,,,"01,99,1,01,1,01,1,00800,1,00,1,01,1",,,,,"99999,9,09589,1","5,1,001,1,+999,9",,,,"SYN066AAXX  03154 08272 42584 12907 10079 21030 39589 40206 55001 81101;",
"08272099999","2010-12-03T18:00:00","4","39.8833333","-4.05","516.0","TOLEDO, SP","FM-12","99999","V020","250,1,N,0010,1","22000,1,9,N","020000,1,N,1","+0037,1","-0027,1","10231,1","12,0000,9,1",,,,,,,"01,99,1,00,1,00,1,99999,9,00,1,01,1",,,,"999,M,+0086,1","99999,9,09604,1","3,1,015,1,+999,9",,,,"SYN082AAXX  03184 08272 12970 12502 10037 21027 39604 40231 53015 60002 80001 333 10086;","Q01  00002PRCP12"
"08272099999","2010-12-06T06:00:00","4","39.8833333","-4.05","516.0","TOLEDO, SP","FM-12","99999","V020","150,1,N,0005,1","00420,1,9,N","020000,1,N,1","+0128,1","+0120,1","10028,1","12,0089,9,1","24,0107,9,1",,,,,,"07,99,1,06,1,05,1,00450,1,07,1,00,1",,"11,9","999,+0050,9","999,N,+0074,1","99999,9,09434,1","6,1,005,1,+999,9","21,1",,,"SYN106AAXX  06064 08272 11470 71501 10128 20120 39434 40028 56005 60092 721// 86570 333 20074 32005 55/// 70107;",
"08272099999","2010-12-06T09:00:00","4","39.8833333","-4.05","516.0","TOLEDO, SP","FM-12","99999","V020","250,1,N,0041,1","03600,1,9,N","030000,1,N,1","+0149,1","+0126,1","10029,1",,,,"6,1,03,1","2,1,03,1","01,1,+00480,1,09,1",,"05,99,1,03,1,09,1,00450,1,06,1,03,1",,,,,"99999,9,09439,1","3,1,005,1,+999,9","02,1",,,"SYN082AAXX  06094 08272 41480 52508 10149 20126 39439 40029 53005 70262 83963 333 81916;",
"08272099999","2010-12-06T12:00:00","4","39.8833333","-4.05","516.0","TOLEDO, SP","FM-12","99999","V020","280,1,N,0082,1","03600,1,9,N","030000,1,N,1","+0183,1","+0104,1","10038,1","06,0010,9,1",,,"6,1,06,1","2,1,06,1",,,"05,99,1,04,1,02,1,00800,1,06,1,01,1",,,,,"99999,9,09454,1","1,1,015,1,+999,9","02,1",,,"SYN078AAXX  06124 08272 11580 52816 10183 20104 39454 40038 51015 60011 70262 84261;",
"08272099999","2010-12-06T15:00:00","4","39.8833333","-4.05","516.0","TOLEDO, SP","FM-12","99999","V020","260,1,N,0077,1","00750,1,C,N","030000,1,N,1","+0191,1","+0099,1","10030,1",,,,,,"01,1,+00600,1,09,1",,"07,99,1,05,1,09,1,00800,1,07,1,08,1",,,,,"99999,9,09448,1","6,1,006,1,+999,9",,,,"SYN076AAXX  06154 08272 42580 72615 10191 20099 39448 40030 56006 85978 333 81920;",
"08272099999","2010-12-06T18:00:00","4","39.8833333","-4.05","516.0","TOLEDO, SP","FM-12","99999","V020","220,1,N,0015,1","09000,1,9,N","020000,1,N,1","+0153,1","+0097,1","10041,1","12,0010,9,1",,,,,,,"08,99,1,04,1,00,1,01750,1,07,1,07,1",,,,"999,M,+0194,1","99999,9,09451,1","0,1,003,1,+999,9",,,,"SYN082AAXX  06184 08272 12770 82203 10153 20097 39451 40041 50003 60012 84077 333 10194;",
"08272099999","2010-12-07T06:00:00","4","39.8833333","-4.05","516.0","TOLEDO, SP","FM-12","99999","V020","200,1,N,0036,1","03600,1,9,N","030000,1,N,1","+0129,1","+0088,1","10027,1","12,0020,9,1","24,0036,9,1",,,,,,"08,99,1,01,1,05,1,00800,1,07,1,07,1","0402,9","11,9","999,+0110,9","999,N,+0124,1","99999,9,09433,1","8,1,005,1,+999,9","02,1",,,"SYN112AAXX  07064 08272 11580 82007 10129 20088 39433 40027 58005 60022 702// 81577 333 20124 32011 50254 55067 70036;",
"08272099999","2010-12-07T09:00:00","4","39.8833333","-4.05","516.0","TOLEDO, SP","FM-12","99999","V020","210,1,N,0041,1","03600,1,9,N","012000,1,N,1","+0128,1","+0110,1","10032,1",,,,"2,1,03,1","2,1,03,1",,,"08,99,1,03,1,07,1,00800,1,02,1,99,9",,,,,"99999,9,09438,1","1,1,005,1,+999,9","63,1",,,"SYN072AAXX  07094 08272 41562 82108 10128 20110 39438 40032 51005 76322 8372/;",
"08272099999","2010-12-07T12:00:00","4","39.8833333","-4.05","516.0","TOLEDO, SP","FM-12","99999","V020","200,1,N,0087,1","03600,1,9,N","050000,1,N,1","+0136,1","+0089,1","10024,1","06,0061,9,1",,,"6,1,06,1","2,1,06,1",,,"08,99,1,04,1,05,1,00800,1,02,1,06,1",,,,,"99999,9,09431,1","8,1,007,1,+999,9","15,1",,,"SYN078AAXX  07124 08272 11584 82017 10136 20089 39431 40024 58007 60061 71562 84526;",
"08272099999","2010-12-07T15:00:00","4","39.8833333","-4.05","516.0","TOLEDO, SP","FM-12","99999","V020","200,1,N,0057,1","00750,1,C,N","020000,1,N,1","+0124,1","+0111,1","10031,1",,,,"6,1,03,1","2,1,03,1","02,1,+00600,1,09,1",,"08,99,1,07,1,09,1,00800,1,00,1,07,1",,,,,"99999,9,09436,1","3,1,005,1,+999,9","62,1",,,"SYN088AAXX  07154 08272 41570 82011 10124 20111 39436 40031 53005 76262 87907 333 82920 88276;",
"08272099999","2010-12-07T18:00:00","4","39.8833333","-4.05","516.0","TOLEDO, SP","FM-12","99999","V020","170,1,N,0036,1","00750,1,9,N","035000,1,N,1","+0129,1","+0108,1","10028,1","12,0089,9,1",,,"6,1,06,1","2,1,06,1",,,"07,99,1,06,1,05,1,00800,1,00,1,08,1",,,,"999,M,+0139,1","99999,9,09434,1","6,1,002,1,+999,9","02,1",,,"SYN088AAXX  07184 08272 11581 71707 10129 20108 39434 40028 56002 60092 70262 86508 333 10139;",
"08272099999","2010-12-08T06:00:00","4","39.8833333","-4.05","516.0","TOLEDO, SP","FM-12","99999","V020","220,1,N,0031,1","22000,1,9,N","030000,1,N,1","+0138,1","+0084,1","10060,1","12,0000,9,1","24,0112,9,1",,,,,,"04,99,1,03,1,05,1,00800,1,03,1,01,1","0000,9","09,9","999,+0110,9","999,N,+0127,1","99999,9,09466,1","3,1,019,1,+999,9","02,1",,,"SYN112AAXX  08064 08272 11580 42206 10138 20084 39466 40060 53019 69912 702// 83531 333 20127 31011 50194 55000 70113;","Q01  00002PRCP12"
"08272099999","2010-12-08T09:00:00","4","39.8833333","-4.05","516.0","TOLEDO, SP","FM-12","99999","V020","150,1,N,0021,1","00750,1,C,N","020000,1,N,1","+0160,1","+0094,1","10086,1",,,,,,"04,1,+00600,1,09,1",,"07,99,1,05,1,09,1,00800,1,07,1,05,1",,,,,"99999,9,09495,1","3,1,029,1,+999,9",,,,"SYN076AAXX  08094 08272 42570 71504 10160 20094 39495 40086 53029 85975 333 84920;",
"08272099999","2010-12-08T12:00:00","4","39.8833333","-4.05","516.0","TOLEDO, SP","FM-12","99999","V020","230,1,N,0026,1","03600,1,9,N","008000,1,N,1","+0151,1","+0107,1","10101,1","06,9999,9,9",,,"2,1,06,1","2,1,06,1",,,"08,99,1,04,1,05,1,00800,1,02,1,99,9",,,,,"99999,9,09507,1","1,1,012,1,+999,9","60,1",,,"SYN078AAXX  08124 08272 11558 82305 10151 20107 39507 40101 51012 69901 76022 8452/;","Q01  00002PRCP06Q02  00002PRCP06"
"08272099999","2010-12-08T15:00:00","4","39.8833333","-4.05","516.0","TOLEDO, SP","FM-12","99999","V020","200,1,N,0015,1","03600,1,9,N","040000,1,N,1","+0138,1","+0115,1","10102,1",,,,"6,1,03,1","2,1,03,1",,,"08,99,1,03,1,05,1,00800,1,07,1,08,1",,,,,"99999,9,09506,1","8,1,001,1,+999,9","21,1",,,"SYN072AAXX  08154 08272 41582 82003 10138 20115 39506 40102 58001 72162 83578;",
"08272099999","2010-12-08T18:00:00","4","39.8833333","-4.05","516.0","TOLEDO, SP","FM-12","99999","V020","200,1,N,0015,1","00750,1,9,N","035000,1,N,1","+0135,1","+0096,1","10118,1","12,0008,9,1",,,"6,1,06,1","2,1,06,1",,,"07,99,1,07,1,05,1,00800,1,00,1,00,1",,,,"999,M,+0169,1","99999,9,09520,1","3,1,014,1,+999,9","02,1",,,"SYN088AAXX  08184 08272 11581 72003 10135 20096 39520 40118 53014 69972 70262 87500 333 10169;",
"08272099999","2010-12-09T06:00:00","4","39.8833333","-4.05","516.0","TOLEDO, SP","FM-12","99999","V020","030,1,N,0036,1","22000,1,9,N","020000,1,N,1","+0114,1","+0098,1","10181,1","12,0041,9,1","24,0043,9,1",,,,,,"05,99,1,04,1,06,1,00150,1,00,1,01,1","0126,9","11,9","999,+0090,9","999,N,+0109,1","99999,9,09575,1","3,1,022,1,+999,9","02,1",,,"SYN112AAXX  09064 08272 11270 50307 10114 20098 39575 40181 53022 60042 702// 84601 333 20109 32009 50124 55021 70043;",
"08272099999","2010-12-09T09:00:00","4","39.8833333","-4.05","516.0","TOLEDO, SP","FM-12","99999","V020","140,1,N,0026,1","03600,1,9,N","006000,1,N,1","+0122,1","+0113,1","10192,1",,,,"6,1,03,1","2,1,03,1",,,"07,99,1,02,1,06,1,00075,1,07,1,01,1",,,,,"99999,9,09587,1","1,1,012,1,+999,9","10,1",,,"SYN072AAXX  09094 08272 41156 71405 10122 20113 39587 40192 51012 71062 82671;",
"08272099999","2010-12-09T12:00:00","4","39.8833333","-4.05","516.0","TOLEDO, SP","FM-12","99999","V020","180,1,N,0015,1","03600,1,9,N","018000,1,N,1","+0134,1","+0121,1","10210,1","06,9999,9,9",,,"6,1,06,1","2,1,06,1",,,"08,99,1,01,1,04,1,00800,1,07,1,99,9",,,,,"99999,9,09607,1","1,1,020,1,+999,9","60,1",,,"SYN078AAXX  09124 08272 11568 81803 10134 20121 39607 40210 51020 69901 76062 8147/;","Q01  00002PRCP06Q02  00002PRCP06"
"08272099999","2010-12-09T15:00:00","4","39.8833333","-4.05","516.0","TOLEDO, SP","FM-12","99999","V020","050,1,N,0036,1","00420,1,9,N","008000,1,N,1","+0154,1","+0131,1","10204,1",,,,"2,1,03,1","2,1,03,1",,,"07,99,1,05,1,05,1,00450,1,03,1,08,1",,,,,"99999,9,09605,1","8,1,002,1,+999,9","10,1",,,"SYN072AAXX  09154 08272 41458 70507 10154 20131 39605 40204 58002 71022 85538;",
"08272099999","2010-12-09T18:00:00","4","39.8833333","-4.05","516.0","TOLEDO, SP","FM-12","99999","V020","050,1,N,0010,1","22000,1,9,N","007000,1,N,1","+0135,1","+0122,1","10222,1","12,0000,2,1",,,"1,1,06,1","1,1,06,1",,,"02,99,1,00,1,00,1,99999,9,00,1,08,1",,,,"999,M,+0163,1","99999,9,09618,1","3,1,013,1,+999,9","10,1",,,"SYN088AAXX  09184 08272 11957 20502 10135 20122 39618 40222 53013 69922 71011 80008 333 10163;",
"08272099999","2010-12-10T06:00:00","4","39.8833333","-4.05","516.0","TOLEDO, SP","FM-12","99999","V020","070,1,N,0015,1","22000,1,9,N","003000,1,N,1","+0081,1","+0075,1","10271,1","12,0000,9,1","24,0003,9,1",,,,"00,1,+99999,9,99,9",,"00,99,1,00,1,00,1,99999,9,00,1,00,1","0084,9","09,9","999,+0060,9","999,N,+0079,1","99999,9,09652,1","1,1,010,1,+999,9","40,1",,,"SYN106AAXX  10064 08272 11930 00703 10081 20075 39652 40271 51010 60002 740// 333 20079 31006 50084 55014 70002;","Q01  00002PRCP12"
"08272099999","2010-12-10T09:00:00","4","39.8833333","-4.05","516.0","TOLEDO, SP","FM-12","99999","V020","090,1,N,0021,1","22000,1,9,N","002500,1,N,1","+0091,1","+0085,1","10284,1",,,,"4,1,03,1","0,1,03,1",,,"04,99,1,02,1,00,1,02250,1,03,1,02,1",,,,,"99999,9,09667,1","2,1,015,1,+999,9","40,1",,,"SYN072AAXX  10094 08272 41825 40904 10091 20085 39667 40284 52015 74040 82032;",
"08272099999","2010-12-10T12:00:00","4","39.8833333","-4.05","516.0","TOLEDO, SP","FM-12","99999","V020","070,1,N,0041,1","00060,1,9,N","006000,1,N,1","+0116,1","+0099,1","10280,1","06,0000,9,1",,,"4,1,06,1","2,1,06,1",,,"08,99,1,08,1,06,1,00075,1,99,9,99,9",,,,,"99999,9,09668,1","0,1,001,1,+999,9","10,1",,,"SYN078AAXX  10124 08272 11156 80708 10116 20099 39668 40280 50001 69911 71042 886//;","Q01  00002PRCP06"
"08272099999","2010-12-10T15:00:00","4","39.8833333","-4.05","516.0","TOLEDO, SP","FM-12","99999","V020","090,1,N,0046,1","03600,1,9,N","012000,1,N,1","+0138,1","+0110,1","10264,1",,,,,,,,"07,99,1,01,1,04,1,00450,1,03,1,01,1",,,,,"99999,9,09658,1","6,1,010,1,+999,9",,,,"SYN066AAXX  10154 08272 42462 70909 10138 20110 39658 40264 56010 81431;",
"08272099999","2010-12-10T18:00:00","4","39.8833333","-4.05","516.0","TOLEDO, SP","FM-12","99999","V020","120,1,N,0036,1","03600,1,9,N","015000,1,N,1","+0125,1","+0104,1","10271,1","12,0000,9,1",,,,,,,"07,99,1,04,1,06,1,00450,1,07,1,00,1",,,,"999,M,+0146,1","99999,9,09662,1","2,1,004,1,+999,9",,,,"SYN082AAXX  10184 08272 12465 71207 10125 20104 39662 40271 52004 60002 84670 333 10146;","Q01  00002PRCP12"
"08272099999","2010-12-13T06:00:00","4","39.8833333","-4.05","516.0","TOLEDO, SP","FM-12","99999","V020","340,1,N,0010,1","00030,1,9,N","000000,1,N,1","+0061,1","+0057,1","10138,1","12,0000,9,1","24,0000,9,1",,,,"09,1,+00030,1,99,9",,"09,99,1,09,1,99,9,99999,9,99,9,99,9","0030,9","09,9","999,+0040,9","999,N,+0061,1","99999,9,09523,1","5,1,001,1,+999,9","45,1",,,"SYN106AAXX  13064 08272 11/00 93402 10061 20057 39523 40138 55001 60002 745// 333 20061 31004 55005 70000 89/01;","Q01  00002PRCP24Q02  00002PRCP12"
"08272099999","2010-12-13T12:00:00","4","39.8833333","-4.05","516.0","TOLEDO, SP","FM-12","99999","V020","120,1,N,0021,1","99999,9,9,N","002000,1,N,1","+0118,1","+0099,1","10137,1","06,0000,9,1",,,"4,1,06,1","4,1,06,1",,,"07,99,1,00,1,00,1,99999,9,00,1,08,1",,,,,"99999,9,09534,1","8,1,002,1,+999,9","10,1",,,"SYN078AAXX  13124 08272 11920 71204 10118 20099 39534 40137 58002 69901 71044 80008;","Q01  00002PRCP06"
"08272099999","2010-12-13T15:00:00","4","39.8833333","-4.05","516.0","TOLEDO, SP","FM-12","99999","V020","130,1,N,0015,1","03600,1,9,N","012000,1,N,1","+0136,1","+0093,1","10123,1",,,,"4,1,03,1","2,1,03,1",,,"07,99,1,02,1,06,1,00800,1,03,1,08,1",,,,,"99999,9,09525,1","5,1,009,1,+999,9","02,1",,,"SYN072AAXX  13154 08272 41562 71303 10136 20093 39525 40123 55009 70242 82638;",
"08272099999","2010-12-13T18:00:00","4","39.8833333","-4.05","516.0","TOLEDO, SP","FM-12","99999","V020","270,1,N,0010,1","01500,1,9,N","010000,1,N,1","+0120,1","+0094,1","10136,1","12,0000,9,1",,,"4,1,06,1","2,1,06,1",,,"07,99,1,05,1,00,1,01750,1,07,1,08,1",,,,"999,M,+0144,1","99999,9,09534,1","2,1,009,1,+999,9","02,1",,,"SYN088AAXX  13184 08272 11760 72702 10120 20094 39534 40136 52009 60002 70242 85078 333 10144;","Q01  00002PRCP12"
"08272099999","2010-12-14T06:00:00","4","39.8833333","-4.05","516.0","TOLEDO, SP","FM-12","99999","V020","120,1,N,0010,1","02100,1,9,N","008000,1,N,1","+0073,1","+0067,1","10188,1","12,0000,9,1","24,0000,9,1",,,,,,"05,99,1,05,1,00,1,02250,1,03,1,00,1","0234,9","09,9","999,+0050,9","999,N,+0067,1","99999,9,09572,1","2,1,012,1,+999,9","10,1",,,"SYN112AAXX  14064 08272 11858 51202 10073 20067 39572 40188 52012 60002 710// 85030 333 20067 31005 50044 55039 79999;","Q01  00002PRCP24Q02  00002PRCP12"
"08272099999","2010-12-14T09:00:00","4","39.8833333","-4.05","516.0","TOLEDO, SP","FM-12","99999","V020","220,1,N,0010,1","03600,1,9,N","002500,1,N,1","+0095,1","+0081,1","10205,1",,,,"4,1,03,1","1,1,03,1",,,"05,99,1,01,1,05,1,01250,1,03,1,00,1",,,,,"99999,9,09593,1","2,1,021,1,+999,9","40,1",,,"SYN072AAXX  14094 08272 41625 52202 10095 20081 39593 40205 52021 74041 81530;",
"08272099999","2010-12-14T12:00:00","4","39.8833333","-4.05","516.0","TOLEDO, SP","FM-12","99999","V020","110,1,N,0031,1","00150,1,9,N","000800,1,N,1","+0094,1","+0086,1","10212,1","06,0000,9,1",,,"4,1,06,1","2,1,06,1","09,1,+00150,1,99,9",,"09,99,1,09,1,99,9,99999,9,99,9,99,9",,,,,"99999,9,09600,1","0,1,007,1,+999,9","43,1",,,"SYN082AAXX  14124 08272 11/08 91106 10094 20086 39600 40212 50007 60001 74342 333 89/05;","Q01  00002PRCP06"
"08272099999","2010-12-14T15:00:00","4","39.8833333","-4.05","516.0","TOLEDO, SP","FM-12","99999","V020","010,1,N,0021,1","22000,1,9,N","020000,1,N,1","+0141,1","+0049,1","10204,1",,,,"4,1,03,1","0,1,03,1",,,"01,99,1,01,1,01,1,00800,1,00,1,00,1",,,,,"99999,9,09601,1","3,1,001,1,+999,9","02,1",,,"SYN072AAXX  14154 08272 41570 10104 10141 20049 39601 40204 53001 70240 81100;",
"08272099999","2010-12-14T18:00:00","4","39.8833333","-4.05","516.0","TOLEDO, SP","FM-12","99999","V020","360,1,N,0036,1","22000,1,9,N","020000,1,N,1","+0093,1","-0026,1","10225,1","12,0000,9,1",,,"4,1,06,1","0,1,06,1","00,1,+99999,9,99,9",,"00,99,1,00,1,00,1,99999,9,00,1,00,1",,,,"999,M,+0145,1","99999,9,09610,1","3,1,009,1,+999,9","00,1",,,"SYN082AAXX  14184 08272 11970 03607 10093 21026 39610 40225 53009 60002 70040 333 10145;","Q01  00002PRCP12"
"08272099999","2010-12-15T06:00:00","4","39.8833333","-4.05","516.0","TOLEDO, SP","FM-12","99999","V020","999,9,C,0000,1","22000,1,9,N","020000,1,N,1","+0007,1","-0053,1","10292,1","12,0000,9,1","24,0000,9,1",,,,"00,1,+99999,9,99,9",,"00,99,1,00,1,00,1,99999,9,00,1,00,1","0360,9","01,9","999,-0050,9","999,N,+0000,1","99999,9,09654,1","1,1,009,1,+999,9","00,1",,,"SYN106AAXX  15064 08272 11970 00000 10007 21053 39654 40292 51009 60002 700// 333 20000 30105 50104 55060 70000;","Q01  00002PRCP24Q02  00002PRCP12"
"08272099999","2010-12-15T09:00:00","4","39.8833333","-4.05","516.0","TOLEDO, SP","FM-12","99999","V020","290,1,N,0005,1","22000,1,9,N","040000,1,N,1","+0015,1","-0028,1","10297,1",,,,,,"00,1,+99999,9,99,9",,"00,99,1,00,1,00,1,99999,9,00,1,00,1",,,,,"99999,9,09661,1","2,1,007,1,+999,9",,,,"SYN060AAXX  15094 08272 42982 02901 10015 21028 39661 40297 52007;",
"08272099999","2010-12-15T12:00:00","4","39.8833333","-4.05","516.0","TOLEDO, SP","FM-12","99999","V020","350,1,N,0026,1","22000,1,9,N","040000,1,N,1","+0062,1","-0054,1","10279,1","06,0000,9,1",,,,,,,"01,99,1,01,1,01,1,00800,1,00,1,00,1",,,,,"99999,9,09654,1","8,1,007,1,+999,9",,,,"SYN072AAXX  15124 08272 12582 13505 10062 21054 39654 40279 58007 60001 81100;","Q01  00002PRCP06"
"08272099999","2010-12-15T15:00:00","4","39.8833333","-4.05","516.0","TOLEDO, SP","FM-12","99999","V020","350,1,N,0021,1","22000,1,9,N","040000,1,N,1","+0081,1","-0057,1","10259,1",,,,,,,,"01,99,1,01,1,01,1,00800,1,00,1,00,1",,,,,"99999,9,09639,1","6,1,015,1,+999,9",,,,"SYN066AAXX  15154 08272 42582 13504 10081 21057 39639 40259 56015 81100;",
"08272099999","2010-12-15T18:00:00","4","39.8833333","-4.05","516.0","TOLEDO, SP","FM-12","99999","V020","010,1,N,0057,1","22000,1,9,N","020000,1,N,1","+0034,1","-0071,1","10271,1","12,0000,9,1",,,,,"00,1,+99999,9,99,9",,"00,99,1,00,1,00,1,99999,9,00,1,00,1",,,,"999,M,+0091,1","99999,9,09640,1","3,1,001,1,+999,9",,,,"SYN076AAXX  15184 08272 12970 00111 10034 21071 39640 40271 53001 60002 333 10091;","Q01  00002PRCP12"
"08272099999","2010-12-16T06:00:00","4","39.8833333","-4.05","516.0","TOLEDO, SP","FM-12","99999","V020","999,9,C,0000,1","22000,1,9,N","020000,1,N,1","-0037,1","-0058,1","10274,1","12,0000,9,1","24,0000,9,1",,,,"00,1,+99999,9,99,9",,"00,99,1,00,1,00,1,99999,9,00,1,00,1","0528,9","01,9","999,-0070,9","999,N,-0037,1","99999,9,09627,1","8,1,009,1,+999,9","00,1",,,"SYN106AAXX  16064 08272 11970 00000 11037 21058 39627 40274 58009 60002 700// 333 21037 30107 50144 55088 70000;","Q01  00002PRCP24Q02  00002PRCP12"
"08272099999","2010-12-16T09:00:00","4","39.8833333","-4.05","516.0","TOLEDO, SP","FM-12","99999","V020","999,9,C,0000,1","22000,1,9,N","006000,1,N,1","-0016,1","-0048,1","10279,1",,,,"0,1,03,1","0,1,03,1","00,1,+99999,9,99,9",,"00,99,1,00,1,00,1,99999,9,00,1,00,1",,,,,"99999,9,09637,1","3,1,010,1,+999,9","10,1",,,"SYN066AAXX  16094 08272 41956 00000 11016 21048 39637 40279 53010 71000;",
"08272099999","2010-12-16T12:00:00","4","39.8833333","-4.05","516.0","TOLEDO, SP","FM-12","99999","V020","110,1,N,0041,1","22000,1,9,N","040000,1,N,1","+0040,1","-0093,1","10259,1","06,0000,9,1",,,,,"00,1,+99999,9,99,9",,"00,99,1,00,1,00,1,99999,9,00,1,00,1",,,,,"99999,9,09630,1","8,1,007,1,+999,9",,,,"SYN066AAXX  16124 08272 12982 01108 10040 21093 39630 40259 58007 60001;","Q01  00002PRCP06"
"08272099999","2010-12-16T15:00:00","4","39.8833333","-4.05","516.0","TOLEDO, SP","FM-12","99999","V020","050,1,N,0021,1","22000,1,9,N","040000,1,N,1","+0058,1","-0088,1","10230,1",,,,,,"00,1,+99999,9,99,9",,"00,99,1,00,1,00,1,99999,9,00,1,00,1",,,,,"99999,9,09607,1","6,1,023,1,+999,9",,,,"SYN060AAXX  16154 08272 42982 00504 10058 21088 39607 40230 56023;",
"08272099999","2010-12-16T18:00:00","4","39.8833333","-4.05","516.0","TOLEDO, SP","FM-12","99999","V020","999,9,C,0000,1","22000,1,9,N","020000,1,N,1","+0028,1","-0079,1","10229,1","12,0000,9,1",,,,,"00,1,+99999,9,99,9",,"00,99,1,00,1,00,1,99999,9,00,1,00,1",,,,"999,M,+0061,1","99999,9,09600,1","8,1,007,1,+999,9",,,,"SYN076AAXX  16184 08272 12970 00000 10028 21079 39600 40229 58007 60002 333 10061;","Q01  00002PRCP12"
"08272099999","2010-12-17T06:00:00","4","39.8833333","-4.05","516.0","TOLEDO, SP","FM-12","99999","V020","090,1,N,0010,1","22000,1,9,N","020000,1,N,1","-0056,1","-0067,1","10173,1","12,0000,9,1","24,0000,9,1",,,,"00,1,+99999,9,99,9",,"00,99,1,00,1,00,1,99999,9,00,1,00,1","0528,9","01,9","999,-0090,9","999,N,-0056,1","99999,9,09528,1","7,1,024,1,+999,9","00,1",,,"SYN106AAXX  17064 08272 11970 00902 11056 21067 39528 40173 57024 60002 700// 333 21056 30109 5//// 55088 70000;","Q01  00002PRCP24Q02  00002PRCP12"
"08272099999","2010-12-17T09:00:00","4","39.8833333","-4.05","516.0","TOLEDO, SP","FM-12","99999","V020","999,9,C,0000,1","22000,1,9,N","012000,1,N,1","-0031,1","-0054,1","10158,1",,,,,,,,"01,99,1,00,1,00,1,99999,9,00,1,04,1",,,,,"99999,9,09520,1","5,1,008,1,+999,9",,,,"SYN066AAXX  17094 08272 42962 10000 11031 21054 39520 40158 55008 80004;",
"08272099999","2010-12-17T12:00:00","4","39.8833333","-4.05","516.0","TOLEDO, SP","FM-12","99999","V020","230,1,N,0021,1","22000,1,9,N","015000,1,N,1","+0053,1","-0078,1","10099,1","06,0000,9,1",,,,,,,"02,99,1,01,1,00,1,02250,1,03,1,04,1",,,,,"99999,9,09483,1","7,1,037,1,+999,9",,,,"SYN072AAXX  17124 08272 12865 22304 10053 21078 39483 40099 57037 60001 81034;","Q01  00002PRCP06"
"08272099999","2010-12-17T15:00:00","4","39.8833333","-4.05","516.0","TOLEDO, SP","FM-12","99999","V020","310,1,N,0036,1","22000,1,9,N","040000,1,N,1","+0073,1","-0079,1","10064,1",,,,,,,,"02,99,1,00,1,00,1,99999,9,00,1,01,1",,,,,"99999,9,09454,1","7,1,029,1,+999,9",,,,"SYN066AAXX  17154 08272 42982 23107 10073 21079 39454 40064 57029 80001;",
"08272099999","2010-12-17T18:00:00","4","39.8833333","-4.05","516.0","TOLEDO, SP","FM-12","99999","V020","999,9,C,0000,1","22000,1,9,N","020000,1,N,1","+0022,1","-0054,1","10068,1","12,0000,9,1",,,,,,,"03,99,1,02,1,00,1,02250,1,05,1,04,1",,,,"999,M,+0076,1","99999,9,09447,1","6,1,007,1,+999,9",,,,"SYN082AAXX  17184 08272 12870 30000 10022 21054 39447 40068 56007 60002 82054 333 10076;","Q01  00002PRCP12"
"08272099999","2010-12-20T06:00:00","4","39.8833333","-4.05","516.0","TOLEDO, SP","FM-12","99999","V020","999,9,C,0000,1","00750,1,9,N","015000,1,N,1","+0062,1","+0019,1","10134,1","12,0000,9,1","24,0018,9,1",,,,,,"08,99,1,08,1,05,1,00800,1,99,9,99,9",,,,"999,N,+0058,1","99999,9,09519,1","3,1,001,1,+999,9","02,1",,,"SYN100AAXX  20064 08272 11565 80000 10062 20019 39519 40134 53001 60002 702// 885// 333 20058 55/// 70018;","Q01  00002PRCP12"
"08272099999","2010-12-20T09:00:00","4","39.8833333","-4.05","516.0","TOLEDO, SP","FM-12","99999","V020","999,9,C,0000,1","03600,1,9,N","030000,1,N,1","+0076,1","+0038,1","10136,1",,,,,,,,"07,99,1,02,1,05,1,00800,1,03,1,04,1",,,,,"99999,9,09524,1","3,1,005,1,+999,9",,,,"SYN066AAXX  20094 08272 42580 70000 10076 20038 39524 40136 53005 82534;",
"08272099999","2010-12-20T12:00:00","4","39.8833333","-4.05","516.0","TOLEDO, SP","FM-12","99999","V020","220,1,N,0021,1","03600,1,9,N","040000,1,N,1","+0111,1","+0027,1","10131,1","06,0000,9,1",,,,,,,"07,99,1,04,1,08,1,00800,1,03,1,08,1",,,,,"99999,9,09526,1","0,1,002,1,+999,9",,,,"SYN072AAXX  20124 08272 12582 72204 10111 20027 39526 40131 50002 60001 84838;","Q01  00002PRCP06"
"08272099999","2010-12-20T15:00:00","4","39.8833333","-4.05","516.0","TOLEDO, SP","FM-12","99999","V020","080,1,N,0010,1","00750,1,9,N","040000,1,N,1","+0106,1","+0036,1","10112,1",,,,"2,1,03,1","2,1,03,1",,,"07,99,1,06,1,05,1,00800,1,07,1,08,1",,,,,"99999,9,09507,1","7,1,019,1,+999,9","14,1",,,"SYN072AAXX  20154 08272 41582 70802 10106 20036 39507 40112 57019 71422 86578;",
"08272099999","2010-12-20T18:00:00","4","39.8833333","-4.05","516.0","TOLEDO, SP","FM-12","99999","V020","100,1,N,0026,1","03600,1,9,N","040000,1,N,1","+0081,1","+0036,1","10103,1","12,0000,9,1",,,,,,,"07,99,1,04,1,05,1,00800,1,07,1,08,1",,,,"999,M,+0118,1","99999,9,09494,1","7,1,013,1,+999,9",,,,"SYN082AAXX  20184 08272 12582 71005 10081 20036 39494 40103 57013 60002 84578 333 10118;","Q01  00002PRCP12"
"08272099999","2010-12-21T06:00:00","4","39.8833333","-4.05","516.0","TOLEDO, SP","FM-12","99999","V020","180,1,N,0015,1","00750,1,9,N","008000,1,N,1","+0089,1","+0081,1","09987,1","12,0041,9,2","24,0038,9,2",,,,,,"08,99,1,05,1,07,1,00800,1,07,1,99,9","0192,9","11,9","999,+0040,9","999,N,+0069,1","99999,9,09387,1","7,1,030,1,+999,9","10,1",,,"SYN112AAXX  21064 08272 11558 81803 10089 20081 39387 49987 57030 60042 710// 8577/ 333 20069 32004 50114 55032 70037;",
"08272099999","2010-12-21T09:00:00","4","39.8833333","-4.05","516.0","TOLEDO, SP","FM-12","99999","V020","250,1,N,0062,1","00750,1,9,N","008000,1,N,1","+0122,1","+0101,1","09975,1",,,,"6,1,03,1","2,1,03,1",,,"08,99,1,06,1,07,1,00800,1,07,1,99,9",,,,,"99999,9,09383,1","6,1,004,1,+999,9","63,1",,,"SYN072AAXX  21094 08272 41558 82512 10122 20101 39383 49975 56004 76362 8677/;",
"08272099999","2010-12-21T12:00:00","4","39.8833333","-4.05","516.0","TOLEDO, SP","FM-12","99999","V020","300,1,N,0031,1","00750,1,9,N","020000,1,N,1","+0127,1","+0113,1","09981,1","06,0020,9,1",,,"6,1,06,1","2,1,06,1",,,"07,99,1,06,1,07,1,00800,1,07,1,01,1",,,,,"99999,9,09390,1","0,1,007,1,+999,9","21,1",,,"SYN078AAXX  21124 08272 11570 73006 10127 20113 39390 49981 50007 60021 72162 86771;",
"08272099999","2010-12-21T15:00:00","4","39.8833333","-4.05","516.0","TOLEDO, SP","FM-12","99999","V020","290,1,N,0010,1","00420,1,9,N","018000,1,N,1","+0124,1","+0110,1","09978,1",,,,"6,1,03,1","2,1,03,1",,,"07,99,1,06,1,07,1,00450,1,07,1,00,1",,,,,"99999,9,09386,1","6,1,004,1,+999,9","60,1",,,"SYN072AAXX  21154 08272 41468 72902 10124 20110 39386 49978 56004 76062 86770;",
"08272099999","2010-12-21T18:00:00","4","39.8833333","-4.05","516.0","TOLEDO, SP","FM-12","99999","V020","280,1,N,0010,1","01200,1,9,N","012000,1,N,1","+0120,1","+0102,1","09984,1","12,0071,9,1",,,"6,1,06,1","2,1,06,1",,,"07,99,1,06,1,07,1,01250,1,07,1,00,1",,,,"999,M,+0130,1","99999,9,09391,1","3,1,005,1,+999,9","60,1",,,"SYN088AAXX  21184 08272 11662 72802 10120 20102 39391 49984 53005 60072 76062 86770 333 10130;",
"08272099999","2010-12-22T06:00:00","4","39.8833333","-4.05","516.0","TOLEDO, SP","FM-12","99999","V020","200,1,N,0036,1","00750,1,9,N","025000,1,N,1","+0113,1","+0070,1","09947,1","12,0010,9,1","24,0079,9,1",,,,,,"07,99,1,05,1,05,1,00800,1,03,1,08,1","0006,9","09,9","999,+0100,9","999,N,+0110,1","99999,9,09354,1","6,1,003,1,+999,9","02,1",,,"SYN112AAXX  22064 08272 11575 72007 10113 20070 39354 49947 56003 69992 702// 85538 333 20110 31010 50084 55001 70079;",
"08272099999","2010-12-22T09:00:00","4","39.8833333","-4.05","516.0","TOLEDO, SP","FM-12","99999","V020","200,1,N,0041,1","03600,1,9,N","025000,1,N,1","+0114,1","+0055,1","09943,1",,,,,,,,"07,99,1,03,1,05,1,00800,1,07,1,01,1",,,,,"99999,9,09350,1","5,1,004,1,+999,9",,,,"SYN066AAXX  22094 08272 42575 72008 10114 20055 39350 49943 55004 83571;",
"08272099999","2010-12-22T12:00:00","4","39.8833333","-4.05","516.0","TOLEDO, SP","FM-12","99999","V020","130,1,N,0046,1","00750,1,9,N","025000,1,N,1","+0119,1","+0055,1","09926,1","06,0000,9,1",,,,,,,"08,99,1,07,1,05,1,00800,1,07,1,99,9",,,,,"99999,9,09335,1","8,1,015,1,+999,9",,,,"SYN072AAXX  22124 08272 12575 81309 10119 20055 39335 49926 58015 60001 8757/;","Q01  00002PRCP06"
"08272099999","2010-12-22T15:00:00","4","39.8833333","-4.05","516.0","TOLEDO, SP","FM-12","99999","V020","200,1,N,0057,1","03600,1,9,N","012000,1,N,1","+0098,1","+0076,1","09913,1",,,,"6,1,03,1","2,1,03,1",,,"08,99,1,03,1,07,1,00450,1,02,1,99,9",,,,,"99999,9,09319,1","6,1,016,1,+999,9","63,1",,,"SYN072AAXX  22154 08272 41462 82011 10098 20076 39319 49913 56016 76362 8372/;",
"08272099999","2010-12-22T18:00:00","4","39.8833333","-4.05","516.0","TOLEDO, SP","FM-12","99999","V020","170,1,N,0026,1","03600,1,9,N","015000,1,N,1","+0096,1","+0072,1","09915,1","12,0020,9,1",,,"6,1,06,1","2,1,06,1",,,"07,99,1,03,1,07,1,00800,1,02,1,00,1",,,,"999,M,+0121,1","99999,9,09321,1","2,1,002,1,+999,9","60,1",,,"SYN088AAXX  22184 08272 11565 71705 10096 20072 39321 49915 52002 60022 76062 83720 333 10121;",
"08272099999","2010-12-23T06:00:00","4","39.8833333","-4.05","516.0","TOLEDO, SP","FM-12","99999","V020","280,1,N,0057,1","00420,1,9,N","020000,1,N,1","+0068,1","+0054,1","09961,1","12,0030,9,1","24,0061,9,1",,,,,,"07,99,1,07,1,06,1,00450,1,00,1,00,1","0042,9","09,9","999,+0060,9","999,N,+0068,1","99999,9,09358,1","3,1,014,1,+999,9","02,1",,,"SYN112AAXX  23064 08272 11470 72811 10068 20054 39358 49961 53014 60032 702// 87600 333 20068 31006 50094 55007 70061;",
"08272099999","2010-12-23T09:00:00","4","39.8833333","-4.05","516.0","TOLEDO, SP","FM-12","99999","V020","290,1,N,0062,1","00420,1,9,N","012000,1,N,1","+0074,1","+0052,1","09983,1",,,,,,,,"06,99,1,05,1,06,1,00450,1,07,1,00,1",,,,,"99999,9,09380,1","1,1,022,1,+999,9",,,,"SYN066AAXX  23094 08272 42462 62912 10074 20052 39380 49983 51022 85670;",
"08272099999","2010-12-23T12:00:00","4","39.8833333","-4.05","516.0","TOLEDO, SP","FM-12","99999","V020","320,1,N,0062,1","03600,1,9,N","030000,1,N,1","+0086,1","+0015,1","10002,1","06,9999,9,9",,,"6,1,06,1","2,1,06,1",,,"08,99,1,04,1,05,1,00800,1,07,1,99,9",,,,,"99999,9,09400,1","1,1,020,1,+999,9","60,1",,,"SYN078AAXX  23124 08272 11580 83212 10086 20015 39400 40002 51020 69901 76062 8457/;","Q01  00002PRCP06Q02  00002PRCP06"
"08272099999","2010-12-23T15:00:00","4","39.8833333","-4.05","516.0","TOLEDO, SP","FM-12","99999","V020","330,1,N,0113,1","00750,1,9,N","020000,1,N,1","+0060,1","+0012,1","10042,1",,,,"6,1,03,1","2,1,03,1",,,"08,99,1,07,1,07,1,00800,1,02,1,99,9",,,,,"99999,9,09432,1","2,1,032,1,+999,9","61,1",,,"SYN072AAXX  23154 08272 41570 83322 10060 20012 39432 40042 52032 76162 8772/;",
"08272099999","2010-12-23T18:00:00","4","39.8833333","-4.05","516.0","TOLEDO, SP","FM-12","99999","V020","270,1,N,0021,1","03600,1,C,N","015000,1,N,1","+0054,1","+0041,1","10087,1","12,0008,9,1",,,"6,1,06,1","2,1,06,1","03,1,+00330,1,07,1",,"07,99,1,03,1,07,1,00450,1,02,1,00,1",,,,"120,M,+0088,1","99999,9,09473,1","2,1,041,1,+999,9","02,1",,,"SYN100AAXX  23184 08272 11465 72704 10054 20041 39473 40087 52041 69972 70262 83720 333 10088 83711 85458;",
"08272099999","2010-12-24T06:00:00","4","39.8833333","-4.05","516.0","TOLEDO, SP","FM-12","99999","V020","290,1,N,0031,1","22000,1,9,N","015000,1,N,1","+0015,1","-0028,1","10167,1","12,0000,9,1","24,0008,9,1",,,,,,"03,99,1,00,1,00,1,99999,9,00,1,08,1","0060,9","14,9","999,-0020,9","999,N,+0006,1","99999,9,09539,1","2,1,009,1,+999,9","02,1",,,"SYN112AAXX  24064 08272 11965 32906 10015 21028 39539 40167 52009 60002 702// 80008 333 20006 34102 50094 55010 70007;","Q01  00002PRCP12"
"08272099999","2010-12-24T09:00:00","4","39.8833333","-4.05","516.0","TOLEDO, SP","FM-12","99999","V020","320,1,N,0072,1","22000,1,9,N","040000,1,N,1","+0030,1","-0040,1","10175,1",,,,,,,,"03,99,1,01,1,01,1,00800,1,00,1,08,1",,,,,"99999,9,09550,1","3,1,011,1,+999,9",,,,"SYN066AAXX  24094 08272 42582 33214 10030 21040 39550 40175 53011 81108;",
"08272099999","2010-12-24T12:00:00","4","39.8833333","-4.05","516.0","TOLEDO, SP","FM-12","99999","V020","260,1,N,0046,1","22000,1,9,N","045000,1,N,1","+0061,1","-0018,1","10173,1","06,0000,9,1",,,,,,,"02,99,1,01,1,01,1,00800,1,00,1,01,1",,,,,"99999,9,09555,1","1,1,005,1,+999,9",,,,"SYN072AAXX  24124 08272 12583 22609 10061 21018 39555 40173 51005 60001 81101;","Q01  00002PRCP06"
"08272099999","2010-12-27T06:00:00","4","39.8833333","-4.05","516.0","TOLEDO, SP","FM-12","99999","V020","080,1,N,0021,1","99999,9,9,N","020000,1,N,1","-0047,1","-0065,1","10242,1","12,0000,9,1","24,0000,9,1",,,,,,"06,99,1,00,1,00,1,99999,9,00,1,06,1","0528,9","01,9","999,-0080,9","999,N,-0047,1","99999,9,09595,1","8,1,007,1,+999,9","02,1",,,"SYN112AAXX  27064 08272 11970 60804 11047 21065 39595 40242 58007 60002 702// 80006 333 21047 30108 5//// 55088 70000;","Q01  00002PRCP24Q02  00002PRCP12"
"08272099999","2010-12-27T09:00:00","4","39.8833333","-4.05","516.0","TOLEDO, SP","FM-12","99999","V020","999,9,C,0000,1","22000,1,9,N","035000,1,N,1","-0024,1","-0057,1","10250,1",,,,,,,,"03,99,1,01,1,00,1,01750,1,04,1,01,1",,,,,"99999,9,09608,1","3,1,013,1,+999,9",,,,"SYN066AAXX  27094 08272 42781 30000 11024 21057 39608 40250 53013 81041;",
"08272099999","2010-12-27T12:00:00","4","39.8833333","-4.05","516.0","TOLEDO, SP","FM-12","99999","V020","140,1,N,0021,1","09000,1,9,N","020000,1,N,1","+0026,1","-0039,1","10240,1","06,0000,9,1",,,,,,,"05,99,1,04,1,00,1,02250,1,03,1,05,1",,,,,"99999,9,09610,1","0,1,002,1,+999,9",,,,"SYN072AAXX  27124 08272 12870 51404 10026 21039 39610 40240 50002 60001 84035;","Q01  00002PRCP06"
"08272099999","2010-12-27T15:00:00","4","39.8833333","-4.05","516.0","TOLEDO, SP","FM-12","99999","V020","190,1,N,0010,1","99999,9,9,N","035000,1,N,1","+0075,1","-0049,1","10220,1",,,,,,,,"05,99,1,00,1,00,1,99999,9,00,1,06,1",,,,,"99999,9,09601,1","5,1,009,1,+999,9",,,,"SYN066AAXX  27154 08272 42981 51902 10075 21049 39601 40220 55009 80006;",
"08272099999","2010-12-27T18:00:00","4","39.8833333","-4.05","516.0","TOLEDO, SP","FM-12","99999","V020","999,9,C,0000,1","22000,1,9,N","030000,1,N,1","+0040,1","-0052,1","10232,1","12,0000,9,1",,,,,,,"06,99,1,03,1,00,1,02250,1,03,1,06,1",,,,"999,M,+0077,1","99999,9,09605,1","1,1,004,1,+999,9",,,,"SYN082AAXX  27184 08272 12880 60000 10040 21052 39605 40232 51004 60002 83036 333 10077;","Q01  00002PRCP12"
"08272099999","2010-12-28T06:00:00","4","39.8833333","-4.05","516.0","TOLEDO, SP","FM-12","99999","V020","110,1,N,0015,1","03600,1,9,N","015000,1,N,1","+0008,1","-0021,1","10234,1","12,0000,9,1","24,0000,9,1",,,,,,"08,99,1,04,1,05,1,00450,1,07,1,99,9","0438,9","01,9","999,-0030,9","999,N,-0001,1","99999,9,09600,1","5,1,006,1,+999,9","02,1",,,"SYN112AAXX  28064 08272 11465 81103 10008 21021 39600 40234 55006 60002 702// 8457/ 333 21001 30103 50104 55073 70000;","Q01  00002PRCP24Q02  00002PRCP12"
"08272099999","2010-12-28T09:00:00","4","39.8833333","-4.05","516.0","TOLEDO, SP","FM-12","99999","V020","100,1,N,0021,1","03600,1,9,N","018000,1,N,1","+0015,1","-0019,1","10236,1",,,,,,,,"07,99,1,01,1,04,1,00800,1,07,1,05,1",,,,,"99999,9,09604,1","3,1,004,1,+999,9",,,,"SYN066AAXX  28094 08272 42568 71004 10015 21019 39604 40236 53004 81475;",
"08272099999","2010-12-29T06:00:00","4","39.8833333","-4.05","516.0","TOLEDO, SP","FM-12","99999","V020","110,1,N,0005,1","22000,1,9,N","004000,1,N,1","+0027,1","+0017,1","10204,1","12,0000,9,1","24,0000,9,1",,,,"00,1,+99999,9,99,9",,"00,99,1,00,1,00,1,99999,9,00,1,00,1","0210,9","09,9","999,+0000,9","999,N,+0024,1","99999,9,09577,1","6,1,005,1,+999,9","10,1",,,"SYN106AAXX  29064 08272 11940 01101 10027 20017 39577 40204 56005 60002 710// 333 20024 31100 50064 55035 70000;","Q01  00002PRCP24Q02  00002PRCP12"
"08272099999","2010-12-29T09:00:00","4","39.8833333","-4.05","516.0","TOLEDO, SP","FM-12","99999","V020","110,1,N,0031,1","22000,1,9,N","003000,1,N,1","+0045,1","+0020,1","10202,1",,,,"0,1,03,1","0,1,03,1",,,"01,99,1,01,1,00,1,02250,1,03,1,00,1",,,,,"99999,9,09579,1","3,1,002,1,+999,9","10,1",,,"SYN072AAXX  29094 08272 41830 11106 10045 20020 39579 40202 53002 71000 81030;",
"08272099999","2010-12-29T15:00:00","4","39.8833333","-4.05","516.0","TOLEDO, SP","FM-12","99999","V020","100,1,N,0041,1","22000,1,9,N","015000,1,N,1","+0131,1","+0058,1","10145,1",,,,,,,,"02,99,1,02,1,00,1,02250,1,03,1,01,1",,,,,"99999,9,09544,1","6,1,024,1,+999,9",,,,"SYN066AAXX  29154 08272 42865 21008 10131 20058 39544 40145 56024 82031;",
"08272099999","2010-12-29T18:00:00","4","39.8833333","-4.05","516.0","TOLEDO, SP","FM-12","99999","V020","080,1,N,0036,1","22000,1,9,N","020000,1,N,1","+0103,1","+0059,1","10146,1","12,0000,9,1",,,"4,1,06,1","4,1,06,1",,,"03,99,1,03,1,00,1,02250,1,03,1,01,1",,,,"999,M,+0133,1","99999,9,09539,1","6,1,005,1,+999,9","02,1",,,"SYN088AAXX  29184 08272 11870 30807 10103 20059 39539 40146 56005 60002 70244 83031 333 10133;","Q01  00002PRCP12"
"08272099999","2010-12-30T06:00:00","4","39.8833333","-4.05","516.0","TOLEDO, SP","FM-12","99999","V020","090,1,N,0051,1","01500,1,9,N","010000,1,N,1","+0049,1","+0019,1","10145,1","12,0000,9,1","24,0000,9,1",,,,,,"08,99,1,08,1,00,1,01750,1,07,1,99,9","0432,9","01,9","999,+0040,9","999,N,+0049,1","99999,9,09526,1","5,1,002,1,+999,9","10,1",,,"SYN112AAXX  30064 08272 11760 80910 10049 20019 39526 40145 55002 60002 710// 8807/ 333 20049 30004 50144 55072 70000;","Q01  00002PRCP24Q02  00002PRCP12"
"08272099999","2010-12-30T09:00:00","4","39.8833333","-4.05","516.0","TOLEDO, SP","FM-12","99999","V020","100,1,N,0046,1","03600,1,9,N","005000,1,N,1","+0054,1","+0028,1","10168,1",,,,"2,1,03,1","2,1,03,1",,,"08,99,1,01,1,07,1,00450,1,07,1,99,9",,,,,"99999,9,09549,1","3,1,023,1,+999,9","10,1",,,"SYN072AAXX  30094 08272 41450 81009 10054 20028 39549 40168 53023 71022 8177/;",
"08272099999","2010-12-30T12:00:00","4","39.8833333","-4.05","516.0","TOLEDO, SP","FM-12","99999","V020","100,1,N,0046,1","00420,1,9,N","012000,1,N,1","+0081,1","+0043,1","10151,1","06,0000,9,1",,,"6,1,06,1","2,1,06,1",,,"08,99,1,06,1,05,1,00450,1,07,1,08,1",,,,,"99999,9,09539,1","8,1,010,1,+999,9","02,1",,,"SYN078AAXX  30124 08272 11462 81009 10081 20043 39539 40151 58010 69911 70262 86578;","Q01  00002PRCP06"
"08272099999","2010-12-30T15:00:00","4","39.8833333","-4.05","516.0","TOLEDO, SP","FM-12","99999","V020","110,1,N,0046,1","01200,1,9,N","012000,1,N,1","+0091,1","+0074,1","10136,1",,,,"6,1,03,1","2,1,03,1",,,"08,99,1,05,1,08,1,00800,1,07,1,01,1",,,,,"99999,9,09527,1","7,1,012,1,+999,9","21,1",,,"SYN072AAXX  30154 08272 41562 81109 10091 20074 39527 40136 57012 72162 85871;",
"08272099999","2010-12-30T18:00:00","4","39.8833333","-4.05","516.0","TOLEDO, SP","FM-12","99999","V020","100,1,N,0031,1","00750,1,9,N","004000,1,N,1","+0089,1","+0077,1","10146,1","12,0041,9,1",,,"6,1,06,1","2,1,06,1",,,"08,99,1,05,1,05,1,00800,1,07,1,99,9",,,,"999,M,+0100,1","99999,9,09536,1","3,1,009,1,+999,9","61,1",,,"SYN088AAXX  30184 08272 11540 81006 10089 20077 39536 40146 53009 60042 76162 8557/ 333 10100;",
"08272099999","2010-12-31T06:00:00","4","39.8833333","-4.05","516.0","TOLEDO, SP","FM-12","99999","V020","080,1,N,0010,1","03600,1,9,N","015000,1,N,1","+0071,1","+0065,1","10167,1","12,0020,9,1","24,0058,9,1",,,,,,"08,99,1,01,1,07,1,00450,1,07,1,99,9","0000,9","11,9","999,+0040,9","999,N,+0066,1","99999,9,09552,1","3,1,007,1,+999,9","21,1",,,"SYN112AAXX  31064 08272 11465 80802 10071 20065 39552 40167 53007 60022 721// 8177/ 333 20066 32004 50074 55000 70059;",
"08272099999","2010-12-31T09:00:00","4","39.8833333","-4.05","516.0","TOLEDO, SP","FM-12","99999","V020","170,1,N,0010,1","00900,1,9,N","015000,1,N,1","+0073,1","+0067,1","10180,1",,,,"6,1,03,1","2,1,03,1",,,"08,99,1,07,1,08,1,00450,1,07,1,99,9",,,,,"99999,9,09565,1","2,1,013,1,+999,9","60,1",,,"SYN072AAXX  31094 08272 41465 81702 10073 20067 39565 40180 52013 76062 8787/;",
"08272099999","2010-12-31T12:00:00","4","39.8833333","-4.05","516.0","TOLEDO, SP","FM-12","99999","V020","110,1,N,0021,1","03600,1,9,N","030000,1,N,1","+0106,1","+0084,1","10177,1","06,0005,9,1",,,"6,1,06,1","2,1,06,1",,,"07,99,1,03,1,08,1,00150,1,07,1,01,1",,,,,"99999,9,09569,1","0,1,004,1,+999,9","02,1",,,"SYN078AAXX  31124 08272 11280 71104 10106 20084 39569 40177 50004 69941 70262 83871;",
