"STATION","DATE","SOURCE","LATITUDE","LONGITUDE","ELEVATION","NAME","REPORT_TYPE","CALL_SIGN","QUALITY_CONTROL","WND","CIG","VIS","TMP","DEW","SLP","AA1","AA2","AY1","AY2","GA1","GF1","GJ1","IA1","IA2","KA1","MA1","MD1","MW1","REM","EQD"
"08286099999","2010-01-01T06:00:00","4","39.95","-0.0666666","43.5","CASTELLON ALMAZORA, SP","FM-12","99999","V020","280,1,N,0072,1","22000,1,9,N","030000,1,N,1","+0116,1","-0026,1","10021,1","12,0000,9,1","24,0000,9,1",,,,"06,99,1,01,1,05,1,01250,1,00,1,04,1","0192,9","01,9","999,+0090,9","999,N,+0108,1","99999,9,09979,1","4,1,000,1,+999,9",,"SYN106AAXX  01064 08286 12680 62814 10116 21026 39979 40021 54000 60002 81504 333 20108 30009 50524 55032 70000;","Q01  00002PRCP24Q02  00002PRCP12"
"08286099999","2010-01-01T09:00:00","4","39.95","-0.0666666","43.5","CASTELLON ALMAZORA, SP","FM-12","99999","V020","290,1,N,0057,1","22000,1,9,N","040000,1,N,1","+0128,1","-0019,1","10041,1",,,,,,"01,99,1,01,1,08,1,01250,1,00,1,00,1",,,,,"99999,9,09999,1","2,1,020,1,+999,9",,"SYN066AAXX  01094 08286 42682 12911 10128 21019 39999 40041 52020 81800;",
"08286099999","2010-01-01T12:00:00","4","39.95","-0.0666666","43.5","CASTELLON ALMAZORA, SP","FM-12","99999","V020","280,1,N,0046,1","22000,1,9,N","040000,1,N,1","+0160,1","-0011,1","10046,1","06,0000,9,1",,,,,"01,99,1,01,1,08,1,00800,1,00,1,00,1",,,,,"99999,9,10005,1","0,1,006,1,+999,9",,"SYN072AAXX  01124 08286 12582 12809 10160 21011 30005 40046 50006 60001 81800;","Q01  00002PRCP06"
"08286099999","2010-01-02T06:00:00","4","39.95","-0.0666666","43.5","CASTELLON ALMAZORA, SP","FM-12","99999","V020","300,1,N,0026,1","22000,1,9,N","030000,1,N,1","+0082,1","-0011,1","10160,1","12,0000,9,1","24,0000,9,1",,,,"04,99,1,04,1,00,1,99999,9,04,1,00,1","0546,9","01,9","999,+0060,9","999,N,+0078,1","99999,9,10117,1","2,1,016,1,+999,9",,"SYN106AAXX  02064 08286 12980 43005 10082 21011 30117 40160 52016 60002 84040 333 20078 30006 50604 55091 70000;","Q01  00002PRCP24Q02  00002PRCP12"
"08286099999","2010-01-02T09:00:00","4","39.95","-0.0666666","43.5","CASTELLON ALMAZORA, SP","FM-12","99999","V020","290,1,N,0031,1","22000,1,9,N","040000,1,N,1","+0090,1","-0009,1","10174,1",,,,,,"04,99,1,04,1,00,1,99999,9,04,1,00,1",,,,,"99999,9,10131,1","2,1,014,1,+999,9",,"SYN066AAXX  02094 08286 42982 42906 10090 21009 30131 40174 52014 84040;",
"08286099999","2010-01-02T12:00:00","4","39.95","-0.0666666","43.5","CASTELLON ALMAZORA, SP","FM-12","99999","V020","310,1,N,0021,1","99999,9,9,N","040000,1,N,1","+0148,1","+0003,1","10177,1","06,0000,9,1",,,,,"06,99,1,05,1,00,1,99999,9,03,1,09,1",,,,,"99999,9,10135,1","0,1,004,1,+999,9",,"SYN072AAXX  02124 08286 12982 63104 10148 20003 30135 40177 50004 60001 85039;","Q01  00002PRCP06"
"08286099999","2010-01-03T06:00:00","4","39.95","-0.0666666","43.5","CASTELLON ALMAZORA, SP","FM-12","99999","V020","290,1,N,0031,1","99999,9,9,N","025000,1,N,1","+0058,1","-0007,1","10189,1","12,0000,9,1","24,0000,9,1",,,,"05,99,1,03,1,00,1,99999,9,04,1,01,1","0126,9","01,9","999,+0040,9","999,N,+0054,1","99999,9,10146,1","7,1,005,1,+999,9",,"SYN106AAXX  03064 08286 12975 52906 10058 21007 30146 40189 57005 60002 83041 333 20054 30004 50274 55021 70000;","Q01  00002PRCP24Q02  00002PRCP12"
"08286099999","2010-01-03T09:00:00","4","39.95","-0.0666666","43.5","CASTELLON ALMAZORA, SP","FM-12","99999","V020","290,1,N,0031,1","99999,9,9,N","040000,1,N,1","+0066,1","-0001,1","10183,1",,,,,,"06,99,1,01,1,00,1,99999,9,04,1,02,1",,,,,"99999,9,10140,1","7,1,006,1,+999,9",,"SYN066AAXX  03094 08286 42982 62906 10066 21001 30140 40183 57006 81042;",
"08286099999","2010-01-03T12:00:00","4","39.95","-0.0666666","43.5","CASTELLON ALMAZORA, SP","FM-12","99999","V020","170,1,N,0021,1","03600,1,9,N","035000,1,N,1","+0144,1","+0041,1","10165,1","06,0000,9,1",,,,,"05,99,1,01,1,01,1,01250,1,03,1,00,1",,,,,"99999,9,10123,1","8,1,017,1,+999,9",,"SYN072AAXX  03124 08286 12681 51704 10144 20041 30123 40165 58017 60001 81130;","Q01  00002PRCP06"
"08286099999","2010-01-04T06:00:00","4","39.95","-0.0666666","43.5","CASTELLON ALMAZORA, SP","FM-12","99999","V020","999,9,C,0000,1","99999,9,9,N","008000,1,N,1","+0098,1","+0076,1","10111,1","12,0041,9,1","24,0046,9,1","6,1,06,1","2,1,06,1",,"08,99,1,08,1,00,1,99999,9,02,1,99,9","0336,9","11,9","999,+0070,9","999,N,+0090,1","99999,9,10069,1","5,1,001,1,+999,9","63,1","SYN112AAXX  04064 08286 11958 80000 10098 20076 30069 40111 55001 60042 76362 8802/ 333 20090 32007 50114 55056 70045;",
"08286099999","2010-01-04T09:00:00","4","39.95","-0.0666666","43.5","CASTELLON ALMAZORA, SP","FM-12","99999","V020","280,1,N,0026,1","99999,9,9,N","020000,1,N,1","+0106,1","+0080,1","10109,1",,,"6,1,03,1","5,1,03,1",,"07,99,1,07,1,00,1,99999,9,07,1,99,9",,,,,"99999,9,10067,1","8,1,002,1,+999,9","20,1","SYN072AAXX  04094 08286 41970 72805 10106 20080 30067 40109 58002 72065 8707/;",
"08286099999","2010-01-04T12:00:00","4","39.95","-0.0666666","43.5","CASTELLON ALMAZORA, SP","FM-12","99999","V020","100,1,N,0015,1","01500,1,9,N","020000,1,N,1","+0140,1","+0086,1","10093,1","06,0010,9,1",,"6,1,06,1","5,1,06,1",,"08,99,1,05,1,08,1,01250,1,07,1,99,9",,,,,"99999,9,10051,1","7,1,016,1,+999,9","02,1","SYN078AAXX  04124 08286 11670 81003 10140 20086 30051 40093 57016 60011 70265 8587/;",
"08286099999","2010-01-05T06:00:00","4","39.95","-0.0666666","43.5","CASTELLON ALMAZORA, SP","FM-12","99999","V020","330,1,N,0005,1","99999,9,9,N","008000,1,N,1","+0102,1","+0083,1","09991,1","12,0020,9,1","24,0069,9,1","6,1,06,1","2,1,06,1",,"08,99,1,08,1,00,1,99999,9,02,1,99,9","0006,9","11,9","999,+0090,9","999,N,+0100,1","99999,9,09949,1","7,1,011,1,+999,9","61,1","SYN112AAXX  05064 08286 11958 83301 10102 20083 39949 49991 57011 60022 76162 8802/ 333 20100 32009 50064 55001 70069;",
"08286099999","2010-01-05T09:00:00","4","39.95","-0.0666666","43.5","CASTELLON ALMAZORA, SP","FM-12","99999","V020","250,1,N,0021,1","01200,1,9,N","015000,1,N,1","+0108,1","+0089,1","09989,1",,,"6,1,03,1","2,1,03,1",,"08,99,1,05,1,05,1,01250,1,02,1,99,9",,,,,"99999,9,09947,1","6,1,002,1,+999,9","60,1","SYN072AAXX  05094 08286 41665 82504 10108 20089 39947 49989 56002 76062 8552/;",
"08286099999","2010-01-05T12:00:00","4","39.95","-0.0666666","43.5","CASTELLON ALMAZORA, SP","FM-12","99999","V020","140,1,N,0010,1","01200,1,9,N","020000,1,N,1","+0132,1","+0096,1","09988,1","06,0030,9,1",,"6,1,06,1","2,1,06,1",,"08,99,1,07,1,05,1,01250,1,02,1,99,9",,,,,"99999,9,09947,1","4,1,000,1,+999,9","03,1","SYN078AAXX  05124 08286 11670 81402 10132 20096 39947 49988 54000 60031 70362 8752/;",
"08286099999","2010-01-06T06:00:00","4","39.95","-0.0666666","43.5","CASTELLON ALMAZORA, SP","FM-12","99999","V020","280,1,N,0010,1","01200,1,9,N","008000,1,N,1","+0082,1","+0062,1","10022,1","12,0041,9,1","24,0064,9,1","6,1,06,1","2,1,06,1",,"07,99,1,05,1,05,1,01250,1,03,1,99,9","0000,9","09,9","999,+0060,9","999,N,+0078,1","99999,9,09980,1","3,1,002,1,+999,9","10,1","SYN112AAXX  06064 08286 11658 72802 10082 20062 39980 40022 53002 60042 71062 8553/ 333 20078 31006 50074 55000 70064;",
"08286099999","2010-01-06T09:00:00","4","39.95","-0.0666666","43.5","CASTELLON ALMAZORA, SP","FM-12","99999","V020","290,1,N,0015,1","01500,1,9,N","030000,1,N,1","+0068,1","+0041,1","10041,1",,,,,,"06,99,1,06,1,08,1,01250,1,00,1,00,1",,,,,"99999,9,09998,1","2,1,018,1,+999,9",,"SYN066AAXX  06094 08286 42680 62903 10068 20041 39998 40041 52018 86800;",
"08286099999","2010-01-06T12:00:00","4","39.95","-0.0666666","43.5","CASTELLON ALMAZORA, SP","FM-12","99999","V020","160,1,N,0021,1","01500,1,9,N","025000,1,N,1","+0120,1","+0045,1","10045,1","06,0000,9,1",,,,,"06,99,1,06,1,08,1,01250,1,00,1,00,1",,,,,"99999,9,10003,1","0,1,005,1,+999,9",,"SYN072AAXX  06124 08286 12675 61604 10120 20045 30003 40045 50005 60001 86800;","Q01  00002PRCP06"
"08286099999","2010-01-07T06:00:00","4","39.95","-0.0666666","43.5","CASTELLON ALMAZORA, SP","FM-12","99999","V020","330,1,N,0010,1","01500,1,9,N","020000,1,N,1","+0076,1","+0046,1","10015,1","12,0008,9,1","24,0008,9,1","6,1,06,1","2,1,06,1",,"08,99,1,08,1,08,1,01250,1,99,9,99,9","0162,9","11,9","999,+0060,9","999,N,+0074,1","99999,9,09973,1","7,1,020,1,+999,9","50,1","SYN112AAXX  07064 08286 11670 83302 10076 20046 39973 40015 57020 69972 75062 888// 333 20074 32006 50124 55027 70007;",
"08286099999","2010-01-07T09:00:00","4","39.95","-0.0666666","43.5","CASTELLON ALMAZORA, SP","FM-12","99999","V020","350,1,N,0021,1","01500,1,9,N","010000,1,N,1","+0068,1","+0005,1","10005,1",,,"5,1,03,1","2,1,03,1",,"08,99,1,08,1,08,1,01250,1,99,9,99,9",,,,,"99999,9,09962,1","6,1,011,1,+999,9","61,1","SYN072AAXX  07094 08286 41660 83504 10068 20005 39962 40005 56011 76152 888//;",
"08286099999","2010-01-07T12:00:00","4","39.95","-0.0666666","43.5","CASTELLON ALMAZORA, SP","FM-12","99999","V020","030,1,N,0036,1","01200,1,9,N","010000,1,N,1","+0068,1","+0021,1","09982,1","06,0041,9,1",,"6,1,06,1","6,1,06,1",,"08,99,1,07,1,07,1,01250,1,99,9,99,9",,,,,"99999,9,09940,1","8,1,022,1,+999,9","61,1","SYN078AAXX  07124 08286 11660 80307 10068 20021 39940 49982 58022 60041 76166 877//;",
"08286099999","2010-01-08T06:00:00","4","39.95","-0.0666666","43.5","CASTELLON ALMAZORA, SP","FM-12","99999","V020","290,1,N,0036,1","01200,1,9,N","015000,1,N,1","+0026,1","-0003,1","09962,1","12,0051,9,1","24,0183,9,1","6,1,06,1","6,1,06,1",,"08,99,1,08,1,07,1,01250,1,99,9,99,9","0000,9","11,9","999,+0020,9","999,N,+0026,1","99999,9,09919,1","3,1,008,1,+999,9","61,1","SYN112AAXX  08064 08286 11665 82907 10026 21003 39919 49962 53008 60052 76166 887// 333 20026 32002 50134 55000 70182;",
"08286099999","2010-01-08T09:00:00","4","39.95","-0.0666666","43.5","CASTELLON ALMAZORA, SP","FM-12","99999","V020","290,1,N,0041,1","01200,1,9,N","030000,1,N,1","+0038,1","-0032,1","09976,1",,,"6,1,03,1","2,1,03,1",,"08,99,1,08,1,07,1,01250,1,99,9,99,9",,,,,"99999,9,09933,1","2,1,014,1,+999,9","02,1","SYN072AAXX  08094 08286 41680 82908 10038 21032 39933 49976 52014 70262 887//;",
"08286099999","2010-01-08T12:00:00","4","39.95","-0.0666666","43.5","CASTELLON ALMAZORA, SP","FM-12","99999","V020","300,1,N,0026,1","01500,1,9,N","030000,1,N,1","+0054,1","-0044,1","09996,1","06,0010,9,1",,"6,1,06,1","2,1,06,1",,"08,99,1,08,1,08,1,01250,1,99,9,99,9",,,,,"99999,9,09953,1","2,1,020,1,+999,9","02,1","SYN078AAXX  08124 08286 11680 83005 10054 21044 39953 49996 52020 60011 70262 888//;",
"08286099999","2010-01-09T06:00:00","4","39.95","-0.0666666","43.5","CASTELLON ALMAZORA, SP","FM-12","99999","V020","300,1,N,0031,1","22000,1,9,N","030000,1,N,1","+0034,1","-0095,1","10048,1","12,0000,9,1","24,0010,9,1",,,,"01,99,1,01,1,00,1,99999,9,04,1,00,1","0000,9","09,9","999,+0010,9","999,N,+0022,1","99999,9,10005,1","3,1,005,1,+999,9",,"SYN106AAXX  09064 08286 12980 13006 10034 21095 30005 40048 53005 60002 81040 333 20022 31001 50274 55000 70010;","Q01  00002PRCP12"
"08286099999","2010-01-09T09:00:00","4","39.95","-0.0666666","43.5","CASTELLON ALMAZORA, SP","FM-12","99999","V020","290,1,N,0041,1","22000,1,9,N","040000,1,N,1","+0048,1","-0090,1","10057,1",,,,,,"01,99,1,01,1,05,1,01250,1,00,1,00,1",,,,,"99999,9,10014,1","2,1,009,1,+999,9",,"SYN066AAXX  09094 08286 42682 12908 10048 21090 30014 40057 52009 81500;",
"08286099999","2010-01-09T12:00:00","4","39.95","-0.0666666","43.5","CASTELLON ALMAZORA, SP","FM-12","99999","V020","320,1,N,0057,1","22000,1,9,N","040000,1,N,1","+0068,1","-0104,1","10065,1","06,0000,9,1",,,,,"01,99,1,01,1,05,1,01250,1,00,1,00,1",,,,,"99999,9,10022,1","1,1,008,1,+999,9",,"SYN072AAXX  09124 08286 12682 13211 10068 21104 30022 40065 51008 60001 81500;","Q01  00002PRCP06"
"08286099999","2010-01-10T06:00:00","4","39.95","-0.0666666","43.5","CASTELLON ALMAZORA, SP","FM-12","99999","V020","290,1,N,0036,1","22000,1,9,N","030000,1,N,1","+0026,1","-0103,1","10139,1","12,0000,9,1","24,0000,9,1",,,"00,1,+99999,9,99,9","00,99,1,00,1,00,1,99999,9,00,1,00,1","0540,9","09,9","999,-0010,9","999,N,+0016,1","99999,9,10095,1","3,1,004,1,+999,9",,"SYN100AAXX  10064 08286 12980 02907 10026 21103 30095 40139 53004 60002 333 20016 31101 50524 55090 70000;","Q01  00002PRCP24Q02  00002PRCP12"
"08286099999","2010-01-10T09:00:00","4","39.95","-0.0666666","43.5","CASTELLON ALMAZORA, SP","FM-12","99999","V020","260,1,N,0036,1","99999,9,9,N","040000,1,N,1","+0030,1","-0096,1","10156,1",,,,,,"05,99,1,01,1,00,1,99999,9,04,1,04,1",,,,,"99999,9,10112,1","2,1,017,1,+999,9",,"SYN066AAXX  10094 08286 42982 52607 10030 21096 30112 40156 52017 81044;",
"08286099999","2010-01-10T12:00:00","4","39.95","-0.0666666","43.5","CASTELLON ALMAZORA, SP","FM-12","99999","V020","240,1,N,0026,1","99999,9,9,N","040000,1,N,1","+0078,1","-0087,1","10152,1","06,0000,9,1",,,,,"07,99,1,01,1,00,1,99999,9,04,1,06,1",,,,,"99999,9,10109,1","8,1,003,1,+999,9",,"SYN072AAXX  10124 08286 12982 72405 10078 21087 30109 40152 58003 60001 81046;","Q01  00002PRCP06"
"08286099999","2010-01-11T06:00:00","4","39.95","-0.0666666","43.5","CASTELLON ALMAZORA, SP","FM-12","99999","V020","290,1,N,0015,1","03600,1,9,N","020000,1,N,1","+0026,1","-0003,1","10137,1","12,0005,9,1","24,0005,9,1","6,1,06,1","2,1,06,1",,"07,99,1,04,1,05,1,01250,1,07,1,00,1","0342,9","11,9","999,+0010,9","999,N,+0020,1","99999,9,10093,1","4,1,000,1,+999,9","02,1","SYN112AAXX  11064 08286 11670 72903 10026 21003 30093 40137 54000 69942 70262 84570 333 20020 32001 50184 55057 70004;",
"08286099999","2010-01-11T09:00:00","4","39.95","-0.0666666","43.5","CASTELLON ALMAZORA, SP","FM-12","99999","V020","300,1,N,0015,1","22000,1,9,N","040000,1,N,1","+0028,1","-0003,1","10154,1",,,,,,"03,99,1,01,1,05,1,01250,1,04,1,04,1",,,,,"99999,9,10110,1","2,1,017,1,+999,9",,"SYN066AAXX  11094 08286 42682 33003 10028 21003 30110 40154 52017 81544;",
"08286099999","2010-01-11T12:00:00","4","39.95","-0.0666666","43.5","CASTELLON ALMAZORA, SP","FM-12","99999","V020","150,1,N,0015,1","22000,1,9,N","040000,1,N,1","+0088,1","-0005,1","10161,1","06,0000,9,1",,,,,"02,99,1,01,1,05,1,01250,1,04,1,05,1",,,,,"99999,9,10118,1","1,1,008,1,+999,9",,"SYN072AAXX  11124 08286 12682 21503 10088 21005 30118 40161 51008 60001 81545;","Q01  00002PRCP06"
"08286099999","2010-01-12T06:00:00","4","39.95","-0.0666666","43.5","CASTELLON ALMAZORA, SP","FM-12","99999","V020","300,1,N,0010,1","22000,1,9,N","030000,1,N,1","+0022,1","-0007,1","10161,1","12,0000,9,1","24,0000,9,1",,,,"01,99,1,01,1,00,1,99999,9,04,1,00,1","0528,9","09,9","999,+0000,9","999,N,+0010,1","99999,9,10117,1","6,1,014,1,+999,9",,"SYN106AAXX  12064 08286 12980 13002 10022 21007 30117 40161 56014 60002 81040 333 20010 31000 50094 55088 70000;","Q01  00002PRCP24Q02  00002PRCP12"
"08286099999","2010-01-12T09:00:00","4","39.95","-0.0666666","43.5","CASTELLON ALMAZORA, SP","FM-12","99999","V020","300,1,N,0015,1","99999,9,9,N","030000,1,N,1","+0050,1","+0015,1","10157,1",,,,,,"07,99,1,03,1,00,1,99999,9,04,1,08,1",,,,,"99999,9,10114,1","8,1,003,1,+999,9",,"SYN066AAXX  12094 08286 42980 73003 10050 20015 30114 40157 58003 83048;",
"08286099999","2010-01-12T12:00:00","4","39.95","-0.0666666","43.5","CASTELLON ALMAZORA, SP","FM-12","99999","V020","010,1,N,0010,1","01200,1,9,N","020000,1,N,1","+0086,1","+0036,1","10134,1","06,9999,9,9",,"8,1,06,1","2,1,06,1",,"08,99,1,08,1,07,1,01250,1,99,9,99,9",,,,,"99999,9,10091,1","7,1,023,1,+999,9","25,1","SYN078AAXX  12124 08286 11670 80102 10086 20036 30091 40134 57023 69901 72582 887//;","Q01  00002PRCP06Q02  00002PRCP06"
"08286099999","2010-01-13T06:00:00","4","39.95","-0.0666666","43.5","CASTELLON ALMAZORA, SP","FM-12","99999","V020","280,1,N,0046,1","22000,1,9,N","030000,1,N,1","+0120,1","-0030,1","10102,1","12,0000,9,1","24,0010,9,1",,,"00,1,+99999,9,99,9","00,99,1,00,1,00,1,99999,9,00,1,00,1","0018,9","09,9","999,+0060,9","999,N,+0074,1","99999,9,10060,1","2,1,010,1,+999,9",,"SYN100AAXX  13064 08286 12980 02809 10120 21030 30060 40102 52010 60002 333 20074 31006 50204 55003 70010;","Q01  00002PRCP12"
"08286099999","2010-01-13T09:00:00","4","39.95","-0.0666666","43.5","CASTELLON ALMAZORA, SP","FM-12","99999","V020","280,1,N,0046,1","22000,1,9,N","040000,1,N,1","+0128,1","-0023,1","10123,1",,,,,,"01,99,1,01,1,00,1,99999,9,04,1,00,1",,,,,"99999,9,10081,1","2,1,021,1,+999,9",,"SYN066AAXX  13094 08286 42982 12809 10128 21023 30081 40123 52021 81040;",
"08286099999","2010-01-13T12:00:00","4","39.95","-0.0666666","43.5","CASTELLON ALMAZORA, SP","FM-12","99999","V020","280,1,N,0051,1","99999,9,9,N","040000,1,N,1","+0160,1","-0002,1","10119,1","06,0000,9,1",,,,,"06,99,1,03,1,00,1,99999,9,07,1,08,1",,,,,"99999,9,10077,1","8,1,004,1,+999,9",,"SYN072AAXX  13124 08286 12982 62810 10160 21002 30077 40119 58004 60001 83078;","Q01  00002PRCP06"
"08286099999","2010-01-14T06:00:00","4","39.95","-0.0666666","43.5","CASTELLON ALMAZORA, SP","FM-12","99999","V020","270,1,N,0021,1","99999,9,9,N","008000,1,N,1","+0088,1","+0066,1","09982,1","12,0020,9,1","24,0023,9,1","6,1,06,1","2,1,06,1",,"06,99,1,06,1,00,1,99999,9,07,1,00,1","0198,9","09,9","999,+0070,9","999,N,+0086,1","99999,9,09940,1","7,1,034,1,+999,9","10,1","SYN112AAXX  14064 08286 11958 62704 10088 20066 39940 49982 57034 60022 71062 86070 333 20086 31007 50254 55033 70022;",
"08286099999","2010-01-14T09:00:00","4","39.95","-0.0666666","43.5","CASTELLON ALMAZORA, SP","FM-12","99999","V020","260,1,N,0026,1","22000,1,9,N","030000,1,N,1","+0160,1","+0024,1","09971,1",,,,,,"03,99,1,01,1,01,1,01250,1,04,1,00,1",,,,,"99999,9,09930,1","6,1,010,1,+999,9",,"SYN066AAXX  14094 08286 42680 32605 10160 20024 39930 49971 56010 81140;",
"08286099999","2010-01-14T12:00:00","4","39.95","-0.0666666","43.5","CASTELLON ALMAZORA, SP","FM-12","99999","V020","290,1,N,0098,1","22000,1,9,N","030000,1,N,1","+0176,1","+0012,1","09971,1","06,0000,9,1",,,,,"03,99,1,01,1,01,1,01250,1,04,1,02,1",,,,,"99999,9,09930,1","5,1,000,1,+999,9",,"SYN072AAXX  14124 08286 12680 32919 10176 20012 39930 49971 55000 60001 81142;","Q01  00002PRCP06"
"08286099999","2010-01-15T06:00:00","4","39.95","-0.0666666","43.5","CASTELLON ALMAZORA, SP","FM-12","99999","V020","280,1,N,0036,1","22000,1,9,N","015000,1,N,1","+0124,1","-0038,1","10151,1","12,0000,9,1","24,0000,9,1",,,,"02,99,1,02,1,00,1,99999,9,04,1,00,1","0216,9","01,9","999,+0100,9","999,N,+0118,1","99999,9,10109,1","2,1,041,1,+999,9",,"SYN106AAXX  15064 08286 12965 22807 10124 21038 30109 40151 52041 60002 82040 333 20118 30010 50864 55036 70000;","Q01  00002PRCP24Q02  00002PRCP12"
"08286099999","2010-01-15T09:00:00","4","39.95","-0.0666666","43.5","CASTELLON ALMAZORA, SP","FM-12","99999","V020","290,1,N,0026,1","22000,1,9,N","040000,1,N,1","+0120,1","-0034,1","10192,1",,,,,,"01,99,1,00,1,00,1,99999,9,00,1,05,1",,,,,"99999,9,10149,1","2,1,040,1,+999,9",,"SYN066AAXX  15094 08286 42982 12905 10120 21034 30149 40192 52040 80005;",
"08286099999","2010-01-15T12:00:00","4","39.95","-0.0666666","43.5","CASTELLON ALMAZORA, SP","FM-12","99999","V020","260,1,N,0015,1","22000,1,9,N","040000,1,N,1","+0172,1","-0014,1","10199,1","06,0000,9,1",,,,,"01,99,1,00,1,00,1,99999,9,00,1,05,1",,,,,"99999,9,10157,1","1,1,008,1,+999,9",,"SYN072AAXX  15124 08286 12982 12603 10172 21014 30157 40199 51008 60001 80005;","Q01  00002PRCP06"
"08286099999","2010-01-16T06:00:00","4","39.95","-0.0666666","43.5","CASTELLON ALMAZORA, SP","FM-12","99999","V020","300,1,N,0021,1","99999,9,9,N","015000,1,N,1","+0066,1","-0015,1","10206,1","12,0000,9,1","24,0000,9,1",,,,"06,99,1,06,1,00,1,99999,9,07,1,99,9","0534,9","01,9","999,+0050,9","999,N,+0064,1","99999,9,10163,1","6,1,009,1,+999,9",,"SYN106AAXX  16064 08286 12965 63004 10066 21015 30163 40206 56009 60002 8607/ 333 20064 30005 50344 55089 70000;","Q01  00002PRCP24Q02  00002PRCP12"
"08286099999","2010-01-16T09:00:00","4","39.95","-0.0666666","43.5","CASTELLON ALMAZORA, SP","FM-12","99999","V020","340,1,N,0021,1","99999,9,9,N","030000,1,N,1","+0086,1","-0012,1","10209,1",,,,,,"08,99,1,04,1,00,1,99999,9,04,1,07,1",,,,,"99999,9,10166,1","3,1,003,1,+999,9",,"SYN066AAXX  16094 08286 42980 83404 10086 21012 30166 40209 53003 84047;",
"08286099999","2010-01-16T12:00:00","4","39.95","-0.0666666","43.5","CASTELLON ALMAZORA, SP","FM-12","99999","V020","140,1,N,0005,1","99999,9,9,N","030000,1,N,1","+0136,1","+0022,1","10208,1","06,0000,9,1",,,,,"08,99,1,05,1,00,1,99999,9,07,1,07,1",,,,,"99999,9,10166,1","4,1,000,1,+999,9",,"SYN072AAXX  16124 08286 12980 81401 10136 20022 30166 40208 54000 60001 85077;","Q01  00002PRCP06"
"08286099999","2010-01-17T06:00:00","4","39.95","-0.0666666","43.5","CASTELLON ALMAZORA, SP","FM-12","99999","V020","300,1,N,0015,1","99999,9,9,N","015000,1,N,1","+0102,1","+0046,1","10204,1","12,0000,9,1","24,0000,9,1",,,,"08,99,1,08,1,00,1,99999,9,07,1,99,9","0060,9","01,9","999,+0080,9","999,N,+0094,1","99999,9,10161,1","3,1,002,1,+999,9",,"SYN106AAXX  17064 08286 12965 83003 10102 20046 30161 40204 53002 60002 8807/ 333 20094 30008 50124 55010 70000;","Q01  00002PRCP24Q02  00002PRCP12"
"08286099999","2010-01-17T09:00:00","4","39.95","-0.0666666","43.5","CASTELLON ALMAZORA, SP","FM-12","99999","V020","300,1,N,0021,1","03600,1,9,N","030000,1,N,1","+0112,1","+0051,1","10220,1",,,,,,"07,99,1,01,1,05,1,00800,1,07,1,00,1",,,,,"99999,9,10177,1","2,1,016,1,+999,9",,"SYN066AAXX  17094 08286 42580 73004 10112 20051 30177 40220 52016 81570;",
"08286099999","2010-01-17T12:00:00","4","39.95","-0.0666666","43.5","CASTELLON ALMAZORA, SP","FM-12","99999","V020","040,1,N,0010,1","03600,1,9,N","030000,1,N,1","+0158,1","+0045,1","10227,1","06,0000,9,1",,,,,"08,99,1,01,1,05,1,00800,1,07,1,00,1",,,,,"99999,9,10185,1","1,1,008,1,+999,9",,"SYN072AAXX  17124 08286 12580 80402 10158 20045 30185 40227 51008 60001 81570;","Q01  00002PRCP06"
"08286099999","2010-01-18T06:00:00","4","39.95","-0.0666666","43.5","CASTELLON ALMAZORA, SP","FM-12","99999","V020","330,1,N,0005,1","03600,1,9,N","015000,1,N,1","+0114,1","+0081,1","10230,1","12,0000,9,1","24,0000,9,1",,,,"08,99,1,03,1,08,1,01250,1,07,1,99,9","0108,9","01,9","999,+0090,9","999,N,+0098,1","99999,9,10187,1","5,1,002,1,+999,9",,"SYN106AAXX  18064 08286 12665 83301 10114 20081 30187 40230 55002 60002 8387/ 333 20098 30009 50214 55018 70000;","Q01  00002PRCP24Q02  00002PRCP12"
"08286099999","2010-01-18T09:00:00","4","39.95","-0.0666666","43.5","CASTELLON ALMAZORA, SP","FM-12","99999","V020","360,1,N,0010,1","01200,1,9,N","020000,1,N,1","+0122,1","+0079,1","10231,1",,,,,,"08,99,1,07,1,05,1,01250,1,07,1,99,9",,,,,"99999,9,10188,1","1,1,001,1,+999,9",,"SYN066AAXX  18094 08286 42670 83602 10122 20079 30188 40231 51001 8757/;",
"08286099999","2010-01-18T12:00:00","4","39.95","-0.0666666","43.5","CASTELLON ALMAZORA, SP","FM-12","99999","V020","020,1,N,0010,1","01200,1,9,N","010000,1,N,1","+0128,1","+0107,1","10227,1","06,0051,9,1",,"5,1,06,1","2,1,06,1",,"08,99,1,99,9,05,1,01250,1,07,1,99,9",,,,,"99999,9,10185,1","8,1,003,1,+999,9","51,1","SYN078AAXX  18124 08286 11660 80202 10128 20107 30185 40227 58003 60051 75152 8857/;","Q01+000082SCOTLC"
"08286099999","2010-01-19T09:00:00","4","39.95","-0.0666666","43.5","CASTELLON ALMAZORA, SP","FM-12","99999","V020","120,1,N,0010,1","22000,1,9,N","008000,1,N,1","+0122,1","+0098,1","10198,1",,,"4,1,03,1","4,1,03,1",,"04,99,1,02,1,08,1,00800,1,07,1,00,1",,,,,"99999,9,10156,1","6,1,002,1,+999,9","10,1","SYN072AAXX  19094 08286 41558 41202 10122 20098 30156 40198 56002 71044 82870;",
"08286099999","2010-01-19T12:00:00","4","39.95","-0.0666666","43.5","CASTELLON ALMAZORA, SP","FM-12","99999","V020","150,1,N,0015,1","03600,1,9,N","001200,1,N,1","+0132,1","+0100,1","10192,1","06,0000,9,1",,"4,1,06,1","2,1,06,1",,"08,99,1,04,1,08,1,00800,1,07,1,99,9",,,,,"99999,9,10150,1","8,1,006,1,+999,9","10,1","SYN078AAXX  19124 08286 11512 81503 10132 20100 30150 40192 58006 60001 71042 8487/;","Q01  00002PRCP06"
"08286099999","2010-01-20T06:00:00","4","39.95","-0.0666666","43.5","CASTELLON ALMAZORA, SP","FM-12","99999","V020","340,1,N,0010,1","22000,1,9,N","008000,1,N,1","+0106,1","+0034,1","10151,1","12,0000,9,1","24,0000,9,1","0,1,06,1","0,1,06,1",,"03,99,1,00,1,00,1,99999,9,00,1,05,1","0006,9","09,9","999,+0090,9","999,N,+0102,1","99999,9,10108,1","5,1,004,1,+999,9","05,1","SYN112AAXX  20064 08286 11958 33402 10106 20034 30108 40151 55004 60002 70500 80005 333 20102 31009 50114 55001 70000;","Q01  00002PRCP24Q02  00002PRCP12"
"08286099999","2010-01-20T09:00:00","4","39.95","-0.0666666","43.5","CASTELLON ALMAZORA, SP","FM-12","99999","V020","330,1,N,0015,1","22000,1,9,N","030000,1,N,1","+0110,1","+0045,1","10165,1",,,,,,"01,99,1,01,1,01,1,01250,1,04,1,00,1",,,,,"99999,9,10122,1","3,1,014,1,+999,9",,"SYN066AAXX  20094 08286 42680 13303 10110 20045 30122 40165 53014 81140;",
"08286099999","2010-01-20T12:00:00","4","39.95","-0.0666666","43.5","CASTELLON ALMAZORA, SP","FM-12","99999","V020","150,1,N,0021,1","22000,1,9,N","030000,1,N,1","+0176,1","+0042,1","10165,1","06,0000,9,1",,,,,"03,99,1,01,1,01,1,01250,1,00,1,01,1",,,,,"99999,9,10123,1","0,1,001,1,+999,9",,"SYN072AAXX  20124 08286 12680 31504 10176 20042 30123 40165 50001 60001 81101;","Q01  00002PRCP06"
"08286099999","2010-01-21T06:00:00","4","39.95","-0.0666666","43.5","CASTELLON ALMAZORA, SP","FM-12","99999","V020","280,1,N,0021,1","22000,1,9,N","030000,1,N,1","+0090,1","+0002,1","10201,1","12,0000,9,1","24,0000,9,1",,,,"02,99,1,02,1,00,1,99999,9,04,1,00,1","0534,9","01,9","999,+0050,9","999,N,+0066,1","99999,9,10158,1","6,1,001,1,+999,9",,"SYN106AAXX  21064 08286 12980 22804 10090 20002 30158 40201 56001 60002 82040 333 20066 30005 50284 55089 70000;","Q01  00002PRCP24Q02  00002PRCP12"
"08286099999","2010-01-21T09:00:00","4","39.95","-0.0666666","43.5","CASTELLON ALMAZORA, SP","FM-12","99999","V020","290,1,N,0026,1","22000,1,9,N","040000,1,N,1","+0098,1","+0009,1","10220,1",,,,,,"04,99,1,02,1,00,1,99999,9,04,1,05,1",,,,,"99999,9,10177,1","3,1,019,1,+999,9",,"SYN066AAXX  21094 08286 42982 42905 10098 20009 30177 40220 53019 82045;",
"08286099999","2010-01-21T12:00:00","4","39.95","-0.0666666","43.5","CASTELLON ALMAZORA, SP","FM-12","99999","V020","220,1,N,0026,1","99999,9,9,N","040000,1,N,1","+0168,1","+0009,1","10217,1","06,0000,9,1",,,,,"06,99,1,02,1,00,1,99999,9,04,1,06,1",,,,,"99999,9,10175,1","8,1,002,1,+999,9",,"SYN072AAXX  21124 08286 12982 62205 10168 20009 30175 40217 58002 60001 82046;","Q01  00002PRCP06"
"08286099999","2010-01-22T06:00:00","4","39.95","-0.0666666","43.5","CASTELLON ALMAZORA, SP","FM-12","99999","V020","300,1,N,0031,1","22000,1,9,N","030000,1,N,1","+0066,1","+0015,1","10204,1","12,0000,9,1","24,0000,9,1",,,"00,1,+99999,9,99,9","00,99,1,00,1,00,1,99999,9,00,1,00,1","0546,9","01,9","999,+0050,9","999,N,+0062,1","99999,9,10161,1","6,1,005,1,+999,9",,"SYN100AAXX  22064 08286 12980 03006 10066 20015 30161 40204 56005 60002 333 20062 30005 50224 55091 70000;","Q01  00002PRCP24Q02  00002PRCP12"
"08286099999","2010-01-22T09:00:00","4","39.95","-0.0666666","43.5","CASTELLON ALMAZORA, SP","FM-12","99999","V020","290,1,N,0026,1","22000,1,9,N","040000,1,N,1","+0088,1","+0017,1","10203,1",,,,,,"02,99,1,01,1,01,1,01750,1,04,1,04,1",,,,,"99999,9,10160,1","5,1,001,1,+999,9",,"SYN066AAXX  22094 08286 42782 22905 10088 20017 30160 40203 55001 81144;",
"08286099999","2010-01-22T12:00:00","4","39.95","-0.0666666","43.5","CASTELLON ALMAZORA, SP","FM-12","99999","V020","140,1,N,0026,1","22000,1,9,N","030000,1,N,1","+0154,1","+0050,1","10199,1","06,0000,9,1",,,,,"01,99,1,01,1,00,1,99999,9,04,1,00,1",,,,,"99999,9,10157,1","8,1,003,1,+999,9",,"SYN072AAXX  22124 08286 12980 11405 10154 20050 30157 40199 58003 60001 81040;","Q01  00002PRCP06"
"08286099999","2010-01-23T06:00:00","4","39.95","-0.0666666","43.5","CASTELLON ALMAZORA, SP","FM-12","99999","V020","310,1,N,0015,1","99999,9,9,N","020000,1,N,1","+0074,1","+0042,1","10193,1","12,0000,9,1","24,0000,9,1",,,,"07,99,1,04,1,00,1,99999,9,07,1,08,1","0522,9","01,9","999,+0050,9","999,N,+0068,1","99999,9,10150,1","6,1,001,1,+999,9",,"SYN106AAXX  23064 08286 12970 73103 10074 20042 30150 40193 56001 60002 84078 333 20068 30005 50164 55087 70000;","Q01  00002PRCP24Q02  00002PRCP12"
"08286099999","2010-01-23T09:00:00","4","39.95","-0.0666666","43.5","CASTELLON ALMAZORA, SP","FM-12","99999","V020","300,1,N,0015,1","00750,1,9,N","012000,1,N,1","+0092,1","+0050,1","10194,1",,,,,,"08,99,1,07,1,07,1,00800,1,07,1,99,9",,,,,"99999,9,10151,1","3,1,001,1,+999,9",,"SYN066AAXX  23094 08286 42562 83003 10092 20050 30151 40194 53001 8777/;",
"08286099999","2010-01-23T12:00:00","4","39.95","-0.0666666","43.5","CASTELLON ALMAZORA, SP","FM-12","99999","V020","050,1,N,0026,1","01500,1,9,N","015000,1,N,1","+0122,1","+0060,1","10192,1","06,0000,9,1",,,,,"08,99,1,07,1,08,1,01250,1,07,1,99,9",,,,,"99999,9,10150,1","8,1,001,1,+999,9",,"SYN072AAXX  23124 08286 12665 80505 10122 20060 30150 40192 58001 60001 8787/;","Q01  00002PRCP06"
"08286099999","2010-01-24T06:00:00","4","39.95","-0.0666666","43.5","CASTELLON ALMAZORA, SP","FM-12","99999","V020","300,1,N,0026,1","01200,1,9,N","020000,1,N,1","+0084,1","+0044,1","10190,1","12,0000,9,1","24,0000,9,1",,,,"07,99,1,07,1,05,1,01250,1,00,1,00,1","0054,9","01,9","999,+0060,9","999,N,+0078,1","99999,9,10147,1","4,1,000,1,+999,9",,"SYN106AAXX  24064 08286 12670 73005 10084 20044 30147 40190 54000 60002 87500 333 20078 30006 50144 55009 70000;","Q01  00002PRCP24Q02  00002PRCP12"
"08286099999","2010-01-24T09:00:00","4","39.95","-0.0666666","43.5","CASTELLON ALMAZORA, SP","FM-12","99999","V020","300,1,N,0026,1","01200,1,9,N","030000,1,N,1","+0100,1","+0040,1","10200,1",,,,,,"07,99,1,07,1,05,1,01250,1,00,1,00,1",,,,,"99999,9,10157,1","3,1,010,1,+999,9",,"SYN066AAXX  24094 08286 42680 73005 10100 20040 30157 40200 53010 87500;",
"08286099999","2010-01-24T12:00:00","4","39.95","-0.0666666","43.5","CASTELLON ALMAZORA, SP","FM-12","99999","V020","130,1,N,0010,1","03600,1,9,N","030000,1,N,1","+0134,1","+0040,1","10205,1","06,0000,9,1",,,,,"07,99,1,04,1,05,1,01250,1,07,1,08,1",,,,,"99999,9,10163,1","0,1,006,1,+999,9",,"SYN072AAXX  24124 08286 12680 71302 10134 20040 30163 40205 50006 60001 84578;","Q01  00002PRCP06"
"08286099999","2010-01-25T06:00:00","4","39.95","-0.0666666","43.5","CASTELLON ALMAZORA, SP","FM-12","99999","V020","010,1,N,0021,1","01200,1,9,N","015000,1,N,1","+0106,1","+0017,1","10217,1","12,9999,9,9","24,9999,9,9","5,1,06,1","2,1,06,1",,"08,99,1,07,1,05,1,01250,1,02,1,99,9","0000,9","09,9","999,+0090,9","999,N,+0106,1","99999,9,10174,1","6,1,002,1,+999,9","50,1","SYN112AAXX  25064 08286 11665 80104 10106 20017 30174 40217 56002 69912 75052 8752/ 333 20106 31009 50124 55000 70001;","Q01  00002PRCP24Q02  00002PRCP12Q03  00002PRCP12Q04  00002PRCP24"
"08286099999","2010-01-25T09:00:00","4","39.95","-0.0666666","43.5","CASTELLON ALMAZORA, SP","FM-12","99999","V020","320,1,N,0021,1","01200,1,9,N","020000,1,N,1","+0096,1","+0015,1","10221,1",,,"5,1,03,1","2,1,03,1",,"08,99,1,08,1,05,1,01250,1,99,9,99,9",,,,,"99999,9,10178,1","3,1,004,1,+999,9","50,1","SYN072AAXX  25094 08286 41670 83204 10096 20015 30178 40221 53004 75052 885//;",
"08286099999","2010-01-25T12:00:00","4","39.95","-0.0666666","43.5","CASTELLON ALMAZORA, SP","FM-12","99999","V020","330,1,N,0021,1","01500,1,9,N","020000,1,N,1","+0098,1","+0026,1","10219,1","06,0005,9,1",,"5,1,06,1","2,1,06,1",,"08,99,1,08,1,08,1,01250,1,99,9,99,9",,,,,"99999,9,10176,1","8,1,002,1,+999,9","60,1","SYN078AAXX  25124 08286 11670 83304 10098 20026 30176 40219 58002 69951 76052 888//;",
"08286099999","2010-01-26T06:00:00","4","39.95","-0.0666666","43.5","CASTELLON ALMAZORA, SP","FM-12","99999","V020","040,1,N,0041,1","01200,1,9,N","025000,1,N,1","+0092,1","-0007,1","10205,1","12,0000,9,1","24,0015,9,1","5,1,06,1","2,1,06,1",,"07,99,1,07,1,05,1,01250,1,00,1,00,1","0000,9","09,9","999,+0060,9","999,N,+0076,1","99999,9,10162,1","6,1,001,1,+999,9","02,1","SYN112AAXX  26064 08286 11675 70408 10092 21007 30162 40205 56001 69922 70252 87500 333 20076 31006 50354 55000 70015;","Q01  00002PRCP12"
"08286099999","2010-01-26T09:00:00","4","39.95","-0.0666666","43.5","CASTELLON ALMAZORA, SP","FM-12","99999","V020","030,1,N,0046,1","01200,1,9,N","030000,1,N,1","+0108,1","-0006,1","10210,1",,,,,,"07,99,1,06,1,05,1,01250,1,07,1,00,1",,,,,"99999,9,10167,1","3,1,005,1,+999,9",,"SYN066AAXX  26094 08286 42680 70309 10108 21006 30167 40210 53005 86570;",
"08286099999","2010-01-26T12:00:00","4","39.95","-0.0666666","43.5","CASTELLON ALMAZORA, SP","FM-12","99999","V020","030,1,N,0057,1","01500,1,9,N","030000,1,N,1","+0110,1","+0004,1","10213,1","06,0000,9,1",,,,,"07,99,1,07,1,08,1,01250,1,00,1,00,1",,,,,"99999,9,10170,1","0,1,003,1,+999,9",,"SYN072AAXX  26124 08286 12680 70311 10110 20004 30170 40213 50003 60001 87800;","Q01  00002PRCP06"
"08286099999","2010-01-27T06:00:00","4","39.95","-0.0666666","43.5","CASTELLON ALMAZORA, SP","FM-12","99999","V020","320,1,N,0015,1","01200,1,9,N","025000,1,N,1","+0072,1","-0042,1","10168,1","12,0000,9,1","24,0000,9,1",,,,"07,99,1,07,1,05,1,01250,1,00,1,00,1","0120,9","01,9","999,+0030,9","999,N,+0044,1","99999,9,10125,1","6,1,004,1,+999,9",,"SYN106AAXX  27064 08286 12675 73203 10072 21042 30125 40168 56004 60002 87500 333 20044 30003 50404 55020 70000;","Q01  00002PRCP24Q02  00002PRCP12"
"08286099999","2010-01-27T09:00:00","4","39.95","-0.0666666","43.5","CASTELLON ALMAZORA, SP","FM-12","99999","V020","030,1,N,0021,1","01500,1,9,N","030000,1,N,1","+0068,1","-0046,1","10196,1",,,,,,"08,99,1,08,1,05,1,01750,1,99,9,99,9",,,,,"99999,9,10153,1","3,1,028,1,+999,9",,"SYN066AAXX  27094 08286 42780 80304 10068 21046 30153 40196 53028 885//;",
"08286099999","2010-01-27T12:00:00","4","39.95","-0.0666666","43.5","CASTELLON ALMAZORA, SP","FM-12","99999","V020","350,1,N,0036,1","01500,1,9,N","015000,1,N,1","+0070,1","-0007,1","10212,1","06,9999,9,9",,"5,1,06,1","2,1,06,1",,"07,99,1,07,1,05,1,01750,1,00,1,00,1",,,,,"99999,9,10169,1","0,1,016,1,+999,9","20,1","SYN078AAXX  27124 08286 11765 73507 10070 21007 30169 40212 50016 69911 72052 87500;","Q01  00002PRCP06Q02  00002PRCP06"
"08286099999","2010-01-28T06:00:00","4","39.95","-0.0666666","43.5","CASTELLON ALMAZORA, SP","FM-12","99999","V020","290,1,N,0036,1","22000,1,9,N","015000,1,N,1","+0024,1","-0046,1","10177,1","12,0000,9,1","24,0000,2,1",,,,"04,99,1,04,1,00,1,99999,9,04,1,01,1","0246,9","01,9","999,+0010,9","999,N,+0020,1","99999,9,10133,1","7,1,017,1,+999,9",,"SYN106AAXX  28064 08286 12965 42907 10024 21046 30133 40177 57017 60002 84041 333 20020 30001 50324 55041 70001;","Q01  00002PRCP12"
"08286099999","2010-01-28T09:00:00","4","39.95","-0.0666666","43.5","CASTELLON ALMAZORA, SP","FM-12","99999","V020","300,1,N,0015,1","22000,1,9,N","040000,1,N,1","+0060,1","-0056,1","10175,1",,,,,,"04,99,1,01,1,00,1,99999,9,04,1,09,1",,,,,"99999,9,10132,1","6,1,001,1,+999,9",,"SYN066AAXX  28094 08286 42982 43003 10060 21056 30132 40175 56001 81049;",
"08286099999","2010-01-28T12:00:00","4","39.95","-0.0666666","43.5","CASTELLON ALMAZORA, SP","FM-12","99999","V020","130,1,N,0021,1","22000,1,9,N","030000,1,N,1","+0112,1","-0022,1","10162,1","06,0000,9,1",,,,,"02,99,1,01,1,00,1,99999,9,04,1,09,1",,,,,"99999,9,10119,1","8,1,013,1,+999,9",,"SYN072AAXX  28124 08286 12980 21304 10112 21022 30119 40162 58013 60001 81049;","Q01  00002PRCP06"
"08286099999","2010-01-29T06:00:00","4","39.95","-0.0666666","43.5","CASTELLON ALMAZORA, SP","FM-12","99999","V020","280,1,N,0015,1","22000,1,9,N","020000,1,N,1","+0046,1","-0002,1","10063,1","12,0000,9,1","24,0000,9,1",,,,"03,99,1,02,1,05,1,01250,1,00,1,01,1","0558,9","09,9","999,+0010,9","999,N,+0030,1","99999,9,10020,1","7,1,014,1,+999,9",,"SYN106AAXX  29064 08286 12670 32803 10046 21002 30020 40063 57014 60002 82501 333 20030 31001 50204 55093 70000;","Q01  00002PRCP24Q02  00002PRCP12"
"08286099999","2010-01-29T09:00:00","4","39.95","-0.0666666","43.5","CASTELLON ALMAZORA, SP","FM-12","99999","V020","290,1,N,0031,1","22000,1,9,N","030000,1,N,1","+0078,1","-0002,1","10059,1",,,,,,"04,99,1,02,1,08,1,01250,1,00,1,02,1",,,,,"99999,9,10016,1","6,1,004,1,+999,9",,"SYN066AAXX  29094 08286 42680 42906 10078 21002 30016 40059 56004 82802;",
"08286099999","2010-01-29T12:00:00","4","39.95","-0.0666666","43.5","CASTELLON ALMAZORA, SP","FM-12","99999","V020","280,1,N,0015,1","22000,1,9,N","030000,1,N,1","+0158,1","+0000,1","10035,1","06,0000,9,1",,,,,"04,99,1,01,1,08,1,01250,1,00,1,02,1",,,,,"99999,9,09994,1","8,1,022,1,+999,9",,"SYN072AAXX  29124 08286 12680 42803 10158 20000 39994 40035 58022 60001 81802;","Q01  00002PRCP06"
"08286099999","2010-01-30T06:00:00","4","39.95","-0.0666666","43.5","CASTELLON ALMAZORA, SP","FM-12","99999","V020","170,1,N,0015,1","22000,1,9,N","025000,1,N,1","+0092,1","-0024,1","10013,1","12,0000,9,1","24,0000,9,1",,,,"03,99,1,03,1,08,1,01250,1,00,1,00,1","0498,9","01,9","999,+0070,9","999,N,+0090,1","99999,9,09971,1","2,1,005,1,+999,9",,"SYN106AAXX  30064 08286 12675 31703 10092 21024 39971 40013 52005 60002 83800 333 20090 30007 50404 55083 70000;","Q01  00002PRCP24Q02  00002PRCP12"
"08286099999","2010-01-30T09:00:00","4","39.95","-0.0666666","43.5","CASTELLON ALMAZORA, SP","FM-12","99999","V020","140,1,N,0010,1","22000,1,9,N","040000,1,N,1","+0096,1","-0017,1","10032,1",,,,,,"03,99,1,03,1,08,1,00800,1,04,1,00,1",,,,,"99999,9,09990,1","2,1,019,1,+999,9",,"SYN066AAXX  30094 08286 42582 31402 10096 21017 39990 40032 52019 83840;",
"08286099999","2010-01-30T12:00:00","4","39.95","-0.0666666","43.5","CASTELLON ALMAZORA, SP","FM-12","99999","V020","230,1,N,0041,1","22000,1,9,N","040000,1,N,1","+0166,1","-0010,1","10038,1","06,0000,9,1",,,,,"02,99,1,01,1,01,1,00800,1,04,1,00,1",,,,,"99999,9,09997,1","0,1,007,1,+999,9",,"SYN072AAXX  30124 08286 12582 22308 10166 21010 39997 40038 50007 60001 81140;","Q01  00002PRCP06"
"08286099999","2010-01-31T06:00:00","4","39.95","-0.0666666","43.5","CASTELLON ALMAZORA, SP","FM-12","99999","V020","270,1,N,0026,1","03600,1,9,N","020000,1,N,1","+0098,1","-0007,1","10043,1","12,0000,9,1","24,0000,9,1",,,,"05,99,1,04,1,05,1,01250,1,04,1,00,1","0516,9","01,9","999,+0050,9","999,N,+0070,1","99999,9,10001,1","6,1,001,1,+999,9",,"SYN106AAXX  31064 08286 12670 52705 10098 21007 30001 40043 56001 60002 84540 333 20070 30005 50404 55086 70000;","Q01  00002PRCP24Q02  00002PRCP12"
"08286099999","2010-01-31T09:00:00","4","39.95","-0.0666666","43.5","CASTELLON ALMAZORA, SP","FM-12","99999","V020","260,1,N,0021,1","22000,1,9,N","025000,1,N,1","+0104,1","-0001,1","10053,1",,,,,,"02,99,1,02,1,08,1,01250,1,08,1,00,1",,,,,"99999,9,10011,1","3,1,010,1,+999,9",,"SYN066AAXX  31094 08286 42675 22604 10104 21001 30011 40053 53010 82880;",
"08286099999","2010-01-31T12:00:00","4","39.95","-0.0666666","43.5","CASTELLON ALMAZORA, SP","FM-12","99999","V020","030,1,N,0015,1","01500,1,9,N","030000,1,N,1","+0160,1","+0002,1","10057,1","06,0000,9,1",,,,,"07,99,1,06,1,08,1,01250,1,04,1,00,1",,,,,"99999,9,10016,1","1,1,005,1,+999,9",,"SYN072AAXX  31124 08286 12680 70303 10160 20002 30016 40057 51005 60001 86840;","Q01  00002PRCP06"
"08286099999","2010-02-01T06:00:00","4","39.95","-0.0666666","43.5","CASTELLON ALMAZORA, SP","FM-12","99999","V020","350,1,N,0010,1","22000,1,9,N","030000,1,N,1","+0048,1","-0010,1","10142,1","12,0000,9,1","24,0005,9,1",,,"00,1,+99999,9,99,9","00,99,1,00,1,00,1,99999,9,00,1,00,1","0300,9","09,9","999,+0030,9","999,N,+0048,1","99999,9,10099,1","2,1,021,1,+999,9",,"SYN100AAXX  01064 08286 12980 03502 10048 21010 30099 40142 52021 60002 333 20048 31003 50344 55050 70004;","Q01  00002PRCP12"
"08286099999","2010-02-01T09:00:00","4","39.95","-0.0666666","43.5","CASTELLON ALMAZORA, SP","FM-12","99999","V020","310,1,N,0015,1","22000,1,9,N","040000,1,N,1","+0072,1","-0010,1","10174,1",,,,,,"01,99,1,01,1,08,1,01250,1,00,1,00,1",,,,,"99999,9,10131,1","2,1,032,1,+999,9",,"SYN066AAXX  01094 08286 42682 13103 10072 21010 30131 40174 52032 81800;",
"08286099999","2010-02-01T12:00:00","4","39.95","-0.0666666","43.5","CASTELLON ALMAZORA, SP","FM-12","99999","V020","170,1,N,0015,1","22000,1,9,N","040000,1,N,1","+0134,1","-0017,1","10189,1","06,0000,9,1",,,,,"01,99,1,01,1,08,1,01250,1,00,1,00,1",,,,,"99999,9,10147,1","2,1,016,1,+999,9",,"SYN072AAXX  01124 08286 12682 11703 10134 21017 30147 40189 52016 60001 81800;","Q01  00002PRCP06"
"08286099999","2010-02-02T06:00:00","4","39.95","-0.0666666","43.5","CASTELLON ALMAZORA, SP","FM-12","99999","V020","290,1,N,0031,1","22000,1,9,N","030000,1,N,1","+0036,1","-0043,1","10246,1","12,0000,9,1","24,0000,9,1",,,,"03,99,1,01,1,06,1,01250,1,00,1,01,1","0594,9","01,9","999,+0020,9","999,N,+0030,1","99999,9,10202,1","5,1,000,1,+999,9",,"SYN106AAXX  02064 08286 12680 32906 10036 21043 30202 40246 55000 60002 81601 333 20030 30002 50214 55099 70000;","Q01  00002PRCP24Q02  00002PRCP12"
"08286099999","2010-02-02T09:00:00","4","39.95","-0.0666666","43.5","CASTELLON ALMAZORA, SP","FM-12","99999","V020","280,1,N,0031,1","09000,1,9,N","030000,1,N,1","+0052,1","-0031,1","10253,1",,,,,,"07,99,1,01,1,05,1,01250,1,00,1,08,1",,,,,"99999,9,10209,1","2,1,007,1,+999,9",,"SYN066AAXX  02094 08286 42680 72806 10052 21031 30209 40253 52007 81508;",
"08286099999","2010-02-02T12:00:00","4","39.95","-0.0666666","43.5","CASTELLON ALMAZORA, SP","FM-12","99999","V020","150,1,N,0026,1","22000,1,9,N","030000,1,N,1","+0124,1","-0005,1","10250,1","06,0000,9,1",,,,,"04,99,1,01,1,01,1,01250,1,00,1,05,1",,,,,"99999,9,10207,1","8,1,002,1,+999,9",,"SYN072AAXX  02124 08286 12680 41505 10124 21005 30207 40250 58002 60001 81105;","Q01  00002PRCP06"
"08286099999","2010-02-03T06:00:00","4","39.95","-0.0666666","43.5","CASTELLON ALMAZORA, SP","FM-12","99999","V020","290,1,N,0031,1","22000,1,9,N","008000,1,N,1","+0036,1","-0002,1","10210,1","12,0000,9,1","24,0000,9,1","0,1,06,1","0,1,06,1",,"03,99,1,01,1,08,1,01250,1,00,1,01,1","0546,9","09,9","999,+0020,9","999,N,+0030,1","99999,9,10166,1","7,1,004,1,+999,9","05,1","SYN112AAXX  03064 08286 11658 32906 10036 21002 30166 40210 57004 60002 70500 81801 333 20030 31002 50194 55091 70000;","Q01  00002PRCP24Q02  00002PRCP12"
"08286099999","2010-02-03T09:00:00","4","39.95","-0.0666666","43.5","CASTELLON ALMAZORA, SP","FM-12","99999","V020","290,1,N,0026,1","22000,1,9,N","020000,1,N,1","+0060,1","-0005,1","10212,1",,,,,"00,1,+99999,9,99,9","00,99,1,00,1,00,1,99999,9,00,1,00,1",,,,,"99999,9,10168,1","3,1,002,1,+999,9",,"SYN060AAXX  03094 08286 42970 02905 10060 21005 30168 40212 53002;",
"08286099999","2010-02-03T12:00:00","4","39.95","-0.0666666","43.5","CASTELLON ALMAZORA, SP","FM-12","99999","V020","190,1,N,0026,1","22000,1,9,N","015000,1,N,1","+0132,1","+0018,1","10206,1","06,0000,9,1",,,,,"01,99,1,01,1,00,1,99999,9,04,1,01,1",,,,,"99999,9,10164,1","7,1,004,1,+999,9",,"SYN072AAXX  03124 08286 12965 11905 10132 20018 30164 40206 57004 60001 81041;","Q01  00002PRCP06"
"08286099999","2010-02-04T06:00:00","4","39.95","-0.0666666","43.5","CASTELLON ALMAZORA, SP","FM-12","99999","V020","290,1,N,0021,1","01200,1,9,N","015000,1,N,1","+0076,1","+0044,1","10136,1","12,0000,9,1","24,0000,9,1",,,,"07,99,1,07,1,05,1,01250,1,00,1,00,1","0582,9","01,9","999,+0040,9","999,N,+0056,1","99999,9,10093,1","7,1,016,1,+999,9",,"SYN106AAXX  04064 08286 12665 72904 10076 20044 30093 40136 57016 60002 87500 333 20056 30004 50134 55097 70000;","Q01  00002PRCP24Q02  00002PRCP12"
"08286099999","2010-02-04T09:00:00","4","39.95","-0.0666666","43.5","CASTELLON ALMAZORA, SP","FM-12","99999","V020","290,1,N,0026,1","00750,1,9,N","012000,1,N,1","+0084,1","+0038,1","10133,1",,,"2,1,03,1","2,1,03,1",,"08,99,1,08,1,07,1,00800,1,99,9,99,9",,,,,"99999,9,10090,1","6,1,003,1,+999,9","61,1","SYN072AAXX  04094 08286 41562 82905 10084 20038 30090 40133 56003 76122 887//;",
"08286099999","2010-02-04T12:00:00","4","39.95","-0.0666666","43.5","CASTELLON ALMAZORA, SP","FM-12","99999","V020","290,1,N,0026,1","00420,1,9,N","001500,1,N,1","+0090,1","+0073,1","10129,1","06,0061,9,1",,"6,1,06,1","6,1,06,1",,"08,99,1,08,1,07,1,00450,1,99,9,99,9",,,,,"99999,9,10086,1","8,1,004,1,+999,9","61,1","SYN078AAXX  04124 08286 11415 82905 10090 20073 30086 40129 58004 60061 76166 887//;",
"08286099999","2010-02-05T06:00:00","4","39.95","-0.0666666","43.5","CASTELLON ALMAZORA, SP","FM-12","99999","V020","310,1,N,0010,1","22000,1,9,N","020000,1,N,1","+0082,1","+0058,1","10113,1","12,0000,9,1","24,0076,9,1",,,,"02,99,1,02,1,05,1,00800,1,00,1,00,1","0030,9","11,9","999,+0060,9","999,N,+0076,1","99999,9,10070,1","6,1,002,1,+999,9",,"SYN106AAXX  05064 08286 12570 23102 10082 20058 30070 40113 56002 60002 82500 333 20076 32006 50064 55005 70076;","Q01  00002PRCP12"
"08286099999","2010-02-05T09:00:00","4","39.95","-0.0666666","43.5","CASTELLON ALMAZORA, SP","FM-12","99999","V020","190,1,N,0010,1","03600,1,9,N","030000,1,N,1","+0102,1","+0071,1","10141,1",,,,,,"06,99,1,04,1,08,1,01250,1,04,1,02,1",,,,,"99999,9,10098,1","3,1,028,1,+999,9",,"SYN066AAXX  05094 08286 42680 61902 10102 20071 30098 40141 53028 84842;",
"08286099999","2010-02-05T12:00:00","4","39.95","-0.0666666","43.5","CASTELLON ALMAZORA, SP","FM-12","99999","V020","280,1,N,0046,1","22000,1,9,N","040000,1,N,1","+0194,1","+0004,1","10148,1","06,0000,9,1",,,,,"03,99,1,03,1,02,1,01250,1,04,1,00,1",,,,,"99999,9,10107,1","0,1,009,1,+999,9",,"SYN072AAXX  05124 08286 12682 32809 10194 20004 30107 40148 50009 60001 83240;","Q01  00002PRCP06"
"08286099999","2010-02-08T06:00:00","4","39.95","-0.0666666","43.5","CASTELLON ALMAZORA, SP","FM-12","99999","V020","290,1,N,0026,1","03600,1,9,N","030000,1,N,1","+0090,1","+0044,1","10052,1","12,0000,9,1","24,0000,9,1",,,,"07,99,1,02,1,05,1,00800,1,05,1,00,1",,"01,9","999,+0080,9","999,N,+0088,1","99999,9,10010,1","7,1,027,1,+999,9",,"SYN106AAXX  08064 08286 12580 72905 10090 20044 30010 40052 57027 60002 82550 333 20088 30008 50344 55/// 70000;","Q01  00002PRCP24Q02  00002PRCP12"
"08286099999","2010-02-08T09:00:00","4","39.95","-0.0666666","43.5","CASTELLON ALMAZORA, SP","FM-12","99999","V020","290,1,N,0021,1","03600,1,9,N","030000,1,N,1","+0096,1","+0042,1","10037,1",,,,,,"08,99,1,01,1,05,1,00800,1,07,1,00,1",,,,,"99999,9,09995,1","7,1,015,1,+999,9",,"SYN066AAXX  08094 08286 42580 82904 10096 20042 39995 40037 57015 81570;",
"08286099999","2010-02-08T12:00:00","4","39.95","-0.0666666","43.5","CASTELLON ALMAZORA, SP","FM-12","99999","V020","140,1,N,0015,1","03600,1,9,N","025000,1,N,1","+0136,1","+0060,1","10020,1","06,0000,9,1",,,,,"07,99,1,01,1,05,1,00800,1,07,1,00,1",,,,,"99999,9,09978,1","8,1,017,1,+999,9",,"SYN072AAXX  08124 08286 12575 71403 10136 20060 39978 40020 58017 60001 81570;","Q01  00002PRCP06"
"08286099999","2010-02-09T06:00:00","4","39.95","-0.0666666","43.5","CASTELLON ALMAZORA, SP","FM-12","99999","V020","030,1,N,0010,1","03600,1,9,N","015000,1,N,1","+0080,1","+0056,1","09950,1","12,0000,9,1","24,0013,9,1",,,,"07,99,1,01,1,05,1,00800,1,02,1,00,1","0000,9","11,9","999,+0060,9","999,N,+0076,1","99999,9,09908,1","6,1,004,1,+999,9",,"SYN106AAXX  09064 08286 12565 70302 10080 20056 39908 49950 56004 60002 81520 333 20076 32006 50144 55000 70012;","Q01  00002PRCP12"
"08286099999","2010-02-09T09:00:00","4","39.95","-0.0666666","43.5","CASTELLON ALMAZORA, SP","FM-12","99999","V020","320,1,N,0010,1","03600,1,9,N","030000,1,N,1","+0094,1","+0046,1","09972,1",,,,,,"06,99,1,01,1,01,1,01250,1,04,1,05,1",,,,,"99999,9,09930,1","3,1,022,1,+999,9",,"SYN066AAXX  09094 08286 42680 63202 10094 20046 39930 49972 53022 81145;",
"08286099999","2010-02-09T12:00:00","4","39.95","-0.0666666","43.5","CASTELLON ALMAZORA, SP","FM-12","99999","V020","030,1,N,0026,1","09000,1,9,N","040000,1,N,1","+0146,1","-0015,1","09981,1","06,0000,9,1",,,,,"05,99,1,02,1,01,1,01250,1,04,1,02,1",,,,,"99999,9,09940,1","1,1,010,1,+999,9",,"SYN072AAXX  09124 08286 12682 50305 10146 21015 39940 49981 51010 60001 82142;","Q01  00002PRCP06"
"08286099999","2010-02-10T06:00:00","4","39.95","-0.0666666","43.5","CASTELLON ALMAZORA, SP","FM-12","99999","V020","300,1,N,0015,1","22000,1,9,N","030000,1,N,1","+0026,1","-0055,1","10044,1","12,0000,9,1","24,0000,9,1",,,,"01,99,1,01,1,05,1,01250,1,00,1,00,1","0492,9","01,9","999,+0000,9","999,N,+0022,1","99999,9,10001,1","1,1,004,1,+999,9",,"SYN106AAXX  10064 08286 12680 13003 10026 21055 30001 40044 51004 60002 81500 333 20022 30100 50424 55082 70000;","Q01  00002PRCP24Q02  00002PRCP12"
"08286099999","2010-02-10T09:00:00","4","39.95","-0.0666666","43.5","CASTELLON ALMAZORA, SP","FM-12","99999","V020","360,1,N,0021,1","22000,1,9,N","040000,1,N,1","+0074,1","-0037,1","10046,1",,,,,,"01,99,1,01,1,00,1,99999,9,04,1,00,1",,,,,"99999,9,10003,1","3,1,002,1,+999,9",,"SYN066AAXX  10094 08286 42982 13604 10074 21037 30003 40046 53002 81040;",
"08286099999","2010-02-10T12:00:00","4","39.95","-0.0666666","43.5","CASTELLON ALMAZORA, SP","FM-12","99999","V020","200,1,N,0021,1","22000,1,9,N","040000,1,N,1","+0144,1","-0059,1","10048,1","06,0000,9,1",,,,,"01,99,1,00,1,00,1,99999,9,00,1,05,1",,,,,"99999,9,10006,1","1,1,003,1,+999,9",,"SYN072AAXX  10124 08286 12982 12004 10144 21059 30006 40048 51003 60001 80005;","Q01  00002PRCP06"
"08286099999","2010-02-11T06:00:00","4","39.95","-0.0666666","43.5","CASTELLON ALMAZORA, SP","FM-12","99999","V020","290,1,N,0031,1","22000,1,9,N","030000,1,N,1","+0042,1","-0099,1","10038,1","12,0000,9,1","24,0000,9,1",,,,"01,99,1,01,1,05,1,01250,1,00,1,00,1","0492,9","01,9","999,+0020,9","999,N,+0040,1","99999,9,09995,1","3,1,006,1,+999,9",,"SYN106AAXX  11064 08286 12680 12906 10042 21099 39995 40038 53006 60002 81500 333 20040 30002 50434 55082 70000;","Q01  00002PRCP24Q02  00002PRCP12"
"08286099999","2010-02-11T09:00:00","4","39.95","-0.0666666","43.5","CASTELLON ALMAZORA, SP","FM-12","99999","V020","300,1,N,0026,1","22000,1,9,N","040000,1,N,1","+0062,1","-0077,1","10054,1",,,,,,"01,99,1,01,1,01,1,01250,1,00,1,00,1",,,,,"99999,9,10011,1","2,1,016,1,+999,9",,"SYN066AAXX  11094 08286 42682 13005 10062 21077 30011 40054 52016 81100;",
"08286099999","2010-02-11T12:00:00","4","39.95","-0.0666666","43.5","CASTELLON ALMAZORA, SP","FM-12","99999","V020","350,1,N,0046,1","22000,1,9,N","040000,1,N,1","+0090,1","-0127,1","10070,1","06,0000,9,1",,,,,"01,99,1,01,1,01,1,01250,1,00,1,00,1",,,,,"99999,9,10027,1","1,1,016,1,+999,9",,"SYN072AAXX  11124 08286 12682 13509 10090 21127 30027 40070 51016 60001 81100;","Q01  00002PRCP06"
"08286099999","2010-02-12T06:00:00","4","39.95","-0.0666666","43.5","CASTELLON ALMAZORA, SP","FM-12","99999","V020","280,1,N,0015,1","22000,1,9,N","030000,1,N,1","+0022,1","-0110,1","10091,1","12,0000,9,1","24,0000,9,1",,,"00,1,+99999,9,99,9","00,99,1,00,1,00,1,99999,9,00,1,00,1","0612,9","01,9","999,-0020,9","999,N,+0016,1","99999,9,10047,1","3,1,005,1,+999,9",,"SYN100AAXX  12064 08286 12980 02803 10022 21110 30047 40091 53005 60002 333 20016 30102 50534 55102 70000;","Q01  00002PRCP24Q02  00002PRCP12"
"08286099999","2010-02-12T09:00:00","4","39.95","-0.0666666","43.5","CASTELLON ALMAZORA, SP","FM-12","99999","V020","240,1,N,0021,1","22000,1,9,N","030000,1,N,1","+0048,1","-0086,1","10106,1",,,,,"00,1,+99999,9,99,9","00,99,1,00,1,00,1,99999,9,00,1,00,1",,,,,"99999,9,10063,1","2,1,016,1,+999,9",,"SYN060AAXX  12094 08286 42980 02404 10048 21086 30063 40106 52016;",
"08286099999","2010-02-12T12:00:00","4","39.95","-0.0666666","43.5","CASTELLON ALMAZORA, SP","FM-12","99999","V020","160,1,N,0021,1","22000,1,9,N","030000,1,N,1","+0106,1","-0058,1","10109,1","06,0000,9,1",,,,"00,1,+99999,9,99,9","00,99,1,00,1,00,1,99999,9,00,1,00,1",,,,,"99999,9,10067,1","1,1,004,1,+999,9",,"SYN066AAXX  12124 08286 12980 01604 10106 21058 30067 40109 51004 60001;","Q01  00002PRCP06"
"08286099999","2010-02-15T06:00:00","4","39.95","-0.0666666","43.5","CASTELLON ALMAZORA, SP","FM-12","99999","V020","040,1,N,0031,1","01200,1,9,N","030000,1,N,1","+0066,1","-0008,1","10043,1","12,0000,9,1","24,0000,9,1",,,,"07,99,1,07,1,05,1,01250,1,00,1,00,1",,"01,9","999,+0040,9","999,N,+0058,1","99999,9,10000,1","6,1,004,1,+999,9",,"SYN106AAXX  15064 08286 12680 70406 10066 21008 30000 40043 56004 60002 87500 333 20058 30004 50264 55/// 70000;","Q01  00002PRCP24Q02  00002PRCP12"
"08286099999","2010-02-15T09:00:00","4","39.95","-0.0666666","43.5","CASTELLON ALMAZORA, SP","FM-12","99999","V020","030,1,N,0036,1","01200,1,9,N","020000,1,N,1","+0064,1","-0025,1","10043,1",,,,,,"08,99,1,07,1,05,1,01250,1,07,1,99,9",,,,,"99999,9,10000,1","4,1,000,1,+999,9",,"SYN066AAXX  15094 08286 42670 80307 10064 21025 30000 40043 54000 8757/;",
"08286099999","2010-02-15T12:00:00","4","39.95","-0.0666666","43.5","CASTELLON ALMAZORA, SP","FM-12","99999","V020","010,1,N,0026,1","00750,1,9,N","003000,1,N,1","+0056,1","+0002,1","10033,1","06,9999,9,9",,"5,1,06,1","2,1,06,1",,"08,99,1,08,1,07,1,00800,1,99,9,99,9",,,,,"99999,9,09990,1","8,1,010,1,+999,9","50,1","SYN078AAXX  15124 08286 11530 80105 10056 20002 39990 40033 58010 69921 75052 887//;","Q01  00002PRCP06Q02  00002PRCP06"
"08286099999","2010-02-16T06:00:00","4","39.95","-0.0666666","43.5","CASTELLON ALMAZORA, SP","FM-12","99999","V020","300,1,N,0015,1","01200,1,9,N","025000,1,N,1","+0078,1","+0044,1","09960,1","12,0030,9,1","24,0064,9,1","6,1,06,1","2,1,06,1",,"07,99,1,07,1,05,1,01250,1,00,1,00,1","0000,9","11,9","999,+0040,9","999,N,+0056,1","99999,9,09918,1","7,1,006,1,+999,9","02,1","SYN112AAXX  16064 08286 11675 73003 10078 20044 39918 49960 57006 60032 70262 87500 333 20056 32004 50154 55000 70064;",
"08286099999","2010-02-16T09:00:00","4","39.95","-0.0666666","43.5","CASTELLON ALMAZORA, SP","FM-12","99999","V020","290,1,N,0021,1","00750,1,9,N","010000,1,N,1","+0080,1","+0058,1","09956,1",,,"5,1,03,1","2,1,03,1",,"08,99,1,08,1,07,1,00800,1,99,9,99,9",,,,,"99999,9,09914,1","6,1,004,1,+999,9","51,1","SYN072AAXX  16094 08286 41560 82904 10080 20058 39914 49956 56004 75152 887//;",
"08286099999","2010-02-16T12:00:00","4","39.95","-0.0666666","43.5","CASTELLON ALMAZORA, SP","FM-12","99999","V020","300,1,N,0021,1","00750,1,9,N","015000,1,N,1","+0092,1","+0072,1","09954,1","06,0008,9,1",,"5,1,06,1","2,1,06,1",,"08,99,1,08,1,07,1,00800,1,99,9,99,9",,,,,"99999,9,09912,1","8,1,002,1,+999,9","20,1","SYN078AAXX  16124 08286 11565 83004 10092 20072 39912 49954 58002 69981 72052 887//;",
"08286099999","2010-02-17T06:00:00","4","39.95","-0.0666666","43.5","CASTELLON ALMAZORA, SP","FM-12","99999","V020","220,1,N,0010,1","00750,1,9,N","007000,1,N,1","+0080,1","+0058,1","09911,1","12,0005,9,1","24,0013,9,1","5,1,06,1","2,1,06,1",,"08,99,1,08,1,07,1,00800,1,99,9,99,9","0000,9","11,9","999,+0050,9","999,N,+0070,1","99999,9,09869,1","5,1,007,1,+999,9","50,1","SYN112AAXX  17064 08286 11557 82202 10080 20058 39869 49911 55007 69942 75052 887// 333 20070 32005 50034 55000 70012;",
"08286099999","2010-02-17T09:00:00","4","39.95","-0.0666666","43.5","CASTELLON ALMAZORA, SP","FM-12","99999","V020","210,1,N,0021,1","03600,1,9,N","004000,1,N,1","+0092,1","+0065,1","09924,1",,,"2,1,03,1","2,1,03,1",,"07,99,1,04,1,05,1,00800,1,07,1,02,1",,,,,"99999,9,09882,1","3,1,013,1,+999,9","10,1","SYN072AAXX  17094 08286 41540 72104 10092 20065 39882 49924 53013 71022 84572;",
"08286099999","2010-02-17T12:00:00","4","39.95","-0.0666666","43.5","CASTELLON ALMAZORA, SP","FM-12","99999","V020","220,1,N,0036,1","03600,1,9,N","035000,1,N,1","+0166,1","+0033,1","09921,1","06,0000,2,1",,,,,"06,99,1,02,1,02,1,01250,1,04,1,02,1",,,,,"99999,9,09880,1","6,1,002,1,+999,9",,"SYN072AAXX  17124 08286 12681 62207 10166 20033 39880 49921 56002 60001 82242;",
"08286099999","2010-02-18T06:00:00","4","39.95","-0.0666666","43.5","CASTELLON ALMAZORA, SP","FM-12","99999","V020","300,1,N,0026,1","03600,1,9,N","030000,1,N,1","+0090,1","+0019,1","10017,1","12,0000,9,1","24,0000,2,1",,,,"07,99,1,01,1,05,1,01250,1,07,1,00,1","0306,9","09,9","999,+0050,9","999,N,+0076,1","99999,9,09975,1","2,1,015,1,+999,9",,"SYN106AAXX  18064 08286 12680 73005 10090 20019 39975 40017 52015 60002 81570 333 20076 31005 50254 55051 70000;","Q01  00002PRCP12"
"08286099999","2010-02-18T09:00:00","4","39.95","-0.0666666","43.5","CASTELLON ALMAZORA, SP","FM-12","99999","V020","290,1,N,0031,1","22000,1,9,N","040000,1,N,1","+0114,1","+0019,1","10017,1",,,,,,"01,99,1,01,1,00,1,99999,9,04,1,05,1",,,,,"99999,9,09975,1","4,1,000,1,+999,9",,"SYN066AAXX  18094 08286 42982 12906 10114 20019 39975 40017 54000 81045;",
"08286099999","2010-02-18T12:00:00","4","39.95","-0.0666666","43.5","CASTELLON ALMAZORA, SP","FM-12","99999","V020","090,1,N,0021,1","03600,1,9,N","035000,1,N,1","+0140,1","+0054,1","10012,1","06,0000,9,1",,,,,"07,99,1,01,1,01,1,01250,1,04,1,06,1",,,,,"99999,9,09971,1","8,1,004,1,+999,9",,"SYN072AAXX  18124 08286 12681 70904 10140 20054 39971 40012 58004 60001 81146;","Q01  00002PRCP06"
"08286099999","2010-02-19T06:00:00","4","39.95","-0.0666666","43.5","CASTELLON ALMAZORA, SP","FM-12","99999","V020","300,1,N,0010,1","22000,1,9,N","030000,1,N,1","+0076,1","+0052,1","09916,1","12,0119,9,1","24,0132,9,1","6,1,06,1","2,1,06,1",,"02,99,1,02,1,05,1,01250,1,04,1,00,1","0216,9","11,9","999,+0060,9","999,N,+0074,1","99999,9,09874,1","6,1,002,1,+999,9","01,1","SYN112AAXX  19064 08286 11680 23002 10076 20052 39874 49916 56002 60122 70162 82540 333 20074 32006 50174 55036 70132;",
"08286099999","2010-02-19T09:00:00","4","39.95","-0.0666666","43.5","CASTELLON ALMAZORA, SP","FM-12","99999","V020","290,1,N,0031,1","03600,1,9,N","035000,1,N,1","+0100,1","+0044,1","09942,1",,,,,,"07,99,1,01,1,05,1,01250,1,07,1,06,1",,,,,"99999,9,09900,1","2,1,026,1,+999,9",,"SYN066AAXX  19094 08286 42681 72906 10100 20044 39900 49942 52026 81576;",
"08286099999","2010-02-19T12:00:00","4","39.95","-0.0666666","43.5","CASTELLON ALMAZORA, SP","FM-12","99999","V020","310,1,N,0026,1","03600,1,9,N","035000,1,N,1","+0164,1","+0005,1","09947,1","06,0000,9,1",,,,,"07,99,1,01,1,01,1,01250,1,04,1,08,1",,,,,"99999,9,09906,1","2,1,006,1,+999,9",,"SYN072AAXX  19124 08286 12681 73105 10164 20005 39906 49947 52006 60001 81148;","Q01  00002PRCP06"
"08286099999","2010-02-22T06:00:00","4","39.95","-0.0666666","43.5","CASTELLON ALMAZORA, SP","FM-12","99999","V020","300,1,N,0015,1","22000,1,9,N","030000,1,N,1","+0078,1","+0047,1","10008,1","12,0000,9,1","24,0000,9,1",,,,"02,99,1,01,1,05,1,01250,1,04,1,00,1",,"01,9","999,+0050,9","999,N,+0074,1","99999,9,09966,1","6,1,002,1,+999,9",,"SYN106AAXX  22064 08286 12680 23003 10078 20047 39966 40008 56002 60002 81540 333 20074 30005 50254 55/// 79999;","Q01  00002PRCP24Q02  00002PRCP12"
"08286099999","2010-02-22T09:00:00","4","39.95","-0.0666666","43.5","CASTELLON ALMAZORA, SP","FM-12","99999","V020","200,1,N,0026,1","09000,1,9,N","035000,1,N,1","+0122,1","+0060,1","10012,1",,,,,,"06,99,1,01,1,05,1,01250,1,04,1,04,1",,,,,"99999,9,09970,1","1,1,004,1,+999,9",,"SYN066AAXX  22094 08286 42681 62005 10122 20060 39970 40012 51004 81544;",
"08286099999","2010-02-22T12:00:00","4","39.95","-0.0666666","43.5","CASTELLON ALMAZORA, SP","FM-12","99999","V020","200,1,N,0026,1","01200,1,9,N","025000,1,N,1","+0150,1","+0052,1","10011,1","06,9999,9,9",,"2,1,06,1","2,1,06,1",,"07,99,1,06,1,07,1,01250,1,02,1,00,1",,,,,"99999,9,09970,1","4,1,000,1,+999,9","80,1","SYN078AAXX  22124 08286 11675 72005 10150 20052 39970 40011 54000 69901 78022 86720;","Q01  00002PRCP06Q02  00002PRCP06"
"08286099999","2010-02-23T06:00:00","4","39.95","-0.0666666","43.5","CASTELLON ALMAZORA, SP","FM-12","99999","V020","200,1,N,0010,1","22000,1,9,N","030000,1,N,1","+0112,1","+0037,1","10028,1","12,0000,9,1","24,0000,2,1",,,,"04,99,1,02,1,05,1,01250,1,04,1,02,1","0300,9","01,9","999,+0080,9","999,N,+0108,1","99999,9,09986,1","3,1,002,1,+999,9",,"SYN106AAXX  23064 08286 12680 42002 10112 20037 39986 40028 53002 60002 82542 333 20108 30008 50414 55050 79999;","Q01  00002PRCP12"
"08286099999","2010-02-23T09:00:00","4","39.95","-0.0666666","43.5","CASTELLON ALMAZORA, SP","FM-12","99999","V020","200,1,N,0026,1","22000,1,9,N","040000,1,N,1","+0144,1","+0041,1","10035,1",,,,,,"02,99,1,01,1,01,1,01250,1,04,1,00,1",,,,,"99999,9,09994,1","3,1,008,1,+999,9",,"SYN066AAXX  23094 08286 42682 22005 10144 20041 39994 40035 53008 81140;",
"08286099999","2010-02-23T12:00:00","4","39.95","-0.0666666","43.5","CASTELLON ALMAZORA, SP","FM-12","99999","V020","280,1,N,0041,1","22000,1,9,N","040000,1,N,1","+0206,1","+0033,1","10039,1","06,0000,9,1",,,,,"04,99,1,04,1,02,1,01250,1,00,1,00,1",,,,,"99999,9,09998,1","1,1,004,1,+999,9",,"SYN072AAXX  23124 08286 12682 42808 10206 20033 39998 40039 51004 60001 84200;","Q01  00002PRCP06"
"08286099999","2010-02-24T06:00:00","4","39.95","-0.0666666","43.5","CASTELLON ALMAZORA, SP","FM-12","99999","V020","260,1,N,0036,1","22000,1,9,N","030000,1,N,1","+0154,1","+0015,1","10067,1","12,0000,9,1","24,0000,9,1",,,,"01,99,1,01,1,05,1,01250,1,00,1,00,1","0576,9","01,9","999,+0090,9","999,N,+0118,1","99999,9,10025,1","3,1,002,1,+999,9",,"SYN106AAXX  24064 08286 12680 12607 10154 20015 30025 40067 53002 60002 81500 333 20118 30009 50304 55096 70000;","Q01  00002PRCP24Q02  00002PRCP12"
"08286099999","2010-02-24T09:00:00","4","39.95","-0.0666666","43.5","CASTELLON ALMAZORA, SP","FM-12","99999","V020","280,1,N,0046,1","22000,1,9,N","040000,1,N,1","+0174,1","+0014,1","10102,1",,,,,,"01,99,1,01,1,01,1,01250,1,04,1,00,1",,,,,"99999,9,10061,1","2,1,036,1,+999,9",,"SYN066AAXX  24094 08286 42682 12809 10174 20014 30061 40102 52036 81140;",
"08286099999","2010-02-24T12:00:00","4","39.95","-0.0666666","43.5","CASTELLON ALMAZORA, SP","FM-12","99999","V020","290,1,N,0057,1","22000,1,9,N","040000,1,N,1","+0212,1","+0010,1","10111,1","06,0000,9,1",,,,,"01,99,1,01,1,01,1,01250,1,00,1,00,1",,,,,"99999,9,10070,1","1,1,009,1,+999,9",,"SYN072AAXX  24124 08286 12682 12911 10212 20010 30070 40111 51009 60001 81100;","Q01  00002PRCP06"
"08286099999","2010-02-25T06:00:00","4","39.95","-0.0666666","43.5","CASTELLON ALMAZORA, SP","FM-12","99999","V020","290,1,N,0015,1","03600,1,9,N","030000,1,N,1","+0110,1","+0051,1","10095,1","12,0000,9,1","24,0000,9,1",,,,"05,99,1,02,1,05,1,01250,1,07,1,05,1","0630,9","01,9","999,+0090,9","999,N,+0110,1","99999,9,10053,1","6,1,010,1,+999,9",,"SYN106AAXX  25064 08286 12680 52903 10110 20051 30053 40095 56010 60002 82575 333 20110 30009 50654 55105 70000;","Q01  00002PRCP24Q02  00002PRCP12"
"08286099999","2010-02-25T09:00:00","4","39.95","-0.0666666","43.5","CASTELLON ALMAZORA, SP","FM-12","99999","V020","210,1,N,0051,1","03600,1,9,N","035000,1,N,1","+0140,1","+0066,1","10092,1",,,,,,"07,99,1,01,1,01,1,01250,1,02,1,08,1",,,,,"99999,9,10050,1","8,1,003,1,+999,9",,"SYN066AAXX  25094 08286 42681 72110 10140 20066 30050 40092 58003 81128;",
"08286099999","2010-02-25T12:00:00","4","39.95","-0.0666666","43.5","CASTELLON ALMAZORA, SP","FM-12","99999","V020","140,1,N,0036,1","03600,1,9,N","030000,1,N,1","+0160,1","+0070,1","10068,1","06,0000,9,1",,,,,"07,99,1,01,1,02,1,01250,1,07,1,08,1",,,,,"99999,9,10027,1","7,1,023,1,+999,9",,"SYN072AAXX  25124 08286 12680 71407 10160 20070 30027 40068 57023 60001 81278;","Q01  00002PRCP06"
"08286099999","2010-02-26T06:00:00","4","39.95","-0.0666666","43.5","CASTELLON ALMAZORA, SP","FM-12","99999","V020","190,1,N,0021,1","22000,1,9,N","030000,1,N,1","+0120,1","+0059,1","10080,1","12,0000,9,1","24,0000,9,1",,,,"02,99,1,01,1,05,1,01250,1,04,1,00,1","0120,9","01,9","999,+0100,9","999,N,+0116,1","99999,9,10038,1","3,1,018,1,+999,9",,"SYN106AAXX  26064 08286 12680 21904 10120 20059 30038 40080 53018 60002 81540 333 20116 30010 50424 55020 70000;","Q01  00002PRCP24Q02  00002PRCP12"
"08286099999","2010-02-26T09:00:00","4","39.95","-0.0666666","43.5","CASTELLON ALMAZORA, SP","FM-12","99999","V020","230,1,N,0026,1","22000,1,9,N","040000,1,N,1","+0162,1","+0036,1","10104,1",,,,,,"02,99,1,01,1,01,1,01250,1,04,1,01,1",,,,,"99999,9,10062,1","2,1,024,1,+999,9",,"SYN066AAXX  26094 08286 42682 22305 10162 20036 30062 40104 52024 81141;",
"08286099999","2010-02-26T12:00:00","4","39.95","-0.0666666","43.5","CASTELLON ALMAZORA, SP","FM-12","99999","V020","160,1,N,0021,1","03600,1,9,N","040000,1,N,1","+0200,1","+0041,1","10107,1","06,0000,9,1",,,,,"06,99,1,01,1,01,1,00800,1,04,1,01,1",,,,,"99999,9,10066,1","1,1,004,1,+999,9",,"SYN072AAXX  26124 08286 12582 61604 10200 20041 30066 40107 51004 60001 81141;","Q01  00002PRCP06"
"08286099999","2010-03-01T06:00:00","4","39.95","-0.0666666","43.5","CASTELLON ALMAZORA, SP","FM-12","99999","V020","999,9,C,0000,1","22000,1,9,N","030000,1,N,1","+0070,1","+0013,1","10105,1","12,0000,9,1","24,0000,9,1",,,,"01,99,1,01,1,05,1,00800,1,00,1,00,1",,"01,9","999,+0050,9","999,N,+0070,1","99999,9,10062,1","3,1,008,1,+999,9",,"SYN106AAXX  01064 08286 12580 10000 10070 20013 30062 40105 53008 60002 81500 333 20070 30005 50354 55/// 70000;","Q01  00002PRCP24Q02  00002PRCP12"
"08286099999","2010-03-01T09:00:00","4","39.95","-0.0666666","43.5","CASTELLON ALMAZORA, SP","FM-12","99999","V020","210,1,N,0026,1","22000,1,9,N","040000,1,N,1","+0120,1","+0030,1","10128,1",,,,,,"01,99,1,01,1,01,1,01250,1,00,1,00,1",,,,,"99999,9,10086,1","2,1,024,1,+999,9",,"SYN066AAXX  01094 08286 42682 12105 10120 20030 30086 40128 52024 81100;",
"08286099999","2010-03-01T12:00:00","4","39.95","-0.0666666","43.5","CASTELLON ALMAZORA, SP","FM-12","99999","V020","220,1,N,0036,1","22000,1,9,N","040000,1,N,1","+0206,1","+0010,1","10140,1","06,0000,9,1",,,,,"01,99,1,01,1,01,1,01250,1,04,1,00,1",,,,,"99999,9,10099,1","1,1,013,1,+999,9",,"SYN072AAXX  01124 08286 12682 12207 10206 20010 30099 40140 51013 60001 81140;","Q01  00002PRCP06"
"08286099999","2010-03-02T06:00:00","4","39.95","-0.0666666","43.5","CASTELLON ALMAZORA, SP","FM-12","99999","V020","290,1,N,0026,1","03600,1,9,N","030000,1,N,1","+0098,1","-0013,1","10193,1","12,0000,9,1","24,0000,9,1",,,,"07,99,1,02,1,05,1,01250,1,01,1,08,1","0636,9","01,9","999,+0080,9","999,N,+0096,1","99999,9,10150,1","6,1,002,1,+999,9",,"SYN106AAXX  02064 08286 12680 72905 10098 21013 30150 40193 56002 60002 82518 333 20096 30008 50564 55106 70000;","Q01  00002PRCP24Q02  00002PRCP12"
"08286099999","2010-03-02T09:00:00","4","39.95","-0.0666666","43.5","CASTELLON ALMAZORA, SP","FM-12","99999","V020","290,1,N,0015,1","99999,9,9,N","040000,1,N,1","+0122,1","+0012,1","10194,1",,,,,,"07,99,1,03,1,00,1,99999,9,07,1,08,1",,,,,"99999,9,10151,1","1,1,001,1,+999,9",,"SYN066AAXX  02094 08286 42982 72903 10122 20012 30151 40194 51001 83078;",
"08286099999","2010-03-02T12:00:00","4","39.95","-0.0666666","43.5","CASTELLON ALMAZORA, SP","FM-12","99999","V020","120,1,N,0031,1","99999,9,9,N","040000,1,N,1","+0166,1","+0043,1","10198,1","06,0000,9,1",,,,,"07,99,1,04,1,00,1,99999,9,07,1,08,1",,,,,"99999,9,10156,1","1,1,005,1,+999,9",,"SYN072AAXX  02124 08286 12982 71206 10166 20043 30156 40198 51005 60001 84078;","Q01  00002PRCP06"
"08286099999","2010-03-03T06:00:00","4","39.95","-0.0666666","43.5","CASTELLON ALMAZORA, SP","FM-12","99999","V020","030,1,N,0041,1","01200,1,9,N","025000,1,N,1","+0110,1","+0038,1","10062,1","12,0109,9,1","24,0112,9,1","6,1,06,1","2,1,06,1",,"07,99,1,05,1,05,1,01250,1,02,1,00,1","0114,9","11,9","999,+0080,9","999,N,+0088,1","99999,9,10020,1","7,1,015,1,+999,9","02,1","SYN112AAXX  03064 08286 11675 70308 10110 20038 30020 40062 57015 60112 70262 85520 333 20088 32008 50314 55019 70113;",
"08286099999","2010-03-03T09:00:00","4","39.95","-0.0666666","43.5","CASTELLON ALMAZORA, SP","FM-12","99999","V020","290,1,N,0031,1","00420,1,9,N","004000,1,N,1","+0098,1","+0071,1","10072,1",,,"6,1,03,1","2,1,03,1",,"08,99,1,08,1,07,1,00450,1,99,9,99,9",,,,,"99999,9,10030,1","3,1,010,1,+999,9","61,1","SYN072AAXX  03094 08286 41440 82906 10098 20071 30030 40072 53010 76162 887//;",
"08286099999","2010-03-03T12:00:00","4","39.95","-0.0666666","43.5","CASTELLON ALMAZORA, SP","FM-12","99999","V020","330,1,N,0015,1","00750,1,9,N","020000,1,N,1","+0110,1","+0073,1","10076,1","06,0041,9,1",,"6,1,06,1","2,1,06,1",,"08,99,1,08,1,07,1,00800,1,99,9,99,9",,,,,"99999,9,10034,1","1,1,004,1,+999,9","61,1","SYN078AAXX  03124 08286 11570 83303 10110 20073 30034 40076 51004 60041 76162 887//;",
"08286099999","2010-03-04T06:00:00","4","39.95","-0.0666666","43.5","CASTELLON ALMAZORA, SP","FM-12","99999","V020","310,1,N,0010,1","03600,1,9,N","030000,1,N,1","+0076,1","+0044,1","10088,1","12,0000,9,1","24,0046,9,1",,,,"06,99,1,02,1,05,1,01250,1,03,1,00,1","0018,9","09,9","999,+0060,9","999,N,+0070,1","99999,9,10045,1","3,1,012,1,+999,9",,"SYN106AAXX  04064 08286 12680 63102 10076 20044 30045 40088 53012 60002 82530 333 20070 31006 50134 55003 70046;","Q01  00002PRCP12"
"08286099999","2010-03-04T09:00:00","4","39.95","-0.0666666","43.5","CASTELLON ALMAZORA, SP","FM-12","99999","V020","290,1,N,0021,1","22000,1,9,N","040000,1,N,1","+0122,1","+0049,1","10103,1",,,,,,"01,99,1,01,1,01,1,01250,1,04,1,00,1",,,,,"99999,9,10061,1","2,1,016,1,+999,9",,"SYN066AAXX  04094 08286 42682 12904 10122 20049 30061 40103 52016 81140;",
"08286099999","2010-03-04T12:00:00","4","39.95","-0.0666666","43.5","CASTELLON ALMAZORA, SP","FM-12","99999","V020","300,1,N,0010,1","22000,1,9,N","040000,1,N,1","+0200,1","+0014,1","10108,1","06,0000,9,1",,,,,"01,99,1,01,1,01,1,01250,1,00,1,00,1",,,,,"99999,9,10067,1","1,1,006,1,+999,9",,"SYN072AAXX  04124 08286 12682 13002 10200 20014 30067 40108 51006 60001 81100;","Q01  00002PRCP06"
"08286099999","2010-03-05T06:00:00","4","39.95","-0.0666666","43.5","CASTELLON ALMAZORA, SP","FM-12","99999","V020","999,9,C,0000,1","03600,1,9,N","030000,1,N,1","+0116,1","+0029,1","10145,1","12,0000,9,1","24,0000,9,1",,,,"06,99,1,01,1,05,1,01250,1,07,1,00,1","0576,9","01,9","999,+0090,9","999,N,+0114,1","99999,9,10103,1","4,1,000,1,+999,9",,"SYN106AAXX  05064 08286 12680 60000 10116 20029 30103 40145 54000 60002 81570 333 20114 30009 50314 55096 70000;","Q01  00002PRCP24Q02  00002PRCP12"
"08286099999","2010-03-05T09:00:00","4","39.95","-0.0666666","43.5","CASTELLON ALMAZORA, SP","FM-12","99999","V020","360,1,N,0015,1","99999,9,9,N","035000,1,N,1","+0134,1","+0011,1","10161,1",,,,,,"07,99,1,07,1,00,1,99999,9,07,1,00,1",,,,,"99999,9,10119,1","3,1,016,1,+999,9",,"SYN066AAXX  05094 08286 42981 73603 10134 20011 30119 40161 53016 87070;",
"08286099999","2010-03-05T12:00:00","4","39.95","-0.0666666","43.5","CASTELLON ALMAZORA, SP","FM-12","99999","V020","130,1,N,0026,1","99999,9,9,N","020000,1,N,1","+0144,1","+0013,1","10165,1","06,0000,9,1",,,,,"08,99,1,08,1,00,1,99999,9,07,1,00,1",,,,,"99999,9,10123,1","1,1,004,1,+999,9",,"SYN072AAXX  05124 08286 12970 81305 10144 20013 30123 40165 51004 60001 88070;","Q01  00002PRCP06"
"08286099999","2010-03-09T06:00:00","4","39.95","-0.0666666","43.5","CASTELLON ALMAZORA, SP","FM-12","99999","V020","290,1,N,0046,1","03600,1,9,N","035000,1,N,1","+0056,1","-0090,1","10043,1","12,0000,9,1","24,0000,9,1",,,,"06,99,1,01,1,05,1,01250,1,05,1,00,1","0498,9","01,9","999,+0020,9","999,N,+0046,1","99999,9,10000,1","3,1,020,1,+999,9",,"SYN106AAXX  09064 08286 12681 62909 10056 21090 30000 40043 53020 60002 81550 333 20046 30002 50514 55083 70000;","Q01  00002PRCP24Q02  00002PRCP12"
"08286099999","2010-03-09T09:00:00","4","39.95","-0.0666666","43.5","CASTELLON ALMAZORA, SP","FM-12","99999","V020","290,1,N,0051,1","22000,1,9,N","040000,1,N,1","+0084,1","-0073,1","10055,1",,,,,,"01,99,1,01,1,00,1,99999,9,04,1,00,1",,,,,"99999,9,10012,1","2,1,012,1,+999,9",,"SYN066AAXX  09094 08286 42982 12910 10084 21073 30012 40055 52012 81040;",
"08286099999","2010-03-09T12:00:00","4","39.95","-0.0666666","43.5","CASTELLON ALMAZORA, SP","FM-12","99999","V020","260,1,N,0026,1","22000,1,9,N","040000,1,N,1","+0130,1","-0076,1","10053,1","06,0000,9,1",,,,"00,1,+99999,9,99,9","00,99,1,00,1,00,1,99999,9,00,1,00,1",,,,,"99999,9,10011,1","8,1,001,1,+999,9",,"SYN066AAXX  09124 08286 12982 02605 10130 21076 30011 40053 58001 60001;","Q01  00002PRCP06"
"08286099999","2010-03-10T06:00:00","4","39.95","-0.0666666","43.5","CASTELLON ALMAZORA, SP","FM-12","99999","V020","290,1,N,0021,1","22000,1,9,N","035000,1,N,1","+0022,1","-0091,1","10104,1","12,0000,9,1","24,0000,9,1",,,,"01,99,1,01,1,05,1,00800,1,00,1,00,1","0594,9","01,9","999,+0000,9","999,N,+0018,1","99999,9,10060,1","6,1,003,1,+999,9",,"SYN106AAXX  10064 08286 12581 12904 10022 21091 30060 40104 56003 60002 81500 333 20018 30100 50464 55099 70000;","Q01  00002PRCP24Q02  00002PRCP12"
"08286099999","2010-03-10T09:00:00","4","39.95","-0.0666666","43.5","CASTELLON ALMAZORA, SP","FM-12","99999","V020","040,1,N,0021,1","22000,1,9,N","035000,1,N,1","+0070,1","-0089,1","10114,1",,,,,,"02,99,1,02,1,05,1,00800,1,00,1,00,1",,,,,"99999,9,10071,1","3,1,011,1,+999,9",,"SYN066AAXX  10094 08286 42581 20404 10070 21089 30071 40114 53011 82500;",
"08286099999","2010-03-10T12:00:00","4","39.95","-0.0666666","43.5","CASTELLON ALMAZORA, SP","FM-12","99999","V020","360,1,N,0036,1","22000,1,9,N","025000,1,N,1","+0100,1","-0091,1","10113,1","06,0000,9,1",,,,,"04,99,1,02,1,05,1,01250,1,04,1,00,1",,,,,"99999,9,10070,1","8,1,001,1,+999,9",,"SYN072AAXX  10124 08286 12675 43607 10100 21091 30070 40113 58001 60001 82540;","Q01  00002PRCP06"
"08286099999","2010-03-11T06:00:00","4","39.95","-0.0666666","43.5","CASTELLON ALMAZORA, SP","FM-12","99999","V020","290,1,N,0026,1","22000,1,9,N","030000,1,N,1","+0016,1","-0072,1","10140,1","12,0000,9,1","24,0000,9,1",,,,"01,99,1,01,1,05,1,00800,1,00,1,00,1","0348,9","01,9","999,-0010,9","999,N,+0015,1","99999,9,10096,1","4,1,000,1,+999,9",,"SYN106AAXX  11064 08286 12580 12905 10016 21072 30096 40140 54000 60002 81500 333 20015 30101 50304 55058 70000;","Q01  00002PRCP24Q02  00002PRCP12"
"08286099999","2010-03-11T09:00:00","4","39.95","-0.0666666","43.5","CASTELLON ALMAZORA, SP","FM-12","99999","V020","010,1,N,0015,1","22000,1,9,N","030000,1,N,1","+0056,1","-0083,1","10148,1",,,,,,"01,99,1,01,1,05,1,00800,1,00,1,00,1",,,,,"99999,9,10105,1","1,1,009,1,+999,9",,"SYN066AAXX  11094 08286 42580 10103 10056 21083 30105 40148 51009 81500;",
"08286099999","2010-03-11T12:00:00","4","39.95","-0.0666666","43.5","CASTELLON ALMAZORA, SP","FM-12","99999","V020","170,1,N,0031,1","22000,1,9,N","030000,1,N,1","+0110,1","-0059,1","10143,1","06,0000,9,1",,,,,"01,99,1,01,1,01,1,01250,1,00,1,00,1",,,,,"99999,9,10100,1","8,1,005,1,+999,9",,"SYN072AAXX  11124 08286 12680 11706 10110 21059 30100 40143 58005 60001 81100;","Q01  00002PRCP06"
"08286099999","2010-03-12T06:00:00","4","39.95","-0.0666666","43.5","CASTELLON ALMAZORA, SP","FM-12","99999","V020","290,1,N,0031,1","99999,9,9,N","030000,1,N,1","+0050,1","-0035,1","10155,1","12,0000,9,1","24,0000,9,1",,,,"06,99,1,06,1,00,1,99999,9,07,1,00,1","0642,9","01,9","999,+0020,9","999,N,+0040,1","99999,9,10112,1","3,1,002,1,+999,9",,"SYN106AAXX  12064 08286 12980 62906 10050 21035 30112 40155 53002 60002 86070 333 20040 30002 50264 55107 70000;","Q01  00002PRCP24Q02  00002PRCP12"
"08286099999","2010-03-12T09:00:00","4","39.95","-0.0666666","43.5","CASTELLON ALMAZORA, SP","FM-12","99999","V020","290,1,N,0021,1","99999,9,9,N","020000,1,N,1","+0084,1","-0031,1","10169,1",,,,,,"08,99,1,08,1,00,1,99999,9,02,1,00,1",,,,,"99999,9,10126,1","2,1,014,1,+999,9",,"SYN066AAXX  12094 08286 42970 82904 10084 21031 30126 40169 52014 88020;",
"08286099999","2010-03-12T12:00:00","4","39.95","-0.0666666","43.5","CASTELLON ALMAZORA, SP","FM-12","99999","V020","150,1,N,0015,1","03600,1,9,N","020000,1,N,1","+0100,1","-0030,1","10174,1","06,0000,9,1",,,,,"08,99,1,04,1,08,1,01250,1,02,1,99,9",,,,,"99999,9,10131,1","1,1,005,1,+999,9",,"SYN072AAXX  12124 08286 12670 81503 10100 21030 30131 40174 51005 60001 8482/;","Q01  00002PRCP06"
"08286099999","2010-03-15T06:00:00","4","39.95","-0.0666666","43.5","CASTELLON ALMAZORA, SP","FM-12","99999","V020","300,1,N,0026,1","22000,1,9,N","030000,1,N,1","+0046,1","-0044,1","10246,1","12,0000,9,1","24,0000,9,1",,,,"01,99,1,01,1,00,1,99999,9,04,1,00,1",,"01,9","999,+0030,9","999,N,+0044,1","99999,9,10202,1","6,1,002,1,+999,9",,"SYN106AAXX  15064 08286 12980 13005 10046 21044 30202 40246 56002 60002 81040 333 20044 30003 50194 55/// 70000;","Q01  00002PRCP24Q02  00002PRCP12"
"08286099999","2010-03-15T09:00:00","4","39.95","-0.0666666","43.5","CASTELLON ALMAZORA, SP","FM-12","99999","V020","290,1,N,0021,1","22000,1,9,N","040000,1,N,1","+0108,1","-0048,1","10252,1",,,,,"00,1,+99999,9,99,9","00,99,1,00,1,00,1,99999,9,00,1,00,1",,,,,"99999,9,10209,1","3,1,007,1,+999,9",,"SYN060AAXX  15094 08286 42982 02904 10108 21048 30209 40252 53007;",
"08286099999","2010-03-15T12:00:00","4","39.95","-0.0666666","43.5","CASTELLON ALMAZORA, SP","FM-12","99999","V020","130,1,N,0036,1","22000,1,9,N","025000,1,N,1","+0148,1","-0009,1","10248,1","06,0000,9,1",,,,"00,1,+99999,9,99,9","00,99,1,00,1,00,1,99999,9,00,1,00,1",,,,,"99999,9,10206,1","8,1,003,1,+999,9",,"SYN066AAXX  15124 08286 12975 01307 10148 21009 30206 40248 58003 60001;","Q01  00002PRCP06"
"08286099999","2010-03-16T06:00:00","4","39.95","-0.0666666","43.5","CASTELLON ALMAZORA, SP","FM-12","99999","V020","300,1,N,0036,1","00750,1,9,N","012000,1,N,1","+0054,1","+0011,1","10263,1","12,0000,9,1","24,0000,9,1",,,,"06,99,1,06,1,05,1,00800,1,00,1,00,1","0642,9","01,9","999,+0040,9","999,N,+0052,1","99999,9,10219,1","5,1,002,1,+999,9",,"SYN106AAXX  16064 08286 12562 63007 10054 20011 30219 40263 55002 60002 86500 333 20052 30004 50274 55107 70000;","Q01  00002PRCP24Q02  00002PRCP12"
"08286099999","2010-03-16T09:00:00","4","39.95","-0.0666666","43.5","CASTELLON ALMAZORA, SP","FM-12","99999","V020","290,1,N,0031,1","22000,1,9,N","006000,1,N,1","+0102,1","+0028,1","10272,1",,,"1,1,03,1","1,1,03,1",,"02,99,1,02,1,05,1,00800,1,00,1,00,1",,,,,"99999,9,10229,1","2,1,010,1,+999,9","05,1","SYN072AAXX  16094 08286 41556 22906 10102 20028 30229 40272 52010 70511 82500;",
"08286099999","2010-03-16T12:00:00","4","39.95","-0.0666666","43.5","CASTELLON ALMAZORA, SP","FM-12","99999","V020","170,1,N,0031,1","22000,1,9,N","015000,1,N,1","+0156,1","+0031,1","10267,1","06,0000,9,1",,,,,"01,99,1,00,1,00,1,99999,9,00,1,01,1",,,,,"99999,9,10225,1","8,1,004,1,+999,9",,"SYN072AAXX  16124 08286 12965 11706 10156 20031 30225 40267 58004 60001 80001;","Q01  00002PRCP06"
"08286099999","2010-03-17T06:00:00","4","39.95","-0.0666666","43.5","CASTELLON ALMAZORA, SP","FM-12","99999","V020","300,1,N,0015,1","99999,9,9,N","015000,1,N,1","+0056,1","+0024,1","10286,1","12,0000,9,1","24,0000,9,1",,,,"06,99,1,06,1,00,1,99999,9,04,1,00,1","0582,9","01,9","999,+0040,9","999,N,+0050,1","99999,9,10242,1","3,1,004,1,+999,9",,"SYN106AAXX  17064 08286 12965 63003 10056 20024 30242 40286 53004 60002 86040 333 20050 30004 50214 55097 70000;","Q01  00002PRCP24Q02  00002PRCP12"
"08286099999","2010-03-17T09:00:00","4","39.95","-0.0666666","43.5","CASTELLON ALMAZORA, SP","FM-12","99999","V020","310,1,N,0015,1","22000,1,9,N","015000,1,N,1","+0106,1","+0032,1","10298,1",,,,,,"02,99,1,01,1,00,1,99999,9,04,1,02,1",,,,,"99999,9,10255,1","2,1,013,1,+999,9",,"SYN066AAXX  17094 08286 42965 23103 10106 20032 30255 40298 52013 81042;",
"08286099999","2010-03-17T12:00:00","4","39.95","-0.0666666","43.5","CASTELLON ALMAZORA, SP","FM-12","99999","V020","160,1,N,0026,1","22000,1,9,N","012000,1,N,1","+0162,1","+0049,1","10295,1","06,0000,9,1",,,,"00,1,+99999,9,99,9","00,99,1,00,1,00,1,99999,9,00,1,00,1",,,,,"99999,9,10253,1","8,1,002,1,+999,9",,"SYN066AAXX  17124 08286 12962 01605 10162 20049 30253 40295 58002 60001;","Q01  00002PRCP06"
"08286099999","2010-03-18T06:00:00","4","39.95","-0.0666666","43.5","CASTELLON ALMAZORA, SP","FM-12","99999","V020","290,1,N,0036,1","22000,1,9,N","012000,1,N,1","+0064,1","+0025,1","10284,1","12,0000,9,1","24,0000,9,1",,,,"04,99,1,01,1,05,1,01250,1,04,1,05,1","0588,9","01,9","999,+0040,9","999,N,+0064,1","99999,9,10240,1","6,1,004,1,+999,9",,"SYN106AAXX  18064 08286 12662 42907 10064 20025 30240 40284 56004 60002 81545 333 20064 30004 50164 55098 70000;","Q01  00002PRCP24Q02  00002PRCP12"
"08286099999","2010-03-18T09:00:00","4","39.95","-0.0666666","43.5","CASTELLON ALMAZORA, SP","FM-12","99999","V020","340,1,N,0010,1","99999,9,9,N","012000,1,N,1","+0112,1","+0035,1","10284,1",,,,,,"07,99,1,03,1,00,1,99999,9,07,1,06,1",,,,,"99999,9,10241,1","3,1,001,1,+999,9",,"SYN066AAXX  18094 08286 42962 73402 10112 20035 30241 40284 53001 83076;",
"08286099999","2010-03-18T12:00:00","4","39.95","-0.0666666","43.5","CASTELLON ALMAZORA, SP","FM-12","99999","V020","150,1,N,0031,1","99999,9,9,N","007000,1,N,1","+0156,1","+0055,1","10275,1","06,0000,9,1",,"2,1,06,1","2,1,06,1",,"07,99,1,04,1,00,1,99999,9,07,1,08,1",,,,,"99999,9,10233,1","8,1,008,1,+999,9","05,1","SYN078AAXX  18124 08286 11957 71506 10156 20055 30233 40275 58008 60001 70522 84078;","Q01  00002PRCP06"
"08286099999","2010-03-22T06:00:00","4","39.95","-0.0666666","43.5","CASTELLON ALMAZORA, SP","FM-12","99999","V020","999,9,C,0000,1","00750,1,9,N","010000,1,N,1","+0134,1","+0109,1","10187,1","12,0030,9,1","24,0043,9,1","5,1,06,1","2,1,06,1",,"07,99,1,07,1,07,1,00800,1,00,1,00,1",,"11,9","999,+0120,9","999,N,+0132,1","99999,9,10145,1","6,1,004,1,+999,9","50,1","SYN112AAXX  22064 08286 11560 70000 10134 20109 30145 40187 56004 60032 75052 87700 333 20132 32012 50124 55/// 70044;",
"08286099999","2010-03-22T09:00:00","4","39.95","-0.0666666","43.5","CASTELLON ALMAZORA, SP","FM-12","99999","V020","340,1,N,0005,1","01200,1,9,N","005000,1,N,1","+0152,1","+0110,1","10196,1",,,"2,1,03,1","2,1,03,1",,"07,99,1,07,1,08,1,00800,1,00,1,00,1",,,,,"99999,9,10154,1","1,1,009,1,+999,9","05,1","SYN072AAXX  22094 08286 41550 73401 10152 20110 30154 40196 51009 70522 87800;",
"08286099999","2010-03-22T12:00:00","4","39.95","-0.0666666","43.5","CASTELLON ALMAZORA, SP","FM-12","99999","V020","160,1,N,0015,1","09000,1,9,N","007000,1,N,1","+0194,1","+0101,1","10194,1","06,0000,2,1",,"2,1,06,1","2,1,06,1",,"05,99,1,02,1,05,1,01250,1,03,1,02,1",,,,,"99999,9,10153,1","8,1,001,1,+999,9","05,1","SYN078AAXX  22124 08286 11657 51603 10194 20101 30153 40194 58001 60001 70522 82532;",
"08286099999","2010-03-23T06:00:00","4","39.95","-0.0666666","43.5","CASTELLON ALMAZORA, SP","FM-12","99999","V020","290,1,N,0021,1","22000,1,9,N","012000,1,N,1","+0116,1","+0086,1","10200,1","12,0000,9,1","24,0003,9,1",,,,"01,99,1,01,1,00,1,99999,9,06,1,00,1","0150,9","09,9","999,+0090,9","999,N,+0116,1","99999,9,10157,1","6,1,003,1,+999,9",,"SYN106AAXX  23064 08286 12962 12904 10116 20086 30157 40200 56003 60002 81060 333 20116 31009 50084 55025 70002;","Q01  00002PRCP12"
"08286099999","2010-03-23T09:00:00","4","39.95","-0.0666666","43.5","CASTELLON ALMAZORA, SP","FM-12","99999","V020","160,1,N,0015,1","00420,1,9,N","002000,1,N,1","+0132,1","+0102,1","10207,1",,,"4,1,03,1","1,1,03,1",,"08,99,1,08,1,06,1,00450,1,99,9,99,9",,,,,"99999,9,10165,1","3,1,008,1,+999,9","10,1","SYN072AAXX  23094 08286 41420 81603 10132 20102 30165 40207 53008 71041 886//;",
"08286099999","2010-03-23T12:00:00","4","39.95","-0.0666666","43.5","CASTELLON ALMAZORA, SP","FM-12","99999","V020","160,1,N,0015,1","03600,1,9,N","005000,1,N,1","+0156,1","+0095,1","10203,1","06,0000,9,1",,"2,1,06,1","2,1,06,1",,"07,99,1,04,1,06,1,00450,1,04,1,08,1",,,,,"99999,9,10161,1","8,1,004,1,+999,9","05,1","SYN078AAXX  23124 08286 11450 71603 10156 20095 30161 40203 58004 60001 70522 84648;","Q01  00002PRCP06"
"08286099999","2010-03-24T06:00:00","4","39.95","-0.0666666","43.5","CASTELLON ALMAZORA, SP","FM-12","99999","V020","999,9,C,0000,1","00750,1,9,N","006000,1,N,1","+0120,1","+0096,1","10134,1","12,0000,9,1","24,0000,9,1","2,1,06,1","2,1,06,1",,"08,99,1,08,1,06,1,00800,1,99,9,99,9","0234,9","01,9","999,+0090,9","999,N,+0112,1","99999,9,10092,1","6,1,006,1,+999,9","10,1","SYN112AAXX  24064 08286 11556 80000 10120 20096 30092 40134 56006 60002 71022 886// 333 20112 30009 50114 55039 70000;","Q01  00002PRCP24Q02  00002PRCP12"
"08286099999","2010-03-24T09:00:00","4","39.95","-0.0666666","43.5","CASTELLON ALMAZORA, SP","FM-12","99999","V020","360,1,N,0010,1","00750,1,9,N","003000,1,N,1","+0136,1","+0102,1","10139,1",,,"2,1,03,1","2,1,03,1",,"08,99,1,08,1,07,1,00800,1,99,9,99,9",,,,,"99999,9,10097,1","3,1,005,1,+999,9","10,1","SYN072AAXX  24094 08286 41530 83602 10136 20102 30097 40139 53005 71022 887//;",
"08286099999","2010-03-24T12:00:00","4","39.95","-0.0666666","43.5","CASTELLON ALMAZORA, SP","FM-12","99999","V020","130,1,N,0021,1","00750,1,9,N","004000,1,N,1","+0156,1","+0099,1","10132,1","06,0000,9,1",,"2,1,06,1","2,1,06,1",,"08,99,1,08,1,07,1,00800,1,99,9,99,9",,,,,"99999,9,10090,1","8,1,007,1,+999,9","05,1","SYN078AAXX  24124 08286 11540 81304 10156 20099 30090 40132 58007 60001 70522 887//;","Q01  00002PRCP06"
"08286099999","2010-03-25T06:00:00","4","39.95","-0.0666666","43.5","CASTELLON ALMAZORA, SP","FM-12","99999","V020","120,1,N,0015,1","00750,1,9,N","003000,1,N,1","+0132,1","+0102,1","10109,1","12,0000,9,1","24,0000,9,1","2,1,06,1","2,1,06,1",,"08,99,1,08,1,06,1,00800,1,99,9,99,9","0012,9","01,9","999,+0110,9","999,N,+0130,1","99999,9,10067,1","5,1,002,1,+999,9","10,1","SYN112AAXX  25064 08286 11530 81203 10132 20102 30067 40109 55002 60002 71022 886// 333 20130 30011 50094 55002 70000;","Q01  00002PRCP24Q02  00002PRCP12"
"08286099999","2010-03-25T09:00:00","4","39.95","-0.0666666","43.5","CASTELLON ALMAZORA, SP","FM-12","99999","V020","150,1,N,0021,1","00750,1,9,N","007000,1,N,1","+0156,1","+0102,1","10122,1",,,"5,1,03,1","2,1,03,1",,"07,99,1,07,1,05,1,00800,1,00,1,00,1",,,,,"99999,9,10080,1","2,1,013,1,+999,9","05,1","SYN072AAXX  25094 08286 41557 71504 10156 20102 30080 40122 52013 70552 87500;",
"08286099999","2010-03-25T12:00:00","4","39.95","-0.0666666","43.5","CASTELLON ALMAZORA, SP","FM-12","99999","V020","180,1,N,0036,1","03600,1,9,N","010000,1,N,1","+0192,1","+0070,1","10117,1","06,0000,9,1",,"5,1,06,1","2,1,06,1",,"06,99,1,04,1,08,1,00800,1,07,1,08,1",,,,,"99999,9,10076,1","8,1,004,1,+999,9","02,1","SYN078AAXX  25124 08286 11560 61807 10192 20070 30076 40117 58004 69901 70252 84878;","Q01  00002PRCP06"
"08286099999","2010-03-26T06:00:00","4","39.95","-0.0666666","43.5","CASTELLON ALMAZORA, SP","FM-12","99999","V020","290,1,N,0031,1","22000,1,9,N","040000,1,N,1","+0130,1","-0010,1","10163,1","12,0000,9,1","24,0000,9,1",,,,"04,99,1,01,1,05,1,01250,1,04,1,05,1","0198,9","01,9","999,+0100,9","999,N,+0124,1","99999,9,10121,1","2,1,021,1,+999,9",,"SYN106AAXX  26064 08286 12682 42906 10130 21010 30121 40163 52021 60002 81545 333 20124 30010 50214 55033 79999;","Q01  00002PRCP24Q02  00002PRCP12"
"08286099999","2010-03-26T09:00:00","4","39.95","-0.0666666","43.5","CASTELLON ALMAZORA, SP","FM-12","99999","V020","270,1,N,0057,1","22000,1,9,N","040000,1,N,1","+0156,1","-0014,1","10172,1",,,,,,"03,99,1,01,1,00,1,99999,9,04,1,05,1",,,,,"99999,9,10130,1","1,1,009,1,+999,9",,"SYN066AAXX  26094 08286 42982 32711 10156 21014 30130 40172 51009 81045;",
"08286099999","2010-03-26T12:00:00","4","39.95","-0.0666666","43.5","CASTELLON ALMAZORA, SP","FM-12","99999","V020","260,1,N,0062,1","22000,1,9,N","040000,1,N,1","+0204,1","-0033,1","10174,1","06,0000,9,1",,,,,"02,99,1,01,1,00,1,99999,9,04,1,01,1",,,,,"99999,9,10133,1","0,1,003,1,+999,9",,"SYN072AAXX  26124 08286 12982 22612 10204 21033 30133 40174 50003 60001 81041;","Q01  00002PRCP06"
"08286099999","2010-03-29T06:00:00","4","39.95","-0.0666666","43.5","CASTELLON ALMAZORA, SP","FM-12","99999","V020","290,1,N,0015,1","99999,9,9,N","015000,1,N,1","+0090,1","+0056,1","10122,1","12,0000,9,1","24,0000,9,1",,,,"06,99,1,02,1,00,1,99999,9,04,1,08,1",,"01,9","999,+0070,9","999,N,+0088,1","99999,9,10079,1","6,1,020,1,+999,9",,"SYN106AAXX  29064 08286 12965 62903 10090 20056 30079 40122 56020 60002 82048 333 20088 30007 50334 55/// 70000;","Q01  00002PRCP24Q02  00002PRCP12"
"08286099999","2010-03-29T09:00:00","4","39.95","-0.0666666","43.5","CASTELLON ALMAZORA, SP","FM-12","99999","V020","160,1,N,0021,1","99999,9,9,N","007000,1,N,1","+0142,1","+0073,1","10112,1",,,"2,1,03,1","2,1,03,1",,"06,99,1,01,1,00,1,99999,9,04,1,02,1",,,,,"99999,9,10070,1","8,1,009,1,+999,9","05,1","SYN072AAXX  29094 08286 41957 61604 10142 20073 30070 40112 58009 70522 81042;",
"08286099999","2010-03-29T12:00:00","4","39.95","-0.0666666","43.5","CASTELLON ALMAZORA, SP","FM-12","99999","V020","120,1,N,0031,1","99999,9,9,N","007000,1,N,1","+0170,1","+0084,1","10088,1","06,0000,9,1",,"2,1,06,1","2,1,06,1",,"07,99,1,01,1,00,1,99999,9,04,1,08,1",,,,,"99999,9,10047,1","7,1,023,1,+999,9","05,1","SYN078AAXX  29124 08286 11957 71206 10170 20084 30047 40088 57023 60001 70522 81048;","Q01  00002PRCP06"
"08286099999","2010-03-30T06:00:00","4","39.95","-0.0666666","43.5","CASTELLON ALMAZORA, SP","FM-12","99999","V020","250,1,N,0041,1","22000,1,9,N","040000,1,N,1","+0154,1","-0016,1","10049,1","12,0000,9,1","24,0000,9,1",,,,"02,99,1,01,1,05,1,00800,1,04,1,00,1","0576,9","01,9","999,+0120,9","999,N,+0150,1","99999,9,10008,1","1,1,008,1,+999,9",,"SYN106AAXX  30064 08286 12582 22508 10154 21016 30008 40049 51008 60002 81540 333 20150 30012 50434 55096 70000;","Q01  00002PRCP24Q02  00002PRCP12"
"08286099999","2010-03-30T09:00:00","4","39.95","-0.0666666","43.5","CASTELLON ALMAZORA, SP","FM-12","99999","V020","280,1,N,0067,1","22000,1,9,N","040000,1,N,1","+0178,1","-0005,1","10082,1",,,,,,"01,99,1,01,1,01,1,01250,1,00,1,00,1",,,,,"99999,9,10041,1","2,1,033,1,+999,9",,"SYN066AAXX  30094 08286 42682 12813 10178 21005 30041 40082 52033 81100;",
"08286099999","2010-03-30T12:00:00","4","39.95","-0.0666666","43.5","CASTELLON ALMAZORA, SP","FM-12","99999","V020","270,1,N,0062,1","22000,1,9,N","040000,1,N,1","+0216,1","+0008,1","10090,1","06,0000,9,1",,,,,"01,99,1,01,1,01,1,01250,1,00,1,00,1",,,,,"99999,9,10049,1","1,1,008,1,+999,9",,"SYN072AAXX  30124 08286 12682 12712 10216 20008 30049 40090 51008 60001 81100;","Q01  00002PRCP06"
"08286099999","2010-03-31T06:00:00","4","39.95","-0.0666666","43.5","CASTELLON ALMAZORA, SP","FM-12","99999","V020","280,1,N,0031,1","99999,9,9,N","040000,1,N,1","+0108,1","-0003,1","10144,1","12,0000,9,1","24,0000,9,1",,,,"06,99,1,00,1,00,1,99999,9,00,1,06,1","0648,9","01,9","999,+0080,9","999,N,+0104,1","99999,9,10101,1","3,1,008,1,+999,9",,"SYN106AAXX  31064 08286 12982 62806 10108 21003 30101 40144 53008 60002 80006 333 20104 30008 50784 55108 70000;","Q01  00002PRCP24Q02  00002PRCP12"
"08286099999","2010-03-31T09:00:00","4","39.95","-0.0666666","43.5","CASTELLON ALMAZORA, SP","FM-12","99999","V020","290,1,N,0036,1","99999,9,9,N","040000,1,N,1","+0148,1","+0006,1","10151,1",,,,,,"07,99,1,00,1,00,1,99999,9,00,1,08,1",,,,,"99999,9,10109,1","1,1,008,1,+999,9",,"SYN066AAXX  31094 08286 42982 72907 10148 20006 30109 40151 51008 80008;",
"08286099999","2010-03-31T12:00:00","4","39.95","-0.0666666","43.5","CASTELLON ALMAZORA, SP","FM-12","99999","V020","120,1,N,0036,1","99999,9,9,N","040000,1,N,1","+0180,1","+0019,1","10146,1","06,0000,9,1",,,,,"07,99,1,00,1,00,1,99999,9,00,1,08,1",,,,,"99999,9,10105,1","8,1,004,1,+999,9",,"SYN072AAXX  31124 08286 12982 71207 10180 20019 30105 40146 58004 60001 80008;","Q01  00002PRCP06"
"08286099999","2010-04-01T06:00:00","4","39.95","-0.0666666","43.5","CASTELLON ALMAZORA, SP","FM-12","99999","V020","280,1,N,0021,1","03600,1,9,N","040000,1,N,1","+0112,1","+0017,1","10155,1","12,0000,9,1","24,0000,9,1",,,,"06,99,1,01,1,01,1,01250,1,05,1,08,1","0480,9","01,9","999,+0080,9","999,N,+0106,1","99999,9,10113,1","2,1,020,1,+999,9",,"SYN106AAXX  01064 08286 12682 62804 10112 20017 30113 40155 52020 60002 81158 333 20106 30008 50414 55080 70000;","Q01  00002PRCP24Q02  00002PRCP12"
"08286099999","2010-04-01T09:00:00","4","39.95","-0.0666666","43.5","CASTELLON ALMAZORA, SP","FM-12","99999","V020","290,1,N,0021,1","03600,1,9,N","040000,1,N,1","+0150,1","+0022,1","10172,1",,,,,,"06,99,1,01,1,01,1,01250,1,04,1,08,1",,,,,"99999,9,10130,1","2,1,017,1,+999,9",,"SYN066AAXX  01094 08286 42682 62904 10150 20022 30130 40172 52017 81148;",
"08286099999","2010-04-01T12:00:00","4","39.95","-0.0666666","43.5","CASTELLON ALMAZORA, SP","FM-12","99999","V020","150,1,N,0031,1","03600,1,9,N","040000,1,N,1","+0174,1","+0037,1","10173,1","06,0000,9,1",,,,,"06,99,1,03,1,02,1,01250,1,04,1,08,1",,,,,"99999,9,10131,1","1,1,001,1,+999,9",,"SYN072AAXX  01124 08286 12682 61506 10174 20037 30131 40173 51001 60001 83248;","Q01  00002PRCP06"
"08286099999","2010-04-06T06:00:00","4","39.95","-0.0666666","43.5","CASTELLON ALMAZORA, SP","FM-12","99999","V020","290,1,N,0015,1","99999,9,9,N","030000,1,N,1","+0098,1","+0048,1","10218,1","12,0000,9,1","24,0000,9,1",,,,"06,99,1,01,1,00,1,99999,9,01,1,06,1",,"01,9","999,+0080,9","999,N,+0096,1","99999,9,10175,1","8,1,010,1,+999,9",,"SYN106AAXX  06064 08286 12980 62903 10098 20048 30175 40218 58010 60002 81016 333 20096 30008 50324 55/// 70000;","Q01  00002PRCP24Q02  00002PRCP12"
"08286099999","2010-04-06T09:00:00","4","39.95","-0.0666666","43.5","CASTELLON ALMAZORA, SP","FM-12","99999","V020","240,1,N,0010,1","99999,9,9,N","030000,1,N,1","+0146,1","+0046,1","10213,1",,,,,,"07,99,1,04,1,00,1,99999,9,08,1,08,1",,,,,"99999,9,10171,1","7,1,004,1,+999,9",,"SYN066AAXX  06094 08286 42980 72402 10146 20046 30171 40213 57004 84088;",
"08286099999","2010-04-06T12:00:00","4","39.95","-0.0666666","43.5","CASTELLON ALMAZORA, SP","FM-12","99999","V020","100,1,N,0015,1","03600,1,9,N","030000,1,N,1","+0174,1","+0072,1","10195,1","06,0000,9,1",,,,,"06,99,1,01,1,01,1,01250,1,04,1,08,1",,,,,"99999,9,10153,1","7,1,018,1,+999,9",,"SYN072AAXX  06124 08286 12680 61003 10174 20072 30153 40195 57018 60001 81148;","Q01  00002PRCP06"
"08286099999","2010-04-07T06:00:00","4","39.95","-0.0666666","43.5","CASTELLON ALMAZORA, SP","FM-12","99999","V020","290,1,N,0021,1","99999,9,9,N","012000,1,N,1","+0104,1","+0071,1","10155,1","12,0000,9,1","24,0000,9,1",,,,"07,99,1,07,1,00,1,99999,9,07,1,00,1","0498,9","01,9","999,+0080,9","999,N,+0100,1","99999,9,10112,1","6,1,001,1,+999,9",,"SYN106AAXX  07064 08286 12962 72904 10104 20071 30112 40155 56001 60002 87070 333 20100 30008 50234 55083 70000;","Q01  00002PRCP24Q02  00002PRCP12"
"08286099999","2010-04-07T09:00:00","4","39.95","-0.0666666","43.5","CASTELLON ALMAZORA, SP","FM-12","99999","V020","020,1,N,0010,1","03600,1,9,N","020000,1,N,1","+0156,1","+0071,1","10157,1",,,,,,"07,99,1,04,1,05,1,01250,1,07,1,00,1",,,,,"99999,9,10115,1","1,1,003,1,+999,9",,"SYN066AAXX  07094 08286 42670 70202 10156 20071 30115 40157 51003 84570;",
"08286099999","2010-04-07T12:00:00","4","39.95","-0.0666666","43.5","CASTELLON ALMAZORA, SP","FM-12","99999","V020","050,1,N,0010,1","01200,1,C,N","015000,1,N,1","+0160,1","+0099,1","10158,1","06,0000,9,1",,,,"03,1,+01500,1,09,1","07,99,1,07,1,09,1,01250,1,99,9,99,9",,,,,"99999,9,10116,1","1,1,001,1,+999,9",,"SYN088AAXX  07124 08286 12665 70502 10160 20099 30116 40158 51001 60001 879// 333 83950 84850;","Q01  00002PRCP06"
"08286099999","2010-04-08T06:00:00","4","39.95","-0.0666666","43.5","CASTELLON ALMAZORA, SP","FM-12","99999","V020","290,1,N,0031,1","22000,1,9,N","040000,1,N,1","+0090,1","+0014,1","10219,1","12,0000,9,1","24,0000,9,1",,,,"01,99,1,01,1,05,1,00800,1,00,1,00,1","0246,9","01,9","999,+0060,9","999,N,+0086,1","99999,9,10176,1","3,1,002,1,+999,9",,"SYN106AAXX  08064 08286 12582 12906 10090 20014 30176 40219 53002 60002 81500 333 20086 30006 50334 55041 70000;","Q01  00002PRCP24Q02  00002PRCP12"
"08286099999","2010-04-08T09:00:00","4","39.95","-0.0666666","43.5","CASTELLON ALMAZORA, SP","FM-12","99999","V020","200,1,N,0021,1","22000,1,9,N","040000,1,N,1","+0154,1","+0000,1","10224,1",,,,,,"01,99,1,01,1,05,1,00800,1,00,1,00,1",,,,,"99999,9,10182,1","2,1,006,1,+999,9",,"SYN066AAXX  08094 08286 42582 12004 10154 20000 30182 40224 52006 81500;",
"08286099999","2010-04-08T12:00:00","4","39.95","-0.0666666","43.5","CASTELLON ALMAZORA, SP","FM-12","99999","V020","130,1,N,0031,1","22000,1,9,N","040000,1,N,1","+0188,1","+0026,1","10222,1","06,0000,9,1",,,,,"01,99,1,01,1,01,1,01250,1,00,1,00,1",,,,,"99999,9,10180,1","8,1,002,1,+999,9",,"SYN072AAXX  08124 08286 12682 11306 10188 20026 30180 40222 58002 60001 81100;","Q01  00002PRCP06"
"08286099999","2010-04-09T06:00:00","4","39.95","-0.0666666","43.5","CASTELLON ALMAZORA, SP","FM-12","99999","V020","290,1,N,0031,1","22000,1,9,N","040000,1,N,1","+0086,1","+0013,1","10237,1","12,0000,9,1","24,0000,9,1",,,,"01,99,1,01,1,05,1,00800,1,00,1,00,1","0678,9","01,9","999,+0060,9","999,N,+0082,1","99999,9,10194,1","6,1,002,1,+999,9",,"SYN106AAXX  09064 08286 12582 12906 10086 20013 30194 40237 56002 60002 81500 333 20082 30006 50364 55113 70000;","Q01  00002PRCP24Q02  00002PRCP12"
"08286099999","2010-04-09T09:00:00","4","39.95","-0.0666666","43.5","CASTELLON ALMAZORA, SP","FM-12","99999","V020","999,9,C,0000,1","22000,1,9,N","040000,1,N,1","+0178,1","+0025,1","10238,1",,,,,,"01,99,1,01,1,01,1,01250,1,03,1,00,1",,,,,"99999,9,10196,1","1,1,002,1,+999,9",,"SYN066AAXX  09094 08286 42682 10000 10178 20025 30196 40238 51002 81130;",
"08286099999","2010-04-09T12:00:00","4","39.95","-0.0666666","43.5","CASTELLON ALMAZORA, SP","FM-12","99999","V020","130,1,N,0036,1","22000,1,9,N","035000,1,N,1","+0188,1","+0034,1","10242,1","06,0000,9,1",,,,,"01,99,1,01,1,01,1,01250,1,00,1,00,1",,,,,"99999,9,10200,1","1,1,004,1,+999,9",,"SYN072AAXX  09124 08286 12681 11307 10188 20034 30200 40242 51004 60001 81100;","Q01  00002PRCP06"
"08286099999","2010-04-12T06:00:00","4","39.95","-0.0666666","43.5","CASTELLON ALMAZORA, SP","FM-12","99999","V020","290,1,N,0026,1","22000,1,9,N","015000,1,N,1","+0100,1","+0040,1","10070,1","12,0000,9,1","24,0000,9,1",,,,"02,99,1,01,1,05,1,01250,1,04,1,00,1",,"01,9","999,+0080,9","999,N,+0100,1","99999,9,10028,1","6,1,004,1,+999,9",,"SYN106AAXX  12064 08286 12665 22905 10100 20040 30028 40070 56004 60002 81540 333 20100 30008 50524 55/// 70000;","Q01  00002PRCP24Q02  00002PRCP12"
"08286099999","2010-04-12T09:00:00","4","39.95","-0.0666666","43.5","CASTELLON ALMAZORA, SP","FM-12","99999","V020","080,1,N,0015,1","01200,1,C,N","018000,1,N,1","+0184,1","+0081,1","10075,1",,,,,"02,1,+01380,1,09,1","05,99,1,05,1,03,1,01250,1,00,1,00,1",,,,,"99999,9,10034,1","1,1,006,1,+999,9",,"SYN076AAXX  12094 08286 42668 50803 10184 20081 30034 40075 51006 85300 333 82946;",
"08286099999","2010-04-12T12:00:00","4","39.95","-0.0666666","43.5","CASTELLON ALMAZORA, SP","FM-12","99999","V020","110,1,N,0036,1","01200,1,C,N","015000,1,N,1","+0166,1","+0091,1","10075,1","06,0000,9,1",,,,"03,1,+01380,1,09,1","07,99,1,07,1,03,1,01250,1,00,1,00,1",,,,,"99999,9,10034,1","4,1,000,1,+999,9",,"SYN088AAXX  12124 08286 12665 71107 10166 20091 30034 40075 54000 60001 87300 333 83946 84846;","Q01  00002PRCP06"
"08286099999","2010-04-13T06:00:00","4","39.95","-0.0666666","43.5","CASTELLON ALMAZORA, SP","FM-12","99999","V020","020,1,N,0021,1","00750,1,9,N","015000,1,N,1","+0106,1","+0054,1","10105,1","12,0180,9,1","24,0180,9,1","6,1,06,1","6,1,06,1",,"08,99,1,07,1,07,1,00800,1,02,1,99,9","0384,9","11,9","999,+0090,9","999,N,+0104,1","99999,9,10063,1","3,1,002,1,+999,9","50,1","SYN112AAXX  13064 08286 11565 80204 10106 20054 30063 40105 53002 60182 75066 8772/ 333 20104 32009 50254 55064 70180;",
"08286099999","2010-04-13T09:00:00","4","39.95","-0.0666666","43.5","CASTELLON ALMAZORA, SP","FM-12","99999","V020","030,1,N,0021,1","01200,1,9,N","012000,1,N,1","+0108,1","+0056,1","10124,1",,,"6,1,03,1","5,1,03,1",,"08,99,1,07,1,07,1,01250,1,02,1,99,9",,,,,"99999,9,10082,1","2,1,019,1,+999,9","61,1","SYN072AAXX  13094 08286 41662 80304 10108 20056 30082 40124 52019 76165 8772/;",
"08286099999","2010-04-13T12:00:00","4","39.95","-0.0666666","43.5","CASTELLON ALMAZORA, SP","FM-12","99999","V020","050,1,N,0015,1","00750,1,9,N","015000,1,N,1","+0124,1","+0060,1","10130,1","06,0020,9,1",,"6,1,06,1","5,1,06,1",,"08,99,1,07,1,07,1,00800,1,02,1,99,9",,,,,"99999,9,10088,1","1,1,006,1,+999,9","50,1","SYN078AAXX  13124 08286 11565 80503 10124 20060 30088 40130 51006 60021 75065 8772/;",
"08286099999","2010-04-14T06:00:00","4","39.95","-0.0666666","43.5","CASTELLON ALMAZORA, SP","FM-12","99999","V020","999,9,C,0000,1","00750,1,9,N","015000,1,N,1","+0110,1","+0067,1","10124,1","12,0005,9,1","24,0023,9,1","6,1,06,1","2,1,06,1",,"08,99,1,06,1,05,1,00800,1,02,1,99,9","0000,9","11,9","999,+0090,9","999,N,+0104,1","99999,9,10082,1","6,1,002,1,+999,9","50,1","SYN112AAXX  14064 08286 11565 80000 10110 20067 30082 40124 56002 69952 75062 8652/ 333 20104 32009 50104 55000 70024;",
"08286099999","2010-04-14T09:00:00","4","39.95","-0.0666666","43.5","CASTELLON ALMAZORA, SP","FM-12","99999","V020","040,1,N,0010,1","01200,1,9,N","018000,1,N,1","+0136,1","+0034,1","10122,1",,,,,,"08,99,1,07,1,08,1,00800,1,02,1,99,9",,,,,"99999,9,10080,1","6,1,002,1,+999,9",,"SYN066AAXX  14094 08286 42568 80402 10136 20034 30080 40122 56002 8782/;",
"08286099999","2010-04-14T12:00:00","4","39.95","-0.0666666","43.5","CASTELLON ALMAZORA, SP","FM-12","99999","V020","060,1,N,0015,1","01200,1,9,N","015000,1,N,1","+0138,1","+0041,1","10124,1","06,0000,2,1",,,,,"08,99,1,06,1,08,1,00800,1,02,1,99,9",,,,,"99999,9,10082,1","1,1,002,1,+999,9",,"SYN072AAXX  14124 08286 12565 80603 10138 20041 30082 40124 51002 60001 8682/;",
"08286099999","2010-04-15T06:00:00","4","39.95","-0.0666666","43.5","CASTELLON ALMAZORA, SP","FM-12","99999","V020","290,1,N,0021,1","99999,9,9,N","009000,1,N,1","+0094,1","+0050,1","10114,1","12,0000,9,1","24,0000,2,1","2,1,06,1","2,1,06,1",,"07,99,1,05,1,00,1,99999,9,07,1,08,1","0006,9","01,9","999,+0070,9","999,N,+0092,1","99999,9,10071,1","6,1,006,1,+999,9","05,1","SYN112AAXX  15064 08286 11959 72904 10094 20050 30071 40114 56006 60002 70522 85078 333 20092 30007 50194 55001 70000;","Q01  00002PRCP12"
"08286099999","2010-04-15T09:00:00","4","39.95","-0.0666666","43.5","CASTELLON ALMAZORA, SP","FM-12","99999","V020","110,1,N,0010,1","99999,9,9,N","007000,1,N,1","+0142,1","+0048,1","10122,1",,,"2,1,03,1","2,1,03,1",,"07,99,1,05,1,00,1,99999,9,07,1,08,1",,,,,"99999,9,10080,1","2,1,009,1,+999,9","05,1","SYN072AAXX  15094 08286 41957 71102 10142 20048 30080 40122 52009 70522 85078;",
"08286099999","2010-04-15T12:00:00","4","39.95","-0.0666666","43.5","CASTELLON ALMAZORA, SP","FM-12","99999","V020","150,1,N,0026,1","03600,1,9,N","012000,1,N,1","+0172,1","+0035,1","10120,1","06,0000,9,1",,,,,"07,99,1,01,1,02,1,01250,1,08,1,08,1",,,,,"99999,9,10079,1","8,1,001,1,+999,9",,"SYN072AAXX  15124 08286 12662 71505 10172 20035 30079 40120 58001 60001 81288;","Q01  00002PRCP06"
"08286099999","2010-04-16T06:00:00","4","39.95","-0.0666666","43.5","CASTELLON ALMAZORA, SP","FM-12","99999","V020","290,1,N,0015,1","03600,1,9,N","006000,1,N,1","+0098,1","+0065,1","10123,1","12,0000,9,1","24,0000,9,1","2,1,06,1","2,1,06,1",,"06,99,1,01,1,05,1,00800,1,01,1,08,1","0264,9","01,9","999,+0070,9","999,N,+0092,1","99999,9,10080,1","4,1,000,1,+999,9","10,1","SYN112AAXX  16064 08286 11556 62903 10098 20065 30080 40123 54000 60002 71022 81518 333 20092 30007 50204 55044 70000;","Q01  00002PRCP24Q02  00002PRCP12"
"08286099999","2010-04-16T09:00:00","4","39.95","-0.0666666","43.5","CASTELLON ALMAZORA, SP","FM-12","99999","V020","040,1,N,0015,1","99999,9,9,N","007000,1,N,1","+0148,1","+0059,1","10135,1",,,"2,1,03,1","2,1,03,1",,"07,99,1,04,1,00,1,99999,9,01,1,08,1",,,,,"99999,9,10093,1","1,1,013,1,+999,9","05,1","SYN072AAXX  16094 08286 41957 70403 10148 20059 30093 40135 51013 70522 84018;",
"08286099999","2010-04-16T12:00:00","4","39.95","-0.0666666","43.5","CASTELLON ALMAZORA, SP","FM-12","99999","V020","100,1,N,0021,1","03600,1,9,N","010000,1,N,1","+0182,1","+0067,1","10133,1","06,0000,9,1",,,,,"06,99,1,01,1,05,1,00800,1,01,1,08,1",,,,,"99999,9,10092,1","8,1,001,1,+999,9",,"SYN072AAXX  16124 08286 12560 61004 10182 20067 30092 40133 58001 60001 81518;","Q01  00002PRCP06"
"08286099999","2010-04-19T06:00:00","4","39.95","-0.0666666","43.5","CASTELLON ALMAZORA, SP","FM-12","99999","V020","300,1,N,0010,1","22000,1,9,N","006000,1,N,1","+0116,1","+0086,1","10152,1","12,0000,9,1","24,0000,9,1","0,1,06,1","0,1,06,1",,"01,99,1,01,1,05,1,00450,1,00,1,00,1",,"09,9","999,+0100,9","999,N,+0114,1","99999,9,10110,1","6,1,004,1,+999,9","10,1","SYN112AAXX  19064 08286 11456 13002 10116 20086 30110 40152 56004 69902 71000 81500 333 20114 31010 50114 55/// 70001;","Q01  00002PRCP24Q02  00002PRCP12"
"08286099999","2010-04-19T09:00:00","4","39.95","-0.0666666","43.5","CASTELLON ALMAZORA, SP","FM-12","99999","V020","130,1,N,0015,1","22000,1,9,N","006000,1,N,1","+0182,1","+0090,1","10161,1",,,"0,1,03,1","0,1,03,1",,"01,99,1,01,1,02,1,01250,1,00,1,00,1",,,,,"99999,9,10120,1","3,1,010,1,+999,9","05,1","SYN072AAXX  19094 08286 41656 11303 10182 20090 30120 40161 53010 70500 81200;",
"08286099999","2010-04-19T12:00:00","4","39.95","-0.0666666","43.5","CASTELLON ALMAZORA, SP","FM-12","99999","V020","140,1,N,0026,1","22000,1,9,N","010000,1,N,1","+0202,1","+0106,1","10163,1","06,0000,9,1",,,,"02,1,+01500,1,09,1","02,99,1,02,1,03,1,01250,1,00,1,00,1",,,,,"99999,9,10122,1","1,1,002,1,+999,9",,"SYN082AAXX  19124 08286 12660 21405 10202 20106 30122 40163 51002 60001 82300 333 82950;","Q01  00002PRCP06"
"08286099999","2010-04-20T06:00:00","4","39.95","-0.0666666","43.5","CASTELLON ALMAZORA, SP","FM-12","99999","V020","310,1,N,0015,1","99999,9,9,N","035000,1,N,1","+0140,1","+0066,1","10166,1","12,0000,9,1","24,0000,9,1",,,,"06,99,1,00,1,00,1,99999,9,00,1,06,1","0696,9","01,9","999,+0110,9","999,N,+0132,1","99999,9,10124,1","4,1,000,1,+999,9",,"SYN106AAXX  20064 08286 12981 63103 10140 20066 30124 40166 54000 60002 80006 333 20132 30011 50204 55116 70000;","Q01  00002PRCP24Q02  00002PRCP12"
"08286099999","2010-04-20T09:00:00","4","39.95","-0.0666666","43.5","CASTELLON ALMAZORA, SP","FM-12","99999","V020","130,1,N,0015,1","09000,1,9,N","035000,1,N,1","+0210,1","+0083,1","10181,1",,,,,,"07,99,1,01,1,05,1,01250,1,00,1,06,1",,,,,"99999,9,10140,1","2,1,016,1,+999,9",,"SYN066AAXX  20094 08286 42681 71303 10210 20083 30140 40181 52016 81506;",
"08286099999","2010-04-20T12:00:00","4","39.95","-0.0666666","43.5","CASTELLON ALMAZORA, SP","FM-12","99999","V020","130,1,N,0031,1","09000,1,9,N","030000,1,N,1","+0222,1","+0080,1","10179,1","06,0000,9,1",,,,,"07,99,1,01,1,02,1,01250,1,00,1,06,1",,,,,"99999,9,10138,1","8,1,002,1,+999,9",,"SYN072AAXX  20124 08286 12680 71306 10222 20080 30138 40179 58002 60001 81206;","Q01  00002PRCP06"
"08286099999","2010-04-21T06:00:00","4","39.95","-0.0666666","43.5","CASTELLON ALMAZORA, SP","FM-12","99999","V020","310,1,N,0010,1","99999,9,9,N","025000,1,N,1","+0130,1","+0089,1","10163,1","12,0000,9,1","24,0000,9,1",,,,"06,99,1,00,1,00,1,99999,9,00,1,08,1","0516,9","01,9","999,+0100,9","999,N,+0126,1","99999,9,10121,1","6,1,002,1,+999,9",,"SYN106AAXX  21064 08286 12975 63102 10130 20089 30121 40163 56002 60002 80008 333 20126 30010 50344 55086 70000;","Q01  00002PRCP24Q02  00002PRCP12"
"08286099999","2010-04-21T09:00:00","4","39.95","-0.0666666","43.5","CASTELLON ALMAZORA, SP","FM-12","99999","V020","140,1,N,0021,1","99999,9,9,N","006000,1,N,1","+0188,1","+0119,1","10168,1",,,"2,1,03,1","2,1,03,1",,"06,99,1,00,1,00,1,99999,9,00,1,08,1",,,,,"99999,9,10127,1","1,1,006,1,+999,9","05,1","SYN072AAXX  21094 08286 41956 61404 10188 20119 30127 40168 51006 70522 80008;",
"08286099999","2010-04-21T12:00:00","4","39.95","-0.0666666","43.5","CASTELLON ALMAZORA, SP","FM-12","99999","V020","140,1,N,0026,1","99999,9,9,N","007000,1,N,1","+0210,1","+0102,1","10156,1","06,0000,9,1",,"2,1,06,1","2,1,06,1",,"07,99,1,00,1,00,1,99999,9,00,1,08,1",,,,,"99999,9,10115,1","8,1,012,1,+999,9","05,1","SYN078AAXX  21124 08286 11957 71405 10210 20102 30115 40156 58012 60001 70522 80008;","Q01  00002PRCP06"
"08286099999","2010-04-22T06:00:00","4","39.95","-0.0666666","43.5","CASTELLON ALMAZORA, SP","FM-12","99999","V020","240,1,N,0021,1","01200,1,9,N","018000,1,N,1","+0150,1","+0096,1","10089,1","12,0003,9,1","24,0003,9,1","6,1,06,1","2,1,06,1",,"08,99,1,07,1,07,1,01250,1,02,1,99,9","0654,9","09,9","999,+0120,9","999,N,+0146,1","99999,9,10047,1","7,1,013,1,+999,9","50,1","SYN112AAXX  22064 08286 11668 82404 10150 20096 30047 40089 57013 69932 75062 8772/ 333 20146 31012 50214 55109 70003;",
"08286099999","2010-04-22T09:00:00","4","39.95","-0.0666666","43.5","CASTELLON ALMAZORA, SP","FM-12","99999","V020","060,1,N,0021,1","00750,1,9,N","010000,1,N,1","+0154,1","+0123,1","10090,1",,,"5,1,03,1","2,1,03,1",,"08,99,1,07,1,07,1,00800,1,02,1,99,9",,,,,"99999,9,10049,1","3,1,002,1,+999,9","60,1","SYN072AAXX  22094 08286 41560 80604 10154 20123 30049 40090 53002 76052 8772/;",
"08286099999","2010-04-22T12:00:00","4","39.95","-0.0666666","43.5","CASTELLON ALMAZORA, SP","FM-12","99999","V020","060,1,N,0010,1","00750,1,9,N","007000,1,N,1","+0156,1","+0110,1","10088,1","06,0010,9,1",,"6,1,06,1","2,1,06,1",,"08,99,1,08,1,07,1,00800,1,99,9,99,9",,,,,"99999,9,10047,1","8,1,002,1,+999,9","60,1","SYN078AAXX  22124 08286 11557 80602 10156 20110 30047 40088 58002 60011 76062 887//;",
"08286099999","2010-04-23T06:00:00","4","39.95","-0.0666666","43.5","CASTELLON ALMAZORA, SP","FM-12","99999","V020","290,1,N,0026,1","22000,1,9,N","040000,1,N,1","+0138,1","+0104,1","10085,1","12,0003,9,1","24,0018,9,1","6,1,06,1","1,1,06,1",,"03,99,1,03,1,00,1,99999,9,03,1,00,1","0000,9","09,9","999,+0120,9","999,N,+0136,1","99999,9,10043,1","5,1,002,1,+999,9","02,1","SYN112AAXX  23064 08286 11982 32905 10138 20104 30043 40085 55002 69932 70261 83030 333 20136 31012 50144 55000 70019;",
"08286099999","2010-04-23T09:00:00","4","39.95","-0.0666666","43.5","CASTELLON ALMAZORA, SP","FM-12","99999","V020","240,1,N,0021,1","22000,1,9,N","035000,1,N,1","+0202,1","+0097,1","10095,1",,,,,,"02,99,1,02,1,02,1,01250,1,00,1,00,1",,,,,"99999,9,10054,1","2,1,011,1,+999,9",,"SYN066AAXX  23094 08286 42681 22404 10202 20097 30054 40095 52011 82200;",
"08286099999","2010-04-23T12:00:00","4","39.95","-0.0666666","43.5","CASTELLON ALMAZORA, SP","FM-12","99999","V020","120,1,N,0026,1","01200,1,C,N","025000,1,N,1","+0212,1","+0094,1","10102,1","06,0000,9,1",,,,"03,1,+01500,1,09,1","06,99,1,06,1,03,1,01250,1,00,1,00,1",,,,,"99999,9,10061,1","1,1,007,1,+999,9",,"SYN082AAXX  23124 08286 12675 61205 10212 20094 30061 40102 51007 60001 86300 333 83950;","Q01  00002PRCP06"
"08286099999","2010-04-26T06:00:00","4","39.95","-0.0666666","43.5","CASTELLON ALMAZORA, SP","FM-12","99999","V020","300,1,N,0015,1","22000,1,9,N","030000,1,N,1","+0140,1","+0108,1","10238,1","12,0000,9,1","24,0000,9,1",,,,"01,99,1,01,1,05,1,01250,1,00,1,00,1",,"01,9","999,+0120,9","999,N,+0140,1","99999,9,10196,1","3,1,002,1,+999,9",,"SYN106AAXX  26064 08286 12680 13003 10140 20108 30196 40238 53002 60002 81500 333 20140 30012 50214 55/// 70000;","Q01  00002PRCP24Q02  00002PRCP12"
"08286099999","2010-04-26T09:00:00","4","39.95","-0.0666666","43.5","CASTELLON ALMAZORA, SP","FM-12","99999","V020","170,1,N,0021,1","22000,1,9,N","030000,1,N,1","+0232,1","+0113,1","10241,1",,,,,,"01,99,1,01,1,02,1,01250,1,00,1,00,1",,,,,"99999,9,10200,1","1,1,004,1,+999,9",,"SYN066AAXX  26094 08286 42680 11704 10232 20113 30200 40241 51004 81200;",
"08286099999","2010-04-26T12:00:00","4","39.95","-0.0666666","43.5","CASTELLON ALMAZORA, SP","FM-12","99999","V020","180,1,N,0026,1","22000,1,9,N","030000,1,N,1","+0254,1","+0097,1","10240,1","06,0000,9,1",,,,,"01,99,1,01,1,02,1,01250,1,00,1,00,1",,,,,"99999,9,10199,1","8,1,001,1,+999,9",,"SYN072AAXX  26124 08286 12680 11805 10254 20097 30199 40240 58001 60001 81200;","Q01  00002PRCP06"
"08286099999","2010-04-27T06:00:00","4","39.95","-0.0666666","43.5","CASTELLON ALMAZORA, SP","FM-12","99999","V020","999,9,C,0000,1","22000,1,9,N","035000,1,N,1","+0152,1","+0100,1","10204,1","12,0000,9,1","24,0000,9,1",,,"00,1,+99999,9,99,9","00,99,1,00,1,00,1,99999,9,00,1,00,1","0636,9","01,9","999,+0120,9","999,N,+0150,1","99999,9,10162,1","6,1,005,1,+999,9",,"SYN100AAXX  27064 08286 12981 00000 10152 20100 30162 40204 56005 60002 333 20150 30012 50394 55106 70000;","Q01  00002PRCP24Q02  00002PRCP12"
"08286099999","2010-04-27T09:00:00","4","39.95","-0.0666666","43.5","CASTELLON ALMAZORA, SP","FM-12","99999","V020","090,1,N,0021,1","22000,1,9,N","007000,1,N,1","+0204,1","+0136,1","10208,1",,,"0,1,03,1","0,1,03,1",,"01,99,1,00,1,00,1,99999,9,00,1,05,1",,,,,"99999,9,10167,1","3,1,005,1,+999,9","05,1","SYN072AAXX  27094 08286 41957 10904 10204 20136 30167 40208 53005 70500 80005;",
"08286099999","2010-04-27T12:00:00","4","39.95","-0.0666666","43.5","CASTELLON ALMAZORA, SP","FM-12","99999","V020","120,1,N,0031,1","22000,1,9,N","020000,1,N,1","+0228,1","+0106,1","10213,1","06,0000,9,1",,,,,"01,99,1,01,1,02,1,01250,1,00,1,05,1",,,,,"99999,9,10172,1","0,1,005,1,+999,9",,"SYN072AAXX  27124 08286 12670 11206 10228 20106 30172 40213 50005 60001 81205;","Q01  00002PRCP06"
"08286099999","2010-04-28T06:00:00","4","39.95","-0.0666666","43.5","CASTELLON ALMAZORA, SP","FM-12","99999","V020","999,9,C,0000,1","22000,1,9,N","012000,1,N,1","+0144,1","+0110,1","10230,1","12,0000,9,1","24,0000,9,1",,,,"01,99,1,00,1,00,1,99999,9,00,1,05,1","0738,9","01,9","999,+0120,9","999,N,+0140,1","99999,9,10188,1","5,1,000,1,+999,9",,"SYN106AAXX  28064 08286 12962 10000 10144 20110 30188 40230 55000 60002 80005 333 20140 30012 50304 55123 70000;","Q01  00002PRCP24Q02  00002PRCP12"
"08286099999","2010-04-28T09:00:00","4","39.95","-0.0666666","43.5","CASTELLON ALMAZORA, SP","FM-12","99999","V020","120,1,N,0021,1","22000,1,9,N","007000,1,N,1","+0208,1","+0135,1","10234,1",,,"0,1,03,1","0,1,03,1",,"02,99,1,02,1,01,1,01250,1,00,1,00,1",,,,,"99999,9,10193,1","2,1,005,1,+999,9","05,1","SYN072AAXX  28094 08286 41657 21204 10208 20135 30193 40234 52005 70500 82100;",
"08286099999","2010-04-28T12:00:00","4","39.95","-0.0666666","43.5","CASTELLON ALMAZORA, SP","FM-12","99999","V020","120,1,N,0031,1","22000,1,9,N","015000,1,N,1","+0224,1","+0121,1","10234,1","06,0000,9,1",,,,,"01,99,1,01,1,01,1,01250,1,00,1,00,1",,,,,"99999,9,10193,1","0,1,000,1,+999,9",,"SYN072AAXX  28124 08286 12665 11206 10224 20121 30193 40234 50000 60001 81100;","Q01  00002PRCP06"
"08286099999","2010-04-29T06:00:00","4","39.95","-0.0666666","43.5","CASTELLON ALMAZORA, SP","FM-12","99999","V020","300,1,N,0010,1","99999,9,9,N","030000,1,N,1","+0140,1","+0088,1","10194,1","12,0000,9,1","24,0000,9,1",,,,"05,99,1,00,1,00,1,99999,9,00,1,04,1","0702,9","01,9","999,+0110,9","999,N,+0138,1","99999,9,10152,1","7,1,010,1,+999,9",,"SYN106AAXX  29064 08286 12980 53002 10140 20088 30152 40194 57010 60002 80004 333 20138 30011 50304 55117 70000;","Q01  00002PRCP24Q02  00002PRCP12"
"08286099999","2010-04-29T09:00:00","4","39.95","-0.0666666","43.5","CASTELLON ALMAZORA, SP","FM-12","99999","V020","190,1,N,0021,1","99999,9,9,N","010000,1,N,1","+0216,1","+0098,1","10194,1",,,,,,"05,99,1,00,1,00,1,99999,9,00,1,08,1",,,,,"99999,9,10153,1","3,1,001,1,+999,9",,"SYN066AAXX  29094 08286 42960 51904 10216 20098 30153 40194 53001 80008;",
"08286099999","2010-04-29T12:00:00","4","39.95","-0.0666666","43.5","CASTELLON ALMAZORA, SP","FM-12","99999","V020","160,1,N,0031,1","09000,1,9,N","010000,1,N,1","+0232,1","+0122,1","10189,1","06,0000,9,1",,,,,"06,99,1,01,1,02,1,01250,1,00,1,08,1",,,,,"99999,9,10148,1","8,1,005,1,+999,9",,"SYN072AAXX  29124 08286 12660 61606 10232 20122 30148 40189 58005 60001 81208;","Q01  00002PRCP06"
"08286099999","2010-04-30T06:00:00","4","39.95","-0.0666666","43.5","CASTELLON ALMAZORA, SP","FM-12","99999","V020","300,1,N,0010,1","00750,1,9,N","007000,1,N,1","+0168,1","+0129,1","10146,1","12,0000,9,1","24,0000,9,1","2,1,06,1","2,1,06,1",,"08,99,1,08,1,05,1,00800,1,99,9,99,9","0660,9","01,9","999,+0130,9","999,N,+0154,1","99999,9,10104,1","6,1,002,1,+999,9","05,1","SYN112AAXX  30064 08286 11557 83002 10168 20129 30104 40146 56002 60002 70522 885// 333 20154 30013 50264 55110 70000;","Q01  00002PRCP24Q02  00002PRCP12"
"08286099999","2010-04-30T09:00:00","4","39.95","-0.0666666","43.5","CASTELLON ALMAZORA, SP","FM-12","99999","V020","060,1,N,0026,1","00750,1,9,N","007000,1,N,1","+0188,1","+0132,1","10151,1",,,"2,1,03,1","2,1,03,1",,"08,99,1,08,1,05,1,00800,1,99,9,99,9",,,,,"99999,9,10110,1","1,1,006,1,+999,9","05,1","SYN072AAXX  30094 08286 41557 80605 10188 20132 30110 40151 51006 70522 885//;",
"08286099999","2010-04-30T12:00:00","4","39.95","-0.0666666","43.5","CASTELLON ALMAZORA, SP","FM-12","99999","V020","120,1,N,0026,1","01200,1,9,N","007000,1,N,1","+0202,1","+0124,1","10150,1","06,0000,9,1",,"2,1,06,1","2,1,06,1",,"08,99,1,08,1,08,1,00800,1,99,9,99,9",,,,,"99999,9,10109,1","8,1,001,1,+999,9","05,1","SYN078AAXX  30124 08286 11557 81205 10202 20124 30109 40150 58001 60001 70522 888//;","Q01  00002PRCP06"
"08286099999","2010-05-03T06:00:00","4","39.95","-0.0666666","43.5","CASTELLON ALMAZORA, SP","FM-12","99999","V020","010,1,N,0021,1","01200,1,9,N","015000,1,N,1","+0136,1","+0065,1","10077,1","12,0211,9,1","24,0213,9,1","8,1,06,1","2,1,06,1",,"08,99,1,06,1,07,1,01250,1,02,1,99,9",,"11,9","999,+0120,9","999,N,+0134,1","99999,9,10035,1","7,1,010,1,+999,9","20,1","SYN112AAXX  03064 08286 11665 80104 10136 20065 30035 40077 57010 60212 72082 8672/ 333 20134 32012 50204 55/// 70213;",
"08286099999","2010-05-03T09:00:00","4","39.95","-0.0666666","43.5","CASTELLON ALMAZORA, SP","FM-12","99999","V020","040,1,N,0026,1","01200,1,9,N","018000,1,N,1","+0126,1","+0055,1","10079,1",,,"6,1,03,1","2,1,03,1",,"08,99,1,07,1,07,1,01250,1,02,1,99,9",,,,,"99999,9,10037,1","3,1,002,1,+999,9","60,1","SYN072AAXX  03094 08286 41668 80405 10126 20055 30037 40079 53002 76062 8772/;",
"08286099999","2010-05-03T12:00:00","4","39.95","-0.0666666","43.5","CASTELLON ALMAZORA, SP","FM-12","99999","V020","360,1,N,0036,1","01200,1,9,N","020000,1,N,1","+0126,1","+0051,1","10068,1","06,0051,9,1",,"6,1,06,1","2,1,06,1",,"08,99,1,99,9,07,1,01250,1,03,1,99,9",,,,,"99999,9,10026,1","8,1,011,1,+999,9","60,1","SYN078AAXX  03124 08286 11670 83607 10126 20051 30026 40068 58011 60051 76062 8873/;","Q01+000082SCOTLC"
"08286099999","2010-05-04T06:00:00","4","39.95","-0.0666666","43.5","CASTELLON ALMAZORA, SP","FM-12","99999","V020","320,1,N,0026,1","01200,1,9,N","040000,1,N,1","+0120,1","-0019,1","10036,1","12,0010,9,1","24,0089,9,1","6,1,06,1","2,1,06,1",,"06,99,1,05,1,05,1,01250,1,04,1,00,1","0000,9","09,9","999,+0080,9","999,N,+0108,1","99999,9,09994,1","7,1,010,1,+999,9","02,1","SYN112AAXX  04064 08286 11682 63205 10120 21019 39994 40036 57010 60012 70262 85540 333 20108 31008 50254 55000 70089;",
"08286099999","2010-05-04T09:00:00","4","39.95","-0.0666666","43.5","CASTELLON ALMAZORA, SP","FM-12","99999","V020","320,1,N,0031,1","03600,1,9,N","040000,1,N,1","+0148,1","-0021,1","10031,1",,,,,,"06,99,1,02,1,05,1,01250,1,04,1,02,1",,,,,"99999,9,09990,1","6,1,004,1,+999,9",,"SYN066AAXX  04094 08286 42682 63206 10148 21021 39990 40031 56004 82542;",
"08286099999","2010-05-04T12:00:00","4","39.95","-0.0666666","43.5","CASTELLON ALMAZORA, SP","FM-12","99999","V020","320,1,N,0036,1","01500,1,9,N","040000,1,N,1","+0158,1","-0022,1","10037,1","06,0000,9,1",,,,,"07,99,1,06,1,08,1,01250,1,07,1,00,1",,,,,"99999,9,09996,1","3,1,006,1,+999,9",,"SYN072AAXX  04124 08286 12682 73207 10158 21022 39996 40037 53006 60001 86870;","Q01  00002PRCP06"
"08286099999","2010-05-05T06:00:00","4","39.95","-0.0666666","43.5","CASTELLON ALMAZORA, SP","FM-12","99999","V020","290,1,N,0026,1","03600,1,9,N","040000,1,N,1","+0108,1","-0009,1","10076,1","12,0000,9,1","24,0000,9,1",,,,"06,99,1,03,1,05,1,01250,1,05,1,00,1","0252,9","01,9","999,+0070,9","999,N,+0105,1","99999,9,10034,1","6,1,001,1,+999,9",,"SYN106AAXX  05064 08286 12682 62905 10108 21009 30034 40076 56001 60002 83550 333 20105 30007 50664 55042 70000;","Q01  00002PRCP24Q02  00002PRCP12"
"08286099999","2010-05-05T12:00:00","4","39.95","-0.0666666","43.5","CASTELLON ALMAZORA, SP","FM-12","99999","V020","360,1,N,0031,1","03600,1,9,N","040000,1,N,1","+0192,1","+0008,1","10076,1","06,0000,9,1",,,,"01,1,+01380,1,09,1","05,99,1,04,1,03,1,01250,1,04,1,04,1",,,,,"99999,9,10035,1","8,1,003,1,+999,9",,"SYN082AAXX  05124 08286 12682 53606 10192 20008 30035 40076 58003 60001 84344 333 81946;","Q01  00002PRCP06"
"08286099999","2010-05-06T06:00:00","4","39.95","-0.0666666","43.5","CASTELLON ALMAZORA, SP","FM-12","99999","V020","290,1,N,0031,1","22000,1,9,N","040000,1,N,1","+0102,1","-0015,1","10091,1","12,0000,9,1","24,0000,9,1",,,,"01,99,1,01,1,01,1,01250,1,04,1,00,1","0468,9","01,9","999,+0070,9","999,N,+0092,1","99999,9,10049,1","3,1,009,1,+999,9",,"SYN106AAXX  06064 08286 12682 12906 10102 21015 30049 40091 53009 60002 81140 333 20092 30007 50544 55078 70000;","Q01  00002PRCP24Q02  00002PRCP12"
"08286099999","2010-05-06T09:00:00","4","39.95","-0.0666666","43.5","CASTELLON ALMAZORA, SP","FM-12","99999","V020","240,1,N,0026,1","22000,1,9,N","040000,1,N,1","+0168,1","+0000,1","10086,1",,,,,,"01,99,1,01,1,01,1,01250,1,00,1,00,1",,,,,"99999,9,10045,1","8,1,004,1,+999,9",,"SYN066AAXX  06094 08286 42682 12405 10168 20000 30045 40086 58004 81100;",
"08286099999","2010-05-06T12:00:00","4","39.95","-0.0666666","43.5","CASTELLON ALMAZORA, SP","FM-12","99999","V020","170,1,N,0031,1","22000,1,9,N","040000,1,N,1","+0204,1","+0023,1","10081,1","06,0000,9,1",,,,,"01,99,1,01,1,01,1,01250,1,00,1,00,1",,,,,"99999,9,10040,1","7,1,005,1,+999,9",,"SYN072AAXX  06124 08286 12682 11706 10204 20023 30040 40081 57005 60001 81100;","Q01  00002PRCP06"
"08286099999","2010-05-07T06:00:00","4","39.95","-0.0666666","43.5","CASTELLON ALMAZORA, SP","FM-12","99999","V020","300,1,N,0015,1","99999,9,9,N","030000,1,N,1","+0110,1","+0045,1","10088,1","12,0000,9,1","24,0000,9,1",,,,"07,99,1,03,1,00,1,99999,9,01,1,08,1","0762,9","01,9","999,+0090,9","999,N,+0104,1","99999,9,10046,1","6,1,002,1,+999,9",,"SYN106AAXX  07064 08286 12980 73003 10110 20045 30046 40088 56002 60002 83018 333 20104 30009 50454 55127 70000;","Q01  00002PRCP24Q02  00002PRCP12"
"08286099999","2010-05-07T12:00:00","4","39.95","-0.0666666","43.5","CASTELLON ALMAZORA, SP","FM-12","99999","V020","120,1,N,0031,1","00990,1,9,N","020000,1,N,1","+0172,1","+0091,1","10072,1","06,0000,9,1",,,,"05,1,+00990,1,09,1","07,99,1,07,1,03,1,00800,1,00,1,00,1",,,,,"99999,9,10031,1","8,1,013,1,+999,9",,"SYN082AAXX  07124 08286 12570 71206 10172 20091 30031 40072 58013 60001 87300 333 85933;","Q01  00002PRCP06"
"08286099999","2010-05-10T06:00:00","4","39.95","-0.0666666","43.5","CASTELLON ALMAZORA, SP","FM-12","99999","V020","290,1,N,0036,1","09000,1,9,N","040000,1,N,1","+0148,1","+0081,1","10064,1","12,0000,9,1","24,0003,9,1",,,,"05,99,1,02,1,05,1,01250,1,03,1,02,1",,"09,9","999,+0110,9","999,N,+0130,1","99999,9,10022,1","4,1,000,1,+999,9",,"SYN106AAXX  10064 08286 12682 52907 10148 20081 30022 40064 54000 60002 82532 333 20130 31011 50254 55/// 70002;","Q01  00002PRCP12"
"08286099999","2010-05-10T09:00:00","4","39.95","-0.0666666","43.5","CASTELLON ALMAZORA, SP","FM-12","99999","V020","260,1,N,0036,1","22000,1,9,N","040000,1,N,1","+0230,1","+0067,1","10060,1",,,,,,"04,99,1,01,1,02,1,01250,1,04,1,02,1",,,,,"99999,9,10020,1","8,1,002,1,+999,9",,"SYN066AAXX  10094 08286 42682 42607 10230 20067 30020 40060 58002 81242;",
"08286099999","2010-05-10T12:00:00","4","39.95","-0.0666666","43.5","CASTELLON ALMAZORA, SP","FM-12","99999","V020","240,1,N,0031,1","03600,1,9,N","040000,1,N,1","+0260,1","+0076,1","10044,1","06,0000,9,1",,,,"02,1,+01380,1,09,1","06,99,1,03,1,03,1,01250,1,04,1,02,1",,,,,"99999,9,10004,1","8,1,016,1,+999,9",,"SYN082AAXX  10124 08286 12682 62406 10260 20076 30004 40044 58016 60001 83342 333 82946;","Q01  00002PRCP06"
"08286099999","2010-05-11T06:00:00","4","39.95","-0.0666666","43.5","CASTELLON ALMAZORA, SP","FM-12","99999","V020","290,1,N,0026,1","01200,1,9,N","040000,1,N,1","+0146,1","+0069,1","10059,1","12,0000,9,1","24,0000,9,1",,,,"06,99,1,06,1,05,1,01250,1,00,1,00,1","0618,9","01,9","999,+0110,9","999,N,+0132,1","99999,9,10017,1","3,1,001,1,+999,9",,"SYN106AAXX  11064 08286 12682 62905 10146 20069 30017 40059 53001 60002 86500 333 20132 30011 50444 55103 70000;","Q01  00002PRCP24Q02  00002PRCP12"
"08286099999","2010-05-11T12:00:00","4","39.95","-0.0666666","43.5","CASTELLON ALMAZORA, SP","FM-12","99999","V020","160,1,N,0026,1","01500,1,9,N","040000,1,N,1","+0240,1","+0044,1","10052,1","06,0000,9,1",,,,,"06,99,1,05,1,08,1,01250,1,04,1,00,1",,,,,"99999,9,10012,1","8,1,009,1,+999,9",,"SYN072AAXX  11124 08286 12682 61605 10240 20044 30012 40052 58009 60001 85840;","Q01  00002PRCP06"
"08286099999","2010-05-12T06:00:00","4","39.95","-0.0666666","43.5","CASTELLON ALMAZORA, SP","FM-12","99999","V020","300,1,N,0026,1","22000,1,9,N","040000,1,N,1","+0134,1","+0067,1","10068,1","12,0000,9,1","24,0000,9,1",,,,"01,99,1,01,1,05,1,01250,1,00,1,00,1","0396,9","01,9","999,+0110,9","999,N,+0130,1","99999,9,10026,1","3,1,005,1,+999,9",,"SYN106AAXX  12064 08286 12682 13005 10134 20067 30026 40068 53005 60002 81500 333 20130 30011 50464 55066 79999;","Q01  00002PRCP24Q02  00002PRCP12"
"08286099999","2010-05-12T09:00:00","4","39.95","-0.0666666","43.5","CASTELLON ALMAZORA, SP","FM-12","99999","V020","050,1,N,0021,1","22000,1,9,N","040000,1,N,1","+0204,1","+0064,1","10071,1",,,,,,"01,99,1,01,1,02,1,01250,1,00,1,00,1",,,,,"99999,9,10030,1","1,1,004,1,+999,9",,"SYN066AAXX  12094 08286 42682 10504 10204 20064 30030 40071 51004 81200;",
"08286099999","2010-05-12T12:00:00","4","39.95","-0.0666666","43.5","CASTELLON ALMAZORA, SP","FM-12","99999","V020","120,1,N,0041,1","22000,1,9,N","030000,1,N,1","+0208,1","+0067,1","10062,1","06,0000,9,1",,,,"02,1,+01380,1,09,1","03,99,1,03,1,03,1,01250,1,00,1,00,1",,,,,"99999,9,10021,1","8,1,009,1,+999,9",,"SYN082AAXX  12124 08286 12680 31208 10208 20067 30021 40062 58009 60001 83300 333 82946;","Q01  00002PRCP06"
"08286099999","2010-05-13T06:00:00","4","39.95","-0.0666666","43.5","CASTELLON ALMAZORA, SP","FM-12","99999","V020","280,1,N,0010,1","22000,1,9,N","040000,1,N,1","+0116,1","+0061,1","10091,1","12,0000,9,1","24,0015,9,1",,,,"01,99,1,01,1,05,1,01250,1,00,1,00,1","0654,9","09,9","999,+0090,9","999,N,+0108,1","99999,9,10049,1","3,1,005,1,+999,9",,"SYN106AAXX  13064 08286 12682 12802 10116 20061 30049 40091 53005 60002 81500 333 20108 31009 50334 55109 70014;","Q01  00002PRCP12"
"08286099999","2010-05-13T09:00:00","4","39.95","-0.0666666","43.5","CASTELLON ALMAZORA, SP","FM-12","99999","V020","080,1,N,0015,1","22000,1,9,N","040000,1,N,1","+0180,1","+0080,1","10097,1",,,,,,"02,99,1,02,1,02,1,01250,1,00,1,00,1",,,,,"99999,9,10056,1","1,1,007,1,+999,9",,"SYN066AAXX  13094 08286 42682 20803 10180 20080 30056 40097 51007 82200;",
"08286099999","2010-05-13T12:00:00","4","39.95","-0.0666666","43.5","CASTELLON ALMAZORA, SP","FM-12","99999","V020","120,1,N,0031,1","22000,1,9,N","025000,1,N,1","+0192,1","+0082,1","10095,1","06,0000,9,1",,,,"02,1,+01380,1,09,1","03,99,1,03,1,03,1,01250,1,00,1,00,1",,,,,"99999,9,10054,1","8,1,002,1,+999,9",,"SYN082AAXX  13124 08286 12675 31206 10192 20082 30054 40095 58002 60001 83300 333 82946;","Q01  00002PRCP06"
"08286099999","2010-05-14T06:00:00","4","39.95","-0.0666666","43.5","CASTELLON ALMAZORA, SP","FM-12","99999","V020","350,1,N,0031,1","01500,1,9,N","025000,1,N,1","+0122,1","+0009,1","10097,1","12,0000,9,1","24,0018,9,1",,,,"08,99,1,07,1,08,1,01250,1,02,1,00,1","0660,9","01,9","999,+0080,9","999,N,+0104,1","99999,9,10055,1","3,1,002,1,+999,9",,"SYN106AAXX  14064 08286 12675 83506 10122 20009 30055 40097 53002 60002 87820 333 20104 30008 50344 55110 70019;","Q01  00002PRCP12"
"08286099999","2010-05-14T09:00:00","4","39.95","-0.0666666","43.5","CASTELLON ALMAZORA, SP","FM-12","99999","V020","030,1,N,0031,1","01500,1,9,N","030000,1,N,1","+0120,1","+0019,1","10102,1",,,"8,1,03,1","2,1,03,1",,"07,99,1,06,1,08,1,01250,1,02,1,00,1",,,,,"99999,9,10060,1","1,1,005,1,+999,9","25,1","SYN072AAXX  14094 08286 41680 70306 10120 20019 30060 40102 51005 72582 86820;",
"08286099999","2010-05-14T12:00:00","4","39.95","-0.0666666","43.5","CASTELLON ALMAZORA, SP","FM-12","99999","V020","090,1,N,0026,1","01500,1,9,N","030000,1,N,1","+0164,1","+0013,1","10094,1","06,0003,9,1",,"8,1,06,1","2,1,06,1",,"07,99,1,07,1,08,1,01250,1,00,1,00,1",,,,,"99999,9,10053,1","8,1,007,1,+999,9","02,1","SYN078AAXX  14124 08286 11680 70905 10164 20013 30053 40094 58007 69931 70282 87800;",
"08286099999","2010-05-17T06:00:00","4","39.95","-0.0666666","43.5","CASTELLON ALMAZORA, SP","FM-12","99999","V020","290,1,N,0026,1","22000,1,9,N","040000,1,N,1","+0118,1","+0045,1","10236,1","12,0000,9,1","24,0000,9,1",,,"00,1,+99999,9,99,9","00,99,1,00,1,00,1,99999,9,00,1,00,1",,"01,9","999,+0090,9","999,N,+0106,1","99999,9,10193,1","3,1,004,1,+999,9",,"SYN100AAXX  17064 08286 12982 02905 10118 20045 30193 40236 53004 60002 333 20106 30009 50544 55/// 70000;","Q01  00002PRCP24Q02  00002PRCP12"
"08286099999","2010-05-17T12:00:00","4","39.95","-0.0666666","43.5","CASTELLON ALMAZORA, SP","FM-12","99999","V020","150,1,N,0031,1","22000,1,9,N","030000,1,N,1","+0204,1","+0064,1","10251,1","06,0000,9,1",,,,,"01,99,1,01,1,01,1,01250,1,00,1,00,1",,,,,"99999,9,10209,1","2,1,009,1,+999,9",,"SYN072AAXX  17124 08286 12680 11506 10204 20064 30209 40251 52009 60001 81100;","Q01  00002PRCP06"
"08286099999","2010-05-18T06:00:00","4","39.95","-0.0666666","43.5","CASTELLON ALMAZORA, SP","FM-12","99999","V020","300,1,N,0015,1","22000,1,9,N","030000,1,N,1","+0122,1","+0075,1","10257,1","12,0000,9,1","24,0000,9,1",,,"00,1,+99999,9,99,9","00,99,1,00,1,00,1,99999,9,00,1,00,1","0786,9","01,9","999,+0100,9","999,N,+0116,1","99999,9,10214,1","6,1,002,1,+999,9",,"SYN100AAXX  18064 08286 12980 03003 10122 20075 30214 40257 56002 60002 333 20116 30010 50374 55131 70000;","Q01  00002PRCP24Q02  00002PRCP12"
"08286099999","2010-05-18T09:00:00","4","39.95","-0.0666666","43.5","CASTELLON ALMAZORA, SP","FM-12","99999","V020","120,1,N,0026,1","22000,1,9,N","012000,1,N,1","+0194,1","+0117,1","10261,1",,,,,,"02,99,1,01,1,01,1,01250,1,00,1,04,1",,,,,"99999,9,10219,1","1,1,005,1,+999,9",,"SYN066AAXX  18094 08286 42662 21205 10194 20117 30219 40261 51005 81104;",
"08286099999","2010-05-18T12:00:00","4","39.95","-0.0666666","43.5","CASTELLON ALMAZORA, SP","FM-12","99999","V020","140,1,N,0031,1","22000,1,9,N","020000,1,N,1","+0218,1","+0112,1","10251,1","06,0000,9,1",,,,,"03,99,1,01,1,01,1,01250,1,00,1,01,1",,,,,"99999,9,10210,1","8,1,009,1,+999,9",,"SYN072AAXX  18124 08286 12670 31406 10218 20112 30210 40251 58009 60001 81101;","Q01  00002PRCP06"
"08286099999","2010-05-19T06:00:00","4","39.95","-0.0666666","43.5","CASTELLON ALMAZORA, SP","FM-12","99999","V020","300,1,N,0021,1","22000,1,9,N","040000,1,N,1","+0152,1","+0054,1","10206,1","12,0000,9,1","24,0000,9,1",,,,"02,99,1,01,1,00,1,99999,9,04,1,01,1","0786,9","01,9","999,+0110,9","999,N,+0130,1","99999,9,10164,1","5,1,004,1,+999,9",,"SYN106AAXX  19064 08286 12982 23004 10152 20054 30164 40206 55004 60002 81041 333 20130 30011 50404 55131 70000;","Q01  00002PRCP24Q02  00002PRCP12"
"08286099999","2010-05-19T09:00:00","4","39.95","-0.0666666","43.5","CASTELLON ALMAZORA, SP","FM-12","99999","V020","120,1,N,0026,1","22000,1,9,N","035000,1,N,1","+0222,1","+0087,1","10212,1",,,,,,"01,99,1,01,1,00,1,99999,9,04,1,00,1",,,,,"99999,9,10171,1","1,1,007,1,+999,9",,"SYN066AAXX  19094 08286 42981 11205 10222 20087 30171 40212 51007 81040;",
"08286099999","2010-05-19T12:00:00","4","39.95","-0.0666666","43.5","CASTELLON ALMAZORA, SP","FM-12","99999","V020","140,1,N,0031,1","22000,1,9,N","040000,1,N,1","+0220,1","+0092,1","10214,1","06,0000,9,1",,,,,"01,99,1,01,1,01,1,01250,1,00,1,00,1",,,,,"99999,9,10173,1","0,1,002,1,+999,9",,"SYN072AAXX  19124 08286 12682 11406 10220 20092 30173 40214 50002 60001 81100;","Q01  00002PRCP06"
"08286099999","2010-05-20T06:00:00","4","39.95","-0.0666666","43.5","CASTELLON ALMAZORA, SP","FM-12","99999","V020","290,1,N,0036,1","22000,1,9,N","030000,1,N,1","+0140,1","+0082,1","10248,1","12,0000,9,1","24,0000,9,1",,,"00,1,+99999,9,99,9","00,99,1,00,1,00,1,99999,9,00,1,00,1","0786,9","01,9","999,+0120,9","999,N,+0136,1","99999,9,10206,1","3,1,005,1,+999,9",,"SYN100AAXX  20064 08286 12980 02907 10140 20082 30206 40248 53005 60002 333 20136 30012 50414 55131 70000;","Q01  00002PRCP24Q02  00002PRCP12"
"08286099999","2010-05-20T09:00:00","4","39.95","-0.0666666","43.5","CASTELLON ALMAZORA, SP","FM-12","99999","V020","340,1,N,0010,1","22000,1,9,N","030000,1,N,1","+0216,1","+0078,1","10241,1",,,,,"00,1,+99999,9,99,9","00,99,1,00,1,00,1,99999,9,00,1,00,1",,,,,"99999,9,10200,1","8,1,006,1,+999,9",,"SYN060AAXX  20094 08286 42980 03402 10216 20078 30200 40241 58006;",
"08286099999","2010-05-20T12:00:00","4","39.95","-0.0666666","43.5","CASTELLON ALMAZORA, SP","FM-12","99999","V020","160,1,N,0036,1","22000,1,9,N","025000,1,N,1","+0238,1","+0101,1","10234,1","06,0000,9,1",,,,,"01,99,1,01,1,01,1,01250,1,00,1,00,1",,,,,"99999,9,10193,1","7,1,007,1,+999,9",,"SYN072AAXX  20124 08286 12675 11607 10238 20101 30193 40234 57007 60001 81100;","Q01  00002PRCP06"
"08286099999","2010-05-21T06:00:00","4","39.95","-0.0666666","43.5","CASTELLON ALMAZORA, SP","FM-12","99999","V020","290,1,N,0031,1","22000,1,9,N","040000,1,N,1","+0160,1","+0072,1","10223,1","12,0000,9,1","24,0000,9,1",,,"00,1,+99999,9,99,9","00,99,1,00,1,00,1,99999,9,00,1,00,1","0792,9","01,9","999,+0120,9","999,N,+0140,1","99999,9,10181,1","3,1,001,1,+999,9",,"SYN100AAXX  21064 08286 12982 02906 10160 20072 30181 40223 53001 60002 333 20140 30012 50394 55132 70000;","Q01  00002PRCP24Q02  00002PRCP12"
"08286099999","2010-05-21T09:00:00","4","39.95","-0.0666666","43.5","CASTELLON ALMAZORA, SP","FM-12","99999","V020","210,1,N,0015,1","22000,1,9,N","030000,1,N,1","+0252,1","+0069,1","10223,1",,,,,"00,1,+99999,9,99,9","00,99,1,00,1,00,1,99999,9,00,1,00,1",,,,,"99999,9,10182,1","1,1,001,1,+999,9",,"SYN060AAXX  21094 08286 42980 02103 10252 20069 30182 40223 51001;",
"08286099999","2010-05-21T12:00:00","4","39.95","-0.0666666","43.5","CASTELLON ALMAZORA, SP","FM-12","99999","V020","160,1,N,0036,1","22000,1,9,N","030000,1,N,1","+0264,1","+0079,1","10209,1","06,0000,9,1",,,,"00,1,+99999,9,99,9","00,99,1,00,1,00,1,99999,9,00,1,00,1",,,,,"99999,9,10169,1","7,1,013,1,+999,9",,"SYN066AAXX  21124 08286 12980 01607 10264 20079 30169 40209 57013 60001;","Q01  00002PRCP06"
"08286099999","2010-05-24T06:00:00","4","39.95","-0.0666666","43.5","CASTELLON ALMAZORA, SP","FM-12","99999","V020","300,1,N,0021,1","22000,1,9,N","035000,1,N,1","+0150,1","+0083,1","10174,1","12,0000,9,1","24,0000,9,1",,,"00,1,+99999,9,99,9","00,99,1,00,1,00,1,99999,9,00,1,00,1",,"01,9","999,+0120,9","999,N,+0140,1","99999,9,10132,1","6,1,004,1,+999,9",,"SYN100AAXX  24064 08286 12981 03004 10150 20083 30132 40174 56004 60002 333 20140 30012 50384 55/// 70000;","Q01  00002PRCP24Q02  00002PRCP12"
"08286099999","2010-05-24T09:00:00","4","39.95","-0.0666666","43.5","CASTELLON ALMAZORA, SP","FM-12","99999","V020","150,1,N,0010,1","22000,1,9,N","030000,1,N,1","+0238,1","+0101,1","10176,1",,,,,"00,1,+99999,9,99,9","00,99,1,00,1,00,1,99999,9,00,1,00,1",,,,,"99999,9,10135,1","3,1,003,1,+999,9",,"SYN060AAXX  24094 08286 42980 01502 10238 20101 30135 40176 53003;",
"08286099999","2010-05-24T12:00:00","4","39.95","-0.0666666","43.5","CASTELLON ALMAZORA, SP","FM-12","99999","V020","160,1,N,0026,1","22000,1,9,N","030000,1,N,1","+0256,1","+0098,1","10178,1","06,0000,9,1",,,,,"01,99,1,01,1,01,1,01250,1,00,1,00,1",,,,,"99999,9,10138,1","0,1,003,1,+999,9",,"SYN072AAXX  24124 08286 12680 11605 10256 20098 30138 40178 50003 60001 81100;","Q01  00002PRCP06"
"08286099999","2010-05-25T06:00:00","4","39.95","-0.0666666","43.5","CASTELLON ALMAZORA, SP","FM-12","99999","V020","300,1,N,0021,1","22000,1,9,N","035000,1,N,1","+0152,1","+0104,1","10162,1","12,0000,9,1","24,0000,9,1",,,"00,1,+99999,9,99,9","00,99,1,00,1,00,1,99999,9,00,1,00,1","0792,9","01,9","999,+0130,9","999,N,+0144,1","99999,9,10120,1","5,1,002,1,+999,9",,"SYN100AAXX  25064 08286 12981 03004 10152 20104 30120 40162 55002 60002 333 20144 30013 50404 55132 70000;","Q01  00002PRCP24Q02  00002PRCP12"
"08286099999","2010-05-25T09:00:00","4","39.95","-0.0666666","43.5","CASTELLON ALMAZORA, SP","FM-12","99999","V020","160,1,N,0026,1","22000,1,9,N","025000,1,N,1","+0242,1","+0115,1","10161,1",,,,,,"04,99,1,00,1,00,1,99999,9,00,1,05,1",,,,,"99999,9,10120,1","4,1,000,1,+999,9",,"SYN066AAXX  25094 08286 42975 41605 10242 20115 30120 40161 54000 80005;",
"08286099999","2010-05-25T12:00:00","4","39.95","-0.0666666","43.5","CASTELLON ALMAZORA, SP","FM-12","99999","V020","160,1,N,0031,1","99999,9,9,N","025000,1,N,1","+0258,1","+0112,1","10154,1","06,0000,9,1",,,,,"06,99,1,00,1,00,1,99999,9,00,1,08,1",,,,,"99999,9,10114,1","8,1,006,1,+999,9",,"SYN072AAXX  25124 08286 12975 61606 10258 20112 30114 40154 58006 60001 80008;","Q01  00002PRCP06"
"08286099999","2010-05-26T06:00:00","4","39.95","-0.0666666","43.5","CASTELLON ALMAZORA, SP","FM-12","99999","V020","999,9,C,0000,1","03600,1,9,N","020000,1,N,1","+0158,1","+0088,1","10114,1","12,0000,9,1","24,0000,9,1",,,,"07,99,1,03,1,05,1,01250,1,04,1,08,1","0708,9","01,9","999,+0120,9","999,N,+0150,1","99999,9,10072,1","5,1,002,1,+999,9",,"SYN106AAXX  26064 08286 12670 70000 10158 20088 30072 40114 55002 60002 83548 333 20150 30012 50414 55118 70000;","Q01  00002PRCP24Q02  00002PRCP12"
"08286099999","2010-05-26T09:00:00","4","39.95","-0.0666666","43.5","CASTELLON ALMAZORA, SP","FM-12","99999","V020","070,1,N,0010,1","22000,1,9,N","020000,1,N,1","+0242,1","+0131,1","10114,1",,,,,,"03,99,1,00,1,00,1,99999,9,00,1,08,1",,,,,"99999,9,10074,1","0,1,002,1,+999,9",,"SYN066AAXX  26094 08286 42970 30702 10242 20131 30074 40114 50002 80008;",
"08286099999","2010-05-26T12:00:00","4","39.95","-0.0666666","43.5","CASTELLON ALMAZORA, SP","FM-12","99999","V020","140,1,N,0026,1","09000,1,9,N","020000,1,N,1","+0240,1","+0138,1","10112,1","06,0000,9,1",,,,,"05,99,1,01,1,02,1,01250,1,00,1,02,1",,,,,"99999,9,10072,1","8,1,002,1,+999,9",,"SYN072AAXX  26124 08286 12670 51405 10240 20138 30072 40112 58002 60001 81202;","Q01  00002PRCP06"
"08286099999","2010-05-27T06:00:00","4","39.95","-0.0666666","43.5","CASTELLON ALMAZORA, SP","FM-12","99999","V020","130,1,N,0010,1","99999,9,9,N","030000,1,N,1","+0194,1","+0129,1","10102,1","12,0000,9,1","24,0000,9,1",,,,"06,99,1,05,1,00,1,99999,9,08,1,02,1","0762,9","01,9","999,+0140,9","999,N,+0170,1","99999,9,10061,1","3,1,008,1,+999,9",,"SYN106AAXX  27064 08286 12980 61302 10194 20129 30061 40102 53008 60002 85082 333 20170 30014 50444 55127 70000;","Q01  00002PRCP24Q02  00002PRCP12"
"08286099999","2010-05-27T09:00:00","4","39.95","-0.0666666","43.5","CASTELLON ALMAZORA, SP","FM-12","99999","V020","080,1,N,0026,1","09000,1,9,N","012000,1,N,1","+0224,1","+0153,1","10116,1",,,,,,"07,99,1,01,1,02,1,01250,1,00,1,08,1",,,,,"99999,9,10075,1","1,1,014,1,+999,9",,"SYN066AAXX  27094 08286 42662 70805 10224 20153 30075 40116 51014 81208;",
"08286099999","2010-05-27T12:00:00","4","39.95","-0.0666666","43.5","CASTELLON ALMAZORA, SP","FM-12","99999","V020","080,1,N,0026,1","01200,1,C,N","015000,1,N,1","+0222,1","+0141,1","10123,1","06,0000,9,1",,,,"02,1,+01380,1,09,1","07,99,1,07,1,03,1,01250,1,00,1,00,1",,,,,"99999,9,10082,1","2,1,007,1,+999,9",,"SYN088AAXX  27124 08286 12665 70805 10222 20141 30082 40123 52007 60001 87300 333 82946 85846;","Q01  00002PRCP06"
"08286099999","2010-05-28T06:00:00","4","39.95","-0.0666666","43.5","CASTELLON ALMAZORA, SP","FM-12","99999","V020","290,1,N,0015,1","99999,9,9,N","030000,1,N,1","+0170,1","+0135,1","10129,1","12,0000,9,1","24,0003,9,1",,,,"05,99,1,01,1,00,1,99999,9,04,1,06,1","0462,9","01,9","999,+0150,9","999,N,+0164,1","99999,9,10088,1","3,1,004,1,+999,9",,"SYN106AAXX  28064 08286 12980 52903 10170 20135 30088 40129 53004 69922 81046 333 20164 30015 50304 55077 70002;","Q01  00002PRCP12"
"08286099999","2010-05-28T09:00:00","4","39.95","-0.0666666","43.5","CASTELLON ALMAZORA, SP","FM-12","99999","V020","300,1,N,0010,1","09000,1,9,N","030000,1,N,1","+0236,1","+0106,1","10139,1",,,,,,"05,99,1,02,1,02,1,01250,1,00,1,02,1",,,,,"99999,9,10098,1","1,1,010,1,+999,9",,"SYN066AAXX  28094 08286 42680 53002 10236 20106 30098 40139 51010 82202;",
"08286099999","2010-05-28T12:00:00","4","39.95","-0.0666666","43.5","CASTELLON ALMAZORA, SP","FM-12","99999","V020","110,1,N,0026,1","09000,1,9,N","020000,1,N,1","+0250,1","+0097,1","10141,1","06,0000,9,1",,,,"03,1,+00990,1,09,1","06,99,1,04,1,09,1,00800,1,00,1,08,1",,,,,"99999,9,10101,1","1,1,003,1,+999,9",,"SYN082AAXX  28124 08286 12570 61105 10250 20097 30101 40141 51003 60001 84908 333 83933;","Q01  00002PRCP06"
"08286099999","2010-05-31T06:00:00","4","39.95","-0.0666666","43.5","CASTELLON ALMAZORA, SP","FM-12","99999","V020","300,1,N,0026,1","99999,9,9,N","040000,1,N,1","+0220,1","+0114,1","10184,1","12,0000,9,1","24,0000,9,1",,,,"06,99,1,00,1,00,1,99999,9,00,1,06,1",,"01,9","999,+0190,9","999,N,+0210,1","99999,9,10143,1","6,1,002,1,+999,9",,"SYN106AAXX  31064 08286 12982 63005 10220 20114 30143 40184 56002 60002 80006 333 20210 30019 50464 55/// 70000;","Q01  00002PRCP24Q02  00002PRCP12"
"08286099999","2010-05-31T09:00:00","4","39.95","-0.0666666","43.5","CASTELLON ALMAZORA, SP","FM-12","99999","V020","200,1,N,0010,1","99999,9,9,N","040000,1,N,1","+0300,1","+0124,1","10171,1",,,,,,"06,99,1,00,1,00,1,99999,9,00,1,08,1",,,,,"99999,9,10131,1","8,1,012,1,+999,9",,"SYN066AAXX  31094 08286 42982 62002 10300 20124 30131 40171 58012 80008;",
"08286099999","2010-05-31T12:00:00","4","39.95","-0.0666666","43.5","CASTELLON ALMAZORA, SP","FM-12","99999","V020","190,1,N,0031,1","09000,1,9,N","040000,1,N,1","+0330,1","+0136,1","10158,1","06,0000,9,1",,,,,"06,99,1,01,1,01,1,01250,1,00,1,08,1",,,,,"99999,9,10119,1","7,1,012,1,+999,9",,"SYN072AAXX  31124 08286 12682 61906 10330 20136 30119 40158 57012 60001 81108;","Q01  00002PRCP06"
"08286099999","2010-06-01T06:00:00","4","39.95","-0.0666666","43.5","CASTELLON ALMAZORA, SP","FM-12","99999","V020","320,1,N,0015,1","09000,1,9,N","040000,1,N,1","+0232,1","+0106,1","10147,1","12,0000,9,1","24,0000,9,1",,,,"05,99,1,01,1,05,1,01250,1,07,1,04,1","0708,9","01,9","999,+0190,9","999,N,+0216,1","99999,9,10106,1","6,1,002,1,+999,9",,"SYN106AAXX  01064 08286 12682 53203 10232 20106 30106 40147 56002 60002 81574 333 20216 30019 50754 55118 70000;","Q01  00002PRCP24Q02  00002PRCP12"
"08286099999","2010-06-01T09:00:00","4","39.95","-0.0666666","43.5","CASTELLON ALMAZORA, SP","FM-12","99999","V020","160,1,N,0021,1","22000,1,9,N","040000,1,N,1","+0284,1","+0139,1","10147,1",,,,,,"04,99,1,01,1,01,1,01250,1,04,1,02,1",,,,,"99999,9,10107,1","3,1,001,1,+999,9",,"SYN066AAXX  01094 08286 42682 41604 10284 20139 30107 40147 53001 81142;",
"08286099999","2010-06-01T12:00:00","4","39.95","-0.0666666","43.5","CASTELLON ALMAZORA, SP","FM-12","99999","V020","160,1,N,0026,1","22000,1,9,N","040000,1,N,1","+0288,1","+0139,1","10142,1","06,0000,9,1",,,,,"04,99,1,01,1,02,1,01250,1,04,1,02,1",,,,,"99999,9,10102,1","8,1,005,1,+999,9",,"SYN072AAXX  01124 08286 12682 41605 10288 20139 30102 40142 58005 60001 81242;","Q01  00002PRCP06"
"08286099999","2010-06-02T06:00:00","4","39.95","-0.0666666","43.5","CASTELLON ALMAZORA, SP","FM-12","99999","V020","300,1,N,0015,1","03600,1,9,N","030000,1,N,1","+0212,1","+0118,1","10130,1","12,0000,9,1","24,0000,9,1",,,,"07,99,1,01,1,05,1,01250,1,05,1,00,1","0570,9","01,9","999,+0180,9","999,N,+0206,1","99999,9,10089,1","6,1,001,1,+999,9",,"SYN106AAXX  02064 08286 12680 73003 10212 20118 30089 40130 56001 60002 81550 333 20206 30018 50494 55095 70000;","Q01  00002PRCP24Q02  00002PRCP12"
"08286099999","2010-06-02T09:00:00","4","39.95","-0.0666666","43.5","CASTELLON ALMAZORA, SP","FM-12","99999","V020","140,1,N,0015,1","03600,1,9,N","030000,1,N,1","+0248,1","+0140,1","10135,1",,,,,,"07,99,1,01,1,06,1,01250,1,07,1,08,1",,,,,"99999,9,10095,1","3,1,006,1,+999,9",,"SYN066AAXX  02094 08286 42680 71403 10248 20140 30095 40135 53006 81678;",
"08286099999","2010-06-02T12:00:00","4","39.95","-0.0666666","43.5","CASTELLON ALMAZORA, SP","FM-12","99999","V020","140,1,N,0031,1","99999,9,9,N","030000,1,N,1","+0244,1","+0133,1","10129,1","06,0000,9,1",,,,,"07,99,1,06,1,00,1,99999,9,07,1,08,1",,,,,"99999,9,10089,1","8,1,006,1,+999,9",,"SYN072AAXX  02124 08286 12980 71406 10244 20133 30089 40129 58006 60001 86078;","Q01  00002PRCP06"
"08286099999","2010-06-03T06:00:00","4","39.95","-0.0666666","43.5","CASTELLON ALMAZORA, SP","FM-12","99999","V020","310,1,N,0010,1","03600,1,9,N","015000,1,N,1","+0188,1","+0136,1","10128,1","12,0000,9,1","24,0000,9,1",,,,"06,99,1,01,1,05,1,00800,1,04,1,02,1","0150,9","01,9","999,+0160,9","999,N,+0184,1","99999,9,10087,1","3,1,003,1,+999,9",,"SYN106AAXX  03064 08286 12565 63102 10188 20136 30087 40128 53003 60002 81542 333 20184 30016 50374 55025 70000;","Q01  00002PRCP24Q02  00002PRCP12"
"08286099999","2010-06-03T09:00:00","4","39.95","-0.0666666","43.5","CASTELLON ALMAZORA, SP","FM-12","99999","V020","170,1,N,0026,1","09000,1,9,N","020000,1,N,1","+0242,1","+0154,1","10120,1",,,,,,"05,99,1,01,1,02,1,01250,1,08,1,02,1",,,,,"99999,9,10080,1","6,1,007,1,+999,9",,"SYN066AAXX  03094 08286 42670 51705 10242 20154 30080 40120 56007 81282;",
"08286099999","2010-06-03T12:00:00","4","39.95","-0.0666666","43.5","CASTELLON ALMAZORA, SP","FM-12","99999","V020","120,1,N,0031,1","00750,1,C,N","020000,1,N,1","+0250,1","+0175,1","10119,1","06,0000,9,1",,,,"04,1,+00990,1,09,1","07,99,1,06,1,03,1,00800,1,07,1,02,1",,,,,"99999,9,10079,1","8,1,001,1,+999,9",,"SYN082AAXX  03124 08286 12570 71206 10250 20175 30079 40119 58001 60001 86372 333 84933;","Q01  00002PRCP06"
"08286099999","2010-06-04T06:00:00","4","39.95","-0.0666666","43.5","CASTELLON ALMAZORA, SP","FM-12","99999","V020","310,1,N,0015,1","00750,1,9,N","012000,1,N,1","+0204,1","+0164,1","10154,1","12,0000,9,1","24,0000,9,1",,,,"07,99,1,07,1,05,1,00800,1,00,1,00,1","0672,9","01,9","999,+0170,9","999,N,+0190,1","99999,9,10113,1","2,1,015,1,+999,9",,"SYN106AAXX  04064 08286 12562 73103 10204 20164 30113 40154 52015 60002 87500 333 20190 30017 50324 55112 70000;","Q01  00002PRCP24Q02  00002PRCP12"
"08286099999","2010-06-04T09:00:00","4","39.95","-0.0666666","43.5","CASTELLON ALMAZORA, SP","FM-12","99999","V020","160,1,N,0010,1","22000,1,9,N","020000,1,N,1","+0256,1","+0153,1","10160,1",,,,,"00,1,+99999,9,99,9","00,99,1,00,1,00,1,99999,9,00,1,00,1",,,,,"99999,9,10120,1","1,1,007,1,+999,9",,"SYN060AAXX  04094 08286 42970 01602 10256 20153 30120 40160 51007;",
"08286099999","2010-06-04T12:00:00","4","39.95","-0.0666666","43.5","CASTELLON ALMAZORA, SP","FM-12","99999","V020","160,1,N,0026,1","22000,1,9,N","020000,1,N,1","+0278,1","+0158,1","10161,1","06,0000,9,1",,,,,"01,99,1,01,1,02,1,01250,1,00,1,00,1",,,,,"99999,9,10121,1","1,1,001,1,+999,9",,"SYN072AAXX  04124 08286 12670 11605 10278 20158 30121 40161 51001 60001 81200;","Q01  00002PRCP06"
"08286099999","2010-06-07T06:00:00","4","39.95","-0.0666666","43.5","CASTELLON ALMAZORA, SP","FM-12","99999","V020","290,1,N,0015,1","22000,1,9,N","005000,1,N,1","+0176,1","+0147,1","10162,1","12,0010,9,1","24,0046,9,1","1,1,06,1","1,1,06,1",,"02,99,1,02,1,05,1,00800,1,00,1,00,1",,"09,9","999,+0150,9","999,N,+0174,1","99999,9,10121,1","6,1,004,1,+999,9","10,1","SYN112AAXX  07064 08286 11550 22903 10176 20147 30121 40162 56004 69992 71011 82500 333 20174 31015 50204 55/// 70045;",
"08286099999","2010-06-07T09:00:00","4","39.95","-0.0666666","43.5","CASTELLON ALMAZORA, SP","FM-12","99999","V020","220,1,N,0010,1","22000,1,9,N","010000,1,N,1","+0242,1","+0140,1","10160,1",,,,,,"03,99,1,03,1,02,1,00800,1,00,1,00,1",,,,,"99999,9,10119,1","6,1,002,1,+999,9",,"SYN066AAXX  07094 08286 42560 32202 10242 20140 30119 40160 56002 83200;",
"08286099999","2010-06-07T12:00:00","4","39.95","-0.0666666","43.5","CASTELLON ALMAZORA, SP","FM-12","99999","V020","150,1,N,0026,1","22000,1,9,N","015000,1,N,1","+0266,1","+0140,1","10148,1","06,0000,9,1",,,,,"02,99,1,01,1,02,1,00800,1,05,1,00,1",,,,,"99999,9,10108,1","8,1,011,1,+999,9",,"SYN072AAXX  07124 08286 12565 21505 10266 20140 30108 40148 58011 60001 81250;","Q01  00002PRCP06"
"08286099999","2010-06-08T06:00:00","4","39.95","-0.0666666","43.5","CASTELLON ALMAZORA, SP","FM-12","99999","V020","999,9,C,0000,1","09000,1,9,N","007000,1,N,1","+0192,1","+0159,1","10091,1","12,0000,9,1","24,0000,9,1","2,1,06,1","2,1,06,1",,"06,99,1,02,1,05,1,00800,1,04,1,06,1","0762,9","01,9","999,+0170,9","999,N,+0186,1","99999,9,10050,1","6,1,002,1,+999,9","10,1","SYN112AAXX  08064 08286 11557 60000 10192 20159 30050 40091 56002 60002 71022 82546 333 20186 30017 50264 55127 70000;","Q01  00002PRCP24Q02  00002PRCP12"
"08286099999","2010-06-08T09:00:00","4","39.95","-0.0666666","43.5","CASTELLON ALMAZORA, SP","FM-12","99999","V020","140,1,N,0021,1","22000,1,9,N","007000,1,N,1","+0254,1","+0157,1","10087,1",,,"1,1,03,1","1,1,03,1",,"04,99,1,04,1,05,1,00800,1,00,1,00,1",,,,,"99999,9,10047,1","6,1,003,1,+999,9","05,1","SYN072AAXX  08094 08286 41557 41404 10254 20157 30047 40087 56003 70511 84500;",
"08286099999","2010-06-08T12:00:00","4","39.95","-0.0666666","43.5","CASTELLON ALMAZORA, SP","FM-12","99999","V020","130,1,N,0026,1","22000,1,9,N","009000,1,N,1","+0260,1","+0163,1","10078,1","06,0000,9,1",,"0,1,06,1","0,1,06,1",,"04,99,1,04,1,05,1,00800,1,00,1,00,1",,,,,"99999,9,10038,1","8,1,009,1,+999,9","05,1","SYN078AAXX  08124 08286 11559 41305 10260 20163 30038 40078 58009 60001 70500 84500;","Q01  00002PRCP06"
"08286099999","2010-06-09T06:00:00","4","39.95","-0.0666666","43.5","CASTELLON ALMAZORA, SP","FM-12","99999","V020","290,1,N,0010,1","00750,1,9,N","004000,1,N,1","+0206,1","+0180,1","10039,1","12,0030,9,2","24,0025,9,2","8,1,06,1","6,1,06,1",,"08,99,1,07,1,07,1,00800,1,02,1,99,9","0702,9","11,9","999,+0190,9","999,N,+0204,1","99999,9,09999,1","3,1,009,1,+999,9","61,1","SYN112AAXX  09064 08286 11540 82902 10206 20180 39999 40039 53009 60032 76186 8772/ 333 20204 32019 50284 55117 70026;",
"08286099999","2010-06-09T09:00:00","4","39.95","-0.0666666","43.5","CASTELLON ALMAZORA, SP","FM-12","99999","V020","280,1,N,0015,1","00750,1,9,N","020000,1,N,1","+0220,1","+0151,1","10030,1",,,"6,1,03,1","2,1,03,1",,"08,99,1,07,1,07,1,00800,1,02,1,99,9",,,,,"99999,9,09990,1","8,1,009,1,+999,9","21,1","SYN072AAXX  09094 08286 41570 82803 10220 20151 39990 40030 58009 72162 8772/;",
"08286099999","2010-06-09T12:00:00","4","39.95","-0.0666666","43.5","CASTELLON ALMAZORA, SP","FM-12","99999","V020","170,1,N,0021,1","01200,1,9,N","018000,1,N,1","+0242,1","+0143,1","10024,1","06,0010,9,1",,"6,1,06,1","2,1,06,1",,"08,99,1,07,1,08,1,00800,1,02,1,99,9",,,,,"99999,9,09984,1","7,1,006,1,+999,9","02,1","SYN078AAXX  09124 08286 11568 81704 10242 20143 39984 40024 57006 60011 70262 8782/;",
"08286099999","2010-06-10T06:00:00","4","39.95","-0.0666666","43.5","CASTELLON ALMAZORA, SP","FM-12","99999","V020","240,1,N,0026,1","22000,1,9,N","040000,1,N,1","+0178,1","+0141,1","10018,1","12,0099,9,1","24,0102,9,1","8,1,06,1","1,1,06,1",,"02,99,1,02,1,05,1,01250,1,00,1,00,1","0012,9","11,9","999,+0150,9","999,N,+0174,1","99999,9,09977,1","3,1,015,1,+999,9","02,1","SYN112AAXX  10064 08286 11682 22405 10178 20141 39977 40018 53015 60102 70281 82500 333 20174 32015 50184 55002 70102;",
"08286099999","2010-06-10T09:00:00","4","39.95","-0.0666666","43.5","CASTELLON ALMAZORA, SP","FM-12","99999","V020","200,1,N,0021,1","22000,1,9,N","040000,1,N,1","+0236,1","+0081,1","10034,1",,,,,,"01,99,1,01,1,02,1,01250,1,00,1,00,1",,,,,"99999,9,09994,1","2,1,017,1,+999,9",,"SYN066AAXX  10094 08286 42682 12004 10236 20081 39994 40034 52017 81200;",
"08286099999","2010-06-10T12:00:00","4","39.95","-0.0666666","43.5","CASTELLON ALMAZORA, SP","FM-12","99999","V020","230,1,N,0036,1","22000,1,9,N","040000,1,N,1","+0270,1","+0059,1","10039,1","06,0000,9,1",,,,,"02,99,1,02,1,02,1,01250,1,04,1,00,1",,,,,"99999,9,09999,1","1,1,005,1,+999,9",,"SYN072AAXX  10124 08286 12682 22307 10270 20059 39999 40039 51005 60001 82240;","Q01  00002PRCP06"
"08286099999","2010-06-11T06:00:00","4","39.95","-0.0666666","43.5","CASTELLON ALMAZORA, SP","FM-12","99999","V020","290,1,N,0026,1","22000,1,9,N","040000,1,N,1","+0180,1","+0099,1","10085,1","12,0000,9,1","24,0000,9,1",,,,"04,99,1,04,1,00,1,99999,9,08,1,00,1","0756,9","09,9","999,+0140,9","999,N,+0166,1","99999,9,10044,1","3,1,013,1,+999,9",,"SYN106AAXX  11064 08286 12982 42905 10180 20099 30044 40085 53013 60002 84080 333 20166 31014 50574 55126 70000;","Q01  00002PRCP24Q02  00002PRCP12"
"08286099999","2010-06-11T09:00:00","4","39.95","-0.0666666","43.5","CASTELLON ALMAZORA, SP","FM-12","99999","V020","210,1,N,0026,1","99999,9,9,N","040000,1,N,1","+0238,1","+0090,1","10086,1",,,,,,"07,99,1,07,1,00,1,99999,9,07,1,00,1",,,,,"99999,9,10046,1","1,1,002,1,+999,9",,"SYN066AAXX  11094 08286 42982 72105 10238 20090 30046 40086 51002 87070;",
"08286099999","2010-06-11T12:00:00","4","39.95","-0.0666666","43.5","CASTELLON ALMAZORA, SP","FM-12","99999","V020","250,1,N,0041,1","01500,1,9,N","040000,1,N,1","+0250,1","+0076,1","10091,1","06,0000,9,1",,,,,"06,99,1,06,1,08,1,01250,1,00,1,00,1",,,,,"99999,9,10051,1","1,1,005,1,+999,9",,"SYN072AAXX  11124 08286 12682 62508 10250 20076 30051 40091 51005 60001 86800;","Q01  00002PRCP06"
"08286099999","2010-06-14T06:00:00","4","39.95","-0.0666666","43.5","CASTELLON ALMAZORA, SP","FM-12","99999","V020","290,1,N,0005,1","22000,1,9,N","030000,1,N,1","+0172,1","+0131,1","10136,1","12,0000,9,1","24,0000,9,1",,,,"01,99,1,01,1,00,1,99999,9,07,1,00,1",,"01,9","999,+0150,9","999,N,+0168,1","99999,9,10095,1","6,1,002,1,+999,9",,"SYN106AAXX  14064 08286 12980 12901 10172 20131 30095 40136 56002 60002 81070 333 20168 30015 50524 55/// 70000;","Q01  00002PRCP24Q02  00002PRCP12"
"08286099999","2010-06-14T09:00:00","4","39.95","-0.0666666","43.5","CASTELLON ALMAZORA, SP","FM-12","99999","V020","120,1,N,0021,1","03600,1,9,N","030000,1,N,1","+0236,1","+0132,1","10134,1",,,,,,"07,99,1,02,1,08,1,01250,1,07,1,00,1",,,,,"99999,9,10093,1","6,1,002,1,+999,9",,"SYN066AAXX  14094 08286 42680 71204 10236 20132 30093 40134 56002 82870;",
"08286099999","2010-06-14T12:00:00","4","39.95","-0.0666666","43.5","CASTELLON ALMAZORA, SP","FM-12","99999","V020","130,1,N,0026,1","01200,1,9,N","015000,1,N,1","+0214,1","+0157,1","10131,1","06,9999,9,9",,"2,1,06,1","2,1,06,1",,"08,99,1,08,1,07,1,01250,1,99,9,99,9",,,,,"99999,9,10090,1","6,1,003,1,+999,9","60,1","SYN078AAXX  14124 08286 11665 81305 10214 20157 30090 40131 56003 69921 76022 887//;","Q01  00002PRCP06Q02  00002PRCP06"
"08286099999","2010-06-15T06:00:00","4","39.95","-0.0666666","43.5","CASTELLON ALMAZORA, SP","FM-12","99999","V020","300,1,N,0010,1","01500,1,9,N","040000,1,N,1","+0154,1","+0097,1","10125,1","12,0211,9,1","24,0239,9,1","6,1,06,1","2,1,06,1",,"07,99,1,07,1,08,1,01250,1,00,1,00,1","0180,9","11,9","999,+0130,9","999,N,+0150,1","99999,9,10083,1","3,1,002,1,+999,9","21,1","SYN112AAXX  15064 08286 11682 73002 10154 20097 30083 40125 53002 60212 72162 87800 333 20150 32013 50294 55030 70238;",
"08286099999","2010-06-15T09:00:00","4","39.95","-0.0666666","43.5","CASTELLON ALMAZORA, SP","FM-12","99999","V020","290,1,N,0021,1","01500,1,9,N","040000,1,N,1","+0200,1","+0077,1","10123,1",,,,,,"06,99,1,06,1,08,1,01250,1,00,1,00,1",,,,,"99999,9,10082,1","6,1,001,1,+999,9",,"SYN066AAXX  15094 08286 42682 62904 10200 20077 30082 40123 56001 86800;",
"08286099999","2010-06-15T12:00:00","4","39.95","-0.0666666","43.5","CASTELLON ALMAZORA, SP","FM-12","99999","V020","160,1,N,0031,1","00750,1,C,N","035000,1,N,1","+0236,1","+0099,1","10118,1","06,0000,2,1",,,,"01,1,+00990,1,09,1","05,99,1,05,1,03,1,00800,1,00,1,00,1",,,,,"99999,9,10078,1","6,1,004,1,+999,9",,"SYN082AAXX  15124 08286 12581 51606 10236 20099 30078 40118 56004 60001 85300 333 81933;",
"08286099999","2010-06-16T06:00:00","4","39.95","-0.0666666","43.5","CASTELLON ALMAZORA, SP","FM-12","99999","V020","290,1,N,0031,1","22000,1,9,N","040000,1,N,1","+0148,1","+0074,1","10124,1","12,0041,9,1","24,0041,9,1",,,,"01,99,1,01,1,05,1,01250,1,00,1,00,1","0444,9","09,9","999,+0110,9","999,N,+0132,1","99999,9,10082,1","3,1,002,1,+999,9",,"SYN106AAXX  16064 08286 12682 12906 10148 20074 30082 40124 53002 60042 81500 333 20132 31011 50324 55074 70040;",
"08286099999","2010-06-16T09:00:00","4","39.95","-0.0666666","43.5","CASTELLON ALMAZORA, SP","FM-12","99999","V020","290,1,N,0021,1","22000,1,9,N","040000,1,N,1","+0206,1","+0058,1","10123,1",,,,,,"01,99,1,01,1,02,1,01250,1,04,1,00,1",,,,,"99999,9,10082,1","4,1,000,1,+999,9",,"SYN066AAXX  16094 08286 42682 12904 10206 20058 30082 40123 54000 81240;",
"08286099999","2010-06-16T12:00:00","4","39.95","-0.0666666","43.5","CASTELLON ALMAZORA, SP","FM-12","99999","V020","160,1,N,0026,1","03600,1,9,N","035000,1,N,1","+0226,1","+0072,1","10118,1","06,0000,9,1",,,,"02,1,+01200,1,09,1","07,99,1,02,1,03,1,01250,1,07,1,08,1",,,,,"99999,9,10077,1","8,1,005,1,+999,9",,"SYN082AAXX  16124 08286 12681 71605 10226 20072 30077 40118 58005 60001 82378 333 82940;","Q01  00002PRCP06"
"08286099999","2010-06-17T06:00:00","4","39.95","-0.0666666","43.5","CASTELLON ALMAZORA, SP","FM-12","99999","V020","290,1,N,0021,1","22000,1,9,N","040000,1,N,1","+0158,1","+0078,1","10144,1","12,0000,9,1","24,0003,9,1",,,,"02,99,1,01,1,05,1,01250,1,04,1,01,1","0492,9","01,9","999,+0130,9","999,N,+0144,1","99999,9,10102,1","3,1,009,1,+999,9",,"SYN106AAXX  17064 08286 12682 22904 10158 20078 30102 40144 53009 60002 81541 333 20144 30013 50434 55082 70002;","Q01  00002PRCP12"
"08286099999","2010-06-17T09:00:00","4","39.95","-0.0666666","43.5","CASTELLON ALMAZORA, SP","FM-12","99999","V020","010,1,N,0015,1","22000,1,9,N","040000,1,N,1","+0224,1","+0074,1","10144,1",,,,,,"04,99,1,01,1,02,1,01250,1,04,1,04,1",,,,,"99999,9,10103,1","1,1,001,1,+999,9",,"SYN066AAXX  17094 08286 42682 40103 10224 20074 30103 40144 51001 81244;",
"08286099999","2010-06-17T12:00:00","4","39.95","-0.0666666","43.5","CASTELLON ALMAZORA, SP","FM-12","99999","V020","160,1,N,0026,1","09000,1,9,N","040000,1,N,1","+0252,1","+0099,1","10140,1","06,0000,9,1",,,,,"05,99,1,02,1,02,1,01250,1,04,1,08,1",,,,,"99999,9,10100,1","8,1,003,1,+999,9",,"SYN072AAXX  17124 08286 12682 51605 10252 20099 30100 40140 58003 60001 82248;","Q01  00002PRCP06"
"08286099999","2010-06-18T06:00:00","4","39.95","-0.0666666","43.5","CASTELLON ALMAZORA, SP","FM-12","99999","V020","290,1,N,0021,1","22000,1,9,N","040000,1,N,1","+0182,1","+0129,1","10154,1","12,0000,9,1","24,0000,9,1",,,,"01,99,1,01,1,05,1,01250,1,00,1,00,1","0468,9","01,9","999,+0150,9","999,N,+0176,1","99999,9,10113,1","3,1,002,1,+999,9",,"SYN106AAXX  18064 08286 12682 12904 10182 20129 30113 40154 53002 60002 81500 333 20176 30015 50394 55078 70000;","Q01  00002PRCP24Q02  00002PRCP12"
"08286099999","2010-06-18T09:00:00","4","39.95","-0.0666666","43.5","CASTELLON ALMAZORA, SP","FM-12","99999","V020","200,1,N,0015,1","22000,1,9,N","040000,1,N,1","+0252,1","+0110,1","10156,1",,,,,,"01,99,1,01,1,02,1,01250,1,00,1,00,1",,,,,"99999,9,10116,1","1,1,003,1,+999,9",,"SYN066AAXX  18094 08286 42682 12003 10252 20110 30116 40156 51003 81200;",
"08286099999","2010-06-18T12:00:00","4","39.95","-0.0666666","43.5","CASTELLON ALMAZORA, SP","FM-12","99999","V020","150,1,N,0036,1","22000,1,9,N","030000,1,N,1","+0260,1","+0114,1","10144,1","06,0000,9,1",,,,"01,1,+01380,1,09,1","01,99,1,01,1,03,1,01250,1,00,1,00,1",,,,,"99999,9,10104,1","8,1,012,1,+999,9",,"SYN082AAXX  18124 08286 12680 11507 10260 20114 30104 40144 58012 60001 81300 333 81946;","Q01  00002PRCP06"
"08286099999","2010-06-21T06:00:00","4","39.95","-0.0666666","43.5","CASTELLON ALMAZORA, SP","FM-12","99999","V020","290,1,N,0036,1","22000,1,9,N","040000,1,N,1","+0154,1","+0019,1","10157,1","12,0000,9,1","24,0000,9,1",,,"00,1,+99999,9,99,9","00,99,1,00,1,00,1,99999,9,00,1,00,1","0810,9","01,9","999,+0140,9","999,N,+0148,1","99999,9,10115,1","3,1,006,1,+999,9",,"SYN100AAXX  21064 08286 12982 02907 10154 20019 30115 40157 53006 60002 333 20148 30014 50674 55135 70000;","Q01  00002PRCP24Q02  00002PRCP12"
"08286099999","2010-06-21T09:00:00","4","39.95","-0.0666666","43.5","CASTELLON ALMAZORA, SP","FM-12","99999","V020","290,1,N,0031,1","22000,1,9,N","040000,1,N,1","+0218,1","+0048,1","10162,1",,,,,"00,1,+99999,9,99,9","00,99,1,00,1,00,1,99999,9,00,1,00,1",,,,,"99999,9,10121,1","1,1,006,1,+999,9",,"SYN060AAXX  21094 08286 42982 02906 10218 20048 30121 40162 51006;",
"08286099999","2010-06-21T12:00:00","4","39.95","-0.0666666","43.5","CASTELLON ALMAZORA, SP","FM-12","99999","V020","150,1,N,0036,1","22000,1,9,N","040000,1,N,1","+0242,1","+0069,1","10155,1","06,0000,9,1",,,,"00,1,+99999,9,99,9","00,99,1,00,1,00,1,99999,9,00,1,00,1",,,,,"99999,9,10114,1","8,1,007,1,+999,9",,"SYN066AAXX  21124 08286 12982 01507 10242 20069 30114 40155 58007 60001;","Q01  00002PRCP06"
"08286099999","2010-06-22T06:00:00","4","39.95","-0.0666666","43.5","CASTELLON ALMAZORA, SP","FM-12","99999","V020","290,1,N,0021,1","22000,1,9,N","040000,1,N,1","+0166,1","+0111,1","10173,1","12,0000,9,1","24,0000,9,1",,,"00,1,+99999,9,99,9","00,99,1,00,1,00,1,99999,9,00,1,00,1","0810,9","01,9","999,+0130,9","999,N,+0158,1","99999,9,10131,1","3,1,010,1,+999,9",,"SYN100AAXX  22064 08286 12982 02904 10166 20111 30131 40173 53010 60002 333 20158 30013 50474 55135 70000;","Q01  00002PRCP24Q02  00002PRCP12"
"08286099999","2010-06-22T09:00:00","4","39.95","-0.0666666","43.5","CASTELLON ALMAZORA, SP","FM-12","99999","V020","090,1,N,0021,1","22000,1,9,N","035000,1,N,1","+0232,1","+0131,1","10181,1",,,,,,"01,99,1,01,1,01,1,01250,1,00,1,00,1",,,,,"99999,9,10140,1","1,1,009,1,+999,9",,"SYN066AAXX  22094 08286 42681 10904 10232 20131 30140 40181 51009 81100;",
"08286099999","2010-06-22T12:00:00","4","39.95","-0.0666666","43.5","CASTELLON ALMAZORA, SP","FM-12","99999","V020","110,1,N,0026,1","22000,1,9,N","030000,1,N,1","+0244,1","+0145,1","10183,1","06,0000,9,1",,,,,"02,99,1,02,1,02,1,01250,1,00,1,00,1",,,,,"99999,9,10142,1","1,1,002,1,+999,9",,"SYN072AAXX  22124 08286 12680 21105 10244 20145 30142 40183 51002 60001 82200;","Q01  00002PRCP06"
"08286099999","2010-06-23T06:00:00","4","39.95","-0.0666666","43.5","CASTELLON ALMAZORA, SP","FM-12","99999","V020","310,1,N,0015,1","22000,1,9,N","007000,1,N,1","+0182,1","+0151,1","10182,1","12,0000,9,1","24,0000,9,1","0,1,06,1","0,1,06,1",,"01,99,1,01,1,05,1,00800,1,00,1,05,1","0798,9","01,9","999,+0160,9","999,N,+0172,1","99999,9,10141,1","3,1,002,1,+999,9","10,1","SYN112AAXX  23064 08286 11557 13103 10182 20151 30141 40182 53002 60002 71000 81505 333 20172 30016 50304 55133 70000;","Q01  00002PRCP24Q02  00002PRCP12"
"08286099999","2010-06-23T12:00:00","4","39.95","-0.0666666","43.5","CASTELLON ALMAZORA, SP","FM-12","99999","V020","150,1,N,0026,1","22000,1,9,N","018000,1,N,1","+0260,1","+0151,1","10176,1","06,0000,9,1",,,,,"04,99,1,02,1,01,1,01250,1,00,1,05,1",,,,,"99999,9,10136,1","8,1,005,1,+999,9",,"SYN072AAXX  23124 08286 12668 41505 10260 20151 30136 40176 58005 60001 82105;","Q01  00002PRCP06"
"08286099999","2010-06-24T06:00:00","4","39.95","-0.0666666","43.5","CASTELLON ALMAZORA, SP","FM-12","99999","V020","300,1,N,0015,1","22000,1,9,N","025000,1,N,1","+0182,1","+0147,1","10170,1","12,0000,9,1","24,0000,9,1",,,,"02,99,1,01,1,05,1,00800,1,00,1,04,1","0792,9","01,9","999,+0150,9","999,N,+0174,1","99999,9,10129,1","3,1,004,1,+999,9",,"SYN106AAXX  24064 08286 12575 23003 10182 20147 30129 40170 53004 60002 81504 333 20174 30015 50294 55132 70000;","Q01  00002PRCP24Q02  00002PRCP12"
"08286099999","2010-06-24T09:00:00","4","39.95","-0.0666666","43.5","CASTELLON ALMAZORA, SP","FM-12","99999","V020","140,1,N,0015,1","22000,1,9,N","025000,1,N,1","+0258,1","+0140,1","10170,1",,,,,,"05,99,1,01,1,01,1,00800,1,00,1,04,1",,,,,"99999,9,10130,1","1,1,001,1,+999,9",,"SYN066AAXX  24094 08286 42575 51403 10258 20140 30130 40170 51001 81104;",
"08286099999","2010-06-24T12:00:00","4","39.95","-0.0666666","43.5","CASTELLON ALMAZORA, SP","FM-12","99999","V020","130,1,N,0026,1","09000,1,9,N","020000,1,N,1","+0270,1","+0151,1","10164,1","06,0000,9,1",,,,,"05,99,1,01,1,02,1,00800,1,04,1,02,1",,,,,"99999,9,10124,1","8,1,006,1,+999,9",,"SYN072AAXX  24124 08286 12570 51305 10270 20151 30124 40164 58006 60001 81242;","Q01  00002PRCP06"
"08286099999","2010-06-25T06:00:00","4","39.95","-0.0666666","43.5","CASTELLON ALMAZORA, SP","FM-12","99999","V020","300,1,N,0015,1","22000,1,9,N","025000,1,N,1","+0188,1","+0145,1","10147,1","12,0000,9,1","24,0000,9,1",,,,"01,99,1,00,1,00,1,99999,9,00,1,05,1","0786,9","01,9","999,+0160,9","999,N,+0180,1","99999,9,10106,1","4,1,000,1,+999,9",,"SYN106AAXX  25064 08286 12975 13003 10188 20145 30106 40147 54000 60002 80005 333 20180 30016 50354 55131 70000;","Q01  00002PRCP24Q02  00002PRCP12"
"08286099999","2010-06-25T09:00:00","4","39.95","-0.0666666","43.5","CASTELLON ALMAZORA, SP","FM-12","99999","V020","120,1,N,0021,1","22000,1,9,N","020000,1,N,1","+0260,1","+0145,1","10141,1",,,,,,"01,99,1,00,1,00,1,99999,9,00,1,05,1",,,,,"99999,9,10101,1","8,1,005,1,+999,9",,"SYN066AAXX  25094 08286 42970 11204 10260 20145 30101 40141 58005 80005;",
"08286099999","2010-06-25T12:00:00","4","39.95","-0.0666666","43.5","CASTELLON ALMAZORA, SP","FM-12","99999","V020","150,1,N,0026,1","22000,1,9,N","025000,1,N,1","+0282,1","+0151,1","10140,1","06,0000,9,1",,,,,"03,99,1,01,1,02,1,01250,1,00,1,05,1",,,,,"99999,9,10100,1","6,1,001,1,+999,9",,"SYN072AAXX  25124 08286 12675 31505 10282 20151 30100 40140 56001 60001 81205;","Q01  00002PRCP06"
"08286099999","2010-06-28T06:00:00","4","39.95","-0.0666666","43.5","CASTELLON ALMAZORA, SP","FM-12","99999","V020","300,1,N,0021,1","99999,9,9,N","030000,1,N,1","+0210,1","+0108,1","10174,1","12,0000,9,1","24,0000,9,1",,,,"06,99,1,03,1,00,1,99999,9,08,1,08,1","0810,9","01,9","999,+0170,9","999,N,+0202,1","99999,9,10133,1","5,1,000,1,+999,9",,"SYN106AAXX  28064 08286 12980 63004 10210 20108 30133 40174 55000 60002 83088 333 20202 30017 50484 55135 70000;","Q01  00002PRCP24Q02  00002PRCP12"
"08286099999","2010-06-28T09:00:00","4","39.95","-0.0666666","43.5","CASTELLON ALMAZORA, SP","FM-12","99999","V020","180,1,N,0015,1","99999,9,9,N","030000,1,N,1","+0270,1","+0119,1","10181,1",,,,,,"07,99,1,05,1,00,1,99999,9,07,1,08,1",,,,,"99999,9,10141,1","2,1,008,1,+999,9",,"SYN066AAXX  28094 08286 42980 71803 10270 20119 30141 40181 52008 85078;",
"08286099999","2010-06-28T12:00:00","4","39.95","-0.0666666","43.5","CASTELLON ALMAZORA, SP","FM-12","99999","V020","180,1,N,0026,1","03600,1,9,N","025000,1,N,1","+0298,1","+0127,1","10187,1","06,0000,9,1",,,,"01,1,+00990,1,09,1","06,99,1,01,1,09,1,01250,1,07,1,08,1",,,,,"99999,9,10147,1","1,1,006,1,+999,9",,"SYN082AAXX  28124 08286 12675 61805 10298 20127 30147 40187 51006 60001 81978 333 81933;","Q01  00002PRCP06"
"08286099999","2010-06-30T06:00:00","4","39.95","-0.0666666","43.5","CASTELLON ALMAZORA, SP","FM-12","99999","V020","070,1,N,0021,1","22000,1,9,N","030000,1,N,1","+0234,1","+0144,1","10181,1","12,0000,9,1","24,0000,9,1",,,,"03,99,1,03,1,00,1,99999,9,03,1,00,1",,"01,9","999,+0200,9","999,N,+0226,1","99999,9,10140,1","3,1,002,1,+999,9",,"SYN106AAXX  30064 08286 12980 30704 10234 20144 30140 40181 53002 60002 83030 333 20226 30020 50524 55/// 70000;","Q01  00002PRCP24Q02  00002PRCP12"
"08286099999","2010-06-30T09:00:00","4","39.95","-0.0666666","43.5","CASTELLON ALMAZORA, SP","FM-12","99999","V020","070,1,N,0015,1","22000,1,9,N","030000,1,N,1","+0282,1","+0158,1","10186,1",,,,,,"01,99,1,01,1,05,1,01250,1,00,1,00,1",,,,,"99999,9,10146,1","1,1,006,1,+999,9",,"SYN066AAXX  30094 08286 42680 10703 10282 20158 30146 40186 51006 81500;",
"08286099999","2010-06-30T12:00:00","4","39.95","-0.0666666","43.5","CASTELLON ALMAZORA, SP","FM-12","99999","V020","100,1,N,0021,1","22000,1,9,N","030000,1,N,1","+0296,1","+0157,1","10184,1","06,0000,9,1",,,,,"01,99,1,01,1,02,1,01250,1,00,1,00,1",,,,,"99999,9,10144,1","8,1,002,1,+999,9",,"SYN072AAXX  30124 08286 12680 11004 10296 20157 30144 40184 58002 60001 81200;","Q01  00002PRCP06"
"08286099999","2010-07-01T06:00:00","4","39.95","-0.0666666","43.5","CASTELLON ALMAZORA, SP","FM-12","99999","V020","310,1,N,0010,1","22000,1,9,N","030000,1,N,1","+0216,1","+0132,1","10160,1","12,0000,9,1","24,0000,9,1",,,,"01,99,1,01,1,05,1,01250,1,00,1,00,1","0732,9","01,9","999,+0180,9","999,N,+0208,1","99999,9,10119,1","4,1,000,1,+999,9",,"SYN106AAXX  01064 08286 12680 13102 10216 20132 30119 40160 54000 60002 81500 333 20208 30018 50594 55122 70000;","Q01  00002PRCP24Q02  00002PRCP12"
"08286099999","2010-07-01T09:00:00","4","39.95","-0.0666666","43.5","CASTELLON ALMAZORA, SP","FM-12","99999","V020","130,1,N,0021,1","22000,1,9,N","030000,1,N,1","+0294,1","+0179,1","10158,1",,,,,,"01,99,1,01,1,02,1,01250,1,00,1,00,1",,,,,"99999,9,10118,1","6,1,001,1,+999,9",,"SYN066AAXX  01094 08286 42680 11304 10294 20179 30118 40158 56001 81200;",
"08286099999","2010-07-01T12:00:00","4","39.95","-0.0666666","43.5","CASTELLON ALMAZORA, SP","FM-12","99999","V020","130,1,N,0026,1","22000,1,9,N","025000,1,N,1","+0300,1","+0171,1","10153,1","06,0000,9,1",,,,"01,1,+01200,1,09,1","01,99,1,01,1,03,1,01250,1,00,1,00,1",,,,,"99999,9,10113,1","8,1,005,1,+999,9",,"SYN082AAXX  01124 08286 12675 11305 10300 20171 30113 40153 58005 60001 81300 333 81940;","Q01  00002PRCP06"
"08286099999","2010-07-02T06:00:00","4","39.95","-0.0666666","43.5","CASTELLON ALMAZORA, SP","FM-12","99999","V020","310,1,N,0010,1","22000,1,9,N","025000,1,N,1","+0218,1","+0129,1","10144,1","12,0000,9,1","24,0000,9,1",,,,"02,99,1,01,1,05,1,01250,1,08,1,01,1","0588,9","01,9","999,+0190,9","999,N,+0210,1","99999,9,10103,1","6,1,001,1,+999,9",,"SYN106AAXX  02064 08286 12675 23102 10218 20129 30103 40144 56001 60002 81581 333 20210 30019 50474 55098 70000;","Q01  00002PRCP24Q02  00002PRCP12"
"08286099999","2010-07-02T09:00:00","4","39.95","-0.0666666","43.5","CASTELLON ALMAZORA, SP","FM-12","99999","V020","070,1,N,0026,1","09000,1,9,N","015000,1,N,1","+0276,1","+0183,1","10148,1",,,,,,"06,99,1,01,1,02,1,01250,1,04,1,04,1",,,,,"99999,9,10108,1","1,1,005,1,+999,9",,"SYN066AAXX  02094 08286 42665 60705 10276 20183 30108 40148 51005 81244;",
"08286099999","2010-07-02T12:00:00","4","39.95","-0.0666666","43.5","CASTELLON ALMAZORA, SP","FM-12","99999","V020","130,1,N,0031,1","03600,1,9,N","015000,1,N,1","+0296,1","+0196,1","10146,1","06,0000,9,1",,,,,"06,99,1,01,1,02,1,01250,1,04,1,02,1",,,,,"99999,9,10106,1","8,1,002,1,+999,9",,"SYN072AAXX  02124 08286 12665 61306 10296 20196 30106 40146 58002 60001 81242;","Q01  00002PRCP06"
"08286099999","2010-07-05T06:00:00","4","39.95","-0.0666666","43.5","CASTELLON ALMAZORA, SP","FM-12","99999","V020","310,1,N,0015,1","22000,1,9,N","030000,1,N,1","+0224,1","+0162,1","10189,1","12,0000,9,1","24,0000,9,1",,,"00,1,+99999,9,99,9","00,99,1,00,1,00,1,99999,9,00,1,00,1",,"01,9","999,+0190,9","999,N,+0214,1","99999,9,10148,1","6,1,003,1,+999,9",,"SYN100AAXX  05064 08286 12980 03103 10224 20162 30148 40189 56003 60002 333 20214 30019 50414 55/// 70000;","Q01  00002PRCP24Q02  00002PRCP12"
"08286099999","2010-07-05T09:00:00","4","39.95","-0.0666666","43.5","CASTELLON ALMAZORA, SP","FM-12","99999","V020","130,1,N,0015,1","22000,1,9,N","025000,1,N,1","+0304,1","+0175,1","10192,1",,,,,"00,1,+99999,9,99,9","00,99,1,00,1,00,1,99999,9,00,1,00,1",,,,,"99999,9,10152,1","1,1,004,1,+999,9",,"SYN060AAXX  05094 08286 42975 01303 10304 20175 30152 40192 51004;",
"08286099999","2010-07-05T12:00:00","4","39.95","-0.0666666","43.5","CASTELLON ALMAZORA, SP","FM-12","99999","V020","150,1,N,0026,1","22000,1,9,N","025000,1,N,1","+0310,1","+0187,1","10191,1","06,0000,9,1",,,,,"01,99,1,01,1,01,1,01250,1,00,1,00,1",,,,,"99999,9,10151,1","8,1,001,1,+999,9",,"SYN072AAXX  05124 08286 12675 11505 10310 20187 30151 40191 58001 60001 81100;","Q01  00002PRCP06"
"08286099999","2010-07-06T06:00:00","4","39.95","-0.0666666","43.5","CASTELLON ALMAZORA, SP","FM-12","99999","V020","290,1,N,0021,1","22000,1,9,N","030000,1,N,1","+0226,1","+0137,1","10193,1","12,0000,9,1","24,0000,9,1",,,"00,1,+99999,9,99,9","00,99,1,00,1,00,1,99999,9,00,1,00,1","0804,9","01,9","999,+0190,9","999,N,+0216,1","99999,9,10152,1","3,1,002,1,+999,9",,"SYN100AAXX  06064 08286 12980 02904 10226 20137 30152 40193 53002 60002 333 20216 30019 50474 55134 70000;","Q01  00002PRCP24Q02  00002PRCP12"
"08286099999","2010-07-06T09:00:00","4","39.95","-0.0666666","43.5","CASTELLON ALMAZORA, SP","FM-12","99999","V020","120,1,N,0026,1","22000,1,9,N","025000,1,N,1","+0296,1","+0171,1","10193,1",,,,,"00,1,+99999,9,99,9","00,99,1,00,1,00,1,99999,9,00,1,00,1",,,,,"99999,9,10153,1","1,1,001,1,+999,9",,"SYN060AAXX  06094 08286 42975 01205 10296 20171 30153 40193 51001;",
"08286099999","2010-07-06T12:00:00","4","39.95","-0.0666666","43.5","CASTELLON ALMAZORA, SP","FM-12","99999","V020","110,1,N,0031,1","22000,1,9,N","018000,1,N,1","+0292,1","+0198,1","10193,1","06,0000,9,1",,,,"00,1,+99999,9,99,9","00,99,1,00,1,00,1,99999,9,00,1,00,1",,,,,"99999,9,10153,1","0,1,000,1,+999,9",,"SYN066AAXX  06124 08286 12968 01106 10292 20198 30153 40193 50000 60001;","Q01  00002PRCP06"
"08286099999","2010-07-07T06:00:00","4","39.95","-0.0666666","43.5","CASTELLON ALMAZORA, SP","FM-12","99999","V020","999,9,C,0000,1","22000,1,9,N","015000,1,N,1","+0232,1","+0181,1","10184,1","12,0000,9,1","24,0000,9,1",,,"00,1,+99999,9,99,9","00,99,1,00,1,00,1,99999,9,00,1,00,1","0804,9","01,9","999,+0200,9","999,N,+0222,1","99999,9,10143,1","6,1,001,1,+999,9",,"SYN100AAXX  07064 08286 12965 00000 10232 20181 30143 40184 56001 60002 333 20222 30020 50424 55134 70000;","Q01  00002PRCP24Q02  00002PRCP12"
"08286099999","2010-07-07T09:00:00","4","39.95","-0.0666666","43.5","CASTELLON ALMAZORA, SP","FM-12","99999","V020","120,1,N,0031,1","22000,1,9,N","015000,1,N,1","+0288,1","+0208,1","10185,1",,,,,"00,1,+99999,9,99,9","00,99,1,00,1,00,1,99999,9,00,1,00,1",,,,,"99999,9,10145,1","1,1,002,1,+999,9",,"SYN060AAXX  07094 08286 42965 01206 10288 20208 30145 40185 51002;",
"08286099999","2010-07-07T12:00:00","4","39.95","-0.0666666","43.5","CASTELLON ALMAZORA, SP","FM-12","99999","V020","150,1,N,0021,1","22000,1,9,N","020000,1,N,1","+0308,1","+0207,1","10180,1","06,0000,9,1",,,,,"01,99,1,01,1,02,1,01250,1,00,1,00,1",,,,,"99999,9,10140,1","8,1,005,1,+999,9",,"SYN072AAXX  07124 08286 12670 11504 10308 20207 30140 40180 58005 60001 81200;","Q01  00002PRCP06"
"08286099999","2010-07-08T06:00:00","4","39.95","-0.0666666","43.5","CASTELLON ALMAZORA, SP","FM-12","99999","V020","999,9,C,0000,1","22000,1,9,N","025000,1,N,1","+0226,1","+0169,1","10180,1","12,0000,9,1","24,0000,9,1",,,,"02,99,1,00,1,00,1,99999,9,00,1,01,1","0798,9","01,9","999,+0190,9","999,N,+0220,1","99999,9,10139,1","4,1,000,1,+999,9",,"SYN106AAXX  08064 08286 12975 20000 10226 20169 30139 40180 54000 60002 80001 333 20220 30019 50404 55133 70000;","Q01  00002PRCP24Q02  00002PRCP12"
"08286099999","2010-07-08T09:00:00","4","39.95","-0.0666666","43.5","CASTELLON ALMAZORA, SP","FM-12","99999","V020","110,1,N,0015,1","22000,1,9,N","020000,1,N,1","+0286,1","+0203,1","10183,1",,,,,"00,1,+99999,9,99,9","00,99,1,00,1,00,1,99999,9,00,1,00,1",,,,,"99999,9,10143,1","1,1,004,1,+999,9",,"SYN060AAXX  08094 08286 42970 01103 10286 20203 30143 40183 51004;",
"08286099999","2010-07-08T12:00:00","4","39.95","-0.0666666","43.5","CASTELLON ALMAZORA, SP","FM-12","99999","V020","130,1,N,0026,1","22000,1,9,N","020000,1,N,1","+0298,1","+0195,1","10187,1","06,0000,9,1",,,,"00,1,+99999,9,99,9","00,99,1,00,1,00,1,99999,9,00,1,00,1",,,,,"99999,9,10147,1","1,1,004,1,+999,9",,"SYN066AAXX  08124 08286 12970 01305 10298 20195 30147 40187 51004 60001;","Q01  00002PRCP06"
"08286099999","2010-07-09T06:00:00","4","39.95","-0.0666666","43.5","CASTELLON ALMAZORA, SP","FM-12","99999","V020","320,1,N,0010,1","22000,1,9,N","025000,1,N,1","+0232,1","+0139,1","10173,1","12,0000,9,1","24,0000,9,1",,,,"02,99,1,00,1,00,1,99999,9,00,1,05,1","0714,9","01,9","999,+0200,9","999,N,+0228,1","99999,9,10132,1","6,1,003,1,+999,9",,"SYN106AAXX  09064 08286 12975 23202 10232 20139 30132 40173 56003 60002 80005 333 20228 30020 50484 55119 70000;","Q01  00002PRCP24Q02  00002PRCP12"
"08286099999","2010-07-09T09:00:00","4","39.95","-0.0666666","43.5","CASTELLON ALMAZORA, SP","FM-12","99999","V020","130,1,N,0015,1","99999,9,9,N","020000,1,N,1","+0296,1","+0193,1","10178,1",,,,,,"05,99,1,00,1,00,1,99999,9,00,1,05,1",,,,,"99999,9,10138,1","1,1,006,1,+999,9",,"SYN066AAXX  09094 08286 42970 51303 10296 20193 30138 40178 51006 80005;",
"08286099999","2010-07-09T12:00:00","4","39.95","-0.0666666","43.5","CASTELLON ALMAZORA, SP","FM-12","99999","V020","140,1,N,0026,1","22000,1,9,N","020000,1,N,1","+0318,1","+0204,1","10180,1","06,0000,9,1",,,,,"01,99,1,01,1,02,1,01250,1,00,1,00,1",,,,,"99999,9,10141,1","0,1,003,1,+999,9",,"SYN072AAXX  09124 08286 12670 11405 10318 20204 30141 40180 50003 60001 81200;","Q01  00002PRCP06"
"08286099999","2010-07-12T06:00:00","4","39.95","-0.0666666","43.5","CASTELLON ALMAZORA, SP","FM-12","99999","V020","290,1,N,0031,1","22000,1,9,N","030000,1,N,1","+0222,1","+0158,1","10152,1","12,0000,9,1","24,0000,9,1",,,,"01,99,1,00,1,00,1,99999,9,00,1,05,1",,"01,9","999,+0200,9","999,N,+0222,1","99999,9,10111,1","6,1,003,1,+999,9",,"SYN106AAXX  12064 08286 12980 12906 10222 20158 30111 40152 56003 60002 80005 333 20222 30020 50394 55/// 70000;","Q01  00002PRCP24Q02  00002PRCP12"
"08286099999","2010-07-12T09:00:00","4","39.95","-0.0666666","43.5","CASTELLON ALMAZORA, SP","FM-12","99999","V020","170,1,N,0026,1","22000,1,9,N","025000,1,N,1","+0302,1","+0173,1","10147,1",,,,,,"02,99,1,00,1,00,1,99999,9,00,1,05,1",,,,,"99999,9,10107,1","6,1,004,1,+999,9",,"SYN066AAXX  12094 08286 42975 21705 10302 20173 30107 40147 56004 80005;",
"08286099999","2010-07-12T12:00:00","4","39.95","-0.0666666","43.5","CASTELLON ALMAZORA, SP","FM-12","99999","V020","160,1,N,0031,1","09000,1,9,N","025000,1,N,1","+0324,1","+0154,1","10142,1","06,0000,9,1",,,,,"06,99,1,01,1,02,1,01250,1,00,1,02,1",,,,,"99999,9,10103,1","8,1,004,1,+999,9",,"SYN072AAXX  12124 08286 12675 61606 10324 20154 30103 40142 58004 60001 81202;","Q01  00002PRCP06"
"08286099999","2010-07-13T06:00:00","4","39.95","-0.0666666","43.5","CASTELLON ALMAZORA, SP","FM-12","99999","V020","300,1,N,0015,1","22000,1,9,N","012000,1,N,1","+0226,1","+0162,1","10122,1","12,0000,9,1","24,0000,9,1",,,,"04,99,1,04,1,05,1,00800,1,00,1,00,1","0720,9","01,9","999,+0200,9","999,N,+0220,1","99999,9,10081,1","3,1,005,1,+999,9",,"SYN106AAXX  13064 08286 12562 43003 10226 20162 30081 40122 53005 60002 84500 333 20220 30020 50504 55120 70000;","Q01  00002PRCP24Q02  00002PRCP12"
"08286099999","2010-07-13T09:00:00","4","39.95","-0.0666666","43.5","CASTELLON ALMAZORA, SP","FM-12","99999","V020","110,1,N,0021,1","22000,1,9,N","015000,1,N,1","+0296,1","+0202,1","10123,1",,,,,,"04,99,1,04,1,05,1,00800,1,00,1,00,1",,,,,"99999,9,10083,1","1,1,002,1,+999,9",,"SYN066AAXX  13094 08286 42565 41104 10296 20202 30083 40123 51002 84500;",
"08286099999","2010-07-13T12:00:00","4","39.95","-0.0666666","43.5","CASTELLON ALMAZORA, SP","FM-12","99999","V020","120,1,N,0031,1","22000,1,9,N","015000,1,N,1","+0304,1","+0197,1","10119,1","06,0000,9,1",,,,,"01,99,1,01,1,05,1,00800,1,00,1,05,1",,,,,"99999,9,10080,1","8,1,003,1,+999,9",,"SYN072AAXX  13124 08286 12565 11206 10304 20197 30080 40119 58003 60001 81505;","Q01  00002PRCP06"
"08286099999","2010-07-14T06:00:00","4","39.95","-0.0666666","43.5","CASTELLON ALMAZORA, SP","FM-12","99999","V020","120,1,N,0010,1","00750,1,9,N","007000,1,N,1","+0254,1","+0211,1","10089,1","12,0000,9,1","24,0000,9,1","2,1,06,1","2,1,06,1",,"06,99,1,06,1,05,1,00800,1,00,1,00,1","0756,9","01,9","999,+0230,9","999,N,+0246,1","99999,9,10049,1","6,1,002,1,+999,9","05,1","SYN112AAXX  14064 08286 11557 61202 10254 20211 30049 40089 56002 60002 70522 86500 333 20246 30023 50414 55126 70000;","Q01  00002PRCP24Q02  00002PRCP12"
"08286099999","2010-07-14T09:00:00","4","39.95","-0.0666666","43.5","CASTELLON ALMAZORA, SP","FM-12","99999","V020","170,1,N,0015,1","00750,1,9,N","006000,1,N,1","+0292,1","+0204,1","10090,1",,,"2,1,03,1","2,1,03,1",,"07,99,1,07,1,05,1,00800,1,00,1,00,1",,,,,"99999,9,10051,1","1,1,002,1,+999,9","05,1","SYN072AAXX  14094 08286 41556 71703 10292 20204 30051 40090 51002 70522 87500;",
"08286099999","2010-07-14T12:00:00","4","39.95","-0.0666666","43.5","CASTELLON ALMAZORA, SP","FM-12","99999","V020","140,1,N,0026,1","22000,1,9,N","007000,1,N,1","+0308,1","+0198,1","10086,1","06,0000,9,1",,"1,1,06,1","1,1,06,1","00,1,+99999,9,99,9","00,99,1,00,1,00,1,99999,9,00,1,00,1",,,,,"99999,9,10047,1","8,1,004,1,+999,9","05,1","SYN072AAXX  14124 08286 11957 01405 10308 20198 30047 40086 58004 60001 70511;","Q01  00002PRCP06"
"08286099999","2010-07-15T06:00:00","4","39.95","-0.0666666","43.5","CASTELLON ALMAZORA, SP","FM-12","99999","V020","310,1,N,0015,1","00750,1,9,N","005000,1,N,1","+0240,1","+0207,1","10129,1","12,0000,9,1","24,0000,9,1","1,1,06,1","1,1,06,1",,"05,99,1,05,1,05,1,00800,1,00,1,00,1","0648,9","01,9","999,+0210,9","999,N,+0234,1","99999,9,10089,1","2,1,018,1,+999,9","10,1","SYN112AAXX  15064 08286 11550 53103 10240 20207 30089 40129 52018 60002 71011 85500 333 20234 30021 50314 55108 70000;","Q01  00002PRCP24Q02  00002PRCP12"
"08286099999","2010-07-15T09:00:00","4","39.95","-0.0666666","43.5","CASTELLON ALMAZORA, SP","FM-12","99999","V020","100,1,N,0026,1","22000,1,9,N","020000,1,N,1","+0300,1","+0178,1","10142,1",,,,,,"04,99,1,04,1,05,1,00800,1,00,1,00,1",,,,,"99999,9,10102,1","2,1,013,1,+999,9",,"SYN066AAXX  15094 08286 42570 41005 10300 20178 30102 40142 52013 84500;",
"08286099999","2010-07-15T12:00:00","4","39.95","-0.0666666","43.5","CASTELLON ALMAZORA, SP","FM-12","99999","V020","120,1,N,0036,1","22000,1,9,N","020000,1,N,1","+0312,1","+0160,1","10142,1","06,0000,9,1",,,,,"01,99,1,01,1,01,1,01250,1,00,1,00,1",,,,,"99999,9,10103,1","1,1,001,1,+999,9",,"SYN072AAXX  15124 08286 12670 11207 10312 20160 30103 40142 51001 60001 81100;","Q01  00002PRCP06"
"08286099999","2010-07-16T06:00:00","4","39.95","-0.0666666","43.5","CASTELLON ALMAZORA, SP","FM-12","99999","V020","300,1,N,0015,1","00750,1,9,N","004000,1,N,1","+0242,1","+0209,1","10141,1","12,0000,9,1","24,0000,9,1","2,1,06,1","2,1,06,1",,"07,99,1,07,1,05,1,00800,1,00,1,00,1","0660,9","01,9","999,+0220,9","999,N,+0238,1","99999,9,10101,1","3,1,004,1,+999,9","10,1","SYN112AAXX  16064 08286 11540 73003 10242 20209 30101 40141 53004 60002 71022 87500 333 20238 30022 50354 55110 70000;","Q01  00002PRCP24Q02  00002PRCP12"
"08286099999","2010-07-16T09:00:00","4","39.95","-0.0666666","43.5","CASTELLON ALMAZORA, SP","FM-12","99999","V020","140,1,N,0015,1","00750,1,9,N","009000,1,N,1","+0292,1","+0206,1","10148,1",,,"2,1,03,1","2,1,03,1",,"06,99,1,06,1,05,1,00800,1,00,1,00,1",,,,,"99999,9,10108,1","1,1,007,1,+999,9","05,1","SYN072AAXX  16094 08286 41559 61403 10292 20206 30108 40148 51007 70522 86500;",
"08286099999","2010-07-16T12:00:00","4","39.95","-0.0666666","43.5","CASTELLON ALMAZORA, SP","FM-12","99999","V020","160,1,N,0026,1","22000,1,9,N","015000,1,N,1","+0312,1","+0195,1","10145,1","06,0000,9,1",,,,,"01,99,1,01,1,02,1,01250,1,00,1,00,1",,,,,"99999,9,10106,1","8,1,002,1,+999,9",,"SYN072AAXX  16124 08286 12665 11605 10312 20195 30106 40145 58002 60001 81200;","Q01  00002PRCP06"
"08286099999","2010-07-19T06:00:00","4","39.95","-0.0666666","43.5","CASTELLON ALMAZORA, SP","FM-12","99999","V020","310,1,N,0010,1","00750,1,9,N","012000,1,N,1","+0242,1","+0211,1","10172,1","12,0000,9,1","24,0000,9,1",,,,"06,99,1,06,1,05,1,00800,1,00,1,00,1",,"01,9","999,+0220,9","999,N,+0240,1","99999,9,10132,1","4,1,000,1,+999,9",,"SYN106AAXX  19064 08286 12562 63102 10242 20211 30132 40172 54000 60002 86500 333 20240 30022 50294 55/// 70000;","Q01  00002PRCP24Q02  00002PRCP12"
"08286099999","2010-07-19T09:00:00","4","39.95","-0.0666666","43.5","CASTELLON ALMAZORA, SP","FM-12","99999","V020","130,1,N,0026,1","01200,1,9,N","012000,1,N,1","+0288,1","+0208,1","10174,1",,,,,,"06,99,1,06,1,08,1,00800,1,00,1,00,1",,,,,"99999,9,10134,1","1,1,002,1,+999,9",,"SYN066AAXX  19094 08286 42562 61305 10288 20208 30134 40174 51002 86800;",
"08286099999","2010-07-19T12:00:00","4","39.95","-0.0666666","43.5","CASTELLON ALMAZORA, SP","FM-12","99999","V020","160,1,N,0031,1","00750,1,9,N","012000,1,N,1","+0314,1","+0210,1","10168,1","06,0000,9,1",,,,,"06,99,1,06,1,02,1,00800,1,00,1,00,1",,,,,"99999,9,10129,1","8,1,005,1,+999,9",,"SYN072AAXX  19124 08286 12562 61606 10314 20210 30129 40168 58005 60001 86200;","Q01  00002PRCP06"
"08286099999","2010-07-20T06:00:00","4","39.95","-0.0666666","43.5","CASTELLON ALMAZORA, SP","FM-12","99999","V020","290,1,N,0015,1","22000,1,9,N","015000,1,N,1","+0232,1","+0196,1","10141,1","12,0000,9,1","24,0000,9,1",,,,"04,99,1,04,1,05,1,00800,1,00,1,00,1","0432,9","01,9","999,+0210,9","999,N,+0230,1","99999,9,10101,1","6,1,003,1,+999,9",,"SYN106AAXX  20064 08286 12565 42903 10232 20196 30101 40141 56003 60002 84500 333 20230 30021 50314 55072 70000;","Q01  00002PRCP24Q02  00002PRCP12"
"08286099999","2010-07-20T09:00:00","4","39.95","-0.0666666","43.5","CASTELLON ALMAZORA, SP","FM-12","99999","V020","200,1,N,0010,1","22000,1,9,N","018000,1,N,1","+0284,1","+0196,1","10140,1",,,,,,"04,99,1,04,1,05,1,00800,1,00,1,00,1",,,,,"99999,9,10100,1","6,1,001,1,+999,9",,"SYN066AAXX  20094 08286 42568 42002 10284 20196 30100 40140 56001 84500;",
"08286099999","2010-07-20T12:00:00","4","39.95","-0.0666666","43.5","CASTELLON ALMAZORA, SP","FM-12","99999","V020","130,1,N,0031,1","22000,1,9,N","020000,1,N,1","+0306,1","+0202,1","10127,1","06,0000,9,1",,,,,"01,99,1,01,1,02,1,01250,1,00,1,00,1",,,,,"99999,9,10088,1","8,1,012,1,+999,9",,"SYN072AAXX  20124 08286 12670 11306 10306 20202 30088 40127 58012 60001 81200;","Q01  00002PRCP06"
"08286099999","2010-07-21T06:00:00","4","39.95","-0.0666666","43.5","CASTELLON ALMAZORA, SP","FM-12","99999","V020","290,1,N,0021,1","22000,1,9,N","020000,1,N,1","+0222,1","+0169,1","10092,1","12,0000,9,1","24,0000,9,1",,,,"03,99,1,01,1,05,1,01250,1,05,1,00,1","0696,9","01,9","999,+0200,9","999,N,+0218,1","99999,9,10052,1","6,1,001,1,+999,9",,"SYN106AAXX  21064 08286 12670 32904 10222 20169 30052 40092 56001 60002 81550 333 20218 30020 50424 55116 70000;","Q01  00002PRCP24Q02  00002PRCP12"
"08286099999","2010-07-21T09:00:00","4","39.95","-0.0666666","43.5","CASTELLON ALMAZORA, SP","FM-12","99999","V020","050,1,N,0015,1","00750,1,9,N","015000,1,N,1","+0266,1","+0209,1","10094,1",,,,,,"07,99,1,07,1,07,1,00800,1,00,1,00,1",,,,,"99999,9,10054,1","3,1,002,1,+999,9",,"SYN066AAXX  21094 08286 42565 70503 10266 20209 30054 40094 53002 87700;",
"08286099999","2010-07-21T12:00:00","4","39.95","-0.0666666","43.5","CASTELLON ALMAZORA, SP","FM-12","99999","V020","130,1,N,0031,1","22000,1,9,N","018000,1,N,1","+0290,1","+0196,1","10088,1","06,0000,9,1",,,,,"04,99,1,04,1,02,1,00800,1,00,1,00,1",,,,,"99999,9,10049,1","8,1,005,1,+999,9",,"SYN072AAXX  21124 08286 12568 41306 10290 20196 30049 40088 58005 60001 84200;","Q01  00002PRCP06"
"08286099999","2010-07-22T06:00:00","4","39.95","-0.0666666","43.5","CASTELLON ALMAZORA, SP","FM-12","99999","V020","999,9,C,0000,1","01200,1,9,N","012000,1,N,1","+0248,1","+0198,1","10096,1","12,0000,9,1","24,0000,9,1",,,,"07,99,1,06,1,05,1,01250,1,00,1,02,1","0402,9","01,9","999,+0220,9","999,N,+0240,1","99999,9,10056,1","3,1,003,1,+999,9",,"SYN106AAXX  22064 08286 12662 70000 10248 20198 30056 40096 53003 60002 86502 333 20240 30022 50354 55067 70000;","Q01  00002PRCP24Q02  00002PRCP12"
"08286099999","2010-07-22T09:00:00","4","39.95","-0.0666666","43.5","CASTELLON ALMAZORA, SP","FM-12","99999","V020","120,1,N,0026,1","01200,1,9,N","012000,1,N,1","+0292,1","+0201,1","10111,1",,,,,,"06,99,1,06,1,02,1,01250,1,00,1,00,1",,,,,"99999,9,10071,1","2,1,015,1,+999,9",,"SYN066AAXX  22094 08286 42662 61205 10292 20201 30071 40111 52015 86200;",
"08286099999","2010-07-22T12:00:00","4","39.95","-0.0666666","43.5","CASTELLON ALMAZORA, SP","FM-12","99999","V020","100,1,N,0031,1","22000,1,9,N","015000,1,N,1","+0310,1","+0215,1","10112,1","06,0000,9,1",,,,"02,1,+01200,1,09,1","04,99,1,04,1,03,1,01250,1,00,1,00,1",,,,,"99999,9,10073,1","1,1,002,1,+999,9",,"SYN082AAXX  22124 08286 12665 41006 10310 20215 30073 40112 51002 60001 84300 333 82940;","Q01  00002PRCP06"
"08286099999","2010-07-23T06:00:00","4","39.95","-0.0666666","43.5","CASTELLON ALMAZORA, SP","FM-12","99999","V020","060,1,N,0015,1","01200,1,9,N","020000,1,N,1","+0254,1","+0188,1","10164,1","12,0000,9,1","24,0000,9,1",,,,"08,99,1,08,1,05,1,01250,1,99,9,99,9","0558,9","01,9","999,+0240,9","999,N,+0250,1","99999,9,10124,1","3,1,006,1,+999,9",,"SYN106AAXX  23064 08286 12670 80603 10254 20188 30124 40164 53006 60002 885// 333 20250 30024 50424 55093 70000;","Q01  00002PRCP24Q02  00002PRCP12"
"08286099999","2010-07-23T09:00:00","4","39.95","-0.0666666","43.5","CASTELLON ALMAZORA, SP","FM-12","99999","V020","080,1,N,0015,1","01500,1,9,N","020000,1,N,1","+0278,1","+0176,1","10180,1",,,,,,"08,99,1,08,1,08,1,01250,1,99,9,99,9",,,,,"99999,9,10140,1","2,1,016,1,+999,9",,"SYN066AAXX  23094 08286 42670 80803 10278 20176 30140 40180 52016 888//;",
"08286099999","2010-07-23T12:00:00","4","39.95","-0.0666666","43.5","CASTELLON ALMAZORA, SP","FM-12","99999","V020","110,1,N,0031,1","01500,1,9,N","025000,1,N,1","+0302,1","+0155,1","10189,1","06,0000,9,1",,,,,"07,99,1,07,1,08,1,01250,1,00,1,00,1",,,,,"99999,9,10149,1","1,1,009,1,+999,9",,"SYN072AAXX  23124 08286 12675 71106 10302 20155 30149 40189 51009 60001 87800;","Q01  00002PRCP06"
"08286099999","2010-07-26T06:00:00","4","39.95","-0.0666666","43.5","CASTELLON ALMAZORA, SP","FM-12","99999","V020","300,1,N,0026,1","22000,1,9,N","035000,1,N,1","+0222,1","+0100,1","10144,1","12,0000,9,1","24,0000,9,1",,,,"01,99,1,01,1,05,1,01250,1,00,1,00,1",,"01,9","999,+0200,9","999,N,+0222,1","99999,9,10103,1","3,1,006,1,+999,9",,"SYN106AAXX  26064 08286 12681 13005 10222 20100 30103 40144 53006 60002 81500 333 20222 30020 50514 55/// 70000;","Q01  00002PRCP24Q02  00002PRCP12"
"08286099999","2010-07-26T09:00:00","4","39.95","-0.0666666","43.5","CASTELLON ALMAZORA, SP","FM-12","99999","V020","290,1,N,0021,1","22000,1,9,N","035000,1,N,1","+0282,1","+0099,1","10146,1",,,,,"00,1,+99999,9,99,9","00,99,1,00,1,00,1,99999,9,00,1,00,1",,,,,"99999,9,10106,1","1,1,003,1,+999,9",,"SYN060AAXX  26094 08286 42981 02904 10282 20099 30106 40146 51003;",
"08286099999","2010-07-26T12:00:00","4","39.95","-0.0666666","43.5","CASTELLON ALMAZORA, SP","FM-12","99999","V020","160,1,N,0026,1","22000,1,9,N","035000,1,N,1","+0300,1","+0137,1","10145,1","06,0000,9,1",,,,,"01,99,1,01,1,01,1,01250,1,00,1,00,1",,,,,"99999,9,10105,1","8,1,001,1,+999,9",,"SYN072AAXX  26124 08286 12681 11605 10300 20137 30105 40145 58001 60001 81100;","Q01  00002PRCP06"
"08286099999","2010-07-27T06:00:00","4","39.95","-0.0666666","43.5","CASTELLON ALMAZORA, SP","FM-12","99999","V020","290,1,N,0026,1","22000,1,9,N","035000,1,N,1","+0212,1","+0146,1","10175,1","12,0000,9,1","24,0000,9,1",,,,"01,99,1,01,1,05,1,00800,1,00,1,00,1","0774,9","01,9","999,+0180,9","999,N,+0210,1","99999,9,10134,1","1,1,004,1,+999,9",,"SYN106AAXX  27064 08286 12581 12905 10212 20146 30134 40175 51004 60002 81500 333 20210 30018 50554 55129 70000;","Q01  00002PRCP24Q02  00002PRCP12"
"08286099999","2010-07-27T09:00:00","4","39.95","-0.0666666","43.5","CASTELLON ALMAZORA, SP","FM-12","99999","V020","220,1,N,0015,1","22000,1,9,N","035000,1,N,1","+0288,1","+0167,1","10178,1",,,,,,"01,99,1,01,1,05,1,00800,1,00,1,00,1",,,,,"99999,9,10138,1","1,1,004,1,+999,9",,"SYN066AAXX  27094 08286 42581 12203 10288 20167 30138 40178 51004 81500;",
"08286099999","2010-07-27T12:00:00","4","39.95","-0.0666666","43.5","CASTELLON ALMAZORA, SP","FM-12","99999","V020","160,1,N,0036,1","22000,1,9,N","035000,1,N,1","+0306,1","+0177,1","10178,1","06,0000,9,1",,,,,"01,99,1,01,1,01,1,01250,1,00,1,00,1",,,,,"99999,9,10138,1","0,1,000,1,+999,9",,"SYN072AAXX  27124 08286 12681 11607 10306 20177 30138 40178 50000 60001 81100;","Q01  00002PRCP06"
"08286099999","2010-07-28T06:00:00","4","39.95","-0.0666666","43.5","CASTELLON ALMAZORA, SP","FM-12","99999","V020","300,1,N,0010,1","22000,1,9,N","030000,1,N,1","+0226,1","+0173,1","10188,1","12,0000,9,1","24,0000,9,1",,,"00,1,+99999,9,99,9","00,99,1,00,1,00,1,99999,9,00,1,00,1","0774,9","01,9","999,+0200,9","999,N,+0220,1","99999,9,10147,1","1,1,002,1,+999,9",,"SYN100AAXX  28064 08286 12980 03002 10226 20173 30147 40188 51002 60002 333 20220 30020 50484 55129 70000;","Q01  00002PRCP24Q02  00002PRCP12"
"08286099999","2010-07-28T09:00:00","4","39.95","-0.0666666","43.5","CASTELLON ALMAZORA, SP","FM-12","99999","V020","040,1,N,0015,1","22000,1,9,N","030000,1,N,1","+0290,1","+0199,1","10189,1",,,,,"00,1,+99999,9,99,9","00,99,1,00,1,00,1,99999,9,00,1,00,1",,,,,"99999,9,10149,1","1,1,002,1,+999,9",,"SYN060AAXX  28094 08286 42980 00403 10290 20199 30149 40189 51002;",
"08286099999","2010-07-28T12:00:00","4","39.95","-0.0666666","43.5","CASTELLON ALMAZORA, SP","FM-12","99999","V020","180,1,N,0031,1","22000,1,9,N","030000,1,N,1","+0312,1","+0171,1","10178,1","06,0000,9,1",,,,,"01,99,1,01,1,01,1,01250,1,00,1,00,1",,,,,"99999,9,10138,1","8,1,011,1,+999,9",,"SYN072AAXX  28124 08286 12680 11806 10312 20171 30138 40178 58011 60001 81100;","Q01  00002PRCP06"
"08286099999","2010-07-29T06:00:00","4","39.95","-0.0666666","43.5","CASTELLON ALMAZORA, SP","FM-12","99999","V020","290,1,N,0015,1","09000,1,9,N","035000,1,N,1","+0234,1","+0178,1","10130,1","12,0000,9,1","24,0000,9,1",,,,"06,99,1,01,1,05,1,01250,1,08,1,03,1","0732,9","01,9","999,+0210,9","999,N,+0228,1","99999,9,10090,1","6,1,002,1,+999,9",,"SYN106AAXX  29064 08286 12681 62903 10234 20178 30090 40130 56002 60002 81583 333 20228 30021 50444 55122 70000;","Q01  00002PRCP24Q02  00002PRCP12"
"08286099999","2010-07-29T09:00:00","4","39.95","-0.0666666","43.5","CASTELLON ALMAZORA, SP","FM-12","99999","V020","120,1,N,0021,1","03600,1,9,N","030000,1,N,1","+0290,1","+0210,1","10132,1",,,,,,"06,99,1,01,1,01,1,01250,1,08,1,02,1",,,,,"99999,9,10092,1","1,1,002,1,+999,9",,"SYN066AAXX  29094 08286 42680 61204 10290 20210 30092 40132 51002 81182;",
"08286099999","2010-07-29T12:00:00","4","39.95","-0.0666666","43.5","CASTELLON ALMAZORA, SP","FM-12","99999","V020","120,1,N,0031,1","22000,1,9,N","025000,1,N,1","+0306,1","+0208,1","10126,1","06,0000,9,1",,,,,"02,99,1,02,1,02,1,01250,1,00,1,00,1",,,,,"99999,9,10087,1","8,1,005,1,+999,9",,"SYN072AAXX  29124 08286 12675 21206 10306 20208 30087 40126 58005 60001 82200;","Q01  00002PRCP06"
"08286099999","2010-07-30T06:00:00","4","39.95","-0.0666666","43.5","CASTELLON ALMAZORA, SP","FM-12","99999","V020","300,1,N,0015,1","22000,1,9,N","035000,1,N,1","+0228,1","+0166,1","10132,1","12,0000,9,1","24,0000,9,1",,,,"02,99,1,02,1,05,1,00800,1,00,1,00,1","0690,9","01,9","999,+0200,9","999,N,+0226,1","99999,9,10091,1","3,1,005,1,+999,9",,"SYN106AAXX  30064 08286 12581 23003 10228 20166 30091 40132 53005 60002 82500 333 20226 30020 50394 55115 70000;","Q01  00002PRCP24Q02  00002PRCP12"
"08286099999","2010-07-30T09:00:00","4","39.95","-0.0666666","43.5","CASTELLON ALMAZORA, SP","FM-12","99999","V020","120,1,N,0026,1","22000,1,9,N","035000,1,N,1","+0280,1","+0172,1","10141,1",,,,,,"04,99,1,04,1,05,1,00800,1,00,1,00,1",,,,,"99999,9,10101,1","1,1,010,1,+999,9",,"SYN066AAXX  30094 08286 42581 41205 10280 20172 30101 40141 51010 84500;",
"08286099999","2010-07-30T12:00:00","4","39.95","-0.0666666","43.5","CASTELLON ALMAZORA, SP","FM-12","99999","V020","130,1,N,0036,1","22000,1,9,N","030000,1,N,1","+0288,1","+0189,1","10139,1","06,0000,9,1",,,,,"04,99,1,04,1,02,1,00800,1,00,1,00,1",,,,,"99999,9,10099,1","8,1,002,1,+999,9",,"SYN072AAXX  30124 08286 12580 41307 10288 20189 30099 40139 58002 60001 84200;","Q01  00002PRCP06"
"08286099999","2010-08-02T06:00:00","4","39.95","-0.0666666","43.5","CASTELLON ALMAZORA, SP","FM-12","99999","V020","300,1,N,0015,1","09000,1,9,N","030000,1,N,1","+0236,1","+0185,1","10150,1","12,0000,9,1","24,0000,9,1",,,,"06,99,1,02,1,05,1,00800,1,04,1,04,1",,"01,9","999,+0210,9","999,N,+0230,1","99999,9,10110,1","4,1,000,1,+999,9",,"SYN106AAXX  02064 08286 12580 63003 10236 20185 30110 40150 54000 60002 82544 333 20230 30021 50344 55/// 70000;","Q01  00002PRCP24Q02  00002PRCP12"
"08286099999","2010-08-02T09:00:00","4","39.95","-0.0666666","43.5","CASTELLON ALMAZORA, SP","FM-12","99999","V020","150,1,N,0021,1","22000,1,9,N","030000,1,N,1","+0296,1","+0187,1","10150,1",,,,,,"02,99,1,02,1,02,1,01250,1,00,1,00,1",,,,,"99999,9,10110,1","4,1,000,1,+999,9",,"SYN066AAXX  02094 08286 42680 21504 10296 20187 30110 40150 54000 82200;",
"08286099999","2010-08-02T12:00:00","4","39.95","-0.0666666","43.5","CASTELLON ALMAZORA, SP","FM-12","99999","V020","130,1,N,0031,1","09000,1,9,N","030000,1,N,1","+0300,1","+0171,1","10134,1","06,0000,9,1",,,,,"05,99,1,01,1,02,1,01250,1,04,1,02,1",,,,,"99999,9,10094,1","8,1,016,1,+999,9",,"SYN072AAXX  02124 08286 12680 51306 10300 20171 30094 40134 58016 60001 81242;","Q01  00002PRCP06"
"08286099999","2010-08-20T06:00:00","4","39.95","-0.0666666","43.5","CASTELLON ALMAZORA, SP","FM-12","99999","V020","290,1,N,0015,1","22000,1,9,N","040000,1,N,1","+0190,1","+0160,1","10177,1","12,0000,9,1","24,0081,9,1",,,"00,1,+99999,9,99,9","00,99,1,00,1,00,1,99999,9,00,1,00,1",,"11,9","999,+0170,9","999,N,+0188,1","99999,9,10136,1","3,1,011,1,+999,9",,"SYN094AAXX  20064 08286 12982 02903 10190 20160 30136 40177 53011 60002 333 20188 32017 55/// 70082;","Q01  00002PRCP12"
"08286099999","2010-08-20T09:00:00","4","39.95","-0.0666666","43.5","CASTELLON ALMAZORA, SP","FM-12","99999","V020","120,1,N,0021,1","22000,1,9,N","040000,1,N,1","+0266,1","+0162,1","10191,1",,,,,"00,1,+99999,9,99,9","00,99,1,00,1,00,1,99999,9,00,1,00,1",,,,,"99999,9,10151,1","2,1,015,1,+999,9",,"SYN060AAXX  20094 08286 42982 01204 10266 20162 30151 40191 52015;",
"08286099999","2010-08-20T12:00:00","4","39.95","-0.0666666","43.5","CASTELLON ALMAZORA, SP","FM-12","99999","V020","130,1,N,0031,1","22000,1,9,N","040000,1,N,1","+0282,1","+0174,1","10198,1","06,0000,9,1",,,,,"01,99,1,01,1,02,1,01250,1,00,1,00,1",,,,,"99999,9,10158,1","2,1,007,1,+999,9",,"SYN072AAXX  20124 08286 12682 11306 10282 20174 30158 40198 52007 60001 81200;","Q01  00002PRCP06"
"08286099999","2010-08-23T06:00:00","4","39.95","-0.0666666","43.5","CASTELLON ALMAZORA, SP","FM-12","99999","V020","300,1,N,0015,1","22000,1,9,N","030000,1,N,1","+0218,1","+0184,1","10115,1","12,0000,9,1","24,0000,9,1",,,,"02,99,1,01,1,00,1,99999,9,04,1,01,1",,"01,9","999,+0200,9","999,N,+0218,1","99999,9,10074,1","7,1,008,1,+999,9",,"SYN106AAXX  23064 08286 12980 23003 10218 20184 30074 40115 57008 60002 81041 333 20218 30020 50324 55/// 70000;","Q01  00002PRCP24Q02  00002PRCP12"
"08286099999","2010-08-23T09:00:00","4","39.95","-0.0666666","43.5","CASTELLON ALMAZORA, SP","FM-12","99999","V020","180,1,N,0015,1","22000,1,9,N","030000,1,N,1","+0290,1","+0184,1","10114,1",,,,,,"03,99,1,01,1,00,1,99999,9,04,1,05,1",,,,,"99999,9,10074,1","4,1,000,1,+999,9",,"SYN066AAXX  23094 08286 42980 31803 10290 20184 30074 40114 54000 81045;",
"08286099999","2010-08-23T12:00:00","4","39.95","-0.0666666","43.5","CASTELLON ALMAZORA, SP","FM-12","99999","V020","140,1,N,0026,1","22000,1,9,N","015000,1,N,1","+0314,1","+0213,1","10103,1","06,0000,9,1",,,,,"04,99,1,01,1,00,1,99999,9,04,1,02,1",,,,,"99999,9,10064,1","8,1,010,1,+999,9",,"SYN072AAXX  23124 08286 12965 41405 10314 20213 30064 40103 58010 60001 81042;","Q01  00002PRCP06"
"08286099999","2010-08-24T06:00:00","4","39.95","-0.0666666","43.5","CASTELLON ALMAZORA, SP","FM-12","99999","V020","360,1,N,0015,1","22000,1,9,N","040000,1,N,1","+0224,1","+0115,1","10101,1","12,0000,9,1","24,0000,9,1",,,,"02,99,1,00,1,00,1,99999,9,00,1,02,1","0744,9","01,9","999,+0190,9","999,N,+0214,1","99999,9,10060,1","3,1,010,1,+999,9",,"SYN106AAXX  24064 08286 12982 23603 10224 20115 30060 40101 53010 60002 80002 333 20214 30019 50334 55124 70000;","Q01  00002PRCP24Q02  00002PRCP12"
"08286099999","2010-08-24T09:00:00","4","39.95","-0.0666666","43.5","CASTELLON ALMAZORA, SP","FM-12","99999","V020","120,1,N,0031,1","22000,1,9,N","015000,1,N,1","+0288,1","+0228,2","10122,1",,,,,,"02,99,1,00,1,00,1,99999,9,00,1,02,1",,,,,"99999,9,10082,1","2,1,022,1,+999,9",,"SYN066AAXX  24094 08286 42965 21206 10288 20228 30082 40122 52022 80002;",
"08286099999","2010-08-24T12:00:00","4","39.95","-0.0666666","43.5","CASTELLON ALMAZORA, SP","FM-12","99999","V020","120,1,N,0036,1","22000,1,9,N","018000,1,N,1","+0306,1","+0208,1","10135,1","06,0000,9,1",,,,,"01,99,1,01,1,02,1,01250,1,00,1,00,1",,,,,"99999,9,10096,1","2,1,014,1,+999,9",,"SYN072AAXX  24124 08286 12668 11207 10306 20208 30096 40135 52014 60001 81200;","Q01  00002PRCP06"
"08286099999","2010-08-25T06:00:00","4","39.95","-0.0666666","43.5","CASTELLON ALMAZORA, SP","FM-12","99999","V020","310,1,N,0015,1","22000,1,9,N","015000,1,N,1","+0228,1","+0186,1","10175,1","12,0000,9,1","24,0000,9,1",,,,"01,99,1,01,1,05,1,00800,1,00,1,00,1","0726,9","01,9","999,+0210,9","999,N,+0228,1","99999,9,10134,1","3,1,002,1,+999,9",,"SYN106AAXX  25064 08286 12565 13103 10228 20186 30134 40175 53002 60002 81500 333 20228 30021 50374 55121 70000;","Q01  00002PRCP24Q02  00002PRCP12"
"08286099999","2010-08-25T09:00:00","4","39.95","-0.0666666","43.5","CASTELLON ALMAZORA, SP","FM-12","99999","V020","180,1,N,0021,1","22000,1,9,N","020000,1,N,1","+0294,1","+0194,1","10180,1",,,,,"00,1,+99999,9,99,9","00,99,1,00,1,00,1,99999,9,00,1,00,1",,,,,"99999,9,10140,1","2,1,006,1,+999,9",,"SYN060AAXX  25094 08286 42970 01804 10294 20194 30140 40180 52006;",
"08286099999","2010-08-25T12:00:00","4","39.95","-0.0666666","43.5","CASTELLON ALMAZORA, SP","FM-12","99999","V020","160,1,N,0031,1","22000,1,9,N","020000,1,N,1","+0316,1","+0202,1","10184,1","06,0000,9,1",,,,,"01,99,1,01,1,01,1,01250,1,00,1,00,1",,,,,"99999,9,10144,1","0,1,004,1,+999,9",,"SYN072AAXX  25124 08286 12670 11606 10316 20202 30144 40184 50004 60001 81100;","Q01  00002PRCP06"
"08286099999","2010-08-26T06:00:00","4","39.95","-0.0666666","43.5","CASTELLON ALMAZORA, SP","FM-12","99999","V020","300,1,N,0010,1","22000,1,9,N","020000,1,N,1","+0224,1","+0186,1","10169,1","12,0000,9,1","24,0000,9,1",,,"00,1,+99999,9,99,9","00,99,1,00,1,00,1,99999,9,00,1,00,1","0720,9","01,9","999,+0200,9","999,N,+0222,1","99999,9,10128,1","6,1,004,1,+999,9",,"SYN100AAXX  26064 08286 12970 03002 10224 20186 30128 40169 56004 60002 333 20222 30020 50344 55120 70000;","Q01  00002PRCP24Q02  00002PRCP12"
"08286099999","2010-08-26T09:00:00","4","39.95","-0.0666666","43.5","CASTELLON ALMAZORA, SP","FM-12","99999","V020","170,1,N,0015,1","22000,1,9,N","020000,1,N,1","+0292,1","+0198,1","10168,1",,,,,"00,1,+99999,9,99,9","00,99,1,00,1,00,1,99999,9,00,1,00,1",,,,,"99999,9,10128,1","4,1,000,1,+999,9",,"SYN060AAXX  26094 08286 42970 01703 10292 20198 30128 40168 54000;",
"08286099999","2010-08-26T12:00:00","4","39.95","-0.0666666","43.5","CASTELLON ALMAZORA, SP","FM-12","99999","V020","170,1,N,0026,1","22000,1,9,N","012000,1,N,1","+0314,1","+0207,1","10162,1","06,0000,9,1",,,,"00,1,+99999,9,99,9","00,99,1,00,1,00,1,99999,9,00,1,00,1",,,,,"99999,9,10123,1","8,1,005,1,+999,9",,"SYN066AAXX  26124 08286 12962 01705 10314 20207 30123 40162 58005 60001;","Q01  00002PRCP06"
"08286099999","2010-08-27T06:00:00","4","39.95","-0.0666666","43.5","CASTELLON ALMAZORA, SP","FM-12","99999","V020","999,9,C,0000,1","22000,1,9,N","030000,1,N,1","+0226,1","+0169,1","10109,1","12,0000,9,1","24,0000,9,1",,,,"01,99,1,01,1,00,1,99999,9,04,1,00,1","0720,9","01,9","999,+0200,9","999,N,+0224,1","99999,9,10069,1","7,1,006,1,+999,9",,"SYN106AAXX  27064 08286 12980 10000 10226 20169 30069 40109 57006 60002 81040 333 20224 30020 50344 55120 70000;","Q01  00002PRCP24Q02  00002PRCP12"
"08286099999","2010-08-27T09:00:00","4","39.95","-0.0666666","43.5","CASTELLON ALMAZORA, SP","FM-12","99999","V020","140,1,N,0021,1","22000,1,9,N","020000,1,N,1","+0314,1","+0227,1","10112,1",,,,,,"02,99,1,01,1,00,1,99999,9,04,1,05,1",,,,,"99999,9,10073,1","1,1,004,1,+999,9",,"SYN066AAXX  27094 08286 42970 21404 10314 20227 30073 40112 51004 81045;",
"08286099999","2010-08-27T12:00:00","4","39.95","-0.0666666","43.5","CASTELLON ALMAZORA, SP","FM-12","99999","V020","130,1,N,0026,1","22000,1,9,N","025000,1,N,1","+0352,1","+0191,1","10103,1","06,0000,9,1",,,,,"01,99,1,00,1,00,1,99999,9,00,1,05,1",,,,,"99999,9,10064,1","8,1,009,1,+999,9",,"SYN072AAXX  27124 08286 12975 11305 10352 20191 30064 40103 58009 60001 80005;","Q01  00002PRCP06"
"08286099999","2010-08-30T06:00:00","4","39.95","-0.0666666","43.5","CASTELLON ALMAZORA, SP","FM-12","99999","V020","300,1,N,0015,1","00750,1,9,N","020000,1,N,1","+0216,1","+0184,1","10156,1","12,0000,9,1","24,0003,9,1",,,,"06,99,1,05,1,05,1,00800,1,07,1,00,1",,"01,9","999,+0200,9","999,N,+0214,1","99999,9,10115,1","6,1,006,1,+999,9",,"SYN106AAXX  30064 08286 12570 63003 10216 20184 30115 40156 56006 60002 85570 333 20214 30020 50414 55/// 70003;","Q01  00002PRCP12"
"08286099999","2010-08-30T09:00:00","4","39.95","-0.0666666","43.5","CASTELLON ALMAZORA, SP","FM-12","99999","V020","130,1,N,0015,1","22000,1,9,N","025000,1,N,1","+0282,1","+0183,1","10155,1",,,,,,"02,99,1,02,1,02,1,00800,1,00,1,00,1",,,,,"99999,9,10115,1","4,1,000,1,+999,9",,"SYN066AAXX  30094 08286 42575 21303 10282 20183 30115 40155 54000 82200;",
"08286099999","2010-08-30T12:00:00","4","39.95","-0.0666666","43.5","CASTELLON ALMAZORA, SP","FM-12","99999","V020","120,1,N,0041,1","22000,1,9,N","030000,1,N,1","+0282,1","+0141,1","10151,1","06,0000,9,1",,,,,"01,99,1,01,1,02,1,01250,1,00,1,00,1",,,,,"99999,9,10111,1","8,1,004,1,+999,9",,"SYN072AAXX  30124 08286 12680 11208 10282 20141 30111 40151 58004 60001 81200;","Q01  00002PRCP06"
"08286099999","2010-08-31T06:00:00","4","39.95","-0.0666666","43.5","CASTELLON ALMAZORA, SP","FM-12","99999","V020","300,1,N,0015,1","00750,1,9,N","025000,1,N,1","+0198,1","+0142,1","10148,1","12,0000,9,1","24,0000,9,1",,,,"05,99,1,05,1,05,1,00800,1,00,1,00,1","0612,9","01,9","999,+0180,9","999,N,+0196,1","99999,9,10107,1","6,1,002,1,+999,9",,"SYN106AAXX  31064 08286 12575 53003 10198 20142 30107 40148 56002 60002 85500 333 20196 30018 50444 55102 70000;","Q01  00002PRCP24Q02  00002PRCP12"
"08286099999","2010-08-31T09:00:00","4","39.95","-0.0666666","43.5","CASTELLON ALMAZORA, SP","FM-12","99999","V020","060,1,N,0015,1","01500,1,9,N","025000,1,N,1","+0252,1","+0158,1","10150,1",,,,,,"07,99,1,07,1,08,1,01250,1,00,1,00,1",,,,,"99999,9,10110,1","1,1,003,1,+999,9",,"SYN066AAXX  31094 08286 42675 70603 10252 20158 30110 40150 51003 87800;",
"08286099999","2010-08-31T12:00:00","4","39.95","-0.0666666","43.5","CASTELLON ALMAZORA, SP","FM-12","99999","V020","110,1,N,0026,1","01200,1,9,N","025000,1,N,1","+0276,1","+0177,1","10149,1","06,0000,9,1",,,,"02,1,+01200,1,09,1","06,99,1,06,1,03,1,01250,1,00,1,00,1",,,,,"99999,9,10109,1","8,1,001,1,+999,9",,"SYN088AAXX  31124 08286 12675 61105 10276 20177 30109 40149 58001 60001 86300 333 82940 84840;","Q01  00002PRCP06"
"08286099999","2010-09-01T06:00:00","4","39.95","-0.0666666","43.5","CASTELLON ALMAZORA, SP","FM-12","99999","V020","300,1,N,0015,1","00750,1,9,N","015000,1,N,1","+0224,1","+0167,1","10120,1","12,0000,9,1","24,0000,9,1",,,,"07,99,1,05,1,05,1,00800,1,07,1,05,1","0444,9","01,9","999,+0200,9","999,N,+0220,1","99999,9,10079,1","7,1,008,1,+999,9",,"SYN106AAXX  01064 08286 12565 73003 10224 20167 30079 40120 57008 60002 85575 333 20220 30020 50424 55074 70000;","Q01  00002PRCP24Q02  00002PRCP12"
"08286099999","2010-09-01T09:00:00","4","39.95","-0.0666666","43.5","CASTELLON ALMAZORA, SP","FM-12","99999","V020","220,1,N,0021,1","01200,1,9,N","025000,1,N,1","+0250,1","+0175,1","10116,1",,,,,,"08,99,1,06,1,08,1,00800,1,07,1,99,9",,,,,"99999,9,10076,1","6,1,003,1,+999,9",,"SYN066AAXX  01094 08286 42575 82204 10250 20175 30076 40116 56003 8687/;",
"08286099999","2010-09-01T12:00:00","4","39.95","-0.0666666","43.5","CASTELLON ALMAZORA, SP","FM-12","99999","V020","190,1,N,0031,1","01200,1,9,N","025000,1,N,1","+0276,1","+0180,1","10115,1","06,0000,9,1",,,,,"07,99,1,05,1,08,1,00800,1,08,1,02,1",,,,,"99999,9,10075,1","8,1,001,1,+999,9",,"SYN072AAXX  01124 08286 12575 71906 10276 20180 30075 40115 58001 60001 85882;","Q01  00002PRCP06"
"08286099999","2010-09-02T06:00:00","4","39.95","-0.0666666","43.5","CASTELLON ALMAZORA, SP","FM-12","99999","V020","300,1,N,0010,1","01200,1,9,N","025000,1,N,1","+0208,1","+0168,1","10106,1","12,0010,9,1","24,0010,9,1","8,1,06,1","2,1,06,1",,"07,99,1,05,1,05,1,01250,1,02,1,00,1","0360,9","09,9","999,+0180,9","999,N,+0202,1","99999,9,10065,1","6,1,003,1,+999,9","02,1","SYN112AAXX  02064 08286 11675 73002 10208 20168 30065 40106 56003 69992 70282 85520 333 20202 31018 50284 55060 70009;",
"08286099999","2010-09-02T09:00:00","4","39.95","-0.0666666","43.5","CASTELLON ALMAZORA, SP","FM-12","99999","V020","290,1,N,0026,1","01200,1,9,N","025000,1,N,1","+0218,1","+0165,1","10129,1",,,"8,1,03,1","2,1,03,1",,"08,99,1,08,1,07,1,01250,1,99,9,99,9",,,,,"99999,9,10088,1","1,1,023,1,+999,9","80,1","SYN072AAXX  02094 08286 41675 82905 10218 20165 30088 40129 51023 78082 887//;",
"08286099999","2010-09-02T12:00:00","4","39.95","-0.0666666","43.5","CASTELLON ALMAZORA, SP","FM-12","99999","V020","140,1,N,0021,1","01200,1,9,N","030000,1,N,1","+0252,1","+0163,1","10130,1","06,0000,2,1",,"8,1,06,1","2,1,06,1","02,1,+01200,1,09,1","07,99,1,07,1,03,1,01250,1,00,1,00,1",,,,,"99999,9,10090,1","1,1,002,1,+999,9","02,1","SYN094AAXX  02124 08286 11680 71404 10252 20163 30090 40130 51002 69921 70282 87300 333 82940 85840;",
"08286099999","2010-09-03T06:00:00","4","39.95","-0.0666666","43.5","CASTELLON ALMAZORA, SP","FM-12","99999","V020","300,1,N,0026,1","22000,1,9,N","030000,1,N,1","+0196,1","+0164,1","10159,1","12,0000,9,1","24,0003,9,1",,,"00,1,+99999,9,99,9","00,99,1,00,1,00,1,99999,9,00,1,00,1","0036,9","01,9","999,+0180,9","999,N,+0194,1","99999,9,10118,1","3,1,006,1,+999,9",,"SYN100AAXX  03064 08286 12980 03005 10196 20164 30118 40159 53006 60002 333 20194 30018 50244 55006 70002;","Q01  00002PRCP12"
"08286099999","2010-09-03T09:00:00","4","39.95","-0.0666666","43.5","CASTELLON ALMAZORA, SP","FM-12","99999","V020","220,1,N,0015,1","22000,1,9,N","030000,1,N,1","+0264,1","+0151,1","10165,1",,,,,,"01,99,1,01,1,01,1,01250,1,00,1,00,1",,,,,"99999,9,10125,1","1,1,007,1,+999,9",,"SYN066AAXX  03094 08286 42680 12203 10264 20151 30125 40165 51007 81100;",
"08286099999","2010-09-03T12:00:00","4","39.95","-0.0666666","43.5","CASTELLON ALMAZORA, SP","FM-12","99999","V020","160,1,N,0031,1","22000,1,9,N","030000,1,N,1","+0296,1","+0168,1","10165,1","06,0000,9,1",,,,,"01,99,1,01,1,02,1,01250,1,00,1,00,1",,,,,"99999,9,10125,1","4,1,000,1,+999,9",,"SYN072AAXX  03124 08286 12680 11606 10296 20168 30125 40165 54000 60001 81200;","Q01  00002PRCP06"
"08286099999","2010-09-06T06:00:00","4","39.95","-0.0666666","43.5","CASTELLON ALMAZORA, SP","FM-12","99999","V020","280,1,N,0031,1","22000,1,9,N","025000,1,N,1","+0208,1","+0156,1","10125,1","12,0000,9,1","24,0000,9,1",,,,"01,99,1,01,1,00,1,99999,9,04,1,00,1",,"01,9","999,+0190,9","999,N,+0206,1","99999,9,10084,1","6,1,008,1,+999,9",,"SYN106AAXX  06064 08286 12975 12806 10208 20156 30084 40125 56008 60002 81040 333 20206 30019 50384 55/// 70000;","Q01  00002PRCP24Q02  00002PRCP12"
"08286099999","2010-09-06T09:00:00","4","39.95","-0.0666666","43.5","CASTELLON ALMAZORA, SP","FM-12","99999","V020","180,1,N,0015,1","22000,1,9,N","025000,1,N,1","+0268,1","+0170,1","10118,1",,,,,,"01,99,1,00,1,00,1,99999,9,00,1,02,1",,,,,"99999,9,10078,1","6,1,006,1,+999,9",,"SYN066AAXX  06094 08286 42975 11803 10268 20170 30078 40118 56006 80002;",
"08286099999","2010-09-06T12:00:00","4","39.95","-0.0666666","43.5","CASTELLON ALMAZORA, SP","FM-12","99999","V020","160,1,N,0036,1","22000,1,9,N","025000,1,N,1","+0300,1","+0178,1","10110,1","06,0000,9,1",,,,,"03,99,1,01,1,02,1,01250,1,00,1,04,1",,,,,"99999,9,10071,1","8,1,007,1,+999,9",,"SYN072AAXX  06124 08286 12675 31607 10300 20178 30071 40110 58007 60001 81204;","Q01  00002PRCP06"
"08286099999","2010-09-07T06:00:00","4","39.95","-0.0666666","43.5","CASTELLON ALMAZORA, SP","FM-12","99999","V020","300,1,N,0021,1","22000,1,9,N","030000,1,N,1","+0210,1","+0162,1","10042,1","12,0000,9,1","24,0000,9,1",,,,"03,99,1,03,1,00,1,99999,9,03,1,00,1","0666,9","01,9","999,+0190,9","999,N,+0210,1","99999,9,10002,1","6,1,008,1,+999,9",,"SYN106AAXX  07064 08286 12980 33004 10210 20162 30002 40042 56008 60002 83030 333 20210 30019 50384 55111 70000;","Q01  00002PRCP24Q02  00002PRCP12"
"08286099999","2010-09-07T12:00:00","4","39.95","-0.0666666","43.5","CASTELLON ALMAZORA, SP","FM-12","99999","V020","240,1,N,0057,1","22000,1,9,N","040000,1,N,1","+0340,1","+0124,1","10017,1","06,0000,9,1",,,,,"02,99,1,02,1,02,1,01250,1,00,1,00,1",,,,,"99999,9,09978,1","7,1,021,1,+999,9",,"SYN072AAXX  07124 08286 12682 22411 10340 20124 39978 40017 57021 60001 82200;","Q01  00002PRCP06"
"08286099999","2010-09-08T06:00:00","4","39.95","-0.0666666","43.5","CASTELLON ALMAZORA, SP","FM-12","99999","V020","310,1,N,0015,1","22000,1,9,N","040000,1,N,1","+0202,1","+0095,1","10092,1","12,0000,9,1","24,0000,9,1",,,,"01,99,1,01,1,05,1,01250,1,00,1,00,1","0708,9","01,9","999,+0180,9","999,N,+0200,1","99999,9,10051,1","2,1,025,1,+999,9",,"SYN106AAXX  08064 08286 12682 13103 10202 20095 30051 40092 52025 60002 81500 333 20200 30018 50884 55118 70000;","Q01  00002PRCP24Q02  00002PRCP12"
"08286099999","2010-09-08T09:00:00","4","39.95","-0.0666666","43.5","CASTELLON ALMAZORA, SP","FM-12","99999","V020","280,1,N,0026,1","22000,1,9,N","040000,1,N,1","+0250,1","+0089,1","10112,1",,,,,,"02,99,1,01,1,01,1,01250,1,04,1,04,1",,,,,"99999,9,10072,1","2,1,021,1,+999,9",,"SYN066AAXX  08094 08286 42682 22805 10250 20089 30072 40112 52021 81144;",
"08286099999","2010-09-08T12:00:00","4","39.95","-0.0666666","43.5","CASTELLON ALMAZORA, SP","FM-12","99999","V020","200,1,N,0031,1","22000,1,9,N","040000,1,N,1","+0278,1","+0109,1","10112,1","06,0000,9,1",,,,,"01,99,1,01,1,01,1,01250,1,00,1,00,1",,,,,"99999,9,10072,1","4,1,000,1,+999,9",,"SYN072AAXX  08124 08286 12682 12006 10278 20109 30072 40112 54000 60001 81100;","Q01  00002PRCP06"
"08286099999","2010-09-09T06:00:00","4","39.95","-0.0666666","43.5","CASTELLON ALMAZORA, SP","FM-12","99999","V020","300,1,N,0015,1","22000,1,9,N","040000,1,N,1","+0186,1","+0077,1","10164,1","12,0000,9,1","24,0000,9,1",,,,"03,99,1,01,1,05,1,00800,1,00,1,01,1","0708,9","01,9","999,+0160,9","999,N,+0180,1","99999,9,10123,1","2,1,010,1,+999,9",,"SYN106AAXX  09064 08286 12582 33003 10186 20077 30123 40164 52010 60002 81501 333 20180 30016 50614 55118 70000;","Q01  00002PRCP24Q02  00002PRCP12"
"08286099999","2010-09-09T09:00:00","4","39.95","-0.0666666","43.5","CASTELLON ALMAZORA, SP","FM-12","99999","V020","350,1,N,0026,1","22000,1,9,N","040000,1,N,1","+0252,1","+0095,1","10182,1",,,,,,"02,99,1,00,1,00,1,99999,9,00,1,01,1",,,,,"99999,9,10141,1","2,1,018,1,+999,9",,"SYN066AAXX  09094 08286 42982 23505 10252 20095 30141 40182 52018 80001;",
"08286099999","2010-09-09T12:00:00","4","39.95","-0.0666666","43.5","CASTELLON ALMAZORA, SP","FM-12","99999","V020","140,1,N,0031,1","22000,1,9,N","040000,1,N,1","+0292,1","+0113,1","10182,1","06,0000,9,1",,,,,"03,99,1,02,1,01,1,01250,1,04,1,00,1",,,,,"99999,9,10142,1","0,1,001,1,+999,9",,"SYN072AAXX  09124 08286 12682 31406 10292 20113 30142 40182 50001 60001 82140;","Q01  00002PRCP06"
"08286099999","2010-09-10T06:00:00","4","39.95","-0.0666666","43.5","CASTELLON ALMAZORA, SP","FM-12","99999","V020","290,1,N,0026,1","22000,1,9,N","040000,1,N,1","+0178,1","+0081,1","10212,1","12,0000,9,1","24,0000,9,1",,,"00,1,+99999,9,99,9","00,99,1,00,1,00,1,99999,9,00,1,00,1","0720,9","01,9","999,+0160,9","999,N,+0178,1","99999,9,10170,1","5,1,001,1,+999,9",,"SYN100AAXX  10064 08286 12982 02905 10178 20081 30170 40212 55001 60002 333 20178 30016 50604 55120 70000;","Q01  00002PRCP24Q02  00002PRCP12"
"08286099999","2010-09-10T09:00:00","4","39.95","-0.0666666","43.5","CASTELLON ALMAZORA, SP","FM-12","99999","V020","180,1,N,0015,1","22000,1,9,N","040000,1,N,1","+0246,1","+0097,1","10215,1",,,,,,"01,99,1,01,1,00,1,99999,9,04,1,00,1",,,,,"99999,9,10174,1","1,1,004,1,+999,9",,"SYN066AAXX  10094 08286 42982 11803 10246 20097 30174 40215 51004 81040;",
"08286099999","2010-09-10T12:00:00","4","39.95","-0.0666666","43.5","CASTELLON ALMAZORA, SP","FM-12","99999","V020","170,1,N,0031,1","22000,1,9,N","040000,1,N,1","+0278,1","+0126,1","10207,1","06,0000,9,1",,,,,"01,99,1,00,1,00,1,99999,9,00,1,01,1",,,,,"99999,9,10167,1","8,1,007,1,+999,9",,"SYN072AAXX  10124 08286 12982 11706 10278 20126 30167 40207 58007 60001 80001;","Q01  00002PRCP06"
"08286099999","2010-09-14T06:00:00","4","39.95","-0.0666666","43.5","CASTELLON ALMAZORA, SP","FM-12","99999","V020","290,1,N,0021,1","22000,1,9,N","035000,1,N,1","+0194,1","+0142,1","10224,1","12,0000,9,1","24,0000,9,1",,,,"03,99,1,01,1,05,1,00800,1,04,1,05,1",,"01,9","999,+0170,9","999,N,+0192,1","99999,9,10183,1","3,1,003,1,+999,9",,"SYN106AAXX  14064 08286 12581 32904 10194 20142 30183 40224 53003 60002 81545 333 20192 30017 50424 55/// 70000;","Q01  00002PRCP24Q02  00002PRCP12"
"08286099999","2010-09-14T09:00:00","4","39.95","-0.0666666","43.5","CASTELLON ALMAZORA, SP","FM-12","99999","V020","140,1,N,0021,1","22000,1,9,N","035000,1,N,1","+0248,1","+0168,1","10232,1",,,,,,"03,99,1,03,1,05,1,00800,1,00,1,00,1",,,,,"99999,9,10191,1","1,1,008,1,+999,9",,"SYN066AAXX  14094 08286 42581 31404 10248 20168 30191 40232 51008 83500;",
"08286099999","2010-09-14T12:00:00","4","39.95","-0.0666666","43.5","CASTELLON ALMAZORA, SP","FM-12","99999","V020","140,1,N,0026,1","22000,1,9,N","030000,1,N,1","+0278,1","+0158,1","10231,1","06,0000,9,1",,,,,"01,99,1,01,1,01,1,01250,1,00,1,00,1",,,,,"99999,9,10191,1","4,1,000,1,+999,9",,"SYN072AAXX  14124 08286 12680 11405 10278 20158 30191 40231 54000 60001 81100;","Q01  00002PRCP06"
"08286099999","2010-09-15T06:00:00","4","39.95","-0.0666666","43.5","CASTELLON ALMAZORA, SP","FM-12","99999","V020","310,1,N,0010,1","22000,1,9,N","035000,1,N,1","+0198,1","+0148,1","10200,1","12,0000,9,1","24,0000,9,1",,,,"04,99,1,00,1,00,1,99999,9,00,1,05,1","0606,9","01,9","999,+0180,9","999,N,+0198,1","99999,9,10159,1","6,1,008,1,+999,9",,"SYN106AAXX  15064 08286 12981 43102 10198 20148 30159 40200 56008 60002 80005 333 20198 30018 50334 55101 70000;","Q01  00002PRCP24Q02  00002PRCP12"
"08286099999","2010-09-15T09:00:00","4","39.95","-0.0666666","43.5","CASTELLON ALMAZORA, SP","FM-12","99999","V020","200,1,N,0015,1","99999,9,9,N","020000,1,N,1","+0248,1","+0168,1","10197,1",,,,,,"07,99,1,00,1,00,1,99999,9,00,1,08,1",,,,,"99999,9,10156,1","6,1,003,1,+999,9",,"SYN066AAXX  15094 08286 42970 72003 10248 20168 30156 40197 56003 80008;",
"08286099999","2010-09-15T12:00:00","4","39.95","-0.0666666","43.5","CASTELLON ALMAZORA, SP","FM-12","99999","V020","160,1,N,0031,1","09000,1,9,N","020000,1,N,1","+0276,1","+0186,1","10186,1","06,0000,9,1",,,,,"07,99,1,01,1,02,1,01250,1,00,1,08,1",,,,,"99999,9,10146,1","8,1,010,1,+999,9",,"SYN072AAXX  15124 08286 12670 71606 10276 20186 30146 40186 58010 60001 81208;","Q01  00002PRCP06"
"08286099999","2010-09-16T06:00:00","4","39.95","-0.0666666","43.5","CASTELLON ALMAZORA, SP","FM-12","99999","V020","290,1,N,0021,1","99999,9,9,N","007000,1,N,1","+0208,1","+0170,1","10132,1","12,0000,9,1","24,0000,9,1","2,1,06,1","2,1,06,1",,"07,99,1,03,1,00,1,99999,9,04,1,08,1","0588,9","01,9","999,+0180,9","999,N,+0206,1","99999,9,10091,1","5,1,001,1,+999,9","05,1","SYN112AAXX  16064 08286 11957 72904 10208 20170 30091 40132 55001 60002 70522 83048 333 20206 30018 50324 55098 70000;","Q01  00002PRCP24Q02  00002PRCP12"
"08286099999","2010-09-16T09:00:00","4","39.95","-0.0666666","43.5","CASTELLON ALMAZORA, SP","FM-12","99999","V020","230,1,N,0010,1","01500,1,9,N","010000,1,N,1","+0242,1","+0182,1","10137,1",,,,,,"07,99,1,06,1,08,1,01250,1,07,1,99,9",,,,,"99999,9,10097,1","3,1,006,1,+999,9",,"SYN066AAXX  16094 08286 42660 72302 10242 20182 30097 40137 53006 8687/;",
"08286099999","2010-09-16T12:00:00","4","39.95","-0.0666666","43.5","CASTELLON ALMAZORA, SP","FM-12","99999","V020","110,1,N,0015,1","01500,1,9,N","010000,1,N,1","+0266,1","+0202,1","10130,1","06,0000,9,1",,,,,"07,99,1,06,1,08,1,01250,1,07,1,99,9",,,,,"99999,9,10090,1","8,1,007,1,+999,9",,"SYN072AAXX  16124 08286 12660 71103 10266 20202 30090 40130 58007 60001 8687/;","Q01  00002PRCP06"
"08286099999","2010-09-17T06:00:00","4","39.95","-0.0666666","43.5","CASTELLON ALMAZORA, SP","FM-12","99999","V020","310,1,N,0010,1","99999,9,9,N","005000,1,N,1","+0218,1","+0184,1","10100,1","12,0000,9,1","24,0003,9,1","2,1,06,1","2,1,06,1",,"07,99,1,06,1,00,1,99999,9,07,1,09,1","0000,9","01,9","999,+0200,9","999,N,+0216,1","99999,9,10059,1","4,1,000,1,+999,9","10,1","SYN112AAXX  17064 08286 11950 73102 10218 20184 30059 40100 54000 60002 71022 86079 333 20216 30020 50184 55000 70002;","Q01  00002PRCP12"
"08286099999","2010-09-17T09:00:00","4","39.95","-0.0666666","43.5","CASTELLON ALMAZORA, SP","FM-12","99999","V020","040,1,N,0010,1","00750,1,C,N","006000,1,N,1","+0244,1","+0213,1","10100,1",,,"8,1,03,1","2,1,03,1","02,1,+00900,1,09,1","07,99,1,07,1,03,1,00800,1,00,1,00,1",,,,,"99999,9,10060,1","1,1,001,1,+999,9","25,1","SYN088AAXX  17094 08286 41556 70402 10244 20213 30060 40100 51001 72582 87300 333 82930 85630;",
"08286099999","2010-09-17T12:00:00","4","39.95","-0.0666666","43.5","CASTELLON ALMAZORA, SP","FM-12","99999","V020","100,1,N,0026,1","00750,1,C,N","012000,1,N,1","+0262,1","+0193,1","10098,1","06,0005,9,1",,"8,1,06,1","2,1,06,1","04,1,+00900,1,09,1","07,99,1,07,1,09,1,00800,1,00,1,00,1",,,,,"99999,9,10058,1","8,1,002,1,+999,9","17,1","SYN088AAXX  17124 08286 11562 71005 10262 20193 30058 40098 58002 69951 71782 87900 333 84930;",
"08286099999","2010-09-20T06:00:00","4","39.95","-0.0666666","43.5","CASTELLON ALMAZORA, SP","FM-12","99999","V020","300,1,N,0015,1","03600,1,9,N","020000,1,N,1","+0198,1","+0170,1","10159,1","12,0000,9,1","24,0000,9,1",,,,"07,99,1,02,1,05,1,01250,1,07,1,08,1",,"09,9","999,+0180,9","999,N,+0198,1","99999,9,10118,1","4,1,000,1,+999,9",,"SYN106AAXX  20064 08286 12670 73003 10198 20170 30118 40159 54000 60002 82578 333 20198 31018 50264 55/// 70000;","Q01  00002PRCP24Q02  00002PRCP12"
"08286099999","2010-09-20T09:00:00","4","39.95","-0.0666666","43.5","CASTELLON ALMAZORA, SP","FM-12","99999","V020","270,1,N,0010,1","03600,1,9,N","020000,1,N,1","+0228,1","+0170,1","10166,1",,,,,,"07,99,1,01,1,05,1,01250,1,07,1,08,1",,,,,"99999,9,10125,1","3,1,007,1,+999,9",,"SYN066AAXX  20094 08286 42670 72702 10228 20170 30125 40166 53007 81578;",
"08286099999","2010-09-20T12:00:00","4","39.95","-0.0666666","43.5","CASTELLON ALMAZORA, SP","FM-12","99999","V020","160,1,N,0015,1","00750,1,9,N","015000,1,N,1","+0238,1","+0197,1","10172,1","06,0005,9,1",,"8,1,06,1","2,1,06,1",,"08,99,1,05,1,07,1,00800,1,02,1,99,9",,,,,"99999,9,10131,1","0,1,006,1,+999,9","80,1","SYN078AAXX  20124 08286 11565 81603 10238 20197 30131 40172 50006 69951 78082 8572/;",
"08286099999","2010-09-21T06:00:00","4","39.95","-0.0666666","43.5","CASTELLON ALMAZORA, SP","FM-12","99999","V020","310,1,N,0015,1","22000,1,9,N","030000,1,N,1","+0180,1","+0149,1","10146,1","12,0000,9,1","24,0015,9,1",,,,"01,99,1,01,1,05,1,01250,1,04,1,00,1","0000,9","09,9","999,+0160,9","999,N,+0180,1","99999,9,10105,1","4,1,000,1,+999,9",,"SYN106AAXX  21064 08286 12680 13103 10180 20149 30105 40146 54000 60002 81540 333 20180 31016 50104 55000 70016;","Q01  00002PRCP12"
"08286099999","2010-09-21T09:00:00","4","39.95","-0.0666666","43.5","CASTELLON ALMAZORA, SP","FM-12","99999","V020","050,1,N,0015,1","22000,1,9,N","040000,1,N,1","+0236,1","+0151,1","10159,1",,,,,"00,1,+99999,9,99,9","00,99,1,00,1,00,1,99999,9,00,1,00,1",,,,,"99999,9,10118,1","3,1,013,1,+999,9",,"SYN060AAXX  21094 08286 42982 00503 10236 20151 30118 40159 53013;",
"08286099999","2010-09-21T12:00:00","4","39.95","-0.0666666","43.5","CASTELLON ALMAZORA, SP","FM-12","99999","V020","120,1,N,0031,1","22000,1,9,N","030000,1,N,1","+0256,1","+0164,1","10159,1","06,0000,9,1",,,,"01,1,+01080,1,09,1","01,99,1,01,1,03,1,01250,1,00,1,00,1",,,,,"99999,9,10119,1","0,1,001,1,+999,9",,"SYN082AAXX  21124 08286 12680 11206 10256 20164 30119 40159 50001 60001 81300 333 81936;","Q01  00002PRCP06"
"08286099999","2010-09-22T06:00:00","4","39.95","-0.0666666","43.5","CASTELLON ALMAZORA, SP","FM-12","99999","V020","290,1,N,0021,1","03600,1,9,N","015000,1,N,1","+0194,1","+0162,1","10191,1","12,0000,9,1","24,0000,9,1",,,,"06,99,1,01,1,05,1,00800,1,01,1,08,1","0630,9","01,9","999,+0180,9","999,N,+0194,1","99999,9,10150,1","4,1,000,1,+999,9",,"SYN106AAXX  22064 08286 12565 62904 10194 20162 30150 40191 54000 60002 81518 333 20194 30018 50254 55105 70000;","Q01  00002PRCP24Q02  00002PRCP12"
"08286099999","2010-09-22T09:00:00","4","39.95","-0.0666666","43.5","CASTELLON ALMAZORA, SP","FM-12","99999","V020","290,1,N,0010,1","03600,1,9,N","025000,1,N,1","+0238,1","+0168,1","10197,1",,,,,,"07,99,1,02,1,02,1,00800,1,07,1,08,1",,,,,"99999,9,10156,1","3,1,006,1,+999,9",,"SYN066AAXX  22094 08286 42575 72902 10238 20168 30156 40197 53006 82278;",
"08286099999","2010-09-22T12:00:00","4","39.95","-0.0666666","43.5","CASTELLON ALMAZORA, SP","FM-12","99999","V020","140,1,N,0026,1","03600,1,9,N","025000,1,N,1","+0274,1","+0137,1","10192,1","06,0000,9,1",,,,,"07,99,1,04,1,02,1,01250,1,04,1,08,1",,,,,"99999,9,10152,1","8,1,004,1,+999,9",,"SYN072AAXX  22124 08286 12675 71405 10274 20137 30152 40192 58004 60001 84248;","Q01  00002PRCP06"
"08286099999","2010-09-23T06:00:00","4","39.95","-0.0666666","43.5","CASTELLON ALMAZORA, SP","FM-12","99999","V020","290,1,N,0015,1","99999,9,9,N","020000,1,N,1","+0202,1","+0170,1","10164,1","12,0000,9,1","24,0000,9,1",,,,"06,99,1,04,1,00,1,99999,9,08,1,05,1","0498,9","01,9","999,+0190,9","999,N,+0200,1","99999,9,10123,1","7,1,010,1,+999,9",,"SYN106AAXX  23064 08286 12970 62903 10202 20170 30123 40164 57010 60002 84085 333 20200 30019 50244 55083 70000;","Q01  00002PRCP24Q02  00002PRCP12"
"08286099999","2010-09-23T09:00:00","4","39.95","-0.0666666","43.5","CASTELLON ALMAZORA, SP","FM-12","99999","V020","030,1,N,0010,1","99999,9,9,N","012000,1,N,1","+0234,1","+0164,1","10160,1",,,,,,"07,99,1,07,1,00,1,99999,9,07,1,08,1",,,,,"99999,9,10119,1","6,1,004,1,+999,9",,"SYN066AAXX  23094 08286 42962 70302 10234 20164 30119 40160 56004 87078;",
"08286099999","2010-09-23T12:00:00","4","39.95","-0.0666666","43.5","CASTELLON ALMAZORA, SP","FM-12","99999","V020","180,1,N,0021,1","99999,9,9,N","012000,1,N,1","+0258,1","+0187,1","10149,1","06,0000,9,1",,,,,"08,99,1,07,1,00,1,99999,9,07,1,08,1",,,,,"99999,9,10109,1","7,1,010,1,+999,9",,"SYN072AAXX  23124 08286 12962 81804 10258 20187 30109 40149 57010 60001 87078;","Q01  00002PRCP06"
"08286099999","2010-09-24T06:00:00","4","39.95","-0.0666666","43.5","CASTELLON ALMAZORA, SP","FM-12","99999","V020","280,1,N,0026,1","99999,9,9,N","035000,1,N,1","+0218,1","+0106,1","10084,1","12,0005,9,1","24,0005,9,1",,,,"06,99,1,06,1,00,1,99999,9,07,1,00,1","0000,9","01,9","999,+0190,9","999,N,+0206,1","99999,9,10043,1","6,1,002,1,+999,9",,"SYN106AAXX  24064 08286 12981 62805 10218 20106 30043 40084 56002 69942 86070 333 20206 30019 50344 55000 70004;",
"08286099999","2010-09-24T09:00:00","4","39.95","-0.0666666","43.5","CASTELLON ALMAZORA, SP","FM-12","99999","V020","300,1,N,0015,1","22000,1,9,N","040000,1,N,1","+0250,1","+0105,1","10099,1",,,,,,"01,99,1,01,1,01,1,01250,1,00,1,00,1",,,,,"99999,9,10059,1","3,1,016,1,+999,9",,"SYN066AAXX  24094 08286 42682 13003 10250 20105 30059 40099 53016 81100;",
"08286099999","2010-09-24T12:00:00","4","39.95","-0.0666666","43.5","CASTELLON ALMAZORA, SP","FM-12","99999","V020","150,1,N,0041,1","22000,1,9,N","040000,1,N,1","+0282,1","+0129,1","10083,1","06,0000,9,1",,,,,"03,99,1,02,1,01,1,01250,1,04,1,00,1",,,,,"99999,9,10043,1","8,1,016,1,+999,9",,"SYN072AAXX  24124 08286 12682 31508 10282 20129 30043 40083 58016 60001 82140;","Q01  00002PRCP06"
"08286099999","2010-09-27T06:00:00","4","39.95","-0.0666666","43.5","CASTELLON ALMAZORA, SP","FM-12","99999","V020","300,1,N,0026,1","22000,1,9,N","040000,1,N,1","+0140,1","+0051,1","10128,1","12,0000,9,1","24,0000,9,1",,,,"02,99,1,01,1,05,1,01250,1,04,1,02,1","0660,9","01,9","999,+0120,9","999,N,+0138,1","99999,9,10086,1","6,1,002,1,+999,9",,"SYN106AAXX  27064 08286 12682 23005 10140 20051 30086 40128 56002 60002 81542 333 20138 30012 50544 55110 70000;","Q01  00002PRCP24Q02  00002PRCP12"
"08286099999","2010-09-27T09:00:00","4","39.95","-0.0666666","43.5","CASTELLON ALMAZORA, SP","FM-12","99999","V020","130,1,N,0021,1","03600,1,9,N","040000,1,N,1","+0196,1","+0095,1","10136,1",,,,,,"06,99,1,01,1,01,1,01250,1,04,1,05,1",,,,,"99999,9,10095,1","3,1,009,1,+999,9",,"SYN066AAXX  27094 08286 42682 61304 10196 20095 30095 40136 53009 81145;",
"08286099999","2010-09-27T12:00:00","4","39.95","-0.0666666","43.5","CASTELLON ALMAZORA, SP","FM-12","99999","V020","120,1,N,0036,1","03600,1,9,N","030000,1,N,1","+0224,1","+0115,1","10134,1","06,0000,9,1",,,,,"07,99,1,02,1,01,1,01250,1,04,1,08,1",,,,,"99999,9,10093,1","8,1,002,1,+999,9",,"SYN072AAXX  27124 08286 12680 71207 10224 20115 30093 40134 58002 60001 82148;","Q01  00002PRCP06"
"08286099999","2010-09-28T06:00:00","4","39.95","-0.0666666","43.5","CASTELLON ALMAZORA, SP","FM-12","99999","V020","290,1,N,0010,1","03600,1,9,N","030000,1,N,1","+0156,1","+0106,1","10146,1","12,0000,9,1","24,0000,9,1",,,,"07,99,1,03,1,05,1,00800,1,05,1,04,1","0396,9","01,9","999,+0140,9","999,N,+0154,1","99999,9,10104,1","3,1,003,1,+999,9",,"SYN106AAXX  28064 08286 12580 72902 10156 20106 30104 40146 53003 60002 83554 333 20154 30014 50294 55066 70000;","Q01  00002PRCP24Q02  00002PRCP12"
"08286099999","2010-09-28T09:00:00","4","39.95","-0.0666666","43.5","CASTELLON ALMAZORA, SP","FM-12","99999","V020","050,1,N,0010,1","99999,9,9,N","030000,1,N,1","+0200,1","+0064,1","10162,1",,,,,,"06,99,1,03,1,00,1,99999,9,03,1,01,1",,,,,"99999,9,10121,1","2,1,017,1,+999,9",,"SYN066AAXX  28094 08286 42980 60502 10200 20064 30121 40162 52017 83031;",
"08286099999","2010-09-28T12:00:00","4","39.95","-0.0666666","43.5","CASTELLON ALMAZORA, SP","FM-12","99999","V020","120,1,N,0026,1","22000,1,9,N","030000,1,N,1","+0232,1","+0089,1","10165,1","06,0000,9,1",,,,,"04,99,1,02,1,01,1,01250,1,03,1,00,1",,,,,"99999,9,10124,1","1,1,003,1,+999,9",,"SYN072AAXX  28124 08286 12680 41205 10232 20089 30124 40165 51003 60001 82130;","Q01  00002PRCP06"
"08286099999","2010-09-29T06:00:00","4","39.95","-0.0666666","43.5","CASTELLON ALMAZORA, SP","FM-12","99999","V020","290,1,N,0036,1","22000,1,9,N","030000,1,N,1","+0148,1","+0094,1","10179,1","12,0000,9,1","24,0000,9,1",,,,"01,99,1,01,1,05,1,00800,1,00,1,00,1","0306,9","01,9","999,+0130,9","999,N,+0146,1","99999,9,10137,1","4,1,000,1,+999,9",,"SYN106AAXX  29064 08286 12580 12907 10148 20094 30137 40179 54000 60002 81500 333 20146 30013 50324 55051 70000;","Q01  00002PRCP24Q02  00002PRCP12"
"08286099999","2010-09-29T09:00:00","4","39.95","-0.0666666","43.5","CASTELLON ALMAZORA, SP","FM-12","99999","V020","290,1,N,0021,1","22000,1,9,N","040000,1,N,1","+0210,1","+0080,1","10181,1",,,,,"00,1,+99999,9,99,9","00,99,1,00,1,00,1,99999,9,00,1,00,1",,,,,"99999,9,10140,1","3,1,003,1,+999,9",,"SYN060AAXX  29094 08286 42982 02904 10210 20080 30140 40181 53003;",
"08286099999","2010-09-29T12:00:00","4","39.95","-0.0666666","43.5","CASTELLON ALMAZORA, SP","FM-12","99999","V020","160,1,N,0026,1","22000,1,9,N","040000,1,N,1","+0260,1","+0128,1","10176,1","06,0000,9,1",,,,,"01,99,1,00,1,00,1,99999,9,00,1,01,1",,,,,"99999,9,10136,1","8,1,004,1,+999,9",,"SYN072AAXX  29124 08286 12982 11605 10260 20128 30136 40176 58004 60001 80001;","Q01  00002PRCP06"
"08286099999","2010-09-30T06:00:00","4","39.95","-0.0666666","43.5","CASTELLON ALMAZORA, SP","FM-12","99999","V020","290,1,N,0026,1","03600,1,9,N","030000,1,N,1","+0160,1","+0082,1","10171,1","12,0000,9,1","24,0000,9,1",,,,"07,99,1,04,1,05,1,00800,1,04,1,00,1","0630,9","01,9","999,+0140,9","999,N,+0158,1","99999,9,10129,1","3,1,001,1,+999,9",,"SYN106AAXX  30064 08286 12580 72905 10160 20082 30129 40171 53001 60002 84540 333 20158 30014 50324 55105 70000;","Q01  00002PRCP24Q02  00002PRCP12"
"08286099999","2010-09-30T09:00:00","4","39.95","-0.0666666","43.5","CASTELLON ALMAZORA, SP","FM-12","99999","V020","260,1,N,0015,1","22000,1,9,N","030000,1,N,1","+0220,1","+0139,1","10175,1",,,,,,"03,99,1,01,1,01,1,01250,1,00,1,01,1",,,,,"99999,9,10134,1","1,1,005,1,+999,9",,"SYN066AAXX  30094 08286 42680 32603 10220 20139 30134 40175 51005 81101;",
"08286099999","2010-09-30T12:00:00","4","39.95","-0.0666666","43.5","CASTELLON ALMAZORA, SP","FM-12","99999","V020","110,1,N,0026,1","22000,1,9,N","025000,1,N,1","+0256,1","+0164,1","10170,1","06,0000,9,1",,,,,"02,99,1,02,1,02,1,01250,1,00,1,00,1",,,,,"99999,9,10130,1","8,1,004,1,+999,9",,"SYN072AAXX  30124 08286 12675 21105 10256 20164 30130 40170 58004 60001 82200;","Q01  00002PRCP06"
"08286099999","2010-10-01T06:00:00","4","39.95","-0.0666666","43.5","CASTELLON ALMAZORA, SP","FM-12","99999","V020","290,1,N,0026,1","03600,1,9,N","015000,1,N,1","+0172,1","+0141,1","10141,1","12,0000,9,1","24,0000,9,1",,,,"06,99,1,03,1,05,1,00800,1,04,1,04,1","0474,9","01,9","999,+0160,9","999,N,+0172,1","99999,9,10100,1","6,1,002,1,+999,9",,"SYN106AAXX  01064 08286 12565 62905 10172 20141 30100 40141 56002 60002 83544 333 20172 30016 50224 55079 70000;","Q01  00002PRCP24Q02  00002PRCP12"
"08286099999","2010-10-01T09:00:00","4","39.95","-0.0666666","43.5","CASTELLON ALMAZORA, SP","FM-12","99999","V020","010,1,N,0005,1","03600,1,9,N","012000,1,N,1","+0210,1","+0155,1","10144,1",,,,,,"06,99,1,02,1,02,1,00800,1,04,1,02,1",,,,,"99999,9,10103,1","3,1,003,1,+999,9",,"SYN066AAXX  01094 08286 42562 60101 10210 20155 30103 40144 53003 82242;",
"08286099999","2010-10-01T12:00:00","4","39.95","-0.0666666","43.5","CASTELLON ALMAZORA, SP","FM-12","99999","V020","160,1,N,0026,1","22000,1,9,N","012000,1,N,1","+0262,1","+0156,1","10139,1","06,0000,9,1",,,,,"02,99,1,02,1,02,1,00800,1,00,1,00,1",,,,,"99999,9,10099,1","8,1,004,1,+999,9",,"SYN072AAXX  01124 08286 12562 21605 10262 20156 30099 40139 58004 60001 82200;","Q01  00002PRCP06"
"08286099999","2010-10-04T06:00:00","4","39.95","-0.0666666","43.5","CASTELLON ALMAZORA, SP","FM-12","99999","V020","250,1,N,0031,1","03600,1,9,N","040000,1,N,1","+0214,1","+0057,1","10018,1","12,0000,9,1","24,0000,9,1",,,,"06,99,1,02,1,05,1,01250,1,08,1,00,1",,"01,9","999,+0190,9","999,N,+0214,1","99999,9,09978,1","3,1,009,1,+999,9",,"SYN106AAXX  04064 08286 12682 62506 10214 20057 39978 40018 53009 60002 82580 333 20214 30019 50264 55/// 70000;","Q01  00002PRCP24Q02  00002PRCP12"
"08286099999","2010-10-04T09:00:00","4","39.95","-0.0666666","43.5","CASTELLON ALMAZORA, SP","FM-12","99999","V020","250,1,N,0031,1","22000,1,9,N","040000,1,N,1","+0204,1","+0087,1","10040,1",,,,,,"04,99,1,01,1,01,1,01250,1,04,1,01,1",,,,,"99999,9,09999,1","2,1,021,1,+999,9",,"SYN066AAXX  04094 08286 42682 42506 10204 20087 39999 40040 52021 81141;",
"08286099999","2010-10-04T12:00:00","4","39.95","-0.0666666","43.5","CASTELLON ALMAZORA, SP","FM-12","99999","V020","280,1,N,0046,1","03600,1,9,N","040000,1,N,1","+0262,1","+0068,1","10043,1","06,0000,9,1",,,,,"06,99,1,01,1,01,1,01250,1,04,1,02,1",,,,,"99999,9,10003,1","1,1,004,1,+999,9",,"SYN072AAXX  04124 08286 12682 62809 10262 20068 30003 40043 51004 60001 81142;","Q01  00002PRCP06"
"08286099999","2010-10-05T06:00:00","4","39.95","-0.0666666","43.5","CASTELLON ALMAZORA, SP","FM-12","99999","V020","290,1,N,0026,1","22000,1,9,N","040000,1,N,1","+0154,1","+0039,1","10128,1","12,0000,9,1","24,0000,9,1",,,"00,1,+99999,9,99,9","00,99,1,00,1,00,1,99999,9,00,1,00,1","0564,9","01,9","999,+0130,9","999,N,+0150,1","99999,9,10086,1","3,1,005,1,+999,9",,"SYN100AAXX  05064 08286 12982 02905 10154 20039 30086 40128 53005 60002 333 20150 30013 50714 55094 70000;","Q01  00002PRCP24Q02  00002PRCP12"
"08286099999","2010-10-05T09:00:00","4","39.95","-0.0666666","43.5","CASTELLON ALMAZORA, SP","FM-12","99999","V020","290,1,N,0015,1","22000,1,9,N","040000,1,N,1","+0206,1","+0062,1","10132,1",,,,,,"02,99,1,00,1,00,1,99999,9,00,1,01,1",,,,,"99999,9,10091,1","1,1,005,1,+999,9",,"SYN066AAXX  05094 08286 42982 22903 10206 20062 30091 40132 51005 80001;",
"08286099999","2010-10-05T12:00:00","4","39.95","-0.0666666","43.5","CASTELLON ALMAZORA, SP","FM-12","99999","V020","150,1,N,0026,1","22000,1,9,N","040000,1,N,1","+0256,1","+0077,1","10129,1","06,0000,9,1",,,,,"03,99,1,00,1,00,1,99999,9,00,1,01,1",,,,,"99999,9,10089,1","8,1,002,1,+999,9",,"SYN072AAXX  05124 08286 12982 31505 10256 20077 30089 40129 58002 60001 80001;","Q01  00002PRCP06"
"08286099999","2010-10-06T06:00:00","4","39.95","-0.0666666","43.5","CASTELLON ALMAZORA, SP","FM-12","99999","V020","290,1,N,0031,1","22000,1,9,N","040000,1,N,1","+0160,1","+0075,1","10106,1","12,0000,9,1","24,0000,9,1",,,,"01,99,1,01,1,05,1,00800,1,04,1,00,1","0642,9","01,9","999,+0140,9","999,N,+0158,1","99999,9,10064,1","4,1,000,1,+999,9",,"SYN106AAXX  06064 08286 12582 12906 10160 20075 30064 40106 54000 60002 81540 333 20158 30014 50474 55107 70000;","Q01  00002PRCP24Q02  00002PRCP12"
"08286099999","2010-10-06T09:00:00","4","39.95","-0.0666666","43.5","CASTELLON ALMAZORA, SP","FM-12","99999","V020","290,1,N,0015,1","22000,1,9,N","040000,1,N,1","+0218,1","+0129,1","10112,1",,,,,,"01,99,1,01,1,01,1,01250,1,00,1,00,1",,,,,"99999,9,10071,1","3,1,007,1,+999,9",,"SYN066AAXX  06094 08286 42682 12903 10218 20129 30071 40112 53007 81100;",
"08286099999","2010-10-06T12:00:00","4","39.95","-0.0666666","43.5","CASTELLON ALMAZORA, SP","FM-12","99999","V020","130,1,N,0026,1","22000,1,9,N","035000,1,N,1","+0254,1","+0160,1","10114,1","06,0000,9,1",,,,,"02,99,1,02,1,02,1,01250,1,00,1,00,1",,,,,"99999,9,10074,1","1,1,003,1,+999,9",,"SYN072AAXX  06124 08286 12681 21305 10254 20160 30074 40114 51003 60001 82200;","Q01  00002PRCP06"
"08286099999","2010-10-07T06:00:00","4","39.95","-0.0666666","43.5","CASTELLON ALMAZORA, SP","FM-12","99999","V020","290,1,N,0021,1","00750,1,9,N","030000,1,N,1","+0198,1","+0130,1","10131,1","12,0000,9,1","24,0000,9,1",,,,"07,99,1,06,1,05,1,00800,1,02,1,00,1","0600,9","01,9","999,+0170,9","999,N,+0188,1","99999,9,10090,1","3,1,001,1,+999,9",,"SYN106AAXX  07064 08286 12580 72904 10198 20130 30090 40131 53001 60002 86520 333 20188 30017 50344 55100 70000;","Q01  00002PRCP24Q02  00002PRCP12"
"08286099999","2010-10-07T09:00:00","4","39.95","-0.0666666","43.5","CASTELLON ALMAZORA, SP","FM-12","99999","V020","050,1,N,0036,1","00750,1,C,N","030000,1,N,1","+0236,1","+0159,1","10138,1",,,,,"03,1,+00780,1,09,1","07,99,1,07,1,03,1,00800,1,00,1,00,1",,,,,"99999,9,10098,1","1,1,008,1,+999,9",,"SYN076AAXX  07094 08286 42580 70507 10236 20159 30098 40138 51008 87300 333 83926;",
"08286099999","2010-10-07T12:00:00","4","39.95","-0.0666666","43.5","CASTELLON ALMAZORA, SP","FM-12","99999","V020","060,1,N,0031,1","03600,1,9,N","020000,1,N,1","+0256,1","+0159,1","10137,1","06,0000,9,1",,,,"02,1,+00900,1,09,1","05,99,1,04,1,03,1,00800,1,04,1,00,1",,,,,"99999,9,10097,1","8,1,001,1,+999,9",,"SYN082AAXX  07124 08286 12570 50606 10256 20159 30097 40137 58001 60001 84340 333 82930;","Q01  00002PRCP06"
"08286099999","2010-10-08T06:00:00","4","39.95","-0.0666666","43.5","CASTELLON ALMAZORA, SP","FM-12","99999","V020","300,1,N,0021,1","00750,1,9,N","025000,1,N,1","+0202,1","+0154,1","10127,1","12,0000,9,1","24,0000,9,1",,,,"07,99,1,07,1,05,1,00800,1,00,1,00,1","0438,9","01,9","999,+0180,9","999,N,+0190,1","99999,9,10086,1","6,1,003,1,+999,9",,"SYN106AAXX  08064 08286 12575 73004 10202 20154 30086 40127 56003 60002 87500 333 20190 30018 50334 55073 70000;","Q01  00002PRCP24Q02  00002PRCP12"
"08286099999","2010-10-08T09:00:00","4","39.95","-0.0666666","43.5","CASTELLON ALMAZORA, SP","FM-12","99999","V020","300,1,N,0010,1","01200,1,9,N","012000,1,N,1","+0230,1","+0170,1","10139,1",,,"5,1,03,1","2,1,03,1",,"07,99,1,07,1,08,1,00800,1,00,1,00,1",,,,,"99999,9,10098,1","1,1,012,1,+999,9","02,1","SYN072AAXX  08094 08286 41562 73002 10230 20170 30098 40139 51012 70252 87800;",
"08286099999","2010-10-08T12:00:00","4","39.95","-0.0666666","43.5","CASTELLON ALMAZORA, SP","FM-12","99999","V020","140,1,N,0026,1","00750,1,C,N","015000,1,N,1","+0274,1","+0181,1","10136,1","06,0000,9,1",,"5,1,06,1","2,1,06,1","02,1,+00900,1,09,1","07,99,1,05,1,03,1,00800,1,04,1,01,1",,,,,"99999,9,10096,1","8,1,002,1,+999,9","02,1","SYN088AAXX  08124 08286 11565 71405 10274 20181 30096 40136 58002 69901 70252 85341 333 82930;","Q01  00002PRCP06"
"08286099999","2010-10-11T06:00:00","4","39.95","-0.0666666","43.5","CASTELLON ALMAZORA, SP","FM-12","99999","V020","290,1,N,0031,1","22000,1,9,N","040000,1,N,1","+0130,1","+0077,1","09975,1","12,0000,9,1","24,0043,9,1",,,,"02,99,1,01,1,05,1,00800,1,04,1,00,1",,"11,9","999,+0110,9","999,N,+0126,1","99999,9,09934,1","4,1,000,1,+999,9",,"SYN106AAXX  11064 08286 12582 22906 10130 20077 39934 49975 54000 60002 81540 333 20126 32011 50184 55/// 70044;","Q01  00002PRCP12"
"08286099999","2010-10-11T09:00:00","4","39.95","-0.0666666","43.5","CASTELLON ALMAZORA, SP","FM-12","99999","V020","260,1,N,0010,1","22000,1,9,N","040000,1,N,1","+0182,1","+0073,1","09989,1",,,,,,"01,99,1,01,1,02,1,01250,1,00,1,00,1",,,,,"99999,9,09948,1","3,1,014,1,+999,9",,"SYN066AAXX  11094 08286 42682 12602 10182 20073 39948 49989 53014 81200;",
"08286099999","2010-10-11T12:00:00","4","39.95","-0.0666666","43.5","CASTELLON ALMAZORA, SP","FM-12","99999","V020","120,1,N,0026,1","22000,1,9,N","040000,1,N,1","+0220,1","+0085,1","09994,1","06,0000,9,1",,,,"02,1,+00990,1,09,1","04,99,1,02,1,03,1,01250,1,04,1,01,1",,,,,"99999,9,09954,1","1,1,006,1,+999,9",,"SYN082AAXX  11124 08286 12682 41205 10220 20085 39954 49994 51006 60001 82341 333 82933;","Q01  00002PRCP06"
"08286099999","2010-11-02T06:00:00","4","39.95","-0.0666666","43.5","CASTELLON ALMAZORA, SP","FM-12","99999","V020","290,1,N,0031,1","22000,1,9,N","040000,1,N,1","+0170,1","+0022,1","10139,1","12,0000,9,1","24,0000,9,1",,,,"01,99,1,01,1,05,1,01250,1,00,1,00,1",,"01,9","999,+0150,9","999,N,+0168,1","99999,9,10097,1","2,1,010,1,+999,9",,"SYN106AAXX  02064 08286 12682 12906 10170 20022 30097 40139 52010 60002 81500 333 20168 30015 50704 55/// 70000;","Q01  00002PRCP24Q02  00002PRCP12"
"08286099999","2010-11-02T09:00:00","4","39.95","-0.0666666","43.5","CASTELLON ALMAZORA, SP","FM-12","99999","V020","330,1,N,0026,1","22000,1,9,N","040000,1,N,1","+0194,1","+0040,1","10156,1",,,,,,"01,99,1,01,1,01,1,01250,1,00,1,04,1",,,,,"99999,9,10115,1","2,1,018,1,+999,9",,"SYN066AAXX  02094 08286 42682 13305 10194 20040 30115 40156 52018 81104;",
"08286099999","2010-11-02T12:00:00","4","39.95","-0.0666666","43.5","CASTELLON ALMAZORA, SP","FM-12","99999","V020","030,1,N,0036,1","22000,1,9,N","040000,1,N,1","+0226,1","+0046,1","10160,1","06,0000,9,1",,,,,"01,99,1,00,1,00,1,99999,9,00,1,02,1",,,,,"99999,9,10119,1","1,1,004,1,+999,9",,"SYN072AAXX  02124 08286 12982 10307 10226 20046 30119 40160 51004 60001 80002;","Q01  00002PRCP06"
"08286099999","2010-11-03T06:00:00","4","39.95","-0.0666666","43.5","CASTELLON ALMAZORA, SP","FM-12","99999","V020","290,1,N,0026,1","22000,1,9,N","040000,1,N,1","+0130,1","+0052,1","10202,1","12,0000,9,1","24,0000,9,1",,,,"01,99,1,01,1,05,1,00800,1,00,1,00,1","0606,9","01,9","999,+0110,9","999,N,+0128,1","99999,9,10160,1","3,1,008,1,+999,9",,"SYN106AAXX  03064 08286 12582 12905 10130 20052 30160 40202 53008 60002 81500 333 20128 30011 50574 55101 70000;","Q01  00002PRCP24Q02  00002PRCP12"
"08286099999","2010-11-03T09:00:00","4","39.95","-0.0666666","43.5","CASTELLON ALMAZORA, SP","FM-12","99999","V020","290,1,N,0021,1","22000,1,9,N","040000,1,N,1","+0180,1","+0071,1","10221,1",,,,,,"01,99,1,01,1,00,1,99999,9,04,1,01,1",,,,,"99999,9,10179,1","2,1,019,1,+999,9",,"SYN066AAXX  03094 08286 42982 12904 10180 20071 30179 40221 52019 81041;",
"08286099999","2010-11-03T12:00:00","4","39.95","-0.0666666","43.5","CASTELLON ALMAZORA, SP","FM-12","99999","V020","170,1,N,0026,1","22000,1,9,N","040000,1,N,1","+0226,1","+0083,1","10223,1","06,0000,9,1",,,,,"01,99,1,01,1,00,1,99999,9,04,1,01,1",,,,,"99999,9,10182,1","0,1,003,1,+999,9",,"SYN072AAXX  03124 08286 12982 11705 10226 20083 30182 40223 50003 60001 81041;","Q01  00002PRCP06"
"08286099999","2010-11-04T06:00:00","4","39.95","-0.0666666","43.5","CASTELLON ALMAZORA, SP","FM-12","99999","V020","300,1,N,0031,1","22000,1,9,N","030000,1,N,1","+0134,1","+0070,1","10273,1","12,0000,9,1","24,0000,9,1",,,"00,1,+99999,9,99,9","00,99,1,00,1,00,1,99999,9,00,1,00,1","0600,9","01,9","999,+0120,9","999,N,+0130,1","99999,9,10230,1","2,1,010,1,+999,9",,"SYN100AAXX  04064 08286 12980 03006 10134 20070 30230 40273 52010 60002 333 20130 30012 50324 55100 70000;","Q01  00002PRCP24Q02  00002PRCP12"
"08286099999","2010-11-04T12:00:00","4","39.95","-0.0666666","43.5","CASTELLON ALMAZORA, SP","FM-12","99999","V020","130,1,N,0031,1","22000,1,9,N","040000,1,N,1","+0220,1","+0114,1","10282,1","06,0000,9,1",,,,,"01,99,1,01,1,00,1,99999,9,04,1,00,1",,,,,"99999,9,10241,1","0,1,001,1,+999,9",,"SYN072AAXX  04124 08286 12982 11306 10220 20114 30241 40282 50001 60001 81040;","Q01  00002PRCP06"
"08286099999","2010-11-05T06:00:00","4","39.95","-0.0666666","43.5","CASTELLON ALMAZORA, SP","FM-12","99999","V020","330,1,N,0015,1","22000,1,9,N","020000,1,N,1","+0134,1","+0095,1","10279,1","12,0000,9,1","24,0000,9,1",,,,"02,99,1,01,1,05,1,00800,1,03,1,00,1","0600,9","01,9","999,+0100,9","999,N,+0132,1","99999,9,10236,1","6,1,003,1,+999,9",,"SYN106AAXX  05064 08286 12570 23303 10134 20095 30236 40279 56003 60002 81530 333 20132 30010 50244 55100 70000;","Q01  00002PRCP24Q02  00002PRCP12"
"08286099999","2010-11-05T09:00:00","4","39.95","-0.0666666","43.5","CASTELLON ALMAZORA, SP","FM-12","99999","V020","290,1,N,0010,1","01200,1,9,N","025000,1,N,1","+0162,1","+0107,1","10286,1",,,,,,"06,99,1,06,1,05,1,01250,1,00,1,00,1",,,,,"99999,9,10244,1","3,1,008,1,+999,9",,"SYN066AAXX  05094 08286 42675 62902 10162 20107 30244 40286 53008 86500;",
"08286099999","2010-11-05T12:00:00","4","39.95","-0.0666666","43.5","CASTELLON ALMAZORA, SP","FM-12","99999","V020","090,1,N,0026,1","22000,1,9,N","015000,1,N,1","+0210,1","+0132,1","10281,1","06,0000,9,1",,,,,"02,99,1,02,1,02,1,01250,1,00,1,00,1",,,,,"99999,9,10240,1","8,1,004,1,+999,9",,"SYN072AAXX  05124 08286 12665 20905 10210 20132 30240 40281 58004 60001 82200;","Q01  00002PRCP06"
"08286099999","2010-11-08T06:00:00","4","39.95","-0.0666666","43.5","CASTELLON ALMAZORA, SP","FM-12","99999","V020","270,1,N,0010,1","00750,1,9,N","030000,1,N,1","+0114,1","+0008,1","10006,1","12,0000,9,1","24,0000,9,1",,,,"06,99,1,06,1,05,1,00800,1,00,1,00,1",,"01,9","999,+0080,9","999,N,+0090,1","99999,9,09964,1","7,1,030,1,+999,9",,"SYN106AAXX  08064 08286 12580 62702 10114 20008 39964 40006 57030 60002 86500 333 20090 30008 50204 55/// 70001;","Q01  00002PRCP24Q02  00002PRCP12"
"08286099999","2010-11-08T09:00:00","4","39.95","-0.0666666","43.5","CASTELLON ALMAZORA, SP","FM-12","99999","V020","210,1,N,0026,1","01200,1,9,N","040000,1,N,1","+0112,1","+0015,1","10000,1",,,,,,"08,99,1,06,1,07,1,01250,1,02,1,00,1",,,,,"99999,9,09958,1","7,1,006,1,+999,9",,"SYN066AAXX  08094 08286 42682 82105 10112 20015 39958 40000 57006 86720;",
"08286099999","2010-11-08T12:00:00","4","39.95","-0.0666666","43.5","CASTELLON ALMAZORA, SP","FM-12","99999","V020","190,1,N,0026,1","01200,1,9,N","040000,1,N,1","+0138,1","+0036,1","09950,1","06,0000,9,1",,,,,"07,99,1,06,1,07,1,01250,1,02,1,00,1",,,,,"99999,9,09909,1","7,1,049,1,+999,9",,"SYN072AAXX  08124 08286 12682 71905 10138 20036 39909 49950 57049 60001 86720;","Q01  00002PRCP06"
"08286099999","2010-11-09T06:00:00","4","39.95","-0.0666666","43.5","CASTELLON ALMAZORA, SP","FM-12","99999","V020","230,1,N,0021,1","99999,9,9,N","030000,1,N,1","+0128,1","+0062,1","09868,1","12,0000,9,1","24,0000,9,1",,,,"06,99,1,06,1,00,1,99999,9,04,1,00,1","0240,9","01,9","999,+0100,9","999,N,+0126,1","99999,9,09827,1","7,1,006,1,+999,9",,"SYN106AAXX  09064 08286 12980 62304 10128 20062 39827 49868 57006 60002 86040 333 20126 30010 50324 55040 70000;","Q01  00002PRCP24Q02  00002PRCP12"
"08286099999","2010-11-09T09:00:00","4","39.95","-0.0666666","43.5","CASTELLON ALMAZORA, SP","FM-12","99999","V020","230,1,N,0036,1","22000,1,9,N","040000,1,N,1","+0156,1","+0074,1","09874,1",,,,,,"02,99,1,02,1,08,1,01250,1,00,1,00,1",,,,,"99999,9,09833,1","3,1,006,1,+999,9",,"SYN066AAXX  09094 08286 42682 22307 10156 20074 39833 49874 53006 82800;",
"08286099999","2010-11-09T12:00:00","4","39.95","-0.0666666","43.5","CASTELLON ALMAZORA, SP","FM-12","99999","V020","280,1,N,0041,1","22000,1,9,N","040000,1,N,1","+0204,1","+0036,1","09868,1","06,0000,9,1",,,,,"03,99,1,03,1,02,1,01250,1,00,1,00,1",,,,,"99999,9,09828,1","7,1,005,1,+999,9",,"SYN072AAXX  09124 08286 12682 32808 10204 20036 39828 49868 57005 60001 83200;","Q01  00002PRCP06"
"08286099999","2010-11-10T06:00:00","4","39.95","-0.0666666","43.5","CASTELLON ALMAZORA, SP","FM-12","99999","V020","250,1,N,0015,1","22000,1,9,N","030000,1,N,1","+0140,1","-0001,1","09975,1","12,0000,9,1","24,0000,9,1",,,,"01,99,1,01,1,05,1,01250,1,00,1,00,1","0498,9","01,9","999,+0110,9","999,N,+0138,1","99999,9,09934,1","2,1,026,1,+999,9",,"SYN106AAXX  10064 08286 12680 12503 10140 21001 39934 49975 52026 60002 81500 333 20138 30011 50604 55083 70000;","Q01  00002PRCP24Q02  00002PRCP12"
"08286099999","2010-11-10T09:00:00","4","39.95","-0.0666666","43.5","CASTELLON ALMAZORA, SP","FM-12","99999","V020","250,1,N,0026,1","22000,1,9,N","040000,1,N,1","+0154,1","+0015,1","10012,1",,,,,,"01,99,1,01,1,01,1,01250,1,04,1,00,1",,,,,"99999,9,09971,1","2,1,037,1,+999,9",,"SYN066AAXX  10094 08286 42682 12505 10154 20015 39971 40012 52037 81140;",
"08286099999","2010-11-10T12:00:00","4","39.95","-0.0666666","43.5","CASTELLON ALMAZORA, SP","FM-12","99999","V020","280,1,N,0051,1","22000,1,9,N","040000,1,N,1","+0200,1","+0019,1","10031,1","06,0000,9,1",,,,,"02,99,1,02,1,01,1,01250,1,00,1,00,1",,,,,"99999,9,09990,1","2,1,019,1,+999,9",,"SYN072AAXX  10124 08286 12682 22810 10200 20019 39990 40031 52019 60001 82100;","Q01  00002PRCP06"
"08286099999","2010-11-11T06:00:00","4","39.95","-0.0666666","43.5","CASTELLON ALMAZORA, SP","FM-12","99999","V020","290,1,N,0021,1","22000,1,9,N","040000,1,N,1","+0084,1","-0014,1","10178,1","12,0000,9,1","24,0000,9,1",,,,"03,99,1,01,1,00,1,99999,9,04,1,05,1","0558,9","01,9","999,+0060,9","999,N,+0080,1","99999,9,10135,1","2,1,018,1,+999,9",,"SYN106AAXX  11064 08286 12982 32904 10084 21014 30135 40178 52018 60002 81045 333 20080 30006 50564 55093 70000;","Q01  00002PRCP24Q02  00002PRCP12"
"08286099999","2010-11-11T09:00:00","4","39.95","-0.0666666","43.5","CASTELLON ALMAZORA, SP","FM-12","99999","V020","010,1,N,0010,1","22000,1,9,N","040000,1,N,1","+0120,1","+0011,1","10197,1",,,,,,"01,99,1,01,1,00,1,99999,9,03,1,00,1",,,,,"99999,9,10154,1","2,1,019,1,+999,9",,"SYN066AAXX  11094 08286 42982 10102 10120 20011 30154 40197 52019 81030;",
"08286099999","2010-11-11T12:00:00","4","39.95","-0.0666666","43.5","CASTELLON ALMAZORA, SP","FM-12","99999","V020","150,1,N,0015,1","22000,1,9,N","040000,1,N,1","+0186,1","+0040,1","10194,1","06,0000,9,1",,,,,"01,99,1,01,1,00,1,99999,9,04,1,00,1",,,,,"99999,9,10152,1","8,1,002,1,+999,9",,"SYN072AAXX  11124 08286 12982 11503 10186 20040 30152 40194 58002 60001 81040;","Q01  00002PRCP06"
"08286099999","2010-11-12T06:00:00","4","39.95","-0.0666666","43.5","CASTELLON ALMAZORA, SP","FM-12","99999","V020","290,1,N,0031,1","22000,1,9,N","030000,1,N,1","+0116,1","+0036,1","10196,1","12,0000,9,1","24,0000,9,1",,,"00,1,+99999,9,99,9","00,99,1,00,1,00,1,99999,9,00,1,00,1","0588,9","01,9","999,+0090,9","999,N,+0114,1","99999,9,10153,1","6,1,004,1,+999,9",,"SYN100AAXX  12064 08286 12980 02906 10116 20036 30153 40196 56004 60002 333 20114 30009 50304 55098 70000;","Q01  00002PRCP24Q02  00002PRCP12"
"08286099999","2010-11-12T09:00:00","4","39.95","-0.0666666","43.5","CASTELLON ALMAZORA, SP","FM-12","99999","V020","290,1,N,0031,1","22000,1,9,N","040000,1,N,1","+0166,1","+0061,1","10199,1",,,,,,"01,99,1,01,1,00,1,99999,9,04,1,05,1",,,,,"99999,9,10157,1","3,1,004,1,+999,9",,"SYN066AAXX  12094 08286 42982 12906 10166 20061 30157 40199 53004 81045;",
"08286099999","2010-11-12T12:00:00","4","39.95","-0.0666666","43.5","CASTELLON ALMAZORA, SP","FM-12","99999","V020","170,1,N,0026,1","22000,1,9,N","040000,1,N,1","+0226,1","+0083,1","10188,1","06,0000,9,1",,,,,"01,99,1,01,1,00,1,99999,9,04,1,05,1",,,,,"99999,9,10147,1","8,1,010,1,+999,9",,"SYN072AAXX  12124 08286 12982 11705 10226 20083 30147 40188 58010 60001 81045;","Q01  00002PRCP06"
"08286099999","2010-11-15T06:00:00","4","39.95","-0.0666666","43.5","CASTELLON ALMAZORA, SP","FM-12","99999","V020","300,1,N,0036,1","22000,1,9,N","030000,1,N,1","+0124,1","+0041,1","10102,1","12,0010,9,1","24,0013,9,1","8,1,06,1","1,1,06,1",,"03,99,1,02,1,05,1,01250,1,02,1,00,1",,"09,9","999,+0110,9","999,N,+0124,1","99999,9,10060,1","2,1,022,1,+999,9","02,1","SYN112AAXX  15064 08286 11680 33007 10124 20041 30060 40102 52022 60012 70281 82520 333 20124 31011 50164 55/// 70012;",
"08286099999","2010-11-15T09:00:00","4","39.95","-0.0666666","43.5","CASTELLON ALMAZORA, SP","FM-12","99999","V020","280,1,N,0036,1","22000,1,9,N","040000,1,N,1","+0144,1","+0017,1","10130,1",,,,,,"01,99,1,01,1,05,1,01250,1,00,1,00,1",,,,,"99999,9,10088,1","2,1,028,1,+999,9",,"SYN066AAXX  15094 08286 42682 12807 10144 20017 30088 40130 52028 81500;",
"08286099999","2010-11-15T12:00:00","4","39.95","-0.0666666","43.5","CASTELLON ALMAZORA, SP","FM-12","99999","V020","280,1,N,0057,1","22000,1,9,N","040000,1,N,1","+0174,1","-0028,1","10137,1","06,0000,9,1",,,,,"01,99,1,01,1,01,1,01250,1,00,1,00,1",,,,,"99999,9,10095,1","1,1,007,1,+999,9",,"SYN072AAXX  15124 08286 12682 12811 10174 21028 30095 40137 51007 60001 81100;","Q01  00002PRCP06"
"08286099999","2010-11-16T06:00:00","4","39.95","-0.0666666","43.5","CASTELLON ALMAZORA, SP","FM-12","99999","V020","280,1,N,0021,1","22000,1,9,N","030000,1,N,1","+0122,1","-0032,1","10195,1","12,0000,9,1","24,0000,9,1",,,,"01,99,1,01,1,00,1,99999,9,04,1,00,1","0576,9","01,9","999,+0080,9","999,N,+0110,1","99999,9,10152,1","4,1,000,1,+999,9",,"SYN106AAXX  16064 08286 12980 12804 10122 21032 30152 40195 54000 60002 81040 333 20110 30008 50554 55096 70000;","Q01  00002PRCP24Q02  00002PRCP12"
"08286099999","2010-11-16T09:00:00","4","39.95","-0.0666666","43.5","CASTELLON ALMAZORA, SP","FM-12","99999","V020","280,1,N,0026,1","22000,1,9,N","040000,1,N,1","+0142,1","-0010,1","10205,1",,,,,,"02,99,1,01,1,00,1,99999,9,04,1,05,1",,,,,"99999,9,10163,1","3,1,011,1,+999,9",,"SYN066AAXX  16094 08286 42982 22805 10142 21010 30163 40205 53011 81045;",
"08286099999","2010-11-16T12:00:00","4","39.95","-0.0666666","43.5","CASTELLON ALMAZORA, SP","FM-12","99999","V020","270,1,N,0031,1","22000,1,9,N","040000,1,N,1","+0196,1","+0001,1","10190,1","06,0000,9,1",,,,,"02,99,1,01,1,01,1,01250,1,00,1,05,1",,,,,"99999,9,10149,1","8,1,014,1,+999,9",,"SYN072AAXX  16124 08286 12682 22706 10196 20001 30149 40190 58014 60001 81105;","Q01  00002PRCP06"
"08286099999","2010-11-17T06:00:00","4","39.95","-0.0666666","43.5","CASTELLON ALMAZORA, SP","FM-12","99999","V020","290,1,N,0021,1","01200,1,9,N","030000,1,N,1","+0102,1","-0021,1","10104,1","12,0000,9,1","24,0000,9,1",,,,"07,99,1,05,1,05,1,01250,1,07,1,00,1","0564,9","01,9","999,+0060,9","999,N,+0076,1","99999,9,10062,1","7,1,016,1,+999,9",,"SYN106AAXX  17064 08286 12680 72904 10102 21021 30062 40104 57016 60002 85570 333 20076 30006 50544 55094 70000;","Q01  00002PRCP24Q02  00002PRCP12"
"08286099999","2010-11-17T09:00:00","4","39.95","-0.0666666","43.5","CASTELLON ALMAZORA, SP","FM-12","99999","V020","310,1,N,0010,1","01200,1,9,N","030000,1,N,1","+0122,1","+0000,1","10096,1",,,,,,"07,99,1,06,1,07,1,01250,1,02,1,00,1",,,,,"99999,9,10054,1","6,1,008,1,+999,9",,"SYN066AAXX  17094 08286 42680 73102 10122 20000 30054 40096 56008 86720;",
"08286099999","2010-11-17T12:00:00","4","39.95","-0.0666666","43.5","CASTELLON ALMAZORA, SP","FM-12","99999","V020","290,1,N,0026,1","00750,1,9,N","020000,1,N,1","+0122,1","+0063,1","10092,1","06,0010,9,1",,"6,1,06,1","2,1,06,1",,"08,99,1,08,1,07,1,00800,1,99,9,99,9",,,,,"99999,9,10050,1","8,1,004,1,+999,9","61,1","SYN078AAXX  17124 08286 11570 82905 10122 20063 30050 40092 58004 69991 76162 887//;",
"08286099999","2010-11-18T06:00:00","4","39.95","-0.0666666","43.5","CASTELLON ALMAZORA, SP","FM-12","99999","V020","310,1,N,0015,1","22000,1,9,N","030000,1,N,1","+0068,1","+0005,1","10124,1","12,0000,9,1","24,0010,9,1",,,,"01,99,1,01,1,05,1,01250,1,00,1,00,1","0096,9","01,9","999,+0040,9","999,N,+0064,1","99999,9,10081,1","3,1,010,1,+999,9",,"SYN106AAXX  18064 08286 12680 13103 10068 20005 30081 40124 53010 60002 81500 333 20064 30004 50184 55016 70009;","Q01  00002PRCP12"
"08286099999","2010-11-18T09:00:00","4","39.95","-0.0666666","43.5","CASTELLON ALMAZORA, SP","FM-12","99999","V020","310,1,N,0010,1","22000,1,9,N","040000,1,N,1","+0110,1","+0018,1","10143,1",,,,,"00,1,+99999,9,99,9","00,99,1,00,1,00,1,99999,9,00,1,00,1",,,,,"99999,9,10101,1","2,1,020,1,+999,9",,"SYN060AAXX  18094 08286 42982 03102 10110 20018 30101 40143 52020;",
"08286099999","2010-11-18T12:00:00","4","39.95","-0.0666666","43.5","CASTELLON ALMAZORA, SP","FM-12","99999","V020","240,1,N,0026,1","22000,1,9,N","040000,1,N,1","+0176,1","+0003,1","10141,1","06,0000,9,1",,,,,"01,99,1,01,1,01,1,01250,1,00,1,00,1",,,,,"99999,9,10099,1","8,1,002,1,+999,9",,"SYN072AAXX  18124 08286 12682 12405 10176 20003 30099 40141 58002 60001 81100;","Q01  00002PRCP06"
"08286099999","2010-11-19T06:00:00","4","39.95","-0.0666666","43.5","CASTELLON ALMAZORA, SP","FM-12","99999","V020","290,1,N,0036,1","03600,1,9,N","030000,1,N,1","+0092,1","-0009,1","10171,1","12,0000,9,1","24,0000,9,1",,,,"07,99,1,01,1,05,1,01250,1,02,1,00,1","0552,9","01,9","999,+0060,9","999,N,+0086,1","99999,9,10128,1","8,1,004,1,+999,9",,"SYN106AAXX  19064 08286 12680 72907 10092 21009 30128 40171 58004 60002 81520 333 20086 30006 50324 55092 70000;","Q01  00002PRCP24Q02  00002PRCP12"
"08286099999","2010-11-19T09:00:00","4","39.95","-0.0666666","43.5","CASTELLON ALMAZORA, SP","FM-12","99999","V020","290,1,N,0026,1","99999,9,9,N","040000,1,N,1","+0108,1","-0016,1","10183,1",,,,,,"08,99,1,08,1,00,1,99999,9,07,1,99,9",,,,,"99999,9,10140,1","3,1,012,1,+999,9",,"SYN066AAXX  19094 08286 42982 82905 10108 21016 30140 40183 53012 8807/;",
"08286099999","2010-11-19T12:00:00","4","39.95","-0.0666666","43.5","CASTELLON ALMAZORA, SP","FM-12","99999","V020","290,1,N,0021,1","99999,9,9,N","040000,1,N,1","+0126,1","+0022,1","10176,1","06,0000,9,1",,,,,"08,99,1,08,1,00,1,99999,9,07,1,99,9",,,,,"99999,9,10134,1","8,1,006,1,+999,9",,"SYN072AAXX  19124 08286 12982 82904 10126 20022 30134 40176 58006 60001 8807/;","Q01  00002PRCP06"
"08286099999","2010-11-22T06:00:00","4","39.95","-0.0666666","43.5","CASTELLON ALMAZORA, SP","FM-12","99999","V020","310,1,N,0015,1","01200,1,9,N","030000,1,N,1","+0094,1","+0003,1","10038,1","12,0000,9,1","24,0000,9,1",,,,"07,99,1,06,1,05,1,01250,1,04,1,00,1",,"01,9","999,+0080,9","999,N,+0094,1","99999,9,09996,1","7,1,010,1,+999,9",,"SYN106AAXX  22064 08286 12680 73103 10094 20003 39996 40038 57010 60002 86540 333 20094 30008 50384 55/// 70000;","Q01  00002PRCP24Q02  00002PRCP12"
"08286099999","2010-11-22T09:00:00","4","39.95","-0.0666666","43.5","CASTELLON ALMAZORA, SP","FM-12","99999","V020","280,1,N,0026,1","22000,1,9,N","040000,1,N,1","+0134,1","+0014,1","10052,1",,,,,,"01,99,1,01,1,00,1,99999,9,04,1,02,1",,,,,"99999,9,10010,1","3,1,014,1,+999,9",,"SYN066AAXX  22094 08286 42982 12805 10134 20014 30010 40052 53014 81042;",
"08286099999","2010-11-22T12:00:00","4","39.95","-0.0666666","43.5","CASTELLON ALMAZORA, SP","FM-12","99999","V020","260,1,N,0021,1","22000,1,9,N","040000,1,N,1","+0182,1","+0008,1","10051,1","06,0000,9,1",,,,,"01,99,1,01,1,01,1,01250,1,04,1,00,1",,,,,"99999,9,10010,1","0,1,000,1,+999,9",,"SYN072AAXX  22124 08286 12682 12604 10182 20008 30010 40051 50000 60001 81140;","Q01  00002PRCP06"
"08286099999","2010-11-23T06:00:00","4","39.95","-0.0666666","43.5","CASTELLON ALMAZORA, SP","FM-12","99999","V020","290,1,N,0031,1","22000,1,9,N","030000,1,N,1","+0072,1","-0022,1","10097,1","12,0000,9,1","24,0000,9,1",,,,"02,99,1,01,1,05,1,01250,1,04,1,00,1","0552,9","01,9","999,+0050,9","999,N,+0068,1","99999,9,10054,1","4,1,000,1,+999,9",,"SYN106AAXX  23064 08286 12680 22906 10072 21022 30054 40097 54000 60002 81540 333 20068 30005 50464 55092 70000;","Q01  00002PRCP24Q02  00002PRCP12"
"08286099999","2010-11-23T09:00:00","4","39.95","-0.0666666","43.5","CASTELLON ALMAZORA, SP","FM-12","99999","V020","290,1,N,0026,1","22000,1,9,N","040000,1,N,1","+0106,1","-0002,1","10103,1",,,,,,"04,99,1,01,1,00,1,99999,9,04,1,02,1",,,,,"99999,9,10061,1","3,1,007,1,+999,9",,"SYN066AAXX  23094 08286 42982 42905 10106 21002 30061 40103 53007 81042;",
"08286099999","2010-11-23T12:00:00","4","39.95","-0.0666666","43.5","CASTELLON ALMAZORA, SP","FM-12","99999","V020","290,1,N,0031,1","22000,1,9,N","040000,1,N,1","+0174,1","+0010,1","10101,1","06,0000,9,1",,,,,"02,99,1,01,1,01,1,01250,1,03,1,00,1",,,,,"99999,9,10060,1","8,1,001,1,+999,9",,"SYN072AAXX  23124 08286 12682 22906 10174 20010 30060 40101 58001 60001 81130;","Q01  00002PRCP06"
"08286099999","2010-11-24T06:00:00","4","39.95","-0.0666666","43.5","CASTELLON ALMAZORA, SP","FM-12","99999","V020","300,1,N,0021,1","03600,1,9,N","030000,1,N,1","+0094,1","+0001,1","10112,1","12,0000,9,1","24,0000,9,1",,,,"06,99,1,01,1,05,1,01250,1,05,1,00,1","0558,9","01,9","999,+0070,9","999,N,+0090,1","99999,9,10069,1","4,1,000,1,+999,9",,"SYN106AAXX  24064 08286 12680 63004 10094 20001 30069 40112 54000 60002 81550 333 20090 30007 50384 55093 70000;","Q01  00002PRCP24Q02  00002PRCP12"
"08286099999","2010-11-24T09:00:00","4","39.95","-0.0666666","43.5","CASTELLON ALMAZORA, SP","FM-12","99999","V020","290,1,N,0021,1","22000,1,9,N","040000,1,N,1","+0118,1","+0012,1","10126,1",,,,,,"01,99,1,01,1,00,1,99999,9,04,1,00,1",,,,,"99999,9,10084,1","3,1,015,1,+999,9",,"SYN066AAXX  24094 08286 42982 12904 10118 20012 30084 40126 53015 81040;",
"08286099999","2010-11-24T12:00:00","4","39.95","-0.0666666","43.5","CASTELLON ALMAZORA, SP","FM-12","99999","V020","180,1,N,0031,1","22000,1,9,N","040000,1,N,1","+0168,1","+0031,1","10124,1","06,0000,9,1",,,,,"01,99,1,01,1,01,1,01250,1,00,1,00,1",,,,,"99999,9,10082,1","8,1,002,1,+999,9",,"SYN072AAXX  24124 08286 12682 11806 10168 20031 30082 40124 58002 60001 81100;","Q01  00002PRCP06"
"08286099999","2010-11-25T06:00:00","4","39.95","-0.0666666","43.5","CASTELLON ALMAZORA, SP","FM-12","99999","V020","300,1,N,0026,1","01200,1,9,N","030000,1,N,1","+0080,1","+0007,1","10125,1","12,0000,9,1","24,0000,9,1",,,,"06,99,1,06,1,05,1,01250,1,00,1,00,1","0558,9","01,9","999,+0050,9","999,N,+0070,1","99999,9,10082,1","7,1,007,1,+999,9",,"SYN106AAXX  25064 08286 12680 63005 10080 20007 30082 40125 57007 60002 86500 333 20070 30005 50304 55093 70000;","Q01  00002PRCP24Q02  00002PRCP12"
"08286099999","2010-11-25T09:00:00","4","39.95","-0.0666666","43.5","CASTELLON ALMAZORA, SP","FM-12","99999","V020","300,1,N,0026,1","01200,1,9,N","040000,1,N,1","+0094,1","+0006,1","10124,1",,,,,,"07,99,1,07,1,05,1,01250,1,00,1,00,1",,,,,"99999,9,10081,1","6,1,001,1,+999,9",,"SYN066AAXX  25094 08286 42682 73005 10094 20006 30081 40124 56001 87500;",
"08286099999","2010-11-25T12:00:00","4","39.95","-0.0666666","43.5","CASTELLON ALMAZORA, SP","FM-12","99999","V020","180,1,N,0036,1","22000,1,9,N","035000,1,N,1","+0154,1","+0048,1","10102,1","06,0000,9,1",,,,,"01,99,1,01,1,01,1,01250,1,00,1,00,1",,,,,"99999,9,10060,1","8,1,021,1,+999,9",,"SYN072AAXX  25124 08286 12681 11807 10154 20048 30060 40102 58021 60001 81100;","Q01  00002PRCP06"
"08286099999","2010-11-26T06:00:00","4","39.95","-0.0666666","43.5","CASTELLON ALMAZORA, SP","FM-12","99999","V020","310,1,N,0015,1","22000,1,9,N","030000,1,N,1","+0056,1","-0025,1","10107,1","12,0000,9,1","24,0000,9,1",,,"00,1,+99999,9,99,9","00,99,1,00,1,00,1,99999,9,00,1,00,1","0396,9","01,9","999,+0030,9","999,N,+0048,1","99999,9,10064,1","4,1,000,1,+999,9",,"SYN100AAXX  26064 08286 12980 03103 10056 21025 30064 40107 54000 60002 333 20048 30003 50224 55066 70000;","Q01  00002PRCP24Q02  00002PRCP12"
"08286099999","2010-11-26T09:00:00","4","39.95","-0.0666666","43.5","CASTELLON ALMAZORA, SP","FM-12","99999","V020","290,1,N,0026,1","22000,1,9,N","040000,1,N,1","+0086,1","-0021,1","10114,1",,,,,,"01,99,1,01,1,00,1,99999,9,04,1,05,1",,,,,"99999,9,10071,1","3,1,007,1,+999,9",,"SYN066AAXX  26094 08286 42982 12905 10086 21021 30071 40114 53007 81045;",
"08286099999","2010-11-26T12:00:00","4","39.95","-0.0666666","43.5","CASTELLON ALMAZORA, SP","FM-12","99999","V020","200,1,N,0021,1","22000,1,9,N","040000,1,N,1","+0138,1","-0030,1","10103,1","06,0000,9,1",,,,,"01,99,1,00,1,00,1,99999,9,00,1,05,1",,,,,"99999,9,10061,1","8,1,010,1,+999,9",,"SYN072AAXX  26124 08286 12982 12004 10138 21030 30061 40103 58010 60001 80005;","Q01  00002PRCP06"
"08286099999","2010-11-29T06:00:00","4","39.95","-0.0666666","43.5","CASTELLON ALMAZORA, SP","FM-12","99999","V020","290,1,N,0031,1","99999,9,9,N","030000,1,N,1","+0042,1","-0048,1","10075,1","12,0000,9,1","24,0000,9,1",,,,"07,99,1,07,1,00,1,99999,9,05,1,00,1",,"01,9","999,+0020,9","999,N,+0036,1","99999,9,10032,1","8,1,009,1,+999,9",,"SYN106AAXX  29064 08286 12980 72906 10042 21048 30032 40075 58009 60002 87050 333 20036 30002 50244 55/// 70000;","Q01  00002PRCP24Q02  00002PRCP12"
"08286099999","2010-11-29T09:00:00","4","39.95","-0.0666666","43.5","CASTELLON ALMAZORA, SP","FM-12","99999","V020","290,1,N,0031,1","03600,1,9,N","040000,1,N,1","+0058,1","-0038,1","10075,1",,,,,,"08,99,1,01,1,05,1,00800,1,02,1,99,9",,,,,"99999,9,10032,1","4,1,000,1,+999,9",,"SYN066AAXX  29094 08286 42582 82906 10058 21038 30032 40075 54000 8152/;",
"08286099999","2010-11-29T12:00:00","4","39.95","-0.0666666","43.5","CASTELLON ALMAZORA, SP","FM-12","99999","V020","290,1,N,0015,1","01500,1,9,N","030000,1,N,1","+0094,1","-0016,1","10051,1","06,0000,9,1",,,,,"08,99,1,06,1,08,1,01250,1,02,1,99,9",,,,,"99999,9,10009,1","8,1,023,1,+999,9",,"SYN072AAXX  29124 08286 12680 82903 10094 21016 30009 40051 58023 60001 8682/;","Q01  00002PRCP06"
"08286099999","2010-11-30T06:00:00","4","39.95","-0.0666666","43.5","CASTELLON ALMAZORA, SP","FM-12","99999","V020","290,1,N,0021,1","00750,1,9,N","015000,1,N,1","+0080,1","+0061,1","10003,1","12,0030,9,1","24,0079,9,1","6,1,06,1","6,1,06,1",,"08,99,1,08,1,07,1,00800,1,99,9,99,9","0000,9","11,9","999,+0060,9","999,N,+0072,1","99999,9,09961,1","6,1,004,1,+999,9","61,1","SYN112AAXX  30064 08286 11565 82904 10080 20061 39961 40003 56004 60032 76166 887// 333 20072 32006 50204 55000 70079;",
"08286099999","2010-11-30T09:00:00","4","39.95","-0.0666666","43.5","CASTELLON ALMAZORA, SP","FM-12","99999","V020","290,1,N,0010,1","00750,1,9,N","025000,1,N,1","+0090,1","+0071,1","09997,1",,,"6,1,03,1","2,1,03,1",,"07,99,1,07,1,07,1,00800,1,00,1,00,1",,,,,"99999,9,09955,1","5,1,006,1,+999,9","21,1","SYN072AAXX  30094 08286 41575 72902 10090 20071 39955 49997 55006 72162 87700;",
"08286099999","2010-11-30T12:00:00","4","39.95","-0.0666666","43.5","CASTELLON ALMAZORA, SP","FM-12","99999","V020","140,1,N,0015,1","01200,1,9,N","015000,1,N,1","+0124,1","+0075,1","09980,1","06,0008,9,1",,"6,1,06,1","2,1,06,1",,"06,99,1,06,1,08,1,00800,1,00,1,00,1",,,,,"99999,9,09938,1","8,1,017,1,+999,9","02,1","SYN078AAXX  30124 08286 11565 61403 10124 20075 39938 49980 58017 69971 70262 86800;",
"08286099999","2010-12-01T06:00:00","4","39.95","-0.0666666","43.5","CASTELLON ALMAZORA, SP","FM-12","99999","V020","330,1,N,0010,1","22000,1,9,N","030000,1,N,1","+0098,1","-0022,1","09981,1","12,0000,9,1","24,0008,9,1",,,,"01,99,1,01,1,05,1,01250,1,00,1,00,1","0108,9","09,9","999,+0050,9","999,N,+0070,1","99999,9,09939,1","3,1,004,1,+999,9",,"SYN106AAXX  01064 08286 12680 13302 10098 21022 39939 49981 53004 60002 81500 333 20070 31005 50094 55018 70007;","Q01  00002PRCP12"
"08286099999","2010-12-01T09:00:00","4","39.95","-0.0666666","43.5","CASTELLON ALMAZORA, SP","FM-12","99999","V020","170,1,N,0021,1","22000,1,9,N","040000,1,N,1","+0102,1","-0015,1","10008,1",,,,,,"01,99,1,01,1,01,1,01250,1,04,1,00,1",,,,,"99999,9,09966,1","2,1,027,1,+999,9",,"SYN066AAXX  01094 08286 42682 11704 10102 21015 39966 40008 52027 81140;",
"08286099999","2010-12-01T12:00:00","4","39.95","-0.0666666","43.5","CASTELLON ALMAZORA, SP","FM-12","99999","V020","200,1,N,0026,1","03600,1,9,N","040000,1,N,1","+0148,1","-0001,1","10007,1","06,0000,9,1",,,,,"06,99,1,02,1,01,1,01250,1,04,1,08,1",,,,,"99999,9,09966,1","0,1,000,1,+999,9",,"SYN072AAXX  01124 08286 12682 62005 10148 21001 39966 40007 50000 60001 82148;","Q01  00002PRCP06"
"08286099999","2010-12-02T06:00:00","4","39.95","-0.0666666","43.5","CASTELLON ALMAZORA, SP","FM-12","99999","V020","300,1,N,0026,1","99999,9,9,N","030000,1,N,1","+0052,1","-0017,1","10074,1","12,0000,9,1","24,0000,9,1",,,,"07,99,1,07,1,00,1,99999,9,01,1,00,1","0336,9","01,9","999,+0020,9","999,N,+0032,1","99999,9,10031,1","6,1,004,1,+999,9",,"SYN106AAXX  02064 08286 12980 73005 10052 21017 30031 40074 56004 60002 87010 333 20032 30002 50224 55056 70000;","Q01  00002PRCP24Q02  00002PRCP12"
"08286099999","2010-12-02T09:00:00","4","39.95","-0.0666666","43.5","CASTELLON ALMAZORA, SP","FM-12","99999","V020","280,1,N,0036,1","03600,1,9,N","040000,1,N,1","+0062,1","-0010,1","10084,1",,,,,,"07,99,1,01,1,05,1,01250,1,02,1,00,1",,,,,"99999,9,10041,1","3,1,010,1,+999,9",,"SYN066AAXX  02094 08286 42682 72807 10062 21010 30041 40084 53010 81520;",
"08286099999","2010-12-02T12:00:00","4","39.95","-0.0666666","43.5","CASTELLON ALMAZORA, SP","FM-12","99999","V020","220,1,N,0026,1","09000,1,9,N","040000,1,N,1","+0144,1","-0039,1","10080,1","06,0000,9,1",,,,,"05,99,1,02,1,01,1,01250,1,04,1,02,1",,,,,"99999,9,10038,1","8,1,003,1,+999,9",,"SYN072AAXX  02124 08286 12682 52205 10144 21039 30038 40080 58003 60001 82142;","Q01  00002PRCP06"
"08286099999","2010-12-03T06:00:00","4","39.95","-0.0666666","43.5","CASTELLON ALMAZORA, SP","FM-12","99999","V020","300,1,N,0021,1","00750,1,9,N","030000,1,N,1","+0036,1","-0036,1","10097,1","12,0000,9,1","24,0000,9,1",,,,"06,99,1,05,1,05,1,00800,1,07,1,00,1","0234,9","01,9","999,+0000,9","999,N,+0030,1","99999,9,10054,1","6,1,003,1,+999,9",,"SYN106AAXX  03064 08286 12580 63004 10036 21036 30054 40097 56003 60002 85570 333 20030 30000 50294 55039 70000;","Q01  00002PRCP24Q02  00002PRCP12"
"08286099999","2010-12-03T09:00:00","4","39.95","-0.0666666","43.5","CASTELLON ALMAZORA, SP","FM-12","99999","V020","280,1,N,0026,1","03600,1,9,N","040000,1,N,1","+0080,1","-0038,1","10130,1",,,,,,"06,99,1,04,1,05,1,00800,1,02,1,00,1",,,,,"99999,9,10087,1","2,1,033,1,+999,9",,"SYN066AAXX  03094 08286 42582 62805 10080 21038 30087 40130 52033 84520;",
"08286099999","2010-12-03T12:00:00","4","39.95","-0.0666666","43.5","CASTELLON ALMAZORA, SP","FM-12","99999","V020","260,1,N,0021,1","22000,1,9,N","040000,1,N,1","+0128,1","-0048,1","10142,1","06,0000,9,1",,,,,"01,99,1,01,1,01,1,01250,1,00,1,00,1",,,,,"99999,9,10100,1","1,1,013,1,+999,9",,"SYN072AAXX  03124 08286 12682 12604 10128 21048 30100 40142 51013 60001 81100;","Q01  00002PRCP06"
"08286099999","2010-12-07T06:00:00","4","39.95","-0.0666666","43.5","CASTELLON ALMAZORA, SP","FM-12","99999","V020","190,1,N,0031,1","99999,9,9,N","030000,1,N,1","+0170,1","+0089,1","10031,1","12,0000,9,1","24,0000,9,1",,,,"06,99,1,04,1,00,1,99999,9,04,1,02,1","0246,9","01,9","999,+0140,9","999,N,+0168,1","99999,9,09990,1","4,1,000,1,+999,9",,"SYN106AAXX  07064 08286 12980 61906 10170 20089 39990 40031 54000 60002 84042 333 20168 30014 50334 55041 70000;","Q01  00002PRCP24Q02  00002PRCP12"
"08286099999","2010-12-07T09:00:00","4","39.95","-0.0666666","43.5","CASTELLON ALMAZORA, SP","FM-12","99999","V020","200,1,N,0026,1","99999,9,9,N","040000,1,N,1","+0172,1","+0099,1","10041,1",,,,,,"07,99,1,07,1,00,1,99999,9,07,1,00,1",,,,,"99999,9,10000,1","3,1,010,1,+999,9",,"SYN066AAXX  07094 08286 42982 72005 10172 20099 30000 40041 53010 87070;",
"08286099999","2010-12-07T12:00:00","4","39.95","-0.0666666","43.5","CASTELLON ALMAZORA, SP","FM-12","99999","V020","220,1,N,0046,1","03600,1,9,N","040000,1,N,1","+0184,1","+0103,1","10038,1","06,0000,9,1",,"8,1,06,1","2,1,06,1",,"07,99,1,02,1,05,1,01250,1,07,1,08,1",,,,,"99999,9,09997,1","8,1,003,1,+999,9","02,1","SYN078AAXX  07124 08286 11682 72209 10184 20103 39997 40038 58003 69911 70282 82578;","Q01  00002PRCP06"
"08286099999","2010-12-09T06:00:00","4","39.95","-0.0666666","43.5","CASTELLON ALMAZORA, SP","FM-12","99999","V020","280,1,N,0010,1","22000,1,9,N","030000,1,N,1","+0142,1","+0068,1","10158,1","12,0000,9,1","24,0000,9,1",,,,"02,99,1,01,1,05,1,01250,1,04,1,00,1",,"01,9","999,+0120,9","999,N,+0140,1","99999,9,10116,1","2,1,018,1,+999,9",,"SYN106AAXX  09064 08286 12680 22802 10142 20068 30116 40158 52018 60002 81540 333 20140 30012 50304 55/// 70000;","Q01  00002PRCP24Q02  00002PRCP12"
"08286099999","2010-12-09T09:00:00","4","39.95","-0.0666666","43.5","CASTELLON ALMAZORA, SP","FM-12","99999","V020","290,1,N,0026,1","03600,1,9,N","040000,1,N,1","+0166,1","+0081,1","10183,1",,,,,,"06,99,1,01,1,05,1,01250,1,04,1,08,1",,,,,"99999,9,10141,1","2,1,025,1,+999,9",,"SYN066AAXX  09094 08286 42682 62905 10166 20081 30141 40183 52025 81548;",
"08286099999","2010-12-09T12:00:00","4","39.95","-0.0666666","43.5","CASTELLON ALMAZORA, SP","FM-12","99999","V020","090,1,N,0021,1","09000,1,9,N","040000,1,N,1","+0210,1","+0089,1","10193,1","06,0000,9,1",,,,,"05,99,1,01,1,01,1,01250,1,00,1,02,1",,,,,"99999,9,10152,1","1,1,011,1,+999,9",,"SYN072AAXX  09124 08286 12682 50904 10210 20089 30152 40193 51011 60001 81102;","Q01  00002PRCP06"
"08286099999","2010-12-10T06:00:00","4","39.95","-0.0666666","43.5","CASTELLON ALMAZORA, SP","FM-12","99999","V020","060,1,N,0010,1","01200,1,9,N","020000,1,N,1","+0136,1","+0104,1","10272,1","12,0000,9,1","24,0000,9,1",,,,"07,99,1,07,1,05,1,01250,1,00,1,00,1","0294,9","01,9","999,+0110,9","999,N,+0130,1","99999,9,10229,1","3,1,009,1,+999,9",,"SYN106AAXX  10064 08286 12670 70602 10136 20104 30229 40272 53009 60002 87500 333 20130 30011 50214 55049 70000;","Q01  00002PRCP24Q02  00002PRCP12"
"08286099999","2010-12-10T09:00:00","4","39.95","-0.0666666","43.5","CASTELLON ALMAZORA, SP","FM-12","99999","V020","070,1,N,0021,1","00750,1,9,N","003000,1,N,1","+0126,1","+0105,1","10291,1",,,"5,1,03,1","2,1,03,1",,"08,99,1,08,1,07,1,00800,1,99,9,99,9",,,,,"99999,9,10248,1","2,1,019,1,+999,9","51,1","SYN072AAXX  10094 08286 41530 80704 10126 20105 30248 40291 52019 75152 887//;",
"08286099999","2010-12-10T12:00:00","4","39.95","-0.0666666","43.5","CASTELLON ALMAZORA, SP","FM-12","99999","V020","130,1,N,0015,1","00750,1,9,N","003000,1,N,1","+0132,1","+0106,1","10295,1","06,0008,9,1",,"5,1,06,1","2,1,06,1",,"08,99,1,08,1,07,1,00800,1,99,9,99,9",,,,,"99999,9,10252,1","0,1,004,1,+999,9","50,1","SYN078AAXX  10124 08286 11530 81303 10132 20106 30252 40295 50004 69981 75052 887//;",
"08286099999","2010-12-13T06:00:00","4","39.95","-0.0666666","43.5","CASTELLON ALMAZORA, SP","FM-12","99999","V020","300,1,N,0015,1","03600,1,9,N","020000,1,N,1","+0092,1","+0061,1","10127,1","12,0000,9,1","24,0000,9,1",,,,"06,99,1,01,1,05,1,00450,1,02,1,00,1",,"01,9","999,+0080,9","999,N,+0090,1","99999,9,10084,1","3,1,010,1,+999,9",,"SYN106AAXX  13064 08286 12470 63003 10092 20061 30084 40127 53010 60002 81520 333 20090 30008 50054 55/// 70000;","Q01  00002PRCP24Q02  00002PRCP12"
"08286099999","2010-12-13T12:00:00","4","39.95","-0.0666666","43.5","CASTELLON ALMAZORA, SP","FM-12","99999","V020","110,1,N,0015,1","01200,1,9,N","015000,1,N,1","+0150,1","+0055,1","10133,1","06,0000,9,1",,,,,"07,99,1,06,1,08,1,00800,1,02,1,00,1",,,,,"99999,9,10091,1","8,1,008,1,+999,9",,"SYN072AAXX  13124 08286 12565 71103 10150 20055 30091 40133 58008 60001 86820;","Q01  00002PRCP06"
"08286099999","2010-12-14T06:00:00","4","39.95","-0.0666666","43.5","CASTELLON ALMAZORA, SP","FM-12","99999","V020","050,1,N,0010,1","00750,1,9,N","020000,1,N,1","+0110,1","+0077,1","10166,1","12,0010,9,1","24,0015,9,1","6,1,06,1","2,1,06,1",,"08,99,1,07,1,07,1,00800,1,02,1,99,9","0000,9","11,9","999,+0090,9","999,N,+0098,1","99999,9,10123,1","2,1,007,1,+999,9","21,1","SYN112AAXX  14064 08286 11570 80502 10110 20077 30123 40166 52007 60012 72162 8772/ 333 20098 32009 50084 55000 70014;",
"08286099999","2010-12-14T09:00:00","4","39.95","-0.0666666","43.5","CASTELLON ALMAZORA, SP","FM-12","99999","V020","280,1,N,0015,1","01200,1,9,N","020000,1,N,1","+0112,1","+0055,1","10189,1",,,,,,"07,99,1,07,1,08,1,00800,1,00,1,00,1",,,,,"99999,9,10146,1","2,1,023,1,+999,9",,"SYN066AAXX  14094 08286 42570 72803 10112 20055 30146 40189 52023 87800;",
"08286099999","2010-12-14T12:00:00","4","39.95","-0.0666666","43.5","CASTELLON ALMAZORA, SP","FM-12","99999","V020","070,1,N,0026,1","22000,1,9,N","025000,1,N,1","+0140,1","-0012,1","10196,1","06,0000,2,1",,,,,"02,99,1,02,1,02,1,00800,1,00,1,00,1",,,,,"99999,9,10154,1","1,1,008,1,+999,9",,"SYN072AAXX  14124 08286 12575 20705 10140 21012 30154 40196 51008 60001 82200;",
"08286099999","2010-12-15T06:00:00","4","39.95","-0.0666666","43.5","CASTELLON ALMAZORA, SP","FM-12","99999","V020","290,1,N,0021,1","22000,1,9,N","030000,1,N,1","+0068,1","+0031,1","10213,1","12,0000,9,1","24,0000,2,1",,,"00,1,+99999,9,99,9","00,99,1,00,1,00,1,99999,9,00,1,00,1","0354,9","01,9","999,+0030,9","999,N,+0048,1","99999,9,10170,1","6,1,001,1,+999,9",,"SYN100AAXX  15064 08286 12980 02904 10068 20031 30170 40213 56001 60002 333 20048 30003 50224 55059 70000;","Q01  00002PRCP12"
"08286099999","2010-12-15T09:00:00","4","39.95","-0.0666666","43.5","CASTELLON ALMAZORA, SP","FM-12","99999","V020","320,1,N,0026,1","22000,1,9,N","040000,1,N,1","+0072,1","-0125,1","10226,1",,,,,"00,1,+99999,9,99,9","00,99,1,00,1,00,1,99999,9,00,1,00,1",,,,,"99999,9,10183,1","2,1,013,1,+999,9",,"SYN060AAXX  15094 08286 42982 03205 10072 21125 30183 40226 52013;",
"08286099999","2010-12-15T12:00:00","4","39.95","-0.0666666","43.5","CASTELLON ALMAZORA, SP","FM-12","99999","V020","340,1,N,0031,1","22000,1,9,N","040000,1,N,1","+0104,1","-0098,1","10225,1","06,0000,9,1",,,,"00,1,+99999,9,99,9","00,99,1,00,1,00,1,99999,9,00,1,00,1",,,,,"99999,9,10182,1","8,1,001,1,+999,9",,"SYN066AAXX  15124 08286 12982 03406 10104 21098 30182 40225 58001 60001;","Q01  00002PRCP06"
"08286099999","2010-12-16T06:00:00","4","39.95","-0.0666666","43.5","CASTELLON ALMAZORA, SP","FM-12","99999","V020","290,1,N,0031,1","22000,1,9,N","030000,1,N,1","+0024,1","-0130,1","10218,1","12,0000,9,1","24,0000,9,1",,,"00,1,+99999,9,99,9","00,99,1,00,1,00,1,99999,9,00,1,00,1","0546,9","01,9","999,+0010,9","999,N,+0024,1","99999,9,10174,1","3,1,003,1,+999,9",,"SYN100AAXX  16064 08286 12980 02906 10024 21130 30174 40218 53003 60002 333 20024 30001 50534 55091 70000;","Q01  00002PRCP24Q02  00002PRCP12"
"08286099999","2010-12-16T09:00:00","4","39.95","-0.0666666","43.5","CASTELLON ALMAZORA, SP","FM-12","99999","V020","290,1,N,0041,1","22000,1,9,N","040000,1,N,1","+0040,1","-0116,1","10223,1",,,,,"00,1,+99999,9,99,9","00,99,1,00,1,00,1,99999,9,00,1,00,1",,,,,"99999,9,10179,1","3,1,005,1,+999,9",,"SYN060AAXX  16094 08286 42982 02908 10040 21116 30179 40223 53005;",
"08286099999","2010-12-16T12:00:00","4","39.95","-0.0666666","43.5","CASTELLON ALMAZORA, SP","FM-12","99999","V020","280,1,N,0026,1","22000,1,9,N","040000,1,N,1","+0096,1","-0099,1","10213,1","06,0000,9,1",,,,"00,1,+99999,9,99,9","00,99,1,00,1,00,1,99999,9,00,1,00,1",,,,,"99999,9,10170,1","8,1,009,1,+999,9",,"SYN066AAXX  16124 08286 12982 02805 10096 21099 30170 40213 58009 60001;","Q01  00002PRCP06"
"08286099999","2010-12-17T06:00:00","4","39.95","-0.0666666","43.5","CASTELLON ALMAZORA, SP","FM-12","99999","V020","290,1,N,0036,1","22000,1,9,N","030000,1,N,1","+0010,1","-0096,1","10107,1","12,0000,9,1","24,0000,9,1",,,"00,1,+99999,9,99,9","00,99,1,00,1,00,1,99999,9,00,1,00,1","0540,9","01,9","999,+0000,9","999,N,+0008,1","99999,9,10063,1","7,1,025,1,+999,9",,"SYN100AAXX  17064 08286 12980 02907 10010 21096 30063 40107 57025 60002 333 20008 30100 50344 55090 70000;","Q01  00002PRCP24Q02  00002PRCP12"
"08286099999","2010-12-17T09:00:00","4","39.95","-0.0666666","43.5","CASTELLON ALMAZORA, SP","FM-12","99999","V020","350,1,N,0015,1","22000,1,9,N","040000,1,N,1","+0034,1","-0074,1","10076,1",,,,,"00,1,+99999,9,99,9","00,99,1,00,1,00,1,99999,9,00,1,00,1",,,,,"99999,9,10033,1","7,1,030,1,+999,9",,"SYN060AAXX  17094 08286 42982 03503 10034 21074 30033 40076 57030;",
"08286099999","2010-12-17T12:00:00","4","39.95","-0.0666666","43.5","CASTELLON ALMAZORA, SP","FM-12","99999","V020","110,1,N,0021,1","22000,1,9,N","040000,1,N,1","+0110,1","-0035,1","10042,1","06,0000,9,1",,,,,"01,99,1,01,1,00,1,99999,9,04,1,00,1",,,,,"99999,9,10000,1","7,1,033,1,+999,9",,"SYN072AAXX  17124 08286 12982 11104 10110 21035 30000 40042 57033 60001 81040;","Q01  00002PRCP06"
"08286099999","2010-12-20T06:00:00","4","39.95","-0.0666666","43.5","CASTELLON ALMAZORA, SP","FM-12","99999","V020","300,1,N,0010,1","22000,1,9,N","020000,1,N,1","+0064,1","+0036,1","10089,1","12,0000,9,1","24,0028,9,1",,,,"04,99,1,02,1,05,1,00800,1,02,1,00,1",,"11,9","999,+0050,9","999,N,+0064,1","99999,9,10046,1","3,1,007,1,+999,9",,"SYN106AAXX  20064 08286 12570 43002 10064 20036 30046 40089 53007 60002 82520 333 20064 32005 50104 55/// 70028;","Q01  00002PRCP12"
"08286099999","2010-12-20T09:00:00","4","39.95","-0.0666666","43.5","CASTELLON ALMAZORA, SP","FM-12","99999","V020","290,1,N,0021,1","22000,1,9,N","018000,1,N,1","+0076,1","+0051,1","10111,1",,,,,,"04,99,1,04,1,05,1,00800,1,00,1,00,1",,,,,"99999,9,10068,1","2,1,022,1,+999,9",,"SYN066AAXX  20094 08286 42568 42904 10076 20051 30068 40111 52022 84500;",
"08286099999","2010-12-20T12:00:00","4","39.95","-0.0666666","43.5","CASTELLON ALMAZORA, SP","FM-12","99999","V020","130,1,N,0015,1","22000,1,9,N","015000,1,N,1","+0136,1","+0067,1","10110,1","06,0000,9,1",,,,,"04,99,1,04,1,05,1,00800,1,00,1,00,1",,,,,"99999,9,10068,1","0,1,000,1,+999,9",,"SYN072AAXX  20124 08286 12565 41303 10136 20067 30068 40110 50000 60001 84500;","Q01  00002PRCP06"
"08286099999","2010-12-21T06:00:00","4","39.95","-0.0666666","43.5","CASTELLON ALMAZORA, SP","FM-12","99999","V020","290,1,N,0021,1","00750,1,9,N","010000,1,N,1","+0080,1","+0053,1","10053,1","12,0008,9,1","24,0008,9,1","6,1,06,1","2,1,06,1",,"08,99,1,08,1,07,1,00800,1,99,9,99,9","0342,9","11,9","999,+0060,9","999,N,+0076,1","99999,9,10010,1","7,1,016,1,+999,9","61,1","SYN112AAXX  21064 08286 11560 82904 10080 20053 30010 40053 57016 69982 76162 887// 333 20076 32006 50074 55057 70008;",
"08286099999","2010-12-21T09:00:00","4","39.95","-0.0666666","43.5","CASTELLON ALMAZORA, SP","FM-12","99999","V020","290,1,N,0015,1","01200,1,9,N","018000,1,N,1","+0084,1","+0057,1","10042,1",,,"6,1,03,1","2,1,03,1",,"08,99,1,06,1,08,1,00800,1,02,1,99,9",,,,,"99999,9,10000,1","7,1,010,1,+999,9","02,1","SYN072AAXX  21094 08286 41568 82903 10084 20057 30000 40042 57010 70262 8682/;",
"08286099999","2010-12-21T12:00:00","4","39.95","-0.0666666","43.5","CASTELLON ALMAZORA, SP","FM-12","99999","V020","160,1,N,0010,1","01200,1,9,N","012000,1,N,1","+0124,1","+0058,1","10030,1","06,0000,2,1",,"6,1,06,1","2,1,06,1",,"08,99,1,06,1,08,1,00800,1,02,1,99,9",,,,,"99999,9,09988,1","7,1,012,1,+999,9","02,1","SYN078AAXX  21124 08286 11562 81602 10124 20058 39988 40030 57012 69911 70262 8682/;",
"08286099999","2010-12-22T06:00:00","4","39.95","-0.0666666","43.5","CASTELLON ALMAZORA, SP","FM-12","99999","V020","999,9,C,0000,1","00750,1,9,N","010000,1,N,1","+0096,1","+0075,1","09981,1","12,0003,9,1","24,0005,9,1","5,1,06,1","2,1,06,1",,"08,99,1,08,1,07,1,00800,1,99,9,99,9","0090,9","11,9","999,+0060,9","999,N,+0084,1","99999,9,09939,1","5,1,009,1,+999,9","61,1","SYN112AAXX  22064 08286 11560 80000 10096 20075 39939 49981 55009 69932 76152 887// 333 20084 32006 50064 55015 70004;",
"08286099999","2010-12-22T09:00:00","4","39.95","-0.0666666","43.5","CASTELLON ALMAZORA, SP","FM-12","99999","V020","300,1,N,0015,1","00750,1,9,N","003000,1,N,1","+0106,1","+0082,1","09977,1",,,"5,1,03,1","2,1,03,1",,"08,99,1,08,1,07,1,00800,1,99,9,99,9",,,,,"99999,9,09935,1","8,1,004,1,+999,9","20,1","SYN072AAXX  22094 08286 41530 83003 10106 20082 39935 49977 58004 72052 887//;",
"08286099999","2010-12-22T12:00:00","4","39.95","-0.0666666","43.5","CASTELLON ALMAZORA, SP","FM-12","99999","V020","050,1,N,0010,1","00750,1,9,N","003000,1,N,1","+0140,1","+0106,1","09956,1","06,0003,9,1",,"5,1,06,1","2,1,06,1",,"08,99,1,07,1,07,1,00800,1,02,1,99,9",,,,,"99999,9,09915,1","7,1,020,1,+999,9","10,1","SYN078AAXX  22124 08286 11530 80502 10140 20106 39915 49956 57020 69931 71052 8772/;",
"08286099999","2010-12-23T06:00:00","4","39.95","-0.0666666","43.5","CASTELLON ALMAZORA, SP","FM-12","99999","V020","999,9,C,0000,1","03600,1,9,N","025000,1,N,1","+0098,1","+0058,1","09920,1","12,0000,9,1","24,0003,9,1",,,,"07,99,1,01,1,05,1,01250,1,03,1,00,1","0006,9","09,9","999,+0070,9","999,N,+0090,1","99999,9,09878,1","6,1,002,1,+999,9",,"SYN106AAXX  23064 08286 12675 70000 10098 20058 39878 49920 56002 60002 81530 333 20090 31007 50044 55001 70003;","Q01  00002PRCP12"
"08286099999","2010-12-23T09:00:00","4","39.95","-0.0666666","43.5","CASTELLON ALMAZORA, SP","FM-12","99999","V020","300,1,N,0015,1","22000,1,9,N","040000,1,N,1","+0108,1","+0062,1","09926,1",,,,,,"04,99,1,01,1,05,1,01250,1,03,1,00,1",,,,,"99999,9,09884,1","3,1,006,1,+999,9",,"SYN066AAXX  23094 08286 42682 43003 10108 20062 39884 49926 53006 81530;",
"08286099999","2010-12-23T12:00:00","4","39.95","-0.0666666","43.5","CASTELLON ALMAZORA, SP","FM-12","99999","V020","070,1,N,0015,1","22000,1,9,N","040000,1,N,1","+0156,1","+0061,1","09934,1","06,0000,9,1",,,,,"04,99,1,02,1,02,1,01250,1,04,1,00,1",,,,,"99999,9,09893,1","1,1,009,1,+999,9",,"SYN072AAXX  23124 08286 12682 40703 10156 20061 39893 49934 51009 60001 82240;","Q01  00002PRCP06"
"08286099999","2010-12-27T06:00:00","4","39.95","-0.0666666","43.5","CASTELLON ALMAZORA, SP","FM-12","99999","V020","290,1,N,0026,1","22000,1,9,N","030000,1,N,1","+0022,1","-0113,1","10208,1","12,0000,9,1","24,0000,9,1",,,"00,1,+99999,9,99,9","00,99,1,00,1,00,1,99999,9,00,1,00,1",,"01,9","999,+0010,9","999,N,+0022,1","99999,9,10164,1","3,1,005,1,+999,9",,"SYN100AAXX  27064 08286 12980 02905 10022 21113 30164 40208 53005 60002 333 20022 30001 50334 55/// 70000;","Q01  00002PRCP24Q02  00002PRCP12"
"08286099999","2010-12-27T09:00:00","4","39.95","-0.0666666","43.5","CASTELLON ALMAZORA, SP","FM-12","99999","V020","290,1,N,0031,1","22000,1,9,N","040000,1,N,1","+0042,1","-0072,1","10217,1",,,,,,"01,99,1,01,1,00,1,99999,9,04,1,05,1",,,,,"99999,9,10173,1","3,1,009,1,+999,9",,"SYN066AAXX  27094 08286 42982 12906 10042 21072 30173 40217 53009 81045;",
"08286099999","2010-12-27T12:00:00","4","39.95","-0.0666666","43.5","CASTELLON ALMAZORA, SP","FM-12","99999","V020","230,1,N,0010,1","22000,1,9,N","040000,1,N,1","+0126,1","+0000,1","10214,1","06,0000,9,1",,,,,"01,99,1,01,1,00,1,99999,9,04,1,00,1",,,,,"99999,9,10171,1","8,1,002,1,+999,9",,"SYN072AAXX  27124 08286 12982 12302 10126 20000 30171 40214 58002 60001 81040;","Q01  00002PRCP06"
"08286099999","2010-12-28T06:00:00","4","39.95","-0.0666666","43.5","CASTELLON ALMAZORA, SP","FM-12","99999","V020","300,1,N,0026,1","99999,9,9,N","030000,1,N,1","+0028,1","-0015,1","10198,1","12,0000,9,1","24,0000,9,1",,,,"06,99,1,02,1,00,1,99999,9,04,1,08,1","0528,9","01,9","999,+0000,9","999,N,+0026,1","99999,9,10154,1","6,1,002,1,+999,9",,"SYN106AAXX  28064 08286 12980 63005 10028 21015 30154 40198 56002 60002 82048 333 20026 30000 50224 55088 70000;","Q01  00002PRCP24Q02  00002PRCP12"
"08286099999","2010-12-28T09:00:00","4","39.95","-0.0666666","43.5","CASTELLON ALMAZORA, SP","FM-12","99999","V020","290,1,N,0026,1","99999,9,9,N","040000,1,N,1","+0052,1","-0010,1","10206,1",,,,,,"06,99,1,01,1,00,1,99999,9,04,1,08,1",,,,,"99999,9,10162,1","3,1,008,1,+999,9",,"SYN066AAXX  28094 08286 42982 62905 10052 21010 30162 40206 53008 81048;",
"08286099999","2010-12-28T12:00:00","4","39.95","-0.0666666","43.5","CASTELLON ALMAZORA, SP","FM-12","99999","V020","030,1,N,0010,1","99999,9,9,N","030000,1,N,1","+0110,1","+0033,1","10204,1","06,0000,9,1",,,,,"07,99,1,03,1,00,1,99999,9,05,1,08,1",,,,,"99999,9,10161,1","8,1,001,1,+999,9",,"SYN072AAXX  28124 08286 12980 70302 10110 20033 30161 40204 58001 60001 83058;","Q01  00002PRCP06"
"08286099999","2010-12-29T06:00:00","4","39.95","-0.0666666","43.5","CASTELLON ALMAZORA, SP","FM-12","99999","V020","290,1,N,0026,1","99999,9,9,N","030000,1,N,1","+0050,1","-0017,1","10190,1","12,0000,9,1","24,0000,9,1",,,,"05,99,1,02,1,00,1,99999,9,02,1,08,1","0240,9","01,9","999,+0020,9","999,N,+0048,1","99999,9,10146,1","6,1,002,1,+999,9",,"SYN106AAXX  29064 08286 12980 52905 10050 21017 30146 40190 56002 60002 82028 333 20048 30002 50144 55040 70000;","Q01  00002PRCP24Q02  00002PRCP12"
"08286099999","2010-12-29T09:00:00","4","39.95","-0.0666666","43.5","CASTELLON ALMAZORA, SP","FM-12","99999","V020","290,1,N,0021,1","99999,9,9,N","040000,1,N,1","+0068,1","-0013,1","10194,1",,,,,,"07,99,1,04,1,00,1,99999,9,05,1,08,1",,,,,"99999,9,10151,1","1,1,005,1,+999,9",,"SYN066AAXX  29094 08286 42982 72904 10068 21013 30151 40194 51005 84058;",
"08286099999","2010-12-29T12:00:00","4","39.95","-0.0666666","43.5","CASTELLON ALMAZORA, SP","FM-12","99999","V020","230,1,N,0010,1","22000,1,9,N","030000,1,N,1","+0120,1","+0042,1","10189,1","06,0000,9,1",,,,,"02,99,1,01,1,01,1,01250,1,04,1,03,1",,,,,"99999,9,10147,1","8,1,004,1,+999,9",,"SYN072AAXX  29124 08286 12680 22302 10120 20042 30147 40189 58004 60001 81143;","Q01  00002PRCP06"
"08286099999","2010-12-30T06:00:00","4","39.95","-0.0666666","43.5","CASTELLON ALMAZORA, SP","FM-12","99999","V020","290,1,N,0021,1","01200,1,9,N","025000,1,N,1","+0086,1","+0044,1","10173,1","12,0000,9,1","24,0000,9,1",,,,"07,99,1,07,1,05,1,01250,1,00,1,00,1","0318,9","01,9","999,+0060,9","999,N,+0078,1","99999,9,10130,1","6,1,006,1,+999,9",,"SYN106AAXX  30064 08286 12675 72904 10086 20044 30130 40173 56006 60002 87500 333 20078 30006 50134 55053 70000;","Q01  00002PRCP24Q02  00002PRCP12"
"08286099999","2010-12-30T09:00:00","4","39.95","-0.0666666","43.5","CASTELLON ALMAZORA, SP","FM-12","99999","V020","290,1,N,0031,1","01200,1,9,N","030000,1,N,1","+0092,1","+0028,1","10176,1",,,,,,"08,99,1,07,1,05,1,01250,1,02,1,99,9",,,,,"99999,9,10133,1","1,1,003,1,+999,9",,"SYN066AAXX  30094 08286 42680 82906 10092 20028 30133 40176 51003 8752/;",
"08286099999","2010-12-30T12:00:00","4","39.95","-0.0666666","43.5","CASTELLON ALMAZORA, SP","FM-12","99999","V020","290,1,N,0026,1","01200,1,9,N","030000,1,N,1","+0120,1","+0030,1","10174,1","06,0000,9,1",,,,,"08,99,1,07,1,05,1,01250,1,02,1,99,9",,,,,"99999,9,10132,1","8,1,001,1,+999,9",,"SYN072AAXX  30124 08286 12680 82905 10120 20030 30132 40174 58001 60001 8752/;","Q01  00002PRCP06"
