"STATION","DATE","SOURCE","LATITUDE","LONGITUDE","ELEVATION","NAME","REPORT_TYPE","CALL_SIGN","QUALITY_CONTROL","WND","CIG","VIS","TMP","DEW","SLP","AA1","AA2","AJ1","AY1","AY2","GA1","GF1","GJ1","IA1","KA1","MA1","MD1","MW1","REM","EQD"
"08359099999","2010-01-01T06:00:00","4","38.3666666","-0.5","82.0","ALICANTE, SP","FM-12","99999","V020","250,1,N,0021,1","22000,1,9,N","030000,1,N,1","+0088,1","+0010,1","10107,1","12,0000,9,1","24,0000,9,1",,,,,"01,99,1,01,1,04,1,00800,1,00,1,00,1","0282,9",,"999,N,+0080,1","99999,9,10007,1","2,1,010,1,+999,9",,"SYN106AAXX  01064 08359 12580 12504 10088 20010 30007 40107 52010 60002 81400 90700 333 20080 50414 55047 70000;","Q01  00002PRCP24Q02  00002PRCP12"
"08359099999","2010-01-01T18:00:00","4","38.3666666","-0.5","82.0","ALICANTE, SP","FM-12","99999","V020","290,1,N,0021,1","22000,1,9,N","030000,1,N,1","+0140,1","+0040,1","10128,1","12,0000,9,1",,,,,,"03,99,1,02,1,04,1,00800,1,06,1,00,1",,,"999,M,+0176,1","99999,9,10030,1","3,1,020,1,+999,9",,"SYN082AAXX  01184 08359 12580 32904 10140 20040 30030 40128 53020 60002 82460 333 10176;","Q01  00002PRCP12"
"08359099999","2010-01-02T06:00:00","4","38.3666666","-0.5","82.0","ALICANTE, SP","FM-12","99999","V020","270,1,N,0015,1","22000,1,9,N","030000,1,N,1","+0108,1","+0045,1","10189,1","12,0000,9,1","24,0000,9,1",,,,,"03,99,1,02,1,00,1,99999,9,04,1,01,1","0528,9",,"999,N,+0092,1","99999,9,10089,1","3,1,010,1,+999,9",,"SYN106AAXX  02064 08359 12980 32703 10108 20045 30089 40189 53010 60002 82041 90700 333 20092 50464 55088 70000;","Q01  00002PRCP24Q02  00002PRCP12"
"08359099999","2010-01-02T18:00:00","4","38.3666666","-0.5","82.0","ALICANTE, SP","FM-12","99999","V020","999,9,C,0000,1","99999,9,9,N","020000,1,N,1","+0126,1","+0073,1","10202,1","12,0000,9,1",,,,,,"06,99,1,00,1,00,1,99999,9,00,1,02,1",,,"999,M,+0173,1","99999,9,10103,1","3,1,006,1,+999,9",,"SYN082AAXX  02184 08359 12970 60000 10126 20073 30103 40202 53006 60002 80002 333 10173;","Q01  00002PRCP12"
"08359099999","2010-01-03T06:00:00","4","38.3666666","-0.5","82.0","ALICANTE, SP","FM-12","99999","V020","999,9,C,0000,1","22000,1,9,N","020000,1,N,1","+0054,1","+0045,1","10198,1","12,0000,9,1","24,0000,9,1",,,,,"01,99,1,00,1,00,1,99999,9,00,1,01,1","0420,9",,"999,N,+0050,1","99999,9,10096,1","5,1,003,1,+999,9",,"SYN106AAXX  03064 08359 12970 10000 10054 20045 30096 40198 55003 60002 80001 90700 333 20050 50234 55070 70000;","Q01  00002PRCP24Q02  00002PRCP12"
"08359099999","2010-01-03T18:00:00","4","38.3666666","-0.5","82.0","ALICANTE, SP","FM-12","99999","V020","220,1,N,0010,1","99999,9,9,N","020000,1,N,1","+0130,1","+0098,1","10165,1","12,0000,9,1",,,,,,"08,99,1,08,1,00,1,99999,9,07,1,99,9",,,"999,M,+0178,1","99999,9,10067,1","5,1,000,1,+999,9",,"SYN082AAXX  03184 08359 12970 82202 10130 20098 30067 40165 55000 60002 8807/ 333 10178;","Q01  00002PRCP12"
"08359099999","2010-01-04T06:00:00","4","38.3666666","-0.5","82.0","ALICANTE, SP","FM-12","99999","V020","999,9,C,0000,1","22000,1,9,N","020000,1,N,1","+0100,1","+0092,1","10123,1","12,0020,9,2","24,0018,9,2",,"6,1,06,1","1,1,06,1",,"04,99,1,03,1,00,1,99999,9,06,1,01,1","0408,9",,"999,N,+0100,1","99999,9,10024,1","6,1,015,1,+999,9","01,1","SYN106AAXX  04064 08359 11970 40000 10100 20092 30024 40123 56015 60022 70161 83061 333 20100 50164 55068 70019;",
"08359099999","2010-01-04T18:00:00","4","38.3666666","-0.5","82.0","ALICANTE, SP","FM-12","99999","V020","999,9,C,0000,1","99999,9,9,N","012000,1,N,1","+0132,1","+0121,1","10059,1","12,0000,9,1",,,,,,"08,99,1,08,1,00,1,99999,9,07,1,99,9",,,"999,M,+0162,1","99999,9,09962,1","7,1,008,1,+999,9",,"SYN082AAXX  04184 08359 12962 80000 10132 20121 39962 40059 57008 60002 8807/ 333 10162;","Q01  00002PRCP12"
"08359099999","2010-01-05T06:00:00","4","38.3666666","-0.5","82.0","ALICANTE, SP","FM-12","99999","V020","999,9,C,0000,1","99999,9,9,N","006000,1,N,1","+0102,1","+0102,1","10002,1","12,0005,9,1","24,0005,9,1",,"6,1,06,1","4,1,06,1",,"07,99,1,07,1,00,1,99999,9,07,1,99,9","0150,9",,"999,N,+0100,1","99999,9,09904,1","6,1,008,1,+999,9","10,1","SYN112AAXX  05064 08359 11956 70000 10102 20102 39904 40002 56008 69952 71064 8707/ 90700 333 20100 50084 55025 70005;",
"08359099999","2010-01-05T18:00:00","4","38.3666666","-0.5","82.0","ALICANTE, SP","FM-12","99999","V020","310,1,N,0010,1","99999,9,9,N","020000,1,N,1","+0146,1","+0096,1","10007,1","12,0005,9,1",,,"6,1,06,1","2,1,06,1",,"06,99,1,06,1,00,1,99999,9,06,1,00,1",,,"999,M,+0180,1","99999,9,09911,1","3,1,017,1,+999,9","01,1","SYN088AAXX  05184 08359 11970 63102 10146 20096 39911 40007 53017 69962 70162 86060 333 10180;",
"08359099999","2010-01-06T06:00:00","4","38.3666666","-0.5","82.0","ALICANTE, SP","FM-12","99999","V020","999,9,C,0000,1","22000,1,9,N","030000,1,N,1","+0080,1","+0063,1","10043,1","12,0000,9,1","24,0005,9,1",,,,,"02,99,1,01,1,04,1,00800,1,04,1,00,1","0114,9",,"999,N,+0080,1","99999,9,09944,1","3,1,007,1,+999,9",,"SYN106AAXX  06064 08359 12580 20000 10080 20063 39944 40043 53007 60002 81440 90700 333 20080 50184 55019 70006;","Q01  00002PRCP12"
"08359099999","2010-01-06T18:00:00","4","38.3666666","-0.5","82.0","ALICANTE, SP","FM-12","99999","V020","010,1,N,0010,1","99999,9,9,N","020000,1,N,1","+0106,1","+0049,1","10060,1","12,0000,9,1",,,,,,"05,99,1,03,1,00,1,99999,9,03,1,02,1",,,"999,M,+0165,1","99999,9,09962,1","3,1,005,1,+999,9",,"SYN082AAXX  06184 08359 12970 50102 10106 20049 39962 40060 53005 60002 83032 333 10165;","Q01  00002PRCP12"
"08359099999","2010-01-07T06:00:00","4","38.3666666","-0.5","82.0","ALICANTE, SP","FM-12","99999","V020","080,1,N,0026,1","99999,9,9,N","010000,1,N,1","+0090,1","+0082,1","10003,1","12,0061,9,1","24,0061,9,1",,"6,1,06,1","6,1,06,1",,"08,99,1,08,1,00,1,99999,9,07,1,99,9","0390,9",,"999,N,+0076,1","99999,9,09905,1","6,1,015,1,+999,9","62,1","SYN112AAXX  07064 08359 11960 80805 10090 20082 39905 40003 56015 60062 76266 8807/ 90700 333 20076 50224 55065 70060;",
"08359099999","2010-01-07T18:00:00","4","38.3666666","-0.5","82.0","ALICANTE, SP","FM-12","99999","V020","340,1,N,0021,1","00420,1,9,N","008000,1,N,1","+0082,1","+0070,1","09919,1","12,0170,9,1",,,"6,1,06,1","6,1,06,1",,"08,99,1,05,1,07,1,00450,1,07,1,99,9",,,"999,M,+0113,1","99999,9,09821,1","5,1,000,1,+999,9","63,1","SYN088AAXX  07184 08359 11458 83404 10082 20070 39821 49919 55000 60172 76366 8577/ 333 10113;",
"08359099999","2010-01-08T06:00:00","4","38.3666666","-0.5","82.0","ALICANTE, SP","FM-12","99999","V020","310,1,N,0021,1","99999,9,9,N","020000,1,N,1","+0054,1","+0019,1","09974,1","12,0010,9,1","24,0185,9,1",,"6,1,06,1","2,1,06,1",,"08,99,1,08,1,00,1,99999,9,07,1,99,9","0000,9",,"999,N,+0054,1","99999,9,09875,1","3,1,012,1,+999,9","02,1","SYN112AAXX  08064 08359 11970 83104 10054 20019 39875 49974 53012 60012 70262 8807/ 90700 333 20054 50094 55000 70185;",
"08359099999","2010-01-08T18:00:00","4","38.3666666","-0.5","82.0","ALICANTE, SP","FM-12","99999","V020","300,1,N,0031,1","22000,1,9,N","030000,1,N,1","+0052,1","-0041,1","10048,1","12,0000,9,1",,,,,,"03,99,1,03,1,00,1,99999,9,04,1,02,1",,,"999,M,+0080,1","99999,9,09948,1","1,1,017,1,+999,9",,"SYN082AAXX  08184 08359 12980 33006 10052 21041 39948 40048 51017 60002 83042 333 10080;","Q01  00002PRCP12"
"08359099999","2010-01-09T06:00:00","4","38.3666666","-0.5","82.0","ALICANTE, SP","FM-12","99999","V020","300,1,N,0036,1","22000,1,9,N","030000,1,N,1","+0036,1","-0058,1","10107,1","12,0000,9,1","24,0000,9,1",,,,"00,1,+99999,9,99,9","00,99,1,00,1,00,1,99999,9,00,1,00,1","0048,9",,"999,N,+0030,1","99999,9,10005,1","1,1,008,1,+999,9",,"SYN100AAXX  09064 08359 12980 03007 10036 21058 30005 40107 51008 60002 90700 333 20030 50354 55008 70000;","Q01  00002PRCP24Q02  00002PRCP12"
"08359099999","2010-01-09T18:00:00","4","38.3666666","-0.5","82.0","ALICANTE, SP","FM-12","99999","V020","310,1,N,0026,1","22000,1,9,N","030000,1,N,1","+0056,1","-0051,1","10145,1","12,0000,9,1",,,,,,"01,99,1,01,1,01,1,00800,1,00,1,00,1",,,"999,M,+0094,1","99999,9,10044,1","2,1,020,1,+999,9",,"SYN082AAXX  09184 08359 12580 13105 10056 21051 30044 40145 52020 60002 81100 333 10094;","Q01  00002PRCP12"
"08359099999","2010-01-10T06:00:00","4","38.3666666","-0.5","82.0","ALICANTE, SP","FM-12","99999","V020","250,1,N,0015,1","22000,1,9,N","030000,1,N,1","+0028,1","-0053,1","10177,1","12,0000,9,1","24,0000,9,1",,,,,"02,99,1,01,1,00,1,99999,9,04,1,01,1","0528,9",,"999,N,+0018,1","99999,9,10074,1","1,1,008,1,+999,9",,"SYN106AAXX  10064 08359 12980 22503 10028 21053 30074 40177 51008 60002 81041 90700 333 20018 50434 55088 70000;","Q01  00002PRCP24Q02  00002PRCP12"
"08359099999","2010-01-10T18:00:00","4","38.3666666","-0.5","82.0","ALICANTE, SP","FM-12","99999","V020","210,1,N,0005,1","00750,1,9,N","020000,1,N,1","+0072,1","+0012,1","10147,1","12,0000,9,1",,,,,,"08,99,1,05,1,05,1,00800,1,07,1,99,9",,,"999,M,+0120,1","99999,9,10046,1","6,1,005,1,+999,9",,"SYN082AAXX  10184 08359 12570 82101 10072 20012 30046 40147 56005 60002 8557/ 333 10120;","Q01  00002PRCP12"
"08359099999","2010-01-11T06:00:00","4","38.3666666","-0.5","82.0","ALICANTE, SP","FM-12","99999","V020","999,9,C,0000,1","99999,9,9,N","020000,1,N,1","+0050,1","+0041,1","10151,1","12,0020,9,1","24,0023,9,1",,"6,1,06,1","6,1,06,1",,"08,99,1,08,1,00,1,99999,9,07,1,99,9","0336,9",,"999,N,+0034,1","99999,9,10050,1","5,1,000,1,+999,9","60,1","SYN112AAXX  11064 08359 11970 80000 10050 20041 30050 40151 55000 60022 76066 8807/ 90700 333 20034 50184 55056 70022;",
"08359099999","2010-01-11T18:00:00","4","38.3666666","-0.5","82.0","ALICANTE, SP","FM-12","99999","V020","320,1,N,0026,1","22000,1,9,N","020000,1,N,1","+0104,1","+0052,1","10180,1","12,0000,2,1",,,,,,"03,99,1,02,1,04,1,00800,1,04,1,00,1",,,"999,M,+0122,1","99999,9,10080,1","2,1,020,1,+999,9",,"SYN082AAXX  11184 08359 12570 33205 10104 20052 30080 40180 52020 60002 82440 333 10122;",
"08359099999","2010-01-12T06:00:00","4","38.3666666","-0.5","82.0","ALICANTE, SP","FM-12","99999","V020","250,1,N,0015,1","09000,1,9,N","020000,1,N,1","+0078,1","+0040,1","10191,1","12,0000,9,1","24,0000,2,1",,,,,"05,99,1,01,1,04,1,00800,1,04,1,02,1","0156,9",,"999,N,+0070,1","99999,9,10090,1","6,1,005,1,+999,9",,"SYN106AAXX  12064 08359 12570 52503 10078 20040 30090 40191 56005 60002 81442 90700 333 20070 50164 55026 70001;","Q01  00002PRCP12"
"08359099999","2010-01-12T18:00:00","4","38.3666666","-0.5","82.0","ALICANTE, SP","FM-12","99999","V020","999,9,C,0000,1","03600,1,9,N","008000,1,N,1","+0100,1","+0095,1","10110,1","12,0030,9,1",,,"6,1,06,1","6,1,06,1",,"08,99,1,02,1,07,1,00800,1,07,1,99,9",,,"999,M,+0134,1","99999,9,10011,1","7,1,014,1,+999,9","61,1","SYN088AAXX  12184 08359 11558 80000 10100 20095 30011 40110 57014 60032 76166 8277/ 333 10134;",
"08359099999","2010-01-13T06:00:00","4","38.3666666","-0.5","82.0","ALICANTE, SP","FM-12","99999","V020","300,1,N,0057,1","22000,1,9,N","030000,1,N,1","+0122,1","+0026,1","10129,1","12,0010,9,1","24,0033,9,1",,,,,"03,99,1,03,1,00,1,99999,9,05,1,00,1","0000,9",,"999,N,+0095,1","99999,9,10030,1","0,1,002,1,+999,9",,"SYN106AAXX  13064 08359 12980 33011 10122 20026 30030 40129 50002 60012 83050 90700 333 20095 50204 55000 70034;",
"08359099999","2010-01-13T18:00:00","4","38.3666666","-0.5","82.0","ALICANTE, SP","FM-12","99999","V020","999,9,C,0000,1","99999,9,9,N","018000,1,N,1","+0116,1","+0088,1","10133,1","12,0000,9,1",,,,,,"08,99,1,08,1,00,1,99999,9,07,1,99,9",,,"999,M,+0152,1","99999,9,10034,1","8,1,012,1,+999,9",,"SYN082AAXX  13184 08359 12968 80000 10116 20088 30034 40133 58012 60002 8807/ 333 10152;","Q01  00002PRCP12"
"08359099999","2010-01-14T06:00:00","4","38.3666666","-0.5","82.0","ALICANTE, SP","FM-12","99999","V020","999,9,C,0000,1","22000,1,9,N","020000,1,N,1","+0080,1","+0080,1","10040,1","12,0020,9,2","24,0018,9,2",,,,,"04,99,1,01,1,00,1,99999,9,04,1,06,1","0000,9",,"999,N,+0080,1","99999,9,09941,1","6,1,007,1,+999,9",,"SYN106AAXX  14064 08359 12970 40000 10080 20080 39941 40040 56007 60022 81046 90700 333 20080 50184 55000 70018;",
"08359099999","2010-01-14T18:00:00","4","38.3666666","-0.5","82.0","ALICANTE, SP","FM-12","99999","V020","300,1,N,0036,1","03600,1,9,N","030000,1,N,1","+0138,1","+0044,1","10081,1","12,0000,9,1",,,"8,1,06,1","2,1,06,1",,"05,99,1,02,1,04,1,00800,1,04,1,00,1",,,"999,M,+0190,1","99999,9,09983,1","1,1,025,1,+999,9","02,1","SYN088AAXX  14184 08359 12580 53007 10138 20044 39983 40081 51025 69902 70282 82440 333 10190;","Q01  00002PRCP12"
"08359099999","2010-01-15T06:00:00","4","38.3666666","-0.5","82.0","ALICANTE, SP","FM-12","99999","V020","320,1,N,0026,1","22000,1,9,N","030000,1,N,1","+0118,1","+0020,1","10189,1","12,0000,9,1","24,0000,9,1",,,,,"01,99,1,01,1,00,1,99999,9,04,1,00,1","0402,9",,"999,N,+0112,1","99999,9,10090,1","2,1,025,1,+999,9",,"SYN106AAXX  15064 08359 12980 13205 10118 20020 30090 40189 52025 60002 81040 90700 333 20112 50664 55067 79999;","Q01  00002PRCP24Q02  00002PRCP12"
"08359099999","2010-01-15T18:00:00","4","38.3666666","-0.5","82.0","ALICANTE, SP","FM-12","99999","V020","360,1,N,0005,1","22000,1,9,N","030000,1,N,1","+0120,1","+0079,1","10231,1","12,0000,9,1",,,,,,"01,99,1,01,1,00,1,99999,9,04,1,01,1",,,"999,M,+0185,1","99999,9,10131,1","1,1,012,1,+999,9",,"SYN082AAXX  15184 08359 12980 13601 10120 20079 30131 40231 51012 60002 81041 333 10185;","Q01  00002PRCP12"
"08359099999","2010-01-16T06:00:00","4","38.3666666","-0.5","82.0","ALICANTE, SP","FM-12","99999","V020","310,1,N,0005,1","99999,9,9,N","030000,1,N,1","+0080,1","+0048,1","10187,1","12,0000,9,1","24,0000,9,1",,,,,"05,99,1,05,1,00,1,99999,9,04,1,00,1","0534,9",,"999,N,+0065,1","99999,9,10086,1","1,1,002,1,+999,9",,"SYN106AAXX  16064 08359 12980 53101 10080 20048 30086 40187 51002 60002 85040 90700 333 20065 50264 55089 70000;","Q01  00002PRCP24Q02  00002PRCP12"
"08359099999","2010-01-16T18:00:00","4","38.3666666","-0.5","82.0","ALICANTE, SP","FM-12","99999","V020","220,1,N,0010,1","99999,9,9,N","020000,1,N,1","+0154,1","+0074,1","10217,1","12,0000,9,1",,,,,,"06,99,1,03,1,00,1,99999,9,03,1,06,1",,,"999,M,+0204,1","99999,9,10119,1","1,1,003,1,+999,9",,"SYN082AAXX  16184 08359 12970 62202 10154 20074 30119 40217 51003 60002 83036 333 10204;","Q01  00002PRCP12"
"08359099999","2010-01-17T06:00:00","4","38.3666666","-0.5","82.0","ALICANTE, SP","FM-12","99999","V020","999,9,C,0000,1","01200,1,9,N","020000,1,N,1","+0136,1","+0102,1","10221,1","12,0000,9,1","24,0000,9,1",,,,,"08,99,1,05,1,05,1,01250,1,07,1,99,9","0300,9",,"999,N,+0125,1","99999,9,10122,1","5,1,000,1,+999,9",,"SYN106AAXX  17064 08359 12670 80000 10136 20102 30122 40221 55000 60002 8557/ 90700 333 20125 50304 55050 70000;","Q01  00002PRCP24Q02  00002PRCP12"
"08359099999","2010-01-17T18:00:00","4","38.3666666","-0.5","82.0","ALICANTE, SP","FM-12","99999","V020","060,1,N,0015,1","99999,9,9,N","020000,1,N,1","+0152,1","+0110,1","10232,1","12,0000,9,1",,,,,,"08,99,1,02,1,00,1,99999,9,07,1,06,1",,,"999,M,+0230,1","99999,9,10134,1","1,1,010,1,+999,9",,"SYN082AAXX  17184 08359 12970 80603 10152 20110 30134 40232 51010 60002 82076 333 10230;","Q01  00002PRCP12"
"08359099999","2010-01-18T06:00:00","4","38.3666666","-0.5","82.0","ALICANTE, SP","FM-12","99999","V020","999,9,C,0000,1","22000,1,9,N","020000,1,N,1","+0080,1","+0080,1","10238,1","12,0000,9,1","24,0000,9,1",,,,,"04,99,1,04,1,06,1,00450,1,00,1,00,1","0282,9",,"999,N,+0080,1","99999,9,10137,1","3,1,003,1,+999,9",,"SYN106AAXX  18064 08359 12470 40000 10080 20080 30137 40238 53003 60002 84600 90700 333 20080 50174 55047 70000;","Q01  00002PRCP24Q02  00002PRCP12"
"08359099999","2010-01-18T18:00:00","4","38.3666666","-0.5","82.0","ALICANTE, SP","FM-12","99999","V020","999,9,C,0000,1","22000,1,9,N","012000,1,N,1","+0122,1","+0111,1","10217,1","12,0000,9,1",,,,,,"02,99,1,01,1,04,1,00800,1,06,1,00,1",,,"999,M,+0152,1","99999,9,10118,1","3,1,005,1,+999,9",,"SYN082AAXX  18184 08359 12562 20000 10122 20111 30118 40217 53005 60002 81460 333 10152;","Q01  00002PRCP12"
"08359099999","2010-01-19T06:00:00","4","38.3666666","-0.5","82.0","ALICANTE, SP","FM-12","99999","V020","999,9,C,0000,1","22000,1,9,N","010000,1,N,1","+0106,1","+0098,1","10213,1","12,0000,9,1","24,0000,9,1",,,,,"04,99,1,04,1,00,1,99999,9,03,1,00,1","0000,9",,"999,N,+0106,1","99999,9,10113,1","5,1,000,1,+999,9",,"SYN106AAXX  19064 08359 12960 40000 10106 20098 30113 40213 55000 60002 84030 90700 333 20106 50064 55000 70000;","Q01  00002PRCP24Q02  00002PRCP12"
"08359099999","2010-01-19T18:00:00","4","38.3666666","-0.5","82.0","ALICANTE, SP","FM-12","99999","V020","999,9,C,0000,1","99999,9,9,N","005000,1,N,1","+0140,1","+0122,1","10185,1","12,0000,9,1",,,"4,1,06,1","4,1,06,1",,"08,99,1,08,1,00,1,99999,9,07,1,99,9",,,"999,M,+0180,1","99999,9,10087,1","0,1,000,1,+999,9","10,1","SYN088AAXX  19184 08359 11950 80000 10140 20122 30087 40185 50000 60002 71044 8807/ 333 10180;","Q01  00002PRCP12"
"08359099999","2010-01-20T06:00:00","4","38.3666666","-0.5","82.0","ALICANTE, SP","FM-12","99999","V020","300,1,N,0026,1","22000,1,9,N","030000,1,N,1","+0138,1","+0057,1","10186,1","12,0000,9,1","24,0000,9,1",,,,,"02,99,1,02,1,04,1,00800,1,00,1,00,1","0198,9",,"999,N,+0125,1","99999,9,10087,1","3,1,006,1,+999,9",,"SYN106AAXX  20064 08359 12580 23005 10138 20057 30087 40186 53006 60002 82400 90700 333 20125 50164 55033 70000;","Q01  00002PRCP24Q02  00002PRCP12"
"08359099999","2010-01-20T18:00:00","4","38.3666666","-0.5","82.0","ALICANTE, SP","FM-12","99999","V020","300,1,N,0031,1","09000,1,9,N","020000,1,N,1","+0160,1","+0062,1","10192,1","12,0000,9,1",,,,,,"07,99,1,02,1,04,1,00800,1,00,1,06,1",,,"999,M,+0192,1","99999,9,10094,1","3,1,015,1,+999,9",,"SYN082AAXX  20184 08359 12570 73006 10160 20062 30094 40192 53015 60002 82406 333 10192;","Q01  00002PRCP12"
"08359099999","2010-01-21T06:00:00","4","38.3666666","-0.5","82.0","ALICANTE, SP","FM-12","99999","V020","310,1,N,0015,1","22000,1,9,N","030000,1,N,1","+0100,1","+0046,1","10219,1","12,0000,9,1","24,0000,9,1",,,,,"01,99,1,00,1,00,1,99999,9,00,1,01,1","0354,9",,"999,N,+0088,1","99999,9,10119,1","3,1,006,1,+999,9",,"SYN106AAXX  21064 08359 12980 13103 10100 20046 30119 40219 53006 60002 80001 90700 333 20088 50394 55059 70000;","Q01  00002PRCP24Q02  00002PRCP12"
"08359099999","2010-01-21T18:00:00","4","38.3666666","-0.5","82.0","ALICANTE, SP","FM-12","99999","V020","090,1,N,0021,1","99999,9,9,N","020000,1,N,1","+0126,1","+0081,1","10226,1","12,0000,9,1",,,,,,"07,99,1,03,1,00,1,99999,9,02,1,06,1",,,"999,M,+0175,1","99999,9,10127,1","1,1,008,1,+999,9",,"SYN082AAXX  21184 08359 12970 70904 10126 20081 30127 40226 51008 60002 83026 333 10175;","Q01  00002PRCP12"
"08359099999","2010-01-22T06:00:00","4","38.3666666","-0.5","82.0","ALICANTE, SP","FM-12","99999","V020","270,1,N,0010,1","99999,9,9,N","025000,1,N,1","+0078,1","+0056,1","10214,1","12,0000,9,1","24,0000,9,1",,,,,"06,99,1,00,1,00,1,99999,9,00,1,06,1","0468,9",,"999,N,+0065,1","99999,9,10113,1","6,1,007,1,+999,9",,"SYN106AAXX  22064 08359 12975 62702 10078 20056 30113 40214 56007 60002 80006 90700 333 20065 50204 55078 70000;","Q01  00002PRCP24Q02  00002PRCP12"
"08359099999","2010-01-22T18:00:00","4","38.3666666","-0.5","82.0","ALICANTE, SP","FM-12","99999","V020","070,1,N,0026,1","99999,9,9,N","015000,1,N,1","+0118,1","+0094,1","10197,1","12,0000,9,1",,,,,,"06,99,1,00,1,00,1,99999,9,00,1,06,1",,,"999,M,+0164,1","99999,9,10098,1","3,1,008,1,+999,9",,"SYN082AAXX  22184 08359 12965 60705 10118 20094 30098 40197 53008 60002 80006 333 10164;","Q01  00002PRCP12"
"08359099999","2010-01-23T06:00:00","4","38.3666666","-0.5","82.0","ALICANTE, SP","FM-12","99999","V020","999,9,C,0000,1","99999,9,9,N","020000,1,N,1","+0090,1","+0064,1","10185,1","12,0000,9,1","24,0000,9,1","9999,9,9,999999,9,9",,,,"08,99,1,08,1,00,1,99999,9,07,1,99,9","0510,9","17,9","999,N,+0075,1","99999,9,10085,1","7,1,002,1,+999,9",,"SYN106AAXX  23064 08359 12970 80000 10090 20064 30085 40185 57002 60002 8807/ 90700 333 20075 40174 55085 70000;","Q01  00002PRCP24Q02  00002PRCP12Q03  01742SNDP  "
"08359099999","2010-01-23T18:00:00","4","38.3666666","-0.5","82.0","ALICANTE, SP","FM-12","99999","V020","090,1,N,0031,1","22000,1,9,N","015000,1,N,1","+0120,1","+0092,1","10177,1","12,0000,9,1",,,,,,"02,99,1,01,1,04,1,00800,1,03,1,00,1",,,"999,M,+0158,1","99999,9,10078,1","3,1,007,1,+999,9",,"SYN082AAXX  23184 08359 12565 20906 10120 20092 30078 40177 53007 60002 81430 333 10158;","Q01  00002PRCP12"
"08359099999","2010-01-24T06:00:00","4","38.3666666","-0.5","82.0","ALICANTE, SP","FM-12","99999","V020","999,9,C,0000,1","22000,1,9,N","020000,1,N,1","+0064,1","+0050,1","10187,1","12,0000,9,1","24,0000,9,1",,,,,"03,99,1,01,1,04,1,00800,1,03,1,09,1","0258,9",,"999,N,+0055,1","99999,9,10086,1","3,1,005,1,+999,9",,"SYN106AAXX  24064 08359 12570 30000 10064 20050 30086 40187 53005 60002 81439 90700 333 20055 50154 55043 70000;","Q01  00002PRCP24Q02  00002PRCP12"
"08359099999","2010-01-24T18:00:00","4","38.3666666","-0.5","82.0","ALICANTE, SP","FM-12","99999","V020","999,9,C,0000,1","99999,9,9,N","015000,1,N,1","+0114,1","+0098,1","10200,1","12,0010,9,1",,,"6,1,06,1","2,1,06,1",,"08,99,1,08,1,00,1,99999,9,07,1,99,9",,,"999,M,+0152,1","99999,9,10101,1","2,1,012,1,+999,9","60,1","SYN088AAXX  24184 08359 11965 80000 10114 20098 30101 40200 52012 60012 76062 8807/ 333 10152;",
"08359099999","2010-01-25T06:00:00","4","38.3666666","-0.5","82.0","ALICANTE, SP","FM-12","99999","V020","350,1,N,0005,1","03600,1,9,N","020000,1,N,1","+0106,1","+0082,1","10206,1","12,0005,9,1","24,0015,9,1",,"6,1,06,1","2,1,06,1",,"08,99,1,02,1,05,1,01250,1,07,1,99,9","0108,9",,"999,N,+0102,1","99999,9,10106,1","3,1,002,1,+999,9","50,1","SYN112AAXX  25064 08359 11670 83501 10106 20082 30106 40206 53002 69942 75062 8257/ 90700 333 20102 50144 55018 70014;",
"08359099999","2010-01-25T18:00:00","4","38.3666666","-0.5","82.0","ALICANTE, SP","FM-12","99999","V020","050,1,N,0010,1","03600,1,9,N","018000,1,N,1","+0110,1","+0080,1","10188,1","12,0003,9,1",,,"6,1,06,1","2,1,06,1",,"08,99,1,02,1,05,1,00800,1,07,1,99,9",,,"999,M,+0132,1","99999,9,10089,1","7,1,002,1,+999,9","02,1","SYN088AAXX  25184 08359 11568 80502 10110 20080 30089 40188 57002 69932 70262 8257/ 333 10132;",
"08359099999","2010-01-26T06:00:00","4","38.3666666","-0.5","82.0","ALICANTE, SP","FM-12","99999","V020","060,1,N,0026,1","03600,1,9,N","020000,1,N,1","+0100,1","+0071,1","10168,1","12,0099,9,1","24,0104,9,1",,"6,1,06,1","6,1,06,1",,"08,99,1,01,1,04,1,00800,1,07,1,99,9","0000,9",,"999,N,+0085,1","99999,9,10068,1","6,1,002,1,+999,9","02,1","SYN112AAXX  26064 08359 11570 80605 10100 20071 30068 40168 56002 60102 70266 8147/ 90700 333 20085 50134 55000 70104;",
"08359099999","2010-01-26T18:00:00","4","38.3666666","-0.5","82.0","ALICANTE, SP","FM-12","99999","V020","360,1,N,0021,1","03600,1,9,N","020000,1,N,1","+0108,1","+0056,1","10177,1","12,0000,9,1",,,"6,1,06,1","2,1,06,1",,"05,99,1,03,1,05,1,00800,1,06,1,00,1",,,"999,M,+0135,1","99999,9,10078,1","2,1,008,1,+999,9","01,1","SYN088AAXX  26184 08359 11570 53604 10108 20056 30078 40177 52008 69902 70162 83560 333 10135;","Q01  00002PRCP12"
"08359099999","2010-01-27T06:00:00","4","38.3666666","-0.5","82.0","ALICANTE, SP","FM-12","99999","V020","999,9,C,0000,1","00750,1,9,N","015000,1,N,1","+0068,1","+0050,1","10173,1","12,9999,9,9","24,9999,9,9",,"5,1,06,1","2,1,06,1",,"08,99,1,06,1,05,1,00800,1,07,1,99,9","0060,9",,"999,N,+0054,1","99999,9,10072,1","3,1,005,1,+999,9","50,1","SYN112AAXX  27064 08359 11565 80000 10068 20050 30072 40173 53005 69902 75052 8657/ 90700 333 20054 50164 55010 79999;","Q01  00002PRCP24Q02  00002PRCP12Q03  00002PRCP12Q04  00002PRCP24"
"08359099999","2010-01-27T18:00:00","4","38.3666666","-0.5","82.0","ALICANTE, SP","FM-12","99999","V020","040,1,N,0015,1","22000,1,9,N","020000,1,N,1","+0086,1","+0044,1","10203,1","12,0000,2,1",,,,,,"03,99,1,01,1,04,1,00800,1,06,1,02,1",,,"999,M,+0115,1","99999,9,10102,1","2,1,010,1,+999,9",,"SYN082AAXX  27184 08359 12570 30403 10086 20044 30102 40203 52010 60002 81462 333 10115;",
"08359099999","2010-01-28T06:00:00","4","38.3666666","-0.5","82.0","ALICANTE, SP","FM-12","99999","V020","320,1,N,0010,1","22000,1,9,N","025000,1,N,1","+0030,1","+0009,1","10193,1","12,0000,9,1","24,0000,2,1",,,,,"01,99,1,00,1,00,1,99999,9,00,1,01,1","0168,9",,"999,N,+0025,1","99999,9,10090,1","6,1,007,1,+999,9",,"SYN106AAXX  28064 08359 12975 13202 10030 20009 30090 40193 56007 60002 80001 90700 333 20025 50134 55028 70000;","Q01  00002PRCP12"
"08359099999","2010-01-28T18:00:00","4","38.3666666","-0.5","82.0","ALICANTE, SP","FM-12","99999","V020","999,9,C,0000,1","22000,1,9,N","030000,1,N,1","+0110,1","+0026,1","10138,1","12,0000,9,1",,,,,,"01,99,1,00,1,00,1,99999,9,00,1,01,1",,,"999,M,+0160,1","99999,9,10039,1","5,1,000,1,+999,9",,"SYN082AAXX  28184 08359 12980 10000 10110 20026 30039 40138 55000 60002 80001 333 10160;","Q01  00002PRCP12"
"08359099999","2010-01-29T06:00:00","4","38.3666666","-0.5","82.0","ALICANTE, SP","FM-12","99999","V020","320,1,N,0015,1","22000,1,9,N","030000,1,N,1","+0074,1","+0015,1","10084,1","12,0000,9,1","24,0000,9,1",,,,,"01,99,1,00,1,00,1,99999,9,00,1,01,1","0564,9",,"999,N,+0040,1","99999,9,09984,1","7,1,010,1,+999,9",,"SYN106AAXX  29064 08359 12980 13203 10074 20015 39984 40084 57010 60002 80001 90700 333 20040 50274 55094 70000;","Q01  00002PRCP24Q02  00002PRCP12"
"08359099999","2010-01-29T18:00:00","4","38.3666666","-0.5","82.0","ALICANTE, SP","FM-12","99999","V020","320,1,N,0026,1","22000,1,9,N","030000,1,N,1","+0140,1","+0029,1","10037,1","12,0000,9,1",,,,,,"01,99,1,01,1,04,1,00800,1,00,1,01,1",,,"999,M,+0172,1","99999,9,09940,1","5,1,000,1,+999,9",,"SYN082AAXX  29184 08359 12580 13205 10140 20029 39940 40037 55000 60002 81401 333 10172;","Q01  00002PRCP12"
"08359099999","2010-01-30T06:00:00","4","38.3666666","-0.5","82.0","ALICANTE, SP","FM-12","99999","V020","330,1,N,0031,1","22000,1,9,N","030000,1,N,1","+0098,1","+0012,1","10057,1","12,0000,9,1","24,0000,9,1",,,,"00,1,+99999,9,99,9","00,99,1,00,1,00,1,99999,9,00,1,00,1","0570,9",,"999,N,+0095,1","99999,9,09958,1","3,1,010,1,+999,9",,"SYN100AAXX  30064 08359 12980 03306 10098 20012 39958 40057 53010 60002 90700 333 20095 50454 55095 70000;","Q01  00002PRCP24Q02  00002PRCP12"
"08359099999","2010-01-30T18:00:00","4","38.3666666","-0.5","82.0","ALICANTE, SP","FM-12","99999","V020","310,1,N,0015,1","22000,1,9,N","030000,1,N,1","+0132,1","+0027,1","10077,1","12,0000,9,1",,,,,,"01,99,1,01,1,04,1,00800,1,00,1,00,1",,,"999,M,+0170,1","99999,9,09979,1","1,1,006,1,+999,9",,"SYN082AAXX  30184 08359 12580 13103 10132 20027 39979 40077 51006 60002 81400 333 10170;","Q01  00002PRCP12"
"08359099999","2010-01-31T06:00:00","4","38.3666666","-0.5","82.0","ALICANTE, SP","FM-12","99999","V020","320,1,N,0015,1","22000,1,9,N","030000,1,N,1","+0095,1","+0009,1","10082,1","12,0000,9,1","24,0000,9,1",,,,,"02,99,1,01,1,00,1,99999,9,03,1,02,1","0582,9",,"999,N,+0095,1","99999,9,09983,1","5,1,000,1,+999,9",,"SYN106AAXX  31064 08359 12980 23203 10095 20009 39983 40082 55000 60002 81032 90700 333 20095 50544 55097 70000;","Q01  00002PRCP24Q02  00002PRCP12"
"08359099999","2010-02-01T06:00:00","4","38.3666666","-0.5","82.0","ALICANTE, SP","FM-12","99999","V020","320,1,N,0010,1","22000,1,9,N","030000,1,N,1","+0070,1","+0033,1","10164,1","12,0000,9,1","24,0000,9,1",,,,"00,1,+99999,9,99,9","00,99,1,00,1,00,1,99999,9,00,1,00,1","0576,9",,"999,N,+0070,1","99999,9,10063,1","2,1,030,1,+999,9",,"SYN100AAXX  01064 08359 12980 03202 10070 20033 30063 40164 52030 60002 90700 333 20070 50464 55096 70000;","Q01  00002PRCP24Q02  00002PRCP12"
"08359099999","2010-02-01T18:00:00","4","38.3666666","-0.5","82.0","ALICANTE, SP","FM-12","99999","V020","080,1,N,0010,1","22000,1,9,N","020000,1,N,1","+0102,1","+0058,1","10230,1","12,0000,9,1",,,,,,"02,99,1,02,1,04,1,00800,1,00,1,00,1",,,"999,M,+0152,1","99999,9,10130,1","2,1,022,1,+999,9",,"SYN082AAXX  01184 08359 12570 20802 10102 20058 30130 40230 52022 60002 82400 333 10152;","Q01  00002PRCP12"
"08359099999","2010-02-02T06:00:00","4","38.3666666","-0.5","82.0","ALICANTE, SP","FM-12","99999","V020","340,1,N,0010,1","22000,1,9,N","030000,1,N,1","+0044,1","+0034,1","10257,1","12,0000,9,1","24,0000,9,1",,,,,"02,99,1,01,1,04,1,00800,1,00,1,01,1","0564,9",,"999,N,+0040,1","99999,9,10154,1","3,1,003,1,+999,9",,"SYN106AAXX  02064 08359 12580 23402 10044 20034 30154 40257 53003 60002 81401 90700 333 20040 50204 55094 70000;","Q01  00002PRCP24Q02  00002PRCP12"
"08359099999","2010-02-02T18:00:00","4","38.3666666","-0.5","82.0","ALICANTE, SP","FM-12","99999","V020","160,1,N,0010,1","22000,1,9,N","025000,1,N,1","+0100,1","+0056,1","10243,1","12,0000,9,1",,,,,,"01,99,1,01,1,04,1,00800,1,00,1,00,1",,,"999,M,+0150,1","99999,9,10143,1","6,1,002,1,+999,9",,"SYN082AAXX  02184 08359 12575 11602 10100 20056 30143 40243 56002 60002 81400 333 10150;","Q01  00002PRCP12"
"08359099999","2010-02-03T06:00:00","4","38.3666666","-0.5","82.0","ALICANTE, SP","FM-12","99999","V020","330,1,N,0005,1","22000,1,9,N","020000,1,N,1","+0026,1","+0016,1","10226,1","12,0000,9,1","24,0000,9,1",,,,,"01,99,1,01,1,00,1,99999,9,03,1,01,1","0522,9",,"999,N,+0026,1","99999,9,10123,1","3,1,002,1,+999,9",,"SYN106AAXX  03064 08359 12970 13301 10026 20016 30123 40226 53002 60002 81031 90700 333 20026 50144 55087 70000;","Q01  00002PRCP24Q02  00002PRCP12"
"08359099999","2010-02-03T18:00:00","4","38.3666666","-0.5","82.0","ALICANTE, SP","FM-12","99999","V020","030,1,N,0010,1","99999,9,9,N","020000,1,N,1","+0110,1","+0080,1","10187,1","12,0000,9,1",,,,,,"07,99,1,05,1,00,1,99999,9,07,1,06,1",,,"999,M,+0152,1","99999,9,10088,1","5,1,000,1,+999,9",,"SYN082AAXX  03184 08359 12970 70302 10110 20080 30088 40187 55000 60002 85076 333 10152;","Q01  00002PRCP12"
"08359099999","2010-02-04T06:00:00","4","38.3666666","-0.5","82.0","ALICANTE, SP","FM-12","99999","V020","230,1,N,0005,1","99999,9,9,N","020000,1,N,1","+0096,1","+0070,1","10128,1","12,0000,9,1","24,0000,9,1",,,,,"08,99,1,08,1,00,1,99999,9,07,1,99,9","0468,9",,"999,N,+0082,1","99999,9,10029,1","6,1,003,1,+999,9",,"SYN106AAXX  04064 08359 12970 82301 10096 20070 30029 40128 56003 60002 8807/ 90700 333 20082 50194 55078 70000;","Q01  00002PRCP24Q02  00002PRCP12"
"08359099999","2010-02-04T18:00:00","4","38.3666666","-0.5","82.0","ALICANTE, SP","FM-12","99999","V020","230,1,N,0026,1","22000,1,9,N","030000,1,N,1","+0130,1","+0107,1","10135,1","12,0008,9,1",,,,,,"03,99,1,01,1,04,1,00800,1,04,1,01,1",,,"999,M,+0163,1","99999,9,10037,1","2,1,020,1,+999,9",,"SYN082AAXX  04184 08359 12580 32305 10130 20107 30037 40135 52020 69972 81441 333 10163;",
"08359099999","2010-02-05T06:00:00","4","38.3666666","-0.5","82.0","ALICANTE, SP","FM-12","99999","V020","350,1,N,0005,1","22000,1,9,N","030000,1,N,1","+0084,1","+0080,1","10159,1","12,0000,9,1","24,0008,9,1",,,,,"03,99,1,01,1,04,1,00800,1,06,1,01,1","0060,9",,"999,N,+0080,1","99999,9,10059,1","3,1,010,1,+999,9",,"SYN106AAXX  05064 08359 12580 33501 10084 20080 30059 40159 53010 60002 81461 90700 333 20080 50104 55010 70007;","Q01  00002PRCP12"
"08359099999","2010-02-05T18:00:00","4","38.3666666","-0.5","82.0","ALICANTE, SP","FM-12","99999","V020","330,1,N,0015,1","09000,1,9,N","020000,1,N,1","+0168,1","+0051,1","10203,1","12,0000,9,1",,,,,,"05,99,1,01,1,04,1,00800,1,06,1,06,1",,,"999,M,+0208,1","99999,9,10105,1","2,1,020,1,+999,9",,"SYN082AAXX  05184 08359 12570 53303 10168 20051 30105 40203 52020 60002 81466 333 10208;","Q01  00002PRCP12"
"08359099999","2010-02-06T06:00:00","4","38.3666666","-0.5","82.0","ALICANTE, SP","FM-12","99999","V020","300,1,N,0021,1","22000,1,9,N","020000,1,N,1","+0134,1","+0053,1","10211,1","12,0000,9,1","24,0000,9,1",,,,,"03,99,1,03,1,00,1,99999,9,04,1,00,1","0528,9",,"999,N,+0110,1","99999,9,10112,1","5,1,003,1,+999,9",,"SYN106AAXX  06064 08359 12970 33004 10134 20053 30112 40211 55003 60002 83040 90700 333 20110 50454 55088 70000;","Q01  00002PRCP24Q02  00002PRCP12"
"08359099999","2010-02-06T18:00:00","4","38.3666666","-0.5","82.0","ALICANTE, SP","FM-12","99999","V020","320,1,N,0026,1","22000,1,9,N","020000,1,N,1","+0164,1","+0065,1","10191,1","12,0000,9,1",,,,,,"02,99,1,01,1,00,1,99999,9,04,1,01,1",,,"999,M,+0206,1","99999,9,10093,1","3,1,005,1,+999,9",,"SYN082AAXX  06184 08359 12970 23205 10164 20065 30093 40191 53005 60002 81041 333 10206;","Q01  00002PRCP12"
"08359099999","2010-02-07T06:00:00","4","38.3666666","-0.5","82.0","ALICANTE, SP","FM-12","99999","V020","999,9,C,0000,1","99999,9,9,N","020000,1,N,1","+0130,1","+0068,1","10166,1","12,0000,9,1","24,0000,9,1",,,,,"06,99,1,03,1,00,1,99999,9,03,1,06,1","0588,9",,"999,N,+0125,1","99999,9,10067,1","5,1,000,1,+999,9",,"SYN106AAXX  07064 08359 12970 60000 10130 20068 30067 40166 55000 60002 83036 90700 333 20125 50484 55098 70000;","Q01  00002PRCP24Q02  00002PRCP12"
"08359099999","2010-02-07T18:00:00","4","38.3666666","-0.5","82.0","ALICANTE, SP","FM-12","99999","V020","040,1,N,0015,1","99999,9,9,N","020000,1,N,1","+0132,1","+0109,1","10123,1","12,0000,9,1",,,,,,"08,99,1,04,1,00,1,99999,9,07,1,06,1",,,"999,M,+0200,1","99999,9,10025,1","6,1,006,1,+999,9",,"SYN082AAXX  07184 08359 12970 80403 10132 20109 30025 40123 56006 60002 84076 333 10200;","Q01  00002PRCP12"
"08359099999","2010-02-08T06:00:00","4","38.3666666","-0.5","82.0","ALICANTE, SP","FM-12","99999","V020","999,9,C,0000,1","99999,9,9,N","015000,1,N,1","+0100,1","+0079,1","10069,1","12,0000,9,1","24,0000,9,1",,,,,"07,99,1,04,1,00,1,99999,9,07,1,06,1","0402,9",,"999,N,+0100,1","99999,9,09970,1","6,1,012,1,+999,9",,"SYN106AAXX  08064 08359 12965 70000 10100 20079 39970 40069 56012 60002 84076 90700 333 20100 50204 55067 70000;","Q01  00002PRCP24Q02  00002PRCP12"
"08359099999","2010-02-08T18:00:00","4","38.3666666","-0.5","82.0","ALICANTE, SP","FM-12","99999","V020","230,1,N,0026,1","22000,1,9,N","018000,1,N,1","+0130,1","+0104,1","09996,1","12,0005,9,1",,,"6,1,06,1","1,1,06,1",,"04,99,1,03,1,08,1,01250,1,06,1,00,1",,,"999,M,+0160,1","99999,9,09899,1","6,1,008,1,+999,9","01,1","SYN088AAXX  08184 08359 11668 42305 10130 20104 39899 49996 56008 69942 70161 83860 333 10160;",
"08359099999","2010-02-09T06:00:00","4","38.3666666","-0.5","82.0","ALICANTE, SP","FM-12","99999","V020","300,1,N,0036,1","03600,1,9,N","020000,1,N,1","+0114,1","+0053,1","09976,1","12,0000,9,1","24,0005,9,1",,,,,"05,99,1,02,1,04,1,01250,1,06,1,00,1","0072,9",,"999,N,+0110,1","99999,9,09879,1","5,1,000,1,+999,9",,"SYN106AAXX  09064 08359 12670 53007 10114 20053 39879 49976 55000 69922 82460 90700 333 20110 50234 55012 70006;","Q01  00002PRCP12"
"08359099999","2010-02-09T18:00:00","4","38.3666666","-0.5","82.0","ALICANTE, SP","FM-12","99999","V020","300,1,N,0015,1","22000,1,9,N","025000,1,N,1","+0144,1","+0052,1","10115,1","12,0000,9,1",,,,,,"04,99,1,02,1,04,1,01250,1,06,1,00,1",,,"999,M,+0186,1","99999,9,09918,1","3,1,016,1,+999,9",,"SYN082AAXX  09184 08359 12675 43003 10144 20052 39918 40115 53016 60002 82460 333 10186;","Q01  00002PRCP12"
"08359099999","2010-02-10T06:00:00","4","38.3666666","-0.5","82.0","ALICANTE, SP","FM-12","99999","V020","290,1,N,0010,1","22000,1,9,N","030000,1,N,1","+0076,1","-0014,1","10058,1","12,0000,9,1","24,0000,9,1",,,,,"01,99,1,00,1,00,1,99999,9,00,1,02,1","0450,9",,"999,N,+0070,1","99999,9,09958,1","3,1,005,1,+999,9",,"SYN106AAXX  10064 08359 12980 12902 10076 21014 39958 40058 53005 60002 80002 90700 333 20070 50434 55075 70000;","Q01  00002PRCP24Q02  00002PRCP12"
"08359099999","2010-02-10T18:00:00","4","38.3666666","-0.5","82.0","ALICANTE, SP","FM-12","99999","V020","320,1,N,0021,1","99999,9,9,N","020000,1,N,1","+0126,1","+0027,1","10055,1","12,0000,9,1",,,,,,"08,99,1,08,1,00,1,99999,9,07,1,99,9",,,"999,M,+0148,1","99999,9,09957,1","8,1,005,1,+999,9",,"SYN082AAXX  10184 08359 12970 83204 10126 20027 39957 40055 58005 60002 8807/ 333 10148;","Q01  00002PRCP12"
"08359099999","2010-02-11T06:00:00","4","38.3666666","-0.5","82.0","ALICANTE, SP","FM-12","99999","V020","360,1,N,0005,1","22000,1,9,N","020000,1,N,1","+0078,1","-0046,1","10047,1","12,0010,9,1","24,0010,9,1",,,,,"01,99,1,01,1,00,1,99999,9,04,1,00,1","0384,9",,"999,N,+0078,1","99999,9,09948,1","3,1,010,1,+999,9",,"SYN106AAXX  11064 08359 12970 13601 10078 21046 39948 40047 53010 60012 81040 90700 333 20078 50434 55064 70010;",
"08359099999","2010-02-11T18:00:00","4","38.3666666","-0.5","82.0","ALICANTE, SP","FM-12","99999","V020","310,1,N,0026,1","22000,1,9,N","030000,1,N,1","+0090,1","-0081,1","10083,1","12,0000,9,1",,,,,,"01,99,1,01,1,00,1,99999,9,06,1,00,1",,,"999,M,+0130,1","99999,9,09984,1","3,1,014,1,+999,9",,"SYN082AAXX  11184 08359 12980 13105 10090 21081 39984 40083 53014 60002 81060 333 10130;","Q01  00002PRCP12"
"08359099999","2010-02-12T06:00:00","4","38.3666666","-0.5","82.0","ALICANTE, SP","FM-12","99999","V020","310,1,N,0021,1","22000,1,9,N","030000,1,N,1","+0030,1","-0066,1","10112,1","12,0000,9,1","24,0000,9,1",,,,,"01,99,1,00,1,00,1,99999,9,00,1,01,1","0606,9",,"999,N,+0030,1","99999,9,10010,1","3,1,008,1,+999,9",,"SYN106AAXX  12064 08359 12980 13104 10030 21066 30010 40112 53008 60002 80001 90700 333 20030 50414 55101 70000;","Q01  00002PRCP24Q02  00002PRCP12"
"08359099999","2010-02-12T18:00:00","4","38.3666666","-0.5","82.0","ALICANTE, SP","FM-12","99999","V020","070,1,N,0015,1","99999,9,9,N","018000,1,N,1","+0070,1","-0017,1","10117,1","12,0000,9,1",,,,,,"07,99,1,00,1,00,1,99999,9,00,1,06,1",,,"999,M,+0106,1","99999,9,10017,1","1,1,003,1,+999,9",,"SYN082AAXX  12184 08359 12968 70703 10070 21017 30017 40117 51003 60002 80006 333 10106;","Q01  00002PRCP12"
"08359099999","2010-02-13T06:00:00","4","38.3666666","-0.5","82.0","ALICANTE, SP","FM-12","99999","V020","040,1,N,0026,1","03600,1,9,N","018000,1,N,1","+0070,1","-0002,1","10090,1","12,0000,9,1","24,0000,9,1",,,,,"08,99,1,01,1,04,1,01250,1,07,1,99,9","0516,9",,"999,N,+0040,1","99999,9,09990,1","6,1,006,1,+999,9",,"SYN106AAXX  13064 08359 12668 80405 10070 21002 39990 40090 56006 60002 8147/ 90700 333 20040 50304 55086 70000;","Q01  00002PRCP24Q02  00002PRCP12"
"08359099999","2010-02-13T18:00:00","4","38.3666666","-0.5","82.0","ALICANTE, SP","FM-12","99999","V020","010,1,N,0005,1","03600,1,9,N","015000,1,N,1","+0064,1","+0046,1","10079,1","12,0010,9,1",,,"6,1,06,1","2,1,06,1",,"08,99,1,02,1,05,1,00800,1,07,1,99,9",,,"999,M,+0100,1","99999,9,09979,1","2,1,004,1,+999,9","60,1","SYN088AAXX  13184 08359 11565 80101 10064 20046 39979 40079 52004 60012 76062 8257/ 333 10100;",
"08359099999","2010-02-14T06:00:00","4","38.3666666","-0.5","82.0","ALICANTE, SP","FM-12","99999","V020","999,9,C,0000,1","99999,9,9,N","015000,1,N,1","+0048,1","+0039,1","10104,1","12,0005,9,1","24,0018,9,1",,,,,"07,99,1,07,1,00,1,99999,9,07,1,00,1","0000,9",,"999,N,+0048,1","99999,9,10003,1","1,1,002,1,+999,9",,"SYN106AAXX  14064 08359 12965 70000 10048 20039 30003 40104 51002 69942 87070 90700 333 20048 50174 55000 70017;",
"08359099999","2010-02-14T18:00:00","4","38.3666666","-0.5","82.0","ALICANTE, SP","FM-12","99999","V020","120,1,N,0010,1","01500,1,9,N","012000,1,N,1","+0084,1","+0042,1","10094,1","12,0000,9,1",,,,,,"08,99,1,08,1,08,1,01250,1,99,9,99,9",,,"999,M,+0118,1","99999,9,09994,1","5,1,005,1,+999,9",,"SYN082AAXX  14184 08359 12662 81202 10084 20042 39994 40094 55005 60002 888// 333 10118;","Q01  00002PRCP12"
"08359099999","2010-02-15T06:00:00","4","38.3666666","-0.5","82.0","ALICANTE, SP","FM-12","99999","V020","040,1,N,0021,1","99999,9,9,N","015000,1,N,1","+0070,1","+0052,1","10028,1","12,0005,9,1","24,0005,9,1",,"6,1,06,1","2,1,06,1",,"08,99,1,08,1,00,1,99999,9,07,1,99,9","0132,9",,"999,N,+0065,1","99999,9,09929,1","7,1,017,1,+999,9","60,1","SYN112AAXX  15064 08359 11965 80404 10070 20052 39929 40028 57017 69942 76062 8807/ 90700 333 20065 50144 55022 70004;",
"08359099999","2010-02-15T18:00:00","4","38.3666666","-0.5","82.0","ALICANTE, SP","FM-12","99999","V020","010,1,N,0010,1","03600,1,9,N","020000,1,N,1","+0096,1","+0052,1","09971,1","12,0041,9,1",,,"6,1,06,1","6,1,06,1",,"08,99,1,01,1,04,1,01250,1,07,1,99,9",,,"999,M,+0100,1","99999,9,09873,1","5,1,005,1,+999,9","02,1","SYN088AAXX  15184 08359 11670 80102 10096 20052 39873 49971 55005 60042 70266 8147/ 333 10100;",
"08359099999","2010-02-16T06:00:00","4","38.3666666","-0.5","82.0","ALICANTE, SP","FM-12","99999","V020","999,9,C,0000,1","99999,9,9,N","020000,1,N,1","+0082,1","+0070,1","09966,1","12,0000,9,1","24,0036,9,1",,,,,"08,99,1,08,1,00,1,99999,9,02,1,99,9","0000,9",,"999,N,+0064,1","99999,9,09868,1","6,1,004,1,+999,9",,"SYN106AAXX  16064 08359 12970 80000 10082 20070 39868 49966 56004 60002 8802/ 90700 333 20064 50084 55000 70035;","Q01  00002PRCP12"
"08359099999","2010-02-16T18:00:00","4","38.3666666","-0.5","82.0","ALICANTE, SP","FM-12","99999","V020","020,1,N,0010,1","03600,1,9,N","006000,1,N,1","+0102,1","+0095,1","09940,1","12,0000,9,1",,,"6,1,06,1","5,1,06,1",,"08,99,1,03,1,07,1,00800,1,07,1,99,9",,,"999,M,+0112,1","99999,9,09843,1","6,1,006,1,+999,9","10,1","SYN088AAXX  16184 08359 11556 80202 10102 20095 39843 49940 56006 69922 71065 8377/ 333 10112;","Q01  00002PRCP12"
"08359099999","2010-02-17T06:00:00","4","38.3666666","-0.5","82.0","ALICANTE, SP","FM-12","99999","V020","999,9,C,0000,1","99999,9,9,N","006000,1,N,1","+0070,1","+0070,1","09948,1","12,0010,9,1","24,0010,9,1",,"6,1,06,1","4,1,06,1",,"05,99,1,01,1,00,1,99999,9,03,1,06,1","0000,9",,"999,N,+0070,1","99999,9,09849,1","3,1,010,1,+999,9","10,1","SYN112AAXX  17064 08359 11956 50000 10070 20070 39849 49948 53010 60012 71064 81036 90700 333 20070 50034 55000 70011;",
"08359099999","2010-02-17T18:00:00","4","38.3666666","-0.5","82.0","ALICANTE, SP","FM-12","99999","V020","260,1,N,0021,1","22000,1,9,N","025000,1,N,1","+0156,1","+0052,1","09962,1","12,0000,9,1",,,,,,"02,99,1,02,1,08,1,00800,1,06,1,00,1",,,"999,M,+0185,1","99999,9,09866,1",,,"SYN082AAXX  17184 08359 12575 22604 10156 20052 39866 49962 53000 60002 82860 333 10185;","Q01+000032APCTENQ02  00002PRCP12"
"08359099999","2010-02-18T06:00:00","4","38.3666666","-0.5","82.0","ALICANTE, SP","FM-12","99999","V020","360,1,N,0005,1","99999,9,9,N","030000,1,N,1","+0064,1","+0050,1","10035,1","12,0000,9,1","24,0000,9,1",,,,,"06,99,1,01,1,00,1,99999,9,03,1,06,1","0282,9",,"999,N,+0060,1","99999,9,09935,1","8,1,003,1,+999,9",,"SYN106AAXX  18064 08359 12980 63601 10064 20050 39935 40035 58003 60002 81036 90700 333 20060 50214 55047 70000;","Q01  00002PRCP24Q02  00002PRCP12"
"08359099999","2010-02-18T18:00:00","4","38.3666666","-0.5","82.0","ALICANTE, SP","FM-12","99999","V020","040,1,N,0036,1","99999,9,9,N","012000,1,N,1","+0108,1","+0084,1","09922,1","12,0010,9,1",,,"6,1,06,1","2,1,06,1",,"08,99,1,08,1,00,1,99999,9,07,1,99,9",,,"999,M,+0152,1","99999,9,09825,1","7,1,028,1,+999,9","60,1","SYN088AAXX  18184 08359 11962 80407 10108 20084 39825 49922 57028 60012 76062 8807/ 333 10152;",
"08359099999","2010-02-19T06:00:00","4","38.3666666","-0.5","82.0","ALICANTE, SP","FM-12","99999","V020","999,9,C,0000,1","03600,1,9,N","020000,1,N,1","+0078,1","+0074,1","09935,1","12,0079,9,1","24,0097,9,1",,"6,1,06,1","2,1,06,1",,"07,99,1,01,1,08,1,00800,1,07,1,02,1","0114,9",,"999,N,+0066,1","99999,9,09837,1","0,1,000,1,+999,9","02,1","SYN112AAXX  19064 08359 11570 70000 10078 20074 39837 49935 50000 60082 70262 81872 90700 333 20066 50174 55019 70096;",
"08359099999","2010-02-19T18:00:00","4","38.3666666","-0.5","82.0","ALICANTE, SP","FM-12","99999","V020","290,1,N,0026,1","99999,9,9,N","020000,1,N,1","+0124,1","+0036,1","10024,1","12,0020,9,1",,,,,,"06,99,1,02,1,00,1,99999,9,04,1,02,1",,,"999,M,+0156,1","99999,9,09927,1","2,1,028,1,+999,9",,"SYN082AAXX  19184 08359 12970 62905 10124 20036 39927 40024 52028 60022 82042 333 10156;",
"08359099999","2010-02-20T06:00:00","4","38.3666666","-0.5","82.0","ALICANTE, SP","FM-12","99999","V020","280,1,N,0021,1","22000,1,9,N","030000,1,N,1","+0074,1","+0015,1","10117,1","12,0000,9,1","24,0023,9,1",,,,"00,1,+99999,9,99,9","00,99,1,00,1,00,1,99999,9,00,1,00,1","0048,9",,"999,N,+0065,1","99999,9,10017,1","3,1,010,1,+999,9",,"SYN100AAXX  20064 08359 12980 02804 10074 20015 30017 40117 53010 60002 90700 333 20065 50244 55008 70023;","Q01  00002PRCP12"
"08359099999","2010-02-20T18:00:00","4","38.3666666","-0.5","82.0","ALICANTE, SP","FM-12","99999","V020","290,1,N,0010,1","22000,1,9,N","030000,1,N,1","+0126,1","+0033,1","10119,1","12,0000,9,1",,,,,,"02,99,1,01,1,04,1,00800,1,00,1,02,1",,,"999,M,+0170,1","99999,9,10021,1","3,1,002,1,+999,9",,"SYN082AAXX  20184 08359 12580 22902 10126 20033 30021 40119 53002 60002 81402 333 10170;","Q01  00002PRCP12"
"08359099999","2010-02-21T06:00:00","4","38.3666666","-0.5","82.0","ALICANTE, SP","FM-12","99999","V020","020,1,N,0010,1","03600,1,9,N","012000,1,N,1","+0082,1","+0060,1","10078,1","12,9999,9,9","24,0003,9,1",,"6,1,06,1","2,1,06,1",,"08,99,1,03,1,07,1,00800,1,07,1,99,9","0612,9",,"999,N,+0060,1","99999,9,09979,1","8,1,015,1,+999,9","60,1","SYN112AAXX  21064 08359 11562 80202 10082 20060 39979 40078 58015 69922 76062 8377/ 90700 333 20060 50354 55102 70002;","Q01  00002PRCP12Q02  00002PRCP12"
"08359099999","2010-02-21T18:00:00","4","38.3666666","-0.5","82.0","ALICANTE, SP","FM-12","99999","V020","170,1,N,0010,1","03600,1,9,N","015000,1,N,1","+0120,1","+0101,1","10032,1","12,0003,9,1",,,,,,"06,99,1,02,1,08,1,00800,1,07,1,00,1",,,"999,M,+0145,1","99999,9,09934,1","5,1,008,1,+999,9",,"SYN082AAXX  21184 08359 12565 61702 10120 20101 39934 40032 55008 69932 82870 333 10145;",
"08359099999","2010-02-22T06:00:00","4","38.3666666","-0.5","82.0","ALICANTE, SP","FM-12","99999","V020","999,9,C,0000,1","22000,1,9,N","020000,1,N,1","+0064,1","+0060,1","10042,1","12,0000,9,1","24,0003,9,1",,,,,"02,99,1,01,1,00,1,99999,9,04,1,01,1","0042,9",,"999,N,+0060,1","99999,9,09942,1","4,1,000,1,+999,9",,"SYN106AAXX  22064 08359 12970 20000 10064 20060 39942 40042 54000 60002 81041 90700 333 20060 50064 55007 70003;","Q01  00002PRCP12"
"08359099999","2010-02-22T18:00:00","4","38.3666666","-0.5","82.0","ALICANTE, SP","FM-12","99999","V020","190,1,N,0021,1","22000,1,9,N","020000,1,N,1","+0160,1","+0107,1","10036,1","12,0000,9,1",,,,,,"03,99,1,03,1,00,1,99999,9,06,1,02,1",,,"999,M,+0207,1","99999,9,09940,1","3,1,009,1,+999,9",,"SYN082AAXX  22184 08359 12970 31904 10160 20107 39940 40036 53009 60002 83062 333 10207;","Q01  00002PRCP12"
"08359099999","2010-02-23T06:00:00","4","38.3666666","-0.5","82.0","ALICANTE, SP","FM-12","99999","V020","330,1,N,0010,1","99999,9,9,N","020000,1,N,1","+0128,1","+0089,1","10072,1","12,9999,9,9","24,9999,9,9",,"6,1,06,1","2,1,06,1",,"06,99,1,05,1,00,1,99999,9,07,1,02,1","0468,9",,"999,N,+0115,1","99999,9,09974,1","3,1,010,1,+999,9","21,1","SYN112AAXX  23064 08359 11970 63302 10128 20089 39974 40072 53010 69902 72162 85072 90700 333 20115 50294 55078 79999;","Q01  00002PRCP24Q02  00002PRCP12Q03  00002PRCP12Q04  00002PRCP24"
"08359099999","2010-02-23T18:00:00","4","38.3666666","-0.5","82.0","ALICANTE, SP","FM-12","99999","V020","290,1,N,0031,1","22000,1,9,N","020000,1,N,1","+0194,1","+0058,1","10079,1","12,0000,2,1",,,,,,"03,99,1,01,1,04,1,00800,1,06,1,02,1",,,"999,M,+0226,1","99999,9,09983,1","3,1,005,1,+999,9",,"SYN082AAXX  23184 08359 12570 32906 10194 20058 39983 40079 53005 69902 81462 333 10226;",
"08359099999","2010-02-24T06:00:00","4","38.3666666","-0.5","82.0","ALICANTE, SP","FM-12","99999","V020","290,1,N,0036,1","22000,1,9,N","030000,1,N,1","+0160,1","+0050,1","10114,1","12,0000,9,1","24,0000,2,1",,,,"00,1,+99999,9,99,9","00,99,1,00,1,00,1,99999,9,00,1,00,1","0450,9",,"999,N,+0145,1","99999,9,10017,1","8,1,004,1,+999,9",,"SYN100AAXX  24064 08359 12980 02907 10160 20050 30017 40114 58004 60002 90700 333 20145 50554 55075 79999;","Q01  00002PRCP12"
"08359099999","2010-02-24T18:00:00","4","38.3666666","-0.5","82.0","ALICANTE, SP","FM-12","99999","V020","250,1,N,0021,1","22000,1,9,N","030000,1,N,1","+0196,1","+0063,1","10140,1","12,0000,9,1",,,,,,"03,99,1,00,1,00,1,99999,9,00,1,01,1",,,"999,M,+0236,1","99999,9,10044,1","4,1,000,1,+999,9",,"SYN082AAXX  24184 08359 12980 32504 10196 20063 30044 40140 54000 60002 80001 333 10236;","Q01  00002PRCP12"
"08359099999","2010-02-25T06:00:00","4","38.3666666","-0.5","82.0","ALICANTE, SP","FM-12","99999","V020","270,1,N,0005,1","99999,9,9,N","025000,1,N,1","+0096,1","+0061,1","10128,1","12,0000,9,1","24,0000,9,1",,,,,"05,99,1,00,1,00,1,99999,9,00,1,06,1","0618,9",,"999,N,+0090,1","99999,9,10029,1","8,1,008,1,+999,9",,"SYN106AAXX  25064 08359 12975 52701 10096 20061 30029 40128 58008 60002 80006 90700 333 20090 50654 55103 70000;","Q01  00002PRCP24Q02  00002PRCP12"
"08359099999","2010-02-25T18:00:00","4","38.3666666","-0.5","82.0","ALICANTE, SP","FM-12","99999","V020","030,1,N,0010,1","22000,1,9,N","018000,1,N,1","+0168,1","+0113,1","10079,1","12,0000,9,1",,,,,,"04,99,1,01,1,04,1,00800,1,06,1,01,1",,,"999,M,+0210,1","99999,9,09983,1","5,1,000,1,+999,9",,"SYN082AAXX  25184 08359 12568 40302 10168 20113 39983 40079 55000 60002 81461 333 10210;","Q01  00002PRCP12"
"08359099999","2010-02-26T06:00:00","4","38.3666666","-0.5","82.0","ALICANTE, SP","FM-12","99999","V020","310,1,N,0010,1","03600,1,9,N","020000,1,N,1","+0156,1","+0099,1","10107,1","12,0000,9,1","24,0000,9,1",,,,,"05,99,1,03,1,05,1,01250,1,04,1,00,1","0300,9",,"999,N,+0134,1","99999,9,10010,1","3,1,010,1,+999,9",,"SYN106AAXX  26064 08359 12670 53102 10156 20099 30010 40107 53010 60002 83540 90700 333 20134 50284 55050 70000;","Q01  00002PRCP24Q02  00002PRCP12"
"08359099999","2010-02-26T18:00:00","4","38.3666666","-0.5","82.0","ALICANTE, SP","FM-12","99999","V020","999,9,C,0000,1","99999,9,9,N","020000,1,N,1","+0164,1","+0111,1","10127,1","12,0000,9,1",,,,,,"08,99,1,07,1,00,1,99999,9,07,1,99,9",,,"999,M,+0220,1","99999,9,10030,1","3,1,003,1,+999,9",,"SYN082AAXX  26184 08359 12970 80000 10164 20111 30030 40127 53003 60002 8707/ 333 10220;","Q01  00002PRCP12"
"08359099999","2010-02-27T06:00:00","4","38.3666666","-0.5","82.0","ALICANTE, SP","FM-12","99999","V020","120,1,N,0010,1","99999,9,9,N","020000,1,N,1","+0130,1","+0107,1","10093,1","12,0000,9,1","24,0000,9,1",,,,,"07,99,1,04,1,00,1,99999,9,07,1,06,1","0180,9",,"999,N,+0122,1","99999,9,09955,1","6,1,010,1,+999,9",,"SYN106AAXX  27064 08359 12970 71202 10130 20107 39955 40093 56010 60002 84076 90700 333 20122 50264 55030 70000;","Q01  00002PRCP24Q02  00002PRCP12"
"08359099999","2010-02-27T18:00:00","4","38.3666666","-0.5","82.0","ALICANTE, SP","FM-12","99999","V020","999,9,C,0000,1","99999,9,9,N","020000,1,N,1","+0160,1","+0131,1","10011,1","12,0000,9,1",,,,,,"05,99,1,03,1,00,1,99999,9,03,1,06,1",,,"999,M,+0216,1","99999,9,09915,1","6,1,012,1,+999,9",,"SYN082AAXX  27184 08359 12970 50000 10160 20131 39915 40011 56012 60002 83036 333 10216;","Q01  00002PRCP12"
"08359099999","2010-02-28T06:00:00","4","38.3666666","-0.5","82.0","ALICANTE, SP","FM-12","99999","V020","300,1,N,0031,1","99999,9,9,N","020000,1,N,1","+0158,1","+0065,1","10066,1","12,0000,9,1","24,0000,9,1",,,,,"08,99,1,08,1,00,1,99999,9,07,1,99,9","0174,9",,"999,N,+0138,1","99999,9,09969,1","2,1,030,1,+999,9",,"SYN106AAXX  28064 08359 12970 83006 10158 20065 39969 40066 52030 60002 8807/ 90700 333 20138 50284 55029 70000;","Q01  00002PRCP24Q02  00002PRCP12"
"08359099999","2010-02-28T18:00:00","4","38.3666666","-0.5","82.0","ALICANTE, SP","FM-12","99999","V020","150,1,N,0005,1","03600,1,9,N","020000,1,N,1","+0142,1","+0100,1","10093,1","12,0000,9,1",,,,,,"05,99,1,01,1,04,1,00800,1,07,1,00,1",,,"999,M,+0230,1","99999,9,09996,1","3,1,004,1,+999,9",,"SYN082AAXX  28184 08359 12570 51501 10142 20100 39996 40093 53004 60002 81470 333 10230;","Q01  00002PRCP12"
"08359099999","2010-03-01T06:00:00","4","38.3666666","-0.5","82.0","ALICANTE, SP","FM-12","99999","V020","260,1,N,0010,1","22000,1,9,N","030000,1,N,1","+0106,1","+0058,1","10149,1","12,0000,9,1","24,0000,9,1",,,,,"01,99,1,01,1,04,1,00800,1,00,1,00,1","0012,9",,"999,N,+0080,1","99999,9,10050,1","2,1,020,1,+999,9",,"SYN106AAXX  01064 08359 12580 12602 10106 20058 30050 40149 52020 60002 81400 90700 333 20080 50234 55002 70000;","Q01  00002PRCP24Q02  00002PRCP12"
"08359099999","2010-03-01T18:00:00","4","38.3666666","-0.5","82.0","ALICANTE, SP","FM-12","99999","V020","210,1,N,0021,1","99999,9,9,N","020000,1,N,1","+0164,1","+0076,1","10190,1","12,0000,9,1",,,,,,"05,99,1,02,1,00,1,99999,9,04,1,02,1",,,"999,M,+0220,1","99999,9,10092,1","3,1,008,1,+999,9",,"SYN082AAXX  01184 08359 12970 52104 10164 20076 30092 40190 53008 60002 82042 333 10220;","Q01  00002PRCP12"
"08359099999","2010-03-02T06:00:00","4","38.3666666","-0.5","82.0","ALICANTE, SP","FM-12","99999","V020","040,1,N,0010,1","99999,9,9,N","020000,1,N,1","+0094,1","+0044,1","10188,1","12,0000,9,1","24,0000,9,1",,,,,"08,99,1,08,1,00,1,99999,9,02,1,99,9","0588,9",,"999,N,+0076,1","99999,9,10088,1","1,1,002,1,+999,9",,"SYN106AAXX  02064 08359 12970 80402 10094 20044 30088 40188 51002 60002 8802/ 90700 333 20076 50394 55098 70000;","Q01  00002PRCP24Q02  00002PRCP12"
"08359099999","2010-03-02T18:00:00","4","38.3666666","-0.5","82.0","ALICANTE, SP","FM-12","99999","V020","070,1,N,0021,1","03600,1,9,N","012000,1,N,1","+0120,1","+0104,1","10118,1","12,0010,9,1",,,"6,1,06,1","2,1,06,1",,"08,99,1,03,1,07,1,00800,1,07,1,99,9",,,"999,M,+0166,1","99999,9,10020,1","5,1,015,1,+999,9","61,1","SYN088AAXX  02184 08359 11562 80704 10120 20104 30020 40118 55015 60012 76162 8377/ 333 10166;",
"08359099999","2010-03-03T06:00:00","4","38.3666666","-0.5","82.0","ALICANTE, SP","FM-12","99999","V020","999,9,C,0000,1","99999,9,9,N","015000,1,N,1","+0100,1","+0092,1","10068,1","12,0191,9,1","24,0203,9,1",,"6,1,06,1","6,1,06,1",,"08,99,1,08,1,00,1,99999,9,07,1,99,9","0000,9",,"999,N,+0095,1","99999,9,09969,1","3,1,002,1,+999,9","61,1","SYN112AAXX  03064 08359 11965 80000 10100 20092 39969 40068 53002 60192 76166 8807/ 90700 333 20095 50244 55000 70202;",
"08359099999","2010-03-03T18:00:00","4","38.3666666","-0.5","82.0","ALICANTE, SP","FM-12","99999","V020","220,1,N,0010,1","22000,1,9,N","020000,1,N,1","+0162,1","+0118,1","10079,1","12,0000,2,1",,,,,,"02,99,1,01,1,02,1,01250,1,06,1,00,1",,,"999,M,+0205,1","99999,9,09982,1","2,1,007,1,+999,9",,"SYN082AAXX  03184 08359 12670 22202 10162 20118 39982 40079 52007 69922 81260 333 10205;",
"08359099999","2010-03-04T06:00:00","4","38.3666666","-0.5","82.0","ALICANTE, SP","FM-12","99999","V020","320,1,N,0005,1","22000,1,9,N","030000,1,N,1","+0110,1","+0082,1","10112,1","12,0003,9,1","24,0005,9,1",,"6,1,06,1","0,1,06,1",,"01,99,1,01,1,04,1,00800,1,00,1,02,1","0414,9",,"999,N,+0105,1","99999,9,10013,1","3,1,013,1,+999,9","02,1","SYN112AAXX  04064 08359 11580 13201 10110 20082 30013 40112 53013 69932 70260 81402 90700 333 20105 50214 55069 70005;",
"08359099999","2010-03-04T18:00:00","4","38.3666666","-0.5","82.0","ALICANTE, SP","FM-12","99999","V020","280,1,N,0010,1","99999,9,9,N","020000,1,N,1","+0186,1","+0099,1","10136,1","12,0000,9,1",,,,,,"05,99,1,02,1,00,1,99999,9,04,1,02,1",,,"999,M,+0216,1","99999,9,10040,1","3,1,005,1,+999,9",,"SYN082AAXX  04184 08359 12970 52802 10186 20099 30040 40136 53005 60002 82042 333 10216;","Q01  00002PRCP12"
"08359099999","2010-03-05T06:00:00","4","38.3666666","-0.5","82.0","ALICANTE, SP","FM-12","99999","V020","999,9,C,0000,1","99999,9,9,N","020000,1,N,1","+0114,1","+0095,1","10150,1","12,0000,9,1","24,0000,9,1",,,,,"07,99,1,07,1,00,1,99999,9,03,1,00,1","0612,9",,"999,N,+0110,1","99999,9,10051,1","3,1,005,1,+999,9",,"SYN106AAXX  05064 08359 12970 70000 10114 20095 30051 40150 53005 60002 87030 90700 333 20110 50364 55102 70000;","Q01  00002PRCP24Q02  00002PRCP12"
"08359099999","2010-03-05T18:00:00","4","38.3666666","-0.5","82.0","ALICANTE, SP","FM-12","99999","V020","070,1,N,0031,1","03600,1,9,N","018000,1,N,1","+0120,1","+0065,1","10162,1","12,0000,9,1",,,,,,"08,99,1,01,1,04,1,00800,1,07,1,99,9",,,"999,M,+0160,1","99999,9,10063,1","3,1,015,1,+999,9",,"SYN082AAXX  05184 08359 12568 80706 10120 20065 30063 40162 53015 60002 8147/ 333 10160;","Q01  00002PRCP12"
"08359099999","2010-03-06T06:00:00","4","38.3666666","-0.5","82.0","ALICANTE, SP","FM-12","99999","V020","080,1,N,0015,1","03600,1,9,N","020000,1,N,1","+0104,1","+0025,1","10169,1","12,0003,9,1","24,0003,9,1",,,,,"07,99,1,01,1,05,1,00800,1,07,1,00,1","0006,9",,"999,N,+0085,1","99999,9,10069,1","4,1,000,1,+999,9",,"SYN106AAXX  06064 08359 12570 70803 10104 20025 30069 40169 54000 69932 81570 90700 333 20085 50294 55001 70003;",
"08359099999","2010-03-06T18:00:00","4","38.3666666","-0.5","82.0","ALICANTE, SP","FM-12","99999","V020","020,1,N,0015,1","03600,1,9,N","020000,1,N,1","+0120,1","+0056,1","10131,1","12,0000,9,1",,,,,,"08,99,1,01,1,08,1,00800,1,07,1,99,9",,,"999,M,+0145,1","99999,9,10032,1","5,1,000,1,+999,9",,"SYN082AAXX  06184 08359 12570 80203 10120 20056 30032 40131 55000 60002 8187/ 333 10145;","Q01  00002PRCP12"
"08359099999","2010-03-07T06:00:00","4","38.3666666","-0.5","82.0","ALICANTE, SP","FM-12","99999","V020","999,9,C,0000,1","00750,1,9,N","020000,1,N,1","+0102,1","+0081,1","10132,1","12,0000,9,1","24,0000,9,1",,,,,"08,99,1,08,1,05,1,00800,1,99,9,99,9","0000,9",,"999,N,+0100,1","99999,9,10033,1","3,1,004,1,+999,9",,"SYN106AAXX  07064 08359 12570 80000 10102 20081 30033 40132 53004 60002 885// 90700 333 20100 50274 55000 70000;","Q01  00002PRCP24Q02  00002PRCP12"
"08359099999","2010-03-07T18:00:00","4","38.3666666","-0.5","82.0","ALICANTE, SP","FM-12","99999","V020","999,9,C,0000,1","00750,1,9,N","006000,1,N,1","+0106,1","+0094,1","10119,1","12,0003,9,1",,,"5,1,06,1","5,1,06,1",,"08,99,1,08,1,07,1,00800,1,99,9,99,9",,,"999,M,+0125,1","99999,9,10020,1","6,1,006,1,+999,9","51,1","SYN088AAXX  07184 08359 11556 80000 10106 20094 30020 40119 56006 69932 75155 887// 333 10125;",
"08359099999","2010-03-08T06:00:00","4","38.3666666","-0.5","82.0","ALICANTE, SP","FM-12","99999","V020","050,1,N,0010,1","00750,1,9,N","008000,1,N,1","+0100,1","+0095,1","10050,1","12,0051,9,1","24,0053,9,1",,"6,1,06,1","6,1,06,1",,"08,99,1,05,1,07,1,00800,1,07,1,99,9","0000,9",,"999,N,+0090,1","99999,9,09952,1","3,1,002,1,+999,9","60,1","SYN112AAXX  08064 08359 11558 80502 10100 20095 39952 40050 53002 60052 76066 8577/ 90700 333 20090 50104 55000 70053;",
"08359099999","2010-03-08T18:00:00","4","38.3666666","-0.5","82.0","ALICANTE, SP","FM-12","99999","V020","300,1,N,0021,1","99999,9,9,N","020000,1,N,1","+0100,1","-0026,1","10056,1","12,0010,9,1",,,,,,"06,99,1,05,1,00,1,99999,9,04,1,09,1",,,"999,M,+0125,1","99999,9,09957,1","5,1,002,1,+999,9",,"SYN082AAXX  08184 08359 12970 63004 10100 21026 39957 40056 55002 60012 85049 333 10125;",
"08359099999","2010-03-09T18:00:00","4","38.3666666","-0.5","82.0","ALICANTE, SP","FM-12","99999","V020","210,1,N,0026,1","22000,1,9,N","020000,1,N,1","+0106,1","+0039,1","10089,1","12,0000,9,1",,,,,,"01,99,1,01,1,00,1,99999,9,06,1,00,1",,,"999,M,+0145,1","99999,9,09900,1","3,1,014,1,+999,9",,"SYN082AAXX  09184 08359 12970 12105 10106 20039 39900 40089 53014 60002 81060 333 10145;","Q01  00002PRCP12"
"08359099999","2010-03-10T06:00:00","4","38.3666666","-0.5","82.0","ALICANTE, SP","FM-12","99999","V020","320,1,N,0010,1","22000,1,9,N","030000,1,N,1","+0040,1","-0068,1","10121,1","12,0000,9,1","24,0000,9,1",,,,"00,1,+99999,9,99,9","00,99,1,00,1,00,1,99999,9,00,1,00,1","0498,9",,"999,N,+0040,1","99999,9,10019,1","3,1,006,1,+999,9",,"SYN100AAXX  10064 08359 12980 03202 10040 21068 30019 40121 53006 60002 90700 333 20040 50334 55083 70000;","Q01  00002PRCP24Q02  00002PRCP12"
"08359099999","2010-03-10T18:00:00","4","38.3666666","-0.5","82.0","ALICANTE, SP","FM-12","99999","V020","090,1,N,0021,1","22000,1,9,N","020000,1,N,1","+0082,1","+0007,1","10135,1","12,0000,9,1",,,,,,"01,99,1,01,1,00,1,99999,9,06,1,00,1",,,"999,M,+0124,1","99999,9,10035,1","3,1,010,1,+999,9",,"SYN082AAXX  10184 08359 12970 10904 10082 20007 30035 40135 53010 60002 81060 333 10124;","Q01  00002PRCP12"
"08359099999","2010-03-11T06:00:00","4","38.3666666","-0.5","82.0","ALICANTE, SP","FM-12","99999","V020","320,1,N,0005,1","22000,1,9,N","015000,1,N,1","+0022,1","+0006,1","10155,1","12,0000,9,1","24,0000,9,1",,,,,"01,99,1,01,1,00,1,99999,9,03,1,01,1","0636,9",,"999,N,+0015,1","99999,9,10053,1","3,1,005,1,+999,9",,"SYN106AAXX  11064 08359 12965 13201 10022 20006 30053 40155 53005 60002 81031 90700 333 20015 50254 55106 70000;","Q01  00002PRCP24Q02  00002PRCP12"
"08359099999","2010-03-11T18:00:00","4","38.3666666","-0.5","82.0","ALICANTE, SP","FM-12","99999","V020","080,1,N,0026,1","99999,9,9,N","012000,1,N,1","+0100,1","+0056,1","10135,1","12,0000,9,1",,,,,,"05,99,1,02,1,00,1,99999,9,03,1,02,1",,,"999,M,+0150,1","99999,9,10036,1","3,1,007,1,+999,9",,"SYN082AAXX  11184 08359 12962 50805 10100 20056 30036 40135 53007 60002 82032 333 10150;","Q01  00002PRCP12"
"08359099999","2010-03-12T06:00:00","4","38.3666666","-0.5","82.0","ALICANTE, SP","FM-12","99999","V020","040,1,N,0010,1","99999,9,9,N","008000,1,N,1","+0080,1","+0048,1","10157,1","12,0005,9,1","24,0005,9,1",,"6,1,06,1","6,1,06,1",,"08,99,1,08,1,00,1,99999,9,07,1,99,9","0546,9",,"999,N,+0070,1","99999,9,10057,1","3,1,008,1,+999,9","61,1","SYN112AAXX  12064 08359 11958 80402 10080 20048 30057 40157 53008 69942 76166 8807/ 90700 333 20070 50254 55091 70004;",
"08359099999","2010-03-12T18:00:00","4","38.3666666","-0.5","82.0","ALICANTE, SP","FM-12","99999","V020","100,1,N,0005,1","03600,1,9,N","008000,1,N,1","+0094,1","+0044,1","99999,9","12,0020,9,1",,,,,,"08,99,1,03,1,07,1,00800,1,07,1,99,9",,,"999,M,+0116,1","99999,9,10090,1","3,1,010,1,+999,9",,"SYN082AAXX  12184 08359 12558 81001 10094 20044 30090 43010 53010 60022 8377/ 333 10116;",
"08359099999","2010-03-13T06:00:00","4","38.3666666","-0.5","82.0","ALICANTE, SP","FM-12","99999","V020","999,9,C,0000,1","22000,1,9,N","018000,1,N,1","+0042,1","+0038,1","10221,1","12,0000,9,1","24,0015,9,1",,,,,"04,99,1,04,1,00,1,99999,9,07,1,00,1","0006,9",,"999,N,+0040,1","99999,9,10119,1","3,1,005,1,+999,9",,"SYN106AAXX  13064 08359 12968 40000 10042 20038 30119 40221 53005 60002 84070 90700 333 20040 50104 55001 70015;","Q01  00002PRCP12"
"08359099999","2010-03-13T18:00:00","4","38.3666666","-0.5","82.0","ALICANTE, SP","FM-12","99999","V020","150,1,N,0010,1","22000,1,9,N","008000,1,N,1","+0094,1","+0044,1","10242,1","12,0000,9,1",,,"4,1,06,1","4,1,06,1",,"03,99,1,01,1,00,1,99999,9,02,1,02,1",,,"999,M,+0135,1","99999,9,10141,1","3,1,007,1,+999,9","10,1","SYN088AAXX  13184 08359 11958 31502 10094 20044 30141 40242 53007 60002 71044 81022 333 10135;","Q01  00002PRCP12"
"08359099999","2010-03-14T06:00:00","4","38.3666666","-0.5","82.0","ALICANTE, SP","FM-12","99999","V020","020,1,N,0005,1","22000,1,9,N","015000,1,N,1","+0030,1","+0014,1","10248,1","12,0000,9,1","24,0000,9,1",,,,"00,1,+99999,9,99,9","00,99,1,00,1,00,1,99999,9,00,1,00,1","0072,9",,"999,N,+0020,1","99999,9,10145,1","3,1,002,1,+999,9",,"SYN100AAXX  14064 08359 12965 00201 10030 20014 30145 40248 53002 60002 90700 333 20020 50174 55012 70000;","Q01  00002PRCP24Q02  00002PRCP12"
"08359099999","2010-03-14T18:00:00","4","38.3666666","-0.5","82.0","ALICANTE, SP","FM-12","99999","V020","160,1,N,0005,1","22000,1,9,N","012000,1,N,1","+0108,1","+0075,1","10252,1","12,0000,9,1",,,,,,"01,99,1,01,1,04,1,00800,1,00,1,00,1",,,"999,M,+0140,1","99999,9,10152,1","3,1,005,1,+999,9",,"SYN082AAXX  14184 08359 12562 11601 10108 20075 30152 40252 53005 60002 81400 333 10140;","Q01  00002PRCP12"
"08359099999","2010-03-15T06:00:00","4","38.3666666","-0.5","82.0","ALICANTE, SP","FM-12","99999","V020","999,9,C,0000,1","22000,1,9,N","018000,1,N,1","+0036,1","+0021,1","10262,1","12,0000,9,1","24,0000,9,1",,,,"00,1,+99999,9,99,9","00,99,1,00,1,00,1,99999,9,00,1,00,1","0606,9",,"999,N,+0025,1","99999,9,10159,1","3,1,006,1,+999,9",,"SYN100AAXX  15064 08359 12968 00000 10036 20021 30159 40262 53006 60002 90700 333 20025 50174 55101 70000;","Q01  00002PRCP24Q02  00002PRCP12"
"08359099999","2010-03-15T18:00:00","4","38.3666666","-0.5","82.0","ALICANTE, SP","FM-12","99999","V020","180,1,N,0015,1","22000,1,9,N","010000,1,N,1","+0124,1","+0075,1","10251,1","12,0000,9,1",,,,,"00,1,+99999,9,99,9","00,99,1,00,1,00,1,99999,9,00,1,00,1",,,"999,M,+0166,1","99999,9,10151,1","4,1,000,1,+999,9",,"SYN076AAXX  15184 08359 12960 01803 10124 20075 30151 40251 54000 60002 333 10166;","Q01  00002PRCP12"
"08359099999","2010-03-16T06:00:00","4","38.3666666","-0.5","82.0","ALICANTE, SP","FM-12","99999","V020","999,9,C,0000,1","22000,1,9,N","015000,1,N,1","+0042,1","+0038,1","10267,1","12,0000,9,1","24,0000,9,1",,,,"00,1,+99999,9,99,9","00,99,1,00,1,00,1,99999,9,00,1,00,1","0636,9",,"999,N,+0030,1","99999,9,10164,1","3,1,007,1,+999,9",,"SYN100AAXX  16064 08359 12965 00000 10042 20038 30164 40267 53007 60002 90700 333 20030 50214 55106 70000;","Q01  00002PRCP24Q02  00002PRCP12"
"08359099999","2010-03-16T18:00:00","4","38.3666666","-0.5","82.0","ALICANTE, SP","FM-12","99999","V020","090,1,N,0015,1","22000,1,9,N","012000,1,N,1","+0118,1","+0081,1","10269,1","12,0000,9,1",,,,,,"03,99,1,00,1,00,1,99999,9,00,1,04,1",,,"999,M,+0165,1","99999,9,10169,1","3,1,006,1,+999,9",,"SYN082AAXX  16184 08359 12962 30903 10118 20081 30169 40269 53006 60002 80004 333 10165;","Q01  00002PRCP12"
"08359099999","2010-03-17T06:00:00","4","38.3666666","-0.5","82.0","ALICANTE, SP","FM-12","99999","V020","050,1,N,0010,1","99999,9,9,N","020000,1,N,1","+0076,1","-0008,1","10284,1","12,0000,9,1","24,0000,9,1",,,,,"07,99,1,03,1,00,1,99999,9,02,1,02,1","0618,9",,"999,N,+0055,1","99999,9,10182,1","3,1,002,1,+999,9",,"SYN106AAXX  17064 08359 12970 70502 10076 21008 30182 40284 53002 60002 83022 90700 333 20055 50204 55103 70000;","Q01  00002PRCP24Q02  00002PRCP12"
"08359099999","2010-03-17T18:00:00","4","38.3666666","-0.5","82.0","ALICANTE, SP","FM-12","99999","V020","090,1,N,0031,1","22000,1,9,N","025000,1,N,1","+0134,1","+0080,1","10288,1","12,0000,9,1",,,,,,"01,99,1,00,1,00,1,99999,9,00,1,01,1",,,"999,M,+0175,1","99999,9,10188,1","4,1,000,1,+999,9",,"SYN082AAXX  17184 08359 12975 10906 10134 20080 30188 40288 54000 60002 80001 333 10175;","Q01  00002PRCP12"
"08359099999","2010-03-18T06:00:00","4","38.3666666","-0.5","82.0","ALICANTE, SP","FM-12","99999","V020","290,1,N,0010,1","99999,9,9,N","020000,1,N,1","+0080,1","+0042,1","10291,1","12,0000,9,1","24,0000,9,1",,,,,"07,99,1,00,1,00,1,99999,9,00,1,06,1","0600,9",,"999,N,+0062,1","99999,9,10189,1","3,1,003,1,+999,9",,"SYN106AAXX  18064 08359 12970 72902 10080 20042 30189 40291 53003 60002 80006 90700 333 20062 50354 55100 70000;","Q01  00002PRCP24Q02  00002PRCP12"
"08359099999","2010-03-18T18:00:00","4","38.3666666","-0.5","82.0","ALICANTE, SP","FM-12","99999","V020","160,1,N,0010,1","99999,9,9,N","012000,1,N,1","+0132,1","+0109,1","10264,1","12,0000,9,1",,,,,,"05,99,1,00,1,00,1,99999,9,00,1,06,1",,,"999,M,+0180,1","99999,9,10165,1","8,1,004,1,+999,9",,"SYN082AAXX  18184 08359 12962 51602 10132 20109 30165 40264 58004 60002 80006 333 10180;","Q01  00002PRCP12"
"08359099999","2010-03-19T06:00:00","4","38.3666666","-0.5","82.0","ALICANTE, SP","FM-12","99999","V020","999,9,C,0000,1","99999,9,9,N","005000,1,N,1","+0098,1","+0090,1","10263,1","12,0000,9,1","24,0000,9,1",,"4,1,06,1","4,1,06,1",,"06,99,1,06,1,00,1,99999,9,08,1,00,1","0192,9",,"999,N,+0088,1","99999,9,10162,1","1,1,002,1,+999,9","10,1","SYN112AAXX  19064 08359 11950 60000 10098 20090 30162 40263 51002 60002 71044 86080 90700 333 20088 50154 55032 70000;","Q01  00002PRCP24Q02  00002PRCP12"
"08359099999","2010-03-19T18:00:00","4","38.3666666","-0.5","82.0","ALICANTE, SP","FM-12","99999","V020","999,9,C,0000,1","99999,9,9,N","006000,1,N,1","+0160,1","+0142,1","10249,1","12,0000,9,1",,,"6,1,06,1","4,1,06,1",,"07,99,1,07,1,00,1,99999,9,07,1,99,9",,,"999,M,+0185,1","99999,9,10151,1","3,1,003,1,+999,9","10,1","SYN088AAXX  19184 08359 11956 70000 10160 20142 30151 40249 53003 69902 71064 8707/ 333 10185;","Q01  00002PRCP12"
"08359099999","2010-03-20T06:00:00","4","38.3666666","-0.5","82.0","ALICANTE, SP","FM-12","99999","V020","260,1,N,0005,1","99999,9,9,N","006000,1,N,1","+0120,1","+0101,1","10230,1","12,0000,9,1","24,0000,9,1",,"4,1,06,1","4,1,06,1",,"08,99,1,05,1,00,1,99999,9,02,1,09,1","0102,9",,"999,N,+0110,1","99999,9,10131,1","5,1,002,1,+999,9","10,1","SYN112AAXX  20064 08359 11956 82601 10120 20101 30131 40230 55002 60002 71044 85029 90700 333 20110 50144 55017 79999;","Q01  00002PRCP24Q02  00002PRCP12"
"08359099999","2010-03-20T18:00:00","4","38.3666666","-0.5","82.0","ALICANTE, SP","FM-12","99999","V020","340,1,N,0021,1","99999,9,9,N","008000,1,N,1","+0214,1","+0099,1","10213,1","12,0000,9,1",,,"4,1,06,1","4,1,06,1",,"08,99,1,08,1,00,1,99999,9,07,1,99,9",,,"999,M,+0242,1","99999,9,10117,1","3,1,002,1,+999,9","10,1","SYN088AAXX  20184 08359 11958 83404 10214 20099 30117 40213 53002 60002 71044 8807/ 333 10242;","Q01  00002PRCP12"
"08359099999","2010-03-21T06:00:00","4","38.3666666","-0.5","82.0","ALICANTE, SP","FM-12","99999","V020","999,9,C,0000,1","99999,9,9,N","008000,1,N,1","+0146,1","+0135,1","10215,1","12,0010,9,1","24,0013,9,1",,"6,1,06,1","2,1,06,1",,"08,99,1,08,1,00,1,99999,9,02,1,99,9","0036,9",,"999,N,+0142,1","99999,9,10117,1","3,1,008,1,+999,9","60,1","SYN112AAXX  21064 08359 11958 80000 10146 20135 30117 40215 53008 60012 76062 8802/ 90700 333 20142 50264 55006 70013;",
"08359099999","2010-03-21T18:00:00","4","38.3666666","-0.5","82.0","ALICANTE, SP","FM-12","99999","V020","020,1,N,0005,1","99999,9,9,N","006000,1,N,1","+0156,1","+0127,1","10205,1","12,0030,9,1",,,"6,1,06,1","6,1,06,1",,"08,99,1,08,1,00,1,99999,9,07,1,99,9",,,"999,M,+0200,1","99999,9,10107,1","3,1,010,1,+999,9","61,1","SYN088AAXX  21184 08359 11956 80201 10156 20127 30107 40205 53010 60032 76166 8807/ 333 10200;",
"08359099999","2010-03-22T06:00:00","4","38.3666666","-0.5","82.0","ALICANTE, SP","FM-12","99999","V020","999,9,C,0000,1","99999,9,9,N","012000,1,N,1","+0128,1","+0125,1","10204,1","12,0041,9,1","24,0069,9,1",,,,,"07,99,1,04,1,00,1,99999,9,07,1,02,1","0000,9",,"999,N,+0120,1","99999,9,10105,1","3,1,007,1,+999,9",,"SYN106AAXX  22064 08359 12962 70000 10128 20125 30105 40204 53007 60042 84072 90700 333 20120 50054 55000 70068;",
"08359099999","2010-03-22T18:00:00","4","38.3666666","-0.5","82.0","ALICANTE, SP","FM-12","99999","V020","050,1,N,0015,1","22000,1,9,N","015000,1,N,1","+0162,1","+0122,1","10203,1","12,0000,9,1",,,,,,"01,99,1,01,1,04,1,00800,1,06,1,00,1",,,"999,M,+0205,1","99999,9,10105,1","6,1,002,1,+999,9",,"SYN082AAXX  22184 08359 12565 10503 10162 20122 30105 40203 56002 69902 81460 333 10205;","Q01  00002PRCP12"
"08359099999","2010-03-23T06:00:00","4","38.3666666","-0.5","82.0","ALICANTE, SP","FM-12","99999","V020","080,1,N,0015,1","99999,9,9,N","000500,1,N,1","+0120,1","+0120,1","10208,1","12,0000,9,1","24,0000,9,1",,"4,1,06,1","4,1,06,1",,,"0456,9",,"999,N,+0116,1","99999,9,10109,1","3,1,005,1,+999,9","45,1","SYN112AAXX  23064 08359 11/05 /0803 10120 20120 30109 40208 53005 60002 74544 8//// 90700 333 20116 50154 55076 79999;","Q01  00002PRCP24Q02  00002PRCP12"
"08359099999","2010-03-23T18:00:00","4","38.3666666","-0.5","82.0","ALICANTE, SP","FM-12","99999","V020","070,1,N,0015,1","03600,1,9,N","012000,1,N,1","+0134,1","+0115,1","10172,1","12,0000,9,1",,,,,,"08,99,1,02,1,05,1,00800,1,02,1,99,9",,,"999,M,+0146,1","99999,9,10074,1","6,1,008,1,+999,9",,"SYN082AAXX  23184 08359 12562 80703 10134 20115 30074 40172 56008 60002 8252/ 333 10146;","Q01  00002PRCP12"
"08359099999","2010-03-24T06:00:00","4","38.3666666","-0.5","82.0","ALICANTE, SP","FM-12","99999","V020","060,1,N,0010,1","00750,1,9,N","015000,1,N,1","+0126,1","+0107,1","10143,1","12,0000,9,1","24,0000,9,1",,,,,"08,99,1,08,1,05,1,00800,1,99,9,99,9","0000,9",,"999,N,+0104,1","99999,9,10045,1","3,1,002,1,+999,9",,"SYN106AAXX  24064 08359 12565 80602 10126 20107 30045 40143 53002 60002 885// 90700 333 20104 50054 55000 70000;","Q01  00002PRCP24Q02  00002PRCP12"
"08359099999","2010-03-24T18:00:00","4","38.3666666","-0.5","82.0","ALICANTE, SP","FM-12","99999","V020","070,1,N,0010,1","99999,9,9,N","018000,1,N,1","+0140,1","+0113,1","10116,1","12,0000,9,1",,,,,,"07,99,1,07,1,00,1,99999,9,07,1,00,1",,,"999,M,+0174,1","99999,9,10018,1","8,1,005,1,+999,9",,"SYN082AAXX  24184 08359 12968 70702 10140 20113 30018 40116 58005 60002 87070 333 10174;","Q01  00002PRCP12"
"08359099999","2010-03-25T06:00:00","4","38.3666666","-0.5","82.0","ALICANTE, SP","FM-12","99999","V020","999,9,C,0000,1","99999,9,9,N","012000,1,N,1","+0120,1","+0104,1","10135,1","12,0000,9,1","24,0000,9,1",,,,,"05,99,1,02,1,00,1,99999,9,03,1,06,1","0030,9",,"999,N,+0120,1","99999,9,10036,1","3,1,014,1,+999,9",,"SYN106AAXX  25064 08359 12962 50000 10120 20104 30036 40135 53014 60002 82036 90700 333 20120 50124 55005 70000;","Q01  00002PRCP24Q02  00002PRCP12"
"08359099999","2010-03-25T18:00:00","4","38.3666666","-0.5","82.0","ALICANTE, SP","FM-12","99999","V020","160,1,N,0010,1","03600,1,9,N","006000,1,N,1","+0158,1","+0143,1","10132,1","12,0000,9,1",,,,,,"08,99,1,02,1,05,1,01250,1,02,1,99,9",,,"999,M,+0194,1","99999,9,10035,1","5,1,000,1,+999,9",,"SYN082AAXX  25184 08359 12656 81602 10158 20143 30035 40132 55000 60002 8252/ 333 10194;","Q01  00002PRCP12"
"08359099999","2010-03-26T06:00:00","4","38.3666666","-0.5","82.0","ALICANTE, SP","FM-12","99999","V020","320,1,N,0021,1","03600,1,9,N","030000,1,N,1","+0142,1","+0068,1","10195,1","12,0000,9,1","24,0000,9,1",,,,,"07,99,1,01,1,04,1,00800,1,07,1,06,1","0360,9",,"999,N,+0122,1","99999,9,10097,1","2,1,018,1,+999,9",,"SYN106AAXX  26064 08359 12580 73204 10142 20068 30097 40195 52018 60002 81476 90700 333 20122 50194 55060 70000;","Q01  00002PRCP24Q02  00002PRCP12"
"08359099999","2010-03-26T18:00:00","4","38.3666666","-0.5","82.0","ALICANTE, SP","FM-12","99999","V020","230,1,N,0010,1","99999,9,9,N","020000,1,N,1","+0170,1","+0097,1","10198,1","12,0000,9,1",,,,,,"05,99,1,00,1,00,1,99999,9,00,1,09,1",,,"999,M,+0216,1","99999,9,10101,1","3,1,002,1,+999,9",,"SYN082AAXX  26184 08359 12970 52302 10170 20097 30101 40198 53002 60002 80009 333 10216;","Q01  00002PRCP12"
"08359099999","2010-03-27T06:00:00","4","38.3666666","-0.5","82.0","ALICANTE, SP","FM-12","99999","V020","999,9,C,0000,1","22000,1,9,N","030000,1,N,1","+0128,1","+0066,1","10235,1","12,0000,9,1","24,0000,9,1",,,,,"04,99,1,01,1,01,1,99999,9,00,1,06,1","0462,9",,"999,N,+0110,1","99999,9,10136,1","3,1,014,1,+999,9",,"SYN106AAXX  27064 08359 12980 40000 10128 20066 30136 40235 53014 60002 81106 90700 333 20110 50384 55077 70000;","Q01  00002PRCP24Q02  00002PRCP12"
"08359099999","2010-03-27T18:00:00","4","38.3666666","-0.5","82.0","ALICANTE, SP","FM-12","99999","V020","240,1,N,0010,1","99999,9,9,N","020000,1,N,1","+0170,1","+0106,1","10227,1","12,0000,9,1",,,,,,"06,99,1,00,1,00,1,99999,9,00,1,06,1",,,"999,M,+0245,1","99999,9,10129,1","3,1,007,1,+999,9",,"SYN082AAXX  27184 08359 12970 62402 10170 20106 30129 40227 53007 60002 80006 333 10245;","Q01  00002PRCP12"
"08359099999","2010-03-28T06:00:00","4","38.3666666","-0.5","82.0","ALICANTE, SP","FM-12","99999","V020","320,1,N,0005,1","99999,9,9,N","020000,1,N,1","+0100,1","+0065,1","10230,1","12,0000,9,1","24,0000,9,1",,,,,"06,99,1,00,1,00,1,99999,9,00,1,06,1","0642,9",,"999,N,+0085,1","99999,9,10138,1","3,1,005,1,+999,9",,"SYN106AAXX  28064 08359 12970 63201 10100 20065 30138 40230 53005 60002 80006 90700 333 20085 50414 55107 70000;","Q01  00002PRCP24Q02  00002PRCP12"
"08359099999","2010-03-28T18:00:00","4","38.3666666","-0.5","82.0","ALICANTE, SP","FM-12","99999","V020","200,1,N,0010,1","99999,9,9,N","020000,1,N,1","+0160,1","+0112,1","10183,1","12,0000,9,1",,,,,,"07,99,1,03,1,00,1,99999,9,02,1,06,1",,,"999,M,+0205,1","99999,9,10085,1","7,1,014,1,+999,9",,"SYN082AAXX  28184 08359 12970 72002 10160 20112 30085 40183 57014 60002 83026 333 10205;","Q01  00002PRCP12"
"08359099999","2010-03-29T06:00:00","4","38.3666666","-0.5","82.0","ALICANTE, SP","FM-12","99999","V020","999,9,C,0000,1","99999,9,9,N","020000,1,N,1","+0092,1","+0066,1","10140,1","12,0000,9,1","24,0000,9,1",,,,,"07,99,1,01,1,00,1,99999,9,02,1,06,1","0594,9",,"999,N,+0080,1","99999,9,10040,1","6,1,005,1,+999,9",,"SYN106AAXX  29064 08359 12970 70000 10092 20066 30040 40140 56005 60002 81026 90700 333 20080 50234 55099 70000;","Q01  00002PRCP24Q02  00002PRCP12"
"08359099999","2010-03-29T18:00:00","4","38.3666666","-0.5","82.0","ALICANTE, SP","FM-12","99999","V020","240,1,N,0010,1","22000,1,9,N","020000,1,N,1","+0190,1","+0138,1","10087,1","12,0000,9,1",,,"4,1,06,1","4,1,06,1",,"02,99,1,01,1,08,1,01250,1,04,1,00,1",,,"999,M,+0210,1","99999,9,09991,1","5,1,002,1,+999,9","01,1","SYN088AAXX  29184 08359 11670 22402 10190 20138 39991 40087 55002 60002 70144 81840 333 10210;","Q01  00002PRCP12"
"08359099999","2010-03-30T06:00:00","4","38.3666666","-0.5","82.0","ALICANTE, SP","FM-12","99999","V020","300,1,N,0036,1","22000,1,9,N","030000,1,N,1","+0152,1","+0040,1","10117,1","12,0000,9,1","24,0000,9,1",,,,,"01,99,1,01,1,04,1,00800,1,00,1,00,1","0564,9",,"999,N,+0130,1","99999,9,10020,1","1,1,022,1,+999,9",,"SYN106AAXX  30064 08359 12580 13007 10152 20040 30020 40117 51022 60002 81400 90700 333 20130 50374 55094 70000;","Q01  00002PRCP24Q02  00002PRCP12"
"08359099999","2010-03-30T18:00:00","4","38.3666666","-0.5","82.0","ALICANTE, SP","FM-12","99999","V020","310,1,N,0031,1","22000,1,9,N","020000,1,N,1","+0186,1","+0044,1","10137,1","12,0000,9,1",,,,,,"02,99,1,01,1,04,1,00800,1,04,1,01,1",,,"999,M,+0222,1","99999,9,10041,1","3,1,006,1,+999,9",,"SYN082AAXX  30184 08359 12570 23106 10186 20044 30041 40137 53006 60002 81441 333 10222;","Q01  00002PRCP12"
"08359099999","2010-03-31T06:00:00","4","38.3666666","-0.5","82.0","ALICANTE, SP","FM-12","99999","V020","310,1,N,0015,1","22000,1,9,N","020000,1,N,1","+0134,1","+0048,1","10173,1","12,0000,9,1","24,0000,9,1",,,,,"03,99,1,00,1,00,1,99999,9,00,1,02,1","0660,9",,"999,N,+0115,1","99999,9,10074,1","3,1,008,1,+999,9",,"SYN106AAXX  31064 08359 12970 33103 10134 20048 30074 40173 53008 60002 80002 90700 333 20115 50644 55110 70000;","Q01  00002PRCP24Q02  00002PRCP12"
"08359099999","2010-04-01T06:00:00","4","38.3666666","-0.5","82.0","ALICANTE, SP","FM-12","99999","V020","020,1,N,0015,1","22000,1,9,N","030000,1,N,1","+0136,1","+0060,1","10165,1","12,0000,9,1","24,0000,9,1",,,,,"03,99,1,01,1,01,1,00800,1,00,1,09,1","0576,9",,"999,N,+0105,1","99999,9,10067,1","2,1,010,1,+999,9",,"SYN106AAXX  01064 08359 12580 30203 10136 20060 30067 40165 52010 60002 81109 90700 333 20105 50434 55096 70000;","Q01  00002PRCP24Q02  00002PRCP12"
"08359099999","2010-04-01T18:00:00","4","38.3666666","-0.5","82.0","ALICANTE, SP","FM-12","99999","V020","140,1,N,0010,1","22000,1,9,N","025000,1,N,1","+0144,1","+0075,1","10187,1","12,0000,9,1",,,,,,"02,99,1,01,1,08,1,00800,1,06,1,00,1",,,"999,M,+0196,1","99999,9,10089,1","1,1,006,1,+999,9",,"SYN082AAXX  01184 08359 12575 21402 10144 20075 30089 40187 51006 60002 81860 333 10196;","Q01  00002PRCP12"
"08359099999","2010-04-02T06:00:00","4","38.3666666","-0.5","82.0","ALICANTE, SP","FM-12","99999","V020","999,9,C,0000,1","22000,1,9,N","040000,1,N,1","+0098,1","+0063,1","10204,1","12,0000,9,1","24,0000,9,1",,,,,"01,99,1,00,1,00,1,99999,9,00,1,01,1","0642,9",,"999,N,+0080,1","99999,9,10104,1","3,1,008,1,+999,9",,"SYN106AAXX  02064 08359 12982 10000 10098 20063 30104 40204 53008 60002 80001 90700 333 20080 50294 55107 70000;","Q01  00002PRCP24Q02  00002PRCP12"
"08359099999","2010-04-02T18:00:00","4","38.3666666","-0.5","82.0","ALICANTE, SP","FM-12","99999","V020","190,1,N,0015,1","22000,1,9,N","020000,1,N,1","+0164,1","+0116,1","10180,1","12,0000,9,1",,,,,,"01,99,1,00,1,00,1,99999,9,00,1,01,1",,,"999,M,+0204,1","99999,9,10083,1","5,1,002,1,+999,9",,"SYN082AAXX  02184 08359 12970 11903 10164 20116 30083 40180 55002 60002 80001 333 10204;","Q01  00002PRCP12"
"08359099999","2010-04-03T06:00:00","4","38.3666666","-0.5","82.0","ALICANTE, SP","FM-12","99999","V020","290,1,N,0005,1","99999,9,9,N","020000,1,N,1","+0104,1","+0075,1","10165,1","12,0000,9,1","24,0000,9,1",,,,,"05,99,1,00,1,00,1,99999,9,00,1,06,1","0678,9",,"999,N,+0084,1","99999,9,10066,1","3,1,003,1,+999,9",,"SYN106AAXX  03064 08359 12970 52901 10104 20075 30066 40165 53003 60002 80006 90700 333 20084 50244 55113 70000;","Q01  00002PRCP24Q02  00002PRCP12"
"08359099999","2010-04-03T18:00:00","4","38.3666666","-0.5","82.0","ALICANTE, SP","FM-12","99999","V020","200,1,N,0021,1","99999,9,9,N","020000,1,N,1","+0162,1","+0122,1","10129,1","12,0000,9,1",,,,,,"07,99,1,01,1,00,1,99999,9,03,1,02,1",,,"999,M,+0200,1","99999,9,10032,1","5,1,003,1,+999,9",,"SYN082AAXX  03184 08359 12970 72004 10162 20122 30032 40129 55003 60002 81032 333 10200;","Q01  00002PRCP12"
"08359099999","2010-04-04T06:00:00","4","38.3666666","-0.5","82.0","ALICANTE, SP","FM-12","99999","V020","340,1,N,0015,1","03600,1,9,N","020000,1,N,1","+0142,1","+0063,1","10181,1","12,0000,9,1","24,0000,9,1",,,,,"05,99,1,02,1,08,1,01250,1,06,1,00,1","0534,9",,"999,N,+0130,1","99999,9,10083,1","2,1,026,1,+999,9",,"SYN106AAXX  04064 08359 12670 53403 10142 20063 30083 40181 52026 60002 82860 90700 333 20130 50294 55089 70000;","Q01  00002PRCP24Q02  00002PRCP12"
"08359099999","2010-04-04T18:00:00","4","38.3666666","-0.5","82.0","ALICANTE, SP","FM-12","99999","V020","150,1,N,0010,1","22000,1,9,N","025000,1,N,1","+0150,1","+0091,1","10249,1","12,0000,9,1",,,,,,"01,99,1,01,1,04,1,00800,1,00,1,01,1",,,"999,M,+0212,1","99999,9,10150,1","2,1,015,1,+999,9",,"SYN082AAXX  04184 08359 12575 11502 10150 20091 30150 40249 52015 60002 81401 333 10212;","Q01  00002PRCP12"
"08359099999","2010-04-05T06:00:00","4","38.3666666","-0.5","82.0","ALICANTE, SP","FM-12","99999","V020","030,1,N,0005,1","99999,9,9,N","020000,1,N,1","+0100,1","+0056,1","10279,1","12,0000,9,1","24,0000,9,1",,,,,"07,99,1,00,1,00,1,99999,9,00,1,06,1","0630,9",,"999,N,+0076,1","99999,9,10178,1","3,1,004,1,+999,9",,"SYN106AAXX  05064 08359 12970 70301 10100 20056 30178 40279 53004 60002 80006 90700 333 20076 50304 55105 70000;","Q01  00002PRCP24Q02  00002PRCP12"
"08359099999","2010-04-05T18:00:00","4","38.3666666","-0.5","82.0","ALICANTE, SP","FM-12","99999","V020","080,1,N,0031,1","99999,9,9,N","020000,1,N,1","+0150,1","+0041,1","10241,1","12,0000,9,1",,,,,,"08,99,1,08,1,00,1,99999,9,02,1,99,9",,,"999,M,+0170,1","99999,9,10142,1","7,1,010,1,+999,9",,"SYN082AAXX  05184 08359 12970 80806 10150 20041 30142 40241 57010 60002 8802/ 333 10170;","Q01  00002PRCP12"
"08359099999","2010-04-06T06:00:00","4","38.3666666","-0.5","82.0","ALICANTE, SP","FM-12","99999","V020","040,1,N,0010,1","00750,1,9,N","020000,1,N,1","+0130,1","+0068,1","10203,1","12,0000,9,1","24,0000,9,1",,,,,"08,99,1,05,1,05,1,00800,1,02,1,99,9","0102,9",,"999,N,+0125,1","99999,9,10104,1","2,1,002,1,+999,9",,"SYN106AAXX  06064 08359 12570 80402 10130 20068 30104 40203 52002 60002 8552/ 90700 333 20125 50474 55017 70000;","Q01  00002PRCP24Q02  00002PRCP12"
"08359099999","2010-04-06T18:00:00","4","38.3666666","-0.5","82.0","ALICANTE, SP","FM-12","99999","V020","090,1,N,0021,1","22000,1,9,N","012000,1,N,1","+0150,1","+0112,1","10157,1","12,0000,9,1",,,,,,"01,99,1,01,1,00,1,99999,9,08,1,00,1",,,"999,M,+0180,1","99999,9,10059,1","6,1,008,1,+999,9",,"SYN082AAXX  06184 08359 12962 10904 10150 20112 30059 40157 56008 60002 81080 333 10180;","Q01  00002PRCP12"
"08359099999","2010-04-07T06:00:00","4","38.3666666","-0.5","82.0","ALICANTE, SP","FM-12","99999","V020","999,9,C,0000,1","22000,1,9,N","018000,1,N,1","+0120,1","+0092,1","10162,1","12,0000,9,1","24,0000,9,1",,,,,"02,99,1,02,1,00,1,99999,9,03,1,00,1","0174,9",,"999,N,+0105,1","99999,9,10063,1","3,1,005,1,+999,9",,"SYN106AAXX  07064 08359 12968 20000 10120 20092 30063 40162 53005 60002 82030 90700 333 20105 50184 55029 70000;","Q01  00002PRCP24Q02  00002PRCP12"
"08359099999","2010-04-07T18:00:00","4","38.3666666","-0.5","82.0","ALICANTE, SP","FM-12","99999","V020","160,1,N,0010,1","22000,1,9,N","015000,1,N,1","+0144,1","+0117,1","10176,1","12,0000,9,1",,,,,,"02,99,1,02,1,04,1,00800,1,00,1,00,1",,,"999,M,+0198,1","99999,9,10078,1","3,1,010,1,+999,9",,"SYN082AAXX  07184 08359 12565 21602 10144 20117 30078 40176 53010 60002 82400 333 10198;","Q01  00002PRCP12"
"08359099999","2010-04-08T06:00:00","4","38.3666666","-0.5","82.0","ALICANTE, SP","FM-12","99999","V020","320,1,N,0005,1","22000,1,9,N","020000,1,N,1","+0100,1","+0071,1","10231,1","12,0000,9,1","24,0000,9,1",,,,,"01,99,1,00,1,00,1,99999,9,00,1,01,1","0606,9",,"999,N,+0080,1","99999,9,10131,1","3,1,008,1,+999,9",,"SYN106AAXX  08064 08359 12970 13201 10100 20071 30131 40231 53008 60002 80001 90700 333 20080 50184 55101 70000;","Q01  00002PRCP24Q02  00002PRCP12"
"08359099999","2010-04-08T18:00:00","4","38.3666666","-0.5","82.0","ALICANTE, SP","FM-12","99999","V020","080,1,N,0010,1","00750,1,9,N","015000,1,N,1","+0148,1","+0102,1","10226,1","12,0000,9,1",,,,,,"08,99,1,08,1,05,1,00800,1,99,9,99,9",,,"999,M,+0184,1","99999,9,10128,1","3,1,002,1,+999,9",,"SYN082AAXX  08184 08359 12565 80802 10148 20102 30128 40226 53002 60002 885// 333 10184;","Q01  00002PRCP12"
"08359099999","2010-04-09T06:00:00","4","38.3666666","-0.5","82.0","ALICANTE, SP","FM-12","99999","V020","999,9,C,0000,1","22000,1,9,N","030000,1,N,1","+0104,1","+0071,1","10241,1","12,0000,9,1","24,0000,9,1",,,,"00,1,+99999,9,99,9","00,99,1,00,1,00,1,99999,9,00,1,00,1","0600,9",,"999,N,+0078,1","99999,9,10141,1","3,1,004,1,+999,9",,"SYN100AAXX  09064 08359 12980 00000 10104 20071 30141 40241 53004 60002 90700 333 20078 50214 55100 70000;","Q01  00002PRCP24Q02  00002PRCP12"
"08359099999","2010-04-09T18:00:00","4","38.3666666","-0.5","82.0","ALICANTE, SP","FM-12","99999","V020","070,1,N,0005,1","22000,1,9,N","020000,1,N,1","+0154,1","+0100,1","10243,1","12,0000,9,1",,,,,,"01,99,1,01,1,08,1,00800,1,06,1,00,1",,,"999,M,+0200,1","99999,9,10145,1","5,1,000,1,+999,9",,"SYN082AAXX  09184 08359 12570 10701 10154 20100 30145 40243 55000 60002 81860 333 10200;","Q01  00002PRCP12"
"08359099999","2010-04-10T06:00:00","4","38.3666666","-0.5","82.0","ALICANTE, SP","FM-12","99999","V020","999,9,C,0000,1","22000,1,9,N","030000,1,N,1","+0100,1","+0065,1","10240,1","12,0000,9,1","24,0000,9,1",,,,"00,1,+99999,9,99,9","00,99,1,00,1,00,1,99999,9,00,1,00,1","0606,9",,"999,N,+0076,1","99999,9,10140,1","6,1,003,1,+999,9",,"SYN100AAXX  10064 08359 12980 00000 10100 20065 30140 40240 56003 60002 90700 333 20076 50264 55101 70000;","Q01  00002PRCP24Q02  00002PRCP12"
"08359099999","2010-04-11T06:00:00","4","38.3666666","-0.5","82.0","ALICANTE, SP","FM-12","99999","V020","300,1,N,0010,1","22000,1,9,N","030000,1,N,1","+0108,1","+0066,1","10143,1","12,0000,9,1","24,0000,9,1",,,,,"03,99,1,00,1,00,1,99999,9,00,1,05,1","0702,9",,"999,N,+0080,1","99999,9,10044,1","6,1,008,1,+999,9",,"SYN106AAXX  11064 08359 12980 33002 10108 20066 30044 40143 56008 60002 80005 90700 333 20080 50334 55117 70000;","Q01  00002PRCP24Q02  00002PRCP12"
"08359099999","2010-04-12T06:00:00","4","38.3666666","-0.5","82.0","ALICANTE, SP","FM-12","99999","V020","030,1,N,0015,1","22000,1,9,N","030000,1,N,1","+0128,1","+0070,1","10073,1","12,0000,9,1","24,0000,9,1",,,,,"03,99,1,03,1,00,1,99999,9,03,1,00,1","0708,9",,"999,N,+0105,1","99999,9,09975,1","3,1,004,1,+999,9",,"SYN106AAXX  12064 08359 12980 30303 10128 20070 39975 40073 53004 60002 83030 90700 333 20105 50344 55118 70000;","Q01  00002PRCP24Q02  00002PRCP12"
"08359099999","2010-04-12T18:00:00","4","38.3666666","-0.5","82.0","ALICANTE, SP","FM-12","99999","V020","080,1,N,0026,1","03600,1,9,N","015000,1,N,1","+0152,1","+0127,1","10071,1","12,0000,9,1",,,,,,"06,99,1,01,1,08,1,00800,1,07,1,00,1",,,"999,M,+0192,1","99999,9,09974,1","5,1,000,1,+999,9",,"SYN082AAXX  12184 08359 12565 60805 10152 20127 39974 40071 55000 60002 81870 333 10192;","Q01  00002PRCP12"
"08359099999","2010-04-13T06:00:00","4","38.3666666","-0.5","82.0","ALICANTE, SP","FM-12","99999","V020","070,1,N,0015,1","00420,1,9,N","005000,1,N,1","+0124,1","+0121,1","10095,1","12,0140,9,1","24,0142,9,1",,"6,1,06,1","6,1,06,1",,"08,99,1,05,1,07,1,00450,1,07,1,99,9","0462,9",,"999,N,+0115,1","99999,9,09997,1","3,1,010,1,+999,9","51,1","SYN112AAXX  13064 08359 11450 80703 10124 20121 39997 40095 53010 60142 75166 8577/ 90700 333 20115 50204 55077 70142;",
"08359099999","2010-04-13T18:00:00","4","38.3666666","-0.5","82.0","ALICANTE, SP","FM-12","99999","V020","090,1,N,0046,1","03600,1,9,N","015000,1,N,1","+0134,1","+0108,1","10112,1","12,0000,2,1",,,,,,"07,99,1,02,1,05,1,00800,1,07,1,00,1",,,"999,M,+0155,1","99999,9,10014,1","3,1,005,1,+999,9",,"SYN082AAXX  13184 08359 12565 70909 10134 20108 30014 40112 53005 69922 82570 333 10155;",
"08359099999","2010-04-14T06:00:00","4","38.3666666","-0.5","82.0","ALICANTE, SP","FM-12","99999","V020","070,1,N,0010,1","99999,9,9,N","020000,1,N,1","+0138,1","+0108,1","10111,1","12,0000,9,1","24,0003,9,1",,,,,"06,99,1,03,1,00,1,99999,9,04,1,06,1","0066,9",,"999,N,+0115,1","99999,9,10013,1","7,1,003,1,+999,9",,"SYN106AAXX  14064 08359 12970 60702 10138 20108 30013 40111 57003 60002 83046 90700 333 20115 50194 55011 70002;","Q01  00002PRCP12"
"08359099999","2010-04-14T18:00:00","4","38.3666666","-0.5","82.0","ALICANTE, SP","FM-12","99999","V020","090,1,N,0036,1","03600,1,9,N","015000,1,N,1","+0140,1","+0102,1","10110,1","12,0000,9,1",,,,,,"08,99,1,01,1,04,1,00800,1,07,1,99,9",,,"999,M,+0178,1","99999,9,10012,1","3,1,003,1,+999,9",,"SYN082AAXX  14184 08359 12565 80907 10140 20102 30012 40110 53003 60002 8147/ 333 10178;","Q01  00002PRCP12"
"08359099999","2010-04-15T06:00:00","4","38.3666666","-0.5","82.0","ALICANTE, SP","FM-12","99999","V020","300,1,N,0005,1","99999,9,9,N","010000,1,N,1","+0116,1","+0100,1","10110,1","12,0000,9,1","24,0000,9,1",,,,,"06,99,1,06,1,00,1,99999,9,07,1,00,1","0174,9",,"999,N,+0105,1","99999,9,10012,1","3,1,002,1,+999,9",,"SYN106AAXX  15064 08359 12960 63001 10116 20100 30012 40110 53002 60002 86070 90700 333 20105 50224 55029 70000;","Q01  00002PRCP24Q02  00002PRCP12"
"08359099999","2010-04-16T18:00:00","4","38.3666666","-0.5","82.0","ALICANTE, SP","FM-12","99999","V020","070,1,N,0015,1","03600,1,9,N","012000,1,N,1","+0144,1","+0114,1","10137,1","12,9999,9,9",,,"6,1,06,1","2,1,06,1",,"08,99,1,01,1,04,1,00800,1,02,1,99,9",,,"999,M,+0175,1","99999,9,10039,1","8,1,003,1,+999,9","50,1","SYN088AAXX  16184 08359 11562 80703 10144 20114 30039 40137 58003 69922 75062 8142/ 333 10175;","Q01  00002PRCP12Q02  00002PRCP12"
"08359099999","2010-04-17T06:00:00","4","38.3666666","-0.5","82.0","ALICANTE, SP","FM-12","99999","V020","070,1,N,0010,1","03600,1,9,N","015000,1,N,1","+0132,1","+0106,1","10158,1","12,0003,9,1","24,0005,9,1",,,,,"08,99,1,03,1,05,1,00800,1,02,1,99,9","0138,9",,"999,N,+0120,1","99999,9,10060,1","0,1,000,1,+999,9",,"SYN106AAXX  17064 08359 12565 80702 10132 20106 30060 40158 50000 69932 8352/ 90700 333 20120 50174 55023 70005;",
"08359099999","2010-04-17T18:00:00","4","38.3666666","-0.5","82.0","ALICANTE, SP","FM-12","99999","V020","080,1,N,0015,1","01200,1,9,N","015000,1,N,1","+0152,1","+0127,1","10146,1","12,0000,9,1",,,,,,"08,99,1,05,1,08,1,00800,1,07,1,99,9",,,"999,M,+0188,1","99999,9,10049,1","3,1,002,1,+999,9",,"SYN082AAXX  17184 08359 12565 80803 10152 20127 30049 40146 53002 60002 8587/ 333 10188;","Q01  00002PRCP12"
"08359099999","2010-04-18T06:00:00","4","38.3666666","-0.5","82.0","ALICANTE, SP","FM-12","99999","V020","999,9,C,0000,1","03600,1,9,N","012000,1,N,1","+0132,1","+0121,1","10155,1","12,0008,9,1","24,0008,9,1",,"6,1,06,1","6,1,06,1",,"08,99,1,03,1,05,1,00800,1,07,1,99,9","0276,9",,"999,N,+0124,1","99999,9,10057,1","3,1,002,1,+999,9","02,1","SYN112AAXX  18064 08359 11562 80000 10132 20121 30057 40155 53002 69982 70266 8357/ 90700 333 20124 50184 55046 70008;",
"08359099999","2010-04-18T18:00:00","4","38.3666666","-0.5","82.0","ALICANTE, SP","FM-12","99999","V020","140,1,N,0010,1","01200,1,9,N","012000,1,N,1","+0160,1","+0142,1","10158,1","12,0000,9,1",,,,,,"08,99,1,05,1,08,1,00800,1,02,1,99,9",,,"999,M,+0194,1","99999,9,10061,1","3,1,003,1,+999,9",,"SYN082AAXX  18184 08359 12562 81402 10160 20142 30061 40158 53003 60002 8582/ 333 10194;","Q01  00002PRCP12"
"08359099999","2010-04-19T06:00:00","4","38.3666666","-0.5","82.0","ALICANTE, SP","FM-12","99999","V020","999,9,C,0000,1","22000,1,9,N","030000,1,N,1","+0148,1","+0114,1","10169,1","12,0000,9,1","24,0000,9,1",,,,,"01,99,1,01,1,00,1,99999,9,06,1,00,1","0228,9",,"999,N,+0120,1","99999,9,10071,1","3,1,003,1,+999,9",,"SYN106AAXX  19064 08359 12980 10000 10148 20114 30071 40169 53003 60002 81060 90700 333 20120 50144 55038 70000;","Q01  00002PRCP24Q02  00002PRCP12"
"08359099999","2010-04-19T18:00:00","4","38.3666666","-0.5","82.0","ALICANTE, SP","FM-12","99999","V020","240,1,N,0015,1","22000,1,9,N","020000,1,N,1","+0200,1","+0137,1","10165,1","12,0000,9,1",,,,,,"03,99,1,01,1,04,1,00800,1,06,1,04,1",,,"999,M,+0255,1","99999,9,10069,1","5,1,000,1,+999,9",,"SYN082AAXX  19184 08359 12570 32403 10200 20137 30069 40165 55000 60002 81464 333 10255;","Q01  00002PRCP12"
"08359099999","2010-04-20T06:00:00","4","38.3666666","-0.5","82.0","ALICANTE, SP","FM-12","99999","V020","999,9,C,0000,1","99999,9,9,N","020000,1,N,1","+0146,1","+0108,1","10182,1","12,0000,9,1","24,0000,9,1",,,,,"08,99,1,00,1,00,1,99999,9,00,1,06,1","0690,9",,"999,N,+0126,1","99999,9,10084,1","3,1,012,1,+999,9",,"SYN106AAXX  20064 08359 12970 80000 10146 20108 30084 40182 53012 60002 80006 90700 333 20126 50334 55115 70000;","Q01  00002PRCP24Q02  00002PRCP12"
"08359099999","2010-04-20T18:00:00","4","38.3666666","-0.5","82.0","ALICANTE, SP","FM-12","99999","V020","040,1,N,0010,1","99999,9,9,N","020000,1,N,1","+0192,1","+0125,1","10178,1","12,0000,9,1",,,,,,"08,99,1,08,1,00,1,99999,9,07,1,99,9",,,"999,M,+0230,1","99999,9,10082,1","4,1,000,1,+999,9",,"SYN082AAXX  20184 08359 12970 80402 10192 20125 30082 40178 54000 60002 8807/ 333 10230;","Q01  00002PRCP12"
"08359099999","2010-04-21T06:00:00","4","38.3666666","-0.5","82.0","ALICANTE, SP","FM-12","99999","V020","999,9,C,0000,1","99999,9,9,N","030000,1,N,1","+0152,1","+0102,1","10174,1","12,0000,9,1","24,0000,9,1",,,,,"06,99,1,00,1,00,1,99999,9,00,1,06,1","0366,9",,"999,N,+0116,1","99999,9,10076,1","3,1,004,1,+999,9",,"SYN106AAXX  21064 08359 12980 60000 10152 20102 30076 40174 53004 60002 80006 90700 333 20116 50264 55061 70000;","Q01  00002PRCP24Q02  00002PRCP12"
"08359099999","2010-04-21T18:00:00","4","38.3666666","-0.5","82.0","ALICANTE, SP","FM-12","99999","V020","120,1,N,0010,1","99999,9,9,N","020000,1,N,1","+0176,1","+0125,1","10139,1","12,9999,9,9",,,"2,1,06,1","2,1,06,1",,"08,99,1,08,1,00,1,99999,9,07,1,99,9",,,"999,M,+0224,1","99999,9,10042,1","3,1,008,1,+999,9","50,1","SYN088AAXX  21184 08359 11970 81202 10176 20125 30042 40139 53008 69902 75022 8807/ 333 10224;","Q01  00002PRCP12Q02  00002PRCP12"
"08359099999","2010-04-22T06:00:00","4","38.3666666","-0.5","82.0","ALICANTE, SP","FM-12","99999","V020","999,9,C,0000,1","03600,1,9,N","020000,1,N,1","+0146,1","+0128,1","10103,1","12,0020,9,2","24,0018,9,2",,"6,1,06,1","2,1,06,1",,"08,99,1,03,1,09,1,01250,1,07,1,99,9","0564,9",,"999,N,+0142,1","99999,9,10006,1","8,1,003,1,+999,9","60,1","SYN112AAXX  22064 08359 11670 80000 10146 20128 30006 40103 58003 60022 76062 8397/ 90700 333 20142 50324 55094 70019;",
"08359099999","2010-04-22T18:00:00","4","38.3666666","-0.5","82.0","ALICANTE, SP","FM-12","99999","V020","050,1,N,0015,1","03600,1,9,N","008000,1,N,1","+0152,1","+0146,1","10093,1","12,0008,9,1",,,"6,1,06,1","6,1,06,1",,"08,99,1,03,1,06,1,00450,1,07,1,99,9",,,"999,M,+0188,1","99999,9,09996,1","0,1,000,1,+999,9","10,1","SYN088AAXX  22184 08359 11458 80503 10152 20146 39996 40093 50000 69972 71066 8367/ 333 10188;",
"08359099999","2010-04-23T06:00:00","4","38.3666666","-0.5","82.0","ALICANTE, SP","FM-12","99999","V020","170,1,N,0010,1","22000,1,9,N","004000,1,N,1","+0156,1","+0138,1","10103,1","12,0000,9,1","24,0008,9,1",,"4,1,06,1","4,1,06,1",,"04,99,1,01,1,04,1,01250,1,04,1,00,1","0006,9",,"999,N,+0120,1","99999,9,10006,1","3,1,010,1,+999,9","10,1","SYN112AAXX  23064 08359 12640 41702 10156 20138 30006 40103 53010 60002 71044 81440 90700 333 20120 50104 55001 70007;","Q01  00002PRCP12"
"08359099999","2010-04-23T18:00:00","4","38.3666666","-0.5","82.0","ALICANTE, SP","FM-12","99999","V020","080,1,N,0021,1","03600,1,9,N","012000,1,N,1","+0176,1","+0156,1","10128,1","12,0005,9,1",,,"8,1,06,1","2,1,06,1",,"05,99,1,03,1,09,1,01250,1,06,1,00,1",,,"999,M,+0228,1","99999,9,10032,1","3,1,008,1,+999,9","02,1","SYN088AAXX  23184 08359 11662 50804 10176 20156 30032 40128 53008 69952 70282 83960 333 10228;",
"08359099999","2010-04-24T06:00:00","4","38.3666666","-0.5","82.0","ALICANTE, SP","FM-12","99999","V020","999,9,C,0000,1","22000,1,9,N","004000,1,N,1","+0152,1","+0137,1","10160,1","12,0000,9,1","24,0005,9,1",,"4,1,06,1","2,1,06,1",,"01,99,1,01,1,06,1,00450,1,00,1,00,1","0564,9",,"999,N,+0128,1","99999,9,10062,1","2,1,008,1,+999,9","10,1","SYN106AAXX  24064 08359 11440 10000 10152 20137 30062 40160 52008 60002 71042 81600 333 20128 50144 55094 70005;","Q01  00002PRCP12"
"08359099999","2010-04-24T18:00:00","4","38.3666666","-0.5","82.0","ALICANTE, SP","FM-12","99999","V020","080,1,N,0010,1","22000,1,9,N","020000,1,N,1","+0194,1","+0157,1","10177,1","12,0000,9,1",,,,,,"02,99,1,01,1,00,1,99999,9,06,1,02,1",,,"999,M,+0245,1","99999,9,10081,1","3,1,004,1,+999,9",,"SYN082AAXX  24184 08359 12970 20802 10194 20157 30081 40177 53004 60002 81062 333 10245;","Q01  00002PRCP12"
"08359099999","2010-04-25T06:00:00","4","38.3666666","-0.5","82.0","ALICANTE, SP","FM-12","99999","V020","040,1,N,0005,1","00420,1,9,N","012000,1,N,1","+0164,1","+0142,1","10222,1","12,0000,9,1","24,0000,9,1",,,,,"07,99,1,07,1,06,1,00450,1,00,1,00,1","0666,9",,"999,N,+0150,1","99999,9,10124,1","3,1,015,1,+999,9",,"SYN106AAXX  25064 08359 12462 70401 10164 20142 30124 40222 53015 60002 87600 90700 333 20150 50234 55111 70000;","Q01  00002PRCP24Q02  00002PRCP12"
"08359099999","2010-04-25T18:00:00","4","38.3666666","-0.5","82.0","ALICANTE, SP","FM-12","99999","V020","060,1,N,0010,1","03600,1,9,N","015000,1,N,1","+0190,1","+0153,1","10229,1","12,0000,9,1",,,,,,"06,99,1,01,1,04,1,00800,1,07,1,02,1",,,"999,M,+0225,1","99999,9,10132,1","1,1,003,1,+999,9",,"SYN082AAXX  25184 08359 12565 60602 10190 20153 30132 40229 51003 60002 81472 333 10225;","Q01  00002PRCP12"
"08359099999","2010-04-26T06:00:00","4","38.3666666","-0.5","82.0","ALICANTE, SP","FM-12","99999","V020","999,9,C,0000,1","22000,1,9,N","020000,1,N,1","+0158,1","+0125,1","10249,1","12,0000,9,1","24,0000,9,1",,,,"00,1,+99999,9,99,9","00,99,1,00,1,00,1,99999,9,00,1,00,1","0372,9",,"999,N,+0125,1","99999,9,10151,1","3,1,003,1,+999,9",,"SYN100AAXX  26064 08359 12970 00000 10158 20125 30151 40249 53003 60002 90700 333 20125 50174 55062 70000;","Q01  00002PRCP24Q02  00002PRCP12"
"08359099999","2010-04-26T18:00:00","4","38.3666666","-0.5","82.0","ALICANTE, SP","FM-12","99999","V020","190,1,N,0010,1","22000,1,9,N","020000,1,N,1","+0214,1","+0131,1","10240,1","12,0000,9,1",,,,,,"03,99,1,00,1,00,1,99999,9,00,1,04,1",,,"999,M,+0250,1","99999,9,10144,1","6,1,010,1,+999,9",,"SYN082AAXX  26184 08359 12970 31902 10214 20131 30144 40240 56010 60002 80004 333 10250;","Q01  00002PRCP12"
"08359099999","2010-04-27T06:00:00","4","38.3666666","-0.5","82.0","ALICANTE, SP","FM-12","99999","V020","280,1,N,0005,1","22000,1,9,N","020000,1,N,1","+0176,1","+0118,1","10216,1","12,0000,9,1","24,0000,9,1",,,,,"01,99,1,00,1,00,1,99999,9,00,1,01,1","0720,9",,"999,N,+0136,1","99999,9,10119,1","6,1,006,1,+999,9",,"SYN106AAXX  27064 08359 12970 12801 10176 20118 30119 40216 56006 60002 80001 90700 333 20136 50324 55120 70000;","Q01  00002PRCP24Q02  00002PRCP12"
"08359099999","2010-04-27T18:00:00","4","38.3666666","-0.5","82.0","ALICANTE, SP","FM-12","99999","V020","200,1,N,0010,1","22000,1,9,N","020000,1,N,1","+0228,1","+0118,1","10206,1","12,0000,9,1",,,,,,"04,99,1,00,1,00,1,99999,9,00,1,01,1",,,"999,M,+0270,1","99999,9,10110,1","7,1,005,1,+999,9",,"SYN082AAXX  27184 08359 12970 42002 10228 20118 30110 40206 57005 60002 80001 333 10270;","Q01  00002PRCP12"
"08359099999","2010-04-28T06:00:00","4","38.3666666","-0.5","82.0","ALICANTE, SP","FM-12","99999","V020","999,9,C,0000,1","22000,1,9,N","020000,1,N,1","+0174,1","+0131,1","10232,1","12,0000,9,1","24,0000,9,1",,,,,"01,99,1,00,1,00,1,99999,9,00,1,01,1","0732,9",,"999,N,+0140,1","99999,9,10134,1","4,1,000,1,+999,9",,"SYN106AAXX  28064 08359 12970 10000 10174 20131 30134 40232 54000 60002 80001 90700 333 20140 50354 55122 70000;","Q01  00002PRCP24Q02  00002PRCP12"
"08359099999","2010-04-28T18:00:00","4","38.3666666","-0.5","82.0","ALICANTE, SP","FM-12","99999","V020","160,1,N,0015,1","99999,9,9,N","020000,1,N,1","+0208,1","+0135,1","10229,1","12,0000,9,1",,,,,,"06,99,1,00,1,00,1,99999,9,00,1,06,1",,,"999,M,+0245,1","99999,9,10133,1","6,1,004,1,+999,9",,"SYN082AAXX  28184 08359 12970 61603 10208 20135 30133 40229 56004 60002 80006 333 10245;","Q01  00002PRCP12"
"08359099999","2010-04-29T06:00:00","4","38.3666666","-0.5","82.0","ALICANTE, SP","FM-12","99999","V020","290,1,N,0005,1","22000,1,9,N","020000,1,N,1","+0176,1","+0098,1","10211,1","12,0000,9,1","24,0000,9,1",,,,,"02,99,1,00,1,00,1,99999,9,00,1,05,1","0702,9",,"999,N,+0128,1","99999,9,10114,1","6,1,002,1,+999,9",,"SYN106AAXX  29064 08359 12970 22901 10176 20098 30114 40211 56002 60002 80005 90700 333 20128 50384 55117 70000;","Q01  00002PRCP24Q02  00002PRCP12"
"08359099999","2010-04-29T18:00:00","4","38.3666666","-0.5","82.0","ALICANTE, SP","FM-12","99999","V020","150,1,N,0010,1","99999,9,9,N","015000,1,N,1","+0196,1","+0163,1","10169,1","12,0000,9,1",,,,,,"06,99,1,00,1,00,1,99999,9,00,1,06,1",,,"999,M,+0242,1","99999,9,10073,1","7,1,008,1,+999,9",,"SYN082AAXX  29184 08359 12965 61502 10196 20163 30073 40169 57008 60002 80006 333 10242;","Q01  00002PRCP12"
"08359099999","2010-04-30T06:00:00","4","38.3666666","-0.5","82.0","ALICANTE, SP","FM-12","99999","V020","090,1,N,0005,1","22000,1,9,N","015000,1,N,1","+0176,1","+0141,1","10149,1","12,0000,9,1","24,0000,9,1",,,,,"01,99,1,00,1,00,1,99999,9,00,1,01,1","0570,9",,"999,N,+0140,1","99999,9,10052,1","6,1,005,1,+999,9",,"SYN106AAXX  30064 08359 12965 10901 10176 20141 30052 40149 56005 60002 80001 90700 333 20140 50264 55095 70000;","Q01  00002PRCP24Q02  00002PRCP12"
"08359099999","2010-04-30T18:00:00","4","38.3666666","-0.5","82.0","ALICANTE, SP","FM-12","99999","V020","080,1,N,0021,1","09000,1,9,N","012000,1,N,1","+0188,1","+0164,1","10123,1","12,0000,9,1",,,,,,"08,99,1,02,1,06,1,00450,1,00,1,06,1",,,"999,M,+0235,1","99999,9,10027,1","6,1,008,1,+999,9",,"SYN082AAXX  30184 08359 12462 80804 10188 20164 30027 40123 56008 60002 82606 333 10235;","Q01  00002PRCP12"
"08359099999","2010-05-01T06:00:00","4","38.3666666","-0.5","82.0","ALICANTE, SP","FM-12","99999","V020","200,1,N,0010,1","99999,9,9,N","020000,1,N,1","+0178,1","+0120,1","10100,1","12,0000,9,1","24,0000,9,1",,"9,1,06,1","2,1,06,1",,"06,99,1,06,1,00,1,99999,9,08,1,00,1","0492,9",,"999,N,+0150,1","99999,9,10004,1","5,1,004,1,+999,9","02,1","SYN106AAXX  01064 08359 11970 62002 10178 20120 30004 40100 55004 60002 70292 86080 333 20150 50224 55082 70000;","Q01  00002PRCP24Q02  00002PRCP12"
"08359099999","2010-05-01T18:00:00","4","38.3666666","-0.5","82.0","ALICANTE, SP","FM-12","99999","V020","070,1,N,0015,1","03600,1,9,N","012000,1,N,1","+0184,1","+0164,1","10104,1","12,0030,9,1",,,"9,1,06,1","6,1,06,1",,"06,99,1,04,1,09,1,01250,1,08,1,00,1",,,"999,M,+0240,1","99999,9,10008,1","1,1,003,1,+999,9","61,1","SYN088AAXX  01184 08359 11662 60703 10184 20164 30008 40104 51003 60032 76196 84980 333 10240;",
"08359099999","2010-05-02T18:00:00","4","38.3666666","-0.5","82.0","ALICANTE, SP","FM-12","99999","V020","150,1,N,0015,1","03600,1,9,N","010000,1,N,1","+0198,1","+0163,1","10118,1","12,0000,9,1",,,,,,"08,99,1,01,1,05,1,00800,1,07,1,06,1",,,"999,M,+0234,1","99999,9,10022,1","6,1,007,1,+999,9",,"SYN082AAXX  02184 08359 12560 81503 10198 20163 30022 40118 56007 60002 81576 333 10234;","Q01  00002PRCP12"
"08359099999","2010-05-03T06:00:00","4","38.3666666","-0.5","82.0","ALICANTE, SP","FM-12","99999","V020","350,1,N,0005,1","99999,9,9,N","006000,1,N,1","+0176,1","+0159,1","10069,1","12,0000,9,1","24,0000,9,1",,,,,"06,99,1,06,1,00,1,99999,9,07,1,00,1","0558,9",,"999,N,+0165,1","99999,9,09973,1","7,1,005,1,+999,9",,"SYN106AAXX  03064 08359 12956 63501 10176 20159 39973 40069 57005 60002 86070 90700 333 20165 50204 55093 70000;","Q01  00002PRCP24Q02  00002PRCP12"
"08359099999","2010-05-03T18:00:00","4","38.3666666","-0.5","82.0","ALICANTE, SP","FM-12","99999","V020","340,1,N,0031,1","22000,1,9,N","020000,1,N,1","+0156,1","+0071,1","10069,1","12,0140,9,1",,,"9,1,06,1","6,1,06,1",,"03,99,1,03,1,04,1,00800,1,00,1,00,1",,,"999,M,+0222,1","99999,9,09972,1","2,1,010,1,+999,9","01,1","SYN088AAXX  03184 08359 11570 33406 10156 20071 39972 40069 52010 60142 70196 83400 333 10222;",
"08359099999","2010-05-04T06:00:00","4","38.3666666","-0.5","82.0","ALICANTE, SP","FM-12","99999","V020","300,1,N,0036,1","09000,1,9,N","030000,1,N,1","+0114,1","+0027,1","10070,1","12,0000,9,1","24,0137,9,1",,,,,"05,99,1,02,1,04,1,01250,1,04,1,02,1","0288,9",,"999,N,+0100,1","99999,9,09972,1","7,1,006,1,+999,9",,"SYN106AAXX  04064 08359 12680 53007 10114 20027 39972 40070 57006 60002 82442 90700 333 20100 50264 55048 70138;","Q01  00002PRCP12"
"08359099999","2010-05-04T18:00:00","4","38.3666666","-0.5","82.0","ALICANTE, SP","FM-12","99999","V020","330,1,N,0026,1","09000,1,9,N","020000,1,N,1","+0150,1","+0025,1","10073,1","12,0000,9,1",,,,,,"06,99,1,02,1,04,1,01250,1,04,1,06,1",,,"999,M,+0184,1","99999,9,09976,1","2,1,010,1,+999,9",,"SYN082AAXX  04184 08359 12670 63305 10150 20025 39976 40073 52010 60002 82446 333 10184;","Q01  00002PRCP12"
"08359099999","2010-05-05T06:00:00","4","38.3666666","-0.5","82.0","ALICANTE, SP","FM-12","99999","V020","350,1,N,0021,1","22000,1,9,N","030000,1,N,1","+0134,1","+0043,1","10093,1","12,0000,9,1","24,0000,9,1",,,,,"02,99,1,00,1,00,1,99999,9,00,1,01,1","0324,9",,"999,N,+0095,1","99999,9,09995,1","3,1,002,1,+999,9",,"SYN106AAXX  05064 08359 12980 23504 10134 20043 39995 40093 53002 60002 80001 90700 333 20095 50614 55054 70000;","Q01  00002PRCP24Q02  00002PRCP12"
"08359099999","2010-05-05T18:00:00","4","38.3666666","-0.5","82.0","ALICANTE, SP","FM-12","99999","V020","050,1,N,0015,1","99999,9,9,N","020000,1,N,1","+0160,1","+0082,1","10094,1","12,0000,9,1",,,,,,"06,99,1,06,1,00,1,99999,9,04,1,00,1",,,"999,M,+0188,1","99999,9,09997,1","4,1,000,1,+999,9",,"SYN082AAXX  05184 08359 12970 60503 10160 20082 39997 40094 54000 60002 86040 333 10188;","Q01  00002PRCP12"
"08359099999","2010-05-06T06:00:00","4","38.3666666","-0.5","82.0","ALICANTE, SP","FM-12","99999","V020","360,1,N,0015,1","22000,1,9,N","030000,1,N,1","+0142,1","+0031,1","10101,1","12,0000,9,1","24,0000,9,1",,,,,"01,99,1,00,1,00,1,99999,9,00,1,01,1","0402,9",,"999,N,+0095,1","99999,9,10003,1","3,1,004,1,+999,9",,"SYN106AAXX  06064 08359 12980 13603 10142 20031 30003 40101 53004 60002 80001 90700 333 20095 50344 55067 70000;","Q01  00002PRCP24Q02  00002PRCP12"
"08359099999","2010-05-06T18:00:00","4","38.3666666","-0.5","82.0","ALICANTE, SP","FM-12","99999","V020","080,1,N,0021,1","99999,9,9,N","020000,1,N,1","+0156,1","+0091,1","10091,1","12,0000,9,1",,,,,,"08,99,1,03,1,00,1,99999,9,02,1,06,1",,,"999,M,+0205,1","99999,9,09994,1","8,1,003,1,+999,9",,"SYN082AAXX  06184 08359 12970 80804 10156 20091 39994 40091 58003 60002 83026 333 10205;","Q01  00002PRCP12"
"08359099999","2010-05-07T06:00:00","4","38.3666666","-0.5","82.0","ALICANTE, SP","FM-12","99999","V020","020,1,N,0010,1","03600,1,9,N","018000,1,N,1","+0148,1","+0110,1","10090,1","12,0000,9,1","24,0000,9,1",,,,,"06,99,1,04,1,08,1,00800,1,08,1,00,1","0600,9",,"999,N,+0125,1","99999,9,09993,1","3,1,008,1,+999,9",,"SYN106AAXX  07064 08359 12568 60202 10148 20110 39993 40090 53008 60002 84880 90700 333 20125 50354 55100 70000;","Q01  00002PRCP24Q02  00002PRCP12"
"08359099999","2010-05-08T06:00:00","4","38.3666666","-0.5","82.0","ALICANTE, SP","FM-12","99999","V020","999,9,C,0000,1","22000,1,9,N","020000,1,N,1","+0156,1","+0120,1","10085,1","12,0030,9,1","24,0043,9,1",,,,"00,1,+99999,9,99,9","00,99,1,00,1,00,1,99999,9,00,1,00,1","0492,9",,"999,N,+0110,1","99999,9,09988,1","3,1,010,1,+999,9",,"SYN100AAXX  08064 08359 12970 00000 10156 20120 39988 40085 53010 60032 90700 333 20110 50224 55082 70043;",
"08359099999","2010-05-08T18:00:00","4","38.3666666","-0.5","82.0","ALICANTE, SP","FM-12","99999","V020","150,1,N,0015,1","99999,9,9,N","015000,1,N,1","+0182,1","+0158,1","10094,1","12,0000,9,1",,,,,,"05,99,1,00,1,00,1,99999,9,00,1,06,1",,,"999,M,+0236,1","99999,9,09998,1","5,1,000,1,+999,9",,"SYN082AAXX  08184 08359 12965 51503 10182 20158 39998 40094 55000 60002 80006 333 10236;","Q01  00002PRCP12"
"08359099999","2010-05-09T06:00:00","4","38.3666666","-0.5","82.0","ALICANTE, SP","FM-12","99999","V020","999,9,C,0000,1","99999,9,9,N","006000,1,N,1","+0160,1","+0135,1","10088,1","12,0000,9,1","24,0000,9,1",,"4,1,06,1","2,1,06,1",,"07,99,1,00,1,00,1,99999,9,00,1,06,1","0702,9",,"999,N,+0130,1","99999,9,09991,1","6,1,004,1,+999,9","10,1","SYN112AAXX  09064 08359 11956 70000 10160 20135 39991 40088 56004 60002 71042 80006 90700 333 20130 50224 55117 70000;","Q01  00002PRCP24Q02  00002PRCP12"
"08359099999","2010-05-09T18:00:00","4","38.3666666","-0.5","82.0","ALICANTE, SP","FM-12","99999","V020","080,1,N,0026,1","09000,1,9,N","020000,1,N,1","+0226,1","+0162,1","10059,1","12,0000,9,1",,,,,,"07,99,1,04,1,08,1,01250,1,00,1,02,1",,,"999,M,+0248,1","99999,9,09965,1","6,1,003,1,+999,9",,"SYN082AAXX  09184 08359 12670 70805 10226 20162 39965 40059 56003 60002 84802 333 10248;","Q01  00002PRCP12"
"08359099999","2010-05-10T06:00:00","4","38.3666666","-0.5","82.0","ALICANTE, SP","FM-12","99999","V020","300,1,N,0010,1","99999,9,9,N","020000,1,N,1","+0180,1","+0127,1","10083,1","12,0000,9,1","24,0000,9,1",,,,,"06,99,1,06,1,00,1,99999,9,08,1,00,1","0594,9",,"999,N,+0145,1","99999,9,09987,1","1,1,003,1,+999,9",,"SYN106AAXX  10064 08359 12970 63002 10180 20127 39987 40083 51003 60002 86080 90700 333 20145 50264 55099 70000;","Q01  00002PRCP24Q02  00002PRCP12"
"08359099999","2010-05-10T18:00:00","4","38.3666666","-0.5","82.0","ALICANTE, SP","FM-12","99999","V020","050,1,N,0010,1","03600,1,9,N","020000,1,N,1","+0210,1","+0146,1","10065,1","12,9999,9,9",,,"8,1,06,1","2,1,06,1",,"05,99,1,03,1,09,1,00800,1,06,1,00,1",,,"999,M,+0260,1","99999,9,09970,1","5,1,004,1,+999,9","25,1","SYN088AAXX  10184 08359 11570 50502 10210 20146 39970 40065 55004 69902 72582 83960 333 10260;","Q01  00002PRCP12Q02  00002PRCP12"
"08359099999","2010-05-11T06:00:00","4","38.3666666","-0.5","82.0","ALICANTE, SP","FM-12","99999","V020","340,1,N,0005,1","99999,9,9,N","020000,1,N,1","+0182,1","+0117,1","10073,1","12,0000,2,1","24,0000,2,1",,,,,"07,99,1,07,1,00,1,99999,9,07,1,00,1","0624,9",,"999,N,+0150,1","99999,9,09977,1","3,1,006,1,+999,9",,"SYN106AAXX  11064 08359 12970 73401 10182 20117 39977 40073 53006 60002 87070 90700 333 20150 50364 55104 79999;",
"08359099999","2010-05-11T18:00:00","4","38.3666666","-0.5","82.0","ALICANTE, SP","FM-12","99999","V020","030,1,N,0010,1","03600,1,9,N","020000,1,N,1","+0178,1","+0154,1","10070,1","12,0099,9,1",,,"9,1,06,1","8,1,06,1",,"06,99,1,01,1,09,1,01250,1,06,1,00,1",,,"999,M,+0252,1","99999,9,09974,1","0,1,010,1,+999,9","01,1","SYN088AAXX  11184 08359 11670 60302 10178 20154 39974 40070 50010 60102 70198 81960 333 10252;",
"08359099999","2010-05-12T06:00:00","4","38.3666666","-0.5","82.0","ALICANTE, SP","FM-12","99999","V020","300,1,N,0005,1","22000,1,9,N","030000,1,N,1","+0178,1","+0111,1","10079,1","12,0000,9,1","24,0097,9,1",,,,,"02,99,1,02,1,00,1,99999,9,08,1,00,1","0444,9",,"999,N,+0124,1","99999,9,09983,1","1,1,005,1,+999,9",,"SYN106AAXX  12064 08359 12980 23001 10178 20111 39983 40079 51005 60002 82080 90700 333 20124 50264 55074 70096;","Q01  00002PRCP12"
"08359099999","2010-05-13T06:00:00","4","38.3666666","-0.5","82.0","ALICANTE, SP","FM-12","99999","V020","240,1,N,0015,1","22000,1,9,N","030000,1,N,1","+0160,1","+0085,1","10116,1","12,0000,9,1","24,0000,9,1",,,,,"04,99,1,04,1,00,1,99999,9,03,1,00,1","0540,9",,"999,N,+0140,1","99999,9,10019,1","3,1,012,1,+999,9",,"SYN106AAXX  13064 08359 12980 42403 10160 20085 30019 40116 53012 60002 84030 90700 333 20140 50574 55090 79999;","Q01  00002PRCP24Q02  00002PRCP12"
"08359099999","2010-05-13T18:00:00","4","38.3666666","-0.5","82.0","ALICANTE, SP","FM-12","99999","V020","140,1,N,0005,1","01200,1,9,N","008000,1,N,1","+0176,1","+0137,1","10100,1","12,0030,9,1",,,"2,1,06,1","2,1,06,1","04,1,+01250,1,09,1","08,99,1,06,1,09,1,01250,1,07,1,99,9",,,"120,M,+0230,1","99999,9,10004,1","6,1,005,1,+999,9","95,1","SYN094AAXX  13184 08359 11658 81401 10176 20137 30004 40100 56005 60032 79522 8697/ 333 10230 84996;",
"08359099999","2010-05-14T06:00:00","4","38.3666666","-0.5","82.0","ALICANTE, SP","FM-12","99999","V020","320,1,N,0015,1","01200,1,9,N","020000,1,N,1","+0136,1","+0076,1","10104,1","12,0000,2,1","24,0076,9,1",,"2,1,06,1","2,1,06,1","03,1,+01250,1,09,1","08,99,1,06,1,09,1,01250,1,07,1,99,9","0426,9",,"999,N,+0110,1","99999,9,10006,1","3,1,004,1,+999,9","60,1","SYN118AAXX  14064 08359 11670 83203 10136 20076 30006 40104 53004 69902 76022 8697/ 90700 333 20110 50324 55071 70077 83996;",
"08359099999","2010-05-14T18:00:00","4","38.3666666","-0.5","82.0","ALICANTE, SP","FM-12","99999","V020","160,1,N,0026,1","22000,1,9,N","020000,1,N,1","+0158,1","+0078,1","10112,1","12,0008,9,1",,,,,,"03,99,1,01,1,08,1,01250,1,06,1,00,1",,,"999,M,+0182,1","99999,9,10015,1","3,1,015,1,+999,9",,"SYN082AAXX  14184 08359 12670 31605 10158 20078 30015 40112 53015 69982 81860 333 10182;",
"08359099999","2010-05-16T06:00:00","4","38.3666666","-0.5","82.0","ALICANTE, SP","FM-12","99999","V020","290,1,N,0015,1","22000,1,9,N","030000,1,N,1","+0166,1","+0059,1","10200,1","12,0000,9,1","24,0000,9,1",,,,"00,1,+99999,9,99,9","00,99,1,00,1,00,1,99999,9,00,1,00,1","0780,9",,"999,N,+0114,1","99999,9,10102,1","2,1,014,1,+999,9",,"SYN100AAXX  16064 08359 12980 02903 10166 20059 30102 40200 52014 60002 90700 333 20114 50504 55130 70000;","Q01  00002PRCP24Q02  00002PRCP12"
"08359099999","2010-05-16T18:00:00","4","38.3666666","-0.5","82.0","ALICANTE, SP","FM-12","99999","V020","130,1,N,0015,1","22000,1,9,N","020000,1,N,1","+0178,1","+0120,1","10213,1","12,0000,9,1",,,,,,"02,99,1,02,1,04,1,00800,1,00,1,00,1",,,"999,M,+0235,1","99999,9,10116,1","4,1,000,1,+999,9",,"SYN082AAXX  16184 08359 12570 21303 10178 20120 30116 40213 54000 60002 82400 333 10235;","Q01  00002PRCP12"
"08359099999","2010-05-17T06:00:00","4","38.3666666","-0.5","82.0","ALICANTE, SP","FM-12","99999","V020","999,9,C,0000,1","22000,1,9,N","020000,1,N,1","+0156,1","+0116,1","10239,1","12,0000,9,1","24,0000,9,1",,,,"00,1,+99999,9,99,9","00,99,1,00,1,00,1,99999,9,00,1,00,1","0774,9",,"999,N,+0120,1","99999,9,10141,1","3,1,004,1,+999,9",,"SYN100AAXX  17064 08359 12970 00000 10156 20116 30141 40239 53004 60002 90700 333 20120 50384 55129 70000;","Q01  00002PRCP24Q02  00002PRCP12"
"08359099999","2010-05-17T18:00:00","4","38.3666666","-0.5","82.0","ALICANTE, SP","FM-12","99999","V020","140,1,N,0015,1","22000,1,9,N","020000,1,N,1","+0188,1","+0143,1","10245,1","12,0000,9,1",,,,,,"01,99,1,01,1,04,1,00800,1,00,1,00,1",,,"999,M,+0220,1","99999,9,10148,1","5,1,000,1,+999,9",,"SYN082AAXX  17184 08359 12570 11403 10188 20143 30148 40245 55000 60002 81400 333 10220;","Q01  00002PRCP12"
"08359099999","2010-05-18T06:00:00","4","38.3666666","-0.5","82.0","ALICANTE, SP","FM-12","99999","V020","020,1,N,0010,1","22000,1,9,N","020000,1,N,1","+0170,1","+0123,1","10264,1","12,0000,9,1","24,0000,9,1",,,,,"01,99,1,01,1,05,1,00800,1,00,1,00,1","0774,9",,"999,N,+0116,1","99999,9,10166,1","3,1,006,1,+999,9",,"SYN106AAXX  18064 08359 12570 10202 10170 20123 30166 40264 53006 60002 81500 90700 333 20116 50264 55129 70000;","Q01  00002PRCP24Q02  00002PRCP12"
"08359099999","2010-05-18T18:00:00","4","38.3666666","-0.5","82.0","ALICANTE, SP","FM-12","99999","V020","130,1,N,0010,1","22000,1,9,N","030000,1,N,1","+0198,1","+0128,1","10236,1","12,0000,9,1",,,,,,"01,99,1,00,1,00,1,99999,9,00,1,04,1",,,"999,M,+0227,1","99999,9,10139,1","6,1,008,1,+999,9",,"SYN082AAXX  18184 08359 12980 11302 10198 20128 30139 40236 56008 60002 80004 333 10227;","Q01  00002PRCP12"
"08359099999","2010-05-19T06:00:00","4","38.3666666","-0.5","82.0","ALICANTE, SP","FM-12","99999","V020","999,9,C,0000,1","22000,1,9,N","030000,1,N,1","+0172,1","+0117,1","10218,1","12,0000,9,1","24,0000,9,1",,,,,"01,99,1,00,1,00,1,99999,9,00,1,01,1","0780,9",,"999,N,+0120,1","99999,9,10120,1","5,1,000,1,+999,9",,"SYN106AAXX  19064 08359 12980 10000 10172 20117 30120 40218 55000 60002 80001 90700 333 20120 50264 55130 70000;","Q01  00002PRCP24Q02  00002PRCP12"
"08359099999","2010-05-19T18:00:00","4","38.3666666","-0.5","82.0","ALICANTE, SP","FM-12","99999","V020","150,1,N,0015,1","22000,1,9,N","030000,1,N,1","+0212,1","+0121,1","10212,1","12,0000,9,1",,,,,"00,1,+99999,9,99,9","00,99,1,00,1,00,1,99999,9,00,1,00,1",,,"999,M,+0246,1","99999,9,10116,1","6,1,002,1,+999,9",,"SYN076AAXX  19184 08359 12980 01503 10212 20121 30116 40212 56002 60002 333 10246;","Q01  00002PRCP12"
"08359099999","2010-05-20T06:00:00","4","38.3666666","-0.5","82.0","ALICANTE, SP","FM-12","99999","V020","999,9,C,0000,1","22000,1,9,N","020000,1,N,1","+0192,1","+0129,1","10251,1","12,0000,9,1","24,0000,9,1",,,,"00,1,+99999,9,99,9","00,99,1,00,1,00,1,99999,9,00,1,00,1","0780,9",,"999,N,+0150,1","99999,9,10154,1","3,1,008,1,+999,9",,"SYN100AAXX  20064 08359 12970 00000 10192 20129 30154 40251 53008 60002 90700 333 20150 50374 55130 70000;","Q01  00002PRCP24Q02  00002PRCP12"
"08359099999","2010-05-20T18:00:00","4","38.3666666","-0.5","82.0","ALICANTE, SP","FM-12","99999","V020","140,1,N,0015,1","22000,1,9,N","020000,1,N,1","+0204,1","+0126,1","10233,1","12,0000,9,1",,,,,"00,1,+99999,9,99,9","00,99,1,00,1,00,1,99999,9,00,1,00,1",,,"999,M,+0236,1","99999,9,10136,1","6,1,008,1,+999,9",,"SYN076AAXX  20184 08359 12970 01403 10204 20126 30136 40233 56008 60002 333 10236;","Q01  00002PRCP12"
"08359099999","2010-05-21T06:00:00","4","38.3666666","-0.5","82.0","ALICANTE, SP","FM-12","99999","V020","350,1,N,0010,1","22000,1,9,N","020000,1,N,1","+0178,1","+0129,1","10231,1","12,0000,9,1","24,0000,9,1",,,,"00,1,+99999,9,99,9","00,99,1,00,1,00,1,99999,9,00,1,00,1","0768,9",,"999,N,+0120,1","99999,9,10134,1","1,1,004,1,+999,9",,"SYN100AAXX  21064 08359 12970 03502 10178 20129 30134 40231 51004 60002 90700 333 20120 50414 55128 70000;","Q01  00002PRCP24Q02  00002PRCP12"
"08359099999","2010-05-21T18:00:00","4","38.3666666","-0.5","82.0","ALICANTE, SP","FM-12","99999","V020","130,1,N,0015,1","22000,1,9,N","020000,1,N,1","+0204,1","+0143,1","10199,1","12,0000,9,1",,,,,"00,1,+99999,9,99,9","00,99,1,00,1,00,1,99999,9,00,1,00,1",,,"999,M,+0246,1","99999,9,10103,1","6,1,007,1,+999,9",,"SYN076AAXX  21184 08359 12970 01303 10204 20143 30103 40199 56007 60002 333 10246;","Q01  00002PRCP12"
"08359099999","2010-05-22T06:00:00","4","38.3666666","-0.5","82.0","ALICANTE, SP","FM-12","99999","V020","060,1,N,0010,1","22000,1,9,N","030000,1,N,1","+0204,1","+0111,1","10188,1","12,0000,9,1","24,0000,9,1",,,,"00,1,+99999,9,99,9","00,99,1,00,1,00,1,99999,9,00,1,00,1","0780,9",,"999,N,+0136,1","99999,9,10092,1","1,1,005,1,+999,9",,"SYN100AAXX  22064 08359 12980 00602 10204 20111 30092 40188 51005 60002 90700 333 20136 50404 55130 70000;","Q01  00002PRCP24Q02  00002PRCP12"
"08359099999","2010-05-22T18:00:00","4","38.3666666","-0.5","82.0","ALICANTE, SP","FM-12","99999","V020","080,1,N,0021,1","22000,1,9,N","020000,1,N,1","+0214,1","+0123,1","10177,1","12,0000,9,1",,,,,"00,1,+99999,9,99,9","00,99,1,00,1,00,1,99999,9,00,1,00,1",,,"999,M,+0250,1","99999,9,10081,1","8,1,002,1,+999,9",,"SYN076AAXX  22184 08359 12970 00804 10214 20123 30081 40177 58002 60002 333 10250;","Q01  00002PRCP12"
"08359099999","2010-05-23T06:00:00","4","38.3666666","-0.5","82.0","ALICANTE, SP","FM-12","99999","V020","070,1,N,0010,1","22000,1,9,N","020000,1,N,1","+0204,1","+0113,1","10177,1","12,0000,9,1","24,0000,9,1",,,,,"01,99,1,01,1,00,1,99999,9,08,1,00,1","0780,9",,"999,N,+0138,1","99999,9,10081,1","1,1,005,1,+999,9",,"SYN106AAXX  23064 08359 12970 10702 10204 20113 30081 40177 51005 60002 81080 90700 333 20138 50444 55130 70000;","Q01  00002PRCP24Q02  00002PRCP12"
"08359099999","2010-05-23T18:00:00","4","38.3666666","-0.5","82.0","ALICANTE, SP","FM-12","99999","V020","140,1,N,0010,1","99999,9,9,N","020000,1,N,1","+0214,1","+0143,1","10172,1","12,0000,9,1",,,,,,"06,99,1,06,1,00,1,99999,9,07,1,00,1",,,"999,M,+0246,1","99999,9,10076,1","6,1,002,1,+999,9",,"SYN082AAXX  23184 08359 12970 61402 10214 20143 30076 40172 56002 60002 86070 333 10246;","Q01  00002PRCP12"
"08359099999","2010-05-24T06:00:00","4","38.3666666","-0.5","82.0","ALICANTE, SP","FM-12","99999","V020","999,9,C,0000,1","22000,1,9,N","020000,1,N,1","+0206,1","+0121,1","10185,1","12,0000,9,1","24,0000,9,1",,,,,"01,99,1,01,1,00,1,99999,9,03,1,00,1","0666,9",,"999,N,+0160,1","99999,9,10089,1","3,1,005,1,+999,9",,"SYN106AAXX  24064 08359 12970 10000 10206 20121 30089 40185 53005 60002 81030 90700 333 20160 50374 55111 79999;","Q01  00002PRCP24Q02  00002PRCP12"
"08359099999","2010-05-24T18:00:00","4","38.3666666","-0.5","82.0","ALICANTE, SP","FM-12","99999","V020","140,1,N,0015,1","22000,1,9,N","020000,1,N,1","+0222,1","+0127,1","10177,1","12,0000,9,1",,,,,"00,1,+99999,9,99,9","00,99,1,00,1,00,1,99999,9,00,1,00,1",,,"999,M,+0256,1","99999,9,10082,1","7,1,006,1,+999,9",,"SYN076AAXX  24184 08359 12970 01403 10222 20127 30082 40177 57006 60002 333 10256;","Q01  00002PRCP12"
"08359099999","2010-05-25T06:00:00","4","38.3666666","-0.5","82.0","ALICANTE, SP","FM-12","99999","V020","040,1,N,0010,1","22000,1,9,N","020000,1,N,1","+0210,1","+0108,1","10170,1","12,0000,9,1","24,0000,9,1",,,,,"01,99,1,00,1,00,1,99999,9,00,1,01,1","0780,9",,"999,N,+0138,1","99999,9,10074,1","8,1,002,1,+999,9",,"SYN106AAXX  25064 08359 12970 10402 10210 20108 30074 40170 58002 60002 80001 90700 333 20138 50424 55130 70000;","Q01  00002PRCP24Q02  00002PRCP12"
"08359099999","2010-05-25T18:00:00","4","38.3666666","-0.5","82.0","ALICANTE, SP","FM-12","99999","V020","070,1,N,0010,1","99999,9,9,N","020000,1,N,1","+0210,1","+0170,1","10147,1","12,0000,9,1",,,,,,"06,99,1,00,1,00,1,99999,9,00,1,02,1",,,"999,M,+0272,1","99999,9,10052,1","6,1,010,1,+999,9",,"SYN082AAXX  25184 08359 12970 60702 10210 20170 30052 40147 56010 60002 80002 333 10272;","Q01  00002PRCP12"
"08359099999","2010-05-26T06:00:00","4","38.3666666","-0.5","82.0","ALICANTE, SP","FM-12","99999","V020","999,9,C,0000,1","22000,1,9,N","020000,1,N,1","+0202,1","+0097,1","10123,1","12,0000,9,1","24,0000,9,1",,,,,"03,99,1,00,1,00,1,99999,9,00,1,04,1","0678,9",,"999,N,+0152,1","99999,9,10027,1","5,1,000,1,+999,9",,"SYN106AAXX  26064 08359 12970 30000 10202 20097 30027 40123 55000 60002 80004 90700 333 20152 50384 55113 70000;","Q01  00002PRCP24Q02  00002PRCP12"
"08359099999","2010-05-26T18:00:00","4","38.3666666","-0.5","82.0","ALICANTE, SP","FM-12","99999","V020","999,9,C,0000,1","22000,1,9,N","020000,1,N,1","+0234,1","+0136,1","10104,1","12,0000,9,1",,,,,,"03,99,1,00,1,00,1,99999,9,00,1,09,1",,,"999,M,+0266,1","99999,9,10010,1","6,1,008,1,+999,9",,"SYN082AAXX  26184 08359 12970 30000 10234 20136 30010 40104 56008 60002 80009 333 10266;","Q01  00002PRCP12"
"08359099999","2010-05-27T06:00:00","4","38.3666666","-0.5","82.0","ALICANTE, SP","FM-12","99999","V020","080,1,N,0026,1","09000,1,9,N","015000,1,N,1","+0214,1","+0178,1","10099,1","12,0000,9,1","24,0000,9,1",,,,,"05,99,1,01,1,08,1,00800,1,00,1,02,1","0696,9",,"999,N,+0176,1","99999,9,10004,1","0,1,010,1,+999,9",,"SYN106AAXX  27064 08359 12565 50805 10214 20178 30004 40099 50010 60002 81802 90700 333 20176 50404 55116 70000;","Q01  00002PRCP24Q02  00002PRCP12"
"08359099999","2010-05-28T06:00:00","4","38.3666666","-0.5","82.0","ALICANTE, SP","FM-12","99999","V020","310,1,N,0010,1","99999,9,9,N","020000,1,N,1","+0196,1","+0144,1","10134,1","12,0000,9,1","24,0000,9,1",,,,,"06,99,1,04,1,00,1,99999,9,03,1,02,1","0522,9",,"999,N,+0160,1","99999,9,10038,1","2,1,007,1,+999,9",,"SYN106AAXX  28064 08359 12970 63102 10196 20144 30038 40134 52007 60002 84032 90700 333 20160 50264 55087 70000;","Q01  00002PRCP24Q02  00002PRCP12"
"08359099999","2010-05-28T18:00:00","4","38.3666666","-0.5","82.0","ALICANTE, SP","FM-12","99999","V020","080,1,N,0005,1","01200,1,9,N","012000,1,N,1","+0180,1","+0156,1","10167,1","12,0030,9,1",,,"9,1,06,1","8,1,06,1","03,1,+01250,1,09,1","08,99,1,05,1,09,1,01250,1,07,1,99,9",,,"120,M,+0252,1","99999,9,10070,1","3,1,015,1,+999,9","95,1","SYN094AAXX  28184 08359 11662 80801 10180 20156 30070 40167 53015 60032 79598 8597/ 333 10252 83996;",
"08359099999","2010-05-29T06:00:00","4","38.3666666","-0.5","82.0","ALICANTE, SP","FM-12","99999","V020","999,9,C,0000,1","22000,1,9,N","030000,1,N,1","+0188,1","+0139,1","10200,1","12,0008,9,1","24,0038,9,1",,,,"00,1,+99999,9,99,9","00,99,1,00,1,00,1,99999,9,00,1,00,1","0372,9",,"999,N,+0140,1","99999,9,10103,1","2,1,014,1,+999,9",,"SYN100AAXX  29064 08359 12980 00000 10188 20139 30103 40200 52014 69982 90700 333 20140 50284 55062 70038;",
"08359099999","2010-05-29T18:00:00","4","38.3666666","-0.5","82.0","ALICANTE, SP","FM-12","99999","V020","150,1,N,0015,1","22000,1,9,N","020000,1,N,1","+0232,1","+0174,1","10205,1","12,0000,9,1",,,,,,"01,99,1,01,1,00,1,99999,9,06,1,01,1",,,"999,M,+0252,1","99999,9,10110,1","6,1,002,1,+999,9",,"SYN082AAXX  29184 08359 12970 11503 10232 20174 30110 40205 56002 60002 81061 333 10252;","Q01  00002PRCP12"
"08359099999","2010-05-30T06:00:00","4","38.3666666","-0.5","82.0","ALICANTE, SP","FM-12","99999","V020","200,1,N,0005,1","22000,1,9,N","030000,1,N,1","+0216,1","+0163,1","10216,1","12,0000,9,1","24,0000,9,1",,,,"00,1,+99999,9,99,9","00,99,1,00,1,00,1,99999,9,00,1,00,1","0774,9",,"999,N,+0160,1","99999,9,10120,1","3,1,007,1,+999,9",,"SYN100AAXX  30064 08359 12980 02001 10216 20163 30120 40216 53007 60002 90700 333 20160 50324 55129 70000;","Q01  00002PRCP24Q02  00002PRCP12"
"08359099999","2010-05-30T18:00:00","4","38.3666666","-0.5","82.0","ALICANTE, SP","FM-12","99999","V020","200,1,N,0021,1","22000,1,9,N","030000,1,N,1","+0252,1","+0186,1","10210,1","12,0000,9,1",,,,,,"03,99,1,00,1,00,1,99999,9,00,1,02,1",,,"999,M,+0286,1","99999,9,10115,1","7,1,010,1,+999,9",,"SYN082AAXX  30184 08359 12980 32004 10252 20186 30115 40210 57010 60002 80002 333 10286;","Q01  00002PRCP12"
"08359099999","2010-05-31T06:00:00","4","38.3666666","-0.5","82.0","ALICANTE, SP","FM-12","99999","V020","999,9,C,0000,1","22000,1,9,N","020000,1,N,1","+0246,1","+0161,1","10191,1","12,0000,9,1","24,0000,9,1",,,,,"03,99,1,00,1,00,1,99999,9,00,1,01,1","0768,9",,"999,N,+0185,1","99999,9,10096,1","1,1,002,1,+999,9",,"SYN106AAXX  31064 08359 12970 30000 10246 20161 30096 40191 51002 60002 80001 90700 333 20185 50404 55128 70000;","Q01  00002PRCP24Q02  00002PRCP12"
"08359099999","2010-06-01T06:00:00","4","38.3666666","-0.5","82.0","ALICANTE, SP","FM-12","99999","V020","999,9,C,0000,1","22000,1,9,N","030000,1,N,1","+0262,1","+0176,1","10155,1","12,0000,9,1","24,0000,9,1",,,,,"03,99,1,00,1,00,1,99999,9,00,1,01,1","0738,9",,"999,N,+0206,1","99999,9,10061,1","1,1,002,1,+999,9",,"SYN106AAXX  01064 08359 12980 30000 10262 20176 30061 40155 51002 60002 80001 90700 333 20206 50564 55123 70000;","Q01  00002PRCP24Q02  00002PRCP12"
"08359099999","2010-06-01T18:00:00","4","38.3666666","-0.5","82.0","ALICANTE, SP","FM-12","99999","V020","140,1,N,0010,1","09000,1,9,N","020000,1,N,1","+0274,1","+0184,1","10135,1","12,0000,9,1",,,,,,"06,99,1,01,1,08,1,00800,1,00,1,02,1",,,"999,M,+0316,1","99999,9,10042,1","8,1,006,1,+999,9",,"SYN082AAXX  01184 08359 12570 61402 10274 20184 30042 40135 58006 60002 81802 333 10316;","Q01  00002PRCP12"
"08359099999","2010-06-02T06:00:00","4","38.3666666","-0.5","82.0","ALICANTE, SP","FM-12","99999","V020","999,9,C,0000,1","22000,1,9,N","020000,1,N,1","+0250,1","+0187,1","10130,1","12,0000,9,1","24,0000,9,1",,,,,"03,99,1,00,1,00,1,99999,9,00,1,02,1","0726,9",,"999,N,+0205,1","99999,9,10036,1","1,1,002,1,+999,9",,"SYN106AAXX  02064 08359 12970 30000 10250 20187 30036 40130 51002 60002 80002 90700 333 20205 50524 55121 70000;","Q01  00002PRCP24Q02  00002PRCP12"
"08359099999","2010-06-02T18:00:00","4","38.3666666","-0.5","82.0","ALICANTE, SP","FM-12","99999","V020","080,1,N,0021,1","03600,1,9,N","020000,1,N,1","+0236,1","+0178,1","10127,1","12,0000,9,1",,,,,,"08,99,1,01,1,08,1,00800,1,02,1,06,1",,,"999,M,+0290,1","99999,9,10033,1","2,1,002,1,+999,9",,"SYN082AAXX  02184 08359 12570 80804 10236 20178 30033 40127 52002 60002 81826 333 10290;","Q01  00002PRCP12"
"08359099999","2010-06-03T06:00:00","4","38.3666666","-0.5","82.0","ALICANTE, SP","FM-12","99999","V020","080,1,N,0010,1","22000,1,9,N","020000,1,N,1","+0214,1","+0166,1","10129,1","12,0000,9,1","24,0000,9,1",,,,,"05,99,1,01,1,08,1,00800,1,03,1,09,1","0396,9",,"999,N,+0186,1","99999,9,10034,1","3,1,005,1,+999,9",,"SYN106AAXX  03064 08359 12570 50802 10214 20166 30034 40129 53005 60002 81839 90700 333 20186 50404 55066 70000;","Q01  00002PRCP24Q02  00002PRCP12"
"08359099999","2010-06-03T18:00:00","4","38.3666666","-0.5","82.0","ALICANTE, SP","FM-12","99999","V020","210,1,N,0021,1","01200,1,9,N","012000,1,N,1","+0230,1","+0190,1","10132,1","12,0005,9,1",,,"9,1,06,1","8,1,06,1","04,1,+01250,1,09,1","08,99,1,06,1,09,1,01250,1,07,1,03,1",,,"120,M,+0266,1","99999,9,10037,1","2,1,014,1,+999,9","95,1","SYN094AAXX  03184 08359 11662 82104 10230 20190 30037 40132 52014 69942 79598 86973 333 10266 84996;",
"08359099999","2010-06-04T06:00:00","4","38.3666666","-0.5","82.0","ALICANTE, SP","FM-12","99999","V020","050,1,N,0005,1","22000,1,9,N","020000,1,N,1","+0230,1","+0196,1","10151,1","12,0003,9,1","24,0008,9,1",,,,"00,1,+99999,9,99,9","00,99,1,00,1,00,1,99999,9,00,1,00,1","0456,9",,"999,N,+0192,1","99999,9,10056,1","2,1,015,1,+999,9",,"SYN100AAXX  04064 08359 12970 00501 10230 20196 30056 40151 52015 69932 90700 333 20192 50264 55076 70007;",
"08359099999","2010-06-04T18:00:00","4","38.3666666","-0.5","82.0","ALICANTE, SP","FM-12","99999","V020","170,1,N,0021,1","22000,1,9,N","020000,1,N,1","+0242,1","+0209,1","10168,1","12,0000,9,1",,,,,,"03,99,1,01,1,05,1,00800,1,03,1,00,1",,,"999,M,+0276,1","99999,9,10074,1","6,1,002,1,+999,9",,"SYN082AAXX  04184 08359 12570 31704 10242 20209 30074 40168 56002 60002 81530 333 10276;","Q01  00002PRCP12"
"08359099999","2010-06-05T06:00:00","4","38.3666666","-0.5","82.0","ALICANTE, SP","FM-12","99999","V020","080,1,N,0015,1","22000,1,9,N","018000,1,N,1","+0226,1","+0201,1","10190,1","12,0000,9,1","24,0000,9,1",,,,,"03,99,1,01,1,08,1,00800,1,03,1,09,1","0762,9",,"999,N,+0185,1","99999,9,10095,1","3,1,006,1,+999,9",,"SYN106AAXX  05064 08359 12568 30803 10226 20201 30095 40190 53006 60002 81839 90700 333 20185 50274 55127 70000;","Q01  00002PRCP24Q02  00002PRCP12"
"08359099999","2010-06-05T18:00:00","4","38.3666666","-0.5","82.0","ALICANTE, SP","FM-12","99999","V020","160,1,N,0015,1","99999,9,9,N","020000,1,N,1","+0252,1","+0169,1","10176,1","12,0000,9,1",,,,,,"05,99,1,00,1,00,1,99999,9,00,1,02,1",,,"999,M,+0285,1","99999,9,10082,1","6,1,010,1,+999,9",,"SYN082AAXX  05184 08359 12970 51603 10252 20169 30082 40176 56010 60002 80002 333 10285;","Q01  00002PRCP12"
"08359099999","2010-06-06T06:00:00","4","38.3666666","-0.5","82.0","ALICANTE, SP","FM-12","99999","V020","010,1,N,0005,1","22000,1,9,N","020000,1,N,1","+0224,1","+0155,1","10161,1","12,0000,9,1","24,0000,9,1",,,,,"02,99,1,01,1,00,1,99999,9,08,1,02,1",,,"999,N,+0175,1","99999,9,10066,1","6,1,002,1,+999,9",,"SYN106AAXX  06064 08359 12970 20101 10224 20155 30066 40161 56002 60002 81082 90700 333 20175 50404 55443 70000;","Q01  00002PRCP24Q02  00002PRCP12"
"08359099999","2010-06-06T18:00:00","4","38.3666666","-0.5","82.0","ALICANTE, SP","FM-12","99999","V020","090,1,N,0031,1","22000,1,9,N","018000,1,N,1","+0234,1","+0200,1","10160,1","12,0000,9,1",,,,,"02,1,+01250,1,09,1","03,99,1,02,1,09,1,01250,1,00,1,03,1",,,"120,M,+0282,1","99999,9,10065,1","4,1,000,1,+999,9",,"SYN088AAXX  06184 08359 12668 30906 10234 20200 30065 40160 54000 60002 82903 333 10282 82996;","Q01  00002PRCP12"
"08359099999","2010-06-07T06:00:00","4","38.3666666","-0.5","82.0","ALICANTE, SP","FM-12","99999","V020","290,1,N,0005,1","22000,1,9,N","018000,1,N,1","+0214,1","+0178,1","10163,1","12,0000,9,1","24,0000,9,1",,,,,"02,99,1,01,1,08,1,00800,1,08,1,00,1","0534,9",,"999,N,+0182,1","99999,9,10068,1","3,1,004,1,+999,9",,"SYN106AAXX  07064 08359 12568 22901 10214 20178 30068 40163 53004 60002 81880 90700 333 20182 50344 55089 70000;","Q01  00002PRCP24Q02  00002PRCP12"
"08359099999","2010-06-07T18:00:00","4","38.3666666","-0.5","82.0","ALICANTE, SP","FM-12","99999","V020","120,1,N,0010,1","22000,1,9,N","020000,1,N,1","+0244,1","+0181,1","10132,1","12,0000,9,1",,,,,,"03,99,1,00,1,00,1,99999,9,00,1,04,1",,,"999,M,+0270,1","99999,9,10038,1","8,1,010,1,+999,9",,"SYN082AAXX  07184 08359 12970 31202 10244 20181 30038 40132 58010 60002 80004 333 10270;","Q01  00002PRCP12"
"08359099999","2010-06-08T06:00:00","4","38.3666666","-0.5","82.0","ALICANTE, SP","FM-12","99999","V020","999,9,C,0000,1","22000,1,9,N","020000,1,N,1","+0218,1","+0186,1","10103,1","12,0000,9,1","24,0000,9,1",,,,,"01,99,1,00,1,00,1,99999,9,00,1,01,1","0762,9",,"999,N,+0180,1","99999,9,10008,1","8,1,005,1,+999,9",,"SYN106AAXX  08064 08359 12970 10000 10218 20186 30008 40103 58005 60002 80001 90700 333 20180 50314 55127 70000;","Q01  00002PRCP24Q02  00002PRCP12"
"08359099999","2010-06-08T18:00:00","4","38.3666666","-0.5","82.0","ALICANTE, SP","FM-12","99999","V020","150,1,N,0021,1","22000,1,9,N","006000,1,N,1","+0240,1","+0213,1","10059,1","12,0000,9,1",,,"4,1,06,1","4,1,06,1",,"02,99,1,02,1,08,1,00800,1,00,1,00,1",,,"999,M,+0280,1","99999,9,09966,1","7,1,008,1,+999,9","10,1","SYN088AAXX  08184 08359 11556 21504 10240 20213 39966 40059 57008 60002 71044 82800 333 10280;","Q01  00002PRCP12"
"08359099999","2010-06-09T06:00:00","4","38.3666666","-0.5","82.0","ALICANTE, SP","FM-12","99999","V020","040,1,N,0005,1","03600,1,9,N","008000,1,N,1","+0232,1","+0205,1","10037,1","12,0000,9,1","24,0000,9,1",,"4,1,06,1","4,1,06,1",,"08,99,1,01,1,05,1,00800,1,07,1,06,1","0756,9",,"999,N,+0210,1","99999,9,09944,1","0,1,004,1,+999,9","10,1","SYN112AAXX  09064 08359 11558 80401 10232 20205 39944 40037 50004 60002 71044 81576 90700 333 20210 50244 55126 70000;","Q01  00002PRCP24Q02  00002PRCP12"
"08359099999","2010-06-09T18:00:00","4","38.3666666","-0.5","82.0","ALICANTE, SP","FM-12","99999","V020","090,1,N,0015,1","03600,1,9,N","018000,1,N,1","+0230,1","+0194,1","10016,1","12,0000,9,1",,,"4,1,06,1","4,1,06,1",,"06,99,1,01,1,08,1,00800,1,03,1,09,1",,,"999,M,+0256,1","99999,9,09923,1","8,1,005,1,+999,9","02,1","SYN088AAXX  09184 08359 11568 60903 10230 20194 39923 40016 58005 60002 70244 81839 333 10256;","Q01  00002PRCP12"
"08359099999","2010-06-10T06:00:00","4","38.3666666","-0.5","82.0","ALICANTE, SP","FM-12","99999","V020","300,1,N,0010,1","22000,1,9,N","040000,1,N,1","+0200,1","+0135,1","10048,1","12,0005,9,1","24,0005,9,1",,"6,1,06,1","1,1,06,1",,"04,99,1,03,1,00,1,99999,9,07,1,03,1","0138,9",,"999,N,+0190,1","99999,9,09953,1","2,1,015,1,+999,9","01,1","SYN112AAXX  10064 08359 11982 43002 10200 20135 39953 40048 52015 69942 70161 83073 90700 333 20190 50314 55023 70004;",
"08359099999","2010-06-10T18:00:00","4","38.3666666","-0.5","82.0","ALICANTE, SP","FM-12","99999","V020","160,1,N,0021,1","22000,1,9,N","030000,1,N,1","+0248,1","+0170,1","10066,1","12,0000,9,1",,,,,,"02,99,1,01,1,08,1,00800,1,06,1,09,1",,,"999,M,+0280,1","99999,9,09973,1","4,1,000,1,+999,9",,"SYN082AAXX  10184 08359 12580 21604 10248 20170 39973 40066 54000 60002 81869 333 10280;","Q01  00002PRCP12"
"08359099999","2010-06-11T06:00:00","4","38.3666666","-0.5","82.0","ALICANTE, SP","FM-12","99999","V020","010,1,N,0010,1","03600,1,9,N","020000,1,N,1","+0214,1","+0136,1","10101,1","12,0000,9,1","24,0000,9,1",,,,,"08,99,1,01,1,02,1,00800,1,07,1,99,9","0696,9",,"999,N,+0172,1","99999,9,10006,1","1,1,010,1,+999,9",,"SYN106AAXX  11064 08359 12570 80102 10214 20136 30006 40101 51010 60002 8127/ 90700 333 20172 50504 55116 70000;","Q01  00002PRCP24Q02  00002PRCP12"
"08359099999","2010-06-11T18:00:00","4","38.3666666","-0.5","82.0","ALICANTE, SP","FM-12","99999","V020","200,1,N,0036,1","22000,1,9,N","020000,1,N,1","+0248,1","+0157,1","10109,1","12,0000,9,1",,,,,,"01,99,1,01,1,00,1,99999,9,06,1,00,1",,,"999,M,+0285,1","99999,9,10015,1","4,1,000,1,+999,9",,"SYN082AAXX  11184 08359 12970 12007 10248 20157 30015 40109 54000 60002 81060 333 10285;","Q01  00002PRCP12"
"08359099999","2010-06-12T06:00:00","4","38.3666666","-0.5","82.0","ALICANTE, SP","FM-12","99999","V020","999,9,C,0000,1","22000,1,9,N","030000,1,N,1","+0216,1","+0138,1","10125,1","12,0000,9,1","24,0000,9,1",,,,,"04,99,1,00,1,00,1,99999,9,00,1,02,1","0552,9",,"999,N,+0168,1","99999,9,10030,1","3,1,005,1,+999,9",,"SYN106AAXX  12064 08359 12980 40000 10216 20138 30030 40125 53005 60002 80002 90700 333 20168 50514 55092 70000;","Q01  00002PRCP24Q02  00002PRCP12"
"08359099999","2010-06-12T18:00:00","4","38.3666666","-0.5","82.0","ALICANTE, SP","FM-12","99999","V020","160,1,N,0015,1","22000,1,9,N","020000,1,N,1","+0232,1","+0163,1","10117,1","12,0000,9,1",,,,,,"03,99,1,01,1,02,1,00800,1,06,1,02,1",,,"999,M,+0266,1","99999,9,10023,1","5,1,000,1,+999,9",,"SYN082AAXX  12184 08359 12570 31603 10232 20163 30023 40117 55000 60002 81262 333 10266;","Q01  00002PRCP12"
"08359099999","2010-06-13T06:00:00","4","38.3666666","-0.5","82.0","ALICANTE, SP","FM-12","99999","V020","999,9,C,0000,1","99999,9,9,N","020000,1,N,1","+0204,1","+0172,1","10132,1","12,0000,9,1","24,0000,9,1",,,,,"06,99,1,01,1,03,1,99999,9,06,1,06,1","0630,9",,"999,N,+0186,1","99999,9,10037,1","3,1,004,1,+999,9",,"SYN106AAXX  13064 08359 12970 60000 10204 20172 30037 40132 53004 60002 81366 90700 333 20186 50504 55105 70000;","Q01  00002PRCP24Q02  00002PRCP12"
"08359099999","2010-06-13T18:00:00","4","38.3666666","-0.5","82.0","ALICANTE, SP","FM-12","99999","V020","110,1,N,0015,1","22000,1,9,N","020000,1,N,1","+0228,1","+0183,1","10134,1","12,0000,9,1",,,,,,"02,99,1,01,1,02,1,00800,1,08,1,01,1",,,"999,M,+0258,1","99999,9,10039,1","6,1,003,1,+999,9",,"SYN082AAXX  13184 08359 12570 21103 10228 20183 30039 40134 56003 60002 81281 333 10258;","Q01  00002PRCP12"
"08359099999","2010-06-14T06:00:00","4","38.3666666","-0.5","82.0","ALICANTE, SP","FM-12","99999","V020","350,1,N,0005,1","99999,9,9,N","020000,1,N,1","+0196,1","+0166,1","10133,1","12,0000,9,1","24,0000,9,1",,,,,"08,99,1,08,1,00,1,99999,9,07,1,99,9","0630,9",,"999,N,+0175,1","99999,9,10037,1","6,1,005,1,+999,9",,"SYN106AAXX  14064 08359 12970 83501 10196 20166 30037 40133 56005 60002 8807/ 90700 333 20175 50304 55105 70000;","Q01  00002PRCP24Q02  00002PRCP12"
"08359099999","2010-06-14T18:00:00","4","38.3666666","-0.5","82.0","ALICANTE, SP","FM-12","99999","V020","310,1,N,0010,1","03600,1,9,N","018000,1,N,1","+0206,1","+0180,1","10120,1","12,0005,9,1",,,"9,1,06,1","8,1,06,1",,"08,99,1,01,1,04,1,00800,1,07,1,99,9",,,"999,M,+0256,1","99999,9,10025,1","5,1,000,1,+999,9","02,1","SYN088AAXX  14184 08359 11568 83102 10206 20180 30025 40120 55000 69952 70298 8147/ 333 10256;",
"08359099999","2010-06-15T06:00:00","4","38.3666666","-0.5","82.0","ALICANTE, SP","FM-12","99999","V020","070,1,N,0005,1","01200,1,9,N","020000,1,N,1","+0200,1","+0178,1","10121,1","12,0000,9,1","24,0005,9,1",,,,,"07,99,1,06,1,08,1,00800,1,08,1,00,1","0246,9",,"999,N,+0186,1","99999,9,10026,1","3,1,001,1,+999,9",,"SYN106AAXX  15064 08359 12570 70701 10200 20178 30026 40121 53001 60002 86880 90700 333 20186 50254 55041 70005;","Q01  00002PRCP12"
"08359099999","2010-06-15T18:00:00","4","38.3666666","-0.5","82.0","ALICANTE, SP","FM-12","99999","V020","080,1,N,0010,1","01200,1,9,N","018000,1,N,1","+0176,1","+0166,1","10129,1","12,0391,9,1",,,"9,1,06,1","6,1,06,1",,"07,99,1,05,1,08,1,00800,1,07,1,00,1",,,"999,M,+0206,1","99999,9,10033,1","1,1,002,1,+999,9","01,1","SYN088AAXX  15184 08359 11568 70802 10176 20166 30033 40129 51002 60392 70196 85870 333 10206;",
"08359099999","2010-06-16T06:00:00","4","38.3666666","-0.5","82.0","ALICANTE, SP","FM-12","99999","V020","030,1,N,0010,1","99999,9,9,N","030000,1,N,1","+0168,1","+0152,1","10133,1","12,0000,9,1","24,0389,9,1",,,,,"05,99,1,05,1,00,1,99999,9,07,1,00,1","0078,9",,"999,N,+0130,1","99999,9,10036,1","1,1,003,1,+999,9",,"SYN106AAXX  16064 08359 12980 50302 10168 20152 30036 40133 51003 60002 85070 90700 333 20130 50094 55013 70388;","Q01  00002PRCP12"
"08359099999","2010-06-16T18:00:00","4","38.3666666","-0.5","82.0","ALICANTE, SP","FM-12","99999","V020","190,1,N,0031,1","22000,1,9,N","020000,1,N,1","+0222,1","+0171,1","10127,1","12,0010,9,1",,,,,,"04,99,1,03,1,00,1,99999,9,06,1,02,1",,,"999,M,+0260,1","99999,9,10032,1","3,1,004,1,+999,9",,"SYN082AAXX  16184 08359 12970 41906 10222 20171 30032 40127 53004 60012 83062 333 10260;",
"08359099999","2010-06-17T06:00:00","4","38.3666666","-0.5","82.0","ALICANTE, SP","FM-12","99999","V020","320,1,N,0005,1","22000,1,9,N","040000,1,N,1","+0198,1","+0128,1","10140,1","12,0000,9,1","24,0013,9,1",,,,"00,1,+99999,9,99,9","00,99,1,00,1,00,1,99999,9,00,1,00,1","0456,9",,"999,N,+0142,1","99999,9,10044,1","4,1,000,1,+999,9",,"SYN100AAXX  17064 08359 12982 03201 10198 20128 30044 40140 54000 60002 90700 333 20142 50234 55076 70013;","Q01  00002PRCP12"
"08359099999","2010-06-17T18:00:00","4","38.3666666","-0.5","82.0","ALICANTE, SP","FM-12","99999","V020","120,1,N,0015,1","22000,1,9,N","030000,1,N,1","+0220,1","+0165,1","10143,1","12,0000,9,1",,,,,,"01,99,1,01,1,08,1,00800,1,06,1,00,1",,,"999,M,+0252,1","99999,9,10048,1","3,1,003,1,+999,9",,"SYN082AAXX  17184 08359 12580 11203 10220 20165 30048 40143 53003 60002 81860 333 10252;","Q01  00002PRCP12"
"08359099999","2010-06-18T06:00:00","4","38.3666666","-0.5","82.0","ALICANTE, SP","FM-12","99999","V020","999,9,C,0000,1","22000,1,9,N","030000,1,N,1","+0202,1","+0148,1","10165,1","12,0000,9,1","24,0000,9,1",,,,,"01,99,1,01,1,00,1,99999,9,08,1,00,1","0798,9",,"999,N,+0154,1","99999,9,10069,1","1,1,005,1,+999,9",,"SYN106AAXX  18064 08359 12980 10000 10202 20148 30069 40165 51005 60002 81080 90700 333 20154 50394 55133 70000;","Q01  00002PRCP24Q02  00002PRCP12"
"08359099999","2010-06-18T18:00:00","4","38.3666666","-0.5","82.0","ALICANTE, SP","FM-12","99999","V020","180,1,N,0026,1","22000,1,9,N","020000,1,N,1","+0228,1","+0183,1","10144,1","12,0000,9,1",,,,,,"04,99,1,02,1,08,1,01250,1,07,1,00,1",,,"999,M,+0264,1","99999,9,10049,1","8,1,002,1,+999,9",,"SYN082AAXX  18184 08359 12670 41805 10228 20183 30049 40144 58002 60002 82870 333 10264;","Q01  00002PRCP12"
"08359099999","2010-06-19T06:00:00","4","38.3666666","-0.5","82.0","ALICANTE, SP","FM-12","99999","V020","260,1,N,0005,1","22000,1,9,N","025000,1,N,1","+0212,1","+0170,1","10126,1","12,0000,9,1","24,0000,9,1",,,,,"03,99,1,03,1,00,1,99999,9,03,1,09,1","0696,9",,"999,N,+0176,1","99999,9,10031,1","4,1,000,1,+999,9",,"SYN106AAXX  19064 08359 12975 32601 10212 20170 30031 40126 54000 60002 83039 90700 333 20176 50304 55116 70000;","Q01  00002PRCP24Q02  00002PRCP12"
"08359099999","2010-06-19T18:00:00","4","38.3666666","-0.5","82.0","ALICANTE, SP","FM-12","99999","V020","070,1,N,0026,1","22000,1,9,N","020000,1,N,1","+0248,1","+0196,1","10100,1","12,0000,9,1",,,,,,"03,99,1,02,1,02,1,01250,1,06,1,00,1",,,"999,M,+0285,1","99999,9,10006,1","7,1,006,1,+999,9",,"SYN082AAXX  19184 08359 12670 30705 10248 20196 30006 40100 57006 60002 82260 333 10285;","Q01  00002PRCP12"
"08359099999","2010-06-20T06:00:00","4","38.3666666","-0.5","82.0","ALICANTE, SP","FM-12","99999","V020","250,1,N,0010,1","22000,1,9,N","020000,1,N,1","+0230,1","+0117,1","10106,1","12,0000,9,1","24,0000,9,1",,,,,"01,99,1,01,1,00,1,99999,9,08,1,01,1","0774,9",,"999,N,+0182,1","99999,9,10011,1","1,1,005,1,+999,9",,"SYN106AAXX  20064 08359 12970 12502 10230 20117 30011 40106 51005 60002 81081 90700 333 20182 50414 55129 70000;","Q01  00002PRCP24Q02  00002PRCP12"
"08359099999","2010-06-20T18:00:00","4","38.3666666","-0.5","82.0","ALICANTE, SP","FM-12","99999","V020","120,1,N,0021,1","03600,1,9,N","020000,1,N,1","+0228,1","+0164,1","10114,1","12,0000,9,1",,,,,,"06,99,1,04,1,04,1,01250,1,06,1,00,1",,,"999,M,+0300,1","99999,9,10019,1","3,1,007,1,+999,9",,"SYN082AAXX  20184 08359 12670 61204 10228 20164 30019 40114 53007 60002 84460 333 10300;","Q01  00002PRCP12"
"08359099999","2010-06-21T06:00:00","4","38.3666666","-0.5","82.0","ALICANTE, SP","FM-12","99999","V020","060,1,N,0010,1","01200,1,9,N","020000,1,N,1","+0206,1","+0156,1","10158,1","12,0000,9,1","24,0000,9,1",,,,,"05,99,1,05,1,08,1,00800,1,00,1,00,1","0624,9",,"999,N,+0160,1","99999,9,10062,1","2,1,012,1,+999,9",,"SYN106AAXX  21064 08359 12570 50602 10206 20156 30062 40158 52012 60002 85800 90700 333 20160 50442 55104 70000;","Q01  00002PRCP24Q02  00002PRCP12"
"08359099999","2010-06-21T18:00:00","4","38.3666666","-0.5","82.0","ALICANTE, SP","FM-12","99999","V020","150,1,N,0010,1","00750,1,9,N","018000,1,N,1","+0204,1","+0185,1","10157,1","12,0000,9,1",,,,,,"05,99,1,05,1,05,1,00800,1,00,1,00,1",,,"999,M,+0250,1","99999,9,10061,1","5,1,000,1,+999,9",,"SYN082AAXX  21184 08359 12568 51502 10204 20185 30061 40157 55000 60002 85500 333 10250;","Q01  00002PRCP12"
"08359099999","2010-06-22T06:00:00","4","38.3666666","-0.5","82.0","ALICANTE, SP","FM-12","99999","V020","999,9,C,0000,1","22000,1,9,N","030000,1,N,1","+0212,1","+0162,1","10172,1","12,0000,9,1","24,0000,9,1",,,,"00,1,+99999,9,99,9","00,99,1,00,1,00,1,99999,9,00,1,00,1","0396,9",,"999,N,+0158,1","99999,9,10076,1","2,1,007,1,+999,9",,"SYN100AAXX  22064 08359 12980 00000 10212 20162 30076 40172 52007 60002 90700 333 20158 50354 55066 70000;","Q01  00002PRCP24Q02  00002PRCP12"
"08359099999","2010-06-23T06:00:00","4","38.3666666","-0.5","82.0","ALICANTE, SP","FM-12","99999","V020","360,1,N,0005,1","22000,1,9,N","020000,1,N,1","+0212,1","+0176,1","10182,1","12,0000,9,1","24,0000,9,1",,,,"00,1,+99999,9,99,9","00,99,1,00,1,00,1,99999,9,00,1,00,1","0786,9",,"999,N,+0170,1","99999,9,10086,1","2,1,004,1,+999,9",,"SYN100AAXX  23064 08359 12970 03601 10212 20176 30086 40182 52004 60002 90700 333 20170 50314 55131 70000;","Q01  00002PRCP24Q02  00002PRCP12"
"08359099999","2010-06-23T18:00:00","4","38.3666666","-0.5","82.0","ALICANTE, SP","FM-12","99999","V020","150,1,N,0015,1","22000,1,9,N","020000,1,N,1","+0238,1","+0197,1","10165,1","12,0000,9,1",,,,,"00,1,+99999,9,99,9","00,99,1,00,1,00,1,99999,9,00,1,00,1",,,"999,M,+0265,1","99999,9,10070,1","6,1,004,1,+999,9",,"SYN076AAXX  23184 08359 12970 01503 10238 20197 30070 40165 56004 60002 333 10265;","Q01  00002PRCP12"
"08359099999","2010-06-24T06:00:00","4","38.3666666","-0.5","82.0","ALICANTE, SP","FM-12","99999","V020","060,1,N,0005,1","99999,9,9,N","020000,1,N,1","+0214,1","+0182,1","10169,1","12,0000,9,1","24,0000,9,1",,,,,"05,99,1,00,1,00,1,99999,9,00,1,09,1","0786,9",,"999,N,+0164,1","99999,9,10074,1","3,1,006,1,+999,9",,"SYN106AAXX  24064 08359 12970 50601 10214 20182 30074 40169 53006 60002 80009 90700 333 20164 50314 55131 70000;","Q01  00002PRCP24Q02  00002PRCP12"
"08359099999","2010-06-24T18:00:00","4","38.3666666","-0.5","82.0","ALICANTE, SP","FM-12","99999","V020","090,1,N,0026,1","22000,1,9,N","020000,1,N,1","+0230,1","+0195,1","10153,1","12,0000,9,1",,,,,,"02,99,1,02,1,00,1,99999,9,08,1,01,1",,,"999,M,+0273,1","99999,9,10058,1","6,1,006,1,+999,9",,"SYN082AAXX  24184 08359 12970 20905 10230 20195 30058 40153 56006 60002 82081 333 10273;","Q01  00002PRCP12"
"08359099999","2010-06-25T06:00:00","4","38.3666666","-0.5","82.0","ALICANTE, SP","FM-12","99999","V020","320,1,N,0005,1","22000,1,9,N","030000,1,N,1","+0224,1","+0150,1","10143,1","12,0000,9,1","24,0000,9,1",,,,,"01,99,1,00,1,00,1,99999,9,00,1,02,1","0786,9",,"999,N,+0180,1","99999,9,10048,1","5,1,007,1,+999,9",,"SYN106AAXX  25064 08359 12980 13201 10224 20150 30048 40143 55007 60002 80002 90700 333 20180 50384 55131 70000;","Q01  00002PRCP24Q02  00002PRCP12"
"08359099999","2010-06-25T18:00:00","4","38.3666666","-0.5","82.0","ALICANTE, SP","FM-12","99999","V020","100,1,N,0021,1","22000,1,9,N","020000,1,N,1","+0248,1","+0124,1","10130,1","12,0000,9,1",,,,,,"03,99,1,01,1,00,1,99999,9,03,1,02,1",,,"999,M,+0286,1","99999,9,10036,1","6,1,006,1,+999,9",,"SYN082AAXX  25184 08359 12970 31004 10248 20124 30036 40130 56006 60002 81032 333 10286;","Q01  00002PRCP12"
"08359099999","2010-06-26T06:00:00","4","38.3666666","-0.5","82.0","ALICANTE, SP","FM-12","99999","V020","999,9,C,0000,1","22000,1,9,N","020000,1,N,1","+0236,1","+0161,1","10131,1","12,0000,9,1","24,0000,9,1",,,,,"03,99,1,03,1,00,1,99999,9,08,1,00,1","0576,9",,"999,N,+0176,1","99999,9,10037,1","6,1,002,1,+999,9",,"SYN106AAXX  26064 08359 12970 30000 10236 20161 30037 40131 56002 60002 83080 90700 333 20176 50504 55096 70000;","Q01  00002PRCP24Q02  00002PRCP12"
"08359099999","2010-06-26T18:00:00","4","38.3666666","-0.5","82.0","ALICANTE, SP","FM-12","99999","V020","080,1,N,0026,1","22000,1,9,N","025000,1,N,1","+0258,1","+0161,1","10129,1","12,0000,9,1",,,,,,"01,99,1,01,1,00,1,99999,9,08,1,09,1",,,"999,M,+0278,1","99999,9,10035,1","8,1,007,1,+999,9",,"SYN082AAXX  26184 08359 12975 10805 10258 20161 30035 40129 58007 60002 81089 333 10278;","Q01  00002PRCP12"
"08359099999","2010-06-27T06:00:00","4","38.3666666","-0.5","82.0","ALICANTE, SP","FM-12","99999","V020","999,9,C,0000,1","22000,1,9,N","020000,1,N,1","+0226,1","+0142,1","10153,1","12,0000,9,1","24,0000,9,1",,,,,"03,99,1,02,1,00,1,99999,9,08,1,09,1","0756,9",,"999,N,+0165,1","99999,9,10058,1","3,1,010,1,+999,9",,"SYN106AAXX  27064 08359 12970 30000 10226 20142 30058 40153 53010 60002 82089 90700 333 20165 50504 55126 70000;","Q01  00002PRCP24Q02  00002PRCP12"
"08359099999","2010-06-27T18:00:00","4","38.3666666","-0.5","82.0","ALICANTE, SP","FM-12","99999","V020","100,1,N,0031,1","22000,1,9,N","020000,1,N,1","+0254,1","+0160,1","10157,1","12,0000,9,1",,,,,,"03,99,1,02,1,00,1,99999,9,03,1,02,1",,,"999,M,+0284,1","99999,9,10063,1","6,1,005,1,+999,9",,"SYN082AAXX  27184 08359 12970 31006 10254 20160 30063 40157 56005 60002 82032 333 10284;","Q01  00002PRCP12"
"08359099999","2010-06-28T06:00:00","4","38.3666666","-0.5","82.0","ALICANTE, SP","FM-12","99999","V020","270,1,N,0005,1","99999,9,9,N","030000,1,N,1","+0234,1","+0167,1","10183,1","12,0020,9,2","24,0015,9,2",,"8,1,06,1","2,1,06,1",,"05,99,1,03,1,00,1,01250,1,07,1,02,1","0480,9",,"999,N,+0185,1","99999,9,10088,1","3,1,010,1,+999,9","01,1","SYN112AAXX  28064 08359 11680 52701 10234 20167 30088 40183 53010 60022 70182 83072 90700 333 20185 50554 55080 70016;",
"08359099999","2010-06-28T18:00:00","4","38.3666666","-0.5","82.0","ALICANTE, SP","FM-12","99999","V020","120,1,N,0010,1","22000,1,9,N","020000,1,N,1","+0276,1","+0186,1","10178,1","12,0000,9,1",,,,,,"01,99,1,00,1,00,1,99999,9,00,1,02,1",,,"999,M,+0294,1","99999,9,10084,1","6,1,010,1,+999,9",,"SYN082AAXX  28184 08359 12970 11202 10276 20186 30084 40178 56010 60002 80002 333 10294;","Q01  00002PRCP12"
"08359099999","2010-06-29T06:00:00","4","38.3666666","-0.5","82.0","ALICANTE, SP","FM-12","99999","V020","170,1,N,0005,1","22000,1,9,N","020000,1,N,1","+0246,1","+0152,1","10189,1","12,0000,9,1","24,0000,9,1",,,,,"01,99,1,00,1,00,1,99999,9,00,1,01,1","0708,9",,"999,N,+0190,1","99999,9,10094,1","4,1,000,1,+999,9",,"SYN106AAXX  29064 08359 12970 11701 10246 20152 30094 40189 54000 60002 80001 90700 333 20190 50554 55118 70000;","Q01  00002PRCP24Q02  00002PRCP12"
"08359099999","2010-06-30T06:00:00","4","38.3666666","-0.5","82.0","ALICANTE, SP","FM-12","99999","V020","030,1,N,0005,1","22000,1,9,N","020000,1,N,1","+0234,1","+0174,1","10191,1","12,0000,9,1","24,0000,9,1",,,,,"03,99,1,03,1,00,1,99999,9,03,1,00,1","0768,9",,"999,N,+0188,1","99999,9,10096,1","3,1,007,1,+999,9",,"SYN106AAXX  30064 08359 12970 30301 10234 20174 30096 40191 53007 60002 83030 90700 333 20188 50504 55128 70000;","Q01  00002PRCP24Q02  00002PRCP12"
"08359099999","2010-06-30T18:00:00","4","38.3666666","-0.5","82.0","ALICANTE, SP","FM-12","99999","V020","150,1,N,0015,1","22000,1,9,N","025000,1,N,1","+0280,1","+0190,1","10176,1","12,0000,9,1",,,,,,"01,99,1,00,1,00,1,99999,9,00,1,01,1",,,"999,M,+0310,1","99999,9,10083,1","6,1,007,1,+999,9",,"SYN082AAXX  30184 08359 12975 11503 10280 20190 30083 40176 56007 60002 80001 333 10310;","Q01  00002PRCP12"
"08359099999","2010-07-01T06:00:00","4","38.3666666","-0.5","82.0","ALICANTE, SP","FM-12","99999","V020","290,1,N,0005,1","22000,1,9,N","025000,1,N,1","+0254,1","+0171,1","10168,1","12,0000,9,1","24,0000,9,1",,,,"00,1,+99999,9,99,9","00,99,1,00,1,00,1,99999,9,00,1,00,1","0708,9",,"999,N,+0200,1","99999,9,10074,1","4,1,000,1,+999,9",,"SYN100AAXX  01064 08359 12975 02901 10254 20171 30074 40168 54000 60002 90700 333 20200 50574 55118 70000;","Q01  00002PRCP24Q02  00002PRCP12"
"08359099999","2010-07-01T18:00:00","4","38.3666666","-0.5","82.0","ALICANTE, SP","FM-12","99999","V020","190,1,N,0015,1","22000,1,9,N","020000,1,N,1","+0282,1","+0210,1","10148,1","12,0000,9,1",,,,,,"02,99,1,00,1,00,1,99999,9,00,1,01,1",,,"999,M,+0310,1","99999,9,10055,1","7,1,007,1,+999,9",,"SYN082AAXX  01184 08359 12970 21903 10282 20210 30055 40148 57007 60002 80001 333 10310;","Q01  00002PRCP12"
"08359099999","2010-07-02T06:00:00","4","38.3666666","-0.5","82.0","ALICANTE, SP","FM-12","99999","V020","999,9,C,0000,1","22000,1,9,N","020000,1,N,1","+0240,1","+0177,1","10152,1","12,0000,9,1","24,0000,9,1",,,,,"03,99,1,00,1,00,1,99999,9,00,1,02,1","0780,9",,"999,N,+0205,1","99999,9,10058,1","3,1,003,1,+999,9",,"SYN106AAXX  02064 08359 12970 30000 10240 20177 30058 40152 53003 60002 80002 90700 333 20205 50494 55130 70000;","Q01  00002PRCP24Q02  00002PRCP12"
"08359099999","2010-07-02T18:00:00","4","38.3666666","-0.5","82.0","ALICANTE, SP","FM-12","99999","V020","070,1,N,0021,1","99999,9,9,N","015000,1,N,1","+0272,1","+0193,1","10140,1","12,0000,9,1",,,,,,"05,99,1,03,1,00,1,99999,9,07,1,02,1",,,"999,M,+0315,1","99999,9,10047,1","8,1,008,1,+999,9",,"SYN082AAXX  02184 08359 12965 50704 10272 20193 30047 40140 58008 60002 83072 333 10315;","Q01  00002PRCP12"
"08359099999","2010-07-03T06:00:00","4","38.3666666","-0.5","82.0","ALICANTE, SP","FM-12","99999","V020","999,9,C,0000,1","99999,9,9,N","020000,1,N,1","+0252,1","+0186,1","10157,1","12,0000,9,1","24,0000,9,1",,,,,"06,99,1,06,1,00,1,99999,9,08,1,02,1","0570,9",,"999,N,+0205,1","99999,9,10063,1","3,1,005,1,+999,9",,"SYN106AAXX  03064 08359 12970 60000 10252 20186 30063 40157 53005 60002 86082 90700 333 20205 50564 55095 70000;","Q01  00002PRCP24Q02  00002PRCP12"
"08359099999","2010-07-03T18:00:00","4","38.3666666","-0.5","82.0","ALICANTE, SP","FM-12","99999","V020","080,1,N,0021,1","99999,9,9,N","020000,1,N,1","+0260,1","+0214,1","10176,1","12,0000,9,1",,,,,,"05,99,1,00,1,00,1,99999,9,00,1,02,1",,,"999,M,+0306,1","99999,9,10082,1","6,1,007,1,+999,9",,"SYN082AAXX  03184 08359 12970 50804 10260 20214 30082 40176 56007 60002 80002 333 10306;","Q01  00002PRCP12"
"08359099999","2010-07-04T06:00:00","4","38.3666666","-0.5","82.0","ALICANTE, SP","FM-12","99999","V020","270,1,N,0005,1","99999,9,9,N","020000,1,N,1","+0240,1","+0180,1","10192,1","12,0000,9,1","24,0000,9,1",,,,,"08,99,1,08,1,00,1,99999,9,07,1,99,9","0582,9",,"999,N,+0215,1","99999,9,10097,1","3,1,010,1,+999,9",,"SYN106AAXX  04064 08359 12970 82701 10240 20180 30097 40192 53010 60002 8807/ 90700 333 20215 50384 55097 70000;","Q01  00002PRCP24Q02  00002PRCP12"
"08359099999","2010-07-04T18:00:00","4","38.3666666","-0.5","82.0","ALICANTE, SP","FM-12","99999","V020","090,1,N,0031,1","22000,1,9,N","020000,1,N,1","+0292,1","+0177,1","10179,1","12,0000,9,1",,,,,,"03,99,1,00,1,00,1,99999,9,00,1,02,1",,,"999,M,+0320,1","99999,9,10086,1","7,1,008,1,+999,9",,"SYN082AAXX  04184 08359 12970 30906 10292 20177 30086 40179 57008 60002 80002 333 10320;","Q01  00002PRCP12"
"08359099999","2010-07-05T06:00:00","4","38.3666666","-0.5","82.0","ALICANTE, SP","FM-12","99999","V020","230,1,N,0010,1","22000,1,9,N","020000,1,N,1","+0254,1","+0186,1","10184,1","12,0000,9,1","24,0000,9,1",,,,"00,1,+99999,9,99,9","00,99,1,00,1,00,1,99999,9,00,1,00,1","0480,9",,"999,N,+0208,1","99999,9,10090,1","3,1,002,1,+999,9",,"SYN100AAXX  05064 08359 12970 02302 10254 20186 30090 40184 53002 60002 90700 333 20208 50684 55080 70000;","Q01  00002PRCP24Q02  00002PRCP12"
"08359099999","2010-07-05T18:00:00","4","38.3666666","-0.5","82.0","ALICANTE, SP","FM-12","99999","V020","080,1,N,0026,1","22000,1,9,N","020000,1,N,1","+0278,1","+0206,1","10186,1","12,0000,9,1",,,,,"00,1,+99999,9,99,9","00,99,1,00,1,00,1,99999,9,00,1,00,1",,,"999,M,+0314,1","99999,9,10093,1","5,1,002,1,+999,9",,"SYN076AAXX  05184 08359 12970 00805 10278 20206 30093 40186 55002 60002 333 10314;","Q01  00002PRCP12"
"08359099999","2010-07-06T06:00:00","4","38.3666666","-0.5","82.0","ALICANTE, SP","FM-12","99999","V020","060,1,N,0005,1","22000,1,9,N","020000,1,N,1","+0266,1","+0202,1","10199,1","12,0000,9,1","24,0000,9,1",,,,"00,1,+99999,9,99,9","00,99,1,00,1,00,1,99999,9,00,1,00,1","0780,9",,"999,N,+0205,1","99999,9,10105,1","3,1,004,1,+999,9",,"SYN100AAXX  06064 08359 12970 00601 10266 20202 30105 40199 53004 60002 90700 333 20205 50544 55130 70000;","Q01  00002PRCP24Q02  00002PRCP12"
"08359099999","2010-07-06T18:00:00","4","38.3666666","-0.5","82.0","ALICANTE, SP","FM-12","99999","V020","160,1,N,0021,1","22000,1,9,N","020000,1,N,1","+0278,1","+0216,1","10192,1","12,0000,9,1",,,,,"00,1,+99999,9,99,9","00,99,1,00,1,00,1,99999,9,00,1,00,1",,,"999,M,+0315,1","99999,9,10099,1","8,1,007,1,+999,9",,"SYN076AAXX  06184 08359 12970 01604 10278 20216 30099 40192 58007 60002 333 10315;","Q01  00002PRCP12"
"08359099999","2010-07-07T06:00:00","4","38.3666666","-0.5","82.0","ALICANTE, SP","FM-12","99999","V020","999,9,C,0000,1","22000,1,9,N","030000,1,N,1","+0260,1","+0189,1","10197,1","12,0000,9,1","24,0000,9,1",,,,"00,1,+99999,9,99,9","00,99,1,00,1,00,1,99999,9,00,1,00,1","0780,9",,"999,N,+0200,1","99999,9,10103,1","3,1,002,1,+999,9",,"SYN100AAXX  07064 08359 12980 00000 10260 20189 30103 40197 53002 60002 90700 333 20200 50484 55130 70000;","Q01  00002PRCP24Q02  00002PRCP12"
"08359099999","2010-07-07T18:00:00","4","38.3666666","-0.5","82.0","ALICANTE, SP","FM-12","99999","V020","140,1,N,0021,1","22000,1,9,N","020000,1,N,1","+0288,1","+0218,1","10179,1","12,0000,9,1",,,,,"00,1,+99999,9,99,9","00,99,1,00,1,00,1,99999,9,00,1,00,1",,,"999,M,+0314,1","99999,9,10086,1","8,1,008,1,+999,9",,"SYN076AAXX  07184 08359 12970 01404 10288 20218 30086 40179 58008 60002 333 10314;","Q01  00002PRCP12"
"08359099999","2010-07-08T06:00:00","4","38.3666666","-0.5","82.0","ALICANTE, SP","FM-12","99999","V020","130,1,N,0010,1","22000,1,9,N","030000,1,N,1","+0266,1","+0174,1","10183,1","12,0000,9,1","24,0000,9,1",,,,"00,1,+99999,9,99,9","00,99,1,00,1,00,1,99999,9,00,1,00,1","0756,9",,"999,N,+0210,1","99999,9,10089,1","3,1,006,1,+999,9",,"SYN100AAXX  08064 08359 12980 01302 10266 20174 30089 40183 53006 60002 90700 333 20210 50524 55126 70000;","Q01  00002PRCP24Q02  00002PRCP12"
"08359099999","2010-07-08T18:00:00","4","38.3666666","-0.5","82.0","ALICANTE, SP","FM-12","99999","V020","080,1,N,0026,1","22000,1,9,N","020000,1,N,1","+0286,1","+0209,1","10181,1","12,0000,9,1",,,,,"00,1,+99999,9,99,9","00,99,1,00,1,00,1,99999,9,00,1,00,1",,,"999,M,+0320,1","99999,9,10088,1","8,1,007,1,+999,9",,"SYN076AAXX  08184 08359 12970 00805 10286 20209 30088 40181 58007 60002 333 10320;","Q01  00002PRCP12"
"08359099999","2010-07-09T06:00:00","4","38.3666666","-0.5","82.0","ALICANTE, SP","FM-12","99999","V020","300,1,N,0010,1","22000,1,9,N","020000,1,N,1","+0258,1","+0187,1","10178,1","12,0000,9,1","24,0000,9,1",,,,"00,1,+99999,9,99,9","00,99,1,00,1,00,1,99999,9,00,1,00,1","0702,9",,"999,N,+0220,1","99999,9,10084,1","3,1,005,1,+999,9",,"SYN100AAXX  09064 08359 12970 03002 10258 20187 30084 40178 53005 60002 90700 333 20220 50584 55117 70000;","Q01  00002PRCP24Q02  00002PRCP12"
"08359099999","2010-07-09T18:00:00","4","38.3666666","-0.5","82.0","ALICANTE, SP","FM-12","99999","V020","100,1,N,0015,1","22000,1,9,N","030000,1,N,1","+0288,1","+0223,1","10173,1","12,0000,9,1",,,,,"00,1,+99999,9,99,9","00,99,1,00,1,00,1,99999,9,00,1,00,1",,,"999,M,+0324,1","99999,9,10080,1","6,1,005,1,+999,9",,"SYN076AAXX  09184 08359 12980 01003 10288 20223 30080 40173 56005 60002 333 10324;","Q01  00002PRCP12"
"08359099999","2010-07-10T06:00:00","4","38.3666666","-0.5","82.0","ALICANTE, SP","FM-12","99999","V020","240,1,N,0015,1","22000,1,9,N","020000,1,N,1","+0256,1","+0229,1","10178,1","12,0000,9,1","24,0000,9,1",,,,"00,1,+99999,9,99,9","00,99,1,00,1,00,1,99999,9,00,1,00,1","0690,9",,"999,N,+0206,1","99999,9,10084,1","3,1,003,1,+999,9",,"SYN100AAXX  10064 08359 12970 02403 10256 20229 30084 40178 53003 60002 90700 333 20206 50594 55115 70000;","Q01  00002PRCP24Q02  00002PRCP12"
"08359099999","2010-07-10T18:00:00","4","38.3666666","-0.5","82.0","ALICANTE, SP","FM-12","99999","V020","120,1,N,0015,1","22000,1,9,N","020000,1,N,1","+0292,1","+0247,1","10164,1","12,0000,9,1",,,,,"00,1,+99999,9,99,9","00,99,1,00,1,00,1,99999,9,00,1,00,1",,,"999,M,+0320,1","99999,9,10071,1","6,1,007,1,+999,9",,"SYN076AAXX  10184 08359 12970 01203 10292 20247 30071 40164 56007 60002 333 10320;","Q01  00002PRCP12"
"08359099999","2010-07-11T06:00:00","4","38.3666666","-0.5","82.0","ALICANTE, SP","FM-12","99999","V020","999,9,C,0000,1","22000,1,9,N","030000,1,N,1","+0268,1","+0209,1","10173,1","12,0000,9,1","24,0000,9,1",,,,"00,1,+99999,9,99,9","00,99,1,00,1,00,1,99999,9,00,1,00,1","0768,9",,"999,N,+0216,1","99999,9,10079,1","3,1,005,1,+999,9",,"SYN100AAXX  11064 08359 12980 00000 10268 20209 30079 40173 53005 60002 90700 333 20216 50414 55128 70000;","Q01  00002PRCP24Q02  00002PRCP12"
"08359099999","2010-07-11T18:00:00","4","38.3666666","-0.5","82.0","ALICANTE, SP","FM-12","99999","V020","140,1,N,0010,1","99999,9,9,N","020000,1,N,1","+0284,1","+0238,1","10159,1","12,0000,9,1",,,,,,"05,99,1,00,1,00,1,99999,9,00,1,02,1",,,"999,M,+0320,1","99999,9,10066,1","6,1,007,1,+999,9",,"SYN082AAXX  11184 08359 12970 51402 10284 20238 30066 40159 56007 60002 80002 333 10320;","Q01  00002PRCP12"
"08359099999","2010-07-12T06:00:00","4","38.3666666","-0.5","82.0","ALICANTE, SP","FM-12","99999","V020","999,9,C,0000,1","22000,1,9,N","008000,1,N,1","+0250,1","+0217,1","10160,1","12,0000,9,1","24,0000,9,1",,,,,"02,99,1,01,1,08,1,00800,1,00,1,01,1","0660,9",,"999,N,+0210,1","99999,9,10066,1","2,1,004,1,+999,9",,"SYN106AAXX  12064 08359 12558 20000 10250 20217 30066 40160 52004 60002 81801 90700 333 20210 50374 55110 70000;","Q01  00002PRCP24Q02  00002PRCP12"
"08359099999","2010-07-12T18:00:00","4","38.3666666","-0.5","82.0","ALICANTE, SP","FM-12","99999","V020","160,1,N,0015,1","99999,9,9,N","012000,1,N,1","+0284,1","+0235,1","10132,1","12,0000,9,1",,,"4,1,06,1","4,1,06,1",,"05,99,1,00,1,00,1,99999,9,00,1,02,1",,,"999,M,+0308,1","99999,9,10039,1","6,1,010,1,+999,9","02,1","SYN088AAXX  12184 08359 11962 51603 10284 20235 30039 40132 56010 60002 70244 80002 333 10308;","Q01  00002PRCP12"
"08359099999","2010-07-13T06:00:00","4","38.3666666","-0.5","82.0","ALICANTE, SP","FM-12","99999","V020","080,1,N,0015,1","00750,1,9,N","004000,1,N,1","+0258,1","+0240,1","10126,1","12,0000,9,1","24,0000,9,1",,"4,1,06,1","4,1,06,1",,"05,99,1,05,1,05,1,00800,1,00,1,00,1","0678,9",,"999,N,+0224,1","99999,9,10033,1","3,1,006,1,+999,9","10,1","SYN112AAXX  13064 08359 11540 50803 10258 20240 30033 40126 53006 60002 71044 85500 90700 333 20224 50364 55113 70000;","Q01  00002PRCP24Q02  00002PRCP12"
"08359099999","2010-07-13T18:00:00","4","38.3666666","-0.5","82.0","ALICANTE, SP","FM-12","99999","V020","140,1,N,0015,1","22000,1,9,N","012000,1,N,1","+0272,1","+0243,1","10107,1","12,0000,9,1",,,"4,1,06,1","4,1,06,1","00,1,+99999,9,99,9","00,99,1,00,1,00,1,99999,9,00,1,00,1",,,"999,M,+0300,1","99999,9,10014,1","8,1,013,1,+999,9","00,1","SYN082AAXX  13184 08359 11962 01403 10272 20243 30014 40107 58013 60002 70044 333 10300;","Q01  00002PRCP12"
"08359099999","2010-07-14T06:00:00","4","38.3666666","-0.5","82.0","ALICANTE, SP","FM-12","99999","V020","999,9,C,0000,1","00420,1,9,N","003000,1,N,1","+0250,1","+0223,1","10104,1","12,0000,9,1","24,0000,9,1",,"4,1,06,1","4,1,06,1",,"06,99,1,06,1,06,1,00450,1,00,1,00,1","0690,9",,"999,N,+0230,1","99999,9,10011,1","3,1,008,1,+999,9","10,1","SYN112AAXX  14064 08359 11430 60000 10250 20223 30011 40104 53008 60002 71044 86600 90700 333 20230 50284 55115 70000;","Q01  00002PRCP24Q02  00002PRCP12"
"08359099999","2010-07-14T18:00:00","4","38.3666666","-0.5","82.0","ALICANTE, SP","FM-12","99999","V020","070,1,N,0015,1","22000,1,9,N","012000,1,N,1","+0302,1","+0241,1","10096,1","12,0000,9,1",,,"4,1,06,1","4,1,06,1",,"02,99,1,00,1,00,1,99999,9,00,1,02,1",,,"999,M,+0314,1","99999,9,10004,1","6,1,003,1,+999,9","02,1","SYN088AAXX  14184 08359 11962 20703 10302 20241 30004 40096 56003 60002 70244 80002 333 10314;","Q01  00002PRCP12"
"08359099999","2010-07-15T06:00:00","4","38.3666666","-0.5","82.0","ALICANTE, SP","FM-12","99999","V020","070,1,N,0021,1","01200,1,9,N","008000,1,N,1","+0256,1","+0244,1","10125,1","12,0000,9,1","24,0000,9,1",,"4,1,06,1","4,1,06,1",,"06,99,1,06,1,08,1,00800,1,00,1,00,1","0702,9",,"999,N,+0235,1","99999,9,10032,1","2,1,016,1,+999,9","10,1","SYN112AAXX  15064 08359 11558 60704 10256 20244 30032 40125 52016 60002 71044 86800 90700 333 20235 50284 55117 70000;","Q01  00002PRCP24Q02  00002PRCP12"
"08359099999","2010-07-15T18:00:00","4","38.3666666","-0.5","82.0","ALICANTE, SP","FM-12","99999","V020","090,1,N,0026,1","01200,1,9,N","012000,1,N,1","+0276,1","+0250,1","10134,1","12,0000,9,1",,,,,,"05,99,1,05,1,08,1,00800,1,00,1,00,1",,,"999,M,+0320,1","99999,9,10041,1","6,1,004,1,+999,9",,"SYN082AAXX  15184 08359 12562 50905 10276 20250 30041 40134 56004 60002 85800 333 10320;","Q01  00002PRCP12"
"08359099999","2010-07-16T06:00:00","4","38.3666666","-0.5","82.0","ALICANTE, SP","FM-12","99999","V020","190,1,N,0015,1","01200,1,9,N","010000,1,N,1","+0264,1","+0239,1","10149,1","12,0000,9,1","24,0000,9,1",,,,,"06,99,1,06,1,08,1,00800,1,00,1,00,1","0618,9",,"999,N,+0246,1","99999,9,10056,1","3,1,012,1,+999,9",,"SYN106AAXX  16064 08359 12560 61903 10264 20239 30056 40149 53012 60002 86800 90700 333 20246 50324 55103 70000;","Q01  00002PRCP24Q02  00002PRCP12"
"08359099999","2010-07-16T18:00:00","4","38.3666666","-0.5","82.0","ALICANTE, SP","FM-12","99999","V020","150,1,N,0015,1","22000,1,9,N","012000,1,N,1","+0290,1","+0254,1","10140,1","12,0000,9,1",,,,,"00,1,+99999,9,99,9","00,99,1,00,1,00,1,99999,9,00,1,00,1",,,"999,M,+0314,1","99999,9,10048,1","6,1,007,1,+999,9",,"SYN076AAXX  16184 08359 12962 01503 10290 20254 30048 40140 56007 60002 333 10314;","Q01  00002PRCP12"
"08359099999","2010-07-17T06:00:00","4","38.3666666","-0.5","82.0","ALICANTE, SP","FM-12","99999","V020","220,1,N,0010,1","22000,1,9,N","010000,1,N,1","+0260,1","+0240,1","10173,1","12,0000,9,1","24,0000,9,1",,,,,"04,99,1,04,1,08,1,00800,1,00,1,00,1","0612,9",,"999,N,+0240,1","99999,9,10079,1","2,1,017,1,+999,9",,"SYN106AAXX  17064 08359 12560 42202 10260 20240 30079 40173 52017 60002 84800 90700 333 20240 50254 55102 70000;","Q01  00002PRCP24Q02  00002PRCP12"
"08359099999","2010-07-17T18:00:00","4","38.3666666","-0.5","82.0","ALICANTE, SP","FM-12","99999","V020","080,1,N,0021,1","22000,1,9,N","015000,1,N,1","+0290,1","+0239,1","10175,1","12,0000,9,1",,,,,"00,1,+99999,9,99,9","00,99,1,00,1,00,1,99999,9,00,1,00,1",,,"999,M,+0318,1","99999,9,10082,1","6,1,003,1,+999,9",,"SYN076AAXX  17184 08359 12965 00804 10290 20239 30082 40175 56003 60002 333 10318;","Q01  00002PRCP12"
"08359099999","2010-07-18T06:00:00","4","38.3666666","-0.5","82.0","ALICANTE, SP","FM-12","99999","V020","999,9,C,0000,1","22000,1,9,N","012000,1,N,1","+0270,1","+0220,1","10207,1","12,0000,9,1","24,0000,9,1",,,,,"03,99,1,03,1,05,1,00800,1,00,1,00,1","0630,9",,"999,N,+0234,1","99999,9,10113,1","3,1,009,1,+999,9",,"SYN100AAXX  18064 08359 12562 30000 10270 20220 30113 40207 53009 60002 83500 90700 333 20234 55105 70000;","Q01  00002PRCP24Q02  00002PRCP12"
"08359099999","2010-07-18T18:00:00","4","38.3666666","-0.5","82.0","ALICANTE, SP","FM-12","99999","V020","130,1,N,0015,1","22000,1,9,N","015000,1,N,1","+0274,1","+0243,1","10188,1","12,0000,9,1",,,,,,"02,99,1,02,1,08,1,00800,1,00,1,00,1",,,"999,M,+0308,1","99999,9,10095,1","6,1,008,1,+999,9",,"SYN082AAXX  18184 08359 12565 21303 10274 20243 30095 40188 56008 60002 82800 333 10308;","Q01  00002PRCP12"
"08359099999","2010-07-19T06:00:00","4","38.3666666","-0.5","82.0","ALICANTE, SP","FM-12","99999","V020","050,1,N,0010,1","22000,1,9,N","018000,1,N,1","+0250,1","+0213,1","10180,1","12,0000,9,1","24,0000,9,1",,,,"00,1,+99999,9,99,9","00,99,1,00,1,00,1,99999,9,00,1,00,1","0756,9",,"999,N,+0215,1","99999,9,10086,1","2,1,004,1,+999,9",,"SYN100AAXX  19064 08359 12968 00502 10250 20213 30086 40180 52004 60002 90700 333 20215 50314 55126 70000;","Q01  00002PRCP24Q02  00002PRCP12"
"08359099999","2010-07-19T18:00:00","4","38.3666666","-0.5","82.0","ALICANTE, SP","FM-12","99999","V020","160,1,N,0015,1","22000,1,9,N","018000,1,N,1","+0282,1","+0242,1","10151,1","12,0000,9,1",,,,,,"01,99,1,01,1,00,1,99999,9,03,1,00,1",,,"999,M,+0306,1","99999,9,10058,1","6,1,010,1,+999,9",,"SYN082AAXX  19184 08359 12968 11603 10282 20242 30058 40151 56010 60002 81030 333 10306;","Q01  00002PRCP12"
"08359099999","2010-07-20T06:00:00","4","38.3666666","-0.5","82.0","ALICANTE, SP","FM-12","99999","V020","999,9,C,0000,1","22000,1,9,N","020000,1,N,1","+0258,1","+0210,1","10148,1","12,0000,9,1","24,0000,9,1",,,,"00,1,+99999,9,99,9","00,99,1,00,1,00,1,99999,9,00,1,00,1","0762,9",,"999,N,+0220,1","99999,9,10054,1","3,1,003,1,+999,9",,"SYN100AAXX  20064 08359 12970 00000 10258 20210 30054 40148 53003 60002 90700 333 20220 50284 55127 70000;","Q01  00002PRCP24Q02  00002PRCP12"
"08359099999","2010-07-20T18:00:00","4","38.3666666","-0.5","82.0","ALICANTE, SP","FM-12","99999","V020","150,1,N,0021,1","22000,1,9,N","020000,1,N,1","+0280,1","+0234,1","10109,1","12,0000,9,1",,,,,"00,1,+99999,9,99,9","00,99,1,00,1,00,1,99999,9,00,1,00,1",,,"999,M,+0315,1","99999,9,10016,1","6,1,010,1,+999,9",,"SYN076AAXX  20184 08359 12970 01504 10280 20234 30016 40109 56010 60002 333 10315;","Q01  00002PRCP12"
"08359099999","2010-07-21T06:00:00","4","38.3666666","-0.5","82.0","ALICANTE, SP","FM-12","99999","V020","999,9,C,0000,1","22000,1,9,N","018000,1,N,1","+0262,1","+0221,1","10100,1","12,0000,9,1","24,0000,9,1",,,,,"02,99,1,02,1,05,1,01250,1,00,1,00,1","0768,9",,"999,N,+0224,1","99999,9,10007,1","1,1,003,1,+999,9",,"SYN106AAXX  21064 08359 12668 20000 10262 20221 30007 40100 51003 60002 82500 90700 333 20224 50364 55128 70000;","Q01  00002PRCP24Q02  00002PRCP12"
"08359099999","2010-07-21T18:00:00","4","38.3666666","-0.5","82.0","ALICANTE, SP","FM-12","99999","V020","160,1,N,0015,1","22000,1,9,N","012000,1,N,1","+0278,1","+0246,1","10086,1","12,0000,9,1",,,,,,"03,99,1,00,1,00,1,99999,9,00,1,02,1",,,"999,M,+0315,1","99999,9,09994,1","7,1,004,1,+999,9",,"SYN082AAXX  21184 08359 12962 31603 10278 20246 39994 40086 57004 60002 80002 333 10315;","Q01  00002PRCP12"
"08359099999","2010-07-22T06:00:00","4","38.3666666","-0.5","82.0","ALICANTE, SP","FM-12","99999","V020","040,1,N,0021,1","22000,1,9,N","012000,1,N,1","+0258,1","+0225,1","10104,1","12,0000,9,1","24,0000,9,1",,,,,"01,99,1,01,1,08,1,00800,1,00,1,00,1","0678,9",,"999,N,+0234,1","99999,9,10011,1","1,1,010,1,+999,9",,"SYN106AAXX  22064 08359 12562 10404 10258 20225 30011 40104 51010 60002 81800 90700 333 20234 50354 55113 70000;","Q01  00002PRCP24Q02  00002PRCP12"
"08359099999","2010-07-22T18:00:00","4","38.3666666","-0.5","82.0","ALICANTE, SP","FM-12","99999","V020","130,1,N,0015,1","22000,1,9,N","010000,1,N,1","+0276,1","+0244,1","10113,1","12,0000,9,1",,,,,,"01,99,1,01,1,01,1,00800,1,00,1,00,1",,,"999,M,+0314,1","99999,9,10020,1","3,1,003,1,+999,9",,"SYN082AAXX  22184 08359 12560 11303 10276 20244 30020 40113 53003 60002 81100 333 10314;","Q01  00002PRCP12"
"08359099999","2010-07-23T06:00:00","4","38.3666666","-0.5","82.0","ALICANTE, SP","FM-12","99999","V020","190,1,N,0010,1","22000,1,9,N","010000,1,N,1","+0268,1","+0239,1","10162,1","12,0000,9,1","24,0000,9,1",,,,,"02,99,1,02,1,08,1,00800,1,00,1,00,1","0498,9",,"999,N,+0235,1","99999,9,10069,1","3,1,015,1,+999,9",,"SYN106AAXX  23064 08359 12560 21902 10268 20239 30069 40162 53015 60002 82800 90700 333 20235 50314 55083 70000;","Q01  00002PRCP24Q02  00002PRCP12"
"08359099999","2010-07-23T18:00:00","4","38.3666666","-0.5","82.0","ALICANTE, SP","FM-12","99999","V020","090,1,N,0041,1","03600,1,9,N","010000,1,N,1","+0272,1","+0243,1","10177,1","12,0000,9,1",,,,,,"07,99,1,02,1,08,1,00800,1,07,1,00,1",,,"999,M,+0315,1","99999,9,10084,1","3,1,002,1,+999,9",,"SYN082AAXX  23184 08359 12560 70908 10272 20243 30084 40177 53002 60002 82870 333 10315;","Q01  00002PRCP12"
"08359099999","2010-07-24T06:00:00","4","38.3666666","-0.5","82.0","ALICANTE, SP","FM-12","99999","V020","030,1,N,0010,1","01200,1,9,N","015000,1,N,1","+0252,1","+0225,1","10209,1","12,0000,9,1","24,0000,9,1",,,,,"08,99,1,05,1,08,1,00800,1,07,1,99,9","0630,9",,"999,N,+0240,1","99999,9,10115,1","3,1,003,1,+999,9",,"SYN106AAXX  24064 08359 12565 80302 10252 20225 30115 40209 53003 60002 8587/ 90700 333 20240 50384 55105 70000;","Q01  00002PRCP24Q02  00002PRCP12"
"08359099999","2010-07-24T18:00:00","4","38.3666666","-0.5","82.0","ALICANTE, SP","FM-12","99999","V020","130,1,N,0015,1","22000,1,9,N","018000,1,N,1","+0266,1","+0225,1","10181,1","12,0000,9,1",,,,,,"01,99,1,01,1,05,1,00800,1,00,1,00,1",,,"999,M,+0292,1","99999,9,10087,1","6,1,014,1,+999,9",,"SYN082AAXX  24184 08359 12568 11303 10266 20225 30087 40181 56014 60002 81500 333 10292;","Q01  00002PRCP12"
"08359099999","2010-07-25T06:00:00","4","38.3666666","-0.5","82.0","ALICANTE, SP","FM-12","99999","V020","999,9,C,0000,1","22000,1,9,N","018000,1,N,1","+0272,1","+0210,1","10168,1","12,0000,9,1","24,0000,9,1",,,,,"02,99,1,02,1,00,1,99999,9,06,1,00,1","0222,9",,"999,N,+0215,1","99999,9,10075,1","5,1,000,1,+999,9",,"SYN106AAXX  25064 08359 12968 20000 10272 20210 30075 40168 55000 60002 82060 90700 333 20215 50264 55037 70000;","Q01  00002PRCP24Q02  00002PRCP12"
"08359099999","2010-07-25T18:00:00","4","38.3666666","-0.5","82.0","ALICANTE, SP","FM-12","99999","V020","160,1,N,0015,1","00750,1,9,N","020000,1,N,1","+0268,1","+0231,1","10142,1","12,0000,9,1",,,,,,"06,99,1,06,1,05,1,00800,1,00,1,00,1",,,"999,M,+0306,1","99999,9,10049,1","6,1,007,1,+999,9",,"SYN082AAXX  25184 08359 12570 61603 10268 20231 30049 40142 56007 60002 86500 333 10306;","Q01  00002PRCP12"
"08359099999","2010-07-26T06:00:00","4","38.3666666","-0.5","82.0","ALICANTE, SP","FM-12","99999","V020","090,1,N,0015,1","01200,1,9,N","015000,1,N,1","+0250,1","+0221,1","10142,1","12,0000,9,1","24,0000,9,1",,,,,"06,99,1,05,1,08,1,00800,1,03,1,00,1","0576,9",,"999,N,+0225,1","99999,9,10048,1","3,1,009,1,+999,9",,"SYN106AAXX  26064 08359 12565 60903 10250 20221 30048 40142 53009 60002 85830 90700 333 20225 50384 55096 70000;","Q01  00002PRCP24Q02  00002PRCP12"
"08359099999","2010-07-26T18:00:00","4","38.3666666","-0.5","82.0","ALICANTE, SP","FM-12","99999","V020","090,1,N,0021,1","00750,1,9,N","018000,1,N,1","+0264,1","+0220,1","10142,1","12,0000,9,1",,,,,,"05,99,1,05,1,05,1,00800,1,06,1,00,1",,,"999,M,+0300,1","99999,9,10049,1","4,1,000,1,+999,9",,"SYN082AAXX  26184 08359 12568 50904 10264 20220 30049 40142 54000 60002 85560 333 10300;","Q01  00002PRCP12"
"08359099999","2010-07-27T06:00:00","4","38.3666666","-0.5","82.0","ALICANTE, SP","FM-12","99999","V020","030,1,N,0010,1","22000,1,9,N","020000,1,N,1","+0240,1","+0199,1","10178,1","12,0000,9,1","24,0000,9,1",,,,,"03,99,1,03,1,02,1,00800,1,00,1,00,1","0438,9",,"999,N,+0216,1","99999,9,10083,1","2,1,007,1,+999,9",,"SYN106AAXX  27064 08359 12570 30302 10240 20199 30083 40178 52007 60002 83200 90700 333 20216 50324 55073 70000;","Q01  00002PRCP24Q02  00002PRCP12"
"08359099999","2010-07-27T18:00:00","4","38.3666666","-0.5","82.0","ALICANTE, SP","FM-12","99999","V020","100,1,N,0015,1","22000,1,9,N","030000,1,N,1","+0272,1","+0215,1","10179,1","12,0000,9,1",,,,,"00,1,+99999,9,99,9","00,99,1,00,1,00,1,99999,9,00,1,00,1",,,"999,M,+0302,1","99999,9,10085,1","6,1,002,1,+999,9",,"SYN076AAXX  27184 08359 12980 01003 10272 20215 30085 40179 56002 60002 333 10302;","Q01  00002PRCP12"
"08359099999","2010-07-28T06:00:00","4","38.3666666","-0.5","82.0","ALICANTE, SP","FM-12","99999","V020","020,1,N,0005,1","22000,1,9,N","030000,1,N,1","+0250,1","+0191,1","10193,1","12,0000,9,1","24,0000,9,1",,,,,"01,99,1,00,1,00,1,99999,9,00,1,01,1","0708,9",,"999,N,+0200,1","99999,9,10099,1","1,1,005,1,+999,9",,"SYN106AAXX  28064 08359 12980 10201 10250 20191 30099 40193 51005 60002 80001 90700 333 20200 50414 55118 70000;","Q01  00002PRCP24Q02  00002PRCP12"
"08359099999","2010-07-28T18:00:00","4","38.3666666","-0.5","82.0","ALICANTE, SP","FM-12","99999","V020","140,1,N,0015,1","22000,1,9,N","030000,1,N,1","+0280,1","+0220,1","10176,1","12,0000,9,1",,,,,"00,1,+99999,9,99,9","00,99,1,00,1,00,1,99999,9,00,1,00,1",,,"999,M,+0316,1","99999,9,10083,1","7,1,004,1,+999,9",,"SYN076AAXX  28184 08359 12980 01403 10280 20220 30083 40176 57004 60002 333 10316;","Q01  00002PRCP12"
"08359099999","2010-07-29T06:00:00","4","38.3666666","-0.5","82.0","ALICANTE, SP","FM-12","99999","V020","310,1,N,0010,1","22000,1,9,N","030000,1,N,1","+0246,1","+0168,1","10149,1","12,0000,9,1","24,0000,9,1",,,,,"03,99,1,03,1,00,1,99999,9,08,1,01,1","0774,9",,"999,N,+0206,1","99999,9,10055,1","6,1,002,1,+999,9",,"SYN106AAXX  29064 08359 12980 33102 10246 20168 30055 40149 56002 60002 83081 90700 333 20206 50464 55129 70000;","Q01  00002PRCP24Q02  00002PRCP12"
"08359099999","2010-07-29T18:00:00","4","38.3666666","-0.5","82.0","ALICANTE, SP","FM-12","99999","V020","150,1,N,0015,1","99999,9,9,N","030000,1,N,1","+0274,1","+0228,1","10122,1","12,0000,9,1",,,,,,"05,99,1,02,1,00,1,99999,9,03,1,02,1",,,"999,M,+0316,1","99999,9,10029,1","8,1,006,1,+999,9",,"SYN082AAXX  29184 08359 12980 51503 10274 20228 30029 40122 58006 60002 82032 333 10316;","Q01  00002PRCP12"
"08359099999","2010-07-30T06:00:00","4","38.3666666","-0.5","82.0","ALICANTE, SP","FM-12","99999","V020","040,1,N,0015,1","22000,1,9,N","020000,1,N,1","+0256,1","+0223,1","10134,1","12,0000,9,1","24,0000,9,1",,,,,"04,99,1,04,1,08,1,00800,1,00,1,00,1","0660,9",,"999,N,+0234,1","99999,9,10040,1","3,1,007,1,+999,9",,"SYN106AAXX  30064 08359 12570 40403 10256 20223 30040 40134 53007 60002 84800 90700 333 20234 50384 55110 70000;","Q01  00002PRCP24Q02  00002PRCP12"
"08359099999","2010-07-30T18:00:00","4","38.3666666","-0.5","82.0","ALICANTE, SP","FM-12","99999","V020","120,1,N,0015,1","22000,1,9,N","020000,1,N,1","+0272,1","+0230,1","10134,1","12,0000,9,1",,,,,,"03,99,1,03,1,08,1,00800,1,06,1,00,1",,,"999,M,+0306,1","99999,9,10041,1","4,1,000,1,+999,9",,"SYN082AAXX  30184 08359 12570 31203 10272 20230 30041 40134 54000 60002 83860 333 10306;","Q01  00002PRCP12"
"08359099999","2010-07-31T06:00:00","4","38.3666666","-0.5","82.0","ALICANTE, SP","FM-12","99999","V020","050,1,N,0005,1","22000,1,9,N","020000,1,N,1","+0264,1","+0227,1","10156,1","12,0000,9,1","24,0000,9,1",,,,,"02,99,1,02,1,08,1,00800,1,00,1,00,1","0624,9",,"999,N,+0236,1","99999,9,10063,1","3,1,008,1,+999,9",,"SYN106AAXX  31064 08359 12570 20501 10264 20227 30063 40156 53008 60002 82800 90700 333 20236 50354 55104 70000;","Q01  00002PRCP24Q02  00002PRCP12"
"08359099999","2010-07-31T18:00:00","4","38.3666666","-0.5","82.0","ALICANTE, SP","FM-12","99999","V020","140,1,N,0015,1","22000,1,9,N","030000,1,N,1","+0274,1","+0224,1","10155,1","12,0000,9,1",,,,,"00,1,+99999,9,99,9","00,99,1,00,1,00,1,99999,9,00,1,00,1",,,"999,M,+0308,1","99999,9,10062,1","7,1,006,1,+999,9",,"SYN076AAXX  31184 08359 12980 01403 10274 20224 30062 40155 57006 60002 333 10308;","Q01  00002PRCP12"
"08359099999","2010-08-01T06:00:00","4","38.3666666","-0.5","82.0","ALICANTE, SP","FM-12","99999","V020","040,1,N,0010,1","22000,1,9,N","030000,1,N,1","+0252,1","+0193,1","10161,1","12,0000,9,1","24,0000,9,1",,,,"00,1,+99999,9,99,9","00,99,1,00,1,00,1,99999,9,00,1,00,1","0732,9",,"999,N,+0216,1","99999,9,10067,1","3,1,005,1,+999,9",,"SYN100AAXX  01064 08359 12980 00402 10252 20193 30067 40161 53005 60002 90700 333 20216 50364 55122 70000;","Q01  00002PRCP24Q02  00002PRCP12"
"08359099999","2010-08-01T18:00:00","4","38.3666666","-0.5","82.0","ALICANTE, SP","FM-12","99999","V020","080,1,N,0021,1","22000,1,9,N","030000,1,N,1","+0282,1","+0210,1","10142,1","12,0000,9,1",,,,,"00,1,+99999,9,99,9","00,99,1,00,1,00,1,99999,9,00,1,00,1",,,"999,M,+0320,1","99999,9,10049,1","8,1,010,1,+999,9",,"SYN076AAXX  01184 08359 12980 00804 10282 20210 30049 40142 58010 60002 333 10320;","Q01  00002PRCP12"
"08359099999","2010-08-02T06:00:00","4","38.3666666","-0.5","82.0","ALICANTE, SP","FM-12","99999","V020","020,1,N,0005,1","22000,1,9,N","030000,1,N,1","+0256,1","+0188,1","10150,1","12,0000,9,1","24,0000,9,1",,,,,"02,99,1,01,1,08,1,00800,1,00,1,01,1","0762,9",,"999,N,+0214,1","99999,9,10056,1","1,1,008,1,+999,9",,"SYN106AAXX  02064 08359 12580 20201 10256 20188 30056 40150 51008 60002 81801 90700 333 20214 50474 55127 70000;","Q01  00002PRCP24Q02  00002PRCP12"
"08359099999","2010-08-02T18:00:00","4","38.3666666","-0.5","82.0","ALICANTE, SP","FM-12","99999","V020","140,1,N,0010,1","22000,1,9,N","030000,1,N,1","+0286,1","+0235,1","10121,1","12,0000,9,1",,,,,,"01,99,1,01,1,02,1,00800,1,00,1,00,1",,,"999,M,+0306,1","99999,9,10029,1","6,1,006,1,+999,9",,"SYN082AAXX  02184 08359 12580 11402 10286 20235 30029 40121 56006 60002 81200 333 10306;","Q01  00002PRCP12"
"08359099999","2010-08-15T18:00:00","4","38.3666666","-0.5","82.0","ALICANTE, SP","FM-12","99999","V020","150,1,N,0015,1","22000,1,9,N","020000,1,N,1","+0274,1","+0181,1","10149,1","12,0000,9,1",,,,,,"01,99,1,01,1,00,1,99999,9,06,1,00,1",,,"999,M,+0290,1","99999,9,10056,1","4,1,000,1,+999,9",,"SYN082AAXX  15184 08359 12970 11503 10274 20181 30056 40149 54000 60002 81060 333 10290;","Q01  00002PRCP12"
"08359099999","2010-08-16T06:00:00","4","38.3666666","-0.5","82.0","ALICANTE, SP","FM-12","99999","V020","030,1,N,0005,1","22000,1,9,N","025000,1,N,1","+0234,1","+0183,1","10179,1","12,0000,9,1","24,0000,9,1",,,,,"01,99,1,01,1,02,1,00800,1,07,1,05,1",,,"999,N,+0210,1","99999,9,10084,1","1,1,008,1,+999,9",,"SYN106AAXX  16064 08359 12575 10301 10234 20183 30084 40179 51008 60002 81275 90700 333 20210 5///4 55/// 70000;","Q01  00002PRCP24Q02  00002PRCP12"
"08359099999","2010-08-16T18:00:00","4","38.3666666","-0.5","82.0","ALICANTE, SP","FM-12","99999","V020","090,1,N,0026,1","09000,1,9,N","020000,1,N,1","+0256,1","+0197,1","10188,1","12,0000,9,1",,,,,,"07,99,1,02,1,04,1,00800,1,00,1,06,1",,,"999,M,+0302,1","99999,9,10094,1","1,1,002,1,+999,9",,"SYN082AAXX  16184 08359 12570 70905 10256 20197 30094 40188 51002 60002 82406 333 10302;","Q01  00002PRCP12"
"08359099999","2010-08-17T06:00:00","4","38.3666666","-0.5","82.0","ALICANTE, SP","FM-12","99999","V020","030,1,N,0010,1","03600,1,9,N","020000,1,N,1","+0236,1","+0193,1","10190,1","12,9999,9,9","24,9999,9,9",,"2,1,06,1","2,1,06,1",,"08,99,1,02,1,02,1,00800,1,07,1,99,9","0510,9",,"999,N,+0226,1","99999,9,10095,1","3,1,005,1,+999,9","50,1","SYN112AAXX  17064 08359 11570 80302 10236 20193 30095 40190 53005 69902 75022 8227/ 90700 333 20226 50404 55085 70000;","Q01  00002PRCP24Q02  00002PRCP12Q03  00002PRCP12Q04  00002PRCP24"
"08359099999","2010-08-17T18:00:00","4","38.3666666","-0.5","82.0","ALICANTE, SP","FM-12","99999","V020","140,1,N,0015,1","22000,1,9,N","025000,1,N,1","+0258,1","+0199,1","10159,1","12,0000,2,1",,,,,,"02,99,1,01,1,00,1,99999,9,06,1,01,1",,,"999,M,+0298,1","99999,9,10065,1","6,1,012,1,+999,9",,"SYN082AAXX  17184 08359 12975 21403 10258 20199 30065 40159 56012 60002 81061 333 10298;",
"08359099999","2010-08-18T06:00:00","4","38.3666666","-0.5","82.0","ALICANTE, SP","FM-12","99999","V020","999,9,C,0000,1","22000,1,9,N","030000,1,N,1","+0236,1","+0189,1","10161,1","12,0000,9,1","24,0000,2,1",,,,,"01,99,1,01,1,00,1,99999,9,03,1,00,1","0552,9",,"999,N,+0208,1","99999,9,10066,1","5,1,004,1,+999,9",,"SYN106AAXX  18064 08359 12980 10000 10236 20189 30066 40161 55004 60002 81030 90700 333 20208 50324 55092 70000;","Q01  00002PRCP12"
"08359099999","2010-08-18T18:00:00","4","38.3666666","-0.5","82.0","ALICANTE, SP","FM-12","99999","V020","170,1,N,0015,1","00750,1,9,N","020000,1,N,1","+0266,1","+0222,1","10126,1","12,0000,9,1",,,,,"01,1,+01250,1,09,1","06,99,1,05,1,03,1,00800,1,00,1,06,1",,,"120,M,+0302,1","99999,9,10033,1","5,1,000,1,+999,9",,"SYN088AAXX  18184 08359 12570 61703 10266 20222 30033 40126 55000 60002 85306 333 10302 81996;","Q01  00002PRCP12"
"08359099999","2010-08-19T06:00:00","4","38.3666666","-0.5","82.0","ALICANTE, SP","FM-12","99999","V020","999,9,C,0000,1","01250,1,9,N","012000,1,N,1","+0236,1","+0224,1","10130,1","12,0020,9,1","24,0023,9,1",,"8,1,06,1","2,1,06,1","05,1,+01250,1,09,1","08,99,1,05,1,09,1,00800,1,07,1,99,9","0708,9",,"999,N,+0235,1","99999,9,10036,1","2,1,008,1,+999,9","95,1","SYN118AAXX  19064 08359 11562 80000 10236 20224 30036 40130 52008 60022 79582 8597/ 90700 333 20235 50284 55118 70022 85996;",
"08359099999","2010-08-19T18:00:00","4","38.3666666","-0.5","82.0","ALICANTE, SP","FM-12","99999","V020","200,1,N,0015,1","99999,9,9,N","020000,1,N,1","+0262,1","+0218,1","10142,1","12,0079,9,1",,,"6,1,06,1","2,1,06,1",,"05,99,1,02,1,00,1,99999,9,08,1,02,1",,,"999,M,+0300,1","99999,9,10049,1","2,1,005,1,+999,9","02,1","SYN088AAXX  19184 08359 11970 52003 10262 20218 30049 40142 52005 60082 70262 82082 333 10300;",
"08359099999","2010-08-20T06:00:00","4","38.3666666","-0.5","82.0","ALICANTE, SP","FM-12","99999","V020","999,9,C,0000,1","22000,1,9,N","030000,1,N,1","+0242,1","+0203,1","10180,1","12,0000,9,1","24,0084,9,1",,,,"00,1,+99999,9,99,9","00,99,1,00,1,00,1,99999,9,00,1,00,1","0366,9",,"999,N,+0218,1","99999,9,10085,1","3,1,012,1,+999,9",,"SYN100AAXX  20064 08359 12980 00000 10242 20203 30085 40180 53012 60002 90700 333 20218 50174 55061 70084;","Q01  00002PRCP12"
"08359099999","2010-08-20T18:00:00","4","38.3666666","-0.5","82.0","ALICANTE, SP","FM-12","99999","V020","090,1,N,0021,1","22000,1,9,N","030000,1,N,1","+0274,1","+0228,1","10198,1","12,0000,9,1",,,,,"00,1,+99999,9,99,9","00,99,1,00,1,00,1,99999,9,00,1,00,1",,,"999,M,+0306,1","99999,9,10104,1","3,1,003,1,+999,9",,"SYN076AAXX  20184 08359 12980 00904 10274 20228 30104 40198 53003 60002 333 10306;","Q01  00002PRCP12"
"08359099999","2010-08-21T06:00:00","4","38.3666666","-0.5","82.0","ALICANTE, SP","FM-12","99999","V020","999,9,C,0000,1","22000,1,9,N","030000,1,N,1","+0240,1","+0180,1","10233,1","12,0000,9,1","24,0000,9,1",,,,"00,1,+99999,9,99,9","00,99,1,00,1,00,1,99999,9,00,1,00,1","0744,9",,"999,N,+0210,1","99999,9,10138,1","3,1,008,1,+999,9",,"SYN100AAXX  21064 08359 12980 00000 10240 20180 30138 40233 53008 60002 90700 333 20210 50274 55124 70000;","Q01  00002PRCP24Q02  00002PRCP12"
"08359099999","2010-08-21T18:00:00","4","38.3666666","-0.5","82.0","ALICANTE, SP","FM-12","99999","V020","150,1,N,0015,1","22000,1,9,N","030000,1,N,1","+0282,1","+0207,1","10226,1","12,0000,9,1",,,,,"00,1,+99999,9,99,9","00,99,1,00,1,00,1,99999,9,00,1,00,1",,,"999,M,+0314,1","99999,9,10132,1","6,1,008,1,+999,9",,"SYN076AAXX  21184 08359 12980 01503 10282 20207 30132 40226 56008 60002 333 10314;","Q01  00002PRCP12"
"08359099999","2010-08-22T06:00:00","4","38.3666666","-0.5","82.0","ALICANTE, SP","FM-12","99999","V020","999,9,C,0000,1","22000,1,9,N","030000,1,N,1","+0236,1","+0185,1","10206,1","12,0000,9,1","24,0000,9,1",,,,"00,1,+99999,9,99,9","00,99,1,00,1,00,1,99999,9,00,1,00,1","0750,9",,"999,N,+0206,1","99999,9,10111,1","6,1,008,1,+999,9",,"SYN094AAXX  22064 08359 12980 00000 10236 20185 30111 40206 56008 60002 333 20206 50394 55125 70000;","Q01  00002PRCP24Q02  00002PRCP12"
"08359099999","2010-08-22T18:00:00","4","38.3666666","-0.5","82.0","ALICANTE, SP","FM-12","99999","V020","170,1,N,0021,1","22000,1,9,N","030000,1,N,1","+0272,1","+0222,1","10165,1","12,0000,9,1",,,,,,"01,99,1,00,1,00,1,99999,9,00,1,02,1",,,"999,M,+0325,1","99999,9,10072,1","7,1,010,1,+999,9",,"SYN082AAXX  22184 08359 12980 11704 10272 20222 30072 40165 57010 60002 80002 333 10325;","Q01  00002PRCP12"
"08359099999","2010-08-23T06:00:00","4","38.3666666","-0.5","82.0","ALICANTE, SP","FM-12","99999","V020","999,9,C,0000,1","22000,1,9,N","030000,1,N,1","+0246,1","+0201,1","10136,1","12,0000,9,1","24,0000,9,1",,,,"00,1,+99999,9,99,9","00,99,1,00,1,00,1,99999,9,00,1,00,1","0744,9",,"999,N,+0214,1","99999,9,10042,1","5,1,000,1,+999,9",,"SYN100AAXX  23064 08359 12980 00000 10246 20201 30042 40136 55000 60002 90700 333 20214 50124 55124 70000;","Q01  00002PRCP24Q02  00002PRCP12"
"08359099999","2010-08-23T18:00:00","4","38.3666666","-0.5","82.0","ALICANTE, SP","FM-12","99999","V020","090,1,N,0021,1","22000,1,9,N","020000,1,N,1","+0296,1","+0245,1","10103,1","12,0000,9,1",,,,,,"01,99,1,01,1,01,1,00800,1,00,1,00,1",,,"999,M,+0340,1","99999,9,10011,1","6,1,005,1,+999,9",,"SYN082AAXX  23184 08359 12570 10904 10296 20245 30011 40103 56005 60002 81100 333 10340;","Q01  00002PRCP12"
"08359099999","2010-08-24T06:00:00","4","38.3666666","-0.5","82.0","ALICANTE, SP","FM-12","99999","V020","270,1,N,0005,1","22000,1,9,N","030000,1,N,1","+0278,1","+0164,1","10119,1","12,0000,9,1","24,0000,9,1",,,,,"01,99,1,00,1,00,1,99999,9,00,1,01,1","0720,9",,"999,N,+0225,1","99999,9,10026,1","3,1,012,1,+999,9",,"SYN106AAXX  24064 08359 12980 12701 10278 20164 30026 40119 53012 60002 80001 90700 333 20225 50384 55120 70000;","Q01  00002PRCP24Q02  00002PRCP12"
"08359099999","2010-08-24T18:00:00","4","38.3666666","-0.5","82.0","ALICANTE, SP","FM-12","99999","V020","070,1,N,0031,1","22000,1,9,N","030000,1,N,1","+0300,1","+0194,1","10135,1","12,0000,9,1",,,,,,"01,99,1,00,1,00,1,99999,9,00,1,01,1",,,"999,M,+0395,1","99999,9,10043,1","1,1,006,1,+999,9",,"SYN082AAXX  24184 08359 12980 10706 10300 20194 30043 40135 51006 60002 80001 333 10395;","Q01  00002PRCP12"
"08359099999","2010-08-25T06:00:00","4","38.3666666","-0.5","82.0","ALICANTE, SP","FM-12","99999","V020","290,1,N,0005,1","22000,1,9,N","030000,1,N,1","+0250,1","+0170,1","10177,1","12,0000,9,1","24,0000,9,1",,,,"00,1,+99999,9,99,9","00,99,1,00,1,00,1,99999,9,00,1,00,1","0726,9",,"999,N,+0220,1","99999,9,10083,1","3,1,008,1,+999,9",,"SYN100AAXX  25064 08359 12980 02901 10250 20170 30083 40177 53008 60002 90700 333 20220 50674 55121 70000;","Q01  00002PRCP24Q02  00002PRCP12"
"08359099999","2010-08-25T18:00:00","4","38.3666666","-0.5","82.0","ALICANTE, SP","FM-12","99999","V020","170,1,N,0010,1","22000,1,9,N","020000,1,N,1","+0280,1","+0242,1","10177,1","12,0000,9,1",,,,,,"01,99,1,00,1,00,1,99999,9,00,1,01,1",,,"999,M,+0315,1","99999,9,10084,1","6,1,003,1,+999,9",,"SYN082AAXX  25184 08359 12970 11702 10280 20242 30084 40177 56003 60002 80001 333 10315;","Q01  00002PRCP12"
"08359099999","2010-08-26T06:00:00","4","38.3666666","-0.5","82.0","ALICANTE, SP","FM-12","99999","V020","320,1,N,0005,1","22000,1,9,N","030000,1,N,1","+0238,1","+0156,1","10179,1","12,0000,9,1","24,0000,9,1",,,,"00,1,+99999,9,99,9","00,99,1,00,1,00,1,99999,9,00,1,00,1","0732,9",,"999,N,+0205,1","99999,9,10084,1","4,1,000,1,+999,9",,"SYN100AAXX  26064 08359 12980 03201 10238 20156 30084 40179 54000 60002 90700 333 20205 50414 55122 70000;","Q01  00002PRCP24Q02  00002PRCP12"
"08359099999","2010-08-26T18:00:00","4","38.3666666","-0.5","82.0","ALICANTE, SP","FM-12","99999","V020","160,1,N,0015,1","22000,1,9,N","030000,1,N,1","+0288,1","+0241,1","10156,1","12,0000,9,1",,,,,"00,1,+99999,9,99,9","00,99,1,00,1,00,1,99999,9,00,1,00,1",,,"999,M,+0358,1","99999,9,10063,1","6,1,006,1,+999,9",,"SYN076AAXX  26184 08359 12980 01603 10288 20241 30063 40156 56006 60002 333 10358;","Q01  00002PRCP12"
"08359099999","2010-08-27T06:00:00","4","38.3666666","-0.5","82.0","ALICANTE, SP","FM-12","99999","V020","270,1,N,0010,1","22000,1,9,N","020000,1,N,1","+0262,1","+0164,1","10132,1","12,0000,9,1","24,0000,9,1",,,,"00,1,+99999,9,99,9","00,99,1,00,1,00,1,99999,9,00,1,00,1","0714,9",,"999,N,+0220,1","99999,9,10038,1","6,1,003,1,+999,9",,"SYN100AAXX  27064 08359 12970 02702 10262 20164 30038 40132 56003 60002 90700 333 20220 50504 55119 70000;","Q01  00002PRCP24Q02  00002PRCP12"
"08359099999","2010-08-27T18:00:00","4","38.3666666","-0.5","82.0","ALICANTE, SP","FM-12","99999","V020","070,1,N,0015,1","22000,1,9,N","020000,1,N,1","+0306,1","+0238,1","10108,1","12,0000,9,1",,,,,"00,1,+99999,9,99,9","00,99,1,00,1,00,1,99999,9,00,1,00,1",,,"999,M,+0404,1","99999,9,10016,1","6,1,005,1,+999,9",,"SYN076AAXX  27184 08359 12970 00703 10306 20238 30016 40108 56005 60002 333 10404;","Q01  00002PRCP12"
"08359099999","2010-08-28T06:00:00","4","38.3666666","-0.5","82.0","ALICANTE, SP","FM-12","99999","V020","040,1,N,0015,1","22000,1,9,N","030000,1,N,1","+0296,1","+0157,1","10133,1","12,0000,9,1","24,0000,9,1",,,,"00,1,+99999,9,99,9","00,99,1,00,1,00,1,99999,9,00,1,00,1","0678,9",,"999,N,+0246,1","99999,9,10040,1","2,1,010,1,+999,9",,"SYN100AAXX  28064 08359 12980 00403 10296 20157 30040 40133 52010 60002 90700 333 20246 50544 55113 70000;","Q01  00002PRCP24Q02  00002PRCP12"
"08359099999","2010-08-28T18:00:00","4","38.3666666","-0.5","82.0","ALICANTE, SP","FM-12","99999","V020","110,1,N,0021,1","00750,1,9,N","015000,1,N,1","+0264,1","+0229,1","10149,1","12,0000,9,1",,,,,,"08,99,1,08,1,05,1,00800,1,99,9,99,9",,,"999,M,+0312,1","99999,9,10056,1","4,1,000,1,+999,9",,"SYN082AAXX  28184 08359 12565 81104 10264 20229 30056 40149 54000 60002 885// 333 10312;","Q01  00002PRCP12"
"08359099999","2010-08-29T06:00:00","4","38.3666666","-0.5","82.0","ALICANTE, SP","FM-12","99999","V020","050,1,N,0010,1","01200,1,9,N","020000,1,N,1","+0242,1","+0205,1","10167,1","12,9999,9,9","24,9999,9,9",,"2,1,06,1","2,1,06,1",,"06,99,1,06,1,08,1,00800,1,00,1,00,1","0594,9",,"999,N,+0235,1","99999,9,10073,1","3,1,007,1,+999,9","50,1","SYN112AAXX  29064 08359 11570 60502 10242 20205 30073 40167 53007 69902 75022 86800 90700 333 20235 50434 55099 79999;","Q01  00002PRCP24Q02  00002PRCP12Q03  00002PRCP12Q04  00002PRCP24"
"08359099999","2010-08-29T18:00:00","4","38.3666666","-0.5","82.0","ALICANTE, SP","FM-12","99999","V020","150,1,N,0010,1","22000,1,9,N","025000,1,N,1","+0262,1","+0214,1","10159,1","12,0000,2,1",,,,,,"01,99,1,01,1,04,1,00800,1,03,1,00,1",,,"999,M,+0304,1","99999,9,10065,1","6,1,003,1,+999,9",,"SYN082AAXX  29184 08359 12575 11502 10262 20214 30065 40159 56003 60002 81430 333 10304;",
"08359099999","2010-08-30T06:00:00","4","38.3666666","-0.5","82.0","ALICANTE, SP","FM-12","99999","V020","320,1,N,0005,1","22000,1,9,N","030000,1,N,1","+0234,1","+0187,1","10160,1","12,0000,9,1","24,0000,2,1",,,,"00,1,+99999,9,99,9","00,99,1,00,1,00,1,99999,9,00,1,00,1","0660,9",,"999,N,+0210,1","99999,9,10065,1","3,1,003,1,+999,9",,"SYN100AAXX  30064 08359 12980 03201 10234 20187 30065 40160 53003 60002 90700 333 20210 50324 55110 70000;","Q01  00002PRCP12"
"08359099999","2010-08-30T18:00:00","4","38.3666666","-0.5","82.0","ALICANTE, SP","FM-12","99999","V020","140,1,N,0015,1","22000,1,9,N","025000,1,N,1","+0262,1","+0214,1","10132,1","12,0000,9,1",,,,,,"01,99,1,01,1,04,1,00800,1,00,1,00,1",,,"999,M,+0300,1","99999,9,10039,1","6,1,006,1,+999,9",,"SYN082AAXX  30184 08359 12575 11403 10262 20214 30039 40132 56006 60002 81400 333 10300;","Q01  00002PRCP12"
"08359099999","2010-08-31T06:00:00","4","38.3666666","-0.5","82.0","ALICANTE, SP","FM-12","99999","V020","120,1,N,0015,1","00750,1,9,N","018000,1,N,1","+0252,1","+0202,1","10141,1","12,0000,9,1","24,0000,9,1",,,,,"06,99,1,05,1,02,1,00800,1,03,1,00,1","0690,9",,"999,N,+0244,1","99999,9,10047,1","3,1,002,1,+999,9",,"SYN106AAXX  31064 08359 12568 61203 10252 20202 30047 40141 53002 60002 85230 90700 333 20244 50354 55115 70000;","Q01  00002PRCP24Q02  00002PRCP12"
"08359099999","2010-08-31T18:00:00","4","38.3666666","-0.5","82.0","ALICANTE, SP","FM-12","99999","V020","100,1,N,0015,1","01200,1,9,N","018000,1,N,1","+0250,1","+0198,1","10138,1","12,0000,9,1",,,,,,"07,99,1,05,1,08,1,00800,1,00,1,02,1",,,"999,M,+0292,1","99999,9,10044,1","8,1,004,1,+999,9",,"SYN082AAXX  31184 08359 12568 71003 10250 20198 30044 40138 58004 60002 85802 333 10292;","Q01  00002PRCP12"
"08359099999","2010-09-01T06:00:00","4","38.3666666","-0.5","82.0","ALICANTE, SP","FM-12","99999","V020","040,1,N,0010,1","09000,1,9,N","020000,1,N,1","+0230,1","+0179,1","10121,1","12,0000,9,1","24,0000,9,1",,,,,"05,99,1,02,1,08,1,00800,1,03,1,02,1","0234,9",,"999,N,+0215,1","99999,9,10027,1","1,1,004,1,+999,9",,"SYN106AAXX  01064 08359 12570 50402 10230 20179 30027 40121 51004 60002 82832 90700 333 20215 50334 55039 70000;","Q01  00002PRCP24Q02  00002PRCP12"
"08359099999","2010-09-01T18:00:00","4","38.3666666","-0.5","82.0","ALICANTE, SP","FM-12","99999","V020","100,1,N,0021,1","99999,9,9,N","020000,1,N,1","+0252,1","+0171,1","10105,1","12,0000,9,1",,,,,,"05,99,1,00,1,00,1,99999,9,00,1,02,1",,,"999,M,+0286,1","99999,9,10011,1","6,1,002,1,+999,9",,"SYN082AAXX  01184 08359 12970 51004 10252 20171 30011 40105 56002 60002 80002 333 10286;","Q01  00002PRCP12"
"08359099999","2010-09-02T06:00:00","4","38.3666666","-0.5","82.0","ALICANTE, SP","FM-12","99999","V020","320,1,N,0005,1","22000,1,9,N","020000,1,N,1","+0212,1","+0155,1","10120,1","12,0000,9,1","24,0000,9,1",,,,,"05,99,1,01,1,02,1,00800,1,03,1,09,1","0522,9",,"999,N,+0194,1","99999,9,10025,1","3,1,010,1,+999,9",,"SYN106AAXX  02064 08359 12570 53201 10212 20155 30025 40120 53010 60002 81239 90700 333 20194 50444 55087 70000;","Q01  00002PRCP24Q02  00002PRCP12"
"08359099999","2010-09-02T18:00:00","4","38.3666666","-0.5","82.0","ALICANTE, SP","FM-12","99999","V020","110,1,N,0010,1","22000,1,9,N","020000,1,N,1","+0254,1","+0176,1","10129,1","12,0000,9,1",,,,,,"04,99,1,02,1,08,1,00800,1,04,1,00,1",,,"999,M,+0298,1","99999,9,10035,1","3,1,005,1,+999,9",,"SYN082AAXX  02184 08359 12570 41102 10254 20176 30035 40129 53005 60002 82840 333 10298;","Q01  00002PRCP12"
"08359099999","2010-09-03T06:00:00","4","38.3666666","-0.5","82.0","ALICANTE, SP","FM-12","99999","V020","330,1,N,0005,1","22000,1,9,N","030000,1,N,1","+0218,1","+0159,1","10164,1","12,0000,9,1","24,0000,9,1",,,,"00,1,+99999,9,99,9","00,99,1,00,1,00,1,99999,9,00,1,00,1","0480,9",,"999,N,+0196,1","99999,9,10069,1","3,1,009,1,+999,9",,"SYN100AAXX  03064 08359 12980 03301 10218 20159 30069 40164 53009 60002 90700 333 20196 50480 55080 70000;","Q01  00002PRCP24Q02  00002PRCP12"
"08359099999","2010-09-03T18:00:00","4","38.3666666","-0.5","82.0","ALICANTE, SP","FM-12","99999","V020","150,1,N,0010,1","22000,1,9,N","030000,1,N,1","+0258,1","+0199,1","10169,1","12,0000,9,1",,,,,"00,1,+99999,9,99,9","00,99,1,00,1,00,1,99999,9,00,1,00,1",,,"999,M,+0296,1","99999,9,10075,1","5,1,000,1,+999,9",,"SYN076AAXX  03184 08359 12980 01502 10258 20199 30075 40169 55000 60002 333 10296;","Q01  00002PRCP12"
"08359099999","2010-09-04T06:00:00","4","38.3666666","-0.5","82.0","ALICANTE, SP","FM-12","99999","V020","270,1,N,0010,1","22000,1,9,N","030000,1,N,1","+0216,1","+0152,1","10175,1","12,0000,9,1","24,0000,9,1",,,,"00,1,+99999,9,99,9","00,99,1,00,1,00,1,99999,9,00,1,00,1","0714,9",,"999,N,+0190,1","99999,9,10079,1","3,1,003,1,+999,9",,"SYN100AAXX  04064 08359 12980 02702 10216 20152 30079 40175 53003 60002 90700 333 20190 50394 55119 70000;","Q01  00002PRCP24Q02  00002PRCP12"
"08359099999","2010-09-05T06:00:00","4","38.3666666","-0.5","82.0","ALICANTE, SP","FM-12","99999","V020","999,9,C,0000,1","22000,1,9,N","030000,1,N,1","+0218,1","+0154,1","10155,1","12,0000,9,1","24,0000,9,1",,,,,"02,99,1,00,1,00,1,99999,9,00,1,09,1","0696,9",,"999,N,+0185,1","99999,9,10060,1","3,1,005,1,+999,9",,"SYN106AAXX  05064 08359 12980 20000 10218 20154 30060 40155 53005 60002 80009 90700 333 20185 50454 55116 70000;","Q01  00002PRCP24Q02  00002PRCP12"
"08359099999","2010-09-05T18:00:00","4","38.3666666","-0.5","82.0","ALICANTE, SP","FM-12","99999","V020","150,1,N,0010,1","22000,1,9,N","030000,1,N,1","+0262,1","+0193,1","10145,1","12,0000,9,1",,,,,,"04,99,1,00,1,00,1,99999,9,00,1,01,1",,,"999,M,+0316,1","99999,9,10051,1","7,1,006,1,+999,9",,"SYN082AAXX  05184 08359 12980 41502 10262 20193 30051 40145 57006 60002 80001 333 10316;","Q01  00002PRCP12"
"08359099999","2010-09-06T06:00:00","4","38.3666666","-0.5","82.0","ALICANTE, SP","FM-12","99999","V020","999,9,C,0000,1","22000,1,9,N","030000,1,N,1","+0208,1","+0133,1","10137,1","12,0000,9,1","24,0000,9,1",,,,"00,1,+99999,9,99,9","00,99,1,00,1,00,1,99999,9,00,1,00,1","0672,9",,"999,N,+0182,1","99999,9,10041,1","6,1,012,1,+999,9",,"SYN100AAXX  06064 08359 12980 00000 10208 20133 30041 40137 56012 60002 90700 333 20182 50454 55112 70000;","Q01  00002PRCP24Q02  00002PRCP12"
"08359099999","2010-09-07T06:00:00","4","38.3666666","-0.5","82.0","ALICANTE, SP","FM-12","99999","V020","999,9,C,0000,1","22000,1,9,N","030000,1,N,1","+0212,1","+0160,1","10071,1","12,0000,9,1","24,0000,9,1",,,,,"02,99,1,00,1,00,1,99999,9,00,1,09,1","0690,9",,"999,N,+0190,1","99999,9,09976,1","6,1,002,1,+999,9",,"SYN106AAXX  07064 08359 12980 20000 10212 20160 39976 40071 56002 60002 80009 90700 333 20190 50364 55115 70000;","Q01  00002PRCP24Q02  00002PRCP12"
"08359099999","2010-09-07T18:00:00","4","38.3666666","-0.5","82.0","ALICANTE, SP","FM-12","99999","V020","320,1,N,0026,1","22000,1,9,N","030000,1,N,1","+0308,1","+0131,1","10037,1","12,0000,9,1",,,,,,"01,99,1,01,1,00,1,99999,9,04,1,00,1",,,"999,M,+0348,1","99999,9,09946,1","3,1,002,1,+999,9",,"SYN082AAXX  07184 08359 12980 13205 10308 20131 39946 40037 53002 60002 81040 333 10348;","Q01  00002PRCP12"
"08359099999","2010-09-08T06:00:00","4","38.3666666","-0.5","82.0","ALICANTE, SP","FM-12","99999","V020","330,1,N,0015,1","22000,1,9,N","030000,1,N,1","+0246,1","+0147,1","10108,1","12,0000,9,1","24,0000,9,1",,,,"00,1,+99999,9,99,9","00,99,1,00,1,00,1,99999,9,00,1,00,1","0690,9",,"999,N,+0225,1","99999,9,10014,1","2,1,019,1,+999,9",,"SYN100AAXX  08064 08359 12980 03303 10246 20147 30014 40108 52019 60002 90700 333 20225 50984 55115 70000;","Q01  00002PRCP24Q02  00002PRCP12"
"08359099999","2010-09-08T18:00:00","4","38.3666666","-0.5","82.0","ALICANTE, SP","FM-12","99999","V020","190,1,N,0026,1","22000,1,9,N","020000,1,N,1","+0258,1","+0194,1","10125,1","12,0000,9,1",,,,,,"05,99,1,01,1,02,1,01250,1,04,1,09,1",,,"999,M,+0318,1","99999,9,10031,1","3,1,005,1,+999,9",,"SYN082AAXX  08184 08359 12670 51905 10258 20194 30031 40125 53005 60002 81249 333 10318;","Q01  00002PRCP12"
"08359099999","2010-09-09T06:00:00","4","38.3666666","-0.5","82.0","ALICANTE, SP","FM-12","99999","V020","340,1,N,0015,1","22000,1,9,N","040000,1,N,1","+0224,1","+0129,1","10169,1","12,0000,9,1","24,0000,9,1",,,,,"01,99,1,00,1,00,1,99999,9,00,1,01,1","0672,9",,"999,N,+0194,1","99999,9,10074,1","2,1,010,1,+999,9",,"SYN106AAXX  09064 08359 12982 13403 10224 20129 30074 40169 52010 60002 80001 90700 333 20194 50524 55112 70000;","Q01  00002PRCP24Q02  00002PRCP12"
"08359099999","2010-09-09T18:00:00","4","38.3666666","-0.5","82.0","ALICANTE, SP","FM-12","99999","V020","100,1,N,0021,1","22000,1,9,N","040000,1,N,1","+0248,1","+0170,1","10189,1","12,0000,9,1",,,,,,"01,99,1,00,1,00,1,99999,9,00,1,01,1",,,"999,M,+0295,1","99999,9,10094,1","3,1,002,1,+999,9",,"SYN082AAXX  09184 08359 12982 11004 10248 20170 30094 40189 53002 60002 80001 333 10295;","Q01  00002PRCP12"
"08359099999","2010-09-10T06:00:00","4","38.3666666","-0.5","82.0","ALICANTE, SP","FM-12","99999","V020","360,1,N,0005,1","22000,1,9,N","040000,1,N,1","+0200,1","+0135,1","10217,1","12,0000,9,1","24,0000,9,1",,,,,"02,99,1,00,1,00,1,99999,9,00,1,01,1","0714,9",,"999,N,+0175,1","99999,9,10120,1","3,1,007,1,+999,9",,"SYN106AAXX  10064 08359 12982 23601 10200 20135 30120 40217 53007 60002 80001 90700 333 20175 50584 55119 70000;","Q01  00002PRCP24Q02  00002PRCP12"
"08359099999","2010-09-10T18:00:00","4","38.3666666","-0.5","82.0","ALICANTE, SP","FM-12","99999","V020","110,1,N,0015,1","22000,1,9,N","030000,1,N,1","+0244,1","+0176,1","10191,1","12,0000,9,1",,,,,,"03,99,1,00,1,00,1,99999,9,00,1,04,1",,,"999,M,+0290,1","99999,9,10096,1","7,1,008,1,+999,9",,"SYN082AAXX  10184 08359 12980 31103 10244 20176 30096 40191 57008 60002 80004 333 10290;","Q01  00002PRCP12"
"08359099999","2010-09-11T06:00:00","4","38.3666666","-0.5","82.0","ALICANTE, SP","FM-12","99999","V020","030,1,N,0005,1","22000,1,9,N","030000,1,N,1","+0216,1","+0170,1","10182,1","12,0000,9,1","24,0000,9,1",,,,,"03,99,1,03,1,08,1,00800,1,00,1,00,1","0708,9",,"999,N,+0185,1","99999,9,10086,1","5,1,002,1,+999,9",,"SYN106AAXX  11064 08359 12580 30301 10216 20170 30086 40182 55002 60002 83800 90700 333 20185 50424 55118 70000;","Q01  00002PRCP24Q02  00002PRCP12"
"08359099999","2010-09-11T18:00:00","4","38.3666666","-0.5","82.0","ALICANTE, SP","FM-12","99999","V020","120,1,N,0010,1","00750,1,9,N","025000,1,N,1","+0244,1","+0188,1","10168,1","12,0000,9,1",,,,,,"07,99,1,07,1,05,1,00800,1,00,1,00,1",,,"999,M,+0285,1","99999,9,10074,1","7,1,002,1,+999,9",,"SYN082AAXX  11184 08359 12575 71202 10244 20188 30074 40168 57002 60002 87500 333 10285;","Q01  00002PRCP12"
"08359099999","2010-09-12T06:00:00","4","38.3666666","-0.5","82.0","ALICANTE, SP","FM-12","99999","V020","330,1,N,0010,1","22000,1,9,N","025000,1,N,1","+0204,1","+0168,1","10187,1","12,0000,9,1","24,0000,9,1",,,,,"02,99,1,01,1,08,1,00800,1,00,1,02,1","0444,9",,"999,N,+0185,1","99999,9,10091,1","3,1,010,1,+999,9",,"SYN106AAXX  12064 08359 12575 23302 10204 20168 30091 40187 53010 60002 81802 90700 333 20185 50304 55074 70000;","Q01  00002PRCP24Q02  00002PRCP12"
"08359099999","2010-09-12T18:00:00","4","38.3666666","-0.5","82.0","ALICANTE, SP","FM-12","99999","V020","080,1,N,0015,1","22000,1,9,N","020000,1,N,1","+0246,1","+0194,1","10209,1","12,0000,9,1",,,,,,"03,99,1,01,1,02,1,01250,1,08,1,02,1",,,"999,M,+0282,1","99999,9,10114,1","3,1,012,1,+999,9",,"SYN082AAXX  12184 08359 12670 30803 10246 20194 30114 40209 53012 60002 81282 333 10282;","Q01  00002PRCP12"
"08359099999","2010-09-13T06:00:00","4","38.3666666","-0.5","82.0","ALICANTE, SP","FM-12","99999","V020","999,9,C,0000,1","22000,1,9,N","030000,1,N,1","+0200,1","+0152,1","10237,1","12,0000,9,1","24,0000,9,1",,,,,"03,99,1,01,1,08,1,00800,1,00,1,06,1","0660,9",,"999,N,+0180,1","99999,9,10140,1","3,1,007,1,+999,9",,"SYN106AAXX  13064 08359 12580 30000 10200 20152 30140 40237 53007 60002 81806 90700 333 20180 50354 55110 70000;","Q01  00002PRCP24Q02  00002PRCP12"
"08359099999","2010-09-13T18:00:00","4","38.3666666","-0.5","82.0","ALICANTE, SP","FM-12","99999","V020","180,1,N,0015,1","22000,1,9,N","030000,1,N,1","+0248,1","+0198,1","10224,1","12,0000,9,1",,,,,,"01,99,1,00,1,00,1,99999,9,00,1,02,1",,,"999,M,+0288,1","99999,9,10129,1","7,1,006,1,+999,9",,"SYN082AAXX  13184 08359 12980 11803 10248 20198 30129 40224 57006 60002 80002 333 10288;","Q01  00002PRCP12"
"08359099999","2010-09-14T06:00:00","4","38.3666666","-0.5","82.0","ALICANTE, SP","FM-12","99999","V020","999,9,C,0000,1","01200,1,9,N","020000,1,N,1","+0206,1","+0176,1","10232,1","12,0000,9,1","24,0000,9,1",,,,,"05,99,1,05,1,08,1,00800,1,00,1,00,1","0666,9",,"999,N,+0190,1","99999,9,10136,1","3,1,006,1,+999,9",,"SYN106AAXX  14064 08359 12570 50000 10206 20176 30136 40232 53006 60002 85800 90700 333 20190 50314 55111 70000;","Q01  00002PRCP24Q02  00002PRCP12"
"08359099999","2010-09-14T18:00:00","4","38.3666666","-0.5","82.0","ALICANTE, SP","FM-12","99999","V020","160,1,N,0015,1","22000,1,9,N","020000,1,N,1","+0246,1","+0203,1","10222,1","12,0000,9,1",,,,,,"02,99,1,02,1,04,1,00800,1,00,1,00,1",,,"999,M,+0290,1","99999,9,10127,1","7,1,003,1,+999,9",,"SYN082AAXX  14184 08359 12570 21603 10246 20203 30127 40222 57003 60002 82400 333 10290;","Q01  00002PRCP12"
"08359099999","2010-09-15T06:00:00","4","38.3666666","-0.5","82.0","ALICANTE, SP","FM-12","99999","V020","999,9,C,0000,1","99999,9,9,N","015000,1,N,1","+0212,1","+0180,1","10217,1","12,0000,9,1","24,0000,9,1",,,,,"07,99,1,00,1,00,1,99999,9,00,1,06,1","0546,9",,"999,N,+0194,1","99999,9,10121,1","2,1,004,1,+999,9",,"SYN106AAXX  15064 08359 12965 70000 10212 20180 30121 40217 52004 60002 80006 90700 333 20194 50274 55091 70000;","Q01  00002PRCP24Q02  00002PRCP12"
"08359099999","2010-09-15T18:00:00","4","38.3666666","-0.5","82.0","ALICANTE, SP","FM-12","99999","V020","210,1,N,0021,1","99999,9,9,N","020000,1,N,1","+0250,1","+0205,1","10174,1","12,0000,9,1",,,,,,"05,99,1,00,1,00,1,99999,9,00,1,06,1",,,"999,M,+0296,1","99999,9,10080,1","6,1,005,1,+999,9",,"SYN082AAXX  15184 08359 12970 52104 10250 20205 30080 40174 56005 60002 80006 333 10296;","Q01  00002PRCP12"
"08359099999","2010-09-16T06:00:00","4","38.3666666","-0.5","82.0","ALICANTE, SP","FM-12","99999","V020","999,9,C,0000,1","99999,9,9,N","020000,1,N,1","+0206,1","+0178,1","10152,1","12,0000,9,1","24,0000,9,1",,,,,"07,99,1,06,1,00,1,99999,9,03,1,02,1","0624,9",,"999,N,+0185,1","99999,9,10056,1","5,1,000,1,+999,9",,"SYN106AAXX  16064 08359 12970 70000 10206 20178 30056 40152 55000 60002 86032 90700 333 20185 50274 55104 70000;","Q01  00002PRCP24Q02  00002PRCP12"
"08359099999","2010-09-16T18:00:00","4","38.3666666","-0.5","82.0","ALICANTE, SP","FM-12","99999","V020","140,1,N,0010,1","99999,9,9,N","020000,1,N,1","+0248,1","+0205,1","10129,1","12,0000,9,1",,,"6,1,06,1","2,1,06,1",,"08,99,1,08,1,00,1,99999,9,07,1,99,9",,,"999,M,+0278,1","99999,9,10035,1","8,1,004,1,+999,9","02,1","SYN088AAXX  16184 08359 11970 81402 10248 20205 30035 40129 58004 69902 70262 8807/ 333 10278;","Q01  00002PRCP12"
"08359099999","2010-09-17T06:00:00","4","38.3666666","-0.5","82.0","ALICANTE, SP","FM-12","99999","V020","999,9,C,0000,1","99999,9,9,N","018000,1,N,1","+0220,1","+0208,1","10107,1","12,0003,9,1","24,0003,9,1",,"6,1,06,1","2,1,06,1",,"07,99,1,06,1,00,1,99999,9,07,1,02,1","0006,9",,"999,N,+0216,1","99999,9,10012,1","3,1,004,1,+999,9","02,1","SYN112AAXX  17064 08359 11968 70000 10220 20208 30012 40107 53004 69932 70262 86072 90700 333 20216 50234 55001 70003;",
"08359099999","2010-09-17T18:00:00","4","38.3666666","-0.5","82.0","ALICANTE, SP","FM-12","99999","V020","160,1,N,0005,1","22000,1,9,N","025000,1,N,1","+0250,1","+0198,1","10084,1","12,0079,9,1",,,,,,"02,99,1,01,1,02,1,01250,1,06,1,03,1",,,"999,M,+0290,1","99999,9,09991,1","8,1,007,1,+999,9",,"SYN082AAXX  17184 08359 12675 21601 10250 20198 39991 40084 58007 60082 81263 333 10290;",
"08359099999","2010-09-18T06:00:00","4","38.3666666","-0.5","82.0","ALICANTE, SP","FM-12","99999","V020","350,1,N,0015,1","22000,1,9,N","030000,1,N,1","+0222,1","+0162,1","10120,1","12,0000,9,1","24,0076,9,1",,,,,"01,99,1,01,1,01,1,00800,1,00,1,01,1","0390,9",,"999,N,+0190,1","99999,9,10025,1","3,1,014,1,+999,9",,"SYN106AAXX  18064 08359 12580 13503 10222 20162 30025 40120 53014 60002 81101 90700 333 20190 50274 55065 70076;","Q01  00002PRCP12"
"08359099999","2010-09-18T18:00:00","4","38.3666666","-0.5","82.0","ALICANTE, SP","FM-12","99999","V020","130,1,N,0015,1","22000,1,9,N","020000,1,N,1","+0234,1","+0191,1","10139,1","12,0000,9,1",,,,,,"04,99,1,02,1,05,1,00800,1,00,1,09,1",,,"999,M,+0276,1","99999,9,10045,1","3,1,003,1,+999,9",,"SYN082AAXX  18184 08359 12570 41303 10234 20191 30045 40139 53003 60002 82509 333 10276;","Q01  00002PRCP12"
"08359099999","2010-09-19T06:00:00","4","38.3666666","-0.5","82.0","ALICANTE, SP","FM-12","99999","V020","999,9,C,0000,1","01200,1,9,N","020000,1,N,1","+0200,1","+0174,1","10168,1","12,0000,9,1","24,0000,9,1",,,,,"05,99,1,05,1,08,1,00800,1,00,1,00,1","0624,9",,"999,N,+0185,1","99999,9,10072,1","3,1,013,1,+999,9",,"SYN106AAXX  19064 08359 12570 50000 10200 20174 30072 40168 53013 60002 85800 90700 333 20185 50294 55104 70000;","Q01  00002PRCP24Q02  00002PRCP12"
"08359099999","2010-09-19T18:00:00","4","38.3666666","-0.5","82.0","ALICANTE, SP","FM-12","99999","V020","070,1,N,0010,1","22000,1,9,N","025000,1,N,1","+0236,1","+0195,1","10156,1","12,0000,9,1",,,,,,"04,99,1,01,1,00,1,99999,9,03,1,06,1",,,"999,M,+0282,1","99999,9,10061,1","6,1,003,1,+999,9",,"SYN082AAXX  19184 08359 12975 40702 10236 20195 30061 40156 56003 60002 81036 333 10282;","Q01  00002PRCP12"
"08359099999","2010-09-20T06:00:00","4","38.3666666","-0.5","82.0","ALICANTE, SP","FM-12","99999","V020","360,1,N,0010,1","03600,1,9,N","020000,1,N,1","+0210,1","+0178,1","10162,1","12,0000,9,1","24,0000,9,1",,,,,"08,99,1,01,1,05,1,00800,1,07,1,99,9","0606,9",,"999,N,+0205,1","99999,9,10066,1","2,1,010,1,+999,9",,"SYN106AAXX  20064 08359 12570 83602 10210 20178 30066 40162 52010 60002 8157/ 90700 333 20205 50284 55101 70000;","Q01  00002PRCP24Q02  00002PRCP12"
"08359099999","2010-09-20T18:00:00","4","38.3666666","-0.5","82.0","ALICANTE, SP","FM-12","99999","V020","040,1,N,0015,1","03600,1,9,N","015000,1,N,1","+0210,1","+0203,1","10165,1","12,0119,9,1",,,"8,1,06,1","6,1,06,1",,"08,99,1,01,1,08,1,00800,1,07,1,99,9",,,"999,M,+0254,1","99999,9,10070,1","8,1,002,1,+999,9","60,1","SYN088AAXX  20184 08359 11565 80403 10210 20203 30070 40165 58002 60122 76086 8187/ 333 10254;",
"08359099999","2010-09-21T06:00:00","4","38.3666666","-0.5","82.0","ALICANTE, SP","FM-12","99999","V020","999,9,C,0000,1","22000,1,9,N","020000,1,N,1","+0186,1","+0173,1","10167,1","12,0000,2,1","24,0117,9,1",,,,,"02,99,1,02,1,00,1,99999,9,03,1,00,1","0000,9",,"999,N,+0172,1","99999,9,10071,1","3,1,008,1,+999,9",,"SYN106AAXX  21064 08359 12970 20000 10186 20173 30071 40167 53008 60002 82030 90700 333 20172 50084 55000 70116;",
"08359099999","2010-09-21T18:00:00","4","38.3666666","-0.5","82.0","ALICANTE, SP","FM-12","99999","V020","170,1,N,0010,1","22000,1,9,N","020000,1,N,1","+0242,1","+0209,1","10166,1","12,0000,9,1",,,,,,"05,99,1,01,1,04,1,00800,1,00,1,06,1",,,"999,M,+0290,1","99999,9,10072,1","3,1,003,1,+999,9",,"SYN082AAXX  21184 08359 12570 51702 10242 20209 30072 40166 53003 60002 81406 333 10290;","Q01  00002PRCP12"
"08359099999","2010-09-22T06:00:00","4","38.3666666","-0.5","82.0","ALICANTE, SP","FM-12","99999","V020","999,9,C,0000,1","22000,1,9,N","020000,1,N,1","+0208,1","+0189,1","10189,1","12,0000,9,1","24,0000,9,1",,,,,"06,99,1,04,1,08,1,00800,1,00,1,06,1","0642,9",,"999,N,+0200,1","99999,9,10093,1","3,1,005,1,+999,9",,"SYN106AAXX  22064 08359 12570 60000 10208 20189 30093 40189 53005 60002 84806 90700 333 20200 50234 55107 70000;","Q01  00002PRCP24Q02  00002PRCP12"
"08359099999","2010-09-22T18:00:00","4","38.3666666","-0.5","82.0","ALICANTE, SP","FM-12","99999","V020","999,9,C,0000,1","22000,1,9,N","020000,1,N,1","+0238,1","+0207,1","10186,1","12,0000,9,1",,,,,,"05,99,1,02,1,05,1,00800,1,00,1,06,1",,,"999,M,+0278,1","99999,9,10091,1","6,1,004,1,+999,9",,"SYN082AAXX  22184 08359 12570 50000 10238 20207 30091 40186 56004 60002 82506 333 10278;","Q01  00002PRCP12"
"08359099999","2010-09-23T06:00:00","4","38.3666666","-0.5","82.0","ALICANTE, SP","FM-12","99999","V020","999,9,C,0000,1","99999,9,9,N","020000,1,N,1","+0210,1","+0191,1","10180,1","12,0000,9,1","24,0000,9,1",,,,,"08,99,1,08,1,00,1,99999,9,07,1,99,9","0546,9",,"999,N,+0205,1","99999,9,10084,1","4,1,000,1,+999,9",,"SYN106AAXX  23064 08359 12970 80000 10210 20191 30084 40180 54000 60002 8807/ 90700 333 20205 50204 55091 70000;","Q01  00002PRCP24Q02  00002PRCP12"
"08359099999","2010-09-23T18:00:00","4","38.3666666","-0.5","82.0","ALICANTE, SP","FM-12","99999","V020","200,1,N,0010,1","03600,1,9,N","012000,1,N,1","+0234,1","+0213,1","10130,1","12,0000,9,1",,,"6,1,06,1","2,1,06,1",,"08,99,1,04,1,06,1,00450,1,07,1,99,9",,,"999,M,+0274,1","99999,9,10036,1","6,1,008,1,+999,9","02,1","SYN088AAXX  23184 08359 11462 82002 10234 20213 30036 40130 56008 69912 70262 8467/ 333 10274;","Q01  00002PRCP12"
"08359099999","2010-09-24T06:00:00","4","38.3666666","-0.5","82.0","ALICANTE, SP","FM-12","99999","V020","290,1,N,0026,1","22000,1,9,N","030000,1,N,1","+0208,1","+0147,1","10113,1","12,0030,9,1","24,0033,9,1",,,,,"02,99,1,02,1,00,1,99999,9,04,1,00,1","0006,9",,"999,N,+0200,1","99999,9,10018,1","3,1,003,1,+999,9",,"SYN106AAXX  24064 08359 12980 22905 10208 20147 30018 40113 53003 60032 82040 90700 333 20200 50244 55001 70033;",
"08359099999","2010-09-24T18:00:00","4","38.3666666","-0.5","82.0","ALICANTE, SP","FM-12","99999","V020","310,1,N,0010,1","22000,1,9,N","030000,1,N,1","+0268,1","+0158,1","10098,1","12,0000,9,1",,,,,,"01,99,1,01,1,04,1,00800,1,04,1,00,1",,,"999,M,+0302,1","99999,9,10005,1","4,1,000,1,+999,9",,"SYN082AAXX  24184 08359 12580 13102 10268 20158 30005 40098 54000 60002 81440 333 10302;","Q01  00002PRCP12"
"08359099999","2010-09-25T06:00:00","4","38.3666666","-0.5","82.0","ALICANTE, SP","FM-12","99999","V020","999,9,C,0000,1","22000,1,9,N","030000,1,N,1","+0208,1","+0168,1","10102,1","12,0000,9,1","24,0000,9,1",,,,,"02,99,1,01,1,00,1,99999,9,04,1,02,1","0636,9",,"999,N,+0190,1","99999,9,10007,1","3,1,002,1,+999,9",,"SYN106AAXX  25064 08359 12980 20000 10208 20168 30007 40102 53002 60002 81042 90700 333 20190 50604 55106 70000;","Q01  00002PRCP24Q02  00002PRCP12"
"08359099999","2010-09-25T18:00:00","4","38.3666666","-0.5","82.0","ALICANTE, SP","FM-12","99999","V020","180,1,N,0015,1","22000,1,9,N","030000,1,N,1","+0232,1","+0191,1","10090,1","12,0000,9,1",,,,,"01,1,+01250,1,09,1","03,99,1,02,1,03,1,00800,1,00,1,02,1",,,"120,M,+0295,1","99999,9,09996,1","3,1,004,1,+999,9",,"SYN088AAXX  25184 08359 12580 31803 10232 20191 39996 40090 53004 60002 82302 333 10295 81996;","Q01  00002PRCP12"
"08359099999","2010-09-26T06:00:00","4","38.3666666","-0.5","82.0","ALICANTE, SP","FM-12","99999","V020","330,1,N,0005,1","03600,1,9,N","030000,1,N,1","+0180,1","+0139,1","10096,1","12,0000,9,1","24,0000,9,1",,,,,"05,99,1,04,1,08,1,01250,1,06,1,00,1","0606,9",,"999,N,+0170,1","99999,9,10000,1","3,1,002,1,+999,9",,"SYN106AAXX  26064 08359 12680 53301 10180 20139 30000 40096 53002 60002 84860 90700 333 20170 50334 55101 70000;","Q01  00002PRCP24Q02  00002PRCP12"
"08359099999","2010-09-26T18:00:00","4","38.3666666","-0.5","82.0","ALICANTE, SP","FM-12","99999","V020","090,1,N,0015,1","22000,1,9,N","025000,1,N,1","+0208,1","+0140,1","10108,1","12,0000,9,1",,,,,,"02,99,1,01,1,04,1,00800,1,06,1,00,1",,,"999,M,+0256,1","99999,9,10013,1","3,1,012,1,+999,9",,"SYN082AAXX  26184 08359 12575 20903 10208 20140 30013 40108 53012 60002 81460 333 10256;","Q01  00002PRCP12"
"08359099999","2010-09-27T06:00:00","4","38.3666666","-0.5","82.0","ALICANTE, SP","FM-12","99999","V020","999,9,C,0000,1","22000,1,9,N","025000,1,N,1","+0168,1","+0144,1","10130,1","12,0000,9,1","24,0000,9,1",,,,,"03,99,1,01,1,05,1,00800,1,01,1,03,1","0600,9",,"999,N,+0155,1","99999,9,10033,1","3,1,003,1,+999,9",,"SYN106AAXX  27064 08359 12575 30000 10168 20144 30033 40130 53003 60002 81513 90700 333 20155 50294 55100 70000;","Q01  00002PRCP24Q02  00002PRCP12"
"08359099999","2010-09-27T18:00:00","4","38.3666666","-0.5","82.0","ALICANTE, SP","FM-12","99999","V020","130,1,N,0010,1","00750,1,9,N","020000,1,N,1","+0218,1","+0170,1","10129,1","12,0000,9,1",,,,,,"05,99,1,05,1,05,1,00800,1,00,1,01,1",,,"999,M,+0252,1","99999,9,10034,1","5,1,000,1,+999,9",,"SYN082AAXX  27184 08359 12570 51302 10218 20170 30034 40129 55000 60002 85501 333 10252;","Q01  00002PRCP12"
"08359099999","2010-09-28T06:00:00","4","38.3666666","-0.5","82.0","ALICANTE, SP","FM-12","99999","V020","999,9,C,0000,1","22000,1,9,N","020000,1,N,1","+0178,1","+0147,1","10140,1","12,0000,9,1","24,0000,9,1",,,,"01,1,+01250,1,09,1","03,99,1,01,1,03,1,00800,1,00,1,02,1","0546,9",,"999,N,+0166,1","99999,9,10044,1","3,1,006,1,+999,9",,"SYN112AAXX  28064 08359 12570 30000 10178 20147 30044 40140 53006 60002 81302 90700 333 20166 50304 55091 70000 81996;","Q01  00002PRCP24Q02  00002PRCP12"
"08359099999","2010-09-28T18:00:00","4","38.3666666","-0.5","82.0","ALICANTE, SP","FM-12","99999","V020","160,1,N,0015,1","22000,1,9,N","020000,1,N,1","+0216,1","+0184,1","10166,1","12,0061,9,1",,,"9,1,06,1","8,1,06,1","01,1,+01250,1,09,1","03,99,1,03,1,03,1,00800,1,00,1,00,1",,,"120,M,+0266,1","99999,9,10071,1","3,1,007,1,+999,9","02,1","SYN094AAXX  28184 08359 11570 31603 10216 20184 30071 40166 53007 60062 70298 83300 333 10266 81996;",
"08359099999","2010-09-29T06:00:00","4","38.3666666","-0.5","82.0","ALICANTE, SP","FM-12","99999","V020","999,9,C,0000,1","22000,1,9,N","010000,1,N,1","+0174,1","+0161,1","10182,1","12,0000,9,1","24,0061,9,1",,,,,"03,99,1,03,1,05,1,00800,1,00,1,00,1","0426,9",,"999,N,+0162,1","99999,9,10085,1","3,1,003,1,+999,9",,"SYN106AAXX  29064 08359 12560 30000 10174 20161 30085 40182 53003 60002 83500 90700 333 20162 50204 55071 70060;","Q01  00002PRCP12"
"08359099999","2010-09-29T18:00:00","4","38.3666666","-0.5","82.0","ALICANTE, SP","FM-12","99999","V020","070,1,N,0021,1","99999,9,9,N","020000,1,N,1","+0230,1","+0192,1","10170,1","12,0000,9,1",,,,,,"05,99,1,00,1,00,1,99999,9,00,1,06,1",,,"999,M,+0282,1","99999,9,10075,1","3,1,003,1,+999,9",,"SYN082AAXX  29184 08359 12970 50704 10230 20192 30075 40170 53003 60002 80006 333 10282;","Q01  00002PRCP12"
"08359099999","2010-09-30T06:00:00","4","38.3666666","-0.5","82.0","ALICANTE, SP","FM-12","99999","V020","999,9,C,0000,1","22000,1,9,N","030000,1,N,1","+0168,1","+0137,1","10171,1","12,0000,9,1","24,0000,9,1",,,,,"01,99,1,00,1,00,1,99999,9,00,1,01,1","0618,9",,"999,N,+0150,1","99999,9,10074,1","3,1,003,1,+999,9",,"SYN106AAXX  30064 08359 12980 10000 10168 20137 30074 40171 53003 60002 80001 90700 333 20150 50254 55103 70000;","Q01  00002PRCP24Q02  00002PRCP12"
"08359099999","2010-09-30T18:00:00","4","38.3666666","-0.5","82.0","ALICANTE, SP","FM-12","99999","V020","999,9,C,0000,1","22000,1,9,N","020000,1,N,1","+0232,1","+0187,1","10157,1","12,0000,9,1",,,,,,"03,99,1,00,1,00,1,99999,9,00,1,03,1",,,"999,M,+0276,1","99999,9,10062,1","6,1,003,1,+999,9",,"SYN082AAXX  30184 08359 12970 30000 10232 20187 30062 40157 56003 60002 80003 333 10276;","Q01  00002PRCP12"
"08359099999","2010-10-01T06:00:00","4","38.3666666","-0.5","82.0","ALICANTE, SP","FM-12","99999","V020","350,1,N,0005,1","22000,1,9,N","030000,1,N,1","+0166,1","+0129,1","10150,1","12,0000,9,1","24,0000,9,1",,,,,"01,99,1,00,1,00,1,99999,9,00,1,01,1","0636,9",,"999,N,+0150,1","99999,9,10053,1","3,1,003,1,+999,9",,"SYN106AAXX  01064 08359 12980 13501 10166 20129 30053 40150 53003 60002 80001 90700 333 20150 50274 55106 70000;","Q01  00002PRCP24Q02  00002PRCP12"
"08359099999","2010-10-01T18:00:00","4","38.3666666","-0.5","82.0","ALICANTE, SP","FM-12","99999","V020","170,1,N,0010,1","22000,1,9,N","020000,1,N,1","+0230,1","+0185,1","10134,1","12,0000,9,1",,,,,"00,1,+99999,9,99,9","00,99,1,00,1,00,1,99999,9,00,1,00,1",,,"999,M,+0272,1","99999,9,10039,1","3,1,002,1,+999,9",,"SYN076AAXX  01184 08359 12970 01702 10230 20185 30039 40134 53002 60002 333 10272;","Q01  00002PRCP12"
"08359099999","2010-10-02T06:00:00","4","38.3666666","-0.5","82.0","ALICANTE, SP","FM-12","99999","V020","999,9,C,0000,1","22000,1,9,N","018000,1,N,1","+0176,1","+0163,1","10142,1","12,0000,9,1","24,0000,9,1",,,,,"02,99,1,02,1,05,1,00800,1,00,1,00,1","0630,9",,"999,N,+0165,1","99999,9,10046,1","3,1,004,1,+999,9",,"SYN106AAXX  02064 08359 12568 20000 10176 20163 30046 40142 53004 60002 82500 90700 333 20165 50244 55105 70000;","Q01  00002PRCP24Q02  00002PRCP12"
"08359099999","2010-10-02T18:00:00","4","38.3666666","-0.5","82.0","ALICANTE, SP","FM-12","99999","V020","150,1,N,0005,1","99999,9,9,N","020000,1,N,1","+0226,1","+0182,1","10134,1","12,0000,9,1",,,,,,"05,99,1,00,1,00,1,99999,9,00,1,05,1",,,"999,M,+0272,1","99999,9,10039,1","6,1,003,1,+999,9",,"SYN082AAXX  02184 08359 12970 51501 10226 20182 30039 40134 56003 60002 80005 333 10272;","Q01  00002PRCP12"
"08359099999","2010-10-03T06:00:00","4","38.3666666","-0.5","82.0","ALICANTE, SP","FM-12","99999","V020","999,9,C,0000,1","99999,9,9,N","020000,1,N,1","+0176,1","+0159,1","10117,1","12,0000,9,1","24,0000,9,1",,,,,"05,99,1,00,1,00,1,99999,9,00,1,06,1","0612,9",,"999,N,+0170,1","99999,9,10021,1","6,1,005,1,+999,9",,"SYN106AAXX  03064 08359 12970 50000 10176 20159 30021 40117 56005 60002 80006 90700 333 20170 50274 55102 70000;","Q01  00002PRCP24Q02  00002PRCP12"
"08359099999","2010-10-03T18:00:00","4","38.3666666","-0.5","82.0","ALICANTE, SP","FM-12","99999","V020","070,1,N,0015,1","99999,9,9,N","015000,1,N,1","+0246,1","+0188,1","10054,1","12,0000,9,1",,,,,,"06,99,1,04,1,00,1,99999,9,07,1,02,1",,,"999,M,+0276,1","99999,9,09961,1","6,1,016,1,+999,9",,"SYN082AAXX  03184 08359 12965 60703 10246 20188 39961 40054 56016 60002 84072 333 10276;","Q01  00002PRCP12"
"08359099999","2010-10-04T06:00:00","4","38.3666666","-0.5","82.0","ALICANTE, SP","FM-12","99999","V020","300,1,N,0015,1","03600,1,9,N","020000,1,N,1","+0212,1","+0112,1","10058,1","12,0000,9,1",,,,,,"07,99,1,03,1,05,1,01250,1,04,1,03,1",,,"999,N,+0200,1","99999,9,09963,1","1,1,014,1,+999,9",,"SYN088AAXX  04064 08359 12670 73003 10212 20112 39963 40058 51014 60002 83543 90700 333 20200;","Q01  00002PRCP12"
"08359099999","2010-10-04T18:00:00","4","38.3666666","-0.5","82.0","ALICANTE, SP","FM-12","99999","V020","330,1,N,0015,1","99999,9,9,N","030000,1,N,1","+0234,1","+0105,1","10085,1","12,0000,9,1",,,,,,"06,99,1,02,1,00,1,99999,9,04,1,09,1",,,"999,M,+0270,1","99999,9,09991,1","2,1,012,1,+999,9",,"SYN082AAXX  04184 08359 12980 63303 10234 20105 39991 40085 52012 60002 82049 333 10270;","Q01  00002PRCP12"
"08359099999","2010-10-05T06:00:00","4","38.3666666","-0.5","82.0","ALICANTE, SP","FM-12","99999","V020","330,1,N,0005,1","22000,1,9,N","040000,1,N,1","+0164,1","+0105,1","10135,1","12,0000,9,1","24,0000,9,1",,,,"00,1,+99999,9,99,9","00,99,1,00,1,00,1,99999,9,00,1,00,1","0210,9",,"999,N,+0155,1","99999,9,10038,1","3,1,007,1,+999,9",,"SYN100AAXX  05064 08359 12982 03301 10164 20105 30038 40135 53007 60002 90700 333 20155 50584 55035 70000;","Q01  00002PRCP24Q02  00002PRCP12"
"08359099999","2010-10-07T18:00:00","4","38.3666666","-0.5","82.0","ALICANTE, SP","FM-12","99999","V020","999,9,C,0000,1","22000,1,9,N","015000,1,N,1","+0244,1","+0205,1","10121,1","12,0000,9,1",,,,,,"03,99,1,02,1,05,1,00800,1,03,1,04,1",,,"999,M,+0290,1","99999,9,10027,1","3,1,003,1,+999,9",,"SYN082AAXX  07184 08359 12565 30000 10244 20205 30027 40121 53003 60002 82534 333 10290;","Q01  00002PRCP12"
"08359099999","2010-10-08T06:00:00","4","38.3666666","-0.5","82.0","ALICANTE, SP","FM-12","99999","V020","999,9,C,0000,1","22000,1,9,N","015000,1,N,1","+0202,1","+0192,1","10136,1","12,0000,9,1","24,0000,9,1",,,,,"01,99,1,00,1,00,1,99999,9,00,1,02,1",,,"999,N,+0192,1","99999,9,10041,1","3,1,003,1,+999,9",,"SYN106AAXX  08064 08359 12965 10000 10202 20192 30041 40136 53003 60002 80002 90700 333 20192 50204 55/// 70000;","Q01  00002PRCP24Q02  00002PRCP12"
"08359099999","2010-10-08T18:00:00","4","38.3666666","-0.5","82.0","ALICANTE, SP","FM-12","99999","V020","080,1,N,0010,1","22000,1,9,N","015000,1,N,1","+0226,1","+0205,1","10126,1","12,0000,9,1",,,,,,"02,99,1,02,1,08,1,00800,1,00,1,02,1",,,"999,M,+0278,1","99999,9,10031,1","6,1,002,1,+999,9",,"SYN082AAXX  08184 08359 12565 20802 10226 20205 30031 40126 56002 60002 82802 333 10278;","Q01  00002PRCP12"
"08359099999","2010-10-09T06:00:00","4","38.3666666","-0.5","82.0","ALICANTE, SP","FM-12","99999","V020","999,9,C,0000,1","22000,1,9,N","015000,1,N,1","+0182,1","+0172,1","10126,1","12,0000,9,1","24,0000,9,1",,,,,"02,99,1,01,1,05,1,00800,1,00,1,02,1","0552,9",,"999,N,+0178,1","99999,9,10030,1","4,1,000,1,+999,9",,"SYN106AAXX  09064 08359 12565 20000 10182 20172 30030 40126 54000 60002 81502 90700 333 20178 50194 55092 70000;","Q01  00002PRCP24Q02  00002PRCP12"
"08359099999","2010-10-09T18:00:00","4","38.3666666","-0.5","82.0","ALICANTE, SP","FM-12","99999","V020","220,1,N,0015,1","01200,1,9,N","012000,1,N,1","+0228,1","+0207,1","10083,1","12,0000,9,1",,,,,,"06,99,1,05,1,08,1,00800,1,03,1,02,1",,,"999,M,+0264,1","99999,9,09989,1","6,1,004,1,+999,9",,"SYN082AAXX  09184 08359 12562 62203 10228 20207 39989 40083 56004 60002 85832 333 10264;","Q01  00002PRCP12"
"08359099999","2010-10-10T06:00:00","4","38.3666666","-0.5","82.0","ALICANTE, SP","FM-12","99999","V020","300,1,N,0021,1","99999,9,9,N","030000,1,N,1","+0180,1","+0118,1","10031,1","12,0119,9,1","24,0122,9,1",,"8,1,06,1","2,1,06,1",,"05,99,1,02,1,00,1,99999,9,04,1,02,1","0396,9",,"999,N,+0165,1","99999,9,09936,1","8,1,006,1,+999,9","02,1","SYN112AAXX  10064 08359 11980 53004 10180 20118 39936 40031 58006 60122 70282 82042 90700 333 20165 50184 55066 70122;",
"08359099999","2010-10-10T18:00:00","4","38.3666666","-0.5","82.0","ALICANTE, SP","FM-12","99999","V020","290,1,N,0015,1","03600,1,9,N","030000,1,N,1","+0196,1","+0116,1","10003,1","12,0000,9,1",,,,,,"06,99,1,02,1,04,1,01250,1,04,1,02,1",,,"999,M,+0240,1","99999,9,09908,1","6,1,002,1,+999,9",,"SYN082AAXX  10184 08359 12680 62903 10196 20116 39908 40003 56002 60002 82442 333 10240;","Q01  00002PRCP12"
"08359099999","2010-10-11T06:00:00","4","38.3666666","-0.5","82.0","ALICANTE, SP","FM-12","99999","V020","320,1,N,0005,1","22000,1,9,N","030000,1,N,1","+0152,1","+0112,1","09986,1","12,0000,9,1","24,0003,9,1",,,,,"02,99,1,01,1,02,1,00800,1,04,1,01,1","0204,9",,"999,N,+0145,1","99999,9,09890,1","3,1,003,1,+999,9",,"SYN106AAXX  11064 08359 12580 23201 10152 20112 39890 49986 53003 60002 81241 90700 333 20145 50354 55034 70002;","Q01  00002PRCP12"
"08359099999","2010-10-11T18:00:00","4","38.3666666","-0.5","82.0","ALICANTE, SP","FM-12","99999","V020","310,1,N,0005,1","03600,1,9,N","030000,1,N,1","+0186,1","+0149,1","10004,1","12,0000,9,1",,,"9,1,06,1","2,1,06,1",,"06,99,1,01,1,02,1,00800,1,07,1,00,1",,,"999,M,+0240,1","99999,9,09909,1","3,1,010,1,+999,9","02,1","SYN088AAXX  11184 08359 11580 63101 10186 20149 39909 40004 53010 60002 70292 81270 333 10240;","Q01  00002PRCP12"
"08359099999","2010-10-12T06:00:00","4","38.3666666","-0.5","82.0","ALICANTE, SP","FM-12","99999","V020","290,1,N,0010,1","99999,9,9,N","040000,1,N,1","+0172,1","+0129,1","10018,1","12,0000,9,1","24,0003,9,1",,,,,"06,99,1,01,1,02,1,99999,9,04,1,06,1","0444,9",,"999,N,+0146,1","99999,9,09922,1","1,1,002,1,+999,9",,"SYN106AAXX  12064 08359 12982 62902 10172 20129 39922 40018 51002 60002 81246 90700 333 20146 50274 55074 70002;","Q01  00002PRCP12"
"08359099999","2010-10-12T18:00:00","4","38.3666666","-0.5","82.0","ALICANTE, SP","FM-12","99999","V020","290,1,N,0026,1","99999,9,9,N","015000,1,N,1","+0162,1","+0149,1","10013,1","12,0010,9,1",,,"6,1,06,1","2,1,06,1",,"08,99,1,08,1,00,1,99999,9,07,1,99,9",,,"999,M,+0232,1","99999,9,09917,1","3,1,004,1,+999,9","63,1","SYN088AAXX  12184 08359 11965 82905 10162 20149 39917 40013 53004 60012 76362 8807/ 333 10232;",
"08359099999","2010-10-13T06:00:00","4","38.3666666","-0.5","82.0","ALICANTE, SP","FM-12","99999","V020","340,1,N,0026,1","03600,1,9,N","030000,1,N,1","+0188,1","+0132,1","10035,1","12,0020,9,1","24,0033,9,1",,,,,"06,99,1,03,1,08,1,00800,1,04,1,06,1","0162,9",,"999,N,+0156,1","99999,9,09940,1","1,1,020,1,+999,9",,"SYN106AAXX  13064 08359 12580 63405 10188 20132 39940 40035 51020 60022 83846 90700 333 20156 50614 55027 70032;",
"08359099999","2010-10-13T18:00:00","4","38.3666666","-0.5","82.0","ALICANTE, SP","FM-12","99999","V020","150,1,N,0005,1","01200,1,9,N","030000,1,N,1","+0208,1","+0156,1","10104,1","12,0000,9,1",,,,,,"06,99,1,05,1,05,1,01250,1,04,1,00,1",,,"999,M,+0240,1","99999,9,10009,1","2,1,010,1,+999,9",,"SYN082AAXX  13184 08359 12680 61501 10208 20156 30009 40104 52010 60002 85540 333 10240;","Q01  00002PRCP12"
"08359099999","2010-10-14T06:00:00","4","38.3666666","-0.5","82.0","ALICANTE, SP","FM-12","99999","V020","999,9,C,0000,1","99999,9,9,N","030000,1,N,1","+0162,1","+0152,1","10121,1","12,0000,9,1","24,0000,9,1",,,,,"05,99,1,05,1,00,1,99999,9,07,1,00,1","0270,9",,"999,N,+0156,1","99999,9,10024,1","3,1,003,1,+999,9",,"SYN106AAXX  14064 08359 12980 50000 10162 20152 30024 40121 53003 60002 85070 90700 333 20156 50264 55045 70000;","Q01  00002PRCP24Q02  00002PRCP12"
"08359099999","2010-10-14T18:00:00","4","38.3666666","-0.5","82.0","ALICANTE, SP","FM-12","99999","V020","240,1,N,0005,1","22000,1,9,N","025000,1,N,1","+0216,1","+0170,1","10108,1","12,0000,9,1",,,,,,"02,99,1,01,1,02,1,01250,1,06,1,00,1",,,"999,M,+0275,1","99999,9,10013,1","4,1,000,1,+999,9",,"SYN082AAXX  14184 08359 12675 22401 10216 20170 30013 40108 54000 60002 81260 333 10275;","Q01  00002PRCP12"
"08359099999","2010-10-15T06:00:00","4","38.3666666","-0.5","82.0","ALICANTE, SP","FM-12","99999","V020","320,1,N,0005,1","22000,1,9,N","015000,1,N,1","+0168,1","+0148,1","10106,1","12,0000,9,1","24,0000,9,1",,,,,"04,99,1,01,1,08,1,00800,1,08,1,00,1","0468,9",,"999,N,+0162,1","99999,9,10010,1","3,1,003,1,+999,9",,"SYN106AAXX  15064 08359 12565 43201 10168 20148 30010 40106 53003 60002 81880 90700 333 20162 50274 55078 70000;","Q01  00002PRCP24Q02  00002PRCP12"
"08359099999","2010-10-15T18:00:00","4","38.3666666","-0.5","82.0","ALICANTE, SP","FM-12","99999","V020","999,9,C,0000,1","22000,1,9,N","012000,1,N,1","+0194,1","+0172,1","10107,1","12,0000,9,1",,,"8,1,06,1","1,1,06,1","01,1,+01250,1,09,1","03,99,1,03,1,03,1,00800,1,06,1,00,1",,,"120,M,+0235,1","99999,9,10011,1","3,1,006,1,+999,9","01,1","SYN094AAXX  15184 08359 11562 30000 10194 20172 30011 40107 53006 69902 70181 83360 333 10235 81996;","Q01  00002PRCP12"
"08359099999","2010-10-16T06:00:00","4","38.3666666","-0.5","82.0","ALICANTE, SP","FM-12","99999","V020","999,9,C,0000,1","22000,1,9,N","020000,1,N,1","+0134,1","+0115,1","10112,1","12,0000,9,1","24,0000,9,1",,,,,"02,99,1,02,1,05,1,00800,1,00,1,00,1","0270,9",,"999,N,+0130,1","99999,9,10014,1","3,1,002,1,+999,9",,"SYN106AAXX  16064 08359 12570 20000 10134 20115 30014 40112 53002 60002 82500 90700 333 20130 50164 55045 79999;","Q01  00002PRCP24Q02  00002PRCP12"
"08359099999","2010-10-16T18:00:00","4","38.3666666","-0.5","82.0","ALICANTE, SP","FM-12","99999","V020","080,1,N,0010,1","00750,1,9,N","015000,1,N,1","+0194,1","+0175,1","10104,1","12,0000,9,1",,,,,,"05,99,1,05,1,05,1,00800,1,00,1,00,1",,,"999,M,+0230,1","99999,9,10009,1","3,1,007,1,+999,9",,"SYN082AAXX  16184 08359 12565 50802 10194 20175 30009 40104 53007 60002 85500 333 10230;","Q01  00002PRCP12"
"08359099999","2010-10-17T06:00:00","4","38.3666666","-0.5","82.0","ALICANTE, SP","FM-12","99999","V020","999,9,C,0000,1","22000,1,9,N","020000,1,N,1","+0142,1","+0128,1","10120,1","12,0000,9,1","24,0000,9,1",,,,,"02,99,1,02,1,00,1,99999,9,03,1,09,1","0570,9",,"999,N,+0140,1","99999,9,10022,1","3,1,002,1,+999,9",,"SYN106AAXX  17064 08359 12970 20000 10142 20128 30022 40120 53002 60002 82039 90700 333 20140 50164 55095 70000;","Q01  00002PRCP24Q02  00002PRCP12"
"08359099999","2010-10-17T18:00:00","4","38.3666666","-0.5","82.0","ALICANTE, SP","FM-12","99999","V020","150,1,N,0005,1","22000,1,9,N","030000,1,N,1","+0178,1","+0129,1","10143,1","12,0000,9,1",,,,,"00,1,+99999,9,99,9","00,99,1,00,1,00,1,99999,9,00,1,00,1",,,"999,M,+0236,1","99999,9,10046,1","3,1,015,1,+999,9",,"SYN076AAXX  17184 08359 12980 01501 10178 20129 30046 40143 53015 60002 333 10236;","Q01  00002PRCP12"
"08359099999","2010-10-18T06:00:00","4","38.3666666","-0.5","82.0","ALICANTE, SP","FM-12","99999","V020","330,1,N,0010,1","22000,1,9,N","040000,1,N,1","+0098,1","+0022,1","10173,1","12,0000,9,1","24,0000,9,1",,,,,"01,99,1,00,1,00,1,99999,9,00,1,01,1","0582,9",,"999,N,+0088,1","99999,9,10073,1","3,1,005,1,+999,9",,"SYN106AAXX  18064 08359 12982 13302 10098 20022 30073 40173 53005 60002 80001 90700 333 20088 50354 55097 70000;","Q01  00002PRCP24Q02  00002PRCP12"
"08359099999","2010-10-18T18:00:00","4","38.3666666","-0.5","82.0","ALICANTE, SP","FM-12","99999","V020","999,9,C,0000,1","22000,1,9,N","030000,1,N,1","+0156,1","+0099,1","10175,1","12,0000,9,1",,,,,"00,1,+99999,9,99,9","00,99,1,00,1,00,1,99999,9,00,1,00,1",,,"999,M,+0216,1","99999,9,10077,1","3,1,004,1,+999,9",,"SYN076AAXX  18184 08359 12980 00000 10156 20099 30077 40175 53004 60002 333 10216;","Q01  00002PRCP12"
"08359099999","2010-10-19T06:00:00","4","38.3666666","-0.5","82.0","ALICANTE, SP","FM-12","99999","V020","330,1,N,0005,1","22000,1,9,N","040000,1,N,1","+0086,1","+0044,1","10175,1","12,0000,9,1","24,0000,9,1",,,,"00,1,+99999,9,99,9","00,99,1,00,1,00,1,99999,9,00,1,00,1","0636,9",,"999,N,+0075,1","99999,9,10075,1","3,1,006,1,+999,9",,"SYN100AAXX  19064 08359 12982 03301 10086 20044 30075 40175 53006 60002 90700 333 20075 50304 55106 70000;","Q01  00002PRCP24Q02  00002PRCP12"
"08359099999","2010-10-19T18:00:00","4","38.3666666","-0.5","82.0","ALICANTE, SP","FM-12","99999","V020","110,1,N,0010,1","22000,1,9,N","040000,1,N,1","+0162,1","+0079,1","10165,1","12,0000,9,1",,,,,,"01,99,1,00,1,00,1,99999,9,00,1,01,1",,,"999,M,+0210,1","99999,9,10068,1","3,1,004,1,+999,9",,"SYN082AAXX  19184 08359 12982 11102 10162 20079 30068 40165 53004 60002 80001 333 10210;","Q01  00002PRCP12"
"08359099999","2010-10-20T06:00:00","4","38.3666666","-0.5","82.0","ALICANTE, SP","FM-12","99999","V020","999,9,C,0000,1","22000,1,9,N","040000,1,N,1","+0086,1","+0050,1","10162,1","12,0000,9,1","24,0000,9,1",,,,,"01,99,1,00,1,00,1,99999,9,00,1,01,1","0624,9",,"999,N,+0075,1","99999,9,10062,1","3,1,006,1,+999,9",,"SYN106AAXX  20064 08359 12982 10000 10086 20050 30062 40162 53006 60002 80001 90700 333 20075 50314 55104 70000;","Q01  00002PRCP24Q02  00002PRCP12"
"08359099999","2010-10-20T18:00:00","4","38.3666666","-0.5","82.0","ALICANTE, SP","FM-12","99999","V020","999,9,C,0000,1","22000,1,9,N","020000,1,N,1","+0168,1","+0133,1","10173,1","12,0000,9,1",,,,,,"01,99,1,00,1,00,1,99999,9,00,1,02,1",,,"999,M,+0225,1","99999,9,10076,1","3,1,012,1,+999,9",,"SYN082AAXX  20184 08359 12970 10000 10168 20133 30076 40173 53012 60002 80002 333 10225;","Q01  00002PRCP12"
"08359099999","2010-10-21T06:00:00","4","38.3666666","-0.5","82.0","ALICANTE, SP","FM-12","99999","V020","999,9,C,0000,1","22000,1,9,N","020000,1,N,1","+0106,1","+0094,1","10215,1","12,0000,9,1","24,0000,9,1",,,,,"01,99,1,01,1,08,1,00800,1,00,1,00,1","0618,9",,"999,N,+0100,1","99999,9,10115,1","2,1,010,1,+999,9",,"SYN106AAXX  21064 08359 12570 10000 10106 20094 30115 40215 52010 60002 81800 90700 333 20100 50244 55103 70000;","Q01  00002PRCP24Q02  00002PRCP12"
"08359099999","2010-10-21T18:00:00","4","38.3666666","-0.5","82.0","ALICANTE, SP","FM-12","99999","V020","090,1,N,0010,1","00750,1,9,N","020000,1,N,1","+0192,1","+0147,1","10221,1","12,0000,9,1",,,,,,"05,99,1,05,1,04,1,00800,1,03,1,00,1",,,"999,M,+0228,1","99999,9,10124,1","3,1,002,1,+999,9",,"SYN082AAXX  21184 08359 12570 50902 10192 20147 30124 40221 53002 60002 85430 333 10228;","Q01  00002PRCP12"
"08359099999","2010-10-22T06:00:00","4","38.3666666","-0.5","82.0","ALICANTE, SP","FM-12","99999","V020","999,9,C,0000,1","22000,1,9,N","030000,1,N,1","+0116,1","+0100,1","10224,1","12,0000,9,1","24,0000,9,1",,,,,"02,99,1,02,1,00,1,99999,9,06,1,00,1","0606,9",,"999,N,+0110,1","99999,9,10127,1","3,1,002,1,+999,9",,"SYN106AAXX  22064 08359 12980 20000 10116 20100 30127 40224 53002 60002 82060 90700 333 20110 50204 55101 70000;","Q01  00002PRCP24Q02  00002PRCP12"
"08359099999","2010-10-22T18:00:00","4","38.3666666","-0.5","82.0","ALICANTE, SP","FM-12","99999","V020","999,9,C,0000,1","22000,1,9,N","020000,1,N,1","+0180,1","+0141,1","10203,1","12,0000,9,1",,,,,,"06,99,1,01,1,04,1,00800,1,00,1,06,1",,,"999,M,+0230,1","99999,9,10106,1","6,1,004,1,+999,9",,"SYN082AAXX  22184 08359 12570 60000 10180 20141 30106 40203 56004 60002 81406 333 10230;","Q01  00002PRCP12"
"08359099999","2010-10-23T06:00:00","4","38.3666666","-0.5","82.0","ALICANTE, SP","FM-12","99999","V020","999,9,C,0000,1","99999,9,9,N","030000,1,N,1","+0134,1","+0120,1","10181,1","12,0000,9,1","24,0000,9,1",,,,,"05,99,1,05,1,00,1,99999,9,07,1,02,1","0534,9",,"999,N,+0132,1","99999,9,10083,1","6,1,004,1,+999,9",,"SYN106AAXX  23064 08359 12980 50000 10134 20120 30083 40181 56004 60002 85072 90700 333 20132 50234 55089 70000;","Q01  00002PRCP24Q02  00002PRCP12"
"08359099999","2010-10-23T18:00:00","4","38.3666666","-0.5","82.0","ALICANTE, SP","FM-12","99999","V020","999,9,C,0000,1","99999,9,9,N","020000,1,N,1","+0172,1","+0148,1","10170,1","12,0000,9,1",,,,,,"05,99,1,00,1,00,1,99999,9,00,1,06,1",,,"999,M,+0230,1","99999,9,10073,1","6,1,003,1,+999,9",,"SYN082AAXX  23184 08359 12970 50000 10172 20148 30073 40170 56003 60002 80006 333 10230;","Q01  00002PRCP12"
"08359099999","2010-10-24T06:00:00","4","38.3666666","-0.5","82.0","ALICANTE, SP","FM-12","99999","V020","999,9,C,0000,1","22000,1,9,N","020000,1,N,1","+0116,1","+0108,1","10165,1","12,0000,9,1","24,0000,9,1",,,,,"02,99,1,00,1,00,1,99999,9,00,1,08,1","0372,9",,"999,N,+0110,1","99999,9,10066,1","4,1,000,1,+999,9",,"SYN106AAXX  24064 08359 12970 20000 10116 20108 30066 40165 54000 60002 80008 90700 333 20110 50174 55062 70000;","Q01  00002PRCP24Q02  00002PRCP12"
"08359099999","2010-10-24T18:00:00","4","38.3666666","-0.5","82.0","ALICANTE, SP","FM-12","99999","V020","999,9,C,0000,1","22000,1,9,N","018000,1,N,1","+0194,1","+0172,1","10128,1","12,0000,9,1",,,,,,"01,99,1,00,1,00,1,99999,9,00,1,01,1",,,"999,M,+0252,1","99999,9,10032,1","5,1,000,1,+999,9",,"SYN082AAXX  24184 08359 12968 10000 10194 20172 30032 40128 55000 60002 80001 333 10252;","Q01  00002PRCP12"
"08359099999","2010-10-25T06:00:00","4","38.3666666","-0.5","82.0","ALICANTE, SP","FM-12","99999","V020","999,9,C,0000,1","09000,1,9,N","020000,1,N,1","+0164,1","+0142,1","10138,1","12,0000,9,1","24,0000,9,1",,,,,"05,99,1,01,1,08,1,00800,1,04,1,06,1","0600,9",,"999,N,+0155,1","99999,9,10041,1","2,1,014,1,+999,9",,"SYN106AAXX  25064 08359 12570 50000 10164 20142 30041 40138 52014 60002 81846 90700 333 20155 50254 55100 70000;","Q01  00002PRCP24Q02  00002PRCP12"
"08359099999","2010-10-25T18:00:00","4","38.3666666","-0.5","82.0","ALICANTE, SP","FM-12","99999","V020","340,1,N,0021,1","99999,9,9,N","040000,1,N,1","+0190,1","+0061,1","10172,1","12,0000,9,1",,,,,,"05,99,1,00,1,00,1,99999,9,00,1,06,1",,,"999,M,+0244,1","99999,9,10075,1","2,1,017,1,+999,9",,"SYN082AAXX  25184 08359 12982 53404 10190 20061 30075 40172 52017 60002 80006 333 10244;","Q01  00002PRCP12"
"08359099999","2010-10-26T06:00:00","4","38.3666666","-0.5","82.0","ALICANTE, SP","FM-12","99999","V020","300,1,N,0010,1","22000,1,9,N","040000,1,N,1","+0088,1","-0010,1","10208,1","12,0000,9,1","24,0000,9,1",,,,"00,1,+99999,9,99,9","00,99,1,00,1,00,1,99999,9,00,1,00,1","0528,9",,"999,N,+0075,1","99999,9,10107,1","0,1,005,1,+999,9",,"SYN100AAXX  26064 08359 12982 03002 10088 21010 30107 40208 50005 60002 90700 333 20075 50674 55088 70000;","Q01  00002PRCP24Q02  00002PRCP12"
"08359099999","2010-10-26T18:00:00","4","38.3666666","-0.5","82.0","ALICANTE, SP","FM-12","99999","V020","230,1,N,0005,1","22000,1,9,N","030000,1,N,1","+0148,1","+0085,1","10239,1","12,0000,9,1",,,,,,"02,99,1,00,1,00,1,99999,9,00,1,02,1",,,"999,M,+0212,1","99999,9,10140,1","2,1,010,1,+999,9",,"SYN082AAXX  26184 08359 12980 22301 10148 20085 30140 40239 52010 60002 80002 333 10212;","Q01  00002PRCP12"
"08359099999","2010-10-27T06:00:00","4","38.3666666","-0.5","82.0","ALICANTE, SP","FM-12","99999","V020","999,9,C,0000,1","22000,1,9,N","020000,1,N,1","+0066,1","+0032,1","10252,1","12,0000,9,1","24,0000,9,1",,,,"00,1,+99999,9,99,9","00,99,1,00,1,00,1,99999,9,00,1,00,1","0606,9",,"999,N,+0055,1","99999,9,10150,1","3,1,005,1,+999,9",,"SYN100AAXX  27064 08359 12970 00000 10066 20032 30150 40252 53005 60002 90700 333 20055 50364 55101 70000;","Q01  00002PRCP24Q02  00002PRCP12"
"08359099999","2010-10-27T18:00:00","4","38.3666666","-0.5","82.0","ALICANTE, SP","FM-12","99999","V020","999,9,C,0000,1","22000,1,9,N","030000,1,N,1","+0160,1","+0142,1","10250,1","12,0000,9,1",,,,,,"01,99,1,00,1,00,1,99999,9,00,1,01,1",,,"999,M,+0212,1","99999,9,10152,1","3,1,003,1,+999,9",,"SYN082AAXX  27184 08359 12980 10000 10160 20142 30152 40250 53003 60002 80001 333 10212;","Q01  00002PRCP12"
"08359099999","2010-10-28T06:00:00","4","38.3666666","-0.5","82.0","ALICANTE, SP","FM-12","99999","V020","999,9,C,0000,1","99999,9,9,N","020000,1,N,1","+0098,1","+0060,1","10240,1","12,0000,9,1","24,0000,9,1",,,,,"08,99,1,00,1,00,1,99999,9,00,1,06,1","0600,9",,"999,N,+0080,1","99999,9,10140,1","3,1,002,1,+999,9",,"SYN106AAXX  28064 08359 12970 80000 10098 20060 30140 40240 53002 60002 80006 90700 333 20080 50234 55100 70000;","Q01  00002PRCP24Q02  00002PRCP12"
"08359099999","2010-10-28T18:00:00","4","38.3666666","-0.5","82.0","ALICANTE, SP","FM-12","99999","V020","999,9,C,0000,1","99999,9,9,N","018000,1,N,1","+0170,1","+0146,1","10222,1","12,0000,9,1",,,,,,"06,99,1,05,1,00,1,99999,9,03,1,09,1",,,"999,M,+0228,1","99999,9,10124,1","6,1,003,1,+999,9",,"SYN082AAXX  28184 08359 12968 60000 10170 20146 30124 40222 56003 60002 85039 333 10228;","Q01  00002PRCP12"
"08359099999","2010-10-29T06:00:00","4","38.3666666","-0.5","82.0","ALICANTE, SP","FM-12","99999","V020","999,9,C,0000,1","99999,9,9,N","020000,1,N,1","+0096,1","+0061,1","10185,1","12,0000,9,1","24,0000,9,1",,,,,"05,99,1,00,1,00,1,99999,9,00,1,06,1","0306,9",,"999,N,+0090,1","99999,9,10085,1","6,1,005,1,+999,9",,"SYN106AAXX  29064 08359 12970 50000 10096 20061 30085 40185 56005 60002 80006 90700 333 20090 50194 55051 70000;","Q01  00002PRCP24Q02  00002PRCP12"
"08359099999","2010-10-29T18:00:00","4","38.3666666","-0.5","82.0","ALICANTE, SP","FM-12","99999","V020","999,9,C,0000,1","99999,9,9,N","015000,1,N,1","+0172,1","+0155,1","10145,1","12,0000,9,1",,,,,,"06,99,1,03,1,00,1,99999,9,02,1,06,1",,,"999,M,+0226,1","99999,9,10048,1","6,1,005,1,+999,9",,"SYN082AAXX  29184 08359 12965 60000 10172 20155 30048 40145 56005 60002 83026 333 10226;","Q01  00002PRCP12"
"08359099999","2010-10-30T06:00:00","4","38.3666666","-0.5","82.0","ALICANTE, SP","FM-12","99999","V020","270,1,N,0010,1","99999,9,9,N","030000,1,N,1","+0144,1","+0098,1","10124,1","12,0000,9,1","24,0000,9,1",,,,,"05,99,1,03,1,00,1,99999,9,03,1,06,1","0486,9",,"999,N,+0125,1","99999,9,10026,1","1,1,004,1,+999,9",,"SYN106AAXX  30064 08359 12980 52702 10144 20098 30026 40124 51004 60002 83036 90700 333 20125 50244 55081 70000;","Q01  00002PRCP24Q02  00002PRCP12"
"08359099999","2010-10-30T18:00:00","4","38.3666666","-0.5","82.0","ALICANTE, SP","FM-12","99999","V020","999,9,C,0000,1","99999,9,9,N","020000,1,N,1","+0154,1","+0122,1","10107,1","12,0000,9,1",,,"6,1,06,1","2,1,06,1",,"08,99,1,08,1,00,1,99999,9,07,1,99,9",,,"999,M,+0202,1","99999,9,10010,1","5,1,005,1,+999,9","02,1","SYN088AAXX  30184 08359 11970 80000 10154 20122 30010 40107 55005 69922 70262 8807/ 333 10202;","Q01  00002PRCP12"
"08359099999","2010-10-31T06:00:00","4","38.3666666","-0.5","82.0","ALICANTE, SP","FM-12","99999","V020","999,9,C,0000,1","99999,9,9,N","020000,1,N,1","+0152,1","+0131,1","10021,1","12,9999,9,9","24,0003,9,1",,"6,1,06,1","2,1,06,1",,"08,99,1,08,1,00,1,99999,9,07,1,99,9","0072,9",,"999,N,+0140,1","99999,9,09925,1","5,1,004,1,+999,9","60,1","SYN112AAXX  31064 08359 11970 80000 10152 20131 39925 40021 55004 69912 76062 8807/ 90700 333 20140 50244 55012 70003;","Q01  00002PRCP12Q02  00002PRCP12"
"08359099999","2010-10-31T18:00:00","4","38.3666666","-0.5","82.0","ALICANTE, SP","FM-12","99999","V020","280,1,N,0021,1","22000,1,9,N","030000,1,N,1","+0170,1","+0099,1","10030,1","12,0030,9,1",,,,,,"03,99,1,01,1,04,1,00800,1,04,1,00,1",,,"999,M,+0225,1","99999,9,09934,1","2,1,016,1,+999,9",,"SYN082AAXX  31184 08359 12580 32804 10170 20099 39934 40030 52016 60032 81440 333 10225;",
"08359099999","2010-11-01T06:00:00","4","38.3666666","-0.5","82.0","ALICANTE, SP","FM-12","99999","V020","260,1,N,0005,1","09000,1,9,N","040000,1,N,1","+0146,1","+0092,1","10083,1","12,0000,9,1","24,0033,9,1",,,,,"05,99,1,01,1,08,1,01250,1,04,1,02,1","0384,9",,"999,N,+0146,1","99999,9,09986,1","3,1,018,1,+999,9",,"SYN106AAXX  01064 08359 12682 52601 10146 20092 39986 40083 53018 60002 81842 90700 333 20146 50474 55064 70032;","Q01  00002PRCP12"
"08359099999","2010-11-01T18:00:00","4","38.3666666","-0.5","82.0","ALICANTE, SP","FM-12","99999","V020","330,1,N,0010,1","22000,1,9,N","040000,1,N,1","+0204,1","+0081,1","10108,1","12,0000,9,1",,,,,,"04,99,1,03,1,04,1,00800,1,04,1,00,1",,,"999,M,+0234,1","99999,9,10013,1","2,1,013,1,+999,9",,"SYN082AAXX  01184 08359 12582 43302 10204 20081 30013 40108 52013 60002 83440 333 10234;","Q01  00002PRCP12"
"08359099999","2010-11-02T06:00:00","4","38.3666666","-0.5","82.0","ALICANTE, SP","FM-12","99999","V020","330,1,N,0005,1","22000,1,9,N","040000,1,N,1","+0124,1","+0071,1","10157,1","12,0000,9,1","24,0000,9,1",,,,"00,1,+99999,9,99,9","00,99,1,00,1,00,1,99999,9,00,1,00,1","0438,9",,"999,N,+0120,1","99999,9,10058,1","3,1,007,1,+999,9",,"SYN100AAXX  02064 08359 12982 03301 10124 20071 30058 40157 53007 60002 90700 333 20120 50524 55073 70000;","Q01  00002PRCP24Q02  00002PRCP12"
"08359099999","2010-11-02T18:00:00","4","38.3666666","-0.5","82.0","ALICANTE, SP","FM-12","99999","V020","999,9,C,0000,1","22000,1,9,N","030000,1,N,1","+0166,1","+0141,1","10192,1","12,0000,9,1",,,,,"00,1,+99999,9,99,9","00,99,1,00,1,00,1,99999,9,00,1,00,1",,,"999,M,+0230,1","99999,9,10095,1","2,1,015,1,+999,9",,"SYN076AAXX  02184 08359 12980 00000 10166 20141 30095 40192 52015 60002 333 10230;","Q01  00002PRCP12"
"08359099999","2010-11-03T06:00:00","4","38.3666666","-0.5","82.0","ALICANTE, SP","FM-12","99999","V020","999,9,C,0000,1","22000,1,9,N","040000,1,N,1","+0116,1","+0061,1","10218,1","12,0000,9,1","24,0000,9,1",,,,,"01,99,1,00,1,00,1,99999,9,00,1,01,1","0600,9",,"999,N,+0100,1","99999,9,10118,1","3,1,014,1,+999,9",,"SYN100AAXX  03064 08359 12982 10000 10116 20061 30118 40218 53014 60002 80001 333 20100 50274 55100 70000;","Q01  00002PRCP24Q02  00002PRCP12"
"08359099999","2010-11-03T18:00:00","4","38.3666666","-0.5","82.0","ALICANTE, SP","FM-12","99999","V020","999,9,C,0000,1","99999,9,9,N","025000,1,N,1","+0174,1","+0154,1","10246,1","12,0000,9,1",,,,,,"05,99,1,00,1,00,1,99999,9,00,1,06,1",,,"999,M,+0228,1","99999,9,10148,1","3,1,010,1,+999,9",,"SYN082AAXX  03184 08359 12975 50000 10174 20154 30148 40246 53010 60002 80006 333 10228;","Q01  00002PRCP12"
"08359099999","2010-11-04T06:00:00","4","38.3666666","-0.5","82.0","ALICANTE, SP","FM-12","99999","V020","999,9,C,0000,1","22000,1,9,N","040000,1,N,1","+0100,1","+0088,1","10280,1","12,0000,9,1","24,0000,9,1",,,,"00,1,+99999,9,99,9","00,99,1,00,1,00,1,99999,9,00,1,00,1","0588,9",,"999,N,+0095,1","99999,9,10179,1","2,1,012,1,+999,9",,"SYN100AAXX  04064 08359 12982 00000 10100 20088 30179 40280 52012 60002 90700 333 20095 50214 55098 70000;","Q01  00002PRCP24Q02  00002PRCP12"
"08359099999","2010-11-04T18:00:00","4","38.3666666","-0.5","82.0","ALICANTE, SP","FM-12","99999","V020","999,9,C,0000,1","22000,1,9,N","030000,1,N,1","+0168,1","+0148,1","10281,1","12,0000,9,1",,,,,"00,1,+99999,9,99,9","00,99,1,00,1,00,1,99999,9,00,1,00,1",,,"999,M,+0226,1","99999,9,10183,1","7,1,003,1,+999,9",,"SYN076AAXX  04184 08359 12980 00000 10168 20148 30183 40281 57003 60002 333 10226;","Q01  00002PRCP12"
"08359099999","2010-11-05T06:00:00","4","38.3666666","-0.5","82.0","ALICANTE, SP","FM-12","99999","V020","330,1,N,0005,1","22000,1,9,N","030000,1,N,1","+0126,1","+0107,1","10276,1","12,0000,9,1","24,0000,9,1",,,,,"04,99,1,02,1,05,1,01250,1,04,1,00,1","0594,9",,"999,N,+0110,1","99999,9,10176,1","7,1,001,1,+999,9",,"SYN106AAXX  05064 08359 12680 43301 10126 20107 30176 40276 57001 60002 82540 90700 333 20110 50194 55099 70000;","Q01  00002PRCP24Q02  00002PRCP12"
"08359099999","2010-11-05T18:00:00","4","38.3666666","-0.5","82.0","ALICANTE, SP","FM-12","99999","V020","060,1,N,0010,1","22000,1,9,N","020000,1,N,1","+0174,1","+0139,1","10265,1","12,0000,9,1",,,,,,"01,99,1,01,1,04,1,00800,1,04,1,00,1",,,"999,M,+0212,1","99999,9,10167,1","4,1,000,1,+999,9",,"SYN082AAXX  05184 08359 12570 10602 10174 20139 30167 40265 54000 60002 81440 333 10212;","Q01  00002PRCP12"
"08359099999","2010-11-06T06:00:00","4","38.3666666","-0.5","82.0","ALICANTE, SP","FM-12","99999","V020","999,9,C,0000,1","22000,1,9,N","040000,1,N,1","+0110,1","+0098,1","10245,1","12,0000,9,1","24,0000,9,1",,,,,"01,99,1,01,1,00,1,99999,9,04,1,00,1","0276,9",,"999,N,+0105,1","99999,9,10145,1","6,1,004,1,+999,9",,"SYN106AAXX  06064 08359 12982 10000 10110 20098 30145 40245 56004 60002 81040 90700 333 20105 50164 55046 70000;","Q01  00002PRCP24Q02  00002PRCP12"
"08359099999","2010-11-06T18:00:00","4","38.3666666","-0.5","82.0","ALICANTE, SP","FM-12","99999","V020","999,9,C,0000,1","22000,1,9,N","030000,1,N,1","+0166,1","+0141,1","10196,1","12,0000,9,1",,,,,,"01,99,1,00,1,00,1,99999,9,00,1,01,1",,,"999,M,+0224,1","99999,9,10099,1","6,1,005,1,+999,9",,"SYN082AAXX  06184 08359 12980 10000 10166 20141 30099 40196 56005 60002 80001 333 10224;","Q01  00002PRCP12"
"08359099999","2010-11-07T06:00:00","4","38.3666666","-0.5","82.0","ALICANTE, SP","FM-12","99999","V020","320,1,N,0010,1","22000,1,9,N","030000,1,N,1","+0150,1","+0104,1","10114,1","12,0000,9,1","24,0000,9,1",,,,,"05,99,1,01,1,04,1,01250,1,00,1,06,1","0570,9",,"999,N,+0100,1","99999,9,10017,1","6,1,010,1,+999,9",,"SYN106AAXX  07064 08359 12680 53202 10150 20104 30017 40114 56010 60002 81406 90700 333 20100 50184 55095 70000;","Q01  00002PRCP24Q02  00002PRCP12"
"08359099999","2010-11-07T18:00:00","4","38.3666666","-0.5","82.0","ALICANTE, SP","FM-12","99999","V020","330,1,N,0021,1","99999,9,9,N","020000,1,N,1","+0198,1","+0085,1","10053,1","12,0000,9,1",,,,,,"08,99,1,02,1,00,1,99999,9,04,1,02,1",,,"999,M,+0246,1","99999,9,09958,1","3,1,003,1,+999,9",,"SYN082AAXX  07184 08359 12970 83304 10198 20085 39958 40053 53003 60002 82042 333 10246;","Q01  00002PRCP12"
"08359099999","2010-11-08T06:00:00","4","38.3666666","-0.5","82.0","ALICANTE, SP","FM-12","99999","V020","250,1,N,0015,1","99999,9,9,N","030000,1,N,1","+0126,1","+0064,1","10039,1","12,0000,9,1","24,0000,9,1",,,,,"06,99,1,02,1,00,1,99999,9,04,1,09,1","0450,9",,"999,N,+0110,1","99999,9,09942,1","8,1,014,1,+999,9",,"SYN106AAXX  08064 08359 12980 62503 10126 20064 39942 40039 58014 60002 82049 90700 333 20110 50494 55075 70000;","Q01  00002PRCP24Q02  00002PRCP12"
"08359099999","2010-11-08T18:00:00","4","38.3666666","-0.5","82.0","ALICANTE, SP","FM-12","99999","V020","290,1,N,0036,1","22000,1,9,N","030000,1,N,1","+0176,1","+0085,1","09959,1","12,0000,9,1",,,,,,"04,99,1,02,1,00,1,99999,9,04,1,02,1",,,"999,M,+0222,1","99999,9,09864,1","5,1,000,1,+999,9",,"SYN082AAXX  08184 08359 12980 42907 10176 20085 39864 49959 55000 60002 82042 333 10222;","Q01  00002PRCP12"
"08359099999","2010-11-09T06:00:00","4","38.3666666","-0.5","82.0","ALICANTE, SP","FM-12","99999","V020","210,1,N,0015,1","22000,1,9,N","030000,1,N,1","+0160,1","+0082,1","09918,1","12,0000,9,1","24,0000,9,1",,,,,"04,99,1,01,1,04,1,00800,1,04,1,09,1","0240,9",,"999,N,+0110,1","99999,9,09823,1","4,1,000,1,+999,9",,"SYN106AAXX  09064 08359 12580 42103 10160 20082 39823 49918 54000 60002 81449 90700 333 20110 50554 55040 70000;","Q01  00002PRCP24Q02  00002PRCP12"
"08359099999","2010-11-09T18:00:00","4","38.3666666","-0.5","82.0","ALICANTE, SP","FM-12","99999","V020","290,1,N,0031,1","22000,1,9,N","030000,1,N,1","+0174,1","+0072,1","09935,1","12,0005,9,1",,,,,,"01,99,1,01,1,04,1,00800,1,00,1,00,1",,,"999,M,+0236,1","99999,9,09840,1","3,1,017,1,+999,9",,"SYN082AAXX  09184 08359 12580 12906 10174 20072 39840 49935 53017 69942 81400 333 10236;",
"08359099999","2010-11-10T06:00:00","4","38.3666666","-0.5","82.0","ALICANTE, SP","FM-12","99999","V020","240,1,N,0015,1","22000,1,9,N","030000,1,N,1","+0128,1","+0040,1","10030,1","12,0000,9,1","24,0000,9,1",,,,,"02,99,1,01,1,04,1,00800,1,04,1,00,1","0198,9",,"999,N,+0116,1","99999,9,09933,1","2,1,028,1,+999,9",,"SYN106AAXX  10064 08359 12580 22403 10128 20040 39933 40030 52028 60002 81440 90700 333 20116 50544 55033 70000;","Q01  00002PRCP24Q02  00002PRCP12"
"08359099999","2010-11-10T18:00:00","4","38.3666666","-0.5","82.0","ALICANTE, SP","FM-12","99999","V020","310,1,N,0015,1","22000,1,9,N","030000,1,N,1","+0154,1","+0069,1","10100,1","12,0000,9,1",,,,,,"01,99,1,01,1,00,1,99999,9,04,1,00,1",,,"999,M,+0202,1","99999,9,10003,1","2,1,017,1,+999,9",,"SYN082AAXX  10184 08359 12980 13103 10154 20069 30003 40100 52017 60002 81040 333 10202;","Q01  00002PRCP12"
"08359099999","2010-11-11T06:00:00","4","38.3666666","-0.5","82.0","ALICANTE, SP","FM-12","99999","V020","330,1,N,0015,1","22000,1,9,N","040000,1,N,1","+0110,1","+0015,1","10207,1","12,0000,9,1","24,0000,9,1",,,,,"01,99,1,00,1,00,1,99999,9,00,1,01,1","0498,9",,"999,N,+0105,1","99999,9,10107,1","2,1,017,1,+999,9",,"SYN106AAXX  11064 08359 12982 13303 10110 20015 30107 40207 52017 60002 80001 90700 333 20105 50464 55083 70000;","Q01  00002PRCP24Q02  00002PRCP12"
"08359099999","2010-11-11T18:00:00","4","38.3666666","-0.5","82.0","ALICANTE, SP","FM-12","99999","V020","240,1,N,0015,1","22000,1,9,N","030000,1,N,1","+0168,1","+0066,1","10216,1","12,0000,9,1",,,,,,"01,99,1,01,1,00,1,99999,9,04,1,00,1",,,"999,M,+0222,1","99999,9,10118,1","2,1,008,1,+999,9",,"SYN082AAXX  11184 08359 12980 12403 10168 20066 30118 40216 52008 60002 81040 333 10222;","Q01  00002PRCP12"
"08359099999","2010-11-12T06:00:00","4","38.3666666","-0.5","82.0","ALICANTE, SP","FM-12","99999","V020","310,1,N,0021,1","22000,1,9,N","040000,1,N,1","+0148,1","+0061,1","10212,1","12,0000,9,1","24,0000,9,1",,,,,"02,99,1,00,1,00,1,99999,9,00,1,01,1","0582,9",,"999,N,+0115,1","99999,9,10114,1","7,1,003,1,+999,9",,"SYN106AAXX  12064 08359 12982 23104 10148 20061 30114 40212 57003 60002 80001 90700 333 20115 50484 55097 70000;","Q01  00002PRCP24Q02  00002PRCP12"
"08359099999","2010-11-12T18:00:00","4","38.3666666","-0.5","82.0","ALICANTE, SP","FM-12","99999","V020","030,1,N,0010,1","22000,1,9,N","030000,1,N,1","+0172,1","+0133,1","10186,1","12,0000,9,1",,,,,,"01,99,1,01,1,00,1,99999,9,04,1,01,1",,,"999,M,+0248,1","99999,9,10089,1","6,1,002,1,+999,9",,"SYN082AAXX  12184 08359 12980 10302 10172 20133 30089 40186 56002 60002 81041 333 10248;","Q01  00002PRCP12"
"08359099999","2010-11-13T06:00:00","4","38.3666666","-0.5","82.0","ALICANTE, SP","FM-12","99999","V020","999,9,C,0000,1","22000,1,9,N","040000,1,N,1","+0094,1","+0073,1","10157,1","12,0000,9,1","24,0000,9,1",,,,,"02,99,1,00,1,00,1,99999,9,00,1,06,1","0570,9",,"999,N,+0088,1","99999,9,10057,1","6,1,003,1,+999,9",,"SYN106AAXX  13064 08359 12982 20000 10094 20073 30057 40157 56003 60002 80006 90700 333 20088 50284 55095 70000;","Q01  00002PRCP24Q02  00002PRCP12"
"08359099999","2010-11-13T18:00:00","4","38.3666666","-0.5","82.0","ALICANTE, SP","FM-12","99999","V020","200,1,N,0005,1","22000,1,9,N","020000,1,N,1","+0166,1","+0137,1","10115,1","12,0000,9,1",,,,,,"02,99,1,00,1,00,1,99999,9,00,1,01,1",,,"999,M,+0236,1","99999,9,10018,1","6,1,003,1,+999,9",,"SYN082AAXX  13184 08359 12970 22001 10166 20137 30018 40115 56003 60002 80001 333 10236;","Q01  00002PRCP12"
"08359099999","2010-11-14T06:00:00","4","38.3666666","-0.5","82.0","ALICANTE, SP","FM-12","99999","V020","999,9,C,0000,1","22000,1,9,N","030000,1,N,1","+0092,1","+0080,1","10097,1","12,0000,9,1","24,0000,9,1",,,,,"01,99,1,00,1,00,1,99999,9,00,1,01,1","0558,9",,"999,N,+0084,1","99999,9,09998,1","3,1,002,1,+999,9",,"SYN106AAXX  14064 08359 12980 10000 10092 20080 39998 40097 53002 60002 80001 90700 333 20084 50194 55093 70000;","Q01  00002PRCP24Q02  00002PRCP12"
"08359099999","2010-11-14T18:00:00","4","38.3666666","-0.5","82.0","ALICANTE, SP","FM-12","99999","V020","999,9,C,0000,1","22000,1,9,N","018000,1,N,1","+0160,1","+0131,1","10088,1","12,0000,9,1",,,,,,"01,99,1,00,1,00,1,99999,9,00,1,02,1",,,"999,M,+0210,1","99999,9,09991,1","3,1,010,1,+999,9",,"SYN082AAXX  14184 08359 12968 10000 10160 20131 39991 40088 53010 60002 80002 333 10210;","Q01  00002PRCP12"
"08359099999","2010-11-15T06:00:00","4","38.3666666","-0.5","82.0","ALICANTE, SP","FM-12","99999","V020","310,1,N,0026,1","22000,1,9,N","030000,1,N,1","+0140,1","+0056,1","10130,1","12,0000,9,1","24,0000,9,1",,,,,"02,99,1,01,1,04,1,00800,1,06,1,00,1","0552,9",,"999,N,+0122,1","99999,9,10032,1","2,1,020,1,+999,9",,"SYN106AAXX  15064 08359 12580 23105 10140 20056 30032 40130 52020 60002 81460 90700 333 20122 50224 55092 70000;","Q01  00002PRCP24Q02  00002PRCP12"
"08359099999","2010-11-15T18:00:00","4","38.3666666","-0.5","82.0","ALICANTE, SP","FM-12","99999","V020","310,1,N,0031,1","22000,1,9,N","030000,1,N,1","+0152,1","+0040,1","10194,1","12,0000,9,1",,,,,,"01,99,1,01,1,04,1,00800,1,00,1,00,1",,,"999,M,+0193,1","99999,9,10096,1","2,1,015,1,+999,9",,"SYN082AAXX  15184 08359 12580 13106 10152 20040 30096 40194 52015 60002 81400 333 10193;","Q01  00002PRCP12"
"08359099999","2010-11-16T06:00:00","4","38.3666666","-0.5","82.0","ALICANTE, SP","FM-12","99999","V020","300,1,N,0051,1","22000,1,9,N","040000,1,N,1","+0106,1","+0022,1","10226,1","12,0000,9,1","24,0000,9,1",,,,,"03,99,1,00,1,00,1,99999,9,00,1,06,1","0546,9",,"999,N,+0100,1","99999,9,10126,1","0,1,000,1,+999,9",,"SYN106AAXX  16064 08359 12982 33010 10106 20022 30126 40226 50000 60002 80006 90700 333 20100 50634 55091 70000;","Q01  00002PRCP24Q02  00002PRCP12"
"08359099999","2010-11-16T18:00:00","4","38.3666666","-0.5","82.0","ALICANTE, SP","FM-12","99999","V020","270,1,N,0021,1","22000,1,9,N","030000,1,N,1","+0156,1","+0046,1","10189,1","12,0000,9,1",,,,,,"01,99,1,01,1,00,1,99999,9,04,1,02,1",,,"999,M,+0218,1","99999,9,10091,1","6,1,003,1,+999,9",,"SYN082AAXX  16184 08359 12980 12704 10156 20046 30091 40189 56003 60002 81042 333 10218;","Q01  00002PRCP12"
"08359099999","2010-11-17T06:00:00","4","38.3666666","-0.5","82.0","ALICANTE, SP","FM-12","99999","V020","290,1,N,0021,1","99999,9,9,N","030000,1,N,1","+0146,1","+0012,1","10131,1","12,0000,9,1","24,0000,9,1",,,,,"07,99,1,07,1,00,1,99999,9,07,1,00,1","0564,9",,"999,N,+0125,1","99999,9,10033,1","6,1,006,1,+999,9",,"SYN106AAXX  17064 08359 12980 72904 10146 20012 30033 40131 56006 60002 87070 90700 333 20125 50574 55094 70000;","Q01  00002PRCP24Q02  00002PRCP12"
"08359099999","2010-11-17T18:00:00","4","38.3666666","-0.5","82.0","ALICANTE, SP","FM-12","99999","V020","290,1,N,0015,1","00750,1,9,N","018000,1,N,1","+0148,1","+0076,1","10109,1","12,0000,9,1",,,"5,1,06,1","2,1,06,1",,"05,99,1,05,1,05,1,00800,1,06,1,00,1",,,"999,M,+0220,1","99999,9,10012,1","3,1,008,1,+999,9","02,1","SYN088AAXX  17184 08359 11568 52903 10148 20076 30012 40109 53008 69912 70252 85560 333 10220;","Q01  00002PRCP12"
"08359099999","2010-11-18T06:00:00","4","38.3666666","-0.5","82.0","ALICANTE, SP","FM-12","99999","V020","310,1,N,0015,1","22000,1,9,N","030000,1,N,1","+0108,1","+0036,1","10149,1","12,0000,9,1","24,0000,9,1",,,,,"01,99,1,00,1,00,1,99999,9,00,1,02,1","0060,9",,"999,N,+0100,1","99999,9,10050,1","3,1,010,1,+999,9",,"SYN106AAXX  18064 08359 12980 13103 10108 20036 30050 40149 53010 60002 80002 90700 333 20100 50334 55010 70001;","Q01  00002PRCP24Q02  00002PRCP12"
"08359099999","2010-11-18T18:00:00","4","38.3666666","-0.5","82.0","ALICANTE, SP","FM-12","99999","V020","330,1,N,0015,1","22000,1,9,N","030000,1,N,1","+0146,1","+0054,1","10171,1","12,0000,9,1",,,,,,"03,99,1,00,1,00,1,99999,9,00,1,01,1",,,"999,M,+0200,1","99999,9,10073,1","2,1,017,1,+999,9",,"SYN082AAXX  18184 08359 12980 33303 10146 20054 30073 40171 52017 60002 80001 333 10200;","Q01  00002PRCP12"
"08359099999","2010-11-19T06:00:00","4","38.3666666","-0.5","82.0","ALICANTE, SP","FM-12","99999","V020","310,1,N,0005,1","99999,9,9,N","020000,1,N,1","+0082,1","+0040,1","10185,1","12,0000,9,1","24,0000,9,1",,,,,"08,99,1,02,1,00,1,99999,9,02,1,99,9","0552,9",,"999,N,+0070,1","99999,9,10084,1","5,1,000,1,+999,9",,"SYN106AAXX  19064 08359 12970 83101 10082 20040 30084 40185 55000 60002 8202/ 90700 333 20070 50354 55092 70000;","Q01  00002PRCP24Q02  00002PRCP12"
"08359099999","2010-11-19T18:00:00","4","38.3666666","-0.5","82.0","ALICANTE, SP","FM-12","99999","V020","999,9,C,0000,1","22000,1,9,N","020000,1,N,1","+0112,1","+0088,1","10173,1","12,0000,9,1",,,,,,"01,99,1,01,1,00,1,99999,9,04,1,00,1",,,"999,M,+0172,1","99999,9,10074,1","3,1,005,1,+999,9",,"SYN082AAXX  19184 08359 12970 10000 10112 20088 30074 40173 53005 60002 81040 333 10172;","Q01  00002PRCP12"
"08359099999","2010-11-20T06:00:00","4","38.3666666","-0.5","82.0","ALICANTE, SP","FM-12","99999","V020","999,9,C,0000,1","22000,1,9,N","020000,1,N,1","+0052,1","+0037,1","10159,1","12,0000,9,1","24,0000,9,1",,,,,"04,99,1,00,1,00,1,99999,9,00,1,09,1","0162,9",,"999,N,+0050,1","99999,9,10058,1","8,1,007,1,+999,9",,"SYN106AAXX  20064 08359 12970 40000 10052 20037 30058 40159 58007 60002 80009 90700 333 20050 50154 55027 70000;","Q01  00002PRCP24Q02  00002PRCP12"
"08359099999","2010-11-20T18:00:00","4","38.3666666","-0.5","82.0","ALICANTE, SP","FM-12","99999","V020","999,9,C,0000,1","99999,9,9,N","012000,1,N,1","+0146,1","+0128,1","10099,1","12,9999,9,9",,,"6,1,06,1","5,1,06,1",,"08,99,1,08,1,00,1,99999,9,07,1,99,9",,,"999,M,+0186,1","99999,9,10002,1","7,1,005,1,+999,9","50,1","SYN088AAXX  20184 08359 11962 80000 10146 20128 30002 40099 57005 69912 75065 8807/ 333 10186;","Q01  00002PRCP12Q02  00002PRCP12"
"08359099999","2010-11-21T06:00:00","4","38.3666666","-0.5","82.0","ALICANTE, SP","FM-12","99999","V020","300,1,N,0015,1","22000,1,9,N","030000,1,N,1","+0116,1","+0050,1","10085,1","12,0000,2,1","24,0003,9,1",,"6,1,06,1","1,1,06,1",,"03,99,1,01,1,01,1,00800,1,04,1,02,1","0288,9",,"999,N,+0114,1","99999,9,09987,1","1,1,013,1,+999,9","01,1","SYN112AAXX  21064 08359 11580 33003 10116 20050 39987 40085 51013 69912 70161 81142 90700 333 20114 50264 55048 70002;",
"08359099999","2010-11-21T18:00:00","4","38.3666666","-0.5","82.0","ALICANTE, SP","FM-12","99999","V020","290,1,N,0010,1","22000,1,9,N","030000,1,N,1","+0140,1","+0040,1","10076,1","12,0000,9,1",,,,,,"01,99,1,01,1,00,1,99999,9,04,1,00,1",,,"999,M,+0175,1","99999,9,09979,1","5,1,000,1,+999,9",,"SYN082AAXX  21184 08359 12980 12902 10140 20040 39979 40076 55000 60002 81040 333 10175;","Q01  00002PRCP12"
"08359099999","2010-11-22T06:00:00","4","38.3666666","-0.5","82.0","ALICANTE, SP","FM-12","99999","V020","320,1,N,0026,1","22000,1,9,N","030000,1,N,1","+0122,1","+0032,1","10078,1","12,0000,9,1","24,0000,9,1",,,,,"04,99,1,01,1,04,1,00800,1,04,1,00,1","0468,9",,"999,N,+0115,1","99999,9,09980,1","3,1,003,1,+999,9",,"SYN106AAXX  22064 08359 12580 43205 10122 20032 39980 40078 53003 60002 81440 90700 333 20115 50454 55078 70000;","Q01  00002PRCP24Q02  00002PRCP12"
"08359099999","2010-11-22T18:00:00","4","38.3666666","-0.5","82.0","ALICANTE, SP","FM-12","99999","V020","290,1,N,0031,1","22000,1,9,N","030000,1,N,1","+0134,1","+0053,1","10099,1","12,0000,9,1",,,,,,"01,99,1,01,1,00,1,99999,9,04,1,00,1",,,"999,M,+0194,1","99999,9,10001,1","2,1,014,1,+999,9",,"SYN082AAXX  22184 08359 12980 12906 10134 20053 30001 40099 52014 60002 81040 333 10194;","Q01  00002PRCP12"
"08359099999","2010-11-23T06:00:00","4","38.3666666","-0.5","82.0","ALICANTE, SP","FM-12","99999","V020","999,9,C,0000,1","99999,9,9,N","030000,1,N,1","+0084,1","+0053,1","10119,1","12,0000,9,1","24,0000,9,1",,,,,"06,99,1,03,1,00,1,99999,9,02,1,06,1","0522,9",,"999,N,+0074,1","99999,9,10019,1","2,1,004,1,+999,9",,"SYN106AAXX  23064 08359 12980 60000 10084 20053 30019 40119 52004 60002 83026 90700 333 20074 50394 55087 70000;","Q01  00002PRCP24Q02  00002PRCP12"
"08359099999","2010-11-23T18:00:00","4","38.3666666","-0.5","82.0","ALICANTE, SP","FM-12","99999","V020","330,1,N,0010,1","22000,1,9,N","030000,1,N,1","+0140,1","+0035,1","10116,1","12,0000,9,1",,,,,,"01,99,1,01,1,00,1,99999,9,04,1,00,1",,,"999,M,+0186,1","99999,9,10018,1","3,1,006,1,+999,9",,"SYN082AAXX  23184 08359 12980 13302 10140 20035 30018 40116 53006 60002 81040 333 10186;","Q01  00002PRCP12"
"08359099999","2010-11-24T06:00:00","4","38.3666666","-0.5","82.0","ALICANTE, SP","FM-12","99999","V020","999,9,C,0000,1","99999,9,9,N","020000,1,N,1","+0118,1","+0086,1","10123,1","12,9999,9,9","24,9999,9,9",,"2,1,06,1","2,1,06,1",,"07,99,1,07,1,00,1,99999,9,07,1,00,1","0450,9",,"999,N,+0090,1","99999,9,10024,1","3,1,004,1,+999,9","50,1","SYN112AAXX  24064 08359 11970 70000 10118 20086 30024 40123 53004 69902 75022 87070 90700 333 20090 50314 55075 70000;","Q01  00002PRCP24Q02  00002PRCP12Q03  00002PRCP12Q04  00002PRCP24"
"08359099999","2010-11-24T18:00:00","4","38.3666666","-0.5","82.0","ALICANTE, SP","FM-12","99999","V020","150,1,N,0005,1","03600,1,9,N","018000,1,N,1","+0146,1","+0112,1","10127,1","12,0000,2,1",,,,,,"08,99,1,03,1,05,1,01250,1,07,1,99,9",,,"999,M,+0186,1","99999,9,10029,1","3,1,005,1,+999,9",,"SYN082AAXX  24184 08359 12668 81501 10146 20112 30029 40127 53005 60002 8357/ 333 10186;",
"08359099999","2010-11-25T06:00:00","4","38.3666666","-0.5","82.0","ALICANTE, SP","FM-12","99999","V020","999,9,C,0000,1","03600,1,9,N","012000,1,N,1","+0120,1","+0117,1","10126,1","12,0020,9,2","24,0018,9,2",,"6,1,06,1","2,1,06,1",,"08,99,1,04,1,05,1,00800,1,07,1,99,9","0216,9",,"999,N,+0115,1","99999,9,10028,1","1,1,001,1,+999,9","02,1","SYN112AAXX  25064 08359 11562 80000 10120 20117 30028 40126 51001 60022 70262 8457/ 90700 333 20115 50174 55036 70019;",
"08359099999","2010-11-25T18:00:00","4","38.3666666","-0.5","82.0","ALICANTE, SP","FM-12","99999","V020","999,9,C,0000,1","99999,9,9,N","012000,1,N,1","+0138,1","+0120,1","10092,1","12,0000,9,1",,,,,,"07,99,1,03,1,00,1,99999,9,02,1,06,1",,,"999,M,+0158,1","99999,9,09995,1","5,1,006,1,+999,9",,"SYN082AAXX  25184 08359 12962 70000 10138 20120 39995 40092 55006 60002 83026 333 10158;","Q01  00002PRCP12"
"08359099999","2010-11-26T06:00:00","4","38.3666666","-0.5","82.0","ALICANTE, SP","FM-12","99999","V020","340,1,N,0010,1","22000,1,9,N","030000,1,N,1","+0096,1","+0008,1","10108,1","12,0000,9,1","24,0000,9,1",,,,,"03,99,1,03,1,00,1,99999,9,07,1,01,1","0000,9",,"999,N,+0090,1","99999,9,10009,1","3,1,006,1,+999,9",,"SYN106AAXX  26064 08359 12980 33402 10096 20008 30009 40108 53006 60002 83071 90700 333 20090 50154 55000 70000;","Q01  00002PRCP24Q02  00002PRCP12"
"08359099999","2010-11-26T18:00:00","4","38.3666666","-0.5","82.0","ALICANTE, SP","FM-12","99999","V020","080,1,N,0010,1","99999,9,9,N","018000,1,N,1","+0116,1","+0024,1","10092,1","12,0000,9,1",,,,,,"08,99,1,08,1,00,1,99999,9,07,1,99,9",,,"999,M,+0146,1","99999,9,09994,1","6,1,005,1,+999,9",,"SYN082AAXX  26184 08359 12968 80802 10116 20024 39994 40092 56005 60002 8807/ 333 10146;","Q01  00002PRCP12"
"08359099999","2010-11-27T06:00:00","4","38.3666666","-0.5","82.0","ALICANTE, SP","FM-12","99999","V020","999,9,C,0000,1","99999,9,9,N","020000,1,N,1","+0092,1","+0066,1","10050,1","12,0000,9,1","24,0000,9,1",,"6,1,06,1","2,1,06,1",,"08,99,1,08,1,00,1,99999,9,07,1,99,9","0138,9",,"999,N,+0090,1","99999,9,09951,1","8,1,005,1,+999,9","02,1","SYN112AAXX  27064 08359 11970 80000 10092 20066 39951 40050 58005 69912 70262 8807/ 90700 333 20090 50244 55023 70001;","Q01  00002PRCP24Q02  00002PRCP12"
"08359099999","2010-11-27T18:00:00","4","38.3666666","-0.5","82.0","ALICANTE, SP","FM-12","99999","V020","040,1,N,0005,1","03600,1,9,N","012000,1,N,1","+0094,1","+0086,1","10003,1","12,0051,9,1",,,"6,1,06,1","6,1,06,1",,"08,99,1,02,1,07,1,00450,1,07,1,99,9",,,"999,M,+0130,1","99999,9,09905,1","6,1,006,1,+999,9","61,1","SYN088AAXX  27184 08359 11462 80401 10094 20086 39905 40003 56006 60052 76166 8277/ 333 10130;",
"08359099999","2010-11-28T06:00:00","4","38.3666666","-0.5","82.0","ALICANTE, SP","FM-12","99999","V020","999,9,C,0000,1","22000,1,9,N","030000,1,N,1","+0066,1","+0066,1","10014,1","12,0180,9,1","24,0221,9,1",,"6,1,06,1","1,1,06,1",,"02,99,1,01,1,04,1,00800,1,04,1,00,1","0000,9",,"999,N,+0066,1","99999,9,09915,1","2,1,020,1,+999,9","01,1","SYN112AAXX  28064 08359 11580 20000 10066 20066 39915 40014 52020 60182 70161 81440 90700 333 20066 50094 55000 70220;",
"08359099999","2010-11-28T18:00:00","4","38.3666666","-0.5","82.0","ALICANTE, SP","FM-12","99999","V020","340,1,N,0005,1","03600,1,9,N","020000,1,N,1","+0114,1","+0027,1","10064,1","12,0000,9,1",,,,,,"07,99,1,01,1,04,1,00800,1,06,1,02,1",,,"999,M,+0168,1","99999,9,09966,1","2,1,016,1,+999,9",,"SYN082AAXX  28184 08359 12570 73401 10114 20027 39966 40064 52016 60002 81462 333 10168;","Q01  00002PRCP12"
"08359099999","2010-11-29T06:00:00","4","38.3666666","-0.5","82.0","ALICANTE, SP","FM-12","99999","V020","999,9,C,0000,1","99999,9,9,N","020000,1,N,1","+0078,1","+0051,1","10077,1","12,0000,9,1","24,0000,9,1",,,,,"08,99,1,08,1,00,1,99999,9,07,1,99,9","0384,9",,"999,N,+0065,1","99999,9,09977,1","6,1,010,1,+999,9",,"SYN106AAXX  29064 08359 12970 80000 10078 20051 39977 40077 56010 60002 8807/ 90700 333 20065 50224 55064 70000;","Q01  00002PRCP24Q02  00002PRCP12"
"08359099999","2010-11-29T18:00:00","4","38.3666666","-0.5","82.0","ALICANTE, SP","FM-12","99999","V020","999,9,C,0000,1","03600,1,9,N","006000,1,N,1","+0086,1","+0086,1","10029,1","12,0041,9,1",,,"6,1,06,1","6,1,06,1",,"08,99,1,03,1,07,1,00450,1,07,1,99,9",,,"999,M,+0102,1","99999,9,09930,1","5,1,000,1,+999,9","02,1","SYN088AAXX  29184 08359 11456 80000 10086 20086 39930 40029 55000 60042 70266 8377/ 333 10102;",
"08359099999","2010-11-30T06:00:00","4","38.3666666","-0.5","82.0","ALICANTE, SP","FM-12","99999","V020","999,9,C,0000,1","03600,1,9,N","010000,1,N,1","+0102,1","+0094,1","10005,1","12,0000,9,1","24,0036,9,1",,,,,"08,99,1,02,1,05,1,00800,1,02,1,99,9","0000,9",,"999,N,+0080,1","99999,9,09907,1","5,1,000,1,+999,9",,"SYN106AAXX  30064 08359 12560 80000 10102 20094 39907 40005 55000 60002 8252/ 90700 333 20080 50054 55000 70036;","Q01  00002PRCP12"
"08359099999","2010-11-30T18:00:00","4","38.3666666","-0.5","82.0","ALICANTE, SP","FM-12","99999","V020","110,1,N,0005,1","03600,1,9,N","006000,1,N,1","+0116,1","+0116,1","09971,1","12,0089,9,1",,,"6,1,06,1","6,1,06,1",,"08,99,1,03,1,07,1,00450,1,07,1,99,9",,,"999,M,+0136,1","99999,9,09874,1","5,1,002,1,+999,9","61,1","SYN088AAXX  30184 08359 11456 81101 10116 20116 39874 49971 55002 60092 76166 8377/ 333 10136;",
"08359099999","2010-12-01T06:00:00","4","38.3666666","-0.5","82.0","ALICANTE, SP","FM-12","99999","V020","999,9,C,0000,1","99999,9,9,N","030000,1,N,1","+0066,1","+0052,1","10036,1","12,0005,9,1","24,0091,9,1",,,,,"05,99,1,05,1,00,1,99999,9,07,1,00,1","0000,9",,"999,N,+0060,1","99999,9,09936,1","2,1,015,1,+999,9",,"SYN106AAXX  01064 08359 12980 50000 10066 20052 39936 40036 52015 69942 85070 90700 333 20060 50084 55000 70091;",
"08359099999","2010-12-01T18:00:00","4","38.3666666","-0.5","82.0","ALICANTE, SP","FM-12","99999","V020","270,1,N,0010,1","22000,1,9,N","030000,1,N,1","+0102,1","+0060,1","10070,1","12,0000,9,1",,,,,,"02,99,1,01,1,08,1,00800,1,04,1,00,1",,,"999,M,+0160,1","99999,9,09971,1","1,1,023,1,+999,9",,"SYN082AAXX  01184 08359 12580 22702 10102 20060 39971 40070 51023 60002 81840 333 10160;","Q01  00002PRCP12"
"08359099999","2010-12-02T06:00:00","4","38.3666666","-0.5","82.0","ALICANTE, SP","FM-12","99999","V020","999,9,C,0000,1","99999,9,9,N","025000,1,N,1","+0072,1","+0045,1","10099,1","12,0000,9,1","24,0000,9,1",,,,,"07,99,1,07,1,00,1,99999,9,07,1,00,1","0300,9",,"999,N,+0060,1","99999,9,09999,1",,,"SYN106AAXX  02064 08359 12975 70000 10072 20045 39999 40099 51000 60002 87070 90700 333 20060 50194 55050 70000;","Q01+000012APCTENQ02  00002PRCP24Q03  00002PRCP12"
"08359099999","2010-12-02T18:00:00","4","38.3666666","-0.5","82.0","ALICANTE, SP","FM-12","99999","V020","290,1,N,0021,1","22000,1,9,N","030000,1,N,1","+0106,1","+0017,1","10117,1","12,0000,9,1",,,,,,"02,99,1,01,1,02,1,00800,1,06,1,00,1",,,"999,M,+0162,1","99999,9,10018,1","3,1,018,1,+999,9",,"SYN082AAXX  02184 08359 12580 22904 10106 20017 30018 40117 53018 60002 81260 333 10162;","Q01  00002PRCP12"
"08359099999","2010-12-03T06:00:00","4","38.3666666","-0.5","82.0","ALICANTE, SP","FM-12","99999","V020","200,1,N,0010,1","03600,1,9,N","030000,1,N,1","+0062,1","+0005,1","10136,1","12,0000,9,1","24,0000,9,1",,,,,"07,99,1,01,1,02,1,00800,1,07,1,00,1","0300,9",,"999,N,+0036,1","99999,9,10035,1","5,1,000,1,+999,9",,"SYN106AAXX  03064 08359 12580 72002 10062 20005 30035 40136 55000 60002 81270 90700 333 20036 50244 55050 79999;","Q01  00002PRCP24Q02  00002PRCP12"
"08359099999","2010-12-03T18:00:00","4","38.3666666","-0.5","82.0","ALICANTE, SP","FM-12","99999","V020","310,1,N,0015,1","22000,1,9,N","030000,1,N,1","+0082,1","+0018,1","10197,1","12,0000,9,1",,,,,,"01,99,1,01,1,04,1,00800,1,00,1,00,1",,,"999,M,+0136,1","99999,9,10096,1","2,1,020,1,+999,9",,"SYN082AAXX  03184 08359 12580 13103 10082 20018 30096 40197 52020 60002 81400 333 10136;","Q01  00002PRCP12"
"08359099999","2010-12-04T06:00:00","4","38.3666666","-0.5","82.0","ALICANTE, SP","FM-12","99999","V020","320,1,N,0010,1","22000,1,9,N","030000,1,N,1","+0020,1","-0021,1","10222,1","12,0000,9,1","24,0000,9,1",,,,,"01,99,1,00,1,00,1,99999,9,00,1,01,1","0360,9",,"999,N,+0010,1","99999,9,10119,1","3,1,003,1,+999,9",,"SYN106AAXX  04064 08359 12980 13202 10020 21021 30119 40222 53003 60002 80001 90700 333 20010 50294 55060 70000;","Q01  00002PRCP24Q02  00002PRCP12"
"08359099999","2010-12-04T18:00:00","4","38.3666666","-0.5","82.0","ALICANTE, SP","FM-12","99999","V020","360,1,N,0005,1","99999,9,9,N","020000,1,N,1","+0080,1","+0053,1","10222,1","12,0000,9,1",,,,,,"06,99,1,00,1,00,1,99999,9,00,1,02,1",,,"999,M,+0144,1","99999,9,10121,1","1,1,003,1,+999,9",,"SYN082AAXX  04184 08359 12970 63601 10080 20053 30121 40222 51003 60002 80002 333 10144;","Q01  00002PRCP12"
"08359099999","2010-12-05T06:00:00","4","38.3666666","-0.5","82.0","ALICANTE, SP","FM-12","99999","V020","999,9,C,0000,1","99999,9,9,N","020000,1,N,1","+0072,1","+0063,1","10171,1","12,0000,9,1","24,0000,9,1",,,,,"05,99,1,05,1,00,1,99999,9,07,1,01,1","0456,9",,"999,N,+0054,1","99999,9,10070,1","6,1,006,1,+999,9",,"SYN106AAXX  05064 08359 12970 50000 10072 20063 30070 40171 56006 60002 85071 90700 333 20054 50164 55076 70000;","Q01  00002PRCP24Q02  00002PRCP12"
"08359099999","2010-12-05T18:00:00","4","38.3666666","-0.5","82.0","ALICANTE, SP","FM-12","99999","V020","230,1,N,0005,1","03600,1,9,N","020000,1,N,1","+0122,1","+0094,1","10128,1","12,0000,9,1",,,,,,"06,99,1,02,1,05,1,01250,1,07,1,00,1",,,"999,M,+0180,1","99999,9,10039,1","0,1,000,1,+999,9",,"SYN082AAXX  05184 08359 12670 62301 10122 20094 30039 40128 50000 60002 82570 333 10180;","Q01  00002PRCP12"
"08359099999","2010-12-06T06:00:00","4","38.3666666","-0.5","82.0","ALICANTE, SP","FM-12","99999","V020","010,1,N,0005,1","99999,9,9,N","020000,1,N,1","+0116,1","+0085,1","10081,1","12,0000,9,1","24,0000,9,1",,,,,"08,99,1,08,1,00,1,99999,9,07,1,99,9","0150,9",,"999,N,+0090,1","99999,9,09982,1","5,1,000,1,+999,9",,"SYN106AAXX  06064 08359 12970 80101 10116 20085 39982 40081 55000 60002 8807/ 90700 333 20090 50104 55025 70000;","Q01  00002PRCP24Q02  00002PRCP12"
"08359099999","2010-12-06T18:00:00","4","38.3666666","-0.5","82.0","ALICANTE, SP","FM-12","99999","V020","999,9,C,0000,1","99999,9,9,N","020000,1,N,1","+0156,1","+0141,1","10066,1","12,0000,9,1",,,,,,"05,99,1,02,1,00,1,99999,9,04,1,02,1",,,"999,M,+0238,1","99999,9,09969,1","0,1,008,1,+999,9",,"SYN082AAXX  06184 08359 12970 50000 10156 20141 39969 40066 50008 69902 82042 333 10238;","Q01  00002PRCP12"
"08359099999","2010-12-07T06:00:00","4","38.3666666","-0.5","82.0","ALICANTE, SP","FM-12","99999","V020","999,9,C,0000,1","99999,9,9,N","025000,1,N,1","+0112,1","+0104,1","10069,1","12,0000,9,1","24,0000,9,1",,,,,"05,99,1,02,1,00,1,99999,9,04,1,02,1","0240,9",,"999,N,+0110,1","99999,9,09971,1","5,1,000,1,+999,9",,"SYN106AAXX  07064 08359 12975 50000 10112 20104 39971 40069 55000 60002 82042 90700 333 20110 50154 55040 70001;","Q01  00002PRCP24Q02  00002PRCP12"
"08359099999","2010-12-07T18:00:00","4","38.3666666","-0.5","82.0","ALICANTE, SP","FM-12","99999","V020","060,1,N,0010,1","22000,1,9,N","020000,1,N,1","+0166,1","+0150,1","10072,1","12,0000,9,1",,,,,,"05,99,1,01,1,04,1,00800,1,00,1,06,1",,,"999,M,+0230,1","99999,9,09976,1","3,1,008,1,+999,9",,"SYN082AAXX  07184 08359 12570 50602 10166 20150 39976 40072 53008 60002 81406 333 10230;","Q01  00002PRCP12"
"08359099999","2010-12-08T06:00:00","4","38.3666666","-0.5","82.0","ALICANTE, SP","FM-12","99999","V020","999,9,C,0000,1","22000,1,9,N","030000,1,N,1","+0118,1","+0110,1","10098,1","12,0000,9,1","24,0000,9,1",,,,,"02,99,1,00,1,00,1,99999,9,00,1,01,1","0468,9",,"999,N,+0118,1","99999,9,10000,1","2,1,014,1,+999,9",,"SYN106AAXX  08064 08359 12980 20000 10118 20110 30000 40098 52014 60002 80001 90700 333 20118 50144 55078 70000;","Q01  00002PRCP24Q02  00002PRCP12"
"08359099999","2010-12-08T18:00:00","4","38.3666666","-0.5","82.0","ALICANTE, SP","FM-12","99999","V020","999,9,C,0000,1","09000,1,9,N","020000,1,N,1","+0170,1","+0150,1","10130,1","12,0000,9,1",,,,,,"07,99,1,02,1,04,1,01250,1,00,1,06,1",,,"999,M,+0250,1","99999,9,10033,1","3,1,010,1,+999,9",,"SYN082AAXX  08184 08359 12670 70000 10170 20150 30033 40130 53010 60002 82406 333 10250;","Q01  00002PRCP12"
"08359099999","2010-12-09T06:00:00","4","38.3666666","-0.5","82.0","ALICANTE, SP","FM-12","99999","V020","999,9,C,0000,1","22000,1,9,N","020000,1,N,1","+0124,1","+0113,1","10177,1","12,0000,9,1","24,0000,9,1",,,,,"02,99,1,00,1,00,1,99999,9,00,1,02,1","0420,9",,"999,N,+0120,1","99999,9,10078,1","3,1,012,1,+999,9",,"SYN106AAXX  09064 08359 12970 20000 10124 20113 30078 40177 53012 60002 80002 90700 333 20120 50164 55070 70000;","Q01  00002PRCP24Q02  00002PRCP12"
"08359099999","2010-12-09T18:00:00","4","38.3666666","-0.5","82.0","ALICANTE, SP","FM-12","99999","V020","999,9,C,0000,1","22000,1,9,N","030000,1,N,1","+0162,1","+0133,1","10210,1","12,0000,9,1",,,,,,"01,99,1,01,1,00,1,99999,9,03,1,00,1",,,"999,M,+0220,1","99999,9,10112,1","2,1,015,1,+999,9",,"SYN082AAXX  09184 08359 12980 10000 10162 20133 30112 40210 52015 60002 81030 333 10220;","Q01  00002PRCP12"
"08359099999","2010-12-10T06:00:00","4","38.3666666","-0.5","82.0","ALICANTE, SP","FM-12","99999","V020","999,9,C,0000,1","03600,1,9,N","015000,1,N,1","+0126,1","+0115,1","10271,1","12,0000,9,1","24,0000,9,1",,,,,"08,99,1,03,1,07,1,00450,1,07,1,99,9","0516,9",,"999,N,+0106,1","99999,9,10171,1","2,1,015,1,+999,9",,"SYN106AAXX  10064 08359 12465 80000 10126 20115 30171 40271 52015 60002 8377/ 90700 333 20106 50144 55086 70000;","Q01  00002PRCP24Q02  00002PRCP12"
"08359099999","2010-12-10T18:00:00","4","38.3666666","-0.5","82.0","ALICANTE, SP","FM-12","99999","V020","999,9,C,0000,1","99999,9,9,N","010000,1,N,1","+0128,1","+0117,1","10292,1","12,0010,9,1",,,,,,"05,99,1,02,1,00,1,99999,9,03,1,06,1",,,"999,M,+0146,1","99999,9,10192,1","4,1,000,1,+999,9",,"SYN082AAXX  10184 08359 12960 50000 10128 20117 30192 40292 54000 69992 82036 333 10146;",
"08359099999","2010-12-11T06:00:00","4","38.3666666","-0.5","82.0","ALICANTE, SP","FM-12","99999","V020","999,9,C,0000,1","22000,1,9,N","030000,1,N,1","+0074,1","+0070,1","10279,1","12,0000,9,1","24,0010,9,1",,,,,"04,99,1,02,1,00,1,99999,9,03,1,02,1","0000,9",,"999,N,+0072,1","99999,9,10177,1","6,1,005,1,+999,9",,"SYN106AAXX  11064 08359 12980 40000 10074 20070 30177 40279 56005 60002 82032 90700 333 20072 50034 55000 70009;","Q01  00002PRCP12"
"08359099999","2010-12-11T18:00:00","4","38.3666666","-0.5","82.0","ALICANTE, SP","FM-12","99999","V020","999,9,C,0000,1","22000,1,9,N","020000,1,N,1","+0112,1","+0091,1","10238,1","12,0000,9,1",,,,,,"03,99,1,00,1,00,1,99999,9,00,1,06,1",,,"999,M,+0182,1","99999,9,10138,1","6,1,007,1,+999,9",,"SYN082AAXX  11184 08359 12970 30000 10112 20091 30138 40238 56007 60002 80006 333 10182;","Q01  00002PRCP12"
"08359099999","2010-12-12T06:00:00","4","38.3666666","-0.5","82.0","ALICANTE, SP","FM-12","99999","V020","310,1,N,0005,1","99999,9,9,N","020000,1,N,1","+0064,1","+0041,1","10164,1","12,0000,9,1","24,0000,9,1",,,,,"07,99,1,00,1,00,1,99999,9,00,1,06,1","0474,9",,"999,N,+0050,1","99999,9,10063,1","7,1,012,1,+999,9",,"SYN106AAXX  12064 08359 12970 73101 10064 20041 30063 40164 57012 60002 80006 90700 333 20050 50144 55079 70000;","Q01  00002PRCP24Q02  00002PRCP12"
"08359099999","2010-12-12T18:00:00","4","38.3666666","-0.5","82.0","ALICANTE, SP","FM-12","99999","V020","999,9,C,0000,1","99999,9,9,N","012000,1,N,1","+0116,1","+0105,1","10106,1","12,0000,9,1",,,,,,"07,99,1,00,1,00,1,99999,9,00,1,06,1",,,"999,M,+0180,1","99999,9,10008,1","8,1,002,1,+999,9",,"SYN082AAXX  12184 08359 12962 70000 10116 20105 30008 40106 58002 60002 80006 333 10180;","Q01  00002PRCP12"
"08359099999","2010-12-13T06:00:00","4","38.3666666","-0.5","82.0","ALICANTE, SP","FM-12","99999","V020","999,9,C,0000,1","99999,9,9,N","015000,1,N,1","+0094,1","+0086,1","10117,1","12,0000,9,1","24,0000,9,1",,,,,"08,99,1,01,1,00,1,99999,9,03,1,06,1","0096,9",,"999,N,+0072,1","99999,9,10018,1","3,1,012,1,+999,9",,"SYN106AAXX  13064 08359 12965 80000 10094 20086 30018 40117 53012 60002 81036 90700 333 20072 50124 55016 70000;","Q01  00002PRCP24Q02  00002PRCP12"
"08359099999","2010-12-13T18:00:00","4","38.3666666","-0.5","82.0","ALICANTE, SP","FM-12","99999","V020","999,9,C,0000,1","99999,9,9,N","012000,1,N,1","+0130,1","+0111,1","10137,1","12,0000,9,1",,,,,,"08,99,1,04,1,00,1,99999,9,02,1,06,1",,,"999,M,+0165,1","99999,9,10039,1","2,1,010,1,+999,9",,"SYN082AAXX  13184 08359 12962 80000 10130 20111 30039 40137 52010 60002 84026 333 10165;","Q01  00002PRCP12"
"08359099999","2010-12-14T06:00:00","4","38.3666666","-0.5","82.0","ALICANTE, SP","FM-12","99999","V020","999,9,C,0000,1","99999,9,9,N","010000,1,N,1","+0098,1","+0093,1","10171,1","12,0000,9,1","24,0000,9,1",,"6,1,06,1","2,1,06,1",,"05,99,1,05,1,00,1,99999,9,07,1,00,1","0030,9",,"999,N,+0084,1","99999,9,10071,1","3,1,006,1,+999,9","01,1","SYN112AAXX  14064 08359 11960 50000 10098 20093 30071 40171 53006 69912 70162 85070 90700 333 20084 50104 55005 70001;","Q01  00002PRCP24Q02  00002PRCP12"
"08359099999","2010-12-14T18:00:00","4","38.3666666","-0.5","82.0","ALICANTE, SP","FM-12","99999","V020","070,1,N,0015,1","22000,1,9,N","020000,1,N,1","+0120,1","+0104,1","10201,1","12,0000,9,1",,,,,,"02,99,1,02,1,04,1,00800,1,00,1,00,1",,,"999,M,+0162,1","99999,9,10102,1","1,1,010,1,+999,9",,"SYN082AAXX  14184 08359 12570 20703 10120 20104 30102 40201 51010 60002 82400 333 10162;","Q01  00002PRCP12"
"08359099999","2010-12-15T06:00:00","4","38.3666666","-0.5","82.0","ALICANTE, SP","FM-12","99999","V020","340,1,N,0021,1","22000,1,9,N","030000,1,N,1","+0060,1","-0044,1","10220,1","12,0000,9,1","24,0000,9,1",,,,,"01,99,1,01,1,04,1,01250,1,00,1,00,1","0138,9",,"999,N,+0050,1","99999,9,10118,1","3,1,015,1,+999,9",,"SYN106AAXX  15064 08359 12680 13404 10060 21044 30118 40220 53015 60002 81400 90700 333 20050 50134 55023 70000;","Q01  00002PRCP24Q02  00002PRCP12"
"08359099999","2010-12-15T18:00:00","4","38.3666666","-0.5","82.0","ALICANTE, SP","FM-12","99999","V020","340,1,N,0005,1","22000,1,9,N","030000,1,N,1","+0060,1","-0062,1","10232,1","12,0000,9,1",,,,,"00,1,+99999,9,99,9","00,99,1,00,1,00,1,99999,9,00,1,00,1",,,"999,M,+0120,1","99999,9,10130,1","1,1,003,1,+999,9",,"SYN076AAXX  15184 08359 12980 03401 10060 21062 30130 40232 51003 60002 333 10120;","Q01  00002PRCP12"
"08359099999","2010-12-16T06:00:00","4","38.3666666","-0.5","82.0","ALICANTE, SP","FM-12","99999","V020","999,9,C,0000,1","22000,1,9,N","025000,1,N,1","+0004,1","-0062,1","10215,1","12,0000,9,1","24,0000,9,1",,,,,"02,99,1,01,1,04,1,00800,1,04,1,00,1","0522,9",,"999,N,+0000,1","99999,9,10111,1","6,1,001,1,+999,9",,"SYN106AAXX  16064 08359 12575 20000 10004 21062 30111 40215 56001 60002 81440 90700 333 20000 50284 55087 70000;","Q01  00002PRCP24Q02  00002PRCP12"
"08359099999","2010-12-16T18:00:00","4","38.3666666","-0.5","82.0","ALICANTE, SP","FM-12","99999","V020","310,1,N,0005,1","22000,1,9,N","030000,1,N,1","+0064,1","-0046,1","10207,1","12,0000,9,1",,,,,"00,1,+99999,9,99,9","00,99,1,00,1,00,1,99999,9,00,1,00,1",,,"999,M,+0126,1","99999,9,10105,1","3,1,002,1,+999,9",,"SYN076AAXX  16184 08359 12980 03101 10064 21046 30105 40207 53002 60002 333 10126;","Q01  00002PRCP12"
"08359099999","2010-12-17T06:00:00","4","38.3666666","-0.5","82.0","ALICANTE, SP","FM-12","99999","V020","260,1,N,0005,1","22000,1,9,N","030000,1,N,1","+0026,1","-0073,1","10133,1","12,0000,9,1","24,0000,9,1",,,,"00,1,+99999,9,99,9","00,99,1,00,1,00,1,99999,9,00,1,00,1","0498,9",,"999,N,+0005,1","99999,9,10031,1","7,1,010,1,+999,9",,"SYN100AAXX  17064 08359 12980 02601 10026 21073 30031 40133 57010 60002 90700 333 20005 50254 55083 70000;","Q01  00002PRCP24Q02  00002PRCP12"
"08359099999","2010-12-17T18:00:00","4","38.3666666","-0.5","82.0","ALICANTE, SP","FM-12","99999","V020","290,1,N,0010,1","22000,1,9,N","030000,1,N,1","+0096,1","-0027,1","10037,1","12,0000,9,1",,,,,,"04,99,1,02,1,00,1,99999,9,03,1,09,1",,,"999,M,+0144,1","99999,9,09938,1","8,1,005,1,+999,9",,"SYN082AAXX  17184 08359 12980 42902 10096 21027 39938 40037 58005 60002 82039 333 10144;","Q01  00002PRCP12"
"08359099999","2010-12-18T06:00:00","4","38.3666666","-0.5","82.0","ALICANTE, SP","FM-12","99999","V020","030,1,N,0005,1","99999,9,9,N","015000,1,N,1","+0070,1","+0066,1","10041,1","12,0030,9,2","24,0025,9,2",,"6,1,06,1","2,1,06,1",,"07,99,1,07,1,00,1,99999,9,07,1,00,1","0528,9",,"999,N,+0070,1","99999,9,09942,1","3,1,006,1,+999,9","60,1","SYN112AAXX  18064 08359 11965 70301 10070 20066 39942 40041 53006 60032 76062 87070 90700 333 20070 50324 55088 70025;",
"08359099999","2010-12-18T18:00:00","4","38.3666666","-0.5","82.0","ALICANTE, SP","FM-12","99999","V020","999,9,C,0000,1","99999,9,9,N","012000,1,N,1","+0108,1","+0092,1","10039,1","12,0005,9,1",,,"6,1,06,1","2,1,06,1",,"08,99,1,08,1,00,1,99999,9,07,1,99,9",,,"999,M,+0118,1","99999,9,09941,1","6,1,002,1,+999,9","02,1","SYN088AAXX  18184 08359 11962 80000 10108 20092 39941 40039 56002 69962 70262 8807/ 333 10118;",
"08359099999","2010-12-19T06:00:00","4","38.3666666","-0.5","82.0","ALICANTE, SP","FM-12","99999","V020","999,9,C,0000,1","00420,1,9,N","006000,1,N,1","+0112,1","+0112,1","10009,1","12,0051,9,1","24,0051,9,1",,"6,1,06,1","6,1,06,1",,"08,99,1,05,1,07,1,00450,1,07,1,99,9","0000,9",,"999,N,+0100,1","99999,9,09911,1","8,1,001,1,+999,9","61,1","SYN112AAXX  19064 08359 11456 80000 10112 20112 39911 40009 58001 60052 76166 8577/ 90700 333 20100 50054 55000 70052;",
"08359099999","2010-12-19T18:00:00","4","38.3666666","-0.5","82.0","ALICANTE, SP","FM-12","99999","V020","230,1,N,0010,1","00750,1,9,N","010000,1,N,1","+0130,1","+0127,1","10049,1","12,0010,9,1",,,,,,"06,99,1,05,1,05,1,00800,1,04,1,00,1",,,"999,M,+0160,1","99999,9,09952,1","2,1,030,1,+999,9",,"SYN082AAXX  19184 08359 12560 62302 10130 20127 39952 40049 52030 69992 85540 333 10160;",
"08359099999","2010-12-20T06:00:00","4","38.3666666","-0.5","82.0","ALICANTE, SP","FM-12","99999","V020","999,9,C,0000,1","22000,1,9,N","020000,1,N,1","+0062,1","+0058,1","10118,1","12,0000,9,1","24,0010,9,1",,,,,"01,99,1,01,1,00,1,99999,9,04,1,00,1","0066,9",,"999,N,+0060,1","99999,9,10017,1","2,1,010,1,+999,9",,"SYN106AAXX  20064 08359 12970 10000 10062 20058 30017 40118 52010 60002 81040 90700 333 20060 50074 55011 70009;","Q01  00002PRCP12"
"08359099999","2010-12-20T18:00:00","4","38.3666666","-0.5","82.0","ALICANTE, SP","FM-12","99999","V020","999,9,C,0000,1","22000,1,9,N","020000,1,N,1","+0106,1","+0064,1","10123,1","12,0000,9,1",,,,,,"03,99,1,01,1,00,1,99999,9,04,1,06,1",,,"999,M,+0165,1","99999,9,10024,1","0,1,004,1,+999,9",,"SYN082AAXX  20184 08359 12970 30000 10106 20064 30024 40123 50004 60002 81046 333 10165;","Q01  00002PRCP12"
"08359099999","2010-12-21T06:00:00","4","38.3666666","-0.5","82.0","ALICANTE, SP","FM-12","99999","V020","999,9,C,0000,1","01200,1,9,N","015000,1,N,1","+0096,1","+0091,1","10061,1","12,0030,9,2","24,0028,9,2",,"6,1,06,1","6,1,06,1",,"08,99,1,05,1,05,1,01250,1,07,1,99,9","0384,9",,"999,N,+0070,1","99999,9,09962,1","6,1,010,1,+999,9","02,1","SYN112AAXX  21064 08359 11665 80000 10096 20091 39962 40061 56010 60032 70266 8557/ 90700 333 20070 50204 55064 70028;",
"08359099999","2010-12-21T18:00:00","4","38.3666666","-0.5","82.0","ALICANTE, SP","FM-12","99999","V020","210,1,N,0005,1","99999,9,9,N","012000,1,N,1","+0118,1","+0115,1","10031,1","12,0000,9,1",,,,,,"06,99,1,03,1,00,1,99999,9,07,1,02,1",,,"999,M,+0152,1","99999,9,09933,1","5,1,000,1,+999,9",,"SYN082AAXX  21184 08359 12962 62101 10118 20115 39933 40031 55000 69922 83072 333 10152;","Q01  00002PRCP12"
"08359099999","2010-12-22T06:00:00","4","38.3666666","-0.5","82.0","ALICANTE, SP","FM-12","99999","V020","999,9,C,0000,1","03600,1,9,N","015000,1,N,1","+0100,1","+0100,1","09993,1","12,0003,9,1","24,0005,9,1",,"6,1,06,1","2,1,06,1",,"08,99,1,02,1,04,1,01250,1,07,1,02,1","0006,9",,"999,N,+0080,1","99999,9,09895,1","7,1,010,1,+999,9","02,1","SYN112AAXX  22064 08359 11665 80000 10100 20100 39895 49993 57010 69932 70262 82472 90700 333 20080 50044 55001 70005;",
"08359099999","2010-12-22T18:00:00","4","38.3666666","-0.5","82.0","ALICANTE, SP","FM-12","99999","V020","999,9,C,0000,1","00420,1,9,N","010000,1,N,1","+0146,1","+0135,1","09952,1","12,0000,9,1",,,,,,"08,99,1,08,1,07,1,00450,1,99,9,99,9",,,"999,M,+0184,1","99999,9,09856,1","6,1,004,1,+999,9",,"SYN082AAXX  22184 08359 12460 80000 10146 20135 39856 49952 56004 60002 887// 333 10184;","Q01  00002PRCP12"
"08359099999","2010-12-23T06:00:00","4","38.3666666","-0.5","82.0","ALICANTE, SP","FM-12","99999","V020","999,9,C,0000,1","99999,9,9,N","020000,1,N,1","+0100,1","+0092,1","09946,1","12,0000,9,1","24,0000,9,1",,,,,"07,99,1,07,1,00,1,99999,9,07,1,00,1","0168,9",,"999,N,+0085,1","99999,9,09849,1","2,1,005,1,+999,9",,"SYN106AAXX  23064 08359 12970 70000 10100 20092 39849 49946 52005 60002 87070 90700 333 20085 50044 55028 70000;","Q01  00002PRCP24Q02  00002PRCP12"
"08359099999","2010-12-23T18:00:00","4","38.3666666","-0.5","82.0","ALICANTE, SP","FM-12","99999","V020","310,1,N,0031,1","03600,1,9,N","030000,1,N,1","+0130,1","+0044,1","09999,1","12,0000,9,1",,,,,,"06,99,1,03,1,08,1,00800,1,06,1,00,1",,,"999,M,+0180,1","99999,9,09902,1","3,1,027,1,+999,9",,"SYN082AAXX  23184 08359 12580 63106 10130 20044 39902 49999 53027 60002 83860 333 10180;","Q01  00002PRCP12"
"08359099999","2010-12-24T06:00:00","4","38.3666666","-0.5","82.0","ALICANTE, SP","FM-12","99999","V020","320,1,N,0021,1","22000,1,9,N","030000,1,N,1","+0080,1","-0007,1","10087,1","12,0000,9,1","24,0000,9,1",,,,,"04,99,1,00,1,00,1,99999,9,00,1,05,1","0258,9",,"999,N,+0078,1","99999,9,09987,1","1,1,012,1,+999,9",,"SYN106AAXX  24064 08359 12980 43204 10080 21007 39987 40087 51012 60002 80005 90700 333 20078 50424 55043 70000;","Q01  00002PRCP24Q02  00002PRCP12"
"08359099999","2010-12-24T18:00:00","4","38.3666666","-0.5","82.0","ALICANTE, SP","FM-12","99999","V020","300,1,N,0021,1","22000,1,9,N","030000,1,N,1","+0096,1","-0017,1","10128,1","12,0000,9,1",,,,,,"01,99,1,01,1,00,1,99999,9,06,1,01,1",,,"999,M,+0130,1","99999,9,10028,1","2,1,020,1,+999,9",,"SYN082AAXX  24184 08359 12980 13004 10096 21017 30028 40128 52020 60002 81061 333 10130;","Q01  00002PRCP12"
"08359099999","2010-12-25T18:00:00","4","38.3666666","-0.5","82.0","ALICANTE, SP","FM-12","99999","V020","310,1,N,0010,1","99999,9,9,N","030000,1,N,1","+0090,1","+0005,1","10152,1","12,0000,9,1",,,,,,"05,99,1,03,1,00,1,99999,9,04,1,02,1",,,"999,M,+0142,1","99999,9,10052,1","3,1,012,1,+999,9",,"SYN082AAXX  25184 08359 12980 53102 10090 20005 30052 40152 53012 60002 83042 333 10142;","Q01  00002PRCP12"
"08359099999","2010-12-26T06:00:00","4","38.3666666","-0.5","82.0","ALICANTE, SP","FM-12","99999","V020","320,1,N,0010,1","22000,1,9,N","030000,1,N,1","+0024,1","-0052,1","10186,1","12,0000,9,1","24,0000,9,1",,,,"00,1,+99999,9,99,9","00,99,1,00,1,00,1,99999,9,00,1,00,1","0336,9",,"999,N,+0016,1","99999,9,10083,1","2,1,015,1,+999,9",,"SYN100AAXX  26064 08359 12980 03202 10024 21052 30083 40186 52015 60002 90700 333 20016 50224 55056 70000;","Q01  00002PRCP24Q02  00002PRCP12"
"08359099999","2010-12-26T18:00:00","4","38.3666666","-0.5","82.0","ALICANTE, SP","FM-12","99999","V020","250,1,N,0005,1","22000,1,9,N","040000,1,N,1","+0066,1","-0015,1","10202,1","12,0000,9,1",,,,,,"01,99,1,00,1,00,1,99999,9,00,1,01,1",,,"999,M,+0144,1","99999,9,10101,1","1,1,010,1,+999,9",,"SYN082AAXX  26184 08359 12982 12501 10066 21015 30101 40202 51010 60002 80001 333 10144;","Q01  00002PRCP12"
"08359099999","2010-12-27T06:00:00","4","38.3666666","-0.5","82.0","ALICANTE, SP","FM-12","99999","V020","310,1,N,0005,1","22000,1,9,N","030000,1,N,1","-0010,1","-0065,1","10216,1","12,0000,9,1","24,0000,9,1",,,,,"01,99,1,00,1,00,1,99999,9,00,1,01,1","0528,9",,"999,N,-0020,1","99999,9,10112,1","3,1,008,1,+999,9",,"SYN106AAXX  27064 08359 12980 13101 11010 21065 30112 40216 53008 60002 80001 90700 333 21020 50234 55088 70000;","Q01  00002PRCP24Q02  00002PRCP12"
"08359099999","2010-12-27T18:00:00","4","38.3666666","-0.5","82.0","ALICANTE, SP","FM-12","99999","V020","999,9,C,0000,1","22000,1,9,N","018000,1,N,1","+0078,1","+0069,1","10215,1","12,0000,9,1",,,,,,"01,99,1,00,1,00,1,99999,9,00,1,01,1",,,"999,M,+0150,1","99999,9,10114,1","1,1,003,1,+999,9",,"SYN082AAXX  27184 08359 12968 10000 10078 20069 30114 40215 51003 60002 80001 333 10150;","Q01  00002PRCP12"
"08359099999","2010-12-28T06:00:00","4","38.3666666","-0.5","82.0","ALICANTE, SP","FM-12","99999","V020","999,9,C,0000,1","99999,9,9,N","020000,1,N,1","+0012,1","+0000,1","10204,1","12,0000,9,1","24,0000,9,1",,,,,"05,99,1,00,1,00,1,99999,9,00,1,06,1","0522,9",,"999,N,+0006,1","99999,9,10101,1","3,1,002,1,+999,9",,"SYN106AAXX  28064 08359 12970 50000 10012 20000 30101 40204 53002 60002 80006 90700 333 20006 50174 55087 70000;","Q01  00002PRCP24Q02  00002PRCP12"
"08359099999","2010-12-28T18:00:00","4","38.3666666","-0.5","82.0","ALICANTE, SP","FM-12","99999","V020","999,9,C,0000,1","99999,9,9,N","015000,1,N,1","+0094,1","+0073,1","10198,1","12,0000,9,1",,,,,,"08,99,1,03,1,00,1,99999,9,02,1,06,1",,,"999,M,+0144,1","99999,9,10098,1","2,1,004,1,+999,9",,"SYN082AAXX  28184 08359 12965 80000 10094 20073 30098 40198 52004 60002 83026 333 10144;","Q01  00002PRCP12"
"08359099999","2010-12-29T06:00:00","4","38.3666666","-0.5","82.0","ALICANTE, SP","FM-12","99999","V020","310,1,N,0005,1","22000,1,9,N","010000,1,N,1","+0036,1","+0026,1","10198,1","12,0000,9,1","24,0000,9,1",,,,,"03,99,1,01,1,00,1,99999,9,02,1,05,1","0330,9",,"999,N,+0026,1","99999,9,10096,1","5,1,000,1,+999,9",,"SYN106AAXX  29064 08359 12960 33101 10036 20026 30096 40198 55000 60002 81025 90700 333 20026 50104 55055 70000;","Q01  00002PRCP24Q02  00002PRCP12"
"08359099999","2010-12-29T18:00:00","4","38.3666666","-0.5","82.0","ALICANTE, SP","FM-12","99999","V020","999,9,C,0000,1","22000,1,9,N","010000,1,N,1","+0088,1","+0084,1","10178,1","12,0000,9,1",,,,,,"02,99,1,02,1,05,1,00800,1,00,1,00,1",,,"999,M,+0146,1","99999,9,10078,1","5,1,000,1,+999,9",,"SYN082AAXX  29184 08359 12560 20000 10088 20084 30078 40178 55000 60002 82500 333 10146;","Q01  00002PRCP12"
"08359099999","2010-12-30T06:00:00","4","38.3666666","-0.5","82.0","ALICANTE, SP","FM-12","99999","V020","320,1,N,0010,1","99999,9,9,N","015000,1,N,1","+0064,1","+0046,1","10168,1","12,0000,9,1","24,0000,9,1",,,,,"07,99,1,00,1,00,1,99999,9,00,1,06,1","0264,9",,"999,N,+0050,1","99999,9,10067,1","6,1,003,1,+999,9",,"SYN106AAXX  30064 08359 12965 73202 10064 20046 30067 40168 56003 60002 80006 90700 333 20050 50084 55044 70000;","Q01  00002PRCP24Q02  00002PRCP12"
"08359099999","2010-12-30T18:00:00","4","38.3666666","-0.5","82.0","ALICANTE, SP","FM-12","99999","V020","999,9,C,0000,1","22000,1,9,N","015000,1,N,1","+0108,1","+0087,1","10167,1","12,0000,9,1",,,,,,"03,99,1,01,1,00,1,99999,9,03,1,02,1",,,"999,M,+0174,1","99999,9,10068,1","2,1,010,1,+999,9",,"SYN082AAXX  30184 08359 12965 30000 10108 20087 30068 40167 52010 60002 81032 333 10174;","Q01  00002PRCP12"
"08359099999","2010-12-31T06:00:00","4","38.3666666","-0.5","82.0","ALICANTE, SP","FM-12","99999","V020","999,9,C,0000,1","99999,9,9,N","015000,1,N,1","+0066,1","+0062,1","10186,1","12,0000,9,1","24,0000,9,1",,,,,"05,99,1,05,1,00,1,99999,9,07,1,00,1","0198,9",,"999,N,+0060,1","99999,9,10085,1","3,1,005,1,+999,9",,"SYN106AAXX  31064 08359 12965 50000 10066 20062 30085 40186 53005 60002 85070 90700 333 20060 50114 55033 70000;","Q01  00002PRCP24Q02  00002PRCP12"
"08359099999","2010-12-31T18:00:00","4","38.3666666","-0.5","82.0","ALICANTE, SP","FM-12","99999","V020","999,9,C,0000,1","99999,9,9,N","005000,1,N,1","+0092,1","+0092,1","10190,1","12,0005,9,1",,,"6,1,06,1","6,1,06,1",,"05,99,1,02,1,00,1,99999,9,03,1,02,1",,,"999,M,+0130,1","99999,9,10090,1","3,1,003,1,+999,9","10,1","SYN088AAXX  31184 08359 11950 50000 10092 20092 30090 40190 53003 69952 71066 82032 333 10130;",
