"STATION","DATE","SOURCE","LATITUDE","LONGITUDE","ELEVATION","NAME","REPORT_TYPE","CALL_SIGN","QUALITY_CONTROL","WND","CIG","VIS","TMP","DEW","SLP","GA1","GA2","GA3","GA4","GF1","MA1","MW1","MW2","OC1","REM","EQD"
"08390599999","2010-01-04T10:00:00","4","37.3166666","-6.0","5.0","SEVILLA HELIPORT, SP","FM-15","LEEC ","V020","140,1,N,0031,1","00690,1,C,N","011265,1,N,1","+0140,1","+0130,1","99999,9","07,5,+00690,1,99,9","07,5,+01200,1,99,9",,,"07,99,1,99,9,99,9,99999,9,99,9,99,9","10061,1,99999,9",,,,"MET058METAR LEEC 041000Z 14006KT 9999 BKN023 BKN040 14/13 Q1006;",
"08390599999","2010-01-04T11:00:00","4","37.3166666","-6.0","5.0","SEVILLA HELIPORT, SP","FM-15","LEEC ","V020","290,1,N,0031,1","00450,1,C,N","011265,1,N,1","+0150,1","+0130,1","99999,9","02,5,+00300,1,99,9","04,5,+00450,1,99,9","07,5,+00750,1,99,9",,"07,99,1,99,9,99,9,99999,9,99,9,99,9","10061,1,99999,9",,,,"MET073METAR LEEC 041100Z 29006KT 210V330 9999 FEW010 SCT015 BKN025 15/13 Q1006;",
"08390599999","2010-01-04T12:00:00","4","37.3166666","-6.0","5.0","SEVILLA HELIPORT, SP","FM-15","LEEC ","V020","210,1,N,0057,1","99999,9,C,N","011265,1,N,1","+0160,1","+0120,1","99999,9","02,5,+00240,1,99,9","04,5,+00900,1,99,9",,,"04,99,1,99,9,99,9,99999,9,99,9,99,9","10051,1,99999,9",,,,"MET058METAR LEEC 041200Z 21011KT 9999 FEW008 SCT030 16/12 Q1005;","P01 009003SCOCIG"
"08390599999","2010-01-04T13:00:00","4","37.3166666","-6.0","5.0","SEVILLA HELIPORT, SP","FM-15","LEEC ","V020","210,1,N,0062,1","99999,9,C,N","011265,1,N,1","+0170,1","+0140,1","99999,9","02,5,+00150,1,02,1","04,5,+00750,1,99,9",,,"04,99,1,99,9,99,9,99999,9,99,9,99,9","10041,1,99999,9",,,,"MET061METAR LEEC 041300Z 21012KT 9999 FEW005TCU SCT025 17/14 Q1004;","P01 007503SCOCIG"
"08390599999","2010-01-04T14:00:00","4","37.3166666","-6.0","5.0","SEVILLA HELIPORT, SP","FM-15","LEEC ","V020","210,1,N,0046,1","99999,9,C,N","011265,1,N,1","+0160,1","+0120,1","99999,9","02,5,+00180,1,02,1","04,5,+00300,1,99,9",,,"04,99,1,99,9,99,9,99999,9,99,9,99,9","10041,1,99999,9","61,1",,,"MET065METAR LEEC 041400Z 21009KT 9999 -RA FEW006TCU SCT010 16/12 Q1004;","P01 003003SCOCIG"
"08390599999","2010-01-05T07:00:00","4","37.3166666","-6.0","5.0","SEVILLA HELIPORT, SP","FM-15","LEEC ","V020","240,1,N,0031,1","22000,1,9,N","011265,1,N,1","+0120,1","+0100,1","99999,9","02,5,+00600,1,99,9",,,,"02,99,1,99,9,99,9,99999,9,99,9,99,9","10020,1,99999,9",,,,"MET051METAR LEEC 050700Z 24006KT 9999 FEW020 12/10 Q1002;",
"08390599999","2010-01-05T08:00:00","4","37.3166666","-6.0","5.0","SEVILLA HELIPORT, SP","FM-15","LEEC ","V020","250,1,N,0021,1","22000,1,9,N","011265,1,N,1","+0110,1","+0100,1","99999,9","02,5,+00600,1,02,1",,,,"02,99,1,99,9,99,9,99999,9,99,9,99,9","10031,1,99999,9",,,,"MET054METAR LEEC 050800Z 25004KT 9999 FEW020TCU 11/10 Q1003;",
"08390599999","2010-01-05T09:00:00","4","37.3166666","-6.0","5.0","SEVILLA HELIPORT, SP","FM-15","LEEC ","V020","250,1,N,0021,1","22000,1,9,N","011265,1,N,1","+0120,1","+0110,1","99999,9","02,5,+00600,1,02,1",,,,"02,99,1,99,9,99,9,99999,9,99,9,99,9","10041,1,99999,9",,,,"MET054METAR LEEC 050900Z 25004KT 9999 FEW020TCU 12/11 Q1004;",
"08390599999","2010-01-05T10:00:00","4","37.3166666","-6.0","5.0","SEVILLA HELIPORT, SP","FM-15","LEEC ","V020","250,1,N,0036,1","22000,1,9,N","011265,1,N,1","+0140,1","+0110,1","99999,9","02,5,+00450,1,02,1",,,,"02,99,1,99,9,99,9,99999,9,99,9,99,9","10051,1,99999,9",,,,"MET054METAR LEEC 051000Z 25007KT 9999 FEW015TCU 14/11 Q1005;",
"08390599999","2010-01-05T11:00:00","4","37.3166666","-6.0","5.0","SEVILLA HELIPORT, SP","FM-15","LEEC ","V020","260,1,N,0046,1","22000,1,9,N","011265,1,N,1","+0150,1","+0110,1","99999,9","04,5,+00600,1,99,9",,,,"04,99,1,99,9,99,9,99999,9,99,9,99,9","10051,1,99999,9",,,,"MET059METAR LEEC 051100Z 26009KT 230V300 9999 SCT020 15/11 Q1005;",
"08390599999","2010-01-05T12:00:00","4","37.3166666","-6.0","5.0","SEVILLA HELIPORT, SP","FM-15","LEEC ","V020","260,1,N,0041,1","99999,9,C,N","011265,1,N,1","+0150,1","+0110,1","99999,9","02,5,+00600,1,99,9","04,5,+01050,1,99,9",,,"04,99,1,99,9,99,9,99999,9,99,9,99,9","10051,1,99999,9",,,,"MET058METAR LEEC 051200Z 26008KT 9999 FEW020 SCT035 15/11 Q1005;","P01 010503SCOCIG"
"08390599999","2010-01-05T13:00:00","4","37.3166666","-6.0","5.0","SEVILLA HELIPORT, SP","FM-15","LEEC ","V020","260,1,N,0046,1","01800,1,C,N","011265,1,N,1","+0150,1","+0110,1","99999,9","04,5,+00720,1,99,9","07,5,+01800,1,99,9",,,"07,99,1,99,9,99,9,99999,9,99,9,99,9","10051,1,99999,9",,,,"MET058METAR LEEC 051300Z 26009KT 9999 SCT024 BKN060 15/11 Q1005;",
"08390599999","2010-01-05T14:00:00","4","37.3166666","-6.0","5.0","SEVILLA HELIPORT, SP","FM-15","LEEC ","V020","270,1,N,0041,1","01800,1,C,N","011265,1,N,1","+0150,1","+0100,1","99999,9","04,5,+00600,1,99,9","07,5,+01800,1,99,9",,,"07,99,1,99,9,99,9,99999,9,99,9,99,9","10051,1,99999,9",,,,"MET058METAR LEEC 051400Z 27008KT 9999 SCT020 BKN060 15/10 Q1005;",
"08390599999","2010-01-07T09:00:00","4","37.3166666","-6.0","5.0","SEVILLA HELIPORT, SP","FM-15","LEEC ","V020","360,1,N,0021,1","00450,1,C,N","008000,1,N,1","+0100,1","+0090,1","99999,9","04,5,+00300,1,99,9","07,5,+00450,1,99,9",,,"07,99,1,99,9,99,9,99999,9,99,9,99,9","09959,1,99999,9","61,1",,,"MET062METAR LEEC 070900Z 36004KT 8000 -RA SCT010 BKN015 10/09 Q0996;",
"08390599999","2010-01-07T10:00:00","4","37.3166666","-6.0","5.0","SEVILLA HELIPORT, SP","FM-15","LEEC ","V020","999,9,V,0010,1","01620,5,C,N","011265,1,N,1","+0110,1","+0100,1","99999,9","04,5,+00600,1,99,9","07,5,+01620,5,99,9",,,"07,99,1,99,9,99,9,99999,9,99,9,99,9","09970,1,99999,9",,,,"MET058METAR LEEC 071000Z VRB02KT 9999 SCT020 BKN054 11/10 Q0997;",
"08390599999","2010-01-07T11:00:00","4","37.3166666","-6.0","5.0","SEVILLA HELIPORT, SP","FM-15","LEEC ","V020","300,1,N,0031,1","22000,1,9,N","011265,1,N,1","+0130,1","+0090,1","99999,9","04,5,+00900,1,99,9",,,,"04,99,1,99,9,99,9,99999,9,99,9,99,9","09980,1,99999,9",,,,"MET059METAR LEEC 071100Z 30006KT 260V350 9999 SCT030 13/09 Q0998;",
"08390599999","2010-01-07T12:00:00","4","37.3166666","-6.0","5.0","SEVILLA HELIPORT, SP","FM-15","LEEC ","V020","300,1,N,0036,1","22000,1,9,N","011265,1,N,1","+0130,1","+0070,1","99999,9","04,5,+00750,1,99,9",,,,"04,99,1,99,9,99,9,99999,9,99,9,99,9","09980,1,99999,9",,,,"MET059METAR LEEC 071200Z 30007KT 260V340 9999 SCT025 13/07 Q0998;",
"08390599999","2010-01-07T13:00:00","4","37.3166666","-6.0","5.0","SEVILLA HELIPORT, SP","FM-15","LEEC ","V020","320,1,N,0026,1","22000,1,9,N","011265,1,N,1","+0130,1","+0060,1","99999,9","04,5,+01050,1,99,9",,,,"04,99,1,99,9,99,9,99999,9,99,9,99,9","09980,1,99999,9",,,,"MET051METAR LEEC 071300Z 32005KT 9999 SCT035 13/06 Q0998;",
"08390599999","2010-01-07T14:00:00","4","37.3166666","-6.0","5.0","SEVILLA HELIPORT, SP","FM-15","LEEC ","V020","300,1,N,0031,1","01080,1,C,N","011265,1,N,1","+0130,1","+0060,1","99999,9","07,5,+01080,1,99,9",,,,"07,99,1,99,9,99,9,99999,9,99,9,99,9","09980,1,99999,9",,,,"MET051METAR LEEC 071400Z 30006KT 9999 BKN036 13/06 Q0998;",
"08390599999","2010-01-08T07:00:00","4","37.3166666","-6.0","5.0","SEVILLA HELIPORT, SP","FM-15","LEEC ","V020","999,9,V,0005,1","99999,9,9,Y","009900,1,N,1","+0050,1","-0020,1","99999,9",,,,,,"10102,1,99999,9",,,,"MET046METAR LEEC 080700Z VRB01KT CAVOK 05/M02 Q1010;",
"08390599999","2010-01-08T08:00:00","4","37.3166666","-6.0","5.0","SEVILLA HELIPORT, SP","FM-15","LEEC ","V020","270,1,N,0021,1","99999,9,9,Y","009900,1,N,1","+0050,1","-0010,1","99999,9",,,,,,"10108,1,99999,9",,,,"MET054METAR LEEC 080800Z 27004KT 250V320 CAVOK 05/M01 Q1011;",
"08390599999","2010-01-08T09:00:00","4","37.3166666","-6.0","5.0","SEVILLA HELIPORT, SP","FM-15","LEEC ","V020","999,9,V,0015,1","99999,9,9,Y","009900,1,N,1","+0060,1","-0020,1","99999,9",,,,,,"10119,1,99999,9",,,,"MET046METAR LEEC 080900Z VRB03KT CAVOK 06/M02 Q1012;",
"08390599999","2010-01-08T10:00:00","4","37.3166666","-6.0","5.0","SEVILLA HELIPORT, SP","FM-15","LEEC ","V020","330,1,N,0026,1","99999,9,9,Y","009900,1,N,1","+0070,1","-0030,1","99999,9",,,,,,"10129,1,99999,9",,,,"MET054METAR LEEC 081000Z 33005KT 280V020 CAVOK 07/M03 Q1013;",
"08390599999","2010-01-08T11:00:00","4","37.3166666","-6.0","5.0","SEVILLA HELIPORT, SP","FM-15","LEEC ","V020","320,1,N,0031,1","99999,9,9,Y","009900,1,N,1","+0080,1","-0040,1","99999,9",,,,,,"10129,1,99999,9",,,"0082,1","MET057METAR LEEC 081100Z 32006G16KT 260V050 CAVOK 08/M04 Q1013;",
"08390599999","2010-01-08T12:00:00","4","37.3166666","-6.0","5.0","SEVILLA HELIPORT, SP","FM-15","LEEC ","V020","310,1,N,0041,1","22000,1,9,N","011265,1,N,1","+0080,1","-0050,1","99999,9","02,5,+00900,1,99,9",,,,"02,99,1,99,9,99,9,99999,9,99,9,99,9","10129,1,99999,9",,,,"MET060METAR LEEC 081200Z 31008KT 260V040 9999 FEW030 08/M05 Q1013;",
"08390599999","2010-01-11T07:00:00","4","37.3166666","-6.0","5.0","SEVILLA HELIPORT, SP","FM-15","LEEC ","V020","999,9,V,0005,1","22000,1,9,N","009000,1,N,1","+0050,1","+0040,1","99999,9","02,5,+00780,1,99,9",,,,"02,99,1,99,9,99,9,99999,9,99,9,99,9","10129,1,99999,9",,,,"MET051METAR LEEC 110700Z VRB01KT 9000 FEW026 05/04 Q1013;",
"08390599999","2010-01-11T08:00:00","4","37.3166666","-6.0","5.0","SEVILLA HELIPORT, SP","FM-15","LEEC ","V020","999,9,V,0005,1","99999,9,C,N","005000,1,N,1","+0050,1","+0050,1","99999,9","02,5,+00180,1,99,9","04,5,+01350,1,99,9",,,"04,99,1,99,9,99,9,99999,9,99,9,99,9","10149,1,99999,9","10,1",,,"MET061METAR LEEC 110800Z VRB01KT 5000 BR FEW006 SCT045 05/05 Q1015;","P01 013503SCOCIG"
"08390599999","2010-01-11T09:00:00","4","37.3166666","-6.0","5.0","SEVILLA HELIPORT, SP","FM-15","LEEC ","V020","999,9,C,0000,1","99999,9,C,N","005000,1,N,1","+0060,1","+0060,1","99999,9","02,5,+00600,1,99,9","04,5,+01350,1,99,9",,,"04,99,1,99,9,99,9,99999,9,99,9,99,9","10159,1,99999,9","10,1",,,"MET061METAR LEEC 110900Z 00000KT 5000 BR FEW020 SCT045 06/06 Q1016;","P01 013503SCOCIG"
"08390599999","2010-01-11T10:00:00","4","37.3166666","-6.0","5.0","SEVILLA HELIPORT, SP","FM-15","LEEC ","V020","210,1,N,0015,1","22000,1,9,N","009000,1,N,1","+0090,1","+0080,1","99999,9","04,5,+01500,1,99,9",,,,"04,99,1,99,9,99,9,99999,9,99,9,99,9","10180,1,99999,9",,,,"MET051METAR LEEC 111000Z 21003KT 9000 SCT050 09/08 Q1018;",
"08390599999","2010-01-11T11:00:00","4","37.3166666","-6.0","5.0","SEVILLA HELIPORT, SP","FM-15","LEEC ","V020","210,1,N,0015,1","22000,1,9,N","011265,1,N,1","+0090,1","+0080,1","99999,9","02,5,+01200,1,99,9",,,,"02,99,1,99,9,99,9,99999,9,99,9,99,9","10180,1,99999,9",,,,"MET051METAR LEEC 111100Z 21003KT 9999 FEW040 09/08 Q1018;",
"08390599999","2010-01-11T12:00:00","4","37.3166666","-6.0","5.0","SEVILLA HELIPORT, SP","FM-15","LEEC ","V020","210,1,N,0015,1","99999,9,C,N","011265,1,N,1","+0090,1","+0080,1","99999,9","02,5,+00900,1,99,9","04,5,+01350,1,99,9",,,"04,99,1,99,9,99,9,99999,9,99,9,99,9","10180,1,99999,9",,,,"MET058METAR LEEC 111200Z 21003KT 9999 FEW030 SCT045 09/08 Q1018;","P01 013503SCOCIG"
"08390599999","2010-01-11T14:00:00","4","37.3166666","-6.0","5.0","SEVILLA HELIPORT, SP","FM-15","LEEC ","V020","250,1,N,0031,1","00750,1,C,N","011265,1,N,1","+0150,1","+0110,1","99999,9","04,5,+00450,1,99,9","04,5,+00750,1,99,9","07,5,+01350,1,99,9",,"07,99,1,99,9,99,9,99999,9,99,9,99,9","10190,1,99999,9",,,,"MET065METAR LEEC 111400Z 25006KT 9999 SCT015 SCT025 BKN045 15/11 Q1019;",
"08390599999","2010-01-11T15:00:00","4","37.3166666","-6.0","5.0","SEVILLA HELIPORT, SP","FM-15","LEEC ","V020","260,1,N,0041,1","01350,1,C,N","011265,1,N,1","+0150,1","+0100,1","99999,9","07,5,+01350,1,99,9",,,,"07,99,1,99,9,99,9,99999,9,99,9,99,9","10190,1,99999,9",,,,"MET059METAR LEEC 111500Z 26008KT 220V290 9999 BKN045 15/10 Q1019;",
"08390599999","2010-01-12T07:00:00","4","37.3166666","-6.0","5.0","SEVILLA HELIPORT, SP","FM-15","LEEC ","V020","250,1,N,0010,1","99999,9,C,N","009000,1,N,1","+0110,1","+0110,1","99999,9","02,5,+00600,1,99,9","04,5,+01500,1,99,9",,,"04,99,1,99,9,99,9,99999,9,99,9,99,9","10190,1,99999,9",,,,"MET058METAR LEEC 120700Z 25002KT 9000 FEW020 SCT050 11/11 Q1019;","P01 015003SCOCIG"
"08390599999","2010-01-12T08:00:00","4","37.3166666","-6.0","5.0","SEVILLA HELIPORT, SP","FM-15","LEEC ","V020","200,1,N,0015,1","00750,1,C,N","011265,1,N,1","+0110,1","+0110,1","99999,9","02,5,+00600,1,99,9","04,5,+00750,1,99,9","07,5,+01500,1,99,9",,"07,99,1,99,9,99,9,99999,9,99,9,99,9","10180,1,99999,9","53,1",,,"MET068METAR LEEC 120800Z 20003KT 9999 DZ FEW020 SCT025 BKN050 11/11 Q1018;",
"08390599999","2010-01-12T09:00:00","4","37.3166666","-6.0","5.0","SEVILLA HELIPORT, SP","FM-15","LEEC ","V020","200,1,N,0046,1","00600,1,C,N","011265,1,N,1","+0130,1","+0120,1","99999,9","02,5,+00300,1,99,9","04,5,+00600,1,99,9","07,5,+01500,1,99,9",,"07,99,1,99,9,99,9,99999,9,99,9,99,9","10190,1,99999,9",,,,"MET065METAR LEEC 120900Z 20009KT 9999 FEW010 SCT020 BKN050 13/12 Q1019;",
"08390599999","2010-01-12T10:00:00","4","37.3166666","-6.0","5.0","SEVILLA HELIPORT, SP","FM-15","LEEC ","V020","190,1,N,0057,1","01050,1,C,N","011265,1,N,1","+0140,1","+0130,1","99999,9","02,5,+00750,1,99,9","04,5,+01050,1,99,9","07,5,+01800,1,99,9",,"07,99,1,99,9,99,9,99999,9,99,9,99,9","10180,1,99999,9",,,,"MET065METAR LEEC 121000Z 19011KT 9999 FEW025 SCT035 BKN060 14/13 Q1018;",
"08390599999","2010-01-12T12:00:00","4","37.3166666","-6.0","5.0","SEVILLA HELIPORT, SP","FM-15","LEEC ","V020","200,1,N,0082,1","00450,1,C,N","009000,1,N,1","+0150,1","+0140,1","99999,9","02,5,+00300,1,99,9","04,5,+00450,1,99,9","07,5,+00600,1,99,9",,"07,99,1,99,9,99,9,99999,9,99,9,99,9","10149,1,99999,9","61,1",,,"MET069METAR LEEC 121200Z 20016KT 9000 -RA FEW010 SCT015 BKN020 15/14 Q1015;",
"08390599999","2010-01-12T13:00:00","4","37.3166666","-6.0","5.0","SEVILLA HELIPORT, SP","FM-15","LEEC ","V020","210,1,N,0098,1","00390,1,C,N","011265,1,N,1","+0160,1","+0140,1","99999,9","02,5,+00240,1,99,9","04,5,+00390,1,99,9","07,5,+00840,1,99,9",,"07,99,1,99,9,99,9,99999,9,99,9,99,9","10129,1,99999,9",,,"0149,1","MET068METAR LEEC 121300Z 21019G29KT 9999 FEW008 SCT013 BKN028 16/14 Q1013;",
"08390599999","2010-01-12T14:00:00","4","37.3166666","-6.0","5.0","SEVILLA HELIPORT, SP","FM-15","LEEC ","V020","210,1,N,0103,1","00600,1,C,N","003000,1,N,1","+0150,1","+0140,1","99999,9","04,5,+00450,1,99,9","07,5,+00600,1,99,9","07,5,+00900,1,99,9",,"07,99,1,99,9,99,9,99999,9,99,9,99,9","10119,1,99999,9","61,1",,,"MET069METAR LEEC 121400Z 21020KT 3000 -RA SCT015 BKN020 BKN030 15/14 Q1012;",
"08390599999","2010-01-12T15:00:00","4","37.3166666","-6.0","5.0","SEVILLA HELIPORT, SP","FM-15","LEEC ","V020","210,1,N,0113,1","00210,1,C,N","000900,1,N,1","+0150,1","+0150,1","99999,9","07,5,+00210,1,99,9","07,5,+00600,1,99,9",,,"07,99,1,99,9,99,9,99999,9,99,9,99,9","10102,1,99999,9","53,1","63,1",,"MET064METAR LEEC 121500Z 21022KT 0900 RA DZ BKN007 BKN020 15/15 Q1010;",
"08390599999","2010-01-13T07:00:00","4","37.3166666","-6.0","5.0","SEVILLA HELIPORT, SP","FM-15","LEEC ","V020","999,9,V,0005,1","01350,1,C,N","011265,1,N,1","+0110,1","+0100,1","99999,9","07,5,+01350,1,99,9","07,5,+01500,1,99,9",,,"07,99,1,99,9,99,9,99999,9,99,9,99,9","10180,1,99999,9",,,,"MET058METAR LEEC 130700Z VRB01KT 9999 BKN045 BKN050 11/10 Q1018;",
"08390599999","2010-01-13T08:00:00","4","37.3166666","-6.0","5.0","SEVILLA HELIPORT, SP","FM-15","LEEC ","V020","999,9,V,0005,1","01500,1,C,N","011265,1,N,1","+0110,1","+0100,1","99999,9","04,5,+01350,1,99,9","07,5,+01500,1,99,9",,,"07,99,1,99,9,99,9,99999,9,99,9,99,9","10180,1,99999,9",,,,"MET058METAR LEEC 130800Z VRB01KT 9999 SCT045 BKN050 11/10 Q1018;",
"08390599999","2010-01-13T09:00:00","4","37.3166666","-6.0","5.0","SEVILLA HELIPORT, SP","FM-15","LEEC ","V020","999,9,V,0005,1","01350,1,C,N","011265,1,N,1","+0110,1","+0100,1","99999,9","04,5,+00750,1,99,9","04,5,+01350,1,99,9","07,5,+01500,1,99,9",,"07,99,1,99,9,99,9,99999,9,99,9,99,9","10180,1,99999,9",,,,"MET065METAR LEEC 130900Z VRB01KT 9999 SCT025 SCT045 BKN050 11/10 Q1018;",
"08390599999","2010-01-13T10:00:00","4","37.3166666","-6.0","5.0","SEVILLA HELIPORT, SP","FM-15","LEEC ","V020","999,9,C,0000,1","00480,1,C,N","003000,1,N,1","+0120,1","+0110,1","99999,9","02,5,+00300,1,99,9","04,5,+00480,1,99,9","07,5,+00600,1,99,9",,"07,99,1,99,9,99,9,99999,9,99,9,99,9","10180,1,99999,9","53,1",,,"MET068METAR LEEC 131000Z 00000KT 3000 DZ FEW010 SCT016 BKN020 12/11 Q1018;",
"08390599999","2010-01-13T11:00:00","4","37.3166666","-6.0","5.0","SEVILLA HELIPORT, SP","FM-15","LEEC ","V020","120,1,N,0010,1","00540,1,C,N","011265,1,N,1","+0130,1","+0120,1","99999,9","07,5,+00540,1,99,9","07,5,+01500,1,99,9",,,"07,99,1,99,9,99,9,99999,9,99,9,99,9","10169,1,99999,9",,,,"MET058METAR LEEC 131100Z 12002KT 9999 BKN018 BKN050 13/12 Q1017;",
"08390599999","2010-01-13T12:00:00","4","37.3166666","-6.0","5.0","SEVILLA HELIPORT, SP","FM-15","LEEC ","V020","999,9,V,0005,1","00510,1,C,N","011265,1,N,1","+0130,1","+0120,1","99999,9","07,5,+00510,1,99,9","07,5,+01500,1,99,9",,,"07,99,1,99,9,99,9,99999,9,99,9,99,9","10169,1,99999,9",,,,"MET058METAR LEEC 131200Z VRB01KT 9999 BKN017 BKN050 13/12 Q1017;",
"08390599999","2010-01-13T13:00:00","4","37.3166666","-6.0","5.0","SEVILLA HELIPORT, SP","FM-15","LEEC ","V020","999,9,V,0005,1","00360,1,C,N","005000,1,N,1","+0130,1","+0120,1","99999,9","07,5,+00360,1,99,9","07,5,+01500,1,99,9",,,"07,99,1,99,9,99,9,99999,9,99,9,99,9","10149,1,99999,9",,,,"MET058METAR LEEC 131300Z VRB01KT 5000 BKN012 BKN050 13/12 Q1015;",
"08390599999","2010-01-13T14:00:00","4","37.3166666","-6.0","5.0","SEVILLA HELIPORT, SP","FM-15","LEEC ","V020","999,9,V,0010,1","00240,1,C,N","008000,1,N,1","+0130,1","+0130,1","99999,9","07,5,+00240,1,99,9","07,5,+01500,1,99,9",,,"07,99,1,99,9,99,9,99999,9,99,9,99,9","10139,1,99999,9",,,,"MET058METAR LEEC 131400Z VRB02KT 8000 BKN008 BKN050 13/13 Q1014;",
"08390599999","2010-01-14T07:00:00","4","37.3166666","-6.0","5.0","SEVILLA HELIPORT, SP","FM-15","LEEC ","V020","220,1,N,0026,1","99999,9,C,N","011265,1,N,1","+0140,1","+0100,1","99999,9","04,5,+01050,1,99,9","04,5,+01500,1,99,9",,,"04,99,1,99,9,99,9,99999,9,99,9,99,9","10139,1,99999,9",,,,"MET058METAR LEEC 140700Z 22005KT 9999 SCT035 SCT050 14/10 Q1014;","P01 015003SCOCIG"
"08390599999","2010-01-14T08:00:00","4","37.3166666","-6.0","5.0","SEVILLA HELIPORT, SP","FM-15","LEEC ","V020","220,1,N,0031,1","99999,9,C,N","011265,1,N,1","+0130,1","+0100,1","99999,9","04,5,+00900,1,99,9","04,5,+01350,1,99,9",,,"04,99,1,99,9,99,9,99999,9,99,9,99,9","10149,1,99999,9",,,,"MET058METAR LEEC 140800Z 22006KT 9999 SCT030 SCT045 13/10 Q1015;","P01 013503SCOCIG"
"08390599999","2010-01-14T09:00:00","4","37.3166666","-6.0","5.0","SEVILLA HELIPORT, SP","FM-15","LEEC ","V020","230,1,N,0021,1","01350,1,C,N","011265,1,N,1","+0130,1","+0100,1","99999,9","07,5,+01350,1,99,9",,,,"07,99,1,99,9,99,9,99999,9,99,9,99,9","10159,1,99999,9",,,,"MET059METAR LEEC 140900Z 23004KT 190V250 9999 BKN045 13/10 Q1016;",
"08390599999","2010-01-14T10:00:00","4","37.3166666","-6.0","5.0","SEVILLA HELIPORT, SP","FM-15","LEEC ","V020","250,1,N,0026,1","22000,1,9,N","011265,1,N,1","+0150,1","+0110,1","99999,9","02,5,+00750,1,99,9",,,,"02,99,1,99,9,99,9,99999,9,99,9,99,9","10159,1,99999,9",,,,"MET051METAR LEEC 141000Z 25005KT 9999 FEW025 15/11 Q1016;",
"08390599999","2010-01-14T11:00:00","4","37.3166666","-6.0","5.0","SEVILLA HELIPORT, SP","FM-15","LEEC ","V020","280,1,N,0051,1","22000,1,9,N","011265,1,N,1","+0160,1","+0090,1","99999,9","02,5,+00900,1,99,9",,,,"02,99,1,99,9,99,9,99999,9,99,9,99,9","10169,1,99999,9",,,,"MET059METAR LEEC 141100Z 28010KT 250V320 9999 FEW030 16/09 Q1017;",
"08390599999","2010-01-14T12:00:00","4","37.3166666","-6.0","5.0","SEVILLA HELIPORT, SP","FM-15","LEEC ","V020","280,1,N,0077,1","22000,1,9,N","011265,1,N,1","+0160,1","+0080,1","99999,9","02,5,+00900,1,99,9",,,,"02,99,1,99,9,99,9,99999,9,99,9,99,9","10169,1,99999,9",,,,"MET059METAR LEEC 141200Z 28015KT 250V310 9999 FEW030 16/08 Q1017;",
"08390599999","2010-01-14T13:00:00","4","37.3166666","-6.0","5.0","SEVILLA HELIPORT, SP","FM-15","LEEC ","V020","280,1,N,0067,1","99999,9,C,N","011265,1,N,1","+0170,1","+0080,1","99999,9","04,5,+01200,1,99,9","04,5,+01350,1,99,9",,,"04,99,1,99,9,99,9,99999,9,99,9,99,9","10169,1,99999,9",,,,"MET066METAR LEEC 141300Z 28013KT 250V310 9999 SCT040 SCT045 17/08 Q1017;","P01 013503SCOCIG"
"08390599999","2010-01-14T14:00:00","4","37.3166666","-6.0","5.0","SEVILLA HELIPORT, SP","FM-15","LEEC ","V020","290,1,N,0067,1","99999,9,C,N","011265,1,N,1","+0170,1","+0070,1","99999,9","04,5,+01050,1,99,9","04,5,+01200,1,99,9",,,"04,99,1,99,9,99,9,99999,9,99,9,99,9","10169,1,99999,9",,,"0118,1","MET069METAR LEEC 141400Z 29013G23KT 260V330 9999 SCT035 SCT040 17/07 Q1017;","P01 012003SCOCIG"
"08390599999","2010-01-14T15:00:00","4","37.3166666","-6.0","5.0","SEVILLA HELIPORT, SP","FM-15","LEEC ","V020","280,1,N,0057,1","22000,1,9,N","011265,1,N,1","+0170,1","+0080,1","99999,9","02,5,+01050,1,99,9",,,,"02,99,1,99,9,99,9,99999,9,99,9,99,9","10169,1,99999,9",,,"0108,1","MET062METAR LEEC 141500Z 28011G21KT 250V320 9999 FEW035 17/08 Q1017;",
"08390599999","2010-01-15T07:00:00","4","37.3166666","-6.0","5.0","SEVILLA HELIPORT, SP","FM-15","LEEC ","V020","999,9,V,0005,1","99999,9,9,Y","009900,1,N,1","+0080,1","+0080,1","99999,9",,,,,,"10240,1,99999,9",,,,"MET045METAR LEEC 150700Z VRB01KT CAVOK 08/08 Q1024;",
"08390599999","2010-01-15T08:00:00","4","37.3166666","-6.0","5.0","SEVILLA HELIPORT, SP","FM-15","LEEC ","V020","999,9,V,0015,1","99999,9,9,Y","009900,1,N,1","+0080,1","+0080,1","99999,9",,,,,,"10240,1,99999,9",,,,"MET045METAR LEEC 150800Z VRB03KT CAVOK 08/08 Q1024;",
"08390599999","2010-01-15T09:00:00","4","37.3166666","-6.0","5.0","SEVILLA HELIPORT, SP","FM-15","LEEC ","V020","040,1,N,0021,1","99999,9,9,Y","009900,1,N,1","+0090,1","+0080,1","99999,9",,,,,,"10251,1,99999,9",,,,"MET045METAR LEEC 150900Z 04004KT CAVOK 09/08 Q1025;",
"08390599999","2010-01-15T10:00:00","4","37.3166666","-6.0","5.0","SEVILLA HELIPORT, SP","FM-15","LEEC ","V020","030,1,N,0026,1","99999,9,9,Y","009900,1,N,1","+0100,1","+0090,1","99999,9",,,,,,"10251,1,99999,9",,,,"MET045METAR LEEC 151000Z 03005KT CAVOK 10/09 Q1025;",
"08390599999","2010-01-15T11:00:00","4","37.3166666","-6.0","5.0","SEVILLA HELIPORT, SP","FM-15","LEEC ","V020","080,1,N,0021,1","99999,9,9,Y","009900,1,N,1","+0120,1","+0090,1","99999,9",,,,,,"10261,1,99999,9",,,,"MET053METAR LEEC 151100Z 08004KT 040V140 CAVOK 12/09 Q1026;",
"08390599999","2010-01-15T12:00:00","4","37.3166666","-6.0","5.0","SEVILLA HELIPORT, SP","FM-15","LEEC ","V020","070,1,N,0021,1","99999,9,9,Y","009900,1,N,1","+0130,1","+0080,1","99999,9",,,,,,"10261,1,99999,9",,,,"MET053METAR LEEC 151200Z 07004KT 030V110 CAVOK 13/08 Q1026;",
"08390599999","2010-01-15T13:00:00","4","37.3166666","-6.0","5.0","SEVILLA HELIPORT, SP","FM-15","LEEC ","V020","999,9,V,0010,1","99999,9,9,Y","009900,1,N,1","+0140,1","+0080,1","99999,9",,,,,,"10251,1,99999,9",,,,"MET045METAR LEEC 151300Z VRB02KT CAVOK 14/08 Q1025;",
"08390599999","2010-01-15T14:00:00","4","37.3166666","-6.0","5.0","SEVILLA HELIPORT, SP","FM-15","LEEC ","V020","999,9,V,0015,1","99999,9,9,Y","009900,1,N,1","+0140,1","+0080,1","99999,9",,,,,,"10240,1,99999,9",,,,"MET045METAR LEEC 151400Z VRB03KT CAVOK 14/08 Q1024;",
"08390599999","2010-01-18T07:00:00","4","37.3166666","-6.0","5.0","SEVILLA HELIPORT, SP","FM-15","LEEC ","V020","999,9,V,0010,1","00510,1,C,N","007000,1,N,1","+0100,1","+0090,1","99999,9","07,5,+00510,1,99,9",,,,"07,99,1,99,9,99,9,99999,9,99,9,99,9","10200,1,99999,9",,,,"MET051METAR LEEC 180700Z VRB02KT 7000 BKN017 10/09 Q1020;",
"08390599999","2010-01-18T08:00:00","4","37.3166666","-6.0","5.0","SEVILLA HELIPORT, SP","FM-15","LEEC ","V020","010,1,N,0015,1","00720,1,C,N","005000,1,N,1","+0100,1","+0100,1","99999,9","02,5,+00360,1,99,9","08,5,+00720,1,99,9",,,"08,99,1,99,9,99,9,99999,9,99,9,99,9","10200,1,99999,9",,,,"MET058METAR LEEC 180800Z 01003KT 5000 FEW012 OVC024 10/10 Q1020;",
"08390599999","2010-01-18T09:00:00","4","37.3166666","-6.0","5.0","SEVILLA HELIPORT, SP","FM-15","LEEC ","V020","999,9,V,0005,1","00750,1,C,N","007000,1,N,1","+0110,1","+0100,1","99999,9","07,5,+00750,1,99,9",,,,"07,99,1,99,9,99,9,99999,9,99,9,99,9","10210,1,99999,9",,,,"MET051METAR LEEC 180900Z VRB01KT 7000 BKN025 11/10 Q1021;",
"08390599999","2010-01-18T10:00:00","4","37.3166666","-6.0","5.0","SEVILLA HELIPORT, SP","FM-15","LEEC ","V020","999,9,C,0000,1","00660,1,C,N","007000,1,N,1","+0120,1","+0110,1","99999,9","07,5,+00660,1,99,9",,,,"07,99,1,99,9,99,9,99999,9,99,9,99,9","10220,1,99999,9",,,,"MET051METAR LEEC 181000Z 00000KT 7000 BKN022 12/11 Q1022;",
"08390599999","2010-01-18T11:00:00","4","37.3166666","-6.0","5.0","SEVILLA HELIPORT, SP","FM-15","LEEC ","V020","999,9,V,0010,1","01140,1,C,N","008000,1,N,1","+0150,1","+0130,1","99999,9","02,5,+00300,1,99,9","07,5,+01140,1,99,9",,,"07,99,1,99,9,99,9,99999,9,99,9,99,9","10220,1,99999,9",,,,"MET058METAR LEEC 181100Z VRB02KT 8000 FEW010 BKN038 15/13 Q1022;",
"08390599999","2010-01-18T12:00:00","4","37.3166666","-6.0","5.0","SEVILLA HELIPORT, SP","FM-15","LEEC ","V020","210,1,N,0021,1","99999,9,C,N","011265,1,N,1","+0180,1","+0150,1","99999,9","02,5,+00600,1,99,9","04,5,+01260,1,99,9",,,"04,99,1,99,9,99,9,99999,9,99,9,99,9","10210,1,99999,9",,,,"MET058METAR LEEC 181200Z 21004KT 9999 FEW020 SCT042 18/15 Q1021;","P01 012603SCOCIG"
"08390599999","2010-01-18T13:00:00","4","37.3166666","-6.0","5.0","SEVILLA HELIPORT, SP","FM-15","LEEC ","V020","210,1,N,0046,1","01290,1,C,N","011265,1,N,1","+0180,1","+0150,1","99999,9","04,5,+00720,1,99,9","07,5,+01290,1,99,9",,,"07,99,1,99,9,99,9,99999,9,99,9,99,9","10200,1,99999,9",,,,"MET058METAR LEEC 181300Z 21009KT 9999 SCT024 BKN043 18/15 Q1020;",
"08390599999","2010-01-18T14:00:00","4","37.3166666","-6.0","5.0","SEVILLA HELIPORT, SP","FM-15","LEEC ","V020","200,1,N,0057,1","99999,9,C,N","011265,1,N,1","+0190,1","+0160,1","99999,9","02,5,+00450,1,99,9","04,5,+01170,1,99,9",,,"04,99,1,99,9,99,9,99999,9,99,9,99,9","10200,1,99999,9",,,,"MET058METAR LEEC 181400Z 20011KT 9999 FEW015 SCT039 19/16 Q1020;","P01 011703SCOCIG"
"08390599999","2010-01-18T15:00:00","4","37.3166666","-6.0","5.0","SEVILLA HELIPORT, SP","FM-15","LEEC ","V020","210,1,N,0062,1","01200,1,C,N","011265,1,N,1","+0190,1","+0160,1","99999,9","04,5,+00420,1,99,9","07,5,+01200,1,99,9",,,"07,99,1,99,9,99,9,99999,9,99,9,99,9","10200,1,99999,9",,,,"MET058METAR LEEC 181500Z 21012KT 9999 SCT014 BKN040 19/16 Q1020;",
"08390599999","2010-01-19T07:00:00","4","37.3166666","-6.0","5.0","SEVILLA HELIPORT, SP","FM-15","LEEC ","V020","999,9,C,0000,1","01650,5,C,N","005000,1,N,1","+0140,1","+0140,1","99999,9","04,5,+00990,1,99,9","07,5,+01650,5,99,9",,,"07,99,1,99,9,99,9,99999,9,99,9,99,9",,"10,1",,,"MET061METAR LEEC 190700Z 00000KT 5000 BR SCT033 BKN055 14/14 Q0121;",
"08390599999","2010-01-19T08:00:00","4","37.3166666","-6.0","5.0","SEVILLA HELIPORT, SP","FM-15","LEEC ","V020","999,9,V,0005,1","01500,1,C,N","008000,1,N,1","+0140,1","+0140,1","99999,9","04,5,+00330,1,99,9","07,5,+01500,1,99,9",,,"07,99,1,99,9,99,9,99999,9,99,9,99,9","10210,1,99999,9",,,,"MET058METAR LEEC 190800Z VRB01KT 8000 SCT011 BKN050 14/14 Q1021;",
"08390599999","2010-01-19T09:00:00","4","37.3166666","-6.0","5.0","SEVILLA HELIPORT, SP","FM-15","LEEC ","V020","999,9,V,0015,1","01500,1,C,N","011265,1,N,1","+0150,1","+0150,1","99999,9","02,5,+00150,1,99,9","07,5,+01500,1,99,9",,,"07,99,1,99,9,99,9,99999,9,99,9,99,9","10210,1,99999,9",,,,"MET058METAR LEEC 190900Z VRB03KT 9999 FEW005 BKN050 15/15 Q1021;",
"08390599999","2010-01-19T10:00:00","4","37.3166666","-6.0","5.0","SEVILLA HELIPORT, SP","FM-15","LEEC ","V020","200,1,N,0026,1","99999,9,C,N","011265,1,N,1","+0160,1","+0150,1","99999,9","04,5,+00150,1,99,9","04,5,+01080,1,99,9",,,"04,99,1,99,9,99,9,99999,9,99,9,99,9","10220,1,99999,9",,,,"MET058METAR LEEC 191000Z 20005KT 9999 SCT005 SCT036 16/15 Q1022;","P01 010803SCOCIG"
"08390599999","2010-01-19T11:00:00","4","37.3166666","-6.0","5.0","SEVILLA HELIPORT, SP","FM-15","LEEC ","V020","220,1,N,0041,1","02700,1,C,N","011265,1,N,1","+0170,1","+0160,1","99999,9","04,5,+00150,1,99,9","07,5,+02700,1,99,9",,,"07,99,1,99,9,99,9,99999,9,99,9,99,9","10220,1,99999,9",,,,"MET058METAR LEEC 191100Z 22008KT 9999 SCT005 BKN090 17/16 Q1022;",
"08390599999","2010-01-19T12:00:00","4","37.3166666","-6.0","5.0","SEVILLA HELIPORT, SP","FM-15","LEEC ","V020","230,1,N,0041,1","00420,1,C,N","011265,1,N,1","+0180,1","+0160,1","99999,9","02,5,+00240,1,99,9","07,5,+00420,1,99,9","07,5,+01200,1,99,9",,"07,99,1,99,9,99,9,99999,9,99,9,99,9","10220,1,99999,9",,,,"MET065METAR LEEC 191200Z 23008KT 9999 FEW008 BKN014 BKN040 18/16 Q1022;",
"08390599999","2010-01-19T13:00:00","4","37.3166666","-6.0","5.0","SEVILLA HELIPORT, SP","FM-15","LEEC ","V020","220,1,N,0031,1","01500,1,C,N","011265,1,N,1","+0180,1","+0160,1","99999,9","04,5,+00300,1,99,9","07,5,+01500,1,99,9",,,"07,99,1,99,9,99,9,99999,9,99,9,99,9","10210,1,99999,9",,,,"MET058METAR LEEC 191300Z 22006KT 9999 SCT010 BKN050 18/16 Q1021;",
"08390599999","2010-01-19T14:00:00","4","37.3166666","-6.0","5.0","SEVILLA HELIPORT, SP","FM-15","LEEC ","V020","230,1,N,0036,1","01470,1,C,N","011265,1,N,1","+0180,1","+0150,1","99999,9","02,5,+00240,1,99,9","07,5,+01470,1,99,9",,,"07,99,1,99,9,99,9,99999,9,99,9,99,9","10210,1,99999,9",,,,"MET058METAR LEEC 191400Z 23007KT 9999 FEW008 BKN049 18/15 Q1021;",
"08390599999","2010-01-19T15:00:00","4","37.3166666","-6.0","5.0","SEVILLA HELIPORT, SP","FM-15","LEEC ","V020","240,1,N,0036,1","01500,1,C,N","011265,1,N,1","+0180,1","+0140,1","99999,9","02,5,+00330,1,99,9","07,5,+01500,1,99,9",,,"07,99,1,99,9,99,9,99999,9,99,9,99,9","10210,1,99999,9",,,,"MET058METAR LEEC 191500Z 24007KT 9999 FEW011 BKN050 18/14 Q1021;",
"08390599999","2010-01-20T07:00:00","4","37.3166666","-6.0","5.0","SEVILLA HELIPORT, SP","FM-15","LEEC ","V020","999,9,V,0005,1","01410,1,C,N","011265,1,N,1","+0090,1","+0090,1","99999,9","07,5,+01410,1,99,9",,,,"07,99,1,99,9,99,9,99999,9,99,9,99,9","10240,1,99999,9",,,,"MET051METAR LEEC 200700Z VRB01KT 9999 BKN047 09/09 Q1024;",
"08390599999","2010-01-20T08:00:00","4","37.3166666","-6.0","5.0","SEVILLA HELIPORT, SP","FM-15","LEEC ","V020","999,9,V,0005,1","01260,1,C,N","011265,1,N,1","+0090,1","+0090,1","99999,9","02,5,+00630,1,99,9","07,5,+01260,1,99,9",,,"07,99,1,99,9,99,9,99999,9,99,9,99,9","10251,1,99999,9",,,,"MET058METAR LEEC 200800Z VRB01KT 9999 FEW021 BKN042 09/09 Q1025;",
"08390599999","2010-01-20T09:00:00","4","37.3166666","-6.0","5.0","SEVILLA HELIPORT, SP","FM-15","LEEC ","V020","999,9,V,0005,1","00750,1,C,N","011265,1,N,1","+0100,1","+0100,1","99999,9","07,5,+00750,1,99,9",,,,"07,99,1,99,9,99,9,99999,9,99,9,99,9","10251,1,99999,9",,,,"MET051METAR LEEC 200900Z VRB01KT 9999 BKN025 10/10 Q1025;",
"08390599999","2010-01-20T10:00:00","4","37.3166666","-6.0","5.0","SEVILLA HELIPORT, SP","FM-15","LEEC ","V020","999,9,C,0000,1","00900,1,C,N","011265,1,N,1","+0120,1","+0110,1","99999,9","02,5,+00690,1,99,9","07,5,+00900,1,99,9",,,"07,99,1,99,9,99,9,99999,9,99,9,99,9","10261,1,99999,9",,,,"MET058METAR LEEC 201000Z 00000KT 9999 FEW023 BKN030 12/11 Q1026;",
"08390599999","2010-01-20T14:00:00","4","37.3166666","-6.0","5.0","SEVILLA HELIPORT, SP","FM-15","LEEC ","V020","210,1,N,0031,1","01200,1,C,N","011265,1,N,1","+0150,1","+0110,1","99999,9","02,5,+00600,1,99,9","04,5,+01200,1,99,9","07,5,+01500,1,99,9",,"07,99,1,99,9,99,9,99999,9,99,9,99,9","10240,1,99999,9",,,,"MET065METAR LEEC 201400Z 21006KT 9999 FEW020 SCT040 BKN050 15/11 Q1024;",
"08390599999","2010-01-20T15:00:00","4","37.3166666","-6.0","5.0","SEVILLA HELIPORT, SP","FM-15","LEEC ","V020","200,1,N,0026,1","00660,1,C,N","011265,1,N,1","+0150,1","+0120,1","99999,9","07,5,+00660,1,99,9",,,,"07,99,1,99,9,99,9,99999,9,99,9,99,9","10240,1,99999,9",,,,"MET051METAR LEEC 201500Z 20005KT 9999 BKN022 15/12 Q1024;",
"08390599999","2010-01-21T07:00:00","4","37.3166666","-6.0","5.0","SEVILLA HELIPORT, SP","FM-15","LEEC ","V020","999,9,V,0005,1","22000,1,9,N","011265,1,N,1","+0080,1","+0070,1","99999,9","02,5,+00750,1,99,9",,,,"02,99,1,99,9,99,9,99999,9,99,9,99,9","10240,1,99999,9",,,,"MET051METAR LEEC 210700Z VRB01KT 9999 FEW025 08/07 Q1024;",
"08390599999","2010-01-21T08:00:00","4","37.3166666","-6.0","5.0","SEVILLA HELIPORT, SP","FM-15","LEEC ","V020","999,9,V,0005,1","99999,9,9,Y","009900,1,N,1","+0080,1","+0070,1","99999,9",,,,,,"10240,1,99999,9",,,,"MET045METAR LEEC 210800Z VRB01KT CAVOK 08/07 Q1024;",
"08390599999","2010-01-21T09:00:00","4","37.3166666","-6.0","5.0","SEVILLA HELIPORT, SP","FM-15","LEEC ","V020","020,1,N,0026,1","99999,9,9,Y","009900,1,N,1","+0090,1","+0070,1","99999,9",,,,,,"10240,1,99999,9",,,,"MET045METAR LEEC 210900Z 02005KT CAVOK 09/07 Q1024;",
"08390599999","2010-01-21T10:00:00","4","37.3166666","-6.0","5.0","SEVILLA HELIPORT, SP","FM-15","LEEC ","V020","030,1,N,0036,1","99999,9,9,Y","009900,1,N,1","+0100,1","+0070,1","99999,9",,,,,,"10251,1,99999,9",,,,"MET045METAR LEEC 211000Z 03007KT CAVOK 10/07 Q1025;",
"08390599999","2010-01-21T11:00:00","4","37.3166666","-6.0","5.0","SEVILLA HELIPORT, SP","FM-15","LEEC ","V020","030,1,N,0026,1","99999,9,9,Y","009900,1,N,1","+0120,1","+0080,1","99999,9",,,,,,"10251,1,99999,9",,,,"MET045METAR LEEC 211100Z 03005KT CAVOK 12/08 Q1025;",
"08390599999","2010-01-21T12:00:00","4","37.3166666","-6.0","5.0","SEVILLA HELIPORT, SP","FM-15","LEEC ","V020","040,1,N,0021,1","99999,9,9,Y","009900,1,N,1","+0130,1","+0090,1","99999,9",,,,,,"10251,1,99999,9",,,,"MET045METAR LEEC 211200Z 04004KT CAVOK 13/09 Q1025;",
"08390599999","2010-01-21T13:00:00","4","37.3166666","-6.0","5.0","SEVILLA HELIPORT, SP","FM-15","LEEC ","V020","030,1,N,0021,1","04500,1,C,N","011265,1,N,1","+0130,1","+0090,1","99999,9","02,5,+00600,1,99,9","07,5,+04500,1,99,9",,,"07,99,1,99,9,99,9,99999,9,99,9,99,9","10230,1,99999,9",,,,"MET058METAR LEEC 211300Z 03004KT 9999 FEW020 BKN150 13/09 Q1023;",
"08390599999","2010-01-21T14:00:00","4","37.3166666","-6.0","5.0","SEVILLA HELIPORT, SP","FM-15","LEEC ","V020","050,1,N,0021,1","99999,9,C,N","011265,1,N,1","+0140,1","+0100,1","99999,9","02,5,+00450,1,99,9","04,5,+02100,1,99,9",,,"04,99,1,99,9,99,9,99999,9,99,9,99,9","10220,1,99999,9",,,,"MET058METAR LEEC 211400Z 05004KT 9999 FEW015 SCT070 14/10 Q1022;","P01 021003SCOCIG"
"08390599999","2010-01-21T15:00:00","4","37.3166666","-6.0","5.0","SEVILLA HELIPORT, SP","FM-15","LEEC ","V020","110,1,N,0021,1","02400,1,C,N","011265,1,N,1","+0140,1","+0110,1","99999,9","02,5,+00600,1,99,9","07,5,+02400,1,99,9",,,"07,99,1,99,9,99,9,99999,9,99,9,99,9","10220,1,99999,9",,,,"MET058METAR LEEC 211500Z 11004KT 9999 FEW020 BKN080 14/11 Q1022;",
"08390599999","2010-01-22T07:00:00","4","37.3166666","-6.0","5.0","SEVILLA HELIPORT, SP","FM-15","LEEC ","V020","999,9,V,0015,1","22000,1,9,N","009000,1,N,1","+0080,1","+0070,1","99999,9",,,,,"00,99,1,99,9,99,9,99999,9,99,9,99,9","10220,1,99999,9",,,,"MET048METAR LEEC 220700Z VRB03KT 9000 NSC 08/07 Q1022;","Q01    003SCCGA1"
"08390599999","2010-01-22T08:00:00","4","37.3166666","-6.0","5.0","SEVILLA HELIPORT, SP","FM-15","LEEC ","V020","999,9,V,0015,1","22000,1,9,N","008000,1,N,1","+0090,1","+0080,1","99999,9",,,,,"00,99,1,99,9,99,9,99999,9,99,9,99,9","10220,1,99999,9",,,,"MET048METAR LEEC 220800Z VRB03KT 8000 NSC 09/08 Q1022;","Q01    003SCCGA1"
"08390599999","2010-01-22T09:00:00","4","37.3166666","-6.0","5.0","SEVILLA HELIPORT, SP","FM-15","LEEC ","V020","030,1,N,0057,1","99999,9,9,Y","009900,1,N,1","+0090,1","+0080,1","99999,9",,,,,,"10220,1,99999,9",,,,"MET045METAR LEEC 220900Z 03011KT CAVOK 09/08 Q1022;",
"08390599999","2010-01-22T10:00:00","4","37.3166666","-6.0","5.0","SEVILLA HELIPORT, SP","FM-15","LEEC ","V020","040,1,N,0062,1","99999,9,9,Y","009900,1,N,1","+0110,1","+0080,1","99999,9",,,,,,"10210,1,99999,9",,,,"MET045METAR LEEC 221000Z 04012KT CAVOK 11/08 Q1021;",
"08390599999","2010-01-22T11:00:00","4","37.3166666","-6.0","5.0","SEVILLA HELIPORT, SP","FM-15","LEEC ","V020","040,1,N,0051,1","99999,9,9,Y","009900,1,N,1","+0130,1","+0090,1","99999,9",,,,,,"10210,1,99999,9",,,,"MET045METAR LEEC 221100Z 04010KT CAVOK 13/09 Q1021;",
"08390599999","2010-01-22T12:00:00","4","37.3166666","-6.0","5.0","SEVILLA HELIPORT, SP","FM-15","LEEC ","V020","040,1,N,0046,1","99999,9,9,Y","009900,1,N,1","+0140,1","+0100,1","99999,9",,,,,,"10200,1,99999,9",,,,"MET045METAR LEEC 221200Z 04009KT CAVOK 14/10 Q1020;",
"08390599999","2010-01-22T13:00:00","4","37.3166666","-6.0","5.0","SEVILLA HELIPORT, SP","FM-15","LEEC ","V020","040,1,N,0036,1","99999,9,9,Y","009900,1,N,1","+0150,1","+0090,1","99999,9",,,,,,"10190,1,99999,9",,,,"MET045METAR LEEC 221300Z 04007KT CAVOK 15/09 Q1019;",
"08390599999","2010-01-22T14:00:00","4","37.3166666","-6.0","5.0","SEVILLA HELIPORT, SP","FM-15","LEEC ","V020","050,1,N,0031,1","99999,9,9,Y","009900,1,N,1","+0150,1","+0090,1","99999,9",,,,,,"10180,1,99999,9",,,,"MET045METAR LEEC 221400Z 05006KT CAVOK 15/09 Q1018;",
"08390599999","2010-01-25T07:00:00","4","37.3166666","-6.0","5.0","SEVILLA HELIPORT, SP","FM-15","LEEC ","V020","010,1,N,0010,1","99999,9,9,Y","009900,1,N,1","+0090,1","+0060,1","99999,9",,,,,,"10200,1,99999,9",,,,"MET045METAR LEEC 250700Z 01002KT CAVOK 09/06 Q1020;",
"08390599999","2010-01-25T08:00:00","4","37.3166666","-6.0","5.0","SEVILLA HELIPORT, SP","FM-15","LEEC ","V020","020,1,N,0021,1","99999,9,9,Y","009900,1,N,1","+0090,1","+0060,1","99999,9",,,,,,"10200,1,99999,9",,,,"MET045METAR LEEC 250800Z 02004KT CAVOK 09/06 Q1020;",
"08390599999","2010-01-25T09:00:00","4","37.3166666","-6.0","5.0","SEVILLA HELIPORT, SP","FM-15","LEEC ","V020","020,1,N,0031,1","99999,9,9,Y","009900,1,N,1","+0110,1","+0060,1","99999,9",,,,,,"10210,1,99999,9",,,,"MET045METAR LEEC 250900Z 02006KT CAVOK 11/06 Q1021;",
"08390599999","2010-01-25T10:00:00","4","37.3166666","-6.0","5.0","SEVILLA HELIPORT, SP","FM-15","LEEC ","V020","030,1,N,0041,1","99999,9,9,Y","009900,1,N,1","+0120,1","+0070,1","99999,9",,,,,,"10210,1,99999,9",,,,"MET045METAR LEEC 251000Z 03008KT CAVOK 12/07 Q1021;",
"08390599999","2010-01-25T11:00:00","4","37.3166666","-6.0","5.0","SEVILLA HELIPORT, SP","FM-15","LEEC ","V020","040,1,N,0046,1","99999,9,9,Y","009900,1,N,1","+0130,1","+0070,1","99999,9",,,,,,"10210,1,99999,9",,,,"MET045METAR LEEC 251100Z 04009KT CAVOK 13/07 Q1021;",
"08390599999","2010-01-25T12:00:00","4","37.3166666","-6.0","5.0","SEVILLA HELIPORT, SP","FM-15","LEEC ","V020","040,1,N,0046,1","99999,9,9,Y","009900,1,N,1","+0140,1","+0070,1","99999,9",,,,,,"10200,1,99999,9",,,,"MET045METAR LEEC 251200Z 04009KT CAVOK 14/07 Q1020;",
"08390599999","2010-01-25T13:00:00","4","37.3166666","-6.0","5.0","SEVILLA HELIPORT, SP","FM-15","LEEC ","V020","040,1,N,0046,1","22000,1,9,N","011265,1,N,1","+0150,1","+0070,1","99999,9","02,5,+00900,1,02,1",,,,"02,99,1,99,9,99,9,99999,9,99,9,99,9","10180,1,99999,9",,,,"MET054METAR LEEC 251300Z 04009KT 9999 FEW030TCU 15/07 Q1018;",
"08390599999","2010-01-25T14:00:00","4","37.3166666","-6.0","5.0","SEVILLA HELIPORT, SP","FM-15","LEEC ","V020","040,1,N,0051,1","22000,1,9,N","011265,1,N,1","+0160,1","+0070,1","99999,9","02,5,+00900,1,02,1",,,,"02,99,1,99,9,99,9,99999,9,99,9,99,9","10169,1,99999,9",,,,"MET054METAR LEEC 251400Z 04010KT 9999 FEW030TCU 16/07 Q1017;",
"08390599999","2010-01-25T15:00:00","4","37.3166666","-6.0","5.0","SEVILLA HELIPORT, SP","FM-15","LEEC ","V020","040,1,N,0046,1","03000,1,C,N","011265,1,N,1","+0160,1","+0070,1","99999,9","02,5,+00600,1,09,1","07,5,+03000,1,99,9",,,"07,99,1,99,9,99,9,99999,9,99,9,99,9","10169,1,99999,9",,,,"MET060METAR LEEC 251500Z 04009KT 9999 FEW020CB BKN100 16/07 Q1017;",
"08390599999","2010-01-26T07:00:00","4","37.3166666","-6.0","5.0","SEVILLA HELIPORT, SP","FM-15","LEEC ","V020","040,1,N,0072,1","22000,1,9,N","011265,1,N,1","+0090,1","+0070,1","99999,9","02,5,+00600,1,99,9",,,,"02,99,1,99,9,99,9,99999,9,99,9,99,9","10119,1,99999,9",,,,"MET051METAR LEEC 260700Z 04014KT 9999 FEW020 09/07 Q1012;",
"08390599999","2010-01-26T08:00:00","4","37.3166666","-6.0","5.0","SEVILLA HELIPORT, SP","FM-15","LEEC ","V020","040,1,N,0057,1","01350,1,C,N","011265,1,N,1","+0090,1","+0070,1","99999,9","04,5,+00360,1,99,9","07,5,+01350,1,99,9",,,"07,99,1,99,9,99,9,99999,9,99,9,99,9","10129,1,99999,9",,,,"MET058METAR LEEC 260800Z 04011KT 9999 SCT012 BKN045 09/07 Q1013;",
"08390599999","2010-01-26T09:00:00","4","37.3166666","-6.0","5.0","SEVILLA HELIPORT, SP","FM-15","LEEC ","V020","040,1,N,0062,1","00750,1,C,N","008000,1,N,1","+0090,1","+0070,1","99999,9","04,5,+00330,1,99,9","08,5,+00750,1,99,9",,,"08,99,1,99,9,99,9,99999,9,99,9,99,9","10129,1,99999,9","63,1",,,"MET061METAR LEEC 260900Z 04012KT 8000 RA SCT011 OVC025 09/07 Q1013;",
"08390599999","2010-01-26T10:00:00","4","37.3166666","-6.0","5.0","SEVILLA HELIPORT, SP","FM-15","LEEC ","V020","020,1,N,0036,1","01800,1,C,N","011265,1,N,1","+0090,1","+0080,1","99999,9","02,5,+00210,1,99,9","07,5,+01800,1,99,9",,,"07,99,1,99,9,99,9,99999,9,99,9,99,9","10129,1,99999,9",,,,"MET058METAR LEEC 261000Z 02007KT 9999 FEW007 BKN060 09/08 Q1013;",
"08390599999","2010-01-26T11:00:00","4","37.3166666","-6.0","5.0","SEVILLA HELIPORT, SP","FM-15","LEEC ","V020","030,1,N,0036,1","01650,5,C,N","011265,1,N,1","+0100,1","+0070,1","99999,9","02,5,+00360,1,99,9","07,5,+01650,5,99,9",,,"07,99,1,99,9,99,9,99999,9,99,9,99,9","10139,1,99999,9",,,,"MET058METAR LEEC 261100Z 03007KT 9999 FEW012 BKN055 10/07 Q1014;",
"08390599999","2010-01-26T12:00:00","4","37.3166666","-6.0","5.0","SEVILLA HELIPORT, SP","FM-15","LEEC ","V020","040,1,N,0093,1","01800,1,C,N","011265,1,N,1","+0130,1","+0060,1","99999,9","02,5,+00450,1,99,9","07,5,+01800,1,99,9",,,"07,99,1,99,9,99,9,99999,9,99,9,99,9","10129,1,99999,9",,,,"MET058METAR LEEC 261200Z 04018KT 9999 FEW015 BKN060 13/06 Q1013;",
"08390599999","2010-01-26T13:00:00","4","37.3166666","-6.0","5.0","SEVILLA HELIPORT, SP","FM-15","LEEC ","V020","050,1,N,0087,1","02100,1,C,N","011265,1,N,1","+0130,1","+0060,1","99999,9","02,5,+00600,1,99,9","07,5,+02100,1,99,9",,,"07,99,1,99,9,99,9,99999,9,99,9,99,9","10119,1,99999,9",,,,"MET058METAR LEEC 261300Z 05017KT 9999 FEW020 BKN070 13/06 Q1012;",
"08390599999","2010-01-26T14:00:00","4","37.3166666","-6.0","5.0","SEVILLA HELIPORT, SP","FM-15","LEEC ","V020","050,1,N,0103,1","01800,1,C,N","011265,1,N,1","+0140,1","+0060,1","99999,9","02,5,+00600,1,99,9","07,5,+01800,1,99,9",,,"07,99,1,99,9,99,9,99999,9,99,9,99,9","10119,1,99999,9",,,,"MET058METAR LEEC 261400Z 05020KT 9999 FEW020 BKN060 14/06 Q1012;",
"08390599999","2010-01-26T15:00:00","4","37.3166666","-6.0","5.0","SEVILLA HELIPORT, SP","FM-15","LEEC ","V020","050,1,N,0123,1","01800,1,C,N","011265,1,N,1","+0120,1","+0060,1","99999,9","02,5,+00600,1,99,9","07,5,+01800,1,99,9",,,"07,99,1,99,9,99,9,99999,9,99,9,99,9","10129,1,99999,9",,,,"MET058METAR LEEC 261500Z 05024KT 9999 FEW020 BKN060 12/06 Q1013;",
"08390599999","2010-01-27T07:00:00","4","37.3166666","-6.0","5.0","SEVILLA HELIPORT, SP","FM-15","LEEC ","V020","040,1,N,0046,1","99999,9,9,Y","009900,1,N,1","+0070,1","+0040,1","99999,9",,,,,,"10149,1,99999,9",,,,"MET045METAR LEEC 270700Z 04009KT CAVOK 07/04 Q1015;",
"08390599999","2010-01-27T08:00:00","4","37.3166666","-6.0","5.0","SEVILLA HELIPORT, SP","FM-15","LEEC ","V020","030,1,N,0041,1","01800,1,C,N","011265,1,N,1","+0080,1","+0040,1","99999,9","02,5,+00900,1,99,9","07,5,+01800,1,99,9",,,"07,99,1,99,9,99,9,99999,9,99,9,99,9","10139,1,99999,9",,,,"MET058METAR LEEC 270800Z 03008KT 9999 FEW030 BKN060 08/04 Q1014;",
"08390599999","2010-01-27T09:00:00","4","37.3166666","-6.0","5.0","SEVILLA HELIPORT, SP","FM-15","LEEC ","V020","040,1,N,0067,1","99999,9,C,N","011265,1,N,1","+0080,1","+0020,1","99999,9","02,5,+00900,1,99,9","04,5,+01800,1,99,9",,,"04,99,1,99,9,99,9,99999,9,99,9,99,9","10159,1,99999,9",,,,"MET058METAR LEEC 270900Z 04013KT 9999 FEW030 SCT060 08/02 Q1016;","P01 018003SCOCIG"
"08390599999","2010-01-27T10:00:00","4","37.3166666","-6.0","5.0","SEVILLA HELIPORT, SP","FM-15","LEEC ","V020","040,1,N,0093,1","99999,9,9,Y","009900,1,N,1","+0090,1","+0000,1","99999,9",,,,,,"10159,1,99999,9",,,,"MET045METAR LEEC 271000Z 04018KT CAVOK 09/00 Q1016;",
"08390599999","2010-01-27T11:00:00","4","37.3166666","-6.0","5.0","SEVILLA HELIPORT, SP","FM-15","LEEC ","V020","050,1,N,0098,1","99999,9,9,Y","009900,1,N,1","+0100,1","+0000,1","99999,9",,,,,,"10159,1,99999,9",,,,"MET045METAR LEEC 271100Z 05019KT CAVOK 10/00 Q1016;",
"08390599999","2010-01-27T12:00:00","4","37.3166666","-6.0","5.0","SEVILLA HELIPORT, SP","FM-15","LEEC ","V020","040,1,N,0087,1","99999,9,9,Y","009900,1,N,1","+0100,1","+0000,1","99999,9",,,,,,"10139,1,99999,9",,,,"MET045METAR LEEC 271200Z 04017KT CAVOK 10/00 Q1014;",
"08390599999","2010-01-27T13:00:00","4","37.3166666","-6.0","5.0","SEVILLA HELIPORT, SP","FM-15","LEEC ","V020","050,1,N,0087,1","99999,9,9,Y","009900,1,N,1","+0110,1","-0010,1","99999,9",,,,,,"10139,1,99999,9",,,,"MET046METAR LEEC 271300Z 05017KT CAVOK 11/M01 Q1014;",
"08390599999","2010-01-27T14:00:00","4","37.3166666","-6.0","5.0","SEVILLA HELIPORT, SP","FM-15","LEEC ","V020","050,1,N,0082,1","99999,9,9,Y","009900,1,N,1","+0120,1","+0000,1","99999,9",,,,,,"10129,1,99999,9",,,,"MET045METAR LEEC 271400Z 05016KT CAVOK 12/00 Q1013;",
"08390599999","2010-01-27T15:00:00","4","37.3166666","-6.0","5.0","SEVILLA HELIPORT, SP","FM-15","LEEC ","V020","050,1,N,0077,1","99999,9,9,Y","009900,1,N,1","+0120,1","+0010,1","99999,9",,,,,,"10129,1,99999,9",,,,"MET045METAR LEEC 271500Z 05015KT CAVOK 12/01 Q1013;",
"08390599999","2010-01-28T07:00:00","4","37.3166666","-6.0","5.0","SEVILLA HELIPORT, SP","FM-15","LEEC ","V020","030,1,N,0057,1","99999,9,9,Y","009900,1,N,1","+0070,1","+0030,1","99999,9",,,,,,"10180,1,99999,9",,,,"MET045METAR LEEC 280700Z 03011KT CAVOK 07/03 Q1018;",
"08390599999","2010-01-28T08:00:00","4","37.3166666","-6.0","5.0","SEVILLA HELIPORT, SP","FM-15","LEEC ","V020","030,1,N,0036,1","99999,9,9,Y","009900,1,N,1","+0070,1","+0020,1","99999,9",,,,,,"10190,1,99999,9",,,,"MET045METAR LEEC 280800Z 03007KT CAVOK 07/02 Q1019;",
"08390599999","2010-01-28T09:00:00","4","37.3166666","-6.0","5.0","SEVILLA HELIPORT, SP","FM-15","LEEC ","V020","030,1,N,0051,1","99999,9,9,Y","009900,1,N,1","+0080,1","+0020,1","99999,9",,,,,,"10200,1,99999,9",,,,"MET045METAR LEEC 280900Z 03010KT CAVOK 08/02 Q1020;",
"08390599999","2010-01-28T10:00:00","4","37.3166666","-6.0","5.0","SEVILLA HELIPORT, SP","FM-15","LEEC ","V020","040,1,N,0067,1","99999,9,9,Y","009900,1,N,1","+0090,1","+0030,1","99999,9",,,,,,"10200,1,99999,9",,,,"MET045METAR LEEC 281000Z 04013KT CAVOK 09/03 Q1020;",
"08390599999","2010-01-28T11:00:00","4","37.3166666","-6.0","5.0","SEVILLA HELIPORT, SP","FM-15","LEEC ","V020","040,1,N,0067,1","99999,9,9,Y","009900,1,N,1","+0100,1","+0030,1","99999,9",,,,,,"10200,1,99999,9",,,,"MET045METAR LEEC 281100Z 04013KT CAVOK 10/03 Q1020;",
"08390599999","2010-01-28T12:00:00","4","37.3166666","-6.0","5.0","SEVILLA HELIPORT, SP","FM-15","LEEC ","V020","050,1,N,0057,1","99999,9,9,Y","009900,1,N,1","+0110,1","+0030,1","99999,9",,,,,,"10200,1,99999,9",,,,"MET045METAR LEEC 281200Z 05011KT CAVOK 11/03 Q1020;",
"08390599999","2010-01-28T13:00:00","4","37.3166666","-6.0","5.0","SEVILLA HELIPORT, SP","FM-15","LEEC ","V020","030,1,N,0051,1","99999,9,9,Y","009900,1,N,1","+0120,1","+0030,1","99999,9",,,,,,"10190,1,99999,9",,,,"MET045METAR LEEC 281300Z 03010KT CAVOK 12/03 Q1019;",
"08390599999","2010-01-28T14:00:00","4","37.3166666","-6.0","5.0","SEVILLA HELIPORT, SP","FM-15","LEEC ","V020","040,1,N,0041,1","99999,9,9,Y","009900,1,N,1","+0130,1","+0050,1","99999,9",,,,,,"10180,1,99999,9",,,,"MET045METAR LEEC 281400Z 04008KT CAVOK 13/05 Q1018;",
"08390599999","2010-01-28T15:00:00","4","37.3166666","-6.0","5.0","SEVILLA HELIPORT, SP","FM-15","LEEC ","V020","030,1,N,0036,1","99999,9,9,Y","009900,1,N,1","+0140,1","+0030,1","99999,9",,,,,,"10169,1,99999,9",,,,"MET053METAR LEEC 281500Z 03007KT 010V070 CAVOK 14/03 Q1017;",
"08390599999","2010-01-29T07:00:00","4","37.3166666","-6.0","5.0","SEVILLA HELIPORT, SP","FM-15","LEEC ","V020","190,1,N,0005,1","99999,9,9,Y","009900,1,N,1","+0030,1","+0020,1","99999,9",,,,,,"10139,1,99999,9",,,,"MET045METAR LEEC 290700Z 19001KT CAVOK 03/02 Q1014;",
"08390599999","2010-01-29T08:00:00","4","37.3166666","-6.0","5.0","SEVILLA HELIPORT, SP","FM-15","LEEC ","V020","999,9,C,0000,1","99999,9,9,Y","009900,1,N,1","+0030,1","+0030,1","99999,9",,,,,,"10139,1,99999,9",,,,"MET045METAR LEEC 290800Z 00000KT CAVOK 03/03 Q1014;",
"08390599999","2010-01-29T09:00:00","4","37.3166666","-6.0","5.0","SEVILLA HELIPORT, SP","FM-15","LEEC ","V020","150,1,N,0015,1","99999,9,9,Y","009900,1,N,1","+0060,1","+0030,1","99999,9",,,,,,"10139,1,99999,9",,,,"MET045METAR LEEC 290900Z 15003KT CAVOK 06/03 Q1014;",
"08390599999","2010-01-29T10:00:00","4","37.3166666","-6.0","5.0","SEVILLA HELIPORT, SP","FM-15","LEEC ","V020","999,9,V,0015,1","99999,9,9,Y","009900,1,N,1","+0060,1","+0040,1","99999,9",,,,,,"10149,1,99999,9",,,,"MET045METAR LEEC 291000Z VRB03KT CAVOK 06/04 Q1015;",
"08390599999","2010-01-29T11:00:00","4","37.3166666","-6.0","5.0","SEVILLA HELIPORT, SP","FM-15","LEEC ","V020","999,9,V,0010,1","99999,9,9,Y","009900,1,N,1","+0080,1","+0030,1","99999,9",,,,,,"10139,1,99999,9",,,,"MET045METAR LEEC 291100Z VRB02KT CAVOK 08/03 Q1014;",
"08390599999","2010-01-29T12:00:00","4","37.3166666","-6.0","5.0","SEVILLA HELIPORT, SP","FM-15","LEEC ","V020","180,1,N,0021,1","99999,9,9,Y","009900,1,N,1","+0090,1","+0050,1","99999,9",,,,,,"10139,1,99999,9",,,,"MET053METAR LEEC 291200Z 18004KT 150V210 CAVOK 09/05 Q1014;",
"08390599999","2010-01-29T13:00:00","4","37.3166666","-6.0","5.0","SEVILLA HELIPORT, SP","FM-15","LEEC ","V020","200,1,N,0026,1","99999,9,9,Y","009900,1,N,1","+0110,1","+0050,1","99999,9",,,,,,"10119,1,99999,9",,,,"MET053METAR LEEC 291300Z 20005KT 160V230 CAVOK 11/05 Q1012;",
"08390599999","2010-01-29T14:00:00","4","37.3166666","-6.0","5.0","SEVILLA HELIPORT, SP","FM-15","LEEC ","V020","180,1,N,0031,1","99999,9,9,Y","009900,1,N,1","+0120,1","+0060,1","99999,9",,,,,,"10108,1,99999,9",,,,"MET053METAR LEEC 291400Z 18006KT 150V210 CAVOK 12/06 Q1011;",
"08390599999","2010-02-01T07:00:00","4","37.3166666","-6.0","5.0","SEVILLA HELIPORT, SP","FM-15","LEEC ","V020","020,1,N,0026,1","99999,9,9,Y","009900,1,N,1","+0060,1","+0040,1","99999,9",,,,,,"10169,1,99999,9",,,,"MET045METAR LEEC 010700Z 02005KT CAVOK 06/04 Q1017;",
"08390599999","2010-02-01T08:00:00","4","37.3166666","-6.0","5.0","SEVILLA HELIPORT, SP","FM-15","LEEC ","V020","030,1,N,0021,1","99999,9,9,Y","009900,1,N,1","+0060,1","+0040,1","99999,9",,,,,,"10180,1,99999,9",,,,"MET045METAR LEEC 010800Z 03004KT CAVOK 06/04 Q1018;",
"08390599999","2010-02-01T09:00:00","4","37.3166666","-6.0","5.0","SEVILLA HELIPORT, SP","FM-15","LEEC ","V020","999,9,V,0015,1","99999,9,9,Y","009900,1,N,1","+0080,1","+0050,1","99999,9",,,,,,"10180,1,99999,9",,,,"MET045METAR LEEC 010900Z VRB03KT CAVOK 08/05 Q1018;",
"08390599999","2010-02-01T10:00:00","4","37.3166666","-6.0","5.0","SEVILLA HELIPORT, SP","FM-15","LEEC ","V020","020,1,N,0026,1","99999,9,9,Y","009900,1,N,1","+0090,1","+0050,1","99999,9",,,,,,"10190,1,99999,9",,,,"MET053METAR LEEC 011000Z 02005KT 350V050 CAVOK 09/05 Q1019;",
"08390599999","2010-02-01T11:00:00","4","37.3166666","-6.0","5.0","SEVILLA HELIPORT, SP","FM-15","LEEC ","V020","040,1,N,0041,1","99999,9,9,Y","009900,1,N,1","+0110,1","+0070,1","99999,9",,,,,,"10200,1,99999,9",,,,"MET045METAR LEEC 011100Z 04008KT CAVOK 11/07 Q1020;",
"08390599999","2010-02-01T12:00:00","4","37.3166666","-6.0","5.0","SEVILLA HELIPORT, SP","FM-15","LEEC ","V020","050,1,N,0046,1","99999,9,9,Y","009900,1,N,1","+0120,1","+0060,1","99999,9",,,,,,"10190,1,99999,9",,,,"MET045METAR LEEC 011200Z 05009KT CAVOK 12/06 Q1019;",
"08390599999","2010-02-01T13:00:00","4","37.3166666","-6.0","5.0","SEVILLA HELIPORT, SP","FM-15","LEEC ","V020","050,1,N,0051,1","99999,9,9,Y","009900,1,N,1","+0130,1","+0070,1","99999,9",,,,,,"10190,1,99999,9",,,,"MET045METAR LEEC 011300Z 05010KT CAVOK 13/07 Q1019;",
"08390599999","2010-02-01T15:00:00","4","37.3166666","-6.0","5.0","SEVILLA HELIPORT, SP","FM-15","LEEC ","V020","040,1,N,0041,1","99999,9,9,Y","009900,1,N,1","+0150,1","+0060,1","99999,9",,,,,,"10169,1,99999,9",,,,"MET053METAR LEEC 011500Z 04008KT 360V070 CAVOK 15/06 Q1017;",
"08390599999","2010-02-02T07:00:00","4","37.3166666","-6.0","5.0","SEVILLA HELIPORT, SP","FM-15","LEEC ","V020","350,1,N,0021,1","99999,9,9,Y","009900,1,N,1","+0070,1","+0040,1","99999,9",,,,,,"10210,1,99999,9",,,,"MET053METAR LEEC 020700Z 35004KT 310V050 CAVOK 07/04 Q1021;",
"08390599999","2010-02-02T08:00:00","4","37.3166666","-6.0","5.0","SEVILLA HELIPORT, SP","FM-15","LEEC ","V020","350,1,N,0021,1","99999,9,9,Y","009900,1,N,1","+0070,1","+0040,1","99999,9",,,,,,"10220,1,99999,9",,,,"MET053METAR LEEC 020800Z 35004KT 310V050 CAVOK 07/04 Q1022;",
"08390599999","2010-02-02T09:00:00","4","37.3166666","-6.0","5.0","SEVILLA HELIPORT, SP","FM-15","LEEC ","V020","020,1,N,0031,1","99999,9,9,Y","009900,1,N,1","+0080,1","+0040,1","99999,9",,,,,,"10220,1,99999,9",,,,"MET045METAR LEEC 020900Z 02006KT CAVOK 08/04 Q1022;",
"08390599999","2010-02-02T10:00:00","4","37.3166666","-6.0","5.0","SEVILLA HELIPORT, SP","FM-15","LEEC ","V020","010,1,N,0026,1","99999,9,9,Y","009900,1,N,1","+0100,1","+0050,1","99999,9",,,,,,"10220,1,99999,9",,,,"MET053METAR LEEC 021000Z 01005KT 340V040 CAVOK 10/05 Q1022;",
"08390599999","2010-02-02T11:00:00","4","37.3166666","-6.0","5.0","SEVILLA HELIPORT, SP","FM-15","LEEC ","V020","050,1,N,0046,1","99999,9,9,Y","009900,1,N,1","+0120,1","+0090,1","99999,9",,,,,,"10220,1,99999,9",,,,"MET045METAR LEEC 021100Z 05009KT CAVOK 12/09 Q1022;",
"08390599999","2010-02-02T12:00:00","4","37.3166666","-6.0","5.0","SEVILLA HELIPORT, SP","FM-15","LEEC ","V020","040,1,N,0046,1","99999,9,9,Y","009900,1,N,1","+0140,1","+0070,1","99999,9",,,,,,"10220,1,99999,9",,,,"MET045METAR LEEC 021200Z 04009KT CAVOK 14/07 Q1022;",
"08390599999","2010-02-02T13:00:00","4","37.3166666","-6.0","5.0","SEVILLA HELIPORT, SP","FM-15","LEEC ","V020","030,1,N,0036,1","99999,9,9,Y","009900,1,N,1","+0140,1","+0060,1","99999,9",,,,,,"10210,1,99999,9",,,,"MET045METAR LEEC 021300Z 03007KT CAVOK 14/06 Q1021;",
"08390599999","2010-02-02T14:00:00","4","37.3166666","-6.0","5.0","SEVILLA HELIPORT, SP","FM-15","LEEC ","V020","040,1,N,0036,1","99999,9,9,Y","009900,1,N,1","+0130,1","+0050,1","99999,9",,,,,,"10190,1,99999,9",,,,"MET045METAR LEEC 021400Z 04007KT CAVOK 13/05 Q1019;",
"08390599999","2010-02-02T15:00:00","4","37.3166666","-6.0","5.0","SEVILLA HELIPORT, SP","FM-15","LEEC ","V020","060,1,N,0031,1","99999,9,9,Y","009900,1,N,1","+9999,9","+9999,9","99999,9",,,,,,"10190,1,99999,9",,,,"MET053METAR LEEC 021500Z 06006KT 020V090 CAVOK ///// Q1019;",
"08390599999","2010-02-03T07:00:00","4","37.3166666","-6.0","5.0","SEVILLA HELIPORT, SP","FM-15","LEEC ","V020","020,1,N,0031,1","22000,1,9,N","011265,1,N,1","+0080,1","+0060,1","99999,9","04,5,+01200,1,99,9",,,,"04,99,1,99,9,99,9,99999,9,99,9,99,9","10169,1,99999,9",,,,"MET051METAR LEEC 030700Z 02006KT 9999 SCT040 08/06 Q1017;",
"08390599999","2010-02-03T08:00:00","4","37.3166666","-6.0","5.0","SEVILLA HELIPORT, SP","FM-15","LEEC ","V020","020,1,N,0031,1","22000,1,9,N","011265,1,N,1","+0080,1","+0050,1","99999,9","04,5,+01260,1,99,9",,,,"04,99,1,99,9,99,9,99999,9,99,9,99,9","10180,1,99999,9",,,,"MET051METAR LEEC 030800Z 02006KT 9999 SCT042 08/05 Q1018;",
"08390599999","2010-02-03T09:00:00","4","37.3166666","-6.0","5.0","SEVILLA HELIPORT, SP","FM-15","LEEC ","V020","030,1,N,0036,1","01350,1,C,N","011265,1,N,1","+0080,1","+0050,1","99999,9","07,5,+01350,1,99,9",,,,"07,99,1,99,9,99,9,99999,9,99,9,99,9","10180,1,99999,9",,,,"MET051METAR LEEC 030900Z 03007KT 9999 BKN045 08/05 Q1018;",
"08390599999","2010-02-03T10:00:00","4","37.3166666","-6.0","5.0","SEVILLA HELIPORT, SP","FM-15","LEEC ","V020","020,1,N,0036,1","01350,1,C,N","011265,1,N,1","+0090,1","+0060,1","99999,9","07,5,+01350,1,99,9",,,,"07,99,1,99,9,99,9,99999,9,99,9,99,9","10180,1,99999,9",,,,"MET051METAR LEEC 031000Z 02007KT 9999 BKN045 09/06 Q1018;",
"08390599999","2010-02-03T11:00:00","4","37.3166666","-6.0","5.0","SEVILLA HELIPORT, SP","FM-15","LEEC ","V020","020,1,N,0041,1","01350,1,C,N","011265,1,N,1","+0100,1","+0060,1","99999,9","07,5,+01350,1,99,9",,,,"07,99,1,99,9,99,9,99999,9,99,9,99,9","10169,1,99999,9",,,,"MET051METAR LEEC 031100Z 02008KT 9999 BKN045 10/06 Q1017;",
"08390599999","2010-02-03T12:00:00","4","37.3166666","-6.0","5.0","SEVILLA HELIPORT, SP","FM-15","LEEC ","V020","010,1,N,0026,1","01260,1,C,N","011265,1,N,1","+0110,1","+0070,1","99999,9","07,5,+01260,1,99,9",,,,"07,99,1,99,9,99,9,99999,9,99,9,99,9","10169,1,99999,9",,,,"MET059METAR LEEC 031200Z 01005KT 330V030 9999 BKN042 11/07 Q1017;",
"08390599999","2010-02-03T13:00:00","4","37.3166666","-6.0","5.0","SEVILLA HELIPORT, SP","FM-15","LEEC ","V020","020,1,N,0036,1","01350,1,C,N","011265,1,N,1","+0130,1","+0070,1","99999,9","07,5,+01350,1,99,9",,,,"07,99,1,99,9,99,9,99999,9,99,9,99,9","10159,1,99999,9",,,,"MET051METAR LEEC 031300Z 02007KT 9999 BKN045 13/07 Q1016;",
"08390599999","2010-02-03T14:00:00","4","37.3166666","-6.0","5.0","SEVILLA HELIPORT, SP","FM-15","LEEC ","V020","010,1,N,0031,1","22000,1,9,N","011265,1,N,1","+9999,9","+9999,9","99999,9","02,5,+01350,1,99,9",,,,"02,99,1,99,9,99,9,99999,9,99,9,99,9","10149,1,99999,9",,,,"MET059METAR LEEC 031400Z 01006KT 340V040 9999 FEW045 ///// Q1015;",
"08390599999","2010-02-03T15:00:00","4","37.3166666","-6.0","5.0","SEVILLA HELIPORT, SP","FM-15","LEEC ","V020","030,1,N,0041,1","22000,1,9,N","011265,1,N,1","+9999,9","+9999,9","99999,9","02,5,+01200,1,99,9",,,,"02,99,1,99,9,99,9,99999,9,99,9,99,9","10139,1,99999,9",,,,"MET051METAR LEEC 031500Z 03008KT 9999 FEW040 ///// Q1014;",
"08390599999","2010-02-04T08:00:00","4","37.3166666","-6.0","5.0","SEVILLA HELIPORT, SP","FM-15","LEEC ","V020","240,1,N,0021,1","01500,1,C,N","011265,1,N,1","+0080,1","+0080,1","99999,9","04,5,+01200,1,99,9","07,5,+01500,1,99,9",,,"07,99,1,99,9,99,9,99999,9,99,9,99,9","10129,1,99999,9",,,,"MET058METAR LEEC 040800Z 24004KT 9999 SCT040 BKN050 08/08 Q1013;",
"08390599999","2010-02-04T09:00:00","4","37.3166666","-6.0","5.0","SEVILLA HELIPORT, SP","FM-15","LEEC ","V020","240,1,N,0021,1","01200,1,C,N","011265,1,N,1","+0100,1","+0090,1","99999,9","02,5,+00750,1,99,9","04,5,+01200,1,99,9","07,5,+01800,1,99,9",,"07,99,1,99,9,99,9,99999,9,99,9,99,9","10139,1,99999,9",,,,"MET065METAR LEEC 040900Z 24004KT 9999 FEW025 SCT040 BKN060 10/09 Q1014;",
"08390599999","2010-02-04T10:00:00","4","37.3166666","-6.0","5.0","SEVILLA HELIPORT, SP","FM-15","LEEC ","V020","180,1,N,0026,1","01350,1,C,N","011265,1,N,1","+0110,1","+0100,1","99999,9","04,5,+00600,1,99,9","07,5,+01350,1,99,9",,,"07,99,1,99,9,99,9,99999,9,99,9,99,9","10149,1,99999,9",,,,"MET058METAR LEEC 041000Z 18005KT 9999 SCT020 BKN045 11/10 Q1015;",
"08390599999","2010-02-04T11:00:00","4","37.3166666","-6.0","5.0","SEVILLA HELIPORT, SP","FM-15","LEEC ","V020","180,1,N,0036,1","00450,1,C,N","003000,1,N,1","+0100,1","+0100,1","99999,9","07,5,+00450,1,99,9",,,,"07,99,1,99,9,99,9,99999,9,99,9,99,9","10159,1,99999,9","10,1","53,1",,"MET057METAR LEEC 041100Z 18007KT 3000 DZ BR BKN015 10/10 Q1016;",
"08390599999","2010-02-04T12:00:00","4","37.3166666","-6.0","5.0","SEVILLA HELIPORT, SP","FM-15","LEEC ","V020","190,1,N,0031,1","00300,1,C,N","003000,1,N,1","+0110,1","+0100,1","99999,9","04,5,+00120,1,99,9","07,5,+00300,1,99,9",,,"07,99,1,99,9,99,9,99999,9,99,9,99,9","10159,1,99999,9","10,1","53,1",,"MET064METAR LEEC 041200Z 19006KT 3000 DZ BR SCT004 BKN010 11/10 Q1016;",
"08390599999","2010-02-04T13:00:00","4","37.3166666","-6.0","5.0","SEVILLA HELIPORT, SP","FM-15","LEEC ","V020","200,1,N,0031,1","00300,1,C,N","005000,1,N,1","+0110,1","+0110,1","99999,9","04,5,+00150,1,99,9","07,5,+00300,1,99,9",,,"07,99,1,99,9,99,9,99999,9,99,9,99,9","10159,1,99999,9","53,1",,,"MET061METAR LEEC 041300Z 20006KT 5000 DZ SCT005 BKN010 11/11 Q1016;",
"08390599999","2010-02-04T14:00:00","4","37.3166666","-6.0","5.0","SEVILLA HELIPORT, SP","FM-15","LEEC ","V020","220,1,N,0057,1","00900,1,C,N","011265,1,N,1","+0160,1","+0150,1","99999,9","02,5,+00180,1,99,9","04,5,+00900,1,99,9","07,5,+01500,1,99,9",,"07,99,1,99,9,99,9,99999,9,99,9,99,9","10149,1,99999,9",,,,"MET065METAR LEEC 041400Z 22011KT 9999 FEW006 SCT030 BKN050 16/15 Q1015;",
"08390599999","2010-02-04T15:00:00","4","37.3166666","-6.0","5.0","SEVILLA HELIPORT, SP","FM-15","LEEC ","V020","240,1,N,0057,1","99999,9,C,N","011265,1,N,1","+0190,1","+0140,1","99999,9","02,5,+00750,1,99,9","04,5,+00900,1,99,9",,,"04,99,1,99,9,99,9,99999,9,99,9,99,9","10149,1,99999,9",,,,"MET058METAR LEEC 041500Z 24011KT 9999 FEW025 SCT030 19/14 Q1015;","P01 009003SCOCIG"
"08390599999","2010-02-05T07:00:00","4","37.3166666","-6.0","5.0","SEVILLA HELIPORT, SP","FM-15","LEEC ","V020","200,1,N,0010,1","99999,9,C,N","011265,1,N,1","+0100,1","+0090,1","99999,9","02,5,+00030,1,99,9","04,5,+01500,1,99,9",,,"04,99,1,99,9,99,9,99999,9,99,9,99,9","10210,1,99999,9",,,,"MET058METAR LEEC 050700Z 20002KT 9999 FEW001 SCT050 10/09 Q1021;","P01 015003SCOCIG"
"08390599999","2010-02-05T08:00:00","4","37.3166666","-6.0","5.0","SEVILLA HELIPORT, SP","FM-15","LEEC ","V020","999,9,C,0000,1","01500,1,C,N","008000,1,N,1","+0100,1","+0100,1","99999,9","02,5,+00030,1,99,9","07,5,+01500,1,99,9",,,"07,99,1,99,9,99,9,99999,9,99,9,99,9","10220,1,99999,9",,,,"MET058METAR LEEC 050800Z 00000KT 8000 FEW001 BKN050 10/10 Q1022;",
"08390599999","2010-02-05T09:00:00","4","37.3166666","-6.0","5.0","SEVILLA HELIPORT, SP","FM-15","LEEC ","V020","160,1,N,0010,1","00900,1,C,N","011265,1,N,1","+0100,1","+0100,1","99999,9","02,5,+00030,1,99,9","04,5,+00900,1,99,9","07,5,+01500,1,99,9",,"07,99,1,99,9,99,9,99999,9,99,9,99,9","10230,1,99999,9",,,,"MET065METAR LEEC 050900Z 16002KT 9999 FEW001 SCT030 BKN050 10/10 Q1023;",
"08390599999","2010-02-05T10:00:00","4","37.3166666","-6.0","5.0","SEVILLA HELIPORT, SP","FM-15","LEEC ","V020","999,9,V,0010,1","22000,1,9,N","011265,1,N,1","+0120,1","+0110,1","99999,9","04,5,+01200,1,99,9",,,,"04,99,1,99,9,99,9,99999,9,99,9,99,9","10230,1,99999,9",,,,"MET051METAR LEEC 051000Z VRB02KT 9999 SCT040 12/11 Q1023;",
"08390599999","2010-02-05T11:00:00","4","37.3166666","-6.0","5.0","SEVILLA HELIPORT, SP","FM-15","LEEC ","V020","270,1,N,0036,1","99999,9,C,N","011265,1,N,1","+0140,1","+0100,1","99999,9","04,5,+01200,1,99,9","04,5,+01500,1,99,9",,,"04,99,1,99,9,99,9,99999,9,99,9,99,9","10230,1,99999,9",,,,"MET066METAR LEEC 051100Z 27007KT 220V310 9999 SCT040 SCT050 14/10 Q1023;","P01 015003SCOCIG"
"08390599999","2010-02-05T12:00:00","4","37.3166666","-6.0","5.0","SEVILLA HELIPORT, SP","FM-15","LEEC ","V020","270,1,N,0036,1","01350,1,C,N","011265,1,N,1","+0160,1","+0100,1","99999,9","07,5,+01350,1,99,9",,,,"07,99,1,99,9,99,9,99999,9,99,9,99,9","10230,1,99999,9",,,,"MET059METAR LEEC 051200Z 27007KT 250V310 9999 BKN045 16/10 Q1023;",
"08390599999","2010-02-05T13:00:00","4","37.3166666","-6.0","5.0","SEVILLA HELIPORT, SP","FM-15","LEEC ","V020","270,1,N,0036,1","22000,1,9,N","011265,1,N,1","+0180,1","+0100,1","99999,9","04,5,+01200,1,99,9",,,,"04,99,1,99,9,99,9,99999,9,99,9,99,9","10230,1,99999,9",,,,"MET059METAR LEEC 051300Z 27007KT 240V300 9999 SCT040 18/10 Q1023;",
"08390599999","2010-02-05T14:00:00","4","37.3166666","-6.0","5.0","SEVILLA HELIPORT, SP","FM-15","LEEC ","V020","260,1,N,0036,1","22000,1,9,N","011265,1,N,1","+0180,1","+0100,1","99999,9","04,5,+00900,1,99,9",,,,"04,99,1,99,9,99,9,99999,9,99,9,99,9","10220,1,99999,9",,,,"MET059METAR LEEC 051400Z 26007KT 230V290 9999 SCT030 18/10 Q1022;",
"08390599999","2010-02-08T07:00:00","4","37.3166666","-6.0","5.0","SEVILLA HELIPORT, SP","FM-15","LEEC ","V020","180,1,N,0041,1","00120,1,C,N","005000,1,N,1","+0130,1","+0130,1","99999,9","08,5,+00120,1,99,9",,,,"08,99,1,99,9,99,9,99999,9,99,9,99,9","10071,1,99999,9","51,1",,,"MET055METAR LEEC 080700Z 18008KT 5000 -DZ OVC004 13/13 Q1007;",
"08390599999","2010-02-08T08:00:00","4","37.3166666","-6.0","5.0","SEVILLA HELIPORT, SP","FM-15","LEEC ","V020","200,1,N,0031,1","00090,1,C,N","011265,1,N,1","+0140,1","+0130,1","99999,9","08,5,+00090,1,99,9",,,,"08,99,1,99,9,99,9,99999,9,99,9,99,9","10061,1,99999,9",,,,"MET051METAR LEEC 080800Z 20006KT 9999 OVC003 14/13 Q1006;",
"08390599999","2010-02-08T09:00:00","4","37.3166666","-6.0","5.0","SEVILLA HELIPORT, SP","FM-15","LEEC ","V020","210,1,N,0031,1","00150,1,C,N","011265,1,N,1","+0140,1","+0140,1","99999,9","07,5,+00150,1,99,9",,,,"07,99,1,99,9,99,9,99999,9,99,9,99,9","10061,1,99999,9",,,,"MET051METAR LEEC 080900Z 21006KT 9999 BKN005 14/14 Q1006;",
"08390599999","2010-02-08T10:00:00","4","37.3166666","-6.0","5.0","SEVILLA HELIPORT, SP","FM-15","LEEC ","V020","240,1,N,0031,1","01800,1,C,N","011265,1,N,1","+0150,1","+0140,1","99999,9","04,5,+00360,1,99,9","07,5,+01800,1,99,9",,,"07,99,1,99,9,99,9,99999,9,99,9,99,9","10071,1,99999,9",,,,"MET058METAR LEEC 081000Z 24006KT 9999 SCT012 BKN060 15/14 Q1007;",
"08390599999","2010-02-08T11:00:00","4","37.3166666","-6.0","5.0","SEVILLA HELIPORT, SP","FM-15","LEEC ","V020","270,1,N,0057,1","22000,1,9,N","011265,1,N,1","+0170,1","+0140,1","99999,9","04,5,+00600,1,99,9",,,,"04,99,1,99,9,99,9,99999,9,99,9,99,9","10071,1,99999,9",,,,"MET051METAR LEEC 081100Z 27011KT 9999 SCT020 17/14 Q1007;",
"08390599999","2010-02-08T12:00:00","4","37.3166666","-6.0","5.0","SEVILLA HELIPORT, SP","FM-15","LEEC ","V020","270,1,N,0051,1","22000,1,9,N","011265,1,N,1","+0180,1","+0120,1","99999,9","04,5,+00750,1,99,9",,,,"04,99,1,99,9,99,9,99999,9,99,9,99,9","10061,1,99999,9",,,,"MET051METAR LEEC 081200Z 27010KT 9999 SCT025 18/12 Q1006;",
"08390599999","2010-02-08T13:00:00","4","37.3166666","-6.0","5.0","SEVILLA HELIPORT, SP","FM-15","LEEC ","V020","270,1,N,0046,1","01500,1,C,N","011265,1,N,1","+0180,1","+0100,1","99999,9","04,5,+01050,1,99,9","07,5,+01500,1,99,9",,,"07,99,1,99,9,99,9,99999,9,99,9,99,9","10061,1,99999,9","53,1",,,"MET061METAR LEEC 081300Z 27009KT 9999 DZ SCT035 BKN050 18/10 Q1006;",
"08390599999","2010-02-08T14:00:00","4","37.3166666","-6.0","5.0","SEVILLA HELIPORT, SP","FM-15","LEEC ","V020","260,1,N,0046,1","01800,1,C,N","011265,1,N,1","+0170,1","+0090,1","99999,9","02,5,+00750,1,99,9","07,5,+01800,1,99,9",,,"07,99,1,99,9,99,9,99999,9,99,9,99,9","10051,1,99999,9",,,,"MET058METAR LEEC 081400Z 26009KT 9999 FEW025 BKN060 17/09 Q1005;",
"08390599999","2010-02-08T15:00:00","4","37.3166666","-6.0","5.0","SEVILLA HELIPORT, SP","FM-15","LEEC ","V020","250,1,N,0057,1","22000,1,9,N","011265,1,N,1","+0170,1","+0090,1","99999,9","04,5,+00750,1,99,9",,,,"04,99,1,99,9,99,9,99999,9,99,9,99,9","10041,1,99999,9",,,,"MET051METAR LEEC 081500Z 25011KT 9999 SCT025 17/09 Q1004;",
"08390599999","2010-02-09T07:00:00","4","37.3166666","-6.0","5.0","SEVILLA HELIPORT, SP","FM-15","LEEC ","V020","250,1,N,0026,1","22000,1,9,N","011265,1,N,1","+9999,9","+9999,9","99999,9","02,5,+01050,1,99,9",,,,"02,99,1,99,9,99,9,99999,9,99,9,99,9","10061,1,99999,9",,,,"MET051METAR LEEC 090700Z 25005KT 9999 FEW035 ///// Q1006;",
"08390599999","2010-02-09T08:00:00","4","37.3166666","-6.0","5.0","SEVILLA HELIPORT, SP","FM-15","LEEC ","V020","250,1,N,0026,1","22000,1,9,N","011265,1,N,1","+0100,1","+0090,1","99999,9","02,5,+01050,1,99,9",,,,"02,99,1,99,9,99,9,99999,9,99,9,99,9","10071,1,99999,9",,,,"MET051METAR LEEC 090800Z 25005KT 9999 FEW035 10/09 Q1007;",
"08390599999","2010-02-09T09:00:00","4","37.3166666","-6.0","5.0","SEVILLA HELIPORT, SP","FM-15","LEEC ","V020","280,1,N,0031,1","22000,1,9,N","011265,1,N,1","+0130,1","+0090,1","99999,9","02,5,+01050,1,99,9",,,,"02,99,1,99,9,99,9,99999,9,99,9,99,9","10071,1,99999,9",,,,"MET051METAR LEEC 090900Z 28006KT 9999 FEW035 13/09 Q1007;",
"08390599999","2010-02-09T10:00:00","4","37.3166666","-6.0","5.0","SEVILLA HELIPORT, SP","FM-15","LEEC ","V020","280,1,N,0036,1","22000,1,9,N","011265,1,N,1","+0130,1","+0090,1","99999,9","02,5,+00900,1,99,9",,,,"02,99,1,99,9,99,9,99999,9,99,9,99,9","10081,1,99999,9",,,,"MET059METAR LEEC 091000Z 28007KT 240V310 9999 FEW030 13/09 Q1008;",
"08390599999","2010-02-09T11:00:00","4","37.3166666","-6.0","5.0","SEVILLA HELIPORT, SP","FM-15","LEEC ","V020","280,1,N,0031,1","22000,1,9,N","011265,1,N,1","+0140,1","+0080,1","99999,9","02,5,+00900,1,99,9",,,,"02,99,1,99,9,99,9,99999,9,99,9,99,9","10081,1,99999,9",,,,"MET059METAR LEEC 091100Z 28006KT 220V320 9999 FEW030 14/08 Q1008;",
"08390599999","2010-02-09T12:00:00","4","37.3166666","-6.0","5.0","SEVILLA HELIPORT, SP","FM-15","LEEC ","V020","280,1,N,0041,1","22000,1,9,N","011265,1,N,1","+0150,1","+0070,1","99999,9","04,5,+00750,1,99,9",,,,"04,99,1,99,9,99,9,99999,9,99,9,99,9","10081,1,99999,9",,,,"MET059METAR LEEC 091200Z 28008KT 250V320 9999 SCT025 15/07 Q1008;",
"08390599999","2010-02-09T13:00:00","4","37.3166666","-6.0","5.0","SEVILLA HELIPORT, SP","FM-15","LEEC ","V020","280,1,N,0041,1","01200,1,C,N","011265,1,N,1","+0160,1","+0070,1","99999,9","07,5,+01200,1,99,9",,,,"07,99,1,99,9,99,9,99999,9,99,9,99,9","10081,1,99999,9",,,,"MET059METAR LEEC 091300Z 28008KT 240V310 9999 BKN040 16/07 Q1008;",
"08390599999","2010-02-09T14:00:00","4","37.3166666","-6.0","5.0","SEVILLA HELIPORT, SP","FM-15","LEEC ","V020","290,1,N,0036,1","01650,5,C,N","011265,1,N,1","+0160,1","+0070,1","99999,9","02,5,+00900,1,99,9","07,5,+01650,5,99,9",,,"07,99,1,99,9,99,9,99999,9,99,9,99,9","10071,1,99999,9",,,,"MET058METAR LEEC 091400Z 29007KT 9999 FEW030 BKN055 16/07 Q1007;",
"08390599999","2010-02-09T15:00:00","4","37.3166666","-6.0","5.0","SEVILLA HELIPORT, SP","FM-15","LEEC ","V020","270,1,N,0026,1","01200,1,C,N","011265,1,N,1","+0150,1","+0090,1","99999,9","02,5,+00900,1,99,9","07,5,+01200,1,99,9",,,"07,99,1,99,9,99,9,99999,9,99,9,99,9","10071,1,99999,9",,,,"MET066METAR LEEC 091500Z 27005KT 240V320 9999 FEW030 BKN040 15/09 Q1007;",
"08390599999","2010-02-10T07:00:00","4","37.3166666","-6.0","5.0","SEVILLA HELIPORT, SP","FM-15","LEEC ","V020","200,1,N,0015,1","99999,9,9,Y","009900,1,N,1","+0090,1","+0080,1","99999,9",,,,,,"10102,1,99999,9",,,,"MET045METAR LEEC 100700Z 20003KT CAVOK 09/08 Q1010;",
"08390599999","2010-02-10T08:00:00","4","37.3166666","-6.0","5.0","SEVILLA HELIPORT, SP","FM-15","LEEC ","V020","999,9,V,0005,1","99999,9,9,Y","009900,1,N,1","+0090,1","+0090,1","99999,9",,,,,,"10108,1,99999,9",,,,"MET045METAR LEEC 100800Z VRB01KT CAVOK 09/09 Q1011;",
"08390599999","2010-02-10T09:00:00","4","37.3166666","-6.0","5.0","SEVILLA HELIPORT, SP","FM-15","LEEC ","V020","999,9,V,0010,1","02100,1,C,N","011265,1,N,1","+0100,1","+0090,1","99999,9","02,5,+01200,1,99,9","07,5,+02100,1,99,9",,,"07,99,1,99,9,99,9,99999,9,99,9,99,9","10108,1,99999,9",,,,"MET058METAR LEEC 100900Z VRB02KT 9999 FEW040 BKN070 10/09 Q1011;",
"08390599999","2010-02-10T10:00:00","4","37.3166666","-6.0","5.0","SEVILLA HELIPORT, SP","FM-15","LEEC ","V020","200,1,N,0015,1","00450,1,C,N","008000,1,N,1","+0100,1","+0090,1","99999,9","02,5,+00270,1,99,9","07,5,+00450,1,99,9",,,"07,99,1,99,9,99,9,99999,9,99,9,99,9","10119,1,99999,9","61,1",,,"MET062METAR LEEC 101000Z 20003KT 8000 -RA FEW009 BKN015 10/09 Q1012;",
"08390599999","2010-02-10T11:00:00","4","37.3166666","-6.0","5.0","SEVILLA HELIPORT, SP","FM-15","LEEC ","V020","999,9,C,0000,1","01410,1,C,N","011265,1,N,1","+0110,1","+0100,1","99999,9","04,5,+00330,1,99,9","07,5,+01410,1,99,9",,,"07,99,1,99,9,99,9,99999,9,99,9,99,9","10119,1,99999,9","61,1",,,"MET062METAR LEEC 101100Z 00000KT 9999 -RA SCT011 BKN047 11/10 Q1012;",
"08390599999","2010-02-10T12:00:00","4","37.3166666","-6.0","5.0","SEVILLA HELIPORT, SP","FM-15","LEEC ","V020","150,1,N,0015,1","00240,1,C,N","011265,1,N,1","+0110,1","+0100,1","99999,9","07,5,+00240,1,99,9","07,5,+01350,1,99,9",,,"07,99,1,99,9,99,9,99999,9,99,9,99,9","10108,1,99999,9","61,1",,,"MET062METAR LEEC 101200Z 15003KT 9999 -RA BKN008 BKN045 11/10 Q1011;",
"08390599999","2010-02-10T13:00:00","4","37.3166666","-6.0","5.0","SEVILLA HELIPORT, SP","FM-15","LEEC ","V020","110,1,N,0021,1","01080,1,C,N","011265,1,N,1","+0120,1","+0100,1","99999,9","04,5,+00360,1,99,9","07,5,+01080,1,99,9",,,"07,99,1,99,9,99,9,99999,9,99,9,99,9","10102,1,99999,9","63,1",,,"MET061METAR LEEC 101300Z 11004KT 9999 RA SCT012 BKN036 12/10 Q1010;",
"08390599999","2010-02-10T14:00:00","4","37.3166666","-6.0","5.0","SEVILLA HELIPORT, SP","FM-15","LEEC ","V020","110,1,N,0026,1","00750,1,C,N","009000,1,N,1","+0120,1","+0090,1","99999,9","04,5,+00300,1,99,9","07,5,+00750,1,99,9",,,"07,99,1,99,9,99,9,99999,9,99,9,99,9","10091,1,99999,9","61,1",,,"MET062METAR LEEC 101400Z 11005KT 9000 -RA SCT010 BKN025 12/09 Q1009;",
"08390599999","2010-02-10T15:00:00","4","37.3166666","-6.0","5.0","SEVILLA HELIPORT, SP","FM-15","LEEC ","V020","140,1,N,0031,1","00570,1,C,N","006000,1,N,1","+0110,1","+0100,1","99999,9","04,5,+00300,1,99,9","07,5,+00570,1,99,9",,,"07,99,1,99,9,99,9,99999,9,99,9,99,9","10081,1,99999,9","53,1",,,"MET061METAR LEEC 101500Z 14006KT 6000 DZ SCT010 BKN019 11/10 Q1008;",
"08390599999","2010-02-11T07:00:00","4","37.3166666","-6.0","5.0","SEVILLA HELIPORT, SP","FM-15","LEEC ","V020","260,1,N,0031,1","99999,9,9,Y","009900,1,N,1","+0110,1","+0090,1","99999,9",,,,,,"10081,1,99999,9",,,,"MET045METAR LEEC 110700Z 26006KT CAVOK 11/09 Q1008;",
"08390599999","2010-02-11T08:00:00","4","37.3166666","-6.0","5.0","SEVILLA HELIPORT, SP","FM-15","LEEC ","V020","240,1,N,0021,1","99999,9,9,Y","009900,1,N,1","+0100,1","+0090,1","99999,9",,,,,,"10091,1,99999,9",,,,"MET045METAR LEEC 110800Z 24004KT CAVOK 10/09 Q1009;",
"08390599999","2010-02-11T09:00:00","4","37.3166666","-6.0","5.0","SEVILLA HELIPORT, SP","FM-15","LEEC ","V020","260,1,N,0021,1","99999,9,9,Y","009900,1,N,1","+0120,1","+0100,1","99999,9",,,,,,"10102,1,99999,9",,,,"MET053METAR LEEC 110900Z 26004KT 220V290 CAVOK 12/10 Q1010;",
"08390599999","2010-02-11T10:00:00","4","37.3166666","-6.0","5.0","SEVILLA HELIPORT, SP","FM-15","LEEC ","V020","300,1,N,0021,1","22000,1,9,N","011265,1,N,1","+0130,1","+0090,1","99999,9","04,5,+00540,1,99,9",,,,"04,99,1,99,9,99,9,99999,9,99,9,99,9","10102,1,99999,9",,,,"MET051METAR LEEC 111000Z 30004KT 9999 SCT018 13/09 Q1010;",
"08390599999","2010-02-11T11:00:00","4","37.3166666","-6.0","5.0","SEVILLA HELIPORT, SP","FM-15","LEEC ","V020","020,1,N,0036,1","22000,1,9,N","011265,1,N,1","+0140,1","+0090,1","99999,9","02,5,+00750,1,99,9",,,,"02,99,1,99,9,99,9,99999,9,99,9,99,9","10102,1,99999,9",,,,"MET059METAR LEEC 111100Z 02007KT 340V040 9999 FEW025 14/09 Q1010;",
"08390599999","2010-02-11T12:00:00","4","37.3166666","-6.0","5.0","SEVILLA HELIPORT, SP","FM-15","LEEC ","V020","360,1,N,0026,1","01050,1,C,N","011265,1,N,1","+0150,1","+0090,1","99999,9","02,5,+00750,1,99,9","07,5,+01050,1,99,9",,,"07,99,1,99,9,99,9,99999,9,99,9,99,9","10102,1,99999,9",,,,"MET058METAR LEEC 111200Z 36005KT 9999 FEW025 BKN035 15/09 Q1010;",
"08390599999","2010-02-11T13:00:00","4","37.3166666","-6.0","5.0","SEVILLA HELIPORT, SP","FM-15","LEEC ","V020","050,1,N,0026,1","99999,9,C,N","011265,1,N,1","+0150,1","+0080,1","99999,9","02,5,+01050,1,99,9","04,5,+01320,1,99,9",,,"04,99,1,99,9,99,9,99999,9,99,9,99,9","10102,1,99999,9",,,,"MET058METAR LEEC 111300Z 05005KT 9999 FEW035 SCT044 15/08 Q1010;","P01 013203SCOCIG"
"08390599999","2010-02-11T14:00:00","4","37.3166666","-6.0","5.0","SEVILLA HELIPORT, SP","FM-15","LEEC ","V020","020,1,N,0026,1","22000,1,9,N","011265,1,N,1","+0160,1","+0060,1","99999,9","04,5,+00900,1,99,9",,,,"04,99,1,99,9,99,9,99999,9,99,9,99,9","10091,1,99999,9",,,,"MET051METAR LEEC 111400Z 02005KT 9999 SCT030 16/06 Q1009;",
"08390599999","2010-02-11T15:00:00","4","37.3166666","-6.0","5.0","SEVILLA HELIPORT, SP","FM-15","LEEC ","V020","999,9,V,0015,1","22000,1,9,N","011265,1,N,1","+0160,1","+0060,1","99999,9","04,5,+01350,1,99,9",,,,"04,99,1,99,9,99,9,99999,9,99,9,99,9","10091,1,99999,9",,,,"MET051METAR LEEC 111500Z VRB03KT 9999 SCT045 16/06 Q1009;",
"08390599999","2010-02-12T07:00:00","4","37.3166666","-6.0","5.0","SEVILLA HELIPORT, SP","FM-15","LEEC ","V020","030,1,N,0046,1","99999,9,9,Y","009900,1,N,1","+0060,1","-0010,1","99999,9",,,,,,"10119,1,99999,9",,,,"MET046METAR LEEC 120700Z 03009KT CAVOK 06/M01 Q1012;",
"08390599999","2010-02-12T08:00:00","4","37.3166666","-6.0","5.0","SEVILLA HELIPORT, SP","FM-15","LEEC ","V020","030,1,N,0051,1","99999,9,9,Y","009900,1,N,1","+0070,1","-0020,1","99999,9",,,,,,"10119,1,99999,9",,,,"MET046METAR LEEC 120800Z 03010KT CAVOK 07/M02 Q1012;",
"08390599999","2010-02-12T09:00:00","4","37.3166666","-6.0","5.0","SEVILLA HELIPORT, SP","FM-15","LEEC ","V020","030,1,N,0046,1","02400,1,C,N","011265,1,N,1","+0070,1","-0010,1","99999,9","04,5,+00900,1,99,9","07,5,+02400,1,99,9",,,"07,99,1,99,9,99,9,99999,9,99,9,99,9","10119,1,99999,9",,,,"MET059METAR LEEC 120900Z 03009KT 9999 SCT030 BKN080 07/M01 Q1012;",
"08390599999","2010-02-12T10:00:00","4","37.3166666","-6.0","5.0","SEVILLA HELIPORT, SP","FM-15","LEEC ","V020","030,1,N,0057,1","01650,5,C,N","011265,1,N,1","+0070,1","-0020,1","99999,9","04,5,+00450,1,99,9","07,5,+01650,5,99,9",,,"07,99,1,99,9,99,9,99999,9,99,9,99,9","10119,1,99999,9",,,,"MET059METAR LEEC 121000Z 03011KT 9999 SCT015 BKN055 07/M02 Q1012;",
"08390599999","2010-02-12T11:00:00","4","37.3166666","-6.0","5.0","SEVILLA HELIPORT, SP","FM-15","LEEC ","V020","030,1,N,0057,1","01200,1,C,N","011265,1,N,1","+0060,1","+0000,1","99999,9","04,5,+00450,1,99,9","07,5,+01200,1,99,9",,,"07,99,1,99,9,99,9,99999,9,99,9,99,9","10129,1,99999,9","63,1",,,"MET061METAR LEEC 121100Z 03011KT 9999 RA SCT015 BKN040 06/00 Q1013;",
"08390599999","2010-02-12T12:00:00","4","37.3166666","-6.0","5.0","SEVILLA HELIPORT, SP","FM-15","LEEC ","V020","040,1,N,0057,1","01950,5,C,N","011265,1,N,1","+0060,1","+0010,1","99999,9","04,5,+00270,1,99,9","07,5,+01950,5,99,9",,,"07,99,1,99,9,99,9,99999,9,99,9,99,9","10108,1,99999,9","51,1",,,"MET062METAR LEEC 121200Z 04011KT 9999 -DZ SCT009 BKN065 06/01 Q1011;",
"08390599999","2010-02-12T13:00:00","4","37.3166666","-6.0","5.0","SEVILLA HELIPORT, SP","FM-15","LEEC ","V020","040,1,N,0077,1","00300,1,C,N","011265,1,N,1","+0050,1","+0030,1","99999,9","07,5,+00300,1,99,9","07,5,+00600,1,99,9",,,"07,99,1,99,9,99,9,99999,9,99,9,99,9","10102,1,99999,9",,,,"MET058METAR LEEC 121300Z 04015KT 9999 BKN010 BKN020 05/03 Q1010;",
"08390599999","2010-02-14T11:00:00","4","37.3166666","-6.0","5.0","SEVILLA HELIPORT, SP","FM-15","LEEC ","V020","030,1,N,0041,1","99999,9,9,Y","009900,1,N,1","+0070,1","+0040,1","99999,9",,,,,,"10091,1,99999,9",,,,"MET045METAR LEEC 141100Z 03008KT CAVOK 07/04 Q1009;",
"08390599999","2010-02-14T12:00:00","4","37.3166666","-6.0","5.0","SEVILLA HELIPORT, SP","FM-15","LEEC ","V020","020,1,N,0036,1","99999,9,9,Y","009900,1,N,1","+0080,1","+0040,1","99999,9",,,,,,"10091,1,99999,9",,,,"MET045METAR LEEC 141200Z 02007KT CAVOK 08/04 Q1009;",
"08390599999","2010-02-15T07:00:00","4","37.3166666","-6.0","5.0","SEVILLA HELIPORT, SP","FM-15","LEEC ","V020","040,1,N,0031,1","01230,1,C,N","008000,1,N,1","+0090,1","+0080,1","99999,9","04,5,+00720,1,99,9","07,5,+01230,1,99,9",,,"07,99,1,99,9,99,9,99999,9,99,9,99,9","09919,1,99999,9","63,1",,,"MET061METAR LEEC 150700Z 04006KT 8000 RA SCT024 BKN041 09/08 Q0992;",
"08390599999","2010-02-15T08:00:00","4","37.3166666","-6.0","5.0","SEVILLA HELIPORT, SP","FM-15","LEEC ","V020","030,1,N,0036,1","01050,1,C,N","008000,1,N,1","+0090,1","+0080,1","99999,9","02,5,+00300,1,99,9","07,5,+01050,1,99,9","08,5,+01350,1,99,9",,"08,99,1,99,9,99,9,99999,9,99,9,99,9","09919,1,99999,9","61,1",,,"MET069METAR LEEC 150800Z 03007KT 8000 -RA FEW010 BKN035 OVC045 09/08 Q0992;",
"08390599999","2010-02-15T08:40:00","4","37.3166666","-6.0","5.0","SEVILLA HELIPORT, SP","FM-16","LEEC ","V020","999,9,V,0015,1","00690,1,C,N","004000,1,N,1","+0090,1","+0080,1","99999,9","02,5,+00390,1,99,9","07,5,+00690,1,99,9","08,5,+01080,1,99,9",,"08,99,1,99,9,99,9,99999,9,99,9,99,9","09919,1,99999,9","63,1",,,"MET068SPECI LEEC 150840Z VRB03KT 4000 RA FEW013 BKN023 OVC036 09/08 Q0992;",
"08390599999","2010-02-15T09:00:00","4","37.3166666","-6.0","5.0","SEVILLA HELIPORT, SP","FM-15","LEEC ","V020","310,1,N,0021,1","00690,1,C,N","006000,1,N,1","+0090,1","+0080,1","99999,9","02,5,+00270,1,99,9","07,5,+00690,1,99,9","08,5,+01080,1,99,9",,"08,99,1,99,9,99,9,99999,9,99,9,99,9","09919,1,99999,9",,,,"MET073METAR LEEC 150900Z 31004KT 280V360 6000 FEW009 BKN023 OVC036 09/08 Q0992;",
"08390599999","2010-02-15T09:42:00","4","37.3166666","-6.0","5.0","SEVILLA HELIPORT, SP","FM-16","LEEC ","V020","999,9,V,0015,1","00660,1,C,N","003000,1,N,1","+0090,1","+0080,1","99999,9","02,5,+00300,1,99,9","07,5,+00660,1,99,9","08,5,+01080,1,99,9",,"08,99,1,99,9,99,9,99999,9,99,9,99,9","09929,1,99999,9","63,1",,,"MET068SPECI LEEC 150942Z VRB03KT 3000 RA FEW010 BKN022 OVC036 09/08 Q0993;",
"08390599999","2010-02-15T10:00:00","4","37.3166666","-6.0","5.0","SEVILLA HELIPORT, SP","FM-15","LEEC ","V020","020,1,N,0021,1","00600,1,C,N","003000,1,N,1","+0090,1","+0090,1","99999,9","02,5,+00300,1,99,9","04,5,+00600,1,99,9","08,5,+01080,1,99,9",,"08,99,1,99,9,99,9,99999,9,99,9,99,9","09929,1,99999,9","63,1",,,"MET076METAR LEEC 151000Z 02004KT 320V050 3000 RA FEW010 SCT020 OVC036 09/09 Q0993;",
"08390599999","2010-02-15T11:00:00","4","37.3166666","-6.0","5.0","SEVILLA HELIPORT, SP","FM-15","LEEC ","V020","020,1,N,0026,1","00750,1,C,N","002000,1,N,1","+0090,1","+0090,1","99999,9","04,5,+00300,1,99,9","08,5,+00750,1,99,9",,,"08,99,1,99,9,99,9,99999,9,99,9,99,9","09929,1,99999,9","63,1",,,"MET061METAR LEEC 151100Z 02005KT 2000 RA SCT010 OVC025 09/09 Q0993;",
"08390599999","2010-02-15T11:30:00","4","37.3166666","-6.0","5.0","SEVILLA HELIPORT, SP","FM-16","LEEC ","V020","060,1,N,0021,1","00750,1,C,N","005000,1,N,1","+0090,1","+0090,1","99999,9","02,5,+00300,1,99,9","07,5,+00750,1,99,9","07,5,+01080,1,99,9",,"07,99,1,99,9,99,9,99999,9,99,9,99,9","09929,1,99999,9","61,1",,,"MET069SPECI LEEC 151130Z 06004KT 5000 -RA FEW010 BKN025 BKN036 09/09 Q0993;",
"08390599999","2010-02-15T11:44:00","4","37.3166666","-6.0","5.0","SEVILLA HELIPORT, SP","FM-16","LEEC ","V020","080,1,N,0021,1","00750,1,C,N","003000,1,N,1","+0110,1","+0100,1","99999,9","02,5,+00300,1,99,9","07,5,+00750,1,99,9","08,5,+01080,1,99,9",,"08,99,1,99,9,99,9,99999,9,99,9,99,9","09929,1,99999,9","65,1",,,"MET069SPECI LEEC 151144Z 08004KT 3000 +RA FEW010 BKN025 OVC036 11/10 Q0993;",
"08390599999","2010-02-15T12:00:00","4","37.3166666","-6.0","5.0","SEVILLA HELIPORT, SP","FM-15","LEEC ","V020","090,1,N,0021,1","00600,1,C,N","006000,1,N,1","+0110,1","+0100,1","99999,9","02,5,+00360,1,99,9","07,5,+00600,1,99,9","07,5,+00900,1,99,9",,"07,99,1,99,9,99,9,99999,9,99,9,99,9","09929,1,99999,9",,,,"MET073METAR LEEC 151200Z 09004KT 040V120 6000 FEW012 BKN020 BKN030 11/10 Q0993;",
"08390599999","2010-02-15T12:37:00","4","37.3166666","-6.0","5.0","SEVILLA HELIPORT, SP","FM-16","LEEC ","V020","130,1,N,0057,1","00750,1,C,N","004000,1,N,1","+0120,1","+0110,1","99999,9","02,5,+00300,1,99,9","07,5,+00750,1,99,9","08,5,+01080,1,99,9",,"08,99,1,99,9,99,9,99999,9,99,9,99,9","09919,1,99999,9","63,1",,,"MET068SPECI LEEC 151237Z 13011KT 4000 RA FEW010 BKN025 OVC036 12/11 Q0992;",
"08390599999","2010-02-15T13:00:00","4","37.3166666","-6.0","5.0","SEVILLA HELIPORT, SP","FM-15","LEEC ","V020","130,1,N,0046,1","00450,1,C,N","007000,1,N,1","+0120,1","+0110,1","99999,9","02,5,+00270,1,99,9","04,5,+00450,1,99,9","08,5,+01200,1,99,9",,"08,99,1,99,9,99,9,99999,9,99,9,99,9","09919,1,99999,9",,,,"MET065METAR LEEC 151300Z 13009KT 7000 FEW009 SCT015 OVC040 12/11 Q0992;",
"08390599999","2010-02-15T13:14:00","4","37.3166666","-6.0","5.0","SEVILLA HELIPORT, SP","FM-16","LEEC ","V020","130,1,N,0057,1","00600,1,C,N","003000,1,N,1","+0120,1","+0110,1","99999,9","02,5,+00360,1,99,9","04,5,+00600,1,99,9","08,5,+01200,1,99,9",,"08,99,1,99,9,99,9,99999,9,99,9,99,9","09919,1,99999,9","63,1",,,"MET068SPECI LEEC 151314Z 13011KT 3000 RA FEW012 SCT020 OVC040 12/11 Q0992;",
"08390599999","2010-02-15T13:28:00","4","37.3166666","-6.0","5.0","SEVILLA HELIPORT, SP","FM-16","LEEC ","V020","130,1,N,0046,1","00660,1,C,N","007000,1,N,1","+0120,1","+0110,1","99999,9","02,5,+00300,1,99,9","04,5,+00660,1,99,9","07,5,+01200,1,99,9",,"07,99,1,99,9,99,9,99999,9,99,9,99,9","09909,1,99999,9","61,1",,,"MET069SPECI LEEC 151328Z 13009KT 7000 -RA FEW010 SCT022 BKN040 12/11 Q0991;",
"08390599999","2010-02-15T14:00:00","4","37.3166666","-6.0","5.0","SEVILLA HELIPORT, SP","FM-15","LEEC ","V020","140,1,N,0051,1","00750,1,C,N","007000,1,N,1","+0140,1","+0120,1","99999,9","02,5,+00450,1,99,9","04,5,+00750,1,99,9","07,5,+01200,1,99,9",,"07,99,1,99,9,99,9,99999,9,99,9,99,9","09909,1,99999,9","61,1",,,"MET069METAR LEEC 151400Z 14010KT 7000 -RA FEW015 SCT025 BKN040 14/12 Q0991;",
"08390599999","2010-02-15T15:00:00","4","37.3166666","-6.0","5.0","SEVILLA HELIPORT, SP","FM-15","LEEC ","V020","160,1,N,0046,1","00720,1,C,N","008000,1,N,1","+0140,1","+0120,1","99999,9","02,5,+00300,1,99,9","04,5,+00720,1,99,9","07,5,+01200,1,99,9",,"07,99,1,99,9,99,9,99999,9,99,9,99,9","09909,1,99999,9",,,,"MET065METAR LEEC 151500Z 16009KT 8000 FEW010 SCT024 BKN040 14/12 Q0991;",
"08390599999","2010-02-16T07:00:00","4","37.3166666","-6.0","5.0","SEVILLA HELIPORT, SP","FM-15","LEEC ","V020","200,1,N,0031,1","00420,1,C,N","007000,1,N,1","+0130,1","+0130,1","99999,9","04,5,+00210,1,99,9","07,5,+00420,1,99,9",,,"07,99,1,99,9,99,9,99999,9,99,9,99,9","09882,1,99999,9",,,,"MET058METAR LEEC 160700Z 20006KT 7000 SCT007 BKN014 13/13 Q0988;",
"08390599999","2010-02-16T08:00:00","4","37.3166666","-6.0","5.0","SEVILLA HELIPORT, SP","FM-15","LEEC ","V020","190,1,N,0036,1","00750,1,C,N","005000,1,N,1","+0140,1","+0130,1","99999,9","04,5,+00450,1,99,9","07,5,+00750,1,99,9","07,5,+01200,1,99,9",,"07,99,1,99,9,99,9,99999,9,99,9,99,9","09892,1,99999,9","61,1",,,"MET075METAR LEEC 160800Z 19007KT 5000 1000W -RA SCT015 BKN025 BKN040 14/13 Q0989;",
"08390599999","2010-02-16T08:22:00","4","37.3166666","-6.0","5.0","SEVILLA HELIPORT, SP","FM-16","LEEC ","V020","210,1,N,0051,1","00480,1,C,N","006000,1,N,1","+0130,1","+0120,1","99999,9","04,5,+00450,1,99,9","02,5,+00480,1,02,5","04,5,+00750,1,99,9","07,5,+01200,1,99,9","07,99,1,99,9,99,9,99999,9,99,9,99,9","09892,1,99999,9",,,,"MET075SPECI LEEC 160822Z 21010KT 6000 SCT015 FEW016TCU SCT025 BKN040 13/12 Q0989;",
"08390599999","2010-02-16T09:00:00","4","37.3166666","-6.0","5.0","SEVILLA HELIPORT, SP","FM-15","LEEC ","V020","200,1,N,0057,1","00750,1,C,N","006000,1,N,1","+0140,1","+0120,1","99999,9","02,5,+00480,1,02,1","04,5,+00750,1,99,9","07,5,+01200,1,99,9",,"07,99,1,99,9,99,9,99999,9,99,9,99,9","09892,1,99999,9",,,,"MET068METAR LEEC 160900Z 20011KT 6000 FEW016TCU SCT025 BKN040 14/12 Q0989;",
"08390599999","2010-02-16T10:00:00","4","37.3166666","-6.0","5.0","SEVILLA HELIPORT, SP","FM-15","LEEC ","V020","190,1,N,0067,1","00750,1,C,N","009000,1,N,1","+0150,1","+0130,1","99999,9","02,5,+00600,1,99,9","04,5,+00750,1,99,9","07,5,+01050,1,99,9",,"07,99,1,99,9,99,9,99999,9,99,9,99,9","09898,1,99999,9",,,,"MET065METAR LEEC 161000Z 19013KT 9000 FEW020 SCT025 BKN035 15/13 Q0990;",
"08390599999","2010-02-16T10:28:00","4","37.3166666","-6.0","5.0","SEVILLA HELIPORT, SP","FM-16","LEEC ","V020","210,1,N,0072,1","99999,9,C,N","011265,1,N,1","+0160,1","+0130,1","99999,9","02,5,+00540,1,02,1","04,5,+00810,1,99,9",,,"04,99,1,99,9,99,9,99999,9,99,9,99,9","09898,1,99999,9",,,,"MET061SPECI LEEC 161028Z 21014KT 9999 FEW018TCU SCT027 16/13 Q0990;","P01 008103SCOCIG"
"08390599999","2010-02-16T11:00:00","4","37.3166666","-6.0","5.0","SEVILLA HELIPORT, SP","FM-15","LEEC ","V020","220,1,N,0087,1","99999,9,C,N","011265,1,N,1","+0170,1","+0130,1","99999,9","02,5,+00540,1,02,1","04,5,+00900,1,99,9",,,"04,99,1,99,9,99,9,99999,9,99,9,99,9","09898,1,99999,9",,,,"MET061METAR LEEC 161100Z 22017KT 9999 FEW018TCU SCT030 17/13 Q0990;","P01 009003SCOCIG"
"08390599999","2010-02-16T12:00:00","4","37.3166666","-6.0","5.0","SEVILLA HELIPORT, SP","FM-15","LEEC ","V020","220,1,N,0087,1","99999,9,C,N","011265,1,N,1","+0170,1","+0120,1","99999,9","04,5,+00600,1,99,9","04,5,+00900,1,99,9",,,"04,99,1,99,9,99,9,99999,9,99,9,99,9","09898,1,99999,9",,,,"MET058METAR LEEC 161200Z 22017KT 9999 SCT020 SCT030 17/12 Q0990;","P01 009003SCOCIG"
"08390599999","2010-02-16T13:00:00","4","37.3166666","-6.0","5.0","SEVILLA HELIPORT, SP","FM-15","LEEC ","V020","220,1,N,0098,1","99999,9,C,N","011265,1,N,1","+0170,1","+0110,1","99999,9","04,5,+00750,1,99,9","04,5,+01050,1,99,9",,,"04,99,1,99,9,99,9,99999,9,99,9,99,9","09898,1,99999,9",,,,"MET058METAR LEEC 161300Z 22019KT 9999 SCT025 SCT035 17/11 Q0990;","P01 010503SCOCIG"
"08390599999","2010-02-16T14:00:00","4","37.3166666","-6.0","5.0","SEVILLA HELIPORT, SP","FM-15","LEEC ","V020","210,1,N,0087,1","01200,1,C,N","011265,1,N,1","+0170,1","+0120,1","99999,9","04,5,+00900,1,99,9","07,5,+01200,1,99,9",,,"07,99,1,99,9,99,9,99999,9,99,9,99,9","09892,1,99999,9",,,,"MET058METAR LEEC 161400Z 21017KT 9999 SCT030 BKN040 17/12 Q0989;",
"08390599999","2010-02-16T15:00:00","4","37.3166666","-6.0","5.0","SEVILLA HELIPORT, SP","FM-15","LEEC ","V020","220,1,N,0093,1","99999,9,C,N","011265,1,N,1","+0170,1","+0100,1","99999,9","04,5,+00900,1,99,9","04,5,+01200,1,99,9",,,"04,99,1,99,9,99,9,99999,9,99,9,99,9","09892,1,99999,9",,,,"MET058METAR LEEC 161500Z 22018KT 9999 SCT030 SCT040 17/10 Q0989;","P01 012003SCOCIG"
"08390599999","2010-02-17T07:00:00","4","37.3166666","-6.0","5.0","SEVILLA HELIPORT, SP","FM-15","LEEC ","V020","230,1,N,0046,1","00750,1,C,N","011265,1,N,1","+0110,1","+0100,1","99999,9","02,5,+00300,1,99,9","04,5,+00750,1,99,9","07,5,+01350,1,99,9",,"07,99,1,99,9,99,9,99999,9,99,9,99,9","09939,1,99999,9","61,1",,,"MET069METAR LEEC 170700Z 23009KT 9999 -RA FEW010 SCT025 BKN045 11/10 Q0994;",
"08390599999","2010-02-17T08:00:00","4","37.3166666","-6.0","5.0","SEVILLA HELIPORT, SP","FM-15","LEEC ","V020","230,1,N,0036,1","99999,9,C,N","011265,1,N,1","+0110,1","+0100,1","99999,9","02,5,+00300,1,99,9","02,5,+00360,1,02,5","04,5,+00750,1,99,9","04,5,+01200,1,99,9","04,99,1,99,9,99,9,99999,9,99,9,99,9","09949,1,99999,9",,,,"MET075METAR LEEC 170800Z 23007KT 9999 FEW010 FEW012TCU SCT025 SCT040 11/10 Q0995;","P01 007503SCOCIG"
"08390599999","2010-02-17T09:00:00","4","37.3166666","-6.0","5.0","SEVILLA HELIPORT, SP","FM-15","LEEC ","V020","220,1,N,0036,1","01050,1,C,N","011265,1,N,1","+0120,1","+0100,1","99999,9","02,5,+00450,1,99,9","07,5,+01050,1,99,9",,,"07,99,1,99,9,99,9,99999,9,99,9,99,9","09959,1,99999,9","63,1",,,"MET061METAR LEEC 170900Z 22007KT 9999 RA FEW015 BKN035 12/10 Q0996;",
"08390599999","2010-02-17T10:00:00","4","37.3166666","-6.0","5.0","SEVILLA HELIPORT, SP","FM-15","LEEC ","V020","190,1,N,0036,1","00900,1,C,N","011265,1,N,1","+0120,1","+0100,1","99999,9","02,5,+00300,1,99,9","04,5,+00900,1,99,9","07,5,+01350,1,99,9",,"07,99,1,99,9,99,9,99999,9,99,9,99,9","09959,1,99999,9",,,,"MET065METAR LEEC 171000Z 19007KT 9999 FEW010 SCT030 BKN045 12/10 Q0996;",
"08390599999","2010-02-17T11:00:00","4","37.3166666","-6.0","5.0","SEVILLA HELIPORT, SP","FM-15","LEEC ","V020","240,1,N,0077,1","99999,9,C,N","011265,1,N,1","+0150,1","+0100,1","99999,9","04,5,+00750,1,99,9","04,5,+01350,1,99,9",,,"04,99,1,99,9,99,9,99999,9,99,9,99,9","09970,1,99999,9",,,,"MET058METAR LEEC 171100Z 24015KT 9999 SCT025 SCT045 15/10 Q0997;","P01 013503SCOCIG"
"08390599999","2010-02-17T12:00:00","4","37.3166666","-6.0","5.0","SEVILLA HELIPORT, SP","FM-15","LEEC ","V020","240,1,N,0067,1","99999,9,C,N","011265,1,N,1","+0150,1","+0100,1","99999,9","04,5,+00750,1,99,9","04,5,+01350,1,99,9",,,"04,99,1,99,9,99,9,99999,9,99,9,99,9","09980,1,99999,9",,,,"MET058METAR LEEC 171200Z 24013KT 9999 SCT025 SCT045 15/10 Q0998;","P01 013503SCOCIG"
"08390599999","2010-02-17T12:26:00","4","37.3166666","-6.0","5.0","SEVILLA HELIPORT, SP","FM-16","LEEC ","V020","240,1,N,0082,1","00600,1,C,N","004000,1,N,1","+0160,1","+0100,1","99999,9","02,5,+00450,1,02,1","04,5,+00600,1,99,9","07,5,+01350,1,99,9",,"07,99,1,99,9,99,9,99999,9,99,9,99,9","09980,1,99999,9","63,1",,,"MET071SPECI LEEC 171226Z 24016KT 4000 RA FEW015TCU SCT020 BKN045 16/10 Q0998;",
"08390599999","2010-02-17T12:42:00","4","37.3166666","-6.0","5.0","SEVILLA HELIPORT, SP","FM-16","LEEC ","V020","250,1,N,0046,1","99999,9,C,N","011265,1,N,1","+0140,1","+0110,1","99999,9","04,5,+00450,1,99,9","04,5,+01350,1,99,9",,,"04,99,1,99,9,99,9,99999,9,99,9,99,9","09980,1,99999,9",,,,"MET058SPECI LEEC 171242Z 25009KT 9999 SCT015 SCT045 14/11 Q0998;","P01 013503SCOCIG"
"08390599999","2010-02-17T13:00:00","4","37.3166666","-6.0","5.0","SEVILLA HELIPORT, SP","FM-15","LEEC ","V020","240,1,N,0057,1","00600,1,C,N","011265,1,N,1","+0150,1","+0110,1","99999,9","02,5,+00240,1,99,9","04,5,+00600,1,99,9","07,5,+01350,1,99,9",,"07,99,1,99,9,99,9,99999,9,99,9,99,9","09980,1,99999,9","61,1",,"0108,1","MET072METAR LEEC 171300Z 24011G21KT 9999 -RA FEW008 SCT020 BKN045 15/11 Q0998;",
"08390599999","2010-02-17T14:00:00","4","37.3166666","-6.0","5.0","SEVILLA HELIPORT, SP","FM-15","LEEC ","V020","250,1,N,0072,1","00900,1,C,N","011265,1,N,1","+0160,1","+0090,1","99999,9","02,5,+00300,1,99,9","04,5,+00900,1,99,9","07,5,+01350,1,99,9",,"07,99,1,99,9,99,9,99999,9,99,9,99,9","09990,1,99999,9","61,1",,,"MET069METAR LEEC 171400Z 25014KT 9999 -RA FEW010 SCT030 BKN045 16/09 Q0999;",
"08390599999","2010-02-17T15:00:00","4","37.3166666","-6.0","5.0","SEVILLA HELIPORT, SP","FM-15","LEEC ","V020","240,1,N,0041,1","00750,1,C,N","011265,1,N,1","+0140,1","+0100,1","99999,9","02,5,+00300,1,99,9","04,5,+00750,1,99,9","07,5,+01200,1,99,9",,"07,99,1,99,9,99,9,99999,9,99,9,99,9","10000,1,99999,9","81,1",,,"MET070METAR LEEC 171500Z 24008KT 9999 SHRA FEW010 SCT025 BKN040 14/10 Q1000;",
"08390599999","2010-02-18T07:00:00","4","37.3166666","-6.0","5.0","SEVILLA HELIPORT, SP","FM-15","LEEC ","V020","030,1,N,0051,1","22000,1,9,N","011265,1,N,1","+0090,1","+0080,1","99999,9","02,5,+00900,1,99,9",,,,"02,99,1,99,9,99,9,99999,9,99,9,99,9","09980,1,99999,9",,,,"MET051METAR LEEC 180700Z 03010KT 9999 FEW030 09/08 Q0998;",
"08390599999","2010-02-18T08:00:00","4","37.3166666","-6.0","5.0","SEVILLA HELIPORT, SP","FM-15","LEEC ","V020","999,9,9,9999,9","22000,1,9,N","009000,1,N,1","+0090,1","+0080,1","99999,9","02,5,+00900,1,99,9",,,,"02,99,1,99,9,99,9,99999,9,99,9,99,9","09980,1,99999,9",,,,"MET051METAR LEEC 180800Z /////KT 9000 FEW030 09/08 Q0998;",
"08390599999","2010-02-18T09:00:00","4","37.3166666","-6.0","5.0","SEVILLA HELIPORT, SP","FM-15","LEEC ","V020","030,1,N,0051,1","22000,1,9,N","009000,1,N,1","+0100,1","+0080,1","99999,9",,,,,"00,99,1,99,9,99,9,99999,9,99,9,99,9","09959,1,99999,9",,,,"MET048METAR LEEC 180900Z 03010KT 9000 NSC 10/08 Q0996;","Q01    003SCCGA1"
"08390599999","2010-02-18T10:00:00","4","37.3166666","-6.0","5.0","SEVILLA HELIPORT, SP","FM-15","LEEC ","V020","050,1,N,0041,1","22000,1,9,N","006000,1,N,1","+0110,1","+0080,1","99999,9","04,5,+00600,1,99,9",,,,"04,99,1,99,9,99,9,99999,9,99,9,99,9","09959,1,99999,9","63,1",,,"MET054METAR LEEC 181000Z 05008KT 6000 RA SCT020 11/08 Q0996;",
"08390599999","2010-02-18T10:25:00","4","37.3166666","-6.0","5.0","SEVILLA HELIPORT, SP","FM-16","LEEC ","V020","070,1,N,0057,1","99999,9,C,N","011265,1,N,1","+0110,1","+0080,1","99999,9","04,5,+00300,1,99,9","04,5,+00600,1,99,9",,,"04,99,1,99,9,99,9,99999,9,99,9,99,9","09949,1,99999,9",,,,"MET058SPECI LEEC 181025Z 07011KT 9999 SCT010 SCT020 11/08 Q0995;","P01 006003SCOCIG"
"08390599999","2010-02-18T11:00:00","4","37.3166666","-6.0","5.0","SEVILLA HELIPORT, SP","FM-15","LEEC ","V020","060,1,N,0051,1","22000,1,9,N","011265,1,N,1","+0110,1","+0080,1","99999,9","04,5,+01500,1,99,9",,,,"04,99,1,99,9,99,9,99999,9,99,9,99,9","09949,1,99999,9",,,,"MET051METAR LEEC 181100Z 06010KT 9999 SCT050 11/08 Q0995;",
"08390599999","2010-02-18T12:00:00","4","37.3166666","-6.0","5.0","SEVILLA HELIPORT, SP","FM-15","LEEC ","V020","020,1,N,0041,1","00750,1,C,N","011265,1,N,1","+0110,1","+0090,1","99999,9","02,5,+00300,1,99,9","04,5,+00750,1,99,9","08,5,+01500,1,99,9",,"08,99,1,99,9,99,9,99999,9,99,9,99,9","09939,1,99999,9",,,,"MET065METAR LEEC 181200Z 02008KT 9999 FEW010 SCT025 OVC050 11/09 Q0994;",
"08390599999","2010-02-18T13:00:00","4","37.3166666","-6.0","5.0","SEVILLA HELIPORT, SP","FM-15","LEEC ","V020","020,1,N,0036,1","01350,1,C,N","011265,1,N,1","+0110,1","+0100,1","99999,9","08,5,+01350,1,99,9",,,,"08,99,1,99,9,99,9,99999,9,99,9,99,9","09929,1,99999,9",,,,"MET051METAR LEEC 181300Z 02007KT 9999 OVC045 11/10 Q0993;",
"08390599999","2010-02-18T14:00:00","4","37.3166666","-6.0","5.0","SEVILLA HELIPORT, SP","FM-15","LEEC ","V020","020,1,N,0046,1","00600,1,C,N","008000,1,N,1","+0110,1","+0100,1","99999,9","07,5,+00600,1,99,9","08,5,+01200,1,99,9",,,"08,99,1,99,9,99,9,99999,9,99,9,99,9","09919,1,99999,9",,,,"MET058METAR LEEC 181400Z 02009KT 8000 BKN020 OVC040 11/10 Q0992;",
"08390599999","2010-02-18T15:00:00","4","37.3166666","-6.0","5.0","SEVILLA HELIPORT, SP","FM-15","LEEC ","V020","010,1,N,0026,1","00900,1,C,N","008000,1,N,1","+0110,1","+0100,1","99999,9","02,5,+00450,1,99,9","08,5,+00900,1,99,9",,,"08,99,1,99,9,99,9,99999,9,99,9,99,9","09909,1,99999,9",,,,"MET066METAR LEEC 181500Z 01005KT 310V030 8000 FEW015 OVC030 11/10 Q0991;",
"08390599999","2010-02-19T07:00:00","4","37.3166666","-6.0","5.0","SEVILLA HELIPORT, SP","FM-15","LEEC ","V020","270,1,N,0021,1","99999,9,9,Y","009900,1,N,1","+0090,1","+0050,1","99999,9",,,,,,"10000,1,99999,9",,,,"MET053METAR LEEC 190700Z 27004KT 230V300 CAVOK 09/05 Q1000;",
"08390599999","2010-02-19T08:00:00","4","37.3166666","-6.0","5.0","SEVILLA HELIPORT, SP","FM-15","LEEC ","V020","270,1,N,0036,1","99999,9,9,Y","009900,1,N,1","+0080,1","+0050,1","99999,9",,,,,,"10020,1,99999,9",,,,"MET045METAR LEEC 190800Z 27007KT CAVOK 08/05 Q1002;",
"08390599999","2010-02-19T09:00:00","4","37.3166666","-6.0","5.0","SEVILLA HELIPORT, SP","FM-15","LEEC ","V020","260,1,N,0046,1","99999,9,9,Y","009900,1,N,1","+0090,1","+0050,1","99999,9",,,,,,"10041,1,99999,9",,,,"MET045METAR LEEC 190900Z 26009KT CAVOK 09/05 Q1004;",
"08390599999","2010-02-19T10:00:00","4","37.3166666","-6.0","5.0","SEVILLA HELIPORT, SP","FM-15","LEEC ","V020","270,1,N,0051,1","99999,9,9,Y","009900,1,N,1","+0100,1","+0060,1","99999,9",,,,,,"10061,1,99999,9",,,,"MET045METAR LEEC 191000Z 27010KT CAVOK 10/06 Q1006;",
"08390599999","2010-02-19T11:00:00","4","37.3166666","-6.0","5.0","SEVILLA HELIPORT, SP","FM-15","LEEC ","V020","270,1,N,0062,1","99999,9,9,Y","009900,1,N,1","+0120,1","+0050,1","99999,9",,,,,,"10071,1,99999,9",,,,"MET045METAR LEEC 191100Z 27012KT CAVOK 12/05 Q1007;",
"08390599999","2010-02-19T12:00:00","4","37.3166666","-6.0","5.0","SEVILLA HELIPORT, SP","FM-15","LEEC ","V020","280,1,N,0041,1","22000,1,9,N","011265,1,N,1","+0140,1","+0050,1","99999,9","02,5,+00900,1,99,9",,,,"02,99,1,99,9,99,9,99999,9,99,9,99,9","10071,1,99999,9",,,,"MET059METAR LEEC 191200Z 28008KT 260V320 9999 FEW030 14/05 Q1007;",
"08390599999","2010-02-19T13:00:00","4","37.3166666","-6.0","5.0","SEVILLA HELIPORT, SP","FM-15","LEEC ","V020","280,1,N,0051,1","22000,1,9,N","011265,1,N,1","+0150,1","+0030,1","99999,9","02,5,+00900,1,99,9",,,,"02,99,1,99,9,99,9,99999,9,99,9,99,9","10071,1,99999,9",,,,"MET059METAR LEEC 191300Z 28010KT 250V310 9999 FEW030 15/03 Q1007;",
"08390599999","2010-02-19T14:00:00","4","37.3166666","-6.0","5.0","SEVILLA HELIPORT, SP","FM-15","LEEC ","V020","280,1,N,0057,1","22000,1,9,N","011265,1,N,1","+0150,1","+0030,1","99999,9","02,5,+00900,1,99,9",,,,"02,99,1,99,9,99,9,99999,9,99,9,99,9","10071,1,99999,9",,,,"MET059METAR LEEC 191400Z 28011KT 250V310 9999 FEW030 15/03 Q1007;",
"08390599999","2010-02-22T07:00:00","4","37.3166666","-6.0","5.0","SEVILLA HELIPORT, SP","FM-15","LEEC ","V020","210,1,N,0093,1","01140,1,C,N","011265,1,N,1","+0160,1","+0140,1","99999,9","04,5,+00450,1,99,9","07,5,+01140,1,99,9",,,"07,99,1,99,9,99,9,99999,9,99,9,99,9","10020,1,99999,9",,,,"MET058METAR LEEC 220700Z 21018KT 9999 SCT015 BKN038 16/14 Q1002;",
"08390599999","2010-02-22T08:00:00","4","37.3166666","-6.0","5.0","SEVILLA HELIPORT, SP","FM-15","LEEC ","V020","220,1,N,0072,1","00960,1,C,N","011265,1,N,1","+0160,1","+0130,1","99999,9","07,5,+00960,1,99,9",,,,"07,99,1,99,9,99,9,99999,9,99,9,99,9","10020,1,99999,9",,,,"MET051METAR LEEC 220800Z 22014KT 9999 BKN032 16/13 Q1002;",
"08390599999","2010-02-22T09:00:00","4","37.3166666","-6.0","5.0","SEVILLA HELIPORT, SP","FM-15","LEEC ","V020","220,1,N,0067,1","99999,9,C,N","011265,1,N,1","+0160,1","+0140,1","99999,9","02,5,+00510,1,99,9","04,5,+00750,1,99,9",,,"04,99,1,99,9,99,9,99999,9,99,9,99,9","10031,1,99999,9",,,,"MET058METAR LEEC 220900Z 22013KT 9999 FEW017 SCT025 16/14 Q1003;","P01 007503SCOCIG"
"08390599999","2010-02-22T10:00:00","4","37.3166666","-6.0","5.0","SEVILLA HELIPORT, SP","FM-15","LEEC ","V020","250,1,N,0057,1","22000,1,9,N","011265,1,N,1","+0180,1","+0130,1","99999,9","04,5,+00840,1,99,9",,,,"04,99,1,99,9,99,9,99999,9,99,9,99,9","10041,1,99999,9",,,,"MET051METAR LEEC 221000Z 25011KT 9999 SCT028 18/13 Q1004;",
"08390599999","2010-02-22T11:00:00","4","37.3166666","-6.0","5.0","SEVILLA HELIPORT, SP","FM-15","LEEC ","V020","230,1,N,0067,1","00900,1,C,N","011265,1,N,1","+0180,1","+0140,1","99999,9","02,5,+00750,1,02,1","07,5,+00900,1,99,9",,,"07,99,1,99,9,99,9,99999,9,99,9,99,9","10051,1,99999,9",,,,"MET061METAR LEEC 221100Z 23013KT 9999 FEW025TCU BKN030 18/14 Q1005;",
"08390599999","2010-02-22T12:00:00","4","37.3166666","-6.0","5.0","SEVILLA HELIPORT, SP","FM-15","LEEC ","V020","240,1,N,0072,1","99999,9,C,N","011265,1,N,1","+0180,1","+0130,1","99999,9","02,5,+00600,1,02,1","04,5,+00900,1,99,9",,,"04,99,1,99,9,99,9,99999,9,99,9,99,9","10051,1,99999,9",,,,"MET061METAR LEEC 221200Z 24014KT 9999 FEW020TCU SCT030 18/13 Q1005;","P01 009003SCOCIG"
"08390599999","2010-02-22T13:00:00","4","37.3166666","-6.0","5.0","SEVILLA HELIPORT, SP","FM-15","LEEC ","V020","220,1,N,0077,1","99999,9,C,N","011265,1,N,1","+0180,1","+0140,1","99999,9","02,5,+00600,1,02,1","04,5,+01050,1,99,9",,,"04,99,1,99,9,99,9,99999,9,99,9,99,9","10051,1,99999,9",,,,"MET061METAR LEEC 221300Z 22015KT 9999 FEW020TCU SCT035 18/14 Q1005;","P01 010503SCOCIG"
"08390599999","2010-02-22T14:00:00","4","37.3166666","-6.0","5.0","SEVILLA HELIPORT, SP","FM-15","LEEC ","V020","230,1,N,0093,1","22000,1,9,N","011265,1,N,1","+0180,1","+0130,1","99999,9","04,5,+01170,1,99,9",,,,"04,99,1,99,9,99,9,99999,9,99,9,99,9","10041,1,99999,9",,,,"MET051METAR LEEC 221400Z 23018KT 9999 SCT039 18/13 Q1004;",
"08390599999","2010-02-22T15:00:00","4","37.3166666","-6.0","5.0","SEVILLA HELIPORT, SP","FM-15","LEEC ","V020","230,1,N,0082,1","99999,9,C,N","011265,1,N,1","+0180,1","+0130,1","99999,9","02,5,+00750,1,02,1","04,5,+01200,1,99,9",,,"04,99,1,99,9,99,9,99999,9,99,9,99,9","10051,1,99999,9",,,"0134,1","MET064METAR LEEC 221500Z 23016G26KT 9999 FEW025TCU SCT040 18/13 Q1005;","P01 012003SCOCIG"
"08390599999","2010-02-22T21:25:00","4","37.3166666","-6.0","5.0","SEVILLA HELIPORT, SP","FM-16","LEEC ","V020","230,1,N,0062,1","00510,1,C,N","011265,1,N,1","+0160,1","+0150,1","99999,9","02,5,+00420,1,09,1","07,5,+00510,1,99,9",,,"07,99,1,99,9,99,9,99999,9,99,9,99,9","10081,1,99999,9","17,1",,,"MET063SPECI LEEC 222125Z 23012KT 9999 TS FEW014CB BKN017 16/15 Q1008;",
"08390599999","2010-02-23T07:00:00","4","37.3166666","-6.0","5.0","SEVILLA HELIPORT, SP","FM-15","LEEC ","V020","230,1,N,0057,1","99999,9,C,N","011265,1,N,1","+0160,1","+0140,1","99999,9","02,5,+00600,1,99,9","04,5,+01200,1,99,9",,,"04,99,1,99,9,99,9,99999,9,99,9,99,9","10091,1,99999,9",,,,"MET058METAR LEEC 230700Z 23011KT 9999 FEW020 SCT040 16/14 Q1009;","P01 012003SCOCIG"
"08390599999","2010-02-23T08:00:00","4","37.3166666","-6.0","5.0","SEVILLA HELIPORT, SP","FM-15","LEEC ","V020","230,1,N,0046,1","22000,1,9,N","011265,1,N,1","+0160,1","+0140,1","99999,9","02,5,+00600,1,99,9",,,,"02,99,1,99,9,99,9,99999,9,99,9,99,9","10102,1,99999,9",,,,"MET051METAR LEEC 230800Z 23009KT 9999 FEW020 16/14 Q1010;",
"08390599999","2010-02-23T08:17:00","4","37.3166666","-6.0","5.0","SEVILLA HELIPORT, SP","FM-16","LEEC ","V020","230,1,N,0051,1","00900,1,C,N","003000,1,N,1","+0160,1","+0140,1","99999,9","02,5,+00600,1,99,9","07,5,+00900,1,99,9",,,"07,99,1,99,9,99,9,99999,9,99,9,99,9","10102,1,99999,9","81,1",,,"MET063SPECI LEEC 230817Z 23010KT 3000 SHRA FEW020 BKN030 16/14 Q1010;",
"08390599999","2010-02-23T08:34:00","4","37.3166666","-6.0","5.0","SEVILLA HELIPORT, SP","FM-16","LEEC ","V020","230,1,N,0041,1","00900,1,C,N","006000,1,N,1","+0160,1","+0140,1","99999,9","02,5,+00600,1,99,9","07,5,+00900,1,99,9",,,"07,99,1,99,9,99,9,99999,9,99,9,99,9","10102,1,99999,9",,,,"MET058SPECI LEEC 230834Z 23008KT 6000 FEW020 BKN030 16/14 Q1010;",
"08390599999","2010-02-23T09:00:00","4","37.3166666","-6.0","5.0","SEVILLA HELIPORT, SP","FM-15","LEEC ","V020","230,1,N,0051,1","00750,1,C,N","006000,1,N,1","+0170,1","+0150,1","99999,9","04,5,+00450,1,99,9","07,5,+00750,1,99,9",,,"07,99,1,99,9,99,9,99999,9,99,9,99,9","10102,1,99999,9","61,1",,,"MET062METAR LEEC 230900Z 23010KT 6000 -RA SCT015 BKN025 17/15 Q1010;",
"08390599999","2010-02-23T10:00:00","4","37.3166666","-6.0","5.0","SEVILLA HELIPORT, SP","FM-15","LEEC ","V020","250,1,N,0046,1","99999,9,C,N","009000,1,N,1","+0170,1","+0130,1","99999,9","04,5,+00600,1,99,9","04,5,+00900,1,99,9",,,"04,99,1,99,9,99,9,99999,9,99,9,99,9","10108,1,99999,9",,,,"MET058METAR LEEC 231000Z 25009KT 9000 SCT020 SCT030 17/13 Q1011;","P01 009003SCOCIG"
"08390599999","2010-02-23T11:00:00","4","37.3166666","-6.0","5.0","SEVILLA HELIPORT, SP","FM-15","LEEC ","V020","240,1,N,0072,1","22000,1,9,N","011265,1,N,1","+0180,1","+0120,1","99999,9","04,5,+00600,1,99,9",,,,"04,99,1,99,9,99,9,99999,9,99,9,99,9","10108,1,99999,9",,,,"MET051METAR LEEC 231100Z 24014KT 9999 SCT020 18/12 Q1011;",
"08390599999","2010-02-23T12:00:00","4","37.3166666","-6.0","5.0","SEVILLA HELIPORT, SP","FM-15","LEEC ","V020","230,1,N,0077,1","99999,9,C,N","011265,1,N,1","+0190,1","+0130,1","99999,9","04,5,+00600,1,99,9","04,5,+01050,1,99,9",,,"04,99,1,99,9,99,9,99999,9,99,9,99,9","10108,1,99999,9","61,1",,,"MET062METAR LEEC 231200Z 23015KT 9999 -RA SCT020 SCT035 19/13 Q1011;","P01 010503SCOCIG"
"08390599999","2010-02-23T13:00:00","4","37.3166666","-6.0","5.0","SEVILLA HELIPORT, SP","FM-15","LEEC ","V020","220,1,N,0093,1","22000,1,9,N","011265,1,N,1","+0190,1","+0130,1","99999,9","04,5,+00900,1,99,9",,,,"04,99,1,99,9,99,9,99999,9,99,9,99,9","10108,1,99999,9",,,,"MET051METAR LEEC 231300Z 22018KT 9999 SCT030 19/13 Q1011;",
"08390599999","2010-02-23T14:00:00","4","37.3166666","-6.0","5.0","SEVILLA HELIPORT, SP","FM-15","LEEC ","V020","220,1,N,0103,1","22000,1,9,N","011265,1,N,1","+0190,1","+0130,1","99999,9","04,5,+00900,1,99,9",,,,"04,99,1,99,9,99,9,99999,9,99,9,99,9","10102,1,99999,9",,,,"MET051METAR LEEC 231400Z 22020KT 9999 SCT030 19/13 Q1010;",
"08390599999","2010-02-23T14:40:00","4","37.3166666","-6.0","5.0","SEVILLA HELIPORT, SP","FM-16","LEEC ","V020","230,1,N,0093,1","22000,1,9,N","011265,1,N,1","+0190,1","+0130,1","99999,9","04,5,+00900,1,99,9",,,,"04,99,1,99,9,99,9,99999,9,99,9,99,9","10102,1,99999,9",,,"0144,1","MET054SPECI LEEC 231440Z 23018G28KT 9999 SCT030 19/13 Q1010;",
"08390599999","2010-02-23T15:00:00","4","37.3166666","-6.0","5.0","SEVILLA HELIPORT, SP","FM-15","LEEC ","V020","230,1,N,0108,1","22000,1,9,N","011265,1,N,1","+0190,1","+0130,1","99999,9","04,5,+00900,1,99,9",,,,"04,99,1,99,9,99,9,99999,9,99,9,99,9","10108,1,99999,9",,,,"MET051METAR LEEC 231500Z 23021KT 9999 SCT030 19/13 Q1011;",
"08390599999","2010-02-23T15:18:00","4","37.3166666","-6.0","5.0","SEVILLA HELIPORT, SP","FM-16","LEEC ","V020","220,1,N,0108,1","22000,1,9,N","011265,1,N,1","+0180,1","+0140,1","99999,9","04,5,+00900,1,99,9",,,,"04,99,1,99,9,99,9,99999,9,99,9,99,9","10102,1,99999,9",,,"0159,1","MET054SPECI LEEC 231518Z 22021G31KT 9999 SCT030 18/14 Q1010;",
"08390599999","2010-02-23T16:08:00","4","37.3166666","-6.0","5.0","SEVILLA HELIPORT, SP","FM-16","LEEC ","V020","230,1,N,0098,1","22000,1,9,N","011265,1,N,1","+0180,1","+0130,1","99999,9","04,5,+00900,1,99,9",,,,"04,99,1,99,9,99,9,99999,9,99,9,99,9","10108,1,99999,9",,,"0154,1","MET054SPECI LEEC 231608Z 23019G30KT 9999 SCT030 18/13 Q1011;",
"08390599999","2010-02-24T07:00:00","4","37.3166666","-6.0","5.0","SEVILLA HELIPORT, SP","FM-15","LEEC ","V020","210,1,N,0021,1","99999,9,9,Y","009900,1,N,1","+0130,1","+0120,1","99999,9",,,,,,"10180,1,99999,9",,,,"MET045METAR LEEC 240700Z 21004KT CAVOK 13/12 Q1018;",
"08390599999","2010-02-24T08:00:00","4","37.3166666","-6.0","5.0","SEVILLA HELIPORT, SP","FM-15","LEEC ","V020","220,1,N,0026,1","99999,9,9,Y","009900,1,N,1","+0140,1","+0130,1","99999,9",,,,,,"10190,1,99999,9",,,,"MET045METAR LEEC 240800Z 22005KT CAVOK 14/13 Q1019;",
"08390599999","2010-02-24T09:00:00","4","37.3166666","-6.0","5.0","SEVILLA HELIPORT, SP","FM-15","LEEC ","V020","210,1,N,0031,1","99999,9,C,N","011265,1,N,1","+0150,1","+0130,1","99999,9","02,5,+01170,1,99,9","04,5,+01500,1,99,9",,,"04,99,1,99,9,99,9,99999,9,99,9,99,9","10190,1,99999,9",,,,"MET058METAR LEEC 240900Z 21006KT 9999 FEW039 SCT050 15/13 Q1019;","P01 015003SCOCIG"
"08390599999","2010-02-24T10:00:00","4","37.3166666","-6.0","5.0","SEVILLA HELIPORT, SP","FM-15","LEEC ","V020","210,1,N,0041,1","00900,1,C,N","011265,1,N,1","+0170,1","+0140,1","99999,9","02,5,+00420,1,99,9","07,5,+00900,1,99,9",,,"07,99,1,99,9,99,9,99999,9,99,9,99,9","10200,1,99999,9",,,,"MET058METAR LEEC 241000Z 21008KT 9999 FEW014 BKN030 17/14 Q1020;",
"08390599999","2010-02-24T11:00:00","4","37.3166666","-6.0","5.0","SEVILLA HELIPORT, SP","FM-15","LEEC ","V020","240,1,N,0046,1","99999,9,C,N","011265,1,N,1","+0180,1","+0140,1","99999,9","02,5,+00240,1,99,9","04,5,+00600,1,99,9",,,"04,99,1,99,9,99,9,99999,9,99,9,99,9","10200,1,99999,9",,,,"MET058METAR LEEC 241100Z 24009KT 9999 FEW008 SCT020 18/14 Q1020;","P01 006003SCOCIG"
"08390599999","2010-02-24T12:00:00","4","37.3166666","-6.0","5.0","SEVILLA HELIPORT, SP","FM-15","LEEC ","V020","220,1,N,0057,1","22000,1,9,N","011265,1,N,1","+0190,1","+0140,1","99999,9","04,5,+00810,1,99,9",,,,"04,99,1,99,9,99,9,99999,9,99,9,99,9","10190,1,99999,9",,,,"MET051METAR LEEC 241200Z 22011KT 9999 SCT027 19/14 Q1019;",
"08390599999","2010-02-24T13:00:00","4","37.3166666","-6.0","5.0","SEVILLA HELIPORT, SP","FM-15","LEEC ","V020","210,1,N,0082,1","00900,1,C,N","011265,1,N,1","+0190,1","+0140,1","99999,9","07,5,+00900,1,99,9",,,,"07,99,1,99,9,99,9,99999,9,99,9,99,9","10190,1,99999,9",,,,"MET051METAR LEEC 241300Z 21016KT 9999 BKN030 19/14 Q1019;",
"08390599999","2010-02-24T14:00:00","4","37.3166666","-6.0","5.0","SEVILLA HELIPORT, SP","FM-15","LEEC ","V020","210,1,N,0082,1","99999,9,C,N","011265,1,N,1","+0190,1","+0140,1","99999,9","02,5,+00780,1,02,1","04,5,+00930,1,99,9",,,"04,99,1,99,9,99,9,99999,9,99,9,99,9","10190,1,99999,9",,,,"MET061METAR LEEC 241400Z 21016KT 9999 FEW026TCU SCT031 19/14 Q1019;","P01 009303SCOCIG"
"08390599999","2010-02-24T15:00:00","4","37.3166666","-6.0","5.0","SEVILLA HELIPORT, SP","FM-15","LEEC ","V020","230,1,N,0062,1","99999,9,C,N","011265,1,N,1","+0190,1","+0140,1","99999,9","02,5,+00780,1,02,1","04,5,+00960,1,99,9",,,"04,99,1,99,9,99,9,99999,9,99,9,99,9","10180,1,99999,9",,,,"MET061METAR LEEC 241500Z 23012KT 9999 FEW026TCU SCT032 19/14 Q1018;","P01 009603SCOCIG"
"08390599999","2010-02-25T07:00:00","4","37.3166666","-6.0","5.0","SEVILLA HELIPORT, SP","FM-15","LEEC ","V020","180,1,N,0046,1","00750,1,C,N","008000,1,N,1","+0150,1","+0140,1","99999,9","04,5,+00450,1,99,9","07,5,+00750,1,99,9",,,"07,99,1,99,9,99,9,99999,9,99,9,99,9","10119,1,99999,9",,,,"MET058METAR LEEC 250700Z 18009KT 8000 SCT015 BKN025 15/14 Q1012;",
"08390599999","2010-02-25T08:00:00","4","37.3166666","-6.0","5.0","SEVILLA HELIPORT, SP","FM-15","LEEC ","V020","190,1,N,0051,1","01200,1,C,N","005000,1,N,1","+0150,1","+0140,1","99999,9","04,5,+00150,1,99,9","08,5,+01200,1,99,9",,,"08,99,1,99,9,99,9,99999,9,99,9,99,9","10119,1,99999,9","51,1",,,"MET062METAR LEEC 250800Z 19010KT 5000 -DZ SCT005 OVC040 15/14 Q1012;",
"08390599999","2010-02-25T09:00:00","4","37.3166666","-6.0","5.0","SEVILLA HELIPORT, SP","FM-15","LEEC ","V020","200,1,N,0062,1","01200,1,C,N","007000,1,N,1","+0160,1","+0150,1","99999,9","02,5,+00450,1,99,9","08,5,+01200,1,99,9",,,"08,99,1,99,9,99,9,99999,9,99,9,99,9","10119,1,99999,9",,,,"MET058METAR LEEC 250900Z 20012KT 7000 FEW015 OVC040 16/15 Q1012;",
"08390599999","2010-02-25T10:00:00","4","37.3166666","-6.0","5.0","SEVILLA HELIPORT, SP","FM-15","LEEC ","V020","200,1,N,0087,1","00900,1,C,N","003000,1,N,1","+0170,1","+0150,1","99999,9","04,5,+00450,1,99,9","08,5,+00900,1,99,9",,,"08,99,1,99,9,99,9,99999,9,99,9,99,9","10119,1,99999,9","63,1",,,"MET061METAR LEEC 251000Z 20017KT 3000 RA SCT015 OVC030 17/15 Q1012;",
"08390599999","2010-02-25T11:00:00","4","37.3166666","-6.0","5.0","SEVILLA HELIPORT, SP","FM-15","LEEC ","V020","200,1,N,0077,1","00600,1,C,N","009000,1,N,1","+0160,1","+0150,1","99999,9","04,5,+00300,1,99,9","08,5,+00600,1,99,9",,,"08,99,1,99,9,99,9,99999,9,99,9,99,9","10119,1,99999,9",,,,"MET058METAR LEEC 251100Z 20015KT 9000 SCT010 OVC020 16/15 Q1012;",
"08390599999","2010-02-25T12:00:00","4","37.3166666","-6.0","5.0","SEVILLA HELIPORT, SP","FM-15","LEEC ","V020","210,1,N,0067,1","00300,1,C,N","007000,1,N,1","+0170,1","+0150,1","99999,9","07,5,+00300,1,99,9","08,5,+00450,1,99,9",,,"08,99,1,99,9,99,9,99999,9,99,9,99,9","10119,1,99999,9",,,,"MET058METAR LEEC 251200Z 21013KT 7000 BKN010 OVC015 17/15 Q1012;",
"08390599999","2010-02-25T12:16:00","4","37.3166666","-6.0","5.0","SEVILLA HELIPORT, SP","FM-16","LEEC ","V020","210,1,N,0077,1","00300,1,C,N","002500,1,N,1","+0160,1","+0150,1","99999,9","07,5,+00300,1,99,9","08,5,+00450,1,99,9",,,"08,99,1,99,9,99,9,99999,9,99,9,99,9","10108,1,99999,9","63,1",,,"MET061SPECI LEEC 251216Z 21015KT 2500 RA BKN010 OVC015 16/15 Q1011;",
"08390599999","2010-02-25T12:46:00","4","37.3166666","-6.0","5.0","SEVILLA HELIPORT, SP","FM-16","LEEC ","V020","210,1,N,0082,1","00240,1,C,N","006000,1,N,1","+0160,1","+0160,1","99999,9","07,5,+00240,1,99,9","08,5,+00420,1,99,9",,,"08,99,1,99,9,99,9,99999,9,99,9,99,9","10108,1,99999,9",,,,"MET058SPECI LEEC 251246Z 21016KT 6000 BKN008 OVC014 16/16 Q1011;",
"08390599999","2010-02-25T13:00:00","4","37.3166666","-6.0","5.0","SEVILLA HELIPORT, SP","FM-15","LEEC ","V020","210,1,N,0077,1","00210,1,C,N","003000,1,N,1","+0160,1","+0160,1","99999,9","07,5,+00210,1,99,9","08,5,+00420,1,99,9",,,"08,99,1,99,9,99,9,99999,9,99,9,99,9","10108,1,99999,9","61,1",,,"MET062METAR LEEC 251300Z 21015KT 3000 -RA BKN007 OVC014 16/16 Q1011;",
"08390599999","2010-02-25T13:36:00","4","37.3166666","-6.0","5.0","SEVILLA HELIPORT, SP","FM-16","LEEC ","V020","220,1,N,0077,1","00240,1,C,N","006000,1,N,1","+0170,1","+0160,1","99999,9","07,5,+00240,1,99,9","08,5,+00450,1,99,9",,,"08,99,1,99,9,99,9,99999,9,99,9,99,9","10108,1,99999,9",,,,"MET058SPECI LEEC 251336Z 22015KT 6000 BKN008 OVC015 17/16 Q1011;",
"08390599999","2010-02-25T14:00:00","4","37.3166666","-6.0","5.0","SEVILLA HELIPORT, SP","FM-15","LEEC ","V020","220,1,N,0077,1","00270,1,C,N","006000,1,N,1","+0170,1","+0160,1","99999,9","07,5,+00270,1,99,9","08,5,+00450,1,99,9",,,"08,99,1,99,9,99,9,99999,9,99,9,99,9","10108,1,99999,9",,,,"MET058METAR LEEC 251400Z 22015KT 6000 BKN009 OVC015 17/16 Q1011;",
"08390599999","2010-02-25T15:00:00","4","37.3166666","-6.0","5.0","SEVILLA HELIPORT, SP","FM-15","LEEC ","V020","220,1,N,0072,1","00270,1,C,N","007000,1,N,1","+0170,1","+0160,1","99999,9","07,5,+00270,1,99,9","08,5,+00600,1,99,9",,,"08,99,1,99,9,99,9,99999,9,99,9,99,9","10102,1,99999,9",,,,"MET058METAR LEEC 251500Z 22014KT 7000 BKN009 OVC020 17/16 Q1010;",
"08390599999","2010-02-26T07:00:00","4","37.3166666","-6.0","5.0","SEVILLA HELIPORT, SP","FM-15","LEEC ","V020","190,1,N,0010,1","99999,9,C,N","011265,1,N,1","+0150,1","+0140,1","99999,9","02,5,+00450,1,99,9","04,5,+00990,1,99,9",,,"04,99,1,99,9,99,9,99999,9,99,9,99,9","10129,1,99999,9","53,1",,,"MET061METAR LEEC 260700Z 19002KT 9999 DZ FEW015 SCT033 15/14 Q1013;","P01 009903SCOCIG"
"08390599999","2010-02-26T08:00:00","4","37.3166666","-6.0","5.0","SEVILLA HELIPORT, SP","FM-15","LEEC ","V020","200,1,N,0010,1","00300,1,C,N","008000,1,N,1","+0150,1","+0140,1","99999,9","07,5,+00300,1,99,9",,,,"07,99,1,99,9,99,9,99999,9,99,9,99,9","10139,1,99999,9","53,1",,,"MET054METAR LEEC 260800Z 20002KT 8000 DZ BKN010 15/14 Q1014;",
"08390599999","2010-02-26T09:00:00","4","37.3166666","-6.0","5.0","SEVILLA HELIPORT, SP","FM-15","LEEC ","V020","150,1,N,0010,1","00600,1,C,N","009000,1,N,1","+0150,1","+0150,1","99999,9","04,5,+00150,1,99,9","07,5,+00600,1,99,9",,,"07,99,1,99,9,99,9,99999,9,99,9,99,9","10139,1,99999,9",,,,"MET058METAR LEEC 260900Z 15002KT 9000 SCT005 BKN020 15/15 Q1014;",
"08390599999","2010-02-26T10:00:00","4","37.3166666","-6.0","5.0","SEVILLA HELIPORT, SP","FM-15","LEEC ","V020","200,1,N,0021,1","01140,1,C,N","011265,1,N,1","+0160,1","+0150,1","99999,9","04,5,+00150,1,99,9","07,5,+01140,1,99,9",,,"07,99,1,99,9,99,9,99999,9,99,9,99,9","10139,1,99999,9","53,1",,,"MET061METAR LEEC 261000Z 20004KT 9999 DZ SCT005 BKN038 16/15 Q1014;",
"08390599999","2010-02-26T11:00:00","4","37.3166666","-6.0","5.0","SEVILLA HELIPORT, SP","FM-15","LEEC ","V020","200,1,N,0026,1","01230,1,C,N","011265,1,N,1","+0160,1","+0150,1","99999,9","04,5,+00180,1,99,9","07,5,+01230,1,99,9",,,"07,99,1,99,9,99,9,99999,9,99,9,99,9","10139,1,99999,9",,,,"MET058METAR LEEC 261100Z 20005KT 9999 SCT006 BKN041 16/15 Q1014;",
"08390599999","2010-02-26T11:35:00","4","37.3166666","-6.0","5.0","SEVILLA HELIPORT, SP","FM-16","LEEC ","V020","220,1,N,0021,1","00600,1,C,N","005000,1,N,1","+0160,1","+0150,1","99999,9","04,5,+00180,1,99,9","07,5,+00600,1,99,9",,,"07,99,1,99,9,99,9,99999,9,99,9,99,9","10139,1,99999,9","63,1",,,"MET061SPECI LEEC 261135Z 22004KT 5000 RA SCT006 BKN020 16/15 Q1014;",
"08390599999","2010-02-26T12:00:00","4","37.3166666","-6.0","5.0","SEVILLA HELIPORT, SP","FM-15","LEEC ","V020","200,1,N,0036,1","00600,1,C,N","008000,1,N,1","+0160,1","+0150,1","99999,9","04,5,+00240,1,99,9","07,5,+00600,1,99,9",,,"07,99,1,99,9,99,9,99999,9,99,9,99,9","10139,1,99999,9","61,1",,,"MET062METAR LEEC 261200Z 20007KT 8000 -RA SCT008 BKN020 16/15 Q1014;",
"08390599999","2010-02-26T13:00:00","4","37.3166666","-6.0","5.0","SEVILLA HELIPORT, SP","FM-15","LEEC ","V020","999,9,V,0010,1","00420,1,C,N","008000,1,N,1","+0150,1","+0140,1","99999,9","02,5,+00150,1,99,9","07,5,+00420,1,99,9",,,"07,99,1,99,9,99,9,99999,9,99,9,99,9","10129,1,99999,9",,,,"MET058METAR LEEC 261300Z VRB02KT 8000 FEW005 BKN014 15/14 Q1013;",
"08390599999","2010-03-02T06:00:00","4","37.3166666","-6.0","5.0","SEVILLA HELIPORT, SP","FM-15","LEEC ","V020","020,1,N,0031,1","99999,9,9,Y","009900,1,N,1","+0110,1","+0060,1","99999,9",,,,,,"10091,1,99999,9",,,,"MET045METAR LEEC 020600Z 02006KT CAVOK 11/06 Q1009;",
"08390599999","2010-03-02T07:00:00","4","37.3166666","-6.0","5.0","SEVILLA HELIPORT, SP","FM-15","LEEC ","V020","999,9,V,0015,1","99999,9,9,Y","009900,1,N,1","+0110,1","+0060,1","99999,9",,,,,,"10091,1,99999,9",,,,"MET045METAR LEEC 020700Z VRB03KT CAVOK 11/06 Q1009;",
"08390599999","2010-03-02T08:00:00","4","37.3166666","-6.0","5.0","SEVILLA HELIPORT, SP","FM-15","LEEC ","V020","999,9,V,0015,1","99999,9,9,Y","009900,1,N,1","+0110,1","+0070,1","99999,9",,,,,,"10091,1,99999,9",,,,"MET045METAR LEEC 020800Z VRB03KT CAVOK 11/07 Q1009;",
"08390599999","2010-03-02T09:00:00","4","37.3166666","-6.0","5.0","SEVILLA HELIPORT, SP","FM-15","LEEC ","V020","360,1,N,0021,1","99999,9,9,Y","009900,1,N,1","+0120,1","+0070,1","99999,9",,,,,,"10081,1,99999,9",,,,"MET053METAR LEEC 020900Z 36004KT 300V030 CAVOK 12/07 Q1008;",
"08390599999","2010-03-02T10:00:00","4","37.3166666","-6.0","5.0","SEVILLA HELIPORT, SP","FM-15","LEEC ","V020","999,9,V,0015,1","99999,9,9,Y","009900,1,N,1","+0130,1","+0080,1","99999,9",,,,,,"10091,1,99999,9",,,,"MET045METAR LEEC 021000Z VRB03KT CAVOK 13/08 Q1009;",
"08390599999","2010-03-02T11:00:00","4","37.3166666","-6.0","5.0","SEVILLA HELIPORT, SP","FM-15","LEEC ","V020","999,9,C,0000,1","22000,1,9,N","008000,1,N,1","+0140,1","+0090,1","99999,9","04,5,+00600,1,99,9",,,,"04,99,1,99,9,99,9,99999,9,99,9,99,9","10091,1,99999,9","61,1",,,"MET055METAR LEEC 021100Z 00000KT 8000 -RA SCT020 14/09 Q1009;",
"08390599999","2010-03-02T12:00:00","4","37.3166666","-6.0","5.0","SEVILLA HELIPORT, SP","FM-15","LEEC ","V020","150,1,N,0046,1","00750,1,C,N","009000,1,N,1","+0140,1","+0090,1","99999,9","04,5,+00450,1,99,9","07,5,+00750,1,99,9",,,"07,99,1,99,9,99,9,99999,9,99,9,99,9","10081,1,99999,9","63,1",,,"MET061METAR LEEC 021200Z 15009KT 9000 RA SCT015 BKN025 14/09 Q1008;",
"08390599999","2010-03-02T12:13:00","4","37.3166666","-6.0","5.0","SEVILLA HELIPORT, SP","FM-16","LEEC ","V020","170,1,N,0046,1","00750,1,C,N","003000,1,N,1","+0140,1","+0100,1","99999,9","04,5,+00450,1,99,9","07,5,+00750,1,99,9",,,"07,99,1,99,9,99,9,99999,9,99,9,99,9","10091,1,99999,9","65,1",,,"MET062SPECI LEEC 021213Z 17009KT 3000 +RA SCT015 BKN025 14/10 Q1009;",
"08390599999","2010-03-02T13:00:00","4","37.3166666","-6.0","5.0","SEVILLA HELIPORT, SP","FM-15","LEEC ","V020","120,1,N,0046,1","00900,1,C,N","005000,1,N,1","+0130,1","+0110,1","99999,9","04,5,+00450,1,99,9","08,5,+00900,1,99,9",,,"08,99,1,99,9,99,9,99999,9,99,9,99,9","10081,1,99999,9","63,1",,,"MET061METAR LEEC 021300Z 12009KT 5000 RA SCT015 OVC030 13/11 Q1008;",
"08390599999","2010-03-02T14:00:00","4","37.3166666","-6.0","5.0","SEVILLA HELIPORT, SP","FM-15","LEEC ","V020","030,1,N,0036,1","00900,1,C,N","005000,1,N,1","+0130,1","+0100,1","99999,9","04,5,+00450,1,99,9","08,5,+00900,1,99,9",,,"08,99,1,99,9,99,9,99999,9,99,9,99,9","10071,1,99999,9","63,1",,,"MET061METAR LEEC 021400Z 03007KT 5000 RA SCT015 OVC030 13/10 Q1007;",
"08390599999","2010-03-02T15:00:00","4","37.3166666","-6.0","5.0","SEVILLA HELIPORT, SP","FM-15","LEEC ","V020","040,1,N,0031,1","01500,1,C,N","008000,1,N,1","+0130,1","+0120,1","99999,9","04,5,+00390,1,99,9","08,5,+01500,1,99,9",,,"08,99,1,99,9,99,9,99999,9,99,9,99,9","10061,1,99999,9","61,1",,,"MET062METAR LEEC 021500Z 04006KT 8000 -RA SCT013 OVC050 13/12 Q1006;",
"08390599999","2010-03-03T08:00:00","4","37.3166666","-6.0","5.0","SEVILLA HELIPORT, SP","FM-15","LEEC ","V020","160,1,N,0036,1","01200,1,C,N","011265,1,N,1","+0120,1","+0100,1","99999,9","02,5,+00450,1,99,9","07,5,+01200,1,99,9",,,"07,99,1,99,9,99,9,99999,9,99,9,99,9","10081,1,99999,9","61,1",,,"MET062METAR LEEC 030800Z 16007KT 9999 -RA FEW015 BKN040 12/10 Q1008;",
"08390599999","2010-03-03T09:00:00","4","37.3166666","-6.0","5.0","SEVILLA HELIPORT, SP","FM-15","LEEC ","V020","180,1,N,0041,1","01050,1,C,N","011265,1,N,1","+0130,1","+0110,1","99999,9","02,5,+00600,1,99,9","07,5,+01050,1,99,9",,,"07,99,1,99,9,99,9,99999,9,99,9,99,9","10081,1,99999,9",,,,"MET058METAR LEEC 030900Z 18008KT 9999 FEW020 BKN035 13/11 Q1008;",
"08390599999","2010-03-03T10:00:00","4","37.3166666","-6.0","5.0","SEVILLA HELIPORT, SP","FM-15","LEEC ","V020","170,1,N,0046,1","00900,1,C,N","009000,1,N,1","+0150,1","+0110,1","99999,9","02,5,+00450,1,99,9","07,5,+00900,1,99,9",,,"07,99,1,99,9,99,9,99999,9,99,9,99,9","10091,1,99999,9",,,,"MET058METAR LEEC 031000Z 17009KT 9000 FEW015 BKN030 15/11 Q1009;",
"08390599999","2010-03-03T11:00:00","4","37.3166666","-6.0","5.0","SEVILLA HELIPORT, SP","FM-15","LEEC ","V020","170,1,N,0051,1","00960,5,C,N","011265,1,N,1","+0150,1","+0120,1","99999,9","04,5,+00900,1,99,9","02,5,+00960,1,02,5",,,,"10091,1,99999,9",,,,"MET069METAR LEEC 031100Z 17010KT 130V190 9999 SCT030 FEW032TCU 15/12 Q1009;","Q01+000022SCOTCV"
"08390599999","2010-03-03T12:00:00","4","37.3166666","-6.0","5.0","SEVILLA HELIPORT, SP","FM-15","LEEC ","V020","210,1,N,0087,1","00900,1,C,N","011265,1,N,1","+0170,1","+0110,1","99999,9","07,5,+00900,1,99,9","02,5,+00960,1,02,5",,,,"10081,1,99999,9",,,,"MET061METAR LEEC 031200Z 21017KT 9999 BKN030 FEW032TCU 17/11 Q1008;","Q01+000022SCOTCV"
"08390599999","2010-03-03T12:29:00","4","37.3166666","-6.0","5.0","SEVILLA HELIPORT, SP","FM-16","LEEC ","V020","210,1,N,0093,1","00900,1,C,N","006000,1,N,1","+0160,1","+0120,1","99999,9","02,5,+00450,1,99,9","07,5,+00900,1,99,9","02,5,+00960,1,02,5",,,"10081,1,99999,9","63,1",,,"MET071SPECI LEEC 031229Z 21018KT 6000 RA FEW015 BKN030 FEW032TCU 16/12 Q1008;","Q01+000022SCOTCV"
"08390599999","2010-03-03T13:00:00","4","37.3166666","-6.0","5.0","SEVILLA HELIPORT, SP","FM-15","LEEC ","V020","200,1,N,0062,1","00900,1,C,N","011265,1,N,1","+0150,1","+0130,1","99999,9","02,5,+00450,1,99,9","07,5,+00900,1,99,9",,,"07,99,1,99,9,99,9,99999,9,99,9,99,9","10081,1,99999,9",,,,"MET058METAR LEEC 031300Z 20012KT 9999 FEW015 BKN030 15/13 Q1008;",
"08390599999","2010-03-03T14:00:00","4","37.3166666","-6.0","5.0","SEVILLA HELIPORT, SP","FM-15","LEEC ","V020","210,1,N,0072,1","00900,1,C,N","011265,1,N,1","+0170,1","+0120,1","99999,9","02,5,+00450,1,99,9","07,5,+00900,1,99,9","02,5,+00960,1,02,5",,,"10071,1,99999,9",,,,"MET068METAR LEEC 031400Z 21014KT 9999 FEW015 BKN030 FEW032TCU 17/12 Q1007;","Q01+000022SCOTCV"
"08390599999","2010-03-03T15:00:00","4","37.3166666","-6.0","5.0","SEVILLA HELIPORT, SP","FM-15","LEEC ","V020","210,1,N,0087,1","99999,9,C,N","011265,1,N,1","+0160,1","+0130,1","99999,9","02,5,+00450,1,99,9","04,5,+00900,1,99,9",,,"04,99,1,99,9,99,9,99999,9,99,9,99,9","10071,1,99999,9",,,,"MET058METAR LEEC 031500Z 21017KT 9999 FEW015 SCT030 16/13 Q1007;","P01 009003SCOCIG"
"08390599999","2010-03-04T07:00:00","4","37.3166666","-6.0","5.0","SEVILLA HELIPORT, SP","FM-15","LEEC ","V020","999,9,C,0000,1","01200,1,C,N","009000,1,N,1","+0130,1","+0120,1","99999,9","07,5,+01200,1,99,9",,,,"07,99,1,99,9,99,9,99999,9,99,9,99,9","10149,1,99999,9",,,,"MET051METAR LEEC 040700Z 00000KT 9000 BKN040 13/12 Q1015;",
"08390599999","2010-03-04T08:00:00","4","37.3166666","-6.0","5.0","SEVILLA HELIPORT, SP","FM-15","LEEC ","V020","999,9,C,0000,1","01350,1,C,N","011265,1,N,1","+0130,1","+0130,1","99999,9","02,5,+00900,1,99,9","07,5,+01350,1,99,9",,,"07,99,1,99,9,99,9,99999,9,99,9,99,9","10159,1,99999,9",,,,"MET058METAR LEEC 040800Z 00000KT 9999 FEW030 BKN045 13/13 Q1016;",
"08390599999","2010-03-04T09:00:00","4","37.3166666","-6.0","5.0","SEVILLA HELIPORT, SP","FM-15","LEEC ","V020","999,9,V,0015,1","01350,1,C,N","011265,1,N,1","+0140,1","+0130,1","99999,9","02,5,+00750,1,99,9","07,5,+01350,1,99,9",,,"07,99,1,99,9,99,9,99999,9,99,9,99,9","10159,1,99999,9",,,,"MET058METAR LEEC 040900Z VRB03KT 9999 FEW025 BKN045 14/13 Q1016;",
"08390599999","2010-03-04T10:00:00","4","37.3166666","-6.0","5.0","SEVILLA HELIPORT, SP","FM-15","LEEC ","V020","999,9,V,0010,1","22000,1,9,N","011265,1,N,1","+0160,1","+0120,1","99999,9","02,5,+01200,1,99,9",,,,"02,99,1,99,9,99,9,99999,9,99,9,99,9","10159,1,99999,9",,,,"MET051METAR LEEC 041000Z VRB02KT 9999 FEW040 16/12 Q1016;",
"08390599999","2010-03-04T11:00:00","4","37.3166666","-6.0","5.0","SEVILLA HELIPORT, SP","FM-15","LEEC ","V020","210,1,N,0026,1","22000,1,9,N","011265,1,N,1","+0170,1","+0120,1","99999,9","04,5,+00750,1,99,9",,,,"04,99,1,99,9,99,9,99999,9,99,9,99,9","10169,1,99999,9",,,,"MET059METAR LEEC 041100Z 21005KT 150V260 9999 SCT025 17/12 Q1017;",
"08390599999","2010-03-04T12:00:00","4","37.3166666","-6.0","5.0","SEVILLA HELIPORT, SP","FM-15","LEEC ","V020","200,1,N,0046,1","99999,9,C,N","011265,1,N,1","+0170,1","+0130,1","99999,9","04,5,+00750,1,99,9","04,5,+01500,1,99,9",,,"04,99,1,99,9,99,9,99999,9,99,9,99,9","10169,1,99999,9",,,,"MET066METAR LEEC 041200Z 20009KT 170V230 9999 SCT025 SCT050 17/13 Q1017;","P01 015003SCOCIG"
"08390599999","2010-03-04T13:00:00","4","37.3166666","-6.0","5.0","SEVILLA HELIPORT, SP","FM-15","LEEC ","V020","210,1,N,0041,1","01350,1,C,N","011265,1,N,1","+0170,1","+0130,1","99999,9","04,5,+00750,1,99,9","07,5,+01350,1,99,9",,,"07,99,1,99,9,99,9,99999,9,99,9,99,9","10159,1,99999,9",,,,"MET058METAR LEEC 041300Z 21008KT 9999 SCT025 BKN045 17/13 Q1016;",
"08390599999","2010-03-04T14:00:00","4","37.3166666","-6.0","5.0","SEVILLA HELIPORT, SP","FM-15","LEEC ","V020","210,1,N,0046,1","01050,1,C,N","011265,1,N,1","+0170,1","+0140,1","99999,9","04,5,+00600,1,99,9","07,5,+01050,1,99,9",,,"07,99,1,99,9,99,9,99999,9,99,9,99,9","10159,1,99999,9",,,,"MET058METAR LEEC 041400Z 21009KT 9999 SCT020 BKN035 17/14 Q1016;",
"08390599999","2010-03-04T15:00:00","4","37.3166666","-6.0","5.0","SEVILLA HELIPORT, SP","FM-15","LEEC ","V020","220,1,N,0051,1","01350,1,C,N","011265,1,N,1","+0170,1","+0130,1","99999,9","02,5,+00750,1,99,9","07,5,+01350,1,99,9",,,"07,99,1,99,9,99,9,99999,9,99,9,99,9","10159,1,99999,9",,,,"MET058METAR LEEC 041500Z 22010KT 9999 FEW025 BKN045 17/13 Q1016;",
"08390599999","2010-03-05T07:00:00","4","37.3166666","-6.0","5.0","SEVILLA HELIPORT, SP","FM-15","LEEC ","V020","999,9,V,0005,1","00150,1,C,N","003000,1,N,1","+0130,1","+0120,1","99999,9","07,5,+00150,1,99,9",,,,"07,99,1,99,9,99,9,99999,9,99,9,99,9","10119,1,99999,9","10,1",,,"MET054METAR LEEC 050700Z VRB01KT 3000 BR BKN005 13/12 Q1012;",
"08390599999","2010-03-05T08:00:00","4","37.3166666","-6.0","5.0","SEVILLA HELIPORT, SP","FM-15","LEEC ","V020","999,9,V,0005,1","00120,1,C,N","003000,1,N,1","+0130,1","+0130,1","99999,9","07,5,+00120,1,99,9",,,,"07,99,1,99,9,99,9,99999,9,99,9,99,9","10119,1,99999,9","10,1",,,"MET054METAR LEEC 050800Z VRB01KT 3000 BR BKN004 13/13 Q1012;",
"08390599999","2010-03-05T09:00:00","4","37.3166666","-6.0","5.0","SEVILLA HELIPORT, SP","FM-15","LEEC ","V020","040,1,N,0021,1","00150,1,C,N","004000,1,N,1","+0130,1","+0130,1","99999,9","02,5,+00090,1,99,9","08,5,+00150,1,99,9",,,"08,99,1,99,9,99,9,99999,9,99,9,99,9","10129,1,99999,9","10,1",,,"MET061METAR LEEC 050900Z 04004KT 4000 BR FEW003 OVC005 13/13 Q1013;",
"08390599999","2010-03-05T10:00:00","4","37.3166666","-6.0","5.0","SEVILLA HELIPORT, SP","FM-15","LEEC ","V020","030,1,N,0026,1","00360,1,C,N","005000,1,N,1","+0140,1","+0130,1","99999,9","02,5,+00210,1,99,9","07,5,+00360,1,99,9",,,"07,99,1,99,9,99,9,99999,9,99,9,99,9","10119,1,99999,9","10,1",,,"MET061METAR LEEC 051000Z 03005KT 5000 BR FEW007 BKN012 14/13 Q1012;",
"08390599999","2010-03-05T11:00:00","4","37.3166666","-6.0","5.0","SEVILLA HELIPORT, SP","FM-15","LEEC ","V020","060,1,N,0036,1","22000,1,9,N","011265,1,N,1","+0150,1","+0120,1","99999,9","04,5,+00360,1,99,9",,,,"04,99,1,99,9,99,9,99999,9,99,9,99,9","10108,1,99999,9",,,,"MET051METAR LEEC 051100Z 06007KT 9999 SCT012 15/12 Q1011;",
"08390599999","2010-03-05T12:00:00","4","37.3166666","-6.0","5.0","SEVILLA HELIPORT, SP","FM-15","LEEC ","V020","110,1,N,0021,1","22000,1,9,N","011265,1,N,1","+0160,1","+0120,1","99999,9","04,5,+00450,1,99,9",,,,"04,99,1,99,9,99,9,99999,9,99,9,99,9","10108,1,99999,9",,,,"MET059METAR LEEC 051200Z 11004KT 070V140 9999 SCT015 16/12 Q1011;",
"08390599999","2010-03-05T13:00:00","4","37.3166666","-6.0","5.0","SEVILLA HELIPORT, SP","FM-15","LEEC ","V020","130,1,N,0021,1","22000,1,9,N","011265,1,N,1","+0160,1","+0110,1","99999,9","04,5,+00450,1,99,9",,,,"04,99,1,99,9,99,9,99999,9,99,9,99,9","10102,1,99999,9",,,,"MET051METAR LEEC 051300Z 13004KT 9999 SCT015 16/11 Q1010;",
"08390599999","2010-03-05T14:00:00","4","37.3166666","-6.0","5.0","SEVILLA HELIPORT, SP","FM-15","LEEC ","V020","999,9,V,0015,1","00600,1,C,N","011265,1,N,1","+0170,1","+0120,1","99999,9","07,5,+00600,1,99,9",,,,"07,99,1,99,9,99,9,99999,9,99,9,99,9","10091,1,99999,9",,,,"MET051METAR LEEC 051400Z VRB03KT 9999 BKN020 17/12 Q1009;",
"08390599999","2010-03-05T15:00:00","4","37.3166666","-6.0","5.0","SEVILLA HELIPORT, SP","FM-15","LEEC ","V020","999,9,V,0015,1","22000,1,9,N","011265,1,N,1","+0170,1","+0120,1","99999,9","04,5,+00600,1,99,9",,,,"04,99,1,99,9,99,9,99999,9,99,9,99,9","10081,1,99999,9","61,1",,,"MET055METAR LEEC 051500Z VRB03KT 9999 -RA SCT020 17/12 Q1008;",
"08390599999","2010-03-08T07:00:00","4","37.3166666","-6.0","5.0","SEVILLA HELIPORT, SP","FM-15","LEEC ","V020","240,1,N,0021,1","99999,9,9,Y","009900,1,N,1","+0120,1","+0110,1","99999,9",,,,,,"10108,1,99999,9",,,,"MET045METAR LEEC 080700Z 24004KT CAVOK 12/11 Q1011;",
"08390599999","2010-03-08T08:00:00","4","37.3166666","-6.0","5.0","SEVILLA HELIPORT, SP","FM-15","LEEC ","V020","250,1,N,0031,1","01560,5,C,N","011265,1,N,1","+0120,1","+0110,1","99999,9","02,5,+00600,1,99,9","07,5,+01560,5,99,9",,,"07,99,1,99,9,99,9,99999,9,99,9,99,9","10108,1,99999,9",,,,"MET058METAR LEEC 080800Z 25006KT 9999 FEW020 BKN052 12/11 Q1011;",
"08390599999","2010-03-08T09:00:00","4","37.3166666","-6.0","5.0","SEVILLA HELIPORT, SP","FM-15","LEEC ","V020","270,1,N,0036,1","01800,1,C,N","011265,1,N,1","+0130,1","+0100,1","99999,9","02,5,+00540,1,99,9","07,5,+01800,1,99,9",,,"07,99,1,99,9,99,9,99999,9,99,9,99,9","10119,1,99999,9",,,,"MET058METAR LEEC 080900Z 27007KT 9999 FEW018 BKN060 13/10 Q1012;",
"08390599999","2010-03-08T10:00:00","4","37.3166666","-6.0","5.0","SEVILLA HELIPORT, SP","FM-15","LEEC ","V020","250,1,N,0031,1","22000,1,9,N","011265,1,N,1","+0140,1","+0110,1","99999,9","02,5,+00600,1,99,9",,,,"02,99,1,99,9,99,9,99999,9,99,9,99,9","10119,1,99999,9",,,,"MET051METAR LEEC 081000Z 25006KT 9999 FEW020 14/11 Q1012;",
"08390599999","2010-03-08T11:00:00","4","37.3166666","-6.0","5.0","SEVILLA HELIPORT, SP","FM-15","LEEC ","V020","240,1,N,0031,1","22000,1,9,N","011265,1,N,1","+0140,1","+0110,1","99999,9","04,5,+00630,1,99,9",,,,"04,99,1,99,9,99,9,99999,9,99,9,99,9","10108,1,99999,9",,,,"MET059METAR LEEC 081100Z 24006KT 220V280 9999 SCT021 14/11 Q1011;",
"08390599999","2010-03-08T12:00:00","4","37.3166666","-6.0","5.0","SEVILLA HELIPORT, SP","FM-15","LEEC ","V020","250,1,N,0031,1","01350,1,C,N","011265,1,N,1","+0150,1","+0110,1","99999,9","02,5,+00630,1,99,9","07,5,+01350,1,99,9",,,"07,99,1,99,9,99,9,99999,9,99,9,99,9","10102,1,99999,9",,,,"MET066METAR LEEC 081200Z 25006KT 210V280 9999 FEW021 BKN045 15/11 Q1010;",
"08390599999","2010-03-08T13:00:00","4","37.3166666","-6.0","5.0","SEVILLA HELIPORT, SP","FM-15","LEEC ","V020","250,1,N,0031,1","01200,1,C,N","011265,1,N,1","+0150,1","+0100,1","99999,9","02,5,+00600,1,99,9","07,5,+01200,1,99,9",,,"07,99,1,99,9,99,9,99999,9,99,9,99,9","10102,1,99999,9",,,,"MET058METAR LEEC 081300Z 25006KT 9999 FEW020 BKN040 15/10 Q1010;",
"08390599999","2010-03-08T14:00:00","4","37.3166666","-6.0","5.0","SEVILLA HELIPORT, SP","FM-15","LEEC ","V020","240,1,N,0026,1","22000,1,9,N","011265,1,N,1","+0150,1","+0120,1","99999,9","04,5,+00360,1,99,9",,,,"04,99,1,99,9,99,9,99999,9,99,9,99,9","10091,1,99999,9","53,1",,,"MET054METAR LEEC 081400Z 24005KT 9999 DZ SCT012 15/12 Q1009;",
"08390599999","2010-03-08T15:00:00","4","37.3166666","-6.0","5.0","SEVILLA HELIPORT, SP","FM-15","LEEC ","V020","220,1,N,0031,1","22000,1,9,N","011265,1,N,1","+0140,1","+0120,1","99999,9","02,5,+00300,1,99,9",,,,"02,99,1,99,9,99,9,99999,9,99,9,99,9","10081,1,99999,9","53,1",,,"MET054METAR LEEC 081500Z 22006KT 9999 DZ FEW010 14/12 Q1008;",
"08390599999","2010-03-09T07:00:00","4","37.3166666","-6.0","5.0","SEVILLA HELIPORT, SP","FM-15","LEEC ","V020","050,1,N,0051,1","01410,1,C,N","011265,1,N,1","+0050,1","+0040,1","99999,9","02,5,+00300,1,99,9","07,5,+01410,1,99,9",,,"07,99,1,99,9,99,9,99999,9,99,9,99,9","10081,1,99999,9",,,,"MET058METAR LEEC 090700Z 05010KT 9999 FEW010 BKN047 05/04 Q1008;",
"08390599999","2010-03-09T08:00:00","4","37.3166666","-6.0","5.0","SEVILLA HELIPORT, SP","FM-15","LEEC ","V020","040,1,N,0057,1","99999,9,9,Y","009900,1,N,1","+0060,1","+0030,1","99999,9",,,,,,"10091,1,99999,9",,,,"MET045METAR LEEC 090800Z 04011KT CAVOK 06/03 Q1009;",
"08390599999","2010-03-09T09:00:00","4","37.3166666","-6.0","5.0","SEVILLA HELIPORT, SP","FM-15","LEEC ","V020","040,1,N,0062,1","22000,1,9,N","011265,1,N,1","+0070,1","+0020,1","99999,9","02,5,+00300,1,99,9",,,,"02,99,1,99,9,99,9,99999,9,99,9,99,9","10108,1,99999,9",,,,"MET051METAR LEEC 090900Z 04012KT 9999 FEW010 07/02 Q1011;",
"08390599999","2010-03-09T10:00:00","4","37.3166666","-6.0","5.0","SEVILLA HELIPORT, SP","FM-15","LEEC ","V020","040,1,N,0077,1","22000,1,9,N","011265,1,N,1","+0080,1","+0000,1","99999,9","02,5,+00450,1,99,9",,,,"02,99,1,99,9,99,9,99999,9,99,9,99,9","10108,1,99999,9",,,,"MET051METAR LEEC 091000Z 04015KT 9999 FEW015 08/00 Q1011;",
"08390599999","2010-03-09T11:00:00","4","37.3166666","-6.0","5.0","SEVILLA HELIPORT, SP","FM-15","LEEC ","V020","030,1,N,0057,1","99999,9,9,Y","009900,1,N,1","+0090,1","+0020,1","99999,9",,,,,,"10108,1,99999,9",,,,"MET045METAR LEEC 091100Z 03011KT CAVOK 09/02 Q1011;",
"08390599999","2010-03-09T12:00:00","4","37.3166666","-6.0","5.0","SEVILLA HELIPORT, SP","FM-15","LEEC ","V020","030,1,N,0077,1","99999,9,9,Y","009900,1,N,1","+0100,1","+0000,1","99999,9",,,,,,"10119,1,99999,9",,,,"MET045METAR LEEC 091200Z 03015KT CAVOK 10/00 Q1012;",
"08390599999","2010-03-09T13:00:00","4","37.3166666","-6.0","5.0","SEVILLA HELIPORT, SP","FM-15","LEEC ","V020","040,1,N,0041,1","99999,9,9,Y","009900,1,N,1","+0110,1","+0010,1","99999,9",,,,,,"10119,1,99999,9",,,,"MET053METAR LEEC 091300Z 04008KT 020V080 CAVOK 11/01 Q1012;",
"08390599999","2010-03-09T14:00:00","4","37.3166666","-6.0","5.0","SEVILLA HELIPORT, SP","FM-15","LEEC ","V020","040,1,N,0041,1","99999,9,9,Y","009900,1,N,1","+0120,1","+0020,1","99999,9",,,,,,"10108,1,99999,9",,,,"MET045METAR LEEC 091400Z 04008KT CAVOK 12/02 Q1011;",
"08390599999","2010-03-09T15:00:00","4","37.3166666","-6.0","5.0","SEVILLA HELIPORT, SP","FM-15","LEEC ","V020","050,1,N,0031,1","99999,9,9,Y","009900,1,N,1","+0130,1","+0020,1","99999,9",,,,,,"10119,1,99999,9",,,,"MET053METAR LEEC 091500Z 05006KT 330V110 CAVOK 13/02 Q1012;",
"08390599999","2010-03-10T07:00:00","4","37.3166666","-6.0","5.0","SEVILLA HELIPORT, SP","FM-15","LEEC ","V020","999,9,V,0005,1","99999,9,9,Y","009900,1,N,1","+0050,1","+0030,1","99999,9",,,,,,"10139,1,99999,9",,,,"MET045METAR LEEC 100700Z VRB01KT CAVOK 05/03 Q1014;",
"08390599999","2010-03-10T08:00:00","4","37.3166666","-6.0","5.0","SEVILLA HELIPORT, SP","FM-15","LEEC ","V020","999,9,V,0005,1","99999,9,9,Y","009900,1,N,1","+0060,1","+0030,1","99999,9",,,,,,"10139,1,99999,9",,,,"MET045METAR LEEC 100800Z VRB01KT CAVOK 06/03 Q1014;",
"08390599999","2010-03-10T09:00:00","4","37.3166666","-6.0","5.0","SEVILLA HELIPORT, SP","FM-15","LEEC ","V020","030,1,N,0036,1","99999,9,9,Y","009900,1,N,1","+0070,1","+0040,1","99999,9",,,,,,"10149,1,99999,9",,,,"MET045METAR LEEC 100900Z 03007KT CAVOK 07/04 Q1015;",
"08390599999","2010-03-10T10:00:00","4","37.3166666","-6.0","5.0","SEVILLA HELIPORT, SP","FM-15","LEEC ","V020","999,9,V,0010,1","99999,9,9,Y","009900,1,N,1","+0090,1","+0040,1","99999,9",,,,,,"10149,1,99999,9",,,,"MET045METAR LEEC 101000Z VRB02KT CAVOK 09/04 Q1015;",
"08390599999","2010-03-10T11:00:00","4","37.3166666","-6.0","5.0","SEVILLA HELIPORT, SP","FM-15","LEEC ","V020","060,1,N,0021,1","99999,9,9,Y","009900,1,N,1","+0110,1","+0040,1","99999,9",,,,,,"10149,1,99999,9",,,,"MET053METAR LEEC 101100Z 06004KT 030V150 CAVOK 11/04 Q1015;",
"08390599999","2010-03-10T12:00:00","4","37.3166666","-6.0","5.0","SEVILLA HELIPORT, SP","FM-15","LEEC ","V020","999,9,V,0010,1","99999,9,9,Y","009900,1,N,1","+0120,1","+0030,1","99999,9",,,,,,"10149,1,99999,9",,,,"MET045METAR LEEC 101200Z VRB02KT CAVOK 12/03 Q1015;",
"08390599999","2010-03-10T13:00:00","4","37.3166666","-6.0","5.0","SEVILLA HELIPORT, SP","FM-15","LEEC ","V020","999,9,V,0005,1","99999,9,9,Y","009900,1,N,1","+0140,1","+0020,1","99999,9",,,,,,"10139,1,99999,9",,,,"MET045METAR LEEC 101300Z VRB01KT CAVOK 14/02 Q1014;",
"08390599999","2010-03-10T14:00:00","4","37.3166666","-6.0","5.0","SEVILLA HELIPORT, SP","FM-15","LEEC ","V020","999,9,V,0010,1","99999,9,9,Y","009900,1,N,1","+0140,1","+0000,1","99999,9",,,,,,"10129,1,99999,9",,,,"MET045METAR LEEC 101400Z VRB02KT CAVOK 14/00 Q1013;",
"08390599999","2010-03-10T15:00:00","4","37.3166666","-6.0","5.0","SEVILLA HELIPORT, SP","FM-15","LEEC ","V020","999,9,V,0015,1","99999,9,9,Y","009900,1,N,1","+0150,1","+0020,1","99999,9",,,,,,"10129,1,99999,9",,,,"MET045METAR LEEC 101500Z VRB03KT CAVOK 15/02 Q1013;",
"08390599999","2010-03-11T07:00:00","4","37.3166666","-6.0","5.0","SEVILLA HELIPORT, SP","FM-15","LEEC ","V020","999,9,V,0015,1","99999,9,9,Y","009900,1,N,1","+0060,1","+0050,1","99999,9",,,,,,"10129,1,99999,9",,,,"MET045METAR LEEC 110700Z VRB03KT CAVOK 06/05 Q1013;",
"08390599999","2010-03-11T08:00:00","4","37.3166666","-6.0","5.0","SEVILLA HELIPORT, SP","FM-15","LEEC ","V020","999,9,V,0015,1","99999,9,9,Y","009900,1,N,1","+0070,1","+0060,1","99999,9",,,,,,"10129,1,99999,9",,,,"MET045METAR LEEC 110800Z VRB03KT CAVOK 07/06 Q1013;",
"08390599999","2010-03-11T09:00:00","4","37.3166666","-6.0","5.0","SEVILLA HELIPORT, SP","FM-15","LEEC ","V020","010,1,N,0021,1","99999,9,9,Y","009900,1,N,1","+0080,1","+0060,1","99999,9",,,,,,"10139,1,99999,9",,,,"MET053METAR LEEC 110900Z 01004KT 320V040 CAVOK 08/06 Q1014;",
"08390599999","2010-03-11T10:00:00","4","37.3166666","-6.0","5.0","SEVILLA HELIPORT, SP","FM-15","LEEC ","V020","030,1,N,0031,1","99999,9,9,Y","009900,1,N,1","+0100,1","+0070,1","99999,9",,,,,,"10139,1,99999,9",,,,"MET045METAR LEEC 111000Z 03006KT CAVOK 10/07 Q1014;",
"08390599999","2010-03-11T11:00:00","4","37.3166666","-6.0","5.0","SEVILLA HELIPORT, SP","FM-15","LEEC ","V020","040,1,N,0031,1","99999,9,9,Y","009900,1,N,1","+0110,1","+0060,1","99999,9",,,,,,"10129,1,99999,9",,,,"MET045METAR LEEC 111100Z 04006KT CAVOK 11/06 Q1013;",
"08390599999","2010-03-11T12:00:00","4","37.3166666","-6.0","5.0","SEVILLA HELIPORT, SP","FM-15","LEEC ","V020","040,1,N,0031,1","99999,9,9,Y","009900,1,N,1","+0130,1","+0070,1","99999,9",,,,,,"10129,1,99999,9",,,,"MET045METAR LEEC 111200Z 04006KT CAVOK 13/07 Q1013;",
"08390599999","2010-03-11T13:00:00","4","37.3166666","-6.0","5.0","SEVILLA HELIPORT, SP","FM-15","LEEC ","V020","030,1,N,0021,1","99999,9,9,Y","009900,1,N,1","+0130,1","+0060,1","99999,9",,,,,,"10119,1,99999,9",,,,"MET045METAR LEEC 111300Z 03004KT CAVOK 13/06 Q1012;",
"08390599999","2010-03-11T14:00:00","4","37.3166666","-6.0","5.0","SEVILLA HELIPORT, SP","FM-15","LEEC ","V020","040,1,N,0026,1","99999,9,9,Y","009900,1,N,1","+0150,1","+0050,1","99999,9",,,,,,"10108,1,99999,9",,,,"MET045METAR LEEC 111400Z 04005KT CAVOK 15/05 Q1011;",
"08390599999","2010-03-11T15:00:00","4","37.3166666","-6.0","5.0","SEVILLA HELIPORT, SP","FM-15","LEEC ","V020","050,1,N,0021,1","99999,9,9,Y","009900,1,N,1","+0150,1","+0050,1","99999,9",,,,,,"10108,1,99999,9",,,,"MET053METAR LEEC 111500Z 05004KT 010V080 CAVOK 15/05 Q1011;",
"08390599999","2010-03-12T07:00:00","4","37.3166666","-6.0","5.0","SEVILLA HELIPORT, SP","FM-15","LEEC ","V020","999,9,V,0005,1","99999,9,9,Y","009900,1,N,1","+0080,1","+0060,1","99999,9",,,,,,"10159,1,99999,9",,,,"MET045METAR LEEC 120700Z VRB01KT CAVOK 08/06 Q1016;",
"08390599999","2010-03-12T08:00:00","4","37.3166666","-6.0","5.0","SEVILLA HELIPORT, SP","FM-15","LEEC ","V020","030,1,N,0021,1","99999,9,9,Y","009900,1,N,1","+0090,1","+0070,1","99999,9",,,,,,"10169,1,99999,9",,,,"MET045METAR LEEC 120800Z 03004KT CAVOK 09/07 Q1017;",
"08390599999","2010-03-12T09:00:00","4","37.3166666","-6.0","5.0","SEVILLA HELIPORT, SP","FM-15","LEEC ","V020","040,1,N,0021,1","99999,9,9,Y","009900,1,N,1","+0100,1","+0060,1","99999,9",,,,,,"10180,1,99999,9",,,,"MET045METAR LEEC 120900Z 04004KT CAVOK 10/06 Q1018;",
"08390599999","2010-03-12T10:00:00","4","37.3166666","-6.0","5.0","SEVILLA HELIPORT, SP","FM-15","LEEC ","V020","999,9,V,0015,1","99999,9,9,Y","009900,1,N,1","+0110,1","+0060,1","99999,9",,,,,,"10180,1,99999,9",,,,"MET045METAR LEEC 121000Z VRB03KT CAVOK 11/06 Q1018;",
"08390599999","2010-03-12T11:00:00","4","37.3166666","-6.0","5.0","SEVILLA HELIPORT, SP","FM-15","LEEC ","V020","999,9,V,0005,1","99999,9,9,Y","009900,1,N,1","+0130,1","+0060,1","99999,9",,,,,,"10180,1,99999,9",,,,"MET045METAR LEEC 121100Z VRB01KT CAVOK 13/06 Q1018;",
"08390599999","2010-03-12T12:00:00","4","37.3166666","-6.0","5.0","SEVILLA HELIPORT, SP","FM-15","LEEC ","V020","999,9,V,0015,1","99999,9,9,Y","009900,1,N,1","+0140,1","+0060,1","99999,9",,,,,,"10180,1,99999,9",,,,"MET045METAR LEEC 121200Z VRB03KT CAVOK 14/06 Q1018;",
"08390599999","2010-03-12T13:00:00","4","37.3166666","-6.0","5.0","SEVILLA HELIPORT, SP","FM-15","LEEC ","V020","200,1,N,0026,1","22000,1,9,N","011265,1,N,1","+0150,1","+0070,1","99999,9","02,5,+01200,1,99,9",,,,"02,99,1,99,9,99,9,99999,9,99,9,99,9","10180,1,99999,9",,,,"MET059METAR LEEC 121300Z 20005KT 160V240 9999 FEW040 15/07 Q1018;",
"08390599999","2010-03-15T07:00:00","4","37.3166666","-6.0","5.0","SEVILLA HELIPORT, SP","FM-15","LEEC ","V020","360,1,N,0021,1","99999,9,9,Y","009900,1,N,1","+0070,1","+0040,1","99999,9",,,,,,"10240,1,99999,9",,,,"MET053METAR LEEC 150700Z 36004KT 310V030 CAVOK 07/04 Q1024;",
"08390599999","2010-03-15T08:00:00","4","37.3166666","-6.0","5.0","SEVILLA HELIPORT, SP","FM-15","LEEC ","V020","010,1,N,0031,1","99999,9,9,Y","009900,1,N,1","+0080,1","+0050,1","99999,9",,,,,,"10251,1,99999,9",,,,"MET045METAR LEEC 150800Z 01006KT CAVOK 08/05 Q1025;",
"08390599999","2010-03-15T09:00:00","4","37.3166666","-6.0","5.0","SEVILLA HELIPORT, SP","FM-15","LEEC ","V020","030,1,N,0057,1","99999,9,9,Y","009900,1,N,1","+0100,1","+0050,1","99999,9",,,,,,"10251,1,99999,9",,,,"MET045METAR LEEC 150900Z 03011KT CAVOK 10/05 Q1025;",
"08390599999","2010-03-15T10:00:00","4","37.3166666","-6.0","5.0","SEVILLA HELIPORT, SP","FM-15","LEEC ","V020","040,1,N,0051,1","99999,9,9,Y","009900,1,N,1","+0120,1","+0050,1","99999,9",,,,,,"10251,1,99999,9",,,,"MET045METAR LEEC 151000Z 04010KT CAVOK 12/05 Q1025;",
"08390599999","2010-03-15T11:00:00","4","37.3166666","-6.0","5.0","SEVILLA HELIPORT, SP","FM-15","LEEC ","V020","050,1,N,0062,1","99999,9,9,Y","009900,1,N,1","+0140,1","+0050,1","99999,9",,,,,,"10240,1,99999,9",,,,"MET045METAR LEEC 151100Z 05012KT CAVOK 14/05 Q1024;",
"08390599999","2010-03-15T12:00:00","4","37.3166666","-6.0","5.0","SEVILLA HELIPORT, SP","FM-15","LEEC ","V020","050,1,N,0067,1","99999,9,9,Y","009900,1,N,1","+0150,1","+0030,1","99999,9",,,,,,"10240,1,99999,9",,,,"MET045METAR LEEC 151200Z 05013KT CAVOK 15/03 Q1024;",
"08390599999","2010-03-15T13:00:00","4","37.3166666","-6.0","5.0","SEVILLA HELIPORT, SP","FM-15","LEEC ","V020","060,1,N,0067,1","99999,9,9,Y","009900,1,N,1","+0160,1","+0020,1","99999,9",,,,,,"10230,1,99999,9",,,,"MET045METAR LEEC 151300Z 06013KT CAVOK 16/02 Q1023;",
"08390599999","2010-03-15T14:00:00","4","37.3166666","-6.0","5.0","SEVILLA HELIPORT, SP","FM-15","LEEC ","V020","080,1,N,0067,1","99999,9,9,Y","009900,1,N,1","+0170,1","+0020,1","99999,9",,,,,,"10220,1,99999,9",,,,"MET045METAR LEEC 151400Z 08013KT CAVOK 17/02 Q1022;",
"08390599999","2010-03-15T15:00:00","4","37.3166666","-6.0","5.0","SEVILLA HELIPORT, SP","FM-15","LEEC ","V020","060,1,N,0057,1","99999,9,9,Y","009900,1,N,1","+0170,1","+0030,1","99999,9",,,,,,"10210,1,99999,9",,,,"MET045METAR LEEC 151500Z 06011KT CAVOK 17/03 Q1021;",
"08390599999","2010-03-16T07:00:00","4","37.3166666","-6.0","5.0","SEVILLA HELIPORT, SP","FM-15","LEEC ","V020","360,1,N,0026,1","99999,9,9,Y","009900,1,N,1","+0080,1","+0060,1","99999,9",,,,,,"10210,1,99999,9",,,,"MET053METAR LEEC 160700Z 36005KT 310V030 CAVOK 08/06 Q1021;",
"08390599999","2010-03-16T09:00:00","4","37.3166666","-6.0","5.0","SEVILLA HELIPORT, SP","FM-15","LEEC ","V020","050,1,N,0046,1","99999,9,9,Y","009900,1,N,1","+0140,1","+0030,1","99999,9",,,,,,"10210,1,99999,9",,,,"MET045METAR LEEC 160900Z 05009KT CAVOK 14/03 Q1021;",
"08390599999","2010-03-16T10:00:00","4","37.3166666","-6.0","5.0","SEVILLA HELIPORT, SP","FM-15","LEEC ","V020","060,1,N,0067,1","99999,9,9,Y","009900,1,N,1","+0160,1","+0010,1","99999,9",,,,,,"10210,1,99999,9",,,,"MET045METAR LEEC 161000Z 06013KT CAVOK 16/01 Q1021;",
"08390599999","2010-03-16T11:00:00","4","37.3166666","-6.0","5.0","SEVILLA HELIPORT, SP","FM-15","LEEC ","V020","060,1,N,0051,1","99999,9,9,Y","009900,1,N,1","+0170,1","+0030,1","99999,9",,,,,,"10210,1,99999,9",,,,"MET045METAR LEEC 161100Z 06010KT CAVOK 17/03 Q1021;",
"08390599999","2010-03-16T12:00:00","4","37.3166666","-6.0","5.0","SEVILLA HELIPORT, SP","FM-15","LEEC ","V020","080,1,N,0041,1","99999,9,9,Y","009900,1,N,1","+0180,1","+0030,1","99999,9",,,,,,"10210,1,99999,9",,,,"MET053METAR LEEC 161200Z 08008KT 040V120 CAVOK 18/03 Q1021;",
"08390599999","2010-03-16T13:00:00","4","37.3166666","-6.0","5.0","SEVILLA HELIPORT, SP","FM-15","LEEC ","V020","999,9,V,0005,1","99999,9,9,Y","009900,1,N,1","+0200,1","+0030,1","99999,9",,,,,,"10200,1,99999,9",,,,"MET045METAR LEEC 161300Z VRB01KT CAVOK 20/03 Q1020;",
"08390599999","2010-03-16T14:00:00","4","37.3166666","-6.0","5.0","SEVILLA HELIPORT, SP","FM-15","LEEC ","V020","999,9,V,0015,1","99999,9,9,Y","009900,1,N,1","+0210,1","+0040,1","99999,9",,,,,,"10200,1,99999,9",,,,"MET045METAR LEEC 161400Z VRB03KT CAVOK 21/04 Q1020;",
"08390599999","2010-03-16T15:00:00","4","37.3166666","-6.0","5.0","SEVILLA HELIPORT, SP","FM-15","LEEC ","V020","270,1,N,0021,1","99999,9,9,Y","009900,1,N,1","+0210,1","+0030,1","99999,9",,,,,,"10200,1,99999,9",,,,"MET053METAR LEEC 161500Z 27004KT 210V330 CAVOK 21/03 Q1020;",
"08390599999","2010-03-17T07:00:00","4","37.3166666","-6.0","5.0","SEVILLA HELIPORT, SP","FM-15","LEEC ","V020","020,1,N,0026,1","99999,9,9,Y","009900,1,N,1","+0100,1","+0060,1","99999,9",,,,,,"10240,1,99999,9",,,,"MET045METAR LEEC 170700Z 02005KT CAVOK 10/06 Q1024;",
"08390599999","2010-03-17T08:00:00","4","37.3166666","-6.0","5.0","SEVILLA HELIPORT, SP","FM-15","LEEC ","V020","030,1,N,0021,1","99999,9,9,Y","009900,1,N,1","+0110,1","+0070,1","99999,9",,,,,,"10240,1,99999,9",,,,"MET045METAR LEEC 170800Z 03004KT CAVOK 11/07 Q1024;",
"08390599999","2010-03-17T09:00:00","4","37.3166666","-6.0","5.0","SEVILLA HELIPORT, SP","FM-15","LEEC ","V020","030,1,N,0031,1","99999,9,9,Y","009900,1,N,1","+0130,1","+0070,1","99999,9",,,,,,"10240,1,99999,9",,,,"MET045METAR LEEC 170900Z 03006KT CAVOK 13/07 Q1024;",
"08390599999","2010-03-17T10:00:00","4","37.3166666","-6.0","5.0","SEVILLA HELIPORT, SP","FM-15","LEEC ","V020","030,1,N,0026,1","99999,9,9,Y","009900,1,N,1","+0150,1","+0080,1","99999,9",,,,,,"10251,1,99999,9",,,,"MET045METAR LEEC 171000Z 03005KT CAVOK 15/08 Q1025;",
"08390599999","2010-03-17T11:00:00","4","37.3166666","-6.0","5.0","SEVILLA HELIPORT, SP","FM-15","LEEC ","V020","020,1,N,0021,1","99999,9,9,Y","009900,1,N,1","+0170,1","+0080,1","99999,9",,,,,,"10251,1,99999,9",,,,"MET053METAR LEEC 171100Z 02004KT 340V050 CAVOK 17/08 Q1025;",
"08390599999","2010-03-17T12:00:00","4","37.3166666","-6.0","5.0","SEVILLA HELIPORT, SP","FM-15","LEEC ","V020","030,1,N,0026,1","99999,9,9,Y","009900,1,N,1","+0180,1","+0080,1","99999,9",,,,,,"10240,1,99999,9",,,,"MET045METAR LEEC 171200Z 03005KT CAVOK 18/08 Q1024;",
"08390599999","2010-03-17T13:00:00","4","37.3166666","-6.0","5.0","SEVILLA HELIPORT, SP","FM-15","LEEC ","V020","060,1,N,0021,1","99999,9,9,Y","009900,1,N,1","+0200,1","+0060,1","99999,9",,,,,,"10230,1,99999,9",,,,"MET053METAR LEEC 171300Z 06004KT 010V100 CAVOK 20/06 Q1023;",
"08390599999","2010-03-17T14:00:00","4","37.3166666","-6.0","5.0","SEVILLA HELIPORT, SP","FM-15","LEEC ","V020","170,1,N,0021,1","99999,9,9,Y","009900,1,N,1","+0210,1","+0070,1","99999,9",,,,,,"10230,1,99999,9",,,,"MET053METAR LEEC 171400Z 17004KT 110V230 CAVOK 21/07 Q1023;",
"08390599999","2010-03-17T15:00:00","4","37.3166666","-6.0","5.0","SEVILLA HELIPORT, SP","FM-15","LEEC ","V020","999,9,V,0015,1","99999,9,9,Y","009900,1,N,1","+0220,1","+0080,1","99999,9",,,,,,"10220,1,99999,9",,,,"MET045METAR LEEC 171500Z VRB03KT CAVOK 22/08 Q1022;",
"08390599999","2010-03-18T07:00:00","4","37.3166666","-6.0","5.0","SEVILLA HELIPORT, SP","FM-15","LEEC ","V020","030,1,N,0031,1","99999,9,9,Y","009900,1,N,1","+0140,1","+0100,1","99999,9",,,,,,"10230,1,99999,9",,,,"MET045METAR LEEC 180700Z 03006KT CAVOK 14/10 Q1023;",
"08390599999","2010-03-18T08:00:00","4","37.3166666","-6.0","5.0","SEVILLA HELIPORT, SP","FM-15","LEEC ","V020","020,1,N,0026,1","99999,9,9,Y","009900,1,N,1","+0140,1","+0100,1","99999,9",,,,,,"10240,1,99999,9",,,,"MET053METAR LEEC 180800Z 02005KT 340V040 CAVOK 14/10 Q1024;",
"08390599999","2010-03-18T09:00:00","4","37.3166666","-6.0","5.0","SEVILLA HELIPORT, SP","FM-15","LEEC ","V020","030,1,N,0021,1","99999,9,9,Y","009900,1,N,1","+0150,1","+0110,1","99999,9",,,,,,"10240,1,99999,9",,,,"MET045METAR LEEC 180900Z 03004KT CAVOK 15/11 Q1024;",
"08390599999","2010-03-18T10:00:00","4","37.3166666","-6.0","5.0","SEVILLA HELIPORT, SP","FM-15","LEEC ","V020","040,1,N,0015,1","99999,9,9,Y","009900,1,N,1","+0170,1","+0110,1","99999,9",,,,,,"10240,1,99999,9",,,,"MET045METAR LEEC 181000Z 04003KT CAVOK 17/11 Q1024;",
"08390599999","2010-03-18T11:00:00","4","37.3166666","-6.0","5.0","SEVILLA HELIPORT, SP","FM-15","LEEC ","V020","999,9,V,0015,1","99999,9,9,Y","009900,1,N,1","+0200,1","+0120,1","99999,9",,,,,,"10240,1,99999,9",,,,"MET045METAR LEEC 181100Z VRB03KT CAVOK 20/12 Q1024;",
"08390599999","2010-03-18T12:00:00","4","37.3166666","-6.0","5.0","SEVILLA HELIPORT, SP","FM-15","LEEC ","V020","999,9,V,0015,1","99999,9,9,Y","009900,1,N,1","+0210,1","+0110,1","99999,9",,,,,,"10240,1,99999,9",,,,"MET045METAR LEEC 181200Z VRB03KT CAVOK 21/11 Q1024;",
"08390599999","2010-03-18T13:00:00","4","37.3166666","-6.0","5.0","SEVILLA HELIPORT, SP","FM-15","LEEC ","V020","210,1,N,0031,1","99999,9,9,Y","009900,1,N,1","+0220,1","+0130,1","99999,9",,,,,,"10240,1,99999,9",,,,"MET053METAR LEEC 181300Z 21006KT 170V240 CAVOK 22/13 Q1024;",
"08390599999","2010-03-18T14:00:00","4","37.3166666","-6.0","5.0","SEVILLA HELIPORT, SP","FM-15","LEEC ","V020","210,1,N,0051,1","99999,9,9,Y","009900,1,N,1","+0220,1","+0140,1","99999,9",,,,,,"10230,1,99999,9",,,,"MET045METAR LEEC 181400Z 21010KT CAVOK 22/14 Q1023;",
"08390599999","2010-03-18T15:00:00","4","37.3166666","-6.0","5.0","SEVILLA HELIPORT, SP","FM-15","LEEC ","V020","210,1,N,0051,1","99999,9,9,Y","009900,1,N,1","+0220,1","+0140,1","99999,9",,,,,,"10230,1,99999,9",,,,"MET045METAR LEEC 181500Z 21010KT CAVOK 22/14 Q1023;",
"08390599999","2010-03-19T07:00:00","4","37.3166666","-6.0","5.0","SEVILLA HELIPORT, SP","FM-15","LEEC ","V020","999,9,V,0015,1","22000,1,9,N","008000,1,N,1","+0150,1","+0140,1","99999,9",,,,,"00,99,1,99,9,99,9,99999,9,99,9,99,9","10240,1,99999,9",,,,"MET048METAR LEEC 190700Z VRB03KT 8000 NSC 15/14 Q1024;","Q01    003SCCGA1"
"08390599999","2010-03-19T08:00:00","4","37.3166666","-6.0","5.0","SEVILLA HELIPORT, SP","FM-15","LEEC ","V020","020,1,N,0010,1","22000,1,9,N","008000,1,N,1","+0160,1","+0140,1","99999,9",,,,,"00,99,1,99,9,99,9,99999,9,99,9,99,9","10240,1,99999,9",,,,"MET048METAR LEEC 190800Z 02002KT 8000 NSC 16/14 Q1024;","Q01    003SCCGA1"
"08390599999","2010-03-19T09:00:00","4","37.3166666","-6.0","5.0","SEVILLA HELIPORT, SP","FM-15","LEEC ","V020","999,9,V,0015,1","22000,1,9,N","008000,1,N,1","+0160,1","+0140,1","99999,9",,,,,"00,99,1,99,9,99,9,99999,9,99,9,99,9","10240,1,99999,9",,,,"MET048METAR LEEC 190900Z VRB03KT 8000 NSC 16/14 Q1024;","Q01    003SCCGA1"
"08390599999","2010-03-19T10:00:00","4","37.3166666","-6.0","5.0","SEVILLA HELIPORT, SP","FM-15","LEEC ","V020","030,1,N,0021,1","22000,1,9,N","009000,1,N,1","+0170,1","+0140,1","99999,9",,,,,"00,99,1,99,9,99,9,99999,9,99,9,99,9","10240,1,99999,9",,,,"MET048METAR LEEC 191000Z 03004KT 9000 NSC 17/14 Q1024;","Q01    003SCCGA1"
"08390599999","2010-03-19T11:00:00","4","37.3166666","-6.0","5.0","SEVILLA HELIPORT, SP","FM-15","LEEC ","V020","040,1,N,0031,1","99999,9,9,Y","009900,1,N,1","+0190,1","+0140,1","99999,9",,,,,,"10240,1,99999,9",,,,"MET053METAR LEEC 191100Z 04006KT 010V070 CAVOK 19/14 Q1024;",
"08390599999","2010-03-19T12:00:00","4","37.3166666","-6.0","5.0","SEVILLA HELIPORT, SP","FM-15","LEEC ","V020","999,9,V,0015,1","99999,9,9,Y","009900,1,N,1","+0210,1","+0140,1","99999,9",,,,,,"10240,1,99999,9",,,,"MET045METAR LEEC 191200Z VRB03KT CAVOK 21/14 Q1024;",
"08390599999","2010-03-19T13:00:00","4","37.3166666","-6.0","5.0","SEVILLA HELIPORT, SP","FM-15","LEEC ","V020","999,9,V,0010,1","22000,1,9,N","009000,1,N,1","+0220,1","+0140,1","99999,9",,,,,"00,99,1,99,9,99,9,99999,9,99,9,99,9","10230,1,99999,9",,,,"MET048METAR LEEC 191300Z VRB02KT 9000 NSC 22/14 Q1023;","Q01    003SCCGA1"
"08390599999","2010-03-19T14:00:00","4","37.3166666","-6.0","5.0","SEVILLA HELIPORT, SP","FM-15","LEEC ","V020","999,9,V,0005,1","99999,9,9,Y","009900,1,N,1","+0250,1","+0140,1","99999,9",,,,,,"10210,1,99999,9",,,,"MET045METAR LEEC 191400Z VRB01KT CAVOK 25/14 Q1021;",
"08390599999","2010-03-22T07:00:00","4","37.3166666","-6.0","5.0","SEVILLA HELIPORT, SP","FM-15","LEEC ","V020","999,9,V,0015,1","99999,9,9,Y","009900,1,N,1","+0120,1","+0110,1","99999,9",,,,,,"10210,1,99999,9",,,,"MET045METAR LEEC 220700Z VRB03KT CAVOK 12/11 Q1021;",
"08390599999","2010-03-22T08:00:00","4","37.3166666","-6.0","5.0","SEVILLA HELIPORT, SP","FM-15","LEEC ","V020","040,1,N,0031,1","99999,9,9,Y","009900,1,N,1","+0130,1","+0110,1","99999,9",,,,,,"10210,1,99999,9",,,,"MET045METAR LEEC 220800Z 04006KT CAVOK 13/11 Q1021;",
"08390599999","2010-03-22T09:00:00","4","37.3166666","-6.0","5.0","SEVILLA HELIPORT, SP","FM-15","LEEC ","V020","010,1,N,0021,1","99999,9,9,Y","009900,1,N,1","+0160,1","+0120,1","99999,9",,,,,,"10220,1,99999,9",,,,"MET053METAR LEEC 220900Z 01004KT 320V040 CAVOK 16/12 Q1022;",
"08390599999","2010-03-22T10:00:00","4","37.3166666","-6.0","5.0","SEVILLA HELIPORT, SP","FM-15","LEEC ","V020","030,1,N,0026,1","99999,9,9,Y","009900,1,N,1","+0170,1","+0120,1","99999,9",,,,,,"10230,1,99999,9",,,,"MET053METAR LEEC 221000Z 03005KT 350V060 CAVOK 17/12 Q1023;",
"08390599999","2010-03-22T11:00:00","4","37.3166666","-6.0","5.0","SEVILLA HELIPORT, SP","FM-15","LEEC ","V020","030,1,N,0026,1","99999,9,9,Y","009900,1,N,1","+0190,1","+0120,1","99999,9",,,,,,"10220,1,99999,9",,,,"MET045METAR LEEC 221100Z 03005KT CAVOK 19/12 Q1022;",
"08390599999","2010-03-22T12:00:00","4","37.3166666","-6.0","5.0","SEVILLA HELIPORT, SP","FM-15","LEEC ","V020","999,9,V,0015,1","22000,1,9,N","011265,1,N,1","+0210,1","+0120,1","99999,9","02,5,+01050,1,99,9",,,,"02,99,1,99,9,99,9,99999,9,99,9,99,9","10220,1,99999,9",,,,"MET051METAR LEEC 221200Z VRB03KT 9999 FEW035 21/12 Q1022;",
"08390599999","2010-03-22T13:00:00","4","37.3166666","-6.0","5.0","SEVILLA HELIPORT, SP","FM-15","LEEC ","V020","999,9,V,0010,1","22000,1,9,N","011265,1,N,1","+0220,1","+0120,1","99999,9","02,5,+01200,1,99,9",,,,"02,99,1,99,9,99,9,99999,9,99,9,99,9","10210,1,99999,9",,,,"MET051METAR LEEC 221300Z VRB02KT 9999 FEW040 22/12 Q1021;",
"08390599999","2010-03-22T14:00:00","4","37.3166666","-6.0","5.0","SEVILLA HELIPORT, SP","FM-15","LEEC ","V020","999,9,V,0005,1","22000,1,9,N","011265,1,N,1","+0230,1","+0110,1","99999,9","02,5,+01050,1,99,9",,,,"02,99,1,99,9,99,9,99999,9,99,9,99,9","10210,1,99999,9",,,,"MET051METAR LEEC 221400Z VRB01KT 9999 FEW035 23/11 Q1021;",
"08390599999","2010-03-22T15:00:00","4","37.3166666","-6.0","5.0","SEVILLA HELIPORT, SP","FM-15","LEEC ","V020","999,9,V,0010,1","22000,1,9,N","011265,1,N,1","+0240,1","+0110,1","99999,9","02,5,+01050,1,99,9",,,,"02,99,1,99,9,99,9,99999,9,99,9,99,9","10200,1,99999,9",,,,"MET051METAR LEEC 221500Z VRB02KT 9999 FEW035 24/11 Q1020;",
"08390599999","2010-03-23T07:00:00","4","37.3166666","-6.0","5.0","SEVILLA HELIPORT, SP","FM-15","LEEC ","V020","030,1,N,0026,1","99999,9,9,Y","009900,1,N,1","+0150,1","+0120,1","99999,9",,,,,,"10149,1,99999,9",,,,"MET045METAR LEEC 230700Z 03005KT CAVOK 15/12 Q1015;",
"08390599999","2010-03-23T08:00:00","4","37.3166666","-6.0","5.0","SEVILLA HELIPORT, SP","FM-15","LEEC ","V020","999,9,V,0015,1","99999,9,9,Y","009900,1,N,1","+0150,1","+0120,1","99999,9",,,,,,"10149,1,99999,9",,,,"MET045METAR LEEC 230800Z VRB03KT CAVOK 15/12 Q1015;",
"08390599999","2010-03-23T09:00:00","4","37.3166666","-6.0","5.0","SEVILLA HELIPORT, SP","FM-15","LEEC ","V020","030,1,N,0031,1","99999,9,9,Y","009900,1,N,1","+0160,1","+0120,1","99999,9",,,,,,"10149,1,99999,9",,,,"MET045METAR LEEC 230900Z 03006KT CAVOK 16/12 Q1015;",
"08390599999","2010-03-23T10:00:00","4","37.3166666","-6.0","5.0","SEVILLA HELIPORT, SP","FM-15","LEEC ","V020","999,9,V,0015,1","99999,9,9,Y","009900,1,N,1","+0170,1","+0130,1","99999,9",,,,,,"10149,1,99999,9",,,,"MET045METAR LEEC 231000Z VRB03KT CAVOK 17/13 Q1015;",
"08390599999","2010-03-23T11:00:00","4","37.3166666","-6.0","5.0","SEVILLA HELIPORT, SP","FM-15","LEEC ","V020","999,9,V,0015,1","99999,9,9,Y","009900,1,N,1","+0190,1","+0130,1","99999,9",,,,,,"10149,1,99999,9",,,,"MET045METAR LEEC 231100Z VRB03KT CAVOK 19/13 Q1015;",
"08390599999","2010-03-23T12:00:00","4","37.3166666","-6.0","5.0","SEVILLA HELIPORT, SP","FM-15","LEEC ","V020","999,9,V,0015,1","99999,9,9,Y","009900,1,N,1","+0210,1","+0120,1","99999,9",,,,,,"10139,1,99999,9",,,,"MET045METAR LEEC 231200Z VRB03KT CAVOK 21/12 Q1014;",
"08390599999","2010-03-23T13:00:00","4","37.3166666","-6.0","5.0","SEVILLA HELIPORT, SP","FM-15","LEEC ","V020","999,9,V,0005,1","99999,9,9,Y","009900,1,N,1","+0220,1","+0110,1","99999,9",,,,,,"10139,1,99999,9",,,,"MET045METAR LEEC 231300Z VRB01KT CAVOK 22/11 Q1014;",
"08390599999","2010-03-23T14:00:00","4","37.3166666","-6.0","5.0","SEVILLA HELIPORT, SP","FM-15","LEEC ","V020","999,9,V,0010,1","99999,9,9,Y","009900,1,N,1","+0230,1","+0110,1","99999,9",,,,,,"10129,1,99999,9",,,,"MET045METAR LEEC 231400Z VRB02KT CAVOK 23/11 Q1013;",
"08390599999","2010-03-23T15:00:00","4","37.3166666","-6.0","5.0","SEVILLA HELIPORT, SP","FM-15","LEEC ","V020","999,9,V,0015,1","99999,9,9,Y","009900,1,N,1","+0230,1","+0090,1","99999,9",,,,,,"10119,1,99999,9",,,,"MET045METAR LEEC 231500Z VRB03KT CAVOK 23/09 Q1012;",
"08390599999","2010-03-24T07:00:00","4","37.3166666","-6.0","5.0","SEVILLA HELIPORT, SP","FM-15","LEEC ","V020","999,9,V,0010,1","99999,9,9,Y","009900,1,N,1","+0130,1","+0110,1","99999,9",,,,,,"10091,1,99999,9",,,,"MET045METAR LEEC 240700Z VRB02KT CAVOK 13/11 Q1009;",
"08390599999","2010-03-24T08:00:00","4","37.3166666","-6.0","5.0","SEVILLA HELIPORT, SP","FM-15","LEEC ","V020","020,1,N,0026,1","99999,9,9,Y","009900,1,N,1","+0140,1","+0110,1","99999,9",,,,,,"10102,1,99999,9",,,,"MET045METAR LEEC 240800Z 02005KT CAVOK 14/11 Q1010;",
"08390599999","2010-03-24T09:00:00","4","37.3166666","-6.0","5.0","SEVILLA HELIPORT, SP","FM-15","LEEC ","V020","999,9,V,0015,1","99999,9,9,Y","009900,1,N,1","+0150,1","+0110,1","99999,9",,,,,,"10102,1,99999,9",,,,"MET045METAR LEEC 240900Z VRB03KT CAVOK 15/11 Q1010;",
"08390599999","2010-03-24T10:00:00","4","37.3166666","-6.0","5.0","SEVILLA HELIPORT, SP","FM-15","LEEC ","V020","999,9,V,0010,1","99999,9,9,Y","009900,1,N,1","+0170,1","+0110,1","99999,9",,,,,,"10102,1,99999,9",,,,"MET045METAR LEEC 241000Z VRB02KT CAVOK 17/11 Q1010;",
"08390599999","2010-03-24T11:00:00","4","37.3166666","-6.0","5.0","SEVILLA HELIPORT, SP","FM-15","LEEC ","V020","999,9,V,0010,1","99999,9,9,Y","009900,1,N,1","+0190,1","+0120,1","99999,9",,,,,,"10102,1,99999,9",,,,"MET045METAR LEEC 241100Z VRB02KT CAVOK 19/12 Q1010;",
"08390599999","2010-03-24T12:00:00","4","37.3166666","-6.0","5.0","SEVILLA HELIPORT, SP","FM-15","LEEC ","V020","210,1,N,0021,1","99999,9,9,Y","009900,1,N,1","+0200,1","+0130,1","99999,9",,,,,,"10102,1,99999,9",,,,"MET053METAR LEEC 241200Z 21004KT 150V240 CAVOK 20/13 Q1010;",
"08390599999","2010-03-24T13:00:00","4","37.3166666","-6.0","5.0","SEVILLA HELIPORT, SP","FM-15","LEEC ","V020","160,1,N,0026,1","22000,1,9,N","011265,1,N,1","+0200,1","+0130,1","99999,9","02,5,+01350,1,99,9",,,,"02,99,1,99,9,99,9,99999,9,99,9,99,9","10091,1,99999,9",,,,"MET059METAR LEEC 241300Z 16005KT 110V190 9999 FEW045 20/13 Q1009;",
"08390599999","2010-03-24T14:00:00","4","37.3166666","-6.0","5.0","SEVILLA HELIPORT, SP","FM-15","LEEC ","V020","170,1,N,0041,1","22000,1,9,N","011265,1,N,1","+0210,1","+0140,1","99999,9","04,5,+01050,1,99,9",,,,"04,99,1,99,9,99,9,99999,9,99,9,99,9","10081,1,99999,9",,,,"MET059METAR LEEC 241400Z 17008KT 140V210 9999 SCT035 21/14 Q1008;",
"08390599999","2010-03-24T15:00:00","4","37.3166666","-6.0","5.0","SEVILLA HELIPORT, SP","FM-15","LEEC ","V020","200,1,N,0062,1","01020,1,C,N","011265,1,N,1","+0210,1","+0140,1","99999,9","02,5,+00900,1,99,9","07,5,+01020,1,99,9",,,"07,99,1,99,9,99,9,99999,9,99,9,99,9","10081,1,99999,9",,,,"MET058METAR LEEC 241500Z 20012KT 9999 FEW030 BKN034 21/14 Q1008;",
"08390599999","2010-03-25T07:00:00","4","37.3166666","-6.0","5.0","SEVILLA HELIPORT, SP","FM-15","LEEC ","V020","180,1,N,0015,1","22000,1,9,N","011265,1,N,1","+0140,1","+0120,1","99999,9","02,5,+00600,1,02,1",,,,"02,99,1,99,9,99,9,99999,9,99,9,99,9","10119,1,99999,9",,,,"MET054METAR LEEC 250700Z 18003KT 9999 FEW020TCU 14/12 Q1012;",
"08390599999","2010-03-25T08:00:00","4","37.3166666","-6.0","5.0","SEVILLA HELIPORT, SP","FM-15","LEEC ","V020","200,1,N,0021,1","22000,1,9,N","011265,1,N,1","+0150,1","+0130,1","99999,9","02,5,+00600,1,02,1",,,,"02,99,1,99,9,99,9,99999,9,99,9,99,9","10129,1,99999,9",,,,"MET054METAR LEEC 250800Z 20004KT 9999 FEW020TCU 15/13 Q1013;",
"08390599999","2010-03-25T09:00:00","4","37.3166666","-6.0","5.0","SEVILLA HELIPORT, SP","FM-15","LEEC ","V020","210,1,N,0026,1","22000,1,9,N","011265,1,N,1","+0160,1","+0130,1","99999,9","02,5,+00600,1,99,9",,,,"02,99,1,99,9,99,9,99999,9,99,9,99,9","10129,1,99999,9",,,,"MET051METAR LEEC 250900Z 21005KT 9999 FEW020 16/13 Q1013;",
"08390599999","2010-03-25T10:00:00","4","37.3166666","-6.0","5.0","SEVILLA HELIPORT, SP","FM-15","LEEC ","V020","220,1,N,0057,1","22000,1,9,N","011265,1,N,1","+0170,1","+0120,1","99999,9","02,5,+00360,1,99,9",,,,"02,99,1,99,9,99,9,99999,9,99,9,99,9","10129,1,99999,9",,,,"MET051METAR LEEC 251000Z 22011KT 9999 FEW012 17/12 Q1013;",
"08390599999","2010-03-25T11:00:00","4","37.3166666","-6.0","5.0","SEVILLA HELIPORT, SP","FM-15","LEEC ","V020","210,1,N,0072,1","22000,1,9,N","011265,1,N,1","+0170,1","+0120,1","99999,9","04,5,+00870,1,99,9",,,,"04,99,1,99,9,99,9,99999,9,99,9,99,9","10129,1,99999,9",,,,"MET051METAR LEEC 251100Z 21014KT 9999 SCT029 17/12 Q1013;",
"08390599999","2010-03-25T12:00:00","4","37.3166666","-6.0","5.0","SEVILLA HELIPORT, SP","FM-15","LEEC ","V020","210,1,N,0077,1","99999,9,C,N","011265,1,N,1","+0180,1","+0120,1","99999,9","04,5,+00900,1,99,9","04,5,+01260,1,99,9",,,"04,99,1,99,9,99,9,99999,9,99,9,99,9","10129,1,99999,9",,,,"MET058METAR LEEC 251200Z 21015KT 9999 SCT030 SCT042 18/12 Q1013;","P01 012603SCOCIG"
"08390599999","2010-03-25T13:00:00","4","37.3166666","-6.0","5.0","SEVILLA HELIPORT, SP","FM-15","LEEC ","V020","210,1,N,0077,1","00780,1,C,N","011265,1,N,1","+0180,1","+0130,1","99999,9","07,5,+00780,1,99,9",,,,"07,99,1,99,9,99,9,99999,9,99,9,99,9","10129,1,99999,9",,,,"MET051METAR LEEC 251300Z 21015KT 9999 BKN026 18/13 Q1013;",
"08390599999","2010-03-25T14:00:00","4","37.3166666","-6.0","5.0","SEVILLA HELIPORT, SP","FM-15","LEEC ","V020","220,1,N,0093,1","00810,1,C,N","011265,1,N,1","+0180,1","+0130,1","99999,9","07,5,+00810,1,99,9",,,,"07,99,1,99,9,99,9,99999,9,99,9,99,9","10119,1,99999,9",,,,"MET051METAR LEEC 251400Z 22018KT 9999 BKN027 18/13 Q1012;",
"08390599999","2010-03-25T15:00:00","4","37.3166666","-6.0","5.0","SEVILLA HELIPORT, SP","FM-15","LEEC ","V020","210,1,N,0077,1","00900,1,C,N","011265,1,N,1","+0180,1","+0130,1","99999,9","07,5,+00900,1,99,9",,,,"07,99,1,99,9,99,9,99999,9,99,9,99,9","10119,1,99999,9","53,1",,,"MET054METAR LEEC 251500Z 21015KT 9999 DZ BKN030 18/13 Q1012;",
"08390599999","2010-03-26T07:00:00","4","37.3166666","-6.0","5.0","SEVILLA HELIPORT, SP","FM-15","LEEC ","V020","999,9,C,0000,1","99999,9,9,Y","009900,1,N,1","+0110,1","+0100,1","99999,9",,,,,,"10220,1,99999,9",,,,"MET045METAR LEEC 260700Z 00000KT CAVOK 11/10 Q1022;",
"08390599999","2010-03-26T08:00:00","4","37.3166666","-6.0","5.0","SEVILLA HELIPORT, SP","FM-15","LEEC ","V020","999,9,V,0010,1","99999,9,9,Y","009900,1,N,1","+0110,1","+0100,1","99999,9",,,,,,"10230,1,99999,9",,,,"MET045METAR LEEC 260800Z VRB02KT CAVOK 11/10 Q1023;",
"08390599999","2010-03-26T09:00:00","4","37.3166666","-6.0","5.0","SEVILLA HELIPORT, SP","FM-15","LEEC ","V020","999,9,V,0005,1","22000,1,9,N","011265,1,N,1","+0130,1","+0110,1","99999,9","02,5,+01050,1,99,9",,,,"02,99,1,99,9,99,9,99999,9,99,9,99,9","10230,1,99999,9",,,,"MET051METAR LEEC 260900Z VRB01KT 9999 FEW035 13/11 Q1023;",
"08390599999","2010-03-26T10:00:00","4","37.3166666","-6.0","5.0","SEVILLA HELIPORT, SP","FM-15","LEEC ","V020","999,9,V,0010,1","22000,1,9,N","011265,1,N,1","+0160,1","+0090,1","99999,9","02,5,+00600,1,99,9",,,,"02,99,1,99,9,99,9,99999,9,99,9,99,9","10240,1,99999,9",,,,"MET051METAR LEEC 261000Z VRB02KT 9999 FEW020 16/09 Q1024;",
"08390599999","2010-03-26T12:00:00","4","37.3166666","-6.0","5.0","SEVILLA HELIPORT, SP","FM-15","LEEC ","V020","210,1,N,0021,1","22000,1,9,N","011265,1,N,1","+0170,1","+0080,1","99999,9","04,5,+01320,1,99,9",,,,"04,99,1,99,9,99,9,99999,9,99,9,99,9","10240,1,99999,9",,,,"MET059METAR LEEC 261200Z 21004KT 180V240 9999 SCT044 17/08 Q1024;",
"08390599999","2010-03-26T13:00:00","4","37.3166666","-6.0","5.0","SEVILLA HELIPORT, SP","FM-15","LEEC ","V020","240,1,N,0021,1","01230,1,C,N","011265,1,N,1","+0180,1","+0090,1","99999,9","07,5,+01230,1,99,9",,,,"07,99,1,99,9,99,9,99999,9,99,9,99,9","10230,1,99999,9",,,,"MET051METAR LEEC 261300Z 24004KT 9999 BKN041 18/09 Q1023;",
"08390599999","2010-03-29T06:00:00","4","37.3166666","-6.0","5.0","SEVILLA HELIPORT, SP","FM-15","LEEC ","V020","220,1,N,0015,1","22000,1,9,N","011265,1,N,1","+0120,1","+0110,1","99999,9","02,5,+01260,1,99,9",,,,"02,99,1,99,9,99,9,99999,9,99,9,99,9","10149,1,99999,9",,,,"MET051METAR LEEC 290600Z 22003KT 9999 FEW042 12/11 Q1015;",
"08390599999","2010-03-29T07:00:00","4","37.3166666","-6.0","5.0","SEVILLA HELIPORT, SP","FM-15","LEEC ","V020","210,1,N,0015,1","22000,1,9,N","011265,1,N,1","+0120,1","+0110,1","99999,9","02,5,+01260,1,99,9",,,,"02,99,1,99,9,99,9,99999,9,99,9,99,9","10149,1,99999,9",,,,"MET051METAR LEEC 290700Z 21003KT 9999 FEW042 12/11 Q1015;",
"08390599999","2010-03-29T08:00:00","4","37.3166666","-6.0","5.0","SEVILLA HELIPORT, SP","FM-15","LEEC ","V020","220,1,N,0015,1","22000,1,9,N","011265,1,N,1","+0130,1","+0120,1","99999,9","04,5,+01380,1,99,9",,,,"04,99,1,99,9,99,9,99999,9,99,9,99,9","10149,1,99999,9",,,,"MET051METAR LEEC 290800Z 22003KT 9999 SCT046 13/12 Q1015;",
"08390599999","2010-03-29T09:00:00","4","37.3166666","-6.0","5.0","SEVILLA HELIPORT, SP","FM-15","LEEC ","V020","999,9,V,0015,1","01380,1,C,N","011265,1,N,1","+0150,1","+0110,1","99999,9","07,5,+01380,1,99,9",,,,"07,99,1,99,9,99,9,99999,9,99,9,99,9","10149,1,99999,9",,,,"MET051METAR LEEC 290900Z VRB03KT 9999 BKN046 15/11 Q1015;",
"08390599999","2010-03-29T10:00:00","4","37.3166666","-6.0","5.0","SEVILLA HELIPORT, SP","FM-15","LEEC ","V020","200,1,N,0036,1","01380,1,C,N","011265,1,N,1","+0160,1","+0110,1","99999,9","02,5,+00900,1,99,9","07,5,+01380,1,99,9",,,"07,99,1,99,9,99,9,99999,9,99,9,99,9","10149,1,99999,9",,,,"MET058METAR LEEC 291000Z 20007KT 9999 FEW030 BKN046 16/11 Q1015;",
"08390599999","2010-03-29T11:00:00","4","37.3166666","-6.0","5.0","SEVILLA HELIPORT, SP","FM-15","LEEC ","V020","200,1,N,0057,1","01110,1,C,N","011265,1,N,1","+0170,1","+0110,1","99999,9","04,5,+00930,1,99,9","07,5,+01110,1,99,9",,,"07,99,1,99,9,99,9,99999,9,99,9,99,9","10149,1,99999,9",,,,"MET058METAR LEEC 291100Z 20011KT 9999 SCT031 BKN037 17/11 Q1015;",
"08390599999","2010-03-29T12:00:00","4","37.3166666","-6.0","5.0","SEVILLA HELIPORT, SP","FM-15","LEEC ","V020","210,1,N,0067,1","00990,1,C,N","011265,1,N,1","+0160,1","+0120,1","99999,9","04,5,+00540,1,99,9","07,5,+00990,1,99,9",,,"07,99,1,99,9,99,9,99999,9,99,9,99,9","10149,1,99999,9",,,,"MET058METAR LEEC 291200Z 21013KT 9999 SCT018 BKN033 16/12 Q1015;",
"08390599999","2010-03-30T06:00:00","4","37.3166666","-6.0","5.0","SEVILLA HELIPORT, SP","FM-15","LEEC ","V020","240,1,N,0015,1","22000,1,9,N","011265,1,N,1","+0100,1","+0090,1","99999,9","02,5,+00900,1,99,9",,,,"02,99,1,99,9,99,9,99999,9,99,9,99,9","10190,1,99999,9",,,,"MET051METAR LEEC 300600Z 24003KT 9999 FEW030 10/09 Q1019;",
"08390599999","2010-03-30T07:00:00","4","37.3166666","-6.0","5.0","SEVILLA HELIPORT, SP","FM-15","LEEC ","V020","260,1,N,0015,1","99999,9,9,Y","009900,1,N,1","+0110,1","+0090,1","99999,9",,,,,,"10200,1,99999,9",,,,"MET045METAR LEEC 300700Z 26003KT CAVOK 11/09 Q1020;",
"08390599999","2010-03-30T08:00:00","4","37.3166666","-6.0","5.0","SEVILLA HELIPORT, SP","FM-15","LEEC ","V020","270,1,N,0026,1","99999,9,9,Y","009900,1,N,1","+0120,1","+0090,1","99999,9",,,,,,"10200,1,99999,9",,,,"MET045METAR LEEC 300800Z 27005KT CAVOK 12/09 Q1020;",
"08390599999","2010-03-30T09:00:00","4","37.3166666","-6.0","5.0","SEVILLA HELIPORT, SP","FM-15","LEEC ","V020","280,1,N,0026,1","99999,9,9,Y","009900,1,N,1","+0140,1","+0080,1","99999,9",,,,,,"10210,1,99999,9",,,,"MET053METAR LEEC 300900Z 28005KT 250V320 CAVOK 14/08 Q1021;",
"08390599999","2010-03-30T10:00:00","4","37.3166666","-6.0","5.0","SEVILLA HELIPORT, SP","FM-15","LEEC ","V020","300,1,N,0036,1","22000,1,9,N","011265,1,N,1","+0160,1","+0060,1","99999,9","02,5,+01050,1,99,9",,,,"02,99,1,99,9,99,9,99999,9,99,9,99,9","10210,1,99999,9",,,,"MET059METAR LEEC 301000Z 30007KT 270V350 9999 FEW035 16/06 Q1021;",
"08390599999","2010-03-30T11:00:00","4","37.3166666","-6.0","5.0","SEVILLA HELIPORT, SP","FM-15","LEEC ","V020","290,1,N,0031,1","22000,1,9,N","011265,1,N,1","+0160,1","+0070,1","99999,9","04,5,+01200,1,99,9",,,,"04,99,1,99,9,99,9,99999,9,99,9,99,9","10210,1,99999,9",,,,"MET059METAR LEEC 301100Z 29006KT 250V350 9999 SCT040 16/07 Q1021;",
"08390599999","2010-03-30T12:00:00","4","37.3166666","-6.0","5.0","SEVILLA HELIPORT, SP","FM-15","LEEC ","V020","270,1,N,0036,1","22000,1,9,N","011265,1,N,1","+0170,1","+0060,1","99999,9","04,5,+01050,1,99,9",,,,"04,99,1,99,9,99,9,99999,9,99,9,99,9","10210,1,99999,9",,,,"MET059METAR LEEC 301200Z 27007KT 240V310 9999 SCT035 17/06 Q1021;",
"08390599999","2010-03-31T06:00:00","4","37.3166666","-6.0","5.0","SEVILLA HELIPORT, SP","FM-15","LEEC ","V020","999,9,V,0010,1","99999,9,9,Y","009900,1,N,1","+0090,1","+0050,1","99999,9",,,,,,"10200,1,99999,9",,,,"MET045METAR LEEC 310600Z VRB02KT CAVOK 09/05 Q1020;",
"08390599999","2010-03-31T07:00:00","4","37.3166666","-6.0","5.0","SEVILLA HELIPORT, SP","FM-15","LEEC ","V020","999,9,V,0005,1","99999,9,9,Y","009900,1,N,1","+0100,1","+0060,1","99999,9",,,,,,"10210,1,99999,9",,,,"MET045METAR LEEC 310700Z VRB01KT CAVOK 10/06 Q1021;",
"08390599999","2010-03-31T08:00:00","4","37.3166666","-6.0","5.0","SEVILLA HELIPORT, SP","FM-15","LEEC ","V020","999,9,V,0015,1","99999,9,9,Y","009900,1,N,1","+0110,1","+0060,1","99999,9",,,,,,"10210,1,99999,9",,,,"MET045METAR LEEC 310800Z VRB03KT CAVOK 11/06 Q1021;",
"08390599999","2010-03-31T09:00:00","4","37.3166666","-6.0","5.0","SEVILLA HELIPORT, SP","FM-15","LEEC ","V020","020,1,N,0021,1","99999,9,9,Y","009900,1,N,1","+0130,1","+0060,1","99999,9",,,,,,"10210,1,99999,9",,,,"MET053METAR LEEC 310900Z 02004KT 310V050 CAVOK 13/06 Q1021;",
"08390599999","2010-03-31T10:00:00","4","37.3166666","-6.0","5.0","SEVILLA HELIPORT, SP","FM-15","LEEC ","V020","999,9,V,0015,1","22000,1,9,N","011265,1,N,1","+0140,1","+0050,1","99999,9","02,5,+01500,1,99,9",,,,"02,99,1,99,9,99,9,99999,9,99,9,99,9","10220,1,99999,9",,,,"MET051METAR LEEC 311000Z VRB03KT 9999 FEW050 14/05 Q1022;",
"08390599999","2010-03-31T11:00:00","4","37.3166666","-6.0","5.0","SEVILLA HELIPORT, SP","FM-15","LEEC ","V020","310,1,N,0021,1","22000,1,9,N","011265,1,N,1","+0150,1","+0060,1","99999,9","02,5,+01350,1,99,9",,,,"02,99,1,99,9,99,9,99999,9,99,9,99,9","10210,1,99999,9",,,,"MET051METAR LEEC 311100Z 31004KT 9999 FEW045 15/06 Q1021;",
"08390599999","2010-03-31T12:00:00","4","37.3166666","-6.0","5.0","SEVILLA HELIPORT, SP","FM-15","LEEC ","V020","350,1,N,0021,1","22000,1,9,N","011265,1,N,1","+0160,1","+0050,1","99999,9","04,5,+01200,1,99,9",,,,"04,99,1,99,9,99,9,99999,9,99,9,99,9","10200,1,99999,9",,,,"MET051METAR LEEC 311200Z 35004KT 9999 SCT040 16/05 Q1020;",
"08390599999","2010-04-05T06:00:00","4","37.3166666","-6.0","5.0","SEVILLA HELIPORT, SP","FM-15","LEEC ","V020","040,1,N,0072,1","99999,9,9,Y","009900,1,N,1","+0140,1","+0040,1","99999,9",,,,,,"10190,1,99999,9",,,,"MET045METAR LEEC 050600Z 04014KT CAVOK 14/04 Q1019;",
"08390599999","2010-04-05T07:00:00","4","37.3166666","-6.0","5.0","SEVILLA HELIPORT, SP","FM-15","LEEC ","V020","040,1,N,0072,1","99999,9,9,Y","009900,1,N,1","+0130,1","+0050,1","99999,9",,,,,,"10190,1,99999,9",,,,"MET045METAR LEEC 050700Z 04014KT CAVOK 13/05 Q1019;",
"08390599999","2010-04-05T08:00:00","4","37.3166666","-6.0","5.0","SEVILLA HELIPORT, SP","FM-15","LEEC ","V020","030,1,N,0077,1","99999,9,9,Y","009900,1,N,1","+0140,1","+0060,1","99999,9",,,,,,"10190,1,99999,9",,,,"MET045METAR LEEC 050800Z 03015KT CAVOK 14/06 Q1019;",
"08390599999","2010-04-05T09:00:00","4","37.3166666","-6.0","5.0","SEVILLA HELIPORT, SP","FM-15","LEEC ","V020","050,1,N,0093,1","99999,9,9,Y","009900,1,N,1","+0170,1","+0050,1","99999,9",,,,,,"10180,1,99999,9",,,,"MET045METAR LEEC 050900Z 05018KT CAVOK 17/05 Q1018;",
"08390599999","2010-04-05T10:00:00","4","37.3166666","-6.0","5.0","SEVILLA HELIPORT, SP","FM-15","LEEC ","V020","050,1,N,0093,1","99999,9,9,Y","009900,1,N,1","+0180,1","+0050,1","99999,9",,,,,,"10180,1,99999,9",,,,"MET045METAR LEEC 051000Z 05018KT CAVOK 18/05 Q1018;",
"08390599999","2010-04-05T10:34:00","4","37.3166666","-6.0","5.0","SEVILLA HELIPORT, SP","FM-16","LEEC ","V020","050,1,N,0093,1","99999,9,9,Y","009900,1,N,1","+0180,1","+0040,1","99999,9",,,,,,"10169,1,99999,9",,,"0154,1","MET048SPECI LEEC 051034Z 05018G30KT CAVOK 18/04 Q1017;",
"08390599999","2010-04-05T11:00:00","4","37.3166666","-6.0","5.0","SEVILLA HELIPORT, SP","FM-15","LEEC ","V020","050,1,N,0087,1","99999,9,9,Y","009900,1,N,1","+0190,1","+0040,1","99999,9",,,,,,"10169,1,99999,9",,,,"MET045METAR LEEC 051100Z 05017KT CAVOK 19/04 Q1017;",
"08390599999","2010-04-05T12:00:00","4","37.3166666","-6.0","5.0","SEVILLA HELIPORT, SP","FM-15","LEEC ","V020","050,1,N,0082,1","99999,9,9,Y","009900,1,N,1","+0190,1","+0040,1","99999,9",,,,,,"10169,1,99999,9",,,"0134,1","MET048METAR LEEC 051200Z 05016G26KT CAVOK 19/04 Q1017;",
"08390599999","2010-04-05T13:00:00","4","37.3166666","-6.0","5.0","SEVILLA HELIPORT, SP","FM-15","LEEC ","V020","050,1,N,0087,1","99999,9,9,Y","009900,1,N,1","+0210,1","+0030,1","99999,9",,,,,,"10159,1,99999,9",,,,"MET045METAR LEEC 051300Z 05017KT CAVOK 21/03 Q1016;",
"08390599999","2010-04-05T14:00:00","4","37.3166666","-6.0","5.0","SEVILLA HELIPORT, SP","FM-15","LEEC ","V020","060,1,N,0087,1","99999,9,9,Y","009900,1,N,1","+0210,1","+0020,1","99999,9",,,,,,"10159,1,99999,9",,,,"MET045METAR LEEC 051400Z 06017KT CAVOK 21/02 Q1016;",
"08390599999","2010-04-06T06:00:00","4","37.3166666","-6.0","5.0","SEVILLA HELIPORT, SP","FM-15","LEEC ","V020","999,9,C,0000,1","99999,9,9,Y","009900,1,N,1","+0100,1","+0070,1","99999,9",,,,,,"10159,1,99999,9",,,,"MET045METAR LEEC 060600Z 00000KT CAVOK 10/07 Q1016;",
"08390599999","2010-04-06T07:00:00","4","37.3166666","-6.0","5.0","SEVILLA HELIPORT, SP","FM-15","LEEC ","V020","060,1,N,0015,1","99999,9,9,Y","009900,1,N,1","+0110,1","+0080,1","99999,9",,,,,,"10159,1,99999,9",,,,"MET045METAR LEEC 060700Z 06003KT CAVOK 11/08 Q1016;",
"08390599999","2010-04-06T08:00:00","4","37.3166666","-6.0","5.0","SEVILLA HELIPORT, SP","FM-15","LEEC ","V020","050,1,N,0021,1","99999,9,9,Y","009900,1,N,1","+0120,1","+0070,1","99999,9",,,,,,"10169,1,99999,9",,,,"MET045METAR LEEC 060800Z 05004KT CAVOK 12/07 Q1017;",
"08390599999","2010-04-06T09:00:00","4","37.3166666","-6.0","5.0","SEVILLA HELIPORT, SP","FM-15","LEEC ","V020","999,9,V,0015,1","99999,9,9,Y","009900,1,N,1","+0140,1","+0080,1","99999,9",,,,,,"10169,1,99999,9",,,,"MET045METAR LEEC 060900Z VRB03KT CAVOK 14/08 Q1017;",
"08390599999","2010-04-06T10:00:00","4","37.3166666","-6.0","5.0","SEVILLA HELIPORT, SP","FM-15","LEEC ","V020","999,9,V,0010,1","99999,9,9,Y","009900,1,N,1","+0170,1","+0090,1","99999,9",,,,,,"10169,1,99999,9",,,,"MET045METAR LEEC 061000Z VRB02KT CAVOK 17/09 Q1017;",
"08390599999","2010-04-06T11:00:00","4","37.3166666","-6.0","5.0","SEVILLA HELIPORT, SP","FM-15","LEEC ","V020","999,9,V,0005,1","99999,9,9,Y","009900,1,N,1","+0190,1","+0080,1","99999,9",,,,,,"10159,1,99999,9",,,,"MET045METAR LEEC 061100Z VRB01KT CAVOK 19/08 Q1016;",
"08390599999","2010-04-06T12:00:00","4","37.3166666","-6.0","5.0","SEVILLA HELIPORT, SP","FM-15","LEEC ","V020","999,9,V,0010,1","99999,9,9,Y","009900,1,N,1","+0200,1","+0100,1","99999,9",,,,,,"10159,1,99999,9",,,,"MET045METAR LEEC 061200Z VRB02KT CAVOK 20/10 Q1016;",
"08390599999","2010-04-06T13:00:00","4","37.3166666","-6.0","5.0","SEVILLA HELIPORT, SP","FM-15","LEEC ","V020","999,9,V,0010,1","99999,9,9,Y","009900,1,N,1","+0200,1","+0100,1","99999,9",,,,,,"10159,1,99999,9",,,,"MET045METAR LEEC 061300Z VRB02KT CAVOK 20/10 Q1016;",
"08390599999","2010-04-06T14:00:00","4","37.3166666","-6.0","5.0","SEVILLA HELIPORT, SP","FM-15","LEEC ","V020","270,1,N,0021,1","99999,9,9,Y","009900,1,N,1","+0220,1","+0100,1","99999,9",,,,,,"10149,1,99999,9",,,,"MET045METAR LEEC 061400Z 27004KT CAVOK 22/10 Q1015;",
"08390599999","2010-04-07T06:00:00","4","37.3166666","-6.0","5.0","SEVILLA HELIPORT, SP","FM-15","LEEC ","V020","999,9,C,0000,1","22000,1,9,N","007000,1,N,1","+0120,1","+0110,1","99999,9",,,,,"00,99,1,99,9,99,9,99999,9,99,9,99,9","10169,1,99999,9",,,,"MET048METAR LEEC 070600Z 00000KT 7000 NSC 12/11 Q1017;","Q01    003SCCGA1"
"08390599999","2010-04-07T07:00:00","4","37.3166666","-6.0","5.0","SEVILLA HELIPORT, SP","FM-15","LEEC ","V020","999,9,C,0000,1","22000,1,9,N","006000,1,N,1","+0130,1","+0120,1","99999,9",,,,,"00,99,1,99,9,99,9,99999,9,99,9,99,9","10180,1,99999,9",,,,"MET048METAR LEEC 070700Z 00000KT 6000 NSC 13/12 Q1018;","Q01    003SCCGA1"
"08390599999","2010-04-07T08:00:00","4","37.3166666","-6.0","5.0","SEVILLA HELIPORT, SP","FM-15","LEEC ","V020","999,9,V,0005,1","99999,9,9,Y","009900,1,N,1","+0150,1","+0120,1","99999,9",,,,,,"10180,1,99999,9",,,,"MET045METAR LEEC 070800Z VRB01KT CAVOK 15/12 Q1018;",
"08390599999","2010-04-07T09:00:00","4","37.3166666","-6.0","5.0","SEVILLA HELIPORT, SP","FM-15","LEEC ","V020","999,9,V,0015,1","99999,9,9,Y","009900,1,N,1","+0180,1","+0100,1","99999,9",,,,,,"10180,1,99999,9",,,,"MET045METAR LEEC 070900Z VRB03KT CAVOK 18/10 Q1018;",
"08390599999","2010-04-07T10:00:00","4","37.3166666","-6.0","5.0","SEVILLA HELIPORT, SP","FM-15","LEEC ","V020","030,1,N,0021,1","99999,9,9,Y","009900,1,N,1","+0190,1","+0070,1","99999,9",,,,,,"10180,1,99999,9",,,,"MET053METAR LEEC 071000Z 03004KT 330V070 CAVOK 19/07 Q1018;",
"08390599999","2010-04-07T11:00:00","4","37.3166666","-6.0","5.0","SEVILLA HELIPORT, SP","FM-15","LEEC ","V020","010,1,N,0031,1","99999,9,9,Y","009900,1,N,1","+0210,1","+0070,1","99999,9",,,,,,"10180,1,99999,9",,,,"MET045METAR LEEC 071100Z 01006KT CAVOK 21/07 Q1018;",
"08390599999","2010-04-07T12:00:00","4","37.3166666","-6.0","5.0","SEVILLA HELIPORT, SP","FM-15","LEEC ","V020","020,1,N,0036,1","99999,9,9,Y","009900,1,N,1","+0210,1","+0070,1","99999,9",,,,,,"10169,1,99999,9",,,,"MET045METAR LEEC 071200Z 02007KT CAVOK 21/07 Q1017;",
"08390599999","2010-04-07T13:00:00","4","37.3166666","-6.0","5.0","SEVILLA HELIPORT, SP","FM-15","LEEC ","V020","040,1,N,0031,1","99999,9,9,Y","009900,1,N,1","+0220,1","+0070,1","99999,9",,,,,,"10169,1,99999,9",,,,"MET045METAR LEEC 071300Z 04006KT CAVOK 22/07 Q1017;",
"08390599999","2010-04-07T14:00:00","4","37.3166666","-6.0","5.0","SEVILLA HELIPORT, SP","FM-15","LEEC ","V020","999,9,V,0010,1","99999,9,9,Y","009900,1,N,1","+0240,1","+0070,1","99999,9",,,,,,"10159,1,99999,9",,,,"MET045METAR LEEC 071400Z VRB02KT CAVOK 24/07 Q1016;",
"08390599999","2010-04-08T06:00:00","4","37.3166666","-6.0","5.0","SEVILLA HELIPORT, SP","FM-15","LEEC ","V020","030,1,N,0051,1","99999,9,9,Y","009900,1,N,1","+0150,1","+0060,1","99999,9",,,,,,"10190,1,99999,9",,,,"MET045METAR LEEC 080600Z 03010KT CAVOK 15/06 Q1019;",
"08390599999","2010-04-08T07:00:00","4","37.3166666","-6.0","5.0","SEVILLA HELIPORT, SP","FM-15","LEEC ","V020","030,1,N,0051,1","99999,9,9,Y","009900,1,N,1","+0150,1","+0070,1","99999,9",,,,,,"10190,1,99999,9",,,,"MET045METAR LEEC 080700Z 03010KT CAVOK 15/07 Q1019;",
"08390599999","2010-04-08T08:00:00","4","37.3166666","-6.0","5.0","SEVILLA HELIPORT, SP","FM-15","LEEC ","V020","030,1,N,0051,1","99999,9,9,Y","009900,1,N,1","+0160,1","+0090,1","99999,9",,,,,,"10200,1,99999,9",,,,"MET045METAR LEEC 080800Z 03010KT CAVOK 16/09 Q1020;",
"08390599999","2010-04-08T09:00:00","4","37.3166666","-6.0","5.0","SEVILLA HELIPORT, SP","FM-15","LEEC ","V020","040,1,N,0062,1","99999,9,9,Y","009900,1,N,1","+0180,1","+0110,1","99999,9",,,,,,"10200,1,99999,9",,,,"MET045METAR LEEC 080900Z 04012KT CAVOK 18/11 Q1020;",
"08390599999","2010-04-08T10:00:00","4","37.3166666","-6.0","5.0","SEVILLA HELIPORT, SP","FM-15","LEEC ","V020","050,1,N,0057,1","99999,9,9,Y","009900,1,N,1","+0200,1","+0120,1","99999,9",,,,,,"10200,1,99999,9",,,,"MET045METAR LEEC 081000Z 05011KT CAVOK 20/12 Q1020;",
"08390599999","2010-04-08T11:00:00","4","37.3166666","-6.0","5.0","SEVILLA HELIPORT, SP","FM-15","LEEC ","V020","060,1,N,0051,1","99999,9,9,Y","009900,1,N,1","+0210,1","+0110,1","99999,9",,,,,,"10200,1,99999,9",,,,"MET045METAR LEEC 081100Z 06010KT CAVOK 21/11 Q1020;",
"08390599999","2010-04-08T12:00:00","4","37.3166666","-6.0","5.0","SEVILLA HELIPORT, SP","FM-15","LEEC ","V020","060,1,N,0067,1","99999,9,9,Y","009900,1,N,1","+0220,1","+0110,1","99999,9",,,,,,"10190,1,99999,9",,,,"MET053METAR LEEC 081200Z 06013KT 030V090 CAVOK 22/11 Q1019;",
"08390599999","2010-04-08T13:00:00","4","37.3166666","-6.0","5.0","SEVILLA HELIPORT, SP","FM-15","LEEC ","V020","060,1,N,0082,1","99999,9,9,Y","009900,1,N,1","+0220,1","+0100,1","99999,9",,,,,,"10190,1,99999,9",,,,"MET045METAR LEEC 081300Z 06016KT CAVOK 22/10 Q1019;",
"08390599999","2010-04-08T14:00:00","4","37.3166666","-6.0","5.0","SEVILLA HELIPORT, SP","FM-15","LEEC ","V020","060,1,N,0077,1","99999,9,9,Y","009900,1,N,1","+0230,1","+0110,1","99999,9",,,,,,"10180,1,99999,9",,,,"MET045METAR LEEC 081400Z 06015KT CAVOK 23/11 Q1018;",
"08390599999","2010-04-08T15:00:00","4","37.3166666","-6.0","5.0","SEVILLA HELIPORT, SP","FM-15","LEEC ","V020","070,1,N,0067,1","99999,9,9,Y","009900,1,N,1","+0230,1","+0110,1","99999,9",,,,,,"10180,1,99999,9",,,,"MET045METAR LEEC 081500Z 07013KT CAVOK 23/11 Q1018;",
"08390599999","2010-04-09T06:00:00","4","37.3166666","-6.0","5.0","SEVILLA HELIPORT, SP","FM-15","LEEC ","V020","040,1,N,0041,1","99999,9,9,Y","009900,1,N,1","+0130,1","+0080,1","99999,9",,,,,,"10180,1,99999,9",,,,"MET045METAR LEEC 090600Z 04008KT CAVOK 13/08 Q1018;",
"08390599999","2010-04-09T07:00:00","4","37.3166666","-6.0","5.0","SEVILLA HELIPORT, SP","FM-15","LEEC ","V020","040,1,N,0041,1","99999,9,9,Y","009900,1,N,1","+0140,1","+0080,1","99999,9",,,,,,"10180,1,99999,9",,,,"MET045METAR LEEC 090700Z 04008KT CAVOK 14/08 Q1018;",
"08390599999","2010-04-09T08:00:00","4","37.3166666","-6.0","5.0","SEVILLA HELIPORT, SP","FM-15","LEEC ","V020","050,1,N,0046,1","99999,9,9,Y","009900,1,N,1","+0160,1","+0080,1","99999,9",,,,,,"10180,1,99999,9",,,,"MET045METAR LEEC 090800Z 05009KT CAVOK 16/08 Q1018;",
"08390599999","2010-04-09T09:00:00","4","37.3166666","-6.0","5.0","SEVILLA HELIPORT, SP","FM-15","LEEC ","V020","070,1,N,0057,1","99999,9,9,Y","009900,1,N,1","+0180,1","+0080,1","99999,9",,,,,,"10180,1,99999,9",,,,"MET053METAR LEEC 090900Z 07011KT 040V100 CAVOK 18/08 Q1018;",
"08390599999","2010-04-09T10:00:00","4","37.3166666","-6.0","5.0","SEVILLA HELIPORT, SP","FM-15","LEEC ","V020","060,1,N,0062,1","99999,9,9,Y","009900,1,N,1","+0200,1","+0080,1","99999,9",,,,,,"10190,1,99999,9",,,,"MET045METAR LEEC 091000Z 06012KT CAVOK 20/08 Q1019;",
"08390599999","2010-04-09T11:00:00","4","37.3166666","-6.0","5.0","SEVILLA HELIPORT, SP","FM-15","LEEC ","V020","060,1,N,0051,1","99999,9,9,Y","009900,1,N,1","+0210,1","+0070,1","99999,9",,,,,,"10180,1,99999,9",,,,"MET045METAR LEEC 091100Z 06010KT CAVOK 21/07 Q1018;",
"08390599999","2010-04-09T12:00:00","4","37.3166666","-6.0","5.0","SEVILLA HELIPORT, SP","FM-15","LEEC ","V020","060,1,N,0051,1","99999,9,9,Y","009900,1,N,1","+0230,1","+0070,1","99999,9",,,,,,"10169,1,99999,9",,,,"MET053METAR LEEC 091200Z 06010KT 020V100 CAVOK 23/07 Q1017;",
"08390599999","2010-04-09T13:00:00","4","37.3166666","-6.0","5.0","SEVILLA HELIPORT, SP","FM-15","LEEC ","V020","060,1,N,0057,1","99999,9,9,Y","009900,1,N,1","+0230,1","+0080,1","99999,9",,,,,,"10169,1,99999,9",,,,"MET053METAR LEEC 091300Z 06011KT 030V090 CAVOK 23/08 Q1017;",
"08390599999","2010-04-12T11:00:00","4","37.3166666","-6.0","5.0","SEVILLA HELIPORT, SP","FM-15","LEEC ","V020","200,1,N,0031,1","00690,1,C,N","011265,1,N,1","+0190,1","+0140,1","99999,9","07,5,+00690,1,99,9",,,,"07,99,1,99,9,99,9,99999,9,99,9,99,9","10061,1,99999,9",,,,"MET059METAR LEEC 121100Z 20006KT 170V240 9999 BKN023 19/14 Q1006;",
"08390599999","2010-04-12T12:00:00","4","37.3166666","-6.0","5.0","SEVILLA HELIPORT, SP","FM-15","LEEC ","V020","230,1,N,0031,1","22000,1,9,N","011265,1,N,1","+0190,1","+0140,1","99999,9","04,5,+00720,1,99,9",,,,"04,99,1,99,9,99,9,99999,9,99,9,99,9","10061,1,99999,9",,,,"MET059METAR LEEC 121200Z 23006KT 190V260 9999 SCT024 19/14 Q1006;",
"08390599999","2010-04-12T13:00:00","4","37.3166666","-6.0","5.0","SEVILLA HELIPORT, SP","FM-15","LEEC ","V020","220,1,N,0031,1","00810,1,C,N","011265,1,N,1","+0200,1","+0140,1","99999,9","02,5,+00450,1,99,9","07,5,+00810,1,99,9",,,"07,99,1,99,9,99,9,99999,9,99,9,99,9","10051,1,99999,9",,,,"MET058METAR LEEC 121300Z 22006KT 9999 FEW015 BKN027 20/14 Q1005;",
"08390599999","2010-04-12T14:00:00","4","37.3166666","-6.0","5.0","SEVILLA HELIPORT, SP","FM-15","LEEC ","V020","210,1,N,0062,1","99999,9,C,N","011265,1,N,1","+0190,1","+0140,1","99999,9","04,5,+00810,1,99,9","04,5,+01200,1,99,9",,,"04,99,1,99,9,99,9,99999,9,99,9,99,9","10051,1,99999,9",,,,"MET058METAR LEEC 121400Z 21012KT 9999 SCT027 SCT040 19/14 Q1005;","P01 012003SCOCIG"
"08390599999","2010-04-12T15:00:00","4","37.3166666","-6.0","5.0","SEVILLA HELIPORT, SP","FM-15","LEEC ","V020","230,1,N,0057,1","22000,1,9,N","011265,1,N,1","+0200,1","+0140,1","99999,9","04,5,+00990,1,99,9",,,,"04,99,1,99,9,99,9,99999,9,99,9,99,9","10051,1,99999,9",,,,"MET051METAR LEEC 121500Z 23011KT 9999 SCT033 20/14 Q1005;",
"08390599999","2010-04-13T11:00:00","4","37.3166666","-6.0","5.0","SEVILLA HELIPORT, SP","FM-15","LEEC ","V020","210,1,N,0036,1","22000,1,9,N","011265,1,N,1","+0180,1","+0130,1","99999,9","04,5,+00990,1,99,9",,,,"04,99,1,99,9,99,9,99999,9,99,9,99,9","10071,1,99999,9",,,,"MET051METAR LEEC 131100Z 21007KT 9999 SCT033 18/13 Q1007;",
"08390599999","2010-04-13T12:00:00","4","37.3166666","-6.0","5.0","SEVILLA HELIPORT, SP","FM-15","LEEC ","V020","190,1,N,0041,1","22000,1,9,N","011265,1,N,1","+0190,1","+0130,1","99999,9","04,5,+00870,1,99,9",,,,"04,99,1,99,9,99,9,99999,9,99,9,99,9","10071,1,99999,9",,,,"MET059METAR LEEC 131200Z 19008KT 160V220 9999 SCT029 19/13 Q1007;",
"08390599999","2010-04-13T13:00:00","4","37.3166666","-6.0","5.0","SEVILLA HELIPORT, SP","FM-15","LEEC ","V020","200,1,N,0041,1","22000,1,9,N","011265,1,N,1","+0200,1","+0120,1","99999,9","04,5,+01080,1,99,9",,,,"04,99,1,99,9,99,9,99999,9,99,9,99,9","10061,1,99999,9",,,,"MET051METAR LEEC 131300Z 20008KT 9999 SCT036 20/12 Q1006;",
"08390599999","2010-04-13T14:00:00","4","37.3166666","-6.0","5.0","SEVILLA HELIPORT, SP","FM-15","LEEC ","V020","210,1,N,0051,1","22000,1,9,N","011265,1,N,1","+0210,1","+0110,1","99999,9","04,5,+01170,1,99,9",,,,"04,99,1,99,9,99,9,99999,9,99,9,99,9","10061,1,99999,9",,,,"MET051METAR LEEC 131400Z 21010KT 9999 SCT039 21/11 Q1006;",
"08390599999","2010-04-13T15:00:00","4","37.3166666","-6.0","5.0","SEVILLA HELIPORT, SP","FM-15","LEEC ","V020","210,1,N,0046,1","22000,1,9,N","011265,1,N,1","+0220,1","+0110,1","99999,9","04,5,+01350,1,99,9",,,,"04,99,1,99,9,99,9,99999,9,99,9,99,9","10051,1,99999,9",,,,"MET051METAR LEEC 131500Z 21009KT 9999 SCT045 22/11 Q1005;",
"08390599999","2010-04-14T11:00:00","4","37.3166666","-6.0","5.0","SEVILLA HELIPORT, SP","FM-15","LEEC ","V020","040,1,N,0021,1","22000,1,9,N","011265,1,N,1","+0200,1","+0120,1","99999,9","02,5,+00450,1,99,9",,,,"02,99,1,99,9,99,9,99999,9,99,9,99,9","10051,1,99999,9",,,,"MET059METAR LEEC 141100Z 04004KT 010V080 9999 FEW015 20/12 Q1005;",
"08390599999","2010-04-14T12:00:00","4","37.3166666","-6.0","5.0","SEVILLA HELIPORT, SP","FM-15","LEEC ","V020","110,1,N,0021,1","22000,1,9,N","011265,1,N,1","+0220,1","+0120,1","99999,9","02,5,+00750,1,99,9",,,,"02,99,1,99,9,99,9,99999,9,99,9,99,9","10041,1,99999,9",,,,"MET059METAR LEEC 141200Z 11004KT 070V170 9999 FEW025 22/12 Q1004;",
"08390599999","2010-04-14T13:00:00","4","37.3166666","-6.0","5.0","SEVILLA HELIPORT, SP","FM-15","LEEC ","V020","130,1,N,0031,1","22000,1,9,N","011265,1,N,1","+0230,1","+0110,1","99999,9","04,5,+00900,1,99,9",,,,"04,99,1,99,9,99,9,99999,9,99,9,99,9","10041,1,99999,9",,,,"MET051METAR LEEC 141300Z 13006KT 9999 SCT030 23/11 Q1004;",
"08390599999","2010-04-14T14:00:00","4","37.3166666","-6.0","5.0","SEVILLA HELIPORT, SP","FM-15","LEEC ","V020","999,9,V,0015,1","22000,1,9,N","011265,1,N,1","+0230,1","+0110,1","99999,9","02,5,+01050,1,99,9",,,,"02,99,1,99,9,99,9,99999,9,99,9,99,9","10031,1,99999,9",,,,"MET051METAR LEEC 141400Z VRB03KT 9999 FEW035 23/11 Q1003;",
"08390599999","2010-04-14T15:00:00","4","37.3166666","-6.0","5.0","SEVILLA HELIPORT, SP","FM-15","LEEC ","V020","170,1,N,0051,1","22000,1,9,N","011265,1,N,1","+0230,1","+0110,1","99999,9","04,5,+01200,1,99,9",,,,"04,99,1,99,9,99,9,99999,9,99,9,99,9","10031,1,99999,9",,,,"MET051METAR LEEC 141500Z 17010KT 9999 SCT040 23/11 Q1003;",
"08390599999","2010-04-15T11:00:00","4","37.3166666","-6.0","5.0","SEVILLA HELIPORT, SP","FM-15","LEEC ","V020","180,1,N,0067,1","22000,1,9,N","011265,1,N,1","+0200,1","+0150,1","99999,9","04,5,+00750,1,02,1",,,,"04,99,1,99,9,99,9,99999,9,99,9,99,9","10071,1,99999,9",,,,"MET054METAR LEEC 151100Z 18013KT 9999 SCT025TCU 20/15 Q1007;",
"08390599999","2010-04-15T12:00:00","4","37.3166666","-6.0","5.0","SEVILLA HELIPORT, SP","FM-15","LEEC ","V020","190,1,N,0067,1","22000,1,9,N","011265,1,N,1","+0210,1","+0140,1","99999,9","04,5,+00960,1,99,9",,,,"04,99,1,99,9,99,9,99999,9,99,9,99,9","10061,1,99999,9",,,,"MET051METAR LEEC 151200Z 19013KT 9999 SCT032 21/14 Q1006;",
"08390599999","2010-04-15T13:00:00","4","37.3166666","-6.0","5.0","SEVILLA HELIPORT, SP","FM-15","LEEC ","V020","190,1,N,0067,1","22000,1,9,N","011265,1,N,1","+0210,1","+0130,1","99999,9","04,5,+01170,1,99,9",,,,"04,99,1,99,9,99,9,99999,9,99,9,99,9","10061,1,99999,9",,,,"MET051METAR LEEC 151300Z 19013KT 9999 SCT039 21/13 Q1006;",
"08390599999","2010-04-15T14:00:00","4","37.3166666","-6.0","5.0","SEVILLA HELIPORT, SP","FM-15","LEEC ","V020","200,1,N,0072,1","22000,1,9,N","011265,1,N,1","+0220,1","+0130,1","99999,9","04,5,+01200,1,99,9",,,,"04,99,1,99,9,99,9,99999,9,99,9,99,9","10061,1,99999,9",,,,"MET051METAR LEEC 151400Z 20014KT 9999 SCT040 22/13 Q1006;",
"08390599999","2010-04-15T15:00:00","4","37.3166666","-6.0","5.0","SEVILLA HELIPORT, SP","FM-15","LEEC ","V020","200,1,N,0062,1","22000,1,9,N","011265,1,N,1","+0220,1","+0120,1","99999,9","04,5,+01200,1,02,1",,,,"04,99,1,99,9,99,9,99999,9,99,9,99,9","10051,1,99999,9",,,,"MET054METAR LEEC 151500Z 20012KT 9999 SCT040TCU 22/12 Q1005;",
"08390599999","2010-04-16T06:00:00","4","37.3166666","-6.0","5.0","SEVILLA HELIPORT, SP","FM-15","LEEC ","V020","999,9,V,0010,1","22000,1,9,N","011265,1,N,1","+0150,1","+0130,1","99999,9","02,5,+01050,1,99,9",,,,"02,99,1,99,9,99,9,99999,9,99,9,99,9","10081,1,99999,9",,,,"MET051METAR LEEC 160600Z VRB02KT 9999 FEW035 15/13 Q1008;",
"08390599999","2010-04-16T07:00:00","4","37.3166666","-6.0","5.0","SEVILLA HELIPORT, SP","FM-15","LEEC ","V020","999,9,V,0010,1","22000,1,9,N","011265,1,N,1","+0150,1","+0130,1","99999,9","02,5,+01050,1,99,9",,,,"02,99,1,99,9,99,9,99999,9,99,9,99,9","10091,1,99999,9",,,,"MET051METAR LEEC 160700Z VRB02KT 9999 FEW035 15/13 Q1009;",
"08390599999","2010-04-16T08:00:00","4","37.3166666","-6.0","5.0","SEVILLA HELIPORT, SP","FM-15","LEEC ","V020","140,1,N,0036,1","22000,1,9,N","011265,1,N,1","+0180,1","+0140,1","99999,9","02,5,+01200,1,99,9",,,,"02,99,1,99,9,99,9,99999,9,99,9,99,9","10091,1,99999,9",,,,"MET051METAR LEEC 160800Z 14007KT 9999 FEW040 18/14 Q1009;",
"08390599999","2010-04-16T09:00:00","4","37.3166666","-6.0","5.0","SEVILLA HELIPORT, SP","FM-15","LEEC ","V020","120,1,N,0046,1","22000,1,9,N","011265,1,N,1","+0180,1","+0130,1","99999,9","02,5,+01350,1,99,9",,,,"02,99,1,99,9,99,9,99999,9,99,9,99,9","10102,1,99999,9",,,,"MET051METAR LEEC 160900Z 12009KT 9999 FEW045 18/13 Q1010;",
"08390599999","2010-04-16T10:00:00","4","37.3166666","-6.0","5.0","SEVILLA HELIPORT, SP","FM-15","LEEC ","V020","140,1,N,0062,1","22000,1,9,N","011265,1,N,1","+0200,1","+0140,1","99999,9","04,5,+00930,1,99,9",,,,"04,99,1,99,9,99,9,99999,9,99,9,99,9","10102,1,99999,9",,,,"MET051METAR LEEC 161000Z 14012KT 9999 SCT031 20/14 Q1010;",
"08390599999","2010-04-16T11:00:00","4","37.3166666","-6.0","5.0","SEVILLA HELIPORT, SP","FM-15","LEEC ","V020","160,1,N,0072,1","99999,9,C,N","011265,1,N,1","+0210,1","+0120,1","99999,9","02,5,+00900,1,02,1","04,5,+01170,1,99,9",,,"04,99,1,99,9,99,9,99999,9,99,9,99,9","10091,1,99999,9",,,,"MET061METAR LEEC 161100Z 16014KT 9999 FEW030TCU SCT039 21/12 Q1009;","P01 011703SCOCIG"
"08390599999","2010-04-16T12:00:00","4","37.3166666","-6.0","5.0","SEVILLA HELIPORT, SP","FM-15","LEEC ","V020","160,1,N,0062,1","99999,9,C,N","011265,1,N,1","+0220,1","+0110,1","99999,9","04,5,+00900,1,99,9","04,5,+01290,1,99,9",,,"04,99,1,99,9,99,9,99999,9,99,9,99,9","10091,1,99999,9",,,,"MET066METAR LEEC 161200Z 16012KT 140V200 9999 SCT030 SCT043 22/11 Q1009;","P01 012903SCOCIG"
"08390599999","2010-04-16T13:00:00","4","37.3166666","-6.0","5.0","SEVILLA HELIPORT, SP","FM-15","LEEC ","V020","170,1,N,0067,1","99999,9,C,N","011265,1,N,1","+0200,1","+0120,1","99999,9","04,5,+01230,1,09,1","04,5,+01500,1,99,9",,,"04,99,1,99,9,99,9,99999,9,99,9,99,9","10091,1,99999,9","17,1",,,"MET063METAR LEEC 161300Z 17013KT 9999 TS SCT041CB SCT050 20/12 Q1009;","P01 015003SCOCIG"
"08390599999","2010-04-19T11:00:00","4","37.3166666","-6.0","5.0","SEVILLA HELIPORT, SP","FM-15","LEEC ","V020","190,1,N,0026,1","22000,1,9,N","011265,1,N,1","+0180,1","+0130,1","99999,9","04,5,+00900,1,99,9",,,,"04,99,1,99,9,99,9,99999,9,99,9,99,9","10190,1,99999,9",,,,"MET051METAR LEEC 191100Z 19005KT 9999 SCT030 18/13 Q1019;",
"08390599999","2010-04-19T12:00:00","4","37.3166666","-6.0","5.0","SEVILLA HELIPORT, SP","FM-15","LEEC ","V020","130,1,N,0021,1","22000,1,9,N","011265,1,N,1","+0190,1","+0140,1","99999,9","04,5,+00900,1,99,9",,,,"04,99,1,99,9,99,9,99999,9,99,9,99,9","10180,1,99999,9",,,,"MET059METAR LEEC 191200Z 13004KT 100V160 9999 SCT030 19/14 Q1018;",
"08390599999","2010-04-19T13:00:00","4","37.3166666","-6.0","5.0","SEVILLA HELIPORT, SP","FM-15","LEEC ","V020","060,1,N,0021,1","22000,1,9,N","011265,1,N,1","+0200,1","+0130,1","99999,9","02,5,+01050,1,99,9",,,,"02,99,1,99,9,99,9,99999,9,99,9,99,9","10169,1,99999,9",,,,"MET059METAR LEEC 191300Z 06004KT 010V120 9999 FEW035 20/13 Q1017;",
"08390599999","2010-04-19T14:00:00","4","37.3166666","-6.0","5.0","SEVILLA HELIPORT, SP","FM-15","LEEC ","V020","999,9,V,0015,1","22000,1,9,N","011265,1,N,1","+0210,1","+0110,1","99999,9","02,5,+01050,1,99,9",,,,"02,99,1,99,9,99,9,99999,9,99,9,99,9","10169,1,99999,9",,,,"MET051METAR LEEC 191400Z VRB03KT 9999 FEW035 21/11 Q1017;",
"08390599999","2010-04-19T15:00:00","4","37.3166666","-6.0","5.0","SEVILLA HELIPORT, SP","FM-15","LEEC ","V020","040,1,N,0026,1","22000,1,9,N","011265,1,N,1","+0220,1","+0110,1","99999,9","02,5,+01050,1,99,9",,,,"02,99,1,99,9,99,9,99999,9,99,9,99,9","10159,1,99999,9",,,,"MET059METAR LEEC 191500Z 04005KT 350V080 9999 FEW035 22/11 Q1016;",
"08390599999","2010-04-20T11:00:00","4","37.3166666","-6.0","5.0","SEVILLA HELIPORT, SP","FM-15","LEEC ","V020","999,9,V,0010,1","99999,9,9,Y","009900,1,N,1","+0230,1","+0120,1","99999,9",,,,,,"10149,1,99999,9",,,,"MET045METAR LEEC 201100Z VRB02KT CAVOK 23/12 Q1015;",
"08390599999","2010-04-20T12:00:00","4","37.3166666","-6.0","5.0","SEVILLA HELIPORT, SP","FM-15","LEEC ","V020","999,9,V,0015,1","99999,9,9,Y","009900,1,N,1","+0240,1","+0120,1","99999,9",,,,,,"10149,1,99999,9",,,,"MET045METAR LEEC 201200Z VRB03KT CAVOK 24/12 Q1015;",
"08390599999","2010-04-20T13:00:00","4","37.3166666","-6.0","5.0","SEVILLA HELIPORT, SP","FM-15","LEEC ","V020","050,1,N,0026,1","22000,1,9,N","011265,1,N,1","+0240,1","+0130,1","99999,9","02,5,+01200,1,99,9",,,,"02,99,1,99,9,99,9,99999,9,99,9,99,9","10139,1,99999,9",,,,"MET051METAR LEEC 201300Z 05005KT 9999 FEW040 24/13 Q1014;",
"08390599999","2010-04-20T14:00:00","4","37.3166666","-6.0","5.0","SEVILLA HELIPORT, SP","FM-15","LEEC ","V020","090,1,N,0021,1","22000,1,9,N","011265,1,N,1","+0260,1","+0110,1","99999,9","02,5,+01050,1,99,9",,,,"02,99,1,99,9,99,9,99999,9,99,9,99,9","10139,1,99999,9",,,,"MET059METAR LEEC 201400Z 09004KT 060V140 9999 FEW035 26/11 Q1014;",
"08390599999","2010-04-20T15:00:00","4","37.3166666","-6.0","5.0","SEVILLA HELIPORT, SP","FM-15","LEEC ","V020","999,9,V,0010,1","22000,1,9,N","011265,1,N,1","+0270,1","+0100,1","99999,9","02,5,+01050,1,99,9",,,,"02,99,1,99,9,99,9,99999,9,99,9,99,9","10129,1,99999,9",,,,"MET051METAR LEEC 201500Z VRB02KT 9999 FEW035 27/10 Q1013;",
"08390599999","2010-04-22T06:00:00","4","37.3166666","-6.0","5.0","SEVILLA HELIPORT, SP","FM-15","LEEC ","V020","180,1,N,0031,1","99999,9,C,N","007000,1,N,1","+0160,1","+0150,1","99999,9","02,5,+00390,1,09,1","04,5,+00690,1,99,9",,,"04,99,1,99,9,99,9,99999,9,99,9,99,9","10102,1,99999,9",,,,"MET060METAR LEEC 220600Z 18006KT 7000 FEW013CB SCT023 16/15 Q1010;","P01 006903SCOCIG"
"08390599999","2010-04-22T07:00:00","4","37.3166666","-6.0","5.0","SEVILLA HELIPORT, SP","FM-15","LEEC ","V020","999,9,V,0015,1","00390,1,C,N","008000,1,N,1","+0150,1","+0130,1","99999,9","02,5,+00240,1,09,1","07,5,+00390,1,99,9",,,"07,99,1,99,9,99,9,99999,9,99,9,99,9","10108,1,99999,9","17,1",,,"MET063METAR LEEC 220700Z VRB03KT 8000 TS FEW008CB BKN013 15/13 Q1011;",
"08390599999","2010-04-22T08:00:00","4","37.3166666","-6.0","5.0","SEVILLA HELIPORT, SP","FM-15","LEEC ","V020","999,9,V,0010,1","00660,1,C,N","011265,1,N,1","+0140,1","+0130,1","99999,9","04,5,+00360,1,99,9","07,5,+00660,1,99,9",,,"07,99,1,99,9,99,9,99999,9,99,9,99,9","10108,1,99999,9","61,1",,,"MET062METAR LEEC 220800Z VRB02KT 9999 -RA SCT012 BKN022 14/13 Q1011;",
"08390599999","2010-04-22T09:00:00","4","37.3166666","-6.0","5.0","SEVILLA HELIPORT, SP","FM-15","LEEC ","V020","999,9,V,0005,1","22000,1,9,N","011265,1,N,1","+0150,1","+0130,1","99999,9","02,5,+00360,1,99,9","02,5,+00450,1,02,5",,,"02,99,1,99,9,99,9,99999,9,99,9,99,9","10108,1,99999,9",,,,"MET061METAR LEEC 220900Z VRB01KT 9999 FEW012 FEW015TCU 15/13 Q1011;",
"08390599999","2010-04-22T10:00:00","4","37.3166666","-6.0","5.0","SEVILLA HELIPORT, SP","FM-15","LEEC ","V020","999,9,V,0010,1","22000,1,9,N","011265,1,N,1","+0170,1","+0140,1","99999,9","02,5,+00600,1,02,1",,,,"02,99,1,99,9,99,9,99999,9,99,9,99,9","10108,1,99999,9",,,,"MET054METAR LEEC 221000Z VRB02KT 9999 FEW020TCU 17/14 Q1011;",
"08390599999","2010-04-22T11:00:00","4","37.3166666","-6.0","5.0","SEVILLA HELIPORT, SP","FM-15","LEEC ","V020","999,9,V,0005,1","22000,1,9,N","011265,1,N,1","+0190,1","+0140,1","99999,9","02,5,+01050,1,02,1",,,,"02,99,1,99,9,99,9,99999,9,99,9,99,9","10108,1,99999,9",,,,"MET054METAR LEEC 221100Z VRB01KT 9999 FEW035TCU 19/14 Q1011;",
"08390599999","2010-04-22T12:00:00","4","37.3166666","-6.0","5.0","SEVILLA HELIPORT, SP","FM-15","LEEC ","V020","200,1,N,0021,1","00750,1,C,N","011265,1,N,1","+0200,1","+0150,1","99999,9","02,5,+00660,1,09,1","07,5,+00750,1,99,9",,,"07,99,1,99,9,99,9,99999,9,99,9,99,9","10108,1,99999,9",,,,"MET060METAR LEEC 221200Z 20004KT 9999 FEW022CB BKN025 20/15 Q1011;",
"08390599999","2010-04-22T13:00:00","4","37.3166666","-6.0","5.0","SEVILLA HELIPORT, SP","FM-15","LEEC ","V020","230,1,N,0031,1","99999,9,C,N","011265,1,N,1","+0210,1","+0150,1","99999,9","04,5,+00270,1,02,1","04,5,+00750,1,99,9",,,"04,99,1,99,9,99,9,99999,9,99,9,99,9","10102,1,99999,9","61,1",,,"MET065METAR LEEC 221300Z 23006KT 9999 -RA SCT009TCU SCT025 21/15 Q1010;","P01 007503SCOCIG"
"08390599999","2010-04-22T14:00:00","4","37.3166666","-6.0","5.0","SEVILLA HELIPORT, SP","FM-15","LEEC ","V020","240,1,N,0031,1","99999,9,C,N","011265,1,N,1","+0200,1","+0160,1","99999,9","02,5,+00300,1,09,1","04,5,+00750,1,99,9",,,"04,99,1,99,9,99,9,99999,9,99,9,99,9","10102,1,99999,9","16,1",,,"MET065METAR LEEC 221400Z 24006KT 9999 VCSH FEW010CB SCT025 20/16 Q1010;","P01 007503SCOCIG"
"08390599999","2010-04-23T06:00:00","4","37.3166666","-6.0","5.0","SEVILLA HELIPORT, SP","FM-15","LEEC ","V020","130,1,N,0015,1","99999,9,C,N","008000,1,N,1","+0160,1","+0150,1","99999,9","02,5,+00150,1,99,9","04,5,+00450,1,99,9",,,"04,99,1,99,9,99,9,99999,9,99,9,99,9","10119,1,99999,9",,,,"MET058METAR LEEC 230600Z 13003KT 8000 FEW005 SCT015 16/15 Q1012;","P01 004503SCOCIG"
"08390599999","2010-04-23T07:00:00","4","37.3166666","-6.0","5.0","SEVILLA HELIPORT, SP","FM-15","LEEC ","V020","999,9,V,0010,1","00150,1,C,N","007000,1,N,1","+0170,1","+0160,1","99999,9","07,5,+00150,1,99,9","07,5,+01320,1,99,9",,,"07,99,1,99,9,99,9,99999,9,99,9,99,9","10129,1,99999,9",,,,"MET058METAR LEEC 230700Z VRB02KT 7000 BKN005 BKN044 17/16 Q1013;",
"08390599999","2010-04-23T08:00:00","4","37.3166666","-6.0","5.0","SEVILLA HELIPORT, SP","FM-15","LEEC ","V020","999,9,V,0010,1","00090,1,C,N","006000,1,N,1","+0170,1","+0160,1","99999,9","07,5,+00090,1,99,9",,,,"07,99,1,99,9,99,9,99999,9,99,9,99,9","10129,1,99999,9",,,,"MET051METAR LEEC 230800Z VRB02KT 6000 BKN003 17/16 Q1013;",
"08390599999","2010-04-23T09:00:00","4","37.3166666","-6.0","5.0","SEVILLA HELIPORT, SP","FM-15","LEEC ","V020","999,9,V,0010,1","00180,1,C,N","006000,1,N,1","+0180,1","+0170,1","99999,9","07,5,+00180,1,99,9",,,,"07,99,1,99,9,99,9,99999,9,99,9,99,9","10129,1,99999,9",,,,"MET051METAR LEEC 230900Z VRB02KT 6000 BKN006 18/17 Q1013;",
"08390599999","2010-04-23T10:00:00","4","37.3166666","-6.0","5.0","SEVILLA HELIPORT, SP","FM-15","LEEC ","V020","200,1,N,0026,1","00750,1,C,N","011265,1,N,1","+0200,1","+0160,1","99999,9","02,5,+00480,1,99,9","07,5,+00750,1,99,9",,,"07,99,1,99,9,99,9,99999,9,99,9,99,9","10139,1,99999,9",,,,"MET058METAR LEEC 231000Z 20005KT 9999 FEW016 BKN025 20/16 Q1014;",
"08390599999","2010-04-23T11:00:00","4","37.3166666","-6.0","5.0","SEVILLA HELIPORT, SP","FM-15","LEEC ","V020","190,1,N,0036,1","22000,1,9,N","011265,1,N,1","+0200,1","+0160,1","99999,9","04,5,+00600,1,99,9",,,,"04,99,1,99,9,99,9,99999,9,99,9,99,9","10139,1,99999,9",,,,"MET059METAR LEEC 231100Z 19007KT 150V220 9999 SCT020 20/16 Q1014;",
"08390599999","2010-04-23T12:00:00","4","37.3166666","-6.0","5.0","SEVILLA HELIPORT, SP","FM-15","LEEC ","V020","190,1,N,0036,1","99999,9,C,N","011265,1,N,1","+0220,1","+0160,1","99999,9","04,5,+00720,1,99,9","04,5,+01200,1,99,9",,,"04,99,1,99,9,99,9,99999,9,99,9,99,9","10139,1,99999,9",,,,"MET058METAR LEEC 231200Z 19007KT 9999 SCT024 SCT040 22/16 Q1014;","P01 012003SCOCIG"
"08390599999","2010-04-23T13:00:00","4","37.3166666","-6.0","5.0","SEVILLA HELIPORT, SP","FM-15","LEEC ","V020","230,1,N,0041,1","99999,9,C,N","011265,1,N,1","+0220,1","+0160,1","99999,9","04,5,+00780,1,99,9","04,5,+01200,1,99,9",,,"04,99,1,99,9,99,9,99999,9,99,9,99,9","10139,1,99999,9",,,,"MET058METAR LEEC 231300Z 23008KT 9999 SCT026 SCT040 22/16 Q1014;","P01 012003SCOCIG"
"08390599999","2010-04-24T06:00:00","4","37.3166666","-6.0","5.0","SEVILLA HELIPORT, SP","FM-15","LEEC ","V020","999,9,V,0005,1","00330,1,C,N","005000,1,N,1","+0160,1","+0150,1","99999,9","02,5,+00180,1,99,9","07,5,+00330,1,99,9",,,"07,99,1,99,9,99,9,99999,9,99,9,99,9","10159,1,99999,9","10,1",,,"MET061METAR LEEC 240600Z VRB01KT 5000 BR FEW006 BKN011 16/15 Q1016;",
"08390599999","2010-04-24T07:00:00","4","37.3166666","-6.0","5.0","SEVILLA HELIPORT, SP","FM-15","LEEC ","V020","050,1,N,0021,1","00330,1,C,N","007000,1,N,1","+0170,1","+0160,1","99999,9","07,5,+00330,1,99,9",,,,"07,99,1,99,9,99,9,99999,9,99,9,99,9","10169,1,99999,9",,,,"MET051METAR LEEC 240700Z 05004KT 7000 BKN011 17/16 Q1017;",
"08390599999","2010-04-26T11:00:00","4","37.3166666","-6.0","5.0","SEVILLA HELIPORT, SP","FM-15","LEEC ","V020","040,1,N,0057,1","99999,9,9,Y","009900,1,N,1","+0260,1","+0120,1","99999,9",,,,,,"10220,1,99999,9",,,,"MET045METAR LEEC 261100Z 04011KT CAVOK 26/12 Q1022;",
"08390599999","2010-04-26T12:00:00","4","37.3166666","-6.0","5.0","SEVILLA HELIPORT, SP","FM-15","LEEC ","V020","050,1,N,0062,1","99999,9,9,Y","009900,1,N,1","+0270,1","+0110,1","99999,9",,,,,,"10220,1,99999,9",,,,"MET053METAR LEEC 261200Z 05012KT 020V080 CAVOK 27/11 Q1022;",
"08390599999","2010-04-26T13:00:00","4","37.3166666","-6.0","5.0","SEVILLA HELIPORT, SP","FM-15","LEEC ","V020","070,1,N,0057,1","99999,9,9,Y","009900,1,N,1","+0280,1","+0100,1","99999,9",,,,,,"10210,1,99999,9",,,,"MET045METAR LEEC 261300Z 07011KT CAVOK 28/10 Q1021;",
"08390599999","2010-04-26T14:00:00","4","37.3166666","-6.0","5.0","SEVILLA HELIPORT, SP","FM-15","LEEC ","V020","070,1,N,0057,1","99999,9,9,Y","009900,1,N,1","+0280,1","+0110,1","99999,9",,,,,,"10210,1,99999,9",,,,"MET045METAR LEEC 261400Z 07011KT CAVOK 28/11 Q1021;",
"08390599999","2010-04-26T15:00:00","4","37.3166666","-6.0","5.0","SEVILLA HELIPORT, SP","FM-15","LEEC ","V020","080,1,N,0046,1","99999,9,9,Y","009900,1,N,1","+0290,1","+0120,1","99999,9",,,,,,"10200,1,99999,9",,,,"MET053METAR LEEC 261500Z 08009KT 040V130 CAVOK 29/12 Q1020;",
"08390599999","2010-04-27T11:00:00","4","37.3166666","-6.0","5.0","SEVILLA HELIPORT, SP","FM-15","LEEC ","V020","060,1,N,0051,1","99999,9,9,Y","009900,1,N,1","+0270,1","+0090,1","99999,9",,,,,,"10200,1,99999,9",,,,"MET045METAR LEEC 271100Z 06010KT CAVOK 27/09 Q1020;",
"08390599999","2010-04-27T12:00:00","4","37.3166666","-6.0","5.0","SEVILLA HELIPORT, SP","FM-15","LEEC ","V020","050,1,N,0051,1","99999,9,9,Y","009900,1,N,1","+0280,1","+0100,1","99999,9",,,,,,"10190,1,99999,9",,,"0118,1","MET056METAR LEEC 271200Z 05010G23KT 020V090 CAVOK 28/10 Q1019;",
"08390599999","2010-04-27T13:00:00","4","37.3166666","-6.0","5.0","SEVILLA HELIPORT, SP","FM-15","LEEC ","V020","070,1,N,0036,1","99999,9,9,Y","009900,1,N,1","+0290,1","+0080,1","99999,9",,,,,,"10180,1,99999,9",,,,"MET053METAR LEEC 271300Z 07007KT 040V110 CAVOK 29/08 Q1018;",
"08390599999","2010-04-27T14:00:00","4","37.3166666","-6.0","5.0","SEVILLA HELIPORT, SP","FM-15","LEEC ","V020","070,1,N,0041,1","99999,9,9,Y","009900,1,N,1","+0300,1","+0090,1","99999,9",,,,,,"10180,1,99999,9",,,,"MET045METAR LEEC 271400Z 07008KT CAVOK 30/09 Q1018;",
"08390599999","2010-04-27T15:00:00","4","37.3166666","-6.0","5.0","SEVILLA HELIPORT, SP","FM-15","LEEC ","V020","050,1,N,0036,1","99999,9,9,Y","009900,1,N,1","+0310,1","+0080,1","99999,9",,,,,,"10169,1,99999,9",,,,"MET045METAR LEEC 271500Z 05007KT CAVOK 31/08 Q1017;",
"08390599999","2010-04-28T11:00:00","4","37.3166666","-6.0","5.0","SEVILLA HELIPORT, SP","FM-15","LEEC ","V020","999,9,V,0010,1","99999,9,9,Y","009900,1,N,1","+0290,1","+0080,1","99999,9",,,,,,"10180,1,99999,9",,,,"MET045METAR LEEC 281100Z VRB02KT CAVOK 29/08 Q1018;",
"08390599999","2010-04-28T12:00:00","4","37.3166666","-6.0","5.0","SEVILLA HELIPORT, SP","FM-15","LEEC ","V020","999,9,V,0010,1","99999,9,9,Y","009900,1,N,1","+0290,1","+0100,1","99999,9",,,,,,"10169,1,99999,9",,,,"MET045METAR LEEC 281200Z VRB02KT CAVOK 29/10 Q1017;",
"08390599999","2010-04-28T13:00:00","4","37.3166666","-6.0","5.0","SEVILLA HELIPORT, SP","FM-15","LEEC ","V020","999,9,V,0015,1","99999,9,9,Y","009900,1,N,1","+0310,1","+0070,1","99999,9",,,,,,"10169,1,99999,9",,,,"MET045METAR LEEC 281300Z VRB03KT CAVOK 31/07 Q1017;",
"08390599999","2010-04-28T14:00:00","4","37.3166666","-6.0","5.0","SEVILLA HELIPORT, SP","FM-15","LEEC ","V020","170,1,N,0036,1","99999,9,9,Y","009900,1,N,1","+0320,1","+0100,1","99999,9",,,,,,"10159,1,99999,9",,,,"MET045METAR LEEC 281400Z 17007KT CAVOK 32/10 Q1016;",
"08390599999","2010-04-28T15:00:00","4","37.3166666","-6.0","5.0","SEVILLA HELIPORT, SP","FM-15","LEEC ","V020","180,1,N,0046,1","99999,9,9,Y","009900,1,N,1","+0320,1","+0110,1","99999,9",,,,,,"10159,1,99999,9",,,,"MET045METAR LEEC 281500Z 18009KT CAVOK 32/11 Q1016;",
"08390599999","2010-04-29T11:00:00","4","37.3166666","-6.0","5.0","SEVILLA HELIPORT, SP","FM-15","LEEC ","V020","999,9,V,0010,1","99999,9,9,Y","009900,1,N,1","+0250,1","+0120,1","99999,9",,,,,,"10169,1,99999,9",,,,"MET045METAR LEEC 291100Z VRB02KT CAVOK 25/12 Q1017;",
"08390599999","2010-04-29T12:00:00","4","37.3166666","-6.0","5.0","SEVILLA HELIPORT, SP","FM-15","LEEC ","V020","290,1,N,0021,1","99999,9,9,Y","009900,1,N,1","+0270,1","+0110,1","99999,9",,,,,,"10159,1,99999,9",,,,"MET053METAR LEEC 291200Z 29004KT 210V330 CAVOK 27/11 Q1016;",
"08390599999","2010-04-29T13:00:00","4","37.3166666","-6.0","5.0","SEVILLA HELIPORT, SP","FM-15","LEEC ","V020","999,9,V,0015,1","99999,9,9,Y","009900,1,N,1","+0280,1","+0110,1","99999,9",,,,,,"10159,1,99999,9",,,,"MET045METAR LEEC 291300Z VRB03KT CAVOK 28/11 Q1016;",
"08390599999","2010-04-29T14:00:00","4","37.3166666","-6.0","5.0","SEVILLA HELIPORT, SP","FM-15","LEEC ","V020","220,1,N,0031,1","99999,9,9,Y","009900,1,N,1","+0290,1","+0130,1","99999,9",,,,,,"10149,1,99999,9",,,,"MET045METAR LEEC 291400Z 22006KT CAVOK 29/13 Q1015;",
"08390599999","2010-04-29T15:00:00","4","37.3166666","-6.0","5.0","SEVILLA HELIPORT, SP","FM-15","LEEC ","V020","250,1,N,0021,1","99999,9,9,Y","009900,1,N,1","+0290,1","+0120,1","99999,9",,,,,,"10149,1,99999,9",,,,"MET053METAR LEEC 291500Z 25004KT 210V300 CAVOK 29/12 Q1015;",
"08390599999","2010-04-30T06:00:00","4","37.3166666","-6.0","5.0","SEVILLA HELIPORT, SP","FM-15","LEEC ","V020","999,9,V,0005,1","00090,1,C,N","011265,1,N,1","+0160,1","+0140,1","99999,9","07,5,+00090,1,99,9",,,,"07,99,1,99,9,99,9,99999,9,99,9,99,9","10129,1,99999,9",,,,"MET051METAR LEEC 300600Z VRB01KT 9999 BKN003 16/14 Q1013;",
"08390599999","2010-04-30T07:00:00","4","37.3166666","-6.0","5.0","SEVILLA HELIPORT, SP","FM-15","LEEC ","V020","999,9,C,0000,1","00060,1,C,N","004000,1,N,1","+0170,1","+0160,1","99999,9","07,5,+00060,1,99,9",,,,"07,99,1,99,9,99,9,99999,9,99,9,99,9","10139,1,99999,9","10,1",,,"MET054METAR LEEC 300700Z 00000KT 4000 BR BKN002 17/16 Q1014;",
"08390599999","2010-04-30T08:00:00","4","37.3166666","-6.0","5.0","SEVILLA HELIPORT, SP","FM-15","LEEC ","V020","999,9,V,0015,1","00150,1,C,N","008000,1,N,1","+0180,1","+0170,1","99999,9","07,5,+00150,1,99,9",,,,"07,99,1,99,9,99,9,99999,9,99,9,99,9","10139,1,99999,9",,,,"MET051METAR LEEC 300800Z VRB03KT 8000 BKN005 18/17 Q1014;",
"08390599999","2010-04-30T08:20:00","4","37.3166666","-6.0","5.0","SEVILLA HELIPORT, SP","FM-16","LEEC ","V020","999,9,V,0015,1","22000,1,9,N","009000,1,N,1","+0190,1","+0170,1","99999,9","04,5,+00180,1,99,9",,,,"04,99,1,99,9,99,9,99999,9,99,9,99,9","10139,1,99999,9",,,,"MET051SPECI LEEC 300820Z VRB03KT 9000 SCT006 19/17 Q1014;",
"08390599999","2010-04-30T09:00:00","4","37.3166666","-6.0","5.0","SEVILLA HELIPORT, SP","FM-15","LEEC ","V020","999,9,V,0010,1","22000,1,9,N","011265,1,N,1","+0200,1","+0180,1","99999,9","02,5,+00180,1,99,9",,,,"02,99,1,99,9,99,9,99999,9,99,9,99,9","10139,1,99999,9",,,,"MET051METAR LEEC 300900Z VRB02KT 9999 FEW006 20/18 Q1014;",
"08390599999","2010-04-30T10:00:00","4","37.3166666","-6.0","5.0","SEVILLA HELIPORT, SP","FM-15","LEEC ","V020","999,9,V,0015,1","99999,9,9,Y","009900,1,N,1","+0210,1","+0170,1","99999,9",,,,,,"10139,1,99999,9",,,,"MET045METAR LEEC 301000Z VRB03KT CAVOK 21/17 Q1014;",
"08390599999","2010-04-30T11:00:00","4","37.3166666","-6.0","5.0","SEVILLA HELIPORT, SP","FM-15","LEEC ","V020","200,1,N,0021,1","99999,9,9,Y","009900,1,N,1","+0230,1","+0140,1","99999,9",,,,,,"10139,1,99999,9",,,,"MET053METAR LEEC 301100Z 20004KT 160V250 CAVOK 23/14 Q1014;",
"08390599999","2010-04-30T12:00:00","4","37.3166666","-6.0","5.0","SEVILLA HELIPORT, SP","FM-15","LEEC ","V020","999,9,V,0015,1","22000,1,9,N","011265,1,N,1","+0250,1","+0160,1","99999,9","02,5,+01050,1,99,9",,,,"02,99,1,99,9,99,9,99999,9,99,9,99,9","10129,1,99999,9",,,,"MET051METAR LEEC 301200Z VRB03KT 9999 FEW035 25/16 Q1013;",
"08390599999","2010-04-30T13:00:00","4","37.3166666","-6.0","5.0","SEVILLA HELIPORT, SP","FM-15","LEEC ","V020","999,9,V,0010,1","22000,1,9,N","011265,1,N,1","+0260,1","+0150,1","99999,9","04,5,+01230,1,99,9",,,,"04,99,1,99,9,99,9,99999,9,99,9,99,9","10119,1,99999,9",,,,"MET051METAR LEEC 301300Z VRB02KT 9999 SCT041 26/15 Q1012;",
"08390599999","2010-05-03T11:00:00","4","37.3166666","-6.0","5.0","SEVILLA HELIPORT, SP","FM-15","LEEC ","V020","330,1,N,0026,1","99999,9,9,Y","009900,1,N,1","+0210,1","+0060,1","99999,9",,,,,,"10119,1,99999,9",,,,"MET045METAR LEEC 031100Z 33005KT CAVOK 21/06 Q1012;",
"08390599999","2010-05-03T12:00:00","4","37.3166666","-6.0","5.0","SEVILLA HELIPORT, SP","FM-15","LEEC ","V020","340,1,N,0026,1","99999,9,9,Y","009900,1,N,1","+0220,1","+0060,1","99999,9",,,,,,"10108,1,99999,9",,,,"MET045METAR LEEC 031200Z 34005KT CAVOK 22/06 Q1011;",
"08390599999","2010-05-03T13:00:00","4","37.3166666","-6.0","5.0","SEVILLA HELIPORT, SP","FM-15","LEEC ","V020","360,1,N,0031,1","22000,1,9,N","011265,1,N,1","+0220,1","+0070,1","99999,9","02,5,+01350,1,99,9",,,,"02,99,1,99,9,99,9,99999,9,99,9,99,9","10108,1,99999,9",,,,"MET051METAR LEEC 031300Z 36006KT 9999 FEW045 22/07 Q1011;",
"08390599999","2010-05-03T14:00:00","4","37.3166666","-6.0","5.0","SEVILLA HELIPORT, SP","FM-15","LEEC ","V020","350,1,N,0036,1","22000,1,9,N","011265,1,N,1","+0230,1","+0050,1","99999,9","02,5,+01500,1,99,9",,,,"02,99,1,99,9,99,9,99999,9,99,9,99,9","10108,1,99999,9",,,,"MET051METAR LEEC 031400Z 35007KT 9999 FEW050 23/05 Q1011;",
"08390599999","2010-05-03T15:00:00","4","37.3166666","-6.0","5.0","SEVILLA HELIPORT, SP","FM-15","LEEC ","V020","340,1,N,0026,1","22000,1,9,N","011265,1,N,1","+0230,1","+0050,1","99999,9","02,5,+01500,1,99,9",,,,"02,99,1,99,9,99,9,99999,9,99,9,99,9","10108,1,99999,9",,,,"MET051METAR LEEC 031500Z 34005KT 9999 FEW050 23/05 Q1011;",
"08390599999","2010-05-05T10:00:00","4","37.3166666","-6.0","5.0","SEVILLA HELIPORT, SP","FM-15","LEEC ","V020","020,1,N,0026,1","99999,9,9,Y","009900,1,N,1","+0170,1","+0010,1","99999,9",,,,,,"10139,1,99999,9",,,,"MET053METAR LEEC 051000Z 02005KT 360V060 CAVOK 17/01 Q1014;",
"08390599999","2010-05-05T12:00:00","4","37.3166666","-6.0","5.0","SEVILLA HELIPORT, SP","FM-15","LEEC ","V020","999,9,V,0015,1","99999,9,9,Y","009900,1,N,1","+0190,1","-0010,1","99999,9",,,,,,"10129,1,99999,9",,,,"MET046METAR LEEC 051200Z VRB03KT CAVOK 19/M01 Q1013;",
"08390599999","2010-05-05T13:00:00","4","37.3166666","-6.0","5.0","SEVILLA HELIPORT, SP","FM-15","LEEC ","V020","999,9,V,0015,1","99999,9,9,Y","009900,1,N,1","+0190,1","+0000,1","99999,9",,,,,,"10129,1,99999,9",,,,"MET045METAR LEEC 051300Z VRB03KT CAVOK 19/00 Q1013;",
"08390599999","2010-05-06T11:00:00","4","37.3166666","-6.0","5.0","SEVILLA HELIPORT, SP","FM-15","LEEC ","V020","999,9,V,0010,1","99999,9,9,Y","009900,1,N,1","+0200,1","+0080,1","99999,9",,,,,,"10091,1,99999,9",,,,"MET045METAR LEEC 061100Z VRB02KT CAVOK 20/08 Q1009;",
"08390599999","2010-05-06T12:00:00","4","37.3166666","-6.0","5.0","SEVILLA HELIPORT, SP","FM-15","LEEC ","V020","999,9,V,0010,1","99999,9,9,Y","009900,1,N,1","+0210,1","+0070,1","99999,9",,,,,,"10091,1,99999,9",,,,"MET045METAR LEEC 061200Z VRB02KT CAVOK 21/07 Q1009;",
"08390599999","2010-05-07T07:00:00","4","37.3166666","-6.0","5.0","SEVILLA HELIPORT, SP","FM-15","LEEC ","V020","999,9,V,0015,1","99999,9,9,Y","009900,1,N,1","+0110,1","+0100,1","99999,9",,,,,,"10091,1,99999,9",,,,"MET045METAR LEEC 070700Z VRB03KT CAVOK 11/10 Q1009;",
"08390599999","2010-05-07T08:00:00","4","37.3166666","-6.0","5.0","SEVILLA HELIPORT, SP","FM-15","LEEC ","V020","230,1,N,0031,1","99999,9,9,Y","009900,1,N,1","+0150,1","+0110,1","99999,9",,,,,,"10091,1,99999,9",,,,"MET045METAR LEEC 070800Z 23006KT CAVOK 15/11 Q1009;",
"08390599999","2010-05-07T09:00:00","4","37.3166666","-6.0","5.0","SEVILLA HELIPORT, SP","FM-15","LEEC ","V020","230,1,N,0041,1","22000,1,9,N","011265,1,N,1","+0170,1","+0100,1","99999,9","04,5,+00900,1,99,9",,,,"04,99,1,99,9,99,9,99999,9,99,9,99,9","10091,1,99999,9",,,,"MET059METAR LEEC 070900Z 23008KT 190V260 9999 SCT030 17/10 Q1009;",
"08390599999","2010-05-07T10:00:00","4","37.3166666","-6.0","5.0","SEVILLA HELIPORT, SP","FM-15","LEEC ","V020","230,1,N,0041,1","22000,1,9,N","011265,1,N,1","+0180,1","+0100,1","99999,9","04,5,+00900,1,99,9",,,,"04,99,1,99,9,99,9,99999,9,99,9,99,9","10091,1,99999,9",,,,"MET059METAR LEEC 071000Z 23008KT 180V270 9999 SCT030 18/10 Q1009;",
"08390599999","2010-05-07T13:00:00","4","37.3166666","-6.0","5.0","SEVILLA HELIPORT, SP","FM-15","LEEC ","V020","220,1,N,0067,1","22000,1,9,N","011265,1,N,1","+0190,1","+0100,1","99999,9","04,5,+01290,1,99,9",,,,"04,99,1,99,9,99,9,99999,9,99,9,99,9","10091,1,99999,9",,,,"MET051METAR LEEC 071300Z 22013KT 9999 SCT043 19/10 Q1009;",
"08390599999","2010-05-10T10:00:00","4","37.3166666","-6.0","5.0","SEVILLA HELIPORT, SP","FM-15","LEEC ","V020","210,1,N,0031,1","22000,1,9,N","011265,1,N,1","+0200,1","+0140,1","99999,9","04,5,+00750,1,99,9",,,,"04,99,1,99,9,99,9,99999,9,99,9,99,9","10102,1,99999,9",,,,"MET059METAR LEEC 101000Z 21006KT 180V260 9999 SCT025 20/14 Q1010;",
"08390599999","2010-05-10T11:00:00","4","37.3166666","-6.0","5.0","SEVILLA HELIPORT, SP","FM-15","LEEC ","V020","210,1,N,0031,1","00750,1,C,N","011265,1,N,1","+0220,1","+0130,1","99999,9","07,5,+00750,1,99,9",,,,"07,99,1,99,9,99,9,99999,9,99,9,99,9","10091,1,99999,9",,,,"MET059METAR LEEC 101100Z 21006KT 180V250 9999 BKN025 22/13 Q1009;",
"08390599999","2010-05-11T06:00:00","4","37.3166666","-6.0","5.0","SEVILLA HELIPORT, SP","FM-15","LEEC ","V020","999,9,V,0010,1","01500,1,C,N","011265,1,N,1","+0150,1","+0150,1","99999,9","02,5,+00540,1,02,1","07,5,+01500,1,99,9",,,"07,99,1,99,9,99,9,99999,9,99,9,99,9","10081,1,99999,9",,,,"MET061METAR LEEC 110600Z VRB02KT 9999 FEW018TCU BKN050 15/15 Q1008;",
"08390599999","2010-05-11T11:00:00","4","37.3166666","-6.0","5.0","SEVILLA HELIPORT, SP","FM-15","LEEC ","V020","230,1,N,0046,1","22000,1,9,N","011265,1,N,1","+0200,1","+0120,1","99999,9","04,5,+00900,1,99,9",,,,"04,99,1,99,9,99,9,99999,9,99,9,99,9","10091,1,99999,9",,,,"MET059METAR LEEC 111100Z 23009KT 190V260 9999 SCT030 20/12 Q1009;",
"08390599999","2010-05-11T12:00:00","4","37.3166666","-6.0","5.0","SEVILLA HELIPORT, SP","FM-15","LEEC ","V020","240,1,N,0036,1","22000,1,9,N","011265,1,N,1","+0200,1","+0110,1","99999,9","04,5,+01200,1,99,9",,,,"04,99,1,99,9,99,9,99999,9,99,9,99,9","10091,1,99999,9",,,,"MET059METAR LEEC 111200Z 24007KT 200V290 9999 SCT040 20/11 Q1009;",
"08390599999","2010-05-11T13:00:00","4","37.3166666","-6.0","5.0","SEVILLA HELIPORT, SP","FM-15","LEEC ","V020","250,1,N,0041,1","22000,1,9,N","011265,1,N,1","+0210,1","+0100,1","99999,9","04,5,+01200,1,99,9",,,,"04,99,1,99,9,99,9,99999,9,99,9,99,9","10091,1,99999,9",,,,"MET059METAR LEEC 111300Z 25008KT 210V290 9999 SCT040 21/10 Q1009;",
"08390599999","2010-05-11T14:00:00","4","37.3166666","-6.0","5.0","SEVILLA HELIPORT, SP","FM-15","LEEC ","V020","260,1,N,0036,1","22000,1,9,N","011265,1,N,1","+0220,1","+0060,1","99999,9","04,5,+01200,1,99,9",,,,"04,99,1,99,9,99,9,99999,9,99,9,99,9","10091,1,99999,9",,,,"MET059METAR LEEC 111400Z 26007KT 220V300 9999 SCT040 22/06 Q1009;",
"08390599999","2010-05-12T06:00:00","4","37.3166666","-6.0","5.0","SEVILLA HELIPORT, SP","FM-15","LEEC ","V020","230,1,N,0015,1","99999,9,9,Y","009900,1,N,1","+0110,1","+0100,1","99999,9",,,,,,"10119,1,99999,9",,,,"MET045METAR LEEC 120600Z 23003KT CAVOK 11/10 Q1012;",
"08390599999","2010-05-12T07:00:00","4","37.3166666","-6.0","5.0","SEVILLA HELIPORT, SP","FM-15","LEEC ","V020","210,1,N,0015,1","99999,9,9,Y","009900,1,N,1","+0130,1","+0110,1","99999,9",,,,,,"10129,1,99999,9",,,,"MET045METAR LEEC 120700Z 21003KT CAVOK 13/11 Q1013;",
"08390599999","2010-05-12T08:00:00","4","37.3166666","-6.0","5.0","SEVILLA HELIPORT, SP","FM-15","LEEC ","V020","260,1,N,0026,1","99999,9,9,Y","009900,1,N,1","+0150,1","+0110,1","99999,9",,,,,,"10129,1,99999,9",,,,"MET053METAR LEEC 120800Z 26005KT 210V300 CAVOK 15/11 Q1013;",
"08390599999","2010-05-12T09:00:00","4","37.3166666","-6.0","5.0","SEVILLA HELIPORT, SP","FM-15","LEEC ","V020","270,1,N,0031,1","22000,1,9,N","011265,1,N,1","+0170,1","+0100,1","99999,9","02,5,+01050,1,99,9",,,,"02,99,1,99,9,99,9,99999,9,99,9,99,9","10129,1,99999,9",,,,"MET051METAR LEEC 120900Z 27006KT 9999 FEW035 17/10 Q1013;",
"08390599999","2010-05-12T10:00:00","4","37.3166666","-6.0","5.0","SEVILLA HELIPORT, SP","FM-15","LEEC ","V020","250,1,N,0041,1","22000,1,9,N","011265,1,N,1","+0180,1","+0080,1","99999,9","04,5,+01200,1,99,9",,,,"04,99,1,99,9,99,9,99999,9,99,9,99,9","10129,1,99999,9",,,,"MET059METAR LEEC 121000Z 25008KT 220V290 9999 SCT040 18/08 Q1013;",
"08390599999","2010-05-12T11:00:00","4","37.3166666","-6.0","5.0","SEVILLA HELIPORT, SP","FM-15","LEEC ","V020","270,1,N,0036,1","22000,1,9,N","011265,1,N,1","+0190,1","+0080,1","99999,9","04,5,+01050,1,99,9",,,,"04,99,1,99,9,99,9,99999,9,99,9,99,9","10129,1,99999,9",,,,"MET059METAR LEEC 121100Z 27007KT 220V330 9999 SCT035 19/08 Q1013;",
"08390599999","2010-05-12T12:00:00","4","37.3166666","-6.0","5.0","SEVILLA HELIPORT, SP","FM-15","LEEC ","V020","250,1,N,0041,1","00900,1,C,N","011265,1,N,1","+0200,1","+0070,1","99999,9","07,5,+00900,1,99,9",,,,"07,99,1,99,9,99,9,99999,9,99,9,99,9","10129,1,99999,9",,,,"MET059METAR LEEC 121200Z 25008KT 220V290 9999 BKN030 20/07 Q1013;",
"08390599999","2010-05-12T13:00:00","4","37.3166666","-6.0","5.0","SEVILLA HELIPORT, SP","FM-15","LEEC ","V020","240,1,N,0041,1","00900,1,C,N","011265,1,N,1","+0200,1","+0070,1","99999,9","07,5,+00900,1,99,9",,,,"07,99,1,99,9,99,9,99999,9,99,9,99,9","10129,1,99999,9",,,,"MET059METAR LEEC 121300Z 24008KT 210V280 9999 BKN030 20/07 Q1013;",
"08390599999","2010-05-12T14:00:00","4","37.3166666","-6.0","5.0","SEVILLA HELIPORT, SP","FM-15","LEEC ","V020","270,1,N,0051,1","01200,1,C,N","011265,1,N,1","+0200,1","+0060,1","99999,9","02,5,+00900,1,99,9","07,5,+01200,1,99,9",,,"07,99,1,99,9,99,9,99999,9,99,9,99,9","10129,1,99999,9",,,,"MET058METAR LEEC 121400Z 27010KT 9999 FEW030 BKN040 20/06 Q1013;",
"08390599999","2010-05-13T06:00:00","4","37.3166666","-6.0","5.0","SEVILLA HELIPORT, SP","FM-15","LEEC ","V020","190,1,N,0010,1","99999,9,9,Y","009900,1,N,1","+0100,1","+0080,1","99999,9",,,,,,"10139,1,99999,9",,,,"MET045METAR LEEC 130600Z 19002KT CAVOK 10/08 Q1014;",
"08390599999","2010-05-13T07:00:00","4","37.3166666","-6.0","5.0","SEVILLA HELIPORT, SP","FM-15","LEEC ","V020","999,9,V,0010,1","99999,9,9,Y","009900,1,N,1","+0130,1","+0090,1","99999,9",,,,,,"10139,1,99999,9",,,,"MET045METAR LEEC 130700Z VRB02KT CAVOK 13/09 Q1014;",
"08390599999","2010-05-13T08:00:00","4","37.3166666","-6.0","5.0","SEVILLA HELIPORT, SP","FM-15","LEEC ","V020","999,9,V,0010,1","99999,9,9,Y","009900,1,N,1","+0150,1","+0090,1","99999,9",,,,,,"10139,1,99999,9",,,,"MET045METAR LEEC 130800Z VRB02KT CAVOK 15/09 Q1014;",
"08390599999","2010-05-13T09:00:00","4","37.3166666","-6.0","5.0","SEVILLA HELIPORT, SP","FM-15","LEEC ","V020","999,9,V,0015,1","22000,1,9,N","011265,1,N,1","+0160,1","+0090,1","99999,9","02,5,+00990,1,99,9",,,,"02,99,1,99,9,99,9,99999,9,99,9,99,9","10139,1,99999,9",,,,"MET051METAR LEEC 130900Z VRB03KT 9999 FEW033 16/09 Q1014;",
"08390599999","2010-05-13T10:00:00","4","37.3166666","-6.0","5.0","SEVILLA HELIPORT, SP","FM-15","LEEC ","V020","999,9,V,0015,1","22000,1,9,N","011265,1,N,1","+0170,1","+0070,1","99999,9","04,5,+01200,1,99,9",,,,"04,99,1,99,9,99,9,99999,9,99,9,99,9","10139,1,99999,9",,,,"MET051METAR LEEC 131000Z VRB03KT 9999 SCT040 17/07 Q1014;",
"08390599999","2010-05-13T11:00:00","4","37.3166666","-6.0","5.0","SEVILLA HELIPORT, SP","FM-15","LEEC ","V020","220,1,N,0026,1","01200,1,C,N","011265,1,N,1","+0180,1","+0080,1","99999,9","07,5,+01200,1,99,9",,,,"07,99,1,99,9,99,9,99999,9,99,9,99,9","10139,1,99999,9",,,,"MET059METAR LEEC 131100Z 22005KT 180V280 9999 BKN040 18/08 Q1014;",
"08390599999","2010-05-13T12:00:00","4","37.3166666","-6.0","5.0","SEVILLA HELIPORT, SP","FM-15","LEEC ","V020","260,1,N,0031,1","01200,1,C,N","011265,1,N,1","+0180,1","+0060,1","99999,9","07,5,+01200,1,99,9",,,,"07,99,1,99,9,99,9,99999,9,99,9,99,9","10129,1,99999,9",,,,"MET059METAR LEEC 131200Z 26006KT 220V290 9999 BKN040 18/06 Q1013;",
"08390599999","2010-05-13T13:00:00","4","37.3166666","-6.0","5.0","SEVILLA HELIPORT, SP","FM-15","LEEC ","V020","250,1,N,0036,1","01200,1,C,N","011265,1,N,1","+0190,1","+0050,1","99999,9","07,5,+01200,1,99,9",,,,"07,99,1,99,9,99,9,99999,9,99,9,99,9","10129,1,99999,9",,,,"MET059METAR LEEC 131300Z 25007KT 220V290 9999 BKN040 19/05 Q1013;",
"08390599999","2010-05-13T14:00:00","4","37.3166666","-6.0","5.0","SEVILLA HELIPORT, SP","FM-15","LEEC ","V020","260,1,N,0041,1","01200,1,C,N","011265,1,N,1","+0190,1","+0050,1","99999,9","07,5,+01200,1,99,9",,,,"07,99,1,99,9,99,9,99999,9,99,9,99,9","10129,1,99999,9",,,,"MET059METAR LEEC 131400Z 26008KT 230V290 9999 BKN040 19/05 Q1013;",
"08390599999","2010-05-13T15:00:00","4","37.3166666","-6.0","5.0","SEVILLA HELIPORT, SP","FM-15","LEEC ","V020","220,1,N,0062,1","22000,1,9,N","011265,1,N,1","+0190,1","+0090,1","99999,9","04,5,+01350,1,99,9",,,,"04,99,1,99,9,99,9,99999,9,99,9,99,9","10119,1,99999,9",,,,"MET059METAR LEEC 131500Z 22012KT 190V260 9999 SCT045 19/09 Q1012;",
"08390599999","2010-05-14T06:00:00","4","37.3166666","-6.0","5.0","SEVILLA HELIPORT, SP","FM-15","LEEC ","V020","260,1,N,0010,1","99999,9,9,Y","009900,1,N,1","+0100,1","+0070,1","99999,9",,,,,,"10159,1,99999,9",,,,"MET045METAR LEEC 140600Z 26002KT CAVOK 10/07 Q1016;",
"08390599999","2010-05-14T07:00:00","4","37.3166666","-6.0","5.0","SEVILLA HELIPORT, SP","FM-15","LEEC ","V020","280,1,N,0021,1","99999,9,9,Y","009900,1,N,1","+0110,1","+0080,1","99999,9",,,,,,"10159,1,99999,9",,,,"MET045METAR LEEC 140700Z 28004KT CAVOK 11/08 Q1016;",
"08390599999","2010-05-14T08:00:00","4","37.3166666","-6.0","5.0","SEVILLA HELIPORT, SP","FM-15","LEEC ","V020","280,1,N,0021,1","99999,9,9,Y","009900,1,N,1","+0140,1","+0080,1","99999,9",,,,,,"10169,1,99999,9",,,,"MET053METAR LEEC 140800Z 28004KT 250V340 CAVOK 14/08 Q1017;",
"08390599999","2010-05-14T09:00:00","4","37.3166666","-6.0","5.0","SEVILLA HELIPORT, SP","FM-15","LEEC ","V020","270,1,N,0031,1","99999,9,9,Y","009900,1,N,1","+0150,1","+0080,1","99999,9",,,,,,"10169,1,99999,9",,,,"MET053METAR LEEC 140900Z 27006KT 230V320 CAVOK 15/08 Q1017;",
"08390599999","2010-05-14T10:00:00","4","37.3166666","-6.0","5.0","SEVILLA HELIPORT, SP","FM-15","LEEC ","V020","360,1,N,0031,1","22000,1,9,N","011265,1,N,1","+0170,1","+0050,1","99999,9","02,5,+01200,1,99,9",,,,"02,99,1,99,9,99,9,99999,9,99,9,99,9","10169,1,99999,9",,,,"MET051METAR LEEC 141000Z 36006KT 9999 FEW040 17/05 Q1017;",
"08390599999","2010-05-14T11:00:00","4","37.3166666","-6.0","5.0","SEVILLA HELIPORT, SP","FM-15","LEEC ","V020","310,1,N,0036,1","22000,1,9,N","011265,1,N,1","+0190,1","+0010,1","99999,9","02,5,+01350,1,99,9",,,,"02,99,1,99,9,99,9,99999,9,99,9,99,9","10169,1,99999,9",,,,"MET051METAR LEEC 141100Z 31007KT 9999 FEW045 19/01 Q1017;",
"08390599999","2010-05-14T12:00:00","4","37.3166666","-6.0","5.0","SEVILLA HELIPORT, SP","FM-15","LEEC ","V020","280,1,N,0036,1","99999,9,9,Y","009900,1,N,1","+0190,1","+0020,1","99999,9",,,,,,"10169,1,99999,9",,,,"MET053METAR LEEC 141200Z 28007KT 250V350 CAVOK 19/02 Q1017;",
"08390599999","2010-05-17T11:00:00","4","37.3166666","-6.0","5.0","SEVILLA HELIPORT, SP","FM-15","LEEC ","V020","040,1,N,0062,1","99999,9,9,Y","009900,1,N,1","+0260,1","+0060,1","99999,9",,,,,,"10210,1,99999,9",,,,"MET045METAR LEEC 171100Z 04012KT CAVOK 26/06 Q1021;",
"08390599999","2010-05-17T12:00:00","4","37.3166666","-6.0","5.0","SEVILLA HELIPORT, SP","FM-15","LEEC ","V020","040,1,N,0062,1","99999,9,9,Y","009900,1,N,1","+0270,1","+0060,1","99999,9",,,,,,"10210,1,99999,9",,,,"MET053METAR LEEC 171200Z 04012KT 010V070 CAVOK 27/06 Q1021;",
"08390599999","2010-05-17T13:00:00","4","37.3166666","-6.0","5.0","SEVILLA HELIPORT, SP","FM-15","LEEC ","V020","040,1,N,0067,1","99999,9,9,Y","009900,1,N,1","+0280,1","+0060,1","99999,9",,,,,,"10200,1,99999,9",,,,"MET045METAR LEEC 171300Z 04013KT CAVOK 28/06 Q1020;",
"08390599999","2010-05-17T14:00:00","4","37.3166666","-6.0","5.0","SEVILLA HELIPORT, SP","FM-15","LEEC ","V020","060,1,N,0057,1","99999,9,9,Y","009900,1,N,1","+0280,1","+0060,1","99999,9",,,,,,"10200,1,99999,9",,,,"MET045METAR LEEC 171400Z 06011KT CAVOK 28/06 Q1020;",
"08390599999","2010-05-17T15:00:00","4","37.3166666","-6.0","5.0","SEVILLA HELIPORT, SP","FM-15","LEEC ","V020","050,1,N,0046,1","99999,9,9,Y","009900,1,N,1","+0280,1","+0060,1","99999,9",,,,,,"10190,1,99999,9",,,,"MET053METAR LEEC 171500Z 05009KT 020V090 CAVOK 28/06 Q1019;",
"08390599999","2010-05-18T11:00:00","4","37.3166666","-6.0","5.0","SEVILLA HELIPORT, SP","FM-15","LEEC ","V020","070,1,N,0046,1","99999,9,9,Y","009900,1,N,1","+0280,1","+0040,1","99999,9",,,,,,"10220,1,99999,9",,,,"MET053METAR LEEC 181100Z 07009KT 040V110 CAVOK 28/04 Q1022;",
"08390599999","2010-05-18T12:00:00","4","37.3166666","-6.0","5.0","SEVILLA HELIPORT, SP","FM-15","LEEC ","V020","060,1,N,0062,1","99999,9,9,Y","009900,1,N,1","+0290,1","+0050,1","99999,9",,,,,,"10210,1,99999,9",,,,"MET045METAR LEEC 181200Z 06012KT CAVOK 29/05 Q1021;",
"08390599999","2010-05-18T13:00:00","4","37.3166666","-6.0","5.0","SEVILLA HELIPORT, SP","FM-15","LEEC ","V020","050,1,N,0067,1","99999,9,9,Y","009900,1,N,1","+0300,1","+0050,1","99999,9",,,,,,"10210,1,99999,9",,,,"MET045METAR LEEC 181300Z 05013KT CAVOK 30/05 Q1021;",
"08390599999","2010-05-18T14:00:00","4","37.3166666","-6.0","5.0","SEVILLA HELIPORT, SP","FM-15","LEEC ","V020","070,1,N,0067,1","99999,9,9,Y","009900,1,N,1","+0300,1","+0030,1","99999,9",,,,,,"10200,1,99999,9",,,,"MET053METAR LEEC 181400Z 07013KT 040V110 CAVOK 30/03 Q1020;",
"08390599999","2010-05-18T15:00:00","4","37.3166666","-6.0","5.0","SEVILLA HELIPORT, SP","FM-15","LEEC ","V020","060,1,N,0051,1","99999,9,9,Y","009900,1,N,1","+0300,1","+0040,1","99999,9",,,,,,"10200,1,99999,9",,,,"MET053METAR LEEC 181500Z 06010KT 020V110 CAVOK 30/04 Q1020;",
"08390599999","2010-05-19T11:00:00","4","37.3166666","-6.0","5.0","SEVILLA HELIPORT, SP","FM-15","LEEC ","V020","050,1,N,0051,1","99999,9,9,Y","009900,1,N,1","+0290,1","+0080,1","99999,9",,,,,,"10190,1,99999,9",,,,"MET045METAR LEEC 191100Z 05010KT CAVOK 29/08 Q1019;",
"08390599999","2010-05-19T12:00:00","4","37.3166666","-6.0","5.0","SEVILLA HELIPORT, SP","FM-15","LEEC ","V020","040,1,N,0062,1","99999,9,9,Y","009900,1,N,1","+0310,1","+0080,1","99999,9",,,,,,"10190,1,99999,9",,,,"MET045METAR LEEC 191200Z 04012KT CAVOK 31/08 Q1019;",
"08390599999","2010-05-19T13:00:00","4","37.3166666","-6.0","5.0","SEVILLA HELIPORT, SP","FM-15","LEEC ","V020","050,1,N,0057,1","99999,9,9,Y","009900,1,N,1","+0310,1","+0090,1","99999,9",,,,,,"10180,1,99999,9",,,,"MET053METAR LEEC 191300Z 05011KT 360V070 CAVOK 31/09 Q1018;",
"08390599999","2010-05-19T14:00:00","4","37.3166666","-6.0","5.0","SEVILLA HELIPORT, SP","FM-15","LEEC ","V020","040,1,N,0046,1","99999,9,9,Y","009900,1,N,1","+0320,1","+0080,1","99999,9",,,,,,"10169,1,99999,9",,,,"MET053METAR LEEC 191400Z 04009KT 350V080 CAVOK 32/08 Q1017;",
"08390599999","2010-05-19T15:00:00","4","37.3166666","-6.0","5.0","SEVILLA HELIPORT, SP","FM-15","LEEC ","V020","030,1,N,0036,1","99999,9,9,Y","009900,1,N,1","+0330,1","+0070,1","99999,9",,,,,,"10159,1,99999,9",,,,"MET053METAR LEEC 191500Z 03007KT 350V070 CAVOK 33/07 Q1016;",
"08390599999","2010-05-20T11:00:00","4","37.3166666","-6.0","5.0","SEVILLA HELIPORT, SP","FM-15","LEEC ","V020","060,1,N,0036,1","99999,9,9,Y","009900,1,N,1","+0290,1","+0060,1","99999,9",,,,,,"10169,1,99999,9",,,,"MET053METAR LEEC 201100Z 06007KT 040V100 CAVOK 29/06 Q1017;",
"08390599999","2010-05-20T12:00:00","4","37.3166666","-6.0","5.0","SEVILLA HELIPORT, SP","FM-15","LEEC ","V020","070,1,N,0031,1","99999,9,9,Y","009900,1,N,1","+0300,1","+0050,1","99999,9",,,,,,"10169,1,99999,9",,,,"MET053METAR LEEC 201200Z 07006KT 050V110 CAVOK 30/05 Q1017;",
"08390599999","2010-05-20T13:00:00","4","37.3166666","-6.0","5.0","SEVILLA HELIPORT, SP","FM-15","LEEC ","V020","060,1,N,0031,1","99999,9,9,Y","009900,1,N,1","+0310,1","+0070,1","99999,9",,,,,,"10159,1,99999,9",,,,"MET045METAR LEEC 201300Z 06006KT CAVOK 31/07 Q1016;",
"08390599999","2010-05-20T14:00:00","4","37.3166666","-6.0","5.0","SEVILLA HELIPORT, SP","FM-15","LEEC ","V020","090,1,N,0031,1","99999,9,9,Y","009900,1,N,1","+0320,1","+0070,1","99999,9",,,,,,"10149,1,99999,9",,,,"MET045METAR LEEC 201400Z 09006KT CAVOK 32/07 Q1015;",
"08390599999","2010-05-20T15:00:00","4","37.3166666","-6.0","5.0","SEVILLA HELIPORT, SP","FM-15","LEEC ","V020","060,1,N,0062,1","99999,9,9,Y","009900,1,N,1","+0320,1","+0070,1","99999,9",,,,,,"10149,1,99999,9",,,,"MET045METAR LEEC 201500Z 06012KT CAVOK 32/07 Q1015;",
"08390599999","2010-05-21T06:00:00","4","37.3166666","-6.0","5.0","SEVILLA HELIPORT, SP","FM-15","LEEC ","V020","020,1,N,0031,1","99999,9,9,Y","009900,1,N,1","+0200,1","+0070,1","99999,9",,,,,,"10149,1,99999,9",,,,"MET045METAR LEEC 210600Z 02006KT CAVOK 20/07 Q1015;",
"08390599999","2010-05-21T07:00:00","4","37.3166666","-6.0","5.0","SEVILLA HELIPORT, SP","FM-15","LEEC ","V020","040,1,N,0046,1","99999,9,9,Y","009900,1,N,1","+0220,1","+0070,1","99999,9",,,,,,"10159,1,99999,9",,,,"MET045METAR LEEC 210700Z 04009KT CAVOK 22/07 Q1016;",
"08390599999","2010-05-21T08:00:00","4","37.3166666","-6.0","5.0","SEVILLA HELIPORT, SP","FM-15","LEEC ","V020","060,1,N,0057,1","99999,9,9,Y","009900,1,N,1","+0240,1","+0060,1","99999,9",,,,,,"10149,1,99999,9",,,,"MET045METAR LEEC 210800Z 06011KT CAVOK 24/06 Q1015;",
"08390599999","2010-05-21T09:00:00","4","37.3166666","-6.0","5.0","SEVILLA HELIPORT, SP","FM-15","LEEC ","V020","050,1,N,0051,1","99999,9,9,Y","009900,1,N,1","+0260,1","+0060,1","99999,9",,,,,,"10149,1,99999,9",,,,"MET045METAR LEEC 210900Z 05010KT CAVOK 26/06 Q1015;",
"08390599999","2010-05-21T10:00:00","4","37.3166666","-6.0","5.0","SEVILLA HELIPORT, SP","FM-15","LEEC ","V020","050,1,N,0062,1","99999,9,9,Y","009900,1,N,1","+0270,1","+0040,1","99999,9",,,,,,"10149,1,99999,9",,,,"MET045METAR LEEC 211000Z 05012KT CAVOK 27/04 Q1015;",
"08390599999","2010-05-21T11:00:00","4","37.3166666","-6.0","5.0","SEVILLA HELIPORT, SP","FM-15","LEEC ","V020","060,1,N,0046,1","99999,9,9,Y","009900,1,N,1","+0290,1","+0040,1","99999,9",,,,,,"10149,1,99999,9",,,,"MET053METAR LEEC 211100Z 06009KT 020V080 CAVOK 29/04 Q1015;",
"08390599999","2010-05-21T12:00:00","4","37.3166666","-6.0","5.0","SEVILLA HELIPORT, SP","FM-15","LEEC ","V020","060,1,N,0026,1","99999,9,9,Y","009900,1,N,1","+0310,1","+0040,1","99999,9",,,,,,"10139,1,99999,9",,,,"MET053METAR LEEC 211200Z 06005KT 020V090 CAVOK 31/04 Q1014;",
"08390599999","2010-05-21T13:00:00","4","37.3166666","-6.0","5.0","SEVILLA HELIPORT, SP","FM-15","LEEC ","V020","110,1,N,0026,1","99999,9,9,Y","009900,1,N,1","+0310,1","+0080,1","99999,9",,,,,,"10129,1,99999,9",,,,"MET045METAR LEEC 211300Z 11005KT CAVOK 31/08 Q1013;",
"08390599999","2010-05-24T06:00:00","4","37.3166666","-6.0","5.0","SEVILLA HELIPORT, SP","FM-15","LEEC ","V020","270,1,N,0010,1","22000,1,9,N","009000,1,N,1","+0170,1","+0140,1","99999,9",,,,,"00,99,1,99,9,99,9,99999,9,99,9,99,9","10159,1,99999,9",,,,"MET048METAR LEEC 240600Z 27002KT 9000 NSC 17/14 Q1016;","Q01    003SCCGA1"
"08390599999","2010-05-24T07:00:00","4","37.3166666","-6.0","5.0","SEVILLA HELIPORT, SP","FM-15","LEEC ","V020","999,9,V,0010,1","22000,1,9,N","009000,1,N,1","+0170,1","+0140,1","99999,9","02,5,+00330,1,99,9",,,,"02,99,1,99,9,99,9,99999,9,99,9,99,9","10159,1,99999,9",,,,"MET051METAR LEEC 240700Z VRB02KT 9000 FEW011 17/14 Q1016;",
"08390599999","2010-05-24T08:00:00","4","37.3166666","-6.0","5.0","SEVILLA HELIPORT, SP","FM-15","LEEC ","V020","999,9,V,0010,1","22000,1,9,N","011265,1,N,1","+0190,1","+0140,1","99999,9","02,5,+00750,1,99,9",,,,"02,99,1,99,9,99,9,99999,9,99,9,99,9","10169,1,99999,9",,,,"MET051METAR LEEC 240800Z VRB02KT 9999 FEW025 19/14 Q1017;",
"08390599999","2010-05-24T09:00:00","4","37.3166666","-6.0","5.0","SEVILLA HELIPORT, SP","FM-15","LEEC ","V020","220,1,N,0036,1","22000,1,9,N","011265,1,N,1","+0200,1","+0140,1","99999,9","02,5,+00750,1,99,9",,,,"02,99,1,99,9,99,9,99999,9,99,9,99,9","10169,1,99999,9",,,,"MET059METAR LEEC 240900Z 22007KT 190V260 9999 FEW025 20/14 Q1017;",
"08390599999","2010-05-24T10:00:00","4","37.3166666","-6.0","5.0","SEVILLA HELIPORT, SP","FM-15","LEEC ","V020","230,1,N,0021,1","22000,1,9,N","011265,1,N,1","+0210,1","+0130,1","99999,9","02,5,+00750,1,99,9",,,,"02,99,1,99,9,99,9,99999,9,99,9,99,9","10169,1,99999,9",,,,"MET059METAR LEEC 241000Z 23004KT 170V290 9999 FEW025 21/13 Q1017;",
"08390599999","2010-05-24T11:00:00","4","37.3166666","-6.0","5.0","SEVILLA HELIPORT, SP","FM-15","LEEC ","V020","230,1,N,0021,1","22000,1,9,N","011265,1,N,1","+0230,1","+0120,1","99999,9","02,5,+00900,1,99,9",,,,"02,99,1,99,9,99,9,99999,9,99,9,99,9","10169,1,99999,9",,,,"MET059METAR LEEC 241100Z 23004KT 180V270 9999 FEW030 23/12 Q1017;",
"08390599999","2010-05-24T12:00:00","4","37.3166666","-6.0","5.0","SEVILLA HELIPORT, SP","FM-15","LEEC ","V020","200,1,N,0036,1","22000,1,9,N","011265,1,N,1","+0240,1","+0130,1","99999,9","04,5,+01350,1,99,9",,,,"04,99,1,99,9,99,9,99999,9,99,9,99,9","10159,1,99999,9",,,,"MET059METAR LEEC 241200Z 20007KT 150V260 9999 SCT045 24/13 Q1016;",
"08390599999","2010-05-24T13:00:00","4","37.3166666","-6.0","5.0","SEVILLA HELIPORT, SP","FM-15","LEEC ","V020","220,1,N,0046,1","22000,1,9,N","011265,1,N,1","+0240,1","+0150,1","99999,9","04,5,+01050,1,99,9",,,,"04,99,1,99,9,99,9,99999,9,99,9,99,9","10159,1,99999,9",,,,"MET051METAR LEEC 241300Z 22009KT 9999 SCT035 24/15 Q1016;",
"08390599999","2010-05-24T14:00:00","4","37.3166666","-6.0","5.0","SEVILLA HELIPORT, SP","FM-15","LEEC ","V020","220,1,N,0046,1","22000,1,9,N","011265,1,N,1","+0250,1","+0150,1","99999,9","04,5,+01350,1,99,9",,,,"04,99,1,99,9,99,9,99999,9,99,9,99,9","10149,1,99999,9",,,,"MET059METAR LEEC 241400Z 22009KT 200V260 9999 SCT045 25/15 Q1015;",
"08390599999","2010-05-25T06:00:00","4","37.3166666","-6.0","5.0","SEVILLA HELIPORT, SP","FM-15","LEEC ","V020","999,9,C,0000,1","99999,9,9,Y","009900,1,N,1","+0150,1","+0140,1","99999,9",,,,,,"10169,1,99999,9",,,,"MET045METAR LEEC 250600Z 00000KT CAVOK 15/14 Q1017;",
"08390599999","2010-05-25T07:00:00","4","37.3166666","-6.0","5.0","SEVILLA HELIPORT, SP","FM-15","LEEC ","V020","999,9,C,0000,1","22000,1,9,N","011265,1,N,1","+0190,1","+0150,1","99999,9","02,5,+00750,1,99,9",,,,"02,99,1,99,9,99,9,99999,9,99,9,99,9","10169,1,99999,9",,,,"MET051METAR LEEC 250700Z 00000KT 9999 FEW025 19/15 Q1017;",
"08390599999","2010-05-25T08:00:00","4","37.3166666","-6.0","5.0","SEVILLA HELIPORT, SP","FM-15","LEEC ","V020","999,9,V,0010,1","22000,1,9,N","011265,1,N,1","+0200,1","+0130,1","99999,9","02,5,+00900,1,99,9",,,,"02,99,1,99,9,99,9,99999,9,99,9,99,9","10180,1,99999,9",,,,"MET051METAR LEEC 250800Z VRB02KT 9999 FEW030 20/13 Q1018;",
"08390599999","2010-05-25T09:00:00","4","37.3166666","-6.0","5.0","SEVILLA HELIPORT, SP","FM-15","LEEC ","V020","999,9,V,0015,1","22000,1,9,N","011265,1,N,1","+0200,1","+0130,1","99999,9","02,5,+00900,1,99,9",,,,"02,99,1,99,9,99,9,99999,9,99,9,99,9","10180,1,99999,9",,,,"MET051METAR LEEC 250900Z VRB03KT 9999 FEW030 20/13 Q1018;",
"08390599999","2010-05-25T10:00:00","4","37.3166666","-6.0","5.0","SEVILLA HELIPORT, SP","FM-15","LEEC ","V020","999,9,V,0015,1","22000,1,9,N","011265,1,N,1","+0220,1","+0100,1","99999,9","02,5,+00900,1,99,9",,,,"02,99,1,99,9,99,9,99999,9,99,9,99,9","10180,1,99999,9",,,,"MET051METAR LEEC 251000Z VRB03KT 9999 FEW030 22/10 Q1018;",
"08390599999","2010-05-25T11:00:00","4","37.3166666","-6.0","5.0","SEVILLA HELIPORT, SP","FM-15","LEEC ","V020","210,1,N,0026,1","22000,1,9,N","011265,1,N,1","+0230,1","+0120,1","99999,9","02,5,+00900,1,99,9",,,,"02,99,1,99,9,99,9,99999,9,99,9,99,9","10180,1,99999,9",,,,"MET051METAR LEEC 251100Z 21005KT 9999 FEW030 23/12 Q1018;",
"08390599999","2010-05-25T12:00:00","4","37.3166666","-6.0","5.0","SEVILLA HELIPORT, SP","FM-15","LEEC ","V020","240,1,N,0026,1","22000,1,9,N","011265,1,N,1","+0230,1","+0130,1","99999,9","04,5,+01200,1,99,9",,,,"04,99,1,99,9,99,9,99999,9,99,9,99,9","10169,1,99999,9",,,,"MET059METAR LEEC 251200Z 24005KT 210V280 9999 SCT040 23/13 Q1017;",
"08390599999","2010-05-25T13:00:00","4","37.3166666","-6.0","5.0","SEVILLA HELIPORT, SP","FM-15","LEEC ","V020","200,1,N,0021,1","22000,1,9,N","011265,1,N,1","+0240,1","+0130,1","99999,9","04,5,+01380,1,99,9",,,,"04,99,1,99,9,99,9,99999,9,99,9,99,9","10169,1,99999,9",,,,"MET051METAR LEEC 251300Z 20004KT 9999 SCT046 24/13 Q1017;",
"08390599999","2010-05-25T14:00:00","4","37.3166666","-6.0","5.0","SEVILLA HELIPORT, SP","FM-15","LEEC ","V020","200,1,N,0041,1","22000,1,9,N","011265,1,N,1","+0240,1","+0140,1","99999,9","04,5,+01350,1,99,9",,,,"04,99,1,99,9,99,9,99999,9,99,9,99,9","10159,1,99999,9",,,,"MET051METAR LEEC 251400Z 20008KT 9999 SCT045 24/14 Q1016;",
"08390599999","2010-05-26T06:00:00","4","37.3166666","-6.0","5.0","SEVILLA HELIPORT, SP","FM-15","LEEC ","V020","999,9,C,0000,1","99999,9,9,Y","009900,1,N,1","+0160,1","+0150,1","99999,9",,,,,,"10139,1,99999,9",,,,"MET045METAR LEEC 260600Z 00000KT CAVOK 16/15 Q1014;",
"08390599999","2010-05-26T07:00:00","4","37.3166666","-6.0","5.0","SEVILLA HELIPORT, SP","FM-15","LEEC ","V020","999,9,C,0000,1","99999,9,9,Y","009900,1,N,1","+0180,1","+0160,1","99999,9",,,,,,"10149,1,99999,9",,,,"MET045METAR LEEC 260700Z 00000KT CAVOK 18/16 Q1015;",
"08390599999","2010-05-26T09:00:00","4","37.3166666","-6.0","5.0","SEVILLA HELIPORT, SP","FM-15","LEEC ","V020","999,9,V,0015,1","22000,1,9,N","011265,1,N,1","+0220,1","+0140,1","99999,9","02,5,+01350,1,99,9",,,,"02,99,1,99,9,99,9,99999,9,99,9,99,9","10149,1,99999,9",,,,"MET051METAR LEEC 260900Z VRB03KT 9999 FEW045 22/14 Q1015;",
"08390599999","2010-05-26T10:00:00","4","37.3166666","-6.0","5.0","SEVILLA HELIPORT, SP","FM-15","LEEC ","V020","999,9,V,0015,1","99999,9,9,Y","009900,1,N,1","+0230,1","+0130,1","99999,9",,,,,,"10139,1,99999,9",,,,"MET045METAR LEEC 261000Z VRB03KT CAVOK 23/13 Q1014;",
"08390599999","2010-05-26T11:00:00","4","37.3166666","-6.0","5.0","SEVILLA HELIPORT, SP","FM-15","LEEC ","V020","999,9,V,0010,1","22000,1,9,N","011265,1,N,1","+0250,1","+0120,1","99999,9","02,5,+01200,1,99,9",,,,"02,99,1,99,9,99,9,99999,9,99,9,99,9","10139,1,99999,9",,,,"MET051METAR LEEC 261100Z VRB02KT 9999 FEW040 25/12 Q1014;",
"08390599999","2010-05-26T12:00:00","4","37.3166666","-6.0","5.0","SEVILLA HELIPORT, SP","FM-15","LEEC ","V020","999,9,V,0015,1","22000,1,9,N","011265,1,N,1","+0250,1","+0120,1","99999,9","02,5,+01350,1,99,9",,,,"02,99,1,99,9,99,9,99999,9,99,9,99,9","10139,1,99999,9",,,,"MET051METAR LEEC 261200Z VRB03KT 9999 FEW045 25/12 Q1014;",
"08390599999","2010-05-26T13:00:00","4","37.3166666","-6.0","5.0","SEVILLA HELIPORT, SP","FM-15","LEEC ","V020","999,9,V,0015,1","99999,9,9,Y","009900,1,N,1","+0270,1","+0120,1","99999,9",,,,,,"10129,1,99999,9",,,,"MET045METAR LEEC 261300Z VRB03KT CAVOK 27/12 Q1013;",
"08390599999","2010-05-26T14:00:00","4","37.3166666","-6.0","5.0","SEVILLA HELIPORT, SP","FM-15","LEEC ","V020","999,9,V,0015,1","22000,1,9,N","011265,1,N,1","+0280,1","+0120,1","99999,9","02,5,+01350,1,99,9",,,,"02,99,1,99,9,99,9,99999,9,99,9,99,9","10119,1,99999,9",,,,"MET051METAR LEEC 261400Z VRB03KT 9999 FEW045 28/12 Q1012;",
"08390599999","2010-05-27T06:00:00","4","37.3166666","-6.0","5.0","SEVILLA HELIPORT, SP","FM-15","LEEC ","V020","999,9,C,0000,1","99999,9,9,Y","009900,1,N,1","+0160,1","+0150,1","99999,9",,,,,,"10119,1,99999,9",,,,"MET045METAR LEEC 270600Z 00000KT CAVOK 16/15 Q1012;",
"08390599999","2010-05-27T07:00:00","4","37.3166666","-6.0","5.0","SEVILLA HELIPORT, SP","FM-15","LEEC ","V020","999,9,V,0010,1","99999,9,9,Y","009900,1,N,1","+0170,1","+0150,1","99999,9",,,,,,"10119,1,99999,9",,,,"MET045METAR LEEC 270700Z VRB02KT CAVOK 17/15 Q1012;",
"08390599999","2010-05-27T08:00:00","4","37.3166666","-6.0","5.0","SEVILLA HELIPORT, SP","FM-15","LEEC ","V020","999,9,V,0015,1","99999,9,9,Y","009900,1,N,1","+0190,1","+0160,1","99999,9",,,,,,"10129,1,99999,9",,,,"MET045METAR LEEC 270800Z VRB03KT CAVOK 19/16 Q1013;",
"08390599999","2010-05-27T09:00:00","4","37.3166666","-6.0","5.0","SEVILLA HELIPORT, SP","FM-15","LEEC ","V020","999,9,V,0005,1","99999,9,9,Y","009900,1,N,1","+0230,1","+0140,1","99999,9",,,,,,"10129,1,99999,9",,,,"MET045METAR LEEC 270900Z VRB01KT CAVOK 23/14 Q1013;",
"08390599999","2010-05-27T10:00:00","4","37.3166666","-6.0","5.0","SEVILLA HELIPORT, SP","FM-15","LEEC ","V020","230,1,N,0021,1","22000,1,9,N","011265,1,N,1","+0220,1","+0140,1","99999,9","02,5,+01350,1,99,9",,,,"02,99,1,99,9,99,9,99999,9,99,9,99,9","10129,1,99999,9",,,,"MET051METAR LEEC 271000Z 23004KT 9999 FEW045 22/14 Q1013;",
"08390599999","2010-05-27T11:00:00","4","37.3166666","-6.0","5.0","SEVILLA HELIPORT, SP","FM-15","LEEC ","V020","220,1,N,0041,1","22000,1,9,N","011265,1,N,1","+0250,1","+0140,1","99999,9","02,5,+01350,1,99,9",,,,"02,99,1,99,9,99,9,99999,9,99,9,99,9","10129,1,99999,9",,,,"MET059METAR LEEC 271100Z 22008KT 180V260 9999 FEW045 25/14 Q1013;",
"08390599999","2010-05-27T12:00:00","4","37.3166666","-6.0","5.0","SEVILLA HELIPORT, SP","FM-15","LEEC ","V020","210,1,N,0062,1","22000,1,9,N","011265,1,N,1","+0250,1","+0150,1","99999,9","04,5,+01200,1,99,9",,,,"04,99,1,99,9,99,9,99999,9,99,9,99,9","10129,1,99999,9",,,,"MET051METAR LEEC 271200Z 21012KT 9999 SCT040 25/15 Q1013;",
"08390599999","2010-05-27T13:00:00","4","37.3166666","-6.0","5.0","SEVILLA HELIPORT, SP","FM-15","LEEC ","V020","250,1,N,0041,1","99999,9,C,N","011265,1,N,1","+0250,1","+0110,1","99999,9","02,5,+01200,1,02,1","04,5,+01350,1,99,9",,,"04,99,1,99,9,99,9,99999,9,99,9,99,9","10129,1,99999,9",,,,"MET069METAR LEEC 271300Z 25008KT 220V280 9999 FEW040TCU SCT045 25/11 Q1013;","P01 013503SCOCIG"
"08390599999","2010-05-27T14:00:00","4","37.3166666","-6.0","5.0","SEVILLA HELIPORT, SP","FM-15","LEEC ","V020","250,1,N,0057,1","99999,9,C,N","011265,1,N,1","+0260,1","+0100,1","99999,9","02,5,+01200,1,02,1","04,5,+01440,1,99,9",,,"04,99,1,99,9,99,9,99999,9,99,9,99,9","10119,1,99999,9",,,,"MET069METAR LEEC 271400Z 25011KT 220V280 9999 FEW040TCU SCT048 26/10 Q1012;","P01 014403SCOCIG"
"08390599999","2010-05-28T06:00:00","4","37.3166666","-6.0","5.0","SEVILLA HELIPORT, SP","FM-15","LEEC ","V020","270,1,N,0015,1","99999,9,9,Y","009900,1,N,1","+0160,1","+0120,1","99999,9",,,,,,"10169,1,99999,9",,,,"MET045METAR LEEC 280600Z 27003KT CAVOK 16/12 Q1017;",
"08390599999","2010-05-28T07:00:00","4","37.3166666","-6.0","5.0","SEVILLA HELIPORT, SP","FM-15","LEEC ","V020","250,1,N,0015,1","99999,9,9,Y","009900,1,N,1","+0170,1","+0120,1","99999,9",,,,,,"10169,1,99999,9",,,,"MET045METAR LEEC 280700Z 25003KT CAVOK 17/12 Q1017;",
"08390599999","2010-05-28T08:00:00","4","37.3166666","-6.0","5.0","SEVILLA HELIPORT, SP","FM-15","LEEC ","V020","999,9,V,0015,1","22000,1,9,N","011265,1,N,1","+0190,1","+0120,1","99999,9","02,5,+00930,1,99,9",,,,"02,99,1,99,9,99,9,99999,9,99,9,99,9","10169,1,99999,9",,,,"MET051METAR LEEC 280800Z VRB03KT 9999 FEW031 19/12 Q1017;",
"08390599999","2010-05-28T09:00:00","4","37.3166666","-6.0","5.0","SEVILLA HELIPORT, SP","FM-15","LEEC ","V020","290,1,N,0026,1","22000,1,9,N","011265,1,N,1","+0200,1","+0110,1","99999,9","04,5,+01080,1,99,9",,,,"04,99,1,99,9,99,9,99999,9,99,9,99,9","10169,1,99999,9",,,,"MET059METAR LEEC 280900Z 29005KT 260V340 9999 SCT036 20/11 Q1017;",
"08390599999","2010-05-28T10:00:00","4","37.3166666","-6.0","5.0","SEVILLA HELIPORT, SP","FM-15","LEEC ","V020","999,9,V,0015,1","22000,1,9,N","011265,1,N,1","+0220,1","+0110,1","99999,9","04,5,+01200,1,99,9",,,,"04,99,1,99,9,99,9,99999,9,99,9,99,9","10169,1,99999,9",,,,"MET051METAR LEEC 281000Z VRB03KT 9999 SCT040 22/11 Q1017;",
"08390599999","2010-05-28T11:00:00","4","37.3166666","-6.0","5.0","SEVILLA HELIPORT, SP","FM-15","LEEC ","V020","320,1,N,0021,1","22000,1,9,N","011265,1,N,1","+0230,1","+0100,1","99999,9","04,5,+01440,1,99,9",,,,"04,99,1,99,9,99,9,99999,9,99,9,99,9","10169,1,99999,9",,,,"MET051METAR LEEC 281100Z 32004KT 9999 SCT048 23/10 Q1017;",
"08390599999","2010-05-28T12:00:00","4","37.3166666","-6.0","5.0","SEVILLA HELIPORT, SP","FM-15","LEEC ","V020","999,9,V,0015,1","22000,1,9,N","011265,1,N,1","+0240,1","+0100,1","99999,9","02,5,+01350,1,02,1",,,,"02,99,1,99,9,99,9,99999,9,99,9,99,9","10169,1,99999,9",,,,"MET054METAR LEEC 281200Z VRB03KT 9999 FEW045TCU 24/10 Q1017;",
"08390599999","2010-05-31T06:00:00","4","37.3166666","-6.0","5.0","SEVILLA HELIPORT, SP","FM-15","LEEC ","V020","999,9,V,0005,1","99999,9,9,Y","009900,1,N,1","+0200,1","+0140,1","99999,9",,,,,,"10200,1,99999,9",,,,"MET045METAR LEEC 310600Z VRB01KT CAVOK 20/14 Q1020;",
"08390599999","2010-05-31T07:00:00","4","37.3166666","-6.0","5.0","SEVILLA HELIPORT, SP","FM-15","LEEC ","V020","999,9,V,0010,1","99999,9,9,Y","009900,1,N,1","+0220,1","+0150,1","99999,9",,,,,,"10200,1,99999,9",,,,"MET045METAR LEEC 310700Z VRB02KT CAVOK 22/15 Q1020;",
"08390599999","2010-05-31T07:37:00","4","37.3166666","-6.0","5.0","SEVILLA HELIPORT, SP","FM-16","LEEC ","V020","040,1,N,0026,1","99999,9,9,Y","009900,1,N,1","+0250,1","+0140,1","99999,9",,,,,,"10200,1,99999,9",,,,"MET045SPECI LEEC 310737Z 04005KT CAVOK 25/14 Q1020;",
"08390599999","2010-05-31T08:00:00","4","37.3166666","-6.0","5.0","SEVILLA HELIPORT, SP","FM-15","LEEC ","V020","010,1,N,0021,1","99999,9,9,Y","009900,1,N,1","+0260,1","+0130,1","99999,9",,,,,,"10200,1,99999,9",,,,"MET053METAR LEEC 310800Z 01004KT 330V050 CAVOK 26/13 Q1020;",
"08390599999","2010-05-31T09:00:00","4","37.3166666","-6.0","5.0","SEVILLA HELIPORT, SP","FM-15","LEEC ","V020","040,1,N,0026,1","99999,9,9,Y","009900,1,N,1","+0280,1","+0130,1","99999,9",,,,,,"10200,1,99999,9",,,,"MET053METAR LEEC 310900Z 04005KT 360V070 CAVOK 28/13 Q1020;",
"08390599999","2010-05-31T09:40:00","4","37.3166666","-6.0","5.0","SEVILLA HELIPORT, SP","FM-16","LEEC ","V020","040,1,N,0021,1","99999,9,9,Y","009900,1,N,1","+0300,1","+0130,1","99999,9",,,,,,"10190,1,99999,9",,,,"MET053SPECI LEEC 310940Z 04004KT 350V100 CAVOK 30/13 Q1019;",
"08390599999","2010-05-31T10:00:00","4","37.3166666","-6.0","5.0","SEVILLA HELIPORT, SP","FM-15","LEEC ","V020","050,1,N,0021,1","99999,9,9,Y","009900,1,N,1","+0300,1","+0130,1","99999,9",,,,,,"10190,1,99999,9",,,,"MET053METAR LEEC 311000Z 05004KT 360V090 CAVOK 30/13 Q1019;",
"08390599999","2010-05-31T10:33:00","4","37.3166666","-6.0","5.0","SEVILLA HELIPORT, SP","FM-16","LEEC ","V020","999,9,V,0015,1","99999,9,9,Y","009900,1,N,1","+0320,1","+0120,1","99999,9",,,,,,"10190,1,99999,9",,,,"MET045SPECI LEEC 311033Z VRB03KT CAVOK 32/12 Q1019;",
"08390599999","2010-05-31T11:00:00","4","37.3166666","-6.0","5.0","SEVILLA HELIPORT, SP","FM-15","LEEC ","V020","999,9,V,0010,1","99999,9,9,Y","009900,1,N,1","+0330,1","+0120,1","99999,9",,,,,,"10190,1,99999,9",,,,"MET045METAR LEEC 311100Z VRB02KT CAVOK 33/12 Q1019;",
"08390599999","2010-05-31T12:00:00","4","37.3166666","-6.0","5.0","SEVILLA HELIPORT, SP","FM-15","LEEC ","V020","999,9,V,0015,1","99999,9,9,Y","009900,1,N,1","+0340,1","+0110,1","99999,9",,,,,,"10180,1,99999,9",,,,"MET045METAR LEEC 311200Z VRB03KT CAVOK 34/11 Q1018;",
"08390599999","2010-05-31T13:00:00","4","37.3166666","-6.0","5.0","SEVILLA HELIPORT, SP","FM-15","LEEC ","V020","999,9,V,0015,1","99999,9,9,Y","009900,1,N,1","+0360,1","+0100,1","99999,9",,,,,,"10169,1,99999,9",,,,"MET045METAR LEEC 311300Z VRB03KT CAVOK 36/10 Q1017;",
"08390599999","2010-05-31T14:00:00","4","37.3166666","-6.0","5.0","SEVILLA HELIPORT, SP","FM-15","LEEC ","V020","230,1,N,0021,1","99999,9,9,Y","009900,1,N,1","+0360,1","+0080,1","99999,9",,,,,,"10169,1,99999,9",,,,"MET045METAR LEEC 311400Z 23004KT CAVOK 36/08 Q1017;",
"08390599999","2010-05-31T15:00:00","4","37.3166666","-6.0","5.0","SEVILLA HELIPORT, SP","FM-15","LEEC ","V020","040,1,N,0031,1","99999,9,9,Y","009900,1,N,1","+0360,1","+0080,1","99999,9",,,,,,"10159,1,99999,9",,,,"MET045METAR LEEC 311500Z 04006KT CAVOK 36/08 Q1016;",
"08390599999","2010-06-01T06:00:00","4","37.3166666","-6.0","5.0","SEVILLA HELIPORT, SP","FM-15","LEEC ","V020","999,9,C,0000,1","99999,9,9,Y","009900,1,N,1","+0210,1","+0160,1","99999,9",,,,,,"10139,1,99999,9",,,,"MET045METAR LEEC 010600Z 00000KT CAVOK 21/16 Q1014;",
"08390599999","2010-06-01T07:00:00","4","37.3166666","-6.0","5.0","SEVILLA HELIPORT, SP","FM-15","LEEC ","V020","999,9,V,0010,1","99999,9,9,Y","009900,1,N,1","+0240,1","+0150,1","99999,9",,,,,,"10149,1,99999,9",,,,"MET045METAR LEEC 010700Z VRB02KT CAVOK 24/15 Q1015;",
"08390599999","2010-06-01T07:31:00","4","37.3166666","-6.0","5.0","SEVILLA HELIPORT, SP","FM-16","LEEC ","V020","999,9,V,0010,1","99999,9,9,Y","009900,1,N,1","+0260,1","+0140,1","99999,9",,,,,,"10149,1,99999,9",,,,"MET045SPECI LEEC 010731Z VRB02KT CAVOK 26/14 Q1015;",
"08390599999","2010-06-01T08:00:00","4","37.3166666","-6.0","5.0","SEVILLA HELIPORT, SP","FM-15","LEEC ","V020","999,9,V,0015,1","99999,9,9,Y","009900,1,N,1","+0270,1","+0130,1","99999,9",,,,,,"10149,1,99999,9",,,,"MET045METAR LEEC 010800Z VRB03KT CAVOK 27/13 Q1015;",
"08390599999","2010-06-01T08:29:00","4","37.3166666","-6.0","5.0","SEVILLA HELIPORT, SP","FM-16","LEEC ","V020","999,9,V,0015,1","99999,9,9,Y","009900,1,N,1","+0290,1","+0130,1","99999,9",,,,,,"10149,1,99999,9",,,,"MET045SPECI LEEC 010829Z VRB03KT CAVOK 29/13 Q1015;",
"08390599999","2010-06-01T09:00:00","4","37.3166666","-6.0","5.0","SEVILLA HELIPORT, SP","FM-15","LEEC ","V020","999,9,V,0015,1","99999,9,9,Y","009900,1,N,1","+0300,1","+0130,1","99999,9",,,,,,"10149,1,99999,9",,,,"MET045METAR LEEC 010900Z VRB03KT CAVOK 30/13 Q1015;",
"08390599999","2010-06-01T09:40:00","4","37.3166666","-6.0","5.0","SEVILLA HELIPORT, SP","FM-16","LEEC ","V020","999,9,V,0015,1","99999,9,9,Y","009900,1,N,1","+0320,1","+0120,1","99999,9",,,,,,"10139,1,99999,9",,,,"MET045SPECI LEEC 010940Z VRB03KT CAVOK 32/12 Q1014;",
"08390599999","2010-06-01T10:00:00","4","37.3166666","-6.0","5.0","SEVILLA HELIPORT, SP","FM-15","LEEC ","V020","999,9,V,0010,1","99999,9,9,Y","009900,1,N,1","+0330,1","+0120,1","99999,9",,,,,,"10139,1,99999,9",,,,"MET045METAR LEEC 011000Z VRB02KT CAVOK 33/12 Q1014;",
"08390599999","2010-06-01T10:37:00","4","37.3166666","-6.0","5.0","SEVILLA HELIPORT, SP","FM-16","LEEC ","V020","999,9,V,0010,1","99999,9,9,Y","009900,1,N,1","+0350,1","+0110,1","99999,9",,,,,,"10139,1,99999,9",,,,"MET045SPECI LEEC 011037Z VRB02KT CAVOK 35/11 Q1014;",
"08390599999","2010-06-01T11:00:00","4","37.3166666","-6.0","5.0","SEVILLA HELIPORT, SP","FM-15","LEEC ","V020","999,9,V,0010,1","99999,9,9,Y","009900,1,N,1","+0350,1","+0110,1","99999,9",,,,,,"10139,1,99999,9",,,,"MET045METAR LEEC 011100Z VRB02KT CAVOK 35/11 Q1014;",
"08390599999","2010-06-01T12:00:00","4","37.3166666","-6.0","5.0","SEVILLA HELIPORT, SP","FM-15","LEEC ","V020","999,9,V,0015,1","99999,9,9,Y","009900,1,N,1","+0360,1","+0110,1","99999,9",,,,,,"10139,1,99999,9",,,,"MET045METAR LEEC 011200Z VRB03KT CAVOK 36/11 Q1014;",
"08390599999","2010-06-01T13:00:00","4","37.3166666","-6.0","5.0","SEVILLA HELIPORT, SP","FM-15","LEEC ","V020","999,9,V,0005,1","99999,9,9,Y","009900,1,N,1","+0380,1","+0090,1","99999,9",,,,,,"10129,1,99999,9",,,,"MET045METAR LEEC 011300Z VRB01KT CAVOK 38/09 Q1013;",
"08390599999","2010-06-01T14:00:00","4","37.3166666","-6.0","5.0","SEVILLA HELIPORT, SP","FM-15","LEEC ","V020","210,1,N,0036,1","99999,9,9,Y","009900,1,N,1","+0370,1","+0120,1","99999,9",,,,,,"10129,1,99999,9",,,,"MET053METAR LEEC 011400Z 21007KT 170V230 CAVOK 37/12 Q1013;",
"08390599999","2010-06-02T06:00:00","4","37.3166666","-6.0","5.0","SEVILLA HELIPORT, SP","FM-15","LEEC ","V020","999,9,C,0000,1","99999,9,9,Y","009900,1,N,1","+0190,1","+0160,1","99999,9",,,,,,"10119,1,99999,9",,,,"MET045METAR LEEC 020600Z 00000KT CAVOK 19/16 Q1012;",
"08390599999","2010-06-02T06:35:00","4","37.3166666","-6.0","5.0","SEVILLA HELIPORT, SP","FM-16","LEEC ","V020","999,9,C,0000,1","99999,9,9,Y","009900,1,N,1","+0210,1","+0170,1","99999,9",,,,,,"10119,1,99999,9",,,,"MET045SPECI LEEC 020635Z 00000KT CAVOK 21/17 Q1012;",
"08390599999","2010-06-02T07:00:00","4","37.3166666","-6.0","5.0","SEVILLA HELIPORT, SP","FM-15","LEEC ","V020","999,9,C,0000,1","22000,1,9,N","008000,1,N,1","+0230,1","+0160,1","99999,9",,,,,"00,99,1,99,9,99,9,99999,9,99,9,99,9","10119,1,99999,9",,,,"MET048METAR LEEC 020700Z 00000KT 8000 NSC 23/16 Q1012;","Q01    003SCCGA1"
"08390599999","2010-06-02T08:00:00","4","37.3166666","-6.0","5.0","SEVILLA HELIPORT, SP","FM-15","LEEC ","V020","210,1,N,0021,1","99999,9,9,Y","009900,1,N,1","+0240,1","+0180,1","99999,9",,,,,,"10119,1,99999,9",,,,"MET053METAR LEEC 020800Z 21004KT 170V240 CAVOK 24/18 Q1012;",
"08390599999","2010-06-02T08:28:00","4","37.3166666","-6.0","5.0","SEVILLA HELIPORT, SP","FM-16","LEEC ","V020","210,1,N,0026,1","99999,9,9,Y","009900,1,N,1","+0260,1","+0160,1","99999,9",,,,,,"10119,1,99999,9",,,,"MET053SPECI LEEC 020828Z 21005KT 170V240 CAVOK 26/16 Q1012;",
"08390599999","2010-06-02T09:00:00","4","37.3166666","-6.0","5.0","SEVILLA HELIPORT, SP","FM-15","LEEC ","V020","190,1,N,0026,1","99999,9,9,Y","009900,1,N,1","+0270,1","+0170,1","99999,9",,,,,,"10119,1,99999,9",,,,"MET053METAR LEEC 020900Z 19005KT 160V240 CAVOK 27/17 Q1012;",
"08390599999","2010-06-02T10:00:00","4","37.3166666","-6.0","5.0","SEVILLA HELIPORT, SP","FM-15","LEEC ","V020","210,1,N,0036,1","99999,9,9,Y","009900,1,N,1","+0280,1","+0170,1","99999,9",,,,,,"10119,1,99999,9",,,,"MET045METAR LEEC 021000Z 21007KT CAVOK 28/17 Q1012;",
"08390599999","2010-06-02T11:00:00","4","37.3166666","-6.0","5.0","SEVILLA HELIPORT, SP","FM-15","LEEC ","V020","210,1,N,0031,1","99999,9,9,Y","009900,1,N,1","+0290,1","+0190,1","99999,9",,,,,,"10119,1,99999,9",,,,"MET053METAR LEEC 021100Z 21006KT 170V240 CAVOK 29/19 Q1012;",
"08390599999","2010-06-02T12:00:00","4","37.3166666","-6.0","5.0","SEVILLA HELIPORT, SP","FM-15","LEEC ","V020","210,1,N,0036,1","99999,9,9,Y","009900,1,N,1","+0310,1","+0180,1","99999,9",,,,,,"10119,1,99999,9",,,,"MET053METAR LEEC 021200Z 21007KT 180V240 CAVOK 31/18 Q1012;",
"08390599999","2010-06-02T13:00:00","4","37.3166666","-6.0","5.0","SEVILLA HELIPORT, SP","FM-15","LEEC ","V020","210,1,N,0041,1","99999,9,9,Y","009900,1,N,1","+0320,1","+0180,1","99999,9",,,,,,"10108,1,99999,9",,,,"MET045METAR LEEC 021300Z 21008KT CAVOK 32/18 Q1011;",
"08390599999","2010-06-04T06:00:00","4","37.3166666","-6.0","5.0","SEVILLA HELIPORT, SP","FM-15","LEEC ","V020","999,9,V,0010,1","00210,1,C,N","006000,1,N,1","+0190,1","+0180,1","99999,9","08,5,+00210,1,99,9",,,,"08,99,1,99,9,99,9,99999,9,99,9,99,9","10159,1,99999,9",,,,"MET051METAR LEEC 040600Z VRB02KT 6000 OVC007 19/18 Q1016;",
"08390599999","2010-06-04T07:00:00","4","37.3166666","-6.0","5.0","SEVILLA HELIPORT, SP","FM-15","LEEC ","V020","220,1,N,0026,1","00180,1,C,N","006000,1,N,1","+0190,1","+0180,1","99999,9","08,5,+00180,1,99,9",,,,"08,99,1,99,9,99,9,99999,9,99,9,99,9","10169,1,99999,9",,,,"MET059METAR LEEC 040700Z 22005KT 180V240 6000 OVC006 19/18 Q1017;",
"08390599999","2010-06-04T08:00:00","4","37.3166666","-6.0","5.0","SEVILLA HELIPORT, SP","FM-15","LEEC ","V020","230,1,N,0021,1","00180,1,C,N","007000,1,N,1","+0200,1","+0180,1","99999,9","08,5,+00180,1,99,9",,,,"08,99,1,99,9,99,9,99999,9,99,9,99,9","10169,1,99999,9",,,,"MET051METAR LEEC 040800Z 23004KT 7000 OVC006 20/18 Q1017;",
"08390599999","2010-06-04T09:00:00","4","37.3166666","-6.0","5.0","SEVILLA HELIPORT, SP","FM-15","LEEC ","V020","999,9,V,0015,1","00270,1,C,N","007000,1,N,1","+0210,1","+0180,1","99999,9","08,5,+00270,1,99,9",,,,"08,99,1,99,9,99,9,99999,9,99,9,99,9","10169,1,99999,9",,,,"MET051METAR LEEC 040900Z VRB03KT 7000 OVC009 21/18 Q1017;",
"08390599999","2010-06-04T10:00:00","4","37.3166666","-6.0","5.0","SEVILLA HELIPORT, SP","FM-15","LEEC ","V020","200,1,N,0021,1","22000,1,9,N","011265,1,N,1","+0230,1","+0190,1","99999,9","02,5,+00360,1,99,9",,,,"02,99,1,99,9,99,9,99999,9,99,9,99,9","10169,1,99999,9",,,,"MET059METAR LEEC 041000Z 20004KT 140V240 9999 FEW012 23/19 Q1017;",
"08390599999","2010-06-04T11:00:00","4","37.3166666","-6.0","5.0","SEVILLA HELIPORT, SP","FM-15","LEEC ","V020","210,1,N,0026,1","99999,9,9,Y","009900,1,N,1","+0250,1","+0190,1","99999,9",,,,,,"10169,1,99999,9",,,,"MET053METAR LEEC 041100Z 21005KT 140V250 CAVOK 25/19 Q1017;",
"08390599999","2010-06-04T12:00:00","4","37.3166666","-6.0","5.0","SEVILLA HELIPORT, SP","FM-15","LEEC ","V020","200,1,N,0026,1","99999,9,9,Y","009900,1,N,1","+0270,1","+0180,1","99999,9",,,,,,"10159,1,99999,9",,,,"MET053METAR LEEC 041200Z 20005KT 160V260 CAVOK 27/18 Q1016;",
"08390599999","2010-06-04T13:00:00","4","37.3166666","-6.0","5.0","SEVILLA HELIPORT, SP","FM-15","LEEC ","V020","190,1,N,0031,1","99999,9,9,Y","009900,1,N,1","+0290,1","+0160,1","99999,9",,,,,,"10159,1,99999,9",,,,"MET053METAR LEEC 041300Z 19006KT 140V220 CAVOK 29/16 Q1016;",
"08390599999","2010-06-07T06:00:00","4","37.3166666","-6.0","5.0","SEVILLA HELIPORT, SP","FM-15","LEEC ","V020","120,1,N,0015,1","00270,1,C,N","011265,1,N,1","+0180,1","+0160,1","99999,9","07,5,+00270,1,99,9",,,,"07,99,1,99,9,99,9,99999,9,99,9,99,9","10159,1,99999,9",,,,"MET051METAR LEEC 070600Z 12003KT 9999 BKN009 18/16 Q1016;",
"08390599999","2010-06-07T07:00:00","4","37.3166666","-6.0","5.0","SEVILLA HELIPORT, SP","FM-15","LEEC ","V020","130,1,N,0021,1","00240,1,C,N","009000,1,N,1","+0190,1","+0160,1","99999,9","07,5,+00240,1,99,9",,,,"07,99,1,99,9,99,9,99999,9,99,9,99,9","10159,1,99999,9",,,,"MET051METAR LEEC 070700Z 13004KT 9000 BKN008 19/16 Q1016;",
"08390599999","2010-06-07T08:00:00","4","37.3166666","-6.0","5.0","SEVILLA HELIPORT, SP","FM-15","LEEC ","V020","190,1,N,0026,1","22000,1,9,N","011265,1,N,1","+0210,1","+0170,1","99999,9","04,5,+00360,1,99,9",,,,"04,99,1,99,9,99,9,99999,9,99,9,99,9","10159,1,99999,9",,,,"MET059METAR LEEC 070800Z 19005KT 140V220 9999 SCT012 21/17 Q1016;",
"08390599999","2010-06-07T09:00:00","4","37.3166666","-6.0","5.0","SEVILLA HELIPORT, SP","FM-15","LEEC ","V020","200,1,N,0031,1","22000,1,9,N","011265,1,N,1","+0230,1","+0180,1","99999,9","04,5,+00540,1,99,9",,,,"04,99,1,99,9,99,9,99999,9,99,9,99,9","10159,1,99999,9",,,,"MET059METAR LEEC 070900Z 20006KT 160V250 9999 SCT018 23/18 Q1016;",
"08390599999","2010-10-08T06:00:00","4","37.3166666","-6.0","5.0","SEVILLA HELIPORT, SP","FM-15","LEEC ","V020","060,1,N,0015,1","99999,9,9,Y","009900,1,N,1","+0150,1","+0140,1","99999,9",,,,,,"10119,1,99999,9",,,,"MET045METAR LEEC 080600Z 06003KT CAVOK 15/14 Q1012;",
"08390599999","2010-10-08T07:00:00","4","37.3166666","-6.0","5.0","SEVILLA HELIPORT, SP","FM-15","LEEC ","V020","999,9,V,0005,1","99999,9,9,Y","009900,1,N,1","+0160,1","+0140,1","99999,9",,,,,,"10119,1,99999,9",,,,"MET045METAR LEEC 080700Z VRB01KT CAVOK 16/14 Q1012;",
"08390599999","2010-10-08T08:00:00","4","37.3166666","-6.0","5.0","SEVILLA HELIPORT, SP","FM-15","LEEC ","V020","050,1,N,0015,1","99999,9,9,Y","009900,1,N,1","+0170,1","+0150,1","99999,9",,,,,,"10129,1,99999,9",,,,"MET045METAR LEEC 080800Z 05003KT CAVOK 17/15 Q1013;",
"08390599999","2010-10-08T09:00:00","4","37.3166666","-6.0","5.0","SEVILLA HELIPORT, SP","FM-15","LEEC ","V020","999,9,V,0010,1","99999,9,9,Y","009900,1,N,1","+0190,1","+0150,1","99999,9",,,,,,"10129,1,99999,9",,,,"MET045METAR LEEC 080900Z VRB02KT CAVOK 19/15 Q1013;",
"08390599999","2010-10-08T10:00:00","4","37.3166666","-6.0","5.0","SEVILLA HELIPORT, SP","FM-15","LEEC ","V020","170,1,N,0026,1","99999,9,9,Y","009900,1,N,1","+0220,1","+0160,1","99999,9",,,,,,"10119,1,99999,9",,,,"MET053METAR LEEC 081000Z 17005KT 130V210 CAVOK 22/16 Q1012;",
"08390599999","2010-10-08T11:00:00","4","37.3166666","-6.0","5.0","SEVILLA HELIPORT, SP","FM-15","LEEC ","V020","180,1,N,0046,1","99999,9,9,Y","009900,1,N,1","+0250,1","+0160,1","99999,9",,,,,,"10119,1,99999,9",,,,"MET053METAR LEEC 081100Z 18009KT 150V220 CAVOK 25/16 Q1012;",
"08390599999","2010-10-08T12:00:00","4","37.3166666","-6.0","5.0","SEVILLA HELIPORT, SP","FM-15","LEEC ","V020","210,1,N,0067,1","99999,9,9,Y","009900,1,N,1","+0260,1","+0150,1","99999,9",,,,,,"10119,1,99999,9",,,,"MET053METAR LEEC 081200Z 21013KT 180V240 CAVOK 26/15 Q1012;",
"08390599999","2010-10-08T13:00:00","4","37.3166666","-6.0","5.0","SEVILLA HELIPORT, SP","FM-15","LEEC ","V020","210,1,N,0067,1","99999,9,9,Y","009900,1,N,1","+0270,1","+0150,1","99999,9",,,,,,"10108,1,99999,9",,,,"MET045METAR LEEC 081300Z 21013KT CAVOK 27/15 Q1011;",
"08390599999","2010-10-11T06:00:00","4","37.3166666","-6.0","5.0","SEVILLA HELIPORT, SP","FM-15","LEEC ","V020","999,9,V,0015,1","22000,1,9,N","011265,1,N,1","+0150,1","+0140,1","99999,9","02,5,+00600,1,99,9",,,,"02,99,1,99,9,99,9,99999,9,99,9,99,9","10000,1,99999,9",,,,"MET051METAR LEEC 110600Z VRB03KT 9999 FEW020 15/14 Q1000;",
"08390599999","2010-10-11T07:00:00","4","37.3166666","-6.0","5.0","SEVILLA HELIPORT, SP","FM-15","LEEC ","V020","999,9,V,0010,1","00150,1,C,N","002000,1,N,1","+0150,1","+0140,1","99999,9","07,5,+00150,1,99,9",,,,"07,99,1,99,9,99,9,99999,9,99,9,99,9","10000,1,99999,9","10,1",,,"MET054METAR LEEC 110700Z VRB02KT 2000 BR BKN005 15/14 Q1000;",
"08390599999","2010-10-11T08:00:00","4","37.3166666","-6.0","5.0","SEVILLA HELIPORT, SP","FM-15","LEEC ","V020","030,1,N,0036,1","22000,1,9,N","011265,1,N,1","+0160,1","+0140,1","99999,9","04,5,+00210,1,99,9",,,,"04,99,1,99,9,99,9,99999,9,99,9,99,9","10010,1,99999,9",,,,"MET051METAR LEEC 110800Z 03007KT 9999 SCT007 16/14 Q1001;",
"08390599999","2010-10-11T09:00:00","4","37.3166666","-6.0","5.0","SEVILLA HELIPORT, SP","FM-15","LEEC ","V020","030,1,N,0041,1","99999,9,9,Y","009900,1,N,1","+0180,1","+0140,1","99999,9",,,,,,"10010,1,99999,9",,,,"MET045METAR LEEC 110900Z 03008KT CAVOK 18/14 Q1001;",
"08390599999","2010-10-11T10:00:00","4","37.3166666","-6.0","5.0","SEVILLA HELIPORT, SP","FM-15","LEEC ","V020","030,1,N,0026,1","99999,9,9,Y","009900,1,N,1","+0190,1","+0130,1","99999,9",,,,,,"10010,1,99999,9",,,,"MET053METAR LEEC 111000Z 03005KT 320V060 CAVOK 19/13 Q1001;",
"08390599999","2010-10-11T11:00:00","4","37.3166666","-6.0","5.0","SEVILLA HELIPORT, SP","FM-15","LEEC ","V020","999,9,V,0015,1","99999,9,9,Y","009900,1,N,1","+0210,1","+0120,1","99999,9",,,,,,"10010,1,99999,9",,,,"MET045METAR LEEC 111100Z VRB03KT CAVOK 21/12 Q1001;",
"08390599999","2010-10-11T12:00:00","4","37.3166666","-6.0","5.0","SEVILLA HELIPORT, SP","FM-15","LEEC ","V020","999,9,V,0015,1","99999,9,9,Y","009900,1,N,1","+0220,1","+0120,1","99999,9",,,,,,"10010,1,99999,9",,,,"MET045METAR LEEC 111200Z VRB03KT CAVOK 22/12 Q1001;",
"08390599999","2010-10-11T13:00:00","4","37.3166666","-6.0","5.0","SEVILLA HELIPORT, SP","FM-15","LEEC ","V020","999,9,V,0015,1","22000,1,9,N","011265,1,N,1","+0230,1","+0110,1","99999,9","04,5,+00900,1,99,9",,,,"04,99,1,99,9,99,9,99999,9,99,9,99,9","10000,1,99999,9",,,,"MET051METAR LEEC 111300Z VRB03KT 9999 SCT030 23/11 Q1000;",
"08390599999","2010-10-13T06:00:00","4","37.3166666","-6.0","5.0","SEVILLA HELIPORT, SP","FM-15","LEEC ","V020","999,9,V,0010,1","00030,1,C,N","000300,1,N,1","+0140,1","+0140,1","99999,9","08,5,+00030,1,99,9",,,,"08,99,1,99,9,99,9,99999,9,99,9,99,9","10081,1,99999,9","44,1",,,"MET054METAR LEEC 130600Z VRB02KT 0300 FG OVC001 14/14 Q1008;",
"08390599999","2010-10-13T07:00:00","4","37.3166666","-6.0","5.0","SEVILLA HELIPORT, SP","FM-15","LEEC ","V020","999,9,V,0005,1","00030,1,C,N","000300,1,N,1","+0140,1","+0140,1","99999,9","08,5,+00030,1,99,9",,,,"08,99,1,99,9,99,9,99999,9,99,9,99,9","10091,1,99999,9","44,1",,,"MET054METAR LEEC 130700Z VRB01KT 0300 FG OVC001 14/14 Q1009;",
"08390599999","2010-10-13T08:00:00","4","37.3166666","-6.0","5.0","SEVILLA HELIPORT, SP","FM-15","LEEC ","V020","999,9,V,0005,1","00030,1,C,N","000900,1,N,1","+0150,1","+0150,1","99999,9","08,5,+00030,1,99,9",,,,"08,99,1,99,9,99,9,99999,9,99,9,99,9","10102,1,99999,9","44,1",,,"MET054METAR LEEC 130800Z VRB01KT 0900 FG OVC001 15/15 Q1010;",
"08390599999","2010-10-13T09:00:00","4","37.3166666","-6.0","5.0","SEVILLA HELIPORT, SP","FM-15","LEEC ","V020","999,9,V,0015,1","00090,1,C,N","001200,1,N,1","+0160,1","+0160,1","99999,9","08,5,+00090,1,99,9",,,,"08,99,1,99,9,99,9,99999,9,99,9,99,9","10108,1,99999,9","10,1",,,"MET054METAR LEEC 130900Z VRB03KT 1200 BR OVC003 16/16 Q1011;",
"08390599999","2010-10-13T10:00:00","4","37.3166666","-6.0","5.0","SEVILLA HELIPORT, SP","FM-15","LEEC ","V020","999,9,V,0005,1","00120,1,C,N","003000,1,N,1","+0170,1","+0160,1","99999,9","08,5,+00120,1,99,9",,,,"08,99,1,99,9,99,9,99999,9,99,9,99,9","10108,1,99999,9","10,1",,,"MET054METAR LEEC 131000Z VRB01KT 3000 BR OVC004 17/16 Q1011;",
"08390599999","2010-10-13T11:00:00","4","37.3166666","-6.0","5.0","SEVILLA HELIPORT, SP","FM-15","LEEC ","V020","999,9,V,0010,1","00180,1,C,N","005000,1,N,1","+0190,1","+0160,1","99999,9","07,5,+00180,1,99,9",,,,"07,99,1,99,9,99,9,99999,9,99,9,99,9","10119,1,99999,9","10,1",,,"MET054METAR LEEC 131100Z VRB02KT 5000 BR BKN006 19/16 Q1012;",
"08390599999","2010-10-14T06:00:00","4","37.3166666","-6.0","5.0","SEVILLA HELIPORT, SP","FM-15","LEEC ","V020","999,9,C,0000,1","22000,1,9,N","009000,1,N,1","+0150,1","+0140,1","99999,9","04,5,+00600,1,99,9",,,,"04,99,1,99,9,99,9,99999,9,99,9,99,9","10129,1,99999,9",,,,"MET051METAR LEEC 140600Z 00000KT 9000 SCT020 15/14 Q1013;",
"08390599999","2010-10-14T07:00:00","4","37.3166666","-6.0","5.0","SEVILLA HELIPORT, SP","FM-15","LEEC ","V020","360,1,N,0005,1","22000,1,9,N","011265,1,N,1","+0150,1","+0140,1","99999,9","04,5,+00450,1,99,9",,,,"04,99,1,99,9,99,9,99999,9,99,9,99,9","10139,1,99999,9",,,,"MET051METAR LEEC 140700Z 36001KT 9999 SCT015 15/14 Q1014;",
"08390599999","2010-10-14T08:00:00","4","37.3166666","-6.0","5.0","SEVILLA HELIPORT, SP","FM-15","LEEC ","V020","999,9,V,0005,1","00450,1,C,N","011265,1,N,1","+0170,1","+0160,1","99999,9","07,5,+00450,1,99,9",,,,"07,99,1,99,9,99,9,99999,9,99,9,99,9","10149,1,99999,9",,,,"MET051METAR LEEC 140800Z VRB01KT 9999 BKN015 17/16 Q1015;",
"08390599999","2010-10-14T09:00:00","4","37.3166666","-6.0","5.0","SEVILLA HELIPORT, SP","FM-15","LEEC ","V020","999,9,V,0015,1","00510,1,C,N","011265,1,N,1","+0180,1","+0160,1","99999,9","07,5,+00510,1,99,9",,,,"07,99,1,99,9,99,9,99999,9,99,9,99,9","10149,1,99999,9",,,,"MET051METAR LEEC 140900Z VRB03KT 9999 BKN017 18/16 Q1015;",
"08390599999","2010-10-14T10:00:00","4","37.3166666","-6.0","5.0","SEVILLA HELIPORT, SP","FM-15","LEEC ","V020","999,9,V,0010,1","99999,9,C,N","011265,1,N,1","+0200,1","+0160,1","99999,9","02,5,+00030,1,99,9","04,5,+00600,1,99,9",,,"04,99,1,99,9,99,9,99999,9,99,9,99,9","10149,1,99999,9",,,,"MET058METAR LEEC 141000Z VRB02KT 9999 FEW001 SCT020 20/16 Q1015;","P01 006003SCOCIG"
"08390599999","2010-10-14T11:00:00","4","37.3166666","-6.0","5.0","SEVILLA HELIPORT, SP","FM-15","LEEC ","V020","200,1,N,0021,1","00750,1,C,N","011265,1,N,1","+0210,1","+0160,1","99999,9","04,5,+00600,1,99,9","07,5,+00750,1,99,9",,,"07,99,1,99,9,99,9,99999,9,99,9,99,9","10149,1,99999,9",,,,"MET066METAR LEEC 141100Z 20004KT 120V260 9999 SCT020 BKN025 21/16 Q1015;",
"08390599999","2010-10-14T12:00:00","4","37.3166666","-6.0","5.0","SEVILLA HELIPORT, SP","FM-15","LEEC ","V020","230,1,N,0021,1","99999,9,C,N","011265,1,N,1","+0210,1","+0160,1","99999,9","04,5,+00600,1,99,9","04,5,+00840,1,99,9",,,"04,99,1,99,9,99,9,99999,9,99,9,99,9","10149,1,99999,9",,,,"MET066METAR LEEC 141200Z 23004KT 170V280 9999 SCT020 SCT028 21/16 Q1015;","P01 008403SCOCIG"
"08390599999","2010-10-14T13:00:00","4","37.3166666","-6.0","5.0","SEVILLA HELIPORT, SP","FM-15","LEEC ","V020","230,1,N,0021,1","99999,9,C,N","011265,1,N,1","+0220,1","+0150,1","99999,9","02,5,+00600,1,99,9","04,5,+00900,1,99,9",,,"04,99,1,99,9,99,9,99999,9,99,9,99,9","10139,1,99999,9",,,,"MET066METAR LEEC 141300Z 23004KT 150V300 9999 FEW020 SCT030 22/15 Q1014;","P01 009003SCOCIG"
"08390599999","2010-10-15T06:00:00","4","37.3166666","-6.0","5.0","SEVILLA HELIPORT, SP","FM-15","LEEC ","V020","999,9,C,0000,1","22000,1,9,N","005000,1,N,1","+0150,1","+0140,1","99999,9",,,,,"00,99,1,99,9,99,9,99999,9,99,9,99,9","10119,1,99999,9","10,1",,,"MET051METAR LEEC 150600Z 00000KT 5000 BR NSC 15/14 Q1012;","Q01    003SCCGA1"
"08390599999","2010-10-15T07:00:00","4","37.3166666","-6.0","5.0","SEVILLA HELIPORT, SP","FM-15","LEEC ","V020","260,1,N,0005,1","00090,1,C,N","003000,1,N,1","+0150,1","+0150,1","99999,9","07,5,+00090,1,99,9",,,,"07,99,1,99,9,99,9,99999,9,99,9,99,9","10119,1,99999,9","41,1",,,"MET063METAR LEEC 150700Z 26001KT 3000 0200SE BCFG BKN003 15/15 Q1012;",
"08390599999","2010-10-15T08:00:00","4","37.3166666","-6.0","5.0","SEVILLA HELIPORT, SP","FM-15","LEEC ","V020","999,9,V,0010,1","00030,1,C,N","000100,1,N,1","+0150,1","+0150,1","99999,9","08,5,+00030,1,99,9",,,,"08,99,1,99,9,99,9,99999,9,99,9,99,9","10129,1,99999,9","44,1",,,"MET054METAR LEEC 150800Z VRB02KT 0100 FG OVC001 15/15 Q1013;",
"08390599999","2010-10-15T09:00:00","4","37.3166666","-6.0","5.0","SEVILLA HELIPORT, SP","FM-15","LEEC ","V020","999,9,V,0010,1","00060,1,C,N","000300,1,N,1","+0160,1","+0160,1","99999,9","07,5,+00060,1,99,9",,,,"07,99,1,99,9,99,9,99999,9,99,9,99,9","10129,1,99999,9","44,1",,,"MET054METAR LEEC 150900Z VRB02KT 0300 FG BKN002 16/16 Q1013;",
"08390599999","2010-10-15T10:00:00","4","37.3166666","-6.0","5.0","SEVILLA HELIPORT, SP","FM-15","LEEC ","V020","999,9,V,0010,1","99999,9,9,Y","009900,1,N,1","+0190,1","+0180,1","99999,9",,,,,,"10129,1,99999,9",,,,"MET045METAR LEEC 151000Z VRB02KT CAVOK 19/18 Q1013;",
"08390599999","2010-10-15T11:00:00","4","37.3166666","-6.0","5.0","SEVILLA HELIPORT, SP","FM-15","LEEC ","V020","999,9,V,0015,1","99999,9,9,Y","009900,1,N,1","+0210,1","+0170,1","99999,9",,,,,,"10129,1,99999,9",,,,"MET045METAR LEEC 151100Z VRB03KT CAVOK 21/17 Q1013;",
"08390599999","2010-10-15T12:00:00","4","37.3166666","-6.0","5.0","SEVILLA HELIPORT, SP","FM-15","LEEC ","V020","230,1,N,0021,1","22000,1,9,N","011265,1,N,1","+0220,1","+0160,1","99999,9","02,5,+00600,1,99,9",,,,"02,99,1,99,9,99,9,99999,9,99,9,99,9","10129,1,99999,9",,,,"MET059METAR LEEC 151200Z 23004KT 200V290 9999 FEW020 22/16 Q1013;",
"08390599999","2010-10-15T13:00:00","4","37.3166666","-6.0","5.0","SEVILLA HELIPORT, SP","FM-15","LEEC ","V020","210,1,N,0021,1","22000,1,9,N","011265,1,N,1","+0240,1","+0150,1","99999,9","02,5,+00750,1,99,9",,,,"02,99,1,99,9,99,9,99999,9,99,9,99,9","10119,1,99999,9",,,,"MET059METAR LEEC 151300Z 21004KT 160V240 9999 FEW025 24/15 Q1012;",
"08390599999","2010-10-18T08:00:00","4","37.3166666","-6.0","5.0","SEVILLA HELIPORT, SP","FM-15","LEEC ","V020","030,1,N,0041,1","99999,9,9,Y","009900,1,N,1","+0150,1","+0060,1","99999,9",,,,,,"10190,1,99999,9",,,,"MET045METAR LEEC 180800Z 03008KT CAVOK 15/06 Q1019;",
"08390599999","2010-10-18T09:00:00","4","37.3166666","-6.0","5.0","SEVILLA HELIPORT, SP","FM-15","LEEC ","V020","040,1,N,0046,1","99999,9,9,Y","009900,1,N,1","+0170,1","+0060,1","99999,9",,,,,,"10190,1,99999,9",,,,"MET045METAR LEEC 180900Z 04009KT CAVOK 17/06 Q1019;",
"08390599999","2010-10-18T10:00:00","4","37.3166666","-6.0","5.0","SEVILLA HELIPORT, SP","FM-15","LEEC ","V020","040,1,N,0051,1","99999,9,9,Y","009900,1,N,1","+0190,1","+0040,1","99999,9",,,,,,"10190,1,99999,9",,,,"MET045METAR LEEC 181000Z 04010KT CAVOK 19/04 Q1019;",
"08390599999","2010-10-18T11:00:00","4","37.3166666","-6.0","5.0","SEVILLA HELIPORT, SP","FM-15","LEEC ","V020","040,1,N,0051,1","99999,9,9,Y","009900,1,N,1","+0210,1","+0030,1","99999,9",,,,,,"10190,1,99999,9",,,,"MET045METAR LEEC 181100Z 04010KT CAVOK 21/03 Q1019;",
"08390599999","2010-10-18T12:00:00","4","37.3166666","-6.0","5.0","SEVILLA HELIPORT, SP","FM-15","LEEC ","V020","050,1,N,0057,1","99999,9,9,Y","009900,1,N,1","+0220,1","+0000,1","99999,9",,,,,,"10180,1,99999,9",,,,"MET045METAR LEEC 181200Z 05011KT CAVOK 22/00 Q1018;",
"08390599999","2010-10-18T13:00:00","4","37.3166666","-6.0","5.0","SEVILLA HELIPORT, SP","FM-15","LEEC ","V020","050,1,N,0062,1","99999,9,9,Y","009900,1,N,1","+0230,1","-0030,1","99999,9",,,,,,"10180,1,99999,9",,,,"MET046METAR LEEC 181300Z 05012KT CAVOK 23/M03 Q1018;",
"08390599999","2010-10-19T09:00:00","4","37.3166666","-6.0","5.0","SEVILLA HELIPORT, SP","FM-15","LEEC ","V020","030,1,N,0051,1","99999,9,9,Y","009900,1,N,1","+0160,1","+0020,1","99999,9",,,,,,"10169,1,99999,9",,,,"MET045METAR LEEC 190900Z 03010KT CAVOK 16/02 Q1017;",
"08390599999","2010-10-19T10:00:00","4","37.3166666","-6.0","5.0","SEVILLA HELIPORT, SP","FM-15","LEEC ","V020","030,1,N,0051,1","99999,9,9,Y","009900,1,N,1","+0190,1","+0030,1","99999,9",,,,,,"10169,1,99999,9",,,,"MET045METAR LEEC 191000Z 03010KT CAVOK 19/03 Q1017;",
"08390599999","2010-10-19T11:00:00","4","37.3166666","-6.0","5.0","SEVILLA HELIPORT, SP","FM-15","LEEC ","V020","040,1,N,0046,1","99999,9,9,Y","009900,1,N,1","+0210,1","+0060,1","99999,9",,,,,,"10169,1,99999,9",,,,"MET053METAR LEEC 191100Z 04009KT 010V080 CAVOK 21/06 Q1017;",
"08390599999","2010-10-19T12:00:00","4","37.3166666","-6.0","5.0","SEVILLA HELIPORT, SP","FM-15","LEEC ","V020","040,1,N,0041,1","99999,9,9,Y","009900,1,N,1","+0230,1","+0050,1","99999,9",,,,,,"10159,1,99999,9",,,,"MET045METAR LEEC 191200Z 04008KT CAVOK 23/05 Q1016;",
"08390599999","2010-10-19T13:00:00","4","37.3166666","-6.0","5.0","SEVILLA HELIPORT, SP","FM-15","LEEC ","V020","030,1,N,0041,1","99999,9,9,Y","009900,1,N,1","+0230,1","+0020,1","99999,9",,,,,,"10149,1,99999,9",,,,"MET053METAR LEEC 191300Z 03008KT 360V070 CAVOK 23/02 Q1015;",
"08390599999","2010-10-20T06:00:00","4","37.3166666","-6.0","5.0","SEVILLA HELIPORT, SP","FM-15","LEEC ","V020","999,9,V,0010,1","99999,9,9,Y","009900,1,N,1","+0110,1","+0060,1","99999,9",,,,,,"10149,1,99999,9",,,,"MET045METAR LEEC 200600Z VRB02KT CAVOK 11/06 Q1015;",
"08390599999","2010-10-20T07:00:00","4","37.3166666","-6.0","5.0","SEVILLA HELIPORT, SP","FM-15","LEEC ","V020","999,9,V,0015,1","99999,9,9,Y","009900,1,N,1","+0110,1","+0060,1","99999,9",,,,,,"10159,1,99999,9",,,,"MET045METAR LEEC 200700Z VRB03KT CAVOK 11/06 Q1016;",
"08390599999","2010-10-20T08:00:00","4","37.3166666","-6.0","5.0","SEVILLA HELIPORT, SP","FM-15","LEEC ","V020","030,1,N,0026,1","99999,9,9,Y","009900,1,N,1","+0120,1","+0070,1","99999,9",,,,,,"10169,1,99999,9",,,,"MET045METAR LEEC 200800Z 03005KT CAVOK 12/07 Q1017;",
"08390599999","2010-10-20T09:00:00","4","37.3166666","-6.0","5.0","SEVILLA HELIPORT, SP","FM-15","LEEC ","V020","040,1,N,0021,1","99999,9,9,Y","009900,1,N,1","+0140,1","+0080,1","99999,9",,,,,,"10169,1,99999,9",,,,"MET045METAR LEEC 200900Z 04004KT CAVOK 14/08 Q1017;",
"08390599999","2010-10-20T10:00:00","4","37.3166666","-6.0","5.0","SEVILLA HELIPORT, SP","FM-15","LEEC ","V020","040,1,N,0021,1","99999,9,9,Y","009900,1,N,1","+0160,1","+0100,1","99999,9",,,,,,"10169,1,99999,9",,,,"MET053METAR LEEC 201000Z 04004KT 020V080 CAVOK 16/10 Q1017;",
"08390599999","2010-10-20T11:00:00","4","37.3166666","-6.0","5.0","SEVILLA HELIPORT, SP","FM-15","LEEC ","V020","999,9,V,0015,1","99999,9,9,Y","009900,1,N,1","+0190,1","+0110,1","99999,9",,,,,,"10169,1,99999,9",,,,"MET045METAR LEEC 201100Z VRB03KT CAVOK 19/11 Q1017;",
"08390599999","2010-10-20T12:00:00","4","37.3166666","-6.0","5.0","SEVILLA HELIPORT, SP","FM-15","LEEC ","V020","999,9,V,0010,1","99999,9,9,Y","009900,1,N,1","+0210,1","+0110,1","99999,9",,,,,,"10159,1,99999,9",,,,"MET045METAR LEEC 201200Z VRB02KT CAVOK 21/11 Q1016;",
"08390599999","2010-10-20T13:00:00","4","37.3166666","-6.0","5.0","SEVILLA HELIPORT, SP","FM-15","LEEC ","V020","999,9,V,0010,1","99999,9,9,Y","009900,1,N,1","+0230,1","+0100,1","99999,9",,,,,,"10159,1,99999,9",,,,"MET045METAR LEEC 201300Z VRB02KT CAVOK 23/10 Q1016;",
"08390599999","2010-10-21T06:00:00","4","37.3166666","-6.0","5.0","SEVILLA HELIPORT, SP","FM-15","LEEC ","V020","999,9,V,0015,1","99999,9,9,Y","009900,1,N,1","+0110,1","+0080,1","99999,9",,,,,,"10190,1,99999,9",,,,"MET045METAR LEEC 210600Z VRB03KT CAVOK 11/08 Q1019;",
"08390599999","2010-10-21T07:00:00","4","37.3166666","-6.0","5.0","SEVILLA HELIPORT, SP","FM-15","LEEC ","V020","999,9,V,0010,1","99999,9,9,Y","009900,1,N,1","+0110,1","+0080,1","99999,9",,,,,,"10190,1,99999,9",,,,"MET045METAR LEEC 210700Z VRB02KT CAVOK 11/08 Q1019;",
"08390599999","2010-10-21T08:00:00","4","37.3166666","-6.0","5.0","SEVILLA HELIPORT, SP","FM-15","LEEC ","V020","999,9,V,0015,1","99999,9,9,Y","009900,1,N,1","+0130,1","+0090,1","99999,9",,,,,,"10200,1,99999,9",,,,"MET045METAR LEEC 210800Z VRB03KT CAVOK 13/09 Q1020;",
"08390599999","2010-10-21T09:00:00","4","37.3166666","-6.0","5.0","SEVILLA HELIPORT, SP","FM-15","LEEC ","V020","050,1,N,0021,1","99999,9,9,Y","009900,1,N,1","+0150,1","+0080,1","99999,9",,,,,,"10210,1,99999,9",,,,"MET053METAR LEEC 210900Z 05004KT 010V070 CAVOK 15/08 Q1021;",
"08390599999","2010-10-21T10:00:00","4","37.3166666","-6.0","5.0","SEVILLA HELIPORT, SP","FM-15","LEEC ","V020","040,1,N,0021,1","99999,9,9,Y","009900,1,N,1","+0180,1","+0080,1","99999,9",,,,,,"10210,1,99999,9",,,,"MET053METAR LEEC 211000Z 04004KT 360V070 CAVOK 18/08 Q1021;",
"08390599999","2010-10-21T11:00:00","4","37.3166666","-6.0","5.0","SEVILLA HELIPORT, SP","FM-15","LEEC ","V020","999,9,V,0010,1","99999,9,9,Y","009900,1,N,1","+0200,1","+0070,1","99999,9",,,,,,"10210,1,99999,9",,,,"MET045METAR LEEC 211100Z VRB02KT CAVOK 20/07 Q1021;",
"08390599999","2010-10-21T12:00:00","4","37.3166666","-6.0","5.0","SEVILLA HELIPORT, SP","FM-15","LEEC ","V020","999,9,V,0010,1","99999,9,9,Y","009900,1,N,1","+0220,1","+0070,1","99999,9",,,,,,"10200,1,99999,9",,,,"MET045METAR LEEC 211200Z VRB02KT CAVOK 22/07 Q1020;",
"08390599999","2010-10-21T13:00:00","4","37.3166666","-6.0","5.0","SEVILLA HELIPORT, SP","FM-15","LEEC ","V020","999,9,V,0015,1","99999,9,9,Y","009900,1,N,1","+0230,1","+0070,1","99999,9",,,,,,"10200,1,99999,9",,,,"MET045METAR LEEC 211300Z VRB03KT CAVOK 23/07 Q1020;",
"08390599999","2010-10-22T06:00:00","4","37.3166666","-6.0","5.0","SEVILLA HELIPORT, SP","FM-15","LEEC ","V020","020,1,N,0021,1","99999,9,9,Y","009900,1,N,1","+0130,1","+0110,1","99999,9",,,,,,"10190,1,99999,9",,,,"MET045METAR LEEC 220600Z 02004KT CAVOK 13/11 Q1019;",
"08390599999","2010-10-22T07:00:00","4","37.3166666","-6.0","5.0","SEVILLA HELIPORT, SP","FM-15","LEEC ","V020","999,9,V,0015,1","99999,9,9,Y","009900,1,N,1","+0130,1","+0100,1","99999,9",,,,,,"10190,1,99999,9",,,,"MET045METAR LEEC 220700Z VRB03KT CAVOK 13/10 Q1019;",
"08390599999","2010-10-22T08:00:00","4","37.3166666","-6.0","5.0","SEVILLA HELIPORT, SP","FM-15","LEEC ","V020","010,1,N,0021,1","99999,9,9,Y","009900,1,N,1","+0140,1","+0110,1","99999,9",,,,,,"10200,1,99999,9",,,,"MET053METAR LEEC 220800Z 01004KT 340V050 CAVOK 14/11 Q1020;",
"08390599999","2010-10-22T09:00:00","4","37.3166666","-6.0","5.0","SEVILLA HELIPORT, SP","FM-15","LEEC ","V020","020,1,N,0031,1","99999,9,9,Y","009900,1,N,1","+0160,1","+0110,1","99999,9",,,,,,"10210,1,99999,9",,,,"MET045METAR LEEC 220900Z 02006KT CAVOK 16/11 Q1021;",
"08390599999","2010-10-22T10:00:00","4","37.3166666","-6.0","5.0","SEVILLA HELIPORT, SP","FM-15","LEEC ","V020","040,1,N,0031,1","99999,9,9,Y","009900,1,N,1","+0180,1","+0120,1","99999,9",,,,,,"10200,1,99999,9",,,,"MET053METAR LEEC 221000Z 04006KT 350V090 CAVOK 18/12 Q1020;",
"08390599999","2010-10-22T11:00:00","4","37.3166666","-6.0","5.0","SEVILLA HELIPORT, SP","FM-15","LEEC ","V020","030,1,N,0036,1","99999,9,9,Y","009900,1,N,1","+0200,1","+0120,1","99999,9",,,,,,"10200,1,99999,9",,,,"MET053METAR LEEC 221100Z 03007KT 360V070 CAVOK 20/12 Q1020;",
"08390599999","2010-10-22T12:00:00","4","37.3166666","-6.0","5.0","SEVILLA HELIPORT, SP","FM-15","LEEC ","V020","020,1,N,0021,1","99999,9,9,Y","009900,1,N,1","+0210,1","+0110,1","99999,9",,,,,,"10200,1,99999,9",,,,"MET053METAR LEEC 221200Z 02004KT 340V050 CAVOK 21/11 Q1020;",
"08390599999","2010-10-22T13:00:00","4","37.3166666","-6.0","5.0","SEVILLA HELIPORT, SP","FM-15","LEEC ","V020","010,1,N,0021,1","99999,9,9,Y","009900,1,N,1","+0220,1","+0100,1","99999,9",,,,,,"10190,1,99999,9",,,,"MET053METAR LEEC 221300Z 01004KT 330V040 CAVOK 22/10 Q1019;",
"08390599999","2010-10-26T15:00:00","4","37.3166666","-6.0","5.0","SEVILLA HELIPORT, SP","FM-15","LEEC ","V020","030,1,N,0046,1","99999,9,9,Y","009900,1,N,1","+0230,1","-0110,1","99999,9",,,,,,"10230,1,99999,9",,,,"MET046METAR LEEC 261500Z 03009KT CAVOK 23/M11 Q1023;",
"08390599999","2010-10-27T06:00:00","4","37.3166666","-6.0","5.0","SEVILLA HELIPORT, SP","FM-15","LEEC ","V020","360,1,N,0021,1","99999,9,9,Y","009900,1,N,1","+0090,1","+0020,1","99999,9",,,,,,"10251,1,99999,9",,,,"MET053METAR LEEC 270600Z 36004KT 320V030 CAVOK 09/02 Q1025;",
"08390599999","2010-10-27T07:00:00","4","37.3166666","-6.0","5.0","SEVILLA HELIPORT, SP","FM-15","LEEC ","V020","020,1,N,0031,1","22000,1,9,N","009000,1,N,1","+0100,1","+0020,1","99999,9",,,,,"00,99,1,99,9,99,9,99999,9,99,9,99,9","10251,1,99999,9",,,,"MET048METAR LEEC 270700Z 02006KT 9000 NSC 10/02 Q1025;","Q01    003SCCGA1"
"08390599999","2010-10-27T08:00:00","4","37.3166666","-6.0","5.0","SEVILLA HELIPORT, SP","FM-15","LEEC ","V020","020,1,N,0036,1","99999,9,9,Y","009900,1,N,1","+0120,1","+0020,1","99999,9",,,,,,"10261,1,99999,9",,,,"MET045METAR LEEC 270800Z 02007KT CAVOK 12/02 Q1026;",
"08390599999","2010-10-27T09:00:00","4","37.3166666","-6.0","5.0","SEVILLA HELIPORT, SP","FM-15","LEEC ","V020","020,1,N,0031,1","99999,9,9,Y","009900,1,N,1","+0150,1","+0020,1","99999,9",,,,,,"10261,1,99999,9",,,,"MET045METAR LEEC 270900Z 02006KT CAVOK 15/02 Q1026;",
"08390599999","2010-10-27T10:00:00","4","37.3166666","-6.0","5.0","SEVILLA HELIPORT, SP","FM-15","LEEC ","V020","050,1,N,0031,1","99999,9,9,Y","009900,1,N,1","+0170,1","+0020,1","99999,9",,,,,,"10261,1,99999,9",,,,"MET053METAR LEEC 271000Z 05006KT 020V090 CAVOK 17/02 Q1026;",
"08390599999","2010-10-27T11:00:00","4","37.3166666","-6.0","5.0","SEVILLA HELIPORT, SP","FM-15","LEEC ","V020","030,1,N,0031,1","99999,9,9,Y","009900,1,N,1","+0190,1","+0020,1","99999,9",,,,,,"10261,1,99999,9",,,,"MET045METAR LEEC 271100Z 03006KT CAVOK 19/02 Q1026;",
"08390599999","2010-10-27T12:00:00","4","37.3166666","-6.0","5.0","SEVILLA HELIPORT, SP","FM-15","LEEC ","V020","999,9,V,0010,1","99999,9,9,Y","009900,1,N,1","+0220,1","+0010,1","99999,9",,,,,,"10251,1,99999,9",,,,"MET045METAR LEEC 271200Z VRB02KT CAVOK 22/01 Q1025;",
"08390599999","2010-10-27T13:00:00","4","37.3166666","-6.0","5.0","SEVILLA HELIPORT, SP","FM-15","LEEC ","V020","999,9,V,0015,1","99999,9,9,Y","009900,1,N,1","+0240,1","-0010,1","99999,9",,,,,,"10240,1,99999,9",,,,"MET046METAR LEEC 271300Z VRB03KT CAVOK 24/M01 Q1024;",
"08390599999","2010-10-27T14:00:00","4","37.3166666","-6.0","5.0","SEVILLA HELIPORT, SP","FM-15","LEEC ","V020","030,1,N,0026,1","99999,9,9,Y","009900,1,N,1","+0250,1","-0030,1","99999,9",,,,,,"10230,1,99999,9",,,,"MET054METAR LEEC 271400Z 03005KT 350V060 CAVOK 25/M03 Q1023;",
"08390599999","2010-10-27T15:00:00","4","37.3166666","-6.0","5.0","SEVILLA HELIPORT, SP","FM-15","LEEC ","V020","040,1,N,0021,1","99999,9,9,Y","009900,1,N,1","+0260,1","-0050,1","99999,9",,,,,,"10230,1,99999,9",,,,"MET054METAR LEEC 271500Z 04004KT 340V080 CAVOK 26/M05 Q1023;",
"08390599999","2010-10-28T06:00:00","4","37.3166666","-6.0","5.0","SEVILLA HELIPORT, SP","FM-15","LEEC ","V020","020,1,N,0015,1","99999,9,9,Y","009900,1,N,1","+0110,1","+0050,1","99999,9",,,,,,"10230,1,99999,9",,,,"MET045METAR LEEC 280600Z 02003KT CAVOK 11/05 Q1023;",
"08390599999","2010-10-28T07:00:00","4","37.3166666","-6.0","5.0","SEVILLA HELIPORT, SP","FM-15","LEEC ","V020","999,9,V,0010,1","99999,9,9,Y","009900,1,N,1","+0110,1","+0040,1","99999,9",,,,,,"10230,1,99999,9",,,,"MET045METAR LEEC 280700Z VRB02KT CAVOK 11/04 Q1023;",
"08390599999","2010-10-28T08:00:00","4","37.3166666","-6.0","5.0","SEVILLA HELIPORT, SP","FM-15","LEEC ","V020","100,1,N,0010,1","99999,9,9,Y","009900,1,N,1","+0120,1","+0050,1","99999,9",,,,,,"10230,1,99999,9",,,,"MET045METAR LEEC 280800Z 10002KT CAVOK 12/05 Q1023;",
"08390599999","2010-10-28T09:00:00","4","37.3166666","-6.0","5.0","SEVILLA HELIPORT, SP","FM-15","LEEC ","V020","999,9,V,0015,1","99999,9,9,Y","009900,1,N,1","+0130,1","+0050,1","99999,9",,,,,,"10230,1,99999,9",,,,"MET045METAR LEEC 280900Z VRB03KT CAVOK 13/05 Q1023;",
"08390599999","2010-10-28T10:00:00","4","37.3166666","-6.0","5.0","SEVILLA HELIPORT, SP","FM-15","LEEC ","V020","020,1,N,0021,1","99999,9,9,Y","009900,1,N,1","+0160,1","+0040,1","99999,9",,,,,,"10230,1,99999,9",,,,"MET053METAR LEEC 281000Z 02004KT 330V050 CAVOK 16/04 Q1023;",
"08390599999","2010-10-28T11:00:00","4","37.3166666","-6.0","5.0","SEVILLA HELIPORT, SP","FM-15","LEEC ","V020","040,1,N,0026,1","99999,9,9,Y","009900,1,N,1","+0180,1","+0040,1","99999,9",,,,,,"10230,1,99999,9",,,,"MET045METAR LEEC 281100Z 04005KT CAVOK 18/04 Q1023;",
"08390599999","2010-10-28T12:00:00","4","37.3166666","-6.0","5.0","SEVILLA HELIPORT, SP","FM-15","LEEC ","V020","999,9,V,0015,1","99999,9,9,Y","009900,1,N,1","+0200,1","+0030,1","99999,9",,,,,,"10220,1,99999,9",,,,"MET045METAR LEEC 281200Z VRB03KT CAVOK 20/03 Q1022;",
"08390599999","2010-10-28T13:00:00","4","37.3166666","-6.0","5.0","SEVILLA HELIPORT, SP","FM-15","LEEC ","V020","999,9,V,0010,1","99999,9,9,Y","009900,1,N,1","+0210,1","+0040,1","99999,9",,,,,,"10210,1,99999,9",,,,"MET045METAR LEEC 281300Z VRB02KT CAVOK 21/04 Q1021;",
"08390599999","2010-10-28T14:00:00","4","37.3166666","-6.0","5.0","SEVILLA HELIPORT, SP","FM-15","LEEC ","V020","999,9,V,0005,1","99999,9,9,Y","009900,1,N,1","+0230,1","+0040,1","99999,9",,,,,,"10200,1,99999,9",,,,"MET045METAR LEEC 281400Z VRB01KT CAVOK 23/04 Q1020;",
"08390599999","2010-10-28T15:00:00","4","37.3166666","-6.0","5.0","SEVILLA HELIPORT, SP","FM-15","LEEC ","V020","999,9,V,0015,1","99999,9,9,Y","009900,1,N,1","+0240,1","+0030,1","99999,9",,,,,,"10200,1,99999,9",,,,"MET045METAR LEEC 281500Z VRB03KT CAVOK 24/03 Q1020;",
"08390599999","2010-10-29T06:00:00","4","37.3166666","-6.0","5.0","SEVILLA HELIPORT, SP","FM-15","LEEC ","V020","999,9,C,0000,1","99999,9,C,N","011265,1,N,1","+0150,1","+0120,1","99999,9","04,5,+00420,1,99,9","04,5,+00750,1,99,9",,,"04,99,1,99,9,99,9,99999,9,99,9,99,9","10169,1,99999,9",,,,"MET058METAR LEEC 290600Z 00000KT 9999 SCT014 SCT025 15/12 Q1017;","P01 007503SCOCIG"
"08390599999","2010-10-29T06:50:00","4","37.3166666","-6.0","5.0","SEVILLA HELIPORT, SP","FM-16","LEEC ","V020","999,9,C,0000,1","00360,1,C,N","011265,1,N,1","+0140,1","+0120,1","99999,9","07,5,+00360,1,99,9","07,5,+00720,1,99,9",,,"07,99,1,99,9,99,9,99999,9,99,9,99,9","10159,1,99999,9",,,,"MET058SPECI LEEC 290650Z 00000KT 9999 BKN012 BKN024 14/12 Q1016;",
"08390599999","2010-10-29T07:00:00","4","37.3166666","-6.0","5.0","SEVILLA HELIPORT, SP","FM-15","LEEC ","V020","999,9,C,0000,1","00360,1,C,N","011265,1,N,1","+0150,1","+0120,1","99999,9","07,5,+00360,1,99,9",,,,"07,99,1,99,9,99,9,99999,9,99,9,99,9","10169,1,99999,9",,,,"MET051METAR LEEC 290700Z 00000KT 9999 BKN012 15/12 Q1017;",
"08390599999","2010-10-29T08:00:00","4","37.3166666","-6.0","5.0","SEVILLA HELIPORT, SP","FM-15","LEEC ","V020","999,9,V,0010,1","00720,1,C,N","011265,1,N,1","+0160,1","+0130,1","99999,9","04,5,+00480,1,99,9","07,5,+00720,1,99,9",,,"07,99,1,99,9,99,9,99999,9,99,9,99,9","10169,1,99999,9",,,,"MET058METAR LEEC 290800Z VRB02KT 9999 SCT016 BKN024 16/13 Q1017;",
"08390599999","2010-10-29T09:00:00","4","37.3166666","-6.0","5.0","SEVILLA HELIPORT, SP","FM-15","LEEC ","V020","999,9,V,0015,1","00630,1,C,N","011265,1,N,1","+0180,1","+0140,1","99999,9","02,5,+00300,1,99,9","07,5,+00630,1,99,9",,,"07,99,1,99,9,99,9,99999,9,99,9,99,9","10169,1,99999,9",,,,"MET058METAR LEEC 290900Z VRB03KT 9999 FEW010 BKN021 18/14 Q1017;",
"08390599999","2010-10-29T10:00:00","4","37.3166666","-6.0","5.0","SEVILLA HELIPORT, SP","FM-15","LEEC ","V020","999,9,V,0010,1","22000,1,9,N","011265,1,N,1","+0200,1","+0140,1","99999,9","04,5,+00570,1,99,9",,,,"04,99,1,99,9,99,9,99999,9,99,9,99,9","10159,1,99999,9",,,,"MET051METAR LEEC 291000Z VRB02KT 9999 SCT019 20/14 Q1016;",
"08390599999","2010-10-29T11:00:00","4","37.3166666","-6.0","5.0","SEVILLA HELIPORT, SP","FM-15","LEEC ","V020","240,1,N,0031,1","99999,9,9,Y","009900,1,N,1","+0220,1","+0140,1","99999,9",,,,,,"10159,1,99999,9",,,,"MET053METAR LEEC 291100Z 24006KT 170V300 CAVOK 22/14 Q1016;",
"08390599999","2010-10-29T12:00:00","4","37.3166666","-6.0","5.0","SEVILLA HELIPORT, SP","FM-15","LEEC ","V020","230,1,N,0036,1","99999,9,9,Y","009900,1,N,1","+0240,1","+0130,1","99999,9",,,,,,"10149,1,99999,9",,,,"MET053METAR LEEC 291200Z 23007KT 200V260 CAVOK 24/13 Q1015;",
"08390599999","2010-10-29T13:00:00","4","37.3166666","-6.0","5.0","SEVILLA HELIPORT, SP","FM-15","LEEC ","V020","220,1,N,0082,1","99999,9,9,Y","009900,1,N,1","+0250,1","+0090,1","99999,9",,,,,,"10139,1,99999,9",,,,"MET045METAR LEEC 291300Z 22016KT CAVOK 25/09 Q1014;",
"08390599999","2010-11-02T07:00:00","4","37.3166666","-6.0","5.0","SEVILLA HELIPORT, SP","FM-15","LEEC ","V020","999,9,V,0010,1","99999,9,9,Y","009900,1,N,1","+0110,1","+0100,1","99999,9",,,,,,"10210,1,99999,9",,,,"MET045METAR LEEC 020700Z VRB02KT CAVOK 11/10 Q1021;",
"08390599999","2010-11-02T08:00:00","4","37.3166666","-6.0","5.0","SEVILLA HELIPORT, SP","FM-15","LEEC ","V020","999,9,C,0000,1","99999,9,9,Y","009900,1,N,1","+0130,1","+0110,1","99999,9",,,,,,"10210,1,99999,9",,,,"MET045METAR LEEC 020800Z 00000KT CAVOK 13/11 Q1021;",
"08390599999","2010-11-02T09:00:00","4","37.3166666","-6.0","5.0","SEVILLA HELIPORT, SP","FM-15","LEEC ","V020","030,1,N,0036,1","99999,9,9,Y","009900,1,N,1","+0150,1","+0120,1","99999,9",,,,,,"10220,1,99999,9",,,,"MET045METAR LEEC 020900Z 03007KT CAVOK 15/12 Q1022;",
"08390599999","2010-11-02T10:00:00","4","37.3166666","-6.0","5.0","SEVILLA HELIPORT, SP","FM-15","LEEC ","V020","050,1,N,0041,1","99999,9,9,Y","009900,1,N,1","+0170,1","+0110,1","99999,9",,,,,,"10220,1,99999,9",,,,"MET045METAR LEEC 021000Z 05008KT CAVOK 17/11 Q1022;",
"08390599999","2010-11-02T11:00:00","4","37.3166666","-6.0","5.0","SEVILLA HELIPORT, SP","FM-15","LEEC ","V020","030,1,N,0041,1","99999,9,9,Y","009900,1,N,1","+0190,1","+0100,1","99999,9",,,,,,"10220,1,99999,9",,,,"MET045METAR LEEC 021100Z 03008KT CAVOK 19/10 Q1022;",
"08390599999","2010-11-02T12:00:00","4","37.3166666","-6.0","5.0","SEVILLA HELIPORT, SP","FM-15","LEEC ","V020","050,1,N,0041,1","99999,9,9,Y","009900,1,N,1","+0200,1","+0110,1","99999,9",,,,,,"10210,1,99999,9",,,,"MET053METAR LEEC 021200Z 05008KT 020V090 CAVOK 20/11 Q1021;",
"08390599999","2010-11-02T13:00:00","4","37.3166666","-6.0","5.0","SEVILLA HELIPORT, SP","FM-15","LEEC ","V020","060,1,N,0051,1","99999,9,9,Y","009900,1,N,1","+0210,1","+0080,1","99999,9",,,,,,"10210,1,99999,9",,,,"MET045METAR LEEC 021300Z 06010KT CAVOK 21/08 Q1021;",
"08390599999","2010-11-02T14:00:00","4","37.3166666","-6.0","5.0","SEVILLA HELIPORT, SP","FM-15","LEEC ","V020","060,1,N,0036,1","99999,9,9,Y","009900,1,N,1","+0220,1","+0080,1","99999,9",,,,,,"10200,1,99999,9",,,,"MET045METAR LEEC 021400Z 06007KT CAVOK 22/08 Q1020;",
"08390599999","2010-11-02T15:00:00","4","37.3166666","-6.0","5.0","SEVILLA HELIPORT, SP","FM-15","LEEC ","V020","060,1,N,0021,1","99999,9,9,Y","009900,1,N,1","+0220,1","+0090,1","99999,9",,,,,,"10200,1,99999,9",,,,"MET045METAR LEEC 021500Z 06004KT CAVOK 22/09 Q1020;",
"08390599999","2010-11-03T08:00:00","4","37.3166666","-6.0","5.0","SEVILLA HELIPORT, SP","FM-15","LEEC ","V020","999,9,V,0015,1","99999,9,9,Y","009900,1,N,1","+0130,1","+0110,1","99999,9",,,,,,"10230,1,99999,9",,,,"MET045METAR LEEC 030800Z VRB03KT CAVOK 13/11 Q1023;",
"08390599999","2010-11-03T09:00:00","4","37.3166666","-6.0","5.0","SEVILLA HELIPORT, SP","FM-15","LEEC ","V020","350,1,N,0021,1","99999,9,9,Y","009900,1,N,1","+0150,1","+0110,1","99999,9",,,,,,"10240,1,99999,9",,,,"MET053METAR LEEC 030900Z 35004KT 300V030 CAVOK 15/11 Q1024;",
"08390599999","2010-11-03T11:00:00","4","37.3166666","-6.0","5.0","SEVILLA HELIPORT, SP","FM-15","LEEC ","V020","030,1,N,0046,1","99999,9,9,Y","009900,1,N,1","+0200,1","+0110,1","99999,9",,,,,,"10240,1,99999,9",,,,"MET045METAR LEEC 031100Z 03009KT CAVOK 20/11 Q1024;",
"08390599999","2010-11-03T15:00:00","4","37.3166666","-6.0","5.0","SEVILLA HELIPORT, SP","FM-15","LEEC ","V020","040,1,N,0051,1","99999,9,9,Y","009900,1,N,1","+0240,1","+0090,1","99999,9",,,,,,"10220,1,99999,9",,,,"MET045METAR LEEC 031500Z 04010KT CAVOK 24/09 Q1022;",
"08390599999","2010-11-04T07:00:00","4","37.3166666","-6.0","5.0","SEVILLA HELIPORT, SP","FM-15","LEEC ","V020","020,1,N,0021,1","99999,9,9,Y","009900,1,N,1","+0130,1","+0110,1","99999,9",,,,,,"10251,1,99999,9",,,,"MET045METAR LEEC 040700Z 02004KT CAVOK 13/11 Q1025;",
"08390599999","2010-11-04T10:00:00","4","37.3166666","-6.0","5.0","SEVILLA HELIPORT, SP","FM-15","LEEC ","V020","030,1,N,0041,1","99999,9,9,Y","009900,1,N,1","+0190,1","+0110,1","99999,9",,,,,,"10271,1,99999,9",,,,"MET045METAR LEEC 041000Z 03008KT CAVOK 19/11 Q1027;",
"08390599999","2010-11-05T08:00:00","4","37.3166666","-6.0","5.0","SEVILLA HELIPORT, SP","FM-15","LEEC ","V020","020,1,N,0031,1","99999,9,9,Y","009900,1,N,1","+0150,1","+0100,1","99999,9",,,,,,"10251,1,99999,9",,,,"MET045METAR LEEC 050800Z 02006KT CAVOK 15/10 Q1025;",
"08390599999","2010-11-05T09:00:00","4","37.3166666","-6.0","5.0","SEVILLA HELIPORT, SP","FM-15","LEEC ","V020","010,1,N,0021,1","99999,9,9,Y","009900,1,N,1","+0170,1","+0110,1","99999,9",,,,,,"10261,1,99999,9",,,,"MET045METAR LEEC 050900Z 01004KT CAVOK 17/11 Q1026;",
"08390599999","2010-11-05T10:00:00","4","37.3166666","-6.0","5.0","SEVILLA HELIPORT, SP","FM-15","LEEC ","V020","030,1,N,0031,1","99999,9,9,Y","009900,1,N,1","+0210,1","+0100,1","99999,9",,,,,,"10261,1,99999,9",,,,"MET045METAR LEEC 051000Z 03006KT CAVOK 21/10 Q1026;",
"08390599999","2010-11-05T11:00:00","4","37.3166666","-6.0","5.0","SEVILLA HELIPORT, SP","FM-15","LEEC ","V020","070,1,N,0036,1","99999,9,9,Y","009900,1,N,1","+0230,1","+0090,1","99999,9",,,,,,"10261,1,99999,9",,,,"MET045METAR LEEC 051100Z 07007KT CAVOK 23/09 Q1026;",
"08390599999","2010-11-05T12:00:00","4","37.3166666","-6.0","5.0","SEVILLA HELIPORT, SP","FM-15","LEEC ","V020","060,1,N,0041,1","99999,9,9,Y","009900,1,N,1","+0240,1","+0100,1","99999,9",,,,,,"10251,1,99999,9",,,,"MET045METAR LEEC 051200Z 06008KT CAVOK 24/10 Q1025;",
"08390599999","2010-11-05T13:00:00","4","37.3166666","-6.0","5.0","SEVILLA HELIPORT, SP","FM-15","LEEC ","V020","050,1,N,0046,1","99999,9,9,Y","009900,1,N,1","+0240,1","+0100,1","99999,9",,,,,,"10240,1,99999,9",,,,"MET045METAR LEEC 051300Z 05009KT CAVOK 24/10 Q1024;",
"08390599999","2010-11-05T14:00:00","4","37.3166666","-6.0","5.0","SEVILLA HELIPORT, SP","FM-15","LEEC ","V020","040,1,N,0046,1","99999,9,9,Y","009900,1,N,1","+0250,1","+0090,1","99999,9",,,,,,"10230,1,99999,9",,,,"MET045METAR LEEC 051400Z 04009KT CAVOK 25/09 Q1023;",
"08390599999","2010-11-08T06:00:00","4","37.3166666","-6.0","5.0","SEVILLA HELIPORT, SP","FM-15","LEEC ","V020","220,1,N,0010,1","99999,9,C,N","011265,1,N,1","+0090,1","+0090,1","99999,9","04,5,+01350,1,99,9","04,5,+01650,5,99,9",,,"04,99,1,99,9,99,9,99999,9,99,9,99,9","10102,1,99999,9",,,,"MET058METAR LEEC 080600Z 22002KT 9999 SCT045 SCT055 09/09 Q1010;","P01 016503SCOCIG"
"08390599999","2010-11-08T07:00:00","4","37.3166666","-6.0","5.0","SEVILLA HELIPORT, SP","FM-15","LEEC ","V020","999,9,V,0010,1","22000,1,9,N","011265,1,N,1","+0080,1","+0080,1","99999,9","02,5,+01350,1,99,9",,,,"02,99,1,99,9,99,9,99999,9,99,9,99,9","10102,1,99999,9",,,,"MET051METAR LEEC 080700Z VRB02KT 9999 FEW045 08/08 Q1010;",
"08390599999","2010-11-08T08:00:00","4","37.3166666","-6.0","5.0","SEVILLA HELIPORT, SP","FM-15","LEEC ","V020","190,1,N,0015,1","22000,1,9,N","011265,1,N,1","+0090,1","+0090,1","99999,9","02,5,+01350,1,99,9",,,,"02,99,1,99,9,99,9,99999,9,99,9,99,9","10108,1,99999,9",,,,"MET051METAR LEEC 080800Z 19003KT 9999 FEW045 09/09 Q1011;",
"08390599999","2010-11-08T09:00:00","4","37.3166666","-6.0","5.0","SEVILLA HELIPORT, SP","FM-15","LEEC ","V020","270,1,N,0021,1","22000,1,9,N","011265,1,N,1","+0120,1","+0080,1","99999,9","02,5,+01350,1,99,9",,,,"02,99,1,99,9,99,9,99999,9,99,9,99,9","10108,1,99999,9",,,,"MET059METAR LEEC 080900Z 27004KT 200V310 9999 FEW045 12/08 Q1011;",
"08390599999","2010-11-08T10:00:00","4","37.3166666","-6.0","5.0","SEVILLA HELIPORT, SP","FM-15","LEEC ","V020","250,1,N,0046,1","22000,1,9,N","011265,1,N,1","+0130,1","+0080,1","99999,9","02,5,+01350,1,99,9",,,,"02,99,1,99,9,99,9,99999,9,99,9,99,9","10108,1,99999,9",,,,"MET051METAR LEEC 081000Z 25009KT 9999 FEW045 13/08 Q1011;",
"08390599999","2010-11-08T11:00:00","4","37.3166666","-6.0","5.0","SEVILLA HELIPORT, SP","FM-15","LEEC ","V020","240,1,N,0036,1","99999,9,C,N","011265,1,N,1","+0150,1","+0100,1","99999,9","02,5,+00750,1,99,9","04,5,+01350,1,99,9",,,"04,99,1,99,9,99,9,99999,9,99,9,99,9","10102,1,99999,9",,,,"MET058METAR LEEC 081100Z 24007KT 9999 FEW025 SCT045 15/10 Q1010;","P01 013503SCOCIG"
"08390599999","2010-11-08T12:00:00","4","37.3166666","-6.0","5.0","SEVILLA HELIPORT, SP","FM-15","LEEC ","V020","240,1,N,0046,1","01050,1,C,N","011265,1,N,1","+0160,1","+0100,1","99999,9","02,5,+00750,1,99,9","07,5,+01050,1,99,9","07,5,+01350,1,99,9",,"07,99,1,99,9,99,9,99999,9,99,9,99,9","10102,1,99999,9",,,,"MET065METAR LEEC 081200Z 24009KT 9999 FEW025 BKN035 BKN045 16/10 Q1010;",
"08390599999","2010-11-08T13:00:00","4","37.3166666","-6.0","5.0","SEVILLA HELIPORT, SP","FM-15","LEEC ","V020","240,1,N,0041,1","01050,1,C,N","011265,1,N,1","+0160,1","+0100,1","99999,9","07,5,+01050,1,99,9","07,5,+01350,1,99,9",,,"07,99,1,99,9,99,9,99999,9,99,9,99,9","10081,1,99999,9",,,,"MET058METAR LEEC 081300Z 24008KT 9999 BKN035 BKN045 16/10 Q1008;",
"08390599999","2010-11-08T14:00:00","4","37.3166666","-6.0","5.0","SEVILLA HELIPORT, SP","FM-15","LEEC ","V020","220,1,N,0057,1","01200,1,C,N","011265,1,N,1","+0170,1","+0100,1","99999,9","02,5,+00900,1,99,9","04,5,+01200,1,99,9","07,5,+01650,5,99,9",,"07,99,1,99,9,99,9,99999,9,99,9,99,9","10071,1,99999,9",,,,"MET065METAR LEEC 081400Z 22011KT 9999 FEW030 SCT040 BKN055 17/10 Q1007;",
"08390599999","2010-11-08T15:00:00","4","37.3166666","-6.0","5.0","SEVILLA HELIPORT, SP","FM-15","LEEC ","V020","240,1,N,0062,1","00900,1,C,N","011265,1,N,1","+0170,1","+0110,1","99999,9","07,5,+00900,1,99,9","07,5,+01500,1,99,9",,,"07,99,1,99,9,99,9,99999,9,99,9,99,9","10061,1,99999,9",,,,"MET058METAR LEEC 081500Z 24012KT 9999 BKN030 BKN050 17/11 Q1006;",
"08390599999","2010-11-09T06:00:00","4","37.3166666","-6.0","5.0","SEVILLA HELIPORT, SP","FM-15","LEEC ","V020","230,1,N,0057,1","00900,1,C,N","011265,1,N,1","+0160,1","+0140,1","99999,9","02,5,+00720,1,99,9","04,5,+00900,1,99,9","07,5,+01500,1,99,9",,"07,99,1,99,9,99,9,99999,9,99,9,99,9","10000,1,99999,9",,,,"MET065METAR LEEC 090600Z 23011KT 9999 FEW024 SCT030 BKN050 16/14 Q1000;",
"08390599999","2010-11-09T07:00:00","4","37.3166666","-6.0","5.0","SEVILLA HELIPORT, SP","FM-15","LEEC ","V020","220,1,N,0046,1","00750,1,C,N","008000,1,N,1","+0160,1","+0140,1","99999,9","02,5,+00300,1,99,9","07,5,+00750,1,99,9","07,5,+00960,1,99,9",,"07,99,1,99,9,99,9,99999,9,99,9,99,9","10000,1,99999,9","63,1",,,"MET075METAR LEEC 090700Z 22009KT 8000 3000NE RA FEW010 BKN025 BKN032 16/14 Q1000;",
"08390599999","2010-11-09T08:00:00","4","37.3166666","-6.0","5.0","SEVILLA HELIPORT, SP","FM-15","LEEC ","V020","230,1,N,0046,1","01800,1,C,N","011265,1,N,1","+0160,1","+0150,1","99999,9","04,5,+00900,1,99,9","07,5,+01800,1,99,9",,,"07,99,1,99,9,99,9,99999,9,99,9,99,9","10010,1,99999,9",,,,"MET058METAR LEEC 090800Z 23009KT 9999 SCT030 BKN060 16/15 Q1001;",
"08390599999","2010-11-09T09:00:00","4","37.3166666","-6.0","5.0","SEVILLA HELIPORT, SP","FM-15","LEEC ","V020","230,1,N,0057,1","99999,9,C,N","011265,1,N,1","+0170,1","+0150,1","99999,9","02,5,+00840,1,99,9","04,5,+01140,1,99,9",,,"04,99,1,99,9,99,9,99999,9,99,9,99,9","10010,1,99999,9",,,,"MET058METAR LEEC 090900Z 23011KT 9999 FEW028 SCT038 17/15 Q1001;","P01 011403SCOCIG"
"08390599999","2010-11-09T10:00:00","4","37.3166666","-6.0","5.0","SEVILLA HELIPORT, SP","FM-15","LEEC ","V020","240,1,N,0051,1","00900,1,C,N","011265,1,N,1","+0180,1","+0140,1","99999,9","02,5,+00600,1,99,9","04,5,+00900,1,99,9","07,5,+01200,1,99,9",,"07,99,1,99,9,99,9,99999,9,99,9,99,9","10000,1,99999,9",,,,"MET065METAR LEEC 091000Z 24010KT 9999 FEW020 SCT030 BKN040 18/14 Q1000;",
"08390599999","2010-11-09T11:00:00","4","37.3166666","-6.0","5.0","SEVILLA HELIPORT, SP","FM-15","LEEC ","V020","250,1,N,0062,1","00900,1,C,N","011265,1,N,1","+0190,1","+0140,1","99999,9","07,5,+00900,1,99,9","07,5,+01350,1,99,9",,,"07,99,1,99,9,99,9,99999,9,99,9,99,9","10000,1,99999,9",,,,"MET058METAR LEEC 091100Z 25012KT 9999 BKN030 BKN045 19/14 Q1000;",
"08390599999","2010-11-09T12:00:00","4","37.3166666","-6.0","5.0","SEVILLA HELIPORT, SP","FM-15","LEEC ","V020","270,1,N,0046,1","00600,1,C,N","011265,1,N,1","+0160,1","+0140,1","99999,9","02,5,+00300,1,99,9","04,5,+00600,1,99,9","07,5,+01500,1,99,9",,"07,99,1,99,9,99,9,99999,9,99,9,99,9","10000,1,99999,9",,,,"MET065METAR LEEC 091200Z 27009KT 9999 FEW010 SCT020 BKN050 16/14 Q1000;",
"08390599999","2010-11-09T13:00:00","4","37.3166666","-6.0","5.0","SEVILLA HELIPORT, SP","FM-15","LEEC ","V020","280,1,N,0062,1","01500,1,C,N","011265,1,N,1","+0170,1","+0120,1","99999,9","02,5,+00240,1,99,9","07,5,+01500,1,99,9",,,"07,99,1,99,9,99,9,99999,9,99,9,99,9","10000,1,99999,9",,,,"MET066METAR LEEC 091300Z 28012KT 250V310 9999 FEW008 BKN050 17/12 Q1000;",
"08390599999","2010-11-09T14:00:00","4","37.3166666","-6.0","5.0","SEVILLA HELIPORT, SP","FM-15","LEEC ","V020","270,1,N,0046,1","99999,9,C,N","011265,1,N,1","+0180,1","+0120,1","99999,9","02,5,+01050,1,99,9","04,5,+01500,1,99,9",,,"04,99,1,99,9,99,9,99999,9,99,9,99,9","10000,1,99999,9",,,,"MET058METAR LEEC 091400Z 27009KT 9999 FEW035 SCT050 18/12 Q1000;","P01 015003SCOCIG"
"08390599999","2010-11-09T15:00:00","4","37.3166666","-6.0","5.0","SEVILLA HELIPORT, SP","FM-15","LEEC ","V020","240,1,N,0036,1","99999,9,C,N","011265,1,N,1","+0180,1","+0130,1","99999,9","04,5,+00600,1,99,9","04,5,+01050,1,99,9",,,"04,99,1,99,9,99,9,99999,9,99,9,99,9","10000,1,99999,9",,,,"MET066METAR LEEC 091500Z 24007KT 220V280 9999 SCT020 SCT035 18/13 Q1000;","P01 010503SCOCIG"
"08390599999","2010-11-10T06:00:00","4","37.3166666","-6.0","5.0","SEVILLA HELIPORT, SP","FM-15","LEEC ","V020","999,9,V,0005,1","99999,9,9,Y","009900,1,N,1","+0070,1","+0070,1","99999,9",,,,,,"10091,1,99999,9",,,,"MET045METAR LEEC 100600Z VRB01KT CAVOK 07/07 Q1009;",
"08390599999","2010-11-10T07:00:00","4","37.3166666","-6.0","5.0","SEVILLA HELIPORT, SP","FM-15","LEEC ","V020","999,9,V,0005,1","99999,9,9,Y","009900,1,N,1","+0070,1","+0070,1","99999,9",,,,,,"10091,1,99999,9",,,,"MET045METAR LEEC 100700Z VRB01KT CAVOK 07/07 Q1009;",
"08390599999","2010-11-10T08:00:00","4","37.3166666","-6.0","5.0","SEVILLA HELIPORT, SP","FM-15","LEEC ","V020","999,9,V,0005,1","99999,9,9,Y","009900,1,N,1","+0080,1","+0080,1","99999,9",,,,,,"10102,1,99999,9",,,,"MET045METAR LEEC 100800Z VRB01KT CAVOK 08/08 Q1010;",
"08390599999","2010-11-10T09:00:00","4","37.3166666","-6.0","5.0","SEVILLA HELIPORT, SP","FM-15","LEEC ","V020","190,1,N,0021,1","99999,9,9,Y","009900,1,N,1","+0110,1","+0100,1","99999,9",,,,,,"10108,1,99999,9",,,,"MET053METAR LEEC 100900Z 19004KT 140V220 CAVOK 11/10 Q1011;",
"08390599999","2010-11-10T10:00:00","4","37.3166666","-6.0","5.0","SEVILLA HELIPORT, SP","FM-15","LEEC ","V020","999,9,V,0015,1","99999,9,9,Y","009900,1,N,1","+0150,1","+0120,1","99999,9",,,,,,"10119,1,99999,9",,,,"MET045METAR LEEC 101000Z VRB03KT CAVOK 15/12 Q1012;",
"08390599999","2010-11-10T11:00:00","4","37.3166666","-6.0","5.0","SEVILLA HELIPORT, SP","FM-15","LEEC ","V020","270,1,N,0041,1","99999,9,9,Y","009900,1,N,1","+0160,1","+0110,1","99999,9",,,,,,"10119,1,99999,9",,,,"MET045METAR LEEC 101100Z 27008KT CAVOK 16/11 Q1012;",
"08390599999","2010-11-10T12:00:00","4","37.3166666","-6.0","5.0","SEVILLA HELIPORT, SP","FM-15","LEEC ","V020","260,1,N,0031,1","22000,1,9,N","011265,1,N,1","+0180,1","+0100,1","99999,9","02,5,+00900,1,99,9",,,,"02,99,1,99,9,99,9,99999,9,99,9,99,9","10119,1,99999,9",,,,"MET059METAR LEEC 101200Z 26006KT 230V300 9999 FEW030 18/10 Q1012;",
"08390599999","2010-11-10T13:00:00","4","37.3166666","-6.0","5.0","SEVILLA HELIPORT, SP","FM-15","LEEC ","V020","280,1,N,0036,1","99999,9,C,N","011265,1,N,1","+0190,1","+0090,1","99999,9","02,5,+01080,1,99,9","04,5,+01380,1,99,9",,,"04,99,1,99,9,99,9,99999,9,99,9,99,9","10119,1,99999,9",,,,"MET066METAR LEEC 101300Z 28007KT 250V340 9999 FEW036 SCT046 19/09 Q1012;","P01 013803SCOCIG"
"08390599999","2010-11-10T14:00:00","4","37.3166666","-6.0","5.0","SEVILLA HELIPORT, SP","FM-15","LEEC ","V020","280,1,N,0036,1","99999,9,C,N","011265,1,N,1","+0200,1","+0070,1","99999,9","04,5,+01200,1,99,9","04,5,+01500,1,99,9",,,"04,99,1,99,9,99,9,99999,9,99,9,99,9","10119,1,99999,9",,,,"MET066METAR LEEC 101400Z 28007KT 250V340 9999 SCT040 SCT050 20/07 Q1012;","P01 015003SCOCIG"
"08390599999","2010-11-10T15:00:00","4","37.3166666","-6.0","5.0","SEVILLA HELIPORT, SP","FM-15","LEEC ","V020","280,1,N,0031,1","99999,9,C,N","011265,1,N,1","+0190,1","+0070,1","99999,9","02,5,+00900,1,99,9","04,5,+01200,1,99,9",,,"04,99,1,99,9,99,9,99999,9,99,9,99,9","10129,1,99999,9",,,,"MET066METAR LEEC 101500Z 28006KT 250V320 9999 FEW030 SCT040 19/07 Q1013;","P01 012003SCOCIG"
"08390599999","2010-11-11T07:00:00","4","37.3166666","-6.0","5.0","SEVILLA HELIPORT, SP","FM-15","LEEC ","V020","999,9,C,0000,1","99999,9,9,Y","009900,1,N,1","+0070,1","+0060,1","99999,9",,,,,,"10230,1,99999,9",,,,"MET045METAR LEEC 110700Z 00000KT CAVOK 07/06 Q1023;",
"08390599999","2010-11-11T08:00:00","4","37.3166666","-6.0","5.0","SEVILLA HELIPORT, SP","FM-15","LEEC ","V020","999,9,C,0000,1","99999,9,9,Y","009900,1,N,1","+0080,1","+0070,1","99999,9",,,,,,"10240,1,99999,9",,,,"MET045METAR LEEC 110800Z 00000KT CAVOK 08/07 Q1024;",
"08390599999","2010-11-11T09:00:00","4","37.3166666","-6.0","5.0","SEVILLA HELIPORT, SP","FM-15","LEEC ","V020","999,9,V,0015,1","99999,9,9,Y","009900,1,N,1","+0110,1","+0080,1","99999,9",,,,,,"10251,1,99999,9",,,,"MET045METAR LEEC 110900Z VRB03KT CAVOK 11/08 Q1025;",
"08390599999","2010-11-11T10:00:00","4","37.3166666","-6.0","5.0","SEVILLA HELIPORT, SP","FM-15","LEEC ","V020","999,9,V,0010,1","99999,9,9,Y","009900,1,N,1","+0140,1","+0070,1","99999,9",,,,,,"10261,1,99999,9",,,,"MET045METAR LEEC 111000Z VRB02KT CAVOK 14/07 Q1026;",
"08390599999","2010-11-11T11:00:00","4","37.3166666","-6.0","5.0","SEVILLA HELIPORT, SP","FM-15","LEEC ","V020","999,9,V,0015,1","99999,9,9,Y","009900,1,N,1","+0150,1","+0080,1","99999,9",,,,,,"10261,1,99999,9",,,,"MET045METAR LEEC 111100Z VRB03KT CAVOK 15/08 Q1026;",
"08390599999","2010-11-11T12:00:00","4","37.3166666","-6.0","5.0","SEVILLA HELIPORT, SP","FM-15","LEEC ","V020","999,9,V,0010,1","99999,9,9,Y","009900,1,N,1","+0160,1","+0070,1","99999,9",,,,,,"10261,1,99999,9",,,,"MET045METAR LEEC 111200Z VRB02KT CAVOK 16/07 Q1026;",
"08390599999","2010-11-11T13:00:00","4","37.3166666","-6.0","5.0","SEVILLA HELIPORT, SP","FM-15","LEEC ","V020","999,9,V,0010,1","99999,9,9,Y","009900,1,N,1","+0180,1","+0070,1","99999,9",,,,,,"10251,1,99999,9",,,,"MET045METAR LEEC 111300Z VRB02KT CAVOK 18/07 Q1025;",
"08390599999","2010-11-11T14:00:00","4","37.3166666","-6.0","5.0","SEVILLA HELIPORT, SP","FM-15","LEEC ","V020","999,9,V,0010,1","99999,9,9,Y","009900,1,N,1","+0190,1","+0060,1","99999,9",,,,,,"10240,1,99999,9",,,,"MET045METAR LEEC 111400Z VRB02KT CAVOK 19/06 Q1024;",
"08390599999","2010-11-11T15:00:00","4","37.3166666","-6.0","5.0","SEVILLA HELIPORT, SP","FM-15","LEEC ","V020","999,9,V,0005,1","99999,9,9,Y","009900,1,N,1","+0200,1","+0030,1","99999,9",,,,,,"10240,1,99999,9",,,,"MET045METAR LEEC 111500Z VRB01KT CAVOK 20/03 Q1024;",
"08390599999","2010-11-12T06:00:00","4","37.3166666","-6.0","5.0","SEVILLA HELIPORT, SP","FM-15","LEEC ","V020","010,1,N,0005,1","99999,9,9,Y","009900,1,N,1","+0100,1","+0090,1","99999,9",,,,,,"10251,1,99999,9",,,,"MET045METAR LEEC 120600Z 01001KT CAVOK 10/09 Q1025;",
"08390599999","2010-11-12T07:00:00","4","37.3166666","-6.0","5.0","SEVILLA HELIPORT, SP","FM-15","LEEC ","V020","999,9,V,0005,1","99999,9,9,Y","009900,1,N,1","+0100,1","+0090,1","99999,9",,,,,,"10251,1,99999,9",,,,"MET045METAR LEEC 120700Z VRB01KT CAVOK 10/09 Q1025;",
"08390599999","2010-11-12T08:00:00","4","37.3166666","-6.0","5.0","SEVILLA HELIPORT, SP","FM-15","LEEC ","V020","999,9,V,0015,1","99999,9,9,Y","009900,1,N,1","+0110,1","+0090,1","99999,9",,,,,,"10251,1,99999,9",,,,"MET045METAR LEEC 120800Z VRB03KT CAVOK 11/09 Q1025;",
"08390599999","2010-11-12T09:00:00","4","37.3166666","-6.0","5.0","SEVILLA HELIPORT, SP","FM-15","LEEC ","V020","050,1,N,0026,1","99999,9,9,Y","009900,1,N,1","+0120,1","+0100,1","99999,9",,,,,,"10251,1,99999,9",,,,"MET045METAR LEEC 120900Z 05005KT CAVOK 12/10 Q1025;",
"08390599999","2010-11-12T10:00:00","4","37.3166666","-6.0","5.0","SEVILLA HELIPORT, SP","FM-15","LEEC ","V020","040,1,N,0031,1","99999,9,9,Y","009900,1,N,1","+0150,1","+0100,1","99999,9",,,,,,"10251,1,99999,9",,,,"MET045METAR LEEC 121000Z 04006KT CAVOK 15/10 Q1025;",
"08390599999","2010-11-12T11:00:00","4","37.3166666","-6.0","5.0","SEVILLA HELIPORT, SP","FM-15","LEEC ","V020","040,1,N,0036,1","99999,9,9,Y","009900,1,N,1","+0160,1","+0100,1","99999,9",,,,,,"10251,1,99999,9",,,,"MET045METAR LEEC 121100Z 04007KT CAVOK 16/10 Q1025;",
"08390599999","2010-11-12T12:00:00","4","37.3166666","-6.0","5.0","SEVILLA HELIPORT, SP","FM-15","LEEC ","V020","040,1,N,0031,1","99999,9,9,Y","009900,1,N,1","+0170,1","+0100,1","99999,9",,,,,,"10240,1,99999,9",,,,"MET045METAR LEEC 121200Z 04006KT CAVOK 17/10 Q1024;",
"08390599999","2010-11-12T13:00:00","4","37.3166666","-6.0","5.0","SEVILLA HELIPORT, SP","FM-15","LEEC ","V020","050,1,N,0021,1","99999,9,9,Y","009900,1,N,1","+0190,1","+0100,1","99999,9",,,,,,"10230,1,99999,9",,,,"MET045METAR LEEC 121300Z 05004KT CAVOK 19/10 Q1023;",
"08390599999","2010-11-12T14:00:00","4","37.3166666","-6.0","5.0","SEVILLA HELIPORT, SP","FM-15","LEEC ","V020","999,9,V,0010,1","99999,9,9,Y","009900,1,N,1","+0200,1","+0090,1","99999,9",,,,,,"10230,1,99999,9",,,,"MET045METAR LEEC 121400Z VRB02KT CAVOK 20/09 Q1023;",
"08390599999","2010-11-15T07:00:00","4","37.3166666","-6.0","5.0","SEVILLA HELIPORT, SP","FM-15","LEEC ","V020","999,9,V,0005,1","99999,9,9,Y","009900,1,N,1","+0070,1","+0060,1","99999,9",,,,,,"10210,1,99999,9",,,,"MET045METAR LEEC 150700Z VRB01KT CAVOK 07/06 Q1021;",
"08390599999","2010-11-15T08:00:00","4","37.3166666","-6.0","5.0","SEVILLA HELIPORT, SP","FM-15","LEEC ","V020","999,9,V,0010,1","99999,9,9,Y","009900,1,N,1","+0080,1","+0070,1","99999,9",,,,,,"10230,1,99999,9",,,,"MET045METAR LEEC 150800Z VRB02KT CAVOK 08/07 Q1023;",
"08390599999","2010-11-15T09:00:00","4","37.3166666","-6.0","5.0","SEVILLA HELIPORT, SP","FM-15","LEEC ","V020","999,9,V,0010,1","99999,9,9,Y","009900,1,N,1","+0110,1","+0080,1","99999,9",,,,,,"10230,1,99999,9",,,,"MET045METAR LEEC 150900Z VRB02KT CAVOK 11/08 Q1023;",
"08390599999","2010-11-15T10:00:00","4","37.3166666","-6.0","5.0","SEVILLA HELIPORT, SP","FM-15","LEEC ","V020","999,9,V,0015,1","99999,9,9,Y","009900,1,N,1","+0130,1","+0080,1","99999,9",,,,,,"10240,1,99999,9",,,,"MET045METAR LEEC 151000Z VRB03KT CAVOK 13/08 Q1024;",
"08390599999","2010-11-15T13:00:00","4","37.3166666","-6.0","5.0","SEVILLA HELIPORT, SP","FM-15","LEEC ","V020","999,9,V,0015,1","99999,9,9,Y","009900,1,N,1","+0170,1","+0050,1","99999,9",,,,,,"10240,1,99999,9",,,,"MET045METAR LEEC 151300Z VRB03KT CAVOK 17/05 Q1024;",
"08390599999","2010-11-15T14:00:00","4","37.3166666","-6.0","5.0","SEVILLA HELIPORT, SP","FM-15","LEEC ","V020","999,9,V,0015,1","99999,9,9,Y","009900,1,N,1","+0170,1","+0050,1","99999,9",,,,,,"10230,1,99999,9",,,,"MET045METAR LEEC 151400Z VRB03KT CAVOK 17/05 Q1023;",
"08390599999","2010-11-15T15:00:00","4","37.3166666","-6.0","5.0","SEVILLA HELIPORT, SP","FM-15","LEEC ","V020","280,1,N,0021,1","22000,1,9,N","011265,1,N,1","+0180,1","+0040,1","99999,9","04,5,+01350,1,99,9",,,,"04,99,1,99,9,99,9,99999,9,99,9,99,9","10230,1,99999,9",,,,"MET051METAR LEEC 151500Z 28004KT 9999 SCT045 18/04 Q1023;",
"08390599999","2010-11-16T07:00:00","4","37.3166666","-6.0","5.0","SEVILLA HELIPORT, SP","FM-15","LEEC ","V020","999,9,V,0015,1","99999,9,9,Y","009900,1,N,1","+0070,1","+0060,1","99999,9",,,,,,"10271,1,99999,9",,,,"MET045METAR LEEC 160700Z VRB03KT CAVOK 07/06 Q1027;",
"08390599999","2010-11-16T08:00:00","4","37.3166666","-6.0","5.0","SEVILLA HELIPORT, SP","FM-15","LEEC ","V020","020,1,N,0036,1","99999,9,9,Y","009900,1,N,1","+0080,1","+0060,1","99999,9",,,,,,"10261,1,99999,9",,,,"MET045METAR LEEC 160800Z 02007KT CAVOK 08/06 Q1026;",
"08390599999","2010-11-16T09:00:00","4","37.3166666","-6.0","5.0","SEVILLA HELIPORT, SP","FM-15","LEEC ","V020","030,1,N,0041,1","99999,9,9,Y","009900,1,N,1","+0090,1","+0060,1","99999,9",,,,,,"10271,1,99999,9",,,,"MET045METAR LEEC 160900Z 03008KT CAVOK 09/06 Q1027;",
"08390599999","2010-11-16T10:00:00","4","37.3166666","-6.0","5.0","SEVILLA HELIPORT, SP","FM-15","LEEC ","V020","030,1,N,0041,1","99999,9,9,Y","009900,1,N,1","+0120,1","+0070,1","99999,9",,,,,,"10271,1,99999,9",,,,"MET045METAR LEEC 161000Z 03008KT CAVOK 12/07 Q1027;",
"08390599999","2010-11-16T11:00:00","4","37.3166666","-6.0","5.0","SEVILLA HELIPORT, SP","FM-15","LEEC ","V020","030,1,N,0031,1","99999,9,9,Y","009900,1,N,1","+0140,1","+0080,1","99999,9",,,,,,"10261,1,99999,9",,,,"MET045METAR LEEC 161100Z 03006KT CAVOK 14/08 Q1026;",
"08390599999","2010-11-16T12:00:00","4","37.3166666","-6.0","5.0","SEVILLA HELIPORT, SP","FM-15","LEEC ","V020","030,1,N,0036,1","99999,9,9,Y","009900,1,N,1","+0150,1","+0070,1","99999,9",,,,,,"10251,1,99999,9",,,,"MET045METAR LEEC 161200Z 03007KT CAVOK 15/07 Q1025;",
"08390599999","2010-11-16T13:00:00","4","37.3166666","-6.0","5.0","SEVILLA HELIPORT, SP","FM-15","LEEC ","V020","030,1,N,0036,1","99999,9,9,Y","009900,1,N,1","+0160,1","+0070,1","99999,9",,,,,,"10240,1,99999,9",,,,"MET045METAR LEEC 161300Z 03007KT CAVOK 16/07 Q1024;",
"08390599999","2010-11-16T14:00:00","4","37.3166666","-6.0","5.0","SEVILLA HELIPORT, SP","FM-15","LEEC ","V020","040,1,N,0031,1","99999,9,9,Y","009900,1,N,1","+0170,1","+0060,1","99999,9",,,,,,"10230,1,99999,9",,,,"MET045METAR LEEC 161400Z 04006KT CAVOK 17/06 Q1023;",
"08390599999","2010-11-16T15:00:00","4","37.3166666","-6.0","5.0","SEVILLA HELIPORT, SP","FM-15","LEEC ","V020","030,1,N,0021,1","99999,9,9,Y","009900,1,N,1","+0170,1","+0050,1","99999,9",,,,,,"10230,1,99999,9",,,,"MET053METAR LEEC 161500Z 03004KT 350V070 CAVOK 17/05 Q1023;",
"08390599999","2010-11-17T07:00:00","4","37.3166666","-6.0","5.0","SEVILLA HELIPORT, SP","FM-15","LEEC ","V020","999,9,C,0000,1","00360,1,C,N","002800,1,N,1","+0080,1","+0070,1","99999,9","07,5,+00360,1,99,9","07,5,+00870,1,99,9",,,"07,99,1,99,9,99,9,99999,9,99,9,99,9","10180,1,99999,9","53,1",,,"MET061METAR LEEC 170700Z 00000KT 2800 DZ BKN012 BKN029 08/07 Q1018;",
"08390599999","2010-11-17T08:00:00","4","37.3166666","-6.0","5.0","SEVILLA HELIPORT, SP","FM-15","LEEC ","V020","110,1,N,0010,1","00750,1,C,N","003500,1,N,1","+0080,1","+0080,1","99999,9","02,5,+00330,1,99,9","07,5,+00750,1,99,9","08,5,+00960,1,99,9",,"08,99,1,99,9,99,9,99999,9,99,9,99,9","10180,1,99999,9","10,1","53,1",,"MET071METAR LEEC 170800Z 11002KT 3500 DZ BR FEW011 BKN025 OVC032 08/08 Q1018;",
"08390599999","2010-11-17T09:00:00","4","37.3166666","-6.0","5.0","SEVILLA HELIPORT, SP","FM-15","LEEC ","V020","140,1,N,0010,1","00600,1,C,N","005000,1,N,1","+0090,1","+0090,1","99999,9","07,5,+00600,1,99,9","08,5,+00900,1,99,9",,,"08,99,1,99,9,99,9,99999,9,99,9,99,9","10180,1,99999,9","53,1",,,"MET061METAR LEEC 170900Z 14002KT 5000 DZ BKN020 OVC030 09/09 Q1018;",
"08390599999","2010-11-17T10:00:00","4","37.3166666","-6.0","5.0","SEVILLA HELIPORT, SP","FM-15","LEEC ","V020","999,9,V,0010,1","00450,1,C,N","002200,1,N,1","+0100,1","+0100,1","99999,9","02,5,+00120,1,99,9","07,5,+00450,1,99,9",,,"07,99,1,99,9,99,9,99999,9,99,9,99,9","10180,1,99999,9","10,1","53,1",,"MET064METAR LEEC 171000Z VRB02KT 2200 DZ BR FEW004 BKN015 10/10 Q1018;",
"08390599999","2010-11-17T11:00:00","4","37.3166666","-6.0","5.0","SEVILLA HELIPORT, SP","FM-15","LEEC ","V020","999,9,V,0010,1","00150,1,C,N","002500,1,N,1","+0110,1","+0110,1","99999,9","08,5,+00150,1,99,9",,,,"08,99,1,99,9,99,9,99999,9,99,9,99,9","10169,1,99999,9","10,1","51,1",,"MET058METAR LEEC 171100Z VRB02KT 2500 -DZ BR OVC005 11/11 Q1017;",
"08390599999","2010-11-17T12:00:00","4","37.3166666","-6.0","5.0","SEVILLA HELIPORT, SP","FM-15","LEEC ","V020","999,9,V,0005,1","00090,1,C,N","001100,1,N,1","+0120,1","+0110,1","99999,9","08,5,+00090,1,99,9",,,,"08,99,1,99,9,99,9,99999,9,99,9,99,9","10159,1,99999,9","10,1","61,1",,"MET058METAR LEEC 171200Z VRB01KT 1100 -RA BR OVC003 12/11 Q1016;",
"08390599999","2010-11-17T13:00:00","4","37.3166666","-6.0","5.0","SEVILLA HELIPORT, SP","FM-15","LEEC ","V020","999,9,V,0010,1","00090,1,C,N","001100,1,N,1","+0110,1","+0110,1","99999,9","08,5,+00090,1,99,9",,,,"08,99,1,99,9,99,9,99999,9,99,9,99,9","10149,1,99999,9","10,1","55,1",,"MET058METAR LEEC 171300Z VRB02KT 1100 +DZ BR OVC003 11/11 Q1015;",
"08390599999","2010-11-17T14:00:00","4","37.3166666","-6.0","5.0","SEVILLA HELIPORT, SP","FM-15","LEEC ","V020","010,1,N,0021,1","00090,1,C,N","001100,1,N,1","+0110,1","+0110,1","99999,9","08,5,+00090,1,99,9",,,,"08,99,1,99,9,99,9,99999,9,99,9,99,9","10149,1,99999,9","10,1","63,1",,"MET065METAR LEEC 171400Z 01004KT 340V060 1100 RA BR OVC003 11/11 Q1015;",
"08390599999","2010-11-17T15:00:00","4","37.3166666","-6.0","5.0","SEVILLA HELIPORT, SP","FM-15","LEEC ","V020","020,1,N,0031,1","00090,1,C,N","001100,1,N,1","+0110,1","+0110,1","99999,9","07,5,+00090,1,99,9","08,5,+00390,1,99,9",,,"08,99,1,99,9,99,9,99999,9,99,9,99,9","10149,1,99999,9","10,1","63,1",,"MET064METAR LEEC 171500Z 02006KT 1100 RA BR BKN003 OVC013 11/11 Q1015;",
"08390599999","2010-11-18T07:00:00","4","37.3166666","-6.0","5.0","SEVILLA HELIPORT, SP","FM-15","LEEC ","V020","999,9,V,0005,1","00030,1,9,N","000100,1,N,1","+0040,1","+0040,1","99999,9","09,1,+00030,1,99,9",,,,"09,99,1,99,9,99,9,00025,1,99,9,99,9","10190,1,99999,9","45,1",,,"MET053METAR LEEC 180700Z VRB01KT 0100 FG VV001 04/04 Q1019;",
"08390599999","2010-11-18T08:00:00","4","37.3166666","-6.0","5.0","SEVILLA HELIPORT, SP","FM-15","LEEC ","V020","999,9,C,0000,1","00030,1,9,N","000100,1,N,1","+0050,1","+0050,1","99999,9","09,1,+00030,1,99,9",,,,"09,99,1,99,9,99,9,00025,1,99,9,99,9","10200,1,99999,9","45,1",,,"MET053METAR LEEC 180800Z 00000KT 0100 FG VV001 05/05 Q1020;",
"08390599999","2010-11-18T09:00:00","4","37.3166666","-6.0","5.0","SEVILLA HELIPORT, SP","FM-15","LEEC ","V020","999,9,C,0000,1","00030,1,9,N","000300,1,N,1","+0060,1","+0060,1","99999,9","09,1,+00030,1,99,9",,,,"09,99,1,99,9,99,9,00025,1,99,9,99,9","10210,1,99999,9","45,1",,,"MET053METAR LEEC 180900Z 00000KT 0300 FG VV001 06/06 Q1021;",
"08390599999","2010-11-18T09:25:00","4","37.3166666","-6.0","5.0","SEVILLA HELIPORT, SP","FM-16","LEEC ","V020","999,9,C,0000,1","00090,1,9,N","000900,1,N,1","+0070,1","+0070,1","99999,9","09,1,+00090,1,99,9",,,,"09,99,1,99,9,99,9,00025,1,99,9,99,9","10210,1,99999,9","45,1",,,"MET053SPECI LEEC 180925Z 00000KT 0900 FG VV003 07/07 Q1021;",
"08390599999","2010-11-18T10:00:00","4","37.3166666","-6.0","5.0","SEVILLA HELIPORT, SP","FM-15","LEEC ","V020","999,9,V,0005,1","99999,9,C,N","003500,1,N,1","+0080,1","+0080,1","99999,9","02,5,+00060,1,99,9","04,5,+00150,1,99,9",,,"04,99,1,99,9,99,9,99999,9,99,9,99,9","10210,1,99999,9","10,1",,,"MET061METAR LEEC 181000Z VRB01KT 3500 BR FEW002 SCT005 08/08 Q1021;","P01 001503SCOCIG"
"08390599999","2010-11-18T11:00:00","4","37.3166666","-6.0","5.0","SEVILLA HELIPORT, SP","FM-15","LEEC ","V020","080,1,N,0021,1","22000,1,9,N","008000,1,N,1","+0100,1","+0100,1","99999,9","02,5,+00150,1,99,9",,,,"02,99,1,99,9,99,9,99999,9,99,9,99,9","10210,1,99999,9",,,,"MET059METAR LEEC 181100Z 08004KT 040V120 8000 FEW005 10/10 Q1021;",
"08390599999","2010-11-18T12:00:00","4","37.3166666","-6.0","5.0","SEVILLA HELIPORT, SP","FM-15","LEEC ","V020","999,9,V,0010,1","22000,1,9,N","011265,1,N,1","+0120,1","+0100,1","99999,9","02,5,+00150,1,99,9",,,,"02,99,1,99,9,99,9,99999,9,99,9,99,9","10200,1,99999,9",,,,"MET051METAR LEEC 181200Z VRB02KT 9999 FEW005 12/10 Q1020;",
"08390599999","2010-11-18T13:00:00","4","37.3166666","-6.0","5.0","SEVILLA HELIPORT, SP","FM-15","LEEC ","V020","999,9,V,0010,1","22000,1,9,N","011265,1,N,1","+0130,1","+0090,1","99999,9","02,5,+00450,1,99,9",,,,"02,99,1,99,9,99,9,99999,9,99,9,99,9","10190,1,99999,9",,,,"MET051METAR LEEC 181300Z VRB02KT 9999 FEW015 13/09 Q1019;",
"08390599999","2010-11-18T14:00:00","4","37.3166666","-6.0","5.0","SEVILLA HELIPORT, SP","FM-15","LEEC ","V020","999,9,V,0005,1","99999,9,9,Y","009900,1,N,1","+0150,1","+0100,1","99999,9",,,,,,"10190,1,99999,9",,,,"MET045METAR LEEC 181400Z VRB01KT CAVOK 15/10 Q1019;",
"08390599999","2010-11-18T15:00:00","4","37.3166666","-6.0","5.0","SEVILLA HELIPORT, SP","FM-15","LEEC ","V020","999,9,V,0005,1","22000,1,9,N","011265,1,N,1","+0150,1","+0090,1","99999,9","02,5,+00450,1,99,9",,,,"02,99,1,99,9,99,9,99999,9,99,9,99,9","10190,1,99999,9",,,,"MET051METAR LEEC 181500Z VRB01KT 9999 FEW015 15/09 Q1019;",
"08390599999","2010-11-19T07:00:00","4","37.3166666","-6.0","5.0","SEVILLA HELIPORT, SP","FM-15","LEEC ","V020","030,1,N,0031,1","99999,9,9,Y","009900,1,N,1","+0100,1","+0070,1","99999,9",,,,,,"10180,1,99999,9",,,,"MET045METAR LEEC 190700Z 03006KT CAVOK 10/07 Q1018;",
"08390599999","2010-11-19T08:00:00","4","37.3166666","-6.0","5.0","SEVILLA HELIPORT, SP","FM-15","LEEC ","V020","020,1,N,0031,1","99999,9,9,Y","009900,1,N,1","+0100,1","+0080,1","99999,9",,,,,,"10180,1,99999,9",,,,"MET045METAR LEEC 190800Z 02006KT CAVOK 10/08 Q1018;",
"08390599999","2010-11-19T09:00:00","4","37.3166666","-6.0","5.0","SEVILLA HELIPORT, SP","FM-15","LEEC ","V020","020,1,N,0026,1","99999,9,9,Y","009900,1,N,1","+0110,1","+0080,1","99999,9",,,,,,"10180,1,99999,9",,,,"MET045METAR LEEC 190900Z 02005KT CAVOK 11/08 Q1018;",
"08390599999","2010-11-19T10:00:00","4","37.3166666","-6.0","5.0","SEVILLA HELIPORT, SP","FM-15","LEEC ","V020","999,9,V,0015,1","99999,9,9,Y","009900,1,N,1","+0120,1","+0080,1","99999,9",,,,,,"10180,1,99999,9",,,,"MET045METAR LEEC 191000Z VRB03KT CAVOK 12/08 Q1018;",
"08390599999","2010-11-19T11:00:00","4","37.3166666","-6.0","5.0","SEVILLA HELIPORT, SP","FM-15","LEEC ","V020","040,1,N,0026,1","99999,9,9,Y","009900,1,N,1","+0130,1","+0070,1","99999,9",,,,,,"10180,1,99999,9",,,,"MET045METAR LEEC 191100Z 04005KT CAVOK 13/07 Q1018;",
"08390599999","2010-11-19T12:00:00","4","37.3166666","-6.0","5.0","SEVILLA HELIPORT, SP","FM-15","LEEC ","V020","999,9,V,0015,1","99999,9,9,Y","009900,1,N,1","+0150,1","+0070,1","99999,9",,,,,,"10180,1,99999,9",,,,"MET045METAR LEEC 191200Z VRB03KT CAVOK 15/07 Q1018;",
"08390599999","2010-11-19T13:00:00","4","37.3166666","-6.0","5.0","SEVILLA HELIPORT, SP","FM-15","LEEC ","V020","999,9,V,0010,1","99999,9,9,Y","009900,1,N,1","+0160,1","+0080,1","99999,9",,,,,,"10169,1,99999,9",,,,"MET045METAR LEEC 191300Z VRB02KT CAVOK 16/08 Q1017;",
"08390599999","2010-11-19T14:00:00","4","37.3166666","-6.0","5.0","SEVILLA HELIPORT, SP","FM-15","LEEC ","V020","999,9,V,0010,1","22000,1,9,N","011265,1,N,1","+0170,1","+0070,1","99999,9","02,5,+00900,1,99,9",,,,"02,99,1,99,9,99,9,99999,9,99,9,99,9","10169,1,99999,9",,,,"MET051METAR LEEC 191400Z VRB02KT 9999 FEW030 17/07 Q1017;",
"08390599999","2010-11-22T06:00:00","4","37.3166666","-6.0","5.0","SEVILLA HELIPORT, SP","FM-15","LEEC ","V020","999,9,V,0005,1","99999,9,9,Y","009900,1,N,1","+0090,1","+0080,1","99999,9",,,,,,"10139,1,99999,9",,,,"MET045METAR LEEC 220600Z VRB01KT CAVOK 09/08 Q1014;",
"08390599999","2010-11-22T07:00:00","4","37.3166666","-6.0","5.0","SEVILLA HELIPORT, SP","FM-15","LEEC ","V020","999,9,V,0015,1","99999,9,9,Y","009900,1,N,1","+0080,1","+0080,1","99999,9",,,,,,"10139,1,99999,9",,,,"MET045METAR LEEC 220700Z VRB03KT CAVOK 08/08 Q1014;",
"08390599999","2010-11-22T08:00:00","4","37.3166666","-6.0","5.0","SEVILLA HELIPORT, SP","FM-15","LEEC ","V020","999,9,V,0010,1","99999,9,9,Y","009900,1,N,1","+0100,1","+0080,1","99999,9",,,,,,"10139,1,99999,9",,,,"MET045METAR LEEC 220800Z VRB02KT CAVOK 10/08 Q1014;",
"08390599999","2010-11-22T09:00:00","4","37.3166666","-6.0","5.0","SEVILLA HELIPORT, SP","FM-15","LEEC ","V020","250,1,N,0021,1","99999,9,9,Y","009900,1,N,1","+0110,1","+0090,1","99999,9",,,,,,"10139,1,99999,9",,,,"MET045METAR LEEC 220900Z 25004KT CAVOK 11/09 Q1014;",
"08390599999","2010-11-22T10:00:00","4","37.3166666","-6.0","5.0","SEVILLA HELIPORT, SP","FM-15","LEEC ","V020","999,9,V,0015,1","99999,9,9,Y","009900,1,N,1","+0130,1","+0090,1","99999,9",,,,,,"10149,1,99999,9",,,,"MET045METAR LEEC 221000Z VRB03KT CAVOK 13/09 Q1015;",
"08390599999","2010-11-22T11:00:00","4","37.3166666","-6.0","5.0","SEVILLA HELIPORT, SP","FM-15","LEEC ","V020","999,9,V,0015,1","22000,1,9,N","011265,1,N,1","+0140,1","+0090,1","99999,9","02,5,+01350,1,99,9",,,,"02,99,1,99,9,99,9,99999,9,99,9,99,9","10149,1,99999,9",,,,"MET051METAR LEEC 221100Z VRB03KT 9999 FEW045 14/09 Q1015;",
"08390599999","2010-11-22T12:00:00","4","37.3166666","-6.0","5.0","SEVILLA HELIPORT, SP","FM-15","LEEC ","V020","270,1,N,0031,1","99999,9,C,N","011265,1,N,1","+0160,1","+0080,1","99999,9","02,5,+00900,1,99,9","04,5,+01350,1,99,9",,,"04,99,1,99,9,99,9,99999,9,99,9,99,9","10139,1,99999,9",,,,"MET058METAR LEEC 221200Z 27006KT 9999 FEW030 SCT045 16/08 Q1014;","P01 013503SCOCIG"
"08390599999","2010-11-22T13:00:00","4","37.3166666","-6.0","5.0","SEVILLA HELIPORT, SP","FM-15","LEEC ","V020","270,1,N,0031,1","99999,9,C,N","011265,1,N,1","+0170,1","+0070,1","99999,9","02,5,+00900,1,99,9","04,5,+01350,1,99,9",,,"04,99,1,99,9,99,9,99999,9,99,9,99,9","10129,1,99999,9",,,,"MET066METAR LEEC 221300Z 27006KT 250V310 9999 FEW030 SCT045 17/07 Q1013;","P01 013503SCOCIG"
"08390599999","2010-11-22T14:00:00","4","37.3166666","-6.0","5.0","SEVILLA HELIPORT, SP","FM-15","LEEC ","V020","250,1,N,0036,1","99999,9,C,N","011265,1,N,1","+0170,1","+0080,1","99999,9","02,5,+00900,1,99,9","04,5,+01350,1,99,9",,,"04,99,1,99,9,99,9,99999,9,99,9,99,9","10129,1,99999,9",,,,"MET066METAR LEEC 221400Z 25007KT 220V280 9999 FEW030 SCT045 17/08 Q1013;","P01 013503SCOCIG"
"08390599999","2010-11-22T15:00:00","4","37.3166666","-6.0","5.0","SEVILLA HELIPORT, SP","FM-15","LEEC ","V020","260,1,N,0031,1","99999,9,C,N","011265,1,N,1","+0180,1","+0070,1","99999,9","02,5,+01050,1,99,9","04,5,+01350,1,99,9",,,"04,99,1,99,9,99,9,99999,9,99,9,99,9","10129,1,99999,9",,,,"MET066METAR LEEC 221500Z 26006KT 210V300 9999 FEW035 SCT045 18/07 Q1013;","P01 013503SCOCIG"
"08390599999","2010-11-23T06:00:00","4","37.3166666","-6.0","5.0","SEVILLA HELIPORT, SP","FM-15","LEEC ","V020","999,9,V,0010,1","01350,1,C,N","011265,1,N,1","+0100,1","+0090,1","99999,9","07,5,+01350,1,99,9",,,,"07,99,1,99,9,99,9,99999,9,99,9,99,9","10139,1,99999,9",,,,"MET051METAR LEEC 230600Z VRB02KT 9999 BKN045 10/09 Q1014;",
"08390599999","2010-11-23T07:00:00","4","37.3166666","-6.0","5.0","SEVILLA HELIPORT, SP","FM-15","LEEC ","V020","999,9,V,0010,1","99999,9,9,Y","009900,1,N,1","+0100,1","+0090,1","99999,9",,,,,,"10129,1,99999,9",,,,"MET045METAR LEEC 230700Z VRB02KT CAVOK 10/09 Q1013;",
"08390599999","2010-11-23T10:00:00","4","37.3166666","-6.0","5.0","SEVILLA HELIPORT, SP","FM-15","LEEC ","V020","030,1,N,0026,1","00900,1,C,N","011265,1,N,1","+0120,1","+0100,1","99999,9","02,5,+00450,1,99,9","07,5,+00900,1,99,9","07,5,+01200,1,99,9",,"07,99,1,99,9,99,9,99999,9,99,9,99,9","10139,1,99999,9",,,,"MET065METAR LEEC 231000Z 03005KT 9999 FEW015 BKN030 BKN040 12/10 Q1014;",
"08390599999","2010-11-23T11:00:00","4","37.3166666","-6.0","5.0","SEVILLA HELIPORT, SP","FM-15","LEEC ","V020","020,1,N,0021,1","00600,1,C,N","001000,1,N,1","+0120,1","+0100,1","99999,9","04,5,+00450,1,99,9","07,5,+00600,1,99,9","07,5,+00840,1,99,9",,"07,99,1,99,9,99,9,99999,9,99,9,99,9","10139,1,99999,9",,,,"MET067METAR LEEC 231100Z 02004KT 1000SE SCT015 BKN020 BKN028 12/10 Q1014;",
"08390599999","2010-11-23T12:00:00","4","37.3166666","-6.0","5.0","SEVILLA HELIPORT, SP","FM-15","LEEC ","V020","030,1,N,0031,1","00900,1,C,N","001000,1,N,1","+0120,1","+0110,1","99999,9","02,5,+00300,1,99,9","07,5,+00900,1,99,9","07,5,+01110,1,99,9",,"07,99,1,99,9,99,9,99999,9,99,9,99,9","10139,1,99999,9","63,1",,,"MET068METAR LEEC 231200Z 03006KT 1000 RA FEW010 BKN030 BKN037 12/11 Q1014;",
"08390599999","2010-11-23T13:00:00","4","37.3166666","-6.0","5.0","SEVILLA HELIPORT, SP","FM-15","LEEC ","V020","040,1,N,0026,1","00900,1,C,N","009000,1,N,1","+0130,1","+0120,1","99999,9","02,5,+00450,1,99,9","08,5,+00900,1,99,9",,,"08,99,1,99,9,99,9,99999,9,99,9,99,9","10129,1,99999,9",,,,"MET064METAR LEEC 231300Z 04005KT 9000 3500S FEW015 OVC030 13/12 Q1013;",
"08390599999","2010-11-23T14:00:00","4","37.3166666","-6.0","5.0","SEVILLA HELIPORT, SP","FM-15","LEEC ","V020","060,1,N,0026,1","00600,1,C,N","003000,1,N,1","+0130,1","+0120,1","99999,9","07,5,+00600,1,99,9","08,5,+00810,1,99,9",,,"08,99,1,99,9,99,9,99999,9,99,9,99,9","10129,1,99999,9","51,1",,,"MET062METAR LEEC 231400Z 06005KT 3000 -DZ BKN020 OVC027 13/12 Q1013;",
"08390599999","2010-11-23T15:00:00","4","37.3166666","-6.0","5.0","SEVILLA HELIPORT, SP","FM-15","LEEC ","V020","050,1,N,0021,1","00390,1,C,N","002000,1,N,1","+0130,1","+0120,1","99999,9","02,5,+00180,1,99,9","07,5,+00390,1,99,9","08,5,+00900,1,99,9",,"08,99,1,99,9,99,9,99999,9,99,9,99,9","10119,1,99999,9","61,1",,,"MET075METAR LEEC 231500Z 05004KT 2000 1000S -RA FEW006 BKN013 OVC030 13/12 Q1012;",
"08390599999","2010-11-24T06:00:00","4","37.3166666","-6.0","5.0","SEVILLA HELIPORT, SP","FM-15","LEEC ","V020","030,1,N,0015,1","00090,1,C,N","005000,1,N,1","+0120,1","+0120,1","99999,9","08,5,+00090,1,99,9",,,,"08,99,1,99,9,99,9,99999,9,99,9,99,9","10119,1,99999,9","10,1",,,"MET054METAR LEEC 240600Z 03003KT 5000 BR OVC003 12/12 Q1012;",
"08390599999","2010-11-24T07:00:00","4","37.3166666","-6.0","5.0","SEVILLA HELIPORT, SP","FM-15","LEEC ","V020","999,9,V,0010,1","00060,1,C,N","001000,1,N,1","+0120,1","+0120,1","99999,9","08,5,+00060,1,99,9",,,,"08,99,1,99,9,99,9,99999,9,99,9,99,9","10119,1,99999,9","40,1",,,"MET056METAR LEEC 240700Z VRB02KT 1000 VCFG OVC002 12/12 Q1012;",
"08390599999","2010-11-24T08:00:00","4","37.3166666","-6.0","5.0","SEVILLA HELIPORT, SP","FM-15","LEEC ","V020","999,9,V,0010,1","00060,1,C,N","001000,1,N,1","+0130,1","+0130,1","99999,9","08,5,+00060,1,99,9",,,,"08,99,1,99,9,99,9,99999,9,99,9,99,9","10129,1,99999,9","40,1",,,"MET056METAR LEEC 240800Z VRB02KT 1000 VCFG OVC002 13/13 Q1013;",
"08390599999","2010-11-24T09:00:00","4","37.3166666","-6.0","5.0","SEVILLA HELIPORT, SP","FM-15","LEEC ","V020","040,1,N,0021,1","00090,1,C,N","001000,1,N,1","+0130,1","+0130,1","99999,9","08,5,+00090,1,99,9",,,,"08,99,1,99,9,99,9,99999,9,99,9,99,9","10129,1,99999,9","40,1",,,"MET056METAR LEEC 240900Z 04004KT 1000 VCFG OVC003 13/13 Q1013;",
"08390599999","2010-11-24T10:00:00","4","37.3166666","-6.0","5.0","SEVILLA HELIPORT, SP","FM-15","LEEC ","V020","999,9,V,0015,1","00060,1,C,N","000500,1,N,1","+0130,1","+0130,1","99999,9","08,5,+00060,1,99,9",,,,"08,99,1,99,9,99,9,99999,9,99,9,99,9","10129,1,99999,9","40,1",,,"MET056METAR LEEC 241000Z VRB03KT 0500 VCFG OVC002 13/13 Q1013;",
"08390599999","2010-11-24T11:00:00","4","37.3166666","-6.0","5.0","SEVILLA HELIPORT, SP","FM-15","LEEC ","V020","999,9,V,0010,1","00120,1,C,N","001000,1,N,1","+0140,1","+0140,1","99999,9","08,5,+00120,1,99,9",,,,"08,99,1,99,9,99,9,99999,9,99,9,99,9","10129,1,99999,9","40,1",,,"MET056METAR LEEC 241100Z VRB02KT 1000 VCFG OVC004 14/14 Q1013;",
"08390599999","2010-11-24T12:00:00","4","37.3166666","-6.0","5.0","SEVILLA HELIPORT, SP","FM-15","LEEC ","V020","030,1,N,0015,1","00030,1,C,N","000800,1,N,1","+0150,1","+0140,1","99999,9","08,5,+00030,1,99,9",,,,"08,99,1,99,9,99,9,99999,9,99,9,99,9","10119,1,99999,9","40,1",,,"MET056METAR LEEC 241200Z 03003KT 0800 VCFG OVC001 15/14 Q1012;",
"08390599999","2010-11-24T13:00:00","4","37.3166666","-6.0","5.0","SEVILLA HELIPORT, SP","FM-15","LEEC ","V020","020,1,N,0015,1","00120,1,C,N","000900,1,N,1","+0150,1","+0150,1","99999,9","08,5,+00120,1,99,9",,,,"08,99,1,99,9,99,9,99999,9,99,9,99,9","10119,1,99999,9","40,1",,,"MET056METAR LEEC 241300Z 02003KT 0900 VCFG OVC004 15/15 Q1012;",
"08390599999","2010-11-24T14:00:00","4","37.3166666","-6.0","5.0","SEVILLA HELIPORT, SP","FM-15","LEEC ","V020","999,9,V,0015,1","00150,1,C,N","001000,1,N,1","+0150,1","+0150,1","99999,9","08,5,+00150,1,99,9",,,,"08,99,1,99,9,99,9,99999,9,99,9,99,9","10119,1,99999,9","40,1",,,"MET056METAR LEEC 241400Z VRB03KT 1000 VCFG OVC005 15/15 Q1012;",
"08390599999","2010-11-24T15:00:00","4","37.3166666","-6.0","5.0","SEVILLA HELIPORT, SP","FM-15","LEEC ","V020","020,1,N,0021,1","00750,1,C,N","002000,1,N,1","+0160,1","+0150,1","99999,9","02,5,+00180,1,99,9","07,5,+00750,1,99,9","07,5,+01350,1,99,9",,"07,99,1,99,9,99,9,99999,9,99,9,99,9","10108,1,99999,9","10,1",,,"MET068METAR LEEC 241500Z 02004KT 2000 BR FEW006 BKN025 BKN045 16/15 Q1011;",
"08390599999","2010-11-25T06:00:00","4","37.3166666","-6.0","5.0","SEVILLA HELIPORT, SP","FM-15","LEEC ","V020","220,1,N,0015,1","00090,1,C,N","000500,1,N,1","+0150,1","+0150,1","99999,9","08,5,+00090,1,99,9",,,,"08,99,1,99,9,99,9,99999,9,99,9,99,9","10108,1,99999,9","44,1",,,"MET054METAR LEEC 250600Z 22003KT 0500 FG OVC003 15/15 Q1011;",
"08390599999","2010-11-25T07:00:00","4","37.3166666","-6.0","5.0","SEVILLA HELIPORT, SP","FM-15","LEEC ","V020","999,9,V,0010,1","00450,1,C,N","003000,1,N,1","+0150,1","+0150,1","99999,9","02,5,+00300,1,99,9","07,5,+00450,1,99,9","07,5,+01200,1,99,9",,"07,99,1,99,9,99,9,99999,9,99,9,99,9","10119,1,99999,9","10,1",,,"MET068METAR LEEC 250700Z VRB02KT 3000 BR FEW010 BKN015 BKN040 15/15 Q1012;",
"08390599999","2010-11-25T08:00:00","4","37.3166666","-6.0","5.0","SEVILLA HELIPORT, SP","FM-15","LEEC ","V020","220,1,N,0015,1","00210,1,C,N","001000,1,N,1","+0140,1","+0140,1","99999,9","04,5,+00090,1,99,9","08,5,+00210,1,99,9",,,"08,99,1,99,9,99,9,99999,9,99,9,99,9","10119,1,99999,9","10,1",,,"MET061METAR LEEC 250800Z 22003KT 1000 BR SCT003 OVC007 14/14 Q1012;",
"08390599999","2010-11-25T09:00:00","4","37.3166666","-6.0","5.0","SEVILLA HELIPORT, SP","FM-15","LEEC ","V020","220,1,N,0010,1","00030,1,C,N","000500,1,N,1","+0140,1","+0140,1","99999,9","08,5,+00030,1,99,9",,,,"08,99,1,99,9,99,9,99999,9,99,9,99,9","10119,1,99999,9","40,1",,,"MET056METAR LEEC 250900Z 22002KT 0500 VCFG OVC001 14/14 Q1012;",
"08390599999","2010-11-25T10:00:00","4","37.3166666","-6.0","5.0","SEVILLA HELIPORT, SP","FM-15","LEEC ","V020","999,9,V,0010,1","00090,1,C,N","002000,1,N,1","+0150,1","+0150,1","99999,9","08,5,+00090,1,99,9",,,,"08,99,1,99,9,99,9,99999,9,99,9,99,9","10129,1,99999,9","10,1",,,"MET054METAR LEEC 251000Z VRB02KT 2000 BR OVC003 15/15 Q1013;",
"08390599999","2010-11-25T11:00:00","4","37.3166666","-6.0","5.0","SEVILLA HELIPORT, SP","FM-15","LEEC ","V020","999,9,V,0005,1","00900,1,C,N","011265,1,N,1","+0160,1","+0150,1","99999,9","02,5,+00180,1,99,9","07,5,+00900,1,99,9",,,"07,99,1,99,9,99,9,99999,9,99,9,99,9","10129,1,99999,9",,,,"MET058METAR LEEC 251100Z VRB01KT 9999 FEW006 BKN030 16/15 Q1013;",
"08390599999","2010-11-25T12:00:00","4","37.3166666","-6.0","5.0","SEVILLA HELIPORT, SP","FM-15","LEEC ","V020","200,1,N,0021,1","00600,1,C,N","011265,1,N,1","+0160,1","+0140,1","99999,9","02,5,+00240,1,99,9","04,5,+00600,1,99,9","07,5,+00900,1,99,9",,"07,99,1,99,9,99,9,99999,9,99,9,99,9","10119,1,99999,9",,,,"MET065METAR LEEC 251200Z 20004KT 9999 FEW008 SCT020 BKN030 16/14 Q1012;",
"08390599999","2010-11-25T13:00:00","4","37.3166666","-6.0","5.0","SEVILLA HELIPORT, SP","FM-15","LEEC ","V020","210,1,N,0021,1","00900,1,C,N","011265,1,N,1","+0170,1","+0140,1","99999,9","02,5,+00240,1,99,9","07,5,+00900,1,99,9",,,"07,99,1,99,9,99,9,99999,9,99,9,99,9","10108,1,99999,9",,,,"MET058METAR LEEC 251300Z 21004KT 9999 FEW008 BKN030 17/14 Q1011;",
"08390599999","2010-11-25T14:00:00","4","37.3166666","-6.0","5.0","SEVILLA HELIPORT, SP","FM-15","LEEC ","V020","210,1,N,0021,1","01050,1,C,N","011265,1,N,1","+0180,1","+0140,1","99999,9","02,5,+00450,1,99,9","07,5,+01050,1,99,9",,,"07,99,1,99,9,99,9,99999,9,99,9,99,9","10108,1,99999,9",,,,"MET066METAR LEEC 251400Z 21004KT 160V250 9999 FEW015 BKN035 18/14 Q1011;",
"08390599999","2010-11-25T15:00:00","4","37.3166666","-6.0","5.0","SEVILLA HELIPORT, SP","FM-15","LEEC ","V020","200,1,N,0026,1","99999,9,C,N","011265,1,N,1","+0170,1","+0140,1","99999,9","02,5,+00600,1,99,9","04,5,+00960,1,99,9",,,"04,99,1,99,9,99,9,99999,9,99,9,99,9","10108,1,99999,9",,,,"MET058METAR LEEC 251500Z 20005KT 9999 FEW020 SCT032 17/14 Q1011;","P01 009603SCOCIG"
"08390599999","2010-11-26T06:00:00","4","37.3166666","-6.0","5.0","SEVILLA HELIPORT, SP","FM-15","LEEC ","V020","030,1,N,0026,1","22000,1,9,N","011265,1,N,1","+0120,1","+0100,1","99999,9","02,5,+00600,1,99,9",,,,"02,99,1,99,9,99,9,99999,9,99,9,99,9","10081,1,99999,9",,,,"MET051METAR LEEC 260600Z 03005KT 9999 FEW020 12/10 Q1008;",
"08390599999","2010-11-26T08:00:00","4","37.3166666","-6.0","5.0","SEVILLA HELIPORT, SP","FM-15","LEEC ","V020","030,1,N,0031,1","99999,9,9,Y","009900,1,N,1","+0120,1","+0100,1","99999,9",,,,,,"10081,1,99999,9",,,,"MET045METAR LEEC 260800Z 03006KT CAVOK 12/10 Q1008;",
"08390599999","2010-11-26T09:00:00","4","37.3166666","-6.0","5.0","SEVILLA HELIPORT, SP","FM-15","LEEC ","V020","040,1,N,0051,1","00750,1,C,N","011265,1,N,1","+0130,1","+0070,1","99999,9","02,5,+00450,1,99,9","04,5,+00750,1,99,9","07,5,+01500,1,99,9",,"07,99,1,99,9,99,9,99999,9,99,9,99,9","10081,1,99999,9",,,,"MET065METAR LEEC 260900Z 04010KT 9999 FEW015 SCT025 BKN050 13/07 Q1008;",
"08390599999","2010-11-26T10:00:00","4","37.3166666","-6.0","5.0","SEVILLA HELIPORT, SP","FM-15","LEEC ","V020","050,1,N,0057,1","01500,1,C,N","011265,1,N,1","+0130,1","+0060,1","99999,9","02,5,+00900,1,99,9","07,5,+01500,1,99,9",,,"07,99,1,99,9,99,9,99999,9,99,9,99,9","10081,1,99999,9",,,,"MET058METAR LEEC 261000Z 05011KT 9999 FEW030 BKN050 13/06 Q1008;",
"08390599999","2010-11-26T11:00:00","4","37.3166666","-6.0","5.0","SEVILLA HELIPORT, SP","FM-15","LEEC ","V020","040,1,N,0051,1","01650,5,C,N","011265,1,N,1","+0130,1","+0060,1","99999,9","07,5,+01650,5,99,9",,,,"07,99,1,99,9,99,9,99999,9,99,9,99,9","10081,1,99999,9",,,,"MET051METAR LEEC 261100Z 04010KT 9999 BKN055 13/06 Q1008;",
"08390599999","2010-11-26T12:00:00","4","37.3166666","-6.0","5.0","SEVILLA HELIPORT, SP","FM-15","LEEC ","V020","050,1,N,0046,1","01650,5,C,N","011265,1,N,1","+0140,1","+0070,1","99999,9","07,5,+01650,5,99,9",,,,"07,99,1,99,9,99,9,99999,9,99,9,99,9","10061,1,99999,9",,,,"MET051METAR LEEC 261200Z 05009KT 9999 BKN055 14/07 Q1006;",
"08390599999","2010-11-26T13:00:00","4","37.3166666","-6.0","5.0","SEVILLA HELIPORT, SP","FM-15","LEEC ","V020","040,1,N,0036,1","01650,5,C,N","011265,1,N,1","+0150,1","+0080,1","99999,9","07,5,+01650,5,99,9",,,,"07,99,1,99,9,99,9,99999,9,99,9,99,9","10051,1,99999,9",,,,"MET051METAR LEEC 261300Z 04007KT 9999 BKN055 15/08 Q1005;",
"08390599999","2010-11-26T14:00:00","4","37.3166666","-6.0","5.0","SEVILLA HELIPORT, SP","FM-15","LEEC ","V020","040,1,N,0031,1","22000,1,9,N","011265,1,N,1","+0150,1","+0090,1","99999,9","04,5,+00900,1,99,9",,,,"04,99,1,99,9,99,9,99999,9,99,9,99,9","10051,1,99999,9",,,,"MET051METAR LEEC 261400Z 04006KT 9999 SCT030 15/09 Q1005;",
"08390599999","2010-11-28T10:00:00","4","37.3166666","-6.0","5.0","SEVILLA HELIPORT, SP","FM-15","LEEC ","V020","999,9,V,0015,1","99999,9,9,Y","009900,1,N,1","+0090,1","+0050,1","99999,9",,,,,,"10091,1,99999,9",,,,"MET045METAR LEEC 281000Z VRB03KT CAVOK 09/05 Q1009;",
"08390599999","2010-11-28T11:00:00","4","37.3166666","-6.0","5.0","SEVILLA HELIPORT, SP","FM-15","LEEC ","V020","190,1,N,0021,1","99999,9,9,Y","009900,1,N,1","+0100,1","+0050,1","99999,9",,,,,,"10102,1,99999,9",,,,"MET053METAR LEEC 281100Z 19004KT 150V230 CAVOK 10/05 Q1010;",
"08390599999","2010-11-29T07:00:00","4","37.3166666","-6.0","5.0","SEVILLA HELIPORT, SP","FM-15","LEEC ","V020","050,1,N,0046,1","00750,1,C,N","011265,1,N,1","+0080,1","+0070,1","99999,9","02,5,+00450,1,99,9","04,5,+00750,1,99,9","07,5,+01050,1,99,9",,"07,99,1,99,9,99,9,99999,9,99,9,99,9","10010,1,99999,9",,,,"MET065METAR LEEC 290700Z 05009KT 9999 FEW015 SCT025 BKN035 08/07 Q1001;",
"08390599999","2010-11-29T08:00:00","4","37.3166666","-6.0","5.0","SEVILLA HELIPORT, SP","FM-15","LEEC ","V020","050,1,N,0041,1","00750,1,C,N","005000,1,N,1","+0080,1","+0070,1","99999,9","02,5,+00450,1,99,9","07,5,+00750,1,99,9","07,5,+01200,1,99,9",,"07,99,1,99,9,99,9,99999,9,99,9,99,9","10000,1,99999,9","10,1","53,1",,"MET071METAR LEEC 290800Z 05008KT 5000 DZ BR FEW015 BKN025 BKN040 08/07 Q1000;",
"08390599999","2010-11-29T09:00:00","4","37.3166666","-6.0","5.0","SEVILLA HELIPORT, SP","FM-15","LEEC ","V020","050,1,N,0062,1","00390,1,C,N","004000,1,N,1","+0090,1","+0080,1","99999,9","08,5,+00390,1,99,9",,,,"08,99,1,99,9,99,9,99999,9,99,9,99,9","09990,1,99999,9","10,1","61,1",,"MET058METAR LEEC 290900Z 05012KT 4000 -RA BR OVC013 09/08 Q0999;",
"08390599999","2010-11-29T10:00:00","4","37.3166666","-6.0","5.0","SEVILLA HELIPORT, SP","FM-15","LEEC ","V020","030,1,N,0067,1","00390,1,C,N","002500,1,N,1","+0080,1","+0080,1","99999,9","02,5,+00240,1,99,9","08,5,+00390,1,99,9",,,"08,99,1,99,9,99,9,99999,9,99,9,99,9","10000,1,99999,9","10,1","63,1",,"MET064METAR LEEC 291000Z 03013KT 2500 RA BR FEW008 OVC013 08/08 Q1000;",
"08390599999","2010-11-29T11:00:00","4","37.3166666","-6.0","5.0","SEVILLA HELIPORT, SP","FM-15","LEEC ","V020","020,1,N,0057,1","00330,1,C,N","001200,1,N,1","+0080,1","+0080,1","99999,9","04,5,+00240,1,99,9","04,5,+00330,1,99,9","08,5,+00750,1,99,9",,"08,99,1,99,9,99,9,99999,9,99,9,99,9","10000,1,99999,9","10,1","65,1",,"MET072METAR LEEC 291100Z 02011KT 1200 +RA BR SCT008 SCT011 OVC025 08/08 Q1000;",
"08390599999","2010-11-29T12:00:00","4","37.3166666","-6.0","5.0","SEVILLA HELIPORT, SP","FM-15","LEEC ","V020","030,1,N,0072,1","00450,1,C,N","002000,1,N,1","+0080,1","+0080,1","99999,9","04,5,+00210,1,99,9","08,5,+00450,1,99,9",,,"08,99,1,99,9,99,9,99999,9,99,9,99,9","09980,1,99999,9","10,1","63,1",,"MET064METAR LEEC 291200Z 03014KT 2000 RA BR SCT007 OVC015 08/08 Q0998;",
"08390599999","2010-11-29T13:00:00","4","37.3166666","-6.0","5.0","SEVILLA HELIPORT, SP","FM-15","LEEC ","V020","020,1,N,0057,1","00450,1,C,N","001500,1,N,1","+0080,1","+0080,1","99999,9","04,5,+00210,1,99,9","04,5,+00450,1,99,9","08,5,+00750,1,99,9",,"08,99,1,99,9,99,9,99999,9,99,9,99,9","09980,1,99999,9","10,1","63,1",,"MET071METAR LEEC 291300Z 02011KT 1500 RA BR SCT007 SCT015 OVC025 08/08 Q0998;",
"08390599999","2010-11-29T14:00:00","4","37.3166666","-6.0","5.0","SEVILLA HELIPORT, SP","FM-15","LEEC ","V020","030,1,N,0072,1","00330,1,C,N","002000,1,N,1","+0090,1","+0080,1","99999,9","04,5,+00210,1,99,9","08,5,+00330,1,99,9",,,"08,99,1,99,9,99,9,99999,9,99,9,99,9","09970,1,99999,9","10,1","61,1",,"MET065METAR LEEC 291400Z 03014KT 2000 -RA BR SCT007 OVC011 09/08 Q0997;",
"08390599999","2010-11-30T07:00:00","4","37.3166666","-6.0","5.0","SEVILLA HELIPORT, SP","FM-15","LEEC ","V020","060,1,N,0031,1","00030,1,C,N","000200,1,N,1","+0080,1","+0080,1","99999,9","08,5,+00030,1,99,9",,,,"08,99,1,99,9,99,9,99999,9,99,9,99,9","09990,1,99999,9","44,1",,,"MET054METAR LEEC 300700Z 06006KT 0200 FG OVC001 08/08 Q0999;",
"08390599999","2010-11-30T08:00:00","4","37.3166666","-6.0","5.0","SEVILLA HELIPORT, SP","FM-15","LEEC ","V020","060,1,N,0031,1","00030,1,C,N","000250,1,N,1","+0080,1","+0080,1","99999,9","08,5,+00030,1,99,9",,,,"08,99,1,99,9,99,9,99999,9,99,9,99,9","09990,1,99999,9","44,1",,,"MET054METAR LEEC 300800Z 06006KT 0250 FG OVC001 08/08 Q0999;",
"08390599999","2010-11-30T09:00:00","4","37.3166666","-6.0","5.0","SEVILLA HELIPORT, SP","FM-15","LEEC ","V020","060,1,N,0026,1","00030,1,C,N","000250,1,N,1","+0090,1","+0080,1","99999,9","08,5,+00030,1,99,9",,,,"08,99,1,99,9,99,9,99999,9,99,9,99,9","09990,1,99999,9","44,1",,,"MET054METAR LEEC 300900Z 06005KT 0250 FG OVC001 09/08 Q0999;",
"08390599999","2010-11-30T10:00:00","4","37.3166666","-6.0","5.0","SEVILLA HELIPORT, SP","FM-15","LEEC ","V020","020,1,N,0010,1","00060,1,C,N","011265,1,N,1","+0100,1","+0080,1","99999,9","07,5,+00060,1,99,9","07,5,+01800,1,99,9",,,"07,99,1,99,9,99,9,99999,9,99,9,99,9","09990,1,99999,9",,,,"MET065METAR LEEC 301000Z 02002KT 9999 3000NE BKN002 BKN060 10/08 Q0999;",
"08390599999","2010-11-30T11:00:00","4","37.3166666","-6.0","5.0","SEVILLA HELIPORT, SP","FM-15","LEEC ","V020","310,1,N,0031,1","00270,1,C,N","003000,1,N,1","+0100,1","+0100,1","99999,9","04,5,+00150,1,99,9","07,5,+00270,1,99,9","07,5,+01800,1,99,9",,"07,99,1,99,9,99,9,99999,9,99,9,99,9","09990,1,99999,9","10,1","61,1",,"MET079METAR LEEC 301100Z 31006KT 3000 1000NE BR -RA SCT005 BKN009 BKN060 10/10 Q0999;",
"08390599999","2010-11-30T12:00:00","4","37.3166666","-6.0","5.0","SEVILLA HELIPORT, SP","FM-15","LEEC ","V020","999,9,V,0015,1","00450,1,C,N","011265,1,N,1","+0110,1","+0110,1","99999,9","02,5,+00120,1,99,9","04,5,+00450,1,99,9","07,5,+00600,1,99,9",,"07,99,1,99,9,99,9,99999,9,99,9,99,9","09990,1,99999,9",,,,"MET065METAR LEEC 301200Z VRB03KT 9999 FEW004 SCT015 BKN020 11/11 Q0999;",
"08390599999","2010-11-30T13:00:00","4","37.3166666","-6.0","5.0","SEVILLA HELIPORT, SP","FM-15","LEEC ","V020","999,9,V,0010,1","00600,1,C,N","011265,1,N,1","+0130,1","+0110,1","99999,9","04,5,+00270,1,99,9","04,5,+00600,1,99,9","07,5,+01650,5,99,9",,"07,99,1,99,9,99,9,99999,9,99,9,99,9","09980,1,99999,9",,,,"MET065METAR LEEC 301300Z VRB02KT 9999 SCT009 SCT020 BKN055 13/11 Q0998;",
"08390599999","2010-11-30T14:00:00","4","37.3166666","-6.0","5.0","SEVILLA HELIPORT, SP","FM-15","LEEC ","V020","220,1,N,0021,1","00600,1,C,N","011265,1,N,1","+0130,1","+0110,1","99999,9","02,5,+00240,1,99,9","04,5,+00600,1,99,9","07,5,+01650,5,99,9",,"07,99,1,99,9,99,9,99999,9,99,9,99,9","09980,1,99999,9",,,,"MET065METAR LEEC 301400Z 22004KT 9999 FEW008 SCT020 BKN055 13/11 Q0998;",
"08390599999","2010-12-01T07:00:00","4","37.3166666","-6.0","5.0","SEVILLA HELIPORT, SP","FM-15","LEEC ","V020","190,1,N,0036,1","00600,1,C,N","005000,1,N,1","+0080,1","+0080,1","99999,9","02,5,+00360,1,99,9","04,5,+00600,1,99,9","07,5,+01350,1,99,9",,"07,99,1,99,9,99,9,99999,9,99,9,99,9","10051,1,99999,9","10,1","61,1",,"MET080METAR LEEC 010700Z 19007KT 120V240 5000 -RA BR FEW012 SCT020 BKN045 08/08 Q1005;",
"08390599999","2010-12-01T08:00:00","4","37.3166666","-6.0","5.0","SEVILLA HELIPORT, SP","FM-15","LEEC ","V020","200,1,N,0010,1","22000,1,9,N","011265,1,N,1","+0080,1","+0070,1","99999,9","04,5,+00600,1,99,9",,,,"04,99,1,99,9,99,9,99999,9,99,9,99,9","10051,1,99999,9",,,,"MET051METAR LEEC 010800Z 20002KT 9999 SCT020 08/07 Q1005;",
"08390599999","2010-12-01T09:00:00","4","37.3166666","-6.0","5.0","SEVILLA HELIPORT, SP","FM-15","LEEC ","V020","999,9,V,0010,1","99999,9,C,N","011265,1,N,1","+0090,1","+0080,1","99999,9","02,5,+00750,1,99,9","04,5,+01350,1,99,9",,,"04,99,1,99,9,99,9,99999,9,99,9,99,9","10061,1,99999,9",,,,"MET058METAR LEEC 010900Z VRB02KT 9999 FEW025 SCT045 09/08 Q1006;","P01 013503SCOCIG"
"08390599999","2010-12-01T10:00:00","4","37.3166666","-6.0","5.0","SEVILLA HELIPORT, SP","FM-15","LEEC ","V020","240,1,N,0031,1","22000,1,9,N","011265,1,N,1","+0110,1","+0090,1","99999,9","02,5,+00600,1,99,9",,,,"02,99,1,99,9,99,9,99999,9,99,9,99,9","10071,1,99999,9",,,,"MET059METAR LEEC 011000Z 24006KT 220V290 9999 FEW020 11/09 Q1007;",
"08390599999","2010-12-01T11:00:00","4","37.3166666","-6.0","5.0","SEVILLA HELIPORT, SP","FM-15","LEEC ","V020","240,1,N,0036,1","22000,1,9,N","011265,1,N,1","+0110,1","+0090,1","99999,9","02,5,+00750,1,99,9",,,,"02,99,1,99,9,99,9,99999,9,99,9,99,9","10071,1,99999,9",,,,"MET059METAR LEEC 011100Z 24007KT 240V300 9999 FEW025 11/09 Q1007;",
"08390599999","2010-12-01T12:00:00","4","37.3166666","-6.0","5.0","SEVILLA HELIPORT, SP","FM-15","LEEC ","V020","270,1,N,0041,1","22000,1,9,N","011265,1,N,1","+0140,1","+0070,1","99999,9","04,5,+00600,1,99,9",,,,"04,99,1,99,9,99,9,99999,9,99,9,99,9","10091,1,99999,9",,,,"MET051METAR LEEC 011200Z 27008KT 9999 SCT020 14/07 Q1009;",
"08390599999","2010-12-01T13:00:00","4","37.3166666","-6.0","5.0","SEVILLA HELIPORT, SP","FM-15","LEEC ","V020","260,1,N,0041,1","22000,1,9,N","011265,1,N,1","+0150,1","+0070,1","99999,9","04,5,+01050,1,99,9",,,,"04,99,1,99,9,99,9,99999,9,99,9,99,9","10081,1,99999,9",,,,"MET051METAR LEEC 011300Z 26008KT 9999 SCT035 15/07 Q1008;",
"08390599999","2010-12-01T14:00:00","4","37.3166666","-6.0","5.0","SEVILLA HELIPORT, SP","FM-15","LEEC ","V020","240,1,N,0036,1","99999,9,C,N","011265,1,N,1","+0150,1","+0070,1","99999,9","04,5,+01050,1,99,9","04,5,+01350,1,99,9",,,"04,99,1,99,9,99,9,99999,9,99,9,99,9","10081,1,99999,9",,,,"MET058METAR LEEC 011400Z 24007KT 9999 SCT035 SCT045 15/07 Q1008;","P01 013503SCOCIG"
"08390599999","2010-12-02T07:00:00","4","37.3166666","-6.0","5.0","SEVILLA HELIPORT, SP","FM-15","LEEC ","V020","999,9,V,0005,1","22000,1,9,N","003500,1,N,1","+0070,1","+0060,1","99999,9","02,5,+01650,5,99,9",,,,"02,99,1,99,9,99,9,99999,9,99,9,99,9","10129,1,99999,9","10,1",,,"MET054METAR LEEC 020700Z VRB01KT 3500 BR FEW055 07/06 Q1013;",
"08390599999","2010-12-02T08:00:00","4","37.3166666","-6.0","5.0","SEVILLA HELIPORT, SP","FM-15","LEEC ","V020","240,1,N,0015,1","99999,9,9,Y","009900,1,N,1","+0070,1","+0070,1","99999,9",,,,,,"10139,1,99999,9",,,,"MET045METAR LEEC 020800Z 24003KT CAVOK 07/07 Q1014;",
"08390599999","2010-12-02T09:00:00","4","37.3166666","-6.0","5.0","SEVILLA HELIPORT, SP","FM-15","LEEC ","V020","999,9,V,0015,1","99999,9,9,Y","009900,1,N,1","+0090,1","+0080,1","99999,9",,,,,,"10149,1,99999,9",,,,"MET045METAR LEEC 020900Z VRB03KT CAVOK 09/08 Q1015;",
"08390599999","2010-12-02T10:00:00","4","37.3166666","-6.0","5.0","SEVILLA HELIPORT, SP","FM-15","LEEC ","V020","999,9,V,0015,1","99999,9,9,Y","009900,1,N,1","+0110,1","+0080,1","99999,9",,,,,,"10159,1,99999,9",,,,"MET045METAR LEEC 021000Z VRB03KT CAVOK 11/08 Q1016;",
"08390599999","2010-12-02T11:00:00","4","37.3166666","-6.0","5.0","SEVILLA HELIPORT, SP","FM-15","LEEC ","V020","999,9,V,0010,1","99999,9,9,Y","009900,1,N,1","+0120,1","+0060,1","99999,9",,,,,,"10159,1,99999,9",,,,"MET045METAR LEEC 021100Z VRB02KT CAVOK 12/06 Q1016;",
"08390599999","2010-12-02T12:00:00","4","37.3166666","-6.0","5.0","SEVILLA HELIPORT, SP","FM-15","LEEC ","V020","240,1,N,0026,1","22000,1,9,N","011265,1,N,1","+0130,1","+0070,1","99999,9","02,5,+00900,1,99,9",,,,"02,99,1,99,9,99,9,99999,9,99,9,99,9","10159,1,99999,9",,,,"MET059METAR LEEC 021200Z 24005KT 190V280 9999 FEW030 13/07 Q1016;",
"08390599999","2010-12-02T13:00:00","4","37.3166666","-6.0","5.0","SEVILLA HELIPORT, SP","FM-15","LEEC ","V020","999,9,V,0015,1","99999,9,C,N","011265,1,N,1","+0150,1","+0050,1","99999,9","02,5,+01200,1,99,9","04,5,+01500,1,99,9",,,"04,99,1,99,9,99,9,99999,9,99,9,99,9","10159,1,99999,9",,,,"MET058METAR LEEC 021300Z VRB03KT 9999 FEW040 SCT050 15/05 Q1016;","P01 015003SCOCIG"
"08390599999","2010-12-03T07:00:00","4","37.3166666","-6.0","5.0","SEVILLA HELIPORT, SP","FM-15","LEEC ","V020","999,9,V,0010,1","99999,9,9,Y","009900,1,N,1","+0050,1","+0030,1","99999,9",,,,,,"10190,1,99999,9",,,,"MET045METAR LEEC 030700Z VRB02KT CAVOK 05/03 Q1019;",
"08390599999","2010-12-03T08:00:00","4","37.3166666","-6.0","5.0","SEVILLA HELIPORT, SP","FM-15","LEEC ","V020","999,9,V,0005,1","99999,9,9,Y","009900,1,N,1","+0040,1","+0030,1","99999,9",,,,,,"10200,1,99999,9",,,,"MET045METAR LEEC 030800Z VRB01KT CAVOK 04/03 Q1020;",
"08390599999","2010-12-03T09:00:00","4","37.3166666","-6.0","5.0","SEVILLA HELIPORT, SP","FM-15","LEEC ","V020","999,9,V,0005,1","99999,9,9,Y","009900,1,N,1","+0080,1","+0030,1","99999,9",,,,,,"10210,1,99999,9",,,,"MET045METAR LEEC 030900Z VRB01KT CAVOK 08/03 Q1021;",
"08390599999","2010-12-03T10:00:00","4","37.3166666","-6.0","5.0","SEVILLA HELIPORT, SP","FM-15","LEEC ","V020","030,1,N,0036,1","99999,9,9,Y","009900,1,N,1","+0090,1","+0010,1","99999,9",,,,,,"10220,1,99999,9",,,,"MET053METAR LEEC 031000Z 03007KT 360V060 CAVOK 09/01 Q1022;",
"08390599999","2010-12-03T11:00:00","4","37.3166666","-6.0","5.0","SEVILLA HELIPORT, SP","FM-15","LEEC ","V020","999,9,V,0015,1","99999,9,9,Y","009900,1,N,1","+0090,1","+0010,1","99999,9",,,,,,"10220,1,99999,9",,,,"MET045METAR LEEC 031100Z VRB03KT CAVOK 09/01 Q1022;",
"08390599999","2010-12-03T12:00:00","4","37.3166666","-6.0","5.0","SEVILLA HELIPORT, SP","FM-15","LEEC ","V020","020,1,N,0021,1","99999,9,9,Y","009900,1,N,1","+0100,1","+0000,1","99999,9",,,,,,"10220,1,99999,9",,,,"MET053METAR LEEC 031200Z 02004KT 280V070 CAVOK 10/00 Q1022;",
"08390599999","2010-12-03T13:00:00","4","37.3166666","-6.0","5.0","SEVILLA HELIPORT, SP","FM-15","LEEC ","V020","060,1,N,0036,1","99999,9,9,Y","009900,1,N,1","+0110,1","+0000,1","99999,9",,,,,,"10210,1,99999,9",,,,"MET053METAR LEEC 031300Z 06007KT 020V080 CAVOK 11/00 Q1021;",
"08390599999","2010-12-03T14:00:00","4","37.3166666","-6.0","5.0","SEVILLA HELIPORT, SP","FM-15","LEEC ","V020","050,1,N,0031,1","99999,9,9,Y","009900,1,N,1","+0110,1","+0000,1","99999,9",,,,,,"10210,1,99999,9",,,,"MET053METAR LEEC 031400Z 05006KT 010V080 CAVOK 11/00 Q1021;",
"08390599999","2010-12-07T07:00:00","4","37.3166666","-6.0","5.0","SEVILLA HELIPORT, SP","FM-15","LEEC ","V020","190,1,N,0077,1","00750,1,C,N","011265,1,N,1","+0180,1","+0170,1","99999,9","02,5,+00450,1,99,9","04,5,+00750,1,99,9","07,5,+01800,1,99,9",,"07,99,1,99,9,99,9,99999,9,99,9,99,9","10041,1,99999,9",,,,"MET065METAR LEEC 070700Z 19015KT 9999 FEW015 SCT025 BKN060 18/17 Q1004;",
"08390599999","2010-12-07T08:00:00","4","37.3166666","-6.0","5.0","SEVILLA HELIPORT, SP","FM-15","LEEC ","V020","200,1,N,0077,1","00900,1,C,N","011265,1,N,1","+0180,1","+0170,1","99999,9","04,5,+00600,1,99,9","07,5,+00900,1,99,9",,,"07,99,1,99,9,99,9,99999,9,99,9,99,9","10041,1,99999,9",,,,"MET058METAR LEEC 070800Z 20015KT 9999 SCT020 BKN030 18/17 Q1004;",
"08390599999","2010-12-07T09:00:00","4","37.3166666","-6.0","5.0","SEVILLA HELIPORT, SP","FM-15","LEEC ","V020","200,1,N,0077,1","00750,1,C,N","011265,1,N,1","+0180,1","+0170,1","99999,9","04,5,+00450,1,99,9","07,5,+00750,1,99,9",,,"07,99,1,99,9,99,9,99999,9,99,9,99,9","10041,1,99999,9",,,"0129,1","MET061METAR LEEC 070900Z 20015G25KT 9999 SCT015 BKN025 18/17 Q1004;",
"08390599999","2010-12-07T10:00:00","4","37.3166666","-6.0","5.0","SEVILLA HELIPORT, SP","FM-15","LEEC ","V020","190,1,N,0072,1","00750,1,C,N","011265,1,N,1","+0190,1","+0170,1","99999,9","04,5,+00450,1,99,9","07,5,+00750,1,99,9","07,5,+01800,1,99,9",,"07,99,1,99,9,99,9,99999,9,99,9,99,9","10051,1,99999,9",,,,"MET065METAR LEEC 071000Z 19014KT 9999 SCT015 BKN025 BKN060 19/17 Q1005;",
"08390599999","2010-12-07T11:00:00","4","37.3166666","-6.0","5.0","SEVILLA HELIPORT, SP","FM-15","LEEC ","V020","200,1,N,0087,1","00600,1,C,N","011265,1,N,1","+0190,1","+0170,1","99999,9","07,5,+00600,1,99,9",,,,"07,99,1,99,9,99,9,99999,9,99,9,99,9","10051,1,99999,9",,,,"MET051METAR LEEC 071100Z 20017KT 9999 BKN020 19/17 Q1005;",
"08390599999","2010-12-07T12:00:00","4","37.3166666","-6.0","5.0","SEVILLA HELIPORT, SP","FM-15","LEEC ","V020","200,1,N,0072,1","00600,1,C,N","011265,1,N,1","+0200,1","+0180,1","99999,9","07,5,+00600,1,99,9",,,,"07,99,1,99,9,99,9,99999,9,99,9,99,9","10041,1,99999,9",,,,"MET051METAR LEEC 071200Z 20014KT 9999 BKN020 20/18 Q1004;",
"08390599999","2010-12-07T13:00:00","4","37.3166666","-6.0","5.0","SEVILLA HELIPORT, SP","FM-15","LEEC ","V020","190,1,N,0072,1","00750,1,C,N","011265,1,N,1","+0190,1","+0170,1","99999,9","04,5,+00600,1,99,9","07,5,+00750,1,99,9","07,5,+01200,1,99,9",,"07,99,1,99,9,99,9,99999,9,99,9,99,9","10031,1,99999,9",,,,"MET065METAR LEEC 071300Z 19014KT 9999 SCT020 BKN025 BKN040 19/17 Q1003;",
"08390599999","2010-12-09T07:00:00","4","37.3166666","-6.0","5.0","SEVILLA HELIPORT, SP","FM-15","LEEC ","V020","360,1,N,0021,1","99999,9,9,Y","009900,1,N,1","+0150,1","+0150,1","99999,9",,,,,,"10139,1,99999,9",,,,"MET053METAR LEEC 090700Z 36004KT 310V020 CAVOK 15/15 Q1014;",
"08390599999","2010-12-09T08:00:00","4","37.3166666","-6.0","5.0","SEVILLA HELIPORT, SP","FM-15","LEEC ","V020","010,1,N,0031,1","99999,9,9,Y","009900,1,N,1","+0150,1","+0140,1","99999,9",,,,,,"10149,1,99999,9",,,,"MET045METAR LEEC 090800Z 01006KT CAVOK 15/14 Q1015;",
"08390599999","2010-12-09T09:00:00","4","37.3166666","-6.0","5.0","SEVILLA HELIPORT, SP","FM-15","LEEC ","V020","020,1,N,0031,1","99999,9,9,Y","009900,1,N,1","+0170,1","+0140,1","99999,9",,,,,,"10149,1,99999,9",,,,"MET045METAR LEEC 090900Z 02006KT CAVOK 17/14 Q1015;",
"08390599999","2010-12-09T10:00:00","4","37.3166666","-6.0","5.0","SEVILLA HELIPORT, SP","FM-15","LEEC ","V020","040,1,N,0026,1","99999,9,9,Y","009900,1,N,1","+0190,1","+0150,1","99999,9",,,,,,"10149,1,99999,9",,,,"MET045METAR LEEC 091000Z 04005KT CAVOK 19/15 Q1015;",
"08390599999","2010-12-09T11:00:00","4","37.3166666","-6.0","5.0","SEVILLA HELIPORT, SP","FM-15","LEEC ","V020","010,1,N,0026,1","99999,9,9,Y","009900,1,N,1","+0200,1","+0150,1","99999,9",,,,,,"10159,1,99999,9",,,,"MET053METAR LEEC 091100Z 01005KT 310V030 CAVOK 20/15 Q1016;",
"08390599999","2010-12-09T12:00:00","4","37.3166666","-6.0","5.0","SEVILLA HELIPORT, SP","FM-15","LEEC ","V020","020,1,N,0036,1","99999,9,9,Y","009900,1,N,1","+0220,1","+0160,1","99999,9",,,,,,"10149,1,99999,9",,,,"MET045METAR LEEC 091200Z 02007KT CAVOK 22/16 Q1015;",
"08390599999","2010-12-09T13:00:00","4","37.3166666","-6.0","5.0","SEVILLA HELIPORT, SP","FM-15","LEEC ","V020","020,1,N,0041,1","99999,9,9,Y","009900,1,N,1","+0220,1","+0160,1","99999,9",,,,,,"10149,1,99999,9",,,,"MET045METAR LEEC 091300Z 02008KT CAVOK 22/16 Q1015;",
"08390599999","2010-12-10T07:00:00","4","37.3166666","-6.0","5.0","SEVILLA HELIPORT, SP","FM-15","LEEC ","V020","999,9,V,0005,1","99999,9,9,Y","009900,1,N,1","+0150,1","+0120,1","99999,9",,,,,,"10190,1,99999,9",,,,"MET045METAR LEEC 100700Z VRB01KT CAVOK 15/12 Q1019;",
"08390599999","2010-12-10T08:00:00","4","37.3166666","-6.0","5.0","SEVILLA HELIPORT, SP","FM-15","LEEC ","V020","999,9,V,0010,1","99999,9,9,Y","009900,1,N,1","+0160,1","+0120,1","99999,9",,,,,,"10190,1,99999,9",,,,"MET045METAR LEEC 100800Z VRB02KT CAVOK 16/12 Q1019;",
"08390599999","2010-12-10T09:00:00","4","37.3166666","-6.0","5.0","SEVILLA HELIPORT, SP","FM-15","LEEC ","V020","999,9,V,0010,1","99999,9,9,Y","009900,1,N,1","+0170,1","+0130,1","99999,9",,,,,,"10200,1,99999,9",,,,"MET045METAR LEEC 100900Z VRB02KT CAVOK 17/13 Q1020;",
"08390599999","2010-12-10T10:00:00","4","37.3166666","-6.0","5.0","SEVILLA HELIPORT, SP","FM-15","LEEC ","V020","999,9,V,0005,1","99999,9,9,Y","009900,1,N,1","+0180,1","+0130,1","99999,9",,,,,,"10210,1,99999,9",,,,"MET045METAR LEEC 101000Z VRB01KT CAVOK 18/13 Q1021;",
"08390599999","2010-12-10T11:00:00","4","37.3166666","-6.0","5.0","SEVILLA HELIPORT, SP","FM-15","LEEC ","V020","999,9,V,0010,1","99999,9,9,Y","009900,1,N,1","+0190,1","+0130,1","99999,9",,,,,,"10210,1,99999,9",,,,"MET045METAR LEEC 101100Z VRB02KT CAVOK 19/13 Q1021;",
"08390599999","2010-12-10T12:00:00","4","37.3166666","-6.0","5.0","SEVILLA HELIPORT, SP","FM-15","LEEC ","V020","999,9,V,0005,1","99999,9,9,Y","009900,1,N,1","+0210,1","+0140,1","99999,9",,,,,,"10210,1,99999,9",,,,"MET045METAR LEEC 101200Z VRB01KT CAVOK 21/14 Q1021;",
"08390599999","2010-12-10T13:00:00","4","37.3166666","-6.0","5.0","SEVILLA HELIPORT, SP","FM-15","LEEC ","V020","999,9,V,0005,1","99999,9,9,Y","009900,1,N,1","+0210,1","+0140,1","99999,9",,,,,,"10210,1,99999,9",,,,"MET045METAR LEEC 101300Z VRB01KT CAVOK 21/14 Q1021;",
"08390599999","2010-12-10T14:00:00","4","37.3166666","-6.0","5.0","SEVILLA HELIPORT, SP","FM-15","LEEC ","V020","999,9,V,0005,1","99999,9,9,Y","009900,1,N,1","+0220,1","+0150,1","99999,9",,,,,,"10200,1,99999,9",,,,"MET045METAR LEEC 101400Z VRB01KT CAVOK 22/15 Q1020;",
"08390599999","2010-12-13T15:00:00","4","37.3166666","-6.0","5.0","SEVILLA HELIPORT, SP","FM-15","LEEC ","V020","999,9,V,0010,1","99999,9,9,Y","009900,1,N,1","+0190,1","+0110,1","99999,9",,,,,,"10119,1,99999,9",,,,"MET045METAR LEEC 131500Z VRB02KT CAVOK 19/11 Q1012;",
"08390599999","2010-12-14T07:00:00","4","37.3166666","-6.0","5.0","SEVILLA HELIPORT, SP","FM-15","LEEC ","V020","020,1,N,0015,1","00030,1,C,N","000200,1,N,1","+0110,1","+0110,1","99999,9","08,5,+00030,1,99,9",,,,"08,99,1,99,9,99,9,99999,9,99,9,99,9","10180,1,99999,9","41,1",,,"MET056METAR LEEC 140700Z 02003KT 0200 BCFG OVC001 11/11 Q1018;",
"08390599999","2010-12-14T08:00:00","4","37.3166666","-6.0","5.0","SEVILLA HELIPORT, SP","FM-15","LEEC ","V020","050,1,N,0021,1","00030,1,C,N","000200,1,N,1","+0110,1","+0110,1","99999,9","08,5,+00030,1,99,9",,,,"08,99,1,99,9,99,9,99999,9,99,9,99,9","10190,1,99999,9","44,1",,,"MET054METAR LEEC 140800Z 05004KT 0200 FG OVC001 11/11 Q1019;",
"08390599999","2010-12-14T09:00:00","4","37.3166666","-6.0","5.0","SEVILLA HELIPORT, SP","FM-15","LEEC ","V020","030,1,N,0015,1","00030,1,C,N","000200,1,N,1","+0100,1","+0100,1","99999,9","08,5,+00030,1,99,9",,,,"08,99,1,99,9,99,9,99999,9,99,9,99,9","10190,1,99999,9","44,1",,,"MET054METAR LEEC 140900Z 03003KT 0200 FG OVC001 10/10 Q1019;",
"08390599999","2010-12-14T10:00:00","4","37.3166666","-6.0","5.0","SEVILLA HELIPORT, SP","FM-15","LEEC ","V020","999,9,V,0015,1","00030,1,C,N","000200,1,N,1","+0110,1","+0110,1","99999,9","08,5,+00030,1,99,9",,,,"08,99,1,99,9,99,9,99999,9,99,9,99,9","10200,1,99999,9","44,1",,,"MET054METAR LEEC 141000Z VRB03KT 0200 FG OVC001 11/11 Q1020;",
"08390599999","2010-12-14T11:00:00","4","37.3166666","-6.0","5.0","SEVILLA HELIPORT, SP","FM-15","LEEC ","V020","040,1,N,0026,1","00030,1,C,N","000300,1,N,1","+0120,1","+0120,1","99999,9","08,5,+00030,1,99,9",,,,"08,99,1,99,9,99,9,99999,9,99,9,99,9","10200,1,99999,9","44,1",,,"MET054METAR LEEC 141100Z 04005KT 0300 FG OVC001 12/12 Q1020;",
"08390599999","2010-12-14T12:00:00","4","37.3166666","-6.0","5.0","SEVILLA HELIPORT, SP","FM-15","LEEC ","V020","030,1,N,0021,1","00150,1,C,N","001500,1,N,1","+0130,1","+0130,1","99999,9","07,5,+00150,1,99,9",,,,"07,99,1,99,9,99,9,99999,9,99,9,99,9","10200,1,99999,9","10,1",,,"MET054METAR LEEC 141200Z 03004KT 1500 BR BKN005 13/13 Q1020;",
"08390599999","2010-12-14T13:00:00","4","37.3166666","-6.0","5.0","SEVILLA HELIPORT, SP","FM-15","LEEC ","V020","999,9,V,0010,1","00120,1,C,N","001500,1,N,1","+0140,1","+0130,1","99999,9","07,5,+00120,1,99,9",,,,"07,99,1,99,9,99,9,99999,9,99,9,99,9","10190,1,99999,9","10,1",,,"MET054METAR LEEC 141300Z VRB02KT 1500 BR BKN004 14/13 Q1019;",
"08390599999","2010-12-14T14:00:00","4","37.3166666","-6.0","5.0","SEVILLA HELIPORT, SP","FM-15","LEEC ","V020","999,9,V,0010,1","22000,1,9,N","008000,1,N,1","+0150,1","+0130,1","99999,9","02,5,+00180,1,99,9",,,,"02,99,1,99,9,99,9,99999,9,99,9,99,9","10190,1,99999,9",,,,"MET051METAR LEEC 141400Z VRB02KT 8000 FEW006 15/13 Q1019;",
"08390599999","2010-12-15T07:00:00","4","37.3166666","-6.0","5.0","SEVILLA HELIPORT, SP","FM-15","LEEC ","V020","020,1,N,0026,1","22000,1,9,N","008000,1,N,1","+0080,1","+0080,1","99999,9",,,,,"00,99,1,99,9,99,9,99999,9,99,9,99,9","10230,1,99999,9",,,,"MET048METAR LEEC 150700Z 02005KT 8000 NSC 08/08 Q1023;","Q01    003SCCGA1"
"08390599999","2010-12-15T08:00:00","4","37.3166666","-6.0","5.0","SEVILLA HELIPORT, SP","FM-15","LEEC ","V020","030,1,N,0026,1","99999,9,9,Y","009900,1,N,1","+0090,1","+0080,1","99999,9",,,,,,"10240,1,99999,9",,,,"MET045METAR LEEC 150800Z 03005KT CAVOK 09/08 Q1024;",
"08390599999","2010-12-15T09:00:00","4","37.3166666","-6.0","5.0","SEVILLA HELIPORT, SP","FM-15","LEEC ","V020","040,1,N,0046,1","99999,9,9,Y","009900,1,N,1","+0100,1","+0080,1","99999,9",,,,,,"10240,1,99999,9",,,,"MET045METAR LEEC 150900Z 04009KT CAVOK 10/08 Q1024;",
"08390599999","2010-12-15T10:00:00","4","37.3166666","-6.0","5.0","SEVILLA HELIPORT, SP","FM-15","LEEC ","V020","050,1,N,0087,1","99999,9,9,Y","009900,1,N,1","+0110,1","+0030,1","99999,9",,,,,,"10251,1,99999,9",,,,"MET045METAR LEEC 151000Z 05017KT CAVOK 11/03 Q1025;",
"08390599999","2010-12-15T11:00:00","4","37.3166666","-6.0","5.0","SEVILLA HELIPORT, SP","FM-15","LEEC ","V020","050,1,N,0087,1","99999,9,9,Y","009900,1,N,1","+0110,1","+0000,1","99999,9",,,,,,"10251,1,99999,9",,,,"MET045METAR LEEC 151100Z 05017KT CAVOK 11/00 Q1025;",
"08390599999","2010-12-15T12:00:00","4","37.3166666","-6.0","5.0","SEVILLA HELIPORT, SP","FM-15","LEEC ","V020","050,1,N,0098,1","99999,9,9,Y","009900,1,N,1","+0120,1","-0010,1","99999,9",,,,,,"10240,1,99999,9",,,,"MET046METAR LEEC 151200Z 05019KT CAVOK 12/M01 Q1024;",
"08390599999","2010-12-15T13:00:00","4","37.3166666","-6.0","5.0","SEVILLA HELIPORT, SP","FM-15","LEEC ","V020","050,1,N,0087,1","99999,9,9,Y","009900,1,N,1","+0120,1","-0010,1","99999,9",,,,,,"10230,1,99999,9",,,,"MET046METAR LEEC 151300Z 05017KT CAVOK 12/M01 Q1023;",
"08390599999","2010-12-15T14:00:00","4","37.3166666","-6.0","5.0","SEVILLA HELIPORT, SP","FM-15","LEEC ","V020","050,1,N,0087,1","99999,9,9,Y","009900,1,N,1","+0130,1","+0000,1","99999,9",,,,,,"10230,1,99999,9",,,,"MET045METAR LEEC 151400Z 05017KT CAVOK 13/00 Q1023;",
"08390599999","2010-12-16T07:00:00","4","37.3166666","-6.0","5.0","SEVILLA HELIPORT, SP","FM-15","LEEC ","V020","040,1,N,0077,1","99999,9,9,Y","009900,1,N,1","+0050,1","-0040,1","99999,9",,,,,,"10210,1,99999,9",,,,"MET046METAR LEEC 160700Z 04015KT CAVOK 05/M04 Q1021;",
"08390599999","2010-12-16T08:00:00","4","37.3166666","-6.0","5.0","SEVILLA HELIPORT, SP","FM-15","LEEC ","V020","040,1,N,0051,1","99999,9,9,Y","009900,1,N,1","+0050,1","-0040,1","99999,9",,,,,,"10210,1,99999,9",,,,"MET046METAR LEEC 160800Z 04010KT CAVOK 05/M04 Q1021;",
"08390599999","2010-12-16T09:00:00","4","37.3166666","-6.0","5.0","SEVILLA HELIPORT, SP","FM-15","LEEC ","V020","040,1,N,0067,1","99999,9,9,Y","009900,1,N,1","+0050,1","-0050,1","99999,9",,,,,,"10210,1,99999,9",,,,"MET046METAR LEEC 160900Z 04013KT CAVOK 05/M05 Q1021;",
"08390599999","2010-12-16T10:00:00","4","37.3166666","-6.0","5.0","SEVILLA HELIPORT, SP","FM-15","LEEC ","V020","040,1,N,0067,1","99999,9,9,Y","009900,1,N,1","+0060,1","-0050,1","99999,9",,,,,,"10220,1,99999,9",,,,"MET046METAR LEEC 161000Z 04013KT CAVOK 06/M05 Q1022;",
"08390599999","2010-12-16T11:00:00","4","37.3166666","-6.0","5.0","SEVILLA HELIPORT, SP","FM-15","LEEC ","V020","050,1,N,0082,1","99999,9,9,Y","009900,1,N,1","+0080,1","-0060,1","99999,9",,,,,,"10230,1,99999,9",,,,"MET046METAR LEEC 161100Z 05016KT CAVOK 08/M06 Q1023;",
"08390599999","2010-12-16T12:00:00","4","37.3166666","-6.0","5.0","SEVILLA HELIPORT, SP","FM-15","LEEC ","V020","070,1,N,0077,1","99999,9,9,Y","009900,1,N,1","+0080,1","-0070,1","99999,9",,,,,,"10220,1,99999,9",,,,"MET046METAR LEEC 161200Z 07015KT CAVOK 08/M07 Q1022;",
"08390599999","2010-12-16T13:00:00","4","37.3166666","-6.0","5.0","SEVILLA HELIPORT, SP","FM-15","LEEC ","V020","040,1,N,0087,1","99999,9,9,Y","009900,1,N,1","+0090,1","-0070,1","99999,9",,,,,,"10210,1,99999,9",,,,"MET046METAR LEEC 161300Z 04017KT CAVOK 09/M07 Q1021;",
"08390599999","2010-12-16T14:00:00","4","37.3166666","-6.0","5.0","SEVILLA HELIPORT, SP","FM-15","LEEC ","V020","040,1,N,0077,1","99999,9,9,Y","009900,1,N,1","+0100,1","-0060,1","99999,9",,,,,,"10200,1,99999,9",,,,"MET046METAR LEEC 161400Z 04015KT CAVOK 10/M06 Q1020;",
"08390599999","2010-12-17T07:00:00","4","37.3166666","-6.0","5.0","SEVILLA HELIPORT, SP","FM-15","LEEC ","V020","020,1,N,0046,1","99999,9,9,Y","009900,1,N,1","+0030,1","-0040,1","99999,9",,,,,,"10129,1,99999,9",,,,"MET046METAR LEEC 170700Z 02009KT CAVOK 03/M04 Q1013;",
"08390599999","2010-12-17T08:00:00","4","37.3166666","-6.0","5.0","SEVILLA HELIPORT, SP","FM-15","LEEC ","V020","020,1,N,0051,1","99999,9,9,Y","009900,1,N,1","+0030,1","-0040,1","99999,9",,,,,,"10119,1,99999,9",,,,"MET046METAR LEEC 170800Z 02010KT CAVOK 03/M04 Q1012;",
"08390599999","2010-12-17T09:00:00","4","37.3166666","-6.0","5.0","SEVILLA HELIPORT, SP","FM-15","LEEC ","V020","030,1,N,0051,1","99999,9,9,Y","009900,1,N,1","+0040,1","-0030,1","99999,9",,,,,,"10119,1,99999,9",,,,"MET046METAR LEEC 170900Z 03010KT CAVOK 04/M03 Q1012;",
"08390599999","2010-12-17T10:00:00","4","37.3166666","-6.0","5.0","SEVILLA HELIPORT, SP","FM-15","LEEC ","V020","030,1,N,0046,1","99999,9,9,Y","009900,1,N,1","+0060,1","-0020,1","99999,9",,,,,,"10119,1,99999,9",,,,"MET046METAR LEEC 171000Z 03009KT CAVOK 06/M02 Q1012;",
"08390599999","2010-12-17T11:00:00","4","37.3166666","-6.0","5.0","SEVILLA HELIPORT, SP","FM-15","LEEC ","V020","030,1,N,0057,1","99999,9,9,Y","009900,1,N,1","+0070,1","-0020,1","99999,9",,,,,,"10108,1,99999,9",,,,"MET046METAR LEEC 171100Z 03011KT CAVOK 07/M02 Q1011;",
"08390599999","2010-12-17T12:00:00","4","37.3166666","-6.0","5.0","SEVILLA HELIPORT, SP","FM-15","LEEC ","V020","030,1,N,0036,1","99999,9,9,Y","009900,1,N,1","+0080,1","-0010,1","99999,9",,,,,,"10102,1,99999,9",,,,"MET054METAR LEEC 171200Z 03007KT 360V070 CAVOK 08/M01 Q1010;",
"08390599999","2010-12-17T13:00:00","4","37.3166666","-6.0","5.0","SEVILLA HELIPORT, SP","FM-15","LEEC ","V020","030,1,N,0031,1","99999,9,9,Y","009900,1,N,1","+0090,1","+0000,1","99999,9",,,,,,"10091,1,99999,9",,,,"MET045METAR LEEC 171300Z 03006KT CAVOK 09/00 Q1009;",
"08390599999","2010-12-17T14:00:00","4","37.3166666","-6.0","5.0","SEVILLA HELIPORT, SP","FM-15","LEEC ","V020","030,1,N,0031,1","99999,9,9,Y","009900,1,N,1","+0090,1","+0000,1","99999,9",,,,,,"10081,1,99999,9",,,,"MET045METAR LEEC 171400Z 03006KT CAVOK 09/00 Q1008;",
"08390599999","2010-12-20T07:00:00","4","37.3166666","-6.0","5.0","SEVILLA HELIPORT, SP","FM-15","LEEC ","V020","999,9,V,0010,1","22000,1,9,N","011265,1,N,1","+0110,1","+0080,1","99999,9","02,5,+01200,1,99,9",,,,"02,99,1,99,9,99,9,99999,9,99,9,99,9","10129,1,99999,9",,,,"MET051METAR LEEC 200700Z VRB02KT 9999 FEW040 11/08 Q1013;",
"08390599999","2010-12-20T08:00:00","4","37.3166666","-6.0","5.0","SEVILLA HELIPORT, SP","FM-15","LEEC ","V020","030,1,N,0026,1","22000,1,9,N","011265,1,N,1","+0110,1","+0080,1","99999,9","02,5,+01350,1,99,9",,,,"02,99,1,99,9,99,9,99999,9,99,9,99,9","10129,1,99999,9",,,,"MET051METAR LEEC 200800Z 03005KT 9999 FEW045 11/08 Q1013;",
"08390599999","2010-12-20T09:00:00","4","37.3166666","-6.0","5.0","SEVILLA HELIPORT, SP","FM-15","LEEC ","V020","999,9,V,0015,1","22000,1,9,N","011265,1,N,1","+0100,1","+0090,1","99999,9","02,5,+01350,1,99,9",,,,"02,99,1,99,9,99,9,99999,9,99,9,99,9","10129,1,99999,9",,,,"MET051METAR LEEC 200900Z VRB03KT 9999 FEW045 10/09 Q1013;",
"08390599999","2010-12-20T10:00:00","4","37.3166666","-6.0","5.0","SEVILLA HELIPORT, SP","FM-15","LEEC ","V020","030,1,N,0036,1","22000,1,9,N","011265,1,N,1","+0120,1","+0090,1","99999,9","02,5,+01350,1,99,9",,,,"02,99,1,99,9,99,9,99999,9,99,9,99,9","10129,1,99999,9",,,,"MET051METAR LEEC 201000Z 03007KT 9999 FEW045 12/09 Q1013;",
"08390599999","2010-12-20T11:00:00","4","37.3166666","-6.0","5.0","SEVILLA HELIPORT, SP","FM-15","LEEC ","V020","030,1,N,0026,1","22000,1,9,N","011265,1,N,1","+0130,1","+0090,1","99999,9","02,5,+01350,1,99,9",,,,"02,99,1,99,9,99,9,99999,9,99,9,99,9","10129,1,99999,9",,,,"MET051METAR LEEC 201100Z 03005KT 9999 FEW045 13/09 Q1013;",
"08390599999","2010-12-20T12:00:00","4","37.3166666","-6.0","5.0","SEVILLA HELIPORT, SP","FM-15","LEEC ","V020","050,1,N,0031,1","01200,1,C,N","011265,1,N,1","+0150,1","+0090,1","99999,9","02,5,+00900,1,99,9","04,5,+01200,1,99,9","07,5,+01800,1,99,9",,"07,99,1,99,9,99,9,99999,9,99,9,99,9","10119,1,99999,9",,,,"MET065METAR LEEC 201200Z 05006KT 9999 FEW030 SCT040 BKN060 15/09 Q1012;",
"08390599999","2010-12-20T13:00:00","4","37.3166666","-6.0","5.0","SEVILLA HELIPORT, SP","FM-15","LEEC ","V020","060,1,N,0026,1","00900,1,C,N","011265,1,N,1","+0150,1","+0090,1","99999,9","04,5,+00750,1,99,9","07,5,+00900,1,99,9",,,"07,99,1,99,9,99,9,99999,9,99,9,99,9","10108,1,99999,9",,,,"MET058METAR LEEC 201300Z 06005KT 9999 SCT025 BKN030 15/09 Q1011;",
"08390599999","2010-12-20T14:00:00","4","37.3166666","-6.0","5.0","SEVILLA HELIPORT, SP","FM-15","LEEC ","V020","030,1,N,0021,1","00600,1,C,N","011265,1,N,1","+0140,1","+0100,1","99999,9","07,5,+00600,1,99,9","07,5,+01500,1,99,9",,,"07,99,1,99,9,99,9,99999,9,99,9,99,9","10102,1,99999,9",,,,"MET058METAR LEEC 201400Z 03004KT 9999 BKN020 BKN050 14/10 Q1010;",
"08390599999","2010-12-21T07:00:00","4","37.3166666","-6.0","5.0","SEVILLA HELIPORT, SP","FM-15","LEEC ","V020","220,1,N,0036,1","00750,1,C,N","011265,1,N,1","+0150,1","+0150,1","99999,9","04,5,+00450,1,99,9","07,5,+00750,1,99,9",,,"07,99,1,99,9,99,9,99999,9,99,9,99,9","10000,1,99999,9",,,,"MET058METAR LEEC 210700Z 22007KT 9999 SCT015 BKN025 15/15 Q1000;",
"08390599999","2010-12-21T08:00:00","4","37.3166666","-6.0","5.0","SEVILLA HELIPORT, SP","FM-15","LEEC ","V020","220,1,N,0036,1","99999,9,C,N","011265,1,N,1","+0160,1","+0150,1","99999,9","02,5,+00240,1,99,9","02,5,+00600,1,09,5","04,5,+00750,1,99,9",,"04,99,1,99,9,99,9,99999,9,99,9,99,9","10010,1,99999,9","63,1",,,"MET070METAR LEEC 210800Z 22007KT 9999 RA FEW008 FEW020CB SCT025 16/15 Q1001;","P01 007503SCOCIG"
"08390599999","2010-12-21T09:00:00","4","37.3166666","-6.0","5.0","SEVILLA HELIPORT, SP","FM-15","LEEC ","V020","200,1,N,0057,1","00600,1,C,N","011265,1,N,1","+0170,1","+0160,1","99999,9","02,5,+00360,1,99,9","04,5,+00600,1,99,9","07,5,+00900,1,99,9",,"07,99,1,99,9,99,9,99999,9,99,9,99,9","10010,1,99999,9",,,,"MET065METAR LEEC 210900Z 20011KT 9999 FEW012 SCT020 BKN030 17/16 Q1001;",
"08390599999","2010-12-21T10:00:00","4","37.3166666","-6.0","5.0","SEVILLA HELIPORT, SP","FM-15","LEEC ","V020","210,1,N,0057,1","99999,9,C,N","011265,1,N,1","+0170,1","+0160,1","99999,9","02,5,+00300,1,99,9","02,5,+00450,1,09,5","04,5,+00900,1,99,9",,"04,99,1,99,9,99,9,99999,9,99,9,99,9","10010,1,99999,9",,,,"MET067METAR LEEC 211000Z 21011KT 9999 FEW010 FEW015CB SCT030 17/16 Q1001;","P01 009003SCOCIG"
"08390599999","2010-12-21T11:00:00","4","37.3166666","-6.0","5.0","SEVILLA HELIPORT, SP","FM-15","LEEC ","V020","210,1,N,0077,1","99999,9,C,N","011265,1,N,1","+0170,1","+0150,1","99999,9","02,5,+00450,1,09,1","04,5,+00750,1,99,9",,,"04,99,1,99,9,99,9,99999,9,99,9,99,9","10010,1,99999,9",,,,"MET060METAR LEEC 211100Z 21015KT 9999 FEW015CB SCT025 17/15 Q1001;","P01 007503SCOCIG"
"08390599999","2010-12-21T12:00:00","4","37.3166666","-6.0","5.0","SEVILLA HELIPORT, SP","FM-15","LEEC ","V020","210,1,N,0046,1","99999,9,C,N","011265,1,N,1","+0170,1","+0150,1","99999,9","02,5,+00420,1,99,9","02,5,+00600,1,02,5","04,5,+00900,1,99,9",,"04,99,1,99,9,99,9,99999,9,99,9,99,9","10010,1,99999,9",,,,"MET068METAR LEEC 211200Z 21009KT 9999 FEW014 FEW020TCU SCT030 17/15 Q1001;","P01 009003SCOCIG"
"08390599999","2010-12-21T13:00:00","4","37.3166666","-6.0","5.0","SEVILLA HELIPORT, SP","FM-15","LEEC ","V020","210,1,N,0077,1","00750,1,C,N","011265,1,N,1","+0190,1","+0170,1","99999,9","02,5,+00450,1,99,9","07,5,+00750,1,99,9",,,"07,99,1,99,9,99,9,99999,9,99,9,99,9","10000,1,99999,9",,,,"MET058METAR LEEC 211300Z 21015KT 9999 FEW015 BKN025 19/17 Q1000;",
"08390599999","2010-12-21T14:00:00","4","37.3166666","-6.0","5.0","SEVILLA HELIPORT, SP","FM-15","LEEC ","V020","230,1,N,0067,1","99999,9,C,N","011265,1,N,1","+0170,1","+0160,1","99999,9","02,5,+00150,1,99,9","02,5,+00480,1,09,5","04,5,+00750,1,99,9",,"04,99,1,99,9,99,9,99999,9,99,9,99,9","10000,1,99999,9","82,1",,"0118,1","MET076METAR LEEC 211400Z 23013G23KT 9999 +SHRA FEW005 FEW016CB SCT025 17/16 Q1000;","P01 007503SCOCIG"
"08390599999","2010-12-22T07:00:00","4","37.3166666","-6.0","5.0","SEVILLA HELIPORT, SP","FM-15","LEEC ","V020","180,1,N,0067,1","99999,9,C,N","009000,1,N,1","+0130,1","+0110,1","99999,9","02,5,+00600,1,99,9","04,5,+00900,1,99,9",,,"04,99,1,99,9,99,9,99999,9,99,9,99,9","09929,1,99999,9",,,,"MET058METAR LEEC 220700Z 18013KT 9000 FEW020 SCT030 13/11 Q0993;","P01 009003SCOCIG"
"08390599999","2010-12-22T08:00:00","4","37.3166666","-6.0","5.0","SEVILLA HELIPORT, SP","FM-15","LEEC ","V020","150,1,N,0062,1","01800,1,C,N","011265,1,N,1","+0130,1","+0110,1","99999,9","04,5,+00600,1,99,9","07,5,+01800,1,99,9",,,"07,99,1,99,9,99,9,99999,9,99,9,99,9","09929,1,99999,9",,,,"MET058METAR LEEC 220800Z 15012KT 9999 SCT020 BKN060 13/11 Q0993;",
"08390599999","2010-12-22T09:00:00","4","37.3166666","-6.0","5.0","SEVILLA HELIPORT, SP","FM-15","LEEC ","V020","230,1,N,0067,1","00600,1,C,N","001000,1,N,1","+0120,1","+0110,1","99999,9","02,5,+00300,1,99,9","04,5,+00600,1,02,5","07,5,+00900,1,99,9",,"07,99,1,99,9,99,9,99999,9,99,9,99,9","09929,1,99999,9","10,1","82,1",,"MET085METAR LEEC 220900Z 23013KT 190V260 1000 +SHRA BR FEW010 SCT020TCU BKN030 12/11 Q0993;",
"08390599999","2010-12-22T10:00:00","4","37.3166666","-6.0","5.0","SEVILLA HELIPORT, SP","FM-15","LEEC ","V020","190,1,N,0021,1","00600,1,C,N","009000,1,N,1","+0100,1","+0100,1","99999,9","04,5,+00450,1,99,9","07,5,+00600,1,99,9","08,5,+01350,1,99,9",,"08,99,1,99,9,99,9,99999,9,99,9,99,9","09929,1,99999,9","61,1",,,"MET077METAR LEEC 221000Z 19004KT 150V220 9000 -RA SCT015 BKN020 OVC045 10/10 Q0993;",
"08390599999","2010-12-22T11:00:00","4","37.3166666","-6.0","5.0","SEVILLA HELIPORT, SP","FM-15","LEEC ","V020","180,1,N,0062,1","00750,1,C,N","011265,1,N,1","+0130,1","+0110,1","99999,9","02,5,+00450,1,99,9","07,5,+00750,1,99,9","07,5,+01350,1,99,9",,"07,99,1,99,9,99,9,99999,9,99,9,99,9","09929,1,99999,9","61,1",,,"MET069METAR LEEC 221100Z 18012KT 9999 -RA FEW015 BKN025 BKN045 13/11 Q0993;",
"08390599999","2010-12-22T12:00:00","4","37.3166666","-6.0","5.0","SEVILLA HELIPORT, SP","FM-15","LEEC ","V020","210,1,N,0057,1","00750,1,C,N","003000,1,N,1","+0140,1","+0120,1","99999,9","02,5,+00240,1,99,9","02,5,+00450,1,09,5","07,5,+00750,1,99,9",,"07,99,1,99,9,99,9,99999,9,99,9,99,9","09919,1,99999,9","17,1","80,1",,"MET078METAR LEEC 221200Z 21011KT 3000 -SHRA VCTS FEW008 FEW015CB BKN025 14/12 Q0992;",
"08390599999","2010-12-22T13:00:00","4","37.3166666","-6.0","5.0","SEVILLA HELIPORT, SP","FM-15","LEEC ","V020","170,1,N,0026,1","99999,9,C,N","011265,1,N,1","+0140,1","+0130,1","99999,9","02,5,+00600,1,99,9","04,5,+00900,1,99,9",,,"04,99,1,99,9,99,9,99999,9,99,9,99,9","09919,1,99999,9",,,,"MET058METAR LEEC 221300Z 17005KT 9999 FEW020 SCT030 14/13 Q0992;","P01 009003SCOCIG"
"08390599999","2010-12-23T07:00:00","4","37.3166666","-6.0","5.0","SEVILLA HELIPORT, SP","FM-15","LEEC ","V020","260,1,N,0041,1","01200,1,C,N","011265,1,N,1","+0120,1","+0070,1","99999,9","07,5,+01200,1,99,9","07,5,+01500,1,99,9",,,"07,99,1,99,9,99,9,99999,9,99,9,99,9","10041,1,99999,9",,,,"MET066METAR LEEC 230700Z 26008KT 230V290 9999 BKN040 BKN050 12/07 Q1004;",
"08390599999","2010-12-23T08:00:00","4","37.3166666","-6.0","5.0","SEVILLA HELIPORT, SP","FM-15","LEEC ","V020","250,1,N,0041,1","99999,9,C,N","011265,1,N,1","+0110,1","+0070,1","99999,9","02,5,+01200,1,99,9","04,5,+01500,1,99,9",,,"04,99,1,99,9,99,9,99999,9,99,9,99,9","10051,1,99999,9",,,,"MET058METAR LEEC 230800Z 25008KT 9999 FEW040 SCT050 11/07 Q1005;","P01 015003SCOCIG"
"08390599999","2010-12-23T09:00:00","4","37.3166666","-6.0","5.0","SEVILLA HELIPORT, SP","FM-15","LEEC ","V020","260,1,N,0067,1","22000,1,9,N","011265,1,N,1","+0110,1","+0070,1","99999,9","02,5,+01200,1,99,9",,,,"02,99,1,99,9,99,9,99999,9,99,9,99,9","10061,1,99999,9",,,,"MET051METAR LEEC 230900Z 26013KT 9999 FEW040 11/07 Q1006;",
"08390599999","2010-12-23T10:00:00","4","37.3166666","-6.0","5.0","SEVILLA HELIPORT, SP","FM-15","LEEC ","V020","270,1,N,0072,1","22000,1,9,N","011265,1,N,1","+0120,1","+0060,1","99999,9","02,5,+01200,1,99,9",,,,"02,99,1,99,9,99,9,99999,9,99,9,99,9","10071,1,99999,9",,,"0134,1","MET062METAR LEEC 231000Z 27014G26KT 240V300 9999 FEW040 12/06 Q1007;",
"08390599999","2010-12-23T11:00:00","4","37.3166666","-6.0","5.0","SEVILLA HELIPORT, SP","FM-15","LEEC ","V020","270,1,N,0082,1","22000,1,9,N","011265,1,N,1","+0130,1","+0050,1","99999,9","02,5,+01200,1,99,9",,,,"02,99,1,99,9,99,9,99999,9,99,9,99,9","10091,1,99999,9",,,,"MET051METAR LEEC 231100Z 27016KT 9999 FEW040 13/05 Q1009;",
"08390599999","2010-12-23T12:00:00","4","37.3166666","-6.0","5.0","SEVILLA HELIPORT, SP","FM-15","LEEC ","V020","270,1,N,0072,1","22000,1,9,N","011265,1,N,1","+0130,1","+0040,1","99999,9","04,5,+01200,1,99,9",,,,"04,99,1,99,9,99,9,99999,9,99,9,99,9","10102,1,99999,9",,,,"MET051METAR LEEC 231200Z 27014KT 9999 SCT040 13/04 Q1010;",
"08390599999","2010-12-23T13:00:00","4","37.3166666","-6.0","5.0","SEVILLA HELIPORT, SP","FM-15","LEEC ","V020","280,1,N,0062,1","99999,9,C,N","011265,1,N,1","+0130,1","+0030,1","99999,9","02,5,+00900,1,99,9","04,5,+01500,1,99,9",,,"04,99,1,99,9,99,9,99999,9,99,9,99,9","10102,1,99999,9",,,,"MET066METAR LEEC 231300Z 28012KT 250V310 9999 FEW030 SCT050 13/03 Q1010;","P01 015003SCOCIG"
"08390599999","2010-12-27T07:00:00","4","37.3166666","-6.0","5.0","SEVILLA HELIPORT, SP","FM-15","LEEC ","V020","020,1,N,0041,1","01200,1,C,N","011265,1,N,1","+0070,1","+0020,1","99999,9","07,5,+01200,1,99,9",,,,"07,99,1,99,9,99,9,99999,9,99,9,99,9","10200,1,99999,9",,,,"MET051METAR LEEC 270700Z 02008KT 9999 BKN040 07/02 Q1020;",
"08390599999","2010-12-27T08:00:00","4","37.3166666","-6.0","5.0","SEVILLA HELIPORT, SP","FM-15","LEEC ","V020","020,1,N,0036,1","01200,1,C,N","011265,1,N,1","+0070,1","+0010,1","99999,9","07,5,+01200,1,99,9",,,,"07,99,1,99,9,99,9,99999,9,99,9,99,9","10210,1,99999,9",,,,"MET051METAR LEEC 270800Z 02007KT 9999 BKN040 07/01 Q1021;",
"08390599999","2010-12-27T09:00:00","4","37.3166666","-6.0","5.0","SEVILLA HELIPORT, SP","FM-15","LEEC ","V020","030,1,N,0041,1","01200,1,C,N","011265,1,N,1","+0080,1","+0020,1","99999,9","07,5,+01200,1,99,9",,,,"07,99,1,99,9,99,9,99999,9,99,9,99,9","10210,1,99999,9",,,,"MET051METAR LEEC 270900Z 03008KT 9999 BKN040 08/02 Q1021;",
"08390599999","2010-12-27T10:00:00","4","37.3166666","-6.0","5.0","SEVILLA HELIPORT, SP","FM-15","LEEC ","V020","030,1,N,0031,1","01200,1,C,N","011265,1,N,1","+0080,1","+0030,1","99999,9","07,5,+01200,1,99,9",,,,"07,99,1,99,9,99,9,99999,9,99,9,99,9","10210,1,99999,9",,,,"MET051METAR LEEC 271000Z 03006KT 9999 BKN040 08/03 Q1021;",
"08390599999","2010-12-27T11:00:00","4","37.3166666","-6.0","5.0","SEVILLA HELIPORT, SP","FM-15","LEEC ","V020","020,1,N,0026,1","01200,1,C,N","011265,1,N,1","+0090,1","+0040,1","99999,9","07,5,+01200,1,99,9",,,,"07,99,1,99,9,99,9,99999,9,99,9,99,9","10220,1,99999,9",,,,"MET051METAR LEEC 271100Z 02005KT 9999 BKN040 09/04 Q1022;",
"08390599999","2010-12-27T12:00:00","4","37.3166666","-6.0","5.0","SEVILLA HELIPORT, SP","FM-15","LEEC ","V020","020,1,N,0031,1","22000,1,9,N","011265,1,N,1","+0110,1","+0050,1","99999,9","02,5,+01200,1,99,9",,,,"02,99,1,99,9,99,9,99999,9,99,9,99,9","10210,1,99999,9",,,,"MET051METAR LEEC 271200Z 02006KT 9999 FEW040 11/05 Q1021;",
"08390599999","2010-12-27T13:00:00","4","37.3166666","-6.0","5.0","SEVILLA HELIPORT, SP","FM-15","LEEC ","V020","020,1,N,0026,1","01200,1,C,N","011265,1,N,1","+0120,1","+0050,1","99999,9","07,5,+01200,1,99,9",,,,"07,99,1,99,9,99,9,99999,9,99,9,99,9","10210,1,99999,9",,,,"MET051METAR LEEC 271300Z 02005KT 9999 BKN040 12/05 Q1021;",
"08390599999","2010-12-28T06:00:00","4","37.3166666","-6.0","5.0","SEVILLA HELIPORT, SP","FM-15","LEEC ","V020","030,1,N,0026,1","99999,9,9,Y","009900,1,N,1","+0100,1","+0080,1","99999,9",,,,,,"10180,1,99999,9",,,,"MET045METAR LEEC 280600Z 03005KT CAVOK 10/08 Q1018;",
"08390599999","2010-12-28T07:00:00","4","37.3166666","-6.0","5.0","SEVILLA HELIPORT, SP","FM-15","LEEC ","V020","999,9,V,0010,1","99999,9,9,Y","009900,1,N,1","+0100,1","+0080,1","99999,9",,,,,,"10180,1,99999,9",,,,"MET045METAR LEEC 280700Z VRB02KT CAVOK 10/08 Q1018;",
"08390599999","2010-12-28T08:00:00","4","37.3166666","-6.0","5.0","SEVILLA HELIPORT, SP","FM-15","LEEC ","V020","999,9,V,0010,1","99999,9,9,Y","009900,1,N,1","+0100,1","+0080,1","99999,9",,,,,,"10190,1,99999,9",,,,"MET045METAR LEEC 280800Z VRB02KT CAVOK 10/08 Q1019;",
"08390599999","2010-12-28T09:00:00","4","37.3166666","-6.0","5.0","SEVILLA HELIPORT, SP","FM-15","LEEC ","V020","999,9,V,0010,1","99999,9,9,Y","009900,1,N,1","+0110,1","+0080,1","99999,9",,,,,,"10190,1,99999,9",,,,"MET045METAR LEEC 280900Z VRB02KT CAVOK 11/08 Q1019;",
"08390599999","2010-12-28T10:00:00","4","37.3166666","-6.0","5.0","SEVILLA HELIPORT, SP","FM-15","LEEC ","V020","030,1,N,0041,1","99999,9,9,Y","009900,1,N,1","+0120,1","+0080,1","99999,9",,,,,,"10190,1,99999,9",,,,"MET045METAR LEEC 281000Z 03008KT CAVOK 12/08 Q1019;",
"08390599999","2010-12-28T11:00:00","4","37.3166666","-6.0","5.0","SEVILLA HELIPORT, SP","FM-15","LEEC ","V020","010,1,N,0026,1","99999,9,9,Y","009900,1,N,1","+0140,1","+0080,1","99999,9",,,,,,"10190,1,99999,9",,,,"MET045METAR LEEC 281100Z 01005KT CAVOK 14/08 Q1019;",
"08390599999","2010-12-28T12:00:00","4","37.3166666","-6.0","5.0","SEVILLA HELIPORT, SP","FM-15","LEEC ","V020","020,1,N,0031,1","99999,9,9,Y","009900,1,N,1","+0150,1","+0090,1","99999,9",,,,,,"10180,1,99999,9",,,,"MET045METAR LEEC 281200Z 02006KT CAVOK 15/09 Q1018;",
"08390599999","2010-12-29T07:00:00","4","37.3166666","-6.0","5.0","SEVILLA HELIPORT, SP","FM-15","LEEC ","V020","010,1,N,0021,1","99999,9,9,Y","009900,1,N,1","+0090,1","+0080,1","99999,9",,,,,,"10149,1,99999,9",,,,"MET053METAR LEEC 290700Z 01004KT 340V040 CAVOK 09/08 Q1015;",
"08390599999","2010-12-29T08:00:00","4","37.3166666","-6.0","5.0","SEVILLA HELIPORT, SP","FM-15","LEEC ","V020","020,1,N,0026,1","99999,9,9,Y","009900,1,N,1","+0090,1","+0070,1","99999,9",,,,,,"10149,1,99999,9",,,,"MET045METAR LEEC 290800Z 02005KT CAVOK 09/07 Q1015;",
"08390599999","2010-12-29T09:00:00","4","37.3166666","-6.0","5.0","SEVILLA HELIPORT, SP","FM-15","LEEC ","V020","040,1,N,0021,1","22000,1,9,N","005000,1,N,1","+0100,1","+0080,1","99999,9",,,,,"00,99,1,99,9,99,9,99999,9,99,9,99,9","10149,1,99999,9","10,1",,,"MET051METAR LEEC 290900Z 04004KT 5000 BR NSC 10/08 Q1015;","Q01    003SCCGA1"
"08390599999","2010-12-29T10:00:00","4","37.3166666","-6.0","5.0","SEVILLA HELIPORT, SP","FM-15","LEEC ","V020","999,9,V,0015,1","22000,1,9,N","008000,1,N,1","+0120,1","+0080,1","99999,9",,,,,"00,99,1,99,9,99,9,99999,9,99,9,99,9","10159,1,99999,9",,,,"MET048METAR LEEC 291000Z VRB03KT 8000 NSC 12/08 Q1016;","Q01    003SCCGA1"
"08390599999","2010-12-29T11:00:00","4","37.3166666","-6.0","5.0","SEVILLA HELIPORT, SP","FM-15","LEEC ","V020","999,9,V,0015,1","99999,9,9,Y","009900,1,N,1","+0140,1","+0080,1","99999,9",,,,,,"10159,1,99999,9",,,,"MET045METAR LEEC 291100Z VRB03KT CAVOK 14/08 Q1016;",
"08390599999","2010-12-29T12:00:00","4","37.3166666","-6.0","5.0","SEVILLA HELIPORT, SP","FM-15","LEEC ","V020","999,9,V,0010,1","99999,9,9,Y","009900,1,N,1","+0150,1","+0090,1","99999,9",,,,,,"10149,1,99999,9",,,,"MET045METAR LEEC 291200Z VRB02KT CAVOK 15/09 Q1015;",
"08390599999","2010-12-29T13:00:00","4","37.3166666","-6.0","5.0","SEVILLA HELIPORT, SP","FM-15","LEEC ","V020","999,9,V,0010,1","99999,9,9,Y","009900,1,N,1","+0170,1","+0090,1","99999,9",,,,,,"10139,1,99999,9",,,,"MET045METAR LEEC 291300Z VRB02KT CAVOK 17/09 Q1014;",
"08390599999","2010-12-30T06:00:00","4","37.3166666","-6.0","5.0","SEVILLA HELIPORT, SP","FM-15","LEEC ","V020","140,1,N,0057,1","00600,1,C,N","009000,1,N,1","+0130,1","+0110,1","99999,9","02,5,+00300,1,99,9","04,5,+00600,1,99,9","07,5,+01800,1,99,9",,"07,99,1,99,9,99,9,99999,9,99,9,99,9","10108,1,99999,9",,,,"MET065METAR LEEC 300600Z 14011KT 9000 FEW010 SCT020 BKN060 13/11 Q1011;",
"08390599999","2010-12-30T07:00:00","4","37.3166666","-6.0","5.0","SEVILLA HELIPORT, SP","FM-15","LEEC ","V020","160,1,N,0057,1","01200,1,C,N","009000,1,N,1","+0130,1","+0110,1","99999,9","02,5,+00900,1,99,9","07,5,+01200,1,99,9",,,"07,99,1,99,9,99,9,99999,9,99,9,99,9","10119,1,99999,9",,,,"MET063METAR LEEC 300700Z 16011KT 9000 FEW030 BKN040 13/11 Q1012 RERA;",
"08390599999","2010-12-30T08:00:00","4","37.3166666","-6.0","5.0","SEVILLA HELIPORT, SP","FM-15","LEEC ","V020","190,1,N,0046,1","01200,1,C,N","011265,1,N,1","+0130,1","+0110,1","99999,9","02,5,+00600,1,99,9","04,5,+01200,1,99,9","07,5,+01500,1,99,9",,"07,99,1,99,9,99,9,99999,9,99,9,99,9","10119,1,99999,9",,,,"MET070METAR LEEC 300800Z 19009KT 9999 FEW020 SCT040 BKN050 13/11 Q1012 RERA;",
"08390599999","2010-12-30T09:00:00","4","37.3166666","-6.0","5.0","SEVILLA HELIPORT, SP","FM-15","LEEC ","V020","170,1,N,0026,1","00600,1,C,N","011265,1,N,1","+0130,1","+0110,1","99999,9","02,5,+00300,1,99,9","04,5,+00600,1,99,9","07,5,+01650,5,99,9",,"07,99,1,99,9,99,9,99999,9,99,9,99,9","10129,1,99999,9","53,1",,,"MET076METAR LEEC 300900Z 17005KT 130V220 9999 DZ FEW010 SCT020 BKN055 13/11 Q1013;",
"08390599999","2010-12-30T10:00:00","4","37.3166666","-6.0","5.0","SEVILLA HELIPORT, SP","FM-15","LEEC ","V020","160,1,N,0036,1","01800,1,C,N","011265,1,N,1","+0150,1","+0120,1","99999,9","07,5,+01800,1,99,9",,,,"07,99,1,99,9,99,9,99999,9,99,9,99,9","10129,1,99999,9",,,,"MET051METAR LEEC 301000Z 16007KT 9999 BKN060 15/12 Q1013;",
"08390599999","2010-12-30T11:00:00","4","37.3166666","-6.0","5.0","SEVILLA HELIPORT, SP","FM-15","LEEC ","V020","180,1,N,0051,1","99999,9,C,N","011265,1,N,1","+0150,1","+0120,1","99999,9","02,5,+00900,1,99,9","04,5,+01200,1,99,9",,,"04,99,1,99,9,99,9,99999,9,99,9,99,9","10129,1,99999,9",,,,"MET058METAR LEEC 301100Z 18010KT 9999 FEW030 SCT040 15/12 Q1013;","P01 012003SCOCIG"
"08390599999","2010-12-30T12:00:00","4","37.3166666","-6.0","5.0","SEVILLA HELIPORT, SP","FM-15","LEEC ","V020","170,1,N,0046,1","99999,9,C,N","011265,1,N,1","+0170,1","+0130,1","99999,9","02,5,+00750,1,99,9","04,5,+01200,1,99,9",,,"04,99,1,99,9,99,9,99999,9,99,9,99,9","10129,1,99999,9",,,,"MET058METAR LEEC 301200Z 17009KT 9999 FEW025 SCT040 17/13 Q1013;","P01 012003SCOCIG"
"08390599999","2010-12-30T13:00:00","4","37.3166666","-6.0","5.0","SEVILLA HELIPORT, SP","FM-15","LEEC ","V020","170,1,N,0057,1","00900,1,C,N","011265,1,N,1","+0170,1","+0130,1","99999,9","02,5,+00750,1,99,9","04,5,+00900,1,99,9","07,5,+01200,1,99,9",,"07,99,1,99,9,99,9,99999,9,99,9,99,9","10119,1,99999,9",,,,"MET065METAR LEEC 301300Z 17011KT 9999 FEW025 SCT030 BKN040 17/13 Q1012;",
