"STATION","DATE","SOURCE","LATITUDE","LONGITUDE","ELEVATION","NAME","REPORT_TYPE","CALL_SIGN","QUALITY_CONTROL","WND","CIG","VIS","TMP","DEW","SLP","AA1","AA2","AY1","AY2","GA1","GF1","KA1","MA1","MD1","MW1","REM","EQD"
"08417099999","2010-01-04T06:00:00","4","37.7833333","-3.8166666","580.0","JAEN, SP","FM-12","99999","V020","999,9,C,0000,1","99999,9,9,N","999999,9,N,1","+0100,1","+0086,1","10148,1","12,0089,9,1","24,0109,9,1",,,,,"999,N,+0089,1","99999,9,09469,1","7,1,014,1,+999,9",,"SYN088AAXX  04064 08417 13/// /0000 10100 20086 39469 40148 57014 60092 333 20089 55/// 70110;",
"08417099999","2010-01-04T09:00:00","4","37.7833333","-3.8166666","580.0","JAEN, SP","FM-12","99999","V020","150,1,N,0026,1","03600,1,9,N","008000,1,N,1","+0110,1","+0071,1","10110,1",,,"6,1,03,1","6,1,03,1",,"08,99,1,03,1,07,1,00800,1,07,1,00,1",,"99999,9,09436,1","7,1,033,1,+999,9","63,1","SYN072AAXX  04094 08417 41558 81505 10110 20071 39436 40110 57033 76366 83770;",
"08417099999","2010-01-04T12:00:00","4","37.7833333","-3.8166666","580.0","JAEN, SP","FM-12","99999","V020","120,1,N,0046,1","03600,1,9,N","008000,1,N,1","+0116,1","+0059,1","10091,1","06,0079,9,1",,"6,1,06,1","2,1,06,1",,"08,99,1,02,1,07,1,00800,1,07,1,00,1",,"99999,9,09419,1","7,1,017,1,+999,9","63,1","SYN078AAXX  04124 08417 11558 81209 10116 20059 39419 40091 57017 60081 76362 82770;",
"08417099999","2010-01-08T06:00:00","4","37.7833333","-3.8166666","580.0","JAEN, SP","FM-12","99999","V020","270,1,N,0041,1","99999,9,9,N","999999,9,N,1","+0002,1","-0037,1","10091,1","12,0180,9,1","24,0226,9,1",,,,,"999,N,+0002,1","99999,9,09391,1","2,1,010,1,+999,9",,"SYN088AAXX  08064 08417 13/// /2708 10002 21037 39391 40091 52010 60182 333 20002 55/// 70225;",
"08417099999","2010-01-08T09:00:00","4","37.7833333","-3.8166666","580.0","JAEN, SP","FM-12","99999","V020","240,1,N,0021,1","22000,1,9,N","015000,1,N,1","-0008,1","-0052,1","10127,1",,,,,,"03,99,1,02,1,00,1,99999,9,03,1,01,1",,"99999,9,09422,1","2,1,031,1,+999,9",,"SYN066AAXX  08094 08417 42965 32404 11008 21052 39422 40127 52031 82031;",
"08417099999","2010-01-08T12:00:00","4","37.7833333","-3.8166666","580.0","JAEN, SP","FM-12","99999","V020","300,1,N,0021,1","22000,1,9,N","015000,1,N,1","+0020,1","-0056,1","10123,1","06,0000,9,1",,,,,"04,99,1,03,1,02,1,00800,1,03,1,00,1",,"99999,9,09425,1","2,1,003,1,+999,9",,"SYN072AAXX  08124 08417 12565 43004 10020 21056 39425 40123 52003 60001 83230;","Q01  00002PRCP06"
"08417099999","2010-01-08T15:00:00","4","37.7833333","-3.8166666","580.0","JAEN, SP","FM-12","99999","V020","310,1,N,0021,1","00750,1,9,N","015000,1,N,1","+0022,1","-0059,1","10139,1",,,,,,"06,99,1,05,1,02,1,00800,1,07,1,00,1",,"99999,9,09441,1","2,1,016,1,+999,9",,"SYN066AAXX  08154 08417 42565 63104 10022 21059 39441 40139 52016 85270;",
"08417099999","2010-01-08T18:00:00","4","37.7833333","-3.8166666","580.0","JAEN, SP","FM-12","99999","V020","310,1,N,0026,1","01200,1,9,N","012000,1,N,1","+0012,1","-0064,1","10154,1","12,0000,9,1",,"7,1,06,1","1,1,06,1",,"05,99,1,05,1,08,1,00800,1,00,1,00,1","999,M,+0026,1","99999,9,09452,1","2,1,011,1,+999,9","02,1","SYN088AAXX  08184 08417 11562 53105 10012 21064 39452 40154 52011 69912 70271 85800 333 10026;","Q01  00002PRCP12"
"08417099999","2010-01-11T06:00:00","4","37.7833333","-3.8166666","580.0","JAEN, SP","FM-12","99999","V020","210,1,N,0041,1","99999,9,9,N","999999,9,N,1","+0084,1","+0031,1","10144,1","12,0051,9,1","24,0097,9,1",,,,,"999,N,-0002,1","99999,9,09461,1","4,1,000,1,+999,9",,"SYN088AAXX  11064 08417 13/// /2108 10084 20031 39461 40144 54000 60052 333 21002 55/// 70096;",
"08417099999","2010-01-11T09:00:00","4","37.7833333","-3.8166666","580.0","JAEN, SP","FM-12","99999","V020","270,1,N,0036,1","03600,1,9,N","008000,1,N,1","+0090,1","+0061,1","10160,1",,,"6,1,03,1","2,1,03,1",,"08,99,1,03,1,07,1,00800,1,07,1,00,1",,"99999,9,09478,1","2,1,017,1,+999,9","63,1","SYN072AAXX  11094 08417 41558 82707 10090 20061 39478 40160 52017 76362 83770;",
"08417099999","2010-01-11T12:00:00","4","37.7833333","-3.8166666","580.0","JAEN, SP","FM-12","99999","V020","290,1,N,0036,1","03600,1,9,N","010000,1,N,1","+0086,1","+0048,1","10196,1","06,0020,9,1",,"6,1,06,1","2,1,06,1",,"08,99,1,02,1,07,1,00800,1,07,1,00,1",,"99999,9,09510,1","2,1,032,1,+999,9","02,1","SYN078AAXX  11124 08417 11560 82907 10086 20048 39510 40196 52032 60021 70262 82770;",
"08417099999","2010-01-11T15:00:00","4","37.7833333","-3.8166666","580.0","JAEN, SP","FM-12","99999","V020","290,1,N,0021,1","03600,1,9,N","015000,1,N,1","+0096,1","+0034,1","10203,1",,,,,,"06,99,1,04,1,02,1,00800,1,07,1,00,1",,"99999,9,09519,1","2,1,009,1,+999,9",,"SYN066AAXX  11154 08417 42565 62904 10096 20034 39519 40203 52009 84270;",
"08417099999","2010-01-11T18:00:00","4","37.7833333","-3.8166666","580.0","JAEN, SP","FM-12","99999","V020","280,1,N,0031,1","01200,1,9,N","012000,1,N,1","+0088,1","+0040,1","10223,1","12,0020,9,1",,,,,"07,99,1,05,1,08,1,00800,1,07,1,00,1","999,M,+0108,1","99999,9,09536,1","2,1,017,1,+999,9",,"SYN082AAXX  11184 08417 12562 72806 10088 20040 39536 40223 52017 60022 85870 333 10108;",
"08417099999","2010-01-13T06:00:00","4","37.7833333","-3.8166666","580.0","JAEN, SP","FM-12","99999","V020","250,1,N,0005,1","99999,9,9,N","999999,9,N,1","+0086,1","+0050,1","10204,1","12,0071,9,1","24,0150,9,1",,,,,"999,N,+0078,1","99999,9,09518,1","1,1,004,1,+999,9",,"SYN088AAXX  13064 08417 13/// /2501 10086 20050 39518 40204 51004 60072 333 20078 55/// 70150;",
"08417099999","2010-01-13T09:00:00","4","37.7833333","-3.8166666","580.0","JAEN, SP","FM-12","99999","V020","999,9,C,0000,1","03600,1,9,N","010000,1,N,1","+0088,1","+0059,1","10203,1",,,,,,"08,99,1,04,1,08,1,00800,1,07,1,00,1",,"99999,9,09517,1","8,1,001,1,+999,9",,"SYN066AAXX  13094 08417 42560 80000 10088 20059 39517 40203 58001 84870;",
"08417099999","2010-01-13T12:00:00","4","37.7833333","-3.8166666","580.0","JAEN, SP","FM-12","99999","V020","999,9,C,0000,1","03600,1,9,N","012000,1,N,1","+0104,1","+0064,1","10193,1","06,0000,9,1",,,,,"08,99,1,03,1,08,1,00800,1,07,1,00,1",,"99999,9,09512,1","7,1,005,1,+999,9",,"SYN072AAXX  13124 08417 12562 80000 10104 20064 39512 40193 57005 60001 83870;","Q01  00002PRCP06"
"08417099999","2010-01-13T15:00:00","4","37.7833333","-3.8166666","580.0","JAEN, SP","FM-12","99999","V020","260,1,N,0057,1","03600,1,9,N","008000,1,N,1","+0112,1","+0082,1","10153,1",,,"6,1,03,1","2,1,03,1",,"08,99,1,02,1,07,1,00800,1,07,1,00,1",,"99999,9,09477,1","7,1,035,1,+999,9","63,1","SYN072AAXX  13154 08417 41558 82611 10112 20082 39477 40153 57035 76362 82770;",
"08417099999","2010-01-13T18:00:00","4","37.7833333","-3.8166666","580.0","JAEN, SP","FM-12","99999","V020","250,1,N,0041,1","03600,1,9,N","008000,1,N,1","+0108,1","+0053,1","10140,1","12,0030,9,1",,"6,1,06,1","2,1,06,1",,"08,99,1,02,1,07,1,00800,1,07,1,00,1","999,M,+0122,1","99999,9,09463,1","7,1,014,1,+999,9","63,1","SYN088AAXX  13184 08417 11558 82508 10108 20053 39463 40140 57014 60032 76362 82770 333 10122;",
"08417099999","2010-01-15T06:00:00","4","37.7833333","-3.8166666","580.0","JAEN, SP","FM-12","99999","V020","250,1,N,0021,1","99999,9,9,N","999999,9,N,1","+0070,1","+0025,1","10260,1","12,0000,9,1","24,0020,9,1",,,,,"999,N,+0056,1","99999,9,09566,1","2,1,010,1,+999,9",,"SYN088AAXX  15064 08417 13/// /2504 10070 20025 39566 40260 52010 60002 333 20056 55/// 70020;","Q01  00002PRCP12"
"08417099999","2010-01-15T09:00:00","4","37.7833333","-3.8166666","580.0","JAEN, SP","FM-12","99999","V020","999,9,C,0000,1","22000,1,9,N","012000,1,N,1","+0070,1","+0048,1","10272,1",,,,,,"01,99,1,00,1,00,1,99999,9,00,1,01,1",,"99999,9,09577,1","2,1,011,1,+999,9",,"SYN066AAXX  15094 08417 42962 10000 10070 20048 39577 40272 52011 80001;",
"08417099999","2010-01-15T12:00:00","4","37.7833333","-3.8166666","580.0","JAEN, SP","FM-12","99999","V020","360,1,N,0005,1","22000,1,9,N","015000,1,N,1","+0092,1","+0042,1","10272,1","06,0000,9,1",,,,,"02,99,1,00,1,00,1,99999,9,00,1,01,1",,"99999,9,09582,1","2,1,005,1,+999,9",,"SYN072AAXX  15124 08417 12965 23601 10092 20042 39582 40272 52005 60001 80001;","Q01  00002PRCP06"
"08417099999","2010-01-15T15:00:00","4","37.7833333","-3.8166666","580.0","JAEN, SP","FM-12","99999","V020","999,9,C,0000,1","99999,9,9,N","015000,1,N,1","+0102,1","+0050,1","10262,1",,,,,,"06,99,1,00,1,00,1,99999,9,00,1,08,1",,"99999,9,09576,1","6,1,006,1,+999,9",,"SYN066AAXX  15154 08417 42965 60000 10102 20050 39576 40262 56006 80008;",
"08417099999","2010-01-15T18:00:00","4","37.7833333","-3.8166666","580.0","JAEN, SP","FM-12","99999","V020","999,9,C,0000,1","99999,9,9,N","015000,1,N,1","+0090,1","+0054,1","10263,1","12,0000,9,1",,,,,"06,99,1,00,1,00,1,99999,9,00,1,08,1","999,M,+0108,1","99999,9,09574,1","6,1,002,1,+999,9",,"SYN082AAXX  15184 08417 12965 60000 10090 20054 39574 40263 56002 60002 80008 333 10108;","Q01  00002PRCP12"
"08417099999","2010-01-18T06:00:00","4","37.7833333","-3.8166666","580.0","JAEN, SP","FM-12","99999","V020","999,9,C,0000,1","99999,9,9,N","999999,9,N,1","+0134,1","+0017,1","10222,1","12,0000,9,1","24,0000,9,1",,,,,"999,N,+0094,1","99999,9,09545,1","7,1,015,1,+999,9",,"SYN088AAXX  18064 08417 13/// /0000 10134 20017 39545 40222 57015 60002 333 20094 55/// 70000;","Q01  00002PRCP24Q02  00002PRCP12"
"08417099999","2010-01-18T09:00:00","4","37.7833333","-3.8166666","580.0","JAEN, SP","FM-12","99999","V020","999,9,C,0000,1","22000,1,9,N","015000,1,N,1","+0110,1","+0013,1","10230,1",,,,,"00,1,+99999,9,99,9","00,99,1,00,1,00,1,99999,9,00,1,00,1",,"99999,9,09547,1","2,1,002,1,+999,9",,"SYN060AAXX  18094 08417 42965 00000 10110 20013 39547 40230 52002;",
"08417099999","2010-01-18T12:00:00","4","37.7833333","-3.8166666","580.0","JAEN, SP","FM-12","99999","V020","290,1,N,0036,1","22000,1,9,N","015000,1,N,1","+0148,1","+0042,1","10222,1","06,0000,9,1",,,,"00,1,+99999,9,99,9","00,99,1,00,1,00,1,99999,9,00,1,00,1",,"99999,9,09549,1","0,1,002,1,+999,9",,"SYN066AAXX  18124 08417 12965 02907 10148 20042 39549 40222 50002 60001;","Q01  00002PRCP06"
"08417099999","2010-01-18T15:00:00","4","37.7833333","-3.8166666","580.0","JAEN, SP","FM-12","99999","V020","310,1,N,0021,1","03600,1,9,N","015000,1,N,1","+0144,1","+0098,1","10221,1",,,,,,"06,99,1,02,1,08,1,00800,1,07,1,00,1",,"99999,9,09548,1","5,1,001,1,+999,9",,"SYN066AAXX  18154 08417 42565 63104 10144 20098 39548 40221 55001 82870;",
"08417099999","2010-01-18T18:00:00","4","37.7833333","-3.8166666","580.0","JAEN, SP","FM-12","99999","V020","260,1,N,0015,1","03600,1,9,N","015000,1,N,1","+0140,1","+0064,1","10231,1","12,0000,9,1",,,,,"06,99,1,02,1,08,1,00800,1,07,1,00,1","999,M,+0178,1","99999,9,09556,1","2,1,008,1,+999,9",,"SYN082AAXX  18184 08417 12565 62603 10140 20064 39556 40231 52008 60002 82870 333 10178;","Q01  00002PRCP12"
"08417099999","2010-01-20T06:00:00","4","37.7833333","-3.8166666","580.0","JAEN, SP","FM-12","99999","V020","300,1,N,0015,1","99999,9,9,N","999999,9,N,1","+0094,1","+0067,1","10255,1","12,0000,9,1","24,0000,9,1",,,,,"999,N,+0086,1","99999,9,09567,1","3,1,003,1,+999,9",,"SYN088AAXX  20064 08417 13/// /3003 10094 20067 39567 40255 53003 60002 333 20086 55/// 70000;","Q01  00002PRCP24Q02  00002PRCP12"
"08417099999","2010-01-20T09:00:00","4","37.7833333","-3.8166666","580.0","JAEN, SP","FM-12","99999","V020","240,1,N,0010,1","99999,9,9,N","015000,1,N,1","+0086,1","+0042,1","10275,1",,,,,,"05,99,1,05,1,00,1,99999,9,04,1,00,1",,"99999,9,09584,1","2,1,017,1,+999,9",,"SYN066AAXX  20094 08417 42965 52402 10086 20042 39584 40275 52017 85040;",
"08417099999","2010-01-20T12:00:00","4","37.7833333","-3.8166666","580.0","JAEN, SP","FM-12","99999","V020","310,1,N,0010,1","99999,9,9,N","015000,1,N,1","+0116,1","+0046,1","10267,1","06,0000,9,1",,,,,"06,99,1,06,1,00,1,99999,9,07,1,00,1",,"99999,9,09583,1","8,1,001,1,+999,9",,"SYN072AAXX  20124 08417 12965 63102 10116 20046 39583 40267 58001 60001 86070;","Q01  00002PRCP06"
"08417099999","2010-01-20T15:00:00","4","37.7833333","-3.8166666","580.0","JAEN, SP","FM-12","99999","V020","330,1,N,0010,1","99999,9,9,N","015000,1,N,1","+0124,1","+0058,1","10243,1",,,,,,"06,99,1,06,1,00,1,99999,9,07,1,00,1",,"99999,9,09563,1","7,1,020,1,+999,9",,"SYN066AAXX  20154 08417 42965 63302 10124 20058 39563 40243 57020 86070;",
"08417099999","2010-01-20T18:00:00","4","37.7833333","-3.8166666","580.0","JAEN, SP","FM-12","99999","V020","290,1,N,0010,1","99999,9,9,N","015000,1,N,1","+0114,1","+0057,1","10251,1","12,0000,9,1",,,,,"06,99,1,06,1,00,1,99999,9,07,1,00,1","999,M,+0130,1","99999,9,09568,1","3,1,005,1,+999,9",,"SYN082AAXX  20184 08417 12965 62902 10114 20057 39568 40251 53005 60002 86070 333 10130;","Q01  00002PRCP12"
"08417099999","2010-01-22T06:00:00","4","37.7833333","-3.8166666","580.0","JAEN, SP","FM-12","99999","V020","999,9,C,0000,1","99999,9,9,N","999999,9,N,1","+0054,1","+0011,1","10246,1","12,0000,9,1","24,0000,9,1",,,,,"999,N,+0042,1","99999,9,09549,1","6,1,010,1,+999,9",,"SYN088AAXX  22064 08417 13/// /0000 10054 20011 39549 40246 56010 60002 333 20042 55/// 70000;","Q01  00002PRCP24Q02  00002PRCP12"
"08417099999","2010-01-22T09:00:00","4","37.7833333","-3.8166666","580.0","JAEN, SP","FM-12","99999","V020","999,9,C,0000,1","22000,1,9,N","015000,1,N,1","+0054,1","+0031,1","10244,1",,,,,,"03,99,1,03,1,00,1,99999,9,08,1,00,1",,"99999,9,09547,1","8,1,002,1,+999,9",,"SYN066AAXX  22094 08417 42965 30000 10054 20031 39547 40244 58002 83080;",
"08417099999","2010-01-22T12:00:00","4","37.7833333","-3.8166666","580.0","JAEN, SP","FM-12","99999","V020","040,1,N,0005,1","22000,1,9,N","015000,1,N,1","+0104,1","+0043,1","10230,1","06,0000,9,1",,,,,"02,99,1,00,1,00,1,99999,9,00,1,01,1",,"99999,9,09546,1","8,1,001,1,+999,9",,"SYN072AAXX  22124 08417 12965 20401 10104 20043 39546 40230 58001 60001 80001;","Q01  00002PRCP06"
"08417099999","2010-01-22T15:00:00","4","37.7833333","-3.8166666","580.0","JAEN, SP","FM-12","99999","V020","999,9,C,0000,1","22000,1,9,N","015000,1,N,1","+0142,1","+0037,1","10185,1",,,,,,"03,99,1,00,1,00,1,99999,9,00,1,08,1",,"99999,9,09513,1","7,1,033,1,+999,9",,"SYN066AAXX  22154 08417 42965 30000 10142 20037 39513 40185 57033 80008;",
"08417099999","2010-01-25T06:00:00","4","37.7833333","-3.8166666","580.0","JAEN, SP","FM-12","99999","V020","999,9,C,0000,1","99999,9,9,N","999999,9,N,1","+0066,1","+0034,1","10232,1","12,0000,9,1","24,0000,9,1",,,,,"999,N,+0053,1","99999,9,09539,1","4,1,000,1,+999,9",,"SYN088AAXX  25064 08417 13/// /0000 10066 20034 39539 40232 54000 60002 333 20053 55/// 70000;","Q01  00002PRCP24Q02  00002PRCP12"
"08417099999","2010-01-25T09:00:00","4","37.7833333","-3.8166666","580.0","JAEN, SP","FM-12","99999","V020","010,1,N,0010,1","99999,9,9,N","015000,1,N,1","+0064,1","+0036,1","10236,1",,,,,,"05,99,1,05,1,00,1,99999,9,08,1,00,1",,"99999,9,09542,1","3,1,003,1,+999,9",,"SYN066AAXX  25094 08417 42965 50102 10064 20036 39542 40236 53003 85080;",
"08417099999","2010-01-25T12:00:00","4","37.7833333","-3.8166666","580.0","JAEN, SP","FM-12","99999","V020","350,1,N,0010,1","22000,1,9,N","015000,1,N,1","+0090,1","+0034,1","10216,1","06,0000,9,1",,,,,"03,99,1,03,1,00,1,99999,9,03,1,00,1",,"99999,9,09530,1","7,1,012,1,+999,9",,"SYN072AAXX  25124 08417 12965 33502 10090 20034 39530 40216 57012 60001 83030;","Q01  00002PRCP06"
"08417099999","2010-01-25T15:00:00","4","37.7833333","-3.8166666","580.0","JAEN, SP","FM-12","99999","V020","020,1,N,0010,1","03600,1,9,N","010000,1,N,1","+0094,1","+0032,1","10190,1",,,"2,1,03,1","2,1,03,1",,"07,99,1,03,1,06,1,00800,1,07,1,00,1",,"99999,9,09506,1","7,1,024,1,+999,9","60,1","SYN072AAXX  25154 08417 41560 70202 10094 20032 39506 40190 57024 76022 83670;",
"08417099999","2010-01-25T18:00:00","4","37.7833333","-3.8166666","580.0","JAEN, SP","FM-12","99999","V020","030,1,N,0005,1","03600,1,9,N","015000,1,N,1","+0090,1","+0034,1","10190,1","12,0000,2,1",,"6,1,06,1","2,1,06,1",,"05,99,1,02,1,05,1,00800,1,07,1,00,1","999,M,+0106,1","99999,9,09505,1","7,1,001,1,+999,9","02,1","SYN088AAXX  25184 08417 11565 50301 10090 20034 39505 40190 57001 69902 70262 82570 333 10106;",
"08417099999","2010-01-27T06:00:00","4","37.7833333","-3.8166666","580.0","JAEN, SP","FM-12","99999","V020","080,1,N,0015,1","99999,9,9,N","999999,9,N,1","+0034,1","-0008,1","10196,1","12,0000,9,1","24,0030,9,1",,,,,"999,N,+0012,1","99999,9,09497,1","4,1,000,1,+999,9",,"SYN088AAXX  27064 08417 13/// /0803 10034 21008 39497 40196 54000 60002 333 20012 55/// 70031;","Q01  00002PRCP12"
"08417099999","2010-01-27T09:00:00","4","37.7833333","-3.8166666","580.0","JAEN, SP","FM-12","99999","V020","090,1,N,0005,1","22000,1,9,N","015000,1,N,1","+0022,1","-0037,1","10201,1",,,,,,"03,99,1,03,1,00,1,99999,9,03,1,00,1",,"99999,9,09499,1","3,1,002,1,+999,9",,"SYN066AAXX  27094 08417 42965 30901 10022 21037 39499 40201 53002 83030;",
"08417099999","2010-01-27T12:00:00","4","37.7833333","-3.8166666","580.0","JAEN, SP","FM-12","99999","V020","070,1,N,0010,1","99999,9,9,N","015000,1,N,1","+0042,1","-0026,1","10190,1","06,0000,9,1",,,,,"06,99,1,06,1,00,1,99999,9,02,1,00,1",,"99999,9,09493,1","7,1,006,1,+999,9",,"SYN072AAXX  27124 08417 12965 60702 10042 21026 39493 40190 57006 60001 86020;","Q01  00002PRCP06"
"08417099999","2010-01-27T15:00:00","4","37.7833333","-3.8166666","580.0","JAEN, SP","FM-12","99999","V020","110,1,N,0046,1","03600,1,9,N","012000,1,N,1","+0068,1","-0011,1","10168,1",,,,,,"08,99,1,02,1,07,1,00800,1,07,1,00,1",,"99999,9,09479,1","7,1,014,1,+999,9",,"SYN066AAXX  27154 08417 42562 81109 10068 21011 39479 40168 57014 82770;",
"08417099999","2010-01-27T18:00:00","4","37.7833333","-3.8166666","580.0","JAEN, SP","FM-12","99999","V020","130,1,N,0010,1","03600,1,9,N","012000,1,N,1","+0050,1","-0014,1","10180,1","12,0000,9,1",,,,,"08,99,1,02,1,07,1,00800,1,07,1,00,1","999,M,+0070,1","99999,9,09486,1","2,1,007,1,+999,9",,"SYN082AAXX  27184 08417 12562 81302 10050 21014 39486 40180 52007 60002 82770 333 10070;","Q01  00002PRCP12"
"08417099999","2010-01-29T06:00:00","4","37.7833333","-3.8166666","580.0","JAEN, SP","FM-12","99999","V020","999,9,C,0000,1","99999,9,9,N","999999,9,N,1","+0028,1","-0051,1","10162,1","12,0000,9,1","24,0000,9,1",,,,,"999,N,+0028,1","99999,9,09464,1","7,1,012,1,+999,9",,"SYN088AAXX  29064 08417 13/// /0000 10028 21051 39464 40162 57012 60002 333 20028 55/// 70000;","Q01  00002PRCP24Q02  00002PRCP12"
"08417099999","2010-01-29T09:00:00","4","37.7833333","-3.8166666","580.0","JAEN, SP","FM-12","99999","V020","999,9,C,0000,1","22000,1,9,N","015000,1,N,1","+0036,1","-0046,1","10159,1",,,,,"00,1,+99999,9,99,9","00,99,1,00,1,00,1,99999,9,00,1,00,1",,"99999,9,09463,1","6,1,001,1,+999,9",,"SYN060AAXX  29094 08417 42965 00000 10036 21046 39463 40159 56001;",
"08417099999","2010-01-29T12:00:00","4","37.7833333","-3.8166666","580.0","JAEN, SP","FM-12","99999","V020","020,1,N,0005,1","22000,1,9,N","015000,1,N,1","+0072,1","-0015,1","10145,1","06,0000,9,1",,,,"00,1,+99999,9,99,9","00,99,1,00,1,00,1,99999,9,00,1,00,1",,"99999,9,09459,1","7,1,004,1,+999,9",,"SYN066AAXX  29124 08417 12965 00201 10072 21015 39459 40145 57004 60001;","Q01  00002PRCP06"
"08417099999","2010-02-01T06:00:00","4","37.7833333","-3.8166666","580.0","JAEN, SP","FM-12","99999","V020","999,9,C,0000,1","99999,9,9,N","999999,9,N,1","+0046,1","-0008,1","10190,1","12,0000,9,1","24,0000,9,1",,,,,"999,N,+0036,1","99999,9,09494,1","4,1,000,1,+999,9",,"SYN088AAXX  01064 08417 13/// /0000 10046 21008 39494 40190 54000 60002 333 20036 55/// 70000;","Q01  00002PRCP24Q02  00002PRCP12"
"08417099999","2010-02-01T09:00:00","4","37.7833333","-3.8166666","580.0","JAEN, SP","FM-12","99999","V020","020,1,N,0015,1","22000,1,9,N","015000,1,N,1","+0058,1","+0002,1","10222,1",,,,,"00,1,+99999,9,99,9","00,99,1,00,1,00,1,99999,9,00,1,00,1",,"99999,9,09527,1","2,1,033,1,+999,9",,"SYN060AAXX  01094 08417 42965 00203 10058 20002 39527 40222 52033;",
"08417099999","2010-02-01T12:00:00","4","37.7833333","-3.8166666","580.0","JAEN, SP","FM-12","99999","V020","050,1,N,0010,1","22000,1,9,N","015000,1,N,1","+0094,1","+0008,1","10218,1","06,0000,9,1",,,,"00,1,+99999,9,99,9","00,99,1,00,1,00,1,99999,9,00,1,00,1",,"99999,9,09532,1","2,1,005,1,+999,9",,"SYN066AAXX  01124 08417 12965 00502 10094 20008 39532 40218 52005 60001;","Q01  00002PRCP06"
"08417099999","2010-02-01T15:00:00","4","37.7833333","-3.8166666","580.0","JAEN, SP","FM-12","99999","V020","090,1,N,0005,1","22000,1,9,N","015000,1,N,1","+0112,1","-0015,1","10215,1",,,,,"00,1,+99999,9,99,9","00,99,1,00,1,00,1,99999,9,00,1,00,1",,"99999,9,09533,1","3,1,001,1,+999,9",,"SYN060AAXX  01154 08417 42965 00901 10112 21015 39533 40215 53001;",
"08417099999","2010-02-01T18:00:00","4","37.7833333","-3.8166666","580.0","JAEN, SP","FM-12","99999","V020","310,1,N,0005,1","22000,1,9,N","015000,1,N,1","+0080,1","-0010,1","10228,1","12,0000,9,1",,,,"00,1,+99999,9,99,9","00,99,1,00,1,00,1,99999,9,00,1,00,1","999,M,+0124,1","99999,9,09538,1","2,1,005,1,+999,9",,"SYN076AAXX  01184 08417 12965 03101 10080 21010 39538 40228 52005 60002 333 10124;","Q01  00002PRCP12"
"08417099999","2010-02-03T09:00:00","4","37.7833333","-3.8166666","580.0","JAEN, SP","FM-12","99999","V020","999,9,C,0000,1","99999,9,9,N","015000,1,N,1","+0054,1","-0002,1","10216,1",,,,,,"05,99,1,05,1,00,1,99999,9,08,1,00,1",,"99999,9,09521,1","6,1,001,1,+999,9",,"SYN066AAXX  03094 08417 42965 50000 10054 21002 39521 40216 56001 85080;",
"08417099999","2010-02-03T12:00:00","4","37.7833333","-3.8166666","580.0","JAEN, SP","FM-12","99999","V020","350,1,N,0005,1","99999,9,9,N","015000,1,N,1","+0080,1","+0025,1","10200,1","06,0000,9,1",,,,,"07,99,1,07,1,00,1,99999,9,07,1,00,1",,"99999,9,09512,1","7,1,009,1,+999,9",,"SYN072AAXX  03124 08417 12965 73501 10080 20025 39512 40200 57009 60001 87070;","Q01  00002PRCP06"
"08417099999","2010-02-03T15:00:00","4","37.7833333","-3.8166666","580.0","JAEN, SP","FM-12","99999","V020","999,9,C,0000,1","99999,9,9,N","015000,1,N,1","+0120,1","+0016,1","10166,1",,,,,,"07,99,1,07,1,00,1,99999,9,02,1,00,1",,"99999,9,09490,1","7,1,022,1,+999,9",,"SYN066AAXX  03154 08417 42965 70000 10120 20016 39490 40166 57022 87020;",
"08417099999","2010-02-03T18:00:00","4","37.7833333","-3.8166666","580.0","JAEN, SP","FM-12","99999","V020","170,1,N,0010,1","03600,1,9,N","015000,1,N,1","+0120,1","+0040,1","10153,1","12,0000,9,1",,,,,"07,99,1,03,1,05,1,00800,1,07,1,00,1","999,M,+0132,1","99999,9,09478,1","7,1,012,1,+999,9",,"SYN082AAXX  03184 08417 12565 71702 10120 20040 39478 40153 57012 60002 83570 333 10132;","Q01  00002PRCP12"
"08417099999","2010-02-05T06:00:00","4","37.7833333","-3.8166666","580.0","JAEN, SP","FM-12","99999","V020","260,1,N,0041,1","99999,9,9,N","999999,9,N,1","+0114,1","+0061,1","10207,1","12,0030,9,1","24,0094,9,1",,,,,"999,N,+0104,1","99999,9,09527,1","2,1,005,1,+999,9",,"SYN088AAXX  05064 08417 12/// /2608 10114 20061 39527 40207 52005 60032 333 20104 55/// 70094;",
"08417099999","2010-02-05T09:00:00","4","37.7833333","-3.8166666","580.0","JAEN, SP","FM-12","99999","V020","270,1,N,0041,1","03600,1,9,N","005000,1,N,1","+0104,1","+0075,1","10234,1",,,"5,1,03,1","5,1,03,1",,"08,99,1,04,1,07,1,00450,1,07,1,00,1",,"99999,9,09550,1","2,1,023,1,+999,9","10,1","SYN072AAXX  05094 08417 41450 82708 10104 20075 39550 40234 52023 71055 84770;",
"08417099999","2010-02-05T12:00:00","4","37.7833333","-3.8166666","580.0","JAEN, SP","FM-12","99999","V020","270,1,N,0026,1","01200,1,9,N","012000,1,N,1","+0126,1","+0055,1","10244,1","06,0010,9,1",,"5,1,06,1","2,1,06,1",,"06,99,1,06,1,08,1,00800,1,00,1,00,1",,"99999,9,09564,1","2,1,014,1,+999,9","01,1","SYN078AAXX  05124 08417 11562 62705 10126 20055 39564 40244 52014 60011 70152 86800;",
"08417099999","2010-02-05T15:00:00","4","37.7833333","-3.8166666","580.0","JAEN, SP","FM-12","99999","V020","290,1,N,0026,1","01200,1,9,N","015000,1,N,1","+0130,1","+0042,1","10239,1",,,,,,"06,99,1,06,1,08,1,00800,1,00,1,00,1",,"99999,9,09560,1","7,1,004,1,+999,9",,"SYN066AAXX  05154 08417 42565 62905 10130 20042 39560 40239 57004 86800;",
"08417099999","2010-02-08T06:00:00","4","37.7833333","-3.8166666","580.0","JAEN, SP","FM-12","99999","V020","999,9,C,0000,1","99999,9,9,N","999999,9,N,1","+0090,1","+0061,1","10110,1","12,0000,9,1","24,0000,9,1",,,,,"999,N,+0085,1","99999,9,09431,1","7,1,020,1,+999,9",,"SYN088AAXX  08064 08417 13/// /0000 10090 20061 39431 40110 57020 60002 333 20085 55/// 70000;","Q01  00002PRCP24Q02  00002PRCP12"
"08417099999","2010-02-08T09:00:00","4","37.7833333","-3.8166666","580.0","JAEN, SP","FM-12","99999","V020","999,9,C,0000,1","03600,1,9,N","010000,1,N,1","+0098,1","+0074,1","10085,1",,,"5,1,03,1","5,1,03,1",,"08,99,1,02,1,07,1,00800,1,07,1,00,1",,"99999,9,09410,1","7,1,021,1,+999,9","02,1","SYN072AAXX  08094 08417 41560 80000 10098 20074 39410 40085 57021 70255 82770;",
"08417099999","2010-02-08T12:00:00","4","37.7833333","-3.8166666","580.0","JAEN, SP","FM-12","99999","V020","270,1,N,0057,1","03600,1,9,N","010000,1,N,1","+0120,1","+0085,1","10062,1","06,0003,9,1",,"6,1,06,1","2,1,06,1",,"08,99,1,03,1,07,1,00800,1,07,1,00,1",,"99999,9,09394,1","6,1,016,1,+999,9","02,1","SYN078AAXX  08124 08417 11560 82711 10120 20085 39394 40062 56016 69931 70262 83770;",
"08417099999","2010-02-08T15:00:00","4","37.7833333","-3.8166666","580.0","JAEN, SP","FM-12","99999","V020","290,1,N,0026,1","00750,1,9,N","012000,1,N,1","+0122,1","+0071,1","10046,1",,,,,,"07,99,1,05,1,02,1,00800,1,07,1,00,1",,"99999,9,09379,1","7,1,015,1,+999,9",,"SYN066AAXX  08154 08417 42562 72905 10122 20071 39379 40046 57015 85270;",
"08417099999","2010-02-08T18:00:00","4","37.7833333","-3.8166666","580.0","JAEN, SP","FM-12","99999","V020","300,1,N,0036,1","03600,1,9,N","010000,1,N,1","+0082,1","+0065,1","10044,1","12,0061,9,1",,"8,1,06,1","8,1,06,1",,"05,99,1,03,1,02,1,00800,1,07,1,00,1","999,M,+0128,1","99999,9,09368,1","7,1,011,1,+999,9","25,1","SYN088AAXX  08184 08417 11560 53007 10082 20065 39368 40044 57011 60062 72588 83270 333 10128;",
"08417099999","2010-02-10T06:00:00","4","37.7833333","-3.8166666","580.0","JAEN, SP","FM-12","99999","V020","270,1,N,0026,1","99999,9,9,N","999999,9,N,1","+0074,1","+0033,1","10116,1","12,0000,9,1","24,0000,9,1",,,,,"999,N,+0068,1","99999,9,09433,1","4,1,000,1,+999,9",,"SYN088AAXX  10064 08417 13/// /2705 10074 20033 39433 40116 54000 60002 333 20068 55/// 70000;","Q01  00002PRCP24Q02  00002PRCP12"
"08417099999","2010-02-10T09:00:00","4","37.7833333","-3.8166666","580.0","JAEN, SP","FM-12","99999","V020","300,1,N,0005,1","00420,1,9,N","006000,1,N,1","+0080,1","+0025,1","10120,1",,,"1,1,03,1","1,1,03,1",,"08,99,1,99,9,07,1,00450,1,07,1,00,1",,"99999,9,09438,1","1,1,005,1,+999,9","05,1","SYN072AAXX  10094 08417 41456 83001 10080 20025 39438 40120 51005 70511 88770;","Q01+000082SCOTLC"
"08417099999","2010-02-10T12:00:00","4","37.7833333","-3.8166666","580.0","JAEN, SP","FM-12","99999","V020","300,1,N,0021,1","99999,9,9,N","012000,1,N,1","+0084,1","+0040,1","10126,1","06,0000,9,1",,,,,"08,99,1,08,1,00,1,99999,9,02,1,00,1",,"99999,9,09444,1","1,1,006,1,+999,9",,"SYN072AAXX  10124 08417 12962 83004 10084 20040 39444 40126 51006 60001 88020;","Q01  00002PRCP06"
"08417099999","2010-02-10T15:00:00","4","37.7833333","-3.8166666","580.0","JAEN, SP","FM-12","99999","V020","040,1,N,0005,1","03600,1,9,N","008000,1,N,1","+0080,1","+0042,1","10100,1",,,"5,1,03,1","2,1,03,1",,"08,99,1,03,1,07,1,00800,1,07,1,00,1",,"99999,9,09419,1","7,1,025,1,+999,9","52,1","SYN072AAXX  10154 08417 41558 80401 10080 20042 39419 40100 57025 75252 83770;",
"08417099999","2010-02-10T18:00:00","4","37.7833333","-3.8166666","580.0","JAEN, SP","FM-12","99999","V020","999,9,C,0000,1","03600,1,9,N","005000,1,N,1","+0068,1","+0036,1","10092,1","12,0020,9,1",,"5,1,06,1","2,1,06,1",,"08,99,1,03,1,07,1,00450,1,07,1,00,1","999,M,+0092,1","99999,9,09409,1","7,1,010,1,+999,9","61,1","SYN088AAXX  10184 08417 11450 80000 10068 20036 39409 40092 57010 60022 76152 83770 333 10092;",
"08417099999","2010-02-12T06:00:00","4","37.7833333","-3.8166666","580.0","JAEN, SP","FM-12","99999","V020","999,9,C,0000,1","99999,9,9,N","999999,9,N,1","+0004,1","-0085,1","10168,1","12,0000,9,1","24,0000,9,1",,,,,"999,N,+0000,1","99999,9,09463,1","7,1,003,1,+999,9",,"SYN088AAXX  12064 08417 13/// /0000 10004 21085 39463 40168 57003 60002 333 20000 55/// 70000;","Q01  00002PRCP24Q02  00002PRCP12"
"08417099999","2010-02-12T09:00:00","4","37.7833333","-3.8166666","580.0","JAEN, SP","FM-12","99999","V020","110,1,N,0010,1","22000,1,9,N","015000,1,N,1","+0026,1","-0076,1","10164,1",,,,,"00,1,+99999,9,99,9","00,99,1,00,1,00,1,99999,9,00,1,00,1",,"99999,9,09465,1","2,1,002,1,+999,9",,"SYN060AAXX  12094 08417 42965 01102 10026 21076 39465 40164 52002;",
"08417099999","2010-02-12T12:00:00","4","37.7833333","-3.8166666","580.0","JAEN, SP","FM-12","99999","V020","040,1,N,0010,1","99999,9,9,N","015000,1,N,1","+0036,1","-0087,1","10153,1","06,0000,9,1",,,,,"07,99,1,07,1,00,1,99999,9,02,1,00,1",,"99999,9,09457,1","7,1,008,1,+999,9",,"SYN072AAXX  12124 08417 12965 70402 10036 21087 39457 40153 57008 60001 87020;","Q01  00002PRCP06"
"08417099999","2010-02-12T15:00:00","4","37.7833333","-3.8166666","580.0","JAEN, SP","FM-12","99999","V020","999,9,C,0000,1","03600,1,9,N","015000,1,N,1","+0042,1","-0082,1","10136,1",,,,,,"08,99,1,02,1,07,1,00800,1,07,1,00,1",,"99999,9,09443,1","6,1,014,1,+999,9",,"SYN066AAXX  12154 08417 42565 80000 10042 21082 39443 40136 56014 82770;",
"08417099999","2010-02-12T18:00:00","4","37.7833333","-3.8166666","580.0","JAEN, SP","FM-12","99999","V020","150,1,N,0041,1","03600,1,9,N","010000,1,N,1","+0016,1","-0003,1","10118,1","12,0020,9,1",,"7,1,06,1","2,1,06,1",,"08,99,1,02,1,07,1,00800,1,07,1,00,1","999,M,+0046,1","99999,9,09420,1","8,1,023,1,+999,9","22,1","SYN088AAXX  12184 08417 11560 81508 10016 21003 39420 40118 58023 60022 72272 82770 333 10046;",
"08417099999","2010-02-15T06:00:00","4","37.7833333","-3.8166666","580.0","JAEN, SP","FM-12","99999","V020","120,1,N,0051,1","99999,9,9,N","999999,9,N,1","+0066,1","+0009,1","10026,1","12,0041,9,2","24,0038,9,2",,,,,"999,N,+0047,1","99999,9,09347,1","7,1,010,1,+999,9",,"SYN088AAXX  15064 08417 13/// /1210 10066 20009 39347 40026 57010 60042 333 20047 55/// 70037;",
"08417099999","2010-02-15T09:00:00","4","37.7833333","-3.8166666","580.0","JAEN, SP","FM-12","99999","V020","120,1,N,0031,1","03600,1,9,N","010000,1,N,1","+0072,1","+0017,1","09966,1",,,,,,"08,99,1,03,1,08,1,00800,1,07,1,00,1",,"99999,9,09292,1","7,1,055,1,+999,9",,"SYN066AAXX  15094 08417 42560 81206 10072 20017 39292 49966 57055 83870;",
"08417099999","2010-02-15T12:00:00","4","37.7833333","-3.8166666","580.0","JAEN, SP","FM-12","99999","V020","130,1,N,0021,1","03600,1,9,N","010000,1,N,1","+0089,1","+0033,1","09965,1","06,0005,9,1",,"6,1,06,1","2,1,06,1",,"08,99,1,02,1,07,1,00800,1,07,1,00,1",,"99999,9,09295,1","3,1,003,1,+999,9","02,1","SYN078AAXX  15124 08417 11560 81304 10089 20033 39295 49965 53003 69941 70262 82770;",
"08417099999","2010-02-15T15:00:00","4","37.7833333","-3.8166666","580.0","JAEN, SP","FM-12","99999","V020","170,1,N,0026,1","03600,1,9,N","006000,1,N,1","+0070,1","+0048,1","09964,1",,,"6,1,03,1","2,1,03,1",,"08,99,1,03,1,07,1,00800,1,07,1,00,1",,"99999,9,09290,1","6,1,005,1,+999,9","61,1","SYN072AAXX  15154 08417 41556 81705 10070 20048 39290 49964 56005 76162 83770;",
"08417099999","2010-02-15T18:00:00","4","37.7833333","-3.8166666","580.0","JAEN, SP","FM-12","99999","V020","999,9,C,0000,1","03600,1,9,N","010000,1,N,1","+0072,1","+0042,1","09958,1","12,0071,9,1",,"6,1,06,1","2,1,06,1",,"07,99,1,03,1,05,1,00800,1,07,1,00,1","999,M,+0094,1","99999,9,09285,1","7,1,005,1,+999,9","02,1","SYN088AAXX  15184 08417 11560 70000 10072 20042 39285 49958 57005 60072 70262 83570 333 10094;",
"08417099999","2010-02-17T06:00:00","4","37.7833333","-3.8166666","580.0","JAEN, SP","FM-12","99999","V020","220,1,N,0046,1","99999,9,9,N","999999,9,N,1","+0096,1","+0025,1","09955,1","12,0140,9,1","24,0201,9,1",,,,,"999,N,+0080,1","99999,9,09287,1","4,1,000,1,+999,9",,"SYN088AAXX  17064 08417 13/// /2209 10096 20025 39287 49955 54000 60142 333 20080 55/// 70201;",
"08417099999","2010-02-17T09:00:00","4","37.7833333","-3.8166666","580.0","JAEN, SP","FM-12","99999","V020","270,1,N,0051,1","03600,1,9,N","006000,1,N,1","+0064,1","+0032,1","09991,1",,,"6,1,03,1","2,1,03,1",,"08,99,1,03,1,07,1,00800,1,07,1,00,1",,"99999,9,09314,1","3,1,027,1,+999,9","63,1","SYN072AAXX  17094 08417 41556 82710 10064 20032 39314 49991 53027 76362 83770;",
"08417099999","2010-02-17T12:00:00","4","37.7833333","-3.8166666","580.0","JAEN, SP","FM-12","99999","V020","240,1,N,0036,1","99999,9,9,N","010000,1,N,1","+0090,1","+0036,1","09993,1","06,0089,9,1",,"6,1,06,1","2,1,06,1",,"08,99,1,08,1,00,1,99999,9,07,1,00,1",,"99999,9,09322,1","2,1,008,1,+999,9","02,1","SYN078AAXX  17124 08417 11960 82407 10090 20036 39322 49993 52008 60091 70262 88070;",
"08417099999","2010-02-17T15:00:00","4","37.7833333","-3.8166666","580.0","JAEN, SP","FM-12","99999","V020","250,1,N,0051,1","00750,1,9,N","012000,1,N,1","+0100,1","+0044,1","09997,1",,,"8,1,03,1","2,1,03,1",,"07,99,1,05,1,02,1,00800,1,07,1,00,1",,"99999,9,09328,1","3,1,006,1,+999,9","02,1","SYN072AAXX  17154 08417 41562 72510 10100 20044 39328 49997 53006 70282 85270;",
"08417099999","2010-02-17T18:00:00","4","37.7833333","-3.8166666","580.0","JAEN, SP","FM-12","99999","V020","260,1,N,0072,1","01200,1,9,N","010000,1,N,1","+0084,1","+0044,1","10025,1","12,0030,9,1",,,,,"07,99,1,05,1,08,1,00800,1,07,1,00,1","999,M,+0102,1","99999,9,09350,1","2,1,022,1,+999,9",,"SYN082AAXX  17184 08417 12560 72614 10084 20044 39350 40025 52022 60032 85870 333 10102;",
"08417099999","2010-02-19T06:00:00","4","37.7833333","-3.8166666","580.0","JAEN, SP","FM-12","99999","V020","270,1,N,0021,1","99999,9,9,N","999999,9,N,1","+0086,1","+0067,1","09966,1","12,0119,9,1","24,0147,9,1",,,,,"999,N,+0070,1","99999,9,09296,1","2,1,015,1,+999,9",,"SYN088AAXX  19064 08417 13/// /2704 10086 20067 39296 49966 52015 60122 333 20070 55/// 70148;",
"08417099999","2010-02-19T09:00:00","4","37.7833333","-3.8166666","580.0","JAEN, SP","FM-12","99999","V020","280,1,N,0041,1","00420,1,9,N","005000,1,N,1","+0070,1","+0055,1","10015,1",,,"5,1,03,1","2,1,03,1",,"08,99,1,05,1,07,1,00450,1,07,1,00,1",,"99999,9,09338,1","2,1,042,1,+999,9","53,1","SYN072AAXX  19094 08417 41450 82808 10070 20055 39338 40015 52042 75352 85770;",
"08417099999","2010-02-19T12:00:00","4","37.7833333","-3.8166666","580.0","JAEN, SP","FM-12","99999","V020","270,1,N,0046,1","03600,1,9,N","010000,1,N,1","+0064,1","+0030,1","10060,1","06,0005,9,1",,"6,1,06,1","2,1,06,1",,"08,99,1,02,1,07,1,00800,1,07,1,00,1",,"99999,9,09378,1","2,1,040,1,+999,9","02,1","SYN078AAXX  19124 08417 11560 82709 10064 20030 39378 40060 52040 69961 70262 82770;",
"08417099999","2010-02-19T15:00:00","4","37.7833333","-3.8166666","580.0","JAEN, SP","FM-12","99999","V020","270,1,N,0041,1","00750,1,9,N","012000,1,N,1","+0104,1","-0010,1","10067,1",,,,,,"05,99,1,05,1,02,1,00800,1,00,1,00,1",,"99999,9,09393,1","2,1,015,1,+999,9",,"SYN066AAXX  19154 08417 42562 52708 10104 21010 39393 40067 52015 85200;",
"08417099999","2010-02-19T18:00:00","4","37.7833333","-3.8166666","580.0","JAEN, SP","FM-12","99999","V020","280,1,N,0041,1","22000,1,9,N","012000,1,N,1","+0088,1","-0031,1","10090,1","12,0010,9,1",,,,,"01,99,1,01,1,01,1,00800,1,00,1,00,1","999,M,+0104,1","99999,9,09411,1","2,1,018,1,+999,9",,"SYN082AAXX  19184 08417 12562 12808 10088 21031 39411 40090 52018 69992 81100 333 10104;",
"08417099999","2010-02-22T06:00:00","4","37.7833333","-3.8166666","580.0","JAEN, SP","FM-12","99999","V020","200,1,N,0041,1","99999,9,9,N","999999,9,N,1","+0114,1","+0063,1","10056,1","12,0079,9,1","24,0137,9,1",,,,,"999,N,+0106,1","99999,9,09386,1","7,1,020,1,+999,9",,"SYN088AAXX  22064 08417 13/// /2008 10114 20063 39386 40056 57020 60082 333 20106 55/// 70137;",
"08417099999","2010-02-22T09:00:00","4","37.7833333","-3.8166666","580.0","JAEN, SP","FM-12","99999","V020","200,1,N,0057,1","01200,1,9,N","010000,1,N,1","+0134,1","+0056,1","10039,1",,,,,,"08,99,1,05,1,08,1,00800,1,07,1,00,1",,"99999,9,09375,1","5,1,011,1,+999,9",,"SYN066AAXX  22094 08417 42560 82011 10134 20056 39375 40039 55011 85870;",
"08417099999","2010-02-22T15:00:00","4","37.7833333","-3.8166666","580.0","JAEN, SP","FM-12","99999","V020","270,1,N,0051,1","00750,1,9,N","012000,1,N,1","+0146,1","+0049,1","10059,1",,,,,,"06,99,1,05,1,02,1,00800,1,06,1,00,1",,"99999,9,09396,1","4,1,000,1,+999,9",,"SYN066AAXX  22154 08417 42562 62710 10146 20049 39396 40059 54000 85260;",
"08417099999","2010-02-22T18:00:00","4","37.7833333","-3.8166666","580.0","JAEN, SP","FM-12","99999","V020","250,1,N,0041,1","03600,1,9,N","012000,1,N,1","+0134,1","+0051,1","10070,1","12,0000,9,1",,,,,"06,99,1,03,1,08,1,00800,1,07,1,00,1","999,M,+0152,1","99999,9,09404,1","3,1,008,1,+999,9",,"SYN082AAXX  22184 08417 12562 62508 10134 20051 39404 40070 53008 69912 83870 333 10152;","Q01  00002PRCP12"
"08417099999","2010-02-24T06:00:00","4","37.7833333","-3.8166666","580.0","JAEN, SP","FM-12","99999","V020","260,1,N,0057,1","99999,9,9,N","999999,9,N,1","+0110,1","+0064,1","10181,1","12,0130,9,1","24,0175,9,1",,,,,"999,N,+0108,1","99999,9,09502,1","3,1,009,1,+999,9",,"SYN088AAXX  24064 08417 13/// /2611 10110 20064 39502 40181 53009 60132 333 20108 55/// 70175;",
"08417099999","2010-02-24T09:00:00","4","37.7833333","-3.8166666","580.0","JAEN, SP","FM-12","99999","V020","270,1,N,0051,1","22000,1,9,N","015000,1,N,1","+0120,1","+0052,1","10200,1",,,,,,"03,99,1,03,1,02,1,00800,1,00,1,00,1",,"99999,9,09522,1","2,1,020,1,+999,9",,"SYN066AAXX  24094 08417 42565 32710 10120 20052 39522 40200 52020 83200;",
"08417099999","2010-02-24T12:00:00","4","37.7833333","-3.8166666","580.0","JAEN, SP","FM-12","99999","V020","270,1,N,0036,1","22000,1,9,N","012000,1,N,1","+0140,1","+0059,1","10205,1","06,0000,9,1",,,,,"04,99,1,03,1,02,1,00800,1,06,1,00,1",,"99999,9,09531,1","0,1,009,1,+999,9",,"SYN072AAXX  24124 08417 12562 42707 10140 20059 39531 40205 50009 60001 83260;","Q01  00002PRCP06"
"08417099999","2010-02-24T15:00:00","4","37.7833333","-3.8166666","580.0","JAEN, SP","FM-12","99999","V020","280,1,N,0036,1","03600,1,9,N","015000,1,N,1","+0154,1","+0067,1","10188,1",,,,,,"05,99,1,04,1,02,1,00800,1,06,1,00,1",,"99999,9,09519,1","7,1,012,1,+999,9",,"SYN066AAXX  24154 08417 42565 52807 10154 20067 39519 40188 57012 84260;",
"08417099999","2010-02-24T18:00:00","4","37.7833333","-3.8166666","580.0","JAEN, SP","FM-12","99999","V020","270,1,N,0036,1","22000,1,9,N","015000,1,N,1","+0132,1","+0059,1","10193,1","12,0000,9,1",,,,,"03,99,1,03,1,00,1,99999,9,07,1,00,1","999,M,+0158,1","99999,9,09518,1","6,1,001,1,+999,9",,"SYN082AAXX  24184 08417 12965 32707 10132 20059 39518 40193 56001 60002 83070 333 10158;","Q01  00002PRCP12"
"08417099999","2010-02-26T06:00:00","4","37.7833333","-3.8166666","580.0","JAEN, SP","FM-12","99999","V020","270,1,N,0036,1","99999,9,9,N","999999,9,N,1","+0116,1","+0090,1","10147,1","12,0109,9,1","24,0135,9,1",,,,,"999,N,+0110,1","99999,9,09472,1","2,1,005,1,+999,9",,"SYN088AAXX  26064 08417 13/// /2707 10116 20090 39472 40147 52005 60112 333 20110 55/// 70134;",
"08417099999","2010-02-26T09:00:00","4","37.7833333","-3.8166666","580.0","JAEN, SP","FM-12","99999","V020","280,1,N,0021,1","03600,1,9,N","008000,1,N,1","+0116,1","+0090,1","10166,1",,,"6,1,03,1","2,1,03,1",,"08,99,1,02,1,07,1,00800,1,07,1,00,1",,"99999,9,09490,1","2,1,018,1,+999,9","60,1","SYN072AAXX  26094 08417 41558 82804 10116 20090 39490 40166 52018 76062 82770;",
"08417099999","2010-02-26T12:00:00","4","37.7833333","-3.8166666","580.0","JAEN, SP","FM-12","99999","V020","110,1,N,0010,1","03600,1,9,N","010000,1,N,1","+0126,1","+0107,1","10161,1","06,0005,9,1",,"6,1,06,1","2,1,06,1",,"08,99,1,01,1,07,1,00800,1,07,1,00,1",,"99999,9,09488,1","8,1,002,1,+999,9","02,1","SYN078AAXX  26124 08417 11560 81102 10126 20107 39488 40161 58002 69961 70262 81770;",
"08417099999","2010-02-26T15:00:00","4","37.7833333","-3.8166666","580.0","JAEN, SP","FM-12","99999","V020","100,1,N,0010,1","03600,1,9,N","008000,1,N,1","+0126,1","+0110,1","10150,1",,,"5,1,03,1","2,1,03,1",,"08,99,1,04,1,07,1,00450,1,07,1,00,1",,"99999,9,09478,1","7,1,010,1,+999,9","53,1","SYN072AAXX  26154 08417 41458 81002 10126 20110 39478 40150 57010 75352 84770;",
"08417099999","2010-02-26T18:00:00","4","37.7833333","-3.8166666","580.0","JAEN, SP","FM-12","99999","V020","999,9,C,0000,1","03600,1,9,N","002000,1,N,1","+0118,1","+0104,1","10148,1","12,0020,9,1",,"5,1,06,1","2,1,06,1",,"08,99,1,04,1,07,1,00450,1,07,1,00,1","999,M,+0129,1","99999,9,09474,1","7,1,004,1,+999,9","10,1","SYN088AAXX  26184 08417 11420 80000 10118 20104 39474 40148 57004 60022 71052 84770 333 10129;",
"08417099999","2010-03-03T06:00:00","4","37.7833333","-3.8166666","580.0","JAEN, SP","FM-12","99999","V020","280,1,N,0021,1","99999,9,9,N","999999,9,N,1","+0086,1","+0071,1","10105,1","12,0051,9,1","24,0066,9,1",,,,,"999,N,+0086,1","99999,9,09426,1","2,1,012,1,+999,9",,"SYN088AAXX  03064 08417 13/// /2804 10086 20071 39426 40105 52012 60052 333 20086 55/// 70067;",
"08417099999","2010-03-03T09:00:00","4","37.7833333","-3.8166666","580.0","JAEN, SP","FM-12","99999","V020","320,1,N,0031,1","03600,1,9,N","015000,1,N,1","+0104,1","+0039,1","10116,1",,,,,,"05,99,1,04,1,02,1,00800,1,06,1,00,1",,"99999,9,09440,1","2,1,014,1,+999,9",,"SYN066AAXX  03094 08417 42565 53206 10104 20039 39440 40116 52014 84260;",
"08417099999","2010-03-03T12:00:00","4","37.7833333","-3.8166666","580.0","JAEN, SP","FM-12","99999","V020","210,1,N,0015,1","03600,1,9,N","015000,1,N,1","+0130,1","+0031,1","10113,1","06,0000,9,1",,,,,"05,99,1,04,1,02,1,00800,1,06,1,00,1",,"99999,9,09443,1","0,1,003,1,+999,9",,"SYN072AAXX  03124 08417 12565 52103 10130 20031 39443 40113 50003 60001 84260;","Q01  00002PRCP06"
"08417099999","2010-03-03T15:00:00","4","37.7833333","-3.8166666","580.0","JAEN, SP","FM-12","99999","V020","200,1,N,0010,1","03600,1,9,N","015000,1,N,1","+0138,1","+0036,1","10097,1",,,,,,"06,99,1,04,1,02,1,00800,1,07,1,00,1",,"99999,9,09430,1","7,1,013,1,+999,9",,"SYN066AAXX  03154 08417 42565 62002 10138 20036 39430 40097 57013 84270;",
"08417099999","2010-03-03T18:00:00","4","37.7833333","-3.8166666","580.0","JAEN, SP","FM-12","99999","V020","240,1,N,0015,1","03600,1,9,N","010000,1,N,1","+0126,1","+0085,1","10108,1","12,0071,9,1",,"6,1,06,1","2,1,06,1",,"07,99,1,02,1,08,1,00800,1,07,1,00,1","999,M,+0150,1","99999,9,09438,1","1,1,008,1,+999,9","61,1","SYN088AAXX  03184 08417 11560 72403 10126 20085 39438 40108 51008 60072 76162 82870 333 10150;",
"08417099999","2010-03-08T06:00:00","4","37.7833333","-3.8166666","580.0","JAEN, SP","FM-12","99999","V020","270,1,N,0051,1","99999,9,9,N","999999,9,N,1","+0090,1","+0050,1","10107,1","12,0109,9,1","24,0170,9,1",,,,,"999,N,+0084,1","99999,9,09428,1","7,1,007,1,+999,9",,"SYN088AAXX  08064 08417 13/// /2710 10090 20050 39428 40107 57007 60112 333 20084 55/// 70170;",
"08417099999","2010-03-08T09:00:00","4","37.7833333","-3.8166666","580.0","JAEN, SP","FM-12","99999","V020","250,1,N,0062,1","03600,1,9,N","010000,1,N,1","+0098,1","+0058,1","10108,1",,,,,,"07,99,1,02,1,07,1,00800,1,07,1,00,1",,"99999,9,09431,1","3,1,003,1,+999,9",,"SYN066AAXX  08094 08417 42560 72512 10098 20058 39431 40108 53003 82770;",
"08417099999","2010-03-08T12:00:00","4","37.7833333","-3.8166666","580.0","JAEN, SP","FM-12","99999","V020","290,1,N,0031,1","03600,1,9,N","010000,1,N,1","+0092,1","+0061,1","10105,1","06,0005,9,1",,"6,1,06,1","2,1,06,1",,"08,99,1,02,1,07,1,00800,1,07,1,00,1",,"99999,9,09427,1","7,1,004,1,+999,9","02,1","SYN078AAXX  08124 08417 11560 82906 10092 20061 39427 40105 57004 69961 70262 82770;",
"08417099999","2010-03-08T15:00:00","4","37.7833333","-3.8166666","580.0","JAEN, SP","FM-12","99999","V020","350,1,N,0010,1","00420,1,9,N","008000,1,N,1","+0054,1","+0037,1","10102,1",,,"6,1,03,1","2,1,03,1",,"08,99,1,99,9,07,1,00450,1,07,1,00,1",,"99999,9,09415,1","7,1,012,1,+999,9","65,1","SYN072AAXX  08154 08417 41458 83502 10054 20037 39415 40102 57012 76562 88770;","Q01+000082SCOTLC"
"08417099999","2010-03-08T18:00:00","4","37.7833333","-3.8166666","580.0","JAEN, SP","FM-12","99999","V020","330,1,N,0005,1","03600,1,9,N","004000,1,N,1","+0044,1","+0037,1","10092,1","12,0109,9,1",,"6,1,06,1","4,1,06,1",,"08,99,1,04,1,07,1,00450,1,07,1,00,1","999,M,+0112,1","99999,9,09403,1","7,1,012,1,+999,9","63,1","SYN088AAXX  08184 08417 11440 83301 10044 20037 39403 40092 57012 60112 76364 84770 333 10112;",
"08417099999","2010-03-10T06:00:00","4","37.7833333","-3.8166666","580.0","JAEN, SP","FM-12","99999","V020","999,9,C,0000,1","99999,9,9,N","999999,9,N,1","+0010,1","-0029,1","10170,1","12,0000,9,1","24,0000,9,1",,,,,"999,N,+0010,1","99999,9,09467,1","4,1,000,1,+999,9",,"SYN088AAXX  10064 08417 13/// /0000 10010 21029 39467 40170 54000 60002 333 20010 55/// 70000;","Q01  00002PRCP24Q02  00002PRCP12"
"08417099999","2010-03-10T09:00:00","4","37.7833333","-3.8166666","580.0","JAEN, SP","FM-12","99999","V020","010,1,N,0010,1","22000,1,9,N","015000,1,N,1","+0038,1","-0012,1","10174,1",,,,,"00,1,+99999,9,99,9","00,99,1,00,1,00,1,99999,9,00,1,00,1",,"99999,9,09478,1","2,1,011,1,+999,9",,"SYN060AAXX  10094 08417 42965 00102 10038 21012 39478 40174 52011;",
"08417099999","2010-03-10T12:00:00","4","37.7833333","-3.8166666","580.0","JAEN, SP","FM-12","99999","V020","030,1,N,0005,1","22000,1,9,N","015000,1,N,1","+0072,1","-0039,1","10162,1","06,0000,9,1",,,,,"02,99,1,00,1,00,1,99999,9,00,1,01,1",,"99999,9,09474,1","8,1,004,1,+999,9",,"SYN072AAXX  10124 08417 12965 20301 10072 21039 39474 40162 58004 60001 80001;","Q01  00002PRCP06"
"08417099999","2010-03-10T15:00:00","4","37.7833333","-3.8166666","580.0","JAEN, SP","FM-12","99999","V020","360,1,N,0021,1","22000,1,9,N","015000,1,N,1","+0088,1","-0047,1","10142,1",,,,,,"04,99,1,00,1,00,1,99999,9,00,1,09,1",,"99999,9,09459,1","7,1,015,1,+999,9",,"SYN066AAXX  10154 08417 42965 43604 10088 21047 39459 40142 57015 80009;",
"08417099999","2010-03-10T18:00:00","4","37.7833333","-3.8166666","580.0","JAEN, SP","FM-12","99999","V020","230,1,N,0005,1","22000,1,9,N","015000,1,N,1","+0092,1","-0021,1","10149,1","12,0000,9,1",,,,,"04,99,1,02,1,00,1,99999,9,03,1,09,1","999,M,+0106,1","99999,9,09467,1","3,1,008,1,+999,9",,"SYN082AAXX  10184 08417 12965 42301 10092 21021 39467 40149 53008 60002 82039 333 10106;","Q01  00002PRCP12"
"08417099999","2010-03-11T06:00:00","4","37.7833333","-3.8166666","580.0","JAEN, SP","FM-12","99999","V020","999,9,C,0000,1","99999,9,9,N","999999,9,N,1","+0040,1","-0028,1","10166,1","12,0000,9,1","24,0000,9,1",,,,,"999,N,+0030,1","99999,9,09470,1","7,1,006,1,+999,9",,"SYN088AAXX  11064 08417 13/// /0000 10040 21028 39470 40166 57006 60002 333 20030 55/// 70000;","Q01  00002PRCP24Q02  00002PRCP12"
"08417099999","2010-03-11T09:00:00","4","37.7833333","-3.8166666","580.0","JAEN, SP","FM-12","99999","V020","340,1,N,0010,1","22000,1,9,N","015000,1,N,1","+0052,1","-0010,1","10167,1",,,,,"00,1,+99999,9,99,9","00,99,1,00,1,00,1,99999,9,00,1,00,1",,"99999,9,09474,1","2,1,004,1,+999,9",,"SYN060AAXX  11094 08417 42965 03402 10052 21010 39474 40167 52004;",
"08417099999","2010-03-11T12:00:00","4","37.7833333","-3.8166666","580.0","JAEN, SP","FM-12","99999","V020","360,1,N,0010,1","22000,1,9,N","015000,1,N,1","+0088,1","+0000,1","10154,1","06,0000,9,1",,,,,"04,99,1,00,1,00,1,99999,9,00,1,08,1",,"99999,9,09471,1","8,1,003,1,+999,9",,"SYN072AAXX  11124 08417 12965 43602 10088 20000 39471 40154 58003 60001 80008;","Q01  00002PRCP06"
"08417099999","2010-03-11T15:00:00","4","37.7833333","-3.8166666","580.0","JAEN, SP","FM-12","99999","V020","040,1,N,0010,1","09000,1,9,N","015000,1,N,1","+0108,1","+0005,1","10129,1",,,,,,"06,99,1,04,1,00,1,02250,1,02,1,08,1",,"99999,9,09452,1","7,1,019,1,+999,9",,"SYN066AAXX  11154 08417 42865 60402 10108 20005 39452 40129 57019 84028;",
"08417099999","2010-03-11T18:00:00","4","37.7833333","-3.8166666","580.0","JAEN, SP","FM-12","99999","V020","020,1,N,0005,1","99999,9,9,N","015000,1,N,1","+0102,1","-0012,1","10129,1","12,0000,9,1",,,,,"06,99,1,04,1,00,1,99999,9,03,1,08,1","999,M,+0116,1","99999,9,09451,1","6,1,001,1,+999,9",,"SYN082AAXX  11184 08417 12965 60201 10102 21012 39451 40129 56001 60002 84038 333 10116;","Q01  00002PRCP12"
"08417099999","2010-03-15T06:00:00","4","37.7833333","-3.8166666","580.0","JAEN, SP","FM-12","99999","V020","999,9,C,0000,1","99999,9,9,N","999999,9,N,1","+0038,1","-0026,1","10283,1","12,0000,9,1","24,0000,9,1",,,,,"999,N,+0026,1","99999,9,09579,1","6,1,003,1,+999,9",,"SYN088AAXX  15064 08417 13/// /0000 10038 21026 39579 40283 56003 60002 333 20026 55/// 70000;","Q01  00002PRCP24Q02  00002PRCP12"
"08417099999","2010-03-15T09:00:00","4","37.7833333","-3.8166666","580.0","JAEN, SP","FM-12","99999","V020","999,9,C,0000,1","22000,1,9,N","015000,1,N,1","+0060,1","-0003,1","10287,1",,,,,"00,1,+99999,9,99,9","00,99,1,00,1,00,1,99999,9,00,1,00,1",,"99999,9,09588,1","2,1,009,1,+999,9",,"SYN060AAXX  15094 08417 42965 00000 10060 21003 39588 40287 52009;",
"08417099999","2010-03-15T12:00:00","4","37.7833333","-3.8166666","580.0","JAEN, SP","FM-12","99999","V020","090,1,N,0010,1","22000,1,9,N","015000,1,N,1","+0120,1","-0005,1","10260,1","06,0000,9,1",,,,"00,1,+99999,9,99,9","00,99,1,00,1,00,1,99999,9,00,1,00,1",,"99999,9,09577,1","7,1,011,1,+999,9",,"SYN066AAXX  15124 08417 12965 00902 10120 21005 39577 40260 57011 60001;","Q01  00002PRCP06"
"08417099999","2010-03-15T15:00:00","4","37.7833333","-3.8166666","580.0","JAEN, SP","FM-12","99999","V020","340,1,N,0010,1","22000,1,9,N","015000,1,N,1","+0146,1","-0011,1","10229,1",,,,,"00,1,+99999,9,99,9","00,99,1,00,1,00,1,99999,9,00,1,00,1",,"99999,9,09554,1","7,1,023,1,+999,9",,"SYN060AAXX  15154 08417 42965 03402 10146 21011 39554 40229 57023;",
"08417099999","2010-03-15T18:00:00","4","37.7833333","-3.8166666","580.0","JAEN, SP","FM-12","99999","V020","999,9,C,0000,1","22000,1,9,N","015000,1,N,1","+0150,1","-0003,1","10227,1","12,0000,9,1",,,,"00,1,+99999,9,99,9","00,99,1,00,1,00,1,99999,9,00,1,00,1","999,M,+0166,1","99999,9,09553,1","7,1,001,1,+999,9",,"SYN076AAXX  15184 08417 12965 00000 10150 21003 39553 40227 57001 60002 333 10166;","Q01  00002PRCP12"
"08417099999","2010-03-17T06:00:00","4","37.7833333","-3.8166666","580.0","JAEN, SP","FM-12","99999","V020","170,1,N,0010,1","99999,9,9,N","999999,9,N,1","+0096,1","-0044,1","10275,1","12,0000,9,1","24,0000,9,1",,,,,"999,N,+0096,1","99999,9,09585,1","2,1,006,1,+999,9",,"SYN088AAXX  17064 08417 13/// /1702 10096 21044 39585 40275 52006 60002 333 20096 55/// 70000;","Q01  00002PRCP24Q02  00002PRCP12"
"08417099999","2010-03-17T09:00:00","4","37.7833333","-3.8166666","580.0","JAEN, SP","FM-12","99999","V020","120,1,N,0036,1","22000,1,9,N","015000,1,N,1","+0146,1","-0028,1","10264,1",,,,,"00,1,+99999,9,99,9","00,99,1,00,1,00,1,99999,9,00,1,00,1",,"99999,9,09587,1","2,1,002,1,+999,9",,"SYN060AAXX  17094 08417 42965 01207 10146 21028 39587 40264 52002;",
"08417099999","2010-03-17T12:00:00","4","37.7833333","-3.8166666","580.0","JAEN, SP","FM-12","99999","V020","350,1,N,0010,1","22000,1,9,N","015000,1,N,1","+0162,1","+0003,1","10251,1","06,0000,9,1",,,,"00,1,+99999,9,99,9","00,99,1,00,1,00,1,99999,9,00,1,00,1",,"99999,9,09578,1","8,1,009,1,+999,9",,"SYN066AAXX  17124 08417 12965 03502 10162 20003 39578 40251 58009 60001;","Q01  00002PRCP06"
"08417099999","2010-03-17T15:00:00","4","37.7833333","-3.8166666","580.0","JAEN, SP","FM-12","99999","V020","020,1,N,0005,1","22000,1,9,N","015000,1,N,1","+0194,1","+0014,1","10239,1",,,,,"00,1,+99999,9,99,9","00,99,1,00,1,00,1,99999,9,00,1,00,1",,"99999,9,09574,1","6,1,004,1,+999,9",,"SYN060AAXX  17154 08417 42965 00201 10194 20014 39574 40239 56004;",
"08417099999","2010-03-17T18:00:00","4","37.7833333","-3.8166666","580.0","JAEN, SP","FM-12","99999","V020","270,1,N,0010,1","22000,1,9,N","015000,1,N,1","+0186,1","+0020,1","10240,1","12,0000,9,1",,,,"00,1,+99999,9,99,9","00,99,1,00,1,00,1,99999,9,00,1,00,1","999,M,+0212,1","99999,9,09574,1","5,1,000,1,+999,9",,"SYN076AAXX  17184 08417 12965 02702 10186 20020 39574 40240 55000 60002 333 10212;","Q01  00002PRCP12"
"08417099999","2010-03-19T06:00:00","4","37.7833333","-3.8166666","580.0","JAEN, SP","FM-12","99999","V020","150,1,N,0005,1","99999,9,9,N","999999,9,N,1","+0126,1","+0101,1","10276,1","12,0000,9,1","24,0000,9,1",,,,,"999,N,+0120,1","99999,9,09595,1","4,1,000,1,+999,9",,"SYN088AAXX  19064 08417 13/// /1501 10126 20101 39595 40276 54000 60002 333 20120 55/// 70000;","Q01  00002PRCP24Q02  00002PRCP12"
"08417099999","2010-03-19T09:00:00","4","37.7833333","-3.8166666","580.0","JAEN, SP","FM-12","99999","V020","999,9,C,0000,1","99999,9,9,N","010000,1,N,1","+0142,1","+0104,1","10277,1",,,,,,"08,99,1,08,1,00,1,99999,9,07,1,00,1",,"99999,9,09600,1","1,1,005,1,+999,9",,"SYN066AAXX  19094 08417 42960 80000 10142 20104 39600 40277 51005 88070;",
"08417099999","2010-03-19T12:00:00","4","37.7833333","-3.8166666","580.0","JAEN, SP","FM-12","99999","V020","330,1,N,0015,1","99999,9,9,N","012000,1,N,1","+0192,1","+0102,1","10256,1","06,0000,9,1",,,,,"07,99,1,07,1,00,1,99999,9,02,1,00,1",,"99999,9,09591,1","7,1,009,1,+999,9",,"SYN072AAXX  19124 08417 12962 73303 10192 20102 39591 40256 57009 60001 87020;","Q01  00002PRCP06"
"08417099999","2010-03-19T18:00:00","4","37.7833333","-3.8166666","580.0","JAEN, SP","FM-12","99999","V020","290,1,N,0015,1","99999,9,9,N","012000,1,N,1","+0220,1","+0022,1","10248,1","12,0000,9,1",,,,,"07,99,1,07,1,00,1,99999,9,02,1,00,1","999,M,+0236,1","99999,9,09588,1","5,1,002,1,+999,9",,"SYN082AAXX  19184 08417 12962 72903 10220 20022 39588 40248 55002 60002 87020 333 10236;","Q01  00002PRCP12"
"08417099999","2010-03-22T09:00:00","4","37.7833333","-3.8166666","580.0","JAEN, SP","FM-12","99999","V020","350,1,N,0010,1","22000,1,9,N","015000,1,N,1","+0130,1","+0081,1","10242,1",,,,,"00,1,+99999,9,99,9","00,99,1,00,1,00,1,99999,9,00,1,00,1",,"99999,9,09564,1","2,1,012,1,+999,9",,"SYN060AAXX  22094 08417 42965 03502 10130 20081 39564 40242 52012;",
"08417099999","2010-03-22T12:00:00","4","37.7833333","-3.8166666","580.0","JAEN, SP","FM-12","99999","V020","350,1,N,0021,1","22000,1,9,N","015000,1,N,1","+0156,1","+0071,1","10240,1","06,0000,9,1",,,,,"02,99,1,01,1,02,1,00800,1,00,1,01,1",,"99999,9,09568,1","1,1,004,1,+999,9",,"SYN072AAXX  22124 08417 12565 23504 10156 20071 39568 40240 51004 60001 81201;","Q01  00002PRCP06"
"08417099999","2010-03-22T15:00:00","4","37.7833333","-3.8166666","580.0","JAEN, SP","FM-12","99999","V020","330,1,N,0021,1","22000,1,9,N","015000,1,N,1","+0184,1","+0046,1","10213,1",,,,,"00,1,+99999,9,99,9","00,99,1,00,1,00,1,99999,9,00,1,00,1",,"99999,9,09548,1","7,1,020,1,+999,9",,"SYN060AAXX  22154 08417 42965 03304 10184 20046 39548 40213 57020;",
"08417099999","2010-03-22T18:00:00","4","37.7833333","-3.8166666","580.0","JAEN, SP","FM-12","99999","V020","340,1,N,0005,1","22000,1,9,N","015000,1,N,1","+0176,1","+0055,1","10207,1","12,0000,9,1",,,,"00,1,+99999,9,99,9","00,99,1,00,1,00,1,99999,9,00,1,00,1","999,M,+0196,1","99999,9,09541,1","7,1,007,1,+999,9",,"SYN076AAXX  22184 08417 12965 03401 10176 20055 39541 40207 57007 60002 333 10196;","Q01  00002PRCP12"
"08417099999","2010-03-24T06:00:00","4","37.7833333","-3.8166666","580.0","JAEN, SP","FM-12","99999","V020","230,1,N,0010,1","99999,9,9,N","999999,9,N,1","+0110,1","+0060,1","10131,1","12,0000,9,1","24,0000,9,1",,,,,"999,N,+0106,1","99999,9,09455,1","4,1,000,1,+999,9",,"SYN088AAXX  24064 08417 13/// /2302 10110 20060 39455 40131 54000 60002 333 20106 55/// 70000;","Q01  00002PRCP24Q02  00002PRCP12"
"08417099999","2010-03-24T09:00:00","4","37.7833333","-3.8166666","580.0","JAEN, SP","FM-12","99999","V020","999,9,C,0000,1","22000,1,9,N","015000,1,N,1","+0136,1","+0072,1","10126,1",,,,,,"04,99,1,01,1,00,1,99999,9,03,1,06,1",,"99999,9,09457,1","3,1,002,1,+999,9",,"SYN066AAXX  24094 08417 42965 40000 10136 20072 39457 40126 53002 81036;",
"08417099999","2010-03-24T12:00:00","4","37.7833333","-3.8166666","580.0","JAEN, SP","FM-12","99999","V020","330,1,N,0021,1","99999,9,9,N","015000,1,N,1","+0164,1","+0086,1","10109,1","06,0000,9,1",,,,,"08,99,1,08,1,00,1,99999,9,02,1,00,1",,"99999,9,09447,1","6,1,010,1,+999,9",,"SYN072AAXX  24124 08417 12965 83304 10164 20086 39447 40109 56010 60001 88020;","Q01  00002PRCP06"
"08417099999","2010-03-24T15:00:00","4","37.7833333","-3.8166666","580.0","JAEN, SP","FM-12","99999","V020","280,1,N,0036,1","03600,1,9,N","015000,1,N,1","+0186,1","+0086,1","10085,1",,,,,,"05,99,1,03,1,02,1,00150,1,06,1,00,1",,"99999,9,09430,1","7,1,017,1,+999,9",,"SYN066AAXX  24154 08417 42265 52807 10186 20086 39430 40085 57017 83260;",
"08417099999","2010-03-24T18:00:00","4","37.7833333","-3.8166666","580.0","JAEN, SP","FM-12","99999","V020","280,1,N,0041,1","22000,1,9,N","015000,1,N,1","+0166,1","+0067,1","10091,1","12,0000,9,1",,,,,"02,99,1,02,1,00,1,99999,9,03,1,00,1","999,M,+0208,1","99999,9,09431,1","3,1,001,1,+999,9",,"SYN082AAXX  24184 08417 12965 22808 10166 20067 39431 40091 53001 60002 82030 333 10208;","Q01  00002PRCP12"
"08417099999","2010-03-26T09:00:00","4","37.7833333","-3.8166666","580.0","JAEN, SP","FM-12","99999","V020","110,1,N,0010,1","22000,1,9,N","015000,1,N,1","+0114,1","+0039,1","10244,1",,,,,,"03,99,1,02,1,02,1,00800,1,00,1,01,1",,"99999,9,09561,1","2,1,012,1,+999,9",,"SYN066AAXX  26094 08417 42565 31102 10114 20039 39561 40244 52012 82201;",
"08417099999","2010-03-26T12:00:00","4","37.7833333","-3.8166666","580.0","JAEN, SP","FM-12","99999","V020","240,1,N,0026,1","22000,1,9,N","015000,1,N,1","+0130,1","+0031,1","10244,1","06,0000,9,1",,,,,"05,99,1,03,1,08,1,00800,1,00,1,01,1",,"99999,9,09565,1","0,1,004,1,+999,9",,"SYN072AAXX  26124 08417 12565 52405 10130 20031 39565 40244 50004 60001 83801;","Q01  00002PRCP06"
"08417099999","2010-03-30T09:00:00","4","37.7833333","-3.8166666","580.0","JAEN, SP","FM-12","99999","V020","300,1,N,0026,1","22000,1,9,N","015000,1,N,1","+0090,1","+0023,1","10218,1",,,,,,"04,99,1,02,1,02,1,00800,1,03,1,00,1",,"99999,9,09531,1","2,1,006,1,+999,9",,"SYN066AAXX  30094 08417 42565 43005 10090 20023 39531 40218 52006 82230;",
"08417099999","2010-03-30T12:00:00","4","37.7833333","-3.8166666","580.0","JAEN, SP","FM-12","99999","V020","320,1,N,0036,1","22000,1,9,N","015000,1,N,1","+0112,1","+0028,1","10213,1","06,0000,9,1",,,,,"04,99,1,02,1,02,1,00800,1,03,1,00,1",,"99999,9,09532,1","0,1,001,1,+999,9",,"SYN072AAXX  30124 08417 12565 43207 10112 20028 39532 40213 50001 60001 82230;","Q01  00002PRCP06"
"08417099999","2010-03-30T15:00:00","4","37.7833333","-3.8166666","580.0","JAEN, SP","FM-12","99999","V020","300,1,N,0021,1","03600,1,9,N","015000,1,N,1","+0124,1","+0020,1","10201,1",,,,,,"05,99,1,04,1,02,1,00800,1,03,1,00,1",,"99999,9,09523,1","7,1,009,1,+999,9",,"SYN066AAXX  30154 08417 42565 53004 10124 20020 39523 40201 57009 84230;",
"08417099999","2010-03-30T18:00:00","4","37.7833333","-3.8166666","580.0","JAEN, SP","FM-12","99999","V020","280,1,N,0021,1","01200,1,9,N","015000,1,N,1","+0122,1","+0024,1","10204,1","12,0000,9,1",,,,,"06,99,1,05,1,08,1,00800,1,02,1,00,1","999,M,+0133,1","99999,9,09526,1","3,1,003,1,+999,9",,"SYN082AAXX  30184 08417 12565 62804 10122 20024 39526 40204 53003 60002 85820 333 10133;","Q01  00002PRCP12"
"08417099999","2010-03-31T06:00:00","4","37.7833333","-3.8166666","580.0","JAEN, SP","FM-12","99999","V020","999,9,C,0000,1","22000,1,9,N","015000,1,N,1","+0062,1","+0007,1","10221,1","12,0000,9,1","24,0000,9,1",,,"00,1,+99999,9,99,9","00,99,1,00,1,00,1,99999,9,00,1,00,1","999,N,+0057,1","99999,9,09527,1","7,1,002,1,+999,9","02,1","SYN094AAXX  31064 08417 11965 00000 10062 20007 39527 40221 57002 60002 702// 333 20057 55/// 70000;","Q01  00002PRCP24Q02  00002PRCP12"
"08417099999","2010-03-31T09:00:00","4","37.7833333","-3.8166666","580.0","JAEN, SP","FM-12","99999","V020","330,1,N,0010,1","22000,1,9,N","015000,1,N,1","+0092,1","+0006,1","10221,1",,,,,"00,1,+99999,9,99,9","00,99,1,00,1,00,1,99999,9,00,1,00,1",,"99999,9,09534,1","2,1,007,1,+999,9",,"SYN060AAXX  31094 08417 42965 03302 10092 20006 39534 40221 52007;",
"08417099999","2010-04-05T06:00:00","4","37.7833333","-3.8166666","580.0","JAEN, SP","FM-12","99999","V020","140,1,N,0077,1","22000,1,9,N","015000,1,N,1","+0120,1","-0019,1","10231,1","12,0000,9,1","24,0000,9,1",,,,"04,99,1,01,1,00,1,99999,9,03,1,08,1","999,N,+0118,1","99999,9,09550,1","6,1,004,1,+999,9","02,1","SYN100AAXX  05064 08417 11965 41415 10120 21019 39550 40231 56004 60002 702// 81038 333 20118 55/// 70000;","Q01  00002PRCP24Q02  00002PRCP12"
"08417099999","2010-04-05T09:00:00","4","37.7833333","-3.8166666","580.0","JAEN, SP","FM-12","99999","V020","130,1,N,0062,1","99999,9,9,N","015000,1,N,1","+0134,1","-0013,1","10225,1",,,,,,"07,99,1,07,1,00,1,99999,9,02,1,00,1",,"99999,9,09548,1","7,1,002,1,+999,9",,"SYN066AAXX  05094 08417 42965 71312 10134 21013 39548 40225 57002 87020;",
"08417099999","2010-04-05T12:00:00","4","37.7833333","-3.8166666","580.0","JAEN, SP","FM-12","99999","V020","180,1,N,0031,1","03600,1,9,N","015000,1,N,1","+0142,1","-0010,1","10219,1","06,0000,9,1",,,,,"07,99,1,02,1,08,1,00800,1,07,1,00,1",,"99999,9,09544,1","5,1,004,1,+999,9",,"SYN072AAXX  05124 08417 12565 71806 10142 21010 39544 40219 55004 60001 82870;","Q01  00002PRCP06"
"08417099999","2010-04-05T15:00:00","4","37.7833333","-3.8166666","580.0","JAEN, SP","FM-12","99999","V020","130,1,N,0051,1","03600,1,9,N","015000,1,N,1","+0156,1","-0002,1","10178,1",,,,,,"08,99,1,01,1,08,1,00800,1,07,1,00,1",,"99999,9,09509,1","7,1,035,1,+999,9",,"SYN066AAXX  05154 08417 42565 81310 10156 21002 39509 40178 57035 81870;",
"08417099999","2010-04-05T18:00:00","4","37.7833333","-3.8166666","580.0","JAEN, SP","FM-12","99999","V020","120,1,N,0041,1","99999,9,9,N","015000,1,N,1","+0148,1","+0006,1","10182,1","12,0000,9,1",,,,,"07,99,1,07,1,00,1,99999,9,01,1,00,1","999,M,+0162,1","99999,9,09511,1","3,1,002,1,+999,9",,"SYN082AAXX  05184 08417 12965 71208 10148 20006 39511 40182 53002 60002 87010 333 10162;","Q01  00002PRCP12"
"08417099999","2010-04-07T06:00:00","4","37.7833333","-3.8166666","580.0","JAEN, SP","FM-12","99999","V020","170,1,N,0010,1","22000,1,9,N","015000,1,N,1","+0116,1","+0039,1","10192,1","12,0000,9,1","24,0000,9,1",,,"00,1,+99999,9,99,9","00,99,1,00,1,00,1,99999,9,00,1,00,1","999,N,+0116,1","99999,9,09513,1","4,1,000,1,+999,9","02,1","SYN094AAXX  07064 08417 11965 01702 10116 20039 39513 40192 54000 60002 702// 333 20116 55/// 70000;","Q01  00002PRCP24Q02  00002PRCP12"
"08417099999","2010-04-07T09:00:00","4","37.7833333","-3.8166666","580.0","JAEN, SP","FM-12","99999","V020","330,1,N,0021,1","22000,1,9,N","015000,1,N,1","+0156,1","+0052,1","10191,1",,,,,"00,1,+99999,9,99,9","00,99,1,00,1,00,1,99999,9,00,1,00,1",,"99999,9,09522,1","2,1,009,1,+999,9",,"SYN060AAXX  07094 08417 42965 03304 10156 20052 39522 40191 52009;",
"08417099999","2010-04-07T12:00:00","4","37.7833333","-3.8166666","580.0","JAEN, SP","FM-12","99999","V020","320,1,N,0026,1","22000,1,9,N","015000,1,N,1","+0182,1","+0044,1","10180,1","06,0000,9,1",,,,"00,1,+99999,9,99,9","00,99,1,00,1,00,1,99999,9,00,1,00,1",,"99999,9,09517,1","8,1,005,1,+999,9",,"SYN066AAXX  07124 08417 12965 03205 10182 20044 39517 40180 58005 60001;","Q01  00002PRCP06"
"08417099999","2010-04-07T15:00:00","4","37.7833333","-3.8166666","580.0","JAEN, SP","FM-12","99999","V020","290,1,N,0010,1","22000,1,9,N","015000,1,N,1","+0196,1","+0045,1","10174,1",,,,,"00,1,+99999,9,99,9","00,99,1,00,1,00,1,99999,9,00,1,00,1",,"99999,9,09514,1","7,1,003,1,+999,9",,"SYN060AAXX  07154 08417 42965 02902 10196 20045 39514 40174 57003;",
"08417099999","2010-04-07T18:00:00","4","37.7833333","-3.8166666","580.0","JAEN, SP","FM-12","99999","V020","070,1,N,0010,1","22000,1,9,N","015000,1,N,1","+0196,1","+0049,1","10169,1","12,0000,9,1",,,,"00,1,+99999,9,99,9","00,99,1,00,1,00,1,99999,9,00,1,00,1","999,M,+0206,1","99999,9,09510,1","6,1,004,1,+999,9",,"SYN076AAXX  07184 08417 12965 00702 10196 20049 39510 40169 56004 60002 333 10206;","Q01  00002PRCP12"
"08417099999","2010-04-09T06:00:00","4","37.7833333","-3.8166666","580.0","JAEN, SP","FM-12","99999","V020","160,1,N,0051,1","22000,1,9,N","015000,1,N,1","+0114,1","+0032,1","10218,1","12,0000,9,1","24,0000,9,1",,,"00,1,+99999,9,99,9","00,99,1,00,1,00,1,99999,9,00,1,00,1","999,N,+0114,1","99999,9,09537,1","4,1,000,1,+999,9",,"SYN088AAXX  09064 08417 12965 01610 10114 20032 39537 40218 54000 60002 333 20114 55/// 70000;","Q01  00002PRCP24Q02  00002PRCP12"
"08417099999","2010-04-09T09:00:00","4","37.7833333","-3.8166666","580.0","JAEN, SP","FM-12","99999","V020","110,1,N,0026,1","22000,1,9,N","015000,1,N,1","+0158,1","+0042,1","10218,1",,,,,"00,1,+99999,9,99,9","00,99,1,00,1,00,1,99999,9,00,1,00,1",,"99999,9,09547,1","2,1,010,1,+999,9",,"SYN060AAXX  09094 08417 42965 01105 10158 20042 39547 40218 52010;",
"08417099999","2010-04-09T12:00:00","4","37.7833333","-3.8166666","580.0","JAEN, SP","FM-12","99999","V020","080,1,N,0015,1","22000,1,9,N","015000,1,N,1","+0192,1","+0049,1","10205,1","06,0000,9,1",,,,"00,1,+99999,9,99,9","00,99,1,00,1,00,1,99999,9,00,1,00,1",,"99999,9,09543,1","8,1,004,1,+999,9",,"SYN066AAXX  09124 08417 12965 00803 10192 20049 39543 40205 58004 60001;","Q01  00002PRCP06"
"08417099999","2010-04-09T15:00:00","4","37.7833333","-3.8166666","580.0","JAEN, SP","FM-12","99999","V020","340,1,N,0010,1","22000,1,9,N","015000,1,N,1","+0200,1","+0049,1","10185,1",,,,,"00,1,+99999,9,99,9","00,99,1,00,1,00,1,99999,9,00,1,00,1",,"99999,9,09526,1","7,1,017,1,+999,9",,"SYN060AAXX  09154 08417 42965 03402 10200 20049 39526 40185 57017;",
"08417099999","2010-04-09T18:00:00","4","37.7833333","-3.8166666","580.0","JAEN, SP","FM-12","99999","V020","130,1,N,0036,1","22000,1,9,N","015000,1,N,1","+0196,1","+0029,1","10181,1","12,0000,9,1",,,,"00,1,+99999,9,99,9","00,99,1,00,1,00,1,99999,9,00,1,00,1","999,M,+0222,1","99999,9,09521,1","6,1,005,1,+999,9",,"SYN076AAXX  09184 08417 12965 01307 10196 20029 39521 40181 56005 60002 333 10222;","Q01  00002PRCP12"
"08417099999","2010-04-12T06:00:00","4","37.7833333","-3.8166666","580.0","JAEN, SP","FM-12","99999","V020","999,9,C,0000,1","99999,9,9,N","015000,1,N,1","+0112,1","+0057,1","10091,1","12,0000,9,1","24,0000,9,1",,,,"05,99,1,05,1,00,1,99999,9,03,1,00,1","999,N,+0104,1","99999,9,09418,1","4,1,000,1,+999,9","02,1","SYN100AAXX  12064 08417 11965 50000 10112 20057 39418 40091 54000 60002 702// 85030 333 20104 55/// 70000;","Q01  00002PRCP24Q02  00002PRCP12"
"08417099999","2010-04-12T09:00:00","4","37.7833333","-3.8166666","580.0","JAEN, SP","FM-12","99999","V020","999,9,C,0000,1","99999,9,9,N","015000,1,N,1","+0140,1","+0080,1","10078,1",,,,,,"07,99,1,07,1,00,1,99999,9,07,1,00,1",,"99999,9,09413,1","5,1,005,1,+999,9",,"SYN066AAXX  12094 08417 42965 70000 10140 20080 39413 40078 55005 87070;",
"08417099999","2010-04-12T12:00:00","4","37.7833333","-3.8166666","580.0","JAEN, SP","FM-12","99999","V020","310,1,N,0026,1","99999,9,9,N","015000,1,N,1","+0146,1","+0085,1","10075,1","06,0000,9,1",,,,,"07,99,1,07,1,00,1,99999,9,07,1,00,1",,"99999,9,09412,1","8,1,001,1,+999,9",,"SYN072AAXX  12124 08417 12965 73105 10146 20085 39412 40075 58001 60001 87070;","Q01  00002PRCP06"
"08417099999","2010-04-12T15:00:00","4","37.7833333","-3.8166666","580.0","JAEN, SP","FM-12","99999","V020","999,9,C,0000,1","03600,1,9,N","015000,1,N,1","+0176,1","+0092,1","10049,1",,,,,,"05,99,1,04,1,02,1,00800,1,06,1,00,1",,"99999,9,09394,1","7,1,018,1,+999,9",,"SYN066AAXX  12154 08417 42565 50000 10176 20092 39394 40049 57018 84260;",
"08417099999","2010-04-12T18:00:00","4","37.7833333","-3.8166666","580.0","JAEN, SP","FM-12","99999","V020","270,1,N,0031,1","22000,1,9,N","015000,1,N,1","+0170,1","+0076,1","10051,1","12,0000,9,1",,,,,"02,99,1,01,1,01,1,00800,1,06,1,00,1","999,M,+0192,1","99999,9,09394,1","4,1,000,1,+999,9",,"SYN082AAXX  12184 08417 12565 22706 10170 20076 39394 40051 54000 60002 81160 333 10192;","Q01  00002PRCP12"
"08417099999","2010-04-14T06:00:00","4","37.7833333","-3.8166666","580.0","JAEN, SP","FM-12","99999","V020","160,1,N,0036,1","99999,9,9,N","015000,1,N,1","+0126,1","+0066,1","10093,1","12,0000,9,1","24,0000,9,1",,,,"07,99,1,07,1,00,1,99999,9,02,1,00,1","999,N,+0118,1","99999,9,09424,1","7,1,008,1,+999,9",,"SYN094AAXX  14064 08417 12965 71607 10126 20066 39424 40093 57008 60002 87020 333 20118 55/// 70000;","Q01  00002PRCP24Q02  00002PRCP12"
"08417099999","2010-04-14T09:00:00","4","37.7833333","-3.8166666","580.0","JAEN, SP","FM-12","99999","V020","330,1,N,0010,1","22000,1,9,N","015000,1,N,1","+0150,1","+0073,1","10081,1",,,,,,"04,99,1,04,1,00,1,99999,9,03,1,00,1",,"99999,9,09418,1","8,1,006,1,+999,9",,"SYN066AAXX  14094 08417 42965 43302 10150 20073 39418 40081 58006 84030;",
"08417099999","2010-04-14T12:00:00","4","37.7833333","-3.8166666","580.0","JAEN, SP","FM-12","99999","V020","120,1,N,0026,1","22000,1,9,N","015000,1,N,1","+0190,1","+0078,1","10077,1","06,0000,9,1",,,,,"04,99,1,01,1,01,1,00800,1,03,1,09,1",,"99999,9,09423,1","0,1,005,1,+999,9",,"SYN072AAXX  14124 08417 12565 41205 10190 20078 39423 40077 50005 60001 81139;","Q01  00002PRCP06"
"08417099999","2010-04-14T15:00:00","4","37.7833333","-3.8166666","580.0","JAEN, SP","FM-12","99999","V020","290,1,N,0010,1","01200,1,9,N","015000,1,N,1","+0190,1","+0071,1","10053,1",,,,,,"07,99,1,07,1,08,1,00800,1,00,1,00,1",,"99999,9,09400,1","7,1,023,1,+999,9",,"SYN066AAXX  14154 08417 42565 72902 10190 20071 39400 40053 57023 87800;",
"08417099999","2010-04-14T18:00:00","4","37.7833333","-3.8166666","580.0","JAEN, SP","FM-12","99999","V020","140,1,N,0010,1","03600,1,9,N","015000,1,N,1","+0194,1","+0072,1","10052,1","12,0000,9,1",,,,,"07,99,1,01,1,08,1,00450,1,04,1,00,1","999,M,+0204,1","99999,9,09400,1","4,1,000,1,+999,9",,"SYN082AAXX  14184 08417 12465 71402 10194 20072 39400 40052 54000 60002 81840 333 10204;","Q01  00002PRCP12"
"08417099999","2010-04-16T06:00:00","4","37.7833333","-3.8166666","580.0","JAEN, SP","FM-12","99999","V020","999,9,C,0000,1","03600,1,9,N","015000,1,N,1","+0134,1","+0072,1","10104,1","12,0000,9,1","24,0000,9,1",,,,"05,99,1,02,1,08,1,00800,1,07,1,00,1","999,N,+0130,1","99999,9,09436,1","7,1,007,1,+999,9",,"SYN094AAXX  16064 08417 12565 50000 10134 20072 39436 40104 57007 60002 82870 333 20130 55/// 70000;","Q01  00002PRCP24Q02  00002PRCP12"
"08417099999","2010-04-16T09:00:00","4","37.7833333","-3.8166666","580.0","JAEN, SP","FM-12","99999","V020","160,1,N,0026,1","03600,1,9,N","015000,1,N,1","+0178,1","+0075,1","10112,1",,,,,,"05,99,1,01,1,01,1,00800,1,03,1,00,1",,"99999,9,09453,1","2,1,017,1,+999,9",,"SYN066AAXX  16094 08417 42565 51605 10178 20075 39453 40112 52017 81130;",
"08417099999","2010-04-16T12:00:00","4","37.7833333","-3.8166666","580.0","JAEN, SP","FM-12","99999","V020","290,1,N,0031,1","99999,9,9,N","012000,1,N,1","+0102,1","+0080,1","10148,1","06,0030,9,1",,"6,1,06,1","2,1,06,1",,"08,99,1,08,1,00,1,99999,9,07,1,00,1",,"99999,9,09470,1","0,1,017,1,+999,9","21,1","SYN078AAXX  16124 08417 11962 82906 10102 20080 39470 40148 50017 60031 72162 88070;",
"08417099999","2010-04-16T15:00:00","4","37.7833333","-3.8166666","580.0","JAEN, SP","FM-12","99999","V020","110,1,N,0015,1","00150,1,9,N","010000,1,N,1","+0120,1","+0090,1","10132,1",,,"9,1,03,1","2,1,03,1","05,1,+00150,1,09,1","08,99,1,06,1,03,1,00800,1,07,1,00,1",,"99999,9,09459,1","6,1,011,1,+999,9","96,1","SYN082AAXX  16154 08417 41560 81103 10120 20090 39459 40132 56011 79692 86370 333 85905;",
"08417099999","2010-04-16T18:00:00","4","37.7833333","-3.8166666","580.0","JAEN, SP","FM-12","99999","V020","240,1,N,0021,1","00150,1,9,N","008000,1,N,1","+0104,1","+0080,1","10147,1","12,0170,9,1",,"9,1,06,1","8,1,06,1","05,1,+00150,1,09,1","08,99,1,05,1,03,1,00450,1,07,1,00,1","120,M,+0180,1","99999,9,09469,1","2,1,010,1,+999,9","96,1","SYN094AAXX  16184 08417 11458 82404 10104 20080 39469 40147 52010 60172 79698 85370 333 10180 85905;",
"08417099999","2010-04-19T06:00:00","4","37.7833333","-3.8166666","580.0","JAEN, SP","FM-12","99999","V020","250,1,N,0005,1","99999,9,9,N","015000,1,N,1","+0106,1","+0090,1","10205,1","12,0008,9,1","24,0051,9,1",,,,"07,99,1,07,1,00,1,99999,9,07,1,00,1","999,N,+0100,1","99999,9,09524,1","4,1,000,1,+999,9","02,1","SYN100AAXX  19064 08417 11965 72501 10106 20090 39524 40205 54000 69972 702// 87070 333 20100 55/// 70050;",
"08417099999","2010-04-19T09:00:00","4","37.7833333","-3.8166666","580.0","JAEN, SP","FM-12","99999","V020","999,9,C,0000,1","03600,1,9,N","015000,1,N,1","+0124,1","+0091,1","10208,1",,,,,,"07,99,1,02,1,08,1,00800,1,07,1,00,1",,"99999,9,09531,1","2,1,007,1,+999,9",,"SYN066AAXX  19094 08417 42565 70000 10124 20091 39531 40208 52007 82870;",
"08417099999","2010-04-19T12:00:00","4","37.7833333","-3.8166666","580.0","JAEN, SP","FM-12","99999","V020","240,1,N,0005,1","03600,1,9,N","015000,1,N,1","+0154,1","+0086,1","10204,1","06,0000,9,1",,,,,"06,99,1,04,1,02,1,00800,1,06,1,00,1",,"99999,9,09534,1","1,1,003,1,+999,9",,"SYN072AAXX  19124 08417 12565 62401 10154 20086 39534 40204 51003 60001 84260;","Q01  00002PRCP06"
"08417099999","2010-04-19T15:00:00","4","37.7833333","-3.8166666","580.0","JAEN, SP","FM-12","99999","V020","330,1,N,0010,1","03600,1,9,N","015000,1,N,1","+0166,1","+0064,1","10189,1",,,,,,"06,99,1,04,1,02,1,00800,1,06,1,00,1",,"99999,9,09522,1","7,1,012,1,+999,9",,"SYN066AAXX  19154 08417 42565 63302 10166 20064 39522 40189 57012 84260;",
"08417099999","2010-04-19T18:00:00","4","37.7833333","-3.8166666","580.0","JAEN, SP","FM-12","99999","V020","050,1,N,0005,1","22000,1,9,N","015000,1,N,1","+0184,1","+0069,1","10176,1","12,0000,9,1",,,,,"01,99,1,01,1,02,1,00800,1,00,1,00,1","999,M,+0190,1","99999,9,09514,1","7,1,008,1,+999,9",,"SYN082AAXX  19184 08417 12565 10501 10184 20069 39514 40176 57008 60002 81200 333 10190;","Q01  00002PRCP12"
"08417099999","2010-04-21T06:00:00","4","37.7833333","-3.8166666","580.0","JAEN, SP","FM-12","99999","V020","999,9,C,0000,1","99999,9,9,N","012000,1,N,1","+0150,1","+0068,1","10154,1","12,0000,9,1","24,0000,9,1",,,,"05,99,1,00,1,00,1,99999,9,00,1,08,1","999,N,+0146,1","99999,9,09486,1","7,1,007,1,+999,9","02,1","SYN100AAXX  21064 08417 11962 50000 10150 20068 39486 40154 57007 60002 702// 80008 333 20146 55/// 70000;","Q01  00002PRCP24Q02  00002PRCP12"
"08417099999","2010-04-21T09:00:00","4","37.7833333","-3.8166666","580.0","JAEN, SP","FM-12","99999","V020","120,1,N,0041,1","22000,1,9,N","012000,1,N,1","+0202,1","+0062,1","10136,1",,,,,,"02,99,1,00,1,00,1,99999,9,00,1,08,1",,"99999,9,09480,1","7,1,006,1,+999,9",,"SYN066AAXX  21094 08417 42962 21208 10202 20062 39480 40136 57006 80008;",
"08417099999","2010-04-21T12:00:00","4","37.7833333","-3.8166666","580.0","JAEN, SP","FM-12","99999","V020","020,1,N,0005,1","09000,1,9,N","015000,1,N,1","+0220,1","+0089,1","10126,1","06,0000,9,1",,,,,"06,99,1,02,1,02,1,00800,1,00,1,08,1",,"99999,9,09475,1","7,1,005,1,+999,9",,"SYN072AAXX  21124 08417 12565 60201 10220 20089 39475 40126 57005 60001 82208;","Q01  00002PRCP06"
"08417099999","2010-04-21T15:00:00","4","37.7833333","-3.8166666","580.0","JAEN, SP","FM-12","99999","V020","100,1,N,0005,1","01200,1,9,N","012000,1,N,1","+0212,1","+0088,1","10111,1",,,"2,1,03,1","2,1,03,1",,"07,99,1,05,1,08,1,00800,1,07,1,00,1",,"99999,9,09460,1","7,1,015,1,+999,9","21,1","SYN072AAXX  21154 08417 41562 71001 10212 20088 39460 40111 57015 72122 85870;",
"08417099999","2010-04-21T18:00:00","4","37.7833333","-3.8166666","580.0","JAEN, SP","FM-12","99999","V020","270,1,N,0021,1","03600,1,9,N","008000,1,N,1","+0203,1","+0089,1","10112,1","12,0010,9,1",,"2,1,06,1","2,1,06,1","03,1,+00150,1,09,1","08,99,1,02,1,03,1,00800,1,07,1,00,1","120,M,+0234,1","99999,9,09459,1","6,1,001,1,+999,9","81,1","SYN094AAXX  21184 08417 11558 82704 10203 20089 39459 40112 56001 69992 78122 82370 333 10234 83905;",
"08417099999","2010-04-23T06:00:00","4","37.7833333","-3.8166666","580.0","JAEN, SP","FM-12","99999","V020","280,1,N,0010,1","99999,9,9,N","015000,1,N,1","+0140,1","+0090,1","10139,1","12,0000,9,1","24,0000,9,1",,,,"05,99,1,05,1,00,1,99999,9,04,1,00,1","999,N,+0134,1","99999,9,09470,1","7,1,003,1,+999,9","02,1","SYN100AAXX  23064 08417 11965 52802 10140 20090 39470 40139 57003 60002 702// 85040 333 20134 55/// 70000;","Q01  00002PRCP24Q02  00002PRCP12"
"08417099999","2010-04-23T12:00:00","4","37.7833333","-3.8166666","580.0","JAEN, SP","FM-12","99999","V020","310,1,N,0026,1","03600,1,9,N","015000,1,N,1","+0174,1","+0093,1","10146,1","06,0000,9,1",,,,,"05,99,1,04,1,02,1,00800,1,06,1,00,1",,"99999,9,09484,1","1,1,004,1,+999,9",,"SYN072AAXX  23124 08417 12565 53105 10174 20093 39484 40146 51004 60001 84260;","Q01  00002PRCP06"
"08417099999","2010-04-23T15:00:00","4","37.7833333","-3.8166666","580.0","JAEN, SP","FM-12","99999","V020","310,1,N,0010,1","22000,1,9,N","015000,1,N,1","+0200,1","+0077,1","10135,1",,,,,,"02,99,1,02,1,02,1,00800,1,00,1,00,1",,"99999,9,09479,1","7,1,005,1,+999,9",,"SYN066AAXX  23154 08417 42565 23102 10200 20077 39479 40135 57005 82200;",
"08417099999","2010-04-23T18:00:00","4","37.7833333","-3.8166666","580.0","JAEN, SP","FM-12","99999","V020","330,1,N,0031,1","22000,1,9,N","015000,1,N,1","+0188,1","+0082,1","10137,1","12,0000,9,1",,,,,"03,99,1,03,1,02,1,00800,1,00,1,00,1","999,M,+0212,1","99999,9,09479,1","4,1,000,1,+999,9",,"SYN082AAXX  23184 08417 12565 33306 10188 20082 39479 40137 54000 60002 83200 333 10212;","Q01  00002PRCP12"
"08417099999","2010-04-26T06:00:00","4","37.7833333","-3.8166666","580.0","JAEN, SP","FM-12","99999","V020","140,1,N,0021,1","22000,1,9,N","015000,1,N,1","+0177,1","+0074,1","10241,1","12,0000,9,1","24,0000,9,1",,,"00,1,+99999,9,99,9","00,99,1,00,1,00,1,99999,9,00,1,00,1","999,N,+0168,1","99999,9,09573,1","2,1,002,1,+999,9","02,1","SYN094AAXX  26064 08417 11965 01404 10177 20074 39573 40241 52002 60002 702// 333 20168 55/// 70000;","Q01  00002PRCP24Q02  00002PRCP12"
"08417099999","2010-04-26T09:00:00","4","37.7833333","-3.8166666","580.0","JAEN, SP","FM-12","99999","V020","030,1,N,0010,1","22000,1,9,N","015000,1,N,1","+0190,1","+0092,1","10252,1",,,,,"00,1,+99999,9,99,9","00,99,1,00,1,00,1,99999,9,00,1,00,1",,"99999,9,09587,1","2,1,014,1,+999,9",,"SYN060AAXX  26094 08417 42965 00302 10190 20092 39587 40252 52014;",
"08417099999","2010-04-26T12:00:00","4","37.7833333","-3.8166666","580.0","JAEN, SP","FM-12","99999","V020","020,1,N,0005,1","22000,1,9,N","015000,1,N,1","+0244,1","+0156,1","10234,1","06,0000,9,1",,,,"00,1,+99999,9,99,9","00,99,1,00,1,00,1,99999,9,00,1,00,1",,"99999,9,09583,1","8,1,004,1,+999,9",,"SYN066AAXX  26124 08417 12965 00201 10244 20156 39583 40234 58004 60001;","Q01  00002PRCP06"
"08417099999","2010-04-26T15:00:00","4","37.7833333","-3.8166666","580.0","JAEN, SP","FM-12","99999","V020","010,1,N,0010,1","22000,1,9,N","015000,1,N,1","+0272,1","+0076,1","10211,1",,,,,,"03,99,1,00,1,00,1,99999,9,00,1,01,1",,"99999,9,09566,1","7,1,017,1,+999,9",,"SYN066AAXX  26154 08417 42965 30102 10272 20076 39566 40211 57017 80001;",
"08417099999","2010-04-26T18:00:00","4","37.7833333","-3.8166666","580.0","JAEN, SP","FM-12","99999","V020","120,1,N,0005,1","22000,1,9,N","015000,1,N,1","+0258,1","+0079,1","10206,1","12,0000,9,1",,,,,"03,99,1,00,1,00,1,99999,9,00,1,01,1","999,M,+0278,1","99999,9,09558,1","6,1,008,1,+999,9",,"SYN082AAXX  26184 08417 12965 31201 10258 20079 39558 40206 56008 60002 80001 333 10278;","Q01  00002PRCP12"
"08417099999","2010-04-28T06:00:00","4","37.7833333","-3.8166666","580.0","JAEN, SP","FM-12","99999","V020","160,1,N,0036,1","22000,1,9,N","015000,1,N,1","+0210,1","+0062,1","10201,1","12,0000,9,1","24,0000,9,1",,,,"02,99,1,00,1,00,1,99999,9,00,1,01,1","999,N,+0190,1","99999,9,09543,1","7,1,002,1,+999,9","02,1","SYN100AAXX  28064 08417 11965 21607 10210 20062 39543 40201 57002 60002 702// 80001 333 20190 55/// 70000;","Q01  00002PRCP24Q02  00002PRCP12"
"08417099999","2010-04-28T09:00:00","4","37.7833333","-3.8166666","580.0","JAEN, SP","FM-12","99999","V020","130,1,N,0026,1","22000,1,9,N","015000,1,N,1","+0252,1","+0078,1","10199,1",,,,,,"02,99,1,00,1,00,1,99999,9,00,1,01,1",,"99999,9,09550,1","3,1,007,1,+999,9",,"SYN066AAXX  28094 08417 42965 21305 10252 20078 39550 40199 53007 80001;",
"08417099999","2010-04-28T12:00:00","4","37.7833333","-3.8166666","580.0","JAEN, SP","FM-12","99999","V020","999,9,C,0000,1","22000,1,9,N","015000,1,N,1","+0266,1","+0081,1","10197,1","06,0000,9,1",,,,,"02,99,1,00,1,00,1,99999,9,00,1,01,1",,"99999,9,09551,1","1,1,001,1,+999,9",,"SYN072AAXX  28124 08417 12965 20000 10266 20081 39551 40197 51001 60001 80001;","Q01  00002PRCP06"
"08417099999","2010-04-28T15:00:00","4","37.7833333","-3.8166666","580.0","JAEN, SP","FM-12","99999","V020","300,1,N,0005,1","22000,1,9,N","015000,1,N,1","+0304,1","+0098,1","10167,1",,,,,,"02,99,1,01,1,00,1,99999,9,03,1,01,1",,"99999,9,09531,1","7,1,020,1,+999,9",,"SYN066AAXX  28154 08417 42965 23001 10304 20098 39531 40167 57020 81031;",
"08417099999","2010-04-28T18:00:00","4","37.7833333","-3.8166666","580.0","JAEN, SP","FM-12","99999","V020","250,1,N,0026,1","22000,1,9,N","015000,1,N,1","+0268,1","+0078,1","10173,1","12,0000,9,1",,,,,"02,99,1,00,1,00,1,99999,9,00,1,01,1","999,M,+0312,1","99999,9,09529,1","6,1,002,1,+999,9",,"SYN082AAXX  28184 08417 12965 22505 10268 20078 39529 40173 56002 60002 80001 333 10312;","Q01  00002PRCP12"
"08417099999","2010-04-30T06:00:00","4","37.7833333","-3.8166666","580.0","JAEN, SP","FM-12","99999","V020","999,9,C,0000,1","22000,1,9,N","015000,1,N,1","+0164,1","+0096,1","10154,1","12,0000,9,1","24,0000,9,1",,,,"04,99,1,00,1,00,1,99999,9,00,1,01,1","999,N,+0154,1","99999,9,09490,1","4,1,000,1,+999,9","02,1","SYN100AAXX  30064 08417 11965 40000 10164 20096 39490 40154 54000 60002 702// 80001 333 20154 55/// 70000;","Q01  00002PRCP24Q02  00002PRCP12"
"08417099999","2010-04-30T09:00:00","4","37.7833333","-3.8166666","580.0","JAEN, SP","FM-12","99999","V020","020,1,N,0005,1","99999,9,9,N","012000,1,N,1","+0196,1","+0106,1","10153,1",,,,,,"05,99,1,00,1,00,1,99999,9,00,1,08,1",,"99999,9,09496,1","2,1,006,1,+999,9",,"SYN066AAXX  30094 08417 42962 50201 10196 20106 39496 40153 52006 80008;",
"08417099999","2010-04-30T12:00:00","4","37.7833333","-3.8166666","580.0","JAEN, SP","FM-12","99999","V020","330,1,N,0021,1","99999,9,9,N","015000,1,N,1","+0232,1","+0128,1","10138,1","06,0000,9,1",,,,,"05,99,1,00,1,00,1,99999,9,00,1,08,1",,"99999,9,09490,1","8,1,006,1,+999,9",,"SYN072AAXX  30124 08417 12965 53304 10232 20128 39490 40138 58006 60001 80008;","Q01  00002PRCP06"
"08417099999","2010-04-30T15:00:00","4","37.7833333","-3.8166666","580.0","JAEN, SP","FM-12","99999","V020","310,1,N,0031,1","99999,9,9,N","012000,1,N,1","+0244,1","+0107,1","10116,1",,,,,,"06,99,1,00,1,00,1,99999,9,00,1,08,1",,"99999,9,09471,1","7,1,019,1,+999,9",,"SYN066AAXX  30154 08417 42962 63106 10244 20107 39471 40116 57019 80008;",
"08417099999","2010-04-30T18:00:00","4","37.7833333","-3.8166666","580.0","JAEN, SP","FM-12","99999","V020","300,1,N,0021,1","99999,9,9,N","012000,1,N,1","+0230,1","+0087,1","10113,1","12,0000,9,1",,,,,"05,99,1,00,1,00,1,99999,9,00,1,08,1","999,M,+0251,1","99999,9,09465,1","7,1,006,1,+999,9",,"SYN082AAXX  30184 08417 12962 53004 10230 20087 39465 40113 57006 60002 80008 333 10251;","Q01  00002PRCP12"
"08417099999","2010-05-03T06:00:00","4","37.7833333","-3.8166666","580.0","JAEN, SP","FM-12","99999","V020","280,1,N,0026,1","03600,1,9,N","012000,1,N,1","+0140,1","+0084,1","10101,1","12,0000,9,1","24,0000,9,1",,,,"05,99,1,04,1,08,1,00800,1,07,1,00,1","999,N,+0140,1","99999,9,09435,1","7,1,005,1,+999,9","02,1","SYN100AAXX  03064 08417 11562 52805 10140 20084 39435 40101 57005 60002 702// 84870 333 20140 55/// 70000;","Q01  00002PRCP24Q02  00002PRCP12"
"08417099999","2010-05-03T09:00:00","4","37.7833333","-3.8166666","580.0","JAEN, SP","FM-12","99999","V020","310,1,N,0026,1","03600,1,9,N","015000,1,N,1","+0144,1","+0063,1","10102,1",,,,,,"05,99,1,04,1,02,1,00800,1,07,1,00,1",,"99999,9,09436,1","1,1,001,1,+999,9",,"SYN066AAXX  03094 08417 42565 53105 10144 20063 39436 40102 51001 84270;",
"08417099999","2010-05-03T12:00:00","4","37.7833333","-3.8166666","580.0","JAEN, SP","FM-12","99999","V020","350,1,N,0026,1","03600,1,9,N","015000,1,N,1","+0156,1","+0043,1","10116,1","06,0000,9,1",,,,,"05,99,1,04,1,02,1,00800,1,07,1,00,1",,"99999,9,09451,1","2,1,015,1,+999,9",,"SYN072AAXX  03124 08417 12565 53505 10156 20043 39451 40116 52015 60001 84270;","Q01  00002PRCP06"
"08417099999","2010-05-03T15:00:00","4","37.7833333","-3.8166666","580.0","JAEN, SP","FM-12","99999","V020","350,1,N,0026,1","03600,1,9,N","015000,1,N,1","+0156,1","+0017,1","10111,1",,,,,,"05,99,1,04,1,02,1,00800,1,07,1,00,1",,"99999,9,09446,1","8,1,005,1,+999,9",,"SYN066AAXX  03154 08417 42565 53505 10156 20017 39446 40111 58005 84270;",
"08417099999","2010-05-03T18:00:00","4","37.7833333","-3.8166666","580.0","JAEN, SP","FM-12","99999","V020","340,1,N,0026,1","22000,1,9,N","015000,1,N,1","+0164,1","+0021,1","10112,1","12,0000,9,1",,,,,"04,99,1,03,1,02,1,00800,1,06,1,00,1","999,M,+0171,1","99999,9,09449,1","1,1,003,1,+999,9",,"SYN082AAXX  03184 08417 12565 43405 10164 20021 39449 40112 51003 60002 83260 333 10171;","Q01  00002PRCP12"
"08417099999","2010-05-05T06:00:00","4","37.7833333","-3.8166666","580.0","JAEN, SP","FM-12","99999","V020","060,1,N,0010,1","22000,1,9,N","015000,1,N,1","+0086,1","-0018,1","10167,1","12,0000,9,1","24,0000,9,1",,,"00,1,+99999,9,99,9","00,99,1,00,1,00,1,99999,9,00,1,00,1","999,N,+0055,1","99999,9,09482,1","4,1,000,1,+999,9",,"SYN088AAXX  05064 08417 12965 00602 10086 21018 39482 40167 54000 60002 333 20055 55/// 70000;","Q01  00002PRCP24Q02  00002PRCP12"
"08417099999","2010-05-05T12:00:00","4","37.7833333","-3.8166666","580.0","JAEN, SP","FM-12","99999","V020","350,1,N,0015,1","22000,1,9,N","015000,1,N,1","+0132,1","+0006,1","10144,1","06,0000,9,1",,,,,"01,99,1,01,1,01,1,00800,1,00,1,00,1",,"99999,9,09472,1","7,1,008,1,+999,9",,"SYN072AAXX  05124 08417 12565 13503 10132 20006 39472 40144 57008 60001 81100;","Q01  00002PRCP06"
"08417099999","2010-05-05T15:00:00","4","37.7833333","-3.8166666","580.0","JAEN, SP","FM-12","99999","V020","310,1,N,0021,1","22000,1,9,N","015000,1,N,1","+0160,1","+0017,1","10121,1",,,,,,"01,99,1,01,1,01,1,00800,1,00,1,00,1",,"99999,9,09457,1","7,1,015,1,+999,9",,"SYN066AAXX  05154 08417 42565 13104 10160 20017 39457 40121 57015 81100;",
"08417099999","2010-05-05T18:00:00","4","37.7833333","-3.8166666","580.0","JAEN, SP","FM-12","99999","V020","320,1,N,0026,1","22000,1,9,N","015000,1,N,1","+0158,1","+0015,1","10121,1","12,0000,9,1",,,,,"01,99,1,01,1,01,1,00800,1,00,1,00,1","999,M,+0170,1","99999,9,09456,1","6,1,001,1,+999,9",,"SYN082AAXX  05184 08417 12565 13205 10158 20015 39456 40121 56001 60002 81100 333 10170;","Q01  00002PRCP12"
"08417099999","2010-05-06T06:00:00","4","37.7833333","-3.8166666","580.0","JAEN, SP","FM-12","99999","V020","999,9,C,0000,1","22000,1,9,N","015000,1,N,1","+0100,1","+0001,1","10126,1","12,0000,9,1","24,0000,9,1",,,,"04,99,1,00,1,00,1,99999,9,00,1,08,1","999,N,+0086,1","99999,9,09448,1","6,1,005,1,+999,9","02,1","SYN100AAXX  06064 08417 11965 40000 10100 20001 39448 40126 56005 60002 702// 80008 333 20086 55/// 70000;","Q01  00002PRCP24Q02  00002PRCP12"
"08417099999","2010-05-06T09:00:00","4","37.7833333","-3.8166666","580.0","JAEN, SP","FM-12","99999","V020","010,1,N,0005,1","22000,1,9,N","015000,1,N,1","+0120,1","+0019,1","10126,1",,,,,,"04,99,1,00,1,00,1,99999,9,00,1,06,1",,"99999,9,09452,1","3,1,004,1,+999,9",,"SYN066AAXX  06094 08417 42965 40101 10120 20019 39452 40126 53004 80006;",
"08417099999","2010-05-06T12:00:00","4","37.7833333","-3.8166666","580.0","JAEN, SP","FM-12","99999","V020","060,1,N,0010,1","22000,1,9,N","015000,1,N,1","+0172,1","+0031,1","10104,1","06,0000,9,1",,,,"00,1,+99999,9,99,9","00,99,1,00,1,00,1,99999,9,00,1,00,1",,"99999,9,09444,1","7,1,008,1,+999,9",,"SYN066AAXX  06124 08417 12965 00602 10172 20031 39444 40104 57008 60001;","Q01  00002PRCP06"
"08417099999","2010-05-10T06:00:00","4","37.7833333","-3.8166666","580.0","JAEN, SP","FM-12","99999","V020","040,1,N,0005,1","03600,1,9,N","012000,1,N,1","+0120,1","+0090,1","10120,1","12,0000,9,1","24,0000,9,1",,,,"07,99,1,02,1,07,1,00800,1,07,1,00,1","999,N,+0118,1","99999,9,09448,1","7,1,008,1,+999,9","02,1","SYN100AAXX  10064 08417 11562 70401 10120 20090 39448 40120 57008 60002 702// 82770 333 20118 55/// 70000;","Q01  00002PRCP24Q02  00002PRCP12"
"08417099999","2010-05-10T09:00:00","4","37.7833333","-3.8166666","580.0","JAEN, SP","FM-12","99999","V020","999,9,C,0000,1","03600,1,9,N","012000,1,N,1","+0136,1","+0108,1","10120,1",,,"6,1,03,1","6,1,03,1",,"08,99,1,02,1,07,1,00800,1,07,1,00,1",,"99999,9,09452,1","2,1,004,1,+999,9","02,1","SYN072AAXX  10094 08417 41562 80000 10136 20108 39452 40120 52004 70266 82770;",
"08417099999","2010-05-10T12:00:00","4","37.7833333","-3.8166666","580.0","JAEN, SP","FM-12","99999","V020","270,1,N,0015,1","03600,1,9,N","012000,1,N,1","+0164,1","+0073,1","10106,1","06,0000,9,1",,"5,1,06,1","5,1,06,1",,"06,99,1,02,1,08,1,00800,1,07,1,00,1",,"99999,9,09444,1","7,1,008,1,+999,9","02,1","SYN078AAXX  10124 08417 11562 62703 10164 20073 39444 40106 57008 69911 70255 82870;","Q01  00002PRCP06"
"08417099999","2010-05-10T15:00:00","4","37.7833333","-3.8166666","580.0","JAEN, SP","FM-12","99999","V020","330,1,N,0031,1","22000,1,9,N","015000,1,N,1","+0176,1","+0107,1","10097,1",,,"8,1,03,1","8,1,03,1",,"04,99,1,04,1,08,1,00800,1,00,1,00,1",,"99999,9,09439,1","6,1,005,1,+999,9","02,1","SYN072AAXX  10154 08417 41565 43306 10176 20107 39439 40097 56005 70288 84800;",
"08417099999","2010-05-10T18:00:00","4","37.7833333","-3.8166666","580.0","JAEN, SP","FM-12","99999","V020","260,1,N,0010,1","22000,1,9,N","012000,1,N,1","+0160,1","+0082,1","10103,1","12,0010,9,1",,"8,1,06,1","8,1,06,1",,"04,99,1,03,1,02,1,00800,1,07,1,00,1","999,M,+0192,1","99999,9,09441,1","3,1,002,1,+999,9","02,1","SYN088AAXX  10184 08417 11562 42602 10160 20082 39441 40103 53002 60012 70288 83270 333 10192;",
"08417099999","2010-05-12T06:00:00","4","37.7833333","-3.8166666","580.0","JAEN, SP","FM-12","99999","V020","170,1,N,0010,1","03600,1,9,N","010000,1,N,1","+0100,1","+0078,1","10132,1","12,0020,9,1","24,0043,9,1","8,1,06,1","8,1,06,1",,"08,99,1,03,1,07,1,00800,1,07,1,00,1","999,N,+0098,1","99999,9,09454,1","3,1,008,1,+999,9","60,1","SYN100AAXX  12064 08417 11560 81702 10100 20078 39454 40132 53008 60022 76088 83770 333 20098 55/// 70042;",
"08417099999","2010-05-12T09:00:00","4","37.7833333","-3.8166666","580.0","JAEN, SP","FM-12","99999","V020","280,1,N,0026,1","01200,1,9,N","012000,1,N,1","+0122,1","+0060,1","10133,1",,,,,,"06,99,1,05,1,08,1,00800,1,06,1,00,1",,"99999,9,09460,1","3,1,006,1,+999,9",,"SYN066AAXX  12094 08417 42562 62805 10122 20060 39460 40133 53006 85860;",
"08417099999","2010-05-12T12:00:00","4","37.7833333","-3.8166666","580.0","JAEN, SP","FM-12","99999","V020","260,1,N,0031,1","03600,1,9,N","012000,1,N,1","+0152,1","+0054,1","10132,1","06,0000,2,1",,,,,"06,99,1,04,1,02,1,00800,1,06,1,00,1",,"99999,9,09466,1","2,1,006,1,+999,9",,"SYN072AAXX  12124 08417 12562 62606 10152 20054 39466 40132 52006 60001 84260;",
"08417099999","2010-05-12T15:00:00","4","37.7833333","-3.8166666","580.0","JAEN, SP","FM-12","99999","V020","270,1,N,0031,1","00750,1,9,N","015000,1,N,1","+0150,1","+0044,1","10129,1",,,,,,"06,99,1,05,1,02,1,00800,1,06,1,00,1",,"99999,9,09462,1","8,1,004,1,+999,9",,"SYN066AAXX  12154 08417 42565 62706 10150 20044 39462 40129 58004 85260;",
"08417099999","2010-05-12T18:00:00","4","37.7833333","-3.8166666","580.0","JAEN, SP","FM-12","99999","V020","280,1,N,0036,1","22000,1,9,N","015000,1,N,1","+0136,1","+0047,1","10132,1","12,0000,2,1",,,,,"03,99,1,03,1,02,1,00800,1,00,1,00,1","999,M,+0154,1","99999,9,09462,1","4,1,000,1,+999,9",,"SYN082AAXX  12184 08417 12565 32807 10136 20047 39462 40132 54000 60002 83200 333 10154;",
"08417099999","2010-05-14T06:00:00","4","37.7833333","-3.8166666","580.0","JAEN, SP","FM-12","99999","V020","270,1,N,0031,1","03600,1,9,N","010000,1,N,1","+0082,1","+0042,1","10158,1","12,0051,9,1","24,0104,9,1",,,,"08,99,1,03,1,07,1,00800,1,07,1,00,1","999,N,+0075,1","99999,9,09474,1","3,1,008,1,+999,9","60,1","SYN100AAXX  14064 08417 11560 82706 10082 20042 39474 40158 53008 60052 760// 83770 333 20075 55/// 70104;",
"08417099999","2010-05-14T09:00:00","4","37.7833333","-3.8166666","580.0","JAEN, SP","FM-12","99999","V020","290,1,N,0041,1","01200,1,9,N","012000,1,N,1","+0098,1","+0060,1","10165,1",,,"6,1,03,1","6,1,03,1",,"05,99,1,05,1,08,1,00800,1,00,1,00,1",,"99999,9,09484,1","2,1,010,1,+999,9","02,1","SYN072AAXX  14094 08417 41562 52908 10098 20060 39484 40165 52010 70266 85800;",
"08417099999","2010-05-14T12:00:00","4","37.7833333","-3.8166666","580.0","JAEN, SP","FM-12","99999","V020","310,1,N,0041,1","22000,1,9,N","015000,1,N,1","+0112,1","+0030,1","10167,1","06,0000,2,1",,,,,"04,99,1,03,1,08,1,00800,1,07,1,00,1",,"99999,9,09489,1","3,1,005,1,+999,9",,"SYN072AAXX  14124 08417 12565 43108 10112 20030 39489 40167 53005 60001 83870;",
"08417099999","2010-05-14T15:00:00","4","37.7833333","-3.8166666","580.0","JAEN, SP","FM-12","99999","V020","290,1,N,0036,1","03600,1,9,N","015000,1,N,1","+0138,1","+0011,1","10173,1",,,,,,"06,99,1,04,1,08,1,00800,1,07,1,00,1",,"99999,9,09500,1","2,1,011,1,+999,9",,"SYN066AAXX  14154 08417 42565 62907 10138 20011 39500 40173 52011 84870;",
"08417099999","2010-05-14T18:00:00","4","37.7833333","-3.8166666","580.0","JAEN, SP","FM-12","99999","V020","300,1,N,0036,1","03600,1,9,N","015000,1,N,1","+0140,1","+0016,1","10180,1","12,0000,2,1",,,,,"05,99,1,03,1,08,1,00800,1,03,1,00,1","999,M,+0154,1","99999,9,09507,1","2,1,007,1,+999,9",,"SYN082AAXX  14184 08417 12565 53007 10140 20016 39507 40180 52007 60002 83830 333 10154;",
"08417099999","2010-05-17T06:00:00","4","37.7833333","-3.8166666","580.0","JAEN, SP","FM-12","99999","V020","020,1,N,0005,1","22000,1,9,N","015000,1,N,1","+0124,1","+0017,1","10252,1","12,0000,9,1","24,0000,9,1",,,"00,1,+99999,9,99,9","00,99,1,00,1,00,1,99999,9,00,1,00,1","999,N,+0114,1","99999,9,09571,1","4,1,000,1,+999,9",,"SYN088AAXX  17064 08417 12965 00201 10124 20017 39571 40252 54000 60002 333 20114 55/// 70000;","Q01  00002PRCP24Q02  00002PRCP12"
"08417099999","2010-05-17T09:00:00","4","37.7833333","-3.8166666","580.0","JAEN, SP","FM-12","99999","V020","030,1,N,0021,1","22000,1,9,N","015000,1,N,1","+0172,1","+0049,1","10250,1",,,,,"00,1,+99999,9,99,9","00,99,1,00,1,00,1,99999,9,00,1,00,1",,"99999,9,09580,1","2,1,009,1,+999,9",,"SYN060AAXX  17094 08417 42965 00304 10172 20049 39580 40250 52009;",
"08417099999","2010-05-17T12:00:00","4","37.7833333","-3.8166666","580.0","JAEN, SP","FM-12","99999","V020","020,1,N,0010,1","22000,1,9,N","015000,1,N,1","+0214,1","+0057,1","10237,1","06,0000,9,1",,,,"00,1,+99999,9,99,9","00,99,1,00,1,00,1,99999,9,00,1,00,1",,"99999,9,09577,1","8,1,003,1,+999,9",,"SYN066AAXX  17124 08417 12965 00202 10214 20057 39577 40237 58003 60001;","Q01  00002PRCP06"
"08417099999","2010-05-17T15:00:00","4","37.7833333","-3.8166666","580.0","JAEN, SP","FM-12","99999","V020","350,1,N,0021,1","22000,1,9,N","015000,1,N,1","+0252,1","+0038,1","10206,1",,,,,"00,1,+99999,9,99,9","00,99,1,00,1,00,1,99999,9,00,1,00,1",,"99999,9,09556,1","7,1,021,1,+999,9",,"SYN060AAXX  17154 08417 42965 03504 10252 20038 39556 40206 57021;",
"08417099999","2010-05-17T18:00:00","4","37.7833333","-3.8166666","580.0","JAEN, SP","FM-12","99999","V020","020,1,N,0010,1","22000,1,9,N","015000,1,N,1","+0250,1","+0042,1","10203,1","12,0000,9,1",,,,"00,1,+99999,9,99,9","00,99,1,00,1,00,1,99999,9,00,1,00,1","999,M,+0262,1","99999,9,09553,1","7,1,003,1,+999,9",,"SYN076AAXX  17184 08417 12965 00202 10250 20042 39553 40203 57003 60002 333 10262;","Q01  00002PRCP12"
"08417099999","2010-05-19T06:00:00","4","37.7833333","-3.8166666","580.0","JAEN, SP","FM-12","99999","V020","999,9,C,0000,1","22000,1,9,N","015000,1,N,1","+0180,1","+0052,1","10231,1","12,0000,9,1","24,0000,9,1",,,"00,1,+99999,9,99,9","00,99,1,00,1,00,1,99999,9,00,1,00,1","999,N,+0164,1","99999,9,09564,1","3,1,006,1,+999,9","02,1","SYN094AAXX  19064 08417 11965 00000 10180 20052 39564 40231 53006 60002 702// 333 20164 55/// 70000;","Q01  00002PRCP24Q02  00002PRCP12"
"08417099999","2010-05-19T09:00:00","4","37.7833333","-3.8166666","580.0","JAEN, SP","FM-12","99999","V020","030,1,N,0021,1","22000,1,9,N","015000,1,N,1","+0214,1","+0076,1","10227,1",,,,,"00,1,+99999,9,99,9","00,99,1,00,1,00,1,99999,9,00,1,00,1",,"99999,9,09568,1","2,1,004,1,+999,9",,"SYN060AAXX  19094 08417 42965 00304 10214 20076 39568 40227 52004;",
"08417099999","2010-05-19T12:00:00","4","37.7833333","-3.8166666","580.0","JAEN, SP","FM-12","99999","V020","360,1,N,0015,1","22000,1,9,N","015000,1,N,1","+0256,1","+0081,1","10211,1","06,0000,9,1",,,,"00,1,+99999,9,99,9","00,99,1,00,1,00,1,99999,9,00,1,00,1",,"99999,9,09562,1","8,1,006,1,+999,9",,"SYN066AAXX  19124 08417 12965 03603 10256 20081 39562 40211 58006 60001;","Q01  00002PRCP06"
"08417099999","2010-05-19T15:00:00","4","37.7833333","-3.8166666","580.0","JAEN, SP","FM-12","99999","V020","360,1,N,0021,1","22000,1,9,N","015000,1,N,1","+0280,1","+0062,1","10188,1",,,,,"00,1,+99999,9,99,9","00,99,1,00,1,00,1,99999,9,00,1,00,1",,"99999,9,09545,1","7,1,017,1,+999,9",,"SYN060AAXX  19154 08417 42965 03604 10280 20062 39545 40188 57017;",
"08417099999","2010-05-19T18:00:00","4","37.7833333","-3.8166666","580.0","JAEN, SP","FM-12","99999","V020","080,1,N,0015,1","22000,1,9,N","015000,1,N,1","+0274,1","+0068,1","10180,1","12,0000,9,1",,,,"00,1,+99999,9,99,9","00,99,1,00,1,00,1,99999,9,00,1,00,1","999,M,+0294,1","99999,9,09537,1","7,1,008,1,+999,9",,"SYN076AAXX  19184 08417 12965 00803 10274 20068 39537 40180 57008 60002 333 10294;","Q01  00002PRCP12"
"08417099999","2010-05-21T06:00:00","4","37.7833333","-3.8166666","580.0","JAEN, SP","FM-12","99999","V020","150,1,N,0041,1","22000,1,9,N","015000,1,N,1","+0200,1","+0037,1","10191,1","12,0000,9,1","24,0000,9,1",,,"00,1,+99999,9,99,9","00,99,1,00,1,00,1,99999,9,00,1,00,1","999,N,+0190,1","99999,9,09531,1","5,1,000,1,+999,9",,"SYN088AAXX  21064 08417 12965 01508 10200 20037 39531 40191 55000 60002 333 20190 55/// 70000;","Q01  00002PRCP24Q02  00002PRCP12"
"08417099999","2010-05-21T09:00:00","4","37.7833333","-3.8166666","580.0","JAEN, SP","FM-12","99999","V020","110,1,N,0041,1","22000,1,9,N","015000,1,N,1","+0236,1","+0060,1","10183,1",,,,,"00,1,+99999,9,99,9","00,99,1,00,1,00,1,99999,9,00,1,00,1",,"99999,9,09532,1","1,1,001,1,+999,9",,"SYN060AAXX  21094 08417 42965 01108 10236 20060 39532 40183 51001;",
"08417099999","2010-05-21T12:00:00","4","37.7833333","-3.8166666","580.0","JAEN, SP","FM-12","99999","V020","090,1,N,0015,1","22000,1,9,N","015000,1,N,1","+0286,1","+0067,1","10163,1","06,0000,9,1",,,,"00,1,+99999,9,99,9","00,99,1,00,1,00,1,99999,9,00,1,00,1",,"99999,9,09523,1","7,1,009,1,+999,9",,"SYN066AAXX  21124 08417 12965 00903 10286 20067 39523 40163 57009 60001;","Q01  00002PRCP06"
"08417099999","2010-05-21T15:00:00","4","37.7833333","-3.8166666","580.0","JAEN, SP","FM-12","99999","V020","140,1,N,0010,1","22000,1,9,N","015000,1,N,1","+0310,1","+0087,1","10135,1",,,,,"00,1,+99999,9,99,9","00,99,1,00,1,00,1,99999,9,00,1,00,1",,"99999,9,09502,1","7,1,021,1,+999,9",,"SYN060AAXX  21154 08417 42965 01402 10310 20087 39502 40135 57021;",
"08417099999","2010-05-21T18:00:00","4","37.7833333","-3.8166666","580.0","JAEN, SP","FM-12","99999","V020","120,1,N,0031,1","22000,1,9,N","015000,1,N,1","+0296,1","+0081,1","10131,1","12,0000,9,1",,,,"00,1,+99999,9,99,9","00,99,1,00,1,00,1,99999,9,00,1,00,1","999,M,+0318,1","99999,9,09496,1","7,1,006,1,+999,9",,"SYN076AAXX  21184 08417 12965 01206 10296 20081 39496 40131 57006 60002 333 10318;","Q01  00002PRCP12"
"08417099999","2010-05-24T06:00:00","4","37.7833333","-3.8166666","580.0","JAEN, SP","FM-12","99999","V020","999,9,C,0000,1","22000,1,9,N","015000,1,N,1","+0174,1","+0060,1","10180,1","12,0000,9,1","24,0000,9,1",,,"00,1,+99999,9,99,9","00,99,1,00,1,00,1,99999,9,00,1,00,1","999,N,+0156,1","99999,9,09515,1","2,1,006,1,+999,9",,"SYN088AAXX  24064 08417 12965 00000 10174 20060 39515 40180 52006 60002 333 20156 55/// 70000;","Q01  00002PRCP24Q02  00002PRCP12"
"08417099999","2010-05-24T09:00:00","4","37.7833333","-3.8166666","580.0","JAEN, SP","FM-12","99999","V020","050,1,N,0010,1","22000,1,9,N","015000,1,N,1","+0216,1","+0078,1","10168,1",,,,,"00,1,+99999,9,99,9","00,99,1,00,1,00,1,99999,9,00,1,00,1",,"99999,9,09514,1","8,1,001,1,+999,9",,"SYN060AAXX  24094 08417 42965 00502 10216 20078 39514 40168 58001;",
"08417099999","2010-05-24T12:00:00","4","37.7833333","-3.8166666","580.0","JAEN, SP","FM-12","99999","V020","340,1,N,0010,1","22000,1,9,N","015000,1,N,1","+0242,1","+0086,1","10157,1","06,0000,9,1",,,,"00,1,+99999,9,99,9","00,99,1,00,1,00,1,99999,9,00,1,00,1",,"99999,9,09509,1","7,1,005,1,+999,9",,"SYN066AAXX  24124 08417 12965 03402 10242 20086 39509 40157 57005 60001;","Q01  00002PRCP06"
"08417099999","2010-05-24T15:00:00","4","37.7833333","-3.8166666","580.0","JAEN, SP","FM-12","99999","V020","290,1,N,0021,1","22000,1,9,N","015000,1,N,1","+0272,1","+0104,1","10129,1",,,,,"00,1,+99999,9,99,9","00,99,1,00,1,00,1,99999,9,00,1,00,1",,"99999,9,09489,1","7,1,020,1,+999,9",,"SYN060AAXX  24154 08417 42965 02904 10272 20104 39489 40129 57020;",
"08417099999","2010-05-24T18:00:00","4","37.7833333","-3.8166666","580.0","JAEN, SP","FM-12","99999","V020","320,1,N,0036,1","22000,1,9,N","015000,1,N,1","+0260,1","+0085,1","10134,1","12,0000,9,1",,,,"00,1,+99999,9,99,9","00,99,1,00,1,00,1,99999,9,00,1,00,1","999,M,+0276,1","99999,9,09491,1","3,1,002,1,+999,9",,"SYN076AAXX  24184 08417 12965 03207 10260 20085 39491 40134 53002 60002 333 10276;","Q01  00002PRCP12"
"08417099999","2010-05-26T06:00:00","4","37.7833333","-3.8166666","580.0","JAEN, SP","FM-12","99999","V020","300,1,N,0010,1","22000,1,9,N","015000,1,N,1","+0146,1","+0106,1","10162,1","12,0000,9,1","24,0000,9,1",,,,"04,99,1,00,1,00,1,99999,9,00,1,01,1","999,N,+0140,1","99999,9,09493,1","6,1,004,1,+999,9","02,1","SYN100AAXX  26064 08417 11965 43002 10146 20106 39493 40162 56004 60002 702// 80001 333 20140 55/// 70000;","Q01  00002PRCP24Q02  00002PRCP12"
"08417099999","2010-05-26T09:00:00","4","37.7833333","-3.8166666","580.0","JAEN, SP","FM-12","99999","V020","999,9,C,0000,1","22000,1,9,N","015000,1,N,1","+0186,1","+0121,1","10157,1",,,,,,"03,99,1,03,1,00,1,99999,9,03,1,00,1",,"99999,9,09498,1","1,1,005,1,+999,9",,"SYN066AAXX  26094 08417 42965 30000 10186 20121 39498 40157 51005 83030;",
"08417099999","2010-05-26T12:00:00","4","37.7833333","-3.8166666","580.0","JAEN, SP","FM-12","99999","V020","020,1,N,0010,1","22000,1,9,N","015000,1,N,1","+0220,1","+0123,1","10144,1","06,0000,9,1",,,,,"03,99,1,03,1,00,1,99999,9,03,1,00,1",,"99999,9,09493,1","7,1,005,1,+999,9",,"SYN072AAXX  26124 08417 12965 30202 10220 20123 39493 40144 57005 60001 83030;","Q01  00002PRCP06"
"08417099999","2010-05-26T15:00:00","4","37.7833333","-3.8166666","580.0","JAEN, SP","FM-12","99999","V020","310,1,N,0026,1","22000,1,9,N","015000,1,N,1","+0254,1","+0084,1","10118,1",,,,,,"03,99,1,00,1,00,1,99999,9,00,1,01,1",,"99999,9,09475,1","7,1,018,1,+999,9",,"SYN066AAXX  26154 08417 42965 33105 10254 20084 39475 40118 57018 80001;",
"08417099999","2010-05-26T18:00:00","4","37.7833333","-3.8166666","580.0","JAEN, SP","FM-12","99999","V020","320,1,N,0026,1","22000,1,9,N","015000,1,N,1","+0250,1","+0085,1","10109,1","12,0000,9,1",,,,,"02,99,1,00,1,00,1,99999,9,00,1,01,1","999,M,+0258,1","99999,9,09466,1","7,1,009,1,+999,9",,"SYN082AAXX  26184 08417 12965 23205 10250 20085 39466 40109 57009 60002 80001 333 10258;","Q01  00002PRCP12"
"08417099999","2010-05-28T06:00:00","4","37.7833333","-3.8166666","580.0","JAEN, SP","FM-12","99999","V020","320,1,N,0010,1","22000,1,9,N","015000,1,N,1","+0162,1","+0072,1","10159,1","12,0000,9,1","24,0000,9,1",,,,"04,99,1,03,1,02,1,00800,1,06,1,00,1","999,N,+0156,1","99999,9,09493,1","4,1,000,1,+999,9","02,1","SYN100AAXX  28064 08417 11565 43202 10162 20072 39493 40159 54000 60002 702// 83260 333 20156 55/// 70000;","Q01  00002PRCP24Q02  00002PRCP12"
"08417099999","2010-05-28T09:00:00","4","37.7833333","-3.8166666","580.0","JAEN, SP","FM-12","99999","V020","320,1,N,0021,1","03600,1,9,N","015000,1,N,1","+0164,1","+0098,1","10176,1",,,,,,"05,99,1,04,1,02,1,00800,1,07,1,00,1",,"99999,9,09510,1","2,1,017,1,+999,9",,"SYN066AAXX  28094 08417 42565 53204 10164 20098 39510 40176 52017 84270;",
"08417099999","2010-05-28T12:00:00","4","37.7833333","-3.8166666","580.0","JAEN, SP","FM-12","99999","V020","320,1,N,0021,1","22000,1,9,N","015000,1,N,1","+0200,1","+0107,1","10167,1","06,0000,9,1",,,,,"04,99,1,03,1,02,1,00800,1,07,1,00,1",,"99999,9,09510,1","4,1,000,1,+999,9",,"SYN072AAXX  28124 08417 12565 43204 10200 20107 39510 40167 54000 60001 83270;","Q01  00002PRCP06"
"08417099999","2010-05-28T15:00:00","4","37.7833333","-3.8166666","580.0","JAEN, SP","FM-12","99999","V020","300,1,N,0026,1","22000,1,9,N","015000,1,N,1","+0214,1","+0076,1","10159,1",,,,,,"04,99,1,04,1,02,1,00800,1,00,1,00,1",,"99999,9,09505,1","6,1,005,1,+999,9",,"SYN066AAXX  28154 08417 42565 43005 10214 20076 39505 40159 56005 84200;",
"08417099999","2010-05-28T18:00:00","4","37.7833333","-3.8166666","580.0","JAEN, SP","FM-12","99999","V020","320,1,N,0026,1","00750,1,C,N","010000,1,N,1","+0176,1","+0082,1","10171,1","12,0020,9,1",,"2,1,06,1","2,1,06,1","04,1,+00150,1,09,1","07,99,1,06,1,03,1,00800,1,07,1,00,1","120,M,+0226,1","99999,9,09508,1","3,1,003,1,+999,9","81,1","SYN094AAXX  28184 08417 11560 73205 10176 20082 39508 40171 53003 60022 78122 86370 333 10226 84905;",
"08417099999","2010-05-31T06:00:00","4","37.7833333","-3.8166666","580.0","JAEN, SP","FM-12","99999","V020","250,1,N,0005,1","22000,1,9,N","015000,1,N,1","+0222,1","+0097,1","10224,1","12,0000,9,1","24,0000,9,1",,,"00,1,+99999,9,99,9","00,99,1,00,1,00,1,99999,9,00,1,00,1","999,N,+0212,1","99999,9,09568,1","4,1,000,1,+999,9",,"SYN088AAXX  31064 08417 12965 02501 10222 20097 39568 40224 54000 60002 333 20212 55/// 70000;","Q01  00002PRCP24Q02  00002PRCP12"
"08417099999","2010-05-31T09:00:00","4","37.7833333","-3.8166666","580.0","JAEN, SP","FM-12","99999","V020","050,1,N,0005,1","22000,1,9,N","015000,1,N,1","+0258,1","+0112,1","10215,1",,,,,"00,1,+99999,9,99,9","00,99,1,00,1,00,1,99999,9,00,1,00,1",,"99999,9,09567,1","8,1,001,1,+999,9",,"SYN060AAXX  31094 08417 42965 00501 10258 20112 39567 40215 58001;",
"08417099999","2010-05-31T12:00:00","4","37.7833333","-3.8166666","580.0","JAEN, SP","FM-12","99999","V020","040,1,N,0005,1","22000,1,9,N","015000,1,N,1","+0202,1","+0039,1","10219,1","06,0000,9,1",,,,"00,1,+99999,9,99,9","00,99,1,00,1,00,1,99999,9,00,1,00,1",,"99999,9,09558,1","7,1,009,1,+999,9",,"SYN066AAXX  31124 08417 12965 00401 10202 20039 39558 40219 57009 60001;","Q01  00002PRCP06"
"08417099999","2010-05-31T15:00:00","4","37.7833333","-3.8166666","580.0","JAEN, SP","FM-12","99999","V020","080,1,N,0005,1","22000,1,9,N","015000,1,N,1","+0316,1","+0119,1","10171,1",,,,,"00,1,+99999,9,99,9","00,99,1,00,1,00,1,99999,9,00,1,00,1",,"99999,9,09538,1","7,1,020,1,+999,9",,"SYN060AAXX  31154 08417 42965 00801 10316 20119 39538 40171 57020;",
"08417099999","2010-05-31T18:00:00","4","37.7833333","-3.8166666","580.0","JAEN, SP","FM-12","99999","V020","010,1,N,0005,1","22000,1,9,N","015000,1,N,1","+0322,1","+0114,1","10158,1","12,0000,9,1",,,,"00,1,+99999,9,99,9","00,99,1,00,1,00,1,99999,9,00,1,00,1","999,M,+0340,1","99999,9,09527,1","7,1,011,1,+999,9",,"SYN076AAXX  31184 08417 12965 00101 10322 20114 39527 40158 57011 60002 333 10340;","Q01  00002PRCP12"
"08417099999","2010-06-02T06:00:00","4","37.7833333","-3.8166666","580.0","JAEN, SP","FM-12","99999","V020","999,9,C,0000,1","22000,1,9,N","015000,1,N,1","+0232,1","+0109,1","10140,1","12,0000,9,1","24,0000,9,1",,,,"04,99,1,00,1,00,1,99999,9,00,1,01,1","999,N,+0224,1","99999,9,09491,1","7,1,002,1,+999,9","02,1","SYN100AAXX  02064 08417 11965 40000 10232 20109 39491 40140 57002 60002 702// 80001 333 20224 55/// 70000;","Q01  00002PRCP24Q02  00002PRCP12"
"08417099999","2010-06-02T09:00:00","4","37.7833333","-3.8166666","580.0","JAEN, SP","FM-12","99999","V020","999,9,C,0000,1","22000,1,9,N","015000,1,N,1","+0275,1","+0131,1","10128,1",,,,,,"04,99,1,00,1,00,1,99999,9,00,1,08,1",,"99999,9,09490,1","8,1,001,1,+999,9",,"SYN066AAXX  02094 08417 42965 40000 10275 20131 39490 40128 58001 80008;",
"08417099999","2010-06-02T12:00:00","4","37.7833333","-3.8166666","580.0","JAEN, SP","FM-12","99999","V020","010,1,N,0010,1","22000,1,9,N","015000,1,N,1","+0308,1","+0148,1","10116,1","06,0000,9,1",,,,,"04,99,1,00,1,00,1,99999,9,00,1,08,1",,"99999,9,09485,1","8,1,005,1,+999,9",,"SYN072AAXX  02124 08417 12965 40102 10308 20148 39485 40116 58005 60001 80008;","Q01  00002PRCP06"
"08417099999","2010-06-02T15:00:00","4","37.7833333","-3.8166666","580.0","JAEN, SP","FM-12","99999","V020","300,1,N,0031,1","99999,9,9,N","015000,1,N,1","+0320,1","+0128,1","10105,1",,,,,,"05,99,1,00,1,00,1,99999,9,00,1,08,1",,"99999,9,09477,1","7,1,008,1,+999,9",,"SYN066AAXX  02154 08417 42965 53006 10320 20128 39477 40105 57008 80008;",
"08417099999","2010-06-02T18:00:00","4","37.7833333","-3.8166666","580.0","JAEN, SP","FM-12","99999","V020","280,1,N,0015,1","99999,9,9,N","015000,1,N,1","+0304,1","+0123,1","10108,1","12,0000,9,1",,,,,"05,99,1,00,1,00,1,99999,9,00,1,08,1","999,M,+0330,1","99999,9,09477,1","4,1,000,1,+999,9",,"SYN082AAXX  02184 08417 12965 52803 10304 20123 39477 40108 54000 60002 80008 333 10330;","Q01  00002PRCP12"
"08417099999","2010-06-04T06:00:00","4","37.7833333","-3.8166666","580.0","JAEN, SP","FM-12","99999","V020","080,1,N,0005,1","22000,1,9,N","015000,1,N,1","+0194,1","+0119,1","10177,1","12,0000,9,1","24,0000,9,1",,,"00,1,+99999,9,99,9","00,99,1,00,1,00,1,99999,9,00,1,00,1","999,N,+0182,1","99999,9,09518,1","2,1,009,1,+999,9",,"SYN088AAXX  04064 08417 12965 00801 10194 20119 39518 40177 52009 60002 333 20182 55/// 70000;","Q01  00002PRCP24Q02  00002PRCP12"
"08417099999","2010-06-04T09:00:00","4","37.7833333","-3.8166666","580.0","JAEN, SP","FM-12","99999","V020","010,1,N,0010,1","22000,1,9,N","015000,1,N,1","+0230,1","+0135,1","10176,1",,,,,"00,1,+99999,9,99,9","00,99,1,00,1,00,1,99999,9,00,1,00,1",,"99999,9,09525,1","2,1,007,1,+999,9",,"SYN060AAXX  04094 08417 42965 00102 10230 20135 39525 40176 52007;",
"08417099999","2010-06-04T12:00:00","4","37.7833333","-3.8166666","580.0","JAEN, SP","FM-12","99999","V020","340,1,N,0015,1","22000,1,9,N","015000,1,N,1","+0284,1","+0157,1","10163,1","06,0000,9,1",,,,"00,1,+99999,9,99,9","00,99,1,00,1,00,1,99999,9,00,1,00,1",,"99999,9,09525,1","4,1,000,1,+999,9",,"SYN066AAXX  04124 08417 12965 03403 10284 20157 39525 40163 54000 60001;","Q01  00002PRCP06"
"08417099999","2010-06-04T15:00:00","4","37.7833333","-3.8166666","580.0","JAEN, SP","FM-12","99999","V020","300,1,N,0021,1","22000,1,9,N","015000,1,N,1","+0310,1","+0146,1","10152,1",,,,,"00,1,+99999,9,99,9","00,99,1,00,1,00,1,99999,9,00,1,00,1",,"99999,9,09520,1","7,1,005,1,+999,9",,"SYN060AAXX  04154 08417 42965 03004 10310 20146 39520 40152 57005;",
"08417099999","2010-06-04T18:00:00","4","37.7833333","-3.8166666","580.0","JAEN, SP","FM-12","99999","V020","300,1,N,0021,1","22000,1,9,N","015000,1,N,1","+0300,1","+0129,1","10143,1","12,0000,9,1",,,,"00,1,+99999,9,99,9","00,99,1,00,1,00,1,99999,9,00,1,00,1","999,M,+0320,1","99999,9,09509,1","7,1,011,1,+999,9",,"SYN076AAXX  04184 08417 12965 03004 10300 20129 39509 40143 57011 60002 333 10320;","Q01  00002PRCP12"
"08417099999","2010-06-07T06:00:00","4","37.7833333","-3.8166666","580.0","JAEN, SP","FM-12","99999","V020","330,1,N,0010,1","22000,1,9,N","015000,1,N,1","+0178,1","+0092,1","10169,1","12,0000,9,1","24,0000,9,1",,,"00,1,+99999,9,99,9","00,99,1,00,1,00,1,99999,9,00,1,00,1","999,N,+0176,1","99999,9,09507,1","4,1,000,1,+999,9",,"SYN088AAXX  07064 08417 12965 03302 10178 20092 39507 40169 54000 60002 333 20176 55/// 70000;","Q01  00002PRCP24Q02  00002PRCP12"
"08417099999","2010-06-07T09:00:00","4","37.7833333","-3.8166666","580.0","JAEN, SP","FM-12","99999","V020","010,1,N,0010,1","22000,1,9,N","015000,1,N,1","+0224,1","+0115,1","10167,1",,,,,,"01,99,1,00,1,00,1,99999,9,00,1,01,1",,"99999,9,09515,1","1,1,008,1,+999,9",,"SYN066AAXX  07094 08417 42965 10102 10224 20115 39515 40167 51008 80001;",
"08417099999","2010-06-07T12:00:00","4","37.7833333","-3.8166666","580.0","JAEN, SP","FM-12","99999","V020","320,1,N,0036,1","22000,1,9,N","015000,1,N,1","+0268,1","+0128,1","10145,1","06,0000,9,1",,,,"00,1,+99999,9,99,9","00,99,1,00,1,00,1,99999,9,00,1,00,1",,"99999,9,09504,1","7,1,011,1,+999,9",,"SYN066AAXX  07124 08417 12965 03207 10268 20128 39504 40145 57011 60001;","Q01  00002PRCP06"
"08417099999","2010-06-07T15:00:00","4","37.7833333","-3.8166666","580.0","JAEN, SP","FM-12","99999","V020","290,1,N,0021,1","22000,1,9,N","015000,1,N,1","+0289,1","+0119,1","10124,1",,,,,"00,1,+99999,9,99,9","00,99,1,00,1,00,1,99999,9,00,1,00,1",,"99999,9,09488,1","7,1,016,1,+999,9",,"SYN060AAXX  07154 08417 42965 02904 10289 20119 39488 40124 57016;",
"08417099999","2010-06-07T18:00:00","4","37.7833333","-3.8166666","580.0","JAEN, SP","FM-12","99999","V020","300,1,N,0026,1","22000,1,9,N","015000,1,N,1","+0280,1","+0107,1","10117,1","12,0000,9,1",,,,"00,1,+99999,9,99,9","00,99,1,00,1,00,1,99999,9,00,1,00,1","999,M,+0298,1","99999,9,09480,1","7,1,008,1,+999,9",,"SYN076AAXX  07184 08417 12965 03005 10280 20107 39480 40117 57008 60002 333 10298;","Q01  00002PRCP12"
"08417099999","2010-06-09T06:00:00","4","37.7833333","-3.8166666","580.0","JAEN, SP","FM-12","99999","V020","280,1,N,0005,1","01200,1,9,N","012000,1,N,1","+0168,1","+0111,1","10069,1","12,0000,9,1","24,0000,9,1",,,,"08,99,1,05,1,08,1,00800,1,07,1,00,1","999,N,+0160,1","99999,9,09411,1","7,1,005,1,+999,9","02,1","SYN100AAXX  09064 08417 11562 82801 10168 20111 39411 40069 57005 60002 702// 85870 333 20160 55/// 70000;","Q01  00002PRCP24Q02  00002PRCP12"
"08417099999","2010-06-09T09:00:00","4","37.7833333","-3.8166666","580.0","JAEN, SP","FM-12","99999","V020","130,1,N,0010,1","01200,1,9,N","012000,1,N,1","+0172,1","+0112,1","10067,1",,,,,,"08,99,1,05,1,08,1,00800,1,07,1,00,1",,"99999,9,09410,1","6,1,001,1,+999,9",,"SYN066AAXX  09094 08417 42562 81302 10172 20112 39410 40067 56001 85870;",
"08417099999","2010-06-09T12:00:00","4","37.7833333","-3.8166666","580.0","JAEN, SP","FM-12","99999","V020","130,1,N,0015,1","03600,1,9,N","012000,1,N,1","+0192,1","+0125,1","10050,1","06,0000,9,1",,"6,1,06,1","6,1,06,1",,"07,99,1,03,1,08,1,00800,1,07,1,00,1",,"99999,9,09399,1","7,1,011,1,+999,9","02,1","SYN078AAXX  09124 08417 11562 71303 10192 20125 39399 40050 57011 69901 70266 83870;","Q01  00002PRCP06"
"08417099999","2010-06-09T15:00:00","4","37.7833333","-3.8166666","580.0","JAEN, SP","FM-12","99999","V020","200,1,N,0026,1","03600,1,9,N","012000,1,N,1","+0206,1","+0138,1","10026,1",,,"5,1,03,1","2,1,03,1",,"07,99,1,03,1,02,1,00800,1,07,1,00,1",,"99999,9,09380,1","7,1,019,1,+999,9","60,1","SYN072AAXX  09154 08417 41562 72005 10206 20138 39380 40026 57019 76052 83270;",
"08417099999","2010-06-09T18:00:00","4","37.7833333","-3.8166666","580.0","JAEN, SP","FM-12","99999","V020","260,1,N,0087,1","03600,1,9,N","008000,1,N,1","+0148,1","+0121,1","10039,1","12,0030,9,1",,"6,1,06,1","2,1,06,1",,"08,99,1,04,1,07,1,00800,1,07,1,00,1","999,M,+0222,1","99999,9,09379,1","5,1,001,1,+999,9","60,1","SYN088AAXX  09184 08417 11558 82617 10148 20121 39379 40039 55001 60032 76062 84770 333 10222;",
"08417099999","2010-06-11T06:00:00","4","37.7833333","-3.8166666","580.0","JAEN, SP","FM-12","99999","V020","220,1,N,0010,1","03600,1,9,N","012000,1,N,1","+0114,1","+0081,1","10152,1","12,0030,9,1","24,0033,9,1",,,,"07,99,1,04,1,08,1,00800,1,07,1,00,1","999,N,+0114,1","99999,9,09476,1","3,1,004,1,+999,9","21,1","SYN100AAXX  11064 08417 11562 72202 10114 20081 39476 40152 53004 60032 721// 84870 333 20114 55/// 70033;",
"08417099999","2010-06-11T09:00:00","4","37.7833333","-3.8166666","580.0","JAEN, SP","FM-12","99999","V020","300,1,N,0015,1","03600,1,9,N","012000,1,N,1","+0128,1","+0094,1","10173,1",,,"6,1,03,1","6,1,03,1",,"07,99,1,03,1,08,1,00800,1,07,1,00,1",,"99999,9,09499,1","2,1,023,1,+999,9","02,1","SYN072AAXX  11094 08417 41562 73003 10128 20094 39499 40173 52023 70266 83870;",
"08417099999","2010-06-11T12:00:00","4","37.7833333","-3.8166666","580.0","JAEN, SP","FM-12","99999","V020","280,1,N,0026,1","22000,1,9,N","015000,1,N,1","+0162,1","+0066,1","10169,1","06,0003,9,1",,"6,1,06,1","6,1,06,1",,"03,99,1,03,1,02,1,00800,1,00,1,00,1",,"99999,9,09503,1","3,1,004,1,+999,9","02,1","SYN078AAXX  11124 08417 11565 32805 10162 20066 39503 40169 53004 69931 70266 83200;",
"08417099999","2010-06-14T06:00:00","4","37.7833333","-3.8166666","580.0","JAEN, SP","FM-12","99999","V020","999,9,C,0000,1","22000,1,9,N","015000,1,N,1","+0150,1","+0102,1","10152,1","12,0000,9,1","24,0020,9,1",,,"00,1,+99999,9,99,9","00,99,1,00,1,00,1,99999,9,00,1,00,1","999,N,+0132,1","99999,9,09485,1","7,1,007,1,+999,9","02,1","SYN094AAXX  14064 08417 11965 00000 10150 20102 39485 40152 57007 60002 702// 333 20132 55/// 70021;","Q01  00002PRCP12"
"08417099999","2010-06-14T09:00:00","4","37.7833333","-3.8166666","580.0","JAEN, SP","FM-12","99999","V020","330,1,N,0010,1","22000,1,9,N","015000,1,N,1","+0182,1","+0120,1","10146,1",,,,,,"02,99,1,02,1,00,1,99999,9,03,1,00,1",,"99999,9,09487,1","1,1,002,1,+999,9",,"SYN066AAXX  14094 08417 42965 23302 10182 20120 39487 40146 51002 82030;",
"08417099999","2010-06-14T12:00:00","4","37.7833333","-3.8166666","580.0","JAEN, SP","FM-12","99999","V020","320,1,N,0021,1","03600,1,9,N","015000,1,N,1","+0202,1","+0092,1","10138,1","06,0000,9,1",,,,,"05,99,1,04,1,02,1,00800,1,07,1,00,1",,"99999,9,09483,1","8,1,004,1,+999,9",,"SYN072AAXX  14124 08417 12565 53204 10202 20092 39483 40138 58004 60001 84270;","Q01  00002PRCP06"
"08417099999","2010-06-14T15:00:00","4","37.7833333","-3.8166666","580.0","JAEN, SP","FM-12","99999","V020","110,1,N,0031,1","22000,1,9,N","015000,1,N,1","+0230,1","+0098,1","10115,1",,,,,,"03,99,1,03,1,02,1,00800,1,00,1,00,1",,"99999,9,09467,1","7,1,016,1,+999,9",,"SYN066AAXX  14154 08417 42565 31106 10230 20098 39467 40115 57016 83200;",
"08417099999","2010-06-14T18:00:00","4","37.7833333","-3.8166666","580.0","JAEN, SP","FM-12","99999","V020","280,1,N,0026,1","22000,1,9,N","015000,1,N,1","+0230,1","+0094,1","10107,1","12,0000,9,1",,,,,"03,99,1,03,1,08,1,00800,1,00,1,00,1","999,M,+0256,1","99999,9,09460,1","7,1,007,1,+999,9",,"SYN082AAXX  14184 08417 12565 32805 10230 20094 39460 40107 57007 60002 83800 333 10256;","Q01  00002PRCP12"
"08417099999","2010-06-16T06:00:00","4","37.7833333","-3.8166666","580.0","JAEN, SP","FM-12","99999","V020","999,9,C,0000,1","22000,1,9,N","015000,1,N,1","+0148,1","+0074,1","10157,1","12,0000,9,1","24,0000,9,1",,,"00,1,+99999,9,99,9","00,99,1,00,1,00,1,99999,9,00,1,00,1","999,N,+0136,1","99999,9,09488,1","3,1,004,1,+999,9","02,1","SYN094AAXX  16064 08417 11965 00000 10148 20074 39488 40157 53004 60002 702// 333 20136 55/// 70000;","Q01  00002PRCP24Q02  00002PRCP12"
"08417099999","2010-06-16T09:00:00","4","37.7833333","-3.8166666","580.0","JAEN, SP","FM-12","99999","V020","020,1,N,0005,1","22000,1,9,N","015000,1,N,1","+0182,1","+0073,1","10152,1",,,,,"00,1,+99999,9,99,9","00,99,1,00,1,00,1,99999,9,00,1,00,1",,"99999,9,09491,1","2,1,003,1,+999,9",,"SYN060AAXX  16094 08417 42965 00201 10182 20073 39491 40152 52003;",
"08417099999","2010-06-16T15:00:00","4","37.7833333","-3.8166666","580.0","JAEN, SP","FM-12","99999","V020","270,1,N,0005,1","22000,1,9,N","015000,1,N,1","+0222,1","+0047,1","10144,1",,,,,,"01,99,1,01,1,01,1,00800,1,00,1,00,1",,"99999,9,09492,1","8,1,004,1,+999,9",,"SYN066AAXX  16154 08417 42565 12701 10222 20047 39492 40144 58004 81100;",
"08417099999","2010-06-16T18:00:00","4","37.7833333","-3.8166666","580.0","JAEN, SP","FM-12","99999","V020","300,1,N,0015,1","22000,1,9,N","015000,1,N,1","+0228,1","+0048,1","10136,1","12,0000,9,1",,,,,"01,99,1,01,1,01,1,00800,1,00,1,00,1","999,M,+0236,1","99999,9,09486,1","8,1,006,1,+999,9",,"SYN082AAXX  16184 08417 12565 13003 10228 20048 39486 40136 58006 60002 81100 333 10236;","Q01  00002PRCP12"
"08417099999","2010-07-02T09:00:00","4","37.7833333","-3.8166666","580.0","JAEN, SP","FM-12","99999","V020","350,1,N,0010,1","22000,1,9,N","015000,1,N,1","+0264,1","+0105,1","10141,1",,,,,"00,1,+99999,9,99,9","00,99,1,00,1,00,1,99999,9,00,1,00,1",,"99999,9,09499,1","4,1,000,1,+999,9",,"SYN060AAXX  02094 08417 42965 03502 10264 20105 39499 40141 54000;",
"08417099999","2010-07-02T12:00:00","4","37.7833333","-3.8166666","580.0","JAEN, SP","FM-12","99999","V020","340,1,N,0015,1","22000,1,9,N","015000,1,N,1","+0302,1","+0121,1","10126,1","06,0000,9,1",,,,"00,1,+99999,9,99,9","00,99,1,00,1,00,1,99999,9,00,1,00,1",,"99999,9,09493,1","8,1,006,1,+999,9",,"SYN066AAXX  02124 08417 12965 03403 10302 20121 39493 40126 58006 60001;","Q01  00002PRCP06"
"08417099999","2010-07-02T15:00:00","4","37.7833333","-3.8166666","580.0","JAEN, SP","FM-12","99999","V020","330,1,N,0021,1","22000,1,9,N","015000,1,N,1","+0330,1","+0136,1","10105,1",,,,,"00,1,+99999,9,99,9","00,99,1,00,1,00,1,99999,9,00,1,00,1",,"99999,9,09479,1","7,1,014,1,+999,9",,"SYN060AAXX  02154 08417 42965 03304 10330 20136 39479 40105 57014;",
"08417099999","2010-07-02T18:00:00","4","37.7833333","-3.8166666","580.0","JAEN, SP","FM-12","99999","V020","340,1,N,0015,1","22000,1,9,N","015000,1,N,1","+0332,1","+0133,1","10094,1","12,0000,9,1",,,,"00,1,+99999,9,99,9","00,99,1,00,1,00,1,99999,9,00,1,00,1","999,M,+0342,1","99999,9,09469,1","7,1,010,1,+999,9",,"SYN076AAXX  02184 08417 12965 03403 10332 20133 39469 40094 57010 60002 333 10342;","Q01  00002PRCP12"
"08417099999","2010-07-05T06:00:00","4","37.7833333","-3.8166666","580.0","JAEN, SP","FM-12","99999","V020","130,1,N,0031,1","22000,1,9,N","015000,1,N,1","+0282,1","+0099,1","10174,1","12,0000,9,1","24,0000,9,1",,,"00,1,+99999,9,99,9","00,99,1,00,1,00,1,99999,9,00,1,00,1","999,N,+0254,1","99999,9,09533,1","2,1,002,1,+999,9",,"SYN088AAXX  05064 08417 12965 01306 10282 20099 39533 40174 52002 60002 333 20254 55/// 70000;","Q01  00002PRCP24Q02  00002PRCP12"
"08417099999","2010-07-05T09:00:00","4","37.7833333","-3.8166666","580.0","JAEN, SP","FM-12","99999","V020","050,1,N,0010,1","22000,1,9,N","015000,1,N,1","+0300,1","+0110,1","10175,1",,,,,"00,1,+99999,9,99,9","00,99,1,00,1,00,1,99999,9,00,1,00,1",,"99999,9,09538,1","1,1,005,1,+999,9",,"SYN060AAXX  05094 08417 42965 00502 10300 20110 39538 40175 51005;",
"08417099999","2010-07-05T12:00:00","4","37.7833333","-3.8166666","580.0","JAEN, SP","FM-12","99999","V020","050,1,N,0010,1","22000,1,9,N","015000,1,N,1","+0338,1","+0127,1","10162,1","06,0000,9,1",,,,"00,1,+99999,9,99,9","00,99,1,00,1,00,1,99999,9,00,1,00,1",,"99999,9,09534,1","7,1,004,1,+999,9",,"SYN066AAXX  05124 08417 12965 00502 10338 20127 39534 40162 57004 60001;","Q01  00002PRCP06"
"08417099999","2010-07-05T15:00:00","4","37.7833333","-3.8166666","580.0","JAEN, SP","FM-12","99999","V020","100,1,N,0015,1","22000,1,9,N","015000,1,N,1","+0370,1","+0137,1","10141,1",,,,,"00,1,+99999,9,99,9","00,99,1,00,1,00,1,99999,9,00,1,00,1",,"99999,9,09521,1","7,1,013,1,+999,9",,"SYN060AAXX  05154 08417 42965 01003 10370 20137 39521 40141 57013;",
"08417099999","2010-07-05T18:00:00","4","37.7833333","-3.8166666","580.0","JAEN, SP","FM-12","99999","V020","010,1,N,0010,1","22000,1,9,N","015000,1,N,1","+0364,1","+0132,1","10135,1","12,0000,9,1",,,,"00,1,+99999,9,99,9","00,99,1,00,1,00,1,99999,9,00,1,00,1","999,M,+0378,1","99999,9,09514,1","7,1,007,1,+999,9",,"SYN076AAXX  05184 08417 12965 00102 10364 20132 39514 40135 57007 60002 333 10378;","Q01  00002PRCP12"
"08417099999","2010-07-07T06:00:00","4","37.7833333","-3.8166666","580.0","JAEN, SP","FM-12","99999","V020","150,1,N,0036,1","22000,1,9,N","015000,1,N,1","+0292,1","+0122,1","10154,1","12,0000,9,1","24,0000,9,1",,,"00,1,+99999,9,99,9","00,99,1,00,1,00,1,99999,9,00,1,00,1","999,N,+0232,1","99999,9,09517,1","7,1,010,1,+999,9",,"SYN088AAXX  07064 08417 12965 01507 10292 20122 39517 40154 57010 60002 333 20232 55/// 70000;","Q01  00002PRCP24Q02  00002PRCP12"
"08417099999","2010-07-07T09:00:00","4","37.7833333","-3.8166666","580.0","JAEN, SP","FM-12","99999","V020","150,1,N,0051,1","22000,1,9,N","015000,1,N,1","+0332,1","+0133,1","10136,1",,,,,"00,1,+99999,9,99,9","00,99,1,00,1,00,1,99999,9,00,1,00,1",,"99999,9,09509,1","6,1,008,1,+999,9",,"SYN060AAXX  07094 08417 42965 01510 10332 20133 39509 40136 56008;",
"08417099999","2010-07-07T12:00:00","4","37.7833333","-3.8166666","580.0","JAEN, SP","FM-12","99999","V020","280,1,N,0051,1","22000,1,9,N","012000,1,N,1","+0300,1","+0137,1","10184,1","06,0000,9,1",,,,"00,1,+99999,9,99,9","00,99,1,00,1,00,1,99999,9,00,1,00,1",,"99999,9,09547,1","2,1,038,1,+999,9",,"SYN066AAXX  07124 08417 12962 02810 10300 20137 39547 40184 52038 60001;","Q01  00002PRCP06"
"08417099999","2010-07-07T15:00:00","4","37.7833333","-3.8166666","580.0","JAEN, SP","FM-12","99999","V020","020,1,N,0021,1","22000,1,9,N","012000,1,N,1","+0346,1","+0150,1","10145,1",,,,,,"03,99,1,03,1,00,1,99999,9,08,1,00,1",,"99999,9,09520,1","7,1,027,1,+999,9",,"SYN066AAXX  07154 08417 42962 30204 10346 20150 39520 40145 57027 83080;",
"08417099999","2010-07-09T06:00:00","4","37.7833333","-3.8166666","580.0","JAEN, SP","FM-12","99999","V020","999,9,C,0000,1","22000,1,9,N","015000,1,N,1","+0238,1","+0131,1","10194,1","12,0000,9,1","24,0000,9,1",,,"00,1,+99999,9,99,9","00,99,1,00,1,00,1,99999,9,00,1,00,1","999,N,+0238,1","99999,9,09544,1","3,1,005,1,+999,9","02,1","SYN094AAXX  09064 08417 11965 00000 10238 20131 39544 40194 53005 60002 702// 333 20238 55/// 70000;","Q01  00002PRCP24Q02  00002PRCP12"
"08417099999","2010-07-09T09:00:00","4","37.7833333","-3.8166666","580.0","JAEN, SP","FM-12","99999","V020","020,1,N,0010,1","22000,1,9,N","015000,1,N,1","+0270,1","+0151,1","10188,1",,,,,"00,1,+99999,9,99,9","00,99,1,00,1,00,1,99999,9,00,1,00,1",,"99999,9,09545,1","1,1,001,1,+999,9",,"SYN060AAXX  09094 08417 42965 00202 10270 20151 39545 40188 51001;",
"08417099999","2010-07-09T12:00:00","4","37.7833333","-3.8166666","580.0","JAEN, SP","FM-12","99999","V020","350,1,N,0010,1","22000,1,9,N","015000,1,N,1","+0314,1","+0150,1","10179,1","06,0000,9,1",,,,"00,1,+99999,9,99,9","00,99,1,00,1,00,1,99999,9,00,1,00,1",,"99999,9,09546,1","3,1,001,1,+999,9",,"SYN066AAXX  09124 08417 12965 03502 10314 20150 39546 40179 53001 60001;","Q01  00002PRCP06"
"08417099999","2010-07-09T15:00:00","4","37.7833333","-3.8166666","580.0","JAEN, SP","FM-12","99999","V020","320,1,N,0021,1","22000,1,9,N","015000,1,N,1","+0342,1","+0151,1","10150,1",,,,,"00,1,+99999,9,99,9","00,99,1,00,1,00,1,99999,9,00,1,00,1",,"99999,9,09524,1","7,1,022,1,+999,9",,"SYN060AAXX  09154 08417 42965 03204 10342 20151 39524 40150 57022;",
"08417099999","2010-07-12T06:00:00","4","37.7833333","-3.8166666","580.0","JAEN, SP","FM-12","99999","V020","999,9,C,0000,1","22000,1,9,N","015000,1,N,1","+0242,1","+0143,1","10167,1","12,0000,9,1","24,0000,9,1",,,"00,1,+99999,9,99,9","00,99,1,00,1,00,1,99999,9,00,1,00,1","999,N,+0232,1","99999,9,09520,1","2,1,003,1,+999,9",,"SYN088AAXX  12064 08417 12965 00000 10242 20143 39520 40167 52003 60002 333 20232 55/// 70000;","Q01  00002PRCP24Q02  00002PRCP12"
"08417099999","2010-07-12T09:00:00","4","37.7833333","-3.8166666","580.0","JAEN, SP","FM-12","99999","V020","360,1,N,0010,1","22000,1,9,N","015000,1,N,1","+0268,1","+0155,1","10168,1",,,,,"00,1,+99999,9,99,9","00,99,1,00,1,00,1,99999,9,00,1,00,1",,"99999,9,09526,1","2,1,006,1,+999,9",,"SYN060AAXX  12094 08417 42965 03602 10268 20155 39526 40168 52006;",
"08417099999","2010-07-12T12:00:00","4","37.7833333","-3.8166666","580.0","JAEN, SP","FM-12","99999","V020","320,1,N,0031,1","22000,1,9,N","015000,1,N,1","+0314,1","+0162,1","10160,1","06,0000,9,1",,,,"00,1,+99999,9,99,9","00,99,1,00,1,00,1,99999,9,00,1,00,1",,"99999,9,09528,1","0,1,002,1,+999,9",,"SYN066AAXX  12124 08417 12965 03206 10314 20162 39528 40160 50002 60001;","Q01  00002PRCP06"
"08417099999","2010-07-12T15:00:00","4","37.7833333","-3.8166666","580.0","JAEN, SP","FM-12","99999","V020","330,1,N,0031,1","22000,1,9,N","015000,1,N,1","+0330,1","+0146,1","10138,1",,,,,"00,1,+99999,9,99,9","00,99,1,00,1,00,1,99999,9,00,1,00,1",,"99999,9,09510,1","7,1,018,1,+999,9",,"SYN060AAXX  12154 08417 42965 03306 10330 20146 39510 40138 57018;",
"08417099999","2010-07-12T18:00:00","4","37.7833333","-3.8166666","580.0","JAEN, SP","FM-12","99999","V020","310,1,N,0021,1","22000,1,9,N","015000,1,N,1","+0340,1","+0112,1","10124,1","12,0000,9,1",,,,"00,1,+99999,9,99,9","00,99,1,00,1,00,1,99999,9,00,1,00,1","999,M,+0352,1","99999,9,09498,1","7,1,012,1,+999,9",,"SYN076AAXX  12184 08417 12965 03104 10340 20112 39498 40124 57012 60002 333 10352;","Q01  00002PRCP12"
"08417099999","2010-07-21T06:00:00","4","37.7833333","-3.8166666","580.0","JAEN, SP","FM-12","99999","V020","999,9,C,0000,1","22000,1,9,N","015000,1,N,1","+0210,1","+0116,1","10121,1","12,0000,9,1","24,0000,9,1",,,"00,1,+99999,9,99,9","00,99,1,00,1,00,1,99999,9,00,1,00,1","999,N,+0210,1","99999,9,09469,1","4,1,000,1,+999,9",,"SYN088AAXX  21064 08417 12965 00000 10210 20116 39469 40121 54000 60002 333 20210 55/// 70000;","Q01  00002PRCP24Q02  00002PRCP12"
"08417099999","2010-07-21T09:00:00","4","37.7833333","-3.8166666","580.0","JAEN, SP","FM-12","99999","V020","350,1,N,0005,1","22000,1,9,N","015000,1,N,1","+0242,1","+0134,1","10119,1",,,,,"00,1,+99999,9,99,9","00,99,1,00,1,00,1,99999,9,00,1,00,1",,"99999,9,09474,1","2,1,005,1,+999,9",,"SYN060AAXX  21094 08417 42965 03501 10242 20134 39474 40119 52005;",
"08417099999","2010-07-21T12:00:00","4","37.7833333","-3.8166666","580.0","JAEN, SP","FM-12","99999","V020","320,1,N,0041,1","22000,1,9,N","015000,1,N,1","+0280,1","+0150,1","10105,1","06,0000,9,1",,,,,"03,99,1,00,1,00,1,99999,9,00,1,02,1",,"99999,9,09470,1","8,1,004,1,+999,9",,"SYN072AAXX  21124 08417 12965 33208 10280 20150 39470 40105 58004 60001 80002;","Q01  00002PRCP06"
"08417099999","2010-07-21T15:00:00","4","37.7833333","-3.8166666","580.0","JAEN, SP","FM-12","99999","V020","300,1,N,0031,1","22000,1,9,N","015000,1,N,1","+0304,1","+0145,1","10088,1",,,,,"00,1,+99999,9,99,9","00,99,1,00,1,00,1,99999,9,00,1,00,1",,"99999,9,09458,1","7,1,012,1,+999,9",,"SYN060AAXX  21154 08417 42965 03006 10304 20145 39458 40088 57012;",
"08417099999","2010-07-21T18:00:00","4","37.7833333","-3.8166666","580.0","JAEN, SP","FM-12","99999","V020","270,1,N,0026,1","22000,1,9,N","015000,1,N,1","+0306,1","+0147,1","10085,1","12,0000,9,1",,,,"00,1,+99999,9,99,9","00,99,1,00,1,00,1,99999,9,00,1,00,1","999,M,+0318,1","99999,9,09456,1","7,1,002,1,+999,9",,"SYN076AAXX  21184 08417 12965 02705 10306 20147 39456 40085 57002 60002 333 10318;","Q01  00002PRCP12"
"08417099999","2010-07-23T06:00:00","4","37.7833333","-3.8166666","580.0","JAEN, SP","FM-12","99999","V020","010,1,N,0010,1","22000,1,9,N","015000,1,N,1","+0214,1","+0128,1","10184,1","12,0000,9,1","24,0000,9,1",,,"00,1,+99999,9,99,9","00,99,1,00,1,00,1,99999,9,00,1,00,1","999,N,+0210,1","99999,9,09529,1","2,1,010,1,+999,9","02,1","SYN094AAXX  23064 08417 11965 00102 10214 20128 39529 40184 52010 60002 702// 333 20210 55/// 70000;","Q01  00002PRCP24Q02  00002PRCP12"
"08417099999","2010-07-23T09:00:00","4","37.7833333","-3.8166666","580.0","JAEN, SP","FM-12","99999","V020","070,1,N,0010,1","22000,1,9,N","015000,1,N,1","+0250,1","+0142,1","10181,1",,,,,"00,1,+99999,9,99,9","00,99,1,00,1,00,1,99999,9,00,1,00,1",,"99999,9,09534,1","2,1,005,1,+999,9",,"SYN060AAXX  23094 08417 42965 00702 10250 20142 39534 40181 52005;",
"08417099999","2010-07-23T12:00:00","4","37.7833333","-3.8166666","580.0","JAEN, SP","FM-12","99999","V020","030,1,N,0005,1","22000,1,9,N","015000,1,N,1","+0298,1","+0162,1","10170,1","06,0000,9,1",,,,"00,1,+99999,9,99,9","00,99,1,00,1,00,1,99999,9,00,1,00,1",,"99999,9,09534,1","4,1,000,1,+999,9",,"SYN066AAXX  23124 08417 12965 00301 10298 20162 39534 40170 54000 60001;","Q01  00002PRCP06"
"08417099999","2010-07-23T18:00:00","4","37.7833333","-3.8166666","580.0","JAEN, SP","FM-12","99999","V020","310,1,N,0021,1","22000,1,9,N","015000,1,N,1","+0330,1","+0131,1","10153,1","12,0000,9,1",,,,"00,1,+99999,9,99,9","00,99,1,00,1,00,1,99999,9,00,1,00,1","999,M,+0352,1","99999,9,09524,1","4,1,000,1,+999,9",,"SYN076AAXX  23184 08417 12965 03104 10330 20131 39524 40153 54000 60002 333 10352;","Q01  00002PRCP12"
"08417099999","2010-07-26T06:00:00","4","37.7833333","-3.8166666","580.0","JAEN, SP","FM-12","99999","V020","999,9,C,0000,1","22000,1,9,N","015000,1,N,1","+0250,1","+0150,1","10131,1","12,0000,9,1","24,0000,9,1",,,"00,1,+99999,9,99,9","00,99,1,00,1,00,1,99999,9,00,1,00,1","999,N,+0242,1","99999,9,09488,1","4,1,000,1,+999,9",,"SYN088AAXX  26064 08417 12965 00000 10250 20150 39488 40131 54000 60002 333 20242 55/// 70000;","Q01  00002PRCP24Q02  00002PRCP12"
"08417099999","2010-07-26T09:00:00","4","37.7833333","-3.8166666","580.0","JAEN, SP","FM-12","99999","V020","999,9,C,0000,1","22000,1,9,N","015000,1,N,1","+0278,1","+0130,1","10135,1",,,,,"00,1,+99999,9,99,9","00,99,1,00,1,00,1,99999,9,00,1,00,1",,"99999,9,09497,1","2,1,009,1,+999,9",,"SYN060AAXX  26094 08417 42965 00000 10278 20130 39497 40135 52009;",
"08417099999","2010-07-26T12:00:00","4","37.7833333","-3.8166666","580.0","JAEN, SP","FM-12","99999","V020","999,9,C,0000,1","22000,1,9,N","015000,1,N,1","+0320,1","+0146,1","10124,1","06,0000,9,1",,,,"00,1,+99999,9,99,9","00,99,1,00,1,00,1,99999,9,00,1,00,1",,"99999,9,09495,1","7,1,002,1,+999,9",,"SYN066AAXX  26124 08417 12965 00000 10320 20146 39495 40124 57002 60001;","Q01  00002PRCP06"
"08417099999","2010-07-26T15:00:00","4","37.7833333","-3.8166666","580.0","JAEN, SP","FM-12","99999","V020","340,1,N,0015,1","22000,1,9,N","015000,1,N,1","+0348,1","+0136,1","10102,1",,,,,"00,1,+99999,9,99,9","00,99,1,00,1,00,1,99999,9,00,1,00,1",,"99999,9,09480,1","7,1,015,1,+999,9",,"SYN060AAXX  26154 08417 42965 03403 10348 20136 39480 40102 57015;",
"08417099999","2010-07-26T18:00:00","4","37.7833333","-3.8166666","580.0","JAEN, SP","FM-12","99999","V020","320,1,N,0005,1","22000,1,9,N","015000,1,N,1","+0360,1","+0146,1","10089,1","12,0000,9,1",,,,"00,1,+99999,9,99,9","00,99,1,00,1,00,1,99999,9,00,1,00,1","999,M,+0364,1","99999,9,09470,1","7,1,010,1,+999,9",,"SYN076AAXX  26184 08417 12965 03201 10360 20146 39470 40089 57010 60002 333 10364;","Q01  00002PRCP12"
"08417099999","2010-08-04T06:00:00","4","37.7833333","-3.8166666","580.0","JAEN, SP","FM-12","99999","V020","999,9,C,0000,1","22000,1,9,N","015000,1,N,1","+0230,1","+0132,1","10151,1","12,0000,9,1","24,0000,9,1",,,"00,1,+99999,9,99,9","00,99,1,00,1,00,1,99999,9,00,1,00,1","999,N,+0228,1","99999,9,09502,1","2,1,010,1,+999,9","02,1","SYN094AAXX  04064 08417 11965 00000 10230 20132 39502 40151 52010 60002 702// 333 20228 55/// 70000;","Q01  00002PRCP24Q02  00002PRCP12"
"08417099999","2010-08-04T09:00:00","4","37.7833333","-3.8166666","580.0","JAEN, SP","FM-12","99999","V020","040,1,N,0005,1","22000,1,9,N","015000,1,N,1","+0266,1","+0162,1","10135,1",,,,,"00,1,+99999,9,99,9","00,99,1,00,1,00,1,99999,9,00,1,00,1",,"99999,9,09495,1","7,1,007,1,+999,9",,"SYN060AAXX  04094 08417 42965 00401 10266 20162 39495 40135 57007;",
"08417099999","2010-08-04T12:00:00","4","37.7833333","-3.8166666","580.0","JAEN, SP","FM-12","99999","V020","040,1,N,0005,1","22000,1,9,N","015000,1,N,1","+0304,1","+0178,1","10129,1","06,0000,9,1",,,,"00,1,+99999,9,99,9","00,99,1,00,1,00,1,99999,9,00,1,00,1",,"99999,9,09498,1","3,1,003,1,+999,9",,"SYN066AAXX  04124 08417 12965 00401 10304 20178 39498 40129 53003 60001;","Q01  00002PRCP06"
"08417099999","2010-08-04T15:00:00","4","37.7833333","-3.8166666","580.0","JAEN, SP","FM-12","99999","V020","310,1,N,0021,1","22000,1,9,N","015000,1,N,1","+0330,1","+0180,1","10106,1",,,,,"00,1,+99999,9,99,9","00,99,1,00,1,00,1,99999,9,00,1,00,1",,"99999,9,09481,1","7,1,017,1,+999,9",,"SYN060AAXX  04154 08417 42965 03104 10330 20180 39481 40106 57017;",
"08417099999","2010-08-04T18:00:00","4","37.7833333","-3.8166666","580.0","JAEN, SP","FM-12","99999","V020","290,1,N,0015,1","22000,1,9,N","015000,1,N,1","+0330,1","+0159,1","10096,1","12,0000,9,1",,,,"00,1,+99999,9,99,9","00,99,1,00,1,00,1,99999,9,00,1,00,1","999,M,+0344,1","99999,9,09471,1","7,1,010,1,+999,9",,"SYN076AAXX  04184 08417 12965 02903 10330 20159 39471 40096 57010 60002 333 10344;","Q01  00002PRCP12"
"08417099999","2010-08-06T06:00:00","4","37.7833333","-3.8166666","580.0","JAEN, SP","FM-12","99999","V020","999,9,C,0000,1","22000,1,9,N","015000,1,N,1","+0248,1","+0137,1","10120,1","12,0000,9,1","24,0000,9,1",,,"00,1,+99999,9,99,9","00,99,1,00,1,00,1,99999,9,00,1,00,1","999,N,+0244,1","99999,9,09477,1","2,1,012,1,+999,9","02,1","SYN094AAXX  06064 08417 11965 00000 10248 20137 39477 40120 52012 60002 702// 333 20244 55/// 70000;","Q01  00002PRCP24Q02  00002PRCP12"
"08417099999","2010-08-06T09:00:00","4","37.7833333","-3.8166666","580.0","JAEN, SP","FM-12","99999","V020","070,1,N,0021,1","22000,1,9,N","015000,1,N,1","+0294,1","+0162,1","10122,1",,,,,"00,1,+99999,9,99,9","00,99,1,00,1,00,1,99999,9,00,1,00,1",,"99999,9,09489,1","2,1,012,1,+999,9",,"SYN060AAXX  06094 08417 42965 00704 10294 20162 39489 40122 52012;",
"08417099999","2010-08-06T12:00:00","4","37.7833333","-3.8166666","580.0","JAEN, SP","FM-12","99999","V020","050,1,N,0005,1","22000,1,9,N","015000,1,N,1","+0320,1","+0178,1","10113,1","06,0000,9,1",,,,"00,1,+99999,9,99,9","00,99,1,00,1,00,1,99999,9,00,1,00,1",,"99999,9,09486,1","8,1,003,1,+999,9",,"SYN066AAXX  06124 08417 12965 00501 10320 20178 39486 40113 58003 60001;","Q01  00002PRCP06"
"08417099999","2010-08-06T18:00:00","4","37.7833333","-3.8166666","580.0","JAEN, SP","FM-12","99999","V020","010,1,N,0010,1","22000,1,9,N","015000,1,N,1","+0360,1","+0177,1","10087,1","12,0000,9,1",,,,"00,1,+99999,9,99,9","00,99,1,00,1,00,1,99999,9,00,1,00,1","999,M,+0364,1","99999,9,09469,1","4,1,000,1,+999,9",,"SYN076AAXX  06184 08417 12965 00102 10360 20177 39469 40087 54000 60002 333 10364;","Q01  00002PRCP12"
"08417099999","2010-08-09T06:00:00","4","37.7833333","-3.8166666","580.0","JAEN, SP","FM-12","99999","V020","999,9,C,0000,1","99999,9,9,N","015000,1,N,1","+0260,1","+0141,1","10161,1","12,0000,9,1","24,0000,9,1",,,,"05,99,1,02,1,00,1,99999,9,03,1,08,1","999,N,+0256,1","99999,9,09518,1","4,1,000,1,+999,9","02,1","SYN100AAXX  09064 08417 11965 50000 10260 20141 39518 40161 54000 60002 702// 82038 333 20256 55/// 70000;","Q01  00002PRCP24Q02  00002PRCP12"
"08417099999","2010-08-09T09:00:00","4","37.7833333","-3.8166666","580.0","JAEN, SP","FM-12","99999","V020","080,1,N,0005,1","99999,9,9,N","015000,1,N,1","+0288,1","+0164,1","10165,1",,,,,,"06,99,1,03,1,00,1,99999,9,01,1,02,1",,"99999,9,09528,1","2,1,010,1,+999,9",,"SYN066AAXX  09094 08417 42965 60801 10288 20164 39528 40165 52010 83012;",
"08417099999","2010-08-09T12:00:00","4","37.7833333","-3.8166666","580.0","JAEN, SP","FM-12","99999","V020","060,1,N,0005,1","22000,1,9,N","015000,1,N,1","+0338,1","+0166,1","10150,1","06,0000,9,1",,,,,"03,99,1,00,1,00,1,99999,9,00,1,05,1",,"99999,9,09524,1","8,1,004,1,+999,9",,"SYN072AAXX  09124 08417 12965 30601 10338 20166 39524 40150 58004 60001 80005;","Q01  00002PRCP06"
"08417099999","2010-08-09T15:00:00","4","37.7833333","-3.8166666","580.0","JAEN, SP","FM-12","99999","V020","020,1,N,0010,1","22000,1,9,N","015000,1,N,1","+0363,1","+0174,1","10125,1",,,,,,"03,99,1,01,1,00,1,99999,9,03,1,09,1",,"99999,9,09505,1","7,1,019,1,+999,9",,"SYN066AAXX  09154 08417 42965 30202 10363 20174 39505 40125 57019 81039;",
"08417099999","2010-08-09T18:00:00","4","37.7833333","-3.8166666","580.0","JAEN, SP","FM-12","99999","V020","330,1,N,0021,1","22000,1,9,N","015000,1,N,1","+0354,1","+0167,1","10125,1","12,0000,9,1",,,,,"01,99,1,00,1,00,1,99999,9,00,1,09,1","999,M,+0374,1","99999,9,09503,1","8,1,002,1,+999,9",,"SYN082AAXX  09184 08417 12965 13304 10354 20167 39503 40125 58002 60002 80009 333 10374;","Q01  00002PRCP12"
"08417099999","2010-08-11T06:00:00","4","37.7833333","-3.8166666","580.0","JAEN, SP","FM-12","99999","V020","999,9,C,0000,1","22000,1,9,N","015000,1,N,1","+0256,1","+0138,1","10184,1","12,0000,9,1","24,0000,9,1",,,"00,1,+99999,9,99,9","00,99,1,00,1,00,1,99999,9,00,1,00,1","999,N,+0254,1","99999,9,09538,1","4,1,000,1,+999,9","02,1","SYN094AAXX  11064 08417 11965 00000 10256 20138 39538 40184 54000 60002 702// 333 20254 55/// 70000;","Q01  00002PRCP24Q02  00002PRCP12"
"08417099999","2010-08-11T09:00:00","4","37.7833333","-3.8166666","580.0","JAEN, SP","FM-12","99999","V020","360,1,N,0005,1","22000,1,9,N","015000,1,N,1","+0290,1","+0159,1","10181,1",,,,,"00,1,+99999,9,99,9","00,99,1,00,1,00,1,99999,9,00,1,00,1",,"99999,9,09543,1","2,1,005,1,+999,9",,"SYN060AAXX  11094 08417 42965 03601 10290 20159 39543 40181 52005;",
"08417099999","2010-08-11T12:00:00","4","37.7833333","-3.8166666","580.0","JAEN, SP","FM-12","99999","V020","320,1,N,0021,1","22000,1,9,N","015000,1,N,1","+0336,1","+0173,1","10164,1","06,0000,9,1",,,,"00,1,+99999,9,99,9","00,99,1,00,1,00,1,99999,9,00,1,00,1",,"99999,9,09537,1","8,1,006,1,+999,9",,"SYN066AAXX  11124 08417 12965 03204 10336 20173 39537 40164 58006 60001;","Q01  00002PRCP06"
"08417099999","2010-08-11T15:00:00","4","37.7833333","-3.8166666","580.0","JAEN, SP","FM-12","99999","V020","270,1,N,0031,1","22000,1,9,N","015000,1,N,1","+0364,1","+0180,1","10138,1",,,,,,"01,99,1,00,1,00,1,99999,9,00,1,09,1",,"99999,9,09518,1","7,1,019,1,+999,9",,"SYN066AAXX  11154 08417 42965 12706 10364 20180 39518 40138 57019 80009;",
"08417099999","2010-08-11T18:00:00","4","37.7833333","-3.8166666","580.0","JAEN, SP","FM-12","99999","V020","310,1,N,0026,1","22000,1,9,N","012000,1,N,1","+0358,1","+0165,1","10131,1","12,0000,9,1",,,,,"02,99,1,02,1,02,1,00800,1,00,1,00,1","999,M,+0378,1","99999,9,09510,1","7,1,008,1,+999,9",,"SYN082AAXX  11184 08417 12562 23105 10358 20165 39510 40131 57008 60002 82200 333 10378;","Q01  00002PRCP12"
"08417099999","2010-08-13T06:00:00","4","37.7833333","-3.8166666","580.0","JAEN, SP","FM-12","99999","V020","999,9,C,0000,1","22000,1,9,N","015000,1,N,1","+0244,1","+0092,1","10117,1","12,0000,9,1","24,0000,9,1",,,"00,1,+99999,9,99,9","00,99,1,00,1,00,1,99999,9,00,1,00,1","999,N,+0232,1","99999,9,09472,1","4,1,000,1,+999,9","02,1","SYN094AAXX  13064 08417 11965 00000 10244 20092 39472 40117 54000 60002 702// 333 20232 55/// 70000;","Q01  00002PRCP24Q02  00002PRCP12"
"08417099999","2010-08-13T09:00:00","4","37.7833333","-3.8166666","580.0","JAEN, SP","FM-12","99999","V020","330,1,N,0005,1","22000,1,9,N","015000,1,N,1","+0268,1","+0135,1","10122,1",,,,,"00,1,+99999,9,99,9","00,99,1,00,1,00,1,99999,9,00,1,00,1",,"99999,9,09483,1","2,1,011,1,+999,9",,"SYN060AAXX  13094 08417 42965 03301 10268 20135 39483 40122 52011;",
"08417099999","2010-08-13T12:00:00","4","37.7833333","-3.8166666","580.0","JAEN, SP","FM-12","99999","V020","320,1,N,0036,1","22000,1,9,N","015000,1,N,1","+0298,1","+0144,1","10110,1","06,0000,9,1",,,,"00,1,+99999,9,99,9","00,99,1,00,1,00,1,99999,9,00,1,00,1",,"99999,9,09478,1","8,1,005,1,+999,9",,"SYN066AAXX  13124 08417 12965 03207 10298 20144 39478 40110 58005 60001;","Q01  00002PRCP06"
"08417099999","2010-08-13T15:00:00","4","37.7833333","-3.8166666","580.0","JAEN, SP","FM-12","99999","V020","300,1,N,0031,1","22000,1,9,N","015000,1,N,1","+0304,1","+0153,1","10100,1",,,,,"00,1,+99999,9,99,9","00,99,1,00,1,00,1,99999,9,00,1,00,1",,"99999,9,09470,1","7,1,008,1,+999,9",,"SYN060AAXX  13154 08417 42965 03006 10304 20153 39470 40100 57008;",
"08417099999","2010-08-13T18:00:00","4","37.7833333","-3.8166666","580.0","JAEN, SP","FM-12","99999","V020","270,1,N,0036,1","22000,1,9,N","015000,1,N,1","+0304,1","+0128,1","10087,1","12,0000,9,1",,,,"00,1,+99999,9,99,9","00,99,1,00,1,00,1,99999,9,00,1,00,1","999,M,+0318,1","99999,9,09457,1","7,1,013,1,+999,9",,"SYN076AAXX  13184 08417 12965 02707 10304 20128 39457 40087 57013 60002 333 10318;","Q01  00002PRCP12"
"08417099999","2010-08-18T06:00:00","4","37.7833333","-3.8166666","580.0","JAEN, SP","FM-12","99999","V020","170,1,N,0010,1","01200,1,9,N","012000,1,N,1","+0190,1","+0159,1","10168,1","12,0000,9,1","24,0000,9,1",,,,"06,99,1,05,1,08,1,00800,1,07,1,00,1","999,N,+0190,1","99999,9,09510,1","4,1,000,1,+999,9","02,1","SYN100AAXX  18064 08417 11562 61702 10190 20159 39510 40168 54000 60002 702// 85870 333 20190 55/// 70000;","Q01  00002PRCP24Q02  00002PRCP12"
"08417099999","2010-08-18T09:00:00","4","37.7833333","-3.8166666","580.0","JAEN, SP","FM-12","99999","V020","010,1,N,0005,1","22000,1,9,N","015000,1,N,1","+0224,1","+0155,1","10166,1",,,,,,"01,99,1,01,1,08,1,00800,1,00,1,00,1",,"99999,9,09515,1","1,1,005,1,+999,9",,"SYN066AAXX  18094 08417 42565 10101 10224 20155 39515 40166 51005 81800;",
"08417099999","2010-08-18T12:00:00","4","37.7833333","-3.8166666","580.0","JAEN, SP","FM-12","99999","V020","010,1,N,0010,1","03600,1,9,N","015000,1,N,1","+0248,1","+0140,1","10152,1","06,0000,9,1",,,,,"05,99,1,04,1,02,1,00800,1,07,1,00,1",,"99999,9,09507,1","7,1,008,1,+999,9",,"SYN072AAXX  18124 08417 12565 50102 10248 20140 39507 40152 57008 60001 84270;","Q01  00002PRCP06"
"08417099999","2010-08-19T09:00:00","4","37.7833333","-3.8166666","580.0","JAEN, SP","FM-12","99999","V020","180,1,N,0021,1","03600,1,9,N","010000,1,N,1","+0194,1","+0159,1","10156,1",,,"2,1,03,1","2,1,03,1",,"07,99,1,01,1,08,1,00800,1,07,1,00,1",,"99999,9,09500,1","2,1,006,1,+999,9","21,1","SYN072AAXX  19094 08417 41560 71804 10194 20159 39500 40156 52006 72122 81870;",
"08417099999","2010-08-19T12:00:00","4","37.7833333","-3.8166666","580.0","JAEN, SP","FM-12","99999","V020","080,1,N,0010,1","03600,1,9,N","015000,1,N,1","+0236,1","+0140,1","10154,1","06,0030,9,1",,"6,1,06,1","6,1,06,1",,"06,99,1,03,1,02,1,00800,1,06,1,00,1",,"99999,9,09506,1","2,1,006,1,+999,9","02,1","SYN078AAXX  19124 08417 11565 60802 10236 20140 39506 40154 52006 60031 70266 83260;",
"08417099999","2010-08-19T15:00:00","4","37.7833333","-3.8166666","580.0","JAEN, SP","FM-12","99999","V020","350,1,N,0010,1","22000,1,9,N","015000,1,N,1","+0280,1","+0139,1","10126,1",,,,,,"02,99,1,02,1,02,1,00800,1,00,1,00,1",,"99999,9,09489,1","8,1,017,1,+999,9",,"SYN066AAXX  19154 08417 42565 23502 10280 20139 39489 40126 58017 82200;",
"08417099999","2010-08-19T18:00:00","4","37.7833333","-3.8166666","580.0","JAEN, SP","FM-12","99999","V020","330,1,N,0036,1","22000,1,9,N","015000,1,N,1","+0282,1","+0129,1","10139,1","12,0030,9,1",,,,"00,1,+99999,9,99,9","00,99,1,00,1,00,1,99999,9,00,1,00,1","999,M,+0288,1","99999,9,09501,1","2,1,012,1,+999,9",,"SYN076AAXX  19184 08417 12965 03307 10282 20129 39501 40139 52012 60032 333 10288;",
"08417099999","2010-08-20T09:00:00","4","37.7833333","-3.8166666","580.0","JAEN, SP","FM-12","99999","V020","010,1,N,0010,1","22000,1,9,N","015000,1,N,1","+0250,1","+0159,1","10195,1",,,,,"00,1,+99999,9,99,9","00,99,1,00,1,00,1,99999,9,00,1,00,1",,"99999,9,09548,1","2,1,016,1,+999,9",,"SYN060AAXX  20094 08417 42965 00102 10250 20159 39548 40195 52016;",
"08417099999","2010-08-23T06:00:00","4","37.7833333","-3.8166666","580.0","JAEN, SP","FM-12","99999","V020","999,9,C,0000,1","22000,1,9,N","015000,1,N,1","+0238,1","+0153,1","10159,1","12,0000,9,1","24,0000,9,1",,,"00,1,+99999,9,99,9","00,99,1,00,1,00,1,99999,9,00,1,00,1","999,N,+0236,1","99999,9,09512,1","4,1,000,1,+999,9","02,1","SYN094AAXX  23064 08417 11965 00000 10238 20153 39512 40159 54000 60002 702// 333 20236 55/// 70000;","Q01  00002PRCP24Q02  00002PRCP12"
"08417099999","2010-08-23T09:00:00","4","37.7833333","-3.8166666","580.0","JAEN, SP","FM-12","99999","V020","999,9,C,0000,1","22000,1,9,N","015000,1,N,1","+0274,1","+0173,1","10157,1",,,,,"00,1,+99999,9,99,9","00,99,1,00,1,00,1,99999,9,00,1,00,1",,"99999,9,09518,1","2,1,006,1,+999,9",,"SYN060AAXX  23094 08417 42965 00000 10274 20173 39518 40157 52006;",
"08417099999","2010-08-23T12:00:00","4","37.7833333","-3.8166666","580.0","JAEN, SP","FM-12","99999","V020","330,1,N,0041,1","22000,1,9,N","015000,1,N,1","+0308,1","+0160,1","10143,1","06,0000,9,1",,,,"00,1,+99999,9,99,9","00,99,1,00,1,00,1,99999,9,00,1,00,1",,"99999,9,09511,1","7,1,007,1,+999,9",,"SYN066AAXX  23124 08417 12965 03308 10308 20160 39511 40143 57007 60001;","Q01  00002PRCP06"
"08417099999","2010-08-23T15:00:00","4","37.7833333","-3.8166666","580.0","JAEN, SP","FM-12","99999","V020","999,9,C,0000,1","22000,1,9,N","015000,1,N,1","+0334,1","+0140,1","10128,1",,,,,"00,1,+99999,9,99,9","00,99,1,00,1,00,1,99999,9,00,1,00,1",,"99999,9,09502,1","7,1,009,1,+999,9",,"SYN060AAXX  23154 08417 42965 00000 10334 20140 39502 40128 57009;",
"08417099999","2010-08-23T18:00:00","4","37.7833333","-3.8166666","580.0","JAEN, SP","FM-12","99999","V020","280,1,N,0021,1","22000,1,9,N","015000,1,N,1","+0320,1","+0132,1","10121,1","12,0000,9,1",,,,"00,1,+99999,9,99,9","00,99,1,00,1,00,1,99999,9,00,1,00,1","999,M,+0338,1","99999,9,09492,1","7,1,010,1,+999,9",,"SYN076AAXX  23184 08417 12965 02804 10320 20132 39492 40121 57010 60002 333 10338;","Q01  00002PRCP12"
"08417099999","2010-08-25T06:00:00","4","37.7833333","-3.8166666","580.0","JAEN, SP","FM-12","99999","V020","150,1,N,0021,1","22000,1,9,N","015000,1,N,1","+0258,1","+0096,1","10169,1","12,0000,9,1","24,0000,9,1",,,"00,1,+99999,9,99,9","00,99,1,00,1,00,1,99999,9,00,1,00,1","999,N,+0240,1","99999,9,09524,1","5,1,000,1,+999,9","02,1","SYN094AAXX  25064 08417 11965 01504 10258 20096 39524 40169 55000 60002 702// 333 20240 55/// 70000;","Q01  00002PRCP24Q02  00002PRCP12"
"08417099999","2010-08-25T09:00:00","4","37.7833333","-3.8166666","580.0","JAEN, SP","FM-12","99999","V020","999,9,C,0000,1","22000,1,9,N","015000,1,N,1","+0280,1","+0124,1","10172,1",,,,,"00,1,+99999,9,99,9","00,99,1,00,1,00,1,99999,9,00,1,00,1",,"99999,9,09532,1","2,1,008,1,+999,9",,"SYN060AAXX  25094 08417 42965 00000 10280 20124 39532 40172 52008;",
"08417099999","2010-08-25T12:00:00","4","37.7833333","-3.8166666","580.0","JAEN, SP","FM-12","99999","V020","360,1,N,0010,1","22000,1,9,N","015000,1,N,1","+0326,1","+0142,1","10169,1","06,0000,9,1",,,,"00,1,+99999,9,99,9","00,99,1,00,1,00,1,99999,9,00,1,00,1",,"99999,9,09539,1","0,1,007,1,+999,9",,"SYN066AAXX  25124 08417 12965 03602 10326 20142 39539 40169 50007 60001;","Q01  00002PRCP06"
"08417099999","2010-08-25T15:00:00","4","37.7833333","-3.8166666","580.0","JAEN, SP","FM-12","99999","V020","340,1,N,0021,1","22000,1,9,N","015000,1,N,1","+0360,1","+0141,1","10146,1",,,,,"00,1,+99999,9,99,9","00,99,1,00,1,00,1,99999,9,00,1,00,1",,"99999,9,09524,1","7,1,015,1,+999,9",,"SYN060AAXX  25154 08417 42965 03404 10360 20141 39524 40146 57015;",
"08417099999","2010-08-25T18:00:00","4","37.7833333","-3.8166666","580.0","JAEN, SP","FM-12","99999","V020","330,1,N,0026,1","22000,1,9,N","015000,1,N,1","+0352,1","+0128,1","10144,1","12,0000,9,1",,,,"00,1,+99999,9,99,9","00,99,1,00,1,00,1,99999,9,00,1,00,1","999,M,+0372,1","99999,9,09520,1","7,1,004,1,+999,9",,"SYN076AAXX  25184 08417 12965 03305 10352 20128 39520 40144 57004 60002 333 10372;","Q01  00002PRCP12"
"08417099999","2010-08-27T06:00:00","4","37.7833333","-3.8166666","580.0","JAEN, SP","FM-12","99999","V020","999,9,C,0000,1","22000,1,9,N","015000,1,N,1","+0266,1","+0111,1","10157,1","12,0000,9,1","24,0000,9,1",,,"00,1,+99999,9,99,9","00,99,1,00,1,00,1,99999,9,00,1,00,1","999,N,+0266,1","99999,9,09514,1","7,1,004,1,+999,9","02,1","SYN094AAXX  27064 08417 11965 00000 10266 20111 39514 40157 57004 60002 702// 333 20266 55/// 70000;","Q01  00002PRCP24Q02  00002PRCP12"
"08417099999","2010-08-27T09:00:00","4","37.7833333","-3.8166666","580.0","JAEN, SP","FM-12","99999","V020","999,9,C,0000,1","22000,1,9,N","015000,1,N,1","+0302,1","+0130,1","10162,1",,,,,"00,1,+99999,9,99,9","00,99,1,00,1,00,1,99999,9,00,1,00,1",,"99999,9,09527,1","2,1,013,1,+999,9",,"SYN060AAXX  27094 08417 42965 00000 10302 20130 39527 40162 52013;",
"08417099999","2010-08-27T12:00:00","4","37.7833333","-3.8166666","580.0","JAEN, SP","FM-12","99999","V020","350,1,N,0015,1","22000,1,9,N","015000,1,N,1","+0346,1","+0145,1","10149,1","06,0000,9,1",,,,"00,1,+99999,9,99,9","00,99,1,00,1,00,1,99999,9,00,1,00,1",,"99999,9,09524,1","8,1,003,1,+999,9",,"SYN066AAXX  27124 08417 12965 03503 10346 20145 39524 40149 58003 60001;","Q01  00002PRCP06"
"08417099999","2010-08-27T15:00:00","4","37.7833333","-3.8166666","580.0","JAEN, SP","FM-12","99999","V020","310,1,N,0031,1","22000,1,9,N","015000,1,N,1","+0370,1","+0143,1","10133,1",,,,,"00,1,+99999,9,99,9","00,99,1,00,1,00,1,99999,9,00,1,00,1",,"99999,9,09513,1","7,1,011,1,+999,9",,"SYN060AAXX  27154 08417 42965 03106 10370 20143 39513 40133 57011;",
"08417099999","2010-08-27T18:00:00","4","37.7833333","-3.8166666","580.0","JAEN, SP","FM-12","99999","V020","280,1,N,0021,1","22000,1,9,N","015000,1,N,1","+0358,1","+0127,1","10126,1","12,0000,9,1",,,,"00,1,+99999,9,99,9","00,99,1,00,1,00,1,99999,9,00,1,00,1","999,M,+0378,1","99999,9,09504,1","6,1,009,1,+999,9",,"SYN076AAXX  27184 08417 12965 02804 10358 20127 39504 40126 56009 60002 333 10378;","Q01  00002PRCP12"
"08417099999","2010-08-30T06:00:00","4","37.7833333","-3.8166666","580.0","JAEN, SP","FM-12","99999","V020","999,9,C,0000,1","22000,1,9,N","012000,1,N,1","+0246,1","+0155,1","10157,1","12,0000,9,1","24,0000,9,1",,,"00,1,+99999,9,99,9","00,99,1,00,1,00,1,99999,9,00,1,00,1","999,N,+0236,1","99999,9,09511,1","3,1,006,1,+999,9","02,1","SYN094AAXX  30064 08417 11962 00000 10246 20155 39511 40157 53006 60002 702// 333 20236 55/// 70000;","Q01  00002PRCP24Q02  00002PRCP12"
"08417099999","2010-08-30T09:00:00","4","37.7833333","-3.8166666","580.0","JAEN, SP","FM-12","99999","V020","060,1,N,0010,1","22000,1,9,N","015000,1,N,1","+0272,1","+0174,1","10156,1",,,,,"00,1,+99999,9,99,9","00,99,1,00,1,00,1,99999,9,00,1,00,1",,"99999,9,09516,1","1,1,005,1,+999,9",,"SYN060AAXX  30094 08417 42965 00602 10272 20174 39516 40156 51005;",
"08417099999","2010-08-30T12:00:00","4","37.7833333","-3.8166666","580.0","JAEN, SP","FM-12","99999","V020","050,1,N,0010,1","22000,1,9,N","015000,1,N,1","+0308,1","+0182,1","10139,1","06,0000,9,1",,,,"00,1,+99999,9,99,9","00,99,1,00,1,00,1,99999,9,00,1,00,1",,"99999,9,09508,1","8,1,008,1,+999,9",,"SYN066AAXX  30124 08417 12965 00502 10308 20182 39508 40139 58008 60001;","Q01  00002PRCP06"
"08417099999","2010-08-30T15:00:00","4","37.7833333","-3.8166666","580.0","JAEN, SP","FM-12","99999","V020","080,1,N,0010,1","22000,1,9,N","015000,1,N,1","+0358,1","+0155,1","10100,1",,,,,"00,1,+99999,9,99,9","00,99,1,00,1,00,1,99999,9,00,1,00,1",,"99999,9,09480,1","7,1,028,1,+999,9",,"SYN060AAXX  30154 08417 42965 00802 10358 20155 39480 40100 57028;",
"08417099999","2010-08-30T18:00:00","4","37.7833333","-3.8166666","580.0","JAEN, SP","FM-12","99999","V020","999,9,C,0000,1","22000,1,9,N","015000,1,N,1","+0364,1","+0138,1","10088,1","12,0000,9,1",,,,"00,1,+99999,9,99,9","00,99,1,00,1,00,1,99999,9,00,1,00,1","999,M,+0374,1","99999,9,09470,1","7,1,010,1,+999,9",,"SYN076AAXX  30184 08417 12965 00000 10364 20138 39470 40088 57010 60002 333 10374;","Q01  00002PRCP12"
"08417099999","2010-09-01T06:00:00","4","37.7833333","-3.8166666","580.0","JAEN, SP","FM-12","99999","V020","030,1,N,0026,1","22000,1,9,N","015000,1,N,1","+0230,1","+0153,1","10100,1","12,0000,9,1","24,0000,9,1",,,,"03,99,1,03,1,00,1,99999,9,08,1,00,1","999,N,+0230,1","99999,9,09455,1","7,1,003,1,+999,9","02,1","SYN100AAXX  01064 08417 11965 30305 10230 20153 39455 40100 57003 60002 702// 83080 333 20230 55/// 70000;","Q01  00002PRCP24Q02  00002PRCP12"
"08417099999","2010-09-01T09:00:00","4","37.7833333","-3.8166666","580.0","JAEN, SP","FM-12","99999","V020","070,1,N,0010,1","22000,1,9,N","012000,1,N,1","+0256,1","+0156,1","10102,1",,,,,"00,1,+99999,9,99,9","00,99,1,00,1,00,1,99999,9,00,1,00,1",,"99999,9,09462,1","2,1,007,1,+999,9",,"SYN060AAXX  01094 08417 42962 00702 10256 20156 39462 40102 52007;",
"08417099999","2010-09-01T12:00:00","4","37.7833333","-3.8166666","580.0","JAEN, SP","FM-12","99999","V020","360,1,N,0010,1","22000,1,9,N","015000,1,N,1","+0286,1","+0162,1","10094,1","06,0000,9,1",,,,,"02,99,1,01,1,02,1,00800,1,00,1,01,1",,"99999,9,09461,1","8,1,001,1,+999,9",,"SYN072AAXX  01124 08417 12565 23602 10286 20162 39461 40094 58001 60001 81201;","Q01  00002PRCP06"
"08417099999","2010-09-01T18:00:00","4","37.7833333","-3.8166666","580.0","JAEN, SP","FM-12","99999","V020","290,1,N,0026,1","22000,1,9,N","015000,1,N,1","+0292,1","+0142,1","10072,1","12,0000,9,1",,,,,"01,99,1,01,1,02,1,00800,1,00,1,00,1","999,M,+0314,1","99999,9,09441,1","6,1,005,1,+999,9",,"SYN082AAXX  01184 08417 12565 12905 10292 20142 39441 40072 56005 60002 81200 333 10314;","Q01  00002PRCP12"
"08417099999","2010-09-03T06:00:00","4","37.7833333","-3.8166666","580.0","JAEN, SP","FM-12","99999","V020","999,9,C,0000,1","22000,1,9,N","012000,1,N,1","+0212,1","+0121,1","10165,1","12,0000,9,1","24,0000,9,1",,,"00,1,+99999,9,99,9","00,99,1,00,1,00,1,99999,9,00,1,00,1","999,N,+0212,1","99999,9,09511,1","3,1,003,1,+999,9","02,1","SYN094AAXX  03064 08417 11962 00000 10212 20121 39511 40165 53003 60002 702// 333 20212 55/// 70000;","Q01  00002PRCP24Q02  00002PRCP12"
"08417099999","2010-09-03T09:00:00","4","37.7833333","-3.8166666","580.0","JAEN, SP","FM-12","99999","V020","010,1,N,0005,1","22000,1,9,N","015000,1,N,1","+0248,1","+0134,1","10171,1",,,,,"00,1,+99999,9,99,9","00,99,1,00,1,00,1,99999,9,00,1,00,1",,"99999,9,09524,1","2,1,013,1,+999,9",,"SYN060AAXX  03094 08417 42965 00101 10248 20134 39524 40171 52013;",
"08417099999","2010-09-03T12:00:00","4","37.7833333","-3.8166666","580.0","JAEN, SP","FM-12","99999","V020","010,1,N,0010,1","22000,1,9,N","015000,1,N,1","+0282,1","+0137,1","10163,1","06,0000,9,1",,,,"00,1,+99999,9,99,9","00,99,1,00,1,00,1,99999,9,00,1,00,1",,"99999,9,09524,1","0,1,000,1,+999,9",,"SYN066AAXX  03124 08417 12965 00102 10282 20137 39524 40163 50000 60001;","Q01  00002PRCP06"
"08417099999","2010-09-03T15:00:00","4","37.7833333","-3.8166666","580.0","JAEN, SP","FM-12","99999","V020","050,1,N,0005,1","22000,1,9,N","015000,1,N,1","+0312,1","+0139,1","10141,1",,,,,,"03,99,1,03,1,02,1,00800,1,00,1,00,1",,"99999,9,09509,1","7,1,015,1,+999,9",,"SYN066AAXX  03154 08417 42565 30501 10312 20139 39509 40141 57015 83200;",
"08417099999","2010-09-03T18:00:00","4","37.7833333","-3.8166666","580.0","JAEN, SP","FM-12","99999","V020","999,9,C,0000,1","22000,1,9,N","015000,1,N,1","+0306,1","+0134,1","10139,1","12,0000,9,1",,,,"00,1,+99999,9,99,9","00,99,1,00,1,00,1,99999,9,00,1,00,1","999,M,+0322,1","99999,9,09506,1","6,1,003,1,+999,9",,"SYN076AAXX  03184 08417 12965 00000 10306 20134 39506 40139 56003 60002 333 10322;","Q01  00002PRCP12"
"08417099999","2010-09-06T06:00:00","4","37.7833333","-3.8166666","580.0","JAEN, SP","FM-12","99999","V020","160,1,N,0010,1","22000,1,9,N","015000,1,N,1","+0226,1","+0101,1","10152,1","12,0000,9,1","24,0000,9,1",,,"00,1,+99999,9,99,9","00,99,1,00,1,00,1,99999,9,00,1,00,1","999,N,+0212,1","99999,9,09501,1","4,1,000,1,+999,9","02,1","SYN094AAXX  06064 08417 11965 01602 10226 20101 39501 40152 54000 60002 702// 333 20212 55/// 70000;","Q01  00002PRCP24Q02  00002PRCP12"
"08417099999","2010-09-06T09:00:00","4","37.7833333","-3.8166666","580.0","JAEN, SP","FM-12","99999","V020","030,1,N,0010,1","22000,1,9,N","015000,1,N,1","+0260,1","+0110,1","10143,1",,,,,"00,1,+99999,9,99,9","00,99,1,00,1,00,1,99999,9,00,1,00,1",,"99999,9,09500,1","8,1,001,1,+999,9",,"SYN060AAXX  06094 08417 42965 00302 10260 20110 39500 40143 58001;",
"08417099999","2010-09-06T12:00:00","4","37.7833333","-3.8166666","580.0","JAEN, SP","FM-12","99999","V020","340,1,N,0015,1","22000,1,9,N","015000,1,N,1","+0284,1","+0123,1","10130,1","06,0000,9,1",,,,"00,1,+99999,9,99,9","00,99,1,00,1,00,1,99999,9,00,1,00,1",,"99999,9,09493,1","8,1,007,1,+999,9",,"SYN066AAXX  06124 08417 12965 03403 10284 20123 39493 40130 58007 60001;","Q01  00002PRCP06"
"08417099999","2010-09-06T15:00:00","4","37.7833333","-3.8166666","580.0","JAEN, SP","FM-12","99999","V020","310,1,N,0031,1","22000,1,9,N","015000,1,N,1","+0312,1","+0105,1","10100,1",,,,,"00,1,+99999,9,99,9","00,99,1,00,1,00,1,99999,9,00,1,00,1",,"99999,9,09470,1","7,1,023,1,+999,9",,"SYN060AAXX  06154 08417 42965 03106 10312 20105 39470 40100 57023;",
"08417099999","2010-09-06T18:00:00","4","37.7833333","-3.8166666","580.0","JAEN, SP","FM-12","99999","V020","270,1,N,0026,1","22000,1,9,N","015000,1,N,1","+0302,1","+0102,1","10093,1","12,0000,9,1",,,,"00,1,+99999,9,99,9","00,99,1,00,1,00,1,99999,9,00,1,00,1","999,M,+0318,1","99999,9,09462,1","7,1,008,1,+999,9",,"SYN076AAXX  06184 08417 12965 02705 10302 20102 39462 40093 57008 60002 333 10318;","Q01  00002PRCP12"
"08417099999","2010-09-08T06:00:00","4","37.7833333","-3.8166666","580.0","JAEN, SP","FM-12","99999","V020","280,1,N,0015,1","22000,1,9,N","015000,1,N,1","+0178,1","+0143,1","10152,1","12,0000,9,1","24,0000,9,1",,,,"03,99,1,03,1,02,1,00800,1,00,1,00,1","999,N,+0176,1","99999,9,09492,1","2,1,007,1,+999,9","02,1","SYN100AAXX  08064 08417 11565 32803 10178 20143 39492 40152 52007 60002 702// 83200 333 20176 55/// 70000;","Q01  00002PRCP24Q02  00002PRCP12"
"08417099999","2010-09-08T09:00:00","4","37.7833333","-3.8166666","580.0","JAEN, SP","FM-12","99999","V020","310,1,N,0021,1","22000,1,9,N","015000,1,N,1","+0194,1","+0129,1","10159,1",,,,,,"03,99,1,03,1,02,1,00800,1,00,1,00,1",,"99999,9,09502,1","2,1,010,1,+999,9",,"SYN066AAXX  08094 08417 42565 33104 10194 20129 39502 40159 52010 83200;",
"08417099999","2010-09-08T12:00:00","4","37.7833333","-3.8166666","580.0","JAEN, SP","FM-12","99999","V020","310,1,N,0036,1","22000,1,9,N","015000,1,N,1","+0226,1","+0117,1","10154,1","06,0000,9,1",,,,,"03,99,1,03,1,02,1,00800,1,00,1,00,1",,"99999,9,09503,1","0,1,001,1,+999,9",,"SYN072AAXX  08124 08417 12565 33107 10226 20117 39503 40154 50001 60001 83200;","Q01  00002PRCP06"
"08417099999","2010-09-08T15:00:00","4","37.7833333","-3.8166666","580.0","JAEN, SP","FM-12","99999","V020","310,1,N,0021,1","22000,1,9,N","015000,1,N,1","+0236,1","+0099,1","10150,1",,,,,,"03,99,1,00,1,00,1,99999,9,00,1,01,1",,"99999,9,09501,1","6,1,002,1,+999,9",,"SYN066AAXX  08154 08417 42965 33104 10236 20099 39501 40150 56002 80001;",
"08417099999","2010-09-08T18:00:00","4","37.7833333","-3.8166666","580.0","JAEN, SP","FM-12","99999","V020","290,1,N,0015,1","22000,1,9,N","015000,1,N,1","+0232,1","+0092,1","10157,1","12,0000,9,1",,,,"00,1,+99999,9,99,9","00,99,1,00,1,00,1,99999,9,00,1,00,1","999,M,+0248,1","99999,9,09507,1","3,1,006,1,+999,9",,"SYN076AAXX  08184 08417 12965 02903 10232 20092 39507 40157 53006 60002 333 10248;","Q01  00002PRCP12"
"08417099999","2010-09-10T06:00:00","4","37.7833333","-3.8166666","580.0","JAEN, SP","FM-12","99999","V020","100,1,N,0010,1","22000,1,9,N","015000,1,N,1","+0204,1","+0071,1","10209,1","12,0000,9,1","24,0000,9,1",,,"00,1,+99999,9,99,9","00,99,1,00,1,00,1,99999,9,00,1,00,1","999,N,+0204,1","99999,9,09549,1","4,1,000,1,+999,9","02,1","SYN094AAXX  10064 08417 11965 01002 10204 20071 39549 40209 54000 60002 702// 333 20204 55/// 70000;","Q01  00002PRCP24Q02  00002PRCP12"
"08417099999","2010-09-10T09:00:00","4","37.7833333","-3.8166666","580.0","JAEN, SP","FM-12","99999","V020","090,1,N,0021,1","22000,1,9,N","015000,1,N,1","+0244,1","+0107,1","10211,1",,,,,"00,1,+99999,9,99,9","00,99,1,00,1,00,1,99999,9,00,1,00,1",,"99999,9,09560,1","2,1,011,1,+999,9",,"SYN060AAXX  10094 08417 42965 00904 10244 20107 39560 40211 52011;",
"08417099999","2010-09-10T12:00:00","4","37.7833333","-3.8166666","580.0","JAEN, SP","FM-12","99999","V020","030,1,N,0010,1","22000,1,9,N","015000,1,N,1","+0272,1","+0108,1","10197,1","06,0000,9,1",,,,"00,1,+99999,9,99,9","00,99,1,00,1,00,1,99999,9,00,1,00,1",,"99999,9,09553,1","8,1,007,1,+999,9",,"SYN066AAXX  10124 08417 12965 00302 10272 20108 39553 40197 58007 60001;","Q01  00002PRCP06"
"08417099999","2010-09-10T15:00:00","4","37.7833333","-3.8166666","580.0","JAEN, SP","FM-12","99999","V020","080,1,N,0010,1","22000,1,9,N","015000,1,N,1","+0304,1","+0114,1","10165,1",,,,,"00,1,+99999,9,99,9","00,99,1,00,1,00,1,99999,9,00,1,00,1",,"99999,9,09530,1","7,1,023,1,+999,9",,"SYN060AAXX  10154 08417 42965 00802 10304 20114 39530 40165 57023;",
"08417099999","2010-09-10T18:00:00","4","37.7833333","-3.8166666","580.0","JAEN, SP","FM-12","99999","V020","350,1,N,0010,1","22000,1,9,N","015000,1,N,1","+0302,1","+0107,1","10154,1","12,0000,9,1",,,,"00,1,+99999,9,99,9","00,99,1,00,1,00,1,99999,9,00,1,00,1","999,M,+0314,1","99999,9,09519,1","7,1,011,1,+999,9",,"SYN076AAXX  10184 08417 12965 03502 10302 20107 39519 40154 57011 60002 333 10314;","Q01  00002PRCP12"
"08417099999","2010-09-13T06:00:00","4","37.7833333","-3.8166666","580.0","JAEN, SP","FM-12","99999","V020","130,1,N,0010,1","22000,1,9,N","015000,1,N,1","+0230,1","+0101,1","10224,1","12,0000,9,1","24,0000,9,1",,,,"04,99,1,03,1,00,1,99999,9,08,1,01,1","999,N,+0214,1","99999,9,09569,1","2,1,009,1,+999,9","02,1","SYN100AAXX  13064 08417 11965 41302 10230 20101 39569 40224 52009 60002 702// 83081 333 20214 55/// 70000;","Q01  00002PRCP24Q02  00002PRCP12"
"08417099999","2010-09-13T09:00:00","4","37.7833333","-3.8166666","580.0","JAEN, SP","FM-12","99999","V020","120,1,N,0026,1","22000,1,9,N","015000,1,N,1","+0282,1","+0104,1","10216,1",,,,,"00,1,+99999,9,99,9","00,99,1,00,1,00,1,99999,9,00,1,00,1",,"99999,9,09573,1","2,1,004,1,+999,9",,"SYN060AAXX  13094 08417 42965 01205 10282 20104 39573 40216 52004;",
"08417099999","2010-09-13T12:00:00","4","37.7833333","-3.8166666","580.0","JAEN, SP","FM-12","99999","V020","360,1,N,0010,1","22000,1,9,N","015000,1,N,1","+0302,1","+0130,1","10213,1","06,0000,9,1",,,,,"03,99,1,00,1,00,1,99999,9,00,1,01,1",,"99999,9,09575,1","0,1,002,1,+999,9",,"SYN072AAXX  13124 08417 12965 33602 10302 20130 39575 40213 50002 60001 80001;","Q01  00002PRCP06"
"08417099999","2010-09-14T06:00:00","4","37.7833333","-3.8166666","580.0","JAEN, SP","FM-12","99999","V020","999,9,C,0000,1","22000,1,9,N","015000,1,N,1","+0232,1","+0106,1","10238,1","12,0000,9,1","24,0000,9,1",,,"00,1,+99999,9,99,9","00,99,1,00,1,00,1,99999,9,00,1,00,1","999,N,+0232,1","99999,9,09583,1","3,1,010,1,+999,9",,"SYN088AAXX  14064 08417 12965 00000 10232 20106 39583 40238 53010 60002 333 20232 55/// 70000;","Q01  00002PRCP24Q02  00002PRCP12"
"08417099999","2010-09-14T09:00:00","4","37.7833333","-3.8166666","580.0","JAEN, SP","FM-12","99999","V020","020,1,N,0005,1","22000,1,9,N","015000,1,N,1","+0254,1","+0116,1","10237,1",,,,,"00,1,+99999,9,99,9","00,99,1,00,1,00,1,99999,9,00,1,00,1",,"99999,9,09587,1","2,1,004,1,+999,9",,"SYN060AAXX  14094 08417 42965 00201 10254 20116 39587 40237 52004;",
"08417099999","2010-09-14T12:00:00","4","37.7833333","-3.8166666","580.0","JAEN, SP","FM-12","99999","V020","020,1,N,0005,1","22000,1,9,N","015000,1,N,1","+0302,1","+0135,1","10219,1","06,0000,9,1",,,,"00,1,+99999,9,99,9","00,99,1,00,1,00,1,99999,9,00,1,00,1",,"99999,9,09580,1","8,1,007,1,+999,9",,"SYN066AAXX  14124 08417 12965 00201 10302 20135 39580 40219 58007 60001;","Q01  00002PRCP06"
"08417099999","2010-09-15T06:00:00","4","37.7833333","-3.8166666","580.0","JAEN, SP","FM-12","99999","V020","999,9,C,0000,1","22000,1,9,N","015000,1,N,1","+0236,1","+0092,1","10201,1","12,0000,9,1","24,0000,9,1",,,"00,1,+99999,9,99,9","00,99,1,00,1,00,1,99999,9,00,1,00,1","999,N,+0234,1","99999,9,09549,1","5,1,000,1,+999,9","02,1","SYN094AAXX  15064 08417 11965 00000 10236 20092 39549 40201 55000 60002 702// 333 20234 55/// 70000;","Q01  00002PRCP24Q02  00002PRCP12"
"08417099999","2010-09-15T09:00:00","4","37.7833333","-3.8166666","580.0","JAEN, SP","FM-12","99999","V020","030,1,N,0005,1","22000,1,9,N","015000,1,N,1","+0268,1","+0121,1","10199,1",,,,,"00,1,+99999,9,99,9","00,99,1,00,1,00,1,99999,9,00,1,00,1",,"99999,9,09554,1","2,1,005,1,+999,9",,"SYN060AAXX  15094 08417 42965 00301 10268 20121 39554 40199 52005;",
"08417099999","2010-09-15T12:00:00","4","37.7833333","-3.8166666","580.0","JAEN, SP","FM-12","99999","V020","340,1,N,0021,1","22000,1,9,N","015000,1,N,1","+0300,1","+0141,1","10184,1","06,0000,9,1",,,,,"02,99,1,00,1,00,1,99999,9,00,1,01,1",,"99999,9,09547,1","7,1,007,1,+999,9",,"SYN072AAXX  15124 08417 12965 23404 10300 20141 39547 40184 57007 60001 80001;","Q01  00002PRCP06"
"08417099999","2010-09-16T06:00:00","4","37.7833333","-3.8166666","580.0","JAEN, SP","FM-12","99999","V020","320,1,N,0026,1","99999,9,9,N","015000,1,N,1","+0244,1","+0124,1","10156,1","12,0000,9,1","24,0000,9,1",,,,"06,99,1,06,1,00,1,99999,9,07,1,00,1","999,N,+0236,1","99999,9,09509,1","4,1,000,1,+999,9","02,1","SYN100AAXX  16064 08417 11965 63205 10244 20124 39509 40156 54000 60002 702// 86070 333 20236 55/// 70000;","Q01  00002PRCP24Q02  00002PRCP12"
"08417099999","2010-09-16T09:00:00","4","37.7833333","-3.8166666","580.0","JAEN, SP","FM-12","99999","V020","110,1,N,0010,1","01200,1,9,N","015000,1,N,1","+0252,1","+0134,1","10164,1",,,,,,"07,99,1,05,1,08,1,00800,1,07,1,00,1",,"99999,9,09519,1","1,1,009,1,+999,9",,"SYN066AAXX  16094 08417 42565 71102 10252 20134 39519 40164 51009 85870;",
"08417099999","2010-09-16T12:00:00","4","37.7833333","-3.8166666","580.0","JAEN, SP","FM-12","99999","V020","120,1,N,0015,1","03600,1,9,N","012000,1,N,1","+0262,1","+0137,1","10150,1","06,0000,9,1",,,,,"08,99,1,01,1,08,1,00800,1,07,1,00,1",,"99999,9,09508,1","7,1,011,1,+999,9",,"SYN072AAXX  16124 08417 12562 81203 10262 20137 39508 40150 57011 60001 81870;","Q01  00002PRCP06"
"08417099999","2010-09-17T06:00:00","4","37.7833333","-3.8166666","580.0","JAEN, SP","FM-12","99999","V020","130,1,N,0036,1","03600,1,9,N","010000,1,N,1","+0206,1","+0112,1","10105,1","12,0010,9,1","24,0010,9,1",,,,"07,99,1,03,1,08,1,00800,1,07,1,00,1","999,N,+0206,1","99999,9,09453,1","7,1,016,1,+999,9","02,1","SYN100AAXX  17064 08417 11560 71307 10206 20112 39453 40105 57016 60012 702// 83870 333 20206 55/// 70011;",
"08417099999","2010-09-17T09:00:00","4","37.7833333","-3.8166666","580.0","JAEN, SP","FM-12","99999","V020","290,1,N,0021,1","02100,1,9,N","015000,1,N,1","+0204,1","+0134,1","10119,1",,,,,,"05,99,1,05,1,00,1,02250,1,07,1,00,1",,"99999,9,09466,1","2,1,013,1,+999,9",,"SYN066AAXX  17094 08417 42865 52904 10204 20134 39466 40119 52013 85070;",
"08417099999","2010-09-17T12:00:00","4","37.7833333","-3.8166666","580.0","JAEN, SP","FM-12","99999","V020","160,1,N,0015,1","03600,1,9,N","015000,1,N,1","+0230,1","+0120,1","10120,1","06,0000,9,1",,,,,"07,99,1,01,1,08,1,00800,1,07,1,00,1",,"99999,9,09473,1","2,1,007,1,+999,9",,"SYN072AAXX  17124 08417 12565 71603 10230 20120 39473 40120 52007 60001 81870;","Q01  00002PRCP06"
"08417099999","2010-09-20T06:00:00","4","37.7833333","-3.8166666","580.0","JAEN, SP","FM-12","99999","V020","140,1,N,0010,1","99999,9,9,N","010000,1,N,1","+0202,1","+0136,1","10164,1","12,0000,9,1","24,0000,9,1",,,,"07,99,1,07,1,00,1,99999,9,07,1,00,1","999,N,+0192,1","99999,9,09508,1","2,1,010,1,+999,9","02,1","SYN100AAXX  20064 08417 11960 71402 10202 20136 39508 40164 52010 60002 702// 87070 333 20192 55/// 70000;","Q01  00002PRCP24Q02  00002PRCP12"
"08417099999","2010-09-20T09:00:00","4","37.7833333","-3.8166666","580.0","JAEN, SP","FM-12","99999","V020","020,1,N,0005,1","01200,1,9,N","012000,1,N,1","+0206,1","+0149,1","10165,1",,,,,,"06,99,1,05,1,08,1,00800,1,06,1,00,1",,"99999,9,09510,1","1,1,002,1,+999,9",,"SYN066AAXX  20094 08417 42562 60201 10206 20149 39510 40165 51002 85860;",
"08417099999","2010-09-20T12:00:00","4","37.7833333","-3.8166666","580.0","JAEN, SP","FM-12","99999","V020","360,1,N,0010,1","03600,1,9,N","012000,1,N,1","+0250,1","+0156,1","10151,1","06,0000,9,1",,,,,"06,99,1,04,1,02,1,00800,1,06,1,00,1",,"99999,9,09507,1","8,1,003,1,+999,9",,"SYN072AAXX  20124 08417 12562 63602 10250 20156 39507 40151 58003 60001 84260;","Q01  00002PRCP06"
"08417099999","2010-09-21T06:00:00","4","37.7833333","-3.8166666","580.0","JAEN, SP","FM-12","99999","V020","999,9,C,0000,1","22000,1,9,N","015000,1,N,1","+0166,1","+0150,1","10187,1","12,0231,9,1","24,0244,9,1",,,"00,1,+99999,9,99,9","00,99,1,00,1,00,1,99999,9,00,1,00,1","999,N,+0162,1","99999,9,09522,1","3,1,005,1,+999,9","02,1","SYN094AAXX  21064 08417 11965 00000 10166 20150 39522 40187 53005 60232 702// 333 20162 55/// 70244;",
"08417099999","2010-09-21T09:00:00","4","37.7833333","-3.8166666","580.0","JAEN, SP","FM-12","99999","V020","999,9,C,0000,1","22000,1,9,N","006000,1,N,1","+0190,1","+0160,1","10191,1",,,"4,1,03,1","4,1,03,1",,"04,99,1,04,1,06,1,00450,1,00,1,00,1",,"99999,9,09531,1","2,1,009,1,+999,9","10,1","SYN072AAXX  21094 08417 41456 40000 10190 20160 39531 40191 52009 71044 84600;",
"08417099999","2010-09-21T12:00:00","4","37.7833333","-3.8166666","580.0","JAEN, SP","FM-12","99999","V020","050,1,N,0010,1","22000,1,9,N","012000,1,N,1","+0220,1","+0154,1","10184,1","06,0000,9,1",,"4,1,06,1","4,1,06,1",,"04,99,1,03,1,02,1,00800,1,06,1,00,1",,"99999,9,09531,1","0,1,000,1,+999,9","02,1","SYN078AAXX  21124 08417 11562 40502 10220 20154 39531 40184 50000 60001 70244 83260;","Q01  00002PRCP06"
"08417099999","2010-09-22T06:00:00","4","37.7833333","-3.8166666","580.0","JAEN, SP","FM-12","99999","V020","999,9,C,0000,1","22000,1,9,N","012000,1,N,1","+0192,1","+0113,1","10190,1","12,0000,9,1","24,0000,9,1",,,,"03,99,1,00,1,00,1,99999,9,00,1,01,1","999,N,+0184,1","99999,9,09530,1","4,1,000,1,+999,9","02,1","SYN100AAXX  22064 08417 11962 30000 10192 20113 39530 40190 54000 60002 702// 80001 333 20184 55/// 70000;","Q01  00002PRCP24Q02  00002PRCP12"
"08417099999","2010-09-22T09:00:00","4","37.7833333","-3.8166666","580.0","JAEN, SP","FM-12","99999","V020","999,9,C,0000,1","22000,1,9,N","010000,1,N,1","+0206,1","+0123,1","10195,1",,,,,,"03,99,1,00,1,00,1,99999,9,00,1,01,1",,"99999,9,09538,1","2,1,008,1,+999,9",,"SYN066AAXX  22094 08417 42960 30000 10206 20123 39538 40195 52008 80001;",
"08417099999","2010-09-22T12:00:00","4","37.7833333","-3.8166666","580.0","JAEN, SP","FM-12","99999","V020","360,1,N,0010,1","22000,1,9,N","012000,1,N,1","+0250,1","+0135,1","10183,1","06,0000,9,1",,,,,"02,99,1,01,1,02,1,00800,1,00,1,01,1",,"99999,9,09536,1","8,1,002,1,+999,9",,"SYN072AAXX  22124 08417 12562 23602 10250 20135 39536 40183 58002 60001 81201;","Q01  00002PRCP06"
"08417099999","2010-09-23T06:00:00","4","37.7833333","-3.8166666","580.0","JAEN, SP","FM-12","99999","V020","280,1,N,0010,1","03600,1,9,N","010000,1,N,1","+0196,1","+0163,1","10189,1","12,9999,9,9","24,9999,9,9",,,,"08,99,1,02,1,07,1,00450,1,07,1,00,1","999,N,+0194,1","99999,9,09531,1","5,1,000,1,+999,9","50,1","SYN100AAXX  23064 08417 11460 82802 10196 20163 39531 40189 55000 60002 750// 82770 333 20194 55/// 70000;","Q01  00002PRCP24Q02  00002PRCP12Q03  00002PRCP12Q04  00002PRCP24"
"08417099999","2010-09-23T09:00:00","4","37.7833333","-3.8166666","580.0","JAEN, SP","FM-12","99999","V020","290,1,N,0005,1","03600,1,9,N","010000,1,N,1","+0202,1","+0168,1","10196,1",,,"6,1,03,1","6,1,03,1",,"08,99,1,02,1,07,1,00800,1,07,1,00,1",,"99999,9,09539,1","3,1,008,1,+999,9","03,1","SYN072AAXX  23094 08417 41560 82901 10202 20168 39539 40196 53008 70366 82770;",
"08417099999","2010-09-23T12:00:00","4","37.7833333","-3.8166666","580.0","JAEN, SP","FM-12","99999","V020","020,1,N,0005,1","03600,1,9,N","010000,1,N,1","+0218,1","+0161,1","10180,1","06,0000,2,1",,"5,1,06,1","5,1,06,1",,"08,99,1,02,1,07,1,00800,1,07,1,00,1",,"99999,9,09527,1","7,1,012,1,+999,9","02,1","SYN078AAXX  23124 08417 11560 80201 10218 20161 39527 40180 57012 69911 70255 82770;",
"08417099999","2010-09-24T06:00:00","4","37.7833333","-3.8166666","580.0","JAEN, SP","FM-12","99999","V020","260,1,N,0010,1","03600,1,9,N","002000,1,N,1","+0142,1","+0128,1","10188,1","12,0051,9,1","24,0099,9,1",,,,"08,99,1,04,1,07,1,00450,1,07,1,99,9","999,N,+0142,1","99999,9,09517,1","3,1,009,1,+999,9","11,1","SYN100AAXX  24064 08417 11420 82602 10142 20128 39517 40188 53009 60052 711// 8477/ 333 20142 55/// 70099;",
"08417099999","2010-09-24T09:00:00","4","37.7833333","-3.8166666","580.0","JAEN, SP","FM-12","99999","V020","999,9,C,0000,1","22000,1,9,N","008000,1,N,1","+0166,1","+0129,1","10186,1",,,"4,1,03,1","4,1,03,1",,"04,99,1,04,1,06,1,00800,1,00,1,00,1",,"99999,9,09521,1","2,1,004,1,+999,9","10,1","SYN072AAXX  24094 08417 41558 40000 10166 20129 39521 40186 52004 71044 84600;",
"08417099999","2010-09-27T06:00:00","4","37.7833333","-3.8166666","580.0","JAEN, SP","FM-12","99999","V020","190,1,N,0005,1","22000,1,9,N","010000,1,N,1","+0138,1","+0106,1","10152,1","12,0000,9,1","24,0000,9,1",,,"00,1,+99999,9,99,9","00,99,1,00,1,00,1,99999,9,00,1,00,1","999,N,+0136,1","99999,9,09482,1","6,1,005,1,+999,9","02,1","SYN094AAXX  27064 08417 11960 01901 10138 20106 39482 40152 56005 60002 702// 333 20136 55/// 70000;","Q01  00002PRCP24Q02  00002PRCP12"
"08417099999","2010-09-27T09:00:00","4","37.7833333","-3.8166666","580.0","JAEN, SP","FM-12","99999","V020","090,1,N,0010,1","22000,1,9,N","012000,1,N,1","+0176,1","+0107,1","10158,1",,,,,,"03,99,1,03,1,00,1,99999,9,03,1,00,1",,"99999,9,09496,1","2,1,014,1,+999,9",,"SYN066AAXX  27094 08417 42962 30902 10176 20107 39496 40158 52014 83030;",
"08417099999","2010-09-28T06:00:00","4","37.7833333","-3.8166666","580.0","JAEN, SP","FM-12","99999","V020","999,9,C,0000,1","22000,1,9,N","012000,1,N,1","+0144,1","+0081,1","10184,1","12,0000,9,1","24,0000,9,1",,,"00,1,+99999,9,99,9","00,99,1,00,1,00,1,99999,9,00,1,00,1","999,N,+0140,1","99999,9,09513,1","2,1,009,1,+999,9","02,1","SYN094AAXX  28064 08417 11962 00000 10144 20081 39513 40184 52009 60002 702// 333 20140 55/// 70000;","Q01  00002PRCP24Q02  00002PRCP12"
"08417099999","2010-09-28T09:00:00","4","37.7833333","-3.8166666","580.0","JAEN, SP","FM-12","99999","V020","020,1,N,0005,1","22000,1,9,N","015000,1,N,1","+0170,1","+0094,1","10192,1",,,,,"00,1,+99999,9,99,9","00,99,1,00,1,00,1,99999,9,00,1,00,1",,"99999,9,09526,1","2,1,013,1,+999,9",,"SYN060AAXX  28094 08417 42965 00201 10170 20094 39526 40192 52013;",
"08417099999","2010-09-28T12:00:00","4","37.7833333","-3.8166666","580.0","JAEN, SP","FM-12","99999","V020","340,1,N,0010,1","22000,1,9,N","015000,1,N,1","+0210,1","+0113,1","10185,1","06,0000,9,1",,,,,"01,99,1,01,1,02,1,00800,1,00,1,00,1",,"99999,9,09529,1","1,1,003,1,+999,9",,"SYN072AAXX  28124 08417 12565 13402 10210 20113 39529 40185 51003 60001 81200;","Q01  00002PRCP06"
"08417099999","2010-09-29T06:00:00","4","37.7833333","-3.8166666","580.0","JAEN, SP","FM-12","99999","V020","999,9,C,0000,1","22000,1,9,N","015000,1,N,1","+0156,1","+0076,1","10210,1","12,0000,9,1","24,0000,9,1",,,"00,1,+99999,9,99,9","00,99,1,00,1,00,1,99999,9,00,1,00,1","999,N,+0146,1","99999,9,09540,1","3,1,006,1,+999,9","02,1","SYN094AAXX  29064 08417 11965 00000 10156 20076 39540 40210 53006 60002 702// 333 20146 55/// 70000;","Q01  00002PRCP24Q02  00002PRCP12"
"08417099999","2010-09-29T09:00:00","4","37.7833333","-3.8166666","580.0","JAEN, SP","FM-12","99999","V020","030,1,N,0005,1","22000,1,9,N","015000,1,N,1","+0186,1","+0091,1","10209,1",,,,,"00,1,+99999,9,99,9","00,99,1,00,1,00,1,99999,9,00,1,00,1",,"99999,9,09546,1","2,1,006,1,+999,9",,"SYN060AAXX  29094 08417 42965 00301 10186 20091 39546 40209 52006;",
"08417099999","2010-09-29T12:00:00","4","37.7833333","-3.8166666","580.0","JAEN, SP","FM-12","99999","V020","340,1,N,0010,1","22000,1,9,N","015000,1,N,1","+0230,1","+0094,1","10197,1","06,0000,9,1",,,,,"01,99,1,00,1,00,1,99999,9,00,1,01,1",,"99999,9,09544,1","8,1,002,1,+999,9",,"SYN072AAXX  29124 08417 12965 13402 10230 20094 39544 40197 58002 60001 80001;","Q01  00002PRCP06"
"08417099999","2010-09-30T06:00:00","4","37.7833333","-3.8166666","580.0","JAEN, SP","FM-12","99999","V020","999,9,C,0000,1","22000,1,9,N","015000,1,N,1","+0176,1","+0062,1","10192,1","12,0000,9,1","24,0000,9,1",,,"00,1,+99999,9,99,9","00,99,1,00,1,00,1,99999,9,00,1,00,1","999,N,+0176,1","99999,9,09527,1","3,1,003,1,+999,9","02,1","SYN094AAXX  30064 08417 11965 00000 10176 20062 39527 40192 53003 60002 702// 333 20176 55/// 70000;","Q01  00002PRCP24Q02  00002PRCP12"
"08417099999","2010-09-30T09:00:00","4","37.7833333","-3.8166666","580.0","JAEN, SP","FM-12","99999","V020","020,1,N,0005,1","22000,1,9,N","015000,1,N,1","+0202,1","+0079,1","10199,1",,,,,,"02,99,1,00,1,00,1,99999,9,00,1,01,1",,"99999,9,09540,1","2,1,013,1,+999,9",,"SYN066AAXX  30094 08417 42965 20201 10202 20079 39540 40199 52013 80001;",
"08417099999","2010-09-30T12:00:00","4","37.7833333","-3.8166666","580.0","JAEN, SP","FM-12","99999","V020","040,1,N,0005,1","22000,1,9,N","015000,1,N,1","+0242,1","+0094,1","10184,1","06,0000,9,1",,,,,"03,99,1,00,1,00,1,99999,9,00,1,01,1",,"99999,9,09534,1","8,1,006,1,+999,9",,"SYN072AAXX  30124 08417 12965 30401 10242 20094 39534 40184 58006 60001 80001;","Q01  00002PRCP06"
"08417099999","2010-10-01T06:00:00","4","37.7833333","-3.8166666","580.0","JAEN, SP","FM-12","99999","V020","999,9,C,0000,1","22000,1,9,N","012000,1,N,1","+0158,1","+0057,1","10169,1","12,0000,9,1","24,0000,9,1",,,"00,1,+99999,9,99,9","00,99,1,00,1,00,1,99999,9,00,1,00,1","999,N,+0158,1","99999,9,09502,1","4,1,000,1,+999,9",,"SYN094AAXX  01064 08417 12962 00000 10158 20057 39502 40169 54000 60002 333 20158 50544 55/// 70000;","Q01  00002PRCP24Q02  00002PRCP12"
"08417099999","2010-10-01T09:00:00","4","37.7833333","-3.8166666","580.0","JAEN, SP","FM-12","99999","V020","350,1,N,0010,1","22000,1,9,N","015000,1,N,1","+0192,1","+0076,1","10172,1",,,,,"00,1,+99999,9,99,9","00,99,1,00,1,00,1,99999,9,00,1,00,1",,"99999,9,09512,1","2,1,010,1,+999,9",,"SYN060AAXX  01094 08417 42965 03502 10192 20076 39512 40172 52010;",
"08417099999","2010-10-01T12:00:00","4","37.7833333","-3.8166666","580.0","JAEN, SP","FM-12","99999","V020","350,1,N,0010,1","22000,1,9,N","015000,1,N,1","+0230,1","+0094,1","10155,1","06,0000,9,1",,,,"00,1,+99999,9,99,9","00,99,1,00,1,00,1,99999,9,00,1,00,1",,"99999,9,09505,1","8,1,007,1,+999,9",,"SYN066AAXX  01124 08417 12965 03502 10230 20094 39505 40155 58007 60001;","Q01  00002PRCP06"
"08417099999","2010-10-04T06:00:00","4","37.7833333","-3.8166666","580.0","JAEN, SP","FM-12","99999","V020","250,1,N,0010,1","03600,1,9,N","010000,1,N,1","+0140,1","+0098,1","10127,1","12,0089,9,2","24,0086,9,2",,,,"05,99,1,04,1,08,1,00800,1,06,1,00,1","999,N,+0138,1","99999,9,09459,1","2,1,016,1,+999,9","02,1","SYN100AAXX  04064 08417 11560 52502 10140 20098 39459 40127 52016 60092 702// 84860 333 20138 55/// 70087;",
"08417099999","2010-10-04T09:00:00","4","37.7833333","-3.8166666","580.0","JAEN, SP","FM-12","99999","V020","260,1,N,0026,1","22000,1,9,N","015000,1,N,1","+0156,1","+0093,1","10131,1",,,,,,"04,99,1,03,1,02,1,00800,1,00,1,01,1",,"99999,9,09466,1","2,1,007,1,+999,9",,"SYN066AAXX  04094 08417 42565 42605 10156 20093 39466 40131 52007 83201;",
"08417099999","2010-10-04T12:00:00","4","37.7833333","-3.8166666","580.0","JAEN, SP","FM-12","99999","V020","300,1,N,0026,1","00750,1,9,N","015000,1,N,1","+0172,1","+0075,1","10129,1","06,0000,9,1",,,,,"05,99,1,05,1,02,1,00800,1,00,1,00,1",,"99999,9,09468,1","2,1,002,1,+999,9",,"SYN072AAXX  04124 08417 12565 53005 10172 20075 39468 40129 52002 60001 85200;","Q01  00002PRCP06"
"08417099999","2010-10-05T06:00:00","4","37.7833333","-3.8166666","580.0","JAEN, SP","FM-12","99999","V020","999,9,C,0000,1","22000,1,9,N","012000,1,N,1","+0126,1","+0077,1","10162,1","12,0000,9,1","24,0000,9,1",,,"00,1,+99999,9,99,9","00,99,1,00,1,00,1,99999,9,00,1,00,1","999,N,+0126,1","99999,9,09488,1","4,1,000,1,+999,9","02,1","SYN094AAXX  05064 08417 11962 00000 10126 20077 39488 40162 54000 60002 702// 333 20126 55/// 70000;","Q01  00002PRCP24Q02  00002PRCP12"
"08417099999","2010-10-05T09:00:00","4","37.7833333","-3.8166666","580.0","JAEN, SP","FM-12","99999","V020","040,1,N,0005,1","22000,1,9,N","012000,1,N,1","+0156,1","+0086,1","10154,1",,,,,"00,1,+99999,9,99,9","00,99,1,00,1,00,1,99999,9,00,1,00,1",,"99999,9,09488,1","5,1,000,1,+999,9",,"SYN060AAXX  05094 08417 42962 00401 10156 20086 39488 40154 55000;",
"08417099999","2010-10-05T12:00:00","4","37.7833333","-3.8166666","580.0","JAEN, SP","FM-12","99999","V020","360,1,N,0010,1","22000,1,9,N","015000,1,N,1","+0192,1","+0091,1","10147,1","06,0000,9,1",,,,"00,1,+99999,9,99,9","00,99,1,00,1,00,1,99999,9,00,1,00,1",,"99999,9,09489,1","0,1,001,1,+999,9",,"SYN066AAXX  05124 08417 12965 03602 10192 20091 39489 40147 50001 60001;","Q01  00002PRCP06"
"08417099999","2010-10-06T06:00:00","4","37.7833333","-3.8166666","580.0","JAEN, SP","FM-12","99999","V020","999,9,C,0000,1","22000,1,9,N","015000,1,N,1","+0146,1","+0076,1","10121,1","12,0000,9,1","24,0000,9,1",,,"00,1,+99999,9,99,9","00,99,1,00,1,00,1,99999,9,00,1,00,1","999,N,+0146,1","99999,9,09454,1","4,1,000,1,+999,9","02,1","SYN094AAXX  06064 08417 11965 00000 10146 20076 39454 40121 54000 60002 702// 333 20146 55/// 70000;","Q01  00002PRCP24Q02  00002PRCP12"
"08417099999","2010-10-06T09:00:00","4","37.7833333","-3.8166666","580.0","JAEN, SP","FM-12","99999","V020","020,1,N,0010,1","22000,1,9,N","015000,1,N,1","+0176,1","+0095,1","10125,1",,,,,"00,1,+99999,9,99,9","00,99,1,00,1,00,1,99999,9,00,1,00,1",,"99999,9,09465,1","2,1,011,1,+999,9",,"SYN060AAXX  06094 08417 42965 00202 10176 20095 39465 40125 52011;",
"08417099999","2010-10-07T06:00:00","4","37.7833333","-3.8166666","580.0","JAEN, SP","FM-12","99999","V020","999,9,C,0000,1","22000,1,9,N","015000,1,N,1","+0156,1","+0108,1","10140,1","12,0000,9,1","24,0000,9,1",,,"00,1,+99999,9,99,9","00,99,1,00,1,00,1,99999,9,00,1,00,1","999,N,+0154,1","99999,9,09475,1","2,1,008,1,+999,9","02,1","SYN094AAXX  07064 08417 11965 00000 10156 20108 39475 40140 52008 60002 702// 333 20154 55/// 70000;","Q01  00002PRCP24Q02  00002PRCP12"
"08417099999","2010-10-07T09:00:00","4","37.7833333","-3.8166666","580.0","JAEN, SP","FM-12","99999","V020","360,1,N,0005,1","22000,1,9,N","015000,1,N,1","+0182,1","+0115,1","10149,1",,,,,,"03,99,1,00,1,00,1,99999,9,00,1,01,1",,"99999,9,09489,1","2,1,014,1,+999,9",,"SYN066AAXX  07094 08417 42965 33601 10182 20115 39489 40149 52014 80001;",
"08417099999","2010-10-07T12:00:00","4","37.7833333","-3.8166666","580.0","JAEN, SP","FM-12","99999","V020","340,1,N,0010,1","99999,9,9,N","015000,1,N,1","+0212,1","+0126,1","10140,1","06,0000,9,1",,,,,"05,99,1,02,1,00,1,99999,9,08,1,01,1",,"99999,9,09488,1","8,1,001,1,+999,9",,"SYN072AAXX  07124 08417 12965 53402 10212 20126 39488 40140 58001 60001 82081;","Q01  00002PRCP06"
"08417099999","2010-10-08T06:00:00","4","37.7833333","-3.8166666","580.0","JAEN, SP","FM-12","99999","V020","999,9,C,0000,1","22000,1,9,N","010000,1,N,1","+0158,1","+0133,1","10146,1","12,0000,9,1","24,0000,9,1",,,,"04,99,1,00,1,00,1,99999,9,00,1,01,1","999,N,+0158,1","99999,9,09482,1","5,1,000,1,+999,9","02,1","SYN100AAXX  08064 08417 11960 40000 10158 20133 39482 40146 55000 60002 702// 80001 333 20158 55/// 70000;","Q01  00002PRCP24Q02  00002PRCP12"
"08417099999","2010-10-08T09:00:00","4","37.7833333","-3.8166666","580.0","JAEN, SP","FM-12","99999","V020","999,9,C,0000,1","99999,9,9,N","012000,1,N,1","+0190,1","+0141,1","10149,1",,,,,,"06,99,1,03,1,00,1,99999,9,05,1,01,1",,"99999,9,09492,1","2,1,010,1,+999,9",,"SYN066AAXX  08094 08417 42962 60000 10190 20141 39492 40149 52010 83051;",
"08417099999","2010-10-08T12:00:00","4","37.7833333","-3.8166666","580.0","JAEN, SP","FM-12","99999","V020","340,1,N,0015,1","22000,1,9,N","012000,1,N,1","+0222,1","+0135,1","10135,1","06,0000,9,1",,,,,"01,99,1,01,1,00,1,99999,9,03,1,00,1",,"99999,9,09485,1","7,1,007,1,+999,9",,"SYN072AAXX  08124 08417 12962 13403 10222 20135 39485 40135 57007 60001 81030;","Q01  00002PRCP06"
"08417099999","2010-10-13T06:00:00","4","37.7833333","-3.8166666","580.0","JAEN, SP","FM-12","99999","V020","999,9,C,0000,1","03600,1,9,N","008000,1,N,1","+0142,1","+0082,1","10104,1","12,0000,9,1","24,0000,9,1",,,,"07,99,1,02,1,07,1,00450,1,07,1,00,1","999,N,+0136,1","99999,9,09438,1","2,1,013,1,+999,9","10,1","SYN100AAXX  13064 08417 11458 70000 10142 20082 39438 40104 52013 60002 710// 82770 333 20136 55/// 70000;","Q01  00002PRCP24Q02  00002PRCP12"
"08417099999","2010-10-13T09:00:00","4","37.7833333","-3.8166666","580.0","JAEN, SP","FM-12","99999","V020","999,9,C,0000,1","02100,1,9,N","010000,1,N,1","+0150,1","+0129,1","10122,1",,,,,,"07,99,1,07,1,00,1,02250,1,07,1,00,1",,"99999,9,09457,1","2,1,019,1,+999,9",,"SYN066AAXX  13094 08417 42860 70000 10150 20129 39457 40122 52019 87070;",
"08417099999","2010-10-13T12:00:00","4","37.7833333","-3.8166666","580.0","JAEN, SP","FM-12","99999","V020","340,1,N,0010,1","99999,9,9,N","012000,1,N,1","+0174,1","+0117,1","10127,1","06,0000,9,1",,,,,"07,99,1,07,1,00,1,99999,9,07,1,00,1",,"99999,9,09467,1","2,1,010,1,+999,9",,"SYN072AAXX  13124 08417 12962 73402 10174 20117 39467 40127 52010 60001 87070;","Q01  00002PRCP06"
"08417099999","2010-10-14T06:00:00","4","37.7833333","-3.8166666","580.0","JAEN, SP","FM-12","99999","V020","290,1,N,0005,1","22000,1,9,N","012000,1,N,1","+0132,1","+0104,1","10163,1","12,0000,9,1","24,0000,9,1",,,"00,1,+99999,9,99,9","00,99,1,00,1,00,1,99999,9,00,1,00,1","999,N,+0132,1","99999,9,09491,1","2,1,004,1,+999,9","02,1","SYN094AAXX  14064 08417 11962 02901 10132 20104 39491 40163 52004 60002 702// 333 20132 55/// 70000;","Q01  00002PRCP24Q02  00002PRCP12"
"08417099999","2010-10-14T09:00:00","4","37.7833333","-3.8166666","580.0","JAEN, SP","FM-12","99999","V020","320,1,N,0015,1","22000,1,9,N","015000,1,N,1","+0150,1","+0108,1","10169,1",,,,,,"03,99,1,03,1,00,1,99999,9,03,1,00,1",,"99999,9,09501,1","2,1,010,1,+999,9",,"SYN066AAXX  14094 08417 42965 33203 10150 20108 39501 40169 52010 83030;",
"08417099999","2010-10-14T12:00:00","4","37.7833333","-3.8166666","580.0","JAEN, SP","FM-12","99999","V020","030,1,N,0005,1","22000,1,9,N","012000,1,N,1","+0172,1","+0108,1","10164,1","06,0000,9,1",,,,,"04,99,1,03,1,02,1,00800,1,03,1,00,1",,"99999,9,09501,1","0,1,000,1,+999,9",,"SYN072AAXX  14124 08417 12562 40301 10172 20108 39501 40164 50000 60001 83230;","Q01  00002PRCP06"
"08417099999","2010-10-15T06:00:00","4","37.7833333","-3.8166666","580.0","JAEN, SP","FM-12","99999","V020","070,1,N,0010,1","22000,1,9,N","010000,1,N,1","+0140,1","+0113,1","10138,1","12,0000,9,1","24,0000,9,1",,,,"04,99,1,04,1,02,1,00800,1,00,1,00,1","999,N,+0140,1","99999,9,09470,1","4,1,000,1,+999,9","02,1","SYN100AAXX  15064 08417 11560 40702 10140 20113 39470 40138 54000 60002 702// 84200 333 20140 55/// 70000;","Q01  00002PRCP24Q02  00002PRCP12"
"08417099999","2010-10-15T09:00:00","4","37.7833333","-3.8166666","580.0","JAEN, SP","FM-12","99999","V020","999,9,C,0000,1","99999,9,9,N","010000,1,N,1","+0160,1","+0122,1","10140,1",,,,,,"05,99,1,05,1,00,1,99999,9,07,1,00,1",,"99999,9,09476,1","2,1,006,1,+999,9",,"SYN066AAXX  15094 08417 42960 50000 10160 20122 39476 40140 52006 85070;",
"08417099999","2010-10-15T12:00:00","4","37.7833333","-3.8166666","580.0","JAEN, SP","FM-12","99999","V020","030,1,N,0005,1","02100,1,9,N","012000,1,N,1","+0166,1","+0126,1","10140,1","06,0000,9,1",,,,,"07,99,1,07,1,00,1,02250,1,07,1,00,1",,"99999,9,09478,1","0,1,002,1,+999,9",,"SYN072AAXX  15124 08417 12862 70301 10166 20126 39478 40140 50002 60001 87070;","Q01  00002PRCP06"
"08417099999","2010-10-19T06:00:00","4","37.7833333","-3.8166666","580.0","JAEN, SP","FM-12","99999","V020","010,1,N,0010,1","22000,1,9,N","010000,1,N,1","+0114,1","-0043,1","10194,1","12,0000,9,1","24,0000,9,1",,,"00,1,+99999,9,99,9","00,99,1,00,1,00,1,99999,9,00,1,00,1","999,N,+0112,1","99999,9,09514,1","4,1,000,1,+999,9","02,1","SYN094AAXX  19064 08417 11960 00102 10114 21043 39514 40194 54000 60002 702// 333 20112 55/// 70000;","Q01  00002PRCP24Q02  00002PRCP12"
"08417099999","2010-10-19T12:00:00","4","37.7833333","-3.8166666","580.0","JAEN, SP","FM-12","99999","V020","120,1,N,0021,1","22000,1,9,N","015000,1,N,1","+0170,1","-0021,1","10184,1","06,0000,9,1",,,,"00,1,+99999,9,99,9","00,99,1,00,1,00,1,99999,9,00,1,00,1",,"99999,9,09517,1","7,1,009,1,+999,9",,"SYN066AAXX  19124 08417 12965 01204 10170 21021 39517 40184 57009 60001;","Q01  00002PRCP06"
"08417099999","2010-10-20T06:00:00","4","37.7833333","-3.8166666","580.0","JAEN, SP","FM-12","99999","V020","999,9,C,0000,1","22000,1,9,N","015000,1,N,1","+0114,1","-0007,1","10180,1","12,0000,9,1","24,0000,9,1",,,"00,1,+99999,9,99,9","00,99,1,00,1,00,1,99999,9,00,1,00,1","999,N,+0114,1","99999,9,09501,1","4,1,000,1,+999,9","02,1","SYN094AAXX  20064 08417 11965 00000 10114 21007 39501 40180 54000 60002 702// 333 20114 55/// 70000;","Q01  00002PRCP24Q02  00002PRCP12"
"08417099999","2010-10-20T09:00:00","4","37.7833333","-3.8166666","580.0","JAEN, SP","FM-12","99999","V020","999,9,C,0000,1","22000,1,9,N","015000,1,N,1","+0136,1","+0019,1","10186,1",,,,,"00,1,+99999,9,99,9","00,99,1,00,1,00,1,99999,9,00,1,00,1",,"99999,9,09512,1","3,1,011,1,+999,9",,"SYN060AAXX  20094 08417 42965 00000 10136 20019 39512 40186 53011;",
"08417099999","2010-10-20T12:00:00","4","37.7833333","-3.8166666","580.0","JAEN, SP","FM-12","99999","V020","050,1,N,0010,1","22000,1,9,N","015000,1,N,1","+0176,1","+0039,1","10175,1","06,0000,9,1",,,,"00,1,+99999,9,99,9","00,99,1,00,1,00,1,99999,9,00,1,00,1",,"99999,9,09511,1","8,1,001,1,+999,9",,"SYN066AAXX  20124 08417 12965 00502 10176 20039 39511 40175 58001 60001;","Q01  00002PRCP06"
"08417099999","2010-10-21T06:00:00","4","37.7833333","-3.8166666","580.0","JAEN, SP","FM-12","99999","V020","999,9,C,0000,1","22000,1,9,N","015000,1,N,1","+0124,1","+0014,1","10214,1","12,0000,9,1","24,0000,9,1",,,"00,1,+99999,9,99,9","00,99,1,00,1,00,1,99999,9,00,1,00,1","999,N,+0124,1","99999,9,09535,1","3,1,005,1,+999,9","02,1","SYN094AAXX  21064 08417 11965 00000 10124 20014 39535 40214 53005 60002 702// 333 20124 55/// 70000;","Q01  00002PRCP24Q02  00002PRCP12"
"08417099999","2010-10-21T09:00:00","4","37.7833333","-3.8166666","580.0","JAEN, SP","FM-12","99999","V020","999,9,C,0000,1","22000,1,9,N","015000,1,N,1","+0160,1","+0044,1","10219,1",,,,,"00,1,+99999,9,99,9","00,99,1,00,1,00,1,99999,9,00,1,00,1",,"99999,9,09549,1","2,1,014,1,+999,9",,"SYN060AAXX  21094 08417 42965 00000 10160 20044 39549 40219 52014;",
"08417099999","2010-10-21T12:00:00","4","37.7833333","-3.8166666","580.0","JAEN, SP","FM-12","99999","V020","340,1,N,0015,1","22000,1,9,N","015000,1,N,1","+0184,1","+0069,1","10219,1","06,0000,9,1",,,,"00,1,+99999,9,99,9","00,99,1,00,1,00,1,99999,9,00,1,00,1",,"99999,9,09554,1","1,1,005,1,+999,9",,"SYN066AAXX  21124 08417 12965 03403 10184 20069 39554 40219 51005 60001;","Q01  00002PRCP06"
"08417099999","2010-10-22T06:00:00","4","37.7833333","-3.8166666","580.0","JAEN, SP","FM-12","99999","V020","300,1,N,0010,1","22000,1,9,N","015000,1,N,1","+0126,1","+0046,1","10223,1","12,0000,9,1","24,0000,9,1",,,"00,1,+99999,9,99,9","00,99,1,00,1,00,1,99999,9,00,1,00,1","999,N,+0118,1","99999,9,09545,1","5,1,000,1,+999,9","02,1","SYN094AAXX  22064 08417 11965 03002 10126 20046 39545 40223 55000 60002 702// 333 20118 55/// 70000;","Q01  00002PRCP24Q02  00002PRCP12"
"08417099999","2010-10-22T09:00:00","4","37.7833333","-3.8166666","580.0","JAEN, SP","FM-12","99999","V020","999,9,C,0000,1","22000,1,9,N","012000,1,N,1","+0138,1","+0064,1","10226,1",,,,,,"03,99,1,00,1,00,1,99999,9,00,1,01,1",,"99999,9,09550,1","2,1,005,1,+999,9",,"SYN066AAXX  22094 08417 42962 30000 10138 20064 39550 40226 52005 80001;",
"08417099999","2010-10-22T12:00:00","4","37.7833333","-3.8166666","580.0","JAEN, SP","FM-12","99999","V020","020,1,N,0010,1","99999,9,9,N","012000,1,N,1","+0178,1","+0084,1","10216,1","06,0000,9,1",,,,,"05,99,1,00,1,00,1,99999,9,00,1,02,1",,"99999,9,09550,1","0,1,000,1,+999,9",,"SYN072AAXX  22124 08417 12962 50202 10178 20084 39550 40216 50000 60001 80002;","Q01  00002PRCP06"
"08417099999","2010-10-25T06:00:00","4","37.7833333","-3.8166666","580.0","JAEN, SP","FM-12","99999","V020","999,9,C,0000,1","22000,1,9,N","015000,1,N,1","+0126,1","+0071,1","10187,1","12,0000,9,1","24,0000,9,1",,,"00,1,+99999,9,99,9","00,99,1,00,1,00,1,99999,9,00,1,00,1","999,N,+0126,1","99999,9,09511,1","4,1,000,1,+999,9","02,1","SYN094AAXX  25064 08417 11965 00000 10126 20071 39511 40187 54000 60002 702// 333 20126 55/// 70000;","Q01  00002PRCP24Q02  00002PRCP12"
"08417099999","2010-10-25T09:00:00","4","37.7833333","-3.8166666","580.0","JAEN, SP","FM-12","99999","V020","999,9,C,0000,1","22000,1,9,N","015000,1,N,1","+0154,1","+0086,1","10196,1",,,,,"00,1,+99999,9,99,9","00,99,1,00,1,00,1,99999,9,00,1,00,1",,"99999,9,09526,1","2,1,015,1,+999,9",,"SYN060AAXX  25094 08417 42965 00000 10154 20086 39526 40196 52015;",
"08417099999","2010-10-25T12:00:00","4","37.7833333","-3.8166666","580.0","JAEN, SP","FM-12","99999","V020","360,1,N,0010,1","22000,1,9,N","015000,1,N,1","+0168,1","+0097,1","10198,1","06,0000,9,1",,,,,"04,99,1,01,1,00,1,99999,9,07,1,01,1",,"99999,9,09532,1","2,1,006,1,+999,9",,"SYN072AAXX  25124 08417 12965 43602 10168 20097 39532 40198 52006 60001 81071;","Q01  00002PRCP06"
"08417099999","2010-10-26T06:00:00","4","37.7833333","-3.8166666","580.0","JAEN, SP","FM-12","99999","V020","040,1,N,0021,1","22000,1,9,N","015000,1,N,1","+0076,1","-0061,1","10280,1","12,0000,9,1","24,0000,9,1",,,"00,1,+99999,9,99,9","00,99,1,00,1,00,1,99999,9,00,1,00,1","999,N,+0071,1","99999,9,09585,1","2,1,018,1,+999,9","02,1","SYN094AAXX  26064 08417 11965 00404 10076 21061 39585 40280 52018 60002 702// 333 20071 55/// 70000;","Q01  00002PRCP24Q02  00002PRCP12"
"08417099999","2010-10-26T09:00:00","4","37.7833333","-3.8166666","580.0","JAEN, SP","FM-12","99999","V020","050,1,N,0026,1","22000,1,9,N","015000,1,N,1","+0126,1","-0074,1","10278,1",,,,,"00,1,+99999,9,99,9","00,99,1,00,1,00,1,99999,9,00,1,00,1",,"99999,9,09595,1","2,1,010,1,+999,9",,"SYN060AAXX  26094 08417 42965 00505 10126 21074 39595 40278 52010;",
"08417099999","2010-10-26T12:00:00","4","37.7833333","-3.8166666","580.0","JAEN, SP","FM-12","99999","V020","080,1,N,0010,1","22000,1,9,N","015000,1,N,1","+0156,1","-0066,1","10265,1","06,0000,9,1",,,,"00,1,+99999,9,99,9","00,99,1,00,1,00,1,99999,9,00,1,00,1",,"99999,9,09589,1","8,1,006,1,+999,9",,"SYN066AAXX  26124 08417 12965 00802 10156 21066 39589 40265 58006 60001;","Q01  00002PRCP06"
"08417099999","2010-10-27T06:00:00","4","37.7833333","-3.8166666","580.0","JAEN, SP","FM-12","99999","V020","160,1,N,0010,1","22000,1,9,N","015000,1,N,1","+0130,1","-0055,1","10264,1","12,0000,9,1","24,0000,9,1",,,"00,1,+99999,9,99,9","00,99,1,00,1,00,1,99999,9,00,1,00,1","999,N,+0124,1","99999,9,09583,1","7,1,005,1,+999,9","02,1","SYN094AAXX  27064 08417 11965 01602 10130 21055 39583 40264 57005 60002 702// 333 20124 55/// 70000;","Q01  00002PRCP24Q02  00002PRCP12"
"08417099999","2010-10-27T09:00:00","4","37.7833333","-3.8166666","580.0","JAEN, SP","FM-12","99999","V020","340,1,N,0005,1","22000,1,9,N","015000,1,N,1","+0098,1","-0022,1","10291,1",,,,,"00,1,+99999,9,99,9","00,99,1,00,1,00,1,99999,9,00,1,00,1",,"99999,9,09601,1","2,1,018,1,+999,9",,"SYN060AAXX  27094 08417 42965 03401 10098 21022 39601 40291 52018;",
"08417099999","2010-10-27T12:00:00","4","37.7833333","-3.8166666","580.0","JAEN, SP","FM-12","99999","V020","040,1,N,0005,1","22000,1,9,N","015000,1,N,1","+0162,1","+0011,1","10275,1","06,0000,9,1",,,,"00,1,+99999,9,99,9","00,99,1,00,1,00,1,99999,9,00,1,00,1",,"99999,9,09601,1","4,1,000,1,+999,9",,"SYN066AAXX  27124 08417 12965 00401 10162 20011 39601 40275 54000 60001;","Q01  00002PRCP06"
"08417099999","2010-10-28T06:00:00","4","37.7833333","-3.8166666","580.0","JAEN, SP","FM-12","99999","V020","999,9,C,0000,1","22000,1,9,N","012000,1,N,1","+0118,1","-0028,1","10260,1","12,0000,9,1","24,0000,9,1",,,,"01,99,1,01,1,00,1,99999,9,03,1,00,1","999,N,+0116,1","99999,9,09576,1","7,1,006,1,+999,9","02,1","SYN100AAXX  28064 08417 11962 10000 10118 21028 39576 40260 57006 60002 702// 81030 333 20116 55/// 70000;","Q01  00002PRCP24Q02  00002PRCP12"
"08417099999","2010-10-28T09:00:00","4","37.7833333","-3.8166666","580.0","JAEN, SP","FM-12","99999","V020","020,1,N,0005,1","01500,1,9,N","010000,1,N,1","+0130,1","-0006,1","10265,1",,,,,,"07,99,1,07,1,00,1,01750,1,02,1,00,1",,"99999,9,09584,1","2,1,008,1,+999,9",,"SYN066AAXX  28094 08417 42760 70201 10130 21006 39584 40265 52008 87020;",
"08417099999","2010-10-28T12:00:00","4","37.7833333","-3.8166666","580.0","JAEN, SP","FM-12","99999","V020","999,9,C,0000,1","02100,1,9,N","012000,1,N,1","+0166,1","+0036,1","10244,1","06,0000,9,1",,,,,"07,99,1,07,1,00,1,02250,1,02,1,00,1",,"99999,9,09573,1","8,1,011,1,+999,9",,"SYN072AAXX  28124 08417 12862 70000 10166 20036 39573 40244 58011 60001 87020;","Q01  00002PRCP06"
"08417099999","2010-10-29T06:00:00","4","37.7833333","-3.8166666","580.0","JAEN, SP","FM-12","99999","V020","280,1,N,0015,1","22000,1,9,N","015000,1,N,1","+0148,1","-0001,1","10190,1","12,0000,9,1","24,0000,9,1",,,,"03,99,1,00,1,00,1,99999,9,00,1,01,1","999,N,+0142,1","99999,9,09518,1","6,1,004,1,+999,9","02,1","SYN100AAXX  29064 08417 11965 32803 10148 21001 39518 40190 56004 60002 702// 80001 333 20142 55/// 70000;","Q01  00002PRCP24Q02  00002PRCP12"
"08417099999","2010-10-29T09:00:00","4","37.7833333","-3.8166666","580.0","JAEN, SP","FM-12","99999","V020","999,9,C,0000,1","22000,1,9,N","015000,1,N,1","+0156,1","+0017,1","10188,1",,,,,,"03,99,1,00,1,00,1,99999,9,00,1,08,1",,"99999,9,09518,1","4,1,000,1,+999,9",,"SYN066AAXX  29094 08417 42965 30000 10156 20017 39518 40188 54000 80008;",
"08417099999","2010-10-29T12:00:00","4","37.7833333","-3.8166666","580.0","JAEN, SP","FM-12","99999","V020","060,1,N,0005,1","22000,1,9,N","015000,1,N,1","+0182,1","+0051,1","10170,1","06,0000,9,1",,,,,"04,99,1,00,1,00,1,99999,9,00,1,08,1",,"99999,9,09508,1","7,1,010,1,+999,9",,"SYN072AAXX  29124 08417 12965 40601 10182 20051 39508 40170 57010 60001 80008;","Q01  00002PRCP06"
"08417099999","2010-11-02T06:00:00","4","37.7833333","-3.8166666","580.0","JAEN, SP","FM-12","99999","V020","030,1,N,0015,1","22000,1,9,N","015000,1,N,1","+0108,1","+0060,1","10230,1","12,0000,9,1","24,0000,9,1",,,"00,1,+99999,9,99,9","00,99,1,00,1,00,1,99999,9,00,1,00,1","999,N,+0102,1","99999,9,09547,1","2,1,006,1,+999,9","02,1","SYN094AAXX  02064 08417 11965 00303 10108 20060 39547 40230 52006 60002 702// 333 20102 55/// 70000;","Q01  00002PRCP24Q02  00002PRCP12"
"08417099999","2010-11-02T09:00:00","4","37.7833333","-3.8166666","580.0","JAEN, SP","FM-12","99999","V020","060,1,N,0015,1","22000,1,9,N","015000,1,N,1","+0138,1","+0049,1","10239,1",,,,,"00,1,+99999,9,99,9","00,99,1,00,1,00,1,99999,9,00,1,00,1",,"99999,9,09562,1","2,1,015,1,+999,9",,"SYN060AAXX  02094 08417 42965 00603 10138 20049 39562 40239 52015;",
"08417099999","2010-11-02T12:00:00","4","37.7833333","-3.8166666","580.0","JAEN, SP","FM-12","99999","V020","060,1,N,0015,1","22000,1,9,N","015000,1,N,1","+0152,1","+0040,1","10232,1","06,0000,9,1",,,,"00,1,+99999,9,99,9","00,99,1,00,1,00,1,99999,9,00,1,00,1",,"99999,9,09559,1","8,1,003,1,+999,9",,"SYN066AAXX  02124 08417 12965 00603 10152 20040 39559 40232 58003 60001;","Q01  00002PRCP06"
"08417099999","2010-11-03T06:00:00","4","37.7833333","-3.8166666","580.0","JAEN, SP","FM-12","99999","V020","030,1,N,0021,1","22000,1,9,N","015000,1,N,1","+0128,1","+0055,1","10252,1","12,0000,9,1","24,0000,9,1",,,"00,1,+99999,9,99,9","00,99,1,00,1,00,1,99999,9,00,1,00,1","999,N,+0108,1","99999,9,09572,1","2,1,004,1,+999,9","02,1","SYN094AAXX  03064 08417 11965 00304 10128 20055 39572 40252 52004 60002 702// 333 20108 55/// 70000;","Q01  00002PRCP24Q02  00002PRCP12"
"08417099999","2010-11-03T09:00:00","4","37.7833333","-3.8166666","580.0","JAEN, SP","FM-12","99999","V020","999,9,C,0000,1","22000,1,9,N","015000,1,N,1","+0148,1","+0064,1","10261,1",,,,,"00,1,+99999,9,99,9","00,99,1,00,1,00,1,99999,9,00,1,00,1",,"99999,9,09585,1","2,1,013,1,+999,9",,"SYN060AAXX  03094 08417 42965 00000 10148 20064 39585 40261 52013;",
"08417099999","2010-11-03T12:00:00","4","37.7833333","-3.8166666","580.0","JAEN, SP","FM-12","99999","V020","050,1,N,0005,1","22000,1,9,N","015000,1,N,1","+0160,1","+0077,1","10253,1","06,0000,9,1",,,,"00,1,+99999,9,99,9","00,99,1,00,1,00,1,99999,9,00,1,00,1",,"99999,9,09581,1","8,1,004,1,+999,9",,"SYN066AAXX  03124 08417 12965 00501 10160 20077 39581 40253 58004 60001;","Q01  00002PRCP06"
"08417099999","2010-11-04T06:00:00","4","37.7833333","-3.8166666","580.0","JAEN, SP","FM-12","99999","V020","280,1,N,0010,1","22000,1,9,N","015000,1,N,1","+0108,1","+0049,1","10286,1","12,0000,9,1","24,0000,9,1",,,"00,1,+99999,9,99,9","00,99,1,00,1,00,1,99999,9,00,1,00,1","999,N,+0108,1","99999,9,09599,1","3,1,002,1,+999,9",,"SYN088AAXX  04064 08417 12965 02802 10108 20049 39599 40286 53002 60002 333 20108 55/// 70000;","Q01  00002PRCP24Q02  00002PRCP12"
"08417099999","2010-11-04T12:00:00","4","37.7833333","-3.8166666","580.0","JAEN, SP","FM-12","99999","V020","030,1,N,0005,1","22000,1,9,N","015000,1,N,1","+0176,1","+0082,1","10287,1","06,0000,9,1",,,,"00,1,+99999,9,99,9","00,99,1,00,1,00,1,99999,9,00,1,00,1",,"99999,9,09616,1","0,1,000,1,+999,9",,"SYN066AAXX  04124 08417 12965 00301 10176 20082 39616 40287 50000 60001;","Q01  00002PRCP06"
"08417099999","2010-11-05T06:00:00","4","37.7833333","-3.8166666","580.0","JAEN, SP","FM-12","99999","V020","020,1,N,0005,1","22000,1,9,N","015000,1,N,1","+0136,1","+0047,1","10277,1","12,0000,9,1","24,0000,9,1",,,"00,1,+99999,9,99,9","00,99,1,00,1,00,1,99999,9,00,1,00,1","999,N,+0108,1","99999,9,09597,1","4,1,000,1,+999,9",,"SYN088AAXX  05064 08417 12965 00201 10136 20047 39597 40277 54000 60002 333 20108 55/// 70000;","Q01  00002PRCP24Q02  00002PRCP12"
"08417099999","2010-11-05T09:00:00","4","37.7833333","-3.8166666","580.0","JAEN, SP","FM-12","99999","V020","050,1,N,0031,1","22000,1,9,N","015000,1,N,1","+0174,1","+0057,1","10274,1",,,,,"00,1,+99999,9,99,9","00,99,1,00,1,00,1,99999,9,00,1,00,1",,"99999,9,09603,1","2,1,006,1,+999,9",,"SYN060AAXX  05094 08417 42965 00506 10174 20057 39603 40274 52006;",
"08417099999","2010-11-05T12:00:00","4","37.7833333","-3.8166666","580.0","JAEN, SP","FM-12","99999","V020","040,1,N,0005,1","22000,1,9,N","015000,1,N,1","+0178,1","+0092,1","10272,1","06,0000,9,1",,,,"00,1,+99999,9,99,9","00,99,1,00,1,00,1,99999,9,00,1,00,1",,"99999,9,09603,1","0,1,000,1,+999,9",,"SYN066AAXX  05124 08417 12965 00401 10178 20092 39603 40272 50000 60001;","Q01  00002PRCP06"
"08417099999","2010-11-08T06:00:00","4","37.7833333","-3.8166666","580.0","JAEN, SP","FM-12","99999","V020","300,1,N,0010,1","99999,9,9,N","015000,1,N,1","+0110,1","+0051,1","10096,1","12,0000,9,1","24,0000,9,1",,,,"05,99,1,05,1,00,1,99999,9,07,1,00,1","999,N,+0108,1","99999,9,09423,1","7,1,013,1,+999,9","02,1","SYN100AAXX  08064 08417 11965 53002 10110 20051 39423 40096 57013 60002 702// 85070 333 20108 55/// 70000;","Q01  00002PRCP24Q02  00002PRCP12"
"08417099999","2010-11-08T09:00:00","4","37.7833333","-3.8166666","580.0","JAEN, SP","FM-12","99999","V020","290,1,N,0021,1","22000,1,9,N","015000,1,N,1","+0112,1","+0040,1","10095,1",,,,,,"04,99,1,04,1,00,1,99999,9,04,1,00,1",,"99999,9,09422,1","6,1,001,1,+999,9",,"SYN066AAXX  08094 08417 42965 42904 10112 20040 39422 40095 56001 84040;",
"08417099999","2010-11-08T12:00:00","4","37.7833333","-3.8166666","580.0","JAEN, SP","FM-12","99999","V020","999,9,C,0000,1","99999,9,9,N","015000,1,N,1","+0120,1","+0040,1","10089,1","06,0000,9,1",,,,,"05,99,1,05,1,00,1,99999,9,04,1,00,1",,"99999,9,09418,1","7,1,004,1,+999,9",,"SYN072AAXX  08124 08417 12965 50000 10120 20040 39418 40089 57004 60001 85040;","Q01  00002PRCP06"
"08417099999","2010-11-09T06:00:00","4","37.7833333","-3.8166666","580.0","JAEN, SP","FM-12","99999","V020","270,1,N,0087,1","03600,1,9,N","010000,1,N,1","+0132,1","+0091,1","09990,1","12,0000,9,1","24,0000,9,1",,,,"06,99,1,02,1,07,1,00800,1,07,1,00,1","999,N,+0122,1","99999,9,09329,1","7,1,013,1,+999,9","02,1","SYN100AAXX  09064 08417 11560 62717 10132 20091 39329 49990 57013 60002 702// 82770 333 20122 55/// 70000;","Q01  00002PRCP24Q02  00002PRCP12"
"08417099999","2010-11-09T09:00:00","4","37.7833333","-3.8166666","580.0","JAEN, SP","FM-12","99999","V020","270,1,N,0077,1","03600,1,9,N","010000,1,N,1","+0130,1","+0093,1","09989,1",,,,,,"08,99,1,01,1,07,1,00800,1,07,1,00,1",,"99999,9,09328,1","5,1,001,1,+999,9",,"SYN066AAXX  09094 08417 42560 82715 10130 20093 39328 49989 55001 81770;",
"08417099999","2010-11-09T12:00:00","4","37.7833333","-3.8166666","580.0","JAEN, SP","FM-12","99999","V020","280,1,N,0062,1","03600,1,9,N","008000,1,N,1","+0130,1","+0102,1","09986,1","06,0099,9,1",,"6,1,06,1","2,1,06,1",,"08,99,1,02,1,07,1,00800,1,07,1,00,1",,"99999,9,09325,1","7,1,003,1,+999,9","62,1","SYN078AAXX  09124 08417 11558 82812 10130 20102 39325 49986 57003 60101 76262 82770;",
"08417099999","2010-11-10T06:00:00","4","37.7833333","-3.8166666","580.0","JAEN, SP","FM-12","99999","V020","280,1,N,0031,1","03600,1,9,N","010000,1,N,1","+0090,1","+0044,1","10095,1","12,0160,9,1","24,0160,9,1",,,,"07,99,1,04,1,08,1,00800,1,07,1,00,1","999,N,+0084,1","99999,9,09417,1","2,1,017,1,+999,9","02,1","SYN100AAXX  10064 08417 11560 72806 10090 20044 39417 40095 52017 60162 702// 84870 333 20084 55/// 70161;",
"08417099999","2010-11-10T09:00:00","4","37.7833333","-3.8166666","580.0","JAEN, SP","FM-12","99999","V020","280,1,N,0041,1","03600,1,9,N","010000,1,N,1","+0098,1","+0046,1","10112,1",,,,,,"07,99,1,02,1,08,1,00800,1,07,1,00,1",,"99999,9,09435,1","2,1,018,1,+999,9",,"SYN066AAXX  10094 08417 42560 72808 10098 20046 39435 40112 52018 82870;",
"08417099999","2010-11-10T12:00:00","4","37.7833333","-3.8166666","580.0","JAEN, SP","FM-12","99999","V020","260,1,N,0036,1","99999,9,9,N","010000,1,N,1","+0108,1","+0045,1","10132,1","06,0000,9,1",,,,,"07,99,1,07,1,00,1,99999,9,07,1,00,1",,"99999,9,09456,1","2,1,021,1,+999,9",,"SYN072AAXX  10124 08417 12960 72607 10108 20045 39456 40132 52021 60001 87070;","Q01  00002PRCP06"
"08417099999","2010-11-11T06:00:00","4","37.7833333","-3.8166666","580.0","JAEN, SP","FM-12","99999","V020","999,9,C,0000,1","22000,1,9,N","012000,1,N,1","+0078,1","+0003,1","10247,1","12,0000,9,1","24,0000,9,1",,,"00,1,+99999,9,99,9","00,99,1,00,1,00,1,99999,9,00,1,00,1","999,N,+0066,1","99999,9,09555,1","2,1,010,1,+999,9","02,1","SYN094AAXX  11064 08417 11962 00000 10078 20003 39555 40247 52010 60002 702// 333 20066 55/// 70000;","Q01  00002PRCP24Q02  00002PRCP12"
"08417099999","2010-11-11T09:00:00","4","37.7833333","-3.8166666","580.0","JAEN, SP","FM-12","99999","V020","999,9,C,0000,1","22000,1,9,N","015000,1,N,1","+0100,1","+0019,1","10260,1",,,,,"00,1,+99999,9,99,9","00,99,1,00,1,00,1,99999,9,00,1,00,1",,"99999,9,09573,1","2,1,018,1,+999,9",,"SYN060AAXX  11094 08417 42965 00000 10100 20019 39573 40260 52018;",
"08417099999","2010-11-11T12:00:00","4","37.7833333","-3.8166666","580.0","JAEN, SP","FM-12","99999","V020","020,1,N,0010,1","22000,1,9,N","015000,1,N,1","+0124,1","+0034,1","10269,1","06,0000,9,1",,,,,"02,99,1,00,1,00,1,99999,9,00,1,01,1",,"99999,9,09587,1","1,1,014,1,+999,9",,"SYN072AAXX  11124 08417 12965 20202 10124 20034 39587 40269 51014 60001 80001;","Q01  00002PRCP06"
"08417099999","2010-11-12T06:00:00","4","37.7833333","-3.8166666","580.0","JAEN, SP","FM-12","99999","V020","999,9,C,0000,1","22000,1,9,N","012000,1,N,1","+0094,1","+0046,1","10272,1","12,0000,9,1","24,0000,9,1",,,,"02,99,1,00,1,00,1,99999,9,00,1,01,1","999,N,+0083,1","99999,9,09583,1","7,1,004,1,+999,9","02,1","SYN100AAXX  12064 08417 11962 20000 10094 20046 39583 40272 57004 60002 702// 80001 333 20083 55/// 70000;","Q01  00002PRCP24Q02  00002PRCP12"
"08417099999","2010-11-12T09:00:00","4","37.7833333","-3.8166666","580.0","JAEN, SP","FM-12","99999","V020","070,1,N,0010,1","22000,1,9,N","012000,1,N,1","+0118,1","+0057,1","10268,1",,,,,,"03,99,1,00,1,00,1,99999,9,00,1,01,1",,"99999,9,09585,1","3,1,002,1,+999,9",,"SYN066AAXX  12094 08417 42962 30702 10118 20057 39585 40268 53002 80001;",
"08417099999","2010-11-12T12:00:00","4","37.7833333","-3.8166666","580.0","JAEN, SP","FM-12","99999","V020","030,1,N,0010,1","22000,1,9,N","015000,1,N,1","+0132,1","+0059,1","10257,1","06,0000,9,1",,,,,"02,99,1,00,1,00,1,99999,9,00,1,01,1",,"99999,9,09578,1","7,1,007,1,+999,9",,"SYN072AAXX  12124 08417 12965 20302 10132 20059 39578 40257 57007 60001 80001;","Q01  00002PRCP06"
"08417099999","2010-11-15T06:00:00","4","37.7833333","-3.8166666","580.0","JAEN, SP","FM-12","99999","V020","280,1,N,0051,1","22000,1,9,N","012000,1,N,1","+0070,1","+0002,1","10224,1","12,0020,9,1","24,0028,9,1",,,"00,1,+99999,9,99,9","00,99,1,00,1,00,1,99999,9,00,1,00,1","999,N,+0068,1","99999,9,09532,1","2,1,012,1,+999,9","02,1","SYN094AAXX  15064 08417 11962 02810 10070 20002 39532 40224 52012 60022 702// 333 20068 55/// 70029;",
"08417099999","2010-11-15T09:00:00","4","37.7833333","-3.8166666","580.0","JAEN, SP","FM-12","99999","V020","290,1,N,0026,1","22000,1,9,N","015000,1,N,1","+0076,1","+0006,1","10241,1",,,,,"00,1,+99999,9,99,9","00,99,1,00,1,00,1,99999,9,00,1,00,1",,"99999,9,09549,1","2,1,017,1,+999,9",,"SYN060AAXX  15094 08417 42965 02905 10076 20006 39549 40241 52017;",
"08417099999","2010-11-15T12:00:00","4","37.7833333","-3.8166666","580.0","JAEN, SP","FM-12","99999","V020","320,1,N,0021,1","22000,1,9,N","015000,1,N,1","+0096,1","+0015,1","10251,1","06,0000,9,1",,,,,"02,99,1,02,1,01,1,00800,1,00,1,00,1",,"99999,9,09563,1","2,1,014,1,+999,9",,"SYN072AAXX  15124 08417 12565 23204 10096 20015 39563 40251 52014 60001 82100;","Q01  00002PRCP06"
"08417099999","2010-11-16T06:00:00","4","37.7833333","-3.8166666","580.0","JAEN, SP","FM-12","99999","V020","999,9,C,0000,1","22000,1,9,N","015000,1,N,1","+0064,1","+0021,1","10288,1","12,0000,9,1","24,0000,9,1",,,"00,1,+99999,9,99,9","00,99,1,00,1,00,1,99999,9,00,1,00,1","999,N,+0060,1","99999,9,09590,1","7,1,009,1,+999,9","02,1","SYN094AAXX  16064 08417 11965 00000 10064 20021 39590 40288 57009 60002 702// 333 20060 55/// 70000;","Q01  00002PRCP24Q02  00002PRCP12"
"08417099999","2010-11-16T09:00:00","4","37.7833333","-3.8166666","580.0","JAEN, SP","FM-12","99999","V020","100,1,N,0005,1","22000,1,9,N","015000,1,N,1","+0082,1","+0027,1","10291,1",,,,,,"02,99,1,00,1,00,1,99999,9,00,1,01,1",,"99999,9,09598,1","3,1,008,1,+999,9",,"SYN066AAXX  16094 08417 42/65 21001 10082 20027 39598 40291 53008 80001;",
"08417099999","2010-11-16T12:00:00","4","37.7833333","-3.8166666","580.0","JAEN, SP","FM-12","99999","V020","050,1,N,0010,1","22000,1,9,N","015000,1,N,1","+0108,1","+0029,1","10271,1","06,0000,9,1",,,,,"04,99,1,00,1,00,1,99999,9,00,1,07,1",,"99999,9,09585,1","7,1,013,1,+999,9",,"SYN072AAXX  16124 08417 12965 40502 10108 20029 39585 40271 57013 60001 80007;","Q01  00002PRCP06"
"08417099999","2010-11-17T06:00:00","4","37.7833333","-3.8166666","580.0","JAEN, SP","FM-12","99999","V020","240,1,N,0005,1","02100,1,9,N","015000,1,N,1","+0076,1","+0008,1","10199,1","12,0000,9,1","24,0000,9,1",,,,"07,99,1,07,1,00,1,02250,1,07,1,00,1","999,N,+0070,1","99999,9,09510,1","6,1,005,1,+999,9","02,1","SYN100AAXX  17064 08417 11865 72401 10076 20008 39510 40199 56005 60002 702// 87070 333 20070 55/// 70000;","Q01  00002PRCP24Q02  00002PRCP12"
"08417099999","2010-11-17T09:00:00","4","37.7833333","-3.8166666","580.0","JAEN, SP","FM-12","99999","V020","999,9,C,0000,1","03600,1,9,N","010000,1,N,1","+0082,1","+0050,1","10203,1",,,"6,1,03,1","2,1,03,1",,"08,99,1,01,1,07,1,00800,1,07,1,00,1",,"99999,9,09516,1","3,1,006,1,+999,9","63,1","SYN072AAXX  17094 08417 41560 80000 10082 20050 39516 40203 53006 76362 81770;",
"08417099999","2010-11-17T12:00:00","4","37.7833333","-3.8166666","580.0","JAEN, SP","FM-12","99999","V020","999,9,C,0000,1","02100,1,9,N","010000,1,N,1","+0086,1","+0059,1","10183,1","06,0010,9,1",,"6,1,06,1","2,1,06,1",,"08,99,1,08,1,00,1,02250,1,07,1,00,1",,"99999,9,09498,1","7,1,018,1,+999,9","02,1","SYN078AAXX  17124 08417 11860 80000 10086 20059 39498 40183 57018 60011 70262 88070;",
"08417099999","2010-11-18T06:00:00","4","37.7833333","-3.8166666","580.0","JAEN, SP","FM-12","99999","V020","999,9,C,0000,1","00090,1,9,N","000800,1,N,1","+0040,1","+0027,1","10206,1","12,0000,9,1","24,0020,9,1",,,"09,1,+00090,1,99,9","09,99,1,09,1,99,9,99999,9,99,9,99,9","999,N,+0032,1","99999,9,09508,1","4,1,000,1,+999,9","11,1","SYN100AAXX  18064 08417 11/08 90000 10040 20027 39508 40206 54000 60002 711// 333 20032 55/// 70020 89/03;","Q01  00002PRCP12"
"08417099999","2010-11-18T09:00:00","4","37.7833333","-3.8166666","580.0","JAEN, SP","FM-12","99999","V020","999,9,C,0000,1","00480,1,9,N","000500,1,N,1","+0040,1","+0028,1","10229,1",,,"4,1,03,1","4,1,03,1","09,1,+00480,1,99,9","09,99,1,09,1,99,9,99999,9,99,9,99,9",,"99999,9,09530,1","2,1,022,1,+999,9","11,1","SYN076AAXX  18094 08417 41/05 90000 10040 20028 39530 40229 52022 71144 333 89/16;",
"08417099999","2010-11-18T12:00:00","4","37.7833333","-3.8166666","580.0","JAEN, SP","FM-12","99999","V020","090,1,N,0010,1","00420,1,9,N","001000,1,N,1","+0060,1","+0046,1","10225,1","06,0000,9,1",,"4,1,06,1","4,1,06,1",,"08,99,1,05,1,06,1,00450,1,07,1,00,1",,"99999,9,09531,1","0,1,001,1,+999,9","10,1","SYN078AAXX  18124 08417 11410 80902 10060 20046 39531 40225 50001 60001 71044 85670;","Q01  00002PRCP06"
"08417099999","2010-11-19T06:00:00","4","37.7833333","-3.8166666","580.0","JAEN, SP","FM-12","99999","V020","270,1,N,0005,1","03600,1,9,N","008000,1,N,1","+0054,1","+0008,1","10213,1","12,0000,9,1","24,0000,9,1",,,,"08,99,1,02,1,07,1,00800,1,07,1,00,1","999,N,+0036,1","99999,9,09518,1","4,1,000,1,+999,9","10,1","SYN100AAXX  19064 08417 11558 82701 10054 20008 39518 40213 54000 60002 710// 82770 333 20036 55/// 70000;","Q01  00002PRCP24Q02  00002PRCP12"
"08417099999","2010-11-19T09:00:00","4","37.7833333","-3.8166666","580.0","JAEN, SP","FM-12","99999","V020","999,9,C,0000,1","03600,1,9,N","008000,1,N,1","+0074,1","+0015,1","10204,1",,,"2,1,03,1","2,1,03,1",,"08,99,1,03,1,08,1,00800,1,07,1,00,1",,"99999,9,09514,1","7,1,004,1,+999,9","10,1","SYN072AAXX  19094 08417 41558 80000 10074 20015 39514 40204 57004 71022 83870;",
"08417099999","2010-11-19T12:00:00","4","37.7833333","-3.8166666","580.0","JAEN, SP","FM-12","99999","V020","090,1,N,0010,1","22000,1,9,N","015000,1,N,1","+0100,1","+0033,1","10190,1","06,0000,9,1",,,,"00,1,+99999,9,99,9","00,99,1,00,1,00,1,99999,9,00,1,00,1",,"99999,9,09508,1","7,1,006,1,+999,9",,"SYN066AAXX  19124 08417 12965 00902 10100 20033 39508 40190 57006 60001;","Q01  00002PRCP06"
"08417099999","2010-11-22T06:00:00","4","37.7833333","-3.8166666","580.0","JAEN, SP","FM-12","99999","V020","270,1,N,0031,1","01200,1,9,N","010000,1,N,1","+0074,1","+0025,1","10153,1","12,0000,9,1","24,0000,9,1",,,,"08,99,1,05,1,08,1,00800,1,07,1,00,1","999,N,+0070,1","99999,9,09467,1","5,1,000,1,+999,9","02,1","SYN100AAXX  22064 08417 11560 82706 10074 20025 39467 40153 55000 60002 702// 85870 333 20070 55/// 70000;","Q01  00002PRCP24Q02  00002PRCP12"
"08417099999","2010-11-22T09:00:00","4","37.7833333","-3.8166666","580.0","JAEN, SP","FM-12","99999","V020","280,1,N,0026,1","02100,1,9,N","010000,1,N,1","+0078,1","+0021,1","10158,1",,,,,,"06,99,1,06,1,00,1,02250,1,07,1,00,1",,"99999,9,09473,1","3,1,006,1,+999,9",,"SYN066AAXX  22094 08417 42860 62805 10078 20021 39473 40158 53006 86070;",
"08417099999","2010-11-22T12:00:00","4","37.7833333","-3.8166666","580.0","JAEN, SP","FM-12","99999","V020","290,1,N,0021,1","03600,1,9,N","012000,1,N,1","+0086,1","+0020,1","10155,1","06,0000,9,1",,,,,"06,99,1,04,1,02,1,00800,1,07,1,00,1",,"99999,9,09472,1","8,1,001,1,+999,9",,"SYN072AAXX  22124 08417 12562 62904 10086 20020 39472 40155 58001 60001 84270;","Q01  00002PRCP06"
"08417099999","2010-11-23T06:00:00","4","37.7833333","-3.8166666","580.0","JAEN, SP","FM-12","99999","V020","999,9,C,0000,1","03600,1,9,N","010000,1,N,1","+0074,1","+0017,1","10162,1","12,0000,9,1","24,0000,9,1",,,,"07,99,1,04,1,08,1,00800,1,07,1,00,1","999,N,+0070,1","99999,9,09475,1","4,1,000,1,+999,9","02,1","SYN100AAXX  23064 08417 11560 70000 10074 20017 39475 40162 54000 60002 702// 84870 333 20070 55/// 70000;","Q01  00002PRCP24Q02  00002PRCP12"
"08417099999","2010-11-23T09:00:00","4","37.7833333","-3.8166666","580.0","JAEN, SP","FM-12","99999","V020","999,9,C,0000,1","02100,1,9,N","010000,1,N,1","+0086,1","+0036,1","10169,1",,,,,,"08,99,1,08,1,00,1,02250,1,07,1,00,1",,"99999,9,09485,1","2,1,010,1,+999,9",,"SYN066AAXX  23094 08417 42860 80000 10086 20036 39485 40169 52010 88070;",
"08417099999","2010-11-23T12:00:00","4","37.7833333","-3.8166666","580.0","JAEN, SP","FM-12","99999","V020","340,1,N,0005,1","99999,9,9,N","010000,1,N,1","+0104,1","+0048,1","10163,1","06,0000,9,1",,,,,"07,99,1,07,1,00,1,99999,9,02,1,00,1",,"99999,9,09484,1","8,1,001,1,+999,9",,"SYN072AAXX  23124 08417 12960 73401 10104 20048 39484 40163 58001 60001 87020;","Q01  00002PRCP06"
"08417099999","2010-11-24T06:00:00","4","37.7833333","-3.8166666","580.0","JAEN, SP","FM-12","99999","V020","999,9,C,0000,1","03600,1,9,N","004000,1,N,1","+0086,1","+0074,1","10147,1","12,0051,9,1","24,0051,9,1",,,,"08,99,1,04,1,07,1,00450,1,07,1,00,1","999,N,+0078,1","99999,9,09465,1","2,1,004,1,+999,9","51,1","SYN100AAXX  24064 08417 11440 80000 10086 20074 39465 40147 52004 60052 751// 84770 333 20078 55/// 70050;",
"08417099999","2010-11-24T09:00:00","4","37.7833333","-3.8166666","580.0","JAEN, SP","FM-12","99999","V020","999,9,C,0000,1","03600,1,9,N","005000,1,N,1","+0106,1","+0094,1","10150,1",,,"5,1,03,1","2,1,03,1",,"08,99,1,04,1,07,1,00450,1,07,1,00,1",,"99999,9,09473,1","2,1,008,1,+999,9","10,1","SYN072AAXX  24094 08417 41450 80000 10106 20094 39473 40150 52008 71052 84770;",
"08417099999","2010-11-24T12:00:00","4","37.7833333","-3.8166666","580.0","JAEN, SP","FM-12","99999","V020","999,9,C,0000,1","03600,1,9,N","001000,1,N,1","+0110,1","+0098,1","10149,1","06,0008,9,1",,"5,1,06,1","2,1,06,1",,"08,99,1,03,1,07,1,00450,1,07,1,00,1",,"99999,9,09473,1","0,1,000,1,+999,9","10,1","SYN078AAXX  24124 08417 11410 80000 10110 20098 39473 40149 50000 69981 71052 83770;",
"08417099999","2010-11-25T06:00:00","4","37.7833333","-3.8166666","580.0","JAEN, SP","FM-12","99999","V020","999,9,C,0000,1","00420,1,9,N","000500,1,N,1","+0122,1","+0101,1","10129,1","12,0020,9,1","24,0058,9,1",,,,"08,99,1,05,1,07,1,00450,1,07,1,00,1","999,N,+0116,1","99999,9,09457,1","7,1,003,1,+999,9","11,1","SYN100AAXX  25064 08417 11405 80000 10122 20101 39457 40129 57003 60022 711// 85770 333 20116 55/// 70059;",
"08417099999","2010-11-25T09:00:00","4","37.7833333","-3.8166666","580.0","JAEN, SP","FM-12","99999","V020","100,1,N,0005,1","22000,1,9,N","008000,1,N,1","+0122,1","+0101,1","10141,1",,,"4,1,03,1","4,1,03,1","00,1,+99999,9,99,9","00,99,1,00,1,00,1,99999,9,00,1,00,1",,"99999,9,09468,1","2,1,011,1,+999,9","10,1","SYN066AAXX  25094 08417 41958 01001 10122 20101 39468 40141 52011 71044;",
"08417099999","2010-11-25T12:00:00","4","37.7833333","-3.8166666","580.0","JAEN, SP","FM-12","99999","V020","270,1,N,0015,1","03600,1,9,N","010000,1,N,1","+0150,1","+0083,1","10128,1","06,0000,9,1",,,,,"06,99,1,03,1,08,1,00800,1,07,1,00,1",,"99999,9,09462,1","8,1,006,1,+999,9",,"SYN072AAXX  25124 08417 12560 62703 10150 20083 39462 40128 58006 60001 83870;","Q01  00002PRCP06"
"08417099999","2010-11-26T06:00:00","4","37.7833333","-3.8166666","580.0","JAEN, SP","FM-12","99999","V020","260,1,N,0005,1","03600,1,9,N","010000,1,N,1","+0074,1","+0027,1","10123,1","12,0000,9,1","24,0000,9,1",,,,"08,99,1,02,1,08,1,00800,1,07,1,00,1","999,N,+0073,1","99999,9,09439,1","4,1,000,1,+999,9","02,1","SYN100AAXX  26064 08417 11560 82601 10074 20027 39439 40123 54000 60002 702// 82870 333 20073 55/// 70000;","Q01  00002PRCP24Q02  00002PRCP12"
"08417099999","2010-11-26T09:00:00","4","37.7833333","-3.8166666","580.0","JAEN, SP","FM-12","99999","V020","999,9,C,0000,1","02100,1,9,N","010000,1,N,1","+0076,1","+0012,1","10117,1",,,,,,"07,99,1,07,1,00,1,02250,1,07,1,00,1",,"99999,9,09434,1","8,1,005,1,+999,9",,"SYN066AAXX  26094 08417 42860 70000 10076 20012 39434 40117 58005 87070;",
"08417099999","2010-11-26T12:00:00","4","37.7833333","-3.8166666","580.0","JAEN, SP","FM-12","99999","V020","350,1,N,0005,1","99999,9,9,N","012000,1,N,1","+0096,1","+0027,1","10105,1","06,0000,9,1",,,,,"07,99,1,07,1,00,1,99999,9,07,1,00,1",,"99999,9,09427,1","7,1,007,1,+999,9",,"SYN072AAXX  26124 08417 12962 73501 10096 20027 39427 40105 57007 60001 87070;","Q01  00002PRCP06"
"08417099999","2010-11-29T06:00:00","4","37.7833333","-3.8166666","580.0","JAEN, SP","FM-12","99999","V020","130,1,N,0046,1","02100,1,9,N","008000,1,N,1","+0060,1","+0013,1","10083,1","12,0000,9,1","24,0000,9,1",,,,"08,99,1,08,1,00,1,02250,1,07,1,00,1","999,N,+0041,1","99999,9,09398,1","7,1,017,1,+999,9","10,1","SYN100AAXX  29064 08417 11858 81309 10060 20013 39398 40083 57017 60002 710// 88070 333 20041 55/// 70000;","Q01  00002PRCP24Q02  00002PRCP12"
"08417099999","2010-11-29T09:00:00","4","37.7833333","-3.8166666","580.0","JAEN, SP","FM-12","99999","V020","130,1,N,0041,1","02100,1,9,N","008000,1,N,1","+0054,1","+0022,1","10045,1",,,"6,1,03,1","2,1,03,1",,"08,99,1,08,1,00,1,02250,1,07,1,00,1",,"99999,9,09362,1","7,1,036,1,+999,9","21,1","SYN072AAXX  29094 08417 41858 81308 10054 20022 39362 40045 57036 72162 88070;",
"08417099999","2010-11-29T12:00:00","4","37.7833333","-3.8166666","580.0","JAEN, SP","FM-12","99999","V020","130,1,N,0031,1","02100,1,9,N","008000,1,N,1","+0056,1","+0028,1","10013,1","06,0089,9,1",,"6,1,06,1","2,1,06,1",,"08,99,1,08,1,00,1,02250,1,07,1,00,1",,"99999,9,09332,1","7,1,030,1,+999,9","63,1","SYN078AAXX  29124 08417 11858 81306 10056 20028 39332 40013 57030 60091 76362 88070;",
"08417099999","2010-11-30T06:00:00","4","37.7833333","-3.8166666","580.0","JAEN, SP","FM-12","99999","V020","999,9,C,0000,1","03600,1,9,N","002000,1,N,1","+0066,1","+0052,1","10018,1","12,0003,9,1","24,0175,9,1",,,,"08,99,1,04,1,07,1,00450,1,07,1,00,1","999,N,+0041,1","99999,9,09340,1","5,1,000,1,+999,9","51,1","SYN100AAXX  30064 08417 11420 80000 10066 20052 39340 40018 55000 69932 751// 84770 333 20041 55/// 70174;",
"08417099999","2010-11-30T09:00:00","4","37.7833333","-3.8166666","580.0","JAEN, SP","FM-12","99999","V020","999,9,C,0000,1","03600,1,9,N","002000,1,N,1","+0068,1","+0057,1","10018,1",,,"5,1,03,1","2,1,03,1",,"08,99,1,04,1,07,1,00450,1,07,1,00,1",,"99999,9,09340,1","4,1,000,1,+999,9","10,1","SYN072AAXX  30094 08417 41420 80000 10068 20057 39340 40018 54000 71052 84770;",
"08417099999","2010-11-30T12:00:00","4","37.7833333","-3.8166666","580.0","JAEN, SP","FM-12","99999","V020","999,9,C,0000,1","03600,1,9,N","010000,1,N,1","+0084,1","+0072,1","10001,1","06,0020,9,1",,"5,1,06,1","2,1,06,1",,"08,99,1,02,1,07,1,00800,1,07,1,00,1",,"99999,9,09328,1","8,1,012,1,+999,9","02,1","SYN078AAXX  30124 08417 11560 80000 10084 20072 39328 40001 58012 60021 70252 82770;",
"08417099999","2010-12-01T06:00:00","4","37.7833333","-3.8166666","580.0","JAEN, SP","FM-12","99999","V020","230,1,N,0031,1","03600,1,9,N","012000,1,N,1","+0070,1","+0002,1","10066,1","12,0020,9,1","24,0041,9,1",,,,"06,99,1,04,1,08,1,00800,1,07,1,00,1","999,N,+0069,1","99999,9,09385,1","3,1,003,1,+999,9","02,1","SYN100AAXX  01064 08417 11562 62306 10070 20002 39385 40066 53003 60022 702// 84870 333 20069 55/// 70041;",
"08417099999","2010-12-01T09:00:00","4","37.7833333","-3.8166666","580.0","JAEN, SP","FM-12","99999","V020","240,1,N,0021,1","02100,1,9,N","010000,1,N,1","+0076,1","+0010,1","10072,1",,,"2,1,03,1","2,1,03,1",,"08,99,1,08,1,00,1,02250,1,07,1,00,1",,"99999,9,09392,1","2,1,007,1,+999,9","61,1","SYN072AAXX  01094 08417 41860 82404 10076 20010 39392 40072 52007 76122 88070;",
"08417099999","2010-12-01T12:00:00","4","37.7833333","-3.8166666","580.0","JAEN, SP","FM-12","99999","V020","260,1,N,0057,1","03600,1,9,N","012000,1,N,1","+0086,1","+0015,1","10078,1","06,0071,9,1",,"6,1,06,1","2,1,06,1",,"07,99,1,01,1,08,1,00800,1,07,1,00,1",,"99999,9,09400,1","2,1,008,1,+999,9","02,1","SYN078AAXX  01124 08417 11562 72611 10086 20015 39400 40078 52008 60071 70262 81870;",
"08417099999","2010-12-02T06:00:00","4","37.7833333","-3.8166666","580.0","JAEN, SP","FM-12","99999","V020","270,1,N,0041,1","03600,1,9,N","008000,1,N,1","+0076,1","+0040,1","10123,1","12,0041,9,1","24,0051,9,1",,,,"08,99,1,03,1,07,1,00800,1,07,1,00,1","999,N,+0068,1","99999,9,09440,1","6,1,002,1,+999,9","10,1","SYN100AAXX  02064 08417 11558 82708 10076 20040 39440 40123 56002 60042 710// 83770 333 20068 55/// 70050;",
"08417099999","2010-12-02T09:00:00","4","37.7833333","-3.8166666","580.0","JAEN, SP","FM-12","99999","V020","270,1,N,0031,1","02100,1,9,N","010000,1,N,1","+0070,1","+0040,1","10154,1",,,"6,1,03,1","2,1,03,1",,"08,99,1,08,1,00,1,02250,1,07,1,00,1",,"99999,9,09467,1","2,1,027,1,+999,9","02,1","SYN072AAXX  02094 08417 41860 82706 10070 20040 39467 40154 52027 70262 88070;",
"08417099999","2010-12-02T12:00:00","4","37.7833333","-3.8166666","580.0","JAEN, SP","FM-12","99999","V020","270,1,N,0031,1","22000,1,9,N","012000,1,N,1","+0080,1","+0010,1","10163,1","06,0003,9,1",,"6,1,06,1","1,1,06,1",,"03,99,1,03,1,02,1,00800,1,00,1,00,1",,"99999,9,09478,1","2,1,011,1,+999,9","02,1","SYN078AAXX  02124 08417 11562 32706 10080 20010 39478 40163 52011 69931 70261 83200;",
"08417099999","2010-12-03T06:00:00","4","37.7833333","-3.8166666","580.0","JAEN, SP","FM-12","99999","V020","260,1,N,0062,1","03600,1,9,N","008000,1,N,1","+0042,1","-0004,1","10195,1","12,9999,9,9","24,9999,9,9",,,,"08,99,1,04,1,07,1,00800,1,07,1,00,1","999,N,+0026,1","99999,9,09498,1","3,1,012,1,+999,9","21,1","SYN100AAXX  03064 08417 11558 82612 10042 21004 39498 40195 53012 60002 721// 84770 333 20026 55/// 70000;","Q01  00002PRCP24Q02  00002PRCP12Q03  00002PRCP12Q04  00002PRCP24"
"08417099999","2010-12-03T09:00:00","4","37.7833333","-3.8166666","580.0","JAEN, SP","FM-12","99999","V020","270,1,N,0036,1","22000,1,9,N","012000,1,N,1","+0026,1","-0005,1","10229,1",,,,,,"02,99,1,02,1,02,1,00800,1,00,1,00,1",,"99999,9,09526,1","2,1,028,1,+999,9",,"SYN066AAXX  03094 08417 42562 22707 10026 21005 39526 40229 52028 82200;",
"08417099999","2010-12-03T12:00:00","4","37.7833333","-3.8166666","580.0","JAEN, SP","FM-12","99999","V020","999,9,C,0000,1","22000,1,9,N","015000,1,N,1","+0040,1","-0022,1","10236,1","06,0000,2,1",,,,,"02,99,1,02,1,02,1,00800,1,00,1,00,1",,"99999,9,09536,1","2,1,010,1,+999,9",,"SYN072AAXX  03124 08417 12565 20000 10040 21022 39536 40236 52010 60001 82200;",
"08417099999","2010-12-07T06:00:00","4","37.7833333","-3.8166666","580.0","JAEN, SP","FM-12","99999","V020","190,1,N,0046,1","03600,1,9,N","012000,1,N,1","+0176,1","+0087,1","10055,1","12,0191,9,1","24,0277,9,1",,,,"06,99,1,04,1,08,1,00800,1,07,1,00,1","999,N,+0160,1","99999,9,09400,1","7,1,020,1,+999,9","02,1","SYN100AAXX  07064 08417 11562 61909 10176 20087 39400 40055 57020 60192 702// 84870 333 20160 55/// 70276;",
"08417099999","2010-12-07T09:00:00","4","37.7833333","-3.8166666","580.0","JAEN, SP","FM-12","99999","V020","210,1,N,0021,1","03600,1,9,N","012000,1,N,1","+0176,1","+0085,1","10072,1",,,,,,"06,99,1,04,1,08,1,00800,1,07,1,00,1",,"99999,9,09415,1","1,1,015,1,+999,9",,"SYN066AAXX  07094 08417 42562 62104 10176 20085 39415 40072 51015 84870;",
"08417099999","2010-12-07T12:00:00","4","37.7833333","-3.8166666","580.0","JAEN, SP","FM-12","99999","V020","290,1,N,0026,1","01200,1,9,N","012000,1,N,1","+0124,1","+0098,1","10099,1","06,0000,9,1",,,,,"08,99,1,06,1,08,1,00800,1,07,1,00,1",,"99999,9,09429,1","0,1,014,1,+999,9",,"SYN072AAXX  07124 08417 12562 82905 10124 20098 39429 40099 50014 60001 86870;","Q01  00002PRCP06"
"08417099999","2010-12-09T06:00:00","4","37.7833333","-3.8166666","580.0","JAEN, SP","FM-12","99999","V020","999,9,C,0000,1","22000,1,9,N","012000,1,N,1","+0120,1","+0077,1","10191,1","12,0000,9,1","24,0000,9,1",,,"00,1,+99999,9,99,9","00,99,1,00,1,00,1,99999,9,00,1,00,1","999,N,+0118,1","99999,9,09514,1","4,1,000,1,+999,9","02,1","SYN094AAXX  09064 08417 11962 00000 10120 20077 39514 40191 54000 60002 702// 333 20118 55/// 70000;","Q01  00002PRCP24Q02  00002PRCP12"
"08417099999","2010-12-09T09:00:00","4","37.7833333","-3.8166666","580.0","JAEN, SP","FM-12","99999","V020","999,9,C,0000,1","22000,1,9,N","012000,1,N,1","+0146,1","+0094,1","10196,1",,,,,"00,1,+99999,9,99,9","00,99,1,00,1,00,1,99999,9,00,1,00,1",,"99999,9,09525,1","2,1,011,1,+999,9",,"SYN060AAXX  09094 08417 42962 00000 10146 20094 39525 40196 52011;",
"08417099999","2010-12-09T12:00:00","4","37.7833333","-3.8166666","580.0","JAEN, SP","FM-12","99999","V020","240,1,N,0010,1","22000,1,9,N","015000,1,N,1","+0188,1","+0098,1","10189,1","06,0000,9,1",,,,"00,1,+99999,9,99,9","00,99,1,00,1,00,1,99999,9,00,1,00,1",,"99999,9,09528,1","1,1,003,1,+999,9",,"SYN066AAXX  09124 08417 12965 02402 10188 20098 39528 40189 51003 60001;","Q01  00002PRCP06"
"08417099999","2010-12-10T06:00:00","4","37.7833333","-3.8166666","580.0","JAEN, SP","FM-12","99999","V020","310,1,N,0005,1","22000,1,9,N","012000,1,N,1","+0134,1","+0051,1","10235,1","12,0000,9,1","24,0000,9,1",,,,"02,99,1,02,1,00,1,99999,9,02,1,00,1","999,N,+0132,1","99999,9,09558,1","4,1,000,1,+999,9","02,1","SYN100AAXX  10064 08417 11962 23101 10134 20051 39558 40235 54000 60002 702// 82020 333 20132 55/// 70000;","Q01  00002PRCP24Q02  00002PRCP12"
"08417099999","2010-12-10T09:00:00","4","37.7833333","-3.8166666","580.0","JAEN, SP","FM-12","99999","V020","150,1,N,0051,1","99999,9,9,N","012000,1,N,1","+0206,1","+0038,1","10229,1",,,,,,"05,99,1,05,1,00,1,99999,9,02,1,00,1",,"99999,9,09568,1","2,1,010,1,+999,9",,"SYN066AAXX  10094 08417 42962 51510 10206 20038 39568 40229 52010 85020;",
"08417099999","2010-12-10T12:00:00","4","37.7833333","-3.8166666","580.0","JAEN, SP","FM-12","99999","V020","130,1,N,0021,1","99999,9,9,N","015000,1,N,1","+0196,1","+0077,1","10239,1","06,0000,9,1",,,,,"05,99,1,05,1,00,1,99999,9,02,1,00,1",,"99999,9,09576,1","0,1,008,1,+999,9",,"SYN072AAXX  10124 08417 12965 51304 10196 20077 39576 40239 50008 60001 85020;","Q01  00002PRCP06"
"08417099999","2010-12-13T06:00:00","4","37.7833333","-3.8166666","580.0","JAEN, SP","FM-12","99999","V020","330,1,N,0010,1","22000,1,9,N","015000,1,N,1","+0100,1","+0076,1","10143,1","12,0000,9,1","24,0000,9,1",,,,"02,99,1,02,1,00,1,99999,9,01,1,00,1","999,N,+0093,1","99999,9,09465,1","4,1,000,1,+999,9","02,1","SYN100AAXX  13064 08417 11965 23302 10100 20076 39465 40143 54000 60002 702// 82010 333 20093 55/// 70000;","Q01  00002PRCP24Q02  00002PRCP12"
"08417099999","2010-12-13T12:00:00","4","37.7833333","-3.8166666","580.0","JAEN, SP","FM-12","99999","V020","360,1,N,0005,1","99999,9,9,N","006000,1,N,1","+0120,1","+0087,1","10149,1","06,0000,9,1",,"1,1,06,1","1,1,06,1",,"07,99,1,07,1,00,1,99999,9,02,1,00,1",,"99999,9,09475,1","7,1,002,1,+999,9","10,1","SYN078AAXX  13124 08417 11956 73601 10120 20087 39475 40149 57002 60001 71011 87020;","Q01  00002PRCP06"
"08417099999","2010-12-14T06:00:00","4","37.7833333","-3.8166666","580.0","JAEN, SP","FM-12","99999","V020","999,9,C,0000,1","22000,1,9,N","012000,1,N,1","+0100,1","+0084,1","10196,1","12,0000,9,1","24,0000,9,1",,,,"03,99,1,03,1,00,1,99999,9,03,1,00,1","999,N,+0097,1","99999,9,09514,1","2,1,007,1,+999,9","02,1","SYN100AAXX  14064 08417 11962 30000 10100 20084 39514 40196 52007 60002 702// 83030 333 20097 55/// 70000;","Q01  00002PRCP24Q02  00002PRCP12"
"08417099999","2010-12-14T09:00:00","4","37.7833333","-3.8166666","580.0","JAEN, SP","FM-12","99999","V020","999,9,C,0000,1","22000,1,9,N","008000,1,N,1","+0108,1","+0082,1","10210,1",,,"0,1,03,1","0,1,03,1","00,1,+99999,9,99,9","00,99,1,00,1,00,1,99999,9,00,1,00,1",,"99999,9,09529,1","2,1,015,1,+999,9","10,1","SYN066AAXX  14094 08417 41958 00000 10108 20082 39529 40210 52015 71000;",
"08417099999","2010-12-14T12:00:00","4","37.7833333","-3.8166666","580.0","JAEN, SP","FM-12","99999","V020","350,1,N,0010,1","03600,1,9,N","002000,1,N,1","+0106,1","+0090,1","10219,1","06,0000,9,1",,"1,1,06,1","1,1,06,1",,"08,99,1,04,1,06,1,00450,1,07,1,00,1",,"99999,9,09537,1","1,1,008,1,+999,9","10,1","SYN078AAXX  14124 08417 11420 83502 10106 20090 39537 40219 51008 60001 71011 84670;","Q01  00002PRCP06"
"08417099999","2010-12-15T06:00:00","4","37.7833333","-3.8166666","580.0","JAEN, SP","FM-12","99999","V020","010,1,N,0005,1","22000,1,9,N","012000,1,N,1","+0050,1","-0033,1","10278,1","12,0000,9,1","24,0000,9,1",,,"00,1,+99999,9,99,9","00,99,1,00,1,00,1,99999,9,00,1,00,1","999,N,+0038,1","99999,9,09577,1","2,1,018,1,+999,9","02,1","SYN094AAXX  15064 08417 11962 00101 10050 21033 39577 40278 52018 60002 702// 333 20038 55/// 70000;","Q01  00002PRCP24Q02  00002PRCP12"
"08417099999","2010-12-15T09:00:00","4","37.7833333","-3.8166666","580.0","JAEN, SP","FM-12","99999","V020","060,1,N,0010,1","22000,1,9,N","012000,1,N,1","+0042,1","-0064,1","10295,1",,,,,"00,1,+99999,9,99,9","00,99,1,00,1,00,1,99999,9,00,1,00,1",,"99999,9,09591,1","2,1,014,1,+999,9",,"SYN060AAXX  15094 08417 42962 00602 10042 21064 39591 40295 52014;",
"08417099999","2010-12-15T12:00:00","4","37.7833333","-3.8166666","580.0","JAEN, SP","FM-12","99999","V020","060,1,N,0026,1","22000,1,9,N","015000,1,N,1","+0062,1","-0067,1","10283,1","06,0000,9,1",,,,"00,1,+99999,9,99,9","00,99,1,00,1,00,1,99999,9,00,1,00,1",,"99999,9,09584,1","8,1,007,1,+999,9",,"SYN066AAXX  15124 08417 12965 00605 10062 21067 39584 40283 58007 60001;","Q01  00002PRCP06"
"08417099999","2010-12-16T06:00:00","4","37.7833333","-3.8166666","580.0","JAEN, SP","FM-12","99999","V020","040,1,N,0005,1","22000,1,9,N","012000,1,N,1","-0012,1","-0088,1","10271,1","12,0000,9,1","24,0000,9,1",,,"00,1,+99999,9,99,9","00,99,1,00,1,00,1,99999,9,00,1,00,1","999,N,-0016,1","99999,9,09555,1","4,1,000,1,+999,9","02,1","SYN094AAXX  16064 08417 11962 00401 11012 21088 39555 40271 54000 60002 702// 333 21016 55/// 70000;","Q01  00002PRCP24Q02  00002PRCP12"
"08417099999","2010-12-16T09:00:00","4","37.7833333","-3.8166666","580.0","JAEN, SP","FM-12","99999","V020","060,1,N,0010,1","22000,1,9,N","015000,1,N,1","-0002,1","-0084,1","10272,1",,,,,"00,1,+99999,9,99,9","00,99,1,00,1,00,1,99999,9,00,1,00,1",,"99999,9,09558,1","3,1,003,1,+999,9",,"SYN060AAXX  16094 08417 42965 00602 11002 21084 39558 40272 53003;",
"08417099999","2010-12-16T12:00:00","4","37.7833333","-3.8166666","580.0","JAEN, SP","FM-12","99999","V020","070,1,N,0015,1","22000,1,9,N","015000,1,N,1","+0022,1","-0077,1","10254,1","06,0000,9,1",,,,"00,1,+99999,9,99,9","00,99,1,00,1,00,1,99999,9,00,1,00,1",,"99999,9,09548,1","8,1,010,1,+999,9",,"SYN066AAXX  16124 08417 12965 00703 10022 21077 39548 40254 58010 60001;","Q01  00002PRCP06"
"08417099999","2010-12-17T06:00:00","4","37.7833333","-3.8166666","580.0","JAEN, SP","FM-12","99999","V020","999,9,C,0000,1","22000,1,9,N","012000,1,N,1","-0002,1","-0093,1","10182,1","12,0000,9,1","24,0000,9,1",,,"00,1,+99999,9,99,9","00,99,1,00,1,00,1,99999,9,00,1,00,1","999,N,-0010,1","99999,9,09475,1","7,1,018,1,+999,9","02,1","SYN094AAXX  17064 08417 11962 00000 11002 21093 39475 40182 57018 60002 702// 333 21010 55/// 70000;","Q01  00002PRCP24Q02  00002PRCP12"
"08417099999","2010-12-17T09:00:00","4","37.7833333","-3.8166666","580.0","JAEN, SP","FM-12","99999","V020","999,9,C,0000,1","22000,1,9,N","015000,1,N,1","-0005,1","-0075,1","10163,1",,,,,"00,1,+99999,9,99,9","00,99,1,00,1,00,1,99999,9,00,1,00,1",,"99999,9,09456,1","7,1,019,1,+999,9",,"SYN060AAXX  17094 08417 42965 00000 11005 21075 39456 40163 57019;",
"08417099999","2010-12-17T12:00:00","4","37.7833333","-3.8166666","580.0","JAEN, SP","FM-12","99999","V020","020,1,N,0005,1","99999,9,9,N","015000,1,N,1","+0042,1","-0050,1","10131,1","06,0000,9,1",,,,,"05,99,1,05,1,00,1,99999,9,01,1,00,1",,"99999,9,09438,1","7,1,018,1,+999,9",,"SYN072AAXX  17124 08417 12965 50201 10042 21050 39438 40131 57018 60001 85010;","Q01  00002PRCP06"
"08417099999","2010-12-27T06:00:00","4","37.7833333","-3.8166666","580.0","JAEN, SP","FM-12","99999","V020","999,9,C,0000,1","22000,1,9,N","015000,1,N,1","+0050,1","-0002,1","10235,1","12,0000,9,1","24,0000,9,1",,,"00,1,+99999,9,99,9","00,99,1,00,1,00,1,99999,9,00,1,00,1","999,N,+0012,1","99999,9,09537,1","5,1,000,1,+999,9","02,1","SYN094AAXX  27064 08417 11965 00000 10050 21002 39537 40235 55000 60002 702// 333 20012 55/// 70000;","Q01  00002PRCP24Q02  00002PRCP12"
"08417099999","2010-12-27T09:00:00","4","37.7833333","-3.8166666","580.0","JAEN, SP","FM-12","99999","V020","999,9,C,0000,1","22000,1,9,N","015000,1,N,1","+0072,1","+0017,1","10232,1",,,,,"00,1,+99999,9,99,9","00,99,1,00,1,00,1,99999,9,00,1,00,1",,"99999,9,09540,1","3,1,003,1,+999,9",,"SYN060AAXX  27094 08417 42965 00000 10072 20017 39540 40232 53003;",
"08417099999","2010-12-27T12:00:00","4","37.7833333","-3.8166666","580.0","JAEN, SP","FM-12","99999","V020","020,1,N,0010,1","22000,1,9,N","015000,1,N,1","+0084,1","+0016,1","10235,1","06,0000,9,1",,,,"00,1,+99999,9,99,9","00,99,1,00,1,00,1,99999,9,00,1,00,1",,"99999,9,09546,1","0,1,006,1,+999,9",,"SYN066AAXX  27124 08417 12965 00202 10084 20016 39546 40235 50006 60001;","Q01  00002PRCP06"
