"STATION","DATE","SOURCE","LATITUDE","LONGITUDE","ELEVATION","NAME","REPORT_TYPE","CALL_SIGN","QUALITY_CONTROL","WND","CIG","VIS","TMP","DEW","SLP","GA1","GA2","GA3","GA4","GF1","KA1","MA1","MW1","MW2","MW3","OC1","SA1","REM","EQD"
"08509599999","2010-01-16T14:00:00","4","38.6655","-28.175817","94.79","SAO JORGE, PO","FM-15","LPSJ ","V020","360,1,N,0036,1","22000,1,9,N","011265,1,N,1","+0140,1","+0090,1","99999,9","04,5,+00480,1,99,9",,,,"04,99,1,99,9,99,9,99999,9,99,9,99,9",,"10169,1,99999,9",,,,,,"MET091METAR LPSJ 161400Z 36007KT 9999 SCT016 14/09 Q1017 RMK RWY13 05007KT 350V100 RWY31 01009KT;",
"08509599999","2010-01-16T15:00:00","4","38.6655","-28.175817","94.79","SAO JORGE, PO","FM-15","LPSJ ","V020","030,1,N,0026,1","22000,1,9,N","011265,1,N,1","+0140,1","+0100,1","99999,9","04,5,+00480,1,99,9",,,,"04,99,1,99,9,99,9,99999,9,99,9,99,9",,"10159,1,99999,9",,,,,,"MET091METAR LPSJ 161500Z 03005KT 9999 SCT016 14/10 Q1016 RMK RWY13 05005KT 360V090 RWY31 03007KT;",
"08509599999","2010-01-16T16:00:00","4","38.6655","-28.175817","94.79","SAO JORGE, PO","FM-15","LPSJ ","V020","170,1,N,0021,1","99999,9,C,N","011265,1,N,1","+0140,1","+0100,1","99999,9","02,5,+00480,1,99,9","04,5,+02400,1,99,9",,,"04,99,1,99,9,99,9,99999,9,99,9,99,9",,"10159,1,99999,9",,,,,,"MET090METAR LPSJ 161600Z 17004KT 9999 FEW016 SCT080 14/10 Q1016 RMK RWY13 17004KT RWY31 18003KT;","P01 024003SCOCIG"
"08509599999","2010-01-17T13:00:00","4","38.6655","-28.175817","94.79","SAO JORGE, PO","FM-15","LPSJ ","V020","030,1,N,0031,1","22000,1,9,N","011265,1,N,1","+0150,1","+0080,1","99999,9","02,5,+00900,1,99,9",,,,"02,99,1,99,9,99,9,99999,9,99,9,99,9",,"10190,1,99999,9",,,,,,"MET083METAR LPSJ 171300Z 03006KT 9999 FEW030 15/08 Q1019 RMK RWY13 04003KT RWY31 03007KT;",
"08509599999","2010-01-17T14:00:00","4","38.6655","-28.175817","94.79","SAO JORGE, PO","FM-15","LPSJ ","V020","310,1,N,0021,1","22000,1,9,N","011265,1,N,1","+0150,1","+0070,1","99999,9","02,5,+00900,1,99,9",,,,"02,99,1,99,9,99,9,99999,9,99,9,99,9",,"10190,1,99999,9",,,,,,"MET083METAR LPSJ 171400Z 31004KT 9999 FEW030 15/07 Q1019 RMK RWY13 32005KT RWY31 31004KT;",
"08509599999","2010-01-17T15:00:00","4","38.6655","-28.175817","94.79","SAO JORGE, PO","FM-15","LPSJ ","V020","270,1,N,0041,1","22000,1,9,N","011265,1,N,1","+0150,1","+0070,1","99999,9","02,5,+00900,1,99,9",,,,"02,99,1,99,9,99,9,99999,9,99,9,99,9",,"10169,1,99999,9",,,,,,"MET083METAR LPSJ 171500Z 27008KT 9999 FEW030 15/07 Q1017 RMK RWY13 28006KT RWY31 26005KT;",
"08509599999","2010-01-17T16:00:00","4","38.6655","-28.175817","94.79","SAO JORGE, PO","FM-15","LPSJ ","V020","999,9,V,0031,1","22000,1,9,N","011265,1,N,1","+0150,1","+0070,1","99999,9","02,5,+00900,1,99,9",,,,"02,99,1,99,9,99,9,99999,9,99,9,99,9",,"10169,1,99999,9",,,,,,"MET083METAR LPSJ 171600Z VRB06KT 9999 FEW030 15/07 Q1017 RMK RWY13 VRB05KT RWY31 VRB06KT;",
"08509599999","2010-01-18T10:00:00","4","38.6655","-28.175817","94.79","SAO JORGE, PO","FM-15","LPSJ ","V020","180,1,N,0031,1","22000,1,9,N","011265,1,N,1","+0140,1","+0100,1","99999,9","04,5,+00480,1,99,9",,,,"04,99,1,99,9,99,9,99999,9,99,9,99,9",,"10149,1,99999,9",,,,,,"MET083METAR LPSJ 181000Z 18006KT 9999 SCT016 14/10 Q1015 RMK RWY13 19004KT RWY31 19004KT;",
"08509599999","2010-01-18T11:00:00","4","38.6655","-28.175817","94.79","SAO JORGE, PO","FM-15","LPSJ ","V020","200,1,N,0051,1","22000,1,9,N","011265,1,N,1","+0150,1","+0110,1","99999,9","04,5,+00480,1,99,9",,,,"04,99,1,99,9,99,9,99999,9,99,9,99,9",,"10149,1,99999,9",,,,,,"MET110METAR LPSJ 181100Z 20010KT 150V250 9999 SCT016 15/11 Q1015 RMK RWY13 21007KT 130V300 RWY31 21007G17KT 360V360;",
"08509599999","2010-01-18T12:00:00","4","38.6655","-28.175817","94.79","SAO JORGE, PO","FM-15","LPSJ ","V020","190,1,N,0051,1","22000,1,9,N","011265,1,N,1","+0160,1","+0100,1","99999,9","04,5,+00600,1,99,9",,,,"04,99,1,99,9,99,9,99999,9,99,9,99,9",,"10149,1,99999,9",,,,,,"MET110METAR LPSJ 181200Z 19010KT 150V230 9999 SCT020 16/10 Q1015 RMK RWY13 22008KT 160V270 RWY31 20008G18KT 360V360;",
"08509599999","2010-01-18T13:00:00","4","38.6655","-28.175817","94.79","SAO JORGE, PO","FM-15","LPSJ ","V020","240,1,N,0031,1","22000,1,9,N","011265,1,N,1","+0160,1","+0140,1","99999,9","04,5,+00540,1,99,9",,,,"04,99,1,99,9,99,9,99999,9,99,9,99,9",,"10149,1,99999,9",,,,,,"MET107METAR LPSJ 181300Z 24006KT 180V300 9999 SCT018 16/14 Q1015 RMK RWY13 25005KT 190V300 RWY31 24006KT 180V310;",
"08509599999","2010-01-18T14:00:00","4","38.6655","-28.175817","94.79","SAO JORGE, PO","FM-15","LPSJ ","V020","210,1,N,0036,1","22000,1,9,N","011265,1,N,1","+0160,1","+0140,1","99999,9","04,5,+00540,1,99,9",,,,"04,99,1,99,9,99,9,99999,9,99,9,99,9",,"10139,1,99999,9",,,,,,"MET107METAR LPSJ 181400Z 21007KT 150V260 9999 SCT018 16/14 Q1014 RMK RWY13 21008KT 170V290 RWY31 22010KT 120V320;",
"08509599999","2010-01-19T09:00:00","4","38.6655","-28.175817","94.79","SAO JORGE, PO","FM-15","LPSJ ","V020","270,1,N,0072,1","22000,1,9,N","011265,1,N,1","+0120,1","+0060,1","99999,9","02,5,+00750,1,99,9",,,,"02,99,1,99,9,99,9,99999,9,99,9,99,9",,"10169,1,99999,9",,,,,,"MET099METAR LPSJ 190900Z 27014KT 9999 FEW025 12/06 Q1017 RMK RWY13 28012KT 240V330 RWY31 26014KT 200V300;",
"08509599999","2010-01-19T14:00:00","4","38.6655","-28.175817","94.79","SAO JORGE, PO","FM-15","LPSJ ","V020","270,1,N,0072,1","99999,9,C,N","011265,1,N,1","+0150,1","+0090,1","99999,9","04,5,+00750,1,99,9","04,5,+02100,1,99,9",,,"04,99,1,99,9,99,9,99999,9,99,9,99,9",,"10180,1,99999,9",,,,,,"MET109METAR LPSJ 191400Z 27014KT 9999 SCT025 SCT070 15/09 Q1018 RMK RWY13 28013KT 230V330 RWY31 26014G24KT 240V310;","P01 021003SCOCIG"
"08509599999","2010-01-19T15:00:00","4","38.6655","-28.175817","94.79","SAO JORGE, PO","FM-15","LPSJ ","V020","270,1,N,0062,1","99999,9,C,N","011265,1,N,1","+0150,1","+0100,1","99999,9","04,5,+00750,1,99,9","04,5,+02100,1,99,9",,,"04,99,1,99,9,99,9,99999,9,99,9,99,9",,"10180,1,99999,9",,,,,,"MET106METAR LPSJ 191500Z 27012KT 9999 SCT025 SCT070 15/10 Q1018 RMK RWY13 29012KT 250V330 RWY31 26014KT 240V300;","P01 021003SCOCIG"
"08509599999","2010-01-19T16:00:00","4","38.6655","-28.175817","94.79","SAO JORGE, PO","FM-15","LPSJ ","V020","260,1,N,0057,1","02100,1,C,N","011265,1,N,1","+0150,1","+0100,1","99999,9","04,5,+00750,1,99,9","07,5,+02100,1,99,9",,,"07,99,1,99,9,99,9,99999,9,99,9,99,9",,"10180,1,99999,9",,,,,,"MET106METAR LPSJ 191600Z 26011KT 9999 SCT025 BKN070 15/10 Q1018 RMK RWY13 26010KT 210V310 RWY31 25013KT 200V300;",
"08509599999","2010-01-20T11:00:00","4","38.6655","-28.175817","94.79","SAO JORGE, PO","FM-15","LPSJ ","V020","260,1,N,0062,1","00900,1,C,N","011265,1,N,1","+0160,1","+0120,1","99999,9","04,5,+00480,1,99,9","04,5,+00900,1,99,9","07,5,+02400,1,99,9",,"07,99,1,99,9,99,9,99999,9,99,9,99,9",,"10119,1,99999,9",,,,,,"MET121METAR LPSJ 201100Z 26012KT 9999 SCT016 SCT030 BKN080 16/12 Q1012 RERA RMK RWY13 26007KT 190V310 RWY31 26009G19KT 180V320;",
"08509599999","2010-01-20T12:00:00","4","38.6655","-28.175817","94.79","SAO JORGE, PO","FM-15","LPSJ ","V020","190,1,N,0051,1","00750,1,C,N","011265,1,N,1","+0160,1","+0130,1","99999,9","04,5,+00450,1,99,9","04,5,+00750,1,99,9","07,5,+02400,1,99,9",,"07,99,1,99,9,99,9,99999,9,99,9,99,9",,"10119,1,99999,9",,,,"0108,1",,"MET127METAR LPSJ 201200Z 19010G21KT 150V250 9999 SCT015 SCT025 BKN080 16/13 Q1012 RMK RWY13 19012KT 130V280 RWY31 20013G23KT 110V310;",
"08509599999","2010-01-20T13:00:00","4","38.6655","-28.175817","94.79","SAO JORGE, PO","FM-15","LPSJ ","V020","220,1,N,0062,1","99999,9,C,N","011265,1,N,1","+0170,1","+0140,1","99999,9","04,5,+00420,1,99,9","04,5,+00750,1,99,9",,,"04,99,1,99,9,99,9,99999,9,99,9,99,9",,"10119,1,99999,9",,,,,,"MET114METAR LPSJ 201300Z 22012KT 170V280 9999 SCT014 SCT025 17/14 Q1012 RMK RWY13 22010KT 170V290 RWY31 21014KT 140V310;","P01 007503SCOCIG"
"08509599999","2010-01-20T14:00:00","4","38.6655","-28.175817","94.79","SAO JORGE, PO","FM-15","LPSJ ","V020","210,1,N,0051,1","00450,1,C,N","011265,1,N,1","+0170,1","+0140,1","99999,9","07,5,+00450,1,99,9","04,5,+00750,1,99,9",,,,,"10102,1,99999,9",,,,"0113,1",,"MET123METAR LPSJ 201400Z 21010G22KT 150V290 9999 BKN015 SCT025 17/14 Q1010 RMK RWY13 23010G21KT 180V320 RWY31 23015G26KT 180V320;","Q01+000042SCOTCV"
"08509599999","2010-01-20T15:00:00","4","38.6655","-28.175817","94.79","SAO JORGE, PO","FM-15","LPSJ ","V020","210,1,N,0062,1","00450,1,C,N","011265,1,N,1","+0170,1","+0140,1","99999,9","07,5,+00450,1,99,9","04,5,+00750,1,99,9",,,,,"10091,1,99999,9",,,,"0113,1",,"MET123METAR LPSJ 201500Z 21012G22KT 150V280 9999 BKN015 SCT025 17/14 Q1009 RMK RWY13 23013G23KT 160V310 RWY31 21017G30KT 140V320;","Q01+000042SCOTCV"
"08509599999","2010-01-20T16:00:00","4","38.6655","-28.175817","94.79","SAO JORGE, PO","FM-15","LPSJ ","V020","200,1,N,0082,1","00420,1,C,N","009000,1,N,1","+0160,1","+0140,1","99999,9","07,5,+00420,1,99,9","07,5,+00900,1,99,9",,,"07,99,1,99,9,99,9,99999,9,99,9,99,9",,"10081,1,99999,9","80,1",,,,,"MET126METAR LPSJ 201600Z 20016KT 150V270 9000 -SHRA BKN014 BKN030 16/14 Q1008 RMK RWY13 21010G21KT 150V330 RWY31 21017G30KT 120V320;",
"08509599999","2010-01-21T08:00:00","4","38.6655","-28.175817","94.79","SAO JORGE, PO","FM-15","LPSJ ","V020","350,1,N,0026,1","22000,1,9,N","011265,1,N,1","+0120,1","+0080,1","99999,9","02,5,+00900,1,99,9",,,,"02,99,1,99,9,99,9,99999,9,99,9,99,9",,"10129,1,99999,9",,,,,,"MET083METAR LPSJ 210800Z 35005KT 9999 FEW030 12/08 Q1013 RMK RWY13 35007KT RWY31 34006KT;",
"08509599999","2010-01-21T09:00:00","4","38.6655","-28.175817","94.79","SAO JORGE, PO","FM-15","LPSJ ","V020","350,1,N,0036,1","22000,1,9,N","011265,1,N,1","+0120,1","+0090,1","99999,9","04,5,+00750,1,99,9",,,,"04,99,1,99,9,99,9,99999,9,99,9,99,9",,"10139,1,99999,9",,,,,,"MET083METAR LPSJ 210900Z 35007KT 9999 SCT025 12/09 Q1014 RMK RWY13 35007KT RWY31 35005KT;",
"08509599999","2010-01-21T10:00:00","4","38.6655","-28.175817","94.79","SAO JORGE, PO","FM-15","LPSJ ","V020","360,1,N,0041,1","22000,1,9,N","011265,1,N,1","+0120,1","+0090,1","99999,9","04,5,+00750,1,99,9",,,,"04,99,1,99,9,99,9,99999,9,99,9,99,9",,"10149,1,99999,9",,,,,,"MET083METAR LPSJ 211000Z 36008KT 9999 SCT025 12/09 Q1015 RMK RWY13 36007KT RWY31 36009KT;",
"08509599999","2010-01-21T16:00:00","4","38.6655","-28.175817","94.79","SAO JORGE, PO","FM-15","LPSJ ","V020","340,1,N,0036,1","99999,9,C,N","011265,1,N,1","+0140,1","+0080,1","99999,9","04,5,+00750,1,99,9","04,5,+06000,1,99,9",,,"04,99,1,99,9,99,9,99999,9,99,9,99,9",,"10159,1,99999,9",,,,,,"MET090METAR LPSJ 211600Z 34007KT 9999 SCT025 SCT200 14/08 Q1016 RMK RWY13 32007KT RWY31 34006KT;","P01 060003SCOCIG"
"08509599999","2010-01-21T17:00:00","4","38.6655","-28.175817","94.79","SAO JORGE, PO","FM-15","LPSJ ","V020","340,1,N,0031,1","22000,1,9,N","011265,1,N,1","+0140,1","+0080,1","99999,9","02,5,+00750,1,99,9",,,,"02,99,1,99,9,99,9,99999,9,99,9,99,9",,"10169,1,99999,9",,,,,,"MET083METAR LPSJ 211700Z 34006KT 9999 FEW025 14/08 Q1017 RMK RWY13 33006KT RWY31 33007KT;",
"08509599999","2010-01-21T18:00:00","4","38.6655","-28.175817","94.79","SAO JORGE, PO","FM-15","LPSJ ","V020","330,1,N,0041,1","99999,9,C,N","011265,1,N,1","+0130,1","+0080,1","99999,9","04,5,+00600,1,99,9","04,5,+00900,1,99,9",,,"04,99,1,99,9,99,9,99999,9,99,9,99,9",,"10180,1,99999,9","80,1",,,,,"MET096METAR LPSJ 211800Z 33008KT 9999 -SHRA SCT020 SCT030 13/08 Q1018 RMK RWY13 33011KT RWY31 33008KT;","P01 009003SCOCIG"
"08509599999","2010-01-22T10:00:00","4","38.6655","-28.175817","94.79","SAO JORGE, PO","FM-15","LPSJ ","V020","050,1,N,0026,1","22000,1,9,N","011265,1,N,1","+0100,1","+0060,1","99999,9","04,5,+00750,1,99,9",,,,"04,99,1,99,9,99,9,99999,9,99,9,99,9",,"10230,1,99999,9",,,,,,"MET083METAR LPSJ 221000Z 05005KT 9999 SCT025 10/06 Q1023 RMK RWY13 08005KT RWY31 08005KT;",
"08509599999","2010-01-22T11:00:00","4","38.6655","-28.175817","94.79","SAO JORGE, PO","FM-15","LPSJ ","V020","110,1,N,0026,1","22000,1,9,N","011265,1,N,1","+0120,1","+0070,1","99999,9","04,5,+00750,1,99,9",,,,"04,99,1,99,9,99,9,99999,9,99,9,99,9","999,M,+9999,9","10230,1,99999,9",,,,,,"MET083METAR LPSJ 221100Z 11005KT 9999 SCT025 12/07 Q1023 RMK RWY13 11008KT RWY31 11009KT;","Q01 -00092ATMX  "
"08509599999","2010-01-22T12:00:00","4","38.6655","-28.175817","94.79","SAO JORGE, PO","FM-15","LPSJ ","V020","140,1,N,0046,1","22000,1,9,N","011265,1,N,1","+0130,1","+0080,1","99999,9","04,5,+00750,1,99,9",,,,"04,99,1,99,9,99,9,99999,9,99,9,99,9",,"10230,1,99999,9",,,,,,"MET083METAR LPSJ 221200Z 14009KT 9999 SCT025 13/08 Q1023 RMK RWY13 14007KT RWY31 14009KT;",
"08509599999","2010-01-23T13:00:00","4","38.6655","-28.175817","94.79","SAO JORGE, PO","FM-15","LPSJ ","V020","120,1,N,0041,1","99999,9,C,N","011265,1,N,1","+0150,1","+0100,1","99999,9","02,5,+00750,1,99,9","04,5,+06000,1,99,9",,,"04,99,1,99,9,99,9,99999,9,99,9,99,9",,"10230,1,99999,9",,,,,,"MET090METAR LPSJ 231300Z 12008KT 9999 FEW025 SCT200 15/10 Q1023 RMK RWY13 12007KT RWY31 12007KT;","P01 060003SCOCIG"
"08509599999","2010-01-23T14:00:00","4","38.6655","-28.175817","94.79","SAO JORGE, PO","FM-15","LPSJ ","V020","170,1,N,0021,1","06000,1,C,N","011265,1,N,1","+0150,1","+0120,1","99999,9","02,5,+00750,1,99,9","07,5,+06000,1,99,9",,,"07,99,1,99,9,99,9,99999,9,99,9,99,9",,"10230,1,99999,9",,,,,,"MET090METAR LPSJ 231400Z 17004KT 9999 FEW025 BKN200 15/12 Q1023 RMK RWY13 18004KT RWY31 18003KT;",
"08509599999","2010-01-23T15:00:00","4","38.6655","-28.175817","94.79","SAO JORGE, PO","FM-15","LPSJ ","V020","180,1,N,0026,1","99999,9,C,N","011265,1,N,1","+0150,1","+0110,1","99999,9","02,5,+00750,1,99,9","04,5,+06000,1,99,9",,,"04,99,1,99,9,99,9,99999,9,99,9,99,9",,"10230,1,99999,9",,,,,,"MET090METAR LPSJ 231500Z 18005KT 9999 FEW025 SCT200 15/11 Q1023 RMK RWY13 18004KT RWY31 18003KT;","P01 060003SCOCIG"
"08509599999","2010-01-23T16:00:00","4","38.6655","-28.175817","94.79","SAO JORGE, PO","FM-15","LPSJ ","V020","150,1,N,0026,1","06000,1,C,N","011265,1,N,1","+0150,1","+0110,1","99999,9","02,5,+00600,1,99,9","07,5,+06000,1,99,9",,,"07,99,1,99,9,99,9,99999,9,99,9,99,9",,"10220,1,99999,9",,,,,,"MET090METAR LPSJ 231600Z 15005KT 9999 FEW020 BKN200 15/11 Q1022 RMK RWY13 15004KT RWY31 16003KT;",
"08509599999","2010-01-24T14:00:00","4","38.6655","-28.175817","94.79","SAO JORGE, PO","FM-15","LPSJ ","V020","140,1,N,0057,1","00360,1,C,N","011265,1,N,1","+0160,1","+0150,1","99999,9","02,5,+00180,1,99,9","07,5,+00360,1,99,9",,,"07,99,1,99,9,99,9,99999,9,99,9,99,9",,"10240,1,99999,9",,,,,,"MET058METAR LPSJ 241400Z 14011KT 9999 FEW006 BKN012 16/15 Q1024;",
"08509599999","2010-01-24T16:00:00","4","38.6655","-28.175817","94.79","SAO JORGE, PO","FM-15","LPSJ ","V020","130,1,N,0067,1","00360,1,C,N","011265,1,N,1","+0160,1","+0150,1","99999,9","02,5,+00180,1,99,9","07,5,+00360,1,99,9",,,"07,99,1,99,9,99,9,99999,9,99,9,99,9",,"10240,1,99999,9",,,,,,"MET058METAR LPSJ 241600Z 13013KT 9999 FEW006 BKN012 16/15 Q1024;",
"08509599999","2010-01-25T11:00:00","4","38.6655","-28.175817","94.79","SAO JORGE, PO","FM-15","LPSJ ","V020","120,1,N,0087,1","00390,1,C,N","011265,1,N,1","+0150,1","+0130,1","99999,9","02,5,+00240,1,99,9","04,5,+00390,1,99,9","07,5,+06000,1,99,9",,"07,99,1,99,9,99,9,99999,9,99,9,99,9",,"10190,1,99999,9",,,,,,"MET065METAR LPSJ 251100Z 12017KT 9999 FEW008 SCT013 BKN200 15/13 Q1019;",
"08509599999","2010-01-25T13:00:00","4","38.6655","-28.175817","94.79","SAO JORGE, PO","FM-15","LPSJ ","V020","130,1,N,0113,1","02100,1,C,N","011265,1,N,1","+0160,1","+0140,1","99999,9","04,5,+00360,1,99,9","04,5,+02100,1,99,9","07,5,+06000,1,99,9",,"07,99,1,99,9,99,9,99999,9,99,9,99,9",,"10190,1,99999,9",,,,,,"MET116METAR LPSJ 251300Z 13022KT 9999 SCT012 SCT070 BKN200 16/14 Q1019 RMK RWY13 14017KT 110V200 RWY31 14015G25KT 110V200;",
"08509599999","2010-01-25T14:00:00","4","38.6655","-28.175817","94.79","SAO JORGE, PO","FM-15","LPSJ ","V020","120,1,N,0108,1","00360,1,C,N","011265,1,N,1","+0160,1","+0130,1","99999,9","02,5,+00270,1,99,9","07,5,+00360,1,99,9",,,"07,99,1,99,9,99,9,99999,9,99,9,99,9",,"10190,1,99999,9",,,,,,"MET109METAR LPSJ 251400Z 12021KT 9999 FEW009 BKN012 16/13 Q1019 RMK RWY13 13018KT 100V200 RWY31 13016G26KT 100V200;",
"08509599999","2010-01-25T15:00:00","4","38.6655","-28.175817","94.79","SAO JORGE, PO","FM-15","LPSJ ","V020","130,1,N,0123,1","00360,1,C,N","011265,1,N,1","+0150,1","+0130,1","99999,9","02,5,+00240,1,99,9","07,5,+00360,1,99,9",,,"07,99,1,99,9,99,9,99999,9,99,9,99,9",,"10180,1,99999,9",,,,,,"MET109METAR LPSJ 251500Z 13024KT 9999 FEW008 BKN012 15/13 Q1018 RMK RWY13 14019KT 100V200 RWY31 14019G33KT 100V200;",
"08509599999","2010-01-26T09:00:00","4","38.6655","-28.175817","94.79","SAO JORGE, PO","FM-15","LPSJ ","V020","130,1,N,0118,1","00210,1,C,N","008000,1,N,1","+0160,1","+0140,1","99999,9","02,5,+00120,1,99,9","07,5,+00210,1,99,9",,,"07,99,1,99,9,99,9,99999,9,99,9,99,9",,"10139,1,99999,9",,,,,,"MET112METAR LPSJ 260900Z 13023KT 8000 FEW004 BKN007 16/14 Q1014 RMK RWY13 13017G27KT 090V200 RWY31 14016G26KT 090V200;",
"08509599999","2010-01-26T10:00:00","4","38.6655","-28.175817","94.79","SAO JORGE, PO","FM-15","LPSJ ","V020","130,1,N,0118,1","00210,1,C,N","005000,1,N,1","+0160,1","+0140,1","99999,9","04,5,+00120,1,99,9","07,5,+00210,1,99,9",,,"07,99,1,99,9,99,9,99999,9,99,9,99,9",,"10139,1,99999,9","10,1","80,1",,,,"MET121METAR LPSJ 261000Z 13023KT 5000 -SHRA BR SCT004 BKN007 16/14 Q1014 RMK RWY13 14020G30KT 100V190 RWY31 13017G27KT 100V190;",
"08509599999","2010-01-26T16:00:00","4","38.6655","-28.175817","94.79","SAO JORGE, PO","FM-15","LPSJ ","V020","110,1,N,0113,1","00210,1,C,N","005000,1,N,1","+0160,1","+0140,1","99999,9","04,5,+00120,1,99,9","07,5,+00210,1,99,9",,,"07,99,1,99,9,99,9,99999,9,99,9,99,9","999,M,+9999,9","10149,1,99999,9","10,1","61,1",,,,"MET116METAR LPSJ 261600Z 11022KT 5000 -RA BR SCT004 BKN007 16/14 Q1015 RMK RWY13 13021KT 090V180 RWY31 11021G32KT 090V180;","Q01 -00212ATMX  "
"08509599999","2010-01-26T17:00:00","4","38.6655","-28.175817","94.79","SAO JORGE, PO","FM-15","LPSJ ","V020","120,1,N,0123,1","00210,1,C,N","005000,1,N,1","+0150,1","+0140,1","99999,9","04,5,+00120,1,99,9","07,5,+00210,1,99,9",,,"07,99,1,99,9,99,9,99999,9,99,9,99,9",,"10149,1,99999,9","10,1","61,1",,,,"MET119METAR LPSJ 261700Z 12024KT 5000 -RA BR SCT004 BKN007 15/14 Q1015 RMK RWY13 13021G32KT 100V190 RWY31 12021G31KT 100V190;",
"08509599999","2010-01-27T12:00:00","4","38.6655","-28.175817","94.79","SAO JORGE, PO","FM-15","LPSJ ","V020","100,1,N,0077,1","22000,1,9,N","011265,1,N,1","+0150,1","+0080,1","99999,9","02,5,+00750,1,99,9",,,,"02,99,1,99,9,99,9,99999,9,99,9,99,9","999,M,+9999,9","10271,1,99999,9",,,,,,"MET091METAR LPSJ 271200Z 10015KT 9999 FEW025 15/08 Q1027 RMK RWY13 11020KT 090V160 RWY31 10019KT;","Q01 -00202ATMX  "
"08509599999","2010-01-27T13:00:00","4","38.6655","-28.175817","94.79","SAO JORGE, PO","FM-15","LPSJ ","V020","110,1,N,0093,1","01050,1,C,N","011265,1,N,1","+0160,1","+0070,1","99999,9","02,5,+00660,1,99,9","07,5,+01050,1,99,9",,,"07,99,1,99,9,99,9,99999,9,99,9,99,9","999,M,+9999,9","10271,1,99999,9",,,,,,"MET101METAR LPSJ 271300Z 11018KT 9999 FEW022 BKN035 16/07 Q1027 RMK RWY13 12017KT 100V180 RWY31 11019G29KT;","Q01 -00192ATMX  "
"08509599999","2010-01-27T14:00:00","4","38.6655","-28.175817","94.79","SAO JORGE, PO","FM-15","LPSJ ","V020","080,1,N,0093,1","01050,1,C,N","011265,1,N,1","+0150,1","+0080,1","99999,9","02,5,+00540,1,99,9","07,5,+01050,1,99,9",,,"07,99,1,99,9,99,9,99999,9,99,9,99,9","999,M,+9999,9","10261,1,99999,9",,,,,,"MET112METAR LPSJ 271400Z 08018KT 060V150 9999 FEW018 BKN035 15/08 Q1026 RMK RWY13 10019G33KT 080V160 RWY31 09024G34KT;","Q01 +00192ATMX  "
"08509599999","2010-01-28T08:00:00","4","38.6655","-28.175817","94.79","SAO JORGE, PO","FM-15","LPSJ ","V020","110,1,N,0036,1","01050,1,C,N","011265,1,N,1","+0130,1","+0080,1","99999,9","02,5,+00540,1,99,9","07,5,+01050,1,99,9",,,"07,99,1,99,9,99,9,99999,9,99,9,99,9","999,M,+9999,9","10271,1,99999,9",,,,,,"MET090METAR LPSJ 280800Z 11007KT 9999 FEW018 BKN035 13/08 Q1027 RMK RWY13 11007KT RWY31 11007KT;","Q01 -00072ATMX  "
"08509599999","2010-01-28T09:00:00","4","38.6655","-28.175817","94.79","SAO JORGE, PO","FM-15","LPSJ ","V020","110,1,N,0057,1","00900,1,C,N","011265,1,N,1","+0120,1","+0080,1","99999,9","02,5,+00480,1,99,9","07,5,+00900,1,99,9",,,"07,99,1,99,9,99,9,99999,9,99,9,99,9","999,M,+9999,9","10271,1,99999,9",,,,,,"MET090METAR LPSJ 280900Z 11011KT 9999 FEW016 BKN030 12/08 Q1027 RMK RWY13 11011KT RWY31 11011KT;","Q01 -00112ATMX  "
"08509599999","2010-01-28T14:00:00","4","38.6655","-28.175817","94.79","SAO JORGE, PO","FM-15","LPSJ ","V020","120,1,N,0067,1","00840,1,C,N","011265,1,N,1","+0150,1","+0090,1","99999,9","02,5,+00480,1,99,9","07,5,+00840,1,99,9",,,"07,99,1,99,9,99,9,99999,9,99,9,99,9",,"10251,1,99999,9",,,,,,"MET112METAR LPSJ 281400Z 12013KT 9999 FEW016 BKN028 15/09 Q1025 RMK RWY13 13010G22KT 100V200 RWY31 13011G24KT 100V200;",
"08509599999","2010-01-28T16:00:00","4","38.6655","-28.175817","94.79","SAO JORGE, PO","FM-15","LPSJ ","V020","110,1,N,0067,1","99999,9,C,N","011265,1,N,1","+0150,1","+0090,1","99999,9","04,5,+00540,1,99,9","04,5,+00900,1,99,9",,,"04,99,1,99,9,99,9,99999,9,99,9,99,9","999,M,+9999,9","10240,1,99999,9",,,,,,"MET105METAR LPSJ 281600Z 11013KT 9999 SCT018 SCT030 15/09 Q1024 RMK RW13 12013KT 090V190 RWY31 11012KT 090V180;","Q01 -00122ATMX  P01 009003SCOCIG"
"08509599999","2010-01-29T11:00:00","4","38.6655","-28.175817","94.79","SAO JORGE, PO","FM-15","LPSJ ","V020","090,1,N,0046,1","01050,1,C,N","011265,1,N,1","+0140,1","+0080,1","99999,9","02,5,+00540,1,99,9","07,5,+01050,1,99,9",,,"07,99,1,99,9,99,9,99999,9,99,9,99,9",,,,,,,,"MET090METAR LPSJ 291100Z 09009KT 9999 FEW018 BKN035 14/08 1022 RMK RWY13 11010KT RWY31 090013KT;",
"08509599999","2010-01-29T15:00:00","4","38.6655","-28.175817","94.79","SAO JORGE, PO","FM-15","LPSJ ","V020","070,1,N,0077,1","99999,9,C,N","011265,1,N,1","+0150,1","+0080,1","99999,9","07,5,+01050,5,99,9",,,,"02,99,1,99,9,99,9,99999,9,99,9,99,9",,"10190,1,99999,9",,,,,,"MET091METAR LPSJ 291500Z 07015KT 9999 FEW0180 BKN035 15/08 Q1019 RMK RWY13 09017KT RWY31 08017KT;","P01 010503SCOCIG"
"08509599999","2010-01-29T16:00:00","4","38.6655","-28.175817","94.79","SAO JORGE, PO","FM-15","LPSJ ","V020","070,1,N,0077,1","01050,1,C,N","011265,1,N,1","+0150,1","+0070,1","99999,9","02,5,+00540,1,99,9","07,5,+01050,1,99,9",,,"07,99,1,99,9,99,9,99999,9,99,9,99,9",,"10180,1,99999,9",,,,,,"MET090METAR LPSJ 291600Z 07015KT 9999 FEW018 BKN035 15/07 Q1018 RMK RWY13 11017KT RWY31 08019KT;",
"08509599999","2010-01-30T14:00:00","4","38.6655","-28.175817","94.79","SAO JORGE, PO","FM-15","LPSJ ","V020","070,1,N,0087,1","99999,9,C,N","011265,1,N,1","+0150,1","+0080,1","99999,9","02,5,+00540,1,99,9","04,5,+01050,1,99,9",,,"04,99,1,99,9,99,9,99999,9,99,9,99,9",,"10119,1,99999,9",,,,,,"MET096METAR LPSJ 301400Z 07017KT 9999 FEW018 SCT035 15/08 Q1012 RMK RWY13 08017G27KT RWY31 07021G31KT;","P01 010503SCOCIG"
"08509599999","2010-01-31T14:00:00","4","38.6655","-28.175817","94.79","SAO JORGE, PO","FM-15","LPSJ ","V020","090,1,N,0046,1","99999,9,C,N","011265,1,N,1","+0150,1","+0090,1","99999,9","04,5,+00480,1,99,9","04,5,+00900,1,99,9",,,"04,99,1,99,9,99,9,99999,9,99,9,99,9",,"10149,1,99999,9",,,,,,"MET090METAR LPSJ 311400Z 09009KT 9999 SCT016 SCT030 15/09 Q1015 RMK RWY13 09008KT RWY31 08012KT;","P01 009003SCOCIG"
"08509599999","2010-01-31T15:00:00","4","38.6655","-28.175817","94.79","SAO JORGE, PO","FM-15","LPSJ ","V020","080,1,N,0057,1","22000,1,9,N","011265,1,N,1","+0140,1","+0090,1","99999,9","04,5,+00480,1,99,9",,,,"04,99,1,99,9,99,9,99999,9,99,9,99,9",,"10139,1,99999,9",,,,,,"MET083METAR LPSJ 311500Z 08011KT 9999 SCT016 14/09 Q1014 RMK RWY13 08012KT RWY31 08012KT;",
"08509599999","2010-01-31T16:00:00","4","38.6655","-28.175817","94.79","SAO JORGE, PO","FM-15","LPSJ ","V020","070,1,N,0041,1","99999,9,C,N","011265,1,N,1","+0140,1","+0100,1","99999,9","04,5,+00480,1,99,9","04,5,+00900,1,99,9",,,"04,99,1,99,9,99,9,99999,9,99,9,99,9",,"10139,1,99999,9",,,,,,"MET090METAR LPSJ 311600Z 07008KT 9999 SCT016 SCT030 14/10 Q1014 RMK RWY13 08009KT RWY31 07011KT;","P01 009003SCOCIG"
"08509599999","2010-02-01T10:00:00","4","38.6655","-28.175817","94.79","SAO JORGE, PO","FM-15","LPSJ ","V020","090,1,N,0026,1","99999,9,C,N","011265,1,N,1","+0120,1","+0080,1","99999,9","04,5,+00450,1,99,9","04,5,+00750,1,99,9",,,"04,99,1,99,9,99,9,99999,9,99,9,99,9","999,M,+9999,9","10190,1,99999,9",,,,,,"MET090METAR LPSJ 011000Z 09005KT 9999 SCT015 SCT025 12/08 Q1019 RMK RWY13 11004KT RWY31 11004KT;","Q01 -00042ATMX  P01 007503SCOCIG"
"08509599999","2010-02-01T11:00:00","4","38.6655","-28.175817","94.79","SAO JORGE, PO","FM-15","LPSJ ","V020","999,9,V,0026,1","99999,9,C,N","011265,1,N,1","+0130,1","+0080,1","99999,9","04,5,+00480,1,99,9","04,5,+00750,1,99,9",,,"04,99,1,99,9,99,9,99999,9,99,9,99,9",,"10200,1,99999,9",,,,,,"MET090METAR LPSJ 011100Z VRB05KT 9999 SCT016 SCT025 13/08 Q1020 RMK RWY13 VRB04KT RWY31 VRB03KT;","P01 007503SCOCIG"
"08509599999","2010-02-01T12:00:00","4","38.6655","-28.175817","94.79","SAO JORGE, PO","FM-15","LPSJ ","V020","140,1,N,0026,1","22000,1,9,N","011265,1,N,1","+0130,1","+0090,1","99999,9","04,5,+00480,1,99,9",,,,"04,99,1,99,9,99,9,99999,9,99,9,99,9",,"10200,1,99999,9",,,,,,"MET083METAR LPSJ 011200Z 14005KT 9999 SCT016 13/09 Q1020 RMK RWY13 15005KT RWY31 16004KT;",
"08509599999","2010-02-01T13:00:00","4","38.6655","-28.175817","94.79","SAO JORGE, PO","FM-15","LPSJ ","V020","150,1,N,0036,1","22000,1,9,N","011265,1,N,1","+0140,1","+0090,1","99999,9","04,5,+00480,1,99,9",,,,"04,99,1,99,9,99,9,99999,9,99,9,99,9",,"10190,1,99999,9",,,,,,"MET083METAR LPSJ 011300Z 15007KT 9999 SCT016 14/09 Q1019 RMK RWY13 16006KT RWY31 16005KT;",
"08509599999","2010-02-02T08:00:00","4","38.6655","-28.175817","94.79","SAO JORGE, PO","FM-15","LPSJ ","V020","150,1,N,0031,1","22000,1,9,N","011265,1,N,1","+0140,1","+0110,1","99999,9","04,5,+00480,1,99,9",,,,"04,99,1,99,9,99,9,99999,9,99,9,99,9",,"10129,1,99999,9",,,,,,"MET083METAR LPSJ 020800Z 15006KT 9999 SCT016 14/11 Q1013 RMK RWY13 14004KT RWY31 14005KT;",
"08509599999","2010-02-02T09:00:00","4","38.6655","-28.175817","94.79","SAO JORGE, PO","FM-15","LPSJ ","V020","150,1,N,0051,1","22000,1,9,N","011265,1,N,1","+0140,1","+0110,1","99999,9","04,5,+00480,1,99,9",,,,"04,99,1,99,9,99,9,99999,9,99,9,99,9",,"10119,1,99999,9",,,,,,"MET083METAR LPSJ 020900Z 15010KT 9999 SCT016 14/11 Q1012 RMK RWY13 14012KT RWY31 14011KT;",
"08509599999","2010-02-02T10:00:00","4","38.6655","-28.175817","94.79","SAO JORGE, PO","FM-15","LPSJ ","V020","200,1,N,0036,1","99999,9,C,N","011265,1,N,1","+0150,1","+0110,1","99999,9","04,5,+00450,1,99,9","04,5,+00750,1,99,9",,,"04,99,1,99,9,99,9,99999,9,99,9,99,9",,"10119,1,99999,9",,,,,,"MET090METAR LPSJ 021000Z 20007KT 9999 SCT015 SCT025 15/11 Q1012 RMK RWY13 21005KT RWY31 21006KT;","P01 007503SCOCIG"
"08509599999","2010-02-02T14:00:00","4","38.6655","-28.175817","94.79","SAO JORGE, PO","FM-15","LPSJ ","V020","310,1,N,0046,1","00900,1,C,N","009000,1,N,1","+0130,1","+0110,1","99999,9","04,5,+00480,1,99,9","04,5,+00900,1,99,9","07,5,+02100,1,99,9",,"07,99,1,99,9,99,9,99999,9,99,9,99,9",,"10129,1,99999,9",,,,,,"MET102METAR LPSJ 021400Z 31009KT 9000 SCT016 SCT030 BKN070 13/11 Q1013 RERA RMK RWY13 31008KT RWY31 31007KT;",
"08509599999","2010-02-02T15:00:00","4","38.6655","-28.175817","94.79","SAO JORGE, PO","FM-15","LPSJ ","V020","260,1,N,0026,1","00900,1,C,N","011265,1,N,1","+0130,1","+0110,1","99999,9","02,5,+00420,1,99,9","04,5,+00900,1,99,9","07,5,+02100,1,99,9",,"07,99,1,99,9,99,9,99999,9,99,9,99,9",,"10119,1,99999,9",,,,,,"MET097METAR LPSJ 021500Z 26005KT 9999 FEW014 SCT030 BKN070 13/11 Q1012 RMK RWY13 24004KT RWY31 27003KT;",
"08509599999","2010-02-02T16:00:00","4","38.6655","-28.175817","94.79","SAO JORGE, PO","FM-15","LPSJ ","V020","260,1,N,0021,1","99999,9,C,N","011265,1,N,1","+0140,1","+0120,1","99999,9","02,5,+00750,1,99,9","04,5,+02100,1,99,9",,,"04,99,1,99,9,99,9,99999,9,99,9,99,9",,"10119,1,99999,9",,,,,,"MET090METAR LPSJ 021600Z 26004KT 9999 FEW025 SCT070 14/12 Q1012 RMK RWY13 26005KT RWY31 24004KT;","P01 021003SCOCIG"
"08509599999","2010-02-03T11:00:00","4","38.6655","-28.175817","94.79","SAO JORGE, PO","FM-15","LPSJ ","V020","260,1,N,0057,1","02100,1,C,N","011265,1,N,1","+0140,1","+0100,1","99999,9","04,5,+00540,1,99,9","07,5,+02100,1,99,9",,,"07,99,1,99,9,99,9,99999,9,99,9,99,9",,"10102,1,99999,9",,,,,,"MET106METAR LPSJ 031100Z 26011KT 9999 SCT018 BKN070 14/10 Q1010 RMK RWY13 26008KT 220V320 RWY31 26012KT 210V300;",
"08509599999","2010-02-03T12:00:00","4","38.6655","-28.175817","94.79","SAO JORGE, PO","FM-15","LPSJ ","V020","260,1,N,0067,1","00540,1,C,N","011265,1,N,1","+0150,1","+0100,1","99999,9","07,5,+00540,1,99,9","07,5,+02100,1,99,9",,,"07,99,1,99,9,99,9,99999,9,99,9,99,9",,"10102,1,99999,9",,,,,,"MET109METAR LPSJ 031200Z 26013KT 9999 BKN018 BKN070 15/10 Q1010 RMK RWY13 26012KT 200V290 RWY31 26013G23KT 180V300;",
"08509599999","2010-02-03T13:00:00","4","38.6655","-28.175817","94.79","SAO JORGE, PO","FM-15","LPSJ ","V020","260,1,N,0062,1","00480,1,C,N","011265,1,N,1","+0150,1","+0120,1","99999,9","07,5,+00480,1,99,9",,,,"07,99,1,99,9,99,9,99999,9,99,9,99,9",,"10102,1,99999,9",,,,,,"MET102METAR LPSJ 031300Z 26012KT 9999 BKN016 15/12 Q1010 RMK RWY13 26010KT 210V310 RWY31 26013G23KT 190V310;",
"08509599999","2010-02-03T14:00:00","4","38.6655","-28.175817","94.79","SAO JORGE, PO","FM-15","LPSJ ","V020","260,1,N,0072,1","99999,9,C,N","011265,1,N,1","+0150,1","+0110,1","99999,9","04,5,+00480,1,99,9","04,5,+02100,1,99,9",,,"04,99,1,99,9,99,9,99999,9,99,9,99,9",,"10081,1,99999,9",,,,,,"MET109METAR LPSJ 031400Z 26014KT 9999 SCT016 SCT070 15/11 Q1008 RMK RWY13 25010KT 180V310 RWY31 25014G24KT 180V320;","P01 021003SCOCIG"
"08509599999","2010-02-04T08:00:00","4","38.6655","-28.175817","94.79","SAO JORGE, PO","FM-15","LPSJ ","V020","290,1,N,0077,1","22000,1,9,N","011265,1,N,1","+0100,1","+0050,1","99999,9","04,5,+00540,1,99,9",,,,"04,99,1,99,9,99,9,99999,9,99,9,99,9",,"10108,1,99999,9",,,,,,"MET102METAR LPSJ 040800Z 29015KT 9999 SCT018 10/05 Q1011 RMK RWY13 29016KT 240V330 RWY31 28013G23KT 220V310;",
"08509599999","2010-02-04T09:00:00","4","38.6655","-28.175817","94.79","SAO JORGE, PO","FM-15","LPSJ ","V020","290,1,N,0072,1","22000,1,9,N","011265,1,N,1","+0100,1","+0060,1","99999,9","04,5,+00600,1,99,9",,,,"04,99,1,99,9,99,9,99999,9,99,9,99,9",,"10119,1,99999,9",,,,,,"MET105METAR LPSJ 040900Z 29014KT 9999 SCT020 10/06 Q1012 RMK RWY13 30013G23KT 260V330 RWY31 29013G23KT 250V320;",
"08509599999","2010-02-04T14:00:00","4","38.6655","-28.175817","94.79","SAO JORGE, PO","FM-15","LPSJ ","V020","280,1,N,0072,1","22000,1,9,N","011265,1,N,1","+0140,1","+0060,1","99999,9","04,5,+00750,1,99,9",,,,"04,99,1,99,9,99,9,99999,9,99,9,99,9",,"10139,1,99999,9",,,,,,"MET102METAR LPSJ 041400Z 28014KT 9999 SCT025 14/06 Q1014 RMK RWY13 29013KT 240V320 RWY31 28010G22KT 220V310;",
"08509599999","2010-02-04T15:00:00","4","38.6655","-28.175817","94.79","SAO JORGE, PO","FM-15","LPSJ ","V020","270,1,N,0067,1","22000,1,9,N","011265,1,N,1","+0140,1","+0070,1","99999,9","04,5,+00750,1,99,9",,,,"04,99,1,99,9,99,9,99999,9,99,9,99,9",,"10139,1,99999,9",,,,,,"MET099METAR LPSJ 041500Z 27013KT 9999 SCT025 14/07 Q1014 RMK RWY13 29013KT 240V330 RWY31 26015KT 210V310;",
"08509599999","2010-02-04T16:00:00","4","38.6655","-28.175817","94.79","SAO JORGE, PO","FM-15","LPSJ ","V020","270,1,N,0062,1","22000,1,9,N","011265,1,N,1","+0130,1","+0070,1","99999,9","04,5,+00600,1,99,9",,,,"04,99,1,99,9,99,9,99999,9,99,9,99,9",,"10139,1,99999,9",,,,,,"MET099METAR LPSJ 041600Z 27012KT 9999 SCT020 13/07 Q1014 RMK RWY13 29012KT 240V330 RWY31 26014KT 210V310;",
"08509599999","2010-02-05T10:00:00","4","38.6655","-28.175817","94.79","SAO JORGE, PO","FM-15","LPSJ ","V020","150,1,N,0067,1","99999,9,C,N","011265,1,N,1","+0160,1","+0130,1","99999,9","04,5,+00420,1,99,9","04,5,+00600,1,99,9",,,"04,99,1,99,9,99,9,99999,9,99,9,99,9",,"10081,1,99999,9",,,,,,"MET117METAR LPSJ 051000Z 15013KT 110V180 9999 SCT014 SCT020 16/13 Q1008 RMK RWY13 14014KT 100V200 RWY31 15013G23KT 080V260;","P01 006003SCOCIG"
"08509599999","2010-02-05T11:00:00","4","38.6655","-28.175817","94.79","SAO JORGE, PO","FM-15","LPSJ ","V020","150,1,N,0082,1","00390,1,C,N","008000,1,N,1","+0160,1","+0140,1","99999,9","07,5,+00390,1,99,9","07,5,+00600,1,99,9",,,"07,99,1,99,9,99,9,99999,9,99,9,99,9",,"10071,1,99999,9","81,1",,,,,"MET125METAR LPSJ 051100Z 15016KT 100V210 8000 SHRA BKN013 BKN020 16/14 Q1007 RMK RWY13 16013G23KT 360V360 RWY31 16019G32KT 060V280;",
"08509599999","2010-02-05T12:00:00","4","38.6655","-28.175817","94.79","SAO JORGE, PO","FM-15","LPSJ ","V020","130,1,N,0082,1","00420,1,C,N","008000,1,N,1","+0150,1","+0140,1","99999,9","04,5,+00270,1,99,9","07,5,+00420,1,99,9","07,5,+02100,1,99,9",,"07,99,1,99,9,99,9,99999,9,99,9,99,9",,"10061,1,99999,9","61,1",,,,,"MET128METAR LPSJ 051200Z 13016KT 8000 -RA SCT009 BKN014 BKN070 15/14 Q1006 RERA RMK RWY13 14012G22KT 100V170 RWY31 14013G23KT 100V190;",
"08509599999","2010-02-05T13:00:00","4","38.6655","-28.175817","94.79","SAO JORGE, PO","FM-15","LPSJ ","V020","110,1,N,0082,1","00360,1,C,N","005000,1,N,1","+0160,1","+0150,1","99999,9","04,5,+00180,1,99,9","08,5,+00360,1,99,9",,,"08,99,1,99,9,99,9,99999,9,99,9,99,9",,"10051,1,99999,9","10,1","61,1",,,,"MET132METAR LPSJ 051300Z 11016KT 080V140 5000 -RA BR SCT006 OVC012 16/15 Q1005 RERA RMK RWY13 12015G26KT 090V180 RWY31 13017G33KT 090V180;",
"08509599999","2010-02-07T13:00:00","4","38.6655","-28.175817","94.79","SAO JORGE, PO","FM-15","LPSJ ","V020","260,1,N,0082,1","02100,1,C,N","011265,1,N,1","+0140,1","+0110,1","99999,9","04,5,+00480,1,99,9","07,5,+02100,1,99,9",,,"07,99,1,99,9,99,9,99999,9,99,9,99,9",,"10031,1,99999,9",,,,,,"MET109METAR LPSJ 071300Z 26016KT 9999 SCT016 BKN070 14/11 Q1003 RMK RWY13 26015KT 180V330 RWY31 24016G26KT 180V300;",
"08509599999","2010-02-07T14:00:00","4","38.6655","-28.175817","94.79","SAO JORGE, PO","FM-15","LPSJ ","V020","260,1,N,0087,1","00900,1,C,N","011265,1,N,1","+0140,1","+0100,1","99999,9","04,5,+00480,1,99,9","04,5,+00900,1,99,9","07,5,+02100,1,99,9",,"07,99,1,99,9,99,9,99999,9,99,9,99,9",,"10041,1,99999,9",,,,,,"MET119METAR LPSJ 071400Z 26017KT 9999 SCT016 SCT030 BKN070 14/10 Q1004 RMK RWY13 26007G18KT 180V330 RWY31 24017G27KT 180V300;",
"08509599999","2010-02-07T15:00:00","4","38.6655","-28.175817","94.79","SAO JORGE, PO","FM-15","LPSJ ","V020","270,1,N,0087,1","99999,9,C,N","011265,1,N,1","+0150,1","+0110,1","99999,9","04,5,+00480,1,99,9","04,5,+02100,1,99,9",,,"04,99,1,99,9,99,9,99999,9,99,9,99,9",,"10041,1,99999,9",,,,,,"MET112METAR LPSJ 071500Z 27017KT 9999 SCT016 SCT070 15/11 Q1004 RMK RWY13 27010G22KT 180V330 RWY31 25016G28KT 200V300;","P01 021003SCOCIG"
"08509599999","2010-02-07T16:00:00","4","38.6655","-28.175817","94.79","SAO JORGE, PO","FM-15","LPSJ ","V020","270,1,N,0077,1","22000,1,9,N","011265,1,N,1","+0150,1","+0100,1","99999,9","04,5,+00480,1,99,9",,,,"04,99,1,99,9,99,9,99999,9,99,9,99,9",,"10041,1,99999,9",,,,,,"MET102METAR LPSJ 071600Z 27015KT 9999 SCT016 15/10 Q1004 RMK RWY13 27015KT 210V330 RWY31 25015G25KT 200V300;",
"08509599999","2010-02-08T09:00:00","4","38.6655","-28.175817","94.79","SAO JORGE, PO","FM-15","LPSJ ","V020","270,1,N,0036,1","99999,9,C,N","011265,1,N,1","+0140,1","+0120,1","99999,9","04,5,+00420,1,99,9","04,5,+01200,1,99,9",,,"04,99,1,99,9,99,9,99999,9,99,9,99,9",,"10129,1,99999,9",,,,,,"MET090METAR LPSJ 080900Z 27007KT 9999 SCT014 SCT040 14/12 Q1013 RMK RWY13 26004KT RWY31 26007KT;","P01 012003SCOCIG"
"08509599999","2010-02-08T10:00:00","4","38.6655","-28.175817","94.79","SAO JORGE, PO","FM-15","LPSJ ","V020","260,1,N,0046,1","99999,9,C,N","011265,1,N,1","+0150,1","+0120,1","99999,9","04,5,+00420,1,99,9","04,5,+00900,1,99,9",,,"04,99,1,99,9,99,9,99999,9,99,9,99,9",,"10129,1,99999,9",,,,,,"MET090METAR LPSJ 081000Z 26009KT 9999 SCT014 SCT030 15/12 Q1013 RMK RWY13 26004KT RWY31 25008KT;","P01 009003SCOCIG"
"08509599999","2010-02-08T11:00:00","4","38.6655","-28.175817","94.79","SAO JORGE, PO","FM-15","LPSJ ","V020","270,1,N,0057,1","99999,9,C,N","011265,1,N,1","+0150,1","+0110,1","99999,9","04,5,+00450,1,99,9","04,5,+02100,1,99,9",,,"04,99,1,99,9,99,9,99999,9,99,9,99,9",,"10129,1,99999,9",,,,,,"MET106METAR LPSJ 081100Z 27011KT 9999 SCT015 SCT070 15/11 Q1013 RMK RWY13 26007KT 220V310 RWY31 26013KT 230V300;","P01 021003SCOCIG"
"08509599999","2010-02-08T12:00:00","4","38.6655","-28.175817","94.79","SAO JORGE, PO","FM-15","LPSJ ","V020","270,1,N,0046,1","02100,1,C,N","011265,1,N,1","+0160,1","+0120,1","99999,9","04,5,+00480,1,99,9","07,5,+02100,1,99,9",,,"07,99,1,99,9,99,9,99999,9,99,9,99,9",,"10129,1,99999,9",,,,,,"MET106METAR LPSJ 081200Z 27009KT 9999 SCT016 BKN070 16/12 Q1013 RMK RWY13 26006KT 210V290 RWY31 26013KT 210V300;",
"08509599999","2010-02-08T13:00:00","4","38.6655","-28.175817","94.79","SAO JORGE, PO","FM-15","LPSJ ","V020","270,1,N,0062,1","99999,9,C,N","011265,1,N,1","+0160,1","+0120,1","99999,9","04,5,+00480,1,99,9","04,5,+02100,1,99,9",,,"04,99,1,99,9,99,9,99999,9,99,9,99,9",,"10139,1,99999,9",,,,,,"MET106METAR LPSJ 081300Z 27012KT 9999 SCT016 SCT070 16/12 Q1014 RMK RWY13 28011KT 230V330 RWY31 26013KT 230V300;","P01 021003SCOCIG"
"08509599999","2010-02-08T15:00:00","4","38.6655","-28.175817","94.79","SAO JORGE, PO","FM-15","LPSJ ","V020","270,1,N,0046,1","02100,1,C,N","011265,1,N,1","+0150,1","+0130,1","99999,9","04,5,+00390,1,99,9","07,5,+02100,1,99,9",,,"07,99,1,99,9,99,9,99999,9,99,9,99,9",,"10129,1,99999,9",,,,,,"MET090METAR LPSJ 081500Z 27009KT 9999 SCT013 BKN070 15/13 Q1013 RMK RWY13 27007KT RWY31 26012KT;",
"08509599999","2010-02-08T16:00:00","4","38.6655","-28.175817","94.79","SAO JORGE, PO","FM-15","LPSJ ","V020","270,1,N,0031,1","02100,1,C,N","011265,1,N,1","+0160,1","+0140,1","99999,9","04,5,+00420,1,99,9","07,5,+02100,1,99,9",,,"07,99,1,99,9,99,9,99999,9,99,9,99,9",,"10119,1,99999,9",,,,,,"MET090METAR LPSJ 081600Z 27006KT 9999 SCT014 BKN070 16/14 Q1012 RMK RWY13 27005KT RWY31 27007KT;",
"08509599999","2010-02-08T17:00:00","4","38.6655","-28.175817","94.79","SAO JORGE, PO","FM-15","LPSJ ","V020","280,1,N,0041,1","02100,1,C,N","011265,1,N,1","+0160,1","+0140,1","99999,9","04,5,+00420,1,99,9","07,5,+02100,1,99,9",,,"07,99,1,99,9,99,9,99999,9,99,9,99,9",,"10119,1,99999,9",,,,,,"MET090METAR LPSJ 081700Z 28008KT 9999 SCT014 BKN070 16/14 Q1012 RMK RWY13 27005KT RWY31 26007KT;",
"08509599999","2010-02-09T09:00:00","4","38.6655","-28.175817","94.79","SAO JORGE, PO","FM-15","LPSJ ","V020","280,1,N,0041,1","00015,1,C,N","001000,1,N,1","+0150,1","+0150,1","99999,9","09,1,+00015,1,99,9",,,,"09,99,1,99,9,99,9,00025,1,99,9,99,9",,"10091,1,99999,9","45,1",,,,,"MET085METAR LPSJ 090900Z 28008KT 1000 FG VV/// 15/15 Q1009 RMK RWY13 28008KT RWY31 27005KT;",
"08509599999","2010-02-09T10:00:00","4","38.6655","-28.175817","94.79","SAO JORGE, PO","FM-15","LPSJ ","V020","290,1,N,0036,1","00450,1,C,N","009000,1,N,1","+0150,1","+0150,1","99999,9","02,5,+00210,1,99,9","04,5,+00450,1,99,9","07,5,+00900,1,99,9",,"07,99,1,99,9,99,9,99999,9,99,9,99,9",,"10102,1,99999,9","80,1",,,,,"MET103METAR LPSJ 091000Z 29007KT 9000 -SHRA FEW007 SCT015 BKN030 15/15 Q1010 RMK RWY13 30006KT RWY31 29007KT;",
"08509599999","2010-02-09T14:00:00","4","38.6655","-28.175817","94.79","SAO JORGE, PO","FM-15","LPSJ ","V020","999,9,V,0026,1","01200,1,C,N","011265,1,N,1","+0150,1","+0150,1","99999,9","02,5,+00180,1,99,9","04,5,+01200,1,99,9","07,5,+02400,1,99,9",,"07,99,1,99,9,99,9,99999,9,99,9,99,9",,"10081,1,99999,9","61,1",,,,,"MET106METAR LPSJ 091400Z VRB05KT 9999 -RA FEW006 SCT040 BKN080 15/15 Q1008 RERA RMK RWY13 VRB04KT RWY31 VRB05KT;",
"08509599999","2010-02-09T15:00:00","4","38.6655","-28.175817","94.79","SAO JORGE, PO","FM-15","LPSJ ","V020","320,1,N,0041,1","01200,1,C,N","011265,1,N,1","+0150,1","+0140,1","99999,9","02,5,+00420,1,99,9","04,5,+01200,1,99,9","07,5,+02400,1,99,9",,"07,99,1,99,9,99,9,99999,9,99,9,99,9",,"10081,1,99999,9",,,,,,"MET097METAR LPSJ 091500Z 32008KT 9999 FEW014 SCT040 BKN080 15/14 Q1008 RMK RWY13 32009KT RWY31 31012KT;",
"08509599999","2010-02-09T16:00:00","4","38.6655","-28.175817","94.79","SAO JORGE, PO","FM-15","LPSJ ","V020","300,1,N,0041,1","02400,1,C,N","011265,1,N,1","+0160,1","+0130,1","99999,9","04,5,+00480,1,99,9","07,5,+02400,1,99,9",,,"07,99,1,99,9,99,9,99999,9,99,9,99,9",,"10081,1,99999,9",,,,,,"MET090METAR LPSJ 091600Z 30008KT 9999 SCT016 BKN080 16/13 Q1008 RMK RWY13 32009KT RWY31 30008KT;",
"08509599999","2010-02-10T09:00:00","4","38.6655","-28.175817","94.79","SAO JORGE, PO","FM-15","LPSJ ","V020","110,1,N,0021,1","06000,1,C,N","011265,1,N,1","+0140,1","+0140,1","99999,9","04,5,+00600,1,99,9","07,5,+06000,1,99,9",,,"07,99,1,99,9,99,9,99999,9,99,9,99,9",,"10071,1,99999,9",,,,,,"MET090METAR LPSJ 100900Z 11004KT 9999 SCT020 BKN200 14/14 Q1007 RMK RWY13 11007KT RWY31 09008KT;",
"08509599999","2010-02-10T10:00:00","4","38.6655","-28.175817","94.79","SAO JORGE, PO","FM-15","LPSJ ","V020","110,1,N,0026,1","00750,1,C,N","011265,1,N,1","+0150,1","+0130,1","99999,9","04,5,+00480,1,99,9","07,5,+00750,1,99,9",,,"07,99,1,99,9,99,9,99999,9,99,9,99,9","999,M,+9999,9","10071,1,99999,9",,,,,,"MET090METAR LPSJ 101000Z 11005KT 9999 SCT016 BKN025 15/13 Q1007 RMK RWY13 11008KT RWY31 11006KT;","Q01 -00062ATMX  "
"08509599999","2010-02-10T11:00:00","4","38.6655","-28.175817","94.79","SAO JORGE, PO","FM-15","LPSJ ","V020","110,1,N,0031,1","00480,1,C,N","011265,1,N,1","+0150,1","+0140,1","99999,9","07,5,+00480,1,99,9","07,5,+00750,1,99,9",,,"07,99,1,99,9,99,9,99999,9,99,9,99,9","999,M,+9999,9","10071,1,99999,9","80,1",,,,,"MET096METAR LPSJ 101100Z 11006KT 9999 -SHRA BKN016 BKN025 15/14 Q1007 RMK RWY13 10006KT RWY31 10007KT;","Q01 +00072ATMX  "
"08509599999","2010-02-10T12:00:00","4","38.6655","-28.175817","94.79","SAO JORGE, PO","FM-15","LPSJ ","V020","130,1,N,0031,1","00420,1,C,N","008000,1,N,1","+0150,1","+0140,1","99999,9","04,5,+00240,1,99,9","04,5,+00420,1,99,9","07,5,+00750,1,99,9",,"07,99,1,99,9,99,9,99999,9,99,9,99,9",,"10081,1,99999,9","61,1",,,,,"MET106METAR LPSJ 101200Z 13006KT 8000 -RA SCT008 SCT014 BKN025 15/14 Q1008 RERA RMK RWY13 12006KT RWY31 12005KT;",
"08509599999","2010-02-10T13:00:00","4","38.6655","-28.175817","94.79","SAO JORGE, PO","FM-15","LPSJ ","V020","999,9,V,0026,1","00900,1,C,N","011265,1,N,1","+0160,1","+0140,1","99999,9","04,5,+00390,1,99,9","07,5,+00900,1,99,9",,,"07,99,1,99,9,99,9,99999,9,99,9,99,9",,"10071,1,99999,9",,,,,,"MET095METAR LPSJ 101300Z VRB05KT 9999 SCT013 BKN030 16/14 Q1007 RERA RMK RWY13 VRB04KT RWY31 VRB04KT;",
"08509599999","2010-02-10T14:00:00","4","38.6655","-28.175817","94.79","SAO JORGE, PO","FM-15","LPSJ ","V020","270,1,N,0036,1","99999,9,C,N","011265,1,N,1","+0160,1","+0150,1","99999,9","04,5,+00390,1,99,9","04,5,+00900,1,99,9",,,"04,99,1,99,9,99,9,99999,9,99,9,99,9",,"10071,1,99999,9",,,,,,"MET090METAR LPSJ 101400Z 27007KT 9999 SCT013 SCT030 16/15 Q1007 RMK RWY13 28006KT RWY31 28005KT;","P01 009003SCOCIG"
"08509599999","2010-02-11T08:00:00","4","38.6655","-28.175817","94.79","SAO JORGE, PO","FM-15","LPSJ ","V020","270,1,N,0041,1","22000,1,9,N","011265,1,N,1","+0140,1","+0110,1","99999,9","04,5,+00480,1,99,9",,,,"04,99,1,99,9,99,9,99999,9,99,9,99,9",,"10041,1,99999,9",,,,,,"MET083METAR LPSJ 110800Z 27008KT 9999 SCT016 14/11 Q1004 RMK RWY13 27006KT RWY31 26012KT;",
"08509599999","2010-02-11T09:00:00","4","38.6655","-28.175817","94.79","SAO JORGE, PO","FM-15","LPSJ ","V020","270,1,N,0046,1","99999,9,C,N","011265,1,N,1","+0140,1","+0110,1","99999,9","04,5,+00480,1,99,9","04,5,+00750,1,99,9",,,"04,99,1,99,9,99,9,99999,9,99,9,99,9",,"10041,1,99999,9",,,,,,"MET106METAR LPSJ 110900Z 27009KT 9999 SCT016 SCT025 14/11 Q1004 RMK RWY13 27007KT 220V320 RWY31 26013KT 200V300;","P01 007503SCOCIG"
"08509599999","2010-02-12T09:00:00","4","38.6655","-28.175817","94.79","SAO JORGE, PO","FM-15","LPSJ ","V020","350,1,N,0021,1","22000,1,9,N","011265,1,N,1","+0110,1","+0090,1","99999,9","04,5,+00600,1,99,9",,,,"04,99,1,99,9,99,9,99999,9,99,9,99,9",,"10102,1,99999,9",,,,,,"MET083METAR LPSJ 120900Z 35004KT 9999 SCT020 11/09 Q1010 RMK RWY13 01003KT RWY31 01003KT;",
"08509599999","2010-02-12T10:00:00","4","38.6655","-28.175817","94.79","SAO JORGE, PO","FM-15","LPSJ ","V020","340,1,N,0015,1","02400,1,C,N","011265,1,N,1","+0110,1","+0100,1","99999,9","04,5,+00540,1,99,9","04,5,+02400,1,99,9","07,5,+06000,1,99,9",,"07,99,1,99,9,99,9,99999,9,99,9,99,9",,"10102,1,99999,9",,,,,,"MET097METAR LPSJ 121000Z 34003KT 9999 SCT018 SCT080 BKN200 11/10 Q1010 RMK RWY13 02002KT RWY31 01002KT;",
"08509599999","2010-02-12T11:00:00","4","38.6655","-28.175817","94.79","SAO JORGE, PO","FM-15","LPSJ ","V020","999,9,C,0000,1","06000,1,C,N","011265,1,N,1","+0140,1","+0090,1","99999,9","04,5,+00480,1,99,9","07,5,+06000,1,99,9",,,"07,99,1,99,9,99,9,99999,9,99,9,99,9",,"10102,1,99999,9",,,,,,"MET090METAR LPSJ 121100Z 00000KT 9999 SCT016 BKN200 14/09 Q1010 RMK RWY13 00000KT RWY31 00000KT;",
"08509599999","2010-02-12T12:00:00","4","38.6655","-28.175817","94.79","SAO JORGE, PO","FM-15","LPSJ ","V020","100,1,N,0021,1","02700,1,C,N","011265,1,N,1","+0140,1","+0100,1","99999,9","04,5,+00480,1,99,9","07,5,+02700,1,99,9",,,"07,99,1,99,9,99,9,99999,9,99,9,99,9",,"10102,1,99999,9",,,,,,"MET090METAR LPSJ 121200Z 10004KT 9999 SCT016 BKN090 14/10 Q1010 RMK RWY13 13005KT RWY31 12005KT;",
"08509599999","2010-02-13T12:00:00","4","38.6655","-28.175817","94.79","SAO JORGE, PO","FM-15","LPSJ ","V020","080,1,N,0021,1","00480,1,C,N","011265,1,N,1","+0140,1","+0130,1","99999,9","07,5,+00480,1,99,9","02,5,+00540,1,02,5",,,,,"09892,1,99999,9",,,,,,"MET093METAR LPSJ 131200Z 08004KT 9999 BKN016 FEW018TCU 14/13 Q0989 RMK RWY13 09005KT RWY31 08004KT;","Q01+000022SCOTCV"
"08509599999","2010-02-13T13:00:00","4","38.6655","-28.175817","94.79","SAO JORGE, PO","FM-15","LPSJ ","V020","150,1,N,0041,1","00480,1,C,N","009000,1,N,1","+0160,1","+0130,1","99999,9","07,5,+00480,1,99,9","02,5,+00540,1,02,5",,,,,"09892,1,99999,9","16,1",,,,,"MET098METAR LPSJ 131300Z 15008KT 9000 VCSH BKN016 FEW018TCU 16/13 Q0989 RMK RWY13 14009KT RWY31 15008KT;","Q01+000022SCOTCV"
"08509599999","2010-02-13T14:00:00","4","38.6655","-28.175817","94.79","SAO JORGE, PO","FM-15","LPSJ ","V020","160,1,N,0026,1","00420,1,C,N","011265,1,N,1","+0160,1","+0140,1","99999,9","07,5,+00420,1,99,9","02,5,+00480,1,02,5",,,,,"09882,1,99999,9","80,1",,,,,"MET099METAR LPSJ 131400Z 16005KT 9999 -SHRA BKN014 FEW016TCU 16/14 Q0988 RMK RWY13 14004KT RWY31 15005KT;","Q01+000022SCOTCV"
"08509599999","2010-02-13T15:00:00","4","38.6655","-28.175817","94.79","SAO JORGE, PO","FM-15","LPSJ ","V020","270,1,N,0031,1","00480,1,C,N","011265,1,N,1","+0150,1","+0130,1","99999,9","07,5,+00480,1,99,9","04,5,+00900,1,99,9",,,,,"09882,1,99999,9",,,,,,"MET090METAR LPSJ 131500Z 27006KT 9999 BKN016 SCT030 15/13 Q0988 RMK RWY13 28006KT RWY31 26004KT;","Q01+000042SCOTCV"
"08509599999","2010-02-13T16:00:00","4","38.6655","-28.175817","94.79","SAO JORGE, PO","FM-15","LPSJ ","V020","290,1,N,0031,1","00900,1,C,N","011265,1,N,1","+0140,1","+0120,1","99999,9","04,5,+00390,1,99,9","04,5,+00900,1,99,9","07,5,+02100,1,99,9",,"07,99,1,99,9,99,9,99999,9,99,9,99,9",,"09871,1,99999,9","61,1",,,,,"MET101METAR LPSJ 131600Z 29006KT 9999 -RA SCT013 SCT030 BKN070 14/12 Q0987 RMK RWY13 29005KT RWY31 29006KT;",
"08509599999","2010-02-14T13:00:00","4","38.6655","-28.175817","94.79","SAO JORGE, PO","FM-15","LPSJ ","V020","300,1,N,0093,1","22000,1,9,N","011265,1,N,1","+0140,1","+0090,1","99999,9","04,5,+00600,1,99,9",,,,"04,99,1,99,9,99,9,99999,9,99,9,99,9",,"09980,1,99999,9",,,,,,"MET105METAR LPSJ 141300Z 30018KT 9999 SCT020 14/09 Q0998 RMK RWY13 30013G23KT 260V340 RWY31 29017G27KT 240V320;",
"08509599999","2010-02-14T14:00:00","4","38.6655","-28.175817","94.79","SAO JORGE, PO","FM-15","LPSJ ","V020","290,1,N,0093,1","22000,1,9,N","011265,1,N,1","+0150,1","+0080,1","99999,9","02,5,+00750,1,99,9",,,,"02,99,1,99,9,99,9,99999,9,99,9,99,9",,"09980,1,99999,9",,,,,,"MET105METAR LPSJ 141400Z 29018KT 9999 FEW025 15/08 Q0998 RMK RWY13 31019G29KT 270V340 RWY31 30020G31KT 240V320;",
"08509599999","2010-02-14T15:00:00","4","38.6655","-28.175817","94.79","SAO JORGE, PO","FM-15","LPSJ ","V020","300,1,N,0077,1","22000,1,9,N","011265,1,N,1","+0150,1","+0090,1","99999,9","04,5,+00750,1,99,9",,,,"04,99,1,99,9,99,9,99999,9,99,9,99,9",,"09980,1,99999,9",,,,"0129,1",,"MET108METAR LPSJ 141500Z 30015G25KT 9999 SCT025 15/09 Q0998 RMK RWY13 31017G27KT 250V340 RWY31 30020G34KT 240V320;",
"08509599999","2010-02-14T16:00:00","4","38.6655","-28.175817","94.79","SAO JORGE, PO","FM-15","LPSJ ","V020","290,1,N,0093,1","22000,1,9,N","011265,1,N,1","+0150,1","+0090,1","99999,9","04,5,+00750,1,99,9",,,,"04,99,1,99,9,99,9,99999,9,99,9,99,9",,"09980,1,99999,9",,,,,,"MET105METAR LPSJ 141600Z 29018KT 9999 SCT025 15/09 Q0998 RMK RWY13 31016G26KT 240V340 RWY31 30017G27KT 230V320;",
"08509599999","2010-02-15T10:00:00","4","38.6655","-28.175817","94.79","SAO JORGE, PO","FM-15","LPSJ ","V020","090,1,N,0021,1","01500,1,C,N","011265,1,N,1","+0110,1","+0040,1","99999,9","02,5,+00900,1,99,9","04,5,+01500,1,99,9","07,5,+02400,1,99,9",,"07,99,1,99,9,99,9,99999,9,99,9,99,9",,"10000,1,99999,9",,,,,,"MET097METAR LPSJ 151000Z 09004KT 9999 FEW030 SCT050 BKN080 11/04 Q1000 RMK RWY13 07006KT RWY31 08003KT;",
"08509599999","2010-02-15T11:00:00","4","38.6655","-28.175817","94.79","SAO JORGE, PO","FM-15","LPSJ ","V020","090,1,N,0021,1","01500,1,C,N","011265,1,N,1","+0120,1","+0080,1","99999,9","02,5,+00900,1,99,9","04,5,+01500,1,99,9","07,5,+02400,1,99,9",,"07,99,1,99,9,99,9,99999,9,99,9,99,9",,"10000,1,99999,9",,,,,,"MET097METAR LPSJ 151100Z 09004KT 9999 FEW030 SCT050 BKN080 12/08 Q1000 RMK RWY13 09005KT RWY31 08004KT;",
"08509599999","2010-02-15T12:00:00","4","38.6655","-28.175817","94.79","SAO JORGE, PO","FM-15","LPSJ ","V020","080,1,N,0021,1","01200,1,C,N","011265,1,N,1","+0120,1","+0090,1","99999,9","02,5,+00750,1,99,9","04,5,+01200,1,99,9","07,5,+02400,1,99,9",,"07,99,1,99,9,99,9,99999,9,99,9,99,9",,"10000,1,99999,9","80,1",,,,,"MET103METAR LPSJ 151200Z 08004KT 9999 -SHRA FEW025 SCT040 BKN080 12/09 Q1000 RMK RWY13 10004KT RWY31 08004KT;",
"08509599999","2010-02-15T13:00:00","4","38.6655","-28.175817","94.79","SAO JORGE, PO","FM-15","LPSJ ","V020","100,1,N,0021,1","01200,1,C,N","011265,1,N,1","+0120,1","+0100,1","99999,9","02,5,+00750,1,99,9","04,5,+01200,1,99,9","07,5,+02400,1,99,9",,"07,99,1,99,9,99,9,99999,9,99,9,99,9",,"10000,1,99999,9","61,1",,,,,"MET106METAR LPSJ 151300Z 10004KT 9999 -RA FEW025 SCT040 BKN080 12/10 Q1000 RERA RMK RWY13 10004KT RWY31 09004KT;",
"08509599999","2010-02-15T14:00:00","4","38.6655","-28.175817","94.79","SAO JORGE, PO","FM-15","LPSJ ","V020","130,1,N,0021,1","01200,1,C,N","011265,1,N,1","+0120,1","+0070,1","99999,9","02,5,+00900,1,99,9","04,5,+01200,1,99,9","07,5,+02400,1,99,9",,"07,99,1,99,9,99,9,99999,9,99,9,99,9",,"10000,1,99999,9","61,1",,,,,"MET106METAR LPSJ 151400Z 13004KT 9999 -RA FEW030 SCT040 BKN080 12/07 Q1000 RERA RMK RWY13 12004KT RWY31 12003KT;",
"08509599999","2010-02-15T15:00:00","4","38.6655","-28.175817","94.79","SAO JORGE, PO","FM-15","LPSJ ","V020","080,1,N,0026,1","01200,1,C,N","011265,1,N,1","+0120,1","+0080,1","99999,9","02,5,+00900,1,99,9","04,5,+01200,1,99,9","07,5,+02400,1,99,9",,"07,99,1,99,9,99,9,99999,9,99,9,99,9",,"09990,1,99999,9","61,1",,,,,"MET106METAR LPSJ 151500Z 08005KT 9999 -RA FEW030 SCT040 BKN080 12/08 Q0999 RERA RMK RWY13 08008KT RWY31 09007KT;",
"08509599999","2010-02-15T16:00:00","4","38.6655","-28.175817","94.79","SAO JORGE, PO","FM-15","LPSJ ","V020","100,1,N,0036,1","99999,9,C,N","011265,1,N,1","+0120,1","+0080,1","99999,9","04,5,+00480,1,99,9","04,5,+02100,1,99,9",,,"04,99,1,99,9,99,9,99999,9,99,9,99,9",,"09980,1,99999,9",,,,,,"MET090METAR LPSJ 151600Z 10007KT 9999 SCT016 SCT070 12/08 Q0998 RMK RWY13 10009KT RWY31 09010KT;","P01 021003SCOCIG"
"08509599999","2010-02-16T08:00:00","4","38.6655","-28.175817","94.79","SAO JORGE, PO","FM-15","LPSJ ","V020","360,1,N,0026,1","00480,1,C,N","011265,1,N,1","+0110,1","+0100,1","99999,9","07,5,+00480,1,99,9",,,,"07,99,1,99,9,99,9,99999,9,99,9,99,9",,"09990,1,99999,9",,,,,,"MET083METAR LPSJ 160800Z 36005KT 9999 BKN016 11/10 Q0999 RMK RWY13 02011KT RWY31 01012KT;",
"08509599999","2010-02-16T09:00:00","4","38.6655","-28.175817","94.79","SAO JORGE, PO","FM-15","LPSJ ","V020","120,1,N,0021,1","99999,9,C,N","011265,1,N,1","+0110,1","+0080,1","99999,9","04,5,+00480,1,99,9","04,5,+00900,1,99,9",,,"04,99,1,99,9,99,9,99999,9,99,9,99,9","999,M,+9999,9","09990,1,99999,9",,,,,,"MET090METAR LPSJ 160900Z 12004KT 9999 SCT016 SCT030 11/08 Q0999 RMK RWY13 11005KT RWY31 11006KT;","Q01 -00062ATMX  P01 009003SCOCIG"
"08509599999","2010-02-16T10:00:00","4","38.6655","-28.175817","94.79","SAO JORGE, PO","FM-15","LPSJ ","V020","110,1,N,0021,1","99999,9,C,N","011265,1,N,1","+0110,1","+0080,1","99999,9","04,5,+00480,1,99,9","04,5,+00900,1,99,9",,,"04,99,1,99,9,99,9,99999,9,99,9,99,9","999,M,+9999,9","09990,1,99999,9",,,,,,"MET090METAR LPSJ 161000Z 11004KT 9999 SCT016 SCT030 11/08 Q0999 RMK RWY13 11005KT RWY31 10003KT;","Q01 +00032ATMX  P01 009003SCOCIG"
"08509599999","2010-02-16T14:00:00","4","38.6655","-28.175817","94.79","SAO JORGE, PO","FM-15","LPSJ ","V020","140,1,N,0046,1","22000,1,9,N","011265,1,N,1","+0140,1","+0100,1","99999,9","02,5,+00540,1,99,9",,,,"02,99,1,99,9,99,9,99999,9,99,9,99,9",,"10000,1,99999,9",,,,,,"MET083METAR LPSJ 161400Z 14009KT 9999 FEW018 14/10 Q1000 RMK RWY13 14007KT RWY31 14006KT;",
"08509599999","2010-02-16T15:00:00","4","38.6655","-28.175817","94.79","SAO JORGE, PO","FM-15","LPSJ ","V020","140,1,N,0041,1","22000,1,9,N","011265,1,N,1","+0140,1","+0100,1","99999,9","02,5,+00750,1,99,9",,,,"02,99,1,99,9,99,9,99999,9,99,9,99,9",,"09990,1,99999,9",,,,,,"MET083METAR LPSJ 161500Z 14008KT 9999 FEW025 14/10 Q0999 RMK RWY13 15006KT RWY31 15005KT;",
"08509599999","2010-02-16T16:00:00","4","38.6655","-28.175817","94.79","SAO JORGE, PO","FM-15","LPSJ ","V020","180,1,N,0026,1","22000,1,9,N","011265,1,N,1","+0150,1","+0100,1","99999,9","02,5,+00750,1,99,9",,,,"02,99,1,99,9,99,9,99999,9,99,9,99,9",,"09990,1,99999,9",,,,,,"MET083METAR LPSJ 161600Z 18005KT 9999 FEW025 15/10 Q0999 RMK RWY13 17005KT RWY31 17004KT;",
"08509599999","2010-02-17T11:00:00","4","38.6655","-28.175817","94.79","SAO JORGE, PO","FM-15","LPSJ ","V020","080,1,N,0021,1","99999,9,C,N","011265,1,N,1","+0110,1","+0090,1","99999,9","04,5,+00480,1,99,9","04,5,+00900,1,99,9",,,"04,99,1,99,9,99,9,99999,9,99,9,99,9",,"10000,1,99999,9",,,,,,"MET090METAR LPSJ 171100Z 08004KT 9999 SCT016 SCT030 11/09 Q1000 RMK RWY13 10003KT RWY31 09003KT;","P01 009003SCOCIG"
"08509599999","2010-02-17T12:00:00","4","38.6655","-28.175817","94.79","SAO JORGE, PO","FM-15","LPSJ ","V020","999,9,C,0000,1","00390,1,C,N","011265,1,N,1","+0120,1","+0100,1","99999,9","07,5,+00390,1,99,9","04,5,+00900,1,99,9",,,,,"10010,1,99999,9","80,1",,,,,"MET096METAR LPSJ 171200Z 00000KT 9999 -SHRA BKN013 SCT030 12/10 Q1001 RMK RWY13 00000KT RWY31 00000KT;","Q01+000042SCOTCV"
"08509599999","2010-02-17T13:00:00","4","38.6655","-28.175817","94.79","SAO JORGE, PO","FM-15","LPSJ ","V020","310,1,N,0021,1","99999,9,C,N","011265,1,N,1","+0120,1","+0100,1","99999,9","04,5,+00390,1,99,9","04,5,+00750,1,99,9",,,"04,99,1,99,9,99,9,99999,9,99,9,99,9",,"10020,1,99999,9",,,,,,"MET090METAR LPSJ 171300Z 31004KT 9999 SCT013 SCT025 12/10 Q1002 RMK RWY13 31004KT RWY31 31004KT;","P01 007503SCOCIG"
"08509599999","2010-02-17T14:00:00","4","38.6655","-28.175817","94.79","SAO JORGE, PO","FM-15","LPSJ ","V020","290,1,N,0026,1","99999,9,C,N","011265,1,N,1","+0120,1","+0110,1","99999,9","04,5,+00390,1,99,9","04,5,+00750,1,99,9",,,"04,99,1,99,9,99,9,99999,9,99,9,99,9",,"10020,1,99999,9",,,,,,"MET090METAR LPSJ 171400Z 29005KT 9999 SCT013 SCT025 12/11 Q1002 RMK RWY13 27004KT RWY31 28004KT;","P01 007503SCOCIG"
"08509599999","2010-02-17T15:00:00","4","38.6655","-28.175817","94.79","SAO JORGE, PO","FM-15","LPSJ ","V020","999,9,V,0026,1","99999,9,C,N","011265,1,N,1","+0130,1","+0100,1","99999,9","04,5,+00480,1,99,9","04,5,+00900,1,99,9",,,"04,99,1,99,9,99,9,99999,9,99,9,99,9",,"10020,1,99999,9","80,1",,,,,"MET096METAR LPSJ 171500Z VRB05KT 9999 -SHRA SCT016 SCT030 13/10 Q1002 RMK RWY13 VRB05KT RWY31 VRB03KT;","P01 009003SCOCIG"
"08509599999","2010-02-18T08:00:00","4","38.6655","-28.175817","94.79","SAO JORGE, PO","FM-15","LPSJ ","V020","060,1,N,0021,1","22000,1,9,N","011265,1,N,1","+0090,1","+0040,1","99999,9","02,5,+00900,1,99,9",,,,"02,99,1,99,9,99,9,99999,9,99,9,99,9",,"10091,1,99999,9",,,,,,"MET083METAR LPSJ 180800Z 06004KT 9999 FEW030 09/04 Q1009 RMK RWY13 07003KT RWY31 06003KT;",
"08509599999","2010-02-18T09:00:00","4","38.6655","-28.175817","94.79","SAO JORGE, PO","FM-15","LPSJ ","V020","010,1,N,0021,1","22000,1,9,N","011265,1,N,1","+0090,1","+0050,1","99999,9","02,5,+00900,1,99,9",,,,"02,99,1,99,9,99,9,99999,9,99,9,99,9",,"10102,1,99999,9",,,,,,"MET083METAR LPSJ 180900Z 01004KT 9999 FEW030 09/05 Q1010 RMK RWY13 02004KT RWY31 01005KT;",
"08509599999","2010-02-18T14:00:00","4","38.6655","-28.175817","94.79","SAO JORGE, PO","FM-15","LPSJ ","V020","150,1,N,0036,1","22000,1,9,N","011265,1,N,1","+0140,1","+0080,1","99999,9","02,5,+00900,1,99,9",,,,"02,99,1,99,9,99,9,99999,9,99,9,99,9",,"10108,1,99999,9",,,,,,"MET083METAR LPSJ 181400Z 15007KT 9999 FEW030 14/08 Q1011 RMK RWY13 16005KT RWY31 17004KT;",
"08509599999","2010-02-18T15:00:00","4","38.6655","-28.175817","94.79","SAO JORGE, PO","FM-15","LPSJ ","V020","130,1,N,0041,1","22000,1,9,N","011265,1,N,1","+0140,1","+0100,1","99999,9","04,5,+00900,1,99,9",,,,"04,99,1,99,9,99,9,99999,9,99,9,99,9",,"10108,1,99999,9",,,,,,"MET083METAR LPSJ 181500Z 13008KT 9999 SCT030 14/10 Q1011 RMK RWY13 15006KT RWY31 15005KT;",
"08509599999","2010-02-18T16:00:00","4","38.6655","-28.175817","94.79","SAO JORGE, PO","FM-15","LPSJ ","V020","130,1,N,0041,1","22000,1,9,N","011265,1,N,1","+0140,1","+0080,1","99999,9","04,5,+00750,1,99,9",,,,"04,99,1,99,9,99,9,99999,9,99,9,99,9",,"10102,1,99999,9",,,,,,"MET083METAR LPSJ 181600Z 13008KT 9999 SCT025 14/08 Q1010 RMK RWY13 14007KT RWY31 14007KT;",
"08509599999","2010-02-19T09:00:00","4","38.6655","-28.175817","94.79","SAO JORGE, PO","FM-15","LPSJ ","V020","110,1,N,0036,1","00390,1,C,N","009000,1,N,1","+0140,1","+0130,1","99999,9","02,5,+00240,1,99,9","07,5,+00390,1,99,9","07,5,+00900,1,99,9",,"07,99,1,99,9,99,9,99999,9,99,9,99,9","999,M,+9999,9","10051,1,99999,9","61,1",,,,,"MET106METAR LPSJ 190900Z 11007KT 9000 -RA FEW008 BKN013 BKN030 14/13 Q1005 RERA RMK RWY13 12007KT RWY31 11007KT;","Q01 -00072ATMX  "
"08509599999","2010-02-19T10:00:00","4","38.6655","-28.175817","94.79","SAO JORGE, PO","FM-15","LPSJ ","V020","999,9,V,0026,1","00390,1,C,N","009000,1,N,1","+0140,1","+0130,1","99999,9","02,5,+00240,1,99,9","04,5,+00390,1,99,9","07,5,+00750,1,99,9",,"07,99,1,99,9,99,9,99999,9,99,9,99,9",,"10051,1,99999,9","61,1",,,,,"MET101METAR LPSJ 191000Z VRB05KT 9000 -RA FEW008 SCT013 BKN025 14/13 Q1005 RMK RWY13 VRB03KT RWY31 VRB02KT;",
"08509599999","2010-02-19T11:00:00","4","38.6655","-28.175817","94.79","SAO JORGE, PO","FM-15","LPSJ ","V020","110,1,N,0026,1","00420,1,C,N","009000,1,N,1","+0140,1","+0130,1","99999,9","02,5,+00270,1,99,9","04,5,+00420,1,99,9","07,5,+00750,1,99,9",,"07,99,1,99,9,99,9,99999,9,99,9,99,9",,"10041,1,99999,9","61,1",,,,,"MET101METAR LPSJ 191100Z 11005KT 9000 -RA FEW009 SCT014 BKN025 14/13 Q1004 RMK RWY13 11008KT RWY31 12009KT;",
"08509599999","2010-02-19T12:00:00","4","38.6655","-28.175817","94.79","SAO JORGE, PO","FM-15","LPSJ ","V020","120,1,N,0041,1","00360,1,C,N","005000,1,N,1","+0140,1","+0130,1","99999,9","04,5,+00180,1,99,9","07,5,+00360,1,99,9","07,5,+00600,1,99,9",,"07,99,1,99,9,99,9,99999,9,99,9,99,9",,"10041,1,99999,9","10,1","63,1",,,,"MET103METAR LPSJ 191200Z 12008KT 5000 RA BR SCT006 BKN012 BKN020 14/13 Q1004 RMK RWY13 13006KT RWY31 14006KT;",
"08509599999","2010-02-19T13:00:00","4","38.6655","-28.175817","94.79","SAO JORGE, PO","FM-15","LPSJ ","V020","130,1,N,0046,1","00360,1,C,N","005000,1,N,1","+0140,1","+0130,1","99999,9","04,5,+00180,1,99,9","07,5,+00360,1,99,9","07,5,+00600,1,99,9",,"07,99,1,99,9,99,9,99999,9,99,9,99,9",,"10031,1,99999,9","10,1","61,1",,,,"MET104METAR LPSJ 191300Z 13009KT 5000 -RA BR SCT006 BKN012 BKN020 14/13 Q1003 RMK RWY13 12008KT RWY31 13008KT;",
"08509599999","2010-02-20T12:00:00","4","38.6655","-28.175817","94.79","SAO JORGE, PO","FM-15","LPSJ ","V020","270,1,N,0072,1","22000,1,9,N","011265,1,N,1","+0150,1","+0110,1","99999,9","04,5,+00480,1,99,9",,,,"04,99,1,99,9,99,9,99999,9,99,9,99,9",,"09919,1,99999,9",,,,,,"MET099METAR LPSJ 201200Z 27014KT 9999 SCT016 15/11 Q0992 RMK RWY13 27013KT 230V330 RWY31 26017KT 210V300;",
"08509599999","2010-02-20T13:00:00","4","38.6655","-28.175817","94.79","SAO JORGE, PO","FM-15","LPSJ ","V020","270,1,N,0077,1","22000,1,9,N","011265,1,N,1","+0160,1","+0110,1","99999,9","04,5,+00480,1,99,9",,,,"04,99,1,99,9,99,9,99999,9,99,9,99,9",,"09919,1,99999,9",,,,,,"MET105METAR LPSJ 201300Z 27015KT 9999 SCT016 16/11 Q0992 RMK RWY13 29011G21KT 240V330 RWY31 26014G25KT 200V300;",
"08509599999","2010-02-20T14:00:00","4","38.6655","-28.175817","94.79","SAO JORGE, PO","FM-15","LPSJ ","V020","280,1,N,0072,1","22000,1,9,N","011265,1,N,1","+0160,1","+0110,1","99999,9","04,5,+00480,1,99,9",,,,"04,99,1,99,9,99,9,99999,9,99,9,99,9",,"09919,1,99999,9",,,,,,"MET102METAR LPSJ 201400Z 28014KT 9999 SCT016 16/11 Q0992 RMK RWY13 28015KT 240V330 RWY31 26015G26KT 210V300;",
"08509599999","2010-02-20T15:00:00","4","38.6655","-28.175817","94.79","SAO JORGE, PO","FM-15","LPSJ ","V020","260,1,N,0077,1","22000,1,9,N","011265,1,N,1","+0160,1","+0120,1","99999,9","04,5,+00480,1,99,9",,,,"04,99,1,99,9,99,9,99999,9,99,9,99,9",,"09909,1,99999,9",,,,,,"MET102METAR LPSJ 201500Z 26015KT 9999 SCT016 16/12 Q0991 RMK RWY13 27014KT 220V330 RWY31 25017G27KT 190V300;",
"08509599999","2010-02-20T16:00:00","4","38.6655","-28.175817","94.79","SAO JORGE, PO","FM-15","LPSJ ","V020","280,1,N,0077,1","22000,1,9,N","011265,1,N,1","+0160,1","+0130,1","99999,9","04,5,+00480,1,99,9",,,,"04,99,1,99,9,99,9,99999,9,99,9,99,9",,"09909,1,99999,9",,,,,,"MET105METAR LPSJ 201600Z 28015KT 9999 SCT016 16/13 Q0991 RMK RWY13 27012G22KT 230V320 RWY31 26015G25KT 200V300;",
"08509599999","2010-02-20T17:00:00","4","38.6655","-28.175817","94.79","SAO JORGE, PO","FM-15","LPSJ ","V020","270,1,N,0046,1","99999,9,C,N","011265,1,N,1","+0150,1","+0130,1","99999,9","04,5,+00480,1,99,9","04,5,+00900,1,99,9",,,"04,99,1,99,9,99,9,99999,9,99,9,99,9",,"09909,1,99999,9",,,,,,"MET106METAR LPSJ 201700Z 27009KT 9999 SCT016 SCT030 15/13 Q0991 RMK RWY13 28009KT 240V320 RWY31 26012KT 230V290;","P01 009003SCOCIG"
"08509599999","2010-02-21T13:00:00","4","38.6655","-28.175817","94.79","SAO JORGE, PO","FM-15","LPSJ ","V020","270,1,N,0077,1","00540,5,C,N","011265,1,N,1","+0140,1","+0100,1","99999,9","04,5,+00480,1,99,9","02,5,+00540,1,02,5",,,,,"09882,1,99999,9",,,,"0129,1",,"MET118METAR LPSJ 211300Z 27015G25KT 9999 SCT016 FEW018TCU 14/10 Q0988 RMK RWY13 28014G26KT 210V340 RWY31 26018G36KT 180V310;","Q01+000022SCOTCV"
"08509599999","2010-02-21T14:00:00","4","38.6655","-28.175817","94.79","SAO JORGE, PO","FM-15","LPSJ ","V020","270,1,N,0077,1","00540,5,C,N","011265,1,N,1","+0140,1","+0090,1","99999,9","04,5,+00480,1,99,9","02,5,+00540,1,02,5",,,,,"09882,1,99999,9",,,,"0129,1",,"MET118METAR LPSJ 211400Z 27015G25KT 9999 SCT016 FEW018TCU 14/09 Q0988 RMK RWY13 28015G27KT 230V350 RWY31 26019G40KT 210V320;","Q01+000022SCOTCV"
"08509599999","2010-02-21T15:00:00","4","38.6655","-28.175817","94.79","SAO JORGE, PO","FM-15","LPSJ ","V020","270,1,N,0087,1","22000,1,9,N","011265,1,N,1","+0150,1","+0100,1","99999,9","04,5,+00600,1,99,9",,,,"04,99,1,99,9,99,9,99999,9,99,9,99,9",,"09871,1,99999,9",,,,"0139,1",,"MET108METAR LPSJ 211500Z 27017G27KT 9999 SCT020 15/10 Q0987 RMK RWY13 28020G33KT 220V360 RWY31 26025G43KT 190V320;",
"08509599999","2010-02-21T16:00:00","4","38.6655","-28.175817","94.79","SAO JORGE, PO","FM-15","LPSJ ","V020","270,1,N,0118,1","22000,1,9,N","011265,1,N,1","+0150,1","+0090,1","99999,9","04,5,+00600,1,99,9",,,,"04,99,1,99,9,99,9,99999,9,99,9,99,9",,"09871,1,99999,9",,,,"0170,1",,"MET108METAR LPSJ 211600Z 27023G33KT 9999 SCT020 15/09 Q0987 RMK RWY13 28021G34KT 210V360 RWY31 26031G47KT 190V320;",
"08509599999","2010-02-21T17:00:00","4","38.6655","-28.175817","94.79","SAO JORGE, PO","FM-15","LPSJ ","V020","270,1,N,0087,1","22000,1,9,N","011265,1,N,1","+0150,1","+0090,1","99999,9","04,5,+00600,1,99,9",,,,"04,99,1,99,9,99,9,99999,9,99,9,99,9",,"09882,1,99999,9",,,,"0139,1",,"MET108METAR LPSJ 211700Z 27017G27KT 9999 SCT020 15/09 Q0988 RMK RWY13 28018G34KT 230V350 RWY31 26018G35KT 210V320;",
"08509599999","2010-02-22T09:00:00","4","38.6655","-28.175817","94.79","SAO JORGE, PO","FM-15","LPSJ ","V020","280,1,N,0098,1","22000,1,9,N","011265,1,N,1","+0130,1","+0070,1","99999,9","04,5,+00600,1,99,9",,,,"04,99,1,99,9,99,9,99999,9,99,9,99,9",,"09939,1,99999,9",,,,,,"MET105METAR LPSJ 220900Z 28019KT 9999 SCT020 13/07 Q0994 RMK RWY13 29015G26KT 230V350 RWY31 27016G27KT 220V320;",
"08509599999","2010-02-22T10:00:00","4","38.6655","-28.175817","94.79","SAO JORGE, PO","FM-15","LPSJ ","V020","280,1,N,0087,1","22000,1,9,N","011265,1,N,1","+0130,1","+0080,1","99999,9","02,5,+00600,1,02,1",,,,"02,99,1,99,9,99,9,99999,9,99,9,99,9",,"09949,1,99999,9",,,,,,"MET108METAR LPSJ 221000Z 28017KT 9999 FEW020TCU 13/08 Q0995 RMK RWY13 29011G21KT 230V350 RWY31 26016G26KT 200V300;",
"08509599999","2010-02-22T11:00:00","4","38.6655","-28.175817","94.79","SAO JORGE, PO","FM-15","LPSJ ","V020","270,1,N,0087,1","22000,1,9,N","011265,1,N,1","+0140,1","+0080,1","99999,9","02,5,+00750,1,99,9",,,,"02,99,1,99,9,99,9,99999,9,99,9,99,9",,"09949,1,99999,9",,,,,,"MET105METAR LPSJ 221100Z 27017KT 9999 FEW025 14/08 Q0995 RMK RWY13 29013G23KT 230V350 RWY31 26017G28KT 210V310;",
"08509599999","2010-02-22T12:00:00","4","38.6655","-28.175817","94.79","SAO JORGE, PO","FM-15","LPSJ ","V020","280,1,N,0087,1","22000,1,9,N","011265,1,N,1","+0140,1","+0090,1","99999,9","02,5,+00600,1,99,9",,,,"02,99,1,99,9,99,9,99999,9,99,9,99,9",,"09949,1,99999,9",,,,,,"MET105METAR LPSJ 221200Z 28017KT 9999 FEW020 14/09 Q0995 RMK RWY13 29013G23KT 240V360 RWY31 26018G33KT 210V300;",
"08509599999","2010-02-22T13:00:00","4","38.6655","-28.175817","94.79","SAO JORGE, PO","FM-15","LPSJ ","V020","280,1,N,0082,1","00750,5,C,N","011265,1,N,1","+0130,1","+0070,1","99999,9","04,5,+00600,1,99,9","02,5,+00750,1,02,5",,,,,"09959,1,99999,9","80,1",,,,,"MET121METAR LPSJ 221300Z 28016KT 9999 -SHRA SCT020 FEW025TCU 13/07 Q0996 RMK RWY13 29012G22KT 230V350 RWY31 27016G26KT 210V310;","Q01+000022SCOTCV"
"08509599999","2010-02-22T14:00:00","4","38.6655","-28.175817","94.79","SAO JORGE, PO","FM-15","LPSJ ","V020","270,1,N,0087,1","00540,5,C,N","011265,1,N,1","+0140,1","+0080,1","99999,9","04,5,+00480,1,99,9","02,5,+00540,1,02,5",,,,,"09959,1,99999,9",,,,,,"MET115METAR LPSJ 221400Z 27017KT 9999 SCT016 FEW018TCU 14/08 Q0996 RMK RWY13 29012G22KT 220V330 RWY31 26017G28KT 210V310;","Q01+000022SCOTCV"
"08509599999","2010-02-22T16:00:00","4","38.6655","-28.175817","94.79","SAO JORGE, PO","FM-15","LPSJ ","V020","280,1,N,0082,1","00600,5,C,N","011265,1,N,1","+0140,1","+0090,1","99999,9","04,5,+00540,1,99,9","02,5,+00600,1,02,5",,,,,"09949,1,99999,9",,,,,,"MET115METAR LPSJ 221600Z 28016KT 9999 SCT018 FEW020TCU 14/09 Q0995 RMK RWY13 29012G22KT 240V350 RWY31 27013G24KT 230V310;","Q01+000022SCOTCV"
"08509599999","2010-02-22T17:00:00","4","38.6655","-28.175817","94.79","SAO JORGE, PO","FM-15","LPSJ ","V020","280,1,N,0093,1","00540,5,C,N","011265,1,N,1","+0120,1","+0100,1","99999,9","04,5,+00480,1,99,9","02,5,+00540,1,09,5",,,,,"09959,1,99999,9",,,,,,"MET114METAR LPSJ 221700Z 28018KT 9999 SCT016 FEW018CB 12/10 Q0996 RMK RWY13 29012G22KT 250V350 RWY31 27017G27KT 230V320;","Q01+000022SCOTCV"
"08509599999","2010-02-23T08:00:00","4","38.6655","-28.175817","94.79","SAO JORGE, PO","FM-15","LPSJ ","V020","350,1,N,0026,1","22000,1,9,N","011265,1,N,1","+0100,1","+0070,1","99999,9","02,5,+00900,1,99,9",,,,"02,99,1,99,9,99,9,99999,9,99,9,99,9",,"10031,1,99999,9",,,,,,"MET083METAR LPSJ 230800Z 35005KT 9999 FEW030 10/07 Q1003 RMK RWY13 35009KT RWY31 34008KT;",
"08509599999","2010-02-23T09:00:00","4","38.6655","-28.175817","94.79","SAO JORGE, PO","FM-15","LPSJ ","V020","360,1,N,0021,1","22000,1,9,N","011265,1,N,1","+0100,1","+0060,1","99999,9","02,5,+00900,1,99,9",,,,"02,99,1,99,9,99,9,99999,9,99,9,99,9",,"10041,1,99999,9",,,,,,"MET083METAR LPSJ 230900Z 36004KT 9999 FEW030 10/06 Q1004 RMK RWY13 35005KT RWY31 36004KT;",
"08509599999","2010-02-23T10:00:00","4","38.6655","-28.175817","94.79","SAO JORGE, PO","FM-15","LPSJ ","V020","010,1,N,0021,1","99999,9,C,N","011265,1,N,1","+0110,1","+0070,1","99999,9","02,5,+00900,1,99,9","04,5,+06000,1,99,9",,,"04,99,1,99,9,99,9,99999,9,99,9,99,9",,"10051,1,99999,9",,,,,,"MET090METAR LPSJ 231000Z 01004KT 9999 FEW030 SCT200 11/07 Q1005 RMK RWY13 35004KT RWY31 35003KT;","P01 060003SCOCIG"
"08509599999","2010-02-23T11:00:00","4","38.6655","-28.175817","94.79","SAO JORGE, PO","FM-15","LPSJ ","V020","260,1,N,0026,1","22000,1,9,N","011265,1,N,1","+0120,1","+0070,1","99999,9","04,5,+00750,1,99,9",,,,"04,99,1,99,9,99,9,99999,9,99,9,99,9",,"10051,1,99999,9",,,,,,"MET083METAR LPSJ 231100Z 26005KT 9999 SCT025 12/07 Q1005 RMK RWY13 26004KT RWY31 25005KT;",
"08509599999","2010-02-23T12:00:00","4","38.6655","-28.175817","94.79","SAO JORGE, PO","FM-15","LPSJ ","V020","250,1,N,0021,1","22000,1,9,N","011265,1,N,1","+0140,1","+0080,1","99999,9","02,5,+00900,1,99,9",,,,"02,99,1,99,9,99,9,99999,9,99,9,99,9",,"10051,1,99999,9",,,,,,"MET083METAR LPSJ 231200Z 25004KT 9999 FEW030 14/08 Q1005 RMK RWY13 23003KT RWY31 23003KT;",
"08509599999","2010-02-23T15:00:00","4","38.6655","-28.175817","94.79","SAO JORGE, PO","FM-15","LPSJ ","V020","120,1,N,0036,1","01050,1,C,N","011265,1,N,1","+0130,1","+0090,1","99999,9","04,5,+00750,1,99,9","07,5,+01050,1,99,9",,,"07,99,1,99,9,99,9,99999,9,99,9,99,9",,"10041,1,99999,9",,,,,,"MET090METAR LPSJ 231500Z 12007KT 9999 SCT025 BKN035 13/09 Q1004 RMK RWY13 12006KT RWY31 12007KT;",
"08509599999","2010-02-23T16:00:00","4","38.6655","-28.175817","94.79","SAO JORGE, PO","FM-15","LPSJ ","V020","150,1,N,0031,1","00750,1,C,N","006000,1,N,1","+0130,1","+0080,1","99999,9","04,5,+00480,1,99,9","04,5,+00750,1,99,9","07,5,+02100,1,99,9",,"07,99,1,99,9,99,9,99999,9,99,9,99,9",,"10031,1,99999,9","61,1",,,,,"MET106METAR LPSJ 231600Z 15006KT 6000 -RA SCT016 SCT025 BKN070 13/08 Q1003 RERA RMK RWY13 15004KT RWY31 15005KT;",
"08509599999","2010-02-23T17:00:00","4","38.6655","-28.175817","94.79","SAO JORGE, PO","FM-15","LPSJ ","V020","100,1,N,0036,1","00750,1,C,N","008000,1,N,1","+0120,1","+0100,1","99999,9","04,5,+00480,1,99,9","04,5,+00750,1,99,9","07,5,+02100,1,99,9",,"07,99,1,99,9,99,9,99999,9,99,9,99,9","999,M,+9999,9","10020,1,99999,9","61,1",,,,,"MET101METAR LPSJ 231700Z 10007KT 8000 -RA SCT016 SCT025 BKN070 12/10 Q1002 RMK RWY13 12009KT RWY31 11010KT;","Q01 -00102ATMX  "
"08509599999","2010-02-23T18:00:00","4","38.6655","-28.175817","94.79","SAO JORGE, PO","FM-15","LPSJ ","V020","140,1,N,0036,1","00750,1,C,N","008000,1,N,1","+0120,1","+0100,1","99999,9","04,5,+00390,1,99,9","07,5,+00750,1,99,9","07,5,+02100,1,99,9",,"07,99,1,99,9,99,9,99999,9,99,9,99,9",,"10000,1,99999,9","61,1",,,,,"MET101METAR LPSJ 231800Z 14007KT 8000 -RA SCT013 BKN025 BKN070 12/10 Q1000 RMK RWY13 14007KT RWY31 15006KT;",
"08509599999","2010-02-24T10:00:00","4","38.6655","-28.175817","94.79","SAO JORGE, PO","FM-15","LPSJ ","V020","270,1,N,0072,1","22000,1,9,N","011265,1,N,1","+0140,1","+0090,1","99999,9","04,5,+00480,1,99,9",,,,"04,99,1,99,9,99,9,99999,9,99,9,99,9",,"09959,1,99999,9",,,,"0129,1",,"MET108METAR LPSJ 241000Z 27014G25KT 9999 SCT016 14/09 Q0996 RMK RWY13 27013G23KT 200V360 RWY31 26022G38KT 200V310;",
"08509599999","2010-02-24T11:00:00","4","38.6655","-28.175817","94.79","SAO JORGE, PO","FM-15","LPSJ ","V020","270,1,N,0093,1","99999,9,C,N","011265,1,N,1","+0140,1","+0100,1","99999,9","04,5,+00480,1,99,9","04,5,+02100,1,99,9",,,"04,99,1,99,9,99,9,99999,9,99,9,99,9",,"09959,1,99999,9",,,,,,"MET112METAR LPSJ 241100Z 27018KT 9999 SCT016 SCT070 14/10 Q0996 RMK RWY13 28010G20KT 210V360 RWY31 26018G30KT 200V300;","P01 021003SCOCIG"
"08509599999","2010-02-24T12:00:00","4","38.6655","-28.175817","94.79","SAO JORGE, PO","FM-15","LPSJ ","V020","310,1,N,0072,1","99999,9,C,N","011265,1,N,1","+0120,1","+0100,1","99999,9","04,5,+00420,1,99,9","02,5,+00540,1,02,5","04,5,+00750,1,99,9",,"04,99,1,99,9,99,9,99999,9,99,9,99,9",,"09970,1,99999,9","80,1",,,,,"MET122METAR LPSJ 241200Z 31014KT 9999 -SHRA SCT014 FEW018TCU SCT025 12/10 Q0997 RMK RWY13 31016KT 240V350 RWY31 31017KT 270V330;","P01 005403SCOCIG"
"08509599999","2010-02-24T13:00:00","4","38.6655","-28.175817","94.79","SAO JORGE, PO","FM-15","LPSJ ","V020","310,1,N,0062,1","22000,1,9,N","011265,1,N,1","+0120,1","+0090,1","99999,9","04,5,+00540,1,99,9",,,,"04,99,1,99,9,99,9,99999,9,99,9,99,9",,"09980,1,99999,9",,,,,,"MET102METAR LPSJ 241300Z 31012KT 9999 SCT018 12/09 Q0998 RMK RWY13 31014KT 270V350 RWY31 31012G22KT 270V320;",
"08509599999","2010-02-25T08:00:00","4","38.6655","-28.175817","94.79","SAO JORGE, PO","FM-15","LPSJ ","V020","290,1,N,0062,1","00600,5,C,N","011265,1,N,1","+0100,1","+0050,1","99999,9","04,5,+00540,1,99,9","02,5,+00600,1,02,5",,,,,"10081,1,99999,9",,,,,,"MET109METAR LPSJ 250800Z 29012KT 9999 SCT018 FEW020TCU 10/05 Q1008 RMK RWY13 29016KT 260V350 RWY31 29017KT 260V330;","Q01+000022SCOTCV"
"08509599999","2010-02-25T09:00:00","4","38.6655","-28.175817","94.79","SAO JORGE, PO","FM-15","LPSJ ","V020","290,1,N,0046,1","22000,1,9,N","011265,1,N,1","+0100,1","+0040,1","99999,9","04,5,+00600,1,99,9",,,,"04,99,1,99,9,99,9,99999,9,99,9,99,9",,"10081,1,99999,9",,,,,,"MET099METAR LPSJ 250900Z 29009KT 9999 SCT020 10/04 Q1008 RMK RWY13 29014KT 240V340 RWY31 28015KT 240V320;",
"08509599999","2010-02-25T10:00:00","4","38.6655","-28.175817","94.79","SAO JORGE, PO","FM-15","LPSJ ","V020","290,1,N,0062,1","22000,1,9,N","011265,1,N,1","+0100,1","+0050,1","99999,9","04,5,+00600,1,99,9",,,,"04,99,1,99,9,99,9,99999,9,99,9,99,9",,"10081,1,99999,9",,,,,,"MET099METAR LPSJ 251000Z 29012KT 9999 SCT020 10/05 Q1008 RMK RWY13 31012KT 260V350 RWY31 29013KT 240V320;",
"08509599999","2010-02-25T13:00:00","4","38.6655","-28.175817","94.79","SAO JORGE, PO","FM-15","LPSJ ","V020","270,1,N,0067,1","22000,1,9,N","011265,1,N,1","+0130,1","+0060,1","99999,9","02,5,+00900,1,99,9",,,,"02,99,1,99,9,99,9,99999,9,99,9,99,9",,"10091,1,99999,9",,,,,,"MET099METAR LPSJ 251300Z 27013KT 9999 FEW030 13/06 Q1009 RMK RWY13 29012KT 240V330 RWY31 26015KT 210V300;",
"08509599999","2010-02-25T14:00:00","4","38.6655","-28.175817","94.79","SAO JORGE, PO","FM-15","LPSJ ","V020","270,1,N,0062,1","22000,1,9,N","011265,1,N,1","+0140,1","+0080,1","99999,9","02,5,+00900,1,99,9",,,,"02,99,1,99,9,99,9,99999,9,99,9,99,9",,"10091,1,99999,9",,,,,,"MET099METAR LPSJ 251400Z 27012KT 9999 FEW030 14/08 Q1009 RMK RWY13 29010KT 240V340 RWY31 26015KT 210V300;",
"08509599999","2010-02-25T15:00:00","4","38.6655","-28.175817","94.79","SAO JORGE, PO","FM-15","LPSJ ","V020","270,1,N,0062,1","22000,1,9,N","011265,1,N,1","+0130,1","+0070,1","99999,9","02,5,+00900,1,99,9",,,,"02,99,1,99,9,99,9,99999,9,99,9,99,9",,"10081,1,99999,9",,,,,,"MET102METAR LPSJ 251500Z 27012KT 9999 FEW030 13/07 Q1008 RMK RWY13 29013KT 240V330 RWY31 26012G23KT 210V310;",
"08509599999","2010-02-25T16:00:00","4","38.6655","-28.175817","94.79","SAO JORGE, PO","FM-15","LPSJ ","V020","280,1,N,0067,1","22000,1,9,N","011265,1,N,1","+0130,1","+0070,1","99999,9","04,5,+00600,1,99,9",,,,"04,99,1,99,9,99,9,99999,9,99,9,99,9",,"10071,1,99999,9",,,,,,"MET099METAR LPSJ 251600Z 28013KT 9999 SCT020 13/07 Q1007 RMK RWY13 30012KT 240V350 RWY31 28016KT 210V320;",
"08509599999","2010-02-26T09:00:00","4","38.6655","-28.175817","94.79","SAO JORGE, PO","FM-15","LPSJ ","V020","340,1,N,0031,1","99999,9,C,N","011265,1,N,1","+0090,1","+0030,1","99999,9","02,5,+00900,1,99,9","04,5,+06000,1,99,9",,,"04,99,1,99,9,99,9,99999,9,99,9,99,9",,"10081,1,99999,9",,,,,,"MET090METAR LPSJ 260900Z 34006KT 9999 FEW030 SCT200 09/03 Q1008 RMK RWY13 35008KT RWY31 34008KT;","P01 060003SCOCIG"
"08509599999","2010-02-26T10:00:00","4","38.6655","-28.175817","94.79","SAO JORGE, PO","FM-15","LPSJ ","V020","340,1,N,0026,1","99999,9,C,N","011265,1,N,1","+0100,1","+0040,1","99999,9","02,5,+00900,1,99,9","04,5,+06000,1,99,9",,,"04,99,1,99,9,99,9,99999,9,99,9,99,9",,"10081,1,99999,9",,,,,,"MET090METAR LPSJ 261000Z 34005KT 9999 FEW030 SCT200 10/04 Q1008 RMK RWY13 34008KT RWY31 33007KT;","P01 060003SCOCIG"
"08509599999","2010-02-26T11:00:00","4","38.6655","-28.175817","94.79","SAO JORGE, PO","FM-15","LPSJ ","V020","320,1,N,0036,1","22000,1,9,N","011265,1,N,1","+0110,1","+0050,1","99999,9","04,5,+00750,1,99,9",,,,"04,99,1,99,9,99,9,99999,9,99,9,99,9",,"10081,1,99999,9",,,,,,"MET083METAR LPSJ 261100Z 32007KT 9999 SCT025 11/05 Q1008 RMK RWY13 33007KT RWY31 34010KT;",
"08509599999","2010-02-26T12:00:00","4","38.6655","-28.175817","94.79","SAO JORGE, PO","FM-15","LPSJ ","V020","300,1,N,0046,1","22000,1,9,N","011265,1,N,1","+0120,1","+0050,1","99999,9","04,5,+00900,1,99,9",,,,"04,99,1,99,9,99,9,99999,9,99,9,99,9",,"10081,1,99999,9",,,,,,"MET083METAR LPSJ 261200Z 30009KT 9999 SCT030 12/05 Q1008 RMK RWY13 31006KT RWY31 28006KT;",
"08509599999","2010-02-26T13:00:00","4","38.6655","-28.175817","94.79","SAO JORGE, PO","FM-15","LPSJ ","V020","300,1,N,0046,1","22000,1,9,N","011265,1,N,1","+0120,1","+0060,1","99999,9","04,5,+00900,1,99,9",,,,"04,99,1,99,9,99,9,99999,9,99,9,99,9",,"10071,1,99999,9",,,,,,"MET083METAR LPSJ 261300Z 30009KT 9999 SCT030 12/06 Q1007 RMK RWY13 31007KT RWY31 32008KT;",
"08509599999","2010-02-26T14:00:00","4","38.6655","-28.175817","94.79","SAO JORGE, PO","FM-15","LPSJ ","V020","310,1,N,0036,1","22000,1,9,N","011265,1,N,1","+0120,1","+0060,1","99999,9","04,5,+00900,1,99,9",,,,"04,99,1,99,9,99,9,99999,9,99,9,99,9",,"10071,1,99999,9",,,,,,"MET083METAR LPSJ 261400Z 31007KT 9999 SCT030 12/06 Q1007 RMK RWY13 31007KT RWY31 32008KT;",
"08509599999","2010-02-27T14:00:00","4","38.6655","-28.175817","94.79","SAO JORGE, PO","FM-15","LPSJ ","V020","310,1,N,0062,1","00540,1,C,N","011265,1,N,1","+0080,1","+0040,1","99999,9","04,5,+00480,1,99,9","02,5,+00540,1,02,5","07,5,+00900,1,99,9",,"07,99,1,99,9,99,9,99999,9,99,9,99,9",,"10020,1,99999,9",,,,,,"MET103METAR LPSJ 271400Z 31012KT 9999 SCT016 FEW018TCU BKN030 08/04 Q1002 RMK RWY13 33016KT RWY31 33013G23KT;",
"08509599999","2010-02-27T15:00:00","4","38.6655","-28.175817","94.79","SAO JORGE, PO","FM-15","LPSJ ","V020","310,1,N,0062,1","00540,1,C,N","011265,1,N,1","+0090,1","+0040,1","99999,9","04,5,+00480,1,99,9","02,5,+00540,1,02,5","07,5,+00900,1,99,9",,"07,99,1,99,9,99,9,99999,9,99,9,99,9",,"10020,1,99999,9","80,1",,,,,"MET125METAR LPSJ 271500Z 31012KT 9999 -SHRA SCT016 FEW018TCU BKN030 09/04 Q1002 RMK RWY13 33015KT 270V020 RWY31 32012G22KT 280V360;",
"08509599999","2010-02-27T16:00:00","4","38.6655","-28.175817","94.79","SAO JORGE, PO","FM-15","LPSJ ","V020","320,1,N,0072,1","22000,1,9,N","011265,1,N,1","+0100,1","+0050,1","99999,9","04,5,+00750,1,99,9",,,,"04,99,1,99,9,99,9,99999,9,99,9,99,9",,"10031,1,99999,9",,,,,,"MET105METAR LPSJ 271600Z 32014KT 9999 SCT025 10/05 Q1003 RMK RWY13 33015G25KT 300V010 RWY31 33015G25KT 290V350;",
"08509599999","2010-02-27T17:00:00","4","38.6655","-28.175817","94.79","SAO JORGE, PO","FM-15","LPSJ ","V020","310,1,N,0072,1","22000,1,9,N","011265,1,N,1","+0100,1","+0050,1","99999,9","04,5,+00900,1,99,9",,,,"04,99,1,99,9,99,9,99999,9,99,9,99,9",,"10031,1,99999,9",,,,,,"MET105METAR LPSJ 271700Z 31014KT 9999 SCT030 10/05 Q1003 RMK RWY13 33013G23KT 280V360 RWY31 33015G25KT 270V350;",
"08509599999","2010-02-27T18:00:00","4","38.6655","-28.175817","94.79","SAO JORGE, PO","FM-15","LPSJ ","V020","310,1,N,0077,1","22000,1,9,N","011265,1,N,1","+0100,1","+0040,1","99999,9","04,5,+00900,1,99,9",,,,"04,99,1,99,9,99,9,99999,9,99,9,99,9",,"10041,1,99999,9",,,,,,"MET105METAR LPSJ 271800Z 31015KT 9999 SCT030 10/04 Q1004 RMK RWY13 32014G24KT 270V350 RWY31 31017G27KT 280V340;",
"08509599999","2010-02-27T19:00:00","4","38.6655","-28.175817","94.79","SAO JORGE, PO","FM-15","LPSJ ","V020","310,1,N,0082,1","22000,1,9,N","011265,1,N,1","+0100,1","+0040,1","99999,9","04,5,+00750,1,99,9",,,,"04,99,1,99,9,99,9,99999,9,99,9,99,9",,"10051,1,99999,9",,,,,,"MET105METAR LPSJ 271900Z 31016KT 9999 SCT025 10/04 Q1005 RMK RWY13 31016G26KT 260V350 RWY31 31015G25KT 260V340;",
"08509599999","2010-02-28T12:00:00","4","38.6655","-28.175817","94.79","SAO JORGE, PO","FM-15","LPSJ ","V020","330,1,N,0021,1","99999,9,C,N","011265,1,N,1","+0110,1","+0070,1","99999,9","04,5,+00540,1,99,9","04,5,+00900,1,99,9",,,"04,99,1,99,9,99,9,99999,9,99,9,99,9",,"10091,1,99999,9",,,,,,"MET090METAR LPSJ 281200Z 33004KT 9999 SCT018 SCT030 11/07 Q1009 RMK RWY13 33004KT RWY31 32003KT;","P01 009003SCOCIG"
"08509599999","2010-02-28T13:00:00","4","38.6655","-28.175817","94.79","SAO JORGE, PO","FM-15","LPSJ ","V020","310,1,N,0026,1","00600,5,C,N","011265,1,N,1","+0100,1","+0080,1","99999,9","04,5,+00540,1,99,9","02,5,+00600,1,02,5",,,,,"10091,1,99999,9",,,,,,"MET093METAR LPSJ 281300Z 31005KT 9999 SCT018 FEW020TCU 10/08 Q1009 RMK RWY13 32006KT RWY31 32004KT;","Q01+000022SCOTCV"
"08509599999","2010-02-28T14:00:00","4","38.6655","-28.175817","94.79","SAO JORGE, PO","FM-15","LPSJ ","V020","270,1,N,0021,1","00480,1,C,N","011265,1,N,1","+0110,1","+0080,1","99999,9","07,5,+00480,1,99,9","02,5,+00540,1,02,5",,,,,"10091,1,99999,9","80,1",,,,,"MET099METAR LPSJ 281400Z 27004KT 9999 -SHRA BKN016 FEW018TCU 11/08 Q1009 RMK RWY13 29003KT RWY31 28002KT;","Q01+000022SCOTCV"
"08509599999","2010-02-28T15:00:00","4","38.6655","-28.175817","94.79","SAO JORGE, PO","FM-15","LPSJ ","V020","300,1,N,0026,1","00480,1,C,N","011265,1,N,1","+0120,1","+0090,1","99999,9","07,5,+00480,1,99,9","02,5,+00540,1,02,5",,,,,"10081,1,99999,9","80,1",,,,,"MET099METAR LPSJ 281500Z 30005KT 9999 -SHRA BKN016 FEW018TCU 12/09 Q1008 RMK RWY13 30004KT RWY31 29004KT;","Q01+000022SCOTCV"
"08509599999","2010-02-28T16:00:00","4","38.6655","-28.175817","94.79","SAO JORGE, PO","FM-15","LPSJ ","V020","300,1,N,0026,1","06000,1,C,N","011265,1,N,1","+0130,1","+0090,1","99999,9","04,5,+00900,1,99,9","07,5,+06000,1,99,9",,,"07,99,1,99,9,99,9,99999,9,99,9,99,9",,"10081,1,99999,9",,,,,,"MET090METAR LPSJ 281600Z 30005KT 9999 SCT030 BKN200 13/09 Q1008 RMK RWY13 28004KT RWY31 28003KT;",
"08509599999","2010-03-01T09:00:00","4","38.6655","-28.175817","94.79","SAO JORGE, PO","FM-15","LPSJ ","V020","010,1,N,0041,1","00540,5,C,N","011265,1,N,1","+0090,1","+0050,1","99999,9","04,5,+00480,1,99,9","02,5,+00540,1,02,5",,,,,"10051,1,99999,9","80,1",,,"0103,1",,"MET132METAR LPSJ 010900Z 01008G20KT 320V060 9999 -SHRA SCT016 FEW018TCU 09/05 Q1005 RMK RWY13 36016G26KT 310V050 RWY31 36016G26KT 300V050;","Q01+000022SCOTCV"
"08509599999","2010-03-01T10:00:00","4","38.6655","-28.175817","94.79","SAO JORGE, PO","FM-15","LPSJ ","V020","030,1,N,0041,1","00600,5,C,N","011265,1,N,1","+0090,1","+0050,1","99999,9","04,5,+00480,1,99,9","02,5,+00600,1,02,5",,,,,"10071,1,99999,9",,,,,,"MET123METAR LPSJ 011000Z 03008KT 270V060 9999 SCT016 FEW020TCU 09/05 Q1007 RMK RWY13 35011G21KT 310V040 RWY31 35005G16KT 290V060;","Q01+000022SCOTCV"
"08509599999","2010-03-01T11:00:00","4","38.6655","-28.175817","94.79","SAO JORGE, PO","FM-15","LPSJ ","V020","310,1,N,0067,1","22000,1,9,N","011265,1,N,1","+0100,1","+0050,1","99999,9","04,5,+00540,1,99,9",,,,"04,99,1,99,9,99,9,99999,9,99,9,99,9",,"10071,1,99999,9",,,,"0118,1",,"MET092METAR LPSJ 011100Z 31013G23KT 9999 SCT018 10/05 Q1007 RMK RWY13 33013G23KT RWY31 33019G30KT;",
"08509599999","2010-03-01T12:00:00","4","38.6655","-28.175817","94.79","SAO JORGE, PO","FM-15","LPSJ ","V020","330,1,N,0057,1","22000,1,9,N","011265,1,N,1","+0110,1","+0050,1","99999,9","04,5,+00600,1,99,9",,,,"04,99,1,99,9,99,9,99999,9,99,9,99,9",,"10071,1,99999,9",,,,"0108,1",,"MET116METAR LPSJ 011200Z 33011G21KT 270V010 9999 SCT020 11/05 Q1007 RMK RWY13 36013G23KT 290V030 RWY31 33016G27KT 280V030;",
"08509599999","2010-03-01T13:00:00","4","38.6655","-28.175817","94.79","SAO JORGE, PO","FM-15","LPSJ ","V020","310,1,N,0062,1","22000,1,9,N","011265,1,N,1","+0120,1","+0050,1","99999,9","04,5,+00600,1,99,9",,,,"04,99,1,99,9,99,9,99999,9,99,9,99,9",,"10081,1,99999,9",,,,"0113,1",,"MET116METAR LPSJ 011300Z 31012G22KT 270V360 9999 SCT020 12/05 Q1008 RMK RWY13 33014G25KT 290V030 RWY31 32021G33KT 280V360;",
"08509599999","2010-03-01T14:00:00","4","38.6655","-28.175817","94.79","SAO JORGE, PO","FM-15","LPSJ ","V020","330,1,N,0067,1","22000,1,9,N","011265,1,N,1","+0120,1","+0040,1","99999,9","04,5,+00600,1,99,9",,,,"04,99,1,99,9,99,9,99999,9,99,9,99,9",,"10081,1,99999,9",,,,"0118,1",,"MET116METAR LPSJ 011400Z 33013G23KT 270V350 9999 SCT020 12/04 Q1008 RMK RWY13 34019G30KT 280V030 RWY31 33020G33KT 280V020;",
"08509599999","2010-03-02T09:00:00","4","38.6655","-28.175817","94.79","SAO JORGE, PO","FM-15","LPSJ ","V020","310,1,N,0082,1","22000,1,9,N","011265,1,N,1","+0100,1","+0020,1","99999,9","04,5,+00900,1,99,9",,,,"04,99,1,99,9,99,9,99999,9,99,9,99,9",,"10139,1,99999,9",,,,,,"MET102METAR LPSJ 020900Z 31016KT 9999 SCT030 10/02 Q1014 RMK RWY13 33015KT 270V350 RWY31 32016G26KT 280V350;",
"08509599999","2010-03-02T10:00:00","4","38.6655","-28.175817","94.79","SAO JORGE, PO","FM-15","LPSJ ","V020","300,1,N,0093,1","22000,1,9,N","011265,1,N,1","+0100,1","+0030,1","99999,9","04,5,+00900,1,99,9",,,,"04,99,1,99,9,99,9,99999,9,99,9,99,9",,"10139,1,99999,9",,,,,,"MET105METAR LPSJ 021000Z 30018KT 9999 SCT030 10/03 Q1014 RMK RWY13 32010G22KT 270V010 RWY31 32018G33KT 270V350;",
"08509599999","2010-03-02T14:00:00","4","38.6655","-28.175817","94.79","SAO JORGE, PO","FM-15","LPSJ ","V020","290,1,N,0062,1","22000,1,9,N","011265,1,N,1","+0130,1","+0070,1","99999,9","04,5,+00900,1,99,9",,,,"04,99,1,99,9,99,9,99999,9,99,9,99,9",,"10149,1,99999,9",,,,,,"MET102METAR LPSJ 021400Z 29012KT 9999 SCT030 13/07 Q1015 RMK RWY13 35010KT 310V040 RWY31 31008G20KT 240V340;",
"08509599999","2010-03-02T15:00:00","4","38.6655","-28.175817","94.79","SAO JORGE, PO","FM-15","LPSJ ","V020","300,1,N,0057,1","22000,1,9,N","011265,1,N,1","+0130,1","+0050,1","99999,9","04,5,+00900,1,99,9",,,,"04,99,1,99,9,99,9,99999,9,99,9,99,9",,"10139,1,99999,9",,,,,,"MET102METAR LPSJ 021500Z 30011KT 9999 SCT030 13/05 Q1014 RMK RWY13 33012KT 300V050 RWY31 31012G22KT 240V350;",
"08509599999","2010-03-03T10:00:00","4","38.6655","-28.175817","94.79","SAO JORGE, PO","FM-15","LPSJ ","V020","110,1,N,0067,1","01200,1,C,N","011265,1,N,1","+0110,1","+0040,1","99999,9","02,5,+00900,1,99,9","04,5,+01200,1,99,9","07,5,+02100,1,99,9",,"07,99,1,99,9,99,9,99999,9,99,9,99,9","999,M,+9999,9","10081,1,99999,9",,,,,,"MET097METAR LPSJ 031000Z 11013KT 9999 FEW030 SCT040 BKN070 11/04 Q1008 RMK RWY13 12016KT RWY31 11018KT;","Q01 -00182ATMX  "
"08509599999","2010-03-03T11:00:00","4","38.6655","-28.175817","94.79","SAO JORGE, PO","FM-15","LPSJ ","V020","110,1,N,0067,1","01200,1,C,N","009000,1,N,1","+0110,1","+0050,1","99999,9","04,5,+00900,1,99,9","04,5,+01200,1,99,9","07,5,+02100,1,99,9",,"07,99,1,99,9,99,9,99999,9,99,9,99,9","999,M,+9999,9","10081,1,99999,9","80,1",,,,,"MET103METAR LPSJ 031100Z 11013KT 9000 -SHRA SCT030 SCT040 BKN070 11/05 Q1008 RMK RWY13 12017KT RWY31 11016KT;","Q01 -00162ATMX  "
"08509599999","2010-03-03T12:00:00","4","38.6655","-28.175817","94.79","SAO JORGE, PO","FM-15","LPSJ ","V020","100,1,N,0046,1","01050,1,C,N","009000,1,N,1","+0110,1","+0070,1","99999,9","04,5,+00750,1,99,9","04,5,+01050,1,99,9","07,5,+02100,1,99,9",,"07,99,1,99,9,99,9,99999,9,99,9,99,9","999,M,+9999,9","10081,1,99999,9","16,1",,,,,"MET102METAR LPSJ 031200Z 10009KT 9000 VCSH SCT025 SCT035 BKN070 11/07 Q1008 RMK RWY13 11010KT RWY31 11013KT;","Q01 -00132ATMX  "
"08509599999","2010-03-03T13:00:00","4","38.6655","-28.175817","94.79","SAO JORGE, PO","FM-15","LPSJ ","V020","110,1,N,0036,1","00900,1,C,N","007000,1,N,1","+0100,1","+0080,1","99999,9","04,5,+00540,1,99,9","04,5,+00900,1,99,9","07,5,+02100,1,99,9",,"07,99,1,99,9,99,9,99999,9,99,9,99,9",,"10071,1,99999,9","61,1",,,,,"MET106METAR LPSJ 031300Z 11007KT 7000 -RA SCT018 SCT030 BKN070 10/08 Q1007 RERA RMK RWY13 12008KT RWY31 12008KT;",
"08509599999","2010-03-03T14:00:00","4","38.6655","-28.175817","94.79","SAO JORGE, PO","FM-15","LPSJ ","V020","120,1,N,0057,1","00750,1,C,N","008000,1,N,1","+0110,1","+0100,1","99999,9","04,5,+00390,1,99,9","04,5,+00750,1,99,9","07,5,+02100,1,99,9",,"07,99,1,99,9,99,9,99999,9,99,9,99,9",,"10051,1,99999,9","61,1",,,,,"MET101METAR LPSJ 031400Z 12011KT 8000 -RA SCT013 SCT025 BKN070 11/10 Q1005 RMK RWY13 13009KT RWY31 12012KT;",
"08509599999","2010-03-03T15:00:00","4","38.6655","-28.175817","94.79","SAO JORGE, PO","FM-15","LPSJ ","V020","130,1,N,0067,1","00900,1,C,N","009000,1,N,1","+0120,1","+0090,1","99999,9","04,5,+00480,1,99,9","04,5,+00900,1,99,9","07,5,+02100,1,99,9",,"07,99,1,99,9,99,9,99999,9,99,9,99,9",,"10031,1,99999,9","16,1",,,,,"MET102METAR LPSJ 031500Z 13013KT 9000 VCSH SCT016 SCT030 BKN070 12/09 Q1003 RMK RWY13 13015KT RWY31 13014KT;",
"08509599999","2010-03-04T08:00:00","4","38.6655","-28.175817","94.79","SAO JORGE, PO","FM-15","LPSJ ","V020","290,1,N,0041,1","99999,9,C,N","011265,1,N,1","+0130,1","+0100,1","99999,9","04,5,+00450,1,99,9","04,5,+00750,1,99,9",,,"04,99,1,99,9,99,9,99999,9,99,9,99,9",,"09970,1,99999,9",,,,,,"MET090METAR LPSJ 040800Z 29008KT 9999 SCT015 SCT025 13/10 Q0997 RMK RWY13 30005KT RWY31 28008KT;","P01 007503SCOCIG"
"08509599999","2010-03-04T09:00:00","4","38.6655","-28.175817","94.79","SAO JORGE, PO","FM-15","LPSJ ","V020","270,1,N,0041,1","22000,1,9,N","011265,1,N,1","+0130,1","+0100,1","99999,9","04,5,+00480,1,99,9",,,,"04,99,1,99,9,99,9,99999,9,99,9,99,9",,"09970,1,99999,9",,,,,,"MET083METAR LPSJ 040900Z 27008KT 9999 SCT016 13/10 Q0997 RMK RWY13 28005KT RWY31 27009KT;",
"08509599999","2010-03-04T10:00:00","4","38.6655","-28.175817","94.79","SAO JORGE, PO","FM-15","LPSJ ","V020","270,1,N,0041,1","22000,1,9,N","011265,1,N,1","+0130,1","+0100,1","99999,9","04,5,+00480,1,99,9",,,,"04,99,1,99,9,99,9,99999,9,99,9,99,9",,"09980,1,99999,9",,,,,,"MET083METAR LPSJ 041000Z 27008KT 9999 SCT016 13/10 Q0998 RMK RWY13 27005KT RWY31 26008KT;",
"08509599999","2010-03-04T14:00:00","4","38.6655","-28.175817","94.79","SAO JORGE, PO","FM-15","LPSJ ","V020","280,1,N,0046,1","99999,9,C,N","011265,1,N,1","+0150,1","+0120,1","99999,9","04,5,+00390,1,99,9","04,5,+00750,1,99,9",,,"04,99,1,99,9,99,9,99999,9,99,9,99,9",,"09980,1,99999,9",,,,,,"MET090METAR LPSJ 041400Z 28009KT 9999 SCT013 SCT025 15/12 Q0998 RMK RWY13 29007KT RWY31 28008KT;","P01 007503SCOCIG"
"08509599999","2010-03-04T15:00:00","4","38.6655","-28.175817","94.79","SAO JORGE, PO","FM-15","LPSJ ","V020","270,1,N,0041,1","22000,1,9,N","011265,1,N,1","+0150,1","+0120,1","99999,9","04,5,+00450,1,99,9",,,,"04,99,1,99,9,99,9,99999,9,99,9,99,9",,"09980,1,99999,9",,,,,,"MET083METAR LPSJ 041500Z 27008KT 9999 SCT015 15/12 Q0998 RMK RWY13 29010KT RWY31 27011KT;",
"08509599999","2010-03-04T16:00:00","4","38.6655","-28.175817","94.79","SAO JORGE, PO","FM-15","LPSJ ","V020","270,1,N,0046,1","99999,9,C,N","011265,1,N,1","+0160,1","+0130,1","99999,9","04,5,+00390,1,99,9","04,5,+00600,1,99,9",,,"04,99,1,99,9,99,9,99999,9,99,9,99,9",,"09980,1,99999,9",,,,,,"MET090METAR LPSJ 041600Z 27009KT 9999 SCT013 SCT020 16/13 Q0998 RMK RWY13 29008KT RWY31 26012KT;","P01 006003SCOCIG"
"08509599999","2010-03-05T09:00:00","4","38.6655","-28.175817","94.79","SAO JORGE, PO","FM-15","LPSJ ","V020","310,1,N,0051,1","99999,9,C,N","009000,1,N,1","+0130,1","+0110,1","99999,9","04,5,+00390,1,99,9","04,5,+00750,1,99,9",,,"04,99,1,99,9,99,9,99999,9,99,9,99,9",,"10031,1,99999,9","80,1",,,,,"MET096METAR LPSJ 050900Z 31010KT 9000 -SHRA SCT013 SCT025 13/11 Q1003 RMK RWY13 32013KT RWY31 32017KT;","P01 007503SCOCIG"
"08509599999","2010-03-05T10:00:00","4","38.6655","-28.175817","94.79","SAO JORGE, PO","FM-15","LPSJ ","V020","310,1,N,0057,1","00390,1,C,N","009000,1,N,1","+0130,1","+0110,1","99999,9","07,5,+00390,1,99,9","04,5,+00600,1,99,9",,,,,"10031,1,99999,9","80,1",,,,,"MET096METAR LPSJ 051000Z 31011KT 9000 -SHRA BKN013 SCT020 13/11 Q1003 RMK RWY13 31012KT RWY31 31010KT;","Q01+000042SCOTCV"
"08509599999","2010-03-05T11:00:00","4","38.6655","-28.175817","94.79","SAO JORGE, PO","FM-15","LPSJ ","V020","300,1,N,0062,1","99999,9,C,N","011265,1,N,1","+0140,1","+0120,1","99999,9","04,5,+00360,1,99,9","04,5,+00600,1,99,9",,,"04,99,1,99,9,99,9,99999,9,99,9,99,9",,"10041,1,99999,9",,,,,,"MET090METAR LPSJ 051100Z 30012KT 9999 SCT012 SCT020 14/12 Q1004 RMK RWY13 31012KT RWY31 30014KT;","P01 006003SCOCIG"
"08509599999","2010-03-05T12:00:00","4","38.6655","-28.175817","94.79","SAO JORGE, PO","FM-15","LPSJ ","V020","300,1,N,0062,1","22000,1,9,N","011265,1,N,1","+0140,1","+0120,1","99999,9","04,5,+00390,1,99,9",,,,"04,99,1,99,9,99,9,99999,9,99,9,99,9",,"10041,1,99999,9",,,,,,"MET083METAR LPSJ 051200Z 30012KT 9999 SCT013 14/12 Q1004 RMK RWY13 31013KT RWY31 30015KT;",
"08509599999","2010-03-05T13:00:00","4","38.6655","-28.175817","94.79","SAO JORGE, PO","FM-15","LPSJ ","V020","300,1,N,0062,1","99999,9,C,N","011265,1,N,1","+0150,1","+0120,1","99999,9","04,5,+00390,1,99,9","04,5,+00600,1,99,9",,,"04,99,1,99,9,99,9,99999,9,99,9,99,9",,"10041,1,99999,9",,,,,,"MET090METAR LPSJ 051300Z 30012KT 9999 SCT013 SCT020 15/12 Q1004 RMK RWY13 31011KT RWY31 30013KT;","P01 006003SCOCIG"
"08509599999","2010-03-06T12:00:00","4","38.6655","-28.175817","94.79","SAO JORGE, PO","FM-15","LPSJ ","V020","150,1,N,0026,1","00540,1,C,N","011265,1,N,1","+0150,1","+0140,1","99999,9","02,5,+00210,1,99,9","04,5,+00540,1,99,9","07,5,+02700,1,99,9",,"07,99,1,99,9,99,9,99999,9,99,9,99,9",,"10071,1,99999,9",,,,,,"MET097METAR LPSJ 061200Z 15005KT 9999 FEW007 SCT018 BKN090 15/14 Q1007 RMK RWY13 16005KT RWY31 15004KT;",
"08509599999","2010-03-06T13:00:00","4","38.6655","-28.175817","94.79","SAO JORGE, PO","FM-15","LPSJ ","V020","999,9,V,0021,1","00540,1,C,N","011265,1,N,1","+0150,1","+0140,1","99999,9","02,5,+00120,1,99,9","04,5,+00540,1,99,9","07,5,+02700,1,99,9",,"07,99,1,99,9,99,9,99999,9,99,9,99,9",,"10071,1,99999,9",,,,,,"MET097METAR LPSJ 061300Z VRB04KT 9999 FEW004 SCT018 BKN090 15/14 Q1007 RMK RWY13 VRB05KT RWY31 VRB04KT;",
"08509599999","2010-03-06T14:00:00","4","38.6655","-28.175817","94.79","SAO JORGE, PO","FM-15","LPSJ ","V020","999,9,V,0021,1","02700,1,C,N","011265,1,N,1","+0170,1","+0130,1","99999,9","04,5,+00750,1,99,9","04,5,+02700,1,99,9","08,5,+06000,1,99,9",,"08,99,1,99,9,99,9,99999,9,99,9,99,9",,"10071,1,99999,9",,,,,,"MET097METAR LPSJ 061400Z VRB04KT 9999 SCT025 SCT090 OVC200 17/13 Q1007 RMK RWY13 VRB03KT RWY31 VRB03KT;",
"08509599999","2010-03-06T16:00:00","4","38.6655","-28.175817","94.79","SAO JORGE, PO","FM-15","LPSJ ","V020","280,1,N,0041,1","00750,1,C,N","011265,1,N,1","+0160,1","+0130,1","99999,9","04,5,+00420,1,99,9","07,5,+00750,1,99,9",,,"07,99,1,99,9,99,9,99999,9,99,9,99,9",,"10061,1,99999,9",,,,,,"MET090METAR LPSJ 061600Z 28008KT 9999 SCT014 BKN025 16/13 Q1006 RMK RWY13 30006KT RWY31 27008KT;",
"08509599999","2010-03-07T12:00:00","4","38.6655","-28.175817","94.79","SAO JORGE, PO","FM-15","LPSJ ","V020","250,1,N,0031,1","00540,1,C,N","011265,1,N,1","+0160,1","+0150,1","99999,9","02,5,+00240,1,99,9","04,5,+00540,1,99,9","08,5,+06000,1,99,9",,"08,99,1,99,9,99,9,99999,9,99,9,99,9",,"10081,1,99999,9",,,,,,"MET097METAR LPSJ 071200Z 25006KT 9999 FEW008 SCT018 OVC200 16/15 Q1008 RMK RWY13 25005KT RWY31 24007KT;",
"08509599999","2010-03-07T14:00:00","4","38.6655","-28.175817","94.79","SAO JORGE, PO","FM-15","LPSJ ","V020","260,1,N,0062,1","00390,1,C,N","009000,1,N,1","+0160,1","+0150,1","99999,9","02,5,+00240,1,99,9","07,5,+00390,1,99,9","07,5,+00750,1,99,9",,"07,99,1,99,9,99,9,99999,9,99,9,99,9",,"10081,1,99999,9",,,,,,"MET113METAR LPSJ 071400Z 26012KT 9000 FEW008 BKN013 BKN025 16/15 Q1008 RMK RWY13 26008KT 210V320 RWY31 25013KT 210V310;",
"08509599999","2010-03-07T15:00:00","4","38.6655","-28.175817","94.79","SAO JORGE, PO","FM-15","LPSJ ","V020","260,1,N,0072,1","00600,1,C,N","011265,1,N,1","+0160,1","+0150,1","99999,9","04,5,+00360,1,99,9","04,5,+00600,1,99,9","07,5,+02100,1,99,9",,"07,99,1,99,9,99,9,99999,9,99,9,99,9",,"10071,1,99999,9",,,,,,"MET116METAR LPSJ 071500Z 26014KT 9999 SCT012 SCT020 BKN070 16/15 Q1007 RMK RWY13 25014KT 200V320 RWY31 25016G26KT 180V310;",
"08509599999","2010-03-07T16:00:00","4","38.6655","-28.175817","94.79","SAO JORGE, PO","FM-15","LPSJ ","V020","260,1,N,0062,1","00600,1,C,N","011265,1,N,1","+0160,1","+0150,1","99999,9","04,5,+00390,1,99,9","04,5,+00600,1,99,9","07,5,+02100,1,99,9",,"07,99,1,99,9,99,9,99999,9,99,9,99,9",,"10061,1,99999,9",,,,,,"MET116METAR LPSJ 071600Z 26012KT 9999 SCT013 SCT020 BKN070 16/15 Q1006 RMK RWY13 26013KT 210V310 RWY31 25012G22KT 180V300;",
"08509599999","2010-03-08T10:00:00","4","38.6655","-28.175817","94.79","SAO JORGE, PO","FM-15","LPSJ ","V020","280,1,N,0036,1","00480,1,C,N","011265,1,N,1","+0150,1","+0130,1","99999,9","02,5,+00270,1,99,9","04,5,+00480,1,99,9","07,5,+01200,1,99,9",,"07,99,1,99,9,99,9,99999,9,99,9,99,9",,"10108,1,99999,9",,,,,,"MET097METAR LPSJ 081000Z 28007KT 9999 FEW009 SCT016 BKN040 15/13 Q1011 RMK RWY13 28006KT RWY31 28007KT;",
"08509599999","2010-03-08T11:00:00","4","38.6655","-28.175817","94.79","SAO JORGE, PO","FM-15","LPSJ ","V020","280,1,N,0041,1","01200,1,C,N","011265,1,N,1","+0150,1","+0130,1","99999,9","04,5,+00420,1,99,9","04,5,+01200,1,99,9","07,5,+02100,1,99,9",,"07,99,1,99,9,99,9,99999,9,99,9,99,9",,"10108,1,99999,9",,,,,,"MET097METAR LPSJ 081100Z 28008KT 9999 SCT014 SCT040 BKN070 15/13 Q1011 RMK RWY13 29006KT RWY31 27010KT;",
"08509599999","2010-03-08T12:00:00","4","38.6655","-28.175817","94.79","SAO JORGE, PO","FM-15","LPSJ ","V020","280,1,N,0041,1","99999,9,C,N","011265,1,N,1","+0160,1","+0140,1","99999,9","02,5,+00270,1,99,9","04,5,+00600,1,99,9",,,"04,99,1,99,9,99,9,99999,9,99,9,99,9",,"10119,1,99999,9",,,,,,"MET090METAR LPSJ 081200Z 28008KT 9999 FEW009 SCT020 16/14 Q1012 RMK RWY13 28006KT RWY31 26010KT;","P01 006003SCOCIG"
"08509599999","2010-03-08T13:00:00","4","38.6655","-28.175817","94.79","SAO JORGE, PO","FM-15","LPSJ ","V020","270,1,N,0046,1","99999,9,C,N","011265,1,N,1","+0170,1","+0140,1","99999,9","04,5,+00390,1,99,9","04,5,+02100,1,99,9",,,"04,99,1,99,9,99,9,99999,9,99,9,99,9",,"10119,1,99999,9",,,,,,"MET090METAR LPSJ 081300Z 27009KT 9999 SCT013 SCT070 17/14 Q1012 RMK RWY13 28007KT RWY31 26009KT;","P01 021003SCOCIG"
"08509599999","2010-03-08T14:00:00","4","38.6655","-28.175817","94.79","SAO JORGE, PO","FM-15","LPSJ ","V020","270,1,N,0051,1","22000,1,9,N","011265,1,N,1","+0180,1","+0140,1","99999,9","04,5,+00450,1,99,9",,,,"04,99,1,99,9,99,9,99999,9,99,9,99,9",,"10119,1,99999,9",,,,,,"MET083METAR LPSJ 081400Z 27010KT 9999 SCT015 18/14 Q1012 RMK RWY13 28006KT RWY31 26009KT;",
"08509599999","2010-03-09T08:00:00","4","38.6655","-28.175817","94.79","SAO JORGE, PO","FM-15","LPSJ ","V020","300,1,N,0026,1","99999,9,C,N","011265,1,N,1","+0140,1","+0130,1","99999,9","04,5,+00480,1,99,9","04,5,+01200,1,99,9",,,"04,99,1,99,9,99,9,99999,9,99,9,99,9",,"10159,1,99999,9",,,,,,"MET090METAR LPSJ 090800Z 30005KT 9999 SCT016 SCT040 14/13 Q1016 RMK RWY13 31004KT RWY31 30003KT;","P01 012003SCOCIG"
"08509599999","2010-03-09T09:00:00","4","38.6655","-28.175817","94.79","SAO JORGE, PO","FM-15","LPSJ ","V020","340,1,N,0021,1","01500,1,C,N","011265,1,N,1","+0150,1","+0120,1","99999,9","02,5,+00900,1,99,9","04,5,+01500,1,99,9","07,5,+02700,1,99,9",,"07,99,1,99,9,99,9,99999,9,99,9,99,9",,"10159,1,99999,9",,,,,,"MET097METAR LPSJ 090900Z 34004KT 9999 FEW030 SCT050 BKN090 15/12 Q1016 RMK RWY13 34006KT RWY31 33005KT;",
"08509599999","2010-03-09T14:00:00","4","38.6655","-28.175817","94.79","SAO JORGE, PO","FM-15","LPSJ ","V020","999,9,C,0000,1","00900,1,C,N","008000,1,N,1","+0150,1","+0140,1","99999,9","04,5,+00360,1,99,9","07,5,+00900,1,99,9","08,5,+02400,1,99,9",,"08,99,1,99,9,99,9,99999,9,99,9,99,9",,"10149,1,99999,9","61,1",,,,,"MET106METAR LPSJ 091400Z 00000KT 8000 -RA SCT012 BKN030 OVC080 15/14 Q1015 RERA RMK RWY13 00000KT RWY31 00000KT;",
"08509599999","2010-03-09T15:00:00","4","38.6655","-28.175817","94.79","SAO JORGE, PO","FM-15","LPSJ ","V020","010,1,N,0067,1","00900,1,C,N","007000,1,N,1","+0130,1","+0120,1","99999,9","04,5,+00420,1,99,9","07,5,+00900,1,99,9","08,5,+02100,1,99,9",,"08,99,1,99,9,99,9,99999,9,99,9,99,9",,"10149,1,99999,9","63,1",,,,,"MET127METAR LPSJ 091500Z 01013KT 320V030 7000 RA SCT014 BKN030 OVC070 13/12 Q1015 RMK RWY13 02017KT 340V060 RWY31 01014G24KT 330V040;",
"08509599999","2010-03-09T16:00:00","4","38.6655","-28.175817","94.79","SAO JORGE, PO","FM-15","LPSJ ","V020","020,1,N,0077,1","00900,1,C,N","009000,1,N,1","+0130,1","+0100,1","99999,9","04,5,+00450,1,99,9","04,5,+00900,1,99,9","08,5,+02100,1,99,9",,"08,99,1,99,9,99,9,99999,9,99,9,99,9",,"10139,1,99999,9","16,1",,,,,"MET137METAR LPSJ 091600Z 02015KT 340V060 9000 VCSH SCT015 SCT030 OVC070 13/10 Q1014 RERA RMK RWY13 02012G22KT 330V070 RWY31 02016G26KT 340V060;",
"08509599999","2010-03-09T17:00:00","4","38.6655","-28.175817","94.79","SAO JORGE, PO","FM-15","LPSJ ","V020","020,1,N,0082,1","00900,1,C,N","009000,1,N,1","+0130,1","+0100,1","99999,9","04,5,+00450,1,99,9","04,5,+00900,1,99,9","07,5,+02100,1,99,9",,"07,99,1,99,9,99,9,99999,9,99,9,99,9",,"10139,1,99999,9","51,1",,,,,"MET131METAR LPSJ 091700Z 02016KT 340V050 9000 -DZ SCT015 SCT030 BKN070 13/10 Q1014 RMK RWY13 02013G23KT 340V070 RWY31 02016G27KT 350V060;",
"08509599999","2010-03-10T09:00:00","4","38.6655","-28.175817","94.79","SAO JORGE, PO","FM-15","LPSJ ","V020","320,1,N,0026,1","00600,5,C,N","011265,1,N,1","+0130,1","+0110,1","99999,9","04,5,+00480,1,99,9","02,5,+00600,1,02,5",,,,,"10159,1,99999,9",,,,,,"MET093METAR LPSJ 100900Z 32005KT 9999 SCT016 FEW020TCU 13/11 Q1016 RMK RWY13 33006KT RWY31 32008KT;","Q01+000022SCOTCV"
"08509599999","2010-03-10T10:00:00","4","38.6655","-28.175817","94.79","SAO JORGE, PO","FM-15","LPSJ ","V020","320,1,N,0031,1","22000,1,9,N","011265,1,N,1","+0130,1","+0110,1","99999,9","04,5,+00480,1,99,9",,,,"04,99,1,99,9,99,9,99999,9,99,9,99,9",,"10169,1,99999,9",,,,,,"MET083METAR LPSJ 101000Z 32006KT 9999 SCT016 13/11 Q1017 RMK RWY13 33005KT RWY31 32005KT;",
"08509599999","2010-03-10T11:00:00","4","38.6655","-28.175817","94.79","SAO JORGE, PO","FM-15","LPSJ ","V020","300,1,N,0041,1","22000,1,9,N","011265,1,N,1","+0150,1","+0110,1","99999,9","04,5,+00480,1,99,9",,,,"04,99,1,99,9,99,9,99999,9,99,9,99,9",,"10180,1,99999,9",,,,,,"MET083METAR LPSJ 101100Z 30008KT 9999 SCT016 15/11 Q1018 RMK RWY13 31006KT RWY31 30007KT;",
"08509599999","2010-03-10T12:00:00","4","38.6655","-28.175817","94.79","SAO JORGE, PO","FM-15","LPSJ ","V020","290,1,N,0046,1","22000,1,9,N","011265,1,N,1","+0150,1","+0120,1","99999,9","02,5,+00600,1,99,9",,,,"02,99,1,99,9,99,9,99999,9,99,9,99,9",,"10180,1,99999,9",,,,,,"MET083METAR LPSJ 101200Z 29009KT 9999 FEW020 15/12 Q1018 RMK RWY13 31007KT RWY31 28007KT;",
"08509599999","2010-03-10T13:00:00","4","38.6655","-28.175817","94.79","SAO JORGE, PO","FM-15","LPSJ ","V020","300,1,N,0041,1","22000,1,9,N","011265,1,N,1","+0150,1","+0120,1","99999,9","04,5,+00540,1,99,9",,,,"04,99,1,99,9,99,9,99999,9,99,9,99,9",,"10180,1,99999,9",,,,,,"MET083METAR LPSJ 101300Z 30008KT 9999 SCT018 15/12 Q1018 RMK RWY13 32010KT RWY31 31011KT;",
"08509599999","2010-03-10T14:00:00","4","38.6655","-28.175817","94.79","SAO JORGE, PO","FM-15","LPSJ ","V020","320,1,N,0046,1","22000,1,9,N","011265,1,N,1","+0160,1","+0120,1","99999,9","04,5,+00540,1,99,9",,,,"04,99,1,99,9,99,9,99999,9,99,9,99,9",,"10180,1,99999,9",,,,,,"MET083METAR LPSJ 101400Z 32009KT 9999 SCT018 16/12 Q1018 RMK RWY13 33012KT RWY31 33012KT;",
"08509599999","2010-03-11T08:00:00","4","38.6655","-28.175817","94.79","SAO JORGE, PO","FM-15","LPSJ ","V020","010,1,N,0036,1","99999,9,C,N","011265,1,N,1","+0120,1","+0080,1","99999,9","02,5,+00480,1,99,9","04,5,+06000,1,99,9",,,"04,99,1,99,9,99,9,99999,9,99,9,99,9",,"10210,1,99999,9",,,,,,"MET090METAR LPSJ 110800Z 01007KT 9999 FEW016 SCT200 12/08 Q1021 RMK RWY13 02007KT RWY31 02008KT;","P01 060003SCOCIG"
"08509599999","2010-03-11T09:00:00","4","38.6655","-28.175817","94.79","SAO JORGE, PO","FM-15","LPSJ ","V020","330,1,N,0026,1","99999,9,C,N","011265,1,N,1","+0120,1","+0080,1","99999,9","02,5,+00480,1,99,9","04,5,+02100,1,99,9",,,"04,99,1,99,9,99,9,99999,9,99,9,99,9",,"10200,1,99999,9",,,,,,"MET090METAR LPSJ 110900Z 33005KT 9999 FEW016 SCT070 12/08 Q1020 RMK RWY13 34004KT RWY31 01003KT;","P01 021003SCOCIG"
"08509599999","2010-03-11T14:00:00","4","38.6655","-28.175817","94.79","SAO JORGE, PO","FM-15","LPSJ ","V020","999,9,V,0021,1","01500,1,C,N","011265,1,N,1","+0150,1","+0100,1","99999,9","02,5,+00540,1,99,9","04,5,+01500,1,99,9","07,5,+06000,1,99,9",,"07,99,1,99,9,99,9,99999,9,99,9,99,9",,"10200,1,99999,9",,,,,,"MET097METAR LPSJ 111400Z VRB04KT 9999 FEW018 SCT050 BKN200 15/10 Q1020 RMK RWY13 VRB04KT RWY31 VRB04KT;",
"08509599999","2010-03-11T15:00:00","4","38.6655","-28.175817","94.79","SAO JORGE, PO","FM-15","LPSJ ","V020","999,9,V,0021,1","01500,1,C,N","011265,1,N,1","+0150,1","+0100,1","99999,9","02,5,+00540,1,99,9","04,5,+01500,1,99,9","07,5,+06000,1,99,9",,"07,99,1,99,9,99,9,99999,9,99,9,99,9",,"10200,1,99999,9",,,,,,"MET097METAR LPSJ 111500Z VRB04KT 9999 FEW018 SCT050 BKN200 15/10 Q1020 RMK RWY13 VRB04KT RWY31 VRB04KT;",
"08509599999","2010-03-11T16:00:00","4","38.6655","-28.175817","94.79","SAO JORGE, PO","FM-15","LPSJ ","V020","140,1,N,0051,1","01500,1,C,N","011265,1,N,1","+0150,1","+0110,1","99999,9","02,5,+00480,1,99,9","04,5,+01500,1,99,9","07,5,+06000,1,99,9",,"07,99,1,99,9,99,9,99999,9,99,9,99,9",,"10200,1,99999,9",,,,,,"MET097METAR LPSJ 111600Z 14010KT 9999 FEW016 SCT050 BKN200 15/11 Q1020 RMK RWY13 15007KT RWY31 14006KT;",
"08509599999","2010-03-12T09:00:00","4","38.6655","-28.175817","94.79","SAO JORGE, PO","FM-15","LPSJ ","V020","110,1,N,0062,1","99999,9,C,N","011265,1,N,1","+0130,1","+0110,1","99999,9","04,5,+00480,1,99,9","04,5,+02100,1,99,9",,,"04,99,1,99,9,99,9,99999,9,99,9,99,9","999,M,+9999,9","10200,1,99999,9",,,,,,"MET090METAR LPSJ 120900Z 11012KT 9999 SCT016 SCT070 13/11 Q1020 RMK RWY13 12013KT RWY31 11015KT;","Q01 -00152ATMX  P01 021003SCOCIG"
"08509599999","2010-03-12T10:00:00","4","38.6655","-28.175817","94.79","SAO JORGE, PO","FM-15","LPSJ ","V020","110,1,N,0067,1","99999,9,C,N","011265,1,N,1","+0140,1","+0110,1","99999,9","02,5,+00450,1,99,9","04,5,+02100,1,99,9",,,"04,99,1,99,9,99,9,99999,9,99,9,99,9","999,M,+9999,9","10210,1,99999,9",,,,,,"MET090METAR LPSJ 121000Z 11013KT 9999 FEW015 SCT070 14/11 Q1021 RMK RWY13 12013KT RWY31 11014KT;","Q01 -00142ATMX  P01 021003SCOCIG"
"08509599999","2010-03-12T11:00:00","4","38.6655","-28.175817","94.79","SAO JORGE, PO","FM-15","LPSJ ","V020","120,1,N,0072,1","99999,9,C,N","011265,1,N,1","+0150,1","+0120,1","99999,9","02,5,+00360,1,99,9","04,5,+00450,1,99,9",,,"04,99,1,99,9,99,9,99999,9,99,9,99,9","999,M,+9999,9","10220,1,99999,9",,,,,,"MET090METAR LPSJ 121100Z 12014KT 9999 FEW012 SCT015 15/12 Q1022 RMK RWY13 12013KT RWY31 11014KT;","Q01 -00142ATMX  P01 004503SCOCIG"
"08509599999","2010-03-12T12:00:00","4","38.6655","-28.175817","94.79","SAO JORGE, PO","FM-15","LPSJ ","V020","130,1,N,0072,1","99999,9,C,N","011265,1,N,1","+0150,1","+0120,1","99999,9","04,5,+00450,1,99,9","04,5,+00750,1,99,9",,,"04,99,1,99,9,99,9,99999,9,99,9,99,9",,"10210,1,99999,9",,,,,,"MET090METAR LPSJ 121200Z 13014KT 9999 SCT015 SCT025 15/12 Q1021 RMK RWY13 13015KT RWY31 13016KT;","P01 007503SCOCIG"
"08509599999","2010-03-13T10:00:00","4","38.6655","-28.175817","94.79","SAO JORGE, PO","FM-15","LPSJ ","V020","110,1,N,0093,1","00210,1,C,N","005000,1,N,1","+0150,1","+0140,1","99999,9","07,5,+00210,1,99,9","07,5,+00390,1,99,9",,,"07,99,1,99,9,99,9,99999,9,99,9,99,9","999,M,+9999,9","10159,1,99999,9","10,1","51,1","61,1",,,"MET121METAR LPSJ 131000Z 11018KT 5000 -RADZ BR BKN007 BKN013 15/14 Q1016 RMK RWY13 12017G30KT 080V170 RWY31 11021G33KT 070V150;","Q01 -00212ATMX  "
"08509599999","2010-03-13T11:00:00","4","38.6655","-28.175817","94.79","SAO JORGE, PO","FM-15","LPSJ ","V020","110,1,N,0098,1","00180,1,C,N","003000,1,N,1","+0150,1","+0150,1","99999,9","07,5,+00180,1,99,9","07,5,+00360,1,99,9",,,"07,99,1,99,9,99,9,99999,9,99,9,99,9",,"10159,1,99999,9","10,1","61,1",,,,"MET124METAR LPSJ 131100Z 11019KT 3000 -RA BR BKN006 BKN012 15/15 Q1016 RERA RMK RWY13 12017G27KT 080V170 RWY31 12019G31KT 070V140;",
"08509599999","2010-03-13T12:00:00","4","38.6655","-28.175817","94.79","SAO JORGE, PO","FM-15","LPSJ ","V020","110,1,N,0087,1","00210,1,C,N","004000,1,N,1","+0160,1","+0160,1","99999,9","04,5,+00090,1,99,9","04,5,+00210,1,99,9","07,5,+00360,1,99,9",,"07,99,1,99,9,99,9,99999,9,99,9,99,9","999,M,+9999,9","10159,1,99999,9","10,1","51,1","61,1",,,"MET128METAR LPSJ 131200Z 11017KT 4000 -RADZ BR SCT003 SCT007 BKN012 16/16 Q1016 RMK RWY13 12016G26KT 090V170 RWY31 11017G27KT 080V140;","Q01 -00172ATMX  "
"08509599999","2010-03-13T13:00:00","4","38.6655","-28.175817","94.79","SAO JORGE, PO","FM-15","LPSJ ","V020","120,1,N,0098,1","00210,1,C,N","003000,1,N,1","+0160,1","+0160,1","99999,9","04,5,+00090,1,99,9","07,5,+00210,1,99,9",,,"07,99,1,99,9,99,9,99999,9,99,9,99,9",,"10149,1,99999,9","10,1","51,1","61,1",,,"MET121METAR LPSJ 131300Z 12019KT 3000 -RADZ BR SCT003 BKN007 16/16 Q1015 RMK RWY13 12016G26KT 080V180 RWY31 12018G29KT 080V150;",
"08509599999","2010-03-13T14:00:00","4","38.6655","-28.175817","94.79","SAO JORGE, PO","FM-15","LPSJ ","V020","110,1,N,0082,1","00030,1,9,N","001000,1,N,1","+0160,1","+0160,1","99999,9","09,1,+00030,1,99,9",,,,"09,99,1,99,9,99,9,00025,1,99,9,99,9","999,M,+9999,9","10149,1,99999,9","45,1",,,,,"MET107METAR LPSJ 131400Z 11016KT 1000 FG VV001 16/16 Q1015 RMK RWY13 12013G23KT 090V150 RWY31 11015G25KT 080V140;","Q01 -00152ATMX  "
"08509599999","2010-03-13T15:00:00","4","38.6655","-28.175817","94.79","SAO JORGE, PO","FM-15","LPSJ ","V020","110,1,N,0082,1","00090,1,C,N","002000,1,N,1","+0170,1","+0160,1","99999,9","07,5,+00090,1,99,9","07,5,+00210,1,99,9",,,"07,99,1,99,9,99,9,99999,9,99,9,99,9",,"10129,1,99999,9","10,1","51,1",,,,"MET119METAR LPSJ 131500Z 11016KT 2000 -DZ BR BKN003 BKN007 17/16 Q1013 RMK RWY13 12013G23KT 080V160 RWY31 12015G25KT 090V150;",
"08509599999","2010-03-13T16:00:00","4","38.6655","-28.175817","94.79","SAO JORGE, PO","FM-15","LPSJ ","V020","110,1,N,0072,1","00015,1,C,N","001000,1,N,1","+0160,1","+0160,1","99999,9","09,1,+00015,1,99,9",,,,"09,99,1,99,9,99,9,00025,1,99,9,99,9","999,M,+9999,9","10129,1,99999,9","45,1","51,1",,,,"MET111METAR LPSJ 131600Z 11014KT 1000 -DZ FG VV/// 16/16 Q1013 RMK RWY13 12012G23KT 090V160 RWY31 11014G24KT 080V150;","Q01 -00142ATMX  "
"08509599999","2010-03-13T17:00:00","4","38.6655","-28.175817","94.79","SAO JORGE, PO","FM-15","LPSJ ","V020","110,1,N,0067,1","00030,1,9,N","001000,1,N,1","+0160,1","+0150,1","99999,9","09,1,+00030,1,99,9",,,,"09,99,1,99,9,99,9,00025,1,99,9,99,9",,"10129,1,99999,9","45,1",,,,,"MET091METAR LPSJ 131700Z 11013KT 1000 FG VV001 16/15 Q1013 RMK RWY13 12013G23KT RWY31 12013G23KT;",
"08509599999","2010-03-14T12:00:00","4","38.6655","-28.175817","94.79","SAO JORGE, PO","FM-15","LPSJ ","V020","260,1,N,0051,1","22000,1,9,N","011265,1,N,1","+0150,1","+0120,1","99999,9","02,5,+00480,1,99,9",,,,"02,99,1,99,9,99,9,99999,9,99,9,99,9",,"10139,1,99999,9",,,,,,"MET099METAR LPSJ 141200Z 26010KT 9999 FEW016 15/12 Q1014 RMK RWY13 26005KT 220V300 RWY31 25012KT 190V300;",
"08509599999","2010-03-14T14:00:00","4","38.6655","-28.175817","94.79","SAO JORGE, PO","FM-15","LPSJ ","V020","270,1,N,0057,1","22000,1,9,N","011265,1,N,1","+0160,1","+0120,1","99999,9","02,5,+00540,1,99,9",,,,"02,99,1,99,9,99,9,99999,9,99,9,99,9",,"10129,1,99999,9",,,,,,"MET099METAR LPSJ 141400Z 27011KT 9999 FEW018 16/12 Q1013 RMK RWY13 27008KT 220V310 RWY31 25012KT 200V290;",
"08509599999","2010-03-14T15:00:00","4","38.6655","-28.175817","94.79","SAO JORGE, PO","FM-15","LPSJ ","V020","270,1,N,0057,1","22000,1,9,N","011265,1,N,1","+0170,1","+0120,1","99999,9","04,5,+00540,1,99,9",,,,"04,99,1,99,9,99,9,99999,9,99,9,99,9",,"10119,1,99999,9",,,,,,"MET099METAR LPSJ 141500Z 27011KT 9999 SCT018 17/12 Q1012 RMK RWY13 27008KT 220V310 RWY31 25012KT 200V280;",
"08509599999","2010-03-14T16:00:00","4","38.6655","-28.175817","94.79","SAO JORGE, PO","FM-15","LPSJ ","V020","260,1,N,0046,1","99999,9,C,N","011265,1,N,1","+0160,1","+0120,1","99999,9","04,5,+00480,1,99,9","04,5,+00900,1,99,9",,,"04,99,1,99,9,99,9,99999,9,99,9,99,9",,"10119,1,99999,9",,,,,,"MET106METAR LPSJ 141600Z 26009KT 9999 SCT016 SCT030 16/12 Q1012 RMK RWY13 27005KT 230V310 RWY31 25011KT 210V290;","P01 009003SCOCIG"
"08509599999","2010-03-14T17:00:00","4","38.6655","-28.175817","94.79","SAO JORGE, PO","FM-15","LPSJ ","V020","260,1,N,0041,1","22000,1,9,N","011265,1,N,1","+0160,1","+0120,1","99999,9","04,5,+00540,1,99,9",,,,"04,99,1,99,9,99,9,99999,9,99,9,99,9",,"10108,1,99999,9",,,,,,"MET099METAR LPSJ 141700Z 26008KT 9999 SCT018 16/12 Q1011 RMK RWY13 26006KT 220V300 RWY31 25010KT 200V280;",
"08509599999","2010-03-15T10:00:00","4","38.6655","-28.175817","94.79","SAO JORGE, PO","FM-15","LPSJ ","V020","260,1,N,0072,1","22000,1,9,N","011265,1,N,1","+0120,1","+0080,1","99999,9","04,5,+00480,1,99,9",,,,"04,99,1,99,9,99,9,99999,9,99,9,99,9",,"10051,1,99999,9",,,,"0123,1",,"MET108METAR LPSJ 151000Z 26014G24KT 9999 SCT016 12/08 Q1005 RMK RWY13 26016G26KT 230V340 RWY31 26021G32KT 210V310;",
"08509599999","2010-03-15T11:00:00","4","38.6655","-28.175817","94.79","SAO JORGE, PO","FM-15","LPSJ ","V020","270,1,N,0108,1","22000,1,9,N","011265,1,N,1","+0130,1","+0060,1","99999,9","04,5,+00600,1,99,9",,,,"04,99,1,99,9,99,9,99999,9,99,9,99,9",,"10051,1,99999,9",,,,,,"MET105METAR LPSJ 151100Z 27021KT 9999 SCT020 13/06 Q1005 RMK RWY13 29012G22KT 190V020 RWY31 25018G35KT 180V310;",
"08509599999","2010-03-15T12:00:00","4","38.6655","-28.175817","94.79","SAO JORGE, PO","FM-15","LPSJ ","V020","270,1,N,0067,1","22000,1,9,N","011265,1,N,1","+0140,1","+0070,1","99999,9","04,5,+00600,1,99,9",,,,"04,99,1,99,9,99,9,99999,9,99,9,99,9",,"10051,1,99999,9",,,,"0118,1",,"MET108METAR LPSJ 151200Z 27013G23KT 9999 SCT020 14/07 Q1005 RMK RWY13 28013G23KT 190V010 RWY31 25018G36KT 180V310;",
"08509599999","2010-03-15T13:00:00","4","38.6655","-28.175817","94.79","SAO JORGE, PO","FM-15","LPSJ ","V020","260,1,N,0067,1","22000,1,9,N","011265,1,N,1","+0150,1","+0080,1","99999,9","04,5,+00750,1,99,9",,,,"04,99,1,99,9,99,9,99999,9,99,9,99,9",,"10061,1,99999,9",,,,"0118,1",,"MET108METAR LPSJ 151300Z 26013G23KT 9999 SCT025 15/08 Q1006 RMK RWY13 28011G22KT 210V350 RWY31 25018G33KT 190V310;",
"08509599999","2010-03-16T08:00:00","4","38.6655","-28.175817","94.79","SAO JORGE, PO","FM-15","LPSJ ","V020","270,1,N,0021,1","22000,1,9,N","011265,1,N,1","+0130,1","+0090,1","99999,9","04,5,+00540,1,99,9",,,,"04,99,1,99,9,99,9,99999,9,99,9,99,9",,"10129,1,99999,9",,,,,,"MET083METAR LPSJ 160800Z 27004KT 9999 SCT018 13/09 Q1013 RMK RWY13 26004KT RWY31 26004KT;",
"08509599999","2010-03-16T09:00:00","4","38.6655","-28.175817","94.79","SAO JORGE, PO","FM-15","LPSJ ","V020","999,9,V,0026,1","22000,1,9,N","011265,1,N,1","+0130,1","+0080,1","99999,9","04,5,+00600,1,99,9",,,,"04,99,1,99,9,99,9,99999,9,99,9,99,9",,"10129,1,99999,9",,,,,,"MET083METAR LPSJ 160900Z VRB05KT 9999 SCT020 13/08 Q1013 RMK RWY13 VRB04KT RWY31 VRB03KT;",
"08509599999","2010-03-16T10:00:00","4","38.6655","-28.175817","94.79","SAO JORGE, PO","FM-15","LPSJ ","V020","999,9,V,0026,1","06000,1,C,N","011265,1,N,1","+0130,1","+0080,1","99999,9","04,5,+00600,1,99,9","07,5,+06000,1,99,9",,,"07,99,1,99,9,99,9,99999,9,99,9,99,9",,"10129,1,99999,9",,,,,,"MET090METAR LPSJ 161000Z VRB05KT 9999 SCT020 BKN200 13/08 Q1013 RMK RWY13 VRB04KT RWY31 VRB03KT;",
"08509599999","2010-03-16T13:00:00","4","38.6655","-28.175817","94.79","SAO JORGE, PO","FM-15","LPSJ ","V020","150,1,N,0057,1","06000,1,C,N","011265,1,N,1","+0150,1","+0090,1","99999,9","04,5,+00750,1,99,9","07,5,+06000,1,99,9",,,"07,99,1,99,9,99,9,99999,9,99,9,99,9",,"10119,1,99999,9",,,,,,"MET106METAR LPSJ 161300Z 15011KT 9999 SCT025 BKN200 15/09 Q1012 RMK RWY13 14008KT 110V200 RWY31 15014KT 100V200;",
"08509599999","2010-03-16T14:00:00","4","38.6655","-28.175817","94.79","SAO JORGE, PO","FM-15","LPSJ ","V020","130,1,N,0046,1","02400,1,C,N","011265,1,N,1","+0140,1","+0090,1","99999,9","04,5,+00750,1,99,9","04,5,+02400,1,99,9","07,5,+06000,1,99,9",,"07,99,1,99,9,99,9,99999,9,99,9,99,9",,"10119,1,99999,9",,,,,,"MET097METAR LPSJ 161400Z 13009KT 9999 SCT025 SCT080 BKN200 14/09 Q1012 RMK RWY13 13009KT RWY31 14008KT;",
"08509599999","2010-03-16T15:00:00","4","38.6655","-28.175817","94.79","SAO JORGE, PO","FM-15","LPSJ ","V020","120,1,N,0041,1","00750,1,C,N","011265,1,N,1","+0150,1","+0080,1","99999,9","04,5,+00480,1,99,9","04,5,+00750,1,99,9","07,5,+02400,1,99,9",,"07,99,1,99,9,99,9,99999,9,99,9,99,9",,"10108,1,99999,9",,,,,,"MET097METAR LPSJ 161500Z 12008KT 9999 SCT016 SCT025 BKN080 15/08 Q1011 RMK RWY13 13010KT RWY31 12012KT;",
"08509599999","2010-03-16T16:00:00","4","38.6655","-28.175817","94.79","SAO JORGE, PO","FM-15","LPSJ ","V020","140,1,N,0057,1","00750,1,C,N","011265,1,N,1","+0150,1","+0090,1","99999,9","04,5,+00480,1,99,9","04,5,+00750,1,99,9","07,5,+02400,1,99,9",,"07,99,1,99,9,99,9,99999,9,99,9,99,9",,"10102,1,99999,9",,,,,,"MET116METAR LPSJ 161600Z 14011KT 9999 SCT016 SCT025 BKN080 15/09 Q1010 RMK RWY13 14011KT 090V210 RWY31 15010G22KT 090V220;",
"08509599999","2010-03-16T17:00:00","4","38.6655","-28.175817","94.79","SAO JORGE, PO","FM-15","LPSJ ","V020","150,1,N,0057,1","00750,1,C,N","011265,1,N,1","+0150,1","+0110,1","99999,9","04,5,+00480,1,99,9","04,5,+00750,1,99,9","07,5,+02400,1,99,9",,"07,99,1,99,9,99,9,99999,9,99,9,99,9",,"10081,1,99999,9",,,,,,"MET113METAR LPSJ 161700Z 15011KT 9999 SCT016 SCT025 BKN080 15/11 Q1008 RMK RWY13 14012KT 090V210 RWY31 15016KT 090V210;",
"08509599999","2010-03-17T10:00:00","4","38.6655","-28.175817","94.79","SAO JORGE, PO","FM-15","LPSJ ","V020","260,1,N,0067,1","00600,1,C,N","011265,1,N,1","+0160,1","+0140,1","99999,9","04,5,+00360,1,99,9","07,5,+00600,1,99,9",,,"07,99,1,99,9,99,9,99999,9,99,9,99,9",,"09980,1,99999,9",,,,,,"MET106METAR LPSJ 171000Z 26013KT 9999 SCT012 BKN020 16/14 Q0998 RMK RWY13 26010KT 210V300 RWY31 26016KT 200V300;",
"08509599999","2010-03-17T11:00:00","4","38.6655","-28.175817","94.79","SAO JORGE, PO","FM-15","LPSJ ","V020","260,1,N,0062,1","99999,9,C,N","011265,1,N,1","+0160,1","+0140,1","99999,9","04,5,+00390,1,99,9","04,5,+00600,1,99,9",,,"04,99,1,99,9,99,9,99999,9,99,9,99,9",,"09990,1,99999,9",,,,,,"MET106METAR LPSJ 171100Z 26012KT 9999 SCT013 SCT020 16/14 Q0999 RMK RWY13 26007KT 210V300 RWY31 25013KT 200V300;","P01 006003SCOCIG"
"08509599999","2010-03-17T12:00:00","4","38.6655","-28.175817","94.79","SAO JORGE, PO","FM-15","LPSJ ","V020","260,1,N,0067,1","22000,1,9,N","011265,1,N,1","+0170,1","+0130,1","99999,9","04,5,+00450,1,99,9",,,,"04,99,1,99,9,99,9,99999,9,99,9,99,9",,"09990,1,99999,9",,,,,,"MET102METAR LPSJ 171200Z 26013KT 9999 SCT015 17/13 Q0999 RMK RWY13 26010KT 210V300 RWY31 25013G24KT 200V290;",
"08509599999","2010-03-17T13:00:00","4","38.6655","-28.175817","94.79","SAO JORGE, PO","FM-15","LPSJ ","V020","260,1,N,0067,1","99999,9,C,N","011265,1,N,1","+0170,1","+0140,1","99999,9","04,5,+00450,1,99,9","04,5,+00600,1,99,9",,,"04,99,1,99,9,99,9,99999,9,99,9,99,9",,"09990,1,99999,9",,,,,,"MET109METAR LPSJ 171300Z 26013KT 9999 SCT015 SCT020 17/14 Q0999 RMK RWY13 26011KT 200V320 RWY31 25013G23KT 200V300;","P01 006003SCOCIG"
"08509599999","2010-03-17T14:00:00","4","38.6655","-28.175817","94.79","SAO JORGE, PO","FM-15","LPSJ ","V020","260,1,N,0041,1","99999,9,C,N","011265,1,N,1","+0170,1","+0140,1","99999,9","04,5,+00450,1,99,9","04,5,+00600,1,99,9",,,"04,99,1,99,9,99,9,99999,9,99,9,99,9",,"09990,1,99999,9",,,,,,"MET106METAR LPSJ 171400Z 26008KT 9999 SCT015 SCT020 17/14 Q0999 RMK RWY13 26008KT 200V300 RWY31 26014KT 200V300;","P01 006003SCOCIG"
"08509599999","2010-03-17T15:00:00","4","38.6655","-28.175817","94.79","SAO JORGE, PO","FM-15","LPSJ ","V020","260,1,N,0072,1","00450,1,C,N","011265,1,N,1","+0170,1","+0140,1","99999,9","07,5,+00450,1,99,9","04,5,+00600,1,99,9",,,,,"09990,1,99999,9",,,,,,"MET109METAR LPSJ 171500Z 26014KT 9999 BKN015 SCT020 17/14 Q0999 RMK RWY13 26014KT 190V310 RWY31 26015G25KT 170V300;","Q01+000042SCOTCV"
"08509599999","2010-03-18T09:00:00","4","38.6655","-28.175817","94.79","SAO JORGE, PO","FM-15","LPSJ ","V020","140,1,N,0041,1","00420,1,C,N","011265,1,N,1","+0150,1","+0130,1","99999,9","02,5,+00270,1,99,9","07,5,+00420,1,99,9",,,"07,99,1,99,9,99,9,99999,9,99,9,99,9",,"09990,1,99999,9",,,,,,"MET106METAR LPSJ 180900Z 14008KT 9999 FEW009 BKN014 15/13 Q0999 RMK RWY13 14010KT 100V170 RWY31 14012KT 090V180;",
"08509599999","2010-03-18T10:00:00","4","38.6655","-28.175817","94.79","SAO JORGE, PO","FM-15","LPSJ ","V020","110,1,N,0026,1","00450,1,C,N","011265,1,N,1","+0150,1","+0130,1","99999,9","07,5,+00450,1,99,9",,,,"07,99,1,99,9,99,9,99999,9,99,9,99,9",,"09990,1,99999,9",,,,,,"MET083METAR LPSJ 181000Z 11005KT 9999 BKN015 15/13 Q0999 RMK RWY13 17005KT RWY31 16005KT;",
"08509599999","2010-03-18T13:00:00","4","38.6655","-28.175817","94.79","SAO JORGE, PO","FM-15","LPSJ ","V020","190,1,N,0026,1","00450,1,C,N","011265,1,N,1","+0170,1","+0140,1","99999,9","07,5,+00450,1,99,9",,,,"07,99,1,99,9,99,9,99999,9,99,9,99,9",,"09990,1,99999,9",,,,,,"MET083METAR LPSJ 181300Z 19005KT 9999 BKN015 17/14 Q0999 RMK RWY13 19004KT RWY31 20003KT;",
"08509599999","2010-03-18T14:00:00","4","38.6655","-28.175817","94.79","SAO JORGE, PO","FM-15","LPSJ ","V020","999,9,V,0026,1","00420,1,C,N","011265,1,N,1","+0160,1","+0140,1","99999,9","07,5,+00420,1,99,9","04,5,+02100,1,99,9",,,,,"09990,1,99999,9",,,,,,"MET090METAR LPSJ 181400Z VRB05KT 9999 BKN014 SCT070 16/14 Q0999 RMK RWY13 VRB04KT RWY31 VRB05KT;","Q01+000042SCOTCV"
"08509599999","2010-03-18T15:00:00","4","38.6655","-28.175817","94.79","SAO JORGE, PO","FM-15","LPSJ ","V020","999,9,V,0026,1","00420,1,C,N","011265,1,N,1","+0160,1","+0140,1","99999,9","02,5,+00270,1,99,9","07,5,+00420,1,99,9",,,"07,99,1,99,9,99,9,99999,9,99,9,99,9",,"09980,1,99999,9","80,1",,,,,"MET096METAR LPSJ 181500Z VRB05KT 9999 -SHRA FEW009 BKN014 16/14 Q0998 RMK RWY13 VRB04KT RWY31 VRB08KT;",
"08509599999","2010-03-18T16:00:00","4","38.6655","-28.175817","94.79","SAO JORGE, PO","FM-15","LPSJ ","V020","999,9,V,0026,1","00420,1,C,N","009000,1,N,1","+0160,1","+0140,1","99999,9","02,5,+00270,1,99,9","07,5,+00420,1,99,9",,,"07,99,1,99,9,99,9,99999,9,99,9,99,9",,"09970,1,99999,9","80,1",,,,,"MET096METAR LPSJ 181600Z VRB05KT 9000 -SHRA FEW009 BKN014 16/14 Q0997 RMK RWY13 VRB05KT RWY31 VRB04KT;",
"08509599999","2010-03-18T17:00:00","4","38.6655","-28.175817","94.79","SAO JORGE, PO","FM-15","LPSJ ","V020","250,1,N,0062,1","00390,1,C,N","008000,1,N,1","+0160,1","+0140,1","99999,9","07,5,+00390,1,99,9","07,5,+00750,1,99,9",,,"07,99,1,99,9,99,9,99999,9,99,9,99,9",,"09970,1,99999,9","80,1",,,,,"MET115METAR LPSJ 181700Z 25012KT 8000 -SHRA BKN013 BKN025 16/14 Q0997 RMK RWY13 25010KT 180V300 RWY31 26010G22KT 190V320;",
"08509599999","2010-03-19T09:00:00","4","38.6655","-28.175817","94.79","SAO JORGE, PO","FM-15","LPSJ ","V020","320,1,N,0062,1","99999,9,C,N","011265,1,N,1","+0130,1","+0100,1","99999,9","04,5,+00480,1,99,9","04,5,+02100,1,99,9",,,"04,99,1,99,9,99,9,99999,9,99,9,99,9",,"10081,1,99999,9",,,,,,"MET120METAR LPSJ 190900Z 32012KT 260V010 9999 SCT016 SCT070 13/10 Q1008 RMK RWY13 35014G26KT 310V030 RWY31 33016G33KT 270V020;","P01 021003SCOCIG"
"08509599999","2010-03-19T10:00:00","4","38.6655","-28.175817","94.79","SAO JORGE, PO","FM-15","LPSJ ","V020","310,1,N,0062,1","00480,1,C,N","011265,1,N,1","+0130,1","+0070,1","99999,9","07,5,+00480,1,99,9","04,5,+02100,1,99,9",,,,,"10091,1,99999,9",,,,"0118,1",,"MET112METAR LPSJ 191000Z 31012G23KT 9999 BKN016 SCT070 13/07 Q1009 RMK RWY13 33019KT 270V010 RWY31 33016G31KT 290V360;","Q01+000042SCOTCV"
"08509599999","2010-03-19T11:00:00","4","38.6655","-28.175817","94.79","SAO JORGE, PO","FM-15","LPSJ ","V020","310,1,N,0077,1","00480,1,C,N","011265,1,N,1","+0130,1","+0100,1","99999,9","07,5,+00480,1,99,9","07,5,+00900,1,99,9",,,"07,99,1,99,9,99,9,99999,9,99,9,99,9",,"10108,1,99999,9",,,,,,"MET093METAR LPSJ 191100Z 31015KT 9999 BKN016 BKN030 13/10 Q1011 RMK RWY13 32016KT RWY31 32014G24KT;",
"08509599999","2010-03-19T12:00:00","4","38.6655","-28.175817","94.79","SAO JORGE, PO","FM-15","LPSJ ","V020","310,1,N,0077,1","00480,1,C,N","011265,1,N,1","+0140,1","+0090,1","99999,9","07,5,+00480,1,99,9","04,5,+00900,1,99,9",,,,,"10119,1,99999,9",,,,,,"MET093METAR LPSJ 191200Z 31015KT 9999 BKN016 SCT030 14/09 Q1012 RMK RWY13 33015KT RWY31 33013G24KT;","Q01+000042SCOTCV"
"08509599999","2010-03-20T13:00:00","4","38.6655","-28.175817","94.79","SAO JORGE, PO","FM-15","LPSJ ","V020","270,1,N,0041,1","22000,1,9,N","011265,1,N,1","+0150,1","+0080,1","99999,9","02,5,+00900,1,99,9",,,,"02,99,1,99,9,99,9,99999,9,99,9,99,9",,"10261,1,99999,9",,,,,,"MET083METAR LPSJ 201300Z 27008KT 9999 FEW030 15/08 Q1026 RMK RWY13 29006KT RWY31 26007KT;",
"08509599999","2010-03-20T14:00:00","4","38.6655","-28.175817","94.79","SAO JORGE, PO","FM-15","LPSJ ","V020","210,1,N,0026,1","99999,9,C,N","011265,1,N,1","+0160,1","+0070,1","99999,9","02,5,+00900,1,99,9","04,5,+06000,1,99,9",,,"04,99,1,99,9,99,9,99999,9,99,9,99,9",,"10251,1,99999,9",,,,,,"MET090METAR LPSJ 201400Z 21005KT 9999 FEW030 SCT200 16/07 Q1025 RMK RWY13 23005KT RWY31 23003KT;","P01 060003SCOCIG"
"08509599999","2010-03-20T15:00:00","4","38.6655","-28.175817","94.79","SAO JORGE, PO","FM-15","LPSJ ","V020","170,1,N,0021,1","99999,9,C,N","011265,1,N,1","+0150,1","+0070,1","99999,9","02,5,+00900,1,99,9","04,5,+06000,1,99,9",,,"04,99,1,99,9,99,9,99999,9,99,9,99,9",,"10240,1,99999,9",,,,,,"MET090METAR LPSJ 201500Z 17004KT 9999 FEW030 SCT200 15/07 Q1024 RMK RWY13 16004KT RWY31 19004KT;","P01 060003SCOCIG"
"08509599999","2010-03-20T16:00:00","4","38.6655","-28.175817","94.79","SAO JORGE, PO","FM-15","LPSJ ","V020","999,9,V,0026,1","99999,9,C,N","011265,1,N,1","+0150,1","+0080,1","99999,9","04,5,+00900,1,99,9","04,5,+06000,1,99,9",,,"04,99,1,99,9,99,9,99999,9,99,9,99,9",,"10240,1,99999,9",,,,,,"MET084METAR LPSJ 201600Z VRB05KT 9999 SCT030 SCT200 15/08 Q1024 RMK RWY13 VRB04KT VRB03KT;","P01 060003SCOCIG"
"08509599999","2010-03-21T13:00:00","4","38.6655","-28.175817","94.79","SAO JORGE, PO","FM-15","LPSJ ","V020","260,1,N,0072,1","00750,1,C,N","009000,1,N,1","+0150,1","+0130,1","99999,9","04,5,+00300,1,99,9","07,5,+00750,1,99,9","07,5,+02100,1,99,9",,"07,99,1,99,9,99,9,99999,9,99,9,99,9",,"10190,1,99999,9","61,1",,,,,"MET125METAR LPSJ 211300Z 26014KT 9000 -RA SCT010 BKN025 BKN070 15/13 Q1019 RERA RMK RWY13 27012KT 220V340 RWY31 26014G24KT 180V300;",
"08509599999","2010-03-21T14:00:00","4","38.6655","-28.175817","94.79","SAO JORGE, PO","FM-15","LPSJ ","V020","260,1,N,0051,1","00540,1,C,N","011265,1,N,1","+0150,1","+0130,1","99999,9","02,5,+00270,1,99,9","04,5,+00540,1,99,9","07,5,+02100,1,99,9",,"07,99,1,99,9,99,9,99999,9,99,9,99,9",,"10190,1,99999,9",,,,,,"MET118METAR LPSJ 211400Z 26010KT 9999 FEW009 SCT018 BKN070 15/13 Q1019 RERA RMK RWY13 26008KT 230V320 RWY31 26014KT 230V300;",
"08509599999","2010-03-21T15:00:00","4","38.6655","-28.175817","94.79","SAO JORGE, PO","FM-15","LPSJ ","V020","270,1,N,0062,1","00540,1,C,N","011265,1,N,1","+0150,1","+0130,1","99999,9","02,5,+00240,1,99,9","04,5,+00540,1,99,9","07,5,+02100,1,99,9",,"07,99,1,99,9,99,9,99999,9,99,9,99,9",,"10190,1,99999,9",,,,,,"MET113METAR LPSJ 211500Z 27012KT 9999 FEW008 SCT018 BKN070 15/13 Q1019 RMK RWY13 27008KT 240V310 RWY31 26016KT 220V300;",
"08509599999","2010-03-21T16:00:00","4","38.6655","-28.175817","94.79","SAO JORGE, PO","FM-15","LPSJ ","V020","270,1,N,0072,1","00480,1,C,N","011265,1,N,1","+0150,1","+0130,1","99999,9","02,5,+00240,1,99,9","04,5,+00480,1,99,9","07,5,+02100,1,99,9",,"07,99,1,99,9,99,9,99999,9,99,9,99,9",,"10180,1,99999,9","80,1",,,,,"MET119METAR LPSJ 211600Z 27014KT 9999 -SHRA FEW008 SCT016 BKN070 15/13 Q1018 RMK RWY13 28010KT 240V310 RWY31 26015KT 230V300;",
"08509599999","2010-03-22T10:00:00","4","38.6655","-28.175817","94.79","SAO JORGE, PO","FM-15","LPSJ ","V020","110,1,N,0036,1","00900,1,C,N","008000,1,N,1","+0140,1","+0130,1","99999,9","04,5,+00480,1,99,9","04,5,+00900,1,99,9","07,5,+02100,1,99,9",,"07,99,1,99,9,99,9,99999,9,99,9,99,9","999,M,+9999,9","10119,1,99999,9","61,1",,,,,"MET106METAR LPSJ 221000Z 11007KT 8000 -RA SCT016 SCT030 BKN070 14/13 Q1012 RERA RMK RWY13 12010KT RWY31 10012KT;","Q01 +00122ATMX  "
"08509599999","2010-03-22T11:00:00","4","38.6655","-28.175817","94.79","SAO JORGE, PO","FM-15","LPSJ ","V020","090,1,N,0021,1","00900,1,C,N","008000,1,N,1","+0150,1","+0130,1","99999,9","04,5,+00540,1,99,9","04,5,+00900,1,99,9","07,5,+02100,1,99,9",,"07,99,1,99,9,99,9,99999,9,99,9,99,9",,"10119,1,99999,9","61,1",,,,,"MET101METAR LPSJ 221100Z 09004KT 8000 -RA SCT018 SCT030 BKN070 15/13 Q1012 RMK RWY13 10003KT RWY31 08003KT;",
"08509599999","2010-03-22T12:00:00","4","38.6655","-28.175817","94.79","SAO JORGE, PO","FM-15","LPSJ ","V020","030,1,N,0067,1","00900,1,C,N","009000,1,N,1","+0140,1","+0120,1","99999,9","04,5,+00540,1,99,9","04,5,+00900,1,99,9","07,5,+02100,1,99,9",,"07,99,1,99,9,99,9,99999,9,99,9,99,9",,"10119,1,99999,9","61,1",,,,,"MET128METAR LPSJ 221200Z 03013KT 350V060 9000 -RA SCT018 SCT030 BKN070 14/12 Q1012 RMK RWY13 04019KT 360V090 RWY31 03014G24KT 350V060;",
"08509599999","2010-03-22T13:00:00","4","38.6655","-28.175817","94.79","SAO JORGE, PO","FM-15","LPSJ ","V020","030,1,N,0072,1","00900,1,C,N","008000,1,N,1","+0150,1","+0120,1","99999,9","04,5,+00540,1,99,9","04,5,+00900,1,99,9","07,5,+02100,1,99,9",,"07,99,1,99,9,99,9,99999,9,99,9,99,9",,"10119,1,99999,9","61,1",,,,,"MET125METAR LPSJ 221300Z 03014KT 350V060 8000 -RA SCT018 SCT030 BKN070 15/12 Q1012 RMK RWY13 04016KT 360V080 RWY31 03018KT 360V060;",
"08509599999","2010-03-22T14:00:00","4","38.6655","-28.175817","94.79","SAO JORGE, PO","FM-15","LPSJ ","V020","030,1,N,0067,1","00900,1,C,N","008000,1,N,1","+0150,1","+0130,1","99999,9","04,5,+00480,1,99,9","04,5,+00900,1,99,9","07,5,+02100,1,99,9",,"07,99,1,99,9,99,9,99999,9,99,9,99,9",,"10119,1,99999,9","61,1",,,,,"MET125METAR LPSJ 221400Z 03013KT 350V050 8000 -RA SCT016 SCT030 BKN070 15/13 Q1012 RMK RWY13 04016KT 360V080 RWY31 03017KT 350V050;",
"08509599999","2010-03-22T15:00:00","4","38.6655","-28.175817","94.79","SAO JORGE, PO","FM-15","LPSJ ","V020","030,1,N,0072,1","00750,1,C,N","008000,1,N,1","+0150,1","+0130,1","99999,9","04,5,+00480,1,99,9","04,5,+00750,1,99,9","07,5,+02100,1,99,9",,"07,99,1,99,9,99,9,99999,9,99,9,99,9",,"10119,1,99999,9","61,1",,,,,"MET128METAR LPSJ 221500Z 03014KT 360V060 8000 -RA SCT016 SCT025 BKN070 15/13 Q1012 RMK RWY13 04017KT 360V080 RWY31 03016G26KT 350V050;",
"08509599999","2010-03-23T08:00:00","4","38.6655","-28.175817","94.79","SAO JORGE, PO","FM-15","LPSJ ","V020","310,1,N,0062,1","99999,9,C,N","011265,1,N,1","+0110,1","+0060,1","99999,9","04,5,+00540,1,99,9","04,5,+00900,1,99,9",,,"04,99,1,99,9,99,9,99999,9,99,9,99,9",,"10190,1,99999,9",,,,,,"MET090METAR LPSJ 230800Z 31012KT 9999 SCT018 SCT030 11/06 Q1019 RMK RWY13 32012KT RWY31 32015KT;","P01 009003SCOCIG"
"08509599999","2010-03-23T09:00:00","4","38.6655","-28.175817","94.79","SAO JORGE, PO","FM-15","LPSJ ","V020","310,1,N,0062,1","99999,9,C,N","011265,1,N,1","+0120,1","+0060,1","99999,9","04,5,+00600,1,99,9","04,5,+00900,1,99,9",,,"04,99,1,99,9,99,9,99999,9,99,9,99,9",,"10190,1,99999,9",,,,,,"MET090METAR LPSJ 230900Z 31012KT 9999 SCT020 SCT030 12/06 Q1019 RMK RWY13 33014KT RWY31 32016KT;","P01 009003SCOCIG"
"08509599999","2010-03-23T10:00:00","4","38.6655","-28.175817","94.79","SAO JORGE, PO","FM-15","LPSJ ","V020","310,1,N,0051,1","22000,1,9,N","011265,1,N,1","+0120,1","+0050,1","99999,9","04,5,+00900,1,99,9",,,,"04,99,1,99,9,99,9,99999,9,99,9,99,9",,"10200,1,99999,9",,,,,,"MET083METAR LPSJ 231000Z 31010KT 9999 SCT030 12/05 Q1020 RMK RWY13 33013KT RWY31 32013KT;",
"08509599999","2010-03-23T13:00:00","4","38.6655","-28.175817","94.79","SAO JORGE, PO","FM-15","LPSJ ","V020","310,1,N,0072,1","22000,1,9,N","011265,1,N,1","+0140,1","+0070,1","99999,9","02,5,+00900,1,99,9",,,,"02,99,1,99,9,99,9,99999,9,99,9,99,9",,"10210,1,99999,9",,,,,,"MET083METAR LPSJ 231300Z 31014KT 9999 FEW030 14/07 Q1021 RMK RWY13 33014KT RWY31 31016KT;",
"08509599999","2010-03-23T14:00:00","4","38.6655","-28.175817","94.79","SAO JORGE, PO","FM-15","LPSJ ","V020","310,1,N,0072,1","22000,1,9,N","011265,1,N,1","+0140,1","+0080,1","99999,9","04,5,+00900,1,99,9",,,,"04,99,1,99,9,99,9,99999,9,99,9,99,9",,"10200,1,99999,9",,,,,,"MET083METAR LPSJ 231400Z 31014KT 9999 SCT030 14/08 Q1020 RMK RWY13 32014KT RWY31 31016KT;",
"08509599999","2010-03-23T15:00:00","4","38.6655","-28.175817","94.79","SAO JORGE, PO","FM-15","LPSJ ","V020","310,1,N,0072,1","22000,1,9,N","011265,1,N,1","+0140,1","+0060,1","99999,9","04,5,+00900,1,99,9",,,,"04,99,1,99,9,99,9,99999,9,99,9,99,9",,"10210,1,99999,9",,,,,,"MET105METAR LPSJ 231500Z 31014KT 9999 SCT030 14/06 Q1021 RMK RWY13 31011G21KT 260V350 RWY31 30013G23KT 240V320;",
"08509599999","2010-03-23T16:00:00","4","38.6655","-28.175817","94.79","SAO JORGE, PO","FM-15","LPSJ ","V020","300,1,N,0077,1","22000,1,9,N","011265,1,N,1","+0140,1","+0060,1","99999,9","04,5,+00900,1,99,9",,,,"04,99,1,99,9,99,9,99999,9,99,9,99,9",,"10200,1,99999,9",,,,,,"MET099METAR LPSJ 231600Z 30015KT 9999 SCT030 14/06 Q1020 RMK RWY13 31015KT 260V340 RWY31 30016KT 260V330;",
"08509599999","2010-03-23T17:00:00","4","38.6655","-28.175817","94.79","SAO JORGE, PO","FM-15","LPSJ ","V020","300,1,N,0082,1","22000,1,9,N","011265,1,N,1","+0140,1","+0070,1","99999,9","04,5,+00900,1,99,9",,,,"04,99,1,99,9,99,9,99999,9,99,9,99,9",,"10190,1,99999,9",,,,,,"MET105METAR LPSJ 231700Z 30016KT 9999 SCT030 14/07 Q1019 RMK RWY13 31013G23KT 260V350 RWY31 29014G24KT 230V320;",
"08509599999","2010-03-24T10:00:00","4","38.6655","-28.175817","94.79","SAO JORGE, PO","FM-15","LPSJ ","V020","310,1,N,0093,1","00480,1,C,N","011265,1,N,1","+0130,1","+0100,1","99999,9","07,5,+00480,1,99,9","07,5,+00750,1,99,9",,,"07,99,1,99,9,99,9,99999,9,99,9,99,9",,"10119,1,99999,9",,,,,,"MET112METAR LPSJ 241000Z 31018KT 9999 BKN016 BKN025 13/10 Q1012 RMK RWY13 31017G27KT 260V340 RWY31 31022G32KT 250V340;",
"08509599999","2010-03-24T11:00:00","4","38.6655","-28.175817","94.79","SAO JORGE, PO","FM-15","LPSJ ","V020","310,1,N,0093,1","99999,9,C,N","011265,1,N,1","+0130,1","+0080,1","99999,9","04,5,+00480,1,99,9","04,5,+00900,1,99,9",,,"04,99,1,99,9,99,9,99999,9,99,9,99,9",,"10119,1,99999,9",,,,,,"MET112METAR LPSJ 241100Z 31018KT 9999 SCT016 SCT030 13/08 Q1012 RMK RWY13 31020G30KT 270V340 RWY31 31023G33KT 260V330;","P01 009003SCOCIG"
"08509599999","2010-03-24T12:00:00","4","38.6655","-28.175817","94.79","SAO JORGE, PO","FM-15","LPSJ ","V020","310,1,N,0093,1","99999,9,C,N","011265,1,N,1","+0130,1","+0060,1","99999,9","04,5,+00540,1,99,9","04,5,+01200,1,99,9",,,"04,99,1,99,9,99,9,99999,9,99,9,99,9",,"10129,1,99999,9",,,,,,"MET112METAR LPSJ 241200Z 31018KT 9999 SCT018 SCT040 13/06 Q1013 RMK RWY13 31019G30KT 370V330 RWY31 30021G34KT 260V330;","P01 012003SCOCIG"
"08509599999","2010-03-24T13:00:00","4","38.6655","-28.175817","94.79","SAO JORGE, PO","FM-15","LPSJ ","V020","999,9,9,9999,9","02400,5,9,N","011265,1,N,1","+0130,1","+0060,1","99999,9","04,5,+00900,5,99,9","04,5,+02400,5,99,9",,,,,"10130,1,99999,9",,,,,,"MET122METAR LPSJ 241300Z 241300Z30016G27KT 9999 SCT030 SCT080 13/06 Q1013 RMK RWY13 31021G33KT 250V350 RWY31 31027G40KT 250V330;",
"08509599999","2010-03-24T14:00:00","4","38.6655","-28.175817","94.79","SAO JORGE, PO","FM-15","LPSJ ","V020","310,1,N,0098,1","22000,1,9,N","011265,1,N,1","+0120,1","+0070,1","99999,9","04,5,+00750,1,99,9",,,,"04,99,1,99,9,99,9,99999,9,99,9,99,9",,"10129,1,99999,9",,,,,,"MET105METAR LPSJ 241400Z 31019KT 9999 SCT025 12/07 Q1013 RMK RWY13 31016G26KT 260V360 RWY31 31019G30KT 240V320;",
"08509599999","2010-03-24T15:00:00","4","38.6655","-28.175817","94.79","SAO JORGE, PO","FM-15","LPSJ ","V020","310,1,N,0062,1","22000,1,9,N","011265,1,N,1","+0120,1","+0060,1","99999,9","04,5,+00540,1,99,9",,,,"04,99,1,99,9,99,9,99999,9,99,9,99,9",,"10129,1,99999,9",,,,"0113,1",,"MET108METAR LPSJ 241500Z 31012G22KT 9999 SCT018 12/06 Q1013 RMK RWY13 31017G27KT 260V360 RWY31 31020G30KT 240V330;",
"08509599999","2010-03-24T16:00:00","4","38.6655","-28.175817","94.79","SAO JORGE, PO","FM-15","LPSJ ","V020","290,1,N,0098,1","22000,1,9,N","011265,1,N,1","+0130,1","+0050,1","99999,9","04,5,+00750,1,99,9",,,,"04,99,1,99,9,99,9,99999,9,99,9,99,9",,"10119,1,99999,9",,,,,,"MET105METAR LPSJ 241600Z 29019KT 9999 SCT025 13/05 Q1012 RMK RWY13 31016G27KT 250V350 RWY31 30017G27KT 240V320;",
"08509599999","2010-03-24T17:00:00","4","38.6655","-28.175817","94.79","SAO JORGE, PO","FM-15","LPSJ ","V020","300,1,N,0093,1","22000,1,9,N","011265,1,N,1","+0130,1","+0060,1","99999,9","04,5,+00750,1,99,9",,,,"04,99,1,99,9,99,9,99999,9,99,9,99,9",,"10129,1,99999,9",,,,,,"MET097METAR LPSJ 241700Z 30018KT 9999 SCT025 13/06 Q1013 RMK RWY13 31016G26KT RWY31 30020G30KT 250V330;",
"08509599999","2010-03-25T08:00:00","4","38.6655","-28.175817","94.79","SAO JORGE, PO","FM-15","LPSJ ","V020","330,1,N,0041,1","22000,1,9,N","011265,1,N,1","+0100,1","+0040,1","99999,9","02,5,+00900,1,99,9",,,,"02,99,1,99,9,99,9,99999,9,99,9,99,9",,"10159,1,99999,9",,,,,,"MET083METAR LPSJ 250800Z 33008KT 9999 FEW030 10/04 Q1016 RMK RWY13 34013KT RWY31 32014KT;",
"08509599999","2010-03-25T09:00:00","4","38.6655","-28.175817","94.79","SAO JORGE, PO","FM-15","LPSJ ","V020","320,1,N,0046,1","22000,1,9,N","011265,1,N,1","+0100,1","+0050,1","99999,9","04,5,+00900,1,99,9",,,,"04,99,1,99,9,99,9,99999,9,99,9,99,9",,"10159,1,99999,9",,,,,,"MET083METAR LPSJ 250900Z 32009KT 9999 SCT030 10/05 Q1016 RMK RWY13 33012KT RWY31 32013KT;",
"08509599999","2010-03-25T10:00:00","4","38.6655","-28.175817","94.79","SAO JORGE, PO","FM-15","LPSJ ","V020","310,1,N,0062,1","22000,1,9,N","011265,1,N,1","+0120,1","+0060,1","99999,9","04,5,+00750,1,99,9",,,,"04,99,1,99,9,99,9,99999,9,99,9,99,9",,"10159,1,99999,9",,,,,,"MET083METAR LPSJ 251000Z 31012KT 9999 SCT025 12/06 Q1016 RMK RWY13 32015KT RWY31 31015KT;",
"08509599999","2010-03-25T11:00:00","4","38.6655","-28.175817","94.79","SAO JORGE, PO","FM-15","LPSJ ","V020","290,1,N,0067,1","22000,1,9,N","011265,1,N,1","+0120,1","+0060,1","99999,9","04,5,+00900,1,99,9",,,,"04,99,1,99,9,99,9,99999,9,99,9,99,9",,"10159,1,99999,9",,,,,,"MET099METAR LPSJ 251100Z 29013KT 9999 SCT030 12/06 Q1016 RMK RWY13 31012KT 250V340 RWY31 29015KT 230V310;",
"08509599999","2010-03-25T14:00:00","4","38.6655","-28.175817","94.79","SAO JORGE, PO","FM-15","LPSJ ","V020","300,1,N,0067,1","99999,9,C,N","011265,1,N,1","+0130,1","+0070,1","99999,9","04,5,+00900,1,99,9","04,5,+01200,1,99,9",,,"04,99,1,99,9,99,9,99999,9,99,9,99,9",,"10159,1,99999,9",,,,,,"MET090METAR LPSJ 251400Z 30013KT 9999 SCT030 SCT040 13/07 Q1016 RMK RWY13 31014KT RWY31 30015KT;","P01 012003SCOCIG"
"08509599999","2010-03-25T15:00:00","4","38.6655","-28.175817","94.79","SAO JORGE, PO","FM-15","LPSJ ","V020","280,1,N,0062,1","22000,1,9,N","011265,1,N,1","+0140,1","+0080,1","99999,9","04,5,+00900,1,99,9",,,,"04,99,1,99,9,99,9,99999,9,99,9,99,9",,"10159,1,99999,9",,,,,,"MET099METAR LPSJ 251500Z 28012KT 9999 SCT030 14/08 Q1016 RMK RWY13 30010KT 240V340 RWY31 28014KT 210V310;",
"08509599999","2010-03-25T16:00:00","4","38.6655","-28.175817","94.79","SAO JORGE, PO","FM-15","LPSJ ","V020","270,1,N,0067,1","99999,9,C,N","011265,1,N,1","+0150,1","+0070,1","99999,9","04,5,+00900,1,99,9","04,5,+01200,1,99,9",,,"04,99,1,99,9,99,9,99999,9,99,9,99,9",,"10159,1,99999,9",,,,,,"MET109METAR LPSJ 251600Z 27013KT 9999 SCT030 SCT040 15/07 Q1016 RMK RWY13 30010KT 240V350 RWY31 27010G22KT 210V320;","P01 012003SCOCIG"
"08509599999","2010-03-25T17:00:00","4","38.6655","-28.175817","94.79","SAO JORGE, PO","FM-15","LPSJ ","V020","280,1,N,0062,1","99999,9,C,N","011265,1,N,1","+0140,1","+0080,1","99999,9","04,5,+00750,1,99,9","04,5,+01200,1,99,9",,,"04,99,1,99,9,99,9,99999,9,99,9,99,9",,"10159,1,99999,9",,,,,,"MET106METAR LPSJ 251700Z 28012KT 9999 SCT025 SCT040 14/08 Q1016 RMK RWY13 30011KT 260V330 RWY31 28013KT 230V310;","P01 012003SCOCIG"
"08509599999","2010-03-26T10:00:00","4","38.6655","-28.175817","94.79","SAO JORGE, PO","FM-15","LPSJ ","V020","999,9,V,0026,1","22000,1,9,N","011265,1,N,1","+0150,1","+0100,1","99999,9","04,5,+00750,1,99,9",,,,"04,99,1,99,9,99,9,99999,9,99,9,99,9",,"10169,1,99999,9",,,,,,"MET083METAR LPSJ 261000Z VRB05KT 9999 SCT025 15/10 Q1017 RMK RWY13 VRB04KT RWY31 VRB04KT;",
"08509599999","2010-03-26T11:00:00","4","38.6655","-28.175817","94.79","SAO JORGE, PO","FM-15","LPSJ ","V020","999,9,V,0026,1","22000,1,9,N","011265,1,N,1","+0160,1","+0100,1","99999,9","04,5,+00750,1,99,9",,,,"04,99,1,99,9,99,9,99999,9,99,9,99,9",,"10180,1,99999,9",,,,,,"MET083METAR LPSJ 261100Z VRB05KT 9999 SCT025 16/10 Q1018 RMK RWY13 VRB04KT RWY31 VRB03KT;",
"08509599999","2010-03-26T12:00:00","4","38.6655","-28.175817","94.79","SAO JORGE, PO","FM-15","LPSJ ","V020","170,1,N,0031,1","22000,1,9,N","011265,1,N,1","+0180,1","+0110,1","99999,9","04,5,+00750,1,99,9",,,,"04,99,1,99,9,99,9,99999,9,99,9,99,9",,"10180,1,99999,9",,,,,,"MET083METAR LPSJ 261200Z 17006KT 9999 SCT025 18/11 Q1018 RMK RWY13 17004KT RWY31 18006KT;",
"08509599999","2010-03-27T10:00:00","4","38.6655","-28.175817","94.79","SAO JORGE, PO","FM-15","LPSJ ","V020","130,1,N,0057,1","00420,1,C,N","008000,1,N,1","+0150,1","+0130,1","99999,9","04,5,+00180,1,99,9","07,5,+00420,1,99,9","07,5,+02100,1,99,9",,"07,99,1,99,9,99,9,99999,9,99,9,99,9",,"10129,1,99999,9","61,1",,,,,"MET117METAR LPSJ 271000Z 13011KT 8000 -RA SCT006 BKN014 BKN070 15/13 Q1013 RMK RWY13 13010KT 100V190 RWY31 15008KT 110V180;",
"08509599999","2010-03-27T12:00:00","4","38.6655","-28.175817","94.79","SAO JORGE, PO","FM-15","LPSJ ","V020","120,1,N,0046,1","00420,1,C,N","008000,1,N,1","+0150,1","+0130,1","99999,9","02,5,+00300,1,99,9","07,5,+00420,1,99,9","07,5,+02100,1,99,9",,"07,99,1,99,9,99,9,99999,9,99,9,99,9","999,M,+9999,9","10129,1,99999,9","61,1",,,,,"MET101METAR LPSJ 271200Z 12009KT 8000 -RA FEW010 BKN014 BKN070 15/13 Q1013 RMK RWY13 13010KT RWY31 11007KT;","Q01 -00072ATMX  "
"08509599999","2010-03-27T13:00:00","4","38.6655","-28.175817","94.79","SAO JORGE, PO","FM-15","LPSJ ","V020","140,1,N,0051,1","00420,1,C,N","011265,1,N,1","+0160,1","+0130,1","99999,9","07,5,+00420,1,99,9","07,5,+00900,1,99,9",,,"07,99,1,99,9,99,9,99999,9,99,9,99,9",,"10119,1,99999,9",,,,,,"MET106METAR LPSJ 271300Z 14010KT 9999 BKN014 BKN030 16/13 Q1012 RMK RWY13 14009KT 120V190 RWY31 14010KT 110V170;",
"08509599999","2010-03-27T14:00:00","4","38.6655","-28.175817","94.79","SAO JORGE, PO","FM-15","LPSJ ","V020","130,1,N,0041,1","00390,1,C,N","011265,1,N,1","+0150,1","+0130,1","99999,9","07,5,+00390,1,99,9","07,5,+00900,1,99,9",,,"07,99,1,99,9,99,9,99999,9,99,9,99,9",,"10119,1,99999,9",,,,,,"MET098METAR LPSJ 271400Z 13008KT 9999 BKN013 BKN030 15/13 Q1012 RMK RWY13 14006KT 120V180 RWY31 13010KT;",
"08509599999","2010-03-27T15:00:00","4","38.6655","-28.175817","94.79","SAO JORGE, PO","FM-15","LPSJ ","V020","150,1,N,0041,1","00360,1,C,N","008000,1,N,1","+0150,1","+0130,1","99999,9","02,5,+00210,1,99,9","07,5,+00360,1,99,9","07,5,+00900,1,99,9",,"07,99,1,99,9,99,9,99999,9,99,9,99,9",,"10108,1,99999,9","80,1",,,,,"MET119METAR LPSJ 271500Z 15008KT 8000 -SHRA FEW007 BKN012 BKN030 15/13 Q1011 RMK RWY13 15005KT 120V210 RWY31 17008KT 150V240;",
"08509599999","2010-03-27T16:00:00","4","38.6655","-28.175817","94.79","SAO JORGE, PO","FM-15","LPSJ ","V020","120,1,N,0051,1","00360,1,C,N","008000,1,N,1","+0150,1","+0140,1","99999,9","02,5,+00210,1,99,9","07,5,+00360,1,99,9","07,5,+00900,1,99,9",,"07,99,1,99,9,99,9,99999,9,99,9,99,9",,"10102,1,99999,9","80,1",,,,,"MET103METAR LPSJ 271600Z 12010KT 8000 -SHRA FEW007 BKN012 BKN030 15/14 Q1010 RMK RWY13 13010KT RWY31 12009KT;",
"08509599999","2010-03-27T17:00:00","4","38.6655","-28.175817","94.79","SAO JORGE, PO","FM-15","LPSJ ","V020","170,1,N,0031,1","00330,1,C,N","007000,1,N,1","+0150,1","+0140,1","99999,9","02,5,+00180,1,99,9","07,5,+00330,1,99,9","07,5,+00900,1,99,9",,"07,99,1,99,9,99,9,99999,9,99,9,99,9",,"10102,1,99999,9","80,1",,,,,"MET119METAR LPSJ 271700Z 17006KT 7000 -SHRA FEW006 BKN011 BKN030 15/14 Q1010 RMK RWY13 18004KT 110V240 RWY31 18005KT 120V230;",
"08509599999","2010-03-27T18:00:00","4","38.6655","-28.175817","94.79","SAO JORGE, PO","FM-15","LPSJ ","V020","180,1,N,0010,1","00390,1,C,N","011265,1,N,1","+0140,1","+0130,1","99999,9","02,5,+00240,1,99,9","07,5,+00390,1,99,9","07,5,+00900,1,99,9",,"07,99,1,99,9,99,9,99999,9,99,9,99,9",,"10091,1,99999,9",,,,,,"MET097METAR LPSJ 271800Z 18002KT 9999 FEW008 BKN013 BKN030 14/13 Q1009 RMK RWY13 13004KT RWY31 13004KT;",
"08509599999","2010-03-28T10:00:00","4","38.6655","-28.175817","94.79","SAO JORGE, PO","FM-15","LPSJ ","V020","270,1,N,0062,1","99999,9,C,N","011265,1,N,1","+0140,1","+0120,1","99999,9","02,5,+00180,1,99,9","04,5,+00420,1,99,9",,,"04,99,1,99,9,99,9,99999,9,99,9,99,9",,"10071,1,99999,9",,,,,,"MET106METAR LPSJ 281000Z 27012KT 9999 FEW006 SCT014 14/12 Q1007 RMK RWY13 28008KT 240V340 RWY31 26013KT 230V300;","P01 004203SCOCIG"
"08509599999","2010-03-28T13:00:00","4","38.6655","-28.175817","94.79","SAO JORGE, PO","FM-15","LPSJ ","V020","290,1,N,0098,1","00360,5,C,N","008000,1,N,1","+0150,1","+0120,1","99999,9","02,5,+00240,1,99,9","04,5,+00360,1,99,9","02,5,+00420,1,02,5",,,,"10081,1,99999,9","16,1",,,,,"MET124METAR LPSJ 281300Z 29019KT 8000 VCSH FEW008 SCT012 FEW014TCU 15/12 Q1008 RMK RWY13 30016KT 260V360 RWY31 29016G26KT 240V330;","Q01+000022SCOTCV"
"08509599999","2010-03-28T14:00:00","4","38.6655","-28.175817","94.79","SAO JORGE, PO","FM-15","LPSJ ","V020","300,1,N,0103,1","99999,9,C,N","008000,1,N,1","+0150,1","+0130,1","99999,9","02,5,+00300,1,99,9","04,5,+00420,1,99,9",,,"04,99,1,99,9,99,9,99999,9,99,9,99,9",,"10091,1,99999,9","16,1",,,,,"MET114METAR LPSJ 281400Z 30020KT 8000 VCSH FEW010 SCT014 15/13 Q1009 RMK RWY13 31016KT 270V350 RWY31 30016G26KT 260V330;","P01 004203SCOCIG"
"08509599999","2010-03-29T10:00:00","4","38.6655","-28.175817","94.79","SAO JORGE, PO","FM-15","LPSJ ","V020","320,1,N,0041,1","22000,1,9,N","011265,1,N,1","+0130,1","+0100,1","99999,9","04,5,+00450,1,99,9",,,,"04,99,1,99,9,99,9,99999,9,99,9,99,9",,"10220,1,99999,9","80,1",,,,,"MET089METAR LPSJ 291000Z 32008KT 9999 -SHRA SCT015 13/10 Q1022 RMK RWY13 34008KT RWY31 33009KT;",
"08509599999","2010-03-29T11:00:00","4","38.6655","-28.175817","94.79","SAO JORGE, PO","FM-15","LPSJ ","V020","310,1,N,0051,1","22000,1,9,N","011265,1,N,1","+0140,1","+0100,1","99999,9","02,5,+00480,1,99,9",,,,"02,99,1,99,9,99,9,99999,9,99,9,99,9",,"10220,1,99999,9",,,,,,"MET091METAR LPSJ 291100Z 31010KT 9999 FEW016 14/10 Q1022 RMK RWY13 33010KT 310V030 RWY31 33011KT;",
"08509599999","2010-03-29T12:00:00","4","38.6655","-28.175817","94.79","SAO JORGE, PO","FM-15","LPSJ ","V020","310,1,N,0036,1","22000,1,9,N","011265,1,N,1","+0150,1","+0100,1","99999,9","04,5,+00540,1,99,9",,,,"04,99,1,99,9,99,9,99999,9,99,9,99,9",,"10230,1,99999,9",,,,,,"MET099METAR LPSJ 291200Z 31007KT 9999 SCT018 15/10 Q1023 RMK RWY13 32008KT 300V360 RWY31 33010KT 260V350;",
"08509599999","2010-03-29T14:00:00","4","38.6655","-28.175817","94.79","SAO JORGE, PO","FM-15","LPSJ ","V020","030,1,N,0031,1","99999,9,C,N","011265,1,N,1","+0160,1","+0110,1","99999,9","02,5,+00660,1,99,9","04,5,+01200,1,99,9",,,"04,99,1,99,9,99,9,99999,9,99,9,99,9",,"10240,1,99999,9",,,,,,"MET114METAR LPSJ 291400Z 03006KT 330V060 9999 FEW022 SCT040 16/11 Q1024 RMK RWY13 03009KT 330V080 RWY31 36010KT 330V060;","P01 012003SCOCIG"
"08509599999","2010-03-29T15:00:00","4","38.6655","-28.175817","94.79","SAO JORGE, PO","FM-15","LPSJ ","V020","030,1,N,0031,1","99999,9,C,N","011265,1,N,1","+0160,1","+0120,1","99999,9","02,5,+00750,1,99,9","04,5,+01200,1,99,9",,,"04,99,1,99,9,99,9,99999,9,99,9,99,9",,"10240,1,99999,9",,,,,,"MET106METAR LPSJ 291500Z 03006KT 9999 FEW025 SCT040 16/12 Q1024 RMK RWY13 01007KT 340V080 RWY31 03010KT 340V060;","P01 012003SCOCIG"
"08509599999","2010-03-29T16:00:00","4","38.6655","-28.175817","94.79","SAO JORGE, PO","FM-15","LPSJ ","V020","020,1,N,0036,1","01200,1,C,N","011265,1,N,1","+0160,1","+0100,1","99999,9","02,5,+00750,1,99,9","07,5,+01200,1,99,9",,,"07,99,1,99,9,99,9,99999,9,99,9,99,9",,"10240,1,99999,9",,,,,,"MET106METAR LPSJ 291600Z 02007KT 9999 FEW025 BKN040 16/10 Q1024 RMK RWY13 01005KT 330V060 RWY31 03011KT 360V070;",
"08509599999","2010-03-30T10:00:00","4","38.6655","-28.175817","94.79","SAO JORGE, PO","FM-15","LPSJ ","V020","080,1,N,0021,1","22000,1,9,N","011265,1,N,1","+0130,1","+0090,1","99999,9","02,5,+00750,1,99,9",,,,"02,99,1,99,9,99,9,99999,9,99,9,99,9","999,M,+9999,9","10281,1,99999,9",,,,,,"MET083METAR LPSJ 301000Z 08004KT 9999 FEW025 13/09 Q1028 RMK RWY13 12006KT RWY31 10004KT;","Q01 +00042ATMX  "
"08509599999","2010-03-30T11:00:00","4","38.6655","-28.175817","94.79","SAO JORGE, PO","FM-15","LPSJ ","V020","150,1,N,0031,1","22000,1,9,N","011265,1,N,1","+0140,1","+0090,1","99999,9","02,5,+00750,1,99,9",,,,"02,99,1,99,9,99,9,99999,9,99,9,99,9",,"10281,1,99999,9",,,,,,"MET083METAR LPSJ 301100Z 15006KT 9999 FEW025 14/09 Q1028 RMK RWY13 16005KT RWY31 16004KT;",
"08509599999","2010-03-30T13:00:00","4","38.6655","-28.175817","94.79","SAO JORGE, PO","FM-15","LPSJ ","V020","150,1,N,0046,1","22000,1,9,N","011265,1,N,1","+0150,1","+0110,1","99999,9","02,5,+00750,1,99,9",,,,"02,99,1,99,9,99,9,99999,9,99,9,99,9",,"10281,1,99999,9",,,,,,"MET091METAR LPSJ 301300Z 15009KT 9999 FEW025 15/11 Q1028 RMK RWY13 15007KT 120V200 RWY31 16007KT;",
"08509599999","2010-03-30T14:00:00","4","38.6655","-28.175817","94.79","SAO JORGE, PO","FM-15","LPSJ ","V020","150,1,N,0046,1","22000,1,9,N","011265,1,N,1","+0160,1","+0110,1","99999,9","02,5,+00750,1,99,9",,,,"02,99,1,99,9,99,9,99999,9,99,9,99,9",,"10281,1,99999,9",,,,,,"MET099METAR LPSJ 301400Z 15009KT 9999 FEW025 16/11 Q1028 RMK RWY13 16006KT 130V200 RWY31 16006KT 130V200;",
"08509599999","2010-03-30T15:00:00","4","38.6655","-28.175817","94.79","SAO JORGE, PO","FM-15","LPSJ ","V020","150,1,N,0046,1","22000,1,9,N","011265,1,N,1","+0150,1","+0120,1","99999,9","02,5,+00660,1,99,9",,,,"02,99,1,99,9,99,9,99999,9,99,9,99,9",,"10271,1,99999,9",,,,,,"MET099METAR LPSJ 301500Z 15009KT 9999 FEW022 15/12 Q1027 RMK RWY13 16006KT 130V200 RWY31 16006KT 120V190;",
"08509599999","2010-03-30T16:00:00","4","38.6655","-28.175817","94.79","SAO JORGE, PO","FM-15","LPSJ ","V020","150,1,N,0041,1","22000,1,9,N","011265,1,N,1","+0160,1","+0110,1","99999,9","02,5,+00660,1,99,9",,,,"02,99,1,99,9,99,9,99999,9,99,9,99,9",,"10281,1,99999,9",,,,,,"MET099METAR LPSJ 301600Z 15008KT 9999 FEW022 16/11 Q1028 RMK RWY13 16006KT 120V200 RWY31 16005KT 140V200;",
"08509599999","2010-03-31T09:00:00","4","38.6655","-28.175817","94.79","SAO JORGE, PO","FM-15","LPSJ ","V020","999,9,V,0010,1","22000,1,9,N","011265,1,N,1","+0120,1","+0100,1","99999,9","02,5,+00480,1,99,9",,,,"02,99,1,99,9,99,9,99999,9,99,9,99,9",,"10281,1,99999,9",,,,,,"MET083METAR LPSJ 310900Z VRB02KT 9999 FEW016 12/10 Q1028 RMK RWY13 07002KT RWY31 07002KT;",
"08509599999","2010-03-31T10:00:00","4","38.6655","-28.175817","94.79","SAO JORGE, PO","FM-15","LPSJ ","V020","999,9,V,0005,1","22000,1,9,N","011265,1,N,1","+0140,1","+0100,1","99999,9","02,5,+00540,1,99,9",,,,"02,99,1,99,9,99,9,99999,9,99,9,99,9",,"10281,1,99999,9",,,,,,"MET083METAR LPSJ 311000Z VRB01KT 9999 FEW018 14/10 Q1028 RMK RWY13 00000KT RWY31 VRB02KT;",
"08509599999","2010-03-31T11:00:00","4","38.6655","-28.175817","94.79","SAO JORGE, PO","FM-15","LPSJ ","V020","999,9,V,0010,1","22000,1,9,N","011265,1,N,1","+0140,1","+0110,1","99999,9","02,5,+00540,1,99,9",,,,"02,99,1,99,9,99,9,99999,9,99,9,99,9",,"10281,1,99999,9",,,,,,"MET083METAR LPSJ 311100Z VRB02KT 9999 FEW018 14/11 Q1028 RMK RWY13 VRB03KT RWY31 VRB03KT;",
"08509599999","2010-03-31T12:00:00","4","38.6655","-28.175817","94.79","SAO JORGE, PO","FM-15","LPSJ ","V020","999,9,V,0015,1","22000,1,9,N","011265,1,N,1","+0140,1","+0110,1","99999,9","02,5,+00480,1,99,9",,,,"02,99,1,99,9,99,9,99999,9,99,9,99,9",,"10281,1,99999,9",,,,,,"MET083METAR LPSJ 311200Z VRB03KT 9999 FEW016 14/11 Q1028 RMK RWY13 VRB03KT RWY31 VRB02KT;",
"08509599999","2010-03-31T13:00:00","4","38.6655","-28.175817","94.79","SAO JORGE, PO","FM-15","LPSJ ","V020","180,1,N,0021,1","22000,1,9,N","011265,1,N,1","+0150,1","+0110,1","99999,9","02,5,+00480,1,99,9",,,,"02,99,1,99,9,99,9,99999,9,99,9,99,9",,"10281,1,99999,9",,,,,,"MET083METAR LPSJ 311300Z 18004KT 9999 FEW016 15/11 Q1028 RMK RWY13 19004KT RWY31 20004KT;",
"08509599999","2010-03-31T14:00:00","4","38.6655","-28.175817","94.79","SAO JORGE, PO","FM-15","LPSJ ","V020","180,1,N,0026,1","22000,1,9,N","011265,1,N,1","+0160,1","+0120,1","99999,9","02,5,+00600,1,99,9",,,,"02,99,1,99,9,99,9,99999,9,99,9,99,9",,"10281,1,99999,9",,,,,,"MET083METAR LPSJ 311400Z 18005KT 9999 FEW020 16/12 Q1028 RMK RWY13 18005KT RWY31 19004KT;",
"08509599999","2010-03-31T15:00:00","4","38.6655","-28.175817","94.79","SAO JORGE, PO","FM-15","LPSJ ","V020","190,1,N,0026,1","22000,1,9,N","011265,1,N,1","+0160,1","+0120,1","99999,9","02,5,+00600,1,99,9",,,,"02,99,1,99,9,99,9,99999,9,99,9,99,9",,"10281,1,99999,9",,,,,,"MET083METAR LPSJ 311500Z 19005KT 9999 FEW020 16/12 Q1028 RMK RWY13 19005KT RWY31 20005KT;",
"08509599999","2010-03-31T16:00:00","4","38.6655","-28.175817","94.79","SAO JORGE, PO","FM-15","LPSJ ","V020","190,1,N,0026,1","22000,1,9,N","011265,1,N,1","+0160,1","+0120,1","99999,9","02,5,+00600,1,99,9",,,,"02,99,1,99,9,99,9,99999,9,99,9,99,9",,"10281,1,99999,9",,,,,,"MET083METAR LPSJ 311600Z 19005KT 9999 FEW020 16/12 Q1028 RMK RWY13 20005KT RWY31 21004KT;",
"08509599999","2010-04-01T11:00:00","4","38.6655","-28.175817","94.79","SAO JORGE, PO","FM-15","LPSJ ","V020","170,1,N,0026,1","22000,1,9,N","011265,1,N,1","+0140,1","+0100,1","99999,9","02,5,+00750,1,99,9",,,,"02,99,1,99,9,99,9,99999,9,99,9,99,9",,"10271,1,99999,9",,,,,,"MET083METAR LPSJ 011100Z 17005KT 9999 FEW025 14/10 Q1027 RMK RWY13 16004KT RWY31 18003KT;",
"08509599999","2010-04-01T12:00:00","4","38.6655","-28.175817","94.79","SAO JORGE, PO","FM-15","LPSJ ","V020","190,1,N,0026,1","99999,9,C,N","011265,1,N,1","+0150,1","+0110,1","99999,9","02,5,+00750,1,99,9","04,5,+01050,1,99,9",,,"04,99,1,99,9,99,9,99999,9,99,9,99,9",,"10271,1,99999,9",,,,,,"MET090METAR LPSJ 011200Z 19005KT 9999 FEW025 SCT035 15/11 Q1027 RMK RWY13 17003KT RWY31 17005KT;","P01 010503SCOCIG"
"08509599999","2010-04-02T09:00:00","4","38.6655","-28.175817","94.79","SAO JORGE, PO","FM-15","LPSJ ","V020","999,9,V,0010,1","22000,1,9,N","011265,1,N,1","+0140,1","+0100,1","99999,9","02,5,+00750,1,99,9",,,,"02,99,1,99,9,99,9,99999,9,99,9,99,9",,"10240,1,99999,9",,,,,,"MET083METAR LPSJ 020900Z VRB02KT 9999 FEW025 14/10 Q1024 RMK RWY13 VRB02KT RWY31 VRB02KT;",
"08509599999","2010-04-02T10:00:00","4","38.6655","-28.175817","94.79","SAO JORGE, PO","FM-15","LPSJ ","V020","150,1,N,0031,1","22000,1,9,N","011265,1,N,1","+0150,1","+0110,1","99999,9","02,5,+00750,1,99,9",,,,"02,99,1,99,9,99,9,99999,9,99,9,99,9",,,,,,,,"MET082METAR LPSJ 021000Z 15006KT 9999 FEW025 15/11 1024 RMK RWY13 16004KT RWY31 15005KT;",
"08509599999","2010-04-02T11:00:00","4","38.6655","-28.175817","94.79","SAO JORGE, PO","FM-15","LPSJ ","V020","150,1,N,0031,1","99999,9,C,N","011265,1,N,1","+0160,1","+0120,1","99999,9","02,5,+00600,1,99,9","04,5,+01200,1,99,9",,,"04,99,1,99,9,99,9,99999,9,99,9,99,9",,"10251,1,99999,9",,,,,,"MET090METAR LPSJ 021100Z 15006KT 9999 FEW020 SCT040 16/12 Q1025 RMK RWY13 16005KT RWY31 16004KT;","P01 012003SCOCIG"
"08509599999","2010-04-02T12:00:00","4","38.6655","-28.175817","94.79","SAO JORGE, PO","FM-15","LPSJ ","V020","170,1,N,0021,1","01200,1,C,N","011265,1,N,1","+0160,1","+0110,1","99999,9","02,5,+00660,1,99,9","07,5,+01200,1,99,9",,,"07,99,1,99,9,99,9,99999,9,99,9,99,9",,"10251,1,99999,9",,,,,,"MET090METAR LPSJ 021200Z 17004KT 9999 FEW022 BKN040 16/11 Q1025 RMK RWY13 17003KT RWY31 17003KT;",
"08509599999","2010-04-02T14:00:00","4","38.6655","-28.175817","94.79","SAO JORGE, PO","FM-15","LPSJ ","V020","320,1,N,0026,1","00900,1,C,N","011265,1,N,1","+0170,1","+0120,1","99999,9","04,5,+00480,1,99,9","07,5,+00900,1,99,9",,,"07,99,1,99,9,99,9,99999,9,99,9,99,9",,"10251,1,99999,9",,,,,,"MET090METAR LPSJ 021400Z 32005KT 9999 SCT016 BKN030 17/12 Q1025 RMK RWY13 33006KT RWY31 32005KT;",
"08509599999","2010-04-02T15:00:00","4","38.6655","-28.175817","94.79","SAO JORGE, PO","FM-15","LPSJ ","V020","360,1,N,0051,1","00900,1,C,N","011265,1,N,1","+0160,1","+0110,1","99999,9","04,5,+00510,1,99,9","07,5,+00900,1,99,9",,,"07,99,1,99,9,99,9,99999,9,99,9,99,9",,"10251,1,99999,9",,,,,,"MET090METAR LPSJ 021500Z 36010KT 9999 SCT017 BKN030 16/11 Q1025 RMK RWY13 36010KT RWY31 36010KT;",
"08509599999","2010-04-02T16:00:00","4","38.6655","-28.175817","94.79","SAO JORGE, PO","FM-15","LPSJ ","V020","300,1,N,0046,1","00900,1,C,N","011265,1,N,1","+0150,1","+0120,1","99999,9","04,5,+00510,1,99,9","07,5,+00900,1,99,9",,,"07,99,1,99,9,99,9,99999,9,99,9,99,9",,"10251,1,99999,9",,,,,,"MET090METAR LPSJ 021600Z 30009KT 9999 SCT017 BKN030 15/12 Q1025 RMK RWY13 31008KT RWY31 30008KT;",
"08509599999","2010-04-03T09:00:00","4","38.6655","-28.175817","94.79","SAO JORGE, PO","FM-15","LPSJ ","V020","110,1,N,0015,1","00420,1,C,N","008000,1,N,1","+0130,1","+0110,1","99999,9","02,5,+00180,1,99,9","07,5,+00420,1,99,9",,,"07,99,1,99,9,99,9,99999,9,99,9,99,9","999,M,+9999,9","10261,1,99999,9","80,1",,,,,"MET096METAR LPSJ 030900Z 11003KT 8000 -SHRA FEW006 BKN014 13/11 Q1026 RMK RWY13 10004KT RWY31 10004KT;","Q01 +00042ATMX  "
"08509599999","2010-04-03T14:00:00","4","38.6655","-28.175817","94.79","SAO JORGE, PO","FM-15","LPSJ ","V020","130,1,N,0067,1","00900,1,C,N","011265,1,N,1","+0170,1","+0140,1","99999,9","02,5,+00420,1,99,9","07,5,+00900,1,99,9",,,"07,99,1,99,9,99,9,99999,9,99,9,99,9",,"10271,1,99999,9",,,,,,"MET106METAR LPSJ 031400Z 13013KT 9999 FEW014 BKN030 17/14 Q1027 RMK RWY13 15009KT 100V190 RWY31 13009KT 080V170;",
"08509599999","2010-04-03T15:00:00","4","38.6655","-28.175817","94.79","SAO JORGE, PO","FM-15","LPSJ ","V020","130,1,N,0067,1","99999,9,C,N","011265,1,N,1","+0170,1","+0140,1","99999,9","02,5,+00480,1,99,9","04,5,+00900,1,99,9",,,"04,99,1,99,9,99,9,99999,9,99,9,99,9",,"10271,1,99999,9",,,,,,"MET106METAR LPSJ 031500Z 13013KT 9999 FEW016 SCT030 17/14 Q1027 RMK RWY13 14009KT 090V180 RWY31 13009KT 080V180;","P01 009003SCOCIG"
"08509599999","2010-04-03T16:00:00","4","38.6655","-28.175817","94.79","SAO JORGE, PO","FM-15","LPSJ ","V020","130,1,N,0072,1","99999,9,C,N","011265,1,N,1","+0170,1","+0130,1","99999,9","02,5,+00480,1,99,9","04,5,+00900,1,99,9",,,"04,99,1,99,9,99,9,99999,9,99,9,99,9",,"10271,1,99999,9",,,,,,"MET106METAR LPSJ 031600Z 13014KT 9999 FEW016 SCT030 17/13 Q1027 RMK RWY13 16010KT 080V200 RWY31 14009KT 070V170;","P01 009003SCOCIG"
"08509599999","2010-04-04T10:00:00","4","38.6655","-28.175817","94.79","SAO JORGE, PO","FM-15","LPSJ ","V020","120,1,N,0057,1","22000,1,9,N","011265,1,N,1","+0160,1","+0130,1","99999,9","02,5,+00480,1,99,9",,,,"02,99,1,99,9,99,9,99999,9,99,9,99,9",,"10240,1,99999,9",,,,,,"MET083METAR LPSJ 041000Z 12011KT 9999 FEW016 16/13 Q1024 RMK RWY13 14008KT RWY31 12009KT;",
"08509599999","2010-04-04T11:00:00","4","38.6655","-28.175817","94.79","SAO JORGE, PO","FM-15","LPSJ ","V020","110,1,N,0062,1","22000,1,9,N","011265,1,N,1","+0160,1","+0130,1","99999,9","02,5,+00360,1,99,9",,,,"02,99,1,99,9,99,9,99999,9,99,9,99,9",,"10240,1,99999,9",,,,,,"MET099METAR LPSJ 041100Z 11012KT 9999 FEW012 16/13 Q1024 RMK RWY13 14011KT 100V160 RWY31 13014KT 100V170;",
"08509599999","2010-04-05T11:00:00","4","38.6655","-28.175817","94.79","SAO JORGE, PO","FM-15","LPSJ ","V020","180,1,N,0036,1","00360,1,C,N","009000,1,N,1","+0170,1","+0150,1","99999,9","04,5,+00210,1,99,9","07,5,+00360,1,99,9",,,"07,99,1,99,9,99,9,99999,9,99,9,99,9",,"10129,1,99999,9",,,,,,"MET098METAR LPSJ 051100Z 18007KT 9000 SCT007 BKN012 17/15 Q1013 RMK RWY13 18006KT 130V200 RWY31 VRB05KT;",
"08509599999","2010-04-05T12:00:00","4","38.6655","-28.175817","94.79","SAO JORGE, PO","FM-15","LPSJ ","V020","240,1,N,0015,1","00360,1,C,N","009000,1,N,1","+0170,1","+0150,1","99999,9","02,5,+00120,1,99,9","07,5,+00360,1,99,9",,,"07,99,1,99,9,99,9,99999,9,99,9,99,9",,"10139,1,99999,9","16,1",,,,,"MET111METAR LPSJ 051200Z 24003KT 9000 VCSH FEW004 BKN012 17/15 Q1014 RMK RWY13 27004KT 240V300 RWY31 26008KT 220V290;",
"08509599999","2010-04-05T13:00:00","4","38.6655","-28.175817","94.79","SAO JORGE, PO","FM-15","LPSJ ","V020","150,1,N,0015,1","00360,1,C,N","009000,1,N,1","+0170,1","+0150,1","99999,9","04,5,+00120,1,99,9","07,5,+00360,1,99,9",,,"07,99,1,99,9,99,9,99999,9,99,9,99,9",,"10129,1,99999,9",,,,,,"MET090METAR LPSJ 051300Z 15003KT 9000 SCT004 BKN012 17/15 Q1013 RMK RWY13 VRB03KT RWY31 15003KT;",
"08509599999","2010-04-05T14:00:00","4","38.6655","-28.175817","94.79","SAO JORGE, PO","FM-15","LPSJ ","V020","270,1,N,0046,1","00360,1,C,N","009000,1,N,1","+0170,1","+0160,1","99999,9","04,5,+00090,1,99,9","07,5,+00360,1,99,9",,,"07,99,1,99,9,99,9,99999,9,99,9,99,9",,"10129,1,99999,9",,,,,,"MET098METAR LPSJ 051400Z 27009KT 9000 SCT003 BKN012 17/16 Q1013 RMK RWY13 VRB06KT RWY31 26013KT 210V290;",
"08509599999","2010-04-05T16:00:00","4","38.6655","-28.175817","94.79","SAO JORGE, PO","FM-15","LPSJ ","V020","280,1,N,0077,1","00360,1,C,N","011265,1,N,1","+0170,1","+0150,1","99999,9","02,5,+00090,1,99,9","07,5,+00360,1,99,9",,,"07,99,1,99,9,99,9,99999,9,99,9,99,9",,"10119,1,99999,9",,,,,,"MET098METAR LPSJ 051600Z 28015KT 9999 FEW003 BKN012 17/15 Q1012 RMK RWY13 VRB08KT RWY31 27015KT 220V320;",
"08509599999","2010-04-06T10:00:00","4","38.6655","-28.175817","94.79","SAO JORGE, PO","FM-15","LPSJ ","V020","070,1,N,0051,1","00360,1,C,N","011265,1,N,1","+0160,1","+0120,1","99999,9","02,5,+00120,1,99,9","04,5,+00360,1,99,9","07,5,+00750,1,99,9",,"07,99,1,99,9,99,9,99999,9,99,9,99,9",,"10159,1,99999,9",,,,,,"MET097METAR LPSJ 061000Z 07010KT 9999 FEW004 SCT012 BKN025 16/12 Q1016 RMK RWY13 08012KT RWY31 07014KT;",
"08509599999","2010-04-06T11:00:00","4","38.6655","-28.175817","94.79","SAO JORGE, PO","FM-15","LPSJ ","V020","060,1,N,0046,1","00360,1,C,N","011265,1,N,1","+0160,1","+0130,1","99999,9","02,5,+00180,1,99,9","07,5,+00360,1,99,9","07,5,+00750,1,99,9",,"07,99,1,99,9,99,9,99999,9,99,9,99,9",,"10169,1,99999,9",,,,,,"MET097METAR LPSJ 061100Z 06009KT 9999 FEW006 BKN012 BKN025 16/13 Q1017 RMK RWY13 08010KT RWY31 06013KT;",
"08509599999","2010-04-06T12:00:00","4","38.6655","-28.175817","94.79","SAO JORGE, PO","FM-15","LPSJ ","V020","999,9,V,0026,1","00750,1,C,N","011265,1,N,1","+0160,1","+0130,1","99999,9","04,5,+00300,1,99,9","07,5,+00750,1,99,9",,,"07,99,1,99,9,99,9,99999,9,99,9,99,9",,"10169,1,99999,9",,,,,,"MET090METAR LPSJ 061200Z VRB05KT 9999 SCT010 BKN025 16/13 Q1017 RMK RWY13 16005KT RWY31 VRB04KT;",
"08509599999","2010-04-06T13:00:00","4","38.6655","-28.175817","94.79","SAO JORGE, PO","FM-15","LPSJ ","V020","130,1,N,0036,1","00360,1,C,N","011265,1,N,1","+0160,1","+0130,1","99999,9","02,5,+00180,1,99,9","04,5,+00360,1,99,9","07,5,+00750,1,99,9",,"07,99,1,99,9,99,9,99999,9,99,9,99,9",,"10169,1,99999,9",,,,,,"MET097METAR LPSJ 061300Z 13007KT 9999 FEW006 SCT012 BKN025 16/13 Q1017 RMK RWY13 15005KT RWY31 13006KT;",
"08509599999","2010-04-06T15:00:00","4","38.6655","-28.175817","94.79","SAO JORGE, PO","FM-15","LPSJ ","V020","150,1,N,0046,1","00360,1,C,N","011265,1,N,1","+0160,1","+0130,1","99999,9","02,5,+00180,1,99,9","04,5,+00360,1,99,9","07,5,+00900,1,99,9",,"07,99,1,99,9,99,9,99999,9,99,9,99,9",,"10169,1,99999,9",,,,,,"MET105METAR LPSJ 061500Z 15009KT 9999 FEW006 SCT012 BKN030 16/13 Q1017 RMK RWY13 15005KT 130V190 RWY31 14006KT;",
"08509599999","2010-04-06T16:00:00","4","38.6655","-28.175817","94.79","SAO JORGE, PO","FM-15","LPSJ ","V020","130,1,N,0062,1","99999,9,C,N","011265,1,N,1","+0160,1","+0130,1","99999,9","02,5,+00180,1,99,9","04,5,+00900,1,99,9",,,"04,99,1,99,9,99,9,99999,9,99,9,99,9",,"10169,1,99999,9",,,,,,"MET098METAR LPSJ 061600Z 13012KT 9999 FEW006 SCT030 16/13 Q1017 RMK RWY13 15008KT 120V190 RWY31 15008KT;","P01 009003SCOCIG"
"08509599999","2010-04-07T10:00:00","4","38.6655","-28.175817","94.79","SAO JORGE, PO","FM-15","LPSJ ","V020","100,1,N,0057,1","00120,1,C,N","005000,1,N,1","+0170,1","+0160,1","99999,9","02,5,+00030,1,99,9","07,5,+00120,1,99,9",,,"07,99,1,99,9,99,9,99999,9,99,9,99,9","999,M,+9999,9","10139,1,99999,9",,,,,,"MET090METAR LPSJ 071000Z 10011KT 5000 FEW001 BKN004 17/16 Q1014 RMK RWY13 13013KT RWY31 11013KT;","Q01 -00132ATMX  "
"08509599999","2010-04-07T15:00:00","4","38.6655","-28.175817","94.79","SAO JORGE, PO","FM-15","LPSJ ","V020","120,1,N,0072,1","00015,1,9,N","000100,1,N,1","+0160,1","+0160,1","99999,9","09,1,+00015,1,99,9",,,,"09,99,1,99,9,99,9,00025,1,99,9,99,9",,"10129,1,99999,9","45,1",,,,,"MET093METAR LPSJ 071500Z 12014KT 0100 FG VV000 16/16 Q1013 RMK RWY13 14011KT 090V170 RWY31 090V160;",
"08509599999","2010-04-07T16:00:00","4","38.6655","-28.175817","94.79","SAO JORGE, PO","FM-15","LPSJ ","V020","110,1,N,0087,1","00015,1,9,N","000300,1,N,1","+0160,1","+0160,1","99999,9","09,1,+00015,1,99,9",,,,"09,99,1,99,9,99,9,00025,1,99,9,99,9",,"10129,1,99999,9","45,1",,,,,"MET085METAR LPSJ 071600Z 11017KT 0300 FG VV000 16/16 Q1013 RMK RWY13 13019KT RWY31 13018KT;",
"08509599999","2010-04-07T17:00:00","4","38.6655","-28.175817","94.79","SAO JORGE, PO","FM-15","LPSJ ","V020","130,1,N,0077,1","00150,1,C,N","004000,1,N,1","+0160,1","+0160,1","99999,9","04,5,+00030,1,99,9","07,5,+00150,1,99,9","07,5,+00600,1,99,9",,"07,99,1,99,9,99,9,99999,9,99,9,99,9",,"10119,1,99999,9",,,,,,"MET105METAR LPSJ 071700Z 13015KT 4000 SCT001 BKN005 BKN020 16/16 Q1012 RMK RWY13 15011KT 100V180 RWY31 VRB07KT;",
"08509599999","2010-04-07T18:00:00","4","38.6655","-28.175817","94.79","SAO JORGE, PO","FM-15","LPSJ ","V020","130,1,N,0051,1","00150,1,C,N","004000,1,N,1","+0160,1","+0160,1","99999,9","04,5,+00030,1,99,9","07,5,+00150,1,99,9","07,5,+00420,1,99,9","02,5,+00480,1,09,5",,,"10119,1,99999,9","10,1","61,1",,,,"MET129METAR LPSJ 071800Z 13010KT 4000 -RA BR SCT001 BKN005 BKN014 FEW016CB 16/16 Q1012 RMK RWY13 15007KT 110V170 RWY31 13007KT 100V170;","Q01+000022SCOTCV"
"08509599999","2010-04-07T19:00:00","4","38.6655","-28.175817","94.79","SAO JORGE, PO","FM-15","LPSJ ","V020","110,1,N,0062,1","00150,1,C,N","004000,1,N,1","+0160,1","+0150,1","99999,9","02,5,+00090,1,99,9","07,5,+00150,1,99,9","07,5,+00360,1,99,9",,"07,99,1,99,9,99,9,99999,9,99,9,99,9","999,M,+9999,9","10129,1,99999,9","10,1","61,1",,,,"MET104METAR LPSJ 071900Z 11012KT 4000 -RA BR FEW003 BKN005 BKN012 16/15 Q1013 RMK RWY13 12014KT RWY31 11012KT;","Q01 -00122ATMX  "
"08509599999","2010-04-07T20:00:00","4","38.6655","-28.175817","94.79","SAO JORGE, PO","FM-15","LPSJ ","V020","110,1,N,0062,1","00150,1,C,N","004000,1,N,1","+0150,1","+0140,1","99999,9","04,5,+00090,1,99,9","07,5,+00150,1,99,9","07,5,+00360,1,99,9",,"07,99,1,99,9,99,9,99999,9,99,9,99,9",,"10139,1,99999,9","10,1","61,1",,,,"MET104METAR LPSJ 072000Z 11012KT 4000 -RA BR SCT003 BKN005 BKN012 15/14 Q1014 RMK RWY13 12010KT RWY31 12013KT;",
"08509599999","2010-04-08T09:00:00","4","38.6655","-28.175817","94.79","SAO JORGE, PO","FM-15","LPSJ ","V020","140,1,N,0062,1","00120,1,C,N","005000,1,N,1","+0160,1","+0150,1","99999,9","02,5,+00030,1,99,9","07,5,+00120,1,99,9","07,5,+00360,1,99,9",,"07,99,1,99,9,99,9,99999,9,99,9,99,9",,"10119,1,99999,9","10,1",,,,,"MET116METAR LPSJ 080900Z 14012KT 5000 BR FEW001 BKN004 BKN012 16/15 Q1012 RMK RWY13 14009KT 100V170 RWY31 14008KT 090V170;",
"08509599999","2010-04-08T10:00:00","4","38.6655","-28.175817","94.79","SAO JORGE, PO","FM-15","LPSJ ","V020","130,1,N,0046,1","99999,9,C,N","005000,1,N,1","+0160,1","+0150,1","99999,9","02,5,+00030,1,99,9","04,5,+00120,1,99,9",,,"04,99,1,99,9,99,9,99999,9,99,9,99,9",,"10129,1,99999,9","10,1",,,,,"MET093METAR LPSJ 081000Z 13009KT 5000 BR FEW001 SCT004 16/15 Q1013 RMK RWY13 14006KT RWY31 14006KT;","P01 001203SCOCIG"
"08509599999","2010-04-08T11:00:00","4","38.6655","-28.175817","94.79","SAO JORGE, PO","FM-15","LPSJ ","V020","130,1,N,0041,1","00120,1,C,N","005000,1,N,1","+0160,1","+0150,1","99999,9","04,5,+00030,1,99,9","04,5,+00120,1,99,9","07,5,+00300,1,99,9",,"07,99,1,99,9,99,9,99999,9,99,9,99,9",,"10129,1,99999,9","10,1",,,,,"MET100METAR LPSJ 081100Z 13008KT 5000 BR SCT001 SCT004 BKN010 16/15 Q1013 RMK RWY13 13006KT RWY31 12007KT;",
"08509599999","2010-04-08T12:00:00","4","38.6655","-28.175817","94.79","SAO JORGE, PO","FM-15","LPSJ ","V020","130,1,N,0041,1","00120,1,C,N","005000,1,N,1","+0160,1","+0150,1","99999,9","04,5,+00030,1,99,9","04,5,+00120,1,99,9","07,5,+00300,1,99,9",,"07,99,1,99,9,99,9,99999,9,99,9,99,9",,"10139,1,99999,9","10,1","16,1",,,,"MET105METAR LPSJ 081200Z 13008KT 5000 VCSH BR SCT001 SCT004 BKN010 16/15 Q1014 RMK RWY13 14005KT RWY31 13005KT;",
"08509599999","2010-04-08T13:00:00","4","38.6655","-28.175817","94.79","SAO JORGE, PO","FM-15","LPSJ ","V020","150,1,N,0031,1","00120,1,C,N","005000,1,N,1","+0170,1","+0160,1","99999,9","02,5,+00030,1,99,9","04,5,+00120,1,99,9","07,5,+00300,1,99,9",,"07,99,1,99,9,99,9,99999,9,99,9,99,9",,"10139,1,99999,9","10,1",,,,,"MET108METAR LPSJ 081300Z 15006KT 5000 BR FEW001 SCT004 BKN010 17/16 Q1014 RMK RWY13 16006KT 110V190 RWY31 VRB08KT;",
"08509599999","2010-04-09T10:00:00","4","38.6655","-28.175817","94.79","SAO JORGE, PO","FM-15","LPSJ ","V020","110,1,N,0026,1","22000,1,9,N","011265,1,N,1","+0170,1","+0130,1","99999,9","02,5,+00600,1,99,9",,,,"02,99,1,99,9,99,9,99999,9,99,9,99,9",,"10159,1,99999,9",,,,,,"MET083METAR LPSJ 091000Z 11005KT 9999 FEW020 17/13 Q1016 RMK RWY13 15004KT RWY31 15004KT;",
"08509599999","2010-04-09T11:00:00","4","38.6655","-28.175817","94.79","SAO JORGE, PO","FM-15","LPSJ ","V020","120,1,N,0010,1","22000,1,9,N","011265,1,N,1","+0180,1","+0130,1","99999,9","02,5,+00660,1,99,9",,,,"02,99,1,99,9,99,9,99999,9,99,9,99,9",,"10159,1,99999,9",,,,,,"MET083METAR LPSJ 091100Z 12002KT 9999 FEW022 18/13 Q1016 RMK RWY13 17003KT RWY31 15003KT;",
"08509599999","2010-04-09T12:00:00","4","38.6655","-28.175817","94.79","SAO JORGE, PO","FM-15","LPSJ ","V020","150,1,N,0015,1","22000,1,9,N","011265,1,N,1","+0180,1","+0140,1","99999,9","02,5,+00660,1,99,9",,,,"02,99,1,99,9,99,9,99999,9,99,9,99,9",,"10159,1,99999,9",,,,,,"MET083METAR LPSJ 091200Z 15003KT 9999 FEW022 18/14 Q1016 RMK RWY13 17004KT RWY31 17004KT;",
"08509599999","2010-04-09T13:00:00","4","38.6655","-28.175817","94.79","SAO JORGE, PO","FM-15","LPSJ ","V020","140,1,N,0041,1","22000,1,9,N","011265,1,N,1","+0180,1","+0140,1","99999,9","02,5,+00750,1,99,9",,,,"02,99,1,99,9,99,9,99999,9,99,9,99,9",,"10159,1,99999,9",,,,,,"MET083METAR LPSJ 091300Z 14008KT 9999 FEW025 18/14 Q1016 RMK RWY13 16006KT RWY31 17007KT;",
"08509599999","2010-04-09T14:00:00","4","38.6655","-28.175817","94.79","SAO JORGE, PO","FM-15","LPSJ ","V020","140,1,N,0036,1","22000,1,9,N","011265,1,N,1","+0190,1","+0140,1","99999,9","02,5,+00750,1,99,9",,,,"02,99,1,99,9,99,9,99999,9,99,9,99,9",,"10159,1,99999,9",,,,,,"MET083METAR LPSJ 091400Z 14007KT 9999 FEW025 19/14 Q1016 RMK RWY13 17005KT RWY31 16005KT;",
"08509599999","2010-04-09T15:00:00","4","38.6655","-28.175817","94.79","SAO JORGE, PO","FM-15","LPSJ ","V020","130,1,N,0036,1","22000,1,9,N","011265,1,N,1","+0190,1","+0140,1","99999,9","02,5,+00750,1,99,9",,,,"02,99,1,99,9,99,9,99999,9,99,9,99,9",,"10159,1,99999,9",,,,,,"MET083METAR LPSJ 091500Z 13007KT 9999 FEW025 19/14 Q1016 RMK RWY13 17005KT RWY31 16003KT;",
"08509599999","2010-04-09T16:00:00","4","38.6655","-28.175817","94.79","SAO JORGE, PO","FM-15","LPSJ ","V020","140,1,N,0046,1","22000,1,9,N","011265,1,N,1","+0200,1","+0140,1","99999,9","02,5,+00750,1,99,9",,,,"02,99,1,99,9,99,9,99999,9,99,9,99,9",,"10149,1,99999,9",,,,,,"MET083METAR LPSJ 091600Z 14009KT 9999 FEW025 20/14 Q1015 RMK RWY13 16007KT RWY31 16006KT;",
"08509599999","2010-04-09T17:00:00","4","38.6655","-28.175817","94.79","SAO JORGE, PO","FM-15","LPSJ ","V020","140,1,N,0036,1","22000,1,9,N","011265,1,N,1","+0190,1","+0140,1","99999,9","02,5,+00750,1,99,9",,,,"02,99,1,99,9,99,9,99999,9,99,9,99,9",,"10149,1,99999,9",,,,,,"MET083METAR LPSJ 091700Z 14007KT 9999 FEW025 19/14 Q1015 RMK RWY13 16005KT RWY31 17005KT;",
"08509599999","2010-04-10T10:00:00","4","38.6655","-28.175817","94.79","SAO JORGE, PO","FM-15","LPSJ ","V020","010,1,N,0082,1","22000,1,9,N","006000,1,N,1","+0130,1","+0120,1","99999,9",,,,,,,"10139,1,99999,9","51,1","61,1",,,,"MET106METAR LPSJ 101000Z 01016KT 340V070 6000 -RADZ 13/12 Q1014 RMK RWY13 01019KT 320V050 RWY31 35019KT 320V020;",
"08509599999","2010-04-10T11:00:00","4","38.6655","-28.175817","94.79","SAO JORGE, PO","FM-15","LPSJ ","V020","020,1,N,0082,1","00360,1,C,N","004000,1,N,1","+0120,1","+0110,1","99999,9","04,5,+00150,1,99,9","07,5,+00360,1,99,9",,,"07,99,1,99,9,99,9,99999,9,99,9,99,9",,"10149,1,99999,9","61,1",,,,,"MET102METAR LPSJ 101100Z 02016KT 320V050 4000 -RA SCT005 BKN012 12/11 Q1015 RMK RWY13 02021KT RWY31 01022KT;",
"08509599999","2010-04-10T13:00:00","4","38.6655","-28.175817","94.79","SAO JORGE, PO","FM-15","LPSJ ","V020","999,9,V,0046,1","00480,1,C,N","005000,1,N,1","+0120,1","+0090,1","99999,9","04,5,+00300,1,99,9","07,5,+00480,1,99,9",,,"07,99,1,99,9,99,9,99999,9,99,9,99,9",,"10149,1,99999,9","10,1","61,1",,,,"MET100METAR LPSJ 101300Z VRB09KT 5000 -RA BR SCT010 BKN016 12/09 Q1015 RMK RWY13 34012G23KT RWY31 VRB10KT;",
"08509599999","2010-04-10T16:00:00","4","38.6655","-28.175817","94.79","SAO JORGE, PO","FM-15","LPSJ ","V020","020,1,N,0077,1","22000,1,9,N","011265,1,N,1","+0130,1","+0070,1","99999,9","02,5,+00480,1,99,9",,,,"02,99,1,99,9,99,9,99999,9,99,9,99,9",,"10119,1,99999,9",,,,,,"MET093METAR LPSJ 101600Z 02015KT 350V070 9999 FEW016 13/07 Q1012 RMK RWY13 06021KT 020V100 04023KT;",
"08509599999","2010-04-11T10:00:00","4","38.6655","-28.175817","94.79","SAO JORGE, PO","FM-15","LPSJ ","V020","320,1,N,0031,1","00420,1,C,N","009000,1,N,1","+0120,1","+0090,1","99999,9","04,5,+00360,1,99,9","02,5,+00420,1,02,5","07,5,+00750,1,99,9",,"07,99,1,99,9,99,9,99999,9,99,9,99,9",,"10091,1,99999,9","80,1",,,,,"MET122METAR LPSJ 111000Z 32006KT 240V350 9000 -SHRA SCT012 FEW014TCU BKN025 12/09 Q1009 RMK RWY13 01011KT RWY31 33011KT 260V350;",
"08509599999","2010-04-11T11:00:00","4","38.6655","-28.175817","94.79","SAO JORGE, PO","FM-15","LPSJ ","V020","300,1,N,0036,1","00750,1,C,N","011265,1,N,1","+0130,1","+0100,1","99999,9","02,5,+00420,1,99,9","02,5,+00480,1,02,5","07,5,+00750,1,99,9",,"07,99,1,99,9,99,9,99999,9,99,9,99,9",,"10081,1,99999,9",,,,,,"MET124METAR LPSJ 111100Z 30007KT 240V340 9999 FEW014 FEW016TCU BKN025 13/10 Q1008 RMK RWY13 35008KT 290V080 RWY31 31009KT 260V010;",
"08509599999","2010-04-11T12:00:00","4","38.6655","-28.175817","94.79","SAO JORGE, PO","FM-15","LPSJ ","V020","310,1,N,0051,1","00750,1,C,N","011265,1,N,1","+0130,1","+0100,1","99999,9","02,5,+00420,1,99,9","02,5,+00480,1,02,5","07,5,+00750,1,99,9",,"07,99,1,99,9,99,9,99999,9,99,9,99,9",,"10081,1,99999,9","16,1",,,,,"MET121METAR LPSJ 111200Z 31010KT 9999 VCSH FEW014 FEW016TCU BKN025 13/10 Q1008 RMK RWY13 35009KT 310V050 RWY31 32012KT 300V050;",
"08509599999","2010-04-11T13:00:00","4","38.6655","-28.175817","94.79","SAO JORGE, PO","FM-15","LPSJ ","V020","320,1,N,0057,1","00480,1,C,N","007000,1,N,1","+0120,1","+0100,1","99999,9","04,5,+00420,1,99,9","02,5,+00480,1,02,5","07,5,+00750,1,99,9",,"07,99,1,99,9,99,9,99999,9,99,9,99,9",,"10081,1,99999,9","80,1",,,,,"MET106METAR LPSJ 111300Z 32011KT 7000 -SHRA SCT014 FEW016TCU BKN025 12/10 Q1008 RMK RWY13 33015KT RWY31 33015KT;",
"08509599999","2010-04-11T14:00:00","4","38.6655","-28.175817","94.79","SAO JORGE, PO","FM-15","LPSJ ","V020","320,1,N,0046,1","00750,1,C,N","011265,1,N,1","+0130,1","+0080,1","99999,9","02,5,+00420,1,99,9","02,5,+00480,1,02,5","07,5,+00750,1,99,9",,"07,99,1,99,9,99,9,99999,9,99,9,99,9",,"10071,1,99999,9",,,,,,"MET108METAR LPSJ 111400Z 32009KT 9999 FEW014 FEW016TCU BKN025 13/08 Q1007 RMK RWY13 32011KT 260V010 RWY31 32011KT;",
"08509599999","2010-04-11T15:00:00","4","38.6655","-28.175817","94.79","SAO JORGE, PO","FM-15","LPSJ ","V020","320,1,N,0057,1","00480,1,C,N","004000,1,N,1","+0130,1","+0100,1","99999,9","04,5,+00420,1,99,9","02,5,+00480,1,02,5","07,5,+00750,1,99,9",,"07,99,1,99,9,99,9,99999,9,99,9,99,9",,"10071,1,99999,9","80,1",,,,,"MET108METAR LPSJ 111500Z 32011KT 4000 -SHRA SCT014 FEW016TCU BKN025 13/10 Q1007 RMK RWY13 32015KT 300V360 32015KT;",
"08509599999","2010-04-11T16:00:00","4","38.6655","-28.175817","94.79","SAO JORGE, PO","FM-15","LPSJ ","V020","310,1,N,0046,1","00420,1,C,N","004000,1,N,1","+0130,1","+0110,1","99999,9","02,5,+00180,1,99,9","04,5,+00420,1,99,9","02,5,+00480,1,02,5","07,5,+00750,1,99,9","07,99,1,99,9,99,9,99999,9,99,9,99,9",,"10061,1,99999,9","51,1",,,,,"MET111METAR LPSJ 111600Z 31009KT 4000 -DZ FEW006 SCT014 FEW016TCU BKN025 13/11 Q1006 RMK RWY13 31007KT RWY31 29007KT;",
"08509599999","2010-04-12T09:00:00","4","38.6655","-28.175817","94.79","SAO JORGE, PO","FM-15","LPSJ ","V020","060,1,N,0072,1","00600,5,C,N","011265,1,N,1","+0140,1","+0110,1","99999,9","04,5,+00420,1,99,9","02,5,+00600,1,02,5",,,,,"10102,1,99999,9",,,,,,"MET123METAR LPSJ 120900Z 06014KT 340V090 9999 SCT014 FEW020TCU 14/11 Q1010 RMK RWY13 06014G24KT 340V110 RWY31 06017G33KT 340V090;","Q01+000022SCOTCV"
"08509599999","2010-04-12T10:00:00","4","38.6655","-28.175817","94.79","SAO JORGE, PO","FM-15","LPSJ ","V020","050,1,N,0062,1","00600,5,C,N","011265,1,N,1","+0140,1","+0110,1","99999,9","04,5,+00420,1,99,9","02,5,+00600,1,02,5",,,,,"10108,1,99999,9",,,,"0113,1",,"MET126METAR LPSJ 121000Z 05012G22KT 350V090 9999 SCT014 FEW020TCU 14/11 Q1011 RMK RWY13 06016G26KT 340V100 RWY31 04018G32KT 340V080;","Q01+000022SCOTCV"
"08509599999","2010-04-12T12:00:00","4","38.6655","-28.175817","94.79","SAO JORGE, PO","FM-15","LPSJ ","V020","060,1,N,0087,1","00600,5,C,N","011265,1,N,1","+0140,1","+0100,1","99999,9","04,5,+00420,1,99,9","02,5,+00600,1,02,5",,,,,"10119,1,99999,9",,,,,,"MET123METAR LPSJ 121200Z 06017KT 350V100 9999 SCT014 FEW020TCU 14/10 Q1012 RMK RWY13 06013G24KT 360V110 RWY31 05017G32KT 350V090;","Q01+000022SCOTCV"
"08509599999","2010-04-12T13:00:00","4","38.6655","-28.175817","94.79","SAO JORGE, PO","FM-15","LPSJ ","V020","040,1,N,0082,1","00420,1,C,N","011265,1,N,1","+0150,1","+0110,1","99999,9","07,5,+00420,1,99,9","02,5,+00540,1,02,5",,,,,"10119,1,99999,9",,,,,,"MET123METAR LPSJ 121300Z 04016KT 350V090 9999 BKN014 FEW018TCU 15/11 Q1012 RMK RWY13 03013G23KT 350V090 RWY31 03016G27KT 340V080;","Q01+000022SCOTCV"
"08509599999","2010-04-12T14:00:00","4","38.6655","-28.175817","94.79","SAO JORGE, PO","FM-15","LPSJ ","V020","030,1,N,0082,1","00420,1,C,N","011265,1,N,1","+0140,1","+0110,1","99999,9","07,5,+00420,1,99,9","02,5,+00600,1,02,5",,,,,"10119,1,99999,9",,,,,,"MET123METAR LPSJ 121400Z 03016KT 330V080 9999 BKN014 FEW020TCU 14/11 Q1012 RMK RWY13 05014G24KT 350V110 RWY31 03016G30KT 340V090;","Q01+000022SCOTCV"
"08509599999","2010-04-12T15:00:00","4","38.6655","-28.175817","94.79","SAO JORGE, PO","FM-15","LPSJ ","V020","030,1,N,0087,1","00420,1,C,N","011265,1,N,1","+0140,1","+0110,1","99999,9","07,5,+00420,1,99,9","04,5,+00750,1,99,9",,,,,"10119,1,99999,9",,,,,,"MET120METAR LPSJ 121500Z 03017KT 330V090 9999 BKN014 SCT025 14/11 Q1012 RMK RWY13 05017G27KT 330V120 RWY31 03018G34KT 340V080;","Q01+000042SCOTCV"
"08509599999","2010-04-12T16:00:00","4","38.6655","-28.175817","94.79","SAO JORGE, PO","FM-15","LPSJ ","V020","030,1,N,0077,1","00420,1,C,N","011265,1,N,1","+0140,1","+0110,1","99999,9","07,5,+00420,1,99,9","04,5,+00750,1,99,9",,,,,"10119,1,99999,9",,,,,,"MET120METAR LPSJ 121600Z 03015KT 350V090 9999 BKN014 SCT025 14/11 Q1012 RMK RWY13 05016G26KT 340V110 RWY31 03021G32KT 350V080;","Q01+000042SCOTCV"
"08509599999","2010-04-13T08:00:00","4","38.6655","-28.175817","94.79","SAO JORGE, PO","FM-15","LPSJ ","V020","050,1,N,0087,1","99999,9,C,N","011265,1,N,1","+0130,1","+0100,1","99999,9","04,5,+00480,1,99,9","04,5,+00900,1,99,9",,,"04,99,1,99,9,99,9,99999,9,99,9,99,9",,"10139,1,99999,9",,,,,,"MET120METAR LPSJ 130800Z 05017KT 350V120 9999 SCT016 SCT030 13/10 Q1014 RMK RWY13 06014G24KT 350V140 RWY31 05016G27KT 350V120;","P01 009003SCOCIG"
"08509599999","2010-04-13T09:00:00","4","38.6655","-28.175817","94.79","SAO JORGE, PO","FM-15","LPSJ ","V020","060,1,N,0067,1","99999,9,C,N","011265,1,N,1","+0140,1","+0100,1","99999,9","04,5,+00480,1,99,9","04,5,+00900,1,99,9",,,"04,99,1,99,9,99,9,99999,9,99,9,99,9",,"10139,1,99999,9",,,,"0118,1",,"MET123METAR LPSJ 130900Z 06013G23KT 350V100 9999 SCT016 SCT030 14/10 Q1014 RMK RWY13 06016G26KT 350V150 RWY31 05021G34KT 350V100;","P01 009003SCOCIG"
"08509599999","2010-04-13T10:00:00","4","38.6655","-28.175817","94.79","SAO JORGE, PO","FM-15","LPSJ ","V020","060,1,N,0082,1","99999,9,C,N","011265,1,N,1","+0140,1","+0080,1","99999,9","04,5,+00750,1,99,9","04,5,+01200,1,99,9",,,"04,99,1,99,9,99,9,99999,9,99,9,99,9",,"10149,1,99999,9",,,,,,"MET120METAR LPSJ 131000Z 06016KT 360V120 9999 SCT025 SCT040 14/08 Q1015 RMK RWY13 07018G29KT 350V170 RWY31 05018G33KT 350V100;","P01 012003SCOCIG"
"08509599999","2010-04-13T11:00:00","4","38.6655","-28.175817","94.79","SAO JORGE, PO","FM-15","LPSJ ","V020","060,1,N,0082,1","99999,9,C,N","011265,1,N,1","+0140,1","+0100,1","99999,9","02,5,+00600,1,99,9","04,5,+01050,1,99,9",,,"04,99,1,99,9,99,9,99999,9,99,9,99,9",,"10149,1,99999,9",,,,,,"MET120METAR LPSJ 131100Z 06016KT 350V120 9999 FEW020 SCT035 14/10 Q1015 RMK RWY13 06015G26KT 350V140 RWY31 05018G31KT 350V130;","P01 010503SCOCIG"
"08509599999","2010-04-13T12:00:00","4","38.6655","-28.175817","94.79","SAO JORGE, PO","FM-15","LPSJ ","V020","060,1,N,0087,1","99999,9,C,N","011265,1,N,1","+0150,1","+0110,1","99999,9","04,5,+00600,1,99,9","04,5,+01050,1,99,9",,,"04,99,1,99,9,99,9,99999,9,99,9,99,9",,"10159,1,99999,9",,,,,,"MET120METAR LPSJ 131200Z 06017KT 360V130 9999 SCT020 SCT035 15/11 Q1016 RMK RWY13 07012G24KT 350V150 RWY31 06018G30KT 350V120;","P01 010503SCOCIG"
"08509599999","2010-04-13T13:00:00","4","38.6655","-28.175817","94.79","SAO JORGE, PO","FM-15","LPSJ ","V020","050,1,N,0087,1","99999,9,C,N","011265,1,N,1","+0140,1","+0100,1","99999,9","04,5,+00540,1,99,9","04,5,+00900,1,99,9",,,"04,99,1,99,9,99,9,99999,9,99,9,99,9",,"10159,1,99999,9",,,,,,"MET120METAR LPSJ 131300Z 05017KT 350V120 9999 SCT018 SCT030 14/10 Q1016 RMK RWY13 07014G24KT 350V170 RWY31 05017G27KT 330V120;","P01 009003SCOCIG"
"08509599999","2010-04-13T14:00:00","4","38.6655","-28.175817","94.79","SAO JORGE, PO","FM-15","LPSJ ","V020","040,1,N,0077,1","99999,9,C,N","011265,1,N,1","+0150,1","+0090,1","99999,9","04,5,+00540,1,99,9","04,5,+00900,1,99,9",,,"04,99,1,99,9,99,9,99999,9,99,9,99,9",,"10159,1,99999,9",,,,,,"MET120METAR LPSJ 131400Z 04015KT 340V110 9999 SCT018 SCT030 15/09 Q1016 RMK RWY13 06013G24KT 350V180 RWY31 06017G30KT 350V130;","P01 009003SCOCIG"
"08509599999","2010-04-13T15:00:00","4","38.6655","-28.175817","94.79","SAO JORGE, PO","FM-15","LPSJ ","V020","060,1,N,0082,1","99999,9,C,N","011265,1,N,1","+0140,1","+0090,1","99999,9","04,5,+00540,1,99,9","04,5,+00900,1,99,9",,,"04,99,1,99,9,99,9,99999,9,99,9,99,9",,"10159,1,99999,9",,,,,,"MET120METAR LPSJ 131500Z 06016KT 350V110 9999 SCT018 SCT030 14/09 Q1016 RMK RWY13 06015G26KT 350V140 RWY31 05018G31KT 340V120;","P01 009003SCOCIG"
"08509599999","2010-04-13T16:00:00","4","38.6655","-28.175817","94.79","SAO JORGE, PO","FM-15","LPSJ ","V020","060,1,N,0082,1","22000,1,9,N","011265,1,N,1","+0150,1","+0090,1","99999,9","04,5,+00600,1,99,9",,,,"04,99,1,99,9,99,9,99999,9,99,9,99,9",,"10159,1,99999,9",,,,,,"MET113METAR LPSJ 131600Z 06016KT 340V120 9999 SCT020 15/09 Q1016 RMK RWY13 08014G24KT 360V180 RWY31 06017G30KT 350V120;",
"08509599999","2010-04-14T15:00:00","4","38.6655","-28.175817","94.79","SAO JORGE, PO","FM-15","LPSJ ","V020","030,1,N,0093,1","99999,9,C,N","011265,1,N,1","+0130,1","+0080,1","99999,9","02,5,+00480,1,99,9","04,5,+00900,1,99,9",,,"04,99,1,99,9,99,9,99999,9,99,9,99,9",,"10159,1,99999,9",,,,,,"MET120METAR LPSJ 141500Z 03018KT 340V080 9999 FEW016 SCT030 13/08 Q1016 RMK RWY13 05019G30KT 310V120 RWY31 03020G35KT 330V090;","P01 009003SCOCIG"
"08509599999","2010-04-14T16:00:00","4","38.6655","-28.175817","94.79","SAO JORGE, PO","FM-15","LPSJ ","V020","030,1,N,0098,1","99999,9,C,N","011265,1,N,1","+0140,1","+0110,1","99999,9","04,5,+00480,1,99,9","04,5,+00750,1,99,9",,,"04,99,1,99,9,99,9,99999,9,99,9,99,9",,"10159,1,99999,9",,,,,,"MET120METAR LPSJ 141600Z 03019KT 320V090 9999 SCT016 SCT025 14/11 Q1016 RMK RWY13 03014G24KT 010V360 RWY31 03022G33KT 310V090;","P01 007503SCOCIG"
"08509599999","2010-04-15T09:00:00","4","38.6655","-28.175817","94.79","SAO JORGE, PO","FM-15","LPSJ ","V020","999,9,V,0031,1","99999,9,C,N","011265,1,N,1","+0130,1","+0080,1","99999,9","04,5,+00750,1,99,9","04,5,+01200,1,99,9",,,"04,99,1,99,9,99,9,99999,9,99,9,99,9",,"10149,1,99999,9",,,,,,"MET098METAR LPSJ 150900Z VRB06KT 9999 SCT025 SCT040 13/08 Q1015 RMK RWY13 32015KT 230V020 RWY31 VRB04KT;","P01 012003SCOCIG"
"08509599999","2010-04-15T10:00:00","4","38.6655","-28.175817","94.79","SAO JORGE, PO","FM-15","LPSJ ","V020","030,1,N,0062,1","99999,9,C,N","011265,1,N,1","+0130,1","+0080,1","99999,9","04,5,+00600,1,99,9","04,5,+01050,1,99,9",,,"04,99,1,99,9,99,9,99999,9,99,9,99,9",,"10149,1,99999,9",,,,,,"MET117METAR LPSJ 151000Z 03012KT 300V080 9999 SCT020 SCT035 13/08 Q1015 RMK RWY13 35016G27KT 290V020 RWY31 04012KT 010V360;","P01 010503SCOCIG"
"08509599999","2010-04-15T11:00:00","4","38.6655","-28.175817","94.79","SAO JORGE, PO","FM-15","LPSJ ","V020","030,1,N,0072,1","22000,1,9,N","011265,1,N,1","+0140,1","+0090,1","99999,9","04,5,+00540,1,99,9",,,,"04,99,1,99,9,99,9,99999,9,99,9,99,9",,"10139,1,99999,9",,,,,,"MET113METAR LPSJ 151100Z 03014KT 320V110 9999 SCT018 14/09 Q1014 RMK RWY13 35010G20KT 010V360 RWY31 03017G28KT 010V360;",
"08509599999","2010-04-15T12:00:00","4","38.6655","-28.175817","94.79","SAO JORGE, PO","FM-15","LPSJ ","V020","060,1,N,0093,1","22000,1,9,N","011265,1,N,1","+0150,1","+0090,1","99999,9","04,5,+00600,1,99,9",,,,"04,99,1,99,9,99,9,99999,9,99,9,99,9",,"10149,1,99999,9",,,,,,"MET103METAR LPSJ 151200Z 06018KT 010V360 9999 SCT020 15/09 Q1015 RMK RWY13 VRB015KT RWY31 06016G27KT 010V360;",
"08509599999","2010-04-15T13:00:00","4","38.6655","-28.175817","94.79","SAO JORGE, PO","FM-15","LPSJ ","V020","060,1,N,0057,1","22000,1,9,N","011265,1,N,1","+0150,1","+0090,1","99999,9","04,5,+00900,1,99,9",,,,"04,99,1,99,9,99,9,99999,9,99,9,99,9",,"10149,1,99999,9",,,,"0108,1",,"MET116METAR LPSJ 151300Z 06011G21KT 240V120 9999 SCT030 15/09 Q1015 RMK RWY13 35016G26KT 010V360 RWY31 03016G26KT 010V360;",
"08509599999","2010-04-15T14:00:00","4","38.6655","-28.175817","94.79","SAO JORGE, PO","FM-15","LPSJ ","V020","290,1,N,0067,1","99999,9,C,N","011265,1,N,1","+0150,1","+0100,1","99999,9","04,5,+00750,1,99,9","04,5,+01050,1,99,9",,,"04,99,1,99,9,99,9,99999,9,99,9,99,9",,"10139,1,99999,9",,,,,,"MET120METAR LPSJ 151400Z 29013KT 150V350 9999 SCT025 SCT035 15/10 Q1014 RMK RWY13 35013G23KT 270V050 RWY31 32006G17KT 180V030;","P01 010503SCOCIG"
"08509599999","2010-04-16T09:00:00","4","38.6655","-28.175817","94.79","SAO JORGE, PO","FM-15","LPSJ ","V020","300,1,N,0031,1","00480,1,C,N","011265,1,N,1","+0120,1","+0090,1","99999,9","07,5,+00480,1,99,9","04,5,+00900,1,99,9",,,,,"10119,1,99999,9","80,1",,,,,"MET096METAR LPSJ 160900Z 30006KT 9999 -SHRA BKN016 SCT030 12/09 Q1012 RMK RWY13 31006KT RWY31 31010KT;","Q01+000042SCOTCV"
"08509599999","2010-04-16T10:00:00","4","38.6655","-28.175817","94.79","SAO JORGE, PO","FM-15","LPSJ ","V020","999,9,V,0041,1","00540,1,C,N","011265,1,N,1","+0130,1","+0080,1","99999,9","07,5,+00540,1,99,9","04,5,+00900,1,99,9",,,,,"10119,1,99999,9",,,,,,"MET109METAR LPSJ 161000Z VRB08KT 9999 BKN018 SCT030 13/08 Q1012 RMK RWY13 33009KT 010V360 RWY31 06008G18KT 360V150;","Q01+000042SCOTCV"
"08509599999","2010-04-16T11:00:00","4","38.6655","-28.175817","94.79","SAO JORGE, PO","FM-15","LPSJ ","V020","999,9,V,0051,1","99999,9,C,N","011265,1,N,1","+0140,1","+0080,1","99999,9","04,5,+00540,1,99,9","04,5,+00900,1,99,9",,,"04,99,1,99,9,99,9,99999,9,99,9,99,9",,"10119,1,99999,9",,,,,,"MET112METAR LPSJ 161100Z VRB10KT 9999 SCT018 SCT030 14/08 Q1012 RMK RWY13 34012G22KT 290V080 RWY31 32008G19KT 010V360;","P01 009003SCOCIG"
"08509599999","2010-04-16T12:00:00","4","38.6655","-28.175817","94.79","SAO JORGE, PO","FM-15","LPSJ ","V020","290,1,N,0041,1","22000,1,9,N","011265,1,N,1","+0150,1","+0090,1","99999,9","04,5,+00750,1,99,9",,,,"04,99,1,99,9,99,9,99999,9,99,9,99,9",,"10119,1,99999,9",,,,"0093,1",,"MET116METAR LPSJ 161200Z 29008G18KT 180V330 9999 SCT025 15/09 Q1012 RMK RWY13 34012G22KT 280V050 RWY31 32013G23KT 230V030;",
"08509599999","2010-04-16T13:00:00","4","38.6655","-28.175817","94.79","SAO JORGE, PO","FM-15","LPSJ ","V020","300,1,N,0036,1","99999,9,C,N","011265,1,N,1","+0150,1","+0110,1","99999,9","04,5,+00750,1,99,9","04,5,+01200,1,99,9",,,"04,99,1,99,9,99,9,99999,9,99,9,99,9",,"10119,1,99999,9",,,,,,"MET114METAR LPSJ 161300Z 30007KT 210V030 9999 SCT025 SCT040 15/11 Q1012 RMK RWY13 35012KT 260V060 RWY31 31012KT 240V050;","P01 012003SCOCIG"
"08509599999","2010-04-16T14:00:00","4","38.6655","-28.175817","94.79","SAO JORGE, PO","FM-15","LPSJ ","V020","300,1,N,0062,1","99999,9,C,N","011265,1,N,1","+0150,1","+0110,1","99999,9","04,5,+00750,1,99,9","04,5,+01200,1,99,9",,,"04,99,1,99,9,99,9,99999,9,99,9,99,9",,"10129,1,99999,9",,,,,,"MET117METAR LPSJ 161400Z 30012KT 240V030 9999 SCT025 SCT040 15/11 Q1013 RMK RWY13 35012KT 270V050 RWY31 32014G25KT 260V050;","P01 012003SCOCIG"
"08509599999","2010-04-16T15:00:00","4","38.6655","-28.175817","94.79","SAO JORGE, PO","FM-15","LPSJ ","V020","290,1,N,0067,1","99999,9,C,N","011265,1,N,1","+0140,1","+0110,1","99999,9","04,5,+00750,1,99,9","04,5,+01200,1,99,9",,,"04,99,1,99,9,99,9,99999,9,99,9,99,9",,"10108,1,99999,9",,,,,,"MET117METAR LPSJ 161500Z 29013KT 240V330 9999 SCT025 SCT040 14/11 Q1011 RMK RWY13 34012KT 270V060 RWY31 31013G23KT 240V010;","P01 012003SCOCIG"
"08509599999","2010-04-16T16:00:00","4","38.6655","-28.175817","94.79","SAO JORGE, PO","FM-15","LPSJ ","V020","300,1,N,0062,1","99999,9,C,N","011265,1,N,1","+0150,1","+0100,1","99999,9","04,5,+00540,1,99,9","04,5,+01050,1,99,9",,,"04,99,1,99,9,99,9,99999,9,99,9,99,9",,"10119,1,99999,9",,,,,,"MET117METAR LPSJ 161600Z 30012KT 260V330 9999 SCT018 SCT035 15/10 Q1012 RMK RWY13 34013KT 250V020 RWY31 33008G19KT 240V050;","P01 010503SCOCIG"
"08509599999","2010-04-17T09:00:00","4","38.6655","-28.175817","94.79","SAO JORGE, PO","FM-15","LPSJ ","V020","030,1,N,0021,1","99999,9,C,N","011265,1,N,1","+0140,1","+0110,1","99999,9","04,5,+00540,1,99,9","04,5,+01200,1,99,9",,,"04,99,1,99,9,99,9,99999,9,99,9,99,9",,"10108,1,99999,9",,,,,,"MET090METAR LPSJ 170900Z 03004KT 9999 SCT018 SCT040 14/11 Q1011 RMK RWY13 05007KT RWY31 03004KT;","P01 012003SCOCIG"
"08509599999","2010-04-17T10:00:00","4","38.6655","-28.175817","94.79","SAO JORGE, PO","FM-15","LPSJ ","V020","160,1,N,0021,1","99999,9,C,N","011265,1,N,1","+0140,1","+0110,1","99999,9","04,5,+00480,1,99,9","04,5,+01200,1,99,9",,,"04,99,1,99,9,99,9,99999,9,99,9,99,9",,"10108,1,99999,9",,,,,,"MET090METAR LPSJ 171000Z 16004KT 9999 SCT016 SCT040 14/11 Q1011 RMK RWY13 18003KT RWY31 17003KT;","P01 012003SCOCIG"
"08509599999","2010-04-17T12:00:00","4","38.6655","-28.175817","94.79","SAO JORGE, PO","FM-15","LPSJ ","V020","999,9,V,0021,1","99999,9,C,N","011265,1,N,1","+0150,1","+0120,1","99999,9","02,5,+00480,1,99,9","04,5,+01200,1,99,9",,,"04,99,1,99,9,99,9,99999,9,99,9,99,9",,"10119,1,99999,9",,,,,,"MET090METAR LPSJ 171200Z VRB04KT 9999 FEW016 SCT040 15/12 Q1012 RMK RWY13 VRB04KT RWY31 VRB03KT;","P01 012003SCOCIG"
"08509599999","2010-04-17T13:00:00","4","38.6655","-28.175817","94.79","SAO JORGE, PO","FM-15","LPSJ ","V020","999,9,V,0026,1","22000,1,9,N","011265,1,N,1","+0160,1","+0120,1","99999,9","04,5,+00480,1,99,9",,,,"04,99,1,99,9,99,9,99999,9,99,9,99,9",,"10108,1,99999,9",,,,,,"MET083METAR LPSJ 171300Z VRB05KT 9999 SCT016 16/12 Q1011 RMK RWY13 VRB04KT RWY31 VRB04KT;",
"08509599999","2010-04-17T14:00:00","4","38.6655","-28.175817","94.79","SAO JORGE, PO","FM-15","LPSJ ","V020","170,1,N,0026,1","22000,1,9,N","011265,1,N,1","+0160,1","+0120,1","99999,9","04,5,+00480,1,99,9",,,,"04,99,1,99,9,99,9,99999,9,99,9,99,9",,"10108,1,99999,9",,,,,,"MET083METAR LPSJ 171400Z 17005KT 9999 SCT016 16/12 Q1011 RMK RWY13 16004KT RWY31 18004KT;",
"08509599999","2010-04-17T15:00:00","4","38.6655","-28.175817","94.79","SAO JORGE, PO","FM-15","LPSJ ","V020","160,1,N,0031,1","22000,1,9,N","011265,1,N,1","+0170,1","+0140,1","99999,9","02,5,+00750,1,99,9",,,,"02,99,1,99,9,99,9,99999,9,99,9,99,9",,"10108,1,99999,9",,,,,,"MET083METAR LPSJ 171500Z 16006KT 9999 FEW025 17/14 Q1011 RMK RWY13 16006KT RWY31 18005KT;",
"08509599999","2010-04-17T16:00:00","4","38.6655","-28.175817","94.79","SAO JORGE, PO","FM-15","LPSJ ","V020","140,1,N,0041,1","99999,9,C,N","011265,1,N,1","+0160,1","+0130,1","99999,9","04,5,+00540,1,99,9","04,5,+00900,1,99,9",,,"04,99,1,99,9,99,9,99999,9,99,9,99,9",,"10108,1,99999,9",,,,,,"MET090METAR LPSJ 171600Z 14008KT 9999 SCT018 SCT030 16/13 Q1011 RMK RWY13 15005KT RWY31 14006KT;","P01 009003SCOCIG"
"08509599999","2010-04-18T10:00:00","4","38.6655","-28.175817","94.79","SAO JORGE, PO","FM-15","LPSJ ","V020","110,1,N,0057,1","99999,9,C,N","011265,1,N,1","+0150,1","+0130,1","99999,9","04,5,+00390,1,99,9","04,5,+00900,1,99,9",,,"04,99,1,99,9,99,9,99999,9,99,9,99,9",,"10020,1,99999,9",,,,,,"MET090METAR LPSJ 181000Z 11011KT 9999 SCT013 SCT030 15/13 Q1002 RMK RWY13 12012KT RWY31 12014KT;","P01 009003SCOCIG"
"08509599999","2010-04-18T11:00:00","4","38.6655","-28.175817","94.79","SAO JORGE, PO","FM-15","LPSJ ","V020","110,1,N,0051,1","99999,9,C,N","011265,1,N,1","+0150,1","+0130,1","99999,9","04,5,+00480,1,99,9","04,5,+00900,1,99,9",,,"04,99,1,99,9,99,9,99999,9,99,9,99,9","999,M,+9999,9","10020,1,99999,9",,,,,,"MET090METAR LPSJ 181100Z 11010KT 9999 SCT016 SCT030 15/13 Q1002 RMK RWY13 11012KT RWY31 11014KT;","Q01 -00142ATMX  P01 009003SCOCIG"
"08509599999","2010-04-18T12:00:00","4","38.6655","-28.175817","94.79","SAO JORGE, PO","FM-15","LPSJ ","V020","110,1,N,0062,1","99999,9,C,N","011265,1,N,1","+0160,1","+0140,1","99999,9","04,5,+00450,1,99,9","04,5,+00900,1,99,9",,,"04,99,1,99,9,99,9,99999,9,99,9,99,9","999,M,+9999,9","10020,1,99999,9",,,,,,"MET090METAR LPSJ 181200Z 11012KT 9999 SCT015 SCT030 16/14 Q1002 RMK RWY13 11014KT RWY31 11015KT;","Q01 -00152ATMX  P01 009003SCOCIG"
"08509599999","2010-04-19T09:00:00","4","38.6655","-28.175817","94.79","SAO JORGE, PO","FM-15","LPSJ ","V020","110,1,N,0041,1","99999,9,C,N","011265,1,N,1","+0140,1","+0110,1","99999,9","02,5,+00600,1,99,9","04,5,+01200,1,99,9",,,"04,99,1,99,9,99,9,99999,9,99,9,99,9","999,M,+9999,9","10000,1,99999,9",,,,,,"MET090METAR LPSJ 190900Z 11008KT 9999 FEW020 SCT040 14/11 Q1000 RMK RWY13 11012KT RWY31 11013KT;","Q01 -00132ATMX  P01 012003SCOCIG"
"08509599999","2010-04-19T10:00:00","4","38.6655","-28.175817","94.79","SAO JORGE, PO","FM-15","LPSJ ","V020","120,1,N,0051,1","99999,9,C,N","011265,1,N,1","+0150,1","+0110,1","99999,9","02,5,+00600,1,99,9","04,5,+06000,1,99,9",,,"04,99,1,99,9,99,9,99999,9,99,9,99,9",,"10000,1,99999,9",,,,,,"MET090METAR LPSJ 191000Z 12010KT 9999 FEW020 SCT200 15/11 Q1000 RMK RWY13 12010KT RWY31 13012KT;","P01 060003SCOCIG"
"08509599999","2010-04-19T11:00:00","4","38.6655","-28.175817","94.79","SAO JORGE, PO","FM-15","LPSJ ","V020","120,1,N,0067,1","99999,9,C,N","011265,1,N,1","+0150,1","+0120,1","99999,9","04,5,+00540,1,99,9","04,5,+02100,1,99,9",,,"04,99,1,99,9,99,9,99999,9,99,9,99,9",,"10000,1,99999,9",,,,,,"MET090METAR LPSJ 191100Z 12013KT 9999 SCT018 SCT070 15/12 Q1000 RMK RWY13 12012KT RWY31 13013KT;","P01 021003SCOCIG"
"08509599999","2010-04-19T12:00:00","4","38.6655","-28.175817","94.79","SAO JORGE, PO","FM-15","LPSJ ","V020","120,1,N,0062,1","99999,9,C,N","011265,1,N,1","+0160,1","+0120,1","99999,9","04,5,+00540,1,99,9","04,5,+02100,1,99,9",,,"04,99,1,99,9,99,9,99999,9,99,9,99,9",,"10000,1,99999,9",,,,,,"MET090METAR LPSJ 191200Z 12012KT 9999 SCT018 SCT070 16/12 Q1000 RMK RWY13 13012KT RWY31 12014KT;","P01 021003SCOCIG"
"08509599999","2010-04-19T14:00:00","4","38.6655","-28.175817","94.79","SAO JORGE, PO","FM-15","LPSJ ","V020","120,1,N,0072,1","00900,1,C,N","011265,1,N,1","+0150,1","+0130,1","99999,9","04,5,+00480,1,99,9","04,5,+00900,1,99,9","07,5,+02100,1,99,9",,"07,99,1,99,9,99,9,99999,9,99,9,99,9",,"09990,1,99999,9",,,,,,"MET100METAR LPSJ 191400Z 12014KT 9999 SCT016 SCT030 BKN070 15/13 Q0999 RMK RWY13 12016KT RWY31 12015G26KT;",
"08509599999","2010-04-19T15:00:00","4","38.6655","-28.175817","94.79","SAO JORGE, PO","FM-15","LPSJ ","V020","120,1,N,0062,1","01050,1,C,N","011265,1,N,1","+0150,1","+0120,1","99999,9","04,5,+00540,1,99,9","04,5,+01050,1,99,9","07,5,+02100,1,99,9",,"07,99,1,99,9,99,9,99999,9,99,9,99,9",,"09980,1,99999,9",,,,,,"MET097METAR LPSJ 191500Z 12012KT 9999 SCT018 SCT035 BKN070 15/12 Q0998 RMK RWY13 12012KT RWY31 13014KT;",
"08509599999","2010-04-19T16:00:00","4","38.6655","-28.175817","94.79","SAO JORGE, PO","FM-15","LPSJ ","V020","130,1,N,0062,1","00900,1,C,N","011265,1,N,1","+0150,1","+0120,1","99999,9","04,5,+00480,1,99,9","04,5,+00900,1,99,9","07,5,+02100,1,99,9",,"07,99,1,99,9,99,9,99999,9,99,9,99,9",,"09980,1,99999,9",,,,,,"MET097METAR LPSJ 191600Z 13012KT 9999 SCT016 SCT030 BKN070 15/12 Q0998 RMK RWY13 13012KT RWY31 13013KT;",
"08509599999","2010-04-20T09:00:00","4","38.6655","-28.175817","94.79","SAO JORGE, PO","FM-15","LPSJ ","V020","040,1,N,0036,1","22000,1,9,N","011265,1,N,1","+0150,1","+0120,1","99999,9","04,5,+00420,1,99,9",,,,"04,99,1,99,9,99,9,99999,9,99,9,99,9",,"10020,1,99999,9",,,,,,"MET083METAR LPSJ 200900Z 04007KT 9999 SCT014 15/12 Q1002 RMK RWY13 01007KT RWY31 03005KT;",
"08509599999","2010-04-20T10:00:00","4","38.6655","-28.175817","94.79","SAO JORGE, PO","FM-15","LPSJ ","V020","020,1,N,0036,1","22000,1,9,N","011265,1,N,1","+0150,1","+0110,1","99999,9","04,5,+00450,1,99,9",,,,"04,99,1,99,9,99,9,99999,9,99,9,99,9",,"10031,1,99999,9",,,,,,"MET083METAR LPSJ 201000Z 02007KT 9999 SCT015 15/11 Q1003 RMK RWY13 01008KT RWY31 01010KT;",
"08509599999","2010-04-20T11:00:00","4","38.6655","-28.175817","94.79","SAO JORGE, PO","FM-15","LPSJ ","V020","999,9,V,0041,1","22000,1,9,N","011265,1,N,1","+0160,1","+0110,1","99999,9","04,5,+00450,1,99,9",,,,"04,99,1,99,9,99,9,99999,9,99,9,99,9",,"10041,1,99999,9",,,,,,"MET083METAR LPSJ 201100Z VRB08KT 9999 SCT015 16/11 Q1004 RMK RWY13 VRB08KT RWY31 VRB07KT;",
"08509599999","2010-04-20T12:00:00","4","38.6655","-28.175817","94.79","SAO JORGE, PO","FM-15","LPSJ ","V020","999,9,V,0041,1","22000,1,9,N","011265,1,N,1","+0160,1","+0120,1","99999,9","02,5,+00480,1,99,9",,,,"02,99,1,99,9,99,9,99999,9,99,9,99,9",,"10041,1,99999,9",,,,,,"MET083METAR LPSJ 201200Z VRB08KT 9999 FEW016 16/12 Q1004 RMK RWY13 VRB07KT RWY31 VRB08KT;",
"08509599999","2010-04-20T13:00:00","4","38.6655","-28.175817","94.79","SAO JORGE, PO","FM-15","LPSJ ","V020","310,1,N,0051,1","22000,1,9,N","011265,1,N,1","+0160,1","+0120,1","99999,9","02,5,+00540,1,99,9",,,,"02,99,1,99,9,99,9,99999,9,99,9,99,9",,"10051,1,99999,9",,,,,,"MET083METAR LPSJ 201300Z 31010KT 9999 FEW018 16/12 Q1005 RMK RWY13 33008KT RWY31 33011KT;",
"08509599999","2010-04-20T14:00:00","4","38.6655","-28.175817","94.79","SAO JORGE, PO","FM-15","LPSJ ","V020","310,1,N,0051,1","22000,1,9,N","011265,1,N,1","+0170,1","+0130,1","99999,9","02,5,+00900,1,99,9",,,,"02,99,1,99,9,99,9,99999,9,99,9,99,9",,"10051,1,99999,9",,,,,,"MET083METAR LPSJ 201400Z 31010KT 9999 FEW030 17/13 Q1005 RMK RWY13 33009KT RWY31 32012KT;",
"08509599999","2010-04-20T15:00:00","4","38.6655","-28.175817","94.79","SAO JORGE, PO","FM-15","LPSJ ","V020","310,1,N,0051,1","22000,1,9,N","011265,1,N,1","+0170,1","+0130,1","99999,9","02,5,+00900,1,99,9",,,,"02,99,1,99,9,99,9,99999,9,99,9,99,9",,"10061,1,99999,9",,,,,,"MET083METAR LPSJ 201500Z 31010KT 9999 FEW030 17/13 Q1006 RMK RWY13 32010KT RWY31 31010KT;",
"08509599999","2010-04-20T16:00:00","4","38.6655","-28.175817","94.79","SAO JORGE, PO","FM-15","LPSJ ","V020","310,1,N,0051,1","22000,1,9,N","011265,1,N,1","+0180,1","+0140,1","99999,9","02,5,+00900,1,99,9",,,,"02,99,1,99,9,99,9,99999,9,99,9,99,9",,"10061,1,99999,9",,,,,,"MET083METAR LPSJ 201600Z 31010KT 9999 FEW030 18/14 Q1006 RMK RWY13 32010KT RWY31 31012KT;",
"08509599999","2010-04-21T09:00:00","4","38.6655","-28.175817","94.79","SAO JORGE, PO","FM-15","LPSJ ","V020","999,9,C,0000,1","99999,9,C,N","011265,1,N,1","+0140,1","+0130,1","99999,9","04,5,+00480,1,99,9","04,5,+02100,1,99,9",,,"04,99,1,99,9,99,9,99999,9,99,9,99,9",,"10119,1,99999,9",,,,,,"MET090METAR LPSJ 210900Z 00000KT 9999 SCT016 SCT070 14/13 Q1012 RMK RWY13 00000KT RWY31 00000KT;","P01 021003SCOCIG"
"08509599999","2010-04-21T10:00:00","4","38.6655","-28.175817","94.79","SAO JORGE, PO","FM-15","LPSJ ","V020","999,9,C,0000,1","99999,9,C,N","011265,1,N,1","+0150,1","+0130,1","99999,9","04,5,+00900,1,99,9","04,5,+02100,1,99,9",,,"04,99,1,99,9,99,9,99999,9,99,9,99,9",,"10119,1,99999,9",,,,,,"MET090METAR LPSJ 211000Z 00000KT 9999 SCT030 SCT070 15/13 Q1012 RMK RWY13 00000KT RWY31 00000KT;","P01 021003SCOCIG"
"08509599999","2010-04-21T11:00:00","4","38.6655","-28.175817","94.79","SAO JORGE, PO","FM-15","LPSJ ","V020","999,9,C,0000,1","99999,9,C,N","011265,1,N,1","+0150,1","+0130,1","99999,9","04,5,+00450,1,99,9","04,5,+02100,1,99,9",,,"04,99,1,99,9,99,9,99999,9,99,9,99,9",,"10129,1,99999,9",,,,,,"MET090METAR LPSJ 211100Z 00000KT 9999 SCT015 SCT070 15/13 Q1013 RMK RWY13 00000KT RWY31 00000KT;","P01 021003SCOCIG"
"08509599999","2010-04-21T12:00:00","4","38.6655","-28.175817","94.79","SAO JORGE, PO","FM-15","LPSJ ","V020","230,1,N,0021,1","99999,9,C,N","011265,1,N,1","+0150,1","+0130,1","99999,9","04,5,+00450,1,99,9","04,5,+02100,1,99,9",,,"04,99,1,99,9,99,9,99999,9,99,9,99,9",,"10129,1,99999,9",,,,,,"MET090METAR LPSJ 211200Z 23004KT 9999 SCT015 SCT070 15/13 Q1013 RMK RWY13 22003KT RWY31 22003KT;","P01 021003SCOCIG"
"08509599999","2010-04-21T13:00:00","4","38.6655","-28.175817","94.79","SAO JORGE, PO","FM-15","LPSJ ","V020","150,1,N,0021,1","99999,9,C,N","011265,1,N,1","+0160,1","+0130,1","99999,9","04,5,+00750,1,99,9","04,5,+02100,1,99,9",,,"04,99,1,99,9,99,9,99999,9,99,9,99,9",,"10129,1,99999,9",,,,,,"MET090METAR LPSJ 211300Z 15004KT 9999 SCT025 SCT070 16/13 Q1013 RMK RWY13 15004KT RWY31 16003KT;","P01 021003SCOCIG"
"08509599999","2010-04-21T14:00:00","4","38.6655","-28.175817","94.79","SAO JORGE, PO","FM-15","LPSJ ","V020","160,1,N,0021,1","02100,1,C,N","011265,1,N,1","+0160,1","+0140,1","99999,9","02,5,+00900,1,99,9","07,5,+02100,1,99,9",,,"07,99,1,99,9,99,9,99999,9,99,9,99,9",,"10129,1,99999,9",,,,,,"MET090METAR LPSJ 211400Z 16004KT 9999 FEW030 BKN070 16/14 Q1013 RMK RWY13 15004KT RWY31 16003KT;",
"08509599999","2010-04-21T15:00:00","4","38.6655","-28.175817","94.79","SAO JORGE, PO","FM-15","LPSJ ","V020","150,1,N,0021,1","02100,1,C,N","011265,1,N,1","+0160,1","+0140,1","99999,9","02,5,+00900,1,99,9","07,5,+02100,1,99,9",,,"07,99,1,99,9,99,9,99999,9,99,9,99,9",,"10129,1,99999,9",,,,,,"MET090METAR LPSJ 211500Z 15004KT 9999 FEW030 BKN070 16/14 Q1013 RMK RWY13 16005KT RWY31 15004KT;",
"08509599999","2010-04-21T16:00:00","4","38.6655","-28.175817","94.79","SAO JORGE, PO","FM-15","LPSJ ","V020","160,1,N,0026,1","02400,1,C,N","011265,1,N,1","+0170,1","+0140,1","99999,9","02,5,+00900,1,99,9","07,5,+02400,1,99,9",,,"07,99,1,99,9,99,9,99999,9,99,9,99,9",,"10129,1,99999,9",,,,,,"MET090METAR LPSJ 211600Z 16005KT 9999 FEW030 BKN080 17/14 Q1013 RMK RWY13 17005KT RWY31 16004KT;",
"08509599999","2010-04-22T09:00:00","4","38.6655","-28.175817","94.79","SAO JORGE, PO","FM-15","LPSJ ","V020","120,1,N,0062,1","00180,1,C,N","006000,1,N,1","+0150,1","+0150,1","99999,9","04,5,+00090,1,99,9","07,5,+00180,1,99,9",,,"07,99,1,99,9,99,9,99999,9,99,9,99,9",,"10071,1,99999,9","61,1",,,,,"MET099METAR LPSJ 220900Z 12012KT 6000 -RA SCT003 BKN006 15/15 Q1007 RERA RMK RWY13 13013KT RWY31 12012KT;",
"08509599999","2010-04-22T10:00:00","4","38.6655","-28.175817","94.79","SAO JORGE, PO","FM-15","LPSJ ","V020","120,1,N,0062,1","00360,1,C,N","008000,1,N,1","+0150,1","+0150,1","99999,9","04,5,+00120,1,99,9","07,5,+00360,1,99,9",,,"07,99,1,99,9,99,9,99999,9,99,9,99,9",,"10071,1,99999,9","61,1",,,,,"MET094METAR LPSJ 221000Z 12012KT 8000 -RA SCT004 BKN012 15/15 Q1007 RMK RWY13 13012KT RWY31 12015KT;",
"08509599999","2010-04-22T11:00:00","4","38.6655","-28.175817","94.79","SAO JORGE, PO","FM-15","LPSJ ","V020","999,9,V,0036,1","00390,1,C,N","011265,1,N,1","+0160,1","+0150,1","99999,9","04,5,+00180,1,99,9","07,5,+00390,1,99,9",,,"07,99,1,99,9,99,9,99999,9,99,9,99,9",,"10071,1,99999,9",,,,,,"MET095METAR LPSJ 221100Z VRB07KT 9999 SCT006 BKN013 16/15 Q1007 RERA RMK RWY13 VRB07KT RWY31 VRB10KT;",
"08509599999","2010-04-22T12:00:00","4","38.6655","-28.175817","94.79","SAO JORGE, PO","FM-15","LPSJ ","V020","280,1,N,0062,1","99999,9,C,N","011265,1,N,1","+0160,1","+0150,1","99999,9","02,5,+00210,1,99,9","04,5,+00420,1,99,9",,,"04,99,1,99,9,99,9,99999,9,99,9,99,9",,"10071,1,99999,9",,,,,,"MET109METAR LPSJ 221200Z 28012KT 9999 FEW007 SCT014 16/15 Q1007 RMK RWY13 30010KT 240V340 RWY31 27010G22KT 230V320;","P01 004203SCOCIG"
"08509599999","2010-04-23T09:00:00","4","38.6655","-28.175817","94.79","SAO JORGE, PO","FM-15","LPSJ ","V020","270,1,N,0036,1","99999,9,C,N","011265,1,N,1","+0150,1","+0130,1","99999,9","02,5,+00390,1,99,9","04,5,+00600,1,99,9",,,"04,99,1,99,9,99,9,99999,9,99,9,99,9",,"10091,1,99999,9",,,,,,"MET090METAR LPSJ 230900Z 27007KT 9999 FEW013 SCT020 15/13 Q1009 RMK RWY13 27005KT RWY31 26008KT;","P01 006003SCOCIG"
"08509599999","2010-04-23T10:00:00","4","38.6655","-28.175817","94.79","SAO JORGE, PO","FM-15","LPSJ ","V020","260,1,N,0036,1","22000,1,9,N","011265,1,N,1","+0150,1","+0130,1","99999,9","02,5,+00420,1,99,9",,,,"02,99,1,99,9,99,9,99999,9,99,9,99,9",,"10091,1,99999,9",,,,,,"MET083METAR LPSJ 231000Z 26007KT 9999 FEW014 15/13 Q1009 RMK RWY13 26004KT RWY31 25006KT;",
"08509599999","2010-04-23T11:00:00","4","38.6655","-28.175817","94.79","SAO JORGE, PO","FM-15","LPSJ ","V020","260,1,N,0057,1","22000,1,9,N","011265,1,N,1","+0160,1","+0130,1","99999,9","02,5,+00450,1,99,9",,,,"02,99,1,99,9,99,9,99999,9,99,9,99,9",,"10091,1,99999,9",,,,,,"MET083METAR LPSJ 231100Z 26011KT 9999 FEW015 16/13 Q1009 RMK RWY13 26006KT RWY31 25015KT;",
"08509599999","2010-04-23T12:00:00","4","38.6655","-28.175817","94.79","SAO JORGE, PO","FM-15","LPSJ ","V020","260,1,N,0067,1","22000,1,9,N","011265,1,N,1","+0170,1","+0130,1","99999,9","02,5,+00480,1,99,9",,,,"02,99,1,99,9,99,9,99999,9,99,9,99,9",,"10091,1,99999,9",,,,,,"MET083METAR LPSJ 231200Z 26013KT 9999 FEW016 17/13 Q1009 RMK RWY13 26007KT RWY31 26015KT;",
"08509599999","2010-04-23T13:00:00","4","38.6655","-28.175817","94.79","SAO JORGE, PO","FM-15","LPSJ ","V020","270,1,N,0062,1","22000,1,9,N","011265,1,N,1","+0180,1","+0130,1","99999,9","02,5,+00480,1,99,9",,,,"02,99,1,99,9,99,9,99999,9,99,9,99,9",,"10102,1,99999,9",,,,,,"MET083METAR LPSJ 231300Z 27012KT 9999 FEW016 18/13 Q1010 RMK RWY13 28007KT RWY31 26013KT;",
"08509599999","2010-04-23T15:00:00","4","38.6655","-28.175817","94.79","SAO JORGE, PO","FM-15","LPSJ ","V020","260,1,N,0062,1","22000,1,9,N","011265,1,N,1","+0170,1","+0130,1","99999,9","04,5,+00480,1,99,9",,,,"04,99,1,99,9,99,9,99999,9,99,9,99,9",,"10091,1,99999,9",,,,,,"MET083METAR LPSJ 231500Z 26012KT 9999 SCT016 17/13 Q1009 RMK RWY13 26008KT RWY31 25014KT;",
"08509599999","2010-04-23T16:00:00","4","38.6655","-28.175817","94.79","SAO JORGE, PO","FM-15","LPSJ ","V020","270,1,N,0067,1","22000,1,9,N","011265,1,N,1","+0160,1","+0140,1","99999,9","04,5,+00480,1,99,9",,,,"04,99,1,99,9,99,9,99999,9,99,9,99,9",,"10091,1,99999,9",,,,,,"MET083METAR LPSJ 231600Z 27013KT 9999 SCT016 16/14 Q1009 RMK RWY13 27008KT RWY31 26015KT;",
"08509599999","2010-04-24T10:00:00","4","38.6655","-28.175817","94.79","SAO JORGE, PO","FM-15","LPSJ ","V020","999,9,V,0021,1","22000,1,9,N","011265,1,N,1","+0160,1","+0110,1","99999,9","02,5,+00750,1,99,9",,,,"02,99,1,99,9,99,9,99999,9,99,9,99,9",,"10139,1,99999,9",,,,,,"MET083METAR LPSJ 241000Z VRB04KT 9999 FEW025 16/11 Q1014 RMK RWY13 VRB03KT RWY31 VRB02KT;",
"08509599999","2010-04-24T11:00:00","4","38.6655","-28.175817","94.79","SAO JORGE, PO","FM-15","LPSJ ","V020","140,1,N,0036,1","99999,9,C,N","011265,1,N,1","+0170,1","+0100,1","99999,9","02,5,+00750,1,99,9","04,5,+06000,1,99,9",,,"04,99,1,99,9,99,9,99999,9,99,9,99,9",,"10139,1,99999,9",,,,,,"MET090METAR LPSJ 241100Z 14007KT 9999 FEW025 SCT200 17/10 Q1014 RMK RWY13 15005KT RWY31 15004KT;","P01 060003SCOCIG"
"08509599999","2010-04-24T12:00:00","4","38.6655","-28.175817","94.79","SAO JORGE, PO","FM-15","LPSJ ","V020","150,1,N,0036,1","22000,1,9,N","011265,1,N,1","+0170,1","+0100,1","99999,9","02,5,+00900,1,99,9",,,,"02,99,1,99,9,99,9,99999,9,99,9,99,9",,"10139,1,99999,9",,,,,,"MET083METAR LPSJ 241200Z 15007KT 9999 FEW030 17/10 Q1014 RMK RWY13 15006KT RWY31 16004KT;",
"08509599999","2010-04-24T13:00:00","4","38.6655","-28.175817","94.79","SAO JORGE, PO","FM-15","LPSJ ","V020","140,1,N,0041,1","22000,1,9,N","011265,1,N,1","+0180,1","+0100,1","99999,9","04,5,+00600,1,99,9",,,,"04,99,1,99,9,99,9,99999,9,99,9,99,9",,"10139,1,99999,9",,,,,,"MET083METAR LPSJ 241300Z 14008KT 9999 SCT020 18/10 Q1014 RMK RWY13 14007KT RWY31 15007KT;",
"08509599999","2010-04-24T14:00:00","4","38.6655","-28.175817","94.79","SAO JORGE, PO","FM-15","LPSJ ","V020","150,1,N,0046,1","99999,9,C,N","011265,1,N,1","+0180,1","+0120,1","99999,9","02,5,+00600,1,99,9","04,5,+02100,1,99,9",,,"04,99,1,99,9,99,9,99999,9,99,9,99,9",,"10139,1,99999,9",,,,,,"MET090METAR LPSJ 241400Z 15009KT 9999 FEW020 SCT070 18/12 Q1014 RMK RWY13 15007KT RWY31 15008KT;","P01 021003SCOCIG"
"08509599999","2010-04-24T15:00:00","4","38.6655","-28.175817","94.79","SAO JORGE, PO","FM-15","LPSJ ","V020","140,1,N,0051,1","99999,9,C,N","011265,1,N,1","+0170,1","+0100,1","99999,9","02,5,+00600,1,99,9","04,5,+02100,1,99,9",,,"04,99,1,99,9,99,9,99999,9,99,9,99,9",,"10129,1,99999,9",,,,,,"MET090METAR LPSJ 241500Z 14010KT 9999 FEW020 SCT070 17/10 Q1013 RMK RWY13 15007KT RWY31 14008KT;","P01 021003SCOCIG"
"08509599999","2010-04-24T16:00:00","4","38.6655","-28.175817","94.79","SAO JORGE, PO","FM-15","LPSJ ","V020","130,1,N,0062,1","99999,9,C,N","011265,1,N,1","+0170,1","+0100,1","99999,9","02,5,+00600,1,99,9","04,5,+02100,1,99,9",,,"04,99,1,99,9,99,9,99999,9,99,9,99,9",,"10129,1,99999,9",,,,,,"MET090METAR LPSJ 241600Z 13012KT 9999 FEW020 SCT070 17/10 Q1013 RMK RWY13 14011KT RWY31 13012KT;","P01 021003SCOCIG"
"08509599999","2010-04-25T10:00:00","4","38.6655","-28.175817","94.79","SAO JORGE, PO","FM-15","LPSJ ","V020","160,1,N,0041,1","00390,1,C,N","011265,1,N,1","+0170,1","+0160,1","99999,9","02,5,+00210,1,99,9","07,5,+00390,1,99,9",,,"07,99,1,99,9,99,9,99999,9,99,9,99,9",,"10119,1,99999,9",,,,,,"MET090METAR LPSJ 251000Z 16008KT 9999 FEW007 BKN013 17/16 Q1012 RMK RWY13 18005KT RWY31 17012KT;",
"08509599999","2010-04-25T11:00:00","4","38.6655","-28.175817","94.79","SAO JORGE, PO","FM-15","LPSJ ","V020","180,1,N,0041,1","00390,1,C,N","011265,1,N,1","+0170,1","+0160,1","99999,9","02,5,+00180,1,99,9","07,5,+00390,1,99,9",,,"07,99,1,99,9,99,9,99999,9,99,9,99,9",,"10119,1,99999,9",,,,,,"MET090METAR LPSJ 251100Z 18008KT 9999 FEW006 BKN013 17/16 Q1012 RMK RWY13 19005KT RWY31 19009KT;",
"08509599999","2010-04-25T12:00:00","4","38.6655","-28.175817","94.79","SAO JORGE, PO","FM-15","LPSJ ","V020","140,1,N,0041,1","00390,1,C,N","011265,1,N,1","+0180,1","+0160,1","99999,9","04,5,+00270,1,99,9","07,5,+00390,1,99,9",,,"07,99,1,99,9,99,9,99999,9,99,9,99,9",,"10129,1,99999,9",,,,,,"MET090METAR LPSJ 251200Z 14008KT 9999 SCT009 BKN013 18/16 Q1013 RMK RWY13 15009KT RWY31 14010KT;",
"08509599999","2010-04-25T13:00:00","4","38.6655","-28.175817","94.79","SAO JORGE, PO","FM-15","LPSJ ","V020","999,9,V,0026,1","00390,1,C,N","011265,1,N,1","+0180,1","+0160,1","99999,9","04,5,+00210,1,99,9","07,5,+00390,1,99,9",,,"07,99,1,99,9,99,9,99999,9,99,9,99,9",,"10119,1,99999,9",,,,,,"MET090METAR LPSJ 251300Z VRB05KT 9999 SCT007 BKN013 18/16 Q1012 RMK RWY13 VRB04KT RWY31 VRB04KT;",
"08509599999","2010-04-26T09:00:00","4","38.6655","-28.175817","94.79","SAO JORGE, PO","FM-15","LPSJ ","V020","160,1,N,0026,1","00420,1,C,N","011265,1,N,1","+0180,1","+0150,1","99999,9","07,5,+00420,1,99,9","02,5,+00540,1,02,5",,,,,"10071,1,99999,9",,,,,,"MET093METAR LPSJ 260900Z 16005KT 9999 BKN014 FEW018TCU 18/15 Q1007 RMK RWY13 15008KT RWY31 15007KT;","Q01+000022SCOTCV"
"08509599999","2010-04-26T10:00:00","4","38.6655","-28.175817","94.79","SAO JORGE, PO","FM-15","LPSJ ","V020","170,1,N,0036,1","00540,5,C,N","011265,1,N,1","+0180,1","+0140,1","99999,9","04,5,+00480,1,99,9","02,5,+00540,1,02,5",,,,,"10071,1,99999,9",,,,,,"MET093METAR LPSJ 261000Z 17007KT 9999 SCT016 FEW018TCU 18/14 Q1007 RMK RWY13 18005KT RWY31 17009KT;","Q01+000022SCOTCV"
"08509599999","2010-04-26T11:00:00","4","38.6655","-28.175817","94.79","SAO JORGE, PO","FM-15","LPSJ ","V020","160,1,N,0041,1","00600,5,C,N","011265,1,N,1","+0180,1","+0140,1","99999,9","04,5,+00540,1,99,9","02,5,+00600,1,02,5",,,,,"10071,1,99999,9",,,,,,"MET093METAR LPSJ 261100Z 16008KT 9999 SCT018 FEW020TCU 18/14 Q1007 RMK RWY13 18005KT RWY31 15007KT;","Q01+000022SCOTCV"
"08509599999","2010-04-26T12:00:00","4","38.6655","-28.175817","94.79","SAO JORGE, PO","FM-15","LPSJ ","V020","170,1,N,0041,1","00540,5,C,N","011265,1,N,1","+0180,1","+0130,1","99999,9","04,5,+00480,1,99,9","02,5,+00540,1,02,5",,,,,"10071,1,99999,9",,,,,,"MET093METAR LPSJ 261200Z 17008KT 9999 SCT016 FEW018TCU 18/13 Q1007 RMK RWY13 18007KT RWY31 17008KT;","Q01+000022SCOTCV"
"08509599999","2010-04-26T13:00:00","4","38.6655","-28.175817","94.79","SAO JORGE, PO","FM-15","LPSJ ","V020","180,1,N,0041,1","00480,1,C,N","011265,1,N,1","+0190,1","+0140,1","99999,9","07,5,+00480,1,99,9",,,,"07,99,1,99,9,99,9,99999,9,99,9,99,9",,"10071,1,99999,9",,,,,,"MET099METAR LPSJ 261300Z 18008KT 9999 BKN016 19/14 Q1007 RMK RWY13 18006KT 140V250 RWY31 19014KT 120V270;",
"08509599999","2010-04-26T14:00:00","4","38.6655","-28.175817","94.79","SAO JORGE, PO","FM-15","LPSJ ","V020","220,1,N,0036,1","99999,9,C,N","011265,1,N,1","+0190,1","+0150,1","99999,9","04,5,+00480,1,99,9","04,5,+01200,1,99,9",,,"04,99,1,99,9,99,9,99999,9,99,9,99,9",,"10071,1,99999,9",,,,,,"MET106METAR LPSJ 261400Z 22007KT 9999 SCT016 SCT040 19/15 Q1007 RMK RWY13 21012KT 150V280 RWY31 21015KT 150V260;","P01 012003SCOCIG"
"08509599999","2010-04-26T15:00:00","4","38.6655","-28.175817","94.79","SAO JORGE, PO","FM-15","LPSJ ","V020","240,1,N,0057,1","99999,9,C,N","011265,1,N,1","+0180,1","+0140,1","99999,9","04,5,+00480,1,99,9","04,5,+01200,1,99,9",,,"04,99,1,99,9,99,9,99999,9,99,9,99,9",,"10071,1,99999,9",,,,,,"MET106METAR LPSJ 261500Z 24011KT 9999 SCT016 SCT040 18/14 Q1007 RMK RWY13 24008KT 180V300 RWY31 24015KT 150V330;","P01 012003SCOCIG"
"08509599999","2010-04-26T16:00:00","4","38.6655","-28.175817","94.79","SAO JORGE, PO","FM-15","LPSJ ","V020","260,1,N,0067,1","22000,1,9,N","011265,1,N,1","+0190,1","+0120,1","99999,9","04,5,+00480,1,99,9",,,,"04,99,1,99,9,99,9,99999,9,99,9,99,9",,"10071,1,99999,9",,,,,,"MET102METAR LPSJ 261600Z 26013KT 9999 SCT016 19/12 Q1007 RMK RWY13 26014KT 190V320 RWY31 26016G26KT 180V310;",
"08509599999","2010-04-27T09:00:00","4","38.6655","-28.175817","94.79","SAO JORGE, PO","FM-15","LPSJ ","V020","270,1,N,0062,1","99999,9,C,N","011265,1,N,1","+0140,1","+0130,1","99999,9","02,5,+00210,1,99,9","04,5,+00420,1,99,9",,,"04,99,1,99,9,99,9,99999,9,99,9,99,9",,"10129,1,99999,9",,,,,,"MET106METAR LPSJ 270900Z 27012KT 9999 FEW007 SCT014 14/13 Q1013 RMK RWY13 27008KT 220V330 RWY31 26016KT 210V310;","P01 004203SCOCIG"
"08509599999","2010-04-27T10:00:00","4","38.6655","-28.175817","94.79","SAO JORGE, PO","FM-15","LPSJ ","V020","270,1,N,0062,1","99999,9,C,N","011265,1,N,1","+0150,1","+0130,1","99999,9","04,5,+00390,1,99,9","04,5,+00750,1,99,9",,,"04,99,1,99,9,99,9,99999,9,99,9,99,9",,"10139,1,99999,9",,,,,,"MET101METAR LPSJ 271000Z 27012KT 9999 SCT013 SCT025 15/13 Q1014 RMK RWY13 28012KT RWY31 26012G22KT 210V300;","P01 007503SCOCIG"
"08509599999","2010-04-27T11:00:00","4","38.6655","-28.175817","94.79","SAO JORGE, PO","FM-15","LPSJ ","V020","270,1,N,0062,1","99999,9,C,N","011265,1,N,1","+0160,1","+0140,1","99999,9","02,5,+00390,1,99,9","04,5,+00750,1,99,9",,,"04,99,1,99,9,99,9,99999,9,99,9,99,9",,"10149,1,99999,9",,,,,,"MET106METAR LPSJ 271100Z 27012KT 9999 FEW013 SCT025 16/14 Q1015 RMK RWY13 29010KT 240V330 RWY31 26013KT 230V300;","P01 007503SCOCIG"
"08509599999","2010-04-27T12:00:00","4","38.6655","-28.175817","94.79","SAO JORGE, PO","FM-15","LPSJ ","V020","300,1,N,0067,1","99999,9,C,N","011265,1,N,1","+0150,1","+0140,1","99999,9","04,5,+00360,1,99,9","04,5,+00750,1,99,9",,,"04,99,1,99,9,99,9,99999,9,99,9,99,9",,"10159,1,99999,9",,,,,,"MET106METAR LPSJ 271200Z 30013KT 9999 SCT012 SCT025 15/14 Q1016 RMK RWY13 31012KT 260V350 RWY31 29014KT 240V320;","P01 007503SCOCIG"
"08509599999","2010-04-27T13:00:00","4","38.6655","-28.175817","94.79","SAO JORGE, PO","FM-15","LPSJ ","V020","300,1,N,0067,1","99999,9,C,N","011265,1,N,1","+0160,1","+0140,1","99999,9","04,5,+00390,1,99,9","04,5,+00750,1,99,9",,,"04,99,1,99,9,99,9,99999,9,99,9,99,9",,"10159,1,99999,9",,,,,,"MET106METAR LPSJ 271300Z 30013KT 9999 SCT013 SCT025 16/14 Q1016 RMK RWY13 31012KT 260V340 RWY31 27015KT 230V310;","P01 007503SCOCIG"
"08509599999","2010-04-27T14:00:00","4","38.6655","-28.175817","94.79","SAO JORGE, PO","FM-15","LPSJ ","V020","290,1,N,0082,1","22000,1,9,N","011265,1,N,1","+0170,1","+0140,1","99999,9","04,5,+00480,1,99,9",,,,"04,99,1,99,9,99,9,99999,9,99,9,99,9",,"10169,1,99999,9",,,,,,"MET102METAR LPSJ 271400Z 29016KT 9999 SCT016 17/14 Q1017 RMK RWY13 31015KT 250V340 RWY31 29015G26KT 230V320;",
"08509599999","2010-04-27T15:00:00","4","38.6655","-28.175817","94.79","SAO JORGE, PO","FM-15","LPSJ ","V020","280,1,N,0077,1","99999,9,C,N","011265,1,N,1","+0170,1","+0130,1","99999,9","04,5,+00480,1,99,9","04,5,+00750,1,99,9",,,"04,99,1,99,9,99,9,99999,9,99,9,99,9",,"10180,1,99999,9",,,,,,"MET112METAR LPSJ 271500Z 28015KT 9999 SCT016 SCT025 17/13 Q1018 RMK RWY13 31012G22KT 240V350 RWY31 28012G23KT 220V320;","P01 007503SCOCIG"
"08509599999","2010-04-27T16:00:00","4","38.6655","-28.175817","94.79","SAO JORGE, PO","FM-15","LPSJ ","V020","290,1,N,0072,1","99999,9,C,N","011265,1,N,1","+0160,1","+0140,1","99999,9","04,5,+00480,1,99,9","04,5,+00750,1,99,9",,,"04,99,1,99,9,99,9,99999,9,99,9,99,9",,"10190,1,99999,9",,,,,,"MET112METAR LPSJ 271600Z 29014KT 9999 SCT016 SCT025 16/14 Q1019 RMK RWY13 31011G21KT 240V350 RWY31 28013G24KT 230V320;","P01 007503SCOCIG"
"08509599999","2010-04-28T09:00:00","4","38.6655","-28.175817","94.79","SAO JORGE, PO","FM-15","LPSJ ","V020","300,1,N,0021,1","22000,1,9,N","011265,1,N,1","+0140,1","+0110,1","99999,9","02,5,+00480,1,99,9",,,,"02,99,1,99,9,99,9,99999,9,99,9,99,9",,"10261,1,99999,9",,,,,,"MET083METAR LPSJ 280900Z 30004KT 9999 FEW016 14/11 Q1026 RMK RWY13 31004KT RWY31 30004KT;",
"08509599999","2010-04-28T10:00:00","4","38.6655","-28.175817","94.79","SAO JORGE, PO","FM-15","LPSJ ","V020","300,1,N,0026,1","22000,1,9,N","011265,1,N,1","+0150,1","+0110,1","99999,9","04,5,+00480,1,99,9",,,,"04,99,1,99,9,99,9,99999,9,99,9,99,9",,"10261,1,99999,9",,,,,,"MET083METAR LPSJ 281000Z 30005KT 9999 SCT016 15/11 Q1026 RMK RWY13 31005KT RWY31 31006KT;",
"08509599999","2010-04-28T11:00:00","4","38.6655","-28.175817","94.79","SAO JORGE, PO","FM-15","LPSJ ","V020","260,1,N,0036,1","22000,1,9,N","011265,1,N,1","+0160,1","+0100,1","99999,9","02,5,+00600,1,99,9",,,,"02,99,1,99,9,99,9,99999,9,99,9,99,9",,"10261,1,99999,9",,,,,,"MET083METAR LPSJ 281100Z 26007KT 9999 FEW020 16/10 Q1026 RMK RWY13 27005KT RWY31 25005KT;",
"08509599999","2010-04-28T12:00:00","4","38.6655","-28.175817","94.79","SAO JORGE, PO","FM-15","LPSJ ","V020","250,1,N,0031,1","22000,1,9,N","011265,1,N,1","+0160,1","+0110,1","99999,9","02,5,+00900,1,99,9",,,,"02,99,1,99,9,99,9,99999,9,99,9,99,9",,"10271,1,99999,9",,,,,,"MET083METAR LPSJ 281200Z 25006KT 9999 FEW030 16/11 Q1027 RMK RWY13 26005KT RWY31 24004KT;",
"08509599999","2010-04-28T13:00:00","4","38.6655","-28.175817","94.79","SAO JORGE, PO","FM-15","LPSJ ","V020","260,1,N,0036,1","99999,9,C,N","011265,1,N,1","+0170,1","+0100,1","99999,9","02,5,+00900,1,99,9","04,5,+01200,1,99,9",,,"04,99,1,99,9,99,9,99999,9,99,9,99,9",,"10271,1,99999,9",,,,,,"MET090METAR LPSJ 281300Z 26007KT 9999 FEW030 SCT040 17/10 Q1027 RMK RWY13 29006KT RWY31 25006KT;","P01 012003SCOCIG"
"08509599999","2010-04-28T14:00:00","4","38.6655","-28.175817","94.79","SAO JORGE, PO","FM-15","LPSJ ","V020","270,1,N,0041,1","99999,9,C,N","011265,1,N,1","+0170,1","+0110,1","99999,9","02,5,+00900,1,99,9","04,5,+01200,1,99,9",,,"04,99,1,99,9,99,9,99999,9,99,9,99,9",,"10271,1,99999,9",,,,,,"MET090METAR LPSJ 281400Z 27008KT 9999 FEW030 SCT040 17/11 Q1027 RMK RWY13 28007KT RWY31 26007KT;","P01 012003SCOCIG"
"08509599999","2010-04-28T15:00:00","4","38.6655","-28.175817","94.79","SAO JORGE, PO","FM-15","LPSJ ","V020","270,1,N,0036,1","99999,9,C,N","011265,1,N,1","+0170,1","+0120,1","99999,9","02,5,+00600,1,99,9","04,5,+01200,1,99,9",,,"04,99,1,99,9,99,9,99999,9,99,9,99,9",,"10271,1,99999,9",,,,,,"MET090METAR LPSJ 281500Z 27007KT 9999 FEW020 SCT040 17/12 Q1027 RMK RWY13 28008KT RWY31 26007KT;","P01 012003SCOCIG"
"08509599999","2010-04-29T09:00:00","4","38.6655","-28.175817","94.79","SAO JORGE, PO","FM-15","LPSJ ","V020","290,1,N,0046,1","00390,1,C,N","011265,1,N,1","+0160,1","+0150,1","99999,9","04,5,+00210,1,99,9","07,5,+00390,1,99,9",,,"07,99,1,99,9,99,9,99999,9,99,9,99,9",,"10261,1,99999,9",,,,,,"MET090METAR LPSJ 290900Z 29009KT 9999 SCT007 BKN013 16/15 Q1026 RMK RWY13 31005KT RWY31 29007KT;",
"08509599999","2010-04-29T10:00:00","4","38.6655","-28.175817","94.79","SAO JORGE, PO","FM-15","LPSJ ","V020","290,1,N,0062,1","99999,9,C,N","011265,1,N,1","+0160,1","+0150,1","99999,9","02,5,+00270,1,99,9","04,5,+00480,1,99,9",,,"04,99,1,99,9,99,9,99999,9,99,9,99,9",,"10261,1,99999,9",,,,,,"MET090METAR LPSJ 291000Z 29012KT 9999 FEW009 SCT016 16/15 Q1026 RMK RWY13 31010KT RWY31 28009KT;","P01 004803SCOCIG"
"08509599999","2010-04-29T11:00:00","4","38.6655","-28.175817","94.79","SAO JORGE, PO","FM-15","LPSJ ","V020","290,1,N,0057,1","00750,1,C,N","011265,1,N,1","+0170,1","+0140,1","99999,9","04,5,+00390,1,99,9","07,5,+00750,1,99,9",,,"07,99,1,99,9,99,9,99999,9,99,9,99,9",,"10261,1,99999,9",,,,,,"MET090METAR LPSJ 291100Z 29011KT 9999 SCT013 BKN025 17/14 Q1026 RMK RWY13 31009KT RWY31 30011KT;",
"08509599999","2010-04-30T09:00:00","4","38.6655","-28.175817","94.79","SAO JORGE, PO","FM-15","LPSJ ","V020","999,9,C,0000,1","99999,9,C,N","011265,1,N,1","+0150,1","+0130,1","99999,9","02,5,+00600,1,99,9","04,5,+06000,1,99,9",,,"04,99,1,99,9,99,9,99999,9,99,9,99,9",,"10251,1,99999,9",,,,,,"MET090METAR LPSJ 300900Z 00000KT 9999 FEW020 SCT200 15/13 Q1025 RMK RWY13 00000KT RWY31 00000KT;","P01 060003SCOCIG"
"08509599999","2010-04-30T10:00:00","4","38.6655","-28.175817","94.79","SAO JORGE, PO","FM-15","LPSJ ","V020","999,9,V,0021,1","99999,9,C,N","011265,1,N,1","+0160,1","+0130,1","99999,9","04,5,+00480,1,99,9","04,5,+02100,1,99,9",,,"04,99,1,99,9,99,9,99999,9,99,9,99,9",,"10251,1,99999,9",,,,,,"MET090METAR LPSJ 301000Z VRB04KT 9999 SCT016 SCT070 16/13 Q1025 RMK RWY13 VRB04KT RWY31 VRB03KT;","P01 021003SCOCIG"
"08509599999","2010-04-30T11:00:00","4","38.6655","-28.175817","94.79","SAO JORGE, PO","FM-15","LPSJ ","V020","310,1,N,0031,1","99999,9,C,N","011265,1,N,1","+0170,1","+0130,1","99999,9","02,5,+00480,1,99,9","04,5,+02100,1,99,9",,,"04,99,1,99,9,99,9,99999,9,99,9,99,9",,"10261,1,99999,9",,,,,,"MET090METAR LPSJ 301100Z 31006KT 9999 FEW016 SCT070 17/13 Q1026 RMK RWY13 32005KT RWY31 32006KT;","P01 021003SCOCIG"
"08509599999","2010-04-30T14:00:00","4","38.6655","-28.175817","94.79","SAO JORGE, PO","FM-15","LPSJ ","V020","280,1,N,0041,1","02400,1,C,N","011265,1,N,1","+0180,1","+0140,1","99999,9","04,5,+00480,1,99,9","07,5,+02400,1,99,9",,,"07,99,1,99,9,99,9,99999,9,99,9,99,9",,"10261,1,99999,9",,,,,,"MET090METAR LPSJ 301400Z 28008KT 9999 SCT016 BKN080 18/14 Q1026 RMK RWY13 28006KT RWY31 26007KT;",
"08509599999","2010-04-30T15:00:00","4","38.6655","-28.175817","94.79","SAO JORGE, PO","FM-15","LPSJ ","V020","290,1,N,0046,1","02400,1,C,N","011265,1,N,1","+0170,1","+0140,1","99999,9","04,5,+00540,1,99,9","07,5,+02400,1,99,9",,,"07,99,1,99,9,99,9,99999,9,99,9,99,9",,"10261,1,99999,9",,,,,,"MET090METAR LPSJ 301500Z 29009KT 9999 SCT018 BKN080 17/14 Q1026 RMK RWY13 30005KT RWY31 30009KT;",
"08509599999","2010-05-01T09:00:00","4","38.6655","-28.175817","94.79","SAO JORGE, PO","FM-15","LPSJ ","V020","110,1,N,0021,1","02400,1,C,N","011265,1,N,1","+0160,1","+0130,1","99999,9","02,5,+00900,1,99,9","07,5,+02400,1,99,9",,,"07,99,1,99,9,99,9,99999,9,99,9,99,9","999,M,+9999,9","10230,1,99999,9",,,,,,"MET090METAR LPSJ 010900Z 11004KT 9999 FEW030 BKN080 16/13 Q1023 RMK RWY13 12004KT RWY31 11003KT;","Q01 -00032ATMX  "
"08509599999","2010-05-01T10:00:00","4","38.6655","-28.175817","94.79","SAO JORGE, PO","FM-15","LPSJ ","V020","140,1,N,0031,1","02400,1,C,N","011265,1,N,1","+0160,1","+0130,1","99999,9","02,5,+00900,1,99,9","07,5,+02400,1,99,9",,,"07,99,1,99,9,99,9,99999,9,99,9,99,9",,"10230,1,99999,9",,,,,,"MET090METAR LPSJ 011000Z 14006KT 9999 FEW030 BKN080 16/13 Q1023 RMK RWY13 14007KT RWY31 13008KT;",
"08509599999","2010-05-01T11:00:00","4","38.6655","-28.175817","94.79","SAO JORGE, PO","FM-15","LPSJ ","V020","120,1,N,0041,1","02400,1,C,N","011265,1,N,1","+0160,1","+0140,1","99999,9","02,5,+00750,1,99,9","07,5,+02400,1,99,9",,,"07,99,1,99,9,99,9,99999,9,99,9,99,9",,"10230,1,99999,9",,,,,,"MET090METAR LPSJ 011100Z 12008KT 9999 FEW025 BKN080 16/14 Q1023 RMK RWY13 13008KT RWY31 12009KT;",
"08509599999","2010-05-01T12:00:00","4","38.6655","-28.175817","94.79","SAO JORGE, PO","FM-15","LPSJ ","V020","120,1,N,0051,1","02100,1,C,N","011265,1,N,1","+0170,1","+0140,1","99999,9","02,5,+00750,1,99,9","07,5,+02100,1,99,9",,,"07,99,1,99,9,99,9,99999,9,99,9,99,9",,"10230,1,99999,9",,,,,,"MET090METAR LPSJ 011200Z 12010KT 9999 FEW025 BKN070 17/14 Q1023 RMK RWY13 13008KT RWY31 12007KT;",
"08509599999","2010-05-01T13:00:00","4","38.6655","-28.175817","94.79","SAO JORGE, PO","FM-15","LPSJ ","V020","120,1,N,0062,1","01200,1,C,N","011265,1,N,1","+0170,1","+0140,1","99999,9","02,5,+00480,1,99,9","04,5,+01200,1,99,9","07,5,+02400,1,99,9",,"07,99,1,99,9,99,9,99999,9,99,9,99,9",,"10230,1,99999,9",,,,,,"MET097METAR LPSJ 011300Z 12012KT 9999 FEW016 SCT040 BKN080 17/14 Q1023 RMK RWY13 13009KT RWY31 13012KT;",
"08509599999","2010-05-01T14:00:00","4","38.6655","-28.175817","94.79","SAO JORGE, PO","FM-15","LPSJ ","V020","120,1,N,0062,1","01200,1,C,N","011265,1,N,1","+0170,1","+0140,1","99999,9","02,5,+00480,1,99,9","04,5,+01200,1,99,9","07,5,+02400,1,99,9",,"07,99,1,99,9,99,9,99999,9,99,9,99,9",,"10230,1,99999,9",,,,,,"MET097METAR LPSJ 011400Z 12012KT 9999 FEW016 SCT040 BKN080 17/14 Q1023 RMK RWY13 13010KT RWY31 13012KT;",
"08509599999","2010-05-01T15:00:00","4","38.6655","-28.175817","94.79","SAO JORGE, PO","FM-15","LPSJ ","V020","120,1,N,0041,1","01200,1,C,N","011265,1,N,1","+0170,1","+0140,1","99999,9","02,5,+00480,1,99,9","04,5,+01200,1,99,9","07,5,+02400,1,99,9",,"07,99,1,99,9,99,9,99999,9,99,9,99,9",,"10230,1,99999,9",,,,,,"MET097METAR LPSJ 011500Z 12008KT 9999 FEW016 SCT040 BKN080 17/14 Q1023 RMK RWY13 13007KT RWY31 13008KT;",
"08509599999","2010-05-02T09:00:00","4","38.6655","-28.175817","94.79","SAO JORGE, PO","FM-15","LPSJ ","V020","110,1,N,0062,1","02100,1,C,N","011265,1,N,1","+0160,1","+0140,1","99999,9","04,5,+00480,1,99,9","07,5,+02100,1,99,9",,,"07,99,1,99,9,99,9,99999,9,99,9,99,9",,"10220,1,99999,9",,,,,,"MET090METAR LPSJ 020900Z 11012KT 9999 SCT016 BKN070 16/14 Q1022 RMK RWY13 12013KT RWY31 12015KT;",
"08509599999","2010-05-02T10:00:00","4","38.6655","-28.175817","94.79","SAO JORGE, PO","FM-15","LPSJ ","V020","110,1,N,0062,1","02100,1,C,N","011265,1,N,1","+0160,1","+0140,1","99999,9","04,5,+00480,1,99,9","07,5,+02100,1,99,9",,,"07,99,1,99,9,99,9,99999,9,99,9,99,9","999,M,+9999,9","10220,1,99999,9",,,,,,"MET090METAR LPSJ 021000Z 11012KT 9999 SCT016 BKN070 16/14 Q1022 RMK RWY13 12014KT RWY31 11016KT;","Q01 -00162ATMX  "
"08509599999","2010-05-02T11:00:00","4","38.6655","-28.175817","94.79","SAO JORGE, PO","FM-15","LPSJ ","V020","120,1,N,0062,1","99999,9,C,N","011265,1,N,1","+0170,1","+0140,1","99999,9","04,5,+00480,1,99,9","04,5,+02100,1,99,9",,,"04,99,1,99,9,99,9,99999,9,99,9,99,9",,"10230,1,99999,9",,,,,,"MET090METAR LPSJ 021100Z 12012KT 9999 SCT016 SCT070 17/14 Q1023 RMK RWY13 12013KT RWY31 12015KT;","P01 021003SCOCIG"
"08509599999","2010-05-02T12:00:00","4","38.6655","-28.175817","94.79","SAO JORGE, PO","FM-15","LPSJ ","V020","120,1,N,0062,1","22000,1,9,N","011265,1,N,1","+0170,1","+0140,1","99999,9","04,5,+00480,1,99,9",,,,"04,99,1,99,9,99,9,99999,9,99,9,99,9",,"10230,1,99999,9",,,,,,"MET083METAR LPSJ 021200Z 12012KT 9999 SCT016 17/14 Q1023 RMK RWY13 12014KT RWY31 12015KT;",
"08509599999","2010-05-03T09:00:00","4","38.6655","-28.175817","94.79","SAO JORGE, PO","FM-15","LPSJ ","V020","110,1,N,0087,1","00480,1,C,N","011265,1,N,1","+0160,1","+0150,1","99999,9","04,5,+00270,1,99,9","07,5,+00480,1,99,9",,,"07,99,1,99,9,99,9,99999,9,99,9,99,9",,"10190,1,99999,9",,,,,,"MET093METAR LPSJ 030900Z 11017KT 9999 SCT009 BKN016 16/15 Q1019 RMK RWY13 12017KT RWY31 12017G27KT;",
"08509599999","2010-05-03T10:00:00","4","38.6655","-28.175817","94.79","SAO JORGE, PO","FM-15","LPSJ ","V020","120,1,N,0093,1","00450,1,C,N","011265,1,N,1","+0160,1","+0150,1","99999,9","04,5,+00240,1,99,9","07,5,+00450,1,99,9",,,"07,99,1,99,9,99,9,99999,9,99,9,99,9",,"10180,1,99999,9",,,,,,"MET112METAR LPSJ 031000Z 12018KT 9999 SCT008 BKN015 16/15 Q1018 RMK RWY13 13018G28KT 090V170 RWY31 12023G33KT 080V150;",
"08509599999","2010-05-03T11:00:00","4","38.6655","-28.175817","94.79","SAO JORGE, PO","FM-15","LPSJ ","V020","120,1,N,0087,1","00480,1,C,N","011265,1,N,1","+0160,1","+0150,1","99999,9","04,5,+00270,1,99,9","07,5,+00480,1,99,9",,,"07,99,1,99,9,99,9,99999,9,99,9,99,9",,"10180,1,99999,9",,,,,,"MET112METAR LPSJ 031100Z 12017KT 9999 SCT009 BKN016 16/15 Q1018 RMK RWY13 13015G25KT 090V170 RWY31 12018G28KT 090V150;",
"08509599999","2010-05-03T12:00:00","4","38.6655","-28.175817","94.79","SAO JORGE, PO","FM-15","LPSJ ","V020","110,1,N,0077,1","00450,1,C,N","011265,1,N,1","+0160,1","+0150,1","99999,9","04,5,+00240,1,99,9","07,5,+00450,1,99,9",,,"07,99,1,99,9,99,9,99999,9,99,9,99,9",,"10190,1,99999,9",,,,,,"MET112METAR LPSJ 031200Z 11015KT 9999 SCT008 BKN015 16/15 Q1019 RMK RWY13 13016G26KT 090V170 RWY31 12017G27KT 080V150;",
"08509599999","2010-05-03T14:00:00","4","38.6655","-28.175817","94.79","SAO JORGE, PO","FM-15","LPSJ ","V020","110,1,N,0087,1","00390,1,C,N","011265,1,N,1","+0160,1","+0150,1","99999,9","04,5,+00210,1,99,9","07,5,+00390,1,99,9",,,"07,99,1,99,9,99,9,99999,9,99,9,99,9","999,M,+9999,9","10169,1,99999,9",,,,,,"MET112METAR LPSJ 031400Z 11017KT 9999 SCT007 BKN013 16/15 Q1017 RMK RWY13 12016G26KT 090V170 RWY31 11018G28KT 090V140;","Q01 -00182ATMX  "
"08509599999","2010-05-03T15:00:00","4","38.6655","-28.175817","94.79","SAO JORGE, PO","FM-15","LPSJ ","V020","110,1,N,0098,1","00210,1,C,N","011265,1,N,1","+0160,1","+0150,1","99999,9","07,5,+00210,1,99,9","07,5,+00390,1,99,9",,,"07,99,1,99,9,99,9,99999,9,99,9,99,9",,"10169,1,99999,9",,,,,,"MET112METAR LPSJ 031500Z 11019KT 9999 BKN007 BKN013 16/15 Q1017 RMK RWY13 12020G30KT 090V170 RWY31 12023G33KT 090V140;",
"08509599999","2010-05-03T16:00:00","4","38.6655","-28.175817","94.79","SAO JORGE, PO","FM-15","LPSJ ","V020","130,1,N,0113,1","00390,1,C,N","011265,1,N,1","+0160,1","+0150,1","99999,9","04,5,+00210,1,99,9","07,5,+00390,1,99,9",,,"07,99,1,99,9,99,9,99999,9,99,9,99,9",,"10159,1,99999,9",,,,,,"MET090METAR LPSJ 031600Z 13022KT 9999 SCT007 BKN013 16/15 Q1016 RMK RWY13 /////KT RWY31 /////KT;",
"08509599999","2010-05-04T10:00:00","4","38.6655","-28.175817","94.79","SAO JORGE, PO","FM-15","LPSJ ","V020","120,1,N,0026,1","02400,1,C,N","011265,1,N,1","+0160,1","+0140,1","99999,9","04,5,+00600,1,99,9","07,5,+02400,1,99,9",,,"07,99,1,99,9,99,9,99999,9,99,9,99,9",,"10149,1,99999,9",,,,,,"MET090METAR LPSJ 041000Z 12005KT 9999 SCT020 BKN080 16/14 Q1015 RMK RWY13 /////KT RWY31 /////KT;",
"08509599999","2010-05-05T10:00:00","4","38.6655","-28.175817","94.79","SAO JORGE, PO","FM-15","LPSJ ","V020","120,1,N,0062,1","99999,9,C,N","011265,1,N,1","+0160,1","+0120,1","99999,9","02,5,+00540,1,99,9","04,5,+06000,1,99,9",,,"04,99,1,99,9,99,9,99999,9,99,9,99,9",,"10129,1,99999,9",,,,,,"MET090METAR LPSJ 051000Z 12012KT 9999 FEW018 SCT200 16/12 Q1013 RMK RWY13 13012KT RWY31 12013KT;","P01 060003SCOCIG"
"08509599999","2010-05-05T13:00:00","4","38.6655","-28.175817","94.79","SAO JORGE, PO","FM-15","LPSJ ","V020","120,1,N,0057,1","00900,1,C,N","011265,1,N,1","+0160,1","+0140,1","99999,9","02,5,+00480,1,99,9","04,5,+00900,1,99,9","07,5,+02100,1,99,9",,"07,99,1,99,9,99,9,99999,9,99,9,99,9",,"10119,1,99999,9",,,,,,"MET097METAR LPSJ 051300Z 12011KT 9999 FEW016 SCT030 BKN070 16/14 Q1012 RMK RWY13 13012KT RWY31 12015KT;",
"08509599999","2010-05-05T14:00:00","4","38.6655","-28.175817","94.79","SAO JORGE, PO","FM-15","LPSJ ","V020","120,1,N,0051,1","00900,1,C,N","009000,1,N,1","+0160,1","+0140,1","99999,9","04,5,+00390,1,99,9","04,5,+00900,1,99,9","07,5,+02100,1,99,9",,"07,99,1,99,9,99,9,99999,9,99,9,99,9",,"10119,1,99999,9","80,1",,,,,"MET103METAR LPSJ 051400Z 12010KT 9000 -SHRA SCT013 SCT030 BKN070 16/14 Q1012 RMK RWY13 13012KT RWY31 12015KT;",
"08509599999","2010-05-05T15:00:00","4","38.6655","-28.175817","94.79","SAO JORGE, PO","FM-15","LPSJ ","V020","110,1,N,0062,1","00480,1,C,N","008000,1,N,1","+0150,1","+0140,1","99999,9","02,5,+00210,1,99,9","04,5,+00480,1,99,9","07,5,+02100,1,99,9",,"07,99,1,99,9,99,9,99999,9,99,9,99,9",,"10119,1,99999,9","61,1",,,,,"MET106METAR LPSJ 051500Z 11012KT 8000 -RA FEW007 SCT016 BKN070 15/14 Q1012 RERA RMK RWY13 12013KT RWY31 12014KT;",
"08509599999","2010-05-05T16:00:00","4","38.6655","-28.175817","94.79","SAO JORGE, PO","FM-15","LPSJ ","V020","110,1,N,0067,1","00600,1,C,N","008000,1,N,1","+0140,1","+0130,1","99999,9","04,5,+00360,1,99,9","04,5,+00600,1,99,9","07,5,+02100,1,99,9",,"07,99,1,99,9,99,9,99999,9,99,9,99,9",,"10108,1,99999,9","61,1",,,,,"MET101METAR LPSJ 051600Z 11013KT 8000 -RA SCT012 SCT020 BKN070 14/13 Q1011 RMK RWY13 12015KT RWY31 12017KT;",
"08509599999","2010-05-06T10:00:00","4","38.6655","-28.175817","94.79","SAO JORGE, PO","FM-15","LPSJ ","V020","280,1,N,0031,1","00450,1,C,N","009000,1,N,1","+0160,1","+0150,1","99999,9","02,5,+00210,1,99,9","04,5,+00450,1,99,9","07,5,+02100,1,99,9",,"07,99,1,99,9,99,9,99999,9,99,9,99,9",,"10102,1,99999,9",,,,,,"MET097METAR LPSJ 061000Z 28006KT 9000 FEW007 SCT015 BKN070 16/15 Q1010 RMK RWY13 29004KT RWY31 27005KT;",
"08509599999","2010-05-06T14:00:00","4","38.6655","-28.175817","94.79","SAO JORGE, PO","FM-15","LPSJ ","V020","160,1,N,0026,1","22000,1,9,N","011265,1,N,1","+0180,1","+0160,1","99999,9","04,5,+00450,1,99,9",,,,"04,99,1,99,9,99,9,99999,9,99,9,99,9",,"10091,1,99999,9",,,,,,"MET083METAR LPSJ 061400Z 16005KT 9999 SCT015 18/16 Q1009 RMK RWY13 15004KT RWY31 17004KT;",
"08509599999","2010-05-06T15:00:00","4","38.6655","-28.175817","94.79","SAO JORGE, PO","FM-15","LPSJ ","V020","140,1,N,0041,1","22000,1,9,N","011265,1,N,1","+0200,1","+0140,1","99999,9","02,5,+00900,1,99,9",,,,"02,99,1,99,9,99,9,99999,9,99,9,99,9",,"10081,1,99999,9",,,,,,"MET083METAR LPSJ 061500Z 14008KT 9999 FEW030 20/14 Q1008 RMK RWY13 15007KT RWY31 15005KT;",
"08509599999","2010-05-06T16:00:00","4","38.6655","-28.175817","94.79","SAO JORGE, PO","FM-15","LPSJ ","V020","130,1,N,0036,1","02400,1,C,N","011265,1,N,1","+0190,1","+0140,1","99999,9","02,5,+00900,1,99,9","07,5,+02400,1,99,9",,,"07,99,1,99,9,99,9,99999,9,99,9,99,9",,"10081,1,99999,9",,,,,,"MET090METAR LPSJ 061600Z 13007KT 9999 FEW030 BKN080 19/14 Q1008 RMK RWY13 14005KT RWY31 13005KT;",
"08509599999","2010-05-06T18:00:00","4","38.6655","-28.175817","94.79","SAO JORGE, PO","FM-15","LPSJ ","V020","110,1,N,0036,1","02100,1,C,N","011265,1,N,1","+0170,1","+0120,1","99999,9","04,5,+00750,1,99,9","07,5,+02100,1,99,9",,,"07,99,1,99,9,99,9,99999,9,99,9,99,9",,"10071,1,99999,9","80,1",,,,,"MET096METAR LPSJ 061800Z 11007KT 9999 -SHRA SCT025 BKN070 17/12 Q1007 RMK RWY13 12008KT RWY31 12009KT;",
"08509599999","2010-05-07T12:00:00","4","38.6655","-28.175817","94.79","SAO JORGE, PO","FM-15","LPSJ ","V020","270,1,N,0077,1","00390,1,C,N","011265,1,N,1","+0160,1","+0130,1","99999,9","07,5,+00390,1,99,9",,,,"07,99,1,99,9,99,9,99999,9,99,9,99,9",,"10041,1,99999,9",,,,,,"MET105METAR LPSJ 071200Z 27015KT 9999 BKN013 16/13 Q1004 RMK RWY13 28013G23KT 230V350 RWY31 29019G32KT 200V310;",
"08509599999","2010-05-07T13:00:00","4","38.6655","-28.175817","94.79","SAO JORGE, PO","FM-15","LPSJ ","V020","270,1,N,0077,1","00420,1,C,N","011265,1,N,1","+0150,1","+0130,1","99999,9","02,5,+00270,1,99,9","07,5,+00420,1,99,9",,,"07,99,1,99,9,99,9,99999,9,99,9,99,9",,"10041,1,99999,9",,,,,,"MET112METAR LPSJ 071300Z 27015KT 9999 FEW009 BKN014 15/13 Q1004 RMK RWY13 28010G21KT 240V350 RWY31 27018G30KT 190V300;",
"08509599999","2010-05-07T14:00:00","4","38.6655","-28.175817","94.79","SAO JORGE, PO","FM-15","LPSJ ","V020","280,1,N,0077,1","00480,1,C,N","011265,1,N,1","+0160,1","+0130,1","99999,9","02,5,+00270,1,99,9","07,5,+00480,1,99,9",,,"07,99,1,99,9,99,9,99999,9,99,9,99,9",,"10031,1,99999,9",,,,,,"MET112METAR LPSJ 071400Z 28015KT 9999 FEW009 BKN016 16/13 Q1003 RMK RWY13 28013G23KT 230V350 RWY31 26019G32KT 190V320;",
"08509599999","2010-05-07T16:00:00","4","38.6655","-28.175817","94.79","SAO JORGE, PO","FM-15","LPSJ ","V020","280,1,N,0072,1","00480,1,C,N","011265,1,N,1","+0160,1","+0140,1","99999,9","07,5,+00480,1,99,9",,,,"07,99,1,99,9,99,9,99999,9,99,9,99,9",,"10041,1,99999,9",,,,,,"MET105METAR LPSJ 071600Z 28014KT 9999 BKN016 16/14 Q1004 RMK RWY13 28013G23KT 230V350 RWY31 27015G25KT 230V310;",
"08509599999","2010-05-08T09:00:00","4","38.6655","-28.175817","94.79","SAO JORGE, PO","FM-15","LPSJ ","V020","300,1,N,0051,1","00420,1,C,N","011265,1,N,1","+0150,1","+0120,1","99999,9","07,5,+00420,1,99,9",,,,"07,99,1,99,9,99,9,99999,9,99,9,99,9",,"10051,1,99999,9",,,,,,"MET086METAR LPSJ 080900Z 30010KT 9999 BKN014 15/12 Q1005 RMK RWY13 32014KT RWY31 31013G23KT;",
"08509599999","2010-05-08T13:00:00","4","38.6655","-28.175817","94.79","SAO JORGE, PO","FM-15","LPSJ ","V020","320,1,N,0067,1","22000,1,9,N","011265,1,N,1","+0160,1","+0130,1","99999,9","04,5,+00420,1,99,9",,,,"04,99,1,99,9,99,9,99999,9,99,9,99,9",,"10061,1,99999,9",,,,,,"MET086METAR LPSJ 081300Z 32013KT 9999 SCT014 16/13 Q1006 RMK RWY13 33016KT RWY31 32014G25KT;",
"08509599999","2010-05-08T14:00:00","4","38.6655","-28.175817","94.79","SAO JORGE, PO","FM-15","LPSJ ","V020","310,1,N,0067,1","00420,1,C,N","011265,1,N,1","+0160,1","+0140,1","99999,9","07,5,+00420,1,99,9",,,,"07,99,1,99,9,99,9,99999,9,99,9,99,9",,"10071,1,99999,9",,,,,,"MET086METAR LPSJ 081400Z 31013KT 9999 BKN014 16/14 Q1007 RMK RWY13 33016KT RWY31 32014G24KT;",
"08509599999","2010-05-08T15:00:00","4","38.6655","-28.175817","94.79","SAO JORGE, PO","FM-15","LPSJ ","V020","310,1,N,0062,1","00360,1,C,N","009000,1,N,1","+0160,1","+0140,1","99999,9","07,5,+00360,1,99,9","07,5,+00600,1,99,9",,,"07,99,1,99,9,99,9,99999,9,99,9,99,9",,"10071,1,99999,9","16,1",,,,,"MET098METAR LPSJ 081500Z 31012KT 9000 VCSH BKN012 BKN020 16/14 Q1007 RMK RWY13 32013KT RWY31 31012G22KT;",
"08509599999","2010-05-08T16:00:00","4","38.6655","-28.175817","94.79","SAO JORGE, PO","FM-15","LPSJ ","V020","320,1,N,0062,1","00600,1,C,N","009000,1,N,1","+0160,1","+0140,1","99999,9","04,5,+00360,1,99,9","07,5,+00600,1,99,9",,,"07,99,1,99,9,99,9,99999,9,99,9,99,9",,"10071,1,99999,9","80,1",,,,,"MET096METAR LPSJ 081600Z 32012KT 9000 -SHRA SCT012 BKN020 16/14 Q1007 RMK RWY13 33015KT RWY31 32017KT;",
"08509599999","2010-05-09T09:00:00","4","38.6655","-28.175817","94.79","SAO JORGE, PO","FM-15","LPSJ ","V020","030,1,N,0067,1","99999,9,C,N","011265,1,N,1","+0150,1","+0090,1","99999,9","04,5,+00450,1,99,9","04,5,+00750,1,99,9",,,"04,99,1,99,9,99,9,99999,9,99,9,99,9",,"10149,1,99999,9",,,,,,"MET090METAR LPSJ 090900Z 03013KT 9999 SCT015 SCT025 15/09 Q1015 RMK RWY13 06019KT RWY31 04020KT;","P01 007503SCOCIG"
"08509599999","2010-05-11T09:00:00","4","38.6655","-28.175817","94.79","SAO JORGE, PO","FM-15","LPSJ ","V020","280,1,N,0041,1","99999,9,C,N","011265,1,N,1","+0140,1","+0100,1","99999,9","04,5,+00480,1,99,9","04,5,+00900,1,99,9",,,"04,99,1,99,9,99,9,99999,9,99,9,99,9",,"10261,1,99999,9",,,,,,"MET090METAR LPSJ 110900Z 28008KT 9999 SCT016 SCT030 14/10 Q1026 RMK RWY13 30005KT RWY31 29006KT;","P01 009003SCOCIG"
"08509599999","2010-05-12T09:00:00","4","38.6655","-28.175817","94.79","SAO JORGE, PO","FM-15","LPSJ ","V020","350,1,N,0041,1","00480,1,C,N","011265,1,N,1","+0130,1","+0110,1","99999,9","07,5,+00480,1,99,9","04,5,+00900,1,99,9",,,,,"10281,1,99999,9","80,1",,,,,"MET096METAR LPSJ 120900Z 35008KT 9999 -SHRA BKN016 SCT030 13/11 Q1028 RMK RWY13 35010KT RWY31 36011KT;","Q01+000042SCOTCV"
"08509599999","2010-05-12T13:00:00","4","38.6655","-28.175817","94.79","SAO JORGE, PO","FM-15","LPSJ ","V020","010,1,N,0051,1","99999,9,C,N","011265,1,N,1","+0160,1","+0100,1","99999,9","04,5,+00480,1,99,9","04,5,+00750,1,99,9",,,"04,99,1,99,9,99,9,99999,9,99,9,99,9",,"10291,1,99999,9",,,,,,"MET114METAR LPSJ 121300Z 01010KT 330V050 9999 SCT016 SCT025 16/10 Q1029 RMK RWY13 02012KT 330V060 RWY31 02013KT 350V040;","P01 007503SCOCIG"
"08509599999","2010-05-12T14:00:00","4","38.6655","-28.175817","94.79","SAO JORGE, PO","FM-15","LPSJ ","V020","020,1,N,0062,1","22000,1,9,N","011265,1,N,1","+0160,1","+0100,1","99999,9","04,5,+00540,1,99,9",,,,"04,99,1,99,9,99,9,99999,9,99,9,99,9",,"10291,1,99999,9",,,,,,"MET107METAR LPSJ 121400Z 02012KT 350V060 9999 SCT018 16/10 Q1029 RMK RWY13 02013KT 320V060 RWY31 03015KT 350V060;",
"08509599999","2010-05-12T15:00:00","4","38.6655","-28.175817","94.79","SAO JORGE, PO","FM-15","LPSJ ","V020","040,1,N,0067,1","22000,1,9,N","011265,1,N,1","+0170,1","+0100,1","99999,9","04,5,+00540,1,99,9",,,,"04,99,1,99,9,99,9,99999,9,99,9,99,9",,"10281,1,99999,9",,,,,,"MET113METAR LPSJ 121500Z 04013KT 350V080 9999 SCT018 17/10 Q1028 RMK RWY13 05016G26KT 350V100 RWY31 03013G23KT 350V070;",
"08509599999","2010-05-12T16:00:00","4","38.6655","-28.175817","94.79","SAO JORGE, PO","FM-15","LPSJ ","V020","040,1,N,0062,1","22000,1,9,N","011265,1,N,1","+0160,1","+0080,1","99999,9","04,5,+00600,1,99,9",,,,"04,99,1,99,9,99,9,99999,9,99,9,99,9",,"10281,1,99999,9",,,,,,"MET110METAR LPSJ 121600Z 04012KT 350V070 9999 SCT020 16/08 Q1028 RMK RWY13 05012G22KT 360V080 RWY31 04016KT 350V060;",
"08509599999","2010-05-13T09:00:00","4","38.6655","-28.175817","94.79","SAO JORGE, PO","FM-15","LPSJ ","V020","020,1,N,0036,1","00480,1,C,N","011265,1,N,1","+0140,1","+0090,1","99999,9","07,5,+00480,1,99,9","04,5,+00900,1,99,9",,,,,"10329,1,99999,9",,,,,,"MET090METAR LPSJ 130900Z 02007KT 9999 BKN016 SCT030 14/09 Q1033 RMK RWY13 03005KT RWY31 02009KT;","Q01+000042SCOTCV"
"08509599999","2010-05-13T10:00:00","4","38.6655","-28.175817","94.79","SAO JORGE, PO","FM-15","LPSJ ","V020","010,1,N,0046,1","99999,9,C,N","011265,1,N,1","+0150,1","+0100,1","99999,9","04,5,+00480,1,99,9","04,5,+00900,1,99,9",,,"04,99,1,99,9,99,9,99999,9,99,9,99,9",,"10329,1,99999,9",,,,,,"MET090METAR LPSJ 131000Z 01009KT 9999 SCT016 SCT030 15/10 Q1033 RMK RWY13 03012KT RWY31 02013KT;","P01 009003SCOCIG"
"08509599999","2010-05-13T11:00:00","4","38.6655","-28.175817","94.79","SAO JORGE, PO","FM-15","LPSJ ","V020","020,1,N,0026,1","22000,1,9,N","011265,1,N,1","+0160,1","+0090,1","99999,9","04,5,+00540,1,99,9",,,,"04,99,1,99,9,99,9,99999,9,99,9,99,9",,"10329,1,99999,9",,,,,,"MET099METAR LPSJ 131100Z 02005KT 9999 SCT018 16/09 Q1033 RMK RWY13 03005KT 350V120 RWY31 02008KT 340V090;",
"08509599999","2010-05-13T12:00:00","4","38.6655","-28.175817","94.79","SAO JORGE, PO","FM-15","LPSJ ","V020","999,9,V,0026,1","22000,1,9,N","011265,1,N,1","+0160,1","+0090,1","99999,9","04,5,+00540,1,99,9",,,,"04,99,1,99,9,99,9,99999,9,99,9,99,9",,"10329,1,99999,9",,,,,,"MET083METAR LPSJ 131200Z VRB05KT 9999 SCT018 16/09 Q1033 RMK RWY13 VRB06KT RWY31 VRB04KT;",
"08509599999","2010-05-14T09:00:00","4","38.6655","-28.175817","94.79","SAO JORGE, PO","FM-15","LPSJ ","V020","999,9,C,0000,1","22000,1,9,N","011265,1,N,1","+0150,1","+0100,1","99999,9","04,5,+00600,1,99,9",,,,"04,99,1,99,9,99,9,99999,9,99,9,99,9",,"10339,1,99999,9",,,,,,"MET083METAR LPSJ 140900Z 00000KT 9999 SCT020 15/10 Q1034 RMK RWY13 00000KT RWY31 00000KT;",
"08509599999","2010-05-14T10:00:00","4","38.6655","-28.175817","94.79","SAO JORGE, PO","FM-15","LPSJ ","V020","150,1,N,0021,1","00600,1,C,N","011265,1,N,1","+0150,1","+0100,1","99999,9","07,5,+00600,1,99,9",,,,"07,99,1,99,9,99,9,99999,9,99,9,99,9",,"10339,1,99999,9",,,,,,"MET083METAR LPSJ 141000Z 15004KT 9999 BKN020 15/10 Q1034 RMK RWY13 16004KT RWY31 17003KT;",
"08509599999","2010-05-14T11:00:00","4","38.6655","-28.175817","94.79","SAO JORGE, PO","FM-15","LPSJ ","V020","160,1,N,0026,1","22000,1,9,N","011265,1,N,1","+0160,1","+0100,1","99999,9","04,5,+00600,1,99,9",,,,"04,99,1,99,9,99,9,99999,9,99,9,99,9",,"10339,1,99999,9",,,,,,"MET083METAR LPSJ 141100Z 16005KT 9999 SCT020 16/10 Q1034 RMK RWY13 16004KT RWY31 17004KT;",
"08509599999","2010-05-14T14:00:00","4","38.6655","-28.175817","94.79","SAO JORGE, PO","FM-15","LPSJ ","V020","140,1,N,0036,1","99999,9,C,N","011265,1,N,1","+0170,1","+0090,1","99999,9","04,5,+00750,1,99,9","04,5,+01200,1,99,9",,,"04,99,1,99,9,99,9,99999,9,99,9,99,9",,"10339,1,99999,9",,,,,,"MET090METAR LPSJ 141400Z 14007KT 9999 SCT025 SCT040 17/09 Q1034 RMK RWY13 15006KT RWY31 15004KT;","P01 012003SCOCIG"
"08509599999","2010-05-14T15:00:00","4","38.6655","-28.175817","94.79","SAO JORGE, PO","FM-15","LPSJ ","V020","140,1,N,0036,1","99999,9,C,N","011265,1,N,1","+0170,1","+0100,1","99999,9","04,5,+00750,1,99,9","04,5,+01200,1,99,9",,,"04,99,1,99,9,99,9,99999,9,99,9,99,9",,"10339,1,99999,9",,,,,,"MET090METAR LPSJ 141500Z 14007KT 9999 SCT025 SCT040 17/10 Q1034 RMK RWY13 15005KT RWY31 15005KT;","P01 012003SCOCIG"
"08509599999","2010-05-14T16:00:00","4","38.6655","-28.175817","94.79","SAO JORGE, PO","FM-15","LPSJ ","V020","150,1,N,0041,1","99999,9,C,N","011265,1,N,1","+0170,1","+0100,1","99999,9","04,5,+00750,1,99,9","04,5,+01200,1,99,9",,,"04,99,1,99,9,99,9,99999,9,99,9,99,9",,"10329,1,99999,9",,,,,,"MET090METAR LPSJ 141600Z 15008KT 9999 SCT025 SCT040 17/10 Q1033 RMK RWY13 14006KT RWY31 15006KT;","P01 012003SCOCIG"
"08509599999","2010-05-19T09:00:00","4","38.6655","-28.175817","94.79","SAO JORGE, PO","FM-15","LPSJ ","V020","130,1,N,0041,1","00420,1,C,N","011265,1,N,1","+0180,1","+0160,1","99999,9","07,5,+00420,1,99,9","04,5,+00600,1,99,9",,,,,"10240,1,99999,9",,,,,,"MET090METAR LPSJ 190900Z 13008KT 9999 BKN014 SCT020 18/16 Q1024 RMK RWY13 12006KT RWY31 13005KT;","Q01+000042SCOTCV"
"08509599999","2010-05-19T10:00:00","4","38.6655","-28.175817","94.79","SAO JORGE, PO","FM-15","LPSJ ","V020","160,1,N,0036,1","00420,1,C,N","011265,1,N,1","+0180,1","+0160,1","99999,9","07,5,+00420,1,99,9","04,5,+00600,1,99,9",,,,,"10240,1,99999,9",,,,,,"MET090METAR LPSJ 191000Z 16007KT 9999 BKN014 SCT020 18/16 Q1024 RMK RWY13 18004KT RWY31 17005KT;","Q01+000042SCOTCV"
"08509599999","2010-05-19T11:00:00","4","38.6655","-28.175817","94.79","SAO JORGE, PO","FM-15","LPSJ ","V020","160,1,N,0021,1","00420,1,C,N","011265,1,N,1","+0180,1","+0160,1","99999,9","02,5,+00270,1,99,9","04,5,+00420,1,99,9","07,5,+00600,1,99,9",,"07,99,1,99,9,99,9,99999,9,99,9,99,9",,"10240,1,99999,9",,,,,,"MET097METAR LPSJ 191100Z 16004KT 9999 FEW009 SCT014 BKN020 18/16 Q1024 RMK RWY13 17004KT RWY31 16004KT;",
"08509599999","2010-05-19T12:00:00","4","38.6655","-28.175817","94.79","SAO JORGE, PO","FM-15","LPSJ ","V020","160,1,N,0026,1","00420,1,C,N","011265,1,N,1","+0180,1","+0160,1","99999,9","07,5,+00420,1,99,9","04,5,+00600,1,99,9",,,,,"10240,1,99999,9",,,,,,"MET090METAR LPSJ 191200Z 16005KT 9999 BKN014 SCT020 18/16 Q1024 RMK RWY13 15006KT RWY31 16005KT;","Q01+000042SCOTCV"
"08509599999","2010-05-19T13:00:00","4","38.6655","-28.175817","94.79","SAO JORGE, PO","FM-15","LPSJ ","V020","160,1,N,0021,1","00480,1,C,N","011265,1,N,1","+0180,1","+0160,1","99999,9","02,5,+00270,1,99,9","07,5,+00480,1,99,9",,,"07,99,1,99,9,99,9,99999,9,99,9,99,9",,"10240,1,99999,9",,,,,,"MET090METAR LPSJ 191300Z 16004KT 9999 FEW009 BKN016 18/16 Q1024 RMK RWY13 16004KT RWY31 16003KT;",
"08509599999","2010-05-19T14:00:00","4","38.6655","-28.175817","94.79","SAO JORGE, PO","FM-15","LPSJ ","V020","170,1,N,0021,1","00450,1,C,N","009000,1,N,1","+0170,1","+0170,1","99999,9","04,5,+00210,1,99,9","07,5,+00450,1,99,9",,,"07,99,1,99,9,99,9,99999,9,99,9,99,9",,"10240,1,99999,9","80,1",,,,,"MET096METAR LPSJ 191400Z 17004KT 9000 -SHRA SCT007 BKN015 17/17 Q1024 RMK RWY13 16003KT RWY31 16003KT;",
"08509599999","2010-05-19T15:00:00","4","38.6655","-28.175817","94.79","SAO JORGE, PO","FM-15","LPSJ ","V020","999,9,V,0026,1","00390,1,C,N","009000,1,N,1","+0170,1","+0160,1","99999,9","04,5,+00210,1,99,9","07,5,+00390,1,99,9",,,"07,99,1,99,9,99,9,99999,9,99,9,99,9",,"10230,1,99999,9","61,1",,,,,"MET094METAR LPSJ 191500Z VRB05KT 9000 -RA SCT007 BKN013 17/16 Q1023 RMK RWY13 VRB04KT RWY31 VRB05KT;",
"08509599999","2010-05-19T16:00:00","4","38.6655","-28.175817","94.79","SAO JORGE, PO","FM-15","LPSJ ","V020","999,9,V,0026,1","00180,1,C,N","003000,1,N,1","+0170,1","+0170,1","99999,9","07,5,+00180,1,99,9","07,5,+00300,1,99,9",,,"07,99,1,99,9,99,9,99999,9,99,9,99,9",,"10230,1,99999,9","10,1","63,1",,,,"MET096METAR LPSJ 191600Z VRB05KT 3000 RA BR BKN006 BKN010 17/17 Q1023 RMK RWY13 VRB05KT RWY31 VRB07KT;",
"08509599999","2010-05-19T17:00:00","4","38.6655","-28.175817","94.79","SAO JORGE, PO","FM-15","LPSJ ","V020","999,9,V,0036,1","00360,1,C,N","002000,1,N,1","+0170,1","+0170,1","99999,9","04,5,+00180,1,99,9","07,5,+00360,1,99,9",,,"07,99,1,99,9,99,9,99999,9,99,9,99,9",,"10220,1,99999,9","10,1","51,1",,,,"MET106METAR LPSJ 191700Z VRB07KT 2000SE 9000NW -DZ BR SCT006 BKN012 17/17 Q1022 RMK RWY13 VRB05KT RWY31 VRB05KT;",
"08509599999","2010-05-19T18:00:00","4","38.6655","-28.175817","94.79","SAO JORGE, PO","FM-15","LPSJ ","V020","280,1,N,0036,1","00150,1,C,N","002000,1,N,1","+0170,1","+0170,1","99999,9","02,5,+00090,1,99,9","04,5,+00150,1,99,9","07,5,+00300,1,99,9",,"07,99,1,99,9,99,9,99999,9,99,9,99,9",,"10230,1,99999,9","10,1","63,1",,,,"MET112METAR LPSJ 191800Z 28007KT 2000SE 7000NW RA BR FEW003 SCT005 BKN010 17/17 Q1023 RMK RWY13 29005KT RWY31 27006KT;",
"08509599999","2010-05-19T19:00:00","4","38.6655","-28.175817","94.79","SAO JORGE, PO","FM-15","LPSJ ","V020","310,1,N,0036,1","00180,1,C,N","002000,1,N,1","+0160,1","+0150,1","99999,9","07,5,+00180,1,99,9","07,5,+00300,1,99,9",,,"07,99,1,99,9,99,9,99999,9,99,9,99,9",,"10230,1,99999,9","10,1","63,1",,,,"MET101METAR LPSJ 191900Z 31007KT 2000 RA BR BKN006 BKN010 16/15 Q1023 RERA RMK RWY13 32005KT RWY31 30007KT;",
"08509599999","2010-05-20T09:00:00","4","38.6655","-28.175817","94.79","SAO JORGE, PO","FM-15","LPSJ ","V020","290,1,N,0026,1","99999,9,C,N","011265,1,N,1","+0160,1","+0150,1","99999,9","02,5,+00270,1,99,9","04,5,+00600,1,99,9",,,"04,99,1,99,9,99,9,99999,9,99,9,99,9",,"10240,1,99999,9",,,,,,"MET090METAR LPSJ 200900Z 29005KT 9999 FEW009 SCT020 16/15 Q1024 RMK RWY13 29006KT RWY31 28003KT;","P01 006003SCOCIG"
"08509599999","2010-05-20T10:00:00","4","38.6655","-28.175817","94.79","SAO JORGE, PO","FM-15","LPSJ ","V020","280,1,N,0026,1","99999,9,C,N","011265,1,N,1","+0160,1","+0150,1","99999,9","02,5,+00270,1,99,9","04,5,+00540,1,99,9",,,"04,99,1,99,9,99,9,99999,9,99,9,99,9",,"10240,1,99999,9",,,,,,"MET090METAR LPSJ 201000Z 28005KT 9999 FEW009 SCT018 16/15 Q1024 RMK RWY13 28004KT RWY31 26003KT;","P01 005403SCOCIG"
"08509599999","2010-05-20T11:00:00","4","38.6655","-28.175817","94.79","SAO JORGE, PO","FM-15","LPSJ ","V020","250,1,N,0031,1","99999,9,C,N","011265,1,N,1","+0170,1","+0140,1","99999,9","04,5,+00480,1,99,9","04,5,+02100,1,99,9",,,"04,99,1,99,9,99,9,99999,9,99,9,99,9",,"10240,1,99999,9",,,,,,"MET090METAR LPSJ 201100Z 25006KT 9999 SCT016 SCT070 17/14 Q1024 RMK RWY13 29004KT RWY31 25005KT;","P01 021003SCOCIG"
"08509599999","2010-05-20T12:00:00","4","38.6655","-28.175817","94.79","SAO JORGE, PO","FM-15","LPSJ ","V020","280,1,N,0036,1","99999,9,C,N","011265,1,N,1","+0170,1","+0150,1","99999,9","04,5,+00480,1,99,9","04,5,+00900,1,99,9",,,"04,99,1,99,9,99,9,99999,9,99,9,99,9",,"10240,1,99999,9",,,,,,"MET090METAR LPSJ 201200Z 28007KT 9999 SCT016 SCT030 17/15 Q1024 RMK RWY13 30006KT RWY31 28005KT;","P01 009003SCOCIG"
"08509599999","2010-05-20T14:00:00","4","38.6655","-28.175817","94.79","SAO JORGE, PO","FM-15","LPSJ ","V020","260,1,N,0041,1","22000,1,9,N","011265,1,N,1","+0180,1","+0130,1","99999,9","04,5,+00600,1,99,9",,,,"04,99,1,99,9,99,9,99999,9,99,9,99,9",,"10240,1,99999,9",,,,,,"MET083METAR LPSJ 201400Z 26008KT 9999 SCT020 18/13 Q1024 RMK RWY13 27006KT RWY31 26006KT;",
"08509599999","2010-05-20T15:00:00","4","38.6655","-28.175817","94.79","SAO JORGE, PO","FM-15","LPSJ ","V020","300,1,N,0046,1","22000,1,9,N","011265,1,N,1","+0180,1","+0140,1","99999,9","04,5,+00540,1,99,9",,,,"04,99,1,99,9,99,9,99999,9,99,9,99,9",,"10240,1,99999,9",,,,,,"MET083METAR LPSJ 201500Z 30009KT 9999 SCT018 18/14 Q1024 RMK RWY13 30005KT RWY31 30007KT;",
"08509599999","2010-05-20T16:00:00","4","38.6655","-28.175817","94.79","SAO JORGE, PO","FM-15","LPSJ ","V020","290,1,N,0057,1","99999,9,C,N","011265,1,N,1","+0180,1","+0140,1","99999,9","02,5,+00600,1,99,9","04,5,+02100,1,99,9",,,"04,99,1,99,9,99,9,99999,9,99,9,99,9",,"10240,1,99999,9",,,,,,"MET090METAR LPSJ 201600Z 29011KT 9999 FEW020 SCT070 18/14 Q1024 RMK RWY13 30009KT RWY31 28009KT;","P01 021003SCOCIG"
"08509599999","2010-05-20T17:00:00","4","38.6655","-28.175817","94.79","SAO JORGE, PO","FM-15","LPSJ ","V020","290,1,N,0062,1","22000,1,9,N","011265,1,N,1","+0180,1","+0140,1","99999,9","04,5,+00600,1,99,9",,,,"04,99,1,99,9,99,9,99999,9,99,9,99,9",,"10240,1,99999,9",,,,,,"MET083METAR LPSJ 201700Z 29012KT 9999 SCT020 18/14 Q1024 RMK RWY13 28008KT RWY31 28009KT;",
"08509599999","2010-05-21T09:00:00","4","38.6655","-28.175817","94.79","SAO JORGE, PO","FM-15","LPSJ ","V020","340,1,N,0021,1","22000,1,9,N","011265,1,N,1","+0140,1","+0120,1","99999,9","02,5,+00480,1,99,9","02,5,+00600,1,02,5",,,"02,99,1,99,9,99,9,99999,9,99,9,99,9",,"10261,1,99999,9",,,,,,"MET093METAR LPSJ 210900Z 34004KT 9999 FEW016 FEW020TCU 14/12 Q1026 RMK RWY13 33005KT RWY31 33004KT;",
"08509599999","2010-05-21T10:00:00","4","38.6655","-28.175817","94.79","SAO JORGE, PO","FM-15","LPSJ ","V020","330,1,N,0026,1","99999,9,C,N","011265,1,N,1","+0150,1","+0110,1","99999,9","02,5,+00480,1,99,9","04,5,+00900,1,99,9",,,"04,99,1,99,9,99,9,99999,9,99,9,99,9",,"10261,1,99999,9",,,,,,"MET090METAR LPSJ 211000Z 33005KT 9999 FEW016 SCT030 15/11 Q1026 RMK RWY13 32007KT RWY31 32005KT;","P01 009003SCOCIG"
"08509599999","2010-05-21T11:00:00","4","38.6655","-28.175817","94.79","SAO JORGE, PO","FM-15","LPSJ ","V020","320,1,N,0031,1","22000,1,9,N","011265,1,N,1","+0150,1","+0120,1","99999,9","04,5,+00540,1,99,9",,,,"04,99,1,99,9,99,9,99999,9,99,9,99,9",,"10271,1,99999,9",,,,,,"MET083METAR LPSJ 211100Z 32006KT 9999 SCT018 15/12 Q1027 RMK RWY13 33005KT RWY31 33006KT;",
"08509599999","2010-05-21T14:00:00","4","38.6655","-28.175817","94.79","SAO JORGE, PO","FM-15","LPSJ ","V020","030,1,N,0031,1","22000,1,9,N","011265,1,N,1","+0170,1","+0100,1","99999,9","02,5,+00600,1,99,9",,,,"02,99,1,99,9,99,9,99999,9,99,9,99,9",,"10271,1,99999,9",,,,,,"MET107METAR LPSJ 211400Z 03006KT 270V090 9999 FEW020 17/10 Q1027 RMK RWY13 35009KT 310V030 RWY31 34008KT 290V060;",
"08509599999","2010-05-21T15:00:00","4","38.6655","-28.175817","94.79","SAO JORGE, PO","FM-15","LPSJ ","V020","999,9,V,0026,1","22000,1,9,N","011265,1,N,1","+0170,1","+0110,1","99999,9","04,5,+00600,1,99,9",,,,"04,99,1,99,9,99,9,99999,9,99,9,99,9",,"10261,1,99999,9",,,,,,"MET099METAR LPSJ 211500Z VRB05KT 9999 SCT020 17/11 Q1026 RMK RWY13 36008KT 310V030 RWY31 35006KT 300V050;",
"08509599999","2010-05-21T16:00:00","4","38.6655","-28.175817","94.79","SAO JORGE, PO","FM-15","LPSJ ","V020","330,1,N,0041,1","22000,1,9,N","011265,1,N,1","+0170,1","+0110,1","99999,9","04,5,+00600,1,99,9",,,,"04,99,1,99,9,99,9,99999,9,99,9,99,9",,"10261,1,99999,9",,,,,,"MET099METAR LPSJ 211600Z 33008KT 9999 SCT020 17/11 Q1026 RMK RWY13 35008KT 320V040 RWY31 33011KT 270V020;",
"08509599999","2010-05-23T09:00:00","4","38.6655","-28.175817","94.79","SAO JORGE, PO","FM-15","LPSJ ","V020","020,1,N,0026,1","22000,1,9,N","011265,1,N,1","+0150,1","+0100,1","99999,9","04,5,+00480,1,99,9",,,,"04,99,1,99,9,99,9,99999,9,99,9,99,9",,"10251,1,99999,9",,,,,,"MET083METAR LPSJ 230900Z 02005KT 9999 SCT016 15/10 Q1025 RMK RWY13 01007KT RWY31 01006KT;",
"08509599999","2010-05-23T10:00:00","4","38.6655","-28.175817","94.79","SAO JORGE, PO","FM-15","LPSJ ","V020","330,1,N,0026,1","22000,1,9,N","011265,1,N,1","+0150,1","+0100,1","99999,9","04,5,+00480,1,99,9",,,,"04,99,1,99,9,99,9,99999,9,99,9,99,9",,"10251,1,99999,9",,,,,,"MET083METAR LPSJ 231000Z 33005KT 9999 SCT016 15/10 Q1025 RMK RWY13 35008KT RWY31 35005KT;",
"08509599999","2010-05-23T11:00:00","4","38.6655","-28.175817","94.79","SAO JORGE, PO","FM-15","LPSJ ","V020","360,1,N,0026,1","99999,9,C,N","011265,1,N,1","+0160,1","+0090,1","99999,9","04,5,+00600,1,99,9","04,5,+01500,1,99,9",,,"04,99,1,99,9,99,9,99999,9,99,9,99,9",,"10251,1,99999,9",,,,,,"MET090METAR LPSJ 231100Z 36005KT 9999 SCT020 SCT050 16/09 Q1025 RMK RWY13 35008KT RWY31 36006KT;","P01 015003SCOCIG"
"08509599999","2010-05-24T10:00:00","4","38.6655","-28.175817","94.79","SAO JORGE, PO","FM-15","LPSJ ","V020","300,1,N,0046,1","22000,1,9,N","011265,1,N,1","+0170,1","+0120,1","99999,9","04,5,+00540,1,99,9",,,,"04,99,1,99,9,99,9,99999,9,99,9,99,9",,"10240,1,99999,9",,,,,,"MET083METAR LPSJ 241000Z 30009KT 9999 SCT018 17/12 Q1024 RMK RWY13 30005KT RWY31 29006KT;",
"08509599999","2010-05-24T11:00:00","4","38.6655","-28.175817","94.79","SAO JORGE, PO","FM-15","LPSJ ","V020","280,1,N,0041,1","22000,1,9,N","011265,1,N,1","+0170,1","+0130,1","99999,9","02,5,+00600,1,99,9",,,,"02,99,1,99,9,99,9,99999,9,99,9,99,9",,"10240,1,99999,9",,,,,,"MET083METAR LPSJ 241100Z 28008KT 9999 FEW020 17/13 Q1024 RMK RWY13 30006KT RWY31 28006KT;",
"08509599999","2010-05-24T12:00:00","4","38.6655","-28.175817","94.79","SAO JORGE, PO","FM-15","LPSJ ","V020","290,1,N,0041,1","99999,9,C,N","011265,1,N,1","+0170,1","+0130,1","99999,9","04,5,+00480,1,99,9","04,5,+00900,1,99,9",,,"04,99,1,99,9,99,9,99999,9,99,9,99,9",,"10240,1,99999,9",,,,,,"MET090METAR LPSJ 241200Z 29008KT 9999 SCT016 SCT030 17/13 Q1024 RMK RWY13 30007KT RWY31 28006KT;","P01 009003SCOCIG"
"08509599999","2010-05-24T14:00:00","4","38.6655","-28.175817","94.79","SAO JORGE, PO","FM-15","LPSJ ","V020","290,1,N,0036,1","00480,1,C,N","011265,1,N,1","+0160,1","+0150,1","99999,9","02,5,+00240,1,99,9","04,5,+00480,1,99,9","07,5,+00900,1,99,9",,"07,99,1,99,9,99,9,99999,9,99,9,99,9",,"10240,1,99999,9","80,1",,,,,"MET103METAR LPSJ 241400Z 29007KT 9999 -SHRA FEW008 SCT016 BKN030 16/15 Q1024 RMK RWY13 28004KT RWY31 29004KT;",
"08509599999","2010-05-24T15:00:00","4","38.6655","-28.175817","94.79","SAO JORGE, PO","FM-15","LPSJ ","V020","330,1,N,0041,1","00750,1,C,N","011265,1,N,1","+0170,1","+0140,1","99999,9","04,5,+00360,1,99,9","07,5,+00750,1,99,9",,,"07,99,1,99,9,99,9,99999,9,99,9,99,9",,"10230,1,99999,9",,,,,,"MET090METAR LPSJ 241500Z 33008KT 9999 SCT012 BKN025 17/14 Q1023 RMK RWY13 36012KT RWY31 34014KT;",
"08509599999","2010-05-25T09:00:00","4","38.6655","-28.175817","94.79","SAO JORGE, PO","FM-15","LPSJ ","V020","030,1,N,0021,1","22000,1,9,N","011265,1,N,1","+0150,1","+0070,1","99999,9","02,5,+00900,1,99,9",,,,"02,99,1,99,9,99,9,99999,9,99,9,99,9",,"10220,1,99999,9",,,,,,"MET083METAR LPSJ 250900Z 03004KT 9999 FEW030 15/07 Q1022 RMK RWY13 03006KT RWY31 02006KT;",
"08509599999","2010-05-25T10:00:00","4","38.6655","-28.175817","94.79","SAO JORGE, PO","FM-15","LPSJ ","V020","030,1,N,0026,1","22000,1,9,N","011265,1,N,1","+0160,1","+0070,1","99999,9","02,5,+00900,1,99,9",,,,"02,99,1,99,9,99,9,99999,9,99,9,99,9",,"10220,1,99999,9",,,,,,"MET083METAR LPSJ 251000Z 03005KT 9999 FEW030 16/07 Q1022 RMK RWY13 03005KT RWY31 03004KT;",
"08509599999","2010-05-25T11:00:00","4","38.6655","-28.175817","94.79","SAO JORGE, PO","FM-15","LPSJ ","V020","999,9,V,0026,1","22000,1,9,N","011265,1,N,1","+0160,1","+0080,1","99999,9","02,5,+00900,1,99,9",,,,"02,99,1,99,9,99,9,99999,9,99,9,99,9",,"10220,1,99999,9",,,,,,"MET083METAR LPSJ 251100Z VRB05KT 9999 FEW030 16/08 Q1022 RMK RWY13 VRB05KT RWY31 VRB04KT;",
"08509599999","2010-05-25T12:00:00","4","38.6655","-28.175817","94.79","SAO JORGE, PO","FM-15","LPSJ ","V020","999,9,V,0021,1","22000,1,9,N","011265,1,N,1","+0170,1","+0080,1","99999,9","02,5,+00900,1,99,9",,,,"02,99,1,99,9,99,9,99999,9,99,9,99,9",,"10220,1,99999,9",,,,,,"MET083METAR LPSJ 251200Z VRB04KT 9999 FEW030 17/08 Q1022 RMK RWY13 VRB05KT RWY31 VRB06KT;",
"08509599999","2010-05-25T13:00:00","4","38.6655","-28.175817","94.79","SAO JORGE, PO","FM-15","LPSJ ","V020","260,1,N,0036,1","22000,1,9,N","011265,1,N,1","+0170,1","+0070,1","99999,9","02,5,+00900,1,99,9",,,,"02,99,1,99,9,99,9,99999,9,99,9,99,9",,"10220,1,99999,9",,,,,,"MET083METAR LPSJ 251300Z 26007KT 9999 FEW030 17/07 Q1022 RMK RWY13 27006KT RWY31 25005KT;",
"08509599999","2010-05-25T14:00:00","4","38.6655","-28.175817","94.79","SAO JORGE, PO","FM-15","LPSJ ","V020","260,1,N,0036,1","22000,1,9,N","011265,1,N,1","+0170,1","+0060,1","99999,9","02,5,+00900,1,99,9",,,,"02,99,1,99,9,99,9,99999,9,99,9,99,9",,"10210,1,99999,9",,,,,,"MET083METAR LPSJ 251400Z 26007KT 9999 FEW030 17/06 Q1021 RMK RWY13 27006KT RWY31 25005KT;",
"08509599999","2010-05-25T15:00:00","4","38.6655","-28.175817","94.79","SAO JORGE, PO","FM-15","LPSJ ","V020","250,1,N,0036,1","22000,1,9,N","011265,1,N,1","+0180,1","+0060,1","99999,9","02,5,+00900,1,99,9",,,,"02,99,1,99,9,99,9,99999,9,99,9,99,9",,"10210,1,99999,9",,,,,,"MET083METAR LPSJ 251500Z 25007KT 9999 FEW030 18/06 Q1021 RMK RWY13 27005KT RWY31 25006KT;",
"08509599999","2010-05-25T16:00:00","4","38.6655","-28.175817","94.79","SAO JORGE, PO","FM-15","LPSJ ","V020","260,1,N,0041,1","22000,1,9,N","011265,1,N,1","+0180,1","+0070,1","99999,9","04,5,+00900,1,99,9",,,,"04,99,1,99,9,99,9,99999,9,99,9,99,9",,"10200,1,99999,9",,,,,,"MET083METAR LPSJ 251600Z 26008KT 9999 SCT030 18/07 Q1020 RMK RWY13 28005KT RWY31 26006KT;",
"08509599999","2010-05-26T09:00:00","4","38.6655","-28.175817","94.79","SAO JORGE, PO","FM-15","LPSJ ","V020","130,1,N,0046,1","99999,9,C,N","011265,1,N,1","+0160,1","+0140,1","99999,9","04,5,+00420,1,99,9","04,5,+06000,1,99,9",,,"04,99,1,99,9,99,9,99999,9,99,9,99,9",,"10159,1,99999,9",,,,,,"MET090METAR LPSJ 260900Z 13009KT 9999 SCT014 SCT200 16/14 Q1016 RMK RWY13 13008KT RWY31 12008KT;","P01 060003SCOCIG"
"08509599999","2010-05-26T10:00:00","4","38.6655","-28.175817","94.79","SAO JORGE, PO","FM-15","LPSJ ","V020","130,1,N,0062,1","22000,1,9,N","011265,1,N,1","+0180,1","+9999,9","99999,9","04,5,+00420,1,99,9",,,,"04,99,1,99,9,99,9,99999,9,99,9,99,9",,"10159,1,99999,9",,,,,,"MET083METAR LPSJ 261000Z 13012KT 9999 SCT014 18/04 Q1016 RMK RWY13 14009KT RWY31 13010KT;","Q01+000403ATOD  Q02 +00403ATOD  "
"08509599999","2010-05-26T11:00:00","4","38.6655","-28.175817","94.79","SAO JORGE, PO","FM-15","LPSJ ","V020","130,1,N,0041,1","22000,1,9,N","011265,1,N,1","+0170,1","+0140,1","99999,9","04,5,+00450,1,99,9",,,,"04,99,1,99,9,99,9,99999,9,99,9,99,9",,"10169,1,99999,9",,,,,,"MET083METAR LPSJ 261100Z 13008KT 9999 SCT015 17/14 Q1017 RMK RWY13 14005KT RWY31 15007KT;",
"08509599999","2010-05-26T12:00:00","4","38.6655","-28.175817","94.79","SAO JORGE, PO","FM-15","LPSJ ","V020","160,1,N,0041,1","99999,9,C,N","011265,1,N,1","+0180,1","+0130,1","99999,9","02,5,+00900,1,99,9","04,5,+02400,1,99,9",,,"04,99,1,99,9,99,9,99999,9,99,9,99,9",,"10169,1,99999,9",,,,,,"MET090METAR LPSJ 261200Z 16008KT 9999 FEW030 SCT080 18/13 Q1017 RMK RWY13 16004KT RWY31 17004KT;","P01 024003SCOCIG"
"08509599999","2010-05-26T14:00:00","4","38.6655","-28.175817","94.79","SAO JORGE, PO","FM-15","LPSJ ","V020","180,1,N,0026,1","99999,9,C,N","011265,1,N,1","+0190,1","+0130,1","99999,9","04,5,+00750,1,99,9","04,5,+01200,1,99,9",,,"04,99,1,99,9,99,9,99999,9,99,9,99,9",,"10159,1,99999,9",,,,,,"MET090METAR LPSJ 261400Z 18005KT 9999 SCT025 SCT040 19/13 Q1016 RMK RWY13 18004KT RWY31 19005KT;","P01 012003SCOCIG"
"08509599999","2010-05-26T15:00:00","4","38.6655","-28.175817","94.79","SAO JORGE, PO","FM-15","LPSJ ","V020","160,1,N,0031,1","99999,9,C,N","011265,1,N,1","+0190,1","+0130,1","99999,9","04,5,+00750,1,99,9","04,5,+01200,1,99,9",,,"04,99,1,99,9,99,9,99999,9,99,9,99,9",,"10159,1,99999,9",,,,,,"MET090METAR LPSJ 261500Z 16006KT 9999 SCT025 SCT040 19/13 Q1016 RMK RWY13 17006KT RWY31 18006KT;","P01 012003SCOCIG"
"08509599999","2010-05-27T09:00:00","4","38.6655","-28.175817","94.79","SAO JORGE, PO","FM-15","LPSJ ","V020","280,1,N,0051,1","99999,9,C,N","011265,1,N,1","+0170,1","+0160,1","99999,9","04,5,+00390,1,99,9","04,5,+00750,1,99,9",,,"04,99,1,99,9,99,9,99999,9,99,9,99,9",,"10149,1,99999,9",,,,,,"MET090METAR LPSJ 270900Z 28010KT 9999 SCT013 SCT025 17/16 Q1015 RMK RWY13 29006KT RWY31 27009KT;","P01 007503SCOCIG"
"08509599999","2010-05-27T10:00:00","4","38.6655","-28.175817","94.79","SAO JORGE, PO","FM-15","LPSJ ","V020","999,9,V,0026,1","99999,9,C,N","011265,1,N,1","+0180,1","+0150,1","99999,9","04,5,+00390,1,99,9","04,5,+00750,1,99,9",,,"04,99,1,99,9,99,9,99999,9,99,9,99,9",,"10159,1,99999,9",,,,,,"MET090METAR LPSJ 271000Z VRB05KT 9999 SCT013 SCT025 18/15 Q1016 RMK RWY13 VRB05KT RWY31 VRB03KT;","P01 007503SCOCIG"
"08509599999","2010-05-27T11:00:00","4","38.6655","-28.175817","94.79","SAO JORGE, PO","FM-15","LPSJ ","V020","280,1,N,0046,1","99999,9,C,N","011265,1,N,1","+0180,1","+0160,1","99999,9","04,5,+00420,1,99,9","04,5,+00900,1,99,9",,,"04,99,1,99,9,99,9,99999,9,99,9,99,9",,"10159,1,99999,9",,,,,,"MET090METAR LPSJ 271100Z 28009KT 9999 SCT014 SCT030 18/16 Q1016 RMK RWY13 28006KT RWY31 26010KT;","P01 009003SCOCIG"
"08509599999","2010-05-28T09:00:00","4","38.6655","-28.175817","94.79","SAO JORGE, PO","FM-15","LPSJ ","V020","120,1,N,0031,1","99999,9,C,N","011265,1,N,1","+0190,1","+0130,1","99999,9","02,5,+00750,1,99,9","04,5,+02400,1,99,9",,,"04,99,1,99,9,99,9,99999,9,99,9,99,9",,"10180,1,99999,9",,,,,,"MET090METAR LPSJ 280900Z 12006KT 9999 FEW025 SCT080 19/13 Q1018 RMK RWY13 12007KT RWY31 13008KT;","P01 024003SCOCIG"
"08509599999","2010-05-28T10:00:00","4","38.6655","-28.175817","94.79","SAO JORGE, PO","FM-15","LPSJ ","V020","120,1,N,0036,1","99999,9,C,N","011265,1,N,1","+0190,1","+0140,1","99999,9","02,5,+00750,1,99,9","04,5,+02400,1,99,9",,,"04,99,1,99,9,99,9,99999,9,99,9,99,9",,"10190,1,99999,9",,,,,,"MET090METAR LPSJ 281000Z 12007KT 9999 FEW025 SCT080 19/14 Q1019 RMK RWY13 12008KT RWY31 12007KT;","P01 024003SCOCIG"
"08509599999","2010-05-28T11:00:00","4","38.6655","-28.175817","94.79","SAO JORGE, PO","FM-15","LPSJ ","V020","120,1,N,0041,1","99999,9,C,N","011265,1,N,1","+0200,1","+0130,1","99999,9","02,5,+00600,1,99,9","04,5,+02400,1,99,9",,,"04,99,1,99,9,99,9,99999,9,99,9,99,9",,"10190,1,99999,9",,,,,,"MET090METAR LPSJ 281100Z 12008KT 9999 FEW020 SCT080 20/13 Q1019 RMK RWY13 13005KT RWY31 13007KT;","P01 024003SCOCIG"
"08509599999","2010-05-28T12:00:00","4","38.6655","-28.175817","94.79","SAO JORGE, PO","FM-15","LPSJ ","V020","150,1,N,0046,1","99999,9,C,N","011265,1,N,1","+0200,1","+0130,1","99999,9","02,5,+00750,1,99,9","04,5,+02400,1,99,9",,,"04,99,1,99,9,99,9,99999,9,99,9,99,9",,"10190,1,99999,9",,,,,,"MET090METAR LPSJ 281200Z 15009KT 9999 FEW025 SCT080 20/13 Q1019 RMK RWY13 15005KT RWY31 15004KT;","P01 024003SCOCIG"
"08509599999","2010-05-28T14:00:00","4","38.6655","-28.175817","94.79","SAO JORGE, PO","FM-15","LPSJ ","V020","210,1,N,0021,1","99999,9,C,N","011265,1,N,1","+0200,1","+0160,1","99999,9","04,5,+00480,1,99,9","04,5,+00900,1,99,9",,,"04,99,1,99,9,99,9,99999,9,99,9,99,9",,"10200,1,99999,9",,,,,,"MET090METAR LPSJ 281400Z 21004KT 9999 SCT016 SCT030 20/16 Q1020 RMK RWY13 21004KT RWY31 21005KT;","P01 009003SCOCIG"
"08509599999","2010-05-28T15:00:00","4","38.6655","-28.175817","94.79","SAO JORGE, PO","FM-15","LPSJ ","V020","150,1,N,0026,1","99999,9,C,N","011265,1,N,1","+0200,1","+0170,1","99999,9","04,5,+00420,1,99,9","04,5,+00900,1,99,9",,,"04,99,1,99,9,99,9,99999,9,99,9,99,9",,"10200,1,99999,9",,,,,,"MET090METAR LPSJ 281500Z 15005KT 9999 SCT014 SCT030 20/17 Q1020 RMK RWY13 15006KT RWY31 16003KT;","P01 009003SCOCIG"
"08509599999","2010-05-29T09:00:00","4","38.6655","-28.175817","94.79","SAO JORGE, PO","FM-15","LPSJ ","V020","150,1,N,0041,1","01200,1,C,N","011265,1,N,1","+0190,1","+0170,1","99999,9","02,5,+00480,1,99,9","04,5,+01200,1,99,9","07,5,+02400,1,99,9",,"07,99,1,99,9,99,9,99999,9,99,9,99,9",,"10220,1,99999,9",,,,,,"MET097METAR LPSJ 290900Z 15008KT 9999 FEW016 SCT040 BKN080 19/17 Q1022 RMK RWY13 13006KT RWY31 15005KT;",
"08509599999","2010-05-29T10:00:00","4","38.6655","-28.175817","94.79","SAO JORGE, PO","FM-15","LPSJ ","V020","140,1,N,0036,1","02100,1,C,N","011265,1,N,1","+0190,1","+0160,1","99999,9","04,5,+00450,1,99,9","07,5,+02100,1,99,9",,,"07,99,1,99,9,99,9,99999,9,99,9,99,9",,"10230,1,99999,9",,,,,,"MET090METAR LPSJ 291000Z 14007KT 9999 SCT015 BKN070 19/16 Q1023 RMK RWY13 15007KT RWY31 15009KT;",
"08509599999","2010-05-29T11:00:00","4","38.6655","-28.175817","94.79","SAO JORGE, PO","FM-15","LPSJ ","V020","120,1,N,0036,1","02100,1,C,N","011265,1,N,1","+0200,1","+0150,1","99999,9","04,5,+00480,1,99,9","07,5,+02100,1,99,9",,,"07,99,1,99,9,99,9,99999,9,99,9,99,9",,"10230,1,99999,9",,,,,,"MET090METAR LPSJ 291100Z 12007KT 9999 SCT016 BKN070 20/15 Q1023 RMK RWY13 14006KT RWY31 13008KT;",
"08509599999","2010-05-29T12:00:00","4","38.6655","-28.175817","94.79","SAO JORGE, PO","FM-15","LPSJ ","V020","140,1,N,0051,1","02100,1,C,N","011265,1,N,1","+0200,1","+0150,1","99999,9","02,5,+00750,1,99,9","07,5,+02100,1,99,9",,,"07,99,1,99,9,99,9,99999,9,99,9,99,9",,"10230,1,99999,9",,,,,,"MET090METAR LPSJ 291200Z 14010KT 9999 FEW025 BKN070 20/15 Q1023 RMK RWY13 15007KT RWY31 15006KT;",
"08509599999","2010-05-29T14:00:00","4","38.6655","-28.175817","94.79","SAO JORGE, PO","FM-15","LPSJ ","V020","120,1,N,0046,1","02100,1,C,N","011265,1,N,1","+0210,1","+0150,1","99999,9","04,5,+00540,1,99,9","07,5,+02100,1,99,9",,,"07,99,1,99,9,99,9,99999,9,99,9,99,9",,"10230,1,99999,9",,,,,,"MET090METAR LPSJ 291400Z 12009KT 9999 SCT018 BKN070 21/15 Q1023 RMK RWY13 13007KT RWY31 12008KT;",
"08509599999","2010-05-29T15:00:00","4","38.6655","-28.175817","94.79","SAO JORGE, PO","FM-15","LPSJ ","V020","140,1,N,0036,1","02100,1,C,N","011265,1,N,1","+0200,1","+0160,1","99999,9","04,5,+00480,1,99,9","07,5,+02100,1,99,9",,,"07,99,1,99,9,99,9,99999,9,99,9,99,9",,"10240,1,99999,9",,,,,,"MET090METAR LPSJ 291500Z 14007KT 9999 SCT016 BKN070 20/16 Q1024 RMK RWY13 15005KT RWY31 15007KT;",
"08509599999","2010-05-29T16:00:00","4","38.6655","-28.175817","94.79","SAO JORGE, PO","FM-15","LPSJ ","V020","150,1,N,0041,1","02100,1,C,N","011265,1,N,1","+0200,1","+0160,1","99999,9","04,5,+00480,1,99,9","07,5,+02100,1,99,9",,,"07,99,1,99,9,99,9,99999,9,99,9,99,9",,"10230,1,99999,9",,,,,,"MET106METAR LPSJ 291600Z 15008KT 9999 SCT016 BKN070 20/16 Q1023 RMK RWY13 17004KT 130V230 RWY31 16009KT 120V210;",
"08509599999","2010-05-30T09:00:00","4","38.6655","-28.175817","94.79","SAO JORGE, PO","FM-15","LPSJ ","V020","190,1,N,0051,1","02100,1,C,N","011265,1,N,1","+0200,1","+0150,1","99999,9","04,5,+00480,1,99,9","07,5,+02100,1,99,9",,,"07,99,1,99,9,99,9,99999,9,99,9,99,9",,"10220,1,99999,9",,,,,,"MET090METAR LPSJ 300900Z 19010KT 9999 SCT016 BKN070 20/15 Q1022 RMK RWY13 19008KT RWY31 17013KT;",
"08509599999","2010-05-30T10:00:00","4","38.6655","-28.175817","94.79","SAO JORGE, PO","FM-15","LPSJ ","V020","150,1,N,0057,1","02100,1,C,N","011265,1,N,1","+0190,1","+0160,1","99999,9","04,5,+00480,1,99,9","07,5,+02100,1,99,9",,,"07,99,1,99,9,99,9,99999,9,99,9,99,9",,"10220,1,99999,9",,,,,,"MET106METAR LPSJ 301000Z 15011KT 9999 SCT016 BKN070 19/16 Q1022 RMK RWY13 16012KT 100V220 RWY31 15015KT 090V210;",
"08509599999","2010-05-30T11:00:00","4","38.6655","-28.175817","94.79","SAO JORGE, PO","FM-15","LPSJ ","V020","140,1,N,0062,1","00450,1,C,N","011265,1,N,1","+0200,1","+0150,1","99999,9","07,5,+00450,1,99,9","07,5,+02100,1,99,9",,,"07,99,1,99,9,99,9,99999,9,99,9,99,9",,"10220,1,99999,9",,,,,,"MET106METAR LPSJ 301100Z 14012KT 9999 BKN015 BKN070 20/15 Q1022 RMK RWY13 14014KT 090V210 RWY31 14016KT 090V210;",
"08509599999","2010-05-31T09:00:00","4","38.6655","-28.175817","94.79","SAO JORGE, PO","FM-15","LPSJ ","V020","110,1,N,0036,1","00900,1,C,N","009000,1,N,1","+0190,1","+0170,1","99999,9","04,5,+00480,1,99,9","04,5,+00900,1,99,9","07,5,+02100,1,99,9",,"07,99,1,99,9,99,9,99999,9,99,9,99,9","999,M,+9999,9","10210,1,99999,9","61,1",,,,,"MET101METAR LPSJ 310900Z 11007KT 9000 -RA SCT016 SCT030 BKN070 19/17 Q1021 RMK RWY13 12010KT RWY31 11008KT;","Q01 -00082ATMX  "
"08509599999","2010-05-31T10:00:00","4","38.6655","-28.175817","94.79","SAO JORGE, PO","FM-15","LPSJ ","V020","110,1,N,0036,1","00900,1,C,N","011265,1,N,1","+0190,1","+0170,1","99999,9","04,5,+00480,1,99,9","04,5,+00900,1,99,9","07,5,+02100,1,99,9",,"07,99,1,99,9,99,9,99999,9,99,9,99,9","999,M,+9999,9","10210,1,99999,9",,,,,,"MET102METAR LPSJ 311000Z 11007KT 9999 SCT016 SCT030 BKN070 19/17 Q1021 RERA RMK RWY13 11008KT RWY31 11010KT;","Q01 -00102ATMX  "
"08509599999","2010-05-31T11:00:00","4","38.6655","-28.175817","94.79","SAO JORGE, PO","FM-15","LPSJ ","V020","110,1,N,0051,1","00750,1,C,N","009000,1,N,1","+0190,1","+0180,1","99999,9","04,5,+00360,1,99,9","04,5,+00750,1,99,9","07,5,+02100,1,99,9",,"07,99,1,99,9,99,9,99999,9,99,9,99,9",,"10210,1,99999,9","51,1",,,,,"MET106METAR LPSJ 311100Z 11010KT 9000 -DZ SCT012 SCT025 BKN070 19/18 Q1021 RERA RMK RWY13 12011KT RWY31 12012KT;",
"08509599999","2010-05-31T12:00:00","4","38.6655","-28.175817","94.79","SAO JORGE, PO","FM-15","LPSJ ","V020","110,1,N,0046,1","00750,1,C,N","009000,1,N,1","+0190,1","+0180,1","99999,9","04,5,+00420,1,99,9","04,5,+00750,1,99,9","07,5,+02100,1,99,9",,"07,99,1,99,9,99,9,99999,9,99,9,99,9","999,M,+9999,9","10210,1,99999,9","61,1",,,,,"MET101METAR LPSJ 311200Z 11009KT 9000 -RA SCT014 SCT025 BKN070 19/18 Q1021 RMK RWY13 11009KT RWY31 11010KT;","Q01 -00102ATMX  "
"08509599999","2010-05-31T14:00:00","4","38.6655","-28.175817","94.79","SAO JORGE, PO","FM-15","LPSJ ","V020","130,1,N,0041,1","00750,1,C,N","007000,1,N,1","+0190,1","+0180,1","99999,9","04,5,+00480,1,99,9","04,5,+00750,1,99,9","07,5,+02100,1,99,9",,"07,99,1,99,9,99,9,99999,9,99,9,99,9","999,M,+9999,9","10210,1,99999,9","61,1",,,,,"MET106METAR LPSJ 311400Z 13008KT 7000 -RA SCT016 SCT025 BKN070 19/18 Q1021 RERA RMK RWY13 12007KT RWY31 11008KT;","Q01 -00082ATMX  "
"08509599999","2010-05-31T15:00:00","4","38.6655","-28.175817","94.79","SAO JORGE, PO","FM-15","LPSJ ","V020","110,1,N,0036,1","00750,1,C,N","007000,1,N,1","+0190,1","+0180,1","99999,9","04,5,+00480,1,99,9","04,5,+00750,1,99,9","07,5,+02100,1,99,9",,"07,99,1,99,9,99,9,99999,9,99,9,99,9",,"10200,1,99999,9","61,1",,,,,"MET106METAR LPSJ 311500Z 11007KT 7000 -RA SCT016 SCT025 BKN070 19/18 Q1020 RERA RMK RWY13 12011KT RWY31 12011KT;",
"08509599999","2010-05-31T16:00:00","4","38.6655","-28.175817","94.79","SAO JORGE, PO","FM-15","LPSJ ","V020","100,1,N,0046,1","00750,1,C,N","007000,1,N,1","+0190,1","+0180,1","99999,9","04,5,+00480,1,99,9","04,5,+00750,1,99,9","07,5,+02100,1,99,9",,"07,99,1,99,9,99,9,99999,9,99,9,99,9","999,M,+9999,9","10200,1,99999,9","61,1",,,,,"MET106METAR LPSJ 311600Z 10009KT 7000 -RA SCT016 SCT025 BKN070 19/18 Q1020 RERA RMK RWY13 11010KT RWY31 11009KT;","Q01 -00092ATMX  "
"08509599999","2010-06-01T09:00:00","4","38.6655","-28.175817","94.79","SAO JORGE, PO","FM-15","LPSJ ","V020","300,1,N,0062,1","22000,1,9,N","011265,1,N,1","+0180,1","+0160,1","99999,9","02,5,+00360,1,99,9",,,,"02,99,1,99,9,99,9,99999,9,99,9,99,9",,"10129,1,99999,9",,,,,,"MET083METAR LPSJ 010900Z 30012KT 9999 FEW012 18/16 Q1013 RMK RWY13 31012KT RWY31 30015KT;",
"08509599999","2010-06-01T10:00:00","4","38.6655","-28.175817","94.79","SAO JORGE, PO","FM-15","LPSJ ","V020","300,1,N,0062,1","22000,1,9,N","011265,1,N,1","+0180,1","+0170,1","99999,9","02,5,+00300,1,99,9",,,,"02,99,1,99,9,99,9,99999,9,99,9,99,9",,"10139,1,99999,9",,,,,,"MET083METAR LPSJ 011000Z 30012KT 9999 FEW010 18/17 Q1014 RMK RWY13 31008KT RWY31 29013KT;",
"08509599999","2010-06-01T11:00:00","4","38.6655","-28.175817","94.79","SAO JORGE, PO","FM-15","LPSJ ","V020","310,1,N,0067,1","22000,1,9,N","011265,1,N,1","+0180,1","+0160,1","99999,9","02,5,+00360,1,99,9",,,,"02,99,1,99,9,99,9,99999,9,99,9,99,9",,"10139,1,99999,9",,,,,,"MET083METAR LPSJ 011100Z 31013KT 9999 FEW012 18/16 Q1014 RMK RWY13 32012KT RWY31 31016KT;",
"08509599999","2010-06-01T12:00:00","4","38.6655","-28.175817","94.79","SAO JORGE, PO","FM-15","LPSJ ","V020","310,1,N,0062,1","22000,1,9,N","011265,1,N,1","+0190,1","+0160,1","99999,9","02,5,+00360,1,99,9",,,,"02,99,1,99,9,99,9,99999,9,99,9,99,9",,"10139,1,99999,9",,,,,,"MET083METAR LPSJ 011200Z 31012KT 9999 FEW012 19/16 Q1014 RMK RWY13 32014KT RWY31 31015KT;",
"08509599999","2010-06-01T14:00:00","4","38.6655","-28.175817","94.79","SAO JORGE, PO","FM-15","LPSJ ","V020","290,1,N,0057,1","22000,1,9,N","011265,1,N,1","+0200,1","+0170,1","99999,9","02,5,+00600,1,99,9",,,,"02,99,1,99,9,99,9,99999,9,99,9,99,9",,"10139,1,99999,9",,,,,,"MET083METAR LPSJ 011400Z 29011KT 9999 FEW020 20/17 Q1014 RMK RWY13 31008KT RWY31 30011KT;",
"08509599999","2010-06-01T15:00:00","4","38.6655","-28.175817","94.79","SAO JORGE, PO","FM-15","LPSJ ","V020","290,1,N,0026,1","22000,1,9,N","011265,1,N,1","+0230,1","+0180,1","99999,9","02,5,+00600,1,99,9",,,,"02,99,1,99,9,99,9,99999,9,99,9,99,9",,"10129,1,99999,9",,,,,,"MET083METAR LPSJ 011500Z 29005KT 9999 FEW020 23/18 Q1013 RMK RWY13 29006KT RWY31 28004KT;",
"08509599999","2010-06-01T16:00:00","4","38.6655","-28.175817","94.79","SAO JORGE, PO","FM-15","LPSJ ","V020","150,1,N,0041,1","22000,1,9,N","011265,1,N,1","+0190,1","+0170,1","99999,9","02,5,+00600,1,99,9",,,,"02,99,1,99,9,99,9,99999,9,99,9,99,9",,"10139,1,99999,9",,,,,,"MET083METAR LPSJ 011600Z 15008KT 9999 FEW020 19/17 Q1014 RMK RWY13 17005KT RWY31 16005KT;",
"08509599999","2010-06-02T09:00:00","4","38.6655","-28.175817","94.79","SAO JORGE, PO","FM-15","LPSJ ","V020","270,1,N,0021,1","00420,1,C,N","011265,1,N,1","+0180,1","+0170,1","99999,9","02,5,+00240,1,99,9","04,5,+00420,1,99,9","07,5,+00900,1,99,9",,"07,99,1,99,9,99,9,99999,9,99,9,99,9",,"10108,1,99999,9",,,,,,"MET097METAR LPSJ 020900Z 27004KT 9999 FEW008 SCT014 BKN030 18/17 Q1011 RMK RWY13 28004KT RWY31 26003KT;",
"08509599999","2010-06-02T10:00:00","4","38.6655","-28.175817","94.79","SAO JORGE, PO","FM-15","LPSJ ","V020","280,1,N,0031,1","00180,1,C,N","005000,1,N,1","+0170,1","+0170,1","99999,9","02,5,+00120,1,99,9","04,5,+00180,1,99,9","07,5,+00390,1,99,9",,"07,99,1,99,9,99,9,99999,9,99,9,99,9",,"10108,1,99999,9","10,1","61,1",,,,"MET109METAR LPSJ 021000Z 28006KT 5000 -RA BR FEW004 SCT006 BKN013 17/17 Q1011 RERA RMK RWY13 31006KT RWY31 29007KT;",
"08509599999","2010-06-02T11:00:00","4","38.6655","-28.175817","94.79","SAO JORGE, PO","FM-15","LPSJ ","V020","280,1,N,0057,1","00390,1,C,N","011265,1,N,1","+0170,1","+0160,1","99999,9","02,5,+00210,1,99,9","04,5,+00390,1,99,9","07,5,+02100,1,99,9",,"07,99,1,99,9,99,9,99999,9,99,9,99,9",,"10108,1,99999,9",,,,,,"MET119METAR LPSJ 021100Z 28011KT 9999 FEW007 SCT013 BKN070 17/16 Q1011 RERA RMK RWY13 29006KT 240V330 RWY31 270011KT 240V310;",
"08509599999","2010-06-02T12:00:00","4","38.6655","-28.175817","94.79","SAO JORGE, PO","FM-15","LPSJ ","V020","270,1,N,0041,1","00480,1,C,N","011265,1,N,1","+0170,1","+0150,1","99999,9","02,5,+00270,1,99,9","04,5,+00480,1,99,9","07,5,+01500,1,99,9",,"07,99,1,99,9,99,9,99999,9,99,9,99,9",,"10108,1,99999,9",,,,,,"MET113METAR LPSJ 021200Z 27008KT 9999 FEW009 SCT016 BKN050 17/15 Q1011 RMK RWY13 26007KT 240V320 RWY31 27010KT 240V310;",
"08509599999","2010-06-02T13:00:00","4","38.6655","-28.175817","94.79","SAO JORGE, PO","FM-15","LPSJ ","V020","270,1,N,0046,1","22000,1,9,N","011265,1,N,1","+0180,1","+0160,1","99999,9","04,5,+00360,1,99,9",,,,"04,99,1,99,9,99,9,99999,9,99,9,99,9",,"10108,1,99999,9",,,,,,"MET099METAR LPSJ 021300Z 27009KT 9999 SCT012 18/16 Q1011 RMK RWY13 29006KT 230V330 RWY31 26010KT 240V310;",
"08509599999","2010-06-02T14:00:00","4","38.6655","-28.175817","94.79","SAO JORGE, PO","FM-15","LPSJ ","V020","280,1,N,0067,1","22000,1,9,N","011265,1,N,1","+0190,1","+0160,1","99999,9","02,5,+00420,1,99,9",,,,"02,99,1,99,9,99,9,99999,9,99,9,99,9",,"10108,1,99999,9",,,,,,"MET099METAR LPSJ 021400Z 28013KT 9999 FEW014 19/16 Q1011 RMK RWY13 29009KT 230V340 RWY31 27011KT 230V300;",
"08509599999","2010-06-02T15:00:00","4","38.6655","-28.175817","94.79","SAO JORGE, PO","FM-15","LPSJ ","V020","270,1,N,0067,1","22000,1,9,N","011265,1,N,1","+0200,1","+0150,1","99999,9","02,5,+00540,1,99,9",,,,"02,99,1,99,9,99,9,99999,9,99,9,99,9",,"10108,1,99999,9",,,,,,"MET099METAR LPSJ 021500Z 27013KT 9999 FEW018 20/15 Q1011 RMK RWY13 29008KT 230V340 RWY31 26013KT 200V290;",
"08509599999","2010-06-02T16:00:00","4","38.6655","-28.175817","94.79","SAO JORGE, PO","FM-15","LPSJ ","V020","260,1,N,0067,1","22000,1,9,N","011265,1,N,1","+0190,1","+0140,1","99999,9","02,5,+00600,1,99,9",,,,"02,99,1,99,9,99,9,99999,9,99,9,99,9",,"10108,1,99999,9",,,,,,"MET099METAR LPSJ 021600Z 26013KT 9999 FEW020 19/14 Q1011 RMK RWY13 28008KT 230V350 RWY31 25011KT 210V300;",
"08509599999","2010-06-03T09:00:00","4","38.6655","-28.175817","94.79","SAO JORGE, PO","FM-15","LPSJ ","V020","280,1,N,0051,1","22000,1,9,N","011265,1,N,1","+0170,1","+0130,1","99999,9","02,5,+00480,1,99,9",,,,"02,99,1,99,9,99,9,99999,9,99,9,99,9",,"10169,1,99999,9",,,,,,"MET083METAR LPSJ 030900Z 28010KT 9999 FEW016 17/13 Q1017 RMK RWY13 30007KT RWY31 27006KT;",
"08509599999","2010-06-03T10:00:00","4","38.6655","-28.175817","94.79","SAO JORGE, PO","FM-15","LPSJ ","V020","280,1,N,0046,1","99999,9,C,N","011265,1,N,1","+0170,1","+0130,1","99999,9","02,5,+00480,1,99,9","04,5,+00900,1,99,9",,,"04,99,1,99,9,99,9,99999,9,99,9,99,9",,"10180,1,99999,9",,,,,,"MET090METAR LPSJ 031000Z 28009KT 9999 FEW016 SCT030 17/13 Q1018 RMK RWY13 29008KT RWY31 27009KT;","P01 009003SCOCIG"
"08509599999","2010-06-03T11:00:00","4","38.6655","-28.175817","94.79","SAO JORGE, PO","FM-15","LPSJ ","V020","280,1,N,0057,1","22000,1,9,N","011265,1,N,1","+0180,1","+0130,1","99999,9","02,5,+00480,1,99,9",,,,"02,99,1,99,9,99,9,99999,9,99,9,99,9",,"10180,1,99999,9",,,,,,"MET083METAR LPSJ 031100Z 28011KT 9999 FEW016 18/13 Q1018 RMK RWY13 30010KT RWY31 28012KT;",
"08509599999","2010-06-03T12:00:00","4","38.6655","-28.175817","94.79","SAO JORGE, PO","FM-15","LPSJ ","V020","280,1,N,0057,1","99999,9,C,N","011265,1,N,1","+0190,1","+0130,1","99999,9","02,5,+00480,1,99,9","04,5,+00900,1,99,9",,,"04,99,1,99,9,99,9,99999,9,99,9,99,9",,"10190,1,99999,9",,,,,,"MET090METAR LPSJ 031200Z 28011KT 9999 FEW016 SCT030 19/13 Q1019 RMK RWY13 29008KT RWY31 28008KT;","P01 009003SCOCIG"
"08509599999","2010-06-04T11:00:00","4","38.6655","-28.175817","94.79","SAO JORGE, PO","FM-15","LPSJ ","V020","150,1,N,0015,1","22000,1,9,N","011265,1,N,1","+0190,1","+0130,1","99999,9","04,5,+00900,1,99,9",,,,"04,99,1,99,9,99,9,99999,9,99,9,99,9",,"10210,1,99999,9",,,,,,"MET083METAR LPSJ 041100Z 15003KT 9999 SCT030 19/13 Q1021 RMK RWY13 16003KT RWY31 14003KT;",
"08509599999","2010-06-04T12:00:00","4","38.6655","-28.175817","94.79","SAO JORGE, PO","FM-15","LPSJ ","V020","999,9,V,0010,1","22000,1,9,N","011265,1,N,1","+0200,1","+0130,1","99999,9","04,5,+00900,1,99,9",,,,"04,99,1,99,9,99,9,99999,9,99,9,99,9",,"10210,1,99999,9",,,,,,"MET079METAR LPSJ 041200Z VRB02KT 9999 SCT030 20/13 Q1021 RWY13 VRB03KT RWY31 VRB01KT;",
"08509599999","2010-06-04T14:00:00","4","38.6655","-28.175817","94.79","SAO JORGE, PO","FM-15","LPSJ ","V020","330,1,N,0021,1","22000,1,9,N","011265,1,N,1","+0200,1","+0130,1","99999,9","04,5,+00900,1,99,9",,,,"04,99,1,99,9,99,9,99999,9,99,9,99,9",,"10210,1,99999,9",,,,,,"MET083METAR LPSJ 041400Z 33004KT 9999 SCT030 20/13 Q1021 RMK RWY13 32007KT RWY31 32004KT;",
"08509599999","2010-06-04T15:00:00","4","38.6655","-28.175817","94.79","SAO JORGE, PO","FM-15","LPSJ ","V020","999,9,V,0021,1","22000,1,9,N","011265,1,N,1","+0210,1","+0130,1","99999,9","04,5,+00900,1,99,9",,,,"04,99,1,99,9,99,9,99999,9,99,9,99,9",,"10210,1,99999,9",,,,,,"MET083METAR LPSJ 041500Z VRB04KT 9999 SCT030 21/13 Q1021 RMK RWY13 32006KT RWY31 VRB04KT;",
"08509599999","2010-06-05T09:00:00","4","38.6655","-28.175817","94.79","SAO JORGE, PO","FM-15","LPSJ ","V020","290,1,N,0051,1","00450,1,C,N","011265,1,N,1","+0160,1","+0150,1","99999,9","02,5,+00180,1,99,9","07,5,+00450,1,99,9",,,"07,99,1,99,9,99,9,99999,9,99,9,99,9",,"10240,1,99999,9","80,1",,,,,"MET096METAR LPSJ 050900Z 29010KT 9999 -SHRA FEW006 BKN015 16/15 Q1024 RMK RWY13 30007KT RWY31 30008KT;",
"08509599999","2010-06-05T10:00:00","4","38.6655","-28.175817","94.79","SAO JORGE, PO","FM-15","LPSJ ","V020","290,1,N,0036,1","00180,1,C,N","004000,1,N,1","+0160,1","+0150,1","99999,9","04,5,+00090,1,99,9","07,5,+00180,1,99,9",,,"07,99,1,99,9,99,9,99999,9,99,9,99,9",,"10251,1,99999,9","10,1","51,1",,,,"MET097METAR LPSJ 051000Z 29007KT 4000 -DZ BR SCT003 BKN006 16/15 Q1025 RMK RWY13 29004KT RWY31 28006KT;",
"08509599999","2010-06-05T11:00:00","4","38.6655","-28.175817","94.79","SAO JORGE, PO","FM-15","LPSJ ","V020","300,1,N,0036,1","00360,1,C,N","008000,1,N,1","+0160,1","+0160,1","99999,9","04,5,+00210,1,99,9","07,5,+00360,1,99,9",,,"07,99,1,99,9,99,9,99999,9,99,9,99,9",,"10251,1,99999,9","80,1",,,,,"MET096METAR LPSJ 051100Z 30007KT 8000 -SHRA SCT007 BKN012 16/16 Q1025 RMK RWY13 29004KT RWY31 29005KT;",
"08509599999","2010-06-05T12:00:00","4","38.6655","-28.175817","94.79","SAO JORGE, PO","FM-15","LPSJ ","V020","300,1,N,0041,1","00210,1,C,N","003000,1,N,1","+0160,1","+0160,1","99999,9","02,5,+00120,1,99,9","04,5,+00210,1,99,9","07,5,+00360,1,99,9",,"07,99,1,99,9,99,9,99999,9,99,9,99,9",,"10251,1,99999,9","10,1","51,1",,,,"MET104METAR LPSJ 051200Z 30008KT 3000 -DZ BR FEW004 SCT007 BKN012 16/16 Q1025 RMK RWY13 30004KT RWY31 29004KT;",
"08509599999","2010-06-05T14:00:00","4","38.6655","-28.175817","94.79","SAO JORGE, PO","FM-15","LPSJ ","V020","300,1,N,0046,1","99999,9,C,N","011265,1,N,1","+0190,1","+0150,1","99999,9","04,5,+00420,1,99,9","04,5,+00750,1,99,9",,,"04,99,1,99,9,99,9,99999,9,99,9,99,9",,"10251,1,99999,9",,,,,,"MET090METAR LPSJ 051400Z 30009KT 9999 SCT014 SCT025 19/15 Q1025 RMK RWY13 31009KT RWY31 30011KT;","P01 007503SCOCIG"
"08509599999","2010-06-05T15:00:00","4","38.6655","-28.175817","94.79","SAO JORGE, PO","FM-15","LPSJ ","V020","300,1,N,0046,1","99999,9,C,N","011265,1,N,1","+0190,1","+0150,1","99999,9","04,5,+00540,1,99,9","04,5,+00900,1,99,9",,,"04,99,1,99,9,99,9,99999,9,99,9,99,9",,"10251,1,99999,9",,,,,,"MET090METAR LPSJ 051500Z 30009KT 9999 SCT018 SCT030 19/15 Q1025 RMK RWY13 31007KT RWY31 28005KT;","P01 009003SCOCIG"
"08509599999","2010-06-05T16:00:00","4","38.6655","-28.175817","94.79","SAO JORGE, PO","FM-15","LPSJ ","V020","290,1,N,0036,1","99999,9,C,N","011265,1,N,1","+0190,1","+0150,1","99999,9","04,5,+00540,1,99,9","04,5,+00900,1,99,9",,,"04,99,1,99,9,99,9,99999,9,99,9,99,9",,"10251,1,99999,9",,,,,,"MET090METAR LPSJ 051600Z 29007KT 9999 SCT018 SCT030 19/15 Q1025 RMK RWY13 31006KT RWY31 30007KT;","P01 009003SCOCIG"
"08509599999","2010-06-06T09:00:00","4","38.6655","-28.175817","94.79","SAO JORGE, PO","FM-15","LPSJ ","V020","290,1,N,0036,1","00450,1,C,N","011265,1,N,1","+0160,1","+0150,1","99999,9","02,5,+00210,1,99,9","04,5,+00450,1,99,9","07,5,+00900,1,99,9",,"07,99,1,99,9,99,9,99999,9,99,9,99,9",,"10271,1,99999,9",,,,,,"MET097METAR LPSJ 060900Z 29007KT 9999 FEW007 SCT015 BKN030 16/15 Q1027 RMK RWY13 30005KT RWY31 29006KT;",
"08509599999","2010-06-06T10:00:00","4","38.6655","-28.175817","94.79","SAO JORGE, PO","FM-15","LPSJ ","V020","290,1,N,0031,1","00750,1,C,N","011265,1,N,1","+0170,1","+0150,1","99999,9","04,5,+00360,1,99,9","07,5,+00750,1,99,9",,,"07,99,1,99,9,99,9,99999,9,99,9,99,9",,"10271,1,99999,9",,,,,,"MET090METAR LPSJ 061000Z 29006KT 9999 SCT012 BKN025 17/15 Q1027 RMK RWY13 30004KT RWY31 28005KT;",
"08509599999","2010-06-06T11:00:00","4","38.6655","-28.175817","94.79","SAO JORGE, PO","FM-15","LPSJ ","V020","280,1,N,0036,1","00750,1,C,N","011265,1,N,1","+0180,1","+0140,1","99999,9","04,5,+00390,1,99,9","07,5,+00750,1,99,9",,,"07,99,1,99,9,99,9,99999,9,99,9,99,9",,"10271,1,99999,9",,,,,,"MET090METAR LPSJ 061100Z 28007KT 9999 SCT013 BKN025 18/14 Q1027 RMK RWY13 29006KT RWY31 27004KT;",
"08509599999","2010-06-06T12:00:00","4","38.6655","-28.175817","94.79","SAO JORGE, PO","FM-15","LPSJ ","V020","280,1,N,0036,1","00750,1,C,N","011265,1,N,1","+0180,1","+0140,1","99999,9","04,5,+00450,1,99,9","07,5,+00750,1,99,9",,,"07,99,1,99,9,99,9,99999,9,99,9,99,9",,"10271,1,99999,9",,,,,,"MET090METAR LPSJ 061200Z 28007KT 9999 SCT015 BKN025 18/14 Q1027 RMK RWY13 28005KT RWY31 26005KT;",
"08509599999","2010-06-07T09:00:00","4","38.6655","-28.175817","94.79","SAO JORGE, PO","FM-15","LPSJ ","V020","300,1,N,0062,1","22000,1,9,N","011265,1,N,1","+0170,1","+0140,1","99999,9","02,5,+00450,1,99,9",,,,"02,99,1,99,9,99,9,99999,9,99,9,99,9",,"10271,1,99999,9",,,,,,"MET083METAR LPSJ 070900Z 30012KT 9999 FEW015 17/14 Q1027 RMK RWY13 32015KT RWY31 30013KT;",
"08509599999","2010-06-07T10:00:00","4","38.6655","-28.175817","94.79","SAO JORGE, PO","FM-15","LPSJ ","V020","300,1,N,0067,1","22000,1,9,N","011265,1,N,1","+0180,1","+0140,1","99999,9","02,5,+00450,1,99,9",,,,"02,99,1,99,9,99,9,99999,9,99,9,99,9",,"10271,1,99999,9",,,,,,"MET083METAR LPSJ 071000Z 30013KT 9999 FEW015 18/14 Q1027 RMK RWY13 31011KT RWY31 30010KT;",
"08509599999","2010-06-07T12:00:00","4","38.6655","-28.175817","94.79","SAO JORGE, PO","FM-15","LPSJ ","V020","320,1,N,0062,1","00600,1,C,N","011265,1,N,1","+0190,1","+0150,1","99999,9","04,5,+00420,1,99,9","07,5,+00600,1,99,9",,,"07,99,1,99,9,99,9,99999,9,99,9,99,9",,"10281,1,99999,9",,,,,,"MET091METAR LPSJ 071200Z 320012KT 9999 SCT014 BKN020 19/15 Q1028 RMK RWY13 32010KT RWY31 31010KT;",
"08509599999","2010-06-07T14:00:00","4","38.6655","-28.175817","94.79","SAO JORGE, PO","FM-15","LPSJ ","V020","280,1,N,0067,1","00660,1,C,N","011265,1,N,1","+0190,1","+0160,1","99999,9","04,5,+00420,1,99,9","07,5,+00660,1,99,9",,,"07,99,1,99,9,99,9,99999,9,99,9,99,9",,"10281,1,99999,9",,,,,,"MET098METAR LPSJ 071400Z 28013KT 9999 SCT014 BKN022 19/16 Q1028 RMK RWY13 29008KT 270V340 RWY31 29007KT;",
"08509599999","2010-06-07T15:00:00","4","38.6655","-28.175817","94.79","SAO JORGE, PO","FM-15","LPSJ ","V020","280,1,N,0072,1","00360,1,C,N","011265,1,N,1","+0190,1","+0170,1","99999,9","07,5,+00360,1,99,9",,,,"07,99,1,99,9,99,9,99999,9,99,9,99,9",,"10271,1,99999,9",,,,,,"MET091METAR LPSJ 071500Z 28014KT 9999 BKN012 19/17 Q1027 RMK RWY13 30010KT 270V340 RWY31 29010KT;",
"08509599999","2010-06-07T16:00:00","4","38.6655","-28.175817","94.79","SAO JORGE, PO","FM-15","LPSJ ","V020","280,1,N,0082,1","99999,9,C,N","011265,1,N,1","+0190,1","+0160,1","99999,9","04,5,+00420,1,99,9","04,5,+00600,1,99,9",,,"04,99,1,99,9,99,9,99999,9,99,9,99,9",,"10271,1,99999,9",,,,,,"MET098METAR LPSJ 071600Z 28016KT 9999 SCT014 SCT020 19/16 Q1027 RMK RWY13 30010KT 260V350 RWY31 28011KT;","P01 006003SCOCIG"
"08509599999","2010-06-08T09:00:00","4","38.6655","-28.175817","94.79","SAO JORGE, PO","FM-15","LPSJ ","V020","300,1,N,0057,1","00090,1,C,N","001000,1,N,1","+0170,1","+0160,1","99999,9","08,5,+00090,1,99,9",,,,"08,99,1,99,9,99,9,99999,9,99,9,99,9",,"10251,1,99999,9","10,1",,,,,"MET086METAR LPSJ 080900Z 30011KT 1000 BR OVC003 17/16 Q1025 RMK RWY13 32012KT RWY31 31012KT;",
"08509599999","2010-06-08T10:00:00","4","38.6655","-28.175817","94.79","SAO JORGE, PO","FM-15","LPSJ ","V020","300,1,N,0062,1","00015,1,9,N","000500,1,N,1","+0170,1","+0170,1","99999,9","09,1,+00015,1,99,9",,,,"09,99,1,99,9,99,9,00025,1,99,9,99,9",,"10261,1,99999,9","45,1","51,1",,,,"MET089METAR LPSJ 081000Z 30012KT 0500 -DZ FG VV000 17/17 Q1026 RMK RWY13 32009KT RWY31 30008KT;",
"08509599999","2010-06-08T11:00:00","4","38.6655","-28.175817","94.79","SAO JORGE, PO","FM-15","LPSJ ","V020","300,1,N,0072,1","00015,1,9,N","000500,1,N,1","+0170,1","+0170,1","99999,9","09,1,+00015,1,99,9",,,,"09,99,1,99,9,99,9,00025,1,99,9,99,9",,"10261,1,99999,9","45,1","51,1",,,,"MET089METAR LPSJ 081100Z 30014KT 0500 -DZ FG VV000 17/17 Q1026 RMK RWY13 32010KT RWY31 30010KT;",
"08509599999","2010-06-08T12:00:00","4","38.6655","-28.175817","94.79","SAO JORGE, PO","FM-15","LPSJ ","V020","290,1,N,0077,1","00150,1,C,N","002000,1,N,1","+0180,1","+0180,1","99999,9","04,5,+00090,1,99,9","07,5,+00150,1,99,9",,,"07,99,1,99,9,99,9,99999,9,99,9,99,9",,"10261,1,99999,9","10,1",,,,,"MET093METAR LPSJ 081200Z 29015KT 2000 BR SCT003 BKN005 18/18 Q1026 RMK RWY13 32008KT RWY31 29006KT;",
"08509599999","2010-06-08T13:00:00","4","38.6655","-28.175817","94.79","SAO JORGE, PO","FM-15","LPSJ ","V020","290,1,N,0087,1","00180,1,C,N","004000,1,N,1","+0190,1","+0170,1","99999,9","04,5,+00090,1,99,9","07,5,+00180,1,99,9",,,"07,99,1,99,9,99,9,99999,9,99,9,99,9",,"10251,1,99999,9","10,1",,,,,"MET109METAR LPSJ 081300Z 29017KT 4000 BR SCT003 BKN006 19/17 Q1025 RMK RWY13 30010KT 260V350 RWY31 28011KT 260V320;",
"08509599999","2010-06-08T14:00:00","4","38.6655","-28.175817","94.79","SAO JORGE, PO","FM-15","LPSJ ","V020","290,1,N,0072,1","00150,1,C,N","002000,1,N,1","+0180,1","+0170,1","99999,9","04,5,+00090,1,99,9","07,5,+00150,1,99,9",,,"07,99,1,99,9,99,9,99999,9,99,9,99,9",,"10251,1,99999,9","10,1",,,,,"MET101METAR LPSJ 081400Z 29014KT 2000 BR SCT003 BKN005 18/17 Q1025 RMK RWY13 30009KT 270V340 RWY31 30009KT;",
"08509599999","2010-06-08T15:00:00","4","38.6655","-28.175817","94.79","SAO JORGE, PO","FM-15","LPSJ ","V020","280,1,N,0062,1","00090,1,C,N","001000,1,N,1","+0180,1","+0170,1","99999,9","08,5,+00090,1,99,9",,,,"08,99,1,99,9,99,9,99999,9,99,9,99,9",,"10251,1,99999,9","10,1",,,,,"MET094METAR LPSJ 081500Z 28012KT 1000 BR OVC003 18/17 Q1025 RMK RWY13 31009KT 270V340 RWY31 29008KT;",
"08509599999","2010-06-08T16:00:00","4","38.6655","-28.175817","94.79","SAO JORGE, PO","FM-15","LPSJ ","V020","280,1,N,0057,1","00015,1,9,N","000500,1,N,1","+0180,1","+0170,1","99999,9","09,1,+00015,1,99,9",,,,"09,99,1,99,9,99,9,00025,1,99,9,99,9",,"10251,1,99999,9","45,1",,,,,"MET085METAR LPSJ 081600Z 28011KT 0500 FG VV000 18/17 Q1025 RMK RWY13 31007KT RWY31 29007KT;",
"08509599999","2010-06-09T10:00:00","4","38.6655","-28.175817","94.79","SAO JORGE, PO","FM-15","LPSJ ","V020","290,1,N,0067,1","00360,1,C,N","011265,1,N,1","+0170,1","+0160,1","99999,9","02,5,+00180,1,99,9","07,5,+00360,1,99,9",,,"07,99,1,99,9,99,9,99999,9,99,9,99,9",,"10240,1,99999,9",,,,,,"MET090METAR LPSJ 091000Z 29013KT 9999 FEW006 BKN012 17/16 Q1024 RMK RWY13 32006KT RWY31 29009KT;",
"08509599999","2010-06-09T11:00:00","4","38.6655","-28.175817","94.79","SAO JORGE, PO","FM-15","LPSJ ","V020","300,1,N,0082,1","00360,1,C,N","011265,1,N,1","+0170,1","+0160,1","99999,9","02,5,+00240,1,99,9","07,5,+00360,1,99,9",,,"07,99,1,99,9,99,9,99999,9,99,9,99,9",,"10240,1,99999,9",,,,,,"MET106METAR LPSJ 091100Z 30016KT 9999 FEW008 BKN012 17/16 Q1024 RMK 32012G23KT 290V350 RWY31 32018G29KT 260V360;",
"08509599999","2010-06-09T12:00:00","4","38.6655","-28.175817","94.79","SAO JORGE, PO","FM-15","LPSJ ","V020","300,1,N,0072,1","00360,1,C,N","011265,1,N,1","+0180,1","+0160,1","99999,9","07,5,+00360,1,99,9",,,,"07,99,1,99,9,99,9,99999,9,99,9,99,9",,"10240,1,99999,9",,,,,,"MET094METAR LPSJ 091200Z 30014KT 9999 BKN012 18/16 Q1024 RMK RWY13 32014KT RWY31 29014G24KT 260V350;",
"08509599999","2010-06-09T13:00:00","4","38.6655","-28.175817","94.79","SAO JORGE, PO","FM-15","LPSJ ","V020","280,1,N,0067,1","00360,1,C,N","011265,1,N,1","+0180,1","+0160,1","99999,9","07,5,+00360,1,99,9",,,,"07,99,1,99,9,99,9,99999,9,99,9,99,9",,"10240,1,99999,9","80,1",,,,,"MET111METAR LPSJ 091300Z 28013KT 9999 -SHRA BKN012 18/16 Q1024 RMK RNW13 32006G16KT 280V340 RWY31 28011G24KT 240V320;",
"08509599999","2010-06-09T14:00:00","4","38.6655","-28.175817","94.79","SAO JORGE, PO","FM-15","LPSJ ","V020","290,1,N,0067,1","00360,1,C,N","011265,1,N,1","+0180,1","+0170,1","99999,9","02,5,+00240,1,99,9","07,5,+00360,1,99,9",,,"07,99,1,99,9,99,9,99999,9,99,9,99,9",,"10240,1,99999,9","16,1",,,,,"MET121METAR LPSJ 091400Z 29013KT 9999 3000NW VCSH FEW008 BKN012 18/17 Q1024 RMK RWY13 31008KT 260V340 RWY31 29008G20KT 230V340;",
"08509599999","2010-06-09T15:00:00","4","38.6655","-28.175817","94.79","SAO JORGE, PO","FM-15","LPSJ ","V020","290,1,N,0072,1","00420,1,C,N","011265,1,N,1","+0180,1","+0160,1","99999,9","02,5,+00240,1,99,9","07,5,+00420,1,99,9",,,"07,99,1,99,9,99,9,99999,9,99,9,99,9",,"10240,1,99999,9",,,,,,"MET109METAR LPSJ 091500Z 29014KT 9999 FEW008 BKN014 18/16 Q1024 RMK RWY13 32011KT 280V350 RWY31 29010G20KT 240V330;",
"08509599999","2010-06-09T16:00:00","4","38.6655","-28.175817","94.79","SAO JORGE, PO","FM-15","LPSJ ","V020","280,1,N,0067,1","00360,1,C,N","005000,1,N,1","+0180,1","+0170,1","99999,9","04,5,+00180,1,99,9","07,5,+00360,1,99,9",,,"07,99,1,99,9,99,9,99999,9,99,9,99,9",,"10230,1,99999,9","80,1",,,,,"MET112METAR LPSJ 091600Z 28013KT 5000 -SHRA SCT006 BKN012 18/17 Q1023 RMK RWY13 30010KT 280V350 RWY31 28013KT 240V330;",
"08509599999","2010-06-09T17:00:00","4","38.6655","-28.175817","94.79","SAO JORGE, PO","FM-15","LPSJ ","V020","280,1,N,0057,1","00360,1,C,N","003000,1,N,1","+0180,1","+0170,1","99999,9","04,5,+00210,1,99,9","07,5,+00360,1,99,9",,,"07,99,1,99,9,99,9,99999,9,99,9,99,9",,"10230,1,99999,9","10,1","80,1",,,,"MET115METAR LPSJ 091700Z 28011KT 3000 -SHRA BR SCT007 BKN012 18/17 Q1023 RMK RWY13 30006KT 270V340 RWY31 27011KT 240V330;",
"08509599999","2010-06-10T09:00:00","4","38.6655","-28.175817","94.79","SAO JORGE, PO","FM-15","LPSJ ","V020","999,9,V,0026,1","22000,1,9,N","011265,1,N,1","+0160,1","+0120,1","99999,9","04,5,+00480,1,99,9",,,,"04,99,1,99,9,99,9,99999,9,99,9,99,9",,"10240,1,99999,9",,,,,,"MET083METAR LPSJ 100900Z VRB05KT 9999 SCT016 16/12 Q1024 RMK RWY13 VRB03KT RWY31 VRB05KT;",
"08509599999","2010-06-10T10:00:00","4","38.6655","-28.175817","94.79","SAO JORGE, PO","FM-15","LPSJ ","V020","999,9,V,0026,1","22000,1,9,N","011265,1,N,1","+0170,1","+0120,1","99999,9","04,5,+00480,1,99,9",,,,"04,99,1,99,9,99,9,99999,9,99,9,99,9",,"10240,1,99999,9",,,,,,"MET083METAR LPSJ 101000Z VRB05KT 9999 SCT016 17/12 Q1024 RMK RWY13 VRB05KT RWY31 VRB08KT;",
"08509599999","2010-06-10T11:00:00","4","38.6655","-28.175817","94.79","SAO JORGE, PO","FM-15","LPSJ ","V020","999,9,V,0041,1","22000,1,9,N","011265,1,N,1","+0170,1","+0120,1","99999,9","04,5,+00480,1,99,9",,,,"04,99,1,99,9,99,9,99999,9,99,9,99,9",,"10240,1,99999,9",,,,,,"MET083METAR LPSJ 101100Z VRB08KT 9999 SCT016 17/12 Q1024 RMK RWY13 VRB06KT RWY31 VRB07KT;",
"08509599999","2010-06-10T12:00:00","4","38.6655","-28.175817","94.79","SAO JORGE, PO","FM-15","LPSJ ","V020","999,9,V,0026,1","22000,1,9,N","011265,1,N,1","+0170,1","+0120,1","99999,9","04,5,+00480,1,99,9",,,,"04,99,1,99,9,99,9,99999,9,99,9,99,9",,"10251,1,99999,9",,,,,,"MET083METAR LPSJ 101200Z VRB05KT 9999 SCT016 17/12 Q1025 RMK RWY13 VRB07KT RWY31 VRB06KT;",
"08509599999","2010-06-11T09:00:00","4","38.6655","-28.175817","94.79","SAO JORGE, PO","FM-15","LPSJ ","V020","999,9,V,0021,1","00750,1,C,N","011265,1,N,1","+0170,1","+0140,1","99999,9","04,5,+00480,1,99,9","07,5,+00750,1,99,9",,,"07,99,1,99,9,99,9,99999,9,99,9,99,9",,"10281,1,99999,9",,,,,,"MET090METAR LPSJ 110900Z VRB04KT 9999 SCT016 BKN025 17/14 Q1028 RMK RWY13 VRB04KT RWY31 VRB03KT;",
"08509599999","2010-06-11T10:00:00","4","38.6655","-28.175817","94.79","SAO JORGE, PO","FM-15","LPSJ ","V020","270,1,N,0026,1","00750,1,C,N","011265,1,N,1","+0170,1","+0140,1","99999,9","04,5,+00480,1,99,9","07,5,+00750,1,99,9",,,"07,99,1,99,9,99,9,99999,9,99,9,99,9",,"10281,1,99999,9",,,,,,"MET090METAR LPSJ 111000Z 27005KT 9999 SCT016 BKN025 17/14 Q1028 RMK RWY13 26002KT RWY31 24002KT;",
"08509599999","2010-06-11T11:00:00","4","38.6655","-28.175817","94.79","SAO JORGE, PO","FM-15","LPSJ ","V020","250,1,N,0015,1","00900,1,C,N","011265,1,N,1","+0170,1","+0140,1","99999,9","04,5,+00480,1,99,9","07,5,+00900,1,99,9",,,"07,99,1,99,9,99,9,99999,9,99,9,99,9",,"10281,1,99999,9",,,,,,"MET090METAR LPSJ 111100Z 25003KT 9999 SCT016 BKN030 17/14 Q1028 RMK RWY13 23002KT RWY31 23002KT;",
"08509599999","2010-06-11T12:00:00","4","38.6655","-28.175817","94.79","SAO JORGE, PO","FM-15","LPSJ ","V020","999,9,V,0026,1","00900,1,C,N","011265,1,N,1","+0170,1","+0140,1","99999,9","04,5,+00480,1,99,9","07,5,+00900,1,99,9",,,"07,99,1,99,9,99,9,99999,9,99,9,99,9",,,,,,,,"MET091METAR LPSJ 111200Z VRB05KT 9999 SCT016 BKN030 17/14 Q 1028 RMK RWY13 VRB02KT RWY31 VRB02KT;",
"08509599999","2010-06-11T14:00:00","4","38.6655","-28.175817","94.79","SAO JORGE, PO","FM-15","LPSJ ","V020","999,9,V,0015,1","01050,1,C,N","011265,1,N,1","+0180,1","+0130,1","99999,9","04,5,+00600,1,99,9","07,5,+01050,1,99,9",,,"07,99,1,99,9,99,9,99999,9,99,9,99,9",,"10291,1,99999,9",,,,,,"MET090METAR LPSJ 111400Z VRB03KT 9999 SCT020 BKN035 18/13 Q1029 RMK RWY13 VRB03KT RWY31 VRB03KT;",
"08509599999","2010-06-11T15:00:00","4","38.6655","-28.175817","94.79","SAO JORGE, PO","FM-15","LPSJ ","V020","999,9,V,0015,1","99999,9,C,N","011265,1,N,1","+0190,1","+0140,1","99999,9","04,5,+00600,1,99,9","04,5,+01050,1,99,9",,,"04,99,1,99,9,99,9,99999,9,99,9,99,9",,"10291,1,99999,9",,,,,,"MET090METAR LPSJ 111500Z VRB03KT 9999 SCT020 SCT035 19/14 Q1029 RMK RWY13 VRB03KT RWY31 VRB03KT;","P01 010503SCOCIG"
"08509599999","2010-06-11T16:00:00","4","38.6655","-28.175817","94.79","SAO JORGE, PO","FM-15","LPSJ ","V020","999,9,V,0021,1","22000,1,9,N","011265,1,N,1","+0200,1","+0140,1","99999,9","04,5,+00600,1,99,9",,,,"04,99,1,99,9,99,9,99999,9,99,9,99,9",,"10291,1,99999,9",,,,,,"MET083METAR LPSJ 111600Z VRB04KT 9999 SCT020 20/14 Q1029 RMK RWY13 17005KT RWY31 VRB04KT;",
"08509599999","2010-06-12T09:00:00","4","38.6655","-28.175817","94.79","SAO JORGE, PO","FM-15","LPSJ ","V020","999,9,C,0000,1","22000,1,9,N","011265,1,N,1","+0160,1","+0130,1","99999,9","02,5,+00540,1,99,9",,,,"02,99,1,99,9,99,9,99999,9,99,9,99,9",,"10312,1,99999,9",,,,,,"MET083METAR LPSJ 120900Z 00000KT 9999 FEW018 16/13 Q1031 RMK RWY13 00000KT RWY31 00000KT;",
"08509599999","2010-06-12T10:00:00","4","38.6655","-28.175817","94.79","SAO JORGE, PO","FM-15","LPSJ ","V020","999,9,V,0021,1","22000,1,9,N","011265,1,N,1","+0170,1","+0130,1","99999,9","04,5,+00540,1,99,9",,,,"04,99,1,99,9,99,9,99999,9,99,9,99,9",,"10312,1,99999,9",,,,,,"MET083METAR LPSJ 121000Z VRB04KT 9999 SCT018 17/13 Q1031 RMK RWY13 VRB04KT RWY31 VRB03KT;",
"08509599999","2010-06-12T11:00:00","4","38.6655","-28.175817","94.79","SAO JORGE, PO","FM-15","LPSJ ","V020","240,1,N,0021,1","22000,1,9,N","011265,1,N,1","+0180,1","+0130,1","99999,9","04,5,+00540,1,99,9",,,,"04,99,1,99,9,99,9,99999,9,99,9,99,9",,"10312,1,99999,9",,,,,,"MET083METAR LPSJ 121100Z 24004KT 9999 SCT018 18/13 Q1031 RMK RWY13 23004KT RWY31 24003KT;",
"08509599999","2010-06-12T12:00:00","4","38.6655","-28.175817","94.79","SAO JORGE, PO","FM-15","LPSJ ","V020","240,1,N,0021,1","22000,1,9,N","011265,1,N,1","+0180,1","+0130,1","99999,9","04,5,+00600,1,99,9",,,,"04,99,1,99,9,99,9,99999,9,99,9,99,9",,"10312,1,99999,9",,,,,,"MET083METAR LPSJ 121200Z 24004KT 9999 SCT020 18/13 Q1031 RMK RWY13 22004KT RWY31 24004KT;",
"08509599999","2010-06-12T14:00:00","4","38.6655","-28.175817","94.79","SAO JORGE, PO","FM-15","LPSJ ","V020","999,9,V,0021,1","22000,1,9,N","011265,1,N,1","+0190,1","+0120,1","99999,9","04,5,+00600,1,99,9",,,,"04,99,1,99,9,99,9,99999,9,99,9,99,9",,"10312,1,99999,9",,,,,,"MET083METAR LPSJ 121400Z VRB04KT 9999 SCT020 19/12 Q1031 RMK RWY13 VRB05KT RWY31 VRB04KT;",
"08509599999","2010-06-12T15:00:00","4","38.6655","-28.175817","94.79","SAO JORGE, PO","FM-15","LPSJ ","V020","170,1,N,0026,1","22000,1,9,N","011265,1,N,1","+0190,1","+0120,1","99999,9","04,5,+00600,1,99,9",,,,"04,99,1,99,9,99,9,99999,9,99,9,99,9",,"10312,1,99999,9",,,,,,"MET083METAR LPSJ 121500Z 17005KT 9999 SCT020 19/12 Q1031 RMK RWY13 18006KT RWY31 17004KT;",
"08509599999","2010-06-12T16:00:00","4","38.6655","-28.175817","94.79","SAO JORGE, PO","FM-15","LPSJ ","V020","170,1,N,0031,1","22000,1,9,N","011265,1,N,1","+0190,1","+0130,1","99999,9","04,5,+00750,1,99,9",,,,"04,99,1,99,9,99,9,99999,9,99,9,99,9",,"10312,1,99999,9",,,,,,"MET083METAR LPSJ 121600Z 17006KT 9999 SCT025 19/13 Q1031 RMK RWY13 17005KT RWY31 17004KT;",
"08509599999","2010-06-13T09:00:00","4","38.6655","-28.175817","94.79","SAO JORGE, PO","FM-15","LPSJ ","V020","080,1,N,0021,1","99999,9,C,N","011265,1,N,1","+0170,1","+0110,1","99999,9","04,5,+00750,1,99,9","04,5,+01200,1,99,9",,,"04,99,1,99,9,99,9,99999,9,99,9,99,9",,"10312,1,99999,9",,,,,,"MET090METAR LPSJ 130900Z 08004KT 9999 SCT025 SCT040 17/11 Q1031 RMK RWY13 09005KT RWY31 08005KT;","P01 012003SCOCIG"
"08509599999","2010-06-13T10:00:00","4","38.6655","-28.175817","94.79","SAO JORGE, PO","FM-15","LPSJ ","V020","999,9,V,0026,1","99999,9,C,N","011265,1,N,1","+0170,1","+0110,1","99999,9","04,5,+00750,1,99,9","04,5,+01200,1,99,9",,,"04,99,1,99,9,99,9,99999,9,99,9,99,9",,"10312,1,99999,9",,,,,,"MET090METAR LPSJ 131000Z VRB05KT 9999 SCT025 SCT040 17/11 Q1031 RMK RWY13 VRB04KT RWY31 VRB03KT;","P01 012003SCOCIG"
"08509599999","2010-06-13T11:00:00","4","38.6655","-28.175817","94.79","SAO JORGE, PO","FM-15","LPSJ ","V020","170,1,N,0031,1","99999,9,C,N","011265,1,N,1","+0180,1","+0110,1","99999,9","04,5,+00750,1,99,9","04,5,+01200,1,99,9",,,"04,99,1,99,9,99,9,99999,9,99,9,99,9",,"10312,1,99999,9",,,,,,"MET090METAR LPSJ 131100Z 17006KT 9999 SCT025 SCT040 18/11 Q1031 RMK RWY13 16004KT RWY31 16003KT;","P01 012003SCOCIG"
"08509599999","2010-06-13T12:00:00","4","38.6655","-28.175817","94.79","SAO JORGE, PO","FM-15","LPSJ ","V020","160,1,N,0031,1","99999,9,C,N","011265,1,N,1","+0180,1","+0120,1","99999,9","04,5,+00750,1,99,9","04,5,+01200,1,99,9",,,"04,99,1,99,9,99,9,99999,9,99,9,99,9",,"10312,1,99999,9",,,,,,"MET090METAR LPSJ 131200Z 16006KT 9999 SCT025 SCT040 18/12 Q1031 RMK RWY13 17004KT RWY31 18004KT;","P01 012003SCOCIG"
"08509599999","2010-06-14T09:00:00","4","38.6655","-28.175817","94.79","SAO JORGE, PO","FM-15","LPSJ ","V020","999,9,C,0000,1","99999,9,C,N","011265,1,N,1","+0180,1","+0130,1","99999,9","04,5,+00750,1,99,9","04,5,+01050,1,99,9",,,"04,99,1,99,9,99,9,99999,9,99,9,99,9",,"10301,1,99999,9",,,,,,"MET090METAR LPSJ 140900Z 00000KT 9999 SCT025 SCT035 18/13 Q1030 RMK RWY13 00000KT RWY31 00000KT;","P01 010503SCOCIG"
"08509599999","2010-06-14T10:00:00","4","38.6655","-28.175817","94.79","SAO JORGE, PO","FM-15","LPSJ ","V020","170,1,N,0021,1","99999,9,C,N","011265,1,N,1","+0190,1","+0110,1","99999,9","04,5,+00750,1,99,9","04,5,+01050,1,99,9",,,"04,99,1,99,9,99,9,99999,9,99,9,99,9",,"10301,1,99999,9",,,,,,"MET090METAR LPSJ 141000Z 17004KT 9999 SCT025 SCT035 19/11 Q1030 RMK RWY13 16004KT RWY31 16003KT;","P01 010503SCOCIG"
"08509599999","2010-06-14T11:00:00","4","38.6655","-28.175817","94.79","SAO JORGE, PO","FM-15","LPSJ ","V020","150,1,N,0010,1","99999,9,C,N","011265,1,N,1","+0190,1","+0120,1","99999,9","04,5,+00750,1,99,9","04,5,+01050,1,99,9",,,"04,99,1,99,9,99,9,99999,9,99,9,99,9",,"10291,1,99999,9",,,,,,"MET090METAR LPSJ 141100Z 15002KT 9999 SCT025 SCT035 19/12 Q1029 RMK RWY13 18002KT RWY31 18003KT;","P01 010503SCOCIG"
"08509599999","2010-06-14T12:00:00","4","38.6655","-28.175817","94.79","SAO JORGE, PO","FM-15","LPSJ ","V020","170,1,N,0031,1","99999,9,C,N","011265,1,N,1","+0190,1","+0140,1","99999,9","04,5,+00600,1,99,9","04,5,+01050,1,99,9",,,"04,99,1,99,9,99,9,99999,9,99,9,99,9",,"10291,1,99999,9",,,,,,"MET090METAR LPSJ 141200Z 17006KT 9999 SCT020 SCT035 19/14 Q1029 RMK RWY13 VRB03KT RWY31 VRB04KT;","P01 010503SCOCIG"
"08509599999","2010-06-14T14:00:00","4","38.6655","-28.175817","94.79","SAO JORGE, PO","FM-15","LPSJ ","V020","160,1,N,0036,1","99999,9,C,N","011265,1,N,1","+0200,1","+0160,1","99999,9","04,5,+00450,1,99,9","04,5,+00900,1,99,9",,,"04,99,1,99,9,99,9,99999,9,99,9,99,9",,"10291,1,99999,9",,,,,,"MET090METAR LPSJ 141400Z 16007KT 9999 SCT015 SCT030 20/16 Q1029 RMK RWY13 17005KT RWY31 18004KT;","P01 009003SCOCIG"
"08509599999","2010-06-14T15:00:00","4","38.6655","-28.175817","94.79","SAO JORGE, PO","FM-15","LPSJ ","V020","160,1,N,0036,1","22000,1,9,N","011265,1,N,1","+0200,1","+0160,1","99999,9","04,5,+00540,1,99,9",,,,"04,99,1,99,9,99,9,99999,9,99,9,99,9",,"10291,1,99999,9",,,,,,"MET083METAR LPSJ 141500Z 16007KT 9999 SCT018 20/16 Q1029 RMK RWY13 18006KT RWY31 19006KT;",
"08509599999","2010-06-15T09:00:00","4","38.6655","-28.175817","94.79","SAO JORGE, PO","FM-15","LPSJ ","V020","120,1,N,0026,1","99999,9,C,N","011265,1,N,1","+0170,1","+0150,1","99999,9","04,5,+00390,1,99,9","04,5,+00750,1,99,9",,,"04,99,1,99,9,99,9,99999,9,99,9,99,9",,"10291,1,99999,9",,,,,,"MET090METAR LPSJ 150900Z 12005KT 9999 SCT013 SCT025 17/15 Q1029 RMK RWY13 12004KT RWY31 13003KT;","P01 007503SCOCIG"
"08509599999","2010-06-15T10:00:00","4","38.6655","-28.175817","94.79","SAO JORGE, PO","FM-15","LPSJ ","V020","130,1,N,0046,1","99999,9,C,N","011265,1,N,1","+0180,1","+0140,1","99999,9","04,5,+00480,1,99,9","04,5,+00750,1,99,9",,,"04,99,1,99,9,99,9,99999,9,99,9,99,9",,"10301,1,99999,9",,,,,,"MET090METAR LPSJ 151000Z 13009KT 9999 SCT016 SCT025 18/14 Q1030 RMK RWY13 14006KT RWY31 14006KT;","P01 007503SCOCIG"
"08509599999","2010-06-15T11:00:00","4","38.6655","-28.175817","94.79","SAO JORGE, PO","FM-15","LPSJ ","V020","130,1,N,0051,1","99999,9,C,N","011265,1,N,1","+0190,1","+0130,1","99999,9","04,5,+00540,1,99,9","04,5,+00900,1,99,9",,,"04,99,1,99,9,99,9,99999,9,99,9,99,9",,"10301,1,99999,9",,,,,,"MET090METAR LPSJ 151100Z 13010KT 9999 SCT018 SCT030 19/13 Q1030 RMK RWY13 14006KT RWY31 14007KT;","P01 009003SCOCIG"
"08509599999","2010-06-15T12:00:00","4","38.6655","-28.175817","94.79","SAO JORGE, PO","FM-15","LPSJ ","V020","130,1,N,0057,1","22000,1,9,N","011265,1,N,1","+0190,1","+0130,1","99999,9","04,5,+00600,1,99,9",,,,"04,99,1,99,9,99,9,99999,9,99,9,99,9",,"10301,1,99999,9",,,,,,"MET083METAR LPSJ 151200Z 13011KT 9999 SCT020 19/13 Q1030 RMK RWY13 14006KT RWY31 14006KT;",
"08509599999","2010-06-15T13:00:00","4","38.6655","-28.175817","94.79","SAO JORGE, PO","FM-15","LPSJ ","V020","130,1,N,0057,1","22000,1,9,N","011265,1,N,1","+0200,1","+0130,1","99999,9","02,5,+00600,1,99,9",,,,"02,99,1,99,9,99,9,99999,9,99,9,99,9",,"10301,1,99999,9",,,,,,"MET083METAR LPSJ 151300Z 13011KT 9999 FEW020 20/13 Q1030 RMK RWY13 15006KT RWY31 14005KT;",
"08509599999","2010-06-15T14:00:00","4","38.6655","-28.175817","94.79","SAO JORGE, PO","FM-15","LPSJ ","V020","130,1,N,0057,1","22000,1,9,N","011265,1,N,1","+0200,1","+0130,1","99999,9","02,5,+00660,1,99,9",,,,"02,99,1,99,9,99,9,99999,9,99,9,99,9",,"10301,1,99999,9",,,,,,"MET099METAR LPSJ 151400Z 13011KT 9999 FEW022 20/13 Q1030 RMK RWY13 15006KT 120V190 RWY31 15005KT 120V180;",
"08509599999","2010-06-15T15:00:00","4","38.6655","-28.175817","94.79","SAO JORGE, PO","FM-15","LPSJ ","V020","130,1,N,0046,1","22000,1,9,N","011265,1,N,1","+0200,1","+0130,1","99999,9","02,5,+00750,1,99,9",,,,"02,99,1,99,9,99,9,99999,9,99,9,99,9",,"10301,1,99999,9",,,,,,"MET083METAR LPSJ 151500Z 13009KT 9999 FEW025 20/13 Q1030 RWY RWY13 16008KT RWY31 15005KT;",
"08509599999","2010-06-15T16:00:00","4","38.6655","-28.175817","94.79","SAO JORGE, PO","FM-15","LPSJ ","V020","140,1,N,0041,1","22000,1,9,N","011265,1,N,1","+0200,1","+0130,1","99999,9","02,5,+00750,1,99,9",,,,"02,99,1,99,9,99,9,99999,9,99,9,99,9",,"10301,1,99999,9",,,,,,"MET083METAR LPSJ 151600Z 14008KT 9999 FEW025 20/13 Q1030 RMK RWY13 17006KT RWY31 17005KT;",
"08509599999","2010-06-16T09:00:00","4","38.6655","-28.175817","94.79","SAO JORGE, PO","FM-15","LPSJ ","V020","100,1,N,0031,1","01200,1,C,N","011265,1,N,1","+0180,1","+0110,1","99999,9","04,5,+00900,1,99,9","07,5,+01200,1,99,9",,,"07,99,1,99,9,99,9,99999,9,99,9,99,9","999,M,+9999,9","10291,1,99999,9",,,,,,"MET090METAR LPSJ 160900Z 10006KT 9999 SCT030 BKN040 18/11 Q1029 RMK RWY13 12005KT RWY31 11005KT;","Q01 -00052ATMX  "
"08509599999","2010-06-16T10:00:00","4","38.6655","-28.175817","94.79","SAO JORGE, PO","FM-15","LPSJ ","V020","120,1,N,0046,1","01200,1,C,N","011265,1,N,1","+0180,1","+0110,1","99999,9","04,5,+00900,1,99,9","07,5,+01200,1,99,9",,,"07,99,1,99,9,99,9,99999,9,99,9,99,9",,"10301,1,99999,9",,,,,,"MET090METAR LPSJ 161000Z 12009KT 9999 SCT030 BKN040 18/11 Q1030 RMK RWY13 14005KT RWY31 13006KT;",
"08509599999","2010-06-16T11:00:00","4","38.6655","-28.175817","94.79","SAO JORGE, PO","FM-15","LPSJ ","V020","130,1,N,0057,1","99999,9,C,N","011265,1,N,1","+0190,1","+0120,1","99999,9","04,5,+00900,1,99,9","04,5,+01050,1,99,9",,,"04,99,1,99,9,99,9,99999,9,99,9,99,9",,"10291,1,99999,9",,,,,,"MET090METAR LPSJ 161100Z 13011KT 9999 SCT030 SCT035 19/12 Q1029 RMK RWY13 14008KT RWY31 14007KT;","P01 010503SCOCIG"
"08509599999","2010-06-16T13:00:00","4","38.6655","-28.175817","94.79","SAO JORGE, PO","FM-15","LPSJ ","V020","130,1,N,0062,1","99999,9,C,N","011265,1,N,1","+0200,1","+0120,1","99999,9","02,5,+00900,1,99,9","04,5,+01200,1,99,9",,,"04,99,1,99,9,99,9,99999,9,99,9,99,9",,"10291,1,99999,9",,,,,,"MET098METAR LPSJ 161300Z 13012KT 9999 FEW030 SCT040 20/12 Q1029 RMK RWY13 15007KT 120V190 RWY31 14006KT;","P01 012003SCOCIG"
"08509599999","2010-06-16T14:00:00","4","38.6655","-28.175817","94.79","SAO JORGE, PO","FM-15","LPSJ ","V020","140,1,N,0057,1","99999,9,C,N","011265,1,N,1","+0200,1","+0130,1","99999,9","02,5,+00900,1,99,9","04,5,+01200,1,99,9",,,"04,99,1,99,9,99,9,99999,9,99,9,99,9",,"10291,1,99999,9",,,,,,"MET106METAR LPSJ 161400Z 14011KT 9999 FEW030 SCT040 20/13 Q1029 RMK RWY13 16007KT 120V200 RWY31 17007KT 130V200;","P01 012003SCOCIG"
"08509599999","2010-06-16T15:00:00","4","38.6655","-28.175817","94.79","SAO JORGE, PO","FM-15","LPSJ ","V020","140,1,N,0062,1","22000,1,9,N","011265,1,N,1","+0200,1","+0140,1","99999,9","02,5,+00900,1,99,9",,,,"02,99,1,99,9,99,9,99999,9,99,9,99,9",,"10291,1,99999,9",,,,,,"MET091METAR LPSJ 161500Z 14012KT 9999 FEW030 20/14 Q1029 RMK RWY13 16007KT 120V190 RWY31 14008KT;",
"08509599999","2010-06-17T09:00:00","4","38.6655","-28.175817","94.79","SAO JORGE, PO","FM-15","LPSJ ","V020","120,1,N,0051,1","99999,9,C,N","011265,1,N,1","+0180,1","+0130,1","99999,9","04,5,+00750,1,99,9","04,5,+01050,1,99,9",,,"04,99,1,99,9,99,9,99999,9,99,9,99,9",,"10271,1,99999,9",,,,,,"MET090METAR LPSJ 170900Z 12010KT 9999 SCT025 SCT035 18/13 Q1027 RMK RWY13 13007KT RWY31 13007KT;","P01 010503SCOCIG"
"08509599999","2010-06-17T10:00:00","4","38.6655","-28.175817","94.79","SAO JORGE, PO","FM-15","LPSJ ","V020","110,1,N,0057,1","99999,9,C,N","011265,1,N,1","+0180,1","+0140,1","99999,9","04,5,+00480,1,99,9","04,5,+00900,1,99,9",,,"04,99,1,99,9,99,9,99999,9,99,9,99,9",,"10271,1,99999,9",,,,,,"MET090METAR LPSJ 171000Z 11011KT 9999 SCT016 SCT030 18/14 Q1027 RMK RWY13 14007KT RWY31 12010KT;","P01 009003SCOCIG"
"08509599999","2010-06-17T11:00:00","4","38.6655","-28.175817","94.79","SAO JORGE, PO","FM-15","LPSJ ","V020","110,1,N,0051,1","01050,1,C,N","011265,1,N,1","+0190,1","+0130,1","99999,9","04,5,+00600,1,99,9","07,5,+01050,1,99,9",,,"07,99,1,99,9,99,9,99999,9,99,9,99,9",,"10271,1,99999,9",,,,,,"MET090METAR LPSJ 171100Z 11010KT 9999 SCT020 BKN035 19/13 Q1027 RMK RWY13 14008KT RWY31 12009KT;",
"08509599999","2010-06-18T09:00:00","4","38.6655","-28.175817","94.79","SAO JORGE, PO","FM-15","LPSJ ","V020","140,1,N,0026,1","99999,9,C,N","011265,1,N,1","+0190,1","+0160,1","99999,9","02,5,+00900,1,99,9","04,5,+01500,1,99,9",,,"04,99,1,99,9,99,9,99999,9,99,9,99,9",,"10281,1,99999,9",,,,,,"MET090METAR LPSJ 180900Z 14005KT 9999 FEW030 SCT050 19/16 Q1028 RMK RWY13 16003KT RWY31 13002KT;","P01 015003SCOCIG"
"08509599999","2010-06-18T10:00:00","4","38.6655","-28.175817","94.79","SAO JORGE, PO","FM-15","LPSJ ","V020","999,9,V,0021,1","01050,1,C,N","011265,1,N,1","+0190,1","+0160,1","99999,9","02,5,+00750,1,99,9","07,5,+01050,1,99,9",,,"07,99,1,99,9,99,9,99999,9,99,9,99,9",,"10291,1,99999,9",,,,,,"MET088METAR LPSJ 181000Z VRB04 9999 FEW025 BKN035 19/16 Q1029 RMK RWY13 VRB02KT RWY31 VRB04KT;",
"08509599999","2010-06-18T11:00:00","4","38.6655","-28.175817","94.79","SAO JORGE, PO","FM-15","LPSJ ","V020","999,9,V,0026,1","99999,9,C,N","011265,1,N,1","+0200,1","+0160,1","99999,9","02,5,+00840,1,99,9","04,5,+01200,1,99,9",,,"04,99,1,99,9,99,9,99999,9,99,9,99,9",,"10301,1,99999,9",,,,,,"MET090METAR LPSJ 181100Z VRB05KT 9999 FEW028 SCT040 20/16 Q1030 RMK RWY13 16005KT RWY31 VRB04KT;","P01 012003SCOCIG"
"08509599999","2010-06-18T12:00:00","4","38.6655","-28.175817","94.79","SAO JORGE, PO","FM-15","LPSJ ","V020","140,1,N,0046,1","99999,9,C,N","011265,1,N,1","+0210,1","+0160,1","99999,9","02,5,+00840,1,99,9","04,5,+01200,1,99,9",,,"04,99,1,99,9,99,9,99999,9,99,9,99,9",,"10291,1,99999,9",,,,,,"MET090METAR LPSJ 181200Z 14009KT 9999 FEW028 SCT040 21/16 Q1029 RMK RWY13 16005KT RWY31 15004KT;","P01 012003SCOCIG"
"08509599999","2010-06-18T14:00:00","4","38.6655","-28.175817","94.79","SAO JORGE, PO","FM-15","LPSJ ","V020","140,1,N,0036,1","99999,9,C,N","011265,1,N,1","+0220,1","+0150,1","99999,9","02,5,+00840,1,99,9","04,5,+01200,1,99,9",,,"04,99,1,99,9,99,9,99999,9,99,9,99,9",,"10291,1,99999,9",,,,,,"MET090METAR LPSJ 181400Z 14007KT 9999 FEW028 SCT040 22/15 Q1029 RMK RWY13 16005KT RWY31 15003KT;","P01 012003SCOCIG"
"08509599999","2010-06-18T15:00:00","4","38.6655","-28.175817","94.79","SAO JORGE, PO","FM-15","LPSJ ","V020","160,1,N,0031,1","99999,9,C,N","011265,1,N,1","+0220,1","+0160,1","99999,9","02,5,+00750,1,99,9","04,5,+01200,1,99,9",,,"04,99,1,99,9,99,9,99999,9,99,9,99,9",,"10291,1,99999,9",,,,,,"MET090METAR LPSJ 181500Z 16006KT 9999 FEW025 SCT040 22/16 Q1029 RMK RWY13 16004KT RWY31 17006KT;","P01 012003SCOCIG"
"08509599999","2010-06-18T16:00:00","4","38.6655","-28.175817","94.79","SAO JORGE, PO","FM-15","LPSJ ","V020","160,1,N,0026,1","01200,1,C,N","011265,1,N,1","+0220,1","+0150,1","99999,9","02,5,+00900,1,99,9","07,5,+01200,1,99,9",,,"07,99,1,99,9,99,9,99999,9,99,9,99,9",,"10291,1,99999,9",,,,,,"MET090METAR LPSJ 181600Z 16005KT 9999 FEW030 BKN040 22/15 Q1029 RMK RWY13 16003KT RWY31 VRB03KT;",
"08509599999","2010-06-19T09:00:00","4","38.6655","-28.175817","94.79","SAO JORGE, PO","FM-15","LPSJ ","V020","999,9,C,0000,1","00900,1,C,N","011265,1,N,1","+0190,1","+0170,1","99999,9","04,5,+00540,1,99,9","07,5,+00900,1,99,9",,,"07,99,1,99,9,99,9,99999,9,99,9,99,9",,"10291,1,99999,9",,,,,,"MET090METAR LPSJ 190900Z 00000KT 9999 SCT018 BKN030 19/17 Q1029 RMK RWY13 00000KT RWY31 00000KT;",
"08509599999","2010-06-19T10:00:00","4","38.6655","-28.175817","94.79","SAO JORGE, PO","FM-15","LPSJ ","V020","999,9,C,0000,1","00750,1,C,N","011265,1,N,1","+0190,1","+0180,1","99999,9","04,5,+00450,1,99,9","07,5,+00750,1,99,9",,,"07,99,1,99,9,99,9,99999,9,99,9,99,9",,"10291,1,99999,9",,,,,,"MET090METAR LPSJ 191000Z 00000KT 9999 SCT015 BKN025 19/18 Q1029 RMK RWY13 00000KT RWY31 00000KT;",
"08509599999","2010-06-19T11:00:00","4","38.6655","-28.175817","94.79","SAO JORGE, PO","FM-15","LPSJ ","V020","999,9,V,0021,1","99999,9,C,N","011265,1,N,1","+0200,1","+0170,1","99999,9","04,5,+00480,1,99,9","04,5,+00900,1,99,9",,,"04,99,1,99,9,99,9,99999,9,99,9,99,9",,"10291,1,99999,9",,,,,,"MET090METAR LPSJ 191100Z VRB04KT 9999 SCT016 SCT030 20/17 Q1029 RMK RWY13 VRB04KT RWY31 VRB03KT;","P01 009003SCOCIG"
"08509599999","2010-06-19T12:00:00","4","38.6655","-28.175817","94.79","SAO JORGE, PO","FM-15","LPSJ ","V020","170,1,N,0021,1","99999,9,C,N","011265,1,N,1","+0200,1","+0180,1","99999,9","04,5,+00450,1,99,9","04,5,+00750,1,99,9",,,"04,99,1,99,9,99,9,99999,9,99,9,99,9",,"10291,1,99999,9",,,,,,"MET090METAR LPSJ 191200Z 17004KT 9999 SCT015 SCT025 20/18 Q1029 RMK RWY13 16004KT RWY31 16003KT;","P01 007503SCOCIG"
"08509599999","2010-06-19T14:00:00","4","38.6655","-28.175817","94.79","SAO JORGE, PO","FM-15","LPSJ ","V020","310,1,N,0057,1","99999,9,C,N","011265,1,N,1","+0200,1","+0170,1","99999,9","04,5,+00450,1,99,9","04,5,+00750,1,99,9",,,"04,99,1,99,9,99,9,99999,9,99,9,99,9",,"10291,1,99999,9",,,,,,"MET090METAR LPSJ 191400Z 31011KT 9999 SCT015 SCT025 20/17 Q1029 RMK RWY13 32008KT RWY31 31011KT;","P01 007503SCOCIG"
"08509599999","2010-06-19T15:00:00","4","38.6655","-28.175817","94.79","SAO JORGE, PO","FM-15","LPSJ ","V020","300,1,N,0041,1","00750,1,C,N","011265,1,N,1","+0200,1","+0170,1","99999,9","04,5,+00480,1,99,9","07,5,+00750,1,99,9",,,"07,99,1,99,9,99,9,99999,9,99,9,99,9",,"10291,1,99999,9",,,,,,"MET090METAR LPSJ 191500Z 30008KT 9999 SCT016 BKN025 20/17 Q1029 RMK RWY13 31008KT RWY31 29007KT;",
"08509599999","2010-06-19T16:00:00","4","38.6655","-28.175817","94.79","SAO JORGE, PO","FM-15","LPSJ ","V020","300,1,N,0046,1","00750,1,C,N","011265,1,N,1","+0200,1","+0180,1","99999,9","04,5,+00450,1,99,9","07,5,+00750,1,99,9",,,"07,99,1,99,9,99,9,99999,9,99,9,99,9",,"10291,1,99999,9",,,,,,"MET090METAR LPSJ 191600Z 30009KT 9999 SCT015 BKN025 20/18 Q1029 RMK RWY13 32008KT RWY31 30008KT;",
"08509599999","2010-06-20T09:00:00","4","38.6655","-28.175817","94.79","SAO JORGE, PO","FM-15","LPSJ ","V020","999,9,C,0000,1","99999,9,C,N","011265,1,N,1","+0210,1","+0160,1","99999,9","02,5,+00750,1,99,9","04,5,+06000,1,99,9",,,"04,99,1,99,9,99,9,99999,9,99,9,99,9",,"10261,1,99999,9",,,,,,"MET090METAR LPSJ 200900Z 00000KT 9999 FEW025 SCT200 21/16 Q1026 RMK RWY13 00000KT RWY31 00000KT;","P01 060003SCOCIG"
"08509599999","2010-06-20T10:00:00","4","38.6655","-28.175817","94.79","SAO JORGE, PO","FM-15","LPSJ ","V020","999,9,V,0021,1","22000,1,9,N","011265,1,N,1","+0210,1","+0160,1","99999,9","04,5,+00750,1,99,9",,,,"04,99,1,99,9,99,9,99999,9,99,9,99,9",,"10261,1,99999,9",,,,,,"MET083METAR LPSJ 201000Z VRB04KT 9999 SCT025 21/16 Q1026 RMK RWY13 VRB04KT RWY31 VRB03KT;",
"08509599999","2010-06-20T11:00:00","4","38.6655","-28.175817","94.79","SAO JORGE, PO","FM-15","LPSJ ","V020","300,1,N,0046,1","22000,1,9,N","011265,1,N,1","+0220,1","+0150,1","99999,9","04,5,+00900,1,99,9",,,,"04,99,1,99,9,99,9,99999,9,99,9,99,9",,"10261,1,99999,9",,,,,,"MET083METAR LPSJ 201100Z 30009KT 9999 SCT030 22/15 Q1026 RMK RWY13 32007KT RWY31 31008KT;",
"08509599999","2010-06-20T12:00:00","4","38.6655","-28.175817","94.79","SAO JORGE, PO","FM-15","LPSJ ","V020","290,1,N,0046,1","22000,1,9,N","011265,1,N,1","+0220,1","+0160,1","99999,9","04,5,+00900,1,99,9",,,,"04,99,1,99,9,99,9,99999,9,99,9,99,9",,"10261,1,99999,9",,,,,,"MET083METAR LPSJ 201200Z 29009KT 9999 SCT030 22/16 Q1026 RMK RWY13 31006KT RWY31 29007KT;",
"08509599999","2010-06-20T13:00:00","4","38.6655","-28.175817","94.79","SAO JORGE, PO","FM-15","LPSJ ","V020","290,1,N,0041,1","22000,1,9,N","011265,1,N,1","+0230,1","+0160,1","99999,9","04,5,+00900,1,99,9",,,,"04,99,1,99,9,99,9,99999,9,99,9,99,9",,"10261,1,99999,9",,,,,,"MET083METAR LPSJ 201300Z 29008KT 9999 SCT030 23/16 Q1026 RMK RWY13 30005KT RWY31 30009KT;",
"08509599999","2010-06-21T09:00:00","4","38.6655","-28.175817","94.79","SAO JORGE, PO","FM-15","LPSJ ","V020","290,1,N,0021,1","00120,1,C,N","004000,1,N,1","+0190,1","+0190,1","99999,9","08,5,+00120,1,99,9",,,,"08,99,1,99,9,99,9,99999,9,99,9,99,9",,"10251,1,99999,9","10,1","61,1",,,,"MET090METAR LPSJ 210900Z 29004KT 4000 -RA BR OVC004 19/19 Q1025 RMK RWY13 32005KT RWY31 30004KT;",
"08509599999","2010-06-21T10:00:00","4","38.6655","-28.175817","94.79","SAO JORGE, PO","FM-15","LPSJ ","V020","280,1,N,0036,1","00015,1,9,N","000500,1,N,1","+0190,1","+0190,1","99999,9","09,1,+00015,1,99,9",,,,"09,99,1,99,9,99,9,00025,1,99,9,99,9",,"10251,1,99999,9","45,1","51,1",,,,"MET089METAR LPSJ 211000Z 28007KT 0500 -DZ FG VV000 19/19 Q1025 RMK RWY13 29005KT RWY31 27005KT;",
"08509599999","2010-06-21T12:00:00","4","38.6655","-28.175817","94.79","SAO JORGE, PO","FM-15","LPSJ ","V020","999,9,V,0021,1","00150,1,C,N","004000,1,N,1","+0190,1","+0190,1","99999,9","02,5,+00060,1,99,9","08,5,+00150,1,99,9",,,"08,99,1,99,9,99,9,99999,9,99,9,99,9",,"10261,1,99999,9","10,1","51,1",,,,"MET097METAR LPSJ 211200Z VRB04KT 4000 -DZ BR FEW002 OVC005 19/19 Q1026 RMK RWY13 VRB05KT RWY31 VRB04KT;",
"08509599999","2010-06-21T13:00:00","4","38.6655","-28.175817","94.79","SAO JORGE, PO","FM-15","LPSJ ","V020","999,9,V,0010,1","00015,1,9,N","000100,1,N,1","+0190,1","+0190,1","99999,9","09,1,+00015,1,99,9",,,,"09,99,1,99,9,99,9,00025,1,99,9,99,9",,"10261,1,99999,9","45,1","51,1",,,,"MET089METAR LPSJ 211300Z VRB02KT 0100 -DZ FG VV000 19/19 Q1026 RMK RWY13 VRB02KT RWY31 VRB03KT;",
"08509599999","2010-06-21T14:00:00","4","38.6655","-28.175817","94.79","SAO JORGE, PO","FM-15","LPSJ ","V020","999,9,V,0021,1","00300,1,C,N","008000,1,N,1","+0200,1","+0200,1","99999,9","04,5,+00120,1,99,9","07,5,+00300,1,99,9",,,"07,99,1,99,9,99,9,99999,9,99,9,99,9",,"10261,1,99999,9","51,1",,,,,"MET094METAR LPSJ 211400Z VRB04KT 8000 -DZ SCT004 BKN010 20/20 Q1026 RMK RWY13 VRB05KT RWY31 VRB03KT;",
"08509599999","2010-06-21T15:00:00","4","38.6655","-28.175817","94.79","SAO JORGE, PO","FM-15","LPSJ ","V020","999,9,V,0015,1","00420,1,C,N","011265,1,N,1","+0210,1","+0190,1","99999,9","02,5,+00240,1,99,9","04,5,+00420,1,99,9","07,5,+01050,1,99,9",,"07,99,1,99,9,99,9,99999,9,99,9,99,9",,"10251,1,99999,9",,,,,,"MET097METAR LPSJ 211500Z VRB03KT 9999 FEW008 SCT014 BKN035 21/19 Q1025 RMK RWY13 VRB04KT RWY31 VRB02KT;",
"08509599999","2010-06-21T16:00:00","4","38.6655","-28.175817","94.79","SAO JORGE, PO","FM-15","LPSJ ","V020","280,1,N,0036,1","01050,1,C,N","011265,1,N,1","+0220,1","+0190,1","99999,9","04,5,+00480,1,99,9","07,5,+01050,1,99,9",,,"07,99,1,99,9,99,9,99999,9,99,9,99,9",,"10251,1,99999,9",,,,,,"MET090METAR LPSJ 211600Z 28007KT 9999 SCT016 BKN035 22/19 Q1025 RMK RWY13 29005KT RWY31 28006KT;",
"08509599999","2010-06-21T17:00:00","4","38.6655","-28.175817","94.79","SAO JORGE, PO","FM-15","LPSJ ","V020","999,9,V,0021,1","99999,9,C,N","011265,1,N,1","+0220,1","+0170,1","99999,9","02,5,+00600,1,99,9","04,5,+01050,1,99,9",,,"04,99,1,99,9,99,9,99999,9,99,9,99,9",,"10251,1,99999,9",,,,,,"MET090METAR LPSJ 211700Z VRB04KT 9999 FEW020 SCT035 22/17 Q1025 RMK RWY13 01005KT RWY31 VRB02KT;","P01 010503SCOCIG"
"08509599999","2010-06-22T09:00:00","4","38.6655","-28.175817","94.79","SAO JORGE, PO","FM-15","LPSJ ","V020","999,9,V,0005,1","01050,1,C,N","011265,1,N,1","+0180,1","+0130,1","99999,9","04,5,+00750,1,99,9","07,5,+01050,1,99,9",,,"07,99,1,99,9,99,9,99999,9,99,9,99,9",,"10281,1,99999,9",,,,,,"MET087METAR LPSJ 220900Z VRB01KT 9999 SCT025 BKN035 18/13 Q1028 RMK 13 VRB02KT RWY31 VRB04KT;",
"08509599999","2010-06-22T10:00:00","4","38.6655","-28.175817","94.79","SAO JORGE, PO","FM-15","LPSJ ","V020","999,9,V,0021,1","99999,9,C,N","011265,1,N,1","+0190,1","+0140,1","99999,9","04,5,+00840,1,99,9","04,5,+01050,1,99,9",,,"04,99,1,99,9,99,9,99999,9,99,9,99,9",,"10281,1,99999,9",,,,,,"MET090METAR LPSJ 221000Z VRB04KT 9999 SCT028 SCT035 19/14 Q1028 RMK RWY13 VRB03KT RWY31 VRB03KT;","P01 010503SCOCIG"
"08509599999","2010-06-22T11:00:00","4","38.6655","-28.175817","94.79","SAO JORGE, PO","FM-15","LPSJ ","V020","999,9,V,0015,1","99999,9,C,N","011265,1,N,1","+0190,1","+0130,1","99999,9","04,5,+00840,1,99,9","04,5,+01050,1,99,9",,,"04,99,1,99,9,99,9,99999,9,99,9,99,9",,"10281,1,99999,9",,,,,,"MET090METAR LPSJ 221100Z VRB03KT 9999 SCT028 SCT035 19/13 Q1028 RMK RWY13 VRB03KT RWY31 35008KT;","P01 010503SCOCIG"
"08509599999","2010-06-22T12:00:00","4","38.6655","-28.175817","94.79","SAO JORGE, PO","FM-15","LPSJ ","V020","999,9,V,0026,1","99999,9,C,N","011265,1,N,1","+0200,1","+0130,1","99999,9","02,5,+00900,1,99,9","04,5,+01200,1,99,9",,,"04,99,1,99,9,99,9,99999,9,99,9,99,9",,"10281,1,99999,9",,,,,,"MET090METAR LPSJ 221200Z VRB05KT 9999 FEW030 SCT040 20/13 Q1028 RMK RWY13 VRB03KT RWY31 VRB09KT;","P01 012003SCOCIG"
"08509599999","2010-06-22T14:00:00","4","38.6655","-28.175817","94.79","SAO JORGE, PO","FM-15","LPSJ ","V020","999,9,V,0036,1","22000,1,9,N","011265,1,N,1","+0220,1","+0140,1","99999,9","04,5,+00900,1,99,9",,,,"04,99,1,99,9,99,9,99999,9,99,9,99,9",,"10281,1,99999,9",,,,,,"MET083METAR LPSJ 221400Z VRB07KT 9999 SCT030 22/14 Q1028 RMK RWY13 08009KT RWY31 VRB09KT;",
"08509599999","2010-06-23T09:00:00","4","38.6655","-28.175817","94.79","SAO JORGE, PO","FM-15","LPSJ ","V020","999,9,C,0000,1","22000,1,9,N","011265,1,N,1","+0180,1","+0150,1","99999,9","02,5,+00600,1,99,9",,,,"02,99,1,99,9,99,9,99999,9,99,9,99,9",,"10271,1,99999,9",,,,,,"MET083METAR LPSJ 230900Z 00000KT 9999 FEW020 18/15 Q1027 RMK RWY13 00000KT RWY31 00000KT;",
"08509599999","2010-06-23T10:00:00","4","38.6655","-28.175817","94.79","SAO JORGE, PO","FM-15","LPSJ ","V020","999,9,C,0000,1","22000,1,9,N","011265,1,N,1","+0190,1","+0150,1","99999,9","02,5,+00750,1,99,9",,,,"02,99,1,99,9,99,9,99999,9,99,9,99,9",,"10281,1,99999,9",,,,,,"MET083METAR LPSJ 231000Z 00000KT 9999 FEW025 19/15 Q1028 RMK RWY13 00000KT RWY31 00000KT;",
"08509599999","2010-06-23T11:00:00","4","38.6655","-28.175817","94.79","SAO JORGE, PO","FM-15","LPSJ ","V020","999,9,V,0031,1","22000,1,9,N","011265,1,N,1","+0190,1","+0150,1","99999,9","04,5,+00480,1,99,9",,,,"04,99,1,99,9,99,9,99999,9,99,9,99,9",,"10281,1,99999,9",,,,,,"MET083METAR LPSJ 231100Z VRB06KT 9999 SCT016 19/15 Q1028 RMK RWY13 VRB04KT RWY31 VRB04KT;",
"08509599999","2010-06-23T13:00:00","4","38.6655","-28.175817","94.79","SAO JORGE, PO","FM-15","LPSJ ","V020","250,1,N,0036,1","22000,1,9,N","011265,1,N,1","+0210,1","+0150,1","99999,9","02,5,+00600,1,99,9",,,,"02,99,1,99,9,99,9,99999,9,99,9,99,9",,"10281,1,99999,9",,,,,,"MET083METAR LPSJ 231300Z 25007KT 9999 FEW020 21/15 Q1028 RMK RWY13 26005KT RWY31 25004KT;",
"08509599999","2010-06-23T15:00:00","4","38.6655","-28.175817","94.79","SAO JORGE, PO","FM-15","LPSJ ","V020","260,1,N,0041,1","22000,1,9,N","011265,1,N,1","+0220,1","+0160,1","99999,9","02,5,+00480,1,99,9",,,,"02,99,1,99,9,99,9,99999,9,99,9,99,9",,"10271,1,99999,9",,,,,,"MET083METAR LPSJ 231500Z 26008KT 9999 FEW016 22/16 Q1027 RMK RWY13 27006KT RWY31 25006KT;",
"08509599999","2010-06-23T16:00:00","4","38.6655","-28.175817","94.79","SAO JORGE, PO","FM-15","LPSJ ","V020","260,1,N,0036,1","22000,1,9,N","011265,1,N,1","+0220,1","+0160,1","99999,9","02,5,+00600,1,99,9",,,,"02,99,1,99,9,99,9,99999,9,99,9,99,9",,"10271,1,99999,9",,,,,,"MET083METAR LPSJ 231600Z 26007KT 9999 FEW020 22/16 Q1027 RMK RWY13 29007KT RWY31 25005KT;",
"08509599999","2010-06-24T09:00:00","4","38.6655","-28.175817","94.79","SAO JORGE, PO","FM-15","LPSJ ","V020","999,9,C,0000,1","22000,1,9,N","011265,1,N,1","+0190,1","+0160,1","99999,9","02,5,+00600,1,99,9",,,,"02,99,1,99,9,99,9,99999,9,99,9,99,9",,"10271,1,99999,9",,,,,,"MET083METAR LPSJ 240900Z 00000KT 9999 FEW020 19/16 Q1027 RMK RWY13 00000KT RWY31 00000KT;",
"08509599999","2010-06-24T10:00:00","4","38.6655","-28.175817","94.79","SAO JORGE, PO","FM-15","LPSJ ","V020","999,9,V,0015,1","22000,1,9,N","011265,1,N,1","+0200,1","+0150,1","99999,9","02,5,+00900,1,99,9",,,,"02,99,1,99,9,99,9,99999,9,99,9,99,9",,"10271,1,99999,9",,,,,,"MET083METAR LPSJ 241000Z VRB03KT 9999 FEW030 20/15 Q1027 RMK RWY13 VRB04KT RWY31 VRB03KT;",
"08509599999","2010-06-24T11:00:00","4","38.6655","-28.175817","94.79","SAO JORGE, PO","FM-15","LPSJ ","V020","999,9,V,0015,1","22000,1,9,N","011265,1,N,1","+0210,1","+0150,1","99999,9","02,5,+00750,1,99,9",,,,"02,99,1,99,9,99,9,99999,9,99,9,99,9",,"10271,1,99999,9",,,,,,"MET083METAR LPSJ 241100Z VRB03KT 9999 FEW025 21/15 Q1027 RMK RWY13 VRB03KT RWY31 VRB04KT;",
"08509599999","2010-06-24T12:00:00","4","38.6655","-28.175817","94.79","SAO JORGE, PO","FM-15","LPSJ ","V020","300,1,N,0036,1","22000,1,9,N","011265,1,N,1","+0220,1","+0150,1","99999,9","02,5,+00900,1,99,9",,,,"02,99,1,99,9,99,9,99999,9,99,9,99,9",,"10271,1,99999,9",,,,,,"MET083METAR LPSJ 241200Z 30007KT 9999 FEW030 22/15 Q1027 RMK RWY13 32006KT RWY31 31007KT;",
"08509599999","2010-06-25T09:00:00","4","38.6655","-28.175817","94.79","SAO JORGE, PO","FM-15","LPSJ ","V020","999,9,C,0000,1","99999,9,C,N","011265,1,N,1","+0190,1","+0190,1","99999,9","02,5,+00180,1,99,9","04,5,+00360,1,99,9",,,"04,99,1,99,9,99,9,99999,9,99,9,99,9",,"10261,1,99999,9",,,,,,"MET090METAR LPSJ 250900Z 00000KT 9999 FEW006 SCT012 19/19 Q1026 RMK RWY13 00000KT RWY31 00000KT;","P01 003603SCOCIG"
"08509599999","2010-06-25T10:00:00","4","38.6655","-28.175817","94.79","SAO JORGE, PO","FM-15","LPSJ ","V020","999,9,C,0000,1","99999,9,C,N","011265,1,N,1","+0190,1","+0180,1","99999,9","02,5,+00210,1,99,9","04,5,+00360,1,99,9",,,"04,99,1,99,9,99,9,99999,9,99,9,99,9",,"10261,1,99999,9",,,,,,"MET090METAR LPSJ 251000Z 00000KT 9999 FEW007 SCT012 19/18 Q1026 RMK RWY13 00000KT RWY31 00000KT;","P01 003603SCOCIG"
"08509599999","2010-06-25T11:00:00","4","38.6655","-28.175817","94.79","SAO JORGE, PO","FM-15","LPSJ ","V020","999,9,V,0010,1","99999,9,C,N","011265,1,N,1","+0200,1","+0190,1","99999,9","02,5,+00240,1,99,9","04,5,+00420,1,99,9",,,"04,99,1,99,9,99,9,99999,9,99,9,99,9",,"10261,1,99999,9",,,,,,"MET090METAR LPSJ 251100Z VRB02KT 9999 FEW008 SCT014 20/19 Q1026 RMK RWY13 VRB03KT RWY31 VRB01KT;","P01 004203SCOCIG"
"08509599999","2010-06-25T12:00:00","4","38.6655","-28.175817","94.79","SAO JORGE, PO","FM-15","LPSJ ","V020","999,9,V,0015,1","99999,9,C,N","011265,1,N,1","+0210,1","+0190,1","99999,9","04,5,+00180,1,99,9","04,5,+00390,1,99,9",,,"04,99,1,99,9,99,9,99999,9,99,9,99,9",,"10261,1,99999,9",,,,,,"MET090METAR LPSJ 251200Z VRB03KT 9999 SCT006 SCT013 21/19 Q1026 RMK RWY13 VRB04KT RWY31 VRB02KT;","P01 003903SCOCIG"
"08509599999","2010-06-25T14:00:00","4","38.6655","-28.175817","94.79","SAO JORGE, PO","FM-15","LPSJ ","V020","140,1,N,0036,1","99999,9,C,N","011265,1,N,1","+0210,1","+0190,1","99999,9","02,5,+00240,1,99,9","04,5,+00300,1,99,9",,,"04,99,1,99,9,99,9,99999,9,99,9,99,9",,"10251,1,99999,9",,,,,,"MET090METAR LPSJ 251400Z 14007KT 9999 FEW008 SCT010 21/19 Q1025 RMK RWY13 16004KT RWY31 17003KT;","P01 003003SCOCIG"
"08509599999","2010-06-25T15:00:00","4","38.6655","-28.175817","94.79","SAO JORGE, PO","FM-15","LPSJ ","V020","150,1,N,0046,1","99999,9,C,N","011265,1,N,1","+0210,1","+0190,1","99999,9","02,5,+00060,1,99,9","04,5,+00240,1,99,9",,,"04,99,1,99,9,99,9,99999,9,99,9,99,9",,"10251,1,99999,9",,,,,,"MET090METAR LPSJ 251500Z 15009KT 9999 FEW002 SCT008 21/19 Q1025 RMK RWY13 16005KT RWY31 16004KT;","P01 002403SCOCIG"
"08509599999","2010-06-25T16:00:00","4","38.6655","-28.175817","94.79","SAO JORGE, PO","FM-15","LPSJ ","V020","140,1,N,0067,1","22000,1,9,N","011265,1,N,1","+0230,1","+0190,1","99999,9","04,5,+00480,1,99,9",,,,"04,99,1,99,9,99,9,99999,9,99,9,99,9",,"10240,1,99999,9",,,,,,"MET099METAR LPSJ 251600Z 14013KT 9999 SCT016 23/19 Q1024 RMK RWY13 16008KT 120V180 RWY31 14009KT 120V180;",
"08509599999","2010-06-26T09:00:00","4","38.6655","-28.175817","94.79","SAO JORGE, PO","FM-15","LPSJ ","V020","999,9,C,0000,1","00420,1,C,N","009000,1,N,1","+0190,1","+0180,1","99999,9","04,5,+00240,1,99,9","07,5,+00420,1,99,9",,,"07,99,1,99,9,99,9,99999,9,99,9,99,9",,"10200,1,99999,9","16,1",,,,,"MET095METAR LPSJ 260900Z 00000KT 9000 VCSH SCT008 BKN014 19/18 Q1020 RMK RWY13 00000KT RWY31 00000KT;",
"08509599999","2010-06-26T10:00:00","4","38.6655","-28.175817","94.79","SAO JORGE, PO","FM-15","LPSJ ","V020","999,9,C,0000,1","00240,1,C,N","009000,1,N,1","+0200,1","+0200,1","99999,9","02,5,+00060,1,99,9","07,5,+00240,1,99,9",,,"07,99,1,99,9,99,9,99999,9,99,9,99,9",,"10200,1,99999,9",,,,,,"MET090METAR LPSJ 261000Z 00000KT 9000 FEW002 BKN008 20/20 Q1020 RMK RWY13 00000KT RWY31 00000KT;",
"08509599999","2010-06-26T11:00:00","4","38.6655","-28.175817","94.79","SAO JORGE, PO","FM-15","LPSJ ","V020","280,1,N,0036,1","99999,9,C,N","011265,1,N,1","+0200,1","+0190,1","99999,9","04,5,+00180,1,99,9","04,5,+00420,1,99,9",,,"04,99,1,99,9,99,9,99999,9,99,9,99,9",,"10200,1,99999,9",,,,,,"MET090METAR LPSJ 261100Z 28007KT 9999 SCT006 SCT014 20/19 Q1020 RMK RWY13 29005KT RWY31 27005KT;","P01 004203SCOCIG"
"08509599999","2010-06-26T12:00:00","4","38.6655","-28.175817","94.79","SAO JORGE, PO","FM-15","LPSJ ","V020","290,1,N,0036,1","99999,9,C,N","011265,1,N,1","+0210,1","+0200,1","99999,9","02,5,+00180,1,99,9","04,5,+00450,1,99,9",,,"04,99,1,99,9,99,9,99999,9,99,9,99,9",,"10200,1,99999,9",,,,,,"MET090METAR LPSJ 261200Z 29007KT 9999 FEW006 SCT015 21/20 Q1020 RMK RWY13 28005KT RWY31 27006KT;","P01 004503SCOCIG"
"08509599999","2010-06-26T13:00:00","4","38.6655","-28.175817","94.79","SAO JORGE, PO","FM-15","LPSJ ","V020","280,1,N,0041,1","99999,9,C,N","011265,1,N,1","+0210,1","+0200,1","99999,9","02,5,+00240,1,99,9","04,5,+00450,1,99,9",,,"04,99,1,99,9,99,9,99999,9,99,9,99,9",,"10200,1,99999,9",,,,,,"MET090METAR LPSJ 261300Z 28008KT 9999 FEW008 SCT015 21/20 Q1020 RMK RWY13 29007KT RWY31 27007KT;","P01 004503SCOCIG"
"08509599999","2010-06-26T14:00:00","4","38.6655","-28.175817","94.79","SAO JORGE, PO","FM-15","LPSJ ","V020","270,1,N,0041,1","00450,1,C,N","011265,1,N,1","+0220,1","+0210,1","99999,9","02,5,+00240,1,99,9","07,5,+00450,1,99,9",,,"07,99,1,99,9,99,9,99999,9,99,9,99,9",,"10200,1,99999,9",,,,,,"MET090METAR LPSJ 261400Z 27008KT 9999 FEW008 BKN015 22/21 Q1020 RMK RWY13 29005KT RWY31 26007KT;",
"08509599999","2010-06-26T15:00:00","4","38.6655","-28.175817","94.79","SAO JORGE, PO","FM-15","LPSJ ","V020","280,1,N,0031,1","00480,1,C,N","011265,1,N,1","+0220,1","+0200,1","99999,9","02,5,+00240,1,99,9","07,5,+00480,1,99,9",,,"07,99,1,99,9,99,9,99999,9,99,9,99,9",,"10190,1,99999,9",,,,,,"MET090METAR LPSJ 261500Z 28006KT 9999 FEW008 BKN016 22/20 Q1019 RMK RWY13 29005KT RWY31 26007KT;",
"08509599999","2010-06-26T16:00:00","4","38.6655","-28.175817","94.79","SAO JORGE, PO","FM-15","LPSJ ","V020","280,1,N,0036,1","00480,1,C,N","011265,1,N,1","+0220,1","+0200,1","99999,9","02,5,+00240,1,99,9","04,5,+00480,1,99,9","07,5,+00750,1,99,9",,"07,99,1,99,9,99,9,99999,9,99,9,99,9",,"10190,1,99999,9",,,,,,"MET097METAR LPSJ 261600Z 28007KT 9999 FEW008 SCT016 BKN025 22/20 Q1019 RMK RWY13 29006KT RWY31 27007KT;",
"08509599999","2010-06-26T17:00:00","4","38.6655","-28.175817","94.79","SAO JORGE, PO","FM-15","LPSJ ","V020","280,1,N,0036,1","00015,1,9,N","000500,1,N,1","+0200,1","+0200,1","99999,9","09,1,+00015,1,99,9",,,,"09,99,1,99,9,99,9,00025,1,99,9,99,9",,"10190,1,99999,9","10,1","61,1",,,,"MET094METAR LPSJ 261700Z 28007KT 0500 -RA BR VV000 20/20 Q1019 RERA RMK RWY13 29007KT RWY31 27009KT;",
"08509599999","2010-06-26T18:00:00","4","38.6655","-28.175817","94.79","SAO JORGE, PO","FM-15","LPSJ ","V020","280,1,N,0036,1","00420,1,C,N","011265,1,N,1","+0210,1","+0200,1","99999,9","02,5,+00210,1,99,9","07,5,+00420,1,99,9",,,"07,99,1,99,9,99,9,99999,9,99,9,99,9",,"10180,1,99999,9",,,,,,"MET090METAR LPSJ 261800Z 28007KT 9999 FEW007 BKN014 21/20 Q1018 RMK RWY13 30006KT RWY31 27007KT;",
"08509599999","2010-06-26T19:00:00","4","38.6655","-28.175817","94.79","SAO JORGE, PO","FM-15","LPSJ ","V020","280,1,N,0041,1","99999,9,C,N","011265,1,N,1","+0200,1","+0190,1","99999,9","02,5,+00240,1,99,9","04,5,+00420,1,99,9",,,"04,99,1,99,9,99,9,99999,9,99,9,99,9",,"10190,1,99999,9",,,,,,"MET090METAR LPSJ 261900Z 28008KT 9999 FEW008 SCT014 20/19 Q1019 RMK RWY13 30005KT RWY31 28007KT;","P01 004203SCOCIG"
"08509599999","2010-06-27T09:00:00","4","38.6655","-28.175817","94.79","SAO JORGE, PO","FM-15","LPSJ ","V020","290,1,N,0036,1","00240,1,C,N","009000,1,N,1","+0190,1","+0190,1","99999,9","04,5,+00120,1,99,9","07,5,+00240,1,99,9",,,"07,99,1,99,9,99,9,99999,9,99,9,99,9",,"10210,1,99999,9","80,1",,,,,"MET096METAR LPSJ 270900Z 29007KT 9000 -SHRA SCT004 BKN008 19/19 Q1021 RMK RWY13 29005KT RWY31 28005KT;",
"08509599999","2010-06-27T10:00:00","4","38.6655","-28.175817","94.79","SAO JORGE, PO","FM-15","LPSJ ","V020","290,1,N,0031,1","00240,1,C,N","011265,1,N,1","+0190,1","+0190,1","99999,9","02,5,+00150,1,99,9","04,5,+00240,1,99,9","07,5,+00390,1,99,9",,"07,99,1,99,9,99,9,99999,9,99,9,99,9",,"10220,1,99999,9",,,,,,"MET097METAR LPSJ 271000Z 29006KT 9999 FEW005 SCT008 BKN013 19/19 Q1022 RMK RWY13 29004KT RWY31 27003KT;",
"08509599999","2010-06-27T11:00:00","4","38.6655","-28.175817","94.79","SAO JORGE, PO","FM-15","LPSJ ","V020","290,1,N,0046,1","00390,1,C,N","011265,1,N,1","+0200,1","+0200,1","99999,9","02,5,+00180,1,99,9","07,5,+00390,1,99,9",,,"07,99,1,99,9,99,9,99999,9,99,9,99,9",,"10220,1,99999,9",,,,,,"MET090METAR LPSJ 271100Z 29009KT 9999 FEW006 BKN013 20/20 Q1022 RMK RWY13 29007KT RWY31 27004KT;",
"08509599999","2010-06-27T12:00:00","4","38.6655","-28.175817","94.79","SAO JORGE, PO","FM-15","LPSJ ","V020","290,1,N,0036,1","00240,1,C,N","011265,1,N,1","+0200,1","+0200,1","99999,9","02,5,+00120,1,99,9","04,5,+00240,1,99,9","07,5,+00420,1,99,9",,"07,99,1,99,9,99,9,99999,9,99,9,99,9",,"10230,1,99999,9",,,,,,"MET097METAR LPSJ 271200Z 29007KT 9999 FEW004 SCT008 BKN014 20/20 Q1023 RMK RWY13 30004KT RWY31 27005KT;",
"08509599999","2010-06-28T10:00:00","4","38.6655","-28.175817","94.79","SAO JORGE, PO","FM-15","LPSJ ","V020","290,1,N,0046,1","99999,9,C,N","011265,1,N,1","+0200,1","+0190,1","99999,9","04,5,+00300,1,99,9","04,5,+00600,1,99,9",,,"04,99,1,99,9,99,9,99999,9,99,9,99,9",,"10261,1,99999,9",,,,,,"MET095METAR LPSJ 281000Z 29009KT 9999 SCT010 SCT020 20/19 Q1026 RMK WIND RWY13 31006KT RWY31 29006KT;","P01 006003SCOCIG"
"08509599999","2010-06-28T11:00:00","4","38.6655","-28.175817","94.79","SAO JORGE, PO","FM-15","LPSJ ","V020","290,1,N,0046,1","99999,9,C,N","011265,1,N,1","+0200,1","+0190,1","99999,9","04,5,+00300,1,99,9","04,5,+00600,1,99,9",,,"04,99,1,99,9,99,9,99999,9,99,9,99,9",,"10261,1,99999,9",,,,,,"MET095METAR LPSJ 281100Z 29009KT 9999 SCT010 SCT020 20/19 Q1026 RMK WIND RWY13 31004KT RWY31 28006KT;","P01 006003SCOCIG"
"08509599999","2010-06-28T12:00:00","4","38.6655","-28.175817","94.79","SAO JORGE, PO","FM-15","LPSJ ","V020","280,1,N,0046,1","99999,9,C,N","011265,1,N,1","+0210,1","+0190,1","99999,9","02,5,+00210,1,99,9","04,5,+00360,1,99,9",,,"04,99,1,99,9,99,9,99999,9,99,9,99,9",,"10271,1,99999,9",,,,,,"MET095METAR LPSJ 281200Z 28009KT 9999 FEW007 SCT012 21/19 Q1027 RMK WIND RWY13 31005KT RWY31 29008KT;","P01 003603SCOCIG"
"08509599999","2010-06-28T13:00:00","4","38.6655","-28.175817","94.79","SAO JORGE, PO","FM-15","LPSJ ","V020","290,1,N,0046,1","99999,9,C,N","011265,1,N,1","+0210,1","+0190,1","99999,9","02,5,+00240,1,99,9","04,5,+00420,1,99,9",,,"04,99,1,99,9,99,9,99999,9,99,9,99,9",,"10271,1,99999,9",,,,,,"MET095METAR LPSJ 281300Z 29009KT 9999 FEW008 SCT014 21/19 Q1027 RMK WIND RWY13 32006KT RWY31 29005KT;","P01 004203SCOCIG"
"08509599999","2010-06-28T14:00:00","4","38.6655","-28.175817","94.79","SAO JORGE, PO","FM-15","LPSJ ","V020","290,1,N,0046,1","00180,1,C,N","004000,1,N,1","+0200,1","+0200,1","99999,9","04,5,+00090,1,99,9","07,5,+00180,1,99,9",,,"07,99,1,99,9,99,9,99999,9,99,9,99,9",,"10271,1,99999,9","10,1","51,1","61,1",,,"MET104METAR LPSJ 281400Z 29009KT 4000 -DZRA BR SCT003 BKN006 20/20 Q1027 RMK WIND RWY13 31005KT RWY31 29006KT;",
"08509599999","2010-06-28T15:00:00","4","38.6655","-28.175817","94.79","SAO JORGE, PO","FM-15","LPSJ ","V020","290,1,N,0057,1","99999,9,C,N","008000,1,N,1","+0210,1","+0200,1","99999,9","04,5,+00150,1,99,9","04,5,+00420,1,99,9",,,"04,99,1,99,9,99,9,99999,9,99,9,99,9",,"10271,1,99999,9",,,,,,"MET095METAR LPSJ 281500Z 29011KT 8000 SCT005 SCT014 21/20 Q1027 RMK WIND RWY13 31006KT RWY31 29006KT;","P01 004203SCOCIG"
"08509599999","2010-06-28T16:00:00","4","38.6655","-28.175817","94.79","SAO JORGE, PO","FM-15","LPSJ ","V020","310,1,N,0046,1","99999,9,C,N","011265,1,N,1","+0230,1","+0190,1","99999,9","04,5,+00480,1,99,9","04,5,+00750,1,99,9",,,"04,99,1,99,9,99,9,99999,9,99,9,99,9",,"10271,1,99999,9",,,,,,"MET095METAR LPSJ 281600Z 31009KT 9999 SCT016 SCT025 23/19 Q1027 RMK WIND RWY13 32008KT RWY31 30007KT;","P01 007503SCOCIG"
"08509599999","2010-06-29T09:00:00","4","38.6655","-28.175817","94.79","SAO JORGE, PO","FM-15","LPSJ ","V020","999,9,V,0015,1","99999,9,C,N","011265,1,N,1","+0200,1","+0170,1","99999,9","04,5,+00420,1,99,9","04,5,+00750,1,99,9",,,"04,99,1,99,9,99,9,99999,9,99,9,99,9",,"10291,1,99999,9",,,,,,"MET095METAR LPSJ 290900Z VRB03KT 9999 SCT014 SCT025 20/17 Q1029 RMK WIND RWY13 VRB01KT RWY31 VRB02KT;","P01 007503SCOCIG"
"08509599999","2010-06-29T10:00:00","4","38.6655","-28.175817","94.79","SAO JORGE, PO","FM-15","LPSJ ","V020","999,9,V,0015,1","99999,9,C,N","011265,1,N,1","+0200,1","+0170,1","99999,9","04,5,+00420,1,99,9","04,5,+00750,1,99,9",,,"04,99,1,99,9,99,9,99999,9,99,9,99,9",,"10291,1,99999,9",,,,,,"MET095METAR LPSJ 291000Z VRB03KT 9999 SCT014 SCT025 20/17 Q1029 RMK WIND RWY13 VRB02KT RWY31 VRB03KT;","P01 007503SCOCIG"
"08509599999","2010-06-29T11:00:00","4","38.6655","-28.175817","94.79","SAO JORGE, PO","FM-15","LPSJ ","V020","999,9,V,0026,1","99999,9,C,N","011265,1,N,1","+0200,1","+0170,1","99999,9","04,5,+00480,1,99,9","04,5,+00840,1,99,9",,,"04,99,1,99,9,99,9,99999,9,99,9,99,9",,"10291,1,99999,9",,,,,,"MET095METAR LPSJ 291100Z VRB05KT 9999 SCT016 SCT028 20/17 Q1029 RMK WIND RWY13 VRB04KT RWY31 VRB04KT;","P01 008403SCOCIG"
"08509599999","2010-06-29T12:00:00","4","38.6655","-28.175817","94.79","SAO JORGE, PO","FM-15","LPSJ ","V020","290,1,N,0046,1","99999,9,C,N","011265,1,N,1","+0210,1","+0170,1","99999,9","02,5,+00540,1,99,9","04,5,+00900,1,99,9",,,"04,99,1,99,9,99,9,99999,9,99,9,99,9",,"10291,1,99999,9",,,,,,"MET111METAR LPSJ 291200Z 29009KT 9999 FEW018 SCT030 21/17 Q1029 RMK WIND RWY13 31009KT 270V330 RWY31 29007KT 240V310;","P01 009003SCOCIG"
"08509599999","2010-06-29T13:00:00","4","38.6655","-28.175817","94.79","SAO JORGE, PO","FM-15","LPSJ ","V020","290,1,N,0057,1","99999,9,C,N","011265,1,N,1","+0220,1","+0170,1","99999,9","02,5,+00540,1,99,9","04,5,+00900,1,99,9",,,"04,99,1,99,9,99,9,99999,9,99,9,99,9",,"10291,1,99999,9",,,,,,"MET095METAR LPSJ 291300Z 29011KT 9999 FEW018 SCT030 22/17 Q1029 RMK WIND RWY13 31008KT RWY31 31010KT;","P01 009003SCOCIG"
"08509599999","2010-06-29T14:00:00","4","38.6655","-28.175817","94.79","SAO JORGE, PO","FM-15","LPSJ ","V020","260,1,N,0046,1","22000,1,9,N","011265,1,N,1","+0220,1","+0170,1","99999,9","02,5,+00540,1,99,9",,,,"02,99,1,99,9,99,9,99999,9,99,9,99,9",,"10291,1,99999,9",,,,,,"MET089METAR LPSJ 291400Z 26009KT 9999 FEW018 22/17 Q1029 RMK WIND RWY13 280060KT RWY31 26006KT;",
"08509599999","2010-06-29T15:00:00","4","38.6655","-28.175817","94.79","SAO JORGE, PO","FM-15","LPSJ ","V020","250,1,N,0051,1","22000,1,9,N","011265,1,N,1","+0230,1","+0170,1","99999,9","02,5,+00600,1,99,9",,,,"02,99,1,99,9,99,9,99999,9,99,9,99,9",,"10291,1,99999,9",,,,,,"MET088METAR LPSJ 291500Z 25010KT 9999 FEW020 23/17 Q1029 RMK WIND RWY13 27006KT RWY31 26007KT;",
"08509599999","2010-06-30T09:00:00","4","38.6655","-28.175817","94.79","SAO JORGE, PO","FM-15","LPSJ ","V020","999,9,V,0015,1","22000,1,9,N","011265,1,N,1","+0210,1","+0180,1","99999,9","02,5,+00480,1,99,9",,,,"02,99,1,99,9,99,9,99999,9,99,9,99,9",,"10271,1,99999,9",,,,,,"MET088METAR LPSJ 300900Z VRB03KT 9999 FEW016 21/18 Q1027 RMK WIND RWY13 VRB04KT RWY31 VRB04KT;",
"08509599999","2010-06-30T10:00:00","4","38.6655","-28.175817","94.79","SAO JORGE, PO","FM-15","LPSJ ","V020","310,1,N,0036,1","22000,1,9,N","011265,1,N,1","+0220,1","+0180,1","99999,9","04,5,+00480,1,99,9",,,,"04,99,1,99,9,99,9,99999,9,99,9,99,9",,"10271,1,99999,9",,,,,,"MET088METAR LPSJ 301000Z 31007KT 9999 SCT016 22/18 Q1027 RMK WIND RWY13 32006KT RWY31 30005KT;",
"08509599999","2010-06-30T11:00:00","4","38.6655","-28.175817","94.79","SAO JORGE, PO","FM-15","LPSJ ","V020","290,1,N,0041,1","22000,1,9,N","011265,1,N,1","+0230,1","+0180,1","99999,9","02,5,+00480,1,99,9",,,,"02,99,1,99,9,99,9,99999,9,99,9,99,9",,"10261,1,99999,9",,,,,,"MET088METAR LPSJ 301100Z 29008KT 9999 FEW016 23/18 Q1026 RMK WIND RWY13 31006KT RWY31 29009KT;",
"08509599999","2010-06-30T12:00:00","4","38.6655","-28.175817","94.79","SAO JORGE, PO","FM-15","LPSJ ","V020","280,1,N,0057,1","22000,1,9,N","011265,1,N,1","+0230,1","+0180,1","99999,9","02,5,+00480,1,99,9",,,,"02,99,1,99,9,99,9,99999,9,99,9,99,9",,"10261,1,99999,9",,,,,,"MET088METAR LPSJ 301200Z 28011KT 9999 FEW016 23/18 Q1026 RMK WIND RWY13 30007KT RWY31 28009KT;",
"08509599999","2010-06-30T13:00:00","4","38.6655","-28.175817","94.79","SAO JORGE, PO","FM-15","LPSJ ","V020","280,1,N,0057,1","22000,1,9,N","011265,1,N,1","+0240,1","+0190,1","99999,9","04,5,+00480,1,99,9",,,,"04,99,1,99,9,99,9,99999,9,99,9,99,9",,"10261,1,99999,9",,,,,,"MET104METAR LPSJ 301300Z 28011KT 9999 SCT016 24/19 Q1026 RMK WIND RWY13 29006KT 250V320 RWY31 27009KT 250V310;",
"08509599999","2010-06-30T14:00:00","4","38.6655","-28.175817","94.79","SAO JORGE, PO","FM-15","LPSJ ","V020","280,1,N,0051,1","22000,1,9,N","011265,1,N,1","+0240,1","+0190,1","99999,9","04,5,+00450,1,99,9",,,,"04,99,1,99,9,99,9,99999,9,99,9,99,9",,"10261,1,99999,9",,,,,,"MET104METAR LPSJ 301400Z 28010KT 9999 SCT015 24/19 Q1026 RMK WIND RWY13 29008KT 260V320 RWY31 27008KT 230V290;",
"08509599999","2010-06-30T15:00:00","4","38.6655","-28.175817","94.79","SAO JORGE, PO","FM-15","LPSJ ","V020","280,1,N,0062,1","22000,1,9,N","011265,1,N,1","+0240,1","+0190,1","99999,9","04,5,+00420,1,99,9",,,,"04,99,1,99,9,99,9,99999,9,99,9,99,9",,"10261,1,99999,9",,,,,,"MET104METAR LPSJ 301500Z 28012KT 9999 SCT014 24/19 Q1026 RMK WIND RWY13 31010KT 260V340 RWY31 28009KT 240V300;",
"08509599999","2010-06-30T16:00:00","4","38.6655","-28.175817","94.79","SAO JORGE, PO","FM-15","LPSJ ","V020","280,1,N,0057,1","99999,9,C,N","011265,1,N,1","+0240,1","+0190,1","99999,9","02,5,+00360,1,99,9","04,5,+00510,1,99,9",,,"04,99,1,99,9,99,9,99999,9,99,9,99,9",,"10251,1,99999,9",,,,,,"MET111METAR LPSJ 301600Z 28011KT 9999 FEW012 SCT017 24/19 Q1025 RMK WIND RWY13 31008KT 260V330 RWY31 27008KT 240V300;","P01 005103SCOCIG"
"08509599999","2010-07-01T09:00:00","4","38.6655","-28.175817","94.79","SAO JORGE, PO","FM-15","LPSJ ","V020","280,1,N,0057,1","00300,1,C,N","011265,1,N,1","+0210,1","+0200,1","99999,9","04,5,+00150,1,99,9","07,5,+00300,1,99,9",,,"07,99,1,99,9,99,9,99999,9,99,9,99,9",,"10220,1,99999,9",,,,,,"MET109METAR LPSJ 010900Z 28011KT 9999 SCT005 BKN010 21/20 Q1022 RMK WIND RWY13 29007KT 260V320 RWY31 27009 240V300;",
"08509599999","2010-07-01T10:00:00","4","38.6655","-28.175817","94.79","SAO JORGE, PO","FM-15","LPSJ ","V020","280,1,N,0067,1","00300,1,C,N","011265,1,N,1","+0210,1","+0200,1","99999,9","04,5,+00180,1,99,9","04,5,+00300,1,99,9","07,5,+00750,1,99,9",,"07,99,1,99,9,99,9,99999,9,99,9,99,9",,"10210,1,99999,9",,,,,,"MET118METAR LPSJ 011000Z 28013KT 9999 SCT006 SCT010 BKN025 21/20 Q1021 RMK WIND RWY13 30008KT 270V340 RWY31 27010KT 240V300;",
"08509599999","2010-07-01T11:00:00","4","38.6655","-28.175817","94.79","SAO JORGE, PO","FM-15","LPSJ ","V020","290,1,N,0057,1","00360,1,C,N","011265,1,N,1","+0210,1","+0200,1","99999,9","02,5,+00210,1,99,9","07,5,+00360,1,99,9",,,"07,99,1,99,9,99,9,99999,9,99,9,99,9",,"10200,1,99999,9",,,,,,"MET111METAR LPSJ 011100Z 29011KT 9999 FEW007 BKN012 21/20 Q1020 RMK WIND RWY13 30011KT 260V340 RWY31 28008KT 240V300;",
"08509599999","2010-07-01T12:00:00","4","38.6655","-28.175817","94.79","SAO JORGE, PO","FM-15","LPSJ ","V020","280,1,N,0067,1","00150,1,C,N","001000,1,N,1","+0200,1","+0200,1","99999,9","04,5,+00060,1,99,9","08,5,+00150,1,99,9",,,"08,99,1,99,9,99,9,99999,9,99,9,99,9",,"10200,1,99999,9","10,1","51,1",,,,"MET118METAR LPSJ 011200Z 28013KT 1000 -DZ BR SCT002 OVC005 20/20 Q1020 RMK WIND RWY13 30009KT 260V350 RWY31 27008KT 240V310;",
"08509599999","2010-07-01T15:00:00","4","38.6655","-28.175817","94.79","SAO JORGE, PO","FM-15","LPSJ ","V020","290,1,N,0051,1","00360,1,C,N","011265,1,N,1","+0210,1","+0210,1","99999,9","02,5,+00240,1,99,9","04,5,+00360,1,99,9","07,5,+00750,1,99,9",,"07,99,1,99,9,99,9,99999,9,99,9,99,9",,"10190,1,99999,9",,,,,,"MET102METAR LPSJ 011500Z 29010KT 9999 FEW008 SCT012 BKN025 21/21 Q1019 RMK WIND RWY13 32007KT RWY31 29008KT;",
"08509599999","2010-07-01T16:00:00","4","38.6655","-28.175817","94.79","SAO JORGE, PO","FM-15","LPSJ ","V020","290,1,N,0046,1","00360,1,C,N","011265,1,N,1","+0220,1","+0200,1","99999,9","02,5,+00150,1,99,9","04,5,+00360,1,99,9","07,5,+00750,1,99,9",,"07,99,1,99,9,99,9,99999,9,99,9,99,9",,"10190,1,99999,9",,,,,,"MET101METAR LPSJ 011600Z 29009KT 9999 FEW005 SCT012 BKN025 22/20 Q1019 RMK WIND RWY13 3105KT RWY31 29007KT;",
"08509599999","2010-07-01T18:00:00","4","38.6655","-28.175817","94.79","SAO JORGE, PO","FM-15","LPSJ ","V020","020,1,N,0036,1","00750,1,C,N","011265,1,N,1","+0230,1","+0190,1","99999,9","04,5,+00360,1,99,9","07,5,+00750,1,99,9",,,"07,99,1,99,9,99,9,99999,9,99,9,99,9",,"10190,1,99999,9",,,,,,"MET095METAR LPSJ 011800Z 02007KT 9999 SCT012 BKN025 23/19 Q1019 RMK WIND RWY13 04012KT RWY31 02013KT;",
"08509599999","2010-07-01T19:00:00","4","38.6655","-28.175817","94.79","SAO JORGE, PO","FM-15","LPSJ ","V020","030,1,N,0062,1","99999,9,C,N","011265,1,N,1","+0220,1","+0190,1","99999,9","04,5,+00420,1,99,9","04,5,+00900,1,99,9",,,"04,99,1,99,9,99,9,99999,9,99,9,99,9",,"10190,1,99999,9",,,,,,"MET095METAR LPSJ 011900Z 03012KT 9999 SCT014 SCT030 22/19 Q1019 RMK WIND RWY13 05016KT RWY31 03015KT;","P01 009003SCOCIG"
"08509599999","2010-07-02T09:00:00","4","38.6655","-28.175817","94.79","SAO JORGE, PO","FM-15","LPSJ ","V020","070,1,N,0026,1","22000,1,9,N","011265,1,N,1","+0190,1","+0130,1","99999,9","02,5,+00540,1,99,9",,,,"02,99,1,99,9,99,9,99999,9,99,9,99,9",,"10230,1,99999,9",,,,,,"MET088METAR LPSJ 020900Z 07005KT 9999 FEW018 19/13 Q1023 RMK WIND RWY13 06008KT RWY31 08004KT;",
"08509599999","2010-07-02T14:00:00","4","38.6655","-28.175817","94.79","SAO JORGE, PO","FM-15","LPSJ ","V020","999,9,V,0015,1","22000,1,9,N","011265,1,N,1","+0210,1","+0140,1","99999,9","02,5,+00750,1,99,9",,,,"02,99,1,99,9,99,9,99999,9,99,9,99,9",,"10240,1,99999,9",,,,,,"MET088METAR LPSJ 021400Z VRB03KT 9999 FEW025 21/14 Q1024 RMK WIND RWY13 VRB03KT RWY31 VRB02KT;",
"08509599999","2010-07-02T15:00:00","4","38.6655","-28.175817","94.79","SAO JORGE, PO","FM-15","LPSJ ","V020","999,9,V,0021,1","22000,1,9,N","011265,1,N,1","+0210,1","+0130,1","99999,9","02,5,+00900,1,99,9",,,,"02,99,1,99,9,99,9,99999,9,99,9,99,9",,"10240,1,99999,9",,,,,,"MET088METAR LPSJ 021500Z VRB04KT 9999 FEW030 21/13 Q1024 RMK WIND RWY13 VRB06KT RWY31 VRB04KT;",
"08509599999","2010-07-02T16:00:00","4","38.6655","-28.175817","94.79","SAO JORGE, PO","FM-15","LPSJ ","V020","999,9,V,0015,1","22000,1,9,N","011265,1,N,1","+0210,1","+0140,1","99999,9","02,5,+00750,1,99,9",,,,"02,99,1,99,9,99,9,99999,9,99,9,99,9",,"10240,1,99999,9",,,,,,"MET088METAR LPSJ 021600Z VRB03KT 9999 FEW025 21/14 Q1024 RMK WIND RWY13 VRB07KT RWY31 VRB03KT;",
"08509599999","2010-07-03T14:00:00","4","38.6655","-28.175817","94.79","SAO JORGE, PO","FM-15","LPSJ ","V020","160,1,N,0041,1","22000,1,9,N","011265,1,N,1","+0210,1","+0140,1","99999,9","02,5,+00750,1,99,9",,,,"02,99,1,99,9,99,9,99999,9,99,9,99,9",,"10281,1,99999,9",,,,,,"MET088METAR LPSJ 031400Z 16008KT 9999 FEW025 21/14 Q1028 RMK WIND RWY13 16007KT RWY31 17005KT;",
"08509599999","2010-07-03T15:00:00","4","38.6655","-28.175817","94.79","SAO JORGE, PO","FM-15","LPSJ ","V020","160,1,N,0041,1","22000,1,9,N","011265,1,N,1","+0220,1","+0140,1","99999,9","02,5,+00750,1,99,9",,,,"02,99,1,99,9,99,9,99999,9,99,9,99,9",,"10281,1,99999,9",,,,,,"MET088METAR LPSJ 031500Z 16008KT 9999 FEW025 22/14 Q1028 RMK WIND RWY13 15006KT RWY31 17006KT;",
"08509599999","2010-07-03T16:00:00","4","38.6655","-28.175817","94.79","SAO JORGE, PO","FM-15","LPSJ ","V020","160,1,N,0026,1","22000,1,9,N","011265,1,N,1","+0220,1","+0140,1","99999,9","02,5,+00750,1,99,9",,,,"02,99,1,99,9,99,9,99999,9,99,9,99,9",,"10281,1,99999,9",,,,,,"MET088METAR LPSJ 031600Z 16005KT 9999 FEW025 22/14 Q1028 RMK WIND RWY13 15005KT RWY31 17004KT;",
"08509599999","2010-07-03T17:00:00","4","38.6655","-28.175817","94.79","SAO JORGE, PO","FM-15","LPSJ ","V020","160,1,N,0036,1","22000,1,9,N","011265,1,N,1","+0220,1","+0150,1","99999,9","02,5,+00900,1,99,9",,,,"02,99,1,99,9,99,9,99999,9,99,9,99,9",,"10281,1,99999,9",,,,,,"MET088METAR LPSJ 031700Z 16007KT 9999 FEW030 22/15 Q1028 RMK WIND RWY13 18005KT RWY31 18004KT;",
"08509599999","2010-07-03T18:00:00","4","38.6655","-28.175817","94.79","SAO JORGE, PO","FM-15","LPSJ ","V020","170,1,N,0026,1","22000,1,9,N","011265,1,N,1","+0220,1","+0160,1","99999,9","02,5,+00900,1,99,9",,,,"02,99,1,99,9,99,9,99999,9,99,9,99,9",,"10281,1,99999,9",,,,,,"MET088METAR LPSJ 031800Z 17005KT 9999 FEW030 22/16 Q1028 RMK WIND RWY13 17006KT RWY31 18004KT;",
"08509599999","2010-07-05T09:00:00","4","38.6655","-28.175817","94.79","SAO JORGE, PO","FM-15","LPSJ ","V020","999,9,C,0000,1","22000,1,9,N","011265,1,N,1","+0200,1","+0160,1","99999,9","02,5,+00660,1,99,9",,,,"02,99,1,99,9,99,9,99999,9,99,9,99,9",,"10312,1,99999,9",,,,,,"MET088METAR LPSJ 050900Z 00000KT 9999 FEW022 20/16 Q1031 RMK WIND RWY13 00000KT RWY31 00000KT;",
"08509599999","2010-07-05T14:00:00","4","38.6655","-28.175817","94.79","SAO JORGE, PO","FM-15","LPSJ ","V020","180,1,N,0031,1","22000,1,9,N","011265,1,N,1","+0220,1","+0170,1","99999,9","02,5,+00750,1,99,9",,,,"02,99,1,99,9,99,9,99999,9,99,9,99,9",,"10312,1,99999,9",,,,,,"MET088METAR LPSJ 051400Z 18006KT 9999 FEW025 22/17 Q1031 RMK WIND RWY13 19006KT RWY31 17004KT;",
"08509599999","2010-07-05T15:00:00","4","38.6655","-28.175817","94.79","SAO JORGE, PO","FM-15","LPSJ ","V020","180,1,N,0031,1","22000,1,9,N","011265,1,N,1","+0230,1","+0170,1","99999,9","02,5,+00660,1,99,9",,,,"02,99,1,99,9,99,9,99999,9,99,9,99,9",,"10312,1,99999,9",,,,,,"MET088METAR LPSJ 051500Z 18006KT 9999 FEW022 23/17 Q1031 RMK WIND RWY13 19006KT RWY31 19005KT;",
"08509599999","2010-07-05T16:00:00","4","38.6655","-28.175817","94.79","SAO JORGE, PO","FM-15","LPSJ ","V020","180,1,N,0031,1","22000,1,9,N","011265,1,N,1","+0230,1","+0180,1","99999,9","02,5,+00600,1,99,9",,,,"02,99,1,99,9,99,9,99999,9,99,9,99,9",,"10312,1,99999,9",,,,,,"MET083METAR LPSJ 051600Z 18006KT 9999 FEW020 23/18 Q1031 RMK RWY13 19006KT RWY31 19005KT;",
"08509599999","2010-07-06T10:00:00","4","38.6655","-28.175817","94.79","SAO JORGE, PO","FM-15","LPSJ ","V020","999,9,V,0015,1","99999,9,C,N","011265,1,N,1","+0210,1","+0180,1","99999,9","04,5,+00420,1,99,9","04,5,+00750,1,99,9",,,"04,99,1,99,9,99,9,99999,9,99,9,99,9",,"10312,1,99999,9",,,,,,"MET095METAR LPSJ 061000Z VRB03KT 9999 SCT014 SCT025 21/18 Q1031 RMK WIND RWY13 VRB02KT RWY31 VRB02KT;","P01 007503SCOCIG"
"08509599999","2010-07-06T11:00:00","4","38.6655","-28.175817","94.79","SAO JORGE, PO","FM-15","LPSJ ","V020","999,9,V,0015,1","99999,9,C,N","011265,1,N,1","+0210,1","+0180,1","99999,9","04,5,+00420,1,99,9","04,5,+00750,1,99,9",,,"04,99,1,99,9,99,9,99999,9,99,9,99,9",,"10312,1,99999,9",,,,,,"MET095METAR LPSJ 061100Z VRB03KT 9999 SCT014 SCT025 21/18 Q1031 RMK WIND RWY13 VRB03KT RWY31 VRB03KT;","P01 007503SCOCIG"
"08509599999","2010-07-06T12:00:00","4","38.6655","-28.175817","94.79","SAO JORGE, PO","FM-15","LPSJ ","V020","150,1,N,0031,1","99999,9,C,N","011265,1,N,1","+0220,1","+0170,1","99999,9","04,5,+00420,1,99,9","04,5,+00750,1,99,9",,,"04,99,1,99,9,99,9,99999,9,99,9,99,9",,"10312,1,99999,9",,,,,,"MET095METAR LPSJ 061200Z 15006KT 9999 SCT014 SCT025 22/17 Q1031 RMK WIND RWY13 16004KT RWY31 17003KT;","P01 007503SCOCIG"
"08509599999","2010-07-06T14:00:00","4","38.6655","-28.175817","94.79","SAO JORGE, PO","FM-15","LPSJ ","V020","160,1,N,0026,1","99999,9,C,N","011265,1,N,1","+0220,1","+0180,1","99999,9","04,5,+00540,1,99,9","04,5,+00900,1,99,9",,,"04,99,1,99,9,99,9,99999,9,99,9,99,9",,"10301,1,99999,9",,,,,,"MET095METAR LPSJ 061400Z 16005KT 9999 SCT018 SCT030 22/18 Q1030 RMK WIND RWY13 16003KT RWY31 VRB02KT;","P01 009003SCOCIG"
"08509599999","2010-07-06T15:00:00","4","38.6655","-28.175817","94.79","SAO JORGE, PO","FM-15","LPSJ ","V020","180,1,N,0021,1","99999,9,C,N","011265,1,N,1","+0220,1","+0180,1","99999,9","04,5,+00540,1,99,9","04,5,+00900,1,99,9",,,"04,99,1,99,9,99,9,99999,9,99,9,99,9",,"10301,1,99999,9",,,,,,"MET095METAR LPSJ 061500Z 18004KT 9999 SCT018 SCT030 22/18 Q1030 RMK WIND RWY13 18003KT RWY31 VRB04KT;","P01 009003SCOCIG"
"08509599999","2010-07-06T16:00:00","4","38.6655","-28.175817","94.79","SAO JORGE, PO","FM-15","LPSJ ","V020","999,9,V,0015,1","99999,9,C,N","011265,1,N,1","+0230,1","+0180,1","99999,9","04,5,+00480,1,99,9","04,5,+00900,1,99,9",,,"04,99,1,99,9,99,9,99999,9,99,9,99,9",,"10291,1,99999,9",,,,,,"MET095METAR LPSJ 061600Z VRB03KT 9999 SCT016 SCT030 23/18 Q1029 RMK WIND RWY13 VRB04KT RWY31 VRB02KT;","P01 009003SCOCIG"
"08509599999","2010-07-06T17:00:00","4","38.6655","-28.175817","94.79","SAO JORGE, PO","FM-15","LPSJ ","V020","999,9,V,0026,1","99999,9,C,N","011265,1,N,1","+0230,1","+0180,1","99999,9","04,5,+00480,1,99,9","04,5,+00900,1,99,9",,,"04,99,1,99,9,99,9,99999,9,99,9,99,9",,"10291,1,99999,9",,,,,,"MET095METAR LPSJ 061700Z VRB05KT 9999 SCT016 SCT030 23/18 Q1029 RMK WIND RWY13 VRB01KT RWY31 VRB03KT;","P01 009003SCOCIG"
"08509599999","2010-07-07T09:00:00","4","38.6655","-28.175817","94.79","SAO JORGE, PO","FM-15","LPSJ ","V020","240,1,N,0010,1","99999,9,C,N","011265,1,N,1","+0200,1","+0180,1","99999,9","02,5,+00210,1,99,9","04,5,+00360,1,99,9",,,"04,99,1,99,9,99,9,99999,9,99,9,99,9",,"10271,1,99999,9",,,,,,"MET095METAR LPSJ 070900Z 24002KT 9999 FEW007 SCT012 20/18 Q1027 RMK WIND RWY13 25001KT RWY31 25001KT;","P01 003603SCOCIG"
"08509599999","2010-07-07T10:00:00","4","38.6655","-28.175817","94.79","SAO JORGE, PO","FM-15","LPSJ ","V020","999,9,V,0015,1","99999,9,C,N","011265,1,N,1","+0200,1","+0190,1","99999,9","02,5,+00240,1,99,9","04,5,+00420,1,99,9",,,"04,99,1,99,9,99,9,99999,9,99,9,99,9",,"10271,1,99999,9",,,,,,"MET095METAR LPSJ 071000Z VRB03KT 9999 FEW008 SCT014 20/19 Q1027 RMK WIND RWY13 VRB03KT RWY31 VRB02KT;","P01 004203SCOCIG"
"08509599999","2010-07-07T11:00:00","4","38.6655","-28.175817","94.79","SAO JORGE, PO","FM-15","LPSJ ","V020","999,9,V,0015,1","22000,1,9,N","011265,1,N,1","+0210,1","+0180,1","99999,9","04,5,+00420,1,99,9",,,,"04,99,1,99,9,99,9,99999,9,99,9,99,9",,"10271,1,99999,9",,,,,,"MET088METAR LPSJ 071100Z VRB03KT 9999 SCT014 21/18 Q1027 RMK WIND RWY13 18003KT RWY31 VRB02KT;",
"08509599999","2010-07-07T12:00:00","4","38.6655","-28.175817","94.79","SAO JORGE, PO","FM-15","LPSJ ","V020","999,9,V,0010,1","00390,1,C,N","011265,1,N,1","+0210,1","+0190,1","99999,9","02,5,+00240,1,99,9","04,5,+00390,1,99,9","07,5,+00660,1,99,9",,"07,99,1,99,9,99,9,99999,9,99,9,99,9",,"10281,1,99999,9",,,,,,"MET102METAR LPSJ 071200Z VRB02KT 9999 FEW008 SCT013 BKN022 21/19 Q1028 RMK WIND RWY13 VRB02KT RWY31 VRB02KT;",
"08509599999","2010-07-07T13:00:00","4","38.6655","-28.175817","94.79","SAO JORGE, PO","FM-15","LPSJ ","V020","999,9,V,0010,1","99999,9,C,N","011265,1,N,1","+0220,1","+0180,1","99999,9","04,5,+00360,1,99,9","04,5,+00660,1,99,9",,,"04,99,1,99,9,99,9,99999,9,99,9,99,9",,"10271,1,99999,9",,,,,,"MET095METAR LPSJ 071300Z VRB02KT 9999 SCT012 SCT022 22/18 Q1027 RMK WIND RWY13 VRB03KT RWY31 VRB02KT;","P01 006603SCOCIG"
"08509599999","2010-07-07T14:00:00","4","38.6655","-28.175817","94.79","SAO JORGE, PO","FM-15","LPSJ ","V020","999,9,V,0015,1","99999,9,C,N","011265,1,N,1","+0220,1","+0170,1","99999,9","04,5,+00360,1,99,9","04,5,+00750,1,99,9",,,"04,99,1,99,9,99,9,99999,9,99,9,99,9",,"10271,1,99999,9",,,,,,"MET095METAR LPSJ 071400Z VRB03KT 9999 SCT012 SCT025 22/17 Q1027 RMK WIND RWY13 VRB02KT RWY31 VRB04KT;","P01 007503SCOCIG"
"08509599999","2010-07-07T15:00:00","4","38.6655","-28.175817","94.79","SAO JORGE, PO","FM-15","LPSJ ","V020","999,9,V,0021,1","99999,9,C,N","011265,1,N,1","+0220,1","+0180,1","99999,9","04,5,+00360,1,99,9","04,5,+00750,1,99,9",,,"04,99,1,99,9,99,9,99999,9,99,9,99,9",,"10261,1,99999,9",,,,,,"MET095METAR LPSJ 071500Z VRB04KT 9999 SCT012 SCT025 22/18 Q1026 RMK WIND RWY13 VRB04KT RWY31 VRB04KT;","P01 007503SCOCIG"
"08509599999","2010-07-08T10:00:00","4","38.6655","-28.175817","94.79","SAO JORGE, PO","FM-15","LPSJ ","V020","999,9,V,0010,1","99999,9,C,N","011265,1,N,1","+0210,1","+0190,1","99999,9","02,5,+00360,1,99,9","04,5,+00750,1,99,9",,,"04,99,1,99,9,99,9,99999,9,99,9,99,9",,"10240,1,99999,9",,,,,,"MET095METAR LPSJ 081000Z VRB02KT 9999 FEW012 SCT025 21/19 Q1024 RMK WIND RWY13 VRB01KT RWY31 VRB01KT;","P01 007503SCOCIG"
"08509599999","2010-07-08T11:00:00","4","38.6655","-28.175817","94.79","SAO JORGE, PO","FM-15","LPSJ ","V020","999,9,V,0015,1","22000,1,9,N","011265,1,N,1","+0210,1","+0180,1","99999,9","04,5,+00480,1,99,9",,,,"04,99,1,99,9,99,9,99999,9,99,9,99,9",,"10240,1,99999,9",,,,,,"MET088METAR LPSJ 081100Z VRB03KT 9999 SCT016 21/18 Q1024 RMK WINS RWY13 VRB02KT RWY31 VRB03KT;",
"08509599999","2010-07-08T12:00:00","4","38.6655","-28.175817","94.79","SAO JORGE, PO","FM-15","LPSJ ","V020","999,9,V,0015,1","99999,9,C,N","011265,1,N,1","+0220,1","+0170,1","99999,9","02,5,+00480,1,99,9","04,5,+00900,1,99,9",,,"04,99,1,99,9,99,9,99999,9,99,9,99,9",,"10240,1,99999,9",,,,,,"MET095METAR LPSJ 081200Z VRB03KT 9999 FEW016 SCT030 22/17 Q1024 RMK WIND RWY13 VRB03KT RWY31 VRB02KT;","P01 009003SCOCIG"
"08509599999","2010-07-08T14:00:00","4","38.6655","-28.175817","94.79","SAO JORGE, PO","FM-15","LPSJ ","V020","140,1,N,0051,1","99999,9,C,N","011265,1,N,1","+0220,1","+0180,1","99999,9","04,5,+00510,1,99,9","04,5,+00900,1,99,9",,,"04,99,1,99,9,99,9,99999,9,99,9,99,9",,"10230,1,99999,9",,,,,,"MET095METAR LPSJ 081400Z 14010KT 9999 SCT017 SCT030 22/18 Q1023 RMK WIND RWY13 16006KT RWY31 14007KT;","P01 009003SCOCIG"
"08509599999","2010-07-08T15:00:00","4","38.6655","-28.175817","94.79","SAO JORGE, PO","FM-15","LPSJ ","V020","150,1,N,0036,1","22000,1,9,N","011265,1,N,1","+0220,1","+0180,1","99999,9","04,5,+00540,1,99,9",,,,"04,99,1,99,9,99,9,99999,9,99,9,99,9",,"10230,1,99999,9",,,,,,"MET088METAR LPSJ 081500Z 15007KT 9999 SCT018 22/18 Q1023 RMK WIND RWY13 17005KT RWY31 16005KT;",
"08509599999","2010-07-08T16:00:00","4","38.6655","-28.175817","94.79","SAO JORGE, PO","FM-15","LPSJ ","V020","140,1,N,0051,1","22000,1,9,N","011265,1,N,1","+0220,1","+0190,1","99999,9","02,5,+00540,1,99,9",,,,"02,99,1,99,9,99,9,99999,9,99,9,99,9",,"10230,1,99999,9",,,,,,"MET088METAR LPSJ 081600Z 14010KT 9999 FEW018 22/19 Q1023 RMK WIND RWY13 16006KT RWY31 15009KT;",
"08509599999","2010-07-08T18:00:00","4","38.6655","-28.175817","94.79","SAO JORGE, PO","FM-15","LPSJ ","V020","140,1,N,0057,1","22000,1,9,N","011265,1,N,1","+0230,1","+0180,1","99999,9","04,5,+00660,1,99,9",,,,"04,99,1,99,9,99,9,99999,9,99,9,99,9",,"10220,1,99999,9",,,,,,"MET088METAR LPSJ 081800Z 14011KT 9999 SCT022 23/18 Q1022 RMK WIND RWY13 16006KT RWY31 15006KT;",
"08509599999","2010-07-09T09:00:00","4","38.6655","-28.175817","94.79","SAO JORGE, PO","FM-15","LPSJ ","V020","999,9,V,0021,1","00900,1,C,N","011265,1,N,1","+0210,1","+0180,1","99999,9","02,5,+00540,1,99,9","04,5,+00900,1,99,9","07,5,+02100,1,99,9",,"07,99,1,99,9,99,9,99999,9,99,9,99,9",,"10210,1,99999,9",,,,,,"MET102METAR LPSJ 090900Z VRB04KT 9999 FEW018 SCT030 BKN070 21/18 Q1021 RMK WIND RWY13 VRB04KT RWY31 VRB03KT;",
"08509599999","2010-07-09T10:00:00","4","38.6655","-28.175817","94.79","SAO JORGE, PO","FM-15","LPSJ ","V020","999,9,V,0021,1","00900,1,C,N","011265,1,N,1","+0220,1","+0180,1","99999,9","02,5,+00540,1,99,9","04,5,+00900,1,99,9","07,5,+02100,1,99,9",,"07,99,1,99,9,99,9,99999,9,99,9,99,9",,"10210,1,99999,9",,,,,,"MET102METAR LPSJ 091000Z VRB04KT 9999 FEW018 SCT030 BKN070 22/18 Q1021 RMK WIND RWY13 VRB03KT RWY31 VRB03KT;",
"08509599999","2010-07-09T11:00:00","4","38.6655","-28.175817","94.79","SAO JORGE, PO","FM-15","LPSJ ","V020","999,9,V,0021,1","02100,1,C,N","011265,1,N,1","+0220,1","+0180,1","99999,9","04,5,+00540,1,99,9","07,5,+02100,1,99,9",,,"07,99,1,99,9,99,9,99999,9,99,9,99,9",,"10210,1,99999,9",,,,,,"MET095METAR LPSJ 091100Z VRB04KT 9999 SCT018 BKN070 22/18 Q1021 RMK WIND RWY13 VRB04KT RWY31 VRB03KT;",
"08509599999","2010-07-09T12:00:00","4","38.6655","-28.175817","94.79","SAO JORGE, PO","FM-15","LPSJ ","V020","270,1,N,0026,1","99999,9,C,N","011265,1,N,1","+0230,1","+0190,1","99999,9","04,5,+00480,1,99,9","04,5,+02100,1,99,9",,,"04,99,1,99,9,99,9,99999,9,99,9,99,9",,"10210,1,99999,9",,,,,,"MET095METAR LPSJ 091200Z 27005KT 9999 SCT016 SCT070 23/19 Q1021 RMK WIND RWY13 28004KT RWY31 26005KT;","P01 021003SCOCIG"
"08509599999","2010-07-09T14:00:00","4","38.6655","-28.175817","94.79","SAO JORGE, PO","FM-15","LPSJ ","V020","260,1,N,0021,1","99999,9,C,N","011265,1,N,1","+0240,1","+0200,1","99999,9","04,5,+00480,1,99,9","04,5,+02100,1,99,9",,,"04,99,1,99,9,99,9,99999,9,99,9,99,9",,"10210,1,99999,9",,,,,,"MET095METAR LPSJ 091400Z 26004KT 9999 SCT016 SCT070 24/20 Q1021 RMK WIND RWY13 27006KT RWY31 26006KT;","P01 021003SCOCIG"
"08509599999","2010-07-09T15:00:00","4","38.6655","-28.175817","94.79","SAO JORGE, PO","FM-15","LPSJ ","V020","260,1,N,0026,1","22000,1,9,N","011265,1,N,1","+0250,1","+0200,1","99999,9","04,5,+00480,1,99,9",,,,"04,99,1,99,9,99,9,99999,9,99,9,99,9",,"10210,1,99999,9",,,,,,"MET096METAR LPSJ 091500Z 26005KT 9999 SCT016 25/20 Q1021 RMK WIND RWY13 28006KT 250V320 RWY31 26007KT;",
"08509599999","2010-07-09T16:00:00","4","38.6655","-28.175817","94.79","SAO JORGE, PO","FM-15","LPSJ ","V020","280,1,N,0062,1","22000,1,9,N","011265,1,N,1","+0240,1","+0200,1","99999,9","04,5,+00480,1,99,9",,,,"04,99,1,99,9,99,9,99999,9,99,9,99,9",,"10210,1,99999,9",,,,,,"MET096METAR LPSJ 091600Z 28012KT 9999 SCT016 24/20 Q1021 RMK WIND RWY13 30008KT 260V330 RWY31 27009KT;",
"08509599999","2010-07-09T17:00:00","4","38.6655","-28.175817","94.79","SAO JORGE, PO","FM-15","LPSJ ","V020","140,1,N,0057,1","22000,1,9,N","011265,1,N,1","+0240,1","+0180,1","99999,9","04,5,+00600,1,99,9",,,,"04,99,1,99,9,99,9,99999,9,99,9,99,9",,"10220,1,99999,9",,,,,,"MET088METAR LPSJ 091700Z 14011KT 9999 SCT020 24/18 Q1022 RMK WIND RWY13 16007KT RWY31 15006KT;",
"08509599999","2010-07-10T09:00:00","4","38.6655","-28.175817","94.79","SAO JORGE, PO","FM-15","LPSJ ","V020","320,1,N,0031,1","99999,9,C,N","011265,1,N,1","+0200,1","+0160,1","99999,9","04,5,+00900,1,99,9","04,5,+01500,1,99,9",,,"04,99,1,99,9,99,9,99999,9,99,9,99,9",,"10230,1,99999,9",,,,,,"MET095METAR LPSJ 100900Z 32006KT 9999 SCT030 SCT050 20/16 Q1023 RMK WIND RWY13 31005KT RWY31 32007KT;","P01 015003SCOCIG"
"08509599999","2010-07-10T10:00:00","4","38.6655","-28.175817","94.79","SAO JORGE, PO","FM-15","LPSJ ","V020","999,9,V,0021,1","99999,9,C,N","011265,1,N,1","+0220,1","+0180,1","99999,9","02,5,+00900,1,99,9","04,5,+01800,1,99,9",,,"04,99,1,99,9,99,9,99999,9,99,9,99,9",,"10240,1,99999,9",,,,,,"MET095METAR LPSJ 101000Z VRB04KT 9999 FEW030 SCT060 22/18 Q1024 RMK WIND RWY13 VRB04KT RWY31 VRB04KT;","P01 018003SCOCIG"
"08509599999","2010-07-10T11:00:00","4","38.6655","-28.175817","94.79","SAO JORGE, PO","FM-15","LPSJ ","V020","020,1,N,0036,1","22000,1,9,N","011265,1,N,1","+0220,1","+0160,1","99999,9","02,5,+00750,1,99,9",,,,"02,99,1,99,9,99,9,99999,9,99,9,99,9",,"10240,1,99999,9",,,,,,"MET088METAR LPSJ 101100Z 02007KT 9999 FEW025 22/16 Q1024 RMK WIND RWY13 03008KT RWY31 01008KT;",
"08509599999","2010-07-10T12:00:00","4","38.6655","-28.175817","94.79","SAO JORGE, PO","FM-15","LPSJ ","V020","010,1,N,0026,1","99999,9,C,N","011265,1,N,1","+0230,1","+0160,1","99999,9","04,5,+00750,1,99,9","04,5,+02100,1,99,9",,,"04,99,1,99,9,99,9,99999,9,99,9,99,9",,"10240,1,99999,9",,,,,,"MET095METAR LPSJ 101200Z 01005KT 9999 SCT025 SCT070 23/16 Q1024 RMK WIND RWY13 36007KT RWY31 34005KT;","P01 021003SCOCIG"
"08509599999","2010-07-10T14:00:00","4","38.6655","-28.175817","94.79","SAO JORGE, PO","FM-15","LPSJ ","V020","999,9,V,0026,1","99999,9,C,N","011265,1,N,1","+0240,1","+0140,1","99999,9","02,5,+00750,1,99,9","04,5,+02100,1,99,9",,,"04,99,1,99,9,99,9,99999,9,99,9,99,9",,"10240,1,99999,9",,,,,,"MET095METAR LPSJ 101400Z VRB05KT 9999 FEW025 SCT070 24/14 Q1024 RMK WIND RWY13 VRB05KT RWY31 VRB04KT;","P01 021003SCOCIG"
"08509599999","2010-07-10T15:00:00","4","38.6655","-28.175817","94.79","SAO JORGE, PO","FM-15","LPSJ ","V020","180,1,N,0031,1","99999,9,C,N","011265,1,N,1","+0250,1","+0140,1","99999,9","02,5,+00750,1,99,9","04,5,+02100,1,99,9",,,"04,99,1,99,9,99,9,99999,9,99,9,99,9",,"10240,1,99999,9",,,,,,"MET095METAR LPSJ 101500Z 18006KT 9999 FEW025 SCT070 25/14 Q1024 RMK WIND RWY13 19007KT RWY31 18005KT;","P01 021003SCOCIG"
"08509599999","2010-07-10T16:00:00","4","38.6655","-28.175817","94.79","SAO JORGE, PO","FM-15","LPSJ ","V020","150,1,N,0041,1","99999,9,C,N","011265,1,N,1","+0240,1","+0150,1","99999,9","02,5,+00750,1,99,9","04,5,+02100,1,99,9",,,"04,99,1,99,9,99,9,99999,9,99,9,99,9",,"10240,1,99999,9",,,,,,"MET095METAR LPSJ 101600Z 15008KT 9999 FEW025 SCT070 24/15 Q1024 RMK WIND RWY13 17005KT RWY31 17006KT;","P01 021003SCOCIG"
"08509599999","2010-07-11T10:00:00","4","38.6655","-28.175817","94.79","SAO JORGE, PO","FM-15","LPSJ ","V020","300,1,N,0041,1","22000,1,9,N","011265,1,N,1","+0200,1","+0170,1","99999,9","04,5,+00480,1,99,9",,,,"04,99,1,99,9,99,9,99999,9,99,9,99,9",,"10240,1,99999,9",,,,,,"MET088METAR LPSJ 111000Z 30008KT 9999 SCT016 20/17 Q1024 RMK WIND RWY13 30007KT RWY31 29007KT;",
"08509599999","2010-07-11T11:00:00","4","38.6655","-28.175817","94.79","SAO JORGE, PO","FM-15","LPSJ ","V020","310,1,N,0046,1","22000,1,9,N","011265,1,N,1","+0220,1","+0160,1","99999,9","02,5,+00480,1,99,9",,,,"02,99,1,99,9,99,9,99999,9,99,9,99,9",,"10240,1,99999,9",,,,,,"MET088METAR LPSJ 111100Z 31009KT 9999 FEW016 22/16 Q1024 RMK WIND RWY13 32008KT RWY31 31007KT;",
"08509599999","2010-07-11T12:00:00","4","38.6655","-28.175817","94.79","SAO JORGE, PO","FM-15","LPSJ ","V020","320,1,N,0046,1","22000,1,9,N","011265,1,N,1","+0220,1","+0160,1","99999,9","02,5,+00750,1,99,9",,,,"02,99,1,99,9,99,9,99999,9,99,9,99,9",,"10240,1,99999,9",,,,,,"MET088METAR LPSJ 111200Z 32009KT 9999 FEW025 22/16 Q1024 RMK WIND RWY13 32007KT RWY31 31006KT;",
"08509599999","2010-07-11T14:00:00","4","38.6655","-28.175817","94.79","SAO JORGE, PO","FM-15","LPSJ ","V020","310,1,N,0051,1","22000,1,9,N","011265,1,N,1","+0240,1","+0150,1","99999,9","02,5,+00900,1,99,9",,,,"02,99,1,99,9,99,9,99999,9,99,9,99,9",,"10240,1,99999,9",,,,,,"MET088METAR LPSJ 111400Z 31010KT 9999 FEW030 24/15 Q1024 RMK WIND RWY13 31009KT RWY31 30009KT;",
"08509599999","2010-07-11T15:00:00","4","38.6655","-28.175817","94.79","SAO JORGE, PO","FM-15","LPSJ ","V020","300,1,N,0046,1","22000,1,9,N","011265,1,N,1","+0240,1","+0150,1","99999,9","02,5,+01200,1,99,9",,,,"02,99,1,99,9,99,9,99999,9,99,9,99,9",,"10240,1,99999,9",,,,,,"MET088METAR LPSJ 111500Z 30009KT 9999 FEW040 24/15 Q1024 RMK WIND RWY13 31008KT RWY31 30009KT;",
"08509599999","2010-07-11T16:00:00","4","38.6655","-28.175817","94.79","SAO JORGE, PO","FM-15","LPSJ ","V020","270,1,N,0046,1","22000,1,9,N","011265,1,N,1","+0240,1","+0150,1","99999,9","02,5,+01200,1,99,9",,,,"02,99,1,99,9,99,9,99999,9,99,9,99,9",,"10240,1,99999,9",,,,,,"MET088METAR LPSJ 111600Z 27009KT 9999 FEW040 24/15 Q1024 RMK WIND RWY13 28006KT RWY31 28008KT;",
"08509599999","2010-07-12T10:00:00","4","38.6655","-28.175817","94.79","SAO JORGE, PO","FM-15","LPSJ ","V020","280,1,N,0026,1","00150,1,C,N","002000,1,N,1","+0210,1","+0200,1","99999,9","04,5,+00030,1,99,9","07,5,+00150,1,99,9",,,"07,99,1,99,9,99,9,99999,9,99,9,99,9",,"10251,1,99999,9","10,1","51,1",,,,"MET102METAR LPSJ 121000Z 28005KT 2000 -DZ BR SCT001 BKN005 21/20 Q1025 RMK WIND RWY13 30005KT RWY31 27007KT;",
"08509599999","2010-07-12T11:00:00","4","38.6655","-28.175817","94.79","SAO JORGE, PO","FM-15","LPSJ ","V020","290,1,N,0041,1","00150,1,C,N","002000,1,N,1","+0210,1","+0210,1","99999,9","04,5,+00060,1,99,9","04,5,+00150,1,99,9","07,5,+00300,1,99,9",,"07,99,1,99,9,99,9,99999,9,99,9,99,9",,"10251,1,99999,9","10,1","51,1",,,,"MET109METAR LPSJ 121100Z 29008KT 2000 -DZ BR SCT002 SCT005 BKN010 21/21 Q1025 RMK WIND RWY13 31005KT RWY31 29006KT;",
"08509599999","2010-07-12T12:00:00","4","38.6655","-28.175817","94.79","SAO JORGE, PO","FM-15","LPSJ ","V020","300,1,N,0041,1","00360,1,C,N","011265,1,N,1","+0210,1","+0200,1","99999,9","02,5,+00120,1,99,9","07,5,+00360,1,99,9",,,"07,99,1,99,9,99,9,99999,9,99,9,99,9",,"10261,1,99999,9","51,1",,,,,"MET099METAR LPSJ 121200Z 30008KT 9999 -DZ FEW004 BKN012 21/20 Q1026 RMK WIND RWY13 32005KT RWY31 31006KT;",
"08509599999","2010-07-12T13:00:00","4","38.6655","-28.175817","94.79","SAO JORGE, PO","FM-15","LPSJ ","V020","300,1,N,0036,1","22000,1,9,N","011265,1,N,1","+0230,1","+0210,1","99999,9","04,5,+00480,1,99,9",,,,"04,99,1,99,9,99,9,99999,9,99,9,99,9",,"10261,1,99999,9",,,,,,"MET088METAR LPSJ 121300Z 30007KT 9999 SCT016 23/21 Q1026 RMK WIND RWY13 32006KT RWY31 29005KT;",
"08509599999","2010-07-12T14:00:00","4","38.6655","-28.175817","94.79","SAO JORGE, PO","FM-15","LPSJ ","V020","300,1,N,0041,1","99999,9,C,N","011265,1,N,1","+0240,1","+0210,1","99999,9","04,5,+00480,1,99,9","04,5,+00750,1,99,9",,,"04,99,1,99,9,99,9,99999,9,99,9,99,9",,"10261,1,99999,9",,,,,,"MET095METAR LPSJ 121400Z 30008KT 9999 SCT016 SCT025 24/21 Q1026 RMK WIND RWY13 31006KT RWY31 28006KT;","P01 007503SCOCIG"
"08509599999","2010-07-12T15:00:00","4","38.6655","-28.175817","94.79","SAO JORGE, PO","FM-15","LPSJ ","V020","330,1,N,0036,1","00900,1,C,N","011265,1,N,1","+0250,1","+0190,1","99999,9","04,5,+00540,1,99,9","07,5,+00900,1,99,9",,,"07,99,1,99,9,99,9,99999,9,99,9,99,9",,"10261,1,99999,9",,,,,,"MET095METAR LPSJ 121500Z 33007KT 9999 SCT018 BKN030 25/19 Q1026 RMK WIND RWY13 33006KT RWY31 34007KT;",
"08509599999","2010-07-12T16:00:00","4","38.6655","-28.175817","94.79","SAO JORGE, PO","FM-15","LPSJ ","V020","330,1,N,0041,1","99999,9,C,N","011265,1,N,1","+0250,1","+0200,1","99999,9","04,5,+00540,1,99,9","04,5,+00900,1,99,9",,,"04,99,1,99,9,99,9,99999,9,99,9,99,9",,"10261,1,99999,9",,,,,,"MET095METAR LPSJ 121600Z 33008KT 9999 SCT018 SCT030 25/20 Q1026 RMK WIND RWY13 35009KT RWY31 34010KT;","P01 009003SCOCIG"
"08509599999","2010-07-13T09:00:00","4","38.6655","-28.175817","94.79","SAO JORGE, PO","FM-15","LPSJ ","V020","300,1,N,0041,1","22000,1,9,N","011265,1,N,1","+0210,1","+0190,1","99999,9","04,5,+00300,1,99,9",,,,"04,99,1,99,9,99,9,99999,9,99,9,99,9",,"10261,1,99999,9",,,,,,"MET088METAR LPSJ 130900Z 30008KT 9999 SCT010 21/19 Q1026 RMK WIND RWY13 32009KT RWY31 30008KT;",
"08509599999","2010-07-13T10:00:00","4","38.6655","-28.175817","94.79","SAO JORGE, PO","FM-15","LPSJ ","V020","330,1,N,0031,1","22000,1,9,N","011265,1,N,1","+0220,1","+0190,1","99999,9","04,5,+00420,1,99,9",,,,"04,99,1,99,9,99,9,99999,9,99,9,99,9",,"10261,1,99999,9",,,,,,"MET096METAR LPSJ 131000Z 33006KT 9999 SCT014 22/19 Q1026 RMK WIND RWY13 35007KT 310V010 RWY31 33010KT;",
"08509599999","2010-07-13T11:00:00","4","38.6655","-28.175817","94.79","SAO JORGE, PO","FM-15","LPSJ ","V020","020,1,N,0031,1","22000,1,9,N","011265,1,N,1","+0230,1","+0190,1","99999,9","04,5,+00360,1,99,9",,,,"04,99,1,99,9,99,9,99999,9,99,9,99,9",,"10261,1,99999,9",,,,,,"MET112METAR LPSJ 131100Z 02006KT 360V060 9999 SCT012 23/19 Q1026 RMK WIND RWY13 02014KT 350V060 RWY31 01013KT 320V040;",
"08509599999","2010-07-14T09:00:00","4","38.6655","-28.175817","94.79","SAO JORGE, PO","FM-15","LPSJ ","V020","999,9,C,0000,1","22000,1,9,N","011265,1,N,1","+0200,1","+0150,1","99999,9","02,5,+00480,1,99,9",,,,"02,99,1,99,9,99,9,99999,9,99,9,99,9",,"10261,1,99999,9",,,,,,"MET088METAR LPSJ 140900Z 00000KT 9999 FEW016 20/15 Q1026 RMK WIND RWY13 00000KT RWY31 00000KT;",
"08509599999","2010-07-14T10:00:00","4","38.6655","-28.175817","94.79","SAO JORGE, PO","FM-15","LPSJ ","V020","180,1,N,0026,1","22000,1,9,N","011265,1,N,1","+0210,1","+0150,1","99999,9","02,5,+00480,1,99,9",,,,"02,99,1,99,9,99,9,99999,9,99,9,99,9",,"10261,1,99999,9",,,,,,"MET088METAR LPSJ 141000Z 18005KT 9999 FEW016 21/15 Q1026 RMK WIND RWY13 18004KT RWY31 17003KT;",
"08509599999","2010-07-14T11:00:00","4","38.6655","-28.175817","94.79","SAO JORGE, PO","FM-15","LPSJ ","V020","180,1,N,0026,1","22000,1,9,N","011265,1,N,1","+0210,1","+0150,1","99999,9","02,5,+00540,1,99,9",,,,"02,99,1,99,9,99,9,99999,9,99,9,99,9",,"10261,1,99999,9",,,,,,"MET088METAR LPSJ 141100Z 18005KT 9999 FEW018 21/15 Q1026 RMK WIND RWY13 18004KT RWY31 18004KT;",
"08509599999","2010-07-14T12:00:00","4","38.6655","-28.175817","94.79","SAO JORGE, PO","FM-15","LPSJ ","V020","170,1,N,0026,1","22000,1,9,N","011265,1,N,1","+0220,1","+0160,1","99999,9","02,5,+00600,1,99,9",,,,"02,99,1,99,9,99,9,99999,9,99,9,99,9",,"10261,1,99999,9",,,,,,"MET088METAR LPSJ 141200Z 17005KT 9999 FEW020 22/16 Q1026 RMK WIND RWY13 17004KT RWY31 17005KT;",
"08509599999","2010-07-14T13:00:00","4","38.6655","-28.175817","94.79","SAO JORGE, PO","FM-15","LPSJ ","V020","170,1,N,0031,1","22000,1,9,N","011265,1,N,1","+0230,1","+0160,1","99999,9","02,5,+00900,1,99,9",,,,"02,99,1,99,9,99,9,99999,9,99,9,99,9",,"10261,1,99999,9",,,,,,"MET088METAR LPSJ 141300Z 17006KT 9999 FEW030 23/16 Q1026 RMK WIND RWY13 17007KT RWY31 17005KT;",
"08509599999","2010-07-14T14:00:00","4","38.6655","-28.175817","94.79","SAO JORGE, PO","FM-15","LPSJ ","V020","160,1,N,0031,1","22000,1,9,N","011265,1,N,1","+0230,1","+0160,1","99999,9","02,5,+00900,1,99,9",,,,"02,99,1,99,9,99,9,99999,9,99,9,99,9",,"10261,1,99999,9",,,,,,"MET088METAR LPSJ 141400Z 16006KT 9999 FEW030 23/16 Q1026 RMK WIND RWY13 16006KT RWY31 17004KT;",
"08509599999","2010-07-14T15:00:00","4","38.6655","-28.175817","94.79","SAO JORGE, PO","FM-15","LPSJ ","V020","170,1,N,0031,1","22000,1,9,N","011265,1,N,1","+0230,1","+0170,1","99999,9","02,5,+00900,1,99,9",,,,"02,99,1,99,9,99,9,99999,9,99,9,99,9",,"10261,1,99999,9",,,,,,"MET088METAR LPSJ 141500Z 17006KT 9999 FEW030 23/17 Q1026 RMK WIND RWY13 16005KT RWY31 17005KT;",
"08509599999","2010-07-14T16:00:00","4","38.6655","-28.175817","94.79","SAO JORGE, PO","FM-15","LPSJ ","V020","180,1,N,0026,1","22000,1,9,N","011265,1,N,1","+0230,1","+0170,1","99999,9","02,5,+00900,1,99,9",,,,"02,99,1,99,9,99,9,99999,9,99,9,99,9",,"10261,1,99999,9",,,,,,"MET088METAR LPSJ 141600Z 18005KT 9999 FEW030 23/17 Q1026 RMK WIND RWY13 20006KT RWY31 19004KT;",
"08509599999","2010-07-15T09:00:00","4","38.6655","-28.175817","94.79","SAO JORGE, PO","FM-15","LPSJ ","V020","310,1,N,0041,1","22000,1,9,N","011265,1,N,1","+0210,1","+0180,1","99999,9","04,5,+00420,1,99,9",,,,"04,99,1,99,9,99,9,99999,9,99,9,99,9",,"10251,1,99999,9",,,,,,"MET088METAR LPSJ 150900Z 31008KT 9999 SCT014 21/18 Q1025 RMK WIND RWY13 32005KT RWY31 31008KT;",
"08509599999","2010-07-15T10:00:00","4","38.6655","-28.175817","94.79","SAO JORGE, PO","FM-15","LPSJ ","V020","290,1,N,0036,1","99999,9,C,N","011265,1,N,1","+0210,1","+0180,1","99999,9","04,5,+00420,1,99,9","04,5,+00750,1,99,9",,,"04,99,1,99,9,99,9,99999,9,99,9,99,9",,"10251,1,99999,9",,,,,,"MET095METAR LPSJ 151000Z 29007KT 9999 SCT014 SCT025 21/18 Q1025 RMK WIND RWY13 31004KT RWY31 28005KT;","P01 007503SCOCIG"
"08509599999","2010-07-15T11:00:00","4","38.6655","-28.175817","94.79","SAO JORGE, PO","FM-15","LPSJ ","V020","290,1,N,0046,1","22000,1,9,N","011265,1,N,1","+0220,1","+0180,1","99999,9","04,5,+00420,1,99,9",,,,"04,99,1,99,9,99,9,99999,9,99,9,99,9",,"10251,1,99999,9",,,,,,"MET088METAR LPSJ 151100Z 29009KT 9999 SCT014 22/18 Q1025 RMK WIND RWY13 30005KT RWY31 28004KT;",
"08509599999","2010-07-15T14:00:00","4","38.6655","-28.175817","94.79","SAO JORGE, PO","FM-15","LPSJ ","V020","290,1,N,0041,1","22000,1,9,N","011265,1,N,1","+0230,1","+0190,1","99999,9","04,5,+00420,1,99,9",,,,"04,99,1,99,9,99,9,99999,9,99,9,99,9",,"10251,1,99999,9",,,,,,"MET089METAR LPSJ 151400Z 29008KT 9999 SCT014 23/19 Q1025 RMK WIND RWY143 29005KT RWY31 27005KT;",
"08509599999","2010-07-15T15:00:00","4","38.6655","-28.175817","94.79","SAO JORGE, PO","FM-15","LPSJ ","V020","290,1,N,0051,1","22000,1,9,N","011265,1,N,1","+0240,1","+0190,1","99999,9","04,5,+00450,1,99,9",,,,"04,99,1,99,9,99,9,99999,9,99,9,99,9",,"10240,1,99999,9",,,,,,"MET096METAR LPSJ 151500Z 29010KT 9999 SCT015 24/19 Q1024 RMK WIND RWY13 31006KT 280V350 RWY31 28006KT;",
"08509599999","2010-07-15T16:00:00","4","38.6655","-28.175817","94.79","SAO JORGE, PO","FM-15","LPSJ ","V020","290,1,N,0067,1","22000,1,9,N","011265,1,N,1","+0250,1","+0180,1","99999,9","04,5,+00600,1,99,9",,,,"04,99,1,99,9,99,9,99999,9,99,9,99,9",,"10240,1,99999,9",,,,,,"MET088METAR LPSJ 151600Z 29013KT 9999 SCT020 25/18 Q1024 RMK WIND RWY13 32009KT RWY31 29008KT;",
"08509599999","2010-07-15T17:00:00","4","38.6655","-28.175817","94.79","SAO JORGE, PO","FM-15","LPSJ ","V020","280,1,N,0057,1","22000,1,9,N","011265,1,N,1","+0250,1","+0190,1","99999,9","04,5,+00540,1,99,9",,,,"04,99,1,99,9,99,9,99999,9,99,9,99,9",,"10240,1,99999,9",,,,,,"MET088METAR LPSJ 151700Z 28011KT 9999 SCT018 25/19 Q1024 RMK WIND RWY13 31009KT RWY31 29010KT;",
"08509599999","2010-07-16T09:00:00","4","38.6655","-28.175817","94.79","SAO JORGE, PO","FM-15","LPSJ ","V020","999,9,V,0005,1","99999,9,C,N","011265,1,N,1","+0210,1","+0180,1","99999,9","04,5,+00480,1,99,9","04,5,+00750,1,99,9",,,"04,99,1,99,9,99,9,99999,9,99,9,99,9",,"10261,1,99999,9",,,,,,"MET095METAR LPSJ 160900Z VRB01KT 9999 SCT016 SCT025 21/18 Q1026 RMK WIND RWY13 VRB01KT RWY31 00000KT;","P01 007503SCOCIG"
"08509599999","2010-07-16T10:00:00","4","38.6655","-28.175817","94.79","SAO JORGE, PO","FM-15","LPSJ ","V020","999,9,V,0015,1","99999,9,C,N","011265,1,N,1","+0220,1","+0180,1","99999,9","02,5,+00480,1,99,9","04,5,+00900,1,99,9",,,"04,99,1,99,9,99,9,99999,9,99,9,99,9",,"10261,1,99999,9",,,,,,"MET095METAR LPSJ 161000Z VRB03KT 9999 FEW016 SCT030 22/18 Q1026 RMK WIND RWY13 VRB03KT RWY31 VRB02KT;","P01 009003SCOCIG"
"08509599999","2010-07-16T11:00:00","4","38.6655","-28.175817","94.79","SAO JORGE, PO","FM-15","LPSJ ","V020","999,9,V,0015,1","99999,9,C,N","011265,1,N,1","+0230,1","+0180,1","99999,9","02,5,+00480,1,99,9","04,5,+00900,1,99,9",,,"04,99,1,99,9,99,9,99999,9,99,9,99,9",,"10261,1,99999,9",,,,,,"MET095METAR LPSJ 161100Z VRB03KT 9999 FEW016 SCT030 23/18 Q1026 RMK WIND RWY13 VRB04KT RWY31 VRB03KT;","P01 009003SCOCIG"
"08509599999","2010-07-16T14:00:00","4","38.6655","-28.175817","94.79","SAO JORGE, PO","FM-15","LPSJ ","V020","999,9,V,0010,1","99999,9,C,N","011265,1,N,1","+0230,1","+0190,1","99999,9","04,5,+00420,1,99,9","04,5,+00900,1,99,9",,,"04,99,1,99,9,99,9,99999,9,99,9,99,9",,"10261,1,99999,9",,,,,,"MET095METAR LPSJ 161400Z VRB02KT 9999 SCT014 SCT030 23/19 Q1026 RMK WIND RWY13 VRB03KT RWY31 VRB02KT;","P01 009003SCOCIG"
"08509599999","2010-07-16T15:00:00","4","38.6655","-28.175817","94.79","SAO JORGE, PO","FM-15","LPSJ ","V020","180,1,N,0026,1","99999,9,C,N","011265,1,N,1","+0230,1","+0190,1","99999,9","04,5,+00420,1,99,9","04,5,+00900,1,99,9",,,"04,99,1,99,9,99,9,99999,9,99,9,99,9",,"10261,1,99999,9",,,,,,"MET095METAR LPSJ 161500Z 18005KT 9999 SCT014 SCT030 23/19 Q1026 RMK WIND RWY13 18005KT RWY31 17003KT;","P01 009003SCOCIG"
"08509599999","2010-07-16T16:00:00","4","38.6655","-28.175817","94.79","SAO JORGE, PO","FM-15","LPSJ ","V020","180,1,N,0021,1","99999,9,C,N","011265,1,N,1","+0230,1","+0190,1","99999,9","04,5,+00420,1,99,9","04,5,+00900,1,99,9",,,"04,99,1,99,9,99,9,99999,9,99,9,99,9",,"10261,1,99999,9",,,,,,"MET095METAR LPSJ 161600Z 18004KT 9999 SCT014 SCT030 23/19 Q1026 RMK WIND RWY13 18004KT RWY31 17003KT;","P01 009003SCOCIG"
"08509599999","2010-07-17T09:00:00","4","38.6655","-28.175817","94.79","SAO JORGE, PO","FM-15","LPSJ ","V020","110,1,N,0021,1","22000,1,9,N","011265,1,N,1","+0220,1","+0170,1","99999,9","02,5,+00750,1,99,9",,,,"02,99,1,99,9,99,9,99999,9,99,9,99,9",,"10261,1,99999,9",,,,,,"MET088METAR LPSJ 170900Z 11004KT 9999 FEW025 22/17 Q1026 RMK WIND RWY13 11004KT RWY31 12004KT;",
"08509599999","2010-07-17T10:00:00","4","38.6655","-28.175817","94.79","SAO JORGE, PO","FM-15","LPSJ ","V020","140,1,N,0031,1","22000,1,9,N","011265,1,N,1","+0230,1","+0180,1","99999,9","02,5,+00900,1,99,9",,,,"02,99,1,99,9,99,9,99999,9,99,9,99,9",,"10261,1,99999,9",,,,,,"MET088METAR LPSJ 171000Z 14006KT 9999 FEW030 23/18 Q1026 RMK WIND RWY13 13005KT RWY31 13006KT;",
"08509599999","2010-07-17T11:00:00","4","38.6655","-28.175817","94.79","SAO JORGE, PO","FM-15","LPSJ ","V020","150,1,N,0041,1","22000,1,9,N","011265,1,N,1","+0240,1","+0190,1","99999,9","02,5,+00900,1,99,9",,,,"02,99,1,99,9,99,9,99999,9,99,9,99,9",,"10261,1,99999,9",,,,,,"MET088METAR LPSJ 171100Z 15008KT 9999 FEW030 24/19 Q1026 RMK WIND RWY13 16005KT RWY31 15006KT;",
"08509599999","2010-07-17T12:00:00","4","38.6655","-28.175817","94.79","SAO JORGE, PO","FM-15","LPSJ ","V020","150,1,N,0051,1","99999,9,C,N","011265,1,N,1","+0240,1","+0190,1","99999,9","02,5,+00600,1,99,9","04,5,+00900,1,99,9",,,"04,99,1,99,9,99,9,99999,9,99,9,99,9",,"10261,1,99999,9",,,,,,"MET095METAR LPSJ 171200Z 15010KT 9999 FEW020 SCT030 24/19 Q1026 RMK WIND RWY13 14007KT RWY31 14006KT;","P01 009003SCOCIG"
"08509599999","2010-07-17T14:00:00","4","38.6655","-28.175817","94.79","SAO JORGE, PO","FM-15","LPSJ ","V020","140,1,N,0041,1","99999,9,C,N","011265,1,N,1","+0240,1","+0190,1","99999,9","04,5,+00600,1,99,9","04,5,+00900,1,99,9",,,"04,99,1,99,9,99,9,99999,9,99,9,99,9",,"10261,1,99999,9",,,,,,"MET095METAR LPSJ 171400Z 14008KT 9999 SCT020 SCT030 24/19 Q1026 RMK WIND RWY13 14007KT RWY31 14008KT;","P01 009003SCOCIG"
"08509599999","2010-07-17T15:00:00","4","38.6655","-28.175817","94.79","SAO JORGE, PO","FM-15","LPSJ ","V020","160,1,N,0036,1","99999,9,C,N","011265,1,N,1","+0250,1","+0190,1","99999,9","02,5,+00540,1,99,9","04,5,+00900,1,99,9",,,"04,99,1,99,9,99,9,99999,9,99,9,99,9",,"10261,1,99999,9",,,,,,"MET095METAR LPSJ 171500Z 16007KT 9999 FEW018 SCT030 25/19 Q1026 RMK WIND RWY13 17006KT RWY31 17005KT;","P01 009003SCOCIG"
"08509599999","2010-07-17T16:00:00","4","38.6655","-28.175817","94.79","SAO JORGE, PO","FM-15","LPSJ ","V020","999,9,V,0021,1","99999,9,C,N","011265,1,N,1","+0250,1","+0190,1","99999,9","02,5,+00600,1,99,9","04,5,+00900,1,99,9",,,"04,99,1,99,9,99,9,99999,9,99,9,99,9",,"10261,1,99999,9",,,,,,"MET095METAR LPSJ 171600Z VRB04KT 9999 FEW020 SCT030 25/19 Q1026 RMK WIND RWY13 VRB05KT RWY31 VRB04KT;","P01 009003SCOCIG"
"08509599999","2010-07-18T09:00:00","4","38.6655","-28.175817","94.79","SAO JORGE, PO","FM-15","LPSJ ","V020","140,1,N,0031,1","22000,1,9,N","011265,1,N,1","+0230,1","+0170,1","99999,9","02,5,+00750,1,99,9",,,,"02,99,1,99,9,99,9,99999,9,99,9,99,9",,"10251,1,99999,9",,,,,,"MET088METAR LPSJ 180900Z 14006KT 9999 FEW025 23/17 Q1025 RMK WIND RWY13 13005KT RWY31 13004KT;",
"08509599999","2010-07-18T10:00:00","4","38.6655","-28.175817","94.79","SAO JORGE, PO","FM-15","LPSJ ","V020","140,1,N,0036,1","22000,1,9,N","011265,1,N,1","+0230,1","+0180,1","99999,9","02,5,+00750,1,99,9",,,,"02,99,1,99,9,99,9,99999,9,99,9,99,9",,"10251,1,99999,9",,,,,,"MET088METAR LPSJ 181000Z 14007KT 9999 FEW025 23/18 Q1025 RMK WIND RWY13 13006KT RWY31 13005KT;",
"08509599999","2010-07-18T11:00:00","4","38.6655","-28.175817","94.79","SAO JORGE, PO","FM-15","LPSJ ","V020","140,1,N,0051,1","22000,1,9,N","011265,1,N,1","+0240,1","+0170,1","99999,9","02,5,+00900,1,99,9",,,,"02,99,1,99,9,99,9,99999,9,99,9,99,9",,"10251,1,99999,9",,,,,,"MET088METAR LPSJ 181100Z 14010KT 9999 FEW030 24/17 Q1025 RMK WIND RWY13 15006KT RWY31 15007KT;",
"08509599999","2010-07-18T14:00:00","4","38.6655","-28.175817","94.79","SAO JORGE, PO","FM-15","LPSJ ","V020","130,1,N,0051,1","22000,1,9,N","011265,1,N,1","+0260,1","+0170,1","99999,9","02,5,+00900,1,99,9",,,,"02,99,1,99,9,99,9,99999,9,99,9,99,9",,"10251,1,99999,9",,,,,,"MET088METAR LPSJ 181400Z 13010KT 9999 FEW030 26/17 Q1025 RMK WIND RWY13 15008KT RWY31 15006KT;",
"08509599999","2010-07-18T15:00:00","4","38.6655","-28.175817","94.79","SAO JORGE, PO","FM-15","LPSJ ","V020","150,1,N,0036,1","22000,1,9,N","011265,1,N,1","+0260,1","+0170,1","99999,9","02,5,+00900,1,99,9",,,,"02,99,1,99,9,99,9,99999,9,99,9,99,9",,"10251,1,99999,9",,,,,,"MET088METAR LPSJ 181500Z 15007KT 9999 FEW030 26/17 Q1025 RMK WIND RWY13 16007KT RWY31 15006KT;",
"08509599999","2010-07-18T16:00:00","4","38.6655","-28.175817","94.79","SAO JORGE, PO","FM-15","LPSJ ","V020","140,1,N,0051,1","22000,1,9,N","011265,1,N,1","+0250,1","+0180,1","99999,9","02,5,+00900,1,99,9",,,,"02,99,1,99,9,99,9,99999,9,99,9,99,9",,"10240,1,99999,9",,,,,,"MET088METAR LPSJ 181600Z 14010KT 9999 FEW030 25/18 Q1024 RMK WIND RWY13 14007KT RWY31 15008KT;",
"08509599999","2010-07-19T10:00:00","4","38.6655","-28.175817","94.79","SAO JORGE, PO","FM-15","LPSJ ","V020","999,9,V,0031,1","22000,1,9,N","011265,1,N,1","+0250,1","+0180,1","99999,9","02,5,+00900,1,99,9",,,,"02,99,1,99,9,99,9,99999,9,99,9,99,9",,"10251,1,99999,9",,,,,,"MET088METAR LPSJ 191000Z VRB06KT 9999 FEW030 25/18 Q1025 RMK WIND RWY13 VRB03KT RWY31 VRB04KT;",
"08509599999","2010-07-19T11:00:00","4","38.6655","-28.175817","94.79","SAO JORGE, PO","FM-15","LPSJ ","V020","999,9,V,0026,1","22000,1,9,N","011265,1,N,1","+0250,1","+0170,1","99999,9","02,5,+00900,1,99,9",,,,"02,99,1,99,9,99,9,99999,9,99,9,99,9",,"10251,1,99999,9",,,,,,"MET088METAR LPSJ 191100Z VRB05KT 9999 FEW030 25/17 Q1025 RMK WIND RWY13 15008KT RWY31 15006KT;",
"08509599999","2010-07-19T12:00:00","4","38.6655","-28.175817","94.79","SAO JORGE, PO","FM-15","LPSJ ","V020","999,9,V,0021,1","22000,1,9,N","011265,1,N,1","+0260,1","+0170,1","99999,9","02,5,+00900,1,99,9",,,,"02,99,1,99,9,99,9,99999,9,99,9,99,9",,"10251,1,99999,9",,,,,,"MET088METAR LPSJ 191200Z VRB04KT 9999 FEW030 26/17 Q1025 RMK WIND RWY13 VRB05KT RWY31 VRB03KT;",
"08509599999","2010-07-19T14:00:00","4","38.6655","-28.175817","94.79","SAO JORGE, PO","FM-15","LPSJ ","V020","310,1,N,0067,1","99999,9,C,N","011265,1,N,1","+0260,1","+0180,1","99999,9","02,5,+00900,1,99,9","04,5,+02100,1,99,9",,,"04,99,1,99,9,99,9,99999,9,99,9,99,9",,"10251,1,99999,9",,,,,,"MET095METAR LPSJ 191400Z 31013KT 9999 FEW030 SCT070 26/18 Q1025 RMK WIND RWY13 33008KT RWY31 30009KT;","P01 021003SCOCIG"
"08509599999","2010-07-19T15:00:00","4","38.6655","-28.175817","94.79","SAO JORGE, PO","FM-15","LPSJ ","V020","280,1,N,0051,1","99999,9,C,N","011265,1,N,1","+0270,1","+0170,1","99999,9","02,5,+00900,1,99,9","04,5,+02100,1,99,9",,,"04,99,1,99,9,99,9,99999,9,99,9,99,9",,"10251,1,99999,9",,,,,"+310,9","MET103METAR LPSJ 191500Z 28010KT 9999 FEW030 SCT070 27/17 Q1025 RMK WIND RWY13 31007KT 270V340 RWT31 30007KT;","P01 021003SCOCIG"
"08509599999","2010-07-19T16:00:00","4","38.6655","-28.175817","94.79","SAO JORGE, PO","FM-15","LPSJ ","V020","320,1,N,0057,1","99999,9,C,N","011265,1,N,1","+0260,1","+0180,1","99999,9","02,5,+00900,1,99,9","04,5,+02100,1,99,9",,,"04,99,1,99,9,99,9,99999,9,99,9,99,9",,"10251,1,99999,9",,,,,,"MET095METAR LPSJ 191600Z 32011KT 9999 FEW030 SCT070 26/18 Q1025 RMK WIND RWY13 33011KT RWY31 33013KT;","P01 021003SCOCIG"
"08509599999","2010-07-20T10:00:00","4","38.6655","-28.175817","94.79","SAO JORGE, PO","FM-15","LPSJ ","V020","280,1,N,0041,1","00360,1,C,N","003000,1,N,1","+0220,1","+0220,1","99999,9","04,5,+00180,1,99,9","07,5,+00360,1,99,9",,,"07,99,1,99,9,99,9,99999,9,99,9,99,9",,"10261,1,99999,9","10,1","61,1",,,,"MET103METAR LPSJ 201000Z 28008KT 3000 -RA BR SCT006 BKN012 22/22 Q10260 RMK WIND RWY13 30007KT RWY31 29008KT;",
"08509599999","2010-07-20T11:00:00","4","38.6655","-28.175817","94.79","SAO JORGE, PO","FM-15","LPSJ ","V020","300,1,N,0036,1","00360,1,C,N","011265,1,N,1","+0220,1","+0210,1","99999,9","02,5,+00240,1,99,9","04,5,+00360,1,99,9","07,5,+00600,1,99,9",,"07,99,1,99,9,99,9,99999,9,99,9,99,9",,"10261,1,99999,9",,,,,,"MET107METAR LPSJ 201100Z 30007KT 9999 FEW008 SCT012 BKN020 22/21 Q1026 RERA RMK WIND RWY13 33006KT RWY31 32006KT;",
"08509599999","2010-07-20T12:00:00","4","38.6655","-28.175817","94.79","SAO JORGE, PO","FM-15","LPSJ ","V020","280,1,N,0051,1","00180,1,C,N","011265,1,N,1","+0220,1","+0220,1","99999,9","02,5,+00060,1,99,9","04,5,+00180,1,99,9","07,5,+00360,1,99,9",,"07,99,1,99,9,99,9,99999,9,99,9,99,9",,"10261,1,99999,9",,,,,,"MET103METAR LPSJ 201200Z 28010KT 9999 FEW002 SCT006 BKN012 22/22 Q1026 RMKJ WIND RWY13 31004KT RWY31 29007KT;",
"08509599999","2010-07-20T13:00:00","4","38.6655","-28.175817","94.79","SAO JORGE, PO","FM-15","LPSJ ","V020","280,1,N,0051,1","99999,9,C,N","011265,1,N,1","+0230,1","+0220,1","99999,9","04,5,+00210,1,99,9","04,5,+00360,1,99,9",,,"04,99,1,99,9,99,9,99999,9,99,9,99,9",,"10261,1,99999,9",,,,,,"MET095METAR LPSJ 201300Z 28010KT 9999 SCT007 SCT012 23/22 Q1026 RMK WIND RWY13 31005KT RWY31 28007KT;","P01 003603SCOCIG"
"08509599999","2010-07-20T14:00:00","4","38.6655","-28.175817","94.79","SAO JORGE, PO","FM-15","LPSJ ","V020","280,1,N,0057,1","00360,1,C,N","011265,1,N,1","+0230,1","+0220,1","99999,9","04,5,+00180,1,99,9","04,5,+00360,1,99,9","07,5,+00750,1,99,9",,"07,99,1,99,9,99,9,99999,9,99,9,99,9",,"10251,1,99999,9",,,,,,"MET102METAR LPSJ 201400Z 28011KT 9999 SCT006 SCT012 BKN025 23/22 Q1025 RMK WIND RWY13 31006KT RWY31 29007KT;",
"08509599999","2010-07-20T15:00:00","4","38.6655","-28.175817","94.79","SAO JORGE, PO","FM-15","LPSJ ","V020","290,1,N,0051,1","00360,1,C,N","011265,1,N,1","+0230,1","+0220,1","99999,9","02,5,+00240,1,99,9","04,5,+00360,1,99,9","07,5,+00750,1,99,9",,"07,99,1,99,9,99,9,99999,9,99,9,99,9",,"10251,1,99999,9",,,,,,"MET102METAR LPSJ 201500Z 29010KT 9999 FEW008 SCT012 BKN025 23/22 Q1025 RMK WIND RWY13 31006KT RWY31 29007KT;",
"08509599999","2010-07-20T16:00:00","4","38.6655","-28.175817","94.79","SAO JORGE, PO","FM-15","LPSJ ","V020","290,1,N,0062,1","99999,9,C,N","011265,1,N,1","+0240,1","+0220,1","99999,9","04,5,+00330,1,99,9","04,5,+00750,1,99,9",,,"04,99,1,99,9,99,9,99999,9,99,9,99,9",,"10251,1,99999,9",,,,,,"MET095METAR LPSJ 201600Z 29012KT 9999 SCT011 SCT025 24/22 Q1025 RMK WIND RWY13 31009KT RWY31 29010KT;","P01 007503SCOCIG"
"08509599999","2010-07-20T17:00:00","4","38.6655","-28.175817","94.79","SAO JORGE, PO","FM-15","LPSJ ","V020","290,1,N,0072,1","99999,9,C,N","011265,1,N,1","+0250,1","+0210,1","99999,9","04,5,+00360,1,99,9","04,5,+00900,1,99,9",,,"04,99,1,99,9,99,9,99999,9,99,9,99,9",,"10240,1,99999,9",,,,,,"MET103METAR LPSJ 201700Z 29014KT 9999 SCT012 SCT030 25/21 Q1024 RMK WIND RWY13 32010KT 280V360 RWY31 29011KT;","P01 009003SCOCIG"
"08509599999","2010-07-20T18:00:00","4","38.6655","-28.175817","94.79","SAO JORGE, PO","FM-15","LPSJ ","V020","290,1,N,0077,1","99999,9,C,N","011265,1,N,1","+0240,1","+0210,1","99999,9","04,5,+00420,1,99,9","04,5,+01800,1,99,9",,,"04,99,1,99,9,99,9,99999,9,99,9,99,9",,"10240,1,99999,9",,,,,,"MET095METAR LPSJ 201800Z 29015KT 9999 SCT014 SCT060 24/21 Q1024 RMK WIND RWY13 31009KT RWY31 29010KT;","P01 018003SCOCIG"
"08509599999","2010-07-20T19:00:00","4","38.6655","-28.175817","94.79","SAO JORGE, PO","FM-15","LPSJ ","V020","290,1,N,0051,1","01800,1,C,N","011265,1,N,1","+0230,1","+0210,1","99999,9","04,5,+00420,1,99,9","07,5,+01800,1,99,9",,,"07,99,1,99,9,99,9,99999,9,99,9,99,9",,"10240,1,99999,9",,,,,,"MET095METAR LPSJ 201900Z 29010KT 9999 SCT014 BKN060 23/21 Q1024 RMK WIND RWY13 32009KT RWY31 29008KT;",
"08509599999","2010-07-21T09:00:00","4","38.6655","-28.175817","94.79","SAO JORGE, PO","FM-15","LPSJ ","V020","290,1,N,0046,1","00360,1,C,N","009000,1,N,1","+0220,1","+0210,1","99999,9","04,5,+00180,1,99,9","04,5,+00360,1,99,9","07,5,+00750,1,99,9",,"07,99,1,99,9,99,9,99999,9,99,9,99,9",,"10230,1,99999,9",,,,,,"MET102METAR LPSJ 210900Z 29009KT 9000 SCT006 SCT012 BKN025 22/21 Q1023 RMK WIND RWY13 30007KT RWY31 29008KT;",
"08509599999","2010-07-21T10:00:00","4","38.6655","-28.175817","94.79","SAO JORGE, PO","FM-15","LPSJ ","V020","290,1,N,0046,1","00300,1,C,N","005000,1,N,1","+0220,1","+0210,1","99999,9","04,5,+00180,1,99,9","04,5,+00300,1,99,9","07,5,+00750,1,99,9",,"07,99,1,99,9,99,9,99999,9,99,9,99,9",,"10230,1,99999,9","10,1","80,1",,,,"MET111METAR LPSJ 211000Z 29009KT 5000 -SHRA BR SCT006 SCT010 BKN025 22/21 Q1023 RMK WIND RWY13 31005KT RWY31 30006KT;",
"08509599999","2010-07-21T11:00:00","4","38.6655","-28.175817","94.79","SAO JORGE, PO","FM-15","LPSJ ","V020","290,1,N,0031,1","00120,1,C,N","002000,1,N,1","+0220,1","+0220,1","99999,9","02,5,+00030,1,99,9","04,5,+00120,1,99,9","07,5,+00240,1,99,9",,"07,99,1,99,9,99,9,99999,9,99,9,99,9",,"10230,1,99999,9","10,1","51,1",,,,"MET109METAR LPSJ 211100Z 29006KT 2000 -DZ BR FEW001 SCT004 BKN008 22/22 Q1023 RMK WIND RWY13 29004KT RWY31 30004KT;",
"08509599999","2010-07-21T12:00:00","4","38.6655","-28.175817","94.79","SAO JORGE, PO","FM-15","LPSJ ","V020","270,1,N,0026,1","00015,1,9,N","000400,1,N,1","+0220,1","+0220,1","99999,9","09,1,+00015,1,99,9",,,,"09,99,1,99,9,99,9,00025,1,99,9,99,9",,"10230,1,99999,9","45,1","51,1",,,,"MET094METAR LPSJ 211200Z 27005KT 0400 -DZ FG VV000 22/22 Q1023 RMK WIND RWY13 29004KT RWY31 26004KT;",
"08509599999","2010-07-21T13:00:00","4","38.6655","-28.175817","94.79","SAO JORGE, PO","FM-15","LPSJ ","V020","300,1,N,0046,1","00120,1,C,N","003000,1,N,1","+0230,1","+0220,1","99999,9","04,5,+00060,1,99,9","04,5,+00120,1,99,9","07,5,+00300,1,99,9",,"07,99,1,99,9,99,9,99999,9,99,9,99,9",,"10230,1,99999,9","10,1","61,1",,,,"MET109METAR LPSJ 211300Z 30009KT 3000 -RA BR SCT002 SCT004 BKN010 23/22 Q1023 RMK WIND RWY13 31006KT RWY31 28006KT;",
"08509599999","2010-07-21T14:00:00","4","38.6655","-28.175817","94.79","SAO JORGE, PO","FM-15","LPSJ ","V020","999,9,V,0026,1","00420,1,C,N","011265,1,N,1","+0240,1","+0220,1","99999,9","02,5,+00210,1,99,9","07,5,+00420,1,99,9",,,"07,99,1,99,9,99,9,99999,9,99,9,99,9",,"10220,1,99999,9",,,,,,"MET095METAR LPSJ 211400Z VRB05KT 9999 FEW007 BKN014 24/22 Q1022 RMK WIND RWY13 VRB04KT RWY31 VRB03KT;",
"08509599999","2010-07-21T15:00:00","4","38.6655","-28.175817","94.79","SAO JORGE, PO","FM-15","LPSJ ","V020","999,9,V,0021,1","01800,1,C,N","011265,1,N,1","+0240,1","+0220,1","99999,9","04,5,+00420,1,99,9","07,5,+01800,1,99,9",,,"07,99,1,99,9,99,9,99999,9,99,9,99,9",,"10220,1,99999,9",,,,,,"MET095METAR LPSJ 211500Z VRB04KT 9999 SCT014 BKN060 24/22 Q1022 RMK WIND RWY13 VRB06KT RWY31 VRB05KT;",
"08509599999","2010-07-21T16:00:00","4","38.6655","-28.175817","94.79","SAO JORGE, PO","FM-15","LPSJ ","V020","300,1,N,0046,1","22000,1,9,N","011265,1,N,1","+0260,1","+0220,1","99999,9","04,5,+00420,1,99,9",,,,"04,99,1,99,9,99,9,99999,9,99,9,99,9",,"10220,1,99999,9",,,,,,"MET088METAR LPSJ 211600Z 30009KT 9999 SCT014 26/22 Q1022 RMK WIND RWY13 32011KT RWY31 30008KT;",
"08509599999","2010-07-21T17:00:00","4","38.6655","-28.175817","94.79","SAO JORGE, PO","FM-15","LPSJ ","V020","999,9,V,0031,1","99999,9,C,N","011265,1,N,1","+0260,1","+0210,1","99999,9","04,5,+00450,1,99,9","04,5,+02100,1,99,9",,,"04,99,1,99,9,99,9,99999,9,99,9,99,9",,"10220,1,99999,9",,,,,,"MET095METAR LPSJ 211700Z VRB06KT 9999 SCT015 SCT070 26/21 Q1022 RMK WIND RWY13 VRB04KT RWY31 VRB02KT;","P01 021003SCOCIG"
"08509599999","2010-07-21T18:00:00","4","38.6655","-28.175817","94.79","SAO JORGE, PO","FM-15","LPSJ ","V020","999,9,V,0036,1","99999,9,C,N","011265,1,N,1","+0240,1","+0210,1","99999,9","04,5,+00360,1,99,9","04,5,+00600,1,99,9",,,"04,99,1,99,9,99,9,99999,9,99,9,99,9",,"10220,1,99999,9",,,,,,"MET095METAR LPSJ 211800Z VRB07KT 9999 SCT012 SCT020 24/21 Q1022 RMK WIND RWY13 VRB05KT RWY31 VRB03KT;","P01 006003SCOCIG"
"08509599999","2010-07-22T09:00:00","4","38.6655","-28.175817","94.79","SAO JORGE, PO","FM-15","LPSJ ","V020","999,9,V,0010,1","99999,9,C,N","011265,1,N,1","+0200,1","+0190,1","99999,9","04,5,+00300,1,99,9","04,5,+00660,1,99,9",,,"04,99,1,99,9,99,9,99999,9,99,9,99,9",,"10251,1,99999,9",,,,,,"MET095METAR LPSJ 220900Z VRB02KT 9999 SCT010 SCT022 20/19 Q1025 RMK WIND RWY13 VRB01KT RWY31 VRB01KT;","P01 006603SCOCIG"
"08509599999","2010-07-22T10:00:00","4","38.6655","-28.175817","94.79","SAO JORGE, PO","FM-15","LPSJ ","V020","999,9,V,0010,1","99999,9,C,N","011265,1,N,1","+0210,1","+0190,1","99999,9","04,5,+00330,1,99,9","04,5,+00750,1,99,9",,,"04,99,1,99,9,99,9,99999,9,99,9,99,9",,"10261,1,99999,9",,,,,,"MET095METAR LPSJ 221000Z VRB02KT 9999 SCT011 SCT025 21/19 Q1026 RMK WIND RWY13 VRB03KT RWY31 VRB01KT;","P01 007503SCOCIG"
"08509599999","2010-07-22T11:00:00","4","38.6655","-28.175817","94.79","SAO JORGE, PO","FM-15","LPSJ ","V020","999,9,V,0010,1","99999,9,C,N","011265,1,N,1","+0210,1","+0190,1","99999,9","02,5,+00360,1,99,9","04,5,+00750,1,99,9",,,"04,99,1,99,9,99,9,99999,9,99,9,99,9",,"10261,1,99999,9",,,,,,"MET095METAR LPSJ 221100Z VRB02KT 9999 FEW012 SCT025 21/19 Q1026 RMK WIND RWY13 VRB01KT RWY31 VRB01KT;","P01 007503SCOCIG"
"08509599999","2010-07-22T12:00:00","4","38.6655","-28.175817","94.79","SAO JORGE, PO","FM-15","LPSJ ","V020","999,9,V,0010,1","99999,9,C,N","011265,1,N,1","+0220,1","+0180,1","99999,9","02,5,+00450,1,99,9","04,5,+00900,1,99,9",,,"04,99,1,99,9,99,9,99999,9,99,9,99,9",,"10261,1,99999,9",,,,,,"MET095METAR LPSJ 221200Z VRB02KT 9999 FEW015 SCT030 22/18 Q1026 RMK WIND RWY13 VRB02KT RWY31 VRB02KT;","P01 009003SCOCIG"
"08509599999","2010-07-22T13:00:00","4","38.6655","-28.175817","94.79","SAO JORGE, PO","FM-15","LPSJ ","V020","999,9,V,0015,1","22000,1,9,N","011265,1,N,1","+0220,1","+0190,1","99999,9","04,5,+00420,1,99,9",,,,"04,99,1,99,9,99,9,99999,9,99,9,99,9",,"10261,1,99999,9",,,,,,"MET088METAR LPSJ 221300Z VRB03KT 9999 SCT014 22/19 Q1026 RMK WIND RWY13 VRB02KT RWY31 VRB02KT;",
"08509599999","2010-07-22T14:00:00","4","38.6655","-28.175817","94.79","SAO JORGE, PO","FM-15","LPSJ ","V020","999,9,V,0026,1","99999,9,C,N","011265,1,N,1","+0220,1","+0190,1","99999,9","02,5,+00420,1,99,9","04,5,+00900,1,99,9",,,"04,99,1,99,9,99,9,99999,9,99,9,99,9",,"10271,1,99999,9",,,,,,"MET095METAR LPSJ 221400Z VRB05KT 9999 FEW014 SCT030 22/19 Q1027 RMK WIND RWY13 VRB04KT RWY31 VRB04KT;","P01 009003SCOCIG"
"08509599999","2010-07-22T15:00:00","4","38.6655","-28.175817","94.79","SAO JORGE, PO","FM-15","LPSJ ","V020","150,1,N,0036,1","22000,1,9,N","011265,1,N,1","+0230,1","+0180,1","99999,9","04,5,+00450,1,99,9",,,,"04,99,1,99,9,99,9,99999,9,99,9,99,9",,"10271,1,99999,9",,,,,,"MET088METAR LPSJ 221500Z 15007KT 9999 SCT015 23/18 Q1027 RMK WIND RWY13 16006KT RWY31 15004KT;",
"08509599999","2010-07-22T17:00:00","4","38.6655","-28.175817","94.79","SAO JORGE, PO","FM-15","LPSJ ","V020","150,1,N,0041,1","22000,1,9,N","011265,1,N,1","+0240,1","+0190,1","99999,9","04,5,+00480,1,99,9",,,,"04,99,1,99,9,99,9,99999,9,99,9,99,9",,"10261,1,99999,9",,,,,,"MET088METAR LPSJ 221700Z 15008KT 9999 SCT016 24/19 Q1026 RMK WIND RWY13 15007KT RWY31 16006KT;",
"08509599999","2010-07-22T18:00:00","4","38.6655","-28.175817","94.79","SAO JORGE, PO","FM-15","LPSJ ","V020","150,1,N,0051,1","22000,1,9,N","011265,1,N,1","+0240,1","+0190,1","99999,9","04,5,+00480,1,99,9",,,,"04,99,1,99,9,99,9,99999,9,99,9,99,9",,"10261,1,99999,9",,,,,,"MET088METAR LPSJ 221800Z 15010KT 9999 SCT016 24/19 Q1026 RMK WIND RWY13 16005KT RWY31 15005KT;",
"08509599999","2010-07-23T09:00:00","4","38.6655","-28.175817","94.79","SAO JORGE, PO","FM-15","LPSJ ","V020","999,9,V,0010,1","99999,9,C,N","011265,1,N,1","+0200,1","+0170,1","99999,9","02,5,+00690,1,99,9","04,5,+00960,1,99,9",,,"04,99,1,99,9,99,9,99999,9,99,9,99,9",,"10291,1,99999,9",,,,,,"MET095METAR LPSJ 230900Z VRB02KT 9999 FEW023 SCT032 20/17 Q1029 RMK WIND RWY13 VRB03KT RWY31 VRB03KT;","P01 009603SCOCIG"
"08509599999","2010-07-23T10:00:00","4","38.6655","-28.175817","94.79","SAO JORGE, PO","FM-15","LPSJ ","V020","999,9,V,0010,1","22000,1,9,N","011265,1,N,1","+0210,1","+0180,1","99999,9","04,5,+00690,1,99,9",,,,"04,99,1,99,9,99,9,99999,9,99,9,99,9",,"10291,1,99999,9",,,,,,"MET088METAR LPSJ 231000Z VRB02KT 9999 SCT023 21/18 Q1029 RMK WIND RWY13 VRB02KT RWY31 VRB01KT;",
"08509599999","2010-07-23T11:00:00","4","38.6655","-28.175817","94.79","SAO JORGE, PO","FM-15","LPSJ ","V020","160,1,N,0026,1","22000,1,9,N","011265,1,N,1","+0230,1","+0180,1","99999,9","02,5,+00690,1,99,9",,,,"02,99,1,99,9,99,9,99999,9,99,9,99,9",,"10291,1,99999,9",,,,,,"MET088METAR LPSJ 231100Z 16005KT 9999 FEW023 23/18 Q1029 RMK WIND RWY13 17004KT RWY31 18004KT;",
"08509599999","2010-07-23T13:00:00","4","38.6655","-28.175817","94.79","SAO JORGE, PO","FM-15","LPSJ ","V020","160,1,N,0036,1","22000,1,9,N","011265,1,N,1","+0230,1","+0180,1","99999,9","04,5,+00600,1,99,9",,,,"04,99,1,99,9,99,9,99999,9,99,9,99,9",,"10291,1,99999,9",,,,,,"MET088METAR LPSJ 231300Z 16007KT 9999 SCT020 23/18 Q1029 RMK WIND RWY13 16006KT RWY31 18004KT;",
"08509599999","2010-07-23T14:00:00","4","38.6655","-28.175817","94.79","SAO JORGE, PO","FM-15","LPSJ ","V020","140,1,N,0051,1","22000,1,9,N","011265,1,N,1","+0230,1","+0180,1","99999,9","04,5,+00600,1,99,9",,,,"04,99,1,99,9,99,9,99999,9,99,9,99,9",,"10291,1,99999,9",,,,,,"MET088METAR LPSJ 231400Z 14010KT 9999 SCT020 23/18 Q1029 RMK WIND RWY13 15007KT RWY31 16006KT;",
"08509599999","2010-07-23T15:00:00","4","38.6655","-28.175817","94.79","SAO JORGE, PO","FM-15","LPSJ ","V020","140,1,N,0051,1","22000,1,9,N","011265,1,N,1","+0240,1","+0180,1","99999,9","04,5,+00600,1,99,9",,,,"04,99,1,99,9,99,9,99999,9,99,9,99,9",,"10291,1,99999,9",,,,,,"MET088METAR LPSJ 231500Z 14010KT 9999 SCT020 24/18 Q1029 RMK WIND RWY13 16007KT RWY31 15006KT;",
"08509599999","2010-07-23T16:00:00","4","38.6655","-28.175817","94.79","SAO JORGE, PO","FM-15","LPSJ ","V020","140,1,N,0051,1","22000,1,9,N","011265,1,N,1","+0240,1","+0170,1","99999,9","04,5,+00600,1,99,9",,,,"04,99,1,99,9,99,9,99999,9,99,9,99,9",,"10261,1,99999,9",,,,,,"MET088METAR LPSJ 231600Z 14010KT 9999 SCT020 24/17 Q1026 RMK WIND RWY13 16007KT RWY31 15005KT;",
"08509599999","2010-07-23T17:00:00","4","38.6655","-28.175817","94.79","SAO JORGE, PO","FM-15","LPSJ ","V020","150,1,N,0041,1","22000,1,9,N","011265,1,N,1","+0240,1","+0180,1","99999,9","04,5,+00660,1,99,9",,,,"04,99,1,99,9,99,9,99999,9,99,9,99,9",,"10291,1,99999,9",,,,,,"MET088METAR LPSJ 231700Z 15008KT 9999 SCT022 24/18 Q1029 RMK WIND RWY13 16005KT RWY31 16006KT;",
"08509599999","2010-07-23T18:00:00","4","38.6655","-28.175817","94.79","SAO JORGE, PO","FM-15","LPSJ ","V020","160,1,N,0031,1","22000,1,9,N","011265,1,N,1","+0240,1","+0180,1","99999,9","02,5,+00660,1,99,9",,,,"02,99,1,99,9,99,9,99999,9,99,9,99,9",,"10291,1,99999,9",,,,,,"MET088METAR LPSJ 231800Z 16006KT 9999 FEW022 24/18 Q1029 RMK WIND RWY13 17007KT RWY31 17005KT;",
"08509599999","2010-07-24T09:00:00","4","38.6655","-28.175817","94.79","SAO JORGE, PO","FM-15","LPSJ ","V020","100,1,N,0021,1","22000,1,9,N","011265,1,N,1","+0210,1","+0160,1","99999,9","02,5,+00600,1,99,9",,,,"02,99,1,99,9,99,9,99999,9,99,9,99,9","999,M,+9999,9","10301,1,99999,9",,,,,,"MET088METAR LPSJ 240900Z 10004KT 9999 FEW020 21/16 Q1030 RMK WIND RWY13 12004KT RWY31 11007KT;","Q01 -00072ATMX  "
"08509599999","2010-07-24T10:00:00","4","38.6655","-28.175817","94.79","SAO JORGE, PO","FM-15","LPSJ ","V020","130,1,N,0051,1","22000,1,9,N","011265,1,N,1","+0220,1","+0160,1","99999,9","02,5,+00690,1,99,9",,,,"02,99,1,99,9,99,9,99999,9,99,9,99,9",,"10301,1,99999,9",,,,,,"MET088METAR LPSJ 241000Z 13010KT 9999 FEW023 22/16 Q1030 RMK WIND RWY13 15006KT RWY31 15008KT;",
"08509599999","2010-07-24T11:00:00","4","38.6655","-28.175817","94.79","SAO JORGE, PO","FM-15","LPSJ ","V020","130,1,N,0046,1","22000,1,9,N","011265,1,N,1","+0220,1","+0160,1","99999,9","02,5,+00690,1,99,9",,,,"02,99,1,99,9,99,9,99999,9,99,9,99,9",,"10301,1,99999,9",,,,,,"MET088METAR LPSJ 241100Z 13009KT 9999 FEW023 22/16 Q1030 RMK WIND RWY13 15005KT RWY31 14005KT;",
"08509599999","2010-07-24T12:00:00","4","38.6655","-28.175817","94.79","SAO JORGE, PO","FM-15","LPSJ ","V020","140,1,N,0051,1","22000,1,9,N","011265,1,N,1","+0240,1","+0160,1","99999,9","02,5,+00750,1,99,9",,,,"02,99,1,99,9,99,9,99999,9,99,9,99,9",,"10301,1,99999,9",,,,,,"MET088METAR LPSJ 241200Z 14010KT 9999 FEW025 24/16 Q1030 RMK WIND RWY13 16007KT RWY31 15006KT;",
"08509599999","2010-07-24T13:00:00","4","38.6655","-28.175817","94.79","SAO JORGE, PO","FM-15","LPSJ ","V020","140,1,N,0051,1","22000,1,9,N","011265,1,N,1","+0240,1","+0170,1","99999,9","02,5,+00810,1,99,9",,,,"02,99,1,99,9,99,9,99999,9,99,9,99,9",,"10301,1,99999,9",,,,,,"MET088METAR LPSJ 241300Z 14010KT 9999 FEW027 24/17 Q1030 RMK WIND RWY13 16008KT RWY31 16006KT;",
"08509599999","2010-07-24T14:00:00","4","38.6655","-28.175817","94.79","SAO JORGE, PO","FM-15","LPSJ ","V020","140,1,N,0062,1","22000,1,9,N","011265,1,N,1","+0240,1","+0160,1","99999,9","02,5,+00810,1,99,9",,,,"02,99,1,99,9,99,9,99999,9,99,9,99,9",,"10301,1,99999,9",,,,,,"MET088METAR LPSJ 241400Z 14012KT 9999 FEW027 24/16 Q1030 RMK WIND RWY13 16008KT RWY31 16005KT;",
"08509599999","2010-07-24T15:00:00","4","38.6655","-28.175817","94.79","SAO JORGE, PO","FM-15","LPSJ ","V020","140,1,N,0062,1","22000,1,9,N","011265,1,N,1","+0240,1","+0170,1","99999,9","02,5,+00810,1,99,9",,,,"02,99,1,99,9,99,9,99999,9,99,9,99,9",,"10301,1,99999,9",,,,,,"MET088METAR LPSJ 241500Z 14012KT 9999 FEW027 24/17 Q1030 RMK WIND RWY13 16006KT RWY31 15008KT;",
"08509599999","2010-07-24T16:00:00","4","38.6655","-28.175817","94.79","SAO JORGE, PO","FM-15","LPSJ ","V020","140,1,N,0062,1","22000,1,9,N","011265,1,N,1","+0240,1","+0170,1","99999,9","02,5,+00840,1,99,9",,,,"02,99,1,99,9,99,9,99999,9,99,9,99,9",,"10291,1,99999,9",,,,,,"MET103METAR LPSJ 241600Z 14012KT 9999 FEW028 24/17 Q1029 RMK WIND RWY13 1607KT 130V200 RWY31 16007KT 140V200;",
"08509599999","2010-07-24T17:00:00","4","38.6655","-28.175817","94.79","SAO JORGE, PO","FM-15","LPSJ ","V020","140,1,N,0062,1","22000,1,9,N","011265,1,N,1","+0240,1","+0170,1","99999,9","02,5,+00750,1,99,9",,,,"02,99,1,99,9,99,9,99999,9,99,9,99,9",,"10301,1,99999,9",,,,,,"MET088METAR LPSJ 241700Z 14012KT 9999 FEW025 24/17 Q1030 RMK WIND RWY13 15007KT RWY31 15007KT;",
"08509599999","2010-07-24T18:00:00","4","38.6655","-28.175817","94.79","SAO JORGE, PO","FM-15","LPSJ ","V020","140,1,N,0062,1","22000,1,9,N","011265,1,N,1","+0240,1","+0160,1","99999,9","02,5,+00750,1,99,9",,,,"02,99,1,99,9,99,9,99999,9,99,9,99,9",,"10291,1,99999,9",,,,,,"MET088METAR LPSJ 241800Z 14012KT 9999 FEW025 24/16 Q1029 RMK WIND RWY13 15007KT RWY31 14007KT;",
"08509599999","2010-07-25T09:00:00","4","38.6655","-28.175817","94.79","SAO JORGE, PO","FM-15","LPSJ ","V020","999,9,V,0005,1","22000,1,9,N","011265,1,N,1","+0200,1","+0160,1","99999,9","04,5,+00660,1,99,9",,,,"04,99,1,99,9,99,9,99999,9,99,9,99,9",,"10281,1,99999,9",,,,,,"MET088METAR LPSJ 250900Z VRB01KT 9999 SCT022 20/16 Q1028 RMK WIND RWY13 VRB02KT RWY31 VRB04KT;",
"08509599999","2010-07-25T10:00:00","4","38.6655","-28.175817","94.79","SAO JORGE, PO","FM-15","LPSJ ","V020","140,1,N,0036,1","22000,1,9,N","011265,1,N,1","+0220,1","+0160,1","99999,9","04,5,+00660,1,99,9",,,,"04,99,1,99,9,99,9,99999,9,99,9,99,9",,"10281,1,99999,9",,,,,,"MET089METAR LPSJ 251000Z 14007KT 9999 SCT022 22/16 Q1028 RMK WINDE RWT13 14005KT RWY31 15003KT;",
"08509599999","2010-07-25T11:00:00","4","38.6655","-28.175817","94.79","SAO JORGE, PO","FM-15","LPSJ ","V020","140,1,N,0031,1","22000,1,9,N","011265,1,N,1","+0220,1","+0160,1","99999,9","04,5,+00660,1,99,9",,,,"04,99,1,99,9,99,9,99999,9,99,9,99,9",,"10281,1,99999,9",,,,,,"MET088METAR LPSJ 251100Z 14006KT 9999 SCT022 22/16 Q1028 RMK WIND RWY13 15004KT RWY31 15004KT;",
"08509599999","2010-07-25T12:00:00","4","38.6655","-28.175817","94.79","SAO JORGE, PO","FM-15","LPSJ ","V020","140,1,N,0051,1","22000,1,9,N","011265,1,N,1","+0230,1","+0160,1","99999,9","02,5,+00660,1,99,9",,,,"02,99,1,99,9,99,9,99999,9,99,9,99,9",,"10281,1,99999,9",,,,,,"MET088METAR LPSJ 251200Z 14010KT 9999 FEW022 23/16 Q1028 RMK WIND RWY13 16006KT RWY31 15005KT;",
"08509599999","2010-07-25T13:00:00","4","38.6655","-28.175817","94.79","SAO JORGE, PO","FM-15","LPSJ ","V020","150,1,N,0057,1","22000,1,9,N","011265,1,N,1","+0240,1","+9999,9","99999,9","02,5,+00780,1,99,9",,,,"02,99,1,99,9,99,9,99999,9,99,9,99,9",,"10261,1,99999,9",,,,,,"MET089METAR LPSJ 251300Z 15011KT 9999 FEW026 24/160 Q1026 RMK WIND RWY13 15006KT RWY31 16007KT;",
"08509599999","2010-07-25T14:00:00","4","38.6655","-28.175817","94.79","SAO JORGE, PO","FM-15","LPSJ ","V020","140,1,N,0057,1","22000,1,9,N","011265,1,N,1","+0240,1","+0160,1","99999,9","02,5,+00900,1,99,9",,,,"02,99,1,99,9,99,9,99999,9,99,9,99,9",,"10281,1,99999,9",,,,,,"MET088METAR LPSJ 251400Z 14011KT 9999 FEW030 24/16 Q1028 RMK WIND RWY13 16008KT RWY31 14008KT;",
"08509599999","2010-07-25T15:00:00","4","38.6655","-28.175817","94.79","SAO JORGE, PO","FM-15","LPSJ ","V020","140,1,N,0062,1","22000,1,9,N","011265,1,N,1","+0240,1","+0160,1","99999,9","02,5,+00900,1,99,9",,,,"02,99,1,99,9,99,9,99999,9,99,9,99,9",,"10271,1,99999,9",,,,,,"MET088METAR LPSJ 251500Z 14012KT 9999 FEW030 24/16 Q1027 RMK WIND RWY13 16006KT RWY31 16007KT;",
"08509599999","2010-07-25T16:00:00","4","38.6655","-28.175817","94.79","SAO JORGE, PO","FM-15","LPSJ ","V020","130,1,N,0051,1","22000,1,9,N","011265,1,N,1","+0250,1","+0150,1","99999,9","02,5,+01050,1,99,9",,,,"02,99,1,99,9,99,9,99999,9,99,9,99,9",,"10271,1,99999,9",,,,,,"MET088METAR LPSJ 251600Z 13010KT 9999 FEW035 25/15 Q1027 RMK WIND RWY13 16007KT RWY31 14008KT;",
"08509599999","2010-07-25T17:00:00","4","38.6655","-28.175817","94.79","SAO JORGE, PO","FM-15","LPSJ ","V020","130,1,N,0046,1","99999,9,C,N","011265,1,N,1","+0250,1","+0130,1","99999,9","02,5,+01050,1,99,9","04,5,+01350,1,99,9",,,"04,99,1,99,9,99,9,99999,9,99,9,99,9",,"10271,1,99999,9",,,,,,"MET095METAR LPSJ 251700Z 13009KT 9999 FEW035 SCT045 25/13 Q1027 RMK WIND RWY13 16005KT RWY31 14007KT;","P01 013503SCOCIG"
"08509599999","2010-07-25T18:00:00","4","38.6655","-28.175817","94.79","SAO JORGE, PO","FM-15","LPSJ ","V020","140,1,N,0051,1","22000,1,9,N","011265,1,N,1","+0250,1","+0140,1","99999,9","02,5,+01050,1,99,9",,,,"02,99,1,99,9,99,9,99999,9,99,9,99,9",,"10271,1,99999,9",,,,,,"MET088METAR LPSJ 251800Z 14010KT 9999 FEW035 25/14 Q1027 RMK WIND RWY13 15009KT RWY31 14008KT;",
"08509599999","2010-07-26T10:00:00","4","38.6655","-28.175817","94.79","SAO JORGE, PO","FM-15","LPSJ ","V020","999,9,V,0015,1","22000,1,9,N","011265,1,N,1","+0220,1","+0180,1","99999,9","04,5,+00750,1,99,9",,,,"04,99,1,99,9,99,9,99999,9,99,9,99,9",,"10251,1,99999,9",,,,,,"MET088METAR LPSJ 261000Z VRB03KT 9999 SCT025 22/18 Q1025 RMK WIND RWY13 VRB03KT RWY31 VRB02KT;",
"08509599999","2010-07-26T11:00:00","4","38.6655","-28.175817","94.79","SAO JORGE, PO","FM-15","LPSJ ","V020","999,9,V,0015,1","99999,9,C,N","011265,1,N,1","+0220,1","+0180,1","99999,9","02,5,+00750,1,99,9","04,5,+01500,1,99,9",,,"04,99,1,99,9,99,9,99999,9,99,9,99,9",,"10251,1,99999,9",,,,,,"MET095METAR LPSJ 261100Z VRB03KT 9999 FEW025 SCT050 22/18 Q1025 RMK WIND RWY13 VRB03KT RWY31 VRB02KT;","P01 015003SCOCIG"
"08509599999","2010-07-26T13:00:00","4","38.6655","-28.175817","94.79","SAO JORGE, PO","FM-15","LPSJ ","V020","999,9,V,0021,1","22000,1,9,N","011265,1,N,1","+0240,1","+0180,1","99999,9","04,5,+00900,1,99,9",,,,"04,99,1,99,9,99,9,99999,9,99,9,99,9",,"10251,1,99999,9",,,,,,"MET088METAR LPSJ 261300Z VRB04KT 9999 SCT030 24/18 Q1025 RMK WIND RWY13 VRB03KT RWY31 VRB03KT;",
"08509599999","2010-07-26T14:00:00","4","38.6655","-28.175817","94.79","SAO JORGE, PO","FM-15","LPSJ ","V020","999,9,V,0021,1","99999,9,C,N","011265,1,N,1","+0260,1","+0180,1","99999,9","02,5,+00900,1,99,9","04,5,+01500,1,99,9",,,"04,99,1,99,9,99,9,99999,9,99,9,99,9",,"10251,1,99999,9",,,,,,"MET095METAR LPSJ 261400Z VRB04KT 9999 FEW030 SCT050 26/18 Q1025 RMK WIND RWY13 VRB03KT RWY31 VRB04KT;","P01 015003SCOCIG"
"08509599999","2010-07-26T15:00:00","4","38.6655","-28.175817","94.79","SAO JORGE, PO","FM-15","LPSJ ","V020","160,1,N,0036,1","99999,9,C,N","011265,1,N,1","+0260,1","+0180,1","99999,9","02,5,+00750,1,99,9","04,5,+01500,1,99,9",,,"04,99,1,99,9,99,9,99999,9,99,9,99,9",,"10251,1,99999,9",,,,,,"MET095METAR LPSJ 261500Z 16007KT 9999 FEW025 SCT050 26/18 Q1025 RMK WIND RWY13 16004KT RWY31 17004KT;","P01 015003SCOCIG"
"08509599999","2010-07-26T16:00:00","4","38.6655","-28.175817","94.79","SAO JORGE, PO","FM-15","LPSJ ","V020","140,1,N,0036,1","99999,9,C,N","011265,1,N,1","+0250,1","+0190,1","99999,9","02,5,+00900,1,99,9","04,5,+01500,1,99,9",,,"04,99,1,99,9,99,9,99999,9,99,9,99,9",,"10240,1,99999,9",,,,,,"MET095METAR LPSJ 261600Z 14007KT 9999 FEW030 SCT050 25/19 Q1024 RMK WIND RWY13 16006KT RWY31 16005KT;","P01 015003SCOCIG"
"08509599999","2010-07-26T18:00:00","4","38.6655","-28.175817","94.79","SAO JORGE, PO","FM-15","LPSJ ","V020","260,1,N,0026,1","01200,1,C,N","011265,1,N,1","+0240,1","+0190,1","99999,9","02,5,+00750,1,99,9","07,5,+01200,1,99,9",,,"07,99,1,99,9,99,9,99999,9,99,9,99,9",,"10240,1,99999,9",,,,,,"MET095METAR LPSJ 261800Z 26005KT 9999 FEW025 BKN040 24/19 Q1024 RMK WIND RWY13 26004KT RWY31 25004KT;",
"08509599999","2010-07-27T09:00:00","4","38.6655","-28.175817","94.79","SAO JORGE, PO","FM-15","LPSJ ","V020","999,9,V,0021,1","01350,1,C,N","011265,1,N,1","+0220,1","+0170,1","99999,9","04,5,+00900,1,99,9","07,5,+01350,1,99,9",,,"07,99,1,99,9,99,9,99999,9,99,9,99,9",,"10240,1,99999,9",,,,,,"MET095METAR LPSJ 270900Z VRB04KT 9999 SCT030 BKN045 22/17 Q1024 RMK WIND RWY13 VRB03KT RWY31 VRB02KT;",
"08509599999","2010-07-27T10:00:00","4","38.6655","-28.175817","94.79","SAO JORGE, PO","FM-15","LPSJ ","V020","999,9,V,0021,1","01350,1,C,N","011265,1,N,1","+0230,1","+0180,1","99999,9","04,5,+00900,1,99,9","07,5,+01350,1,99,9",,,"07,99,1,99,9,99,9,99999,9,99,9,99,9",,"10240,1,99999,9",,,,,,"MET095METAR LPSJ 271000Z VRB04KT 9999 SCT030 BKN045 23/18 Q1024 RMK WIND RWY13 VRB04KT RWY31 VRB03KT;",
"08509599999","2010-07-27T11:00:00","4","38.6655","-28.175817","94.79","SAO JORGE, PO","FM-15","LPSJ ","V020","280,1,N,0036,1","01500,1,C,N","011265,1,N,1","+0240,1","+0180,1","99999,9","04,5,+00750,1,99,9","07,5,+01500,1,99,9",,,"07,99,1,99,9,99,9,99999,9,99,9,99,9",,"10240,1,99999,9",,,,,,"MET095METAR LPSJ 271100Z 28007KT 9999 SCT025 BKN050 24/18 Q1024 RMK WIND RWY13 29004KT RWY31 27004KT;",
"08509599999","2010-07-27T12:00:00","4","38.6655","-28.175817","94.79","SAO JORGE, PO","FM-15","LPSJ ","V020","320,1,N,0031,1","01500,1,C,N","011265,1,N,1","+0240,1","+0190,1","99999,9","04,5,+00750,1,99,9","07,5,+01500,1,99,9",,,"07,99,1,99,9,99,9,99999,9,99,9,99,9",,"10240,1,99999,9",,,,,,"MET095METAR LPSJ 271200Z 32006KT 9999 SCT025 BKN050 24/19 Q1024 RMK WIND RWY13 33007KT RWY31 32007KT;",
"08509599999","2010-07-27T13:00:00","4","38.6655","-28.175817","94.79","SAO JORGE, PO","FM-15","LPSJ ","V020","999,9,V,0021,1","99999,9,C,N","011265,1,N,1","+0250,1","+0180,1","99999,9","04,5,+00750,1,99,9","04,5,+01500,1,99,9",,,"04,99,1,99,9,99,9,99999,9,99,9,99,9",,"10240,1,99999,9",,,,,,"MET095METAR LPSJ 271300Z VRB04KT 9999 SCT025 SCT050 25/18 Q1024 RMK WIND RWY13 VRB05KT RWY31 VRB04KT;","P01 015003SCOCIG"
"08509599999","2010-07-27T14:00:00","4","38.6655","-28.175817","94.79","SAO JORGE, PO","FM-15","LPSJ ","V020","999,9,V,0026,1","99999,9,C,N","011265,1,N,1","+0250,1","+0190,1","99999,9","04,5,+00540,1,99,9","04,5,+01200,1,99,9",,,"04,99,1,99,9,99,9,99999,9,99,9,99,9",,"10240,1,99999,9",,,,,,"MET095METAR LPSJ 271400Z VRB05KT 9999 SCT018 SCT040 25/19 Q1024 RMK WIND RWY13 VRB04KT RWY31 VRB03KT;","P01 012003SCOCIG"
"08509599999","2010-07-27T15:00:00","4","38.6655","-28.175817","94.79","SAO JORGE, PO","FM-15","LPSJ ","V020","270,1,N,0036,1","99999,9,C,N","011265,1,N,1","+0260,1","+0190,1","99999,9","04,5,+00750,1,99,9","04,5,+01200,1,99,9",,,"04,99,1,99,9,99,9,99999,9,99,9,99,9",,"10230,1,99999,9",,,,,,"MET095METAR LPSJ 271500Z 27007KT 9999 SCT025 SCT040 26/19 Q1023 RMK WIND RWY13 29006KT RWY31 26006KT;","P01 012003SCOCIG"
"08509599999","2010-07-27T16:00:00","4","38.6655","-28.175817","94.79","SAO JORGE, PO","FM-15","LPSJ ","V020","040,1,N,0041,1","99999,9,C,N","011265,1,N,1","+0260,1","+0180,1","99999,9","04,5,+00750,1,99,9","04,5,+01200,1,99,9",,,"04,99,1,99,9,99,9,99999,9,99,9,99,9",,"10230,1,99999,9",,,,,,"MET095METAR LPSJ 271600Z 04008KT 9999 SCT025 SCT040 26/18 Q1023 RMK WIND RWY13 04007KT RWY31 04011KT;","P01 012003SCOCIG"
"08509599999","2010-07-27T17:00:00","4","38.6655","-28.175817","94.79","SAO JORGE, PO","FM-15","LPSJ ","V020","999,9,V,0021,1","22000,1,9,N","011265,1,N,1","+0260,1","+0180,1","99999,9","04,5,+00750,1,99,9",,,,"04,99,1,99,9,99,9,99999,9,99,9,99,9",,"10230,1,99999,9",,,,,,"MET088METAR LPSJ 271700Z VRB04KT 9999 SCT025 26/18 Q1023 RMK WIND RWY13 VRB04KT RWY31 VRB04KT;",
"08509599999","2010-07-27T18:00:00","4","38.6655","-28.175817","94.79","SAO JORGE, PO","FM-15","LPSJ ","V020","150,1,N,0036,1","22000,1,9,N","011265,1,N,1","+0260,1","+0180,1","99999,9","04,5,+00750,1,99,9",,,,"04,99,1,99,9,99,9,99999,9,99,9,99,9",,"10230,1,99999,9",,,,,,"MET088METAR LPSJ 271800Z 15007KT 9999 SCT025 26/18 Q1023 RMK WIND RWY13 16005KT RWY31 16004KT;",
"08509599999","2010-07-28T09:00:00","4","38.6655","-28.175817","94.79","SAO JORGE, PO","FM-15","LPSJ ","V020","999,9,V,0010,1","22000,1,9,N","011265,1,N,1","+0220,1","+0180,1","99999,9","02,5,+00840,1,99,9",,,,"02,99,1,99,9,99,9,99999,9,99,9,99,9",,"10251,1,99999,9",,,,,,"MET088METAR LPSJ 280900Z VRB02KT 9999 FEW028 22/18 Q1025 RMK WIND RWY13 VRB02KT RWY31 VRB02KT;",
"08509599999","2010-07-28T10:00:00","4","38.6655","-28.175817","94.79","SAO JORGE, PO","FM-15","LPSJ ","V020","250,1,N,0015,1","22000,1,9,N","011265,1,N,1","+0230,1","+0180,1","99999,9","02,5,+00660,1,99,9",,,,"02,99,1,99,9,99,9,99999,9,99,9,99,9",,"10251,1,99999,9",,,,,,"MET088METAR LPSJ 281000Z 25003KT 9999 FEW022 23/18 Q1025 RMK WIND RWY13 27004KT RWY31 25003KT;",
"08509599999","2010-07-28T11:00:00","4","38.6655","-28.175817","94.79","SAO JORGE, PO","FM-15","LPSJ ","V020","999,9,V,0015,1","22000,1,9,N","011265,1,N,1","+0240,1","+0180,1","99999,9","04,5,+00750,1,99,9",,,,"04,99,1,99,9,99,9,99999,9,99,9,99,9",,"10251,1,99999,9",,,,,,"MET088METAR LPSJ 281100Z VRB03KT 9999 SCT025 24/18 Q1025 RMK WIND RWY13 VRB03KT RWY31 VRB03KT;",
"08509599999","2010-07-28T12:00:00","4","38.6655","-28.175817","94.79","SAO JORGE, PO","FM-15","LPSJ ","V020","999,9,V,0015,1","22000,1,9,N","011265,1,N,1","+0240,1","+0170,1","99999,9","04,5,+00750,1,99,9",,,,"04,99,1,99,9,99,9,99999,9,99,9,99,9",,"10251,1,99999,9",,,,,,"MET088METAR LPSJ 281200Z VRB03KT 9999 SCT025 24/17 Q1025 RMK WIND RWY13 VRB05KT RWY31 VRB03KT;",
"08509599999","2010-07-28T13:00:00","4","38.6655","-28.175817","94.79","SAO JORGE, PO","FM-15","LPSJ ","V020","999,9,V,0021,1","22000,1,9,N","011265,1,N,1","+0240,1","+0160,1","99999,9","04,5,+00750,1,99,9",,,,"04,99,1,99,9,99,9,99999,9,99,9,99,9",,"10251,1,99999,9",,,,,,"MET088METAR LPSJ 281300Z VRB04KT 9999 SCT025 24/16 Q1025 RMK WIND RWY13 VRB05KT RWY31 VRB03KT;",
"08509599999","2010-07-28T14:00:00","4","38.6655","-28.175817","94.79","SAO JORGE, PO","FM-15","LPSJ ","V020","999,9,V,0026,1","22000,1,9,N","011265,1,N,1","+0240,1","+0160,1","99999,9","04,5,+00900,1,99,9",,,,"04,99,1,99,9,99,9,99999,9,99,9,99,9",,"10251,1,99999,9",,,,,,"MET088METAR LPSJ 281400Z VRB05KT 9999 SCT030 24/16 Q1025 RMK WIND RWY13 VRB04KT RWY31 VRB05KT;",
"08509599999","2010-07-28T15:00:00","4","38.6655","-28.175817","94.79","SAO JORGE, PO","FM-15","LPSJ ","V020","999,9,V,0021,1","99999,9,C,N","011265,1,N,1","+0240,1","+0180,1","99999,9","04,5,+00750,1,99,9","04,5,+01200,1,99,9",,,"04,99,1,99,9,99,9,99999,9,99,9,99,9",,"10251,1,99999,9",,,,,,"MET095METAR LPSJ 281500Z VRB04KT 9999 SCT025 SCT040 24/18 Q1025 RMK WIND RWY13 VRB04KT RWY31 VRB04KT;","P01 012003SCOCIG"
"08509599999","2010-07-28T16:00:00","4","38.6655","-28.175817","94.79","SAO JORGE, PO","FM-15","LPSJ ","V020","999,9,V,0026,1","99999,9,C,N","011265,1,N,1","+0240,1","+0180,1","99999,9","04,5,+00750,1,99,9","04,5,+01200,1,99,9",,,"04,99,1,99,9,99,9,99999,9,99,9,99,9",,"10251,1,99999,9",,,,,,"MET095METAR LPSJ 281600Z VRB05KT 9999 SCT025 SCT040 24/18 Q1025 RMK WIND RWY13 VRB05KT RWY31 VRB04KT;","P01 012003SCOCIG"
"08509599999","2010-07-28T17:00:00","4","38.6655","-28.175817","94.79","SAO JORGE, PO","FM-15","LPSJ ","V020","020,1,N,0041,1","99999,9,C,N","011265,1,N,1","+0240,1","+0180,1","99999,9","04,5,+00600,1,99,9","04,5,+01050,1,99,9",,,"04,99,1,99,9,99,9,99999,9,99,9,99,9",,"10251,1,99999,9",,,,,,"MET090METAR LPSJ 281700Z 02008KT 9999 SCT020 SCT035 24/18 Q1025 RMK RWY13 03004KT RWY31 05006KT;","P01 010503SCOCIG"
"08509599999","2010-07-28T18:00:00","4","38.6655","-28.175817","94.79","SAO JORGE, PO","FM-15","LPSJ ","V020","110,1,N,0031,1","99999,9,C,N","011265,1,N,1","+0240,1","+0160,1","99999,9","04,5,+00750,1,99,9","04,5,+01200,1,99,9",,,"04,99,1,99,9,99,9,99999,9,99,9,99,9","999,M,+9999,9","10251,1,99999,9",,,,,,"MET095METAR LPSJ 281800Z 11006KT 9999 SCT025 SCT040 24/16 Q1025 RMK WIND RWY13 10005KT RWY31 11005KT;","Q01 -00052ATMX  P01 012003SCOCIG"
"08509599999","2010-07-29T09:00:00","4","38.6655","-28.175817","94.79","SAO JORGE, PO","FM-15","LPSJ ","V020","070,1,N,0031,1","01050,1,C,N","011265,1,N,1","+0220,1","+0160,1","99999,9","04,5,+00660,1,99,9","07,5,+01050,1,99,9",,,"07,99,1,99,9,99,9,99999,9,99,9,99,9",,"10240,1,99999,9",,,,,,"MET095METAR LPSJ 290900Z 07006KT 9999 SCT022 BKN035 22/16 Q1024 RMK WIND RWY13 07007KT RWY31 08007KT;",
"08509599999","2010-07-29T10:00:00","4","38.6655","-28.175817","94.79","SAO JORGE, PO","FM-15","LPSJ ","V020","060,1,N,0031,1","01200,1,C,N","011265,1,N,1","+0230,1","+0180,1","99999,9","02,5,+00750,1,99,9","07,5,+01200,1,99,9",,,"07,99,1,99,9,99,9,99999,9,99,9,99,9",,"10240,1,99999,9",,,,,,"MET095METAR LPSJ 291000Z 06006KT 9999 FEW025 BKN040 23/18 Q1024 RMK WIND RWY13 05009KT RWY31 04007KT;",
"08509599999","2010-07-29T11:00:00","4","38.6655","-28.175817","94.79","SAO JORGE, PO","FM-15","LPSJ ","V020","999,9,V,0021,1","01200,1,C,N","011265,1,N,1","+0230,1","+0160,1","99999,9","02,5,+00750,1,99,9","07,5,+01200,1,99,9",,,"07,99,1,99,9,99,9,99999,9,99,9,99,9",,"10240,1,99999,9",,,,,,"MET095METAR LPSJ 291100Z VRB04KT 9999 FEW025 BKN040 23/16 Q1024 RMK WIND RWY13 VRB03KT RWY31 VRB04KT;",
"08509599999","2010-07-29T12:00:00","4","38.6655","-28.175817","94.79","SAO JORGE, PO","FM-15","LPSJ ","V020","260,1,N,0021,1","01200,1,C,N","011265,1,N,1","+0240,1","+0170,1","99999,9","02,5,+00750,1,99,9","07,5,+01200,1,99,9",,,"07,99,1,99,9,99,9,99999,9,99,9,99,9",,"10240,1,99999,9",,,,,,"MET095METAR LPSJ 291200Z 26004KT 9999 FEW025 BKN040 24/17 Q1024 RMK WIND RWY13 26004KT RWY31 25003KT;",
"08509599999","2010-07-29T13:00:00","4","38.6655","-28.175817","94.79","SAO JORGE, PO","FM-15","LPSJ ","V020","999,9,V,0026,1","99999,9,C,N","011265,1,N,1","+0240,1","+0170,1","99999,9","04,5,+00900,1,99,9","04,5,+01200,1,99,9",,,"04,99,1,99,9,99,9,99999,9,99,9,99,9",,"10240,1,99999,9",,,,,,"MET095METAR LPSJ 291300Z VRB05KT 9999 SCT030 SCT040 24/17 Q1024 RMK WIND RWY13 VRB04KT RWY31 VRB03KT;","P01 012003SCOCIG"
"08509599999","2010-07-29T15:00:00","4","38.6655","-28.175817","94.79","SAO JORGE, PO","FM-15","LPSJ ","V020","999,9,V,0015,1","99999,9,C,N","011265,1,N,1","+0240,1","+0170,1","99999,9","04,5,+00810,1,99,9","04,5,+01200,1,99,9",,,"04,99,1,99,9,99,9,99999,9,99,9,99,9",,"10240,1,99999,9",,,,,,"MET095METAR LPSJ 291500Z VRB03KT 9999 SCT027 SCT040 24/17 Q1024 RMK WIND RWY13 VRB04KT RWY31 VRB02KT;","P01 012003SCOCIG"
"08509599999","2010-07-29T16:00:00","4","38.6655","-28.175817","94.79","SAO JORGE, PO","FM-15","LPSJ ","V020","999,9,V,0026,1","99999,9,C,N","011265,1,N,1","+0250,1","+0160,1","99999,9","02,5,+00900,1,99,9","04,5,+01200,1,99,9",,,"04,99,1,99,9,99,9,99999,9,99,9,99,9",,"10230,1,99999,9",,,,,,"MET095METAR LPSJ 291600Z VRB05KT 9999 FEW030 SCT040 25/16 Q1023 RMK WIND RWY13 VRB03KT RWY31 VRB06KT;","P01 012003SCOCIG"
"08509599999","2010-07-29T17:00:00","4","38.6655","-28.175817","94.79","SAO JORGE, PO","FM-15","LPSJ ","V020","999,9,V,0021,1","22000,1,9,N","011265,1,N,1","+0240,1","+0170,1","99999,9","04,5,+00900,1,99,9",,,,"04,99,1,99,9,99,9,99999,9,99,9,99,9",,"10230,1,99999,9",,,,,,"MET088METAR LPSJ 291700Z VRB04KT 9999 SCT030 24/17 Q1023 RMK WIND RWY13 VRB03KT RWY31 VRB03KT;",
"08509599999","2010-07-29T18:00:00","4","38.6655","-28.175817","94.79","SAO JORGE, PO","FM-15","LPSJ ","V020","999,9,V,0015,1","99999,9,C,N","011265,1,N,1","+0240,1","+0170,1","99999,9","04,5,+00810,1,99,9","04,5,+01200,1,99,9",,,"04,99,1,99,9,99,9,99999,9,99,9,99,9",,"10230,1,99999,9",,,,,,"MET095METAR LPSJ 291800Z VRB03KT 9999 SCT027 SCT040 24/17 Q1023 RMK WIND RWY13 VRB04KT RWY31 VRB03KT;","P01 012003SCOCIG"
"08509599999","2010-07-30T09:00:00","4","38.6655","-28.175817","94.79","SAO JORGE, PO","FM-15","LPSJ ","V020","999,9,V,0021,1","00900,1,C,N","011265,1,N,1","+0210,1","+0170,1","99999,9","04,5,+00540,1,99,9","07,5,+00900,1,99,9",,,"07,99,1,99,9,99,9,99999,9,99,9,99,9",,"10230,1,99999,9",,,,,,"MET095METAR LPSJ 300900Z VRB04KT 9999 SCT018 BKN030 21/17 Q1023 RMK WIND RWY13 VRB04KT RWY31 VRB03KT;",
"08509599999","2010-07-30T10:00:00","4","38.6655","-28.175817","94.79","SAO JORGE, PO","FM-15","LPSJ ","V020","999,9,V,0021,1","00900,1,C,N","011265,1,N,1","+0220,1","+0180,1","99999,9","04,5,+00540,1,99,9","07,5,+00900,1,99,9",,,"07,99,1,99,9,99,9,99999,9,99,9,99,9",,"10230,1,99999,9",,,,,,"MET095METAR LPSJ 301000Z VRB04KT 9999 SCT018 BKN030 22/18 Q1023 RMK WIND RWY13 VRB03KT RWY31 VRB03KT;",
"08509599999","2010-07-30T11:00:00","4","38.6655","-28.175817","94.79","SAO JORGE, PO","FM-15","LPSJ ","V020","999,9,V,0021,1","00900,1,C,N","011265,1,N,1","+0220,1","+0180,1","99999,9","04,5,+00540,1,99,9","07,5,+00900,1,99,9",,,"07,99,1,99,9,99,9,99999,9,99,9,99,9",,"10230,1,99999,9",,,,,,"MET095METAR LPSJ 301100Z VRB04KT 9999 SCT018 BKN030 22/18 Q1023 RMK WIND RWY13 VRB04KT RWY31 VRB04KT;",
"08509599999","2010-07-30T12:00:00","4","38.6655","-28.175817","94.79","SAO JORGE, PO","FM-15","LPSJ ","V020","999,9,V,0026,1","00900,1,C,N","011265,1,N,1","+0230,1","+0180,1","99999,9","04,5,+00480,1,99,9","07,5,+00900,1,99,9",,,"07,99,1,99,9,99,9,99999,9,99,9,99,9",,"10230,1,99999,9",,,,,,"MET095METAR LPSJ 301200Z VRB05KT 9999 SCT016 BKN030 23/18 Q1023 RMK WIND RWY13 VRB04KT RWY31 VRB03KT;",
"08509599999","2010-07-30T13:00:00","4","38.6655","-28.175817","94.79","SAO JORGE, PO","FM-15","LPSJ ","V020","080,1,N,0031,1","99999,9,C,N","011265,1,N,1","+0240,1","+0170,1","99999,9","04,5,+00600,1,99,9","04,5,+00900,1,99,9",,,"04,99,1,99,9,99,9,99999,9,99,9,99,9",,"10230,1,99999,9",,,,,,"MET095METAR LPSJ 301300Z 08006KT 9999 SCT020 SCT030 24/17 Q1023 RMK WIND RWY13 09007KT RWY31 08007KT;","P01 009003SCOCIG"
"08509599999","2010-07-30T14:00:00","4","38.6655","-28.175817","94.79","SAO JORGE, PO","FM-15","LPSJ ","V020","999,9,V,0021,1","22000,1,9,N","011265,1,N,1","+0250,1","+0160,1","99999,9","04,5,+00900,1,99,9",,,,"04,99,1,99,9,99,9,99999,9,99,9,99,9",,"10220,1,99999,9",,,,,,"MET088METAR LPSJ 301400Z VRB04KT 9999 SCT030 25/16 Q1022 RMK WIND RWY13 VRB05KT RWY31 VRB05KT;",
"08509599999","2010-07-30T15:00:00","4","38.6655","-28.175817","94.79","SAO JORGE, PO","FM-15","LPSJ ","V020","090,1,N,0036,1","22000,1,9,N","011265,1,N,1","+0250,1","+0150,1","99999,9","04,5,+00900,1,99,9",,,,"04,99,1,99,9,99,9,99999,9,99,9,99,9",,"10220,1,99999,9",,,,,,"MET088METAR LPSJ 301500Z 09007KT 9999 SCT030 25/15 Q1022 RMK WIND RWY13 08010KT RWY31 09005KT;",
"08509599999","2010-07-30T16:00:00","4","38.6655","-28.175817","94.79","SAO JORGE, PO","FM-15","LPSJ ","V020","999,9,V,0026,1","22000,1,9,N","011265,1,N,1","+0260,1","+0160,1","99999,9","04,5,+00750,1,99,9",,,,"04,99,1,99,9,99,9,99999,9,99,9,99,9",,"10220,1,99999,9",,,,,,"MET088METAR LPSJ 301600Z VRB05KT 9999 SCT025 26/16 Q1022 RMK WIND RWY13 VRB07KT RWY31 VRB05KT;",
"08509599999","2010-07-30T17:00:00","4","38.6655","-28.175817","94.79","SAO JORGE, PO","FM-15","LPSJ ","V020","050,1,N,0031,1","99999,9,C,N","011265,1,N,1","+0250,1","+0160,1","99999,9","04,5,+00480,1,99,9","04,5,+00900,1,99,9",,,"04,99,1,99,9,99,9,99999,9,99,9,99,9",,"10220,1,99999,9",,,,,,"MET095METAR LPSJ 301700Z 05006KT 9999 SCT016 SCT030 25/16 Q1022 RMK WIND RWY13 06008KT RWY31 05009KT;","P01 009003SCOCIG"
"08509599999","2010-07-30T18:00:00","4","38.6655","-28.175817","94.79","SAO JORGE, PO","FM-15","LPSJ ","V020","090,1,N,0026,1","99999,9,C,N","011265,1,N,1","+0250,1","+0170,1","99999,9","04,5,+00480,1,99,9","04,5,+00750,1,99,9",,,"04,99,1,99,9,99,9,99999,9,99,9,99,9",,"10230,1,99999,9",,,,,,"MET095METAR LPSJ 301800Z 09005KT 9999 SCT016 SCT025 25/17 Q1023 RMK WIND RWY13 10007KT RWY31 09007KT;","P01 007503SCOCIG"
"08509599999","2010-07-31T09:00:00","4","38.6655","-28.175817","94.79","SAO JORGE, PO","FM-15","LPSJ ","V020","999,9,C,0000,1","22000,1,9,N","011265,1,N,1","+0210,1","+0180,1","99999,9","04,5,+00480,1,99,9",,,,"04,99,1,99,9,99,9,99999,9,99,9,99,9",,"10251,1,99999,9",,,,,,"MET088METAR LPSJ 310900Z 00000KT 9999 SCT016 21/18 Q1025 RMK WIND RWY13 00000KT RWY31 00000KT;",
"08509599999","2010-07-31T10:00:00","4","38.6655","-28.175817","94.79","SAO JORGE, PO","FM-15","LPSJ ","V020","999,9,V,0015,1","22000,1,9,N","011265,1,N,1","+0220,1","+0180,1","99999,9","04,5,+00480,1,99,9",,,,"04,99,1,99,9,99,9,99999,9,99,9,99,9",,"10251,1,99999,9",,,,,,"MET088METAR LPSJ 311000Z VRB03KT 9999 SCT016 22/18 Q1025 RMK WIND RWY13 VRB04KT RWY31 VRB02KT;",
"08509599999","2010-07-31T11:00:00","4","38.6655","-28.175817","94.79","SAO JORGE, PO","FM-15","LPSJ ","V020","999,9,V,0021,1","22000,1,9,N","011265,1,N,1","+0230,1","+0180,1","99999,9","04,5,+00900,1,99,9",,,,"04,99,1,99,9,99,9,99999,9,99,9,99,9",,"10261,1,99999,9",,,,,,"MET088METAR LPSJ 311100Z VRB04KT 9999 SCT030 23/18 Q1026 RMK WIND RWY13 VRB04KT RWY31 VRB03KT;",
"08509599999","2010-07-31T12:00:00","4","38.6655","-28.175817","94.79","SAO JORGE, PO","FM-15","LPSJ ","V020","999,9,V,0021,1","22000,1,9,N","011265,1,N,1","+0230,1","+0180,1","99999,9","04,5,+00900,1,99,9",,,,"04,99,1,99,9,99,9,99999,9,99,9,99,9",,"10261,1,99999,9",,,,,,"MET088METAR LPSJ 311200Z VRB04KT 9999 SCT030 23/18 Q1026 RMK WIND RWY13 VRB04KT RWY31 VRB04KT;",
"08509599999","2010-07-31T13:00:00","4","38.6655","-28.175817","94.79","SAO JORGE, PO","FM-15","LPSJ ","V020","080,1,N,0041,1","99999,9,C,N","011265,1,N,1","+0240,1","+0150,1","99999,9","04,5,+00900,1,99,9","04,5,+01200,1,99,9",,,"04,99,1,99,9,99,9,99999,9,99,9,99,9",,"10261,1,99999,9",,,,,,"MET095METAR LPSJ 311300Z 08008KT 9999 SCT030 SCT040 24/15 Q1026 RMK WIND RWY13 07006KT RWY31 08009KT;","P01 012003SCOCIG"
"08509599999","2010-07-31T14:00:00","4","38.6655","-28.175817","94.79","SAO JORGE, PO","FM-15","LPSJ ","V020","060,1,N,0031,1","99999,9,C,N","011265,1,N,1","+0250,1","+0150,1","99999,9","04,5,+00900,1,99,9","04,5,+01200,1,99,9",,,"04,99,1,99,9,99,9,99999,9,99,9,99,9",,"10271,1,99999,9",,,,,,"MET095METAR LPSJ 311400Z 06006KT 9999 SCT030 SCT040 25/15 Q1027 RMK WIND RWY13 07007KT RWY31 06008KT;","P01 012003SCOCIG"
"08509599999","2010-07-31T15:00:00","4","38.6655","-28.175817","94.79","SAO JORGE, PO","FM-15","LPSJ ","V020","010,1,N,0031,1","99999,9,C,N","011265,1,N,1","+0250,1","+0150,1","99999,9","04,5,+00750,1,99,9","04,5,+01200,1,99,9",,,"04,99,1,99,9,99,9,99999,9,99,9,99,9",,"10271,1,99999,9",,,,,,"MET095METAR LPSJ 311500Z 01006KT 9999 SCT025 SCT040 25/15 Q1027 RMK WIND RWY13 06008KT RWY31 01007KT;","P01 012003SCOCIG"
"08509599999","2010-07-31T16:00:00","4","38.6655","-28.175817","94.79","SAO JORGE, PO","FM-15","LPSJ ","V020","050,1,N,0036,1","99999,9,C,N","011265,1,N,1","+0260,1","+0160,1","99999,9","04,5,+00750,1,99,9","04,5,+01200,1,99,9",,,"04,99,1,99,9,99,9,99999,9,99,9,99,9",,"10261,1,99999,9",,,,,,"MET095METAR LPSJ 311600Z 05007KT 9999 SCT025 SCT040 26/16 Q1026 RMK WIND RWY13 06009KT RWY31 04009KT;","P01 012003SCOCIG"
"08509599999","2010-07-31T17:00:00","4","38.6655","-28.175817","94.79","SAO JORGE, PO","FM-15","LPSJ ","V020","100,1,N,0041,1","99999,9,C,N","011265,1,N,1","+0240,1","+0150,1","99999,9","04,5,+00750,1,99,9","04,5,+01200,1,99,9",,,"04,99,1,99,9,99,9,99999,9,99,9,99,9","999,M,+9999,9","10261,1,99999,9",,,,,,"MET095METAR LPSJ 311700Z 10008KT 9999 SCT025 SCT040 24/15 Q1026 RMK WIND RWY13 10007KT RWY31 10011KT;","Q01 +00112ATMX  P01 012003SCOCIG"
"08509599999","2010-07-31T18:00:00","4","38.6655","-28.175817","94.79","SAO JORGE, PO","FM-15","LPSJ ","V020","090,1,N,0036,1","99999,9,C,N","011265,1,N,1","+0230,1","+0160,1","99999,9","04,5,+00540,1,99,9","04,5,+01050,1,99,9",,,"04,99,1,99,9,99,9,99999,9,99,9,99,9",,"10261,1,99999,9",,,,,,"MET095METAR LPSJ 311800Z 09007KT 9999 SCT018 SCT035 23/16 Q1026 RMK WIND RWY13 10008KT RWY31 09007KT;","P01 010503SCOCIG"
"08509599999","2010-08-01T09:00:00","4","38.6655","-28.175817","94.79","SAO JORGE, PO","FM-15","LPSJ ","V020","110,1,N,0026,1","99999,9,C,N","011265,1,N,1","+0210,1","+0170,1","99999,9","04,5,+00480,1,99,9","04,5,+00750,1,99,9",,,"04,99,1,99,9,99,9,99999,9,99,9,99,9","999,M,+9999,9","10291,1,99999,9",,,,,,"MET095METAR LPSJ 010900Z 11005KT 9999 SCT016 SCT025 21/17 Q1029 RMK WIND RWY13 10006KT RWY31 11005KT;","Q01 -00052ATMX  P01 007503SCOCIG"
"08509599999","2010-08-01T10:00:00","4","38.6655","-28.175817","94.79","SAO JORGE, PO","FM-15","LPSJ ","V020","050,1,N,0031,1","99999,9,C,N","011265,1,N,1","+0220,1","+0180,1","99999,9","04,5,+00480,1,99,9","04,5,+00750,1,99,9",,,"04,99,1,99,9,99,9,99999,9,99,9,99,9",,"10301,1,99999,9",,,,,,"MET095METAR LPSJ 011000Z 05006KT 9999 SCT016 SCT025 22/18 Q1030 RMK WIND RWY13 06008KT RWY31 05009KT;","P01 007503SCOCIG"
"08509599999","2010-08-01T11:00:00","4","38.6655","-28.175817","94.79","SAO JORGE, PO","FM-15","LPSJ ","V020","999,9,V,0021,1","22000,1,9,N","011265,1,N,1","+0230,1","+0170,1","99999,9","04,5,+00480,1,99,9",,,,"04,99,1,99,9,99,9,99999,9,99,9,99,9",,"10301,1,99999,9",,,,,,"MET088METAR LPSJ 011100Z VRB04KT 9999 SCT016 23/17 Q1030 RMK WIND RWY13 VRB05KT RWY31 VRB04KT;",
"08509599999","2010-08-01T12:00:00","4","38.6655","-28.175817","94.79","SAO JORGE, PO","FM-15","LPSJ ","V020","040,1,N,0036,1","22000,1,9,N","011265,1,N,1","+0230,1","+0170,1","99999,9","04,5,+00540,1,99,9",,,,"04,99,1,99,9,99,9,99999,9,99,9,99,9",,"10301,1,99999,9",,,,,,"MET088METAR LPSJ 011200Z 04007KT 9999 SCT018 23/17 Q1030 RMK WIND RWY13 05007KT RWY31 05008KT;",
"08509599999","2010-08-01T13:00:00","4","38.6655","-28.175817","94.79","SAO JORGE, PO","FM-15","LPSJ ","V020","999,9,V,0021,1","22000,1,9,N","011265,1,N,1","+0240,1","+0170,1","99999,9","04,5,+00540,1,99,9",,,,"04,99,1,99,9,99,9,99999,9,99,9,99,9",,"10301,1,99999,9",,,,,,"MET088METAR LPSJ 011300Z VRB04KT 9999 SCT018 24/17 Q1030 RMK WIND RWY13 VRB07KT RWY31 VRB05KT;",
"08509599999","2010-08-01T14:00:00","4","38.6655","-28.175817","94.79","SAO JORGE, PO","FM-15","LPSJ ","V020","060,1,N,0036,1","22000,1,9,N","011265,1,N,1","+0250,1","+0170,1","99999,9","04,5,+00600,1,99,9",,,,"04,99,1,99,9,99,9,99999,9,99,9,99,9",,"10301,1,99999,9",,,,,,"MET088METAR LPSJ 011400Z 06007KT 9999 SCT020 25/17 Q1030 RMK WIND RWY13 06007KT RWY31 05008KT;",
"08509599999","2010-08-01T15:00:00","4","38.6655","-28.175817","94.79","SAO JORGE, PO","FM-15","LPSJ ","V020","180,1,N,0026,1","22000,1,9,N","011265,1,N,1","+0250,1","+0180,1","99999,9","04,5,+00900,1,99,9",,,,"04,99,1,99,9,99,9,99999,9,99,9,99,9",,"10301,1,99999,9",,,,,,"MET088METAR LPSJ 011500Z 18005KT 9999 SCT030 25/18 Q1030 RMK WIND RWY13 18005KT RWY31 18004KT;",
"08509599999","2010-08-01T16:00:00","4","38.6655","-28.175817","94.79","SAO JORGE, PO","FM-15","LPSJ ","V020","060,1,N,0036,1","99999,9,C,N","011265,1,N,1","+0240,1","+0180,1","99999,9","04,5,+00540,1,99,9","04,5,+00900,1,99,9",,,"04,99,1,99,9,99,9,99999,9,99,9,99,9",,"10301,1,99999,9",,,,,,"MET095METAR LPSJ 011600Z 06007KT 9999 SCT018 SCT030 24/18 Q1030 RMK WIND RWY13 05009KT RWY31 05008KT;","P01 009003SCOCIG"
"08509599999","2010-08-01T17:00:00","4","38.6655","-28.175817","94.79","SAO JORGE, PO","FM-15","LPSJ ","V020","999,9,V,0026,1","99999,9,C,N","011265,1,N,1","+0240,1","+0180,1","99999,9","04,5,+00540,1,99,9","04,5,+00900,1,99,9",,,"04,99,1,99,9,99,9,99999,9,99,9,99,9",,"10301,1,99999,9",,,,,,"MET095METAR LPSJ 011700Z VRB05KT 9999 SCT018 SCT030 24/18 Q1030 RMK WIND RWY13 VRB05KT RWY31 VRB04KT;","P01 009003SCOCIG"
"08509599999","2010-08-01T18:00:00","4","38.6655","-28.175817","94.79","SAO JORGE, PO","FM-15","LPSJ ","V020","999,9,V,0026,1","99999,9,C,N","011265,1,N,1","+0230,1","+0180,1","99999,9","04,5,+00480,1,99,9","04,5,+00750,1,99,9",,,"04,99,1,99,9,99,9,99999,9,99,9,99,9",,"10301,1,99999,9",,,,,,"MET095METAR LPSJ 011800Z VRB05KT 9999 SCT016 SCT025 23/18 Q1030 RMK WIND RWY13 VRB05KT RWY31 VRB05KT;","P01 007503SCOCIG"
"08509599999","2010-08-02T09:00:00","4","38.6655","-28.175817","94.79","SAO JORGE, PO","FM-15","LPSJ ","V020","060,1,N,0036,1","99999,9,C,N","011265,1,N,1","+0220,1","+0160,1","99999,9","04,5,+00480,1,99,9","04,5,+00750,1,99,9",,,"04,99,1,99,9,99,9,99999,9,99,9,99,9",,"10312,1,99999,9",,,,,,"MET095METAR LPSJ 020900Z 06007KT 9999 SCT016 SCT025 22/16 Q1031 RMK WIND RWY13 08006KT RWY31 07010KT;","P01 007503SCOCIG"
"08509599999","2010-08-02T10:00:00","4","38.6655","-28.175817","94.79","SAO JORGE, PO","FM-15","LPSJ ","V020","060,1,N,0036,1","99999,9,C,N","011265,1,N,1","+0220,1","+0160,1","99999,9","04,5,+00480,1,99,9","04,5,+00810,1,99,9",,,"04,99,1,99,9,99,9,99999,9,99,9,99,9",,"10318,1,99999,9",,,,,,"MET095METAR LPSJ 021000Z 06007KT 9999 SCT016 SCT027 22/16 Q1032 RMK WIND RWY13 06011KT RWY31 05010KT;","P01 008103SCOCIG"
"08509599999","2010-08-02T11:00:00","4","38.6655","-28.175817","94.79","SAO JORGE, PO","FM-15","LPSJ ","V020","060,1,N,0046,1","99999,9,C,N","011265,1,N,1","+0220,1","+0160,1","99999,9","04,5,+00540,1,99,9","04,5,+00900,1,99,9",,,"04,99,1,99,9,99,9,99999,9,99,9,99,9",,"10318,1,99999,9",,,,,,"MET095METAR LPSJ 021100Z 06009KT 9999 SCT018 SCT030 22/16 Q1032 RMK WIND RWY13 08009KT RWY31 07011KT;","P01 009003SCOCIG"
"08509599999","2010-08-02T12:00:00","4","38.6655","-28.175817","94.79","SAO JORGE, PO","FM-15","LPSJ ","V020","060,1,N,0046,1","99999,9,C,N","011265,1,N,1","+0230,1","+0160,1","99999,9","04,5,+00540,1,99,9","04,5,+00900,1,99,9",,,"04,99,1,99,9,99,9,99999,9,99,9,99,9",,"10318,1,99999,9",,,,,,"MET095METAR LPSJ 021200Z 06009KT 9999 SCT018 SCT030 23/16 Q1032 RMK WIND RWY13 07012KT RWY31 07009KT;","P01 009003SCOCIG"
"08509599999","2010-08-02T13:00:00","4","38.6655","-28.175817","94.79","SAO JORGE, PO","FM-15","LPSJ ","V020","050,1,N,0036,1","99999,9,C,N","011265,1,N,1","+0220,1","+0160,1","99999,9","04,5,+00540,1,99,9","04,5,+00900,1,99,9",,,"04,99,1,99,9,99,9,99999,9,99,9,99,9",,"10318,1,99999,9",,,,,,"MET095METAR LPSJ 021300Z 05007KT 9999 SCT018 SCT030 22/16 Q1032 RMK WIND RWY13 07010KT RWY31 06009KT;","P01 009003SCOCIG"
"08509599999","2010-08-02T14:00:00","4","38.6655","-28.175817","94.79","SAO JORGE, PO","FM-15","LPSJ ","V020","080,1,N,0041,1","99999,9,C,N","011265,1,N,1","+0240,1","+0150,1","99999,9","04,5,+00660,1,99,9","04,5,+01050,1,99,9",,,"04,99,1,99,9,99,9,99999,9,99,9,99,9",,"10312,1,99999,9",,,,,,"MET095METAR LPSJ 021400Z 08008KT 9999 SCT022 SCT035 24/15 Q1031 RMK WIND RWY13 10007KT RWY31 08012KT;","P01 010503SCOCIG"
"08509599999","2010-08-02T15:00:00","4","38.6655","-28.175817","94.79","SAO JORGE, PO","FM-15","LPSJ ","V020","060,1,N,0046,1","99999,9,C,N","011265,1,N,1","+0240,1","+0160,1","99999,9","04,5,+00750,1,99,9","04,5,+01050,1,99,9",,,"04,99,1,99,9,99,9,99999,9,99,9,99,9",,"10312,1,99999,9",,,,,,"MET095METAR LPSJ 021500Z 06009KT 9999 SCT025 SCT035 24/16 Q1031 RMK WIND RWY13 08010KT RWY31 07011KT;","P01 010503SCOCIG"
"08509599999","2010-08-02T17:00:00","4","38.6655","-28.175817","94.79","SAO JORGE, PO","FM-15","LPSJ ","V020","060,1,N,0036,1","99999,9,C,N","011265,1,N,1","+0230,1","+0170,1","99999,9","04,5,+00480,1,99,9","04,5,+00900,1,99,9",,,"04,99,1,99,9,99,9,99999,9,99,9,99,9",,"10312,1,99999,9",,,,,,"MET095METAR LPSJ 021700Z 06007KT 9999 SCT016 SCT030 23/17 Q1031 RMK WIND RWY13 08008KT RWY31 07006KT;","P01 009003SCOCIG"
"08509599999","2010-08-02T18:00:00","4","38.6655","-28.175817","94.79","SAO JORGE, PO","FM-15","LPSJ ","V020","070,1,N,0036,1","99999,9,C,N","011265,1,N,1","+0220,1","+0170,1","99999,9","04,5,+00480,1,99,9","04,5,+00900,1,99,9",,,"04,99,1,99,9,99,9,99999,9,99,9,99,9",,"10312,1,99999,9",,,,,,"MET095METAR LPSJ 021800Z 07007KT 9999 SCT016 SCT030 22/17 Q1031 RMK WIND RWY13 09012KT RWY31 07009KT;","P01 009003SCOCIG"
"08509599999","2010-08-03T09:00:00","4","38.6655","-28.175817","94.79","SAO JORGE, PO","FM-15","LPSJ ","V020","080,1,N,0057,1","99999,9,C,N","011265,1,N,1","+0210,1","+0160,1","99999,9","04,5,+00510,1,99,9","04,5,+00750,1,99,9",,,"04,99,1,99,9,99,9,99999,9,99,9,99,9",,"10301,1,99999,9",,,,,,"MET095METAR LPSJ 030900Z 08011KT 9999 SCT017 SCT025 21/16 Q1030 RMK WIND RWY13 09010KT RWY31 08011KT;","P01 007503SCOCIG"
"08509599999","2010-08-03T10:00:00","4","38.6655","-28.175817","94.79","SAO JORGE, PO","FM-15","LPSJ ","V020","090,1,N,0036,1","99999,9,C,N","011265,1,N,1","+0210,1","+0160,1","99999,9","04,5,+00510,1,99,9","04,5,+00810,1,99,9",,,"04,99,1,99,9,99,9,99999,9,99,9,99,9","999,M,+9999,9","10301,1,99999,9",,,,,,"MET095METAR LPSJ 031000Z 09007KT 9999 SCT017 SCT027 21/16 Q1030 RMK WIND RWY13 11006KT RWY31 11004KT;","Q01 -00042ATMX  P01 008103SCOCIG"
"08509599999","2010-08-03T11:00:00","4","38.6655","-28.175817","94.79","SAO JORGE, PO","FM-15","LPSJ ","V020","080,1,N,0036,1","99999,9,C,N","011265,1,N,1","+0220,1","+0160,1","99999,9","04,5,+00540,1,99,9","04,5,+00900,1,99,9",,,"04,99,1,99,9,99,9,99999,9,99,9,99,9","999,M,+9999,9","10301,1,99999,9",,,,,,"MET081METAR LPSJ 031100Z 08007KT 9999 SCT018 SCT030 22/16 Q1030 RMK WIND RWY13 11006KT;","Q01 -00062ATMX  P01 009003SCOCIG"
"08509599999","2010-08-03T12:00:00","4","38.6655","-28.175817","94.79","SAO JORGE, PO","FM-15","LPSJ ","V020","080,1,N,0041,1","22000,1,9,N","011265,1,N,1","+0220,1","+0160,1","99999,9","04,5,+00540,1,99,9",,,,"04,99,1,99,9,99,9,99999,9,99,9,99,9",,"10301,1,99999,9",,,,,,"MET088METAR LPSJ 031200Z 08008KT 9999 SCT018 22/16 Q1030 RMK WIND RWY13 08010KT RWY31 07010KT;",
"08509599999","2010-08-03T13:00:00","4","38.6655","-28.175817","94.79","SAO JORGE, PO","FM-15","LPSJ ","V020","070,1,N,0031,1","99999,9,C,N","011265,1,N,1","+0220,1","+0170,1","99999,9","04,5,+00540,1,99,9","04,5,+00900,1,99,9",,,"04,99,1,99,9,99,9,99999,9,99,9,99,9",,"10301,1,99999,9",,,,,,"MET095METAR LPSJ 031300Z 07006KT 9999 SCT018 SCT030 22/17 Q1030 RMK WIND RWY13 08007KT RWY31 08009KT;","P01 009003SCOCIG"
"08509599999","2010-08-03T14:00:00","4","38.6655","-28.175817","94.79","SAO JORGE, PO","FM-15","LPSJ ","V020","080,1,N,0031,1","99999,9,C,N","011265,1,N,1","+0220,1","+0170,1","99999,9","04,5,+00540,1,99,9","04,5,+00900,1,99,9",,,"04,99,1,99,9,99,9,99999,9,99,9,99,9",,"10291,1,99999,9",,,,,,"MET095METAR LPSJ 031400Z 08006KT 9999 SCT018 SCT030 22/17 Q1029 RMK WIND RWY13 08008KT RWY31 09008KT;","P01 009003SCOCIG"
"08509599999","2010-08-03T15:00:00","4","38.6655","-28.175817","94.79","SAO JORGE, PO","FM-15","LPSJ ","V020","080,1,N,0026,1","99999,9,C,N","011265,1,N,1","+0220,1","+0180,1","99999,9","04,5,+00480,1,99,9","04,5,+00900,1,99,9",,,"04,99,1,99,9,99,9,99999,9,99,9,99,9",,"10291,1,99999,9","80,1",,,,,"MET101METAR LPSJ 031500Z 08005KT 9999 -SHRA SCT016 SCT030 22/18 Q1029 RMK WIND RWY13 10008KT RWY31 08006KT;","P01 009003SCOCIG"
"08509599999","2010-08-03T16:00:00","4","38.6655","-28.175817","94.79","SAO JORGE, PO","FM-15","LPSJ ","V020","080,1,N,0026,1","22000,1,9,N","011265,1,N,1","+0220,1","+0180,1","99999,9","04,5,+00480,1,99,9",,,,"04,99,1,99,9,99,9,99999,9,99,9,99,9",,"10291,1,99999,9",,,,,,"MET088METAR LPSJ 031600Z 08005KT 9999 SCT016 22/18 Q1029 RMK WIND RWY13 10006KT RWY31 09006KT;",
"08509599999","2010-08-03T17:00:00","4","38.6655","-28.175817","94.79","SAO JORGE, PO","FM-15","LPSJ ","V020","999,9,9,9999,9","00900,5,9,N","011265,1,N,1","+0220,1","+0180,1","99999,9","04,5,+00480,5,99,9","04,5,+00900,5,99,9",,,,,"10280,1,99999,9",,,,,,"MET100METAR LPSJ 031700Z 0907KT 9999 -SHRA SCT016 SCT030 22/18 Q1028 RMK WIND RWY13 11009KT RWY31 09012KT;",
"08509599999","2010-08-03T18:00:00","4","38.6655","-28.175817","94.79","SAO JORGE, PO","FM-15","LPSJ ","V020","060,1,N,0036,1","99999,9,C,N","011265,1,N,1","+0210,1","+0180,1","99999,9","04,5,+00480,1,99,9","04,5,+00810,1,99,9",,,"04,99,1,99,9,99,9,99999,9,99,9,99,9",,"10281,1,99999,9",,,,,,"MET095METAR LPSJ 031800Z 06007KT 9999 SCT016 SCT027 21/18 Q1028 RMK WIND RWY13 09009KT RWY31 07009KT;","P01 008103SCOCIG"
"08509599999","2010-08-04T09:00:00","4","38.6655","-28.175817","94.79","SAO JORGE, PO","FM-15","LPSJ ","V020","999,9,V,0021,1","99999,9,C,N","011265,1,N,1","+0200,1","+0170,1","99999,9","04,5,+00480,1,99,9","04,5,+00750,1,99,9",,,"04,99,1,99,9,99,9,99999,9,99,9,99,9",,"10271,1,99999,9",,,,,,"MET095METAR LPSJ 040900Z VRB04KT 9999 SCT016 SCT025 20/17 Q1027 RMK WIND RWY13 VRB03KT RWY31 VRB03KT;","P01 007503SCOCIG"
"08509599999","2010-08-04T10:00:00","4","38.6655","-28.175817","94.79","SAO JORGE, PO","FM-15","LPSJ ","V020","999,9,V,0021,1","99999,9,C,N","011265,1,N,1","+0200,1","+0180,1","99999,9","04,5,+00480,1,99,9","04,5,+00900,1,99,9",,,"04,99,1,99,9,99,9,99999,9,99,9,99,9",,"10271,1,99999,9",,,,,,"MET095METAR LPSJ 041000Z VRB04KT 9999 SCT016 SCT030 20/18 Q1027 RMK WIND RWY13 VRB04KT RWY31 VRB03KT;","P01 009003SCOCIG"
"08509599999","2010-08-04T11:00:00","4","38.6655","-28.175817","94.79","SAO JORGE, PO","FM-15","LPSJ ","V020","999,9,V,0021,1","00900,1,C,N","011265,1,N,1","+0210,1","+0180,1","99999,9","04,5,+00480,1,99,9","07,5,+00900,1,99,9",,,"07,99,1,99,9,99,9,99999,9,99,9,99,9",,"10271,1,99999,9","80,1",,,,,"MET101METAR LPSJ 041100Z VRB04KT 9999 -SHRA SCT016 BKN030 21/18 Q1027 RMK WIND RWY13 VRB03KT RWY31 VRB02KT;",
"08509599999","2010-08-04T12:00:00","4","38.6655","-28.175817","94.79","SAO JORGE, PO","FM-15","LPSJ ","V020","999,9,V,0021,1","00900,1,C,N","011265,1,N,1","+0220,1","+0190,1","99999,9","04,5,+00450,1,99,9","07,5,+00900,1,99,9",,,"07,99,1,99,9,99,9,99999,9,99,9,99,9",,"10261,1,99999,9",,,,,,"MET095METAR LPSJ 041200Z VRB04KT 9999 SCT015 BKN030 22/19 Q1026 RMK WIND RWY13 VRB04KT RWY13 VRB04KT;",
"08509599999","2010-08-04T13:00:00","4","38.6655","-28.175817","94.79","SAO JORGE, PO","FM-15","LPSJ ","V020","999,9,V,0026,1","99999,9,C,N","011265,1,N,1","+0220,1","+0190,1","99999,9","04,5,+00480,1,99,9","04,5,+00900,1,99,9",,,"04,99,1,99,9,99,9,99999,9,99,9,99,9",,"10271,1,99999,9",,,,,,"MET095METAR LPSJ 041300Z VRB05KT 9999 SCT016 SCT030 22/19 Q1027 RMK WIND RWY13 VRB04KT RWY31 VRB03KT;","P01 009003SCOCIG"
"08509599999","2010-08-04T14:00:00","4","38.6655","-28.175817","94.79","SAO JORGE, PO","FM-15","LPSJ ","V020","999,9,V,0010,1","99999,9,C,N","011265,1,N,1","+0220,1","+0180,1","99999,9","04,5,+00480,1,99,9","04,5,+00900,1,99,9",,,"04,99,1,99,9,99,9,99999,9,99,9,99,9",,"10261,1,99999,9","16,1",,,,,"MET100METAR LPSJ 041400Z VRB02KT 9999 VCSH SCT016 SCT030 22/18 Q1026 RMK WIND RWY13 VRB02KT RWY31 VRB02KT;","P01 009003SCOCIG"
"08509599999","2010-08-04T15:00:00","4","38.6655","-28.175817","94.79","SAO JORGE, PO","FM-15","LPSJ ","V020","999,9,V,0026,1","99999,9,C,N","011265,1,N,1","+0220,1","+0180,1","99999,9","04,5,+00510,1,99,9","04,5,+00900,1,99,9",,,"04,99,1,99,9,99,9,99999,9,99,9,99,9",,"10261,1,99999,9",,,,,,"MET095METAR LPSJ 041500Z VRB05KT 9999 SCT017 SCT030 22/18 Q1026 RMK WIND RWY13 VRB04KT RWY31 VRB04KT;","P01 009003SCOCIG"
"08509599999","2010-08-04T16:00:00","4","38.6655","-28.175817","94.79","SAO JORGE, PO","FM-15","LPSJ ","V020","999,9,V,0021,1","99999,9,C,N","011265,1,N,1","+0230,1","+0190,1","99999,9","04,5,+00480,1,99,9","04,5,+00900,1,99,9",,,"04,99,1,99,9,99,9,99999,9,99,9,99,9",,"10261,1,99999,9",,,,,,"MET095METAR LPSJ 041600Z VRB04KT 9999 SCT016 SCT030 23/19 Q1026 RMK WIND RWY13 VRB03KT RWY31 VRB03KT;","P01 009003SCOCIG"
"08509599999","2010-08-04T17:00:00","4","38.6655","-28.175817","94.79","SAO JORGE, PO","FM-15","LPSJ ","V020","999,9,V,0010,1","99999,9,C,N","011265,1,N,1","+0220,1","+0190,1","99999,9","04,5,+00450,1,99,9","04,5,+00900,1,99,9",,,"04,99,1,99,9,99,9,99999,9,99,9,99,9",,"10261,1,99999,9",,,,,,"MET095METAR LPSJ 041700Z VRB02KT 9999 SCT015 SCT030 22/19 Q1026 RMK WIND RWY13 VRB01KT RWY31 VRB02KT;","P01 009003SCOCIG"
"08509599999","2010-08-04T18:00:00","4","38.6655","-28.175817","94.79","SAO JORGE, PO","FM-15","LPSJ ","V020","999,9,V,0005,1","99999,9,C,N","011265,1,N,1","+0220,1","+0190,1","99999,9","04,5,+00480,1,99,9","04,5,+00900,1,99,9",,,"04,99,1,99,9,99,9,99999,9,99,9,99,9",,"10251,1,99999,9",,,,,,"MET095METAR LPSJ 041800Z VRB01KT 9999 SCT016 SCT030 22/19 Q1025 RMK WIND RWY13 VRB03KT RWY31 VRB02KT;","P01 009003SCOCIG"
"08509599999","2010-08-05T10:00:00","4","38.6655","-28.175817","94.79","SAO JORGE, PO","FM-15","LPSJ ","V020","130,1,N,0057,1","99999,9,C,N","011265,1,N,1","+0220,1","+0180,1","99999,9","04,5,+00480,1,99,9","04,5,+00900,1,99,9",,,"04,99,1,99,9,99,9,99999,9,99,9,99,9",,"10240,1,99999,9",,,,,,"MET095METAR LPSJ 051000Z 13011KT 9999 SCT016 SCT030 22/18 Q1024 RMK WIND RWY13 15009KT RWY31 14008KT;","P01 009003SCOCIG"
"08509599999","2010-08-05T12:00:00","4","38.6655","-28.175817","94.79","SAO JORGE, PO","FM-15","LPSJ ","V020","150,1,N,0062,1","99999,9,C,N","011265,1,N,1","+0220,1","+0200,1","99999,9","02,5,+00330,1,99,9","04,5,+00480,1,99,9",,,"04,99,1,99,9,99,9,99999,9,99,9,99,9",,"10240,1,99999,9",,,,,,"MET095METAR LPSJ 051200Z 15012KT 9999 FEW011 SCT016 22/20 Q1024 RMK WIND RWY13 16006KT RWY31 15006KT;","P01 004803SCOCIG"
"08509599999","2010-08-05T13:00:00","4","38.6655","-28.175817","94.79","SAO JORGE, PO","FM-15","LPSJ ","V020","130,1,N,0067,1","99999,9,C,N","011265,1,N,1","+0250,1","+0190,1","99999,9","04,5,+00480,1,99,9","04,5,+00900,1,99,9",,,"04,99,1,99,9,99,9,99999,9,99,9,99,9",,"10240,1,99999,9",,,,,,"MET111METAR LPSJ 051300Z 13013KT 9999 SCT016 SCT030 25/19 Q1024 RMK WIND RWY13 15008KT 120V190 RWY31 14006KT 110V180;","P01 009003SCOCIG"
"08509599999","2010-08-05T14:00:00","4","38.6655","-28.175817","94.79","SAO JORGE, PO","FM-15","LPSJ ","V020","140,1,N,0062,1","99999,9,C,N","011265,1,N,1","+0230,1","+0190,1","99999,9","04,5,+00480,1,99,9","04,5,+00900,1,99,9",,,"04,99,1,99,9,99,9,99999,9,99,9,99,9",,"10240,1,99999,9",,,,,,"MET095METAR LPSJ 051400Z 14012KT 9999 SCT016 SCT030 23/19 Q1024 RMK WIND RWY13 14009KT RWY31 14008KT;","P01 009003SCOCIG"
"08509599999","2010-08-05T15:00:00","4","38.6655","-28.175817","94.79","SAO JORGE, PO","FM-15","LPSJ ","V020","140,1,N,0057,1","99999,9,C,N","011265,1,N,1","+0240,1","+0190,1","99999,9","04,5,+00480,1,99,9","04,5,+00900,1,99,9",,,"04,99,1,99,9,99,9,99999,9,99,9,99,9",,"10240,1,99999,9",,,,,,"MET095METAR LPSJ 051500Z 14011KT 9999 SCT016 SCT030 24/19 Q1024 RMK WIND RWY13 15011KT RWY31 14010KT;","P01 009003SCOCIG"
"08509599999","2010-08-05T16:00:00","4","38.6655","-28.175817","94.79","SAO JORGE, PO","FM-15","LPSJ ","V020","130,1,N,0062,1","99999,9,C,N","011265,1,N,1","+0240,1","+0180,1","99999,9","04,5,+00480,1,99,9","04,5,+00900,1,99,9",,,"04,99,1,99,9,99,9,99999,9,99,9,99,9",,"10240,1,99999,9",,,,,,"MET095METAR LPSJ 051600Z 13012KT 9999 SCT016 SCT030 24/18 Q1024 RMK WIND RWY13 15008KT RWY31 14008KT;","P01 009003SCOCIG"
"08509599999","2010-08-05T17:00:00","4","38.6655","-28.175817","94.79","SAO JORGE, PO","FM-15","LPSJ ","V020","140,1,N,0062,1","22000,1,9,N","011265,1,N,1","+0240,1","+0180,1","99999,9","04,5,+00540,1,99,9",,,,"04,99,1,99,9,99,9,99999,9,99,9,99,9",,"10230,1,99999,9",,,,,,"MET088METAR LPSJ 051700Z 14012KT 9999 SCT018 24/18 Q1023 RMK WIND RWY13 15009KT RWY31 14008KT;",
"08509599999","2010-08-05T18:00:00","4","38.6655","-28.175817","94.79","SAO JORGE, PO","FM-15","LPSJ ","V020","140,1,N,0057,1","22000,1,9,N","011265,1,N,1","+0240,1","+0190,1","99999,9","04,5,+00540,1,99,9",,,,"04,99,1,99,9,99,9,99999,9,99,9,99,9",,"10230,1,99999,9",,,,,,"MET088METAR LPSJ 051800Z 14011KT 9999 SCT018 24/19 Q1023 RMK WIND RWY13 14007KT RWY31 13009KT;",
"08509599999","2010-08-06T09:00:00","4","38.6655","-28.175817","94.79","SAO JORGE, PO","FM-15","LPSJ ","V020","140,1,N,0021,1","99999,9,C,N","011265,1,N,1","+0200,1","+0190,1","99999,9","04,5,+00270,1,99,9","04,5,+00420,1,99,9",,,"04,99,1,99,9,99,9,99999,9,99,9,99,9",,"10230,1,99999,9",,,,,,"MET095METAR LPSJ 060900Z 14004KT 9999 SCT009 SCT014 20/19 Q1023 RMK WIND RWY13 14004KT RWY31 13003KT;","P01 004203SCOCIG"
"08509599999","2010-08-06T10:00:00","4","38.6655","-28.175817","94.79","SAO JORGE, PO","FM-15","LPSJ ","V020","120,1,N,0021,1","99999,9,C,N","011265,1,N,1","+0200,1","+0190,1","99999,9","04,5,+00390,1,99,9","04,5,+00750,1,99,9",,,"04,99,1,99,9,99,9,99999,9,99,9,99,9",,"10230,1,99999,9",,,,,,"MET095METAR LPSJ 061000Z 12004KT 9999 SCT013 SCT025 20/19 Q1023 RMK WIND RWY13 14004KT RWY31 12004KT;","P01 007503SCOCIG"
"08509599999","2010-08-06T11:00:00","4","38.6655","-28.175817","94.79","SAO JORGE, PO","FM-15","LPSJ ","V020","100,1,N,0041,1","99999,9,C,N","011265,1,N,1","+0220,1","+0170,1","99999,9","04,5,+00480,1,99,9","04,5,+00750,1,99,9",,,"04,99,1,99,9,99,9,99999,9,99,9,99,9","999,M,+9999,9","10230,1,99999,9",,,,,,"MET095METAR LPSJ 061100Z 10008KT 9999 SCT016 SCT025 22/17 Q1023 RMK WIND RWY13 12009KT RWY31 11009KT;","Q01 -00092ATMX  P01 007503SCOCIG"
"08509599999","2010-08-06T12:00:00","4","38.6655","-28.175817","94.79","SAO JORGE, PO","FM-15","LPSJ ","V020","140,1,N,0057,1","99999,9,C,N","011265,1,N,1","+0220,1","+0180,1","99999,9","04,5,+00360,1,99,9","04,5,+00600,1,99,9",,,"04,99,1,99,9,99,9,99999,9,99,9,99,9",,"10230,1,99999,9",,,,,,"MET095METAR LPSJ 061200Z 14011KT 9999 SCT012 SCT020 22/18 Q1023 RMK WIND RWY13 15007KT RWY31 15008KT;","P01 006003SCOCIG"
"08509599999","2010-08-06T13:00:00","4","38.6655","-28.175817","94.79","SAO JORGE, PO","FM-15","LPSJ ","V020","140,1,N,0062,1","99999,9,C,N","011265,1,N,1","+0220,1","+0180,1","99999,9","04,5,+00420,1,99,9","04,5,+00750,1,99,9",,,"04,99,1,99,9,99,9,99999,9,99,9,99,9",,"10230,1,99999,9",,,,,,"MET095METAR LPSJ 061300Z 14012KT 9999 SCT014 SCT025 22/18 Q1023 RMK WIND RWY13 14010KT RWY31 14012KT;","P01 007503SCOCIG"
"08509599999","2010-08-06T14:00:00","4","38.6655","-28.175817","94.79","SAO JORGE, PO","FM-15","LPSJ ","V020","130,1,N,0077,1","99999,9,C,N","011265,1,N,1","+0250,1","+0180,1","99999,9","04,5,+00480,1,99,9","04,5,+00810,1,99,9",,,"04,99,1,99,9,99,9,99999,9,99,9,99,9",,"10220,1,99999,9",,,,,,"MET111METAR LPSJ 061400Z 13015KT 9999 SCT016 SCT027 25/18 Q1022 RMK WIND RWY13 15009KT 120V190 RWY31 14010KT 110V180;","P01 008103SCOCIG"
"08509599999","2010-08-06T15:00:00","4","38.6655","-28.175817","94.79","SAO JORGE, PO","FM-15","LPSJ ","V020","130,1,N,0077,1","99999,9,C,N","011265,1,N,1","+0250,1","+0180,1","99999,9","02,5,+00600,1,99,9","04,5,+00900,1,99,9",,,"04,99,1,99,9,99,9,99999,9,99,9,99,9",,"10220,1,99999,9",,,,,,"MET111METAR LPSJ 061500Z 13015KT 9999 FEW020 SCT030 25/18 Q1022 RMK WIND RWY13 16010KT 120V210 RWY31 15010KT 110V170;","P01 009003SCOCIG"
"08509599999","2010-08-06T16:00:00","4","38.6655","-28.175817","94.79","SAO JORGE, PO","FM-15","LPSJ ","V020","130,1,N,0072,1","99999,9,C,N","011265,1,N,1","+0250,1","+0180,1","99999,9","04,5,+00600,1,99,9","04,5,+00900,1,99,9",,,"04,99,1,99,9,99,9,99999,9,99,9,99,9",,"10220,1,99999,9",,,,,,"MET111METAR LPSJ 061600Z 13014KT 9999 SCT020 SCT030 25/18 Q1022 RMK WIND RWY13 15009KT 120V190 RWY31 14009KT 110V170;","P01 009003SCOCIG"
"08509599999","2010-08-06T17:00:00","4","38.6655","-28.175817","94.79","SAO JORGE, PO","FM-15","LPSJ ","V020","140,1,N,0077,1","00960,1,C,N","011265,1,N,1","+0240,1","+0170,1","99999,9","02,5,+00600,1,99,9","04,5,+00960,1,99,9","07,5,+02100,1,99,9",,"07,99,1,99,9,99,9,99999,9,99,9,99,9",,"10220,1,99999,9",,,,,,"MET110METAR LPSJ 061700Z 14015KT 9999 FEW020 SCT032 BKN070 24/17 Q1022 RMK WIND RWY13 15009KT 120V180 RWY31 14010KT;",
"08509599999","2010-08-06T18:00:00","4","38.6655","-28.175817","94.79","SAO JORGE, PO","FM-15","LPSJ ","V020","130,1,N,0062,1","99999,9,C,N","011265,1,N,1","+0230,1","+0170,1","99999,9","02,5,+00600,1,99,9","04,5,+00960,1,99,9",,,"04,99,1,99,9,99,9,99999,9,99,9,99,9",,"10220,1,99999,9",,,,,,"MET095METAR LPSJ 061800Z 13012KT 9999 FEW020 SCT032 23/17 Q1022 RMK WIND RWY13 15007KT RWY31 14009KT;","P01 009603SCOCIG"
"08509599999","2010-08-07T09:00:00","4","38.6655","-28.175817","94.79","SAO JORGE, PO","FM-15","LPSJ ","V020","120,1,N,0041,1","99999,9,C,N","011265,1,N,1","+0210,1","+0170,1","99999,9","02,5,+00750,1,99,9","04,5,+01050,1,99,9",,,"04,99,1,99,9,99,9,99999,9,99,9,99,9",,"10230,1,99999,9",,,,,,"MET095METAR LPSJ 070900Z 12008KT 9999 FEW025 SCT035 21/17 Q1023 RMK WIND RWY13 14006KT RWY31 12007KT;","P01 010503SCOCIG"
"08509599999","2010-08-07T10:00:00","4","38.6655","-28.175817","94.79","SAO JORGE, PO","FM-15","LPSJ ","V020","130,1,N,0046,1","22000,1,9,N","011265,1,N,1","+0220,1","+0170,1","99999,9","04,5,+00750,1,99,9",,,,"04,99,1,99,9,99,9,99999,9,99,9,99,9",,"10230,1,99999,9",,,,,,"MET088METAR LPSJ 071000Z 13009KT 9999 SCT025 22/17 Q1023 RMK WIND RWY13 15006KT RWY31 13005KT;",
"08509599999","2010-08-07T11:00:00","4","38.6655","-28.175817","94.79","SAO JORGE, PO","FM-15","LPSJ ","V020","140,1,N,0057,1","99999,9,C,N","011265,1,N,1","+0250,1","+0160,1","99999,9","02,5,+00750,1,99,9","04,5,+01050,1,99,9",,,"04,99,1,99,9,99,9,99999,9,99,9,99,9",,"10230,1,99999,9",,,,,,"MET095METAR LPSJ 071100Z 14011KT 9999 FEW025 SCT035 25/16 Q1023 RMK WIND RWY13 16006KT RWY31 15006KT;","P01 010503SCOCIG"
"08509599999","2010-08-07T12:00:00","4","38.6655","-28.175817","94.79","SAO JORGE, PO","FM-15","LPSJ ","V020","140,1,N,0062,1","22000,1,9,N","011265,1,N,1","+9999,9","+9999,9","99999,9","04,5,+00750,1,99,9",,,,"04,99,1,99,9,99,9,99999,9,99,9,99,9",,"10230,1,99999,9",,,,,,"MET095METAR LPSJ 071200Z 14012KT 9999 SCT025 2417 Q1023 RMK WIND RWY13 16008KT 130V190 RWY31 15008KT;",
"08509599999","2010-08-07T13:00:00","4","38.6655","-28.175817","94.79","SAO JORGE, PO","FM-15","LPSJ ","V020","140,1,N,0062,1","22000,1,9,N","011265,1,N,1","+0250,1","+0180,1","99999,9","02,5,+00660,1,99,9","02,5,+00690,1,02,5",,,"02,99,1,99,9,99,9,99999,9,99,9,99,9",,"10230,1,99999,9",,,,,,"MET098METAR LPSJ 071300Z 14012KT 9999 FEW022 FEW023TCU 25/18 Q1023 RMK WIND RWY13 16008KT RWY31 15005KY;",
"08509599999","2010-08-07T14:00:00","4","38.6655","-28.175817","94.79","SAO JORGE, PO","FM-15","LPSJ ","V020","140,1,N,0067,1","00690,5,C,N","011265,1,N,1","+0260,1","+0190,1","99999,9","04,5,+00660,1,99,9","02,5,+00690,1,02,5",,,,,"10230,1,99999,9",,,,,,"MET092METAR LPSJ 071400Z 14013KT 9999 SCT022 FEW023TCU 26/19 Q1023 RMK WIND RWY31 16008KT 120V190;","Q01+000022SCOTCV"
"08509599999","2010-08-07T15:00:00","4","38.6655","-28.175817","94.79","SAO JORGE, PO","FM-15","LPSJ ","V020","130,1,N,0057,1","00600,5,C,N","011265,1,N,1","+0240,1","+0190,1","99999,9","04,5,+00480,1,99,9","02,5,+00600,1,09,5",,,,,"10230,1,99999,9",,,,,,"MET105METAR LPSJ 071500Z 13011KT 9999 SCT016 FEW020CB 24/19 Q1023 RMK WIND RWY13 15006KT 120V190 RWY31 14006KT;","Q01+000022SCOTCV"
"08509599999","2010-08-08T09:00:00","4","38.6655","-28.175817","94.79","SAO JORGE, PO","FM-15","LPSJ ","V020","999,9,V,0005,1","22000,1,9,N","011265,1,N,1","+0220,1","+0170,1","99999,9","02,5,+00540,1,99,9",,,,"02,99,1,99,9,99,9,99999,9,99,9,99,9",,"10240,1,99999,9",,,,,,"MET088METAR LPSJ 080900Z VRB01KT 9999 FEW018 22/17 Q1024 RMK WIND RWY13 VRB02KT RWY31 VRB02KT;",
"08509599999","2010-08-08T10:00:00","4","38.6655","-28.175817","94.79","SAO JORGE, PO","FM-15","LPSJ ","V020","999,9,V,0021,1","22000,1,9,N","011265,1,N,1","+0220,1","+0160,1","99999,9","02,5,+00540,1,99,9",,,,"02,99,1,99,9,99,9,99999,9,99,9,99,9",,"10240,1,99999,9",,,,,,"MET088METAR LPSJ 081000Z VRB04KT 9999 FEW018 22/16 Q1024 RMK WIND RWY13 VRB04KT RWY31 VRB03KT;",
"08509599999","2010-08-08T11:00:00","4","38.6655","-28.175817","94.79","SAO JORGE, PO","FM-15","LPSJ ","V020","080,1,N,0036,1","22000,1,9,N","011265,1,N,1","+0230,1","+0160,1","99999,9","04,5,+00600,1,99,9",,,,"04,99,1,99,9,99,9,99999,9,99,9,99,9","999,M,+9999,9","10240,1,99999,9",,,,,,"MET074METAR LPSJ 081100Z 08007KT 9999 SCT020 23/16 Q1024 RMK WIND RWY13 10007KT;","Q01 +00072ATMX  "
"08509599999","2010-08-08T12:00:00","4","38.6655","-28.175817","94.79","SAO JORGE, PO","FM-15","LPSJ ","V020","060,1,N,0031,1","22000,1,9,N","011265,1,N,1","+0230,1","+0160,1","99999,9","04,5,+00540,1,99,9","04,1,+01050,1,99,9",,,"04,99,1,99,9,99,9,99999,9,99,9,99,9",,"10240,1,99999,9",,,,,,"MET118METAR LPSJ 081200Z 06006KT 030V090 9999 SCT018 SCT35 23/16 Q1024 RMK WIND RWY13 05008KT 040V120 RWY31 07007KT 030V110;",
"08509599999","2010-08-08T13:00:00","4","38.6655","-28.175817","94.79","SAO JORGE, PO","FM-15","LPSJ ","V020","060,1,N,0041,1","99999,9,C,N","011265,1,N,1","+0230,1","+0160,1","99999,9","04,5,+00540,1,99,9","04,5,+01050,1,99,9",,,"04,99,1,99,9,99,9,99999,9,99,9,99,9","999,M,+9999,9","10240,1,99999,9",,,,,,"MET119METAR LPSJ 081300Z 06008KT 040V120 9999 SCT018 SCT035 23/16 Q1024 RMK WIND RWY13 11005KT 030V170 RWY31 09006KT 040V130;","Q01 -00052ATMX  P01 010503SCOCIG"
"08509599999","2010-08-08T14:00:00","4","38.6655","-28.175817","94.79","SAO JORGE, PO","FM-15","LPSJ ","V020","080,1,N,0041,1","22000,1,9,N","011265,1,N,1","+0250,1","+0160,1","99999,9","04,5,+00660,1,99,9",,,,"04,99,1,99,9,99,9,99999,9,99,9,99,9","999,M,+9999,9","10240,1,99999,9",,,,,,"MET112METAR LPSJ 081400Z 08008KT 010V100 9999 SCT022 25/16 Q1024 RMK WIND RWY13 11010KT 050V150 RWY31 09010KT 040V140;","Q01 -00102ATMX  "
"08509599999","2010-08-08T15:00:00","4","38.6655","-28.175817","94.79","SAO JORGE, PO","FM-15","LPSJ ","V020","080,1,N,0041,1","22000,1,9,N","011265,1,N,1","+0250,1","+0160,1","99999,9","04,5,+00660,1,99,9",,,,"04,99,1,99,9,99,9,99999,9,99,9,99,9","999,M,+9999,9","10240,1,99999,9",,,,,,"MET114METAR LPSJ 081500Z 08008KT 030V120 9999 SCT022 25/16 Q1024 RMK WIND RWY13 11010KT 050V170 RWY31 10010KT 040V140KT;","Q01 -00102ATMX  "
"08509599999","2010-08-08T16:00:00","4","38.6655","-28.175817","94.79","SAO JORGE, PO","FM-15","LPSJ ","V020","999,9,V,0031,1","22000,1,9,N","011265,1,N,1","+0250,1","+0160,1","99999,9","04,5,+00690,1,99,9",,,,"04,99,1,99,9,99,9,99999,9,99,9,99,9",,"10230,1,99999,9",,,,,,"MET088METAR LPSJ 081600Z VRB06KT 9999 SCT023 25/16 Q1023 RMK WIND RWY13 VRB06KT RWY31 VRB06KT;",
"08509599999","2010-08-08T17:00:00","4","38.6655","-28.175817","94.79","SAO JORGE, PO","FM-15","LPSJ ","V020","999,9,V,0031,1","22000,1,9,N","011265,1,N,1","+0240,1","+0160,1","99999,9","04,5,+00690,1,99,9",,,,"04,99,1,99,9,99,9,99999,9,99,9,99,9",,"10230,1,99999,9",,,,,,"MET055METAR LPSJ 081700Z VRB06KT 9999 SCT023 24/16 Q1023 RMK;",
"08509599999","2010-08-08T18:00:00","4","38.6655","-28.175817","94.79","SAO JORGE, PO","FM-15","LPSJ ","V020","050,1,N,0051,1","22000,1,9,N","011265,1,N,1","+0230,1","+0160,1","99999,9","04,5,+00540,1,99,9",,,,"04,99,1,99,9,99,9,99999,9,99,9,99,9",,"10230,1,99999,9",,,,,,"MET088METAR LPSJ 081800Z 05010KT 9999 SCT018 23/16 Q1023 RMK WIND RWY13 07013KT RWY31 06011KT;",
"08509599999","2010-08-09T09:00:00","4","38.6655","-28.175817","94.79","SAO JORGE, PO","FM-15","LPSJ ","V020","050,1,N,0031,1","99999,9,C,N","011265,1,N,1","+0210,1","+0160,1","99999,9","02,5,+00480,1,99,9","04,5,+00900,1,99,9",,,"04,99,1,99,9,99,9,99999,9,99,9,99,9",,"10230,1,99999,9",,,,,,"MET095METAR LPSJ 090900Z 05006KT 9999 FEW016 SCT030 21/16 Q1023 RMK WIND RWY13 08010KT RWY31 06008KT;","P01 009003SCOCIG"
"08509599999","2010-08-09T10:00:00","4","38.6655","-28.175817","94.79","SAO JORGE, PO","FM-15","LPSJ ","V020","070,1,N,0062,1","22000,1,9,N","011265,1,N,1","+0220,1","+0150,1","99999,9","04,5,+00510,1,99,9",,,,"04,99,1,99,9,99,9,99999,9,99,9,99,9",,"10230,1,99999,9",,,,,,"MET088METAR LPSJ 091000Z 07012KT 9999 SCT017 22/15 Q1023 RMK WIND RWY13 09013KT RWY31 07013KT;",
"08509599999","2010-08-09T11:00:00","4","38.6655","-28.175817","94.79","SAO JORGE, PO","FM-15","LPSJ ","V020","070,1,N,0051,1","22000,1,9,N","011265,1,N,1","+0230,1","+0160,1","99999,9","04,5,+00510,1,99,9",,,,"04,99,1,99,9,99,9,99999,9,99,9,99,9",,"10230,1,99999,9",,,,,,"MET088METAR LPSJ 091100Z 07010KT 9999 SCT017 23/16 Q1023 RMK WIND RWY13 08013KT RWY31 07008KT;",
"08509599999","2010-08-09T12:00:00","4","38.6655","-28.175817","94.79","SAO JORGE, PO","FM-15","LPSJ ","V020","120,1,N,0041,1","22000,1,9,N","011265,1,N,1","+0240,1","+0140,1","99999,9","02,5,+00600,1,99,9",,,,"02,99,1,99,9,99,9,99999,9,99,9,99,9",,"10230,1,99999,9",,,,,,"MET104METAR LPSJ 091200Z 12008KT 9999 FEW020 24/14 Q1023 RMK WIND RWY13 15006KT 080V190 RWY31 12005KT 090V170;",
"08509599999","2010-08-09T14:00:00","4","38.6655","-28.175817","94.79","SAO JORGE, PO","FM-15","LPSJ ","V020","999,9,V,0031,1","22000,1,9,N","011265,1,N,1","+0240,1","+0150,1","99999,9","04,5,+00750,1,99,9",,,,"04,99,1,99,9,99,9,99999,9,99,9,99,9",,"10230,1,99999,9",,,,,,"MET088METAR LPSJ 091400Z VRB06KT 9999 SCT025 24/15 Q1023 RMK WIND RWY13 12009KT RWY31 09008KT;",
"08509599999","2010-08-09T15:00:00","4","38.6655","-28.175817","94.79","SAO JORGE, PO","FM-15","LPSJ ","V020","060,1,N,0031,1","99999,9,C,N","011265,1,N,1","+0240,1","+0160,1","99999,9","04,5,+00540,1,99,9","04,5,+00900,1,99,9",,,"04,99,1,99,9,99,9,99999,9,99,9,99,9",,"10230,1,99999,9",,,,,,"MET119METAR LPSJ 091500Z 06006KT 010V090 9999 SCT018 SCT030 24/16 Q1023 RMK WIND RWY13 07008KT 020V110 RWY31 06010KT 030V120;","P01 009003SCOCIG"
"08509599999","2010-08-09T16:00:00","4","38.6655","-28.175817","94.79","SAO JORGE, PO","FM-15","LPSJ ","V020","060,1,N,0041,1","99999,9,C,N","011265,1,N,1","+0240,1","+0160,1","99999,9","04,5,+00600,1,99,9","04,5,+01050,1,99,9",,,"04,99,1,99,9,99,9,99999,9,99,9,99,9",,"10220,1,99999,9",,,,,,"MET095METAR LPSJ 091600Z 06008KT 9999 SCT020 SCT035 24/16 Q1022 RMK WIND RWY13 08008KT RWY31 06010KT;","P01 010503SCOCIG"
"08509599999","2010-08-10T09:00:00","4","38.6655","-28.175817","94.79","SAO JORGE, PO","FM-15","LPSJ ","V020","999,9,V,0005,1","99999,9,C,N","011265,1,N,1","+0210,1","+0150,1","99999,9","04,5,+00840,1,99,9","04,5,+01200,1,99,9",,,"04,99,1,99,9,99,9,99999,9,99,9,99,9",,"10220,1,99999,9",,,,,,"MET095METAR LPSJ 100900Z VRB01KT 9999 SCT028 SCT040 21/15 Q1022 RMK WIND RWY13 VRB01KT RWY31 VRB02KT;","P01 012003SCOCIG"
"08509599999","2010-08-10T10:00:00","4","38.6655","-28.175817","94.79","SAO JORGE, PO","FM-15","LPSJ ","V020","999,9,V,0010,1","99999,9,C,N","011265,1,N,1","+0220,1","+0150,1","99999,9","04,5,+00900,1,99,9","04,5,+01200,1,99,9",,,"04,99,1,99,9,99,9,99999,9,99,9,99,9",,"10230,1,99999,9",,,,,,"MET095METAR LPSJ 101000Z VRB02KT 9999 SCT030 SCT040 22/15 Q1023 RMK WIND RWY13 VRB03KT RWY31 VRB03KT;","P01 012003SCOCIG"
"08509599999","2010-08-10T12:00:00","4","38.6655","-28.175817","94.79","SAO JORGE, PO","FM-15","LPSJ ","V020","999,9,V,0031,1","99999,9,C,N","011265,1,N,1","+0240,1","+0150,1","99999,9","02,5,+00960,1,99,9","04,5,+01260,1,99,9",,,"04,99,1,99,9,99,9,99999,9,99,9,99,9",,"10230,1,99999,9",,,,,,"MET095METAR LPSJ 101200Z VRB06KY 9999 FEW032 SCT042 24/15 Q1023 RMK WIND RWY13 VRB03KT RWY31 VRB03KT;","P01 012603SCOCIG"
"08509599999","2010-08-10T14:00:00","4","38.6655","-28.175817","94.79","SAO JORGE, PO","FM-15","LPSJ ","V020","250,1,N,0021,1","22000,1,9,N","011265,1,N,1","+0250,1","+0150,1","99999,9","04,5,+00960,1,99,9",,,,"04,99,1,99,9,99,9,99999,9,99,9,99,9",,"10220,1,99999,9",,,,,,"MET088METAR LPSJ 101400Z 25004KT 9999 SCT032 25/15 Q1022 RMK WIND RWY13 26005KT RWY31 26004KT;",
"08509599999","2010-08-10T16:00:00","4","38.6655","-28.175817","94.79","SAO JORGE, PO","FM-15","LPSJ ","V020","250,1,N,0021,1","06000,1,C,N","011265,1,N,1","+0230,1","+0150,1","99999,9","04,5,+00840,1,99,9","07,5,+06000,1,99,9",,,"07,99,1,99,9,99,9,99999,9,99,9,99,9",,"10220,1,99999,9",,,,,,"MET096METAR LPSJ 101600Z 25004KT 9999 SCT028 BKN200 23/15 Q1022 RMKN WIND RWY13 26005KT RWY31 24003KT;",
"08509599999","2010-08-10T17:00:00","4","38.6655","-28.175817","94.79","SAO JORGE, PO","FM-15","LPSJ ","V020","260,1,N,0031,1","06000,1,C,N","011265,1,N,1","+0240,1","+0150,1","99999,9","04,5,+00840,1,99,9","07,5,+06000,1,99,9",,,"07,99,1,99,9,99,9,99999,9,99,9,99,9",,"10210,1,99999,9",,,,,,"MET095METAR LPSJ 101700Z 26006KT 9999 SCT028 BKN200 24/15 Q1021 RMK WIND RWY13 26004KT RWY31 26004KT;",
"08509599999","2010-08-11T10:00:00","4","38.6655","-28.175817","94.79","SAO JORGE, PO","FM-15","LPSJ ","V020","140,1,N,0031,1","99999,9,C,N","011265,1,N,1","+0220,1","+0150,1","99999,9","02,5,+00750,1,99,9","04,5,+01050,1,99,9",,,"04,99,1,99,9,99,9,99999,9,99,9,99,9",,"10230,1,99999,9",,,,,,"MET095METAR LPSJ 111000Z 14006KT 9999 FEW025 SCT035 22/15 Q1023 RMK WIND RWY13 15004KT RWY31 13004KT;","P01 010503SCOCIG"
"08509599999","2010-08-11T11:00:00","4","38.6655","-28.175817","94.79","SAO JORGE, PO","FM-15","LPSJ ","V020","140,1,N,0036,1","99999,9,C,N","011265,1,N,1","+0240,1","+0160,1","99999,9","02,5,+00900,1,99,9","04,5,+01200,1,99,9",,,"04,99,1,99,9,99,9,99999,9,99,9,99,9",,"10240,1,99999,9",,,,,,"MET095METAR LPSJ 111100Z 14007KT 9999 FEW030 SCT040 24/16 Q1024 RMK WIND RWY13 16004KT RWY31 15004KT;","P01 012003SCOCIG"
"08509599999","2010-08-11T12:00:00","4","38.6655","-28.175817","94.79","SAO JORGE, PO","FM-15","LPSJ ","V020","130,1,N,0057,1","02100,1,C,N","011265,1,N,1","+0230,1","+0160,1","99999,9","04,5,+00900,1,99,9","07,5,+02100,1,99,9",,,"07,99,1,99,9,99,9,99999,9,99,9,99,9",,"10240,1,99999,9",,,,,,"MET102METAR LPSJ 111200Z 13011KT 9999 SCT030 BKN070 23/16 Q1024 RMKWIND RWY13 16007KT 120V190 RWY31 14008KT;",
"08509599999","2010-08-11T13:00:00","4","38.6655","-28.175817","94.79","SAO JORGE, PO","FM-15","LPSJ ","V020","140,1,N,0057,1","99999,9,C,N","011265,1,N,1","+0260,1","+0150,1","99999,9","04,5,+00900,1,99,9","04,5,+02100,1,99,9",,,"04,99,1,99,9,99,9,99999,9,99,9,99,9",,"10240,1,99999,9",,,,,,"MET111METAR LPSJ 111300Z 14011KT 9999 SCT030 SCT070 26/15 Q1024 RMK WIND RWY13 16007KT 130V200 RWY31 15006KT 120V180;","P01 021003SCOCIG"
"08509599999","2010-08-11T14:00:00","4","38.6655","-28.175817","94.79","SAO JORGE, PO","FM-15","LPSJ ","V020","140,1,N,0067,1","22000,1,9,N","011265,1,N,1","+0260,1","+0160,1","99999,9","04,5,+00750,1,99,9",,,,"04,99,1,99,9,99,9,99999,9,99,9,99,9",,"10240,1,99999,9",,,,,,"MET104METAR LPSJ 111400Z 14013KT 9999 SCT025 26/16 Q1024 RMK WIND RWY13 16008KT 120V210 RWY31 15009KT 120V180;",
"08509599999","2010-08-11T15:00:00","4","38.6655","-28.175817","94.79","SAO JORGE, PO","FM-15","LPSJ ","V020","140,1,N,0067,1","22000,1,9,N","011265,1,N,1","+0250,1","+0160,1","99999,9","04,5,+00900,1,99,9",,,,"04,99,1,99,9,99,9,99999,9,99,9,99,9",,"10240,1,99999,9",,,,,,"MET104METAR LPSJ 111500Z 14013KT 9999 SCT030 25/16 Q1024 RMK WIND RWY13 16008KT 130V200 RWY31 14008KT 110V170;",
"08509599999","2010-08-11T16:00:00","4","38.6655","-28.175817","94.79","SAO JORGE, PO","FM-15","LPSJ ","V020","130,1,N,0067,1","22000,1,9,N","011265,1,N,1","+0250,1","+0170,1","99999,9","04,5,+00900,1,99,9",,,,"04,99,1,99,9,99,9,99999,9,99,9,99,9",,"10240,1,99999,9",,,,,,"MET104METAR LPSJ 111600Z 13013KT 9999 SCT030 25/17 Q1024 RMK WIND RWY13 16008KT 120V200 RWY31 14010KT 110V180;",
"08509599999","2010-08-12T09:00:00","4","38.6655","-28.175817","94.79","SAO JORGE, PO","FM-15","LPSJ ","V020","110,1,N,0046,1","99999,9,C,N","011265,1,N,1","+0220,1","+0180,1","99999,9","02,5,+00540,1,99,9","04,5,+00900,1,99,9",,,"04,99,1,99,9,99,9,99999,9,99,9,99,9",,"10240,1,99999,9",,,,,,"MET098METAR LPSJ 120900Z 11009KT 9999 FEW018 SCT030 22/18 Q1024 RMK WIND RWY13 13009KT RWYT31 RW12009KT;","P01 009003SCOCIG"
"08509599999","2010-08-12T10:00:00","4","38.6655","-28.175817","94.79","SAO JORGE, PO","FM-15","LPSJ ","V020","120,1,N,0062,1","22000,1,9,N","011265,1,N,1","+0230,1","+0180,1","99999,9","02,5,+00600,1,99,9",,,,"02,99,1,99,9,99,9,99999,9,99,9,99,9",,"10240,1,99999,9",,,,,,"MET088METAR LPSJ 121000Z 12012KT 9999 FEW020 23/18 Q1024 RMK WIND RWY13 14010KT RWY31 12009KT;",
"08509599999","2010-08-12T11:00:00","4","38.6655","-28.175817","94.79","SAO JORGE, PO","FM-15","LPSJ ","V020","130,1,N,0072,1","22000,1,9,N","011265,1,N,1","+0240,1","+0180,1","99999,9","04,5,+00660,1,99,9",,,,"04,99,1,99,9,99,9,99999,9,99,9,99,9",,"10251,1,99999,9",,,,,,"MET096METAR LPSJ 121100Z 13014KT 9999 SCT022 24/18 Q1025 RMK WIND RWY13 14011KT 120V180 RWY31 13009KT;",
"08509599999","2010-08-12T14:00:00","4","38.6655","-28.175817","94.79","SAO JORGE, PO","FM-15","LPSJ ","V020","140,1,N,0067,1","22000,1,9,N","011265,1,N,1","+0260,1","+0160,1","99999,9","02,5,+00810,1,99,9",,,,"02,99,1,99,9,99,9,99999,9,99,9,99,9",,"10240,1,99999,9",,,,,,"MET104METAR LPSJ 121400Z 14013KT 9999 FEW027 26/16 Q1024 RMK WIND RWY13 16009KT 120V210 RWY31 14008KT 110V190;",
"08509599999","2010-08-12T15:00:00","4","38.6655","-28.175817","94.79","SAO JORGE, PO","FM-15","LPSJ ","V020","140,1,N,0077,1","22000,1,9,N","011265,1,N,1","+0260,1","+0170,1","99999,9","02,5,+00900,1,99,9",,,,"02,99,1,99,9,99,9,99999,9,99,9,99,9",,"10251,1,99999,9",,,,,,"MET104METAR LPSJ 121500Z 14015KT 9999 FEW030 26/17 Q1025 RMK WIND RWY13 16009KT 120V200 RWY31 14011KT 110V180;",
"08509599999","2010-08-12T16:00:00","4","38.6655","-28.175817","94.79","SAO JORGE, PO","FM-15","LPSJ ","V020","130,1,N,0082,1","22000,1,9,N","011265,1,N,1","+0260,1","+0170,1","99999,9","02,5,+00900,1,99,9",,,,"02,99,1,99,9,99,9,99999,9,99,9,99,9",,"10251,1,99999,9",,,,,,"MET104METAR LPSJ 121600Z 13016KT 9999 FEW030 26/17 Q1025 RMK WIND RWY13 16010KT 110V190 RWY31 14010KT 120V180;",
"08509599999","2010-08-12T17:00:00","4","38.6655","-28.175817","94.79","SAO JORGE, PO","FM-15","LPSJ ","V020","130,1,N,0082,1","22000,1,9,N","011265,1,N,1","+0260,1","+0170,1","99999,9","02,5,+00900,1,99,9",,,,"02,99,1,99,9,99,9,99999,9,99,9,99,9",,"10251,1,99999,9",,,,,,"MET104METAR LPSJ 121700Z 13016KT 9999 FEW030 26/17 Q1025 RMK WIND RWY13 15011KT 120V200 RWY31 14010KT 120V180;",
"08509599999","2010-08-13T09:00:00","4","38.6655","-28.175817","94.79","SAO JORGE, PO","FM-15","LPSJ ","V020","100,1,N,0036,1","22000,1,9,N","011265,1,N,1","+0230,1","+0190,1","99999,9","02,5,+00540,1,99,9",,,,"02,99,1,99,9,99,9,99999,9,99,9,99,9","999,M,+9999,9","10261,1,99999,9",,,,,,"MET089METAR LPSJ 130900Z 10007KT 9999 FEW018 23/19 Q1026 RMK WIND REWY13 13004KT RWY31 11008KT;","Q01 -00082ATMX  "
"08509599999","2010-08-13T10:00:00","4","38.6655","-28.175817","94.79","SAO JORGE, PO","FM-15","LPSJ ","V020","130,1,N,0057,1","22000,1,9,N","011265,1,N,1","+0240,1","+0190,1","99999,9","02,5,+00600,1,99,9",,,,"02,99,1,99,9,99,9,99999,9,99,9,99,9",,"10261,1,99999,9",,,,,,"MET087METAR LPSJ 131000Z 13011KT 9999 FEW020 24/19 Q1026 RMK WIND RWY13 14007KT RWY31 3007KT;",
"08509599999","2010-08-13T11:00:00","4","38.6655","-28.175817","94.79","SAO JORGE, PO","FM-15","LPSJ ","V020","140,1,N,0057,1","22000,1,9,N","011265,1,N,1","+0260,1","+0200,1","99999,9","02,5,+00600,1,99,9",,,,"02,99,1,99,9,99,9,99999,9,99,9,99,9",,"10261,1,99999,9",,,,,,"MET088METAR LPSJ 131100Z 14011KT 9999 FEW020 26/20 Q1026 RMK WIND RWY13 15007KT RWY31 14008KT;",
"08509599999","2010-08-13T12:00:00","4","38.6655","-28.175817","94.79","SAO JORGE, PO","FM-15","LPSJ ","V020","140,1,N,0051,1","22000,1,9,N","011265,1,N,1","+0270,1","+0200,1","99999,9","04,5,+00750,1,99,9",,,,"04,99,1,99,9,99,9,99999,9,99,9,99,9",,"10261,1,99999,9",,,,,,"MET088METAR LPSJ 131200Z 14010KT 9999 SCT025 27/20 Q1026 RMK WIND RWY13 16005KT RWY31 15006KT;",
"08509599999","2010-08-13T14:00:00","4","38.6655","-28.175817","94.79","SAO JORGE, PO","FM-15","LPSJ ","V020","160,1,N,0031,1","22000,1,9,N","011265,1,N,1","+0280,1","+0200,1","99999,9","02,5,+00900,1,99,9",,,,"02,99,1,99,9,99,9,99999,9,99,9,99,9",,"10261,1,99999,9",,,,,,"MET088METAR LPSJ 131400Z 16006KT 9999 FEW030 28/20 Q1026 RMK WIND RWY13 17005KT RWY31 17005KT;",
"08509599999","2010-08-13T15:00:00","4","38.6655","-28.175817","94.79","SAO JORGE, PO","FM-15","LPSJ ","V020","180,1,N,0031,1","22000,1,9,N","011265,1,N,1","+0270,1","+0190,1","99999,9","02,5,+00900,1,99,9",,,,"02,99,1,99,9,99,9,99999,9,99,9,99,9",,"10261,1,99999,9",,,,,,"MET089METAR LPSJ 131500Z 18006KT 9999 FEW030 27/19 Q1026 RMK WIND RWY 13 20005KT RWY31 18005KT;",
"08509599999","2010-08-13T16:00:00","4","38.6655","-28.175817","94.79","SAO JORGE, PO","FM-15","LPSJ ","V020","999,9,V,0031,1","22000,1,9,N","011265,1,N,1","+0270,1","+0200,1","99999,9","02,5,+00900,1,99,9",,,,"02,99,1,99,9,99,9,99999,9,99,9,99,9",,"10261,1,99999,9",,,,,,"MET083METAR LPSJ 131600Z VRB06KT 9999 FEW030 27/20 Q1026 RMK RWY13 VRB04KT RWY31 VRB04KT;",
"08509599999","2010-08-14T09:00:00","4","38.6655","-28.175817","94.79","SAO JORGE, PO","FM-15","LPSJ ","V020","999,9,V,0026,1","22000,1,9,N","011265,1,N,1","+0230,1","+0200,1","99999,9","04,5,+00420,1,99,9",,,,"04,99,1,99,9,99,9,99999,9,99,9,99,9",,"10271,1,99999,9",,,,,,"MET088METAR LPSJ 140900Z VRB05KT 9999 SCT014 23/20 Q1027 RMK WIND RWY13 VRB04KT RWY31 VRB03KT;",
"08509599999","2010-08-14T10:00:00","4","38.6655","-28.175817","94.79","SAO JORGE, PO","FM-15","LPSJ ","V020","260,1,N,0036,1","99999,9,C,N","011265,1,N,1","+0230,1","+0210,1","99999,9","02,5,+00240,1,99,9","04,5,+00420,1,99,9",,,"04,99,1,99,9,99,9,99999,9,99,9,99,9",,"10271,1,99999,9",,,,,,"MET096METAR LPSJ 141000Z 26007KT 9999 FEW008 SCT014 23/21 Q1027 RMK WIND REWY13 28004KT RWY31 26005KT;","P01 004203SCOCIG"
"08509599999","2010-08-14T11:00:00","4","38.6655","-28.175817","94.79","SAO JORGE, PO","FM-15","LPSJ ","V020","260,1,N,0036,1","22000,1,9,N","011265,1,N,1","+0240,1","+0210,1","99999,9","04,5,+00420,5,99,9",,,,"02,99,1,99,9,99,9,99999,9,99,9,99,9",,"10270,1,99999,9",,,,,,"MET097METAR LPSJ 141100Z 26007KT 9999 FEW0028 SCT014 24/21 Q1027 RMK WIND RWY13 28007KT BRWY31 26006KT;",
"08509599999","2010-08-14T12:00:00","4","38.6655","-28.175817","94.79","SAO JORGE, PO","FM-15","LPSJ ","V020","290,1,N,0051,1","22000,1,9,N","011265,1,N,1","+0250,1","+0210,1","99999,9","04,5,+00480,1,99,9",,,,"04,99,1,99,9,99,9,99999,9,99,9,99,9",,"10271,1,99999,9",,,,,,"MET088METAR LPSJ 141200Z 29010KT 9999 SCT016 25/21 Q1027 RMK WIND RWY13 21005KT RWY31 28005KT;",
"08509599999","2010-08-14T13:00:00","4","38.6655","-28.175817","94.79","SAO JORGE, PO","FM-15","LPSJ ","V020","270,1,N,0051,1","22000,1,9,N","011265,1,N,1","+0260,1","+0210,1","99999,9","04,5,+00540,1,99,9",,,,"04,99,1,99,9,99,9,99999,9,99,9,99,9",,"10271,1,99999,9",,,,,,"MET096METAR LPSJ 141300Z 27010KT 9999 SCT018 26/21 Q1027 RMK WIND RWY13 29007KT 260V320 RWY31 27006KT;",
"08509599999","2010-08-14T14:00:00","4","38.6655","-28.175817","94.79","SAO JORGE, PO","FM-15","LPSJ ","V020","290,1,N,0057,1","22000,1,9,N","011265,1,N,1","+0260,1","+0210,1","99999,9","02,5,+00600,1,99,9",,,,"02,99,1,99,9,99,9,99999,9,99,9,99,9",,"10271,1,99999,9",,,,,,"MET104METAR LPSJ 141400Z 29011KT 9999 FEW020 26/21 Q1027 RMK WIND RWY13 31005KT 260V340 RWY31 28008KT 240V310;",
"08509599999","2010-08-14T15:00:00","4","38.6655","-28.175817","94.79","SAO JORGE, PO","FM-15","LPSJ ","V020","280,1,N,0057,1","22000,1,9,N","011265,1,N,1","+0260,1","+0210,1","99999,9","02,5,+00750,1,99,9",,,,"02,99,1,99,9,99,9,99999,9,99,9,99,9",,"10261,1,99999,9",,,,,,"MET104METAR LPSJ 141500Z 28011KT 9999 FEW025 26/21 Q1026 RMK WIND RWY13 31006KT 260V330 RWY31 27008KT 240V300;",
"08509599999","2010-08-14T16:00:00","4","38.6655","-28.175817","94.79","SAO JORGE, PO","FM-15","LPSJ ","V020","280,1,N,0051,1","22000,1,9,N","011265,1,N,1","+0260,1","+0200,1","99999,9","02,5,+00810,1,99,9",,,,"02,99,1,99,9,99,9,99999,9,99,9,99,9",,"10261,1,99999,9",,,,,,"MET104METAR LPSJ 141600Z 28010KT 9999 FEW027 26/20 Q1026 RMK WIND RWY13 30006KT 280V340 RWY31 29007KT 240V300;",
"08509599999","2010-08-14T18:00:00","4","38.6655","-28.175817","94.79","SAO JORGE, PO","FM-15","LPSJ ","V020","360,1,N,0041,1","22000,1,9,N","011265,1,N,1","+0260,1","+0190,1","99999,9","04,5,+00600,1,99,9",,,,"04,99,1,99,9,99,9,99999,9,99,9,99,9",,"10261,1,99999,9",,,,,,"MET112METAR LPSJ 141800Z 36008KT 300V030 9999 SCT020 26/19 Q1026 RMK WIND RWY13 36013KT 300V060 RWY31 35009KT 300V010;",
"08509599999","2010-08-14T19:00:00","4","38.6655","-28.175817","94.79","SAO JORGE, PO","FM-15","LPSJ ","V020","320,1,N,0036,1","22000,1,9,N","011265,1,N,1","+0250,1","+0190,1","99999,9","04,5,+00540,1,99,9",,,,"04,99,1,99,9,99,9,99999,9,99,9,99,9",,"10261,1,99999,9",,,,,,"MET096METAR LPSJ 141900Z 32007KT 9999 SCT018 25/19 Q1026 RMK WIND RWY13 34010KT 310V010 RWY31 33009KT;",
"08509599999","2010-08-15T09:00:00","4","38.6655","-28.175817","94.79","SAO JORGE, PO","FM-15","LPSJ ","V020","999,9,V,0015,1","22000,1,9,N","011265,1,N,1","+0230,1","+0180,1","99999,9","02,5,+00600,1,99,9",,,,"02,99,1,99,9,99,9,99999,9,99,9,99,9",,"10271,1,99999,9",,,,,,"MET088METAR LPSJ 150900Z VRB03KT 9999 FEW020 23/18 Q1027 RMK WIND RWY13 VRB03KT RWY31 VRB04KT;",
"08509599999","2010-08-15T10:00:00","4","38.6655","-28.175817","94.79","SAO JORGE, PO","FM-15","LPSJ ","V020","999,9,V,0021,1","22000,1,9,N","011265,1,N,1","+0240,1","+0190,1","99999,9","02,5,+00600,1,99,9",,,,"02,99,1,99,9,99,9,99999,9,99,9,99,9",,"10271,1,99999,9",,,,,,"MET088METAR LPSJ 151000Z VRB04KT 9999 FEW020 24/19 Q1027 RMK WIND RWY13 VRB03KT RWY31 VRB03KT;",
"08509599999","2010-08-15T11:00:00","4","38.6655","-28.175817","94.79","SAO JORGE, PO","FM-15","LPSJ ","V020","999,9,V,0015,1","22000,1,9,N","011265,1,N,1","+0250,1","+0180,1","99999,9","02,5,+00750,1,99,9",,,,"02,99,1,99,9,99,9,99999,9,99,9,99,9",,"10281,1,99999,9",,,,,,"MET088METAR LPSJ 151100Z VRB03KT 9999 FEW025 25/18 Q1028 RMK WIND RWY13 VRB03KT RWY31 VRB03KT;",
"08509599999","2010-08-15T12:00:00","4","38.6655","-28.175817","94.79","SAO JORGE, PO","FM-15","LPSJ ","V020","999,9,V,0015,1","22000,1,9,N","011265,1,N,1","+0260,1","+0180,1","99999,9","02,5,+00810,1,99,9",,,,"02,99,1,99,9,99,9,99999,9,99,9,99,9",,"10281,1,99999,9",,,,,,"MET088METAR LPSJ 151200Z VRB03KT 9999 FEW027 26/18 Q1028 RMK WIND RWY13 VRB04KT RWY31 VRB03KT;",
"08509599999","2010-08-15T14:00:00","4","38.6655","-28.175817","94.79","SAO JORGE, PO","FM-15","LPSJ ","V020","999,9,V,0021,1","99999,9,C,N","011265,1,N,1","+0280,1","+0190,1","99999,9","02,5,+00810,1,99,9","04,5,+06000,1,99,9",,,"04,99,1,99,9,99,9,99999,9,99,9,99,9",,"10281,1,99999,9",,,,,,"MET095METAR LPSJ 151400Z VRB04KT 9999 FEW027 SCT200 28/19 Q1028 RMK WIND RWY13 VRB04KT RWY31 VRB05KT;","P01 060003SCOCIG"
"08509599999","2010-08-15T15:00:00","4","38.6655","-28.175817","94.79","SAO JORGE, PO","FM-15","LPSJ ","V020","999,9,V,0031,1","22000,1,9,N","011265,1,N,1","+0270,1","+0180,1","99999,9","04,5,+00810,1,99,9",,,,"04,99,1,99,9,99,9,99999,9,99,9,99,9",,"10281,1,99999,9",,,,,,"MET088METAR LPSJ 151500Z VRB06KT 9999 SCT027 27/18 Q1028 RMK WIND RWY13 VRB06KT RWY31 VRB06KT;",
"08509599999","2010-08-15T16:00:00","4","38.6655","-28.175817","94.79","SAO JORGE, PO","FM-15","LPSJ ","V020","999,9,V,0031,1","22000,1,9,N","011265,1,N,1","+0270,1","+0190,1","99999,9","04,5,+00900,1,99,9",,,,"04,99,1,99,9,99,9,99999,9,99,9,99,9",,"10281,1,99999,9",,,,,,"MET088METAR LPSJ 151600Z VRB06KT 9999 SCT030 27/19 Q1028 RMK WIND RWY13 VRB05KT RWY31 VRB06KT;",
"08509599999","2010-08-16T09:00:00","4","38.6655","-28.175817","94.79","SAO JORGE, PO","FM-15","LPSJ ","V020","999,9,V,0010,1","99999,9,C,N","011265,1,N,1","+0220,1","+0200,1","99999,9","04,5,+00390,1,99,9","04,5,+00750,1,99,9",,,"04,99,1,99,9,99,9,99999,9,99,9,99,9",,"10291,1,99999,9",,,,,,"MET095METAR LPSJ 160900Z VRB02KT 9999 SCT013 SCT025 22/20 Q1029 RMK WIND RWY13 VRB02KT RWY31 VRB02KT;","P01 007503SCOCIG"
"08509599999","2010-08-16T10:00:00","4","38.6655","-28.175817","94.79","SAO JORGE, PO","FM-15","LPSJ ","V020","999,9,V,0010,1","99999,9,C,N","011265,1,N,1","+0230,1","+0200,1","99999,9","04,5,+00330,1,99,9","04,5,+00750,1,99,9",,,"04,99,1,99,9,99,9,99999,9,99,9,99,9",,"10291,1,99999,9",,,,,,"MET095METAR LPSJ 161000Z VRB02KT 9999 SCT011 SCT025 23/20 Q1029 RMK WIND RWY13 VRB02KT RWY31 VRB02KT;","P01 007503SCOCIG"
"08509599999","2010-08-16T11:00:00","4","38.6655","-28.175817","94.79","SAO JORGE, PO","FM-15","LPSJ ","V020","999,9,V,0010,1","99999,9,C,N","011265,1,N,1","+0230,1","+0200,1","99999,9","04,5,+00390,1,99,9","04,5,+00750,1,99,9",,,"04,99,1,99,9,99,9,99999,9,99,9,99,9",,"10301,1,99999,9",,,,,,"MET095METAR LPSJ 161100Z VRB02KT 9999 SCT013 SCT025 23/20 Q1030 RMK WIND RWY13 VRB02KT RWY31 VRB03KT;","P01 007503SCOCIG"
"08509599999","2010-08-16T12:00:00","4","38.6655","-28.175817","94.79","SAO JORGE, PO","FM-15","LPSJ ","V020","999,9,V,0031,1","99999,9,C,N","011265,1,N,1","+0240,1","+0200,1","99999,9","04,5,+00450,1,99,9","04,5,+00750,1,99,9",,,"04,99,1,99,9,99,9,99999,9,99,9,99,9",,"10301,1,99999,9",,,,,,"MET095METAR LPSJ 161200Z VRB06KT 9999 SCT015 SCT025 24/20 Q1030 RMK WIND RWY13 VRB04KT RWY31 VRB04KT;","P01 007503SCOCIG"
"08509599999","2010-08-16T14:00:00","4","38.6655","-28.175817","94.79","SAO JORGE, PO","FM-15","LPSJ ","V020","170,1,N,0031,1","99999,9,C,N","011265,1,N,1","+0250,1","+0200,1","99999,9","04,5,+00540,1,99,9","04,5,+00900,1,99,9",,,"04,99,1,99,9,99,9,99999,9,99,9,99,9",,"10301,1,99999,9",,,,,,"MET081METAR LPSJ 161400Z 17006KT 9999 SCT018 SCT030 25/20 Q1030 RMK WIND RWY13 19004KT;","P01 009003SCOCIG"
"08509599999","2010-08-16T15:00:00","4","38.6655","-28.175817","94.79","SAO JORGE, PO","FM-15","LPSJ ","V020","160,1,N,0026,1","99999,9,C,N","011265,1,N,1","+0260,1","+0200,1","99999,9","04,5,+00600,1,99,9","04,5,+00900,1,99,9",,,"04,99,1,99,9,99,9,99999,9,99,9,99,9",,"10301,1,99999,9",,,,,,"MET095METAR LPSJ 161500Z 16005KT 9999 SCT020 SCT030 26/20 Q1030 RMK WIND RWY13 18003KT RWY31 19005KT;","P01 009003SCOCIG"
"08509599999","2010-08-16T16:00:00","4","38.6655","-28.175817","94.79","SAO JORGE, PO","FM-15","LPSJ ","V020","999,9,V,0021,1","99999,9,C,N","011265,1,N,1","+0250,1","+0200,1","99999,9","04,5,+00600,1,99,9","04,5,+00900,1,99,9",,,"04,99,1,99,9,99,9,99999,9,99,9,99,9",,"10291,1,99999,9",,,,,,"MET095METAR LPSJ 161600Z VRB04KT 9999 SCT020 SCT030 25/20 Q1029 RMK WIND RWY13 VRB05KT RWY31 VRB03KT;","P01 009003SCOCIG"
"08509599999","2010-08-17T09:00:00","4","38.6655","-28.175817","94.79","SAO JORGE, PO","FM-15","LPSJ ","V020","999,9,V,0005,1","99999,9,C,N","011265,1,N,1","+0230,1","+0200,1","99999,9","04,5,+00360,1,99,9","04,5,+00750,1,99,9",,,"04,99,1,99,9,99,9,99999,9,99,9,99,9",,"10291,1,99999,9",,,,,,"MET095METAR LPSJ 170900Z VRB01KT 9999 SCT012 SCT025 23/20 Q1029 RMK WIND RWY13 VRB01KT RWY31 VRB01KT;","P01 007503SCOCIG"
"08509599999","2010-08-17T10:00:00","4","38.6655","-28.175817","94.79","SAO JORGE, PO","FM-15","LPSJ ","V020","999,9,V,0005,1","99999,9,C,N","011265,1,N,1","+0230,1","+0210,1","99999,9","02,5,+00420,1,99,9","04,5,+00750,1,99,9",,,"04,99,1,99,9,99,9,99999,9,99,9,99,9",,"10291,1,99999,9",,,,,,"MET095METAR LPSJ 171000Z VRB01KT 9999 FEW014 SCT025 23/21 Q1029 RMK WIND RWY13 VRB02KT RWY31 VRB02KT;","P01 007503SCOCIG"
"08509599999","2010-08-17T11:00:00","4","38.6655","-28.175817","94.79","SAO JORGE, PO","FM-15","LPSJ ","V020","999,9,V,0010,1","22000,1,9,N","011265,1,N,1","+0240,1","+0200,1","99999,9","04,5,+00420,1,99,9",,,,"04,99,1,99,9,99,9,99999,9,99,9,99,9",,"10291,1,99999,9",,,,,,"MET088METAR LPSJ 171100Z VRB02KT 9999 SCT014 24/20 Q1029 RMK WIND RWY13 VRB03KT RWY31 VRB02KT;",
"08509599999","2010-08-17T12:00:00","4","38.6655","-28.175817","94.79","SAO JORGE, PO","FM-15","LPSJ ","V020","999,9,V,0010,1","99999,9,C,N","011265,1,N,1","+0240,1","+0210,1","99999,9","04,5,+00360,1,99,9","04,5,+00750,1,99,9",,,"04,99,1,99,9,99,9,99999,9,99,9,99,9",,"10301,1,99999,9",,,,,,"MET094METAR LPSJ 171200Z VRB02KT 9999 SCT012 SCT025 24/21 Q1030 RMK WIND RWY13 VRB02KT RWY31VRB02KT;","P01 007503SCOCIG"
"08509599999","2010-08-17T14:00:00","4","38.6655","-28.175817","94.79","SAO JORGE, PO","FM-15","LPSJ ","V020","999,9,V,0015,1","00750,1,C,N","008000,1,N,1","+0240,1","+0200,1","99999,9","04,5,+00360,1,99,9","07,5,+00750,1,99,9",,,"07,99,1,99,9,99,9,99999,9,99,9,99,9",,"10291,1,99999,9","80,1",,,,,"MET101METAR LPSJ 171400Z VRB03KT 8000 -SHRA SCT012 BKN025 24/20 Q1029 RMK WIND RWY13 VRB04KT RWY31 VRB01KT;",
"08509599999","2010-08-17T15:00:00","4","38.6655","-28.175817","94.79","SAO JORGE, PO","FM-15","LPSJ ","V020","999,9,V,0010,1","00750,1,C,N","011265,1,N,1","+0250,1","+0210,1","99999,9","04,5,+00360,1,99,9","07,5,+00750,1,99,9",,,"07,99,1,99,9,99,9,99999,9,99,9,99,9",,"10291,1,99999,9",,,,,,"MET095METAR LPSJ 171500Z VRB02KT 9999 SCT012 BKN025 25/21 Q1029 RMK WIND RWY13 VRB02KT RWY31 VRB03KT;",
"08509599999","2010-08-17T16:00:00","4","38.6655","-28.175817","94.79","SAO JORGE, PO","FM-15","LPSJ ","V020","270,1,N,0021,1","00180,1,C,N","002000,1,N,1","+0230,1","+0220,1","99999,9","04,5,+00060,1,99,9","04,5,+00180,1,99,9","07,5,+00300,1,99,9",,"07,99,1,99,9,99,9,99999,9,99,9,99,9",,"10281,1,99999,9","10,1","51,1","61,1",,,"MET106METAR LPSJ 171600Z 27004KT 2000 -DZRA BR SCT002 SCT006 BKN010 23/22 Q1028 RMK RWY13 VRB02KT RWY31 VRB03KT;",
"08509599999","2010-08-17T17:00:00","4","38.6655","-28.175817","94.79","SAO JORGE, PO","FM-15","LPSJ ","V020","999,9,9,9999,9","00180,5,9,N","002000,1,N,1","+0220,1","+0210,1","99999,9","04,5,+00060,5,99,9","07,5,+00180,5,99,9",,,,,"10280,1,99999,9",,,,,,"MET103METAR LPSJ 171700Z 2706KT 2000 -DZRA BR SCT002 BKN006 22/21 Q1028 RMK WIND RWY13 30002KT RWY31 27004KT;",
"08509599999","2010-08-17T18:00:00","4","38.6655","-28.175817","94.79","SAO JORGE, PO","FM-15","LPSJ ","V020","280,1,N,0031,1","00180,1,C,N","005000,1,N,1","+0220,1","+0210,1","99999,9","04,5,+00090,1,99,9","04,5,+00180,1,99,9","07,5,+00300,1,99,9",,"07,99,1,99,9,99,9,99999,9,99,9,99,9",,"10281,1,99999,9","10,1","51,1",,,,"MET109METAR LPSJ 171800Z 28006KT 5000 -DZ BR SCT003 SCT006 BKN010 22/21 Q1028 RMK WIND RWY13 30005KT RWY31 28005KT;",
"08509599999","2010-08-17T19:00:00","4","38.6655","-28.175817","94.79","SAO JORGE, PO","FM-15","LPSJ ","V020","270,1,N,0026,1","00240,1,C,N","011265,1,N,1","+0220,1","+0210,1","99999,9","02,5,+00150,1,99,9","04,5,+00240,1,99,9","07,5,+00360,1,99,9",,"07,99,1,99,9,99,9,99999,9,99,9,99,9",,"10281,1,99999,9",,,,,,"MET102METAR LPSJ 171900Z 27005KT 9999 FEW005 SCT008 BKN012 22/21 Q1028 RMK WIND RWY13 30004KT RWY31 28003KT;",
"08509599999","2010-08-18T09:00:00","4","38.6655","-28.175817","94.79","SAO JORGE, PO","FM-15","LPSJ ","V020","310,1,N,0026,1","99999,9,C,N","011265,1,N,1","+0220,1","+0200,1","99999,9","02,5,+00360,1,99,9","04,5,+00750,1,99,9",,,"04,99,1,99,9,99,9,99999,9,99,9,99,9",,"10251,1,99999,9",,,,,,"MET095METAR LPSJ 180900Z 31005KT 9999 FEW012 SCT025 22/20 Q1025 RMK WIND RWY13 34005KT RWY13 31006KT;","P01 007503SCOCIG"
"08509599999","2010-08-18T10:00:00","4","38.6655","-28.175817","94.79","SAO JORGE, PO","FM-15","LPSJ ","V020","300,1,N,0041,1","00900,1,C,N","011265,1,N,1","+0230,1","+0190,1","99999,9","02,5,+00420,1,99,9","07,5,+00900,1,99,9",,,"07,99,1,99,9,99,9,99999,9,99,9,99,9",,"10240,1,99999,9",,,,,,"MET095METAR LPSJ 181000Z 30008KT 9999 FEW014 BKN030 23/19 Q1024 RMK WIND RWY13 32005KT RWY31 30008KT;",
"08509599999","2010-08-18T11:00:00","4","38.6655","-28.175817","94.79","SAO JORGE, PO","FM-15","LPSJ ","V020","300,1,N,0051,1","00900,1,C,N","011265,1,N,1","+0230,1","+0190,1","99999,9","04,5,+00420,1,99,9","07,5,+00900,1,99,9",,,"07,99,1,99,9,99,9,99999,9,99,9,99,9",,"10251,1,99999,9",,,,,,"MET095METAR LPSJ 181100Z 30010KT 9999 SCT014 BKN030 23/19 Q1025 RMK WIND RWY13 32007KT RWY13 30007KT;",
"08509599999","2010-08-18T12:00:00","4","38.6655","-28.175817","94.79","SAO JORGE, PO","FM-15","LPSJ ","V020","290,1,N,0041,1","99999,9,C,N","011265,1,N,1","+0240,1","+0190,1","99999,9","04,5,+00360,1,99,9","04,5,+00900,1,99,9",,,"04,99,1,99,9,99,9,99999,9,99,9,99,9",,"10240,1,99999,9",,,,,,"MET111METAR LPSJ 181200Z 29008KT 9999 SCT012 SCT030 24/19 Q1024 RMK WIND RWY13 31005KT 260V340 RWY31 29009KT 250V330;","P01 009003SCOCIG"
"08509599999","2010-08-18T13:00:00","4","38.6655","-28.175817","94.79","SAO JORGE, PO","FM-15","LPSJ ","V020","310,1,N,0036,1","99999,9,C,N","011265,1,N,1","+0230,1","+0190,1","99999,9","04,5,+00420,1,99,9","04,5,+00900,1,99,9",,,"04,99,1,99,9,99,9,99999,9,99,9,99,9",,"10240,1,99999,9",,,,,,"MET095METAR LPSJ 181300Z 31007KT 9999 SCT014 SCT030 23/19 Q1024 RMK WIND RWY13 32004KT RWY31 31005KT;","P01 009003SCOCIG"
"08509599999","2010-08-18T14:00:00","4","38.6655","-28.175817","94.79","SAO JORGE, PO","FM-15","LPSJ ","V020","280,1,N,0041,1","99999,9,C,N","011265,1,N,1","+0230,1","+0190,1","99999,9","04,5,+00420,1,99,9","04,5,+00900,1,99,9",,,"04,99,1,99,9,99,9,99999,9,99,9,99,9",,"10240,1,99999,9",,,,,,"MET095METAR LPSJ 181400Z 28008KT 9999 SCT014 SCT030 23/19 Q1024 RMK WIND RWY13 31004KT RWY31 28004KT;","P01 009003SCOCIG"
"08509599999","2010-08-18T15:00:00","4","38.6655","-28.175817","94.79","SAO JORGE, PO","FM-15","LPSJ ","V020","280,1,N,0031,1","99999,9,C,N","011265,1,N,1","+0240,1","+0200,1","99999,9","02,5,+00480,1,99,9","04,5,+00900,1,99,9",,,"04,99,1,99,9,99,9,99999,9,99,9,99,9",,"10230,1,99999,9",,,,,,"MET095METAR LPSJ 181500Z 28006KT 9999 FEW016 SCT030 24/20 Q1023 RMK WIND RWY13 31005KT RWY31 28004KT;","P01 009003SCOCIG"
"08509599999","2010-08-18T16:00:00","4","38.6655","-28.175817","94.79","SAO JORGE, PO","FM-15","LPSJ ","V020","280,1,N,0031,1","99999,9,C,N","011265,1,N,1","+0240,1","+0190,1","99999,9","02,5,+00480,1,99,9","04,5,+00900,1,99,9",,,"04,99,1,99,9,99,9,99999,9,99,9,99,9",,"10220,1,99999,9",,,,,,"MET095METAR LPSJ 181600Z 28006KT 9999 FEW016 SCT030 24/19 Q1022 RMK WIND RWY13 30004KT RWY31 28004KT;","P01 009003SCOCIG"
"08509599999","2010-08-19T09:00:00","4","38.6655","-28.175817","94.79","SAO JORGE, PO","FM-15","LPSJ ","V020","270,1,N,0036,1","99999,9,C,N","011265,1,N,1","+0230,1","+0190,1","99999,9","02,5,+00510,1,99,9","04,5,+00900,1,99,9",,,"04,99,1,99,9,99,9,99999,9,99,9,99,9",,"10159,1,99999,9",,,,,,"MET095METAR LPSJ 190900Z 27007KT 9999 FEW017 SCT030 23/19 Q1016 RMK WIND RWY13 28004KT RWY31 27005KT;","P01 009003SCOCIG"
"08509599999","2010-08-19T10:00:00","4","38.6655","-28.175817","94.79","SAO JORGE, PO","FM-15","LPSJ ","V020","280,1,N,0057,1","99999,9,C,N","011265,1,N,1","+0230,1","+0190,1","99999,9","02,5,+00480,1,99,9","04,5,+00900,1,99,9",,,"04,99,1,99,9,99,9,99999,9,99,9,99,9",,"10159,1,99999,9",,,,,,"MET111METAR LPSJ 191000Z 28011KT 9999 FEW016 SCT030 23/19 Q1016 RMK WIND RWY13 29006KT 240V320 RWY31 27009KT 230V300;","P01 009003SCOCIG"
"08509599999","2010-08-19T11:00:00","4","38.6655","-28.175817","94.79","SAO JORGE, PO","FM-15","LPSJ ","V020","280,1,N,0046,1","99999,9,C,N","011265,1,N,1","+0240,1","+0200,1","99999,9","02,5,+00480,1,99,9","04,5,+00900,1,99,9",,,"04,99,1,99,9,99,9,99999,9,99,9,99,9",,"10149,1,99999,9",,,,,,"MET095METAR LPSJ 191100Z 28009KT 9999 FEW016 SCT030 24/20 Q1015 RMK WIND RWY13 30006KT RWY31 28009KT;","P01 009003SCOCIG"
"08509599999","2010-08-19T12:00:00","4","38.6655","-28.175817","94.79","SAO JORGE, PO","FM-15","LPSJ ","V020","280,1,N,0067,1","99999,9,C,N","011265,1,N,1","+0250,1","+0190,1","99999,9","02,5,+00540,1,99,9","04,5,+00900,1,99,9",,,"04,99,1,99,9,99,9,99999,9,99,9,99,9",,"10149,1,99999,9",,,,,,"MET111METAR LPSJ 191200Z 28013KT 9999 FEW018 SCT030 25/19 Q1015 RMK WIND RWY13 30008KT 250V350 RWY31 27012KT 220V310;","P01 009003SCOCIG"
"08509599999","2010-08-19T14:00:00","4","38.6655","-28.175817","94.79","SAO JORGE, PO","FM-15","LPSJ ","V020","260,1,N,0046,1","99999,9,C,N","011265,1,N,1","+0260,1","+0200,1","99999,9","04,5,+00540,1,99,9","04,5,+00900,1,99,9",,,"04,99,1,99,9,99,9,99999,9,99,9,99,9",,"10149,1,99999,9",,,,,,"MET095METAR LPSJ 191400Z 26009KT 9999 SCT018 SCT030 26/20 Q1015 RMK WIND RWY13 28004KT RWY31 26006KT;","P01 009003SCOCIG"
"08509599999","2010-08-19T15:00:00","4","38.6655","-28.175817","94.79","SAO JORGE, PO","FM-15","LPSJ ","V020","270,1,N,0041,1","99999,9,C,N","011265,1,N,1","+0260,1","+0190,1","99999,9","02,5,+00600,1,99,9","04,5,+01050,1,99,9",,,"04,99,1,99,9,99,9,99999,9,99,9,99,9",,"10149,1,99999,9",,,,,,"MET111METAR LPSJ 191500Z 27008KT 9999 FEW020 SCT035 26/19 Q1015 RMK WIND RWY13 29007KT 250V350 RWY31 26006KT 230V310;","P01 010503SCOCIG"
"08509599999","2010-08-19T17:00:00","4","38.6655","-28.175817","94.79","SAO JORGE, PO","FM-15","LPSJ ","V020","280,1,N,0062,1","99999,9,C,N","011265,1,N,1","+0250,1","+0200,1","99999,9","04,5,+00420,1,99,9","04,5,+00900,1,99,9",,,"04,99,1,99,9,99,9,99999,9,99,9,99,9",,"10139,1,99999,9",,,,,,"MET111METAR LPSJ 191700Z 28012KT 9999 SCT014 SCT030 25/20 Q1014 RMK WIND RWY13 29006KT 200V330 RWY31 27009KT 210V300;","P01 009003SCOCIG"
"08509599999","2010-08-19T18:00:00","4","38.6655","-28.175817","94.79","SAO JORGE, PO","FM-15","LPSJ ","V020","280,1,N,0057,1","99999,9,C,N","011265,1,N,1","+0250,1","+0210,1","99999,9","04,5,+00360,1,99,9","02,5,+00420,1,02,5","04,5,+00750,1,99,9",,"04,99,1,99,9,99,9,99999,9,99,9,99,9",,"10139,1,99999,9",,,,,,"MET121METAR LPSJ 191800Z 28011KT 9999 SCT012 FEW014TCU SCT025 25/21 Q1014 RMK WIND RWY13 29007KT 260V330 RWY31 27011KT 230V300;","P01 004203SCOCIG"
"08509599999","2010-08-20T08:00:00","4","38.6655","-28.175817","94.79","SAO JORGE, PO","FM-15","LPSJ ","V020","280,1,N,0031,1","00600,1,C,N","011265,1,N,1","+0220,1","+0210,1","99999,9","04,5,+00300,1,99,9","04,5,+00600,1,99,9","07,5,+02100,1,99,9",,"07,99,1,99,9,99,9,99999,9,99,9,99,9",,"10139,1,99999,9",,,,,,"MET102METAR LPSJ 200800Z 28006KT 9999 SCT010 SCT020 BKN070 22/21 Q1014 RMK WIND RWY13 30002KT RWY31 28003KT;",
"08509599999","2010-08-20T09:00:00","4","38.6655","-28.175817","94.79","SAO JORGE, PO","FM-15","LPSJ ","V020","280,1,N,0015,1","00300,1,C,N","011265,1,N,1","+0220,1","+0220,1","99999,9","04,5,+00120,1,99,9","04,5,+00300,1,99,9","07,5,+00600,1,99,9",,"07,99,1,99,9,99,9,99999,9,99,9,99,9",,"10149,1,99999,9",,,,,,"MET103METAR LPSJ 200900Z 28003KT 9999 SCT004 SCT010 BKN020 22/22 Q1015 ERMK WIND RWY13 30002KT RWY31 28004KT;",
"08509599999","2010-08-20T10:00:00","4","38.6655","-28.175817","94.79","SAO JORGE, PO","FM-15","LPSJ ","V020","999,9,V,0021,1","00420,1,C,N","011265,1,N,1","+0220,1","+0220,1","99999,9","04,5,+00180,1,99,9","04,5,+00420,1,99,9","07,5,+00750,1,99,9",,"07,99,1,99,9,99,9,99999,9,99,9,99,9",,"10149,1,99999,9","16,1",,,,,"MET107METAR LPSJ 201000Z VRB04KT 9999 VCSH SCT006 SCT014 BKN025 22/22 Q1015 RMK WIND RWY13 VRB03KT RWY31 VRB04KT;",
"08509599999","2010-08-20T11:00:00","4","38.6655","-28.175817","94.79","SAO JORGE, PO","FM-15","LPSJ ","V020","300,1,N,0031,1","00510,5,C,N","011265,1,N,1","+0230,1","+0210,1","99999,9","04,5,+00480,1,99,9","02,5,+00510,1,02,5",,,,,"10159,1,99999,9",,,,,,"MET098METAR LPSJ 201100Z 30006KT 9999 SCT016 FEW017TCU 23/21 Q1016 RMK WIND RWY13 31006KT RWY31 30005KT;","Q01+000022SCOTCV"
"08509599999","2010-08-20T12:00:00","4","38.6655","-28.175817","94.79","SAO JORGE, PO","FM-15","LPSJ ","V020","999,9,V,0010,1","99999,9,C,N","011265,1,N,1","+0240,1","+0190,1","99999,9","04,5,+00480,1,99,9","04,5,+00750,1,99,9",,,"04,99,1,99,9,99,9,99999,9,99,9,99,9",,"10159,1,99999,9",,,,,,"MET095METAR LPSJ 201200Z VRB02KT 9999 SCT016 SCT025 24/19 Q1016 RMK WIND RWY13 VRB03KT RWY31 VRB03KT;","P01 007503SCOCIG"
"08509599999","2010-08-20T14:00:00","4","38.6655","-28.175817","94.79","SAO JORGE, PO","FM-15","LPSJ ","V020","240,1,N,0026,1","99999,9,C,N","011265,1,N,1","+0250,1","+0200,1","99999,9","04,5,+00540,1,99,9","02,5,+00600,1,02,5","04,5,+06000,1,99,9",,"04,99,1,99,9,99,9,99999,9,99,9,99,9",,"10159,1,99999,9",,,,,,"MET105METAR LPSJ 201400Z 24005KT 9999 SCT018 FEW020TCU SCT200 25/20 Q1016 RMK WIND RWY13 26004KT RWY31 23004KT;","P01 006003SCOCIG"
"08509599999","2010-08-20T15:00:00","4","38.6655","-28.175817","94.79","SAO JORGE, PO","FM-15","LPSJ ","V020","999,9,V,0021,1","99999,9,C,N","011265,1,N,1","+0250,1","+0210,1","99999,9","02,5,+00540,1,99,9","04,5,+00900,1,99,9",,,"04,99,1,99,9,99,9,99999,9,99,9,99,9",,"10159,1,99999,9",,,,,,"MET081METAR LPSJ 201500Z VRB04KT 9999 FEW018 SCT030 25/21 Q1016 RMK WIND RWY13 VRB03KT;","P01 009003SCOCIG"
"08509599999","2010-08-20T16:00:00","4","38.6655","-28.175817","94.79","SAO JORGE, PO","FM-15","LPSJ ","V020","999,9,V,0021,1","99999,9,C,N","011265,1,N,1","+0250,1","+0200,1","99999,9","02,5,+00540,1,99,9","04,5,+00900,1,99,9",,,"04,99,1,99,9,99,9,99999,9,99,9,99,9",,"10159,1,99999,9",,,,,,"MET095METAR LPSJ 201600Z VRB04KT 9999 FEW018 SCT030 25/20 Q1016 RKM WIND RWY13 VRB02KT RWY31 VRB03KT;","P01 009003SCOCIG"
"08509599999","2010-08-21T09:00:00","4","38.6655","-28.175817","94.79","SAO JORGE, PO","FM-15","LPSJ ","V020","999,9,C,0000,1","06000,1,C,N","011265,1,N,1","+0220,1","+0190,1","99999,9","02,5,+00540,1,99,9","07,5,+06000,1,99,9",,,"07,99,1,99,9,99,9,99999,9,99,9,99,9",,"10190,1,99999,9",,,,,,"MET095METAR LPSJ 210900Z 00000KT 9999 FEW018 BKN200 22/19 Q1019 RMK WIND RWY13 00000KT RWY31 00000KT;",
"08509599999","2010-08-21T10:00:00","4","38.6655","-28.175817","94.79","SAO JORGE, PO","FM-15","LPSJ ","V020","999,9,C,0000,1","06000,1,C,N","011265,1,N,1","+0230,1","+0190,1","99999,9","02,5,+00600,1,99,9","07,5,+06000,1,99,9",,,"07,99,1,99,9,99,9,99999,9,99,9,99,9",,"10200,1,99999,9",,,,,,"MET095METAR LPSJ 211000Z 00000KT 9999 FEW020 BKN200 23/19 Q1020 RMK WIND RWY13 00000KT RWY31 VRB02KT;",
"08509599999","2010-08-21T11:00:00","4","38.6655","-28.175817","94.79","SAO JORGE, PO","FM-15","LPSJ ","V020","999,9,V,0015,1","06000,1,C,N","011265,1,N,1","+0250,1","+0190,1","99999,9","02,5,+00600,1,99,9","07,5,+06000,1,99,9",,,"07,99,1,99,9,99,9,99999,9,99,9,99,9",,"10200,1,99999,9",,,,,,"MET095METAR LPSJ 211100Z VRB03KT 9999 FEW020 BKN200 25/19 Q1020 RMK WIND RWY13 VRB02KT RWY31 VRB02KT;",
"08509599999","2010-08-21T14:00:00","4","38.6655","-28.175817","94.79","SAO JORGE, PO","FM-15","LPSJ ","V020","290,1,N,0031,1","06000,1,C,N","011265,1,N,1","+0260,1","+0200,1","99999,9","02,5,+00660,1,99,9","07,5,+06000,1,99,9",,,"07,99,1,99,9,99,9,99999,9,99,9,99,9",,"10200,1,99999,9",,,,,,"MET095METAR LPSJ 211400Z 29006KT 9999 FEW022 BKN200 26/20 Q1020 RMK WIND RWY13 32005KT RWY31 VRB04KT;",
"08509599999","2010-08-21T15:00:00","4","38.6655","-28.175817","94.79","SAO JORGE, PO","FM-15","LPSJ ","V020","260,1,N,0036,1","99999,9,C,N","011265,1,N,1","+0270,1","+0200,1","99999,9","02,5,+00750,1,99,9","04,5,+00900,1,99,9",,,"04,99,1,99,9,99,9,99999,9,99,9,99,9",,"10200,1,99999,9",,,,,,"MET103METAR LPSJ 211500Z 26007KT 9999 FEW025 SCT030 27/20 Q1020 RMK WIND RWY13 28006KT 240V330 RWY31 26005KT;","P01 009003SCOCIG"
"08509599999","2010-08-21T16:00:00","4","38.6655","-28.175817","94.79","SAO JORGE, PO","FM-15","LPSJ ","V020","290,1,N,0046,1","22000,1,9,N","011265,1,N,1","+0260,1","+0190,1","99999,9","04,5,+00810,1,99,9",,,,"04,99,1,99,9,99,9,99999,9,99,9,99,9",,"10200,1,99999,9",,,,,,"MET104METAR LPSJ 211600Z 29009KT 9999 SCT027 26/19 Q1020 RMK WIND RWY13 32007KT 270V340 RWY31 29007KT 260V320;",
"08509599999","2010-08-22T10:00:00","4","38.6655","-28.175817","94.79","SAO JORGE, PO","FM-15","LPSJ ","V020","270,1,N,0051,1","99999,9,C,N","011265,1,N,1","+0240,1","+0230,1","99999,9","02,5,+00180,1,99,9","04,5,+00360,1,99,9",,,"04,99,1,99,9,99,9,99999,9,99,9,99,9",,"10190,1,99999,9",,,,,,"MET111METAR LPSJ 221000Z 27010KT 9999 FEW006 SCT012 24/23 Q1019 RMK WIND RWY13 29006KT 250V330 RWY31 26008KT 240V300;","P01 003603SCOCIG"
"08509599999","2010-08-22T11:00:00","4","38.6655","-28.175817","94.79","SAO JORGE, PO","FM-15","LPSJ ","V020","280,1,N,0051,1","99999,9,C,N","011265,1,N,1","+0240,1","+0230,1","99999,9","02,5,+00180,1,99,9","04,5,+00360,1,99,9",,,"04,99,1,99,9,99,9,99999,9,99,9,99,9",,"10190,1,99999,9",,,,,,"MET111METAR LPSJ 221100Z 28010KT 9999 FEW006 SCT012 24/23 Q1019 RMK WIND RWY13 30005KT 270V340 RWY31 27008KT 230V300;","P01 003603SCOCIG"
"08509599999","2010-08-22T14:00:00","4","38.6655","-28.175817","94.79","SAO JORGE, PO","FM-15","LPSJ ","V020","270,1,N,0062,1","99999,9,C,N","011265,1,N,1","+0260,1","+0230,1","99999,9","04,5,+00300,1,99,9","04,5,+00600,1,99,9",,,"04,99,1,99,9,99,9,99999,9,99,9,99,9",,"10180,1,99999,9",,,,,,"MET089METAR LPSJ 221400Z 27012KT 9999 SCT010 SCT020 26/23 Q1018 RMK WIND RWY13 29007KT 240V340;","P01 006003SCOCIG"
"08509599999","2010-08-22T15:00:00","4","38.6655","-28.175817","94.79","SAO JORGE, PO","FM-15","LPSJ ","V020","270,1,N,0067,1","99999,9,C,N","011265,1,N,1","+0270,1","+0230,1","99999,9","04,5,+00330,1,99,9","04,5,+00600,1,99,9",,,"04,99,1,99,9,99,9,99999,9,99,9,99,9",,"10180,1,99999,9",,,,,,"MET114METAR LPSJ 221500Z 27013KT 9999 SCT011 SCT020 27/23 Q1018 RMK WIND RWY13 29007KT 240V350 RWY31 26008G18KT 210V300;","P01 006003SCOCIG"
"08509599999","2010-08-22T16:00:00","4","38.6655","-28.175817","94.79","SAO JORGE, PO","FM-15","LPSJ ","V020","270,1,N,0062,1","99999,9,C,N","011265,1,N,1","+0270,1","+0230,1","99999,9","02,5,+00240,1,99,9","04,5,+00360,1,99,9",,,"04,99,1,99,9,99,9,99999,9,99,9,99,9",,"10180,1,99999,9",,,,,,"MET111METAR LPSJ 221600Z 27012KT 9999 FEW008 SCT012 27/23 Q1018 RMK WIND RWY13 29006KT 240V350 RWY31 26010KT 210V290;","P01 003603SCOCIG"
"08509599999","2010-08-23T10:00:00","4","38.6655","-28.175817","94.79","SAO JORGE, PO","FM-15","LPSJ ","V020","270,1,N,0062,1","01050,1,C,N","011265,1,N,1","+0250,1","+0220,1","99999,9","04,5,+00420,1,99,9","07,5,+01050,1,99,9",,,"07,99,1,99,9,99,9,99999,9,99,9,99,9",,"10159,1,99999,9","16,1",,,,,"MET117METAR LPSJ 231000Z 27012KT 9999 VCSH SCT014 BKN035 25/22 Q1016 RMK WIND RWY132 28006KT 230V330 RWY31 27010KT 220V300;",
"08509599999","2010-08-23T11:00:00","4","38.6655","-28.175817","94.79","SAO JORGE, PO","FM-15","LPSJ ","V020","270,1,N,0051,1","00510,1,C,N","011265,1,N,1","+0240,1","+0220,1","99999,9","02,5,+00300,1,99,9","07,5,+00510,1,99,9",,,"07,99,1,99,9,99,9,99999,9,99,9,99,9",,"10159,1,99999,9",,,,,,"MET111METAR LPSJ 231100Z 27010KT 9999 FEW010 BKN017 24/22 Q1016 RMK WIND RWY13 28007KT 210V320 RWY31 26011KT 210V300;",
"08509599999","2010-08-23T12:00:00","4","38.6655","-28.175817","94.79","SAO JORGE, PO","FM-15","LPSJ ","V020","260,1,N,0057,1","00510,1,C,N","011265,1,N,1","+0250,1","+0220,1","99999,9","02,5,+00360,1,99,9","07,5,+00510,1,99,9",,,"07,99,1,99,9,99,9,99999,9,99,9,99,9",,"10159,1,99999,9",,,,,,"MET111METAR LPSJ 231200Z 26011KT 9999 FEW012 BKN017 25/22 Q1016 RMK WIND RWY13 27006KT 210V290 RWY31 25013KT 210V300;",
"08509599999","2010-08-23T14:00:00","4","38.6655","-28.175817","94.79","SAO JORGE, PO","FM-15","LPSJ ","V020","290,1,N,0036,1","99999,9,C,N","011265,1,N,1","+0260,1","+0220,1","99999,9","04,5,+00360,1,99,9","04,5,+02100,1,99,9",,,"04,99,1,99,9,99,9,99999,9,99,9,99,9",,"10149,1,99999,9",,,,,,"MET111METAR LPSJ 231400Z 29007KT 9999 SCT012 SCT070 26/22 Q1015 RMK WIND RWY13 29007KT 240V340 RWY31 27009KT 210V300;","P01 021003SCOCIG"
"08509599999","2010-08-23T15:00:00","4","38.6655","-28.175817","94.79","SAO JORGE, PO","FM-15","LPSJ ","V020","280,1,N,0062,1","01050,1,C,N","011265,1,N,1","+0260,1","+0210,1","99999,9","02,5,+00420,1,99,9","04,5,+01050,1,99,9","07,5,+06000,1,99,9",,"07,99,1,99,9,99,9,99999,9,99,9,99,9",,"10149,1,99999,9",,,,,,"MET122METAR LPSJ 231500Z 28012KT 9999 FEW014 SCT035 BKN200 26/21 Q1015 RMK WIND RWY132 28007KT 240V350 RWY31 26011G21KT 210V310;",
"08509599999","2010-08-23T16:00:00","4","38.6655","-28.175817","94.79","SAO JORGE, PO","FM-15","LPSJ ","V020","270,1,N,0067,1","99999,9,C,N","011265,1,N,1","+0270,1","+0220,1","99999,9","04,5,+00420,1,99,9","04,5,+01050,1,99,9",,,"04,99,1,99,9,99,9,99999,9,99,9,99,9",,"10149,1,99999,9",,,,,,"MET112METAR LPSJ 231600Z 27013KT 9999 SCT014 SCT035 27/22 Q1015 RMK WIND RWY13 28007KT 220V340 RWY31 26012G22 210V300;","P01 010503SCOCIG"
"08509599999","2010-08-24T09:00:00","4","38.6655","-28.175817","94.79","SAO JORGE, PO","FM-15","LPSJ ","V020","270,1,N,0057,1","99999,9,C,N","011265,1,N,1","+0230,1","+0220,1","99999,9","02,5,+00360,1,99,9","04,5,+02100,1,99,9",,,"04,99,1,99,9,99,9,99999,9,99,9,99,9",,"10129,1,99999,9",,,,,,"MET111METAR LPSJ 240900Z 27011KT 9999 FEW012 SCT070 23/22 Q1013 RMK WIND RWY13 28005KT 240V310 RWY31 26009KT 220V290;","P01 021003SCOCIG"
"08509599999","2010-08-24T10:00:00","4","38.6655","-28.175817","94.79","SAO JORGE, PO","FM-15","LPSJ ","V020","270,1,N,0031,1","99999,9,C,N","011265,1,N,1","+0240,1","+0220,1","99999,9","02,5,+00360,1,99,9","04,5,+02100,1,99,9",,,"04,99,1,99,9,99,9,99999,9,99,9,99,9",,"10129,1,99999,9",,,,,,"MET095METAR LPSJ 241000Z 27006KT 9999 FEW012 SCT070 24/22 Q1013 RMK WIND RWY13 29004KT RWY31 27006KT;","P01 021003SCOCIG"
"08509599999","2010-08-24T11:00:00","4","38.6655","-28.175817","94.79","SAO JORGE, PO","FM-15","LPSJ ","V020","250,1,N,0031,1","02100,1,C,N","011265,1,N,1","+0240,1","+0220,1","99999,9","04,5,+00390,1,99,9","04,5,+02100,1,99,9","07,5,+06000,1,99,9",,"07,99,1,99,9,99,9,99999,9,99,9,99,9",,"10129,1,99999,9",,,,,,"MET102METAR LPSJ 241100Z 25006KT 9999 SCT013 SCT070 BKN200 24/22 Q1013 RMK WIND RWY13 27005KT RWY31 25007KT;",
"08509599999","2010-08-24T14:00:00","4","38.6655","-28.175817","94.79","SAO JORGE, PO","FM-15","LPSJ ","V020","260,1,N,0057,1","02100,1,C,N","011265,1,N,1","+0250,1","+0210,1","99999,9","04,5,+00420,1,99,9","04,5,+02100,1,99,9","07,5,+06000,1,99,9",,"07,99,1,99,9,99,9,99999,9,99,9,99,9",,"10129,1,99999,9",,,,,,"MET118METAR LPSJ 241400Z 26011KT 9999 SCT014 SCT070 BKN200 25/21 Q1013 RMK WIND RWY13 28006KT 240V310 RWY31 26010KT 240V300;",
"08509599999","2010-08-24T15:00:00","4","38.6655","-28.175817","94.79","SAO JORGE, PO","FM-15","LPSJ ","V020","260,1,N,0057,1","02100,1,C,N","011265,1,N,1","+0250,1","+0220,1","99999,9","04,5,+00360,1,99,9","04,5,+02100,1,99,9","07,5,+06000,1,99,9",,"07,99,1,99,9,99,9,99999,9,99,9,99,9",,"10129,1,99999,9",,,,,,"MET118METAR LPSJ 241500Z 26011KT 9999 SCT012 SCT070 BKN200 25/22 Q1013 RMK WIND RWY13 28007KT 240V320 RWY31 26010KT 230V300;",
"08509599999","2010-08-24T16:00:00","4","38.6655","-28.175817","94.79","SAO JORGE, PO","FM-15","LPSJ ","V020","260,1,N,0051,1","02100,1,C,N","011265,1,N,1","+0250,1","+0220,1","99999,9","02,5,+00420,1,99,9","07,5,+02100,1,99,9","08,5,+06000,1,99,9",,"08,99,1,99,9,99,9,99999,9,99,9,99,9",,"10129,1,99999,9",,,,,,"MET118METAR LPSJ 241600Z 26010KT 9999 FEW014 BKN070 OVC200 25/22 Q1013 RMK WIND RWY13 28005KT 240V330 RWY31 25011KT 220V300;",
"08509599999","2010-08-24T17:00:00","4","38.6655","-28.175817","94.79","SAO JORGE, PO","FM-15","LPSJ ","V020","270,1,N,0031,1","00420,1,C,N","011265,1,N,1","+0250,1","+0220,1","99999,9","04,5,+00330,1,99,9","02,5,+00420,1,02,5","07,5,+02100,1,99,9","08,5,+06000,1,99,9","08,99,1,99,9,99,9,99999,9,99,9,99,9",,"10129,1,99999,9",,,,,,"MET112METAR LPSJ 241700Z 27006KT 9999 SCT011 FEW014TCU BKN070 OVC200 25/22 Q1013 RMK WIND RWY13 29005KT RWY31 27005KT;",
"08509599999","2010-08-25T09:00:00","4","38.6655","-28.175817","94.79","SAO JORGE, PO","FM-15","LPSJ ","V020","320,1,N,0026,1","02100,1,C,N","011265,1,N,1","+0220,1","+0190,1","99999,9","02,5,+00420,1,99,9","07,5,+02100,1,99,9",,,"07,99,1,99,9,99,9,99999,9,99,9,99,9",,"10091,1,99999,9",,,,,,"MET095METAR LPSJ 250900Z 32005KT 9999 FEW014 BKN070 22/19 Q1009 RMK WIND RWY13 34006KT RWY31 32008KT;",
"08509599999","2010-08-25T10:00:00","4","38.6655","-28.175817","94.79","SAO JORGE, PO","FM-15","LPSJ ","V020","290,1,N,0036,1","99999,9,C,N","011265,1,N,1","+0230,1","+0190,1","99999,9","04,5,+00420,1,99,9","02,5,+00480,1,02,5","04,5,+02100,1,99,9",,"04,99,1,99,9,99,9,99999,9,99,9,99,9",,"10102,1,99999,9",,,,,,"MET105METAR LPSJ 251000Z 29007KT 9999 SCT014 FEW016TCU SCT070 23/19 Q1010 RMK WIND RWY13 31007KT RWY31 29005KT;","P01 004803SCOCIG"
"08509599999","2010-08-25T11:00:00","4","38.6655","-28.175817","94.79","SAO JORGE, PO","FM-15","LPSJ ","V020","280,1,N,0046,1","00570,5,C,N","011265,1,N,1","+0240,1","+0190,1","99999,9","04,5,+00510,1,99,9","02,5,+00570,1,02,5",,,,,"10102,1,99999,9",,,,,,"MET106METAR LPSJ 251100Z 28009KT 9999 SCT017 FEW019TCU 24/19 Q1010 RMK WIND RWY13 30007KT 270V330 RWY31 28008KT;","Q01+000022SCOTCV"
"08509599999","2010-08-25T12:00:00","4","38.6655","-28.175817","94.79","SAO JORGE, PO","FM-15","LPSJ ","V020","210,1,N,0062,1","22000,1,9,N","011265,1,N,1","+0240,1","+0170,1","99999,9","04,5,+00600,1,99,9",,,,"04,99,1,99,9,99,9,99999,9,99,9,99,9",,"10102,1,99999,9",,,,,,"MET088METAR LPSJ 251200Z 21012KT 9999 SCT020 24/17 Q1010 RMK WIND RWY13 33007KT RWY31 30009KT;",
"08509599999","2010-08-25T13:00:00","4","38.6655","-28.175817","94.79","SAO JORGE, PO","FM-15","LPSJ ","V020","260,1,N,0051,1","22000,1,9,N","011265,1,N,1","+0250,1","+0170,1","99999,9","04,5,+00690,1,99,9",,,,"04,99,1,99,9,99,9,99999,9,99,9,99,9",,"10102,1,99999,9",,,,,,"MET088METAR LPSJ 251300Z 26010KT 9999 SCT023 25/17 Q1010 RMK WIND RWY13 29008KT RWY31 26009KT;",
"08509599999","2010-08-25T14:00:00","4","38.6655","-28.175817","94.79","SAO JORGE, PO","FM-15","LPSJ ","V020","270,1,N,0057,1","22000,1,9,N","011265,1,N,1","+0250,1","+0190,1","99999,9","04,5,+00690,1,99,9",,,,"04,99,1,99,9,99,9,99999,9,99,9,99,9",,"10102,1,99999,9",,,,,,"MET104METAR LPSJ 251400Z 27011KT 9999 SCT023 25/19 Q1010 RMK WIND RWY13 29011KT 260V340 RWY31 27011KT 230V300;",
"08509599999","2010-08-25T15:00:00","4","38.6655","-28.175817","94.79","SAO JORGE, PO","FM-15","LPSJ ","V020","290,1,N,0067,1","22000,1,9,N","011265,1,N,1","+0260,1","+0170,1","99999,9","04,5,+00750,1,99,9",,,,"04,99,1,99,9,99,9,99999,9,99,9,99,9",,"10102,1,99999,9",,,,,,"MET104METAR LPSJ 251500Z 29013KT 9999 SCT025 26/17 Q1010 RMK WIND RWY13 31008KT 260V350 RWY31 29009KT 260V330;",
"08509599999","2010-08-25T16:00:00","4","38.6655","-28.175817","94.79","SAO JORGE, PO","FM-15","LPSJ ","V020","280,1,N,0062,1","22000,1,9,N","011265,1,N,1","+0260,1","+0180,1","99999,9","04,5,+00600,1,99,9",,,,"04,99,1,99,9,99,9,99999,9,99,9,99,9",,"10102,1,99999,9",,,,,,"MET104METAR LPSJ 251600Z 28012KT 9999 SCT020 26/18 Q1010 RMK WIND RWY13 30008KT 260V350 RWY31 28008KT 230V300;",
"08509599999","2010-08-30T16:00:00","4","38.6655","-28.175817","94.79","SAO JORGE, PO","FM-15","LPSJ ","V020","280,1,N,0077,1","99999,9,C,N","011265,1,N,1","+0230,1","+9999,9","99999,9","04,5,+00450,1,99,9","04,5,+00750,1,99,9",,,"04,99,1,99,9,99,9,99999,9,99,9,99,9",,"10150,1,99999,9",,,,,,"MET115METAR LPSJ 301600Z 28015KT 9999 SCT015 SCT025 23//19 Q1015 RMK WIND RWY13 31009KT 270V340 RWY31 28008G18KT 240V310;","P01 007503SCOCIG"
"08509599999","2010-08-31T09:00:00","4","38.6655","-28.175817","94.79","SAO JORGE, PO","FM-15","LPSJ ","V020","999,9,V,0026,1","22000,1,9,N","011265,1,N,1","+0210,1","+0180,1","99999,9","04,5,+00480,1,99,9",,,,"04,99,1,99,9,99,9,99999,9,99,9,99,9",,"10169,1,99999,9",,,,,,"MET088METAR LPSJ 310900Z VRB05KT 9999 SCT016 21/18 Q1017 RMK WIND RWY13 VRB03KT RWY31 VRB03KT;",
"08509599999","2010-08-31T10:00:00","4","38.6655","-28.175817","94.79","SAO JORGE, PO","FM-15","LPSJ ","V020","999,9,V,0031,1","99999,9,C,N","011265,1,N,1","+0220,1","+0180,1","99999,9","02,5,+00540,1,99,9","04,5,+00900,1,99,9",,,"04,99,1,99,9,99,9,99999,9,99,9,99,9",,"10169,1,99999,9",,,,,,"MET095METAR LPSJ 311000Z VRB06KT 9999 FEW018 SCT030 22/18 Q1017 RMK WIND RWY13 VRB05KT RWY31 VRB04KT;","P01 009003SCOCIG"
"08509599999","2010-08-31T11:00:00","4","38.6655","-28.175817","94.79","SAO JORGE, PO","FM-15","LPSJ ","V020","300,1,N,0036,1","22000,1,9,N","011265,1,N,1","+0220,1","+0180,1","99999,9","04,5,+00540,1,99,9",,,,"04,99,1,99,9,99,9,99999,9,99,9,99,9",,"10169,1,99999,9",,,,,,"MET088METAR LPSJ 311100Z 30007KT 9999 SCT018 22/18 Q1017 RMK WIND RWY13 32006KT RWY31 30006KT;",
"08509599999","2010-08-31T12:00:00","4","38.6655","-28.175817","94.79","SAO JORGE, PO","FM-15","LPSJ ","V020","300,1,N,0026,1","22000,1,9,N","011265,1,N,1","+0230,1","+0180,1","99999,9","04,5,+00570,1,99,9",,,,"04,99,1,99,9,99,9,99999,9,99,9,99,9",,"10169,1,99999,9",,,,,,"MET088METAR LPSJ 311200Z 30005KT 9999 SCT019 23/18 Q1017 RMK WIND RWY13 32005KT RWY31 VRB05KT;",
"08509599999","2010-08-31T13:00:00","4","38.6655","-28.175817","94.79","SAO JORGE, PO","FM-15","LPSJ ","V020","240,1,N,0031,1","22000,1,9,N","011265,1,N,1","+0230,1","+0180,1","99999,9","02,5,+00540,1,99,9",,,,"02,99,1,99,9,99,9,99999,9,99,9,99,9",,"10169,1,99999,9",,,,,,"MET088METAR LPSJ 311300Z 24006KT 9999 FEW018 23/18 Q1017 RMK WIND RWY13 26005KT RWY31 24004KT;",
"08509599999","2010-08-31T14:00:00","4","38.6655","-28.175817","94.79","SAO JORGE, PO","FM-15","LPSJ ","V020","250,1,N,0041,1","22000,1,9,N","011265,1,N,1","+0230,1","+0180,1","99999,9","04,5,+00600,1,99,9",,,,"04,99,1,99,9,99,9,99999,9,99,9,99,9",,"10169,1,99999,9",,,,,,"MET088METAR LPSJ 311400Z 25008KT 9999 SCT020 23/18 Q1017 RMK WIND RWY13 27005KT RWY31 25004KT;",
"08509599999","2010-08-31T16:00:00","4","38.6655","-28.175817","94.79","SAO JORGE, PO","FM-15","LPSJ ","V020","300,1,N,0062,1","22000,1,9,N","011265,1,N,1","+0240,1","+0190,1","99999,9","02,5,+00540,1,99,9",,,,"02,99,1,99,9,99,9,99999,9,99,9,99,9",,"10159,1,99999,9",,,,,,"MET088METAR LPSJ 311600Z 30012KT 9999 FEW018 24/19 Q1016 RMK WIND RWY13 32008KT RWY31 30008KT;",
"08509599999","2010-08-31T17:00:00","4","38.6655","-28.175817","94.79","SAO JORGE, PO","FM-15","LPSJ ","V020","290,1,N,0062,1","22000,1,9,N","011265,1,N,1","+0240,1","+0190,1","99999,9","02,5,+00540,1,99,9",,,,"02,99,1,99,9,99,9,99999,9,99,9,99,9",,"10159,1,99999,9",,,,,,"MET088METAR LPSJ 311700Z 29012KT 9999 FEW018 24/19 Q1016 RMK WIND RWY13 31008KT RWY31 28007KT;",
"08509599999","2010-09-01T09:00:00","4","38.6655","-28.175817","94.79","SAO JORGE, PO","FM-15","LPSJ ","V020","280,1,N,0051,1","22000,1,9,N","011265,1,N,1","+0230,1","+0210,1","99999,9","04,5,+00360,1,99,9",,,,"04,99,1,99,9,99,9,99999,9,99,9,99,9",,"10129,1,99999,9",,,,,,"MET088METAR LPSJ 010900Z 28010KT 9999 SCT012 23/21 Q1013 RMK WIND RWY13 29005KT RWY31 27012KT;",
"08509599999","2010-09-01T10:00:00","4","38.6655","-28.175817","94.79","SAO JORGE, PO","FM-15","LPSJ ","V020","240,1,N,0057,1","22000,1,9,N","011265,1,N,1","+0230,1","+0210,1","99999,9","04,5,+00360,1,99,9",,,,"04,99,1,99,9,99,9,99999,9,99,9,99,9",,"10129,1,99999,9",,,,,,"MET088METAR LPSJ 011000Z 24011KT 9999 SCT012 23/21 Q1013 RMK WIND RWY13 27006KT RWY31 26012KT;",
"08509599999","2010-09-01T11:00:00","4","38.6655","-28.175817","94.79","SAO JORGE, PO","FM-15","LPSJ ","V020","270,1,N,0051,1","99999,9,C,N","011265,1,N,1","+0230,1","+0210,1","99999,9","04,5,+00390,1,99,9","04,5,+00600,1,99,9",,,"04,99,1,99,9,99,9,99999,9,99,9,99,9",,"10129,1,99999,9",,,,,,"MET095METAR LPSJ 011100Z 27010KT 9999 SCT013 SCT020 23/21 Q1013 RMK WIND RWY13 27006KT RWY31 26012KT;","P01 006003SCOCIG"
"08509599999","2010-09-01T13:00:00","4","38.6655","-28.175817","94.79","SAO JORGE, PO","FM-15","LPSJ ","V020","260,1,N,0057,1","99999,9,C,N","011265,1,N,1","+0240,1","+0210,1","99999,9","04,5,+00360,1,99,9","04,5,+00600,1,99,9",,,"04,99,1,99,9,99,9,99999,9,99,9,99,9",,"10129,1,99999,9",,,,,,"MET114METAR LPSJ 011300Z 26011KT 9999 SCT012 SCT020 24/21 Q1013 RMK WIND RWY13 27007KT 230V330 RWY31 26009G20KT 210V310;","P01 006003SCOCIG"
"08509599999","2010-09-01T14:00:00","4","38.6655","-28.175817","94.79","SAO JORGE, PO","FM-15","LPSJ ","V020","300,1,N,0046,1","00600,1,C,N","011265,1,N,1","+0220,1","+0210,1","99999,9","04,5,+00360,1,99,9","07,5,+00600,1,99,9",,,"07,99,1,99,9,99,9,99999,9,99,9,99,9",,"10129,1,99999,9",,,,,,"MET095METAR LPSJ 011400Z 30009KT 9999 SCT012 BKN020 22/21 Q1013 RMK WIND RWY13 32007KT RWY31 30004KT;",
"08509599999","2010-09-01T15:00:00","4","38.6655","-28.175817","94.79","SAO JORGE, PO","FM-15","LPSJ ","V020","280,1,N,0041,1","00360,1,C,N","011265,1,N,1","+0220,1","+0210,1","99999,9","02,5,+00240,1,99,9","04,5,+00360,1,99,9","07,5,+00600,1,99,9",,"07,99,1,99,9,99,9,99999,9,99,9,99,9",,"10129,1,99999,9","16,1",,,,,"MET100METAR LPSJ 011500Z 28008KT 9999 5000SW VCSH FEW008 SCT012 BKN020 22/21 Q1013 RMK WIND RWY13 29004KT;",
"08509599999","2010-09-01T16:00:00","4","38.6655","-28.175817","94.79","SAO JORGE, PO","FM-15","LPSJ ","V020","270,1,N,0036,1","99999,9,C,N","011265,1,N,1","+0230,1","+0200,1","99999,9","02,5,+00480,1,99,9","04,5,+00750,1,99,9",,,"04,99,1,99,9,99,9,99999,9,99,9,99,9",,"10129,1,99999,9",,,,,,"MET095METAR LPSJ 011600Z 27007KT 9999 FEW016 SCT025 23/20 Q1013 RMK WIND RWY13 29006KT RWY31 27005KT;","P01 007503SCOCIG"
"08509599999","2010-09-01T17:00:00","4","38.6655","-28.175817","94.79","SAO JORGE, PO","FM-15","LPSJ ","V020","290,1,N,0067,1","99999,9,C,N","011265,1,N,1","+0240,1","+0200,1","99999,9","02,5,+00480,1,99,9","04,5,+00900,1,99,9",,,"04,99,1,99,9,99,9,99999,9,99,9,99,9",,"10129,1,99999,9",,,,,,"MET095METAR LPSJ 011700Z 29013KT 9999 FEW016 SCT030 24/20 Q1013 RMK WIND RWY13 31008KT RWY31 29006KT;","P01 009003SCOCIG"
"08509599999","2010-09-01T18:00:00","4","38.6655","-28.175817","94.79","SAO JORGE, PO","FM-15","LPSJ ","V020","290,1,N,0046,1","99999,9,C,N","011265,1,N,1","+0240,1","+0190,1","99999,9","04,5,+00420,1,99,9","04,5,+00750,1,99,9",,,"04,99,1,99,9,99,9,99999,9,99,9,99,9",,"10129,1,99999,9",,,,,,"MET095METAR LPSJ 011800Z 29009KT 9999 SCT014 SCT025 24/19 Q1013 RMK WIND RWY13 31006KT RWY31 29007KT;","P01 007503SCOCIG"
"08509599999","2010-09-02T09:00:00","4","38.6655","-28.175817","94.79","SAO JORGE, PO","FM-15","LPSJ ","V020","160,1,N,0041,1","02100,1,C,N","011265,1,N,1","+0230,1","+0200,1","99999,9","04,5,+00480,1,99,9","07,5,+02100,1,99,9",,,"07,99,1,99,9,99,9,99999,9,99,9,99,9",,"10129,1,99999,9",,,,,,"MET090METAR LPSJ 020900Z 16008KT 9999 SCT016 BKN070 23/20 Q1013 RMK RWY13 16004KT RWY31 15003KT;",
"08509599999","2010-09-02T10:00:00","4","38.6655","-28.175817","94.79","SAO JORGE, PO","FM-15","LPSJ ","V020","999,9,V,0026,1","99999,9,C,N","011265,1,N,1","+0240,1","+0200,1","99999,9","04,5,+00480,1,99,9","04,5,+00810,1,99,9",,,"04,99,1,99,9,99,9,99999,9,99,9,99,9",,"10139,1,99999,9",,,,,,"MET095METAR LPSJ 021000Z VRB05KT 9999 SCT016 SCT027 24/20 Q1014 RMK WIND RWY13 VRB03KT RWY31 VRB03KT;","P01 008103SCOCIG"
"08509599999","2010-09-02T11:00:00","4","38.6655","-28.175817","94.79","SAO JORGE, PO","FM-15","LPSJ ","V020","999,9,V,0010,1","99999,9,C,N","011265,1,N,1","+0250,1","+0200,1","99999,9","04,5,+00450,1,99,9","04,5,+00750,1,99,9",,,"04,99,1,99,9,99,9,99999,9,99,9,99,9",,"10139,1,99999,9",,,,,,"MET095METAR LPSJ 021100Z VRB02KT 9999 SCT015 SCT025 25/20 Q1014 RMK WIND RWY13 VRB03KT RWY31 VRB02KT;","P01 007503SCOCIG"
"08509599999","2010-09-02T12:00:00","4","38.6655","-28.175817","94.79","SAO JORGE, PO","FM-15","LPSJ ","V020","999,9,V,0015,1","99999,9,C,N","011265,1,N,1","+0250,1","+0200,1","99999,9","04,5,+00450,1,99,9","04,5,+00750,1,99,9",,,"04,99,1,99,9,99,9,99999,9,99,9,99,9",,"10139,1,99999,9",,,,,,"MET095METAR LPSJ 021200Z VRB03KT 9999 SCT015 SCT025 25/20 Q1014 RMK WIND RWY13 VRB03KT RWY31 VRB04KT;","P01 007503SCOCIG"
"08509599999","2010-09-02T13:00:00","4","38.6655","-28.175817","94.79","SAO JORGE, PO","FM-15","LPSJ ","V020","200,1,N,0021,1","99999,9,C,N","011265,1,N,1","+0250,1","+0200,1","99999,9","04,5,+00420,1,99,9","04,5,+00750,1,99,9",,,"04,99,1,99,9,99,9,99999,9,99,9,99,9",,"10139,1,99999,9",,,,,,"MET095METAR LPSJ 021300Z 20004KT 9999 SCT014 SCT025 25/20 Q1014 RMK WIND RWY13 20003KT RWY31 21003KT;","P01 007503SCOCIG"
"08509599999","2010-09-02T15:00:00","4","38.6655","-28.175817","94.79","SAO JORGE, PO","FM-15","LPSJ ","V020","240,1,N,0031,1","99999,9,C,N","011265,1,N,1","+0250,1","+0210,1","99999,9","04,5,+00450,1,99,9","04,5,+00750,1,99,9",,,"04,99,1,99,9,99,9,99999,9,99,9,99,9",,"10139,1,99999,9",,,,,,"MET095METAR LPSJ 021500Z 24006KT 9999 SCT015 SCT025 25/21 Q1014 RMK WIND RWY13 24007KT RWY31 25008KT;","P01 007503SCOCIG"
"08509599999","2010-09-02T16:00:00","4","38.6655","-28.175817","94.79","SAO JORGE, PO","FM-15","LPSJ ","V020","280,1,N,0031,1","99999,9,C,N","011265,1,N,1","+0240,1","+0210,1","99999,9","04,5,+00420,1,99,9","04,5,+00750,1,99,9",,,"04,99,1,99,9,99,9,99999,9,99,9,99,9",,"10129,1,99999,9",,,,,,"MET095METAR LPSJ 021600Z 28006KT 9999 SCT014 SCT025 24/21 Q1013 RMK WIND RWY13 26004KT RWY31 26006KT;","P01 007503SCOCIG"
"08509599999","2010-09-02T17:00:00","4","38.6655","-28.175817","94.79","SAO JORGE, PO","FM-15","LPSJ ","V020","260,1,N,0036,1","99999,9,C,N","011265,1,N,1","+0240,1","+0200,1","99999,9","04,5,+00480,1,99,9","04,5,+00750,1,99,9",,,"04,99,1,99,9,99,9,99999,9,99,9,99,9",,"10129,1,99999,9",,,,,,"MET095METAR LPSJ 021700Z 26007KT 9999 SCT016 SCT025 24/20 Q1013 RMK WIND RWY13 26004KT RWY31 26005KT;","P01 007503SCOCIG"
"08509599999","2010-09-02T18:00:00","4","38.6655","-28.175817","94.79","SAO JORGE, PO","FM-15","LPSJ ","V020","280,1,N,0041,1","99999,9,C,N","011265,1,N,1","+0240,1","+0200,1","99999,9","04,5,+00480,1,99,9","04,5,+02100,1,99,9",,,"04,99,1,99,9,99,9,99999,9,99,9,99,9",,"10129,1,99999,9",,,,,,"MET095METAR LPSJ 021800Z 28008KT 9999 SCT016 SCT070 24/20 Q1013 RMK WIND RWY13 27005KT RWY31 26008KT;","P01 021003SCOCIG"
"08509599999","2010-09-03T09:00:00","4","38.6655","-28.175817","94.79","SAO JORGE, PO","FM-15","LPSJ ","V020","360,1,N,0021,1","22000,1,9,N","011265,1,N,1","+0190,1","+0160,1","99999,9","02,5,+00900,1,99,9",,,,"02,99,1,99,9,99,9,99999,9,99,9,99,9",,"10159,1,99999,9",,,,,,"MET088METAR LPSJ 030900Z 36004KT 9999 FEW030 19/16 Q1016 RMK WIND RWY13 02005KT RWY31 01005KT;",
"08509599999","2010-09-03T10:00:00","4","38.6655","-28.175817","94.79","SAO JORGE, PO","FM-15","LPSJ ","V020","320,1,N,0031,1","99999,9,C,N","011265,1,N,1","+0200,1","+0160,1","99999,9","02,5,+00900,1,99,9","04,5,+06000,1,99,9",,,"04,99,1,99,9,99,9,99999,9,99,9,99,9",,"10169,1,99999,9",,,,,,"MET095METAR LPSJ 031000Z 32006KT 9999 FEW030 SCT200 20/16 Q1017 RMK WIND RWY13 32005KT RWY31 33004KT;","P01 060003SCOCIG"
"08509599999","2010-09-03T11:00:00","4","38.6655","-28.175817","94.79","SAO JORGE, PO","FM-15","LPSJ ","V020","260,1,N,0031,1","99999,9,C,N","011265,1,N,1","+0220,1","+0160,1","99999,9","02,5,+00900,1,99,9","04,5,+06000,1,99,9",,,"04,99,1,99,9,99,9,99999,9,99,9,99,9",,"10169,1,99999,9",,,,,,"MET095METAR LPSJ 031100Z 26006KT 9999 FEW030 SCT200 22/16 Q1017 RMK WIND RWY13 29005KT RWY31 26006KT;","P01 060003SCOCIG"
"08509599999","2010-09-03T12:00:00","4","38.6655","-28.175817","94.79","SAO JORGE, PO","FM-15","LPSJ ","V020","260,1,N,0036,1","99999,9,C,N","011265,1,N,1","+0220,1","+0170,1","99999,9","02,5,+00750,1,99,9","04,5,+06000,1,99,9",,,"04,99,1,99,9,99,9,99999,9,99,9,99,9",,"10169,1,99999,9",,,,,,"MET095METAR LPSJ 031200Z 26007KT 9999 FEW025 SCT200 22/17 Q1017 RMK WIND RWY13 26005KT RWY31 26006KT;","P01 060003SCOCIG"
"08509599999","2010-09-04T09:00:00","4","38.6655","-28.175817","94.79","SAO JORGE, PO","FM-15","LPSJ ","V020","999,9,V,0010,1","22000,1,9,N","011265,1,N,1","+0200,1","+0170,1","99999,9","02,5,+00750,1,99,9",,,,"02,99,1,99,9,99,9,99999,9,99,9,99,9",,"10200,1,99999,9",,,,,,"MET088METAR LPSJ 040900Z VRB02KT 9999 FEW025 20/17 Q1020 RMK WIND RWY13 VRB02KT RWY31 VRB02KT;",
"08509599999","2010-09-04T10:00:00","4","38.6655","-28.175817","94.79","SAO JORGE, PO","FM-15","LPSJ ","V020","300,1,N,0026,1","99999,9,C,N","011265,1,N,1","+0210,1","+0160,1","99999,9","02,5,+00750,1,99,9","04,5,+06000,1,99,9",,,"04,99,1,99,9,99,9,99999,9,99,9,99,9",,"10200,1,99999,9",,,,,,"MET095METAR LPSJ 041000Z 30005KT 9999 FEW025 SCT200 21/16 Q1020 RMK WIND RWY13 31005KT RWY31 30004KT;","P01 060003SCOCIG"
"08509599999","2010-09-04T11:00:00","4","38.6655","-28.175817","94.79","SAO JORGE, PO","FM-15","LPSJ ","V020","290,1,N,0026,1","99999,9,C,N","011265,1,N,1","+0230,1","+0170,1","99999,9","02,5,+00750,1,99,9","04,5,+06000,1,99,9",,,"04,99,1,99,9,99,9,99999,9,99,9,99,9",,"10200,1,99999,9",,,,,,"MET095METAR LPSJ 041100Z 29005KT 9999 FEW025 SCT200 23/17 Q1020 RMK WIND RWY13 31005KT RWY31 VRB02KT;","P01 060003SCOCIG"
"08509599999","2010-09-04T13:00:00","4","38.6655","-28.175817","94.79","SAO JORGE, PO","FM-15","LPSJ ","V020","250,1,N,0036,1","99999,9,C,N","011265,1,N,1","+0240,1","+0170,1","99999,9","02,5,+02700,1,99,9","04,5,+06000,1,99,9",,,"04,99,1,99,9,99,9,99999,9,99,9,99,9",,"10200,1,99999,9",,,,,,"MET095METAR LPSJ 041300Z 25007KT 9999 FEW090 SCT200 24/17 Q1020 RMK WIND RWY13 28004KT RWY31 25004KT;","P01 060003SCOCIG"
"08509599999","2010-09-04T14:00:00","4","38.6655","-28.175817","94.79","SAO JORGE, PO","FM-15","LPSJ ","V020","280,1,N,0051,1","22000,1,9,N","011265,1,N,1","+0240,1","+0170,1","99999,9","02,5,+00900,1,99,9",,,,"02,99,1,99,9,99,9,99999,9,99,9,99,9",,"10200,1,99999,9",,,,,,"MET088METAR LPSJ 041400Z 28010KT 9999 FEW030 24/17 Q1020 RMK WIND RWY13 31006KT RWY31 29008KT;",
"08509599999","2010-09-04T15:00:00","4","38.6655","-28.175817","94.79","SAO JORGE, PO","FM-15","LPSJ ","V020","290,1,N,0041,1","22000,1,9,N","011265,1,N,1","+0240,1","+0170,1","99999,9","02,5,+00810,1,99,9",,,,"02,99,1,99,9,99,9,99999,9,99,9,99,9",,"10200,1,99999,9",,,,,,"MET088METAR LPSJ 041500Z 29008KT 9999 FEW027 24/17 Q1020 RMK WIND RWY13 30005KT RWY31 28004KT;",
"08509599999","2010-09-04T16:00:00","4","38.6655","-28.175817","94.79","SAO JORGE, PO","FM-15","LPSJ ","V020","240,1,N,0031,1","22000,1,9,N","011265,1,N,1","+0240,1","+0170,1","99999,9","02,5,+00900,1,99,9",,,,"02,99,1,99,9,99,9,99999,9,99,9,99,9",,"10190,1,99999,9",,,,,,"MET088METAR LPSJ 041600Z 24006KT 9999 FEW030 24/17 Q1019 RMK WIND RWY13 26005KT RWY31 24005KT;",
"08509599999","2010-09-04T17:00:00","4","38.6655","-28.175817","94.79","SAO JORGE, PO","FM-15","LPSJ ","V020","999,9,V,0021,1","22000,1,9,N","011265,1,N,1","+0240,1","+0180,1","99999,9","02,5,+00900,5,99,9",,,,,,"10190,1,99999,9",,,,,,"MET089METAR LPSJ 041700Z VRB04KTY 9999 FEW030 24/18 Q1019 RMK WIND RWY13 VRB01KT RWY31 VRB03KT;",
"08509599999","2010-09-04T18:00:00","4","38.6655","-28.175817","94.79","SAO JORGE, PO","FM-15","LPSJ ","V020","290,1,N,0051,1","99999,9,C,N","011265,1,N,1","+0240,1","+0180,1","99999,9","02,5,+00900,1,99,9","04,5,+01200,1,99,9",,,"04,99,1,99,9,99,9,99999,9,99,9,99,9",,"10190,1,99999,9",,,,,,"MET095METAR LPSJ 041800Z 29010KT 9999 FEW030 SCT040 24/18 Q1019 RMK WIND RWY13 32007KT RWY31 30008KT;","P01 012003SCOCIG"
"08509599999","2010-09-06T09:00:00","4","38.6655","-28.175817","94.79","SAO JORGE, PO","FM-15","LPSJ ","V020","010,1,N,0041,1","06000,1,C,N","011265,1,N,1","+0200,1","+0150,1","99999,9","02,5,+00480,1,99,9","07,5,+06000,1,99,9",,,"07,99,1,99,9,99,9,99999,9,99,9,99,9",,"10230,1,99999,9",,,,,,"MET095METAR LPSJ 060900Z 01008KT 9999 FEW016 BKN200 20/15 Q1023 RMK WIND RWY13 01012KT RWY31 01013KT;",
"08509599999","2010-09-06T10:00:00","4","38.6655","-28.175817","94.79","SAO JORGE, PO","FM-15","LPSJ ","V020","010,1,N,0046,1","99999,9,C,N","011265,1,N,1","+0210,1","+0150,1","99999,9","02,5,+00480,1,99,9","04,5,+06000,1,99,9",,,"04,99,1,99,9,99,9,99999,9,99,9,99,9",,"10230,1,99999,9",,,,,,"MET095METAR LPSJ 061000Z 01009KT 9999 FEW016 SCT200 21/15 Q1023 RMK WIND RWY13 01010KT RWY31 01012KT;","P01 060003SCOCIG"
"08509599999","2010-09-06T11:00:00","4","38.6655","-28.175817","94.79","SAO JORGE, PO","FM-15","LPSJ ","V020","320,1,N,0036,1","22000,1,9,N","011265,1,N,1","+0220,1","+0160,1","99999,9","02,5,+00540,1,99,9",,,,"02,99,1,99,9,99,9,99999,9,99,9,99,9",,"10240,1,99999,9",,,,,,"MET088METAR LPSJ 061100Z 32007KT 9999 FEW018 22/16 Q1024 RMK WIND RWY13 33010KT RWY31 32009KT;",
"08509599999","2010-09-06T12:00:00","4","38.6655","-28.175817","94.79","SAO JORGE, PO","FM-15","LPSJ ","V020","310,1,N,0046,1","22000,1,9,N","011265,1,N,1","+0230,1","+0170,1","99999,9","02,5,+00540,1,99,9",,,,"02,99,1,99,9,99,9,99999,9,99,9,99,9",,"10240,1,99999,9",,,,,,"MET088METAR LPSJ 061200Z 31009KT 9999 FEW018 23/17 Q1024 RMK WIND RWY13 33008KT RWY31 32012KT;",
"08509599999","2010-09-06T13:00:00","4","38.6655","-28.175817","94.79","SAO JORGE, PO","FM-15","LPSJ ","V020","330,1,N,0041,1","22000,1,9,N","011265,1,N,1","+0230,1","+0150,1","99999,9","02,5,+00900,1,99,9",,,,"02,99,1,99,9,99,9,99999,9,99,9,99,9",,"10240,1,99999,9",,,,,,"MET088METAR LPSJ 061300Z 33008KT 9999 FEW030 23/15 Q1024 RMK WIND RWY13 34011KT RWY31 33008KT;",
"08509599999","2010-09-06T14:00:00","4","38.6655","-28.175817","94.79","SAO JORGE, PO","FM-15","LPSJ ","V020","340,1,N,0051,1","22000,1,9,N","011265,1,N,1","+0230,1","+0160,1","99999,9","02,5,+00750,1,99,9",,,,"02,99,1,99,9,99,9,99999,9,99,9,99,9",,"10230,1,99999,9",,,,,,"MET088METAR LPSJ 061400Z 34010KT 9999 FEW025 23/16 Q1023 RMK WIND RWY13 36013KT RWY31 34015KT;",
"08509599999","2010-09-06T15:00:00","4","38.6655","-28.175817","94.79","SAO JORGE, PO","FM-15","LPSJ ","V020","330,1,N,0057,1","22000,1,9,N","011265,1,N,1","+0230,1","+0160,1","99999,9","02,5,+00750,1,99,9",,,,"02,99,1,99,9,99,9,99999,9,99,9,99,9",,"10240,1,99999,9",,,,,,"MET088METAR LPSJ 061500Z 33011KT 9999 FEW025 23/16 Q1024 RMK WIND RWY13 34013KT RWY31 34015KT;",
"08509599999","2010-09-06T16:00:00","4","38.6655","-28.175817","94.79","SAO JORGE, PO","FM-15","LPSJ ","V020","350,1,N,0062,1","22000,1,9,N","011265,1,N,1","+0230,1","+0150,1","99999,9","02,5,+00900,1,99,9",,,,"02,99,1,99,9,99,9,99999,9,99,9,99,9",,"10230,1,99999,9",,,,,,"MET088METAR LPSJ 061600Z 35012KT 9999 FEW030 23/15 Q1023 RMK WIND RWY13 35013KT RWY31 34015KT;",
"08509599999","2010-09-06T17:00:00","4","38.6655","-28.175817","94.79","SAO JORGE, PO","FM-15","LPSJ ","V020","330,1,N,0057,1","22000,1,9,N","011265,1,N,1","+0230,1","+0160,1","99999,9","02,5,+00900,1,99,9",,,,"02,99,1,99,9,99,9,99999,9,99,9,99,9",,"10230,1,99999,9",,,,,,"MET088METAR LPSJ 061700Z 33011KT 9999 FEW030 23/16 Q1023 RMK WIND RWY13 34010KT RWY31 34013KT;",
"08509599999","2010-09-06T18:00:00","4","38.6655","-28.175817","94.79","SAO JORGE, PO","FM-15","LPSJ ","V020","330,1,N,0062,1","22000,1,9,N","011265,1,N,1","+0230,1","+0160,1","99999,9","02,5,+00900,1,99,9",,,,"02,99,1,99,9,99,9,99999,9,99,9,99,9",,"10230,1,99999,9",,,,,,"MET088METAR LPSJ 061800Z 33012KT 9999 FEW030 23/16 Q1023 RMK WIND RWY13 34010KT RWY31 34013KT;",
"08509599999","2010-09-07T07:00:00","4","38.6655","-28.175817","94.79","SAO JORGE, PO","FM-15","LPSJ ","V020","330,1,N,0031,1","22000,1,9,N","011265,1,N,1","+0200,1","+0170,1","99999,9","02,5,+00750,1,99,9",,,,"02,99,1,99,9,99,9,99999,9,99,9,99,9",,"10230,1,99999,9",,,,,,"MET088METAR LPSJ 070700Z 33006KT 9999 FEW025 20/17 Q1023 RMK WIND RWY13 33007KT RWY31 33006KT;",
"08509599999","2010-09-07T08:00:00","4","38.6655","-28.175817","94.79","SAO JORGE, PO","FM-15","LPSJ ","V020","340,1,N,0046,1","22000,1,9,N","011265,1,N,1","+0200,1","+0170,1","99999,9","02,5,+00600,1,99,9",,,,"02,99,1,99,9,99,9,99999,9,99,9,99,9",,"10230,1,99999,9",,,,,,"MET088METAR LPSJ 070800Z 34009KT 9999 FEW020 20/17 Q1023 RMK WIND RWY13 35008KT RWY31 34009KT;",
"08509599999","2010-09-07T09:00:00","4","38.6655","-28.175817","94.79","SAO JORGE, PO","FM-15","LPSJ ","V020","340,1,N,0026,1","22000,1,9,N","011265,1,N,1","+0210,1","+0180,1","99999,9","02,5,+00900,1,99,9",,,,"02,99,1,99,9,99,9,99999,9,99,9,99,9",,"10230,1,99999,9",,,,,,"MET088METAR LPSJ 070900Z 34005KT 9999 FEW030 21/18 Q1023 RMK WIND RWY13 35008KT RWY31 34007KT;",
"08509599999","2010-09-07T10:00:00","4","38.6655","-28.175817","94.79","SAO JORGE, PO","FM-15","LPSJ ","V020","350,1,N,0036,1","22000,1,9,N","011265,1,N,1","+0220,1","+0170,1","99999,9","02,5,+00900,1,99,9",,,,"02,99,1,99,9,99,9,99999,9,99,9,99,9",,"10230,1,99999,9",,,,,,"MET088METAR LPSJ 071000Z 35007KT 9999 FEW030 22/17 Q1023 RMK WIND RWY13 33010KT RWY31 24009KT;",
"08509599999","2010-09-07T11:00:00","4","38.6655","-28.175817","94.79","SAO JORGE, PO","FM-15","LPSJ ","V020","340,1,N,0051,1","22000,1,9,N","011265,1,N,1","+0220,1","+0170,1","99999,9","02,5,+00900,1,99,9",,,,"02,99,1,99,9,99,9,99999,9,99,9,99,9",,"10230,1,99999,9",,,,,,"MET088METAR LPSJ 071100Z 34010KT 9999 FEW030 22/17 Q1023 RMK WIND RWY13 33008KT RWY31 34011KT;",
"08509599999","2010-09-07T12:00:00","4","38.6655","-28.175817","94.79","SAO JORGE, PO","FM-15","LPSJ ","V020","330,1,N,0051,1","22000,1,9,N","011265,1,N,1","+0230,1","+0170,1","99999,9","02,5,+00900,1,99,9",,,,"02,99,1,99,9,99,9,99999,9,99,9,99,9",,"10230,1,99999,9",,,,,,"MET088METAR LPSJ 071200Z 33010KT 9999 FEW030 23/17 Q1023 RMK WIND RWY13 34012KT RWY31 34014KT;",
"08509599999","2010-09-07T13:00:00","4","38.6655","-28.175817","94.79","SAO JORGE, PO","FM-15","LPSJ ","V020","330,1,N,0057,1","22000,1,9,N","011265,1,N,1","+0230,1","+0170,1","99999,9","02,5,+00900,1,99,9",,,,"02,99,1,99,9,99,9,99999,9,99,9,99,9",,"10230,1,99999,9",,,,,,"MET088METAR LPSJ 071300Z 33011KT 9999 FEW030 23/17 Q1023 RMK WIND RWY13 34012KT RWY31 34013KT;",
"08509599999","2010-09-07T14:00:00","4","38.6655","-28.175817","94.79","SAO JORGE, PO","FM-15","LPSJ ","V020","310,1,N,0057,1","22000,1,9,N","011265,1,N,1","+0240,1","+0170,1","99999,9","02,5,+00900,1,99,9",,,,"02,99,1,99,9,99,9,99999,9,99,9,99,9",,"10230,1,99999,9",,,,,,"MET088METAR LPSJ 071400Z 31011KT 9999 FEW030 24/17 Q1023 RMK WIND RWY13 31009KT RWY31 32012KT;",
"08509599999","2010-09-07T15:00:00","4","38.6655","-28.175817","94.79","SAO JORGE, PO","FM-15","LPSJ ","V020","310,1,N,0062,1","22000,1,9,N","011265,1,N,1","+0240,1","+0180,1","99999,9","02,5,+00600,1,99,9",,,,"02,99,1,99,9,99,9,99999,9,99,9,99,9",,"10220,1,99999,9",,,,,,"MET088METAR LPSJ 071500Z 31012KT 9999 FEW020 24/18 Q1022 RMK WIND RWY13 31009KT RWY31 31012KT;",
"08509599999","2010-09-07T16:00:00","4","38.6655","-28.175817","94.79","SAO JORGE, PO","FM-15","LPSJ ","V020","310,1,N,0062,1","22000,1,9,N","011265,1,N,1","+0240,1","+0180,1","99999,9","02,5,+00600,1,99,9",,,,"02,99,1,99,9,99,9,99999,9,99,9,99,9",,"10220,1,99999,9",,,,,,"MET088METAR LPSJ 071600Z 31012KT 9999 FEW020 24/18 Q1022 RMK WIND RWY13 31010KT RWY31 30012KT;",
"08509599999","2010-09-07T17:00:00","4","38.6655","-28.175817","94.79","SAO JORGE, PO","FM-15","LPSJ ","V020","300,1,N,0051,1","22000,1,9,N","011265,1,N,1","+0250,1","+0180,1","99999,9","02,5,+00600,1,99,9",,,,"02,99,1,99,9,99,9,99999,9,99,9,99,9",,"10210,1,99999,9",,,,,,"MET088METAR LPSJ 071700Z 30010KT 9999 FEW020 25/18 Q1021 RMK WIND RWY13 31009KT RWY31 31011KT;",
"08509599999","2010-09-07T18:00:00","4","38.6655","-28.175817","94.79","SAO JORGE, PO","FM-15","LPSJ ","V020","300,1,N,0067,1","22000,1,9,N","011265,1,N,1","+0240,1","+0180,1","99999,9","02,5,+00600,1,99,9",,,,"02,99,1,99,9,99,9,99999,9,99,9,99,9",,"10210,1,99999,9",,,,,,"MET088METAR LPSJ 071800Z 30013KT 9999 FEW020 24/18 Q1021 RMK WIND RWY13 30008KT RWY31 29010KT;",
"08509599999","2010-09-08T09:00:00","4","38.6655","-28.175817","94.79","SAO JORGE, PO","FM-15","LPSJ ","V020","999,9,V,0010,1","99999,9,C,N","011265,1,N,1","+0210,1","+0190,1","99999,9","02,5,+00600,1,99,9","04,5,+00900,1,99,9",,,"04,99,1,99,9,99,9,99999,9,99,9,99,9",,"10210,1,99999,9",,,,,,"MET095METAR LPSJ 080900Z VRB02KT 9999 FEW020 SCT030 21/19 Q1021 RMK WIND RWY13 VRB03KT RWY31 VRB04KT;","P01 009003SCOCIG"
"08509599999","2010-09-08T10:00:00","4","38.6655","-28.175817","94.79","SAO JORGE, PO","FM-15","LPSJ ","V020","999,9,V,0015,1","99999,9,C,N","011265,1,N,1","+0220,1","+0190,1","99999,9","02,5,+00540,1,99,9","04,5,+00900,1,99,9",,,"04,99,1,99,9,99,9,99999,9,99,9,99,9",,"10210,1,99999,9",,,,,,"MET095METAR LPSJ 081000Z VRB03KT 9999 FEW018 SCT030 22/19 Q1021 RMK WIND RWY13 VRB01KT RWY31 VRB01KT;","P01 009003SCOCIG"
"08509599999","2010-09-08T11:00:00","4","38.6655","-28.175817","94.79","SAO JORGE, PO","FM-15","LPSJ ","V020","999,9,V,0015,1","22000,1,9,N","011265,1,N,1","+0240,1","+0200,1","99999,9","04,5,+00420,1,99,9",,,,"04,99,1,99,9,99,9,99999,9,99,9,99,9",,"10210,1,99999,9",,,,,,"MET088METAR LPSJ 081100Z VRB03KT 9999 SCT014 24/20 Q1021 RMK WIND RWY13 VRB02KT RWY31 VRB03KT;",
"08509599999","2010-09-08T12:00:00","4","38.6655","-28.175817","94.79","SAO JORGE, PO","FM-15","LPSJ ","V020","190,1,N,0021,1","22000,1,9,N","011265,1,N,1","+0230,1","+0200,1","99999,9","04,5,+00420,1,99,9",,,,"04,99,1,99,9,99,9,99999,9,99,9,99,9",,"10210,1,99999,9",,,,,,"MET088METAR LPSJ 081200Z 19004KT 9999 SCT014 23/20 Q1021 RMK WIND RWY13 20003KT RWY31 19003KT;",
"08509599999","2010-09-08T13:00:00","4","38.6655","-28.175817","94.79","SAO JORGE, PO","FM-15","LPSJ ","V020","140,1,N,0046,1","22000,1,9,N","011265,1,N,1","+0260,1","+0190,1","99999,9","02,5,+00600,1,99,9",,,,"02,99,1,99,9,99,9,99999,9,99,9,99,9",,"10210,1,99999,9",,,,,,"MET088METAR LPSJ 081300Z 14009KT 9999 FEW020 26/19 Q1021 RMK WIND RWY13 16007KT RWY31 17006KT;",
"08509599999","2010-09-08T14:00:00","4","38.6655","-28.175817","94.79","SAO JORGE, PO","FM-15","LPSJ ","V020","140,1,N,0057,1","22000,1,9,N","011265,1,N,1","+0260,1","+0190,1","99999,9","02,5,+00750,1,99,9",,,,"02,99,1,99,9,99,9,99999,9,99,9,99,9",,"10210,1,99999,9",,,,,,"MET088METAR LPSJ 081400Z 14011KT 9999 FEW025 26/19 Q1021 RMK WIND RWY13 15005KT RWY31 15006KT;",
"08509599999","2010-09-08T15:00:00","4","38.6655","-28.175817","94.79","SAO JORGE, PO","FM-15","LPSJ ","V020","140,1,N,0046,1","22000,1,9,N","011265,1,N,1","+0270,1","+0180,1","99999,9","02,5,+00750,1,99,9",,,,"02,99,1,99,9,99,9,99999,9,99,9,99,9",,"10210,1,99999,9",,,,,,"MET088METAR LPSJ 081500Z 14009KT 9999 FEW025 27/18 Q1021 RMK WIND RWY13 15007KT RWY31 15006KT;",
"08509599999","2010-09-08T16:00:00","4","38.6655","-28.175817","94.79","SAO JORGE, PO","FM-15","LPSJ ","V020","140,1,N,0051,1","22000,1,9,N","011265,1,N,1","+0260,1","+0180,1","99999,9","02,5,+00750,1,99,9",,,,"02,99,1,99,9,99,9,99999,9,99,9,99,9",,"10210,1,99999,9",,,,,,"MET088METAR LPSJ 081600Z 14010KT 9999 FEW025 26/18 Q1021 RMK WIND RWY13 15007KT RWY31 16007KT;",
"08509599999","2010-09-08T17:00:00","4","38.6655","-28.175817","94.79","SAO JORGE, PO","FM-15","LPSJ ","V020","150,1,N,0051,1","22000,1,9,N","011265,1,N,1","+0250,1","+0180,1","99999,9","02,5,+00750,1,99,9",,,,"02,99,1,99,9,99,9,99999,9,99,9,99,9",,"10210,1,99999,9",,,,,,"MET088METAR LPSJ 081700Z 15010KT 9999 FEW025 25/18 Q1021 RMK WIND RWY13 15007KT RWY31 14006KT;",
"08509599999","2010-09-08T18:00:00","4","38.6655","-28.175817","94.79","SAO JORGE, PO","FM-15","LPSJ ","V020","140,1,N,0046,1","22000,1,9,N","011265,1,N,1","+0250,1","+0180,1","99999,9","02,5,+00750,1,99,9",,,,"02,99,1,99,9,99,9,99999,9,99,9,99,9",,"10210,1,99999,9",,,,,,"MET088METAR LPSJ 081800Z 14009KT 9999 FEW025 25/18 Q1021 RMK WIND RWY13 15006KT RWY31 15005KT;",
"08509599999","2010-09-09T09:00:00","4","38.6655","-28.175817","94.79","SAO JORGE, PO","FM-15","LPSJ ","V020","110,1,N,0026,1","22000,1,9,N","011265,1,N,1","+0220,1","+0170,1","99999,9","02,5,+00900,1,99,9",,,,"02,99,1,99,9,99,9,99999,9,99,9,99,9","999,M,+9999,9","10220,1,99999,9",,,,,,"MET088METAR LPSJ 090900Z 11005KT 9999 FEW030 22/17 Q1022 RMK WIND RWY13 11007KT RWY31 11006KT;","Q01 -00062ATMX  "
"08509599999","2010-09-09T10:00:00","4","38.6655","-28.175817","94.79","SAO JORGE, PO","FM-15","LPSJ ","V020","130,1,N,0046,1","22000,1,9,N","011265,1,N,1","+0230,1","+0190,1","99999,9","02,5,+01050,1,99,9",,,,"02,99,1,99,9,99,9,99999,9,99,9,99,9",,"10220,1,99999,9",,,,,,"MET088METAR LPSJ 091000Z 13009KT 9999 FEW035 23/19 Q1022 RMK WIND RWY13 13007KT RWY31 14005KT;",
"08509599999","2010-09-09T11:00:00","4","38.6655","-28.175817","94.79","SAO JORGE, PO","FM-15","LPSJ ","V020","140,1,N,0062,1","22000,1,9,N","011265,1,N,1","+0240,1","+0190,1","99999,9","02,5,+01050,1,99,9",,,,"02,99,1,99,9,99,9,99999,9,99,9,99,9",,"10220,1,99999,9",,,,,,"MET104METAR LPSJ 091100Z 14012KT 9999 FEW035 24/19 Q1022 RMK WIND RWY13 14009KT 100V190 RWY31 14008KT 090V190;",
"08509599999","2010-09-09T12:00:00","4","38.6655","-28.175817","94.79","SAO JORGE, PO","FM-15","LPSJ ","V020","150,1,N,0062,1","22000,1,9,N","011265,1,N,1","+0250,1","+0190,1","99999,9","02,5,+01050,1,99,9",,,,"02,99,1,99,9,99,9,99999,9,99,9,99,9",,"10220,1,99999,9",,,,,,"MET104METAR LPSJ 091200Z 15012KT 9999 FEW035 25/19 Q1022 RMK WIND RWY13 15008KT 100V180 RWY31 13009KT 100V190;",
"08509599999","2010-09-09T13:00:00","4","38.6655","-28.175817","94.79","SAO JORGE, PO","FM-15","LPSJ ","V020","130,1,N,0062,1","22000,1,9,N","011265,1,N,1","+0260,1","+0190,1","99999,9","02,5,+01200,1,99,9",,,,"02,99,1,99,9,99,9,99999,9,99,9,99,9",,"10220,1,99999,9",,,,,,"MET104METAR LPSJ 091300Z 13012KT 9999 FEW040 26/19 Q1022 RMK WIND RWY13 14008KT 090V200 RWY31 14012KT 100V190;",
"08509599999","2010-09-09T14:00:00","4","38.6655","-28.175817","94.79","SAO JORGE, PO","FM-15","LPSJ ","V020","140,1,N,0072,1","22000,1,9,N","011265,1,N,1","+0270,1","+0180,1","99999,9","02,5,+00900,1,99,9",,,,"02,99,1,99,9,99,9,99999,9,99,9,99,9",,"10220,1,99999,9",,,,,,"MET104METAR LPSJ 091400Z 14014KT 9999 FEW030 27/18 Q1022 RMK WIND RWY13 15008KT 120V190 RWY31 14009KT 120V180;",
"08509599999","2010-09-09T15:00:00","4","38.6655","-28.175817","94.79","SAO JORGE, PO","FM-15","LPSJ ","V020","130,1,N,0077,1","22000,1,9,N","011265,1,N,1","+0270,1","+0180,1","99999,9","02,5,+00900,1,99,9",,,,"02,99,1,99,9,99,9,99999,9,99,9,99,9",,"10220,1,99999,9",,,,,,"MET104METAR LPSJ 091500Z 13015KT 9999 FEW030 27/18 Q1022 RMK WIND RWY13 15008KT 120V190 RWY31 14009KT 120V180;",
"08509599999","2010-09-09T16:00:00","4","38.6655","-28.175817","94.79","SAO JORGE, PO","FM-15","LPSJ ","V020","130,1,N,0067,1","22000,1,9,N","011265,1,N,1","+0270,1","+0180,1","99999,9","02,5,+01050,1,99,9",,,,"02,99,1,99,9,99,9,99999,9,99,9,99,9",,"10210,1,99999,9",,,,,,"MET104METAR LPSJ 091600Z 13013KT 9999 FEW035 27/18 Q1021 RMK WIND RWY13 16008KT 120V200 RWY31 14008KT 110V180;",
"08509599999","2010-09-09T17:00:00","4","38.6655","-28.175817","94.79","SAO JORGE, PO","FM-15","LPSJ ","V020","130,1,N,0067,1","22000,1,9,N","011265,1,N,1","+0260,1","+0180,1","99999,9","02,5,+00960,1,99,9",,,,"02,99,1,99,9,99,9,99999,9,99,9,99,9",,"10210,1,99999,9",,,,,,"MET104METAR LPSJ 091700Z 13013KT 9999 FEW032 26/18 Q1021 RMK WIND RWY13 16008KT 110V190 RWY31 15010KT 100V180;",
"08509599999","2010-09-09T18:00:00","4","38.6655","-28.175817","94.79","SAO JORGE, PO","FM-15","LPSJ ","V020","130,1,N,0062,1","22000,1,9,N","011265,1,N,1","+0260,1","+0180,1","99999,9","02,5,+00960,1,99,9",,,,"02,99,1,99,9,99,9,99999,9,99,9,99,9",,"10220,1,99999,9",,,,,,"MET095METAR LPSJ 091800Z 13012KT 9999 FEW032 26/18 Q1022 RMK WIND RWY13 16008KT 120V190RWY31 15008KT;",
"08509599999","2010-09-10T09:00:00","4","38.6655","-28.175817","94.79","SAO JORGE, PO","FM-15","LPSJ ","V020","999,9,V,0021,1","22000,1,9,N","011265,1,N,1","+0220,1","+0190,1","99999,9","02,5,+00900,1,99,9",,,,"02,99,1,99,9,99,9,99999,9,99,9,99,9",,"10230,1,99999,9",,,,,,"MET088METAR LPSJ 100900Z VRB04KT 9999 FEW030 22/19 Q1023 RMK WIND RWY13 VRB03KT RWY31 VRB04KT;",
"08509599999","2010-09-10T10:00:00","4","38.6655","-28.175817","94.79","SAO JORGE, PO","FM-15","LPSJ ","V020","999,9,V,0015,1","22000,1,9,N","011265,1,N,1","+0240,1","+0190,1","99999,9","02,5,+00900,1,99,9",,,,"02,99,1,99,9,99,9,99999,9,99,9,99,9",,"10230,1,99999,9",,,,,,"MET088METAR LPSJ 101000Z VRB03KT 9999 FEW030 24/19 Q1023 RMK WIND RWY13 VRB04KT RWY31 VRB03KT;",
"08509599999","2010-09-10T11:00:00","4","38.6655","-28.175817","94.79","SAO JORGE, PO","FM-15","LPSJ ","V020","999,9,V,0021,1","22000,1,9,N","011265,1,N,1","+0250,1","+0190,1","99999,9","02,5,+00900,1,99,9",,,,"02,99,1,99,9,99,9,99999,9,99,9,99,9",,"10230,1,99999,9",,,,,,"MET088METAR LPSJ 101100Z VRB04KT 9999 FEW030 25/19 Q1023 RMK WIND RWY13 VRB03KT RWY31 VRB04KT;",
"08509599999","2010-09-10T14:00:00","4","38.6655","-28.175817","94.79","SAO JORGE, PO","FM-15","LPSJ ","V020","270,1,N,0036,1","22000,1,9,N","011265,1,N,1","+0260,1","+0200,1","99999,9","02,5,+00750,1,99,9",,,,"02,99,1,99,9,99,9,99999,9,99,9,99,9",,"10230,1,99999,9",,,,,,"MET088METAR LPSJ 101400Z 27007KT 9999 FEW025 26/20 Q1023 RMK WIND RWY13 27006KT RWY31 26005KT;",
"08509599999","2010-09-10T15:00:00","4","38.6655","-28.175817","94.79","SAO JORGE, PO","FM-15","LPSJ ","V020","290,1,N,0046,1","22000,1,9,N","011265,1,N,1","+0260,1","+0200,1","99999,9","02,5,+00900,1,99,9",,,,"02,99,1,99,9,99,9,99999,9,99,9,99,9",,"10230,1,99999,9",,,,,,"MET088METAR LPSJ 101500Z 29009KT 9999 FEW030 26/20 Q1023 RMK WIND RWY13 30006KT RWY31 29005KT;",
"08509599999","2010-09-10T16:00:00","4","38.6655","-28.175817","94.79","SAO JORGE, PO","FM-15","LPSJ ","V020","250,1,N,0036,1","99999,9,C,N","011265,1,N,1","+0260,1","+0200,1","99999,9","02,5,+00750,1,99,9","04,5,+02400,1,99,9",,,"04,99,1,99,9,99,9,99999,9,99,9,99,9",,"10230,1,99999,9",,,,,,"MET095METAR LPSJ 101600Z 25007KT 9999 FEW025 SCT080 26/20 Q1023 RMK WIND RWY13 28006KT RWY31 26004KT;","P01 024003SCOCIG"
"08509599999","2010-09-11T09:00:00","4","38.6655","-28.175817","94.79","SAO JORGE, PO","FM-15","LPSJ ","V020","020,1,N,0062,1","22000,1,9,N","011265,1,N,1","+0200,1","+0140,1","99999,9","02,5,+00750,1,99,9",,,,"02,99,1,99,9,99,9,99999,9,99,9,99,9",,"10261,1,99999,9",,,,,,"MET088METAR LPSJ 110900Z 02012KT 9999 FEW025 20/14 Q1026 RMK WIND RWY13 04017KT RWY31 03018KT;",
"08509599999","2010-09-11T11:00:00","4","38.6655","-28.175817","94.79","SAO JORGE, PO","FM-15","LPSJ ","V020","999,9,V,0031,1","22000,1,9,N","011265,1,N,1","+0210,1","+0140,1","99999,9","04,5,+00750,1,99,9",,,,"04,99,1,99,9,99,9,99999,9,99,9,99,9",,"10271,1,99999,9",,,,,,"MET088METAR LPSJ 111100Z VRB06KT 9999 SCT025 21/14 Q1027 RMK WIND RWY13 VRB05KT RWY31 VRB05KT;",
"08509599999","2010-09-11T12:00:00","4","38.6655","-28.175817","94.79","SAO JORGE, PO","FM-15","LPSJ ","V020","090,1,N,0031,1","22000,1,9,N","011265,1,N,1","+0220,1","+0150,1","99999,9","04,5,+00750,1,99,9",,,,"04,99,1,99,9,99,9,99999,9,99,9,99,9",,"10271,1,99999,9",,,,,,"MET112METAR LPSJ 111200Z 09006KT 350V140 9999 SCT025 22/15 Q1027 RMK WIND RWY13 09007KT 350V210 RWY31 07007KT 350V170;",
"08509599999","2010-09-11T14:00:00","4","38.6655","-28.175817","94.79","SAO JORGE, PO","FM-15","LPSJ ","V020","110,1,N,0031,1","22000,1,9,N","011265,1,N,1","+0220,1","+0150,1","99999,9","04,5,+00750,1,99,9",,,,"04,99,1,99,9,99,9,99999,9,99,9,99,9",,"10271,1,99999,9",,,,,,"MET088METAR LPSJ 111400Z 11006KT 9999 SCT025 22/15 Q1027 RMK WIND RWY13 12005KT RWY31 12009KT;",
"08509599999","2010-09-11T16:00:00","4","38.6655","-28.175817","94.79","SAO JORGE, PO","FM-15","LPSJ ","V020","070,1,N,0026,1","22000,1,9,N","011265,1,N,1","+0220,1","+0150,1","99999,9","04,5,+00900,1,99,9",,,,"04,99,1,99,9,99,9,99999,9,99,9,99,9",,"10271,1,99999,9",,,,,,"MET104METAR LPSJ 111600Z 07005KT 9999 SCT030 22/15 Q1027 RMK WIND RWY13 06009KT 350V140 RWY31 06011KT 360V120;",
"08509599999","2010-09-12T09:00:00","4","38.6655","-28.175817","94.79","SAO JORGE, PO","FM-15","LPSJ ","V020","040,1,N,0026,1","22000,1,9,N","011265,1,N,1","+0200,1","+0150,1","99999,9","04,5,+00600,1,99,9",,,,"04,99,1,99,9,99,9,99999,9,99,9,99,9",,"10291,1,99999,9",,,,,,"MET088METAR LPSJ 120900Z 04005KT 9999 SCT020 20/15 Q1029 RMK WIND RWY13 05004KT RWY31 05005KT;",
"08509599999","2010-09-12T10:00:00","4","38.6655","-28.175817","94.79","SAO JORGE, PO","FM-15","LPSJ ","V020","040,1,N,0021,1","22000,1,9,N","011265,1,N,1","+0200,1","+0150,1","99999,9","04,5,+00600,1,99,9",,,,"04,99,1,99,9,99,9,99999,9,99,9,99,9",,"10291,1,99999,9",,,,,,"MET088METAR LPSJ 121000Z 04004KT 9999 SCT020 20/15 Q1029 RMK WIND RWY13 04005KT RWY31 03003KT;",
"08509599999","2010-09-12T11:00:00","4","38.6655","-28.175817","94.79","SAO JORGE, PO","FM-15","LPSJ ","V020","999,9,V,0041,1","99999,9,C,N","011265,1,N,1","+0210,1","+0150,1","99999,9","04,5,+00600,1,99,9","04,5,+00900,1,99,9",,,"04,99,1,99,9,99,9,99999,9,99,9,99,9",,"10291,1,99999,9",,,,,,"MET095METAR LPSJ 121100Z VRB08KT 9999 SCT020 SCT030 21/15 Q1029 RMK WIND RWY13 VRB05KT RWY31 VRB03KT;","P01 009003SCOCIG"
"08509599999","2010-09-12T12:00:00","4","38.6655","-28.175817","94.79","SAO JORGE, PO","FM-15","LPSJ ","V020","120,1,N,0036,1","22000,1,9,N","011265,1,N,1","+0220,1","+0160,1","99999,9","02,5,+00900,1,99,9",,,,"02,99,1,99,9,99,9,99999,9,99,9,99,9",,"10291,1,99999,9",,,,,,"MET088METAR LPSJ 121200Z 12007KT 9999 FEW030 22/16 Q1029 RMK WIND RWY13 14006KT RWY31 13005KT;",
"08509599999","2010-09-13T09:00:00","4","38.6655","-28.175817","94.79","SAO JORGE, PO","FM-15","LPSJ ","V020","060,1,N,0057,1","99999,9,C,N","011265,1,N,1","+0210,1","+0150,1","99999,9","04,5,+00480,1,99,9","04,5,+00900,1,99,9",,,"04,99,1,99,9,99,9,99999,9,99,9,99,9",,"10281,1,99999,9",,,,,,"MET095METAR LPSJ 130900Z 06011KT 9999 SCT016 SCT030 21/15 Q1028 RMK WIND RWY13 07012KT RWY31 06016KT;","P01 009003SCOCIG"
"08509599999","2010-09-13T10:00:00","4","38.6655","-28.175817","94.79","SAO JORGE, PO","FM-15","LPSJ ","V020","060,1,N,0062,1","99999,9,C,N","011265,1,N,1","+0210,1","+0150,1","99999,9","04,5,+00540,1,99,9","04,5,+00900,1,99,9",,,"04,99,1,99,9,99,9,99999,9,99,9,99,9",,"10281,1,99999,9",,,,,,"MET095METAR LPSJ 131000Z 06012KT 9999 SCT018 SCT030 21/15 Q1028 RMK WIND RWY13 08014KT RWY31 06016KT;","P01 009003SCOCIG"
"08509599999","2010-09-13T11:00:00","4","38.6655","-28.175817","94.79","SAO JORGE, PO","FM-15","LPSJ ","V020","060,1,N,0062,1","22000,1,9,N","011265,1,N,1","+0210,1","+0150,1","99999,9","04,5,+00540,1,99,9",,,,"04,99,1,99,9,99,9,99999,9,99,9,99,9",,"10281,1,99999,9",,,,,,"MET088METAR LPSJ 131100Z 06012KT 9999 SCT018 21/15 Q1028 RMK WIND RWY13 08015KT RWY31 07016KT;",
"08509599999","2010-09-13T12:00:00","4","38.6655","-28.175817","94.79","SAO JORGE, PO","FM-15","LPSJ ","V020","060,1,N,0062,1","22000,1,9,N","011265,1,N,1","+0230,1","+0140,1","99999,9","02,5,+00600,1,99,9",,,,"02,99,1,99,9,99,9,99999,9,99,9,99,9",,"10281,1,99999,9",,,,,,"MET088METAR LPSJ 131200Z 06012KT 9999 FEW020 23/14 Q1028 RMK WIND RWY13 08014KT RWY31 07017KT;",
"08509599999","2010-09-13T14:00:00","4","38.6655","-28.175817","94.79","SAO JORGE, PO","FM-15","LPSJ ","V020","060,1,N,0051,1","99999,9,C,N","011265,1,N,1","+0230,1","+0150,1","99999,9","04,5,+00480,1,99,9","04,5,+00900,1,99,9",,,"04,99,1,99,9,99,9,99999,9,99,9,99,9",,"10281,1,99999,9",,,,,,"MET095METAR LPSJ 131400Z 06010KT 9999 SCT016 SCT030 23/15 Q1028 RMK WIND RWY13 08013KT RWY31 06014KT;","P01 009003SCOCIG"
"08509599999","2010-09-13T15:00:00","4","38.6655","-28.175817","94.79","SAO JORGE, PO","FM-15","LPSJ ","V020","070,1,N,0041,1","99999,9,C,N","011265,1,N,1","+0230,1","+0160,1","99999,9","04,5,+00540,1,99,9","04,5,+01050,1,99,9",,,"04,99,1,99,9,99,9,99999,9,99,9,99,9",,"10281,1,99999,9",,,,,,"MET111METAR LPSJ 131500Z 07008KT 9999 SCT018 SCT035 23/16 Q1028 RMK WIND RWY13 09005KT 060V210 RWY31 09013KT 060V150;","P01 010503SCOCIG"
"08509599999","2010-09-13T16:00:00","4","38.6655","-28.175817","94.79","SAO JORGE, PO","FM-15","LPSJ ","V020","120,1,N,0046,1","99999,9,C,N","011265,1,N,1","+0240,1","+0170,1","99999,9","04,5,+00540,1,99,9","04,5,+01050,1,99,9",,,"04,99,1,99,9,99,9,99999,9,99,9,99,9",,"10271,1,99999,9",,,,,,"MET095METAR LPSJ 131600Z 12009KT 9999 SCT018 SCT035 24/17 Q1027 RMK WIND RWY13 13006KT RWY31 12005KT;","P01 010503SCOCIG"
"08509599999","2010-09-14T07:00:00","4","38.6655","-28.175817","94.79","SAO JORGE, PO","FM-15","LPSJ ","V020","060,1,N,0036,1","22000,1,9,N","011265,1,N,1","+0200,1","+0150,1","99999,9","04,5,+00600,1,99,9",,,,"04,99,1,99,9,99,9,99999,9,99,9,99,9",,"10271,1,99999,9",,,,,,"MET088METAR LPSJ 140700Z 06007KT 9999 SCT020 20/15 Q1027 RMK WIND RWY13 05008KT RWY31 06009KT;",
"08509599999","2010-09-14T08:00:00","4","38.6655","-28.175817","94.79","SAO JORGE, PO","FM-15","LPSJ ","V020","050,1,N,0026,1","22000,1,9,N","011265,1,N,1","+0190,1","+0150,1","99999,9","04,5,+00600,1,99,9",,,,"04,99,1,99,9,99,9,99999,9,99,9,99,9",,"10271,1,99999,9",,,,,,"MET088METAR LPSJ 140800Z 05005KT 9999 SCT020 19/15 Q1027 RMK WIND RWY13 05007KT RWY31 05006KT;",
"08509599999","2010-09-14T09:00:00","4","38.6655","-28.175817","94.79","SAO JORGE, PO","FM-15","LPSJ ","V020","060,1,N,0026,1","22000,1,9,N","011265,1,N,1","+0200,1","+0150,1","99999,9","02,5,+00750,1,99,9",,,,"02,99,1,99,9,99,9,99999,9,99,9,99,9",,"10271,1,99999,9",,,,,,"MET088METAR LPSJ 140900Z 06005KT 9999 FEW025 20/15 Q1027 RMK WIND RWY13 06008KT RWY31 07008KT;",
"08509599999","2010-09-14T14:00:00","4","38.6655","-28.175817","94.79","SAO JORGE, PO","FM-15","LPSJ ","V020","040,1,N,0041,1","22000,1,9,N","011265,1,N,1","+0220,1","+0160,1","99999,9","04,5,+00600,1,99,9",,,,"04,99,1,99,9,99,9,99999,9,99,9,99,9",,"10271,1,99999,9",,,,,,"MET088METAR LPSJ 141400Z 04008KT 9999 SCT020 22/16 Q1027 RMK WIND RWY13 06009KT RWY31 04012KT;",
"08509599999","2010-09-14T15:00:00","4","38.6655","-28.175817","94.79","SAO JORGE, PO","FM-15","LPSJ ","V020","070,1,N,0057,1","22000,1,9,N","011265,1,N,1","+0220,1","+0150,1","99999,9","04,5,+00600,1,99,9",,,,"04,99,1,99,9,99,9,99999,9,99,9,99,9",,"10271,1,99999,9",,,,,,"MET088METAR LPSJ 141500Z 07011KT 9999 SCT020 22/15 Q1027 RMK WIND RWY13 07011KT RWY31 06009KT;",
"08509599999","2010-09-14T16:00:00","4","38.6655","-28.175817","94.79","SAO JORGE, PO","FM-15","LPSJ ","V020","060,1,N,0031,1","22000,1,9,N","011265,1,N,1","+0220,1","+0150,1","99999,9","04,5,+00750,1,99,9",,,,"04,99,1,99,9,99,9,99999,9,99,9,99,9",,"10271,1,99999,9",,,,,,"MET088METAR LPSJ 141600Z 06006KT 9999 SCT025 22/15 Q1027 RMK WIND RWY13 07009KT RWY31 05007KT;",
"08509599999","2010-09-14T17:00:00","4","38.6655","-28.175817","94.79","SAO JORGE, PO","FM-15","LPSJ ","V020","080,1,N,0036,1","22000,1,9,N","011265,1,N,1","+0230,1","+0150,1","99999,9","04,5,+00750,1,99,9",,,,"04,99,1,99,9,99,9,99999,9,99,9,99,9",,"10271,1,99999,9",,,,,,"MET088METAR LPSJ 141700Z 08007KT 9999 SCT025 23/15 Q1027 RMK WIND RWY13 07008KT RWY31 07006KT;",
"08509599999","2010-09-14T18:00:00","4","38.6655","-28.175817","94.79","SAO JORGE, PO","FM-15","LPSJ ","V020","999,9,V,0026,1","22000,1,9,N","011265,1,N,1","+0230,1","+0140,1","99999,9","04,5,+00750,1,99,9",,,,"04,99,1,99,9,99,9,99999,9,99,9,99,9",,"10261,1,99999,9",,,,,,"MET088METAR LPSJ 141800Z VRB05KT 9999 SCT025 23/14 Q1026 RMK WIND RWY13 VRB04KT RWY31 VRB05KT;",
"08509599999","2010-09-14T19:00:00","4","38.6655","-28.175817","94.79","SAO JORGE, PO","FM-15","LPSJ ","V020","999,9,V,0021,1","22000,1,9,N","011265,1,N,1","+0230,1","+0150,1","99999,9","02,5,+00750,1,99,9",,,,"02,99,1,99,9,99,9,99999,9,99,9,99,9",,"10261,1,99999,9",,,,,,"MET088METAR LPSJ 141900Z VRB04KT 9999 FEW025 23/15 Q1026 RMK WIND RWY13 VRB07KT RWY31 VRB05KT;",
"08509599999","2010-09-15T09:00:00","4","38.6655","-28.175817","94.79","SAO JORGE, PO","FM-15","LPSJ ","V020","999,9,C,0000,1","22000,1,9,N","011265,1,N,1","+0190,1","+0130,1","99999,9","04,5,+00750,1,99,9",,,,"04,99,1,99,9,99,9,99999,9,99,9,99,9",,"10271,1,99999,9",,,,,,"MET088METAR LPSJ 150900Z 00000KT 9999 SCT025 19/13 Q1027 RMK WIND RWY13 00000KT RWY31 00000KT;",
"08509599999","2010-09-15T10:00:00","4","38.6655","-28.175817","94.79","SAO JORGE, PO","FM-15","LPSJ ","V020","999,9,V,0021,1","22000,1,9,N","011265,1,N,1","+0200,1","+0140,1","99999,9","04,5,+00750,1,99,9",,,,"04,99,1,99,9,99,9,99999,9,99,9,99,9",,"10271,1,99999,9",,,,,,"MET088METAR LPSJ 151000Z VRB04KT 9999 SCT025 20/14 Q1027 RMK WIND RWY13 VRB03KT RWY31 VRB04KT;",
"08509599999","2010-09-15T11:00:00","4","38.6655","-28.175817","94.79","SAO JORGE, PO","FM-15","LPSJ ","V020","999,9,V,0021,1","22000,1,9,N","011265,1,N,1","+0210,1","+0140,1","99999,9","04,5,+00750,1,99,9",,,,"04,99,1,99,9,99,9,99999,9,99,9,99,9",,"10271,1,99999,9",,,,,,"MET088METAR LPSJ 151100Z VRB04KT 9999 SCT025 21/14 Q1027 RMK WIND RWY13 VRB03KT RWY31 VRB05KT;",
"08509599999","2010-09-15T12:00:00","4","38.6655","-28.175817","94.79","SAO JORGE, PO","FM-15","LPSJ ","V020","999,9,V,0026,1","22000,1,9,N","011265,1,N,1","+0210,1","+0150,1","99999,9","04,5,+00750,1,99,9",,,,"04,99,1,99,9,99,9,99999,9,99,9,99,9",,"10281,1,99999,9",,,,,,"MET088METAR LPSJ 151200Z VRB05KT 9999 SCT025 21/15 Q1028 RMK WIND RWY13 VRB05KT RWY31 VRB05KT;",
"08509599999","2010-09-15T13:00:00","4","38.6655","-28.175817","94.79","SAO JORGE, PO","FM-15","LPSJ ","V020","050,1,N,0036,1","22000,1,9,N","011265,1,N,1","+0220,1","+0150,1","99999,9","04,5,+00750,1,99,9",,,,"04,99,1,99,9,99,9,99999,9,99,9,99,9",,"10281,1,99999,9",,,,,,"MET112METAR LPSJ 151300Z 05007KT 320V070 9999 SCT025 22/15 Q1028 RMK WIND RWY13 06007KT 350V110 RWY31 04007KT 350V060;",
"08509599999","2010-09-15T14:00:00","4","38.6655","-28.175817","94.79","SAO JORGE, PO","FM-15","LPSJ ","V020","999,9,V,0026,1","22000,1,9,N","011265,1,N,1","+0220,1","+0140,1","99999,9","04,5,+00900,1,99,9",,,,"04,99,1,99,9,99,9,99999,9,99,9,99,9",,"10281,1,99999,9",,,,,,"MET088METAR LPSJ 151400Z VRB05KT 9999 SCT030 22/14 Q1028 RMK WIND RWY13 VRB03KT RWY31 VRB04KT;",
"08509599999","2010-09-15T15:00:00","4","38.6655","-28.175817","94.79","SAO JORGE, PO","FM-15","LPSJ ","V020","999,9,V,0026,1","22000,1,9,N","011265,1,N,1","+0230,1","+0150,1","99999,9","04,5,+00900,1,99,9",,,,"04,99,1,99,9,99,9,99999,9,99,9,99,9",,"10271,1,99999,9",,,,,,"MET088METAR LPSJ 151500Z VRB05KT 9999 SCT030 23/15 Q1027 RMK WIND RWY13 VRB06KT RWY31 VRB05KT;",
"08509599999","2010-09-16T09:00:00","4","38.6655","-28.175817","94.79","SAO JORGE, PO","FM-15","LPSJ ","V020","060,1,N,0021,1","22000,1,9,N","011265,1,N,1","+0180,1","+0140,1","99999,9","02,5,+00600,1,99,9",,,,"02,99,1,99,9,99,9,99999,9,99,9,99,9",,"10261,1,99999,9",,,,,,"MET088METAR LPSJ 160900Z 06004KT 9999 FEW020 18/14 Q1026 RMK WIND RWY13 05003KT RWY31 06002KT;",
"08509599999","2010-09-16T10:00:00","4","38.6655","-28.175817","94.79","SAO JORGE, PO","FM-15","LPSJ ","V020","999,9,V,0021,1","22000,1,9,N","011265,1,N,1","+0200,1","+0130,1","99999,9","04,5,+00750,1,99,9",,,,"04,99,1,99,9,99,9,99999,9,99,9,99,9",,"10261,1,99999,9",,,,,,"MET088METAR LPSJ 161000Z VRB04KT 9999 SCT025 20/13 Q1026 RMK WIND RWY13 VRB03KT RWY31 VRB02KT;",
"08509599999","2010-09-16T11:00:00","4","38.6655","-28.175817","94.79","SAO JORGE, PO","FM-15","LPSJ ","V020","999,9,V,0021,1","22000,1,9,N","011265,1,N,1","+0210,1","+0130,1","99999,9","04,5,+00900,1,99,9",,,,"04,99,1,99,9,99,9,99999,9,99,9,99,9",,"10271,1,99999,9",,,,,,"MET088METAR LPSJ 161100Z VRB04KT 9999 SCT030 21/13 Q1027 RMK WIND RWY13 VRB05KT RWY31 VRB05KT;",
"08509599999","2010-09-16T12:00:00","4","38.6655","-28.175817","94.79","SAO JORGE, PO","FM-15","LPSJ ","V020","070,1,N,0041,1","22000,1,9,N","011265,1,N,1","+0210,1","+0140,1","99999,9","04,5,+00900,1,99,9",,,,"04,99,1,99,9,99,9,99999,9,99,9,99,9",,"10271,1,99999,9",,,,,,"MET088METAR LPSJ 161200Z 07008KT 9999 SCT030 21/14 Q1027 RMK WIND RWY13 06007KT RWY31 07008KT;",
"08509599999","2010-09-17T09:00:00","4","38.6655","-28.175817","94.79","SAO JORGE, PO","FM-15","LPSJ ","V020","330,1,N,0021,1","22000,1,9,N","011265,1,N,1","+0190,1","+0140,1","99999,9","04,5,+00900,1,99,9",,,,"04,99,1,99,9,99,9,99999,9,99,9,99,9",,"10271,1,99999,9",,,,,,"MET088METAR LPSJ 170900Z 33004KT 9999 SCT030 19/14 Q1027 RMK WIND RWY13 35006KT RWY31 35004KT;",
"08509599999","2010-09-17T10:00:00","4","38.6655","-28.175817","94.79","SAO JORGE, PO","FM-15","LPSJ ","V020","300,1,N,0031,1","22000,1,9,N","011265,1,N,1","+0200,1","+0140,1","99999,9","04,5,+00900,1,99,9",,,,"04,99,1,99,9,99,9,99999,9,99,9,99,9",,"10271,1,99999,9",,,,,,"MET088METAR LPSJ 171000Z 30006KT 9999 SCT030 20/14 Q1027 RMK WIND RWY13 31005KT RWY31 30004KT;",
"08509599999","2010-09-17T11:00:00","4","38.6655","-28.175817","94.79","SAO JORGE, PO","FM-15","LPSJ ","V020","999,9,V,0026,1","22000,1,9,N","011265,1,N,1","+0220,1","+0150,1","99999,9","04,5,+00900,1,99,9",,,,"04,99,1,99,9,99,9,99999,9,99,9,99,9",,"10271,1,99999,9",,,,,,"MET088METAR LPSJ 171100Z VRB05KT 9999 SCT030 22/15 Q1027 RMK WIND RWY13 VRB07KT RWY31 VRB04KT;",
"08509599999","2010-09-17T14:00:00","4","38.6655","-28.175817","94.79","SAO JORGE, PO","FM-15","LPSJ ","V020","260,1,N,0046,1","22000,1,9,N","011265,1,N,1","+0220,1","+0140,1","99999,9","02,5,+01200,1,99,9",,,,"02,99,1,99,9,99,9,99999,9,99,9,99,9",,"10261,1,99999,9",,,,,,"MET088METAR LPSJ 171400Z 26009KT 9999 FEW040 22/14 Q1026 RMK WIND RWY13 26006KT RWY31 25009KT;",
"08509599999","2010-09-17T15:00:00","4","38.6655","-28.175817","94.79","SAO JORGE, PO","FM-15","LPSJ ","V020","260,1,N,0046,1","22000,1,9,N","011265,1,N,1","+0220,1","+0140,1","99999,9","02,5,+01200,1,99,9",,,,"02,99,1,99,9,99,9,99999,9,99,9,99,9",,"10261,1,99999,9",,,,,,"MET088METAR LPSJ 171500Z 26009KT 9999 FEW040 22/14 Q1026 RMK WIND RWY13 26008KT RWY31 25007KT;",
"08509599999","2010-09-18T10:00:00","4","38.6655","-28.175817","94.79","SAO JORGE, PO","FM-15","LPSJ ","V020","310,1,N,0046,1","99999,9,C,N","011265,1,N,1","+0210,1","+0160,1","99999,9","02,5,+00600,1,99,9","04,5,+00900,1,99,9",,,"04,99,1,99,9,99,9,99999,9,99,9,99,9",,"10251,1,99999,9",,,,,,"MET095METAR LPSJ 181000Z 31009KT 9999 FEW020 SCT030 21/16 Q1025 RMK WIND RWY13 32006KT RWY31 31009KT;","P01 009003SCOCIG"
"08509599999","2010-09-18T11:00:00","4","38.6655","-28.175817","94.79","SAO JORGE, PO","FM-15","LPSJ ","V020","310,1,N,0051,1","99999,9,C,N","011265,1,N,1","+0220,1","+0150,1","99999,9","04,5,+00600,1,99,9","04,5,+00900,1,99,9",,,"04,99,1,99,9,99,9,99999,9,99,9,99,9",,"10261,1,99999,9",,,,,,"MET095METAR LPSJ 181100Z 31010KT 9999 SCT020 SCT030 22/15 Q1026 RMK WIND RWY13 32007KT RWY31 31010KT;","P01 009003SCOCIG"
"08509599999","2010-09-18T12:00:00","4","38.6655","-28.175817","94.79","SAO JORGE, PO","FM-15","LPSJ ","V020","300,1,N,0041,1","22000,1,9,N","011265,1,N,1","+0230,1","+0150,1","99999,9","04,5,+00600,1,99,9",,,,"04,99,1,99,9,99,9,99999,9,99,9,99,9",,"10261,1,99999,9",,,,,,"MET104METAR LPSJ 181200Z 30008KT 9999 SCT020 23/15 Q1026 RMK WIND RWY13 35007KT 320V050 RWY31 31010KT 260V350;",
"08509599999","2010-09-18T14:00:00","4","38.6655","-28.175817","94.79","SAO JORGE, PO","FM-15","LPSJ ","V020","310,1,N,0051,1","99999,9,C,N","011265,1,N,1","+0220,1","+0160,1","99999,9","04,5,+00540,1,99,9","04,5,+00900,1,99,9",,,"04,99,1,99,9,99,9,99999,9,99,9,99,9",,"10251,1,99999,9",,,,,,"MET095METAR LPSJ 181400Z 31010KT 9999 SCT018 SCT030 22/16 Q1025 RMK WIND RWY13 32009KT RWY31 31012KT;","P01 009003SCOCIG"
"08509599999","2010-09-18T15:00:00","4","38.6655","-28.175817","94.79","SAO JORGE, PO","FM-15","LPSJ ","V020","290,1,N,0051,1","99999,9,C,N","011265,1,N,1","+0220,1","+0160,1","99999,9","04,5,+00480,1,99,9","04,5,+00900,1,99,9",,,"04,99,1,99,9,99,9,99999,9,99,9,99,9",,"10251,1,99999,9",,,,,,"MET095METAR LPSJ 181500Z 29010KT 9999 SCT016 SCT030 22/16 Q1025 RMK WIND RWY13 32006KT RWY31 30012KT;","P01 009003SCOCIG"
"08509599999","2010-09-19T09:00:00","4","38.6655","-28.175817","94.79","SAO JORGE, PO","FM-15","LPSJ ","V020","020,1,N,0021,1","22000,1,9,N","011265,1,N,1","+0190,1","+0160,1","99999,9","04,5,+00480,1,99,9",,,,"04,99,1,99,9,99,9,99999,9,99,9,99,9",,"10230,1,99999,9",,,,,,"MET088METAR LPSJ 190900Z 02004KT 9999 SCT016 19/16 Q1023 RMK WIND RWY13 03004KT RWY31 02005KT;",
"08509599999","2010-09-19T10:00:00","4","38.6655","-28.175817","94.79","SAO JORGE, PO","FM-15","LPSJ ","V020","999,9,V,0021,1","99999,9,C,N","011265,1,N,1","+0210,1","+0160,1","99999,9","02,5,+00480,1,99,9","04,5,+00750,1,99,9",,,"04,99,1,99,9,99,9,99999,9,99,9,99,9",,"10230,1,99999,9",,,,,,"MET095METAR LPSJ 191000Z VRB04KT 9999 FEW016 SCT025 21/16 Q1023 RMK WIND RWY13 VRB05KT RWY31 VRB05KT;","P01 007503SCOCIG"
"08509599999","2010-09-19T11:00:00","4","38.6655","-28.175817","94.79","SAO JORGE, PO","FM-15","LPSJ ","V020","999,9,V,0026,1","00750,1,C,N","011265,1,N,1","+0210,1","+0160,1","99999,9","04,5,+00540,1,99,9","07,5,+00750,1,99,9",,,"07,99,1,99,9,99,9,99999,9,99,9,99,9",,"10230,1,99999,9",,,,,,"MET095METAR LPSJ 191100Z VRB05KT 9999 SCT018 BKN025 21/16 Q1023 RMK WIND RWY13 VRB04KT RWY31 VRB03KT;",
"08509599999","2010-09-19T12:00:00","4","38.6655","-28.175817","94.79","SAO JORGE, PO","FM-15","LPSJ ","V020","999,9,V,0026,1","00750,1,C,N","011265,1,N,1","+0220,1","+0160,1","99999,9","04,5,+00540,1,99,9","07,5,+00750,1,99,9",,,"07,99,1,99,9,99,9,99999,9,99,9,99,9",,"10230,1,99999,9",,,,,,"MET095METAR LPSJ 191200Z VRB05KT 9999 SCT018 BKN025 22/16 Q1023 RMK WIND RWY13 VRB04KT RWY31 VRB03KT;",
"08509599999","2010-09-20T09:00:00","4","38.6655","-28.175817","94.79","SAO JORGE, PO","FM-15","LPSJ ","V020","999,9,C,0000,1","99999,9,C,N","011265,1,N,1","+0200,1","+0180,1","99999,9","04,5,+00480,1,99,9","04,5,+00900,1,99,9",,,"04,99,1,99,9,99,9,99999,9,99,9,99,9",,"10159,1,99999,9",,,,,,"MET095METAR LPSJ 200900Z 00000KT 9999 SCT016 SCT030 20/18 Q1016 RMK WIND RWY13 00000KT RWY31 00000KT;","P01 009003SCOCIG"
"08509599999","2010-09-20T10:00:00","4","38.6655","-28.175817","94.79","SAO JORGE, PO","FM-15","LPSJ ","V020","310,1,N,0031,1","00480,1,C,N","009000,1,N,1","+0190,1","+0180,1","99999,9","04,5,+00390,1,99,9","02,5,+00480,1,02,5","07,5,+00750,1,99,9",,"07,99,1,99,9,99,9,99999,9,99,9,99,9",,"10159,1,99999,9","16,1",,,,,"MET110METAR LPSJ 201000Z 31006KT 9000 VCSH SCT013 FEW016TCU BKN025 19/18 Q1016 RMK WIND RWY13 32006KT RWY31 31006KT;",
"08509599999","2010-09-20T11:00:00","4","38.6655","-28.175817","94.79","SAO JORGE, PO","FM-15","LPSJ ","V020","999,9,C,0000,1","00480,1,C,N","009000,1,N,1","+0190,1","+0180,1","99999,9","04,5,+00390,1,99,9","02,5,+00480,1,09,5","07,5,+02100,1,99,9",,"07,99,1,99,9,99,9,99999,9,99,9,99,9",,"10159,1,99999,9","61,1",,,,,"MET113METAR LPSJ 201100Z 00000KT 9000 -RA SCT013 FEW016CB BKN070 19/18 Q1016 RETS RMK WIND RWY13 00000KT RWY31 00000KT;",
"08509599999","2010-09-20T12:00:00","4","38.6655","-28.175817","94.79","SAO JORGE, PO","FM-15","LPSJ ","V020","999,9,C,0000,1","02400,1,C,N","011265,1,N,1","+0200,1","+0180,1","99999,9","04,5,+00900,1,99,9","07,5,+02400,1,99,9",,,"07,99,1,99,9,99,9,99999,9,99,9,99,9",,"10149,1,99999,9",,,,,,"MET100METAR LPSJ 201200Z 00000KT 9999 SCT030 BKN080 20/18 Q1015 RERA RMK WIND RWY13 00000KT RWY31 00000KT;",
"08509599999","2010-09-20T14:00:00","4","38.6655","-28.175817","94.79","SAO JORGE, PO","FM-15","LPSJ ","V020","300,1,N,0026,1","00900,1,C,N","011265,1,N,1","+0210,1","+0190,1","99999,9","04,5,+00480,1,99,9","04,5,+00900,1,99,9","07,5,+02100,1,99,9",,"07,99,1,99,9,99,9,99999,9,99,9,99,9",,"10149,1,99999,9",,,,,,"MET102METAR LPSJ 201400Z 30005KT 9999 SCT016 SCT030 BKN070 21/19 Q1015 RMK WIND RWY13 31004KT RWY31 30004KT;",
"08509599999","2010-09-20T15:00:00","4","38.6655","-28.175817","94.79","SAO JORGE, PO","FM-15","LPSJ ","V020","010,1,N,0062,1","99999,9,C,N","011265,1,N,1","+0190,1","+0180,1","99999,9","04,5,+00390,1,99,9","04,5,+00750,1,99,9",,,"04,99,1,99,9,99,9,99999,9,99,9,99,9",,"10139,1,99999,9",,,,,,"MET095METAR LPSJ 201500Z 01012KT 9999 SCT013 SCT025 19/18 Q1014 RMK WIND RWY13 02017KT RWY31 01016KT;","P01 007503SCOCIG"
"08509599999","2010-09-20T16:00:00","4","38.6655","-28.175817","94.79","SAO JORGE, PO","FM-15","LPSJ ","V020","360,1,N,0051,1","99999,9,C,N","011265,1,N,1","+0220,1","+0160,1","99999,9","02,5,+00480,1,99,9","04,5,+00900,1,99,9",,,"04,99,1,99,9,99,9,99999,9,99,9,99,9",,"10129,1,99999,9",,,,,,"MET095METAR LPSJ 201600Z 36010KT 9999 FEW016 SCT030 22/16 Q1013 RMK WIND RWY13 01012KT RWY31 01012KT;","P01 009003SCOCIG"
"08509599999","2010-09-21T07:00:00","4","38.6655","-28.175817","94.79","SAO JORGE, PO","FM-15","LPSJ ","V020","360,1,N,0036,1","22000,1,9,N","011265,1,N,1","+0180,1","+0140,1","99999,9","04,5,+00480,1,99,9",,,,"04,99,1,99,9,99,9,99999,9,99,9,99,9",,"10149,1,99999,9",,,,,,"MET088METAR LPSJ 210700Z 36007KT 9999 SCT016 18/14 Q1015 RMK WIND RWY13 36009KT RWY31 35010KT;",
"08509599999","2010-09-21T08:00:00","4","38.6655","-28.175817","94.79","SAO JORGE, PO","FM-15","LPSJ ","V020","010,1,N,0026,1","22000,1,9,N","011265,1,N,1","+0180,1","+0130,1","99999,9","04,5,+00540,1,99,9",,,,"04,99,1,99,9,99,9,99999,9,99,9,99,9",,"10149,1,99999,9",,,,,,"MET088METAR LPSJ 210800Z 01005KT 9999 SCT018 18/13 Q1015 RMK WIND RWY13 36009KT RWY31 35010KT;",
"08509599999","2010-09-21T09:00:00","4","38.6655","-28.175817","94.79","SAO JORGE, PO","FM-15","LPSJ ","V020","010,1,N,0036,1","22000,1,9,N","011265,1,N,1","+0180,1","+0130,1","99999,9","02,5,+00600,1,99,9",,,,"02,99,1,99,9,99,9,99999,9,99,9,99,9",,"10149,1,99999,9",,,,,,"MET104METAR LPSJ 210900Z 01007KT 9999 FEW020 18/13 Q1015 RMK WIND RWY13 36010KT 330V050 RWY31 02006KT 320V080;",
"08509599999","2010-09-21T14:00:00","4","38.6655","-28.175817","94.79","SAO JORGE, PO","FM-15","LPSJ ","V020","030,1,N,0062,1","22000,1,9,N","011265,1,N,1","+0210,1","+0130,1","99999,9","02,5,+00900,1,99,9",,,,"02,99,1,99,9,99,9,99999,9,99,9,99,9",,"10169,1,99999,9",,,,,,"MET104METAR LPSJ 211400Z 03012KT 9999 FEW030 21/13 Q1017 RMK WIND RWY13 36013KT 300V060 RWY31 02017KT 330V050;",
"08509599999","2010-09-21T15:00:00","4","38.6655","-28.175817","94.79","SAO JORGE, PO","FM-15","LPSJ ","V020","030,1,N,0062,1","22000,1,9,N","011265,1,N,1","+0210,1","+0130,1","99999,9","02,5,+00900,1,99,9",,,,"02,99,1,99,9,99,9,99999,9,99,9,99,9",,"10159,1,99999,9",,,,,,"MET104METAR LPSJ 211500Z 03012KT 9999 FEW030 21/13 Q1016 RMK WIND RWY13 36013KT 310V060 RWY31 04012KT 350V090;",
"08509599999","2010-09-22T09:00:00","4","38.6655","-28.175817","94.79","SAO JORGE, PO","FM-15","LPSJ ","V020","999,9,V,0021,1","22000,1,9,N","011265,1,N,1","+0180,1","+0120,1","99999,9","02,5,+00900,1,99,9",,,,"02,99,1,99,9,99,9,99999,9,99,9,99,9",,"10169,1,99999,9",,,,,,"MET088METAR LPSJ 220900Z VRB04KT 9999 FEW030 18/12 Q1017 RMK WIND RWY13 VRB03KT RWY31 VRB05KT;",
"08509599999","2010-09-22T10:00:00","4","38.6655","-28.175817","94.79","SAO JORGE, PO","FM-15","LPSJ ","V020","999,9,V,0015,1","22000,1,9,N","011265,1,N,1","+0200,1","+0130,1","99999,9","02,5,+00900,1,99,9",,,,"02,99,1,99,9,99,9,99999,9,99,9,99,9",,"10159,1,99999,9",,,,,,"MET088METAR LPSJ 221000Z VRB03KT 9999 FEW030 20/13 Q1016 RMK WIND RWY13 VRB03KT RWY31 VRB02KT;",
"08509599999","2010-09-22T11:00:00","4","38.6655","-28.175817","94.79","SAO JORGE, PO","FM-15","LPSJ ","V020","999,9,V,0021,1","22000,1,9,N","011265,1,N,1","+0200,1","+0130,1","99999,9","02,5,+00900,1,99,9",,,,"02,99,1,99,9,99,9,99999,9,99,9,99,9",,"10169,1,99999,9",,,,,,"MET088METAR LPSJ 221100Z VRB04KT 9999 FEW030 20/13 Q1017 RMK WIND RWY13 VRB04KT RWY31 VRB04KT;",
"08509599999","2010-09-22T12:00:00","4","38.6655","-28.175817","94.79","SAO JORGE, PO","FM-15","LPSJ ","V020","999,9,V,0021,1","22000,1,9,N","011265,1,N,1","+0210,1","+0130,1","99999,9","02,5,+00900,1,99,9",,,,"02,99,1,99,9,99,9,99999,9,99,9,99,9",,"10169,1,99999,9",,,,,,"MET088METAR LPSJ 221200Z VRB04KT 9999 FEW030 21/13 Q1017 RMK WIND RWY13 VRB04KT RWY31 VRB03KT;",
"08509599999","2010-09-22T13:00:00","4","38.6655","-28.175817","94.79","SAO JORGE, PO","FM-15","LPSJ ","V020","999,9,V,0021,1","22000,1,9,N","011265,1,N,1","+0210,1","+0130,1","99999,9","04,5,+00900,1,99,9",,,,"04,99,1,99,9,99,9,99999,9,99,9,99,9",,"10169,1,99999,9",,,,,,"MET088METAR LPSJ 221300Z VRB04KT 9999 SCT030 21/13 Q1017 RMK WIND RWY13 VRB03KT RWY31 VRB03KT;",
"08509599999","2010-09-22T14:00:00","4","38.6655","-28.175817","94.79","SAO JORGE, PO","FM-15","LPSJ ","V020","200,1,N,0031,1","22000,1,9,N","011265,1,N,1","+0220,1","+0140,1","99999,9","02,5,+00900,1,99,9",,,,"02,99,1,99,9,99,9,99999,9,99,9,99,9",,"10169,1,99999,9",,,,,,"MET088METAR LPSJ 221400Z 20006KT 9999 FEW030 22/14 Q1017 RMK WIND RWY13 21006KT RWY31 21005KT;",
"08509599999","2010-09-22T15:00:00","4","38.6655","-28.175817","94.79","SAO JORGE, PO","FM-15","LPSJ ","V020","999,9,V,0026,1","22000,1,9,N","011265,1,N,1","+0220,1","+0140,1","99999,9","02,5,+00900,1,99,9",,,,"02,99,1,99,9,99,9,99999,9,99,9,99,9",,"10169,1,99999,9",,,,,,"MET088METAR LPSJ 221500Z VRB05KT 9999 FEW030 22/14 Q1017 RMK WIND RWY13 VRB05KT RWY31 VRB04KT;",
"08509599999","2010-09-23T09:00:00","4","38.6655","-28.175817","94.79","SAO JORGE, PO","FM-15","LPSJ ","V020","999,9,V,0015,1","22000,1,9,N","011265,1,N,1","+0170,1","+0150,1","99999,9","02,5,+00900,1,99,9",,,,"02,99,1,99,9,99,9,99999,9,99,9,99,9",,"10200,1,99999,9",,,,,,"MET088METAR LPSJ 230900Z VRB03KT 9999 FEW030 17/15 Q1020 RMK WIND RWY13 VRB04KT RWY31 VRB02KT;",
"08509599999","2010-09-23T10:00:00","4","38.6655","-28.175817","94.79","SAO JORGE, PO","FM-15","LPSJ ","V020","999,9,V,0015,1","99999,9,C,N","011265,1,N,1","+0200,1","+0150,1","99999,9","02,5,+01200,1,99,9","04,5,+02400,1,99,9",,,"04,99,1,99,9,99,9,99999,9,99,9,99,9",,"10200,1,99999,9",,,,,,"MET095METAR LPSJ 231000Z VRB03KT 9999 FEW040 SCT080 20/15 Q1020 RMK WIND RWY13 VRB03KT RWY31 VRB02KT;","P01 024003SCOCIG"
"08509599999","2010-09-23T11:00:00","4","38.6655","-28.175817","94.79","SAO JORGE, PO","FM-15","LPSJ ","V020","999,9,V,0015,1","99999,9,C,N","011265,1,N,1","+0200,1","+0140,1","99999,9","02,5,+01050,1,99,9","04,5,+02400,1,99,9",,,"04,99,1,99,9,99,9,99999,9,99,9,99,9",,"10210,1,99999,9",,,,,,"MET095METAR LPSJ 231100Z VRB03KT 9999 FEW035 SCT080 20/14 Q1021 RMK WIND RWY13 VRB02KT RWY31 VRB02KT;","P01 024003SCOCIG"
"08509599999","2010-09-24T09:00:00","4","38.6655","-28.175817","94.79","SAO JORGE, PO","FM-15","LPSJ ","V020","999,9,V,0021,1","22000,1,9,N","011265,1,N,1","+0190,1","+0120,1","99999,9","02,5,+00900,1,99,9",,,,"02,99,1,99,9,99,9,99999,9,99,9,99,9",,"10230,1,99999,9",,,,,,"MET088METAR LPSJ 240900Z VRB04KT 9999 FEW030 19/12 Q1023 RMK WIND RWY13 VRB03KT RWY31 VRB02KT;",
"08509599999","2010-09-24T10:00:00","4","38.6655","-28.175817","94.79","SAO JORGE, PO","FM-15","LPSJ ","V020","999,9,C,0000,1","22000,1,9,N","011265,1,N,1","+0200,1","+0130,1","99999,9","02,5,+00900,1,99,9",,,,"02,99,1,99,9,99,9,99999,9,99,9,99,9",,"10230,1,99999,9",,,,,,"MET088METAR LPSJ 241000Z 00000KT 9999 FEW030 20/13 Q1023 RMK WIND RWY13 00000KT RWY31 00000KT;",
"08509599999","2010-09-24T11:00:00","4","38.6655","-28.175817","94.79","SAO JORGE, PO","FM-15","LPSJ ","V020","999,9,V,0021,1","22000,1,9,N","011265,1,N,1","+0220,1","+0120,1","99999,9","02,5,+00900,1,99,9",,,,"02,99,1,99,9,99,9,99999,9,99,9,99,9",,"10230,1,99999,9",,,,,,"MET088METAR LPSJ 241100Z VRB04KT 9999 FEW030 22/12 Q1023 RMK WIND RWY13 VRB04KT RWY31 VRB03KT;",
"08509599999","2010-09-24T12:00:00","4","38.6655","-28.175817","94.79","SAO JORGE, PO","FM-15","LPSJ ","V020","190,1,N,0021,1","22000,1,9,N","011265,1,N,1","+0220,1","+0120,1","99999,9","02,5,+00900,1,99,9",,,,"02,99,1,99,9,99,9,99999,9,99,9,99,9",,"10230,1,99999,9",,,,,,"MET088METAR LPSJ 241200Z 19004KT 9999 FEW030 22/12 Q1023 RMK WIND RWY13 19004KT RWY31 18004KT;",
"08509599999","2010-09-24T14:00:00","4","38.6655","-28.175817","94.79","SAO JORGE, PO","FM-15","LPSJ ","V020","180,1,N,0026,1","99999,9,C,N","011265,1,N,1","+0220,1","+0140,1","99999,9","02,5,+00900,1,99,9","04,5,+02400,1,99,9",,,"04,99,1,99,9,99,9,99999,9,99,9,99,9",,"10230,1,99999,9",,,,,,"MET095METAR LPSJ 241400Z 18005KT 9999 FEW030 SCT080 22/14 Q1023 RMK WIND RWY13 18004KT RWY31 19004KT;","P01 024003SCOCIG"
"08509599999","2010-09-24T15:00:00","4","38.6655","-28.175817","94.79","SAO JORGE, PO","FM-15","LPSJ ","V020","200,1,N,0021,1","99999,9,C,N","011265,1,N,1","+0220,1","+0150,1","99999,9","02,5,+00900,1,99,9","04,5,+02400,1,99,9",,,"04,99,1,99,9,99,9,99999,9,99,9,99,9",,"10220,1,99999,9",,,,,,"MET095METAR LPSJ 241500Z 20004KT 9999 FEW030 SCT080 22/15 Q1022 RMK WIND RWY13 20004KT RWY31 19004KT;","P01 024003SCOCIG"
"08509599999","2010-09-24T16:00:00","4","38.6655","-28.175817","94.79","SAO JORGE, PO","FM-15","LPSJ ","V020","210,1,N,0021,1","22000,1,9,N","011265,1,N,1","+0230,1","+0150,1","99999,9","02,5,+00900,1,99,9",,,,"02,99,1,99,9,99,9,99999,9,99,9,99,9",,"10210,1,99999,9",,,,,,"MET088METAR LPSJ 241600Z 21004KT 9999 FEW030 23/15 Q1021 RMK WIND RWY13 18005KT RWY31 20005KT;",
"08509599999","2010-09-25T09:00:00","4","38.6655","-28.175817","94.79","SAO JORGE, PO","FM-15","LPSJ ","V020","999,9,C,0000,1","22000,1,9,N","011265,1,N,1","+0170,1","+0150,1","99999,9","02,5,+00900,1,99,9",,,,"02,99,1,99,9,99,9,99999,9,99,9,99,9",,"10200,1,99999,9",,,,,,"MET088METAR LPSJ 250900Z 00000KT 9999 FEW030 17/15 Q1020 RMK WIND RWY13 00000KT RWY31 00000KT;",
"08509599999","2010-09-25T10:00:00","4","38.6655","-28.175817","94.79","SAO JORGE, PO","FM-15","LPSJ ","V020","999,9,C,0000,1","22000,1,9,N","011265,1,N,1","+0200,1","+0140,1","99999,9","02,5,+00900,1,99,9",,,,"02,99,1,99,9,99,9,99999,9,99,9,99,9",,"10200,1,99999,9",,,,,,"MET088METAR LPSJ 251000Z 00000KT 9999 FEW030 20/14 Q1020 RMK WIND RWY13 00000KT RWY31 00000KT;",
"08509599999","2010-09-25T11:00:00","4","38.6655","-28.175817","94.79","SAO JORGE, PO","FM-15","LPSJ ","V020","999,9,V,0021,1","22000,1,9,N","011265,1,N,1","+0210,1","+0140,1","99999,9","02,5,+00900,1,99,9",,,,"02,99,1,99,9,99,9,99999,9,99,9,99,9",,"10200,1,99999,9",,,,,,"MET088METAR LPSJ 251100Z VRB04KT 9999 FEW030 21/14 Q1020 RMK WIND RWY13 VRB03KT RWY31 VRB03KT;",
"08509599999","2010-09-25T14:00:00","4","38.6655","-28.175817","94.79","SAO JORGE, PO","FM-15","LPSJ ","V020","270,1,N,0026,1","22000,1,9,N","011265,1,N,1","+0230,1","+0150,1","99999,9","02,5,+00900,1,99,9",,,,"02,99,1,99,9,99,9,99999,9,99,9,99,9",,"10200,1,99999,9",,,,,,"MET088METAR LPSJ 251400Z 27005KT 9999 FEW030 23/15 Q1020 RMK WIND RWY13 25006KT RWY31 25004KT;",
"08509599999","2010-09-25T15:00:00","4","38.6655","-28.175817","94.79","SAO JORGE, PO","FM-15","LPSJ ","V020","999,9,V,0026,1","22000,1,9,N","011265,1,N,1","+0230,1","+0140,1","99999,9","02,5,+00900,1,99,9",,,,"02,99,1,99,9,99,9,99999,9,99,9,99,9",,"10200,1,99999,9",,,,,,"MET088METAR LPSJ 251500Z VRB05KT 9999 FEW030 23/14 Q1020 RMK WIND RWY13 VRB05KT RWY31 VRB05KT;",
"08509599999","2010-09-26T09:00:00","4","38.6655","-28.175817","94.79","SAO JORGE, PO","FM-15","LPSJ ","V020","999,9,V,0010,1","99999,9,C,N","011265,1,N,1","+0190,1","+0170,1","99999,9","02,5,+00540,1,99,9","04,5,+02400,1,99,9",,,"04,99,1,99,9,99,9,99999,9,99,9,99,9",,"10190,1,99999,9",,,,,,"MET095METAR LPSJ 260900Z VRB02KT 9999 FEW018 SCT080 19/17 Q1019 RMK WIND RWY13 VRB04KT RWY31 VRB04KT;","P01 024003SCOCIG"
"08509599999","2010-09-26T10:00:00","4","38.6655","-28.175817","94.79","SAO JORGE, PO","FM-15","LPSJ ","V020","999,9,V,0005,1","99999,9,C,N","011265,1,N,1","+0200,1","+0170,1","99999,9","02,5,+00540,1,99,9","04,5,+02400,1,99,9",,,"04,99,1,99,9,99,9,99999,9,99,9,99,9",,"10190,1,99999,9",,,,,,"MET095METAR LPSJ 261000Z VRB01KT 9999 FEW018 SCT080 20/17 Q1019 RMK WIND RWY13 VRB03KT RWY31 VRB03KT;","P01 024003SCOCIG"
"08509599999","2010-09-26T11:00:00","4","38.6655","-28.175817","94.79","SAO JORGE, PO","FM-15","LPSJ ","V020","999,9,V,0021,1","99999,9,C,N","011265,1,N,1","+0220,1","+0170,1","99999,9","02,5,+00540,1,99,9","04,5,+02400,1,99,9",,,"04,99,1,99,9,99,9,99999,9,99,9,99,9",,"10190,1,99999,9",,,,,,"MET095METAR LPSJ 261100Z VRB04KT 9999 FEW018 SCT080 22/17 Q1019 RMK WIND RWY13 VRB05KT RWY31 VRB04KT;","P01 024003SCOCIG"
"08509599999","2010-09-27T09:00:00","4","38.6655","-28.175817","94.79","SAO JORGE, PO","FM-15","LPSJ ","V020","999,9,V,0005,1","99999,9,C,N","011265,1,N,1","+0190,1","+0170,1","99999,9","02,5,+00540,1,99,9","04,5,+00840,1,99,9",,,"04,99,1,99,9,99,9,99999,9,99,9,99,9",,"10200,1,99999,9",,,,,,"MET095METAR LPSJ 270900Z VRB01KT 9999 FEW018 SCT028 19/17 Q1020 RMK WIND RWY13 VRB03KT RWY31 VRB02KT;","P01 008403SCOCIG"
"08509599999","2010-09-27T10:00:00","4","38.6655","-28.175817","94.79","SAO JORGE, PO","FM-15","LPSJ ","V020","999,9,V,0015,1","99999,9,C,N","011265,1,N,1","+0210,1","+0170,1","99999,9","02,5,+00600,1,99,9","04,5,+00900,1,99,9",,,"04,99,1,99,9,99,9,99999,9,99,9,99,9",,"10200,1,99999,9",,,,,,"MET095METAR LPSJ 271000Z VRB03KT 9999 FEW020 SCT030 21/17 Q1020 RMK WIND RWY13 VRB02KT RWY31 VRB01KT;","P01 009003SCOCIG"
"08509599999","2010-09-27T11:00:00","4","38.6655","-28.175817","94.79","SAO JORGE, PO","FM-15","LPSJ ","V020","999,9,V,0021,1","99999,9,C,N","011265,1,N,1","+0210,1","+0170,1","99999,9","02,5,+00600,1,99,9","04,5,+00900,1,99,9",,,"04,99,1,99,9,99,9,99999,9,99,9,99,9",,"10210,1,99999,9",,,,,,"MET095METAR LPSJ 271100Z VRB04KT 9999 FEW020 SCT030 21/17 Q1021 RMK WIND RWY13 VRB02KT RWY31 VRB02KT;","P01 009003SCOCIG"
"08509599999","2010-09-27T12:00:00","4","38.6655","-28.175817","94.79","SAO JORGE, PO","FM-15","LPSJ ","V020","999,9,V,0015,1","99999,9,C,N","011265,1,N,1","+0220,1","+0170,1","99999,9","02,5,+00600,1,99,9","04,5,+06000,1,99,9",,,"04,99,1,99,9,99,9,99999,9,99,9,99,9",,"10210,1,99999,9",,,,,,"MET095METAR LPSJ 271200Z VRB03KT 9999 FEW020 SCT200 22/17 Q1021 RMK WIND RWY13 VRB05KT RWY31 VRB05KT;","P01 060003SCOCIG"
"08509599999","2010-09-27T13:00:00","4","38.6655","-28.175817","94.79","SAO JORGE, PO","FM-15","LPSJ ","V020","999,9,V,0021,1","99999,9,C,N","011265,1,N,1","+0230,1","+0180,1","99999,9","02,5,+00600,1,99,9","04,5,+06000,1,99,9",,,"04,99,1,99,9,99,9,99999,9,99,9,99,9",,"10210,1,99999,9",,,,,,"MET095METAR LPSJ 271300Z VRB04KT 9999 FEW020 SCT200 23/18 Q1021 RMK WIND RWT13 VRB03KT RWY31 VRB04KT;","P01 060003SCOCIG"
"08509599999","2010-09-27T14:00:00","4","38.6655","-28.175817","94.79","SAO JORGE, PO","FM-15","LPSJ ","V020","230,1,N,0021,1","99999,9,C,N","011265,1,N,1","+0230,1","+0170,1","99999,9","02,5,+00600,1,99,9","04,5,+06000,1,99,9",,,"04,99,1,99,9,99,9,99999,9,99,9,99,9",,"10200,1,99999,9",,,,,,"MET095METAR LPSJ 271400Z 23004KT 9999 FEW020 SCT200 23/17 Q1020 RMK WIND RWY13 24003KT RWY31 22003KT;","P01 060003SCOCIG"
"08509599999","2010-09-27T15:00:00","4","38.6655","-28.175817","94.79","SAO JORGE, PO","FM-15","LPSJ ","V020","999,9,V,0026,1","99999,9,C,N","011265,1,N,1","+0240,1","+0180,1","99999,9","04,5,+00750,1,99,9","04,5,+06000,1,99,9",,,"04,99,1,99,9,99,9,99999,9,99,9,99,9",,"10200,1,99999,9",,,,,,"MET095METAR LPSJ 271500Z VRB05KT 9999 SCT025 SCT200 24/18 Q1020 RMK WIND RWY13 VRB05KT RWY31 VRB03KT;","P01 060003SCOCIG"
"08509599999","2010-09-27T16:00:00","4","38.6655","-28.175817","94.79","SAO JORGE, PO","FM-15","LPSJ ","V020","270,1,N,0041,1","99999,9,C,N","011265,1,N,1","+0230,1","+0180,1","99999,9","04,5,+00540,1,99,9","04,5,+06000,1,99,9",,,"04,99,1,99,9,99,9,99999,9,99,9,99,9",,"10200,1,99999,9",,,,,,"MET095METAR LPSJ 271600Z 27008KT 9999 SCT018 SCT200 23/18 Q1020 RMK WIND RWY13 28006KT RWY31 27005KT;","P01 060003SCOCIG"
"08509599999","2010-09-27T17:00:00","4","38.6655","-28.175817","94.79","SAO JORGE, PO","FM-15","LPSJ ","V020","290,1,N,0046,1","99999,9,C,N","011265,1,N,1","+0230,1","+0180,1","99999,9","02,5,+00480,1,99,9","04,5,+00900,1,99,9",,,"04,99,1,99,9,99,9,99999,9,99,9,99,9",,"10200,1,99999,9",,,,,,"MET095METAR LPSJ 271700Z 29009KT 9999 FEW016 SCT030 23/18 Q1020 RMK WIND RWY13 31006KT RWY31 30005KT;","P01 009003SCOCIG"
"08509599999","2010-09-27T18:00:00","4","38.6655","-28.175817","94.79","SAO JORGE, PO","FM-15","LPSJ ","V020","270,1,N,0046,1","22000,1,9,N","011265,1,N,1","+0230,1","+0190,1","99999,9","04,5,+00480,1,99,9",,,,"04,99,1,99,9,99,9,99999,9,99,9,99,9",,"10200,1,99999,9",,,,,,"MET088METAR LPSJ 271800Z 27009KT 9999 SCT016 23/19 Q1020 RMK WIND RWY13 29005KT RWY31 27008KT;",
"08509599999","2010-09-28T07:00:00","4","38.6655","-28.175817","94.79","SAO JORGE, PO","FM-15","LPSJ ","V020","999,9,V,0010,1","22000,1,9,N","011265,1,N,1","+0190,1","+0170,1","99999,9","02,5,+00540,1,99,9",,,,"02,99,1,99,9,99,9,99999,9,99,9,99,9",,"10200,1,99999,9",,,,,,"MET088METAR LPSJ 280700Z VRB02KT 9999 FEW018 19/17 Q1020 RMK WIND RWY13 VRB04KT RWY31 VRB03KT;",
"08509599999","2010-09-28T08:00:00","4","38.6655","-28.175817","94.79","SAO JORGE, PO","FM-15","LPSJ ","V020","010,1,N,0026,1","99999,9,C,N","011265,1,N,1","+0200,1","+0170,1","99999,9","02,5,+00540,1,99,9","04,5,+02400,1,99,9",,,"04,99,1,99,9,99,9,99999,9,99,9,99,9",,"10200,1,99999,9",,,,,,"MET095METAR LPSJ 280800Z 01005KT 9999 FEW018 SCT080 20/17 Q1020 RMK WIND RWY13 02007KT RWY31 01006KT;","P01 024003SCOCIG"
"08509599999","2010-09-28T09:00:00","4","38.6655","-28.175817","94.79","SAO JORGE, PO","FM-15","LPSJ ","V020","999,9,V,0015,1","99999,9,C,N","011265,1,N,1","+0200,1","+0170,1","99999,9","02,5,+00540,1,99,9","04,5,+00900,1,99,9",,,"04,99,1,99,9,99,9,99999,9,99,9,99,9",,"10200,1,99999,9",,,,,,"MET095METAR LPSJ 280900Z VRB03KT 9999 FEW018 SCT030 20/17 Q1020 RMK WIND RWY13 VRB03KT RWY31 VRB02KT;","P01 009003SCOCIG"
"08509599999","2010-09-28T10:00:00","4","38.6655","-28.175817","94.79","SAO JORGE, PO","FM-15","LPSJ ","V020","999,9,V,0005,1","99999,9,C,N","011265,1,N,1","+0210,1","+0180,1","99999,9","02,5,+00540,1,99,9","04,5,+02400,1,99,9",,,"04,99,1,99,9,99,9,99999,9,99,9,99,9",,"10210,1,99999,9",,,,,,"MET095METAR LPSJ 281000Z VRB01KT 9999 FEW018 SCT080 21/18 Q1021 RMK WIND RWY13 VRB02KT RWY31 VRB02KT;","P01 024003SCOCIG"
"08509599999","2010-09-28T11:00:00","4","38.6655","-28.175817","94.79","SAO JORGE, PO","FM-15","LPSJ ","V020","290,1,N,0021,1","02100,1,C,N","011265,1,N,1","+0220,1","+0190,1","99999,9","04,5,+00480,1,99,9","07,5,+02100,1,99,9",,,"07,99,1,99,9,99,9,99999,9,99,9,99,9",,"10210,1,99999,9",,,,,,"MET095METAR LPSJ 281100Z 29004KT 9999 SCT016 BKN070 22/19 Q1021 RMK WIND RWY13 31003KT RWY31 30005KT;",
"08509599999","2010-09-28T12:00:00","4","38.6655","-28.175817","94.79","SAO JORGE, PO","FM-15","LPSJ ","V020","280,1,N,0036,1","99999,9,C,N","011265,1,N,1","+0220,1","+0190,1","99999,9","04,5,+00480,1,99,9","04,5,+00750,1,99,9",,,"04,99,1,99,9,99,9,99999,9,99,9,99,9",,"10220,1,99999,9",,,,,,"MET095METAR LPSJ 281200Z 28007KT 9999 SCT016 SCT025 22/19 Q1022 RMK WIND RWY13 29005KT RWY31 26003KT;","P01 007503SCOCIG"
"08509599999","2010-09-28T13:00:00","4","38.6655","-28.175817","94.79","SAO JORGE, PO","FM-15","LPSJ ","V020","240,1,N,0031,1","99999,9,C,N","011265,1,N,1","+0230,1","+0180,1","99999,9","04,5,+00540,1,99,9","04,5,+02400,1,99,9",,,"04,99,1,99,9,99,9,99999,9,99,9,99,9",,"10220,1,99999,9",,,,,,"MET095METAR LPSJ 281300Z 24006KT 9999 SCT018 SCT080 23/18 Q1022 RMK WIND RWY13 26006KT RWY31 24005KT;","P01 024003SCOCIG"
"08509599999","2010-09-28T14:00:00","4","38.6655","-28.175817","94.79","SAO JORGE, PO","FM-15","LPSJ ","V020","260,1,N,0031,1","99999,9,C,N","011265,1,N,1","+0240,1","+0180,1","99999,9","02,5,+00600,1,99,9","02,5,+00660,1,02,5","04,5,+02100,1,99,9",,"04,99,1,99,9,99,9,99999,9,99,9,99,9",,"10220,1,99999,9",,,,,,"MET105METAR LPSJ 281400Z 26006KT 9999 FEW020 FEW022TCU SCT070 24/18 Q1022 RMK WIND RWY13 27005KT RWY31 25004KT;","P01 021003SCOCIG"
"08509599999","2010-09-28T15:00:00","4","38.6655","-28.175817","94.79","SAO JORGE, PO","FM-15","LPSJ ","V020","290,1,N,0036,1","02100,1,C,N","011265,1,N,1","+0240,1","+0180,1","99999,9","02,5,+00600,1,99,9","07,5,+02100,1,99,9",,,"07,99,1,99,9,99,9,99999,9,99,9,99,9",,"10220,1,99999,9",,,,,,"MET095METAR LPSJ 281500Z 29007KT 9999 FEW020 BKN070 24/18 Q1022 RMK WIND RWY13 32004KT RWY31 28003KT;",
"08509599999","2010-09-28T17:00:00","4","38.6655","-28.175817","94.79","SAO JORGE, PO","FM-15","LPSJ ","V020","290,1,N,0036,1","00900,1,C,N","011265,1,N,1","+0230,1","+0180,1","99999,9","02,5,+00600,1,99,9","04,5,+00900,1,99,9","07,5,+06000,1,99,9",,"07,99,1,99,9,99,9,99999,9,99,9,99,9",,"10220,1,99999,9",,,,,,"MET102METAR LPSJ 281700Z 29007KT 9999 FEW020 SCT030 BKN200 23/18 Q1022 RMK WIND RWY13 31005KT RWY31 28005KT;",
"08509599999","2010-09-28T18:00:00","4","38.6655","-28.175817","94.79","SAO JORGE, PO","FM-15","LPSJ ","V020","999,9,V,0021,1","00900,1,C,N","011265,1,N,1","+0230,1","+0190,1","99999,9","02,5,+00600,1,99,9","04,5,+00900,1,99,9","07,5,+02100,1,99,9",,"07,99,1,99,9,99,9,99999,9,99,9,99,9",,"10220,1,99999,9",,,,,,"MET102METAR LPSJ 281800Z VRB04KT 9999 FEW020 SCT030 BKN070 23/19 Q1022 RMK WIND RWY13 VRB02KT RWY31 VRB02KT;",
"08509599999","2010-09-29T09:00:00","4","38.6655","-28.175817","94.79","SAO JORGE, PO","FM-15","LPSJ ","V020","999,9,V,0021,1","99999,9,C,N","011265,1,N,1","+0200,1","+0160,1","99999,9","02,5,+00480,1,99,9","04,5,+01200,1,99,9",,,"04,99,1,99,9,99,9,99999,9,99,9,99,9",,"10261,1,99999,9",,,,,,"MET095METAR LPSJ 290900Z VRB04KT 9999 FEW016 SCT040 20/16 Q1026 RMK WIND RWY13 VRB04KT RWY31 VRB05KT;","P01 012003SCOCIG"
"08509599999","2010-09-29T10:00:00","4","38.6655","-28.175817","94.79","SAO JORGE, PO","FM-15","LPSJ ","V020","060,1,N,0036,1","99999,9,C,N","011265,1,N,1","+0200,1","+0160,1","99999,9","04,5,+00480,1,99,9","04,5,+00750,1,99,9",,,"04,99,1,99,9,99,9,99999,9,99,9,99,9",,"10271,1,99999,9",,,,,,"MET095METAR LPSJ 291000Z 06007KT 9999 SCT016 SCT025 20/16 Q1027 RMK WIND RWY13 06010KT RWY31 06009KT;","P01 007503SCOCIG"
"08509599999","2010-09-29T11:00:00","4","38.6655","-28.175817","94.79","SAO JORGE, PO","FM-15","LPSJ ","V020","999,9,V,0015,1","99999,9,C,N","011265,1,N,1","+0210,1","+0160,1","99999,9","04,5,+00480,1,99,9","04,5,+00750,1,99,9",,,"04,99,1,99,9,99,9,99999,9,99,9,99,9",,"10271,1,99999,9",,,,,,"MET095METAR LPSJ 291100Z VRB03KT 9999 SCT016 SCT025 21/16 Q1027 RMK WIND RWY13 VRB04KT RWY31 VRB02KT;","P01 007503SCOCIG"
"08509599999","2010-09-29T12:00:00","4","38.6655","-28.175817","94.79","SAO JORGE, PO","FM-15","LPSJ ","V020","999,9,V,0021,1","99999,9,C,N","011265,1,N,1","+0210,1","+0180,1","99999,9","04,5,+00480,1,99,9","04,5,+00750,1,99,9",,,"04,99,1,99,9,99,9,99999,9,99,9,99,9",,"10281,1,99999,9",,,,,,"MET095METAR LPSJ 291200Z VRB04KT 9999 SCT016 SCT025 21/18 Q1028 RMK WIND RWY13 VRB05KT RWY31 VRB04KT;","P01 007503SCOCIG"
"08509599999","2010-09-29T14:00:00","4","38.6655","-28.175817","94.79","SAO JORGE, PO","FM-15","LPSJ ","V020","999,9,V,0005,1","99999,9,C,N","011265,1,N,1","+0220,1","+0180,1","99999,9","04,5,+00480,1,99,9","04,5,+00900,1,99,9",,,"04,99,1,99,9,99,9,99999,9,99,9,99,9",,"10271,1,99999,9",,,,,,"MET095METAR LPSJ 291400Z VRB01KT 9999 SCT016 SCT030 22/18 Q1027 RMK WIND RWY13 VRB03KT RWY31 VRB02KT;","P01 009003SCOCIG"
"08509599999","2010-09-29T15:00:00","4","38.6655","-28.175817","94.79","SAO JORGE, PO","FM-15","LPSJ ","V020","999,9,V,0015,1","99999,9,C,N","011265,1,N,1","+0220,1","+0170,1","99999,9","04,5,+00480,1,99,9","04,5,+00900,1,99,9",,,"04,99,1,99,9,99,9,99999,9,99,9,99,9",,"10271,1,99999,9",,,,,,"MET095METAR LPSJ 291500Z VRB03KT 9999 SCT016 SCT030 22/17 Q1027 RMK WIND RWY13 VRB02KT RWY31 VRB03KT;","P01 009003SCOCIG"
"08509599999","2010-09-29T16:00:00","4","38.6655","-28.175817","94.79","SAO JORGE, PO","FM-15","LPSJ ","V020","999,9,V,0021,1","99999,9,C,N","011265,1,N,1","+0220,1","+0180,1","99999,9","04,5,+00480,1,99,9","04,5,+00900,1,99,9",,,"04,99,1,99,9,99,9,99999,9,99,9,99,9",,"10271,1,99999,9",,,,,,"MET095METAR LPSJ 291600Z VRB04KT 9999 SCT016 SCT030 22/18 Q1027 RMK WIND RWY13 VRB03KT RWY31 VRB04KT;","P01 009003SCOCIG"
"08509599999","2010-09-29T17:00:00","4","38.6655","-28.175817","94.79","SAO JORGE, PO","FM-15","LPSJ ","V020","999,9,V,0021,1","22000,1,9,N","011265,1,N,1","+0230,1","+0180,1","99999,9","04,5,+00480,1,99,9",,,,"04,99,1,99,9,99,9,99999,9,99,9,99,9",,"10271,1,99999,9",,,,,,"MET088METAR LPSJ 291700Z VRB04KT 9999 SCT016 23/18 Q1027 RMK WIND RWY13 VRB04KT RWY31 VRB03KT;",
"08509599999","2010-09-29T18:00:00","4","38.6655","-28.175817","94.79","SAO JORGE, PO","FM-15","LPSJ ","V020","170,1,N,0026,1","22000,1,9,N","011265,1,N,1","+0230,1","+0180,1","99999,9","04,5,+00450,1,99,9",,,,"04,99,1,99,9,99,9,99999,9,99,9,99,9",,"10271,1,99999,9",,,,,,"MET096METAR LPSJ 291800Z 17005KT 9999 SCT015 23/18 Q1027 RMK WIND RWY13 18004KT 140V220 RWY31 19004KT;",
"08509599999","2010-09-30T09:00:00","4","38.6655","-28.175817","94.79","SAO JORGE, PO","FM-15","LPSJ ","V020","999,9,V,0015,1","99999,9,C,N","011265,1,N,1","+0190,1","+0180,1","99999,9","02,5,+00420,1,99,9","04,5,+00750,1,99,9",,,"04,99,1,99,9,99,9,99999,9,99,9,99,9",,"10271,1,99999,9",,,,,,"MET095METAR LPSJ 300900Z VRB03KT 9999 FEW014 SCT025 19/18 Q1027 RMK WIND RWY13 VRB04KT RWY31 VRB05KT;","P01 007503SCOCIG"
"08509599999","2010-09-30T10:00:00","4","38.6655","-28.175817","94.79","SAO JORGE, PO","FM-15","LPSJ ","V020","999,9,V,0021,1","99999,9,C,N","011265,1,N,1","+0200,1","+0180,1","99999,9","02,5,+00420,1,99,9","04,5,+00750,1,99,9",,,"04,99,1,99,9,99,9,99999,9,99,9,99,9",,"10271,1,99999,9",,,,,,"MET095METAR LPSJ 301000Z VRB04KT 9999 FEW014 SCT025 20/18 Q1027 RMK WIND RWY13 VRB03KT RWY31 VRB04KT;","P01 007503SCOCIG"
"08509599999","2010-09-30T11:00:00","4","38.6655","-28.175817","94.79","SAO JORGE, PO","FM-15","LPSJ ","V020","300,1,N,0031,1","22000,1,9,N","011265,1,N,1","+0210,1","+0170,1","99999,9","02,5,+00540,1,99,9",,,,"02,99,1,99,9,99,9,99999,9,99,9,99,9",,"10271,1,99999,9",,,,,,"MET088METAR LPSJ 301100Z 30006KT 9999 FEW018 21/17 Q1027 RMK WIND RWY13 31004KT RWY31 29005KT;",
"08509599999","2010-09-30T13:00:00","4","38.6655","-28.175817","94.79","SAO JORGE, PO","FM-15","LPSJ ","V020","290,1,N,0046,1","22000,1,9,N","011265,1,N,1","+0230,1","+0150,1","99999,9","02,5,+00750,1,99,9",,,,"02,99,1,99,9,99,9,99999,9,99,9,99,9",,"10271,1,99999,9",,,,,,"MET095METAR LPSJ 301300Z 29009KT 9999 FEW025 23/15 Q1027 RMK WIND RWY13 31005KT RWY31 2806KT 230V300;",
"08509599999","2010-09-30T14:00:00","4","38.6655","-28.175817","94.79","SAO JORGE, PO","FM-15","LPSJ ","V020","290,1,N,0057,1","22000,1,9,N","011265,1,N,1","+0220,1","+0150,1","99999,9","02,5,+00900,1,99,9",,,,"02,99,1,99,9,99,9,99999,9,99,9,99,9",,"10271,1,99999,9",,,,,,"MET088METAR LPSJ 301400Z 29011KT 9999 FEW030 22/15 Q1027 RMK WIND RWY13 28009KT RWY31 27009KT;",
"08509599999","2010-09-30T15:00:00","4","38.6655","-28.175817","94.79","SAO JORGE, PO","FM-15","LPSJ ","V020","270,1,N,0046,1","22000,1,9,N","011265,1,N,1","+0230,1","+0160,1","99999,9","02,5,+00900,1,99,9",,,,"02,99,1,99,9,99,9,99999,9,99,9,99,9",,"10261,1,99999,9",,,,,,"MET088METAR LPSJ 301500Z 27009KT 9999 FEW030 23/16 Q1026 RMK WIND RWY13 29007KT RWY31 26007KT;",
"08509599999","2010-09-30T16:00:00","4","38.6655","-28.175817","94.79","SAO JORGE, PO","FM-15","LPSJ ","V020","270,1,N,0057,1","22000,1,9,N","011265,1,N,1","+0220,1","+0160,1","99999,9","02,5,+00900,1,99,9",,,,"02,99,1,99,9,99,9,99999,9,99,9,99,9",,"10261,1,99999,9",,,,,,"MET088METAR LPSJ 301600Z 27011KT 9999 FEW030 22/16 Q1026 RMK WIND RWY13 29008KT RWY31 26009KT;",
"08509599999","2010-09-30T17:00:00","4","38.6655","-28.175817","94.79","SAO JORGE, PO","FM-15","LPSJ ","V020","270,1,N,0051,1","22000,1,9,N","011265,1,N,1","+0220,1","+0150,1","99999,9","02,5,+00900,1,99,9",,,,"02,99,1,99,9,99,9,99999,9,99,9,99,9",,"10251,1,99999,9",,,,,,"MET088METAR LPSJ 301700Z 27010KT 9999 FEW030 22/15 Q1025 RMK WIND RWY13 27007KT RWY31 25006KT;",
"08509599999","2010-09-30T18:00:00","4","38.6655","-28.175817","94.79","SAO JORGE, PO","FM-15","LPSJ ","V020","280,1,N,0051,1","22000,1,9,N","011265,1,N,1","+0210,1","+0140,1","99999,9","02,5,+00900,1,99,9",,,,"02,99,1,99,9,99,9,99999,9,99,9,99,9",,"10251,1,99999,9",,,,,,"MET088METAR LPSJ 301800Z 28010KT 9999 FEW030 21/14 Q1025 RMK WIND RWY13 29008KT RWY31 26009KT;",
"08509599999","2010-10-01T09:00:00","4","38.6655","-28.175817","94.79","SAO JORGE, PO","FM-15","LPSJ ","V020","270,1,N,0051,1","99999,9,C,N","011265,1,N,1","+0210,1","+0190,1","99999,9","04,5,+00390,1,99,9","04,5,+00750,1,99,9",,,"04,99,1,99,9,99,9,99999,9,99,9,99,9",,"10200,1,99999,9",,,,,,"MET095METAR LPSJ 010900Z 27010KT 9999 SCT013 SCT025 21/19 Q1020 RMK WIND RWY13 27005KT RWY31 26011KT;","P01 007503SCOCIG"
"08509599999","2010-10-01T10:00:00","4","38.6655","-28.175817","94.79","SAO JORGE, PO","FM-15","LPSJ ","V020","270,1,N,0046,1","99999,9,C,N","011265,1,N,1","+0210,1","+0200,1","99999,9","02,5,+00360,1,99,9","04,5,+00750,1,99,9",,,"04,99,1,99,9,99,9,99999,9,99,9,99,9",,"10200,1,99999,9",,,,,,"MET095METAR LPSJ 011000Z 27009KT 9999 FEW012 SCT025 21/20 Q1020 RMK WIND RWY13 27006KT RWY31 26009KT;","P01 007503SCOCIG"
"08509599999","2010-10-01T11:00:00","4","38.6655","-28.175817","94.79","SAO JORGE, PO","FM-15","LPSJ ","V020","280,1,N,0051,1","99999,9,C,N","011265,1,N,1","+0210,1","+0190,1","99999,9","04,5,+00390,1,99,9","04,5,+00750,1,99,9",,,"04,99,1,99,9,99,9,99999,9,99,9,99,9",,"10200,1,99999,9",,,,,,"MET095METAR LPSJ 011100Z 28010KT 9999 SCT013 SCT025 21/19 Q1020 RMK WIND RWY13 29008KT RWY31 26010KT;","P01 007503SCOCIG"
"08509599999","2010-10-01T12:00:00","4","38.6655","-28.175817","94.79","SAO JORGE, PO","FM-15","LPSJ ","V020","260,1,N,0062,1","99999,9,C,N","011265,1,N,1","+0220,1","+0190,1","99999,9","02,5,+00390,1,99,9","04,5,+02100,1,99,9",,,"04,99,1,99,9,99,9,99999,9,99,9,99,9",,"10200,1,99999,9",,,,,,"MET095METAR LPSJ 011200Z 26012KT 9999 FEW013 SCT070 22/19 Q1020 RMK WIND RWY13 28008KT RWY31 26012KT;","P01 021003SCOCIG"
"08509599999","2010-10-01T13:00:00","4","38.6655","-28.175817","94.79","SAO JORGE, PO","FM-15","LPSJ ","V020","260,1,N,0062,1","99999,9,C,N","011265,1,N,1","+0220,1","+0200,1","99999,9","04,5,+00390,1,99,9","04,5,+00900,1,99,9",,,"04,99,1,99,9,99,9,99999,9,99,9,99,9",,"10190,1,99999,9",,,,,,"MET095METAR LPSJ 011300Z 26012KT 9999 SCT013 SCT030 22/20 Q1019 RMK WIND RWY13 28015KT RWY31 27016KT;","P01 009003SCOCIG"
"08509599999","2010-10-01T14:00:00","4","38.6655","-28.175817","94.79","SAO JORGE, PO","FM-15","LPSJ ","V020","310,1,N,0046,1","99999,9,C,N","011265,1,N,1","+0200,1","+0190,1","99999,9","04,5,+00390,1,99,9","02,5,+00450,1,02,5","04,5,+00600,1,99,9",,"04,99,1,99,9,99,9,99999,9,99,9,99,9",,"10180,1,99999,9",,,,,,"MET105METAR LPSJ 011400Z 31009KT 9999 SCT013 FEW015TCU SCT020 20/19 Q1018 RMK WIND RWY13 32007KT RWY31 31008KT;","P01 004503SCOCIG"
"08509599999","2010-10-01T15:00:00","4","38.6655","-28.175817","94.79","SAO JORGE, PO","FM-15","LPSJ ","V020","290,1,N,0051,1","99999,9,C,N","011265,1,N,1","+0210,1","+0200,1","99999,9","04,5,+00330,1,99,9","02,5,+00420,1,02,5","04,5,+00750,1,99,9",,"04,99,1,99,9,99,9,99999,9,99,9,99,9",,"10169,1,99999,9",,,,,,"MET105METAR LPSJ 011500Z 29010KT 9999 SCT011 FEW014TCU SCT025 21/20 Q1017 RMK WIND RWY13 32005KT RWY31 29006KT;","P01 004203SCOCIG"
"08509599999","2010-10-01T16:00:00","4","38.6655","-28.175817","94.79","SAO JORGE, PO","FM-15","LPSJ ","V020","280,1,N,0051,1","99999,9,C,N","011265,1,N,1","+0220,1","+0200,1","99999,9","02,5,+00420,1,99,9","04,5,+00750,1,99,9",,,"04,99,1,99,9,99,9,99999,9,99,9,99,9",,"10159,1,99999,9","16,1",,,,,"MET116METAR LPSJ 011600Z 28010KT 9999 VCSH FEW014 SCT025 22/20 Q1016 RKM WIND RWY13 31008KT 260V350 RWY31 28009KT 240V310;","P01 007503SCOCIG"
"08509599999","2010-10-01T17:00:00","4","38.6655","-28.175817","94.79","SAO JORGE, PO","FM-15","LPSJ ","V020","270,1,N,0051,1","00450,5,C,N","011265,1,N,1","+0230,1","+0200,1","99999,9","04,5,+00360,1,99,9","02,5,+00450,1,02,5",,,,,"10149,1,99999,9","16,1",,,,,"MET119METAR LPSJ 011700Z 27010KT 9999 VCSH SCT012 FEW015TCU 23/20 Q1015 RMK WIND RWY13 29006KT 250V330 RWY31 27009KT 220V300;","Q01+000022SCOTCV"
"08509599999","2010-10-02T09:00:00","4","38.6655","-28.175817","94.79","SAO JORGE, PO","FM-15","LPSJ ","V020","360,1,N,0057,1","00900,1,C,N","011265,1,N,1","+0190,1","+0170,1","99999,9","04,5,+00360,1,99,9","07,5,+00900,1,99,9",,,"07,99,1,99,9,99,9,99999,9,99,9,99,9",,"10108,1,99999,9","80,1",,,,,"MET117METAR LPSJ 020900Z 36011KT 9999 -SHRA SCT012 BKN030 19/17 Q1011 RMK WIND RWY13 01011KT 340V040 RWY31 36012KT 330V030;",
"08509599999","2010-10-02T10:00:00","4","38.6655","-28.175817","94.79","SAO JORGE, PO","FM-15","LPSJ ","V020","020,1,N,0067,1","00900,1,C,N","011265,1,N,1","+0200,1","+0170,1","99999,9","02,5,+00420,1,99,9","04,5,+00900,1,99,9","07,5,+02100,1,99,9",,"07,99,1,99,9,99,9,99999,9,99,9,99,9",,"10119,1,99999,9",,,,,,"MET113METAR LPSJ 021000Z 02013KT 9999 FEW014 SCT030 BKN070 20/17 Q1012 RKM WIND RWY13 02017KT RWY31 02018G28KT 340V070;",
"08509599999","2010-10-02T12:00:00","4","38.6655","-28.175817","94.79","SAO JORGE, PO","FM-15","LPSJ ","V020","320,1,N,0046,1","02100,1,C,N","011265,1,N,1","+0200,1","+0160,1","99999,9","04,5,+00480,1,99,9","07,5,+02100,1,99,9",,,"07,99,1,99,9,99,9,99999,9,99,9,99,9",,"10129,1,99999,9",,,,,,"MET106METAR LPSJ 021200Z 32009KT 9999 SCT016 BKN070 20/16 Q1013 RMK WIND RWY13 35008KT 320V020 RWY31 33009G19KT;",
"08509599999","2010-10-02T14:00:00","4","38.6655","-28.175817","94.79","SAO JORGE, PO","FM-15","LPSJ ","V020","320,1,N,0046,1","02100,1,C,N","011265,1,N,1","+9999,9","+9999,9","99999,9","04,5,+00540,1,99,9","07,5,+02100,1,99,9",,,"07,99,1,99,9,99,9,99999,9,99,9,99,9",,"10130,1,99999,9",,,,,,"MET094METAR LPSJ 021400Z 32009KT 9999 SCT018 BKN070 2116 Q1013 RMK WIND RWY13 32006KT RWY31 30006KT;",
"08509599999","2010-10-02T15:00:00","4","38.6655","-28.175817","94.79","SAO JORGE, PO","FM-15","LPSJ ","V020","290,1,N,0057,1","06000,1,C,N","011265,1,N,1","+0210,1","+0170,1","99999,9","04,5,+00540,1,99,9","07,5,+06000,1,99,9",,,"07,99,1,99,9,99,9,99999,9,99,9,99,9",,"10119,1,99999,9",,,,,,"MET103METAR LPSJ 021500Z 29011KT 9999 SCT018 BKN200 21/17 Q1012 RMK WIND RWY13 270V350 RWY31 29010KT 250V320;",
"08509599999","2010-10-02T16:00:00","4","38.6655","-28.175817","94.79","SAO JORGE, PO","FM-15","LPSJ ","V020","290,1,N,0077,1","06000,1,C,N","011265,1,N,1","+0220,1","+0160,1","99999,9","04,5,+00540,1,99,9","07,5,+06000,1,99,9",,,"07,99,1,99,9,99,9,99999,9,99,9,99,9",,"10119,1,99999,9",,,,,,"MET115METAR LPSJ 021600Z 29015KT 9999 SCT018 BKN200 22/16 Q1012 RMK WIND RWY13 32010G20KT 270V010 RWY31 29012G22 240V320;",
"08509599999","2010-10-03T09:00:00","4","38.6655","-28.175817","94.79","SAO JORGE, PO","FM-15","LPSJ ","V020","310,1,N,0067,1","99999,9,C,N","011265,1,N,1","+0200,1","+0160,1","99999,9","04,5,+00390,1,99,9","04,5,+00750,1,99,9",,,"04,99,1,99,9,99,9,99999,9,99,9,99,9",,"10159,1,99999,9",,,,,,"MET117METAR LPSJ 030900Z 31013KT 9999 SCT013 SCT025 20/16 Q1016 RMK WIND RWY13 32007G17KT 280V350 RWY31 31013G23KT 280V340;","P01 007503SCOCIG"
"08509599999","2010-10-03T10:00:00","4","38.6655","-28.175817","94.79","SAO JORGE, PO","FM-15","LPSJ ","V020","320,1,N,0057,1","99999,9,C,N","011265,1,N,1","+0200,1","+0170,1","99999,9","04,5,+00420,1,99,9","04,5,+00750,1,99,9",,,"04,99,1,99,9,99,9,99999,9,99,9,99,9",,"10169,1,99999,9",,,,,,"MET111METAR LPSJ 031000Z 32011KT 9999 SCT014 SCT025 20/17 Q1017 RMK WIND RWY13 33009KT 290V360 RWY31 33014KT 300V360;","P01 007503SCOCIG"
"08509599999","2010-10-03T11:00:00","4","38.6655","-28.175817","94.79","SAO JORGE, PO","FM-15","LPSJ ","V020","320,1,N,0057,1","99999,9,C,N","011265,1,N,1","+0200,1","+0160,1","99999,9","02,5,+00480,1,99,9","04,5,+00750,1,99,9",,,"04,99,1,99,9,99,9,99999,9,99,9,99,9",,"10180,1,99999,9",,,,,,"MET111METAR LPSJ 031100Z 32011KT 9999 FEW016 SCT025 20/16 Q1018 RMK WIND RWY13 33010KT 300V360 RWY31 31013KT 280V340;","P01 007503SCOCIG"
"08509599999","2010-10-04T09:00:00","4","38.6655","-28.175817","94.79","SAO JORGE, PO","FM-15","LPSJ ","V020","310,1,N,0036,1","99999,9,C,N","011265,1,N,1","+0200,1","+0170,1","99999,9","04,5,+00750,1,99,9","04,5,+00900,1,99,9",,,"04,99,1,99,9,99,9,99999,9,99,9,99,9",,"10220,1,99999,9",,,,,,"MET095METAR LPSJ 040900Z 31007KT 9999 SCT025 SCT030 20/17 Q1022 RMK WIND RWY13 33008KT RWY31 31007KT;","P01 009003SCOCIG"
"08509599999","2010-10-04T10:00:00","4","38.6655","-28.175817","94.79","SAO JORGE, PO","FM-15","LPSJ ","V020","300,1,N,0036,1","00900,1,C,N","011265,1,N,1","+0210,1","+0180,1","99999,9","04,5,+00480,1,99,9","07,5,+00900,1,99,9",,,"07,99,1,99,9,99,9,99999,9,99,9,99,9",,"10220,1,99999,9",,,,,,"MET095METAR LPSJ 041000Z 30007KT 9999 SCT016 BKN030 21/18 Q1022 RMK WIND RWY13 32006KT RWY31 30006KT;",
"08509599999","2010-10-04T11:00:00","4","38.6655","-28.175817","94.79","SAO JORGE, PO","FM-15","LPSJ ","V020","290,1,N,0046,1","00900,1,C,N","011265,1,N,1","+0210,1","+0180,1","99999,9","04,5,+00480,1,99,9","07,5,+00900,1,99,9",,,"07,99,1,99,9,99,9,99999,9,99,9,99,9",,"10220,1,99999,9",,,,,,"MET095METAR LPSJ 041100Z 29009KT 9999 SCT016 BKN030 21/18 Q1022 RMK WIND RWY13 31005KT RWY31 29006KT;",
"08509599999","2010-10-04T12:00:00","4","38.6655","-28.175817","94.79","SAO JORGE, PO","FM-15","LPSJ ","V020","280,1,N,0046,1","99999,9,C,N","011265,1,N,1","+0230,1","+0180,1","99999,9","04,5,+00540,1,99,9","04,5,+00900,1,99,9",,,"04,99,1,99,9,99,9,99999,9,99,9,99,9",,"10220,1,99999,9",,,,,,"MET111METAR LPSJ 041200Z 28009KT 9999 SCT018 SCT030 23/18 Q1022 RMK WIND RWY13 30007KT 270V340 RWY31 27007KT 240V300;","P01 009003SCOCIG"
"08509599999","2010-10-04T14:00:00","4","38.6655","-28.175817","94.79","SAO JORGE, PO","FM-15","LPSJ ","V020","290,1,N,0051,1","99999,9,C,N","011265,1,N,1","+0240,1","+0180,1","99999,9","02,5,+00660,1,99,9","04,5,+01050,1,99,9",,,"04,99,1,99,9,99,9,99999,9,99,9,99,9",,"10210,1,99999,9",,,,,,"MET111METAR LPSJ 041400Z 29010KT 9999 FEW022 SCT035 24/18 Q1021 RMK WIND RWY13 30010KT 260V330 RWY31 28008KT 240V310;","P01 010503SCOCIG"
"08509599999","2010-10-04T15:00:00","4","38.6655","-28.175817","94.79","SAO JORGE, PO","FM-15","LPSJ ","V020","280,1,N,0051,1","99999,9,C,N","011265,1,N,1","+0240,1","+0160,1","99999,9","02,5,+00660,1,99,9","04,5,+01800,1,99,9",,,"04,99,1,99,9,99,9,99999,9,99,9,99,9",,"10200,1,99999,9",,,,,,"MET111METAR LPSJ 041500Z 28010KT 9999 FEW022 SCT060 24/16 Q1020 RMK WIND RWY13 30008KT 260V340 RWY31 28008KT 230V320;","P01 018003SCOCIG"
"08509599999","2010-10-04T16:00:00","4","38.6655","-28.175817","94.79","SAO JORGE, PO","FM-15","LPSJ ","V020","280,1,N,0067,1","22000,1,9,N","011265,1,N,1","+0240,1","+0170,1","99999,9","02,5,+00660,1,99,9",,,,"02,99,1,99,9,99,9,99999,9,99,9,99,9",,,,,,,,"MET106METAR LPSJ 041600Z 28013KT 9999 FEW022 24/17 1020 RMK WIND RWY13 30010KT 240V340 RWY31 28009G21KT 220V310;",
"08509599999","2010-10-05T07:00:00","4","38.6655","-28.175817","94.79","SAO JORGE, PO","FM-15","LPSJ ","V020","320,1,N,0062,1","99999,9,C,N","011265,1,N,1","+0190,1","+0150,1","99999,9","04,5,+00420,1,99,9","04,5,+02100,1,99,9",,,"04,99,1,99,9,99,9,99999,9,99,9,99,9",,"10159,1,99999,9",,,,,,"MET114METAR LPSJ 050700Z 32012KT 9999 SCT014 SCT070 19/15 Q1016 RMK WIND RWY13 33014KT 330V030 RWY31 33014G28KT 310V020;","P01 021003SCOCIG"
"08509599999","2010-10-05T08:00:00","4","38.6655","-28.175817","94.79","SAO JORGE, PO","FM-15","LPSJ ","V020","320,1,N,0062,1","02100,1,C,N","011265,1,N,1","+0190,1","+0150,1","99999,9","04,5,+00480,1,99,9","07,5,+02100,1,99,9",,,"07,99,1,99,9,99,9,99999,9,99,9,99,9",,"10159,1,99999,9",,,,,,"MET103METAR LPSJ 050800Z 32012KT 9999 SCT016 BKN070 19/15 Q1016 RMK WIND RWY13 33013KT 300V360 RWY31 32013KT;",
"08509599999","2010-10-05T10:00:00","4","38.6655","-28.175817","94.79","SAO JORGE, PO","FM-15","LPSJ ","V020","020,1,N,0077,1","00900,1,C,N","011265,1,N,1","+0160,1","+0120,1","99999,9","02,5,+00420,1,99,9","04,5,+00900,1,99,9","07,5,+02100,1,99,9",,"07,99,1,99,9,99,9,99999,9,99,9,99,9",,"10159,1,99999,9","61,1",,,,,"MET125METAR LPSJ 051000Z 02015KT 350V070 9999 -RA FEW014 SCT030 BKN070 16/12 Q1016 RMK WIND RWY13 02027KT RWY31 02020G34KT 340V040;",
"08509599999","2010-10-05T11:00:00","4","38.6655","-28.175817","94.79","SAO JORGE, PO","FM-15","LPSJ ","V020","010,1,N,0072,1","00900,1,C,N","011265,1,N,1","+0150,1","+0120,1","99999,9","02,5,+00420,1,99,9","07,5,+00900,1,99,9",,,"07,99,1,99,9,99,9,99999,9,99,9,99,9",,"10169,1,99999,9",,,,,,"MET100METAR LPSJ 051100Z 01014KT 9999 FEW014 BKN030 15/12 Q1017 RERA RMK WIND RWY13 02017KT RWY31 01015KT;",
"08509599999","2010-10-05T14:00:00","4","38.6655","-28.175817","94.79","SAO JORGE, PO","FM-15","LPSJ ","V020","310,1,N,0041,1","00750,1,C,N","011265,1,N,1","+0170,1","+0150,1","99999,9","04,5,+00480,1,99,9","07,5,+00750,1,99,9",,,"07,99,1,99,9,99,9,99999,9,99,9,99,9",,"10169,1,99999,9","16,1",,,,,"MET100METAR LPSJ 051400Z 31008KT 9999 VCSH SCT016 BKN025 17/15 Q1017 RMK WIND RWY13 32005KT RWY31 30006KT;",
"08509599999","2010-10-05T15:00:00","4","38.6655","-28.175817","94.79","SAO JORGE, PO","FM-15","LPSJ ","V020","320,1,N,0036,1","00600,1,C,N","011265,1,N,1","+0180,1","+0140,1","99999,9","04,5,+00450,1,99,9","07,5,+00600,1,99,9",,,"07,99,1,99,9,99,9,99999,9,99,9,99,9",,,"16,1",,,,,"MET099METAR LPSJ 051500Z 32007KT 9999 VCSH SCT015 BKN020 18/14 1016 RMK WIND RWY13 33009KT RWY31 32013KT;",
"08509599999","2010-10-06T10:00:00","4","38.6655","-28.175817","94.79","SAO JORGE, PO","FM-15","LPSJ ","V020","999,9,V,0010,1","02100,1,C,N","011265,1,N,1","+0180,1","+0100,1","99999,9","02,5,+00600,1,99,9","07,5,+02100,1,99,9",,,"07,99,1,99,9,99,9,99999,9,99,9,99,9",,"10149,1,99999,9",,,,,,"MET095METAR LPSJ 061000Z VRB02KT 9999 FEW020 BKN070 18/10 Q1015 RMK WIND RWY12 VRB02KT RWY31 VRB02KT;",
"08509599999","2010-10-06T11:00:00","4","38.6655","-28.175817","94.79","SAO JORGE, PO","FM-15","LPSJ ","V020","999,9,V,0021,1","02100,1,C,N","011265,1,N,1","+0180,1","+0110,1","99999,9","02,5,+00750,1,99,9","07,5,+02100,1,99,9",,,"07,99,1,99,9,99,9,99999,9,99,9,99,9",,,,,,,,"MET094METAR LPSJ 061100Z VRB04KT 9999 FEW025 BKN070 18/11 1015 RMK WIND RWY13 VRB03KT RWY31 VRB04KT;",
"08509599999","2010-10-06T12:00:00","4","38.6655","-28.175817","94.79","SAO JORGE, PO","FM-15","LPSJ ","V020","230,1,N,0021,1","02100,1,C,N","011265,1,N,1","+0190,1","+0110,1","99999,9","02,5,+00900,1,99,9","07,5,+02100,1,99,9",,,"07,99,1,99,9,99,9,99999,9,99,9,99,9",,"10139,1,99999,9",,,,,,"MET095METAR LPSJ 061200Z 23004KT 9999 FEW030 BKN070 19/11 Q1014 RMK WIND RWY13 23003KT RWY31 23004KT;",
"08509599999","2010-10-06T13:00:00","4","38.6655","-28.175817","94.79","SAO JORGE, PO","FM-15","LPSJ ","V020","999,9,V,0021,1","02100,1,C,N","011265,1,N,1","+0190,1","+0120,1","99999,9","02,5,+00900,1,99,9","07,5,+02100,1,99,9",,,"07,99,1,99,9,99,9,99999,9,99,9,99,9",,"10139,1,99999,9",,,,,,"MET095METAR LPSJ 061300Z VRB04KT 9999 FEW030 BKN070 19/12 Q1014 RMK WIND RWY13 VRB04KT RWY31 VRB05KT;",
"08509599999","2010-10-06T14:00:00","4","38.6655","-28.175817","94.79","SAO JORGE, PO","FM-15","LPSJ ","V020","260,1,N,0031,1","02100,1,C,N","011265,1,N,1","+0190,1","+0130,1","99999,9","02,5,+00900,1,99,9","07,5,+02100,1,99,9",,,"07,99,1,99,9,99,9,99999,9,99,9,99,9",,"10129,1,99999,9","80,1",,,,,"MET101METAR LPSJ 061400Z 26006KT 9999 -SHRA FEW030 BKN070 19/13 Q1013 RMK WIND RWY13 26004KT RWY31 26005KT;",
"08509599999","2010-10-06T15:00:00","4","38.6655","-28.175817","94.79","SAO JORGE, PO","FM-15","LPSJ ","V020","160,1,N,0021,1","01500,1,C,N","011265,1,N,1","+0190,1","+0120,1","99999,9","02,5,+00900,1,99,9","04,5,+01500,1,99,9","07,5,+02100,1,99,9",,"07,99,1,99,9,99,9,99999,9,99,9,99,9",,"10119,1,99999,9",,,,,,"MET102METAR LPSJ 061500Z 16004KT 9999 FEW030 SCT050 BKN070 19/12 Q1012 RMK WIND RWY13 17004KT RWY31 16003KT;",
"08509599999","2010-10-06T16:00:00","4","38.6655","-28.175817","94.79","SAO JORGE, PO","FM-15","LPSJ ","V020","130,1,N,0036,1","01500,1,C,N","011265,1,N,1","+0200,1","+0130,1","99999,9","02,5,+00900,1,99,9","04,5,+01500,1,99,9","07,5,+02100,1,99,9",,"07,99,1,99,9,99,9,99999,9,99,9,99,9",,"10102,1,99999,9",,,,,,"MET102METAR LPSJ 061600Z 13007KT 9999 FEW030 SCT050 BKN070 20/13 Q1010 RMK WIND RWY13 14005KT RWY31 13005KT;",
"08509599999","2010-10-06T17:00:00","4","38.6655","-28.175817","94.79","SAO JORGE, PO","FM-15","LPSJ ","V020","140,1,N,0036,1","02100,1,C,N","011265,1,N,1","+0200,1","+0120,1","99999,9","02,5,+00900,1,99,9","07,5,+02100,1,99,9",,,"07,99,1,99,9,99,9,99999,9,99,9,99,9",,"10091,1,99999,9",,,,,,"MET095METAR LPSJ 061700Z 14007KT 9999 FEW030 BKN070 20/12 Q1009 RMK WIND RWY13 14005KT RWY31 14006KT;",
"08509599999","2010-10-06T18:00:00","4","38.6655","-28.175817","94.79","SAO JORGE, PO","FM-15","LPSJ ","V020","120,1,N,0031,1","00900,1,C,N","011265,1,N,1","+0170,1","+0150,1","99999,9","04,5,+00480,1,99,9","04,5,+00900,1,99,9","07,5,+02100,1,99,9",,"07,99,1,99,9,99,9,99999,9,99,9,99,9","999,M,+9999,9","10081,1,99999,9",,,,,,"MET107METAR LPSJ 061800Z 12006KT 9999 SCT016 SCT030 BKN070 17/15 Q1008 RERA RMK WIND RWY13 11011KT RWY31 10010KT;","Q01 +00102ATMX  "
"08509599999","2010-10-07T14:00:00","4","38.6655","-28.175817","94.79","SAO JORGE, PO","FM-15","LPSJ ","V020","290,1,N,0087,1","00750,1,C,N","011265,1,N,1","+0180,1","+0100,1","99999,9","07,5,+00750,1,99,9",,,,"07,99,1,99,9,99,9,99999,9,99,9,99,9",,"10020,1,99999,9",,,,"0139,1",,"MET113METAR LPSJ 071400Z 29017G27KT 9999 BKN025 18/10 Q1002 RMK WIND RWY13 31022G22KT 250V360 RWY31 29021G38KT 240V350;",
"08509599999","2010-10-07T18:00:00","4","38.6655","-28.175817","94.79","SAO JORGE, PO","FM-15","LPSJ ","V020","310,1,N,0118,1","22000,1,9,N","011265,1,N,1","+0140,1","+0110,1","99999,9","04,5,+00750,1,99,9",,,,"04,99,1,99,9,99,9,99999,9,99,9,99,9",,"10020,1,99999,9","16,1",,,,,"MET115METAR LPSJ 071800Z 31023KT 9999 VCSH SCT025 14/11 Q1002 RMK WIND RWY13 32019G34KT 270V360 RWY31 31026G37KT 270V330;",
"08509599999","2010-10-08T09:00:00","4","38.6655","-28.175817","94.79","SAO JORGE, PO","FM-15","LPSJ ","V020","320,1,N,0072,1","00660,5,C,N","011265,1,N,1","+0140,1","+0070,1","99999,9","04,5,+00600,1,99,9","02,5,+00660,1,02,5",,,,,"10061,1,99999,9",,,,,,"MET112METAR LPSJ 080900Z 32014KT 9999 SCT020 FEW022TCU 14/07 Q1006 RMK WIND RWY13 33012G25KT 280V360 RWY31 32018G29KT;","Q01+000022SCOTCV"
"08509599999","2010-10-08T10:00:00","4","38.6655","-28.175817","94.79","SAO JORGE, PO","FM-15","LPSJ ","V020","310,1,N,0057,1","99999,9,C,N","011265,1,N,1","+0150,1","+0080,1","99999,9","02,5,+00600,1,99,9","04,5,+00900,1,99,9",,,"04,99,1,99,9,99,9,99999,9,99,9,99,9",,"10071,1,99999,9",,,,"0108,1",,"MET120METAR LPSJ 081000Z 31011G21KT 9999 FEW020 SCT030 15/08 Q1007 RMK WIND RWY13 33016G26KT 280V360 RWY31 32016G31KT 280V340;","P01 009003SCOCIG"
"08509599999","2010-10-08T11:00:00","4","38.6655","-28.175817","94.79","SAO JORGE, PO","FM-15","LPSJ ","V020","310,1,N,0062,1","22000,1,9,N","011265,1,N,1","+0160,1","+0090,1","99999,9","04,5,+00690,1,99,9",,,,"04,99,1,99,9,99,9,99999,9,99,9,99,9",,"10071,1,99999,9",,,,"0113,1",,"MET113METAR LPSJ 081100Z 31012G22KT 9999 SCT023 16/09 Q1007 RMK WIND RWY13 33013G26KT 280V360 RWY31 31019G33KT 270V330;",
"08509599999","2010-10-08T12:00:00","4","38.6655","-28.175817","94.79","SAO JORGE, PO","FM-15","LPSJ ","V020","310,1,N,0072,1","00660,5,C,N","011265,1,N,1","+0150,1","+0110,1","99999,9","04,5,+00600,1,99,9","02,5,+00660,1,09,5",,,,,"10071,1,99999,9","16,1",,,,,"MET124METAR LPSJ 081200Z 31014KT 9999 VCSH SCT020 FEW022CB 15/11 Q1007 RMK WIND RWY13 33014G24KT 280V360 RWY31 31013G24KT 270V340;","Q01+000022SCOTCV"
"08509599999","2010-10-08T13:00:00","4","38.6655","-28.175817","94.79","SAO JORGE, PO","FM-15","LPSJ ","V020","310,1,N,0087,1","00660,5,C,N","011265,1,N,1","+0160,1","+0090,1","99999,9","04,5,+00600,1,99,9","02,5,+00660,1,09,5",,,,,"10071,1,99999,9",,,,"0139,1",,"MET122METAR LPSJ 081300Z 31017G27KT 9999 SCT020 FEW022CB 16/09 Q1007 RMK WIND RWY13 33018G29KT 270V360 RWY31 32019G35KT 260V340;","Q01+000022SCOTCV"
"08509599999","2010-10-08T14:00:00","4","38.6655","-28.175817","94.79","SAO JORGE, PO","FM-15","LPSJ ","V020","290,1,N,0077,1","22000,1,9,N","011265,1,N,1","+0180,1","+0090,1","99999,9","02,5,+00900,1,99,9",,,,"02,99,1,99,9,99,9,99999,9,99,9,99,9",,"10071,1,99999,9",,,,"0129,1",,"MET113METAR LPSJ 081400Z 29015G25KT 9999 FEW030 18/09 Q1007 RMK WIND RWY13 31015G26KT 260V350 RWY31 30017G29KT 240V340;",
"08509599999","2010-10-08T15:00:00","4","38.6655","-28.175817","94.79","SAO JORGE, PO","FM-15","LPSJ ","V020","300,1,N,0087,1","00750,5,C,N","011265,1,N,1","+0180,1","+0100,1","99999,9","04,5,+00600,1,99,9","02,5,+00750,1,02,5",,,,,"10061,1,99999,9",,,,,,"MET120METAR LPSJ 081500Z 30017KT 9999 SCT020 FEW025TCU 18/10 Q1006 RMK WIND RWY13 31013G23KT 270V350 RWY31 30016G26KT 240V330;","Q01+000022SCOTCV"
"08509599999","2010-10-09T10:00:00","4","38.6655","-28.175817","94.79","SAO JORGE, PO","FM-15","LPSJ ","V020","280,1,N,0062,1","99999,9,C,N","011265,1,N,1","+0180,1","+0140,1","99999,9","04,5,+00600,1,99,9","04,5,+01050,1,99,9",,,"04,99,1,99,9,99,9,99999,9,99,9,99,9",,"10091,1,99999,9",,,,,,"MET114METAR LPSJ 091000Z 28012KT 9999 SCT020 SCT035 18/14 Q1009 RMK WIND RWY13 30008KT 250V350 RWY31 28008G21KT 220V320;","P01 010503SCOCIG"
"08509599999","2010-10-09T11:00:00","4","38.6655","-28.175817","94.79","SAO JORGE, PO","FM-15","LPSJ ","V020","270,1,N,0051,1","99999,9,C,N","011265,1,N,1","+0190,1","+0150,1","99999,9","04,5,+00540,1,99,9","04,5,+01200,1,99,9",,,"04,99,1,99,9,99,9,99999,9,99,9,99,9",,"10091,1,99999,9",,,,,,"MET111METAR LPSJ 091100Z 27010KT 9999 SCT018 SCT040 19/15 Q1009 RMK WIND RWY13 29008KT 240V340 RWY31 27012KT 220V310;","P01 012003SCOCIG"
"08509599999","2010-10-09T12:00:00","4","38.6655","-28.175817","94.79","SAO JORGE, PO","FM-15","LPSJ ","V020","270,1,N,0062,1","00900,1,C,N","011265,1,N,1","+0190,1","+0160,1","99999,9","02,5,+00540,1,99,9","04,5,+00900,1,99,9","07,5,+02100,1,99,9",,"07,99,1,99,9,99,9,99999,9,99,9,99,9",,"10091,1,99999,9",,,,,,"MET118METAR LPSJ 091200Z 27012KT 9999 FEW018 SCT030 BKN070 19/16 Q1009 RMK WIND RWY13 27008KT 230V330 RWY31 26014KT 190V310;",
"08509599999","2010-10-09T14:00:00","4","38.6655","-28.175817","94.79","SAO JORGE, PO","FM-15","LPSJ ","V020","270,1,N,0057,1","99999,9,C,N","011265,1,N,1","+0200,1","+0170,1","99999,9","04,5,+00480,1,99,9","04,5,+00900,1,99,9",,,"04,99,1,99,9,99,9,99999,9,99,9,99,9",,"10071,1,99999,9",,,,,,"MET114METAR LPSJ 091400Z 27011KT 9999 SCT016 SCT030 20/17 Q1007 RMK WIND RWY13 27008KT 230V330 RWY31 26010G22KT 200V320;","P01 009003SCOCIG"
"08509599999","2010-10-09T15:00:00","4","38.6655","-28.175817","94.79","SAO JORGE, PO","FM-15","LPSJ ","V020","270,1,N,0062,1","99999,9,C,N","011265,1,N,1","+0200,1","+0170,1","99999,9","04,5,+00450,1,99,9","04,5,+00900,1,99,9",,,"04,99,1,99,9,99,9,99999,9,99,9,99,9",,"10071,1,99999,9",,,,,,"MET117METAR LPSJ 091500Z 27012KT 9999 SCT015 SCT030 20/17 Q1007 RMK WIND RWY13 27008G18KT 210V360 RWY31 26015G26KT 180V320;","P01 009003SCOCIG"
"08509599999","2010-10-09T16:00:00","4","38.6655","-28.175817","94.79","SAO JORGE, PO","FM-15","LPSJ ","V020","270,1,N,0062,1","00750,1,C,N","011265,1,N,1","+0210,1","+0190,1","99999,9","04,5,+00360,1,99,9","07,5,+00750,1,99,9",,,"07,99,1,99,9,99,9,99999,9,99,9,99,9",,"10061,1,99999,9",,,,,,"MET114METAR LPSJ 091600Z 27012KT 9999 SCT012 BKN025 21/19 Q1006 RMK WIND RWY13 27014KT 210V340 RWY31 26012G22KT 180V300;",
"08509599999","2010-10-09T17:00:00","4","38.6655","-28.175817","94.79","SAO JORGE, PO","FM-15","LPSJ ","V020","270,1,N,0077,1","00750,1,C,N","011265,1,N,1","+0210,1","+0190,1","99999,9","04,5,+00360,1,99,9","07,5,+00750,1,99,9",,,"07,99,1,99,9,99,9,99999,9,99,9,99,9",,"10061,1,99999,9",,,,,,"MET114METAR LPSJ 091700Z 27015KT 9999 SCT012 BKN025 21/19 Q1006 RMK WIND RWY13 27013KT 210V360 RWY31 26016G27KT 190V320;",
"08509599999","2010-10-10T09:00:00","4","38.6655","-28.175817","94.79","SAO JORGE, PO","FM-15","LPSJ ","V020","140,1,N,0021,1","00180,1,C,N","009000,1,N,1","+0210,1","+0210,1","99999,9","02,5,+00060,1,99,9","04,5,+00180,1,99,9","07,5,+00390,1,99,9",,"07,99,1,99,9,99,9,99999,9,99,9,99,9",,"10091,1,99999,9","51,1",,,,,"MET113METAR LPSJ 100900Z 14004KT 9000 3000NW -DZ FEW002 SCT006 BKN013 21/21 Q1009 RMK WIND RWY13 13004KT RWY31 12005KT;",
"08509599999","2010-10-10T10:00:00","4","38.6655","-28.175817","94.79","SAO JORGE, PO","FM-15","LPSJ ","V020","100,1,N,0021,1","00240,1,C,N","009000,1,N,1","+0210,1","+0200,1","99999,9","02,5,+00150,1,99,9","04,5,+00240,1,99,9","07,5,+00390,1,99,9",,"07,99,1,99,9,99,9,99999,9,99,9,99,9","999,M,+9999,9","10091,1,99999,9","61,1",,,,,"MET112METAR LPSJ 101000Z 10004KT 9000 2000W -RA FEW005 SCT008 BKN013 21/20 Q1009 RMK WIND RWY13 12007KT RWY31 11005KT;","Q01 -00052ATMX  "
"08509599999","2010-10-10T11:00:00","4","38.6655","-28.175817","94.79","SAO JORGE, PO","FM-15","LPSJ ","V020","100,1,N,0021,1","00240,1,C,N","009000,1,N,1","+0210,1","+0200,1","99999,9","02,5,+00150,1,99,9","04,5,+00240,1,99,9","07,5,+00420,1,99,9",,"07,99,1,99,9,99,9,99999,9,99,9,99,9","999,M,+9999,9","10102,1,99999,9","51,1",,,,,"MET111METAR LPSJ 101100Z 10004KT 9000 -DZ FEW005 SCT008 BKN014 21/20 Q1010 RERA RMK WIND RWY13 11003KT RWY31 11002KT;","Q01 -00022ATMX  "
"08509599999","2010-10-10T12:00:00","4","38.6655","-28.175817","94.79","SAO JORGE, PO","FM-15","LPSJ ","V020","140,1,N,0021,1","00240,1,C,N","009000,1,N,1","+0220,1","+0220,1","99999,9","02,5,+00120,1,99,9","04,5,+00240,1,99,9","07,5,+00450,1,99,9",,"07,99,1,99,9,99,9,99999,9,99,9,99,9",,"10102,1,99999,9","61,1",,,,,"MET111METAR LPSJ 101200Z 14004KT 9000 -RA FEW004 SCT008 BKN015 22/22 Q1010 RERA RMK WIND RWY13 12005KT RWY31 12003KT;",
"08509599999","2010-10-10T13:00:00","4","38.6655","-28.175817","94.79","SAO JORGE, PO","FM-15","LPSJ ","V020","140,1,N,0026,1","00240,1,C,N","003000,1,N,1","+0220,1","+0220,1","99999,9","04,5,+00150,1,99,9","04,5,+00240,1,99,9","07,5,+00390,1,99,9",,"07,99,1,99,9,99,9,99999,9,99,9,99,9","999,M,+9999,9","10102,1,99999,9","10,1","63,1",,,,"MET113METAR LPSJ 101300Z 14005KT 3000 RA BR SCT005 SCT008 BKN013 22/22 Q1010 RERA RMK WIND RWY13 11005KT RWY31 11003KT;","Q01 -00032ATMX  "
"08509599999","2010-10-10T14:00:00","4","38.6655","-28.175817","94.79","SAO JORGE, PO","FM-15","LPSJ ","V020","110,1,N,0031,1","00420,1,C,N","011265,1,N,1","+0220,1","+0220,1","99999,9","02,5,+00240,1,99,9","04,5,+00420,1,99,9","07,5,+00600,1,99,9",,"07,99,1,99,9,99,9,99999,9,99,9,99,9",,"10102,1,99999,9",,,,,,"MET107METAR LPSJ 101400Z 11006KT 9999 FEW008 SCT014 BKN020 22/22 Q1010 RERA RMK WIND RWY13 11007KT RWY31 12006KT;",
"08509599999","2010-10-10T15:00:00","4","38.6655","-28.175817","94.79","SAO JORGE, PO","FM-15","LPSJ ","V020","120,1,N,0046,1","00420,1,C,N","011265,1,N,1","+0230,1","+0220,1","99999,9","04,5,+00210,1,99,9","07,5,+00420,1,99,9",,,"07,99,1,99,9,99,9,99999,9,99,9,99,9",,"10091,1,99999,9",,,,,,"MET100METAR LPSJ 101500Z 12009KT 9999 SCT007 BKN014 23/22 Q1009 RERA RMK WIND RWY13 12010KT RWY31 12009KT;",
"08509599999","2010-10-10T16:00:00","4","38.6655","-28.175817","94.79","SAO JORGE, PO","FM-15","LPSJ ","V020","140,1,N,0015,1","00240,1,C,N","011265,1,N,1","+0230,1","+0220,1","99999,9","02,5,+00150,1,99,9","04,5,+00240,1,99,9","07,5,+00420,1,99,9",,"07,99,1,99,9,99,9,99999,9,99,9,99,9",,"10081,1,99999,9",,,,,,"MET102METAR LPSJ 101600Z 14003KT 9999 FEW005 SCT008 BKN014 23/22 Q1008 RMK WIND RWY13 15003KT RWY31 14003KT;",
"08509599999","2010-10-10T17:00:00","4","38.6655","-28.175817","94.79","SAO JORGE, PO","FM-15","LPSJ ","V020","999,9,V,0015,1","00390,1,C,N","011265,1,N,1","+0220,1","+0210,1","99999,9","04,5,+00210,1,99,9","07,5,+00390,1,99,9",,,"07,99,1,99,9,99,9,99999,9,99,9,99,9",,"10091,1,99999,9",,,,,,"MET095METAR LPSJ 101700Z VRB03KT 9999 SCT007 BKN013 22/21 Q1009 RMK WIND RWY13 VRB03KT RWY31 VRB02KT;",
"08509599999","2010-10-10T18:00:00","4","38.6655","-28.175817","94.79","SAO JORGE, PO","FM-15","LPSJ ","V020","310,1,N,0041,1","00360,1,C,N","011265,1,N,1","+0210,1","+0200,1","99999,9","04,5,+00150,1,99,9","07,5,+00360,1,99,9",,,"07,99,1,99,9,99,9,99999,9,99,9,99,9",,"10091,1,99999,9",,,,,,"MET095METAR LPSJ 101800Z 31008KT 9999 SCT005 BKN012 21/20 Q1009 RMK WIND RWY13 32009KT RWY31 32010KT;",
"08509599999","2010-10-11T09:00:00","4","38.6655","-28.175817","94.79","SAO JORGE, PO","FM-15","LPSJ ","V020","280,1,N,0051,1","99999,9,C,N","011265,1,N,1","+0210,1","+0180,1","99999,9","04,5,+00420,1,99,9","04,5,+00660,1,99,9",,,"04,99,1,99,9,99,9,99999,9,99,9,99,9",,"10102,1,99999,9",,,,,,"MET111METAR LPSJ 110900Z 28010KT 9999 SCT014 SCT022 21/18 Q1010 RMK WIND RWY13 30008KT 240V340 RWY13 28010KT 240V310;","P01 006603SCOCIG"
"08509599999","2010-10-11T10:00:00","4","38.6655","-28.175817","94.79","SAO JORGE, PO","FM-15","LPSJ ","V020","280,1,N,0057,1","00600,1,C,N","011265,1,N,1","+0200,1","+0180,1","99999,9","04,5,+00390,1,99,9","07,5,+00600,1,99,9",,,"07,99,1,99,9,99,9,99999,9,99,9,99,9",,"10108,1,99999,9",,,,,,"MET109METAR LPSJ 111000Z 28011KT 9999 SCT013 BKN020 20/18 Q1011 RMK RWY13 31007KT 270V340 RAY13 28009G21KT 260V320;",
"08509599999","2010-10-11T11:00:00","4","38.6655","-28.175817","94.79","SAO JORGE, PO","FM-15","LPSJ ","V020","280,1,N,0051,1","00600,1,C,N","011265,1,N,1","+0200,1","+0180,1","99999,9","04,5,+00390,1,99,9","07,5,+00600,1,99,9",,,"07,99,1,99,9,99,9,99999,9,99,9,99,9",,"10108,1,99999,9",,,,,,"MET111METAR LPSJ 111100Z 28010KT 9999 SCT013 BKN020 20/18 Q1011 RMK WIND RWY13 31008KT 270V350 RWY31 28008KT 250V320;",
"08509599999","2010-10-11T12:00:00","4","38.6655","-28.175817","94.79","SAO JORGE, PO","FM-15","LPSJ ","V020","290,1,N,0067,1","00540,1,C,N","011265,1,N,1","+0210,1","+0190,1","99999,9","04,5,+00360,1,99,9","07,5,+00540,1,99,9",,,"07,99,1,99,9,99,9,99999,9,99,9,99,9",,"10119,1,99999,9",,,,,,"MET111METAR LPSJ 111200Z 29013KT 9999 SCT012 BKN018 21/19 Q1012 RMK WIND RWY13 31012KT 270V360 RWY31 28010KT 240V310;",
"08509599999","2010-10-11T13:00:00","4","38.6655","-28.175817","94.79","SAO JORGE, PO","FM-15","LPSJ ","V020","290,1,N,0082,1","22000,1,9,N","011265,1,N,1","+0210,1","+0180,1","99999,9","04,5,+00360,1,99,9","07,1,+00600,1,99,9",,,"07,99,1,99,9,99,9,99999,9,99,9,99,9",,"10119,1,99999,9",,,,,,"MET113METAR LPSJ 111300Z 29016KT 9999 SCT012 BKN02021/18 Q1012 RMK WIND RWY13 31011KT 270V360 RWY31 30012G24KT 250V340;",
"08509599999","2010-10-11T15:00:00","4","38.6655","-28.175817","94.79","SAO JORGE, PO","FM-15","LPSJ ","V020","290,1,N,0093,1","00600,1,C,N","011265,1,N,1","+0210,1","+0180,1","99999,9","04,5,+00390,1,99,9","07,5,+00600,1,99,9",,,"07,99,1,99,9,99,9,99999,9,99,9,99,9",,"10119,1,99999,9",,,,,,"MET117METAR LPSJ 111500Z 29018KT 9999 SCT013 BKN020 21/18 Q1012 RMK WIND RWY13 32013G23KT 270V010 RWY31 30015G26KT 260V350;",
"08509599999","2010-10-11T16:00:00","4","38.6655","-28.175817","94.79","SAO JORGE, PO","FM-15","LPSJ ","V020","290,1,N,0098,1","00510,1,C,N","011265,1,N,1","+0200,1","+0170,1","99999,9","04,5,+00390,1,99,9","07,5,+00510,1,99,9",,,"07,99,1,99,9,99,9,99999,9,99,9,99,9",,"10119,1,99999,9","16,1",,,,,"MET122METAR LPSJ 111600Z 29019KT 9999 VCSH SCT013 BKN017 20/17 Q1012 RMK WIND RWY13 31013G25KT 270V360 RWY31 30013G26KT 250V340;",
"08509599999","2010-10-11T17:00:00","4","38.6655","-28.175817","94.79","SAO JORGE, PO","FM-15","LPSJ ","V020","290,1,N,0103,1","00510,1,C,N","011265,1,N,1","+0200,1","+0170,1","99999,9","04,5,+00360,1,99,9","07,5,+00510,1,99,9",,,"07,99,1,99,9,99,9,99999,9,99,9,99,9",,"10119,1,99999,9",,,,,,"MET114METAR LPSJ 111700Z 29020KT 9999 SCT012 BKN017 20/17 Q1012 RMK WIND RWY13 32016KT 280V360 RWY31 30014G24KT 250V340;",
"08509599999","2010-10-11T18:00:00","4","38.6655","-28.175817","94.79","SAO JORGE, PO","FM-15","LPSJ ","V020","300,1,N,0093,1","00510,1,C,N","011265,1,N,1","+0190,1","+0170,1","99999,9","04,5,+00390,1,99,9","07,5,+00510,1,99,9",,,"07,99,1,99,9,99,9,99999,9,99,9,99,9",,"10129,1,99999,9",,,,,,"MET117METAR LPSJ 111800Z 30018KT 9999 SCT013 BKN017 19/17 Q1013 RMK WIND RWY13 32014G26KT 280V360 RWY31 30013G27KT 270V340;",
"08509599999","2010-10-12T09:00:00","4","38.6655","-28.175817","94.79","SAO JORGE, PO","FM-15","LPSJ ","V020","310,1,N,0077,1","99999,9,C,N","011265,1,N,1","+0170,1","+0130,1","99999,9","04,5,+00480,1,99,9","04,5,+00750,1,99,9",,,"04,99,1,99,9,99,9,99999,9,99,9,99,9",,"10159,1,99999,9",,,,,,"MET103METAR LPSJ 120900Z 31015KT 9999 SCT016 SCT025 17/13 Q1016 RMK WIND RWY13 33019KT 290V360 RWY31 32018KT;","P01 007503SCOCIG"
"08509599999","2010-10-12T10:00:00","4","38.6655","-28.175817","94.79","SAO JORGE, PO","FM-15","LPSJ ","V020","310,1,N,0072,1","99999,9,C,N","011265,1,N,1","+0180,1","+0140,1","99999,9","04,5,+00450,1,99,9","04,5,+00750,1,99,9",,,"04,99,1,99,9,99,9,99999,9,99,9,99,9",,"10169,1,99999,9","80,1",,,,,"MET120METAR LPSJ 121000Z 31014KT 9999 -SHRA SCT015 SCT025 18/14 Q1017 RMK WIND RWY13 32014KT 280V360 RWY31 31014G24KT 280V340;","P01 007503SCOCIG"
"08509599999","2010-10-12T11:00:00","4","38.6655","-28.175817","94.79","SAO JORGE, PO","FM-15","LPSJ ","V020","310,1,N,0082,1","22000,1,9,N","011265,1,N,1","+0170,1","+0150,1","99999,9","04,5,+00450,1,99,9",,,,"04,99,1,99,9,99,9,99999,9,99,9,99,9",,"10169,1,99999,9",,,,,,"MET096METAR LPSJ 121100Z 31016KT 9999 SCT015 17/15 Q1017 RMK WIND RWY13 33018KT 300V360 RWY31 32021KT;",
"08509599999","2010-10-12T12:00:00","4","38.6655","-28.175817","94.79","SAO JORGE, PO","FM-15","LPSJ ","V020","310,1,N,0087,1","22000,1,9,N","011265,1,N,1","+0170,1","+0160,1","99999,9","04,5,+00420,1,99,9",,,,"04,99,1,99,9,99,9,99999,9,99,9,99,9",,"10169,1,99999,9","16,1",,,,,"MET107METAR LPSJ 121200Z 31017KT 9999 VCSH SCT014 17/16 Q1017 RMK WIND RWY13 32012G22KT 290V350 RWY31 32012G26KT;",
"08509599999","2010-10-12T14:00:00","4","38.6655","-28.175817","94.79","SAO JORGE, PO","FM-15","LPSJ ","V020","320,1,N,0082,1","00420,1,C,N","011265,1,N,1","+0190,1","+0160,1","99999,9","07,5,+00420,1,99,9",,,,"07,99,1,99,9,99,9,99999,9,99,9,99,9",,"10159,1,99999,9","80,1",,,,,"MET108METAR LPSJ 121400Z 32016KT 9999 -SHRA BKN014 19/16 Q1016 RMK WIND RWY13 34016G26KT 290V360 RWY31 33015G27KT;",
"08509599999","2010-10-12T15:00:00","4","38.6655","-28.175817","94.79","SAO JORGE, PO","FM-15","LPSJ ","V020","330,1,N,0082,1","22000,1,9,N","011265,1,N,1","+0190,1","+0160,1","99999,9","04,5,+00420,1,99,9",,,,"04,99,1,99,9,99,9,99999,9,99,9,99,9",,"10159,1,99999,9",,,,,,"MET110METAR LPSJ 121500Z 33016KT 9999 SCT014 19/16 Q1016 RMK WIND RWY13 34020G32KT 300V020 RWY31 34018G28KT 310V020;",
"08509599999","2010-10-12T16:00:00","4","38.6655","-28.175817","94.79","SAO JORGE, PO","FM-15","LPSJ ","V020","330,1,N,0067,1","22000,1,9,N","011265,1,N,1","+0180,1","+0160,1","99999,9","04,5,+00420,1,99,9",,,,"04,99,1,99,9,99,9,99999,9,99,9,99,9",,"10159,1,99999,9",,,,,,"MET096METAR LPSJ 121600Z 33013KT 9999 SCT014 18/16 Q1016 RMK WIND RWY13 34017KT 300V020 RWY31 33021KT;",
"08509599999","2010-10-12T17:00:00","4","38.6655","-28.175817","94.79","SAO JORGE, PO","FM-15","LPSJ ","V020","320,1,N,0098,1","22000,1,9,N","011265,1,N,1","+0180,1","+0160,1","99999,9","04,5,+00420,1,99,9",,,,"04,99,1,99,9,99,9,99999,9,99,9,99,9",,"10159,1,99999,9",,,,,,"MET102METAR LPSJ 121700Z 32019KT 9999 SCT014 18/16 Q1016 RMK WIND RWY13 33014G24KT 300V360 RWY31 33018G29KT;",
"08509599999","2010-10-12T18:00:00","4","38.6655","-28.175817","94.79","SAO JORGE, PO","FM-15","LPSJ ","V020","320,1,N,0093,1","00510,1,C,N","006000,1,N,1","+0180,1","+0160,1","99999,9","04,5,+00420,1,99,9","07,5,+00510,1,99,9",,,"07,99,1,99,9,99,9,99999,9,99,9,99,9",,"10159,1,99999,9","80,1",,,,,"MET120METAR LPSJ 121800Z 32018KT 6000 -SHRA SCT014 BKN017 18/16 Q1016 RMK WIND RWY13 34018KT 300V360 RWY31 33016G26KT 290V350;",
"08509599999","2010-10-13T10:00:00","4","38.6655","-28.175817","94.79","SAO JORGE, PO","FM-15","LPSJ ","V020","320,1,N,0051,1","99999,9,C,N","011265,1,N,1","+0190,1","+0160,1","99999,9","04,5,+00420,1,99,9","04,5,+00750,1,99,9",,,"04,99,1,99,9,99,9,99999,9,99,9,99,9",,"10180,1,99999,9",,,,,,"MET117METAR LPSJ 131000Z 32010KT 9999 SCT014 SCT025 19/16 Q1018 RMK WIND RWY13 33012G22KT 270V020 RWY31 32007G19KT 240V010;","P01 007503SCOCIG"
"08509599999","2010-10-13T11:00:00","4","38.6655","-28.175817","94.79","SAO JORGE, PO","FM-15","LPSJ ","V020","020,1,N,0062,1","00450,1,C,N","011265,1,N,1","+0180,1","+0150,1","99999,9","07,5,+00450,1,99,9",,,,"07,99,1,99,9,99,9,99999,9,99,9,99,9",,"10180,1,99999,9",,,,,,"MET115METAR LPSJ 131100Z 02012KT 330V070 9999 BKN015 18/15 Q1018 RMK WIND RWY13 03013KT 320V170 RWY31 02010G22KT 330V090;",
"08509599999","2010-10-13T12:00:00","4","38.6655","-28.175817","94.79","SAO JORGE, PO","FM-15","LPSJ ","V020","040,1,N,0077,1","22000,1,9,N","011265,1,N,1","+0190,1","+0130,1","99999,9","04,5,+00480,1,99,9",,,,"04,99,1,99,9,99,9,99999,9,99,9,99,9",,"10180,1,99999,9",,,,"0129,1",,"MET121METAR LPSJ 131200Z 04015G25KT 350V080 9999 SCT016 19/13 Q1018 RMK WIND RWY13 06013G23KT 360V180 RWY31 05020G35KT 340V090;",
"08509599999","2010-10-13T13:00:00","4","38.6655","-28.175817","94.79","SAO JORGE, PO","FM-15","LPSJ ","V020","060,1,N,0067,1","22000,1,9,N","011265,1,N,1","+0190,1","+0140,1","99999,9","04,5,+00480,1,99,9",,,,"04,99,1,99,9,99,9,99999,9,99,9,99,9",,"10180,1,99999,9",,,,,,"MET118METAR LPSJ 131300Z 06013KT 330V110 9999 SCT016 19/14 Q1018 RMK WIND RWY13 09010G22KT 030V200 RWY31 06012G22KT 320V120;",
"08509599999","2010-10-13T14:00:00","4","38.6655","-28.175817","94.79","SAO JORGE, PO","FM-15","LPSJ ","V020","040,1,N,0062,1","22000,1,9,N","011265,1,N,1","+0190,1","+0120,1","99999,9","04,5,+00600,1,99,9",,,,"04,99,1,99,9,99,9,99999,9,99,9,99,9",,"10169,1,99999,9",,,,"0113,1",,"MET121METAR LPSJ 131400Z 04012G22KT 360V090 9999 SCT020 19/12 Q1017 RMK WIND RWY13 06018G29KT 360V120 RWY31 04028G38KT 350V070;",
"08509599999","2010-10-13T15:00:00","4","38.6655","-28.175817","94.79","SAO JORGE, PO","FM-15","LPSJ ","V020","080,1,N,0046,1","22000,1,9,N","011265,1,N,1","+0190,1","+0120,1","99999,9","02,5,+00600,1,99,9",,,,"02,99,1,99,9,99,9,99999,9,99,9,99,9","999,M,+9999,9","10169,1,99999,9",,,,"0108,1",,"MET121METAR LPSJ 131500Z 08009G21KT 360V150 9999 FEW020 19/12 Q1017 RMK WIND RWY13 10008G25KT 360V180 RWY31 07015G28KT 010V150;","Q01 +00082ATMX  "
"08509599999","2010-10-13T17:00:00","4","38.6655","-28.175817","94.79","SAO JORGE, PO","FM-15","LPSJ ","V020","080,1,N,0041,1","22000,1,9,N","011265,1,N,1","+0180,1","+0130,1","99999,9","04,5,+00540,1,99,9",,,,"04,99,1,99,9,99,9,99999,9,99,9,99,9",,"10169,1,99999,9",,,,"0093,1",,"MET121METAR LPSJ 131700Z 08008G18KT 050V150 9999 SCT018 18/13 Q1017 RMK WIND RWY13 09008G18KT 040V150 RWY31 08007G20KT 030V140;",
"08509599999","2010-10-13T18:00:00","4","38.6655","-28.175817","94.79","SAO JORGE, PO","FM-15","LPSJ ","V020","060,1,N,0041,1","22000,1,9,N","011265,1,N,1","+0180,1","+0130,1","99999,9","04,5,+00480,1,99,9",,,,"04,99,1,99,9,99,9,99999,9,99,9,99,9",,"10169,1,99999,9",,,,,,"MET118METAR LPSJ 131800Z 06008KT 010V090 9999 SCT016 18/13 Q1017 RMK WIND RWY13 09011G22KT 360V360 RWY31 06012G26KT 360V120;",
"08509599999","2010-10-14T09:00:00","4","38.6655","-28.175817","94.79","SAO JORGE, PO","FM-15","LPSJ ","V020","040,1,N,0046,1","99999,9,C,N","011265,1,N,1","+0180,1","+0150,1","99999,9","04,5,+00420,1,99,9","04,5,+00900,1,99,9",,,"04,99,1,99,9,99,9,99999,9,99,9,99,9",,"10159,1,99999,9",,,,,,"MET119METAR LPSJ 140900Z 04009KT 350V070 9999 SCT014 SCT030 18/15 Q1016 RMK WIND RWY13 05015KT 030V090 RWY31 04015KT 360V090;","P01 009003SCOCIG"
"08509599999","2010-10-14T11:00:00","4","38.6655","-28.175817","94.79","SAO JORGE, PO","FM-15","LPSJ ","V020","060,1,N,0062,1","99999,9,C,N","011265,1,N,1","+0190,1","+0140,1","99999,9","04,5,+00480,1,99,9","04,5,+00900,1,99,9",,,"04,99,1,99,9,99,9,99999,9,99,9,99,9",,"10159,1,99999,9",,,,,,"MET125METAR LPSJ 141100Z 06012KT 300V100 9999 SCT016 SCT030 19/14 Q1016 RMK WIND RWY13 08010G20KT 040V110 RWY31 07011G22KT 030V100;","P01 009003SCOCIG"
"08509599999","2010-10-14T12:00:00","4","38.6655","-28.175817","94.79","SAO JORGE, PO","FM-15","LPSJ ","V020","999,9,V,0026,1","22000,1,9,N","011265,1,N,1","+0190,1","+0150,1","99999,9","04,5,+00450,1,99,9",,,,"04,99,1,99,9,99,9,99999,9,99,9,99,9",,"10159,1,99999,9",,,,,,"MET088METAR LPSJ 141200Z VRB05KT 9999 SCT015 19/15 Q1016 RMK WIND RWY13 VRB03KT RWY31 VRB04KT;",
"08509599999","2010-10-14T13:00:00","4","38.6655","-28.175817","94.79","SAO JORGE, PO","FM-15","LPSJ ","V020","999,9,V,0026,1","22000,1,9,N","011265,1,N,1","+0200,1","+0150,1","99999,9","04,5,+00510,1,99,9",,,,"04,99,1,99,9,99,9,99999,9,99,9,99,9",,"10159,1,99999,9",,,,,,"MET088METAR LPSJ 141300Z VRB05KT 9999 SCT017 20/15 Q1016 RMK WIND RWY13 VRB04KT RWY31 VRB03KT;",
"08509599999","2010-10-14T14:00:00","4","38.6655","-28.175817","94.79","SAO JORGE, PO","FM-15","LPSJ ","V020","090,1,N,0021,1","22000,1,9,N","011265,1,N,1","+0210,1","+0150,1","99999,9","04,5,+00540,1,99,9",,,,"04,99,1,99,9,99,9,99999,9,99,9,99,9",,"10159,1,99999,9",,,,,,"MET088METAR LPSJ 141400Z 09004KT 9999 SCT018 21/15 Q1016 RMK WIND RWY13 09004KT RWY31 09008KT;",
"08509599999","2010-10-14T15:00:00","4","38.6655","-28.175817","94.79","SAO JORGE, PO","FM-15","LPSJ ","V020","080,1,N,0026,1","22000,1,9,N","011265,1,N,1","+0210,1","+0140,1","99999,9","04,5,+00540,1,99,9",,,,"04,99,1,99,9,99,9,99999,9,99,9,99,9","999,M,+9999,9","10159,1,99999,9",,,,,,"MET088METAR LPSJ 141500Z 08005KT 9999 SCT018 21/14 Q1016 RMK WIND RWY13 09006KT RWY31 10005KT;","Q01 +00052ATMX  "
"08509599999","2010-10-14T17:00:00","4","38.6655","-28.175817","94.79","SAO JORGE, PO","FM-15","LPSJ ","V020","100,1,N,0036,1","22000,1,9,N","011265,1,N,1","+0200,1","+0170,1","99999,9","04,5,+00480,1,99,9",,,,"04,99,1,99,9,99,9,99999,9,99,9,99,9","999,M,+9999,9","10159,1,99999,9",,,,,,"MET088METAR LPSJ 141700Z 10007KT 9999 SCT016 20/17 Q1016 RMK WIND RWY13 10008KT RWY31 10007KT;","Q01 +00072ATMX  "
"08509599999","2010-10-14T18:00:00","4","38.6655","-28.175817","94.79","SAO JORGE, PO","FM-15","LPSJ ","V020","999,9,V,0026,1","22000,1,9,N","011265,1,N,1","+0190,1","+0140,1","99999,9","04,5,+00480,1,99,9",,,,"04,99,1,99,9,99,9,99999,9,99,9,99,9",,"10159,1,99999,9",,,,,,"MET088METAR LPSJ 141800Z VRB05KT 9999 SCT016 19/14 Q1016 RMK WIND RWY13 VRB04KT RWY31 VRB03KT;",
"08509599999","2010-10-15T09:00:00","4","38.6655","-28.175817","94.79","SAO JORGE, PO","FM-15","LPSJ ","V020","070,1,N,0021,1","99999,9,C,N","011265,1,N,1","+0150,1","+0140,1","99999,9","02,5,+00540,1,99,9","04,5,+06000,1,99,9",,,"04,99,1,99,9,99,9,99999,9,99,9,99,9",,"10149,1,99999,9",,,,,,"MET095METAR LPSJ 150900Z 07004KT 9999 FEW018 SCT200 15/14 Q1015 RMK WIND RWY13 06004KT RWY31 06003KT;","P01 060003SCOCIG"
"08509599999","2010-10-15T10:00:00","4","38.6655","-28.175817","94.79","SAO JORGE, PO","FM-15","LPSJ ","V020","999,9,C,0000,1","99999,9,C,N","011265,1,N,1","+0160,1","+0150,1","99999,9","02,5,+00540,1,99,9","04,5,+06000,1,99,9",,,"04,99,1,99,9,99,9,99999,9,99,9,99,9",,"10149,1,99999,9",,,,,,"MET095METAR LPSJ 151000Z 00000KT 9999 FEW018 SCT200 16/15 Q1015 RMK WIND RWY13 00000KT RWY31 00000KT;","P01 060003SCOCIG"
"08509599999","2010-10-15T11:00:00","4","38.6655","-28.175817","94.79","SAO JORGE, PO","FM-15","LPSJ ","V020","999,9,C,0000,1","99999,9,C,N","011265,1,N,1","+0180,1","+0160,1","99999,9","02,5,+00540,1,99,9","04,5,+02100,1,99,9",,,"04,99,1,99,9,99,9,99999,9,99,9,99,9",,"10159,1,99999,9",,,,,,"MET095METAR LPSJ 151100Z 00000KT 9999 FEW018 SCT070 18/16 Q1016 RMK WIND RWY13 00000KT RWY31 00000KT;","P01 021003SCOCIG"
"08509599999","2010-10-15T12:00:00","4","38.6655","-28.175817","94.79","SAO JORGE, PO","FM-15","LPSJ ","V020","999,9,V,0026,1","99999,9,C,N","011265,1,N,1","+0190,1","+0160,1","99999,9","02,5,+00540,1,99,9","04,5,+02100,1,99,9",,,"04,99,1,99,9,99,9,99999,9,99,9,99,9",,"10159,1,99999,9",,,,,,"MET095METAR LPSJ 151200Z VRB05KT 9999 FEW018 SCT070 19/16 Q1016 RMK WIND RWY13 VRB04KT RWY31 VRB03KT;","P01 021003SCOCIG"
"08509599999","2010-10-15T14:00:00","4","38.6655","-28.175817","94.79","SAO JORGE, PO","FM-15","LPSJ ","V020","999,9,V,0026,1","22000,1,9,N","011265,1,N,1","+0210,1","+0160,1","99999,9","04,5,+00540,1,99,9",,,,"04,99,1,99,9,99,9,99999,9,99,9,99,9",,"10149,1,99999,9",,,,,,"MET088METAR LPSJ 151400Z VRB05KT 9999 SCT018 21/16 Q1015 RMK WIND RWY13 VRB04KT RWY31 VRB04KT;",
"08509599999","2010-10-15T15:00:00","4","38.6655","-28.175817","94.79","SAO JORGE, PO","FM-15","LPSJ ","V020","130,1,N,0057,1","99999,9,C,N","011265,1,N,1","+0210,1","+0180,1","99999,9","02,5,+00420,1,99,9","04,5,+02100,1,99,9",,,"04,99,1,99,9,99,9,99999,9,99,9,99,9",,"10149,1,99999,9",,,,,,"MET111METAR LPSJ 151500Z 13011KT 9999 FEW014 SCT070 21/18 Q1015 RMK WIND RWY13 15005KT 120V190 RWY31 15004KT 120V190;","P01 021003SCOCIG"
"08509599999","2010-10-15T16:00:00","4","38.6655","-28.175817","94.79","SAO JORGE, PO","FM-15","LPSJ ","V020","140,1,N,0051,1","22000,1,9,N","011265,1,N,1","+0210,1","+0170,1","99999,9","04,5,+00480,1,99,9",,,,"04,99,1,99,9,99,9,99999,9,99,9,99,9",,"10149,1,99999,9",,,,,,"MET104METAR LPSJ 151600Z 14010KT 9999 SCT016 21/17 Q1015 RMK WIND RWY13 16007KT 130V200 RWY31 15007KT 130V190;",
"08509599999","2010-10-15T17:00:00","4","38.6655","-28.175817","94.79","SAO JORGE, PO","FM-15","LPSJ ","V020","140,1,N,0057,1","99999,9,C,N","011265,1,N,1","+0210,1","+0170,1","99999,9","02,5,+00480,1,99,9","04,5,+01050,1,99,9",,,"04,99,1,99,9,99,9,99999,9,99,9,99,9",,"10139,1,99999,9",,,,,,"MET111METAR LPSJ 151700Z 14011KT 9999 FEW016 SCT035 21/17 Q1014 RMK WIND RWY13 16006KT 130V200 RWY31 15005KT 120V190;","P01 010503SCOCIG"
"08509599999","2010-10-15T18:00:00","4","38.6655","-28.175817","94.79","SAO JORGE, PO","FM-15","LPSJ ","V020","140,1,N,0046,1","99999,9,C,N","011265,1,N,1","+0200,1","+0180,1","99999,9","02,5,+00480,1,99,9","04,5,+00900,1,99,9",,,"04,99,1,99,9,99,9,99999,9,99,9,99,9",,"10139,1,99999,9","80,1",,,,,"MET109METAR LPSJ 151800Z 14009KT 9999 -SHRA FEW016 SCT030 20/18 Q1014 RMK WIND RWY13 16006KT 130V200 RWY31 15004KT;","P01 009003SCOCIG"
"08509599999","2010-10-16T10:00:00","4","38.6655","-28.175817","94.79","SAO JORGE, PO","FM-15","LPSJ ","V020","100,1,N,0077,1","01050,1,C,N","011265,1,N,1","+0190,1","+0130,1","99999,9","04,5,+00450,1,99,9","07,5,+01050,1,99,9",,,"07,99,1,99,9,99,9,99999,9,99,9,99,9","999,M,+9999,9","10169,1,99999,9","80,1",,,,,"MET131METAR LPSJ 161000Z 10015KT 040V130 9999 -SHRA SCT015 BKN035 19/13 Q1017 RMK WIND RWY13 12014G25KT 070V170 RWY31 10016G32KT 050V150;","Q01 +00162ATMX  "
"08509599999","2010-10-16T11:00:00","4","38.6655","-28.175817","94.79","SAO JORGE, PO","FM-15","LPSJ ","V020","060,1,N,0082,1","01050,1,C,N","011265,1,N,1","+0190,1","+0140,1","99999,9","04,5,+00420,1,99,9","07,5,+01050,1,99,9",,,"07,99,1,99,9,99,9,99999,9,99,9,99,9",,"10169,1,99999,9",,,,,,"MET115METAR LPSJ 161100Z 06016KT 9999 SCT014 BKN035 19/14 Q1017 RMK WIND RWY13 08015G25KT 040V130 RWY31 06021G31 020V100;",
"08509599999","2010-10-16T14:00:00","4","38.6655","-28.175817","94.79","SAO JORGE, PO","FM-15","LPSJ ","V020","110,1,N,0082,1","00900,1,C,N","011265,1,N,1","+0190,1","+0150,1","99999,9","04,5,+00450,1,99,9","07,5,+00900,1,99,9",,,"07,99,1,99,9,99,9,99999,9,99,9,99,9","999,M,+9999,9","10159,1,99999,9",,,,,,"MET125METAR LPSJ 161400Z 11016KT 060V150 9999 SCT015 BKN030 19/15 Q1016 RMK WIND RWY13 13011G21KT 090V180 RWY31 11015G24KT 060V150;","Q01 -00152ATMX  "
"08509599999","2010-10-16T15:00:00","4","38.6655","-28.175817","94.79","SAO JORGE, PO","FM-15","LPSJ ","V020","090,1,N,0062,1","00900,1,C,N","011265,1,N,1","+0180,1","+0150,1","99999,9","04,5,+00450,1,99,9","07,5,+00900,1,99,9",,,"07,99,1,99,9,99,9,99999,9,99,9,99,9","999,M,+9999,9","10159,1,99999,9","51,1",,,"0113,1",,"MET132METAR LPSJ 161500Z 09012G22KT 030V140 9999 -DZ SCT015 BKN030 18/15 Q1016 RMK WIND RWY13 11012G25KT 040V150 RWY31 09015G28KT 030V140;","Q01 -00122ATMX  "
"08509599999","2010-10-16T16:00:00","4","38.6655","-28.175817","94.79","SAO JORGE, PO","FM-15","LPSJ ","V020","140,1,N,0046,1","99999,9,C,N","011265,1,N,1","+0190,1","+0150,1","99999,9","04,5,+00450,1,99,9","04,5,+00900,1,99,9",,,"04,99,1,99,9,99,9,99999,9,99,9,99,9",,"10159,1,99999,9",,,,,,"MET111METAR LPSJ 161600Z 14009KT 9999 SCT015 SCT030 19/15 Q1016 RMK WIND 16004G14KT 120V200 RWY31 15005G18KT 110V200;","P01 009003SCOCIG"
"08509599999","2010-10-16T18:00:00","4","38.6655","-28.175817","94.79","SAO JORGE, PO","FM-15","LPSJ ","V020","999,9,V,0031,1","00750,1,C,N","011265,1,N,1","+0170,1","+0160,1","99999,9","04,5,+00450,1,99,9","07,5,+00750,1,99,9",,,"07,99,1,99,9,99,9,99999,9,99,9,99,9",,"10169,1,99999,9",,,,,,"MET095METAR LPSJ 161800Z VRB06KT 9999 SCT015 BKN025 17/16 Q1017 RMK WIND RWY13 VRB05KT RWY31 VRB07KT;",
"08509599999","2010-10-17T10:00:00","4","38.6655","-28.175817","94.79","SAO JORGE, PO","FM-15","LPSJ ","V020","100,1,N,0062,1","99999,9,C,N","011265,1,N,1","+0190,1","+0130,1","99999,9","04,5,+00480,1,99,9","04,5,+00750,1,99,9",,,"04,99,1,99,9,99,9,99999,9,99,9,99,9","999,M,+9999,9","10190,1,99999,9",,,,,,"MET095METAR LPSJ 171000Z 10012KT 9999 SCT016 SCT025 19/13 Q1019 RMK WIND RWY13 11016KT RWY31 10015KT;","Q01 +00152ATMX  P01 007503SCOCIG"
"08509599999","2010-10-17T11:00:00","4","38.6655","-28.175817","94.79","SAO JORGE, PO","FM-15","LPSJ ","V020","090,1,N,0067,1","99999,9,C,N","011265,1,N,1","+0190,1","+0130,1","99999,9","04,5,+00480,1,99,9","04,5,+00900,1,99,9",,,"04,99,1,99,9,99,9,99999,9,99,9,99,9","999,M,+9999,9","10190,1,99999,9",,,,,,"MET100METAR LPSJ 171100Z 09013KT 9999 SCT016 SCT030 19/13 Q1019 RMK WIND RWY13 1112G22KT RWY31 10014G26KT;","Q01 +00142ATMX  P01 009003SCOCIG"
"08509599999","2010-10-17T12:00:00","4","38.6655","-28.175817","94.79","SAO JORGE, PO","FM-15","LPSJ ","V020","090,1,N,0082,1","99999,9,C,N","011265,1,N,1","+0190,1","+0130,1","99999,9","04,5,+00510,1,99,9","04,5,+00960,1,99,9",,,"04,99,1,99,9,99,9,99999,9,99,9,99,9","999,M,+9999,9","10190,1,99999,9",,,,,,"MET101METAR LPSJ 171200Z 09016KT 9999 SCT017 SCT032 19/13 Q1019 RMK WIND RWY13 11014G24KT RWY31 10015G26KT;","Q01 +00152ATMX  P01 009603SCOCIG"
"08509599999","2010-10-17T13:00:00","4","38.6655","-28.175817","94.79","SAO JORGE, PO","FM-15","LPSJ ","V020","110,1,N,0072,1","22000,1,9,N","011265,1,N,1","+0200,1","+0130,1","99999,9","04,5,+00600,1,99,9",,,,"04,99,1,99,9,99,9,99999,9,99,9,99,9",,"10169,1,99999,9",,,,,,"MET110METAR LPSJ 171300Z 11014KT 9999 SCT020 20/13 Q1017 RMK WIND RWY13 13015G25KT 100V160 RWY31 12014G17KT 080V150;",
"08509599999","2010-10-17T14:00:00","4","38.6655","-28.175817","94.79","SAO JORGE, PO","FM-15","LPSJ ","V020","120,1,N,0067,1","99999,9,C,N","011265,1,N,1","+0200,1","+0130,1","99999,9","04,5,+00540,1,99,9","04,5,+02100,1,99,9",,,"04,99,1,99,9,99,9,99999,9,99,9,99,9",,"10190,1,99999,9",,,,,,"MET117METAR LPSJ 171400Z 12013KT 9999 SCT018 SCT070 20/13 Q1019 RMK WIND RWY13 13012G22KT 110V170 RWY31 13008G22KT 100V170;","P01 021003SCOCIG"
"08509599999","2010-10-17T15:00:00","4","38.6655","-28.175817","94.79","SAO JORGE, PO","FM-15","LPSJ ","V020","110,1,N,0077,1","22000,1,9,N","011265,1,N,1","+0200,1","+0130,1","99999,9","04,5,+00510,1,99,9",,,,"04,99,1,99,9,99,9,99999,9,99,9,99,9",,"10180,1,99999,9",,,,,,"MET110METAR LPSJ 171500Z 11015KT 9999 SCT017 20/13 Q1018 RMK WIND RWY13 13013G25KT 100V160 RWY31 12016G27KT 090V150;",
"08509599999","2010-10-17T17:00:00","4","38.6655","-28.175817","94.79","SAO JORGE, PO","FM-15","LPSJ ","V020","090,1,N,0087,1","22000,1,9,N","011265,1,N,1","+0200,1","+0130,1","99999,9","04,5,+00510,1,99,9",,,,"04,99,1,99,9,99,9,99999,9,99,9,99,9","999,M,+9999,9","10180,1,99999,9",,,,,,"MET091METAR LPSJ 171700Z 09017KT 9999 SCT017 20/13 Q1018 RMK WIND RWY13 11023KT RWY31 10020G30KT;","Q01 +00202ATMX  "
"08509599999","2010-10-17T18:00:00","4","38.6655","-28.175817","94.79","SAO JORGE, PO","FM-15","LPSJ ","V020","110,1,N,0082,1","22000,1,9,N","011265,1,N,1","+0200,1","+0130,1","99999,9","04,5,+00480,1,99,9",,,,"04,99,1,99,9,99,9,99999,9,99,9,99,9",,"10180,1,99999,9",,,,,,"MET110METAR LPSJ 171800Z 11016KT 9999 SCT016 20/13 Q1018 RMK WIND RWY13 13012G22KT 090V170 RWY31 13014G24KT 090V150;",
"08509599999","2010-10-18T10:00:00","4","38.6655","-28.175817","94.79","SAO JORGE, PO","FM-15","LPSJ ","V020","070,1,N,0082,1","22000,1,9,N","011265,1,N,1","+0190,1","+0140,1","99999,9","04,5,+00420,1,99,9",,,,"04,99,1,99,9,99,9,99999,9,99,9,99,9",,"10159,1,99999,9",,,,,,"MET118METAR LPSJ 181000Z 07016KT 040V100 9999 SCT014 19/14 Q1016 RMK WIND RWY13 08014G24KT 050V110 RWY31 07019G30KT 040V100;",
"08509599999","2010-10-18T14:00:00","4","38.6655","-28.175817","94.79","SAO JORGE, PO","FM-15","LPSJ ","V020","070,1,N,0082,1","99999,9,C,N","011265,1,N,1","+0190,1","+0150,1","99999,9","04,5,+00420,1,99,9","04,5,+00750,1,99,9",,,"04,99,1,99,9,99,9,99999,9,99,9,99,9",,"10149,1,99999,9","16,1",,,,,"MET130METAR LPSJ 181400Z 07016KT 030V090 9999 VCSH SCT014 SCT025 19/15 Q1015 RMK WIND RWY13 09015G25KT 060V120 RWY31 07018G28KT 050V110;","P01 007503SCOCIG"
"08509599999","2010-10-18T15:00:00","4","38.6655","-28.175817","94.79","SAO JORGE, PO","FM-15","LPSJ ","V020","070,1,N,0093,1","99999,9,C,N","011265,1,N,1","+0190,1","+0160,1","99999,9","04,5,+00420,1,99,9","04,5,+00750,1,99,9",,,"04,99,1,99,9,99,9,99999,9,99,9,99,9",,"10149,1,99999,9",,,,,,"MET117METAR LPSJ 181500Z 07018KT 040V100 9999 SCT014 SCT025 19/16 Q1015 RMK WIND RWY13 09020G30KT 050V120 RWY31 07022G33KT;","P01 007503SCOCIG"
"08509599999","2010-10-19T10:00:00","4","38.6655","-28.175817","94.79","SAO JORGE, PO","FM-15","LPSJ ","V020","020,1,N,0082,1","22000,1,9,N","011265,1,N,1","+0180,1","+0160,1","99999,9","04,5,+00390,1,99,9",,,,"04,99,1,99,9,99,9,99999,9,99,9,99,9",,"10139,1,99999,9",,,,,,"MET091METAR LPSJ 191000Z 02016KT 9999 SCT013 18/16 Q1014 RMK WIND RWY13 03016G26KT RWY31 02023KT;",
"08509599999","2010-10-19T11:00:00","4","38.6655","-28.175817","94.79","SAO JORGE, PO","FM-15","LPSJ ","V020","020,1,N,0067,1","22000,1,9,N","011265,1,N,1","+0180,1","+0160,1","99999,9","04,5,+00390,1,99,9",,,,"04,99,1,99,9,99,9,99999,9,99,9,99,9",,"10139,1,99999,9",,,,,,"MET088METAR LPSJ 191100Z 02013KT 9999 SCT013 18/16 Q1014 RMK WIND RWY13 03015KT RWY31 03016KT;",
"08509599999","2010-10-19T12:00:00","4","38.6655","-28.175817","94.79","SAO JORGE, PO","FM-15","LPSJ ","V020","999,9,V,0031,1","22000,1,9,N","011265,1,N,1","+0190,1","+0160,1","99999,9","04,5,+00420,1,99,9",,,,"04,99,1,99,9,99,9,99999,9,99,9,99,9",,"10139,1,99999,9",,,,,,"MET088METAR LPSJ 191200Z VRB06KT 9999 SCT014 19/16 Q1014 RMK WIND RWY13 VRB07KT RWY31 VRB06KT;",
"08509599999","2010-10-19T13:00:00","4","38.6655","-28.175817","94.79","SAO JORGE, PO","FM-15","LPSJ ","V020","260,1,N,0041,1","99999,9,C,N","011265,1,N,1","+0180,1","+0170,1","99999,9","04,5,+00360,1,99,9","04,5,+00600,1,99,9",,,"04,99,1,99,9,99,9,99999,9,99,9,99,9",,"10139,1,99999,9","80,1",,,,,"MET101METAR LPSJ 191300Z 26008KT 9999 -SHRA SCT012 SCT020 18/17 Q1014 RMK WIND RWY13 27006KT RWY31 26008KT;","P01 006003SCOCIG"
"08509599999","2010-10-19T14:00:00","4","38.6655","-28.175817","94.79","SAO JORGE, PO","FM-15","LPSJ ","V020","999,9,V,0026,1","99999,9,C,N","011265,1,N,1","+0190,1","+0160,1","99999,9","04,5,+00420,1,99,9","04,5,+00600,1,99,9",,,"04,99,1,99,9,99,9,99999,9,99,9,99,9",,"10139,1,99999,9",,,,,,"MET095METAR LPSJ 191400Z VRB05KT 9999 SCT014 SCT020 19/16 Q1014 RMK WIND RWY13 VRB05KT RWY31 VRB04KT;","P01 006003SCOCIG"
"08509599999","2010-10-19T15:00:00","4","38.6655","-28.175817","94.79","SAO JORGE, PO","FM-15","LPSJ ","V020","999,9,V,0026,1","00420,1,C,N","011265,1,N,1","+0200,1","+0170,1","99999,9","07,5,+00420,1,99,9",,,,"07,99,1,99,9,99,9,99999,9,99,9,99,9",,"10129,1,99999,9",,,,,,"MET088METAR LPSJ 191500Z VRB05KT 9999 BKN014 20/17 Q1013 RMK WIND RWY13 VRB04KT RWY31 VRB03KT;",
"08509599999","2010-10-19T16:00:00","4","38.6655","-28.175817","94.79","SAO JORGE, PO","FM-15","LPSJ ","V020","280,1,N,0046,1","99999,9,C,N","011265,1,N,1","+0190,1","+0170,1","99999,9","04,5,+00420,1,99,9","04,5,+00600,1,99,9",,,"04,99,1,99,9,99,9,99999,9,99,9,99,9",,"10129,1,99999,9",,,,,,"MET095METAR LPSJ 191600Z 28009KT 9999 SCT014 SCT020 19/17 Q1013 RMK WIND RWY13 29008KT RWY31 29007KT;","P01 006003SCOCIG"
"08509599999","2010-10-19T17:00:00","4","38.6655","-28.175817","94.79","SAO JORGE, PO","FM-15","LPSJ ","V020","280,1,N,0062,1","00450,1,C,N","011265,1,N,1","+0190,1","+0160,1","99999,9","07,5,+00450,1,99,9",,,,"07,99,1,99,9,99,9,99999,9,99,9,99,9",,"10129,1,99999,9",,,,,,"MET088METAR LPSJ 191700Z 28012KT 9999 BKN015 19/16 Q1013 RMK WIND RWY13 29006KT RWY31 28008KT;",
"08509599999","2010-10-20T09:00:00","4","38.6655","-28.175817","94.79","SAO JORGE, PO","FM-15","LPSJ ","V020","999,9,V,0015,1","99999,9,C,N","006000,1,N,1","+0180,1","+0160,1","99999,9","04,5,+00420,1,99,9","04,5,+00660,1,99,9",,,"04,99,1,99,9,99,9,99999,9,99,9,99,9",,"10159,1,99999,9","80,1",,,,,"MET101METAR LPSJ 200900Z VRB03KT 6000 -SHRA SCT014 SCT022 18/16 Q1016 RMK WIND RWY13 VRB02KT RWY31 VRB04KT;","P01 006603SCOCIG"
"08509599999","2010-10-20T10:00:00","4","38.6655","-28.175817","94.79","SAO JORGE, PO","FM-15","LPSJ ","V020","999,9,V,0031,1","99999,9,C,N","011265,1,N,1","+0190,1","+0160,1","99999,9","02,5,+00360,1,99,9","04,5,+00480,1,99,9",,,"04,99,1,99,9,99,9,99999,9,99,9,99,9",,"10169,1,99999,9",,,,,,"MET095METAR LPSJ 201000Z VRB06KT 9999 FEW012 SCT016 19/16 Q1017 RMK WIND RWY13 VRB05KT RWY31 VRB06KT;","P01 004803SCOCIG"
"08509599999","2010-10-20T11:00:00","4","38.6655","-28.175817","94.79","SAO JORGE, PO","FM-15","LPSJ ","V020","070,1,N,0026,1","99999,9,C,N","011265,1,N,1","+0190,1","+0160,1","99999,9","02,5,+00360,1,99,9","04,5,+00480,1,99,9",,,"04,99,1,99,9,99,9,99999,9,99,9,99,9",,"10169,1,99999,9",,,,"0077,1",,"MET117METAR LPSJ 201100Z 07005G15KT 360V120 9999 FEW012 SCT016 19/16 Q1017 RMK WIND RWY13 VRB05KT RWY31 06010G22KT 360V120;","P01 004803SCOCIG"
"08509599999","2010-10-20T12:00:00","4","38.6655","-28.175817","94.79","SAO JORGE, PO","FM-15","LPSJ ","V020","070,1,N,0036,1","99999,9,C,N","011265,1,N,1","+0190,1","+0160,1","99999,9","02,5,+00420,1,99,9","04,5,+00510,1,99,9",,,"04,99,1,99,9,99,9,99999,9,99,9,99,9",,"10180,1,99999,9",,,,,,"MET114METAR LPSJ 201200Z 07007KT 030V110 9999 FEW014 SCT017 19/16 Q1018 RMK WIND RWY13 VRB07KT RWY31 07007G20KT 030V110;","P01 005103SCOCIG"
"08509599999","2010-10-20T13:00:00","4","38.6655","-28.175817","94.79","SAO JORGE, PO","FM-15","LPSJ ","V020","999,9,V,0026,1","99999,9,C,N","011265,1,N,1","+0200,1","+0160,1","99999,9","04,5,+00420,1,99,9","04,5,+00600,1,99,9",,,"04,99,1,99,9,99,9,99999,9,99,9,99,9",,"10180,1,99999,9",,,,,,"MET095METAR LPSJ 201300Z VRB05KT 9999 SCT014 SCT020 20/16 Q1018 RMK WIND RWY13 VRB07KT RWY31 VRB04KT;","P01 006003SCOCIG"
"08509599999","2010-10-20T14:00:00","4","38.6655","-28.175817","94.79","SAO JORGE, PO","FM-15","LPSJ ","V020","999,9,V,0026,1","22000,1,9,N","011265,1,N,1","+0200,1","+0160,1","99999,9","04,5,+00450,1,99,9",,,,"04,99,1,99,9,99,9,99999,9,99,9,99,9",,"10180,1,99999,9",,,,,,"MET088METAR LPSJ 201400Z VRB05KT 9999 SCT015 20/16 Q1018 RMK WIND RWY13 VRB07KT RWY31 VRB08KT;",
"08509599999","2010-10-20T15:00:00","4","38.6655","-28.175817","94.79","SAO JORGE, PO","FM-15","LPSJ ","V020","999,9,V,0036,1","00450,1,C,N","011265,1,N,1","+0200,1","+0160,1","99999,9","07,5,+00450,1,99,9",,,,"07,99,1,99,9,99,9,99999,9,99,9,99,9",,"10180,1,99999,9",,,,,,"MET088METAR LPSJ 201500Z VRB07KT 9999 BKN015 20/16 Q1018 RMK WIND RWY13 VRB05KT RWY31 VRB04KT;",
"08509599999","2010-10-20T16:00:00","4","38.6655","-28.175817","94.79","SAO JORGE, PO","FM-15","LPSJ ","V020","999,9,V,0031,1","22000,1,9,N","011265,1,N,1","+0190,1","+0150,1","99999,9","04,5,+00480,1,99,9",,,,"04,99,1,99,9,99,9,99999,9,99,9,99,9",,"10180,1,99999,9",,,,,,"MET088METAR LPSJ 201600Z VRB06KT 9999 SCT016 19/15 Q1018 RMK WIND RWY13 VRB07KT RWY31 VRB05KT;",
"08509599999","2010-10-20T17:00:00","4","38.6655","-28.175817","94.79","SAO JORGE, PO","FM-15","LPSJ ","V020","999,9,V,0026,1","22000,1,9,N","011265,1,N,1","+0190,1","+0160,1","99999,9","04,5,+00480,1,99,9",,,,"04,99,1,99,9,99,9,99999,9,99,9,99,9",,"10180,1,99999,9",,,,,,"MET088METAR LPSJ 201700Z VRB05KT 9999 SCT016 19/16 Q1018 RMK WIND RWY13 VRB04KT RWY31 VRB05KT;",
"08509599999","2010-10-20T18:00:00","4","38.6655","-28.175817","94.79","SAO JORGE, PO","FM-15","LPSJ ","V020","999,9,V,0026,1","22000,1,9,N","011265,1,N,1","+0190,1","+0150,1","99999,9","04,5,+00480,1,99,9",,,,"04,99,1,99,9,99,9,99999,9,99,9,99,9",,"10180,1,99999,9",,,,,,"MET088METAR LPSJ 201800Z VRB05KT 9999 SCT016 19/15 Q1018 RMK WIND RWY13 VRB04KT RWY31 VRB05KT;",
"08509599999","2010-10-21T09:00:00","4","38.6655","-28.175817","94.79","SAO JORGE, PO","FM-15","LPSJ ","V020","999,9,V,0036,1","00480,1,C,N","011265,1,N,1","+0170,1","+0130,1","99999,9","07,5,+00480,1,99,9",,,,"07,99,1,99,9,99,9,99999,9,99,9,99,9",,"10230,1,99999,9",,,,,,"MET088METAR LPSJ 210900Z VRB07KT 9999 BKN016 17/13 Q1023 RMK WIND RWY13 VRB05KT RWY31 VRB09KT;",
"08509599999","2010-10-21T10:00:00","4","38.6655","-28.175817","94.79","SAO JORGE, PO","FM-15","LPSJ ","V020","999,9,V,0026,1","00480,1,C,N","011265,1,N,1","+0170,1","+0130,1","99999,9","07,5,+00480,1,99,9",,,,"07,99,1,99,9,99,9,99999,9,99,9,99,9",,"10240,1,99999,9",,,,,,"MET088METAR LPSJ 211000Z VRB05KT 9999 BKN016 17/13 Q1024 RMK WIND RWY13 VRB04KT RWY31 VRB05KT;",
"08509599999","2010-10-21T11:00:00","4","38.6655","-28.175817","94.79","SAO JORGE, PO","FM-15","LPSJ ","V020","999,9,V,0036,1","22000,1,9,N","011265,1,N,1","+0180,1","+0130,1","99999,9","04,5,+00480,1,99,9",,,,"04,99,1,99,9,99,9,99999,9,99,9,99,9",,"10251,1,99999,9",,,,,,"MET088METAR LPSJ 211100Z VRB07KT 9999 SCT016 18/13 Q1025 RMK WIND RWY13 VRB08KT RWY31 VRB11KT;",
"08509599999","2010-10-21T12:00:00","4","38.6655","-28.175817","94.79","SAO JORGE, PO","FM-15","LPSJ ","V020","999,9,V,0031,1","22000,1,9,N","011265,1,N,1","+0180,1","+0140,1","99999,9","04,5,+00540,1,99,9",,,,"04,99,1,99,9,99,9,99999,9,99,9,99,9",,"10251,1,99999,9",,,,,,"MET088METAR LPSJ 211200Z VRB06KT 9999 SCT018 18/14 Q1025 RMK WIND RWY13 VRB04KT RWY31 VRB07KT;",
"08509599999","2010-10-21T13:00:00","4","38.6655","-28.175817","94.79","SAO JORGE, PO","FM-15","LPSJ ","V020","999,9,V,0026,1","22000,1,9,N","011265,1,N,1","+0190,1","+0140,1","99999,9","04,5,+00540,1,99,9",,,,"04,99,1,99,9,99,9,99999,9,99,9,99,9",,"10251,1,99999,9",,,,,,"MET088METAR LPSJ 211300Z VRB05KT 9999 SCT018 19/14 Q1025 RMK WIND RWY13 VRB04KT RWY31 VRB08KT;",
"08509599999","2010-10-21T14:00:00","4","38.6655","-28.175817","94.79","SAO JORGE, PO","FM-15","LPSJ ","V020","999,9,V,0031,1","22000,1,9,N","011265,1,N,1","+0190,1","+0140,1","99999,9","04,5,+00540,1,99,9",,,,"04,99,1,99,9,99,9,99999,9,99,9,99,9",,"10240,1,99999,9",,,,,,"MET096METAR LPSJ 211400Z VRB06KT 9999 SCT018 19/14 Q1024 RMK WIND RWY13 VRB06KT RWY31 04009KT 350V090;",
"08509599999","2010-10-21T15:00:00","4","38.6655","-28.175817","94.79","SAO JORGE, PO","FM-15","LPSJ ","V020","999,9,V,0026,1","22000,1,9,N","011265,1,N,1","+0200,1","+0140,1","99999,9","04,5,+00510,1,99,9",,,,"04,99,1,99,9,99,9,99999,9,99,9,99,9",,"10240,1,99999,9",,,,,,"MET088METAR LPSJ 211500Z VRB05KT 9999 SCT017 20/14 Q1024 RMK WIND RWY13 VRB07KT RWY31 VRB05KT;",
"08509599999","2010-10-21T16:00:00","4","38.6655","-28.175817","94.79","SAO JORGE, PO","FM-15","LPSJ ","V020","999,9,V,0041,1","99999,9,C,N","011265,1,N,1","+0190,1","+0140,1","99999,9","02,5,+00480,1,99,9","04,5,+00750,1,99,9",,,"04,99,1,99,9,99,9,99999,9,99,9,99,9",,"10240,1,99999,9",,,,,,"MET095METAR LPSJ 211600Z VRB08KT 9999 FEW016 SCT025 19/14 Q1024 RMK WIND RWY13 VRB05KT RWY31 VRB04KT;","P01 007503SCOCIG"
"08509599999","2010-10-21T17:00:00","4","38.6655","-28.175817","94.79","SAO JORGE, PO","FM-15","LPSJ ","V020","999,9,V,0036,1","22000,1,9,N","011265,1,N,1","+0180,1","+0130,1","99999,9","04,5,+00450,1,99,9",,,,"04,99,1,99,9,99,9,99999,9,99,9,99,9",,"10240,1,99999,9",,,,,,"MET088METAR LPSJ 211700Z VRB07KT 9999 SCT015 18/13 Q1024 RMK WIND RWY13 VRB05KT RWY31 VRB08KT;",
"08509599999","2010-10-21T18:00:00","4","38.6655","-28.175817","94.79","SAO JORGE, PO","FM-15","LPSJ ","V020","999,9,V,0026,1","99999,9,C,N","011265,1,N,1","+0190,1","+0140,1","99999,9","04,5,+00450,1,99,9","04,5,+00750,1,99,9",,,"04,99,1,99,9,99,9,99999,9,99,9,99,9",,"10240,1,99999,9",,,,,,"MET095METAR LPSJ 211800Z VRB05KT 9999 SCT015 SCT025 19/14 Q1024 RMK WIND RWY13 VRB09KT RWY31 VRB06KT;","P01 007503SCOCIG"
"08509599999","2010-10-22T10:00:00","4","38.6655","-28.175817","94.79","SAO JORGE, PO","FM-15","LPSJ ","V020","999,9,V,0026,1","22000,1,9,N","011265,1,N,1","+0170,1","+0130,1","99999,9","04,5,+00510,1,99,9",,,,"04,99,1,99,9,99,9,99999,9,99,9,99,9",,"10281,1,99999,9",,,,,,"MET088METAR LPSJ 221000Z VRB05KT 9999 SCT017 17/13 Q1028 RMK WIND RWY13 VRB07KT RWY31 VRB04KT;",
"08509599999","2010-10-22T11:00:00","4","38.6655","-28.175817","94.79","SAO JORGE, PO","FM-15","LPSJ ","V020","999,9,V,0015,1","22000,1,9,N","011265,1,N,1","+0180,1","+0130,1","99999,9","04,5,+00540,1,99,9",,,,"04,99,1,99,9,99,9,99999,9,99,9,99,9",,"10281,1,99999,9",,,,,,"MET088METAR LPSJ 221100Z VRB03KT 9999 SCT018 18/13 Q1028 RMK WIND RWY13 VRB03KT RWY31 VRB02KT;",
"08509599999","2010-10-22T13:00:00","4","38.6655","-28.175817","94.79","SAO JORGE, PO","FM-15","LPSJ ","V020","999,9,V,0021,1","22000,1,9,N","011265,1,N,1","+0200,1","+0120,1","99999,9","02,5,+00660,1,99,9",,,,"02,99,1,99,9,99,9,99999,9,99,9,99,9",,"10281,1,99999,9",,,,,,"MET088METAR LPSJ 221300Z VRB04KT 9999 FEW022 20/12 Q1028 RMK WIND RWY13 VRB05KT RWY31 VRB08KT;",
"08509599999","2010-10-22T14:00:00","4","38.6655","-28.175817","94.79","SAO JORGE, PO","FM-15","LPSJ ","V020","170,1,N,0031,1","22000,1,9,N","011265,1,N,1","+0200,1","+0120,1","99999,9","02,5,+00900,1,99,9",,,,"02,99,1,99,9,99,9,99999,9,99,9,99,9",,"10281,1,99999,9",,,,,,"MET088METAR LPSJ 221400Z 17006KT 9999 FEW030 20/12 Q1028 RMK WIND RWY13 15004KT RWY31 17004KT;",
"08509599999","2010-10-22T15:00:00","4","38.6655","-28.175817","94.79","SAO JORGE, PO","FM-15","LPSJ ","V020","160,1,N,0031,1","22000,1,9,N","011265,1,N,1","+0200,1","+0120,1","99999,9","02,5,+00900,1,99,9",,,,"02,99,1,99,9,99,9,99999,9,99,9,99,9",,"10281,1,99999,9",,,,,,"MET088METAR LPSJ 221500Z 16006KT 9999 FEW030 20/12 Q1028 RMK WIND RWY13 18005KT RWY31 18003KT;",
"08509599999","2010-10-22T16:00:00","4","38.6655","-28.175817","94.79","SAO JORGE, PO","FM-15","LPSJ ","V020","999,9,V,0021,1","22000,1,9,N","011265,1,N,1","+0200,1","+0120,1","99999,9","02,5,+00750,1,99,9",,,,"02,99,1,99,9,99,9,99999,9,99,9,99,9",,"10271,1,99999,9",,,,,,"MET088METAR LPSJ 221600Z VRB04KT 9999 FEW025 20/12 Q1027 RMK WIND RWY13 VRB04KT RWY31 VRB03KT;",
"08509599999","2010-10-22T17:00:00","4","38.6655","-28.175817","94.79","SAO JORGE, PO","FM-15","LPSJ ","V020","999,9,V,0021,1","22000,1,9,N","011265,1,N,1","+0200,1","+0120,1","99999,9","02,5,+00900,1,99,9",,,,"02,99,1,99,9,99,9,99999,9,99,9,99,9",,"10271,1,99999,9",,,,,,"MET088METAR LPSJ 221700Z VRB04KT 9999 FEW030 20/12 Q1027 RMK WIND RWY13 VRB04KT RWY31 VRB04KT;",
"08509599999","2010-10-22T18:00:00","4","38.6655","-28.175817","94.79","SAO JORGE, PO","FM-15","LPSJ ","V020","999,9,V,0026,1","22000,1,9,N","011265,1,N,1","+0200,1","+0120,1","99999,9","02,5,+00900,1,99,9",,,,"02,99,1,99,9,99,9,99999,9,99,9,99,9",,"10281,1,99999,9",,,,,,"MET088METAR LPSJ 221800Z VRB05KT 9999 FEW030 20/12 Q1028 RMK WIND RWY13 VRB04KT RWY31 VRB03KT;",
"08509599999","2010-10-23T09:00:00","4","38.6655","-28.175817","94.79","SAO JORGE, PO","FM-15","LPSJ ","V020","999,9,V,0015,1","22000,1,9,N","011265,1,N,1","+0150,1","+0130,1","99999,9","02,5,+00900,1,99,9",,,,"02,99,1,99,9,99,9,99999,9,99,9,99,9",,"10281,1,99999,9",,,,,,"MET088METAR LPSJ 230900Z VRB03KT 9999 FEW030 15/13 Q1028 RMK WIND RWY13 VRB03KT RWY31 VRB02KT;",
"08509599999","2010-10-23T10:00:00","4","38.6655","-28.175817","94.79","SAO JORGE, PO","FM-15","LPSJ ","V020","999,9,V,0021,1","22000,1,9,N","011265,1,N,1","+0170,1","+0150,1","99999,9","04,5,+00540,1,99,9",,,,"04,99,1,99,9,99,9,99999,9,99,9,99,9",,"10291,1,99999,9",,,,,,"MET088METAR LPSJ 231000Z VRB04KT 9999 SCT018 17/15 Q1029 RMK WIND RWY13 VRB04KT RWY31 VRB05KT;",
"08509599999","2010-10-23T11:00:00","4","38.6655","-28.175817","94.79","SAO JORGE, PO","FM-15","LPSJ ","V020","999,9,V,0015,1","22000,1,9,N","011265,1,N,1","+0180,1","+0140,1","99999,9","02,5,+00540,1,99,9",,,,"02,99,1,99,9,99,9,99999,9,99,9,99,9",,"10291,1,99999,9",,,,,,"MET088METAR LPSJ 231100Z VRB03KT 9999 FEW018 18/14 Q1029 RMK WIND RWY13 VRB02KT RWY31 VRB03KT;",
"08509599999","2010-10-23T12:00:00","4","38.6655","-28.175817","94.79","SAO JORGE, PO","FM-15","LPSJ ","V020","999,9,V,0021,1","22000,1,9,N","011265,1,N,1","+0190,1","+0140,1","99999,9","02,5,+00750,1,99,9",,,,"02,99,1,99,9,99,9,99999,9,99,9,99,9",,"10291,1,99999,9",,,,,,"MET088METAR LPSJ 231200Z VRB04KT 9999 FEW025 19/14 Q1029 RMK WIND RWY13 VRB02KT RWY31 VRB03KT;",
"08509599999","2010-10-23T13:00:00","4","38.6655","-28.175817","94.79","SAO JORGE, PO","FM-15","LPSJ ","V020","230,1,N,0021,1","22000,1,9,N","011265,1,N,1","+0190,1","+0140,1","99999,9","02,5,+00600,1,99,9",,,,"02,99,1,99,9,99,9,99999,9,99,9,99,9",,"10291,1,99999,9",,,,,,"MET088METAR LPSJ 231300Z 23004KT 9999 FEW020 19/14 Q1029 RMK WIND RWY13 24004KT RWY31 23003KT;",
"08509599999","2010-10-23T14:00:00","4","38.6655","-28.175817","94.79","SAO JORGE, PO","FM-15","LPSJ ","V020","240,1,N,0031,1","22000,1,9,N","011265,1,N,1","+0200,1","+0140,1","99999,9","02,5,+00750,1,99,9",,,,"02,99,1,99,9,99,9,99999,9,99,9,99,9",,"10281,1,99999,9",,,,,,"MET088METAR LPSJ 231400Z 24006KT 9999 FEW025 20/14 Q1028 RMK WIND RWY13 25005KT RWY31 24004KT;",
"08509599999","2010-10-23T16:00:00","4","38.6655","-28.175817","94.79","SAO JORGE, PO","FM-15","LPSJ ","V020","250,1,N,0026,1","22000,1,9,N","011265,1,N,1","+0210,1","+0150,1","99999,9","02,5,+00750,1,99,9",,,,"02,99,1,99,9,99,9,99999,9,99,9,99,9",,"10271,1,99999,9",,,,,,"MET088METAR LPSJ 231600Z 25005KT 9999 FEW025 21/15 Q1027 RMK WIND RWY13 26006KT RWY31 25005KT;",
"08509599999","2010-10-23T17:00:00","4","38.6655","-28.175817","94.79","SAO JORGE, PO","FM-15","LPSJ ","V020","290,1,N,0036,1","22000,1,9,N","011265,1,N,1","+0200,1","+0140,1","99999,9","02,5,+00750,1,99,9",,,,"02,99,1,99,9,99,9,99999,9,99,9,99,9",,"10271,1,99999,9",,,,,,"MET088METAR LPSJ 231700Z 29007KT 9999 FEW025 20/14 Q1027 RMK WIND RWY13 30006KT RWY31 30007KT;",
"08509599999","2010-10-23T18:00:00","4","38.6655","-28.175817","94.79","SAO JORGE, PO","FM-15","LPSJ ","V020","300,1,N,0036,1","22000,1,9,N","011265,1,N,1","+0190,1","+0140,1","99999,9","04,5,+00600,1,99,9",,,,"04,99,1,99,9,99,9,99999,9,99,9,99,9",,"10271,1,99999,9",,,,,,"MET088METAR LPSJ 231800Z 30007KT 9999 SCT020 19/14 Q1027 RMK WIND RWY13 31005KT RWY31 29004KT;",
"08509599999","2010-10-24T10:00:00","4","38.6655","-28.175817","94.79","SAO JORGE, PO","FM-15","LPSJ ","V020","140,1,N,0021,1","22000,1,9,N","011265,1,N,1","+0190,1","+0130,1","99999,9","02,5,+00750,1,99,9",,,,"02,99,1,99,9,99,9,99999,9,99,9,99,9",,"10261,1,99999,9",,,,,,"MET088METAR LPSJ 241000Z 14004KT 9999 FEW025 19/13 Q1026 RMK WIND RWY13 13004KT RWY31 14003KT;",
"08509599999","2010-10-24T11:00:00","4","38.6655","-28.175817","94.79","SAO JORGE, PO","FM-15","LPSJ ","V020","999,9,V,0021,1","22000,1,9,N","011265,1,N,1","+0200,1","+0130,1","99999,9","02,5,+00900,1,99,9",,,,"02,99,1,99,9,99,9,99999,9,99,9,99,9",,"10271,1,99999,9",,,,,,"MET088METAR LPSJ 241100Z VRB04KT 9999 FEW030 20/13 Q1027 RMK WIND RWY13 VRB04KT RWY31 VRB03KT;",
"08509599999","2010-10-24T16:00:00","4","38.6655","-28.175817","94.79","SAO JORGE, PO","FM-15","LPSJ ","V020","140,1,N,0031,1","22000,1,9,N","011265,1,N,1","+0220,1","+0130,1","99999,9","02,5,+01200,1,99,9",,,,"02,99,1,99,9,99,9,99999,9,99,9,99,9",,"10251,1,99999,9",,,,,,"MET088METAR LPSJ 241600Z 14006KT 9999 FEW040 22/13 Q1025 RMK WIND RWY13 15006KT RWY31 15007KT;",
"08509599999","2010-10-24T18:00:00","4","38.6655","-28.175817","94.79","SAO JORGE, PO","FM-15","LPSJ ","V020","150,1,N,0041,1","22000,1,9,N","011265,1,N,1","+0210,1","+0140,1","99999,9","02,5,+00600,1,99,9",,,,"02,99,1,99,9,99,9,99999,9,99,9,99,9",,"10251,1,99999,9",,,,,,"MET088METAR LPSJ 241800Z 15008KT 9999 FEW020 21/14 Q1025 RMK WIND RWY13 14006KT RWY31 14006KT;",
"08509599999","2010-10-25T09:00:00","4","38.6655","-28.175817","94.79","SAO JORGE, PO","FM-15","LPSJ ","V020","120,1,N,0046,1","99999,9,C,N","011265,1,N,1","+0190,1","+0160,1","99999,9","02,5,+00420,1,99,9","04,5,+00750,1,99,9",,,"04,99,1,99,9,99,9,99999,9,99,9,99,9",,"10240,1,99999,9",,,,,,"MET095METAR LPSJ 250900Z 12009KT 9999 FEW014 SCT025 19/16 Q1024 RMK WIND RWY13 14008KT RWY31 13008KT;","P01 007503SCOCIG"
"08509599999","2010-10-25T10:00:00","4","38.6655","-28.175817","94.79","SAO JORGE, PO","FM-15","LPSJ ","V020","110,1,N,0041,1","99999,9,C,N","011265,1,N,1","+0190,1","+0170,1","99999,9","02,5,+00420,1,99,9","04,5,+00900,1,99,9",,,"04,99,1,99,9,99,9,99999,9,99,9,99,9","999,M,+9999,9","10251,1,99999,9",,,,,,"MET095METAR LPSJ 251000Z 11008KT 9999 FEW014 SCT030 19/17 Q1025 RMK WIND RWY13 12008KT RWY31 11008KT;","Q01 -00082ATMX  P01 009003SCOCIG"
"08509599999","2010-10-25T11:00:00","4","38.6655","-28.175817","94.79","SAO JORGE, PO","FM-15","LPSJ ","V020","130,1,N,0046,1","99999,9,C,N","011265,1,N,1","+0200,1","+0170,1","99999,9","02,5,+00420,1,99,9","04,5,+00810,1,99,9",,,"04,99,1,99,9,99,9,99999,9,99,9,99,9",,"10251,1,99999,9",,,,,,"MET111METAR LPSJ 251100Z 13009KT 9999 FEW014 SCT027 20/17 Q1025 RMK WIND RWY13 15005KT 120V180 RWY31 15006KT 120V180;","P01 008103SCOCIG"
"08509599999","2010-10-25T16:00:00","4","38.6655","-28.175817","94.79","SAO JORGE, PO","FM-15","LPSJ ","V020","130,1,N,0051,1","99999,9,C,N","011265,1,N,1","+0230,1","+0150,1","99999,9","02,5,+00660,1,99,9","04,5,+02100,1,99,9",,,"04,99,1,99,9,99,9,99999,9,99,9,99,9",,"10230,1,99999,9",,,,,,"MET111METAR LPSJ 251600Z 13010KT 9999 FEW022 SCT070 23/15 Q1023 RMK WIND RWY13 15008KT 120V190 RWY31 15006KT 110V180;","P01 021003SCOCIG"
"08509599999","2010-10-25T17:00:00","4","38.6655","-28.175817","94.79","SAO JORGE, PO","FM-15","LPSJ ","V020","130,1,N,0062,1","99999,9,C,N","011265,1,N,1","+0220,1","+0160,1","99999,9","02,5,+00600,1,99,9","04,5,+02100,1,99,9",,,"04,99,1,99,9,99,9,99999,9,99,9,99,9",,"10230,1,99999,9",,,,,,"MET095METAR LPSJ 251700Z 13012KT 9999 FEW020 SCT070 22/16 Q1023 RMK WIND RWY13 14010KT RWY31 14008KT;","P01 021003SCOCIG"
"08509599999","2010-10-25T18:00:00","4","38.6655","-28.175817","94.79","SAO JORGE, PO","FM-15","LPSJ ","V020","130,1,N,0051,1","99999,9,C,N","011265,1,N,1","+0220,1","+0160,1","99999,9","02,5,+00600,1,99,9","04,5,+02400,1,99,9",,,"04,99,1,99,9,99,9,99999,9,99,9,99,9",,"10230,1,99999,9",,,,,,"MET095METAR LPSJ 251800Z 13010KT 9999 FEW020 SCT080 22/16 Q1023 RMK WIND RWY13 14009KT RWY31 13007KT;","P01 024003SCOCIG"
"08509599999","2010-10-26T09:00:00","4","38.6655","-28.175817","94.79","SAO JORGE, PO","FM-15","LPSJ ","V020","999,9,V,0010,1","01050,1,C,N","011265,1,N,1","+0200,1","+0160,1","99999,9","04,5,+00750,1,99,9","04,5,+01050,1,99,9","07,5,+02100,1,99,9",,"07,99,1,99,9,99,9,99999,9,99,9,99,9",,"10240,1,99999,9",,,,,,"MET102METAR LPSJ 260900Z VRB02KT 9999 SCT025 SCT035 BKN070 20/16 Q1024 RMK WIND RWY13 VRB02KT RWY31 VRB02KT;",
"08509599999","2010-10-26T10:00:00","4","38.6655","-28.175817","94.79","SAO JORGE, PO","FM-15","LPSJ ","V020","999,9,V,0010,1","00600,1,C,N","011265,1,N,1","+0200,1","+0170,1","99999,9","02,5,+00360,1,99,9","07,5,+00600,1,99,9","07,5,+02100,1,99,9",,"07,99,1,99,9,99,9,99999,9,99,9,99,9",,"10251,1,99999,9","80,1",,,,,"MET117METAR LPSJ 261000Z VRB02KT 9999SE 3000NW -SHRA FEW012 BKN020 BKN070 20/17 Q1025 RMK WIND RWY13 33006KT RWY31 31009KR;",
"08509599999","2010-10-26T11:00:00","4","38.6655","-28.175817","94.79","SAO JORGE, PO","FM-15","LPSJ ","V020","999,9,V,0010,1","00360,1,C,N","003000,1,N,1","+0190,1","+0180,1","99999,9","02,5,+00120,1,99,9","04,5,+00360,1,99,9","07,5,+00480,1,99,9",,"07,99,1,99,9,99,9,99999,9,99,9,99,9",,"10261,1,99999,9","10,1","61,1",,,,"MET109METAR LPSJ 261100Z VRB02KT 3000 -RA BR FEW004 SCT012 BKN016 19/18 Q1026 RMK WIND RWY13 VRB05KT RWY31 VRB04KT;",
"08509599999","2010-10-26T12:00:00","4","38.6655","-28.175817","94.79","SAO JORGE, PO","FM-15","LPSJ ","V020","999,9,V,0021,1","00360,1,C,N","005000,1,N,1","+0190,1","+0180,1","99999,9","04,5,+00120,1,99,9","07,5,+00360,1,99,9",,,"07,99,1,99,9,99,9,99999,9,99,9,99,9",,"10261,1,99999,9","10,1","61,1",,,,"MET102METAR LPSJ 261200Z VRB04KT 5000 -RA BR SCT004 BKN012 19/18 Q1026 RMK WIND RWY13 VRB02KT RWY31 VRB02KT;",
"08509599999","2010-10-26T13:00:00","4","38.6655","-28.175817","94.79","SAO JORGE, PO","FM-15","LPSJ ","V020","999,9,V,0015,1","00030,1,9,N","000500,1,N,1","+0190,1","+0190,1","99999,9","09,1,+00030,1,99,9",,,,"09,99,1,99,9,99,9,00025,1,99,9,99,9",,"99999,9,99999,9","45,1","51,1",,,,"MET094METAR LPSJ 261300Z VRB03KT 0500 -DZ FG VV001 19/19 Q1016 RMK WIND RWY13 VRB03KT RWY31 VRB03KT;","Q01+101593APOA  Q02 101603APOA  "
"08509599999","2010-10-26T14:00:00","4","38.6655","-28.175817","94.79","SAO JORGE, PO","FM-15","LPSJ ","V020","999,9,V,0021,1","00150,1,C,N","011265,1,N,1","+0190,1","+0190,1","99999,9","04,5,+00060,1,99,9","07,5,+00150,1,99,9",,,"07,99,1,99,9,99,9,99999,9,99,9,99,9",,"10261,1,99999,9","10,1",,,,,"MET105METAR LPSJ 261400Z VRB04KT 9999 5000SE BR SCT002 BKN005 19/19 Q1026 RMK WIND RWY13 VRB03KT RWY31 VRB02KT;",
"08509599999","2010-10-26T15:00:00","4","38.6655","-28.175817","94.79","SAO JORGE, PO","FM-15","LPSJ ","V020","999,9,V,0010,1","00150,1,C,N","003000,1,N,1","+0190,1","+0180,1","99999,9","04,5,+00060,1,99,9","07,5,+00150,1,99,9",,,"07,99,1,99,9,99,9,99999,9,99,9,99,9",,"10261,1,99999,9","10,1","51,1",,,,"MET102METAR LPSJ 261500Z VRB02KT 3000 -DZ BR SCT002 BKN005 19/18 Q1026 RMK WIND RWY13 VRB02KT RWY31 VRB02KT;",
"08509599999","2010-10-26T16:00:00","4","38.6655","-28.175817","94.79","SAO JORGE, PO","FM-15","LPSJ ","V020","999,9,V,0005,1","00060,1,C,N","001000,1,N,1","+0190,1","+0180,1","99999,9","08,5,+00060,1,99,9",,,,"08,99,1,99,9,99,9,99999,9,99,9,99,9",,"10261,1,99999,9","44,1","51,1",,,,"MET095METAR LPSJ 261600Z VRB01KT 1000 -DZ FG OVC002 19/18 Q1026 RMK WIND RWY13 VRB02KT RWY31 VRB02KT;",
"08509599999","2010-10-26T17:00:00","4","38.6655","-28.175817","94.79","SAO JORGE, PO","FM-15","LPSJ ","V020","999,9,C,0000,1","00120,1,C,N","011265,1,N,1","+0190,1","+0180,1","99999,9","02,5,+00060,1,99,9","04,5,+00120,1,99,9","07,5,+00480,1,99,9",,"07,99,1,99,9,99,9,99999,9,99,9,99,9",,"10261,1,99999,9",,,,,,"MET102METAR LPSJ 261700Z 00000KT 9999 FEW002 SCT004 BKN016 19/18 Q1026 RMK WIND RWY13 00000KT RWY31 00000KT;",
"08509599999","2010-10-26T18:00:00","4","38.6655","-28.175817","94.79","SAO JORGE, PO","FM-15","LPSJ ","V020","999,9,C,0000,1","00150,1,C,N","011265,1,N,1","+0190,1","+0180,1","99999,9","04,5,+00060,1,99,9","07,5,+00150,1,99,9",,,"07,99,1,99,9,99,9,99999,9,99,9,99,9",,"10261,1,99999,9",,,,,,"MET095METAR LPSJ 261800Z 00000KT 9999 SCT002 BKN005 19/18 Q1026 RMK WIND RWY13 00000KT RWY31 00000KT;",
"08509599999","2010-10-27T09:00:00","4","38.6655","-28.175817","94.79","SAO JORGE, PO","FM-15","LPSJ ","V020","100,1,N,0021,1","00750,1,C,N","011265,1,N,1","+0180,1","+0170,1","99999,9","04,5,+00360,1,99,9","07,5,+00750,1,99,9",,,"07,99,1,99,9,99,9,99999,9,99,9,99,9","999,M,+9999,9","10261,1,99999,9",,,,,,"MET095METAR LPSJ 270900Z 10004KT 9999 SCT012 BKN025 18/17 Q1026 RMK WIND RWY13 10006KT RWY31 10005KT;","Q01 +00052ATMX  "
"08509599999","2010-10-27T10:00:00","4","38.6655","-28.175817","94.79","SAO JORGE, PO","FM-15","LPSJ ","V020","120,1,N,0021,1","00600,1,C,N","011265,1,N,1","+0190,1","+0180,1","99999,9","04,5,+00360,1,99,9","07,5,+00600,1,99,9",,,"07,99,1,99,9,99,9,99999,9,99,9,99,9",,"10261,1,99999,9",,,,,,"MET095METAR LPSJ 271000Z 12004KT 9999 SCT012 BKN020 19/18 Q1026 RMK WIND RWY13 15005KT RWY31 12004KT;",
"08509599999","2010-10-27T11:00:00","4","38.6655","-28.175817","94.79","SAO JORGE, PO","FM-15","LPSJ ","V020","110,1,N,0026,1","00750,1,C,N","011265,1,N,1","+0190,1","+0180,1","99999,9","04,5,+00390,1,99,9","07,5,+00750,1,99,9",,,"07,99,1,99,9,99,9,99999,9,99,9,99,9","999,M,+9999,9","10261,1,99999,9",,,,,,"MET095METAR LPSJ 271100Z 11005KT 9999 SCT013 BKN025 19/18 Q1026 RMK WIND RWY13 10007KT RWY31 10005KT;","Q01 +00052ATMX  "
"08509599999","2010-10-30T12:00:00","4","38.6655","-28.175817","94.79","SAO JORGE, PO","FM-15","LPSJ ","V020","999,9,9,9999,9","99999,9,C,N","011265,1,N,1","+0200,1","+0190,1","99999,9","02,5,+00210,1,99,9","04,5,+00330,1,99,9",,,"04,99,1,99,9,99,9,99999,9,99,9,99,9",,"10210,1,99999,9",,,,,,"MET117METAR LPSJ 301200Z /////KT 9999 FEW007 SCT011 20/19 Q1021 RMK WIND RWY13 32013G24KT 280V350 RWY31 30012G24KT 260V330;","P01 003303SCOCIG"
"08509599999","2010-10-30T13:00:00","4","38.6655","-28.175817","94.79","SAO JORGE, PO","FM-15","LPSJ ","V020","999,9,9,9999,9","99999,9,C,N","011265,1,N,1","+0200,1","+0190,1","99999,9","04,5,+00210,1,99,9","04,5,+00330,1,99,9",,,"04,99,1,99,9,99,9,99999,9,99,9,99,9",,"10200,1,99999,9",,,,,,"MET114METAR LPSJ 301300Z /////KT 9999 SCT007 SCT011 20/19 Q1020 RMK WIND RWY13 32012KT 280V360 RWY31 29010G21KT 260V330;","P01 003303SCOCIG"
"08509599999","2010-10-30T14:00:00","4","38.6655","-28.175817","94.79","SAO JORGE, PO","FM-15","LPSJ ","V020","999,9,9,9999,9","99999,9,C,N","011265,1,N,1","+0200,1","+0190,1","99999,9","02,5,+00240,1,99,9","04,5,+00330,1,99,9",,,"04,99,1,99,9,99,9,99999,9,99,9,99,9",,"10200,1,99999,9",,,,,,"MET114METAR LPSJ 301400Z /////KT 9999 FEW008 SCT011 20/19 Q1020 RMK WIND RWY13 32011KT 290V350 RWY31 30006G17KT 260V330;","P01 003303SCOCIG"
"08509599999","2010-10-30T15:00:00","4","38.6655","-28.175817","94.79","SAO JORGE, PO","FM-15","LPSJ ","V020","999,9,9,9999,9","99999,9,C,N","011265,1,N,1","+0200,1","+0190,1","99999,9","02,5,+00240,1,99,9","04,5,+00360,1,99,9",,,"04,99,1,99,9,99,9,99999,9,99,9,99,9",,"10200,1,99999,9",,,,,,"MET114METAR LPSJ 301500Z /////KT 9999 FEW008 SCT012 20/19 Q1020 RMK WIND RWY13 32014KT 290V350 RWY31 30015G24KT 250V330;","P01 003603SCOCIG"
"08509599999","2010-10-30T16:00:00","4","38.6655","-28.175817","94.79","SAO JORGE, PO","FM-15","LPSJ ","V020","999,9,9,9999,9","00420,5,C,N","011265,1,N,1","+0200,1","+0190,1","99999,9","04,5,+00390,1,99,9","02,5,+00420,1,02,5",,,,,"10200,1,99999,9",,,,,,"MET120METAR LPSJ 301600Z /////KT 9999 SCT013 FEW014TCU 20/19 Q1020 RMK WIND RWY13 33015G27KT 300V360 RWY31 31017G27KT 260V340;","Q01+000022SCOTCV"
"08509599999","2010-10-30T17:00:00","4","38.6655","-28.175817","94.79","SAO JORGE, PO","FM-15","LPSJ ","V020","999,9,9,9999,9","22000,1,9,N","011265,1,N,1","+0200,1","+0180,1","99999,9","04,5,+00450,1,99,9",,,,"04,99,1,99,9,99,9,99999,9,99,9,99,9",,"10200,1,99999,9",,,,,,"MET107METAR LPSJ 301700Z /////KT 9999 SCT015 20/18 Q1020 RMK WIND RWY13 33016KT 300V360 RWY31 31013G23KT 270V340;",
"08509599999","2010-10-30T18:00:00","4","38.6655","-28.175817","94.79","SAO JORGE, PO","FM-15","LPSJ ","V020","999,9,9,9999,9","22000,1,9,N","011265,1,N,1","+0200,1","+0170,1","99999,9","02,5,+00480,1,99,9",,,,"02,99,1,99,9,99,9,99999,9,99,9,99,9",,"10200,1,99999,9",,,,,,"MET098METAR LPSJ 301800Z /////KT 9999 FEW016 20/17 Q1020 RMK WIND RWY13 33013KT 300V360 32014KT 270V340;",
"08509599999","2010-10-31T09:00:00","4","38.6655","-28.175817","94.79","SAO JORGE, PO","FM-15","LPSJ ","V020","999,9,V,0015,1","22000,1,9,N","011265,1,N,1","+0150,1","+0130,1","99999,9","02,5,+00600,1,99,9",,,,"02,99,1,99,9,99,9,99999,9,99,9,99,9",,"10261,1,99999,9",,,,,,"MET088METAR LPSJ 310900Z /////KT 9999 FEW020 15/13 Q1026 RMK WIND RWY13 VRB03KT RWY31 VRB03KT;",
"08509599999","2010-10-31T10:00:00","4","38.6655","-28.175817","94.79","SAO JORGE, PO","FM-15","LPSJ ","V020","999,9,V,0015,1","22000,1,9,N","011265,1,N,1","+0170,1","+0140,1","99999,9","02,5,+00600,1,99,9",,,,"02,99,1,99,9,99,9,99999,9,99,9,99,9",,"10271,1,99999,9",,,,,,"MET088METAR LPSJ 311000Z /////KT 9999 FEW020 17/14 Q1027 RMK WIND RWY13 VRB03KT RWY31 VRB01KT;",
"08509599999","2010-10-31T11:00:00","4","38.6655","-28.175817","94.79","SAO JORGE, PO","FM-15","LPSJ ","V020","999,9,V,0010,1","22000,1,9,N","011265,1,N,1","+0200,1","+0150,1","99999,9","02,5,+00600,1,99,9",,,,"02,99,1,99,9,99,9,99999,9,99,9,99,9",,"10271,1,99999,9",,,,,,"MET088METAR LPSJ 311100Z /////KT 9999 FEW020 20/15 Q1027 RMK WIND RWY13 VRB02KT RWY31 VRB01KT;",
"08509599999","2010-10-31T12:00:00","4","38.6655","-28.175817","94.79","SAO JORGE, PO","FM-15","LPSJ ","V020","999,9,V,0021,1","22000,1,9,N","011265,1,N,1","+0200,1","+0150,1","99999,9","02,5,+00600,1,99,9",,,,"02,99,1,99,9,99,9,99999,9,99,9,99,9",,"10281,1,99999,9",,,,,,"MET088METAR LPSJ 311200Z /////KT 9999 FEW020 20/15 Q1028 RMK WIND RWY13 VRB04KT RWY31 VRB03KT;",
"08509599999","2010-10-31T13:00:00","4","38.6655","-28.175817","94.79","SAO JORGE, PO","FM-15","LPSJ ","V020","999,9,9,9999,9","22000,1,9,N","011265,1,N,1","+0210,1","+0170,1","99999,9","02,5,+00540,1,99,9",,,,"02,99,1,99,9,99,9,99999,9,99,9,99,9",,"10281,1,99999,9",,,,,,"MET088METAR LPSJ 311300Z /////KT 9999 FEW018 21/17 Q1028 RMK WIND RWY13 17005KT RWY31 17004KT;",
"08509599999","2010-10-31T14:00:00","4","38.6655","-28.175817","94.79","SAO JORGE, PO","FM-15","LPSJ ","V020","999,9,9,9999,9","22000,1,9,N","011265,1,N,1","+0210,1","+0170,1","99999,9","02,5,+00540,1,99,9",,,,"02,99,1,99,9,99,9,99999,9,99,9,99,9",,"10281,1,99999,9",,,,,,"MET095METAR LPSJ 311400Z /////KT 9999 FEW018 21/17 Q1028 RMK WIND RWY13 1706KT 140V190 RWY31 17004KT;",
"08509599999","2010-10-31T15:00:00","4","38.6655","-28.175817","94.79","SAO JORGE, PO","FM-15","LPSJ ","V020","999,9,9,9999,9","22000,1,9,N","011265,1,N,1","+0210,1","+0170,1","99999,9","02,5,+00600,1,99,9",,,,"02,99,1,99,9,99,9,99999,9,99,9,99,9",,"10271,1,99999,9",,,,,,"MET097METAR LPSJ 311500Z /////KT 9999 FEW020 21/17 Q1027 RMK WIND RWY13 17007KT 1401V200 RWY31 17004KT;",
"08509599999","2010-10-31T16:00:00","4","38.6655","-28.175817","94.79","SAO JORGE, PO","FM-15","LPSJ ","V020","999,9,9,9999,9","22000,1,9,N","011265,1,N,1","+0210,1","+0170,1","99999,9","02,5,+00540,1,99,9",,,,"02,99,1,99,9,99,9,99999,9,99,9,99,9",,"10271,1,99999,9",,,,,,"MET088METAR LPSJ 311600Z /////KT 9999 FEW018 21/17 Q1027 RMK WIND RWY13 16006KT RWY31 17004KT;",
"08509599999","2010-10-31T17:00:00","4","38.6655","-28.175817","94.79","SAO JORGE, PO","FM-15","LPSJ ","V020","999,9,V,0021,1","22000,1,9,N","011265,1,N,1","+0210,1","+0170,1","99999,9","02,5,+00660,1,99,9",,,,"02,99,1,99,9,99,9,99999,9,99,9,99,9",,"10271,1,99999,9",,,,,,"MET088METAR LPSJ 311700Z /////KT 9999 FEW022 21/17 Q1027 RMK WIND RWY13 VRB04KT RWY31 VRB02KT;",
"08509599999","2010-11-01T09:00:00","4","38.6655","-28.175817","94.79","SAO JORGE, PO","FM-15","LPSJ ","V020","999,9,C,0000,1","22000,1,9,N","011265,1,N,1","+0140,1","+0130,1","99999,9","02,5,+01200,1,99,9",,,,"02,99,1,99,9,99,9,99999,9,99,9,99,9",,"10291,1,99999,9",,,,,,"MET088METAR LPSJ 010900Z 00000KT 9999 FEW040 14/13 Q1029 RMK WIND RWY13 00000KT RWY31 00000KT;",
"08509599999","2010-11-01T10:00:00","4","38.6655","-28.175817","94.79","SAO JORGE, PO","FM-15","LPSJ ","V020","999,9,C,0000,1","22000,1,9,N","011265,1,N,1","+0150,1","+0140,1","99999,9","02,5,+01200,1,99,9",,,,"02,99,1,99,9,99,9,99999,9,99,9,99,9",,"10301,1,99999,9",,,,,,"MET088METAR LPSJ 011000Z /////KT 9999 FEW040 15/14 Q1030 RMK WIND RWY13 00000KT RWY31 00000KT;",
"08509599999","2010-11-01T11:00:00","4","38.6655","-28.175817","94.79","SAO JORGE, PO","FM-15","LPSJ ","V020","999,9,C,0000,1","22000,1,9,N","011265,1,N,1","+0190,1","+0150,1","99999,9","02,5,+01200,1,99,9",,,,"02,99,1,99,9,99,9,99999,9,99,9,99,9",,"10301,1,99999,9",,,,,,"MET088METAR LPSJ 011100Z /////KT 9999 FEW040 19/15 Q1030 RMK WIND RWY13 00000KT RWY31 00000KT;",
"08509599999","2010-11-01T12:00:00","4","38.6655","-28.175817","94.79","SAO JORGE, PO","FM-15","LPSJ ","V020","999,9,C,0000,1","22000,1,9,N","011265,1,N,1","+0210,1","+0140,1","99999,9","02,5,+00900,1,99,9",,,,"02,99,1,99,9,99,9,99999,9,99,9,99,9",,"10291,1,99999,9",,,,,,"MET088METAR LPSJ 011200Z /////KT 9999 FEW030 21/14 Q1029 RMK WIND RWY13 00000KT RWY31 00000KT;",
"08509599999","2010-11-01T13:00:00","4","38.6655","-28.175817","94.79","SAO JORGE, PO","FM-15","LPSJ ","V020","999,9,C,0000,1","22000,1,9,N","011265,1,N,1","+0220,1","+0140,1","99999,9","02,5,+00900,1,99,9",,,,"02,99,1,99,9,99,9,99999,9,99,9,99,9",,"10291,1,99999,9",,,,,,"MET088METAR LPSJ 011300Z /////KT 9999 FEW030 22/14 Q1029 RMK WIND RWY13 00000KT RWY31 00000KT;",
"08509599999","2010-11-01T14:00:00","4","38.6655","-28.175817","94.79","SAO JORGE, PO","FM-15","LPSJ ","V020","999,9,C,0000,1","22000,1,9,N","011265,1,N,1","+0220,1","+0140,1","99999,9","02,5,+00900,1,99,9",,,,"02,99,1,99,9,99,9,99999,9,99,9,99,9",,"10281,1,99999,9",,,,,,"MET088METAR LPSJ 011400Z /////KT 9999 FEW030 22/14 Q1028 RMK WIND RWY13 00000KT RWY31 00000KT;",
"08509599999","2010-11-01T15:00:00","4","38.6655","-28.175817","94.79","SAO JORGE, PO","FM-15","LPSJ ","V020","999,9,C,0000,1","22000,1,9,N","011265,1,N,1","+0220,1","+0150,1","99999,9","02,5,+00900,1,99,9",,,,"02,99,1,99,9,99,9,99999,9,99,9,99,9",,"10281,1,99999,9",,,,,,"MET088METAR LPSJ 011500Z /////KT 9999 FEW030 22/15 Q1028 RMK WIND RWY13 00000KT RWY31 00000KT;",
"08509599999","2010-11-01T16:00:00","4","38.6655","-28.175817","94.79","SAO JORGE, PO","FM-15","LPSJ ","V020","999,9,9,9999,9","22000,1,9,N","011265,1,N,1","+0220,1","+0150,1","99999,9","02,5,+00900,1,99,9",,,,"02,99,1,99,9,99,9,99999,9,99,9,99,9",,"10271,1,99999,9",,,,,,"MET088METAR LPSJ 011600Z /////KT 9999 FEW030 22/15 Q1027 RMK WIND RWY13 18004KT RWY31 19003KT;",
"08509599999","2010-11-01T17:00:00","4","38.6655","-28.175817","94.79","SAO JORGE, PO","FM-15","LPSJ ","V020","999,9,9,9999,9","22000,1,9,N","011265,1,N,1","+0220,1","+0150,1","99999,9","02,5,+00900,1,99,9",,,,"02,99,1,99,9,99,9,99999,9,99,9,99,9",,"10271,1,99999,9",,,,,,"MET088METAR LPSJ 011700Z /////KT 9999 FEW030 22/15 Q1027 RMK WIND RWY13 17005KT RWY31 18005KT;",
"08509599999","2010-11-01T18:00:00","4","38.6655","-28.175817","94.79","SAO JORGE, PO","FM-15","LPSJ ","V020","999,9,C,0000,1","22000,1,9,N","011265,1,N,1","+0210,1","+0160,1","99999,9","02,5,+00900,1,99,9",,,,"02,99,1,99,9,99,9,99999,9,99,9,99,9",,"10271,1,99999,9",,,,,,"MET088METAR LPSJ 011800Z /////KT 9999 FEW030 21/16 Q1027 RMK WIND RWY13 00000KT RWY31 00000KT;",
"08509599999","2010-11-02T09:00:00","4","38.6655","-28.175817","94.79","SAO JORGE, PO","FM-15","LPSJ ","V020","999,9,9,9999,9","22000,1,9,N","011265,1,N,1","+0160,1","+0140,1","99999,9","02,5,+00750,1,99,9",,,,"02,99,1,99,9,99,9,99999,9,99,9,99,9","999,M,+9999,9","10261,1,99999,9",,,,,,"MET088METAR LPSJ 020900Z /////KT 9999 FEW025 16/14 Q1026 RMK WIND RWY13 10009KT RWY31 10010KT;","Q01 +00102ATMX  "
"08509599999","2010-11-02T10:00:00","4","38.6655","-28.175817","94.79","SAO JORGE, PO","FM-15","LPSJ ","V020","999,9,9,9999,9","99999,9,9,N","011265,1,N,1","+0170,1","+0140,1","99999,9",,,,,,"999,M,+9999,9","10260,1,99999,9",,,,,,"MET088METAR LPSJ 021000Z /////KT 9999 FRE025 17/14 Q1026 RMK WIND RWY13 11009KT RWY31 11010KT;","Q01 -00102ATMX  "
"08509599999","2010-11-02T11:00:00","4","38.6655","-28.175817","94.79","SAO JORGE, PO","FM-15","LPSJ ","V020","999,9,9,9999,9","22000,1,9,N","011265,1,N,1","+0190,1","+0140,1","99999,9","02,5,+00750,1,99,9",,,,"02,99,1,99,9,99,9,99999,9,99,9,99,9",,"10261,1,99999,9",,,,,,"MET088METAR LPSJ 021100Z /////KT 9999 FEW025 19/14 Q1026 RMK WIND RWY13 12012KT RWY31 12010KT;",
"08509599999","2010-11-02T12:00:00","4","38.6655","-28.175817","94.79","SAO JORGE, PO","FM-15","LPSJ ","V020","999,9,9,9999,9","22000,1,9,N","011265,1,N,1","+0200,1","+0140,1","99999,9","02,5,+00750,1,99,9",,,,"02,99,1,99,9,99,9,99999,9,99,9,99,9",,"10261,1,99999,9",,,,,,"MET088METAR LPSJ 021200Z /////KT 9999 FEW025 20/14 Q1026 RMK WIND RWY13 12012KT RWY31 12013KT;",
"08509599999","2010-11-02T13:00:00","4","38.6655","-28.175817","94.79","SAO JORGE, PO","FM-15","LPSJ ","V020","999,9,9,9999,9","22000,1,9,N","011265,1,N,1","+0200,1","+0150,1","99999,9","02,5,+00900,1,99,9",,,,"02,99,1,99,9,99,9,99999,9,99,9,99,9",,"10261,1,99999,9",,,,,,"MET088METAR LPSJ 021300Z /////KT 9999 FEW030 20/15 Q1026 RMK WIND RWY13 12012KT RWY31 12013KT;",
"08509599999","2010-11-02T14:00:00","4","38.6655","-28.175817","94.79","SAO JORGE, PO","FM-15","LPSJ ","V020","999,9,9,9999,9","22000,1,9,N","011265,1,N,1","+0210,1","+0150,1","99999,9","02,5,+00750,1,99,9",,,,"02,99,1,99,9,99,9,99999,9,99,9,99,9",,"10251,1,99999,9",,,,,,"MET088METAR LPSJ 021400Z /////KT 9999 FEW025 21/15 Q1025 RMK WIND RWY13 13009KT RWY31 13010KT;",
"08509599999","2010-11-02T15:00:00","4","38.6655","-28.175817","94.79","SAO JORGE, PO","FM-15","LPSJ ","V020","999,9,9,9999,9","22000,1,9,N","011265,1,N,1","+0210,1","+0140,1","99999,9","02,5,+00900,1,99,9",,,,"02,99,1,99,9,99,9,99999,9,99,9,99,9",,"10240,1,99999,9",,,,,,"MET104METAR LPSJ 021500Z /////KT 9999 FEW030 21/14 Q1024 RMK WIND RWY13 13009KT 100V190 RWY31 13012KT 100V200;",
"08509599999","2010-11-02T16:00:00","4","38.6655","-28.175817","94.79","SAO JORGE, PO","FM-15","LPSJ ","V020","999,9,9,9999,9","22000,1,9,N","011265,1,N,1","+0210,1","+0140,1","99999,9","02,5,+00900,1,99,9",,,,"02,99,1,99,9,99,9,99999,9,99,9,99,9",,"10230,1,99999,9",,,,,,"MET104METAR LPSJ 021600Z /////KT 9999 FEW030 21/14 Q1023 RMK WIND RWY13 13013KT 100V180 RWY31 14012KT 090V200;",
"08509599999","2010-11-02T17:00:00","4","38.6655","-28.175817","94.79","SAO JORGE, PO","FM-15","LPSJ ","V020","999,9,9,9999,9","22000,1,9,N","011265,1,N,1","+0210,1","+0140,1","99999,9","02,5,+00900,1,99,9",,,,"02,99,1,99,9,99,9,99999,9,99,9,99,9",,"10230,1,99999,9",,,,,,"MET104METAR LPSJ 021700Z /////KT 9999 FEW030 21/14 Q1023 RMK WIND RWY13 14013KT 100V180 RWY31 13012KT 100V180;",
"08509599999","2010-11-02T18:00:00","4","38.6655","-28.175817","94.79","SAO JORGE, PO","FM-15","LPSJ ","V020","999,9,9,9999,9","22000,1,9,N","011265,1,N,1","+0200,1","+0150,1","99999,9","02,5,+00900,1,99,9",,,,"02,99,1,99,9,99,9,99999,9,99,9,99,9",,"10230,1,99999,9",,,,,,"MET104METAR LPSJ 021800Z /////KT 9999 FEW030 20/15 Q1023 RMK WIND RWY13 13011KT 090V170 RWY31 13013KT 100V180;",
"08509599999","2010-11-03T10:00:00","4","38.6655","-28.175817","94.79","SAO JORGE, PO","FM-15","LPSJ ","V020","999,9,9,9999,9","22000,1,9,N","011265,1,N,1","+0190,1","+0150,1","99999,9","02,5,+00540,1,99,9",,,,"02,99,1,99,9,99,9,99999,9,99,9,99,9",,"10210,1,99999,9",,,,,,"MET088METAR LPSJ 031000Z /////KT 9999 FEW018 19/15 Q1021 RMK WIND RWY13 14013KT RWY31 13012KT;",
"08509599999","2010-11-03T11:00:00","4","38.6655","-28.175817","94.79","SAO JORGE, PO","FM-15","LPSJ ","V020","999,9,9,9999,9","99999,9,C,N","011265,1,N,1","+0200,1","+0160,1","99999,9","02,5,+00660,1,99,9","04,5,+00900,1,99,9",,,"04,99,1,99,9,99,9,99999,9,99,9,99,9",,"10210,1,99999,9",,,,,,"MET095METAR LPSJ 031100Z /////KT 9999 FEW022 SCT030 20/16 Q1021 RMK WIND RWY13 15014KT RWY31 15013KT;","P01 009003SCOCIG"
"08509599999","2010-11-03T14:00:00","4","38.6655","-28.175817","94.79","SAO JORGE, PO","FM-15","LPSJ ","V020","999,9,9,9999,9","99999,9,C,N","011265,1,N,1","+0200,1","+0160,1","99999,9","04,5,+00480,1,99,9","04,5,+00750,1,99,9",,,"04,99,1,99,9,99,9,99999,9,99,9,99,9",,"10210,1,99999,9",,,,,,"MET111METAR LPSJ 031400Z /////KT 9999 SCT016 SCT025 20/16 Q1021 RMK WIND RWY13 14010KT 110V190 RWY31 15008KT 090V190;","P01 007503SCOCIG"
"08509599999","2010-11-03T15:00:00","4","38.6655","-28.175817","94.79","SAO JORGE, PO","FM-15","LPSJ ","V020","999,9,9,9999,9","99999,9,C,N","011265,1,N,1","+0190,1","+0170,1","99999,9","04,5,+00420,1,99,9","04,5,+00750,1,99,9",,,"04,99,1,99,9,99,9,99999,9,99,9,99,9",,"10200,1,99999,9",,,,,,"MET111METAR LPSJ 031500Z /////KT 9999 SCT014 SCT025 19/17 Q1020 RMK WIND RWY13 15007KT 110V190 RWY31 15008KT 100V190;","P01 007503SCOCIG"
"08509599999","2010-11-04T08:00:00","4","38.6655","-28.175817","94.79","SAO JORGE, PO","FM-15","LPSJ ","V020","999,9,9,9999,9","22000,1,9,N","011265,1,N,1","+0190,1","+0170,1","99999,9","04,5,+00420,1,99,9",,,,"04,99,1,99,9,99,9,99999,9,99,9,99,9",,"10200,1,99999,9",,,,,,"MET088METAR LPSJ 040800Z /////KT 9999 SCT014 19/17 Q1020 RMK WIND RWY13 12012KT RWY31 12010KT;",
"08509599999","2010-11-04T10:00:00","4","38.6655","-28.175817","94.79","SAO JORGE, PO","FM-15","LPSJ ","V020","999,9,9,9999,9","22000,1,9,N","011265,1,N,1","+0190,1","+0170,1","99999,9","02,5,+00450,1,99,9",,,,"02,99,1,99,9,99,9,99999,9,99,9,99,9",,"10210,1,99999,9",,,,,,"MET088METAR LPSJ 041000Z /////KT 9999 FEW015 19/17 Q1021 RMK WIND RWY13 12013KT RWY31 12013KT;",
"08509599999","2010-11-04T11:00:00","4","38.6655","-28.175817","94.79","SAO JORGE, PO","FM-15","LPSJ ","V020","999,9,9,9999,9","22000,1,9,N","011265,1,N,1","+0200,1","+0180,1","99999,9","02,5,+00450,1,99,9",,,,"02,99,1,99,9,99,9,99999,9,99,9,99,9",,"10200,1,99999,9",,,,,,"MET088METAR LPSJ 041100Z /////KT 9999 FEW015 20/18 Q1020 RMK WIND RWY13 12011KT RWY31 12012KT;",
"08509599999","2010-11-04T13:00:00","4","38.6655","-28.175817","94.79","SAO JORGE, PO","FM-15","LPSJ ","V020","999,9,9,9999,9","22000,1,9,N","011265,1,N,1","+0210,1","+0180,1","99999,9","02,5,+00420,1,99,9",,,,"02,99,1,99,9,99,9,99999,9,99,9,99,9",,"10210,1,99999,9",,,,,,"MET110METAR LPSJ 041300Z /////KT 9999 FEW014 21/18 Q1021 RMK WIND RWY13 12012G22KT 100V170 RWY31 12011G21KT 090V180;",
"08509599999","2010-11-04T14:00:00","4","38.6655","-28.175817","94.79","SAO JORGE, PO","FM-15","LPSJ ","V020","999,9,9,9999,9","22000,1,9,N","011265,1,N,1","+0220,1","+0160,1","99999,9","02,5,+00480,1,99,9",,,,"02,99,1,99,9,99,9,99999,9,99,9,99,9",,"10200,1,99999,9",,,,,,"MET110METAR LPSJ 041400Z /////KT 9999 FEW016 22/16 Q1020 RMK WIND RWY13 14010G20KT 110V170 RWY31 14011G22KT 100V170;",
"08509599999","2010-11-04T15:00:00","4","38.6655","-28.175817","94.79","SAO JORGE, PO","FM-15","LPSJ ","V020","999,9,9,9999,9","22000,1,9,N","011265,1,N,1","+0220,1","+0160,1","99999,9","04,5,+00480,1,99,9",,,,"04,99,1,99,9,99,9,99999,9,99,9,99,9",,"10200,1,99999,9",,,,,,"MET088METAR LPSJ 041500Z /////KT 9999 SCT016 22/16 Q1020 RMK WIND RWY13 13013KT RWY31 13012KT;",
"08509599999","2010-11-04T17:00:00","4","38.6655","-28.175817","94.79","SAO JORGE, PO","FM-15","LPSJ ","V020","999,9,9,9999,9","22000,1,9,N","011265,1,N,1","+0210,1","+0170,1","99999,9","04,5,+00450,1,99,9",,,,"04,99,1,99,9,99,9,99999,9,99,9,99,9",,"10190,1,99999,9",,,,,,"MET088METAR LPSJ 041700Z /////KT 9999 SCT015 21/17 Q1019 RMK WIND RWY13 13011KT RWY31 13012KT;",
"08509599999","2010-11-05T10:00:00","4","38.6655","-28.175817","94.79","SAO JORGE, PO","FM-15","LPSJ ","V020","999,9,9,9999,9","99999,9,C,N","011265,1,N,1","+0200,1","+0170,1","99999,9","02,5,+00480,1,99,9","04,5,+06000,1,99,9",,,"04,99,1,99,9,99,9,99999,9,99,9,99,9",,"10210,1,99999,9",,,,,,"MET095METAR LPSJ 051000Z /////KT 9999 FEW016 SCT200 20/17 Q1021 RMK WIND RWY13 13007KT RWY31 13010KT;","P01 060003SCOCIG"
"08509599999","2010-11-05T11:00:00","4","38.6655","-28.175817","94.79","SAO JORGE, PO","FM-15","LPSJ ","V020","999,9,9,9999,9","99999,9,C,N","011265,1,N,1","+0220,1","+0170,1","99999,9","02,5,+00540,1,99,9","04,5,+06000,1,99,9",,,"04,99,1,99,9,99,9,99999,9,99,9,99,9",,"10210,1,99999,9",,,,,,"MET095METAR LPSJ 051100Z /////KT 9999 FEW018 SCT200 22/17 Q1021 RMK WIND RWY13 14007KT RWY31 13009KT;","P01 060003SCOCIG"
"08509599999","2010-11-05T12:00:00","4","38.6655","-28.175817","94.79","SAO JORGE, PO","FM-15","LPSJ ","V020","999,9,9,9999,9","99999,9,C,N","011265,1,N,1","+0220,1","+0170,1","99999,9","02,5,+00600,1,99,9","04,5,+06000,1,99,9",,,"04,99,1,99,9,99,9,99999,9,99,9,99,9",,"10210,1,99999,9",,,,,,"MET095METAR LPSJ 051200Z /////KT 9999 FEW020 SCT200 22/17 Q1021 RMK WIND RWY13 13009KT RWY31 13010KT;","P01 060003SCOCIG"
"08509599999","2010-11-05T13:00:00","4","38.6655","-28.175817","94.79","SAO JORGE, PO","FM-15","LPSJ ","V020","999,9,9,9999,9","99999,9,C,N","011265,1,N,1","+0220,1","+0170,1","99999,9","02,5,+00600,1,99,9","04,5,+06000,1,99,9",,,"04,99,1,99,9,99,9,99999,9,99,9,99,9",,"10210,1,99999,9",,,,,,"MET114METAR LPSJ 051300Z /////KT 9999 FEW020 SCT200 22/17 Q1021 RMK WIND RWY13 14011KT 110V170 RWY31 14010G22KT 120V180;","P01 060003SCOCIG"
"08509599999","2010-11-05T14:00:00","4","38.6655","-28.175817","94.79","SAO JORGE, PO","FM-15","LPSJ ","V020","999,9,9,9999,9","22000,1,9,N","011265,1,N,1","+0220,1","+0170,1","99999,9","02,5,+00750,1,99,9",,,,"02,99,1,99,9,99,9,99999,9,99,9,99,9",,"10210,1,99999,9",,,,,,"MET091METAR LPSJ 051400Z /////KT 9999 FEW025 22/17 Q1021 RMK WIND RWY13 12012KT RWY31 12010G22KT;",
"08509599999","2010-11-05T15:00:00","4","38.6655","-28.175817","94.79","SAO JORGE, PO","FM-15","LPSJ ","V020","999,9,9,9999,9","22000,1,9,N","011265,1,N,1","+0220,1","+0180,1","99999,9","02,5,+00750,1,99,9",,,,"02,99,1,99,9,99,9,99999,9,99,9,99,9",,"10200,1,99999,9",,,,,,"MET088METAR LPSJ 051500Z /////KT 9999 FEW025 22/18 Q1020 RMK WIND RWY13 13012KT RWY31 13013KT;",
"08509599999","2010-11-05T16:00:00","4","38.6655","-28.175817","94.79","SAO JORGE, PO","FM-15","LPSJ ","V020","999,9,9,9999,9","22000,1,9,N","011265,1,N,1","+0230,1","+0170,1","99999,9","02,5,+00750,1,99,9",,,,"02,99,1,99,9,99,9,99999,9,99,9,99,9",,"10210,1,99999,9",,,,,,"MET104METAR LPSJ 051600Z /////KT 9999 FEW025 23/17 Q1021 RMK WIND RWY13 14012KT 100V180 RWY31 14013KT 100V190;",
"08509599999","2010-11-05T17:00:00","4","38.6655","-28.175817","94.79","SAO JORGE, PO","FM-15","LPSJ ","V020","999,9,9,9999,9","22000,1,9,N","011265,1,N,1","+0220,1","+0180,1","99999,9","02,5,+00600,1,99,9",,,,"02,99,1,99,9,99,9,99999,9,99,9,99,9",,"10210,1,99999,9",,,,,,"MET104METAR LPSJ 051700Z /////KT 9999 FEW020 22/18 Q1021 RMK WIND RWY13 14011KT 100V180 RWY31 14012KT 100V180;",
"08509599999","2010-11-05T18:00:00","4","38.6655","-28.175817","94.79","SAO JORGE, PO","FM-15","LPSJ ","V020","999,9,9,9999,9","22000,1,9,N","011265,1,N,1","+0210,1","+0180,1","99999,9","02,5,+00750,1,99,9",,,,"02,99,1,99,9,99,9,99999,9,99,9,99,9",,"10210,1,99999,9",,,,,,"MET088METAR LPSJ 051800Z /////KT 9999 FEW025 21/18 Q1021 RMK WIND RWY13 14010KT RWY31 13008KT;",
"08509599999","2010-11-06T10:00:00","4","38.6655","-28.175817","94.79","SAO JORGE, PO","FM-15","LPSJ ","V020","999,9,9,9999,9","00450,1,C,N","011265,1,N,1","+0180,1","+0170,1","99999,9","02,5,+00180,1,99,9","07,5,+00450,1,99,9",,,"07,99,1,99,9,99,9,99999,9,99,9,99,9",,"10281,1,99999,9",,,,,,"MET095METAR LPSJ 061000Z /////KT 9999 FEW006 BKN015 18/17 Q1028 RMK WIND RWY13 10002KT RWY31 09003KT;",
"08509599999","2010-11-06T11:00:00","4","38.6655","-28.175817","94.79","SAO JORGE, PO","FM-15","LPSJ ","V020","999,9,9,9999,9","06000,1,C,N","011265,1,N,1","+0200,1","+0170,1","99999,9","02,5,+00420,1,99,9","07,5,+06000,1,99,9",,,"07,99,1,99,9,99,9,99999,9,99,9,99,9",,"10291,1,99999,9",,,,,,"MET095METAR LPSJ 061100Z /////KT 9999 FEW014 BKN200 20/17 Q1029 RMK WIND RWY13 15003KT RWY31 15002KT;",
"08509599999","2010-11-06T12:00:00","4","38.6655","-28.175817","94.79","SAO JORGE, PO","FM-15","LPSJ ","V020","999,9,9,9999,9","06000,1,C,N","011265,1,N,1","+0200,1","+0180,1","99999,9","02,5,+00360,1,99,9","07,5,+06000,1,99,9",,,"07,99,1,99,9,99,9,99999,9,99,9,99,9",,"10291,1,99999,9",,,,,,"MET095METAR LPSJ 061200Z /////KT 9999 FEW012 BKN200 20/18 Q1029 RMK WIND RWY13 16005KT RWY31 15003KT;",
"08509599999","2010-11-06T13:00:00","4","38.6655","-28.175817","94.79","SAO JORGE, PO","FM-15","LPSJ ","V020","999,9,9,9999,9","99999,9,C,N","011265,1,N,1","+0210,1","+0180,1","99999,9","02,5,+00360,1,99,9","04,5,+06000,1,99,9",,,"04,99,1,99,9,99,9,99999,9,99,9,99,9",,"10291,1,99999,9",,,,,,"MET095METAR LPSJ 061300Z /////KT 9999 FEW012 SCT200 21/18 Q1029 RMK WIND RWY13 16005KT RWY31 16004KT;","P01 060003SCOCIG"
"08509599999","2010-11-06T15:00:00","4","38.6655","-28.175817","94.79","SAO JORGE, PO","FM-15","LPSJ ","V020","999,9,V,0021,1","99999,9,C,N","011265,1,N,1","+0200,1","+0180,1","99999,9","02,5,+00210,1,99,9","04,5,+00390,1,99,9",,,"04,99,1,99,9,99,9,99999,9,99,9,99,9",,"10291,1,99999,9",,,,,,"MET095METAR LPSJ 061500Z /////KT 9999 FEW007 SCT013 20/18 Q1029 RMK WIND RWY13 VRB04KT RWY31 VRB03KT;","P01 003903SCOCIG"
"08509599999","2010-11-06T16:00:00","4","38.6655","-28.175817","94.79","SAO JORGE, PO","FM-15","LPSJ ","V020","999,9,9,9999,9","00420,1,C,N","011265,1,N,1","+0200,1","+0180,1","99999,9","02,5,+00210,1,99,9","07,5,+00420,1,99,9",,,"07,99,1,99,9,99,9,99999,9,99,9,99,9",,"10291,1,99999,9",,,,,,"MET095METAR LPSJ 061600Z /////KT 9999 FEW007 BKN014 20/18 Q1029 RMK WIND RWY13 03008KT RWY31 03007KT;",
"08509599999","2010-11-06T17:00:00","4","38.6655","-28.175817","94.79","SAO JORGE, PO","FM-15","LPSJ ","V020","999,9,9,9999,9","00420,1,C,N","011265,1,N,1","+0190,1","+0170,1","99999,9","02,5,+00240,1,99,9","07,5,+00420,1,99,9",,,"07,99,1,99,9,99,9,99999,9,99,9,99,9",,"10301,1,99999,9",,,,,,"MET095METAR LPSJ 061700Z /////KT 9999 FEW008 BKN014 19/17 Q1030 RMK WIND RWY13 06010KT RWY31 05011KT;",
"08509599999","2010-11-07T10:00:00","4","38.6655","-28.175817","94.79","SAO JORGE, PO","FM-15","LPSJ ","V020","999,9,9,9999,9","22000,1,9,N","011265,1,N,1","+0160,1","+0110,1","99999,9","04,5,+00540,1,99,9",,,,"04,99,1,99,9,99,9,99999,9,99,9,99,9",,"10339,1,99999,9",,,,,,"MET088METAR LPSJ 071000Z /////KT 9999 SCT018 16/11 Q1034 RMK WIND RWY13 06005KT RWY31 05008KT;",
"08509599999","2010-11-07T11:00:00","4","38.6655","-28.175817","94.79","SAO JORGE, PO","FM-15","LPSJ ","V020","999,9,V,0026,1","00540,1,C,N","011265,1,N,1","+0160,1","+0120,1","99999,9","07,5,+00540,1,99,9",,,,"07,99,1,99,9,99,9,99999,9,99,9,99,9",,"10339,1,99999,9",,,,,,"MET088METAR LPSJ 071100Z /////KT 9999 BKN018 16/12 Q1034 RMK WIND RWY13 VRB05KT RWY31 VRB07KT;",
"08509599999","2010-11-07T12:00:00","4","38.6655","-28.175817","94.79","SAO JORGE, PO","FM-15","LPSJ ","V020","999,9,V,0026,1","22000,1,9,N","011265,1,N,1","+0170,1","+0110,1","99999,9","04,5,+00600,1,99,9",,,,"04,99,1,99,9,99,9,99999,9,99,9,99,9",,"10329,1,99999,9",,,,,,"MET088METAR LPSJ 071200Z /////KT 9999 SCT020 17/11 Q1033 RMK WIND RWY13 VRB05KT RWY31 VRB04KT;",
"08509599999","2010-11-07T13:00:00","4","38.6655","-28.175817","94.79","SAO JORGE, PO","FM-15","LPSJ ","V020","999,9,V,0021,1","22000,1,9,N","011265,1,N,1","+0170,1","+0110,1","99999,9","04,5,+00750,1,99,9",,,,"04,99,1,99,9,99,9,99999,9,99,9,99,9",,"10329,1,99999,9",,,,,,"MET088METAR LPSJ 071300Z /////KT 9999 SCT025 17/11 Q1033 RMK WIND RWY13 VRB04KT RWY31 VRB05KT;",
"08509599999","2010-11-07T14:00:00","4","38.6655","-28.175817","94.79","SAO JORGE, PO","FM-15","LPSJ ","V020","999,9,V,0021,1","22000,1,9,N","011265,1,N,1","+0170,1","+0110,1","99999,9","04,5,+00750,1,99,9",,,,"04,99,1,99,9,99,9,99999,9,99,9,99,9",,"10318,1,99999,9",,,,,,"MET088METAR LPSJ 071400Z /////KT 9999 SCT025 17/11 Q1032 RMK WIND RWY13 VRB04KT RWY31 VRB05KT;",
"08509599999","2010-11-07T15:00:00","4","38.6655","-28.175817","94.79","SAO JORGE, PO","FM-15","LPSJ ","V020","999,9,9,9999,9","22000,1,9,N","011265,1,N,1","+0180,1","+0100,1","99999,9","02,5,+00900,1,99,9",,,,"02,99,1,99,9,99,9,99999,9,99,9,99,9",,"10318,1,99999,9",,,,,,"MET094METAR LPSJ 071500Z /////KT 9999 FEW030 18/10 Q1032 RMK WIND RWY13 06010G20KT RWY31 07010G22KT;",
"08509599999","2010-11-07T16:00:00","4","38.6655","-28.175817","94.79","SAO JORGE, PO","FM-15","LPSJ ","V020","999,9,9,9999,9","22000,1,9,N","011265,1,N,1","+0190,1","+0110,1","99999,9","04,5,+00900,1,99,9",,,,"04,99,1,99,9,99,9,99999,9,99,9,99,9",,"10312,1,99999,9",,,,,,"MET088METAR LPSJ 071600Z /////KT 9999 SCT030 19/11 Q1031 RMK WIND RWY13 06015KT RWY31 06014KT;",
"08509599999","2010-11-07T17:00:00","4","38.6655","-28.175817","94.79","SAO JORGE, PO","FM-15","LPSJ ","V020","999,9,9,9999,9","22000,1,9,N","011265,1,N,1","+0170,1","+0120,1","99999,9","02,5,+00750,1,99,9",,,,"02,99,1,99,9,99,9,99999,9,99,9,99,9",,"10312,1,99999,9",,,,,,"MET110METAR LPSJ 071700Z /////KT 9999 FEW025 17/12 Q1031 RMK WIND RWY13 07012G22KT 030V120 RWY31 06011G21KT 350V150;",
"08509599999","2010-11-07T18:00:00","4","38.6655","-28.175817","94.79","SAO JORGE, PO","FM-15","LPSJ ","V020","999,9,9,9999,9","22000,1,9,N","011265,1,N,1","+0160,1","+0120,1","99999,9","02,5,+00750,1,99,9",,,,"02,99,1,99,9,99,9,99999,9,99,9,99,9",,"10318,1,99999,9",,,,,,"MET102METAR LPSJ 071800Z /////KT 9999 FEW025 16/12 Q1032 RMK RWY13 05013KT 340V110 RWY31 05012G22KT 350V100;",
"08509599999","2010-11-08T10:00:00","4","38.6655","-28.175817","94.79","SAO JORGE, PO","FM-15","LPSJ ","V020","999,9,9,9999,9","99999,9,C,N","011265,1,N,1","+0150,1","+0100,1","99999,9","02,5,+00540,1,99,9","04,5,+00900,1,99,9",,,"04,99,1,99,9,99,9,99999,9,99,9,99,9",,"10281,1,99999,9",,,,,,"MET114METAR LPSJ 081000Z /////KT 9999 FEW018 SCT030 15/10 Q1028 RMK WIND RWY13 32006G16KT 280V360 RWY31 31011KT 260V350;","P01 009003SCOCIG"
"08509599999","2010-11-08T11:00:00","4","38.6655","-28.175817","94.79","SAO JORGE, PO","FM-15","LPSJ ","V020","999,9,9,9999,9","99999,9,C,N","011265,1,N,1","+0160,1","+0100,1","99999,9","02,5,+00600,1,99,9","04,5,+00900,1,99,9",,,"04,99,1,99,9,99,9,99999,9,99,9,99,9",,"10281,1,99999,9",,,,,,"MET117METAR LPSJ 081100Z /////KT 9999 FEW020 SCT030 16/10 Q1028 RMK EIND RWY13 32005G16KT 300V360 RWY31 32009G22KT 290V350;","P01 009003SCOCIG"
"08509599999","2010-11-08T12:00:00","4","38.6655","-28.175817","94.79","SAO JORGE, PO","FM-15","LPSJ ","V020","999,9,9,9999,9","99999,9,C,N","011265,1,N,1","+0170,1","+0110,1","99999,9","02,5,+00600,1,99,9","04,5,+00900,1,99,9",,,"04,99,1,99,9,99,9,99999,9,99,9,99,9",,"10281,1,99999,9",,,,,,"MET111METAR LPSJ 081200Z /////KT 9999 FEW020 SCT030 17/11 Q1028 RMK WIND RWY13 33010KT 300V020 RWY31 32012KT 300V020;","P01 009003SCOCIG"
"08509599999","2010-11-08T13:00:00","4","38.6655","-28.175817","94.79","SAO JORGE, PO","FM-15","LPSJ ","V020","999,9,V,0026,1","99999,9,C,N","011265,1,N,1","+0180,1","+0120,1","99999,9","02,5,+00600,1,99,9","04,5,+00900,1,99,9",,,"04,99,1,99,9,99,9,99999,9,99,9,99,9",,"10271,1,99999,9",,,,,,"MET095METAR LPSJ 081300Z /////KT 9999 FEW020 SCT030 18/12 Q1027 RMK WIND RWY13 VRB05KT RWY31 VRB03KT;","P01 009003SCOCIG"
"08509599999","2010-11-08T14:00:00","4","38.6655","-28.175817","94.79","SAO JORGE, PO","FM-15","LPSJ ","V020","999,9,9,9999,9","99999,9,C,N","011265,1,N,1","+0170,1","+0110,1","99999,9","02,5,+00600,1,99,9","04,5,+00900,1,99,9",,,"04,99,1,99,9,99,9,99999,9,99,9,99,9",,"10271,1,99999,9",,,,,,"MET115METAR LPSJ 081400Z /////KT 9999 FEW020 SCT030 17/11 Q1027 RMK WIND RWY13 33007G17KT 310V010 RWY 32031G23KT 270V360;","P01 009003SCOCIG"
"08509599999","2010-11-08T15:00:00","4","38.6655","-28.175817","94.79","SAO JORGE, PO","FM-15","LPSJ ","V020","999,9,9,9999,9","99999,9,C,N","011265,1,N,1","+0170,1","+0110,1","99999,9","02,5,+00540,1,99,9","04,5,+00900,1,99,9",,,"04,99,1,99,9,99,9,99999,9,99,9,99,9",,"10261,1,99999,9",,,,,,"MET106METAR LPSJ 081500Z /////KT 9999 FEW018 SCT030 17/11 Q1026 RMK WIND RWY13 33009KT 300V360 RWY31 31010G20KT;","P01 009003SCOCIG"
"08509599999","2010-11-08T16:00:00","4","38.6655","-28.175817","94.79","SAO JORGE, PO","FM-15","LPSJ ","V020","999,9,9,9999,9","99999,9,C,N","011265,1,N,1","+0160,1","+0110,1","99999,9","02,5,+00540,1,99,9","04,5,+00900,1,99,9",,,"04,99,1,99,9,99,9,99999,9,99,9,99,9",,"10251,1,99999,9",,,,,,"MET111METAR LPSJ 081600Z /////KT 9999 FEW018 SCT030 16/11 Q1025 RMK WIND RWY13 33011KT 290V360 RWY31 31008KT 270V340;","P01 009003SCOCIG"
"08509599999","2010-11-08T17:00:00","4","38.6655","-28.175817","94.79","SAO JORGE, PO","FM-15","LPSJ ","V020","999,9,9,9999,9","99999,9,C,N","011265,1,N,1","+0160,1","+0110,1","99999,9","02,5,+00540,1,99,9","04,5,+00810,1,99,9",,,"04,99,1,99,9,99,9,99999,9,99,9,99,9",,"10251,1,99999,9",,,,,,"MET117METAR LPSJ 081700Z /////KT 9999 FEW018 SCT027 16/11 Q1025 RMK WIND RWY13 33006G16KT 300V360 RWY31 32009G20KT 270V350;","P01 008103SCOCIG"
"08509599999","2010-11-08T18:00:00","4","38.6655","-28.175817","94.79","SAO JORGE, PO","FM-15","LPSJ ","V020","999,9,9,9999,9","99999,9,C,N","011265,1,N,1","+0160,1","+0110,1","99999,9","02,5,+00510,1,99,9","04,5,+00750,1,99,9",,,"04,99,1,99,9,99,9,99999,9,99,9,99,9",,"10251,1,99999,9",,,,,,"MET117METAR LPSJ 081800Z /////KT 9999 FEW017 SCT025 16/11 Q1025 RMK WIND RWY13 33007G22KT 290V360 RWY31 31009G21KT 270V330;","P01 007503SCOCIG"
"08509599999","2010-11-09T08:00:00","4","38.6655","-28.175817","94.79","SAO JORGE, PO","FM-15","LPSJ ","V020","999,9,9,9999,9","99999,9,C,N","011265,1,N,1","+0140,1","+0120,1","99999,9","04,5,+00420,1,99,9","04,5,+00600,1,99,9",,,"04,99,1,99,9,99,9,99999,9,99,9,99,9",,"10220,1,99999,9",,,,,,"MET095METAR LPSJ 090800Z /////KT 9999 SCT014 SCT020 14/12 Q1022 RMK WIND RWY13 33011KT RWY31 31012KT;","P01 006003SCOCIG"
"08509599999","2010-11-09T09:00:00","4","38.6655","-28.175817","94.79","SAO JORGE, PO","FM-15","LPSJ ","V020","999,9,9,9999,9","99999,9,C,N","011265,1,N,1","+0140,1","+0120,1","99999,9","04,5,+00390,1,99,9","04,5,+00510,1,99,9",,,"04,99,1,99,9,99,9,99999,9,99,9,99,9",,"10220,1,99999,9","80,1",,,,,"MET109METAR LPSJ 090900Z /////KT 9999 -SHRA SCT013 SCT017 14/12 Q1022 RMK WIND RWY13 31010KT RWY31 30009KT 270V330;","P01 005103SCOCIG"
"08509599999","2010-11-09T10:00:00","4","38.6655","-28.175817","94.79","SAO JORGE, PO","FM-15","LPSJ ","V020","999,9,9,9999,9","99999,9,C,N","011265,1,N,1","+0140,1","+0120,1","99999,9","02,5,+00360,1,99,9","04,5,+00510,1,99,9",,,"04,99,1,99,9,99,9,99999,9,99,9,99,9",,"10220,1,99999,9",,,,,,"MET111METAR LPSJ 091000Z /////KT 9999 FEW012 SCT017 14/12 Q1022 RMK WIND RWY13 33012KT 300V360 RWY31 32013KT 280V350;","P01 005103SCOCIG"
"08509599999","2010-11-09T11:00:00","4","38.6655","-28.175817","94.79","SAO JORGE, PO","FM-15","LPSJ ","V020","999,9,V,0026,1","99999,9,C,N","011265,1,N,1","+0150,1","+0120,1","99999,9","04,5,+00360,1,99,9","04,5,+00600,1,99,9",,,"04,99,1,99,9,99,9,99999,9,99,9,99,9",,"10220,1,99999,9",,,,,,"MET095METAR LPSJ 091100Z /////KT 9999 SCT012 SCT020 15/12 Q1022 RMK WIND RWY13 VRB05KT RWY31 VRB07KT;","P01 006003SCOCIG"
"08509599999","2010-11-09T12:00:00","4","38.6655","-28.175817","94.79","SAO JORGE, PO","FM-15","LPSJ ","V020","999,9,V,0026,1","99999,9,C,N","011265,1,N,1","+0160,1","+0120,1","99999,9","04,5,+00420,1,99,9","04,5,+00660,1,99,9",,,"04,99,1,99,9,99,9,99999,9,99,9,99,9",,"10220,1,99999,9",,,,,,"MET106METAR LPSJ 091200Z /////KT 9999 SCT014 SCT022 16/12 Q1022 RMK WIND RWY13 VRB05KT RWY31 34009G19KT 320V030;","P01 006603SCOCIG"
"08509599999","2010-11-09T13:00:00","4","38.6655","-28.175817","94.79","SAO JORGE, PO","FM-15","LPSJ ","V020","999,9,9,9999,9","99999,9,C,N","011265,1,N,1","+0160,1","+0110,1","99999,9","04,5,+00480,1,99,9","04,5,+00750,1,99,9",,,"04,99,1,99,9,99,9,99999,9,99,9,99,9",,"10220,1,99999,9",,,,,,"MET113METAR LPSJ 091300Z /////KT 9999 SCT016 SCT025 16/11 Q1022 RMK WIND RWY13 3300717KT 320V020 RWY31 33010KT 300V030;","P01 007503SCOCIG"
"08509599999","2010-11-09T14:00:00","4","38.6655","-28.175817","94.79","SAO JORGE, PO","FM-15","LPSJ ","V020","999,9,9,9999,9","99999,9,C,N","011265,1,N,1","+0170,1","+0120,1","99999,9","04,5,+00480,1,99,9","04,5,+00750,1,99,9",,,"04,99,1,99,9,99,9,99999,9,99,9,99,9",,"10220,1,99999,9",,,,,,"MET114METAR LPSJ 091400Z /////KT 9999 SCT016 SCT025 17/12 Q1022 RMK WIND RWY13 33006KT 300V020 RWY31 31005G15KT 270V360;","P01 007503SCOCIG"
"08509599999","2010-11-09T15:00:00","4","38.6655","-28.175817","94.79","SAO JORGE, PO","FM-15","LPSJ ","V020","999,9,9,9999,9","99999,9,C,N","011265,1,N,1","+0170,1","+0110,1","99999,9","04,5,+00480,1,99,9","04,5,+00660,1,99,9",,,"04,99,1,99,9,99,9,99999,9,99,9,99,9",,"10210,1,99999,9",,,,,,"MET111METAR LPSJ 091500Z /////KT 9999 SCT016 SCT022 17/11 Q1021 RMK WIND RWY13 34006KT 310V010 RWY31 31008KT 270V360;","P01 006603SCOCIG"
"08509599999","2010-11-09T16:00:00","4","38.6655","-28.175817","94.79","SAO JORGE, PO","FM-15","LPSJ ","V020","999,9,9,9999,9","99999,9,C,N","011265,1,N,1","+0170,1","+0120,1","99999,9","04,5,+00450,1,99,9","04,5,+06000,1,99,9",,,"04,99,1,99,9,99,9,99999,9,99,9,99,9",,"10210,1,99999,9",,,,,,"MET095METAR LPSJ 091600Z /////KT 9999 SCT015 SCT200 17/12 Q1021 RMK WIND RWY13 33008KT RWY31 31008KT;","P01 060003SCOCIG"
"08509599999","2010-11-09T17:00:00","4","38.6655","-28.175817","94.79","SAO JORGE, PO","FM-15","LPSJ ","V020","999,9,V,0026,1","22000,1,9,N","011265,1,N,1","+0150,1","+0130,1","99999,9","04,5,+00420,1,99,9",,,,"04,99,1,99,9,99,9,99999,9,99,9,99,9",,"10210,1,99999,9",,,,,,"MET088METAR LPSJ 091700Z /////KT 9999 SCT014 15/13 Q1021 RMK WIND RWY13 VRB05KT RWY31 VRB04KT;",
"08509599999","2010-11-10T09:00:00","4","38.6655","-28.175817","94.79","SAO JORGE, PO","FM-15","LPSJ ","V020","999,9,9,9999,9","22000,1,9,N","011265,1,N,1","+0130,1","+0120,1","99999,9","02,5,+00600,1,99,9",,,,"02,99,1,99,9,99,9,99999,9,99,9,99,9",,"10220,1,99999,9",,,,,,"MET088METAR LPSJ 100900Z /////KT 9999 FEW020 13/12 Q1022 RMK WIND RWY13 02004KT RWY31 01003KT;",
"08509599999","2010-11-10T10:00:00","4","38.6655","-28.175817","94.79","SAO JORGE, PO","FM-15","LPSJ ","V020","999,9,C,0000,1","22000,1,9,N","011265,1,N,1","+0140,1","+0120,1","99999,9","02,5,+00480,1,99,9",,,,"02,99,1,99,9,99,9,99999,9,99,9,99,9",,"10230,1,99999,9",,,,,,"MET088METAR LPSJ 101000Z /////KT 9999 FEW016 14/12 Q1023 RMK WIND RWY13 00000KT RWY31 00000KT;",
"08509599999","2010-11-10T11:00:00","4","38.6655","-28.175817","94.79","SAO JORGE, PO","FM-15","LPSJ ","V020","999,9,9,9999,9","22000,1,9,N","011265,1,N,1","+0170,1","+0140,1","99999,9","04,5,+00450,1,99,9",,,,"04,99,1,99,9,99,9,99999,9,99,9,99,9",,"10230,1,99999,9",,,,,,"MET088METAR LPSJ 101100Z /////KT 9999 SCT015 17/14 Q1023 RMK WIND RWY13 31007KT RWY31 29005KT;",
"08509599999","2010-11-10T12:00:00","4","38.6655","-28.175817","94.79","SAO JORGE, PO","FM-15","LPSJ ","V020","999,9,9,9999,9","99999,9,C,N","011265,1,N,1","+0170,1","+0150,1","99999,9","02,5,+00240,1,99,9","04,5,+00450,1,99,9",,,"04,99,1,99,9,99,9,99999,9,99,9,99,9",,"10230,1,99999,9",,,,,,"MET095METAR LPSJ 101200Z /////KT 9999 FEW008 SCT015 17/15 Q1023 RMK WIND RWY13 30005KT RWY31 30004KT;","P01 004503SCOCIG"
"08509599999","2010-11-10T13:00:00","4","38.6655","-28.175817","94.79","SAO JORGE, PO","FM-15","LPSJ ","V020","999,9,V,0026,1","22000,1,9,N","011265,1,N,1","+0180,1","+0140,1","99999,9","04,5,+00450,1,99,9",,,,"04,99,1,99,9,99,9,99999,9,99,9,99,9",,"10230,1,99999,9",,,,,,"MET088METAR LPSJ 101300Z /////KT 9999 SCT015 18/14 Q1023 RMK WIND RWY13 VRB05KT RWY31 VRB05KT;",
"08509599999","2010-11-10T14:00:00","4","38.6655","-28.175817","94.79","SAO JORGE, PO","FM-15","LPSJ ","V020","999,9,V,0026,1","22000,1,9,N","011265,1,N,1","+0180,1","+0140,1","99999,9","04,5,+00450,1,99,9",,,,"04,99,1,99,9,99,9,99999,9,99,9,99,9",,"10220,1,99999,9",,,,,,"MET088METAR LPSJ 101400Z /////KT 9999 SCT015 18/14 Q1022 RMK WIND RWY13 VRB05KT RWY31 VRB03KT;",
"08509599999","2010-11-10T15:00:00","4","38.6655","-28.175817","94.79","SAO JORGE, PO","FM-15","LPSJ ","V020","999,9,V,0026,1","22000,1,9,N","011265,1,N,1","+0190,1","+0130,1","99999,9","02,5,+00540,1,99,9",,,,"02,99,1,99,9,99,9,99999,9,99,9,99,9",,"10220,1,99999,9",,,,,,"MET088METAR LPSJ 101500Z /////KT 9999 FEW018 19/13 Q1022 RMK WIND RWY13 VRB05KT RWY31 VRB04KT;",
"08509599999","2010-11-10T17:00:00","4","38.6655","-28.175817","94.79","SAO JORGE, PO","FM-15","LPSJ ","V020","999,9,V,0026,1","22000,1,9,N","011265,1,N,1","+0190,1","+0130,1","99999,9","02,5,+00660,1,99,9",,,,"02,99,1,99,9,99,9,99999,9,99,9,99,9",,"10210,1,99999,9",,,,,,"MET088METAR LPSJ 101700Z /////KT 9999 FEW022 19/13 Q1021 RMK WIND RWY13 VRB05KT RWY31 VRB05KT;",
"08509599999","2010-11-10T18:00:00","4","38.6655","-28.175817","94.79","SAO JORGE, PO","FM-15","LPSJ ","V020","999,9,V,0015,1","99999,9,C,N","011265,1,N,1","+0180,1","+0130,1","99999,9","02,5,+00600,1,99,9","04,5,+00900,1,99,9",,,"04,99,1,99,9,99,9,99999,9,99,9,99,9",,"10220,1,99999,9",,,,,,"MET095METAR LPSJ 101800Z /////KT 9999 FEW020 SCT030 18/13 Q1022 RMK WIND RWY13 VRB03KT RWY31 VRB04KT;","P01 009003SCOCIG"
"08509599999","2010-11-11T08:00:00","4","38.6655","-28.175817","94.79","SAO JORGE, PO","FM-15","LPSJ ","V020","999,9,V,0010,1","99999,9,C,N","011265,1,N,1","+9999,9","+0120,1","99999,9","04,5,+00600,1,99,9","04,5,+00900,1,99,9",,,"04,99,1,99,9,99,9,99999,9,99,9,99,9",,"10220,1,99999,9",,,,,,"MET095METAR LPSJ 110800Z /////KT 9999 SCT020 SCT030 46/12 Q1022 RMK WIND RWY13 VRB02KT RWY31 VRB03KT;","Q01 +04603ATOT  P01 009003SCOCIG"
"08509599999","2010-11-11T09:00:00","4","38.6655","-28.175817","94.79","SAO JORGE, PO","FM-15","LPSJ ","V020","999,9,V,0021,1","99999,9,C,N","011265,1,N,1","+9999,9","+0130,1","99999,9","02,5,+00600,1,99,9","04,5,+00810,1,99,9",,,"04,99,1,99,9,99,9,99999,9,99,9,99,9",,"10220,1,99999,9",,,,,,"MET096METAR LPSJ 110900Z /////KT 9999 FEW020 SCT027 16/13 Q1022 RMKI WIND RWY13 VRB04KT RWY31 VRB03KT;","Q01+001603ATOT  P01 008103SCOCIG"
"08509599999","2010-11-11T10:00:00","4","38.6655","-28.175817","94.79","SAO JORGE, PO","FM-15","LPSJ ","V020","999,9,V,0015,1","99999,9,C,N","011265,1,N,1","+0180,1","+0130,1","99999,9","02,5,+00600,1,99,9","04,5,+00900,1,99,9",,,"04,99,1,99,9,99,9,99999,9,99,9,99,9",,"10220,1,99999,9",,,,,,"MET095METAR LPSJ 111000Z /////KT 9999 FEW020 SCT030 18/13 Q1022 RMK WIND RWY13 VRB03KT RWY31 VRB02KT;","P01 009003SCOCIG"
"08509599999","2010-11-11T11:00:00","4","38.6655","-28.175817","94.79","SAO JORGE, PO","FM-15","LPSJ ","V020","999,9,9,9999,9","99999,9,C,N","011265,1,N,1","+0190,1","+0140,1","99999,9","02,5,+00600,1,99,9","04,5,+00900,1,99,9",,,"04,99,1,99,9,99,9,99999,9,99,9,99,9",,"10220,1,99999,9",,,,,,"MET095METAR LPSJ 111100Z /////KT 9999 FEW020 SCT030 19/14 Q1022 RMK WIND RWY13 14006KT RWY31 13005KT;","P01 009003SCOCIG"
"08509599999","2010-11-11T13:00:00","4","38.6655","-28.175817","94.79","SAO JORGE, PO","FM-15","LPSJ ","V020","999,9,9,9999,9","22000,1,9,N","011265,1,N,1","+0200,1","+0150,1","99999,9","04,5,+00660,1,99,9",,,,"04,99,1,99,9,99,9,99999,9,99,9,99,9",,"10220,1,99999,9",,,,,,"MET103METAR LPSJ 111300Z /////KT 9999 SCT022 20/15 Q1022 RMK WIND RWY13 15006KT 120V180RWY31 14008KT 110V170;",
"08509599999","2010-11-11T14:00:00","4","38.6655","-28.175817","94.79","SAO JORGE, PO","FM-15","LPSJ ","V020","999,9,9,9999,9","22000,1,9,N","011265,1,N,1","+0210,1","+0140,1","99999,9","02,5,+00750,1,99,9",,,,"02,99,1,99,9,99,9,99999,9,99,9,99,9",,"10210,1,99999,9",,,,,,"MET088METAR LPSJ 111400Z /////KT 9999 FEW025 21/14 Q1021 RMK WIND RWY13 15008KT RWY31 14006KT;",
"08509599999","2010-11-11T16:00:00","4","38.6655","-28.175817","94.79","SAO JORGE, PO","FM-15","LPSJ ","V020","999,9,9,9999,9","22000,1,9,N","011265,1,N,1","+0210,1","+0140,1","99999,9","02,5,+00900,1,99,9",,,,"02,99,1,99,9,99,9,99999,9,99,9,99,9",,"10200,1,99999,9",,,,,,"MET088METAR LPSJ 111600Z /////KT 9999 FEW030 21/14 Q1020 RMK WIND RWY13 15007KT RWY31 13008KT;",
"08509599999","2010-11-11T17:00:00","4","38.6655","-28.175817","94.79","SAO JORGE, PO","FM-15","LPSJ ","V020","999,9,9,9999,9","22000,1,9,N","011265,1,N,1","+0210,1","+0140,1","99999,9","04,5,+00600,1,99,9",,,,"04,99,1,99,9,99,9,99999,9,99,9,99,9",,"10200,1,99999,9",,,,,,"MET088METAR LPSJ 111700Z /////KT 9999 SCT020 21/14 Q1020 RMK WIND RWY13 13006KT RWY31 13008KT;",
"08509599999","2010-11-11T18:00:00","4","38.6655","-28.175817","94.79","SAO JORGE, PO","FM-15","LPSJ ","V020","999,9,9,9999,9","22000,1,9,N","011265,1,N,1","+0200,1","+0140,1","99999,9","04,5,+00600,1,99,9",,,,"04,99,1,99,9,99,9,99999,9,99,9,99,9",,"10210,1,99999,9",,,,,,"MET088METAR LPSJ 111800Z /////KT 9999 SCT020 20/14 Q1021 RMK WIND RWY13 12005KT RWY31 13005KT;",
"08509599999","2010-11-12T09:00:00","4","38.6655","-28.175817","94.79","SAO JORGE, PO","FM-15","LPSJ ","V020","999,9,9,9999,9","99999,9,C,N","011265,1,N,1","+0200,1","+0160,1","99999,9","04,5,+00540,1,99,9","04,5,+00900,1,99,9",,,"04,99,1,99,9,99,9,99999,9,99,9,99,9",,"10169,1,99999,9",,,,,,"MET095METAR LPSJ 120900Z /////KT 9999 SCT018 SCT030 20/16 Q1017 RMK WIND RWY13 31004KT RWY31 30005KT;","P01 009003SCOCIG"
"08509599999","2010-11-12T10:00:00","4","38.6655","-28.175817","94.79","SAO JORGE, PO","FM-15","LPSJ ","V020","999,9,9,9999,9","99999,9,C,N","011265,1,N,1","+0190,1","+0170,1","99999,9","04,5,+00420,1,99,9","04,5,+00900,1,99,9",,,"04,99,1,99,9,99,9,99999,9,99,9,99,9",,"10180,1,99999,9",,,,,,"MET095METAR LPSJ 121000Z /////KT 9999 SCT014 SCT030 19/17 Q1018 RMK WIND RWY13 29005KT RWY31 28007KT;","P01 009003SCOCIG"
"08509599999","2010-11-12T11:00:00","4","38.6655","-28.175817","94.79","SAO JORGE, PO","FM-15","LPSJ ","V020","999,9,9,9999,9","99999,9,C,N","011265,1,N,1","+0200,1","+0170,1","99999,9","04,5,+00420,1,99,9","04,5,+00900,1,99,9",,,"04,99,1,99,9,99,9,99999,9,99,9,99,9",,"10180,1,99999,9",,,,,,"MET095METAR LPSJ 121100Z /////KT 9999 SCT014 SCT030 20/17 Q1018 RMK WIND RWY13 29005KT RWY31 27009KT;","P01 009003SCOCIG"
"08509599999","2010-11-12T12:00:00","4","38.6655","-28.175817","94.79","SAO JORGE, PO","FM-15","LPSJ ","V020","999,9,9,9999,9","99999,9,C,N","011265,1,N,1","+0200,1","+0170,1","99999,9","04,5,+00420,1,99,9","04,5,+00900,1,99,9",,,"04,99,1,99,9,99,9,99999,9,99,9,99,9",,"10180,1,99999,9",,,,,,"MET095METAR LPSJ 121200Z /////KT 9999 SCT014 SCT030 20/17 Q1018 RMK WIND RWY13 25004KT RWY31 26007KT;","P01 009003SCOCIG"
"08509599999","2010-11-12T13:00:00","4","38.6655","-28.175817","94.79","SAO JORGE, PO","FM-15","LPSJ ","V020","999,9,9,9999,9","00750,1,C,N","011265,1,N,1","+0210,1","+0180,1","99999,9","04,5,+00390,1,99,9","07,5,+00750,1,99,9",,,"07,99,1,99,9,99,9,99999,9,99,9,99,9",,"10169,1,99999,9",,,,,,"MET095METAR LPSJ 121300Z /////KT 9999 SCT013 BKN025 21/18 Q1017 RMK WIND RWY13 26005KT RWY31 25008KT;",
"08509599999","2010-11-12T14:00:00","4","38.6655","-28.175817","94.79","SAO JORGE, PO","FM-15","LPSJ ","V020","999,9,9,9999,9","99999,9,C,N","011265,1,N,1","+0210,1","+0180,1","99999,9","04,5,+00330,1,99,9","04,5,+00750,1,99,9",,,"04,99,1,99,9,99,9,99999,9,99,9,99,9",,"10169,1,99999,9",,,,,,"MET111METAR LPSJ 121400Z /////KT 9999 SCT011 SCT025 21/18 Q1017 RMK WIND RWY13 26007KT 230V300 RWY31 26009KT 220V300;","P01 007503SCOCIG"
"08509599999","2010-11-12T15:00:00","4","38.6655","-28.175817","94.79","SAO JORGE, PO","FM-15","LPSJ ","V020","999,9,9,9999,9","22000,1,9,N","011265,1,N,1","+0210,1","+0190,1","99999,9","04,5,+00330,1,99,9",,,,"04,99,1,99,9,99,9,99999,9,99,9,99,9",,"10159,1,99999,9",,,,,,"MET104METAR LPSJ 121500Z /////KT 9999 SCT011 21/19 Q1016 RMK WIND RWY13 26006KT 230V310 RWY31 25010KT 230V300;",
"08509599999","2010-11-12T16:00:00","4","38.6655","-28.175817","94.79","SAO JORGE, PO","FM-15","LPSJ ","V020","999,9,9,9999,9","99999,9,C,N","011265,1,N,1","+0210,1","+0190,1","99999,9","04,5,+00330,1,99,9","04,5,+00660,1,99,9",,,"04,99,1,99,9,99,9,99999,9,99,9,99,9",,"10159,1,99999,9",,,,,,"MET111METAR LPSJ 121600Z /////KT 9999 SCT011 SCT022 21/19 Q1016 RMK WIND RWY13 28006KT 240V320 RWY31 26009KT 220V300;","P01 006603SCOCIG"
"08509599999","2010-11-12T17:00:00","4","38.6655","-28.175817","94.79","SAO JORGE, PO","FM-15","LPSJ ","V020","999,9,9,9999,9","99999,9,C,N","011265,1,N,1","+0220,1","+0190,1","99999,9","04,5,+00300,1,99,9","04,5,+02100,1,99,9",,,"04,99,1,99,9,99,9,99999,9,99,9,99,9",,"10149,1,99999,9",,,,,,"MET095METAR LPSJ 121700Z /////KT 9999 SCT010 SCT070 22/19 Q1015 RMK WIND RWY13 24004KT RWY31 24004KT;","P01 021003SCOCIG"
"08509599999","2010-11-12T18:00:00","4","38.6655","-28.175817","94.79","SAO JORGE, PO","FM-15","LPSJ ","V020","999,9,V,0031,1","99999,9,C,N","011265,1,N,1","+0210,1","+0180,1","99999,9","04,5,+00390,1,99,9","04,5,+02100,1,99,9",,,"04,99,1,99,9,99,9,99999,9,99,9,99,9",,"10139,1,99999,9",,,,,,"MET095METAR LPSJ 121800Z /////KT 9999 SCT013 SCT070 21/18 Q1014 RMK WIND RWY13 VRB06KT RWY31 VRB05KT;","P01 021003SCOCIG"
"08509599999","2010-11-13T10:00:00","4","38.6655","-28.175817","94.79","SAO JORGE, PO","FM-15","LPSJ ","V020","999,9,9,9999,9","99999,9,C,N","011265,1,N,1","+0140,1","+0100,1","99999,9","02,5,+00540,1,99,9","04,5,+02100,1,99,9",,,"04,99,1,99,9,99,9,99999,9,99,9,99,9",,"10149,1,99999,9",,,,,,"MET105METAR LPSJ 131000Z /////KT 9999 FEW018 SCT070 14/10 Q1015 RMK WIND RWY13 34016KT 330V030 RWY31 3301525KT;","P01 021003SCOCIG"
"08509599999","2010-11-13T11:00:00","4","38.6655","-28.175817","94.79","SAO JORGE, PO","FM-15","LPSJ ","V020","999,9,9,9999,9","22000,1,9,N","011265,1,N,1","+0150,1","+0100,1","99999,9","04,5,+00600,1,99,9",,,,"04,99,1,99,9,99,9,99999,9,99,9,99,9",,"10159,1,99999,9",,,,,,"MET082METAR LPSJ 131100Z /////KT 9999 SCT020 15/10 Q1016 RMK WIND RWY13 34010KT 32011KT;",
"08509599999","2010-11-13T13:00:00","4","38.6655","-28.175817","94.79","SAO JORGE, PO","FM-15","LPSJ ","V020","999,9,9,9999,9","99999,9,C,N","011265,1,N,1","+0160,1","+0110,1","99999,9","04,5,+00540,1,99,9","04,5,+00900,1,99,9",,,"04,99,1,99,9,99,9,99999,9,99,9,99,9",,"10169,1,99999,9",,,,,,"MET101METAR LPSJ 131300Z /////KT 9999 SCT018 SCT030 16/11 Q1017 RMK WIND RWY13 34012G22KT RWY31 33012G22KT;","P01 009003SCOCIG"
"08509599999","2010-11-13T14:00:00","4","38.6655","-28.175817","94.79","SAO JORGE, PO","FM-15","LPSJ ","V020","999,9,9,9999,9","99999,9,C,N","011265,1,N,1","+0150,1","+0100,1","99999,9","04,5,+00480,1,99,9","04,5,+00900,1,99,9",,,"04,99,1,99,9,99,9,99999,9,99,9,99,9",,"10159,1,99999,9",,,,,,"MET117METAR LPSJ 131400Z /////KT 9999 SCT016 SCT030 15/10 Q1016 RMK WIND RWY13 35013G23KT 320V020 RWY31 34015G25KT 310V010;","P01 009003SCOCIG"
"08509599999","2010-11-13T17:00:00","4","38.6655","-28.175817","94.79","SAO JORGE, PO","FM-15","LPSJ ","V020","999,9,9,9999,9","22000,1,9,N","011265,1,N,1","+0150,1","+0080,1","99999,9","04,5,+00750,1,99,9",,,,"04,99,1,99,9,99,9,99999,9,99,9,99,9",,"10169,1,99999,9",,,,,,"MET110METAR LPSJ 131700Z /////KT 9999 SCT025 15/08 Q1017 RMK WIND RWY13 35011G21KT 310V020 RWY31 33013G24KT 300V010;",
"08509599999","2010-11-13T18:00:00","4","38.6655","-28.175817","94.79","SAO JORGE, PO","FM-15","LPSJ ","V020","999,9,9,9999,9","99999,9,C,N","011265,1,N,1","+0140,1","+0080,1","99999,9","04,5,+00750,1,99,9","04,5,+01050,1,99,9",,,"04,99,1,99,9,99,9,99999,9,99,9,99,9",,"10169,1,99999,9",,,,,,"MET117METAR LPSJ 131800Z /////KT 9999 SCT025 SCT035 14/08 Q1017 RMK WIND RWY13 01009G22KT 330V040 RWY31 35013G26KT 330V010;","P01 010503SCOCIG"
"08509599999","2010-11-14T09:00:00","4","38.6655","-28.175817","94.79","SAO JORGE, PO","FM-15","LPSJ ","V020","999,9,9,9999,9","00900,1,C,N","011265,1,N,1","+0110,1","+0090,1","99999,9","04,5,+00600,1,99,9","07,5,+00900,1,99,9",,,"07,99,1,99,9,99,9,99999,9,99,9,99,9",,"10220,1,99999,9",,,,,,"MET081METAR LPSJ 140900Z /////KT 9999 SCT020 BKN030 11/09 Q1022 RMK WIND RWY13 08003KT;",
"08509599999","2010-11-14T10:00:00","4","38.6655","-28.175817","94.79","SAO JORGE, PO","FM-15","LPSJ ","V020","999,9,V,0015,1","99999,9,C,N","011265,1,N,1","+0120,1","+0090,1","99999,9","04,5,+00600,1,99,9","04,5,+00900,1,99,9",,,"04,99,1,99,9,99,9,99999,9,99,9,99,9",,"10230,1,99999,9",,,,,,"MET095METAR LPSJ 141000Z /////KT 9999 SCT020 SCT030 12/09 Q1023 RMK WIND RWY13 VRB03KT RWY31 VRB02KT;","P01 009003SCOCIG"
"08509599999","2010-11-14T11:00:00","4","38.6655","-28.175817","94.79","SAO JORGE, PO","FM-15","LPSJ ","V020","999,9,V,0010,1","01050,1,C,N","011265,1,N,1","+0130,1","+0100,1","99999,9","04,5,+00750,1,99,9","07,5,+01050,1,99,9",,,"07,99,1,99,9,99,9,99999,9,99,9,99,9",,"10230,1,99999,9",,,,,,"MET096METAR LPSJ 141100Z /////KT 9999 SCT025 BKN035 13/10 Q1023 RNKI WIND RWY13 VRB02KT RWY31 VRB02KT;",
"08509599999","2010-11-14T12:00:00","4","38.6655","-28.175817","94.79","SAO JORGE, PO","FM-15","LPSJ ","V020","999,9,9,9999,9","01050,1,C,N","011265,1,N,1","+0140,1","+0090,1","99999,9","04,5,+00900,1,99,9","07,5,+01050,1,99,9",,,"07,99,1,99,9,99,9,99999,9,99,9,99,9","999,M,+9999,9","10230,1,99999,9",,,,,,"MET095METAR LPSJ 141200Z /////KT 9999 SCT030 BKN035 14/09 Q1023 RMK WIND RWY13 10006KT RWY31 10007KT;","Q01 +00072ATMX  "
"08509599999","2010-11-14T13:00:00","4","38.6655","-28.175817","94.79","SAO JORGE, PO","FM-15","LPSJ ","V020","999,9,9,9999,9","99999,9,C,N","011265,1,N,1","+0150,1","+0070,1","99999,9","04,5,+00900,1,99,9","04,5,+01050,1,99,9",,,"04,99,1,99,9,99,9,99999,9,99,9,99,9","999,M,+9999,9","10230,1,99999,9",,,,,,"MET095METAR LPSJ 141300Z /////KT 9999 SCT030 SCT035 15/07 Q1023 RMK WIND RWY13 10007KT RWY31 10008KT;","Q01 +00082ATMX  P01 010503SCOCIG"
"08509599999","2010-11-14T14:00:00","4","38.6655","-28.175817","94.79","SAO JORGE, PO","FM-15","LPSJ ","V020","999,9,V,0015,1","99999,9,C,N","011265,1,N,1","+0160,1","+0060,1","99999,9","02,5,+00900,1,99,9","04,5,+01050,1,99,9",,,"04,99,1,99,9,99,9,99999,9,99,9,99,9",,"10220,1,99999,9",,,,,,"MET095METAR LPSJ 141400Z /////KT 9999 FEW030 SCT035 16/06 Q1022 RMK WIND RWY13 VRB03KT RWY31 VRB04KT;","P01 010503SCOCIG"
"08509599999","2010-11-14T15:00:00","4","38.6655","-28.175817","94.79","SAO JORGE, PO","FM-15","LPSJ ","V020","999,9,9,9999,9","99999,9,C,N","011265,1,N,1","+0180,1","+0070,1","99999,9","04,5,+00900,1,99,9","04,5,+01050,1,99,9",,,"04,99,1,99,9,99,9,99999,9,99,9,99,9",,"10220,1,99999,9",,,,,,"MET095METAR LPSJ 141500Z /////KT 9999 SCT030 SCT035 18/07 Q1022 RMK WIND RWY13 17005KT RWY31 16005KT;","P01 010503SCOCIG"
"08509599999","2010-11-14T17:00:00","4","38.6655","-28.175817","94.79","SAO JORGE, PO","FM-15","LPSJ ","V020","999,9,9,9999,9","22000,1,9,N","011265,1,N,1","+0170,1","+0070,1","99999,9","02,5,+00900,1,99,9",,,,"02,99,1,99,9,99,9,99999,9,99,9,99,9",,"10220,1,99999,9",,,,,,"MET088METAR LPSJ 141700Z /////KT 9999 FEW030 17/07 Q1022 RMK WIND RWY13 16005KT RWY31 15005KT;",
"08509599999","2010-11-15T09:00:00","4","38.6655","-28.175817","94.79","SAO JORGE, PO","FM-15","LPSJ ","V020","999,9,9,9999,9","22000,1,9,N","011265,1,N,1","+0170,1","+0130,1","99999,9","04,5,+00480,1,99,9",,,,"04,99,1,99,9,99,9,99999,9,99,9,99,9",,"10180,1,99999,9",,,,,,"MET110METAR LPSJ 150900Z /////KT 9999 SCT016 17/13 Q1018 RMK WIND RWY13 13015G25KT 090V180 RWY31 13015G26KT 080V190;",
"08509599999","2010-11-15T10:00:00","4","38.6655","-28.175817","94.79","SAO JORGE, PO","FM-15","LPSJ ","V020","999,9,9,9999,9","99999,9,C,N","011265,1,N,1","+0170,1","+0140,1","99999,9","04,5,+00480,1,99,9","04,5,+00900,1,99,9",,,"04,99,1,99,9,99,9,99999,9,99,9,99,9",,"10169,1,99999,9",,,,,,"MET101METAR LPSJ 151000Z /////KT 9999 SCT016 SCT030 17/14 Q1017 RMK WIND RWY13 13015G26KT RWY31 13013G23KT;","P01 009003SCOCIG"
"08509599999","2010-11-15T11:00:00","4","38.6655","-28.175817","94.79","SAO JORGE, PO","FM-15","LPSJ ","V020","999,9,9,9999,9","00750,1,C,N","011265,1,N,1","+0180,1","+0140,1","99999,9","04,5,+00480,1,99,9","07,5,+00750,1,99,9",,,"07,99,1,99,9,99,9,99999,9,99,9,99,9",,"10169,1,99999,9",,,,,,"MET117METAR LPSJ 151100Z /////KT 9999 SCT016 BKN025 18/14 Q1017 RMK WIND RWY13 13013G23KT 090V190 RWY31 13013G24KT 080V190;",
"08509599999","2010-11-15T12:00:00","4","38.6655","-28.175817","94.79","SAO JORGE, PO","FM-15","LPSJ ","V020","999,9,9,9999,9","99999,9,C,N","011265,1,N,1","+0180,1","+0150,1","99999,9","04,5,+00480,1,99,9","04,5,+00900,1,99,9",,,"04,99,1,99,9,99,9,99999,9,99,9,99,9",,"10139,1,99999,9",,,,,,"MET117METAR LPSJ 151200Z /////KT 9999 SCT016 SCT030 18/15 Q1014 RMK WIND RWY13 14018G33KT 070V210 RWY31 13021G40KT 050V240;","P01 009003SCOCIG"
"08509599999","2010-11-15T13:00:00","4","38.6655","-28.175817","94.79","SAO JORGE, PO","FM-15","LPSJ ","V020","999,9,9,9999,9","00450,1,C,N","008000,1,N,1","+0180,1","+0150,1","99999,9","07,5,+00450,1,99,9","07,5,+00750,1,99,9",,,"07,99,1,99,9,99,9,99999,9,99,9,99,9",,"10149,1,99999,9","81,1",,,,,"MET122METAR LPSJ 151300Z /////KT 8000 SHRA BKN015 BKN025 18/15 Q1015 RMK WIND RWY13 14015G26KT 040V210 RWY31 15018G32KT 070V240;",
"08509599999","2010-11-15T14:00:00","4","38.6655","-28.175817","94.79","SAO JORGE, PO","FM-15","LPSJ ","V020","999,9,9,9999,9","00600,1,C,N","002000,1,N,1","+0180,1","+0160,1","99999,9","04,5,+00360,1,99,9","07,5,+00600,1,99,9","07,5,+02100,1,99,9",,"07,99,1,99,9,99,9,99999,9,99,9,99,9",,"10139,1,99999,9","65,1",,,,,"MET133METAR LPSJ 151400Z /////KT 2000 +RA SCT012 BKN020 BKN070 18/16 Q1014 RERA RMK WIND RWY13 15015G25KT 080V210 RWY31 14017G27KT 080V240;",
"08509599999","2010-11-15T15:00:00","4","38.6655","-28.175817","94.79","SAO JORGE, PO","FM-15","LPSJ ","V020","999,9,9,9999,9","00360,1,C,N","002000,1,N,1","+0180,1","+0160,1","99999,9","04,5,+00240,1,99,9","04,5,+00360,1,99,9","07,5,+00750,1,99,9",,"07,99,1,99,9,99,9,99999,9,99,9,99,9",,"10129,1,99999,9","10,1","65,1",,,,"MET136METAR LPSJ 151500Z /////KT 2000 +RA BR SCT008 SCT012 BKN025 18/16 Q1013 RERA RMK WIND RWY13 14012G22KT 110V180 RWY31 14010G22KT 090V180;",
"08509599999","2010-11-15T16:00:00","4","38.6655","-28.175817","94.79","SAO JORGE, PO","FM-15","LPSJ ","V020","999,9,9,9999,9","00360,1,C,N","008000,1,N,1","+0190,1","+0170,1","99999,9","07,5,+00360,1,99,9","07,5,+00660,1,99,9",,,"07,99,1,99,9,99,9,99999,9,99,9,99,9",,"10119,1,99999,9","61,1",,,,,"MET126METAR LPSJ 151600Z /////KT 8000 -RA BKN012 BKN022 19/17 Q1012 RERA RMK WIND RWY13 15009G20KT 070V230 RWY31 15015G26KT 080V240;",
"08509599999","2010-11-15T17:00:00","4","38.6655","-28.175817","94.79","SAO JORGE, PO","FM-15","LPSJ ","V020","999,9,9,9999,9","00360,1,C,N","008000,1,N,1","+0190,1","+0170,1","99999,9","04,5,+00180,1,99,9","04,5,+00360,1,99,9","07,5,+00660,1,99,9",,"07,99,1,99,9,99,9,99999,9,99,9,99,9",,"10119,1,99999,9","61,1",,,,,"MET133METAR LPSJ 151700Z /////KT 8000 -RA SCT006 SCT012 BKN022 19/17 Q1012 RERA RMK WIND RWY13 15011G22KT 080V210 RWY31 15015G26KT 090V210;",
"08509599999","2010-11-15T18:00:00","4","38.6655","-28.175817","94.79","SAO JORGE, PO","FM-15","LPSJ ","V020","999,9,9,9999,9","00360,1,C,N","009000,1,N,1","+0190,1","+0170,1","99999,9","02,5,+00240,1,99,9","04,5,+00360,1,99,9","07,5,+00600,1,99,9",,"07,99,1,99,9,99,9,99999,9,99,9,99,9",,"10119,1,99999,9","61,1",,,,,"MET133METAR LPSJ 151800Z /////KT 9000 -RA FEW008 SCT012 BKN020 19/17 Q1012 RERA RMK WIND RWY13 20007G17KT 120V270 RWY31 21008G23KT 090V250;",
"08509599999","2010-11-16T08:00:00","4","38.6655","-28.175817","94.79","SAO JORGE, PO","FM-15","LPSJ ","V020","999,9,9,9999,9","00600,1,C,N","011265,1,N,1","+0190,1","+0180,1","99999,9","04,5,+00360,1,99,9","07,5,+00600,1,99,9",,,"07,99,1,99,9,99,9,99999,9,99,9,99,9",,"10139,1,99999,9","80,1",,,,,"MET101METAR LPSJ 160800Z /////KT 9999 -SHRA SCT012 BKN020 19/18 Q1014 RMK WIND RWY13 30010KT RWY31 28011KT;",
"08509599999","2010-11-16T09:00:00","4","38.6655","-28.175817","94.79","SAO JORGE, PO","FM-15","LPSJ ","V020","999,9,9,9999,9","00360,1,C,N","011265,1,N,1","+0180,1","+0170,1","99999,9","02,5,+00240,1,99,9","04,5,+00360,1,99,9","07,5,+00750,1,99,9",,"07,99,1,99,9,99,9,99999,9,99,9,99,9",,"10149,1,99999,9",,,,,,"MET102METAR LPSJ 160900Z /////KT 9999 FEW008 SCT012 BKN025 18/17 Q1015 RMK WIND RWY13 31012KT RWY31 28011KT;",
"08509599999","2010-11-16T10:00:00","4","38.6655","-28.175817","94.79","SAO JORGE, PO","FM-15","LPSJ ","V020","999,9,9,9999,9","00390,1,C,N","011265,1,N,1","+0190,1","+0170,1","99999,9","02,5,+00240,1,99,9","07,5,+00390,1,99,9",,,"07,99,1,99,9,99,9,99999,9,99,9,99,9",,"10169,1,99999,9",,,,,,"MET095METAR LPSJ 161000Z /////KT 9999 FEW008 BKN013 19/17 Q1017 RMK WIND RWY13 35015KT RWY31 35017KT;",
"08509599999","2010-11-16T11:00:00","4","38.6655","-28.175817","94.79","SAO JORGE, PO","FM-15","LPSJ ","V020","999,9,9,9999,9","00750,1,C,N","009000,1,N,1","+0170,1","+0160,1","99999,9","04,5,+00360,1,99,9","04,5,+00750,1,99,9","07,5,+02100,1,99,9",,"07,99,1,99,9,99,9,99999,9,99,9,99,9",,"10169,1,99999,9","51,1",,,,,"MET128METAR LPSJ 161100Z /////KT 9000 -DZ SCT012 SCT025 BKN070 17/16 Q1017 RMK WIND RWY13 01016G26KT 330V050 RWY31 36011G22KT 320V040;",
"08509599999","2010-11-16T12:00:00","4","38.6655","-28.175817","94.79","SAO JORGE, PO","FM-15","LPSJ ","V020","999,9,9,9999,9","22000,1,9,N","011265,1,N,1","+0180,1","+0160,1","99999,9","04,5,+00420,1,99,9",,,,"04,99,1,99,9,99,9,99999,9,99,9,99,9",,"10180,1,99999,9","80,1",,,,,"MET116METAR LPSJ 161200Z /////KT 9999 -SHRA SCT014 18/16 Q1018 RMK WIND RWY13 03021G31KT 340V090 RWY31 03023G33KT 350V050;",
"08509599999","2010-11-16T13:00:00","4","38.6655","-28.175817","94.79","SAO JORGE, PO","FM-15","LPSJ ","V020","999,9,9,9999,9","99999,9,C,N","011265,1,N,1","+0170,1","+0160,1","99999,9","04,5,+00450,1,99,9","04,5,+02100,1,99,9",,,"04,99,1,99,9,99,9,99999,9,99,9,99,9",,"10190,1,99999,9",,,,,,"MET109METAR LPSJ 161300Z /////KT 9999 SCT015 SCT070 17/16 Q1019 RMK WIND RWY13 03017G27KT 360V080 RWY31 02020G30KT;","P01 021003SCOCIG"
"08509599999","2010-11-16T14:00:00","4","38.6655","-28.175817","94.79","SAO JORGE, PO","FM-15","LPSJ ","V020","999,9,9,9999,9","99999,9,C,N","011265,1,N,1","+0170,1","+0140,1","99999,9","02,5,+00450,1,99,9","04,5,+00750,1,99,9",,,"04,99,1,99,9,99,9,99999,9,99,9,99,9",,"10190,1,99999,9",,,,,,"MET117METAR LPSJ 161400Z /////KT 9999 FEW015 SCT025 17/14 Q1019 RMK WIND RWY13 03016G26KT 360V070 RWY31 03019G30KT 360V060;","P01 007503SCOCIG"
"08509599999","2010-11-16T15:00:00","4","38.6655","-28.175817","94.79","SAO JORGE, PO","FM-15","LPSJ ","V020","999,9,9,9999,9","99999,9,C,N","011265,1,N,1","+0170,1","+0140,1","99999,9","02,5,+00450,1,99,9","04,5,+00660,1,99,9",,,"04,99,1,99,9,99,9,99999,9,99,9,99,9",,"10190,1,99999,9",,,,,,"MET117METAR LPSJ 161500Z /////KT 9999 FEW015 SCT022 17/14 Q1019 RMK WIND RWY13 04017G27KT 350V070 RWY31 03020G30KT 360V060;","P01 006603SCOCIG"
"08509599999","2010-11-16T16:00:00","4","38.6655","-28.175817","94.79","SAO JORGE, PO","FM-15","LPSJ ","V020","999,9,9,9999,9","99999,9,C,N","011265,1,N,1","+0170,1","+0130,1","99999,9","02,5,+00480,1,99,9","04,5,+00750,1,99,9",,,"04,99,1,99,9,99,9,99999,9,99,9,99,9",,"10190,1,99999,9",,,,,,"MET117METAR LPSJ 161600Z /////KT 9999 FEW016 SCT025 17/13 Q1019 RMK WIND RWY13 04016G27KT 360V070 RWY31 03018G28KT 350V050;","P01 007503SCOCIG"
"08509599999","2010-11-16T18:00:00","4","38.6655","-28.175817","94.79","SAO JORGE, PO","FM-15","LPSJ ","V020","999,9,9,9999,9","99999,9,C,N","011265,1,N,1","+0160,1","+0110,1","99999,9","04,5,+00450,1,99,9","04,5,+00750,1,99,9",,,"04,99,1,99,9,99,9,99999,9,99,9,99,9",,"10210,1,99999,9",,,,,,"MET114METAR LPSJ 161800Z /////KT 9999 SCT015 SCT025 16/11 Q1021 RMK WIND RWY13 04018KT 360V060 RWY31 03016G26KT 350V060;","P01 007503SCOCIG"
"08509599999","2010-11-17T09:00:00","4","38.6655","-28.175817","94.79","SAO JORGE, PO","FM-15","LPSJ ","V020","999,9,9,9999,9","06000,1,C,N","011265,1,N,1","+0140,1","+0080,1","99999,9","02,5,+00600,1,99,9","07,5,+06000,1,99,9",,,"07,99,1,99,9,99,9,99999,9,99,9,99,9","999,M,+9999,9","10251,1,99999,9",,,,,,"MET095METAR LPSJ 170900Z /////KT 9999 FEW020 BKN200 14/08 Q1025 RMK WIND RWY13 11005KT RWY31 10006KT;","Q01 +00062ATMX  "
"08509599999","2010-11-17T10:00:00","4","38.6655","-28.175817","94.79","SAO JORGE, PO","FM-15","LPSJ ","V020","999,9,9,9999,9","02100,1,C,N","011265,1,N,1","+0150,1","+0090,1","99999,9","02,5,+00600,1,99,9","07,5,+02100,1,99,9",,,"07,99,1,99,9,99,9,99999,9,99,9,99,9",,"10251,1,99999,9",,,,,,"MET095METAR LPSJ 171000Z /////KT 9999 FEW020 BKN070 15/09 Q1025 RMK WIND RWY13 14005KT RWY31 13006KT;",
"08509599999","2010-11-17T11:00:00","4","38.6655","-28.175817","94.79","SAO JORGE, PO","FM-15","LPSJ ","V020","999,9,9,9999,9","02400,1,C,N","011265,1,N,1","+0150,1","+0100,1","99999,9","02,5,+00600,1,99,9","07,5,+02400,1,99,9",,,"07,99,1,99,9,99,9,99999,9,99,9,99,9","999,M,+9999,9","10251,1,99999,9",,,,,,"MET095METAR LPSJ 171100Z /////KT 9999 FEW020 BKN080 15/10 Q1025 RMK WIND RWY13 12006KT RWY31 11007KT;","Q01 -00072ATMX  "
"08509599999","2010-11-17T12:00:00","4","38.6655","-28.175817","94.79","SAO JORGE, PO","FM-15","LPSJ ","V020","999,9,9,9999,9","02400,1,C,N","011265,1,N,1","+0150,1","+0100,1","99999,9","02,5,+00750,1,99,9","07,5,+02400,1,99,9",,,"07,99,1,99,9,99,9,99999,9,99,9,99,9",,"10251,1,99999,9",,,,,,"MET095METAR LPSJ 171200Z /////KT 9999 FEW025 BKN080 15/10 Q1025 RMK WIND RWY13 14006KT RWY31 13008KT;",
"08509599999","2010-11-17T13:00:00","4","38.6655","-28.175817","94.79","SAO JORGE, PO","FM-15","LPSJ ","V020","999,9,9,9999,9","01050,1,C,N","011265,1,N,1","+0160,1","+0100,1","99999,9","02,5,+00750,1,99,9","04,5,+01050,1,99,9","07,5,+02400,1,99,9",,"07,99,1,99,9,99,9,99999,9,99,9,99,9",,"10251,1,99999,9",,,,,,"MET102METAR LPSJ 171300Z /////KT 9999 FEW025 SCT035 BKN080 16/10 Q1025 RMK WIND RWY13 13008KT RWY31 12008KT;",
"08509599999","2010-11-17T14:00:00","4","38.6655","-28.175817","94.79","SAO JORGE, PO","FM-15","LPSJ ","V020","999,9,9,9999,9","01050,1,C,N","011265,1,N,1","+0160,1","+0110,1","99999,9","02,5,+00600,1,99,9","04,5,+01050,1,99,9","07,5,+02100,1,99,9",,"07,99,1,99,9,99,9,99999,9,99,9,99,9",,"10240,1,99999,9",,,,,,"MET102METAR LPSJ 171400Z /////KT 9999 FEW020 SCT035 BKN070 16/11 Q1024 RMK WIND RWY13 12011KT RWY31 12010KT;",
"08509599999","2010-11-17T15:00:00","4","38.6655","-28.175817","94.79","SAO JORGE, PO","FM-15","LPSJ ","V020","999,9,9,9999,9","01050,1,C,N","011265,1,N,1","+0160,1","+0100,1","99999,9","02,5,+00660,1,99,9","04,5,+01050,1,99,9","07,5,+02100,1,99,9",,"07,99,1,99,9,99,9,99999,9,99,9,99,9",,"10230,1,99999,9",,,,,,"MET097METAR LPSJ 171500Z /////KT 9999 FEW022 SCT035 BKN070 16/10 Q1023 RMK RWY13 12008KT RWY31 12011KT;",
"08509599999","2010-11-17T16:00:00","4","38.6655","-28.175817","94.79","SAO JORGE, PO","FM-15","LPSJ ","V020","999,9,9,9999,9","01050,1,C,N","011265,1,N,1","+0160,1","+0110,1","99999,9","02,5,+00660,1,99,9","04,5,+01050,1,99,9","07,5,+02100,1,99,9",,"07,99,1,99,9,99,9,99999,9,99,9,99,9",,"10230,1,99999,9",,,,,,"MET102METAR LPSJ 171600Z /////KT 9999 FEW022 SCT035 BKN070 16/11 Q1023 RMK WIND RWY13 12011KT RWY31 12009KT;",
"08509599999","2010-11-17T17:00:00","4","38.6655","-28.175817","94.79","SAO JORGE, PO","FM-15","LPSJ ","V020","999,9,9,9999,9","00900,1,C,N","011265,1,N,1","+0150,1","+0110,1","99999,9","02,5,+00480,1,99,9","04,5,+00900,1,99,9","08,5,+02100,1,99,9",,"08,99,1,99,9,99,9,99999,9,99,9,99,9",,"10220,1,99999,9",,,,,,"MET102METAR LPSJ 171700Z /////KT 9999 FEW016 SCT030 OVC070 15/11 Q1022 RMK WIND RWY13 12013KT RWY31 12012KT;",
"08509599999","2010-11-17T18:00:00","4","38.6655","-28.175817","94.79","SAO JORGE, PO","FM-15","LPSJ ","V020","999,9,9,9999,9","00900,1,C,N","011265,1,N,1","+0150,1","+0120,1","99999,9","02,5,+00540,1,99,9","04,5,+00900,1,99,9","08,5,+02100,1,99,9",,"08,99,1,99,9,99,9,99999,9,99,9,99,9",,"10220,1,99999,9","61,1",,,,,"MET111METAR LPSJ 171800Z /////KT 9999 -RA FEW018 SCT030 OVC070 15/12 Q1022 RERA RMK WIND RWY13 12012KT RWY31 12013KT;",
"08509599999","2010-11-18T08:00:00","4","38.6655","-28.175817","94.79","SAO JORGE, PO","FM-15","LPSJ ","V020","999,9,9,9999,9","00660,1,C,N","011265,1,N,1","+0170,1","+0160,1","99999,9","04,5,+00390,1,99,9","07,5,+00660,1,99,9",,,"07,99,1,99,9,99,9,99999,9,99,9,99,9","999,M,+9999,9","10129,1,99999,9",,,,,,"MET095METAR LPSJ 180800Z /////KT 9999 SCT013 BKN022 17/16 Q1013 RMK WIND RWY13 12008KT RWY31 11009KT;","Q01 -00092ATMX  "
"08509599999","2010-11-18T10:00:00","4","38.6655","-28.175817","94.79","SAO JORGE, PO","FM-15","LPSJ ","V020","999,9,9,9999,9","00390,1,C,N","011265,1,N,1","+0170,1","+0170,1","99999,9","02,5,+00240,1,99,9","07,5,+00390,1,99,9","07,5,+00600,1,99,9",,"07,99,1,99,9,99,9,99999,9,99,9,99,9","999,M,+9999,9","10139,1,99999,9",,,,,,"MET102METAR LPSJ 181000Z /////KT 9999 FEW008 BKN013 BKN020 17/17 Q1014 RMK WIND RWY13 11006KT RWY31 10005KT;","Q01 +00052ATMX  "
"08509599999","2010-11-18T11:00:00","4","38.6655","-28.175817","94.79","SAO JORGE, PO","FM-15","LPSJ ","V020","999,9,9,9999,9","00420,1,C,N","011265,1,N,1","+0180,1","+0170,1","99999,9","02,5,+00180,1,99,9","07,5,+00420,1,99,9","07,5,+00660,1,99,9",,"07,99,1,99,9,99,9,99999,9,99,9,99,9","999,M,+9999,9","10129,1,99999,9",,,,,,"MET102METAR LPSJ 181100Z /////KT 9999 FEW006 BKN014 BKN022 18/17 Q1013 RMK WIND RWY13 12004KT RWY31 11003KT;","Q01 -00032ATMX  "
"08509599999","2010-11-18T12:00:00","4","38.6655","-28.175817","94.79","SAO JORGE, PO","FM-15","LPSJ ","V020","999,9,V,0015,1","00390,1,C,N","009000,1,N,1","+0180,1","+0170,1","99999,9","02,5,+00180,1,99,9","07,5,+00390,1,99,9","07,5,+00660,1,99,9",,"07,99,1,99,9,99,9,99999,9,99,9,99,9",,"10129,1,99999,9","61,1",,,,,"MET111METAR LPSJ 181200Z /////KT 9000 -RA FEW006 BKN013 BKN022 18/17 Q1013 RERA RMK WIND RWY13 VRB03KT RWY31 VRB02KT;",
"08509599999","2010-11-18T13:00:00","4","38.6655","-28.175817","94.79","SAO JORGE, PO","FM-15","LPSJ ","V020","999,9,V,0015,1","00750,1,C,N","011265,1,N,1","+0180,1","+0180,1","99999,9","04,5,+00300,1,99,9","04,5,+00750,1,99,9","07,5,+02100,1,99,9",,"07,99,1,99,9,99,9,99999,9,99,9,99,9",,"10139,1,99999,9","61,1",,,,,"MET106METAR LPSJ 181300Z /////KT 9999 -RA SCT010 SCT025 BKN070 18/18 Q1014 RERA RMK RWY13 VRB03KT RWY31 VRB02KT;",
"08509599999","2010-11-18T14:00:00","4","38.6655","-28.175817","94.79","SAO JORGE, PO","FM-15","LPSJ ","V020","999,9,9,9999,9","00330,1,C,N","011265,1,N,1","+0190,1","+0180,1","99999,9","02,5,+00090,1,99,9","04,5,+00330,1,99,9","07,5,+00750,1,99,9",,"07,99,1,99,9,99,9,99999,9,99,9,99,9",,"10129,1,99999,9","80,1",,,,,"MET108METAR LPSJ 181400Z /////KT 9999 -SHRA FEW003 SCT011 BKN025 19/18 Q1013 RMK WIND RWY13 31004KT RWY31 30003KT;",
"08509599999","2010-11-18T15:00:00","4","38.6655","-28.175817","94.79","SAO JORGE, PO","FM-15","LPSJ ","V020","999,9,9,9999,9","00360,1,C,N","011265,1,N,1","+0190,1","+0180,1","99999,9","02,5,+00210,1,99,9","04,5,+00360,1,99,9","07,5,+00750,1,99,9",,"07,99,1,99,9,99,9,99999,9,99,9,99,9",,"10119,1,99999,9",,,,,,"MET102METAR LPSJ 181500Z /////KT 9999 FEW007 SCT012 BKN025 19/18 Q1012 RMK WIND RWY13 31006KT RWY31 29007KT;",
"08509599999","2010-11-18T16:00:00","4","38.6655","-28.175817","94.79","SAO JORGE, PO","FM-15","LPSJ ","V020","999,9,9,9999,9","02100,1,C,N","011265,1,N,1","+0190,1","+0180,1","99999,9","04,5,+00330,1,99,9","07,5,+02100,1,99,9",,,"07,99,1,99,9,99,9,99999,9,99,9,99,9",,"10119,1,99999,9",,,,,,"MET095METAR LPSJ 181600Z /////KT 9999 SCT011 BKN070 19/18 Q1012 RMK WIND RWY13 32007KT RWY31 31008KT;",
"08509599999","2010-11-18T17:00:00","4","38.6655","-28.175817","94.79","SAO JORGE, PO","FM-15","LPSJ ","V020","999,9,9,9999,9","00750,1,C,N","011265,1,N,1","+0190,1","+0180,1","99999,9","02,5,+00300,1,99,9","04,5,+00750,1,99,9","07,5,+02100,1,99,9",,"07,99,1,99,9,99,9,99999,9,99,9,99,9",,"10119,1,99999,9",,,,,,"MET102METAR LPSJ 181700Z /////KT 9999 FEW010 SCT025 BKN070 19/18 Q1012 RMK WIND RWY13 32008KT RWY31 32008KT;",
"08509599999","2010-11-18T18:00:00","4","38.6655","-28.175817","94.79","SAO JORGE, PO","FM-15","LPSJ ","V020","999,9,9,9999,9","00330,1,C,N","011265,1,N,1","+0190,1","+0180,1","99999,9","02,5,+00210,1,99,9","04,5,+00330,1,99,9","07,5,+02100,1,99,9",,"07,99,1,99,9,99,9,99999,9,99,9,99,9",,"10119,1,99999,9",,,,,,"MET102METAR LPSJ 181800Z /////KT 9999 FEW007 SCT011 BKN070 19/18 Q1012 RMK WIND RWY13 31009KT RWY31 30007KT;",
"08509599999","2010-11-19T09:00:00","4","38.6655","-28.175817","94.79","SAO JORGE, PO","FM-15","LPSJ ","V020","999,9,C,0000,1","02100,1,C,N","011265,1,N,1","+0170,1","+0160,1","99999,9","04,5,+00360,1,99,9","07,5,+02100,1,99,9",,,"07,99,1,99,9,99,9,99999,9,99,9,99,9",,"10139,1,99999,9",,,,,,"MET095METAR LPSJ 190900Z /////KT 9999 SCT012 BKN070 17/16 Q1014 RMK WIND RWY13 00000KT RWY31 00000KT;",
"08509599999","2010-11-19T10:00:00","4","38.6655","-28.175817","94.79","SAO JORGE, PO","FM-15","LPSJ ","V020","999,9,V,0010,1","00600,1,C,N","011265,1,N,1","+0170,1","+0160,1","99999,9","02,5,+00360,1,99,9","04,5,+00600,1,99,9","07,5,+02100,1,99,9",,"07,99,1,99,9,99,9,99999,9,99,9,99,9",,"10139,1,99999,9",,,,,,"MET102METAR LPSJ 191000Z /////KT 9999 FEW012 SCT020 BKN070 17/16 Q1014 RMK WIND RWY13 VRB02KT RWY31 VRB02KT;",
"08509599999","2010-11-19T11:00:00","4","38.6655","-28.175817","94.79","SAO JORGE, PO","FM-15","LPSJ ","V020","999,9,V,0026,1","02100,1,C,N","011265,1,N,1","+0180,1","+0170,1","99999,9","02,5,+00360,1,99,9","07,5,+02100,1,99,9",,,"07,99,1,99,9,99,9,99999,9,99,9,99,9",,"10139,1,99999,9",,,,,,"MET095METAR LPSJ 191100Z /////KT 9999 FEW012 BKN070 18/17 Q1014 RMK WIND RWY13 VRB05KT RWY31 VRB05KT;",
"08509599999","2010-11-19T12:00:00","4","38.6655","-28.175817","94.79","SAO JORGE, PO","FM-15","LPSJ ","V020","999,9,V,0010,1","00360,1,C,N","011265,1,N,1","+0180,1","+0170,1","99999,9","02,5,+00180,1,99,9","04,5,+00360,1,99,9","07,5,+00900,1,99,9",,"07,99,1,99,9,99,9,99999,9,99,9,99,9",,"10149,1,99999,9",,,,,,"MET102METAR LPSJ 191200Z /////KT 9999 FEW006 SCT012 BKN030 18/17 Q1015 RMK WIND RWY13 VRB02KT RWY31 VRB01KT;",
"08509599999","2010-11-19T13:00:00","4","38.6655","-28.175817","94.79","SAO JORGE, PO","FM-15","LPSJ ","V020","999,9,V,0010,1","01800,1,C,N","011265,1,N,1","+0190,1","+0170,1","99999,9","02,5,+00330,1,99,9","07,5,+01800,1,99,9",,,"07,99,1,99,9,99,9,99999,9,99,9,99,9",,"10149,1,99999,9",,,,,,"MET095METAR LPSJ 191300Z /////KT 9999 FEW011 BKN060 19/17 Q1015 RMK WIND RWY13 VRB02KT RWY31 VRB01KT;",
"08509599999","2010-11-19T14:00:00","4","38.6655","-28.175817","94.79","SAO JORGE, PO","FM-15","LPSJ ","V020","999,9,V,0015,1","00360,1,C,N","011265,1,N,1","+0180,1","+0180,1","99999,9","02,5,+00120,1,99,9","04,5,+00360,1,99,9","07,5,+02100,1,99,9",,"07,99,1,99,9,99,9,99999,9,99,9,99,9",,"10139,1,99999,9",,,,,,"MET102METAR LPSJ 191400Z /////KT 9999 FEW004 SCT012 BKN070 18/18 Q1014 RMK WIND RWY13 VRB03KT RWY31 VRB03KT;",
"08509599999","2010-11-19T15:00:00","4","38.6655","-28.175817","94.79","SAO JORGE, PO","FM-15","LPSJ ","V020","999,9,V,0021,1","00150,1,C,N","004000,1,N,1","+0190,1","+0180,1","99999,9","04,5,+00060,1,99,9","04,5,+00150,1,99,9","07,5,+00300,1,99,9",,"07,99,1,99,9,99,9,99999,9,99,9,99,9",,"10149,1,99999,9","10,1","51,1",,,,"MET109METAR LPSJ 191500Z /////KT 4000 -DZ BR SCT002 SCT005 BKN010 19/18 Q1015 RMK WIND RWY13 VRB04KT RWY31 VRB03KT;",
"08509599999","2010-11-19T16:00:00","4","38.6655","-28.175817","94.79","SAO JORGE, PO","FM-15","LPSJ ","V020","999,9,9,9999,9","00180,1,C,N","009000,1,N,1","+0180,1","+0180,1","99999,9","02,5,+00120,1,99,9","07,5,+00180,1,99,9","07,5,+00750,1,99,9",,"07,99,1,99,9,99,9,99999,9,99,9,99,9",,"10139,1,99999,9","51,1",,,,,"MET106METAR LPSJ 191600Z /////KT 9000 -DZ FEW004 BKN006 BKN025 18/18 Q1014 RMK WIND RWY13 16003KT RWY31 15002KT;",
"08509599999","2010-11-19T17:00:00","4","38.6655","-28.175817","94.79","SAO JORGE, PO","FM-15","LPSJ ","V020","999,9,9,9999,9","00750,1,C,N","011265,1,N,1","+0180,1","+0180,1","99999,9","02,5,+00180,1,99,9","04,5,+00750,1,99,9","07,5,+02100,1,99,9",,"07,99,1,99,9,99,9,99999,9,99,9,99,9",,"10139,1,99999,9",,,,,,"MET102METAR LPSJ 191700Z /////KT 9999 FEW006 SCT025 BKN070 18/18 Q1014 RMK WIND RWY13 15003KT RWY31 15002KT;",
"08509599999","2010-11-19T18:00:00","4","38.6655","-28.175817","94.79","SAO JORGE, PO","FM-15","LPSJ ","V020","999,9,9,9999,9","00750,1,C,N","011265,1,N,1","+0180,1","+0170,1","99999,9","02,5,+00180,1,99,9","04,5,+00750,1,99,9","07,5,+02100,1,99,9",,"07,99,1,99,9,99,9,99999,9,99,9,99,9",,"10149,1,99999,9",,,,,,"MET102METAR LPSJ 191800Z /////KT 9999 FEW006 SCT025 BKN070 18/17 Q1015 RMK WIND RWY13 15003KT RWY31 15002KT;",
"08509599999","2010-11-20T09:00:00","4","38.6655","-28.175817","94.79","SAO JORGE, PO","FM-15","LPSJ ","V020","999,9,9,9999,9","99999,9,C,N","011265,1,N,1","+0190,1","+0180,1","99999,9","02,5,+00360,1,99,9","04,5,+02400,1,99,9",,,"04,99,1,99,9,99,9,99999,9,99,9,99,9","999,M,+9999,9","10169,1,99999,9",,,,,,"MET095METAR LPSJ 200900Z /////KT 9999 FEW012 SCT080 19/18 Q1017 RMK WIND RWY13 11010KT RWY31 11011KT;","Q01 -00112ATMX  P01 024003SCOCIG"
"08509599999","2010-11-20T10:00:00","4","38.6655","-28.175817","94.79","SAO JORGE, PO","FM-15","LPSJ ","V020","999,9,9,9999,9","99999,9,C,N","011265,1,N,1","+0190,1","+0180,1","99999,9","02,5,+00360,1,99,9","04,5,+02400,1,99,9",,,"04,99,1,99,9,99,9,99999,9,99,9,99,9","999,M,+9999,9","10180,1,99999,9",,,,,,"MET095METAR LPSJ 201000Z /////KT 9999 FEW012 SCT080 19/18 Q1018 RMK WIND RWY13 11009KT RWY31 11010KT;","Q01 -00102ATMX  P01 024003SCOCIG"
"08509599999","2010-11-20T11:00:00","4","38.6655","-28.175817","94.79","SAO JORGE, PO","FM-15","LPSJ ","V020","999,9,9,9999,9","99999,9,C,N","011265,1,N,1","+0190,1","+0180,1","99999,9","02,5,+00390,1,99,9","04,5,+02400,1,99,9",,,"04,99,1,99,9,99,9,99999,9,99,9,99,9",,"10180,1,99999,9",,,,,,"MET095METAR LPSJ 201100Z /////KT 9999 FEW013 SCT080 19/18 Q1018 RMK WIND RWY13 12009KT RWT31 12010KT;","P01 024003SCOCIG"
"08509599999","2010-11-20T12:00:00","4","38.6655","-28.175817","94.79","SAO JORGE, PO","FM-15","LPSJ ","V020","999,9,9,9999,9","99999,9,C,N","011265,1,N,1","+0200,1","+0190,1","99999,9","02,5,+00300,1,99,9","04,5,+02400,1,99,9",,,"04,99,1,99,9,99,9,99999,9,99,9,99,9",,"10180,1,99999,9",,,,,,"MET095METAR LPSJ 201200Z /////KT 9999 FEW010 SCT080 20/19 Q1018 RMK WIND RWY13 13006KT RWY31 13007KT;","P01 024003SCOCIG"
"08509599999","2010-11-20T13:00:00","4","38.6655","-28.175817","94.79","SAO JORGE, PO","FM-15","LPSJ ","V020","999,9,9,9999,9","99999,9,C,N","011265,1,N,1","+0210,1","+0190,1","99999,9","02,5,+00390,1,99,9","04,5,+02400,1,99,9",,,"04,99,1,99,9,99,9,99999,9,99,9,99,9",,"10180,1,99999,9",,,,,,"MET095METAR LPSJ 201300Z /////KT 9999 FEW013 SCT080 21/19 Q1018 RMK WIND RWY13 14006KT RWY31 14007KT;","P01 024003SCOCIG"
"08509599999","2010-11-20T14:00:00","4","38.6655","-28.175817","94.79","SAO JORGE, PO","FM-15","LPSJ ","V020","999,9,9,9999,9","22000,1,9,N","011265,1,N,1","+0220,1","+0190,1","99999,9","02,5,+00360,1,99,9",,,,"02,99,1,99,9,99,9,99999,9,99,9,99,9",,"10180,1,99999,9",,,,,,"MET088METAR LPSJ 201400Z /////KT 9999 FEW012 22/19 Q1018 RMK WIND RWY13 15007KT RWY31 14009KT;",
"08509599999","2010-11-20T15:00:00","4","38.6655","-28.175817","94.79","SAO JORGE, PO","FM-15","LPSJ ","V020","999,9,9,9999,9","99999,9,C,N","011265,1,N,1","+0210,1","+0190,1","99999,9","02,5,+00120,1,99,9","04,5,+00300,1,99,9",,,"04,99,1,99,9,99,9,99999,9,99,9,99,9",,"10169,1,99999,9",,,,,,"MET095METAR LPSJ 201500Z /////KT 9999 FEW004 SCT010 21/19 Q1017 RMK WIND RWY13 15009KT RWY31 14010KT;","P01 003003SCOCIG"
"08509599999","2010-11-20T16:00:00","4","38.6655","-28.175817","94.79","SAO JORGE, PO","FM-15","LPSJ ","V020","999,9,9,9999,9","02100,1,C,N","011265,1,N,1","+0210,1","+0190,1","99999,9","02,5,+00420,1,99,9","07,5,+02100,1,99,9",,,"07,99,1,99,9,99,9,99999,9,99,9,99,9",,"10169,1,99999,9",,,,,,"MET095METAR LPSJ 201600Z /////KT 9999 FEW014 BKN070 21/19 Q1017 RMK WIND RWY13 14006KT RWY31 15004KT;",
"08509599999","2010-11-20T17:00:00","4","38.6655","-28.175817","94.79","SAO JORGE, PO","FM-15","LPSJ ","V020","999,9,9,9999,9","02100,1,C,N","011265,1,N,1","+0200,1","+0180,1","99999,9","02,5,+00420,1,99,9","07,5,+02100,1,99,9",,,"07,99,1,99,9,99,9,99999,9,99,9,99,9",,"10169,1,99999,9",,,,,,"MET090METAR LPSJ 201700Z /////KT 9999 FEW014 BKN070 20/18 Q1017 RMK RWY13 13008KT RWY31 13007KT;",
"08509599999","2010-11-20T18:00:00","4","38.6655","-28.175817","94.79","SAO JORGE, PO","FM-15","LPSJ ","V020","999,9,9,9999,9","02400,1,C,N","011265,1,N,1","+0200,1","+0180,1","99999,9","02,5,+00450,1,99,9","07,5,+02400,1,99,9",,,"07,99,1,99,9,99,9,99999,9,99,9,99,9",,"10169,1,99999,9",,,,,,"MET095METAR LPSJ 201800Z /////KT 9999 FEW015 BKN080 20/18 Q1017 RMK WIND RWY13 13006KT RWY31 12007KT;",
"08509599999","2010-11-21T09:00:00","4","38.6655","-28.175817","94.79","SAO JORGE, PO","FM-15","LPSJ ","V020","999,9,9,9999,9","00750,1,C,N","011265,1,N,1","+0180,1","+0170,1","99999,9","04,5,+00360,1,99,9","07,5,+00750,1,99,9",,,"07,99,1,99,9,99,9,99999,9,99,9,99,9","999,M,+9999,9","10139,1,99999,9",,,,,,"MET095METAR LPSJ 210900Z /////KT 9999 SCT012 BKN025 18/17 Q1014 RMK WIND RWY13 12010KT RWY31 11012KT;","Q01 -00122ATMX  "
"08509599999","2010-11-21T10:00:00","4","38.6655","-28.175817","94.79","SAO JORGE, PO","FM-15","LPSJ ","V020","999,9,9,9999,9","99999,9,C,N","011265,1,N,1","+0180,1","+0180,1","99999,9","02,5,+00180,1,99,9","04,5,+00360,1,99,9",,,"04,99,1,99,9,99,9,99999,9,99,9,99,9","999,M,+9999,9","10129,1,99999,9",,,,,,"MET095METAR LPSJ 211000Z /////KT 9999 FEW006 SCT012 18/18 Q1013 RMK WIND RWY13 12011KT RWY31 11009KT;","Q01 -00092ATMX  P01 003603SCOCIG"
"08509599999","2010-11-21T11:00:00","4","38.6655","-28.175817","94.79","SAO JORGE, PO","FM-15","LPSJ ","V020","999,9,9,9999,9","99999,9,C,N","011265,1,N,1","+0190,1","+0180,1","99999,9","02,5,+00180,1,99,9","04,5,+00390,1,99,9",,,"04,99,1,99,9,99,9,99999,9,99,9,99,9",,"10129,1,99999,9",,,,,,"MET095METAR LPSJ 211100Z /////KT 9999 FEW006 SCT013 19/18 Q1013 RMK WIND RWY13 12007KT RWY31 12006KT;","P01 003903SCOCIG"
"08509599999","2010-11-21T12:00:00","4","38.6655","-28.175817","94.79","SAO JORGE, PO","FM-15","LPSJ ","V020","999,9,9,9999,9","99999,9,C,N","011265,1,N,1","+0210,1","+0190,1","99999,9","04,5,+00420,1,99,9","04,5,+02100,1,99,9",,,"04,99,1,99,9,99,9,99999,9,99,9,99,9",,"10129,1,99999,9",,,,,,"MET095METAR LPSJ 211200Z /////KT 9999 SCT014 SCT070 21/19 Q1013 RMK WIND RWY13 14009KT RWY31 13008KT;","P01 021003SCOCIG"
"08509599999","2010-11-21T13:00:00","4","38.6655","-28.175817","94.79","SAO JORGE, PO","FM-15","LPSJ ","V020","999,9,9,9999,9","99999,9,C,N","011265,1,N,1","+0210,1","+0190,1","99999,9","02,5,+00120,1,99,9","04,5,+00420,1,99,9",,,"04,99,1,99,9,99,9,99999,9,99,9,99,9",,"10119,1,99999,9",,,,,,"MET095METAR LPSJ 211300Z /////KT 9999 FEW004 SCT014 21/19 Q1012 RMK WIND RWY13 13011KT RWY31 12012KT;","P01 004203SCOCIG"
"08509599999","2010-11-21T14:00:00","4","38.6655","-28.175817","94.79","SAO JORGE, PO","FM-15","LPSJ ","V020","999,9,9,9999,9","00180,1,C,N","011265,1,N,1","+0200,1","+0180,1","99999,9","02,5,+00120,1,99,9","04,5,+00180,1,99,9","07,5,+00420,1,99,9",,"07,99,1,99,9,99,9,99999,9,99,9,99,9",,"10119,1,99999,9",,,,,,"MET102METAR LPSJ 211400Z /////KT 9999 FEW004 SCT006 BKN014 20/18 Q1012 RMK WIND RWY13 13008KT RWY31 12009KT;",
"08509599999","2010-11-21T15:00:00","4","38.6655","-28.175817","94.79","SAO JORGE, PO","FM-15","LPSJ ","V020","999,9,9,9999,9","00360,1,C,N","011265,1,N,1","+0200,1","+0190,1","99999,9","02,5,+00180,1,99,9","04,5,+00360,1,99,9","07,5,+00660,1,99,9",,"07,99,1,99,9,99,9,99999,9,99,9,99,9",,"10108,1,99999,9",,,,,,"MET102METAR LPSJ 211500Z /////KT 9999 FEW006 SCT012 BKN022 20/19 Q1011 RMK WIND RWY13 13006KT RWY31 12008KT;",
"08509599999","2010-11-21T16:00:00","4","38.6655","-28.175817","94.79","SAO JORGE, PO","FM-15","LPSJ ","V020","999,9,9,9999,9","00360,1,C,N","009000,1,N,1","+0200,1","+0190,1","99999,9","02,5,+00240,1,99,9","04,5,+00360,1,99,9","07,5,+00660,1,99,9",,"07,99,1,99,9,99,9,99999,9,99,9,99,9",,"10102,1,99999,9","61,1",,,,,"MET111METAR LPSJ 211600Z /////KT 9000 -RA FEW008 SCT012 BKN022 20/19 Q1010 RERA RMK WIND RWY13 12004KT RWY31 12003KT;",
"08509599999","2010-11-21T17:00:00","4","38.6655","-28.175817","94.79","SAO JORGE, PO","FM-15","LPSJ ","V020","999,9,9,9999,9","00420,1,C,N","008000,1,N,1","+0200,1","+0180,1","99999,9","02,5,+00210,1,99,9","07,5,+00420,1,99,9","07,5,+00660,1,99,9",,"07,99,1,99,9,99,9,99999,9,99,9,99,9",,"10102,1,99999,9","63,1",,,,,"MET110METAR LPSJ 211700Z /////KT 8000 RA FEW007 BKN014 BKN022 20/18 Q1010 RERA RMK WIND RWY13 11004KT RWY31 12002KT;",
"08509599999","2010-11-21T18:00:00","4","38.6655","-28.175817","94.79","SAO JORGE, PO","FM-15","LPSJ ","V020","999,9,V,0010,1","00360,1,C,N","011265,1,N,1","+0190,1","+0190,1","99999,9","04,5,+00210,1,99,9","04,5,+00360,1,99,9","07,5,+00600,1,99,9",,"07,99,1,99,9,99,9,99999,9,99,9,99,9",,"10102,1,99999,9",,,,,,"MET107METAR LPSJ 211800Z /////KT 9999 SCT007 SCT012 BKN020 19/19 Q1010 RERA RMK WIND RWY13 VRB02KT RWY31 VRB04KT;",
"08509599999","2010-11-22T10:00:00","4","38.6655","-28.175817","94.79","SAO JORGE, PO","FM-15","LPSJ ","V020","999,9,9,9999,9","22000,1,9,N","011265,1,N,1","+0150,1","+0130,1","99999,9","04,5,+00420,1,99,9",,,,"04,99,1,99,9,99,9,99999,9,99,9,99,9",,"10108,1,99999,9",,,,,,"MET088METAR LPSJ 221000Z /////KT 9999 SCT014 15/13 Q1011 RMK WIND RWY13 34014KT RWY31 34015KT;",
"08509599999","2010-11-22T11:00:00","4","38.6655","-28.175817","94.79","SAO JORGE, PO","FM-15","LPSJ ","V020","999,9,9,9999,9","99999,9,C,N","011265,1,N,1","+0150,1","+0130,1","99999,9","04,5,+00420,1,99,9","04,5,+00660,1,99,9",,,"04,99,1,99,9,99,9,99999,9,99,9,99,9",,"10119,1,99999,9",,,,,,"MET095METAR LPSJ 221100Z /////KT 9999 SCT014 SCT022 15/13 Q1012 RMK WIND RWY13 34015KT RWY31 34015KT;","P01 006603SCOCIG"
"08509599999","2010-11-22T12:00:00","4","38.6655","-28.175817","94.79","SAO JORGE, PO","FM-15","LPSJ ","V020","999,9,9,9999,9","99999,9,C,N","011265,1,N,1","+0160,1","+0120,1","99999,9","04,5,+00540,1,99,9","04,5,+00750,1,99,9",,,"04,99,1,99,9,99,9,99999,9,99,9,99,9",,"10119,1,99999,9",,,,,,"MET095METAR LPSJ 221200Z /////KT 9999 SCT018 SCT025 16/12 Q1012 RMK WIND RWY13 31011KT RWY31 31011KT;","P01 007503SCOCIG"
"08509599999","2010-11-22T13:00:00","4","38.6655","-28.175817","94.79","SAO JORGE, PO","FM-15","LPSJ ","V020","999,9,9,9999,9","99999,9,C,N","011265,1,N,1","+0160,1","+0100,1","99999,9","04,5,+00600,1,99,9","04,5,+00900,1,99,9",,,"04,99,1,99,9,99,9,99999,9,99,9,99,9",,"10119,1,99999,9",,,,,,"MET095METAR LPSJ 221300Z /////KT 9999 SCT020 SCT030 16/10 Q1012 RMK WIND RWY13 32013KT RWY31 31014KT;","P01 009003SCOCIG"
"08509599999","2010-11-22T14:00:00","4","38.6655","-28.175817","94.79","SAO JORGE, PO","FM-15","LPSJ ","V020","999,9,9,9999,9","99999,9,C,N","011265,1,N,1","+0160,1","+0100,1","99999,9","04,5,+00660,1,99,9","04,5,+00900,1,99,9",,,"04,99,1,99,9,99,9,99999,9,99,9,99,9",,"10108,1,99999,9",,,,,,"MET095METAR LPSJ 221400Z /////KT 9999 SCT022 SCT030 16/10 Q1011 RMK WIND RWY13 33013KT RWY31 32011KT;","P01 009003SCOCIG"
"08509599999","2010-11-22T15:00:00","4","38.6655","-28.175817","94.79","SAO JORGE, PO","FM-15","LPSJ ","V020","999,9,9,9999,9","99999,9,C,N","011265,1,N,1","+0150,1","+0100,1","99999,9","04,5,+00750,1,99,9","04,5,+01050,1,99,9",,,"04,99,1,99,9,99,9,99999,9,99,9,99,9",,"10108,1,99999,9",,,,,,"MET095METAR LPSJ 221500Z /////KT 9999 SCT025 SCT035 15/10 Q1011 RMK WIND RWY13 34011KT RWY31 32009KT;","P01 010503SCOCIG"
"08509599999","2010-11-22T16:00:00","4","38.6655","-28.175817","94.79","SAO JORGE, PO","FM-15","LPSJ ","V020","999,9,9,9999,9","99999,9,C,N","011265,1,N,1","+0150,1","+0100,1","99999,9","04,5,+00750,1,99,9","04,5,+01050,1,99,9",,,"04,99,1,99,9,99,9,99999,9,99,9,99,9",,"10108,1,99999,9",,,,,,"MET103METAR LPSJ 221600Z /////KT 9999 SCT025 SCT035 15/10 Q1011 RMK WIND RWY13 31008KT 280V340 RWY31 30007KT;","P01 010503SCOCIG"
"08509599999","2010-11-22T17:00:00","4","38.6655","-28.175817","94.79","SAO JORGE, PO","FM-15","LPSJ ","V020","999,9,9,9999,9","99999,9,C,N","011265,1,N,1","+0150,1","+0100,1","99999,9","04,5,+00750,1,99,9","04,5,+01050,1,99,9",,,"04,99,1,99,9,99,9,99999,9,99,9,99,9",,"10108,1,99999,9",,,,,,"MET095METAR LPSJ 221700Z /////KT 9999 SCT025 SCT035 15/10 Q1011 RMK WIND RWY13 31008KT RWY31 30006KT;","P01 010503SCOCIG"
"08509599999","2010-11-22T18:00:00","4","38.6655","-28.175817","94.79","SAO JORGE, PO","FM-15","LPSJ ","V020","999,9,V,0026,1","99999,9,C,N","011265,1,N,1","+0150,1","+0100,1","99999,9","04,5,+00750,1,99,9","04,5,+01050,1,99,9",,,"04,99,1,99,9,99,9,99999,9,99,9,99,9",,"10108,1,99999,9",,,,,,"MET095METAR LPSJ 221800Z /////KT 9999 SCT025 SCT035 15/10 Q1011 RMK WIND RWY13 31007KT RWY31 VRB05KT;","P01 010503SCOCIG"
"08509599999","2010-11-23T08:00:00","4","38.6655","-28.175817","94.79","SAO JORGE, PO","FM-15","LPSJ ","V020","999,9,V,0036,1","99999,9,C,N","011265,1,N,1","+0120,1","+0090,1","99999,9","02,5,+00600,1,99,9","04,5,+00900,1,99,9",,,"04,99,1,99,9,99,9,99999,9,99,9,99,9",,"10102,1,99999,9",,,,,,"MET095METAR LPSJ 230800Z /////KT 9999 FEW020 SCT030 12/09 Q1010 RMK WIND RWY13 VRB07KT RWY31 VRB05KT;","P01 009003SCOCIG"
"08509599999","2010-11-23T09:00:00","4","38.6655","-28.175817","94.79","SAO JORGE, PO","FM-15","LPSJ ","V020","999,9,V,0031,1","99999,9,C,N","011265,1,N,1","+0130,1","+0100,1","99999,9","02,5,+00600,1,99,9","04,5,+02400,1,99,9",,,"04,99,1,99,9,99,9,99999,9,99,9,99,9",,"10102,1,99999,9",,,,,,"MET095METAR LPSJ 230900Z /////KT 9999 FEW020 SCT080 13/10 Q1010 RMK WIND RWY13 VRB06KT RWY31 VRB05KT;","P01 024003SCOCIG"
"08509599999","2010-11-23T10:00:00","4","38.6655","-28.175817","94.79","SAO JORGE, PO","FM-15","LPSJ ","V020","999,9,9,9999,9","99999,9,C,N","011265,1,N,1","+0150,1","+0110,1","99999,9","02,5,+00600,1,99,9","04,5,+06000,1,99,9",,,"04,99,1,99,9,99,9,99999,9,99,9,99,9",,"10102,1,99999,9",,,,,,"MET095METAR LPSJ 231000Z /////KT 9999 FEW020 SCT200 15/11 Q1010 RMK WIND RWY13 10007KT RWY31 09006KT;","P01 060003SCOCIG"
"08509599999","2010-11-23T11:00:00","4","38.6655","-28.175817","94.79","SAO JORGE, PO","FM-15","LPSJ ","V020","999,9,9,9999,9","00900,1,C,N","011265,1,N,1","+0170,1","+0110,1","99999,9","02,5,+00600,1,99,9","04,5,+00900,1,99,9","07,5,+06000,1,99,9",,"07,99,1,99,9,99,9,99999,9,99,9,99,9",,"10108,1,99999,9",,,,,,"MET102METAR LPSJ 231100Z /////KT 9999 FEW020 SCT030 BKN200 17/11 Q1011 RMK WIND RWY13 13007KT RWY31 12005KT;",
"08509599999","2010-11-23T12:00:00","4","38.6655","-28.175817","94.79","SAO JORGE, PO","FM-15","LPSJ ","V020","999,9,V,0015,1","02100,1,C,N","011265,1,N,1","+0190,1","+0130,1","99999,9","02,5,+00600,1,99,9","07,5,+02100,1,99,9",,,"07,99,1,99,9,99,9,99999,9,99,9,99,9",,"10108,1,99999,9",,,,,,"MET095METAR LPSJ 231200Z /////KT 9999 FEW020 BKN070 19/13 Q1011 RMK WIND RWY13 VRB03KT RWY31 VRB02KT;",
"08509599999","2010-11-23T13:00:00","4","38.6655","-28.175817","94.79","SAO JORGE, PO","FM-15","LPSJ ","V020","999,9,V,0021,1","02100,1,C,N","011265,1,N,1","+0170,1","+0140,1","99999,9","02,5,+00600,1,99,9","07,5,+02100,1,99,9",,,"07,99,1,99,9,99,9,99999,9,99,9,99,9",,"10108,1,99999,9",,,,,,"MET100METAR LPSJ 231300Z /////KT 9999 FEW020 BKN070 17/14 Q1011 RMK WIND WIND RWY13 VRB04KT RWY31 VRB03KT;",
"08509599999","2010-11-23T14:00:00","4","38.6655","-28.175817","94.79","SAO JORGE, PO","FM-15","LPSJ ","V020","999,9,9,9999,9","02100,1,C,N","011265,1,N,1","+0170,1","+0140,1","99999,9","02,5,+00600,1,99,9","07,5,+02100,1,99,9",,,"07,99,1,99,9,99,9,99999,9,99,9,99,9",,"10108,1,99999,9",,,,,,"MET094METAR LPSJ 231400Z /////KT 9999 FEW020 BKN070 17/14 Q1011 RMK WIND RWY13 1307KT RWY31 12006KT;",
"08509599999","2010-11-23T15:00:00","4","38.6655","-28.175817","94.79","SAO JORGE, PO","FM-15","LPSJ ","V020","999,9,V,0015,1","02100,1,C,N","011265,1,N,1","+0180,1","+0140,1","99999,9","02,5,+00600,1,99,9","07,5,+02100,1,99,9",,,"07,99,1,99,9,99,9,99999,9,99,9,99,9",,"10102,1,99999,9",,,,,,"MET095METAR LPSJ 231500Z /////KT 9999 FEW020 BKN070 18/14 Q1010 RMK WIND RWY13 13005KT RWY31 VRB03KT;",
"08509599999","2010-11-23T16:00:00","4","38.6655","-28.175817","94.79","SAO JORGE, PO","FM-15","LPSJ ","V020","999,9,V,0005,1","02100,1,C,N","011265,1,N,1","+0180,1","+0140,1","99999,9","04,5,+00600,1,99,9","07,5,+02100,1,99,9",,,"07,99,1,99,9,99,9,99999,9,99,9,99,9",,"10102,1,99999,9",,,,,,"MET095METAR LPSJ 231600Z /////KT 9999 SCT020 BKN070 18/14 Q1010 RMK WIND RWY13 VRB01KT RWY31 VRB02KT;",
"08509599999","2010-11-23T17:00:00","4","38.6655","-28.175817","94.79","SAO JORGE, PO","FM-15","LPSJ ","V020","999,9,9,9999,9","99999,9,C,N","011265,1,N,1","+0170,1","+0150,1","99999,9","04,5,+00420,1,99,9","04,5,+00600,1,99,9",,,"04,99,1,99,9,99,9,99999,9,99,9,99,9",,"10108,1,99999,9",,,,,,"MET095METAR LPSJ 231700Z /////KT 9999 SCT014 SCT020 17/15 Q1011 RMK WIND RWY13 34007KT RWY31 32008KT;","P01 006003SCOCIG"
"08509599999","2010-11-23T18:00:00","4","38.6655","-28.175817","94.79","SAO JORGE, PO","FM-15","LPSJ ","V020","999,9,9,9999,9","99999,9,C,N","011265,1,N,1","+0170,1","+0140,1","99999,9","04,5,+00420,1,99,9","04,5,+00600,1,99,9",,,"04,99,1,99,9,99,9,99999,9,99,9,99,9",,"10108,1,99999,9",,,,,,"MET095METAR LPSJ 231800Z /////KT 9999 SCT014 SCT020 17/14 Q1011 RMK WIND RWY13 01010KT RWY31 36008KT;","P01 006003SCOCIG"
"08509599999","2010-11-24T09:00:00","4","38.6655","-28.175817","94.79","SAO JORGE, PO","FM-15","LPSJ ","V020","999,9,9,9999,9","02400,1,C,N","011265,1,N,1","+0160,1","+0130,1","99999,9","02,5,+00480,1,99,9","04,5,+02400,1,99,9","07,5,+06000,1,99,9",,"07,99,1,99,9,99,9,99999,9,99,9,99,9","999,M,+9999,9","10119,1,99999,9",,,,,,"MET102METAR LPSJ 240900Z /////KT 9999 FEW016 SCT080 BKN200 16/13 Q1012 RMK WIND RWY13 11008KT RWY31 11007KT;","Q01 -00072ATMX  "
"08509599999","2010-11-24T10:00:00","4","38.6655","-28.175817","94.79","SAO JORGE, PO","FM-15","LPSJ ","V020","999,9,9,9999,9","02400,1,C,N","011265,1,N,1","+0160,1","+0130,1","99999,9","02,5,+00480,1,99,9","04,5,+02400,1,99,9","07,5,+06000,1,99,9",,"07,99,1,99,9,99,9,99999,9,99,9,99,9","999,M,+9999,9","10119,1,99999,9",,,,,,"MET102METAR LPSJ 241000Z /////KT 9999 FEW016 SCT080 BKN200 16/13 Q1012 RMK WIND RWY13 11008KT RWY31 11008KT;","Q01 -00082ATMX  "
"08509599999","2010-11-24T11:00:00","4","38.6655","-28.175817","94.79","SAO JORGE, PO","FM-15","LPSJ ","V020","999,9,9,9999,9","02400,1,C,N","011265,1,N,1","+0160,1","+0130,1","99999,9","02,5,+00600,1,99,9","04,5,+02400,1,99,9","07,5,+06000,1,99,9",,"07,99,1,99,9,99,9,99999,9,99,9,99,9","999,M,+9999,9","10119,1,99999,9",,,,,,"MET102METAR LPSJ 241100Z /////KT 9999 FEW020 SCT080 BKN200 16/13 Q1012 RMK WIND RWY13 10007KT RWY31 10008KT;","Q01 +00082ATMX  "
"08509599999","2010-11-24T12:00:00","4","38.6655","-28.175817","94.79","SAO JORGE, PO","FM-15","LPSJ ","V020","999,9,9,9999,9","02400,1,C,N","011265,1,N,1","+0170,1","+0120,1","99999,9","02,5,+00900,1,99,9","04,5,+02400,1,99,9","07,5,+06000,1,99,9",,"07,99,1,99,9,99,9,99999,9,99,9,99,9","999,M,+9999,9","10119,1,99999,9",,,,,,"MET102METAR LPSJ 241200Z /////KT 9999 FEW030 SCT080 BKN200 17/12 Q1012 RMK WIND RWY13 12008KT RWY31 11009KT;","Q01 -00092ATMX  "
"08509599999","2010-11-24T13:00:00","4","38.6655","-28.175817","94.79","SAO JORGE, PO","FM-15","LPSJ ","V020","999,9,9,9999,9","02400,1,C,N","011265,1,N,1","+0170,1","+0130,1","99999,9","02,5,+00750,1,99,9","04,5,+02400,1,99,9","07,5,+06000,1,99,9",,"07,99,1,99,9,99,9,99999,9,99,9,99,9",,"10108,1,99999,9",,,,,,"MET102METAR LPSJ 241300Z /////KT 9999 FEW025 SCT080 BKN200 17/13 Q1011 RMK WIND RWY13 13007KT RWY31 13008KT;",
"08509599999","2010-11-24T14:00:00","4","38.6655","-28.175817","94.79","SAO JORGE, PO","FM-15","LPSJ ","V020","999,9,9,9999,9","02100,1,C,N","011265,1,N,1","+0170,1","+0130,1","99999,9","02,5,+00750,1,99,9","04,5,+02100,1,99,9","07,5,+06000,1,99,9",,"07,99,1,99,9,99,9,99999,9,99,9,99,9",,"10108,1,99999,9",,,,,,"MET118METAR LPSJ 241400Z /////KT 9999 FEW025 SCT070 BKN200 17/13 Q1011 RMK WIND RWY13 14010KT 110V170 RWY31 13010KT 100V160;",
"08509599999","2010-11-24T15:00:00","4","38.6655","-28.175817","94.79","SAO JORGE, PO","FM-15","LPSJ ","V020","999,9,9,9999,9","06000,1,C,N","011265,1,N,1","+0180,1","+0120,1","99999,9","02,5,+00750,1,99,9","07,5,+06000,1,99,9",,,"07,99,1,99,9,99,9,99999,9,99,9,99,9",,"10102,1,99999,9",,,,,,"MET095METAR LPSJ 241500Z /////KT 9999 FEW025 BKN200 18/12 Q1010 RMK WIND RWY13 14008KT RWY31 13007KT;",
"08509599999","2010-11-24T17:00:00","4","38.6655","-28.175817","94.79","SAO JORGE, PO","FM-15","LPSJ ","V020","999,9,9,9999,9","99999,9,C,N","011265,1,N,1","+0170,1","+0140,1","99999,9","02,5,+00540,1,99,9","04,5,+02100,1,99,9",,,"04,99,1,99,9,99,9,99999,9,99,9,99,9",,"10102,1,99999,9",,,,,,"MET095METAR LPSJ 241700Z /////KT 9999 FEW018 SCT070 17/14 Q1010 RMK WIND RWY13 13007KT RWY31 12007KT;","P01 021003SCOCIG"
"08509599999","2010-11-24T18:00:00","4","38.6655","-28.175817","94.79","SAO JORGE, PO","FM-15","LPSJ ","V020","999,9,9,9999,9","02100,1,C,N","011265,1,N,1","+0170,1","+0130,1","99999,9","02,5,+00540,1,99,9","07,5,+02100,1,99,9",,,"07,99,1,99,9,99,9,99999,9,99,9,99,9","999,M,+9999,9","10091,1,99999,9",,,,,,"MET095METAR LPSJ 241800Z /////KT 9999 FEW018 BKN070 17/13 Q1009 RMK WIND RWY13 12008KT RWY31 11007KT;","Q01 -00072ATMX  "
"08509599999","2010-11-25T08:00:00","4","38.6655","-28.175817","94.79","SAO JORGE, PO","FM-15","LPSJ ","V020","999,9,9,9999,9","99999,9,C,N","011265,1,N,1","+0160,1","+0120,1","99999,9","04,5,+00480,1,99,9","04,5,+00750,1,99,9",,,"04,99,1,99,9,99,9,99999,9,99,9,99,9",,"10081,1,99999,9",,,,,,"MET099METAR LPSJ 250800Z /////KT 9999 SCT016 SCT025 16/12 Q1008 RMK WIND RWY13 090010KT RWY31 09010G20KT;","P01 007503SCOCIG"
"08509599999","2010-11-25T09:00:00","4","38.6655","-28.175817","94.79","SAO JORGE, PO","FM-15","LPSJ ","V020","999,9,9,9999,9","99999,9,C,N","011265,1,N,1","+0160,1","+0130,1","99999,9","04,5,+00480,1,99,9","04,5,+00750,1,99,9",,,"04,99,1,99,9,99,9,99999,9,99,9,99,9",,"10091,1,99999,9",,,,,,"MET113METAR LPSJ 250900Z /////KT 9999 SCT016 SCT025 16/13 Q1009 RMK WIND RWY13 07010KT 040V100 RWY31 0500818KT 020V090;","P01 007503SCOCIG"
"08509599999","2010-11-25T10:00:00","4","38.6655","-28.175817","94.79","SAO JORGE, PO","FM-15","LPSJ ","V020","999,9,9,9999,9","00750,1,C,N","011265,1,N,1","+0160,1","+0130,1","99999,9","04,5,+00450,1,99,9","07,5,+00750,1,99,9",,,"07,99,1,99,9,99,9,99999,9,99,9,99,9",,"10091,1,99999,9","80,1",,,,,"MET101METAR LPSJ 251000Z /////KT 9999 -SHRA SCT015 BKN025 16/13 Q1009 RMK WIND RWY13 08013KT RWY31 06014KT;",
"08509599999","2010-11-25T11:00:00","4","38.6655","-28.175817","94.79","SAO JORGE, PO","FM-15","LPSJ ","V020","999,9,9,9999,9","99999,9,C,N","011265,1,N,1","+0160,1","+0130,1","99999,9","04,5,+00480,1,99,9","04,5,+00750,1,99,9",,,"04,99,1,99,9,99,9,99999,9,99,9,99,9",,"10102,1,99999,9",,,,,,"MET095METAR LPSJ 251100Z /////KT 9999 SCT016 SCT025 16/13 Q1010 RMK WIND RWY13 08007KT RWY31 06008KT;","P01 007503SCOCIG"
"08509599999","2010-11-25T12:00:00","4","38.6655","-28.175817","94.79","SAO JORGE, PO","FM-15","LPSJ ","V020","999,9,9,9999,9","99999,9,C,N","011265,1,N,1","+0170,1","+0130,1","99999,9","04,5,+00480,1,99,9","04,5,+00750,1,99,9",,,"04,99,1,99,9,99,9,99999,9,99,9,99,9",,"10108,1,99999,9",,,,,,"MET095METAR LPSJ 251200Z /////KT 9999 SCT016 SCT025 17/13 Q1011 RMK WIND RWY13 07012KT RWY31 06012KT;","P01 007503SCOCIG"
"08509599999","2010-11-25T13:00:00","4","38.6655","-28.175817","94.79","SAO JORGE, PO","FM-15","LPSJ ","V020","999,9,9,9999,9","99999,9,C,N","011265,1,N,1","+0180,1","+0120,1","99999,9","02,5,+00540,1,99,9","04,5,+00750,1,99,9",,,"04,99,1,99,9,99,9,99999,9,99,9,99,9",,"10108,1,99999,9",,,,,,"MET095METAR LPSJ 251300Z /////KT 9999 FEW018 SCT025 18/12 Q1011 RMK WIND RWY13 08013KT RWY31 06013KT;","P01 007503SCOCIG"
"08509599999","2010-11-25T15:00:00","4","38.6655","-28.175817","94.79","SAO JORGE, PO","FM-15","LPSJ ","V020","999,9,9,9999,9","22000,1,9,N","011265,1,N,1","+0200,1","+0140,1","99999,9","02,5,+00750,1,99,9",,,,"02,99,1,99,9,99,9,99999,9,99,9,99,9",,"10102,1,99999,9",,,,,,"MET088METAR LPSJ 251500Z /////KT 9999 FEW025 20/14 Q1010 RMK WIND RWY13 21004KT RWY31 20003KT;",
"08509599999","2010-11-25T16:00:00","4","38.6655","-28.175817","94.79","SAO JORGE, PO","FM-15","LPSJ ","V020","999,9,9,9999,9","22000,1,9,N","011265,1,N,1","+0190,1","+0140,1","99999,9","02,5,+00750,1,99,9",,,,"02,99,1,99,9,99,9,99999,9,99,9,99,9",,"10102,1,99999,9",,,,,,"MET088METAR LPSJ 251600Z /////KT 9999 FEW025 19/14 Q1010 RMK WIND RWY13 21004KT RWY31 21003KT;",
"08509599999","2010-11-25T17:00:00","4","38.6655","-28.175817","94.79","SAO JORGE, PO","FM-15","LPSJ ","V020","999,9,9,9999,9","22000,1,9,N","011265,1,N,1","+0190,1","+0150,1","99999,9","02,5,+00900,1,99,9",,,,"02,99,1,99,9,99,9,99999,9,99,9,99,9",,"10102,1,99999,9",,,,,,"MET088METAR LPSJ 251700Z /////KT 9999 FEW030 19/15 Q1010 RMK WIND RWY13 19003KT RWY31 20002KT;",
"08509599999","2010-11-25T18:00:00","4","38.6655","-28.175817","94.79","SAO JORGE, PO","FM-15","LPSJ ","V020","999,9,9,9999,9","22000,1,9,N","011265,1,N,1","+0190,1","+0140,1","99999,9","02,5,+00600,1,99,9",,,,"02,99,1,99,9,99,9,99999,9,99,9,99,9",,"10108,1,99999,9",,,,,,"MET088METAR LPSJ 251800Z /////KT 9999 FEW020 19/14 Q1011 RMK WIND RWY13 18003KT RWY31 19003KT;",
"08509599999","2010-11-26T12:00:00","4","38.6655","-28.175817","94.79","SAO JORGE, PO","FM-15","LPSJ ","V020","999,9,9,9999,9","22000,1,9,N","011265,1,N,1","+0170,1","+0100,1","99999,9","02,5,+00750,1,99,9",,,,"02,99,1,99,9,99,9,99999,9,99,9,99,9",,"10129,1,99999,9",,,,,,"MET110METAR LPSJ 261200Z /////KT 9999 FEW025 17/10 Q1013 RMK WIND RWY13 07017G27KT 040V110 RWY31 05018G28KT 030V080;",
"08509599999","2010-11-26T13:00:00","4","38.6655","-28.175817","94.79","SAO JORGE, PO","FM-15","LPSJ ","V020","999,9,9,9999,9","22000,1,9,N","011265,1,N,1","+0170,1","+0100,1","99999,9","02,5,+00750,1,99,9",,,,"02,99,1,99,9,99,9,99999,9,99,9,99,9",,"10129,1,99999,9",,,,,,"MET110METAR LPSJ 261300Z /////KT 9999 FEW025 17/10 Q1013 RMK WIND RWY13 09013G23KT 050V170 RWY31 07015G25KT 030V110;",
"08509599999","2010-11-26T14:00:00","4","38.6655","-28.175817","94.79","SAO JORGE, PO","FM-15","LPSJ ","V020","999,9,9,9999,9","22000,1,9,N","011265,1,N,1","+0180,1","+0100,1","99999,9","04,5,+00750,1,99,9",,,,"04,99,1,99,9,99,9,99999,9,99,9,99,9","999,M,+9999,9","10129,1,99999,9",,,,,,"MET110METAR LPSJ 261400Z /////KT 9999 SCT025 18/10 Q1013 RMK WIND RWY13 12012G25KT 080V150 RWY31 10007G24KT 070V150;","Q01 +00072ATMX  "
"08509599999","2010-11-26T15:00:00","4","38.6655","-28.175817","94.79","SAO JORGE, PO","FM-15","LPSJ ","V020","999,9,9,9999,9","22000,1,9,N","011265,1,N,1","+0170,1","+0100,1","99999,9","02,5,+00750,1,99,9",,,,"02,99,1,99,9,99,9,99999,9,99,9,99,9",,"10108,1,99999,9",,,,,,"MET110METAR LPSJ 261500Z /////KT 9999 FEW025 17/10 Q1011 RMK WIND RWY13 09020G30KT 050V140 RWY31 07023G34KT 030V120;",
"08509599999","2010-11-26T16:00:00","4","38.6655","-28.175817","94.79","SAO JORGE, PO","FM-15","LPSJ ","V020","999,9,9,9999,9","99999,9,C,N","011265,1,N,1","+0160,1","+0110,1","99999,9","04,5,+00750,1,99,9","04,5,+06000,1,99,9",,,"04,99,1,99,9,99,9,99999,9,99,9,99,9",,"10108,1,99999,9",,,,,,"MET115METAR LPSJ 261600Z /////KT 9999 SCT025 SCT200 16/11 Q1011 RMK WIND RWY131018G28KT 060V140 RWY31 08016G28KT 050V120;","P01 060003SCOCIG"
"08509599999","2010-11-26T17:00:00","4","38.6655","-28.175817","94.79","SAO JORGE, PO","FM-15","LPSJ ","V020","999,9,9,9999,9","22000,1,9,N","011265,1,N,1","+0160,1","+0090,1","99999,9","04,5,+00840,1,99,9",,,,"04,99,1,99,9,99,9,99999,9,99,9,99,9",,"10102,1,99999,9",,,,,,"MET102METAR LPSJ 261700Z /////KT 9999 SCT028 16/09 Q1010 RMK WIND RWY13 09015G25KT 060V130 RWY31 07015G25KT;",
"08509599999","2010-11-26T18:00:00","4","38.6655","-28.175817","94.79","SAO JORGE, PO","FM-15","LPSJ ","V020","999,9,9,9999,9","22000,1,9,N","011265,1,N,1","+0160,1","+0090,1","99999,9","02,5,+00750,1,99,9",,,,"02,99,1,99,9,99,9,99999,9,99,9,99,9","999,M,+9999,9","10102,1,99999,9",,,,,,"MET099METAR LPSJ 261800Z /////KT 9999 FEW025 16/09 Q1010 RMK WIND RWY13 10017KT 060V120 RWY31 09019G31KT;","Q01 +00172ATMX  "
"08509599999","2010-11-27T09:00:00","4","38.6655","-28.175817","94.79","SAO JORGE, PO","FM-15","LPSJ ","V020","999,9,9,9999,9","99999,9,C,N","011265,1,N,1","+0150,1","+0080,1","99999,9","04,5,+00660,1,99,9","04,5,+02100,1,99,9",,,"04,99,1,99,9,99,9,99999,9,99,9,99,9",,"10091,1,99999,9",,,,,,"MET101METAR LPSJ 270900Z /////KT 9999 SCT022 SCT070 15/08 Q1009 RMK WIND RWY13 11016G26KT RWY31 09020G30KT;","P01 021003SCOCIG"
"08509599999","2010-11-27T10:00:00","4","38.6655","-28.175817","94.79","SAO JORGE, PO","FM-15","LPSJ ","V020","999,9,9,9999,9","99999,9,C,N","011265,1,N,1","+0150,1","+0080,1","99999,9","02,5,+00750,1,99,9","04,5,+06000,1,99,9",,,"04,99,1,99,9,99,9,99999,9,99,9,99,9",,"10091,1,99999,9",,,,,,"MET101METAR LPSJ 271000Z /////KT 9999 FEW025 SCT200 15/08 Q1009 RMK WIND RWY13 10019G30KT RWY31 08021G33KT;","P01 060003SCOCIG"
"08509599999","2010-11-27T11:00:00","4","38.6655","-28.175817","94.79","SAO JORGE, PO","FM-15","LPSJ ","V020","999,9,9,9999,9","22000,1,9,N","011265,1,N,1","+0160,1","+0090,1","99999,9","04,5,+00750,1,99,9",,,,"04,99,1,99,9,99,9,99999,9,99,9,99,9","999,M,+9999,9","10091,1,99999,9",,,,,,"MET110METAR LPSJ 271100Z /////KT 9999 SCT025 16/09 Q1009 RMK WIND RWY13 12018G28KT 090V160 RWY31 11022G32KT 070V140;","Q01 -00222ATMX  "
"08509599999","2010-11-27T12:00:00","4","38.6655","-28.175817","94.79","SAO JORGE, PO","FM-15","LPSJ ","V020","999,9,9,9999,9","22000,1,9,N","011265,1,N,1","+0160,1","+0090,1","99999,9","04,5,+00750,1,99,9",,,,"04,99,1,99,9,99,9,99999,9,99,9,99,9","999,M,+9999,9","10091,1,99999,9",,,,,,"MET102METAR LPSJ 271200Z /////KT 9999 SCT025 16/09 Q1009 RMK WIND RWY13 11023G33KT 080V140 RWY31 10021G36KT;","Q01 -00232ATMX  "
"08509599999","2010-11-27T13:00:00","4","38.6655","-28.175817","94.79","SAO JORGE, PO","FM-15","LPSJ ","V020","999,9,9,9999,9","22000,1,9,N","011265,1,N,1","+0170,1","+0090,1","99999,9","04,5,+00750,1,99,9",,,,"04,99,1,99,9,99,9,99999,9,99,9,99,9",,"10091,1,99999,9",,,,,,"MET109METAR LPSJ 271300Z /////KT 9999 SCT025 17/09 Q1009 RMK WIND RWY13 12021G31KT 090V160 RWY31 1020G33KT 080V150;",
"08509599999","2010-11-27T14:00:00","4","38.6655","-28.175817","94.79","SAO JORGE, PO","FM-15","LPSJ ","V020","999,9,9,9999,9","99999,9,C,N","011265,1,N,1","+0170,1","+0090,1","99999,9","02,5,+00600,1,99,9","04,5,+02400,1,99,9",,,"04,99,1,99,9,99,9,99999,9,99,9,99,9","999,M,+9999,9","10081,1,99999,9",,,,,,"MET109METAR LPSJ 271400Z /////KT 9999 FEW020 SCT080 17/09 Q1008 RMK WIND RWY13 11021G33KT 070V130 RWY31 09025G38KT;","Q01 -00212ATMX  P01 024003SCOCIG"
"08509599999","2010-11-27T15:00:00","4","38.6655","-28.175817","94.79","SAO JORGE, PO","FM-15","LPSJ ","V020","999,9,9,9999,9","99999,9,C,N","011265,1,N,1","+0180,1","+0090,1","99999,9","04,5,+00660,1,99,9","04,5,+06000,1,99,9",,,"04,99,1,99,9,99,9,99999,9,99,9,99,9","999,M,+9999,9","10081,1,99999,9",,,,,,"MET111METAR LPSJ 271500Z /////KT 9999 SCT022 SCT200 18/09 Q1008 RMK WIND 12018G30KT 090V160 RWY31 11022G36KT 070V140;","Q01 -00222ATMX  P01 060003SCOCIG"
"08509599999","2010-11-27T16:00:00","4","38.6655","-28.175817","94.79","SAO JORGE, PO","FM-15","LPSJ ","V020","999,9,9,9999,9","99999,9,C,N","011265,1,N,1","+0150,1","+0100,1","99999,9","02,5,+00480,1,99,9","02,5,+00510,1,02,5","04,5,+01050,1,99,9",,"04,99,1,99,9,99,9,99999,9,99,9,99,9","999,M,+9999,9","10081,1,99999,9","80,1",,,,,"MET124METAR LPSJ 271600Z /////KT 9999 -SHRA FEW016 FEW017TCU SCT035 15/10 Q1008 RMK WIND RWY13 11019G29KT 080V150 RWY31 1018G34KT;","Q01 -00192ATMX  P01 010503SCOCIG"
"08509599999","2010-11-27T17:00:00","4","38.6655","-28.175817","94.79","SAO JORGE, PO","FM-15","LPSJ ","V020","999,9,9,9999,9","99999,9,C,N","011265,1,N,1","+0160,1","+0110,1","99999,9","04,5,+00540,1,99,9","04,5,+06000,1,99,9",,,"04,99,1,99,9,99,9,99999,9,99,9,99,9","999,M,+9999,9","10081,1,99999,9",,,,,,"MET114METAR LPSJ 271700Z /////KT 9999 SCT018 SCT200 16/11 Q1008 RMK WIND RWY13 13021KT 100V160 RWY31 11018G29KT 080V140;","Q01 -00182ATMX  P01 060003SCOCIG"
"08509599999","2010-11-27T18:00:00","4","38.6655","-28.175817","94.79","SAO JORGE, PO","FM-15","LPSJ ","V020","999,9,9,9999,9","99999,9,C,N","011265,1,N,1","+0160,1","+0100,1","99999,9","04,5,+00540,1,99,9","04,5,+06000,1,99,9",,,"04,99,1,99,9,99,9,99999,9,99,9,99,9","999,M,+9999,9","10081,1,99999,9",,,,,,"MET106METAR LPSJ 271800Z /////KT 9999 SCT018 SCT200 16/10 Q1008 RMK WIND RWY13 12019KT 090V150 RWY31 10018G28KT;","Q01 +00182ATMX  P01 060003SCOCIG"
"08509599999","2010-11-28T10:00:00","4","38.6655","-28.175817","94.79","SAO JORGE, PO","FM-15","LPSJ ","V020","999,9,9,9999,9","22000,1,9,N","011265,1,N,1","+0140,1","+0060,1","99999,9","04,5,+00750,1,99,9",,,,"04,99,1,99,9,99,9,99999,9,99,9,99,9",,"10108,1,99999,9",,,,,,"MET110METAR LPSJ 281000Z /////KT 9999 SCT025 14/06 Q1011 RMK WIND RWY13 08018G34KT 040V130 RWY31 07027G39KT 040V110;",
"08509599999","2010-11-28T11:00:00","4","38.6655","-28.175817","94.79","SAO JORGE, PO","FM-15","LPSJ ","V020","999,9,9,9999,9","22000,1,9,N","011265,1,N,1","+0140,1","+0090,1","99999,9","02,5,+00600,1,99,9",,,,"02,99,1,99,9,99,9,99999,9,99,9,99,9",,"10108,1,99999,9",,,,,,"MET110METAR LPSJ 281100Z /////KT 9999 FEW020 14/09 Q1011 RMK WIND RWY13 07032G42KT 030V120 RWY31 06036G48KT 020V090;",
"08509599999","2010-11-28T12:00:00","4","38.6655","-28.175817","94.79","SAO JORGE, PO","FM-15","LPSJ ","V020","999,9,9,9999,9","22000,1,9,N","011265,1,N,1","+0150,1","+0100,1","99999,9","04,5,+00750,1,99,9",,,,"04,99,1,99,9,99,9,99999,9,99,9,99,9",,"10108,1,99999,9",,,,,,"MET110METAR LPSJ 281200Z /////KT 9999 SCT025 15/10 Q1011 RMK WIND RWY13 08020G35KT 050V110 RWY31 07024G38KT 030V090;",
"08509599999","2010-11-28T13:00:00","4","38.6655","-28.175817","94.79","SAO JORGE, PO","FM-15","LPSJ ","V020","999,9,9,9999,9","22000,1,9,N","011265,1,N,1","+0160,1","+0100,1","99999,9","04,5,+00540,1,99,9",,,,"04,99,1,99,9,99,9,99999,9,99,9,99,9",,"10119,1,99999,9",,,,,,"MET110METAR LPSJ 281300Z /////KT 9999 SCT018 16/10 Q1012 RMK WIND RWY13 07019G30KT 030V100 RWY31 07023G34KT 030V090;",
"08509599999","2010-11-28T14:00:00","4","38.6655","-28.175817","94.79","SAO JORGE, PO","FM-15","LPSJ ","V020","999,9,9,9999,9","99999,9,C,N","011265,1,N,1","+0150,1","+0100,1","99999,9","04,5,+00480,1,99,9","04,5,+00750,1,99,9",,,"04,99,1,99,9,99,9,99999,9,99,9,99,9","999,M,+9999,9","10119,1,99999,9",,,,,,"MET116METAR LPSJ 281400Z /////KT 9999 SCT016 SCT025 15/10 Q1012 RMK WIND RWY13 12007G17KT 360V360 RWY31 1100717KT 030V150;","Q01 -00072ATMX  P01 007503SCOCIG"
"08509599999","2010-11-28T15:00:00","4","38.6655","-28.175817","94.79","SAO JORGE, PO","FM-15","LPSJ ","V020","999,9,9,9999,9","00480,5,C,N","011265,1,N,1","+0140,1","+0100,1","99999,9","04,5,+00450,1,99,9","02,5,+00480,1,02,5",,,,"999,M,+9999,9","10108,1,99999,9","80,1",,,,,"MET126METAR LPSJ 281500Z /////KT 9999 -SHRA SCT015 FEW016TCU 14/10 Q1011 RMK WIND RWY13 13014G26KT 080V180 RWY31 10022G36KT 060V150;","Q01+000022SCOTCVQ02 +00222ATMX  "
"08509599999","2010-11-28T16:00:00","4","38.6655","-28.175817","94.79","SAO JORGE, PO","FM-15","LPSJ ","V020","999,9,9,9999,9","99999,9,C,N","011265,1,N,1","+0140,1","+0090,1","99999,9","04,5,+00450,1,99,9","04,5,+00750,1,99,9",,,"04,99,1,99,9,99,9,99999,9,99,9,99,9",,"10108,1,99999,9",,,,,,"MET117METAR LPSJ 281600Z /////KT 9999 SCT015 SCT025 14/09 Q1011 RMK WIND RWY13 15013G23KT 100V190 RWY31 14016G26KT 090V180;","P01 007503SCOCIG"
"08509599999","2010-11-28T17:00:00","4","38.6655","-28.175817","94.79","SAO JORGE, PO","FM-15","LPSJ ","V020","999,9,9,9999,9","99999,9,C,N","011265,1,N,1","+0140,1","+0100,1","99999,9","04,5,+00420,1,99,9","04,5,+00660,1,99,9",,,"04,99,1,99,9,99,9,99999,9,99,9,99,9",,"10108,1,99999,9","80,1",,,,,"MET107METAR LPSJ 281700Z /////KT 9999 -SHRA SCT014 SCT022 14/10 Q1011 RMK WIND RWY13 15004G14KT RWY31 14006G16KT;","P01 006603SCOCIG"
"08509599999","2010-11-29T09:00:00","4","38.6655","-28.175817","94.79","SAO JORGE, PO","FM-15","LPSJ ","V020","999,9,9,9999,9","99999,9,C,N","011265,1,N,1","+0130,1","+0050,1","99999,9","04,5,+00900,1,99,9","04,5,+01200,1,99,9",,,"04,99,1,99,9,99,9,99999,9,99,9,99,9",,"10119,1,99999,9",,,,,,"MET095METAR LPSJ 290900Z /////KT 9999 SCT030 SCT040 13/05 Q1012 RMK WIND RWY13 32005KT RWY31 32004KT;","P01 012003SCOCIG"
"08509599999","2010-11-29T10:00:00","4","38.6655","-28.175817","94.79","SAO JORGE, PO","FM-15","LPSJ ","V020","999,9,9,9999,9","99999,9,C,N","011265,1,N,1","+0130,1","+0050,1","99999,9","04,5,+00900,1,99,9","04,5,+01200,1,99,9",,,"04,99,1,99,9,99,9,99999,9,99,9,99,9",,"10129,1,99999,9",,,,,,"MET114METAR LPSJ 291000Z /////KT 9999 SCT030 SCT040 13/05 Q1013 RMK WIND RWY13 34012KT 300V020 RWY31 32015G25KT 290V350;","P01 012003SCOCIG"
"08509599999","2010-11-29T11:00:00","4","38.6655","-28.175817","94.79","SAO JORGE, PO","FM-15","LPSJ ","V020","999,9,9,9999,9","99999,9,C,N","011265,1,N,1","+0130,1","+0040,1","99999,9","04,5,+00900,1,99,9","04,5,+01500,1,99,9",,,"04,99,1,99,9,99,9,99999,9,99,9,99,9",,"10129,1,99999,9",,,,,,"MET114METAR LPSJ 291100Z /////KT 9999 SCT030 SCT050 13/04 Q1013 RMK WIND RWY13 32012KT 290V360 RWY31 32011G22KT 290V360;","P01 015003SCOCIG"
"08509599999","2010-11-29T12:00:00","4","38.6655","-28.175817","94.79","SAO JORGE, PO","FM-15","LPSJ ","V020","999,9,9,9999,9","99999,9,C,N","011265,1,N,1","+0130,1","+0070,1","99999,9","04,5,+00750,1,99,9","04,5,+01200,1,99,9",,,"04,99,1,99,9,99,9,99999,9,99,9,99,9",,"10129,1,99999,9",,,,,,"MET114METAR LPSJ 291200Z /////KT 9999 SCT025 SCT040 13/07 Q1013 RMK WIND RWY13 32012KT 300V070 RWY31 33013G23KT 290V360;","P01 012003SCOCIG"
"08509599999","2010-11-29T13:00:00","4","38.6655","-28.175817","94.79","SAO JORGE, PO","FM-15","LPSJ ","V020","999,9,9,9999,9","99999,9,C,N","011265,1,N,1","+0130,1","+0080,1","99999,9","02,5,+00540,1,99,9","04,5,+01050,1,99,9",,,"04,99,1,99,9,99,9,99999,9,99,9,99,9",,"10129,1,99999,9",,,,,,"MET114METAR LPSJ 291300Z /////KT 9999 FEW018 SCT035 13/08 Q1013 RMK WIND RWY13 33007KT 300V060 RWY31 31008G20KT 340V350;","P01 010503SCOCIG"
"08509599999","2010-11-29T14:00:00","4","38.6655","-28.175817","94.79","SAO JORGE, PO","FM-15","LPSJ ","V020","999,9,9,9999,9","99999,9,C,N","011265,1,N,1","+0130,1","+0080,1","99999,9","04,5,+00540,1,99,9","04,5,+00900,1,99,9",,,"04,99,1,99,9,99,9,99999,9,99,9,99,9",,"10119,1,99999,9",,,,,,"MET114METAR LPSJ 291400Z /////KT 9999 SCT018 SCT030 13/08 Q1012 RMK WIND RWY13 33012KT 300V020 RWY31 32013G23KT 280V350;","P01 009003SCOCIG"
"08509599999","2010-11-29T15:00:00","4","38.6655","-28.175817","94.79","SAO JORGE, PO","FM-15","LPSJ ","V020","999,9,9,9999,9","99999,9,C,N","011265,1,N,1","+0130,1","+0080,1","99999,9","04,5,+00600,1,99,9","04,5,+00900,1,99,9",,,"04,99,1,99,9,99,9,99999,9,99,9,99,9",,"10108,1,99999,9",,,,,,"MET114METAR LPSJ 291500Z /////KT 9999 SCT020 SCT030 13/08 Q1011 RMK WIND RWY13 35014KT 290V030 RWY31 32018G28KT 260V350;","P01 009003SCOCIG"
"08509599999","2010-11-29T16:00:00","4","38.6655","-28.175817","94.79","SAO JORGE, PO","FM-15","LPSJ ","V020","999,9,9,9999,9","00480,1,C,N","011265,1,N,1","+0130,1","+0090,1","99999,9","07,5,+00480,1,99,9","02,5,+00600,1,02,5",,,,,"10108,1,99999,9",,,,,,"MET120METAR LPSJ 291600Z /////KT 9999 BKN016 FEW020TCU 13/09 Q1011 RMK WIND RWY13 35010G22KT 300V060 RWY31 32008G25KT 230V350;","Q01+000022SCOTCV"
"08509599999","2010-11-29T17:00:00","4","38.6655","-28.175817","94.79","SAO JORGE, PO","FM-15","LPSJ ","V020","999,9,9,9999,9","00540,5,C,N","011265,1,N,1","+0120,1","+0090,1","99999,9","04,5,+00480,1,99,9","02,5,+00540,1,02,5",,,,,"10108,1,99999,9",,,,,,"MET120METAR LPSJ 291700Z /////KT 9999 SCT016 FEW018TCU 12/09 Q1011 RMK WIND RWY13 34009G20KT 300V040 RWY31 33012G22KT 300V060;","Q01+000022SCOTCV"
"08509599999","2010-11-29T18:00:00","4","38.6655","-28.175817","94.79","SAO JORGE, PO","FM-15","LPSJ ","V020","999,9,9,9999,9","22000,1,9,N","011265,1,N,1","+0130,1","+0080,1","99999,9","04,5,+00600,1,99,9",,,,"04,99,1,99,9,99,9,99999,9,99,9,99,9",,"10119,1,99999,9",,,,,,"MET104METAR LPSJ 291800Z /////KT 9999 SCT020 13/08 Q1012 RMK WIND RWY13 32009KT 290V360 RWY31 36004KT 270V100;",
"08509599999","2010-11-30T08:00:00","4","38.6655","-28.175817","94.79","SAO JORGE, PO","FM-15","LPSJ ","V020","999,9,V,0021,1","22000,1,9,N","011265,1,N,1","+0110,1","+0030,1","99999,9","04,5,+00600,1,99,9",,,,"04,99,1,99,9,99,9,99999,9,99,9,99,9",,"10139,1,99999,9",,,,,,"MET088METAR LPSJ 300800Z /////KT 9999 SCT020 11/03 Q1014 RMK WIND RWY13 VRB04KT RWY31 VRB04KT;",
"08509599999","2010-11-30T09:00:00","4","38.6655","-28.175817","94.79","SAO JORGE, PO","FM-15","LPSJ ","V020","999,9,V,0021,1","22000,1,9,N","011265,1,N,1","+0110,1","+0040,1","99999,9","04,5,+00900,1,99,9",,,,"04,99,1,99,9,99,9,99999,9,99,9,99,9",,"10149,1,99999,9",,,,,,"MET088METAR LPSJ 300900Z /////KT 9999 SCT030 11/04 Q1015 RMK WIND RWY13 VRB04KT RWY31 VRB05KT;",
"08509599999","2010-11-30T10:00:00","4","38.6655","-28.175817","94.79","SAO JORGE, PO","FM-15","LPSJ ","V020","999,9,V,0021,1","22000,1,9,N","011265,1,N,1","+0110,1","+0050,1","99999,9","04,5,+00900,1,99,9",,,,"04,99,1,99,9,99,9,99999,9,99,9,99,9",,"10159,1,99999,9",,,,,,"MET088METAR LPSJ 301000Z /////KT 9999 SCT030 11/05 Q1016 RMK WIND RWY13 VRB04KT RWY31 VRB05KT;",
"08509599999","2010-11-30T11:00:00","4","38.6655","-28.175817","94.79","SAO JORGE, PO","FM-15","LPSJ ","V020","999,9,9,9999,9","22000,1,9,N","011265,1,N,1","+0120,1","+0050,1","99999,9","04,5,+00750,1,99,9",,,,"04,99,1,99,9,99,9,99999,9,99,9,99,9",,"10159,1,99999,9",,,,,,"MET104METAR LPSJ 301100Z /////KT 9999 SCT025 12/05 Q1016 RMK WIND RWY13 06007KT 360V150 RWY31 06012KT 330V090;",
"08509599999","2010-11-30T12:00:00","4","38.6655","-28.175817","94.79","SAO JORGE, PO","FM-15","LPSJ ","V020","999,9,9,9999,9","22000,1,9,N","011265,1,N,1","+0120,1","+0050,1","99999,9","04,5,+00900,1,99,9",,,,"04,99,1,99,9,99,9,99999,9,99,9,99,9",,"10169,1,99999,9",,,,,,"MET104METAR LPSJ 301200Z /////KT 9999 SCT030 12/05 Q1017 RMK WIND RWY13 05010KT 360V080 RWY31 04011KT 350V080;",
"08509599999","2010-11-30T13:00:00","4","38.6655","-28.175817","94.79","SAO JORGE, PO","FM-15","LPSJ ","V020","999,9,9,9999,9","99999,9,C,N","011265,1,N,1","+0130,1","+0050,1","99999,9","04,5,+00900,1,99,9","04,5,+02100,1,99,9",,,"04,99,1,99,9,99,9,99999,9,99,9,99,9",,"10159,1,99999,9",,,,,,"MET111METAR LPSJ 301300Z /////KT 9999 SCT030 SCT070 13/05 Q1016 RMK WIND RWY13 06012KT 360V090 RWY31 05014KT 010V070;","P01 021003SCOCIG"
"08509599999","2010-11-30T14:00:00","4","38.6655","-28.175817","94.79","SAO JORGE, PO","FM-15","LPSJ ","V020","999,9,9,9999,9","99999,9,C,N","011265,1,N,1","+0130,1","+0050,1","99999,9","04,5,+00900,1,99,9","04,5,+02100,1,99,9",,,"04,99,1,99,9,99,9,99999,9,99,9,99,9",,"10149,1,99999,9",,,,,,"MET111METAR LPSJ 301400Z /////KT 9999 SCT030 SCT070 13/05 Q1015 RMK WIND RWY13 06012KT 030V080 RWY31 05012KT 360V080;","P01 021003SCOCIG"
"08509599999","2010-11-30T15:00:00","4","38.6655","-28.175817","94.79","SAO JORGE, PO","FM-15","LPSJ ","V020","999,9,9,9999,9","99999,9,C,N","011265,1,N,1","+0140,1","+0060,1","99999,9","04,5,+00900,1,99,9","04,5,+02100,1,99,9",,,"04,99,1,99,9,99,9,99999,9,99,9,99,9",,"10149,1,99999,9",,,,,,"MET095METAR LPSJ 301500Z /////KT 9999 SCT030 SCT070 14/06 Q1015 RMK WIND RWY13 05012KT RWY31 05013KT;","P01 021003SCOCIG"
"08509599999","2010-11-30T16:00:00","4","38.6655","-28.175817","94.79","SAO JORGE, PO","FM-15","LPSJ ","V020","999,9,9,9999,9","99999,9,C,N","011265,1,N,1","+0130,1","+0060,1","99999,9","04,5,+00900,1,99,9","04,5,+02100,1,99,9",,,"04,99,1,99,9,99,9,99999,9,99,9,99,9",,"10149,1,99999,9",,,,,,"MET095METAR LPSJ 301600Z /////KT 9999 SCT030 SCT070 13/06 Q1015 RMK WIND RWY13 06007KT RWY31 06008KT;","P01 021003SCOCIG"
"08509599999","2010-11-30T17:00:00","4","38.6655","-28.175817","94.79","SAO JORGE, PO","FM-15","LPSJ ","V020","999,9,9,9999,9","99999,9,C,N","011265,1,N,1","+0130,1","+0050,1","99999,9","04,5,+00900,1,99,9","04,5,+02400,1,99,9",,,"04,99,1,99,9,99,9,99999,9,99,9,99,9",,"10149,1,99999,9",,,,,,"MET095METAR LPSJ 301700Z /////KT 9999 SCT030 SCT080 13/05 Q1015 RMK WIND RWY13 06010KT RWY31 05011KT;","P01 024003SCOCIG"
"08509599999","2010-11-30T18:00:00","4","38.6655","-28.175817","94.79","SAO JORGE, PO","FM-15","LPSJ ","V020","999,9,9,9999,9","99999,9,C,N","011265,1,N,1","+0130,1","+0060,1","99999,9","02,5,+00900,1,99,9","04,5,+02400,1,99,9",,,"04,99,1,99,9,99,9,99999,9,99,9,99,9",,"10149,1,99999,9",,,,,,"MET095METAR LPSJ 301800Z /////KT 9999 FEW030 SCT080 13/06 Q1015 RMK WIND RWY13 06008KT RWY31 05007KT;","P01 024003SCOCIG"
"08509599999","2010-12-01T09:00:00","4","38.6655","-28.175817","94.79","SAO JORGE, PO","FM-15","LPSJ ","V020","999,9,9,9999,9","02100,1,C,N","011265,1,N,1","+0120,1","+0040,1","99999,9","02,5,+00600,1,99,9","07,5,+02100,1,99,9",,,"07,99,1,99,9,99,9,99999,9,99,9,99,9",,"10159,1,99999,9",,,,,,"MET095METAR LPSJ 010900Z /////KT 9999 FEW020 BKN070 12/04 Q1016 RMK WIND RWY13 11008KT RWY31 09009KT;",
"08509599999","2010-12-01T10:00:00","4","38.6655","-28.175817","94.79","SAO JORGE, PO","FM-15","LPSJ ","V020","999,9,9,9999,9","00900,1,C,N","011265,1,N,1","+0130,1","+0060,1","99999,9","02,5,+00600,1,99,9","04,5,+00900,1,99,9","07,5,+02100,1,99,9",,"07,99,1,99,9,99,9,99999,9,99,9,99,9",,"10159,1,99999,9",,,,,,"MET102METAR LPSJ 011000Z /////KT 9999 FEW020 SCT030 BKN070 13/06 Q1016 RMK WIND RWY13 13008KT RWY31 13007KT;",
"08509599999","2010-12-01T11:00:00","4","38.6655","-28.175817","94.79","SAO JORGE, PO","FM-15","LPSJ ","V020","999,9,9,9999,9","00900,1,C,N","011265,1,N,1","+0130,1","+0060,1","99999,9","02,5,+00600,1,99,9","04,5,+00900,1,99,9","07,5,+02100,1,99,9",,"07,99,1,99,9,99,9,99999,9,99,9,99,9","999,M,+9999,9","10159,1,99999,9",,,,,,"MET102METAR LPSJ 011100Z /////KT 9999 FEW020 SCT030 BKN070 13/06 Q1016 RMK WIND RWY13 12008KT RWY31 11010KT;","Q01 -00102ATMX  "
"08509599999","2010-12-01T12:00:00","4","38.6655","-28.175817","94.79","SAO JORGE, PO","FM-15","LPSJ ","V020","999,9,9,9999,9","00900,1,C,N","011265,1,N,1","+0130,1","+0060,1","99999,9","02,5,+00600,1,99,9","04,5,+00900,1,99,9","07,5,+02100,1,99,9",,"07,99,1,99,9,99,9,99999,9,99,9,99,9","999,M,+9999,9","10169,1,99999,9",,,,,,"MET102METAR LPSJ 011200Z /////KT 9999 FEW020 SCT030 BKN070 13/06 Q1017 RMK WIND RWY13 12011KT RWY31 11010KT;","Q01 -00102ATMX  "
"08509599999","2010-12-01T13:00:00","4","38.6655","-28.175817","94.79","SAO JORGE, PO","FM-15","LPSJ ","V020","999,9,9,9999,9","00900,1,C,N","011265,1,N,1","+0130,1","+0060,1","99999,9","02,5,+00600,1,99,9","07,5,+00900,1,99,9","08,5,+02100,1,99,9",,"08,99,1,99,9,99,9,99999,9,99,9,99,9","999,M,+9999,9","10169,1,99999,9","61,1",,,,,"MET106METAR LPSJ 011300Z /////KT 9999 -RA FEW020 BKN030 OVC070 13/06 Q1017 RMK WIND RWY13 12012KT RWY31 11013KT;","Q01 -00132ATMX  "
"08509599999","2010-12-01T14:00:00","4","38.6655","-28.175817","94.79","SAO JORGE, PO","FM-15","LPSJ ","V020","999,9,9,9999,9","00900,1,C,N","011265,1,N,1","+0130,1","+0070,1","99999,9","02,5,+00750,1,99,9","04,5,+00900,1,99,9","08,5,+02100,1,99,9",,"08,99,1,99,9,99,9,99999,9,99,9,99,9","999,M,+9999,9","10169,1,99999,9",,,,,,"MET102METAR LPSJ 011400Z /////KT 9999 FEW025 SCT030 OVC070 13/07 Q1017 RMK WIND RWY13 11011KT RWY31 10010KT;","Q01 +00102ATMX  "
"08509599999","2010-12-01T15:00:00","4","38.6655","-28.175817","94.79","SAO JORGE, PO","FM-15","LPSJ ","V020","999,9,9,9999,9","00900,1,C,N","011265,1,N,1","+0130,1","+0070,1","99999,9","02,5,+00750,1,99,9","04,5,+00900,1,99,9","08,5,+02100,1,99,9",,"08,99,1,99,9,99,9,99999,9,99,9,99,9","999,M,+9999,9","10159,1,99999,9","61,1",,,,,"MET106METAR LPSJ 011500Z /////KT 9999 -RA FEW025 SCT030 OVC070 13/07 Q1016 RMK WIND RWY13 12011KT RWY31 11009KT;","Q01 -00092ATMX  "
"08509599999","2010-12-01T16:00:00","4","38.6655","-28.175817","94.79","SAO JORGE, PO","FM-15","LPSJ ","V020","999,9,9,9999,9","01200,1,C,N","011265,1,N,1","+0130,1","+0080,1","99999,9","02,5,+00900,1,99,9","04,5,+01200,1,99,9","08,5,+02100,1,99,9",,"08,99,1,99,9,99,9,99999,9,99,9,99,9",,"10159,1,99999,9",,,,,,"MET107METAR LPSJ 011600Z /////KT 9999 FEW030 SCT040 OVC070 13/08 Q1016 RERA RMK WIND RWY13 12010KT RWY31 12011KT;",
"08509599999","2010-12-01T17:00:00","4","38.6655","-28.175817","94.79","SAO JORGE, PO","FM-15","LPSJ ","V020","999,9,9,9999,9","01200,1,C,N","011265,1,N,1","+0130,1","+0080,1","99999,9","02,5,+00900,1,99,9","04,5,+01200,1,99,9","08,5,+02100,1,99,9",,"08,99,1,99,9,99,9,99999,9,99,9,99,9",,"10149,1,99999,9","61,1",,,,,"MET111METAR LPSJ 011700Z /////KT 9999 -RA FEW030 SCT040 OVC070 13/08 Q1015 RERA RMK WIND RWY13 12012KT RWY31 12013KT;",
"08509599999","2010-12-01T18:00:00","4","38.6655","-28.175817","94.79","SAO JORGE, PO","FM-15","LPSJ ","V020","999,9,9,9999,9","01200,1,C,N","011265,1,N,1","+0130,1","+0080,1","99999,9","02,5,+00750,1,99,9","04,5,+01200,1,99,9","08,5,+02100,1,99,9",,"08,99,1,99,9,99,9,99999,9,99,9,99,9","999,M,+9999,9","10149,1,99999,9","61,1",,,,,"MET111METAR LPSJ 011800Z /////KT 9999 -RA FEW025 SCT040 OVC070 13/08 Q1015 RERA RMK WIND RWY13 12014KT RWY31 11013KT;","Q01 -00132ATMX  "
"08509599999","2010-12-02T08:00:00","4","38.6655","-28.175817","94.79","SAO JORGE, PO","FM-15","LPSJ ","V020","999,9,9,9999,9","00900,1,C,N","011265,1,N,1","+0130,1","+0110,1","99999,9","04,5,+00540,1,99,9","04,5,+00900,1,99,9","07,5,+02100,1,99,9",,"07,99,1,99,9,99,9,99999,9,99,9,99,9",,"10129,1,99999,9","51,1",,,,,"MET106METAR LPSJ 020800Z /////KT 9999 -DZ SCT018 SCT030 BKN070 13/11 Q1013 RMK WIND RWY13 12015KT RWY31 12016KT;",
"08509599999","2010-12-02T09:00:00","4","38.6655","-28.175817","94.79","SAO JORGE, PO","FM-15","LPSJ ","V020","999,9,9,9999,9","00750,1,C,N","011265,1,N,1","+0140,1","+0110,1","99999,9","04,5,+00480,1,99,9","04,5,+00750,1,99,9","07,5,+02100,1,99,9",,"07,99,1,99,9,99,9,99999,9,99,9,99,9",,"10129,1,99999,9",,,,,,"MET102METAR LPSJ 020900Z /////KT 9999 SCT016 SCT025 BKN070 14/11 Q1013 RMK WIND RWY13 12013KT RWY31 12014KT;",
"08509599999","2010-12-02T10:00:00","4","38.6655","-28.175817","94.79","SAO JORGE, PO","FM-15","LPSJ ","V020","999,9,9,9999,9","00750,1,C,N","008000,1,N,1","+0140,1","+0110,1","99999,9","04,5,+00450,1,99,9","04,5,+00750,1,99,9","07,5,+02100,1,99,9",,"07,99,1,99,9,99,9,99999,9,99,9,99,9",,"10139,1,99999,9","61,1",,,,,"MET106METAR LPSJ 021000Z /////KT 8000 -RA SCT015 SCT025 BKN070 14/11 Q1014 RMK WIND RWY13 12015KT RWY31 12016KT;",
"08509599999","2010-12-02T11:00:00","4","38.6655","-28.175817","94.79","SAO JORGE, PO","FM-15","LPSJ ","V020","999,9,9,9999,9","00750,1,C,N","011265,1,N,1","+0140,1","+0120,1","99999,9","04,5,+00480,1,99,9","04,5,+00750,1,99,9","07,5,+02100,1,99,9",,"07,99,1,99,9,99,9,99999,9,99,9,99,9",,"10139,1,99999,9",,,,,,"MET113METAR LPSJ 021100Z /////KT 9999 SCT016 SCT025 BKN070 14/12 Q1014 RERA RMK WIND RWY13 13014G24KT RWY31 12015G25KT;",
"08509599999","2010-12-03T11:00:00","4","38.6655","-28.175817","94.79","SAO JORGE, PO","FM-15","LPSJ ","V020","999,9,9,9999,9","00330,1,C,N","009000,1,N,1","+0180,1","+0170,1","99999,9","02,5,+00270,1,99,9","04,5,+00330,1,99,9","07,5,+00420,1,99,9",,"07,99,1,99,9,99,9,99999,9,99,9,99,9","999,M,+9999,9","10010,1,99999,9",,,,,,"MET123METAR LPSJ 031100Z /////KT 9000 FEW009 SCT011 BKN014 18/17 Q1001 RERA RMK WIND RWY13 13017KT 090V170 RWY31 11020KT 080V140;","Q01 -00202ATMX  "
"08509599999","2010-12-03T12:00:00","4","38.6655","-28.175817","94.79","SAO JORGE, PO","FM-15","LPSJ ","V020","999,9,9,9999,9","00330,1,C,N","008000,1,N,1","+0190,1","+0180,1","99999,9","02,5,+00240,1,99,9","04,5,+00330,1,99,9","07,5,+00420,1,99,9",,"07,99,1,99,9,99,9,99999,9,99,9,99,9","999,M,+9999,9","10000,1,99999,9","80,1",,,,,"MET130METAR LPSJ 031200Z /////KT 8000 -SHRA FEW008 SCT011 BKN014 19/18 Q1000 RMK WIND RWY13 13014G24KT 110V170 RWY31 11015G25KT 090V150;","Q01 -00152ATMX  "
"08509599999","2010-12-03T13:00:00","4","38.6655","-28.175817","94.79","SAO JORGE, PO","FM-15","LPSJ ","V020","999,9,9,9999,9","00330,1,C,N","005000,1,N,1","+0180,1","+0170,1","99999,9","02,5,+00270,1,99,9","04,5,+00330,1,99,9","07,5,+00420,1,99,9",,"07,99,1,99,9,99,9,99999,9,99,9,99,9","999,M,+9999,9","10000,1,99999,9","10,1","63,1",,,,"MET130METAR LPSJ 031300Z /////KT 5000 RA BR FEW009 SCT011 BKN014 18/17 Q1000 RMK WIND RWY13 13015G25KT 100V160 RWY31 11016G30KT 090V150;","Q01 -00162ATMX  "
"08509599999","2010-12-03T15:00:00","4","38.6655","-28.175817","94.79","SAO JORGE, PO","FM-15","LPSJ ","V020","999,9,9,9999,9","00900,1,C,N","009000,1,N,1","+0180,1","+0160,1","99999,9","04,5,+00390,1,99,9","04,5,+00900,1,99,9","07,5,+02100,1,99,9",,"07,99,1,99,9,99,9,99999,9,99,9,99,9","999,M,+9999,9","09970,1,99999,9","61,1",,,,,"MET111METAR LPSJ 031500Z /////KT 9000 -RA SCT013 SCT030 BKN070 18/16 Q0997 RERA RMK WIND RWY13 12008KT RWY31 10007KT;","Q01 +00072ATMX  "
"08509599999","2010-12-03T16:00:00","4","38.6655","-28.175817","94.79","SAO JORGE, PO","FM-15","LPSJ ","V020","999,9,9,9999,9","00750,1,C,N","011265,1,N,1","+0170,1","+0150,1","99999,9","04,5,+00480,1,99,9","04,5,+00750,1,99,9","07,5,+02100,1,99,9",,"07,99,1,99,9,99,9,99999,9,99,9,99,9",,"09970,1,99999,9",,,,,,"MET107METAR LPSJ 031600Z /////KT 9999 SCT016 SCT025 BKN070 17/15 Q0997 RERA RMK WIND RWY13 13016KT RWY31 12015KT;",
"08509599999","2010-12-03T17:00:00","4","38.6655","-28.175817","94.79","SAO JORGE, PO","FM-15","LPSJ ","V020","999,9,9,9999,9","99999,9,C,N","011265,1,N,1","+0190,1","+0170,1","99999,9","04,5,+00480,1,99,9","04,5,+00750,1,99,9",,,"04,99,1,99,9,99,9,99999,9,99,9,99,9","999,M,+9999,9","09949,1,99999,9",,,,,,"MET095METAR LPSJ 031700Z /////KT 9999 SCT016 SCT025 19/17 Q0995 RMK WIND RWY13 12018KT RWY31 11019KT;","Q01 -00192ATMX  P01 007503SCOCIG"
"08509599999","2010-12-03T18:00:00","4","38.6655","-28.175817","94.79","SAO JORGE, PO","FM-15","LPSJ ","V020","999,9,9,9999,9","99999,9,C,N","011265,1,N,1","+0190,1","+0170,1","99999,9","04,5,+00450,1,99,9","04,5,+00600,1,99,9",,,"04,99,1,99,9,99,9,99999,9,99,9,99,9","999,M,+9999,9","09939,1,99999,9",,,,,,"MET095METAR LPSJ 031800Z /////KT 9999 SCT015 SCT020 19/17 Q0994 RMK WIND RWY13 12018KT RWY31 11019KT;","Q01 -00192ATMX  P01 006003SCOCIG"
"08509599999","2010-12-04T09:00:00","4","38.6655","-28.175817","94.79","SAO JORGE, PO","FM-15","LPSJ ","V020","999,9,C,0000,1","00600,1,C,N","008000,1,N,1","+0160,1","+0150,1","99999,9","04,5,+00360,1,99,9","04,5,+00600,1,99,9","07,5,+02100,1,99,9",,"07,99,1,99,9,99,9,99999,9,99,9,99,9",,"09851,1,99999,9","63,1",,,,,"MET110METAR LPSJ 040900Z /////KT 8000 RA SCT012 SCT020 BKN070 16/15 Q0985 RERA RMK WIND RWY13 00000KT TWY31 00000KT;",
"08509599999","2010-12-04T10:00:00","4","38.6655","-28.175817","94.79","SAO JORGE, PO","FM-15","LPSJ ","V020","999,9,9,9999,9","00480,1,C,N","008000,1,N,1","+0150,1","+0150,1","99999,9","02,5,+00180,1,99,9","04,5,+00480,1,99,9","07,5,+02100,1,99,9",,"07,99,1,99,9,99,9,99999,9,99,9,99,9",,"09841,1,99999,9","61,1",,,,,"MET111METAR LPSJ 041000Z /////KT 8000 -RA FEW006 SCT016 BKN070 15/15 Q0984 RERA RMK WIND RWY13 08004KT RWY31 06003KT;",
"08509599999","2010-12-04T11:00:00","4","38.6655","-28.175817","94.79","SAO JORGE, PO","FM-15","LPSJ ","V020","999,9,9,9999,9","00900,1,C,N","011265,1,N,1","+0160,1","+0150,1","99999,9","04,5,+00360,1,99,9","04,5,+00900,1,99,9","07,5,+02100,1,99,9",,"07,99,1,99,9,99,9,99999,9,99,9,99,9",,"09841,1,99999,9",,,,,,"MET107METAR LPSJ 041100Z /////KT 9999 SCT012 SCT030 BKN070 16/15 Q0984 RERA RMK WIND RWY13 29004KT RWY31 29006KT;",
"08509599999","2010-12-04T12:00:00","4","38.6655","-28.175817","94.79","SAO JORGE, PO","FM-15","LPSJ ","V020","999,9,V,0026,1","00900,1,C,N","011265,1,N,1","+0160,1","+0150,1","99999,9","04,5,+00450,1,99,9","04,5,+00900,1,99,9","07,5,+02100,1,99,9",,"07,99,1,99,9,99,9,99999,9,99,9,99,9",,"09841,1,99999,9",,,,,,"MET102METAR LPSJ 041200Z /////KT 9999 SCT015 SCT030 BKN070 16/15 Q0984 RMK WIND RWY13 VRB05KT RWY31 VRB04KT;",
"08509599999","2010-12-04T13:00:00","4","38.6655","-28.175817","94.79","SAO JORGE, PO","FM-15","LPSJ ","V020","999,9,V,0026,1","00900,1,C,N","011265,1,N,1","+0170,1","+0140,1","99999,9","04,5,+00450,1,99,9","04,5,+00900,1,99,9","07,5,+02100,1,99,9",,"07,99,1,99,9,99,9,99999,9,99,9,99,9",,"09831,1,99999,9",,,,,,"MET102METAR LPSJ 041300Z /////KT 9999 SCT015 SCT030 BKN070 17/14 Q0983 RMK WIND RWY13 VRB05KT RWY31 VRB04KT;",
"08509599999","2010-12-04T14:00:00","4","38.6655","-28.175817","94.79","SAO JORGE, PO","FM-15","LPSJ ","V020","999,9,9,9999,9","00750,1,C,N","011265,1,N,1","+0170,1","+0140,1","99999,9","04,5,+00420,1,99,9","04,5,+00750,1,99,9","07,5,+02100,1,99,9",,"07,99,1,99,9,99,9,99999,9,99,9,99,9",,"09821,1,99999,9",,,,,,"MET124METAR LPSJ 041400Z /////KT 9999 SCT014 SCT025 BKN070 17/14 Q0982 RMK WIND RWY13 05012G22KT 020V090 RWY31 04013G23KT 010V080;",
"08509599999","2010-12-04T15:00:00","4","38.6655","-28.175817","94.79","SAO JORGE, PO","FM-15","LPSJ ","V020","999,9,9,9999,9","00750,1,C,N","011265,1,N,1","+0160,1","+0140,1","99999,9","04,5,+00420,1,99,9","04,5,+00750,1,99,9","07,5,+02100,1,99,9",,"07,99,1,99,9,99,9,99999,9,99,9,99,9",,"09810,1,99999,9",,,,,,"MET124METAR LPSJ 041500Z /////KT 9999 SCT014 SCT025 BKN070 16/14 Q0981 RMK WIND RWY13 05013G23KT 360V080 RWY31 03015G26KT 360V070;",
"08509599999","2010-12-04T16:00:00","4","38.6655","-28.175817","94.79","SAO JORGE, PO","FM-15","LPSJ ","V020","999,9,9,9999,9","00750,1,C,N","003000,1,N,1","+0160,1","+0140,1","99999,9","04,5,+00390,1,99,9","07,5,+00750,1,99,9","08,5,+02100,1,99,9",,"08,99,1,99,9,99,9,99999,9,99,9,99,9",,"09810,1,99999,9","65,1",,,,,"MET133METAR LPSJ 041600Z /////KT 3000 +RA SCT013 BKN025 OVC070 16/14 Q0981 RERA RMK WIND RWY13 05017G33KT 320V110 RWY31 02019G34KT 350V050;",
"08509599999","2010-12-04T17:00:00","4","38.6655","-28.175817","94.79","SAO JORGE, PO","FM-15","LPSJ ","V020","999,9,9,9999,9","00750,1,C,N","005000,1,N,1","+0160,1","+0150,1","99999,9","04,5,+00360,1,99,9","07,5,+00750,1,99,9","08,5,+02100,1,99,9",,"08,99,1,99,9,99,9,99999,9,99,9,99,9",,"09821,1,99999,9","63,1",,,,,"MET132METAR LPSJ 041700Z /////KT 5000 RA SCT012 BKN025 OVC070 16/15 Q0982 RERA RMK WIND RWY13 05024G42KT 350V100 RWY31 02028G46KT 340V060;",
"08509599999","2010-12-04T18:00:00","4","38.6655","-28.175817","94.79","SAO JORGE, PO","FM-15","LPSJ ","V020","999,9,9,9999,9","00750,1,C,N","004000,1,N,1","+0150,1","+0140,1","99999,9","04,5,+00360,1,99,9","07,5,+00750,1,99,9","08,5,+02100,1,99,9",,"08,99,1,99,9,99,9,99999,9,99,9,99,9",,"09831,1,99999,9","63,1",,,,,"MET132METAR LPSJ 041800Z /////KT 4000 RA SCT012 BKN025 OVC070 15/14 Q0983 RERA RMK WIND RWY13 05024G47KT 360V110 RWY31 03026G48KT 340V050;",
"08509599999","2010-12-05T09:00:00","4","38.6655","-28.175817","94.79","SAO JORGE, PO","FM-15","LPSJ ","V020","999,9,9,9999,9","22000,1,9,N","011265,1,N,1","+0120,1","+0070,1","99999,9","02,5,+00900,1,99,9",,,,"02,99,1,99,9,99,9,99999,9,99,9,99,9",,"09919,1,99999,9",,,,,,"MET088METAR LPSJ 050900Z /////KT 9999 FEW030 12/07 Q0992 RMK WIND RWY13 34007KT RWY31 34009KT;",
"08509599999","2010-12-05T10:00:00","4","38.6655","-28.175817","94.79","SAO JORGE, PO","FM-15","LPSJ ","V020","999,9,9,9999,9","22000,1,9,N","011265,1,N,1","+0120,1","+0070,1","99999,9","02,5,+00900,1,99,9",,,,"02,99,1,99,9,99,9,99999,9,99,9,99,9",,"09929,1,99999,9",,,,,,"MET088METAR LPSJ 051000Z /////KT 9999 FEW030 12/07 Q0993 RMK WIND RWY13 34005KT RWY31 33006KT;",
"08509599999","2010-12-05T11:00:00","4","38.6655","-28.175817","94.79","SAO JORGE, PO","FM-15","LPSJ ","V020","999,9,9,9999,9","22000,1,9,N","011265,1,N,1","+0120,1","+0070,1","99999,9","04,5,+00900,1,99,9",,,,"04,99,1,99,9,99,9,99999,9,99,9,99,9",,"09929,1,99999,9",,,,,,"MET088METAR LPSJ 051100Z /////KT 9999 SCT030 12/07 Q0993 RMK WIND RWY13 34008KT RWY31 33009KT;",
"08509599999","2010-12-05T12:00:00","4","38.6655","-28.175817","94.79","SAO JORGE, PO","FM-15","LPSJ ","V020","999,9,9,9999,9","00660,5,C,N","011265,1,N,1","+0140,1","+0070,1","99999,9","04,5,+00600,1,99,9","02,5,+00660,1,02,5",,,,,"09929,1,99999,9",,,,,,"MET098METAR LPSJ 051200Z /////KT 9999 SCT020 FEW022TCU 14/07 Q0993 RMK WIND RWY13 27005KT RWY31 27010KT;","Q01+000022SCOTCV"
"08509599999","2010-12-05T13:00:00","4","38.6655","-28.175817","94.79","SAO JORGE, PO","FM-15","LPSJ ","V020","999,9,9,9999,9","22000,1,9,N","011265,1,N,1","+0150,1","+0090,1","99999,9","02,5,+00540,1,99,9","02,5,+00600,1,09,5",,,"02,99,1,99,9,99,9,99999,9,99,9,99,9",,"09929,1,99999,9",,,,,,"MET113METAR LPSJ 051300Z /////KT 9999 FEW018 FEW020CB 15/09 Q0993 RMK WIND RWY13 27008KT 230V310 RWY31 26011KT 210V290;",
"08509599999","2010-12-05T14:00:00","4","38.6655","-28.175817","94.79","SAO JORGE, PO","FM-15","LPSJ ","V020","999,9,9,9999,9","22000,1,9,N","011265,1,N,1","+0130,1","+0090,1","99999,9","02,5,+00480,1,99,9","02,5,+00540,1,09,5",,,"02,99,1,99,9,99,9,99999,9,99,9,99,9",,"09929,1,99999,9",,,,,,"MET113METAR LPSJ 051400Z /////KT 9999 FEW016 FEW018CB 13/09 Q0993 RMK WIND RWY13 26005KT 210V310 RWY31 25009KT 210V320;",
"08509599999","2010-12-05T15:00:00","4","38.6655","-28.175817","94.79","SAO JORGE, PO","FM-15","LPSJ ","V020","999,9,9,9999,9","22000,1,9,N","011265,1,N,1","+0150,1","+0100,1","99999,9","02,5,+00540,1,99,9","02,5,+00600,1,09,5",,,"02,99,1,99,9,99,9,99999,9,99,9,99,9",,"09919,1,99999,9",,,,,,"MET113METAR LPSJ 051500Z /////KT 9999 FEW018 FEW020CB 15/10 Q0992 RMK WIND RWY13 28006KT 230V330 RWY31 26011KT 210V320;",
"08509599999","2010-12-05T16:00:00","4","38.6655","-28.175817","94.79","SAO JORGE, PO","FM-15","LPSJ ","V020","999,9,9,9999,9","22000,1,9,N","011265,1,N,1","+0150,1","+0090,1","99999,9","02,5,+00540,1,99,9","02,5,+00600,1,09,5",,,"02,99,1,99,9,99,9,99999,9,99,9,99,9",,"09919,1,99999,9",,,,,,"MET113METAR LPSJ 051600Z /////KT 9999 FEW018 FEW020CB 15/09 Q0992 RMK WIND RWY13 27007KT 240V320 RWY31 26012KT 220V300;",
"08509599999","2010-12-05T17:00:00","4","38.6655","-28.175817","94.79","SAO JORGE, PO","FM-15","LPSJ ","V020","999,9,9,9999,9","22000,1,9,N","011265,1,N,1","+0150,1","+0090,1","99999,9","02,5,+00540,1,99,9","02,5,+00600,1,09,5",,,"02,99,1,99,9,99,9,99999,9,99,9,99,9",,"09909,1,99999,9",,,,,,"MET113METAR LPSJ 051700Z /////KT 9999 FEW018 FEW020CB 15/09 Q0991 RMK WIND RWY13 27008KT 220V320 RWY31 26014KT 210V300;",
"08509599999","2010-12-05T18:00:00","4","38.6655","-28.175817","94.79","SAO JORGE, PO","FM-15","LPSJ ","V020","999,9,9,9999,9","22000,1,9,N","011265,1,N,1","+0140,1","+0080,1","99999,9","02,5,+00600,1,99,9","02,5,+00660,1,09,5",,,"02,99,1,99,9,99,9,99999,9,99,9,99,9",,"09919,1,99999,9",,,,,,"MET113METAR LPSJ 051800Z /////KT 9999 FEW020 FEW022CB 14/08 Q0992 RMK WIND RWY13 27007KT 230V330 RWY31 26012KT 220V310;",
"08509599999","2010-12-06T09:00:00","4","38.6655","-28.175817","94.79","SAO JORGE, PO","FM-15","LPSJ ","V020","999,9,9,9999,9","00630,5,C,N","011265,1,N,1","+0130,1","+0090,1","99999,9","04,5,+00600,1,99,9","02,5,+00630,1,02,5",,,,,"09929,1,99999,9",,,,,,"MET118METAR LPSJ 060900Z /////KT 9999 SCT020 FEW021TCU 13/09 Q0993 RMK WIND RWY13 3500617KT 320V030 RWY31 0300718KT 350V060;","Q01+000022SCOTCV"
"08509599999","2010-12-06T10:00:00","4","38.6655","-28.175817","94.79","SAO JORGE, PO","FM-15","LPSJ ","V020","999,9,9,9999,9","00630,5,C,N","011265,1,N,1","+0140,1","+0080,1","99999,9","04,5,+00600,1,99,9","02,5,+00630,1,02,5",,,,,"09939,1,99999,9",,,,,,"MET117METAR LPSJ 061000Z /////KT 9999 SCT020 FEW021TCU 14/08 Q0994 RMK WIND RWY13 36007KT 330V030 RWY31 01008G18KT 340V050;","Q01+000022SCOTCV"
"08509599999","2010-12-06T11:00:00","4","38.6655","-28.175817","94.79","SAO JORGE, PO","FM-15","LPSJ ","V020","999,9,9,9999,9","22000,1,9,N","011265,1,N,1","+0150,1","+0100,1","99999,9","02,5,+00660,1,99,9","02,5,+00690,1,02,5",,,"02,99,1,99,9,99,9,99999,9,99,9,99,9",,"09949,1,99999,9",,,,,,"MET117METAR LPSJ 061100Z /////KT 9999 FEW022 FEW023TCU 15/10 Q0995 RMK WIND RWY13 01011KT 330V040 RWY31 36011G22KT 310V040;",
"08509599999","2010-12-06T12:00:00","4","38.6655","-28.175817","94.79","SAO JORGE, PO","FM-15","LPSJ ","V020","999,9,9,9999,9","22000,1,9,N","011265,1,N,1","+0160,1","+0100,1","99999,9","04,5,+00750,1,99,9",,,,"04,99,1,99,9,99,9,99999,9,99,9,99,9",,"09949,1,99999,9",,,,,,"MET107METAR LPSJ 061200Z /////KT 9999 SCT025 16/10 Q0995 RMK WIND RWY13 35014KT 310V010 RWY31 34010G20KT 300V010;",
"08509599999","2010-12-06T13:00:00","4","38.6655","-28.175817","94.79","SAO JORGE, PO","FM-15","LPSJ ","V020","999,9,9,9999,9","99999,9,C,N","011265,1,N,1","+0160,1","+0100,1","99999,9","02,5,+00690,1,99,9","04,5,+01200,1,99,9",,,"04,99,1,99,9,99,9,99999,9,99,9,99,9",,"09959,1,99999,9",,,,,,"MET095METAR LPSJ 061300Z /////KT 9999 FEW023 SCT040 16/10 Q0996 RMK WIND RWY13 34012KT RWY31 32013KT;","P01 012003SCOCIG"
"08509599999","2010-12-06T14:00:00","4","38.6655","-28.175817","94.79","SAO JORGE, PO","FM-15","LPSJ ","V020","999,9,9,9999,9","99999,9,C,N","006000,1,N,1","+0150,1","+0130,1","99999,9","04,5,+00450,1,99,9","04,5,+00750,1,99,9",,,"04,99,1,99,9,99,9,99999,9,99,9,99,9",,"09949,1,99999,9","80,1",,,,,"MET117METAR LPSJ 061400Z /////KT 6000 -SHRA SCT015 SCT025 15/13 Q0995 RMK WIND RWY13 32013KT 280V010 RWY31 31012KT 260V340;","P01 007503SCOCIG"
"08509599999","2010-12-06T15:00:00","4","38.6655","-28.175817","94.79","SAO JORGE, PO","FM-15","LPSJ ","V020","999,9,9,9999,9","00450,1,C,N","011265,1,N,1","+0150,1","+0130,1","99999,9","04,5,+00330,1,99,9","07,5,+00450,1,99,9",,,"07,99,1,99,9,99,9,99999,9,99,9,99,9",,"09949,1,99999,9","10,1","61,1",,,,"MET133METAR LPSJ 061500Z /////KT 9999SE 5000NW -RA BR SCT011 BKN015 15/13 Q0995 RMK WIND RWY13 36016G30KT 300V070 RWY31 35015G28KT 290V090;",
"08509599999","2010-12-06T16:00:00","4","38.6655","-28.175817","94.79","SAO JORGE, PO","FM-15","LPSJ ","V020","999,9,9,9999,9","00450,1,C,N","011265,1,N,1","+0140,1","+0130,1","99999,9","04,5,+00330,1,99,9","07,5,+00450,1,99,9",,,"07,99,1,99,9,99,9,99999,9,99,9,99,9",,"09949,1,99999,9","10,1","61,1",,,,"MET129METAR LPSJ 061600Z /////KT 9999 4000SE -RA BR SCT011 BKN015 14/13 Q0995 RMK WIND RWY1336019G32KT 300V060 RWY31 3600822KT 360V360;",
"08509599999","2010-12-06T17:00:00","4","38.6655","-28.175817","94.79","SAO JORGE, PO","FM-15","LPSJ ","V020","999,9,9,9999,9","00450,1,C,N","011265,1,N,1","+0140,1","+0130,1","99999,9","04,5,+00330,1,99,9","07,5,+00450,1,99,9",,,"07,99,1,99,9,99,9,99999,9,99,9,99,9",,"09959,1,99999,9","80,1",,,,,"MET123METAR LPSJ 061700Z /////KT 9999 -SHRA SCT011 BKN015 14/13 Q0996 RMK WIND RWY13 03014G30KT 300V060 RWY31 06017G32KT 300V090;",
"08509599999","2010-12-06T18:00:00","4","38.6655","-28.175817","94.79","SAO JORGE, PO","FM-15","LPSJ ","V020","999,9,9,9999,9","00420,1,C,N","011265,1,N,1","+0140,1","+0120,1","99999,9","07,5,+00420,1,99,9","02,5,+00450,1,02,5","07,5,+00600,1,99,9",,"07,99,1,99,9,99,9,99999,9,99,9,99,9",,"09980,1,99999,9","80,1",,,,,"MET140METAR LPSJ 061800Z /////KT 9999 4000SE -SHRA BKN014 FEW015TCU BKN020 14/12 Q0998 RMK WIND RWY13 36015G35KT 300V060 RWY31 34006G26KT 270V030;",
"08509599999","2010-12-07T08:00:00","4","38.6655","-28.175817","94.79","SAO JORGE, PO","FM-15","LPSJ ","V020","999,9,9,9999,9","22000,1,9,N","011265,1,N,1","+0120,1","+0090,1","99999,9","04,5,+00480,1,99,9",,,,"04,99,1,99,9,99,9,99999,9,99,9,99,9",,"10081,1,99999,9",,,,,,"MET107METAR LPSJ 070800Z /////KT 9999 SCT016 12/09 Q1008 RMK WIND RWY13 31006KT 240V350 RWY31 02012G22KT 300V070;",
"08509599999","2010-12-07T09:00:00","4","38.6655","-28.175817","94.79","SAO JORGE, PO","FM-15","LPSJ ","V020","999,9,9,9999,9","22000,1,9,N","011265,1,N,1","+0120,1","+0080,1","99999,9","04,5,+00480,1,99,9",,,,"04,99,1,99,9,99,9,99999,9,99,9,99,9",,"10091,1,99999,9",,,,,,"MET111METAR LPSJ 070900Z /////KT 9999 SCT016 12/08 Q1009 RMK WIND RWY13 36010G22KT 240CV080 RWY31 03017G30KT 330V090;",
"08509599999","2010-12-07T10:00:00","4","38.6655","-28.175817","94.79","SAO JORGE, PO","FM-15","LPSJ ","V020","999,9,9,9999,9","00480,1,C,N","011265,1,N,1","+0130,1","+0090,1","99999,9","07,5,+00480,1,99,9",,,,"07,99,1,99,9,99,9,99999,9,99,9,99,9",,"10102,1,99999,9","80,1",,,,,"MET116METAR LPSJ 071000Z /////KT 9999 -SHRA BKN016 13/09 Q1010 RMK WIND RWY13 34010G23KT 360V360 RWY31 05015G27KT 320V150;",
"08509599999","2010-12-07T14:00:00","4","38.6655","-28.175817","94.79","SAO JORGE, PO","FM-15","LPSJ ","V020","999,9,9,9999,9","00600,5,C,N","011265,1,N,1","+0120,1","+0080,1","99999,9","04,5,+00540,1,99,9","02,5,+00600,1,02,5",,,,,"10119,1,99999,9",,,,,,"MET120METAR LPSJ 071400Z /////KT 9999 SCT018 FEW020TCU 12/08 Q1012 RMK WIND RWY13 35016G26KT 290V040 RWY31 36016G35KT 290V090;","Q01+000022SCOTCV"
"08509599999","2010-12-07T15:00:00","4","38.6655","-28.175817","94.79","SAO JORGE, PO","FM-15","LPSJ ","V020","999,9,9,9999,9","00600,5,C,N","011265,1,N,1","+0140,1","+0070,1","99999,9","04,5,+00540,1,99,9","02,5,+00600,1,02,5",,,,,"10119,1,99999,9",,,,,,"MET120METAR LPSJ 071500Z /////KT 9999 SCT018 FEW020TCU 14/07 Q1012 RMK WIND RWY13 35016G28KT 300V050 RWY31 35020G33KT 290V040;","Q01+000022SCOTCV"
"08509599999","2010-12-09T10:00:00","4","38.6655","-28.175817","94.79","SAO JORGE, PO","FM-15","LPSJ ","V020","999,9,9,9999,9","22000,1,9,N","011265,1,N,1","+0120,1","+0060,1","99999,9","04,5,+00600,1,99,9",,,,"04,99,1,99,9,99,9,99999,9,99,9,99,9",,"10251,1,99999,9",,,,,,"MET110METAR LPSJ 091000Z /////KT 9999 SCT020 12/06 Q1025 RMK WIND RWY13 06017G29KT 360V110 RWY31 04025G35KT 350V080;",
"08509599999","2010-12-09T11:00:00","4","38.6655","-28.175817","94.79","SAO JORGE, PO","FM-15","LPSJ ","V020","999,9,9,9999,9","22000,1,9,N","011265,1,N,1","+0130,1","+0060,1","99999,9","04,5,+00600,1,99,9",,,,"04,99,1,99,9,99,9,99999,9,99,9,99,9",,"10251,1,99999,9","80,1",,,,,"MET116METAR LPSJ 091100Z /////KT 9999 -SHRA SCT020 13/06 Q1025 RMK WIND RWY13 06017G29KT 320V110 RWY31 03021G35KT 350V080;",
"08509599999","2010-12-09T14:00:00","4","38.6655","-28.175817","94.79","SAO JORGE, PO","FM-15","LPSJ ","V020","999,9,9,9999,9","00660,5,C,N","009000,1,N,1","+0130,1","+0060,1","99999,9","04,5,+00600,1,99,9","02,5,+00660,1,02,5",,,,,"10230,1,99999,9","82,1",,,,,"MET126METAR LPSJ 091400Z /////KT 9000 +SHRA SCT020 FEW022TCU 13/06 Q1023 RMK WIND RWY13 06023G34KT 350V110 RWY31 04026G42KT 350V080;","Q01+000022SCOTCV"
"08509599999","2010-12-09T15:00:00","4","38.6655","-28.175817","94.79","SAO JORGE, PO","FM-15","LPSJ ","V020","999,9,9,9999,9","99999,9,C,N","009000,1,N,1","+0120,1","+0080,1","99999,9","04,5,+00480,1,99,9","04,5,+00540,1,02,5",,,"04,99,1,99,9,99,9,99999,9,99,9,99,9",,"10220,1,99999,9","81,1",,,,,"MET125METAR LPSJ 091500Z /////KT 9000 SHRA SCT016 SCT018TCU 12/08 Q1022 RMK WIND RWY13 06018G28KT 360V120 RWY31 04024G38KT 350V090;","P01 005403SCOCIG"
"08509599999","2010-12-10T09:00:00","4","38.6655","-28.175817","94.79","SAO JORGE, PO","FM-15","LPSJ ","V020","999,9,9,9999,9","99999,9,C,N","011265,1,N,1","+0130,1","+0070,1","99999,9","04,5,+00480,1,99,9","02,5,+00540,1,02,5","04,5,+00750,1,99,9",,"04,99,1,99,9,99,9,99999,9,99,9,99,9",,"10129,1,99999,9",,,,,,"MET116METAR LPSJ 100900Z /////KT 9999 SCT016 FEW018TCU SCT025 13/07 Q1013 RMK WIND RWY13 33009G22KT 230V120 RWY31 /////KT;","P01 005403SCOCIG"
"08509599999","2010-12-10T10:00:00","4","38.6655","-28.175817","94.79","SAO JORGE, PO","FM-15","LPSJ ","V020","999,9,9,9999,9","99999,9,C,N","011265,1,N,1","+0130,1","+0050,1","99999,9","04,5,+00900,1,99,9","04,5,+01200,1,99,9",,,"04,99,1,99,9,99,9,99999,9,99,9,99,9",,"10129,1,99999,9",,,,,,"MET106METAR LPSJ 101000Z /////KT 9999 SCT030 SCT040 13/05 Q1013 RMK WIND RWY13 31009G19KT 190V360 RWY31 /////KT;","P01 012003SCOCIG"
"08509599999","2010-12-10T11:00:00","4","38.6655","-28.175817","94.79","SAO JORGE, PO","FM-15","LPSJ ","V020","999,9,9,9999,9","00900,1,C,N","011265,1,N,1","+0120,1","+0080,1","99999,9","04,5,+00480,1,99,9","07,5,+00900,1,99,9",,,"07,99,1,99,9,99,9,99999,9,99,9,99,9",,"10129,1,99999,9",,,,,,"MET106METAR LPSJ 101100Z /////KT 9999 SCT016 BKN030 12/08 Q1013 RMK WIND RWY13 34017G28KT 250V130 RWY31 /////KT;",
"08509599999","2010-12-10T12:00:00","4","38.6655","-28.175817","94.79","SAO JORGE, PO","FM-15","LPSJ ","V020","999,9,9,9999,9","00750,1,C,N","011265,1,N,1","+0120,1","+0080,1","99999,9","04,5,+00480,1,99,9","07,5,+00750,1,99,9",,,"07,99,1,99,9,99,9,99999,9,99,9,99,9",,"10119,1,99999,9","80,1",,,,,"MET112METAR LPSJ 101200Z /////KT 9999 -SHRA SCT016 BKN025 12/08 Q1012 RMK WIND RWY13 35020G37KT 280V070 RWY31 /////KT;",
"08509599999","2010-12-10T13:00:00","4","38.6655","-28.175817","94.79","SAO JORGE, PO","FM-15","LPSJ ","V020","999,9,9,9999,9","99999,9,C,N","011265,1,N,1","+0140,1","+0080,1","99999,9","04,5,+00480,1,99,9","04,5,+00750,1,99,9",,,"04,99,1,99,9,99,9,99999,9,99,9,99,9",,"10108,1,99999,9",,,,,,"MET106METAR LPSJ 101300Z /////KT 9999 SCT016 SCT025 14/08 Q1011 RMK WIND RWY13 35018G30KT 270V050 RWY31 /////KT;","P01 007503SCOCIG"
"08509599999","2010-12-12T10:00:00","4","38.6655","-28.175817","94.79","SAO JORGE, PO","FM-15","LPSJ ","V020","999,9,9,9999,9","22000,1,9,N","011265,1,N,1","+0140,1","+0100,1","99999,9","04,5,+00600,1,99,9",,,,"04,99,1,99,9,99,9,99999,9,99,9,99,9",,"10102,1,99999,9",,,,,,"MET088METAR LPSJ 121000Z /////KT 9999 SCT020 14/10 Q1010 RMK WIND RWY13 34013KT RWY31 /////KT;",
"08509599999","2010-12-12T12:00:00","4","38.6655","-28.175817","94.79","SAO JORGE, PO","FM-15","LPSJ ","V020","999,9,9,9999,9","22000,1,9,N","011265,1,N,1","+0150,1","+0100,1","99999,9","04,5,+00750,1,99,9",,,,"04,99,1,99,9,99,9,99999,9,99,9,99,9",,"10102,1,99999,9",,,,,,"MET083METAR LPSJ 121200Z /////KT 9999 SCT025 15/10 Q1010 RMK RWY13 34012KT RWY31 /////KT;",
"08509599999","2010-12-12T13:00:00","4","38.6655","-28.175817","94.79","SAO JORGE, PO","FM-15","LPSJ ","V020","999,9,9,9999,9","22000,1,9,N","011265,1,N,1","+0150,1","+0080,1","99999,9","04,5,+00900,1,99,9",,,,"04,99,1,99,9,99,9,99999,9,99,9,99,9",,"10102,1,99999,9",,,,,,"MET088METAR LPSJ 121300Z /////KT 9999 SCT030 15/08 Q1010 RMK WIND RWY13 33012KT RWY31 /////KT;",
"08509599999","2010-12-12T14:00:00","4","38.6655","-28.175817","94.79","SAO JORGE, PO","FM-15","LPSJ ","V020","999,9,9,9999,9","22000,1,9,N","011265,1,N,1","+0160,1","+0080,1","99999,9","02,5,+00900,1,99,9",,,,"02,99,1,99,9,99,9,99999,9,99,9,99,9",,"10091,1,99999,9",,,,,,"MET088METAR LPSJ 121400Z /////KT 9999 FEW030 16/08 Q1009 RMK WIND RWY13 33011KT RWY31 /////KT;",
"08509599999","2010-12-14T08:00:00","4","38.6655","-28.175817","94.79","SAO JORGE, PO","FM-15","LPSJ ","V020","999,9,C,0000,1","99999,9,C,N","011265,1,N,1","+0100,1","+0070,1","99999,9","04,5,+00750,1,99,9","04,5,+01200,1,99,9",,,"04,99,1,99,9,99,9,99999,9,99,9,99,9",,"10071,1,99999,9",,,,,,"MET095METAR LPSJ 140800Z /////KT 9999 SCT025 SCT040 10/07 Q1007 RMK WIND RWY13 00000KT RWY31 /////KT;","P01 012003SCOCIG"
"08509599999","2010-12-14T09:00:00","4","38.6655","-28.175817","94.79","SAO JORGE, PO","FM-15","LPSJ ","V020","999,9,9,9999,9","01200,1,C,N","011265,1,N,1","+0100,1","+0070,1","99999,9","02,5,+00900,1,99,9","07,5,+01200,1,99,9",,,"07,99,1,99,9,99,9,99999,9,99,9,99,9",,"10071,1,99999,9",,,,,,"MET095METAR LPSJ 140900Z /////KT 9999 FEW030 BKN040 10/07 Q1007 RMK WIND RWY13 03004KT RWY31 /////KT;",
"08509599999","2010-12-14T10:00:00","4","38.6655","-28.175817","94.79","SAO JORGE, PO","FM-15","LPSJ ","V020","999,9,9,9999,9","01500,1,C,N","011265,1,N,1","+0110,1","+0070,1","99999,9","02,5,+00900,1,99,9","04,5,+01500,1,99,9","07,5,+02400,1,99,9",,"07,99,1,99,9,99,9,99999,9,99,9,99,9",,"10071,1,99999,9",,,,,,"MET102METAR LPSJ 141000Z /////KT 9999 FEW030 SCT050 BKN080 11/07 Q1007 RMK WIND RWY13 04004KT RWY31 /////KT;",
"08509599999","2010-12-14T14:00:00","4","38.6655","-28.175817","94.79","SAO JORGE, PO","FM-15","LPSJ ","V020","999,9,9,9999,9","01200,1,C,N","011265,1,N,1","+0120,1","+0080,1","99999,9","02,5,+00540,1,99,9","04,5,+01200,1,99,9","08,5,+02400,1,99,9",,"08,99,1,99,9,99,9,99999,9,99,9,99,9",,"10061,1,99999,9","61,1",,,,,"MET111METAR LPSJ 141400Z /////KT 9999 -RA FEW018 SCT040 OVC080 12/08 Q1006 RERA RMK WIND RWY13 14005KT RWY31 /////KT;",
"08509599999","2010-12-14T15:00:00","4","38.6655","-28.175817","94.79","SAO JORGE, PO","FM-15","LPSJ ","V020","999,9,9,9999,9","00900,1,C,N","009000,1,N,1","+0120,1","+0090,1","99999,9","02,5,+00540,1,99,9","04,5,+00900,1,99,9","08,5,+02400,1,99,9",,"08,99,1,99,9,99,9,99999,9,99,9,99,9",,"10061,1,99999,9","63,1",,,,,"MET105METAR LPSJ 141500Z /////KT 9000 RA FEW018 SCT030 OVC080 12/09 Q1006 RMK WIND RWY13 14004KT RWY31 /////KT;",
"08509599999","2010-12-14T16:00:00","4","38.6655","-28.175817","94.79","SAO JORGE, PO","FM-15","LPSJ ","V020","999,9,9,9999,9","00900,1,C,N","009000,1,N,1","+0120,1","+0080,1","99999,9","02,5,+00540,1,99,9","04,5,+00900,1,99,9","08,5,+02400,1,99,9",,"08,99,1,99,9,99,9,99999,9,99,9,99,9",,"10051,1,99999,9","61,1",,,,,"MET106METAR LPSJ 141600Z /////KT 9000 -RA FEW018 SCT030 OVC080 12/08 Q1005 RMK WIND RWY13 14004KT RWY31 /////KT;",
"08509599999","2010-12-15T11:00:00","4","38.6655","-28.175817","94.79","SAO JORGE, PO","FM-15","LPSJ ","V020","999,9,C,0000,1","00750,1,C,N","009000,1,N,1","+0140,1","+0130,1","99999,9","04,5,+00540,1,99,9","04,5,+00750,1,99,9","08,5,+02400,1,99,9",,"08,99,1,99,9,99,9,99999,9,99,9,99,9",,"10041,1,99999,9","63,1",,,,,"MET110METAR LPSJ 151100Z /////KT 9000 RA SCT018 SCT025 OVC080 14/13 Q1004 RERA RMK WIND RWY13 00000KT RWY31 /////KT;",
"08509599999","2010-12-15T12:00:00","4","38.6655","-28.175817","94.79","SAO JORGE, PO","FM-15","LPSJ ","V020","999,9,9,9999,9","00390,1,C,N","004000,1,N,1","+0140,1","+0130,1","99999,9","04,5,+00180,1,99,9","07,5,+00390,1,99,9","07,5,+00600,1,99,9",,"07,99,1,99,9,99,9,99999,9,99,9,99,9",,"10041,1,99999,9","10,1","65,1",,,,"MET114METAR LPSJ 151200Z /////KT 4000 +RA BR SCT006 BKN013 BKN020 14/13 Q1004 RERA RMK WIND RWY13 35004KT RWY31 /////KT;",
"08509599999","2010-12-15T13:00:00","4","38.6655","-28.175817","94.79","SAO JORGE, PO","FM-15","LPSJ ","V020","999,9,9,9999,9","00750,1,C,N","009000,1,N,1","+0130,1","+0120,1","99999,9","04,5,+00480,1,99,9","04,5,+00750,1,99,9","08,5,+02400,1,99,9",,"08,99,1,99,9,99,9,99999,9,99,9,99,9",,"10020,1,99999,9","61,1",,,,,"MET111METAR LPSJ 151300Z /////KT 9000 -RA SCT016 SCT025 OVC080 13/12 Q1002 RERA RMK WIND RWY13 29006KT RWY31 /////KT;",
"08509599999","2010-12-15T14:00:00","4","38.6655","-28.175817","94.79","SAO JORGE, PO","FM-15","LPSJ ","V020","999,9,C,0000,1","00180,1,C,N","002000,1,N,1","+0130,1","+0120,1","99999,9","04,5,+00060,1,99,9","04,5,+00180,1,99,9","07,5,+00390,1,99,9",,"07,99,1,99,9,99,9,99999,9,99,9,99,9",,"10010,1,99999,9","10,1","65,1",,,,"MET114METAR LPSJ 151400Z /////KT 2000 +RA BR SCT002 SCT006 BKN013 13/12 Q1001 RERA RMK WIND RWY13 00000KT RWY31 /////KT;",
"08509599999","2010-12-16T08:00:00","4","38.6655","-28.175817","94.79","SAO JORGE, PO","FM-15","LPSJ ","V020","999,9,9,9999,9","22000,1,9,N","011265,1,N,1","+0170,1","+0130,1","99999,9","04,5,+00480,1,99,9",,,,"04,99,1,99,9,99,9,99999,9,99,9,99,9",,"10139,1,99999,9",,,,,,"MET091METAR LPSJ 160800Z /////KT 9999 SCT016 17/13 Q1014 RMK WIND RWY13 09027G37KT RWY31 /////KT;",
"08509599999","2010-12-16T09:00:00","4","38.6655","-28.175817","94.79","SAO JORGE, PO","FM-15","LPSJ ","V020","999,9,9,9999,9","22000,1,9,N","011265,1,N,1","+0160,1","+0130,1","99999,9","04,5,+00480,1,99,9",,,,"04,99,1,99,9,99,9,99999,9,99,9,99,9",,,,,,,,"MET099METAR LPSJ 160900Z /////KT 9999 SCT016 16/13 Q1005 RMK WIND RWY13 09029G39KT 060V120 RWY31 /////KT;","Q01+100513APOA  "
"08509599999","2010-12-16T13:00:00","4","38.6655","-28.175817","94.79","SAO JORGE, PO","FM-15","LPSJ ","V020","999,9,9,9999,9","00480,1,C,N","011265,1,N,1","+0170,1","+0140,1","99999,9","07,5,+00480,1,99,9",,,,"07,99,1,99,9,99,9,99999,9,99,9,99,9",,"10081,1,99999,9","80,1",,,,,"MET097METAR LPSJ 161300Z /////KT 9999 -SHRA BKN016 17/14 Q1008 RMK WIND RWY13 09025G38KT RWY31 /////KT;",
"08509599999","2010-12-16T14:00:00","4","38.6655","-28.175817","94.79","SAO JORGE, PO","FM-15","LPSJ ","V020","999,9,9,9999,9","00390,1,C,N","009000,1,N,1","+0170,1","+0140,1","99999,9","07,5,+00390,1,99,9","07,5,+00600,1,99,9",,,"07,99,1,99,9,99,9,99999,9,99,9,99,9",,"10081,1,99999,9","80,1",,,,,"MET112METAR LPSJ 161400Z /////KT 9000 -SHRA BKN013 BKN020 17/14 Q1008 RMK WIND RWY13 08024G36KT 060V130 RWY31 /////KT;",
"08509599999","2010-12-16T15:00:00","4","38.6655","-28.175817","94.79","SAO JORGE, PO","FM-15","LPSJ ","V020","999,9,9,9999,9","00450,1,C,N","011265,1,N,1","+0170,1","+0140,1","99999,9","07,5,+00450,1,99,9",,,,"07,99,1,99,9,99,9,99999,9,99,9,99,9",,"10081,1,99999,9",,,,,,"MET094METAR LPSJ 161500Z /////KT 9999 BKN015 17/14 Q1008 RMK RWY13 09024G36KT 050V140 RWY31 /////KT;",
"08509599999","2010-12-16T16:00:00","4","38.6655","-28.175817","94.79","SAO JORGE, PO","FM-15","LPSJ ","V020","999,9,9,9999,9","00480,1,C,N","011265,1,N,1","+0170,1","+0130,1","99999,9","07,5,+00480,1,99,9",,,,"07,99,1,99,9,99,9,99999,9,99,9,99,9","999,M,+9999,9","10091,1,99999,9",,,,,,"MET099METAR LPSJ 161600Z /////KT 9999 BKN016 17/13 Q1009 RMK WIND RWY13 10025G41KT 070V150 RWY31 /////KT;","Q01 +00252ATMX  "
"08509599999","2010-12-17T11:00:00","4","38.6655","-28.175817","94.79","SAO JORGE, PO","FM-15","LPSJ ","V020","999,9,9,9999,9","99999,9,C,N","011265,1,N,1","+0140,1","+0080,1","99999,9","04,5,+00750,1,99,9","04,5,+02400,1,99,9",,,"04,99,1,99,9,99,9,99999,9,99,9,99,9",,"10119,1,99999,9",,,,,,"MET106METAR LPSJ 171100Z /////KT 9999 SCT025 SCT080 14/08 Q1012 RMK WIND RWY13 06022G32KT 020V100 RWY31 /////KT;","P01 024003SCOCIG"
"08509599999","2010-12-17T12:00:00","4","38.6655","-28.175817","94.79","SAO JORGE, PO","FM-15","LPSJ ","V020","999,9,9,9999,9","02400,1,C,N","011265,1,N,1","+0140,1","+0090,1","99999,9","04,5,+00600,1,99,9","07,5,+02400,1,99,9",,,"07,99,1,99,9,99,9,99999,9,99,9,99,9","999,M,+9999,9","10129,1,99999,9",,,,,,"MET106METAR LPSJ 171200Z /////KT 9999 SCT020 BKN080 14/09 Q1013 RMK WIND RWY13 10009G20KT 070V120 RWY31 /////KT;","Q01 +00092ATMX  "
"08509599999","2010-12-17T13:00:00","4","38.6655","-28.175817","94.79","SAO JORGE, PO","FM-15","LPSJ ","V020","999,9,9,9999,9","02400,1,C,N","011265,1,N,1","+0150,1","+0100,1","99999,9","04,5,+00750,1,99,9","07,5,+02400,1,99,9",,,"07,99,1,99,9,99,9,99999,9,99,9,99,9",,"10119,1,99999,9",,,,,,"MET106METAR LPSJ 171300Z /////KT 9999 SCT025 BKN080 15/10 Q1012 RMK WIND RWY13 08006G16KT 040V210 RWY31 /////KT;",
"08509599999","2010-12-17T14:00:00","4","38.6655","-28.175817","94.79","SAO JORGE, PO","FM-15","LPSJ ","V020","999,9,9,9999,9","01200,1,C,N","011265,1,N,1","+0150,1","+0090,1","99999,9","04,5,+00540,1,99,9","07,5,+01200,1,99,9",,,"07,99,1,99,9,99,9,99999,9,99,9,99,9",,"10119,1,99999,9",,,,,,"MET106METAR LPSJ 171400Z /////KT 9999 SCT018 BKN040 15/09 Q1012 RMK WIND RWY13 17008G18KT 100V260 RWY31 /////KT;",
"08509599999","2010-12-17T15:00:00","4","38.6655","-28.175817","94.79","SAO JORGE, PO","FM-15","LPSJ ","V020","999,9,9,9999,9","00750,1,C,N","011265,1,N,1","+0150,1","+0090,1","99999,9","04,5,+00540,1,99,9","07,5,+00750,1,99,9",,,"07,99,1,99,9,99,9,99999,9,99,9,99,9",,"10108,1,99999,9",,,,,,"MET106METAR LPSJ 171500Z /////KT 9999 SCT018 BKN025 15/09 Q1011 RMK WIND RWY13 06025G35KT 030V120 RWY31 /////KT;",
"08509599999","2010-12-18T12:00:00","4","38.6655","-28.175817","94.79","SAO JORGE, PO","FM-15","LPSJ ","V020","999,9,V,0021,1","22000,1,9,N","011265,1,N,1","+0140,1","+0080,1","99999,9","02,5,+00900,1,99,9",,,,"02,99,1,99,9,99,9,99999,9,99,9,99,9",,"10102,1,99999,9",,,,,,"MET088METAR LPSJ 181200Z /////KT 9999 FEW030 14/08 Q1010 RMK WIND RWY13 VRB04KT RWY31 /////KT;",
"08509599999","2010-12-18T13:00:00","4","38.6655","-28.175817","94.79","SAO JORGE, PO","FM-15","LPSJ ","V020","999,9,V,0021,1","22000,1,9,N","011265,1,N,1","+0150,1","+0080,1","99999,9","02,5,+00900,1,99,9",,,,"02,99,1,99,9,99,9,99999,9,99,9,99,9",,"10091,1,99999,9",,,,,,"MET088METAR LPSJ 181300Z /////KT 9999 FEW030 15/08 Q1009 RMK WIND RWY13 VRB04KT RWY31 /////KT;",
"08509599999","2010-12-18T14:00:00","4","38.6655","-28.175817","94.79","SAO JORGE, PO","FM-15","LPSJ ","V020","999,9,V,0021,1","22000,1,9,N","011265,1,N,1","+0150,1","+0080,1","99999,9","02,5,+00900,1,99,9",,,,"02,99,1,99,9,99,9,99999,9,99,9,99,9",,"10081,1,99999,9",,,,,,"MET088METAR LPSJ 181400Z /////KT 9999 FEW030 15/08 Q1008 RMK WIND RWY13 VRB04KT RWY31 /////KT;",
"08509599999","2010-12-18T15:00:00","4","38.6655","-28.175817","94.79","SAO JORGE, PO","FM-15","LPSJ ","V020","999,9,V,0021,1","22000,1,9,N","011265,1,N,1","+0150,1","+0080,1","99999,9","02,5,+00750,1,99,9",,,,"02,99,1,99,9,99,9,99999,9,99,9,99,9",,"10081,1,99999,9",,,,,,"MET088METAR LPSJ 181500Z /////KT 9999 FEW025 15/08 Q1008 RMK WIND RWY13 VRB04KT RWY31 /////KT;",
"08509599999","2010-12-18T16:00:00","4","38.6655","-28.175817","94.79","SAO JORGE, PO","FM-15","LPSJ ","V020","999,9,V,0015,1","22000,1,9,N","011265,1,N,1","+0150,1","+0090,1","99999,9","04,5,+00750,1,99,9",,,,"04,99,1,99,9,99,9,99999,9,99,9,99,9",,"10081,1,99999,9",,,,,,"MET088METAR LPSJ 181600Z /////KT 9999 SCT025 15/09 Q1008 RMK WIND RWY13 VRB03KT RWY31 /////KT;",
"08509599999","2010-12-18T17:00:00","4","38.6655","-28.175817","94.79","SAO JORGE, PO","FM-15","LPSJ ","V020","999,9,V,0015,1","22000,1,9,N","011265,1,N,1","+0140,1","+0080,1","99999,9","02,5,+00900,1,99,9",,,,"02,99,1,99,9,99,9,99999,9,99,9,99,9",,"10071,1,99999,9",,,,,,"MET088METAR LPSJ 181700Z /////KT 9999 FEW030 14/08 Q1007 RMK WIND RWY13 VRB03KT RWY31 /////KT;",
"08509599999","2010-12-18T18:00:00","4","38.6655","-28.175817","94.79","SAO JORGE, PO","FM-15","LPSJ ","V020","999,9,V,0015,1","22000,1,9,N","011265,1,N,1","+0140,1","+0090,1","99999,9","02,5,+00900,1,99,9",,,,"02,99,1,99,9,99,9,99999,9,99,9,99,9",,"10071,1,99999,9",,,,,,"MET088METAR LPSJ 181800Z /////KT 9999 FEW030 14/09 Q1007 RMK WIND RWY13 VRB03KT RWY31 /////KT;",
"08509599999","2010-12-19T11:00:00","4","38.6655","-28.175817","94.79","SAO JORGE, PO","FM-15","LPSJ ","V020","999,9,9,9999,9","01200,1,C,N","011265,1,N,1","+0130,1","+0090,1","99999,9","02,5,+00750,1,99,9","07,5,+01200,1,99,9",,,"07,99,1,99,9,99,9,99999,9,99,9,99,9",,"10041,1,99999,9",,,,,,"MET095METAR LPSJ 191100Z /////KT 9999 FEW025 BKN040 13/09 Q1004 RMK WIND RWY13 12007KT RWY31 /////KT;",
"08509599999","2010-12-19T12:00:00","4","38.6655","-28.175817","94.79","SAO JORGE, PO","FM-15","LPSJ ","V020","999,9,9,9999,9","01200,1,C,N","011265,1,N,1","+0140,1","+0090,1","99999,9","02,5,+00750,1,99,9","07,5,+01200,1,99,9",,,"07,99,1,99,9,99,9,99999,9,99,9,99,9",,"10041,1,99999,9",,,,,,"MET095METAR LPSJ 191200Z /////KT 9999 FEW025 BKN040 14/09 Q1004 RMK WIND RWY13 12009KT RWY31 /////KT;",
"08509599999","2010-12-19T13:00:00","4","38.6655","-28.175817","94.79","SAO JORGE, PO","FM-15","LPSJ ","V020","999,9,9,9999,9","01200,1,C,N","011265,1,N,1","+0130,1","+0090,1","99999,9","04,5,+00600,1,99,9","07,5,+01200,1,99,9",,,"07,99,1,99,9,99,9,99999,9,99,9,99,9",,"10041,1,99999,9",,,,,,"MET095METAR LPSJ 191300Z /////KT 9999 SCT020 BKN040 13/09 Q1004 RMK WIND RWY13 11010KT RWY31 /////KT;",
"08509599999","2010-12-19T14:00:00","4","38.6655","-28.175817","94.79","SAO JORGE, PO","FM-15","LPSJ ","V020","999,9,9,9999,9","01200,1,C,N","011265,1,N,1","+0140,1","+0090,1","99999,9","04,5,+00600,1,99,9","07,5,+01200,1,99,9",,,"07,99,1,99,9,99,9,99999,9,99,9,99,9",,"10020,1,99999,9",,,,,,"MET095METAR LPSJ 191400Z /////KT 9999 SCT020 BKN040 14/09 Q1002 RMK WIND RWY13 12007KT RWY31 /////KT;",
"08509599999","2010-12-20T11:00:00","4","38.6655","-28.175817","94.79","SAO JORGE, PO","FM-15","LPSJ ","V020","999,9,C,0000,1","22000,1,9,N","011265,1,N,1","+0140,1","+0110,1","99999,9","02,5,+00540,1,99,9",,,,"02,99,1,99,9,99,9,99999,9,99,9,99,9",,"10010,1,99999,9",,,,,,"MET088METAR LPSJ 201100Z /////KT 9999 FEW018 14/11 Q1001 RMK WIND RWY13 00000KT RWY31 /////KT;",
"08509599999","2010-12-20T12:00:00","4","38.6655","-28.175817","94.79","SAO JORGE, PO","FM-15","LPSJ ","V020","999,9,9,9999,9","99999,9,C,N","011265,1,N,1","+0150,1","+0120,1","99999,9","04,5,+00480,1,99,9","04,5,+00900,1,99,9",,,"04,99,1,99,9,99,9,99999,9,99,9,99,9",,"10010,1,99999,9",,,,,,"MET095METAR LPSJ 201200Z /////KT 9999 SCT016 SCT030 15/12 Q1001 RMK WIND RWY13 14006KT RWY31 /////KT;","P01 009003SCOCIG"
"08509599999","2010-12-20T13:00:00","4","38.6655","-28.175817","94.79","SAO JORGE, PO","FM-15","LPSJ ","V020","999,9,9,9999,9","99999,9,C,N","011265,1,N,1","+0150,1","+0120,1","99999,9","02,5,+00480,1,99,9","04,5,+01200,1,99,9",,,"04,99,1,99,9,99,9,99999,9,99,9,99,9",,"10000,1,99999,9",,,,,,"MET095METAR LPSJ 201300Z /////KT 9999 FEW016 SCT040 15/12 Q1000 RMK WIND RWY13 14009KT RWY31 /////KT;","P01 012003SCOCIG"
"08509599999","2010-12-20T14:00:00","4","38.6655","-28.175817","94.79","SAO JORGE, PO","FM-15","LPSJ ","V020","999,9,9,9999,9","00750,1,C,N","011265,1,N,1","+0150,1","+0130,1","99999,9","04,5,+00450,1,99,9","04,5,+00750,1,99,9","07,5,+02100,1,99,9",,"07,99,1,99,9,99,9,99999,9,99,9,99,9",,"09990,1,99999,9",,,,,,"MET110METAR LPSJ 201400Z /////KT 9999 SCT015 SCT025 BKN070 15/13 Q0999 RMK WIND RWY13 14005KT 120V180 RWY31 /////KT;",
"08509599999","2010-12-21T08:00:00","4","38.6655","-28.175817","94.79","SAO JORGE, PO","FM-15","LPSJ ","V020","999,9,9,9999,9","22000,1,9,N","011265,1,N,1","+0140,1","+0110,1","99999,9","04,5,+00480,1,99,9",,,,"04,99,1,99,9,99,9,99999,9,99,9,99,9",,"09980,1,99999,9",,,,,,"MET110METAR LPSJ 210800Z /////KT 9999 SCT016 14/11 Q0998 RMK WIND RWY13 32020G30KT 270V350 RWY31 31017G30KT 230V340;",
"08509599999","2010-12-21T09:00:00","4","38.6655","-28.175817","94.79","SAO JORGE, PO","FM-15","LPSJ ","V020","999,9,9,9999,9","99999,9,C,N","011265,1,N,1","+0140,1","+0080,1","99999,9","04,5,+00540,1,99,9","04,5,+00900,1,99,9",,,"04,99,1,99,9,99,9,99999,9,99,9,99,9",,"09990,1,99999,9",,,,,,"MET117METAR LPSJ 210900Z /////KT 9999 SCT018 SCT030 14/08 Q0999 RMK WIND RWY13 32024G34KT 260V360 RWY31 31021G33KT 230V350;","P01 009003SCOCIG"
"08509599999","2010-12-21T10:00:00","4","38.6655","-28.175817","94.79","SAO JORGE, PO","FM-15","LPSJ ","V020","999,9,9,9999,9","00540,5,C,N","011265,1,N,1","+0130,1","+0090,1","99999,9","04,5,+00480,1,99,9","02,5,+00540,1,02,5",,,,,"09990,1,99999,9",,,,,,"MET120METAR LPSJ 211000Z /////KT 9999 SCT016 FEW018TCU 13/09 Q0999 RMK WIND RWY13 32024G35KT 270V350 RWY31 31025G37KT 250C350;","Q01+000022SCOTCV"
"08509599999","2010-12-21T11:00:00","4","38.6655","-28.175817","94.79","SAO JORGE, PO","FM-15","LPSJ ","V020","999,9,9,9999,9","00600,5,C,N","011265,1,N,1","+0140,1","+0100,1","99999,9","04,5,+00480,1,99,9","02,5,+00600,1,02,5",,,,,"10000,1,99999,9",,,,,,"MET120METAR LPSJ 211100Z /////KT 9999 SCT016 FEW020TCU 14/10 Q1000 RMK WIND RWY13 32016G27KT 290V350 RWY31 31021G31KT 270V350;","Q01+000022SCOTCV"
"08509599999","2010-12-21T14:00:00","4","38.6655","-28.175817","94.79","SAO JORGE, PO","FM-15","LPSJ ","V020","999,9,9,9999,9","00600,5,C,N","011265,1,N,1","+0150,1","+0120,1","99999,9","04,5,+00480,1,99,9","02,5,+00600,1,02,5",,,,,"10031,1,99999,9",,,,,,"MET120METAR LPSJ 211400Z /////KT 9999 SCT016 FEW020TCU 15/12 Q1003 RMK WIND RWY13 33018G28KT 300V360 RWY31 32018G33KT 290V360;","Q01+000022SCOTCV"
"08509599999","2010-12-21T15:00:00","4","38.6655","-28.175817","94.79","SAO JORGE, PO","FM-15","LPSJ ","V020","999,9,9,9999,9","00600,5,C,N","011265,1,N,1","+0150,1","+0100,1","99999,9","04,5,+00480,1,99,9","02,5,+00600,1,02,5",,,,,"10031,1,99999,9",,,,,,"MET120METAR LPSJ 211500Z /////KT 9999 SCT016 FEW020TCU 15/10 Q1003 RMK WIND RWY13 34020G30KT 300V360 RWY31 34025G37KT 300V010;","Q01+000022SCOTCV"
"08509599999","2010-12-21T16:00:00","4","38.6655","-28.175817","94.79","SAO JORGE, PO","FM-15","LPSJ ","V020","999,9,9,9999,9","00540,5,C,N","011265,1,N,1","+0150,1","+0110,1","99999,9","04,5,+00480,1,99,9","02,5,+00540,1,02,5",,,,,"10041,1,99999,9",,,,,,"MET120METAR LPSJ 211600Z /////KT 9999 SCT016 FEW018TCU 15/11 Q1004 RMK WIND RWY13 34021G33KT 300V020 RWY31 34024G37KT 300V020;","Q01+000022SCOTCV"
"08509599999","2010-12-22T09:00:00","4","38.6655","-28.175817","94.79","SAO JORGE, PO","FM-15","LPSJ ","V020","999,9,9,9999,9","06000,1,C,N","011265,1,N,1","+0100,1","+0060,1","99999,9","02,5,+00900,1,99,9","07,5,+06000,1,99,9",,,"07,99,1,99,9,99,9,99999,9,99,9,99,9",,"10139,1,99999,9",,,,,,"MET095METAR LPSJ 220900Z /////KT 9999 FEW030 BKN200 10/06 Q1014 RMK WIND RWY13 03008KT RWY31 02007KT;",
"08509599999","2010-12-22T10:00:00","4","38.6655","-28.175817","94.79","SAO JORGE, PO","FM-15","LPSJ ","V020","999,9,9,9999,9","99999,9,C,N","011265,1,N,1","+0100,1","+0060,1","99999,9","02,5,+00900,1,99,9","04,5,+02400,1,99,9",,,"04,99,1,99,9,99,9,99999,9,99,9,99,9",,"10139,1,99999,9",,,,,,"MET095METAR LPSJ 221000Z /////KT 9999 FEW030 SCT080 10/06 Q1014 RMK WIND RWY13 06006KT RWY31 04006KT;","P01 024003SCOCIG"
"08509599999","2010-12-22T11:00:00","4","38.6655","-28.175817","94.79","SAO JORGE, PO","FM-15","LPSJ ","V020","999,9,V,0015,1","02400,1,C,N","011265,1,N,1","+0100,1","+0070,1","99999,9","02,5,+00900,1,99,9","04,5,+02400,1,99,9","07,5,+06000,1,99,9",,"07,99,1,99,9,99,9,99999,9,99,9,99,9",,"10139,1,99999,9",,,,,,"MET102METAR LPSJ 221100Z /////KT 9999 FEW030 SCT080 BKN200 10/07 Q1014 RMK WIND RWY13 VRB03KT RWY31 VRB03KT;",
"08509599999","2010-12-22T12:00:00","4","38.6655","-28.175817","94.79","SAO JORGE, PO","FM-15","LPSJ ","V020","999,9,V,0021,1","02400,1,C,N","011265,1,N,1","+0110,1","+0080,1","99999,9","02,5,+00900,1,99,9","04,5,+02400,1,99,9","07,5,+06000,1,99,9",,"07,99,1,99,9,99,9,99999,9,99,9,99,9",,"10159,1,99999,9",,,,,,"MET102METAR LPSJ 221200Z /////KT 9999 FEW030 SCT080 BKN200 11/08 Q1016 RMK WIND RWY13 VRB04KT RWY31 VRB02KT;",
"08509599999","2010-12-22T14:00:00","4","38.6655","-28.175817","94.79","SAO JORGE, PO","FM-15","LPSJ ","V020","999,9,9,9999,9","02700,1,C,N","011265,1,N,1","+0130,1","+0080,1","99999,9","02,5,+00900,1,99,9","07,5,+02700,1,99,9",,,"07,99,1,99,9,99,9,99999,9,99,9,99,9","999,M,+9999,9","10129,1,99999,9",,,,,,"MET095METAR LPSJ 221400Z /////KT 9999 FEW030 BKN090 13/08 Q1013 RMK WIND RWY13 12009KT RWY31 11010KT;","Q01 -00102ATMX  "
"08509599999","2010-12-22T15:00:00","4","38.6655","-28.175817","94.79","SAO JORGE, PO","FM-15","LPSJ ","V020","999,9,9,9999,9","02400,1,C,N","011265,1,N,1","+0120,1","+0080,1","99999,9","02,5,+00750,1,99,9","07,5,+02400,1,99,9",,,"07,99,1,99,9,99,9,99999,9,99,9,99,9","999,M,+9999,9","10129,1,99999,9",,,,,,"MET095METAR LPSJ 221500Z /////KT 9999 FEW025 BKN080 12/08 Q1013 RMK WIND RWY13 12008KT RWY31 11007KT;","Q01 -00072ATMX  "
"08509599999","2010-12-23T08:00:00","4","38.6655","-28.175817","94.79","SAO JORGE, PO","FM-15","LPSJ ","V020","999,9,9,9999,9","00420,1,C,N","011265,1,N,1","+0160,1","+0150,1","99999,9","02,5,+00240,1,99,9","04,5,+00420,1,99,9","07,5,+00750,1,99,9",,"07,99,1,99,9,99,9,99999,9,99,9,99,9",,"10020,1,99999,9","61,1",,,,,"MET125METAR LPSJ 230800Z /////KT 9999 -RA FEW008 SCT014 BKN025 16/15 Q1002 RMK WIND RWY13 13014G24KT 100V160 RWY31 12018KT 090V150;",
"08509599999","2010-12-23T09:00:00","4","38.6655","-28.175817","94.79","SAO JORGE, PO","FM-15","LPSJ ","V020","999,9,9,9999,9","00420,1,C,N","011265,1,N,1","+0170,1","+0140,1","99999,9","02,5,+00210,1,99,9","07,5,+00420,1,99,9",,,"07,99,1,99,9,99,9,99999,9,99,9,99,9",,"10010,1,99999,9",,,,,,"MET117METAR LPSJ 230900Z /////KT 9999 FEW007 BKN014 17/14 Q1001 RMK WIND RWY13 19013G25KT 090V260 RWY31 17019G38KT 080V270;",
"08509599999","2010-12-23T10:00:00","4","38.6655","-28.175817","94.79","SAO JORGE, PO","FM-15","LPSJ ","V020","999,9,9,9999,9","00390,1,C,N","008000,1,N,1","+0160,1","+0150,1","99999,9","04,5,+00150,1,99,9","07,5,+00390,1,99,9",,,"07,99,1,99,9,99,9,99999,9,99,9,99,9",,"10010,1,99999,9","61,1",,,,,"MET121METAR LPSJ 231000Z /////KT 8000 -RA SCT005 BKN013 16/15 Q1001 RMK WIND RWY13 13012G23KT 090V190 RWY31 14015G26KT 080V210;",
"08509599999","2010-12-23T11:00:00","4","38.6655","-28.175817","94.79","SAO JORGE, PO","FM-15","LPSJ ","V020","999,9,9,9999,9","00390,1,C,N","008000,1,N,1","+0160,1","+0150,1","99999,9","04,5,+00150,1,99,9","07,5,+00390,1,99,9",,,"07,99,1,99,9,99,9,99999,9,99,9,99,9",,"10000,1,99999,9","61,1",,,,,"MET121METAR LPSJ 231100Z /////KT 8000 -RA SCT005 BKN013 16/15 Q1000 RMK WIND RWY13 13012G22KT 090V200 RWY31 13012G23KT 090V190;",
"08509599999","2010-12-23T12:00:00","4","38.6655","-28.175817","94.79","SAO JORGE, PO","FM-15","LPSJ ","V020","999,9,9,9999,9","00210,1,C,N","008000,1,N,1","+0170,1","+0160,1","99999,9","02,5,+00120,1,99,9","04,5,+00210,1,99,9","07,5,+00390,1,99,9",,"07,99,1,99,9,99,9,99999,9,99,9,99,9",,"10010,1,99999,9","61,1",,,,,"MET125METAR LPSJ 231200Z /////KT 8000 -RA FEW004 SCT007 BKN013 17/16 Q1001 RMK WIND RWY13 17013KT 090V240 RWY31 16014G26KT 090V230;",
"08509599999","2010-12-23T13:00:00","4","38.6655","-28.175817","94.79","SAO JORGE, PO","FM-15","LPSJ ","V020","999,9,9,9999,9","00390,1,C,N","011265,1,N,1","+0170,1","+0160,1","99999,9","04,5,+00210,1,99,9","07,5,+00390,1,99,9",,,"07,99,1,99,9,99,9,99999,9,99,9,99,9",,"10010,1,99999,9",,,,,,"MET114METAR LPSJ 231300Z /////KT 9999 SCT007 BKN013 17/16 Q1001 RMK WIND RWY13 24008KT 150V300 RWY31 24013G23KT 360V360;",
"08509599999","2010-12-23T14:00:00","4","38.6655","-28.175817","94.79","SAO JORGE, PO","FM-15","LPSJ ","V020","999,9,9,9999,9","00420,1,C,N","011265,1,N,1","+0170,1","+0160,1","99999,9","02,5,+00240,1,99,9","07,5,+00420,1,99,9",,,"07,99,1,99,9,99,9,99999,9,99,9,99,9",,"10000,1,99999,9",,,,,,"MET114METAR LPSJ 231400Z /////KT 9999 FEW008 BKN014 17/16 Q1000 RMK WIND RWY13 27008KT 180V330 RWY31 26009G20KT 180V340;",
"08509599999","2010-12-23T15:00:00","4","38.6655","-28.175817","94.79","SAO JORGE, PO","FM-15","LPSJ ","V020","999,9,9,9999,9","99999,9,C,N","011265,1,N,1","+0180,1","+0160,1","99999,9","04,5,+00420,1,99,9","04,5,+02100,1,99,9",,,"04,99,1,99,9,99,9,99999,9,99,9,99,9",,"10000,1,99999,9",,,,,,"MET111METAR LPSJ 231500Z /////KT 9999 SCT014 SCT070 18/16 Q1000 RMK WIND RWY13 27008KT 240V310 RWY31 26013KT 230V300;","P01 021003SCOCIG"
"08509599999","2010-12-23T16:00:00","4","38.6655","-28.175817","94.79","SAO JORGE, PO","FM-15","LPSJ ","V020","999,9,9,9999,9","22000,1,9,N","011265,1,N,1","+0180,1","+0150,1","99999,9","04,5,+00480,1,99,9",,,,"04,99,1,99,9,99,9,99999,9,99,9,99,9",,"09990,1,99999,9",,,,,,"MET107METAR LPSJ 231600Z /////KT 9999 SCT016 18/15 Q0999 RMK WIND RWY13 29012KT 250V330 RWY31 26012G22KT 210V300;",
"08509599999","2010-12-23T17:00:00","4","38.6655","-28.175817","94.79","SAO JORGE, PO","FM-15","LPSJ ","V020","999,9,9,9999,9","22000,1,9,N","011265,1,N,1","+0190,1","+0150,1","99999,9","04,5,+00480,1,99,9",,,,"04,99,1,99,9,99,9,99999,9,99,9,99,9",,"09990,1,99999,9",,,,,,"MET104METAR LPSJ 231700Z /////KT 9999 SCT016 19/15 Q0999 RMK WIND RWY13 29008KT 230V320 RWY31 26012KT 210V300;",
"08509599999","2010-12-24T10:00:00","4","38.6655","-28.175817","94.79","SAO JORGE, PO","FM-15","LPSJ ","V020","999,9,9,9999,9","99999,9,C,N","011265,1,N,1","+0160,1","+0150,1","99999,9","02,5,+00240,1,99,9","04,5,+00480,1,99,9",,,"04,99,1,99,9,99,9,99999,9,99,9,99,9",,"10071,1,99999,9",,,,,,"MET111METAR LPSJ 241000Z /////KT 9999 FEW008 SCT016 16/15 Q1007 RMK WIND RWY13 27006KT 240V320 RWY31 26012KT 230V300;","P01 004803SCOCIG"
"08509599999","2010-12-24T11:00:00","4","38.6655","-28.175817","94.79","SAO JORGE, PO","FM-15","LPSJ ","V020","999,9,9,9999,9","22000,1,9,N","011265,1,N,1","+0170,1","+0160,1","99999,9","02,5,+00300,1,99,9",,,,"02,99,1,99,9,99,9,99999,9,99,9,99,9",,"10081,1,99999,9",,,,,,"MET104METAR LPSJ 241100Z /////KT 9999 FEW010 17/16 Q1008 RMK WIND RWY13 29007KT 250V320 RWY31 27012KT 230V300;",
"08509599999","2010-12-24T12:00:00","4","38.6655","-28.175817","94.79","SAO JORGE, PO","FM-15","LPSJ ","V020","999,9,9,9999,9","22000,1,9,N","011265,1,N,1","+0180,1","+0160,1","99999,9","02,5,+00300,1,99,9",,,,"02,99,1,99,9,99,9,99999,9,99,9,99,9",,"10091,1,99999,9",,,,,,"MET088METAR LPSJ 241200Z /////KT 9999 FEW010 18/16 Q1009 RMK WIND RWY13 26004KT RWY31 25006KT;",
"08509599999","2010-12-26T09:00:00","4","38.6655","-28.175817","94.79","SAO JORGE, PO","FM-15","LPSJ ","V020","999,9,9,9999,9","00420,1,C,N","011265,1,N,1","+0170,1","+0150,1","99999,9","07,5,+00420,1,99,9",,,,"07,99,1,99,9,99,9,99999,9,99,9,99,9",,"10031,1,99999,9","80,1",,,,,"MET110METAR LPSJ 260900Z /////KT 9999 -SHRA BKN014 17/15 Q1003 RMK WIND RWY13 27008KT 230V320 RWY31 26014KT 240V310;",
"08509599999","2010-12-26T10:00:00","4","38.6655","-28.175817","94.79","SAO JORGE, PO","FM-15","LPSJ ","V020","999,9,9,9999,9","00420,1,C,N","011265,1,N,1","+0160,1","+0140,1","99999,9","07,5,+00420,1,99,9",,,,"07,99,1,99,9,99,9,99999,9,99,9,99,9",,"10031,1,99999,9",,,,,,"MET104METAR LPSJ 261000Z /////KT 9999 BKN014 16/14 Q1003 RMK WIND RWY13 27005KT 240V320 RWY31 26012KT 230V300;",
"08509599999","2010-12-26T11:00:00","4","38.6655","-28.175817","94.79","SAO JORGE, PO","FM-15","LPSJ ","V020","999,9,V,0021,1","00480,1,C,N","011265,1,N,1","+0170,1","+0140,1","99999,9","07,5,+00480,1,99,9",,,,"07,99,1,99,9,99,9,99999,9,99,9,99,9",,"10020,1,99999,9",,,,,,"MET088METAR LPSJ 261100Z /////KT 9999 BKN016 17/14 Q1002 RMK WIND RWY13 VRB04KT RWY31 VRB05KT;",
"08509599999","2010-12-26T12:00:00","4","38.6655","-28.175817","94.79","SAO JORGE, PO","FM-15","LPSJ ","V020","999,9,9,9999,9","00480,1,C,N","008000,1,N,1","+0160,1","+0150,1","99999,9","04,5,+00270,1,99,9","07,5,+00480,1,99,9",,,"07,99,1,99,9,99,9,99999,9,99,9,99,9",,"10020,1,99999,9","80,1",,,,,"MET117METAR LPSJ 261200Z /////KT 8000 -SHRA SCT009 BKN016 16/15 Q1002 RMK WIND RWY13 21005KT 180V250 RWY31 21008KT 170V270;",
"08509599999","2010-12-26T13:00:00","4","38.6655","-28.175817","94.79","SAO JORGE, PO","FM-15","LPSJ ","V020","999,9,9,9999,9","00750,1,C,N","011265,1,N,1","+0150,1","+0140,1","99999,9","04,5,+00360,1,99,9","07,5,+00750,1,99,9",,,"07,99,1,99,9,99,9,99999,9,99,9,99,9",,"10010,1,99999,9",,,,,,"MET119METAR LPSJ 261300Z /////KT 9999 SCT012 BKN025 15/14 Q1001 RERA RMK WIND RWY13 26013KT 220V330 RWY31 26009G19KT 230V300;",
"08509599999","2010-12-26T14:00:00","4","38.6655","-28.175817","94.79","SAO JORGE, PO","FM-15","LPSJ ","V020","999,9,9,9999,9","99999,9,C,N","011265,1,N,1","+0160,1","+0130,1","99999,9","04,5,+00450,1,99,9","04,5,+00750,1,99,9",,,"04,99,1,99,9,99,9,99999,9,99,9,99,9",,"10010,1,99999,9",,,,,,"MET111METAR LPSJ 261400Z /////KT 9999 SCT015 SCT025 16/13 Q1001 RMK WIND RWY13 26006KT 230V310 RWY31 25008KT 220V290;","P01 007503SCOCIG"
"08509599999","2010-12-27T12:00:00","4","38.6655","-28.175817","94.79","SAO JORGE, PO","FM-15","LPSJ ","V020","999,9,9,9999,9","99999,9,C,N","011265,1,N,1","+0140,1","+0110,1","99999,9","04,5,+00480,1,99,9","02,5,+00540,1,09,5","04,5,+06000,1,99,9",,"04,99,1,99,9,99,9,99999,9,99,9,99,9",,"10041,1,99999,9",,,,,,"MET104METAR LPSJ 271200Z /////KT 9999 SCT016 FEW018CB SCT200 14/11 Q1004 RMK WIND RWY13 /////KT RWY31 /////KT;","P01 005403SCOCIG"
"08509599999","2010-12-27T13:00:00","4","38.6655","-28.175817","94.79","SAO JORGE, PO","FM-15","LPSJ ","V020","999,9,9,9999,9","22000,1,9,N","011265,1,N,1","+0150,1","+0110,1","99999,9","02,5,+00540,1,99,9","02,5,+00600,1,09,5",,,"02,99,1,99,9,99,9,99999,9,99,9,99,9",,"10041,1,99999,9",,,,,,"MET097METAR LPSJ 271300Z /////KT 9999 FEW018 FEW020CB 15/11 Q1004 RMK WIND RWY13 /////KT RWY31 /////KT;",
"08509599999","2010-12-27T14:00:00","4","38.6655","-28.175817","94.79","SAO JORGE, PO","FM-15","LPSJ ","V020","999,9,9,9999,9","00420,1,C,N","011265,1,N,1","+0140,1","+0120,1","99999,9","07,5,+00420,1,99,9","02,5,+00510,1,09,5",,,,,"10031,1,99999,9","80,1",,,,,"MET103METAR LPSJ 271400Z /////KT 9999 -SHRA BKN014 FEW017CB 14/12 Q1003 RMK WIND RWY13 /////KT RWY31 /////KT;","Q01+000022SCOTCV"
"08509599999","2010-12-27T15:00:00","4","38.6655","-28.175817","94.79","SAO JORGE, PO","FM-15","LPSJ ","V020","999,9,9,9999,9","99999,9,C,N","011265,1,N,1","+0140,1","+0110,1","99999,9","02,5,+00480,1,99,9","02,5,+00540,1,09,5","04,5,+06000,1,99,9",,"04,99,1,99,9,99,9,99999,9,99,9,99,9",,"10020,1,99999,9",,,,,,"MET104METAR LPSJ 271500Z /////KT 9999 FEW016 FEW018CB SCT200 14/11 Q1002 RMK WIND RWY13 /////KT RWY31 /////KT;","P01 060003SCOCIG"
"08509599999","2010-12-27T17:00:00","4","38.6655","-28.175817","94.79","SAO JORGE, PO","FM-15","LPSJ ","V020","999,9,9,9999,9","99999,9,C,N","011265,1,N,1","+0160,1","+0110,1","99999,9","02,5,+00600,1,99,9","02,5,+00660,1,09,5","04,5,+06000,1,99,9",,"04,99,1,99,9,99,9,99999,9,99,9,99,9",,"10020,1,99999,9",,,,,,"MET104METAR LPSJ 271700Z /////KT 9999 FEW020 FEW022CB SCT200 16/11 Q1002 RMK WIND RWY13 /////KT RWY31 /////KT;","P01 060003SCOCIG"
"08509599999","2010-12-28T15:00:00","4","38.6655","-28.175817","94.79","SAO JORGE, PO","FM-15","LPSJ ","V020","999,9,9,9999,9","00510,5,C,N","011265,1,N,1","+0150,1","+0110,1","99999,9","04,5,+00480,1,99,9","02,5,+00510,1,09,5",,,,,"10031,1,99999,9",,,,,,"MET097METAR LPSJ 281500Z /////KT 9999 SCT016 FEW017CB 15/11 Q1003 RMK WIND RWY13 /////KT RWY31 /////KT;","Q01+000022SCOTCV"
"08509599999","2010-12-28T16:00:00","4","38.6655","-28.175817","94.79","SAO JORGE, PO","FM-15","LPSJ ","V020","999,9,9,9999,9","00510,5,C,N","011265,1,N,1","+0150,1","+0100,1","99999,9","04,5,+00480,1,99,9","02,5,+00510,1,09,5",,,,,"10031,1,99999,9",,,,,,"MET095METAR LPSJ 281600Z /////KT 9999 SCT016 FEW017CB 15/10 Q1003 RMK WIND RWY13 /////KT RWY31 /////;","Q01+000022SCOTCV"
"08509599999","2010-12-28T17:00:00","4","38.6655","-28.175817","94.79","SAO JORGE, PO","FM-15","LPSJ ","V020","999,9,9,9999,9","00510,5,C,N","011265,1,N,1","+0150,1","+0100,1","99999,9","04,5,+00480,1,99,9","02,5,+00510,1,02,5",,,,,"10041,1,99999,9",,,,,,"MET098METAR LPSJ 281700Z /////KT 9999 SCT016 FEW017TCU 15/10 Q1004 RMK WIND RWY13 /////KT RWY31 /////KT;","Q01+000022SCOTCV"
"08509599999","2010-12-28T18:00:00","4","38.6655","-28.175817","94.79","SAO JORGE, PO","FM-15","LPSJ ","V020","999,9,9,9999,9","00510,5,C,N","011265,1,N,1","+0140,1","+0110,1","99999,9","04,5,+00450,1,99,9","02,5,+00510,1,02,5",,,,,"10051,1,99999,9",,,,,,"MET098METAR LPSJ 281800Z /////KT 9999 SCT015 FEW017TCU 14/11 Q1005 RMK WIND RWY13 /////KT RWY31 /////KT;","Q01+000022SCOTCV"
"08509599999","2010-12-29T09:00:00","4","38.6655","-28.175817","94.79","SAO JORGE, PO","FM-15","LPSJ ","V020","999,9,9,9999,9","22000,1,9,N","011265,1,N,1","+0130,1","+0100,1","99999,9","02,5,+00450,1,99,9",,,,"02,99,1,99,9,99,9,99999,9,99,9,99,9",,"10091,1,99999,9",,,,,,"MET088METAR LPSJ 290900Z /////KT 9999 FEW015 13/10 Q1009 RMK WIND RWY13 /////KT RWY31 /////KT;",
"08509599999","2010-12-29T10:00:00","4","38.6655","-28.175817","94.79","SAO JORGE, PO","FM-15","LPSJ ","V020","999,9,9,9999,9","99999,9,C,N","011265,1,N,1","+0130,1","+0100,1","99999,9","02,5,+00450,1,99,9","04,5,+06000,1,99,9",,,"04,99,1,99,9,99,9,99999,9,99,9,99,9",,"10102,1,99999,9",,,,,,"MET096METAR LPSJ 291000Z /////KT 9999 FEW015 SCT200 13/10 Q1010 RMK WIND REWY13 /////KT RWY31 /////KT;","P01 060003SCOCIG"
"08509599999","2010-12-29T11:00:00","4","38.6655","-28.175817","94.79","SAO JORGE, PO","FM-15","LPSJ ","V020","999,9,9,9999,9","99999,9,C,N","011265,1,N,1","+0140,1","+0100,1","99999,9","02,5,+00480,1,99,9","04,5,+06000,1,99,9",,,"04,99,1,99,9,99,9,99999,9,99,9,99,9",,"10102,1,99999,9",,,,,,"MET095METAR LPSJ 291100Z /////KT 9999 FEW016 SCT200 14/10 Q1010 RMK WIND RWY13 /////KT RWY31 /////KT;","P01 060003SCOCIG"
"08509599999","2010-12-29T13:00:00","4","38.6655","-28.175817","94.79","SAO JORGE, PO","FM-15","LPSJ ","V020","999,9,9,9999,9","99999,9,C,N","011265,1,N,1","+0160,1","+0100,1","99999,9","02,5,+00660,1,99,9","04,5,+06000,1,99,9",,,"04,99,1,99,9,99,9,99999,9,99,9,99,9",,"10102,1,99999,9",,,,,,"MET095METAR LPSJ 291300Z /////KT 9999 FEW022 SCT200 16/10 Q1010 RMK WIND RWY13 /////KT RWY31 /////KT;","P01 060003SCOCIG"
"08509599999","2010-12-29T14:00:00","4","38.6655","-28.175817","94.79","SAO JORGE, PO","FM-15","LPSJ ","V020","999,9,9,9999,9","06000,1,C,N","011265,1,N,1","+0160,1","+0100,1","99999,9","02,5,+00750,1,99,9","07,5,+06000,1,99,9",,,"07,99,1,99,9,99,9,99999,9,99,9,99,9",,"10091,1,99999,9",,,,,,"MET095METAR LPSJ 291400Z /////KT 9999 FEW025 BKN200 16/10 Q1009 RMK WIND RWY13 /////KT RWY31 /////KT;",
"08509599999","2010-12-30T08:00:00","4","38.6655","-28.175817","94.79","SAO JORGE, PO","FM-15","LPSJ ","V020","999,9,V,0026,1","99999,9,C,N","011265,1,N,1","+0140,1","+0120,1","99999,9","04,5,+00420,1,99,9","04,5,+00900,1,99,9",,,"04,99,1,99,9,99,9,99999,9,99,9,99,9",,"10071,1,99999,9",,,,,,"MET095METAR LPSJ 300800Z /////KT 9999 SCT014 SCT030 14/12 Q1007 RMK WIND RWY13 VRB05KT RWY31 VRB05KT;","P01 009003SCOCIG"
"08509599999","2010-12-30T09:00:00","4","38.6655","-28.175817","94.79","SAO JORGE, PO","FM-15","LPSJ ","V020","999,9,9,9999,9","00750,1,C,N","011265,1,N,1","+0140,1","+0120,1","99999,9","04,5,+00480,1,99,9","07,5,+00750,1,99,9",,,"07,99,1,99,9,99,9,99999,9,99,9,99,9",,"10081,1,99999,9",,,,,,"MET095METAR LPSJ 300900Z /////KT 9999 SCT016 BKN025 14/12 Q1008 RMK WIND RWY13 13006KT RWY31 12008KT;",
"08509599999","2010-12-30T10:00:00","4","38.6655","-28.175817","94.79","SAO JORGE, PO","FM-15","LPSJ ","V020","999,9,V,0015,1","00750,1,C,N","011265,1,N,1","+0150,1","+0130,1","99999,9","04,5,+00480,1,99,9","07,5,+00750,1,99,9",,,"07,99,1,99,9,99,9,99999,9,99,9,99,9",,"10081,1,99999,9",,,,,,"MET095METAR LPSJ 301000Z /////KT 9999 SCT016 BKN025 15/13 Q1008 RMK WIND RWY13 VRB03KT RWY31 VRB06KT;",
"08509599999","2010-12-30T13:00:00","4","38.6655","-28.175817","94.79","SAO JORGE, PO","FM-15","LPSJ ","V020","999,9,9,9999,9","99999,9,C,N","011265,1,N,1","+0170,1","+0160,1","99999,9","04,5,+00300,1,99,9","04,5,+00600,1,99,9",,,"04,99,1,99,9,99,9,99999,9,99,9,99,9",,"10081,1,99999,9",,,,,,"MET096METAR LPSJ 301300Z /////KT 9999 SCT010 SCT020 17/16 Q1008 RMK WIND REWY13 13006KT RWY31 13004KT;","P01 006003SCOCIG"
"08509599999","2010-12-30T15:00:00","4","38.6655","-28.175817","94.79","SAO JORGE, PO","FM-15","LPSJ ","V020","999,9,V,0021,1","22000,1,9,N","011265,1,N,1","+0180,1","+0160,1","99999,9","04,5,+00390,1,99,9",,,,"04,99,1,99,9,99,9,99999,9,99,9,99,9",,"10071,1,99999,9",,,,,,"MET088METAR LPSJ 301500Z /////KT 9999 SCT013 18/16 Q1007 RMK WIND RWY13 VRB04KT RWY31 VRB06KT;",
"08509599999","2010-12-30T16:00:00","4","38.6655","-28.175817","94.79","SAO JORGE, PO","FM-15","LPSJ ","V020","999,9,9,9999,9","22000,1,9,N","011265,1,N,1","+0170,1","+0160,1","99999,9","04,5,+00360,1,99,9",,,,"04,99,1,99,9,99,9,99999,9,99,9,99,9",,"10061,1,99999,9",,,,,,"MET088METAR LPSJ 301600Z /////KT 9999 SCT012 17/16 Q1006 RMK WIND RWY13 30006KT RWY31 29006KT;",
"08509599999","2010-12-31T09:00:00","4","38.6655","-28.175817","94.79","SAO JORGE, PO","FM-15","LPSJ ","V020","999,9,V,0021,1","22000,1,9,N","011265,1,N,1","+0230,1","+0110,1","99999,9","02,5,+00600,1,99,9",,,,"02,99,1,99,9,99,9,99999,9,99,9,99,9",,"10119,1,99999,9",,,,,,"MET088METAR LPSJ 310900Z /////KT 9999 FEW020 23/11 Q1012 RMK WIND RWY13 VRB04KT RWY31 VRB05KT;",
"08509599999","2010-12-31T10:00:00","4","38.6655","-28.175817","94.79","SAO JORGE, PO","FM-15","LPSJ ","V020","999,9,V,0026,1","99999,9,C,N","011265,1,N,1","+0130,2","+0110,1","99999,9","02,5,+00600,1,99,9","04,5,+06000,1,99,9",,,"04,99,1,99,9,99,9,99999,9,99,9,99,9",,"10119,1,99999,9",,,,,,"MET095METAR LPSJ 311000Z /////KT 9999 FEW020 SCT200 13/11 Q1012 RMK WIND RWY13 VRB05KT RWY31 VRB05KT;","P01 060003SCOCIG"
"08509599999","2010-12-31T11:00:00","4","38.6655","-28.175817","94.79","SAO JORGE, PO","FM-15","LPSJ ","V020","999,9,V,0036,1","06000,1,C,N","011265,1,N,1","+0160,1","+0120,1","99999,9","02,5,+00600,1,99,9","07,5,+06000,1,99,9",,,"07,99,1,99,9,99,9,99999,9,99,9,99,9",,"10119,1,99999,9",,,,,,"MET095METAR LPSJ 311100Z /////KT 9999 FEW020 BKN200 16/12 Q1012 RMK WIND RWY13 VRB07KT RWY31 VRB05KT;",
"08509599999","2010-12-31T12:00:00","4","38.6655","-28.175817","94.79","SAO JORGE, PO","FM-15","LPSJ ","V020","999,9,9,9999,9","06000,1,C,N","011265,1,N,1","+0180,1","+0140,1","99999,9","02,5,+00600,1,99,9","07,5,+06000,1,99,9",,,"07,99,1,99,9,99,9,99999,9,99,9,99,9",,"10129,1,99999,9",,,,,,"MET103METAR LPSJ 311200Z /////KT 9999 FEW020 BKN200 18/14 Q1013 RMK WIND RWY13 14009KT 110V170 RWY31 13009KT;",
